20180101_000000.002,0,RJAA,,,,0,20180101000000,-1,-1,-1,-1,300,-1,3,-1,-1,250,340,,8000,0,0,1,FEW 20,1,3,1,1,1012,RJAA 010000Z 30003KT 250V340 8000 FEW020 03/01 Q1012 NOSIG RMK     1CU020 A2989=,
20180101_003000.001,0,RJAA,,,,0,20180101000000,-1,-1,-1,-1,310,-1,6,-1,-1,-1,-1,,8000,0,0,1,FEW 20,1,4,1,1,1012,RJAA 010030Z 31006KT 8000 FEW020 04/01 Q1012 NOSIG RMK 1CU020     A2990=,
20180101_010000.002,0,RJAA,,,,0,20180101010000,-1,-1,-1,-1,300,-1,5,-1,-1,-1,-1,,8000,0,0,1,FEW 20,1,6,1,2,1012,RJAA 010100Z 30005KT 8000 FEW020 06/02 Q1012 NOSIG RMK 1CU020     A2990=,
20180101_013000.001,0,RJAA,,,,0,20180101010000,-1,-1,-1,-1,280,-1,6,-1,-1,260,320,,9000,0,0,1,FEW 30,1,6,1,2,1012,RJAA 010130Z 28006KT 260V320 9000 FEW030 06/02 Q1012 NOSIG RMK     1CU030 A2989=,
20180101_020000.002,0,RJAA,,,,0,20180101020000,-1,-1,-1,-1,290,-1,5,-1,-1,240,320,,9999,0,0,1,FEW 30,1,8,1,2,1011,RJAA 010200Z 29005KT 240V320 9999 FEW030 08/02 Q1011 NOSIG RMK     1CU030 A2988=,
20180101_023000.001,0,RJAA,,,,0,20180101020000,-1,-1,-1,-1,999,-1,5,-1,-1,-1,-1,,9999,0,0,1,FEW 30,1,9,1,1,1011,RJAA 010230Z VRB05KT 9999 FEW030 09/01 Q1011 BECMG 30010KT RMK     1CU030 A2986=,
20180101_030000.002,0,RJAA,,,,0,20180101030000,-1,-1,-1,-1,280,-1,7,-1,-1,250,310,,9999,0,0,1,FEW 30,1,11,-1,2,1010,RJAA 010300Z 28007KT 250V310 9999 FEW030 11/M02 Q1010 NOSIG     RMK 1CU030 A2984=,
20180101_033000.001,0,RJAA,,,,0,20180101030000,-1,-1,-1,-1,310,-1,12,-1,-1,270,340,,9999,0,0,1,FEW 30,1,11,-1,4,1010,RJAA 010330Z 31012KT 270V340 9999 FEW030 11/M04 Q1010 TEMPO     30015G25KT RMK 1CU030 A2984=,
20180101_040000.002,0,RJAA,,,,0,20180101040000,-1,-1,-1,-1,300,-1,13,-1,25,-1,-1,,9999,0,0,1,FEW 30,1,12,-1,5,1010,RJAA 010400Z 30013G25KT 9999 FEW030 12/M05 Q1010 NOSIG RMK     1CU030 A2983=,
20180101_043000.001,0,RJAA,,,,0,20180101040000,-1,-1,-1,-1,310,-1,13,-1,-1,-1,-1,,9999,0,0,1,FEW 30,1,12,-1,5,1010,RJAA 010430Z 31013KT 9999 FEW030 12/M05 Q1010 WS R34R TEMPO     30015G25KT RMK 1CU030 A2983=,
20180101_050000.002,0,RJAA,,,,0,20180101050000,-1,-1,-1,-1,310,-1,13,-1,-1,260,330,,9999,0,0,1,FEW 30,1,12,-1,6,1010,RJAA 010500Z 31013KT 260V330 9999 FEW030 12/M06 Q1010 WS R34R     TEMPO 30015G25KT RMK 1CU030 A2983=,
20180101_053000.001,0,RJAA,,,,0,20180101050000,-1,-1,-1,-1,310,-1,12,-1,-1,-1,-1,,9999,0,0,1,FEW 30,1,12,-1,7,1010,RJAA 010530Z 31012KT 9999 FEW030 12/M07 Q1010 WS R34R NOSIG     RMK 1CU030 A2983=,
20180101_060000.002,0,RJAA,,,,0,20180101060000,-1,-1,-1,-1,320,-1,15,-1,-1,-1,-1,,9999,0,0,1,FEW 30,1,12,-1,6,1010,RJAA 010600Z 32015KT 9999 FEW030 12/M06 Q1010 TEMPO 30015G25KT     RMK 1CU030 A2984=,
20180101_063000.001,0,RJAA,,,,0,20180101060000,-1,-1,-1,-1,310,-1,12,-1,-1,240,330,,9999,0,0,1,FEW 30,1,12,-1,6,1010,RJAA 010630Z 31012KT 240V330 9999 FEW030 12/M06 Q1010 WS R34R     NOSIG RMK 1CU030 A2984=,
20180101_070000.002,0,RJAA,,,,0,20180101070000,-1,-1,-1,-1,310,-1,9,-1,-1,270,350,,9999,0,0,1,FEW 30,1,11,-1,6,1010,RJAA 010700Z 31009KT 270V350 9999 FEW030 11/M06 Q1010 WS R34R     NOSIG RMK 1CU030 A2985=,
20180101_073000.001,0,RJAA,,,,0,20180101070000,-1,-1,-1,-1,300,-1,7,-1,-1,260,320,,9999,0,0,1,FEW 30,1,10,-1,6,1011,RJAA 010730Z 30007KT 260V320 9999 FEW030 10/M06 Q1011 NOSIG     RMK 1CU030 A2986=,
20180101_080000.002,0,RJAA,,,,0,20180101080000,-1,-1,-1,-1,290,-1,3,-1,-1,250,310,,9999,0,0,1,FEW 30,1,9,-1,5,1011,RJAA 010800Z 29003KT 250V310 9999 FEW030 09/M05 Q1011 NOSIG     RMK 1CU030 A2988=,
20180101_083000.001,0,RJAA,,,,0,20180101080000,-1,-1,-1,-1,280,-1,3,-1,-1,-1,-1,,9999,0,0,1,FEW 30,1,8,-1,5,1012,RJAA 010830Z 28003KT 9999 FEW030 08/M05 Q1012 NOSIG RMK 1CU030     A2989=,
20180101_090000.002,0,RJAA,,,,0,20180101090000,-1,-1,-1,-1,270,-1,3,-1,-1,-1,-1,,9999,0,0,1,FEW 30,1,6,-1,4,1012,RJAA 010900Z 27003KT 9999 FEW030 06/M04 Q1012 NOSIG RMK 1CU030     A2990=,
20180101_093000.001,0,RJAA,,,,0,20180101090000,-1,-1,-1,-1,270,-1,4,-1,-1,230,300,,9999,0,0,1,FEW 30,1,7,-1,5,1012,RJAA 010930Z 27004KT 230V300 9999 FEW030 07/M05 Q1012 NOSIG     RMK 1CU030 A2991=,
20180101_100000.002,0,RJAA,,,,0,20180101100000,-1,-1,-1,-1,270,-1,4,-1,-1,-1,-1,,9999,0,0,1,FEW 30,1,6,-1,5,1013,RJAA 011000Z 27004KT 9999 FEW030 06/M05 Q1013 NOSIG RMK 1CU030     A2992=,
20180101_103000.001,0,RJAA,,,,0,20180101100000,-1,-1,-1,-1,300,-1,6,-1,-1,-1,-1,,9999,0,0,1,FEW 30,1,6,-1,5,1013,RJAA 011030Z 30006KT 9999 FEW030 06/M05 Q1013 NOSIG RMK 1CU030     A2992=,
20180101_110000.002,0,RJAA,,,,0,20180101110000,-1,-1,-1,-1,300,-1,5,-1,-1,-1,-1,,9999,0,0,1,FEW 30,1,6,-1,5,1013,RJAA 011100Z 30005KT 9999 FEW030 06/M05 Q1013 NOSIG RMK 1CU030     A2992=,
20180101_113000.001,0,RJAA,,,,0,20180101110000,-1,-1,-1,-1,300,-1,4,-1,-1,-1,-1,,9999,0,0,1,FEW 30,1,5,-1,5,1013,RJAA 011130Z 30004KT 9999 FEW030 05/M05 Q1013 NOSIG RMK 1CU030     A2993=,
20180101_120000.002,0,RJAA,,,,0,20180101120000,-1,-1,-1,-1,280,-1,4,-1,-1,-1,-1,,9999,0,0,1,FEW 30,1,4,-1,5,1013,RJAA 011200Z 28004KT 9999 FEW030 04/M05 Q1013 NOSIG RMK 1CU030     A2993=,
20180101_123000.001,0,RJAA,,,,0,20180101120000,-1,-1,-1,-1,290,-1,5,-1,-1,-1,-1,,9999,0,0,1,FEW 30,1,5,-1,5,1013,RJAA 011230Z 29005KT 9999 FEW030 05/M05 Q1013 NOSIG RMK 1CU030     A2994=,
20180101_130000.002,0,RJAA,,,,0,20180101130000,-1,-1,-1,-1,310,-1,5,-1,-1,-1,-1,,9999,0,0,1,FEW 30,1,4,-1,5,1014,RJAA 011300Z 31005KT 9999 FEW030 04/M05 Q1014 NOSIG RMK 1CU030     A2994=,
20180101_133000.001,0,RJAA,,,,0,20180101130000,-1,-1,-1,-1,310,-1,9,-1,-1,-1,-1,,9999,0,0,1,FEW 30,1,5,-1,5,1014,RJAA 011330Z 31009KT 9999 FEW030 05/M05 Q1014 NOSIG RMK 1CU030     A2994=,
20180101_140000.002,0,RJAA,,,,0,20180101140000,-1,-1,-1,-1,300,-1,8,-1,-1,-1,-1,,9999,0,0,1,FEW 30,1,5,-1,6,1014,RJAA 011400Z 30008KT 9999 FEW030 05/M06 Q1014 NOSIG RMK 1CU030     A2995=,
20180101_143000.001,0,RJAA,,,,0,20180101140000,-1,-1,-1,-1,300,-1,8,-1,-1,-1,-1,,9999,0,0,1,FEW 30,1,5,-1,6,1014,RJAA 011430Z 30008KT 9999 FEW030 05/M06 Q1014 NOSIG RMK 1CU030     A2994=,
20180101_150000.002,0,RJAA,,,,0,20180101150000,-1,-1,-1,-1,290,-1,7,-1,-1,260,320,,9999,0,0,1,FEW 30,1,5,-1,6,1013,RJAA 011500Z 29007KT 260V320 9999 FEW030 05/M06 Q1013 NOSIG     RMK 1CU030 A2994=,
20180101_153000.001,0,RJAA,,,,0,20180101150000,-1,-1,-1,-1,290,-1,7,-1,-1,-1,-1,,9999,0,0,1,FEW 30,1,4,-1,6,1013,RJAA 011530Z 29007KT 9999 FEW030 04/M06 Q1013 NOSIG RMK 1CU030     A2993=,
20180101_160000.002,0,RJAA,,,,0,20180101160000,-1,-1,-1,-1,300,-1,12,-1,-1,-1,-1,,9999,0,0,1,FEW 30,1,5,-1,6,1013,RJAA 011600Z 30012KT 9999 FEW030 05/M06 Q1013 NOSIG RMK 1CU030     A2993=,
20180101_163000.001,0,RJAA,,,,0,20180101160000,-1,-1,-1,-1,320,-1,22,-1,-1,-1,-1,,9999,0,0,1,FEW 30,1,5,-1,6,1014,RJAA 011630Z 32022KT 9999 FEW030 05/M06 Q1014 TEMPO 32022G32KT     RMK 1CU030 A2995=,
20180101_170000.002,0,RJAA,,,,0,20180101170000,-1,-1,-1,-1,300,-1,11,-1,-1,-1,-1,,9999,0,0,1,FEW 30,1,5,-1,6,1014,RJAA 011700Z 30011KT 9999 FEW030 05/M06 Q1014 NOSIG RMK 1CU030     A2995=,
20180101_173000.001,0,RJAA,,,,0,20180101170000,-1,-1,-1,-1,280,-1,9,-1,-1,240,300,,9999,0,0,1,FEW 30,1,5,-1,6,1014,RJAA 011730Z 28009KT 240V300 9999 FEW030 05/M06 Q1014 NOSIG     RMK 1CU030 A2995=,
20180101_180000.003,0,RJAA,,,,0,20180101180000,-1,-1,-1,-1,270,-1,12,-1,-1,240,300,,9999,0,0,1,FEW 30,1,5,-1,6,1014,RJAA 011800Z 27012KT 240V300 9999 FEW030 05/M06 Q1014 NOSIG     RMK 1CU030 A2995=,
20180101_183000.001,0,RJAA,,,,0,20180101180000,-1,-1,-1,-1,280,-1,13,-1,-1,-1,-1,,9999,0,0,1,FEW 30,1,5,-1,7,1014,RJAA 011830Z 28013KT 9999 FEW030 05/M07 Q1014 NOSIG RMK 1CU030     A2994=,
20180101_190000.003,0,RJAA,,,,0,20180101190000,-1,-1,-1,-1,280,-1,11,-1,21,250,310,,9999,0,0,1,FEW 30,1,5,-1,7,1013,RJAA 011900Z 28011G21KT 250V310 9999 FEW030 05/M07 Q1013 NOSIG     RMK 1CU030 A2993=,
20180101_193000.001,0,RJAA,,,,0,20180101190000,-1,-1,-1,-1,280,-1,8,-1,-1,250,310,,9999,0,0,1,FEW 30,1,5,-1,6,1014,RJAA 011930Z 28008KT 250V310 9999 FEW030 05/M06 Q1014 NOSIG     RMK 1CU030 A2995=,
20180101_200000.003,0,RJAA,,,,0,20180101200000,-1,-1,-1,-1,280,-1,7,-1,-1,250,320,,9999,0,0,1,FEW 30,1,4,-1,6,1014,RJAA 012000Z 28007KT 250V320 9999 FEW030 04/M06 Q1014 NOSIG     RMK 1CU030 A2996=,
20180101_203000.001,0,RJAA,,,,0,20180101200000,-1,-1,-1,-1,280,-1,10,-1,-1,240,310,,9999,0,0,1,FEW 30,1,4,-1,6,1014,RJAA 012030Z 28010KT 240V310 9999 FEW030 04/M06 Q1014 NOSIG     RMK 1CU030 A2996=,
20180101_210000.002,0,RJAA,,,,0,20180101210000,-1,-1,-1,-1,290,-1,6,-1,-1,260,320,,9999,0,0,1,FEW 30,1,4,-1,6,1015,RJAA 012100Z 29006KT 260V320 9999 FEW030 04/M06 Q1015 NOSIG     RMK 1CU030 A2998=,
20180101_213000.001,0,RJAA,,,,0,20180101210000,-1,-1,-1,-1,320,-1,4,-1,-1,-1,-1,,9999,0,0,1,FEW 30,1,2,-1,6,1015,RJAA 012130Z 32004KT 9999 FEW030 02/M06 Q1015 NOSIG RMK 1CU030     A2999=,
20180101_220000.002,0,RJAA,,,,0,20180101220000,-1,-1,-1,-1,320,-1,3,-1,-1,-1,-1,,9999,0,0,1,FEW 30,1,1,-1,6,1015,RJAA 012200Z 32003KT 9999 FEW030 01/M06 Q1015 NOSIG RMK 1CU030     A3000=,
20180101_223000.002,0,RJAA,,,,0,20180101220000,-1,-1,-1,-1,999,-1,1,-1,-1,-1,-1,,9999,0,0,1,FEW 30,1,2,-1,5,1016,RJAA 012230Z VRB01KT 9999 FEW030 02/M05 Q1016 BECMG 30008KT     RMK 1CU030 A3000=,
20180101_230000.002,0,RJAA,,,,0,20180101230000,-1,-1,-1,-1,999,-1,2,-1,-1,-1,-1,,9999,0,0,1,FEW 30,1,4,-1,5,1016,RJAA 012300Z VRB02KT 9999 FEW030 04/M05 Q1016 BECMG 30008KT     RMK 1CU030 A3000=,
20180101_233000.001,0,RJAA,,,,0,20180101230000,-1,-1,-1,-1,300,-1,8,-1,-1,240,340,,9999,0,0,1,FEW 30,1,6,-1,6,1016,RJAA 012330Z 30008KT 240V340 9999 FEW030 06/M06 Q1016 NOSIG     RMK 1CU030 A3001=,
20180102_000000.003,0,RJAA,,,,0,20180102000000,-1,-1,-1,-1,290,-1,9,-1,-1,260,320,,9999,0,0,1,FEW 30,1,7,-1,6,1016,RJAA 020000Z 29009KT 260V320 9999 FEW030 07/M06 Q1016 WS R34R     TEMPO 30018G30KT RMK 1CU030 A3001=,
20180102_003000.001,0,RJAA,,,,0,20180102000000,-1,-1,-1,-1,280,-1,10,-1,-1,240,310,,9999,0,0,1,FEW 30,1,7,-1,7,1016,RJAA 020030Z 28010KT 240V310 9999 FEW030 07/M07 Q1016 WS R34R     TEMPO 30018G30KT RMK 1CU030 A3001=,
20180102_010000.003,0,RJAA,,,,0,20180102010000,-1,-1,-1,-1,290,-1,13,-1,23,-1,-1,,9999,0,0,1,FEW 30,1,8,-1,7,1016,RJAA 020100Z 29013G23KT 9999 FEW030 08/M07 Q1016 WS R34R NOSIG     RMK 1CU030 A3000=,
20180102_013000.001,0,RJAA,,,,0,20180102010000,-1,-1,-1,-1,290,-1,15,-1,-1,260,320,,9999,0,0,1,FEW 30,1,8,-1,8,1015,RJAA 020130Z 29015KT 260V320 9999 FEW030 08/M08 Q1015 WS R34L     WS R34R TEMPO 30018G30KT RMK 1CU030 A3000=,
20180102_020000.002,0,RJAA,,,,0,20180102020000,-1,-1,-1,-1,290,-1,16,-1,-1,260,330,,9999,0,0,1,FEW 30,1,8,-1,8,1015,RJAA 020200Z 29016KT 260V330 9999 FEW030 08/M08 Q1015 WS R34L     WS R34R TEMPO 30018G30KT RMK 1CU030 A2998=,
20180102_023000.001,0,RJAA,,,,0,20180102020000,-1,-1,-1,-1,290,-1,14,-1,27,250,320,,9999,0,0,1,FEW 30,1,9,-1,8,1014,RJAA 020230Z 29014G27KT 250V320 9999 FEW030 09/M08 Q1014 WS     R34R NOSIG RMK 1CU030 A2996=,
20180102_030000.002,0,RJAA,,,,0,20180102030000,-1,-1,-1,-1,290,-1,12,-1,26,250,320,,9999,0,0,1,FEW 30,1,9,-1,8,1014,RJAA 020300Z 29012G26KT 250V320 9999 FEW030 09/M08 Q1014 WS     R34L WS R34R NOSIG RMK 1CU030 A2996 MOD TURB OBS AT 0230Z           ON FNA RWY34R 1000FT AND BLW IN DES A333 AFL260=,
20180102_033000.001,0,RJAA,,,,0,20180102030000,-1,-1,-1,-1,280,-1,14,-1,24,250,320,,9999,0,0,1,FEW 30,1,9,-1,9,1014,RJAA 020330Z 28014G24KT 250V320 9999 FEW030 09/M09 Q1014 NOSIG     RMK 1CU030 A2995=,
20180102_040000.002,0,RJAA,,,,0,20180102040000,-1,-1,-1,-1,290,-1,11,-1,22,250,330,,9999,0,0,1,FEW 30,1,9,-1,8,1013,RJAA 020400Z 29011G22KT 250V330 9999 FEW030 09/M08 Q1013 WS     R34R NOSIG RMK 1CU030 A2992=,
20180102_043000.001,0,RJAA,,,,0,20180102040000,-1,-1,-1,-1,290,-1,13,-1,-1,250,330,,9999,0,0,1,FEW 30,1,9,-1,9,1013,RJAA 020430Z 29013KT 250V330 9999 FEW030 09/M09 Q1013 WS R34R     TEMPO 30016G28KT RMK 1CU030 A2992=,
20180102_050000.002,0,RJAA,,,,0,20180102050000,-1,-1,-1,-1,290,-1,16,-1,27,260,320,,9999,0,0,1,FEW 30,1,9,-1,9,1013,RJAA 020500Z 29016G27KT 260V320 9999 FEW030 09/M09 Q1013 WS     R34R NOSIG RMK 1CU030 A2992=,
20180102_053000.001,0,RJAA,,,,0,20180102050000,-1,-1,-1,-1,320,-1,11,-1,-1,-1,-1,,9999,0,0,1,FEW 30,1,10,-1,9,1013,RJAA 020530Z 32011KT 9999 FEW030 10/M09 Q1013 NOSIG RMK 1CU030     A2992=,
20180102_060000.002,0,RJAA,,,,0,20180102060000,-1,-1,-1,-1,310,-1,12,-1,-1,270,340,,9999,0,0,1,FEW 30,1,10,-1,10,1013,RJAA 020600Z 31012KT 270V340 9999 FEW030 10/M10 Q1013 WS R34R     NOSIG RMK 1CU030 A2992=,
20180102_063000.001,0,RJAA,,,,0,20180102060000,-1,-1,-1,-1,290,-1,10,-1,-1,-1,-1,,9999,0,0,1,FEW 30,1,9,-1,10,1013,RJAA 020630Z 29010KT 9999 FEW030 09/M10 Q1013 WS R34R NOSIG     RMK 1CU030 A2992=,
20180102_070000.002,0,RJAA,,,,0,20180102070000,-1,-1,-1,-1,300,-1,9,-1,-1,-1,-1,,9999,0,0,1,FEW 40,1,9,-1,9,1013,RJAA 020700Z 30009KT 9999 FEW040 09/M09 Q1013 NOSIG RMK 1CU040     A2993=,
20180102_073000.001,0,RJAA,,,,0,20180102070000,-1,-1,-1,-1,290,-1,6,-1,-1,-1,-1,,9999,0,0,1,FEW 40,1,8,-1,9,1013,RJAA 020730Z 29006KT 9999 FEW040 08/M09 Q1013 NOSIG RMK 1CU040     A2993=,
20180102_080000.002,0,RJAA,,,,0,20180102080000,-1,-1,-1,-1,290,-1,4,-1,-1,250,320,,9999,0,0,1,FEW 40,1,7,-1,9,1013,RJAA 020800Z 29004KT 250V320 9999 FEW040 07/M09 Q1013 NOSIG     RMK 1CU040 A2993=,
20180102_083000.001,0,RJAA,,,,0,20180102080000,-1,-1,-1,-1,250,-1,3,-1,-1,-1,-1,,9999,0,0,1,FEW 30,1,5,-1,7,1013,RJAA 020830Z 25003KT 9999 FEW030 05/M07 Q1013 NOSIG RMK 1CU030     A2993=,
20180102_090000.002,0,RJAA,,,,0,20180102090000,-1,-1,-1,-1,240,-1,3,-1,-1,-1,-1,,9999,0,0,1,FEW 30,1,4,-1,8,1013,RJAA 020900Z 24003KT 9999 FEW030 04/M08 Q1013 BECMG 23005KT     RMK 1CU030 A2992=,
20180102_093000.001,0,RJAA,,,,0,20180102090000,-1,-1,-1,-1,210,-1,4,-1,-1,-1,-1,,9999,0,0,1,FEW 30,1,3,-1,6,1012,RJAA 020930Z 21004KT 9999 FEW030 03/M06 Q1012 NOSIG RMK 1CU030     A2991=,
20180102_100000.002,0,RJAA,,,,0,20180102100000,-1,-1,-1,-1,210,-1,4,-1,-1,-1,-1,,9999,0,0,1,FEW 30,1,2,-1,5,1012,RJAA 021000Z 21004KT 9999 FEW030 02/M05 Q1012 NOSIG RMK 1CU030     A2990=,
20180102_103000.001,0,RJAA,,,,0,20180102100000,-1,-1,-1,-1,220,-1,4,-1,-1,-1,-1,,9999,0,0,1,FEW 30,1,1,-1,6,1011,RJAA 021030Z 22004KT 9999 FEW030 01/M06 Q1011 NOSIG RMK 1CU030     A2987 MOD TURB OBS AT 1000Z 20NM NW CUPID BTN 11000FT AND           13000FT IN CMB B787 UAL142=,
20180102_110000.002,0,RJAA,,,,0,20180102110000,-1,-1,-1,-1,220,-1,3,-1,-1,-1,-1,,9999,0,0,1,FEW 30,1,2,-1,6,1011,RJAA 021100Z 22003KT 9999 FEW030 02/M06 Q1011 NOSIG RMK 1CU030     A2986 MOD TURB OBS AT 1033Z 15NM N NARITA 9000FT IN CMB           A320 VNL135=,
20180102_113000.001,0,RJAA,,,,0,20180102110000,-1,-1,-1,-1,200,-1,3,-1,-1,160,220,,9999,0,0,1,FEW 30,1,0,-1,5,1010,RJAA 021130Z 20003KT 160V220 9999 FEW030 00/M05 Q1010 NOSIG     RMK 1CU030 A2984=,
20180102_120000.002,0,RJAA,,,,0,20180102120000,-1,-1,-1,-1,200,-1,4,-1,-1,-1,-1,,9999,0,0,1,FEW 30,1,1,-1,6,1010,RJAA 021200Z 20004KT 9999 FEW030 01/M06 Q1010 NOSIG RMK 1CU030     A2983=,
20180102_123000.001,0,RJAA,,,,0,20180102120000,-1,-1,-1,-1,999,-1,1,-1,-1,-1,-1,,9999,0,0,1,FEW 30,1,1,-1,6,1010,RJAA 021230Z VRB01KT 9999 FEW030 01/M06 Q1010 NOSIG RMK 1CU030     A2982 MOD TURB OBS AT 1218Z BINKS BTN 12000FT AND 8000FT           IN DES A320 JJP606=,
20180102_130000.003,0,RJAA,,,,0,20180102130000,-1,-1,-1,-1,210,-1,5,-1,-1,-1,-1,,9999,0,0,1,FEW 30,1,0,-1,6,1009,RJAA 021300Z 21005KT 9999 FEW030 00/M06 Q1009 NOSIG RMK 1CU030     A2982=,
20180102_133000.001,0,RJAA,,,,0,20180102130000,-1,-1,-1,-1,250,-1,2,-1,-1,-1,-1,,9999,0,0,1,FEW 30,1,1,-1,7,1009,RJAA 021330Z 25002KT 9999 FEW030 01/M07 Q1009 NOSIG RMK 1CU030     A2981=,
20180102_140000.003,0,RJAA,,,,0,20180102140000,-1,-1,-1,-1,999,-1,1,-1,-1,-1,-1,,9999,0,0,1,FEW 30,-1,0,-1,6,1009,RJAA 021400Z VRB01KT 9999 FEW030 M00/M06 Q1009 NOSIG RMK     1CU030 A2981=,
20180102_143000.001,0,RJAA,,,,0,20180102140000,-1,-1,-1,-1,330,-1,6,-1,-1,-1,-1,,9999,0,0,1,FEW 30,-1,1,-1,6,1009,RJAA 021430Z 33006KT 9999 FEW030 M01/M06 Q1009 NOSIG RMK     1CU030 A2980=,
20180102_150000.002,0,RJAA,,,,0,20180102150000,-1,-1,-1,-1,290,-1,6,-1,-1,-1,-1,,9999,0,0,1,FEW 30,1,2,-1,6,1009,RJAA 021500Z 29006KT 9999 FEW030 02/M06 Q1009 NOSIG RMK 1CU030     A2980=,
20180102_153000.001,0,RJAA,,,,0,20180102150000,-1,-1,-1,-1,300,-1,3,-1,-1,250,330,,9999,0,0,1,FEW 30,-1,0,-1,6,1009,RJAA 021530Z 30003KT 250V330 9999 FEW030 M00/M06 Q1009 NOSIG     RMK 1CU030 A2980=,
20180102_160000.002,0,RJAA,,,,0,20180102160000,-1,-1,-1,-1,290,-1,4,-1,-1,-1,-1,,9999,0,0,1,FEW 30,1,1,-1,6,1009,RJAA 021600Z 29004KT 9999 FEW030 01/M06 Q1009 NOSIG RMK 1CU030     A2979=,
20180102_163000.001,0,RJAA,,,,0,20180102160000,-1,-1,-1,-1,340,-1,10,-1,-1,-1,-1,,9999,0,0,1,FEW 30,1,0,-1,5,1008,RJAA 021630Z 34010KT 9999 FEW030 00/M05 Q1008 NOSIG RMK 1CU030     A2979=,
20180102_170000.002,0,RJAA,,,,0,20180102170000,-1,-1,-1,-1,290,-1,6,-1,-1,250,330,,9999,0,0,1,FEW 20,1,2,-1,5,1008,RJAA 021700Z 29006KT 250V330 9999 FEW020 02/M05 Q1008 NOSIG     RMK 1CU020 A2979=,
20180102_173000.001,0,RJAA,,,,0,20180102170000,-1,-1,-1,-1,330,-1,5,-1,-1,-1,-1,,9999,0,0,1,FEW 20,1,1,-1,4,1009,RJAA 021730Z 33005KT 9999 FEW020 01/M04 Q1009 NOSIG RMK 1CU020     A2981=,
20180102_180000.003,0,RJAA,,,,0,20180102180000,-1,-1,-1,-1,320,-1,4,-1,-1,-1,-1,,9999,0,0,1,FEW 20,1,2,-1,4,1009,RJAA 021800Z 32004KT 9999 FEW020 02/M04 Q1009 NOSIG RMK 1CU020     A2982=,
20180102_183000.001,0,RJAA,,,,0,20180102180000,-1,-1,-1,-1,999,-1,2,-1,-1,-1,-1,,9999,0,0,1,FEW 30,1,1,-1,4,1010,RJAA 021830Z VRB02KT 9999 FEW030 01/M04 Q1010 NOSIG RMK 1CU030     A2982=,
20180102_190000.002,0,RJAA,,,,0,20180102190000,-1,-1,-1,-1,340,-1,7,-1,-1,-1,-1,,9999,0,0,1,FEW 30,1,1,-1,3,1010,RJAA 021900Z 34007KT 9999 FEW030 01/M03 Q1010 NOSIG RMK 1CU030     A2983=,
20180102_193000.001,0,RJAA,,,,0,20180102190000,-1,-1,-1,-1,330,-1,5,-1,-1,-1,-1,,9999,0,0,1,FEW 30,1,1,-1,3,1010,RJAA 021930Z 33005KT 9999 FEW030 01/M03 Q1010 NOSIG RMK 1CU030     A2983=,
20180102_200000.003,0,RJAA,,,,0,20180102200000,-1,-1,-1,-1,360,-1,5,-1,-1,-1,-1,,9999,0,0,1,FEW 30,-1,1,-1,4,1010,RJAA 022000Z 36005KT 9999 FEW030 M01/M04 Q1010 NOSIG RMK     1CU030 A2984=,
20180102_203000.001,0,RJAA,,,,0,20180102200000,-1,-1,-1,-1,999,-1,1,-1,-1,-1,-1,,9999,0,0,1,FEW 30,-1,1,-1,4,1010,RJAA 022030Z VRB01KT 9999 FEW030 M01/M04 Q1010 NOSIG RMK     1CU030 A2984=,
20180102_210000.002,0,RJAA,,,,0,20180102210000,-1,-1,-1,-1,999,-1,2,-1,-1,-1,-1,,9999,0,0,1,FEW 30,-1,2,-1,4,1011,RJAA 022100Z VRB02KT 9999 FEW030 M02/M04 Q1011 NOSIG RMK     1CU030 A2986=,
20180102_213000.001,0,RJAA,,,,0,20180102210000,-1,-1,-1,-1,210,-1,1,-1,-1,-1,-1,,9999,0,0,1,FEW 30,-1,3,-1,5,1011,RJAA 022130Z 21001KT 9999 FEW030 M03/M05 Q1011 NOSIG RMK     1CU030 A2987=,
20180102_220000.002,0,RJAA,,,,0,20180102220000,-1,-1,-1,-1,340,-1,3,-1,-1,290,40,,9999,0,0,1,FEW 30,-1,2,-1,3,1012,RJAA 022200Z 34003KT 290V040 9999 FEW030 M02/M03 Q1012 BECMG     30015KT RMK 1CU030 A2988 MOD TURB OBS AT 2132Z 40NM S           NARITA 10000FT IN DES B789 HVN310=,
20180102_223000.002,0,RJAA,,,,0,20180102220000,-1,-1,-1,-1,300,-1,5,-1,-1,-1,-1,,9999,0,0,1,FEW 30,1,1,-1,4,1012,RJAA 022230Z 30005KT 9999 FEW030 01/M04 Q1012 BECMG 30015KT     RMK 1CU030 A2989=,
20180102_230000.002,0,RJAA,,,,0,20180102230000,-1,-1,-1,-1,310,-1,10,-1,-1,-1,-1,,9999,0,0,1,FEW 30,1,2,-1,5,1012,RJAA 022300Z 31010KT 9999 FEW030 02/M05 Q1012 NOSIG RMK 1CU030     A2990=,
20180102_233000.001,0,RJAA,,,,0,20180102230000,-1,-1,-1,-1,290,-1,8,-1,-1,260,330,,9999,0,0,1,FEW 30,1,3,-1,6,1013,RJAA 022330Z 29008KT 260V330 9999 FEW030 03/M06 Q1013 TEMPO     30015G25KT RMK 1CU030 A2992=,
20180103_000000.002,0,RJAA,,,,0,20180103000000,-1,-1,-1,-1,280,-1,8,-1,-1,-1,-1,,9999,0,0,1,FEW 30,1,4,-1,6,1013,RJAA 030000Z 28008KT 9999 FEW030 04/M06 Q1013 TEMPO 30015G25KT     RMK 1CU030 A2992=,
20180103_003000.001,0,RJAA,,,,0,20180103000000,-1,-1,-1,-1,300,-1,15,-1,26,260,350,,9999,0,0,1,FEW 30,1,4,-1,8,1013,RJAA 030030Z 30015G26KT 260V350 9999 FEW030 04/M08 Q1013 WS     R34R NOSIG RMK 1CU030 A2992=,
20180103_010000.002,0,RJAA,,,,0,20180103010000,-1,-1,-1,-1,310,-1,19,-1,29,-1,-1,,9999,0,0,1,FEW 30,1,5,-1,9,1013,RJAA 030100Z 31019G29KT 9999 FEW030 05/M09 Q1013 WS R34R NOSIG     RMK 1CU030 A2992=,
20180103_013000.001,0,RJAA,,,,0,20180103010000,-1,-1,-1,-1,290,-1,14,-1,-1,260,330,,9999,0,0,1,FEW 30,1,5,-1,10,1013,RJAA 030130Z 29014KT 260V330 9999 FEW030 05/M10 Q1013 TEMPO     30026G42KT RMK 1CU030 A2991 LIGHT TO MOD TURB OBS AT           0114Z ON FNA RWY34R 500FT AND BLW IN DES B738 TWB201=,
20180103_020000.002,0,RJAA,,,,0,20180103020000,-1,-1,-1,-1,300,-1,14,-1,-1,260,330,,9999,0,0,1,FEW 30,1,6,-1,11,1012,RJAA 030200Z 30014KT 260V330 9999 FEW030 06/M11 Q1012 WS R34R     TEMPO 30026G42KT RMK 1CU030 A2989=,
20180103_023000.001,0,RJAA,,,,0,20180103020000,-1,-1,-1,-1,300,-1,17,-1,-1,260,330,,9999,0,0,1,FEW 30,1,6,-1,11,1011,RJAA 030230Z 30017KT 260V330 9999 FEW030 06/M11 Q1011 WS R34L     TEMPO 30026G42KT RMK 1CU030 A2987 WS PS MS 10KT - 15KT           OBS AT 0201Z ON DEP COURSE RWY34L 5000FT IN CMB B738=,
20180103_030000.003,0,RJAA,,,,0,20180103030000,-1,-1,-1,-1,300,-1,16,-1,29,260,340,,9999,0,0,1,FEW 30,1,6,-1,11,1011,RJAA 030300Z 30016G29KT 260V340 9999 VCBLDU FEW030 06/M11     Q1011 WS R34L NOSIG RMK 1CU030 A2985 BLDU E=,VC BL DU
20180103_033000.001,0,RJAA,,,,0,20180103030000,-1,-1,-1,-1,310,-1,18,-1,30,260,330,,9999,0,0,1,FEW 30,1,7,-1,11,1010,RJAA 030330Z 31018G30KT 260V330 9999 VCBLDU FEW030 07/M11     Q1010 WS R34R NOSIG RMK 1CU030 A2984 BLDU E=,VC BL DU
20180103_040000.002,0,RJAA,,,,0,20180103040000,-1,-1,-1,-1,300,-1,21,-1,32,-1,-1,,9999,0,0,1,FEW 30,1,7,-1,11,1010,RJAA 030400Z 30021G32KT 9999 VCBLDU FEW030 07/M11 Q1010 WS     R34R NOSIG RMK 1CU030 A2985 BLDU NE-SE=,VC BL DU
20180103_043000.001,0,RJAA,,,,0,20180103040000,-1,-1,-1,-1,300,-1,19,-1,30,250,320,,9999,0,0,1,FEW 30,1,7,-1,12,1011,RJAA 030430Z 30019G30KT 250V320 9999 VCBLDU FEW030 07/M12     Q1011 WS R34R NOSIG RMK 1CU030 A2985 BLDU NE-E=,VC BL DU
20180103_050000.002,0,RJAA,,,,0,20180103050000,-1,-1,-1,-1,290,-1,22,-1,35,250,310,,9999,0,0,1,FEW 30,1,7,-1,11,1010,RJAA 030500Z 29022G35KT 250V310 9999 VCBLDU FEW030 07/M11     Q1010 WS R34R NOSIG RMK 1CU030 A2985 BLDU E=,VC BL DU
20180103_053000.001,0,RJAA,,,,0,20180103050000,-1,-1,-1,-1,300,-1,21,-1,34,-1,-1,,9999,0,0,1,FEW 30,1,7,-1,10,1011,RJAA 030530Z 30021G34KT 9999 VCBLDU FEW030 07/M10 Q1011 WS     R34R NOSIG RMK 1CU030 A2985 BLDU E AND W=,VC BL DU
20180103_060000.002,0,RJAA,,,,0,20180103060000,-1,-1,-1,-1,300,-1,17,-1,28,-1,-1,,9999,0,0,1,FEW 30,1,7,-1,9,1011,RJAA 030600Z 30017G28KT 9999 FEW030 07/M09 Q1011 WS R34L WS     R34R NOSIG RMK 1CU030 A2986=,
20180103_063000.001,0,RJAA,,,,0,20180103060000,-1,-1,-1,-1,300,-1,19,-1,33,-1,-1,,9999,0,0,1,FEW 30,1,6,-1,8,1012,RJAA 030630Z 30019G33KT 9999 FEW030 06/M08 Q1012 WS R34L WS     R34R NOSIG RMK 1CU030 A2989=,
20180103_070000.002,0,RJAA,,,,0,20180103070000,-1,-1,-1,-1,300,-1,18,-1,31,-1,-1,,9999,0,0,1,FEW 30,1,5,-1,8,1012,RJAA 030700Z 30018G31KT 9999 FEW030 05/M08 Q1012 WS R34L NOSIG     RMK 1CU030 A2989 MOD TURB OBS AT 0645Z ON DEP COURSE           RWY34L 2000FT IN CMB B77L FDX295=,
20180103_070000.005,2,RJAA,,,,0,20180103070000,-1,-1,-1,-1,300,-1,18,-1,31,-1,-1,,9999,0,0,1,FEW 30,1,5,-1,8,1012,RJAA 030700Z 30018G31KT 9999 FEW030 05/M08 Q1012 WS R34L     NOSIG RMK 1CU030 A2989 MOD TURB OBS AT 0645Z ON DEP           COURSE RWY34L 2000FT AND BLW IN CMB B77L FDX295=,
20180103_073000.001,0,RJAA,,,,0,20180103070000,-1,-1,-1,-1,310,-1,15,-1,-1,280,340,,9999,0,0,1,FEW 30,1,5,-1,7,1013,RJAA 030730Z 31015KT 280V340 9999 FEW030 05/M07 Q1013 WS R34R     TEMPO 30015G25KT RMK 1CU030 A2992=,
20180103_080000.002,0,RJAA,,,,0,20180103080000,-1,-1,-1,-1,300,-1,13,-1,23,-1,-1,,9999,0,0,1,FEW 30,1,4,-1,7,1013,RJAA 030800Z 30013G23KT 9999 FEW030 04/M07 Q1013 WS R34R NOSIG     RMK 1CU030 A2993=,
20180103_083000.001,0,RJAA,,,,0,20180103080000,-1,-1,-1,-1,290,-1,13,-1,-1,250,320,,9999,0,0,1,FEW 40,1,4,-1,6,1013,RJAA 030830Z 29013KT 250V320 9999 FEW040 04/M06 Q1013 WS R34R     NOSIG RMK 1CU040 A2992=,
20180103_090000.002,0,RJAA,,,,0,20180103090000,-1,-1,-1,-1,290,-1,12,-1,22,-1,-1,,9999,0,0,1,FEW 40,1,3,-1,6,1013,RJAA 030900Z 29012G22KT 9999 FEW040 03/M06 Q1013 WS R34R NOSIG     RMK 1CU040 A2993=,
20180103_093000.001,0,RJAA,,,,0,20180103090000,-1,-1,-1,-1,290,-1,10,-1,20,-1,-1,CAVOK,-1,0,0,0,,1,3,-1,5,1014,RJAA 030930Z 29010G20KT CAVOK 03/M05 Q1014 WS R34R NOSIG RMK     A2995=,
20180103_100000.002,0,RJAA,,,,0,20180103100000,-1,-1,-1,-1,290,-1,10,-1,-1,250,320,CAVOK,-1,0,0,0,,1,3,-1,5,1014,RJAA 031000Z 29010KT 250V320 CAVOK 03/M05 Q1014 NOSIG RMK     A2995=,
20180103_103000.001,0,RJAA,,,,0,20180103100000,-1,-1,-1,-1,290,-1,10,-1,-1,-1,-1,CAVOK,-1,0,0,0,,1,3,-1,5,1014,RJAA 031030Z 29010KT CAVOK 03/M05 Q1014 NOSIG RMK A2995=,
20180103_110000.002,0,RJAA,,,,0,20180103110000,-1,-1,-1,-1,290,-1,11,-1,-1,270,330,CAVOK,-1,0,0,0,,1,3,-1,5,1014,RJAA 031100Z 29011KT 270V330 CAVOK 03/M05 Q1014 NOSIG RMK     A2996=,
20180103_113000.001,0,RJAA,,,,0,20180103110000,-1,-1,-1,-1,300,-1,8,-1,-1,270,330,CAVOK,-1,0,0,0,,1,3,-1,5,1014,RJAA 031130Z 30008KT 270V330 CAVOK 03/M05 Q1014 NOSIG RMK     A2997=,
20180103_120000.002,0,RJAA,,,,0,20180103120000,-1,-1,-1,-1,320,-1,6,-1,-1,-1,-1,CAVOK,-1,0,0,0,,1,2,-1,5,1015,RJAA 031200Z 32006KT CAVOK 02/M05 Q1015 NOSIG RMK A2998=,
20180103_123000.001,0,RJAA,,,,0,20180103120000,-1,-1,-1,-1,320,-1,7,-1,-1,-1,-1,CAVOK,-1,0,0,0,,1,2,-1,5,1015,RJAA 031230Z 32007KT CAVOK 02/M05 Q1015 NOSIG RMK A2999=,
20180103_130000.003,0,RJAA,,,,0,20180103130000,-1,-1,-1,-1,320,-1,6,-1,-1,-1,-1,CAVOK,-1,0,0,0,,-1,0,-1,6,1016,RJAA 031300Z 32006KT CAVOK M00/M06 Q1016 NOSIG RMK A3001=,
20180103_133000.001,0,RJAA,,,,0,20180103130000,-1,-1,-1,-1,300,-1,4,-1,-1,-1,-1,,9999,0,0,1,FEW 30,1,1,-1,5,1016,RJAA 031330Z 30004KT 9999 FEW030 01/M05 Q1016 NOSIG RMK 1CU030     A3001=,
20180103_140000.002,0,RJAA,,,,0,20180103140000,-1,-1,-1,-1,300,-1,6,-1,-1,-1,-1,,9999,0,0,1,FEW 30,1,2,-1,5,1016,RJAA 031400Z 30006KT 9999 FEW030 02/M05 Q1016 NOSIG RMK 1CU030     A3002=,
20180103_143000.001,0,RJAA,,,,0,20180103140000,-1,-1,-1,-1,300,-1,5,-1,-1,270,330,,9999,0,0,1,FEW 30,1,2,-1,5,1016,RJAA 031430Z 30005KT 270V330 9999 FEW030 02/M05 Q1016 NOSIG     RMK 1CU030 A3002=,
20180103_150000.002,0,RJAA,,,,0,20180103150000,-1,-1,-1,-1,300,-1,6,-1,-1,-1,-1,,9999,0,0,1,FEW 30,1,2,-1,5,1016,RJAA 031500Z 30006KT 9999 FEW030 02/M05 Q1016 NOSIG RMK 1CU030     A3003=,
20180103_153000.001,0,RJAA,,,,0,20180103150000,-1,-1,-1,-1,290,-1,7,-1,-1,-1,-1,,9999,0,0,1,FEW 30,1,2,-1,5,1017,RJAA 031530Z 29007KT 9999 FEW030 02/M05 Q1017 NOSIG RMK 1CU030     A3004=,
20180103_160000.002,0,RJAA,,,,0,20180103160000,-1,-1,-1,-1,300,-1,5,-1,-1,-1,-1,,9999,0,0,1,FEW 30,1,1,-1,6,1017,RJAA 031600Z 30005KT 9999 FEW030 01/M06 Q1017 NOSIG RMK 1CU030     A3003=,
20180103_163000.001,0,RJAA,,,,0,20180103160000,-1,-1,-1,-1,290,-1,5,-1,-1,-1,-1,,9999,0,0,1,FEW 30,1,1,-1,6,1017,RJAA 031630Z 29005KT 9999 FEW030 01/M06 Q1017 NOSIG RMK 1CU030     A3003=,
20180103_170000.002,0,RJAA,,,,0,20180103170000,-1,-1,-1,-1,280,-1,5,-1,-1,-1,-1,,9999,0,0,1,FEW 30,1,1,-1,6,1017,RJAA 031700Z 28005KT 9999 FEW030 01/M06 Q1017 NOSIG RMK 1CU030     A3004=,
20180103_173000.001,0,RJAA,,,,0,20180103170000,-1,-1,-1,-1,290,-1,6,-1,-1,-1,-1,,9999,0,0,1,FEW 30,1,1,-1,6,1017,RJAA 031730Z 29006KT 9999 FEW030 01/M06 Q1017 NOSIG RMK 1CU030     A3004=,
20180103_180000.002,0,RJAA,,,,0,20180103180000,-1,-1,-1,-1,310,-1,5,-1,-1,-1,-1,CAVOK,-1,0,0,0,,1,1,-1,6,1017,RJAA 031800Z 31005KT CAVOK 01/M06 Q1017 NOSIG RMK A3003=,
20180103_183000.001,0,RJAA,,,,0,20180103180000,-1,-1,-1,-1,300,-1,2,-1,-1,-1,-1,CAVOK,-1,0,0,0,,-1,1,-1,6,1017,RJAA 031830Z 30002KT CAVOK M01/M06 Q1017 NOSIG RMK A3003=,
20180103_190000.002,0,RJAA,,,,0,20180103190000,-1,-1,-1,-1,330,-1,3,-1,-1,-1,-1,CAVOK,-1,0,0,0,,-1,2,-1,6,1017,RJAA 031900Z 33003KT CAVOK M02/M06 Q1017 NOSIG RMK A3004=,
20180103_193000.001,0,RJAA,,,,0,20180103190000,-1,-1,-1,-1,270,-1,3,-1,-1,-1,-1,CAVOK,-1,0,0,0,,-1,3,-1,7,1017,RJAA 031930Z 27003KT CAVOK M03/M07 Q1017 NOSIG RMK A3005=,
20180103_200000.002,0,RJAA,,,,0,20180103200000,-1,-1,-1,-1,999,-1,1,-1,-1,-1,-1,CAVOK,-1,0,0,0,,-1,3,-1,7,1017,RJAA 032000Z VRB01KT CAVOK M03/M07 Q1017 NOSIG RMK A3005=,
20180103_203000.001,0,RJAA,,,,0,20180103200000,-1,-1,-1,-1,220,-1,1,-1,-1,-1,-1,,9999,0,0,1,FEW 40,-1,4,-1,6,1018,RJAA 032030Z 22001KT 9999 FEW040 M04/M06 Q1018 NOSIG RMK     1CU040 A3006=,
20180103_210000.003,0,RJAA,,,,0,20180103210000,-1,-1,-1,-1,999,-1,1,-1,-1,-1,-1,,9999,0,0,1,FEW 40,-1,3,-1,6,1018,RJAA 032100Z VRB01KT 9999 FEW040 M03/M06 Q1018 NOSIG RMK     1CU040 A3008=,
20180103_213000.001,0,RJAA,,,,0,20180103210000,-1,-1,-1,-1,999,-1,1,-1,-1,-1,-1,,9999,0,0,1,FEW 40,-1,4,-1,6,1018,RJAA 032130Z VRB01KT 9999 FEW040 M04/M06 Q1018 NOSIG RMK     1CU040 A3008=,
20180103_220000.002,0,RJAA,,,,0,20180103220000,-1,-1,-1,-1,290,-1,3,-1,-1,-1,-1,,9999,0,0,1,FEW 40,-1,4,-1,7,1019,RJAA 032200Z 29003KT 9999 FEW040 M04/M07 Q1019 NOSIG RMK     1CU040 A3010=,
20180103_223000.002,0,RJAA,,,,0,20180103220000,-1,-1,-1,-1,330,-1,2,-1,-1,-1,-1,,9999,0,0,1,FEW 40,-1,3,-1,7,1019,RJAA 032230Z 33002KT 9999 FEW040 M03/M07 Q1019 NOSIG RMK     1CU040 A3009=,
20180103_230000.002,0,RJAA,,,,0,20180103230000,-1,-1,-1,-1,330,-1,6,-1,-1,-1,-1,,9999,0,0,1,FEW 40,1,1,-1,4,1019,RJAA 032300Z 33006KT 9999 FEW040 01/M04 Q1019 NOSIG RMK 1CU040     A3009=,
20180103_233000.001,0,RJAA,,,,0,20180103230000,-1,-1,-1,-1,300,-1,4,-1,-1,-1,-1,,9999,0,0,1,FEW 40,1,3,-1,5,1018,RJAA 032330Z 30004KT 9999 FEW040 03/M05 Q1018 NOSIG RMK 1CU040     A3009=,
20180104_000000.002,0,RJAA,,,,0,20180104000000,-1,-1,-1,-1,290,-1,5,-1,-1,260,330,,9999,0,0,1,FEW 40,1,4,-1,6,1019,RJAA 040000Z 29005KT 260V330 9999 FEW040 04/M06 Q1019 NOSIG     RMK 1CU040 A3009=,
20180104_003000.001,0,RJAA,,,,0,20180104000000,-1,-1,-1,-1,300,-1,9,-1,-1,260,330,,9999,0,0,1,FEW 30,1,4,-1,6,1019,RJAA 040030Z 30009KT 260V330 9999 FEW030 04/M06 Q1019 NOSIG     RMK 1CU030 A3010=,
20180104_010000.002,0,RJAA,,,,0,20180104010000,-1,-1,-1,-1,310,-1,9,-1,-1,270,340,,9999,0,0,1,FEW 30,1,5,-1,6,1018,RJAA 040100Z 31009KT 270V340 9999 FEW030 05/M06 Q1018 NOSIG     RMK 1CU030 A3009=,
20180104_013000.001,0,RJAA,,,,0,20180104010000,-1,-1,-1,-1,320,-1,10,-1,-1,280,340,,9999,0,0,1,FEW 30,1,6,-1,6,1018,RJAA 040130Z 32010KT 280V340 9999 FEW030 06/M06 Q1018 NOSIG     RMK 1CU030 A3007=,
20180104_020000.002,0,RJAA,,,,0,20180104020000,-1,-1,-1,-1,300,-1,9,-1,-1,260,330,,9999,0,0,1,FEW 30,1,6,-1,6,1018,RJAA 040200Z 30009KT 260V330 9999 FEW030 06/M06 Q1018 NOSIG     RMK 1CU030 A3006=,
20180104_023000.001,0,RJAA,,,,0,20180104020000,-1,-1,-1,-1,300,-1,8,-1,-1,260,330,,9999,0,0,1,FEW 30,1,7,-1,7,1017,RJAA 040230Z 30008KT 260V330 9999 FEW030 07/M07 Q1017 NOSIG     RMK 1CU030 A3004=,
20180104_030000.002,0,RJAA,,,,0,20180104030000,-1,-1,-1,-1,310,-1,10,-1,-1,-1,-1,,9999,0,0,1,FEW 30,1,7,-1,7,1016,RJAA 040300Z 31010KT 9999 FEW030 07/M07 Q1016 NOSIG RMK 1CU030     A3002=,
20180104_033000.001,0,RJAA,,,,0,20180104030000,-1,-1,-1,-1,320,-1,6,-1,-1,270,10,,9999,0,0,1,FEW 30,1,7,-1,8,1016,RJAA 040330Z 32006KT 270V010 9999 FEW030 07/M08 Q1016 NOSIG     RMK 1CU030 A3000=,
20180104_040000.002,0,RJAA,,,,0,20180104040000,-1,-1,-1,-1,310,-1,8,-1,-1,250,330,,9999,0,0,1,FEW 30,1,8,-1,7,1016,RJAA 040400Z 31008KT 250V330 9999 FEW030 08/M07 Q1016 NOSIG     RMK 1CU030 A3000=,
20180104_043000.001,0,RJAA,,,,0,20180104040000,-1,-1,-1,-1,330,-1,13,-1,-1,-1,-1,,9999,0,0,1,FEW 30,1,8,-1,9,1015,RJAA 040430Z 33013KT 9999 FEW030 08/M09 Q1015 NOSIG RMK 1CU030     A2999=,
20180104_050000.002,0,RJAA,,,,0,20180104050000,-1,-1,-1,-1,320,-1,12,-1,-1,-1,-1,,9999,0,0,1,FEW 30,1,9,-1,10,1015,RJAA 040500Z 32012KT 9999 FEW030 09/M10 Q1015 NOSIG RMK 1CU030     A2999=,
20180104_053000.001,0,RJAA,,,,0,20180104050000,-1,-1,-1,-1,320,-1,18,-1,30,-1,-1,,9999,0,0,1,FEW 30,1,9,-1,10,1015,RJAA 040530Z 32018G30KT 9999 FEW030 09/M10 Q1015 NOSIG RMK     1CU030 A2999 VIRGA 30KM NE MOV SE=,
20180104_060000.003,0,RJAA,,,,0,20180104060000,-1,-1,-1,-1,320,-1,14,-1,-1,-1,-1,,9999,0,0,1,FEW 30,1,8,-1,11,1015,RJAA 040600Z 32014KT 9999 FEW030 08/M11 Q1015 NOSIG RMK 1CU030     A3000 VIRGA 30KM NE MOV SE=,
20180104_063000.001,0,RJAA,,,,0,20180104060000,-1,-1,-1,-1,320,-1,11,-1,-1,290,360,,9999,0,0,1,FEW 30,1,8,-1,10,1016,RJAA 040630Z 32011KT 290V360 9999 FEW030 08/M10 Q1016 NOSIG     RMK 1CU030 A3000=,
20180104_070000.002,0,RJAA,,,,0,20180104070000,-1,-1,-1,-1,330,-1,12,-1,-1,-1,-1,,9999,0,0,1,FEW 30,1,7,-1,10,1016,RJAA 040700Z 33012KT 9999 FEW030 07/M10 Q1016 NOSIG RMK 1CU030     A3001=,
20180104_073000.001,0,RJAA,,,,0,20180104070000,-1,-1,-1,-1,320,-1,11,-1,-1,-1,-1,,9999,0,0,1,FEW 30,1,6,-1,11,1016,RJAA 040730Z 32011KT 9999 FEW030 06/M11 Q1016 NOSIG RMK 1CU030     A3002=,
20180104_080000.002,0,RJAA,,,,0,20180104080000,-1,-1,-1,-1,310,-1,7,-1,-1,-1,-1,,9999,0,0,1,FEW 30,1,5,-1,10,1017,RJAA 040800Z 31007KT 9999 FEW030 05/M10 Q1017 NOSIG RMK 1CU030     A3003=,
20180104_083000.001,0,RJAA,,,,0,20180104080000,-1,-1,-1,-1,320,-1,7,-1,-1,-1,-1,,9999,0,0,1,FEW 30,1,4,-1,11,1017,RJAA 040830Z 32007KT 9999 FEW030 04/M11 Q1017 NOSIG RMK 1CU030     A3004=,
20180104_090000.002,0,RJAA,,,,0,20180104090000,-1,-1,-1,-1,310,-1,5,-1,-1,-1,-1,,9999,0,0,1,FEW 30,1,4,-1,10,1017,RJAA 040900Z 31005KT 9999 FEW030 04/M10 Q1017 NOSIG RMK 1CU030     A3004=,
20180104_093000.001,0,RJAA,,,,0,20180104090000,-1,-1,-1,-1,310,-1,4,-1,-1,280,340,,9999,0,0,1,FEW 30,1,4,-1,9,1017,RJAA 040930Z 31004KT 280V340 9999 FEW030 04/M09 Q1017 NOSIG     RMK 1CU030 A3005=,
20180104_100000.002,0,RJAA,,,,0,20180104100000,-1,-1,-1,-1,310,-1,5,-1,-1,-1,-1,,9999,0,0,1,FEW 30,1,3,-1,9,1017,RJAA 041000Z 31005KT 9999 FEW030 03/M09 Q1017 NOSIG RMK 1CU030     A3006=,
20180104_103000.001,0,RJAA,,,,0,20180104100000,-1,-1,-1,-1,310,-1,4,-1,-1,-1,-1,,9999,0,0,1,FEW 30,1,3,-1,8,1018,RJAA 041030Z 31004KT 9999 FEW030 03/M08 Q1018 NOSIG RMK 1CU030     A3006=,
20180104_110000.002,0,RJAA,,,,0,20180104110000,-1,-1,-1,-1,280,-1,4,-1,-1,-1,-1,,9999,0,0,1,FEW 30,1,2,-1,7,1018,RJAA 041100Z 28004KT 9999 FEW030 02/M07 Q1018 NOSIG RMK 1CU030     A3007=,
20180104_113000.001,0,RJAA,,,,0,20180104110000,-1,-1,-1,-1,999,-1,1,-1,-1,-1,-1,,9999,0,0,1,FEW 30,1,0,-1,8,1018,RJAA 041130Z VRB01KT 9999 FEW030 00/M08 Q1018 NOSIG RMK 1CU030     A3008=,
20180104_120000.003,0,RJAA,,,,0,20180104120000,-1,-1,-1,-1,310,-1,3,-1,-1,270,330,,9999,0,0,1,FEW 30,-1,1,-1,7,1018,RJAA 041200Z 31003KT 270V330 9999 FEW030 M01/M07 Q1018 NOSIG     RMK 1CU030 A3008=,
20180104_123000.001,0,RJAA,,,,0,20180104120000,-1,-1,-1,-1,20,-1,4,-1,-1,-1,-1,,9999,0,0,1,FEW 30,1,2,-1,6,1018,RJAA 041230Z 02004KT 9999 FEW030 02/M06 Q1018 NOSIG RMK 1CU030     A3008=,
20180104_130000.002,0,RJAA,,,,0,20180104130000,-1,-1,-1,-1,999,-1,2,-1,-1,-1,-1,,9999,0,0,1,FEW 30,-1,1,-1,7,1018,RJAA 041300Z VRB02KT 9999 FEW030 M01/M07 Q1018 NOSIG RMK     1CU030 A3008=,
20180104_133000.001,0,RJAA,,,,0,20180104130000,-1,-1,-1,-1,360,-1,4,-1,-1,330,40,,9999,0,0,1,FEW 30,1,0,-1,6,1018,RJAA 041330Z 36004KT 330V040 9999 FEW030 00/M06 Q1018 NOSIG     RMK 1CU030 A3008=,
20180104_140000.002,0,RJAA,,,,0,20180104140000,-1,-1,-1,-1,20,-1,3,-1,-1,330,40,,9999,0,0,1,FEW 30,1,0,-1,6,1018,RJAA 041400Z 02003KT 330V040 9999 FEW030 00/M06 Q1018 NOSIG     RMK 1CU030 A3007=,
20180104_143000.001,0,RJAA,,,,0,20180104140000,-1,-1,-1,-1,30,-1,1,-1,-1,-1,-1,,9999,0,0,1,FEW 30,-1,3,-1,7,1018,RJAA 041430Z 03001KT 9999 FEW030 M03/M07 Q1018 NOSIG RMK     1CU030 A3006=,
20180104_150000.003,0,RJAA,,,,0,20180104150000,-1,-1,-1,-1,360,-1,2,-1,-1,-1,-1,,9999,0,0,1,FEW 30,-1,2,-1,6,1017,RJAA 041500Z 36002KT 9999 FEW030 M02/M06 Q1017 NOSIG RMK     1CU030 A3005=,
20180104_153000.001,0,RJAA,,,,0,20180104150000,-1,-1,-1,-1,340,-1,6,-1,-1,-1,-1,,9999,0,0,2,FEW 30   SCT -9999,-1,2,-1,7,1017,RJAA 041530Z 34006KT 9999 FEW030 SCT/// M02/M07 Q1017 NOSIG     RMK 1CU030 A3005=,
20180104_160000.003,0,RJAA,,,,0,20180104160000,-1,-1,-1,-1,340,-1,8,-1,-1,-1,-1,,9999,0,0,2,FEW 30   OVC -9999,-1,2,-1,5,1017,RJAA 041600Z 34008KT 9999 FEW030 OVC/// M02/M05 Q1017 NOSIG     RMK 1CU030 A3005=,
20180104_163000.001,0,RJAA,,,,0,20180104160000,-1,-1,-1,-1,360,-1,5,-1,-1,-1,-1,,9999,0,0,2,FEW 30   OVC -9999,-1,0,-1,5,1017,RJAA 041630Z 36005KT 9999 FEW030 OVC/// M00/M05 Q1017 NOSIG     RMK 1CU030 A3005=,
20180104_170000.003,0,RJAA,,,,0,20180104170000,-1,-1,-1,-1,360,-1,6,-1,-1,-1,-1,,9999,0,0,2,FEW 30   BKN -9999,-1,0,-1,5,1017,RJAA 041700Z 36006KT 9999 FEW030 BKN/// M00/M05 Q1017 NOSIG     RMK 1CU030 A3005=,
20180104_173000.001,0,RJAA,,,,0,20180104170000,-1,-1,-1,-1,360,-1,5,-1,-1,-1,-1,,9999,0,0,2,FEW 30   BKN -9999,-1,1,-1,5,1017,RJAA 041730Z 36005KT 9999 FEW030 BKN/// M01/M05 Q1017 NOSIG     RMK 1CU030 A3004=,
20180104_180000.002,0,RJAA,,,,0,20180104180000,-1,-1,-1,-1,340,-1,4,-1,-1,-1,-1,,9999,0,0,2,FEW 30   BKN -9999,-1,1,-1,5,1017,RJAA 041800Z 34004KT 9999 FEW030 BKN/// M01/M05 Q1017 NOSIG     RMK 1CU030 A3004=,
20180104_183000.001,0,RJAA,,,,0,20180104180000,-1,-1,-1,-1,340,-1,7,-1,-1,-1,-1,,9999,0,0,2,FEW 30   BKN 190,-1,1,-1,5,1017,RJAA 041830Z 34007KT 9999 FEW030 BKN190 M01/M05 Q1017 NOSIG     RMK 1CU030 7AC190 A3003=,
20180104_190000.003,0,RJAA,,,,0,20180104190000,-1,-1,-1,-1,330,-1,6,-1,-1,-1,-1,,9999,0,0,2,FEW 30   BKN 170,-1,0,-1,5,1017,RJAA 041900Z 33006KT 9999 FEW030 BKN170 M00/M05 Q1017 NOSIG     RMK 1CU030 7AC170 A3003=,
20180104_193000.001,0,RJAA,,,,0,20180104190000,-1,-1,-1,-1,320,-1,5,-1,-1,-1,-1,,9999,0,0,2,FEW 30   BKN -9999,1,0,-1,6,1016,RJAA 041930Z 32005KT 9999 FEW030 BKN/// 00/M06 Q1016 NOSIG RMK     1CU030 A3003=,
20180104_200000.002,0,RJAA,,,,0,20180104200000,-1,-1,-1,-1,330,-1,6,-1,-1,-1,-1,,9999,0,0,2,FEW 30   BKN 170,-1,1,-1,5,1017,RJAA 042000Z 33006KT 9999 FEW030 BKN170 M01/M05 Q1017 NOSIG     RMK 1CU030 7AC170 A3004=,
20180104_203000.001,0,RJAA,,,,0,20180104200000,-1,-1,-1,-1,340,-1,6,-1,-1,-1,-1,,9999,0,0,2,FEW 30   BKN 170,-1,1,-1,6,1016,RJAA 042030Z 34006KT 9999 FEW030 BKN170 M01/M06 Q1016 NOSIG     RMK 1CU030 7AC170 A3003=,
20180104_210000.002,0,RJAA,,,,0,20180104210000,-1,-1,-1,-1,310,-1,5,-1,-1,-1,-1,,9999,0,0,2,FEW 30   SCT -9999,1,0,-1,6,1017,RJAA 042100Z 31005KT 9999 FEW030 SCT/// 00/M06 Q1017 NOSIG RMK     1CU030 A3003=,
20180104_213000.001,0,RJAA,,,,0,20180104210000,-1,-1,-1,-1,270,-1,3,-1,-1,-1,-1,,9999,0,0,3,FEW 30   BKN 60   BKN -9999,-1,1,-1,6,1017,RJAA 042130Z 27003KT 9999 FEW030 BKN060 BKN/// M01/M06 Q1017     NOSIG RMK 1CU030 5SC060 A3005=,
20180104_220000.002,0,RJAA,,,,0,20180104220000,-1,-1,-1,-1,330,-1,5,-1,-1,-1,-1,,9999,0,0,3,FEW 30   SCT 70   BKN -9999,-1,1,-1,6,1017,RJAA 042200Z 33005KT 9999 FEW030 SCT070 BKN/// M01/M06 Q1017     NOSIG RMK 1CU030 4AC070 A3005=,
20180104_223000.002,0,RJAA,,,,0,20180104220000,-1,-1,-1,-1,300,-1,2,-1,-1,-1,-1,,9999,0,0,2,FEW 30   BKN -9999,-1,1,-1,6,1017,RJAA 042230Z 30002KT 9999 FEW030 BKN/// M01/M06 Q1017 NOSIG     RMK 1CU030 A3004=,
20180104_230000.002,0,RJAA,,,,0,20180104230000,-1,-1,-1,-1,310,-1,3,-1,-1,-1,-1,,9999,0,0,2,FEW 30   BKN -9999,-1,0,-1,6,1017,RJAA 042300Z 31003KT 9999 FEW030 BKN/// M00/M06 Q1017 NOSIG     RMK 1CU030 A3005=,
20180104_233000.001,0,RJAA,,,,0,20180104230000,-1,-1,-1,-1,340,-1,6,-1,-1,-1,-1,,9999,0,0,2,FEW 30   BKN -9999,1,1,-1,6,1017,RJAA 042330Z 34006KT 9999 FEW030 BKN/// 01/M06 Q1017 NOSIG RMK     1CU030 A3005=,
20180105_000000.002,0,RJAA,,,,0,20180105000000,-1,-1,-1,-1,330,-1,6,-1,-1,-1,-1,,9999,0,0,2,FEW 30   BKN -9999,1,2,-1,6,1017,RJAA 050000Z 33006KT 9999 FEW030 BKN/// 02/M06 Q1017 NOSIG RMK     1CU030 A3004=,
20180105_003000.001,0,RJAA,,,,0,20180105000000,-1,-1,-1,-1,330,-1,7,-1,-1,-1,-1,,9999,0,0,2,FEW 30   BKN -9999,1,2,-1,6,1017,RJAA 050030Z 33007KT 9999 FEW030 BKN/// 02/M06 Q1017 NOSIG RMK     1CU030 A3005=,
20180105_010000.003,0,RJAA,,,,0,20180105010000,-1,-1,-1,-1,330,-1,6,-1,-1,-1,-1,,9999,0,0,2,FEW 30   BKN -9999,1,3,-1,6,1017,RJAA 050100Z 33006KT 9999 FEW030 BKN/// 03/M06 Q1017 NOSIG RMK     1CU030 A3003=,
20180105_013000.001,0,RJAA,,,,0,20180105010000,-1,-1,-1,-1,310,-1,5,-1,-1,-1,-1,,9999,0,0,3,FEW 30   SCT 50   BKN -9999,1,4,-1,5,1016,RJAA 050130Z 31005KT 9999 FEW030 SCT050 BKN/// 04/M05 Q1016     NOSIG RMK 1CU030 3SC050 A3002=,
20180105_020000.002,0,RJAA,,,,0,20180105020000,-1,-1,-1,-1,330,-1,5,-1,-1,-1,-1,,9999,0,0,3,FEW 30   SCT 50   BKN 70,1,4,-1,5,1015,RJAA 050200Z 33005KT 9999 FEW030 SCT050 BKN070 04/M05 Q1015     NOSIG RMK 1CU030 4SC050 6AC070 A3000=,
20180105_023000.001,0,RJAA,,,,0,20180105020000,-1,-1,-1,-1,340,-1,6,-1,-1,310,20,,9999,0,0,2,FEW 30   BKN 50,1,5,-1,4,1015,RJAA 050230Z 34006KT 310V020 9999 FEW030 BKN050 05/M04 Q1015     NOSIG RMK 1CU030 7SC050 A2999=,
20180105_030000.002,0,RJAA,,,,0,20180105030000,-1,-1,-1,-1,360,-1,6,-1,-1,330,40,,9999,0,0,2,FEW 30   BKN 50,1,5,-1,3,1015,RJAA 050300Z 36006KT 330V040 9999 FEW030 BKN050 05/M03 Q1015     NOSIG RMK 1CU030 7SC050 A2997=,
20180105_033000.001,0,RJAA,,,,0,20180105030000,-1,-1,-1,-1,330,-1,4,-1,-1,-1,-1,,9999,0,0,2,FEW 30   BKN 50,1,5,-1,3,1014,RJAA 050330Z 33004KT 9999 FEW030 BKN050 05/M03 Q1014 NOSIG RMK     1CU030 7SC050 A2996=,
20180105_040000.002,0,RJAA,,,,0,20180105040000,-1,-1,-1,-1,20,-1,4,-1,-1,320,50,,9999,0,1,2,FEW 30   BKN 50,1,6,-1,2,1013,RJAA 050400Z 02004KT 320V050 9999 -RA FEW030 BKN050 06/M02     Q1013 NOSIG RMK 1CU030 7SC050 A2994=,- RA
20180105_043000.001,0,RJAA,,,,0,20180105040000,-1,-1,-1,-1,40,-1,4,-1,-1,350,80,,9999,0,0,2,FEW 30   BKN 50,1,5,-1,2,1013,RJAA 050430Z 04004KT 350V080 9999 FEW030 BKN050 05/M02 Q1013     NOSIG RMK 1CU030 7SC050 A2993=,
20180105_050000.002,0,RJAA,,,,0,20180105050000,-1,-1,-1,-1,40,-1,6,-1,-1,360,70,,9999,0,0,2,FEW 30   BKN 50,1,5,-1,2,1013,RJAA 050500Z 04006KT 360V070 9999 FEW030 BKN050 05/M02 Q1013     NOSIG RMK 1CU030 7SC050 A2991=,
20180105_053000.001,0,RJAA,,,,0,20180105050000,-1,-1,-1,-1,20,-1,5,-1,-1,-1,-1,,9999,0,0,2,FEW 30   BKN 50,1,5,-1,2,1012,RJAA 050530Z 02005KT 9999 FEW030 BKN050 05/M02 Q1012 NOSIG RMK     1CU030 7SC050 A2990=,
20180105_060000.002,0,RJAA,,,,0,20180105060000,-1,-1,-1,-1,30,-1,5,-1,-1,350,60,,9999,0,1,2,FEW 30   BKN 50,1,5,-1,1,1012,RJAA 050600Z 03005KT 350V060 9999 -RA FEW030 BKN050 05/M01     Q1012 NOSIG RMK 1CU030 7SC050 A2990=,- RA
20180105_063000.001,0,RJAA,,,,0,20180105060000,-1,-1,-1,-1,30,-1,5,-1,-1,340,60,,9999,0,1,2,FEW 20   BKN 50,1,5,1,1,1013,RJAA 050630Z 03005KT 340V060 9999 -RA FEW020 BKN050 05/01     Q1013 NOSIG RMK 1CU020 7SC050 A2992=,- RA
20180105_070000.002,0,RJAA,,,,0,20180105070000,-1,-1,-1,-1,40,-1,3,-1,-1,330,120,,9000,0,1,2,FEW 15   BKN 30,1,4,1,1,1013,RJAA 050700Z 04003KT 330V120 9000 -RA FEW015 BKN030 04/01     Q1013 TEMPO FEW008 BKN012 RMK 1CU015 7SC030 A2993=,- RA
20180105_073000.001,0,RJAA,,,,0,20180105070000,-1,-1,-1,-1,360,-1,3,-1,-1,320,30,,9000,0,1,3,FEW 10   BKN 15   BKN 25,1,4,1,1,1013,RJAA 050730Z 36003KT 320V030 9000 -RA FEW010 BKN015 BKN025     04/01 Q1013 TEMPO FEW008 BKN012 RMK 1CU010 5SC015 7SC025           A2993=,- RA
20180105_080000.002,0,RJAA,,,,0,20180105080000,-1,-1,-1,-1,30,-1,3,-1,-1,-1,-1,,7000,0,1,3,FEW 10   BKN 12   BKN 25,1,4,1,2,1013,RJAA 050800Z 03003KT 7000 -RA FEW010 BKN012 BKN025 04/02 Q1013     NOSIG RMK 1ST010 6SC012 7SC025 A2993=,- RA
20180105_083000.001,0,RJAA,,,,0,20180105080000,-1,-1,-1,-1,30,-1,5,-1,-1,-1,-1,,7000,0,1,3,FEW 10   BKN 15   BKN 35,1,4,1,2,1013,RJAA 050830Z 03005KT 7000 -RA FEW010 BKN015 BKN035 04/02 Q1013     TEMPO FEW008 BKN012 RMK 1ST010 6SC015 7SC035 A2992=,- RA
20180105_090000.002,0,RJAA,,,,0,20180105090000,-1,-1,-1,-1,30,-1,5,-1,-1,350,60,,7000,0,1,3,FEW 10   BKN 18   BKN 35,1,4,1,2,1013,RJAA 050900Z 03005KT 350V060 7000 -RA FEW010 BKN018 BKN035     04/02 Q1013 TEMPO FEW008 BKN012 RMK 1ST010 5SC018 7SC035           A2992=,- RA
20180105_093000.001,0,RJAA,,,,0,20180105090000,-1,-1,-1,-1,30,-1,4,-1,-1,360,80,,7000,0,1,3,FEW 10   BKN 15   BKN 30,1,3,1,1,1013,RJAA 050930Z 03004KT 360V080 7000 -RA FEW010 BKN015 BKN030     03/01 Q1013 TEMPO FEW008 BKN012 RMK 1ST010 5SC015 7SC030           A2992 MOD TURB OBS AT 0905Z 10NM NE NARITA BTN 12500FT           AND FL155 IN CMB B767 ANA947=,- RA
20180105_100000.002,0,RJAA,,,,0,20180105100000,-1,-1,-1,-1,20,-1,5,-1,-1,340,60,,7000,0,1,3,FEW 6   BKN 15   BKN 30,1,3,1,2,1013,RJAA 051000Z 02005KT 340V060 7000 -RA FEW006 BKN015 BKN030     03/02 Q1013 TEMPO FEW008 BKN012 RMK 1ST006 5SC015 7SC030           A2991=,- RA
20180105_103000.001,0,RJAA,,,,0,20180105100000,-1,-1,-1,-1,30,-1,5,-1,-1,360,70,,8000,0,1,3,FEW 10   BKN 18   BKN 35,1,3,1,1,1012,RJAA 051030Z 03005KT 360V070 8000 -RA FEW010 BKN018 BKN035     03/01 Q1012 NOSIG RMK 1ST010 5SC018 7SC035 A2990=,- RA
20180105_110000.002,0,RJAA,,,,0,20180105110000,-1,-1,-1,-1,50,-1,4,-1,-1,10,80,,9999,0,1,3,FEW 10   BKN 35   BKN 50,1,3,1,2,1012,RJAA 051100Z 05004KT 010V080 9999 -RA FEW010 BKN035 BKN050     03/02 Q1012 NOSIG RMK 1ST010 5SC035 7SC050 A2990=,- RA
20180105_113000.001,0,RJAA,,,,0,20180105110000,-1,-1,-1,-1,20,-1,5,-1,-1,-1,-1,,9999,0,1,3,FEW 10   SCT 40   BKN 60,1,3,1,1,1012,RJAA 051130Z 02005KT 9999 -RA FEW010 SCT040 BKN060 03/01 Q1012     NOSIG RMK 1ST010 4SC040 7SC060 A2990=,- RA
20180105_120000.002,0,RJAA,,,,0,20180105120000,-1,-1,-1,-1,20,-1,3,-1,-1,340,50,,9999,0,0,3,FEW 10   BKN 45   BKN 60,1,3,1,2,1012,RJAA 051200Z 02003KT 340V050 9999 FEW010 BKN045 BKN060 03/02     Q1012 NOSIG RMK 1ST010 5SC045 7SC060 A2989=,
20180105_123000.001,0,RJAA,,,,0,20180105120000,-1,-1,-1,-1,999,-1,2,-1,-1,-1,-1,,9999,0,1,2,FEW 10   BKN 60,1,3,1,1,1011,RJAA 051230Z VRB02KT 9999 -RA FEW010 BKN060 03/01 Q1011 NOSIG     RMK 1ST010 7SC060 A2988 MOD TURB OBS AT 1210Z 40NM S           NARITA BTN 11000FT AND 9000FT IN DES A320 JJP606=,- RA
20180105_130000.002,0,RJAA,,,,0,20180105130000,-1,-1,-1,-1,270,-1,2,-1,-1,-1,-1,,8000,0,1,2,FEW 10   BKN 60,1,2,1,1,1011,RJAA 051300Z 27002KT 8000 BR FEW010 BKN060 02/01 Q1011 NOSIG     RMK 1ST010 7SC060 A2987 BR NW=,BR
20180105_133000.001,0,RJAA,,,,0,20180105130000,-1,-1,-1,-1,310,-1,4,-1,-1,-1,-1,,8000,0,1,2,FEW 10   BKN 70,1,3,1,2,1011,RJAA 051330Z 31004KT 8000 BR FEW010 BKN070 03/02 Q1011 NOSIG     RMK 1ST010 7AC070 A2987 BR N=,BR
20180105_140000.002,0,RJAA,,,,0,20180105140000,-1,-1,-1,-1,290,-1,2,-1,-1,-1,-1,,8000,0,1,2,FEW 10   BKN 80,1,2,1,1,1011,RJAA 051400Z 29002KT 8000 BR FEW010 BKN080 02/01 Q1011 NOSIG     RMK 1ST010 7AC080 A2986 BR N=,BR
20180105_143000.001,0,RJAA,,,,0,20180105140000,-1,-1,-1,-1,999,-1,1,-1,-1,-1,-1,,7000,0,1,2,FEW 10   BKN 80,1,2,1,1,1010,RJAA 051430Z VRB01KT 7000 BR FEW010 BKN080 02/01 Q1010 TEMPO     4000 BR RMK 1ST010 7AC080 A2985 BR N=,BR
20180105_150000.002,0,RJAA,,,,0,20180105150000,-1,-1,-1,-1,290,-1,3,-1,-1,-1,-1,,6000,0,2,2,FEW 10   SCT 80,1,2,1,1,1010,RJAA 051500Z 29003KT 6000 MIFG BR FEW010 SCT080 02/01 Q1010     TEMPO 4000 BR RMK 1ST010 4AC080 A2983 BR N=,MI FG; BR
20180105_153000.001,0,RJAA,,,,0,20180105150000,-1,-1,-1,-1,300,-1,3,-1,-1,-1,-1,,4000,2,2,1,FEW 1,1,1,1,1,1010,RJAA 051530Z 30003KT 4000 R34L/P1800N R34R/0550V1400U BCFG BR     FEW001 01/01 Q1010 TEMPO 3000 BR RMK 1ST001 A2983 FG ON           RWY34R=,BC FG; BR
20180105_160000.003,0,RJAA,,,,0,20180105160000,-1,-1,-1,-1,300,-1,3,-1,-1,-1,-1,,4000,2,2,1,FEW 1,1,1,1,1,1010,RJAA 051600Z 30003KT 4000 R34L/P1800N R34R/0250V0400U BCFG BR     FEW001 01/01 Q1010 TEMPO 3000 BR RMK 1ST001 A2983 FG ON           RWY34R AND RWY16R AND RWY16L=,BC FG; BR
20180105_163000.001,0,RJAA,,,,0,20180105160000,-1,-1,-1,-1,300,-1,5,-1,-1,-1,-1,,4000,2,2,1,FEW 1,1,1,1,0,1010,RJAA 051630Z 30005KT 4000 R34L/P1800N R34R/0400V0800U BCFG BR     FEW001 01/00 Q1010 TEMPO 3000 BR RMK 1ST001 A2984 FG ON           RWY34R AND RWY16R AND RWY16L=,BC FG; BR
20180105_170000.002,0,RJAA,,,,0,20180105170000,-1,-1,-1,-1,300,-1,3,-1,-1,-1,-1,,4000,2,2,1,FEW 1,-1,0,-1,1,1010,RJAA 051700Z 30003KT 4000 R34L/P1800N R34R/0500VP1800D BCFG BR     FEW001 M00/M01 Q1010 TEMPO 3000 BR RMK 1ST001 A2984 BCFG           IS FREEZING AND ON RWY34R=,BC FG; BR
20180105_173000.001,0,RJAA,,,,0,20180105170000,-1,-1,-1,-1,280,-1,4,-1,-1,-1,-1,,5000,0,2,1,FEW 1,1,0,-1,0,1010,RJAA 051730Z 28004KT 5000 MIFG BR FEW001 00/M00 Q1010 TEMPO     4000 BR RMK 1ST001 A2984=,MI FG; BR
20180105_180000.003,0,RJAA,,,,0,20180105180000,-1,-1,-1,-1,290,-1,3,-1,-1,260,320,,5000,0,2,1,FEW 10,-1,0,-1,1,1010,RJAA 051800Z 29003KT 260V320 5000 MIFG BR FEW010 M00/M01 Q1010     TEMPO 4000 BR RMK 1ST010 A2983 MIFG IS FREEZING=,MI FG; BR
20180105_183000.001,0,RJAA,,,,0,20180105180000,-1,-1,-1,-1,280,-1,5,-1,-1,-1,-1,,8000,0,0,1,FEW 10,-1,0,-1,1,1010,RJAA 051830Z 28005KT 8000 FEW010 M00/M01 Q1010 NOSIG RMK     1ST010 A2982=,
20180105_190000.002,0,RJAA,,,,0,20180105190000,-1,-1,-1,-1,999,-1,2,-1,-1,-1,-1,,9999,0,0,1,FEW 10,-1,2,-1,3,1010,RJAA 051900Z VRB02KT 9999 FEW010 M02/M03 Q1010 NOSIG RMK     1ST010 A2983=,
20180105_193000.001,0,RJAA,,,,0,20180105190000,-1,-1,-1,-1,290,-1,4,-1,-1,-1,-1,,9999,0,0,1,FEW 10,-1,1,-1,3,1010,RJAA 051930Z 29004KT 9999 FEW010 M01/M03 Q1010 NOSIG RMK     1ST010 A2983=,
20180105_200000.002,0,RJAA,,,,0,20180105200000,-1,-1,-1,-1,999,-1,2,-1,-1,-1,-1,,9999,0,1,1,FEW 10,-1,2,-1,3,1010,RJAA 052000Z VRB02KT 9999 MIFG FEW010 M02/M03 Q1010 NOSIG RMK     1ST010 A2983 MIFG IS FREEZING=,MI FG
20180105_203000.001,0,RJAA,,,,0,20180105200000,-1,-1,-1,-1,290,-1,2,-1,-1,-1,-1,,9999,0,0,1,FEW 10,-1,2,-1,3,1010,RJAA 052030Z 29002KT 9999 FEW010 M02/M03 Q1010 NOSIG RMK     1ST010 A2984=,
20180105_210000.003,0,RJAA,,,,0,20180105210000,-1,-1,-1,-1,270,-1,2,-1,-1,-1,-1,,9999,0,0,1,FEW 20,-1,2,-1,3,1010,RJAA 052100Z 27002KT 9999 FEW020 M02/M03 Q1010 NOSIG RMK     1CU020 A2985=,
20180105_213000.001,0,RJAA,,,,0,20180105210000,-1,-1,-1,-1,999,-1,1,-1,-1,-1,-1,,9999,0,0,1,FEW 30,-1,3,-1,4,1011,RJAA 052130Z VRB01KT 9999 FEW030 M03/M04 Q1011 NOSIG RMK     1CU030 A2985=,
20180105_220000.002,0,RJAA,,,,0,20180105220000,-1,-1,-1,-1,999,-1,1,-1,-1,-1,-1,,9999,0,0,1,FEW 30,-1,3,-1,4,1011,RJAA 052200Z VRB01KT 9999 FEW030 M03/M04 Q1011 NOSIG RMK     1CU030 A2985=,
20180105_223000.002,0,RJAA,,,,0,20180105220000,-1,-1,-1,-1,999,-1,2,-1,-1,-1,-1,,9999,0,0,1,FEW 30,-1,3,-1,4,1011,RJAA 052230Z VRB02KT 9999 FEW030 M03/M04 Q1011 NOSIG RMK     1CU030 A2986=,
20180105_230000.002,0,RJAA,,,,0,20180105230000,-1,-1,-1,-1,999,-1,2,-1,-1,-1,-1,,9999,0,0,2,FEW 30   SCT -9999,-1,1,-1,3,1011,RJAA 052300Z VRB02KT 9999 FEW030 SCT/// M01/M03 Q1011 BECMG     31005KT RMK 1CU030 A2988=,
20180105_233000.001,0,RJAA,,,,0,20180105230000,-1,-1,-1,-1,300,-1,3,-1,-1,-1,-1,,9999,0,0,2,FEW 30   SCT -9999,1,0,-1,3,1011,RJAA 052330Z 30003KT 9999 FEW030 SCT/// 00/M03 Q1011 NOSIG RMK     1CU030 A2987=,
20180106_000000.002,0,RJAA,,,,0,20180106000000,-1,-1,-1,-1,290,-1,3,-1,-1,240,320,,9999,0,0,1,FEW 30,1,2,-1,3,1011,RJAA 060000Z 29003KT 240V320 9999 FEW030 02/M03 Q1011 NOSIG     RMK 1CU030 A2987=,
20180106_003000.001,0,RJAA,,,,0,20180106000000,-1,-1,-1,-1,270,-1,3,-1,-1,230,310,,9999,0,0,1,FEW 30,1,3,-1,2,1011,RJAA 060030Z 27003KT 230V310 9999 FEW030 03/M02 Q1011 NOSIG     RMK 1CU030 A2987=,
20180106_010000.002,0,RJAA,,,,0,20180106010000,-1,-1,-1,-1,280,-1,4,-1,-1,240,310,,9999,0,0,1,FEW 30,1,4,-1,3,1011,RJAA 060100Z 28004KT 240V310 9999 FEW030 04/M03 Q1011 NOSIG     RMK 1CU030 A2988=,
20180106_013000.001,0,RJAA,,,,0,20180106010000,-1,-1,-1,-1,290,-1,4,-1,-1,250,320,,9999,0,0,1,FEW 30,1,5,-1,2,1011,RJAA 060130Z 29004KT 250V320 9999 FEW030 05/M02 Q1011 NOSIG     RMK 1CU030 A2987=,
20180106_020000.002,0,RJAA,,,,0,20180106020000,-1,-1,-1,-1,280,-1,6,-1,-1,230,320,,9999,0,0,1,FEW 30,1,6,-1,3,1010,RJAA 060200Z 28006KT 230V320 9999 FEW030 06/M03 Q1010 NOSIG     RMK 1CU030 A2985=,
20180106_023000.001,0,RJAA,,,,0,20180106020000,-1,-1,-1,-1,290,-1,7,-1,-1,240,320,,9999,0,0,1,FEW 30,1,7,-1,3,1010,RJAA 060230Z 29007KT 240V320 9999 FEW030 07/M03 Q1010 NOSIG     RMK 1CU030 A2984=,
20180106_030000.002,0,RJAA,,,,0,20180106030000,-1,-1,-1,-1,270,-1,6,-1,-1,210,310,,9999,0,0,1,FEW 30,1,7,-1,3,1010,RJAA 060300Z 27006KT 210V310 9999 FEW030 07/M03 Q1010 NOSIG     RMK 1CU030 A2983=,
20180106_033000.001,0,RJAA,,,,0,20180106030000,-1,-1,-1,-1,260,-1,5,-1,-1,210,300,,9999,0,0,1,FEW 30,1,8,-1,3,1009,RJAA 060330Z 26005KT 210V300 9999 FEW030 08/M03 Q1009 NOSIG     RMK 1CU030 A2982=,
20180106_040000.002,0,RJAA,,,,0,20180106040000,-1,-1,-1,-1,290,-1,5,-1,-1,240,330,,9999,0,0,1,FEW 30,1,8,-1,5,1009,RJAA 060400Z 29005KT 240V330 9999 FEW030 08/M05 Q1009 NOSIG     RMK 1CU030 A2981=,
20180106_043000.001,0,RJAA,,,,0,20180106040000,-1,-1,-1,-1,999,-1,4,-1,-1,-1,-1,,9999,0,0,1,FEW 30,1,9,-1,5,1008,RJAA 060430Z VRB04KT 9999 FEW030 09/M05 Q1008 NOSIG RMK 1CU030     A2979=,
20180106_050000.002,0,RJAA,,,,0,20180106050000,-1,-1,-1,-1,250,-1,6,-1,-1,200,280,,9999,0,0,1,FEW 30,1,9,-1,6,1008,RJAA 060500Z 25006KT 200V280 9999 FEW030 09/M06 Q1008 BECMG     22006KT RMK 1CU030 A2979=,
20180106_060000.002,0,RJAA,,,,0,20180106060000,-1,-1,-1,-1,240,-1,4,-1,-1,160,310,,9999,0,0,1,FEW 30,1,10,-1,6,1008,RJAA 060600Z 24004KT 160V310 9999 FEW030 10/M06 Q1008 BECMG     22006KT RMK 1CU030 A2979=,
20180106_063000.001,0,RJAA,,,,0,20180106060000,-1,-1,-1,-1,220,-1,5,-1,-1,190,250,,9999,0,0,1,FEW 30,1,9,-1,6,1008,RJAA 060630Z 22005KT 190V250 9999 FEW030 09/M06 Q1008 NOSIG     RMK 1CU030 A2979=,
20180106_070000.002,0,RJAA,,,,0,20180106070000,-1,-1,-1,-1,200,-1,5,-1,-1,-1,-1,,9999,0,0,1,FEW 30,1,9,-1,6,1008,RJAA 060700Z 20005KT 9999 FEW030 09/M06 Q1008 NOSIG RMK 1CU030     A2979=,
20180106_073000.001,0,RJAA,,,,0,20180106070000,-1,-1,-1,-1,190,-1,3,-1,-1,-1,-1,,9999,0,0,1,FEW 30,1,7,-1,5,1009,RJAA 060730Z 19003KT 9999 FEW030 07/M05 Q1009 NOSIG RMK 1CU030     A2980=,
20180106_080000.002,0,RJAA,,,,0,20180106080000,-1,-1,-1,-1,200,-1,3,-1,-1,-1,-1,,9999,0,0,1,FEW 30,1,5,-1,3,1009,RJAA 060800Z 20003KT 9999 FEW030 05/M03 Q1009 NOSIG RMK 1CU030     A2980=,
20180106_083000.001,0,RJAA,,,,0,20180106080000,-1,-1,-1,-1,210,-1,3,-1,-1,-1,-1,,9999,0,0,1,FEW 30,1,3,-1,3,1009,RJAA 060830Z 21003KT 9999 FEW030 03/M03 Q1009 NOSIG RMK 1CU030     A2982=,
20180106_090000.002,0,RJAA,,,,0,20180106090000,-1,-1,-1,-1,210,-1,2,-1,-1,-1,-1,,9999,0,0,1,FEW 30,1,2,-1,3,1010,RJAA 060900Z 21002KT 9999 FEW030 02/M03 Q1010 NOSIG RMK 1CU030     A2982=,
20180106_093000.001,0,RJAA,,,,0,20180106090000,-1,-1,-1,-1,190,-1,3,-1,-1,-1,-1,,9999,0,0,1,FEW 30,1,1,-1,3,1010,RJAA 060930Z 19003KT 9999 FEW030 01/M03 Q1010 NOSIG RMK 1CU030     A2984=,
20180106_100000.002,0,RJAA,,,,0,20180106100000,-1,-1,-1,-1,210,-1,4,-1,-1,-1,-1,,9999,0,0,1,FEW 30,1,3,-1,1,1010,RJAA 061000Z 21004KT 9999 FEW030 03/M01 Q1010 NOSIG RMK 1CU030     A2984=,
20180106_103000.001,0,RJAA,,,,0,20180106100000,-1,-1,-1,-1,230,-1,5,-1,-1,-1,-1,,9999,0,0,1,FEW 30,1,4,-1,1,1010,RJAA 061030Z 23005KT 9999 FEW030 04/M01 Q1010 BECMG 28006KT     RMK 1CU030 A2985=,
20180106_110000.002,0,RJAA,,,,0,20180106110000,-1,-1,-1,-1,250,-1,5,-1,-1,220,290,,9999,0,0,1,FEW 30,1,4,-1,1,1010,RJAA 061100Z 25005KT 220V290 9999 FEW030 04/M01 Q1010 NOSIG     RMK 1CU030 A2985=,
20180106_113000.001,0,RJAA,,,,0,20180106110000,-1,-1,-1,-1,290,-1,4,-1,-1,260,320,,9999,0,0,1,FEW 30,1,4,-1,1,1011,RJAA 061130Z 29004KT 260V320 9999 FEW030 04/M01 Q1011 NOSIG     RMK 1CU030 A2987=,
20180106_120000.002,0,RJAA,,,,0,20180106120000,-1,-1,-1,-1,270,-1,5,-1,-1,-1,-1,CAVOK,-1,0,0,0,,1,5,-1,2,1011,RJAA 061200Z 27005KT CAVOK 05/M02 Q1011 NOSIG RMK A2987=,
20180106_123000.001,0,RJAA,,,,0,20180106120000,-1,-1,-1,-1,290,-1,7,-1,-1,250,320,CAVOK,-1,0,0,0,,1,6,-1,4,1011,RJAA 061230Z 29007KT 250V320 CAVOK 06/M04 Q1011 NOSIG RMK     A2988=,
20180106_130000.002,0,RJAA,,,,0,20180106130000,-1,-1,-1,-1,280,-1,6,-1,-1,260,320,CAVOK,-1,0,0,0,,1,5,-1,4,1012,RJAA 061300Z 28006KT 260V320 CAVOK 05/M04 Q1012 NOSIG RMK     A2990=,
20180106_133000.001,0,RJAA,,,,0,20180106130000,-1,-1,-1,-1,280,-1,6,-1,-1,250,330,CAVOK,-1,0,0,0,,1,5,-1,5,1013,RJAA 061330Z 28006KT 250V330 CAVOK 05/M05 Q1013 NOSIG RMK     A2992=,
20180106_140000.003,0,RJAA,,,,0,20180106140000,-1,-1,-1,-1,290,-1,11,-1,-1,-1,-1,CAVOK,-1,0,0,0,,1,5,-1,7,1013,RJAA 061400Z 29011KT CAVOK 05/M07 Q1013 NOSIG RMK A2992=,
20180106_143000.001,0,RJAA,,,,0,20180106140000,-1,-1,-1,-1,290,-1,10,-1,-1,250,320,CAVOK,-1,0,0,0,,1,5,-1,8,1013,RJAA 061430Z 29010KT 250V320 CAVOK 05/M08 Q1013 NOSIG RMK     A2992=,
20180106_150000.002,0,RJAA,,,,0,20180106150000,-1,-1,-1,-1,300,-1,4,-1,-1,260,330,CAVOK,-1,0,0,0,,1,4,-1,7,1013,RJAA 061500Z 30004KT 260V330 CAVOK 04/M07 Q1013 NOSIG RMK     A2992=,
20180106_153000.001,0,RJAA,,,,0,20180106150000,-1,-1,-1,-1,310,-1,15,-1,-1,-1,-1,CAVOK,-1,0,0,0,,1,5,-1,7,1012,RJAA 061530Z 31015KT CAVOK 05/M07 Q1012 NOSIG RMK A2991=,
20180106_160000.002,0,RJAA,,,,0,20180106160000,-1,-1,-1,-1,300,-1,12,-1,24,-1,-1,CAVOK,-1,0,0,0,,1,5,-1,8,1013,RJAA 061600Z 30012G24KT CAVOK 05/M08 Q1013 NOSIG RMK A2992=,
20180106_163000.001,0,RJAA,,,,0,20180106160000,-1,-1,-1,-1,300,-1,13,-1,-1,-1,-1,CAVOK,-1,0,0,0,,1,5,-1,7,1014,RJAA 061630Z 30013KT CAVOK 05/M07 Q1014 NOSIG RMK A2995=,
20180106_170000.002,0,RJAA,,,,0,20180106170000,-1,-1,-1,-1,300,-1,9,-1,-1,270,330,CAVOK,-1,0,0,0,,1,4,-1,7,1014,RJAA 061700Z 30009KT 270V330 CAVOK 04/M07 Q1014 NOSIG RMK     A2995=,
20180106_173000.001,0,RJAA,,,,0,20180106170000,-1,-1,-1,-1,280,-1,8,-1,-1,-1,-1,CAVOK,-1,0,0,0,,1,4,-1,6,1014,RJAA 061730Z 28008KT CAVOK 04/M06 Q1014 NOSIG RMK A2995=,
20180106_180000.003,0,RJAA,,,,0,20180106180000,-1,-1,-1,-1,280,-1,6,-1,-1,220,310,CAVOK,-1,0,0,0,,1,4,-1,7,1014,RJAA 061800Z 28006KT 220V310 CAVOK 04/M07 Q1014 NOSIG RMK     A2996=,
20180106_183000.001,0,RJAA,,,,0,20180106180000,-1,-1,-1,-1,270,-1,5,-1,-1,220,300,CAVOK,-1,0,0,0,,1,4,-1,7,1015,RJAA 061830Z 27005KT 220V300 CAVOK 04/M07 Q1015 NOSIG RMK     A2997=,
20180106_190000.002,0,RJAA,,,,0,20180106190000,-1,-1,-1,-1,280,-1,4,-1,-1,250,320,CAVOK,-1,0,0,0,,1,3,-1,7,1015,RJAA 061900Z 28004KT 250V320 CAVOK 03/M07 Q1015 NOSIG RMK     A2998=,
20180106_193000.001,0,RJAA,,,,0,20180106190000,-1,-1,-1,-1,290,-1,6,-1,-1,260,330,CAVOK,-1,0,0,0,,1,3,-1,7,1015,RJAA 061930Z 29006KT 260V330 CAVOK 03/M07 Q1015 NOSIG RMK     A2998=,
20180106_200000.002,0,RJAA,,,,0,20180106200000,-1,-1,-1,-1,280,-1,6,-1,-1,-1,-1,CAVOK,-1,0,0,0,,1,3,-1,6,1015,RJAA 062000Z 28006KT CAVOK 03/M06 Q1015 NOSIG RMK A3000=,
20180106_203000.001,0,RJAA,,,,0,20180106200000,-1,-1,-1,-1,280,-1,5,-1,-1,-1,-1,CAVOK,-1,0,0,0,,1,3,-1,6,1016,RJAA 062030Z 28005KT CAVOK 03/M06 Q1016 NOSIG RMK A3001=,
20180106_210000.002,0,RJAA,,,,0,20180106210000,-1,-1,-1,-1,280,-1,4,-1,-1,250,310,CAVOK,-1,0,0,0,,1,3,-1,7,1016,RJAA 062100Z 28004KT 250V310 CAVOK 03/M07 Q1016 NOSIG RMK     A3002=,
20180106_213000.001,0,RJAA,,,,0,20180106210000,-1,-1,-1,-1,280,-1,4,-1,-1,240,320,,9999,0,0,1,FEW 30,1,3,-1,6,1017,RJAA 062130Z 28004KT 240V320 9999 FEW030 03/M06 Q1017 NOSIG     RMK 1CU030 A3003=,
20180106_220000.002,0,RJAA,,,,0,20180106220000,-1,-1,-1,-1,260,-1,2,-1,-1,-1,-1,,9999,0,0,2,FEW 30   BKN -9999,1,1,-1,7,1017,RJAA 062200Z 26002KT 9999 FEW030 BKN/// 01/M07 Q1017 NOSIG RMK     1CU030 A3005=,
20180106_223000.002,0,RJAA,,,,0,20180106220000,-1,-1,-1,-1,290,-1,3,-1,-1,-1,-1,,9999,0,0,2,FEW 30   SCT -9999,1,3,-1,6,1018,RJAA 062230Z 29003KT 9999 FEW030 SCT/// 03/M06 Q1018 NOSIG RMK     1CU030 A3006=,
20180106_230000.002,0,RJAA,,,,0,20180106230000,-1,-1,-1,-1,300,-1,4,-1,-1,270,330,,9999,0,0,1,FEW 30,1,4,-1,6,1018,RJAA 062300Z 30004KT 270V330 9999 FEW030 04/M06 Q1018 NOSIG     RMK 1CU030 A3007=,
20180106_233000.001,0,RJAA,,,,0,20180106230000,-1,-1,-1,-1,300,-1,5,-1,-1,-1,-1,,9999,0,0,2,FEW 30   BKN -9999,1,5,-1,6,1018,RJAA 062330Z 30005KT 9999 FEW030 BKN/// 05/M06 Q1018 NOSIG RMK     1CU030 A3008=,
20180107_000000.002,0,RJAA,,,,0,20180107000000,-1,-1,-1,-1,300,-1,7,-1,-1,270,340,,9999,0,0,2,FEW 30   BKN -9999,1,5,-1,6,1019,RJAA 070000Z 30007KT 270V340 9999 FEW030 BKN/// 05/M06 Q1019     NOSIG RMK 1CU030 A3010=,
20180107_003000.001,0,RJAA,,,,0,20180107000000,-1,-1,-1,-1,310,-1,9,-1,-1,-1,-1,,9999,0,0,2,FEW 30   BKN -9999,1,6,-1,6,1019,RJAA 070030Z 31009KT 9999 FEW030 BKN/// 06/M06 Q1019 NOSIG RMK     1CU030 A3011=,
20180107_010000.003,0,RJAA,,,,0,20180107010000,-1,-1,-1,-1,300,-1,6,-1,-1,260,340,,9999,0,0,2,FEW 30   BKN -9999,1,6,-1,6,1019,RJAA 070100Z 30006KT 260V340 9999 FEW030 BKN/// 06/M06 Q1019     NOSIG RMK 1CU030 A3011=,
20180107_013000.001,0,RJAA,,,,0,20180107010000,-1,-1,-1,-1,290,-1,6,-1,-1,250,340,,9999,0,0,2,FEW 30   BKN -9999,1,7,-1,6,1019,RJAA 070130Z 29006KT 250V340 9999 FEW030 BKN/// 07/M06 Q1019     NOSIG RMK 1CU030 A3012=,
20180107_020000.002,0,RJAA,,,,0,20180107020000,-1,-1,-1,-1,310,-1,8,-1,-1,280,340,,9999,0,0,2,FEW 30   BKN -9999,1,8,-1,6,1019,RJAA 070200Z 31008KT 280V340 9999 FEW030 BKN/// 08/M06 Q1019     NOSIG RMK 1CU030 A3011=,
20180107_023000.001,0,RJAA,,,,0,20180107020000,-1,-1,-1,-1,300,-1,6,-1,-1,250,360,,9999,0,0,2,FEW 30   BKN -9999,1,8,-1,7,1019,RJAA 070230Z 30006KT 250V360 9999 FEW030 BKN/// 08/M07 Q1019     NOSIG RMK 1CU030 A3010=,
20180107_030000.002,0,RJAA,,,,0,20180107030000,-1,-1,-1,-1,310,-1,8,-1,-1,280,340,,9999,0,0,2,FEW 30   BKN -9999,1,9,-1,7,1019,RJAA 070300Z 31008KT 280V340 9999 FEW030 BKN/// 09/M07 Q1019     NOSIG RMK 1CU030 A3009=,
20180107_033000.001,0,RJAA,,,,0,20180107030000,-1,-1,-1,-1,320,-1,6,-1,-1,260,360,,9999,0,0,2,FEW 30   SCT -9999,1,9,-1,8,1019,RJAA 070330Z 32006KT 260V360 9999 FEW030 SCT/// 09/M08 Q1019     NOSIG RMK 1CU030 A3010=,
20180107_040000.002,0,RJAA,,,,0,20180107040000,-1,-1,-1,-1,300,-1,7,-1,-1,270,350,,9999,0,0,2,FEW 30   BKN -9999,1,9,-1,8,1019,RJAA 070400Z 30007KT 270V350 9999 FEW030 BKN/// 09/M08 Q1019     NOSIG RMK 1CU030 A3010=,
20180107_043000.001,0,RJAA,,,,0,20180107040000,-1,-1,-1,-1,340,-1,4,-1,-1,230,20,,9999,0,0,2,FEW 30   BKN -9999,1,10,-1,8,1019,RJAA 070430Z 34004KT 230V020 9999 FEW030 BKN/// 10/M08 Q1019     WS R34R NOSIG RMK 1CU030 A3011=,
20180107_050000.002,0,RJAA,,,,0,20180107050000,-1,-1,-1,-1,320,-1,6,-1,-1,220,20,,9999,0,0,2,FEW 30   BKN -9999,1,10,-1,9,1019,RJAA 070500Z 32006KT 220V020 9999 FEW030 BKN/// 10/M09 Q1019     BECMG 20005KT RMK 1CU030 A3010=,
20180107_053000.001,0,RJAA,,,,0,20180107050000,-1,-1,-1,-1,320,-1,6,-1,-1,250,20,,9999,0,0,2,FEW 30   BKN -9999,1,10,-1,8,1019,RJAA 070530Z 32006KT 250V020 9999 FEW030 BKN/// 10/M08 Q1019     BECMG 08005KT RMK 1CU030 A3010=,
20180107_060000.002,0,RJAA,,,,0,20180107060000,-1,-1,-1,-1,10,-1,5,-1,-1,280,60,,9999,0,0,2,FEW 30   BKN -9999,1,10,-1,8,1019,RJAA 070600Z 01005KT 280V060 9999 FEW030 BKN/// 10/M08 Q1019     BECMG 08005KT RMK 1CU030 A3011=,
20180107_063000.001,0,RJAA,,,,0,20180107060000,-1,-1,-1,-1,340,-1,5,-1,-1,-1,-1,,9999,0,0,2,FEW 30   BKN -9999,1,9,-1,9,1019,RJAA 070630Z 34005KT 9999 FEW030 BKN/// 09/M09 Q1019 BECMG     TL0730 08005KT RMK 1CU030 A3011=,
20180107_070000.002,0,RJAA,,,,0,20180107070000,-1,-1,-1,-1,999,-1,1,-1,-1,-1,-1,,9999,0,0,2,FEW 30   BKN -9999,1,9,-1,8,1020,RJAA 070700Z VRB01KT 9999 FEW030 BKN/// 09/M08 Q1020 BECMG     TL0730 10005KT RMK 1CU030 A3013=,
20180107_073000.001,0,RJAA,,,,0,20180107070000,-1,-1,-1,-1,140,-1,7,-1,-1,-1,-1,,9999,0,0,2,FEW 30   BKN -9999,1,6,-1,5,1020,RJAA 070730Z 14007KT 9999 FEW030 BKN/// 06/M05 Q1020 NOSIG RMK     1CU030 A3014=,
20180107_080000.002,0,RJAA,,,,0,20180107080000,-1,-1,-1,-1,130,-1,4,-1,-1,-1,-1,,9999,0,0,2,FEW 30   SCT -9999,1,4,-1,5,1020,RJAA 070800Z 13004KT 9999 FEW030 SCT/// 04/M05 Q1020 NOSIG RMK     1CU030 A3015=,
20180107_083000.001,0,RJAA,,,,0,20180107080000,-1,-1,-1,-1,140,-1,4,-1,-1,90,170,,9999,0,0,2,FEW 30   BKN -9999,1,5,-1,3,1021,RJAA 070830Z 14004KT 090V170 9999 FEW030 BKN/// 05/M03 Q1021     NOSIG RMK 1CU030 A3017=,
20180107_090000.002,0,RJAA,,,,0,20180107090000,-1,-1,-1,-1,140,-1,3,-1,-1,70,180,,9999,0,0,2,FEW 30   BKN -9999,1,3,-1,3,1022,RJAA 070900Z 14003KT 070V180 9999 FEW030 BKN/// 03/M03 Q1022     NOSIG RMK 1CU030 A3019=,
20180107_093000.001,0,RJAA,,,,0,20180107090000,-1,-1,-1,-1,140,-1,3,-1,-1,80,200,,9999,0,0,2,FEW 30   BKN -9999,1,4,-1,3,1023,RJAA 070930Z 14003KT 080V200 9999 FEW030 BKN/// 04/M03 Q1023     NOSIG RMK 1CU030 A3021=,
20180107_100000.002,0,RJAA,,,,0,20180107100000,-1,-1,-1,-1,110,-1,3,-1,-1,-1,-1,,9999,0,0,2,FEW 30   BKN -9999,1,1,-1,3,1022,RJAA 071000Z 11003KT 9999 FEW030 BKN/// 01/M03 Q1022 NOSIG RMK     1CU030 A3021=,
20180107_103000.001,0,RJAA,,,,0,20180107100000,-1,-1,-1,-1,120,-1,3,-1,-1,80,150,,9999,0,0,2,FEW 30   BKN -9999,1,2,-1,2,1023,RJAA 071030Z 12003KT 080V150 9999 FEW030 BKN/// 02/M02 Q1023     NOSIG RMK 1CU030 A3021=,
20180107_110000.002,0,RJAA,,,,0,20180107110000,-1,-1,-1,-1,999,-1,2,-1,-1,-1,-1,,9999,0,0,2,FEW 30   BKN -9999,1,1,-1,3,1023,RJAA 071100Z VRB02KT 9999 FEW030 BKN/// 01/M03 Q1023 NOSIG RMK     1CU030 A3022=,
20180107_113000.001,0,RJAA,,,,0,20180107110000,-1,-1,-1,-1,130,-1,2,-1,-1,-1,-1,,9999,0,0,2,FEW 30   BKN -9999,1,2,-1,2,1022,RJAA 071130Z 13002KT 9999 FEW030 BKN/// 02/M02 Q1022 NOSIG RMK     1CU030 A3021=,
20180107_120000.003,0,RJAA,,,,0,20180107120000,-1,-1,-1,-1,150,-1,3,-1,-1,-1,-1,,9999,0,0,2,FEW 30   BKN -9999,1,1,-1,2,1023,RJAA 071200Z 15003KT 9999 FEW030 BKN/// 01/M02 Q1023 NOSIG RMK     1CU030 A3021=,
20180107_123000.001,0,RJAA,,,,0,20180107120000,-1,-1,-1,-1,150,-1,3,-1,-1,-1,-1,,9999,0,0,2,FEW 30   BKN -9999,1,1,-1,2,1023,RJAA 071230Z 15003KT 9999 FEW030 BKN/// 01/M02 Q1023 NOSIG RMK     1CU030 A3022=,
20180107_130000.003,0,RJAA,,,,0,20180107130000,-1,-1,-1,-1,0,-1,0,-1,-1,-1,-1,,9999,0,0,3,FEW 30   SCT 180   BKN -9999,1,1,-1,1,1023,RJAA 071300Z 00000KT 9999 FEW030 SCT180 BKN/// 01/M01 Q1023     NOSIG RMK 1CU030 4AC180 A3023=,
20180107_133000.001,0,RJAA,,,,0,20180107130000,-1,-1,-1,-1,999,-1,1,-1,-1,-1,-1,,9999,0,0,3,FEW 30   BKN 180   BKN -9999,1,1,-1,1,1023,RJAA 071330Z VRB01KT 9999 FEW030 BKN180 BKN/// 01/M01 Q1023     NOSIG RMK 1CU030 5AC180 A3023=,
20180107_140000.003,0,RJAA,,,,0,20180107140000,-1,-1,-1,-1,170,-1,1,-1,-1,-1,-1,,9999,0,0,3,FEW 30   BKN 180   BKN -9999,1,1,-1,1,1023,RJAA 071400Z 17001KT 9999 FEW030 BKN180 BKN/// 01/M01 Q1023     NOSIG RMK 1CU030 5AC180 A3021=,
20180107_143000.001,0,RJAA,,,,0,20180107140000,-1,-1,-1,-1,130,-1,1,-1,-1,-1,-1,,9999,0,0,2,FEW 30   BKN -9999,-1,0,-1,2,1023,RJAA 071430Z 13001KT 9999 FEW030 BKN/// M00/M02 Q1023 NOSIG     RMK 1CU030 A3021=,
20180107_150000.002,0,RJAA,,,,0,20180107150000,-1,-1,-1,-1,350,-1,4,-1,-1,-1,-1,,9999,0,0,2,FEW 30   BKN -9999,1,0,-1,2,1022,RJAA 071500Z 35004KT 9999 FEW030 BKN/// 00/M02 Q1022 NOSIG RMK     1CU030 A3020=,
20180107_153000.001,0,RJAA,,,,0,20180107150000,-1,-1,-1,-1,999,-1,1,-1,-1,-1,-1,,9999,0,0,3,FEW 30   BKN 45   BKN -9999,1,1,-1,2,1022,RJAA 071530Z VRB01KT 9999 FEW030 BKN045 BKN/// 01/M02 Q1022     NOSIG RMK 1CU030 6SC045 A3019=,
20180107_160000.002,0,RJAA,,,,0,20180107160000,-1,-1,-1,-1,999,-1,1,-1,-1,-1,-1,,9999,0,0,2,FEW 30   BKN 45,1,2,-1,1,1022,RJAA 071600Z VRB01KT 9999 FEW030 BKN045 02/M01 Q1022 NOSIG RMK     1CU030 7SC045 A3018=,
20180107_163000.001,0,RJAA,,,,0,20180107160000,-1,-1,-1,-1,0,-1,0,-1,-1,-1,-1,,9999,0,0,2,FEW 30   BKN 45,1,2,-1,1,1022,RJAA 071630Z 00000KT 9999 FEW030 BKN045 02/M01 Q1022 NOSIG RMK     1CU030 7SC045 A3019=,
20180107_170000.002,0,RJAA,,,,0,20180107170000,-1,-1,-1,-1,350,-1,3,-1,-1,-1,-1,,9999,0,0,3,FEW 30   SCT 45   BKN 170,1,3,-1,1,1021,RJAA 071700Z 35003KT 9999 FEW030 SCT045 BKN170 03/M01 Q1021     NOSIG RMK 1CU030 4SC045 7AC170 A3017=,
20180107_173000.001,0,RJAA,,,,0,20180107170000,-1,-1,-1,-1,330,-1,4,-1,-1,-1,-1,,9999,0,0,3,FEW 25   SCT 160   BKN -9999,1,2,-1,1,1021,RJAA 071730Z 33004KT 9999 FEW025 SCT160 BKN/// 02/M01 Q1021     NOSIG RMK 1CU025 3AC160 A3016=,
20180107_180000.002,0,RJAA,,,,0,20180107180000,-1,-1,-1,-1,330,-1,6,-1,-1,-1,-1,,9999,0,0,3,FEW 30   BKN 50   BKN -9999,1,2,-1,1,1021,RJAA 071800Z 33006KT 9999 FEW030 BKN050 BKN/// 02/M01 Q1021     NOSIG RMK 1CU030 6SC050 A3016=,
20180107_183000.001,0,RJAA,,,,0,20180107180000,-1,-1,-1,-1,330,-1,4,-1,-1,-1,-1,,9999,0,0,2,FEW 30   BKN 45,1,3,-1,0,1021,RJAA 071830Z 33004KT 9999 FEW030 BKN045 03/M00 Q1021 NOSIG RMK     1CU030 7SC045 A3015=,
20180107_190000.003,0,RJAA,,,,0,20180107190000,-1,-1,-1,-1,330,-1,6,-1,-1,-1,-1,,9999,0,0,2,FEW 30   BKN 40,1,2,-1,1,1020,RJAA 071900Z 33006KT 9999 FEW030 BKN040 02/M01 Q1020 NOSIG RMK     1CU030 7SC040 A3014=,
20180107_193000.001,0,RJAA,,,,0,20180107190000,-1,-1,-1,-1,300,-1,4,-1,-1,270,330,,9999,0,0,2,FEW 30   BKN 45,1,2,-1,1,1020,RJAA 071930Z 30004KT 270V330 9999 FEW030 BKN045 02/M01 Q1020     NOSIG RMK 1CU030 7SC045 A3014=,
20180107_200000.002,0,RJAA,,,,0,20180107200000,-1,-1,-1,-1,300,-1,3,-1,-1,240,350,,9999,0,0,3,FEW 30   BKN 45   BKN 120,1,2,-1,2,1020,RJAA 072000Z 30003KT 240V350 9999 FEW030 BKN045 BKN120 02/M02     Q1020 NOSIG RMK 1CU030 6SC045 7AC120 A3013=,
20180107_203000.001,0,RJAA,,,,0,20180107200000,-1,-1,-1,-1,290,-1,3,-1,-1,-1,-1,,9999,0,0,3,FEW 30   BKN 60   BKN 120,1,2,-1,2,1020,RJAA 072030Z 29003KT 9999 FEW030 BKN060 BKN120 02/M02 Q1020     NOSIG RMK 1CU030 5SC060 7AC120 A3013=,
20180107_210000.003,0,RJAA,,,,0,20180107210000,-1,-1,-1,-1,290,-1,3,-1,-1,260,320,,9999,0,0,3,FEW 30   SCT 40   BKN 50,1,2,-1,2,1020,RJAA 072100Z 29003KT 260V320 9999 FEW030 SCT040 BKN050 02/M02     Q1020 NOSIG RMK 1CU030 3SC040 6SC050 A3013=,
20180107_213000.001,0,RJAA,,,,0,20180107210000,-1,-1,-1,-1,999,-1,2,-1,-1,-1,-1,,9999,0,0,3,FEW 15   BKN 50   BKN 120,1,2,-1,3,1019,RJAA 072130Z VRB02KT 9999 FEW015 BKN050 BKN120 02/M03 Q1019     NOSIG RMK 1CU015 6SC050 7AC120 A3011=,
20180107_220000.002,0,RJAA,,,,0,20180107220000,-1,-1,-1,-1,320,-1,3,-1,-1,-1,-1,,9999,0,0,3,FEW 15   BKN 50   BKN 110,1,2,-1,3,1019,RJAA 072200Z 32003KT 9999 FEW015 BKN050 BKN110 02/M03 Q1019     NOSIG RMK 1CU015 5SC050 7AC110 A3010=,
20180107_223000.002,0,RJAA,,,,0,20180107220000,-1,-1,-1,-1,280,-1,3,-1,-1,240,330,,9999,0,0,3,FEW 25   SCT 180   BKN -9999,1,2,-1,3,1019,RJAA 072230Z 28003KT 240V330 9999 FEW025 SCT180 BKN/// 02/M03     Q1019 NOSIG RMK 1CU025 3AC180 A3011=,
20180107_230000.002,0,RJAA,,,,0,20180107230000,-1,-1,-1,-1,270,-1,3,-1,-1,-1,-1,,9999,0,0,2,FEW 25   BKN 170,1,3,-1,2,1020,RJAA 072300Z 27003KT 9999 FEW025 BKN170 03/M02 Q1020 NOSIG RMK     1CU025 7AC170 A3012=,
20180107_233000.001,0,RJAA,,,,0,20180107230000,-1,-1,-1,-1,260,-1,4,-1,-1,220,290,,9999,0,0,3,FEW 30   SCT 160   BKN -9999,1,3,-1,2,1019,RJAA 072330Z 26004KT 220V290 9999 FEW030 SCT160 BKN/// 03/M02     Q1019 NOSIG RMK 1CU030 4AC160 A3011=,
20180108_000000.002,0,RJAA,,,,0,20180108000000,-1,-1,-1,-1,280,-1,3,-1,-1,220,300,,9999,0,0,3,FEW 30   SCT 170   BKN -9999,1,4,-1,2,1019,RJAA 080000Z 28003KT 220V300 9999 FEW030 SCT170 BKN/// 04/M02     Q1019 NOSIG RMK 1CU030 3AC170 A3012=,
20180108_003000.001,0,RJAA,,,,0,20180108000000,-1,-1,-1,-1,300,-1,3,-1,-1,260,340,,9999,0,0,3,FEW 30   BKN 150   BKN -9999,1,4,-1,3,1019,RJAA 080030Z 30003KT 260V340 9999 FEW030 BKN150 BKN/// 04/M03     Q1019 NOSIG RMK 1CU030 6AC150 A3010 MOD TURB OBS AT 0008Z           15NM N BINKS 10000FT B763 JAL3082=,
20180108_010000.002,0,RJAA,,,,0,20180108010000,-1,-1,-1,-1,999,-1,2,-1,-1,-1,-1,,9999,0,0,2,FEW 30   BKN 120,1,5,-1,2,1018,RJAA 080100Z VRB02KT 9999 FEW030 BKN120 05/M02 Q1018 NOSIG RMK     1CU030 7AC120 A3008=,
20180108_013000.001,0,RJAA,,,,0,20180108010000,-1,-1,-1,-1,270,-1,4,-1,-1,240,300,,9999,0,0,2,FEW 30   BKN 90,1,5,-1,2,1018,RJAA 080130Z 27004KT 240V300 9999 FEW030 BKN090 05/M02 Q1018     NOSIG RMK 1CU030 7AC090 A3009=,
20180108_020000.002,0,RJAA,,,,0,20180108020000,-1,-1,-1,-1,240,-1,4,-1,-1,210,280,,9999,0,0,2,FEW 15   OVC 80,1,5,-1,1,1017,RJAA 080200Z 24004KT 210V280 9999 FEW015 OVC080 05/M01 Q1017     BECMG 22006KT RMK 1CU015 8AS080 A3005 P/FR=,
20180108_023000.001,0,RJAA,,,,0,20180108020000,-1,-1,-1,-1,240,-1,4,-1,-1,200,290,,9999,0,1,3,FEW 15   SCT 50   OVC 80,1,6,-1,1,1016,RJAA 080230Z 24004KT 200V290 9999 -RA FEW015 SCT050 OVC080     06/M01 Q1016 BECMG 22006KT RMK 1CU015 3SC050 8AS080           A3003=,- RA
20180108_030000.002,0,RJAA,,,,0,20180108030000,-1,-1,-1,-1,999,-1,2,-1,-1,-1,-1,,9999,0,0,2,FEW 15   OVC 70,1,6,-1,2,1015,RJAA 080300Z VRB02KT 9999 FEW015 OVC070 06/M02 Q1015 BECMG     22006KT RMK 1CU015 8AS070 A2999 P/FR=,
20180108_033000.001,0,RJAA,,,,0,20180108030000,-1,-1,-1,-1,250,-1,3,-1,-1,220,330,,9999,0,0,3,FEW 15   SCT 80   BKN -9999,1,8,-1,0,1014,RJAA 080330Z 25003KT 220V330 9999 FEW015 SCT080 BKN/// 08/M00     Q1014 BECMG 22006KT RMK 1CU015 3AC080 A2997=,
20180108_040000.002,0,RJAA,,,,0,20180108040000,-1,-1,-1,-1,220,-1,4,-1,-1,190,260,,9999,0,0,3,FEW 15   SCT 150   BKN -9999,1,9,1,1,1013,RJAA 080400Z 22004KT 190V260 9999 FEW015 SCT150 BKN/// 09/01     Q1013 NOSIG RMK 1CU015 3AC150 A2993 P/FR=,
20180108_043000.001,0,RJAA,,,,0,20180108040000,-1,-1,-1,-1,230,-1,5,-1,-1,190,270,,9999,0,0,3,FEW 20   SCT 130   BKN 180,1,9,1,1,1013,RJAA 080430Z 23005KT 190V270 9999 FEW020 SCT130 BKN180 09/01     Q1013 NOSIG RMK 1CU020 4AC130 7AC180 A2991=,
20180108_050000.002,0,RJAA,,,,0,20180108050000,-1,-1,-1,-1,210,-1,5,-1,-1,180,250,,9999,0,1,3,FEW 20   BKN 70   OVC 100,1,9,1,2,1013,RJAA 080500Z 21005KT 180V250 9999 -RA FEW020 BKN070 OVC100     09/02 Q1013 NOSIG RMK 1CU020 6AC070 8AS100 A2992=,- RA
20180108_053000.001,0,RJAA,,,,0,20180108050000,-1,-1,-1,-1,230,-1,3,-1,-1,210,290,,9999,0,1,3,FEW 20   BKN 60   OVC 90,1,8,1,3,1013,RJAA 080530Z 23003KT 210V290 9999 -RA FEW020 BKN060 OVC090     08/03 Q1013 NOSIG RMK 1CU020 5SC060 8AS090 A2992=,- RA
20180108_060000.003,0,RJAA,,,,0,20180108060000,-1,-1,-1,-1,180,-1,2,-1,-1,-1,-1,,9999,0,1,3,FEW 20   SCT 60   OVC 90,1,7,1,5,1012,RJAA 080600Z 18002KT 9999 -RA FEW020 SCT060 OVC090 07/05 Q1012     NOSIG RMK 1CU020 4SC060 8AS090 A2989=,- RA
20180108_063000.001,0,RJAA,,,,0,20180108060000,-1,-1,-1,-1,200,-1,2,-1,-1,-1,-1,,9999,0,1,3,FEW 20   BKN 60   OVC 90,1,7,1,5,1012,RJAA 080630Z 20002KT 9999 -RA FEW020 BKN060 OVC090 07/05 Q1012     NOSIG RMK 1CU020 6SC060 8AS090 A2990=,- RA
20180108_070000.002,0,RJAA,,,,0,20180108070000,-1,-1,-1,-1,999,-1,2,-1,-1,-1,-1,,8000,0,1,3,FEW 20   BKN 60   OVC 80,1,8,1,5,1011,RJAA 080700Z VRB02KT 8000 -RA FEW020 BKN060 OVC080 08/05 Q1011     BECMG 20005KT RMK 1CU020 5SC060 8AS080 A2987=,- RA
20180108_073000.001,0,RJAA,,,,0,20180108070000,-1,-1,-1,-1,0,-1,0,-1,-1,-1,-1,,8000,0,1,3,FEW 30   SCT 40   OVC 80,1,8,1,6,1011,RJAA 080730Z 00000KT 8000 -RA FEW030 SCT040 OVC080 08/06 Q1011     BECMG 18005KT RMK 1CU030 3SC040 8AS080 A2986=,- RA
20180108_080000.002,0,RJAA,,,,0,20180108080000,-1,-1,-1,-1,0,-1,0,-1,-1,-1,-1,,7000,0,1,3,FEW 25   SCT 50   OVC 90,1,7,1,6,1011,RJAA 080800Z 00000KT 7000 -RA FEW025 SCT050 OVC090 07/06 Q1011     NOSIG RMK 1CU025 3SC050 8AS090 A2985=,- RA
20180108_083000.001,0,RJAA,,,,0,20180108080000,-1,-1,-1,-1,210,-1,1,-1,-1,-1,-1,,6000,0,1,3,FEW 25   BKN 50   OVC 90,1,7,1,6,1010,RJAA 080830Z 21001KT 6000 -RA FEW025 BKN050 OVC090 07/06 Q1010     TEMPO 4000 -SHRA BR RMK 2CU025 5SC050 8AS090 A2985=,- RA
20180108_090000.002,0,RJAA,,,,0,20180108090000,-1,-1,-1,-1,999,-1,1,-1,-1,-1,-1,,6000,0,1,3,FEW 25   SCT 40   OVC 90,1,7,1,6,1010,RJAA 080900Z VRB01KT 6000 -RA FEW025 SCT040 OVC090 07/06 Q1010     TEMPO 4000 -SHRA BR RMK 2CU025 4SC040 8AS090 A2984=,- RA
20180108_093000.001,0,RJAA,,,,0,20180108090000,-1,-1,-1,-1,999,-1,1,-1,-1,-1,-1,,6000,0,2,2,FEW 20   BKN 30,1,7,1,6,1010,RJAA 080930Z VRB01KT 6000 -RA BR FEW020 BKN030 07/06 Q1010     TEMPO 4000 -SHRA BR RMK 2CU020 7SC030 A2982 BR N=,- RA; BR
20180108_100000.002,0,RJAA,,,,0,20180108100000,-1,-1,-1,-1,270,-1,1,-1,-1,-1,-1,,6000,0,2,3,FEW 15   SCT 30   BKN 50,1,7,1,6,1009,RJAA 081000Z 27001KT 6000 -RA BR FEW015 SCT030 BKN050 07/06     Q1009 BECMG 21005KT TEMPO 4000 -SHRA BR RMK 1CU015 4SC030           7SC050 A2982 BR N-NE=,- RA; BR
20180108_103000.001,0,RJAA,,,,0,20180108100000,-1,-1,-1,-1,120,-1,2,-1,-1,-1,-1,,6000,0,1,3,FEW 15   BKN 45   BKN 60,1,7,1,7,1009,RJAA 081030Z 12002KT 6000 -RA FEW015 BKN045 BKN060 07/07 Q1009     TEMPO 4000 -SHRA BR RMK 1CU015 6SC045 7SC060 A2980=,- RA
20180108_110000.002,0,RJAA,,,,0,20180108110000,-1,-1,-1,-1,80,-1,2,-1,-1,-1,-1,,7000,0,1,2,FEW 25   BKN 45,1,7,1,7,1008,RJAA 081100Z 08002KT 7000 -RA FEW025 BKN045 07/07 Q1008 TEMPO     4000 -SHRA BR RMK 1SC025 7SC045 A2977 P/FR=,- RA
20180108_113000.001,0,RJAA,,,,0,20180108110000,-1,-1,-1,-1,90,-1,1,-1,-1,-1,-1,,6000,0,1,2,FEW 25   BKN 35,1,7,1,7,1006,RJAA 081130Z 09001KT 6000 -RA FEW025 BKN035 07/07 Q1006 BECMG     05005KT TEMPO 4000 -SHRA BR RMK 1SC025 7SC035 A2972 P/FR=,- RA
20180108_120000.002,0,RJAA,,,,0,20180108120000,-1,-1,-1,-1,100,-1,1,-1,-1,-1,-1,,5000,0,2,3,FEW 10   BKN 18   BKN 30,1,7,1,7,1004,RJAA 081200Z 10001KT 5000 -RA BR FEW010 BKN018 BKN030 07/07     Q1004 BECMG 05005KT 4000 -SHRA BR FEW005 BKN008 RMK           1ST010 6SC018 7SC030 A2967 P/FR=,- RA; BR
20180108_123000.001,0,RJAA,,,,0,20180108120000,-1,-1,-1,-1,100,-1,3,-1,-1,-1,-1,,3500,0,2,3,FEW 5   SCT 8   BKN 14,1,7,1,7,1003,RJAA 081230Z 10003KT 3500 -RA BR FEW005 SCT008 BKN014 07/07     Q1003 BECMG 05005KT FEW005 BKN008 TEMPO 2000 SHRA BR RMK           1ST005 4ST008 6SC014 A2964 P/FR=,- RA; BR
20180108_130000.003,0,RJAA,,,,0,20180108130000,-1,-1,-1,-1,340,-1,5,-1,-1,300,10,,2200,2,2,3,FEW 2   SCT 5   BKN 7,1,8,1,7,1003,RJAA 081300Z 34005KT 300V010 2200 R34L/P1800N R34R/1500VP1800D     RA BR FEW002 SCT005 BKN007 08/07 Q1003 TEMPO FEW002           BKN005 RMK 1ST002 3ST005 7ST007 A2963=,RA; BR
20180108_133000.001,0,RJAA,,,,0,20180108130000,-1,-1,-1,-1,320,-1,7,-1,-1,-1,-1,,2500,0,2,3,FEW 1   SCT 3   BKN 5,1,7,1,6,1003,RJAA 081330Z 32007KT 2500 SHRA BR FEW001 SCT003 BKN005 07/06     Q1003 NOSIG RMK 1ST001 4ST003 7ST005 A2963=,RA SH; BR
20180108_140000.002,0,RJAA,,,,0,20180108140000,-1,-1,-1,-1,340,-1,5,-1,-1,-1,-1,,2500,0,2,3,FEW 1   BKN 3   BKN 30,1,5,1,5,1001,RJAA 081400Z 34005KT 2500 SHRA BR FEW001 BKN003 BKN030 05/05     Q1001 NOSIG RMK 1ST001 5ST003 7CU030 A2959 P/FR=,RA SH; BR
20180108_143000.001,0,RJAA,,,,0,20180108140000,-1,-1,-1,-1,320,-1,6,-1,-1,-1,-1,,2500,0,2,3,FEW 1   BKN 3   BKN 5,1,5,1,5,1001,RJAA 081430Z 32006KT 2500 -SHRA BR FEW001 BKN003 BKN005 05/05     Q1001 NOSIG RMK 1ST001 5ST003 7ST005 A2956=,- RA SH; BR
20180108_150000.002,0,RJAA,,,,0,20180108150000,-1,-1,-1,-1,290,-1,3,-1,-1,240,320,,2500,0,2,3,FEW 1   BKN 3   BKN 7,1,5,1,4,1000,RJAA 081500Z 29003KT 240V320 2500 -SHRA BR FEW001 BKN003     BKN007 05/04 Q1000 NOSIG RMK 1ST001 5ST003 7ST007 A2953=,- RA SH; BR
20180108_153000.001,0,RJAA,,,,0,20180108150000,-1,-1,-1,-1,270,-1,3,-1,-1,230,300,,2500,0,2,3,FEW 1   SCT 2   BKN 7,1,5,1,4,999,RJAA 081530Z 27003KT 230V300 2500 -SHRA BR FEW001 SCT002     BKN007 05/04 Q0999 TEMPO SHRA FEW002 BKN005 RMK 1ST001           4ST002 7ST007 A2952=,- RA SH; BR
20180108_160000.002,0,RJAA,,,,0,20180108160000,-1,-1,-1,-1,280,-1,5,-1,-1,230,320,,2200,0,2,3,FEW 1   BKN 3   BKN 10,1,4,1,4,999,RJAA 081600Z 28005KT 230V320 2200 -SHRA BR FEW001 BKN003     BKN010 04/04 Q0999 NOSIG RMK 1ST001 5ST003 7ST010 A2951=,- RA SH; BR
20180108_163000.001,0,RJAA,,,,0,20180108160000,-1,-1,-1,-1,280,-1,6,-1,-1,-1,-1,,2200,0,2,3,FEW 1   SCT 2   BKN 3,1,4,1,4,999,RJAA 081630Z 28006KT 2200 -SHRA BR FEW001 SCT002 BKN003 04/04     Q0999 NOSIG RMK 1ST001 3ST002 6ST003 A2950=,- RA SH; BR
20180108_170000.002,0,RJAA,,,,0,20180108170000,-1,-1,-1,-1,280,-1,4,-1,-1,250,310,,2500,0,2,3,FEW 2   SCT 10   BKN 30,1,4,1,4,998,RJAA 081700Z 28004KT 250V310 2500 -SHRA BR FEW002 SCT010     BKN030 04/04 Q0998 TEMPO FEW002 BKN005 RMK 1ST002 3ST010           7CU030 A2947 P/FR=,- RA SH; BR
20180108_173000.001,0,RJAA,,,,0,20180108170000,-1,-1,-1,-1,999,-1,1,-1,-1,-1,-1,,2200,0,2,3,FEW 2   BKN 20   BKN 30,1,4,1,4,997,RJAA 081730Z VRB01KT 2200 -SHRA BR FEW002 BKN020 BKN030 04/04     Q0997 TEMPO FEW002 BKN005 RMK 1ST002 5CU020 7CU030 A2945=,- RA SH; BR
20180108_180000.002,0,RJAA,,,,0,20180108180000,-1,-1,-1,-1,999,-1,2,-1,-1,-1,-1,,2500,0,2,3,FEW 2   SCT 8   BKN 12,1,4,1,4,996,RJAA 081800Z VRB02KT 2500 -SHRA BR FEW002 SCT008 BKN012 04/04     Q0996 BECMG 22005KT TEMPO FEW002 BKN005 RMK 1ST002 3ST008           6CU012 A2942=,- RA SH; BR
20180108_183000.001,0,RJAA,,,,0,20180108180000,-1,-1,-1,-1,999,-1,2,-1,-1,-1,-1,,2800,0,2,3,FEW 2   BKN 8   BKN 25,1,4,1,4,996,RJAA 081830Z VRB02KT 2800 -SHRA BR FEW002 BKN008 BKN025 04/04     Q0996 BECMG 22005KT TEMPO FEW002 BKN005 RMK 1ST002 6ST008           7CU025 A2941=,- RA SH; BR
20180108_190000.002,0,RJAA,,,,0,20180108190000,-1,-1,-1,-1,310,-1,5,-1,-1,-1,-1,,2200,0,2,2,FEW 2   BKN 8,1,4,1,4,995,RJAA 081900Z 31005KT 2200 SHRA BR FEW002 BKN008 04/04 Q0995     BECMG 22005KT TEMPO FEW002 BKN005 RMK 2ST002 7ST008           A2940=,RA SH; BR
20180108_193000.001,0,RJAA,,,,0,20180108190000,-1,-1,-1,-1,999,-1,2,-1,-1,-1,-1,,3000,0,2,3,FEW 2   BKN 8   BKN 20,1,5,1,4,994,RJAA 081930Z VRB02KT 3000 -SHRA BR FEW002 BKN008 BKN020 05/04     Q0994 BECMG 22005KT TEMPO FEW002 BKN005 RMK 1ST002 6ST008           7CU020 A2937=,- RA SH; BR
20180108_200000.002,0,RJAA,,,,0,20180108200000,-1,-1,-1,-1,999,-1,2,-1,-1,-1,-1,,3000,2,2,3,FEW 3   BKN 8   BKN 16,1,5,1,4,994,RJAA 082000Z VRB02KT 3000 R16R/P1800N R16L/P1800N -SHRA BR     FEW003 BKN008 BKN016 05/04 Q0994 BECMG 23005KT RMK 1ST003           6ST008 7CU016 A2935=,- RA SH; BR
20180108_203000.001,0,RJAA,,,,0,20180108200000,-1,-1,-1,-1,290,-1,4,-1,-1,240,320,,3500,0,2,3,FEW 5   BKN 8   BKN 14,1,5,1,4,993,RJAA 082030Z 29004KT 240V320 3500 -SHRA BR FEW005 BKN008     BKN014 05/04 Q0993 BECMG 23005KT RMK 1ST005 6ST008 7CU014           A2934=,- RA SH; BR
20180108_210000.003,0,RJAA,,,,0,20180108210000,-1,-1,-1,-1,290,-1,4,-1,-1,240,330,,3200,0,2,3,FEW 5   BKN 9   BKN 15,1,5,1,4,993,RJAA 082100Z 29004KT 240V330 3200 -SHRA BR FEW005 BKN009     BKN015 05/04 Q0993 BECMG 23005KT RMK 1ST005 6ST009 7CU015           A2934=,- RA SH; BR
20180108_213000.001,0,RJAA,,,,0,20180108210000,-1,-1,-1,-1,999,-1,1,-1,-1,-1,-1,,3500,0,1,3,FEW 7   BKN 9   BKN 15,1,5,1,4,993,RJAA 082130Z VRB01KT 3500 BR FEW007 BKN009 BKN015 05/04 Q0993     BECMG 23005KT RMK 1ST007 6ST009 7CU015 A2934 MOD TURB OBS           AT 2100Z 40NM S NARITA 10000FT B763 ANA814=,BR
20180108_220000.002,0,RJAA,,,,0,20180108220000,-1,-1,-1,-1,180,-1,3,-1,-1,120,220,,3200,0,1,2,FEW 7   BKN 9,1,5,1,4,993,RJAA 082200Z 18003KT 120V220 3200 BR FEW007 BKN009 05/04 Q0993     NOSIG RMK 1ST007 7ST009 A2933=,BR
20180108_223000.001,0,RJAA,,,,0,20180108220000,-1,-1,-1,-1,290,-1,3,-1,-1,-1,-1,,3200,0,1,2,FEW 6   BKN 9,1,5,1,5,994,RJAA 082230Z 29003KT 3200 BR FEW006 BKN009 05/05 Q0994 BECMG     23005KT 8000 NSW FEW020 SCT045 RMK 1ST006 7ST009 A2935=,BR
20180108_230000.003,0,RJAA,,,,0,20180108230000,-1,-1,-1,-1,130,-1,3,-1,-1,-1,-1,,4000,0,1,3,FEW 6   SCT 9   BKN 90,1,6,1,5,993,RJAA 082300Z 13003KT 4000 BR FEW006 SCT009 BKN090 06/05 Q0993     BECMG 8000 NSW RMK 1ST006 3ST009 7AC090 A2934=,BR
20180108_233000.001,0,RJAA,,,,0,20180108230000,-1,-1,-1,-1,999,-1,1,-1,-1,-1,-1,,4500,0,1,2,FEW 6   BKN 8,1,6,1,5,993,RJAA 082330Z VRB01KT 4500 BR FEW006 BKN008 06/05 Q0993 BECMG     23008KT 8000 NSW FEW010 SCT045 RMK 1ST006 7ST008 A2933=,BR
20180109_000000.002,0,RJAA,,,,0,20180109000000,-1,-1,-1,-1,999,-1,1,-1,-1,-1,-1,,5000,0,1,2,FEW 4   BKN 7,1,6,1,6,993,RJAA 090000Z VRB01KT 5000 BR FEW004 BKN007 06/06 Q0993 BECMG     TL0100 23006KT RMK 1ST004 6ST007 A2933=,BR
20180109_003000.001,0,RJAA,,,,0,20180109000000,-1,-1,-1,-1,160,-1,2,-1,-1,-1,-1,,5000,0,1,3,FEW 3   SCT 4   BKN 70,1,7,1,6,991,RJAA 090030Z 16002KT 5000 BR FEW003 SCT004 BKN070 07/06 Q0991     NOSIG RMK 1ST003 4ST004 7AC070 A2929 P/FR=,BR
20180109_010000.002,0,RJAA,,,,0,20180109010000,-1,-1,-1,-1,160,-1,3,-1,-1,-1,-1,,4000,0,1,3,FEW 3   SCT 110   BKN -9999,1,8,1,8,992,RJAA 090100Z 16003KT 4000 BR FEW003 SCT110 BKN/// 08/08 Q0992     BECMG 23016KT 8000 NSW RMK 1ST003 3AC110 A2930=,BR
20180109_013000.001,0,RJAA,,,,0,20180109010000,-1,-1,-1,-1,210,-1,8,-1,-1,170,240,,7000,0,0,2,FEW 10   BKN -9999,1,13,1,12,991,RJAA 090130Z 21008KT 170V240 7000 FEW010 BKN/// 13/12 Q0991     TEMPO 22016G26KT RMK 1CU010 A2927=,
20180109_020000.002,0,RJAA,,,,0,20180109020000,-1,-1,-1,-1,210,-1,12,-1,-1,180,240,,7000,0,0,2,FEW 15   BKN -9999,1,15,1,11,991,RJAA 090200Z 21012KT 180V240 7000 FEW015 BKN/// 15/11 Q0991     TEMPO 22016G26KT RMK 1CU015 A2927=,
20180109_023000.001,0,RJAA,,,,0,20180109020000,-1,-1,-1,-1,330,-1,10,-1,-1,270,340,,7000,0,0,2,FEW 15   BKN -9999,1,11,1,9,991,RJAA 090230Z 33010KT 270V340 7000 FEW015 BKN/// 11/09 Q0991     NOSIG RMK 1CU015 A2927=,
20180109_030000.002,0,RJAA,,,,0,20180109030000,-1,-1,-1,-1,310,-1,9,-1,-1,-1,-1,,7000,0,0,2,FEW 15   BKN -9999,1,12,1,9,990,RJAA 090300Z 31009KT 7000 FEW015 BKN/// 12/09 Q0990 WS R34R     NOSIG RMK 1CU015 A2926=,
20180109_033000.001,0,RJAA,,,,0,20180109030000,-1,-1,-1,-1,280,-1,8,-1,-1,-1,-1,,9999,0,0,1,FEW 20,1,13,1,10,990,RJAA 090330Z 28008KT 9999 FEW020 13/10 Q0990 NOSIG RMK 1CU020     A2925=,
20180109_040000.002,0,RJAA,,,,0,20180109040000,-1,-1,-1,-1,240,-1,11,-1,22,200,290,,9999,0,0,1,FEW 20,1,15,1,9,990,RJAA 090400Z 24011G22KT 200V290 9999 FEW020 15/09 Q0990 BECMG     26010KT RMK 1CU020 A2925=,
20180109_043000.001,0,RJAA,,,,0,20180109040000,-1,-1,-1,-1,240,-1,14,-1,-1,-1,-1,,9999,0,0,1,FEW 30,1,15,1,5,990,RJAA 090430Z 24014KT 9999 FEW030 15/05 Q0990 WS R34L WS R34R     BECMG 26014KT RMK 1CU030 A2925=,
20180109_050000.002,0,RJAA,,,,0,20180109050000,-1,-1,-1,-1,240,-1,13,-1,-1,210,280,,9999,0,0,1,FEW 30,1,15,1,2,990,RJAA 090500Z 24013KT 210V280 9999 FEW030 15/02 Q0990 WS R16R     BECMG 26014KT RMK 1CU030 A2924 MOD TURB OBS AT 0450Z ON           FNA RWY16L 500FT AND BLW IN DES B789 ANA802=,
20180109_053000.001,0,RJAA,,,,0,20180109050000,-1,-1,-1,-1,240,-1,18,-1,31,220,280,,9999,0,0,1,FEW 30,1,15,1,1,990,RJAA 090530Z 24018G31KT 220V280 9999 FEW030 15/01 Q0990 BECMG     26014KT RMK 1CU030 A2925 SEV TURB OBS AT 0516Z ON FNA           RWY16L 1000FT AND BLW IN DES B763 JAL785=,
20180109_053000.002,2,RJAA,,,,0,20180109050000,-1,-1,-1,-1,240,-1,18,-1,31,220,280,,9999,0,0,1,FEW 30,1,15,1,1,990,RJAA 090530Z 24018G31KT 220V280 9999 FEW030 15/01 Q0990     BECMG 26014KT RMK 1CU030 A2925 VERY ROUGH AIR OBS AT           0516Z ON FNA RWY16L 1000FT AND BLW IN DES B763=,
20180109_060000.002,0,RJAA,,,,0,20180109060000,-1,-1,-1,-1,240,-1,22,-1,36,210,270,,9999,0,0,1,FEW 30,1,13,1,3,991,RJAA 090600Z 24022G36KT 210V270 9999 FEW030 13/03 Q0991 WS     R16R WS R16L BECMG 26014KT RMK 1CU030 A2927 MOD TURB OBS           AT 0548Z 10NM E MELON BTN 12000FT AND 7000FT IN DES B77W           ANA11=,
20180109_063000.001,0,RJAA,,,,0,20180109060000,-1,-1,-1,-1,240,-1,16,-1,30,-1,-1,,9999,0,0,1,FEW 30,1,13,1,3,992,RJAA 090630Z 24016G30KT 9999 FEW030 13/03 Q0992 WS R16L BECMG     26014KT RMK 2CU030 A2930 P/RR=,
20180109_070000.002,0,RJAA,,,,0,20180109070000,-1,-1,-1,-1,240,-1,19,-1,31,210,280,,9999,0,0,2,FEW 30   BKN 60,1,12,1,3,993,RJAA 090700Z 24019G31KT 210V280 9999 FEW030 BKN060 12/03 Q0993     WS R16R WS R16L BECMG 26014KT RMK 1CU030 5SC060 A2933=,
20180109_073000.001,0,RJAA,,,,0,20180109070000,-1,-1,-1,-1,240,-1,18,-1,29,200,260,,9999,0,0,3,FEW 30   SCT 50   BKN 70,1,12,1,3,994,RJAA 090730Z 24018G29KT 200V260 9999 FEW030 SCT050 BKN070     12/03 Q0994 WS R16L BECMG 26014KT RMK 1CU030 3SC050           5AC070 A2936 MOD TURB OBS AT 0714Z ON SHORT FNA RWY16L IN           DES B787 JAL11=,
20180109_080000.002,0,RJAA,,,,0,20180109080000,-1,-1,-1,-1,240,-1,16,-1,28,200,260,,9999,0,0,2,FEW 30   SCT 80,1,11,1,2,995,RJAA 090800Z 24016G28KT 200V260 9999 FEW030 SCT080 11/02 Q0995     WS R34R BECMG 26014KT RMK 1CU030 3AC080 A2940 P/RR=,
20180109_083000.001,0,RJAA,,,,0,20180109080000,-1,-1,-1,-1,230,-1,13,-1,-1,-1,-1,,9999,0,0,1,FEW 30,1,11,1,2,996,RJAA 090830Z 23013KT 9999 FEW030 11/02 Q0996 WS R34R BECMG     26014KT RMK 1CU030 A2942=,
20180109_090000.002,0,RJAA,,,,0,20180109090000,-1,-1,-1,-1,230,-1,12,-1,-1,-1,-1,,9999,0,0,1,FEW 30,1,11,1,2,997,RJAA 090900Z 23012KT 9999 FEW030 11/02 Q0997 WS R34R BECMG     26012KT RMK 1CU030 A2945=,
20180109_093000.001,0,RJAA,,,,0,20180109090000,-1,-1,-1,-1,240,-1,10,-1,-1,-1,-1,,9999,0,0,2,FEW 30   SCT 70,1,10,1,2,998,RJAA 090930Z 24010KT 9999 FEW030 SCT070 10/02 Q0998 WS R34L     BECMG 26012KT RMK 1CU030 3AC070 A2948 P/RR=,
20180109_100000.002,0,RJAA,,,,0,20180109100000,-1,-1,-1,-1,280,-1,6,-1,-1,240,320,,9999,0,0,1,FEW 30,1,10,1,2,999,RJAA 091000Z 28006KT 240V320 9999 FEW030 10/02 Q0999 NOSIG RMK     1CU030 A2952 P/RR=,
20180109_103000.001,0,RJAA,,,,0,20180109100000,-1,-1,-1,-1,290,-1,6,-1,-1,-1,-1,,9999,0,0,1,FEW 30,1,9,-1,2,1000,RJAA 091030Z 29006KT 9999 FEW030 09/M02 Q1000 NOSIG RMK 1CU030     A2955=,
20180109_110000.002,0,RJAA,,,,0,20180109110000,-1,-1,-1,-1,280,-1,8,-1,-1,250,310,,9999,0,0,2,FEW 30   BKN -9999,1,8,-1,4,1000,RJAA 091100Z 28008KT 250V310 9999 FEW030 BKN/// 08/M04 Q1000     NOSIG RMK 1CU030 A2956=,
20180109_113000.001,0,RJAA,,,,0,20180109110000,-1,-1,-1,-1,290,-1,7,-1,-1,260,330,,9999,0,0,2,FEW 30   SCT -9999,1,8,-1,3,1001,RJAA 091130Z 29007KT 260V330 9999 FEW030 SCT/// 08/M03 Q1001     NOSIG RMK 1CU030 A2958=,
20180109_120000.002,0,RJAA,,,,0,20180109120000,-1,-1,-1,-1,300,-1,8,-1,-1,-1,-1,,9999,0,0,1,FEW 30,1,7,-1,4,1002,RJAA 091200Z 30008KT 9999 FEW030 07/M04 Q1002 NOSIG RMK 1CU030     A2959=,
20180109_123000.001,0,RJAA,,,,0,20180109120000,-1,-1,-1,-1,300,-1,9,-1,-1,-1,-1,,9999,0,0,1,FEW 30,1,7,-1,5,1002,RJAA 091230Z 30009KT 9999 FEW030 07/M05 Q1002 NOSIG RMK 1CU030     A2961=,
20180109_130000.002,0,RJAA,,,,0,20180109130000,-1,-1,-1,-1,300,-1,7,-1,-1,-1,-1,,9999,0,0,1,FEW 30,1,6,-1,5,1002,RJAA 091300Z 30007KT 9999 FEW030 06/M05 Q1002 NOSIG RMK 1CU030     A2961=,
20180109_133000.001,0,RJAA,,,,0,20180109130000,-1,-1,-1,-1,280,-1,5,-1,-1,-1,-1,,9999,0,0,1,FEW 30,1,5,-1,5,1003,RJAA 091330Z 28005KT 9999 FEW030 05/M05 Q1003 NOSIG RMK 1CU030     A2964=,
20180109_140000.002,0,RJAA,,,,0,20180109140000,-1,-1,-1,-1,270,-1,4,-1,-1,-1,-1,,9999,0,0,1,FEW 30,1,5,-1,5,1003,RJAA 091400Z 27004KT 9999 FEW030 05/M05 Q1003 NOSIG RMK 1CU030     A2964=,
20180109_143000.001,0,RJAA,,,,0,20180109140000,-1,-1,-1,-1,190,-1,3,-1,-1,-1,-1,,9999,0,0,1,FEW 30,1,2,-1,3,1004,RJAA 091430Z 19003KT 9999 FEW030 02/M03 Q1004 BECMG 30005KT     RMK 1CU030 A2965=,
20180109_150000.002,0,RJAA,,,,0,20180109150000,-1,-1,-1,-1,240,-1,3,-1,-1,-1,-1,,9999,0,0,1,FEW 30,1,2,-1,4,1004,RJAA 091500Z 24003KT 9999 FEW030 02/M04 Q1004 BECMG 30005KT     RMK 1CU030 A2966=,
20180109_153000.001,0,RJAA,,,,0,20180109150000,-1,-1,-1,-1,230,-1,3,-1,-1,-1,-1,,9999,0,0,1,FEW 30,1,2,-1,4,1004,RJAA 091530Z 23003KT 9999 FEW030 02/M04 Q1004 NOSIG RMK 1CU030     A2967=,
20180109_160000.002,0,RJAA,,,,0,20180109160000,-1,-1,-1,-1,220,-1,4,-1,-1,-1,-1,,9999,0,0,1,FEW 30,1,0,-1,4,1005,RJAA 091600Z 22004KT 9999 FEW030 00/M04 Q1005 NOSIG RMK 1CU030     A2968=,
20180109_163000.001,0,RJAA,,,,0,20180109160000,-1,-1,-1,-1,999,-1,1,-1,-1,-1,-1,,9999,0,0,1,FEW 30,1,1,-1,3,1005,RJAA 091630Z VRB01KT 9999 FEW030 01/M03 Q1005 NOSIG RMK 1CU030     A2969=,
20180109_170000.002,0,RJAA,,,,0,20180109170000,-1,-1,-1,-1,250,-1,1,-1,-1,-1,-1,,9999,0,0,1,FEW 30,-1,1,-1,4,1005,RJAA 091700Z 25001KT 9999 FEW030 M01/M04 Q1005 NOSIG RMK     1CU030 A2969=,
20180109_173000.001,0,RJAA,,,,0,20180109170000,-1,-1,-1,-1,0,-1,0,-1,-1,-1,-1,,9999,0,0,1,FEW 30,-1,1,-1,3,1005,RJAA 091730Z 00000KT 9999 FEW030 M01/M03 Q1005 NOSIG RMK     1CU030 A2969=,
20180109_180000.002,0,RJAA,,,,0,20180109180000,-1,-1,-1,-1,180,-1,1,-1,-1,-1,-1,,9999,0,0,1,FEW 30,-1,2,-1,4,1005,RJAA 091800Z 18001KT 9999 FEW030 M02/M04 Q1005 NOSIG RMK     1CU030 A2969=,
20180109_183000.001,0,RJAA,,,,0,20180109180000,-1,-1,-1,-1,999,-1,2,-1,-1,-1,-1,,9999,0,0,1,FEW 30,-1,2,-1,4,1005,RJAA 091830Z VRB02KT 9999 FEW030 M02/M04 Q1005 NOSIG RMK     1CU030 A2970=,
20180109_190000.003,0,RJAA,,,,0,20180109190000,-1,-1,-1,-1,200,-1,3,-1,-1,-1,-1,,9999,0,0,1,FEW 30,-1,3,-1,5,1006,RJAA 091900Z 20003KT 9999 FEW030 M03/M05 Q1006 NOSIG RMK     1CU030 A2971=,
20180109_193000.001,0,RJAA,,,,0,20180109190000,-1,-1,-1,-1,200,-1,3,-1,-1,-1,-1,,9999,0,0,1,FEW 30,-1,2,-1,4,1006,RJAA 091930Z 20003KT 9999 FEW030 M02/M04 Q1006 NOSIG RMK     1CU030 A2971=,
20180109_200000.002,0,RJAA,,,,0,20180109200000,-1,-1,-1,-1,220,-1,6,-1,-1,-1,-1,,9999,0,0,1,FEW 30,1,1,-1,3,1006,RJAA 092000Z 22006KT 9999 FEW030 01/M03 Q1006 NOSIG RMK 1CU030     A2971=,
20180109_203000.001,0,RJAA,,,,0,20180109200000,-1,-1,-1,-1,220,-1,5,-1,-1,-1,-1,,9999,0,0,1,FEW 30,1,2,-1,3,1006,RJAA 092030Z 22005KT 9999 FEW030 02/M03 Q1006 NOSIG RMK 1CU030     A2972=,
20180109_210000.002,0,RJAA,,,,0,20180109210000,-1,-1,-1,-1,240,-1,5,-1,-1,210,290,,9999,0,0,1,FEW 30,1,2,-1,2,1006,RJAA 092100Z 24005KT 210V290 9999 FEW030 02/M02 Q1006 NOSIG     RMK 1CU030 A2973=,
20180109_213000.001,0,RJAA,,,,0,20180109210000,-1,-1,-1,-1,260,-1,4,-1,-1,220,290,,9999,0,0,1,FEW 30,1,3,-1,1,1007,RJAA 092130Z 26004KT 220V290 9999 FEW030 03/M01 Q1007 NOSIG     RMK 1CU030 A2974=,
20180109_220000.002,0,RJAA,,,,0,20180109220000,-1,-1,-1,-1,230,-1,6,-1,-1,-1,-1,,9999,0,0,1,FEW 30,1,2,-1,1,1007,RJAA 092200Z 23006KT 9999 FEW030 02/M01 Q1007 NOSIG RMK 1CU030     A2975=,
20180109_223000.002,0,RJAA,,,,0,20180109220000,-1,-1,-1,-1,240,-1,4,-1,-1,-1,-1,,9999,0,0,1,FEW 30,1,3,-1,1,1007,RJAA 092230Z 24004KT 9999 FEW030 03/M01 Q1007 BECMG 23008KT     RMK 1CU030 A2975=,
20180109_230000.002,0,RJAA,,,,0,20180109230000,-1,-1,-1,-1,240,-1,4,-1,-1,200,290,,9999,0,0,1,FEW 30,1,4,-1,0,1007,RJAA 092300Z 24004KT 200V290 9999 FEW030 04/M00 Q1007 BECMG     23008KT RMK 1CU030 A2976=,
20180109_233000.001,0,RJAA,,,,0,20180109230000,-1,-1,-1,-1,240,-1,7,-1,-1,210,270,CAVOK,-1,0,0,0,,1,6,-1,0,1008,RJAA 092330Z 24007KT 210V270 CAVOK 06/M00 Q1008 BECMG 23010KT     RMK A2977=,
20180110_000000.002,0,RJAA,,,,0,20180110000000,-1,-1,-1,-1,240,-1,9,-1,-1,210,270,CAVOK,-1,0,0,0,,1,7,-1,1,1008,RJAA 100000Z 24009KT 210V270 CAVOK 07/M01 Q1008 BECMG 23012KT     RMK A2977=,
20180110_003000.001,0,RJAA,,,,0,20180110000000,-1,-1,-1,-1,230,-1,13,-1,-1,180,260,,9999,0,0,1,FEW 30,1,8,-1,1,1008,RJAA 100030Z 23013KT 180V260 9999 FEW030 08/M01 Q1008 WS R16R     NOSIG RMK 1CU030 A2978=,
20180110_010000.002,0,RJAA,,,,0,20180110010000,-1,-1,-1,-1,230,-1,13,-1,-1,-1,-1,,9999,0,0,1,FEW 30,1,9,-1,0,1007,RJAA 100100Z 23013KT 9999 FEW030 09/M00 Q1007 WS R16L TEMPO     23015G27KT RMK 1CU030 A2976=,
20180110_013000.001,0,RJAA,,,,0,20180110010000,-1,-1,-1,-1,240,-1,11,-1,-1,200,280,,9999,0,0,1,FEW 30,1,9,-1,2,1007,RJAA 100130Z 24011KT 200V280 9999 FEW030 09/M02 Q1007 BECMG     23014KT RMK 1CU030 A2974=,
20180110_020000.002,0,RJAA,,,,0,20180110020000,-1,-1,-1,-1,220,-1,13,-1,23,190,250,,9999,0,0,1,FEW 30,1,10,-1,2,1006,RJAA 100200Z 22013G23KT 190V250 9999 FEW030 10/M02 Q1006 WS     R16L NOSIG RMK 1CU030 A2973=,
20180110_023000.001,0,RJAA,,,,0,20180110020000,-1,-1,-1,-1,220,-1,17,-1,-1,-1,-1,,9999,0,0,1,FEW 30,1,10,-1,3,1006,RJAA 100230Z 22017KT 9999 FEW030 10/M03 Q1006 WS R16L TEMPO     22017G30KT RMK 1CU030 A2972=,
20180110_030000.002,0,RJAA,,,,0,20180110030000,-1,-1,-1,-1,220,-1,18,-1,-1,-1,-1,,9999,0,0,1,FEW 30,1,10,-1,3,1005,RJAA 100300Z 22018KT 9999 FEW030 10/M03 Q1005 WS R16L TEMPO     22017G30KT RMK 1CU030 A2970=,
20180110_033000.001,0,RJAA,,,,0,20180110030000,-1,-1,-1,-1,220,-1,15,-1,-1,-1,-1,,9999,0,0,1,FEW 30,1,10,-1,3,1005,RJAA 100330Z 22015KT 9999 FEW030 10/M03 Q1005 WS R16R WS R16L     TEMPO 22017G30KT RMK 1CU030 A2969=,
20180110_040000.003,0,RJAA,,,,0,20180110040000,-1,-1,-1,-1,230,-1,14,-1,26,210,270,,9999,0,0,1,FEW 30,1,10,-1,4,1005,RJAA 100400Z 23014G26KT 210V270 9999 FEW030 10/M04 Q1005 WS     R16L NOSIG RMK 1CU030 A2968=,
20180110_043000.001,0,RJAA,,,,0,20180110040000,-1,-1,-1,-1,230,-1,15,-1,27,-1,-1,,9999,0,0,1,FEW 30,1,11,-1,4,1005,RJAA 100430Z 23015G27KT 9999 FEW030 11/M04 Q1005 WS R16R WS     R16L NOSIG RMK 1CU030 A2968=,
20180110_050000.002,0,RJAA,,,,0,20180110050000,-1,-1,-1,-1,220,-1,15,-1,28,-1,-1,,9999,0,0,1,FEW 30,1,11,-1,3,1005,RJAA 100500Z 22015G28KT 9999 FEW030 11/M03 Q1005 WS R16L NOSIG     RMK 1CU030 A2968=,
20180110_053000.001,0,RJAA,,,,0,20180110050000,-1,-1,-1,-1,220,-1,16,-1,27,190,250,,9999,0,0,1,FEW 30,1,10,-1,3,1005,RJAA 100530Z 22016G27KT 190V250 9999 FEW030 10/M03 Q1005 WS     R16R WS R16L NOSIG RMK 1CU030 A2969=,
20180110_060000.002,0,RJAA,,,,0,20180110060000,-1,-1,-1,-1,230,-1,15,-1,28,-1,-1,,9999,0,0,1,FEW 30,1,10,-1,3,1005,RJAA 100600Z 23015G28KT 9999 FEW030 10/M03 Q1005 WS R16R NOSIG     RMK 1CU030 A2969=,
20180110_063000.001,0,RJAA,,,,0,20180110060000,-1,-1,-1,-1,220,-1,19,-1,30,-1,-1,,9999,0,0,1,FEW 30,1,10,-1,2,1005,RJAA 100630Z 22019G30KT 9999 FEW030 10/M02 Q1005 WS R16R WS     R16L NOSIG RMK 1CU030 A2969=,
20180110_070000.002,0,RJAA,,,,0,20180110070000,-1,-1,-1,-1,220,-1,12,-1,-1,180,270,,9999,0,0,1,FEW 30,1,9,-1,2,1005,RJAA 100700Z 22012KT 180V270 9999 FEW030 09/M02 Q1005 WS R16L     NOSIG RMK 1CU030 A2970=,
20180110_073000.001,0,RJAA,,,,0,20180110070000,-1,-1,-1,-1,220,-1,12,-1,-1,-1,-1,,9999,0,0,1,FEW 30,1,9,-1,2,1005,RJAA 100730Z 22012KT 9999 FEW030 09/M02 Q1005 WS R16R WS R16L     NOSIG RMK 1CU030 A2970=,
20180110_080000.002,0,RJAA,,,,0,20180110080000,-1,-1,-1,-1,220,-1,10,-1,-1,190,250,,9999,0,0,1,FEW 30,1,8,-1,2,1006,RJAA 100800Z 22010KT 190V250 9999 FEW030 08/M02 Q1006 WS R16L     NOSIG RMK 1CU030 A2971=,
20180110_083000.001,0,RJAA,,,,0,20180110080000,-1,-1,-1,-1,220,-1,10,-1,-1,-1,-1,,9999,0,0,1,FEW 30,1,8,-1,2,1006,RJAA 100830Z 22010KT 9999 FEW030 08/M02 Q1006 WS R16L NOSIG     RMK 1CU030 A2971=,
20180110_090000.002,0,RJAA,,,,0,20180110090000,-1,-1,-1,-1,210,-1,10,-1,-1,-1,-1,,9999,0,0,1,FEW 30,1,7,-1,2,1006,RJAA 100900Z 21010KT 9999 FEW030 07/M02 Q1006 NOSIG RMK 1CU030     A2971=,
20180110_093000.001,0,RJAA,,,,0,20180110090000,-1,-1,-1,-1,220,-1,7,-1,-1,-1,-1,,9999,0,0,1,FEW 30,1,7,-1,2,1006,RJAA 100930Z 22007KT 9999 FEW030 07/M02 Q1006 NOSIG RMK 1CU030     A2973=,
20180110_100000.002,0,RJAA,,,,0,20180110100000,-1,-1,-1,-1,230,-1,6,-1,-1,-1,-1,,9999,0,0,1,FEW 30,1,7,-1,2,1006,RJAA 101000Z 23006KT 9999 FEW030 07/M02 Q1006 WS R16L NOSIG     RMK 1CU030 A2973=,
20180110_103000.001,0,RJAA,,,,0,20180110100000,-1,-1,-1,-1,220,-1,7,-1,-1,-1,-1,,9999,0,0,1,FEW 30,1,7,-1,2,1006,RJAA 101030Z 22007KT 9999 FEW030 07/M02 Q1006 NOSIG RMK 1CU030     A2973=,
20180110_110000.002,0,RJAA,,,,0,20180110110000,-1,-1,-1,-1,220,-1,8,-1,-1,-1,-1,,9999,0,0,1,FEW 30,1,8,-1,3,1006,RJAA 101100Z 22008KT 9999 FEW030 08/M03 Q1006 NOSIG RMK 1CU030     A2973=,
20180110_113000.001,0,RJAA,,,,0,20180110110000,-1,-1,-1,-1,210,-1,7,-1,-1,-1,-1,,9999,0,0,1,FEW 30,1,7,-1,3,1006,RJAA 101130Z 21007KT 9999 FEW030 07/M03 Q1006 NOSIG RMK 1CU030     A2973=,
20180110_120000.002,0,RJAA,,,,0,20180110120000,-1,-1,-1,-1,210,-1,6,-1,-1,-1,-1,,9999,0,0,1,FEW 30,1,6,-1,3,1006,RJAA 101200Z 21006KT 9999 FEW030 06/M03 Q1006 NOSIG RMK 1CU030     A2973=,
20180110_123000.001,0,RJAA,,,,0,20180110120000,-1,-1,-1,-1,220,-1,8,-1,-1,-1,-1,,9999,0,0,1,FEW 30,1,7,-1,2,1006,RJAA 101230Z 22008KT 9999 FEW030 07/M02 Q1006 NOSIG RMK 1CU030     A2973=,
20180110_130000.002,0,RJAA,,,,0,20180110130000,-1,-1,-1,-1,220,-1,8,-1,-1,-1,-1,,9999,0,0,1,FEW 30,1,7,-1,2,1006,RJAA 101300Z 22008KT 9999 FEW030 07/M02 Q1006 NOSIG RMK 1CU030     A2973=,
20180110_133000.001,0,RJAA,,,,0,20180110130000,-1,-1,-1,-1,210,-1,6,-1,-1,-1,-1,CAVOK,-1,0,0,0,,1,6,-1,2,1007,RJAA 101330Z 21006KT CAVOK 06/M02 Q1007 NOSIG RMK A2974=,
20180110_140000.002,0,RJAA,,,,0,20180110140000,-1,-1,-1,-1,190,-1,5,-1,-1,-1,-1,CAVOK,-1,0,0,0,,1,6,-1,2,1007,RJAA 101400Z 19005KT CAVOK 06/M02 Q1007 BECMG 30005KT RMK     A2974=,
20180110_143000.001,0,RJAA,,,,0,20180110140000,-1,-1,-1,-1,210,-1,5,-1,-1,-1,-1,CAVOK,-1,0,0,0,,1,6,-1,2,1007,RJAA 101430Z 21005KT CAVOK 06/M02 Q1007 BECMG 30005KT RMK     A2974=,
20180110_150000.002,0,RJAA,,,,0,20180110150000,-1,-1,-1,-1,320,-1,4,-1,-1,230,360,CAVOK,-1,0,0,0,,1,2,-1,4,1007,RJAA 101500Z 32004KT 230V360 CAVOK 02/M04 Q1007 NOSIG RMK     A2975=,
20180110_153000.001,0,RJAA,,,,0,20180110150000,-1,-1,-1,-1,999,-1,2,-1,-1,-1,-1,CAVOK,-1,0,0,0,,1,3,-1,5,1007,RJAA 101530Z VRB02KT CAVOK 03/M05 Q1007 NOSIG RMK A2974=,
20180110_160000.002,0,RJAA,,,,0,20180110160000,-1,-1,-1,-1,250,-1,3,-1,-1,220,290,CAVOK,-1,0,0,0,,1,4,-1,3,1007,RJAA 101600Z 25003KT 220V290 CAVOK 04/M03 Q1007 NOSIG RMK     A2975=,
20180110_163000.001,0,RJAA,,,,0,20180110160000,-1,-1,-1,-1,280,-1,5,-1,-1,-1,-1,CAVOK,-1,0,0,0,,1,5,-1,4,1007,RJAA 101630Z 28005KT CAVOK 05/M04 Q1007 NOSIG RMK A2976=,
20180110_170000.002,0,RJAA,,,,0,20180110170000,-1,-1,-1,-1,270,-1,4,-1,-1,-1,-1,CAVOK,-1,0,0,0,,1,4,-1,4,1007,RJAA 101700Z 27004KT CAVOK 04/M04 Q1007 NOSIG RMK A2976=,
20180110_173000.001,0,RJAA,,,,0,20180110170000,-1,-1,-1,-1,280,-1,5,-1,-1,-1,-1,CAVOK,-1,0,0,0,,1,4,-1,4,1007,RJAA 101730Z 28005KT CAVOK 04/M04 Q1007 NOSIG RMK A2976=,
20180110_180000.002,0,RJAA,,,,0,20180110180000,-1,-1,-1,-1,310,-1,8,-1,-1,-1,-1,CAVOK,-1,0,0,0,,1,3,-1,5,1008,RJAA 101800Z 31008KT CAVOK 03/M05 Q1008 NOSIG RMK A2977=,
20180110_183000.001,0,RJAA,,,,0,20180110180000,-1,-1,-1,-1,999,-1,3,-1,-1,-1,-1,,9999,0,0,1,FEW 30,1,2,-1,5,1008,RJAA 101830Z VRB03KT 9999 FEW030 02/M05 Q1008 NOSIG RMK 1CU030     A2978=,
20180110_190000.002,0,RJAA,,,,0,20180110190000,-1,-1,-1,-1,999,-1,2,-1,-1,-1,-1,,9999,0,0,1,FEW 30,1,2,-1,4,1008,RJAA 101900Z VRB02KT 9999 FEW030 02/M04 Q1008 NOSIG RMK 1CU030     A2979=,
20180110_193000.001,0,RJAA,,,,0,20180110190000,-1,-1,-1,-1,310,-1,3,-1,-1,220,350,,9999,0,0,1,FEW 30,-1,0,-1,5,1009,RJAA 101930Z 31003KT 220V350 9999 FEW030 M00/M05 Q1009 NOSIG     RMK 1CU030 A2979=,
20180110_200000.002,0,RJAA,,,,0,20180110200000,-1,-1,-1,-1,290,-1,4,-1,-1,240,320,,9999,0,0,1,FEW 30,1,0,-1,5,1009,RJAA 102000Z 29004KT 240V320 9999 FEW030 00/M05 Q1009 NOSIG     RMK 1CU030 A2980=,
20180110_203000.001,0,RJAA,,,,0,20180110200000,-1,-1,-1,-1,999,-1,2,-1,-1,-1,-1,,9999,0,0,1,FEW 30,-1,2,-1,6,1009,RJAA 102030Z VRB02KT 9999 FEW030 M02/M06 Q1009 NOSIG RMK     1CU030 A2981=,
20180110_210000.002,0,RJAA,,,,0,20180110210000,-1,-1,-1,-1,999,-1,1,-1,-1,-1,-1,,9999,0,0,1,FEW 30,-1,2,-1,5,1010,RJAA 102100Z VRB01KT 9999 FEW030 M02/M05 Q1010 NOSIG RMK     1CU030 A2983=,
20180110_213000.001,0,RJAA,,,,0,20180110210000,-1,-1,-1,-1,220,-1,4,-1,-1,-1,-1,,9999,0,0,1,FEW 30,-1,1,-1,4,1010,RJAA 102130Z 22004KT 9999 FEW030 M01/M04 Q1010 NOSIG RMK     1CU030 A2984=,
20180110_220000.002,0,RJAA,,,,0,20180110220000,-1,-1,-1,-1,999,-1,1,-1,-1,-1,-1,,9999,0,0,1,FEW 30,-1,1,-1,5,1011,RJAA 102200Z VRB01KT 9999 FEW030 M01/M05 Q1011 NOSIG RMK     1CU030 A2986=,
20180110_223000.002,0,RJAA,,,,0,20180110220000,-1,-1,-1,-1,0,-1,0,-1,-1,-1,-1,,9999,0,0,1,FEW 30,-1,1,-1,5,1011,RJAA 102230Z 00000KT 9999 FEW030 M01/M05 Q1011 NOSIG RMK     1CU030 A2987=,
20180110_230000.003,0,RJAA,,,,0,20180110230000,-1,-1,-1,-1,170,-1,1,-1,-1,-1,-1,,9999,0,0,1,FEW 30,1,0,-1,4,1011,RJAA 102300Z 17001KT 9999 FEW030 00/M04 Q1011 NOSIG RMK 1CU030     A2987=,
20180110_233000.001,0,RJAA,,,,0,20180110230000,-1,-1,-1,-1,999,-1,2,-1,-1,-1,-1,,9999,0,0,1,FEW 30,1,3,-1,4,1011,RJAA 102330Z VRB02KT 9999 FEW030 03/M04 Q1011 NOSIG RMK 1CU030     A2988=,
20180111_000000.002,0,RJAA,,,,0,20180111000000,-1,-1,-1,-1,999,-1,2,-1,-1,-1,-1,,9999,0,0,1,FEW 30,1,4,-1,4,1011,RJAA 110000Z VRB02KT 9999 FEW030 04/M04 Q1011 NOSIG RMK 1CU030     A2987=,
20180111_003000.001,0,RJAA,,,,0,20180111000000,-1,-1,-1,-1,250,-1,4,-1,-1,-1,-1,,9999,0,0,1,FEW 30,1,6,-1,4,1011,RJAA 110030Z 25004KT 9999 FEW030 06/M04 Q1011 NOSIG RMK 1CU030     A2988=,
20180111_010000.002,0,RJAA,,,,0,20180111010000,-1,-1,-1,-1,999,-1,3,-1,-1,-1,-1,,9999,0,0,1,FEW 30,1,7,-1,4,1012,RJAA 110100Z VRB03KT 9999 FEW030 07/M04 Q1012 BECMG 23006KT     RMK 1CU030 A2989=,
20180111_013000.001,0,RJAA,,,,0,20180111010000,-1,-1,-1,-1,280,-1,3,-1,-1,190,360,,9999,0,0,1,FEW 30,1,7,-1,5,1011,RJAA 110130Z 28003KT 190V360 9999 FEW030 07/M05 Q1011 BECMG     TL0300 23006KT RMK 1CU030 A2988=,
20180111_020000.002,0,RJAA,,,,0,20180111020000,-1,-1,-1,-1,220,-1,6,-1,-1,170,280,,9999,0,0,1,FEW 30,1,8,-1,5,1011,RJAA 110200Z 22006KT 170V280 9999 FEW030 08/M05 Q1011 NOSIG     RMK 1CU030 A2986=,
20180111_023000.001,0,RJAA,,,,0,20180111020000,-1,-1,-1,-1,250,-1,9,-1,-1,220,290,,9999,0,0,1,FEW 30,1,9,-1,5,1010,RJAA 110230Z 25009KT 220V290 9999 FEW030 09/M05 Q1010 BECMG     TL0300 23010KT RMK 1CU030 A2984=,
20180111_030000.001,0,RJAA,,,,0,20180111030000,-1,-1,-1,-1,220,-1,10,-1,-1,180,260,,9999,0,0,1,FEW 30,1,9,-1,7,1010,RJAA 110300Z 22010KT 180V260 9999 FEW030 09/M07 Q1010 TEMPO     FM0400 23015G25KT RMK 1CU030 A2983=,
20180111_033000.001,0,RJAA,,,,0,20180111030000,-1,-1,-1,-1,240,-1,8,-1,-1,210,270,,9999,0,0,1,FEW 30,1,9,-1,7,1009,RJAA 110330Z 24008KT 210V270 9999 FEW030 09/M07 Q1009 BECMG     TL0400 23012KT TEMPO FM0400 23015G25KT RMK 1CU030 A2982=,
20180111_040000.002,0,RJAA,,,,0,20180111040000,-1,-1,-1,-1,260,-1,8,-1,-1,210,310,,9999,0,0,1,FEW 30,1,9,-1,9,1009,RJAA 110400Z 26008KT 210V310 9999 FEW030 09/M09 Q1009 NOSIG     RMK 1CU030 A2982=,
20180111_043000.001,0,RJAA,,,,0,20180111040000,-1,-1,-1,-1,240,-1,8,-1,-1,210,280,,9999,0,0,1,FEW 30,1,9,-1,9,1009,RJAA 110430Z 24008KT 210V280 9999 FEW030 09/M09 Q1009 BECMG     FM0600 23010KT RMK 1CU030 A2982=,
20180111_050000.002,0,RJAA,,,,0,20180111050000,-1,-1,-1,-1,250,-1,9,-1,-1,210,290,,9999,0,0,1,FEW 30,1,9,-1,9,1009,RJAA 110500Z 25009KT 210V290 9999 FEW030 09/M09 Q1009 BECMG     FM0600 23010KT RMK 1CU030 A2981=,
20180111_053000.000,0,RJAA,,,,0,20180111050000,-1,-1,-1,-1,230,-1,10,-1,-1,200,270,,9999,0,0,1,FEW 30,1,9,-1,9,1010,RJAA 110530Z 23010KT 200V270 9999 FEW030 09/M09 Q1010 WS R16L     NOSIG RMK 1CU030 A2982=,
20180111_060000.002,0,RJAA,,,,0,20180111060000,-1,-1,-1,-1,210,-1,10,-1,-1,180,240,,9999,0,0,1,FEW 30,1,9,-1,9,1010,RJAA 110600Z 21010KT 180V240 9999 FEW030 09/M09 Q1010 NOSIG     RMK 1CU030 A2984=,
20180111_063000.001,0,RJAA,,,,0,20180111060000,-1,-1,-1,-1,240,-1,7,-1,-1,200,270,,9999,0,0,1,FEW 30,1,9,-1,9,1011,RJAA 110630Z 24007KT 200V270 9999 FEW030 09/M09 Q1011 BECMG     23008KT RMK 1CU030 A2986=,
20180111_070000.002,0,RJAA,,,,0,20180111070000,-1,-1,-1,-1,230,-1,8,-1,-1,200,270,,9999,0,0,1,FEW 30,1,8,-1,8,1011,RJAA 110700Z 23008KT 200V270 9999 FEW030 08/M08 Q1011 NOSIG     RMK 1CU030 A2986=,
20180111_073000.001,0,RJAA,,,,0,20180111070000,-1,-1,-1,-1,220,-1,7,-1,-1,-1,-1,,9999,0,0,1,FEW 30,1,7,-1,8,1011,RJAA 110730Z 22007KT 9999 FEW030 07/M08 Q1011 NOSIG RMK 1CU030     A2987=,
20180111_080000.002,0,RJAA,,,,0,20180111080000,-1,-1,-1,-1,210,-1,3,-1,-1,-1,-1,,9999,0,0,2,FEW 30   SCT 60,1,6,-1,7,1011,RJAA 110800Z 21003KT 9999 FEW030 SCT060 06/M07 Q1011 NOSIG RMK     1CU030 4SC060 A2987=,
20180111_083000.001,0,RJAA,,,,0,20180111080000,-1,-1,-1,-1,280,-1,5,-1,-1,230,310,,9999,0,0,2,FEW 30   BKN 60,1,6,-1,9,1012,RJAA 110830Z 28005KT 230V310 9999 FEW030 BKN060 06/M09 Q1012     NOSIG RMK 1CU030 5SC060 A2989=,
20180111_090000.002,0,RJAA,,,,0,20180111090000,-1,-1,-1,-1,290,-1,3,-1,-1,240,320,,9999,0,0,2,FEW 30   SCT 60,1,6,-1,11,1012,RJAA 110900Z 29003KT 240V320 9999 FEW030 SCT060 06/M11 Q1012     NOSIG RMK 1CU030 3SC060 A2990=,
20180111_093000.001,0,RJAA,,,,0,20180111090000,-1,-1,-1,-1,290,-1,3,-1,-1,250,320,,9999,0,0,1,FEW 30,1,5,-1,12,1013,RJAA 110930Z 29003KT 250V320 9999 FEW030 05/M12 Q1013 NOSIG     RMK 1CU030 A2993 P/RR=,
20180111_100000.002,0,RJAA,,,,0,20180111100000,-1,-1,-1,-1,280,-1,3,-1,-1,240,310,,9999,0,0,1,FEW 30,1,5,-1,13,1013,RJAA 111000Z 28003KT 240V310 9999 FEW030 05/M13 Q1013 NOSIG     RMK 1CU030 A2994=,
20180111_103000.001,0,RJAA,,,,0,20180111100000,-1,-1,-1,-1,260,-1,3,-1,-1,-1,-1,CAVOK,-1,0,0,0,,1,3,-1,12,1014,RJAA 111030Z 26003KT CAVOK 03/M12 Q1014 NOSIG RMK A2995=,
20180111_110000.002,0,RJAA,,,,0,20180111110000,-1,-1,-1,-1,240,-1,4,-1,-1,-1,-1,CAVOK,-1,0,0,0,,1,3,-1,12,1014,RJAA 111100Z 24004KT CAVOK 03/M12 Q1014 BECMG 27005KT RMK     A2996=,
20180111_113000.001,0,RJAA,,,,0,20180111110000,-1,-1,-1,-1,240,-1,3,-1,-1,-1,-1,CAVOK,-1,0,0,0,,1,2,-1,12,1015,RJAA 111130Z 24003KT CAVOK 02/M12 Q1015 NOSIG RMK A2997=,
20180111_120000.002,0,RJAA,,,,0,20180111120000,-1,-1,-1,-1,280,-1,4,-1,-1,-1,-1,CAVOK,-1,0,0,0,,1,2,-1,13,1014,RJAA 111200Z 28004KT CAVOK 02/M13 Q1014 NOSIG RMK A2997=,
20180111_123000.001,0,RJAA,,,,0,20180111120000,-1,-1,-1,-1,280,-1,3,-1,-1,250,320,CAVOK,-1,0,0,0,,1,2,-1,13,1015,RJAA 111230Z 28003KT 250V320 CAVOK 02/M13 Q1015 NOSIG RMK     A2997=,
20180111_130000.002,0,RJAA,,,,0,20180111130000,-1,-1,-1,-1,280,-1,2,-1,-1,-1,-1,CAVOK,-1,0,0,0,,1,1,-1,12,1015,RJAA 111300Z 28002KT CAVOK 01/M12 Q1015 NOSIG RMK A2998=,
20180111_133000.001,0,RJAA,,,,0,20180111130000,-1,-1,-1,-1,260,-1,2,-1,-1,-1,-1,CAVOK,-1,0,0,0,,-1,1,-1,9,1015,RJAA 111330Z 26002KT CAVOK M01/M09 Q1015 NOSIG RMK A2999=,
20180111_140000.002,0,RJAA,,,,0,20180111140000,-1,-1,-1,-1,240,-1,2,-1,-1,-1,-1,CAVOK,-1,0,0,0,,-1,1,-1,10,1015,RJAA 111400Z 24002KT CAVOK M01/M10 Q1015 NOSIG RMK A2998=,
20180111_143000.001,0,RJAA,,,,0,20180111140000,-1,-1,-1,-1,230,-1,3,-1,-1,-1,-1,CAVOK,-1,0,0,0,,-1,2,-1,11,1015,RJAA 111430Z 23003KT CAVOK M02/M11 Q1015 NOSIG RMK A2998=,
20180111_150000.002,0,RJAA,,,,0,20180111150000,-1,-1,-1,-1,200,-1,4,-1,-1,-1,-1,CAVOK,-1,0,0,0,,-1,3,-1,10,1015,RJAA 111500Z 20004KT CAVOK M03/M10 Q1015 NOSIG RMK A2999=,
20180111_153000.001,0,RJAA,,,,0,20180111150000,-1,-1,-1,-1,240,-1,2,-1,-1,-1,-1,CAVOK,-1,0,0,0,,-1,2,-1,11,1015,RJAA 111530Z 24002KT CAVOK M02/M11 Q1015 NOSIG RMK A2999=,
20180111_160000.002,0,RJAA,,,,0,20180111160000,-1,-1,-1,-1,220,-1,3,-1,-1,-1,-1,CAVOK,-1,0,0,0,,-1,3,-1,9,1015,RJAA 111600Z 22003KT CAVOK M03/M09 Q1015 NOSIG RMK A3000=,
20180111_163000.001,0,RJAA,,,,0,20180111160000,-1,-1,-1,-1,250,-1,3,-1,-1,-1,-1,CAVOK,-1,0,0,0,,-1,3,-1,10,1015,RJAA 111630Z 25003KT CAVOK M03/M10 Q1015 NOSIG RMK A3000=,
20180111_170000.002,0,RJAA,,,,0,20180111170000,-1,-1,-1,-1,260,-1,3,-1,-1,-1,-1,CAVOK,-1,0,0,0,,-1,2,-1,11,1016,RJAA 111700Z 26003KT CAVOK M02/M11 Q1016 NOSIG RMK A3000=,
20180111_173000.001,0,RJAA,,,,0,20180111170000,-1,-1,-1,-1,250,-1,3,-1,-1,-1,-1,CAVOK,-1,0,0,0,,-1,3,-1,11,1016,RJAA 111730Z 25003KT CAVOK M03/M11 Q1016 NOSIG RMK A3001=,
20180111_180000.002,0,RJAA,,,,0,20180111180000,-1,-1,-1,-1,260,-1,2,-1,-1,-1,-1,CAVOK,-1,0,0,0,,-1,3,-1,11,1016,RJAA 111800Z 26002KT CAVOK M03/M11 Q1016 NOSIG RMK A3001=,
20180111_183000.001,0,RJAA,,,,0,20180111180000,-1,-1,-1,-1,270,-1,3,-1,-1,-1,-1,CAVOK,-1,0,0,0,,-1,3,-1,10,1016,RJAA 111830Z 27003KT CAVOK M03/M10 Q1016 NOSIG RMK A3001=,
20180111_190000.002,0,RJAA,,,,0,20180111190000,-1,-1,-1,-1,250,-1,3,-1,-1,-1,-1,CAVOK,-1,0,0,0,,-1,4,-1,9,1016,RJAA 111900Z 25003KT CAVOK M04/M09 Q1016 NOSIG RMK A3001=,
20180111_193000.001,0,RJAA,,,,0,20180111190000,-1,-1,-1,-1,0,-1,0,-1,-1,-1,-1,CAVOK,-1,0,0,0,,-1,4,-1,10,1016,RJAA 111930Z 00000KT CAVOK M04/M10 Q1016 NOSIG RMK A3001=,
20180111_200000.002,0,RJAA,,,,0,20180111200000,-1,-1,-1,-1,320,-1,3,-1,-1,-1,-1,CAVOK,-1,0,0,0,,-1,5,-1,10,1016,RJAA 112000Z 32003KT CAVOK M05/M10 Q1016 NOSIG RMK A3002=,
20180111_203000.001,0,RJAA,,,,0,20180111200000,-1,-1,-1,-1,0,-1,0,-1,-1,-1,-1,,9999,0,0,1,FEW 40,-1,6,-1,9,1016,RJAA 112030Z 00000KT 9999 FEW040 M06/M09 Q1016 NOSIG RMK     1SC040 A3003=,
20180111_210000.002,0,RJAA,,,,0,20180111210000,-1,-1,-1,-1,999,-1,1,-1,-1,-1,-1,,9999,0,0,1,FEW 40,-1,5,-1,9,1017,RJAA 112100Z VRB01KT 9999 FEW040 M05/M09 Q1017 NOSIG RMK     1SC040 A3003=,
20180111_213000.001,0,RJAA,,,,0,20180111210000,-1,-1,-1,-1,220,-1,1,-1,-1,-1,-1,,9999,0,0,1,FEW 30,-1,6,-1,9,1017,RJAA 112130Z 22001KT 9999 FEW030 M06/M09 Q1017 NOSIG RMK     1CU030 A3005=,
20180111_220000.002,0,RJAA,,,,0,20180111220000,-1,-1,-1,-1,220,-1,1,-1,-1,-1,-1,,9999,0,0,1,FEW 30,-1,5,-1,9,1017,RJAA 112200Z 22001KT 9999 FEW030 M05/M09 Q1017 NOSIG RMK     1CU030 A3006=,
20180111_223000.002,0,RJAA,,,,0,20180111220000,-1,-1,-1,-1,240,-1,4,-1,-1,-1,-1,,9999,0,0,1,FEW 30,-1,6,-1,9,1018,RJAA 112230Z 24004KT 9999 FEW030 M06/M09 Q1018 BECMG 32006KT     RMK 1CU030 A3007=,
20180111_230000.002,0,RJAA,,,,0,20180111230000,-1,-1,-1,-1,230,-1,3,-1,-1,-1,-1,,9999,0,0,1,FEW 30,-1,4,-1,9,1018,RJAA 112300Z 23003KT 9999 FEW030 M04/M09 Q1018 BECMG 32006KT     RMK 1CU030 A3008=,
20180111_233000.001,0,RJAA,,,,0,20180111230000,-1,-1,-1,-1,260,-1,3,-1,-1,-1,-1,,9999,0,0,1,FEW 30,-1,1,-1,10,1019,RJAA 112330Z 26003KT 9999 FEW030 M01/M10 Q1019 NOSIG RMK     1CU030 A3009=,
20180112_000000.002,0,RJAA,,,,0,20180112000000,-1,-1,-1,-1,999,-1,2,-1,-1,-1,-1,,9999,0,0,1,FEW 30,1,1,-1,9,1019,RJAA 120000Z VRB02KT 9999 FEW030 01/M09 Q1019 BECMG 32006KT     RMK 1CU030 A3010 MOD TURB OBS AT 2330Z 50NM S NARITA BTN           FL180 AND FL150 IN DES A320 JJP200=,
20180112_003000.001,0,RJAA,,,,0,20180112000000,-1,-1,-1,-1,999,-1,2,-1,-1,-1,-1,,9999,0,0,1,FEW 30,1,1,-1,8,1019,RJAA 120030Z VRB02KT 9999 FEW030 01/M08 Q1019 BECMG 33008KT     RMK 1CU030 A3010=,
20180112_010000.003,0,RJAA,,,,0,20180112010000,-1,-1,-1,-1,250,-1,3,-1,-1,210,320,,9999,0,0,1,FEW 30,1,3,-1,9,1019,RJAA 120100Z 25003KT 210V320 9999 FEW030 03/M09 Q1019 NOSIG     RMK 1CU030 A3010 MOD TURB OBS AT 0033Z SUIGO BTN 12000FT           AND 11000FT IN DES B738 ANA2152=,
20180112_013000.001,0,RJAA,,,,0,20180112010000,-1,-1,-1,-1,290,-1,6,-1,-1,250,330,,9999,0,0,1,FEW 30,1,4,-1,11,1019,RJAA 120130Z 29006KT 250V330 9999 FEW030 04/M11 Q1019 NOSIG     RMK 1CU030 A3009=,
20180112_020000.002,0,RJAA,,,,0,20180112020000,-1,-1,-1,-1,280,-1,6,-1,-1,220,310,,9999,0,0,1,FEW 30,1,4,-1,12,1019,RJAA 120200Z 28006KT 220V310 9999 FEW030 04/M12 Q1019 NOSIG     RMK 1CU030 A3010=,
20180112_023000.001,0,RJAA,,,,0,20180112020000,-1,-1,-1,-1,290,-1,6,-1,-1,260,320,,9999,0,0,1,FEW 30,1,6,-1,12,1018,RJAA 120230Z 29006KT 260V320 9999 FEW030 06/M12 Q1018 NOSIG     RMK 1CU030 A3008=,
20180112_030000.002,0,RJAA,,,,0,20180112030000,-1,-1,-1,-1,320,-1,8,-1,-1,280,350,,9999,0,0,2,FEW 30   SCT -9999,1,6,-1,12,1018,RJAA 120300Z 32008KT 280V350 9999 FEW030 SCT/// 06/M12 Q1018     NOSIG RMK 1CU030 A3007=,
20180112_033000.001,0,RJAA,,,,0,20180112030000,-1,-1,-1,-1,320,-1,6,-1,-1,280,350,,9999,0,0,1,FEW 30,1,5,-1,12,1018,RJAA 120330Z 32006KT 280V350 9999 FEW030 05/M12 Q1018 NOSIG     RMK 1CU030 A3006=,
20180112_040000.002,0,RJAA,,,,0,20180112040000,-1,-1,-1,-1,340,-1,8,-1,-1,230,40,,9999,0,0,1,FEW 30,1,6,-1,12,1018,RJAA 120400Z 34008KT 230V040 9999 FEW030 06/M12 Q1018 NOSIG     RMK 1CU030 A3006=,
20180112_043000.001,0,RJAA,,,,0,20180112040000,-1,-1,-1,-1,999,-1,3,-1,-1,-1,-1,,9999,0,0,1,FEW 40,1,6,-1,12,1017,RJAA 120430Z VRB03KT 9999 FEW040 06/M12 Q1017 BECMG 32008KT     RMK 1CU040 A3005=,
20180112_050000.003,0,RJAA,,,,0,20180112050000,-1,-1,-1,-1,320,-1,6,-1,-1,280,350,,9999,0,0,1,FEW 40,1,6,-1,13,1018,RJAA 120500Z 32006KT 280V350 9999 FEW040 06/M13 Q1018 NOSIG     RMK 1CU040 A3007=,
20180112_053000.001,0,RJAA,,,,0,20180112050000,-1,-1,-1,-1,999,-1,5,-1,-1,-1,-1,,9999,0,0,1,FEW 40,1,6,-1,13,1018,RJAA 120530Z VRB05KT 9999 FEW040 06/M13 Q1018 BECMG 32006KT     RMK 1CU040 A3007=,
20180112_060000.002,0,RJAA,,,,0,20180112060000,-1,-1,-1,-1,320,-1,5,-1,-1,270,350,,9999,0,0,2,FEW 40   SCT -9999,1,6,-1,12,1018,RJAA 120600Z 32005KT 270V350 9999 FEW040 SCT/// 06/M12 Q1018     NOSIG RMK 1CU040 A3008=,
20180112_063000.001,0,RJAA,,,,0,20180112060000,-1,-1,-1,-1,320,-1,8,-1,-1,-1,-1,,9999,0,0,2,FEW 40   BKN -9999,1,5,-1,12,1018,RJAA 120630Z 32008KT 9999 FEW040 BKN/// 05/M12 Q1018 NOSIG RMK     1CU040 A3008=,
20180112_070000.003,0,RJAA,,,,0,20180112070000,-1,-1,-1,-1,320,-1,6,-1,-1,-1,-1,,9999,0,0,2,FEW 40   BKN -9999,1,5,-1,12,1019,RJAA 120700Z 32006KT 9999 FEW040 BKN/// 05/M12 Q1019 NOSIG RMK     1CU040 A3009=,
20180112_073000.001,0,RJAA,,,,0,20180112070000,-1,-1,-1,-1,330,-1,7,-1,-1,-1,-1,,9999,0,0,2,FEW 40   BKN -9999,1,4,-1,11,1019,RJAA 120730Z 33007KT 9999 FEW040 BKN/// 04/M11 Q1019 NOSIG RMK     1CU040 A3010=,
20180112_080000.002,0,RJAA,,,,0,20180112080000,-1,-1,-1,-1,40,-1,5,-1,-1,-1,-1,,9999,0,0,2,FEW 30   BKN -9999,1,4,-1,10,1019,RJAA 120800Z 04005KT 9999 FEW030 BKN/// 04/M10 Q1019 NOSIG RMK     1CU030 A3011=,
20180112_083000.001,0,RJAA,,,,0,20180112080000,-1,-1,-1,-1,999,-1,3,-1,-1,-1,-1,,9999,0,0,2,FEW 30   BKN -9999,1,2,-1,10,1019,RJAA 120830Z VRB03KT 9999 FEW030 BKN/// 02/M10 Q1019 BECMG     34006KT RMK 1CU030 A3011=,
20180112_090000.002,0,RJAA,,,,0,20180112090000,-1,-1,-1,-1,999,-1,1,-1,-1,-1,-1,,9999,0,0,2,FEW 30   BKN -9999,1,2,-1,9,1020,RJAA 120900Z VRB01KT 9999 FEW030 BKN/// 02/M09 Q1020 NOSIG RMK     1CU030 A3014=,
20180112_093000.001,0,RJAA,,,,0,20180112090000,-1,-1,-1,-1,999,-1,2,-1,-1,-1,-1,,9999,0,0,2,FEW 30   BKN -9999,1,4,-1,7,1021,RJAA 120930Z VRB02KT 9999 FEW030 BKN/// 04/M07 Q1021 NOSIG RMK     1CU030 A3016=,
20180112_100000.002,0,RJAA,,,,0,20180112100000,-1,-1,-1,-1,10,-1,5,-1,-1,-1,-1,,9999,0,0,2,FEW 30   BKN -9999,1,4,-1,7,1021,RJAA 121000Z 01005KT 9999 FEW030 BKN/// 04/M07 Q1021 NOSIG RMK     1CU030 A3015=,
20180112_103000.001,0,RJAA,,,,0,20180112100000,-1,-1,-1,-1,20,-1,6,-1,-1,-1,-1,,9999,0,0,2,FEW 30   BKN -9999,1,4,-1,6,1021,RJAA 121030Z 02006KT 9999 FEW030 BKN/// 04/M06 Q1021 NOSIG RMK     1CU030 A3016=,
20180112_110000.002,0,RJAA,,,,0,20180112110000,-1,-1,-1,-1,10,-1,5,-1,-1,340,40,,9999,0,0,2,FEW 30   BKN -9999,1,3,-1,6,1021,RJAA 121100Z 01005KT 340V040 9999 FEW030 BKN/// 03/M06 Q1021     NOSIG RMK 1CU030 A3017=,
20180112_113000.001,0,RJAA,,,,0,20180112110000,-1,-1,-1,-1,20,-1,7,-1,-1,-1,-1,,9999,0,0,2,FEW 30   BKN -9999,1,2,-1,6,1021,RJAA 121130Z 02007KT 9999 FEW030 BKN/// 02/M06 Q1021 NOSIG RMK     1CU030 A3017=,
20180112_120000.002,0,RJAA,,,,0,20180112120000,-1,-1,-1,-1,20,-1,7,-1,-1,-1,-1,,9999,0,0,2,FEW 30   BKN -9999,1,2,-1,5,1021,RJAA 121200Z 02007KT 9999 FEW030 BKN/// 02/M05 Q1021 NOSIG RMK     1CU030 A3017=,
20180112_123000.001,0,RJAA,,,,0,20180112120000,-1,-1,-1,-1,10,-1,6,-1,-1,-1,-1,,9999,0,0,2,FEW 30   BKN -9999,1,1,-1,6,1022,RJAA 121230Z 01006KT 9999 FEW030 BKN/// 01/M06 Q1022 NOSIG RMK     1CU030 A3018=,
20180112_130000.002,0,RJAA,,,,0,20180112130000,-1,-1,-1,-1,10,-1,6,-1,-1,-1,-1,,9999,0,0,2,FEW 30   BKN -9999,1,1,-1,6,1022,RJAA 121300Z 01006KT 9999 FEW030 BKN/// 01/M06 Q1022 NOSIG RMK     1CU030 A3018=,
20180112_133000.001,0,RJAA,,,,0,20180112130000,-1,-1,-1,-1,10,-1,6,-1,-1,-1,-1,,9999,0,0,2,FEW 30   SCT -9999,1,0,-1,6,1022,RJAA 121330Z 01006KT 9999 FEW030 SCT/// 00/M06 Q1022 NOSIG RMK     1CU030 A3018=,
20180112_140000.002,0,RJAA,,,,0,20180112140000,-1,-1,-1,-1,360,-1,6,-1,-1,-1,-1,,9999,0,0,1,FEW 30,1,0,-1,6,1021,RJAA 121400Z 36006KT 9999 FEW030 00/M06 Q1021 NOSIG RMK 1CU030     A3018=,
20180112_143000.001,0,RJAA,,,,0,20180112140000,-1,-1,-1,-1,340,-1,5,-1,-1,-1,-1,,9999,0,0,1,FEW 30,-1,1,-1,6,1021,RJAA 121430Z 34005KT 9999 FEW030 M01/M06 Q1021 NOSIG RMK     1CU030 A3018=,
20180112_150000.002,0,RJAA,,,,0,20180112150000,-1,-1,-1,-1,340,-1,5,-1,-1,-1,-1,,9999,0,0,1,FEW 30,-1,1,-1,7,1022,RJAA 121500Z 34005KT 9999 FEW030 M01/M07 Q1022 NOSIG RMK     1CU030 A3018=,
20180112_153000.001,0,RJAA,,,,0,20180112150000,-1,-1,-1,-1,330,-1,7,-1,-1,-1,-1,,9999,0,0,1,FEW 30,-1,1,-1,6,1022,RJAA 121530Z 33007KT 9999 FEW030 M01/M06 Q1022 NOSIG RMK     1CU030 A3018=,
20180112_160000.002,0,RJAA,,,,0,20180112160000,-1,-1,-1,-1,330,-1,6,-1,-1,-1,-1,,9999,0,0,1,FEW 30,-1,2,-1,7,1022,RJAA 121600Z 33006KT 9999 FEW030 M02/M07 Q1022 NOSIG RMK     1CU030 A3019=,
20180112_163000.001,0,RJAA,,,,0,20180112160000,-1,-1,-1,-1,320,-1,5,-1,-1,-1,-1,,9999,0,0,1,FEW 30,-1,2,-1,6,1022,RJAA 121630Z 32005KT 9999 FEW030 M02/M06 Q1022 NOSIG RMK     1CU030 A3019=,
20180112_170000.002,0,RJAA,,,,0,20180112170000,-1,-1,-1,-1,320,-1,6,-1,-1,-1,-1,,9999,0,0,1,FEW 30,-1,2,-1,6,1022,RJAA 121700Z 32006KT 9999 FEW030 M02/M06 Q1022 NOSIG RMK     1CU030 A3020=,
20180112_173000.001,0,RJAA,,,,0,20180112170000,-1,-1,-1,-1,330,-1,7,-1,-1,-1,-1,,9999,0,0,1,FEW 30,-1,3,-1,7,1022,RJAA 121730Z 33007KT 9999 FEW030 M03/M07 Q1022 NOSIG RMK     1CU030 A3020=,
20180112_180000.002,0,RJAA,,,,0,20180112180000,-1,-1,-1,-1,320,-1,6,-1,-1,-1,-1,,9999,0,0,1,FEW 30,-1,2,-1,7,1022,RJAA 121800Z 32006KT 9999 FEW030 M02/M07 Q1022 NOSIG RMK     1CU030 A3019=,
20180112_183000.001,0,RJAA,,,,0,20180112180000,-1,-1,-1,-1,330,-1,8,-1,-1,-1,-1,,9999,0,0,1,FEW 30,-1,4,-1,7,1022,RJAA 121830Z 33008KT 9999 FEW030 M04/M07 Q1022 NOSIG RMK     1CU030 A3018=,
20180112_190000.002,0,RJAA,,,,0,20180112190000,-1,-1,-1,-1,320,-1,8,-1,-1,-1,-1,,9999,0,0,1,FEW 30,-1,3,-1,7,1021,RJAA 121900Z 32008KT 9999 FEW030 M03/M07 Q1021 NOSIG RMK     1CU030 A3018=,
20180112_193000.001,0,RJAA,,,,0,20180112190000,-1,-1,-1,-1,330,-1,7,-1,-1,-1,-1,,9999,0,0,1,FEW 30,-1,4,-1,7,1021,RJAA 121930Z 33007KT 9999 FEW030 M04/M07 Q1021 NOSIG RMK     1CU030 A3018=,
20180112_200000.003,0,RJAA,,,,0,20180112200000,-1,-1,-1,-1,330,-1,7,-1,-1,-1,-1,,9999,0,0,1,FEW 30,-1,4,-1,8,1021,RJAA 122000Z 33007KT 9999 FEW030 M04/M08 Q1021 NOSIG RMK     1CU030 A3017=,
20180112_203000.001,0,RJAA,,,,0,20180112200000,-1,-1,-1,-1,320,-1,6,-1,-1,-1,-1,,9999,0,0,2,FEW 30   SCT 100,-1,3,-1,7,1021,RJAA 122030Z 32006KT 9999 FEW030 SCT100 M03/M07 Q1021 NOSIG     RMK 1CU030 3AC100 A3018=,
20180112_210000.002,0,RJAA,,,,0,20180112210000,-1,-1,-1,-1,310,-1,4,-1,-1,-1,-1,,9999,0,0,2,FEW 30   SCT 100,-1,3,-1,7,1022,RJAA 122100Z 31004KT 9999 FEW030 SCT100 M03/M07 Q1022 NOSIG     RMK 1CU030 3AC100 A3018=,
20180112_213000.001,0,RJAA,,,,0,20180112210000,-1,-1,-1,-1,310,-1,4,-1,-1,-1,-1,,9999,0,0,1,FEW 30,-1,4,-1,7,1022,RJAA 122130Z 31004KT 9999 FEW030 M04/M07 Q1022 NOSIG RMK     1CU030 A3019=,
20180112_220000.002,0,RJAA,,,,0,20180112220000,-1,-1,-1,-1,310,-1,3,-1,-1,-1,-1,,9999,0,0,1,FEW 30,-1,4,-1,7,1022,RJAA 122200Z 31003KT 9999 FEW030 M04/M07 Q1022 NOSIG RMK     1CU030 A3019=,
20180112_223000.002,0,RJAA,,,,0,20180112220000,-1,-1,-1,-1,310,-1,3,-1,-1,-1,-1,,9999,0,0,1,FEW 30,-1,4,-1,7,1022,RJAA 122230Z 31003KT 9999 FEW030 M04/M07 Q1022 NOSIG RMK     1CU030 A3019=,
20180112_230000.002,0,RJAA,,,,0,20180112230000,-1,-1,-1,-1,320,-1,5,-1,-1,-1,-1,,9999,0,0,1,FEW 30,-1,3,-1,6,1022,RJAA 122300Z 32005KT 9999 FEW030 M03/M06 Q1022 NOSIG RMK     1CU030 A3020=,
20180112_233000.001,0,RJAA,,,,0,20180112230000,-1,-1,-1,-1,330,-1,6,-1,-1,-1,-1,,9999,0,0,1,FEW 30,-1,1,-1,6,1022,RJAA 122330Z 33006KT 9999 FEW030 M01/M06 Q1022 NOSIG RMK     1CU030 A3020=,
20180113_000000.002,0,RJAA,,,,0,20180113000000,-1,-1,-1,-1,320,-1,8,-1,-1,-1,-1,,9999,0,0,1,FEW 30,1,1,-1,6,1022,RJAA 130000Z 32008KT 9999 FEW030 01/M06 Q1022 NOSIG RMK 1CU030     A3020=,
20180113_003000.001,0,RJAA,,,,0,20180113000000,-1,-1,-1,-1,330,-1,9,-1,-1,-1,-1,,9999,0,0,1,FEW 30,1,2,-1,7,1022,RJAA 130030Z 33009KT 9999 FEW030 02/M07 Q1022 NOSIG RMK 1CU030     A3020=,
20180113_010000.003,0,RJAA,,,,0,20180113010000,-1,-1,-1,-1,330,-1,7,-1,-1,-1,-1,,9999,0,0,1,FEW 30,1,4,-1,7,1022,RJAA 130100Z 33007KT 9999 FEW030 04/M07 Q1022 NOSIG RMK 1CU030     A3020=,
20180113_013000.001,0,RJAA,,,,0,20180113010000,-1,-1,-1,-1,330,-1,6,-1,-1,-1,-1,,9999,0,0,1,FEW 30,1,4,-1,7,1022,RJAA 130130Z 33006KT 9999 FEW030 04/M07 Q1022 NOSIG RMK 1CU030     A3020=,
20180113_020000.002,0,RJAA,,,,0,20180113020000,-1,-1,-1,-1,320,-1,6,-1,-1,280,350,,9999,0,0,1,FEW 30,1,5,-1,6,1022,RJAA 130200Z 32006KT 280V350 9999 FEW030 05/M06 Q1022 NOSIG     RMK 1CU030 A3018=,
20180113_023000.001,0,RJAA,,,,0,20180113020000,-1,-1,-1,-1,320,-1,5,-1,-1,280,10,,9999,0,0,1,FEW 30,1,6,-1,6,1021,RJAA 130230Z 32005KT 280V010 9999 FEW030 06/M06 Q1021 BECMG     12005KT RMK 1CU030 A3017=,
20180113_030000.002,0,RJAA,,,,0,20180113030000,-1,-1,-1,-1,999,-1,3,-1,-1,-1,-1,,9999,0,0,1,FEW 30,1,6,-1,6,1021,RJAA 130300Z VRB03KT 9999 FEW030 06/M06 Q1021 BECMG 12005KT     RMK 1CU030 A3015=,
20180113_033000.001,0,RJAA,,,,0,20180113030000,-1,-1,-1,-1,999,-1,3,-1,-1,-1,-1,,9999,0,0,1,FEW 30,1,7,-1,6,1020,RJAA 130330Z VRB03KT 9999 FEW030 07/M06 Q1020 BECMG 12005KT     RMK 1CU030 A3014=,
20180113_040000.002,0,RJAA,,,,0,20180113040000,-1,-1,-1,-1,240,-1,3,-1,-1,180,350,,9999,0,0,1,FEW 30,1,7,-1,7,1020,RJAA 130400Z 24003KT 180V350 9999 FEW030 07/M07 Q1020 BECMG     18005KT RMK 1CU030 A3013=,
20180113_043000.001,0,RJAA,,,,0,20180113040000,-1,-1,-1,-1,999,-1,2,-1,-1,-1,-1,,9999,0,0,1,FEW 30,1,7,-1,8,1020,RJAA 130430Z VRB02KT 9999 FEW030 07/M08 Q1020 BECMG 18005KT     RMK 1CU030 A3012=,
20180113_050000.002,0,RJAA,,,,0,20180113050000,-1,-1,-1,-1,999,-1,2,-1,-1,-1,-1,,9999,0,0,1,FEW 30,1,7,-1,9,1019,RJAA 130500Z VRB02KT 9999 FEW030 07/M09 Q1019 BECMG 18005KT     RMK 1CU030 A3012=,
20180113_053000.001,0,RJAA,,,,0,20180113050000,-1,-1,-1,-1,999,-1,3,-1,-1,-1,-1,,9999,0,0,1,FEW 30,1,8,-1,8,1019,RJAA 130530Z VRB03KT 9999 FEW030 08/M08 Q1019 BECMG 18005KT     RMK 1CU030 A3011=,
20180113_060000.002,0,RJAA,,,,0,20180113060000,-1,-1,-1,-1,180,-1,4,-1,-1,130,250,,9999,0,0,1,FEW 30,1,8,-1,10,1019,RJAA 130600Z 18004KT 130V250 9999 FEW030 08/M10 Q1019 NOSIG     RMK 1CU030 A3012=,
20180113_063000.001,0,RJAA,,,,0,20180113060000,-1,-1,-1,-1,999,-1,3,-1,-1,-1,-1,,9999,0,0,1,FEW 30,1,7,-1,9,1019,RJAA 130630Z VRB03KT 9999 FEW030 07/M09 Q1019 BECMG 18005KT     RMK 1CU030 A3012=,
20180113_070000.002,0,RJAA,,,,0,20180113070000,-1,-1,-1,-1,210,-1,3,-1,-1,160,260,,9999,0,0,1,FEW 30,1,7,-1,10,1019,RJAA 130700Z 21003KT 160V260 9999 FEW030 07/M10 Q1019 NOSIG     RMK 1CU030 A3012=,
20180113_073000.001,0,RJAA,,,,0,20180113070000,-1,-1,-1,-1,210,-1,4,-1,-1,-1,-1,,9999,0,0,1,FEW 30,1,6,-1,10,1020,RJAA 130730Z 21004KT 9999 FEW030 06/M10 Q1020 NOSIG RMK 1CU030     A3012=,
20180113_080000.002,0,RJAA,,,,0,20180113080000,-1,-1,-1,-1,250,-1,2,-1,-1,-1,-1,,9999,0,0,1,FEW 30,1,4,-1,9,1020,RJAA 130800Z 25002KT 9999 FEW030 04/M09 Q1020 NOSIG RMK 1CU030     A3013=,
20180113_083000.001,0,RJAA,,,,0,20180113080000,-1,-1,-1,-1,170,-1,2,-1,-1,-1,-1,,9999,0,0,1,FEW 30,1,2,-1,7,1020,RJAA 130830Z 17002KT 9999 FEW030 02/M07 Q1020 BECMG 36005KT     RMK 1CU030 A3014=,
20180113_090000.002,0,RJAA,,,,0,20180113090000,-1,-1,-1,-1,130,-1,2,-1,-1,-1,-1,,9999,0,0,1,FEW 30,1,1,-1,7,1020,RJAA 130900Z 13002KT 9999 FEW030 01/M07 Q1020 NOSIG RMK 1CU030     A3014=,
20180113_093000.001,0,RJAA,,,,0,20180113090000,-1,-1,-1,-1,140,-1,3,-1,-1,-1,-1,,9999,0,0,1,FEW 30,1,0,-1,6,1020,RJAA 130930Z 14003KT 9999 FEW030 00/M06 Q1020 NOSIG RMK 1CU030     A3014=,
20180113_100000.002,0,RJAA,,,,0,20180113100000,-1,-1,-1,-1,140,-1,1,-1,-1,-1,-1,CAVOK,-1,0,0,0,,-1,0,-1,6,1021,RJAA 131000Z 14001KT CAVOK M00/M06 Q1021 BECMG 36005KT RMK     A3015=,
20180113_103000.001,0,RJAA,,,,0,20180113100000,-1,-1,-1,-1,0,-1,0,-1,-1,-1,-1,CAVOK,-1,0,0,0,,-1,0,-1,5,1021,RJAA 131030Z 00000KT CAVOK M00/M05 Q1021 BECMG 36005KT RMK     A3015=,
20180113_110000.002,0,RJAA,,,,0,20180113110000,-1,-1,-1,-1,180,-1,1,-1,-1,-1,-1,CAVOK,-1,0,0,0,,-1,1,-1,5,1021,RJAA 131100Z 18001KT CAVOK M01/M05 Q1021 BECMG 36005KT RMK     A3016=,
20180113_113000.001,0,RJAA,,,,0,20180113110000,-1,-1,-1,-1,999,-1,2,-1,-1,-1,-1,CAVOK,-1,0,0,0,,-1,1,-1,7,1021,RJAA 131130Z VRB02KT CAVOK M01/M07 Q1021 BECMG 34008KT RMK     A3016=,
20180113_120000.002,0,RJAA,,,,0,20180113120000,-1,-1,-1,-1,10,-1,3,-1,-1,-1,-1,CAVOK,-1,0,0,0,,-1,0,-1,6,1021,RJAA 131200Z 01003KT CAVOK M00/M06 Q1021 NOSIG RMK A3016=,
20180113_123000.001,0,RJAA,,,,0,20180113120000,-1,-1,-1,-1,350,-1,5,-1,-1,-1,-1,CAVOK,-1,0,0,0,,1,1,-1,6,1021,RJAA 131230Z 35005KT CAVOK 01/M06 Q1021 NOSIG RMK A3017=,
20180113_130000.002,0,RJAA,,,,0,20180113130000,-1,-1,-1,-1,350,-1,5,-1,-1,-1,-1,CAVOK,-1,0,0,0,,1,1,-1,5,1021,RJAA 131300Z 35005KT CAVOK 01/M05 Q1021 NOSIG RMK A3017=,
20180113_133000.001,0,RJAA,,,,0,20180113130000,-1,-1,-1,-1,340,-1,7,-1,-1,-1,-1,CAVOK,-1,0,0,0,,1,0,-1,7,1022,RJAA 131330Z 34007KT CAVOK 00/M07 Q1022 NOSIG RMK A3018=,
20180113_140000.003,0,RJAA,,,,0,20180113140000,-1,-1,-1,-1,330,-1,9,-1,-1,-1,-1,CAVOK,-1,0,0,0,,-1,0,-1,4,1022,RJAA 131400Z 33009KT CAVOK M00/M04 Q1022 NOSIG RMK A3019=,
20180113_143000.001,0,RJAA,,,,0,20180113140000,-1,-1,-1,-1,350,-1,13,-1,-1,-1,-1,CAVOK,-1,0,0,0,,1,1,-1,4,1022,RJAA 131430Z 35013KT CAVOK 01/M04 Q1022 NOSIG RMK A3020=,
20180113_150000.002,0,RJAA,,,,0,20180113150000,-1,-1,-1,-1,330,-1,8,-1,-1,-1,-1,CAVOK,-1,0,0,0,,-1,0,-1,5,1023,RJAA 131500Z 33008KT CAVOK M00/M05 Q1023 NOSIG RMK A3021=,
20180113_153000.001,0,RJAA,,,,0,20180113150000,-1,-1,-1,-1,340,-1,9,-1,-1,-1,-1,CAVOK,-1,0,0,0,,-1,1,-1,5,1023,RJAA 131530Z 34009KT CAVOK M01/M05 Q1023 NOSIG RMK A3021=,
20180113_160000.002,0,RJAA,,,,0,20180113160000,-1,-1,-1,-1,330,-1,8,-1,-1,-1,-1,CAVOK,-1,0,0,0,,-1,0,-1,5,1023,RJAA 131600Z 33008KT CAVOK M00/M05 Q1023 NOSIG RMK A3021=,
20180113_163000.001,0,RJAA,,,,0,20180113160000,-1,-1,-1,-1,320,-1,7,-1,-1,-1,-1,CAVOK,-1,0,0,0,,-1,0,-1,5,1023,RJAA 131630Z 32007KT CAVOK M00/M05 Q1023 NOSIG RMK A3023=,
20180113_170000.002,0,RJAA,,,,0,20180113170000,-1,-1,-1,-1,290,-1,6,-1,-1,-1,-1,,9999,0,0,1,FEW 30,-1,1,-1,5,1023,RJAA 131700Z 29006KT 9999 FEW030 M01/M05 Q1023 NOSIG RMK     1CU030 A3023=,
20180113_173000.001,0,RJAA,,,,0,20180113170000,-1,-1,-1,-1,290,-1,6,-1,-1,-1,-1,,9999,0,0,1,FEW 30,-1,1,-1,5,1024,RJAA 131730Z 29006KT 9999 FEW030 M01/M05 Q1024 NOSIG RMK     1CU030 A3025=,
20180113_180000.002,0,RJAA,,,,0,20180113180000,-1,-1,-1,-1,0,-1,0,-1,-1,-1,-1,,9999,0,0,1,FEW 30,-1,2,-1,6,1024,RJAA 131800Z 00000KT 9999 FEW030 M02/M06 Q1024 BECMG 34005KT     RMK 1CU030 A3025=,
20180113_183000.001,0,RJAA,,,,0,20180113180000,-1,-1,-1,-1,320,-1,6,-1,-1,-1,-1,CAVOK,-1,0,0,0,,-1,2,-1,6,1024,RJAA 131830Z 32006KT CAVOK M02/M06 Q1024 NOSIG RMK A3025=,
20180113_190000.003,0,RJAA,,,,0,20180113190000,-1,-1,-1,-1,310,-1,3,-1,-1,270,340,CAVOK,-1,0,0,0,,-1,2,-1,6,1024,RJAA 131900Z 31003KT 270V340 CAVOK M02/M06 Q1024 NOSIG RMK     A3026=,
20180113_193000.001,0,RJAA,,,,0,20180113190000,-1,-1,-1,-1,320,-1,5,-1,-1,-1,-1,CAVOK,-1,0,0,0,,-1,2,-1,7,1024,RJAA 131930Z 32005KT CAVOK M02/M07 Q1024 NOSIG RMK A3026=,
20180113_200000.003,0,RJAA,,,,0,20180113200000,-1,-1,-1,-1,320,-1,4,-1,-1,-1,-1,CAVOK,-1,0,0,0,,-1,3,-1,8,1025,RJAA 132000Z 32004KT CAVOK M03/M08 Q1025 NOSIG RMK A3028=,
20180113_203000.001,0,RJAA,,,,0,20180113200000,-1,-1,-1,-1,320,-1,5,-1,-1,-1,-1,CAVOK,-1,0,0,0,,-1,2,-1,6,1025,RJAA 132030Z 32005KT CAVOK M02/M06 Q1025 NOSIG RMK A3028=,
20180113_210000.002,0,RJAA,,,,0,20180113210000,-1,-1,-1,-1,10,-1,5,-1,-1,-1,-1,CAVOK,-1,0,0,0,,-1,3,-1,7,1025,RJAA 132100Z 01005KT CAVOK M03/M07 Q1025 NOSIG RMK A3029=,
20180113_213000.001,0,RJAA,,,,0,20180113210000,-1,-1,-1,-1,360,-1,6,-1,-1,-1,-1,,9999,0,0,1,FEW 30,-1,2,-1,6,1026,RJAA 132130Z 36006KT 9999 FEW030 M02/M06 Q1026 NOSIG RMK     1CU030 A3030=,
20180113_220000.002,0,RJAA,,,,0,20180113220000,-1,-1,-1,-1,330,-1,3,-1,-1,290,20,,9999,0,0,1,FEW 30,-1,3,-1,8,1026,RJAA 132200Z 33003KT 290V020 9999 FEW030 M03/M08 Q1026 NOSIG     RMK 1CU030 A3031=,
20180113_223000.002,0,RJAA,,,,0,20180113220000,-1,-1,-1,-1,330,-1,3,-1,-1,-1,-1,,9999,0,0,1,FEW 30,-1,2,-1,7,1026,RJAA 132230Z 33003KT 9999 FEW030 M02/M07 Q1026 NOSIG RMK     1CU030 A3032=,
20180113_230000.002,0,RJAA,,,,0,20180113230000,-1,-1,-1,-1,240,-1,1,-1,-1,-1,-1,,9999,0,0,1,FEW 30,-1,1,-1,5,1027,RJAA 132300Z 24001KT 9999 FEW030 M01/M05 Q1027 BECMG 36008KT     RMK 1CU030 A3034=,
20180113_233000.001,0,RJAA,,,,0,20180113230000,-1,-1,-1,-1,999,-1,2,-1,-1,-1,-1,,9999,0,0,1,FEW 30,1,1,-1,6,1028,RJAA 132330Z VRB02KT 9999 FEW030 01/M06 Q1028 BECMG 36008KT     RMK 1CU030 A3036=,
20180114_000000.003,0,RJAA,,,,0,20180114000000,-1,-1,-1,-1,290,-1,4,-1,-1,230,330,,9999,0,0,1,FEW 30,1,1,-1,6,1028,RJAA 140000Z 29004KT 230V330 9999 FEW030 01/M06 Q1028 NOSIG     RMK 1CU030 A3038=,
20180114_003000.001,0,RJAA,,,,0,20180114000000,-1,-1,-1,-1,320,-1,5,-1,-1,270,360,,9999,0,0,1,FEW 30,1,2,-1,7,1029,RJAA 140030Z 32005KT 270V360 9999 FEW030 02/M07 Q1029 NOSIG     RMK 1CU030 A3039=,
20180114_010000.002,0,RJAA,,,,0,20180114010000,-1,-1,-1,-1,340,-1,8,-1,-1,-1,-1,,9999,0,0,1,FEW 30,1,4,-1,7,1029,RJAA 140100Z 34008KT 9999 FEW030 04/M07 Q1029 NOSIG RMK 1CU030     A3040=,
20180114_013000.001,0,RJAA,,,,0,20180114010000,-1,-1,-1,-1,330,-1,10,-1,-1,-1,-1,,9999,0,0,1,FEW 30,1,5,-1,7,1029,RJAA 140130Z 33010KT 9999 FEW030 05/M07 Q1029 NOSIG RMK 1CU030     A3040=,
20180114_020000.002,0,RJAA,,,,0,20180114020000,-1,-1,-1,-1,350,-1,11,-1,-1,-1,-1,,9999,0,0,1,FEW 30,1,5,-1,9,1029,RJAA 140200Z 35011KT 9999 FEW030 05/M09 Q1029 NOSIG RMK 1CU030     A3040=,
20180114_023000.001,0,RJAA,,,,0,20180114020000,-1,-1,-1,-1,340,-1,9,-1,-1,-1,-1,,9999,0,0,1,FEW 30,1,6,-1,9,1029,RJAA 140230Z 34009KT 9999 FEW030 06/M09 Q1029 NOSIG RMK 1CU030     A3039=,
20180114_030000.002,0,RJAA,,,,0,20180114030000,-1,-1,-1,-1,320,-1,9,-1,-1,280,350,,9999,0,0,1,FEW 30,1,6,-1,9,1028,RJAA 140300Z 32009KT 280V350 9999 FEW030 06/M09 Q1028 NOSIG     RMK 1CU030 A3037=,
20180114_033000.001,0,RJAA,,,,0,20180114030000,-1,-1,-1,-1,340,-1,12,-1,-1,-1,-1,,9999,0,0,1,FEW 30,1,6,-1,11,1028,RJAA 140330Z 34012KT 9999 FEW030 06/M11 Q1028 NOSIG RMK 1CU030     A3036=,
20180114_040000.002,0,RJAA,,,,0,20180114040000,-1,-1,-1,-1,350,-1,7,-1,-1,300,30,,9999,0,0,1,FEW 30,1,6,-1,11,1028,RJAA 140400Z 35007KT 300V030 9999 FEW030 06/M11 Q1028 NOSIG     RMK 1CU030 A3036=,
20180114_043000.001,0,RJAA,,,,0,20180114040000,-1,-1,-1,-1,360,-1,7,-1,-1,300,50,,9999,0,0,1,FEW 30,1,6,-1,11,1028,RJAA 140430Z 36007KT 300V050 9999 FEW030 06/M11 Q1028 NOSIG     RMK 1CU030 A3036=,
20180114_050000.002,0,RJAA,,,,0,20180114050000,-1,-1,-1,-1,999,-1,4,-1,-1,-1,-1,,9999,0,0,1,FEW 30,1,6,-1,10,1028,RJAA 140500Z VRB04KT 9999 FEW030 06/M10 Q1028 BECMG 34005KT     RMK 1CU030 A3036=,
20180114_053000.001,0,RJAA,,,,0,20180114050000,-1,-1,-1,-1,40,-1,3,-1,-1,350,110,,9999,0,0,1,FEW 30,1,6,-1,10,1028,RJAA 140530Z 04003KT 350V110 9999 FEW030 06/M10 Q1028 NOSIG     RMK 1CU030 A3038=,
20180114_060000.003,0,RJAA,,,,0,20180114060000,-1,-1,-1,-1,350,-1,4,-1,-1,270,50,,9999,0,0,1,FEW 30,1,6,-1,10,1029,RJAA 140600Z 35004KT 270V050 9999 FEW030 06/M10 Q1029 BECMG     12005KT RMK 1CU030 A3039=,
20180114_063000.001,0,RJAA,,,,0,20180114060000,-1,-1,-1,-1,999,-1,2,-1,-1,-1,-1,,9999,0,0,1,FEW 30,1,6,-1,10,1029,RJAA 140630Z VRB02KT 9999 FEW030 06/M10 Q1029 BECMG 12005KT     RMK 1CU030 A3039=,
20180114_070000.002,0,RJAA,,,,0,20180114070000,-1,-1,-1,-1,60,-1,5,-1,-1,20,90,,9999,0,0,1,FEW 30,1,6,-1,10,1029,RJAA 140700Z 06005KT 020V090 9999 FEW030 06/M10 Q1029 BECMG     12005KT RMK 1CU030 A3040=,
20180114_073000.001,0,RJAA,,,,0,20180114070000,-1,-1,-1,-1,60,-1,6,-1,-1,30,90,,9999,0,0,1,FEW 30,1,5,-1,10,1029,RJAA 140730Z 06006KT 030V090 9999 FEW030 05/M10 Q1029 BECMG     09005KT RMK 1CU030 A3040=,
20180114_080000.002,0,RJAA,,,,0,20180114080000,-1,-1,-1,-1,130,-1,3,-1,-1,60,200,,9999,0,0,1,FEW 30,1,3,-1,8,1029,RJAA 140800Z 13003KT 060V200 9999 FEW030 03/M08 Q1029 NOSIG     RMK 1CU030 A3041=,
20180114_083000.001,0,RJAA,,,,0,20180114080000,-1,-1,-1,-1,120,-1,5,-1,-1,-1,-1,,9999,0,0,1,FEW 30,1,3,-1,8,1030,RJAA 140830Z 12005KT 9999 FEW030 03/M08 Q1030 NOSIG RMK 1CU030     A3041=,
20180114_090000.002,0,RJAA,,,,0,20180114090000,-1,-1,-1,-1,120,-1,5,-1,-1,-1,-1,,9999,0,0,1,FEW 30,1,2,-1,8,1029,RJAA 140900Z 12005KT 9999 FEW030 02/M08 Q1029 NOSIG RMK 1CU030     A3041=,
20180114_093000.001,0,RJAA,,,,0,20180114090000,-1,-1,-1,-1,120,-1,5,-1,-1,-1,-1,,9999,0,0,1,FEW 30,1,2,-1,7,1029,RJAA 140930Z 12005KT 9999 FEW030 02/M07 Q1029 NOSIG RMK 1CU030     A3041=,
20180114_100000.002,0,RJAA,,,,0,20180114100000,-1,-1,-1,-1,999,-1,2,-1,-1,-1,-1,,9999,0,0,1,FEW 30,-1,0,-1,7,1029,RJAA 141000Z VRB02KT 9999 FEW030 M00/M07 Q1029 NOSIG RMK     1CU030 A3041=,
20180114_103000.001,0,RJAA,,,,0,20180114100000,-1,-1,-1,-1,999,-1,1,-1,-1,-1,-1,,9999,0,0,1,FEW 30,-1,2,-1,7,1029,RJAA 141030Z VRB01KT 9999 FEW030 M02/M07 Q1029 NOSIG RMK     1CU030 A3040=,
20180114_110000.002,0,RJAA,,,,0,20180114110000,-1,-1,-1,-1,999,-1,2,-1,-1,-1,-1,,9999,0,0,1,FEW 30,-1,2,-1,7,1029,RJAA 141100Z VRB02KT 9999 FEW030 M02/M07 Q1029 NOSIG RMK     1CU030 A3041=,
20180114_113000.001,0,RJAA,,,,0,20180114110000,-1,-1,-1,-1,220,-1,2,-1,-1,-1,-1,,9999,0,0,1,FEW 30,-1,4,-1,7,1029,RJAA 141130Z 22002KT 9999 FEW030 M04/M07 Q1029 NOSIG RMK     1CU030 A3041=,
20180114_120000.002,0,RJAA,,,,0,20180114120000,-1,-1,-1,-1,240,-1,3,-1,-1,-1,-1,,9999,0,0,1,FEW 30,-1,3,-1,7,1029,RJAA 141200Z 24003KT 9999 FEW030 M03/M07 Q1029 NOSIG RMK     1CU030 A3041=,
20180114_123000.001,0,RJAA,,,,0,20180114120000,-1,-1,-1,-1,250,-1,2,-1,-1,-1,-1,,9999,0,0,1,FEW 30,-1,4,-1,7,1030,RJAA 141230Z 25002KT 9999 FEW030 M04/M07 Q1030 NOSIG RMK     1CU030 A3041=,
20180114_130000.003,0,RJAA,,,,0,20180114130000,-1,-1,-1,-1,240,-1,2,-1,-1,-1,-1,,9999,0,0,1,FEW 30,-1,3,-1,6,1029,RJAA 141300Z 24002KT 9999 FEW030 M03/M06 Q1029 NOSIG RMK     1CU030 A3041=,
20180114_133000.001,0,RJAA,,,,0,20180114130000,-1,-1,-1,-1,240,-1,2,-1,-1,-1,-1,,9999,0,0,1,FEW 30,-1,3,-1,6,1029,RJAA 141330Z 24002KT 9999 FEW030 M03/M06 Q1029 NOSIG RMK     1CU030 A3041=,
20180114_140000.002,0,RJAA,,,,0,20180114140000,-1,-1,-1,-1,220,-1,1,-1,-1,-1,-1,,9999,0,0,1,FEW 30,-1,4,-1,6,1029,RJAA 141400Z 22001KT 9999 FEW030 M04/M06 Q1029 NOSIG RMK     1CU030 A3040=,
20180114_143000.001,0,RJAA,,,,0,20180114140000,-1,-1,-1,-1,290,-1,1,-1,-1,-1,-1,,9999,0,0,1,FEW 30,-1,3,-1,6,1029,RJAA 141430Z 29001KT 9999 FEW030 M03/M06 Q1029 NOSIG RMK     1CU030 A3040=,
20180114_150000.002,0,RJAA,,,,0,20180114150000,-1,-1,-1,-1,240,-1,2,-1,-1,-1,-1,,9999,0,0,1,FEW 30,-1,3,-1,6,1029,RJAA 141500Z 24002KT 9999 FEW030 M03/M06 Q1029 NOSIG RMK     1CU030 A3040=,
20180114_153000.001,0,RJAA,,,,0,20180114150000,-1,-1,-1,-1,240,-1,3,-1,-1,-1,-1,,9999,0,0,1,FEW 30,-1,4,-1,6,1029,RJAA 141530Z 24003KT 9999 FEW030 M04/M06 Q1029 NOSIG RMK     1CU030 A3040=,
20180114_160000.002,0,RJAA,,,,0,20180114160000,-1,-1,-1,-1,220,-1,2,-1,-1,-1,-1,,9999,0,0,1,FEW 30,-1,5,-1,7,1029,RJAA 141600Z 22002KT 9999 FEW030 M05/M07 Q1029 NOSIG RMK     1CU030 A3040=,
20180114_163000.001,0,RJAA,,,,0,20180114160000,-1,-1,-1,-1,0,-1,0,-1,-1,-1,-1,,9999,0,0,1,FEW 30,-1,5,-1,7,1029,RJAA 141630Z 00000KT 9999 FEW030 M05/M07 Q1029 NOSIG RMK     1CU030 A3039=,
20180114_170000.002,0,RJAA,,,,0,20180114170000,-1,-1,-1,-1,150,-1,2,-1,-1,-1,-1,,9999,0,0,1,FEW 30,-1,5,-1,7,1029,RJAA 141700Z 15002KT 9999 FEW030 M05/M07 Q1029 NOSIG RMK     1CU030 A3039=,
20180114_173000.001,0,RJAA,,,,0,20180114170000,-1,-1,-1,-1,130,-1,3,-1,-1,-1,-1,,9999,0,0,1,FEW 30,-1,5,-1,7,1028,RJAA 141730Z 13003KT 9999 FEW030 M05/M07 Q1028 NOSIG RMK     1CU030 A3038=,
20180114_180000.003,0,RJAA,,,,0,20180114180000,-1,-1,-1,-1,120,-1,3,-1,-1,-1,-1,,9999,0,0,1,FEW 30,-1,5,-1,7,1028,RJAA 141800Z 12003KT 9999 FEW030 M05/M07 Q1028 NOSIG RMK     1CU030 A3036=,
20180114_183000.001,0,RJAA,,,,0,20180114180000,-1,-1,-1,-1,140,-1,3,-1,-1,-1,-1,,9999,0,0,1,FEW 30,-1,5,-1,7,1027,RJAA 141830Z 14003KT 9999 FEW030 M05/M07 Q1027 NOSIG RMK     1CU030 A3035=,
20180114_190000.002,0,RJAA,,,,0,20180114190000,-1,-1,-1,-1,160,-1,3,-1,-1,-1,-1,,9999,0,0,1,FEW 30,-1,5,-1,7,1027,RJAA 141900Z 16003KT 9999 FEW030 M05/M07 Q1027 NOSIG RMK     1CU030 A3035=,
20180114_193000.001,0,RJAA,,,,0,20180114190000,-1,-1,-1,-1,160,-1,4,-1,-1,-1,-1,,9999,0,0,1,FEW 30,-1,4,-1,6,1027,RJAA 141930Z 16004KT 9999 FEW030 M04/M06 Q1027 NOSIG RMK     1CU030 A3034=,
20180114_200000.003,0,RJAA,,,,0,20180114200000,-1,-1,-1,-1,160,-1,4,-1,-1,-1,-1,,9999,0,0,1,FEW 30,-1,4,-1,7,1027,RJAA 142000Z 16004KT 9999 FEW030 M04/M07 Q1027 NOSIG RMK     1CU030 A3033=,
20180114_203000.001,0,RJAA,,,,0,20180114200000,-1,-1,-1,-1,150,-1,6,-1,-1,-1,-1,,9999,0,0,1,FEW 30,-1,3,-1,5,1026,RJAA 142030Z 15006KT 9999 FEW030 M03/M05 Q1026 NOSIG RMK     1CU030 A3031=,
20180114_210000.002,0,RJAA,,,,0,20180114210000,-1,-1,-1,-1,160,-1,6,-1,-1,-1,-1,,9999,0,0,2,FEW 30   BKN 50,-1,0,-1,4,1026,RJAA 142100Z 16006KT 9999 FEW030 BKN050 M00/M04 Q1026 NOSIG     RMK 1CU030 7SC050 A3031=,
20180114_213000.001,0,RJAA,,,,0,20180114210000,-1,-1,-1,-1,160,-1,7,-1,-1,-1,-1,,9999,0,0,2,FEW 30   BKN 50,1,1,-1,3,1026,RJAA 142130Z 16007KT 9999 FEW030 BKN050 01/M03 Q1026 NOSIG RMK     1CU030 7SC050 A3031=,
20180114_220000.002,0,RJAA,,,,0,20180114220000,-1,-1,-1,-1,230,-1,3,-1,-1,190,280,,9999,0,0,2,FEW 30   BKN 50,1,1,-1,4,1026,RJAA 142200Z 23003KT 190V280 9999 FEW030 BKN050 01/M04 Q1026     NOSIG RMK 1CU030 7SC050 A3031=,
20180114_223000.002,0,RJAA,,,,0,20180114220000,-1,-1,-1,-1,250,-1,2,-1,-1,-1,-1,,9999,0,0,2,FEW 30   BKN 50,1,1,-1,4,1026,RJAA 142230Z 25002KT 9999 FEW030 BKN050 01/M04 Q1026 BECMG     20006KT RMK 1CU030 7SC050 A3031=,
20180114_230000.002,0,RJAA,,,,0,20180114230000,-1,-1,-1,-1,999,-1,2,-1,-1,-1,-1,,9999,0,0,2,FEW 30   BKN 45,1,1,-1,4,1026,RJAA 142300Z VRB02KT 9999 FEW030 BKN045 01/M04 Q1026 NOSIG RMK     1CU030 7SC045 A3031=,
20180114_233000.001,0,RJAA,,,,0,20180114230000,-1,-1,-1,-1,999,-1,1,-1,-1,-1,-1,,9999,0,0,2,FEW 30   BKN 45,1,1,-1,3,1026,RJAA 142330Z VRB01KT 9999 FEW030 BKN045 01/M03 Q1026 NOSIG RMK     1CU030 7SC045 A3031=,
20180115_000000.002,0,RJAA,,,,0,20180115000000,-1,-1,-1,-1,999,-1,2,-1,-1,-1,-1,,9999,0,0,2,FEW 30   BKN 50,1,2,-1,3,1026,RJAA 150000Z VRB02KT 9999 FEW030 BKN050 02/M03 Q1026 BECMG     21006KT RMK 1CU030 7SC050 A3030=,
20180115_003000.001,0,RJAA,,,,0,20180115000000,-1,-1,-1,-1,999,-1,1,-1,-1,-1,-1,,9999,0,0,2,FEW 30   BKN 50,1,3,-1,3,1025,RJAA 150030Z VRB01KT 9999 FEW030 BKN050 03/M03 Q1025 BECMG     22006KT RMK 1CU030 6SC050 A3029=,
20180115_010000.002,0,RJAA,,,,0,20180115010000,-1,-1,-1,-1,230,-1,3,-1,-1,200,280,,9999,0,0,1,FEW 30,1,6,-1,2,1025,RJAA 150100Z 23003KT 200V280 9999 FEW030 06/M02 Q1025 BECMG     22014KT RMK 1CU030 A3028=,
20180115_013000.001,0,RJAA,,,,0,20180115010000,-1,-1,-1,-1,270,-1,3,-1,-1,210,320,,9999,0,0,2,FEW 30   SCT 45,1,7,-1,2,1024,RJAA 150130Z 27003KT 210V320 9999 FEW030 SCT045 07/M02 Q1024     BECMG 22014KT RMK 1CU030 4SC045 A3026=,
20180115_020000.002,0,RJAA,,,,0,20180115020000,-1,-1,-1,-1,290,-1,5,-1,-1,240,310,,9999,0,0,2,FEW 30   BKN -9999,1,8,-1,2,1024,RJAA 150200Z 29005KT 240V310 9999 FEW030 BKN/// 08/M02 Q1024     BECMG 22014KT RMK 1CU030 A3024=,
20180115_023000.001,0,RJAA,,,,0,20180115020000,-1,-1,-1,-1,240,-1,5,-1,-1,210,280,,9999,0,0,2,FEW 30   BKN -9999,1,9,-1,1,1022,RJAA 150230Z 24005KT 210V280 9999 FEW030 BKN/// 09/M01 Q1022     BECMG TL0300 22014KT TEMPO FM0300 22016G27KT RMK 1CU030           A3020 P/FR=,
20180115_030000.002,0,RJAA,,,,0,20180115030000,-1,-1,-1,-1,230,-1,8,-1,-1,210,280,,9999,0,0,2,FEW 30   BKN -9999,1,9,-1,1,1022,RJAA 150300Z 23008KT 210V280 9999 FEW030 BKN/// 09/M01 Q1022     TEMPO 22016G27KT RMK 1CU030 A3018=,
20180115_033000.001,0,RJAA,,,,0,20180115030000,-1,-1,-1,-1,280,-1,6,-1,-1,220,320,,9999,0,0,2,FEW 30   BKN -9999,1,10,-1,2,1021,RJAA 150330Z 28006KT 220V320 9999 FEW030 BKN/// 10/M02 Q1021     BECMG 22014KT TEMPO 22016G27KT RMK 1CU030 A3017=,
20180115_040000.002,0,RJAA,,,,0,20180115040000,-1,-1,-1,-1,280,-1,6,-1,-1,230,330,,9999,0,0,2,FEW 30   BKN -9999,1,9,-1,1,1020,RJAA 150400Z 28006KT 230V330 9999 FEW030 BKN/// 09/M01 Q1020     BECMG 22014KT TEMPO 22016G27KT RMK 1CU030 A3014=,
20180115_043000.001,0,RJAA,,,,0,20180115040000,-1,-1,-1,-1,220,-1,19,-1,-1,180,290,,9999,0,0,2,FEW 30   BKN -9999,1,13,-1,1,1020,RJAA 150430Z 22019KT 180V290 9999 FEW030 BKN/// 13/M01 Q1020     TEMPO 22020G30KT RMK 1CU030 A3012=,
20180115_050000.002,0,RJAA,,,,0,20180115050000,-1,-1,-1,-1,220,-1,16,-1,-1,-1,-1,,9999,0,0,2,FEW 30   BKN -9999,1,12,-1,1,1019,RJAA 150500Z 22016KT 9999 FEW030 BKN/// 12/M01 Q1019 TEMPO     22016G28KT RMK 1CU030 A3010=,
20180115_053000.001,0,RJAA,,,,0,20180115050000,-1,-1,-1,-1,210,-1,13,-1,-1,-1,-1,,9999,0,0,2,FEW 30   BKN -9999,1,12,1,1,1019,RJAA 150530Z 21013KT 9999 FEW030 BKN/// 12/01 Q1019 TEMPO     22016G28KT RMK 1CU030 A3009=,
20180115_060000.002,0,RJAA,,,,0,20180115060000,-1,-1,-1,-1,210,-1,11,-1,-1,190,250,,9999,0,0,3,FEW 30   SCT 180   BKN -9999,1,13,1,0,1018,RJAA 150600Z 21011KT 190V250 9999 FEW030 SCT180 BKN/// 13/00     Q1018 WS R16R WS R16L TEMPO 22015G25KT RMK 1CU030 3AC180           A3009=,
20180115_063000.001,0,RJAA,,,,0,20180115060000,-1,-1,-1,-1,210,-1,15,-1,27,-1,-1,,9999,0,0,2,FEW 30   SCT -9999,1,12,-1,1,1018,RJAA 150630Z 21015G27KT 9999 FEW030 SCT/// 12/M01 Q1018 WS     R16R WS R16L NOSIG RMK 1CU030 A3008=,
20180115_070000.003,0,RJAA,,,,0,20180115070000,-1,-1,-1,-1,220,-1,13,-1,25,180,240,,9999,0,0,1,FEW 30,1,11,-1,1,1018,RJAA 150700Z 22013G25KT 180V240 9999 FEW030 11/M01 Q1018 WS     R16R WS R16L NOSIG RMK 1CU030 A3009=,
20180115_073000.001,0,RJAA,,,,0,20180115070000,-1,-1,-1,-1,210,-1,9,-1,-1,170,230,,9999,0,0,1,FEW 30,1,11,1,1,1018,RJAA 150730Z 21009KT 170V230 9999 FEW030 11/01 Q1018 WS R16R     WS R16L NOSIG RMK 1CU030 A3008=,
20180115_080000.002,0,RJAA,,,,0,20180115080000,-1,-1,-1,-1,200,-1,8,-1,-1,-1,-1,,9999,0,0,1,FEW 30,1,10,1,1,1019,RJAA 150800Z 20008KT 9999 FEW030 10/01 Q1019 NOSIG RMK 1CU030     A3009=,
20180115_083000.001,0,RJAA,,,,0,20180115080000,-1,-1,-1,-1,200,-1,5,-1,-1,-1,-1,,9999,0,0,1,FEW 30,1,9,1,1,1019,RJAA 150830Z 20005KT 9999 FEW030 09/01 Q1019 NOSIG RMK 1CU030     A3009=,
20180115_090000.002,0,RJAA,,,,0,20180115090000,-1,-1,-1,-1,200,-1,4,-1,-1,-1,-1,,9999,0,0,1,FEW 30,1,8,1,1,1019,RJAA 150900Z 20004KT 9999 FEW030 08/01 Q1019 NOSIG RMK 1CU030     A3010=,
20180115_093000.001,0,RJAA,,,,0,20180115090000,-1,-1,-1,-1,210,-1,5,-1,-1,-1,-1,,9999,0,0,1,FEW 30,1,8,1,1,1019,RJAA 150930Z 21005KT 9999 FEW030 08/01 Q1019 BECMG 26005KT RMK     1CU030 A3010=,
20180115_100000.002,0,RJAA,,,,0,20180115100000,-1,-1,-1,-1,230,-1,3,-1,-1,190,300,,9999,0,0,1,FEW 30,1,7,1,1,1019,RJAA 151000Z 23003KT 190V300 9999 FEW030 07/01 Q1019 NOSIG RMK     1CU030 A3010=,
20180115_103000.001,0,RJAA,,,,0,20180115100000,-1,-1,-1,-1,200,-1,5,-1,-1,-1,-1,,9999,0,0,1,FEW 30,1,6,1,1,1019,RJAA 151030Z 20005KT 9999 FEW030 06/01 Q1019 NOSIG RMK 1CU030     A3010=,
20180115_110000.002,0,RJAA,,,,0,20180115110000,-1,-1,-1,-1,210,-1,4,-1,-1,-1,-1,,9999,0,0,1,FEW 30,1,6,1,1,1019,RJAA 151100Z 21004KT 9999 FEW030 06/01 Q1019 NOSIG RMK 1CU030     A3010=,
20180115_113000.001,0,RJAA,,,,0,20180115110000,-1,-1,-1,-1,999,-1,1,-1,-1,-1,-1,,9999,0,0,1,FEW 30,1,3,-1,2,1019,RJAA 151130Z VRB01KT 9999 FEW030 03/M02 Q1019 NOSIG RMK 1CU030     A3011=,
20180115_120000.002,0,RJAA,,,,0,20180115120000,-1,-1,-1,-1,190,-1,3,-1,-1,-1,-1,,9999,0,0,1,FEW 30,1,2,1,0,1019,RJAA 151200Z 19003KT 9999 FEW030 02/00 Q1019 NOSIG RMK 1CU030     A3010=,
20180115_123000.001,0,RJAA,,,,0,20180115120000,-1,-1,-1,-1,0,-1,0,-1,-1,-1,-1,,9999,0,0,1,FEW 30,1,3,-1,0,1019,RJAA 151230Z 00000KT 9999 FEW030 03/M00 Q1019 NOSIG RMK 1CU030     A3010=,
20180115_130000.002,0,RJAA,,,,0,20180115130000,-1,-1,-1,-1,999,-1,1,-1,-1,-1,-1,,9999,0,0,1,FEW 30,1,2,1,0,1019,RJAA 151300Z VRB01KT 9999 FEW030 02/00 Q1019 NOSIG RMK 1CU030     A3010=,
20180115_133000.001,0,RJAA,,,,0,20180115130000,-1,-1,-1,-1,999,-1,1,-1,-1,-1,-1,,9999,0,0,1,FEW 30,1,0,-1,1,1019,RJAA 151330Z VRB01KT 9999 FEW030 00/M01 Q1019 NOSIG RMK 1CU030     A3010=,
20180115_140000.002,0,RJAA,,,,0,20180115140000,-1,-1,-1,-1,290,-1,2,-1,-1,-1,-1,,9999,0,0,1,FEW 30,-1,0,-1,2,1019,RJAA 151400Z 29002KT 9999 FEW030 M00/M02 Q1019 NOSIG RMK     1CU030 A3010=,
20180115_143000.001,0,RJAA,,,,0,20180115140000,-1,-1,-1,-1,999,-1,2,-1,-1,-1,-1,,9999,0,0,1,FEW 30,-1,1,-1,2,1019,RJAA 151430Z VRB02KT 9999 FEW030 M01/M02 Q1019 NOSIG RMK     1CU030 A3010=,
20180115_150000.002,0,RJAA,,,,0,20180115150000,-1,-1,-1,-1,270,-1,1,-1,-1,-1,-1,,9999,0,0,1,FEW 30,-1,1,-1,2,1019,RJAA 151500Z 27001KT 9999 FEW030 M01/M02 Q1019 NOSIG RMK     1CU030 A3010=,
20180115_153000.001,0,RJAA,,,,0,20180115150000,-1,-1,-1,-1,260,-1,1,-1,-1,-1,-1,,9999,0,0,1,FEW 30,-1,1,-1,2,1019,RJAA 151530Z 26001KT 9999 FEW030 M01/M02 Q1019 NOSIG RMK     1CU030 A3010=,
20180115_160000.002,0,RJAA,,,,0,20180115160000,-1,-1,-1,-1,260,-1,1,-1,-1,-1,-1,,9999,0,0,1,FEW 30,-1,1,-1,2,1019,RJAA 151600Z 26001KT 9999 FEW030 M01/M02 Q1019 NOSIG RMK     1CU030 A3010=,
20180115_163000.001,0,RJAA,,,,0,20180115160000,-1,-1,-1,-1,999,-1,1,-1,-1,-1,-1,,9999,0,0,1,FEW 30,-1,2,-1,3,1019,RJAA 151630Z VRB01KT 9999 FEW030 M02/M03 Q1019 NOSIG RMK     1CU030 A3012=,
20180115_170000.002,0,RJAA,,,,0,20180115170000,-1,-1,-1,-1,170,-1,1,-1,-1,-1,-1,,9999,0,0,1,FEW 30,-1,2,-1,3,1019,RJAA 151700Z 17001KT 9999 FEW030 M02/M03 Q1019 NOSIG RMK     1CU030 A3011=,
20180115_173000.001,0,RJAA,,,,0,20180115170000,-1,-1,-1,-1,200,-1,1,-1,-1,-1,-1,CAVOK,-1,0,0,0,,-1,2,-1,3,1019,RJAA 151730Z 20001KT CAVOK M02/M03 Q1019 NOSIG RMK A3010=,
20180115_180000.002,0,RJAA,,,,0,20180115180000,-1,-1,-1,-1,0,-1,0,-1,-1,-1,-1,CAVOK,-1,0,0,0,,-1,2,-1,3,1019,RJAA 151800Z 00000KT CAVOK M02/M03 Q1019 NOSIG RMK A3009=,
20180115_183000.001,0,RJAA,,,,0,20180115180000,-1,-1,-1,-1,330,-1,5,-1,-1,-1,-1,CAVOK,-1,0,0,0,,-1,0,-1,2,1019,RJAA 151830Z 33005KT CAVOK M00/M02 Q1019 NOSIG RMK A3010=,
20180115_190000.002,0,RJAA,,,,0,20180115190000,-1,-1,-1,-1,999,-1,2,-1,-1,-1,-1,CAVOK,-1,0,0,0,,-1,1,-1,4,1019,RJAA 151900Z VRB02KT CAVOK M01/M04 Q1019 NOSIG RMK A3011=,
20180115_193000.001,0,RJAA,,,,0,20180115190000,-1,-1,-1,-1,300,-1,2,-1,-1,-1,-1,CAVOK,-1,0,0,0,,-1,2,-1,3,1020,RJAA 151930Z 30002KT CAVOK M02/M03 Q1020 NOSIG RMK A3012=,
20180115_200000.002,0,RJAA,,,,0,20180115200000,-1,-1,-1,-1,330,-1,3,-1,-1,-1,-1,CAVOK,-1,0,0,0,,-1,3,-1,4,1019,RJAA 152000Z 33003KT CAVOK M03/M04 Q1019 NOSIG RMK A3012=,
20180115_203000.001,0,RJAA,,,,0,20180115200000,-1,-1,-1,-1,360,-1,4,-1,-1,-1,-1,CAVOK,-1,0,0,0,,-1,1,-1,4,1020,RJAA 152030Z 36004KT CAVOK M01/M04 Q1020 NOSIG RMK A3012=,
20180115_210000.002,0,RJAA,,,,0,20180115210000,-1,-1,-1,-1,10,-1,4,-1,-1,-1,-1,CAVOK,-1,0,0,0,,-1,2,-1,5,1019,RJAA 152100Z 01004KT CAVOK M02/M05 Q1019 NOSIG RMK A3012=,
20180115_213000.001,0,RJAA,,,,0,20180115210000,-1,-1,-1,-1,999,-1,1,-1,-1,-1,-1,,9999,0,0,1,FEW 30,-1,2,-1,4,1020,RJAA 152130Z VRB01KT 9999 FEW030 M02/M04 Q1020 NOSIG RMK     1CU030 A3013=,
20180115_220000.002,0,RJAA,,,,0,20180115220000,-1,-1,-1,-1,300,-1,1,-1,-1,-1,-1,,9999,0,0,1,FEW 30,-1,3,-1,5,1020,RJAA 152200Z 30001KT 9999 FEW030 M03/M05 Q1020 NOSIG RMK     1CU030 A3014=,
20180115_223000.002,0,RJAA,,,,0,20180115220000,-1,-1,-1,-1,190,-1,2,-1,-1,-1,-1,,9999,0,0,1,FEW 30,-1,2,-1,4,1020,RJAA 152230Z 19002KT 9999 FEW030 M02/M04 Q1020 NOSIG RMK     1CU030 A3015=,
20180115_230000.002,0,RJAA,,,,0,20180115230000,-1,-1,-1,-1,999,-1,1,-1,-1,-1,-1,,9999,0,0,1,FEW 30,1,0,-1,2,1021,RJAA 152300Z VRB01KT 9999 FEW030 00/M02 Q1021 NOSIG RMK 1CU030     A3017=,
20180115_233000.001,0,RJAA,,,,0,20180115230000,-1,-1,-1,-1,999,-1,1,-1,-1,-1,-1,,9999,0,0,2,FEW 30   SCT -9999,1,3,-1,1,1021,RJAA 152330Z VRB01KT 9999 FEW030 SCT/// 03/M01 Q1021 BECMG     07005KT RMK 1CU030 A3018=,
20180116_000000.002,0,RJAA,,,,0,20180116000000,-1,-1,-1,-1,999,-1,1,-1,-1,-1,-1,,9999,0,0,1,FEW 30,1,5,-1,2,1022,RJAA 160000Z VRB01KT 9999 FEW030 05/M02 Q1022 BECMG 07005KT     RMK 1CU030 A3018=,
20180116_003000.001,0,RJAA,,,,0,20180116000000,-1,-1,-1,-1,320,-1,3,-1,-1,-1,-1,,9999,0,0,1,FEW 30,1,7,-1,2,1022,RJAA 160030Z 32003KT 9999 FEW030 07/M02 Q1022 BECMG 07005KT     RMK 1CU030 A3018=,
20180116_010000.002,0,RJAA,,,,0,20180116010000,-1,-1,-1,-1,310,-1,3,-1,-1,270,340,,9999,0,0,2,FEW 30   SCT -9999,1,8,-1,1,1021,RJAA 160100Z 31003KT 270V340 9999 FEW030 SCT/// 08/M01 Q1021     BECMG 09005KT RMK 1CU030 A3017=,
20180116_013000.001,0,RJAA,,,,0,20180116010000,-1,-1,-1,-1,330,-1,3,-1,-1,270,20,,9999,0,0,1,FEW 30,1,10,1,0,1021,RJAA 160130Z 33003KT 270V020 9999 FEW030 10/00 Q1021 BECMG     09005KT RMK 1CU030 A3017=,
20180116_020000.002,0,RJAA,,,,0,20180116020000,-1,-1,-1,-1,999,-1,2,-1,-1,-1,-1,,9999,0,0,2,FEW 30   SCT -9999,1,10,-1,0,1020,RJAA 160200Z VRB02KT 9999 FEW030 SCT/// 10/M00 Q1020 BECMG     09005KT RMK 1CU030 A3014=,
20180116_023000.001,0,RJAA,,,,0,20180116020000,-1,-1,-1,-1,320,-1,3,-1,-1,260,10,,9999,0,0,2,FEW 30   BKN -9999,1,11,-1,0,1020,RJAA 160230Z 32003KT 260V010 9999 FEW030 BKN/// 11/M00 Q1020     BECMG 11005KT RMK 1CU030 A3014=,
20180116_030000.002,0,RJAA,,,,0,20180116030000,-1,-1,-1,-1,340,-1,3,-1,-1,280,40,,9999,0,0,2,FEW 30   BKN -9999,1,12,1,0,1020,RJAA 160300Z 34003KT 280V040 9999 FEW030 BKN/// 12/00 Q1020     BECMG 11005KT RMK 1CU030 A3013=,
20180116_033000.001,0,RJAA,,,,0,20180116030000,-1,-1,-1,-1,50,-1,3,-1,-1,10,100,,9999,0,0,2,FEW 30   BKN -9999,1,13,1,1,1019,RJAA 160330Z 05003KT 010V100 9999 FEW030 BKN/// 13/01 Q1019     BECMG 11007KT RMK 1CU030 A3010 P/FR=,
20180116_040000.002,0,RJAA,,,,0,20180116040000,-1,-1,-1,-1,999,-1,4,-1,-1,-1,-1,,9999,0,0,2,FEW 30   BKN -9999,1,14,1,4,1018,RJAA 160400Z VRB04KT 9999 FEW030 BKN/// 14/04 Q1018 BECMG     11007KT RMK 1CU030 A3008=,
20180116_043000.001,0,RJAA,,,,0,20180116040000,-1,-1,-1,-1,50,-1,7,-1,-1,10,100,,9999,0,0,2,FEW 25   BKN -9999,1,13,1,4,1018,RJAA 160430Z 05007KT 010V100 9999 FEW025 BKN/// 13/04 Q1018     BECMG 11007KT RMK 1CU025 A3007=,
20180116_050000.002,0,RJAA,,,,0,20180116050000,-1,-1,-1,-1,60,-1,4,-1,-1,340,100,,9999,0,0,2,FEW 25   BKN -9999,1,13,1,5,1018,RJAA 160500Z 06004KT 340V100 9999 FEW025 BKN/// 13/05 Q1018     BECMG 11007KT RMK 1CU025 A3008=,
20180116_053000.001,0,RJAA,,,,0,20180116050000,-1,-1,-1,-1,30,-1,5,-1,-1,-1,-1,,9999,0,0,2,FEW 25   BKN -9999,1,13,1,6,1018,RJAA 160530Z 03005KT 9999 FEW025 BKN/// 13/06 Q1018 BECMG     10007KT RMK 1CU025 A3008=,
20180116_060000.002,0,RJAA,,,,0,20180116060000,-1,-1,-1,-1,60,-1,6,-1,-1,-1,-1,,9999,0,0,2,FEW 25   BKN -9999,1,13,1,6,1018,RJAA 160600Z 06006KT 9999 FEW025 BKN/// 13/06 Q1018 BECMG     10007KT RMK 1CU025 A3008=,
20180116_063000.001,0,RJAA,,,,0,20180116060000,-1,-1,-1,-1,60,-1,6,-1,-1,-1,-1,,9999,0,0,2,FEW 25   BKN -9999,1,12,1,6,1018,RJAA 160630Z 06006KT 9999 FEW025 BKN/// 12/06 Q1018 BECMG     09005KT RMK 1CU025 A3008=,
20180116_070000.002,0,RJAA,,,,0,20180116070000,-1,-1,-1,-1,60,-1,7,-1,-1,-1,-1,,9999,0,0,2,FEW 30   BKN -9999,1,12,1,6,1018,RJAA 160700Z 06007KT 9999 FEW030 BKN/// 12/06 Q1018 BECMG     09005KT RMK 1CU030 A3008=,
20180116_073000.001,0,RJAA,,,,0,20180116070000,-1,-1,-1,-1,80,-1,5,-1,-1,-1,-1,,9999,0,0,2,FEW 30   BKN -9999,1,11,1,6,1018,RJAA 160730Z 08005KT 9999 FEW030 BKN/// 11/06 Q1018 NOSIG RMK     1CU030 A3007=,
20180116_080000.002,0,RJAA,,,,0,20180116080000,-1,-1,-1,-1,80,-1,6,-1,-1,-1,-1,,9999,0,0,2,FEW 30   BKN -9999,1,10,1,6,1018,RJAA 160800Z 08006KT 9999 FEW030 BKN/// 10/06 Q1018 NOSIG RMK     1CU030 A3006=,
20180116_083000.001,0,RJAA,,,,0,20180116080000,-1,-1,-1,-1,130,-1,5,-1,-1,-1,-1,,9999,0,0,2,FEW 30   BKN -9999,1,8,1,5,1017,RJAA 160830Z 13005KT 9999 FEW030 BKN/// 08/05 Q1017 NOSIG RMK     1CU030 A3004=,
20180116_090000.002,0,RJAA,,,,0,20180116090000,-1,-1,-1,-1,150,-1,3,-1,-1,110,200,,9999,0,0,2,FEW 30   BKN -9999,1,8,1,5,1017,RJAA 160900Z 15003KT 110V200 9999 FEW030 BKN/// 08/05 Q1017     NOSIG RMK 1CU030 A3005=,
20180116_093000.001,0,RJAA,,,,0,20180116090000,-1,-1,-1,-1,999,-1,1,-1,-1,-1,-1,,9999,0,0,2,FEW 30   BKN -9999,1,6,1,3,1018,RJAA 160930Z VRB01KT 9999 FEW030 BKN/// 06/03 Q1018 BECMG     12005KT RMK 1CU030 A3007=,
20180116_100000.002,0,RJAA,,,,0,20180116100000,-1,-1,-1,-1,999,-1,2,-1,-1,-1,-1,,9999,0,0,2,FEW 30   BKN -9999,1,5,1,3,1018,RJAA 161000Z VRB02KT 9999 FEW030 BKN/// 05/03 Q1018 BECMG     19005KT RMK 1CU030 A3006=,
20180116_103000.001,0,RJAA,,,,0,20180116100000,-1,-1,-1,-1,0,-1,0,-1,-1,-1,-1,,9999,0,0,2,FEW 30   BKN -9999,1,5,1,4,1017,RJAA 161030Z 00000KT 9999 FEW030 BKN/// 05/04 Q1017 BECMG     19005KT RMK 1CU030 A3006=,
20180116_110000.004,0,RJAA,,,,0,20180116110000,-1,-1,-1,-1,999,-1,1,-1,-1,-1,-1,,9999,0,0,2,FEW 30   BKN -9999,1,5,1,4,1017,RJAA 161100Z VRB01KT 9999 FEW030 BKN/// 05/04 Q1017 NOSIG RMK     1CU030 A3005=,
20180116_113000.001,0,RJAA,,,,0,20180116110000,-1,-1,-1,-1,0,-1,0,-1,-1,-1,-1,,9999,0,1,2,FEW 25   BKN -9999,1,4,1,3,1017,RJAA 161130Z 00000KT 9999 MIFG FEW025 BKN/// 04/03 Q1017 NOSIG     RMK 1CU025 A3004=,MI FG
20180116_120000.002,0,RJAA,,,,0,20180116120000,-1,-1,-1,-1,0,-1,0,-1,-1,-1,-1,,9999,0,1,1,FEW 25,1,4,1,4,1017,RJAA 161200Z 00000KT 9999 MIFG FEW025 04/04 Q1017 NOSIG RMK     1CU025 A3004=,MI FG
20180116_123000.001,0,RJAA,,,,0,20180116120000,-1,-1,-1,-1,999,-1,2,-1,-1,-1,-1,,9999,0,1,1,FEW 25,1,3,1,2,1016,RJAA 161230Z VRB02KT 9999 MIFG FEW025 03/02 Q1016 NOSIG RMK     1CU025 A3003=,MI FG
20180116_130000.002,0,RJAA,,,,0,20180116130000,-1,-1,-1,-1,999,-1,1,-1,-1,-1,-1,,9999,0,1,1,FEW 25,1,2,1,2,1017,RJAA 161300Z VRB01KT 9999 MIFG FEW025 02/02 Q1017 NOSIG RMK     1CU025 A3004=,MI FG
20180116_133000.001,0,RJAA,,,,0,20180116130000,-1,-1,-1,-1,230,-1,3,-1,-1,-1,-1,,9999,0,1,1,FEW 25,1,3,1,2,1016,RJAA 161330Z 23003KT 9999 MIFG FEW025 03/02 Q1016 NOSIG RMK     1CU025 A3003=,MI FG
20180116_140000.002,0,RJAA,,,,0,20180116140000,-1,-1,-1,-1,320,-1,2,-1,-1,-1,-1,,9999,0,1,1,FEW 25,1,2,1,1,1016,RJAA 161400Z 32002KT 9999 MIFG FEW025 02/01 Q1016 NOSIG RMK     1CU025 A3002=,MI FG
20180116_143000.001,0,RJAA,,,,0,20180116140000,-1,-1,-1,-1,330,-1,1,-1,-1,-1,-1,,9000,2,1,1,FEW 20,1,2,1,1,1016,RJAA 161430Z 33001KT 9000 R16R/P1800N R16L/1800U BCFG FEW020     02/01 Q1016 NOSIG RMK 1CU020 A3002 FG ON RWY34R=,BC FG
20180116_150000.002,0,RJAA,,,,0,20180116150000,-1,-1,-1,-1,180,-1,2,-1,-1,-1,-1,,9000,2,1,1,FEW 20,1,1,1,0,1016,RJAA 161500Z 18002KT 9000 R16R/P1800N R16L/0450VP1800D MIFG     FEW020 01/00 Q1016 NOSIG RMK 1CU020 A3003=,MI FG
20180116_153000.001,0,RJAA,,,,0,20180116150000,-1,-1,-1,-1,160,-1,2,-1,-1,-1,-1,,9000,0,1,1,FEW 20,1,3,1,2,1016,RJAA 161530Z 16002KT 9000 MIFG FEW020 03/02 Q1016 NOSIG RMK     1CU020 A3001=,MI FG
20180116_160000.002,0,RJAA,,,,0,20180116160000,-1,-1,-1,-1,999,-1,1,-1,-1,-1,-1,,9000,0,1,1,FEW 20,1,3,1,2,1016,RJAA 161600Z VRB01KT 9000 MIFG FEW020 03/02 Q1016 NOSIG RMK     1CU020 A3000=,MI FG
20180116_163000.001,0,RJAA,,,,0,20180116160000,-1,-1,-1,-1,170,-1,1,-1,-1,-1,-1,,9000,2,1,2,FEW 20   SCT -9999,1,2,1,2,1015,RJAA 161630Z 17001KT 9000 R16R/P1800N R16L/P1800N MIFG FEW020     SCT/// 02/02 Q1015 NOSIG RMK 1CU020 A2999=,MI FG
20180116_170000.002,0,RJAA,,,,0,20180116170000,-1,-1,-1,-1,220,-1,3,-1,-1,160,260,,9000,0,1,2,FEW 20   SCT -9999,1,3,1,2,1015,RJAA 161700Z 22003KT 160V260 9000 MIFG FEW020 SCT/// 03/02     Q1015 NOSIG RMK 1CU020 A3000=,MI FG
20180116_173000.001,0,RJAA,,,,0,20180116170000,-1,-1,-1,-1,290,-1,4,-1,-1,250,310,,9000,0,0,1,FEW 20,1,4,1,3,1016,RJAA 161730Z 29004KT 250V310 9000 FEW020 04/03 Q1016 BECMG     20005KT RMK 1CU020 A3000=,
20180116_180000.002,0,RJAA,,,,0,20180116180000,-1,-1,-1,-1,310,-1,5,-1,-1,-1,-1,,1800,2,2,1,SCT 1,1,3,1,2,1015,RJAA 161800Z 31005KT 1800 R16R/P1800N R16L/0500VP1800U BCFG BR     SCT001 03/02 Q1015 BECMG 20005KT TEMPO SCT001 BKN006 RMK           4ST001 A3000 FG ON RWY16L AND RWY34R=,BC FG; BR
20180116_183000.001,0,RJAA,,,,0,20180116180000,-1,-1,-1,-1,999,-1,2,-1,-1,-1,-1,,3500,2,2,2,FEW 1   BKN 80,1,3,1,3,1015,RJAA 161830Z VRB02KT 3500 R16R/P1800N R16L/1300VP1800U MIFG BR     FEW001 BKN080 03/03 Q1015 TEMPO SCT001 BKN008 RMK 1ST001           7AC080 A2999=,MI FG; BR
20180116_190000.002,0,RJAA,,,,0,20180116190000,-1,-1,-1,-1,0,-1,0,-1,-1,-1,-1,,4000,0,1,3,FEW 1   SCT 60   BKN 80,1,3,1,3,1015,RJAA 161900Z 00000KT 4000 BR FEW001 SCT060 BKN080 03/03 Q1015     TEMPO 3000 -SHRA BR RMK 1ST001 3SC060 7AC080 A2999=,BR
20180116_193000.001,0,RJAA,,,,0,20180116190000,-1,-1,-1,-1,999,-1,2,-1,-1,-1,-1,,5000,0,1,3,FEW 5   SCT 60   BKN 80,1,3,1,2,1015,RJAA 161930Z VRB02KT 5000 BR FEW005 SCT060 BKN080 03/02 Q1015     TEMPO 3000 BR RMK 1ST005 4SC060 6AC080 A2999=,BR
20180116_200000.002,0,RJAA,,,,0,20180116200000,-1,-1,-1,-1,130,-1,2,-1,-1,-1,-1,,6000,0,0,2,FEW 5   BKN 170,1,3,1,2,1015,RJAA 162000Z 13002KT 6000 FEW005 BKN170 03/02 Q1015 TEMPO 4000     BR RMK 1ST005 7AC170 A2999=,
20180116_203000.001,0,RJAA,,,,0,20180116200000,-1,-1,-1,-1,0,-1,0,-1,-1,-1,-1,,6000,0,0,3,FEW 5   BKN 50   BKN 130,1,4,1,3,1015,RJAA 162030Z 00000KT 6000 FEW005 BKN050 BKN130 04/03 Q1015     TEMPO 4000 BR RMK 1ST005 5SC050 7AC130 A3000=,
20180116_210000.002,0,RJAA,,,,0,20180116210000,-1,-1,-1,-1,999,-1,1,-1,-1,-1,-1,,6000,0,0,3,FEW 5   BKN 50   BKN 130,1,4,1,4,1015,RJAA 162100Z VRB01KT 6000 FEW005 BKN050 BKN130 04/04 Q1015     TEMPO 4000 BR RMK 1ST005 5SC050 7AC130 A3000=,
20180116_213000.001,0,RJAA,,,,0,20180116210000,-1,-1,-1,-1,350,-1,4,-1,-1,-1,-1,,6000,0,0,3,FEW 5   SCT 50   BKN 120,1,5,1,4,1016,RJAA 162130Z 35004KT 6000 FEW005 SCT050 BKN120 05/04 Q1016     BECMG 14005KT TEMPO 4000 BR RMK 1ST005 4SC050 7AC120           A3000=,
20180116_220000.002,0,RJAA,,,,0,20180116220000,-1,-1,-1,-1,0,-1,0,-1,-1,-1,-1,,6000,0,1,3,FEW 5   SCT 50   BKN 140,1,5,1,4,1016,RJAA 162200Z 00000KT 6000 BR FEW005 SCT050 BKN140 05/04 Q1016     BECMG 14005KT RMK 1ST005 3SC050 7AC140 A3000 BR N=,BR
20180116_223000.002,0,RJAA,,,,0,20180116220000,-1,-1,-1,-1,0,-1,0,-1,-1,-1,-1,,6000,0,1,2,FEW 20   BKN 130,1,5,1,4,1016,RJAA 162230Z 00000KT 6000 BR FEW020 BKN130 05/04 Q1016 BECMG     14005KT RMK 1CU020 7AC130 A3000 BR N AND S=,BR
20180116_230000.002,0,RJAA,,,,0,20180116230000,-1,-1,-1,-1,10,-1,2,-1,-1,-1,-1,,6000,0,1,2,FEW 20   BKN 120,1,5,1,5,1016,RJAA 162300Z 01002KT 6000 BR FEW020 BKN120 05/05 Q1016 BECMG     14005KT RMK 1CU020 7AC120 A3001 BR N=,BR
20180116_233000.001,0,RJAA,,,,0,20180116230000,-1,-1,-1,-1,999,-1,1,-1,-1,-1,-1,,7000,0,1,3,FEW 20   BKN 110   BKN -9999,1,7,1,6,1016,RJAA 162330Z VRB01KT 7000 BR FEW020 BKN110 BKN/// 07/06 Q1016     BECMG 14005KT RMK 1CU020 6AC110 A3002 BR N-NE=,BR
20180117_000000.002,0,RJAA,,,,0,20180117000000,-1,-1,-1,-1,999,-1,1,-1,-1,-1,-1,,7000,0,1,3,FEW 20   BKN 120   BKN -9999,1,8,1,6,1016,RJAA 170000Z VRB01KT 7000 BR FEW020 BKN120 BKN/// 08/06 Q1016     BECMG 14005KT RMK 1CU020 6AC120 A3002 BR NE-SE=,BR
20180117_003000.001,0,RJAA,,,,0,20180117000000,-1,-1,-1,-1,360,-1,2,-1,-1,-1,-1,,5000,0,1,3,FEW 30   SCT 60   BKN -9999,1,8,1,7,1016,RJAA 170030Z 36002KT 5000 BR FEW030 SCT060 BKN/// 08/07 Q1016     TEMPO 4000 BR RMK 1CU030 4SC060 A3002=,BR
20180117_010000.002,0,RJAA,,,,0,20180117010000,-1,-1,-1,-1,999,-1,2,-1,-1,-1,-1,,5000,0,1,3,FEW 25   BKN 60   BKN -9999,1,9,1,7,1016,RJAA 170100Z VRB02KT 5000 BR FEW025 BKN060 BKN/// 09/07 Q1016     TEMPO 4000 BR RMK 1CU025 5SC060 A3001=,BR
20180117_013000.001,0,RJAA,,,,0,20180117010000,-1,-1,-1,-1,350,-1,6,-1,-1,-1,-1,,5000,0,1,3,FEW 25   BKN 50   BKN -9999,1,8,1,6,1016,RJAA 170130Z 35006KT 5000 BR FEW025 BKN050 BKN/// 08/06 Q1016     TEMPO 4000 BR RMK 1CU025 6SC050 A3000=,BR
20180117_020000.004,0,RJAA,,,,0,20180117020000,-1,-1,-1,-1,360,-1,7,-1,-1,-1,-1,,5000,0,1,3,FEW 25   SCT 40   BKN 60,1,9,1,7,1015,RJAA 170200Z 36007KT 5000 BR FEW025 SCT040 BKN060 09/07 Q1015     TEMPO 4000 BR RMK 1CU025 3SC040 7SC060 A2999=,BR
20180117_023000.001,0,RJAA,,,,0,20180117020000,-1,-1,-1,-1,10,-1,5,-1,-1,-1,-1,,5000,0,2,3,FEW 25   SCT 35   BKN 60,1,10,1,7,1015,RJAA 170230Z 01005KT 5000 -SHRA BR FEW025 SCT035 BKN060 10/07     Q1015 TEMPO 4000 BR RMK 1CU025 4CU035 7SC060 A2997=,- RA SH; BR
20180117_030000.002,0,RJAA,,,,0,20180117030000,-1,-1,-1,-1,360,-1,3,-1,-1,300,40,,3000,0,2,2,FEW 20   BKN 30,1,9,1,7,1014,RJAA 170300Z 36003KT 300V040 3000 SHRA BR FEW020 BKN030 09/07     Q1014 NOSIG RMK 1CU020 7CU030 A2996=,RA SH; BR
20180117_033000.001,0,RJAA,,,,0,20180117030000,-1,-1,-1,-1,10,-1,3,-1,-1,-1,-1,,4500,0,2,3,FEW 15   SCT 25   BKN 45,1,9,1,8,1013,RJAA 170330Z 01003KT 4500 -SHRA BR FEW015 SCT025 BKN045 09/08     Q1013 TEMPO 3000 SHRA BR RMK 1CU015 3CU025 7CU045 A2993=,- RA SH; BR
20180117_040000.003,0,RJAA,,,,0,20180117040000,-1,-1,-1,-1,10,-1,4,-1,-1,-1,-1,,3500,0,2,3,FEW 20   BKN 30   BKN 60,1,9,1,8,1013,RJAA 170400Z 01004KT 3500 -SHRA BR FEW020 BKN030 BKN060 09/08     Q1013 BECMG 16010KT TEMPO 3000 SHRA BR RMK 1CU020 5CU030           7SC060 A2992=,- RA SH; BR
20180117_043000.001,0,RJAA,,,,0,20180117040000,-1,-1,-1,-1,30,-1,4,-1,-1,-1,-1,,2600,2,2,3,FEW 20   SCT 30   BKN 60,1,10,1,9,1012,RJAA 170430Z 03004KT 2600 R16R/P1800N R16L/P1800N -SHRA BR     FEW020 SCT030 BKN060 10/09 Q1012 BECMG 16010KT RMK 1CU020           4CU030 7SC060 A2991=,- RA SH; BR
20180117_050000.003,0,RJAA,,,,0,20180117050000,-1,-1,-1,-1,999,-1,2,-1,-1,-1,-1,,2600,0,2,3,FEW 20   SCT 30   BKN 45,1,11,1,10,1012,RJAA 170500Z VRB02KT 2600 -SHRA BR FEW020 SCT030 BKN045 11/10     Q1012 BECMG 16010KT RMK 1CU020 3CU030 6SC045 A2989=,- RA SH; BR
20180117_053000.001,0,RJAA,,,,0,20180117050000,-1,-1,-1,-1,999,-1,2,-1,-1,-1,-1,,2400,2,2,3,FEW 20   BKN 25   BKN 50,1,11,1,10,1011,RJAA 170530Z VRB02KT 2400 R16R/P1800N R16L/P1800N -SHRA BR     FEW020 BKN025 BKN050 11/10 Q1011 BECMG 12007KT RMK 1CU020           5CU025 6SC050 A2988=,- RA SH; BR
20180117_060000.002,0,RJAA,,,,0,20180117060000,-1,-1,-1,-1,80,-1,2,-1,-1,-1,-1,,2200,0,2,3,FEW 15   SCT 25   BKN 50,1,11,1,10,1011,RJAA 170600Z 08002KT 2200 -SHRA BR FEW015 SCT025 BKN050 11/10     Q1011 NOSIG RMK 1CU015 4CU025 7SC050 A2987=,- RA SH; BR
20180117_063000.001,0,RJAA,,,,0,20180117060000,-1,-1,-1,-1,999,-1,1,-1,-1,-1,-1,,1800,2,2,3,FEW 15   SCT 25   BKN 50,1,11,1,10,1011,RJAA 170630Z VRB01KT 1800 R16R/P1800N R16L/P1800N -SHRA BR     FEW015 SCT025 BKN050 11/10 Q1011 NOSIG RMK 1CU015 3CU025           7SC050 A2986=,- RA SH; BR
20180117_070000.002,0,RJAA,,,,0,20180117070000,-1,-1,-1,-1,999,-1,1,-1,-1,-1,-1,,1500,2,2,3,FEW 1   SCT 20   BKN 45,1,11,1,10,1011,RJAA 170700Z VRB01KT 1500 R16R/P1800N R16L/1100V1800U -SHRA BR     FEW001 SCT020 BKN045 11/10 Q1011 BECMG 04005KT RMK 1ST001           4CU020 6SC045 A2986=,- RA SH; BR
20180117_073000.001,0,RJAA,,,,0,20180117070000,-1,-1,-1,-1,999,-1,2,-1,-1,-1,-1,,1400,2,2,3,FEW 15   SCT 25   BKN 40,1,11,1,10,1010,RJAA 170730Z VRB02KT 1400 R16R/P1800N R16L/P1800N -SHRA BR     FEW015 SCT025 BKN040 11/10 Q1010 BECMG 04005KT RMK 2CU015           4CU025 6SC040 A2984=,- RA SH; BR
20180117_080000.002,0,RJAA,,,,0,20180117080000,-1,-1,-1,-1,90,-1,4,-1,-1,-1,-1,,1600,0,2,3,FEW 1   BKN 20   BKN 30,1,11,1,10,1009,RJAA 170800Z 09004KT 1600 -RA BR FEW001 BKN020 BKN030 11/10     Q1009 NOSIG RMK 1ST001 5SC020 5SC030 A2982=,- RA; BR
20180117_083000.001,0,RJAA,,,,0,20180117080000,-1,-1,-1,-1,80,-1,6,-1,-1,-1,-1,,2500,0,2,3,FEW 1   SCT 6   BKN 45,1,11,1,11,1008,RJAA 170830Z 08006KT 2500 -RA BR FEW001 SCT006 BKN045 11/11     Q1008 NOSIG RMK 1ST001 3ST006 6SC045 A2979=,- RA; BR
20180117_090000.003,0,RJAA,,,,0,20180117090000,-1,-1,-1,-1,100,-1,6,-1,-1,-1,-1,,3000,0,2,3,FEW 1   SCT 6   BKN 20,1,12,1,11,1008,RJAA 170900Z 10006KT 3000 -RA BR FEW001 SCT006 BKN020 12/11     Q1008 BECMG TL1000 32005KT RMK 1ST001 3ST006 7SC020 A2977           MOD TURB OBS AT 0846Z 13NM N NARITA 4000FT AND BLW IN DES           B788 ANA920=,- RA; BR
20180117_093000.001,0,RJAA,,,,0,20180117090000,-1,-1,-1,-1,330,-1,13,-1,-1,-1,-1,,2800,2,2,3,FEW 1   SCT 5   BKN 15,1,12,1,11,1007,RJAA 170930Z 33013KT 2800 R34L/1800D R34R/P1800N +SHRA BR     FEW001 SCT005 BKN015 12/11 Q1007 NOSIG RMK 1ST001 4ST005           7CU015 A2976=,+ RA SH; BR
20180117_100000.002,0,RJAA,,,,0,20180117100000,-1,-1,-1,-1,350,-1,10,-1,-1,-1,-1,,3200,2,2,3,FEW 1   SCT 15   BKN 35,1,11,1,11,1007,RJAA 171000Z 35010KT 3200 R34L/P1800N R34R/P1800N +SHRA BR     FEW001 SCT015 BKN035 11/11 Q1007 WS R34R TEMPO FEW003           BKN005 RMK 1ST001 3CU015 5CU035 A2974=,+ RA SH; BR
20180117_103000.001,0,RJAA,,,,0,20180117100000,-1,-1,-1,-1,10,-1,8,-1,-1,330,40,,3000,0,2,3,FEW 1   SCT 25   BKN 45,1,11,1,11,1006,RJAA 171030Z 01008KT 330V040 3000 SHRA BR FEW001 SCT025 BKN045     11/11 Q1006 TEMPO FEW003 BKN005 RMK 1ST001 3CU025 7SC045           A2973=,RA SH; BR
20180117_110000.003,0,RJAA,,,,0,20180117110000,-1,-1,-1,-1,340,-1,9,-1,-1,-1,-1,,3500,0,2,2,FEW 1   BKN 6,1,11,1,11,1006,RJAA 171100Z 34009KT 3500 SHRA BR FEW001 BKN006 11/11 Q1006     TEMPO FEW003 BKN005 RMK 1ST001 7ST006 A2973 MOD TURB OBS           AT 1043Z 7NM NE NARITA BTN 9000FT AND 14000FT IN CMB B737           ANA2179 AND MOD TURB OBS AT 1048Z BEACH BTN FL170 AND           FL210 IN CMB B737 ANA2179=,RA SH; BR
20180117_113000.001,0,RJAA,,,,0,20180117110000,-1,-1,-1,-1,20,-1,14,-1,-1,-1,-1,,9999,0,1,3,FEW 3   BKN 4   BKN 20,1,10,1,9,1006,RJAA 171130Z 02014KT 9999 -SHRA FEW003 BKN004 BKN020 10/09     Q1006 NOSIG RMK 1ST003 6ST004 7CU020 A2972=,- RA SH
20180117_120000.003,0,RJAA,,,,0,20180117120000,-1,-1,-1,-1,10,-1,11,-1,-1,340,40,,9999,0,0,2,FEW 3   BKN 4,1,10,1,9,1006,RJAA 171200Z 01011KT 340V040 9999 FEW003 BKN004 10/09 Q1006     NOSIG RMK 1ST003 7ST004 A2972=,
20180117_123000.001,0,RJAA,,,,0,20180117120000,-1,-1,-1,-1,360,-1,11,-1,-1,-1,-1,,9000,0,0,2,FEW 2   BKN 4,1,9,1,9,1006,RJAA 171230Z 36011KT 9000 FEW002 BKN004 09/09 Q1006 WS R34L WS     R34R NOSIG RMK 1ST002 7ST004 A2972 MOD TURB OBS AT 1203Z           5NM N NARITA 3500FT IN CMB A333 CAL109=,
20180117_130000.002,0,RJAA,,,,0,20180117130000,-1,-1,-1,-1,10,-1,10,-1,-1,-1,-1,,7000,0,1,2,FEW 2   BKN 4,1,9,1,8,1006,RJAA 171300Z 01010KT 7000 -SHRA FEW002 BKN004 09/08 Q1006     TEMPO 4000 -SHRA BR RMK 1ST002 7ST004 A2971=,- RA SH
20180117_133000.001,0,RJAA,,,,0,20180117130000,-1,-1,-1,-1,350,-1,9,-1,-1,-1,-1,,9999,0,0,3,FEW 2   BKN 4   BKN 5,1,9,1,8,1006,RJAA 171330Z 35009KT 9999 FEW002 BKN004 BKN005 09/08 Q1006     NOSIG RMK 1ST002 5ST004 7ST005 A2972=,
20180117_140000.002,0,RJAA,,,,0,20180117140000,-1,-1,-1,-1,340,-1,12,-1,-1,-1,-1,,9999,0,0,3,FEW 2   SCT 4   BKN 5,1,9,1,8,1006,RJAA 171400Z 34012KT 9999 FEW002 SCT004 BKN005 09/08 Q1006     NOSIG RMK 1ST002 3ST004 7ST005 A2972=,
20180117_143000.001,0,RJAA,,,,0,20180117140000,-1,-1,-1,-1,340,-1,14,-1,-1,-1,-1,,9999,0,0,3,FEW 3   BKN 7   BKN 11,1,8,1,7,1006,RJAA 171430Z 34014KT 9999 FEW003 BKN007 BKN011 08/07 Q1006     TEMPO FEW003 BKN005 RMK 1ST003 5ST007 7CU011 A2973=,
20180117_150000.002,0,RJAA,,,,0,20180117150000,-1,-1,-1,-1,320,-1,9,-1,-1,-1,-1,,3000,0,1,3,FEW 2   BKN 3   BKN 7,1,7,1,6,1006,RJAA 171500Z 32009KT 3000 -SHRA FEW002 BKN003 BKN007 07/06     Q1006 BECMG 7000 -SHRA RMK 1ST002 5ST003 7ST007 A2973=,- RA SH
20180117_153000.001,0,RJAA,,,,0,20180117150000,-1,-1,-1,-1,310,-1,9,-1,-1,-1,-1,,3000,0,1,3,FEW 1   BKN 3   BKN 5,1,6,1,6,1006,RJAA 171530Z 31009KT 3000 -SHRA FEW001 BKN003 BKN005 06/06     Q1006 BECMG 7000 -SHRA RMK 1ST001 5ST003 7ST005 A2973=,- RA SH
20180117_153000.002,2,RJAA,,,,0,20180117150000,-1,-1,-1,-1,310,-1,9,-1,-1,-1,-1,,3000,0,2,3,FEW 1   BKN 3   BKN 5,1,6,1,6,1006,RJAA 171530Z 31009KT 3000 -SHRA BR FEW001 BKN003 BKN005     06/06 Q1006 BECMG 7000 -SHRA RMK 1ST001 5ST003 7ST005           A2973=,- RA SH; BR
20180117_160000.002,0,RJAA,,,,0,20180117160000,-1,-1,-1,-1,330,-1,9,-1,-1,-1,-1,,7000,0,1,3,FEW 1   SCT 4   BKN 25,1,6,1,6,1007,RJAA 171600Z 33009KT 7000 -SHRA FEW001 SCT004 BKN025 06/06     Q1007 TEMPO 3000 BR FEW003 BKN005 RMK 1ST001 3ST004           7CU025 A2974=,- RA SH
20180117_163000.001,0,RJAA,,,,0,20180117160000,-1,-1,-1,-1,320,-1,6,-1,-1,-1,-1,,9999,0,0,2,FEW 3   BKN 25,1,6,1,6,1007,RJAA 171630Z 32006KT 9999 FEW003 BKN025 06/06 Q1007 TEMPO     FEW003 BKN005 RMK 1ST003 7CU025 A2975=,
20180117_170000.002,0,RJAA,,,,0,20180117170000,-1,-1,-1,-1,320,-1,7,-1,-1,-1,-1,,9999,0,0,3,FEW 3   BKN 7   BKN 25,1,6,1,5,1008,RJAA 171700Z 32007KT 9999 FEW003 BKN007 BKN025 06/05 Q1008     TEMPO FEW003 BKN005 RMK 1ST003 6ST007 7CU025 A2977=,
20180117_173000.001,0,RJAA,,,,0,20180117170000,-1,-1,-1,-1,320,-1,10,-1,-1,-1,-1,,9999,0,0,3,FEW 4   SCT 15   BKN 25,1,6,1,5,1008,RJAA 171730Z 32010KT 9999 FEW004 SCT015 BKN025 06/05 Q1008     TEMPO FEW003 BKN005 RMK 1ST004 3SC015 7SC025 A2979=,
20180117_180000.002,0,RJAA,,,,0,20180117180000,-1,-1,-1,-1,320,-1,6,-1,-1,-1,-1,,9999,0,0,1,FEW 7,1,5,1,4,1008,RJAA 171800Z 32006KT 9999 FEW007 05/04 Q1008 NOSIG RMK 1ST007     A2978=,
20180117_183000.001,0,RJAA,,,,0,20180117180000,-1,-1,-1,-1,280,-1,3,-1,-1,250,320,,4000,0,1,1,FEW 1,1,5,1,4,1008,RJAA 171830Z 28003KT 250V320 4000 BR FEW001 05/04 Q1008 TEMPO     3000 BR FEW003 BKN005 RMK 2ST001 A2979 8000SE=,BR
20180117_190000.003,0,RJAA,,,,0,20180117190000,-1,-1,-1,-1,320,-1,2,-1,-1,-1,-1,,2000,2,2,1,SCT 1,1,4,1,4,1009,RJAA 171900Z 32002KT 2000 R34L/P1800N R34R/1000VP1800D MIFG BR     SCT001 04/04 Q1009 TEMPO FEW003 BKN005 RMK 4ST001 A2981=,MI FG; BR
20180117_193000.001,0,RJAA,,,,0,20180117190000,-1,-1,-1,-1,340,-1,7,-1,-1,-1,-1,,9999,0,0,1,FEW 5,1,3,1,3,1010,RJAA 171930Z 34007KT 9999 FEW005 03/03 Q1010 TEMPO 3000 BR     FEW003 BKN005 RMK 1ST005 A2983=,
20180117_200000.002,0,RJAA,,,,0,20180117200000,-1,-1,-1,-1,350,-1,9,-1,-1,-1,-1,,9999,0,0,1,FEW 20,1,4,1,3,1010,RJAA 172000Z 35009KT 9999 FEW020 04/03 Q1010 NOSIG RMK 1CU020     A2984=,
20180117_203000.001,0,RJAA,,,,0,20180117200000,-1,-1,-1,-1,320,-1,4,-1,-1,-1,-1,,9999,0,0,1,FEW 20,1,4,1,2,1011,RJAA 172030Z 32004KT 9999 FEW020 04/02 Q1011 NOSIG RMK 1CU020     A2987=,
20180117_210000.002,0,RJAA,,,,0,20180117210000,-1,-1,-1,-1,10,-1,3,-1,-1,350,60,,9999,0,0,1,FEW 20,1,3,1,2,1011,RJAA 172100Z 01003KT 350V060 9999 FEW020 03/02 Q1011 NOSIG RMK     1CU020 A2987=,
20180117_213000.001,0,RJAA,,,,0,20180117210000,-1,-1,-1,-1,10,-1,3,-1,-1,320,40,,9999,0,1,1,FEW 20,1,4,1,3,1011,RJAA 172130Z 01003KT 320V040 9999 MIFG FEW020 04/03 Q1011     NOSIG RMK 1CU020 A2987=,MI FG
20180117_220000.003,0,RJAA,,,,0,20180117220000,-1,-1,-1,-1,350,-1,3,-1,-1,260,30,,9999,0,1,1,FEW 20,1,3,1,2,1012,RJAA 172200Z 35003KT 260V030 9999 MIFG FEW020 03/02 Q1012     NOSIG RMK 1CU020 A2989=,MI FG
20180117_223000.002,0,RJAA,,,,0,20180117220000,-1,-1,-1,-1,999,-1,2,-1,-1,-1,-1,,9999,0,1,1,FEW 30,1,4,1,2,1012,RJAA 172230Z VRB02KT 9999 MIFG FEW030 04/02 Q1012 NOSIG RMK     1CU030 A2990=,MI FG
20180117_230000.002,0,RJAA,,,,0,20180117230000,-1,-1,-1,-1,360,-1,4,-1,-1,330,30,,9999,0,0,1,FEW 30,1,5,1,3,1012,RJAA 172300Z 36004KT 330V030 9999 FEW030 05/03 Q1012 NOSIG RMK     1CU030 A2991=,
20180117_233000.001,0,RJAA,,,,0,20180117230000,-1,-1,-1,-1,10,-1,5,-1,-1,-1,-1,,9999,0,0,1,FEW 30,1,7,1,4,1012,RJAA 172330Z 01005KT 9999 FEW030 07/04 Q1012 NOSIG RMK 1CU030     A2991=,
20180118_000000.002,0,RJAA,,,,0,20180118000000,-1,-1,-1,-1,10,-1,5,-1,-1,350,70,,9999,0,0,1,FEW 30,1,8,1,4,1013,RJAA 180000Z 01005KT 350V070 9999 FEW030 08/04 Q1013 NOSIG RMK     1CU030 A2992=,
20180118_003000.001,0,RJAA,,,,0,20180118000000,-1,-1,-1,-1,20,-1,4,-1,-1,340,60,,9999,0,0,1,FEW 30,1,9,1,5,1013,RJAA 180030Z 02004KT 340V060 9999 FEW030 09/05 Q1013 NOSIG RMK     1CU030 A2993 MOD TURB OBS AT 0002Z 20NM E NARITA BTN           8000FT AND 6000FT IN DES B737 JAL3040=,
20180118_010000.002,0,RJAA,,,,0,20180118010000,-1,-1,-1,-1,20,-1,3,-1,-1,330,80,,9999,0,0,1,FEW 30,1,10,1,4,1013,RJAA 180100Z 02003KT 330V080 9999 FEW030 10/04 Q1013 NOSIG RMK     1CU030 A2994=,
20180118_013000.001,0,RJAA,,,,0,20180118010000,-1,-1,-1,-1,360,-1,6,-1,-1,-1,-1,,9999,0,0,2,FEW 30   BKN -9999,1,10,1,4,1013,RJAA 180130Z 36006KT 9999 FEW030 BKN/// 10/04 Q1013 NOSIG RMK     1CU030 A2993=,
20180118_020000.002,0,RJAA,,,,0,20180118020000,-1,-1,-1,-1,330,-1,5,-1,-1,290,20,,9999,0,0,2,FEW 30   BKN -9999,1,11,1,4,1012,RJAA 180200Z 33005KT 290V020 9999 FEW030 BKN/// 11/04 Q1012     NOSIG RMK 1CU030 A2990=,
20180118_023000.001,0,RJAA,,,,0,20180118020000,-1,-1,-1,-1,310,-1,6,-1,-1,260,350,,9999,0,0,2,FEW 30   BKN -9999,1,12,1,3,1012,RJAA 180230Z 31006KT 260V350 9999 FEW030 BKN/// 12/03 Q1012     NOSIG RMK 1CU030 A2991=,
20180118_030000.003,0,RJAA,,,,0,20180118030000,-1,-1,-1,-1,330,-1,5,-1,-1,290,10,,9999,0,0,2,FEW 30   BKN -9999,1,12,1,3,1012,RJAA 180300Z 33005KT 290V010 9999 FEW030 BKN/// 12/03 Q1012     NOSIG RMK 1CU030 A2990=,
20180118_033000.001,0,RJAA,,,,0,20180118030000,-1,-1,-1,-1,999,-1,6,-1,-1,-1,-1,,9999,0,0,2,FEW 30   BKN -9999,1,12,1,3,1012,RJAA 180330Z VRB06KT 9999 FEW030 BKN/// 12/03 Q1012 NOSIG RMK     1CU030 A2989=,
20180118_040000.002,0,RJAA,,,,0,20180118040000,-1,-1,-1,-1,280,-1,3,-1,-1,210,360,,9999,0,0,2,FEW 30   BKN -9999,1,13,1,4,1012,RJAA 180400Z 28003KT 210V360 9999 FEW030 BKN/// 13/04 Q1012     NOSIG RMK 1CU030 A2989=,
20180118_043000.001,0,RJAA,,,,0,20180118040000,-1,-1,-1,-1,999,-1,3,-1,-1,-1,-1,,9999,0,0,2,FEW 30   BKN -9999,1,13,1,3,1012,RJAA 180430Z VRB03KT 9999 FEW030 BKN/// 13/03 Q1012 NOSIG RMK     1CU030 A2990=,
20180118_050000.002,0,RJAA,,,,0,20180118050000,-1,-1,-1,-1,999,-1,2,-1,-1,-1,-1,,9999,0,0,2,FEW 30   BKN 180,1,13,1,3,1012,RJAA 180500Z VRB02KT 9999 FEW030 BKN180 13/03 Q1012 NOSIG RMK     1CU030 7AC180 A2990=,
20180118_053000.001,0,RJAA,,,,0,20180118050000,-1,-1,-1,-1,330,-1,4,-1,-1,270,40,,9999,0,0,2,FEW 30   BKN 180,1,13,1,4,1012,RJAA 180530Z 33004KT 270V040 9999 FEW030 BKN180 13/04 Q1012     NOSIG RMK 1CU030 7AC180 A2991=,
20180118_060000.002,0,RJAA,,,,0,20180118060000,-1,-1,-1,-1,340,-1,5,-1,-1,-1,-1,,9999,0,0,2,FEW 30   BKN 200,1,13,1,4,1013,RJAA 180600Z 34005KT 9999 FEW030 BKN200 13/04 Q1013 NOSIG RMK     1CU030 7AC200 A2992=,
20180118_063000.001,0,RJAA,,,,0,20180118060000,-1,-1,-1,-1,999,-1,1,-1,-1,-1,-1,,9999,0,0,3,FEW 30   SCT 50   BKN 200,1,12,1,5,1013,RJAA 180630Z VRB01KT 9999 FEW030 SCT050 BKN200 12/05 Q1013     NOSIG RMK 1CU030 3SC050 7AC200 A2992=,
20180118_070000.002,0,RJAA,,,,0,20180118070000,-1,-1,-1,-1,150,-1,6,-1,-1,-1,-1,,9999,0,0,3,FEW 30   SCT 200   BKN -9999,1,12,1,5,1012,RJAA 180700Z 15006KT 9999 FEW030 SCT200 BKN/// 12/05 Q1012     NOSIG RMK 1CU030 3AC200 A2989=,
20180118_073000.001,0,RJAA,,,,0,20180118070000,-1,-1,-1,-1,120,-1,3,-1,-1,-1,-1,,9999,0,0,3,FEW 30   SCT 190   BKN -9999,1,11,1,5,1013,RJAA 180730Z 12003KT 9999 FEW030 SCT190 BKN/// 11/05 Q1013     NOSIG RMK 1CU030 3AC190 A2991=,
20180118_080000.002,0,RJAA,,,,0,20180118080000,-1,-1,-1,-1,150,-1,3,-1,-1,120,180,,9999,0,0,3,FEW 30   SCT 40   BKN -9999,1,11,1,5,1013,RJAA 180800Z 15003KT 120V180 9999 FEW030 SCT040 BKN/// 11/05     Q1013 NOSIG RMK 1CU030 4SC040 A2994=,
20180118_083000.001,0,RJAA,,,,0,20180118080000,-1,-1,-1,-1,150,-1,3,-1,-1,-1,-1,,9999,0,0,3,FEW 30   SCT 40   BKN -9999,1,10,1,6,1014,RJAA 180830Z 15003KT 9999 FEW030 SCT040 BKN/// 10/06 Q1014     NOSIG RMK 1CU030 3SC040 A2994=,
20180118_090000.002,0,RJAA,,,,0,20180118090000,-1,-1,-1,-1,110,-1,4,-1,-1,-1,-1,,9999,0,0,3,FEW 25   BKN 30   BKN -9999,1,10,1,6,1014,RJAA 180900Z 11004KT 9999 FEW025 BKN030 BKN/// 10/06 Q1014     NOSIG RMK 1CU025 6CU030 A2995=,
20180118_093000.001,0,RJAA,,,,0,20180118090000,-1,-1,-1,-1,120,-1,5,-1,-1,80,150,,9999,0,0,3,FEW 25   SCT 30   BKN -9999,1,10,1,5,1014,RJAA 180930Z 12005KT 080V150 9999 FEW025 SCT030 BKN/// 10/05     Q1014 NOSIG RMK 1CU025 3CU030 A2995=,
20180118_100000.002,0,RJAA,,,,0,20180118100000,-1,-1,-1,-1,160,-1,3,-1,-1,-1,-1,,9999,0,0,2,FEW 25   BKN -9999,1,7,1,5,1014,RJAA 181000Z 16003KT 9999 FEW025 BKN/// 07/05 Q1014 NOSIG RMK     1CU025 A2995=,
20180118_103000.001,0,RJAA,,,,0,20180118100000,-1,-1,-1,-1,120,-1,3,-1,-1,50,210,,9999,0,0,2,FEW 30   BKN -9999,1,8,1,6,1014,RJAA 181030Z 12003KT 050V210 9999 FEW030 BKN/// 08/06 Q1014     NOSIG RMK 1CU030 A2996=,
20180118_110000.002,0,RJAA,,,,0,20180118110000,-1,-1,-1,-1,120,-1,3,-1,-1,60,170,,9999,0,0,2,FEW 40   BKN -9999,1,6,1,4,1014,RJAA 181100Z 12003KT 060V170 9999 FEW040 BKN/// 06/04 Q1014     NOSIG RMK 1SC040 A2995=,
20180118_113000.001,0,RJAA,,,,0,20180118110000,-1,-1,-1,-1,999,-1,1,-1,-1,-1,-1,,9999,0,0,2,FEW 40   BKN -9999,1,6,1,5,1014,RJAA 181130Z VRB01KT 9999 FEW040 BKN/// 06/05 Q1014 NOSIG RMK     1SC040 A2996=,
20180118_120000.002,0,RJAA,,,,0,20180118120000,-1,-1,-1,-1,330,-1,1,-1,-1,-1,-1,,9999,0,0,2,FEW 25   BKN -9999,1,6,1,5,1015,RJAA 181200Z 33001KT 9999 FEW025 BKN/// 06/05 Q1015 NOSIG RMK     1CU025 A2997=,
20180118_123000.001,0,RJAA,,,,0,20180118120000,-1,-1,-1,-1,320,-1,3,-1,-1,-1,-1,,9999,0,0,2,FEW 25   BKN -9999,1,6,1,4,1015,RJAA 181230Z 32003KT 9999 FEW025 BKN/// 06/04 Q1015 NOSIG RMK     1CU025 A2998=,
20180118_130000.002,0,RJAA,,,,0,20180118130000,-1,-1,-1,-1,310,-1,3,-1,-1,-1,-1,,9999,0,0,2,FEW 25   BKN -9999,1,6,1,4,1015,RJAA 181300Z 31003KT 9999 FEW025 BKN/// 06/04 Q1015 NOSIG RMK     1CU025 A2998=,
20180118_133000.001,0,RJAA,,,,0,20180118130000,-1,-1,-1,-1,320,-1,5,-1,-1,-1,-1,,9999,0,0,2,FEW 30   BKN -9999,1,7,1,5,1015,RJAA 181330Z 32005KT 9999 FEW030 BKN/// 07/05 Q1015 NOSIG RMK     1CU030 A2998=,
20180118_140000.002,0,RJAA,,,,0,20180118140000,-1,-1,-1,-1,290,-1,2,-1,-1,-1,-1,,9999,0,0,2,FEW 40   BKN -9999,1,5,1,3,1015,RJAA 181400Z 29002KT 9999 FEW040 BKN/// 05/03 Q1015 NOSIG RMK     1SC040 A2998=,
20180118_143000.001,0,RJAA,,,,0,20180118140000,-1,-1,-1,-1,310,-1,1,-1,-1,-1,-1,,9999,0,1,2,FEW 35   BKN -9999,1,4,1,3,1015,RJAA 181430Z 31001KT 9999 MIFG FEW035 BKN/// 04/03 Q1015 NOSIG     RMK 1CU035 A2998=,MI FG
20180118_150000.002,0,RJAA,,,,0,20180118150000,-1,-1,-1,-1,320,-1,5,-1,-1,-1,-1,,9999,0,1,2,FEW 30   SCT -9999,1,6,1,5,1015,RJAA 181500Z 32005KT 9999 MIFG FEW030 SCT/// 06/05 Q1015 NOSIG     RMK 1CU030 A2998=,MI FG
20180118_153000.001,0,RJAA,,,,0,20180118150000,-1,-1,-1,-1,310,-1,3,-1,-1,-1,-1,,9999,0,1,2,FEW 30   SCT 150,1,4,1,3,1015,RJAA 181530Z 31003KT 9999 MIFG FEW030 SCT150 04/03 Q1015 NOSIG     RMK 1CU030 3AC150 A2999=,MI FG
20180118_160000.002,0,RJAA,,,,0,20180118160000,-1,-1,-1,-1,320,-1,3,-1,-1,-1,-1,,9999,0,1,2,FEW 30   SCT -9999,1,4,1,3,1015,RJAA 181600Z 32003KT 9999 MIFG FEW030 SCT/// 04/03 Q1015 NOSIG     RMK 1CU030 A2999=,MI FG
20180118_163000.001,0,RJAA,,,,0,20180118160000,-1,-1,-1,-1,310,-1,3,-1,-1,-1,-1,,9999,0,0,1,FEW 40,1,6,1,4,1016,RJAA 181630Z 31003KT 9999 FEW040 06/04 Q1016 NOSIG RMK 1SC040     A3000=,
20180118_170000.002,0,RJAA,,,,0,20180118170000,-1,-1,-1,-1,310,-1,5,-1,-1,-1,-1,,9999,0,0,1,FEW 40,1,5,1,3,1016,RJAA 181700Z 31005KT 9999 FEW040 05/03 Q1016 NOSIG RMK 1SC040     A3000=,
20180118_173000.001,0,RJAA,,,,0,20180118170000,-1,-1,-1,-1,330,-1,8,-1,-1,-1,-1,,9999,0,0,2,FEW 40   BKN -9999,1,5,1,3,1016,RJAA 181730Z 33008KT 9999 FEW040 BKN/// 05/03 Q1016 NOSIG RMK     1SC040 A3001=,
20180118_180000.002,0,RJAA,,,,0,20180118180000,-1,-1,-1,-1,320,-1,5,-1,-1,-1,-1,,9999,0,0,2,FEW 40   BKN -9999,1,4,1,1,1016,RJAA 181800Z 32005KT 9999 FEW040 BKN/// 04/01 Q1016 NOSIG RMK     1SC040 A3002=,
20180118_183000.001,0,RJAA,,,,0,20180118180000,-1,-1,-1,-1,320,-1,4,-1,-1,-1,-1,,9999,0,0,2,FEW 40   BKN -9999,1,3,1,1,1016,RJAA 181830Z 32004KT 9999 FEW040 BKN/// 03/01 Q1016 NOSIG RMK     1SC040 A3002=,
20180118_190000.002,0,RJAA,,,,0,20180118190000,-1,-1,-1,-1,330,-1,3,-1,-1,-1,-1,,9999,0,0,2,FEW 40   BKN -9999,1,3,1,2,1016,RJAA 181900Z 33003KT 9999 FEW040 BKN/// 03/02 Q1016 NOSIG RMK     1SC040 A3002=,
20180118_193000.001,0,RJAA,,,,0,20180118190000,-1,-1,-1,-1,320,-1,2,-1,-1,-1,-1,,9999,0,0,2,FEW 40   BKN -9999,1,3,1,1,1016,RJAA 181930Z 32002KT 9999 FEW040 BKN/// 03/01 Q1016 NOSIG RMK     1SC040 A3003=,
20180118_200000.002,0,RJAA,,,,0,20180118200000,-1,-1,-1,-1,350,-1,4,-1,-1,-1,-1,,9999,0,0,2,FEW 40   BKN -9999,1,3,1,1,1017,RJAA 182000Z 35004KT 9999 FEW040 BKN/// 03/01 Q1017 NOSIG RMK     1SC040 A3003=,
20180118_203000.001,0,RJAA,,,,0,20180118200000,-1,-1,-1,-1,350,-1,2,-1,-1,-1,-1,,9999,0,1,2,FEW 40   BKN -9999,1,4,1,2,1017,RJAA 182030Z 35002KT 9999 MIFG FEW040 BKN/// 04/02 Q1017 NOSIG     RMK 1SC040 A3004=,MI FG
20180118_210000.003,0,RJAA,,,,0,20180118210000,-1,-1,-1,-1,360,-1,2,-1,-1,-1,-1,,9999,0,1,2,FEW 40   BKN -9999,1,5,1,2,1017,RJAA 182100Z 36002KT 9999 MIFG FEW040 BKN/// 05/02 Q1017 NOSIG     RMK 1SC040 A3005=,MI FG
20180118_213000.001,0,RJAA,,,,0,20180118210000,-1,-1,-1,-1,10,-1,5,-1,-1,-1,-1,,9999,0,1,2,FEW 40   SCT -9999,1,4,1,0,1018,RJAA 182130Z 01005KT 9999 MIFG FEW040 SCT/// 04/00 Q1018 NOSIG     RMK 1SC040 A3006=,MI FG
20180118_220000.002,0,RJAA,,,,0,20180118220000,-1,-1,-1,-1,10,-1,8,-1,-1,-1,-1,,9999,0,0,1,FEW 40,1,4,1,0,1018,RJAA 182200Z 01008KT 9999 FEW040 04/00 Q1018 NOSIG RMK 1SC040     A3006=,
20180118_223000.002,0,RJAA,,,,0,20180118220000,-1,-1,-1,-1,330,-1,6,-1,-1,-1,-1,,9999,0,0,2,FEW 40   SCT 160,1,4,1,1,1018,RJAA 182230Z 33006KT 9999 FEW040 SCT160 04/01 Q1018 NOSIG RMK     1SC040 3AC160 A3008=,
20180118_230000.003,0,RJAA,,,,0,20180118230000,-1,-1,-1,-1,999,-1,2,-1,-1,-1,-1,,9999,0,0,2,FEW 30   SCT 50,1,4,1,1,1019,RJAA 182300Z VRB02KT 9999 FEW030 SCT050 04/01 Q1019 NOSIG RMK     1CU030 3SC050 A3010=,
20180118_233000.001,0,RJAA,,,,0,20180118230000,-1,-1,-1,-1,999,-1,2,-1,-1,-1,-1,,9999,0,0,2,FEW 30   BKN 60,1,6,1,2,1019,RJAA 182330Z VRB02KT 9999 FEW030 BKN060 06/02 Q1019 NOSIG RMK     1CU030 5SC060 A3011=,
20180119_000000.002,0,RJAA,,,,0,20180119000000,-1,-1,-1,-1,340,-1,4,-1,-1,300,40,,9999,0,0,2,FEW 30   SCT 60,1,7,1,2,1020,RJAA 190000Z 34004KT 300V040 9999 FEW030 SCT060 07/02 Q1020     NOSIG RMK 1CU030 4SC060 A3012=,
20180119_003000.001,0,RJAA,,,,0,20180119000000,-1,-1,-1,-1,20,-1,7,-1,-1,-1,-1,,9999,0,0,2,FEW 30   BKN 60,1,8,1,1,1020,RJAA 190030Z 02007KT 9999 FEW030 BKN060 08/01 Q1020 NOSIG RMK     1CU030 5SC060 A3013=,
20180119_010000.003,0,RJAA,,,,0,20180119010000,-1,-1,-1,-1,20,-1,10,-1,-1,-1,-1,,9999,0,0,2,FEW 30   SCT 50,1,8,-1,2,1020,RJAA 190100Z 02010KT 9999 FEW030 SCT050 08/M02 Q1020 NOSIG RMK     1CU030 4SC050 A3012=,
20180119_013000.001,0,RJAA,,,,0,20180119010000,-1,-1,-1,-1,10,-1,11,-1,-1,-1,-1,,9999,0,0,2,FEW 30   BKN 50,1,8,-1,3,1019,RJAA 190130Z 01011KT 9999 FEW030 BKN050 08/M03 Q1019 NOSIG RMK     1CU030 7SC050 A3012=,
20180119_020000.002,0,RJAA,,,,0,20180119020000,-1,-1,-1,-1,20,-1,7,-1,-1,350,50,,9999,0,0,2,FEW 30   BKN 60,1,8,-1,1,1019,RJAA 190200Z 02007KT 350V050 9999 FEW030 BKN060 08/M01 Q1019     NOSIG RMK 1CU030 7SC060 A3010=,
20180119_023000.001,0,RJAA,,,,0,20180119020000,-1,-1,-1,-1,30,-1,7,-1,-1,-1,-1,,9999,0,0,2,FEW 30   BKN 50,1,9,-1,1,1019,RJAA 190230Z 03007KT 9999 FEW030 BKN050 09/M01 Q1019 NOSIG RMK     1CU030 7SC050 A3009=,
20180119_030000.002,0,RJAA,,,,0,20180119030000,-1,-1,-1,-1,20,-1,6,-1,-1,340,90,,9999,0,0,2,FEW 30   BKN 50,1,9,-1,1,1018,RJAA 190300Z 02006KT 340V090 9999 FEW030 BKN050 09/M01 Q1018     NOSIG RMK 1CU030 7SC050 A3007=,
20180119_033000.001,0,RJAA,,,,0,20180119030000,-1,-1,-1,-1,30,-1,6,-1,-1,350,60,,9999,0,0,3,FEW 30   BKN 50   BKN 70,1,10,-1,1,1018,RJAA 190330Z 03006KT 350V060 9999 FEW030 BKN050 BKN070 10/M01     Q1018 NOSIG RMK 1CU030 5SC050 7AC070 A3007=,
20180119_040000.002,0,RJAA,,,,0,20180119040000,-1,-1,-1,-1,40,-1,5,-1,-1,340,70,,9999,0,0,3,FEW 30   SCT 50   BKN 70,1,10,-1,4,1017,RJAA 190400Z 04005KT 340V070 9999 FEW030 SCT050 BKN070 10/M04     Q1017 BECMG 07006KT RMK 1CU030 3SC050 7AC070 A3006=,
20180119_043000.001,0,RJAA,,,,0,20180119040000,-1,-1,-1,-1,999,-1,4,-1,-1,-1,-1,,9999,0,0,3,FEW 30   SCT 50   BKN 70,1,10,-1,3,1017,RJAA 190430Z VRB04KT 9999 FEW030 SCT050 BKN070 10/M03 Q1017     BECMG 07006KT RMK 1CU030 3SC050 7AC070 A3005=,
20180119_050000.003,0,RJAA,,,,0,20180119050000,-1,-1,-1,-1,999,-1,2,-1,-1,-1,-1,,9999,0,0,3,FEW 30   BKN 50   BKN 70,1,10,-1,1,1018,RJAA 190500Z VRB02KT 9999 FEW030 BKN050 BKN070 10/M01 Q1018     BECMG 07006KT RMK 1CU030 5SC050 7AC070 A3006=,
20180119_053000.001,0,RJAA,,,,0,20180119050000,-1,-1,-1,-1,130,-1,5,-1,-1,-1,-1,,9999,0,0,3,FEW 30   BKN 50   BKN 70,1,10,-1,1,1017,RJAA 190530Z 13005KT 9999 FEW030 BKN050 BKN070 10/M01 Q1017     NOSIG RMK 1CU030 5SC050 7AC070 A3005=,
20180119_060000.002,0,RJAA,,,,0,20180119060000,-1,-1,-1,-1,80,-1,9,-1,-1,-1,-1,,9999,0,0,3,FEW 30   BKN 50   BKN 70,1,10,1,2,1017,RJAA 190600Z 08009KT 9999 FEW030 BKN050 BKN070 10/02 Q1017     NOSIG RMK 1CU030 5SC050 7AC070 A3006=,
20180119_063000.001,0,RJAA,,,,0,20180119060000,-1,-1,-1,-1,70,-1,8,-1,-1,20,100,,9999,0,0,3,FEW 30   BKN 50   BKN 70,1,9,1,1,1018,RJAA 190630Z 07008KT 020V100 9999 FEW030 BKN050 BKN070 09/01     Q1018 NOSIG RMK 1CU030 5SC050 7AC070 A3006=,
20180119_070000.002,0,RJAA,,,,0,20180119070000,-1,-1,-1,-1,80,-1,8,-1,-1,-1,-1,,9999,0,0,3,FEW 30   BKN 50   BKN 70,1,9,1,1,1018,RJAA 190700Z 08008KT 9999 FEW030 BKN050 BKN070 09/01 Q1018     NOSIG RMK 1CU030 5SC050 7AC070 A3006=,
20180119_073000.001,0,RJAA,,,,0,20180119070000,-1,-1,-1,-1,90,-1,9,-1,-1,-1,-1,,9999,0,0,2,FEW 30   BKN 70,1,8,1,1,1017,RJAA 190730Z 09009KT 9999 FEW030 BKN070 08/01 Q1017 NOSIG RMK     1CU030 7AC070 A3006=,
20180119_080000.002,0,RJAA,,,,0,20180119080000,-1,-1,-1,-1,80,-1,8,-1,-1,-1,-1,,9999,0,0,2,FEW 30   BKN 70,1,8,1,0,1018,RJAA 190800Z 08008KT 9999 FEW030 BKN070 08/00 Q1018 NOSIG RMK     1CU030 7AC070 A3007=,
20180119_083000.001,0,RJAA,,,,0,20180119080000,-1,-1,-1,-1,80,-1,8,-1,-1,-1,-1,,9999,0,0,2,FEW 30   BKN 70,1,8,1,1,1018,RJAA 190830Z 08008KT 9999 FEW030 BKN070 08/01 Q1018 NOSIG RMK     1CU030 7AC070 A3008=,
20180119_090000.003,0,RJAA,,,,0,20180119090000,-1,-1,-1,-1,80,-1,7,-1,-1,-1,-1,,9999,0,0,2,FEW 30   BKN 70,1,8,1,0,1018,RJAA 190900Z 08007KT 9999 FEW030 BKN070 08/00 Q1018 NOSIG RMK     1CU030 7AC070 A3008=,
20180119_093000.001,0,RJAA,,,,0,20180119090000,-1,-1,-1,-1,90,-1,7,-1,-1,-1,-1,,9999,0,0,2,FEW 30   BKN 70,1,7,1,1,1018,RJAA 190930Z 09007KT 9999 FEW030 BKN070 07/01 Q1018 NOSIG RMK     1CU030 7AC070 A3008=,
20180119_100000.002,0,RJAA,,,,0,20180119100000,-1,-1,-1,-1,80,-1,6,-1,-1,-1,-1,,9999,0,0,2,FEW 30   BKN 70,1,7,1,1,1018,RJAA 191000Z 08006KT 9999 FEW030 BKN070 07/01 Q1018 NOSIG RMK     1CU030 7AC070 A3008=,
20180119_103000.001,0,RJAA,,,,0,20180119100000,-1,-1,-1,-1,70,-1,4,-1,-1,-1,-1,,9999,0,0,2,FEW 30   BKN 70,1,7,1,0,1018,RJAA 191030Z 07004KT 9999 FEW030 BKN070 07/00 Q1018 NOSIG RMK     1CU030 6AC070 A3008=,
20180119_110000.002,0,RJAA,,,,0,20180119110000,-1,-1,-1,-1,70,-1,5,-1,-1,-1,-1,,9999,0,0,2,FEW 30   BKN 70,1,6,1,0,1018,RJAA 191100Z 07005KT 9999 FEW030 BKN070 06/00 Q1018 NOSIG RMK     1CU030 5AC070 A3009=,
20180119_113000.001,0,RJAA,,,,0,20180119110000,-1,-1,-1,-1,80,-1,4,-1,-1,-1,-1,,9999,0,0,2,FEW 30   BKN 70,1,6,1,0,1018,RJAA 191130Z 08004KT 9999 FEW030 BKN070 06/00 Q1018 NOSIG RMK     1CU030 5AC070 A3009=,
20180119_120000.003,0,RJAA,,,,0,20180119120000,-1,-1,-1,-1,50,-1,7,-1,-1,-1,-1,,9999,0,0,2,FEW 30   BKN 70,1,6,-1,0,1018,RJAA 191200Z 05007KT 9999 FEW030 BKN070 06/M00 Q1018 NOSIG RMK     1CU030 5AC070 A3008=,
20180119_123000.001,0,RJAA,,,,0,20180119120000,-1,-1,-1,-1,70,-1,5,-1,-1,20,100,,9999,0,0,2,FEW 30   BKN 80,1,6,-1,0,1018,RJAA 191230Z 07005KT 020V100 9999 FEW030 BKN080 06/M00 Q1018     NOSIG RMK 1CU030 5AC080 A3008=,
20180119_130000.002,0,RJAA,,,,0,20180119130000,-1,-1,-1,-1,90,-1,3,-1,-1,10,120,,9999,0,0,2,FEW 30   BKN 80,1,6,1,1,1018,RJAA 191300Z 09003KT 010V120 9999 FEW030 BKN080 06/01 Q1018     NOSIG RMK 1CU030 5AC080 A3008=,
20180119_133000.001,0,RJAA,,,,0,20180119130000,-1,-1,-1,-1,50,-1,5,-1,-1,360,90,,9999,0,0,2,FEW 30   BKN 80,1,6,-1,0,1018,RJAA 191330Z 05005KT 360V090 9999 FEW030 BKN080 06/M00 Q1018     NOSIG RMK 1CU030 7AC080 A3008=,
20180119_140000.002,0,RJAA,,,,0,20180119140000,-1,-1,-1,-1,20,-1,5,-1,-1,-1,-1,,9999,0,0,2,FEW 30   BKN 80,1,5,1,0,1018,RJAA 191400Z 02005KT 9999 FEW030 BKN080 05/00 Q1018 NOSIG RMK     1CU030 6AC080 A3008=,
20180119_143000.001,0,RJAA,,,,0,20180119140000,-1,-1,-1,-1,40,-1,6,-1,-1,-1,-1,,9999,0,0,2,FEW 30   BKN 80,1,6,1,0,1018,RJAA 191430Z 04006KT 9999 FEW030 BKN080 06/00 Q1018 NOSIG RMK     1CU030 6AC080 A3007=,
20180119_150000.002,0,RJAA,,,,0,20180119150000,-1,-1,-1,-1,40,-1,6,-1,-1,-1,-1,,9999,0,0,2,FEW 30   BKN 80,1,6,1,0,1017,RJAA 191500Z 04006KT 9999 FEW030 BKN080 06/00 Q1017 NOSIG RMK     1CU030 7AC080 A3006=,
20180119_153000.001,0,RJAA,,,,0,20180119150000,-1,-1,-1,-1,10,-1,4,-1,-1,-1,-1,,9999,0,0,2,FEW 30   BKN 80,1,5,1,0,1018,RJAA 191530Z 01004KT 9999 FEW030 BKN080 05/00 Q1018 NOSIG RMK     1CU030 7AC080 A3007=,
20180119_160000.002,0,RJAA,,,,0,20180119160000,-1,-1,-1,-1,10,-1,4,-1,-1,-1,-1,,9999,0,0,2,FEW 30   BKN 70,1,5,1,1,1017,RJAA 191600Z 01004KT 9999 FEW030 BKN070 05/01 Q1017 NOSIG RMK     1CU030 7AC070 A3004=,
20180119_163000.001,0,RJAA,,,,0,20180119160000,-1,-1,-1,-1,350,-1,3,-1,-1,-1,-1,,9999,0,0,2,FEW 30   BKN -9999,1,4,1,0,1017,RJAA 191630Z 35003KT 9999 FEW030 BKN/// 04/00 Q1017 NOSIG RMK     1CU030 A3005=,
20180119_170000.002,0,RJAA,,,,0,20180119170000,-1,-1,-1,-1,999,-1,2,-1,-1,-1,-1,,9999,0,0,2,FEW 30   BKN 50,1,4,1,1,1018,RJAA 191700Z VRB02KT 9999 FEW030 BKN050 04/01 Q1018 NOSIG RMK     1CU030 7SC050 A3006=,
20180119_173000.001,0,RJAA,,,,0,20180119170000,-1,-1,-1,-1,320,-1,4,-1,-1,-1,-1,,9999,0,1,2,FEW 30   BKN 50,1,4,1,1,1017,RJAA 191730Z 32004KT 9999 -RA FEW030 BKN050 04/01 Q1017 NOSIG     RMK 1CU030 7SC050 A3005=,- RA
20180119_180000.003,0,RJAA,,,,0,20180119180000,-1,-1,-1,-1,330,-1,8,-1,-1,-1,-1,,9999,0,0,3,FEW 30   SCT 40   BKN 50,1,4,1,0,1017,RJAA 191800Z 33008KT 9999 FEW030 SCT040 BKN050 04/00 Q1017     NOSIG RMK 1CU030 4SC040 7SC050 A3005=,
20180119_183000.001,0,RJAA,,,,0,20180119180000,-1,-1,-1,-1,340,-1,5,-1,-1,-1,-1,,9999,0,0,3,FEW 30   BKN 50   BKN 70,1,4,-1,0,1017,RJAA 191830Z 34005KT 9999 FEW030 BKN050 BKN070 04/M00 Q1017     NOSIG RMK 1CU030 5SC050 7AC070 A3004=,
20180119_190000.003,0,RJAA,,,,0,20180119190000,-1,-1,-1,-1,340,-1,6,-1,-1,-1,-1,,9999,0,0,3,FEW 30   BKN 50   BKN 70,1,4,-1,1,1017,RJAA 191900Z 34006KT 9999 FEW030 BKN050 BKN070 04/M01 Q1017     NOSIG RMK 1CU030 5SC050 7AC070 A3003=,
20180119_193000.001,0,RJAA,,,,0,20180119190000,-1,-1,-1,-1,320,-1,6,-1,-1,-1,-1,,9999,0,0,2,FEW 20   BKN 50,1,4,-1,1,1017,RJAA 191930Z 32006KT 9999 FEW020 BKN050 04/M01 Q1017 NOSIG RMK     1CU020 7SC050 A3005=,
20180119_200000.002,0,RJAA,,,,0,20180119200000,-1,-1,-1,-1,330,-1,7,-1,-1,-1,-1,,9999,0,1,2,FEW 20   BKN 50,1,3,-1,0,1017,RJAA 192000Z 33007KT 9999 -RA FEW020 BKN050 03/M00 Q1017 NOSIG     RMK 1CU020 7SC050 A3005=,- RA
20180119_203000.001,0,RJAA,,,,0,20180119200000,-1,-1,-1,-1,330,-1,7,-1,-1,-1,-1,,9999,0,1,2,FEW 30   BKN 60,1,3,-1,0,1018,RJAA 192030Z 33007KT 9999 -RA FEW030 BKN060 03/M00 Q1018 NOSIG     RMK 1CU030 7SC060 A3006=,- RA
20180119_210000.002,0,RJAA,,,,0,20180119210000,-1,-1,-1,-1,360,-1,6,-1,-1,-1,-1,,9999,0,1,2,FEW 30   BKN 50,1,4,-1,0,1018,RJAA 192100Z 36006KT 9999 -RA FEW030 BKN050 04/M00 Q1018 NOSIG     RMK 1CU030 7SC050 A3007=,- RA
20180119_213000.001,0,RJAA,,,,0,20180119210000,-1,-1,-1,-1,360,-1,6,-1,-1,-1,-1,,9999,0,1,2,SCT 25   BKN 50,1,4,1,0,1018,RJAA 192130Z 36006KT 9999 -RA SCT025 BKN050 04/00 Q1018 NOSIG     RMK 3SC025 7SC050 A3007=,- RA
20180119_220000.002,0,RJAA,,,,0,20180119220000,-1,-1,-1,-1,10,-1,6,-1,-1,-1,-1,,9999,0,1,2,FEW 25   BKN 60,1,4,1,0,1018,RJAA 192200Z 01006KT 9999 -RA FEW025 BKN060 04/00 Q1018 NOSIG     RMK 2SC025 7SC060 A3008=,- RA
20180119_223000.002,0,RJAA,,,,0,20180119220000,-1,-1,-1,-1,360,-1,5,-1,-1,-1,-1,,9999,0,1,2,FEW 25   BKN 50,1,4,1,1,1018,RJAA 192230Z 36005KT 9999 -RA FEW025 BKN050 04/01 Q1018 NOSIG     RMK 1SC025 7SC050 A3009=,- RA
20180119_230000.002,0,RJAA,,,,0,20180119230000,-1,-1,-1,-1,310,-1,5,-1,-1,-1,-1,,9999,0,1,2,FEW 25   BKN 50,1,4,1,1,1019,RJAA 192300Z 31005KT 9999 -RA FEW025 BKN050 04/01 Q1019 NOSIG     RMK 1SC025 7SC050 A3009=,- RA
20180119_233000.001,0,RJAA,,,,0,20180119230000,-1,-1,-1,-1,320,-1,4,-1,-1,-1,-1,,9999,0,0,2,FEW 25   BKN 50,1,5,1,1,1018,RJAA 192330Z 32004KT 9999 FEW025 BKN050 05/01 Q1018 NOSIG RMK     1SC025 7SC050 A3008=,
20180120_000000.002,0,RJAA,,,,0,20180120000000,-1,-1,-1,-1,320,-1,4,-1,-1,-1,-1,,9999,0,0,2,FEW 25   BKN 50,1,6,1,2,1018,RJAA 200000Z 32004KT 9999 FEW025 BKN050 06/02 Q1018 NOSIG RMK     1SC025 7SC050 A3008=,
20180120_003000.001,0,RJAA,,,,0,20180120000000,-1,-1,-1,-1,330,-1,5,-1,-1,-1,-1,,9999,0,0,2,FEW 20   BKN 50,1,6,1,1,1018,RJAA 200030Z 33005KT 9999 FEW020 BKN050 06/01 Q1018 NOSIG RMK     1SC020 7SC050 A3008=,
20180120_010000.002,0,RJAA,,,,0,20180120010000,-1,-1,-1,-1,330,-1,5,-1,-1,-1,-1,,9999,0,1,2,FEW 20   BKN 50,1,7,1,2,1018,RJAA 200100Z 33005KT 9999 -RA FEW020 BKN050 07/02 Q1018 NOSIG     RMK 1SC020 7SC050 A3008=,- RA
20180120_013000.001,0,RJAA,,,,0,20180120010000,-1,-1,-1,-1,340,-1,6,-1,-1,-1,-1,,9999,0,1,3,FEW 25   SCT 30   BKN 45,1,6,1,2,1018,RJAA 200130Z 34006KT 9999 -RA FEW025 SCT030 BKN045 06/02 Q1018     NOSIG RMK 1SC025 3SC030 7SC045 A3007=,- RA
20180120_020000.003,0,RJAA,,,,0,20180120020000,-1,-1,-1,-1,330,-1,4,-1,-1,-1,-1,,9999,0,1,3,FEW 25   SCT 30   BKN 40,1,6,1,3,1017,RJAA 200200Z 33004KT 9999 -RA FEW025 SCT030 BKN040 06/03 Q1017     NOSIG RMK 1SC025 3SC030 7SC040 A3005=,- RA
20180120_023000.001,0,RJAA,,,,0,20180120020000,-1,-1,-1,-1,330,-1,4,-1,-1,240,30,,9999,0,1,2,FEW 25   BKN 40,1,7,1,4,1017,RJAA 200230Z 33004KT 240V030 9999 -RA FEW025 BKN040 07/04     Q1017 NOSIG RMK 1SC025 7SC040 A3004=,- RA
20180120_030000.002,0,RJAA,,,,0,20180120030000,-1,-1,-1,-1,20,-1,5,-1,-1,350,60,,9999,0,1,2,FEW 25   BKN 40,1,7,1,4,1016,RJAA 200300Z 02005KT 350V060 9999 -RA FEW025 BKN040 07/04     Q1016 NOSIG RMK 1SC025 7SC040 A3002=,- RA
20180120_033000.001,0,RJAA,,,,0,20180120030000,-1,-1,-1,-1,30,-1,4,-1,-1,350,60,,9999,0,1,2,FEW 20   BKN 35,1,7,1,4,1016,RJAA 200330Z 03004KT 350V060 9999 -RA FEW020 BKN035 07/04     Q1016 NOSIG RMK 1CU020 7SC035 A3000=,- RA
20180120_040000.002,0,RJAA,,,,0,20180120040000,-1,-1,-1,-1,60,-1,4,-1,-1,-1,-1,,9999,0,0,2,FEW 20   BKN 35,1,7,1,4,1015,RJAA 200400Z 06004KT 9999 FEW020 BKN035 07/04 Q1015 BECMG     08005KT RMK 1CU020 7SC035 A2999=,
20180120_043000.001,0,RJAA,,,,0,20180120040000,-1,-1,-1,-1,80,-1,4,-1,-1,40,120,,9999,0,0,2,FEW 20   BKN 35,1,8,1,5,1015,RJAA 200430Z 08004KT 040V120 9999 FEW020 BKN035 08/05 Q1015     NOSIG RMK 1CU020 7SC035 A2998=,
20180120_050000.002,0,RJAA,,,,0,20180120050000,-1,-1,-1,-1,999,-1,3,-1,-1,-1,-1,,9999,0,0,2,FEW 20   BKN 35,1,8,1,5,1015,RJAA 200500Z VRB03KT 9999 FEW020 BKN035 08/05 Q1015 BECMG     10005KT RMK 1CU020 7SC035 A2998=,
20180120_053000.001,0,RJAA,,,,0,20180120050000,-1,-1,-1,-1,80,-1,4,-1,-1,40,120,,9999,0,0,2,FEW 20   BKN 35,1,8,1,5,1015,RJAA 200530Z 08004KT 040V120 9999 FEW020 BKN035 08/05 Q1015     NOSIG RMK 1CU020 7SC035 A2997=,
20180120_060000.002,0,RJAA,,,,0,20180120060000,-1,-1,-1,-1,70,-1,3,-1,-1,40,100,,9999,0,0,2,FEW 20   BKN 35,1,8,1,4,1015,RJAA 200600Z 07003KT 040V100 9999 FEW020 BKN035 08/04 Q1015     NOSIG RMK 1CU020 7SC035 A2999=,
20180120_063000.001,0,RJAA,,,,0,20180120060000,-1,-1,-1,-1,999,-1,2,-1,-1,-1,-1,,9999,0,1,2,FEW 20   BKN 35,1,8,1,4,1015,RJAA 200630Z VRB02KT 9999 -RA FEW020 BKN035 08/04 Q1015 BECMG     08005KT RMK 1CU020 7SC035 A3000 MOD ICING OBS AT 0618Z           18NM NE NARITA BTN 7000FT AND 6000FT IN DES A350 DAL275=,- RA
20180120_070000.002,0,RJAA,,,,0,20180120070000,-1,-1,-1,-1,999,-1,1,-1,-1,-1,-1,,9999,0,0,3,FEW 20   BKN 35   BKN 60,1,8,1,4,1016,RJAA 200700Z VRB01KT 9999 FEW020 BKN035 BKN060 08/04 Q1016     BECMG 04005KT RMK 1CU020 5SC035 6SC060 A3000=,
20180120_073000.001,0,RJAA,,,,0,20180120070000,-1,-1,-1,-1,150,-1,2,-1,-1,-1,-1,,9999,0,0,3,FEW 20   SCT 35   BKN 60,1,8,1,4,1016,RJAA 200730Z 15002KT 9999 FEW020 SCT035 BKN060 08/04 Q1016     BECMG 04005KT RMK 1CU020 3SC035 6SC060 A3000 MOD ICING           OBS AT 0725Z 30NM SE NARITA 8000FT IN DES B788 ANA920=,
20180120_080000.002,0,RJAA,,,,0,20180120080000,-1,-1,-1,-1,140,-1,3,-1,-1,-1,-1,,9999,0,0,1,FEW 20,1,7,1,4,1016,RJAA 200800Z 14003KT 9999 FEW020 07/04 Q1016 BECMG FM0930     04005KT RMK 1CU020 A3000=,
20180120_083000.001,0,RJAA,,,,0,20180120080000,-1,-1,-1,-1,160,-1,2,-1,-1,-1,-1,,9999,0,0,2,FEW 20   SCT -9999,1,5,1,4,1016,RJAA 200830Z 16002KT 9999 FEW020 SCT/// 05/04 Q1016 BECMG     FM0930 04005KT RMK 1CU020 A3000=,
20180120_090000.002,0,RJAA,,,,0,20180120090000,-1,-1,-1,-1,100,-1,3,-1,-1,50,170,,9999,0,1,2,FEW 20   SCT -9999,1,5,1,3,1016,RJAA 200900Z 10003KT 050V170 9999 MIFG FEW020 SCT/// 05/03     Q1016 BECMG FM0930 TL1030 04005KT RMK 1CU020 A3000=,MI FG
20180120_093000.001,0,RJAA,,,,0,20180120090000,-1,-1,-1,-1,70,-1,3,-1,-1,40,160,,9999,0,1,1,FEW 20,1,4,1,3,1016,RJAA 200930Z 07003KT 040V160 9999 MIFG FEW020 04/03 Q1016     BECMG TL1000 04005KT RMK 1CU020 A3001=,MI FG
20180120_100000.002,0,RJAA,,,,0,20180120100000,-1,-1,-1,-1,999,-1,2,-1,-1,-1,-1,,8000,0,1,1,FEW 20,1,3,1,2,1016,RJAA 201000Z VRB02KT 8000 MIFG FEW020 03/02 Q1016 BECMG     01005KT RMK 1CU020 A3001=,MI FG
20180120_103000.001,0,RJAA,,,,0,20180120100000,-1,-1,-1,-1,999,-1,1,-1,-1,-1,-1,,7000,0,2,2,FEW 20   SCT -9999,1,4,1,3,1016,RJAA 201030Z VRB01KT 7000 MIFG BR FEW020 SCT/// 04/03 Q1016     BECMG 01005KT RMK 1CU020 A3001 BR N=,MI FG; BR
20180120_110000.002,0,RJAA,,,,0,20180120110000,-1,-1,-1,-1,10,-1,3,-1,-1,-1,-1,,7000,0,2,1,FEW 20,1,5,1,4,1016,RJAA 201100Z 01003KT 7000 MIFG BR FEW020 05/04 Q1016 NOSIG RMK     1CU020 A3000 BR N=,MI FG; BR
20180120_113000.001,0,RJAA,,,,0,20180120110000,-1,-1,-1,-1,999,-1,2,-1,-1,-1,-1,,5000,2,2,1,FEW 20,1,4,1,3,1016,RJAA 201130Z VRB02KT 5000 R34L/P1800N R34R/P1800N BCFG BR     FEW020 04/03 Q1016 TEMPO 4000 BR RMK 1CU020 A3000 FG ON           RWY16L=,BC FG; BR
20180120_120000.002,0,RJAA,,,,0,20180120120000,-1,-1,-1,-1,999,-1,1,-1,-1,-1,-1,,5000,2,2,1,FEW 20,1,2,1,1,1016,RJAA 201200Z VRB01KT 5000 R34L/P1800N R34R/0800VP1800D MIFG BR     FEW020 02/01 Q1016 TEMPO 4000 BR RMK 1CU020 A3001=,MI FG; BR
20180120_123000.001,0,RJAA,,,,0,20180120120000,-1,-1,-1,-1,999,-1,2,-1,-1,-1,-1,,5000,2,2,2,FEW 20   SCT -9999,1,1,1,0,1016,RJAA 201230Z VRB02KT 5000 R34L/P1800N R34R/0450VP1800U BCFG BR     FEW020 SCT/// 01/00 Q1016 TEMPO 4000 BR RMK 1CU020 A3001           FG ON RWY34R AND RWY16L=,BC FG; BR
20180120_130000.002,0,RJAA,,,,0,20180120130000,-1,-1,-1,-1,310,-1,2,-1,-1,-1,-1,,5000,2,2,1,FEW 20,1,1,1,1,1016,RJAA 201300Z 31002KT 5000 R34L/P1800N R34R/0300V0750U BCFG BR     FEW020 01/01 Q1016 TEMPO 4000 BR RMK 1CU020 A3002 FG ON           RWY34R AND RWY16L=,BC FG; BR
20180120_133000.001,0,RJAA,,,,0,20180120130000,-1,-1,-1,-1,999,-1,2,-1,-1,-1,-1,,5000,2,2,2,FEW 10   SCT -9999,-1,0,-1,1,1017,RJAA 201330Z VRB02KT 5000 R34L/P1800N R34R/0300V0650D BCFG BR     FEW010 SCT/// M00/M01 Q1017 TEMPO 4000 BR RMK 1ST010           A3003 BCFG IS FREEZING AND ON RWY34R=,BC FG; BR
20180120_140000.002,0,RJAA,,,,0,20180120140000,-1,-1,-1,-1,320,-1,2,-1,-1,-1,-1,,5000,2,2,2,FEW 10   SCT -9999,-1,0,-1,0,1016,RJAA 201400Z 32002KT 5000 R34L/P1800N R34R/0300VP1800U BCFG BR     FEW010 SCT/// M00/M00 Q1016 TEMPO 4000 BR RMK 1ST010           A3003 BCFG IS FREEZING AND ON RWY34R=,BC FG; BR
20180120_143000.001,0,RJAA,,,,0,20180120140000,-1,-1,-1,-1,330,-1,1,-1,-1,-1,-1,,5000,2,2,2,FEW 2   BKN -9999,1,1,1,1,1016,RJAA 201430Z 33001KT 5000 R34L/P1800N R34R/0350V0750D BCFG BR     FEW002 BKN/// 01/01 Q1016 TEMPO 4000 BR RMK 1ST002 A3002           FG ON RWY34R=,BC FG; BR
20180120_150000.002,0,RJAA,,,,0,20180120150000,-1,-1,-1,-1,0,-1,0,-1,-1,-1,-1,,5000,2,2,2,FEW 1   BKN -9999,1,0,-1,0,1016,RJAA 201500Z 00000KT 5000 R34L/P1800N R34R/0250V0550D BCFG BR     FEW001 BKN/// 00/M00 Q1016 TEMPO 4000 BR RMK 1ST001 A3001           FG ON RWY34R=,BC FG; BR
20180120_153000.001,0,RJAA,,,,0,20180120150000,-1,-1,-1,-1,310,-1,1,-1,-1,-1,-1,,4000,2,2,2,FEW 1   BKN -9999,1,0,-1,0,1015,RJAA 201530Z 31001KT 4000 R34L/P1800N R34R/0250V0350N BCFG BR     FEW001 BKN/// 00/M00 Q1015 BECMG 2000 BR BCFG RMK 1ST001           A3000 FG ON RWY34R AND RWY16R AND RWY16L=,BC FG; BR
20180120_160000.002,0,RJAA,,,,0,20180120160000,-1,-1,-1,-1,999,-1,2,-1,-1,-1,-1,,4000,2,2,2,FEW 1   BKN -9999,1,0,1,0,1015,RJAA 201600Z VRB02KT 4000 R34L/P1800N R34R/0250V0500U BCFG BR     FEW001 BKN/// 00/00 Q1015 BECMG 2000 BR BCFG RMK 1ST001           A3000 FG ON RWY34R AND RWY16L=,BC FG; BR
20180120_163000.001,0,RJAA,,,,0,20180120160000,-1,-1,-1,-1,280,-1,1,-1,-1,-1,-1,,4000,2,2,2,FEW 1   SCT -9999,-1,0,-1,1,1015,RJAA 201630Z 28001KT 4000 R34L/P1800N R34R/0400VP1800U BCFG BR     FEW001 SCT/// M00/M01 Q1015 BECMG 2000 BR BCFG RMK 1ST001           A2999 BCFG IS FREEZING AND ON RWY34R AND RWY16L=,BC FG; BR
20180120_170000.002,0,RJAA,,,,0,20180120170000,-1,-1,-1,-1,330,-1,3,-1,-1,-1,-1,,3500,2,2,2,FEW 1   SCT -9999,-1,2,-1,2,1015,RJAA 201700Z 33003KT 3500 R34L/P1800N R34R/0300V0500D BCFG BR     FEW001 SCT/// M02/M02 Q1015 BECMG 2000 BR BCFG RMK 1ST001           A3000 BCFG IS FREEZING AND ON RWY34R AND RWY16L=,BC FG; BR
20180120_173000.001,0,RJAA,,,,0,20180120170000,-1,-1,-1,-1,330,-1,4,-1,-1,-1,-1,,2000,2,2,1,FEW 1,-1,1,-1,1,1015,RJAA 201730Z 33004KT 2000 R34L/0300VP1800D R34R/0300V0550U     BCFG BR FEW001 M01/M01 Q1015 TEMPO 0900 FG RMK 1ST001           A2999 BCFG IS FREEZING AND ON RWY34R AND RWY16R AND           RWY16L=,BC FG; BR
20180120_180000.002,0,RJAA,,,,0,20180120180000,-1,-1,-1,-1,330,-1,6,-1,-1,-1,-1,,800,2,1,2,FEW 1   SCT 2,-1,1,-1,2,1015,RJAA 201800Z 33006KT 0800 R34L/0350V0800U R34R/0300V0400N FZFG     FEW001 SCT002 M01/M02 Q1015 NOSIG RMK 1ST001 4ST002           A2999=,FZ FG
20180120_183000.001,0,RJAA,,,,0,20180120180000,-1,-1,-1,-1,330,-1,6,-1,-1,-1,-1,,800,2,1,3,FEW 1   SCT 2   BKN 4,-1,1,-1,2,1015,RJAA 201830Z 33006KT 0800 R34L/0300V0500D R34R/0300N FZFG     FEW001 SCT002 BKN004 M01/M02 Q1015 NOSIG RMK 2ST001           4ST002 5ST004 A2998=,FZ FG
20180120_190000.003,0,RJAA,,,,0,20180120190000,-1,-1,-1,-1,290,-1,3,-1,-1,-1,-1,,500,2,1,2,BKN 1   BKN 3,-1,0,-1,1,1015,RJAA 201900Z 29003KT 0500 R34L/0350VP1800D R34R/0350N FZFG     BKN001 BKN003 M00/M01 Q1015 NOSIG RMK 5ST001 7ST003           A2999=,FZ FG
20180120_193000.001,0,RJAA,,,,0,20180120190000,-1,-1,-1,-1,320,-1,3,-1,-1,-1,-1,,100,2,1,1,BKN 1,-1,0,-1,1,1015,RJAA 201930Z 32003KT 0100 R34L/0250N R34R/0300N FZFG BKN001     M00/M01 Q1015 NOSIG RMK 7ST001 A2998=,FZ FG
20180120_200000.002,0,RJAA,,,,0,20180120200000,-1,-1,-1,-1,320,-1,1,-1,-1,-1,-1,,200,2,1,1,BKN 1,-1,1,-1,1,1015,RJAA 202000Z 32001KT 0200 R34L/0200V0300N R34R/0250V0300N FZFG     BKN001 M01/M01 Q1015 NOSIG RMK 7ST001 A2998=,FZ FG
20180120_203000.001,0,RJAA,,,,0,20180120200000,-1,-1,-1,-1,320,-1,2,-1,-1,-1,-1,,400,2,1,1,BKN 1,-1,1,-1,1,1015,RJAA 202030Z 32002KT 0400 R16R/0300N R16L/0350V0550U FZFG     BKN001 M01/M01 Q1015 NOSIG RMK 7ST001 A2999=,FZ FG
20180120_210000.002,0,RJAA,,,,0,20180120210000,-1,-1,-1,-1,280,-1,2,-1,-1,-1,-1,,400,2,1,1,BKN 1,-1,1,-1,1,1015,RJAA 202100Z 28002KT 0400 R16R/0550V0800N R16L/0300V0550N FZFG     BKN001 M01/M01 Q1015 BECMG FM2200 2000 BR SCT001 BKN005           RMK 7ST001 A3000=,FZ FG
20180120_213000.001,0,RJAA,,,,0,20180120210000,-1,-1,-1,-1,290,-1,1,-1,-1,-1,-1,,800,2,1,1,BKN 1,-1,1,-1,1,1016,RJAA 202130Z 29001KT 0800 R16R/0400N R16L/0400V0600U FZFG     BKN001 M01/M01 Q1016 BECMG FM2200 3000 BR FEW001 SCT003           RMK 6ST001 A3000=,FZ FG
20180120_220000.002,0,RJAA,,,,0,20180120220000,-1,-1,-1,-1,320,-1,2,-1,-1,-1,-1,,1500,2,2,1,BKN 1,-1,2,-1,2,1016,RJAA 202200Z 32002KT 1500 R16R/0350V1600U R16L/0450N BCFG BR     BKN001 M02/M02 Q1016 BECMG 6000 NSW FEW001 SCT003 RMK           5ST001 A3001 BCFG IS FREEZING AND ON ALL RWY=,BC FG; BR
20180120_223000.001,0,RJAA,,,,0,20180120220000,-1,-1,-1,-1,999,-1,2,-1,-1,-1,-1,,1200,2,2,1,SCT 1,-1,1,-1,2,1016,RJAA 202230Z VRB02KT 1200 R16R/0750VP1800U R16L/0300V1100N     BCFG BR SCT001 M01/M02 Q1016 BECMG 6000 NSW RMK 4ST001           A3002 BCFG IS FREEZING AND ON ALL RWY=,BC FG; BR
20180120_230000.002,0,RJAA,,,,0,20180120230000,-1,-1,-1,-1,999,-1,1,-1,-1,-1,-1,,3200,2,2,1,FEW 1,-1,0,-1,0,1016,RJAA 202300Z VRB01KT 3200 R34L/P1800N R34R/0400V0800U BCFG BR     FEW001 M00/M00 Q1016 BECMG 6000 NSW RMK 2ST001 A3002 BCFG           IS FREEZING AND ON RWY34R AND RWY16L=,BC FG; BR
20180120_233000.001,0,RJAA,,,,0,20180120230000,-1,-1,-1,-1,320,-1,4,-1,-1,-1,-1,,5000,0,1,1,FEW 1,1,2,1,2,1016,RJAA 202330Z 32004KT 5000 BR FEW001 02/02 Q1016 NOSIG RMK     1ST001 A3003=,BR
20180121_000000.002,0,RJAA,,,,0,20180121000000,-1,-1,-1,-1,330,-1,8,-1,-1,-1,-1,,7000,0,0,1,FEW 15,1,3,1,3,1017,RJAA 210000Z 33008KT 7000 FEW015 03/03 Q1017 NOSIG RMK 1CU015     A3003=,
20180121_003000.001,0,RJAA,,,,0,20180121000000,-1,-1,-1,-1,330,-1,5,-1,-1,-1,-1,,9000,0,1,1,FEW 1,1,5,1,4,1017,RJAA 210030Z 33005KT 9000 VCFG FEW001 05/04 Q1017 NOSIG RMK     1ST001 A3004=,VC FG
20180121_010000.002,0,RJAA,,,,0,20180121010000,-1,-1,-1,-1,310,-1,5,-1,-1,-1,-1,,9000,0,0,2,FEW 15   BKN 35,1,5,1,3,1017,RJAA 210100Z 31005KT 9000 FEW015 BKN035 05/03 Q1017 NOSIG RMK     1CU015 5SC035 A3004=,
20180121_013000.001,0,RJAA,,,,0,20180121010000,-1,-1,-1,-1,300,-1,4,-1,-1,270,330,,9000,0,0,1,FEW 30,1,7,1,4,1016,RJAA 210130Z 30004KT 270V330 9000 FEW030 07/04 Q1016 NOSIG RMK     1CU030 A3002=,
20180121_020000.002,0,RJAA,,,,0,20180121020000,-1,-1,-1,-1,310,-1,3,-1,-1,260,30,,9000,0,0,1,FEW 20,1,8,1,3,1016,RJAA 210200Z 31003KT 260V030 9000 FEW020 08/03 Q1016 NOSIG RMK     1CU020 A3001=,
20180121_023000.001,0,RJAA,,,,0,20180121020000,-1,-1,-1,-1,999,-1,1,-1,-1,-1,-1,,9000,0,0,1,FEW 20,1,9,1,4,1015,RJAA 210230Z VRB01KT 9000 FEW020 09/04 Q1015 BECMG 04005KT RMK     1CU020 A2999=,
20180121_030000.002,0,RJAA,,,,0,20180121030000,-1,-1,-1,-1,999,-1,2,-1,-1,-1,-1,,9999,0,0,2,FEW 20   BKN 45,1,10,1,4,1015,RJAA 210300Z VRB02KT 9999 FEW020 BKN045 10/04 Q1015 NOSIG RMK     1CU020 6SC045 A2998=,
20180121_033000.001,0,RJAA,,,,0,20180121030000,-1,-1,-1,-1,999,-1,2,-1,-1,-1,-1,,9999,0,0,3,FEW 20   BKN 45   BKN -9999,1,10,1,4,1014,RJAA 210330Z VRB02KT 9999 FEW020 BKN045 BKN/// 10/04 Q1014     NOSIG RMK 1CU020 5SC045 A2996=,
20180121_040000.003,0,RJAA,,,,0,20180121040000,-1,-1,-1,-1,999,-1,2,-1,-1,-1,-1,,9999,0,0,3,FEW 20   SCT 30   BKN 40,1,10,1,4,1014,RJAA 210400Z VRB02KT 9999 FEW020 SCT030 BKN040 10/04 Q1014     BECMG 12005KT RMK 1CU020 3CU030 6SC040 A2995=,
20180121_043000.001,0,RJAA,,,,0,20180121040000,-1,-1,-1,-1,170,-1,4,-1,-1,140,210,,9999,0,0,2,FEW 25   SCT 40,1,10,1,3,1014,RJAA 210430Z 17004KT 140V210 9999 FEW025 SCT040 10/03 Q1014     NOSIG RMK 1CU025 4SC040 A2995=,
20180121_050000.002,0,RJAA,,,,0,20180121050000,-1,-1,-1,-1,999,-1,2,-1,-1,-1,-1,,9999,0,0,3,FEW 25   BKN 30   BKN 50,1,10,1,3,1014,RJAA 210500Z VRB02KT 9999 FEW025 BKN030 BKN050 10/03 Q1014     BECMG 12005KT RMK 1CU025 5CU030 7SC050 A2995=,
20180121_053000.001,0,RJAA,,,,0,20180121050000,-1,-1,-1,-1,90,-1,4,-1,-1,60,140,,9999,0,0,3,FEW 25   BKN 30   BKN 50,1,10,1,4,1014,RJAA 210530Z 09004KT 060V140 9999 FEW025 BKN030 BKN050 10/04     Q1014 NOSIG RMK 1CU025 5CU030 7SC050 A2995 MOD ICING OBS           AT 0506Z 30NM SE NARITA BTN 9000FT AND 6000FT IN DES A333           CRK608=,
20180121_060000.002,0,RJAA,,,,0,20180121060000,-1,-1,-1,-1,80,-1,5,-1,-1,-1,-1,,9999,0,0,2,FEW 25   SCT 50,1,10,1,4,1014,RJAA 210600Z 08005KT 9999 FEW025 SCT050 10/04 Q1014 NOSIG RMK     1CU025 3SC050 A2995 MOD TURB OBS AT 0545Z 10NM N BINKS           8000FT B738 ANA2178=,
20180121_063000.001,0,RJAA,,,,0,20180121060000,-1,-1,-1,-1,90,-1,4,-1,-1,-1,-1,,9999,0,0,1,FEW 25,1,9,1,4,1014,RJAA 210630Z 09004KT 9999 FEW025 09/04 Q1014 NOSIG RMK 1CU025     A2995=,
20180121_070000.002,0,RJAA,,,,0,20180121070000,-1,-1,-1,-1,110,-1,4,-1,-1,-1,-1,,9999,0,0,1,FEW 30,1,9,1,4,1014,RJAA 210700Z 11004KT 9999 FEW030 09/04 Q1014 NOSIG RMK 1CU030     A2995=,
20180121_073000.001,0,RJAA,,,,0,20180121070000,-1,-1,-1,-1,120,-1,5,-1,-1,-1,-1,,9999,0,0,1,FEW 30,1,8,1,4,1014,RJAA 210730Z 12005KT 9999 FEW030 08/04 Q1014 NOSIG RMK 1CU030     A2995 LIGHT PS TURB OBS AT 0702Z 15NM S NARITA BTN           12000FT AND 13000FT IN CMB A320 JJP513=,
20180121_080000.002,0,RJAA,,,,0,20180121080000,-1,-1,-1,-1,150,-1,4,-1,-1,-1,-1,,9999,0,0,1,FEW 30,1,7,1,4,1014,RJAA 210800Z 15004KT 9999 FEW030 07/04 Q1014 NOSIG RMK 1CU030     A2996=,
20180121_083000.001,0,RJAA,,,,0,20180121080000,-1,-1,-1,-1,160,-1,5,-1,-1,-1,-1,,9999,0,0,1,FEW 30,1,6,1,4,1014,RJAA 210830Z 16005KT 9999 FEW030 06/04 Q1014 NOSIG RMK 1CU030     A2996=,
20180121_090000.002,0,RJAA,,,,0,20180121090000,-1,-1,-1,-1,140,-1,3,-1,-1,-1,-1,,9999,0,0,1,FEW 30,1,5,1,3,1015,RJAA 210900Z 14003KT 9999 FEW030 05/03 Q1015 NOSIG RMK 1CU030     A2997=,
20180121_093000.001,0,RJAA,,,,0,20180121090000,-1,-1,-1,-1,140,-1,2,-1,-1,-1,-1,,9999,0,0,1,FEW 30,1,5,1,3,1015,RJAA 210930Z 14002KT 9999 FEW030 05/03 Q1015 BECMG 01005KT RMK     1CU030 A2998=,
20180121_100000.002,0,RJAA,,,,0,20180121100000,-1,-1,-1,-1,999,-1,1,-1,-1,-1,-1,,9999,0,0,1,FEW 30,1,4,1,2,1015,RJAA 211000Z VRB01KT 9999 FEW030 04/02 Q1015 BECMG 01005KT RMK     1CU030 A2999=,
20180121_103000.001,0,RJAA,,,,0,20180121100000,-1,-1,-1,-1,200,-1,1,-1,-1,-1,-1,,9999,0,1,1,FEW 30,1,4,1,3,1016,RJAA 211030Z 20001KT 9999 MIFG FEW030 04/03 Q1016 BECMG     01005KT RMK 1CU030 A3000=,MI FG
20180121_110000.002,0,RJAA,,,,0,20180121110000,-1,-1,-1,-1,340,-1,3,-1,-1,-1,-1,,9999,0,1,1,FEW 30,1,3,1,2,1016,RJAA 211100Z 34003KT 9999 MIFG FEW030 03/02 Q1016 NOSIG RMK     1CU030 A3002=,MI FG
20180121_113000.001,0,RJAA,,,,0,20180121110000,-1,-1,-1,-1,330,-1,4,-1,-1,-1,-1,,9999,0,0,2,FEW 25   SCT -9999,1,5,1,4,1017,RJAA 211130Z 33004KT 9999 FEW025 SCT/// 05/04 Q1017 NOSIG RMK     1CU025 A3003=,
20180121_120000.002,0,RJAA,,,,0,20180121120000,-1,-1,-1,-1,330,-1,3,-1,-1,-1,-1,,9999,0,0,2,FEW 25   SCT -9999,1,5,1,4,1017,RJAA 211200Z 33003KT 9999 FEW025 SCT/// 05/04 Q1017 NOSIG RMK     1CU025 A3004=,
20180121_123000.001,0,RJAA,,,,0,20180121120000,-1,-1,-1,-1,10,-1,8,-1,-1,-1,-1,,9999,0,0,2,FEW 25   SCT -9999,1,5,1,4,1017,RJAA 211230Z 01008KT 9999 FEW025 SCT/// 05/04 Q1017 NOSIG RMK     1CU025 A3004=,
20180121_130000.003,0,RJAA,,,,0,20180121130000,-1,-1,-1,-1,10,-1,10,-1,-1,-1,-1,,9999,0,0,2,FEW 25   BKN -9999,1,4,1,2,1017,RJAA 211300Z 01010KT 9999 FEW025 BKN/// 04/02 Q1017 NOSIG RMK     1CU025 A3005=,
20180121_133000.001,0,RJAA,,,,0,20180121130000,-1,-1,-1,-1,10,-1,11,-1,-1,-1,-1,,9999,0,0,3,FEW 20   BKN 25   BKN -9999,1,4,1,2,1018,RJAA 211330Z 01011KT 9999 FEW020 BKN025 BKN/// 04/02 Q1018     NOSIG RMK 1CU020 6SC025 A3006=,
20180121_140000.002,0,RJAA,,,,0,20180121140000,-1,-1,-1,-1,10,-1,11,-1,-1,-1,-1,,9999,0,0,2,FEW 20   BKN -9999,1,4,1,0,1017,RJAA 211400Z 01011KT 9999 FEW020 BKN/// 04/00 Q1017 NOSIG RMK     1CU020 A3006=,
20180121_143000.001,0,RJAA,,,,0,20180121140000,-1,-1,-1,-1,350,-1,9,-1,-1,-1,-1,,9999,0,0,2,FEW 30   BKN -9999,1,4,-1,0,1018,RJAA 211430Z 35009KT 9999 FEW030 BKN/// 04/M00 Q1018 NOSIG RMK     1CU030 A3007=,
20180121_150000.002,0,RJAA,,,,0,20180121150000,-1,-1,-1,-1,340,-1,8,-1,-1,-1,-1,,9999,0,0,2,FEW 30   BKN 35,1,4,-1,1,1018,RJAA 211500Z 34008KT 9999 FEW030 BKN035 04/M01 Q1018 NOSIG RMK     1CU030 7SC035 A3008=,
20180121_153000.001,0,RJAA,,,,0,20180121150000,-1,-1,-1,-1,10,-1,8,-1,-1,-1,-1,,9999,0,0,2,FEW 30   SCT 35,1,4,-1,1,1018,RJAA 211530Z 01008KT 9999 FEW030 SCT035 04/M01 Q1018 NOSIG RMK     1CU030 3SC035 A3008=,
20180121_160000.002,0,RJAA,,,,0,20180121160000,-1,-1,-1,-1,350,-1,6,-1,-1,-1,-1,,9999,0,0,2,FEW 30   SCT -9999,1,2,-1,2,1018,RJAA 211600Z 35006KT 9999 FEW030 SCT/// 02/M02 Q1018 NOSIG RMK     1CU030 A3008=,
20180121_163000.001,0,RJAA,,,,0,20180121160000,-1,-1,-1,-1,350,-1,9,-1,-1,-1,-1,,9999,0,0,1,FEW 30,1,3,-1,2,1018,RJAA 211630Z 35009KT 9999 FEW030 03/M02 Q1018 NOSIG RMK 1CU030     A3008=,
20180121_170000.002,0,RJAA,,,,0,20180121170000,-1,-1,-1,-1,330,-1,8,-1,-1,-1,-1,,9999,0,0,3,FEW 30   SCT 35   BKN -9999,1,2,-1,2,1019,RJAA 211700Z 33008KT 9999 FEW030 SCT035 BKN/// 02/M02 Q1019     NOSIG RMK 1CU030 4SC035 A3009=,
20180121_173000.001,0,RJAA,,,,0,20180121170000,-1,-1,-1,-1,350,-1,8,-1,-1,-1,-1,,9999,0,0,2,FEW 35   BKN 170,1,3,-1,3,1018,RJAA 211730Z 35008KT 9999 FEW035 BKN170 03/M03 Q1018 NOSIG RMK     1CU035 7AC170 A3008=,
20180121_180000.002,0,RJAA,,,,0,20180121180000,-1,-1,-1,-1,360,-1,9,-1,-1,-1,-1,,9999,0,0,2,FEW 35   BKN 160,1,2,-1,3,1018,RJAA 211800Z 36009KT 9999 FEW035 BKN160 02/M03 Q1018 NOSIG RMK     1CU035 7AC160 A3008=,
20180121_183000.001,0,RJAA,,,,0,20180121180000,-1,-1,-1,-1,10,-1,8,-1,-1,-1,-1,,9999,0,0,2,FEW 35   BKN 150,1,2,-1,3,1018,RJAA 211830Z 01008KT 9999 FEW035 BKN150 02/M03 Q1018 NOSIG RMK     1CU035 7AC150 A3007=,
20180121_190000.002,0,RJAA,,,,0,20180121190000,-1,-1,-1,-1,10,-1,7,-1,-1,-1,-1,,9999,0,0,2,FEW 30   BKN 170,1,2,-1,3,1018,RJAA 211900Z 01007KT 9999 FEW030 BKN170 02/M03 Q1018 NOSIG RMK     1CU030 7AC170 A3008=,
20180121_193000.001,0,RJAA,,,,0,20180121190000,-1,-1,-1,-1,10,-1,5,-1,-1,-1,-1,,9999,0,0,3,FEW 20   SCT 35   BKN -9999,1,2,-1,3,1019,RJAA 211930Z 01005KT 9999 FEW020 SCT035 BKN/// 02/M03 Q1019     NOSIG RMK 1CU020 3SC035 A3009=,
20180121_200000.002,0,RJAA,,,,0,20180121200000,-1,-1,-1,-1,350,-1,6,-1,-1,-1,-1,,9999,0,0,3,FEW 20   SCT 40   BKN -9999,1,2,-1,3,1019,RJAA 212000Z 35006KT 9999 FEW020 SCT040 BKN/// 02/M03 Q1019     NOSIG RMK 1CU020 3SC040 A3010=,
20180121_203000.001,0,RJAA,,,,0,20180121200000,-1,-1,-1,-1,360,-1,7,-1,-1,-1,-1,,9999,0,0,3,FEW 20   BKN 45   BKN -9999,1,2,-1,3,1019,RJAA 212030Z 36007KT 9999 FEW020 BKN045 BKN/// 02/M03 Q1019     NOSIG RMK 1CU020 5SC045 A3011=,
20180121_210000.002,0,RJAA,,,,0,20180121210000,-1,-1,-1,-1,360,-1,8,-1,-1,-1,-1,,9999,0,0,3,FEW 20   BKN 45   BKN 60,1,2,-1,3,1020,RJAA 212100Z 36008KT 9999 FEW020 BKN045 BKN060 02/M03 Q1020     NOSIG RMK 1CU020 5SC045 7SC060 A3012=,
20180121_213000.001,0,RJAA,,,,0,20180121210000,-1,-1,-1,-1,20,-1,7,-1,-1,-1,-1,,9999,0,0,3,FEW 20   SCT 40   BKN 60,1,3,-1,2,1020,RJAA 212130Z 02007KT 9999 FEW020 SCT040 BKN060 03/M02 Q1020     NOSIG RMK 1CU020 4SC040 7SC060 A3012=,
20180121_220000.002,0,RJAA,,,,0,20180121220000,-1,-1,-1,-1,10,-1,8,-1,-1,-1,-1,,9999,0,0,3,FEW 20   SCT 35   BKN 60,1,2,-1,2,1020,RJAA 212200Z 01008KT 9999 FEW020 SCT035 BKN060 02/M02 Q1020     NOSIG RMK 1CU020 4SC035 6SC060 A3012=,
20180121_223000.002,0,RJAA,,,,0,20180121220000,-1,-1,-1,-1,10,-1,8,-1,-1,-1,-1,,9999,0,0,3,FEW 20   BKN 45   BKN 70,1,3,-1,1,1020,RJAA 212230Z 01008KT 9999 FEW020 BKN045 BKN070 03/M01 Q1020     NOSIG RMK 1CU020 5SC045 7AC070 A3013=,
20180121_230000.002,0,RJAA,,,,0,20180121230000,-1,-1,-1,-1,10,-1,9,-1,-1,-1,-1,,9999,0,0,2,FEW 30   BKN 35,1,3,-1,1,1020,RJAA 212300Z 01009KT 9999 FEW030 BKN035 03/M01 Q1020 NOSIG RMK     1CU030 7SC035 A3013=,
20180121_233000.001,0,RJAA,,,,0,20180121230000,-1,-1,-1,-1,20,-1,7,-1,-1,-1,-1,,9999,0,0,2,FEW 30   BKN 35,1,5,-1,0,1020,RJAA 212330Z 02007KT 9999 FEW030 BKN035 05/M00 Q1020 NOSIG RMK     1CU030 7SC035 A3012=,
20180122_000000.002,0,RJAA,,,,0,20180122000000,-1,-1,-1,-1,50,-1,12,-1,-1,10,70,,9999,0,0,2,FEW 25   BKN 30,1,6,1,0,1020,RJAA 220000Z 05012KT 010V070 9999 FEW025 BKN030 06/00 Q1020     NOSIG RMK 1CU025 7SC030 A3013=,
20180122_003000.001,0,RJAA,,,,0,20180122000000,-1,-1,-1,-1,40,-1,15,-1,-1,-1,-1,,9999,0,0,2,FEW 25   BKN 30,1,5,-1,0,1020,RJAA 220030Z 04015KT 9999 FEW025 BKN030 05/M00 Q1020 NOSIG RMK     1CU025 7SC030 A3013=,
20180122_010000.002,0,RJAA,,,,0,20180122010000,-1,-1,-1,-1,40,-1,17,-1,-1,-1,-1,,9999,0,0,2,FEW 25   BKN 30,1,5,-1,1,1019,RJAA 220100Z 04017KT 9999 FEW025 BKN030 05/M01 Q1019 NOSIG RMK     1CU025 7SC030 A3012=,
20180122_013000.001,0,RJAA,,,,0,20180122010000,-1,-1,-1,-1,30,-1,14,-1,-1,-1,-1,,9999,0,1,2,FEW 20   BKN 30,1,5,-1,1,1019,RJAA 220130Z 03014KT 9999 -RA FEW020 BKN030 05/M01 Q1019 NOSIG     RMK 1CU020 7SC030 A3010=,- RA
20180122_020000.002,0,RJAA,,,,0,20180122020000,-1,-1,-1,-1,30,-1,14,-1,-1,-1,-1,,9999,0,1,2,FEW 15   BKN 25,1,4,1,1,1018,RJAA 220200Z 03014KT 9999 -RA FEW015 BKN025 04/01 Q1018 WS     R34L TEMPO 03015G25KT RMK 1CU015 7SC025 A3009=,- RA
20180122_023000.001,0,RJAA,,,,0,20180122020000,-1,-1,-1,-1,30,-1,13,-1,-1,360,60,,6000,0,1,3,FEW 9   BKN 15   BKN 25,1,4,1,1,1018,RJAA 220230Z 03013KT 360V060 6000 -RASN FEW009 BKN015 BKN025     04/01 Q1018 TEMPO 03015G25KT FEW008 BKN012 RMK 1ST009           5SC015 7SC025 A3006=,- RA SN
20180122_030000.002,0,RJAA,,,,0,20180122030000,-1,-1,-1,-1,30,-1,13,-1,-1,-1,-1,,5000,0,2,3,FEW 7   BKN 12   BKN 20,1,3,1,1,1017,RJAA 220300Z 03013KT 5000 -RA BR FEW007 BKN012 BKN020 03/01     Q1017 TEMPO 4000 -RASN BR FEW005 BKN008 RMK 2ST007 5SC012           7SC020 A3004=,- RA; BR
20180122_033000.001,0,RJAA,,,,0,20180122030000,-1,-1,-1,-1,30,-1,12,-1,-1,-1,-1,,7000,0,1,3,FEW 5   SCT 8   BKN 12,1,3,1,1,1016,RJAA 220330Z 03012KT 7000 -RA FEW005 SCT008 BKN012 03/01 Q1016     TEMPO FEW005 BKN008 RMK 1ST005 4ST008 7SC012 A3003=,- RA
20180122_040000.002,0,RJAA,,,,0,20180122040000,-1,-1,-1,-1,30,-1,16,-1,-1,-1,-1,,8000,0,1,3,FEW 5   SCT 8   BKN 12,1,3,1,2,1016,RJAA 220400Z 03016KT 8000 -RA FEW005 SCT008 BKN012 03/02 Q1016     TEMPO 03016G26KT FEW005 BKN008 RMK 1ST005 4ST008 7SC012           A3001 LIGHT TO MOD TURB OBS AT 0345Z 45NM NE NARITA BTN           FL160 AND 12000FT IN DES A333 CCA925=,- RA
20180122_043000.001,0,RJAA,,,,0,20180122040000,-1,-1,-1,-1,20,-1,15,-1,25,-1,-1,,9999,0,1,3,FEW 7   SCT 9   BKN 12,1,3,1,1,1015,RJAA 220430Z 02015G25KT 9999 -RA FEW007 SCT009 BKN012 03/01     Q1015 TEMPO FEW005 BKN008 RMK 1ST007 4ST009 7SC012 A2999=,- RA
20180122_050000.002,0,RJAA,,,,0,20180122050000,-1,-1,-1,-1,30,-1,16,-1,-1,-1,-1,,5000,0,2,3,FEW 7   SCT 9   BKN 12,1,3,1,1,1015,RJAA 220500Z 03016KT 5000 -RA BR FEW007 SCT009 BKN012 03/01     Q1015 TEMPO 03018G28KT 4000 -RASN BR FEW005 BKN008 RMK           1ST007 4ST009 7SC012 A2997=,- RA; BR
20180122_053000.001,0,RJAA,,,,0,20180122050000,-1,-1,-1,-1,30,-1,17,-1,-1,-1,-1,,8000,0,1,3,FEW 5   SCT 8   BKN 13,1,3,1,1,1013,RJAA 220530Z 03017KT 8000 -RA FEW005 SCT008 BKN013 03/01 Q1013     WS R34R TEMPO 03018G28KT FEW005 BKN008 RMK 1ST005 3ST008           7SC013 A2994 P/FR=,- RA
20180122_060000.003,0,RJAA,,,,0,20180122060000,-1,-1,-1,-1,20,-1,17,-1,-1,-1,-1,,8000,0,1,3,FEW 5   SCT 8   BKN 13,1,2,1,1,1013,RJAA 220600Z 02017KT 8000 -RA FEW005 SCT008 BKN013 02/01 Q1013     TEMPO 03018G28KT FEW005 BKN008 RMK 1ST005 3ST008 7SC013           A2993=,- RA
20180122_063000.001,0,RJAA,,,,0,20180122060000,-1,-1,-1,-1,10,-1,18,-1,-1,-1,-1,,6000,0,1,3,FEW 5   SCT 8   BKN 13,1,2,1,1,1013,RJAA 220630Z 01018KT 6000 -RA FEW005 SCT008 BKN013 02/01 Q1013     TEMPO 03018G28KT 4000 -RASN BR FEW005 BKN008 RMK 1ST005           4ST008 7SC013 A2992=,- RA
20180122_070000.002,0,RJAA,,,,0,20180122070000,-1,-1,-1,-1,360,-1,17,-1,-1,-1,-1,,4000,0,2,3,FEW 4   BKN 8   BKN 10,1,2,1,1,1013,RJAA 220700Z 36017KT 4000 -SNRA BR FEW004 BKN008 BKN010 02/01     Q1013 TEMPO 03018G28KT RMK 1ST004 5ST008 7ST010 A2991=,- SN RA; BR
20180122_073000.001,0,RJAA,,,,0,20180122070000,-1,-1,-1,-1,350,-1,13,-1,-1,-1,-1,,1600,0,2,3,FEW 3   SCT 6   BKN 8,1,1,1,0,1012,RJAA 220730Z 35013KT 1600 -SN BR FEW003 SCT006 BKN008 01/00     Q1012 TEMPO 1200 -SN BR FEW003 BKN004 RMK 1ST003 4ST006           7ST008 A2990=,- SN; BR
20180122_080000.003,0,RJAA,,,,0,20180122080000,-1,-1,-1,-1,360,-1,17,-1,-1,-1,-1,,900,2,2,2,FEW 2   BKN 4,1,0,-1,0,1011,RJAA 220800Z 36017KT 0900 R34L/P1800N R34R/P1800N SN BR FEW002     BKN004 00/M00 Q1011 NOSIG RMK 1ST002 7ST004 A2987 2000S=,SN; BR
20180122_083000.001,0,RJAA,,,,0,20180122080000,-1,-1,-1,-1,350,-1,18,-1,-1,-1,-1,,800,2,2,2,FEW 2   BKN 4,1,0,-1,0,1012,RJAA 220830Z 35018KT 0800 R34L/1800N R34R/1700N SN BR FEW002     BKN004 00/M00 Q1012 TEMPO 0700 SN RMK 1ST002 7ST004 A2988           MOD TURB OBS AT 0808Z 5NM NE HOKUSO 10000FT IN CMB B77W           CPA521 AND MOD TURB OBS AT 0820Z 10NM N MELON 9000FT IN           DES B763 ANA928=,SN; BR
20180122_090000.002,0,RJAA,,,,0,20180122090000,-1,-1,-1,-1,350,-1,20,-1,-1,-1,-1,,700,2,2,3,FEW 2   BKN 3   BKN 4,1,0,-1,1,1011,RJAA 220900Z 35020KT 0700 R34L/1600U R34R/1100N SN BR FEW002     BKN003 BKN004 00/M01 Q1011 TEMPO 0500 SN RMK 1ST002           6ST003 7ST004 A2987=,SN; BR
20180122_093000.001,0,RJAA,,,,0,20180122090000,-1,-1,-1,-1,340,-1,16,-1,-1,-1,-1,,700,2,2,2,FEW 2   BKN 3,1,0,-1,1,1011,RJAA 220930Z 34016KT 0700 R34L/1400N R34R/1100D SN BR FEW002     BKN003 00/M01 Q1011 TEMPO 0500 SN RMK 1ST002 7ST003           A2986=,SN; BR
20180122_100000.002,0,RJAA,,,,0,20180122100000,-1,-1,-1,-1,350,-1,16,-1,-1,-1,-1,,800,2,2,2,FEW 2   BKN 3,1,0,-1,0,1009,RJAA 221000Z 35016KT 0800 R34L/1700D R34R/1500D SN BR FEW002     BKN003 00/M00 Q1009 TEMPO 0500 SN RMK 1ST002 7ST003 A2982           P/FR=,SN; BR
20180122_103000.001,0,RJAA,,,,0,20180122100000,-1,-1,-1,-1,350,-1,18,-1,-1,-1,-1,,900,2,2,3,FEW 2   BKN 3   BKN 4,1,0,-1,0,1008,RJAA 221030Z 35018KT 0900 R34L/P1800U R34R/1400U SN BR FEW002     BKN003 BKN004 00/M00 Q1008 TEMPO 0700 SN RMK 1ST002           6ST003 7ST004 A2979 1800S P/FR=,SN; BR
20180122_110000.003,0,RJAA,,,,0,20180122110000,-1,-1,-1,-1,340,-1,17,-1,-1,-1,-1,,700,2,2,3,FEW 2   SCT 3   BKN 4,1,0,-1,0,1008,RJAA 221100Z 34017KT 0700 R34L/P1800N R34R/1700U SN BR FEW002     SCT003 BKN004 00/M00 Q1008 TEMPO 0500 SN RMK 1ST002           4ST003 6ST004 A2977=,SN; BR
20180122_113000.001,0,RJAA,,,,0,20180122110000,-1,-1,-1,-1,330,-1,18,-1,-1,-1,-1,,600,2,2,3,FEW 2   BKN 3   BKN 4,1,0,-1,0,1008,RJAA 221130Z 33018KT 0600 R34L/P1800N R34R/1500N SN BR FEW002     BKN003 BKN004 00/M00 Q1008 TEMPO 0500 SN RMK 1ST002           6ST003 7ST004 A2977=,SN; BR
20180122_120000.002,0,RJAA,,,,0,20180122120000,-1,-1,-1,-1,320,-1,18,-1,-1,280,350,,800,2,2,3,FEW 2   BKN 3   BKN 4,1,0,-1,0,1007,RJAA 221200Z 32018KT 280V350 0800 R34L/P1800N R34R/1200V1700D     SN BR FEW002 BKN003 BKN004 00/M00 Q1007 TEMPO 0500 SN RMK           1ST002 6ST003 7ST004 A2976=,SN; BR
20180122_123000.001,0,RJAA,,,,0,20180122120000,-1,-1,-1,-1,330,-1,21,-1,-1,-1,-1,,800,2,2,3,FEW 2   SCT 3   BKN 4,1,0,-1,0,1007,RJAA 221230Z 33021KT 0800 R34L/1600D R34R/1400D SN BR FEW002     SCT003 BKN004 00/M00 Q1007 TEMPO 0500 SN RMK 1ST002           4ST003 7ST004 A2976=,SN; BR
20180122_130000.003,0,RJAA,,,,0,20180122130000,-1,-1,-1,-1,340,-1,22,-1,-1,-1,-1,,800,2,2,3,FEW 2   SCT 3   BKN 4,1,0,-1,0,1005,RJAA 221300Z 34022KT 0800 R34L/1500N R34R/1500N SN BR FEW002     SCT003 BKN004 00/M00 Q1005 TEMPO 0700 SN RMK 1ST002           3ST003 7ST004 A2970 P/FR=,SN; BR
20180122_133000.001,0,RJAA,,,,0,20180122130000,-1,-1,-1,-1,340,-1,20,-1,-1,-1,-1,,1600,2,2,3,FEW 2   BKN 5   BKN 7,1,0,-1,0,1005,RJAA 221330Z 34020KT 1600 R34L/P1800N R34R/P1800N -SN BR     FEW002 BKN005 BKN007 00/M00 Q1005 NOSIG RMK 1ST002 5ST005           7ST007 A2969=,- SN; BR
20180122_140000.003,0,RJAA,,,,0,20180122140000,-1,-1,-1,-1,340,-1,23,-1,-1,-1,-1,,3000,0,2,3,FEW 3   BKN 7   BKN 15,1,0,-1,0,1005,RJAA 221400Z 34023KT 3000 -RASN BR FEW003 BKN007 BKN015 00/M00     Q1005 NOSIG RMK 1ST003 5ST007 7SC015 A2968=,- RA SN; BR
20180122_143000.001,0,RJAA,,,,0,20180122140000,-1,-1,-1,-1,330,-1,19,-1,-1,-1,-1,,1600,0,2,3,FEW 3   SCT 5   BKN 7,1,0,-1,1,1005,RJAA 221430Z 33019KT 1600 -SNRA BR FEW003 SCT005 BKN007 00/M01     Q1005 NOSIG RMK 1ST003 3ST005 7ST007 A2969=,- SN RA; BR
20180122_150000.002,0,RJAA,,,,0,20180122150000,-1,-1,-1,-1,330,-1,21,-1,-1,-1,-1,,2500,0,2,3,FEW 3   SCT 7   BKN 12,1,0,-1,0,1005,RJAA 221500Z 33021KT 2500 -SN BR FEW003 SCT007 BKN012 00/M00     Q1005 TEMPO FEW003 BKN007 RMK 1ST003 4ST007 6SC012 A2969=,- SN; BR
20180122_153000.001,0,RJAA,,,,0,20180122150000,-1,-1,-1,-1,330,-1,19,-1,-1,-1,-1,,9999,0,1,2,FEW 5   BKN 45,1,1,-1,0,1005,RJAA 221530Z 33019KT 9999 -SNRA FEW005 BKN045 01/M00 Q1005     NOSIG RMK 1ST005 7SC045 A2968=,- SN RA
20180122_160000.002,0,RJAA,,,,0,20180122160000,-1,-1,-1,-1,320,-1,14,-1,-1,-1,-1,,9999,0,0,3,FEW 15   SCT 35   BKN 60,1,1,-1,1,1005,RJAA 221600Z 32014KT 9999 FEW015 SCT035 BKN060 01/M01 Q1005     NOSIG RMK 1SC015 3SC035 7SC060 A2969=,
20180122_163000.001,0,RJAA,,,,0,20180122160000,-1,-1,-1,-1,320,-1,13,-1,-1,-1,-1,,9999,0,0,2,FEW 15   BKN 70,1,1,-1,1,1005,RJAA 221630Z 32013KT 9999 FEW015 BKN070 01/M01 Q1005 NOSIG RMK     1SC015 7AC070 A2970=,
20180122_170000.002,0,RJAA,,,,0,20180122170000,-1,-1,-1,-1,290,-1,9,-1,-1,-1,-1,,9999,0,0,3,FEW 15   SCT 60   BKN 100,-1,0,-1,1,1006,RJAA 221700Z 29009KT 9999 FEW015 SCT060 BKN100 M00/M01 Q1006     NOSIG RMK 1SC015 4SC060 7AC100 A2972=,
20180122_173000.001,0,RJAA,,,,0,20180122170000,-1,-1,-1,-1,300,-1,8,-1,-1,-1,-1,,9999,0,0,3,FEW 15   SCT 40   BKN 90,-1,0,-1,1,1006,RJAA 221730Z 30008KT 9999 FEW015 SCT040 BKN090 M00/M01 Q1006     NOSIG RMK 1SC015 3SC040 7AC090 A2972=,
20180122_180000.002,0,RJAA,,,,0,20180122180000,-1,-1,-1,-1,300,-1,7,-1,-1,-1,-1,,9999,0,0,3,FEW 15   SCT 50   BKN 90,-1,1,-1,2,1006,RJAA 221800Z 30007KT 9999 FEW015 SCT050 BKN090 M01/M02 Q1006     NOSIG RMK 1SC015 3SC050 6AC090 A2971=,
20180122_183000.001,0,RJAA,,,,0,20180122180000,-1,-1,-1,-1,280,-1,6,-1,-1,-1,-1,,9999,0,0,2,FEW 15   BKN 90,-1,1,-1,1,1006,RJAA 221830Z 28006KT 9999 FEW015 BKN090 M01/M01 Q1006 NOSIG     RMK 1SC015 7AC090 A2972=,
20180122_190000.002,0,RJAA,,,,0,20180122190000,-1,-1,-1,-1,270,-1,6,-1,-1,-1,-1,,9999,0,0,3,FEW 15   BKN 60   BKN 90,-1,0,-1,1,1006,RJAA 221900Z 27006KT 9999 FEW015 BKN060 BKN090 M00/M01 Q1006     NOSIG RMK 1SC015 6SC060 7AC090 A2973=,
20180122_193000.001,0,RJAA,,,,0,20180122190000,-1,-1,-1,-1,260,-1,4,-1,-1,-1,-1,,9999,0,0,2,FEW 15   BKN 80,-1,0,-1,1,1007,RJAA 221930Z 26004KT 9999 FEW015 BKN080 M00/M01 Q1007 NOSIG     RMK 1SC015 7AC080 A2974=,
20180122_200000.002,0,RJAA,,,,0,20180122200000,-1,-1,-1,-1,260,-1,4,-1,-1,-1,-1,,9999,0,0,2,FEW 15   BKN 80,-1,1,-1,1,1007,RJAA 222000Z 26004KT 9999 FEW015 BKN080 M01/M01 Q1007 NOSIG     RMK 1SC015 6AC080 A2974=,
20180122_203000.001,0,RJAA,,,,0,20180122200000,-1,-1,-1,-1,240,-1,3,-1,-1,-1,-1,,9000,0,0,2,FEW 15   SCT 80,-1,1,-1,2,1006,RJAA 222030Z 24003KT 9000 FEW015 SCT080 M01/M02 Q1006 NOSIG     RMK 1SC015 3AC080 A2973=,
20180122_210000.003,0,RJAA,,,,0,20180122210000,-1,-1,-1,-1,230,-1,3,-1,-1,-1,-1,,8000,0,1,1,FEW 15,-1,2,-1,2,1006,RJAA 222100Z 23003KT 8000 MIFG FEW015 M02/M02 Q1006 TEMPO 4000     BR RMK 1SC015 A2973 MIFG IS FREEZING=,MI FG
20180122_213000.001,0,RJAA,,,,0,20180122210000,-1,-1,-1,-1,220,-1,4,-1,-1,-1,-1,,5000,0,2,1,FEW 20,-1,2,-1,3,1007,RJAA 222130Z 22004KT 5000 MIFG BR FEW020 M02/M03 Q1007 TEMPO     4000 BR RMK 1CU020 A2974 MIFG IS FREEZING=,MI FG; BR
20180122_220000.002,0,RJAA,,,,0,20180122220000,-1,-1,-1,-1,250,-1,3,-1,-1,-1,-1,,7000,0,1,1,FEW 20,-1,2,-1,3,1007,RJAA 222200Z 25003KT 7000 MIFG FEW020 M02/M03 Q1007 BECMG     23005KT RMK 1CU020 A2975 MIFG IS FREEZING=,MI FG
20180122_223000.002,0,RJAA,,,,0,20180122220000,-1,-1,-1,-1,220,-1,2,-1,-1,-1,-1,,8000,0,1,1,FEW 20,-1,2,-1,3,1007,RJAA 222230Z 22002KT 8000 MIFG FEW020 M02/M03 Q1007 NOSIG RMK     1CU020 A2975 MIFG IS FREEZING=,MI FG
20180122_230000.003,0,RJAA,,,,0,20180122230000,-1,-1,-1,-1,0,-1,0,-1,-1,-1,-1,,9000,2,1,1,FEW 20,-1,3,-1,4,1007,RJAA 222300Z 00000KT 9000 R16R/1100VP1800U R16L/0550VP1800D     MIFG FEW020 M03/M04 Q1007 BECMG 23005KT RMK 1CU020 A2975           MIFG IS FREEZING=,MI FG
20180122_233000.001,0,RJAA,,,,0,20180122230000,-1,-1,-1,-1,160,-1,2,-1,-1,-1,-1,,9999,2,1,1,FEW 20,-1,1,-1,2,1006,RJAA 222330Z 16002KT 9999 R16R/0150VP1800U R16L/P1800N BCFG     FEW020 M01/M02 Q1006 NOSIG RMK 1CU020 A2973 BCFG IS           FREEZING AND ON RWY16R=,BC FG
20180123_000000.002,0,RJAA,,,,0,20180123000000,-1,-1,-1,-1,999,-1,1,-1,-1,-1,-1,,9000,0,1,1,FEW 20,-1,0,-1,1,1006,RJAA 230000Z VRB01KT 9000 MIFG FEW020 M00/M01 Q1006 BECMG     23005KT RMK 1CU020 A2973 MIFG IS FREEZING=,MI FG
20180123_003000.001,0,RJAA,,,,0,20180123000000,-1,-1,-1,-1,150,-1,6,-1,-1,-1,-1,,9000,0,0,1,FEW 20,1,1,1,0,1006,RJAA 230030Z 15006KT 9000 FEW020 01/00 Q1006 NOSIG RMK 1CU020     A2971=,
20180123_010000.002,0,RJAA,,,,0,20180123010000,-1,-1,-1,-1,150,-1,5,-1,-1,120,180,,9999,0,0,1,FEW 20,1,3,-1,0,1005,RJAA 230100Z 15005KT 120V180 9999 FEW020 03/M00 Q1005 NOSIG     RMK 1CU020 A2969=,
20180123_013000.001,0,RJAA,,,,0,20180123010000,-1,-1,-1,-1,160,-1,6,-1,-1,140,220,,9999,0,0,1,FEW 20,1,4,1,1,1004,RJAA 230130Z 16006KT 140V220 9999 FEW020 04/01 Q1004 BECMG     23014KT RMK 1CU020 A2966=,
20180123_020000.002,0,RJAA,,,,0,20180123020000,-1,-1,-1,-1,170,-1,6,-1,-1,150,230,,9999,0,0,1,FEW 20,1,5,1,2,1003,RJAA 230200Z 17006KT 150V230 9999 FEW020 05/02 Q1003 BECMG     23014KT TEMPO 23015G27KT RMK 1CU020 A2963 P/FR=,
20180123_023000.001,0,RJAA,,,,0,20180123020000,-1,-1,-1,-1,210,-1,9,-1,-1,-1,-1,,9999,0,0,1,FEW 20,1,7,1,3,1002,RJAA 230230Z 21009KT 9999 FEW020 07/03 Q1002 TEMPO 23015G27KT     RMK 1CU020 A2959 P/FR=,
20180123_030000.003,0,RJAA,,,,0,20180123030000,-1,-1,-1,-1,220,-1,9,-1,-1,-1,-1,,9999,0,0,1,FEW 20,1,8,1,3,1001,RJAA 230300Z 22009KT 9999 FEW020 08/03 Q1001 TEMPO 23016G28KT     RMK 1CU020 A2957=,
20180123_033000.001,0,RJAA,,,,0,20180123030000,-1,-1,-1,-1,220,-1,17,-1,-1,-1,-1,,9999,0,0,1,FEW 20,1,9,1,3,1001,RJAA 230330Z 22017KT 9999 FEW020 09/03 Q1001 TEMPO 23018G30KT     RMK 1CU020 A2956=,
20180123_040000.003,0,RJAA,,,,0,20180123040000,-1,-1,-1,-1,220,-1,20,-1,32,190,260,,9999,0,0,1,FEW 20,1,9,1,2,1000,RJAA 230400Z 22020G32KT 190V260 9999 FEW020 09/02 Q1000 NOSIG     RMK 1CU020 A2954=,
20180123_043000.001,0,RJAA,,,,0,20180123040000,-1,-1,-1,-1,220,-1,18,-1,30,190,250,,9999,0,0,1,FEW 20,1,9,1,2,1000,RJAA 230430Z 22018G30KT 190V250 9999 FEW020 09/02 Q1000 NOSIG     RMK 1CU020 A2954 MOD TURB OBS AT 0425Z 1NM S NARITA           1000FT AND BLW IN CMB B77W AFR275=,
20180123_050000.002,0,RJAA,,,,0,20180123050000,-1,-1,-1,-1,230,-1,21,-1,34,-1,-1,,9999,0,0,1,FEW 20,1,9,1,1,1000,RJAA 230500Z 23021G34KT 9999 FEW020 09/01 Q1000 NOSIG RMK     1CU020 A2955 LIGHT TO MOD TURB OBS AT 0450Z ON DEP COURSE           RWY16R 1000FT AND BLW IN CMB B772 CPA523=,
20180123_053000.001,0,RJAA,,,,0,20180123050000,-1,-1,-1,-1,240,-1,17,-1,30,210,270,,9999,0,0,1,FEW 20,1,10,1,1,1001,RJAA 230530Z 24017G30KT 210V270 9999 FEW020 10/01 Q1001 BECMG     23016KT RMK 1CU020 A2956=,
20180123_060000.003,0,RJAA,,,,0,20180123060000,-1,-1,-1,-1,240,-1,15,-1,26,210,280,,9999,0,0,1,FEW 20,1,10,1,0,1002,RJAA 230600Z 24015G26KT 210V280 9999 FEW020 10/00 Q1002 BECMG     25014KT RMK 1CU020 A2959 MOD TURB OBS AT 0541Z 25NM E           NARITA BTN 13000FT AND 9000FT IN DES B77W JAL9=,
20180123_063000.001,0,RJAA,,,,0,20180123060000,-1,-1,-1,-1,320,-1,11,-1,-1,-1,-1,,9999,0,0,1,FEW 20,1,6,1,1,1002,RJAA 230630Z 32011KT 9999 FEW020 06/01 Q1002 WS R34R NOSIG RMK     1CU020 A2961 MOD TURB OBS AT 0613Z 10NM E NARITA BTN           9000FT AND 13000FT IN CMB B772 AAL9242=,
20180123_070000.002,0,RJAA,,,,0,20180123070000,-1,-1,-1,-1,280,-1,4,-1,-1,220,300,,9999,0,0,1,FEW 20,1,7,1,1,1002,RJAA 230700Z 28004KT 220V300 9999 FEW020 07/01 Q1002 WS R34R     NOSIG RMK 1CU020 A2961 MOD TURB OBS AT 0649Z 15NM N           NARITA 7000FT IN CMB A320 SBI566 AND WS PS MS 10KT OBS AT           0650Z ON FNA RWY34R BTN 2000FT AND 1000FT IN DES B788=,
20180123_073000.001,0,RJAA,,,,0,20180123070000,-1,-1,-1,-1,240,-1,8,-1,-1,210,280,,9999,0,0,1,FEW 20,1,9,1,0,1002,RJAA 230730Z 24008KT 210V280 9999 FEW020 09/00 Q1002 BECMG     26006KT RMK 1CU020 A2961=,
20180123_080000.002,0,RJAA,,,,0,20180123080000,-1,-1,-1,-1,230,-1,8,-1,-1,-1,-1,,9999,0,0,1,FEW 20,1,9,-1,0,1003,RJAA 230800Z 23008KT 9999 FEW020 09/M00 Q1003 BECMG 26006KT     RMK 1CU020 A2962 MOD TURB OBS AT 0735Z 30NM SE NARITA BTN           10000FT AND 7000FT IN DES A320 HKE816D=,
20180123_083000.001,0,RJAA,,,,0,20180123080000,-1,-1,-1,-1,220,-1,13,-1,25,-1,-1,,9999,0,0,1,FEW 30,1,9,-1,1,1002,RJAA 230830Z 22013G25KT 9999 FEW030 09/M01 Q1002 NOSIG RMK     1CU030 A2961=,
20180123_090000.002,0,RJAA,,,,0,20180123090000,-1,-1,-1,-1,220,-1,14,-1,-1,-1,-1,,9999,0,0,1,FEW 30,1,9,-1,2,1003,RJAA 230900Z 22014KT 9999 FEW030 09/M02 Q1003 NOSIG RMK 1CU030     A2962 MOD TURB OBS AT 0838Z OVER BINKS 10000FT IN DES           B788 JAL872 AND MOD TURB OBS AT 0848Z OVER BINKS 10000FT           IN DES B788 JAL750=,
20180123_093000.001,0,RJAA,,,,0,20180123090000,-1,-1,-1,-1,220,-1,11,-1,-1,190,250,,9999,0,0,1,FEW 30,1,8,-1,2,1003,RJAA 230930Z 22011KT 190V250 9999 FEW030 08/M02 Q1003 NOSIG     RMK 1CU030 A2963=,
20180123_100000.002,0,RJAA,,,,0,20180123100000,-1,-1,-1,-1,230,-1,9,-1,-1,-1,-1,,9999,0,0,1,FEW 30,1,8,-1,1,1003,RJAA 231000Z 23009KT 9999 FEW030 08/M01 Q1003 BECMG 29008KT     RMK 1CU030 A2964=,
20180123_103000.001,0,RJAA,,,,0,20180123100000,-1,-1,-1,-1,310,-1,7,-1,-1,-1,-1,,9999,0,0,1,FEW 30,1,5,-1,0,1005,RJAA 231030Z 31007KT 9999 FEW030 05/M00 Q1005 NOSIG RMK 1CU030     A2968 P/RR=,
20180123_110000.002,0,RJAA,,,,0,20180123110000,-1,-1,-1,-1,290,-1,5,-1,-1,250,320,CAVOK,-1,0,0,0,,1,6,-1,4,1005,RJAA 231100Z 29005KT 250V320 CAVOK 06/M04 Q1005 NOSIG RMK     A2969 MOD TURB OBS AT 1030Z 10NM SW NARITA BTN 10000FT           AND 12000FT IN CMB B763 JAL811=,
20180123_113000.001,0,RJAA,,,,0,20180123110000,-1,-1,-1,-1,300,-1,6,-1,-1,260,320,CAVOK,-1,0,0,0,,1,6,-1,6,1005,RJAA 231130Z 30006KT 260V320 CAVOK 06/M06 Q1005 NOSIG RMK     A2970=,
20180123_120000.002,0,RJAA,,,,0,20180123120000,-1,-1,-1,-1,290,-1,5,-1,-1,-1,-1,CAVOK,-1,0,0,0,,1,5,-1,7,1006,RJAA 231200Z 29005KT CAVOK 05/M07 Q1006 NOSIG RMK A2972 MOD     TURB OBS AT 1132Z 30NM S NARITA BTN 12000FT AND 7000FT IN           DES B763 AJX810 AND MOD TURB OBS AT 1136Z 5NM NE NARITA           BTN 13000FT AND 14000FT IN CMB B763 ANA811 AND MOD TURB           OBS AT 1138Z TETRA BTN 11000FT AND 14000FT IN CMB B738           SJO1021 AND MOD TURB OBS AT 1151Z 5NM E NARITA BTN           10000FT AND 14000FT IN CMB B763 ANA823=,
20180123_123000.001,0,RJAA,,,,0,20180123120000,-1,-1,-1,-1,280,-1,4,-1,-1,240,310,CAVOK,-1,0,0,0,,1,4,-1,8,1006,RJAA 231230Z 28004KT 240V310 CAVOK 04/M08 Q1006 NOSIG RMK     A2973 MOD TO SEV TURB OBS AT 1219Z 10NM NE NARITA BTN           10500FT AND 13000FT IN CMB A320 HKE1647=,
20180123_130000.002,0,RJAA,,,,0,20180123130000,-1,-1,-1,-1,280,-1,7,-1,-1,220,310,CAVOK,-1,0,0,0,,1,4,-1,9,1007,RJAA 231300Z 28007KT 220V310 CAVOK 04/M09 Q1007 NOSIG RMK     A2974 MOD TURB OBS AT 1230Z 40NM S NARITA BTN 10000FT AND           7000FT IN DES B763 ANA936=,
20180123_133000.001,0,RJAA,,,,0,20180123130000,-1,-1,-1,-1,290,-1,5,-1,-1,250,320,CAVOK,-1,0,0,0,,1,4,-1,10,1007,RJAA 231330Z 29005KT 250V320 CAVOK 04/M10 Q1007 NOSIG RMK     A2974 MOD TURB OBS AT 1317Z 10NM NE NARITA 10000FT IN CMB           B767 JAL784=,
20180123_140000.002,0,RJAA,,,,0,20180123140000,-1,-1,-1,-1,290,-1,5,-1,-1,-1,-1,CAVOK,-1,0,0,0,,1,4,-1,10,1007,RJAA 231400Z 29005KT CAVOK 04/M10 Q1007 NOSIG RMK A2974 MOD     TURB OBS AT 1331Z BINKS BTN 10000FT AND 9000FT IN DES           B748 NCA226=,
20180123_143000.001,0,RJAA,,,,0,20180123140000,-1,-1,-1,-1,300,-1,7,-1,-1,-1,-1,CAVOK,-1,0,0,0,,1,3,-1,11,1007,RJAA 231430Z 30007KT CAVOK 03/M11 Q1007 NOSIG RMK A2974=,
20180123_150000.002,0,RJAA,,,,0,20180123150000,-1,-1,-1,-1,310,-1,5,-1,-1,-1,-1,CAVOK,-1,0,0,0,,1,2,-1,10,1007,RJAA 231500Z 31005KT CAVOK 02/M10 Q1007 NOSIG RMK A2974=,
20180123_153000.001,0,RJAA,,,,0,20180123150000,-1,-1,-1,-1,160,-1,4,-1,-1,-1,-1,CAVOK,-1,0,0,0,,-1,2,-1,9,1007,RJAA 231530Z 16004KT CAVOK M02/M09 Q1007 BECMG 30006KT RMK     A2974=,
20180123_160000.002,0,RJAA,,,,0,20180123160000,-1,-1,-1,-1,120,-1,3,-1,-1,100,180,CAVOK,-1,0,0,0,,-1,0,-1,7,1007,RJAA 231600Z 12003KT 100V180 CAVOK M00/M07 Q1007 BECMG 30006KT     RMK A2974=,
20180123_163000.001,0,RJAA,,,,0,20180123160000,-1,-1,-1,-1,999,-1,2,-1,-1,-1,-1,CAVOK,-1,0,0,0,,-1,1,-1,7,1007,RJAA 231630Z VRB02KT CAVOK M01/M07 Q1007 NOSIG RMK A2975=,
20180123_170000.002,0,RJAA,,,,0,20180123170000,-1,-1,-1,-1,180,-1,2,-1,-1,-1,-1,CAVOK,-1,0,0,0,,-1,3,-1,7,1007,RJAA 231700Z 18002KT CAVOK M03/M07 Q1007 NOSIG RMK A2976=,
20180123_173000.001,0,RJAA,,,,0,20180123170000,-1,-1,-1,-1,220,-1,3,-1,-1,-1,-1,CAVOK,-1,0,0,0,,-1,2,-1,6,1007,RJAA 231730Z 22003KT CAVOK M02/M06 Q1007 NOSIG RMK A2976=,
20180123_180000.002,0,RJAA,,,,0,20180123180000,-1,-1,-1,-1,999,-1,1,-1,-1,-1,-1,CAVOK,-1,0,0,0,,-1,2,-1,6,1007,RJAA 231800Z VRB01KT CAVOK M02/M06 Q1007 NOSIG RMK A2974=,
20180123_183000.001,0,RJAA,,,,0,20180123180000,-1,-1,-1,-1,999,-1,2,-1,-1,-1,-1,CAVOK,-1,0,0,0,,-1,2,-1,6,1006,RJAA 231830Z VRB02KT CAVOK M02/M06 Q1006 NOSIG RMK A2973=,
20180123_190000.002,0,RJAA,,,,0,20180123190000,-1,-1,-1,-1,999,-1,2,-1,-1,-1,-1,CAVOK,-1,0,0,0,,-1,3,-1,6,1007,RJAA 231900Z VRB02KT CAVOK M03/M06 Q1007 NOSIG RMK A2974=,
20180123_193000.001,0,RJAA,,,,0,20180123190000,-1,-1,-1,-1,330,-1,4,-1,-1,-1,-1,CAVOK,-1,0,0,0,,-1,2,-1,6,1006,RJAA 231930Z 33004KT CAVOK M02/M06 Q1006 NOSIG RMK A2972=,
20180123_200000.002,0,RJAA,,,,0,20180123200000,-1,-1,-1,-1,999,-1,1,-1,-1,-1,-1,CAVOK,-1,0,0,0,,-1,2,-1,7,1006,RJAA 232000Z VRB01KT CAVOK M02/M07 Q1006 NOSIG RMK A2972=,
20180123_203000.001,0,RJAA,,,,0,20180123200000,-1,-1,-1,-1,999,-1,1,-1,-1,-1,-1,CAVOK,-1,0,0,0,,-1,3,-1,7,1006,RJAA 232030Z VRB01KT CAVOK M03/M07 Q1006 NOSIG RMK A2972=,
20180123_210000.002,0,RJAA,,,,0,20180123210000,-1,-1,-1,-1,999,-1,2,-1,-1,-1,-1,,9999,0,0,2,FEW 30   BKN -9999,-1,2,-1,6,1006,RJAA 232100Z VRB02KT 9999 FEW030 BKN/// M02/M06 Q1006 NOSIG     RMK 1CU030 A2972=,
20180123_213000.001,0,RJAA,,,,0,20180123210000,-1,-1,-1,-1,0,-1,0,-1,-1,-1,-1,,9999,0,0,2,FEW 30   BKN -9999,-1,3,-1,6,1007,RJAA 232130Z 00000KT 9999 FEW030 BKN/// M03/M06 Q1007 NOSIG     RMK 1CU030 A2974=,
20180123_220000.002,0,RJAA,,,,0,20180123220000,-1,-1,-1,-1,310,-1,3,-1,-1,240,340,,9999,0,0,1,FEW 30,-1,3,-1,7,1006,RJAA 232200Z 31003KT 240V340 9999 FEW030 M03/M07 Q1006 NOSIG     RMK 1CU030 A2973=,
20180123_223000.002,0,RJAA,,,,0,20180123220000,-1,-1,-1,-1,280,-1,4,-1,-1,-1,-1,,9999,0,0,1,FEW 30,-1,2,-1,6,1007,RJAA 232230Z 28004KT 9999 FEW030 M02/M06 Q1007 NOSIG RMK     1CU030 A2974=,
20180123_230000.002,0,RJAA,,,,0,20180123230000,-1,-1,-1,-1,999,-1,2,-1,-1,-1,-1,,9999,0,0,1,FEW 30,-1,1,-1,5,1007,RJAA 232300Z VRB02KT 9999 FEW030 M01/M05 Q1007 BECMG 26006KT     RMK 1CU030 A2974 MOD TURB OBS AT 2236Z 30NM S NARITA BTN           9000FT AND 7500FT IN DES A333 TAX600=,
20180123_233000.001,0,RJAA,,,,0,20180123230000,-1,-1,-1,-1,999,-1,2,-1,-1,-1,-1,,9999,0,0,1,FEW 30,1,1,-1,6,1006,RJAA 232330Z VRB02KT 9999 FEW030 01/M06 Q1006 BECMG 26006KT     RMK 1CU030 A2973=,
20180124_000000.002,0,RJAA,,,,0,20180124000000,-1,-1,-1,-1,190,-1,3,-1,-1,150,220,,9999,0,0,1,FEW 30,1,2,-1,5,1006,RJAA 240000Z 19003KT 150V220 9999 FEW030 02/M05 Q1006 BECMG     25010KT RMK 1CU030 A2972=,
20180124_003000.001,0,RJAA,,,,0,20180124000000,-1,-1,-1,-1,220,-1,4,-1,-1,180,260,,9999,0,0,1,FEW 30,1,4,-1,6,1006,RJAA 240030Z 22004KT 180V260 9999 FEW030 04/M06 Q1006 BECMG     TL0200 26009KT RMK 1CU030 A2971=,
20180124_010000.003,0,RJAA,,,,0,20180124010000,-1,-1,-1,-1,240,-1,9,-1,-1,190,280,,9999,0,0,1,FEW 30,1,5,-1,7,1005,RJAA 240100Z 24009KT 190V280 9999 FEW030 05/M07 Q1005 BECMG     TL0200 26009KT RMK 1CU030 A2969=,
20180124_013000.001,0,RJAA,,,,0,20180124010000,-1,-1,-1,-1,240,-1,13,-1,-1,210,280,,9999,0,0,1,FEW 30,1,5,-1,6,1005,RJAA 240130Z 24013KT 210V280 9999 FEW030 05/M06 Q1005 BECMG     TL0200 26013KT RMK 1CU030 A2968=,
20180124_020000.002,0,RJAA,,,,0,20180124020000,-1,-1,-1,-1,240,-1,9,-1,-1,220,290,,9999,0,0,1,FEW 30,1,6,-1,7,1004,RJAA 240200Z 24009KT 220V290 9999 FEW030 06/M07 Q1004 NOSIG     RMK 1CU030 A2966=,
20180124_023000.001,0,RJAA,,,,0,20180124020000,-1,-1,-1,-1,230,-1,10,-1,-1,-1,-1,,9999,0,0,1,FEW 30,1,6,-1,7,1003,RJAA 240230Z 23010KT 9999 FEW030 06/M07 Q1003 BECMG TL0300     25013KT RMK 1CU030 A2963=,
20180124_030000.002,0,RJAA,,,,0,20180124030000,-1,-1,-1,-1,230,-1,11,-1,-1,190,260,,9999,0,0,1,FEW 30,1,6,-1,8,1002,RJAA 240300Z 23011KT 190V260 9999 FEW030 06/M08 Q1002 BECMG     25013KT RMK 1CU030 A2961=,
20180124_033000.001,0,RJAA,,,,0,20180124030000,-1,-1,-1,-1,230,-1,8,-1,-1,200,280,,9999,0,0,2,FEW 30   SCT 90,1,6,-1,9,1002,RJAA 240330Z 23008KT 200V280 9999 FEW030 SCT090 06/M09 Q1002     BECMG 26012KT RMK 1CU030 3AC090 A2959=,
20180124_040000.002,0,RJAA,,,,0,20180124040000,-1,-1,-1,-1,240,-1,9,-1,-1,-1,-1,,9999,0,0,2,FEW 30   BKN 80,1,6,-1,11,1001,RJAA 240400Z 24009KT 9999 FEW030 BKN080 06/M11 Q1001 BECMG     TL0430 28010KT RMK 1CU030 5AC080 A2958=,
20180124_043000.001,0,RJAA,,,,0,20180124040000,-1,-1,-1,-1,210,-1,6,-1,-1,190,250,,9999,0,0,3,FEW 30   SCT 70   BKN 100,1,6,-1,12,1001,RJAA 240430Z 21006KT 190V250 9999 FEW030 SCT070 BKN100 06/M12     Q1001 BECMG TL0500 29010KT RMK 1CU030 4AC070 6AC100           A2957=,
20180124_050000.002,0,RJAA,,,,0,20180124050000,-1,-1,-1,-1,240,-1,6,-1,-1,210,270,,9999,0,0,3,FEW 30   SCT 70   BKN 100,1,6,-1,11,1001,RJAA 240500Z 24006KT 210V270 9999 FEW030 SCT070 BKN100 06/M11     Q1001 BECMG 28010KT RMK 1CU030 3AC070 5AC100 A2956 VIRGA           20KM SE MOV E=,
20180124_053000.001,0,RJAA,,,,0,20180124050000,-1,-1,-1,-1,230,-1,8,-1,-1,-1,-1,,9999,0,0,2,FEW 30   BKN 80,1,6,-1,12,1001,RJAA 240530Z 23008KT 9999 FEW030 BKN080 06/M12 Q1001 BECMG     28010KT RMK 1CU030 6AC080 A2956 VIRGA 20KM SE AND SW MOV           E=,
20180124_060000.002,0,RJAA,,,,0,20180124060000,-1,-1,-1,-1,320,-1,8,-1,-1,-1,-1,,9999,0,0,2,FEW 30   BKN 80,1,5,-1,9,1001,RJAA 240600Z 32008KT 9999 FEW030 BKN080 05/M09 Q1001 NOSIG RMK     1CU030 5AC080 A2958 VIRGA 20KM S MOV E=,
20180124_063000.001,0,RJAA,,,,0,20180124060000,-1,-1,-1,-1,320,-1,11,-1,-1,-1,-1,,9999,0,0,2,FEW 30   BKN 80,1,4,-1,10,1002,RJAA 240630Z 32011KT 9999 FEW030 BKN080 04/M10 Q1002 NOSIG RMK     1CU030 6AC080 A2960 VIRGA 30KM SE MOV E=,
20180124_070000.002,0,RJAA,,,,0,20180124070000,-1,-1,-1,-1,320,-1,12,-1,-1,-1,-1,,9999,0,0,3,FEW 30   SCT 80   BKN -9999,1,4,-1,10,1002,RJAA 240700Z 32012KT 9999 FEW030 SCT080 BKN/// 04/M10 Q1002     NOSIG RMK 1CU030 3AC080 A2961 VIRGA 30KM SE-SW MOV E=,
20180124_073000.001,0,RJAA,,,,0,20180124070000,-1,-1,-1,-1,310,-1,8,-1,-1,-1,-1,,9999,0,0,3,FEW 30   SCT 100   BKN -9999,1,3,-1,10,1003,RJAA 240730Z 31008KT 9999 FEW030 SCT100 BKN/// 03/M10 Q1003     NOSIG RMK 1CU030 3AC100 A2962 VIRGA 20KM SW MOV E=,
20180124_080000.002,0,RJAA,,,,0,20180124080000,-1,-1,-1,-1,300,-1,5,-1,-1,260,350,,9999,0,0,3,FEW 30   SCT 70   BKN 100,1,3,-1,9,1003,RJAA 240800Z 30005KT 260V350 9999 FEW030 SCT070 BKN100 03/M09     Q1003 NOSIG RMK 1CU030 3AC070 5AC100 A2964 VIRGA 20KM SW           MOV E=,
20180124_083000.001,0,RJAA,,,,0,20180124080000,-1,-1,-1,-1,300,-1,9,-1,-1,260,320,,9999,0,0,3,FEW 30   SCT 60   BKN -9999,1,3,-1,11,1004,RJAA 240830Z 30009KT 260V320 9999 FEW030 SCT060 BKN/// 03/M11     Q1004 NOSIG RMK 1CU030 3SC060 A2965 MOD TURB OBS AT 0815Z           30NM SE NARITA 15000FT IN CMB B772 UAL804=,
20180124_090000.003,0,RJAA,,,,0,20180124090000,-1,-1,-1,-1,300,-1,11,-1,-1,260,330,,9999,0,0,2,FEW 30   SCT -9999,1,2,-1,11,1005,RJAA 240900Z 30011KT 260V330 9999 FEW030 SCT/// 02/M11 Q1005     NOSIG RMK 1CU030 A2968=,
20180124_093000.001,0,RJAA,,,,0,20180124090000,-1,-1,-1,-1,320,-1,10,-1,-1,-1,-1,,9999,0,0,1,FEW 30,1,1,-1,11,1005,RJAA 240930Z 32010KT 9999 FEW030 01/M11 Q1005 NOSIG RMK 1CU030     A2969=,
20180124_100000.002,0,RJAA,,,,0,20180124100000,-1,-1,-1,-1,320,-1,14,-1,-1,-1,-1,,9999,0,0,1,FEW 30,1,1,-1,11,1005,RJAA 241000Z 32014KT 9999 FEW030 01/M11 Q1005 TEMPO 30015G25KT     RMK 1CU030 A2970=,
20180124_103000.001,0,RJAA,,,,0,20180124100000,-1,-1,-1,-1,320,-1,12,-1,-1,-1,-1,,9999,0,0,1,FEW 30,1,0,-1,10,1006,RJAA 241030Z 32012KT 9999 FEW030 00/M10 Q1006 NOSIG RMK 1CU030     A2971=,
20180124_110000.002,0,RJAA,,,,0,20180124110000,-1,-1,-1,-1,10,-1,9,-1,-1,-1,-1,,9999,0,0,1,FEW 30,-1,1,-1,9,1006,RJAA 241100Z 01009KT 9999 FEW030 M01/M09 Q1006 NOSIG RMK     1CU030 A2972 MOD TURB OBS AT 1035Z 50NM S NARITA BTN           FL160 AND 12000FT IN DES A320 APJ319 AND MOD TURB OBS AT           1035Z 13NM E NARITA FL160 MNTN B789 ACA4=,
20180124_113000.001,0,RJAA,,,,0,20180124110000,-1,-1,-1,-1,30,-1,4,-1,-1,-1,-1,,9999,0,0,1,FEW 30,-1,1,-1,9,1007,RJAA 241130Z 03004KT 9999 FEW030 M01/M09 Q1007 NOSIG RMK     1CU030 A2974 MOD TURB OBS AT 1100Z 50NM S NARITA BTN           FL150 AND 12000FT IN DES B744 NCA228 AND MOD TURB OBS AT           1111Z 20NM E NARITA BTN FL140 AND 12000FT IN DES A320           JJP112=,
20180124_120000.002,0,RJAA,,,,0,20180124120000,-1,-1,-1,-1,360,-1,7,-1,-1,-1,-1,,9999,0,0,1,FEW 30,-1,2,-1,9,1007,RJAA 241200Z 36007KT 9999 FEW030 M02/M09 Q1007 NOSIG RMK     1CU030 A2974=,
20180124_123000.001,0,RJAA,,,,0,20180124120000,-1,-1,-1,-1,360,-1,4,-1,-1,320,40,,9999,0,0,1,FEW 30,-1,3,-1,10,1007,RJAA 241230Z 36004KT 320V040 9999 FEW030 M03/M10 Q1007 NOSIG     RMK 1CU030 A2975 MOD TURB OBS AT 1211Z 35NM S NARITA BTN           12000FT AND 10000FT IN DES A320 VNL604=,
20180124_130000.002,0,RJAA,,,,0,20180124130000,-1,-1,-1,-1,350,-1,5,-1,-1,320,30,,9999,0,0,1,FEW 30,-1,2,-1,9,1007,RJAA 241300Z 35005KT 320V030 9999 FEW030 M02/M09 Q1007 NOSIG     RMK 1CU030 A2975=,
20180124_133000.001,0,RJAA,,,,0,20180124130000,-1,-1,-1,-1,999,-1,1,-1,-1,-1,-1,,9999,0,0,1,FEW 30,-1,3,-1,9,1007,RJAA 241330Z VRB01KT 9999 FEW030 M03/M09 Q1007 NOSIG RMK     1CU030 A2975 MOD TURB OBS AT 1305Z 40NM S NARITA BTN           12000FT AND 10000FT IN DES A320 JJP628=,
20180124_140000.003,0,RJAA,,,,0,20180124140000,-1,-1,-1,-1,999,-1,2,-1,-1,-1,-1,,9999,0,0,1,FEW 30,-1,3,-1,9,1007,RJAA 241400Z VRB02KT 9999 FEW030 M03/M09 Q1007 NOSIG RMK     1CU030 A2976=,
20180124_143000.001,0,RJAA,,,,0,20180124140000,-1,-1,-1,-1,250,-1,2,-1,-1,-1,-1,,9999,0,0,1,FEW 30,-1,3,-1,9,1007,RJAA 241430Z 25002KT 9999 FEW030 M03/M09 Q1007 NOSIG RMK     1CU030 A2976=,
20180124_150000.002,0,RJAA,,,,0,20180124150000,-1,-1,-1,-1,290,-1,4,-1,-1,260,320,,9999,0,0,1,FEW 30,-1,3,-1,10,1007,RJAA 241500Z 29004KT 260V320 9999 FEW030 M03/M10 Q1007 NOSIG     RMK 1CU030 A2976=,
20180124_153000.001,0,RJAA,,,,0,20180124150000,-1,-1,-1,-1,300,-1,6,-1,-1,260,330,,9999,0,0,1,FEW 30,-1,3,-1,11,1008,RJAA 241530Z 30006KT 260V330 9999 FEW030 M03/M11 Q1008 NOSIG     RMK 1CU030 A2977=,
20180124_160000.002,0,RJAA,,,,0,20180124160000,-1,-1,-1,-1,320,-1,8,-1,-1,-1,-1,,9999,0,0,1,FEW 30,-1,3,-1,11,1008,RJAA 241600Z 32008KT 9999 FEW030 M03/M11 Q1008 NOSIG RMK     1CU030 A2978=,
20180124_163000.001,0,RJAA,,,,0,20180124160000,-1,-1,-1,-1,320,-1,9,-1,-1,-1,-1,,9999,0,0,1,FEW 30,-1,3,-1,11,1008,RJAA 241630Z 32009KT 9999 FEW030 M03/M11 Q1008 NOSIG RMK     1CU030 A2978=,
20180124_170000.002,0,RJAA,,,,0,20180124170000,-1,-1,-1,-1,310,-1,8,-1,-1,-1,-1,,9999,0,0,1,FEW 30,-1,3,-1,12,1008,RJAA 241700Z 31008KT 9999 FEW030 M03/M12 Q1008 NOSIG RMK     1CU030 A2979=,
20180124_173000.001,0,RJAA,,,,0,20180124170000,-1,-1,-1,-1,310,-1,7,-1,-1,-1,-1,,9999,0,0,1,FEW 30,-1,3,-1,12,1008,RJAA 241730Z 31007KT 9999 FEW030 M03/M12 Q1008 NOSIG RMK     1CU030 A2979=,
20180124_180000.002,0,RJAA,,,,0,20180124180000,-1,-1,-1,-1,300,-1,6,-1,-1,-1,-1,,9999,0,0,1,FEW 30,-1,3,-1,12,1008,RJAA 241800Z 30006KT 9999 FEW030 M03/M12 Q1008 NOSIG RMK     1CU030 A2979=,
20180124_183000.001,0,RJAA,,,,0,20180124180000,-1,-1,-1,-1,310,-1,9,-1,-1,-1,-1,,9999,0,0,1,FEW 30,-1,3,-1,13,1008,RJAA 241830Z 31009KT 9999 FEW030 M03/M13 Q1008 NOSIG RMK     1CU030 A2979=,
20180124_190000.003,0,RJAA,,,,0,20180124190000,-1,-1,-1,-1,320,-1,14,-1,-1,-1,-1,,9999,0,0,1,FEW 30,-1,3,-1,15,1009,RJAA 241900Z 32014KT 9999 FEW030 M03/M15 Q1009 NOSIG RMK     1CU030 A2980=,
20180124_193000.001,0,RJAA,,,,0,20180124190000,-1,-1,-1,-1,300,-1,8,-1,-1,-1,-1,,9999,0,0,1,FEW 30,-1,3,-1,15,1009,RJAA 241930Z 30008KT 9999 FEW030 M03/M15 Q1009 NOSIG RMK     1CU030 A2981=,
20180124_200000.002,0,RJAA,,,,0,20180124200000,-1,-1,-1,-1,290,-1,7,-1,-1,-1,-1,,9999,0,0,1,FEW 30,-1,3,-1,15,1009,RJAA 242000Z 29007KT 9999 FEW030 M03/M15 Q1009 NOSIG RMK     1CU030 A2981=,
20180124_203000.001,0,RJAA,,,,0,20180124200000,-1,-1,-1,-1,270,-1,7,-1,-1,240,310,,9999,0,0,1,FEW 30,-1,3,-1,15,1009,RJAA 242030Z 27007KT 240V310 9999 FEW030 M03/M15 Q1009 NOSIG     RMK 1CU030 A2981=,
20180124_210000.002,0,RJAA,,,,0,20180124210000,-1,-1,-1,-1,260,-1,7,-1,-1,-1,-1,,9999,0,0,1,FEW 30,-1,3,-1,15,1009,RJAA 242100Z 26007KT 9999 FEW030 M03/M15 Q1009 NOSIG RMK     1CU030 A2982=,
20180124_213000.001,0,RJAA,,,,0,20180124210000,-1,-1,-1,-1,250,-1,6,-1,-1,-1,-1,,9999,0,0,1,FEW 30,-1,3,-1,15,1009,RJAA 242130Z 25006KT 9999 FEW030 M03/M15 Q1009 NOSIG RMK     1CU030 A2982=,
20180124_220000.002,0,RJAA,,,,0,20180124220000,-1,-1,-1,-1,250,-1,6,-1,-1,210,300,,9999,0,0,1,FEW 30,-1,3,-1,15,1009,RJAA 242200Z 25006KT 210V300 9999 FEW030 M03/M15 Q1009 NOSIG     RMK 1CU030 A2982=,
20180124_223000.002,0,RJAA,,,,0,20180124220000,-1,-1,-1,-1,250,-1,8,-1,-1,210,280,,9999,0,0,1,FEW 30,-1,2,-1,15,1010,RJAA 242230Z 25008KT 210V280 9999 FEW030 M02/M15 Q1010 NOSIG     RMK 1CU030 A2983=,
20180124_230000.002,0,RJAA,,,,0,20180124230000,-1,-1,-1,-1,250,-1,10,-1,-1,210,280,,9999,0,0,1,FEW 30,-1,2,-1,15,1010,RJAA 242300Z 25010KT 210V280 9999 FEW030 M02/M15 Q1010 NOSIG     RMK 1CU030 A2984=,
20180124_233000.001,0,RJAA,,,,0,20180124230000,-1,-1,-1,-1,260,-1,10,-1,20,230,300,,9999,0,0,1,FEW 30,-1,1,-1,15,1010,RJAA 242330Z 26010G20KT 230V300 9999 FEW030 M01/M15 Q1010     NOSIG RMK 1CU030 A2984=,
20180125_000000.002,0,RJAA,,,,0,20180125000000,-1,-1,-1,-1,270,-1,11,-1,-1,240,300,,9999,0,0,1,FEW 30,-1,0,-1,15,1010,RJAA 250000Z 27011KT 240V300 9999 FEW030 M00/M15 Q1010 NOSIG     RMK 1CU030 A2985=,
20180125_003000.001,0,RJAA,,,,0,20180125000000,-1,-1,-1,-1,270,-1,13,-1,-1,220,310,,9999,0,0,1,FEW 30,1,0,-1,16,1010,RJAA 250030Z 27013KT 220V310 9999 FEW030 00/M16 Q1010 WS R34L     TEMPO 30016G28KT RMK 1CU030 A2985=,
20180125_010000.002,0,RJAA,,,,0,20180125010000,-1,-1,-1,-1,280,-1,12,-1,22,240,310,,9999,0,0,1,FEW 30,1,1,-1,16,1010,RJAA 250100Z 28012G22KT 240V310 9999 FEW030 01/M16 Q1010 WS     R34R NOSIG RMK 1CU030 A2985 WS PS MS 15KT OBS AT 0049Z ON           FNA RWY34R 3000FT AND BLW IN DES B738=,
20180125_013000.001,0,RJAA,,,,0,20180125010000,-1,-1,-1,-1,290,-1,15,-1,-1,260,320,,9999,0,0,1,FEW 30,1,1,-1,15,1010,RJAA 250130Z 29015KT 260V320 9999 FEW030 01/M15 Q1010 WS R34L     TEMPO 30016G28KT RMK 1CU030 A2984 WS PS MS 10KT OBS AT           0123Z ON FNA RWY34L 3000FT AND BLW IN DES B789=,
20180125_020000.003,0,RJAA,,,,0,20180125020000,-1,-1,-1,-1,290,-1,14,-1,24,250,330,,9999,0,0,1,FEW 30,1,1,-1,16,1010,RJAA 250200Z 29014G24KT 250V330 9999 FEW030 01/M16 Q1010 WS     R34R NOSIG RMK 1CU030 A2983=,
20180125_023000.001,0,RJAA,,,,0,20180125020000,-1,-1,-1,-1,300,-1,17,-1,-1,-1,-1,,9999,0,0,1,FEW 30,1,1,-1,16,1009,RJAA 250230Z 30017KT 9999 FEW030 01/M16 Q1009 WS R34R TEMPO     30016G28KT RMK 1CU030 A2982=,
20180125_030000.002,0,RJAA,,,,0,20180125030000,-1,-1,-1,-1,310,-1,19,-1,-1,-1,-1,,9999,0,0,1,FEW 30,1,2,-1,16,1009,RJAA 250300Z 31019KT 9999 FEW030 02/M16 Q1009 WS R34L WS R34R     TEMPO 30020G30KT RMK 1CU030 A2981=,
20180125_033000.001,0,RJAA,,,,0,20180125030000,-1,-1,-1,-1,300,-1,17,-1,29,-1,-1,,9999,0,0,1,FEW 30,1,2,-1,15,1009,RJAA 250330Z 30017G29KT 9999 FEW030 02/M15 Q1009 NOSIG RMK     1CU030 A2981=,
20180125_040000.002,0,RJAA,,,,0,20180125040000,-1,-1,-1,-1,300,-1,16,-1,28,-1,-1,,9999,0,0,1,FEW 30,1,2,-1,15,1009,RJAA 250400Z 30016G28KT 9999 FEW030 02/M15 Q1009 NOSIG RMK     1CU030 A2979=,
20180125_043000.001,0,RJAA,,,,0,20180125040000,-1,-1,-1,-1,310,-1,17,-1,27,-1,-1,,9999,0,0,1,FEW 30,1,2,-1,16,1008,RJAA 250430Z 31017G27KT 9999 FEW030 02/M16 Q1008 NOSIG RMK     1CU030 A2979=,
20180125_050000.002,0,RJAA,,,,0,20180125050000,-1,-1,-1,-1,300,-1,15,-1,-1,260,330,,9999,0,0,1,FEW 30,1,2,-1,16,1008,RJAA 250500Z 30015KT 260V330 9999 FEW030 02/M16 Q1008 WS R34R     TEMPO 30018G28KT RMK 1CU030 A2979 DOWN WASH OBS AT 0452Z           ON FNA RWY34R 500FT IN DES B789=,
20180125_053000.001,0,RJAA,,,,0,20180125050000,-1,-1,-1,-1,300,-1,14,-1,-1,270,330,,9999,0,0,1,FEW 30,1,3,-1,16,1008,RJAA 250530Z 30014KT 270V330 9999 FEW030 03/M16 Q1008 WS R34R     TEMPO 30017G27KT RMK 1CU030 A2979 DOWN WASH OBS AT 0524Z           ON FNA RWY34L 500FT AND BLW IN DES A320=,
20180125_060000.002,0,RJAA,,,,0,20180125060000,-1,-1,-1,-1,300,-1,14,-1,25,270,340,,9999,0,0,1,FEW 30,1,3,-1,15,1009,RJAA 250600Z 30014G25KT 270V340 9999 FEW030 03/M15 Q1009 WS     R34R NOSIG RMK 1CU030 A2979=,
20180125_063000.001,0,RJAA,,,,0,20180125060000,-1,-1,-1,-1,300,-1,12,-1,-1,260,320,,9999,0,0,1,FEW 30,1,2,-1,16,1009,RJAA 250630Z 30012KT 260V320 9999 FEW030 02/M16 Q1009 WS R34R     TEMPO TL0730 30015G25KT RMK 1CU030 A2980=,
20180125_070000.002,0,RJAA,,,,0,20180125070000,-1,-1,-1,-1,300,-1,9,-1,20,260,320,,9999,0,0,1,FEW 30,1,2,-1,15,1009,RJAA 250700Z 30009G20KT 260V320 9999 FEW030 02/M15 Q1009 WS     R34L NOSIG RMK 1CU030 A2980=,
20180125_073000.001,0,RJAA,,,,0,20180125070000,-1,-1,-1,-1,300,-1,10,-1,-1,260,330,,9999,0,0,1,FEW 30,1,2,-1,15,1009,RJAA 250730Z 30010KT 260V330 9999 FEW030 02/M15 Q1009 WS R34R     NOSIG RMK 1CU030 A2981=,
20180125_080000.002,0,RJAA,,,,0,20180125080000,-1,-1,-1,-1,290,-1,8,-1,-1,260,320,,9999,0,0,1,FEW 30,1,1,-1,15,1009,RJAA 250800Z 29008KT 260V320 9999 FEW030 01/M15 Q1009 NOSIG     RMK 1CU030 A2982=,
20180125_083000.001,0,RJAA,,,,0,20180125080000,-1,-1,-1,-1,250,-1,5,-1,-1,-1,-1,,9999,0,0,1,FEW 30,1,0,-1,13,1010,RJAA 250830Z 25005KT 9999 FEW030 00/M13 Q1010 NOSIG RMK 1CU030     A2982=,
20180125_090000.002,0,RJAA,,,,0,20180125090000,-1,-1,-1,-1,240,-1,4,-1,-1,-1,-1,,9999,0,0,1,FEW 30,-1,0,-1,13,1009,RJAA 250900Z 24004KT 9999 FEW030 M00/M13 Q1009 BECMG 27005KT     RMK 1CU030 A2982=,
20180125_093000.001,0,RJAA,,,,0,20180125090000,-1,-1,-1,-1,250,-1,4,-1,-1,-1,-1,,9999,0,0,1,FEW 30,-1,1,-1,13,1010,RJAA 250930Z 25004KT 9999 FEW030 M01/M13 Q1010 NOSIG RMK     1CU030 A2982=,
20180125_100000.003,0,RJAA,,,,0,20180125100000,-1,-1,-1,-1,270,-1,4,-1,-1,-1,-1,,9999,0,0,1,FEW 30,-1,0,-1,14,1009,RJAA 251000Z 27004KT 9999 FEW030 M00/M14 Q1009 NOSIG RMK     1CU030 A2982=,
20180125_103000.001,0,RJAA,,,,0,20180125100000,-1,-1,-1,-1,290,-1,5,-1,-1,-1,-1,CAVOK,-1,0,0,0,,-1,1,-1,14,1009,RJAA 251030Z 29005KT CAVOK M01/M14 Q1009 NOSIG RMK A2981=,
20180125_110000.003,0,RJAA,,,,0,20180125110000,-1,-1,-1,-1,290,-1,4,-1,-1,250,320,CAVOK,-1,0,0,0,,-1,1,-1,14,1009,RJAA 251100Z 29004KT 250V320 CAVOK M01/M14 Q1009 NOSIG RMK     A2982=,
20180125_113000.001,0,RJAA,,,,0,20180125110000,-1,-1,-1,-1,310,-1,6,-1,-1,-1,-1,CAVOK,-1,0,0,0,,-1,1,-1,13,1009,RJAA 251130Z 31006KT CAVOK M01/M13 Q1009 NOSIG RMK A2981=,
20180125_120000.002,0,RJAA,,,,0,20180125120000,-1,-1,-1,-1,310,-1,6,-1,-1,-1,-1,CAVOK,-1,0,0,0,,-1,1,-1,13,1009,RJAA 251200Z 31006KT CAVOK M01/M13 Q1009 NOSIG RMK A2980=,
20180125_123000.002,0,RJAA,,,,0,20180125120000,-1,-1,-1,-1,310,-1,5,-1,-1,-1,-1,CAVOK,-1,0,0,0,,-1,1,-1,13,1008,RJAA 251230Z 31005KT CAVOK M01/M13 Q1008 NOSIG RMK A2979 LIGHT     TO MOD TURB OBS AT 1220Z 30NM S NARITA 8000FT IN DES A320           JJP406=,
20180125_130000.002,0,RJAA,,,,0,20180125130000,-1,-1,-1,-1,300,-1,4,-1,-1,-1,-1,CAVOK,-1,0,0,0,,-1,2,-1,13,1008,RJAA 251300Z 30004KT CAVOK M02/M13 Q1008 NOSIG RMK A2978=,
20180125_133000.001,0,RJAA,,,,0,20180125130000,-1,-1,-1,-1,300,-1,5,-1,-1,-1,-1,CAVOK,-1,0,0,0,,-1,2,-1,13,1008,RJAA 251330Z 30005KT CAVOK M02/M13 Q1008 NOSIG RMK A2977=,
20180125_140000.002,0,RJAA,,,,0,20180125140000,-1,-1,-1,-1,310,-1,5,-1,-1,-1,-1,CAVOK,-1,0,0,0,,-1,2,-1,13,1007,RJAA 251400Z 31005KT CAVOK M02/M13 Q1007 NOSIG RMK A2975=,
20180125_143000.001,0,RJAA,,,,0,20180125140000,-1,-1,-1,-1,300,-1,5,-1,-1,-1,-1,CAVOK,-1,0,0,0,,-1,2,-1,13,1007,RJAA 251430Z 30005KT CAVOK M02/M13 Q1007 NOSIG RMK A2975=,
20180125_150000.002,0,RJAA,,,,0,20180125150000,-1,-1,-1,-1,300,-1,6,-1,-1,-1,-1,CAVOK,-1,0,0,0,,-1,2,-1,13,1007,RJAA 251500Z 30006KT CAVOK M02/M13 Q1007 NOSIG RMK A2974=,
20180125_153000.001,0,RJAA,,,,0,20180125150000,-1,-1,-1,-1,310,-1,7,-1,-1,-1,-1,CAVOK,-1,0,0,0,,-1,2,-1,13,1006,RJAA 251530Z 31007KT CAVOK M02/M13 Q1006 NOSIG RMK A2973=,
20180125_160000.002,0,RJAA,,,,0,20180125160000,-1,-1,-1,-1,300,-1,5,-1,-1,-1,-1,CAVOK,-1,0,0,0,,-1,3,-1,13,1006,RJAA 251600Z 30005KT CAVOK M03/M13 Q1006 NOSIG RMK A2973=,
20180125_163000.001,0,RJAA,,,,0,20180125160000,-1,-1,-1,-1,320,-1,9,-1,-1,-1,-1,,9999,0,0,1,SCT 45,-1,2,-1,13,1006,RJAA 251630Z 32009KT 9999 SCT045 M02/M13 Q1006 NOSIG RMK     3SC045 A2972=,
20180125_170000.002,0,RJAA,,,,0,20180125170000,-1,-1,-1,-1,310,-1,9,-1,-1,-1,-1,,9999,0,0,1,BKN 45,-1,2,-1,13,1006,RJAA 251700Z 31009KT 9999 BKN045 M02/M13 Q1006 NOSIG RMK     6SC045 A2972=,
20180125_173000.001,0,RJAA,,,,0,20180125170000,-1,-1,-1,-1,310,-1,6,-1,-1,-1,-1,,9999,0,0,1,BKN 45,-1,2,-1,13,1006,RJAA 251730Z 31006KT 9999 BKN045 M02/M13 Q1006 NOSIG RMK     7SC045 A2971=,
20180125_180000.002,0,RJAA,,,,0,20180125180000,-1,-1,-1,-1,320,-1,7,-1,-1,-1,-1,,9999,0,0,1,SCT 45,-1,2,-1,13,1005,RJAA 251800Z 32007KT 9999 SCT045 M02/M13 Q1005 NOSIG RMK     3SC045 A2970=,
20180125_183000.001,0,RJAA,,,,0,20180125180000,-1,-1,-1,-1,320,-1,6,-1,-1,-1,-1,,9999,0,0,1,FEW 45,-1,3,-1,13,1005,RJAA 251830Z 32006KT 9999 FEW045 M03/M13 Q1005 NOSIG RMK     2SC045 A2970=,
20180125_190000.002,0,RJAA,,,,0,20180125190000,-1,-1,-1,-1,300,-1,4,-1,-1,-1,-1,,9999,0,0,1,SCT 45,-1,2,-1,13,1005,RJAA 251900Z 30004KT 9999 SCT045 M02/M13 Q1005 NOSIG RMK     3SC045 A2970=,
20180125_193000.001,0,RJAA,,,,0,20180125190000,-1,-1,-1,-1,310,-1,6,-1,-1,-1,-1,CAVOK,-1,0,0,0,,-1,2,-1,13,1005,RJAA 251930Z 31006KT CAVOK M02/M13 Q1005 NOSIG RMK 5SC050     A2969=,
20180125_200000.003,0,RJAA,,,,0,20180125200000,-1,-1,-1,-1,280,-1,4,-1,-1,250,310,CAVOK,-1,0,0,0,,-1,2,-1,13,1005,RJAA 252000Z 28004KT 250V310 CAVOK M02/M13 Q1005 NOSIG RMK     A2970=,
20180125_203000.001,0,RJAA,,,,0,20180125200000,-1,-1,-1,-1,290,-1,4,-1,-1,-1,-1,,9999,0,0,1,FEW 45,-1,3,-1,13,1006,RJAA 252030Z 29004KT 9999 FEW045 M03/M13 Q1006 NOSIG RMK     1SC045 A2971=,
20180125_210000.002,0,RJAA,,,,0,20180125210000,-1,-1,-1,-1,280,-1,4,-1,-1,-1,-1,,9999,0,0,1,FEW 30,-1,3,-1,13,1006,RJAA 252100Z 28004KT 9999 FEW030 M03/M13 Q1006 NOSIG RMK     1CU030 A2971=,
20180125_213000.001,0,RJAA,,,,0,20180125210000,-1,-1,-1,-1,280,-1,4,-1,-1,-1,-1,,9999,0,0,1,FEW 30,-1,3,-1,13,1006,RJAA 252130Z 28004KT 9999 FEW030 M03/M13 Q1006 NOSIG RMK     1CU030 A2972=,
20180125_220000.002,0,RJAA,,,,0,20180125220000,-1,-1,-1,-1,270,-1,2,-1,-1,-1,-1,,9999,0,0,1,FEW 30,-1,5,-1,13,1006,RJAA 252200Z 27002KT 9999 FEW030 M05/M13 Q1006 NOSIG RMK     1CU030 A2971=,
20180125_223000.002,0,RJAA,,,,0,20180125220000,-1,-1,-1,-1,260,-1,3,-1,-1,-1,-1,,9999,0,0,1,FEW 30,-1,3,-1,11,1006,RJAA 252230Z 26003KT 9999 FEW030 M03/M11 Q1006 NOSIG RMK     1CU030 A2972=,
20180125_230000.002,0,RJAA,,,,0,20180125230000,-1,-1,-1,-1,280,-1,3,-1,-1,240,310,,9999,0,0,1,FEW 30,-1,1,-1,12,1006,RJAA 252300Z 28003KT 240V310 9999 FEW030 M01/M12 Q1006 BECMG     FM0000 31013KT RMK 1CU030 A2972=,
20180125_233000.001,0,RJAA,,,,0,20180125230000,-1,-1,-1,-1,280,-1,6,-1,-1,240,310,,9999,0,0,1,FEW 30,1,1,-1,13,1006,RJAA 252330Z 28006KT 240V310 9999 FEW030 01/M13 Q1006 TEMPO     FM0030 31015G25KT RMK 1CU030 A2972=,
20180126_000000.002,0,RJAA,,,,0,20180126000000,-1,-1,-1,-1,300,-1,10,-1,-1,270,330,,9999,0,0,1,FEW 30,1,1,-1,12,1006,RJAA 260000Z 30010KT 270V330 9999 FEW030 01/M12 Q1006 TEMPO     FM0030 31015G25KT RMK 1CU030 A2973=,
20180126_003000.001,0,RJAA,,,,0,20180126000000,-1,-1,-1,-1,320,-1,7,-1,-1,280,350,,9999,0,0,1,FEW 30,1,2,-1,11,1006,RJAA 260030Z 32007KT 280V350 9999 FEW030 02/M11 Q1006 TEMPO     31015G25KT RMK 1CU030 A2973 MOD TURB OBS AT 0025Z 20NM NE           NARITA BTN 12000FT AND 11000FT IN DES B738 JAL3040=,
20180126_010000.002,0,RJAA,,,,0,20180126010000,-1,-1,-1,-1,310,-1,11,-1,-1,-1,-1,,9999,0,0,1,FEW 30,1,2,-1,11,1006,RJAA 260100Z 31011KT 9999 FEW030 02/M11 Q1006 TEMPO 31015G25KT     RMK 1CU030 A2973=,
20180126_013000.001,0,RJAA,,,,0,20180126010000,-1,-1,-1,-1,310,-1,12,-1,-1,-1,-1,,9999,0,0,1,FEW 30,1,3,-1,11,1006,RJAA 260130Z 31012KT 9999 FEW030 03/M11 Q1006 TEMPO 31018G28KT     RMK 1CU030 A2972=,
20180126_020000.002,0,RJAA,,,,0,20180126020000,-1,-1,-1,-1,320,-1,18,-1,28,-1,-1,,9999,0,0,1,FEW 30,1,3,-1,13,1006,RJAA 260200Z 32018G28KT 9999 FEW030 03/M13 Q1006 NOSIG RMK     1CU030 A2972=,
20180126_023000.001,0,RJAA,,,,0,20180126020000,-1,-1,-1,-1,310,-1,17,-1,-1,-1,-1,,9999,0,0,1,FEW 30,1,3,-1,13,1005,RJAA 260230Z 31017KT 9999 FEW030 03/M13 Q1005 TEMPO 31018G28KT     RMK 1CU030 A2970 MOD TURB OBS AT 0220Z 15NM W MELON BTN           10000FT AND 12000FT IN CMB B738 UAL827=,
20180126_030000.002,0,RJAA,,,,0,20180126030000,-1,-1,-1,-1,320,-1,16,-1,-1,-1,-1,,9999,0,0,1,FEW 30,1,4,-1,12,1005,RJAA 260300Z 32016KT 9999 FEW030 04/M12 Q1005 TEMPO 31018G28KT     RMK 1CU030 A2969 MOD TURB OBS AT 0236Z 10NM W NARITA BTN           9000FT AND 11500FT IN CMB B789 JAL725 AND MOD TURB OBS AT           0237Z ON DEP COURSE RWY34L 800FT AND BLW IN CMB B763           ANA813=,
20180126_033000.001,0,RJAA,,,,0,20180126030000,-1,-1,-1,-1,300,-1,14,-1,-1,-1,-1,,9999,0,0,1,FEW 30,1,4,-1,13,1005,RJAA 260330Z 30014KT 9999 FEW030 04/M13 Q1005 TEMPO 31018G28KT     RMK 1CU030 A2968 MOD TURB OBS AT 0314Z 20NM NE NARITA BTN           11000FT AND 9000FT IN DES B738 JAL954=,
20180126_040000.002,0,RJAA,,,,0,20180126040000,-1,-1,-1,-1,310,-1,17,-1,-1,-1,-1,,9999,0,0,1,FEW 30,1,4,-1,13,1004,RJAA 260400Z 31017KT 9999 FEW030 04/M13 Q1004 TEMPO 31018G28KT     RMK 1CU030 A2967 MOD TURB OBS AT 0348Z 17NM E NARITA BTN           10000FT AND 9000FT IN DES A320 JJP100=,
20180126_043000.001,0,RJAA,,,,0,20180126040000,-1,-1,-1,-1,320,-1,16,-1,-1,-1,-1,,9999,0,0,1,FEW 30,1,4,-1,13,1004,RJAA 260430Z 32016KT 9999 FEW030 04/M13 Q1004 TEMPO 31018G28KT     RMK 1CU030 A2967 MOD TURB OBS AT 0416Z 5NM NE NARITA BTN           10000FT AND 13000FT IN CMB A320 TTW201=,
20180126_050000.002,0,RJAA,,,,0,20180126050000,-1,-1,-1,-1,320,-1,19,-1,30,-1,-1,,9999,0,0,1,FEW 30,1,3,-1,14,1005,RJAA 260500Z 32019G30KT 9999 FEW030 03/M14 Q1005 NOSIG RMK     1CU030 A2968 MOD TURB OBS AT 0442Z AROUND BINKS BTN           10000FT AND 8000FT IN DES B767 JAL812=,
20180126_053000.001,0,RJAA,,,,0,20180126050000,-1,-1,-1,-1,320,-1,18,-1,-1,-1,-1,,9999,0,0,1,FEW 30,1,4,-1,14,1005,RJAA 260530Z 32018KT 9999 FEW030 04/M14 Q1005 WS R34L TEMPO     32018G28KT RMK 1CU030 A2969=,
20180126_060000.002,0,RJAA,,,,0,20180126060000,-1,-1,-1,-1,320,-1,13,-1,-1,-1,-1,,9999,0,0,1,FEW 30,1,3,-1,14,1005,RJAA 260600Z 32013KT 9999 FEW030 03/M14 Q1005 WS R34L WS R34R     TEMPO 32016G26KT RMK 1CU030 A2970=,
20180126_063000.001,0,RJAA,,,,0,20180126060000,-1,-1,-1,-1,320,-1,16,-1,-1,-1,-1,,9999,0,0,1,FEW 30,1,3,-1,14,1005,RJAA 260630Z 32016KT 9999 FEW030 03/M14 Q1005 WS R34L NOSIG     RMK 1CU030 A2970=,
20180126_070000.002,0,RJAA,,,,0,20180126070000,-1,-1,-1,-1,320,-1,15,-1,-1,-1,-1,,9999,0,0,3,FEW 30   SCT 80   BKN -9999,1,2,-1,13,1006,RJAA 260700Z 32015KT 9999 FEW030 SCT080 BKN/// 02/M13 Q1006 WS     R34L WS R34R NOSIG RMK 1CU030 3AC080 A2971=,
20180126_073000.001,0,RJAA,,,,0,20180126070000,-1,-1,-1,-1,330,-1,14,-1,-1,-1,-1,,9999,0,0,2,FEW 30   BKN 70,1,2,-1,14,1006,RJAA 260730Z 33014KT 9999 FEW030 BKN070 02/M14 Q1006 NOSIG RMK     1CU030 7AC070 A2973=,
20180126_080000.003,0,RJAA,,,,0,20180126080000,-1,-1,-1,-1,330,-1,14,-1,-1,-1,-1,,9999,0,0,2,FEW 30   BKN 70,1,2,-1,14,1007,RJAA 260800Z 33014KT 9999 FEW030 BKN070 02/M14 Q1007 NOSIG RMK     1CU030 7AC070 A2974=,
20180126_083000.001,0,RJAA,,,,0,20180126080000,-1,-1,-1,-1,320,-1,13,-1,-1,-1,-1,,9999,0,0,3,FEW 30   SCT 70   BKN 90,1,1,-1,15,1007,RJAA 260830Z 32013KT 9999 FEW030 SCT070 BKN090 01/M15 Q1007     NOSIG RMK 1CU030 3AC070 5AC090 A2974=,
20180126_090000.002,0,RJAA,,,,0,20180126090000,-1,-1,-1,-1,320,-1,10,-1,-1,-1,-1,,9999,0,0,2,FEW 30   SCT 70,1,0,-1,15,1007,RJAA 260900Z 32010KT 9999 FEW030 SCT070 00/M15 Q1007 NOSIG RMK     1CU030 3AC070 A2975=,
20180126_093000.001,0,RJAA,,,,0,20180126090000,-1,-1,-1,-1,310,-1,10,-1,-1,-1,-1,,9999,0,0,1,FEW 30,1,0,-1,15,1007,RJAA 260930Z 31010KT 9999 FEW030 00/M15 Q1007 NOSIG RMK 1CU030     A2975=,
20180126_100000.002,0,RJAA,,,,0,20180126100000,-1,-1,-1,-1,320,-1,14,-1,-1,-1,-1,,9999,0,0,1,FEW 30,1,0,-1,15,1008,RJAA 261000Z 32014KT 9999 FEW030 00/M15 Q1008 NOSIG RMK 1CU030     A2977=,
20180126_103000.001,0,RJAA,,,,0,20180126100000,-1,-1,-1,-1,310,-1,12,-1,-1,-1,-1,,9999,0,0,1,FEW 30,1,0,-1,16,1008,RJAA 261030Z 31012KT 9999 FEW030 00/M16 Q1008 NOSIG RMK 1CU030     A2977 MOD TURB OBS AT 1003Z 15NM NE NARITA BTN 7000FT AND           10000FT IN CMB A320 TTW203=,
20180126_110000.002,0,RJAA,,,,0,20180126110000,-1,-1,-1,-1,310,-1,17,-1,-1,-1,-1,,9999,0,0,1,FEW 30,-1,0,-1,15,1008,RJAA 261100Z 31017KT 9999 FEW030 M00/M15 Q1008 WS R34R TEMPO     32018G28KT RMK 1CU030 A2978=,
20180126_113000.001,0,RJAA,,,,0,20180126110000,-1,-1,-1,-1,320,-1,19,-1,-1,-1,-1,,9999,0,0,1,FEW 30,-1,0,-1,15,1008,RJAA 261130Z 32019KT 9999 FEW030 M00/M15 Q1008 WS R34R TEMPO     32018G28KT RMK 1CU030 A2978=,
20180126_120000.002,0,RJAA,,,,0,20180126120000,-1,-1,-1,-1,310,-1,18,-1,-1,-1,-1,,9999,0,0,1,FEW 30,-1,0,-1,15,1008,RJAA 261200Z 31018KT 9999 FEW030 M00/M15 Q1008 WS R34L WS R34R     TEMPO 32018G28KT RMK 1CU030 A2979=,
20180126_123000.001,0,RJAA,,,,0,20180126120000,-1,-1,-1,-1,300,-1,10,-1,-1,-1,-1,,9999,0,0,1,FEW 30,-1,1,-1,14,1009,RJAA 261230Z 30010KT 9999 FEW030 M01/M14 Q1009 TEMPO     32015G25KT RMK 1CU030 A2980=,
20180126_130000.002,0,RJAA,,,,0,20180126130000,-1,-1,-1,-1,290,-1,9,-1,-1,250,330,,9999,0,0,1,FEW 30,-1,1,-1,14,1009,RJAA 261300Z 29009KT 250V330 9999 FEW030 M01/M14 Q1009 NOSIG     RMK 1CU030 A2981=,
20180126_133000.001,0,RJAA,,,,0,20180126130000,-1,-1,-1,-1,290,-1,5,-1,-1,230,40,,9999,0,0,1,FEW 30,-1,1,-1,15,1009,RJAA 261330Z 29005KT 230V040 9999 FEW030 M01/M15 Q1009 NOSIG     RMK 1CU030 A2981=,
20180126_140000.002,0,RJAA,,,,0,20180126140000,-1,-1,-1,-1,290,-1,5,-1,-1,260,330,,9999,0,0,1,FEW 30,-1,1,-1,14,1009,RJAA 261400Z 29005KT 260V330 9999 FEW030 M01/M14 Q1009 NOSIG     RMK 1CU030 A2980=,
20180126_143000.001,0,RJAA,,,,0,20180126140000,-1,-1,-1,-1,310,-1,7,-1,-1,-1,-1,,9999,0,0,1,FEW 30,-1,2,-1,14,1009,RJAA 261430Z 31007KT 9999 FEW030 M02/M14 Q1009 NOSIG RMK     1CU030 A2981=,
20180126_150000.002,0,RJAA,,,,0,20180126150000,-1,-1,-1,-1,320,-1,5,-1,-1,-1,-1,,9999,0,0,1,FEW 30,-1,3,-1,13,1009,RJAA 261500Z 32005KT 9999 FEW030 M03/M13 Q1009 NOSIG RMK     1CU030 A2982=,
20180126_153000.001,0,RJAA,,,,0,20180126150000,-1,-1,-1,-1,310,-1,4,-1,-1,-1,-1,,9999,0,0,1,FEW 30,-1,3,-1,13,1010,RJAA 261530Z 31004KT 9999 FEW030 M03/M13 Q1010 NOSIG RMK     1CU030 A2982=,
20180126_160000.002,0,RJAA,,,,0,20180126160000,-1,-1,-1,-1,999,-1,2,-1,-1,-1,-1,,9999,0,0,1,FEW 30,-1,3,-1,13,1010,RJAA 261600Z VRB02KT 9999 FEW030 M03/M13 Q1010 NOSIG RMK     1CU030 A2983=,
20180126_163000.001,0,RJAA,,,,0,20180126160000,-1,-1,-1,-1,310,-1,3,-1,-1,230,50,,9999,0,0,1,FEW 30,-1,3,-1,13,1010,RJAA 261630Z 31003KT 230V050 9999 FEW030 M03/M13 Q1010 NOSIG     RMK 1CU030 A2984=,
20180126_170000.002,0,RJAA,,,,0,20180126170000,-1,-1,-1,-1,300,-1,3,-1,-1,-1,-1,,9999,0,0,1,FEW 30,-1,3,-1,13,1010,RJAA 261700Z 30003KT 9999 FEW030 M03/M13 Q1010 NOSIG RMK     1CU030 A2985=,
20180126_173000.001,0,RJAA,,,,0,20180126170000,-1,-1,-1,-1,0,-1,0,-1,-1,-1,-1,,9999,0,0,1,FEW 30,-1,3,-1,13,1011,RJAA 261730Z 00000KT 9999 FEW030 M03/M13 Q1011 NOSIG RMK     1CU030 A2985=,
20180126_180000.002,0,RJAA,,,,0,20180126180000,-1,-1,-1,-1,320,-1,3,-1,-1,-1,-1,,9999,0,0,1,FEW 30,-1,3,-1,13,1011,RJAA 261800Z 32003KT 9999 FEW030 M03/M13 Q1011 NOSIG RMK     1CU030 A2986=,
20180126_183000.001,0,RJAA,,,,0,20180126180000,-1,-1,-1,-1,999,-1,2,-1,-1,-1,-1,,9999,0,0,1,FEW 40,-1,6,-1,12,1011,RJAA 261830Z VRB02KT 9999 FEW040 M06/M12 Q1011 NOSIG RMK     1SC040 A2986=,
20180126_190000.002,0,RJAA,,,,0,20180126190000,-1,-1,-1,-1,0,-1,0,-1,-1,-1,-1,,9999,0,0,1,FEW 40,-1,5,-1,12,1011,RJAA 261900Z 00000KT 9999 FEW040 M05/M12 Q1011 NOSIG RMK     1SC040 A2987=,
20180126_193000.001,0,RJAA,,,,0,20180126190000,-1,-1,-1,-1,999,-1,2,-1,-1,-1,-1,,9999,0,0,1,FEW 40,-1,5,-1,12,1011,RJAA 261930Z VRB02KT 9999 FEW040 M05/M12 Q1011 NOSIG RMK     1SC040 A2988=,
20180126_200000.003,0,RJAA,,,,0,20180126200000,-1,-1,-1,-1,260,-1,3,-1,-1,-1,-1,,9999,0,0,1,FEW 40,-1,4,-1,13,1011,RJAA 262000Z 26003KT 9999 FEW040 M04/M13 Q1011 NOSIG RMK     1SC040 A2988=,
20180126_203000.001,0,RJAA,,,,0,20180126200000,-1,-1,-1,-1,999,-1,2,-1,-1,-1,-1,,9999,0,0,1,FEW 40,-1,3,-1,13,1012,RJAA 262030Z VRB02KT 9999 FEW040 M03/M13 Q1012 NOSIG RMK     1SC040 A2989=,
20180126_210000.002,0,RJAA,,,,0,20180126210000,-1,-1,-1,-1,999,-1,2,-1,-1,-1,-1,,9999,0,0,1,FEW 30,-1,4,-1,13,1012,RJAA 262100Z VRB02KT 9999 FEW030 M04/M13 Q1012 NOSIG RMK     1CU030 A2990=,
20180126_213000.001,0,RJAA,,,,0,20180126210000,-1,-1,-1,-1,240,-1,5,-1,-1,210,280,,9999,0,0,1,FEW 30,-1,3,-1,13,1012,RJAA 262130Z 24005KT 210V280 9999 FEW030 M03/M13 Q1012 BECMG     30006KT RMK 1CU030 A2991=,
20180126_220000.002,0,RJAA,,,,0,20180126220000,-1,-1,-1,-1,250,-1,7,-1,-1,220,280,,9999,0,0,1,FEW 30,-1,1,-1,13,1013,RJAA 262200Z 25007KT 220V280 9999 FEW030 M01/M13 Q1013 NOSIG     RMK 1CU030 A2993=,
20180126_223000.002,0,RJAA,,,,0,20180126220000,-1,-1,-1,-1,250,-1,6,-1,-1,220,290,,9999,0,0,1,FEW 30,-1,0,-1,14,1013,RJAA 262230Z 25006KT 220V290 9999 FEW030 M00/M14 Q1013 NOSIG     RMK 1CU030 A2994=,
20180126_230000.002,0,RJAA,,,,0,20180126230000,-1,-1,-1,-1,250,-1,8,-1,-1,210,290,,9999,0,0,1,FEW 30,1,1,-1,14,1013,RJAA 262300Z 25008KT 210V290 9999 FEW030 01/M14 Q1013 NOSIG     RMK 1CU030 A2994=,
20180126_233000.001,0,RJAA,,,,0,20180126230000,-1,-1,-1,-1,260,-1,11,-1,-1,-1,-1,,9999,0,0,1,FEW 30,1,2,-1,14,1014,RJAA 262330Z 26011KT 9999 FEW030 02/M14 Q1014 NOSIG RMK 1CU030     A2995=,
20180127_000000.002,0,RJAA,,,,0,20180127000000,-1,-1,-1,-1,270,-1,12,-1,23,240,300,,9999,0,0,1,FEW 30,1,2,-1,14,1014,RJAA 270000Z 27012G23KT 240V300 9999 FEW030 02/M14 Q1014 NOSIG     RMK 1CU030 A2995=,
20180127_003000.001,0,RJAA,,,,0,20180127000000,-1,-1,-1,-1,290,-1,12,-1,-1,-1,-1,,9999,0,0,1,FEW 30,1,3,-1,14,1014,RJAA 270030Z 29012KT 9999 FEW030 03/M14 Q1014 NOSIG RMK 1CU030     A2995=,
20180127_010000.002,0,RJAA,,,,0,20180127010000,-1,-1,-1,-1,300,-1,12,-1,-1,260,330,,9999,0,0,1,FEW 30,1,4,-1,12,1014,RJAA 270100Z 30012KT 260V330 9999 FEW030 04/M12 Q1014 TEMPO     31016G27KT RMK 1CU030 A2996=,
20180127_013000.001,0,RJAA,,,,0,20180127010000,-1,-1,-1,-1,300,-1,11,-1,-1,260,330,,9999,0,0,1,FEW 30,1,4,-1,12,1014,RJAA 270130Z 30011KT 260V330 9999 FEW030 04/M12 Q1014 TEMPO     31016G27KT RMK 1CU030 A2996=,
20180127_020000.002,0,RJAA,,,,0,20180127020000,-1,-1,-1,-1,310,-1,15,-1,26,280,340,,9999,0,0,1,FEW 30,1,5,-1,11,1013,RJAA 270200Z 31015G26KT 280V340 9999 FEW030 05/M11 Q1013 NOSIG     RMK 1CU030 A2994=,
20180127_023000.001,0,RJAA,,,,0,20180127020000,-1,-1,-1,-1,300,-1,16,-1,27,270,330,,9999,0,0,1,FEW 30,1,5,-1,12,1013,RJAA 270230Z 30016G27KT 270V330 9999 FEW030 05/M12 Q1013 WS     R34R NOSIG RMK 1CU030 A2992=,
20180127_030000.002,0,RJAA,,,,0,20180127030000,-1,-1,-1,-1,300,-1,18,-1,-1,-1,-1,,9999,0,0,1,FEW 30,1,5,-1,12,1013,RJAA 270300Z 30018KT 9999 FEW030 05/M12 Q1013 WS R34L WS R34R     TEMPO 31019G30KT RMK 1CU030 A2992=,
20180127_033000.001,0,RJAA,,,,0,20180127030000,-1,-1,-1,-1,300,-1,17,-1,-1,-1,-1,,9999,0,0,1,FEW 30,1,6,-1,11,1013,RJAA 270330Z 30017KT 9999 FEW030 06/M11 Q1013 WS R34R TEMPO     31019G30KT RMK 1CU030 A2992 SEV TO MOD TURB OBS AT 0304Z           ON FNA RWY34R 500FT AND BLW IN DES A321 ASV752 AND MOD           TURB OBS AT 0320Z ON DEP COURSE RWY34L BTN 500FT AND           4000FT IN CMB A350 THA643=,
20180127_040000.002,0,RJAA,,,,0,20180127040000,-1,-1,-1,-1,290,-1,10,-1,20,240,320,,9999,0,0,1,FEW 35,1,6,-1,12,1013,RJAA 270400Z 29010G20KT 240V320 9999 FEW035 06/M12 Q1013 NOSIG     RMK 1CU035 A2991=,
20180127_043000.001,0,RJAA,,,,0,20180127040000,-1,-1,-1,-1,300,-1,19,-1,31,-1,-1,,9999,0,0,1,FEW 35,1,6,-1,13,1013,RJAA 270430Z 30019G31KT 9999 FEW035 06/M13 Q1013 NOSIG RMK     1CU035 A2992=,
20180127_050000.002,0,RJAA,,,,0,20180127050000,-1,-1,-1,-1,310,-1,15,-1,-1,270,340,,9999,0,0,1,FEW 35,1,6,-1,12,1013,RJAA 270500Z 31015KT 270V340 9999 FEW035 06/M12 Q1013 WS R34L     WS R34R TEMPO 31018G28KT RMK 1CU035 A2993=,
20180127_053000.001,0,RJAA,,,,0,20180127050000,-1,-1,-1,-1,300,-1,14,-1,25,260,330,,9999,0,0,1,FEW 35,1,6,-1,13,1013,RJAA 270530Z 30014G25KT 260V330 9999 FEW035 06/M13 Q1013 WS     R34R NOSIG RMK 1CU035 A2994=,
20180127_060000.002,0,RJAA,,,,0,20180127060000,-1,-1,-1,-1,310,-1,16,-1,26,-1,-1,,9999,0,0,1,FEW 35,1,6,-1,12,1013,RJAA 270600Z 31016G26KT 9999 FEW035 06/M12 Q1013 WS R34R NOSIG     RMK 1CU035 A2994=,
20180127_063000.001,0,RJAA,,,,0,20180127060000,-1,-1,-1,-1,320,-1,22,-1,34,-1,-1,,9999,0,0,1,FEW 35,1,6,-1,13,1013,RJAA 270630Z 32022G34KT 9999 FEW035 06/M13 Q1013 WS R34L NOSIG     RMK 1CU035 A2994=,
20180127_070000.002,0,RJAA,,,,0,20180127070000,-1,-1,-1,-1,310,-1,16,-1,-1,-1,-1,,9999,0,0,1,FEW 35,1,5,-1,13,1014,RJAA 270700Z 31016KT 9999 FEW035 05/M13 Q1014 WS R34L WS R34R     TEMPO 31018G28KT RMK 1CU035 A2995=,
20180127_073000.001,0,RJAA,,,,0,20180127070000,-1,-1,-1,-1,310,-1,17,-1,-1,-1,-1,,9999,0,0,1,FEW 35,1,5,-1,12,1015,RJAA 270730Z 31017KT 9999 FEW035 05/M12 Q1015 WS R34L WS R34R     TEMPO 31018G28KT RMK 1CU035 A2997=,
20180127_080000.002,0,RJAA,,,,0,20180127080000,-1,-1,-1,-1,310,-1,14,-1,24,-1,-1,,9999,0,0,1,FEW 35,1,4,-1,12,1015,RJAA 270800Z 31014G24KT 9999 FEW035 04/M12 Q1015 WS R34L NOSIG     RMK 1CU035 A2998=,
20180127_083000.001,0,RJAA,,,,0,20180127080000,-1,-1,-1,-1,310,-1,11,-1,-1,-1,-1,,9999,0,0,1,FEW 30,1,3,-1,11,1015,RJAA 270830Z 31011KT 9999 FEW030 03/M11 Q1015 WS R34L NOSIG     RMK 1CU030 A2999=,
20180127_090000.003,0,RJAA,,,,0,20180127090000,-1,-1,-1,-1,310,-1,10,-1,-1,-1,-1,,9999,0,0,1,FEW 30,1,3,-1,12,1016,RJAA 270900Z 31010KT 9999 FEW030 03/M12 Q1016 NOSIG RMK 1CU030     A3001=,
20180127_093000.001,0,RJAA,,,,0,20180127090000,-1,-1,-1,-1,310,-1,8,-1,-1,280,350,,9999,0,0,1,FEW 30,1,2,-1,11,1016,RJAA 270930Z 31008KT 280V350 9999 FEW030 02/M11 Q1016 NOSIG     RMK 1CU030 A3002=,
20180127_100000.002,0,RJAA,,,,0,20180127100000,-1,-1,-1,-1,310,-1,8,-1,-1,-1,-1,,9999,0,0,1,FEW 30,1,2,-1,11,1017,RJAA 271000Z 31008KT 9999 FEW030 02/M11 Q1017 NOSIG RMK 1CU030     A3004=,
20180127_103000.001,0,RJAA,,,,0,20180127100000,-1,-1,-1,-1,300,-1,8,-1,-1,-1,-1,,9999,0,0,1,FEW 30,1,2,-1,11,1017,RJAA 271030Z 30008KT 9999 FEW030 02/M11 Q1017 NOSIG RMK 1CU030     A3004=,
20180127_110000.002,0,RJAA,,,,0,20180127110000,-1,-1,-1,-1,310,-1,12,-1,23,-1,-1,,9999,0,0,1,FEW 30,1,2,-1,11,1017,RJAA 271100Z 31012G23KT 9999 FEW030 02/M11 Q1017 NOSIG RMK     1CU030 A3004=,
20180127_113000.001,0,RJAA,,,,0,20180127110000,-1,-1,-1,-1,310,-1,13,-1,-1,270,330,,9999,0,0,1,FEW 30,1,2,-1,12,1017,RJAA 271130Z 31013KT 270V330 9999 FEW030 02/M12 Q1017 WS R34R     NOSIG RMK 1CU030 A3004=,
20180127_120000.002,0,RJAA,,,,0,20180127120000,-1,-1,-1,-1,310,-1,13,-1,-1,-1,-1,,9999,0,0,1,FEW 30,1,2,-1,12,1017,RJAA 271200Z 31013KT 9999 FEW030 02/M12 Q1017 WS R34R NOSIG     RMK 1CU030 A3005=,
20180127_123000.001,0,RJAA,,,,0,20180127120000,-1,-1,-1,-1,290,-1,11,-1,22,250,320,,9999,0,0,1,FEW 30,1,2,-1,12,1017,RJAA 271230Z 29011G22KT 250V320 9999 FEW030 02/M12 Q1017 WS     R34L NOSIG RMK 1CU030 A3005=,
20180127_130000.002,0,RJAA,,,,0,20180127130000,-1,-1,-1,-1,290,-1,9,-1,-1,-1,-1,,9999,0,0,1,FEW 30,1,1,-1,12,1017,RJAA 271300Z 29009KT 9999 FEW030 01/M12 Q1017 WS R34R NOSIG     RMK 1CU030 A3006=,
20180127_133000.001,0,RJAA,,,,0,20180127130000,-1,-1,-1,-1,300,-1,8,-1,-1,-1,-1,,9999,0,0,1,FEW 30,1,1,-1,11,1017,RJAA 271330Z 30008KT 9999 FEW030 01/M11 Q1017 NOSIG RMK 1CU030     A3006=,
20180127_140000.003,0,RJAA,,,,0,20180127140000,-1,-1,-1,-1,280,-1,7,-1,-1,250,320,,9999,0,0,1,FEW 30,1,1,-1,12,1018,RJAA 271400Z 28007KT 250V320 9999 FEW030 01/M12 Q1018 NOSIG     RMK 1CU030 A3006=,
20180127_143000.001,0,RJAA,,,,0,20180127140000,-1,-1,-1,-1,290,-1,6,-1,-1,260,320,,9999,0,0,1,FEW 30,1,1,-1,12,1018,RJAA 271430Z 29006KT 260V320 9999 FEW030 01/M12 Q1018 NOSIG     RMK 1CU030 A3006=,
20180127_150000.002,0,RJAA,,,,0,20180127150000,-1,-1,-1,-1,310,-1,5,-1,-1,-1,-1,,9999,0,0,1,FEW 30,1,0,-1,12,1018,RJAA 271500Z 31005KT 9999 FEW030 00/M12 Q1018 NOSIG RMK 1CU030     A3007=,
20180127_153000.001,0,RJAA,,,,0,20180127150000,-1,-1,-1,-1,290,-1,7,-1,-1,-1,-1,,9999,0,0,1,FEW 30,1,1,-1,11,1018,RJAA 271530Z 29007KT 9999 FEW030 01/M11 Q1018 NOSIG RMK 1CU030     A3008=,
20180127_160000.002,0,RJAA,,,,0,20180127160000,-1,-1,-1,-1,290,-1,10,-1,-1,-1,-1,,9999,0,0,1,FEW 30,1,1,-1,12,1018,RJAA 271600Z 29010KT 9999 FEW030 01/M12 Q1018 NOSIG RMK 1CU030     A3007=,
20180127_163000.001,0,RJAA,,,,0,20180127160000,-1,-1,-1,-1,290,-1,6,-1,-1,240,340,,9999,0,0,1,FEW 30,1,0,-1,11,1018,RJAA 271630Z 29006KT 240V340 9999 FEW030 00/M11 Q1018 NOSIG     RMK 1CU030 A3008=,
20180127_170000.002,0,RJAA,,,,0,20180127170000,-1,-1,-1,-1,330,-1,8,-1,-1,-1,-1,,9999,0,0,1,FEW 30,-1,1,-1,10,1018,RJAA 271700Z 33008KT 9999 FEW030 M01/M10 Q1018 NOSIG RMK     1CU030 A3008=,
20180127_173000.001,0,RJAA,,,,0,20180127170000,-1,-1,-1,-1,330,-1,7,-1,-1,-1,-1,,9999,0,0,1,FEW 30,-1,1,-1,10,1018,RJAA 271730Z 33007KT 9999 FEW030 M01/M10 Q1018 NOSIG RMK     1CU030 A3008=,
20180127_180000.002,0,RJAA,,,,0,20180127180000,-1,-1,-1,-1,340,-1,3,-1,-1,310,10,,9999,0,0,1,FEW 30,-1,2,-1,10,1018,RJAA 271800Z 34003KT 310V010 9999 FEW030 M02/M10 Q1018 NOSIG     RMK 1CU030 A3008=,
20180127_183000.001,0,RJAA,,,,0,20180127180000,-1,-1,-1,-1,280,-1,4,-1,-1,250,320,,9999,0,0,1,FEW 30,-1,1,-1,10,1018,RJAA 271830Z 28004KT 250V320 9999 FEW030 M01/M10 Q1018 NOSIG     RMK 1CU030 A3007=,
20180127_190000.002,0,RJAA,,,,0,20180127190000,-1,-1,-1,-1,280,-1,6,-1,-1,-1,-1,,9999,0,0,1,FEW 30,-1,1,-1,10,1018,RJAA 271900Z 28006KT 9999 FEW030 M01/M10 Q1018 NOSIG RMK     1CU030 A3007=,
20180127_193000.001,0,RJAA,,,,0,20180127190000,-1,-1,-1,-1,290,-1,4,-1,-1,260,330,,9999,0,0,1,FEW 30,-1,1,-1,10,1018,RJAA 271930Z 29004KT 260V330 9999 FEW030 M01/M10 Q1018 NOSIG     RMK 1CU030 A3008=,
20180127_200000.002,0,RJAA,,,,0,20180127200000,-1,-1,-1,-1,320,-1,6,-1,-1,-1,-1,,9999,0,0,2,FEW 30   SCT 190,-1,2,-1,9,1018,RJAA 272000Z 32006KT 9999 FEW030 SCT190 M02/M09 Q1018 NOSIG     RMK 1CU030 4AC190 A3006=,
20180127_203000.001,0,RJAA,,,,0,20180127200000,-1,-1,-1,-1,290,-1,3,-1,-1,270,330,,9999,0,0,2,FEW 30   SCT -9999,-1,2,-1,9,1018,RJAA 272030Z 29003KT 270V330 9999 FEW030 SCT/// M02/M09 Q1018     NOSIG RMK 1CU030 A3008=,
20180127_210000.002,0,RJAA,,,,0,20180127210000,-1,-1,-1,-1,300,-1,3,-1,-1,-1,-1,,9999,0,0,1,FEW 30,-1,4,-1,10,1018,RJAA 272100Z 30003KT 9999 FEW030 M04/M10 Q1018 NOSIG RMK     1CU030 A3008=,
20180127_213000.001,0,RJAA,,,,0,20180127210000,-1,-1,-1,-1,999,-1,1,-1,-1,-1,-1,,9999,0,0,1,FEW 30,-1,4,-1,9,1019,RJAA 272130Z VRB01KT 9999 FEW030 M04/M09 Q1019 NOSIG RMK     1CU030 A3009=,
20180127_220000.002,0,RJAA,,,,0,20180127220000,-1,-1,-1,-1,999,-1,1,-1,-1,-1,-1,,9999,0,0,1,FEW 30,-1,5,-1,9,1019,RJAA 272200Z VRB01KT 9999 FEW030 M05/M09 Q1019 NOSIG RMK     1CU030 A3009=,
20180127_223000.002,0,RJAA,,,,0,20180127220000,-1,-1,-1,-1,310,-1,3,-1,-1,230,330,,9999,0,0,2,FEW 30   BKN -9999,-1,3,-1,8,1019,RJAA 272230Z 31003KT 230V330 9999 FEW030 BKN/// M03/M08 Q1019     NOSIG RMK 1CU030 A3009=,
20180127_230000.002,0,RJAA,,,,0,20180127230000,-1,-1,-1,-1,350,-1,3,-1,-1,-1,-1,,9999,0,0,2,FEW 30   BKN -9999,-1,1,-1,8,1018,RJAA 272300Z 35003KT 9999 FEW030 BKN/// M01/M08 Q1018 BECMG     TL0000 08006KT RMK 1CU030 A3008=,
20180127_233000.001,0,RJAA,,,,0,20180127230000,-1,-1,-1,-1,330,-1,2,-1,-1,-1,-1,,9999,0,0,3,FEW 30   SCT 170   BKN -9999,1,0,-1,8,1018,RJAA 272330Z 33002KT 9999 FEW030 SCT170 BKN/// 00/M08 Q1018     BECMG TL0000 08006KT RMK 1CU030 3AC170 A3008=,
20180128_000000.003,0,RJAA,,,,0,20180128000000,-1,-1,-1,-1,999,-1,2,-1,-1,-1,-1,,9999,0,0,2,FEW 30   BKN 160,1,2,-1,8,1018,RJAA 280000Z VRB02KT 9999 FEW030 BKN160 02/M08 Q1018 BECMG     TL0030 08006KT RMK 1CU030 7AC160 A3008=,
20180128_003000.001,0,RJAA,,,,0,20180128000000,-1,-1,-1,-1,10,-1,5,-1,-1,330,40,,9999,0,0,3,FEW 30   BKN 40   BKN 160,1,3,-1,8,1019,RJAA 280030Z 01005KT 330V040 9999 FEW030 BKN040 BKN160 03/M08     Q1019 NOSIG RMK 1CU030 5SC040 6AC160 A3009=,
20180128_010000.002,0,RJAA,,,,0,20180128010000,-1,-1,-1,-1,10,-1,6,-1,-1,330,50,,9999,0,0,3,FEW 30   BKN 40   BKN 150,1,4,-1,9,1018,RJAA 280100Z 01006KT 330V050 9999 FEW030 BKN040 BKN150 04/M09     Q1018 NOSIG RMK 1CU030 6SC040 7AC150 A3008=,
20180128_013000.001,0,RJAA,,,,0,20180128010000,-1,-1,-1,-1,999,-1,3,-1,-1,-1,-1,,9999,0,0,2,FEW 30   BKN 40,1,4,-1,8,1018,RJAA 280130Z VRB03KT 9999 FEW030 BKN040 04/M08 Q1018 NOSIG RMK     1CU030 7SC040 A3006=,
20180128_020000.002,0,RJAA,,,,0,20180128020000,-1,-1,-1,-1,40,-1,3,-1,13,-1,-1,,9999,0,0,2,FEW 30   BKN 45,1,5,-1,7,1017,RJAA 280200Z 04003G13KT 9999 FEW030 BKN045 05/M07 Q1017 BECMG     TL0230 08005KT RMK 1CU030 7SC045 A3005=,
20180128_023000.001,0,RJAA,,,,0,20180128020000,-1,-1,-1,-1,110,-1,6,-1,-1,-1,-1,,9999,0,0,3,FEW 30   SCT 40   BKN 130,1,5,-1,5,1016,RJAA 280230Z 11006KT 9999 FEW030 SCT040 BKN130 05/M05 Q1016     NOSIG RMK 1CU030 3SC040 7AC130 A3003=,
20180128_030000.002,0,RJAA,,,,0,20180128030000,-1,-1,-1,-1,120,-1,6,-1,-1,90,150,,9999,0,0,2,FEW 30   BKN 130,1,6,-1,5,1015,RJAA 280300Z 12006KT 090V150 9999 FEW030 BKN130 06/M05 Q1015     NOSIG RMK 1CU030 7AC130 A3000 P/FR=,
20180128_033000.001,0,RJAA,,,,0,20180128030000,-1,-1,-1,-1,130,-1,8,-1,-1,-1,-1,,9999,0,0,3,FEW 30   SCT 50   BKN 120,1,6,-1,5,1014,RJAA 280330Z 13008KT 9999 FEW030 SCT050 BKN120 06/M05 Q1014     NOSIG RMK 1CU030 4SC050 7AC120 A2997=,
20180128_040000.002,0,RJAA,,,,0,20180128040000,-1,-1,-1,-1,170,-1,7,-1,-1,-1,-1,,9999,0,0,2,FEW 30   BKN 40,1,6,-1,7,1014,RJAA 280400Z 17007KT 9999 FEW030 BKN040 06/M07 Q1014 NOSIG RMK     1CU030 7SC040 A2997=,
20180128_043000.001,0,RJAA,,,,0,20180128040000,-1,-1,-1,-1,180,-1,3,-1,-1,-1,-1,,9999,0,0,2,FEW 30   BKN 40,1,6,-1,7,1014,RJAA 280430Z 18003KT 9999 FEW030 BKN040 06/M07 Q1014 BECMG     TL0500 33005KT RMK 1CU030 7SC040 A2996=,
20180128_050000.002,0,RJAA,,,,0,20180128050000,-1,-1,-1,-1,330,-1,6,-1,-1,-1,-1,,9999,0,0,3,FEW 30   SCT 40   BKN 50,1,4,-1,5,1014,RJAA 280500Z 33006KT 9999 FEW030 SCT040 BKN050 04/M05 Q1014     NOSIG RMK 1CU030 4SC040 7SC050 A2995=,
20180128_053000.001,0,RJAA,,,,0,20180128050000,-1,-1,-1,-1,330,-1,5,-1,-1,-1,-1,,9999,0,0,2,FEW 30   BKN 40,1,4,-1,5,1014,RJAA 280530Z 33005KT 9999 FEW030 BKN040 04/M05 Q1014 NOSIG RMK     1CU030 7SC040 A2995=,
20180128_060000.002,0,RJAA,,,,0,20180128060000,-1,-1,-1,-1,320,-1,3,-1,-1,-1,-1,,9999,0,0,3,FEW 30   BKN 40   BKN 120,1,4,-1,5,1013,RJAA 280600Z 32003KT 9999 FEW030 BKN040 BKN120 04/M05 Q1013     NOSIG RMK 1CU030 5SC040 7AC120 A2994 MOD ICING OBS AT           0537Z AROUND BINKS BTN 11000FT AND 9000FT IN DES A320           JJP204=,
20180128_063000.001,0,RJAA,,,,0,20180128060000,-1,-1,-1,-1,340,-1,4,-1,-1,320,20,,9999,0,0,3,FEW 30   BKN 35   BKN 120,1,5,-1,5,1013,RJAA 280630Z 34004KT 320V020 9999 FEW030 BKN035 BKN120 05/M05     Q1013 NOSIG RMK 1CU030 6SC035 7AC120 A2993=,
20180128_070000.003,0,RJAA,,,,0,20180128070000,-1,-1,-1,-1,330,-1,5,-1,-1,-1,-1,,9999,0,0,2,FEW 25   BKN 35,1,4,-1,5,1013,RJAA 280700Z 33005KT 9999 FEW025 BKN035 04/M05 Q1013 NOSIG RMK     1CU025 7SC035 A2993=,
20180128_073000.001,0,RJAA,,,,0,20180128070000,-1,-1,-1,-1,310,-1,3,-1,-1,280,350,,9999,0,0,2,FEW 25   BKN 35,1,4,-1,5,1013,RJAA 280730Z 31003KT 280V350 9999 FEW025 BKN035 04/M05 Q1013     NOSIG RMK 1CU025 6SC035 A2991=,
20180128_080000.002,0,RJAA,,,,0,20180128080000,-1,-1,-1,-1,80,-1,3,-1,-1,-1,-1,,9999,0,0,3,FEW 25   SCT 80   BKN -9999,1,3,-1,5,1012,RJAA 280800Z 08003KT 9999 FEW025 SCT080 BKN/// 03/M05 Q1012     NOSIG RMK 1CU025 3AC080 A2989=,
20180128_083000.001,0,RJAA,,,,0,20180128080000,-1,-1,-1,-1,130,-1,2,-1,-1,-1,-1,,9999,0,0,3,FEW 25   SCT 150   BKN -9999,1,3,-1,4,1012,RJAA 280830Z 13002KT 9999 FEW025 SCT150 BKN/// 03/M04 Q1012     NOSIG RMK 1CU025 3AC150 A2989=,
20180128_090000.002,0,RJAA,,,,0,20180128090000,-1,-1,-1,-1,999,-1,1,-1,-1,-1,-1,,9999,0,0,2,FEW 25   SCT -9999,1,1,-1,4,1012,RJAA 280900Z VRB01KT 9999 FEW025 SCT/// 01/M04 Q1012 NOSIG RMK     1CU025 A2990=,
20180128_093000.001,0,RJAA,,,,0,20180128090000,-1,-1,-1,-1,270,-1,2,-1,-1,-1,-1,,9999,0,0,1,FEW 25,1,1,-1,4,1012,RJAA 280930Z 27002KT 9999 FEW025 01/M04 Q1012 NOSIG RMK 1CU025     A2990=,
20180128_100000.002,0,RJAA,,,,0,20180128100000,-1,-1,-1,-1,320,-1,5,-1,-1,-1,-1,,9999,0,0,1,FEW 25,1,1,-1,4,1012,RJAA 281000Z 32005KT 9999 FEW025 01/M04 Q1012 NOSIG RMK 1CU025     A2989=,
20180128_103000.001,0,RJAA,,,,0,20180128100000,-1,-1,-1,-1,290,-1,3,-1,-1,-1,-1,,9999,0,0,1,FEW 25,1,1,-1,4,1011,RJAA 281030Z 29003KT 9999 FEW025 01/M04 Q1011 NOSIG RMK 1CU025     A2988=,
20180128_110000.002,0,RJAA,,,,0,20180128110000,-1,-1,-1,-1,999,-1,2,-1,-1,-1,-1,,9999,0,0,1,FEW 25,-1,1,-1,4,1011,RJAA 281100Z VRB02KT 9999 FEW025 M01/M04 Q1011 NOSIG RMK     1CU025 A2987=,
20180128_113000.001,0,RJAA,,,,0,20180128110000,-1,-1,-1,-1,999,-1,1,-1,-1,-1,-1,,9999,0,0,1,FEW 25,-1,1,-1,4,1011,RJAA 281130Z VRB01KT 9999 FEW025 M01/M04 Q1011 NOSIG RMK     1CU025 A2986=,
20180128_120000.002,0,RJAA,,,,0,20180128120000,-1,-1,-1,-1,999,-1,2,-1,-1,-1,-1,,9999,0,0,1,FEW 25,-1,2,-1,4,1011,RJAA 281200Z VRB02KT 9999 FEW025 M02/M04 Q1011 NOSIG RMK     1CU025 A2985=,
20180128_123000.001,0,RJAA,,,,0,20180128120000,-1,-1,-1,-1,999,-1,2,-1,-1,-1,-1,,9999,0,0,1,FEW 25,-1,3,-1,6,1010,RJAA 281230Z VRB02KT 9999 FEW025 M03/M06 Q1010 NOSIG RMK     1CU025 A2984=,
20180128_130000.002,0,RJAA,,,,0,20180128130000,-1,-1,-1,-1,120,-1,2,-1,-1,-1,-1,,9999,0,0,1,FEW 25,-1,2,-1,5,1009,RJAA 281300Z 12002KT 9999 FEW025 M02/M05 Q1009 NOSIG RMK     1CU025 A2982=,
20180128_133000.001,0,RJAA,,,,0,20180128130000,-1,-1,-1,-1,999,-1,2,-1,-1,-1,-1,,9999,0,0,1,FEW 25,-1,3,-1,5,1009,RJAA 281330Z VRB02KT 9999 FEW025 M03/M05 Q1009 NOSIG RMK     1CU025 A2980=,
20180128_140000.002,0,RJAA,,,,0,20180128140000,-1,-1,-1,-1,320,-1,6,-1,-1,-1,-1,,9999,0,0,1,FEW 30,-1,0,-1,3,1009,RJAA 281400Z 32006KT 9999 FEW030 M00/M03 Q1009 NOSIG RMK     1CU030 A2980=,
20180128_143000.001,0,RJAA,,,,0,20180128140000,-1,-1,-1,-1,310,-1,4,-1,-1,-1,-1,,9999,0,0,1,FEW 40,-1,1,-1,4,1009,RJAA 281430Z 31004KT 9999 FEW040 M01/M04 Q1009 NOSIG RMK     1SC040 A2979=,
20180128_150000.002,0,RJAA,,,,0,20180128150000,-1,-1,-1,-1,310,-1,5,-1,-1,-1,-1,,9999,0,0,2,FEW 40   SCT -9999,-1,2,-1,5,1008,RJAA 281500Z 31005KT 9999 FEW040 SCT/// M02/M05 Q1008 NOSIG     RMK 1SC040 A2977=,
20180128_153000.001,0,RJAA,,,,0,20180128150000,-1,-1,-1,-1,999,-1,2,-1,-1,-1,-1,,9999,0,0,2,FEW 40   SCT -9999,-1,2,-1,5,1007,RJAA 281530Z VRB02KT 9999 FEW040 SCT/// M02/M05 Q1007 NOSIG     RMK 1SC040 A2976=,
20180128_160000.002,0,RJAA,,,,0,20180128160000,-1,-1,-1,-1,999,-1,1,-1,-1,-1,-1,,9999,0,0,2,FEW 40   SCT -9999,-1,4,-1,6,1007,RJAA 281600Z VRB01KT 9999 FEW040 SCT/// M04/M06 Q1007 NOSIG     RMK 1SC040 A2976=,
20180128_163000.001,0,RJAA,,,,0,20180128160000,-1,-1,-1,-1,999,-1,1,-1,-1,-1,-1,,9999,0,0,2,FEW 40   BKN -9999,-1,3,-1,5,1007,RJAA 281630Z VRB01KT 9999 FEW040 BKN/// M03/M05 Q1007 NOSIG     RMK 1SC040 A2975=,
20180128_170000.002,0,RJAA,,,,0,20180128170000,-1,-1,-1,-1,999,-1,1,-1,-1,-1,-1,,9999,0,0,2,FEW 40   BKN -9999,-1,3,-1,5,1007,RJAA 281700Z VRB01KT 9999 FEW040 BKN/// M03/M05 Q1007 NOSIG     RMK 1SC040 A2975=,
20180128_173000.001,0,RJAA,,,,0,20180128170000,-1,-1,-1,-1,280,-1,2,-1,-1,-1,-1,,9999,0,0,2,FEW 40   BKN -9999,-1,3,-1,5,1007,RJAA 281730Z 28002KT 9999 FEW040 BKN/// M03/M05 Q1007 NOSIG     RMK 1SC040 A2975=,
20180128_180000.002,0,RJAA,,,,0,20180128180000,-1,-1,-1,-1,0,-1,0,-1,-1,-1,-1,,9999,0,0,3,FEW 40   BKN 170   BKN -9999,-1,2,-1,4,1006,RJAA 281800Z 00000KT 9999 FEW040 BKN170 BKN/// M02/M04 Q1006     NOSIG RMK 1SC040 5AC170 A2972=,
20180128_183000.001,0,RJAA,,,,0,20180128180000,-1,-1,-1,-1,999,-1,1,-1,-1,-1,-1,,9999,0,0,3,FEW 40   SCT 170   BKN -9999,-1,2,-1,4,1006,RJAA 281830Z VRB01KT 9999 FEW040 SCT170 BKN/// M02/M04 Q1006     NOSIG RMK 1SC040 4AC170 A2971=,
20180128_190000.002,0,RJAA,,,,0,20180128190000,-1,-1,-1,-1,320,-1,3,-1,-1,-1,-1,CAVOK,-1,0,0,0,,-1,3,-1,5,1006,RJAA 281900Z 32003KT CAVOK M03/M05 Q1006 NOSIG RMK A2972=,
20180128_193000.001,0,RJAA,,,,0,20180128190000,-1,-1,-1,-1,999,-1,2,-1,-1,-1,-1,CAVOK,-1,0,0,0,,-1,1,-1,5,1006,RJAA 281930Z VRB02KT CAVOK M01/M05 Q1006 NOSIG RMK A2972=,
20180128_200000.002,0,RJAA,,,,0,20180128200000,-1,-1,-1,-1,999,-1,2,-1,-1,-1,-1,CAVOK,-1,0,0,0,,-1,2,-1,6,1006,RJAA 282000Z VRB02KT CAVOK M02/M06 Q1006 NOSIG RMK A2972=,
20180128_203000.001,0,RJAA,,,,0,20180128200000,-1,-1,-1,-1,999,-1,2,-1,-1,-1,-1,CAVOK,-1,0,0,0,,-1,4,-1,6,1006,RJAA 282030Z VRB02KT CAVOK M04/M06 Q1006 NOSIG RMK A2972=,
20180128_210000.002,0,RJAA,,,,0,20180128210000,-1,-1,-1,-1,260,-1,2,-1,-1,-1,-1,,9999,0,0,1,FEW 30,-1,4,-1,6,1006,RJAA 282100Z 26002KT 9999 FEW030 M04/M06 Q1006 NOSIG RMK     1CU030 A2973=,
20180128_213000.001,0,RJAA,,,,0,20180128210000,-1,-1,-1,-1,999,-1,1,-1,-1,-1,-1,,9999,0,0,1,FEW 30,-1,4,-1,6,1006,RJAA 282130Z VRB01KT 9999 FEW030 M04/M06 Q1006 NOSIG RMK     1CU030 A2973=,
20180128_220000.003,0,RJAA,,,,0,20180128220000,-1,-1,-1,-1,999,-1,1,-1,-1,-1,-1,,9999,0,0,2,FEW 30   SCT 170,-1,3,-1,6,1007,RJAA 282200Z VRB01KT 9999 FEW030 SCT170 M03/M06 Q1007 NOSIG     RMK 1CU030 3AC170 A2974=,
20180128_223000.002,0,RJAA,,,,0,20180128220000,-1,-1,-1,-1,300,-1,3,-1,-1,-1,-1,,9999,0,0,1,FEW 30,-1,2,-1,6,1007,RJAA 282230Z 30003KT 9999 FEW030 M02/M06 Q1007 NOSIG RMK     1CU030 A2975=,
20180128_230000.002,0,RJAA,,,,0,20180128230000,-1,-1,-1,-1,330,-1,3,-1,-1,-1,-1,,9999,0,0,1,FEW 30,-1,1,-1,5,1007,RJAA 282300Z 33003KT 9999 FEW030 M01/M05 Q1007 NOSIG RMK     1CU030 A2975=,
20180128_233000.001,0,RJAA,,,,0,20180128230000,-1,-1,-1,-1,330,-1,3,-1,-1,-1,-1,,9999,0,0,2,FEW 30   SCT -9999,1,0,-1,5,1007,RJAA 282330Z 33003KT 9999 FEW030 SCT/// 00/M05 Q1007 NOSIG RMK     1CU030 A2975=,
20180129_000000.003,0,RJAA,,,,0,20180129000000,-1,-1,-1,-1,320,-1,7,-1,-1,-1,-1,,9999,0,0,2,FEW 30   SCT -9999,1,2,-1,5,1007,RJAA 290000Z 32007KT 9999 FEW030 SCT/// 02/M05 Q1007 NOSIG RMK     1CU030 A2975 MOD TURB OBS AT 2356Z 25NM S NARITA BTN           7000FT AND 6000FT IN DES B763 JAL3002=,
20180129_003000.001,0,RJAA,,,,0,20180129000000,-1,-1,-1,-1,330,-1,7,-1,-1,-1,-1,,9999,0,0,2,FEW 30   SCT -9999,1,3,-1,5,1008,RJAA 290030Z 33007KT 9999 FEW030 SCT/// 03/M05 Q1008 NOSIG RMK     1CU030 A2977 MOD TURB OBS AT 0018Z 20NM E NARITA BTN           9000FT AND 6000FT IN DES B77W AFR276=,
20180129_010000.002,0,RJAA,,,,0,20180129010000,-1,-1,-1,-1,360,-1,5,-1,-1,-1,-1,,9999,0,0,1,FEW 30,1,4,-1,6,1008,RJAA 290100Z 36005KT 9999 FEW030 04/M06 Q1008 NOSIG RMK 1CU030     A2977=,
20180129_013000.001,0,RJAA,,,,0,20180129010000,-1,-1,-1,-1,999,-1,1,-1,-1,-1,-1,,9999,0,0,1,FEW 30,1,6,-1,5,1007,RJAA 290130Z VRB01KT 9999 FEW030 06/M05 Q1007 BECMG 02005KT     RMK 1CU030 A2975=,
20180129_020000.002,0,RJAA,,,,0,20180129020000,-1,-1,-1,-1,350,-1,4,-1,-1,300,40,,9999,0,0,1,FEW 30,1,7,-1,4,1006,RJAA 290200Z 35004KT 300V040 9999 FEW030 07/M04 Q1006 NOSIG     RMK 1CU030 A2973=,
20180129_023000.001,0,RJAA,,,,0,20180129020000,-1,-1,-1,-1,999,-1,5,-1,-1,-1,-1,,9999,0,0,2,FEW 25   SCT -9999,1,9,-1,1,1005,RJAA 290230Z VRB05KT 9999 FEW025 SCT/// 09/M01 Q1005 BECMG     04005KT RMK 2CU025 A2970=,
20180129_030000.002,0,RJAA,,,,0,20180129030000,-1,-1,-1,-1,70,-1,9,-1,-1,-1,-1,,9999,0,0,2,FEW 25   BKN 30,1,9,1,1,1005,RJAA 290300Z 07009KT 9999 FEW025 BKN030 09/01 Q1005 NOSIG RMK     1CU025 5CU030 A2970=,
20180129_033000.001,0,RJAA,,,,0,20180129030000,-1,-1,-1,-1,40,-1,11,-1,-1,10,70,,9999,0,0,2,FEW 25   SCT 30,1,8,1,1,1005,RJAA 290330Z 04011KT 010V070 9999 FEW025 SCT030 08/01 Q1005     NOSIG RMK 1CU025 4CU030 A2969=,
20180129_040000.002,0,RJAA,,,,0,20180129040000,-1,-1,-1,-1,70,-1,9,-1,-1,30,110,,9999,0,0,2,FEW 25   BKN 30,1,8,1,1,1004,RJAA 290400Z 07009KT 030V110 9999 FEW025 BKN030 08/01 Q1004     NOSIG RMK 1CU025 5CU030 A2967=,
20180129_043000.001,0,RJAA,,,,0,20180129040000,-1,-1,-1,-1,50,-1,11,-1,-1,10,80,,9999,0,0,2,FEW 25   BKN 35,1,8,1,1,1005,RJAA 290430Z 05011KT 010V080 9999 FEW025 BKN035 08/01 Q1005     NOSIG RMK 2CU025 6CU035 A2968=,
20180129_050000.002,0,RJAA,,,,0,20180129050000,-1,-1,-1,-1,60,-1,12,-1,-1,-1,-1,,9999,0,0,2,FEW 25   SCT 40,1,8,1,1,1004,RJAA 290500Z 06012KT 9999 FEW025 SCT040 08/01 Q1004 NOSIG RMK     2CU025 3SC040 A2967=,
20180129_053000.001,0,RJAA,,,,0,20180129050000,-1,-1,-1,-1,40,-1,12,-1,-1,-1,-1,,9999,0,0,1,FEW 20,1,7,1,1,1004,RJAA 290530Z 04012KT 9999 FEW020 07/01 Q1004 NOSIG RMK 1CU020     A2966=,
20180129_060000.002,0,RJAA,,,,0,20180129060000,-1,-1,-1,-1,50,-1,11,-1,-1,-1,-1,,9999,0,0,1,FEW 20,1,7,1,1,1004,RJAA 290600Z 05011KT 9999 FEW020 07/01 Q1004 NOSIG RMK 1CU020     A2966=,
20180129_063000.001,0,RJAA,,,,0,20180129060000,-1,-1,-1,-1,50,-1,11,-1,-1,-1,-1,,9999,0,0,2,FEW 20   SCT 60,1,7,1,2,1004,RJAA 290630Z 05011KT 9999 FEW020 SCT060 07/02 Q1004 NOSIG RMK     1CU020 3SC060 A2967=,
20180129_070000.002,0,RJAA,,,,0,20180129070000,-1,-1,-1,-1,40,-1,11,-1,-1,-1,-1,,9999,0,0,2,FEW 20   SCT 35,1,7,1,1,1004,RJAA 290700Z 04011KT 9999 FEW020 SCT035 07/01 Q1004 NOSIG RMK     1CU020 3CU035 A2967=,
20180129_073000.001,0,RJAA,,,,0,20180129070000,-1,-1,-1,-1,50,-1,6,-1,-1,10,100,,9999,0,0,2,FEW 20   SCT 50,1,6,1,1,1005,RJAA 290730Z 05006KT 010V100 9999 FEW020 SCT050 06/01 Q1005     NOSIG RMK 1CU020 3SC050 A2968=,
20180129_080000.002,0,RJAA,,,,0,20180129080000,-1,-1,-1,-1,60,-1,7,-1,-1,10,90,,9999,0,0,1,FEW 30,1,6,1,2,1004,RJAA 290800Z 06007KT 010V090 9999 FEW030 06/02 Q1004 BECMG     04008KT RMK 2CU030 A2967 MOD TURB OBS AT 0742Z OVER TEMIS           3000FT A320 VNL954=,
20180129_083000.001,0,RJAA,,,,0,20180129080000,-1,-1,-1,-1,60,-1,8,-1,-1,10,80,,9999,0,0,1,FEW 30,1,6,1,2,1004,RJAA 290830Z 06008KT 010V080 9999 FEW030 06/02 Q1004 BECMG     04008KT RMK 1CU030 A2967 MOD TURB OBS AT 0809Z 35NM S           NARITA BTN 11000FT AND 8000FT IN DES B788 JAL876=,
20180129_090000.002,0,RJAA,,,,0,20180129090000,-1,-1,-1,-1,50,-1,5,-1,-1,360,90,,9999,0,0,1,FEW 30,1,5,1,2,1005,RJAA 290900Z 05005KT 360V090 9999 FEW030 05/02 Q1005 NOSIG RMK     1CU030 A2968=,
20180129_093000.001,0,RJAA,,,,0,20180129090000,-1,-1,-1,-1,50,-1,6,-1,-1,360,80,,9999,0,0,1,FEW 30,1,5,1,2,1005,RJAA 290930Z 05006KT 360V080 9999 FEW030 05/02 Q1005 NOSIG RMK     1CU030 A2968=,
20180129_100000.002,0,RJAA,,,,0,20180129100000,-1,-1,-1,-1,30,-1,6,-1,-1,350,90,,9999,0,0,1,FEW 30,1,5,1,2,1005,RJAA 291000Z 03006KT 350V090 9999 FEW030 05/02 Q1005 NOSIG RMK     1CU030 A2969=,
20180129_103000.001,0,RJAA,,,,0,20180129100000,-1,-1,-1,-1,10,-1,6,-1,-1,-1,-1,,9999,0,0,2,FEW 30   SCT -9999,1,4,1,1,1006,RJAA 291030Z 01006KT 9999 FEW030 SCT/// 04/01 Q1006 NOSIG RMK     1CU030 A2971=,
20180129_110000.002,0,RJAA,,,,0,20180129110000,-1,-1,-1,-1,10,-1,7,-1,-1,-1,-1,,9999,0,0,2,FEW 30   SCT 50,1,4,1,1,1006,RJAA 291100Z 01007KT 9999 FEW030 SCT050 04/01 Q1006 NOSIG RMK     1CU030 4SC050 A2971 LIGHT TO MOD TURB OBS AT 1040Z AROUND           BINKS BTN 10000FT AND 8000FT IN DES B772 CPA522=,
20180129_113000.001,0,RJAA,,,,0,20180129110000,-1,-1,-1,-1,330,-1,7,-1,-1,-1,-1,,9999,0,0,2,FEW 30   BKN 50,1,5,1,2,1006,RJAA 291130Z 33007KT 9999 FEW030 BKN050 05/02 Q1006 NOSIG RMK     1CU030 5SC050 A2972 MOD TURB OBS AT 1101Z 5NM N BINKS BTN           10500FT AND 8500FT IN DES B763 AJX810 AND MOD TURB OBS AT           1125Z BINKS 10000FT IN DES B738 CCA157=,
20180129_120000.002,0,RJAA,,,,0,20180129120000,-1,-1,-1,-1,30,-1,7,-1,-1,-1,-1,,9999,0,0,3,FEW 30   SCT 40   BKN 70,1,4,1,1,1006,RJAA 291200Z 03007KT 9999 FEW030 SCT040 BKN070 04/01 Q1006     NOSIG RMK 1CU030 3SC040 5AC070 A2972 MOD TURB OBS AT           1149Z OVER BINKS BTN 11000FT AND 7000FT IN DES B788           ANA960=,
20180129_123000.001,0,RJAA,,,,0,20180129120000,-1,-1,-1,-1,10,-1,7,-1,-1,-1,-1,,9999,0,0,2,FEW 30   BKN 60,1,4,1,1,1006,RJAA 291230Z 01007KT 9999 FEW030 BKN060 04/01 Q1006 NOSIG RMK     1CU030 6SC060 A2972=,
20180129_130000.002,0,RJAA,,,,0,20180129130000,-1,-1,-1,-1,350,-1,6,-1,-1,310,20,,9999,0,1,2,FEW 10   SCT 30,1,5,1,2,1006,RJAA 291300Z 35006KT 310V020 9999 -SHRA FEW010 SCT030 05/02     Q1006 TEMPO 3000 -SHSNRA FEW003 BKN006 RMK 1CU010 3CU030           A2972 MOD TURB OBS AT 1235Z BINKS BTN 10000FT AND 7000FT           IN DES A320 JJP606=,- RA SH
20180129_133000.001,0,RJAA,,,,0,20180129130000,-1,-1,-1,-1,340,-1,18,-1,-1,-1,-1,,9999,0,1,3,FEW 10   SCT 13   BKN 30,1,3,1,1,1007,RJAA 291330Z 34018KT 9999 -SHRA FEW010 SCT013 BKN030 03/01     Q1007 BECMG 35008KT TEMPO 3000 -SHSNRA FEW003 BKN006 RMK           1CU010 3CU013 5CU030 A2974=,- RA SH
20180129_140000.002,0,RJAA,,,,0,20180129140000,-1,-1,-1,-1,340,-1,17,-1,-1,-1,-1,,4500,0,2,3,FEW 3   BKN 6   BKN 15,1,2,1,0,1007,RJAA 291400Z 34017KT 4500 -SHRA BR FEW003 BKN006 BKN015 02/00     Q1007 BECMG 34007KT FEW010 BKN015 TEMPO 3000 -SHSNRA RMK           1ST003 5ST006 7CU015 A2976=,- RA SH; BR
20180129_143000.001,0,RJAA,,,,0,20180129140000,-1,-1,-1,-1,330,-1,14,-1,-1,-1,-1,,2000,2,2,3,FEW 2   BKN 5   BKN 15,1,1,-1,0,1008,RJAA 291430Z 33014KT 2000 R34L/P1800N R34R/1300VP1800D -SHSNRA     BR FEW002 BKN005 BKN015 01/M00 Q1008 BECMG FEW010 BKN015           RMK 2ST002 5ST005 7CU015 A2977=,- SN RA SH; BR
20180129_150000.002,0,RJAA,,,,0,20180129150000,-1,-1,-1,-1,360,-1,11,-1,-1,-1,-1,,9999,0,0,2,FEW 5   BKN 70,1,1,1,0,1007,RJAA 291500Z 36011KT 9999 FEW005 BKN070 01/00 Q1007 NOSIG RMK     2ST005 6AC070 A2975=,
20180129_153000.001,0,RJAA,,,,0,20180129150000,-1,-1,-1,-1,360,-1,5,-1,-1,-1,-1,,9999,0,0,2,FEW 5   BKN 70,1,1,1,0,1007,RJAA 291530Z 36005KT 9999 FEW005 BKN070 01/00 Q1007 NOSIG RMK     1ST005 5AC070 A2975=,
20180129_160000.002,0,RJAA,,,,0,20180129160000,-1,-1,-1,-1,360,-1,4,-1,-1,330,50,,9999,0,0,2,FEW 2   SCT 80,1,1,-1,0,1007,RJAA 291600Z 36004KT 330V050 9999 FEW002 SCT080 01/M00 Q1007     NOSIG RMK 1ST002 4AC080 A2976=,
20180129_163000.001,0,RJAA,,,,0,20180129160000,-1,-1,-1,-1,330,-1,7,-1,-1,-1,-1,,8000,0,0,2,FEW 2   BKN 80,1,0,-1,0,1008,RJAA 291630Z 33007KT 8000 FEW002 BKN080 00/M00 Q1008 NOSIG RMK     1ST002 6AC080 A2977=,
20180129_170000.002,0,RJAA,,,,0,20180129170000,-1,-1,-1,-1,320,-1,5,-1,-1,-1,-1,,4000,0,1,3,FEW 1   BKN 2   BKN 80,-1,0,-1,1,1008,RJAA 291700Z 32005KT 4000 BR FEW001 BKN002 BKN080 M00/M01     Q1008 TEMPO 2000 BR RMK 1ST001 6ST002 7AC080 A2979=,BR
20180129_173000.001,0,RJAA,,,,0,20180129170000,-1,-1,-1,-1,320,-1,5,-1,-1,-1,-1,,600,2,1,1,BKN 1,-1,0,-1,1,1008,RJAA 291730Z 32005KT 0600 R34L/0500V0800U R34R/0600N FZFG     BKN001 M00/M01 Q1008 TEMPO 0300 FZFG RMK 7ST001 A2979=,FZ FG
20180129_180000.002,0,RJAA,,,,0,20180129180000,-1,-1,-1,-1,320,-1,8,-1,-1,-1,-1,,300,2,1,1,BKN 1,-1,0,-1,1,1008,RJAA 291800Z 32008KT 0300 R34L/0500V0800D R34R/0400V0500N FZFG     BKN001 M00/M01 Q1008 NOSIG RMK 7ST001 A2979=,FZ FG
20180129_183000.001,0,RJAA,,,,0,20180129180000,-1,-1,-1,-1,330,-1,5,-1,-1,-1,-1,,600,2,1,1,BKN 1,-1,1,-1,1,1009,RJAA 291830Z 33005KT 0600 R34L/0400V0600N R34R/0450V0550N FZFG     BKN001 M01/M01 Q1009 NOSIG RMK 7ST001 A2980=,FZ FG
20180129_190000.002,0,RJAA,,,,0,20180129190000,-1,-1,-1,-1,310,-1,4,-1,-1,-1,-1,,800,2,1,2,BKN 1   BKN 4,-1,1,-1,1,1009,RJAA 291900Z 31004KT 0800 R34L/1100VP1800U R34R/1000VP1800D     FZFG BKN001 BKN004 M01/M01 Q1009 NOSIG RMK 5ST001 6ST004           A2982=,FZ FG
20180129_193000.001,0,RJAA,,,,0,20180129190000,-1,-1,-1,-1,330,-1,10,-1,-1,-1,-1,,1200,2,1,2,SCT 1   BKN 4,-1,1,-1,1,1010,RJAA 291930Z 33010KT 1200 R34L/P1800N R34R/1100VP1800D BR     SCT001 BKN004 M01/M01 Q1010 NOSIG RMK 3ST001 7ST004           A2984=,BR
20180129_200000.002,0,RJAA,,,,0,20180129200000,-1,-1,-1,-1,330,-1,5,-1,-1,-1,-1,,3500,0,1,3,FEW 1   SCT 4   BKN 80,-1,1,-1,2,1011,RJAA 292000Z 33005KT 3500 BR FEW001 SCT004 BKN080 M01/M02     Q1011 NOSIG RMK 1ST001 3ST004 5AC080 A2986=,BR
20180129_203000.001,0,RJAA,,,,0,20180129200000,-1,-1,-1,-1,330,-1,7,-1,-1,-1,-1,,7000,0,0,2,FEW 4   BKN 80,-1,1,-1,2,1011,RJAA 292030Z 33007KT 7000 FEW004 BKN080 M01/M02 Q1011 NOSIG     RMK 1ST004 6AC080 A2988=,
20180129_210000.002,0,RJAA,,,,0,20180129210000,-1,-1,-1,-1,360,-1,5,-1,-1,310,20,,8000,0,0,2,FEW 4   BKN 80,-1,1,-1,2,1012,RJAA 292100Z 36005KT 310V020 8000 FEW004 BKN080 M01/M02 Q1012     NOSIG RMK 1ST004 6AC080 A2990=,
20180129_213000.001,0,RJAA,,,,0,20180129210000,-1,-1,-1,-1,10,-1,5,-1,-1,-1,-1,,9000,0,0,2,FEW 15   SCT 70,-1,1,-1,2,1013,RJAA 292130Z 01005KT 9000 FEW015 SCT070 M01/M02 Q1013 NOSIG     RMK 1CU015 4AC070 A2992=,
20180129_220000.002,0,RJAA,,,,0,20180129220000,-1,-1,-1,-1,10,-1,6,-1,-1,-1,-1,,9999,0,0,2,FEW 15   SCT 70,-1,1,-1,3,1014,RJAA 292200Z 01006KT 9999 FEW015 SCT070 M01/M03 Q1014 NOSIG     RMK 1CU015 4AC070 A2995=,
20180129_223000.002,0,RJAA,,,,0,20180129220000,-1,-1,-1,-1,10,-1,7,-1,-1,-1,-1,,9999,0,0,2,FEW 15   BKN 70,-1,1,-1,3,1014,RJAA 292230Z 01007KT 9999 FEW015 BKN070 M01/M03 Q1014 NOSIG     RMK 1CU015 5AC070 A2996=,
20180129_230000.002,0,RJAA,,,,0,20180129230000,-1,-1,-1,-1,10,-1,9,-1,-1,-1,-1,,9999,0,0,2,FEW 15   BKN 70,-1,0,-1,3,1015,RJAA 292300Z 01009KT 9999 FEW015 BKN070 M00/M03 Q1015 NOSIG     RMK 1CU015 5AC070 A2997=,
20180129_233000.001,0,RJAA,,,,0,20180129230000,-1,-1,-1,-1,10,-1,7,-1,-1,-1,-1,,9999,0,0,1,FEW 15,1,0,-1,3,1015,RJAA 292330Z 01007KT 9999 FEW015 00/M03 Q1015 NOSIG RMK 1CU015     A2998=,
20180130_000000.002,0,RJAA,,,,0,20180130000000,-1,-1,-1,-1,360,-1,11,-1,-1,-1,-1,,9999,0,0,1,FEW 20,1,1,-1,3,1015,RJAA 300000Z 36011KT 9999 FEW020 01/M03 Q1015 NOSIG RMK 1CU020     A2999=,
20180130_003000.001,0,RJAA,,,,0,20180130000000,-1,-1,-1,-1,10,-1,9,-1,-1,-1,-1,,9999,0,0,1,FEW 20,1,2,-1,3,1015,RJAA 300030Z 01009KT 9999 FEW020 02/M03 Q1015 NOSIG RMK 1CU020     A3000=,
20180130_010000.002,0,RJAA,,,,0,20180130010000,-1,-1,-1,-1,20,-1,11,-1,-1,-1,-1,,9999,0,0,1,FEW 30,1,2,-1,4,1016,RJAA 300100Z 02011KT 9999 FEW030 02/M04 Q1016 NOSIG RMK 1CU030     A3000=,
20180130_013000.001,0,RJAA,,,,0,20180130010000,-1,-1,-1,-1,30,-1,9,-1,-1,-1,-1,,9999,0,0,2,FEW 30   SCT 70,1,3,-1,6,1015,RJAA 300130Z 03009KT 9999 FEW030 SCT070 03/M06 Q1015 NOSIG RMK     1CU030 3AC070 A3000=,
20180130_020000.002,0,RJAA,,,,0,20180130020000,-1,-1,-1,-1,10,-1,10,-1,-1,340,40,,9999,0,0,2,FEW 30   SCT 70,1,3,-1,7,1015,RJAA 300200Z 01010KT 340V040 9999 FEW030 SCT070 03/M07 Q1015     NOSIG RMK 1CU030 4AC070 A2999=,
20180130_023000.001,0,RJAA,,,,0,20180130020000,-1,-1,-1,-1,10,-1,8,-1,-1,340,50,,9999,0,0,1,FEW 30,1,3,-1,9,1015,RJAA 300230Z 01008KT 340V050 9999 FEW030 03/M09 Q1015 NOSIG     RMK 1CU030 A2998=,
20180130_030000.002,0,RJAA,,,,0,20180130030000,-1,-1,-1,-1,360,-1,7,-1,-1,290,50,,9999,0,0,2,FEW 30   SCT -9999,1,4,-1,8,1015,RJAA 300300Z 36007KT 290V050 9999 FEW030 SCT/// 04/M08 Q1015     NOSIG RMK 1CU030 A2998=,
20180130_033000.001,0,RJAA,,,,0,20180130030000,-1,-1,-1,-1,330,-1,7,-1,-1,280,10,,9999,0,0,2,FEW 30   SCT -9999,1,4,-1,8,1014,RJAA 300330Z 33007KT 280V010 9999 FEW030 SCT/// 04/M08 Q1014     NOSIG RMK 1CU030 A2997=,
20180130_040000.002,0,RJAA,,,,0,20180130040000,-1,-1,-1,-1,360,-1,6,-1,-1,330,50,,9999,0,0,2,FEW 30   SCT 70,1,5,-1,7,1014,RJAA 300400Z 36006KT 330V050 9999 FEW030 SCT070 05/M07 Q1014     NOSIG RMK 1CU030 4AC070 A2996=,
20180130_043000.001,0,RJAA,,,,0,20180130040000,-1,-1,-1,-1,320,-1,5,-1,-1,270,10,,9999,0,0,2,FEW 30   SCT 70,1,4,-1,8,1014,RJAA 300430Z 32005KT 270V010 9999 FEW030 SCT070 04/M08 Q1014     NOSIG RMK 1CU030 3AC070 A2996=,
20180130_050000.002,0,RJAA,,,,0,20180130050000,-1,-1,-1,-1,30,-1,4,-1,-1,300,90,,9999,0,0,2,FEW 30   SCT 70,1,5,-1,7,1014,RJAA 300500Z 03004KT 300V090 9999 FEW030 SCT070 05/M07 Q1014     BECMG 08005KT RMK 1CU030 3AC070 A2997=,
20180130_053000.001,0,RJAA,,,,0,20180130050000,-1,-1,-1,-1,330,-1,4,-1,-1,300,360,,9999,0,0,2,FEW 30   BKN 70,1,5,-1,8,1015,RJAA 300530Z 33004KT 300V360 9999 FEW030 BKN070 05/M08 Q1015     BECMG 08005KT RMK 1CU030 6AC070 A2998=,
20180130_060000.003,0,RJAA,,,,0,20180130060000,-1,-1,-1,-1,999,-1,2,-1,-1,-1,-1,,9999,0,0,2,FEW 30   BKN 70,1,5,-1,8,1015,RJAA 300600Z VRB02KT 9999 FEW030 BKN070 05/M08 Q1015 BECMG     09005KT RMK 1CU030 6AC070 A3000=,
20180130_063000.001,0,RJAA,,,,0,20180130060000,-1,-1,-1,-1,140,-1,5,-1,-1,110,170,,9999,0,0,2,FEW 30   BKN 60,1,5,-1,8,1016,RJAA 300630Z 14005KT 110V170 9999 FEW030 BKN060 05/M08 Q1016     NOSIG RMK 1CU030 6SC060 A3000=,
20180130_070000.002,0,RJAA,,,,0,20180130070000,-1,-1,-1,-1,120,-1,5,-1,-1,80,150,,9999,0,0,2,FEW 30   BKN 60,1,5,-1,8,1016,RJAA 300700Z 12005KT 080V150 9999 FEW030 BKN060 05/M08 Q1016     NOSIG RMK 1CU030 5SC060 A3001=,
20180130_073000.001,0,RJAA,,,,0,20180130070000,-1,-1,-1,-1,120,-1,5,-1,-1,-1,-1,,9999,0,0,2,FEW 30   SCT 60,1,4,-1,8,1016,RJAA 300730Z 12005KT 9999 FEW030 SCT060 04/M08 Q1016 NOSIG RMK     1CU030 4SC060 A3002=,
20180130_080000.002,0,RJAA,,,,0,20180130080000,-1,-1,-1,-1,120,-1,5,-1,-1,100,160,,9999,0,0,2,FEW 30   BKN 60,1,3,-1,8,1017,RJAA 300800Z 12005KT 100V160 9999 FEW030 BKN060 03/M08 Q1017     NOSIG RMK 1CU030 5SC060 A3003=,
20180130_083000.001,0,RJAA,,,,0,20180130080000,-1,-1,-1,-1,100,-1,5,-1,-1,80,180,,9999,0,0,2,FEW 30   BKN 70,1,3,-1,7,1017,RJAA 300830Z 10005KT 080V180 9999 FEW030 BKN070 03/M07 Q1017     NOSIG RMK 1CU030 6AC070 A3005=,
20180130_090000.002,0,RJAA,,,,0,20180130090000,-1,-1,-1,-1,90,-1,5,-1,-1,-1,-1,,9999,0,0,2,FEW 30   BKN 70,1,3,-1,7,1018,RJAA 300900Z 09005KT 9999 FEW030 BKN070 03/M07 Q1018 NOSIG RMK     1CU030 5AC070 A3007=,
20180130_093000.001,0,RJAA,,,,0,20180130090000,-1,-1,-1,-1,100,-1,6,-1,-1,-1,-1,,9999,0,0,2,FEW 30   SCT 60,1,2,-1,7,1018,RJAA 300930Z 10006KT 9999 FEW030 SCT060 02/M07 Q1018 NOSIG RMK     1CU030 4SC060 A3008=,
20180130_100000.002,0,RJAA,,,,0,20180130100000,-1,-1,-1,-1,110,-1,4,-1,-1,-1,-1,,9999,0,0,2,FEW 30   BKN 60,1,1,-1,6,1018,RJAA 301000Z 11004KT 9999 FEW030 BKN060 01/M06 Q1018 BECMG     05005KT RMK 1CU030 7SC060 A3008=,
20180130_103000.001,0,RJAA,,,,0,20180130100000,-1,-1,-1,-1,100,-1,6,-1,-1,-1,-1,,9999,0,0,2,FEW 30   BKN 60,1,0,-1,7,1018,RJAA 301030Z 10006KT 9999 FEW030 BKN060 00/M07 Q1018 BECMG     05005KT RMK 1CU030 7SC060 A3008=,
20180130_110000.002,0,RJAA,,,,0,20180130110000,-1,-1,-1,-1,130,-1,3,-1,-1,-1,-1,,9999,0,0,1,FEW 30,1,1,-1,6,1018,RJAA 301100Z 13003KT 9999 FEW030 01/M06 Q1018 NOSIG RMK 1CU030     A3009=,
20180130_113000.001,0,RJAA,,,,0,20180130110000,-1,-1,-1,-1,90,-1,5,-1,-1,60,140,,9999,0,0,1,FEW 30,1,1,-1,6,1019,RJAA 301130Z 09005KT 060V140 9999 FEW030 01/M06 Q1019 BECMG     36005KT RMK 1CU030 A3009=,
20180130_120000.002,0,RJAA,,,,0,20180130120000,-1,-1,-1,-1,140,-1,4,-1,-1,-1,-1,,9999,0,0,1,FEW 30,-1,2,-1,6,1019,RJAA 301200Z 14004KT 9999 FEW030 M02/M06 Q1019 BECMG TL1330     36005KT RMK 1CU030 A3011=,
20180130_123000.001,0,RJAA,,,,0,20180130120000,-1,-1,-1,-1,110,-1,3,-1,-1,70,130,,9999,0,0,1,FEW 30,-1,1,-1,6,1019,RJAA 301230Z 11003KT 070V130 9999 FEW030 M01/M06 Q1019 BECMG     TL1330 36005KT RMK 1CU030 A3011=,
20180130_130000.002,0,RJAA,,,,0,20180130130000,-1,-1,-1,-1,999,-1,2,-1,-1,-1,-1,,9999,0,0,1,FEW 30,-1,1,-1,6,1019,RJAA 301300Z VRB02KT 9999 FEW030 M01/M06 Q1019 BECMG TL1330     36005KT RMK 1CU030 A3011=,
20180130_133000.001,0,RJAA,,,,0,20180130130000,-1,-1,-1,-1,0,-1,0,-1,-1,-1,-1,,9999,0,0,2,FEW 30   SCT 60,-1,0,-1,6,1019,RJAA 301330Z 00000KT 9999 FEW030 SCT060 M00/M06 Q1019 BECMG     TL1400 36005KT RMK 1CU030 4SC060 A3011=,
20180130_140000.002,0,RJAA,,,,0,20180130140000,-1,-1,-1,-1,999,-1,1,-1,-1,-1,-1,,9999,0,0,2,FEW 30   BKN 60,-1,0,-1,6,1019,RJAA 301400Z VRB01KT 9999 FEW030 BKN060 M00/M06 Q1019 NOSIG     RMK 1CU030 5SC060 A3011=,
20180130_143000.001,0,RJAA,,,,0,20180130140000,-1,-1,-1,-1,110,-1,2,-1,-1,-1,-1,,9999,0,0,2,FEW 30   BKN 60,-1,1,-1,5,1019,RJAA 301430Z 11002KT 9999 FEW030 BKN060 M01/M05 Q1019 NOSIG     RMK 1CU030 6SC060 A3011=,
20180130_150000.002,0,RJAA,,,,0,20180130150000,-1,-1,-1,-1,60,-1,2,-1,-1,-1,-1,,9999,0,0,2,FEW 30   SCT 60,1,1,-1,6,1019,RJAA 301500Z 06002KT 9999 FEW030 SCT060 01/M06 Q1019 NOSIG RMK     1CU030 4SC060 A3010=,
20180130_153000.001,0,RJAA,,,,0,20180130150000,-1,-1,-1,-1,999,-1,2,-1,-1,-1,-1,,9999,0,0,2,FEW 30   BKN 60,1,0,-1,5,1019,RJAA 301530Z VRB02KT 9999 FEW030 BKN060 00/M05 Q1019 NOSIG RMK     1CU030 6SC060 A3010=,
20180130_160000.002,0,RJAA,,,,0,20180130160000,-1,-1,-1,-1,360,-1,5,-1,-1,-1,-1,,9999,0,0,2,FEW 30   BKN 60,1,0,-1,5,1019,RJAA 301600Z 36005KT 9999 FEW030 BKN060 00/M05 Q1019 NOSIG RMK     1CU030 7SC060 A3011=,
20180130_163000.001,0,RJAA,,,,0,20180130160000,-1,-1,-1,-1,330,-1,3,-1,-1,-1,-1,,9999,0,0,3,FEW 30   BKN 50   BKN 80,1,0,-1,5,1020,RJAA 301630Z 33003KT 9999 FEW030 BKN050 BKN080 00/M05 Q1020     NOSIG RMK 1CU030 5SC050 7AC080 A3012=,
20180130_170000.002,0,RJAA,,,,0,20180130170000,-1,-1,-1,-1,330,-1,6,-1,-1,-1,-1,,9999,0,0,3,FEW 10   BKN 50   BKN 80,-1,0,-1,4,1020,RJAA 301700Z 33006KT 9999 FEW010 BKN050 BKN080 M00/M04 Q1020     NOSIG RMK 1ST010 5SC050 7AC080 A3013=,
20180130_173000.001,0,RJAA,,,,0,20180130170000,-1,-1,-1,-1,340,-1,2,-1,-1,-1,-1,,9999,0,0,3,FEW 10   SCT 45   BKN 70,1,0,-1,4,1020,RJAA 301730Z 34002KT 9999 FEW010 SCT045 BKN070 00/M04 Q1020     NOSIG RMK 1ST010 4SC045 7AC070 A3013=,
20180130_180000.002,0,RJAA,,,,0,20180130180000,-1,-1,-1,-1,10,-1,3,-1,-1,-1,-1,,9999,0,0,2,FEW 10   BKN 60,-1,1,-1,5,1020,RJAA 301800Z 01003KT 9999 FEW010 BKN060 M01/M05 Q1020 NOSIG     RMK 1ST010 5SC060 A3012=,
20180130_183000.001,0,RJAA,,,,0,20180130180000,-1,-1,-1,-1,10,-1,3,-1,-1,-1,-1,,9999,0,0,1,FEW 10,-1,1,-1,4,1019,RJAA 301830Z 01003KT 9999 FEW010 M01/M04 Q1019 NOSIG RMK     1ST010 A3010=,
20180130_190000.002,0,RJAA,,,,0,20180130190000,-1,-1,-1,-1,340,-1,3,-1,-1,-1,-1,,9999,0,0,1,FEW 30,-1,1,-1,4,1019,RJAA 301900Z 34003KT 9999 FEW030 M01/M04 Q1019 NOSIG RMK     1CU030 A3011=,
20180130_193000.001,0,RJAA,,,,0,20180130190000,-1,-1,-1,-1,330,-1,7,-1,-1,-1,-1,,9999,0,0,1,FEW 30,-1,3,-1,5,1019,RJAA 301930Z 33007KT 9999 FEW030 M03/M05 Q1019 NOSIG RMK     1CU030 A3012=,
20180130_200000.002,0,RJAA,,,,0,20180130200000,-1,-1,-1,-1,999,-1,1,-1,-1,-1,-1,,9999,0,0,2,FEW 30   BKN 60,-1,3,-1,5,1020,RJAA 302000Z VRB01KT 9999 FEW030 BKN060 M03/M05 Q1020 NOSIG     RMK 1CU030 6SC060 A3012=,
20180130_203000.001,0,RJAA,,,,0,20180130200000,-1,-1,-1,-1,300,-1,3,-1,-1,-1,-1,,9999,0,0,2,FEW 30   SCT 60,-1,2,-1,4,1020,RJAA 302030Z 30003KT 9999 FEW030 SCT060 M02/M04 Q1020 NOSIG     RMK 1CU030 3SC060 A3012=,
20180130_210000.002,0,RJAA,,,,0,20180130210000,-1,-1,-1,-1,330,-1,6,-1,-1,-1,-1,,9999,0,0,2,FEW 30   BKN 60,-1,3,-1,5,1020,RJAA 302100Z 33006KT 9999 FEW030 BKN060 M03/M05 Q1020 NOSIG     RMK 1CU030 5SC060 A3013=,
20180130_213000.001,0,RJAA,,,,0,20180130210000,-1,-1,-1,-1,320,-1,3,-1,-1,-1,-1,,9999,0,0,2,FEW 20   SCT 60,-1,4,-1,6,1020,RJAA 302130Z 32003KT 9999 FEW020 SCT060 M04/M06 Q1020 NOSIG     RMK 1CU020 4SC060 A3014=,
20180130_220000.002,0,RJAA,,,,0,20180130220000,-1,-1,-1,-1,999,-1,1,-1,-1,-1,-1,,9999,0,0,2,FEW 20   SCT 60,-1,3,-1,5,1021,RJAA 302200Z VRB01KT 9999 FEW020 SCT060 M03/M05 Q1021 BECMG     31005KT RMK 1CU020 3SC060 A3015=,
20180130_223000.002,0,RJAA,,,,0,20180130220000,-1,-1,-1,-1,280,-1,3,-1,-1,240,320,,9999,0,0,2,FEW 20   BKN 50,-1,2,-1,4,1021,RJAA 302230Z 28003KT 240V320 9999 FEW020 BKN050 M02/M04 Q1021     NOSIG RMK 1CU020 6SC050 A3017=,
20180130_230000.002,0,RJAA,,,,0,20180130230000,-1,-1,-1,-1,999,-1,2,-1,-1,-1,-1,,9999,0,0,2,FEW 30   BKN 50,-1,1,-1,4,1021,RJAA 302300Z VRB02KT 9999 FEW030 BKN050 M01/M04 Q1021 BECMG     31005KT RMK 1CU030 5SC050 A3017=,
20180130_233000.001,0,RJAA,,,,0,20180130230000,-1,-1,-1,-1,330,-1,4,-1,-1,-1,-1,,9999,0,0,1,FEW 30,1,1,-1,5,1021,RJAA 302330Z 33004KT 9999 FEW030 01/M05 Q1021 NOSIG RMK 1CU030     A3018=,
20180131_000000.002,0,RJAA,,,,0,20180131000000,-1,-1,-1,-1,999,-1,1,-1,-1,-1,-1,,9999,0,0,1,FEW 30,1,2,-1,5,1022,RJAA 310000Z VRB01KT 9999 FEW030 02/M05 Q1022 BECMG 33006KT     RMK 1CU030 A3019=,
20180131_003000.001,0,RJAA,,,,0,20180131000000,-1,-1,-1,-1,300,-1,5,-1,-1,250,330,,9999,0,0,1,FEW 30,1,4,-1,6,1022,RJAA 310030Z 30005KT 250V330 9999 FEW030 04/M06 Q1022 NOSIG     RMK 1CU030 A3019=,
20180131_010000.002,0,RJAA,,,,0,20180131010000,-1,-1,-1,-1,290,-1,4,-1,-1,240,340,,9999,0,0,1,FEW 30,1,5,-1,5,1022,RJAA 310100Z 29004KT 240V340 9999 FEW030 05/M05 Q1022 NOSIG     RMK 1CU030 A3019=,
20180131_013000.001,0,RJAA,,,,0,20180131010000,-1,-1,-1,-1,290,-1,6,-1,-1,260,340,,9999,0,0,1,FEW 30,1,5,-1,7,1022,RJAA 310130Z 29006KT 260V340 9999 FEW030 05/M07 Q1022 NOSIG     RMK 1CU030 A3018=,
20180131_020000.002,0,RJAA,,,,0,20180131020000,-1,-1,-1,-1,300,-1,6,-1,-1,250,330,,9999,0,0,1,FEW 30,1,6,-1,9,1021,RJAA 310200Z 30006KT 250V330 9999 FEW030 06/M09 Q1021 NOSIG     RMK 1CU030 A3017=,
20180131_023000.001,0,RJAA,,,,0,20180131020000,-1,-1,-1,-1,300,-1,4,-1,-1,250,350,,9999,0,0,1,FEW 30,1,7,-1,7,1021,RJAA 310230Z 30004KT 250V350 9999 FEW030 07/M07 Q1021 NOSIG     RMK 1CU030 A3016=,
20180131_030000.002,0,RJAA,,,,0,20180131030000,-1,-1,-1,-1,310,-1,4,-1,-1,240,360,,9999,0,0,1,FEW 30,1,7,-1,8,1020,RJAA 310300Z 31004KT 240V360 9999 FEW030 07/M08 Q1020 NOSIG     RMK 1CU030 A3015=,
20180131_033000.001,0,RJAA,,,,0,20180131030000,-1,-1,-1,-1,340,-1,6,-1,-1,260,30,,9999,0,0,2,FEW 30   SCT -9999,1,8,-1,9,1020,RJAA 310330Z 34006KT 260V030 9999 FEW030 SCT/// 08/M09 Q1020     NOSIG RMK 1CU030 A3013=,
20180131_040000.002,0,RJAA,,,,0,20180131040000,-1,-1,-1,-1,999,-1,3,-1,-1,-1,-1,,9999,0,0,2,FEW 30   SCT -9999,1,8,-1,8,1020,RJAA 310400Z VRB03KT 9999 FEW030 SCT/// 08/M08 Q1020 BECMG     33005KT RMK 1CU030 A3013=,
20180131_043000.001,0,RJAA,,,,0,20180131040000,-1,-1,-1,-1,999,-1,3,-1,-1,-1,-1,,9999,0,0,2,FEW 30   BKN -9999,1,9,-1,7,1019,RJAA 310430Z VRB03KT 9999 FEW030 BKN/// 09/M07 Q1019 BECMG     33005KT RMK 1CU030 A3012=,
20180131_050000.002,0,RJAA,,,,0,20180131050000,-1,-1,-1,-1,999,-1,3,-1,-1,-1,-1,,9999,0,0,2,FEW 30   BKN -9999,1,9,-1,7,1019,RJAA 310500Z VRB03KT 9999 FEW030 BKN/// 09/M07 Q1019 NOSIG RMK     1CU030 A3011=,
20180131_053000.001,0,RJAA,,,,0,20180131050000,-1,-1,-1,-1,20,-1,5,-1,-1,310,60,,9999,0,0,2,FEW 30   BKN -9999,1,9,-1,7,1020,RJAA 310530Z 02005KT 310V060 9999 FEW030 BKN/// 09/M07 Q1020     BECMG 10005KT RMK 1CU030 A3012=,
20180131_060000.002,0,RJAA,,,,0,20180131060000,-1,-1,-1,-1,20,-1,4,-1,-1,330,80,,9999,0,0,2,FEW 30   BKN -9999,1,8,-1,7,1020,RJAA 310600Z 02004KT 330V080 9999 FEW030 BKN/// 08/M07 Q1020     BECMG 10005KT RMK 1CU030 A3013=,
20180131_063000.001,0,RJAA,,,,0,20180131060000,-1,-1,-1,-1,80,-1,3,-1,-1,10,150,,9999,0,0,2,FEW 30   BKN -9999,1,8,-1,6,1020,RJAA 310630Z 08003KT 010V150 9999 FEW030 BKN/// 08/M06 Q1020     NOSIG RMK 1CU030 A3014=,
20180131_070000.003,0,RJAA,,,,0,20180131070000,-1,-1,-1,-1,60,-1,3,-1,-1,10,110,,9999,0,0,2,FEW 30   BKN -9999,1,8,-1,7,1021,RJAA 310700Z 06003KT 010V110 9999 FEW030 BKN/// 08/M07 Q1021     BECMG 10005KT RMK 1CU030 A3015=,
20180131_073000.001,0,RJAA,,,,0,20180131070000,-1,-1,-1,-1,80,-1,5,-1,-1,30,100,,9999,0,0,2,FEW 30   BKN -9999,1,7,-1,6,1021,RJAA 310730Z 08005KT 030V100 9999 FEW030 BKN/// 07/M06 Q1021     NOSIG RMK 1CU030 A3015=,
20180131_080000.003,0,RJAA,,,,0,20180131080000,-1,-1,-1,-1,120,-1,5,-1,-1,-1,-1,,9999,0,0,2,FEW 30   BKN -9999,1,6,-1,5,1021,RJAA 310800Z 12005KT 9999 FEW030 BKN/// 06/M05 Q1021 NOSIG RMK     1CU030 A3015=,
20180131_083000.001,0,RJAA,,,,0,20180131080000,-1,-1,-1,-1,120,-1,5,-1,-1,-1,-1,,9999,0,0,2,FEW 30   BKN -9999,1,5,-1,4,1021,RJAA 310830Z 12005KT 9999 FEW030 BKN/// 05/M04 Q1021 NOSIG RMK     1CU030 A3015=,
20180131_090000.002,0,RJAA,,,,0,20180131090000,-1,-1,-1,-1,110,-1,5,-1,-1,-1,-1,,9999,0,0,3,FEW 30   SCT 200   BKN -9999,1,5,-1,4,1021,RJAA 310900Z 11005KT 9999 FEW030 SCT200 BKN/// 05/M04 Q1021     NOSIG RMK 1CU030 3AC200 A3016=,
20180131_093000.001,0,RJAA,,,,0,20180131090000,-1,-1,-1,-1,110,-1,3,-1,-1,-1,-1,,9999,0,0,2,FEW 30   BKN -9999,1,4,-1,4,1021,RJAA 310930Z 11003KT 9999 FEW030 BKN/// 04/M04 Q1021 NOSIG RMK     1CU030 A3016=,
20180131_100000.002,0,RJAA,,,,0,20180131100000,-1,-1,-1,-1,130,-1,2,-1,-1,-1,-1,,9999,0,0,2,FEW 30   BKN -9999,1,3,-1,4,1021,RJAA 311000Z 13002KT 9999 FEW030 BKN/// 03/M04 Q1021 NOSIG RMK     1CU030 A3016=,
20180131_103000.001,0,RJAA,,,,0,20180131100000,-1,-1,-1,-1,999,-1,2,-1,-1,-1,-1,,9999,0,0,3,FEW 30   SCT 200   BKN -9999,1,3,-1,4,1021,RJAA 311030Z VRB02KT 9999 FEW030 SCT200 BKN/// 03/M04 Q1021     NOSIG RMK 1CU030 3AC200 A3017=,
20180131_110000.002,0,RJAA,,,,0,20180131110000,-1,-1,-1,-1,999,-1,2,-1,-1,-1,-1,,9999,0,0,2,FEW 30   BKN -9999,1,0,-1,4,1021,RJAA 311100Z VRB02KT 9999 FEW030 BKN/// 00/M04 Q1021 BECMG     04005KT RMK 1CU030 A3018=,
20180131_113000.001,0,RJAA,,,,0,20180131110000,-1,-1,-1,-1,0,-1,0,-1,-1,-1,-1,,9999,0,0,3,FEW 30   BKN 170   BKN -9999,1,1,-1,3,1022,RJAA 311130Z 00000KT 9999 FEW030 BKN170 BKN/// 01/M03 Q1022     BECMG 04005KT RMK 1CU030 5AC170 A3018=,
20180131_120000.002,0,RJAA,,,,0,20180131120000,-1,-1,-1,-1,10,-1,1,-1,-1,-1,-1,,9999,0,0,3,FEW 30   SCT 170   BKN -9999,1,0,-1,3,1022,RJAA 311200Z 01001KT 9999 FEW030 SCT170 BKN/// 00/M03 Q1022     NOSIG RMK 1CU030 3AC170 A3018=,
20180131_123000.001,0,RJAA,,,,0,20180131120000,-1,-1,-1,-1,350,-1,3,-1,-1,310,40,,9999,0,0,2,FEW 30   BKN -9999,1,3,-1,3,1022,RJAA 311230Z 35003KT 310V040 9999 FEW030 BKN/// 03/M03 Q1022     NOSIG RMK 1CU030 A3019=,
20180131_130000.003,0,RJAA,,,,0,20180131130000,-1,-1,-1,-1,360,-1,5,-1,-1,-1,-1,,9999,0,0,2,FEW 30   SCT -9999,1,2,-1,4,1022,RJAA 311300Z 36005KT 9999 FEW030 SCT/// 02/M04 Q1022 NOSIG RMK     1CU030 A3018=,
20180131_133000.001,0,RJAA,,,,0,20180131130000,-1,-1,-1,-1,340,-1,7,-1,-1,-1,-1,,9999,0,0,2,FEW 30   SCT 60,1,1,-1,3,1021,RJAA 311330Z 34007KT 9999 FEW030 SCT060 01/M03 Q1021 NOSIG RMK     1CU030 4SC060 A3016=,
20180131_140000.002,0,RJAA,,,,0,20180131140000,-1,-1,-1,-1,10,-1,6,-1,-1,330,30,,9999,0,0,2,FEW 30   SCT 50,1,2,-1,3,1020,RJAA 311400Z 01006KT 330V030 9999 FEW030 SCT050 02/M03 Q1020     NOSIG RMK 1CU030 4SC050 A3015=,
20180131_143000.001,0,RJAA,,,,0,20180131140000,-1,-1,-1,-1,10,-1,6,-1,-1,-1,-1,,9999,0,0,3,FEW 30   SCT 50   BKN 70,1,1,-1,3,1020,RJAA 311430Z 01006KT 9999 FEW030 SCT050 BKN070 01/M03 Q1020     NOSIG RMK 1CU030 3SC050 5AC070 A3015=,
20180131_150000.002,0,RJAA,,,,0,20180131150000,-1,-1,-1,-1,999,-1,2,-1,-1,-1,-1,,9999,0,0,3,FEW 30   SCT 50   BKN 70,1,2,-1,3,1021,RJAA 311500Z VRB02KT 9999 FEW030 SCT050 BKN070 02/M03 Q1021     BECMG 36005KT RMK 1CU030 3SC050 6AC070 A3017=,
20180131_153000.001,0,RJAA,,,,0,20180131150000,-1,-1,-1,-1,30,-1,3,-1,-1,360,60,,9999,0,0,3,FEW 30   SCT 70   BKN -9999,1,2,-1,3,1022,RJAA 311530Z 03003KT 360V060 9999 FEW030 SCT070 BKN/// 02/M03     Q1022 NOSIG RMK 1CU030 3AC070 A3018=,
20180131_160000.002,0,RJAA,,,,0,20180131160000,-1,-1,-1,-1,360,-1,7,-1,-1,-1,-1,,9999,0,0,3,FEW 30   SCT 120   BKN -9999,1,2,-1,2,1021,RJAA 311600Z 36007KT 9999 FEW030 SCT120 BKN/// 02/M02 Q1021     NOSIG RMK 1CU030 3AC120 A3016=,
20180131_163000.001,0,RJAA,,,,0,20180131160000,-1,-1,-1,-1,360,-1,6,-1,-1,-1,-1,,9999,0,0,2,FEW 30   BKN 50,1,2,-1,3,1021,RJAA 311630Z 36006KT 9999 FEW030 BKN050 02/M03 Q1021 NOSIG RMK     1CU030 7SC050 A3018=,
20180131_170000.002,0,RJAA,,,,0,20180131170000,-1,-1,-1,-1,10,-1,8,-1,-1,-1,-1,,9999,0,0,2,FEW 30   BKN 50,1,3,-1,3,1021,RJAA 311700Z 01008KT 9999 FEW030 BKN050 03/M03 Q1021 NOSIG RMK     1CU030 7SC050 A3017=,
20180131_173000.001,0,RJAA,,,,0,20180131170000,-1,-1,-1,-1,10,-1,6,-1,-1,-1,-1,,9999,0,0,3,FEW 30   BKN 50   BKN -9999,1,2,-1,4,1021,RJAA 311730Z 01006KT 9999 FEW030 BKN050 BKN/// 02/M04 Q1021     NOSIG RMK 1CU030 5SC050 A3016=,
20180131_180000.002,0,RJAA,,,,0,20180131180000,-1,-1,-1,-1,10,-1,7,-1,-1,-1,-1,,9999,0,0,2,FEW 30   BKN 50,1,3,-1,4,1021,RJAA 311800Z 01007KT 9999 FEW030 BKN050 03/M04 Q1021 NOSIG RMK     1CU030 7SC050 A3016=,
20180131_183000.001,0,RJAA,,,,0,20180131180000,-1,-1,-1,-1,320,-1,6,-1,-1,-1,-1,,9999,0,0,2,FEW 30   BKN 50,1,3,-1,4,1022,RJAA 311830Z 32006KT 9999 FEW030 BKN050 03/M04 Q1022 NOSIG RMK     1CU030 7SC050 A3018=,
20180131_190000.003,0,RJAA,,,,0,20180131190000,-1,-1,-1,-1,330,-1,6,-1,-1,-1,-1,,9999,0,0,2,FEW 30   BKN 50,1,3,-1,4,1022,RJAA 311900Z 33006KT 9999 FEW030 BKN050 03/M04 Q1022 NOSIG RMK     1CU030 7SC050 A3018=,
20180131_193000.001,0,RJAA,,,,0,20180131190000,-1,-1,-1,-1,330,-1,6,-1,-1,-1,-1,,9999,0,0,3,FEW 30   BKN 50   BKN -9999,1,2,-1,3,1022,RJAA 311930Z 33006KT 9999 FEW030 BKN050 BKN/// 02/M03 Q1022     NOSIG RMK 1CU030 5SC050 A3018=,
20180131_200000.003,0,RJAA,,,,0,20180131200000,-1,-1,-1,-1,330,-1,8,-1,-1,-1,-1,,9999,0,0,3,FEW 30   SCT 50   BKN 170,1,1,-1,4,1022,RJAA 312000Z 33008KT 9999 FEW030 SCT050 BKN170 01/M04 Q1022     NOSIG RMK 1CU030 3SC050 6AC170 A3019=,
20180131_203000.001,0,RJAA,,,,0,20180131200000,-1,-1,-1,-1,10,-1,6,-1,-1,-1,-1,,9999,0,0,3,FEW 30   SCT 120   BKN -9999,1,1,-1,3,1022,RJAA 312030Z 01006KT 9999 FEW030 SCT120 BKN/// 01/M03 Q1022     NOSIG RMK 1CU030 3AC120 A3019=,
20180131_210000.002,0,RJAA,,,,0,20180131210000,-1,-1,-1,-1,340,-1,5,-1,-1,-1,-1,,9999,0,0,2,FEW 30   BKN 120,1,0,-1,3,1022,RJAA 312100Z 34005KT 9999 FEW030 BKN120 00/M03 Q1022 NOSIG RMK     1CU030 7AC120 A3020=,
20180131_213000.001,0,RJAA,,,,0,20180131210000,-1,-1,-1,-1,10,-1,5,-1,-1,-1,-1,,9999,0,0,3,FEW 30   SCT 120   BKN -9999,1,1,-1,3,1022,RJAA 312130Z 01005KT 9999 FEW030 SCT120 BKN/// 01/M03 Q1022     NOSIG RMK 1CU030 3AC120 A3020=,
20180131_220000.002,0,RJAA,,,,0,20180131220000,-1,-1,-1,-1,340,-1,4,-1,-1,-1,-1,,9999,0,0,2,FEW 30   BKN -9999,1,0,-1,2,1023,RJAA 312200Z 34004KT 9999 FEW030 BKN/// 00/M02 Q1023 NOSIG RMK     1CU030 A3021=,
20180131_223000.002,0,RJAA,,,,0,20180131220000,-1,-1,-1,-1,330,-1,5,-1,-1,-1,-1,,9999,0,0,2,FEW 30   BKN -9999,1,2,-1,1,1023,RJAA 312230Z 33005KT 9999 FEW030 BKN/// 02/M01 Q1023 NOSIG RMK     1CU030 A3023=,
20180131_230000.002,0,RJAA,,,,0,20180131230000,-1,-1,-1,-1,340,-1,5,-1,-1,-1,-1,,9999,0,0,2,FEW 25   BKN -9999,1,2,-1,1,1023,RJAA 312300Z 34005KT 9999 FEW025 BKN/// 02/M01 Q1023 NOSIG RMK     1CU025 A3023=,
20180131_233000.001,0,RJAA,,,,0,20180131230000,-1,-1,-1,-1,20,-1,7,-1,-1,-1,-1,,9999,0,0,3,FEW 25   BKN 30   BKN -9999,1,4,1,1,1024,RJAA 312330Z 02007KT 9999 FEW025 BKN030 BKN/// 04/01 Q1024     NOSIG RMK 1CU025 5SC030 A3024=,
20180201_000000.003,0,RJAA,,,,0,20180201000000,-1,-1,-1,-1,40,-1,9,-1,-1,-1,-1,,9999,0,0,2,FEW 20   BKN 25,1,6,1,1,1024,RJAA 010000Z 04009KT 9999 FEW020 BKN025 06/01 Q1024 NOSIG RMK     1CU020 7SC025 A3025=,
20180201_003000.001,0,RJAA,,,,0,20180201000000,-1,-1,-1,-1,30,-1,9,-1,-1,350,60,,9999,0,0,2,FEW 20   BKN 25,1,6,1,1,1024,RJAA 010030Z 03009KT 350V060 9999 FEW020 BKN025 06/01 Q1024     NOSIG RMK 1CU020 7SC025 A3026=,
20180201_010000.002,0,RJAA,,,,0,20180201010000,-1,-1,-1,-1,30,-1,9,-1,-1,-1,-1,,9999,0,0,2,FEW 20   BKN 25,1,6,1,1,1025,RJAA 010100Z 03009KT 9999 FEW020 BKN025 06/01 Q1025 NOSIG RMK     1CU020 7SC025 A3027=,
20180201_013000.001,0,RJAA,,,,0,20180201010000,-1,-1,-1,-1,40,-1,11,-1,-1,-1,-1,,9999,0,0,2,FEW 20   BKN 25,1,6,1,1,1025,RJAA 010130Z 04011KT 9999 FEW020 BKN025 06/01 Q1025 NOSIG RMK     1CU020 7SC025 A3028=,
20180201_020000.002,0,RJAA,,,,0,20180201020000,-1,-1,-1,-1,40,-1,14,-1,-1,360,70,,9999,0,1,2,FEW 20   BKN 25,1,6,1,1,1025,RJAA 010200Z 04014KT 360V070 9999 -RA FEW020 BKN025 06/01     Q1025 NOSIG RMK 1CU020 7SC025 A3027=,- RA
20180201_023000.001,0,RJAA,,,,0,20180201020000,-1,-1,-1,-1,40,-1,15,-1,-1,-1,-1,,9999,0,1,3,FEW 15   SCT 20   BKN 50,1,6,1,1,1024,RJAA 010230Z 04015KT 9999 -RA FEW015 SCT020 BKN050 06/01 Q1024     NOSIG RMK 1CU015 4SC020 6SC050 A3025=,- RA
20180201_030000.003,0,RJAA,,,,0,20180201030000,-1,-1,-1,-1,40,-1,12,-1,-1,10,70,,9999,0,1,3,FEW 15   BKN 20   BKN 40,1,6,1,1,1024,RJAA 010300Z 04012KT 010V070 9999 -RA FEW015 BKN020 BKN040     06/01 Q1024 WS R34R NOSIG RMK 1CU015 5SC020 6SC040 A3025=,- RA
20180201_033000.001,0,RJAA,,,,0,20180201030000,-1,-1,-1,-1,40,-1,15,-1,-1,-1,-1,,9999,0,0,3,FEW 15   BKN 25   BKN 45,1,6,1,0,1024,RJAA 010330Z 04015KT 9999 FEW015 BKN025 BKN045 06/00 Q1024 WS     R34R NOSIG RMK 1CU015 5SC025 6SC045 A3024=,
20180201_040000.003,0,RJAA,,,,0,20180201040000,-1,-1,-1,-1,40,-1,14,-1,-1,-1,-1,,9999,0,1,2,FEW 20   BKN 25,1,6,1,0,1023,RJAA 010400Z 04014KT 9999 -RA FEW020 BKN025 06/00 Q1023 NOSIG     RMK 1CU020 7SC025 A3023=,- RA
20180201_043000.001,0,RJAA,,,,0,20180201040000,-1,-1,-1,-1,40,-1,15,-1,-1,-1,-1,,9999,0,1,3,FEW 20   BKN 25   BKN 45,1,6,1,0,1023,RJAA 010430Z 04015KT 9999 -RA FEW020 BKN025 BKN045 06/00 Q1023     WS R34R NOSIG RMK 1CU020 5SC025 7SC045 A3022=,- RA
20180201_050000.002,0,RJAA,,,,0,20180201050000,-1,-1,-1,-1,40,-1,17,-1,-1,-1,-1,,9999,0,1,2,FEW 25   BKN 35,1,6,-1,0,1023,RJAA 010500Z 04017KT 9999 -RA FEW025 BKN035 06/M00 Q1023 WS     R34R NOSIG RMK 2SC025 7SC035 A3023=,- RA
20180201_053000.001,0,RJAA,,,,0,20180201050000,-1,-1,-1,-1,40,-1,16,-1,-1,-1,-1,,9999,0,1,2,FEW 20   BKN 25,1,5,1,0,1024,RJAA 010530Z 04016KT 9999 -RA FEW020 BKN025 05/00 Q1024 WS     R34R NOSIG RMK 1CU020 7SC025 A3024=,- RA
20180201_060000.002,0,RJAA,,,,0,20180201060000,-1,-1,-1,-1,40,-1,15,-1,-1,-1,-1,,9999,0,1,3,FEW 20   SCT 25   BKN 40,1,5,-1,0,1023,RJAA 010600Z 04015KT 9999 -RA FEW020 SCT025 BKN040 05/M00     Q1023 WS R34L NOSIG RMK 1CU020 4SC025 6SC040 A3023=,- RA
20180201_063000.001,0,RJAA,,,,0,20180201060000,-1,-1,-1,-1,30,-1,14,-1,-1,-1,-1,,9999,0,1,3,FEW 20   BKN 30   BKN 45,1,5,-1,1,1024,RJAA 010630Z 03014KT 9999 -RA FEW020 BKN030 BKN045 05/M01     Q1024 NOSIG RMK 1CU020 5SC030 7SC045 A3024=,- RA
20180201_070000.002,0,RJAA,,,,0,20180201070000,-1,-1,-1,-1,20,-1,15,-1,-1,-1,-1,,9999,0,1,2,SCT 23   BKN 30,1,5,-1,0,1024,RJAA 010700Z 02015KT 9999 -RA SCT023 BKN030 05/M00 Q1024 WS     R34L NOSIG RMK 3SC023 7SC030 A3025=,- RA
20180201_073000.001,0,RJAA,,,,0,20180201070000,-1,-1,-1,-1,40,-1,12,-1,-1,-1,-1,,9999,0,1,2,SCT 20   BKN 40,1,4,1,1,1024,RJAA 010730Z 04012KT 9999 -RA SCT020 BKN040 04/01 Q1024 NOSIG     RMK 3SC020 7SC040 A3025=,- RA
20180201_080000.002,0,RJAA,,,,0,20180201080000,-1,-1,-1,-1,30,-1,10,-1,-1,-1,-1,,9000,0,1,2,FEW 10   BKN 25,1,4,1,1,1024,RJAA 010800Z 03010KT 9000 -RA FEW010 BKN025 04/01 Q1024 NOSIG     RMK 1CU010 7SC025 A3026=,- RA
20180201_083000.001,0,RJAA,,,,0,20180201080000,-1,-1,-1,-1,20,-1,10,-1,-1,-1,-1,,8000,0,1,3,FEW 10   SCT 15   BKN 25,1,4,1,1,1024,RJAA 010830Z 02010KT 8000 -RA FEW010 SCT015 BKN025 04/01 Q1024     NOSIG RMK 1CU010 3SC015 7SC025 A3026=,- RA
20180201_090000.002,0,RJAA,,,,0,20180201090000,-1,-1,-1,-1,30,-1,8,-1,-1,360,60,,8000,0,1,2,FEW 10   BKN 20,1,3,1,1,1024,RJAA 010900Z 03008KT 360V060 8000 -RA FEW010 BKN020 03/01     Q1024 NOSIG RMK 1CU010 7SC020 A3026=,- RA
20180201_093000.001,0,RJAA,,,,0,20180201090000,-1,-1,-1,-1,30,-1,8,-1,-1,-1,-1,,8000,0,1,3,FEW 10   SCT 15   BKN 20,1,4,1,1,1024,RJAA 010930Z 03008KT 8000 -RA FEW010 SCT015 BKN020 04/01 Q1024     NOSIG RMK 1CU010 3SC015 7SC020 A3026=,- RA
20180201_100000.002,0,RJAA,,,,0,20180201100000,-1,-1,-1,-1,30,-1,9,-1,-1,-1,-1,,7000,0,2,2,FEW 10   BKN 15,1,4,1,2,1025,RJAA 011000Z 03009KT 7000 -RA BR FEW010 BKN015 04/02 Q1025     NOSIG RMK 1CU010 7SC015 A3027 BR NE=,- RA; BR
20180201_103000.001,0,RJAA,,,,0,20180201100000,-1,-1,-1,-1,20,-1,9,-1,-1,-1,-1,,7000,0,2,3,FEW 10   SCT 12   BKN 15,1,3,1,2,1025,RJAA 011030Z 02009KT 7000 -RA BR FEW010 SCT012 BKN015 03/02     Q1025 TEMPO FEW008 BKN012 RMK 1CU010 3SC012 7SC015 A3027           BR NE=,- RA; BR
20180201_110000.002,0,RJAA,,,,0,20180201110000,-1,-1,-1,-1,20,-1,8,-1,-1,-1,-1,,8000,0,1,3,FEW 9   SCT 12   BKN 15,1,3,1,2,1025,RJAA 011100Z 02008KT 8000 -RA FEW009 SCT012 BKN015 03/02 Q1025     TEMPO FEW008 BKN012 RMK 1ST009 3SC012 7SC015 A3028=,- RA
20180201_113000.001,0,RJAA,,,,0,20180201110000,-1,-1,-1,-1,30,-1,10,-1,-1,-1,-1,,7000,0,2,2,FEW 7   BKN 12,1,3,1,2,1025,RJAA 011130Z 03010KT 7000 -RA BR FEW007 BKN012 03/02 Q1025     TEMPO FEW005 BKN008 RMK 1ST007 7SC012 A3029 BR NE=,- RA; BR
20180201_120000.002,0,RJAA,,,,0,20180201120000,-1,-1,-1,-1,30,-1,10,-1,-1,-1,-1,,7000,0,2,3,FEW 6   SCT 9   BKN 12,1,3,1,2,1025,RJAA 011200Z 03010KT 7000 -RA BR FEW006 SCT009 BKN012 03/02     Q1025 TEMPO FEW005 BKN008 RMK 1ST006 3ST009 7SC012 A3029           BR NE=,- RA; BR
20180201_123000.001,0,RJAA,,,,0,20180201120000,-1,-1,-1,-1,30,-1,11,-1,-1,-1,-1,,7000,0,2,3,FEW 6   BKN 9   BKN 12,1,3,1,1,1025,RJAA 011230Z 03011KT 7000 -RA BR FEW006 BKN009 BKN012 03/01     Q1025 NOSIG RMK 1ST006 5ST009 7SC012 A3029 BR NE=,- RA; BR
20180201_130000.002,0,RJAA,,,,0,20180201130000,-1,-1,-1,-1,20,-1,9,-1,-1,-1,-1,,8000,0,1,2,FEW 5   BKN 8,1,3,1,2,1025,RJAA 011300Z 02009KT 8000 -RA FEW005 BKN008 03/02 Q1025 NOSIG     RMK 1ST005 7ST008 A3028=,- RA
20180201_133000.001,0,RJAA,,,,0,20180201130000,-1,-1,-1,-1,30,-1,10,-1,-1,350,50,,7000,0,1,3,FEW 5   BKN 8   BKN 10,1,3,1,2,1025,RJAA 011330Z 03010KT 350V050 7000 -RA FEW005 BKN008 BKN010     03/02 Q1025 NOSIG RMK 1ST005 6ST008 7ST010 A3028=,- RA
20180201_140000.002,0,RJAA,,,,0,20180201140000,-1,-1,-1,-1,20,-1,10,-1,-1,-1,-1,,7000,0,1,2,FEW 3   BKN 7,1,2,1,1,1025,RJAA 011400Z 02010KT 7000 -RA FEW003 BKN007 02/01 Q1025 TEMPO     4000 -SNRA BR RMK 1ST003 7ST007 A3027=,- RA
20180201_143000.001,0,RJAA,,,,0,20180201140000,-1,-1,-1,-1,350,-1,11,-1,-1,-1,-1,,2500,0,2,3,FEW 2   SCT 3   BKN 5,1,2,1,1,1024,RJAA 011430Z 35011KT 2500 -SNRA BR FEW002 SCT003 BKN005 02/01     Q1024 NOSIG RMK 1ST002 3ST003 5ST005 A3026=,- SN RA; BR
20180201_150000.002,0,RJAA,,,,0,20180201150000,-1,-1,-1,-1,340,-1,11,-1,-1,-1,-1,,2000,0,2,3,FEW 1   BKN 3   BKN 4,1,1,1,0,1024,RJAA 011500Z 34011KT 2000 -SN BR FEW001 BKN003 BKN004 01/00     Q1024 TEMPO 1500 -SN BR RMK 1ST001 5ST003 6ST004 A3025=,- SN; BR
20180201_153000.001,0,RJAA,,,,0,20180201150000,-1,-1,-1,-1,360,-1,10,-1,-1,-1,-1,,1500,2,2,2,FEW 1   BKN 3,1,1,1,0,1024,RJAA 011530Z 36010KT 1500 R34L/P1800N R34R/P1800N -SN BR     FEW001 BKN003 01/00 Q1024 NOSIG RMK 1ST001 7ST003 A3024=,- SN; BR
20180201_160000.002,0,RJAA,,,,0,20180201160000,-1,-1,-1,-1,350,-1,9,-1,-1,-1,-1,,1500,2,2,2,FEW 1   BKN 3,1,1,-1,0,1024,RJAA 011600Z 35009KT 1500 R34L/P1800N R34R/P1800N -SN BR     FEW001 BKN003 01/M00 Q1024 NOSIG RMK 1ST001 7ST003 A3025=,- SN; BR
20180201_163000.001,0,RJAA,,,,0,20180201160000,-1,-1,-1,-1,350,-1,10,-1,-1,-1,-1,,1300,2,2,3,FEW 1   SCT 2   BKN 3,1,1,-1,0,1024,RJAA 011630Z 35010KT 1300 R34L/P1800N R34R/P1800N -SN BR     FEW001 SCT002 BKN003 01/M00 Q1024 NOSIG RMK 1ST001 3ST002           7ST003 A3024=,- SN; BR
20180201_170000.002,0,RJAA,,,,0,20180201170000,-1,-1,-1,-1,350,-1,10,-1,-1,-1,-1,,1300,2,2,3,FEW 1   SCT 2   BKN 3,1,0,1,0,1024,RJAA 011700Z 35010KT 1300 R34L/P1800N R34R/P1800N -SN BR     FEW001 SCT002 BKN003 00/00 Q1024 NOSIG RMK 1ST001 3ST002           7ST003 A3024=,- SN; BR
20180201_173000.001,0,RJAA,,,,0,20180201170000,-1,-1,-1,-1,350,-1,11,-1,-1,-1,-1,,1100,2,2,3,FEW 1   SCT 2   BKN 3,1,0,1,0,1024,RJAA 011730Z 35011KT 1100 R34L/P1800N R34R/P1800N -SN BR     FEW001 SCT002 BKN003 00/00 Q1024 NOSIG RMK 1ST001 3ST002           7ST003 A3024=,- SN; BR
20180201_180000.002,0,RJAA,,,,0,20180201180000,-1,-1,-1,-1,350,-1,11,-1,-1,-1,-1,,1200,2,2,2,FEW 1   BKN 3,1,0,1,0,1023,RJAA 011800Z 35011KT 1200 R34L/P1800N R34R/P1800N -SN BR     FEW001 BKN003 00/00 Q1023 NOSIG RMK 1ST001 7ST003 A3023=,- SN; BR
20180201_183000.001,0,RJAA,,,,0,20180201180000,-1,-1,-1,-1,360,-1,11,-1,-1,-1,-1,,1500,2,2,2,FEW 1   BKN 3,1,1,1,0,1023,RJAA 011830Z 36011KT 1500 R34L/P1800N R34R/P1800N -SN BR     FEW001 BKN003 01/00 Q1023 NOSIG RMK 1ST001 7ST003 A3023=,- SN; BR
20180201_190000.003,0,RJAA,,,,0,20180201190000,-1,-1,-1,-1,350,-1,12,-1,-1,-1,-1,,1800,0,2,3,FEW 2   BKN 3   BKN 4,1,0,1,0,1024,RJAA 011900Z 35012KT 1800 -SN BR FEW002 BKN003 BKN004 00/00     Q1024 NOSIG RMK 1ST002 5ST003 7ST004 A3025=,- SN; BR
20180201_193000.001,0,RJAA,,,,0,20180201190000,-1,-1,-1,-1,350,-1,12,-1,-1,-1,-1,,1300,2,2,3,FEW 2   SCT 3   BKN 4,1,1,1,0,1024,RJAA 011930Z 35012KT 1300 R34L/P1800N R34R/P1800N -SNRA BR     FEW002 SCT003 BKN004 01/00 Q1024 NOSIG RMK 1ST002 3ST003           7ST004 A3025=,- SN RA; BR
20180201_200000.003,0,RJAA,,,,0,20180201200000,-1,-1,-1,-1,360,-1,12,-1,-1,-1,-1,,1600,0,2,3,FEW 2   SCT 3   BKN 4,1,0,1,0,1024,RJAA 012000Z 36012KT 1600 -SN BR FEW002 SCT003 BKN004 00/00     Q1024 NOSIG RMK 1ST002 3ST003 7ST004 A3024=,- SN; BR
20180201_203000.001,0,RJAA,,,,0,20180201200000,-1,-1,-1,-1,360,-1,12,-1,-1,-1,-1,,2000,0,2,3,FEW 2   SCT 3   BKN 4,1,1,1,0,1024,RJAA 012030Z 36012KT 2000 -SN BR FEW002 SCT003 BKN004 01/00     Q1024 NOSIG RMK 1ST002 3ST003 7ST004 A3025=,- SN; BR
20180201_210000.002,0,RJAA,,,,0,20180201210000,-1,-1,-1,-1,360,-1,11,-1,-1,-1,-1,,2500,0,2,3,FEW 2   BKN 4   BKN 5,1,1,1,0,1024,RJAA 012100Z 36011KT 2500 -SN BR FEW002 BKN004 BKN005 01/00     Q1024 NOSIG RMK 1ST002 6ST004 7ST005 A3026 MOD TURB OBS           AT 2055Z BINKS 9000FT IN DES A330 THA640=,- SN; BR
20180201_213000.001,0,RJAA,,,,0,20180201210000,-1,-1,-1,-1,350,-1,12,-1,-1,-1,-1,,2000,0,2,2,FEW 2   BKN 4,1,1,-1,0,1024,RJAA 012130Z 35012KT 2000 -SN BR FEW002 BKN004 01/M00 Q1024     NOSIG RMK 1ST002 7ST004 A3026=,- SN; BR
20180201_220000.002,0,RJAA,,,,0,20180201220000,-1,-1,-1,-1,350,-1,13,-1,-1,-1,-1,,1800,0,2,2,FEW 2   BKN 4,1,1,1,0,1025,RJAA 012200Z 35013KT 1800 -SN BR FEW002 BKN004 01/00 Q1025     NOSIG RMK 1ST002 7ST004 A3027=,- SN; BR
20180201_223000.002,0,RJAA,,,,0,20180201220000,-1,-1,-1,-1,350,-1,13,-1,-1,-1,-1,,1600,0,2,3,FEW 2   SCT 3   BKN 4,1,1,1,0,1025,RJAA 012230Z 35013KT 1600 -SN BR FEW002 SCT003 BKN004 01/00     Q1025 NOSIG RMK 1ST002 3ST003 7ST004 A3027=,- SN; BR
20180201_230000.003,0,RJAA,,,,0,20180201230000,-1,-1,-1,-1,350,-1,11,-1,-1,-1,-1,,2300,0,2,3,FEW 2   SCT 3   BKN 4,1,1,1,0,1025,RJAA 012300Z 35011KT 2300 -SN BR FEW002 SCT003 BKN004 01/00     Q1025 NOSIG RMK 1ST002 3ST003 7ST004 A3028 MOD TURB OBS           AT 2238Z 40NM S NARITA BTN 14000FT AND 8000FT IN DES B787           TGW868=,- SN; BR
20180201_233000.001,0,RJAA,,,,0,20180201230000,-1,-1,-1,-1,350,-1,12,-1,-1,-1,-1,,3000,0,2,3,FEW 2   SCT 3   BKN 4,1,1,1,0,1025,RJAA 012330Z 35012KT 3000 -SN BR FEW002 SCT003 BKN004 01/00     Q1025 NOSIG RMK 1ST002 4ST003 7ST004 A3028=,- SN; BR
20180202_000000.002,0,RJAA,,,,0,20180202000000,-1,-1,-1,-1,350,-1,13,-1,-1,-1,-1,,2800,0,2,2,FEW 2   BKN 4,1,1,1,0,1024,RJAA 020000Z 35013KT 2800 -SN BR FEW002 BKN004 01/00 Q1024     NOSIG RMK 1ST002 7ST004 A3026=,- SN; BR
20180202_003000.001,0,RJAA,,,,0,20180202000000,-1,-1,-1,-1,350,-1,13,-1,-1,-1,-1,,2500,0,2,2,FEW 2   BKN 4,1,1,1,0,1024,RJAA 020030Z 35013KT 2500 -SN BR FEW002 BKN004 01/00 Q1024     NOSIG RMK 1ST002 7ST004 A3026=,- SN; BR
20180202_010000.002,0,RJAA,,,,0,20180202010000,-1,-1,-1,-1,340,-1,13,-1,-1,-1,-1,,2000,0,2,2,FEW 2   BKN 4,1,1,1,0,1024,RJAA 020100Z 34013KT 2000 -SN BR FEW002 BKN004 01/00 Q1024     NOSIG RMK 1ST002 7ST004 A3026=,- SN; BR
20180202_013000.001,0,RJAA,,,,0,20180202010000,-1,-1,-1,-1,340,-1,13,-1,-1,-1,-1,,2200,2,2,2,FEW 2   BKN 4,1,1,1,1,1024,RJAA 020130Z 34013KT 2200 R34L/P1800N R34R/1800U -SN BR FEW002     BKN004 01/01 Q1024 NOSIG RMK 1ST002 7ST004 A3024=,- SN; BR
20180202_020000.002,0,RJAA,,,,0,20180202020000,-1,-1,-1,-1,340,-1,14,-1,-1,-1,-1,,2500,2,2,3,FEW 2   BKN 3   BKN 4,1,1,1,1,1023,RJAA 020200Z 34014KT 2500 R34L/P1800N R34R/1700U -SN BR FEW002     BKN003 BKN004 01/01 Q1023 NOSIG RMK 1ST002 5ST003 7ST004           A3023 1000N-NE=,- SN; BR
20180202_023000.001,0,RJAA,,,,0,20180202020000,-1,-1,-1,-1,340,-1,14,-1,-1,-1,-1,,4000,0,2,3,FEW 2   SCT 3   BKN 4,1,2,1,1,1023,RJAA 020230Z 34014KT 4000 -SNRA BR FEW002 SCT003 BKN004 02/01     Q1023 NOSIG RMK 1ST002 3ST003 7ST004 A3022=,- SN RA; BR
20180202_030000.002,0,RJAA,,,,0,20180202030000,-1,-1,-1,-1,350,-1,12,-1,-1,-1,-1,,5000,0,2,2,FEW 3   BKN 5,1,2,1,1,1023,RJAA 020300Z 35012KT 5000 -RA BR FEW003 BKN005 02/01 Q1023     BECMG FEW003 BKN008 RMK 1ST003 7ST005 A3022=,- RA; BR
20180202_033000.001,0,RJAA,,,,0,20180202030000,-1,-1,-1,-1,340,-1,13,-1,-1,-1,-1,,2500,0,2,2,FEW 3   BKN 6,1,2,1,1,1023,RJAA 020330Z 34013KT 2500 -SN BR FEW003 BKN006 02/01 Q1023     BECMG 4000 -SN BR RMK 1ST003 7ST006 A3022=,- SN; BR
20180202_040000.002,0,RJAA,,,,0,20180202040000,-1,-1,-1,-1,340,-1,11,-1,-1,-1,-1,,4000,0,2,3,FEW 3   BKN 6   BKN 20,1,2,1,1,1023,RJAA 020400Z 34011KT 4000 -RA BR FEW003 BKN006 BKN020 02/01     Q1023 NOSIG RMK 1ST003 6ST006 7SC020 A3021=,- RA; BR
20180202_043000.001,0,RJAA,,,,0,20180202040000,-1,-1,-1,-1,340,-1,11,-1,-1,-1,-1,,5000,0,2,3,FEW 3   BKN 6   BKN 15,1,3,1,2,1022,RJAA 020430Z 34011KT 5000 -RA BR FEW003 BKN006 BKN015 03/02     Q1022 NOSIG RMK 1ST003 6ST006 7SC015 A3021=,- RA; BR
20180202_050000.001,0,RJAA,,,,0,20180202050000,-1,-1,-1,-1,350,-1,13,-1,-1,-1,-1,,5000,0,2,3,FEW 3   BKN 6   BKN 15,1,3,1,2,1022,RJAA 020500Z 35013KT 5000 -RA BR FEW003 BKN006 BKN015 03/02     Q1022 NOSIG RMK 1ST003 6ST006 7SC015 A3020=,- RA; BR
20180202_053000.001,0,RJAA,,,,0,20180202050000,-1,-1,-1,-1,360,-1,11,-1,-1,-1,-1,,5000,0,2,3,FEW 4   BKN 8   BKN 15,1,3,1,2,1022,RJAA 020530Z 36011KT 5000 -RA BR FEW004 BKN008 BKN015 03/02     Q1022 NOSIG RMK 1ST004 5ST008 6SC015 A3020=,- RA; BR
20180202_060000.002,0,RJAA,,,,0,20180202060000,-1,-1,-1,-1,340,-1,10,-1,-1,-1,-1,,5000,0,2,3,FEW 5   SCT 8   BKN 15,1,3,1,2,1023,RJAA 020600Z 34010KT 5000 -RA BR FEW005 SCT008 BKN015 03/02     Q1023 TEMPO 4500 -RA BR FEW005 BKN012 RMK 1ST005 3ST008           7SC015 A3021=,- RA; BR
20180202_063000.001,0,RJAA,,,,0,20180202060000,-1,-1,-1,-1,330,-1,8,-1,-1,-1,-1,,6000,0,1,3,FEW 5   BKN 13   BKN 25,1,3,1,2,1023,RJAA 020630Z 33008KT 6000 -RA FEW005 BKN013 BKN025 03/02 Q1023     TEMPO 4500 -RA BR RMK 1ST005 6SC013 7SC025 A3021=,- RA
20180202_070000.002,0,RJAA,,,,0,20180202070000,-1,-1,-1,-1,350,-1,9,-1,-1,-1,-1,,8000,0,1,3,FEW 5   BKN 15   BKN 25,1,3,1,2,1023,RJAA 020700Z 35009KT 8000 -RA FEW005 BKN015 BKN025 03/02 Q1023     NOSIG RMK 1ST005 5SC015 7SC025 A3021=,- RA
20180202_073000.001,0,RJAA,,,,0,20180202070000,-1,-1,-1,-1,360,-1,9,-1,-1,-1,-1,,8000,0,0,3,FEW 10   BKN 25   BKN 80,1,3,1,2,1022,RJAA 020730Z 36009KT 8000 FEW010 BKN025 BKN080 03/02 Q1022     NOSIG RMK 1ST010 5SC025 7AC080 A3020=,
20180202_080000.002,0,RJAA,,,,0,20180202080000,-1,-1,-1,-1,350,-1,8,-1,-1,-1,-1,,9000,0,0,3,FEW 20   BKN 30   BKN 80,1,3,1,2,1023,RJAA 020800Z 35008KT 9000 FEW020 BKN030 BKN080 03/02 Q1023     NOSIG RMK 1SC020 6SC030 7AC080 A3021=,
20180202_083000.001,0,RJAA,,,,0,20180202080000,-1,-1,-1,-1,330,-1,9,-1,-1,-1,-1,,9000,0,0,2,FEW 20   BKN 30,1,3,1,2,1023,RJAA 020830Z 33009KT 9000 FEW020 BKN030 03/02 Q1023 NOSIG RMK     1SC020 7SC030 A3021=,
20180202_090000.002,0,RJAA,,,,0,20180202090000,-1,-1,-1,-1,340,-1,10,-1,-1,-1,-1,,9999,0,0,3,FEW 20   BKN 30   BKN 80,1,3,1,2,1022,RJAA 020900Z 34010KT 9999 FEW020 BKN030 BKN080 03/02 Q1022     NOSIG RMK 1SC020 6SC030 7AC080 A3020=,
20180202_093000.001,0,RJAA,,,,0,20180202090000,-1,-1,-1,-1,340,-1,7,-1,-1,-1,-1,,9999,0,0,2,FEW 20   BKN 30,1,3,1,1,1022,RJAA 020930Z 34007KT 9999 FEW020 BKN030 03/01 Q1022 NOSIG RMK     1SC020 7SC030 A3020=,
20180202_100000.003,0,RJAA,,,,0,20180202100000,-1,-1,-1,-1,330,-1,8,-1,-1,-1,-1,,9999,0,0,2,FEW 20   BKN 30,1,3,1,1,1023,RJAA 021000Z 33008KT 9999 FEW020 BKN030 03/01 Q1023 NOSIG RMK     1SC020 7SC030 A3021=,
20180202_103000.001,0,RJAA,,,,0,20180202100000,-1,-1,-1,-1,320,-1,7,-1,-1,-1,-1,,9999,0,0,2,FEW 20   BKN 30,1,3,1,1,1022,RJAA 021030Z 32007KT 9999 FEW020 BKN030 03/01 Q1022 NOSIG RMK     1SC020 7SC030 A3020=,
20180202_110000.002,0,RJAA,,,,0,20180202110000,-1,-1,-1,-1,330,-1,8,-1,-1,-1,-1,,9999,0,0,2,BKN 30   BKN 60,1,3,1,1,1022,RJAA 021100Z 33008KT 9999 BKN030 BKN060 03/01 Q1022 NOSIG RMK     6SC030 7SC060 A3019=,
20180202_113000.001,0,RJAA,,,,0,20180202110000,-1,-1,-1,-1,320,-1,6,-1,-1,-1,-1,,9999,0,1,1,BKN 30,1,2,1,1,1022,RJAA 021130Z 32006KT 9999 -RA BKN030 02/01 Q1022 NOSIG RMK     7SC030 A3020=,- RA
20180202_120000.002,0,RJAA,,,,0,20180202120000,-1,-1,-1,-1,320,-1,6,-1,-1,-1,-1,,9999,0,1,1,BKN 30,1,2,1,1,1022,RJAA 021200Z 32006KT 9999 -RA BKN030 02/01 Q1022 NOSIG RMK     7SC030 A3020=,- RA
20180202_123000.001,0,RJAA,,,,0,20180202120000,-1,-1,-1,-1,330,-1,7,-1,-1,-1,-1,,9999,0,0,2,BKN 35   BKN 60,1,2,1,0,1022,RJAA 021230Z 33007KT 9999 BKN035 BKN060 02/00 Q1022 NOSIG RMK     5SC035 7SC060 A3018=,
20180202_130000.003,0,RJAA,,,,0,20180202130000,-1,-1,-1,-1,340,-1,9,-1,-1,-1,-1,,9999,0,0,2,FEW 20   BKN 30,1,3,1,1,1021,RJAA 021300Z 34009KT 9999 FEW020 BKN030 03/01 Q1021 NOSIG RMK     1SC020 7SC030 A3017=,
20180202_133000.001,0,RJAA,,,,0,20180202130000,-1,-1,-1,-1,340,-1,10,-1,-1,-1,-1,,9999,0,1,2,FEW 20   BKN 30,1,2,1,0,1021,RJAA 021330Z 34010KT 9999 -RA FEW020 BKN030 02/00 Q1021 NOSIG     RMK 1SC020 7SC030 A3016=,- RA
20180202_140000.002,0,RJAA,,,,0,20180202140000,-1,-1,-1,-1,340,-1,9,-1,-1,-1,-1,,9999,0,0,2,SCT 30   BKN 50,1,2,1,0,1021,RJAA 021400Z 34009KT 9999 SCT030 BKN050 02/00 Q1021 NOSIG RMK     4SC030 7SC050 A3015=,
20180202_143000.001,0,RJAA,,,,0,20180202140000,-1,-1,-1,-1,340,-1,9,-1,-1,-1,-1,,9999,0,0,2,FEW 30   BKN 60,1,2,1,0,1020,RJAA 021430Z 34009KT 9999 FEW030 BKN060 02/00 Q1020 NOSIG RMK     2SC030 7SC060 A3013=,
20180202_150000.002,0,RJAA,,,,0,20180202150000,-1,-1,-1,-1,340,-1,9,-1,-1,-1,-1,,9999,0,0,2,FEW 30   BKN 60,1,2,1,1,1020,RJAA 021500Z 34009KT 9999 FEW030 BKN060 02/01 Q1020 NOSIG RMK     1SC030 7SC060 A3012=,
20180202_153000.001,0,RJAA,,,,0,20180202150000,-1,-1,-1,-1,330,-1,8,-1,-1,-1,-1,,9999,0,0,2,FEW 30   BKN 60,1,2,1,0,1020,RJAA 021530Z 33008KT 9999 FEW030 BKN060 02/00 Q1020 NOSIG RMK     1SC030 7SC060 A3012=,
20180202_160000.002,0,RJAA,,,,0,20180202160000,-1,-1,-1,-1,330,-1,8,-1,-1,-1,-1,,9999,0,0,3,FEW 25   SCT 45   BKN 60,1,2,1,0,1020,RJAA 021600Z 33008KT 9999 FEW025 SCT045 BKN060 02/00 Q1020     NOSIG RMK 1SC025 4SC045 7SC060 A3012=,
20180202_163000.001,0,RJAA,,,,0,20180202160000,-1,-1,-1,-1,340,-1,9,-1,-1,-1,-1,,9999,0,0,2,FEW 25   BKN 60,1,2,1,0,1019,RJAA 021630Z 34009KT 9999 FEW025 BKN060 02/00 Q1019 NOSIG RMK     1SC025 7SC060 A3012=,
20180202_170000.002,0,RJAA,,,,0,20180202170000,-1,-1,-1,-1,330,-1,7,-1,-1,-1,-1,,9999,0,0,2,FEW 25   BKN 50,1,2,-1,0,1020,RJAA 021700Z 33007KT 9999 FEW025 BKN050 02/M00 Q1020 NOSIG RMK     1SC025 7SC050 A3012=,
20180202_173000.001,0,RJAA,,,,0,20180202170000,-1,-1,-1,-1,330,-1,7,-1,-1,-1,-1,,9999,0,0,3,FEW 25   BKN 40   BKN 70,1,2,-1,0,1019,RJAA 021730Z 33007KT 9999 FEW025 BKN040 BKN070 02/M00 Q1019     NOSIG RMK 1SC025 6SC040 7AC070 A3011=,
20180202_180000.003,0,RJAA,,,,0,20180202180000,-1,-1,-1,-1,330,-1,7,-1,-1,-1,-1,,9999,0,1,2,FEW 35   BKN 45,1,2,-1,1,1019,RJAA 021800Z 33007KT 9999 -SNRA FEW035 BKN045 02/M01 Q1019     NOSIG RMK 1SC035 7SC045 A3011=,- SN RA
20180202_183000.001,0,RJAA,,,,0,20180202180000,-1,-1,-1,-1,350,-1,7,-1,-1,-1,-1,,9999,0,1,3,FEW 25   BKN 50   BKN 90,1,2,-1,1,1019,RJAA 021830Z 35007KT 9999 -SNRA FEW025 BKN050 BKN090 02/M01     Q1019 NOSIG RMK 1SC025 5SC050 7AC090 A3010=,- SN RA
20180202_190000.003,0,RJAA,,,,0,20180202190000,-1,-1,-1,-1,340,-1,7,-1,-1,-1,-1,,9999,0,0,3,FEW 30   SCT 50   BKN 90,1,2,-1,1,1019,RJAA 021900Z 34007KT 9999 FEW030 SCT050 BKN090 02/M01 Q1019     NOSIG RMK 1SC030 4SC050 7AC090 A3009=,
20180202_193000.001,0,RJAA,,,,0,20180202190000,-1,-1,-1,-1,360,-1,7,-1,-1,-1,-1,,9999,0,0,3,FEW 30   SCT 90   BKN 180,1,1,-1,1,1018,RJAA 021930Z 36007KT 9999 FEW030 SCT090 BKN180 01/M01 Q1018     NOSIG RMK 1SC030 3AC090 7AC180 A3008=,
20180202_200000.003,0,RJAA,,,,0,20180202200000,-1,-1,-1,-1,360,-1,8,-1,-1,-1,-1,,9999,0,0,3,FEW 30   BKN 150   BKN 170,1,2,-1,1,1018,RJAA 022000Z 36008KT 9999 FEW030 BKN150 BKN170 02/M01 Q1018     NOSIG RMK 1SC030 6AC150 7AC170 A3007=,
20180202_203000.001,0,RJAA,,,,0,20180202200000,-1,-1,-1,-1,360,-1,7,-1,-1,-1,-1,,9999,0,0,3,FEW 30   SCT 90   BKN 150,1,2,-1,1,1018,RJAA 022030Z 36007KT 9999 FEW030 SCT090 BKN150 02/M01 Q1018     NOSIG RMK 1SC030 4AC090 7AC150 A3006=,
20180202_210000.002,0,RJAA,,,,0,20180202210000,-1,-1,-1,-1,10,-1,7,-1,-1,-1,-1,,9999,0,0,2,FEW 30   BKN 80,1,2,-1,1,1017,RJAA 022100Z 01007KT 9999 FEW030 BKN080 02/M01 Q1017 NOSIG RMK     1SC030 7AC080 A3005=,
20180202_213000.001,0,RJAA,,,,0,20180202210000,-1,-1,-1,-1,10,-1,7,-1,-1,-1,-1,,9999,0,0,2,FEW 30   BKN 80,1,2,-1,1,1017,RJAA 022130Z 01007KT 9999 FEW030 BKN080 02/M01 Q1017 NOSIG RMK     1SC030 7AC080 A3005=,
20180202_220000.002,0,RJAA,,,,0,20180202220000,-1,-1,-1,-1,350,-1,10,-1,-1,-1,-1,,9999,0,0,2,FEW 30   BKN 80,1,2,-1,1,1017,RJAA 022200Z 35010KT 9999 FEW030 BKN080 02/M01 Q1017 NOSIG RMK     1SC030 7AC080 A3004=,
20180202_223000.002,0,RJAA,,,,0,20180202220000,-1,-1,-1,-1,10,-1,8,-1,-1,-1,-1,,9999,0,0,2,FEW 30   BKN 70,1,2,-1,1,1016,RJAA 022230Z 01008KT 9999 FEW030 BKN070 02/M01 Q1016 NOSIG RMK     1SC030 7AC070 A3003=,
20180202_230000.003,0,RJAA,,,,0,20180202230000,-1,-1,-1,-1,20,-1,5,-1,-1,-1,-1,,9999,0,0,3,FEW 30   BKN 70   BKN -9999,1,3,-1,1,1017,RJAA 022300Z 02005KT 9999 FEW030 BKN070 BKN/// 03/M01 Q1017     NOSIG RMK 1SC030 6AC070 A3004 MOD ICING OBS AT 2250Z 10NM           SW BINKS BTN 13000FT AND 12000FT IN DES A320 VNL300=,
20180202_233000.001,0,RJAA,,,,0,20180202230000,-1,-1,-1,-1,340,-1,5,-1,-1,-1,-1,,9999,0,0,3,FEW 25   SCT 70   BKN 110,1,3,-1,1,1017,RJAA 022330Z 34005KT 9999 FEW025 SCT070 BKN110 03/M01 Q1017     NOSIG RMK 1CU025 4AC070 6AC110 A3004 MOD TURB OBS AT           2314Z 40NM S NARITA 12000FT IN DES A333 IDX403=,
20180203_000000.002,0,RJAA,,,,0,20180203000000,-1,-1,-1,-1,320,-1,5,-1,-1,-1,-1,,9999,0,0,2,FEW 25   BKN 110,1,4,-1,1,1016,RJAA 030000Z 32005KT 9999 FEW025 BKN110 04/M01 Q1016 NOSIG RMK     1CU025 7AC110 A3003=,
20180203_003000.001,0,RJAA,,,,0,20180203000000,-1,-1,-1,-1,320,-1,7,-1,-1,-1,-1,,9999,0,0,2,FEW 25   BKN -9999,1,4,-1,1,1016,RJAA 030030Z 32007KT 9999 FEW025 BKN/// 04/M01 Q1016 NOSIG RMK     1CU025 A3002=,
20180203_010000.003,0,RJAA,,,,0,20180203010000,-1,-1,-1,-1,340,-1,4,-1,-1,300,30,,9999,0,0,2,FEW 25   BKN -9999,1,6,-1,0,1016,RJAA 030100Z 34004KT 300V030 9999 FEW025 BKN/// 06/M00 Q1016     NOSIG RMK 1CU025 A3001=,
20180203_013000.001,0,RJAA,,,,0,20180203010000,-1,-1,-1,-1,350,-1,5,-1,-1,280,20,,9999,0,0,2,FEW 30   BKN -9999,1,7,-1,1,1016,RJAA 030130Z 35005KT 280V020 9999 FEW030 BKN/// 07/M01 Q1016     NOSIG RMK 1CU030 A3001=,
20180203_020000.002,0,RJAA,,,,0,20180203020000,-1,-1,-1,-1,330,-1,6,-1,-1,280,20,,9999,0,0,2,FEW 30   BKN -9999,1,7,-1,1,1015,RJAA 030200Z 33006KT 280V020 9999 FEW030 BKN/// 07/M01 Q1015     NOSIG RMK 1CU030 A2998=,
20180203_023000.001,0,RJAA,,,,0,20180203020000,-1,-1,-1,-1,40,-1,5,-1,-1,320,100,,9999,0,0,2,FEW 30   BKN -9999,1,7,1,0,1014,RJAA 030230Z 04005KT 320V100 9999 FEW030 BKN/// 07/00 Q1014     NOSIG RMK 1CU030 A2995=,
20180203_030000.002,0,RJAA,,,,0,20180203030000,-1,-1,-1,-1,360,-1,6,-1,-1,310,70,,9999,0,0,2,FEW 30   BKN -9999,1,8,1,1,1014,RJAA 030300Z 36006KT 310V070 9999 FEW030 BKN/// 08/01 Q1014     NOSIG RMK 1CU030 A2995=,
20180203_033000.001,0,RJAA,,,,0,20180203030000,-1,-1,-1,-1,50,-1,6,-1,-1,360,90,,9999,0,0,2,FEW 30   BKN -9999,1,8,1,1,1013,RJAA 030330Z 05006KT 360V090 9999 FEW030 BKN/// 08/01 Q1013     NOSIG RMK 1CU030 A2992=,
20180203_040000.002,0,RJAA,,,,0,20180203040000,-1,-1,-1,-1,20,-1,7,-1,-1,350,60,,9999,0,0,2,FEW 30   BKN -9999,1,8,1,2,1012,RJAA 030400Z 02007KT 350V060 9999 FEW030 BKN/// 08/02 Q1012     NOSIG RMK 1CU030 A2990=,
20180203_043000.001,0,RJAA,,,,0,20180203040000,-1,-1,-1,-1,10,-1,5,-1,-1,330,70,,9999,0,0,2,FEW 20   BKN -9999,1,8,1,2,1012,RJAA 030430Z 01005KT 330V070 9999 FEW020 BKN/// 08/02 Q1012     NOSIG RMK 2CU020 A2990=,
20180203_050000.002,0,RJAA,,,,0,20180203050000,-1,-1,-1,-1,360,-1,8,-1,-1,-1,-1,,9999,0,0,3,FEW 20   SCT 80   BKN -9999,1,8,1,2,1012,RJAA 030500Z 36008KT 9999 FEW020 SCT080 BKN/// 08/02 Q1012     NOSIG RMK 1CU020 3AC080 A2989=,
20180203_053000.001,0,RJAA,,,,0,20180203050000,-1,-1,-1,-1,10,-1,7,-1,-1,330,40,,9999,0,0,3,FEW 20   BKN 80   BKN -9999,1,8,1,2,1012,RJAA 030530Z 01007KT 330V040 9999 FEW020 BKN080 BKN/// 08/02     Q1012 NOSIG RMK 2CU020 5AC080 A2989=,
20180203_060000.002,0,RJAA,,,,0,20180203060000,-1,-1,-1,-1,20,-1,8,-1,-1,340,50,,9999,0,0,2,BKN 20   BKN 80,1,8,1,2,1012,RJAA 030600Z 02008KT 340V050 9999 BKN020 BKN080 08/02 Q1012     NOSIG RMK 5CU020 7AC080 A2990=,
20180203_063000.001,0,RJAA,,,,0,20180203060000,-1,-1,-1,-1,10,-1,7,-1,-1,340,40,,9999,0,0,3,SCT 20   BKN 90   BKN -9999,1,7,1,2,1012,RJAA 030630Z 01007KT 340V040 9999 SCT020 BKN090 BKN/// 07/02     Q1012 NOSIG RMK 3CU020 5AC090 A2990=,
20180203_070000.003,0,RJAA,,,,0,20180203070000,-1,-1,-1,-1,20,-1,7,-1,-1,350,50,,9999,0,0,2,FEW 20   BKN -9999,1,7,1,2,1012,RJAA 030700Z 02007KT 350V050 9999 FEW020 BKN/// 07/02 Q1012     NOSIG RMK 1CU020 A2990=,
20180203_073000.001,0,RJAA,,,,0,20180203070000,-1,-1,-1,-1,30,-1,6,-1,-1,-1,-1,,9999,0,0,2,FEW 20   BKN -9999,1,7,1,2,1012,RJAA 030730Z 03006KT 9999 FEW020 BKN/// 07/02 Q1012 NOSIG RMK     1CU020 A2990=,
20180203_080000.002,0,RJAA,,,,0,20180203080000,-1,-1,-1,-1,20,-1,6,-1,-1,330,50,,9999,0,0,2,FEW 20   BKN -9999,1,6,1,2,1012,RJAA 030800Z 02006KT 330V050 9999 FEW020 BKN/// 06/02 Q1012     NOSIG RMK 1CU020 A2990=,
20180203_083000.001,0,RJAA,,,,0,20180203080000,-1,-1,-1,-1,20,-1,6,-1,-1,350,70,,9999,0,0,2,FEW 20   SCT 50,1,6,1,2,1012,RJAA 030830Z 02006KT 350V070 9999 FEW020 SCT050 06/02 Q1012     NOSIG RMK 1CU020 3SC050 A2990=,
20180203_090000.002,0,RJAA,,,,0,20180203090000,-1,-1,-1,-1,340,-1,6,-1,-1,-1,-1,,9999,0,0,2,FEW 20   BKN 50,1,6,1,2,1012,RJAA 030900Z 34006KT 9999 FEW020 BKN050 06/02 Q1012 NOSIG RMK     1CU020 6SC050 A2991=,
20180203_093000.001,0,RJAA,,,,0,20180203090000,-1,-1,-1,-1,20,-1,7,-1,-1,350,60,,9999,0,0,2,FEW 20   BKN 50,1,6,1,2,1012,RJAA 030930Z 02007KT 350V060 9999 FEW020 BKN050 06/02 Q1012     NOSIG RMK 1CU020 5SC050 A2991=,
20180203_100000.002,0,RJAA,,,,0,20180203100000,-1,-1,-1,-1,30,-1,4,-1,-1,350,60,,9999,0,0,2,FEW 20   BKN 50,1,6,1,2,1012,RJAA 031000Z 03004KT 350V060 9999 FEW020 BKN050 06/02 Q1012     NOSIG RMK 1CU020 6SC050 A2991=,
20180203_103000.001,0,RJAA,,,,0,20180203100000,-1,-1,-1,-1,240,-1,2,-1,-1,-1,-1,,9999,0,0,1,FEW 20,1,2,-1,0,1012,RJAA 031030Z 24002KT 9999 FEW020 02/M00 Q1012 BECMG 28005KT     RMK 1CU020 A2991=,
20180203_110000.002,0,RJAA,,,,0,20180203110000,-1,-1,-1,-1,330,-1,2,-1,-1,-1,-1,,9999,0,0,2,FEW 20   SCT 60,1,2,1,1,1012,RJAA 031100Z 33002KT 9999 FEW020 SCT060 02/01 Q1012 NOSIG RMK     1CU020 3SC060 A2991=,
20180203_113000.001,0,RJAA,,,,0,20180203110000,-1,-1,-1,-1,999,-1,1,-1,-1,-1,-1,,9999,0,0,2,FEW 20   BKN 60,1,1,1,0,1012,RJAA 031130Z VRB01KT 9999 FEW020 BKN060 01/00 Q1012 NOSIG RMK     1CU020 5SC060 A2991=,
20180203_120000.002,0,RJAA,,,,0,20180203120000,-1,-1,-1,-1,250,-1,2,-1,-1,-1,-1,,9999,0,0,2,FEW 20   SCT 60,1,1,1,1,1012,RJAA 031200Z 25002KT 9999 FEW020 SCT060 01/01 Q1012 NOSIG RMK     1CU020 3SC060 A2990=,
20180203_123000.001,0,RJAA,,,,0,20180203120000,-1,-1,-1,-1,290,-1,3,-1,-1,-1,-1,,9999,0,0,1,FEW 20,1,2,1,1,1012,RJAA 031230Z 29003KT 9999 FEW020 02/01 Q1012 NOSIG RMK 1CU020     A2990=,
20180203_130000.002,0,RJAA,,,,0,20180203130000,-1,-1,-1,-1,310,-1,3,-1,-1,-1,-1,,9999,0,0,2,FEW 20   SCT 60,1,0,-1,0,1012,RJAA 031300Z 31003KT 9999 FEW020 SCT060 00/M00 Q1012 NOSIG RMK     1CU020 4SC060 A2990=,
20180203_133000.001,0,RJAA,,,,0,20180203130000,-1,-1,-1,-1,320,-1,3,-1,-1,-1,-1,,9999,0,0,2,FEW 20   SCT 60,1,1,1,1,1012,RJAA 031330Z 32003KT 9999 FEW020 SCT060 01/01 Q1012 NOSIG RMK     1CU020 4SC060 A2990=,
20180203_140000.002,0,RJAA,,,,0,20180203140000,-1,-1,-1,-1,300,-1,3,-1,-1,-1,-1,,9999,0,0,2,FEW 30   SCT 60,1,2,1,0,1012,RJAA 031400Z 30003KT 9999 FEW030 SCT060 02/00 Q1012 NOSIG RMK     1CU030 3SC060 A2989=,
20180203_143000.001,0,RJAA,,,,0,20180203140000,-1,-1,-1,-1,340,-1,6,-1,-1,-1,-1,,9999,0,0,1,FEW 30,1,1,-1,1,1012,RJAA 031430Z 34006KT 9999 FEW030 01/M01 Q1012 NOSIG RMK 1CU030     A2988=,
20180203_150000.002,0,RJAA,,,,0,20180203150000,-1,-1,-1,-1,310,-1,5,-1,-1,280,340,,9999,0,0,1,FEW 30,1,1,-1,1,1011,RJAA 031500Z 31005KT 280V340 9999 FEW030 01/M01 Q1011 NOSIG     RMK 1CU030 A2987=,
20180203_153000.001,0,RJAA,,,,0,20180203150000,-1,-1,-1,-1,320,-1,6,-1,-1,-1,-1,,9999,0,0,2,FEW 30   SCT 80,1,2,-1,1,1011,RJAA 031530Z 32006KT 9999 FEW030 SCT080 02/M01 Q1011 NOSIG RMK     1CU030 3AC080 A2987=,
20180203_160000.002,0,RJAA,,,,0,20180203160000,-1,-1,-1,-1,320,-1,6,-1,-1,-1,-1,,9999,0,0,1,FEW 30,1,3,-1,1,1011,RJAA 031600Z 32006KT 9999 FEW030 03/M01 Q1011 NOSIG RMK 1CU030     A2987=,
20180203_163000.001,0,RJAA,,,,0,20180203160000,-1,-1,-1,-1,310,-1,4,-1,-1,-1,-1,,9999,0,0,1,FEW 30,1,1,-1,2,1011,RJAA 031630Z 31004KT 9999 FEW030 01/M02 Q1011 NOSIG RMK 1CU030     A2987=,
20180203_170000.002,0,RJAA,,,,0,20180203170000,-1,-1,-1,-1,300,-1,2,-1,-1,-1,-1,,9999,0,0,1,FEW 30,-1,1,-1,2,1011,RJAA 031700Z 30002KT 9999 FEW030 M01/M02 Q1011 NOSIG RMK     1CU030 A2988=,
20180203_173000.001,0,RJAA,,,,0,20180203170000,-1,-1,-1,-1,310,-1,3,-1,-1,260,320,,9999,0,0,1,FEW 30,-1,1,-1,2,1011,RJAA 031730Z 31003KT 260V320 9999 FEW030 M01/M02 Q1011 NOSIG     RMK 1CU030 A2987=,
20180203_180000.003,0,RJAA,,,,0,20180203180000,-1,-1,-1,-1,999,-1,1,-1,-1,-1,-1,,9999,0,0,2,FEW 30   SCT -9999,-1,1,-1,2,1011,RJAA 031800Z VRB01KT 9999 FEW030 SCT/// M01/M02 Q1011 NOSIG     RMK 1CU030 A2986=,
20180203_183000.001,0,RJAA,,,,0,20180203180000,-1,-1,-1,-1,999,-1,1,-1,-1,-1,-1,,9999,0,0,1,FEW 30,-1,2,-1,3,1011,RJAA 031830Z VRB01KT 9999 FEW030 M02/M03 Q1011 NOSIG RMK     1CU030 A2985=,
20180203_190000.002,0,RJAA,,,,0,20180203190000,-1,-1,-1,-1,310,-1,2,-1,-1,-1,-1,,9999,0,0,2,FEW 30   BKN 50,-1,2,-1,3,1011,RJAA 031900Z 31002KT 9999 FEW030 BKN050 M02/M03 Q1011 NOSIG     RMK 1CU030 6SC050 A2986=,
20180203_193000.001,0,RJAA,,,,0,20180203190000,-1,-1,-1,-1,999,-1,1,-1,-1,-1,-1,,9999,0,0,2,FEW 30   BKN 60,-1,2,-1,3,1011,RJAA 031930Z VRB01KT 9999 FEW030 BKN060 M02/M03 Q1011 NOSIG     RMK 1CU030 6SC060 A2985=,
20180203_200000.002,0,RJAA,,,,0,20180203200000,-1,-1,-1,-1,999,-1,1,-1,-1,-1,-1,,9999,0,0,3,FEW 30   SCT 70   BKN -9999,-1,2,-1,2,1011,RJAA 032000Z VRB01KT 9999 FEW030 SCT070 BKN/// M02/M02 Q1011     NOSIG RMK 1CU030 3AC070 A2985=,
20180203_203000.001,0,RJAA,,,,0,20180203200000,-1,-1,-1,-1,340,-1,3,-1,-1,-1,-1,,9999,0,0,2,FEW 30   BKN 70,-1,1,-1,2,1011,RJAA 032030Z 34003KT 9999 FEW030 BKN070 M01/M02 Q1011 NOSIG     RMK 1CU030 5AC070 A2986=,
20180203_210000.002,0,RJAA,,,,0,20180203210000,-1,-1,-1,-1,350,-1,1,-1,-1,-1,-1,,9999,0,0,3,FEW 30   SCT 70   BKN -9999,-1,2,-1,2,1011,RJAA 032100Z 35001KT 9999 FEW030 SCT070 BKN/// M02/M02 Q1011     NOSIG RMK 1CU030 3AC070 A2985=,
20180203_213000.001,0,RJAA,,,,0,20180203210000,-1,-1,-1,-1,999,-1,2,-1,-1,-1,-1,,9999,0,0,2,FEW 30   BKN 70,-1,2,-1,2,1011,RJAA 032130Z VRB02KT 9999 FEW030 BKN070 M02/M02 Q1011 NOSIG     RMK 2CU030 5AC070 A2986 VIRGA 20KM S MOV UNKNOWN=,
20180203_220000.002,0,RJAA,,,,0,20180203220000,-1,-1,-1,-1,0,-1,0,-1,-1,-1,-1,,9999,0,0,2,FEW 30   BKN 70,-1,1,-1,2,1011,RJAA 032200Z 00000KT 9999 FEW030 BKN070 M01/M02 Q1011 NOSIG     RMK 2CU030 5AC070 A2986 VIRGA 20KM SE-S MOV UNKNOWN=,
20180203_223000.002,0,RJAA,,,,0,20180203220000,-1,-1,-1,-1,0,-1,0,-1,-1,-1,-1,,9999,0,0,2,FEW 30   BKN 70,-1,0,-1,1,1011,RJAA 032230Z 00000KT 9999 FEW030 BKN070 M00/M01 Q1011 NOSIG     RMK 2CU030 6AC070 A2985 VIRGA 20KM SE MOV UNKNOWN=,
20180203_230000.002,0,RJAA,,,,0,20180203230000,-1,-1,-1,-1,0,-1,0,-1,-1,-1,-1,,9999,0,1,3,FEW 30   SCT 40   BKN 70,1,1,-1,0,1011,RJAA 032300Z 00000KT 9999 -SHGS FEW030 SCT040 BKN070 01/M00     Q1011 NOSIG RMK 2CU030 4CU040 7AC070 A2986 SNOW PELLETS=,- GS SH
20180203_233000.001,0,RJAA,,,,0,20180203230000,-1,-1,-1,-1,999,-1,1,-1,-1,-1,-1,,9999,0,1,3,FEW 30   SCT 40   BKN 70,1,2,1,0,1011,RJAA 032330Z VRB01KT 9999 VCSH FEW030 SCT040 BKN070 02/00     Q1011 NOSIG RMK 1CU030 4CU040 7AC070 A2985=,VC SH
20180204_000000.002,0,RJAA,,,,0,20180204000000,-1,-1,-1,-1,290,-1,3,-1,-1,-1,-1,,9999,0,0,3,FEW 30   SCT 40   BKN 70,1,3,-1,1,1010,RJAA 040000Z 29003KT 9999 FEW030 SCT040 BKN070 03/M01 Q1010     NOSIG RMK 1CU030 3CU040 6AC070 A2985=,
20180204_003000.001,0,RJAA,,,,0,20180204000000,-1,-1,-1,-1,310,-1,4,-1,-1,280,340,,9999,0,0,3,FEW 30   SCT 60   BKN 80,1,4,-1,2,1010,RJAA 040030Z 31004KT 280V340 9999 FEW030 SCT060 BKN080 04/M02     Q1010 NOSIG RMK 1CU030 3SC060 6AC080 A2984=,
20180204_010000.002,0,RJAA,,,,0,20180204010000,-1,-1,-1,-1,240,-1,3,-1,-1,200,300,,9999,0,0,2,FEW 30   BKN 45,1,5,-1,1,1010,RJAA 040100Z 24003KT 200V300 9999 FEW030 BKN045 05/M01 Q1010     BECMG 27005KT RMK 1CU030 7SC045 A2984=,
20180204_013000.001,0,RJAA,,,,0,20180204010000,-1,-1,-1,-1,280,-1,4,-1,-1,230,320,,9999,0,0,2,FEW 30   SCT 70,1,6,-1,2,1010,RJAA 040130Z 28004KT 230V320 9999 FEW030 SCT070 06/M02 Q1010     NOSIG RMK 1CU030 4AC070 A2983=,
20180204_020000.002,0,RJAA,,,,0,20180204020000,-1,-1,-1,-1,300,-1,5,-1,-1,250,330,,9999,0,0,1,FEW 30,1,7,-1,4,1009,RJAA 040200Z 30005KT 250V330 9999 FEW030 07/M04 Q1009 NOSIG     RMK 1CU030 A2981=,
20180204_023000.001,0,RJAA,,,,0,20180204020000,-1,-1,-1,-1,10,-1,3,-1,-1,290,90,,9999,0,0,1,FEW 30,1,7,-1,6,1008,RJAA 040230Z 01003KT 290V090 9999 FEW030 07/M06 Q1008 NOSIG     RMK 1CU030 A2978=,
20180204_030000.002,0,RJAA,,,,0,20180204030000,-1,-1,-1,-1,300,-1,3,-1,-1,220,360,,9999,0,0,1,FEW 30,1,9,-1,4,1007,RJAA 040300Z 30003KT 220V360 9999 FEW030 09/M04 Q1007 BECMG     22006KT RMK 1CU030 A2976=,
20180204_033000.001,0,RJAA,,,,0,20180204030000,-1,-1,-1,-1,230,-1,4,-1,-1,-1,-1,,9999,0,0,1,FEW 30,1,9,-1,2,1007,RJAA 040330Z 23004KT 9999 FEW030 09/M02 Q1007 NOSIG RMK 1CU030     A2975=,
20180204_040000.002,0,RJAA,,,,0,20180204040000,-1,-1,-1,-1,280,-1,4,-1,-1,210,340,,9999,0,0,2,FEW 30   SCT 45,1,9,-1,2,1006,RJAA 040400Z 28004KT 210V340 9999 FEW030 SCT045 09/M02 Q1006     BECMG 22006KT RMK 1CU030 3CU045 A2973=,
20180204_043000.001,0,RJAA,,,,0,20180204040000,-1,-1,-1,-1,180,-1,7,-1,-1,140,230,,9999,0,0,2,FEW 30   SCT 45,1,9,-1,3,1006,RJAA 040430Z 18007KT 140V230 9999 FEW030 SCT045 09/M03 Q1006     NOSIG RMK 1CU030 3CU045 A2972=,
20180204_050000.002,0,RJAA,,,,0,20180204050000,-1,-1,-1,-1,999,-1,2,-1,-1,-1,-1,,9999,0,0,2,FEW 30   SCT 50,1,10,-1,2,1006,RJAA 040500Z VRB02KT 9999 FEW030 SCT050 10/M02 Q1006 BECMG     22006KT RMK 1CU030 4SC050 A2971=,
20180204_053000.001,0,RJAA,,,,0,20180204050000,-1,-1,-1,-1,230,-1,7,-1,-1,180,300,,9999,0,0,2,FEW 30   SCT 50,1,10,-1,3,1005,RJAA 040530Z 23007KT 180V300 9999 FEW030 SCT050 10/M03 Q1005     NOSIG RMK 1CU030 4SC050 A2970=,
20180204_060000.002,0,RJAA,,,,0,20180204060000,-1,-1,-1,-1,230,-1,9,-1,-1,-1,-1,,9999,0,0,2,FEW 30   SCT 50,1,10,-1,3,1005,RJAA 040600Z 23009KT 9999 FEW030 SCT050 10/M03 Q1005 NOSIG RMK     1CU030 4SC050 A2970=,
20180204_063000.001,0,RJAA,,,,0,20180204060000,-1,-1,-1,-1,220,-1,8,-1,-1,190,280,,9999,0,0,2,FEW 30   SCT 50,1,10,-1,5,1005,RJAA 040630Z 22008KT 190V280 9999 FEW030 SCT050 10/M05 Q1005     NOSIG RMK 1CU030 3SC050 A2969=,
20180204_070000.002,0,RJAA,,,,0,20180204070000,-1,-1,-1,-1,230,-1,8,-1,-1,-1,-1,,9999,0,0,2,FEW 30   SCT 60,1,10,-1,6,1005,RJAA 040700Z 23008KT 9999 FEW030 SCT060 10/M06 Q1005 NOSIG RMK     1CU030 4SC060 A2969 VIRGA 25KM NE MOV NE=,
20180204_073000.001,0,RJAA,,,,0,20180204070000,-1,-1,-1,-1,240,-1,7,-1,-1,210,290,,9999,0,0,2,FEW 30   SCT 60,1,9,-1,6,1005,RJAA 040730Z 24007KT 210V290 9999 FEW030 SCT060 09/M06 Q1005     BECMG TL0800 28010KT RMK 1CU030 3SC060 A2970=,
20180204_080000.002,0,RJAA,,,,0,20180204080000,-1,-1,-1,-1,250,-1,6,-1,-1,-1,-1,,9999,0,0,2,FEW 30   SCT 70,1,8,-1,6,1006,RJAA 040800Z 25006KT 9999 FEW030 SCT070 08/M06 Q1006 NOSIG RMK     1CU030 3AC070 A2971=,
20180204_083000.001,0,RJAA,,,,0,20180204080000,-1,-1,-1,-1,240,-1,4,-1,-1,-1,-1,,9999,0,0,2,FEW 30   SCT 70,1,7,-1,4,1006,RJAA 040830Z 24004KT 9999 FEW030 SCT070 07/M04 Q1006 BECMG     30010KT RMK 1CU030 3AC070 A2972 VIRGA 20KM NW MOV E=,
20180204_090000.002,0,RJAA,,,,0,20180204090000,-1,-1,-1,-1,280,-1,4,-1,-1,230,330,,9999,0,1,2,FEW 30   BKN 60,1,5,-1,4,1006,RJAA 040900Z 28004KT 230V330 9999 VCSH FEW030 BKN060 05/M04     Q1006 TEMPO FM1000 32014KT RMK 1CU030 5SC060 A2973=,VC SH
20180204_093000.001,0,RJAA,,,,0,20180204090000,-1,-1,-1,-1,300,-1,6,-1,-1,-1,-1,,9999,0,1,3,FEW 30   SCT 60   BKN 80,1,6,-1,3,1007,RJAA 040930Z 30006KT 9999 VCSH FEW030 SCT060 BKN080 06/M03     Q1007 NOSIG RMK 1CU030 4SC060 6AC080 A2974=,VC SH
20180204_100000.002,0,RJAA,,,,0,20180204100000,-1,-1,-1,-1,300,-1,7,-1,-1,-1,-1,,9999,0,0,3,FEW 30   SCT 60   BKN 80,1,6,-1,3,1007,RJAA 041000Z 30007KT 9999 FEW030 SCT060 BKN080 06/M03 Q1007     NOSIG RMK 1CU030 4SC060 7AC080 A2974 VIRGA OHD MOV SE=,
20180204_103000.001,0,RJAA,,,,0,20180204100000,-1,-1,-1,-1,290,-1,8,-1,-1,260,320,,9999,0,0,2,FEW 30   BKN 80,1,6,-1,6,1007,RJAA 041030Z 29008KT 260V320 9999 FEW030 BKN080 06/M06 Q1007     NOSIG RMK 1CU030 7AC080 A2974=,
20180204_110000.003,0,RJAA,,,,0,20180204110000,-1,-1,-1,-1,280,-1,6,-1,-1,240,310,,9999,0,0,3,FEW 30   SCT 40   BKN 70,1,6,-1,7,1007,RJAA 041100Z 28006KT 240V310 9999 FEW030 SCT040 BKN070 06/M07     Q1007 WS R34R TEMPO 30016KT RMK 1CU030 3CU040 6AC070           A2974 VIRGA OHD MOV SE=,
20180204_113000.001,0,RJAA,,,,0,20180204110000,-1,-1,-1,-1,310,-1,6,-1,-1,260,330,,9999,0,0,1,FEW 30,1,5,-1,10,1007,RJAA 041130Z 31006KT 260V330 9999 FEW030 05/M10 Q1007 NOSIG     RMK 1CU030 A2975=,
20180204_120000.002,0,RJAA,,,,0,20180204120000,-1,-1,-1,-1,310,-1,6,-1,-1,-1,-1,,9999,0,0,1,FEW 30,1,4,-1,9,1007,RJAA 041200Z 31006KT 9999 FEW030 04/M09 Q1007 NOSIG RMK 1CU030     A2976=,
20180204_123000.001,0,RJAA,,,,0,20180204120000,-1,-1,-1,-1,300,-1,5,-1,-1,-1,-1,,9999,0,0,1,FEW 30,1,4,-1,8,1007,RJAA 041230Z 30005KT 9999 FEW030 04/M08 Q1007 NOSIG RMK 1CU030     A2976=,
20180204_130000.002,0,RJAA,,,,0,20180204130000,-1,-1,-1,-1,300,-1,5,-1,-1,-1,-1,,9999,0,0,1,FEW 30,1,4,-1,8,1008,RJAA 041300Z 30005KT 9999 FEW030 04/M08 Q1008 NOSIG RMK 1CU030     A2977=,
20180204_133000.001,0,RJAA,,,,0,20180204130000,-1,-1,-1,-1,290,-1,4,-1,-1,-1,-1,,9999,0,0,1,FEW 30,1,3,-1,8,1008,RJAA 041330Z 29004KT 9999 FEW030 03/M08 Q1008 NOSIG RMK 1CU030     A2978=,
20180204_140000.002,0,RJAA,,,,0,20180204140000,-1,-1,-1,-1,260,-1,3,-1,-1,-1,-1,,9999,0,0,1,FEW 30,1,1,-1,7,1008,RJAA 041400Z 26003KT 9999 FEW030 01/M07 Q1008 NOSIG RMK 1CU030     A2978=,
20180204_143000.001,0,RJAA,,,,0,20180204140000,-1,-1,-1,-1,260,-1,3,-1,-1,-1,-1,,9999,0,0,1,FEW 30,-1,1,-1,6,1008,RJAA 041430Z 26003KT 9999 FEW030 M01/M06 Q1008 NOSIG RMK     1CU030 A2978=,
20180204_150000.002,0,RJAA,,,,0,20180204150000,-1,-1,-1,-1,999,-1,2,-1,-1,-1,-1,,9999,0,0,1,FEW 30,-1,1,-1,7,1008,RJAA 041500Z VRB02KT 9999 FEW030 M01/M07 Q1008 NOSIG RMK     1CU030 A2978=,
20180204_153000.001,0,RJAA,,,,0,20180204150000,-1,-1,-1,-1,290,-1,4,-1,-1,-1,-1,,9999,0,0,1,FEW 30,-1,0,-1,6,1008,RJAA 041530Z 29004KT 9999 FEW030 M00/M06 Q1008 NOSIG RMK     1CU030 A2978=,
20180204_160000.002,0,RJAA,,,,0,20180204160000,-1,-1,-1,-1,290,-1,7,-1,-1,-1,-1,,9999,0,0,1,FEW 30,1,2,-1,8,1008,RJAA 041600Z 29007KT 9999 FEW030 02/M08 Q1008 NOSIG RMK 1CU030     A2979=,
20180204_163000.001,0,RJAA,,,,0,20180204160000,-1,-1,-1,-1,290,-1,8,-1,-1,-1,-1,,9999,0,0,1,FEW 30,1,2,-1,6,1009,RJAA 041630Z 29008KT 9999 FEW030 02/M06 Q1009 NOSIG RMK 1CU030     A2980=,
20180204_170000.002,0,RJAA,,,,0,20180204170000,-1,-1,-1,-1,300,-1,9,-1,-1,-1,-1,,9999,0,0,1,FEW 30,1,2,-1,5,1009,RJAA 041700Z 30009KT 9999 FEW030 02/M05 Q1009 NOSIG RMK 1CU030     A2982=,
20180204_173000.001,0,RJAA,,,,0,20180204170000,-1,-1,-1,-1,300,-1,10,-1,-1,-1,-1,,9999,0,0,1,FEW 30,1,1,-1,4,1009,RJAA 041730Z 30010KT 9999 FEW030 01/M04 Q1009 NOSIG RMK 1CU030     A2982=,
20180204_180000.003,0,RJAA,,,,0,20180204180000,-1,-1,-1,-1,300,-1,8,-1,-1,-1,-1,,9999,0,0,1,FEW 30,1,1,-1,4,1010,RJAA 041800Z 30008KT 9999 FEW030 01/M04 Q1010 NOSIG RMK 1CU030     A2984=,
20180204_183000.001,0,RJAA,,,,0,20180204180000,-1,-1,-1,-1,310,-1,6,-1,-1,-1,-1,,9999,0,0,1,FEW 30,1,0,-1,5,1010,RJAA 041830Z 31006KT 9999 FEW030 00/M05 Q1010 NOSIG RMK 1CU030     A2984=,
20180204_190000.002,0,RJAA,,,,0,20180204190000,-1,-1,-1,-1,320,-1,5,-1,-1,-1,-1,,9999,0,0,1,FEW 30,-1,1,-1,5,1010,RJAA 041900Z 32005KT 9999 FEW030 M01/M05 Q1010 NOSIG RMK     1CU030 A2984=,
20180204_193000.001,0,RJAA,,,,0,20180204190000,-1,-1,-1,-1,310,-1,4,-1,-1,-1,-1,,9999,0,0,1,FEW 30,-1,0,-1,5,1010,RJAA 041930Z 31004KT 9999 FEW030 M00/M05 Q1010 NOSIG RMK     1CU030 A2984=,
20180204_200000.002,0,RJAA,,,,0,20180204200000,-1,-1,-1,-1,280,-1,3,-1,-1,230,320,,9999,0,0,1,FEW 30,-1,1,-1,5,1010,RJAA 042000Z 28003KT 230V320 9999 FEW030 M01/M05 Q1010 NOSIG     RMK 1CU030 A2985=,
20180204_203000.001,0,RJAA,,,,0,20180204200000,-1,-1,-1,-1,270,-1,3,-1,-1,-1,-1,,9999,0,0,1,FEW 30,-1,1,-1,5,1011,RJAA 042030Z 27003KT 9999 FEW030 M01/M05 Q1011 NOSIG RMK     1CU030 A2987=,
20180204_210000.002,0,RJAA,,,,0,20180204210000,-1,-1,-1,-1,300,-1,4,-1,-1,-1,-1,,9999,0,0,1,FEW 30,-1,0,-1,6,1011,RJAA 042100Z 30004KT 9999 FEW030 M00/M06 Q1011 NOSIG RMK     1CU030 A2988=,
20180204_213000.001,0,RJAA,,,,0,20180204210000,-1,-1,-1,-1,290,-1,5,-1,-1,-1,-1,,9999,0,0,1,FEW 30,-1,1,-1,6,1012,RJAA 042130Z 29005KT 9999 FEW030 M01/M06 Q1012 NOSIG RMK     1CU030 A2989=,
20180204_220000.002,0,RJAA,,,,0,20180204220000,-1,-1,-1,-1,300,-1,3,-1,-1,270,330,,9999,0,0,1,FEW 30,-1,1,-1,6,1012,RJAA 042200Z 30003KT 270V330 9999 FEW030 M01/M06 Q1012 NOSIG     RMK 1CU030 A2990=,
20180204_223000.002,0,RJAA,,,,0,20180204220000,-1,-1,-1,-1,290,-1,3,-1,-1,-1,-1,,9999,0,0,1,FEW 30,1,0,-1,5,1012,RJAA 042230Z 29003KT 9999 FEW030 00/M05 Q1012 NOSIG RMK 1CU030     A2990=,
20180204_230000.002,0,RJAA,,,,0,20180204230000,-1,-1,-1,-1,310,-1,4,-1,-1,-1,-1,,9999,0,0,1,FEW 30,1,2,-1,5,1012,RJAA 042300Z 31004KT 9999 FEW030 02/M05 Q1012 NOSIG RMK 1CU030     A2990=,
20180204_233000.001,0,RJAA,,,,0,20180204230000,-1,-1,-1,-1,320,-1,4,-1,-1,290,350,,9999,0,0,1,FEW 30,1,3,-1,6,1012,RJAA 042330Z 32004KT 290V350 9999 FEW030 03/M06 Q1012 NOSIG     RMK 2CU030 A2990=,
20180205_000000.003,0,RJAA,,,,0,20180205000000,-1,-1,-1,-1,340,-1,3,-1,-1,290,10,,9999,0,0,2,FEW 30   SCT 80,1,3,-1,7,1012,RJAA 050000Z 34003KT 290V010 9999 FEW030 SCT080 03/M07 Q1012     NOSIG RMK 1CU030 3AC080 A2991=,
20180205_003000.001,0,RJAA,,,,0,20180205000000,-1,-1,-1,-1,350,-1,6,-1,-1,-1,-1,,9999,0,0,1,FEW 30,1,4,-1,7,1012,RJAA 050030Z 35006KT 9999 FEW030 04/M07 Q1012 NOSIG RMK 1CU030     A2990=,
20180205_010000.002,0,RJAA,,,,0,20180205010000,-1,-1,-1,-1,340,-1,6,-1,-1,310,30,,9999,0,0,1,FEW 30,1,5,-1,9,1012,RJAA 050100Z 34006KT 310V030 9999 FEW030 05/M09 Q1012 NOSIG     RMK 1CU030 A2990=,
20180205_013000.001,0,RJAA,,,,0,20180205010000,-1,-1,-1,-1,330,-1,6,-1,-1,260,10,,9999,0,0,2,FEW 30   BKN 70,1,6,-1,9,1012,RJAA 050130Z 33006KT 260V010 9999 FEW030 BKN070 06/M09 Q1012     NOSIG RMK 1CU030 5AC070 A2989=,
20180205_020000.002,0,RJAA,,,,0,20180205020000,-1,-1,-1,-1,310,-1,5,-1,-1,270,30,,9999,0,0,2,FEW 30   SCT 70,1,6,-1,10,1011,RJAA 050200Z 31005KT 270V030 9999 FEW030 SCT070 06/M10 Q1011     BECMG 22005KT RMK 1CU030 4AC070 A2987=,
20180205_023000.001,0,RJAA,,,,0,20180205020000,-1,-1,-1,-1,999,-1,3,-1,-1,-1,-1,,9999,0,0,1,FEW 30,1,6,-1,9,1011,RJAA 050230Z VRB03KT 9999 FEW030 06/M09 Q1011 BECMG 22005KT     RMK 1CU030 A2985=,
