20180101_000000.002,0,RJAF,,,,0,20180101000000,-1,-1,-1,-1,330,-1,7,-1,-1,-1,-1,,9999,0,0,2,FEW 50   SCT 70,1,2,-1,3,1012,RJAF 010000Z 33007KT 9999 FEW050 SCT070 02/M03 Q1012 RMK     1CU050 4AC070 A2991=,
20180101_010000.002,0,RJAF,,,,0,20180101010000,-1,-1,-1,-1,999,-1,2,-1,-1,-1,-1,,9999,0,0,2,FEW 50   SCT 70,1,3,-1,5,1013,RJAF 010100Z VRB02KT 9999 FEW050 SCT070 03/M05 Q1013 RMK     1CU050 3AC070 A2992=,
20180101_020000.002,0,RJAF,,,,0,20180101020000,-1,-1,-1,-1,20,-1,3,-1,-1,320,80,,9999,0,0,2,FEW 50   SCT 70,1,5,-1,5,1012,RJAF 010200Z 02003KT 320V080 9999 FEW050 SCT070 05/M05 Q1012     RMK 2CU050 3AC070 A2989=,
20180101_030000.002,0,RJAF,,,,0,20180101030000,-1,-1,-1,-1,20,-1,6,-1,-1,-1,-1,,9999,0,0,2,FEW 50   SCT 80,1,5,-1,7,1011,RJAF 010300Z 02006KT 9999 FEW050 SCT080 05/M07 Q1011 RMK     2CU050 4AC080 A2987=,
20180101_040000.002,0,RJAF,,,,0,20180101040000,-1,-1,-1,-1,10,-1,7,-1,-1,330,50,,9999,0,0,1,SCT 50,1,5,-1,6,1010,RJAF 010400Z 01007KT 330V050 9999 SCT050 05/M06 Q1010 RMK     3CU050 A2985=,
20180101_050000.002,0,RJAF,,,,0,20180101050000,-1,-1,-1,-1,360,-1,9,-1,-1,-1,-1,,9999,0,0,3,FEW 40   SCT 50   BKN 70,1,6,-1,4,1011,RJAF 010500Z 36009KT 9999 FEW040 SCT050 BKN070 06/M04 Q1011     RMK 1CU040 3CU050 5AC070 A2986=,
20180101_060000.002,0,RJAF,,,,0,20180101060000,-1,-1,-1,-1,350,-1,11,-1,-1,-1,-1,,9999,0,0,3,FEW 35   SCT 50   BKN 70,1,5,-1,5,1011,RJAF 010600Z 35011KT 9999 FEW035 SCT050 BKN070 05/M05 Q1011     RMK 1CU035 3CU050 5AC070 A2987=,
20180101_070000.002,0,RJAF,,,,0,20180101070000,-1,-1,-1,-1,350,-1,13,-1,-1,-1,-1,,9999,0,0,3,FEW 30   SCT 60   BKN 80,1,3,-1,5,1012,RJAF 010700Z 35013KT 9999 FEW030 SCT060 BKN080 03/M05 Q1012     RMK 1CU030 3CU060 5AC080 A2989=,
20180101_233000.001,0,RJAF,,,,0,20180101230000,-1,-1,-1,-1,999,-1,1,-1,-1,-1,-1,,9999,0,0,2,FEW 20   BKN 50,-1,2,-1,4,1017,RJAF 012330Z VRB01KT 9999 FEW020 BKN050 M02/M04 Q1017 RMK     1CU020 5CU050 A3005=,
20180102_000000.003,0,RJAF,,,,0,20180102000000,-1,-1,-1,-1,999,-1,1,-1,-1,-1,-1,,9999,0,0,2,FEW 20   SCT 50,-1,1,-1,4,1017,RJAF 020000Z VRB01KT 9999 FEW020 SCT050 M01/M04 Q1017 RMK     1CU020 4CU050 A3005=,
20180102_010000.003,0,RJAF,,,,0,20180102010000,-1,-1,-1,-1,999,-1,2,-1,-1,-1,-1,,9999,0,0,1,FEW 20,1,0,-1,4,1017,RJAF 020100Z VRB02KT 9999 FEW020 00/M04 Q1017 RMK 1CU020     A3005=,
20180102_020000.002,0,RJAF,,,,0,20180102020000,-1,-1,-1,-1,999,-1,2,-1,-1,-1,-1,,9999,0,0,1,FEW 30,1,1,-1,6,1016,RJAF 020200Z VRB02KT 9999 FEW030 01/M06 Q1016 RMK 1CU030     A3001=,
20180102_030000.002,0,RJAF,,,,0,20180102030000,-1,-1,-1,-1,999,-1,4,-1,-1,-1,-1,,9999,0,0,1,FEW 35,1,2,-1,6,1014,RJAF 020300Z VRB04KT 9999 FEW035 02/M06 Q1014 RMK 1CU035     A2997=,
20180102_040000.002,0,RJAF,,,,0,20180102040000,-1,-1,-1,-1,350,-1,4,-1,-1,280,50,,9999,0,0,1,FEW 40,1,3,-1,8,1013,RJAF 020400Z 35004KT 280V050 9999 FEW040 03/M08 Q1013 RMK     1CU040 A2994=,
20180102_050000.002,0,RJAF,,,,0,20180102050000,-1,-1,-1,-1,350,-1,3,-1,-1,280,70,,9999,0,0,1,FEW 40,1,4,-1,8,1013,RJAF 020500Z 35003KT 280V070 9999 FEW040 04/M08 Q1013 RMK     1CU040 A2992=,
20180102_060000.002,0,RJAF,,,,0,20180102060000,-1,-1,-1,-1,240,-1,15,-1,26,-1,-1,,9999,0,0,1,FEW 40,1,4,-1,9,1013,RJAF 020600Z 24015G26KT 9999 FEW040 04/M09 Q1013 RMK 1CU040     A2992=,
20180102_070000.002,0,RJAF,,,,0,20180102070000,-1,-1,-1,-1,230,-1,11,-1,-1,200,280,,9999,0,1,1,FEW 50,1,3,-1,9,1013,RJAF 020700Z 23011KT 200V280 9999 VCSH FEW050 03/M09 Q1013 RMK     2CU050 A2991=,VC SH
20180102_233000.001,0,RJAF,,,,0,20180102230000,-1,-1,-1,-1,320,-1,5,-1,-1,280,360,,9999,0,1,2,FEW 20   SCT 40,-1,1,-1,5,1012,RJAF 022330Z 32005KT 280V360 9999 -SHSN FEW020 SCT040 M01/M05     Q1012 RMK 1CU020 3CU040 A2991=,- SN SH
20180103_000000.002,0,RJAF,,,,0,20180103000000,-1,-1,-1,-1,350,-1,10,-1,-1,320,20,,9999,0,1,2,FEW 25   SCT 45,-1,2,-1,7,1013,RJAF 030000Z 35010KT 320V020 9999 -SHSN FEW025 SCT045 M02/M07     Q1013 RMK 1CU025 3CU045 A2993=,- SN SH
20180103_010000.002,0,RJAF,,,,0,20180103010000,-1,-1,-1,-1,360,-1,12,-1,-1,-1,-1,,9999,0,0,2,FEW 25   SCT 50,-1,0,-1,7,1013,RJAF 030100Z 36012KT 9999 FEW025 SCT050 M00/M07 Q1013 RMK     1CU025 3CU050 A2994=,
20180103_020000.002,0,RJAF,,,,0,20180103020000,-1,-1,-1,-1,340,-1,10,-1,-1,-1,-1,,9999,0,0,1,FEW 30,-1,0,-1,8,1013,RJAF 030200Z 34010KT 9999 FEW030 M00/M08 Q1013 RMK 1CU030     A2992=,
20180103_030000.003,0,RJAF,,,,0,20180103030000,-1,-1,-1,-1,360,-1,7,-1,-1,330,30,,9999,0,0,1,FEW 30,1,1,-1,10,1012,RJAF 030300Z 36007KT 330V030 9999 FEW030 01/M10 Q1012 RMK     1CU030 A2990=,
20180103_040000.002,0,RJAF,,,,0,20180103040000,-1,-1,-1,-1,320,-1,7,-1,-1,-1,-1,,9999,0,0,1,FEW 50,1,2,-1,15,1012,RJAF 030400Z 32007KT 9999 FEW050 02/M15 Q1012 RMK 1CU050     A2990=,
20180103_050000.002,0,RJAF,,,,0,20180103050000,-1,-1,-1,-1,310,-1,12,-1,-1,-1,-1,,9999,0,0,1,FEW 60,1,2,-1,15,1012,RJAF 030500Z 31012KT 9999 FEW060 02/M15 Q1012 RMK 1CU060     A2990=,
20180103_060000.002,0,RJAF,,,,0,20180103060000,-1,-1,-1,-1,300,-1,8,-1,-1,250,350,,9999,0,0,1,FEW 40,1,2,-1,13,1013,RJAF 030600Z 30008KT 250V350 9999 FEW040 02/M13 Q1013 RMK     1CU040 A2992=,
20180103_070000.002,0,RJAF,,,,0,20180103070000,-1,-1,-1,-1,320,-1,10,-1,-1,-1,-1,,9999,0,0,1,FEW 50,1,1,-1,12,1013,RJAF 030700Z 32010KT 9999 FEW050 01/M12 Q1013 RMK 1CU050     A2994=,
20180103_233000.001,0,RJAF,,,,0,20180103230000,-1,-1,-1,-1,999,-1,1,-1,-1,-1,-1,,9999,0,0,1,FEW 30,-1,6,-1,10,1018,RJAF 032330Z VRB01KT 9999 FEW030 M06/M10 Q1018 RMK 1CU030     A3008=,
20180104_000000.002,0,RJAF,,,,0,20180104000000,-1,-1,-1,-1,999,-1,2,-1,-1,-1,-1,,9999,0,0,1,FEW 30,-1,5,-1,9,1018,RJAF 040000Z VRB02KT 9999 FEW030 M05/M09 Q1018 RMK 1CU030     A3008=,
20180104_010000.002,0,RJAF,,,,0,20180104010000,-1,-1,-1,-1,999,-1,2,-1,-1,-1,-1,,9999,0,0,1,FEW 35,-1,3,-1,9,1017,RJAF 040100Z VRB02KT 9999 FEW035 M03/M09 Q1017 RMK 1CU035     A3006=,
20180104_020000.002,0,RJAF,,,,0,20180104020000,-1,-1,-1,-1,10,-1,3,-1,-1,290,90,,9999,0,0,1,FEW 35,-1,1,-1,9,1017,RJAF 040200Z 01003KT 290V090 9999 FEW035 M01/M09 Q1017 RMK     1CU035 A3004=,
20180104_030000.002,0,RJAF,,,,0,20180104030000,-1,-1,-1,-1,340,-1,4,-1,-1,260,50,,9999,0,0,1,FEW 45,1,1,-1,9,1016,RJAF 040300Z 34004KT 260V050 9999 FEW045 01/M09 Q1016 RMK     2CU045 A3000=,
20180104_040000.002,0,RJAF,,,,0,20180104040000,-1,-1,-1,-1,350,-1,4,-1,-1,300,60,,9999,0,0,2,FEW 40   SCT 50,1,0,-1,10,1015,RJAF 040400Z 35004KT 300V060 9999 FEW040 SCT050 00/M10 Q1015     RMK 1CU040 3CU050 A2998=,
20180104_050000.002,0,RJAF,,,,0,20180104050000,-1,-1,-1,-1,330,-1,7,-1,-1,300,30,,9999,0,0,1,FEW 40,1,2,-1,10,1014,RJAF 040500Z 33007KT 300V030 9999 FEW040 02/M10 Q1014 RMK     1CU040 A2997=,
20180104_060000.003,0,RJAF,,,,0,20180104060000,-1,-1,-1,-1,340,-1,9,-1,-1,320,20,,9999,0,0,1,FEW 45,1,2,-1,11,1015,RJAF 040600Z 34009KT 320V020 9999 FEW045 02/M11 Q1015 RMK     1CU045 A2997=,
20180104_070000.002,0,RJAF,,,,0,20180104070000,-1,-1,-1,-1,350,-1,9,-1,-1,-1,-1,,9999,0,0,1,FEW 50,1,1,-1,11,1015,RJAF 040700Z 35009KT 9999 FEW050 01/M11 Q1015 RMK 1CU050     A2998=,
20180104_233000.001,0,RJAF,,,,0,20180104230000,-1,-1,-1,-1,0,-1,0,-1,-1,-1,-1,,9999,0,0,3,FEW 6   SCT 180   BKN -9999,-1,5,-1,7,1015,RJAF 042330Z 00000KT 9999 FEW006 SCT180 BKN/// M05/M07 Q1015     RMK 1ST006 3AC180 A2999=,
20180105_000000.002,0,RJAF,,,,0,20180105000000,-1,-1,-1,-1,999,-1,1,-1,-1,-1,-1,CAVOK,-1,0,0,0,,-1,4,-1,7,1015,RJAF 050000Z VRB01KT CAVOK M04/M07 Q1015 RMK A2999=,
20180105_010000.003,0,RJAF,,,,0,20180105010000,-1,-1,-1,-1,999,-1,1,-1,-1,-1,-1,,9999,0,0,3,FEW 40   SCT 140   BKN -9999,-1,2,-1,7,1014,RJAF 050100Z VRB01KT 9999 FEW040 SCT140 BKN/// M02/M07 Q1014     RMK 1CU040 3AC140 A2996=,
20180105_020000.002,0,RJAF,,,,0,20180105020000,-1,-1,-1,-1,999,-1,2,-1,-1,-1,-1,,9999,0,0,3,FEW 30   SCT 100   BKN -9999,-1,0,-1,7,1014,RJAF 050200Z VRB02KT 9999 FEW030 SCT100 BKN/// M00/M07 Q1014     RMK 1CU030 3AC100 A2995=,
20180105_030000.002,0,RJAF,,,,0,20180105030000,-1,-1,-1,-1,350,-1,3,-1,-1,300,50,,9999,0,0,3,FEW 35   SCT 110   BKN 150,-1,0,-1,9,1012,RJAF 050300Z 35003KT 300V050 9999 FEW035 SCT110 BKN150 M00/M09     Q1012 RMK 1CU035 3AC110 5AC150 A2989 P/FR=,
20180105_040000.002,0,RJAF,,,,0,20180105040000,-1,-1,-1,-1,999,-1,2,-1,-1,-1,-1,,9999,0,0,3,FEW 40   SCT 110   BKN -9999,1,1,-1,9,1011,RJAF 050400Z VRB02KT 9999 FEW040 SCT110 BKN/// 01/M09 Q1011     RMK 1CU040 4AC110 A2987=,
20180105_050000.002,0,RJAF,,,,0,20180105050000,-1,-1,-1,-1,999,-1,1,-1,-1,-1,-1,,9999,0,0,3,FEW 40   SCT 100   BKN 130,1,1,-1,9,1011,RJAF 050500Z VRB01KT 9999 FEW040 SCT100 BKN130 01/M09 Q1011     RMK 1CU040 3AC100 5AC130 A2985=,
20180105_060000.002,0,RJAF,,,,0,20180105060000,-1,-1,-1,-1,999,-1,2,-1,-1,-1,-1,,9999,0,0,3,FEW 50   SCT 90   BKN 110,1,1,-1,10,1011,RJAF 050600Z VRB02KT 9999 FEW050 SCT090 BKN110 01/M10 Q1011     RMK 1CU050 3AC090 6AC110 A2985=,
20180105_070000.002,0,RJAF,,,,0,20180105070000,-1,-1,-1,-1,999,-1,1,-1,-1,-1,-1,,9999,0,0,3,FEW 60   SCT 100   BKN 110,1,1,-1,9,1011,RJAF 050700Z VRB01KT 9999 FEW060 SCT100 BKN110 01/M09 Q1011     RMK 1CU060 3AC100 5AC110 A2986=,
20180105_233000.001,0,RJAF,,,,0,20180105230000,-1,-1,-1,-1,999,-1,1,-1,-1,-1,-1,,9999,0,0,2,FEW 50   SCT 70,-1,6,-1,9,1010,RJAF 052330Z VRB01KT 9999 FEW050 SCT070 M06/M09 Q1010 RMK     1CU050 3AC070 A2985=,
20180106_000000.002,0,RJAF,,,,0,20180106000000,-1,-1,-1,-1,350,-1,4,-1,-1,320,70,,9999,0,0,2,FEW 50   SCT 70,-1,5,-1,7,1011,RJAF 060000Z 35004KT 320V070 9999 FEW050 SCT070 M05/M07 Q1011     RMK 1CU050 3AC070 A2986=,
20180106_010000.002,0,RJAF,,,,0,20180106010000,-1,-1,-1,-1,999,-1,2,-1,-1,-1,-1,,9999,0,0,2,FEW 50   SCT 70,-1,3,-1,9,1011,RJAF 060100Z VRB02KT 9999 FEW050 SCT070 M03/M09 Q1011 RMK     1CU050 3AC070 A2987=,
20180106_020000.002,0,RJAF,,,,0,20180106020000,-1,-1,-1,-1,999,-1,2,-1,-1,-1,-1,,9999,0,0,2,FEW 50   SCT 80,-1,0,-1,9,1010,RJAF 060200Z VRB02KT 9999 FEW050 SCT080 M00/M09 Q1010 RMK     1CU050 3AC080 A2984=,
20180106_030000.002,0,RJAF,,,,0,20180106030000,-1,-1,-1,-1,360,-1,5,-1,-1,340,40,,9999,0,0,1,FEW 50,1,2,-1,9,1009,RJAF 060300Z 36005KT 340V040 9999 FEW050 02/M09 Q1009 RMK     1CU050 A2980=,
20180106_040000.002,0,RJAF,,,,0,20180106040000,-1,-1,-1,-1,20,-1,5,-1,-1,350,70,,9999,0,0,1,FEW 50,1,4,-1,7,1008,RJAF 060400Z 02005KT 350V070 9999 FEW050 04/M07 Q1008 RMK     1CU050 A2977=,
20180106_050000.002,0,RJAF,,,,0,20180106050000,-1,-1,-1,-1,999,-1,2,-1,-1,-1,-1,,9999,0,0,2,FEW 50   SCT 80,1,4,-1,8,1007,RJAF 060500Z VRB02KT 9999 FEW050 SCT080 04/M08 Q1007 RMK     2CU050 4AC080 A2975=,
20180106_060000.002,0,RJAF,,,,0,20180106060000,-1,-1,-1,-1,999,-1,3,-1,-1,-1,-1,,9999,0,1,3,FEW 40   SCT 50   BKN 70,1,5,-1,7,1008,RJAF 060600Z VRB03KT 9999 VCSH FEW040 SCT050 BKN070 05/M07     Q1008 RMK 1CU040 3CU050 5AC070 A2977=,VC SH
20180106_070000.002,0,RJAF,,,,0,20180106070000,-1,-1,-1,-1,350,-1,11,-1,-1,-1,-1,,9999,0,0,3,FEW 30   SCT 50   BKN 70,1,3,-1,6,1008,RJAF 060700Z 35011KT 9999 FEW030 SCT050 BKN070 03/M06 Q1008     RMK 1CU030 3CU050 6AC070 A2979=,
20180106_233000.001,0,RJAF,,,,0,20180106230000,-1,-1,-1,-1,160,-1,2,-1,-1,-1,-1,,9999,0,0,2,FEW 30   SCT -9999,-1,4,-1,8,1020,RJAF 062330Z 16002KT 9999 FEW030 SCT/// M04/M08 Q1020 RMK     1CU030 A3013=,
20180107_000000.002,0,RJAF,,,,0,20180107000000,-1,-1,-1,-1,999,-1,1,-1,-1,-1,-1,,9999,0,0,2,FEW 40   SCT -9999,-1,3,-1,7,1020,RJAF 070000Z VRB01KT 9999 FEW040 SCT/// M03/M07 Q1020 RMK     1CU040 A3014=,
20180107_010000.003,0,RJAF,,,,0,20180107010000,-1,-1,-1,-1,320,-1,4,-1,-1,280,360,,9999,0,0,1,FEW 35,-1,2,-1,7,1021,RJAF 070100Z 32004KT 280V360 9999 FEW035 M02/M07 Q1021 RMK     1CU035 A3015=,
20180107_020000.002,0,RJAF,,,,0,20180107020000,-1,-1,-1,-1,330,-1,5,-1,-1,290,10,,9999,0,0,1,FEW 35,1,0,-1,6,1020,RJAF 070200Z 33005KT 290V010 9999 FEW035 00/M06 Q1020 RMK     1CU035 A3014=,
20180107_030000.002,0,RJAF,,,,0,20180107030000,-1,-1,-1,-1,10,-1,5,-1,-1,320,50,,9999,0,0,1,FEW 40,1,2,-1,8,1020,RJAF 070300Z 01005KT 320V050 9999 FEW040 02/M08 Q1020 RMK     1CU040 A3012=,
20180107_040000.002,0,RJAF,,,,0,20180107040000,-1,-1,-1,-1,340,-1,6,-1,-1,310,10,,9999,0,0,2,FEW 40   BKN -9999,1,2,-1,8,1019,RJAF 070400Z 34006KT 310V010 9999 FEW040 BKN/// 02/M08 Q1019     RMK 1CU040 A3010=,
20180107_050000.002,0,RJAF,,,,0,20180107050000,-1,-1,-1,-1,340,-1,6,-1,-1,320,60,,9999,0,0,2,FEW 40   SCT -9999,1,3,-1,8,1018,RJAF 070500Z 34006KT 320V060 9999 FEW040 SCT/// 03/M08 Q1018     RMK 1CU040 A3009=,
20180107_060000.002,0,RJAF,,,,0,20180107060000,-1,-1,-1,-1,330,-1,5,-1,-1,300,10,,9999,0,0,2,FEW 40   BKN -9999,1,3,-1,8,1018,RJAF 070600Z 33005KT 300V010 9999 FEW040 BKN/// 03/M08 Q1018     RMK 1CU040 A3008=,
20180107_070000.002,0,RJAF,,,,0,20180107070000,-1,-1,-1,-1,330,-1,4,-1,-1,-1,-1,,9999,0,0,2,FEW 30   BKN -9999,1,2,-1,7,1019,RJAF 070700Z 33004KT 9999 FEW030 BKN/// 02/M07 Q1019 RMK     1SC030 A3010=,
20180107_233000.001,0,RJAF,,,,0,20180107230000,-1,-1,-1,-1,160,-1,16,-1,-1,-1,-1,,9999,0,1,3,FEW 40   SCT 60   BKN 80,1,5,-1,6,1017,RJAF 072330Z 16016KT 9999 VCSH FEW040 SCT060 BKN080 05/M06     Q1017 RMK 1CU040 3SC060 7AS080 A3004=,VC SH
20180108_000000.002,0,RJAF,,,,0,20180108000000,-1,-1,-1,-1,160,-1,12,-1,-1,-1,-1,,9999,0,1,2,FEW 50   BKN 70,1,4,-1,5,1017,RJAF 080000Z 16012KT 9999 VCSH FEW050 BKN070 04/M05 Q1017 RMK     2SC050 7SC070 A3004=,VC SH
20180108_010000.002,0,RJAF,,,,0,20180108010000,-1,-1,-1,-1,170,-1,14,-1,-1,130,190,,9999,0,1,2,FEW 35   OVC 50,1,5,-1,3,1017,RJAF 080100Z 17014KT 130V190 9999 VCSH FEW035 OVC050 05/M03     Q1017 RMK 2SC035 8SC050 A3003=,VC SH
20180108_020000.002,0,RJAF,,,,0,20180108020000,-1,-1,-1,-1,150,-1,10,-1,-1,-1,-1,,9999,0,1,3,FEW 20   SCT 40   BKN 100,1,5,-1,2,1013,RJAF 080200Z 15010KT 9999 VCSH FEW020 SCT040 BKN100 05/M02     Q1013 RMK 1CU020 3CU040 6AC100 A2994 P/FR=,VC SH
20180108_030000.002,0,RJAF,,,,0,20180108030000,-1,-1,-1,-1,150,-1,15,-1,-1,-1,-1,,9999,0,1,3,FEW 30   SCT 50   BKN 100,1,7,-1,2,1012,RJAF 080300Z 15015KT 9999 VCSH FEW030 SCT050 BKN100 07/M02     Q1012 RMK 1CU030 4CU050 6AC100 A2990=,VC SH
20180108_040000.002,0,RJAF,,,,0,20180108040000,-1,-1,-1,-1,150,-1,13,-1,-1,-1,-1,,8000,0,1,3,FEW 20   SCT 30   BKN 50,1,3,1,1,1011,RJAF 080400Z 15013KT 8000 -SHRASN FEW020 SCT030 BKN050 03/01     Q1011 RMK 1CU020 4CU030 7CU050 A2987=,- RA SN SH
20180108_050000.002,0,RJAF,,,,0,20180108050000,-1,-1,-1,-1,160,-1,17,-1,27,-1,-1,,8000,0,1,3,FEW 20   SCT 35   BKN 50,1,2,1,1,1010,RJAF 080500Z 16017G27KT 8000 -SHRA FEW020 SCT035 BKN050 02/01     Q1010 RMK 1CU020 3CU035 7CU050 A2983=,- RA SH
20180108_060000.003,0,RJAF,,,,0,20180108060000,-1,-1,-1,-1,160,-1,15,-1,-1,-1,-1,,7000,0,1,3,FEW 20   SCT 25   BKN 40,1,2,1,1,1009,RJAF 080600Z 16015KT 7000 -RA FEW020 SCT025 BKN040 02/01 Q1009     RMK 1CU020 3SC025 7SC040 A2981=,- RA
20180108_070000.002,0,RJAF,,,,0,20180108070000,-1,-1,-1,-1,150,-1,17,-1,-1,-1,-1,,9000,0,1,3,FEW 15   SCT 30   BKN 45,1,3,1,1,1008,RJAF 080700Z 15017KT 9000 -RA FEW015 SCT030 BKN045 03/01 Q1008     RMK 1ST015 3SC030 6SC045 A2977=,- RA
20180108_233000.001,0,RJAF,,,,0,20180108230000,-1,-1,-1,-1,250,-1,11,-1,-1,-1,-1,,9999,0,1,3,FEW 2   SCT 50   BKN 60,1,8,1,3,995,RJAF 082330Z 25011KT 9999 VCSH FEW002 SCT050 BKN060 08/03     Q0995 RMK 1ST002 3CU050 5CU060 A2940=,VC SH
20180109_000000.002,0,RJAF,,,,0,20180109000000,-1,-1,-1,-1,270,-1,11,-1,-1,-1,-1,,9999,0,1,2,FEW 4   SCT 50,1,8,1,3,995,RJAF 090000Z 27011KT 9999 VCSH FEW004 SCT050 08/03 Q0995 RMK     1ST004 3CU050 A2939=,VC SH
20180109_010000.002,0,RJAF,,,,0,20180109010000,-1,-1,-1,-1,230,-1,19,-1,29,-1,-1,,9999,0,0,2,FEW 20   SCT 50,1,9,-1,2,995,RJAF 090100Z 23019G29KT 9999 FEW020 SCT050 09/M02 Q0995 RMK     1CU020 3CU050 A2938=,
20180109_020000.002,0,RJAF,,,,0,20180109020000,-1,-1,-1,-1,240,-1,10,-1,-1,200,270,,9999,0,1,2,FEW 20   SCT 50,1,8,1,0,994,RJAF 090200Z 24010KT 200V270 9999 -SHRA FEW020 SCT050 08/00     Q0994 RMK 1CU020 4CU050 A2938=,- RA SH
20180109_030000.002,0,RJAF,,,,0,20180109030000,-1,-1,-1,-1,250,-1,9,-1,20,210,300,,9999,0,1,3,FEW 15   SCT 40   BKN 50,1,8,-1,3,994,RJAF 090300Z 25009G20KT 210V300 9999 -SHRA FEW015 SCT040     BKN050 08/M03 Q0994 RMK 1ST015 4CU040 6CU050 A2937=,- RA SH
20180109_040000.002,0,RJAF,,,,0,20180109040000,-1,-1,-1,-1,250,-1,12,-1,-1,-1,-1,,9999,0,1,3,FEW 20   SCT 45   BKN 50,1,8,-1,7,994,RJAF 090400Z 25012KT 9999 -SHSN FEW020 SCT045 BKN050 08/M07     Q0994 RMK 1CU020 4CU045 6CU050 A2936=,- SN SH
20180109_050000.002,0,RJAF,,,,0,20180109050000,-1,-1,-1,-1,240,-1,12,-1,23,190,270,,9999,0,1,3,FEW 20   SCT 50   BKN 60,1,7,-1,8,994,RJAF 090500Z 24012G23KT 190V270 9999 -SHSN FEW020 SCT050     BKN060 07/M08 Q0994 RMK 1CU020 3CU050 5CU060 A2938=,- SN SH
20180109_060000.002,0,RJAF,,,,0,20180109060000,-1,-1,-1,-1,230,-1,12,-1,-1,200,260,,9999,0,1,3,FEW 20   SCT 50   BKN 60,1,5,-1,7,995,RJAF 090600Z 23012KT 200V260 9999 -SHSN FEW020 SCT050 BKN060     05/M07 Q0995 RMK 1CU020 4CU050 6CU060 A2939=,- SN SH
20180109_070000.002,0,RJAF,,,,0,20180109070000,-1,-1,-1,-1,250,-1,10,-1,-1,210,300,,7000,0,1,3,FEW 20   SCT 40   BKN 50,1,3,-1,5,998,RJAF 090700Z 25010KT 210V300 7000 -SHSN FEW020 SCT040 BKN050     03/M05 Q0998 RMK 1CU020 4CU040 6CU050 A2947 3000NW-NE           P/RR=,- SN SH
20180109_233000.001,0,RJAF,,,,0,20180109230000,-1,-1,-1,-1,180,-1,16,-1,-1,-1,-1,,9999,0,1,3,FEW 20   SCT 50   BKN 80,1,1,-1,6,1006,RJAF 092330Z 18016KT 9999 -SHSN FEW020 SCT050 BKN080 01/M06     Q1006 RMK 2CU020 3CU050 6AC080 A2973=,- SN SH
20180110_000000.002,0,RJAF,,,,0,20180110000000,-1,-1,-1,-1,180,-1,19,-1,-1,-1,-1,,9999,0,1,3,FEW 20   SCT 45   BKN 60,1,1,-1,6,1006,RJAF 100000Z 18019KT 9999 -SHSN FEW020 SCT045 BKN060 01/M06     Q1006 RMK 2CU020 4CU045 5CU060 A2973=,- SN SH
20180110_010000.002,0,RJAF,,,,0,20180110010000,-1,-1,-1,-1,180,-1,18,-1,-1,-1,-1,,9999,0,1,2,FEW 45   SCT 50,1,2,-1,7,1006,RJAF 100100Z 18018KT 9999 VCSH FEW045 SCT050 02/M07 Q1006 RMK     2CU045 4CU050 A2972=,VC SH
20180110_020000.002,0,RJAF,,,,0,20180110020000,-1,-1,-1,-1,180,-1,20,-1,-1,-1,-1,,9999,0,1,3,FEW 30   SCT 50   BKN 60,1,2,-1,7,1005,RJAF 100200Z 18020KT 9999 -SHSN FEW030 SCT050 BKN060 02/M07     Q1005 RMK 1CU030 4CU050 6CU060 A2970=,- SN SH
20180110_030000.002,0,RJAF,,,,0,20180110030000,-1,-1,-1,-1,180,-1,20,-1,-1,-1,-1,,9999,0,1,3,FEW 30   SCT 50   BKN 70,1,3,-1,7,1004,RJAF 100300Z 18020KT 9999 VCSH FEW030 SCT050 BKN070 03/M07     Q1004 RMK 1CU030 4CU050 6AC070 A2966=,VC SH
20180110_040000.003,0,RJAF,,,,0,20180110040000,-1,-1,-1,-1,170,-1,19,-1,-1,-1,-1,,9999,0,1,3,FEW 30   SCT 50   BKN 60,1,2,-1,7,1004,RJAF 100400Z 17019KT 9999 -SHSN FEW030 SCT050 BKN060 02/M07     Q1004 RMK 1CU030 4CU050 6CU060 A2966=,- SN SH
20180110_050000.002,0,RJAF,,,,0,20180110050000,-1,-1,-1,-1,180,-1,22,-1,-1,-1,-1,,9999,0,1,3,FEW 30   SCT 50   BKN 60,1,2,-1,6,1004,RJAF 100500Z 18022KT 9999 -SHSN FEW030 SCT050 BKN060 02/M06     Q1004 RMK 1CU030 3CU050 6CU060 A2966=,- SN SH
20180110_060000.002,0,RJAF,,,,0,20180110060000,-1,-1,-1,-1,180,-1,19,-1,-1,-1,-1,,9999,0,1,3,FEW 15   SCT 40   BKN 50,1,1,-1,6,1005,RJAF 100600Z 18019KT 9999 -SHSN FEW015 SCT040 BKN050 01/M06     Q1005 RMK 1CU015 4CU040 6CU050 A2968=,- SN SH
20180110_070000.002,0,RJAF,,,,0,20180110070000,-1,-1,-1,-1,180,-1,18,-1,-1,-1,-1,,9999,0,1,3,FEW 15   BKN 45   BKN 60,1,1,-1,5,1005,RJAF 100700Z 18018KT 9999 -SHSN FEW015 BKN045 BKN060 01/M05     Q1005 RMK 1CU015 5CU045 7CU060 A2968=,- SN SH
20180110_233000.001,0,RJAF,,,,0,20180110230000,-1,-1,-1,-1,180,-1,17,-1,-1,-1,-1,,9999,0,1,3,FEW 30   SCT 40   BKN 45,-1,2,-1,8,1010,RJAF 102330Z 18017KT 9999 -SHSN FEW030 SCT040 BKN045 M02/M08     Q1010 RMK 2CU030 4CU040 6CU045 A2983=,- SN SH
20180111_000000.002,0,RJAF,,,,0,20180111000000,-1,-1,-1,-1,180,-1,16,-1,-1,-1,-1,,9999,0,1,3,FEW 25   SCT 35   BKN 50,-1,2,-1,7,1010,RJAF 110000Z 18016KT 9999 -SHSN FEW025 SCT035 BKN050 M02/M07     Q1010 RMK 1CU025 4CU035 6CU050 A2984=,- SN SH
20180111_010000.002,0,RJAF,,,,0,20180111010000,-1,-1,-1,-1,200,-1,10,-1,-1,-1,-1,,3500,0,1,3,FEW 5   SCT 8   BKN 15,-1,3,-1,6,1011,RJAF 110100Z 20010KT 3500 -SHSN FEW005 SCT008 BKN015 M03/M06     Q1011 RMK 1ST005 3ST008 5CU015 A2987 1500S-SW=,- SN SH
20180111_020000.002,0,RJAF,,,,0,20180111020000,-1,-1,-1,-1,190,-1,9,-1,-1,150,250,,9999,0,1,2,FEW 40   SCT 50,-1,1,-1,9,1011,RJAF 110200Z 19009KT 150V250 9999 -SHSN FEW040 SCT050 M01/M09     Q1011 RMK 2CU040 4CU050 A2986=,- SN SH
20180111_030000.001,0,RJAF,,,,0,20180111030000,-1,-1,-1,-1,180,-1,18,-1,-1,-1,-1,,9999,0,1,2,FEW 40   BKN 50,-1,0,-1,10,1010,RJAF 110300Z 18018KT 9999 VCSH FEW040 BKN050 M00/M10 Q1010 RMK     1CU040 5CU050 A2984=,VC SH
20180111_040000.002,0,RJAF,,,,0,20180111040000,-1,-1,-1,-1,190,-1,17,-1,-1,-1,-1,,9999,0,1,3,FEW 20   SCT 35   BKN 50,-1,2,-1,8,1010,RJAF 110400Z 19017KT 9999 -SHSN FEW020 SCT035 BKN050 M02/M08     Q1010 RMK 1CU020 3CU035 5CU050 A2985 4000SW-W=,- SN SH
20180111_050000.002,0,RJAF,,,,0,20180111050000,-1,-1,-1,-1,180,-1,16,-1,-1,-1,-1,,9999,0,1,3,FEW 20   SCT 30   BKN 50,-1,1,-1,9,1010,RJAF 110500Z 18016KT 9999 -SHSN FEW020 SCT030 BKN050 M01/M09     Q1010 RMK 1CU020 3CU030 6CU050 A2985=,- SN SH
20180111_060000.002,0,RJAF,,,,0,20180111060000,-1,-1,-1,-1,180,-1,14,-1,-1,-1,-1,,9999,0,1,3,FEW 20   SCT 40   BKN 50,-1,2,-1,9,1011,RJAF 110600Z 18014KT 9999 -SHSN FEW020 SCT040 BKN050 M02/M09     Q1011 RMK 1CU020 4CU040 6CU050 A2987=,- SN SH
20180111_070000.002,0,RJAF,,,,0,20180111070000,-1,-1,-1,-1,190,-1,11,-1,-1,-1,-1,,9999,0,1,3,FEW 30   SCT 45   BKN 50,-1,3,-1,9,1012,RJAF 110700Z 19011KT 9999 -SHSN FEW030 SCT045 BKN050 M03/M09     Q1012 RMK 1CU030 3CU045 6CU050 A2989=,- SN SH
20180111_233000.001,0,RJAF,,,,0,20180111230000,-1,-1,-1,-1,140,-1,7,-1,-1,110,190,,9999,0,0,1,FEW 50,-1,4,-1,13,1016,RJAF 112330Z 14007KT 110V190 9999 FEW050 M04/M13 Q1016 RMK     1CU050 A3001=,
20180112_000000.002,0,RJAF,,,,0,20180112000000,-1,-1,-1,-1,150,-1,9,-1,-1,110,180,,9999,0,0,1,FEW 40,-1,3,-1,14,1016,RJAF 120000Z 15009KT 110V180 9999 FEW040 M03/M14 Q1016 RMK     1CU040 A3002=,
20180112_010000.003,0,RJAF,,,,0,20180112010000,-1,-1,-1,-1,180,-1,9,-1,-1,-1,-1,,9999,0,0,1,FEW 50,-1,1,-1,13,1017,RJAF 120100Z 18009KT 9999 FEW050 M01/M13 Q1017 RMK 1CU050     A3003=,
20180112_020000.002,0,RJAF,,,,0,20180112020000,-1,-1,-1,-1,180,-1,7,-1,-1,140,230,,9999,0,0,1,FEW 50,-1,0,-1,12,1016,RJAF 120200Z 18007KT 140V230 9999 FEW050 M00/M12 Q1016 RMK     2CU050 A3001=,
20180112_030000.002,0,RJAF,,,,0,20180112030000,-1,-1,-1,-1,999,-1,4,-1,-1,-1,-1,,9999,0,0,1,FEW 50,1,0,-1,13,1015,RJAF 120300Z VRB04KT 9999 FEW050 00/M13 Q1015 RMK 2CU050     A2999=,
20180112_040000.002,0,RJAF,,,,0,20180112040000,-1,-1,-1,-1,999,-1,4,-1,-1,-1,-1,,9999,0,0,2,FEW 50   SCT 70,1,1,-1,13,1014,RJAF 120400Z VRB04KT 9999 FEW050 SCT070 01/M13 Q1014 RMK     2CU050 3AC070 A2997=,
20180112_050000.003,0,RJAF,,,,0,20180112050000,-1,-1,-1,-1,150,-1,4,-1,-1,100,240,,9999,0,1,3,FEW 35   SCT 40   BKN 50,1,0,-1,13,1015,RJAF 120500Z 15004KT 100V240 9999 VCSH FEW035 SCT040 BKN050     00/M13 Q1015 RMK 1CU035 3CU040 6CU050 A2998=,VC SH
20180112_060000.002,0,RJAF,,,,0,20180112060000,-1,-1,-1,-1,999,-1,1,-1,-1,-1,-1,,9999,0,1,3,FEW 30   SCT 45   BKN 50,-1,1,-1,11,1016,RJAF 120600Z VRB01KT 9999 VCSH FEW030 SCT045 BKN050 M01/M11     Q1016 RMK 1CU030 3CU045 5CU050 A3001=,VC SH
20180112_070000.003,0,RJAF,,,,0,20180112070000,-1,-1,-1,-1,240,-1,3,-1,-1,-1,-1,,9999,0,1,3,FEW 30   SCT 45   BKN 70,-1,1,-1,11,1016,RJAF 120700Z 24003KT 9999 VCSH FEW030 SCT045 BKN070 M01/M11     Q1016 RMK 1CU030 4CU045 5AC070 A3001=,VC SH
20180112_233000.001,0,RJAF,,,,0,20180112230000,-1,-1,-1,-1,320,-1,5,-1,-1,-1,-1,,9999,0,0,1,FEW 50,-1,4,-1,9,1019,RJAF 122330Z 32005KT 9999 FEW050 M04/M09 Q1019 RMK 1CU050     A3011=,
20180113_000000.002,0,RJAF,,,,0,20180113000000,-1,-1,-1,-1,150,-1,9,-1,-1,-1,-1,,9999,0,0,1,FEW 40,-1,3,-1,9,1019,RJAF 130000Z 15009KT 9999 FEW040 M03/M09 Q1019 RMK 1CU040     A3011=,
20180113_010000.003,0,RJAF,,,,0,20180113010000,-1,-1,-1,-1,130,-1,11,-1,-1,-1,-1,,9999,0,0,2,FEW 40   SCT 70,-1,1,-1,9,1019,RJAF 130100Z 13011KT 9999 FEW040 SCT070 M01/M09 Q1019 RMK     1CU040 3AC070 A3010=,
20180113_020000.002,0,RJAF,,,,0,20180113020000,-1,-1,-1,-1,170,-1,17,-1,-1,-1,-1,,9999,0,0,2,FEW 40   SCT 60,1,2,-1,13,1018,RJAF 130200Z 17017KT 9999 FEW040 SCT060 02/M13 Q1018 RMK     1CU040 3CU060 A3008=,
20180113_030000.002,0,RJAF,,,,0,20180113030000,-1,-1,-1,-1,180,-1,15,-1,-1,-1,-1,,9999,0,0,2,FEW 50   SCT 60,1,1,-1,12,1017,RJAF 130300Z 18015KT 9999 FEW050 SCT060 01/M12 Q1017 RMK     1CU050 3CU060 A3006=,
20180113_040000.002,0,RJAF,,,,0,20180113040000,-1,-1,-1,-1,170,-1,16,-1,-1,-1,-1,,9999,0,0,2,FEW 50   SCT 60,1,3,-1,11,1017,RJAF 130400Z 17016KT 9999 FEW050 SCT060 03/M11 Q1017 RMK     1CU050 4CU060 A3004=,
20180113_050000.002,0,RJAF,,,,0,20180113050000,-1,-1,-1,-1,190,-1,11,-1,-1,-1,-1,,9999,0,1,3,FEW 40   SCT 50   BKN 60,1,2,-1,10,1017,RJAF 130500Z 19011KT 9999 VCSH FEW040 SCT050 BKN060 02/M10     Q1017 RMK 1CU040 3CU050 5CU060 A3004=,VC SH
20180113_060000.002,0,RJAF,,,,0,20180113060000,-1,-1,-1,-1,220,-1,8,-1,-1,190,250,,9999,0,1,3,FEW 20   SCT 50   BKN 60,1,1,-1,8,1017,RJAF 130600Z 22008KT 190V250 9999 -SHSN FEW020 SCT050 BKN060     01/M08 Q1017 RMK 1CU020 4CU050 5CU060 A3005=,- SN SH
20180113_070000.002,0,RJAF,,,,0,20180113070000,-1,-1,-1,-1,200,-1,10,-1,-1,-1,-1,,9999,0,1,3,FEW 30   SCT 50   BKN 60,-1,0,-1,6,1018,RJAF 130700Z 20010KT 9999 -SHSN FEW030 SCT050 BKN060 M00/M06     Q1018 RMK 1CU030 3CU050 5CU060 A3007=,- SN SH
20180113_233000.001,0,RJAF,,,,0,20180113230000,-1,-1,-1,-1,180,-1,2,-1,-1,-1,-1,,9999,0,0,1,FEW 15,-1,6,-1,8,1027,RJAF 132330Z 18002KT 9999 FEW015 M06/M08 Q1027 RMK 1ST015     A3034=,
20180114_000000.003,0,RJAF,,,,0,20180114000000,-1,-1,-1,-1,170,-1,3,-1,-1,140,220,,9999,0,0,1,FEW 20,-1,4,-1,8,1028,RJAF 140000Z 17003KT 140V220 9999 FEW020 M04/M08 Q1028 RMK     1CU020 A3036=,
20180114_010000.002,0,RJAF,,,,0,20180114010000,-1,-1,-1,-1,320,-1,3,-1,-1,260,30,,9999,0,0,1,FEW 25,-1,3,-1,8,1028,RJAF 140100Z 32003KT 260V030 9999 FEW025 M03/M08 Q1028 RMK     1CU025 A3037=,
20180114_020000.002,0,RJAF,,,,0,20180114020000,-1,-1,-1,-1,30,-1,4,-1,-1,350,70,,9999,0,0,1,FEW 30,-1,2,-1,9,1028,RJAF 140200Z 03004KT 350V070 9999 FEW030 M02/M09 Q1028 RMK     1CU030 A3037=,
20180114_030000.002,0,RJAF,,,,0,20180114030000,-1,-1,-1,-1,360,-1,3,-1,-1,310,90,,9999,0,0,1,FEW 30,-1,0,-1,9,1027,RJAF 140300Z 36003KT 310V090 9999 FEW030 M00/M09 Q1027 RMK     1CU030 A3034=,
20180114_040000.002,0,RJAF,,,,0,20180114040000,-1,-1,-1,-1,999,-1,3,-1,-1,-1,-1,,9999,0,0,1,FEW 35,1,0,-1,10,1026,RJAF 140400Z VRB03KT 9999 FEW035 00/M10 Q1026 RMK 1CU035     A3032=,
20180114_050000.002,0,RJAF,,,,0,20180114050000,-1,-1,-1,-1,30,-1,3,-1,-1,340,90,,9999,0,0,1,FEW 35,1,1,-1,10,1026,RJAF 140500Z 03003KT 340V090 9999 FEW035 01/M10 Q1026 RMK     1CU035 A3031=,
20180114_060000.003,0,RJAF,,,,0,20180114060000,-1,-1,-1,-1,340,-1,3,-1,-1,280,40,,9999,0,0,1,FEW 40,1,2,-1,10,1026,RJAF 140600Z 34003KT 280V040 9999 FEW040 02/M10 Q1026 RMK     1CU040 A3032=,
20180114_070000.002,0,RJAF,,,,0,20180114070000,-1,-1,-1,-1,350,-1,5,-1,-1,310,30,CAVOK,-1,0,0,0,,1,1,-1,9,1026,RJAF 140700Z 35005KT 310V030 CAVOK 01/M09 Q1026 RMK A3032=,
20180114_233000.001,0,RJAF,,,,0,20180114230000,-1,-1,-1,-1,160,-1,17,-1,-1,-1,-1,,9999,0,0,1,FEW 40,1,2,-1,6,1023,RJAF 142330Z 16017KT 9999 FEW040 02/M06 Q1023 RMK 1CU040     A3022=,
20180115_000000.002,0,RJAF,,,,0,20180115000000,-1,-1,-1,-1,150,-1,16,-1,-1,-1,-1,,9999,0,0,1,FEW 40,1,3,-1,6,1023,RJAF 150000Z 15016KT 9999 FEW040 03/M06 Q1023 RMK 1CU040     A3021=,
20180115_010000.002,0,RJAF,,,,0,20180115010000,-1,-1,-1,-1,170,-1,22,-1,37,130,200,,9999,0,0,2,FEW 45   BKN -9999,1,5,-1,6,1022,RJAF 150100Z 17022G37KT 130V200 9999 FEW045 BKN/// 05/M06     Q1022 RMK 1CU045 A3020=,
20180115_020000.002,0,RJAF,,,,0,20180115020000,-1,-1,-1,-1,160,-1,21,-1,31,-1,-1,,9999,0,0,2,FEW 50   BKN -9999,1,6,-1,8,1021,RJAF 150200Z 16021G31KT 9999 FEW050 BKN/// 06/M08 Q1021 RMK     1CU050 A3016=,
20180115_030000.002,0,RJAF,,,,0,20180115030000,-1,-1,-1,-1,160,-1,17,-1,-1,-1,-1,,9999,0,0,2,FEW 60   BKN -9999,1,7,-1,6,1019,RJAF 150300Z 16017KT 9999 FEW060 BKN/// 07/M06 Q1019 RMK     1CU060 A3011=,
20180115_040000.002,0,RJAF,,,,0,20180115040000,-1,-1,-1,-1,160,-1,22,-1,-1,-1,-1,,9999,0,0,2,FEW 60   SCT -9999,1,8,-1,8,1018,RJAF 150400Z 16022KT 9999 FEW060 SCT/// 08/M08 Q1018 RMK     1CU060 A3007=,
20180115_050000.002,0,RJAF,,,,0,20180115050000,-1,-1,-1,-1,150,-1,19,-1,-1,-1,-1,,9999,0,0,1,FEW 40,1,8,-1,9,1017,RJAF 150500Z 15019KT 9999 FEW040 08/M09 Q1017 RMK 1CU040     A3004=,
20180115_060000.002,0,RJAF,,,,0,20180115060000,-1,-1,-1,-1,150,-1,19,-1,29,-1,-1,,9999,0,0,1,FEW 90,1,8,-1,10,1017,RJAF 150600Z 15019G29KT 9999 FEW090 08/M10 Q1017 RMK 1AC090     A3004=,
20180115_070000.003,0,RJAF,,,,0,20180115070000,-1,-1,-1,-1,190,-1,21,-1,-1,-1,-1,,9999,0,0,1,FEW 60,1,7,-1,8,1017,RJAF 150700Z 19021KT 9999 FEW060 07/M08 Q1017 RMK 1CU060     A3005=,
20180115_233000.001,0,RJAF,,,,0,20180115230000,-1,-1,-1,-1,999,-1,1,-1,-1,-1,-1,,9999,0,0,1,FEW 20,-1,0,-1,3,1021,RJAF 152330Z VRB01KT 9999 FEW020 M00/M03 Q1021 RMK 2CU020     A3017=,
20180116_000000.002,0,RJAF,,,,0,20180116000000,-1,-1,-1,-1,999,-1,1,-1,-1,-1,-1,,9999,0,0,1,FEW 20,1,2,-1,2,1021,RJAF 160000Z VRB01KT 9999 FEW020 02/M02 Q1021 RMK 1CU020     A3016=,
20180116_010000.002,0,RJAF,,,,0,20180116010000,-1,-1,-1,-1,999,-1,2,-1,-1,-1,-1,,9999,0,0,2,FEW 25   SCT -9999,1,4,-1,2,1020,RJAF 160100Z VRB02KT 9999 FEW025 SCT/// 04/M02 Q1020 RMK     1CU025 A3015=,
20180116_020000.002,0,RJAF,,,,0,20180116020000,-1,-1,-1,-1,999,-1,3,-1,-1,-1,-1,,9999,0,0,2,FEW 60   SCT -9999,1,9,-1,5,1018,RJAF 160200Z VRB03KT 9999 FEW060 SCT/// 09/M05 Q1018 RMK     1CU060 A3008 P/FR=,
20180116_030000.002,0,RJAF,,,,0,20180116030000,-1,-1,-1,-1,150,-1,11,-1,-1,100,180,CAVOK,-1,0,0,0,,1,12,-1,5,1016,RJAF 160300Z 15011KT 100V180 CAVOK 12/M05 Q1016 RMK A3003=,
20180116_040000.002,0,RJAF,,,,0,20180116040000,-1,-1,-1,-1,160,-1,16,-1,26,-1,-1,,9999,0,0,3,FEW 80   BKN 180   BKN -9999,1,11,-1,6,1016,RJAF 160400Z 16016G26KT 9999 FEW080 BKN180 BKN/// 11/M06 Q1016     RMK 1AC080 5AC180 A3000=,
20180116_050000.002,0,RJAF,,,,0,20180116050000,-1,-1,-1,-1,160,-1,17,-1,-1,-1,-1,,9999,0,0,3,FEW 80   SCT 210   BKN -9999,1,12,-1,7,1015,RJAF 160500Z 16017KT 9999 FEW080 SCT210 BKN/// 12/M07 Q1015     RMK 1AC080 3AC210 A2999=,
20180116_060000.002,0,RJAF,,,,0,20180116060000,-1,-1,-1,-1,180,-1,18,-1,28,-1,-1,,9999,0,0,2,SCT 80   BKN -9999,1,12,-1,6,1016,RJAF 160600Z 18018G28KT 9999 SCT080 BKN/// 12/M06 Q1016 RMK     3AC080 A3001=,
20180116_070000.002,0,RJAF,,,,0,20180116070000,-1,-1,-1,-1,180,-1,20,-1,-1,-1,-1,,9999,0,0,2,FEW 80   BKN -9999,1,10,-1,4,1015,RJAF 160700Z 18020KT 9999 FEW080 BKN/// 10/M04 Q1015 RMK     1AC080 A2999=,
20180116_233000.001,0,RJAF,,,,0,20180116230000,-1,-1,-1,-1,150,-1,11,-1,-1,-1,-1,,9999,0,1,2,FEW 3   BKN 40,1,7,1,5,1014,RJAF 162330Z 15011KT 9999 -RA FEW003 BKN040 07/05 Q1014 RMK     1ST003 7SC040 A2995=,- RA
20180117_000000.002,0,RJAF,,,,0,20180117000000,-1,-1,-1,-1,150,-1,13,-1,-1,-1,-1,,9999,0,1,3,FEW 3   SCT 30   BKN 40,1,7,1,5,1014,RJAF 170000Z 15013KT 9999 -RA FEW003 SCT030 BKN040 07/05 Q1014     RMK 1ST003 3SC030 6SC040 A2995=,- RA
20180117_010000.002,0,RJAF,,,,0,20180117010000,-1,-1,-1,-1,150,-1,12,-1,-1,-1,-1,,9999,0,1,3,FEW 6   SCT 30   BKN 50,1,7,1,5,1013,RJAF 170100Z 15012KT 9999 -RA FEW006 SCT030 BKN050 07/05 Q1013     RMK 1ST006 3SC030 6SC050 A2994=,- RA
20180117_020000.004,0,RJAF,,,,0,20180117020000,-1,-1,-1,-1,160,-1,13,-1,-1,-1,-1,,9999,0,1,3,FEW 6   SCT 30   BKN 50,1,7,1,5,1012,RJAF 170200Z 16013KT 9999 -RA FEW006 SCT030 BKN050 07/05 Q1012     RMK 1ST006 4SC030 6SC050 A2990=,- RA
20180117_030000.002,0,RJAF,,,,0,20180117030000,-1,-1,-1,-1,160,-1,13,-1,-1,-1,-1,,9999,0,1,3,FEW 3   SCT 35   BKN 50,1,7,1,6,1011,RJAF 170300Z 16013KT 9999 -RA FEW003 SCT035 BKN050 07/06 Q1011     RMK 1ST003 4SC035 6SC050 A2986=,- RA
20180117_040000.003,0,RJAF,,,,0,20180117040000,-1,-1,-1,-1,160,-1,13,-1,-1,-1,-1,,9999,0,1,3,FEW 3   SCT 35   BKN 50,1,8,1,6,1009,RJAF 170400Z 16013KT 9999 -RA FEW003 SCT035 BKN050 08/06 Q1009     RMK 1ST003 4SC035 7SC050 A2981=,- RA
20180117_050000.003,0,RJAF,,,,0,20180117050000,-1,-1,-1,-1,160,-1,13,-1,-1,-1,-1,,9999,0,1,3,FEW 3   SCT 40   BKN 50,1,8,1,7,1008,RJAF 170500Z 16013KT 9999 -RA FEW003 SCT040 BKN050 08/07 Q1008     RMK 1ST003 3SC040 7SC050 A2977=,- RA
20180117_060000.002,0,RJAF,,,,0,20180117060000,-1,-1,-1,-1,160,-1,12,-1,-1,-1,-1,,9999,0,1,3,FEW 3   SCT 40   BKN 50,1,8,1,7,1008,RJAF 170600Z 16012KT 9999 -RA FEW003 SCT040 BKN050 08/07 Q1008     RMK 1ST003 3SC040 6SC050 A2977=,- RA
20180117_070000.002,0,RJAF,,,,0,20180117070000,-1,-1,-1,-1,170,-1,12,-1,-1,-1,-1,,9999,0,1,3,FEW 3   SCT 40   BKN 60,1,8,1,7,1007,RJAF 170700Z 17012KT 9999 -RA FEW003 SCT040 BKN060 08/07 Q1007     RMK 1ST003 4SC040 6SC060 A2974=,- RA
20180117_233000.001,0,RJAF,,,,0,20180117230000,-1,-1,-1,-1,340,-1,3,-1,-1,-1,-1,,9999,0,0,2,FEW 3   BKN 20,1,2,1,2,1015,RJAF 172330Z 34003KT 9999 FEW003 BKN020 02/02 Q1015 RMK 1ST003     6SC020 A2998=,
20180118_000000.002,0,RJAF,,,,0,20180118000000,-1,-1,-1,-1,350,-1,3,-1,-1,320,20,,9999,0,0,2,FEW 3   BKN 25,1,3,1,2,1015,RJAF 180000Z 35003KT 320V020 9999 FEW003 BKN025 03/02 Q1015     RMK 1ST003 6SC025 A2998=,
20180118_010000.002,0,RJAF,,,,0,20180118010000,-1,-1,-1,-1,999,-1,2,-1,-1,-1,-1,,9999,0,0,3,FEW 10   SCT 25   BKN 70,1,4,1,3,1015,RJAF 180100Z VRB02KT 9999 FEW010 SCT025 BKN070 04/03 Q1015 RMK     1CU010 4SC025 5AC070 A2997=,
20180118_020000.002,0,RJAF,,,,0,20180118020000,-1,-1,-1,-1,999,-1,2,-1,-1,-1,-1,,9999,0,0,3,FEW 15   SCT 25   BKN -9999,1,5,1,2,1013,RJAF 180200Z VRB02KT 9999 FEW015 SCT025 BKN/// 05/02 Q1013 RMK     1CU015 4CU025 A2994=,
20180118_030000.003,0,RJAF,,,,0,20180118030000,-1,-1,-1,-1,320,-1,5,-1,-1,270,20,,9999,0,0,2,FEW 20   BKN -9999,1,6,1,1,1013,RJAF 180300Z 32005KT 270V020 9999 FEW020 BKN/// 06/01 Q1013     RMK 1CU020 A2991=,
20180118_040000.002,0,RJAF,,,,0,20180118040000,-1,-1,-1,-1,360,-1,9,-1,-1,-1,-1,,9999,0,0,2,FEW 20   BKN -9999,1,7,1,2,1013,RJAF 180400Z 36009KT 9999 FEW020 BKN/// 07/02 Q1013 RMK 2CU020     A2992=,
20180118_050000.002,0,RJAF,,,,0,20180118050000,-1,-1,-1,-1,170,-1,8,-1,-1,-1,-1,,9999,0,0,2,FEW 25   BKN -9999,1,8,1,2,1012,RJAF 180500Z 17008KT 9999 FEW025 BKN/// 08/02 Q1012 RMK 1CU025     A2991=,
20180118_060000.002,0,RJAF,,,,0,20180118060000,-1,-1,-1,-1,240,-1,15,-1,-1,-1,-1,,9999,0,0,2,FEW 60   BKN -9999,1,10,-1,3,1012,RJAF 180600Z 24015KT 9999 FEW060 BKN/// 10/M03 Q1012 RMK     1CU060 A2990=,
20180118_070000.002,0,RJAF,,,,0,20180118070000,-1,-1,-1,-1,250,-1,16,-1,26,-1,-1,,9999,0,0,2,FEW 50   BKN -9999,1,9,-1,2,1013,RJAF 180700Z 25016G26KT 9999 FEW050 BKN/// 09/M02 Q1013 RMK     1CU050 A2991=,
20180118_233000.001,0,RJAF,,,,0,20180118230000,-1,-1,-1,-1,320,-1,7,-1,-1,-1,-1,,9999,0,0,3,FEW 13   SCT 30   BKN 40,1,1,-1,1,1019,RJAF 182330Z 32007KT 9999 FEW013 SCT030 BKN040 01/M01 Q1019     RMK 1ST013 3CU030 5CU040 A3012=,
20180119_000000.002,0,RJAF,,,,0,20180119000000,-1,-1,-1,-1,320,-1,10,-1,-1,-1,-1,,9999,0,0,2,FEW 15   SCT 35,1,2,-1,1,1019,RJAF 190000Z 32010KT 9999 FEW015 SCT035 02/M01 Q1019 RMK     1ST015 3CU035 A3011=,
20180119_010000.003,0,RJAF,,,,0,20180119010000,-1,-1,-1,-1,340,-1,10,-1,-1,-1,-1,,9999,0,0,2,FEW 18   SCT -9999,1,2,-1,2,1019,RJAF 190100Z 34010KT 9999 FEW018 SCT/// 02/M02 Q1019 RMK     2CU018 A3010=,
20180119_020000.002,0,RJAF,,,,0,20180119020000,-1,-1,-1,-1,340,-1,10,-1,-1,-1,-1,,9999,0,0,1,SCT 20,1,3,-1,3,1018,RJAF 190200Z 34010KT 9999 SCT020 03/M03 Q1018 RMK 3CU020     A3008=,
20180119_030000.002,0,RJAF,,,,0,20180119030000,-1,-1,-1,-1,330,-1,8,-1,-1,300,20,,9999,0,0,1,SCT 20,1,4,-1,3,1018,RJAF 190300Z 33008KT 300V020 9999 SCT020 04/M03 Q1018 RMK     4CU020 A3006=,
20180119_040000.002,0,RJAF,,,,0,20180119040000,-1,-1,-1,-1,330,-1,7,-1,-1,300,10,,9999,0,0,1,BKN 25,1,4,-1,2,1017,RJAF 190400Z 33007KT 300V010 9999 BKN025 04/M02 Q1017 RMK     5CU025 A3003=,
20180119_050000.003,0,RJAF,,,,0,20180119050000,-1,-1,-1,-1,330,-1,5,-1,-1,280,20,,9999,0,0,1,SCT 25,1,4,-1,3,1016,RJAF 190500Z 33005KT 280V020 9999 SCT025 04/M03 Q1016 RMK     4CU025 A3002=,
20180119_060000.002,0,RJAF,,,,0,20180119060000,-1,-1,-1,-1,330,-1,10,-1,-1,320,20,,9999,0,0,2,FEW 30   SCT -9999,1,4,-1,3,1016,RJAF 190600Z 33010KT 320V020 9999 FEW030 SCT/// 04/M03 Q1016     RMK 1CU030 A3002=,
20180119_070000.002,0,RJAF,,,,0,20180119070000,-1,-1,-1,-1,330,-1,8,-1,-1,-1,-1,,9999,0,0,2,FEW 30   SCT -9999,1,3,-1,4,1016,RJAF 190700Z 33008KT 9999 FEW030 SCT/// 03/M04 Q1016 RMK     2CU030 A3002=,
20180119_233000.001,0,RJAF,,,,0,20180119230000,-1,-1,-1,-1,999,-1,2,-1,-1,-1,-1,,9999,0,0,1,FEW 30,-1,2,-1,4,1016,RJAF 192330Z VRB02KT 9999 FEW030 M02/M04 Q1016 RMK 1CU030     A3001=,
20180120_000000.002,0,RJAF,,,,0,20180120000000,-1,-1,-1,-1,999,-1,1,-1,-1,-1,-1,,9999,0,0,1,FEW 40,-1,1,-1,4,1016,RJAF 200000Z VRB01KT 9999 FEW040 M01/M04 Q1016 RMK 1CU040     A3001=,
20180120_010000.002,0,RJAF,,,,0,20180120010000,-1,-1,-1,-1,360,-1,3,-1,-1,310,60,,9999,0,0,1,FEW 40,1,0,-1,3,1016,RJAF 200100Z 36003KT 310V060 9999 FEW040 00/M03 Q1016 RMK     1CU040 A3001=,
20180120_020000.003,0,RJAF,,,,0,20180120020000,-1,-1,-1,-1,360,-1,3,-1,-1,300,50,,9999,0,0,1,FEW 50,1,2,-1,3,1015,RJAF 200200Z 36003KT 300V050 9999 FEW050 02/M03 Q1015 RMK     1CU050 A2999=,
20180120_030000.002,0,RJAF,,,,0,20180120030000,-1,-1,-1,-1,10,-1,3,-1,-1,300,70,,9999,0,0,1,FEW 50,1,3,-1,3,1013,RJAF 200300Z 01003KT 300V070 9999 FEW050 03/M03 Q1013 RMK     1CU050 A2994=,
20180120_040000.002,0,RJAF,,,,0,20180120040000,-1,-1,-1,-1,350,-1,3,-1,-1,270,80,,9999,0,0,1,FEW 50,1,5,-1,2,1012,RJAF 200400Z 35003KT 270V080 9999 FEW050 05/M02 Q1012 RMK     1CU050 A2991=,
20180120_050000.002,0,RJAF,,,,0,20180120050000,-1,-1,-1,-1,999,-1,3,-1,-1,-1,-1,,9999,0,0,1,FEW 50,1,6,-1,2,1012,RJAF 200500Z VRB03KT 9999 FEW050 06/M02 Q1012 RMK 1CU050     A2991=,
20180120_060000.002,0,RJAF,,,,0,20180120060000,-1,-1,-1,-1,999,-1,4,-1,-1,-1,-1,,9999,0,0,1,FEW 60,1,8,-1,7,1013,RJAF 200600Z VRB04KT 9999 FEW060 08/M07 Q1013 RMK 1CU060     A2991=,
20180120_070000.002,0,RJAF,,,,0,20180120070000,-1,-1,-1,-1,250,-1,7,-1,-1,220,320,,9999,0,0,1,FEW 50,1,8,-1,7,1013,RJAF 200700Z 25007KT 220V320 9999 FEW050 08/M07 Q1013 RMK     1CU050 A2992=,
20180120_233000.001,0,RJAF,,,,0,20180120230000,-1,-1,-1,-1,999,-1,1,-1,-1,-1,-1,,9999,0,0,1,FEW 70,-1,2,-1,5,1016,RJAF 202330Z VRB01KT 9999 FEW070 M02/M05 Q1016 RMK 1AC070     A3002=,
20180121_000000.002,0,RJAF,,,,0,20180121000000,-1,-1,-1,-1,999,-1,2,-1,-1,-1,-1,,9999,0,0,1,FEW 50,-1,1,-1,4,1016,RJAF 210000Z VRB02KT 9999 FEW050 M01/M04 Q1016 RMK 1CU050     A3002=,
20180121_010000.002,0,RJAF,,,,0,20180121010000,-1,-1,-1,-1,350,-1,3,-1,-1,310,20,,9999,0,0,1,FEW 50,1,1,-1,4,1015,RJAF 210100Z 35003KT 310V020 9999 FEW050 01/M04 Q1015 RMK     1CU050 A2999=,
20180121_020000.002,0,RJAF,,,,0,20180121020000,-1,-1,-1,-1,30,-1,3,-1,-1,330,100,,9999,0,0,1,FEW 70,1,3,-1,4,1014,RJAF 210200Z 03003KT 330V100 9999 FEW070 03/M04 Q1014 RMK     1AC070 A2997=,
20180121_030000.002,0,RJAF,,,,0,20180121030000,-1,-1,-1,-1,360,-1,3,-1,-1,290,50,,9999,0,0,1,FEW 70,1,4,-1,4,1013,RJAF 210300Z 36003KT 290V050 9999 FEW070 04/M04 Q1013 RMK     1AC070 A2993=,
20180121_040000.003,0,RJAF,,,,0,20180121040000,-1,-1,-1,-1,350,-1,3,-1,-1,290,50,,9999,0,0,1,FEW 60,1,6,-1,3,1013,RJAF 210400Z 35003KT 290V050 9999 FEW060 06/M03 Q1013 RMK     1CU060 A2992=,
20180121_050000.002,0,RJAF,,,,0,20180121050000,-1,-1,-1,-1,260,-1,16,-1,26,-1,-1,,9999,0,0,1,FEW 50,1,8,-1,7,1012,RJAF 210500Z 26016G26KT 9999 FEW050 08/M07 Q1012 RMK 1CU050     A2991=,
20180121_060000.002,0,RJAF,,,,0,20180121060000,-1,-1,-1,-1,260,-1,14,-1,-1,-1,-1,,9999,0,0,1,FEW 60,1,7,-1,7,1013,RJAF 210600Z 26014KT 9999 FEW060 07/M07 Q1013 RMK 2CU060     A2991=,
20180121_070000.002,0,RJAF,,,,0,20180121070000,-1,-1,-1,-1,280,-1,8,-1,-1,250,330,,9999,0,0,2,FEW 60   SCT 70,1,6,-1,7,1013,RJAF 210700Z 28008KT 250V330 9999 FEW060 SCT070 06/M07 Q1013     RMK 2CU060 3AC070 A2993=,
20180121_233000.001,0,RJAF,,,,0,20180121230000,-1,-1,-1,-1,340,-1,2,-1,-1,-1,-1,,9999,0,0,3,FEW 13   BKN 90   BKN 110,-1,3,-1,5,1017,RJAF 212330Z 34002KT 9999 FEW013 BKN090 BKN110 M03/M05 Q1017     RMK 1ST013 6AC090 7AC110 A3005=,
20180122_000000.002,0,RJAF,,,,0,20180122000000,-1,-1,-1,-1,340,-1,3,-1,-1,-1,-1,,9999,0,0,3,FEW 13   BKN 90   BKN 110,-1,2,-1,5,1017,RJAF 220000Z 34003KT 9999 FEW013 BKN090 BKN110 M02/M05 Q1017     RMK 1ST013 6AC090 7AC110 A3004=,
20180122_010000.002,0,RJAF,,,,0,20180122010000,-1,-1,-1,-1,999,-1,2,-1,-1,-1,-1,,9999,0,0,3,FEW 15   BKN 80   BKN 100,-1,2,-1,5,1017,RJAF 220100Z VRB02KT 9999 FEW015 BKN080 BKN100 M02/M05 Q1017     RMK 2ST015 6AC080 7AC100 A3003=,
20180122_020000.002,0,RJAF,,,,0,20180122020000,-1,-1,-1,-1,330,-1,3,-1,-1,200,360,,9999,0,0,3,FEW 15   BKN 70   BKN 90,-1,2,-1,6,1015,RJAF 220200Z 33003KT 200V360 9999 FEW015 BKN070 BKN090 M02/M06     Q1015 RMK 1ST015 5AC070 7AC090 A2998=,
20180122_030000.002,0,RJAF,,,,0,20180122030000,-1,-1,-1,-1,999,-1,2,-1,-1,-1,-1,,9999,0,1,3,FEW 15   SCT 40   BKN 60,-1,2,-1,5,1014,RJAF 220300Z VRB02KT 9999 -SN FEW015 SCT040 BKN060 M02/M05     Q1014 RMK 1ST015 4SC040 6SC060 A2994=,- SN
20180122_040000.002,0,RJAF,,,,0,20180122040000,-1,-1,-1,-1,999,-1,2,-1,-1,-1,-1,,9999,0,1,3,FEW 15   SCT 40   BKN 50,-1,2,-1,6,1011,RJAF 220400Z VRB02KT 9999 -SN FEW015 SCT040 BKN050 M02/M06     Q1011 RMK 1ST015 4SC040 6SC050 A2987 P/FR=,- SN
20180122_050000.002,0,RJAF,,,,0,20180122050000,-1,-1,-1,-1,999,-1,2,-1,-1,-1,-1,,2000,0,1,3,FEW 8   SCT 15   BKN 20,-1,2,-1,4,1011,RJAF 220500Z VRB02KT 2000 -SN FEW008 SCT015 BKN020 M02/M04     Q1011 RMK 1ST008 4SC015 6SC020 A2986=,- SN
20180122_060000.003,0,RJAF,,,,0,20180122060000,-1,-1,-1,-1,999,-1,1,-1,-1,-1,-1,,900,0,1,3,FEW 4   SCT 6   BKN 20,-1,3,-1,4,1009,RJAF 220600Z VRB01KT 0900 SN FEW004 SCT006 BKN020 M03/M04     Q1009 RMK 1ST004 4ST006 7SC020 A2982=,SN
20180122_070000.002,0,RJAF,,,,0,20180122070000,-1,-1,-1,-1,999,-1,2,-1,-1,-1,-1,,500,0,1,3,FEW 2   BKN 3   OVC 12,-1,3,-1,3,1009,RJAF 220700Z VRB02KT 0500 SN FEW002 BKN003 OVC012 M03/M03     Q1009 RMK 1ST002 6ST003 8ST012 A2981=,SN
20180122_233000.001,0,RJAF,,,,0,20180122230000,-1,-1,-1,-1,180,-1,24,-1,-1,-1,-1,,6000,0,1,3,FEW 10   SCT 25   BKN 35,1,1,-1,1,1003,RJAF 222330Z 18024KT 6000 -SHSN FEW010 SCT025 BKN035 01/M01     Q1003 RMK 2ST010 3CU025 6CU035 A2963=,- SN SH
20180123_000000.002,0,RJAF,,,,0,20180123000000,-1,-1,-1,-1,180,-1,24,-1,-1,-1,-1,,9000,0,1,3,FEW 10   SCT 25   BKN 35,1,2,-1,1,1003,RJAF 230000Z 18024KT 9000 -SHSN FEW010 SCT025 BKN035 02/M01     Q1003 RMK 1ST010 3CU025 6CU035 A2963=,- SN SH
20180123_010000.002,0,RJAF,,,,0,20180123010000,-1,-1,-1,-1,180,-1,22,-1,-1,-1,-1,,8000,0,1,3,FEW 10   SCT 30   BKN 40,1,2,-1,1,1002,RJAF 230100Z 18022KT 8000 -SHSN FEW010 SCT030 BKN040 02/M01     Q1002 RMK 1ST010 3CU030 6CU040 A2961=,- SN SH
20180123_020000.002,0,RJAF,,,,0,20180123020000,-1,-1,-1,-1,180,-1,20,-1,-1,-1,-1,,9999,0,1,3,FEW 20   SCT 30   BKN 50,1,3,-1,2,1002,RJAF 230200Z 18020KT 9999 -SHSN FEW020 SCT030 BKN050 03/M02     Q1002 RMK 1CU020 3CU030 6CU050 A2960=,- SN SH
20180123_030000.003,0,RJAF,,,,0,20180123030000,-1,-1,-1,-1,190,-1,16,-1,28,160,230,,7000,0,1,3,FEW 15   SCT 30   BKN 40,1,2,-1,3,1001,RJAF 230300Z 19016G28KT 160V230 7000 -SHSN FEW015 SCT030     BKN040 02/M03 Q1001 RMK 1ST015 3CU030 6CU040 A2957=,- SN SH
20180123_040000.003,0,RJAF,,,,0,20180123040000,-1,-1,-1,-1,220,-1,10,-1,-1,190,260,,8000,0,1,3,FEW 20   SCT 30   BKN 40,1,3,-1,7,1001,RJAF 230400Z 22010KT 190V260 8000 -SHSN FEW020 SCT030 BKN040     03/M07 Q1001 RMK 1CU020 4CU030 6CU040 A2957 MOD TURB OBS           AT 0337Z OVER MATSUMOTO 8000FT E170=,- SN SH
20180123_040000.005,2,RJAF,,,,0,20180123040000,-1,-1,-1,-1,220,-1,10,-1,-1,190,260,,8000,0,1,3,FEW 20   SCT 30   BKN 40,1,3,-1,7,1001,RJAF 230400Z 22010KT 190V260 8000 -SHSN FEW020 SCT030     BKN040 03/M07 Q1001 RMK 1CU020 4CU030 6CU040 A2957 MOD           TURB OBS AT 0337Z OVER MATSUMOTO BTN 8000FT AND TDZ IN           CMB E170=,- SN SH
20180123_040000.007,1,RJAF,,,,0,20180123040000,-1,-1,-1,-1,220,-1,10,-1,-1,190,260,,8000,0,1,3,FEW 20   SCT 30   BKN 40,1,3,-1,7,1001,RJAF 230400Z 22010KT 190V260 8000 -SHSN FEW020 SCT030     BKN040 03/M07 Q1001 RMK 1CU020 4CU030 6CU040 A2957 MOD           TURB OBS AT 0337Z OVER MATSUMOTO BTN 8000FT AND TDZ IN           CMB E170=,- SN SH
20180123_050000.002,0,RJAF,,,,0,20180123050000,-1,-1,-1,-1,180,-1,7,-1,-1,-1,-1,,1000,0,1,3,FEW 7   SCT 15   BKN 20,1,1,-1,3,1001,RJAF 230500Z 18007KT 1000 -SHSN FEW007 SCT015 BKN020 01/M03     Q1001 RMK 1ST007 4ST015 5CU020 A2959=,- SN SH
20180123_060000.003,0,RJAF,,,,0,20180123060000,-1,-1,-1,-1,240,-1,16,-1,27,200,300,,9999,0,1,3,FEW 20   SCT 40   BKN 60,1,3,-1,12,1001,RJAF 230600Z 24016G27KT 200V300 9999 -SHSN FEW020 SCT040     BKN060 03/M12 Q1001 RMK 1CU020 3CU040 6CU060 A2959=,- SN SH
20180123_070000.002,0,RJAF,,,,0,20180123070000,-1,-1,-1,-1,240,-1,16,-1,27,190,290,,9999,0,1,3,FEW 30   SCT 50   BKN 60,1,1,-1,11,1002,RJAF 230700Z 24016G27KT 190V290 9999 -SHSN FEW030 SCT050     BKN060 01/M11 Q1002 RMK 1CU030 4CU050 6CU060 A2960=,- SN SH
20180123_233000.001,0,RJAF,,,,0,20180123230000,-1,-1,-1,-1,180,-1,12,-1,-1,-1,-1,,2000,0,1,3,FEW 8   BKN 10   BKN 20,-1,5,-1,7,1004,RJAF 232330Z 18012KT 2000 -SHSN FEW008 BKN010 BKN020 M05/M07     Q1004 RMK 2ST008 5ST010 6CU020 A2966=,- SN SH
20180124_000000.002,0,RJAF,,,,0,20180124000000,-1,-1,-1,-1,180,-1,8,-1,-1,150,260,,9000,0,1,3,FEW 6   SCT 15   BKN 20,-1,4,-1,9,1004,RJAF 240000Z 18008KT 150V260 9000 -SHSN FEW006 SCT015 BKN020     M04/M09 Q1004 RMK 1ST006 3ST015 5CU020 A2966 4000W-N=,- SN SH
20180124_010000.003,0,RJAF,,,,0,20180124010000,-1,-1,-1,-1,250,-1,5,-1,-1,160,290,,9999,0,1,3,FEW 20   SCT 35   BKN 50,-1,3,-1,11,1004,RJAF 240100Z 25005KT 160V290 9999 -SHSN FEW020 SCT035 BKN050     M03/M11 Q1004 RMK 1CU020 4CU035 5CU050 A2965=,- SN SH
20180124_020000.002,0,RJAF,,,,0,20180124020000,-1,-1,-1,-1,330,-1,5,-1,-1,230,20,,9999,0,1,3,FEW 30   SCT 40   BKN 50,-1,1,-1,14,1003,RJAF 240200Z 33005KT 230V020 9999 -SHSN FEW030 SCT040 BKN050     M01/M14 Q1003 RMK 2CU030 3CU040 5CU050 A2962=,- SN SH
20180124_030000.002,0,RJAF,,,,0,20180124030000,-1,-1,-1,-1,260,-1,9,-1,-1,230,300,,9999,0,1,3,FEW 20   SCT 30   BKN 50,-1,3,-1,10,1002,RJAF 240300Z 26009KT 230V300 9999 -SHSN FEW020 SCT030 BKN050     M03/M10 Q1002 RMK 2CU020 3CU030 5CU050 A2960 4000W=,- SN SH
20180124_040000.002,0,RJAF,,,,0,20180124040000,-1,-1,-1,-1,210,-1,10,-1,21,160,240,,7000,0,1,3,FEW 8   SCT 25   BKN 35,-1,3,-1,12,1001,RJAF 240400Z 21010G21KT 160V240 7000 -SHSN FEW008 SCT025     BKN035 M03/M12 Q1001 RMK 1ST008 3CU025 5CU035 A2958=,- SN SH
20180124_050000.002,0,RJAF,,,,0,20180124050000,-1,-1,-1,-1,270,-1,11,-1,23,220,340,,9999,0,1,3,FEW 25   SCT 40   BKN 50,-1,3,-1,15,1001,RJAF 240500Z 27011G23KT 220V340 9999 -SHSN FEW025 SCT040     BKN050 M03/M15 Q1001 RMK 1CU025 3CU040 5CU050 A2957=,- SN SH
20180124_060000.002,0,RJAF,,,,0,20180124060000,-1,-1,-1,-1,250,-1,10,-1,20,-1,-1,,9999,0,1,3,FEW 30   SCT 40   BKN 50,-1,3,-1,16,1001,RJAF 240600Z 25010G20KT 9999 -SHSN FEW030 SCT040 BKN050     M03/M16 Q1001 RMK 1CU030 3CU040 6CU050 A2958=,- SN SH
20180124_070000.002,0,RJAF,,,,0,20180124070000,-1,-1,-1,-1,260,-1,13,-1,25,220,290,,9999,0,1,3,FEW 20   SCT 40   BKN 50,-1,4,-1,15,1002,RJAF 240700Z 26013G25KT 220V290 9999 -SHSN FEW020 SCT040     BKN050 M04/M15 Q1002 RMK 1CU020 4CU040 5CU050 A2961=,- SN SH
20180124_233000.001,0,RJAF,,,,0,20180124230000,-1,-1,-1,-1,330,-1,3,-1,-1,270,40,,9999,0,1,2,FEW 40   SCT 50,-1,7,-1,15,1008,RJAF 242330Z 33003KT 270V040 9999 VCSH FEW040 SCT050 M07/M15     Q1008 RMK 1CU040 3CU050 A2977=,VC SH
20180125_000000.002,0,RJAF,,,,0,20180125000000,-1,-1,-1,-1,10,-1,4,-1,-1,330,50,,9999,0,1,2,FEW 40   SCT 50,-1,6,-1,17,1008,RJAF 250000Z 01004KT 330V050 9999 VCSH FEW040 SCT050 M06/M17     Q1008 RMK 1CU040 3CU050 A2977=,VC SH
20180125_010000.002,0,RJAF,,,,0,20180125010000,-1,-1,-1,-1,340,-1,5,-1,-1,-1,-1,,9999,0,0,1,FEW 50,-1,5,-1,17,1008,RJAF 250100Z 34005KT 9999 FEW050 M05/M17 Q1008 RMK 1CU050     A2977=,
20180125_020000.003,0,RJAF,,,,0,20180125020000,-1,-1,-1,-1,330,-1,5,-1,-1,280,20,,9999,0,0,1,FEW 50,-1,4,-1,19,1008,RJAF 250200Z 33005KT 280V020 9999 FEW050 M04/M19 Q1008 RMK     1CU050 A2977=,
20180125_030000.002,0,RJAF,,,,0,20180125030000,-1,-1,-1,-1,270,-1,8,-1,-1,230,330,,9999,0,0,1,FEW 60,-1,3,-1,18,1007,RJAF 250300Z 27008KT 230V330 9999 FEW060 M03/M18 Q1007 RMK     1CU060 A2975=,
20180125_040000.002,0,RJAF,,,,0,20180125040000,-1,-1,-1,-1,260,-1,7,-1,-1,220,290,,9999,0,0,1,FEW 60,-1,3,-1,19,1006,RJAF 250400Z 26007KT 220V290 9999 FEW060 M03/M19 Q1006 RMK     1CU060 A2972=,
20180125_050000.002,0,RJAF,,,,0,20180125050000,-1,-1,-1,-1,240,-1,8,-1,-1,190,290,,9999,0,0,1,FEW 50,-1,3,-1,18,1006,RJAF 250500Z 24008KT 190V290 9999 FEW050 M03/M18 Q1006 RMK     1CU050 A2972=,
20180125_060000.002,0,RJAF,,,,0,20180125060000,-1,-1,-1,-1,260,-1,12,-1,-1,220,300,,9999,0,0,1,FEW 50,-1,3,-1,18,1007,RJAF 250600Z 26012KT 220V300 9999 FEW050 M03/M18 Q1007 RMK     1CU050 A2974=,
20180125_070000.002,0,RJAF,,,,0,20180125070000,-1,-1,-1,-1,260,-1,10,-1,-1,-1,-1,,9999,0,0,1,FEW 50,-1,4,-1,18,1007,RJAF 250700Z 26010KT 9999 FEW050 M04/M18 Q1007 RMK 1CU050     A2974=,
20180125_233000.001,0,RJAF,,,,0,20180125230000,-1,-1,-1,-1,999,-1,1,-1,-1,-1,-1,,9999,0,1,2,FEW 25   SCT 50,-1,8,-1,13,1005,RJAF 252330Z VRB01KT 9999 VCSH FEW025 SCT050 M08/M13 Q1005 RMK     1CU025 3CU050 A2968=,VC SH
20180126_000000.002,0,RJAF,,,,0,20180126000000,-1,-1,-1,-1,999,-1,2,-1,-1,-1,-1,,9999,0,1,2,FEW 20   SCT 50,-1,7,-1,13,1005,RJAF 260000Z VRB02KT 9999 VCSH FEW020 SCT050 M07/M13 Q1005 RMK     1CU020 3CU050 A2968=,VC SH
20180126_010000.002,0,RJAF,,,,0,20180126010000,-1,-1,-1,-1,350,-1,5,-1,-1,330,30,,9999,0,1,2,FEW 20   SCT 50,-1,5,-1,13,1005,RJAF 260100Z 35005KT 330V030 9999 VCSH FEW020 SCT050 M05/M13     Q1005 RMK 1CU020 3CU050 A2969=,VC SH
20180126_020000.002,0,RJAF,,,,0,20180126020000,-1,-1,-1,-1,999,-1,2,-1,-1,-1,-1,,9999,0,1,2,FEW 40   SCT 50,-1,4,-1,11,1005,RJAF 260200Z VRB02KT 9999 VCSH FEW040 SCT050 M04/M11 Q1005 RMK     1CU040 3CU050 A2968=,VC SH
20180126_030000.002,0,RJAF,,,,0,20180126030000,-1,-1,-1,-1,999,-1,3,-1,-1,-1,-1,,9999,0,1,2,FEW 40   SCT 60,-1,2,-1,15,1004,RJAF 260300Z VRB03KT 9999 VCSH FEW040 SCT060 M02/M15 Q1004 RMK     2CU040 4CU060 A2965=,VC SH
20180126_040000.002,0,RJAF,,,,0,20180126040000,-1,-1,-1,-1,360,-1,7,-1,-1,-1,-1,,9999,0,1,2,FEW 40   SCT 60,-1,2,-1,17,1004,RJAF 260400Z 36007KT 9999 VCSH FEW040 SCT060 M02/M17 Q1004 RMK     1CU040 3CU060 A2965=,VC SH
20180126_050000.002,0,RJAF,,,,0,20180126050000,-1,-1,-1,-1,260,-1,14,-1,26,220,290,,9999,0,1,1,FEW 60,-1,3,-1,17,1004,RJAF 260500Z 26014G26KT 220V290 9999 VCSH FEW060 M03/M17 Q1004     RMK 2CU060 A2965=,VC SH
20180126_060000.002,0,RJAF,,,,0,20180126060000,-1,-1,-1,-1,260,-1,10,-1,-1,-1,-1,,9999,0,1,1,FEW 60,-1,3,-1,17,1004,RJAF 260600Z 26010KT 9999 VCSH FEW060 M03/M17 Q1004 RMK 2CU060     A2966=,VC SH
20180126_070000.002,0,RJAF,,,,0,20180126070000,-1,-1,-1,-1,260,-1,11,-1,-1,230,290,,9999,0,1,1,SCT 60,-1,4,-1,19,1004,RJAF 260700Z 26011KT 230V290 9999 VCSH SCT060 M04/M19 Q1004     RMK 3CU060 A2967=,VC SH
20180126_233000.001,0,RJAF,,,,0,20180126230000,-1,-1,-1,-1,999,-1,1,-1,-1,-1,-1,,9999,0,0,1,FEW 60,-1,9,-1,16,1013,RJAF 262330Z VRB01KT 9999 FEW060 M09/M16 Q1013 RMK 1CU060     A2993=,
20180127_000000.002,0,RJAF,,,,0,20180127000000,-1,-1,-1,-1,999,-1,2,-1,-1,-1,-1,,9999,0,0,1,FEW 60,-1,8,-1,15,1013,RJAF 270000Z VRB02KT 9999 FEW060 M08/M15 Q1013 RMK 1CU060     A2993=,
20180127_010000.002,0,RJAF,,,,0,20180127010000,-1,-1,-1,-1,350,-1,4,-1,-1,-1,-1,,9999,0,0,1,FEW 60,-1,6,-1,15,1014,RJAF 270100Z 35004KT 9999 FEW060 M06/M15 Q1014 RMK 1CU060     A2995=,
20180127_020000.002,0,RJAF,,,,0,20180127020000,-1,-1,-1,-1,350,-1,4,-1,-1,-1,-1,,9999,0,0,1,FEW 60,-1,3,-1,14,1013,RJAF 270200Z 35004KT 9999 FEW060 M03/M14 Q1013 RMK 1CU060     A2993=,
20180127_030000.002,0,RJAF,,,,0,20180127030000,-1,-1,-1,-1,350,-1,6,-1,-1,-1,-1,,9999,0,0,1,FEW 60,-1,1,-1,14,1013,RJAF 270300Z 35006KT 9999 FEW060 M01/M14 Q1013 RMK 1CU060     A2992=,
20180127_040000.002,0,RJAF,,,,0,20180127040000,-1,-1,-1,-1,340,-1,3,-1,-1,290,30,,9999,0,0,1,FEW 60,-1,1,-1,15,1013,RJAF 270400Z 34003KT 290V030 9999 FEW060 M01/M15 Q1013 RMK     1CU060 A2991=,
20180127_050000.002,0,RJAF,,,,0,20180127050000,-1,-1,-1,-1,350,-1,7,-1,-1,-1,-1,,9999,0,0,1,FEW 60,1,0,-1,15,1013,RJAF 270500Z 35007KT 9999 FEW060 00/M15 Q1013 RMK 1CU060     A2992=,
20180127_060000.002,0,RJAF,,,,0,20180127060000,-1,-1,-1,-1,360,-1,10,-1,-1,-1,-1,,9999,0,0,1,FEW 60,-1,0,-1,13,1013,RJAF 270600Z 36010KT 9999 FEW060 M00/M13 Q1013 RMK 1CU060     A2993=,
20180127_070000.002,0,RJAF,,,,0,20180127070000,-1,-1,-1,-1,330,-1,9,-1,-1,-1,-1,,9999,0,0,1,FEW 60,-1,0,-1,14,1014,RJAF 270700Z 33009KT 9999 FEW060 M00/M14 Q1014 RMK 1CU060     A2995=,
20180127_233000.001,0,RJAF,,,,0,20180127230000,-1,-1,-1,-1,170,-1,2,-1,-1,-1,-1,CAVOK,-1,0,0,0,,-1,9,-1,13,1017,RJAF 272330Z 17002KT CAVOK M09/M13 Q1017 RMK A3003=,
20180128_000000.003,0,RJAF,,,,0,20180128000000,-1,-1,-1,-1,999,-1,2,-1,-1,-1,-1,CAVOK,-1,0,0,0,,-1,8,-1,13,1016,RJAF 280000Z VRB02KT CAVOK M08/M13 Q1016 RMK A3002=,
20180128_010000.002,0,RJAF,,,,0,20180128010000,-1,-1,-1,-1,350,-1,3,-1,-1,-1,-1,,9999,0,0,3,FEW 90   SCT 120   BKN -9999,-1,7,-1,12,1015,RJAF 280100Z 35003KT 9999 FEW090 SCT120 BKN/// M07/M12 Q1015     RMK 1AC090 3AC120 A2998=,
20180128_020000.002,0,RJAF,,,,0,20180128020000,-1,-1,-1,-1,340,-1,5,-1,-1,-1,-1,,9999,0,0,3,FEW 80   BKN 90   BKN -9999,-1,6,-1,11,1013,RJAF 280200Z 34005KT 9999 FEW080 BKN090 BKN/// M06/M11 Q1013     RMK 1AC080 5AC090 A2992=,
20180128_030000.002,0,RJAF,,,,0,20180128030000,-1,-1,-1,-1,999,-1,3,-1,-1,-1,-1,,9999,0,0,3,FEW 50   SCT 70   BKN 90,-1,5,-1,11,1012,RJAF 280300Z VRB03KT 9999 FEW050 SCT070 BKN090 M05/M11 Q1012     RMK 1CU050 3AC070 6AC090 A2988=,
20180128_040000.002,0,RJAF,,,,0,20180128040000,-1,-1,-1,-1,999,-1,5,-1,-1,-1,-1,,9999,0,0,2,FEW 60   SCT 80,1,4,-1,10,1010,RJAF 280400Z VRB05KT 9999 FEW060 SCT080 04/M10 Q1010 RMK     1CU060 4AC080 A2983 P/FR=,
20180128_050000.002,0,RJAF,,,,0,20180128050000,-1,-1,-1,-1,180,-1,21,-1,-1,-1,-1,,9999,0,1,3,FEW 40   SCT 50   BKN 70,1,2,-1,8,1010,RJAF 280500Z 18021KT 9999 VCSH FEW040 SCT050 BKN070 02/M08     Q1010 RMK 1CU040 4CU050 7AC070 A2983=,VC SH
20180128_060000.002,0,RJAF,,,,0,20180128060000,-1,-1,-1,-1,180,-1,21,-1,-1,-1,-1,,9999,0,1,3,FEW 20   SCT 30   BKN 45,1,1,-1,6,1010,RJAF 280600Z 18021KT 9999 VCSH FEW020 SCT030 BKN045 01/M06     Q1010 RMK 1CU020 3CU030 6CU045 A2982=,VC SH
20180128_070000.003,0,RJAF,,,,0,20180128070000,-1,-1,-1,-1,160,-1,19,-1,-1,-1,-1,,9999,0,1,3,FEW 20   SCT 30   BKN 45,1,0,-1,3,1009,RJAF 280700Z 16019KT 9999 -SHSN FEW020 SCT030 BKN045 00/M03     Q1009 RMK 1CU020 3CU030 6CU045 A2979 4500S=,- SN SH
20180128_233000.001,0,RJAF,,,,0,20180128230000,-1,-1,-1,-1,999,-1,2,-1,-1,-1,-1,,9999,0,0,2,FEW 15   SCT 40,-1,1,-1,4,1006,RJAF 282330Z VRB02KT 9999 FEW015 SCT040 M01/M04 Q1006 RMK     1CU015 3CU040 A2973=,
20180129_000000.003,0,RJAF,,,,0,20180129000000,-1,-1,-1,-1,340,-1,4,-1,-1,310,20,,9999,0,0,1,FEW 15,-1,1,-1,4,1006,RJAF 290000Z 34004KT 310V020 9999 FEW015 M01/M04 Q1006 RMK     1CU015 A2972=,
20180129_010000.002,0,RJAF,,,,0,20180129010000,-1,-1,-1,-1,350,-1,4,-1,-1,310,50,,9999,0,0,1,FEW 15,-1,0,-1,4,1005,RJAF 290100Z 35004KT 310V050 9999 FEW015 M00/M04 Q1005 RMK     1CU015 A2970=,
20180129_020000.002,0,RJAF,,,,0,20180129020000,-1,-1,-1,-1,360,-1,5,-1,-1,320,50,,9999,0,0,2,FEW 45   SCT -9999,1,1,-1,4,1005,RJAF 290200Z 36005KT 320V050 9999 FEW045 SCT/// 01/M04 Q1005     RMK 1CU045 A2968=,
20180129_030000.002,0,RJAF,,,,0,20180129030000,-1,-1,-1,-1,999,-1,2,-1,-1,-1,-1,,9999,0,0,1,FEW 40,1,3,-1,4,1004,RJAF 290300Z VRB02KT 9999 FEW040 03/M04 Q1004 RMK 2CU040     A2966=,
20180129_040000.002,0,RJAF,,,,0,20180129040000,-1,-1,-1,-1,270,-1,12,-1,-1,240,310,,9999,0,0,1,FEW 50,1,5,-1,11,1003,RJAF 290400Z 27012KT 240V310 9999 FEW050 05/M11 Q1003 RMK     2CU050 A2962=,
20180129_050000.002,0,RJAF,,,,0,20180129050000,-1,-1,-1,-1,270,-1,8,-1,-1,230,290,,9999,0,0,1,FEW 60,1,5,-1,8,1003,RJAF 290500Z 27008KT 230V290 9999 FEW060 05/M08 Q1003 RMK     2CU060 A2962=,
20180129_060000.002,0,RJAF,,,,0,20180129060000,-1,-1,-1,-1,230,-1,8,-1,-1,180,270,,9999,0,1,2,FEW 40   SCT 60,1,3,-1,9,1003,RJAF 290600Z 23008KT 180V270 9999 -SHSN FEW040 SCT060 03/M09     Q1003 RMK 1CU040 3CU060 A2962=,- SN SH
20180129_070000.002,0,RJAF,,,,0,20180129070000,-1,-1,-1,-1,290,-1,8,-1,-1,250,310,,9999,0,1,3,FEW 40   SCT 50   BKN 60,1,2,-1,6,1003,RJAF 290700Z 29008KT 250V310 9999 -SHSN FEW040 SCT050 BKN060     02/M06 Q1003 RMK 1CU040 4CU050 5CU060 A2964=,- SN SH
20180129_233000.001,0,RJAF,,,,0,20180129230000,-1,-1,-1,-1,999,-1,2,-1,-1,-1,-1,,9999,0,0,1,FEW 40,-1,5,-1,11,1013,RJAF 292330Z VRB02KT 9999 FEW040 M05/M11 Q1013 RMK 1CU040     A2992=,
20180130_000000.002,0,RJAF,,,,0,20180130000000,-1,-1,-1,-1,999,-1,1,-1,-1,-1,-1,,9999,0,0,1,FEW 40,-1,4,-1,11,1013,RJAF 300000Z VRB01KT 9999 FEW040 M04/M11 Q1013 RMK 1CU040     A2993=,
20180130_010000.002,0,RJAF,,,,0,20180130010000,-1,-1,-1,-1,350,-1,4,-1,-1,270,30,,9999,0,0,1,FEW 40,-1,2,-1,10,1013,RJAF 300100Z 35004KT 270V030 9999 FEW040 M02/M10 Q1013 RMK     2CU040 A2993=,
20180130_020000.002,0,RJAF,,,,0,20180130020000,-1,-1,-1,-1,350,-1,6,-1,-1,310,20,,9999,0,0,2,FEW 35   SCT 60,-1,1,-1,9,1013,RJAF 300200Z 35006KT 310V020 9999 FEW035 SCT060 M01/M09 Q1013     RMK 1CU035 3CU060 A2992=,
20180130_030000.002,0,RJAF,,,,0,20180130030000,-1,-1,-1,-1,360,-1,5,-1,-1,310,40,,9999,0,0,1,FEW 60,-1,1,-1,11,1012,RJAF 300300Z 36005KT 310V040 9999 FEW060 M01/M11 Q1012 RMK     2CU060 A2989=,
20180130_040000.002,0,RJAF,,,,0,20180130040000,-1,-1,-1,-1,320,-1,5,-1,-1,280,360,,9999,0,0,1,FEW 60,1,0,-1,10,1011,RJAF 300400Z 32005KT 280V360 9999 FEW060 00/M10 Q1011 RMK     2CU060 A2987=,
20180130_050000.002,0,RJAF,,,,0,20180130050000,-1,-1,-1,-1,350,-1,6,-1,-1,310,40,,9999,0,0,1,FEW 60,1,0,-1,10,1012,RJAF 300500Z 35006KT 310V040 9999 FEW060 00/M10 Q1012 RMK     2CU060 A2988=,
20180130_060000.003,0,RJAF,,,,0,20180130060000,-1,-1,-1,-1,340,-1,5,-1,-1,290,60,,9999,0,0,1,FEW 60,1,1,-1,10,1012,RJAF 300600Z 34005KT 290V060 9999 FEW060 01/M10 Q1012 RMK     2CU060 A2989=,
20180130_070000.002,0,RJAF,,,,0,20180130070000,-1,-1,-1,-1,290,-1,11,-1,-1,260,330,,9999,0,0,1,FEW 60,1,1,-1,15,1013,RJAF 300700Z 29011KT 260V330 9999 FEW060 01/M15 Q1013 RMK     2CU060 A2991=,
20180130_233000.001,0,RJAF,,,,0,20180130230000,-1,-1,-1,-1,999,-1,2,-1,-1,-1,-1,,9999,0,0,1,FEW 60,-1,2,-1,10,1019,RJAF 302330Z VRB02KT 9999 FEW060 M02/M10 Q1019 RMK 1CU060     A3010=,
20180131_000000.002,0,RJAF,,,,0,20180131000000,-1,-1,-1,-1,999,-1,3,-1,-1,-1,-1,,9999,0,0,1,FEW 60,1,1,-1,10,1019,RJAF 310000Z VRB03KT 9999 FEW060 01/M10 Q1019 RMK 1CU060     A3010=,
20180131_010000.002,0,RJAF,,,,0,20180131010000,-1,-1,-1,-1,999,-1,3,-1,-1,-1,-1,,9999,0,0,1,FEW 60,-1,0,-1,10,1019,RJAF 310100Z VRB03KT 9999 FEW060 M00/M10 Q1019 RMK 1CU060     A3010=,
20180131_020000.002,0,RJAF,,,,0,20180131020000,-1,-1,-1,-1,180,-1,14,-1,-1,160,220,,9999,0,0,2,FEW 60   SCT -9999,1,4,-1,12,1018,RJAF 310200Z 18014KT 160V220 9999 FEW060 SCT/// 04/M12 Q1018     RMK 1CU060 A3008=,
20180131_030000.002,0,RJAF,,,,0,20180131030000,-1,-1,-1,-1,230,-1,13,-1,23,200,260,,9999,0,0,1,FEW 60,1,4,-1,12,1017,RJAF 310300Z 23013G23KT 200V260 9999 FEW060 04/M12 Q1017 RMK     2CU060 A3005=,
20180131_040000.002,0,RJAF,,,,0,20180131040000,-1,-1,-1,-1,230,-1,13,-1,25,200,270,,9999,0,0,1,FEW 60,1,5,-1,13,1016,RJAF 310400Z 23013G25KT 200V270 9999 FEW060 05/M13 Q1016 RMK     1CU060 A3002=,
20180131_050000.002,0,RJAF,,,,0,20180131050000,-1,-1,-1,-1,250,-1,10,-1,20,190,310,,9999,0,0,2,FEW 60   SCT -9999,1,5,-1,13,1016,RJAF 310500Z 25010G20KT 190V310 9999 FEW060 SCT/// 05/M13     Q1016 RMK 1CU060 A3002=,
20180131_060000.002,0,RJAF,,,,0,20180131060000,-1,-1,-1,-1,240,-1,12,-1,-1,-1,-1,,9999,0,0,2,FEW 60   BKN -9999,1,5,-1,12,1017,RJAF 310600Z 24012KT 9999 FEW060 BKN/// 05/M12 Q1017 RMK     1CU060 A3004=,
20180131_070000.003,0,RJAF,,,,0,20180131070000,-1,-1,-1,-1,250,-1,12,-1,-1,-1,-1,,9999,0,0,2,FEW 60   BKN -9999,1,4,-1,11,1017,RJAF 310700Z 25012KT 9999 FEW060 BKN/// 04/M11 Q1017 RMK     1CU060 A3005=,
20180131_233000.001,0,RJAF,,,,0,20180131230000,-1,-1,-1,-1,999,-1,1,-1,-1,-1,-1,,9999,0,0,3,FEW 15   SCT 20   BKN 30,-1,2,-1,5,1022,RJAF 312330Z VRB01KT 9999 FEW015 SCT020 BKN030 M02/M05 Q1022     RMK 1ST015 4SC020 7SC030 A3019=,
20180201_000000.003,0,RJAF,,,,0,20180201000000,-1,-1,-1,-1,999,-1,2,-1,-1,-1,-1,,9999,0,0,3,FEW 15   SCT 20   BKN 140,-1,2,-1,5,1022,RJAF 010000Z VRB02KT 9999 FEW015 SCT020 BKN140 M02/M05 Q1022     RMK 1ST015 3SC020 7AS140 A3020=,
20180201_010000.002,0,RJAF,,,,0,20180201010000,-1,-1,-1,-1,350,-1,3,-1,-1,-1,-1,,9999,0,0,3,FEW 15   SCT 20   BKN 80,-1,1,-1,4,1022,RJAF 010100Z 35003KT 9999 FEW015 SCT020 BKN080 M01/M04 Q1022     RMK 1ST015 3SC020 7AS080 A3021=,
20180201_020000.002,0,RJAF,,,,0,20180201020000,-1,-1,-1,-1,340,-1,4,-1,-1,310,20,,9999,0,0,3,FEW 20   SCT 30   BKN 80,-1,0,-1,4,1022,RJAF 010200Z 34004KT 310V020 9999 FEW020 SCT030 BKN080 M00/M04     Q1022 RMK 1CU020 3SC030 7AS080 A3019=,
20180201_030000.003,0,RJAF,,,,0,20180201030000,-1,-1,-1,-1,340,-1,6,-1,-1,-1,-1,,9999,0,0,3,FEW 20   SCT 30   BKN 70,-1,1,-1,5,1022,RJAF 010300Z 34006KT 9999 FEW020 SCT030 BKN070 M01/M05 Q1022     RMK 1CU020 3SC030 7AS070 A3018=,
20180201_040000.003,0,RJAF,,,,0,20180201040000,-1,-1,-1,-1,320,-1,6,-1,-1,-1,-1,,4000,0,1,3,FEW 10   SCT 15   BKN 25,-1,1,-1,4,1021,RJAF 010400Z 32006KT 4000 -SN FEW010 SCT015 BKN025 M01/M04     Q1021 RMK 1ST010 4ST015 6SC025 A3017=,- SN
20180201_050000.002,0,RJAF,,,,0,20180201050000,-1,-1,-1,-1,280,-1,3,-1,-1,240,310,,1000,0,1,3,FEW 5   SCT 8   BKN 10,-1,2,-1,3,1021,RJAF 010500Z 28003KT 240V310 1000 -SN FEW005 SCT008 BKN010     M02/M03 Q1021 RMK 1ST005 3ST008 7ST010 A3016=,- SN
20180201_060000.002,0,RJAF,,,,0,20180201060000,-1,-1,-1,-1,999,-1,2,-1,-1,-1,-1,,1000,0,1,3,FEW 5   SCT 8   BKN 10,-1,2,-1,3,1021,RJAF 010600Z VRB02KT 1000 -SN FEW005 SCT008 BKN010 M02/M03     Q1021 RMK 1ST005 4ST008 6ST010 A3016=,- SN
20180201_070000.002,0,RJAF,,,,0,20180201070000,-1,-1,-1,-1,320,-1,3,-1,-1,250,360,,2000,0,1,3,FEW 6   SCT 8   BKN 10,-1,2,-1,3,1021,RJAF 010700Z 32003KT 250V360 2000 -SN FEW006 SCT008 BKN010     M02/M03 Q1021 RMK 1ST006 3ST008 6ST010 A3016=,- SN
20180201_233000.001,0,RJAF,,,,0,20180201230000,-1,-1,-1,-1,330,-1,4,-1,-1,-1,-1,,5000,0,1,3,FEW 5   BKN 15   BKN 20,-1,3,-1,4,1022,RJAF 012330Z 33004KT 5000 -SN FEW005 BKN015 BKN020 M03/M04     Q1022 RMK 1ST005 5ST015 6SC020 A3019=,- SN
20180202_000000.002,0,RJAF,,,,0,20180202000000,-1,-1,-1,-1,310,-1,4,-1,-1,-1,-1,,5000,0,1,3,FEW 5   BKN 10   BKN 20,-1,3,-1,4,1022,RJAF 020000Z 31004KT 5000 -SN FEW005 BKN010 BKN020 M03/M04     Q1022 RMK 1ST005 5ST010 6SC020 A3019=,- SN
20180202_010000.002,0,RJAF,,,,0,20180202010000,-1,-1,-1,-1,350,-1,3,-1,-1,-1,-1,,5000,0,1,3,FEW 6   BKN 10   BKN 50,-1,3,-1,5,1022,RJAF 020100Z 35003KT 5000 -SN FEW006 BKN010 BKN050 M03/M05     Q1022 RMK 1ST006 5ST010 7SC050 A3018=,- SN
20180202_020000.002,0,RJAF,,,,0,20180202020000,-1,-1,-1,-1,999,-1,2,-1,-1,-1,-1,,9999,0,1,3,FEW 6   SCT 15   BKN 50,-1,2,-1,5,1021,RJAF 020200Z VRB02KT 9999 -SHSN FEW006 SCT015 BKN050 M02/M05     Q1021 RMK 1ST006 3CU015 6CU050 A3016=,- SN SH
20180202_030000.002,0,RJAF,,,,0,20180202030000,-1,-1,-1,-1,999,-1,1,-1,-1,-1,-1,,9999,0,0,3,FEW 12   SCT 50   BKN 60,-1,2,-1,5,1020,RJAF 020300Z VRB01KT 9999 FEW012 SCT050 BKN060 M02/M05 Q1020     RMK 1ST012 3CU050 6CU060 A3015=,
20180202_040000.002,0,RJAF,,,,0,20180202040000,-1,-1,-1,-1,0,-1,0,-1,-1,-1,-1,,9999,0,1,3,FEW 12   SCT 35   BKN 50,-1,0,-1,5,1020,RJAF 020400Z 00000KT 9999 -SHSN FEW012 SCT035 BKN050 M00/M05     Q1020 RMK 1ST012 3CU035 5CU050 A3013=,- SN SH
20180202_050000.001,0,RJAF,,,,0,20180202050000,-1,-1,-1,-1,330,-1,3,-1,-1,-1,-1,,9999,0,0,3,FEW 15   SCT 35   BKN 50,-1,0,-1,5,1019,RJAF 020500Z 33003KT 9999 FEW015 SCT035 BKN050 M00/M05 Q1019     RMK 1CU015 3CU035 5CU050 A3011=,
20180202_060000.002,0,RJAF,,,,0,20180202060000,-1,-1,-1,-1,999,-1,2,-1,-1,-1,-1,,9999,0,0,2,FEW 20   BKN 50,1,0,-1,4,1019,RJAF 020600Z VRB02KT 9999 FEW020 BKN050 00/M04 Q1019 RMK     2CU020 5CU050 A3011=,
20180202_070000.002,0,RJAF,,,,0,20180202070000,-1,-1,-1,-1,999,-1,2,-1,-1,-1,-1,,9999,0,0,3,FEW 15   SCT 35   BKN 50,1,0,-1,4,1019,RJAF 020700Z VRB02KT 9999 FEW015 SCT035 BKN050 00/M04 Q1019     RMK 1ST015 3CU035 7SC050 A3011=,
20180202_233000.001,0,RJAF,,,,0,20180202230000,-1,-1,-1,-1,0,-1,0,-1,-1,-1,-1,,8000,0,0,3,FEW 30   SCT 80   BKN -9999,-1,5,-1,6,1013,RJAF 022330Z 00000KT 8000 FEW030 SCT080 BKN/// M05/M06 Q1013     RMK 1CU030 3AC080 A2994=,
20180203_000000.002,0,RJAF,,,,0,20180203000000,-1,-1,-1,-1,999,-1,2,-1,-1,-1,-1,,900,0,1,2,FEW 30   BKN -9999,-1,5,-1,6,1013,RJAF 030000Z VRB02KT 0900 FZFG FEW030 BKN/// M05/M06 Q1013 RMK     1CU030 A2994 9999SW-W=,FZ FG
20180203_010000.003,0,RJAF,,,,0,20180203010000,-1,-1,-1,-1,999,-1,1,-1,-1,-1,-1,,6000,0,0,2,FEW 1   BKN -9999,-1,2,-1,4,1013,RJAF 030100Z VRB01KT 6000 FEW001 BKN/// M02/M04 Q1013 RMK     1ST001 A2993=,
20180203_020000.002,0,RJAF,,,,0,20180203020000,-1,-1,-1,-1,10,-1,4,-1,-1,330,60,,9999,0,0,3,FEW 40   SCT 60   BKN -9999,-1,0,-1,4,1012,RJAF 030200Z 01004KT 330V060 9999 FEW040 SCT060 BKN/// M00/M04     Q1012 RMK 1CU040 3CU060 A2990=,
20180203_030000.002,0,RJAF,,,,0,20180203030000,-1,-1,-1,-1,340,-1,4,-1,-1,-1,-1,,9999,0,0,3,FEW 40   SCT 60   BKN -9999,1,2,-1,3,1011,RJAF 030300Z 34004KT 9999 FEW040 SCT060 BKN/// 02/M03 Q1011     RMK 1CU040 3CU060 A2986=,
20180203_040000.002,0,RJAF,,,,0,20180203040000,-1,-1,-1,-1,10,-1,3,-1,-1,250,50,,9999,0,0,3,FEW 40   SCT 60   BKN -9999,1,5,-1,4,1010,RJAF 030400Z 01003KT 250V050 9999 FEW040 SCT060 BKN/// 05/M04     Q1010 RMK 1CU040 3CU060 A2982=,
20180203_050000.002,0,RJAF,,,,0,20180203050000,-1,-1,-1,-1,999,-1,2,-1,-1,-1,-1,,9999,0,0,2,FEW 40   SCT 60,1,6,-1,6,1009,RJAF 030500Z VRB02KT 9999 FEW040 SCT060 06/M06 Q1009 RMK     1CU040 3CU060 A2982=,
20180203_060000.002,0,RJAF,,,,0,20180203060000,-1,-1,-1,-1,290,-1,12,-1,-1,250,310,,9999,0,0,2,FEW 50   SCT 60,1,5,-1,6,1009,RJAF 030600Z 29012KT 250V310 9999 FEW050 SCT060 05/M06 Q1009     RMK 1CU050 3CU060 A2982=,
20180203_070000.003,0,RJAF,,,,0,20180203070000,-1,-1,-1,-1,300,-1,12,-1,-1,-1,-1,,9999,0,0,2,FEW 50   SCT 70,1,5,-1,8,1010,RJAF 030700Z 30012KT 9999 FEW050 SCT070 05/M08 Q1010 RMK     1CU050 3AC070 A2983=,
20180203_233000.001,0,RJAF,,,,0,20180203230000,-1,-1,-1,-1,150,-1,9,-1,-1,-1,-1,,9999,0,0,2,FEW 35   SCT 50,-1,1,-1,8,1009,RJAF 032330Z 15009KT 9999 FEW035 SCT050 M01/M08 Q1009 RMK     1CU035 3CU050 A2980=,
20180204_000000.002,0,RJAF,,,,0,20180204000000,-1,-1,-1,-1,160,-1,12,-1,-1,-1,-1,,9999,0,1,2,FEW 35   SCT 50,-1,0,-1,9,1009,RJAF 040000Z 16012KT 9999 VCSH FEW035 SCT050 M00/M09 Q1009 RMK     1CU035 3CU050 A2980=,VC SH
20180204_010000.002,0,RJAF,,,,0,20180204010000,-1,-1,-1,-1,190,-1,13,-1,-1,-1,-1,,9999,0,1,1,FEW 50,1,1,-1,9,1008,RJAF 040100Z 19013KT 9999 VCSH FEW050 01/M09 Q1008 RMK 2CU050     A2978=,VC SH
20180204_020000.002,0,RJAF,,,,0,20180204020000,-1,-1,-1,-1,170,-1,16,-1,-1,-1,-1,,9999,0,1,2,FEW 40   SCT 50,1,1,-1,8,1007,RJAF 040200Z 17016KT 9999 -SHSN FEW040 SCT050 01/M08 Q1007 RMK     1CU040 4CU050 A2976=,- SN SH
20180204_030000.002,0,RJAF,,,,0,20180204030000,-1,-1,-1,-1,190,-1,15,-1,-1,-1,-1,,9999,0,1,3,FEW 20   SCT 35   BKN 50,-1,1,-1,7,1006,RJAF 040300Z 19015KT 9999 -SHSN FEW020 SCT035 BKN050 M01/M07     Q1006 RMK 1CU020 3CU035 5CU050 A2973 4000SW=,- SN SH
20180204_040000.002,0,RJAF,,,,0,20180204040000,-1,-1,-1,-1,180,-1,13,-1,-1,-1,-1,,9999,0,1,2,FEW 30   SCT 50,-1,0,-1,7,1006,RJAF 040400Z 18013KT 9999 -SHSN FEW030 SCT050 M00/M07 Q1006     RMK 1CU030 4CU050 A2973=,- SN SH
20180204_050000.002,0,RJAF,,,,0,20180204050000,-1,-1,-1,-1,190,-1,7,-1,-1,-1,-1,,9999,0,1,2,FEW 40   SCT 50,1,1,-1,8,1006,RJAF 040500Z 19007KT 9999 VCSH FEW040 SCT050 01/M08 Q1006 RMK     1CU040 3CU050 A2972=,VC SH
20180204_060000.002,0,RJAF,,,,0,20180204060000,-1,-1,-1,-1,170,-1,6,-1,-1,100,210,,9999,0,1,1,FEW 50,1,1,-1,12,1006,RJAF 040600Z 17006KT 100V210 9999 VCSH FEW050 01/M12 Q1006 RMK     2CU050 A2972=,VC SH
20180204_070000.002,0,RJAF,,,,0,20180204070000,-1,-1,-1,-1,190,-1,10,-1,-1,160,220,,9999,0,1,1,FEW 50,-1,0,-1,9,1006,RJAF 040700Z 19010KT 160V220 9999 VCSH FEW050 M00/M09 Q1006     RMK 2CU050 A2973=,VC SH
20180204_233000.001,0,RJAF,,,,0,20180204230000,-1,-1,-1,-1,200,-1,3,-1,-1,170,230,,9999,0,0,1,FEW 15,-1,4,-1,10,1010,RJAF 042330Z 20003KT 170V230 9999 FEW015 M04/M10 Q1010 RMK     1ST015 A2982=,
20180205_000000.003,0,RJAF,,,,0,20180205000000,-1,-1,-1,-1,180,-1,5,-1,-1,140,250,,9999,0,0,1,FEW 20,-1,3,-1,10,1009,RJAF 050000Z 18005KT 140V250 9999 FEW020 M03/M10 Q1009 RMK     1CU020 A2982=,
20180205_010000.002,0,RJAF,,,,0,20180205010000,-1,-1,-1,-1,170,-1,17,-1,-1,-1,-1,,9999,0,1,2,FEW 20   BKN 60,-1,1,-1,9,1009,RJAF 050100Z 17017KT 9999 VCSH FEW020 BKN060 M01/M09 Q1009 RMK     1CU020 5CU060 A2981=,VC SH
20180205_020000.002,0,RJAF,,,,0,20180205020000,-1,-1,-1,-1,180,-1,14,-1,-1,-1,-1,,9999,0,1,3,FEW 20   SCT 40   BKN 60,-1,1,-1,9,1008,RJAF 050200Z 18014KT 9999 VCSH FEW020 SCT040 BKN060 M01/M09     Q1008 RMK 1CU020 4CU040 6CU060 A2979=,VC SH
