20180101_000000.003,0,RJAW,,,,0,20180101000000,-1,-1,-1,-1,210,-1,6,-1,-1,-1,-1,,9999,0,0,1,FEW 50,1,22,1,14,1016,RJAW 010000Z 21006KT 9999 FEW050 22/14 Q1016 RMK 1SC050 A3001=,
20180101_010000.003,0,RJAW,,,,0,20180101010000,-1,-1,-1,-1,240,-1,8,-1,-1,-1,-1,,9999,0,0,1,FEW 50,1,22,1,14,1016,RJAW 010100Z 24008KT 9999 FEW050 22/14 Q1016 RMK 1SC050 A3000=,
20180101_020000.003,0,RJAW,,,,0,20180101020000,-1,-1,-1,-1,260,-1,11,-1,-1,-1,-1,,9999,0,0,1,FEW 30,1,22,1,15,1015,RJAW 010200Z 26011KT 9999 FEW030 22/15 Q1015 RMK 2CU030 A2998=,
20180101_030000.003,0,RJAW,,,,0,20180101030000,-1,-1,-1,-1,270,-1,13,-1,-1,-1,-1,,9999,0,0,2,FEW 15   BKN 30,1,23,1,16,1014,RJAW 010300Z 27013KT 9999 FEW015 BKN030 23/16 Q1014 RMK 1CU015     5CU030 A2995=,
20180101_040000.003,0,RJAW,,,,0,20180101040000,-1,-1,-1,-1,270,-1,11,-1,-1,-1,-1,,9999,0,0,2,FEW 30   SCT 50,1,22,1,16,1013,RJAW 010400Z 27011KT 9999 FEW030 SCT050 22/16 Q1013 RMK 2CU030     3SC050 A2993=,
20180101_050000.003,0,RJAW,,,,0,20180101050000,-1,-1,-1,-1,290,-1,11,-1,-1,-1,-1,,9999,0,0,1,SCT 30,1,22,1,16,1013,RJAW 010500Z 29011KT 9999 SCT030 22/16 Q1013 RMK 3CU030 A2992=,
20180101_060000.003,0,RJAW,,,,0,20180101060000,-1,-1,-1,-1,340,-1,11,-1,-1,-1,-1,,9999,0,1,2,SCT 10   BKN 30,1,20,1,18,1013,RJAW 010600Z 34011KT 9999 -SHRA SCT010 BKN030 20/18 Q1013 RMK     3CU010 7CU030 A2993=,- RA SH
20180101_070000.003,0,RJAW,,,,0,20180101070000,-1,-1,-1,-1,350,-1,10,-1,-1,-1,-1,,9999,0,1,2,SCT 10   BKN 30,1,19,1,18,1013,RJAW 010700Z 35010KT 9999 -SHRA SCT010 BKN030 19/18 Q1013 RMK     3CU010 7CU030 A2993=,- RA SH
20180101_080000.003,0,RJAW,,,,0,20180101080000,-1,-1,-1,-1,360,-1,10,-1,-1,-1,-1,,9999,0,0,2,FEW 10   BKN 30,1,19,1,17,1014,RJAW 010800Z 36010KT 9999 FEW010 BKN030 19/17 Q1014 RMK 2CU010     6CU030 A2994=,
20180101_090000.003,0,RJAW,,,,0,20180101090000,-1,-1,-1,-1,360,-1,12,-1,-1,-1,-1,,9999,0,0,2,FEW 10   BKN 30,1,19,1,16,1014,RJAW 010900Z 36012KT 9999 FEW010 BKN030 19/16 Q1014 RMK 1CU010     5CU030 A2995=,
20180101_100000.003,0,RJAW,,,,0,20180101100000,-1,-1,-1,-1,-1,-1,-1,-1,-1,-1,-1,,-1,0,0,0,,0,-1,0,-1,-1,RJAW 011000Z NIL=,
20180101_110000.003,0,RJAW,,,,0,20180101110000,-1,-1,-1,-1,-1,-1,-1,-1,-1,-1,-1,,-1,0,0,0,,0,-1,0,-1,-1,RJAW 011100Z NIL=,
20180101_120000.003,0,RJAW,,,,0,20180101120000,-1,-1,-1,-1,360,-1,13,-1,-1,-1,-1,,9999,0,0,1,SCT 30,1,19,1,14,1015,RJAW 011200Z 36013KT 9999 SCT030 19/14 Q1015 RMK 4CU030 A2999=,
20180101_130000.003,0,RJAW,,,,0,20180101130000,-1,-1,-1,-1,-1,-1,-1,-1,-1,-1,-1,,-1,0,0,0,,0,-1,0,-1,-1,RJAW 011300Z NIL=,
20180101_140000.003,0,RJAW,,,,0,20180101140000,-1,-1,-1,-1,-1,-1,-1,-1,-1,-1,-1,,-1,0,0,0,,0,-1,0,-1,-1,RJAW 011400Z NIL=,
20180101_150000.003,0,RJAW,,,,0,20180101150000,-1,-1,-1,-1,10,-1,14,-1,-1,-1,-1,,9999,0,0,1,FEW 30,1,19,1,14,1015,RJAW 011500Z 01014KT 9999 FEW030 19/14 Q1015 RMK 1CU030 A2999=,
20180101_160000.003,0,RJAW,,,,0,20180101160000,-1,-1,-1,-1,-1,-1,-1,-1,-1,-1,-1,,-1,0,0,0,,0,-1,0,-1,-1,RJAW 011600Z NIL=,
20180101_170000.003,0,RJAW,,,,0,20180101170000,-1,-1,-1,-1,-1,-1,-1,-1,-1,-1,-1,,-1,0,0,0,,0,-1,0,-1,-1,RJAW 011700Z NIL=,
20180101_180000.004,0,RJAW,,,,0,20180101180000,-1,-1,-1,-1,360,-1,16,-1,-1,-1,-1,,9999,0,0,1,FEW 30,1,18,1,12,1015,RJAW 011800Z 36016KT 9999 FEW030 18/12 Q1015 RMK 1CU030 A2997=,
20180101_190000.004,0,RJAW,,,,0,20180101190000,-1,-1,-1,-1,-1,-1,-1,-1,-1,-1,-1,,-1,0,0,0,,0,-1,0,-1,-1,RJAW 011900Z NIL=,
20180101_200000.004,0,RJAW,,,,0,20180101200000,-1,-1,-1,-1,360,-1,14,-1,24,-1,-1,,9999,0,0,1,SCT 30,1,18,1,11,1015,RJAW 012000Z 36014G24KT 9999 SCT030 18/11 Q1015 RMK 3CU030     A2998=,
20180101_210000.003,0,RJAW,,,,0,20180101210000,-1,-1,-1,-1,360,-1,13,-1,-1,-1,-1,,9999,0,0,1,SCT 30,1,18,1,11,1016,RJAW 012100Z 36013KT 9999 SCT030 18/11 Q1016 RMK 3CU030 A3001=,
20180101_220000.003,0,RJAW,,,,0,20180101220000,-1,-1,-1,-1,350,-1,12,-1,-1,-1,-1,,9999,0,0,2,FEW 10   BKN 30,1,18,1,11,1016,RJAW 012200Z 35012KT 9999 FEW010 BKN030 18/11 Q1016 RMK 2CU010     5CU030 A3003=,
20180101_230000.003,0,RJAW,,,,0,20180101230000,-1,-1,-1,-1,360,-1,13,-1,-1,-1,-1,,9999,0,0,2,FEW 10   BKN 30,1,19,1,10,1017,RJAW 012300Z 36013KT 9999 FEW010 BKN030 19/10 Q1017 RMK 1CU010     5CU030 A3006=,
20180102_000000.004,0,RJAW,,,,0,20180102000000,-1,-1,-1,-1,10,-1,14,-1,-1,-1,-1,,9999,0,0,2,FEW 20   BKN 30,1,19,1,10,1018,RJAW 020000Z 01014KT 9999 FEW020 BKN030 19/10 Q1018 RMK 1CU020     5CU030 A3007=,
20180102_010000.004,0,RJAW,,,,0,20180102010000,-1,-1,-1,-1,360,-1,14,-1,-1,-1,-1,,9999,0,0,2,FEW 20   SCT 30,1,20,1,9,1018,RJAW 020100Z 36014KT 9999 FEW020 SCT030 20/09 Q1018 RMK 1CU020     3CU030 A3007=,
20180102_020000.003,0,RJAW,,,,0,20180102020000,-1,-1,-1,-1,360,-1,12,-1,-1,-1,-1,,9999,0,0,2,FEW 20   SCT 30,1,21,1,10,1017,RJAW 020200Z 36012KT 9999 FEW020 SCT030 21/10 Q1017 RMK 1CU020     3CU030 A3005=,
20180102_030000.003,0,RJAW,,,,0,20180102030000,-1,-1,-1,-1,10,-1,15,-1,-1,-1,-1,,9999,0,0,2,FEW 20   BKN 30,1,20,1,11,1017,RJAW 020300Z 01015KT 9999 FEW020 BKN030 20/11 Q1017 RMK 1CU020     6CU030 A3004=,
20180102_040000.003,0,RJAW,,,,0,20180102040000,-1,-1,-1,-1,360,-1,14,-1,-1,-1,-1,,9999,0,0,2,FEW 20   BKN 30,1,20,1,10,1016,RJAW 020400Z 36014KT 9999 FEW020 BKN030 20/10 Q1016 RMK 1CU020     5CU030 A3002=,
20180102_050000.003,0,RJAW,,,,0,20180102050000,-1,-1,-1,-1,350,-1,12,-1,-1,-1,-1,,9999,0,0,2,FEW 20   SCT 30,1,21,1,9,1016,RJAW 020500Z 35012KT 9999 FEW020 SCT030 21/09 Q1016 RMK 1CU020     3CU030 A3002=,
20180102_060000.003,0,RJAW,,,,0,20180102060000,-1,-1,-1,-1,360,-1,10,-1,-1,330,30,,9999,0,0,2,FEW 20   BKN 30,1,19,1,11,1016,RJAW 020600Z 36010KT 330V030 9999 FEW020 BKN030 19/11 Q1016     RMK 1CU020 7CU030 A3002=,
20180102_070000.003,0,RJAW,,,,0,20180102070000,-1,-1,-1,-1,10,-1,12,-1,-1,-1,-1,,9999,0,0,2,FEW 20   BKN 30,1,19,1,9,1016,RJAW 020700Z 01012KT 9999 FEW020 BKN030 19/09 Q1016 RMK 1CU020     5CU030 A3003=,
20180102_080000.003,0,RJAW,,,,0,20180102080000,-1,-1,-1,-1,20,-1,14,-1,-1,-1,-1,,9999,0,0,2,FEW 20   BKN 30,1,18,1,11,1017,RJAW 020800Z 02014KT 9999 FEW020 BKN030 18/11 Q1017 RMK 1CU020     6CU030 A3003=,
20180102_090000.003,0,RJAW,,,,0,20180102090000,-1,-1,-1,-1,10,-1,14,-1,-1,-1,-1,,9999,0,0,2,FEW 20   BKN 30,1,18,1,10,1017,RJAW 020900Z 01014KT 9999 FEW020 BKN030 18/10 Q1017 RMK 1CU020     7CU030 A3005=,
20180102_100000.003,0,RJAW,,,,0,20180102100000,-1,-1,-1,-1,-1,-1,-1,-1,-1,-1,-1,,-1,0,0,0,,0,-1,0,-1,-1,RJAW 021000Z NIL=,
20180102_110000.003,0,RJAW,,,,0,20180102110000,-1,-1,-1,-1,-1,-1,-1,-1,-1,-1,-1,,-1,0,0,0,,0,-1,0,-1,-1,RJAW 021100Z NIL=,
20180102_120000.003,0,RJAW,,,,0,20180102120000,-1,-1,-1,-1,10,-1,13,-1,-1,-1,-1,,9999,0,0,2,FEW 20   BKN 30,1,18,1,9,1018,RJAW 021200Z 01013KT 9999 FEW020 BKN030 18/09 Q1018 RMK 1CU020     7CU030 A3008=,
20180102_130000.004,0,RJAW,,,,0,20180102130000,-1,-1,-1,-1,-1,-1,-1,-1,-1,-1,-1,,-1,0,0,0,,0,-1,0,-1,-1,RJAW 021300Z NIL=,
20180102_140000.004,0,RJAW,,,,0,20180102140000,-1,-1,-1,-1,-1,-1,-1,-1,-1,-1,-1,,-1,0,0,0,,0,-1,0,-1,-1,RJAW 021400Z NIL=,
20180102_150000.003,0,RJAW,,,,0,20180102150000,-1,-1,-1,-1,20,-1,11,-1,-1,-1,-1,,9999,0,0,2,FEW 20   BKN 30,1,17,1,8,1017,RJAW 021500Z 02011KT 9999 FEW020 BKN030 17/08 Q1017 RMK 1CU020     7CU030 A3004=,
20180102_160000.003,0,RJAW,,,,0,20180102160000,-1,-1,-1,-1,-1,-1,-1,-1,-1,-1,-1,,-1,0,0,0,,0,-1,0,-1,-1,RJAW 021600Z NIL=,
20180102_170000.003,0,RJAW,,,,0,20180102170000,-1,-1,-1,-1,-1,-1,-1,-1,-1,-1,-1,,-1,0,0,0,,0,-1,0,-1,-1,RJAW 021700Z NIL=,
20180102_180000.004,0,RJAW,,,,0,20180102180000,-1,-1,-1,-1,360,-1,5,-1,-1,320,20,,9999,0,0,2,FEW 20   SCT 30,1,17,1,10,1016,RJAW 021800Z 36005KT 320V020 9999 FEW020 SCT030 17/10 Q1016     RMK 1CU020 4CU030 A3002=,
20180102_190000.003,0,RJAW,,,,0,20180102190000,-1,-1,-1,-1,-1,-1,-1,-1,-1,-1,-1,,-1,0,0,0,,0,-1,0,-1,-1,RJAW 021900Z NIL=,
20180102_200000.004,0,RJAW,,,,0,20180102200000,-1,-1,-1,-1,350,-1,8,-1,-1,-1,-1,,9999,0,0,2,FEW 20   SCT 30,1,17,1,9,1016,RJAW 022000Z 35008KT 9999 FEW020 SCT030 17/09 Q1016 RMK 1CU020     4CU030 A3003=,
20180102_210000.003,0,RJAW,,,,0,20180102210000,-1,-1,-1,-1,350,-1,8,-1,-1,-1,-1,,9999,0,0,1,FEW 30,1,17,1,9,1017,RJAW 022100Z 35008KT 9999 FEW030 17/09 Q1017 RMK 2CU030 A3004=,
20180102_220000.003,0,RJAW,,,,0,20180102220000,-1,-1,-1,-1,350,-1,9,-1,-1,-1,-1,,9999,0,0,2,FEW 20   BKN 30,1,17,1,10,1018,RJAW 022200Z 35009KT 9999 FEW020 BKN030 17/10 Q1018 RMK 1CU020     6CU030 A3006=,
20180102_230000.003,0,RJAW,,,,0,20180102230000,-1,-1,-1,-1,350,-1,8,-1,-1,300,20,,9999,0,0,2,FEW 20   SCT 30,1,18,1,10,1018,RJAW 022300Z 35008KT 300V020 9999 FEW020 SCT030 18/10 Q1018     RMK 1CU020 4CU030 A3008=,
20180103_000000.003,0,RJAW,,,,0,20180103000000,-1,-1,-1,-1,350,-1,9,-1,-1,-1,-1,,9999,0,0,2,FEW 20   BKN 30,1,19,1,10,1019,RJAW 030000Z 35009KT 9999 FEW020 BKN030 19/10 Q1019 RMK 1CU020     6CU030 A3009=,
20180103_010000.003,0,RJAW,,,,0,20180103010000,-1,-1,-1,-1,330,-1,13,-1,-1,-1,-1,,9999,0,0,2,FEW 20   SCT 30,1,18,1,10,1018,RJAW 030100Z 33013KT 9999 FEW020 SCT030 18/10 Q1018 RMK 1CU020     4CU030 A3009=,
20180103_020000.003,0,RJAW,,,,0,20180103020000,-1,-1,-1,-1,350,-1,12,-1,-1,-1,-1,,9999,0,0,2,FEW 20   SCT 30,1,20,1,10,1018,RJAW 030200Z 35012KT 9999 FEW020 SCT030 20/10 Q1018 RMK 2CU020     4CU030 A3007=,
20180103_030000.004,0,RJAW,,,,0,20180103030000,-1,-1,-1,-1,350,-1,12,-1,-1,-1,-1,,9999,0,0,2,FEW 20   BKN 30,1,20,1,10,1017,RJAW 030300Z 35012KT 9999 FEW020 BKN030 20/10 Q1017 RMK 2CU020     6CU030 A3005=,
20180103_040000.003,0,RJAW,,,,0,20180103040000,-1,-1,-1,-1,340,-1,13,-1,-1,310,10,,9999,0,0,2,FEW 20   SCT 30,1,20,1,10,1016,RJAW 030400Z 34013KT 310V010 9999 FEW020 SCT030 20/10 Q1016     RMK 1CU020 3CU030 A3003=,
20180103_050000.003,0,RJAW,,,,0,20180103050000,-1,-1,-1,-1,330,-1,13,-1,-1,-1,-1,,9999,0,0,2,FEW 20   SCT 30,1,20,1,10,1016,RJAW 030500Z 33013KT 9999 FEW020 SCT030 20/10 Q1016 RMK 1CU020     3CU030 A3001=,
20180103_060000.003,0,RJAW,,,,0,20180103060000,-1,-1,-1,-1,340,-1,13,-1,-1,-1,-1,,9999,0,0,2,FEW 20   SCT 30,1,20,1,10,1016,RJAW 030600Z 34013KT 9999 FEW020 SCT030 20/10 Q1016 RMK 1CU020     3CU030 A3001=,
20180103_070000.003,0,RJAW,,,,0,20180103070000,-1,-1,-1,-1,340,-1,11,-1,-1,-1,-1,,9999,0,0,2,FEW 20   SCT 30,1,19,1,10,1016,RJAW 030700Z 34011KT 9999 FEW020 SCT030 19/10 Q1016 RMK 1CU020     4CU030 A3002=,
20180103_080000.003,0,RJAW,,,,0,20180103080000,-1,-1,-1,-1,340,-1,13,-1,-1,-1,-1,,9999,0,0,2,FEW 20   SCT 30,1,19,1,10,1016,RJAW 030800Z 34013KT 9999 FEW020 SCT030 19/10 Q1016 RMK 1CU020     4CU030 A3002=,
20180103_090000.003,0,RJAW,,,,0,20180103090000,-1,-1,-1,-1,350,-1,11,-1,-1,-1,-1,,9999,0,0,2,FEW 20   SCT 30,1,18,1,10,1016,RJAW 030900Z 35011KT 9999 FEW020 SCT030 18/10 Q1016 RMK 1CU020     3CU030 A3003=,
20180103_100000.003,0,RJAW,,,,0,20180103100000,-1,-1,-1,-1,-1,-1,-1,-1,-1,-1,-1,,-1,0,0,0,,0,-1,0,-1,-1,RJAW 031000Z NIL=,
20180103_110000.003,0,RJAW,,,,0,20180103110000,-1,-1,-1,-1,-1,-1,-1,-1,-1,-1,-1,,-1,0,0,0,,0,-1,0,-1,-1,RJAW 031100Z NIL=,
20180103_120000.003,0,RJAW,,,,0,20180103120000,-1,-1,-1,-1,350,-1,14,-1,-1,-1,-1,,9999,0,0,2,FEW 20   SCT 30,1,18,1,11,1017,RJAW 031200Z 35014KT 9999 FEW020 SCT030 18/11 Q1017 RMK 1CU020     3CU030 A3004=,
20180103_130000.004,0,RJAW,,,,0,20180103130000,-1,-1,-1,-1,-1,-1,-1,-1,-1,-1,-1,,-1,0,0,0,,0,-1,0,-1,-1,RJAW 031300Z NIL=,
20180103_140000.003,0,RJAW,,,,0,20180103140000,-1,-1,-1,-1,-1,-1,-1,-1,-1,-1,-1,,-1,0,0,0,,0,-1,0,-1,-1,RJAW 031400Z NIL=,
20180103_150000.003,0,RJAW,,,,0,20180103150000,-1,-1,-1,-1,340,-1,13,-1,-1,-1,-1,,9999,0,0,1,FEW 30,1,18,1,10,1016,RJAW 031500Z 34013KT 9999 FEW030 18/10 Q1016 RMK 2CU030 A3002=,
20180103_160000.003,0,RJAW,,,,0,20180103160000,-1,-1,-1,-1,-1,-1,-1,-1,-1,-1,-1,,-1,0,0,0,,0,-1,0,-1,-1,RJAW 031600Z NIL=,
20180103_170000.003,0,RJAW,,,,0,20180103170000,-1,-1,-1,-1,-1,-1,-1,-1,-1,-1,-1,,-1,0,0,0,,0,-1,0,-1,-1,RJAW 031700Z NIL=,
20180103_180000.003,0,RJAW,,,,0,20180103180000,-1,-1,-1,-1,350,-1,12,-1,-1,-1,-1,,9999,0,0,2,FEW 10   BKN 30,1,18,1,13,1015,RJAW 031800Z 35012KT 9999 FEW010 BKN030 18/13 Q1015 RMK 2CU010     7CU030 A2999=,
20180103_190000.003,0,RJAW,,,,0,20180103190000,-1,-1,-1,-1,-1,-1,-1,-1,-1,-1,-1,,-1,0,0,0,,0,-1,0,-1,-1,RJAW 031900Z NIL=,
20180103_200000.003,0,RJAW,,,,0,20180103200000,-1,-1,-1,-1,350,-1,13,-1,-1,-1,-1,,9999,0,0,2,FEW 10   BKN 30,1,18,1,11,1015,RJAW 032000Z 35013KT 9999 FEW010 BKN030 18/11 Q1015 RMK 1CU010     7CU030 A2999=,
20180103_210000.004,0,RJAW,,,,0,20180103210000,-1,-1,-1,-1,350,-1,12,-1,22,-1,-1,,9999,0,0,2,FEW 10   BKN 30,1,18,1,11,1016,RJAW 032100Z 35012G22KT 9999 FEW010 BKN030 18/11 Q1016 RMK     2CU010 7CU030 A3001=,
20180103_220000.003,0,RJAW,,,,0,20180103220000,-1,-1,-1,-1,350,-1,13,-1,23,-1,-1,,9999,0,0,2,FEW 10   BKN 30,1,18,1,11,1016,RJAW 032200Z 35013G23KT 9999 FEW010 BKN030 18/11 Q1016 RMK     2CU010 6CU030 A3002=,
20180103_230000.003,0,RJAW,,,,0,20180103230000,-1,-1,-1,-1,350,-1,12,-1,22,-1,-1,,9999,0,0,2,FEW 10   SCT 30,1,18,1,11,1017,RJAW 032300Z 35012G22KT 9999 FEW010 SCT030 18/11 Q1017 RMK     2CU010 4CU030 A3004=,
20180104_000000.003,0,RJAW,,,,0,20180104000000,-1,-1,-1,-1,340,-1,14,-1,-1,-1,-1,,9999,0,0,2,FEW 30   SCT 230,1,20,1,10,1017,RJAW 040000Z 34014KT 9999 FEW030 SCT230 20/10 Q1017 RMK 1CU030     A3004=,
20180104_010000.003,0,RJAW,,,,0,20180104010000,-1,-1,-1,-1,350,-1,14,-1,-1,-1,-1,,9999,0,0,2,FEW 30   SCT 230,1,20,1,11,1017,RJAW 040100Z 35014KT 9999 FEW030 SCT230 20/11 Q1017 RMK 2CU030     A3004=,
20180104_020000.005,0,RJAW,,,,0,20180104020000,-1,-1,-1,-1,10,-1,15,-1,-1,-1,-1,,9999,0,0,2,SCT 30   SCT 230,1,20,1,12,1016,RJAW 040200Z 01015KT 9999 SCT030 SCT230 20/12 Q1016 RMK 3CU030     A3003=,
20180104_030000.004,0,RJAW,,,,0,20180104030000,-1,-1,-1,-1,350,-1,14,-1,-1,-1,-1,,9999,0,0,2,SCT 30   BKN 230,1,20,1,11,1016,RJAW 040300Z 35014KT 9999 SCT030 BKN230 20/11 Q1016 RMK 4CU030     A3001=,
20180104_040000.003,0,RJAW,,,,0,20180104040000,-1,-1,-1,-1,360,-1,14,-1,-1,330,30,,9999,0,0,2,SCT 30   SCT 230,1,19,1,11,1015,RJAW 040400Z 36014KT 330V030 9999 SCT030 SCT230 19/11 Q1015     RMK 4CU030 A2998=,
20180104_050000.003,0,RJAW,,,,0,20180104050000,-1,-1,-1,-1,360,-1,14,-1,-1,-1,-1,,9999,0,0,1,SCT 30,1,19,1,10,1015,RJAW 040500Z 36014KT 9999 SCT030 19/10 Q1015 RMK 4CU030 A2997=,
20180104_060000.004,0,RJAW,,,,0,20180104060000,-1,-1,-1,-1,360,-1,12,-1,-1,-1,-1,,9999,0,0,2,SCT 30   SCT 230,1,19,1,10,1015,RJAW 040600Z 36012KT 9999 SCT030 SCT230 19/10 Q1015 RMK 4CU030     A3000=,
20180104_070000.003,0,RJAW,,,,0,20180104070000,-1,-1,-1,-1,360,-1,11,-1,-1,-1,-1,,9999,0,0,1,SCT 30,1,18,1,9,1016,RJAW 040700Z 36011KT 9999 SCT030 18/09 Q1016 RMK 4CU030 A3001=,
20180104_080000.003,0,RJAW,,,,0,20180104080000,-1,-1,-1,-1,350,-1,9,-1,-1,-1,-1,,9999,0,0,1,SCT 30,1,18,1,9,1016,RJAW 040800Z 35009KT 9999 SCT030 18/09 Q1016 RMK 4CU030 A3003=,
20180104_090000.003,0,RJAW,,,,0,20180104090000,-1,-1,-1,-1,360,-1,12,-1,-1,-1,-1,,9999,0,0,2,FEW 30   SCT 230,1,17,1,10,1017,RJAW 040900Z 36012KT 9999 FEW030 SCT230 17/10 Q1017 RMK 2CU030     A3003=,
20180104_100000.003,0,RJAW,,,,0,20180104100000,-1,-1,-1,-1,-1,-1,-1,-1,-1,-1,-1,,-1,0,0,0,,0,-1,0,-1,-1,RJAW 041000Z NIL=,
20180104_110000.003,0,RJAW,,,,0,20180104110000,-1,-1,-1,-1,-1,-1,-1,-1,-1,-1,-1,,-1,0,0,0,,0,-1,0,-1,-1,RJAW 041100Z NIL=,
20180104_120000.004,0,RJAW,,,,0,20180104120000,-1,-1,-1,-1,360,-1,11,-1,-1,330,30,,9999,0,0,1,SCT 30,1,17,1,9,1017,RJAW 041200Z 36011KT 330V030 9999 SCT030 17/09 Q1017 RMK     3CU030 A3005=,
20180104_130000.003,0,RJAW,,,,0,20180104130000,-1,-1,-1,-1,-1,-1,-1,-1,-1,-1,-1,,-1,0,0,0,,0,-1,0,-1,-1,RJAW 041300Z NIL=,
20180104_140000.003,0,RJAW,,,,0,20180104140000,-1,-1,-1,-1,-1,-1,-1,-1,-1,-1,-1,,-1,0,0,0,,0,-1,0,-1,-1,RJAW 041400Z NIL=,
20180104_150000.004,0,RJAW,,,,0,20180104150000,-1,-1,-1,-1,360,-1,9,-1,-1,-1,-1,,9999,0,0,1,SCT 30,1,17,1,10,1017,RJAW 041500Z 36009KT 9999 SCT030 17/10 Q1017 RMK 4CU030 A3004=,
20180104_160000.004,0,RJAW,,,,0,20180104160000,-1,-1,-1,-1,-1,-1,-1,-1,-1,-1,-1,,-1,0,0,0,,0,-1,0,-1,-1,RJAW 041600Z NIL=,
20180104_170000.004,0,RJAW,,,,0,20180104170000,-1,-1,-1,-1,-1,-1,-1,-1,-1,-1,-1,,-1,0,0,0,,0,-1,0,-1,-1,RJAW 041700Z NIL=,
20180104_180000.003,0,RJAW,,,,0,20180104180000,-1,-1,-1,-1,10,-1,7,-1,-1,-1,-1,,9999,0,0,1,SCT 30,1,17,1,10,1016,RJAW 041800Z 01007KT 9999 SCT030 17/10 Q1016 RMK 4CU030 A3001=,
20180104_190000.004,0,RJAW,,,,0,20180104190000,-1,-1,-1,-1,-1,-1,-1,-1,-1,-1,-1,,-1,0,0,0,,0,-1,0,-1,-1,RJAW 041900Z NIL=,
20180104_200000.003,0,RJAW,,,,0,20180104200000,-1,-1,-1,-1,350,-1,6,-1,-1,-1,-1,,9999,0,0,1,BKN 30,1,17,1,9,1016,RJAW 042000Z 35006KT 9999 BKN030 17/09 Q1016 RMK 5CU030 A3001=,
20180104_210000.003,0,RJAW,,,,0,20180104210000,-1,-1,-1,-1,360,-1,5,-1,-1,-1,-1,,9999,0,0,2,FEW 15   BKN 30,1,17,1,9,1017,RJAW 042100Z 36005KT 9999 FEW015 BKN030 17/09 Q1017 RMK 1CU015     6CU030 A3003=,
20180104_220000.003,0,RJAW,,,,0,20180104220000,-1,-1,-1,-1,10,-1,7,-1,-1,-1,-1,,9999,0,0,2,FEW 15   SCT 100,1,17,1,9,1017,RJAW 042200Z 01007KT 9999 FEW015 SCT100 17/09 Q1017 RMK 1CU015     3AC100 A3004=,
20180104_230000.003,0,RJAW,,,,0,20180104230000,-1,-1,-1,-1,10,-1,6,-1,-1,-1,-1,,9999,0,0,2,FEW 30   SCT 150,1,18,1,10,1017,RJAW 042300Z 01006KT 9999 FEW030 SCT150 18/10 Q1017 RMK 1CU030     3AC150 A3006=,
20180105_000000.004,0,RJAW,,,,0,20180105000000,-1,-1,-1,-1,10,-1,7,-1,-1,-1,-1,,9999,0,0,2,FEW 20   SCT 30,1,19,1,10,1018,RJAW 050000Z 01007KT 9999 FEW020 SCT030 19/10 Q1018 RMK 1CU020     3CU030 A3006=,
20180105_010000.004,0,RJAW,,,,0,20180105010000,-1,-1,-1,-1,20,-1,7,-1,-1,350,70,,9999,0,0,2,FEW 20   BKN 30,1,19,1,11,1017,RJAW 050100Z 02007KT 350V070 9999 FEW020 BKN030 19/11 Q1017     RMK 1CU020 5CU030 A3005=,
20180105_020000.003,0,RJAW,,,,0,20180105020000,-1,-1,-1,-1,360,-1,7,-1,-1,330,60,,9999,0,0,2,FEW 20   SCT 30,1,19,1,10,1016,RJAW 050200Z 36007KT 330V060 9999 FEW020 SCT030 19/10 Q1016     RMK 1CU020 3CU030 A3003=,
20180105_030000.003,0,RJAW,,,,0,20180105030000,-1,-1,-1,-1,360,-1,3,-1,-1,300,90,,9999,0,0,1,FEW 30,1,20,1,10,1015,RJAW 050300Z 36003KT 300V090 9999 FEW030 20/10 Q1015 RMK     1CU030 A2999=,
20180105_040000.003,0,RJAW,,,,0,20180105040000,-1,-1,-1,-1,120,-1,4,-1,-1,50,170,,9999,0,0,1,FEW 30,1,19,1,10,1014,RJAW 050400Z 12004KT 050V170 9999 FEW030 19/10 Q1014 RMK     2CU030 A2997=,
20180105_050000.003,0,RJAW,,,,0,20180105050000,-1,-1,-1,-1,180,-1,4,-1,-1,110,240,,9999,0,0,1,FEW 30,1,19,1,10,1014,RJAW 050500Z 18004KT 110V240 9999 FEW030 19/10 Q1014 RMK     2CU030 A2995=,
20180105_060000.003,0,RJAW,,,,0,20180105060000,-1,-1,-1,-1,170,-1,6,-1,-1,120,210,,9999,0,0,1,FEW 30,1,19,1,10,1013,RJAW 050600Z 17006KT 120V210 9999 FEW030 19/10 Q1013 RMK     1CU030 A2994=,
20180105_070000.003,0,RJAW,,,,0,20180105070000,-1,-1,-1,-1,130,-1,2,-1,-1,-1,-1,,9999,0,0,1,FEW 30,1,18,1,10,1014,RJAW 050700Z 13002KT 9999 FEW030 18/10 Q1014 RMK 1CU030 A2996=,
20180105_080000.003,0,RJAW,,,,0,20180105080000,-1,-1,-1,-1,150,-1,3,-1,-1,-1,-1,,9999,0,0,2,FEW 30   SCT 150,1,18,1,11,1014,RJAW 050800Z 15003KT 9999 FEW030 SCT150 18/11 Q1014 RMK 1CU030     4AC150 A2996=,
20180105_090000.003,0,RJAW,,,,0,20180105090000,-1,-1,-1,-1,180,-1,5,-1,-1,150,220,,9999,0,0,2,FEW 30   SCT 150,1,17,1,11,1014,RJAW 050900Z 18005KT 150V220 9999 FEW030 SCT150 17/11 Q1014     RMK 1CU030 4AC150 A2996=,
20180105_100000.003,0,RJAW,,,,0,20180105100000,-1,-1,-1,-1,-1,-1,-1,-1,-1,-1,-1,,-1,0,0,0,,0,-1,0,-1,-1,RJAW 051000Z NIL=,
20180105_110000.003,0,RJAW,,,,0,20180105110000,-1,-1,-1,-1,-1,-1,-1,-1,-1,-1,-1,,-1,0,0,0,,0,-1,0,-1,-1,RJAW 051100Z NIL=,
20180105_120000.003,0,RJAW,,,,0,20180105120000,-1,-1,-1,-1,190,-1,6,-1,-1,-1,-1,,9999,0,0,2,FEW 30   BKN 120,1,18,1,12,1014,RJAW 051200Z 19006KT 9999 FEW030 BKN120 18/12 Q1014 RMK 1CU030     5AC120 A2996=,
20180105_130000.003,0,RJAW,,,,0,20180105130000,-1,-1,-1,-1,-1,-1,-1,-1,-1,-1,-1,,-1,0,0,0,,0,-1,0,-1,-1,RJAW 051300Z NIL=,
20180105_140000.003,0,RJAW,,,,0,20180105140000,-1,-1,-1,-1,-1,-1,-1,-1,-1,-1,-1,,-1,0,0,0,,0,-1,0,-1,-1,RJAW 051400Z NIL=,
20180105_150000.003,0,RJAW,,,,0,20180105150000,-1,-1,-1,-1,210,-1,10,-1,-1,-1,-1,,9999,0,0,2,FEW 30   SCT 120,1,18,1,14,1013,RJAW 051500Z 21010KT 9999 FEW030 SCT120 18/14 Q1013 RMK 1CU030     3AC120 A2993=,
20180105_160000.004,0,RJAW,,,,0,20180105160000,-1,-1,-1,-1,-1,-1,-1,-1,-1,-1,-1,,-1,0,0,0,,0,-1,0,-1,-1,RJAW 051600Z NIL=,
20180105_170000.003,0,RJAW,,,,0,20180105170000,-1,-1,-1,-1,-1,-1,-1,-1,-1,-1,-1,,-1,0,0,0,,0,-1,0,-1,-1,RJAW 051700Z NIL=,
20180105_180000.004,0,RJAW,,,,0,20180105180000,-1,-1,-1,-1,220,-1,15,-1,-1,-1,-1,,9999,0,0,3,FEW 15   BKN 25   BKN 100,1,19,1,15,1011,RJAW 051800Z 22015KT 9999 FEW015 BKN025 BKN100 19/15 Q1011 RMK     1CU015 5CU025 7AC100 A2987=,
20180105_190000.003,0,RJAW,,,,0,20180105190000,-1,-1,-1,-1,-1,-1,-1,-1,-1,-1,-1,,-1,0,0,0,,0,-1,0,-1,-1,RJAW 051900Z NIL=,
20180105_200000.003,0,RJAW,,,,0,20180105200000,-1,-1,-1,-1,220,-1,13,-1,-1,-1,-1,,9999,0,0,3,FEW 15   BKN 25   BKN 100,1,20,1,16,1011,RJAW 052000Z 22013KT 9999 FEW015 BKN025 BKN100 20/16 Q1011 RMK     1CU015 5CU025 7AC100 A2986=,
20180105_210000.004,0,RJAW,,,,0,20180105210000,-1,-1,-1,-1,230,-1,15,-1,-1,-1,-1,,9999,0,0,3,FEW 15   BKN 25   BKN 100,1,20,1,17,1011,RJAW 052100Z 23015KT 9999 FEW015 BKN025 BKN100 20/17 Q1011 RMK     1CU015 5CU025 7AC100 A2987=,
20180105_220000.003,0,RJAW,,,,0,20180105220000,-1,-1,-1,-1,230,-1,14,-1,-1,-1,-1,,9999,0,0,3,FEW 15   SCT 25   BKN 100,1,21,1,18,1011,RJAW 052200Z 23014KT 9999 FEW015 SCT025 BKN100 21/18 Q1011 RMK     1CU015 4CU025 7AC100 A2987=,
20180105_230000.003,0,RJAW,,,,0,20180105230000,-1,-1,-1,-1,240,-1,15,-1,-1,-1,-1,,9999,0,0,3,FEW 15   SCT 20   BKN 100,1,22,1,19,1011,RJAW 052300Z 24015KT 9999 FEW015 SCT020 BKN100 22/19 Q1011 RMK     1CU015 3CU020 7AC100 A2987=,
20180106_000000.003,0,RJAW,,,,0,20180106000000,-1,-1,-1,-1,250,-1,14,-1,24,-1,-1,,9999,0,0,3,FEW 15   SCT 20   BKN 100,1,23,1,20,1012,RJAW 060000Z 25014G24KT 9999 FEW015 SCT020 BKN100 23/20 Q1012     RMK 1CU015 3CU020 7AC100 A2989=,
20180106_010000.003,0,RJAW,,,,0,20180106010000,-1,-1,-1,-1,340,-1,15,-1,25,-1,-1,,7000,0,0,2,SCT 10   BKN 20,1,20,1,19,1012,RJAW 060100Z 34015G25KT 7000 SCT010 BKN020 20/19 Q1012 RMK     3CU010 7CU020 A2990=,
20180106_020000.003,0,RJAW,,,,0,20180106020000,-1,-1,-1,-1,350,-1,16,-1,27,-1,-1,,9999,0,0,2,SCT 10   BKN 20,1,20,1,18,1012,RJAW 060200Z 35016G27KT 9999 SCT010 BKN020 20/18 Q1012 RMK     3CU010 7CU020 A2990=,
20180106_030000.003,0,RJAW,,,,0,20180106030000,-1,-1,-1,-1,350,-1,16,-1,-1,-1,-1,,9999,0,0,2,FEW 10   BKN 20,1,20,1,15,1011,RJAW 060300Z 35016KT 9999 FEW010 BKN020 20/15 Q1011 RMK 2CU010     7CU020 A2988=,
20180106_040000.003,0,RJAW,,,,0,20180106040000,-1,-1,-1,-1,350,-1,16,-1,-1,-1,-1,,9999,0,1,2,SCT 10   BKN 20,1,19,1,15,1011,RJAW 060400Z 35016KT 9999 -SHRA SCT010 BKN020 19/15 Q1011 RMK     4CU010 7CU020 A2988=,- RA SH
20180106_050000.003,0,RJAW,,,,0,20180106050000,-1,-1,-1,-1,350,-1,15,-1,25,-1,-1,,9999,0,0,2,SCT 10   BKN 25,1,19,1,15,1011,RJAW 060500Z 35015G25KT 9999 SCT010 BKN025 19/15 Q1011 RMK     3CU010 7CU025 A2988=,
20180106_060000.003,0,RJAW,,,,0,20180106060000,-1,-1,-1,-1,350,-1,14,-1,24,310,10,,9999,0,1,2,SCT 10   BKN 30,1,20,1,11,1012,RJAW 060600Z 35014G24KT 310V010 9999 -SHRA SCT010 BKN030 20/11     Q1012 RMK 3CU010 7CU030 A2989=,- RA SH
20180106_070000.003,0,RJAW,,,,0,20180106070000,-1,-1,-1,-1,340,-1,13,-1,-1,-1,-1,,9999,0,0,2,FEW 10   BKN 30,1,20,1,14,1013,RJAW 060700Z 34013KT 9999 FEW010 BKN030 20/14 Q1013 RMK 2CU010     7CU030 A2991=,
20180106_080000.003,0,RJAW,,,,0,20180106080000,-1,-1,-1,-1,350,-1,14,-1,-1,-1,-1,,9999,0,0,1,FEW 30,1,19,1,13,1013,RJAW 060800Z 35014KT 9999 FEW030 19/13 Q1013 RMK 2CU030 A2992=,
20180106_090000.003,0,RJAW,,,,0,20180106090000,-1,-1,-1,-1,350,-1,13,-1,-1,-1,-1,,9999,0,0,1,SCT 30,1,18,1,11,1014,RJAW 060900Z 35013KT 9999 SCT030 18/11 Q1014 RMK 3CU030 A2995=,
20180106_100000.003,0,RJAW,,,,0,20180106100000,-1,-1,-1,-1,-1,-1,-1,-1,-1,-1,-1,,-1,0,0,0,,0,-1,0,-1,-1,RJAW 061000Z NIL=,
20180106_110000.003,0,RJAW,,,,0,20180106110000,-1,-1,-1,-1,-1,-1,-1,-1,-1,-1,-1,,-1,0,0,0,,0,-1,0,-1,-1,RJAW 061100Z NIL=,
20180106_120000.003,0,RJAW,,,,0,20180106120000,-1,-1,-1,-1,340,-1,11,-1,-1,-1,-1,,9999,0,0,1,SCT 30,1,19,1,11,1015,RJAW 061200Z 34011KT 9999 SCT030 19/11 Q1015 RMK 3CU030 A2999=,
20180106_130000.005,0,RJAW,,,,0,20180106130000,-1,-1,-1,-1,-1,-1,-1,-1,-1,-1,-1,,-1,0,0,0,,0,-1,0,-1,-1,RJAW 061300Z NIL=,
20180106_140000.004,0,RJAW,,,,0,20180106140000,-1,-1,-1,-1,-1,-1,-1,-1,-1,-1,-1,,-1,0,0,0,,0,-1,0,-1,-1,RJAW 061400Z NIL=,
20180106_150000.003,0,RJAW,,,,0,20180106150000,-1,-1,-1,-1,360,-1,11,-1,-1,-1,-1,,9999,0,0,2,FEW 15   BKN 30,1,19,1,12,1015,RJAW 061500Z 36011KT 9999 FEW015 BKN030 19/12 Q1015 RMK 2CU015     6CU030 A2998=,
20180106_160000.003,0,RJAW,,,,0,20180106160000,-1,-1,-1,-1,-1,-1,-1,-1,-1,-1,-1,,-1,0,0,0,,0,-1,0,-1,-1,RJAW 061600Z NIL=,
20180106_170000.003,0,RJAW,,,,0,20180106170000,-1,-1,-1,-1,-1,-1,-1,-1,-1,-1,-1,,-1,0,0,0,,0,-1,0,-1,-1,RJAW 061700Z NIL=,
20180106_180000.004,0,RJAW,,,,0,20180106180000,-1,-1,-1,-1,350,-1,9,-1,-1,-1,-1,,9999,0,0,2,FEW 15   SCT 30,1,18,1,11,1015,RJAW 061800Z 35009KT 9999 FEW015 SCT030 18/11 Q1015 RMK 1CU015     3CU030 A2999=,
20180106_190000.003,0,RJAW,,,,0,20180106190000,-1,-1,-1,-1,-1,-1,-1,-1,-1,-1,-1,,-1,0,0,0,,0,-1,0,-1,-1,RJAW 061900Z NIL=,
20180106_200000.003,0,RJAW,,,,0,20180106200000,-1,-1,-1,-1,360,-1,9,-1,-1,-1,-1,,9999,0,0,2,FEW 15   SCT 30,1,18,1,12,1016,RJAW 062000Z 36009KT 9999 FEW015 SCT030 18/12 Q1016 RMK 1CU015     3CU030 A3000=,
20180106_210000.003,0,RJAW,,,,0,20180106210000,-1,-1,-1,-1,20,-1,7,-1,-1,-1,-1,,9999,0,0,1,FEW 30,1,18,1,10,1016,RJAW 062100Z 02007KT 9999 FEW030 18/10 Q1016 RMK 1CU030 A3000=,
20180106_220000.003,0,RJAW,,,,0,20180106220000,-1,-1,-1,-1,20,-1,7,-1,-1,-1,-1,,9999,0,0,1,FEW 30,1,18,1,11,1017,RJAW 062200Z 02007KT 9999 FEW030 18/11 Q1017 RMK 1CU030 A3004=,
20180106_230000.003,0,RJAW,,,,0,20180106230000,-1,-1,-1,-1,10,-1,8,-1,-1,-1,-1,,9999,0,0,1,FEW 30,1,19,1,12,1018,RJAW 062300Z 01008KT 9999 FEW030 19/12 Q1018 RMK 1CU030 A3007=,
20180107_000000.003,0,RJAW,,,,0,20180107000000,-1,-1,-1,-1,10,-1,8,-1,-1,340,40,,9999,0,0,1,FEW 30,1,20,1,12,1018,RJAW 070000Z 01008KT 340V040 9999 FEW030 20/12 Q1018 RMK     2CU030 A3009=,
20180107_010000.004,0,RJAW,,,,0,20180107010000,-1,-1,-1,-1,360,-1,10,-1,-1,-1,-1,,9999,0,0,1,FEW 30,1,20,1,12,1018,RJAW 070100Z 36010KT 9999 FEW030 20/12 Q1018 RMK 2CU030 A3007=,
20180107_020000.003,0,RJAW,,,,0,20180107020000,-1,-1,-1,-1,360,-1,9,-1,-1,-1,-1,,9999,0,0,1,FEW 30,1,20,1,11,1018,RJAW 070200Z 36009KT 9999 FEW030 20/11 Q1018 RMK 2CU030 A3007=,
20180107_030000.003,0,RJAW,,,,0,20180107030000,-1,-1,-1,-1,10,-1,8,-1,-1,320,50,,9999,0,0,1,FEW 30,1,20,1,11,1017,RJAW 070300Z 01008KT 320V050 9999 FEW030 20/11 Q1017 RMK     2CU030 A3004=,
20180107_040000.003,0,RJAW,,,,0,20180107040000,-1,-1,-1,-1,10,-1,10,-1,-1,340,40,,9999,0,0,1,SCT 30,1,20,1,11,1017,RJAW 070400Z 01010KT 340V040 9999 SCT030 20/11 Q1017 RMK     3CU030 A3004=,
20180107_050000.003,0,RJAW,,,,0,20180107050000,-1,-1,-1,-1,20,-1,8,-1,-1,350,70,,9999,0,0,1,FEW 30,1,20,1,11,1017,RJAW 070500Z 02008KT 350V070 9999 FEW030 20/11 Q1017 RMK     2CU030 A3003=,
20180107_060000.003,0,RJAW,,,,0,20180107060000,-1,-1,-1,-1,50,-1,5,-1,-1,350,80,,9999,0,0,1,FEW 30,1,20,1,11,1017,RJAW 070600Z 05005KT 350V080 9999 FEW030 20/11 Q1017 RMK     1CU030 A3004=,
20180107_070000.003,0,RJAW,,,,0,20180107070000,-1,-1,-1,-1,20,-1,7,-1,-1,350,50,,9999,0,0,1,FEW 30,1,20,1,11,1017,RJAW 070700Z 02007KT 350V050 9999 FEW030 20/11 Q1017 RMK     1CU030 A3005=,
20180107_080000.003,0,RJAW,,,,0,20180107080000,-1,-1,-1,-1,10,-1,6,-1,-1,-1,-1,,9999,0,0,1,FEW 30,1,19,1,11,1018,RJAW 070800Z 01006KT 9999 FEW030 19/11 Q1018 RMK 2CU030 A3007=,
20180107_090000.003,0,RJAW,,,,0,20180107090000,-1,-1,-1,-1,20,-1,4,-1,-1,-1,-1,,9999,0,0,1,FEW 30,1,19,1,11,1018,RJAW 070900Z 02004KT 9999 FEW030 19/11 Q1018 RMK 2CU030 A3008=,
20180107_100000.003,0,RJAW,,,,0,20180107100000,-1,-1,-1,-1,-1,-1,-1,-1,-1,-1,-1,,-1,0,0,0,,0,-1,0,-1,-1,RJAW 071000Z NIL=,
20180107_110000.003,0,RJAW,,,,0,20180107110000,-1,-1,-1,-1,-1,-1,-1,-1,-1,-1,-1,,-1,0,0,0,,0,-1,0,-1,-1,RJAW 071100Z NIL=,
20180107_120000.004,0,RJAW,,,,0,20180107120000,-1,-1,-1,-1,50,-1,9,-1,-1,-1,-1,,9999,0,0,1,FEW 30,1,19,1,13,1019,RJAW 071200Z 05009KT 9999 FEW030 19/13 Q1019 RMK 1CU030 A3012=,
20180107_130000.004,0,RJAW,,,,0,20180107130000,-1,-1,-1,-1,-1,-1,-1,-1,-1,-1,-1,,-1,0,0,0,,0,-1,0,-1,-1,RJAW 071300Z NIL=,
20180107_140000.004,0,RJAW,,,,0,20180107140000,-1,-1,-1,-1,-1,-1,-1,-1,-1,-1,-1,,-1,0,0,0,,0,-1,0,-1,-1,RJAW 071400Z NIL=,
20180107_150000.003,0,RJAW,,,,0,20180107150000,-1,-1,-1,-1,60,-1,9,-1,-1,-1,-1,,9999,0,0,1,FEW 30,1,19,1,13,1020,RJAW 071500Z 06009KT 9999 FEW030 19/13 Q1020 RMK 2CU030 A3014=,
20180107_160000.003,0,RJAW,,,,0,20180107160000,-1,-1,-1,-1,-1,-1,-1,-1,-1,-1,-1,,-1,0,0,0,,0,-1,0,-1,-1,RJAW 071600Z NIL=,
20180107_170000.003,0,RJAW,,,,0,20180107170000,-1,-1,-1,-1,-1,-1,-1,-1,-1,-1,-1,,-1,0,0,0,,0,-1,0,-1,-1,RJAW 071700Z NIL=,
20180107_180000.003,0,RJAW,,,,0,20180107180000,-1,-1,-1,-1,60,-1,8,-1,-1,-1,-1,,9999,0,0,1,BKN 30,1,19,1,14,1020,RJAW 071800Z 06008KT 9999 BKN030 19/14 Q1020 RMK 5CU030 A3013=,
20180107_190000.004,0,RJAW,,,,0,20180107190000,-1,-1,-1,-1,-1,-1,-1,-1,-1,-1,-1,,-1,0,0,0,,0,-1,0,-1,-1,RJAW 071900Z NIL=,
20180107_200000.003,0,RJAW,,,,0,20180107200000,-1,-1,-1,-1,90,-1,9,-1,-1,-1,-1,,9999,0,0,2,SCT 30   BKN 100,1,19,1,14,1020,RJAW 072000Z 09009KT 9999 SCT030 BKN100 19/14 Q1020 RMK 3CU030     7AC100 A3013=,
20180107_210000.004,0,RJAW,,,,0,20180107210000,-1,-1,-1,-1,110,-1,9,-1,-1,-1,-1,,9999,0,0,2,FEW 30   BKN 100,1,19,1,14,1020,RJAW 072100Z 11009KT 9999 FEW030 BKN100 19/14 Q1020 RMK 1CU030     7AC100 A3013=,
20180107_220000.003,0,RJAW,,,,0,20180107220000,-1,-1,-1,-1,120,-1,10,-1,-1,-1,-1,,9999,0,0,2,FEW 30   BKN 100,1,19,1,15,1020,RJAW 072200Z 12010KT 9999 FEW030 BKN100 19/15 Q1020 RMK 2CU030     5AC100 A3012=,
20180107_230000.003,0,RJAW,,,,0,20180107230000,-1,-1,-1,-1,130,-1,14,-1,-1,-1,-1,,9999,0,0,2,SCT 30   SCT 100,1,20,1,15,1019,RJAW 072300Z 13014KT 9999 SCT030 SCT100 20/15 Q1019 RMK 3CU030     4AC100 A3011=,
20180108_000000.003,0,RJAW,,,,0,20180108000000,-1,-1,-1,-1,130,-1,12,-1,-1,-1,-1,,9999,0,0,1,SCT 30,1,21,1,16,1019,RJAW 080000Z 13012KT 9999 SCT030 21/16 Q1019 RMK 3CU030 A3011=,
20180108_010000.003,0,RJAW,,,,0,20180108010000,-1,-1,-1,-1,150,-1,12,-1,-1,-1,-1,,9999,0,0,1,FEW 30,1,22,1,15,1019,RJAW 080100Z 15012KT 9999 FEW030 22/15 Q1019 RMK 1CU030 A3010=,
20180108_020000.004,0,RJAW,,,,0,20180108020000,-1,-1,-1,-1,140,-1,12,-1,-1,-1,-1,,9999,0,0,1,FEW 30,1,22,1,16,1018,RJAW 080200Z 14012KT 9999 FEW030 22/16 Q1018 RMK 1CU030 A3008=,
20180108_030000.003,0,RJAW,,,,0,20180108030000,-1,-1,-1,-1,130,-1,10,-1,-1,100,160,,9999,0,0,1,FEW 30,1,23,1,16,1018,RJAW 080300Z 13010KT 100V160 9999 FEW030 23/16 Q1018 RMK     2CU030 A3006=,
20180108_040000.003,0,RJAW,,,,0,20180108040000,-1,-1,-1,-1,130,-1,12,-1,-1,-1,-1,,9999,0,0,1,SCT 30,1,22,1,16,1017,RJAW 080400Z 13012KT 9999 SCT030 22/16 Q1017 RMK 3CU030 A3004=,
20180108_050000.003,0,RJAW,,,,0,20180108050000,-1,-1,-1,-1,120,-1,11,-1,-1,-1,-1,,9999,0,0,1,FEW 30,1,23,1,17,1017,RJAW 080500Z 12011KT 9999 FEW030 23/17 Q1017 RMK 2CU030 A3003=,
20180108_060000.004,0,RJAW,,,,0,20180108060000,-1,-1,-1,-1,90,-1,11,-1,-1,-1,-1,,9999,0,0,1,SCT 30,1,22,1,17,1016,RJAW 080600Z 09011KT 9999 SCT030 22/17 Q1016 RMK 3CU030 A3003=,
20180108_070000.003,0,RJAW,,,,0,20180108070000,-1,-1,-1,-1,130,-1,9,-1,-1,-1,-1,,9999,0,0,1,SCT 30,1,22,1,16,1017,RJAW 080700Z 13009KT 9999 SCT030 22/16 Q1017 RMK 3CU030 A3003=,
20180108_080000.003,0,RJAW,,,,0,20180108080000,-1,-1,-1,-1,120,-1,7,-1,-1,-1,-1,,9999,0,0,2,FEW 30   BKN 100,1,21,1,17,1016,RJAW 080800Z 12007KT 9999 FEW030 BKN100 21/17 Q1016 RMK 2CU030     5AC100 A3003=,
20180108_090000.003,0,RJAW,,,,0,20180108090000,-1,-1,-1,-1,120,-1,10,-1,-1,-1,-1,,9999,0,0,2,BKN 30   BKN 100,1,21,1,16,1017,RJAW 080900Z 12010KT 9999 BKN030 BKN100 21/16 Q1017 RMK 5CU030     7AC100 A3003=,
20180108_100000.003,0,RJAW,,,,0,20180108100000,-1,-1,-1,-1,130,-1,9,-1,-1,-1,-1,,9999,0,0,2,FEW 30   SCT 100,1,21,1,16,1017,RJAW 081000Z 13009KT 9999 FEW030 SCT100 21/16 Q1017 RMK 1CU030     3AC100 A3004=,
20180108_110000.003,0,RJAW,,,,0,20180108110000,-1,-1,-1,-1,140,-1,10,-1,-1,-1,-1,,9999,0,0,1,FEW 30,1,21,1,17,1017,RJAW 081100Z 14010KT 9999 FEW030 21/17 Q1017 RMK 1CU030 A3004=,
20180108_120000.003,0,RJAW,,,,0,20180108120000,-1,-1,-1,-1,140,-1,11,-1,-1,-1,-1,,9999,0,0,1,FEW 30,1,21,1,17,1017,RJAW 081200Z 14011KT 9999 FEW030 21/17 Q1017 RMK 2CU030 A3004=,
20180108_130000.004,0,RJAW,,,,0,20180108130000,-1,-1,-1,-1,150,-1,12,-1,-1,-1,-1,,9999,0,0,2,SCT 30   BKN 100,1,21,1,18,1016,RJAW 081300Z 15012KT 9999 SCT030 BKN100 21/18 Q1016 RMK 3CU030     5AC100 A3002=,
20180108_140000.003,0,RJAW,,,,0,20180108140000,-1,-1,-1,-1,150,-1,13,-1,-1,-1,-1,,9999,0,0,2,FEW 30   SCT 100,1,21,1,18,1016,RJAW 081400Z 15013KT 9999 FEW030 SCT100 21/18 Q1016 RMK 1CU030     3AC100 A3001=,
20180108_150000.003,0,RJAW,,,,0,20180108150000,-1,-1,-1,-1,150,-1,16,-1,-1,-1,-1,,9999,0,0,1,FEW 30,1,21,1,18,1015,RJAW 081500Z 15016KT 9999 FEW030 21/18 Q1015 RMK 1CU030 A2999=,
20180108_160000.003,0,RJAW,,,,0,20180108160000,-1,-1,-1,-1,160,-1,15,-1,-1,-1,-1,,9999,0,0,1,FEW 30,1,21,1,18,1015,RJAW 081600Z 16015KT 9999 FEW030 21/18 Q1015 RMK 1CU030 A2998=,
20180108_170000.003,0,RJAW,,,,0,20180108170000,-1,-1,-1,-1,-1,-1,-1,-1,-1,-1,-1,,-1,0,0,0,,0,-1,0,-1,-1,RJAW 081700Z NIL=,
20180108_180000.003,0,RJAW,,,,0,20180108180000,-1,-1,-1,-1,160,-1,15,-1,-1,-1,-1,,9999,0,0,1,FEW 30,1,21,1,19,1014,RJAW 081800Z 16015KT 9999 FEW030 21/19 Q1014 RMK 2CU030 A2996=,
20180108_190000.003,0,RJAW,,,,0,20180108190000,-1,-1,-1,-1,-1,-1,-1,-1,-1,-1,-1,,-1,0,0,0,,0,-1,0,-1,-1,RJAW 081900Z NIL=,
20180108_200000.003,0,RJAW,,,,0,20180108200000,-1,-1,-1,-1,180,-1,12,-1,-1,-1,-1,,9999,0,0,2,FEW 15   BKN 30,1,21,1,19,1014,RJAW 082000Z 18012KT 9999 FEW015 BKN030 21/19 Q1014 RMK 1CU015     6CU030 A2996=,
20180108_210000.004,0,RJAW,,,,0,20180108210000,-1,-1,-1,-1,180,-1,10,-1,-1,-1,-1,,9999,0,0,3,FEW 15   SCT 30   BKN 120,1,21,1,19,1015,RJAW 082100Z 18010KT 9999 FEW015 SCT030 BKN120 21/19 Q1015 RMK     1CU015 4CU030 7AC120 A2999=,
20180108_220000.003,0,RJAW,,,,0,20180108220000,-1,-1,-1,-1,180,-1,10,-1,-1,-1,-1,,9999,0,0,3,FEW 15   BKN 30   BKN 120,1,21,1,20,1015,RJAW 082200Z 18010KT 9999 FEW015 BKN030 BKN120 21/20 Q1015 RMK     1CU015 6CU030 7AC120 A3000=,
20180108_230000.004,0,RJAW,,,,0,20180108230000,-1,-1,-1,-1,190,-1,10,-1,-1,-1,-1,,9999,0,0,1,SCT 30,1,22,1,20,1016,RJAW 082300Z 19010KT 9999 SCT030 22/20 Q1016 RMK 3CU030 A3001=,
20180109_000000.003,0,RJAW,,,,0,20180109000000,-1,-1,-1,-1,190,-1,12,-1,-1,-1,-1,,9999,0,0,1,SCT 30,1,23,1,21,1016,RJAW 090000Z 19012KT 9999 SCT030 23/21 Q1016 RMK 3CU030 A3002=,
20180109_010000.003,0,RJAW,,,,0,20180109010000,-1,-1,-1,-1,190,-1,15,-1,-1,-1,-1,,9999,0,0,1,FEW 30,1,23,1,21,1016,RJAW 090100Z 19015KT 9999 FEW030 23/21 Q1016 RMK 1CU030 A3001=,
20180109_020000.003,0,RJAW,,,,0,20180109020000,-1,-1,-1,-1,200,-1,14,-1,-1,-1,-1,,9999,0,0,1,FEW 30,1,24,1,22,1015,RJAW 090200Z 20014KT 9999 FEW030 24/22 Q1015 RMK 1CU030 A2998=,
20180109_030000.003,0,RJAW,,,,0,20180109030000,-1,-1,-1,-1,200,-1,15,-1,-1,-1,-1,,9999,0,0,1,FEW 30,1,24,1,22,1013,RJAW 090300Z 20015KT 9999 FEW030 24/22 Q1013 RMK 1CU030 A2994=,
20180109_040000.003,0,RJAW,,,,0,20180109040000,-1,-1,-1,-1,200,-1,14,-1,-1,-1,-1,,9999,0,0,2,FEW 20   SCT 30,1,24,1,22,1013,RJAW 090400Z 20014KT 9999 FEW020 SCT030 24/22 Q1013 RMK 1CU020     4CU030 A2991=,
20180109_050000.003,0,RJAW,,,,0,20180109050000,-1,-1,-1,-1,210,-1,16,-1,-1,-1,-1,,9999,0,0,2,FEW 20   BKN 30,1,24,1,22,1012,RJAW 090500Z 21016KT 9999 FEW020 BKN030 24/22 Q1012 RMK 1CU020     6CU030 A2990=,
20180109_060000.003,0,RJAW,,,,0,20180109060000,-1,-1,-1,-1,210,-1,15,-1,-1,-1,-1,,9999,0,0,1,FEW 20,1,24,1,22,1012,RJAW 090600Z 21015KT 9999 FEW020 24/22 Q1012 RMK 1CU020 A2990=,
20180109_070000.003,0,RJAW,,,,0,20180109070000,-1,-1,-1,-1,220,-1,13,-1,24,-1,-1,,9999,0,0,1,FEW 30,1,23,1,22,1013,RJAW 090700Z 22013G24KT 9999 FEW030 23/22 Q1013 RMK 1CU030     A2992=,
20180109_080000.003,0,RJAW,,,,0,20180109080000,-1,-1,-1,-1,220,-1,15,-1,25,-1,-1,,9999,0,0,1,FEW 30,1,22,1,22,1013,RJAW 090800Z 22015G25KT 9999 FEW030 22/22 Q1013 RMK 1CU030     A2993=,
20180109_090000.003,0,RJAW,,,,0,20180109090000,-1,-1,-1,-1,210,-1,14,-1,-1,-1,-1,,9999,0,0,2,FEW 30   BKN 100,1,22,1,22,1013,RJAW 090900Z 21014KT 9999 FEW030 BKN100 22/22 Q1013 RMK 2CU030     5AC100 A2994=,
20180109_100000.003,0,RJAW,,,,0,20180109100000,-1,-1,-1,-1,-1,-1,-1,-1,-1,-1,-1,,-1,0,0,0,,0,-1,0,-1,-1,RJAW 091000Z NIL=,
20180109_110000.003,0,RJAW,,,,0,20180109110000,-1,-1,-1,-1,-1,-1,-1,-1,-1,-1,-1,,-1,0,0,0,,0,-1,0,-1,-1,RJAW 091100Z NIL=,
20180109_120000.003,0,RJAW,,,,0,20180109120000,-1,-1,-1,-1,340,-1,6,-1,-1,-1,-1,,9999,0,0,2,FEW 8   BKN 15,1,21,1,21,1014,RJAW 091200Z 34006KT 9999 FEW008 BKN015 21/21 Q1014 RMK 1ST008     5CU015 A2997=,
20180109_130000.003,0,RJAW,,,,0,20180109130000,-1,-1,-1,-1,-1,-1,-1,-1,-1,-1,-1,,-1,0,0,0,,0,-1,0,-1,-1,RJAW 091300Z NIL=,
20180109_140000.003,0,RJAW,,,,0,20180109140000,-1,-1,-1,-1,-1,-1,-1,-1,-1,-1,-1,,-1,0,0,0,,0,-1,0,-1,-1,RJAW 091400Z NIL=,
20180109_150000.003,0,RJAW,,,,0,20180109150000,-1,-1,-1,-1,300,-1,4,-1,-1,270,330,,9999,0,0,2,SCT 15   SCT 100,1,21,1,21,1015,RJAW 091500Z 30004KT 270V330 9999 SCT015 SCT100 21/21 Q1015     RMK 3CU015 3AC100 A2998=,
20180109_160000.003,0,RJAW,,,,0,20180109160000,-1,-1,-1,-1,-1,-1,-1,-1,-1,-1,-1,,-1,0,0,0,,0,-1,0,-1,-1,RJAW 091600Z NIL=,
20180109_170000.003,0,RJAW,,,,0,20180109170000,-1,-1,-1,-1,-1,-1,-1,-1,-1,-1,-1,,-1,0,0,0,,0,-1,0,-1,-1,RJAW 091700Z NIL=,
20180109_180000.003,0,RJAW,,,,0,20180109180000,-1,-1,-1,-1,350,-1,9,-1,-1,-1,-1,,9999,0,0,1,BKN 15,1,21,1,21,1015,RJAW 091800Z 35009KT 9999 BKN015 21/21 Q1015 RMK 7CU015 A2998=,
20180109_190000.004,0,RJAW,,,,0,20180109190000,-1,-1,-1,-1,-1,-1,-1,-1,-1,-1,-1,,-1,0,0,0,,0,-1,0,-1,-1,RJAW 091900Z NIL=,
20180109_200000.003,0,RJAW,,,,0,20180109200000,-1,-1,-1,-1,360,-1,8,-1,-1,-1,-1,,9999,0,0,3,FEW 15   SCT 100   BKN 200,1,21,1,19,1015,RJAW 092000Z 36008KT 9999 FEW015 SCT100 BKN200 21/19 Q1015 RMK     2CU015 3AC100 A2999=,
20180109_210000.003,0,RJAW,,,,0,20180109210000,-1,-1,-1,-1,360,-1,8,-1,-1,-1,-1,,9999,0,0,3,SCT 15   SCT 50   BKN 200,1,21,1,19,1016,RJAW 092100Z 36008KT 9999 SCT015 SCT050 BKN200 21/19 Q1016 RMK     3CU015 4SC050 A3001=,
20180109_220000.003,0,RJAW,,,,0,20180109220000,-1,-1,-1,-1,10,-1,8,-1,-1,-1,-1,,9999,0,0,3,SCT 15   SCT 100   BKN 200,1,21,1,19,1017,RJAW 092200Z 01008KT 9999 SCT015 SCT100 BKN200 21/19 Q1017 RMK     3CU015 3AC100 A3004=,
20180109_230000.003,0,RJAW,,,,0,20180109230000,-1,-1,-1,-1,10,-1,9,-1,-1,-1,-1,,9999,0,0,3,SCT 30   SCT 100   BKN 230,1,21,1,19,1017,RJAW 092300Z 01009KT 9999 SCT030 SCT100 BKN230 21/19 Q1017 RMK     3CU030 4AC100 A3005=,
20180110_000000.003,0,RJAW,,,,0,20180110000000,-1,-1,-1,-1,360,-1,9,-1,-1,-1,-1,,9999,0,0,3,FEW 30   SCT 100   BKN 230,1,22,1,19,1018,RJAW 100000Z 36009KT 9999 FEW030 SCT100 BKN230 22/19 Q1018 RMK     2CU030 4AC100 A3008=,
20180110_010000.003,0,RJAW,,,,0,20180110010000,-1,-1,-1,-1,360,-1,8,-1,-1,-1,-1,,9999,0,0,3,SCT 30   BKN 100   BKN 230,1,22,1,18,1018,RJAW 100100Z 36008KT 9999 SCT030 BKN100 BKN230 22/18 Q1018 RMK     3CU030 5AC100 A3007=,
20180110_020000.003,0,RJAW,,,,0,20180110020000,-1,-1,-1,-1,360,-1,9,-1,-1,330,30,,9999,0,0,2,FEW 30   BKN 100,1,22,1,18,1017,RJAW 100200Z 36009KT 330V030 9999 FEW030 BKN100 22/18 Q1017     RMK 2CU030 7AC100 A3005=,
20180110_030000.003,0,RJAW,,,,0,20180110030000,-1,-1,-1,-1,10,-1,9,-1,-1,340,50,,9999,0,0,2,SCT 30   BKN 100,1,22,1,18,1016,RJAW 100300Z 01009KT 340V050 9999 SCT030 BKN100 22/18 Q1016     RMK 4CU030 7AC100 A3003=,
20180110_040000.004,0,RJAW,,,,0,20180110040000,-1,-1,-1,-1,10,-1,11,-1,-1,340,40,,9999,0,0,2,SCT 30   BKN 100,1,22,1,18,1015,RJAW 100400Z 01011KT 340V040 9999 SCT030 BKN100 22/18 Q1015     RMK 3CU030 7AC100 A3000=,
20180110_050000.003,0,RJAW,,,,0,20180110050000,-1,-1,-1,-1,10,-1,10,-1,-1,330,40,,9999,0,0,3,FEW 15   BKN 30   BKN 100,1,22,1,17,1015,RJAW 100500Z 01010KT 330V040 9999 FEW015 BKN030 BKN100 22/17     Q1015 RMK 1CU015 5CU030 7AC100 A3000=,
20180110_060000.003,0,RJAW,,,,0,20180110060000,-1,-1,-1,-1,10,-1,9,-1,-1,-1,-1,,8000,0,0,2,SCT 15   BKN 30,1,21,1,17,1016,RJAW 100600Z 01009KT 8000 SCT015 BKN030 21/17 Q1016 RMK 3CU015     7CU030 A3001=,
20180110_070000.003,0,RJAW,,,,0,20180110070000,-1,-1,-1,-1,10,-1,7,-1,-1,-1,-1,,8000,0,0,2,SCT 15   BKN 30,1,21,1,17,1016,RJAW 100700Z 01007KT 8000 SCT015 BKN030 21/17 Q1016 RMK 3CU015     7CU030 A3003=,
20180110_080000.003,0,RJAW,,,,0,20180110080000,-1,-1,-1,-1,20,-1,9,-1,-1,-1,-1,,8000,0,0,3,SCT 15   BKN 30   BKN 100,1,20,1,17,1016,RJAW 100800Z 02009KT 8000 SCT015 BKN030 BKN100 20/17 Q1016 RMK     3CU015 6CU030 7AC100 A3003=,
20180110_090000.003,0,RJAW,,,,0,20180110090000,-1,-1,-1,-1,30,-1,8,-1,-1,-1,-1,,8000,0,0,3,FEW 10   SCT 15   BKN 30,1,20,1,17,1017,RJAW 100900Z 03008KT 8000 FEW010 SCT015 BKN030 20/17 Q1017 RMK     1CU010 3CU015 7CU030 A3004=,
20180110_100000.003,0,RJAW,,,,0,20180110100000,-1,-1,-1,-1,-1,-1,-1,-1,-1,-1,-1,,-1,0,0,0,,0,-1,0,-1,-1,RJAW 101000Z NIL=,
20180110_110000.003,0,RJAW,,,,0,20180110110000,-1,-1,-1,-1,-1,-1,-1,-1,-1,-1,-1,,-1,0,0,0,,0,-1,0,-1,-1,RJAW 101100Z NIL=,
20180110_120000.003,0,RJAW,,,,0,20180110120000,-1,-1,-1,-1,40,-1,6,-1,-1,-1,-1,,6000,0,0,3,FEW 10   SCT 15   BKN 30,1,20,1,16,1018,RJAW 101200Z 04006KT 6000 FEW010 SCT015 BKN030 20/16 Q1018 RMK     1CU010 3CU015 7CU030 A3007=,
20180110_130000.003,0,RJAW,,,,0,20180110130000,-1,-1,-1,-1,-1,-1,-1,-1,-1,-1,-1,,-1,0,0,0,,0,-1,0,-1,-1,RJAW 101300Z NIL=,
20180110_140000.003,0,RJAW,,,,0,20180110140000,-1,-1,-1,-1,-1,-1,-1,-1,-1,-1,-1,,-1,0,0,0,,0,-1,0,-1,-1,RJAW 101400Z NIL=,
20180110_150000.003,0,RJAW,,,,0,20180110150000,-1,-1,-1,-1,10,-1,6,-1,-1,-1,-1,,6000,0,0,3,FEW 10   SCT 15   BKN 30,1,19,1,16,1017,RJAW 101500Z 01006KT 6000 FEW010 SCT015 BKN030 19/16 Q1017 RMK     1CU010 3CU015 7CU030 A3006=,
20180110_160000.003,0,RJAW,,,,0,20180110160000,-1,-1,-1,-1,-1,-1,-1,-1,-1,-1,-1,,-1,0,0,0,,0,-1,0,-1,-1,RJAW 101600Z NIL=,
20180110_170000.003,0,RJAW,,,,0,20180110170000,-1,-1,-1,-1,-1,-1,-1,-1,-1,-1,-1,,-1,0,0,0,,0,-1,0,-1,-1,RJAW 101700Z NIL=,
20180110_180000.003,0,RJAW,,,,0,20180110180000,-1,-1,-1,-1,10,-1,4,-1,-1,-1,-1,,6000,0,0,3,FEW 10   SCT 15   BKN 30,1,19,1,15,1017,RJAW 101800Z 01004KT 6000 FEW010 SCT015 BKN030 19/15 Q1017 RMK     1CU010 3CU015 7CU030 A3004=,
20180110_190000.003,0,RJAW,,,,0,20180110190000,-1,-1,-1,-1,-1,-1,-1,-1,-1,-1,-1,,-1,0,0,0,,0,-1,0,-1,-1,RJAW 101900Z NIL=,
20180110_200000.003,0,RJAW,,,,0,20180110200000,-1,-1,-1,-1,360,-1,5,-1,-1,330,50,,6000,0,0,2,FEW 15   BKN 30,1,19,1,16,1017,RJAW 102000Z 36005KT 330V050 6000 FEW015 BKN030 19/16 Q1017     RMK 2CU015 7CU030 A3005=,
20180110_210000.003,0,RJAW,,,,0,20180110210000,-1,-1,-1,-1,350,-1,5,-1,-1,-1,-1,,8000,0,1,2,SCT 15   BKN 30,1,18,1,15,1018,RJAW 102100Z 35005KT 8000 -SHRA SCT015 BKN030 18/15 Q1018 RMK     3CU015 7CU030 A3007=,- RA SH
20180110_220000.003,0,RJAW,,,,0,20180110220000,-1,-1,-1,-1,340,-1,10,-1,-1,-1,-1,,9999,0,1,3,FEW 10   BKN 15   BKN 30,1,18,1,16,1018,RJAW 102200Z 34010KT 9999 -SHRA FEW010 BKN015 BKN030 18/16     Q1018 RMK 2CU010 5CU015 7CU030 A3008=,- RA SH
20180110_230000.004,0,RJAW,,,,0,20180110230000,-1,-1,-1,-1,350,-1,9,-1,-1,-1,-1,,9999,0,1,2,SCT 5   BKN 15,1,18,1,16,1019,RJAW 102300Z 35009KT 9999 -SHRA SCT005 BKN015 18/16 Q1019 RMK     3ST005 7CU015 A3010=,- RA SH
20180111_000000.003,0,RJAW,,,,0,20180111000000,-1,-1,-1,-1,360,-1,10,-1,-1,-1,-1,,4500,0,2,3,FEW 3   BKN 5   OVC 12,1,17,1,17,1019,RJAW 110000Z 36010KT 4500 -SHRA BR FEW003 BKN005 OVC012 17/17     Q1019 RMK 2ST003 6ST005 8CU012 A3011=,- RA SH; BR
20180111_010000.003,0,RJAW,,,,0,20180111010000,-1,-1,-1,-1,360,-1,12,-1,-1,-1,-1,,8000,0,1,3,FEW 3   SCT 5   OVC 12,1,18,1,17,1019,RJAW 110100Z 36012KT 8000 -SHRA FEW003 SCT005 OVC012 18/17     Q1019 RMK 1ST003 4ST005 8CU012 A3011=,- RA SH
20180111_020000.003,0,RJAW,,,,0,20180111020000,-1,-1,-1,-1,10,-1,11,-1,-1,-1,-1,,9999,0,0,3,FEW 5   BKN 12   BKN 30,1,19,1,17,1019,RJAW 110200Z 01011KT 9999 FEW005 BKN012 BKN030 19/17 Q1019 RMK     2ST005 5CU012 7CU030 A3009=,
20180111_030000.002,0,RJAW,,,,0,20180111030000,-1,-1,-1,-1,10,-1,15,-1,-1,-1,-1,,9999,0,0,3,FEW 5   BKN 12   BKN 30,1,19,1,17,1017,RJAW 110300Z 01015KT 9999 FEW005 BKN012 BKN030 19/17 Q1017 RMK     1ST005 5CU012 7CU030 A3006=,
20180111_040000.003,0,RJAW,,,,0,20180111040000,-1,-1,-1,-1,10,-1,14,-1,-1,-1,-1,,9999,0,0,3,FEW 5   BKN 12   BKN 30,1,19,1,16,1017,RJAW 110400Z 01014KT 9999 FEW005 BKN012 BKN030 19/16 Q1017 RMK     1ST005 5CU012 7CU030 A3004=,
20180111_050000.003,0,RJAW,,,,0,20180111050000,-1,-1,-1,-1,20,-1,15,-1,-1,-1,-1,,9999,0,0,2,SCT 12   BKN 30,1,19,1,16,1017,RJAW 110500Z 02015KT 9999 SCT012 BKN030 19/16 Q1017 RMK 3CU012     7CU030 A3003=,
20180111_060000.003,0,RJAW,,,,0,20180111060000,-1,-1,-1,-1,20,-1,13,-1,-1,-1,-1,,9999,0,0,2,FEW 15   BKN 30,1,19,1,15,1017,RJAW 110600Z 02013KT 9999 FEW015 BKN030 19/15 Q1017 RMK 1CU015     7CU030 A3003=,
20180111_070000.003,0,RJAW,,,,0,20180111070000,-1,-1,-1,-1,30,-1,13,-1,-1,-1,-1,,9999,0,0,2,FEW 15   BKN 30,1,20,1,15,1016,RJAW 110700Z 03013KT 9999 FEW015 BKN030 20/15 Q1016 RMK 2CU015     7CU030 A3003=,
20180111_080000.003,0,RJAW,,,,0,20180111080000,-1,-1,-1,-1,20,-1,11,-1,-1,-1,-1,,9999,0,0,2,FEW 15   BKN 30,1,20,1,14,1017,RJAW 110800Z 02011KT 9999 FEW015 BKN030 20/14 Q1017 RMK 2CU015     7CU030 A3004=,
20180111_090000.003,0,RJAW,,,,0,20180111090000,-1,-1,-1,-1,20,-1,9,-1,-1,-1,-1,,9999,0,0,2,FEW 15   BKN 30,1,19,1,14,1017,RJAW 110900Z 02009KT 9999 FEW015 BKN030 19/14 Q1017 RMK 2CU015     7CU030 A3005=,
20180111_100000.003,0,RJAW,,,,0,20180111100000,-1,-1,-1,-1,-1,-1,-1,-1,-1,-1,-1,,-1,0,0,0,,0,-1,0,-1,-1,RJAW 111000Z NIL=,
20180111_110000.003,0,RJAW,,,,0,20180111110000,-1,-1,-1,-1,-1,-1,-1,-1,-1,-1,-1,,-1,0,0,0,,0,-1,0,-1,-1,RJAW 111100Z NIL=,
20180111_120000.003,0,RJAW,,,,0,20180111120000,-1,-1,-1,-1,30,-1,8,-1,-1,-1,-1,,9999,0,0,2,FEW 15   BKN 30,1,19,1,14,1019,RJAW 111200Z 03008KT 9999 FEW015 BKN030 19/14 Q1019 RMK 2CU015     7CU030 A3009=,
20180111_130000.003,0,RJAW,,,,0,20180111130000,-1,-1,-1,-1,-1,-1,-1,-1,-1,-1,-1,,-1,0,0,0,,0,-1,0,-1,-1,RJAW 111300Z NIL=,
20180111_140000.003,0,RJAW,,,,0,20180111140000,-1,-1,-1,-1,-1,-1,-1,-1,-1,-1,-1,,-1,0,0,0,,0,-1,0,-1,-1,RJAW 111400Z NIL=,
20180111_150000.003,0,RJAW,,,,0,20180111150000,-1,-1,-1,-1,30,-1,11,-1,-1,-1,-1,,8000,0,1,2,SCT 15   BKN 30,1,17,1,15,1018,RJAW 111500Z 03011KT 8000 -SHRA SCT015 BKN030 17/15 Q1018 RMK     3CU015 7CU030 A3007=,- RA SH
20180111_160000.003,0,RJAW,,,,0,20180111160000,-1,-1,-1,-1,-1,-1,-1,-1,-1,-1,-1,,-1,0,0,0,,0,-1,0,-1,-1,RJAW 111600Z NIL=,
20180111_170000.003,0,RJAW,,,,0,20180111170000,-1,-1,-1,-1,-1,-1,-1,-1,-1,-1,-1,,-1,0,0,0,,0,-1,0,-1,-1,RJAW 111700Z NIL=,
20180111_180000.003,0,RJAW,,,,0,20180111180000,-1,-1,-1,-1,30,-1,8,-1,-1,-1,-1,,8000,0,0,3,FEW 5   SCT 12   BKN 30,1,17,1,17,1017,RJAW 111800Z 03008KT 8000 FEW005 SCT012 BKN030 17/17 Q1017 RMK     1ST005 3CU012 7CU030 A3004=,
20180111_190000.003,0,RJAW,,,,0,20180111190000,-1,-1,-1,-1,-1,-1,-1,-1,-1,-1,-1,,-1,0,0,0,,0,-1,0,-1,-1,RJAW 111900Z NIL=,
20180111_200000.003,0,RJAW,,,,0,20180111200000,-1,-1,-1,-1,30,-1,13,-1,-1,-1,-1,,6000,0,1,3,SCT 6   BKN 12   BKN 30,1,17,1,16,1016,RJAW 112000Z 03013KT 6000 -SHRA SCT006 BKN012 BKN030 17/16     Q1016 RMK 3ST006 6CU012 7CU030 A3002=,- RA SH
20180111_210000.003,0,RJAW,,,,0,20180111210000,-1,-1,-1,-1,20,-1,12,-1,-1,-1,-1,,9999,0,1,3,FEW 6   BKN 12   BKN 30,1,18,1,16,1017,RJAW 112100Z 02012KT 9999 -SHRA FEW006 BKN012 BKN030 18/16     Q1017 RMK 2ST006 5CU012 7CU030 A3004=,- RA SH
20180111_220000.004,0,RJAW,,,,0,20180111220000,-1,-1,-1,-1,30,-1,15,-1,-1,-1,-1,,9999,0,1,3,FEW 6   BKN 12   BKN 30,1,17,1,16,1018,RJAW 112200Z 03015KT 9999 -SHRA FEW006 BKN012 BKN030 17/16     Q1018 RMK 2ST006 5CU012 7CU030 A3006=,- RA SH
20180111_230000.003,0,RJAW,,,,0,20180111230000,-1,-1,-1,-1,20,-1,13,-1,-1,-1,-1,,8000,0,1,3,FEW 6   BKN 8   BKN 12,1,17,1,16,1018,RJAW 112300Z 02013KT 8000 -SHRA FEW006 BKN008 BKN012 17/16     Q1018 RMK 2ST006 5ST008 7CU012 A3008=,- RA SH
20180112_000000.003,0,RJAW,,,,0,20180112000000,-1,-1,-1,-1,40,-1,15,-1,-1,-1,-1,,9999,0,0,3,FEW 6   BKN 8   BKN 12,1,17,1,16,1018,RJAW 120000Z 04015KT 9999 FEW006 BKN008 BKN012 17/16 Q1018 RMK     1ST006 5ST008 7CU012 A3008=,
20180112_010000.004,0,RJAW,,,,0,20180112010000,-1,-1,-1,-1,30,-1,15,-1,-1,-1,-1,,8000,0,1,3,FEW 6   SCT 8   BKN 12,1,17,1,15,1019,RJAW 120100Z 03015KT 8000 -SHRA FEW006 SCT008 BKN012 17/15     Q1019 RMK 2ST006 4ST008 7CU012 A3010=,- RA SH
20180112_020000.003,0,RJAW,,,,0,20180112020000,-1,-1,-1,-1,10,-1,16,-1,26,-1,-1,,8000,0,1,3,FEW 6   BKN 8   BKN 12,1,16,1,16,1018,RJAW 120200Z 01016G26KT 8000 -SHRA FEW006 BKN008 BKN012 16/16     Q1018 RMK 2ST006 5ST008 7CU012 A3009=,- RA SH
20180112_030000.003,0,RJAW,,,,0,20180112030000,-1,-1,-1,-1,10,-1,17,-1,-1,-1,-1,,6000,0,1,3,FEW 6   BKN 8   OVC 12,1,16,1,16,1017,RJAW 120300Z 01017KT 6000 -SHRA FEW006 BKN008 OVC012 16/16     Q1017 RMK 2ST006 5ST008 8CU012 A3006=,- RA SH
20180112_040000.003,0,RJAW,,,,0,20180112040000,-1,-1,-1,-1,20,-1,17,-1,-1,-1,-1,,9999,0,1,2,BKN 8   BKN 12,1,16,1,15,1016,RJAW 120400Z 02017KT 9999 -SHRA BKN008 BKN012 16/15 Q1016 RMK     5ST008 7CU012 A3001=,- RA SH
20180112_050000.004,0,RJAW,,,,0,20180112050000,-1,-1,-1,-1,20,-1,16,-1,-1,-1,-1,,9999,0,1,2,BKN 8   BKN 12,1,16,1,15,1015,RJAW 120500Z 02016KT 9999 -SHRA BKN008 BKN012 16/15 Q1015 RMK     5ST008 7CU012 A3000=,- RA SH
20180112_060000.003,0,RJAW,,,,0,20180112060000,-1,-1,-1,-1,20,-1,15,-1,-1,-1,-1,,9999,0,0,2,BKN 8   BKN 12,1,17,1,14,1016,RJAW 120600Z 02015KT 9999 BKN008 BKN012 17/14 Q1016 RMK 5ST008     7CU012 A3001=,
20180112_070000.004,0,RJAW,,,,0,20180112070000,-1,-1,-1,-1,10,-1,14,-1,-1,-1,-1,,9999,0,1,3,SCT 8   BKN 12   BKN 20,1,17,1,14,1016,RJAW 120700Z 01014KT 9999 -SHRA SCT008 BKN012 BKN020 17/14     Q1016 RMK 3ST008 6CU012 7CU020 A3003=,- RA SH
20180112_080000.003,0,RJAW,,,,0,20180112080000,-1,-1,-1,-1,10,-1,14,-1,-1,-1,-1,,9999,0,1,3,FEW 8   BKN 12   BKN 20,1,16,1,14,1017,RJAW 120800Z 01014KT 9999 -SHRA FEW008 BKN012 BKN020 16/14     Q1017 RMK 1ST008 5CU012 7CU020 A3006=,- RA SH
20180112_090000.003,0,RJAW,,,,0,20180112090000,-1,-1,-1,-1,360,-1,15,-1,-1,-1,-1,,7000,0,1,3,FEW 8   BKN 12   BKN 20,1,15,1,14,1019,RJAW 120900Z 36015KT 7000 -SHRA FEW008 BKN012 BKN020 15/14     Q1019 RMK 2ST008 6CU012 7CU020 A3009=,- RA SH
20180112_100000.003,0,RJAW,,,,0,20180112100000,-1,-1,-1,-1,-1,-1,-1,-1,-1,-1,-1,,-1,0,0,0,,0,-1,0,-1,-1,RJAW 121000Z NIL=,
20180112_110000.003,0,RJAW,,,,0,20180112110000,-1,-1,-1,-1,-1,-1,-1,-1,-1,-1,-1,,-1,0,0,0,,0,-1,0,-1,-1,RJAW 121100Z NIL=,
20180112_120000.003,0,RJAW,,,,0,20180112120000,-1,-1,-1,-1,10,-1,12,-1,-1,-1,-1,,9999,0,0,3,FEW 8   BKN 12   BKN 20,1,15,1,14,1019,RJAW 121200Z 01012KT 9999 FEW008 BKN012 BKN020 15/14 Q1019 RMK     1ST008 5CU012 7CU020 A3011=,
20180112_130000.003,0,RJAW,,,,0,20180112130000,-1,-1,-1,-1,-1,-1,-1,-1,-1,-1,-1,,-1,0,0,0,,0,-1,0,-1,-1,RJAW 121300Z NIL=,
20180112_140000.003,0,RJAW,,,,0,20180112140000,-1,-1,-1,-1,-1,-1,-1,-1,-1,-1,-1,,-1,0,0,0,,0,-1,0,-1,-1,RJAW 121400Z NIL=,
20180112_150000.003,0,RJAW,,,,0,20180112150000,-1,-1,-1,-1,20,-1,10,-1,-1,-1,-1,,9999,0,0,2,SCT 12   BKN 20,1,16,1,13,1019,RJAW 121500Z 02010KT 9999 SCT012 BKN020 16/13 Q1019 RMK 3CU012     7CU020 A3010=,
20180112_160000.003,0,RJAW,,,,0,20180112160000,-1,-1,-1,-1,-1,-1,-1,-1,-1,-1,-1,,-1,0,0,0,,0,-1,0,-1,-1,RJAW 121600Z NIL=,
20180112_170000.003,0,RJAW,,,,0,20180112170000,-1,-1,-1,-1,-1,-1,-1,-1,-1,-1,-1,,-1,0,0,0,,0,-1,0,-1,-1,RJAW 121700Z NIL=,
20180112_180000.003,0,RJAW,,,,0,20180112180000,-1,-1,-1,-1,50,-1,7,-1,-1,-1,-1,,9999,0,0,2,FEW 15   BKN 20,1,17,1,13,1017,RJAW 121800Z 05007KT 9999 FEW015 BKN020 17/13 Q1017 RMK 2CU015     7CU020 A3004=,
20180112_190000.003,0,RJAW,,,,0,20180112190000,-1,-1,-1,-1,-1,-1,-1,-1,-1,-1,-1,,-1,0,0,0,,0,-1,0,-1,-1,RJAW 121900Z NIL=,
20180112_200000.004,0,RJAW,,,,0,20180112200000,-1,-1,-1,-1,30,-1,6,-1,-1,-1,-1,,9999,0,0,2,FEW 12   BKN 20,1,17,1,13,1017,RJAW 122000Z 03006KT 9999 FEW012 BKN020 17/13 Q1017 RMK 2CU012     7CU020 A3006=,
20180112_210000.003,0,RJAW,,,,0,20180112210000,-1,-1,-1,-1,10,-1,5,-1,-1,-1,-1,,9999,0,0,2,SCT 12   BKN 20,1,17,1,14,1018,RJAW 122100Z 01005KT 9999 SCT012 BKN020 17/14 Q1018 RMK 3CU012     7CU020 A3008=,
20180112_220000.003,0,RJAW,,,,0,20180112220000,-1,-1,-1,-1,10,-1,4,-1,-1,-1,-1,,9999,0,0,3,SCT 12   BKN 20   BKN 100,1,17,1,13,1018,RJAW 122200Z 01004KT 9999 SCT012 BKN020 BKN100 17/13 Q1018 RMK     3CU012 5CU020 7AC100 A3009=,
20180112_230000.003,0,RJAW,,,,0,20180112230000,-1,-1,-1,-1,340,-1,3,-1,-1,300,20,,9999,0,0,3,FEW 15   SCT 20   BKN 100,1,18,1,14,1019,RJAW 122300Z 34003KT 300V020 9999 FEW015 SCT020 BKN100 18/14     Q1019 RMK 1CU015 4CU020 7AC100 A3012=,
20180113_000000.003,0,RJAW,,,,0,20180113000000,-1,-1,-1,-1,340,-1,5,-1,-1,300,10,,9999,0,0,3,FEW 20   SCT 30   BKN 100,1,19,1,13,1019,RJAW 130000Z 34005KT 300V010 9999 FEW020 SCT030 BKN100 19/13     Q1019 RMK 2CU020 4CU030 7AC100 A3011=,
20180113_010000.004,0,RJAW,,,,0,20180113010000,-1,-1,-1,-1,350,-1,6,-1,-1,-1,-1,,9999,0,1,3,FEW 15   SCT 30   BKN 100,1,19,1,13,1019,RJAW 130100Z 35006KT 9999 -SHRA FEW015 SCT030 BKN100 19/13     Q1019 RMK 1CU015 4CU030 5AC100 A3011=,- RA SH
20180113_020000.003,0,RJAW,,,,0,20180113020000,-1,-1,-1,-1,340,-1,9,-1,-1,-1,-1,,9999,0,1,3,FEW 15   SCT 30   BKN 100,1,18,1,15,1019,RJAW 130200Z 34009KT 9999 -SHRA FEW015 SCT030 BKN100 18/15     Q1019 RMK 2CU015 4CU030 7AC100 A3009=,- RA SH
20180113_030000.003,0,RJAW,,,,0,20180113030000,-1,-1,-1,-1,320,-1,8,-1,-1,-1,-1,,9999,0,0,3,FEW 15   SCT 30   BKN 100,1,18,1,13,1018,RJAW 130300Z 32008KT 9999 FEW015 SCT030 BKN100 18/13 Q1018 RMK     2CU015 3CU030 7AC100 A3007=,
20180113_040000.003,0,RJAW,,,,0,20180113040000,-1,-1,-1,-1,330,-1,7,-1,-1,-1,-1,,9999,0,0,3,FEW 15   SCT 30   BKN 100,1,18,1,14,1017,RJAW 130400Z 33007KT 9999 FEW015 SCT030 BKN100 18/14 Q1017 RMK     1CU015 3CU030 7AC100 A3004=,
20180113_050000.003,0,RJAW,,,,0,20180113050000,-1,-1,-1,-1,330,-1,10,-1,-1,-1,-1,,9999,0,1,3,FEW 15   BKN 30   BKN 100,1,17,1,16,1017,RJAW 130500Z 33010KT 9999 -SHRA FEW015 BKN030 BKN100 17/16     Q1017 RMK 2CU015 6CU030 7AC100 A3004=,- RA SH
20180113_060000.003,0,RJAW,,,,0,20180113060000,-1,-1,-1,-1,350,-1,10,-1,-1,-1,-1,,9999,0,1,3,FEW 15   BKN 30   BKN 100,1,17,1,15,1017,RJAW 130600Z 35010KT 9999 -SHRA FEW015 BKN030 BKN100 17/15     Q1017 RMK 1CU015 5CU030 7AC100 A3004=,- RA SH
20180113_070000.003,0,RJAW,,,,0,20180113070000,-1,-1,-1,-1,360,-1,10,-1,-1,-1,-1,,9999,0,1,3,FEW 15   BKN 30   BKN 100,1,17,1,15,1017,RJAW 130700Z 36010KT 9999 -SHRA FEW015 BKN030 BKN100 17/15     Q1017 RMK 1CU015 5CU030 7AC100 A3006=,- RA SH
20180113_080000.003,0,RJAW,,,,0,20180113080000,-1,-1,-1,-1,360,-1,14,-1,-1,-1,-1,,9999,0,1,3,FEW 15   BKN 30   BKN 100,1,17,1,15,1018,RJAW 130800Z 36014KT 9999 -SHRA FEW015 BKN030 BKN100 17/15     Q1018 RMK 1CU015 5CU030 7AC100 A3007=,- RA SH
20180113_090000.003,0,RJAW,,,,0,20180113090000,-1,-1,-1,-1,10,-1,15,-1,-1,-1,-1,,9999,0,1,3,FEW 15   BKN 30   BKN 100,1,17,1,15,1018,RJAW 130900Z 01015KT 9999 -SHRA FEW015 BKN030 BKN100 17/15     Q1018 RMK 1CU015 5CU030 7AC100 A3008=,- RA SH
20180113_100000.003,0,RJAW,,,,0,20180113100000,-1,-1,-1,-1,-1,-1,-1,-1,-1,-1,-1,,-1,0,0,0,,0,-1,0,-1,-1,RJAW 131000Z NIL=,
20180113_110000.003,0,RJAW,,,,0,20180113110000,-1,-1,-1,-1,-1,-1,-1,-1,-1,-1,-1,,-1,0,0,0,,0,-1,0,-1,-1,RJAW 131100Z NIL=,
20180113_120000.003,0,RJAW,,,,0,20180113120000,-1,-1,-1,-1,10,-1,18,-1,-1,-1,-1,,8000,0,1,2,SCT 15   BKN 30,1,16,1,15,1020,RJAW 131200Z 01018KT 8000 -SHRA SCT015 BKN030 16/15 Q1020 RMK     3CU015 7CU030 A3014=,- RA SH
20180113_130000.003,0,RJAW,,,,0,20180113130000,-1,-1,-1,-1,-1,-1,-1,-1,-1,-1,-1,,-1,0,0,0,,0,-1,0,-1,-1,RJAW 131300Z NIL=,
20180113_140000.004,0,RJAW,,,,0,20180113140000,-1,-1,-1,-1,-1,-1,-1,-1,-1,-1,-1,,-1,0,0,0,,0,-1,0,-1,-1,RJAW 131400Z NIL=,
20180113_150000.003,0,RJAW,,,,0,20180113150000,-1,-1,-1,-1,10,-1,17,-1,31,-1,-1,,9999,0,1,2,SCT 15   BKN 30,1,16,1,13,1020,RJAW 131500Z 01017G31KT 9999 -SHRA SCT015 BKN030 16/13 Q1020     RMK 3CU015 7CU030 A3014=,- RA SH
20180113_160000.003,0,RJAW,,,,0,20180113160000,-1,-1,-1,-1,-1,-1,-1,-1,-1,-1,-1,,-1,0,0,0,,0,-1,0,-1,-1,RJAW 131600Z NIL=,
20180113_170000.003,0,RJAW,,,,0,20180113170000,-1,-1,-1,-1,-1,-1,-1,-1,-1,-1,-1,,-1,0,0,0,,0,-1,0,-1,-1,RJAW 131700Z NIL=,
20180113_180000.003,0,RJAW,,,,0,20180113180000,-1,-1,-1,-1,20,-1,19,-1,29,-1,-1,,9999,0,0,2,FEW 15   BKN 30,1,16,1,11,1019,RJAW 131800Z 02019G29KT 9999 FEW015 BKN030 16/11 Q1019 RMK     1CU015 7CU030 A3011=,
20180113_190000.004,0,RJAW,,,,0,20180113190000,-1,-1,-1,-1,-1,-1,-1,-1,-1,-1,-1,,-1,0,0,0,,0,-1,0,-1,-1,RJAW 131900Z NIL=,
20180113_200000.004,0,RJAW,,,,0,20180113200000,-1,-1,-1,-1,20,-1,16,-1,26,350,50,,9999,0,0,2,FEW 20   SCT 100,1,16,1,9,1019,RJAW 132000Z 02016G26KT 350V050 9999 FEW020 SCT100 16/09 Q1019     RMK 1CU020 3AC100 A3011=,
20180113_210000.003,0,RJAW,,,,0,20180113210000,-1,-1,-1,-1,20,-1,16,-1,-1,-1,-1,,9999,0,0,2,SCT 30   BKN 100,1,16,1,9,1020,RJAW 132100Z 02016KT 9999 SCT030 BKN100 16/09 Q1020 RMK 3CU030     5AC100 A3014=,
20180113_220000.003,0,RJAW,,,,0,20180113220000,-1,-1,-1,-1,20,-1,17,-1,-1,-1,-1,,9999,0,0,2,SCT 30   BKN 100,1,16,1,9,1021,RJAW 132200Z 02017KT 9999 SCT030 BKN100 16/09 Q1021 RMK 3CU030     5AC100 A3015=,
20180113_230000.003,0,RJAW,,,,0,20180113230000,-1,-1,-1,-1,10,-1,17,-1,-1,-1,-1,,9999,0,0,2,FEW 20   BKN 100,1,16,1,8,1021,RJAW 132300Z 01017KT 9999 FEW020 BKN100 16/08 Q1021 RMK 2CU020     5AC100 A3017=,
20180114_000000.004,0,RJAW,,,,0,20180114000000,-1,-1,-1,-1,10,-1,18,-1,-1,-1,-1,,9999,0,0,2,FEW 20   BKN 100,1,17,1,9,1022,RJAW 140000Z 01018KT 9999 FEW020 BKN100 17/09 Q1022 RMK 2CU020     5AC100 A3018=,
20180114_010000.003,0,RJAW,,,,0,20180114010000,-1,-1,-1,-1,20,-1,18,-1,-1,-1,-1,,9999,0,0,2,FEW 20   BKN 100,1,17,1,9,1021,RJAW 140100Z 02018KT 9999 FEW020 BKN100 17/09 Q1021 RMK 1CU020     6AC100 A3017=,
20180114_020000.003,0,RJAW,,,,0,20180114020000,-1,-1,-1,-1,10,-1,16,-1,-1,-1,-1,,9999,0,0,2,FEW 20   BKN 100,1,17,1,8,1021,RJAW 140200Z 01016KT 9999 FEW020 BKN100 17/08 Q1021 RMK 1CU020     6AC100 A3015=,
20180114_030000.003,0,RJAW,,,,0,20180114030000,-1,-1,-1,-1,20,-1,18,-1,-1,-1,-1,,9999,0,0,2,FEW 30   BKN 100,1,17,1,10,1019,RJAW 140300Z 02018KT 9999 FEW030 BKN100 17/10 Q1019 RMK 2CU030     6AC100 A3012=,
20180114_040000.003,0,RJAW,,,,0,20180114040000,-1,-1,-1,-1,20,-1,17,-1,28,-1,-1,,9999,0,0,2,FEW 30   BKN 100,1,18,1,7,1019,RJAW 140400Z 02017G28KT 9999 FEW030 BKN100 18/07 Q1019 RMK     1CU030 6AC100 A3010=,
20180114_050000.003,0,RJAW,,,,0,20180114050000,-1,-1,-1,-1,20,-1,18,-1,28,-1,-1,,9999,0,0,2,FEW 30   BKN 100,1,18,1,8,1018,RJAW 140500Z 02018G28KT 9999 FEW030 BKN100 18/08 Q1018 RMK     1CU030 5AC100 A3009=,
20180114_060000.004,0,RJAW,,,,0,20180114060000,-1,-1,-1,-1,20,-1,17,-1,27,-1,-1,,9999,0,0,2,FEW 30   BKN 100,1,18,1,11,1018,RJAW 140600Z 02017G27KT 9999 FEW030 BKN100 18/11 Q1018 RMK     1CU030 5AC100 A3009=,
20180114_070000.003,0,RJAW,,,,0,20180114070000,-1,-1,-1,-1,30,-1,18,-1,28,-1,-1,,9999,0,0,2,SCT 30   SCT 100,1,17,1,10,1018,RJAW 140700Z 03018G28KT 9999 SCT030 SCT100 17/10 Q1018 RMK     4CU030 4AC100 A3009=,
20180114_080000.003,0,RJAW,,,,0,20180114080000,-1,-1,-1,-1,30,-1,15,-1,-1,-1,-1,,9999,0,0,2,SCT 30   SCT 100,1,17,1,9,1019,RJAW 140800Z 03015KT 9999 SCT030 SCT100 17/09 Q1019 RMK 4CU030     3AC100 A3011=,
20180114_090000.003,0,RJAW,,,,0,20180114090000,-1,-1,-1,-1,30,-1,17,-1,-1,-1,-1,,9999,0,0,1,SCT 30,1,17,1,9,1020,RJAW 140900Z 03017KT 9999 SCT030 17/09 Q1020 RMK 4CU030 A3012=,
20180114_100000.003,0,RJAW,,,,0,20180114100000,-1,-1,-1,-1,-1,-1,-1,-1,-1,-1,-1,,-1,0,0,0,,0,-1,0,-1,-1,RJAW 141000Z NIL=,
20180114_110000.003,0,RJAW,,,,0,20180114110000,-1,-1,-1,-1,-1,-1,-1,-1,-1,-1,-1,,-1,0,0,0,,0,-1,0,-1,-1,RJAW 141100Z NIL=,
20180114_120000.003,0,RJAW,,,,0,20180114120000,-1,-1,-1,-1,40,-1,16,-1,-1,-1,-1,,9999,0,0,1,SCT 30,1,16,1,8,1021,RJAW 141200Z 04016KT 9999 SCT030 16/08 Q1021 RMK 3CU030 A3016=,
20180114_130000.004,0,RJAW,,,,0,20180114130000,-1,-1,-1,-1,-1,-1,-1,-1,-1,-1,-1,,-1,0,0,0,,0,-1,0,-1,-1,RJAW 141300Z NIL=,
20180114_140000.003,0,RJAW,,,,0,20180114140000,-1,-1,-1,-1,-1,-1,-1,-1,-1,-1,-1,,-1,0,0,0,,0,-1,0,-1,-1,RJAW 141400Z NIL=,
20180114_150000.003,0,RJAW,,,,0,20180114150000,-1,-1,-1,-1,50,-1,12,-1,-1,-1,-1,,9999,0,0,1,SCT 30,1,17,1,9,1020,RJAW 141500Z 05012KT 9999 SCT030 17/09 Q1020 RMK 4CU030 A3014=,
20180114_160000.003,0,RJAW,,,,0,20180114160000,-1,-1,-1,-1,-1,-1,-1,-1,-1,-1,-1,,-1,0,0,0,,0,-1,0,-1,-1,RJAW 141600Z NIL=,
20180114_170000.003,0,RJAW,,,,0,20180114170000,-1,-1,-1,-1,-1,-1,-1,-1,-1,-1,-1,,-1,0,0,0,,0,-1,0,-1,-1,RJAW 141700Z NIL=,
20180114_180000.004,0,RJAW,,,,0,20180114180000,-1,-1,-1,-1,50,-1,13,-1,-1,-1,-1,,9999,0,0,1,SCT 30,1,17,1,8,1019,RJAW 141800Z 05013KT 9999 SCT030 17/08 Q1019 RMK 4CU030 A3010=,
20180114_190000.003,0,RJAW,,,,0,20180114190000,-1,-1,-1,-1,-1,-1,-1,-1,-1,-1,-1,,-1,0,0,0,,0,-1,0,-1,-1,RJAW 141900Z NIL=,
20180114_200000.004,0,RJAW,,,,0,20180114200000,-1,-1,-1,-1,50,-1,12,-1,-1,-1,-1,,9999,0,0,2,SCT 30   BKN 100,1,17,1,9,1018,RJAW 142000Z 05012KT 9999 SCT030 BKN100 17/09 Q1018 RMK 4CU030     6AC100 A3009=,
20180114_210000.003,0,RJAW,,,,0,20180114210000,-1,-1,-1,-1,50,-1,12,-1,-1,-1,-1,,9999,0,0,2,SCT 30   BKN 100,1,17,1,9,1019,RJAW 142100Z 05012KT 9999 SCT030 BKN100 17/09 Q1019 RMK 3CU030     6AC100 A3010=,
20180114_220000.003,0,RJAW,,,,0,20180114220000,-1,-1,-1,-1,50,-1,11,-1,-1,-1,-1,,9999,0,0,2,SCT 30   BKN 100,1,17,1,9,1020,RJAW 142200Z 05011KT 9999 SCT030 BKN100 17/09 Q1020 RMK 4CU030     6AC100 A3013=,
20180114_230000.003,0,RJAW,,,,0,20180114230000,-1,-1,-1,-1,50,-1,11,-1,-1,30,90,,9999,0,0,2,FEW 20   BKN 30,1,18,1,9,1020,RJAW 142300Z 05011KT 030V090 9999 FEW020 BKN030 18/09 Q1020     RMK 1CU020 5CU030 A3014=,
20180115_000000.003,0,RJAW,,,,0,20180115000000,-1,-1,-1,-1,60,-1,11,-1,-1,30,90,,9999,0,0,3,FEW 20   BKN 30   BKN 100,1,19,1,10,1021,RJAW 150000Z 06011KT 030V090 9999 FEW020 BKN030 BKN100 19/10     Q1021 RMK 1CU020 6CU030 7AC100 A3015=,
20180115_010000.003,0,RJAW,,,,0,20180115010000,-1,-1,-1,-1,60,-1,11,-1,-1,-1,-1,,9999,0,0,2,FEW 25   BKN 35,1,19,1,9,1020,RJAW 150100Z 06011KT 9999 FEW025 BKN035 19/09 Q1020 RMK 1CU025     7CU035 A3015=,
20180115_020000.003,0,RJAW,,,,0,20180115020000,-1,-1,-1,-1,70,-1,11,-1,-1,-1,-1,,9999,0,0,2,FEW 25   BKN 35,1,19,1,9,1019,RJAW 150200Z 07011KT 9999 FEW025 BKN035 19/09 Q1019 RMK 1CU025     7CU035 A3011=,
20180115_030000.003,0,RJAW,,,,0,20180115030000,-1,-1,-1,-1,60,-1,11,-1,-1,30,100,,9999,0,0,3,FEW 25   SCT 35   BKN 100,1,20,1,10,1018,RJAW 150300Z 06011KT 030V100 9999 FEW025 SCT035 BKN100 20/10     Q1018 RMK 1CU025 3CU035 7AC100 A3008=,
20180115_040000.003,0,RJAW,,,,0,20180115040000,-1,-1,-1,-1,60,-1,11,-1,-1,30,90,,9999,0,0,2,FEW 25   SCT 35,1,20,1,10,1017,RJAW 150400Z 06011KT 030V090 9999 FEW025 SCT035 20/10 Q1017     RMK 1CU025 4CU035 A3006=,
20180115_050000.003,0,RJAW,,,,0,20180115050000,-1,-1,-1,-1,60,-1,8,-1,-1,30,90,,9999,0,0,2,FEW 25   SCT 35,1,19,1,10,1017,RJAW 150500Z 06008KT 030V090 9999 FEW025 SCT035 19/10 Q1017     RMK 1CU025 4CU035 A3004=,
20180115_060000.003,0,RJAW,,,,0,20180115060000,-1,-1,-1,-1,60,-1,9,-1,-1,-1,-1,,9999,0,0,2,FEW 25   SCT 35,1,19,1,10,1017,RJAW 150600Z 06009KT 9999 FEW025 SCT035 19/10 Q1017 RMK 1CU025     4CU035 A3004=,
20180115_070000.005,0,RJAW,,,,0,20180115070000,-1,-1,-1,-1,50,-1,8,-1,-1,20,90,,9999,0,0,2,FEW 25   SCT 35,1,19,1,10,1017,RJAW 150700Z 05008KT 020V090 9999 FEW025 SCT035 19/10 Q1017     RMK 1CU025 3CU035 A3005=,
20180115_080000.003,0,RJAW,,,,0,20180115080000,-1,-1,-1,-1,60,-1,7,-1,-1,-1,-1,,9999,0,0,2,FEW 25   SCT 35,1,19,1,10,1018,RJAW 150800Z 06007KT 9999 FEW025 SCT035 19/10 Q1018 RMK 2CU025     3CU035 A3007=,
20180115_090000.003,0,RJAW,,,,0,20180115090000,-1,-1,-1,-1,10,-1,6,-1,-1,350,50,,9999,0,0,2,FEW 25   SCT 35,1,18,1,12,1018,RJAW 150900Z 01006KT 350V050 9999 FEW025 SCT035 18/12 Q1018     RMK 2CU025 4CU035 A3008=,
20180115_100000.003,0,RJAW,,,,0,20180115100000,-1,-1,-1,-1,-1,-1,-1,-1,-1,-1,-1,,-1,0,0,0,,0,-1,0,-1,-1,RJAW 151000Z NIL=,
20180115_110000.003,0,RJAW,,,,0,20180115110000,-1,-1,-1,-1,-1,-1,-1,-1,-1,-1,-1,,-1,0,0,0,,0,-1,0,-1,-1,RJAW 151100Z NIL=,
20180115_120000.003,0,RJAW,,,,0,20180115120000,-1,-1,-1,-1,20,-1,12,-1,-1,-1,-1,,9999,0,0,2,FEW 25   SCT 35,1,18,1,12,1019,RJAW 151200Z 02012KT 9999 FEW025 SCT035 18/12 Q1019 RMK 2CU025     4CU035 A3010=,
20180115_130000.003,0,RJAW,,,,0,20180115130000,-1,-1,-1,-1,-1,-1,-1,-1,-1,-1,-1,,-1,0,0,0,,0,-1,0,-1,-1,RJAW 151300Z NIL=,
20180115_140000.003,0,RJAW,,,,0,20180115140000,-1,-1,-1,-1,-1,-1,-1,-1,-1,-1,-1,,-1,0,0,0,,0,-1,0,-1,-1,RJAW 151400Z NIL=,
20180115_150000.003,0,RJAW,,,,0,20180115150000,-1,-1,-1,-1,50,-1,13,-1,-1,-1,-1,,9999,0,0,1,SCT 35,1,17,1,12,1019,RJAW 151500Z 05013KT 9999 SCT035 17/12 Q1019 RMK 3CU035 A3009=,
20180115_160000.003,0,RJAW,,,,0,20180115160000,-1,-1,-1,-1,-1,-1,-1,-1,-1,-1,-1,,-1,0,0,0,,0,-1,0,-1,-1,RJAW 151600Z NIL=,
20180115_170000.003,0,RJAW,,,,0,20180115170000,-1,-1,-1,-1,-1,-1,-1,-1,-1,-1,-1,,-1,0,0,0,,0,-1,0,-1,-1,RJAW 151700Z NIL=,
20180115_180000.003,0,RJAW,,,,0,20180115180000,-1,-1,-1,-1,50,-1,17,-1,-1,-1,-1,,9999,0,0,1,FEW 35,1,17,1,13,1018,RJAW 151800Z 05017KT 9999 FEW035 17/13 Q1018 RMK 2CU035 A3007=,
20180115_190000.003,0,RJAW,,,,0,20180115190000,-1,-1,-1,-1,-1,-1,-1,-1,-1,-1,-1,,-1,0,0,0,,0,-1,0,-1,-1,RJAW 151900Z NIL=,
20180115_200000.003,0,RJAW,,,,0,20180115200000,-1,-1,-1,-1,60,-1,15,-1,25,-1,-1,,9999,0,1,2,FEW 25   BKN 35,1,18,1,14,1018,RJAW 152000Z 06015G25KT 9999 -SHRA FEW025 BKN035 18/14 Q1018     RMK 2CU025 6CU035 A3006=,- RA SH
20180115_210000.003,0,RJAW,,,,0,20180115210000,-1,-1,-1,-1,50,-1,17,-1,28,-1,-1,,9999,0,0,2,FEW 25   SCT 35,1,18,1,14,1018,RJAW 152100Z 05017G28KT 9999 FEW025 SCT035 18/14 Q1018 RMK     2CU025 4CU035 A3008=,
20180115_220000.003,0,RJAW,,,,0,20180115220000,-1,-1,-1,-1,60,-1,19,-1,30,-1,-1,,9999,0,0,2,FEW 25   SCT 35,1,18,1,14,1019,RJAW 152200Z 06019G30KT 9999 FEW025 SCT035 18/14 Q1019 RMK     2CU025 4CU035 A3010=,
20180115_230000.003,0,RJAW,,,,0,20180115230000,-1,-1,-1,-1,70,-1,20,-1,31,-1,-1,,9999,0,0,2,FEW 25   SCT 35,1,19,1,14,1019,RJAW 152300Z 07020G31KT 9999 FEW025 SCT035 19/14 Q1019 RMK     1CU025 4CU035 A3012=,
20180116_000000.003,0,RJAW,,,,0,20180116000000,-1,-1,-1,-1,60,-1,21,-1,31,-1,-1,,9999,0,0,2,FEW 20   SCT 30,1,19,1,15,1020,RJAW 160000Z 06021G31KT 9999 FEW020 SCT030 19/15 Q1020 RMK     1CU020 4CU030 A3013=,
20180116_010000.003,0,RJAW,,,,0,20180116010000,-1,-1,-1,-1,70,-1,19,-1,29,-1,-1,,9999,0,0,2,FEW 20   SCT 30,1,20,1,14,1020,RJAW 160100Z 07019G29KT 9999 FEW020 SCT030 20/14 Q1020 RMK     1CU020 4CU030 A3013=,
20180116_020000.003,0,RJAW,,,,0,20180116020000,-1,-1,-1,-1,70,-1,21,-1,31,-1,-1,,9999,0,0,2,FEW 20   SCT 30,1,21,1,13,1018,RJAW 160200Z 07021G31KT 9999 FEW020 SCT030 21/13 Q1018 RMK     1CU020 4CU030 A3009=,
20180116_030000.003,0,RJAW,,,,0,20180116030000,-1,-1,-1,-1,70,-1,21,-1,33,-1,-1,,9999,0,0,2,FEW 20   SCT 30,1,21,1,12,1018,RJAW 160300Z 07021G33KT 9999 FEW020 SCT030 21/12 Q1018 RMK     1CU020 3CU030 A3006=,
20180116_040000.003,0,RJAW,,,,0,20180116040000,-1,-1,-1,-1,80,-1,24,-1,-1,-1,-1,,9999,0,0,2,FEW 20   SCT 30,1,21,1,14,1017,RJAW 160400Z 08024KT 9999 FEW020 SCT030 21/14 Q1017 RMK 1CU020     3CU030 A3003=,
20180116_050000.003,0,RJAW,,,,0,20180116050000,-1,-1,-1,-1,80,-1,21,-1,-1,-1,-1,,9999,0,0,2,FEW 20   SCT 30,1,21,1,13,1016,RJAW 160500Z 08021KT 9999 FEW020 SCT030 21/13 Q1016 RMK 1CU020     3CU030 A3003=,
20180116_060000.003,0,RJAW,,,,0,20180116060000,-1,-1,-1,-1,90,-1,20,-1,-1,-1,-1,,9999,0,0,2,FEW 20   SCT 30,1,20,1,13,1017,RJAW 160600Z 09020KT 9999 FEW020 SCT030 20/13 Q1017 RMK 1CU020     4CU030 A3003=,
20180116_070000.003,0,RJAW,,,,0,20180116070000,-1,-1,-1,-1,90,-1,19,-1,-1,-1,-1,,9999,0,0,2,FEW 20   SCT 30,1,20,1,12,1017,RJAW 160700Z 09019KT 9999 FEW020 SCT030 20/12 Q1017 RMK 1CU020     4CU030 A3004=,
20180116_080000.003,0,RJAW,,,,0,20180116080000,-1,-1,-1,-1,80,-1,18,-1,-1,-1,-1,,9999,0,0,2,FEW 20   SCT 30,1,19,1,12,1017,RJAW 160800Z 08018KT 9999 FEW020 SCT030 19/12 Q1017 RMK 1CU020     4CU030 A3006=,
20180116_090000.003,0,RJAW,,,,0,20180116090000,-1,-1,-1,-1,70,-1,18,-1,-1,-1,-1,,9999,0,0,2,FEW 20   BKN 30,1,19,1,12,1017,RJAW 160900Z 07018KT 9999 FEW020 BKN030 19/12 Q1017 RMK 1CU020     7CU030 A3006=,
20180116_100000.003,0,RJAW,,,,0,20180116100000,-1,-1,-1,-1,-1,-1,-1,-1,-1,-1,-1,,-1,0,0,0,,0,-1,0,-1,-1,RJAW 161000Z NIL=,
20180116_110000.005,0,RJAW,,,,0,20180116110000,-1,-1,-1,-1,-1,-1,-1,-1,-1,-1,-1,,-1,0,0,0,,0,-1,0,-1,-1,RJAW 161100Z NIL=,
20180116_120000.003,0,RJAW,,,,0,20180116120000,-1,-1,-1,-1,90,-1,21,-1,-1,-1,-1,,9999,0,0,2,FEW 20   BKN 30,1,19,1,13,1018,RJAW 161200Z 09021KT 9999 FEW020 BKN030 19/13 Q1018 RMK 1CU020     6CU030 A3008=,
20180116_130000.003,0,RJAW,,,,0,20180116130000,-1,-1,-1,-1,-1,-1,-1,-1,-1,-1,-1,,-1,0,0,0,,0,-1,0,-1,-1,RJAW 161300Z NIL=,
20180116_140000.003,0,RJAW,,,,0,20180116140000,-1,-1,-1,-1,-1,-1,-1,-1,-1,-1,-1,,-1,0,0,0,,0,-1,0,-1,-1,RJAW 161400Z NIL=,
20180116_150000.003,0,RJAW,,,,0,20180116150000,-1,-1,-1,-1,90,-1,19,-1,-1,-1,-1,,9999,0,0,2,FEW 20   BKN 30,1,19,1,11,1017,RJAW 161500Z 09019KT 9999 FEW020 BKN030 19/11 Q1017 RMK 1CU020     5CU030 A3005=,
20180116_160000.003,0,RJAW,,,,0,20180116160000,-1,-1,-1,-1,-1,-1,-1,-1,-1,-1,-1,,-1,0,0,0,,0,-1,0,-1,-1,RJAW 161600Z NIL=,
20180116_170000.003,0,RJAW,,,,0,20180116170000,-1,-1,-1,-1,-1,-1,-1,-1,-1,-1,-1,,-1,0,0,0,,0,-1,0,-1,-1,RJAW 161700Z NIL=,
20180116_180000.003,0,RJAW,,,,0,20180116180000,-1,-1,-1,-1,100,-1,19,-1,-1,-1,-1,,9999,0,0,1,FEW 30,1,19,1,13,1016,RJAW 161800Z 10019KT 9999 FEW030 19/13 Q1016 RMK 2CU030 A3002=,
20180116_190000.003,0,RJAW,,,,0,20180116190000,-1,-1,-1,-1,-1,-1,-1,-1,-1,-1,-1,,-1,0,0,0,,0,-1,0,-1,-1,RJAW 161900Z NIL=,
20180116_200000.003,0,RJAW,,,,0,20180116200000,-1,-1,-1,-1,100,-1,17,-1,-1,-1,-1,,9999,0,0,1,FEW 30,1,19,1,14,1016,RJAW 162000Z 10017KT 9999 FEW030 19/14 Q1016 RMK 2CU030 A3002=,
20180116_210000.003,0,RJAW,,,,0,20180116210000,-1,-1,-1,-1,110,-1,18,-1,28,-1,-1,,9999,0,0,1,SCT 30,1,19,1,13,1017,RJAW 162100Z 11018G28KT 9999 SCT030 19/13 Q1017 RMK 3CU030     A3003=,
20180116_220000.003,0,RJAW,,,,0,20180116220000,-1,-1,-1,-1,110,-1,19,-1,-1,-1,-1,,9999,0,0,1,SCT 30,1,20,1,14,1017,RJAW 162200Z 11019KT 9999 SCT030 20/14 Q1017 RMK 3CU030 A3004=,
20180116_230000.003,0,RJAW,,,,0,20180116230000,-1,-1,-1,-1,110,-1,17,-1,-1,-1,-1,,9999,0,1,2,FEW 20   BKN 30,1,20,1,15,1018,RJAW 162300Z 11017KT 9999 VCSH FEW020 BKN030 20/15 Q1018 RMK     1CU020 5CU030 A3006=,VC SH
20180117_000000.004,0,RJAW,,,,0,20180117000000,-1,-1,-1,-1,100,-1,16,-1,-1,-1,-1,,9999,0,0,3,FEW 20   SCT 30   BKN 60,1,21,1,16,1018,RJAW 170000Z 10016KT 9999 FEW020 SCT030 BKN060 21/16 Q1018 RMK     1CU020 3CU030 6SC060 A3007=,
20180117_010000.003,0,RJAW,,,,0,20180117010000,-1,-1,-1,-1,100,-1,17,-1,-1,-1,-1,,9999,0,0,3,FEW 20   BKN 30   BKN 60,1,22,1,17,1018,RJAW 170100Z 10017KT 9999 FEW020 BKN030 BKN060 22/17 Q1018 RMK     1CU020 5CU030 6SC060 A3007=,
20180117_020000.006,0,RJAW,,,,0,20180117020000,-1,-1,-1,-1,110,-1,18,-1,-1,-1,-1,,9999,0,0,3,FEW 20   BKN 30   BKN 60,1,23,1,18,1017,RJAW 170200Z 11018KT 9999 FEW020 BKN030 BKN060 23/18 Q1017 RMK     1CU020 5CU030 6SC060 A3005=,
20180117_030000.004,0,RJAW,,,,0,20180117030000,-1,-1,-1,-1,110,-1,19,-1,-1,-1,-1,,9999,0,0,3,FEW 20   BKN 30   BKN 60,1,23,1,18,1016,RJAW 170300Z 11019KT 9999 FEW020 BKN030 BKN060 23/18 Q1016 RMK     1CU020 5CU030 6SC060 A3001=,
20180117_040000.004,0,RJAW,,,,0,20180117040000,-1,-1,-1,-1,110,-1,18,-1,-1,-1,-1,,9999,0,0,3,FEW 20   SCT 30   BKN 60,1,23,1,18,1015,RJAW 170400Z 11018KT 9999 FEW020 SCT030 BKN060 23/18 Q1015 RMK     1CU020 3CU030 6SC060 A2998=,
20180117_050000.004,0,RJAW,,,,0,20180117050000,-1,-1,-1,-1,110,-1,17,-1,-1,-1,-1,,9999,0,0,3,FEW 20   BKN 30   BKN 60,1,23,1,19,1014,RJAW 170500Z 11017KT 9999 FEW020 BKN030 BKN060 23/19 Q1014 RMK     1CU020 6CU030 7SC060 A2997=,
20180117_060000.003,0,RJAW,,,,0,20180117060000,-1,-1,-1,-1,130,-1,13,-1,-1,-1,-1,,9999,0,1,2,FEW 20   BKN 30,1,21,1,19,1015,RJAW 170600Z 13013KT 9999 -SHRA FEW020 BKN030 21/19 Q1015 RMK     2CU020 7CU030 A2998=,- RA SH
20180117_070000.004,0,RJAW,,,,0,20180117070000,-1,-1,-1,-1,100,-1,14,-1,-1,-1,-1,,5000,0,2,3,FEW 10   SCT 20   BKN 30,1,19,1,18,1015,RJAW 170700Z 10014KT 5000 -SHRA BR FEW010 SCT020 BKN030 19/18     Q1015 RMK 1CU010 3CU020 7CU030 A2999=,- RA SH; BR
20180117_080000.003,0,RJAW,,,,0,20180117080000,-1,-1,-1,-1,110,-1,14,-1,-1,-1,-1,,5000,0,2,3,SCT 8   BKN 20   BKN 30,1,20,1,19,1015,RJAW 170800Z 11014KT 5000 -SHRA BR SCT008 BKN020 BKN030 20/19     Q1015 RMK 3ST008 5CU020 7CU030 A2998=,- RA SH; BR
20180117_090000.004,0,RJAW,,,,0,20180117090000,-1,-1,-1,-1,110,-1,16,-1,-1,-1,-1,,8000,0,0,3,SCT 8   BKN 20   BKN 30,1,20,1,19,1015,RJAW 170900Z 11016KT 8000 SCT008 BKN020 BKN030 20/19 Q1015 RMK     3ST008 5CU020 7CU030 A2999=,
20180117_100000.003,0,RJAW,,,,0,20180117100000,-1,-1,-1,-1,-1,-1,-1,-1,-1,-1,-1,,-1,0,0,0,,0,-1,0,-1,-1,RJAW 171000Z NIL=,
20180117_110000.004,0,RJAW,,,,0,20180117110000,-1,-1,-1,-1,-1,-1,-1,-1,-1,-1,-1,,-1,0,0,0,,0,-1,0,-1,-1,RJAW 171100Z NIL=,
20180117_120000.004,0,RJAW,,,,0,20180117120000,-1,-1,-1,-1,110,-1,14,-1,-1,-1,-1,,9999,0,0,3,FEW 8   SCT 20   BKN 30,1,20,1,20,1016,RJAW 171200Z 11014KT 9999 FEW008 SCT020 BKN030 20/20 Q1016 RMK     2ST008 4CU020 6CU030 A3001=,
20180117_130000.003,0,RJAW,,,,0,20180117130000,-1,-1,-1,-1,-1,-1,-1,-1,-1,-1,-1,,-1,0,0,0,,0,-1,0,-1,-1,RJAW 171300Z NIL=,
20180117_140000.003,0,RJAW,,,,0,20180117140000,-1,-1,-1,-1,-1,-1,-1,-1,-1,-1,-1,,-1,0,0,0,,0,-1,0,-1,-1,RJAW 171400Z NIL=,
20180117_150000.003,0,RJAW,,,,0,20180117150000,-1,-1,-1,-1,110,-1,10,-1,-1,-1,-1,,9999,0,0,2,SCT 15   BKN 30,1,20,1,20,1015,RJAW 171500Z 11010KT 9999 SCT015 BKN030 20/20 Q1015 RMK 3CU015     6CU030 A2999=,
20180117_160000.003,0,RJAW,,,,0,20180117160000,-1,-1,-1,-1,-1,-1,-1,-1,-1,-1,-1,,-1,0,0,0,,0,-1,0,-1,-1,RJAW 171600Z NIL=,
20180117_170000.003,0,RJAW,,,,0,20180117170000,-1,-1,-1,-1,-1,-1,-1,-1,-1,-1,-1,,-1,0,0,0,,0,-1,0,-1,-1,RJAW 171700Z NIL=,
20180117_180000.003,0,RJAW,,,,0,20180117180000,-1,-1,-1,-1,70,-1,6,-1,-1,-1,-1,,9999,0,1,2,SCT 4   BKN 20,1,21,1,21,1015,RJAW 171800Z 07006KT 9999 -DZ SCT004 BKN020 21/21 Q1015 RMK     4ST004 6CU020 A2998=,- DZ
20180117_190000.004,0,RJAW,,,,0,20180117190000,-1,-1,-1,-1,-1,-1,-1,-1,-1,-1,-1,,-1,0,0,0,,0,-1,0,-1,-1,RJAW 171900Z NIL=,
20180117_200000.003,0,RJAW,,,,0,20180117200000,-1,-1,-1,-1,50,-1,9,-1,-1,10,70,,1800,0,2,2,SCT 2   BKN 4,1,20,1,20,1015,RJAW 172000Z 05009KT 010V070 1800 -SHRA BR SCT002 BKN004 20/20     Q1015 RMK 3ST002 7ST004 A2999=,- RA SH; BR
20180117_210000.003,0,RJAW,,,,0,20180117210000,-1,-1,-1,-1,50,-1,11,-1,-1,-1,-1,,4500,0,2,3,FEW 2   BKN 4   BKN 15,1,20,1,20,1015,RJAW 172100Z 05011KT 4500 -SHRA BR FEW002 BKN004 BKN015 20/20     Q1015 RMK 1ST002 6ST004 5CU015 A3000=,- RA SH; BR
20180117_220000.004,0,RJAW,,,,0,20180117220000,-1,-1,-1,-1,60,-1,11,-1,-1,-1,-1,,8000,0,0,2,SCT 2   BKN 4,1,20,1,20,1016,RJAW 172200Z 06011KT 8000 SCT002 BKN004 20/20 Q1016 RMK 4ST002     7ST004 A3001=,
20180117_230000.003,0,RJAW,,,,0,20180117230000,-1,-1,-1,-1,70,-1,10,-1,-1,-1,-1,,9999,0,0,2,SCT 4   SCT 230,1,21,1,21,1016,RJAW 172300Z 07010KT 9999 SCT004 SCT230 21/21 Q1016 RMK 3ST004     A3001=,
20180118_000000.003,0,RJAW,,,,0,20180118000000,-1,-1,-1,-1,70,-1,10,-1,-1,-1,-1,,9999,0,0,2,FEW 3   SCT 230,1,22,1,20,1016,RJAW 180000Z 07010KT 9999 FEW003 SCT230 22/20 Q1016 RMK 1ST003     A3003=,
20180118_010000.003,0,RJAW,,,,0,20180118010000,-1,-1,-1,-1,70,-1,8,-1,-1,30,90,,9999,0,0,2,FEW 3   SCT 230,1,23,1,20,1016,RJAW 180100Z 07008KT 030V090 9999 FEW003 SCT230 23/20 Q1016     RMK 1ST003 A3002=,
20180118_020000.003,0,RJAW,,,,0,20180118020000,-1,-1,-1,-1,50,-1,10,-1,-1,-1,-1,,9999,0,0,2,FEW 30   SCT 230,1,23,1,19,1016,RJAW 180200Z 05010KT 9999 FEW030 SCT230 23/19 Q1016 RMK 1CU030     A3002=,
20180118_030000.004,0,RJAW,,,,0,20180118030000,-1,-1,-1,-1,40,-1,10,-1,-1,360,70,,9999,0,0,2,FEW 5   SCT 230,1,23,1,20,1015,RJAW 180300Z 04010KT 360V070 9999 FEW005 SCT230 23/20 Q1015     RMK 1ST005 A3000=,
20180118_040000.003,0,RJAW,,,,0,20180118040000,-1,-1,-1,-1,30,-1,11,-1,-1,-1,-1,,9999,0,0,2,FEW 5   SCT 230,1,23,1,19,1015,RJAW 180400Z 03011KT 9999 FEW005 SCT230 23/19 Q1015 RMK 1ST005     A2998=,
20180118_050000.003,0,RJAW,,,,0,20180118050000,-1,-1,-1,-1,30,-1,12,-1,-1,-1,-1,,9999,0,0,1,FEW 5,1,22,1,19,1014,RJAW 180500Z 03012KT 9999 FEW005 22/19 Q1014 RMK 1ST005 A2996=,
20180118_060000.003,0,RJAW,,,,0,20180118060000,-1,-1,-1,-1,40,-1,12,-1,-1,-1,-1,,9999,0,0,2,FEW 5   SCT 10,1,22,1,19,1014,RJAW 180600Z 04012KT 9999 FEW005 SCT010 22/19 Q1014 RMK 1ST005     3CU010 A2995=,
20180118_070000.003,0,RJAW,,,,0,20180118070000,-1,-1,-1,-1,50,-1,11,-1,-1,-1,-1,,9999,0,0,1,FEW 5,1,22,1,19,1014,RJAW 180700Z 05011KT 9999 FEW005 22/19 Q1014 RMK 1ST005 A2996=,
20180118_080000.003,0,RJAW,,,,0,20180118080000,-1,-1,-1,-1,70,-1,9,-1,-1,-1,-1,,9999,0,0,2,FEW 5   SCT 10,1,21,1,19,1014,RJAW 180800Z 07009KT 9999 FEW005 SCT010 21/19 Q1014 RMK 1ST005     3CU010 A2996=,
20180118_090000.003,0,RJAW,,,,0,20180118090000,-1,-1,-1,-1,80,-1,8,-1,-1,-1,-1,,9999,0,0,2,FEW 5   SCT 10,1,20,1,19,1015,RJAW 180900Z 08008KT 9999 FEW005 SCT010 20/19 Q1015 RMK 1ST005     3CU010 A2998=,
20180118_100000.003,0,RJAW,,,,0,20180118100000,-1,-1,-1,-1,40,-1,9,-1,-1,-1,-1,,9999,0,0,2,FEW 5   SCT 10,1,20,1,19,1016,RJAW 181000Z 04009KT 9999 FEW005 SCT010 20/19 Q1016 RMK 1ST005     3CU010 A3001=,
20180118_110000.003,0,RJAW,,,,0,20180118110000,-1,-1,-1,-1,-1,-1,-1,-1,-1,-1,-1,,-1,0,0,0,,0,-1,0,-1,-1,RJAW 181100Z NIL=,
20180118_120000.003,0,RJAW,,,,0,20180118120000,-1,-1,-1,-1,30,-1,10,-1,-1,-1,-1,,9999,0,0,2,FEW 5   SCT 10,1,20,1,19,1017,RJAW 181200Z 03010KT 9999 FEW005 SCT010 20/19 Q1017 RMK 1ST005     3CU010 A3004=,
20180118_130000.003,0,RJAW,,,,0,20180118130000,-1,-1,-1,-1,-1,-1,-1,-1,-1,-1,-1,,-1,0,0,0,,0,-1,0,-1,-1,RJAW 181300Z NIL=,
20180118_140000.003,0,RJAW,,,,0,20180118140000,-1,-1,-1,-1,-1,-1,-1,-1,-1,-1,-1,,-1,0,0,0,,0,-1,0,-1,-1,RJAW 181400Z NIL=,
20180118_150000.003,0,RJAW,,,,0,20180118150000,-1,-1,-1,-1,30,-1,10,-1,-1,-1,-1,,9999,0,0,1,SCT 10,1,20,1,18,1017,RJAW 181500Z 03010KT 9999 SCT010 20/18 Q1017 RMK 3CU010 A3004=,
20180118_160000.003,0,RJAW,,,,0,20180118160000,-1,-1,-1,-1,-1,-1,-1,-1,-1,-1,-1,,-1,0,0,0,,0,-1,0,-1,-1,RJAW 181600Z NIL=,
20180118_170000.003,0,RJAW,,,,0,20180118170000,-1,-1,-1,-1,-1,-1,-1,-1,-1,-1,-1,,-1,0,0,0,,0,-1,0,-1,-1,RJAW 181700Z NIL=,
20180118_180000.003,0,RJAW,,,,0,20180118180000,-1,-1,-1,-1,30,-1,11,-1,-1,-1,-1,,9999,0,0,1,FEW 10,1,20,1,18,1016,RJAW 181800Z 03011KT 9999 FEW010 20/18 Q1016 RMK 2CU010 A3002=,
20180118_190000.003,0,RJAW,,,,0,20180118190000,-1,-1,-1,-1,-1,-1,-1,-1,-1,-1,-1,,-1,0,0,0,,0,-1,0,-1,-1,RJAW 181900Z NIL=,
20180118_200000.003,0,RJAW,,,,0,20180118200000,-1,-1,-1,-1,30,-1,9,-1,-1,-1,-1,,9999,0,0,1,FEW 10,1,19,1,18,1017,RJAW 182000Z 03009KT 9999 FEW010 19/18 Q1017 RMK 1CU010 A3003=,
20180118_210000.004,0,RJAW,,,,0,20180118210000,-1,-1,-1,-1,30,-1,8,-1,-1,-1,-1,,9999,0,0,1,SCT 10,1,19,1,17,1017,RJAW 182100Z 03008KT 9999 SCT010 19/17 Q1017 RMK 3CU010 A3005=,
20180118_220000.003,0,RJAW,,,,0,20180118220000,-1,-1,-1,-1,20,-1,8,-1,-1,-1,-1,,9999,0,0,1,FEW 10,1,19,1,17,1018,RJAW 182200Z 02008KT 9999 FEW010 19/17 Q1018 RMK 2CU010 A3007=,
20180118_230000.004,0,RJAW,,,,0,20180118230000,-1,-1,-1,-1,30,-1,9,-1,-1,-1,-1,,9999,0,0,1,FEW 10,1,20,1,17,1018,RJAW 182300Z 03009KT 9999 FEW010 20/17 Q1018 RMK 2CU010 A3008=,
20180119_000000.003,0,RJAW,,,,0,20180119000000,-1,-1,-1,-1,50,-1,8,-1,-1,-1,-1,,9999,0,0,1,FEW 15,1,21,1,17,1019,RJAW 190000Z 05008KT 9999 FEW015 21/17 Q1019 RMK 1CU015 A3009=,
20180119_010000.004,0,RJAW,,,,0,20180119010000,-1,-1,-1,-1,20,-1,10,-1,-1,350,50,,9999,0,0,1,FEW 15,1,21,1,17,1018,RJAW 190100Z 02010KT 350V050 9999 FEW015 21/17 Q1018 RMK     2CU015 A3009=,
20180119_020000.003,0,RJAW,,,,0,20180119020000,-1,-1,-1,-1,10,-1,10,-1,-1,330,40,,9999,0,0,1,SCT 15,1,21,1,17,1018,RJAW 190200Z 01010KT 330V040 9999 SCT015 21/17 Q1018 RMK     3CU015 A3006=,
20180119_030000.003,0,RJAW,,,,0,20180119030000,-1,-1,-1,-1,20,-1,10,-1,-1,340,50,,9999,0,0,1,SCT 15,1,21,1,17,1016,RJAW 190300Z 02010KT 340V050 9999 SCT015 21/17 Q1016 RMK     3CU015 A3003=,
20180119_040000.003,0,RJAW,,,,0,20180119040000,-1,-1,-1,-1,70,-1,8,-1,-1,40,100,,9999,0,0,1,FEW 15,1,22,1,17,1015,RJAW 190400Z 07008KT 040V100 9999 FEW015 22/17 Q1015 RMK     1CU015 A2999=,
20180119_050000.004,0,RJAW,,,,0,20180119050000,-1,-1,-1,-1,60,-1,7,-1,-1,30,90,,9999,0,0,1,FEW 15,1,22,1,17,1015,RJAW 190500Z 06007KT 030V090 9999 FEW015 22/17 Q1015 RMK     1CU015 A2998=,
20180119_060000.003,0,RJAW,,,,0,20180119060000,-1,-1,-1,-1,50,-1,6,-1,-1,20,100,,9999,0,0,1,FEW 15,1,22,1,17,1015,RJAW 190600Z 05006KT 020V100 9999 FEW015 22/17 Q1015 RMK     1CU015 A2998=,
20180119_070000.003,0,RJAW,,,,0,20180119070000,-1,-1,-1,-1,20,-1,8,-1,-1,350,50,,9999,0,0,1,FEW 15,1,21,1,17,1015,RJAW 190700Z 02008KT 350V050 9999 FEW015 21/17 Q1015 RMK     1CU015 A2998=,
20180119_080000.003,0,RJAW,,,,0,20180119080000,-1,-1,-1,-1,20,-1,7,-1,-1,-1,-1,,9999,0,0,1,FEW 15,1,20,1,17,1015,RJAW 190800Z 02007KT 9999 FEW015 20/17 Q1015 RMK 1CU015 A2999=,
20180119_090000.004,0,RJAW,,,,0,20180119090000,-1,-1,-1,-1,10,-1,5,-1,-1,-1,-1,,9999,0,0,1,FEW 15,1,20,1,17,1015,RJAW 190900Z 01005KT 9999 FEW015 20/17 Q1015 RMK 1CU015 A2999=,
20180119_100000.003,0,RJAW,,,,0,20180119100000,-1,-1,-1,-1,-1,-1,-1,-1,-1,-1,-1,,-1,0,0,0,,0,-1,0,-1,-1,RJAW 191000Z NIL=,
20180119_110000.003,0,RJAW,,,,0,20180119110000,-1,-1,-1,-1,-1,-1,-1,-1,-1,-1,-1,,-1,0,0,0,,0,-1,0,-1,-1,RJAW 191100Z NIL=,
20180119_120000.004,0,RJAW,,,,0,20180119120000,-1,-1,-1,-1,360,-1,8,-1,-1,-1,-1,,9999,0,0,1,FEW 15,1,19,1,15,1016,RJAW 191200Z 36008KT 9999 FEW015 19/15 Q1016 RMK 1CU015 A3002=,
20180119_130000.003,0,RJAW,,,,0,20180119130000,-1,-1,-1,-1,-1,-1,-1,-1,-1,-1,-1,,-1,0,0,0,,0,-1,0,-1,-1,RJAW 191300Z NIL=,
20180119_140000.003,0,RJAW,,,,0,20180119140000,-1,-1,-1,-1,-1,-1,-1,-1,-1,-1,-1,,-1,0,0,0,,0,-1,0,-1,-1,RJAW 191400Z NIL=,
20180119_150000.003,0,RJAW,,,,0,20180119150000,-1,-1,-1,-1,10,-1,5,-1,-1,-1,-1,,9999,0,0,1,FEW 15,1,18,1,15,1015,RJAW 191500Z 01005KT 9999 FEW015 18/15 Q1015 RMK 1CU015 A3000=,
20180119_160000.003,0,RJAW,,,,0,20180119160000,-1,-1,-1,-1,-1,-1,-1,-1,-1,-1,-1,,-1,0,0,0,,0,-1,0,-1,-1,RJAW 191600Z NIL=,
20180119_170000.003,0,RJAW,,,,0,20180119170000,-1,-1,-1,-1,-1,-1,-1,-1,-1,-1,-1,,-1,0,0,0,,0,-1,0,-1,-1,RJAW 191700Z NIL=,
20180119_180000.004,0,RJAW,,,,0,20180119180000,-1,-1,-1,-1,360,-1,11,-1,-1,-1,-1,,9999,0,0,1,FEW 15,1,18,1,15,1015,RJAW 191800Z 36011KT 9999 FEW015 18/15 Q1015 RMK 1CU015 A2998=,
20180119_190000.004,0,RJAW,,,,0,20180119190000,-1,-1,-1,-1,-1,-1,-1,-1,-1,-1,-1,,-1,0,0,0,,0,-1,0,-1,-1,RJAW 191900Z NIL=,
20180119_200000.003,0,RJAW,,,,0,20180119200000,-1,-1,-1,-1,360,-1,10,-1,-1,-1,-1,,9999,0,0,1,FEW 15,1,18,1,15,1015,RJAW 192000Z 36010KT 9999 FEW015 18/15 Q1015 RMK 1CU015 A2999=,
20180119_210000.003,0,RJAW,,,,0,20180119210000,-1,-1,-1,-1,360,-1,9,-1,-1,-1,-1,,9999,0,0,1,FEW 15,1,18,1,14,1015,RJAW 192100Z 36009KT 9999 FEW015 18/14 Q1015 RMK 1CU015 A3000=,
20180119_220000.003,0,RJAW,,,,0,20180119220000,-1,-1,-1,-1,10,-1,6,-1,-1,-1,-1,,9999,0,0,1,FEW 150,1,18,1,15,1016,RJAW 192200Z 01006KT 9999 FEW150 18/15 Q1016 RMK 1AC150 A3001=,
20180119_230000.003,0,RJAW,,,,0,20180119230000,-1,-1,-1,-1,360,-1,8,-1,-1,-1,-1,,9999,0,0,1,FEW 150,1,19,1,15,1017,RJAW 192300Z 36008KT 9999 FEW150 19/15 Q1017 RMK 1AC150 A3004=,
20180120_000000.003,0,RJAW,,,,0,20180120000000,-1,-1,-1,-1,360,-1,8,-1,-1,-1,-1,,9999,0,0,2,FEW 15   BKN 150,1,20,1,14,1017,RJAW 200000Z 36008KT 9999 FEW015 BKN150 20/14 Q1017 RMK 1CU015     6AC150 A3005=,
20180120_010000.003,0,RJAW,,,,0,20180120010000,-1,-1,-1,-1,360,-1,10,-1,-1,-1,-1,,9999,0,0,2,FEW 15   BKN 150,1,21,1,15,1017,RJAW 200100Z 36010KT 9999 FEW015 BKN150 21/15 Q1017 RMK 1CU015     6AC150 A3005=,
20180120_020000.004,0,RJAW,,,,0,20180120020000,-1,-1,-1,-1,360,-1,10,-1,-1,-1,-1,,9999,0,0,2,FEW 30   BKN 150,1,21,1,15,1017,RJAW 200200Z 36010KT 9999 FEW030 BKN150 21/15 Q1017 RMK 1CU030     6AC150 A3004=,
20180120_030000.003,0,RJAW,,,,0,20180120030000,-1,-1,-1,-1,360,-1,12,-1,-1,330,30,,9999,0,0,2,FEW 30   SCT 150,1,21,1,15,1015,RJAW 200300Z 36012KT 330V030 9999 FEW030 SCT150 21/15 Q1015     RMK 1CU030 3AC150 A3000=,
20180120_040000.003,0,RJAW,,,,0,20180120040000,-1,-1,-1,-1,10,-1,11,-1,-1,-1,-1,,9999,0,0,1,FEW 30,1,21,1,15,1015,RJAW 200400Z 01011KT 9999 FEW030 21/15 Q1015 RMK 2CU030 A2998=,
20180120_050000.003,0,RJAW,,,,0,20180120050000,-1,-1,-1,-1,10,-1,10,-1,-1,340,40,,9999,0,0,2,FEW 20   SCT 230,1,21,1,15,1014,RJAW 200500Z 01010KT 340V040 9999 FEW020 SCT230 21/15 Q1014     RMK 1CU020 A2997=,
20180120_060000.003,0,RJAW,,,,0,20180120060000,-1,-1,-1,-1,10,-1,10,-1,-1,-1,-1,,9999,0,0,1,FEW 20,1,21,1,15,1014,RJAW 200600Z 01010KT 9999 FEW020 21/15 Q1014 RMK 1CU020 A2995=,
20180120_070000.003,0,RJAW,,,,0,20180120070000,-1,-1,-1,-1,10,-1,9,-1,-1,-1,-1,,9999,0,0,1,FEW 20,1,21,1,15,1014,RJAW 200700Z 01009KT 9999 FEW020 21/15 Q1014 RMK 2CU020 A2997=,
20180120_080000.003,0,RJAW,,,,0,20180120080000,-1,-1,-1,-1,20,-1,7,-1,-1,-1,-1,,9999,0,0,1,FEW 20,1,20,1,15,1015,RJAW 200800Z 02007KT 9999 FEW020 20/15 Q1015 RMK 2CU020 A2998=,
20180120_090000.003,0,RJAW,,,,0,20180120090000,-1,-1,-1,-1,20,-1,6,-1,-1,-1,-1,,9999,0,0,1,FEW 20,1,19,1,15,1015,RJAW 200900Z 02006KT 9999 FEW020 19/15 Q1015 RMK 2CU020 A2999=,
20180120_100000.003,0,RJAW,,,,0,20180120100000,-1,-1,-1,-1,20,-1,6,-1,-1,-1,-1,,9999,0,0,1,FEW 20,1,19,1,13,1016,RJAW 201000Z 02006KT 9999 FEW020 19/13 Q1016 RMK 2CU020 A3001=,
20180120_110000.003,0,RJAW,,,,0,20180120110000,-1,-1,-1,-1,20,-1,5,-1,-1,-1,-1,,9999,0,0,1,FEW 20,1,19,1,13,1016,RJAW 201100Z 02005KT 9999 FEW020 19/13 Q1016 RMK 2CU020 A3002=,
20180120_120000.003,0,RJAW,,,,0,20180120120000,-1,-1,-1,-1,20,-1,4,-1,-1,-1,-1,,9999,0,0,1,FEW 20,1,19,1,14,1016,RJAW 201200Z 02004KT 9999 FEW020 19/14 Q1016 RMK 1CU020 A3002=,
20180120_130000.003,0,RJAW,,,,0,20180120130000,-1,-1,-1,-1,-1,-1,-1,-1,-1,-1,-1,,-1,0,0,0,,0,-1,0,-1,-1,RJAW 201300Z NIL=,
20180120_140000.003,0,RJAW,,,,0,20180120140000,-1,-1,-1,-1,-1,-1,-1,-1,-1,-1,-1,,-1,0,0,0,,0,-1,0,-1,-1,RJAW 201400Z NIL=,
20180120_150000.003,0,RJAW,,,,0,20180120150000,-1,-1,-1,-1,20,-1,6,-1,-1,-1,-1,,9999,0,0,1,FEW 20,1,19,1,14,1016,RJAW 201500Z 02006KT 9999 FEW020 19/14 Q1016 RMK 1CU020 A3003=,
20180120_160000.003,0,RJAW,,,,0,20180120160000,-1,-1,-1,-1,-1,-1,-1,-1,-1,-1,-1,,-1,0,0,0,,0,-1,0,-1,-1,RJAW 201600Z NIL=,
20180120_170000.003,0,RJAW,,,,0,20180120170000,-1,-1,-1,-1,-1,-1,-1,-1,-1,-1,-1,,-1,0,0,0,,0,-1,0,-1,-1,RJAW 201700Z NIL=,
20180120_180000.003,0,RJAW,,,,0,20180120180000,-1,-1,-1,-1,40,-1,4,-1,-1,-1,-1,,9999,0,0,1,FEW 20,1,18,1,14,1016,RJAW 201800Z 04004KT 9999 FEW020 18/14 Q1016 RMK 2CU020 A3001=,
20180120_190000.004,0,RJAW,,,,0,20180120190000,-1,-1,-1,-1,-1,-1,-1,-1,-1,-1,-1,,-1,0,0,0,,0,-1,0,-1,-1,RJAW 201900Z NIL=,
20180120_200000.003,0,RJAW,,,,0,20180120200000,-1,-1,-1,-1,50,-1,4,-1,-1,-1,-1,,9999,0,0,1,SCT 20,1,18,1,14,1015,RJAW 202000Z 05004KT 9999 SCT020 18/14 Q1015 RMK 3CU020 A3000=,
20180120_210000.003,0,RJAW,,,,0,20180120210000,-1,-1,-1,-1,90,-1,3,-1,-1,-1,-1,,9999,0,0,2,FEW 20   BKN 100,1,19,1,14,1016,RJAW 202100Z 09003KT 9999 FEW020 BKN100 19/14 Q1016 RMK 2CU020     6AC100 A3001=,
20180120_220000.003,0,RJAW,,,,0,20180120220000,-1,-1,-1,-1,80,-1,4,-1,-1,-1,-1,,9999,0,0,2,FEW 20   BKN 100,1,19,1,14,1016,RJAW 202200Z 08004KT 9999 FEW020 BKN100 19/14 Q1016 RMK 1CU020     5AC100 A3002=,
20180120_230000.003,0,RJAW,,,,0,20180120230000,-1,-1,-1,-1,50,-1,6,-1,-1,-1,-1,,9999,0,0,2,FEW 20   BKN 100,1,20,1,15,1017,RJAW 202300Z 05006KT 9999 FEW020 BKN100 20/15 Q1017 RMK 1CU020     6AC100 A3004=,
20180121_000000.003,0,RJAW,,,,0,20180121000000,-1,-1,-1,-1,50,-1,6,-1,-1,340,90,,9999,0,0,2,FEW 20   BKN 100,1,21,1,15,1017,RJAW 210000Z 05006KT 340V090 9999 FEW020 BKN100 21/15 Q1017     RMK 1CU020 5AC100 A3005=,
20180121_010000.003,0,RJAW,,,,0,20180121010000,-1,-1,-1,-1,80,-1,5,-1,-1,20,130,,9999,0,0,1,FEW 20,1,21,1,15,1017,RJAW 210100Z 08005KT 020V130 9999 FEW020 21/15 Q1017 RMK     1CU020 A3004=,
20180121_020000.003,0,RJAW,,,,0,20180121020000,-1,-1,-1,-1,70,-1,3,-1,-1,-1,-1,,9999,0,0,1,FEW 20,1,22,1,15,1016,RJAW 210200Z 07003KT 9999 FEW020 22/15 Q1016 RMK 1CU020 A3003=,
20180121_030000.003,0,RJAW,,,,0,20180121030000,-1,-1,-1,-1,80,-1,4,-1,-1,360,160,,9999,0,0,2,FEW 20   SCT 100,1,22,1,15,1015,RJAW 210300Z 08004KT 360V160 9999 FEW020 SCT100 22/15 Q1015     RMK 2CU020 4AC100 A3000=,
20180121_040000.004,0,RJAW,,,,0,20180121040000,-1,-1,-1,-1,80,-1,6,-1,-1,40,110,,9999,0,0,2,FEW 20   SCT 100,1,22,1,15,1015,RJAW 210400Z 08006KT 040V110 9999 FEW020 SCT100 22/15 Q1015     RMK 1CU020 3AC100 A2998=,
20180121_050000.003,0,RJAW,,,,0,20180121050000,-1,-1,-1,-1,-1,-1,-1,-1,-1,-1,-1,,-1,0,0,0,,0,-1,0,-1,-1,RJAW 210500Z NIL=,
20180121_050000.004,1,RJAW,,,,0,20180121050000,-1,-1,-1,-1,80,-1,6,-1,-1,40,120,,9999,0,0,2,FEW 20   SCT 100,1,22,1,15,1014,RJAW 210500Z 08006KT 040V120 9999 FEW020 SCT100 22/15 Q1014     RMK 1CU020 3AC100 A2997=,
20180121_060000.003,0,RJAW,,,,0,20180121060000,-1,-1,-1,-1,-1,-1,-1,-1,-1,-1,-1,,-1,0,0,0,,0,-1,0,-1,-1,RJAW 210600Z NIL=,
20180121_063000.001,1,RJAW,,,,0,20180121060000,-1,-1,-1,-1,40,-1,5,-1,-1,350,80,,9999,0,0,1,FEW 20,1,22,1,15,1014,RJAW 210600Z 04005KT 350V080 9999 FEW020 22/15 Q1014 RMK     1CU020 A2996=,
20180121_070000.003,0,RJAW,,,,0,20180121070000,-1,-1,-1,-1,40,-1,7,-1,-1,10,70,,9999,0,0,1,FEW 20,1,21,1,15,1015,RJAW 210700Z 04007KT 010V070 9999 FEW020 21/15 Q1015 RMK     1CU020 A2997=,
20180121_080000.003,0,RJAW,,,,0,20180121080000,-1,-1,-1,-1,50,-1,5,-1,-1,10,80,,9999,0,0,1,FEW 20,1,21,1,15,1015,RJAW 210800Z 05005KT 010V080 9999 FEW020 21/15 Q1015 RMK     1CU020 A2998=,
20180121_090000.003,0,RJAW,,,,0,20180121090000,-1,-1,-1,-1,20,-1,5,-1,-1,-1,-1,,9999,0,0,1,FEW 20,1,20,1,15,1015,RJAW 210900Z 02005KT 9999 FEW020 20/15 Q1015 RMK 1CU020 A3000=,
20180121_100000.003,0,RJAW,,,,0,20180121100000,-1,-1,-1,-1,-1,-1,-1,-1,-1,-1,-1,,-1,0,0,0,,0,-1,0,-1,-1,RJAW 211000Z NIL=,
20180121_110000.003,0,RJAW,,,,0,20180121110000,-1,-1,-1,-1,-1,-1,-1,-1,-1,-1,-1,,-1,0,0,0,,0,-1,0,-1,-1,RJAW 211100Z NIL=,
20180121_120000.003,0,RJAW,,,,0,20180121120000,-1,-1,-1,-1,50,-1,5,-1,-1,-1,-1,,9999,0,0,1,FEW 20,1,19,1,16,1017,RJAW 211200Z 05005KT 9999 FEW020 19/16 Q1017 RMK 1CU020 A3004=,
20180121_130000.004,0,RJAW,,,,0,20180121130000,-1,-1,-1,-1,-1,-1,-1,-1,-1,-1,-1,,-1,0,0,0,,0,-1,0,-1,-1,RJAW 211300Z NIL=,
20180121_140000.003,0,RJAW,,,,0,20180121140000,-1,-1,-1,-1,-1,-1,-1,-1,-1,-1,-1,,-1,0,0,0,,0,-1,0,-1,-1,RJAW 211400Z NIL=,
20180121_150000.003,0,RJAW,,,,0,20180121150000,-1,-1,-1,-1,80,-1,4,-1,-1,-1,-1,,9999,0,0,1,FEW 15,1,19,1,16,1016,RJAW 211500Z 08004KT 9999 FEW015 19/16 Q1016 RMK 1CU015 A3001=,
20180121_160000.003,0,RJAW,,,,0,20180121160000,-1,-1,-1,-1,-1,-1,-1,-1,-1,-1,-1,,-1,0,0,0,,0,-1,0,-1,-1,RJAW 211600Z NIL=,
20180121_170000.003,0,RJAW,,,,0,20180121170000,-1,-1,-1,-1,-1,-1,-1,-1,-1,-1,-1,,-1,0,0,0,,0,-1,0,-1,-1,RJAW 211700Z NIL=,
20180121_180000.003,0,RJAW,,,,0,20180121180000,-1,-1,-1,-1,110,-1,7,-1,-1,-1,-1,,9999,0,0,2,FEW 10   BKN 15,1,19,1,16,1014,RJAW 211800Z 11007KT 9999 FEW010 BKN015 19/16 Q1014 RMK 1CU010     5CU015 A2997=,
20180121_190000.003,0,RJAW,,,,0,20180121190000,-1,-1,-1,-1,-1,-1,-1,-1,-1,-1,-1,,-1,0,0,0,,0,-1,0,-1,-1,RJAW 211900Z NIL=,
20180121_200000.003,0,RJAW,,,,0,20180121200000,-1,-1,-1,-1,-1,-1,-1,-1,-1,-1,-1,,-1,0,0,0,,0,-1,0,-1,-1,RJAW 212000Z NIL=,
20180121_203000.001,1,RJAW,,,,0,20180121200000,-1,-1,-1,-1,120,-1,7,-1,-1,-1,-1,,9999,0,0,2,FEW 10   BKN 15,1,19,1,16,1015,RJAW 212000Z 12007KT 9999 FEW010 BKN015 19/16 Q1015 RMK 1CU010     5CU015 A2998=,
20180121_210000.003,0,RJAW,,,,0,20180121210000,-1,-1,-1,-1,110,-1,7,-1,-1,-1,-1,,9999,0,0,2,SCT 15   BKN 100,1,19,1,16,1015,RJAW 212100Z 11007KT 9999 SCT015 BKN100 19/16 Q1015 RMK 3CU015     7AC100 A2999=,
20180121_220000.003,0,RJAW,,,,0,20180121220000,-1,-1,-1,-1,110,-1,7,-1,-1,-1,-1,,9999,0,0,2,FEW 15   BKN 100,1,19,1,17,1016,RJAW 212200Z 11007KT 9999 FEW015 BKN100 19/17 Q1016 RMK 1CU015     7AC100 A3001=,
20180121_230000.003,0,RJAW,,,,0,20180121230000,-1,-1,-1,-1,120,-1,8,-1,-1,-1,-1,,9999,0,0,2,FEW 15   BKN 100,1,20,1,17,1016,RJAW 212300Z 12008KT 9999 FEW015 BKN100 20/17 Q1016 RMK 1CU015     7AC100 A3002=,
20180122_000000.003,0,RJAW,,,,0,20180122000000,-1,-1,-1,-1,140,-1,11,-1,-1,-1,-1,,9999,0,0,2,FEW 15   BKN 100,1,21,1,17,1016,RJAW 220000Z 14011KT 9999 FEW015 BKN100 21/17 Q1016 RMK 2CU015     7AC100 A3001=,
20180122_010000.003,0,RJAW,,,,0,20180122010000,-1,-1,-1,-1,140,-1,12,-1,-1,-1,-1,,9999,0,0,2,FEW 15   BKN 120,1,21,1,17,1015,RJAW 220100Z 14012KT 9999 FEW015 BKN120 21/17 Q1015 RMK 1CU015     7AC120 A2999=,
20180122_020000.003,0,RJAW,,,,0,20180122020000,-1,-1,-1,-1,140,-1,14,-1,-1,110,170,,9999,0,0,2,FEW 15   BKN 100,1,21,1,17,1014,RJAW 220200Z 14014KT 110V170 9999 FEW015 BKN100 21/17 Q1014     RMK 1CU015 7AC100 A2995=,
20180122_030000.003,0,RJAW,,,,0,20180122030000,-1,-1,-1,-1,140,-1,16,-1,-1,-1,-1,,9999,0,0,2,FEW 20   SCT 80,1,23,1,18,1013,RJAW 220300Z 14016KT 9999 FEW020 SCT080 23/18 Q1013 RMK 1CU020     3AC080 A2992=,
20180122_040000.003,0,RJAW,,,,0,20180122040000,-1,-1,-1,-1,150,-1,15,-1,-1,130,190,,9999,0,0,2,FEW 20   SCT 150,1,23,1,18,1012,RJAW 220400Z 15015KT 130V190 9999 FEW020 SCT150 23/18 Q1012     RMK 1CU020 3AC150 A2990=,
20180122_050000.003,0,RJAW,,,,0,20180122050000,-1,-1,-1,-1,150,-1,15,-1,-1,-1,-1,,9999,0,0,3,FEW 20   BKN 80   BKN 150,1,22,1,18,1011,RJAW 220500Z 15015KT 9999 FEW020 BKN080 BKN150 22/18 Q1011 RMK     1CU020 5AC080 7AC150 A2986=,
20180122_060000.004,0,RJAW,,,,0,20180122060000,-1,-1,-1,-1,160,-1,13,-1,-1,-1,-1,,9999,0,0,3,FEW 20   BKN 80   BKN 150,1,21,1,18,1010,RJAW 220600Z 16013KT 9999 FEW020 BKN080 BKN150 21/18 Q1010 RMK     1CU020 5AC080 6AC150 A2985=,
20180122_070000.003,0,RJAW,,,,0,20180122070000,-1,-1,-1,-1,160,-1,14,-1,-1,-1,-1,,9999,0,0,3,FEW 20   SCT 80   BKN 150,1,21,1,19,1011,RJAW 220700Z 16014KT 9999 FEW020 SCT080 BKN150 21/19 Q1011 RMK     1CU020 3AC080 5AC150 A2986=,
20180122_080000.004,0,RJAW,,,,0,20180122080000,-1,-1,-1,-1,160,-1,12,-1,-1,-1,-1,,9999,0,0,2,FEW 20   BKN 150,1,21,1,19,1011,RJAW 220800Z 16012KT 9999 FEW020 BKN150 21/19 Q1011 RMK 1CU020     7AC150 A2986=,
20180122_090000.003,0,RJAW,,,,0,20180122090000,-1,-1,-1,-1,160,-1,13,-1,-1,-1,-1,,9999,0,0,2,FEW 20   BKN 150,1,21,1,19,1011,RJAW 220900Z 16013KT 9999 FEW020 BKN150 21/19 Q1011 RMK 1CU020     7AC150 A2987=,
20180122_100000.003,0,RJAW,,,,0,20180122100000,-1,-1,-1,-1,-1,-1,-1,-1,-1,-1,-1,,-1,0,0,0,,0,-1,0,-1,-1,RJAW 221000Z NIL=,
20180122_110000.004,0,RJAW,,,,0,20180122110000,-1,-1,-1,-1,-1,-1,-1,-1,-1,-1,-1,,-1,0,0,0,,0,-1,0,-1,-1,RJAW 221100Z NIL=,
20180122_120000.003,0,RJAW,,,,0,20180122120000,-1,-1,-1,-1,190,-1,9,-1,-1,-1,-1,,9999,0,0,2,FEW 20   BKN 150,1,21,1,20,1013,RJAW 221200Z 19009KT 9999 FEW020 BKN150 21/20 Q1013 RMK 1CU020     7AC150 A2993=,
20180122_130000.004,0,RJAW,,,,0,20180122130000,-1,-1,-1,-1,-1,-1,-1,-1,-1,-1,-1,,-1,0,0,0,,0,-1,0,-1,-1,RJAW 221300Z NIL=,
20180122_140000.004,0,RJAW,,,,0,20180122140000,-1,-1,-1,-1,-1,-1,-1,-1,-1,-1,-1,,-1,0,0,0,,0,-1,0,-1,-1,RJAW 221400Z NIL=,
20180122_150000.003,0,RJAW,,,,0,20180122150000,-1,-1,-1,-1,240,-1,5,-1,-1,-1,-1,,9999,0,0,2,FEW 20   BKN 150,1,21,1,20,1013,RJAW 221500Z 24005KT 9999 FEW020 BKN150 21/20 Q1013 RMK 1CU020     5AC150 A2994=,
20180122_160000.003,0,RJAW,,,,0,20180122160000,-1,-1,-1,-1,-1,-1,-1,-1,-1,-1,-1,,-1,0,0,0,,0,-1,0,-1,-1,RJAW 221600Z NIL=,
20180122_170000.003,0,RJAW,,,,0,20180122170000,-1,-1,-1,-1,-1,-1,-1,-1,-1,-1,-1,,-1,0,0,0,,0,-1,0,-1,-1,RJAW 221700Z NIL=,
20180122_180000.003,0,RJAW,,,,0,20180122180000,-1,-1,-1,-1,210,-1,7,-1,-1,190,250,,3000,0,1,2,FEW 15   BKN 100,1,20,1,20,1012,RJAW 221800Z 21007KT 190V250 3000 BR FEW015 BKN100 20/20 Q1012     RMK 1CU015 5AC100 A2990=,BR
20180122_190000.003,0,RJAW,,,,0,20180122190000,-1,-1,-1,-1,-1,-1,-1,-1,-1,-1,-1,,-1,0,0,0,,0,-1,0,-1,-1,RJAW 221900Z NIL=,
20180122_200000.003,0,RJAW,,,,0,20180122200000,-1,-1,-1,-1,330,-1,14,-1,-1,250,350,,3000,0,2,4,FEW 5   BKN 6   BKN 12   FEW 12 CB,1,19,1,19,1013,RJAW 222000Z 33014KT 250V350 3000 SHRA BR FEW005 BKN006 BKN012     FEW012CB 19/19 Q1013 RMK 2ST005 6ST006 7CU012 1CB012           A2993 CB OHD MOV SE=,RA SH; BR
20180122_210000.004,0,RJAW,,,,0,20180122210000,-1,-1,-1,-1,350,-1,16,-1,28,-1,-1,,8000,0,1,3,SCT 6   BKN 12   BKN 30,1,18,1,17,1014,RJAW 222100Z 35016G28KT 8000 -SHRA SCT006 BKN012 BKN030 18/17     Q1014 RMK 3ST006 5CU012 7CU030 A2995=,- RA SH
20180122_220000.003,0,RJAW,,,,0,20180122220000,-1,-1,-1,-1,350,-1,16,-1,-1,-1,-1,,9999,0,0,2,BKN 30   BKN 100,1,19,1,17,1014,RJAW 222200Z 35016KT 9999 BKN030 BKN100 19/17 Q1014 RMK 5CU030     5AC100 A2995=,
20180122_230000.004,0,RJAW,,,,0,20180122230000,-1,-1,-1,-1,10,-1,11,-1,-1,-1,-1,,9999,0,0,2,BKN 30   BKN 100,1,20,1,16,1014,RJAW 222300Z 01011KT 9999 BKN030 BKN100 20/16 Q1014 RMK 5CU030     6AC100 A2997=,
20180123_000000.003,0,RJAW,,,,0,20180123000000,-1,-1,-1,-1,30,-1,11,-1,-1,-1,-1,,9999,0,0,2,SCT 30   BKN 100,1,20,1,15,1015,RJAW 230000Z 03011KT 9999 SCT030 BKN100 20/15 Q1015 RMK 3CU030     7AC100 A2999=,
20180123_010000.003,0,RJAW,,,,0,20180123010000,-1,-1,-1,-1,40,-1,11,-1,-1,-1,-1,,9999,0,0,2,FEW 30   BKN 100,1,21,1,16,1015,RJAW 230100Z 04011KT 9999 FEW030 BKN100 21/16 Q1015 RMK 2CU030     7AC100 A2998=,
20180123_020000.003,0,RJAW,,,,0,20180123020000,-1,-1,-1,-1,10,-1,11,-1,-1,350,50,,9999,0,0,2,FEW 30   BKN 100,1,21,1,15,1015,RJAW 230200Z 01011KT 350V050 9999 FEW030 BKN100 21/15 Q1015     RMK 1CU030 7AC100 A2997=,
20180123_030000.004,0,RJAW,,,,0,20180123030000,-1,-1,-1,-1,70,-1,11,-1,-1,50,110,,9999,0,0,2,FEW 30   BKN 100,1,21,1,15,1013,RJAW 230300Z 07011KT 050V110 9999 FEW030 BKN100 21/15 Q1013     RMK 1CU030 7AC100 A2993=,
20180123_040000.004,0,RJAW,,,,0,20180123040000,-1,-1,-1,-1,40,-1,7,-1,-1,10,70,,9999,0,1,2,FEW 30   BKN 80,1,21,1,16,1013,RJAW 230400Z 04007KT 010V070 9999 -SHRA FEW030 BKN080 21/16     Q1013 RMK 1CU030 7AC080 A2994=,- RA SH
20180123_050000.003,0,RJAW,,,,0,20180123050000,-1,-1,-1,-1,20,-1,10,-1,-1,-1,-1,,9999,0,0,2,FEW 30   BKN 80,1,21,1,14,1013,RJAW 230500Z 02010KT 9999 FEW030 BKN080 21/14 Q1013 RMK 2CU030     7AC080 A2993=,
20180123_060000.004,0,RJAW,,,,0,20180123060000,-1,-1,-1,-1,20,-1,11,-1,-1,-1,-1,,9999,0,0,2,FEW 30   BKN 80,1,21,1,15,1013,RJAW 230600Z 02011KT 9999 FEW030 BKN080 21/15 Q1013 RMK 1CU030     5AC080 A2993=,
20180123_070000.003,0,RJAW,,,,0,20180123070000,-1,-1,-1,-1,20,-1,8,-1,-1,350,50,,9999,0,0,3,FEW 15   SCT 30   BKN 80,1,20,1,15,1014,RJAW 230700Z 02008KT 350V050 9999 FEW015 SCT030 BKN080 20/15     Q1014 RMK 1CU015 3CU030 7AC080 A2995=,
20180123_080000.003,0,RJAW,,,,0,20180123080000,-1,-1,-1,-1,20,-1,6,-1,-1,320,50,,9999,0,0,3,FEW 30   BKN 60   BKN 80,1,20,1,16,1014,RJAW 230800Z 02006KT 320V050 9999 FEW030 BKN060 BKN080 20/16     Q1014 RMK 2CU030 5SC060 7AC080 A2997=,
20180123_090000.003,0,RJAW,,,,0,20180123090000,-1,-1,-1,-1,30,-1,5,-1,-1,350,90,,8000,0,1,3,FEW 15   SCT 30   BKN 60,1,18,1,14,1016,RJAW 230900Z 03005KT 350V090 8000 -SHRA FEW015 SCT030 BKN060     18/14 Q1016 RMK 1CU015 3CU030 7SC060 A3000=,- RA SH
20180123_100000.003,0,RJAW,,,,0,20180123100000,-1,-1,-1,-1,-1,-1,-1,-1,-1,-1,-1,,-1,0,0,0,,0,-1,0,-1,-1,RJAW 231000Z NIL=,
20180123_110000.003,0,RJAW,,,,0,20180123110000,-1,-1,-1,-1,-1,-1,-1,-1,-1,-1,-1,,-1,0,0,0,,0,-1,0,-1,-1,RJAW 231100Z NIL=,
20180123_120000.003,0,RJAW,,,,0,20180123120000,-1,-1,-1,-1,140,-1,10,-1,-1,-1,-1,,9999,0,0,3,FEW 30   SCT 60   BKN 80,1,18,1,15,1015,RJAW 231200Z 14010KT 9999 FEW030 SCT060 BKN080 18/15 Q1015 RMK     1CU030 3SC060 7AC080 A3000=,
20180123_130000.003,0,RJAW,,,,0,20180123130000,-1,-1,-1,-1,-1,-1,-1,-1,-1,-1,-1,,-1,0,0,0,,0,-1,0,-1,-1,RJAW 231300Z NIL=,
20180123_140000.003,0,RJAW,,,,0,20180123140000,-1,-1,-1,-1,-1,-1,-1,-1,-1,-1,-1,,-1,0,0,0,,0,-1,0,-1,-1,RJAW 231400Z NIL=,
20180123_150000.003,0,RJAW,,,,0,20180123150000,-1,-1,-1,-1,150,-1,12,-1,-1,-1,-1,,9999,0,0,2,FEW 30   BKN 80,1,20,1,16,1012,RJAW 231500Z 15012KT 9999 FEW030 BKN080 20/16 Q1012 RMK 1CU030     7AC080 A2991=,
20180123_160000.003,0,RJAW,,,,0,20180123160000,-1,-1,-1,-1,-1,-1,-1,-1,-1,-1,-1,,-1,0,0,0,,0,-1,0,-1,-1,RJAW 231600Z NIL=,
20180123_170000.003,0,RJAW,,,,0,20180123170000,-1,-1,-1,-1,-1,-1,-1,-1,-1,-1,-1,,-1,0,0,0,,0,-1,0,-1,-1,RJAW 231700Z NIL=,
20180123_180000.003,0,RJAW,,,,0,20180123180000,-1,-1,-1,-1,170,-1,5,-1,-1,-1,-1,,9999,0,0,2,FEW 30   BKN 80,1,20,1,17,1012,RJAW 231800Z 17005KT 9999 FEW030 BKN080 20/17 Q1012 RMK 1CU030     7AC080 A2990=,
20180123_190000.003,0,RJAW,,,,0,20180123190000,-1,-1,-1,-1,-1,-1,-1,-1,-1,-1,-1,,-1,0,0,0,,0,-1,0,-1,-1,RJAW 231900Z NIL=,
20180123_200000.003,0,RJAW,,,,0,20180123200000,-1,-1,-1,-1,230,-1,3,-1,-1,-1,-1,,9999,0,0,3,FEW 30   BKN 80   BKN 230,1,20,1,18,1013,RJAW 232000Z 23003KT 9999 FEW030 BKN080 BKN230 20/18 Q1013 RMK     1CU030 5AC080 A2993=,
20180123_210000.003,0,RJAW,,,,0,20180123210000,-1,-1,-1,-1,310,-1,2,-1,-1,-1,-1,,9999,0,0,2,FEW 30   BKN 80,1,20,1,19,1014,RJAW 232100Z 31002KT 9999 FEW030 BKN080 20/19 Q1014 RMK 1CU030     5AC080 A2995=,
20180123_220000.003,0,RJAW,,,,0,20180123220000,-1,-1,-1,-1,320,-1,2,-1,-1,-1,-1,,9999,0,1,2,SCT 12   BKN 100,1,20,1,19,1015,RJAW 232200Z 32002KT 9999 -SHRA SCT012 BKN100 20/19 Q1015 RMK     3CU012 7AC100 A2997=,- RA SH
20180123_230000.003,0,RJAW,,,,0,20180123230000,-1,-1,-1,-1,210,-1,5,-1,-1,-1,-1,,9999,0,1,2,SCT 12   BKN 80,1,20,1,17,1015,RJAW 232300Z 21005KT 9999 -SHRA SCT012 BKN080 20/17 Q1015 RMK     3CU012 7AC080 A2999=,- RA SH
20180124_000000.003,0,RJAW,,,,0,20180124000000,-1,-1,-1,-1,240,-1,5,-1,-1,-1,-1,,9999,0,1,2,FEW 12   BKN 80,1,21,1,18,1015,RJAW 240000Z 24005KT 9999 -SHRA FEW012 BKN080 21/18 Q1015 RMK     2CU012 7AC080 A3000=,- RA SH
20180124_010000.004,0,RJAW,,,,0,20180124010000,-1,-1,-1,-1,210,-1,7,-1,-1,150,260,,9999,0,0,2,FEW 12   BKN 100,1,22,1,18,1015,RJAW 240100Z 21007KT 150V260 9999 FEW012 BKN100 22/18 Q1015     RMK 2CU012 7AC100 A2999=,
20180124_020000.003,0,RJAW,,,,0,20180124020000,-1,-1,-1,-1,230,-1,9,-1,-1,200,270,,9999,0,0,2,SCT 15   BKN 100,1,22,1,18,1014,RJAW 240200Z 23009KT 200V270 9999 SCT015 BKN100 22/18 Q1014     RMK 3CU015 6AC100 A2996=,
20180124_030000.003,0,RJAW,,,,0,20180124030000,-1,-1,-1,-1,240,-1,10,-1,-1,-1,-1,,9999,0,0,2,SCT 15   BKN 100,1,21,1,18,1013,RJAW 240300Z 24010KT 9999 SCT015 BKN100 21/18 Q1013 RMK 3CU015     5AC100 A2993=,
20180124_040000.003,0,RJAW,,,,0,20180124040000,-1,-1,-1,-1,250,-1,9,-1,-1,220,280,,9999,0,0,2,SCT 15   BKN 100,1,22,1,18,1012,RJAW 240400Z 25009KT 220V280 9999 SCT015 BKN100 22/18 Q1012     RMK 3CU015 5AC100 A2990=,
20180124_050000.003,0,RJAW,,,,0,20180124050000,-1,-1,-1,-1,260,-1,8,-1,-1,230,300,,9999,0,0,2,SCT 15   SCT 100,1,22,1,18,1012,RJAW 240500Z 26008KT 230V300 9999 SCT015 SCT100 22/18 Q1012     RMK 3CU015 4AC100 A2989=,
20180124_060000.003,0,RJAW,,,,0,20180124060000,-1,-1,-1,-1,290,-1,8,-1,-1,250,330,,9999,0,0,1,SCT 15,1,21,1,18,1012,RJAW 240600Z 29008KT 250V330 9999 SCT015 21/18 Q1012 RMK     4CU015 A2989=,
20180124_070000.003,0,RJAW,,,,0,20180124070000,-1,-1,-1,-1,320,-1,5,-1,-1,290,350,,9999,0,0,1,SCT 15,1,21,1,18,1011,RJAW 240700Z 32005KT 290V350 9999 SCT015 21/18 Q1011 RMK     3CU015 A2988=,
20180124_080000.003,0,RJAW,,,,0,20180124080000,-1,-1,-1,-1,310,-1,4,-1,-1,-1,-1,,9999,0,0,1,FEW 10,1,20,1,18,1012,RJAW 240800Z 31004KT 9999 FEW010 20/18 Q1012 RMK 1CU010 A2989=,
20180124_090000.004,0,RJAW,,,,0,20180124090000,-1,-1,-1,-1,320,-1,3,-1,-1,-1,-1,,9999,0,0,1,FEW 15,1,20,1,17,1012,RJAW 240900Z 32003KT 9999 FEW015 20/17 Q1012 RMK 1CU015 A2990=,
20180124_100000.003,0,RJAW,,,,0,20180124100000,-1,-1,-1,-1,-1,-1,-1,-1,-1,-1,-1,,-1,0,0,0,,0,-1,0,-1,-1,RJAW 241000Z NIL=,
20180124_110000.003,0,RJAW,,,,0,20180124110000,-1,-1,-1,-1,-1,-1,-1,-1,-1,-1,-1,,-1,0,0,0,,0,-1,0,-1,-1,RJAW 241100Z NIL=,
20180124_120000.003,0,RJAW,,,,0,20180124120000,-1,-1,-1,-1,350,-1,6,-1,-1,-1,-1,,9999,0,0,2,FEW 15   BKN 100,1,20,1,17,1013,RJAW 241200Z 35006KT 9999 FEW015 BKN100 20/17 Q1013 RMK 1CU015     6AC100 A2994=,
20180124_130000.003,0,RJAW,,,,0,20180124130000,-1,-1,-1,-1,-1,-1,-1,-1,-1,-1,-1,,-1,0,0,0,,0,-1,0,-1,-1,RJAW 241300Z NIL=,
20180124_140000.004,0,RJAW,,,,0,20180124140000,-1,-1,-1,-1,-1,-1,-1,-1,-1,-1,-1,,-1,0,0,0,,0,-1,0,-1,-1,RJAW 241400Z NIL=,
20180124_150000.003,0,RJAW,,,,0,20180124150000,-1,-1,-1,-1,360,-1,5,-1,-1,-1,-1,,9999,0,0,1,SCT 15,1,19,1,15,1012,RJAW 241500Z 36005KT 9999 SCT015 19/15 Q1012 RMK 3CU015 A2991=,
20180124_160000.003,0,RJAW,,,,0,20180124160000,-1,-1,-1,-1,-1,-1,-1,-1,-1,-1,-1,,-1,0,0,0,,0,-1,0,-1,-1,RJAW 241600Z NIL=,
20180124_170000.003,0,RJAW,,,,0,20180124170000,-1,-1,-1,-1,-1,-1,-1,-1,-1,-1,-1,,-1,0,0,0,,0,-1,0,-1,-1,RJAW 241700Z NIL=,
20180124_180000.003,0,RJAW,,,,0,20180124180000,-1,-1,-1,-1,360,-1,7,-1,-1,-1,-1,,9999,0,0,1,SCT 15,1,19,1,14,1011,RJAW 241800Z 36007KT 9999 SCT015 19/14 Q1011 RMK 3CU015 A2987=,
20180124_190000.004,0,RJAW,,,,0,20180124190000,-1,-1,-1,-1,-1,-1,-1,-1,-1,-1,-1,,-1,0,0,0,,0,-1,0,-1,-1,RJAW 241900Z NIL=,
20180124_200000.003,0,RJAW,,,,0,20180124200000,-1,-1,-1,-1,350,-1,8,-1,-1,-1,-1,,9999,0,0,2,FEW 10   BKN 15,1,19,1,14,1011,RJAW 242000Z 35008KT 9999 FEW010 BKN015 19/14 Q1011 RMK 1CU010     5CU015 A2988=,
20180124_210000.004,0,RJAW,,,,0,20180124210000,-1,-1,-1,-1,340,-1,9,-1,-1,-1,-1,,9999,0,0,3,FEW 10   BKN 15   BKN 100,1,19,1,15,1012,RJAW 242100Z 34009KT 9999 FEW010 BKN015 BKN100 19/15 Q1012 RMK     1CU010 5CU015 7AC100 A2991=,
20180124_220000.003,0,RJAW,,,,0,20180124220000,-1,-1,-1,-1,340,-1,12,-1,-1,-1,-1,,9999,0,1,3,FEW 10   BKN 15   BKN 100,1,17,1,16,1013,RJAW 242200Z 34012KT 9999 -SHRA FEW010 BKN015 BKN100 17/16     Q1013 RMK 2CU010 5CU015 7AC100 A2994=,- RA SH
20180124_230000.003,0,RJAW,,,,0,20180124230000,-1,-1,-1,-1,350,-1,14,-1,-1,-1,-1,,9999,0,1,3,FEW 8   BKN 10   BKN 100,1,17,1,16,1014,RJAW 242300Z 35014KT 9999 -SHRA FEW008 BKN010 BKN100 17/16     Q1014 RMK 1ST008 6CU010 7AC100 A2997=,- RA SH
20180125_000000.003,0,RJAW,,,,0,20180125000000,-1,-1,-1,-1,350,-1,16,-1,26,-1,-1,,5000,0,2,2,FEW 8   BKN 10,1,16,1,16,1015,RJAW 250000Z 35016G26KT 5000 -SHRA BR FEW008 BKN010 16/16     Q1015 RMK 2ST008 7CU010 A2998=,- RA SH; BR
20180125_010000.003,0,RJAW,,,,0,20180125010000,-1,-1,-1,-1,350,-1,13,-1,-1,-1,-1,,9999,0,0,3,FEW 10   SCT 25   BKN 100,1,17,1,16,1015,RJAW 250100Z 35013KT 9999 FEW010 SCT025 BKN100 17/16 Q1015 RMK     2CU010 3CU025 7AC100 A2998=,
20180125_020000.004,0,RJAW,,,,0,20180125020000,-1,-1,-1,-1,340,-1,13,-1,-1,-1,-1,,9999,0,0,3,FEW 15   SCT 25   BKN 100,1,19,1,15,1013,RJAW 250200Z 34013KT 9999 FEW015 SCT025 BKN100 19/15 Q1013 RMK     1CU015 3CU025 6AC100 A2994=,
20180125_030000.003,0,RJAW,,,,0,20180125030000,-1,-1,-1,-1,340,-1,13,-1,-1,-1,-1,,9999,0,0,2,FEW 25   BKN 100,1,20,1,14,1012,RJAW 250300Z 34013KT 9999 FEW025 BKN100 20/14 Q1012 RMK 2CU025     7AC100 A2991=,
20180125_040000.003,0,RJAW,,,,0,20180125040000,-1,-1,-1,-1,340,-1,12,-1,-1,-1,-1,,9999,0,0,2,FEW 25   BKN 100,1,20,1,14,1011,RJAW 250400Z 34012KT 9999 FEW025 BKN100 20/14 Q1011 RMK 1CU025     7AC100 A2988=,
20180125_050000.003,0,RJAW,,,,0,20180125050000,-1,-1,-1,-1,330,-1,12,-1,-1,-1,-1,,9999,0,0,2,FEW 25   BKN 100,1,19,1,13,1011,RJAW 250500Z 33012KT 9999 FEW025 BKN100 19/13 Q1011 RMK 2CU025     7AC100 A2987=,
20180125_060000.003,0,RJAW,,,,0,20180125060000,-1,-1,-1,-1,340,-1,13,-1,-1,-1,-1,,9999,0,0,1,FEW 25,1,20,1,13,1011,RJAW 250600Z 34013KT 9999 FEW025 20/13 Q1011 RMK 2CU025 A2987=,
20180125_070000.003,0,RJAW,,,,0,20180125070000,-1,-1,-1,-1,340,-1,10,-1,-1,-1,-1,,9999,0,0,1,SCT 25,1,19,1,13,1011,RJAW 250700Z 34010KT 9999 SCT025 19/13 Q1011 RMK 3CU025 A2987=,
20180125_080000.003,0,RJAW,,,,0,20180125080000,-1,-1,-1,-1,350,-1,10,-1,-1,-1,-1,,9999,0,0,1,SCT 25,1,18,1,12,1012,RJAW 250800Z 35010KT 9999 SCT025 18/12 Q1012 RMK 4CU025 A2989=,
20180125_090000.003,0,RJAW,,,,0,20180125090000,-1,-1,-1,-1,340,-1,10,-1,-1,-1,-1,,9999,0,0,1,SCT 20,1,18,1,12,1012,RJAW 250900Z 34010KT 9999 SCT020 18/12 Q1012 RMK 4CU020 A2991=,
20180125_100000.004,0,RJAW,,,,0,20180125100000,-1,-1,-1,-1,-1,-1,-1,-1,-1,-1,-1,,-1,0,0,0,,0,-1,0,-1,-1,RJAW 251000Z NIL=,
20180125_110000.004,0,RJAW,,,,0,20180125110000,-1,-1,-1,-1,-1,-1,-1,-1,-1,-1,-1,,-1,0,0,0,,0,-1,0,-1,-1,RJAW 251100Z NIL=,
20180125_120000.003,0,RJAW,,,,0,20180125120000,-1,-1,-1,-1,340,-1,11,-1,-1,-1,-1,,9999,0,0,2,FEW 10   BKN 20,1,17,1,11,1014,RJAW 251200Z 34011KT 9999 FEW010 BKN020 17/11 Q1014 RMK 1CU010     5CU020 A2994=,
20180125_130000.003,0,RJAW,,,,0,20180125130000,-1,-1,-1,-1,-1,-1,-1,-1,-1,-1,-1,,-1,0,0,0,,0,-1,0,-1,-1,RJAW 251300Z NIL=,
20180125_140000.003,0,RJAW,,,,0,20180125140000,-1,-1,-1,-1,-1,-1,-1,-1,-1,-1,-1,,-1,0,0,0,,0,-1,0,-1,-1,RJAW 251400Z NIL=,
20180125_150000.003,0,RJAW,,,,0,20180125150000,-1,-1,-1,-1,340,-1,9,-1,-1,-1,-1,,9999,0,0,1,FEW 30,1,16,1,10,1013,RJAW 251500Z 34009KT 9999 FEW030 16/10 Q1013 RMK 2CU030 A2992=,
20180125_160000.003,0,RJAW,,,,0,20180125160000,-1,-1,-1,-1,-1,-1,-1,-1,-1,-1,-1,,-1,0,0,0,,0,-1,0,-1,-1,RJAW 251600Z NIL=,
20180125_170000.003,0,RJAW,,,,0,20180125170000,-1,-1,-1,-1,-1,-1,-1,-1,-1,-1,-1,,-1,0,0,0,,0,-1,0,-1,-1,RJAW 251700Z NIL=,
20180125_180000.003,0,RJAW,,,,0,20180125180000,-1,-1,-1,-1,340,-1,9,-1,-1,-1,-1,,9999,0,0,1,FEW 30,1,16,1,12,1012,RJAW 251800Z 34009KT 9999 FEW030 16/12 Q1012 RMK 2CU030 A2990=,
20180125_190000.003,0,RJAW,,,,0,20180125190000,-1,-1,-1,-1,-1,-1,-1,-1,-1,-1,-1,,-1,0,0,0,,0,-1,0,-1,-1,RJAW 251900Z NIL=,
20180125_200000.004,0,RJAW,,,,0,20180125200000,-1,-1,-1,-1,320,-1,8,-1,-1,-1,-1,,9999,0,0,1,FEW 30,1,16,1,12,1012,RJAW 252000Z 32008KT 9999 FEW030 16/12 Q1012 RMK 2CU030 A2991=,
20180125_210000.003,0,RJAW,,,,0,20180125210000,-1,-1,-1,-1,330,-1,7,-1,-1,300,360,,9999,0,0,1,FEW 30,1,16,1,12,1013,RJAW 252100Z 33007KT 300V360 9999 FEW030 16/12 Q1013 RMK     1CU030 A2992=,
20180125_220000.003,0,RJAW,,,,0,20180125220000,-1,-1,-1,-1,320,-1,7,-1,-1,-1,-1,,9999,0,0,2,FEW 20   SCT 30,1,17,1,12,1013,RJAW 252200Z 32007KT 9999 FEW020 SCT030 17/12 Q1013 RMK 1CU020     4CU030 A2993=,
20180125_230000.003,0,RJAW,,,,0,20180125230000,-1,-1,-1,-1,320,-1,9,-1,-1,-1,-1,,9999,0,0,2,FEW 20   SCT 30,1,18,1,12,1014,RJAW 252300Z 32009KT 9999 FEW020 SCT030 18/12 Q1014 RMK 1CU020     4CU030 A2995=,
20180126_000000.003,0,RJAW,,,,0,20180126000000,-1,-1,-1,-1,330,-1,10,-1,-1,-1,-1,,9999,0,0,1,SCT 30,1,19,1,12,1014,RJAW 260000Z 33010KT 9999 SCT030 19/12 Q1014 RMK 3CU030 A2996=,
20180126_010000.003,0,RJAW,,,,0,20180126010000,-1,-1,-1,-1,320,-1,10,-1,-1,280,350,,9999,0,0,2,SCT 30   SCT 100,1,19,1,12,1014,RJAW 260100Z 32010KT 280V350 9999 SCT030 SCT100 19/12 Q1014     RMK 4CU030 4AC100 A2994=,
20180126_020000.003,0,RJAW,,,,0,20180126020000,-1,-1,-1,-1,320,-1,9,-1,-1,-1,-1,,9999,0,1,2,SCT 20   BKN 30,1,18,1,13,1013,RJAW 260200Z 32009KT 9999 -SHRA SCT020 BKN030 18/13 Q1013 RMK     3CU020 6CU030 A2992=,- RA SH
20180126_030000.003,0,RJAW,,,,0,20180126030000,-1,-1,-1,-1,310,-1,12,-1,-1,280,350,,9999,0,0,2,SCT 20   SCT 30,1,19,1,13,1011,RJAW 260300Z 31012KT 280V350 9999 SCT020 SCT030 19/13 Q1011     RMK 3CU020 4CU030 A2988=,
20180126_040000.003,0,RJAW,,,,0,20180126040000,-1,-1,-1,-1,310,-1,11,-1,-1,-1,-1,,9999,0,0,2,SCT 20   BKN 30,1,19,1,12,1011,RJAW 260400Z 31011KT 9999 SCT020 BKN030 19/12 Q1011 RMK 3CU020     6CU030 A2986=,
20180126_050000.003,0,RJAW,,,,0,20180126050000,-1,-1,-1,-1,310,-1,10,-1,-1,-1,-1,,9999,0,0,2,FEW 20   BKN 30,1,18,1,13,1010,RJAW 260500Z 31010KT 9999 FEW020 BKN030 18/13 Q1010 RMK 2CU020     5CU030 A2985=,
20180126_060000.003,0,RJAW,,,,0,20180126060000,-1,-1,-1,-1,300,-1,12,-1,-1,-1,-1,,9999,0,0,2,FEW 20   BKN 30,1,19,1,14,1010,RJAW 260600Z 30012KT 9999 FEW020 BKN030 19/14 Q1010 RMK 2CU020     6CU030 A2984=,
20180126_070000.003,0,RJAW,,,,0,20180126070000,-1,-1,-1,-1,310,-1,15,-1,-1,-1,-1,,9999,0,0,2,FEW 20   BKN 30,1,18,1,14,1010,RJAW 260700Z 31015KT 9999 FEW020 BKN030 18/14 Q1010 RMK 2CU020     6CU030 A2985=,
20180126_080000.004,0,RJAW,,,,0,20180126080000,-1,-1,-1,-1,310,-1,14,-1,-1,-1,-1,,9999,0,0,2,FEW 15   BKN 25,1,19,1,14,1011,RJAW 260800Z 31014KT 9999 FEW015 BKN025 19/14 Q1011 RMK 2CU015     5CU025 A2986=,
20180126_090000.003,0,RJAW,,,,0,20180126090000,-1,-1,-1,-1,310,-1,14,-1,-1,-1,-1,,9999,0,0,1,SCT 25,1,19,1,13,1011,RJAW 260900Z 31014KT 9999 SCT025 19/13 Q1011 RMK 3CU025 A2987=,
20180126_100000.003,0,RJAW,,,,0,20180126100000,-1,-1,-1,-1,-1,-1,-1,-1,-1,-1,-1,,-1,0,0,0,,0,-1,0,-1,-1,RJAW 261000Z NIL=,
20180126_110000.003,0,RJAW,,,,0,20180126110000,-1,-1,-1,-1,-1,-1,-1,-1,-1,-1,-1,,-1,0,0,0,,0,-1,0,-1,-1,RJAW 261100Z NIL=,
20180126_120000.003,0,RJAW,,,,0,20180126120000,-1,-1,-1,-1,330,-1,14,-1,-1,-1,-1,,9999,0,0,2,FEW 25   SCT 100,1,17,1,14,1012,RJAW 261200Z 33014KT 9999 FEW025 SCT100 17/14 Q1012 RMK 2CU025     3AC100 A2990=,
20180126_130000.003,0,RJAW,,,,0,20180126130000,-1,-1,-1,-1,-1,-1,-1,-1,-1,-1,-1,,-1,0,0,0,,0,-1,0,-1,-1,RJAW 261300Z NIL=,
20180126_140000.003,0,RJAW,,,,0,20180126140000,-1,-1,-1,-1,-1,-1,-1,-1,-1,-1,-1,,-1,0,0,0,,0,-1,0,-1,-1,RJAW 261400Z NIL=,
20180126_150000.003,0,RJAW,,,,0,20180126150000,-1,-1,-1,-1,330,-1,16,-1,-1,-1,-1,,9999,0,0,2,FEW 25   SCT 100,1,17,1,13,1012,RJAW 261500Z 33016KT 9999 FEW025 SCT100 17/13 Q1012 RMK 1CU025     3AC100 A2989=,
20180126_160000.003,0,RJAW,,,,0,20180126160000,-1,-1,-1,-1,-1,-1,-1,-1,-1,-1,-1,,-1,0,0,0,,0,-1,0,-1,-1,RJAW 261600Z NIL=,
20180126_170000.003,0,RJAW,,,,0,20180126170000,-1,-1,-1,-1,-1,-1,-1,-1,-1,-1,-1,,-1,0,0,0,,0,-1,0,-1,-1,RJAW 261700Z NIL=,
20180126_180000.003,0,RJAW,,,,0,20180126180000,-1,-1,-1,-1,330,-1,17,-1,27,-1,-1,,9999,0,0,1,SCT 25,1,17,1,12,1011,RJAW 261800Z 33017G27KT 9999 SCT025 17/12 Q1011 RMK 4CU025     A2986=,
20180126_190000.003,0,RJAW,,,,0,20180126190000,-1,-1,-1,-1,-1,-1,-1,-1,-1,-1,-1,,-1,0,0,0,,0,-1,0,-1,-1,RJAW 261900Z NIL=,
20180126_200000.004,0,RJAW,,,,0,20180126200000,-1,-1,-1,-1,330,-1,19,-1,30,-1,-1,,9999,0,0,1,BKN 25,1,17,1,10,1011,RJAW 262000Z 33019G30KT 9999 BKN025 17/10 Q1011 RMK 5CU025     A2987=,
20180126_210000.003,0,RJAW,,,,0,20180126210000,-1,-1,-1,-1,340,-1,18,-1,32,-1,-1,,9999,0,0,1,SCT 25,1,17,1,11,1012,RJAW 262100Z 34018G32KT 9999 SCT025 17/11 Q1012 RMK 4CU025     A2990=,
20180126_220000.003,0,RJAW,,,,0,20180126220000,-1,-1,-1,-1,340,-1,17,-1,-1,-1,-1,,9999,0,0,1,SCT 25,1,17,1,10,1013,RJAW 262200Z 34017KT 9999 SCT025 17/10 Q1013 RMK 3CU025 A2993=,
20180126_230000.003,0,RJAW,,,,0,20180126230000,-1,-1,-1,-1,350,-1,17,-1,27,-1,-1,,9999,0,0,1,BKN 25,1,17,1,11,1014,RJAW 262300Z 35017G27KT 9999 BKN025 17/11 Q1014 RMK 5CU025     A2994=,
20180127_000000.003,0,RJAW,,,,0,20180127000000,-1,-1,-1,-1,340,-1,17,-1,-1,-1,-1,,9999,0,0,1,BKN 25,1,18,1,10,1014,RJAW 270000Z 34017KT 9999 BKN025 18/10 Q1014 RMK 5CU025 A2996=,
20180127_010000.003,0,RJAW,,,,0,20180127010000,-1,-1,-1,-1,-1,-1,-1,-1,-1,-1,-1,,-1,0,0,0,,0,-1,0,-1,-1,RJAW 270100Z NIL=,
20180127_020000.003,0,RJAW,,,,0,20180127020000,-1,-1,-1,-1,350,-1,15,-1,-1,-1,-1,,9999,0,0,1,SCT 25,1,19,1,8,1014,RJAW 270200Z 35015KT 9999 SCT025 19/08 Q1014 RMK 4CU025 A2994=,
20180127_030000.003,0,RJAW,,,,0,20180127030000,-1,-1,-1,-1,350,-1,16,-1,-1,-1,-1,,9999,0,0,1,SCT 25,1,19,1,9,1013,RJAW 270300Z 35016KT 9999 SCT025 19/09 Q1013 RMK 4CU025 A2993=,
20180127_040000.003,0,RJAW,,,,0,20180127040000,-1,-1,-1,-1,350,-1,14,-1,-1,-1,-1,,9999,0,0,1,BKN 25,1,19,1,9,1013,RJAW 270400Z 35014KT 9999 BKN025 19/09 Q1013 RMK 5CU025 A2991     WIND EST=,
20180127_050000.003,0,RJAW,,,,0,20180127050000,-1,-1,-1,-1,340,-1,13,-1,-1,-1,-1,,9999,0,0,2,FEW 15   BKN 25,1,19,1,8,1012,RJAW 270500Z 34013KT 9999 FEW015 BKN025 19/08 Q1012 RMK 1CU015     6CU025 A2991 WIND EST=,
20180127_060000.003,0,RJAW,,,,0,20180127060000,-1,-1,-1,-1,340,-1,16,-1,-1,-1,-1,,9999,0,0,2,SCT 25   BKN 100,1,18,1,8,1012,RJAW 270600Z 34016KT 9999 SCT025 BKN100 18/08 Q1012 RMK 3CU025     6AC100 A2991 WIND EST=,
20180127_070000.003,0,RJAW,,,,0,20180127070000,-1,-1,-1,-1,340,-1,15,-1,-1,-1,-1,,9999,0,0,2,FEW 25   SCT 100,1,18,1,8,1012,RJAW 270700Z 34015KT 9999 FEW025 SCT100 18/08 Q1012 RMK 2CU025     3AC100 A2991 WIND EST=,
20180127_080000.003,0,RJAW,,,,0,20180127080000,-1,-1,-1,-1,350,-1,14,-1,-1,-1,-1,,9999,0,0,1,SCT 25,1,17,1,8,1013,RJAW 270800Z 35014KT 9999 SCT025 17/08 Q1013 RMK 3CU025 A2993=,
20180127_090000.004,0,RJAW,,,,0,20180127090000,-1,-1,-1,-1,360,-1,14,-1,-1,-1,-1,,9999,0,0,2,BKN 25   BKN 80,1,16,1,10,1013,RJAW 270900Z 36014KT 9999 BKN025 BKN080 16/10 Q1013 RMK 5CU025     7AC080 A2993=,
20180127_100000.003,0,RJAW,,,,0,20180127100000,-1,-1,-1,-1,-1,-1,-1,-1,-1,-1,-1,,-1,0,0,0,,0,-1,0,-1,-1,RJAW 271000Z NIL=,
20180127_110000.003,0,RJAW,,,,0,20180127110000,-1,-1,-1,-1,-1,-1,-1,-1,-1,-1,-1,,-1,0,0,0,,0,-1,0,-1,-1,RJAW 271100Z NIL=,
20180127_120000.003,0,RJAW,,,,0,20180127120000,-1,-1,-1,-1,10,-1,16,-1,-1,-1,-1,,9999,0,0,2,SCT 25   BKN 80,1,16,1,10,1015,RJAW 271200Z 01016KT 9999 SCT025 BKN080 16/10 Q1015 RMK 3CU025     5AC080 A2998=,
20180127_130000.003,0,RJAW,,,,0,20180127130000,-1,-1,-1,-1,-1,-1,-1,-1,-1,-1,-1,,-1,0,0,0,,0,-1,0,-1,-1,RJAW 271300Z NIL=,
20180127_140000.004,0,RJAW,,,,0,20180127140000,-1,-1,-1,-1,-1,-1,-1,-1,-1,-1,-1,,-1,0,0,0,,0,-1,0,-1,-1,RJAW 271400Z NIL=,
20180127_150000.003,0,RJAW,,,,0,20180127150000,-1,-1,-1,-1,10,-1,12,-1,-1,-1,-1,,9999,0,0,2,FEW 25   BKN 80,1,16,1,6,1015,RJAW 271500Z 01012KT 9999 FEW025 BKN080 16/06 Q1015 RMK 1CU025     5AC080 A3000=,
20180127_160000.003,0,RJAW,,,,0,20180127160000,-1,-1,-1,-1,-1,-1,-1,-1,-1,-1,-1,,-1,0,0,0,,0,-1,0,-1,-1,RJAW 271600Z NIL=,
20180127_170000.003,0,RJAW,,,,0,20180127170000,-1,-1,-1,-1,-1,-1,-1,-1,-1,-1,-1,,-1,0,0,0,,0,-1,0,-1,-1,RJAW 271700Z NIL=,
20180127_180000.003,0,RJAW,,,,0,20180127180000,-1,-1,-1,-1,360,-1,12,-1,-1,-1,-1,,9999,0,0,2,FEW 25   BKN 80,1,15,1,9,1015,RJAW 271800Z 36012KT 9999 FEW025 BKN080 15/09 Q1015 RMK 1CU025     6AC080 A2998=,
20180127_190000.003,0,RJAW,,,,0,20180127190000,-1,-1,-1,-1,-1,-1,-1,-1,-1,-1,-1,,-1,0,0,0,,0,-1,0,-1,-1,RJAW 271900Z NIL=,
20180127_200000.003,0,RJAW,,,,0,20180127200000,-1,-1,-1,-1,10,-1,11,-1,-1,-1,-1,,9999,0,0,2,FEW 25   BKN 80,1,15,1,7,1015,RJAW 272000Z 01011KT 9999 FEW025 BKN080 15/07 Q1015 RMK 1CU025     7AC080 A2999=,
20180127_210000.003,0,RJAW,,,,0,20180127210000,-1,-1,-1,-1,30,-1,9,-1,-1,360,70,,9999,0,0,3,FEW 15   BKN 30   BKN 80,1,16,1,6,1016,RJAW 272100Z 03009KT 360V070 9999 FEW015 BKN030 BKN080 16/06     Q1016 RMK 1CU015 6CU030 7AC080 A3001=,
20180127_220000.003,0,RJAW,,,,0,20180127220000,-1,-1,-1,-1,30,-1,8,-1,-1,10,70,,9999,0,0,2,FEW 15   BKN 30,1,15,1,8,1016,RJAW 272200Z 03008KT 010V070 9999 FEW015 BKN030 15/08 Q1016     RMK 1CU015 7CU030 A3003=,
20180127_230000.003,0,RJAW,,,,0,20180127230000,-1,-1,-1,-1,-1,-1,-1,-1,-1,-1,-1,,-1,0,0,0,,0,-1,0,-1,-1,RJAW 272300Z NIL=,
20180127_230000.005,1,RJAW,,,,0,20180127230000,-1,-1,-1,-1,60,-1,5,-1,-1,-1,-1,,9999,0,0,2,SCT 15   BKN 30,1,16,1,9,1017,RJAW 272300Z 06005KT 9999 SCT015 BKN030 16/09 Q1017 RMK 3CU015     6CU030 A3004=,
20180128_000000.004,0,RJAW,,,,0,20180128000000,-1,-1,-1,-1,60,-1,9,-1,-1,-1,-1,,9999,0,0,2,FEW 15   BKN 30,1,17,1,8,1017,RJAW 280000Z 06009KT 9999 FEW015 BKN030 17/08 Q1017 RMK 2CU015     6CU030 A3004=,
20180128_010000.003,0,RJAW,,,,0,20180128010000,-1,-1,-1,-1,50,-1,9,-1,-1,30,100,,9999,0,0,2,FEW 15   BKN 30,1,18,1,7,1017,RJAW 280100Z 05009KT 030V100 9999 FEW015 BKN030 18/07 Q1017     RMK 2CU015 6CU030 A3003=,
20180128_020000.003,0,RJAW,,,,0,20180128020000,-1,-1,-1,-1,80,-1,10,-1,-1,40,100,,9999,0,0,2,FEW 15   BKN 30,1,19,1,9,1016,RJAW 280200Z 08010KT 040V100 9999 FEW015 BKN030 19/09 Q1016     RMK 2CU015 6CU030 A3001=,
20180128_030000.003,0,RJAW,,,,0,20180128030000,-1,-1,-1,-1,70,-1,10,-1,-1,-1,-1,,9999,0,0,2,FEW 15   BKN 30,1,19,1,10,1015,RJAW 280300Z 07010KT 9999 FEW015 BKN030 19/10 Q1015 RMK 2CU015     6CU030 A2998=,
20180128_040000.003,0,RJAW,,,,0,20180128040000,-1,-1,-1,-1,80,-1,9,-1,-1,-1,-1,,9999,0,0,2,FEW 15   BKN 30,1,18,1,9,1014,RJAW 280400Z 08009KT 9999 FEW015 BKN030 18/09 Q1014 RMK 2CU015     6CU030 A2997=,
20180128_050000.003,0,RJAW,,,,0,20180128050000,-1,-1,-1,-1,80,-1,9,-1,-1,50,120,,9999,0,0,2,FEW 15   BKN 30,1,19,1,8,1015,RJAW 280500Z 08009KT 050V120 9999 FEW015 BKN030 19/08 Q1015     RMK 2CU015 7CU030 A2997=,
20180128_060000.003,0,RJAW,,,,0,20180128060000,-1,-1,-1,-1,90,-1,7,-1,-1,60,120,,9999,0,0,2,FEW 15   BKN 30,1,19,1,8,1014,RJAW 280600Z 09007KT 060V120 9999 FEW015 BKN030 19/08 Q1014     RMK 2CU015 7CU030 A2997=,
20180128_070000.004,0,RJAW,,,,0,20180128070000,-1,-1,-1,-1,100,-1,8,-1,-1,70,130,,9999,0,0,2,FEW 15   BKN 30,1,18,1,9,1014,RJAW 280700Z 10008KT 070V130 9999 FEW015 BKN030 18/09 Q1014     RMK 1CU015 5CU030 A2997=,
20180128_080000.003,0,RJAW,,,,0,20180128080000,-1,-1,-1,-1,110,-1,6,-1,-1,-1,-1,,9999,0,0,2,FEW 15   SCT 30,1,17,1,8,1014,RJAW 280800Z 11006KT 9999 FEW015 SCT030 17/08 Q1014 RMK 1CU015     4CU030 A2997=,
20180128_090000.003,0,RJAW,,,,0,20180128090000,-1,-1,-1,-1,110,-1,7,-1,-1,-1,-1,,9999,0,0,1,FEW 30,1,16,1,9,1015,RJAW 280900Z 11007KT 9999 FEW030 16/09 Q1015 RMK 2CU030 A2997=,
20180128_100000.003,0,RJAW,,,,0,20180128100000,-1,-1,-1,-1,-1,-1,-1,-1,-1,-1,-1,,-1,0,0,0,,0,-1,0,-1,-1,RJAW 281000Z NIL=,
20180128_110000.003,0,RJAW,,,,0,20180128110000,-1,-1,-1,-1,-1,-1,-1,-1,-1,-1,-1,,-1,0,0,0,,0,-1,0,-1,-1,RJAW 281100Z NIL=,
20180128_120000.003,0,RJAW,,,,0,20180128120000,-1,-1,-1,-1,80,-1,5,-1,-1,-1,-1,,9999,0,0,1,FEW 30,1,16,1,10,1016,RJAW 281200Z 08005KT 9999 FEW030 16/10 Q1016 RMK 1CU030 A3000=,
20180128_130000.003,0,RJAW,,,,0,20180128130000,-1,-1,-1,-1,-1,-1,-1,-1,-1,-1,-1,,-1,0,0,0,,0,-1,0,-1,-1,RJAW 281300Z NIL=,
20180128_140000.003,0,RJAW,,,,0,20180128140000,-1,-1,-1,-1,-1,-1,-1,-1,-1,-1,-1,,-1,0,0,0,,0,-1,0,-1,-1,RJAW 281400Z NIL=,
20180128_150000.003,0,RJAW,,,,0,20180128150000,-1,-1,-1,-1,100,-1,6,-1,-1,-1,-1,,9999,0,0,2,FEW 15   SCT 30,1,17,1,10,1015,RJAW 281500Z 10006KT 9999 FEW015 SCT030 17/10 Q1015 RMK 2CU015     4CU030 A2998=,
20180128_160000.003,0,RJAW,,,,0,20180128160000,-1,-1,-1,-1,-1,-1,-1,-1,-1,-1,-1,,-1,0,0,0,,0,-1,0,-1,-1,RJAW 281600Z NIL=,
20180128_170000.003,0,RJAW,,,,0,20180128170000,-1,-1,-1,-1,-1,-1,-1,-1,-1,-1,-1,,-1,0,0,0,,0,-1,0,-1,-1,RJAW 281700Z NIL=,
20180128_180000.003,0,RJAW,,,,0,20180128180000,-1,-1,-1,-1,120,-1,5,-1,-1,-1,-1,,9999,0,0,2,FEW 15   SCT 30,1,16,1,10,1014,RJAW 281800Z 12005KT 9999 FEW015 SCT030 16/10 Q1014 RMK 1CU015     4CU030 A2995=,
20180128_190000.003,0,RJAW,,,,0,20180128190000,-1,-1,-1,-1,-1,-1,-1,-1,-1,-1,-1,,-1,0,0,0,,0,-1,0,-1,-1,RJAW 281900Z NIL=,
20180128_200000.003,0,RJAW,,,,0,20180128200000,-1,-1,-1,-1,130,-1,5,-1,-1,-1,-1,,9999,0,0,1,SCT 30,1,17,1,10,1014,RJAW 282000Z 13005KT 9999 SCT030 17/10 Q1014 RMK 3CU030 A2994=,
20180128_210000.003,0,RJAW,,,,0,20180128210000,-1,-1,-1,-1,130,-1,6,-1,-1,-1,-1,,9999,0,0,1,FEW 30,1,17,1,11,1014,RJAW 282100Z 13006KT 9999 FEW030 17/11 Q1014 RMK 1CU030 A2995=,
20180128_220000.004,0,RJAW,,,,0,20180128220000,-1,-1,-1,-1,130,-1,7,-1,-1,-1,-1,,9999,0,0,1,FEW 30,1,17,1,12,1014,RJAW 282200Z 13007KT 9999 FEW030 17/12 Q1014 RMK 1CU030 A2996=,
20180128_230000.003,0,RJAW,,,,0,20180128230000,-1,-1,-1,-1,120,-1,8,-1,-1,-1,-1,,9999,0,0,1,FEW 30,1,19,1,13,1015,RJAW 282300Z 12008KT 9999 FEW030 19/13 Q1015 RMK 2CU030 A2998=,
20180129_000000.004,0,RJAW,,,,0,20180129000000,-1,-1,-1,-1,160,-1,10,-1,-1,-1,-1,,9999,0,0,1,FEW 30,1,20,1,12,1015,RJAW 290000Z 16010KT 9999 FEW030 20/12 Q1015 RMK 2CU030 A3000=,
20180129_010000.003,0,RJAW,,,,0,20180129010000,-1,-1,-1,-1,160,-1,10,-1,-1,-1,-1,,9999,0,0,1,FEW 30,1,21,1,13,1015,RJAW 290100Z 16010KT 9999 FEW030 21/13 Q1015 RMK 1CU030 A2999=,
20180129_020000.003,0,RJAW,,,,0,20180129020000,-1,-1,-1,-1,170,-1,11,-1,-1,-1,-1,,9999,0,0,1,FEW 30,1,20,1,13,1014,RJAW 290200Z 17011KT 9999 FEW030 20/13 Q1014 RMK 1CU030 A2997=,
20180129_030000.003,0,RJAW,,,,0,20180129030000,-1,-1,-1,-1,180,-1,10,-1,-1,140,210,,9999,0,0,1,FEW 30,1,21,1,14,1013,RJAW 290300Z 18010KT 140V210 9999 FEW030 21/14 Q1013 RMK     1CU030 A2994=,
20180129_040000.003,0,RJAW,,,,0,20180129040000,-1,-1,-1,-1,180,-1,11,-1,-1,140,220,,9999,0,0,1,FEW 30,1,21,1,14,1012,RJAW 290400Z 18011KT 140V220 9999 FEW030 21/14 Q1012 RMK     2CU030 A2991=,
20180129_050000.003,0,RJAW,,,,0,20180129050000,-1,-1,-1,-1,190,-1,10,-1,-1,-1,-1,,9999,0,0,1,FEW 30,1,21,1,15,1012,RJAW 290500Z 19010KT 9999 FEW030 21/15 Q1012 RMK 2CU030 A2991=,
20180129_060000.003,0,RJAW,,,,0,20180129060000,-1,-1,-1,-1,190,-1,10,-1,-1,150,220,,9999,0,0,1,FEW 30,1,21,1,15,1012,RJAW 290600Z 19010KT 150V220 9999 FEW030 21/15 Q1012 RMK     2CU030 A2989=,
20180129_070000.003,0,RJAW,,,,0,20180129070000,-1,-1,-1,-1,190,-1,11,-1,-1,-1,-1,,9999,0,0,1,FEW 30,1,21,1,15,1011,RJAW 290700Z 19011KT 9999 FEW030 21/15 Q1011 RMK 1CU030 A2988=,
20180129_080000.003,0,RJAW,,,,0,20180129080000,-1,-1,-1,-1,210,-1,7,-1,-1,-1,-1,,9999,0,0,1,FEW 30,1,20,1,15,1012,RJAW 290800Z 21007KT 9999 FEW030 20/15 Q1012 RMK 1CU030 A2990=,
20180129_090000.003,0,RJAW,,,,0,20180129090000,-1,-1,-1,-1,200,-1,7,-1,-1,-1,-1,,9999,0,0,1,FEW 30,1,19,1,15,1012,RJAW 290900Z 20007KT 9999 FEW030 19/15 Q1012 RMK 1CU030 A2990=,
20180129_100000.003,0,RJAW,,,,0,20180129100000,-1,-1,-1,-1,-1,-1,-1,-1,-1,-1,-1,,-1,0,0,0,,0,-1,0,-1,-1,RJAW 291000Z NIL=,
20180129_110000.003,0,RJAW,,,,0,20180129110000,-1,-1,-1,-1,-1,-1,-1,-1,-1,-1,-1,,-1,0,0,0,,0,-1,0,-1,-1,RJAW 291100Z NIL=,
20180129_120000.003,0,RJAW,,,,0,20180129120000,-1,-1,-1,-1,210,-1,8,-1,-1,-1,-1,,9999,0,0,1,FEW 30,1,18,1,16,1013,RJAW 291200Z 21008KT 9999 FEW030 18/16 Q1013 RMK 1CU030 A2992=,
20180129_130000.003,0,RJAW,,,,0,20180129130000,-1,-1,-1,-1,-1,-1,-1,-1,-1,-1,-1,,-1,0,0,0,,0,-1,0,-1,-1,RJAW 291300Z NIL=,
20180129_140000.003,0,RJAW,,,,0,20180129140000,-1,-1,-1,-1,-1,-1,-1,-1,-1,-1,-1,,-1,0,0,0,,0,-1,0,-1,-1,RJAW 291400Z NIL=,
20180129_150000.003,0,RJAW,,,,0,20180129150000,-1,-1,-1,-1,230,-1,5,-1,-1,-1,-1,,9999,0,0,1,FEW 30,1,18,1,17,1013,RJAW 291500Z 23005KT 9999 FEW030 18/17 Q1013 RMK 1CU030 A2992=,
20180129_160000.003,0,RJAW,,,,0,20180129160000,-1,-1,-1,-1,-1,-1,-1,-1,-1,-1,-1,,-1,0,0,0,,0,-1,0,-1,-1,RJAW 291600Z NIL=,
20180129_170000.003,0,RJAW,,,,0,20180129170000,-1,-1,-1,-1,-1,-1,-1,-1,-1,-1,-1,,-1,0,0,0,,0,-1,0,-1,-1,RJAW 291700Z NIL=,
20180129_180000.003,0,RJAW,,,,0,20180129180000,-1,-1,-1,-1,230,-1,8,-1,-1,-1,-1,,9999,0,0,1,FEW 30,1,18,1,17,1012,RJAW 291800Z 23008KT 9999 FEW030 18/17 Q1012 RMK 1CU030 A2989=,
20180129_190000.003,0,RJAW,,,,0,20180129190000,-1,-1,-1,-1,-1,-1,-1,-1,-1,-1,-1,,-1,0,0,0,,0,-1,0,-1,-1,RJAW 291900Z NIL=,
20180129_200000.003,0,RJAW,,,,0,20180129200000,-1,-1,-1,-1,250,-1,8,-1,-1,-1,-1,,9999,0,0,1,FEW 30,1,19,1,17,1012,RJAW 292000Z 25008KT 9999 FEW030 19/17 Q1012 RMK 1CU030 A2990=,
20180129_210000.003,0,RJAW,,,,0,20180129210000,-1,-1,-1,-1,240,-1,7,-1,-1,-1,-1,,9999,0,0,3,FEW 15   SCT 30   BKN 150,1,19,1,17,1012,RJAW 292100Z 24007KT 9999 FEW015 SCT030 BKN150 19/17 Q1012 RMK     1CU015 4CU030 5AC150 A2991=,
20180129_220000.003,0,RJAW,,,,0,20180129220000,-1,-1,-1,-1,360,-1,12,-1,-1,-1,-1,,8000,0,1,3,FEW 5   SCT 8   BKN 15,1,19,1,19,1013,RJAW 292200Z 36012KT 8000 -SHRA FEW005 SCT008 BKN015 19/19     Q1013 RMK 1ST005 4ST008 7CU015 A2992=,- RA SH
20180129_230000.003,0,RJAW,,,,0,20180129230000,-1,-1,-1,-1,360,-1,10,-1,-1,-1,-1,,9999,0,1,3,FEW 5   SCT 8   BKN 15,1,18,1,18,1014,RJAW 292300Z 36010KT 9999 -SHRA FEW005 SCT008 BKN015 18/18     Q1014 RMK 1ST005 4ST008 7CU015 A2995=,- RA SH
20180130_000000.003,0,RJAW,,,,0,20180130000000,-1,-1,-1,-1,20,-1,13,-1,-1,-1,-1,,4000,0,2,3,FEW 5   BKN 8   BKN 15,1,18,1,18,1014,RJAW 300000Z 02013KT 4000 -SHRA BR FEW005 BKN008 BKN015 18/18     Q1014 RMK 1ST005 5ST008 7CU015 A2996=,- RA SH; BR
20180130_010000.003,0,RJAW,,,,0,20180130010000,-1,-1,-1,-1,20,-1,14,-1,-1,-1,-1,,5000,0,2,3,FEW 5   BKN 8   BKN 15,1,18,1,18,1014,RJAW 300100Z 02014KT 5000 -SHRA BR FEW005 BKN008 BKN015 18/18     Q1014 RMK 2ST005 6ST008 7CU015 A2997=,- RA SH; BR
20180130_020000.003,0,RJAW,,,,0,20180130020000,-1,-1,-1,-1,10,-1,14,-1,-1,-1,-1,,9999,0,0,3,FEW 5   SCT 8   BKN 15,1,19,1,17,1014,RJAW 300200Z 01014KT 9999 FEW005 SCT008 BKN015 19/17 Q1014 RMK     1ST005 3ST008 7CU015 A2994=,
20180130_030000.003,0,RJAW,,,,0,20180130030000,-1,-1,-1,-1,20,-1,15,-1,-1,-1,-1,,9999,0,0,2,SCT 8   BKN 15,1,19,1,17,1013,RJAW 300300Z 02015KT 9999 SCT008 BKN015 19/17 Q1013 RMK 4ST008     7CU015 A2993=,
20180130_040000.003,0,RJAW,,,,0,20180130040000,-1,-1,-1,-1,20,-1,13,-1,-1,-1,-1,,9999,0,0,3,FEW 5   SCT 8   BKN 15,1,19,1,17,1013,RJAW 300400Z 02013KT 9999 FEW005 SCT008 BKN015 19/17 Q1013 RMK     1ST005 3ST008 7CU015 A2992=,
20180130_050000.003,0,RJAW,,,,0,20180130050000,-1,-1,-1,-1,30,-1,13,-1,-1,-1,-1,,9999,0,0,2,SCT 8   BKN 15,1,19,1,16,1013,RJAW 300500Z 03013KT 9999 SCT008 BKN015 19/16 Q1013 RMK 4ST008     7CU015 A2992=,
20180130_060000.004,0,RJAW,,,,0,20180130060000,-1,-1,-1,-1,20,-1,12,-1,-1,-1,-1,,9999,0,0,2,SCT 8   BKN 15,1,18,1,16,1013,RJAW 300600Z 02012KT 9999 SCT008 BKN015 18/16 Q1013 RMK 4ST008     7CU015 A2994=,
20180130_070000.003,0,RJAW,,,,0,20180130070000,-1,-1,-1,-1,10,-1,13,-1,-1,-1,-1,,9999,0,1,2,SCT 8   OVC 15,1,18,1,16,1014,RJAW 300700Z 01013KT 9999 -SHRA SCT008 OVC015 18/16 Q1014 RMK     4ST008 8CU015 A2996=,- RA SH
20180130_080000.003,0,RJAW,,,,0,20180130080000,-1,-1,-1,-1,10,-1,12,-1,-1,-1,-1,,9999,0,1,2,FEW 8   BKN 15,1,17,1,16,1015,RJAW 300800Z 01012KT 9999 -SHRA FEW008 BKN015 17/16 Q1015 RMK     2ST008 7CU015 A2999=,- RA SH
20180130_090000.003,0,RJAW,,,,0,20180130090000,-1,-1,-1,-1,10,-1,15,-1,-1,-1,-1,,9999,0,1,3,FEW 8   BKN 15   BKN 70,1,17,1,16,1016,RJAW 300900Z 01015KT 9999 -SHRA FEW008 BKN015 BKN070 17/16     Q1016 RMK 2ST008 5CU015 7AC070 A3001=,- RA SH
20180130_100000.003,0,RJAW,,,,0,20180130100000,-1,-1,-1,-1,-1,-1,-1,-1,-1,-1,-1,,-1,0,0,0,,0,-1,0,-1,-1,RJAW 301000Z NIL=,
20180130_110000.003,0,RJAW,,,,0,20180130110000,-1,-1,-1,-1,-1,-1,-1,-1,-1,-1,-1,,-1,0,0,0,,0,-1,0,-1,-1,RJAW 301100Z NIL=,
20180130_120000.003,0,RJAW,,,,0,20180130120000,-1,-1,-1,-1,40,-1,13,-1,-1,-1,-1,,9999,0,0,3,FEW 8   BKN 20   BKN 70,1,17,1,15,1016,RJAW 301200Z 04013KT 9999 FEW008 BKN020 BKN070 17/15 Q1016 RMK     1ST008 5CU020 7AC070 A3003=,
20180130_130000.003,0,RJAW,,,,0,20180130130000,-1,-1,-1,-1,-1,-1,-1,-1,-1,-1,-1,,-1,0,0,0,,0,-1,0,-1,-1,RJAW 301300Z NIL=,
20180130_140000.003,0,RJAW,,,,0,20180130140000,-1,-1,-1,-1,-1,-1,-1,-1,-1,-1,-1,,-1,0,0,0,,0,-1,0,-1,-1,RJAW 301400Z NIL=,
20180130_150000.003,0,RJAW,,,,0,20180130150000,-1,-1,-1,-1,20,-1,14,-1,-1,-1,-1,,9999,0,0,2,FEW 20   BKN 70,1,18,1,13,1018,RJAW 301500Z 02014KT 9999 FEW020 BKN070 18/13 Q1018 RMK 1CU020     7AC070 A3006=,
20180130_160000.003,0,RJAW,,,,0,20180130160000,-1,-1,-1,-1,-1,-1,-1,-1,-1,-1,-1,,-1,0,0,0,,0,-1,0,-1,-1,RJAW 301600Z NIL=,
20180130_170000.003,0,RJAW,,,,0,20180130170000,-1,-1,-1,-1,-1,-1,-1,-1,-1,-1,-1,,-1,0,0,0,,0,-1,0,-1,-1,RJAW 301700Z NIL=,
20180130_180000.003,0,RJAW,,,,0,20180130180000,-1,-1,-1,-1,30,-1,12,-1,-1,-1,-1,,9999,0,0,2,SCT 20   BKN 70,1,18,1,12,1018,RJAW 301800Z 03012KT 9999 SCT020 BKN070 18/12 Q1018 RMK 3CU020     7AC070 A3006=,
20180130_190000.003,0,RJAW,,,,0,20180130190000,-1,-1,-1,-1,-1,-1,-1,-1,-1,-1,-1,,-1,0,0,0,,0,-1,0,-1,-1,RJAW 301900Z NIL=,
20180130_200000.003,0,RJAW,,,,0,20180130200000,-1,-1,-1,-1,40,-1,13,-1,-1,-1,-1,,9999,0,0,2,FEW 15   BKN 100,1,18,1,12,1017,RJAW 302000Z 04013KT 9999 FEW015 BKN100 18/12 Q1017 RMK 2CU015     6AC100 A3005=,
20180130_210000.003,0,RJAW,,,,0,20180130210000,-1,-1,-1,-1,50,-1,13,-1,-1,-1,-1,,9999,0,0,2,FEW 15   SCT 100,1,18,1,12,1018,RJAW 302100Z 05013KT 9999 FEW015 SCT100 18/12 Q1018 RMK 1CU015     3AC100 A3007=,
20180130_220000.003,0,RJAW,,,,0,20180130220000,-1,-1,-1,-1,60,-1,14,-1,-1,-1,-1,,9999,0,0,1,FEW 15,1,18,1,14,1018,RJAW 302200Z 06014KT 9999 FEW015 18/14 Q1018 RMK 2CU015 A3009=,
20180130_230000.003,0,RJAW,,,,0,20180130230000,-1,-1,-1,-1,60,-1,14,-1,-1,-1,-1,,9999,0,0,1,FEW 15,1,19,1,14,1019,RJAW 302300Z 06014KT 9999 FEW015 19/14 Q1019 RMK 2CU015 A3011=,
20180131_000000.003,0,RJAW,,,,0,20180131000000,-1,-1,-1,-1,60,-1,14,-1,-1,-1,-1,,9999,0,0,2,FEW 15   BKN 25,1,19,1,14,1020,RJAW 310000Z 06014KT 9999 FEW015 BKN025 19/14 Q1020 RMK 2CU015     5CU025 A3014=,
20180131_010000.003,0,RJAW,,,,0,20180131010000,-1,-1,-1,-1,60,-1,14,-1,-1,-1,-1,,9999,0,0,2,FEW 15   BKN 25,1,19,1,14,1020,RJAW 310100Z 06014KT 9999 FEW015 BKN025 19/14 Q1020 RMK 2CU015     6CU025 A3014=,
20180131_020000.003,0,RJAW,,,,0,20180131020000,-1,-1,-1,-1,60,-1,15,-1,-1,-1,-1,,9999,0,0,2,FEW 15   BKN 25,1,19,1,14,1020,RJAW 310200Z 06015KT 9999 FEW015 BKN025 19/14 Q1020 RMK 1CU015     6CU025 A3012=,
20180131_030000.003,0,RJAW,,,,0,20180131030000,-1,-1,-1,-1,60,-1,15,-1,-1,-1,-1,,9999,0,0,2,FEW 10   BKN 20,1,19,1,14,1019,RJAW 310300Z 06015KT 9999 FEW010 BKN020 19/14 Q1019 RMK 2CU010     6CU020 A3010=,
20180131_040000.003,0,RJAW,,,,0,20180131040000,-1,-1,-1,-1,50,-1,14,-1,-1,-1,-1,,9999,0,0,2,FEW 10   BKN 20,1,18,1,13,1018,RJAW 310400Z 05014KT 9999 FEW010 BKN020 18/13 Q1018 RMK 2CU010     7CU020 A3008=,
20180131_050000.003,0,RJAW,,,,0,20180131050000,-1,-1,-1,-1,60,-1,14,-1,-1,-1,-1,,9999,0,0,2,FEW 10   BKN 20,1,19,1,14,1018,RJAW 310500Z 06014KT 9999 FEW010 BKN020 19/14 Q1018 RMK 1CU010     6CU020 A3007=,
20180131_060000.003,0,RJAW,,,,0,20180131060000,-1,-1,-1,-1,50,-1,15,-1,-1,-1,-1,,9999,0,0,2,FEW 10   BKN 20,1,19,1,13,1018,RJAW 310600Z 05015KT 9999 FEW010 BKN020 19/13 Q1018 RMK 2CU010     7CU020 A3007=,
20180131_070000.004,0,RJAW,,,,0,20180131070000,-1,-1,-1,-1,60,-1,15,-1,-1,-1,-1,,9999,0,0,2,FEW 10   BKN 20,1,18,1,13,1018,RJAW 310700Z 06015KT 9999 FEW010 BKN020 18/13 Q1018 RMK 2CU010     7CU020 A3007=,
20180131_080000.004,0,RJAW,,,,0,20180131080000,-1,-1,-1,-1,60,-1,14,-1,24,-1,-1,,9999,0,0,2,FEW 15   BKN 20,1,18,1,13,1018,RJAW 310800Z 06014G24KT 9999 FEW015 BKN020 18/13 Q1018 RMK     1CU015 7CU020 A3009=,
20180131_090000.003,0,RJAW,,,,0,20180131090000,-1,-1,-1,-1,60,-1,15,-1,-1,-1,-1,,9999,0,0,2,FEW 15   BKN 20,1,18,1,13,1018,RJAW 310900Z 06015KT 9999 FEW015 BKN020 18/13 Q1018 RMK 1CU015     7CU020 A3009=,
20180131_100000.003,0,RJAW,,,,0,20180131100000,-1,-1,-1,-1,-1,-1,-1,-1,-1,-1,-1,,-1,0,0,0,,0,-1,0,-1,-1,RJAW 311000Z NIL=,
20180131_110000.003,0,RJAW,,,,0,20180131110000,-1,-1,-1,-1,-1,-1,-1,-1,-1,-1,-1,,-1,0,0,0,,0,-1,0,-1,-1,RJAW 311100Z NIL=,
20180131_120000.003,0,RJAW,,,,0,20180131120000,-1,-1,-1,-1,70,-1,14,-1,-1,-1,-1,,9999,0,0,2,FEW 10   BKN 20,1,18,1,13,1020,RJAW 311200Z 07014KT 9999 FEW010 BKN020 18/13 Q1020 RMK 1CU010     7CU020 A3013=,
20180131_130000.004,0,RJAW,,,,0,20180131130000,-1,-1,-1,-1,-1,-1,-1,-1,-1,-1,-1,,-1,0,0,0,,0,-1,0,-1,-1,RJAW 311300Z NIL=,
20180131_140000.003,0,RJAW,,,,0,20180131140000,-1,-1,-1,-1,-1,-1,-1,-1,-1,-1,-1,,-1,0,0,0,,0,-1,0,-1,-1,RJAW 311400Z NIL=,
20180131_150000.003,0,RJAW,,,,0,20180131150000,-1,-1,-1,-1,80,-1,13,-1,-1,-1,-1,,9999,0,0,1,FEW 20,1,18,1,13,1019,RJAW 311500Z 08013KT 9999 FEW020 18/13 Q1019 RMK 2CU020 A3012=,
20180131_160000.003,0,RJAW,,,,0,20180131160000,-1,-1,-1,-1,-1,-1,-1,-1,-1,-1,-1,,-1,0,0,0,,0,-1,0,-1,-1,RJAW 311600Z NIL=,
20180131_170000.003,0,RJAW,,,,0,20180131170000,-1,-1,-1,-1,-1,-1,-1,-1,-1,-1,-1,,-1,0,0,0,,0,-1,0,-1,-1,RJAW 311700Z NIL=,
20180131_180000.003,0,RJAW,,,,0,20180131180000,-1,-1,-1,-1,90,-1,11,-1,-1,-1,-1,,9999,0,0,1,FEW 20,1,17,1,13,1018,RJAW 311800Z 09011KT 9999 FEW020 17/13 Q1018 RMK 2CU020 A3007=,
20180131_190000.004,0,RJAW,,,,0,20180131190000,-1,-1,-1,-1,-1,-1,-1,-1,-1,-1,-1,,-1,0,0,0,,0,-1,0,-1,-1,RJAW 311900Z NIL=,
20180131_200000.004,0,RJAW,,,,0,20180131200000,-1,-1,-1,-1,90,-1,12,-1,-1,-1,-1,,9999,0,0,2,FEW 10   SCT 20,1,17,1,14,1017,RJAW 312000Z 09012KT 9999 FEW010 SCT020 17/14 Q1017 RMK 1CU010     3CU020 A3004=,
20180131_210000.003,0,RJAW,,,,0,20180131210000,-1,-1,-1,-1,90,-1,13,-1,-1,-1,-1,,9999,0,0,1,FEW 20,1,17,1,13,1017,RJAW 312100Z 09013KT 9999 FEW020 17/13 Q1017 RMK 2CU020 A3004=,
20180131_220000.003,0,RJAW,,,,0,20180131220000,-1,-1,-1,-1,90,-1,12,-1,-1,-1,-1,,9999,0,0,1,FEW 20,1,18,1,14,1017,RJAW 312200Z 09012KT 9999 FEW020 18/14 Q1017 RMK 2CU020 A3006=,
20180131_230000.003,0,RJAW,,,,0,20180131230000,-1,-1,-1,-1,100,-1,12,-1,-1,-1,-1,,9999,0,0,1,SCT 20,1,19,1,14,1018,RJAW 312300Z 10012KT 9999 SCT020 19/14 Q1018 RMK 3CU020 A3007=,
20180201_000000.004,0,RJAW,,,,0,20180201000000,-1,-1,-1,-1,100,-1,14,-1,-1,-1,-1,,9999,0,0,1,SCT 20,1,20,1,14,1018,RJAW 010000Z 10014KT 9999 SCT020 20/14 Q1018 RMK 3CU020 A3008=,
20180201_010000.003,0,RJAW,,,,0,20180201010000,-1,-1,-1,-1,100,-1,14,-1,-1,-1,-1,,9999,0,0,1,SCT 30,1,21,1,14,1018,RJAW 010100Z 10014KT 9999 SCT030 21/14 Q1018 RMK 3CU030 A3008=,
20180201_020000.003,0,RJAW,,,,0,20180201020000,-1,-1,-1,-1,90,-1,14,-1,-1,60,120,,9999,0,0,1,FEW 30,1,21,1,14,1017,RJAW 010200Z 09014KT 060V120 9999 FEW030 21/14 Q1017 RMK     2CU030 A3005=,
20180201_030000.004,0,RJAW,,,,0,20180201030000,-1,-1,-1,-1,90,-1,12,-1,-1,-1,-1,,9999,0,0,1,FEW 30,1,21,1,14,1016,RJAW 010300Z 09012KT 9999 FEW030 21/14 Q1016 RMK 2CU030 A3003=,
20180201_040000.004,0,RJAW,,,,0,20180201040000,-1,-1,-1,-1,90,-1,12,-1,-1,60,130,,9999,0,0,1,FEW 30,1,22,1,15,1015,RJAW 010400Z 09012KT 060V130 9999 FEW030 22/15 Q1015 RMK     2CU030 A3000=,
20180201_050000.003,0,RJAW,,,,0,20180201050000,-1,-1,-1,-1,100,-1,15,-1,-1,-1,-1,,9999,0,0,1,FEW 30,1,22,1,14,1015,RJAW 010500Z 10015KT 9999 FEW030 22/14 Q1015 RMK 1CU030 A2997=,
20180201_060000.003,0,RJAW,,,,0,20180201060000,-1,-1,-1,-1,100,-1,14,-1,-1,70,130,,9999,0,0,1,FEW 30,1,22,1,16,1014,RJAW 010600Z 10014KT 070V130 9999 FEW030 22/16 Q1014 RMK     2CU030 A2997=,
20180201_070000.003,0,RJAW,,,,0,20180201070000,-1,-1,-1,-1,100,-1,13,-1,-1,-1,-1,,9999,0,0,2,FEW 30   BKN 120,1,21,1,16,1015,RJAW 010700Z 10013KT 9999 FEW030 BKN120 21/16 Q1015 RMK 2CU030     6AC120 A2998=,
20180201_080000.003,0,RJAW,,,,0,20180201080000,-1,-1,-1,-1,110,-1,13,-1,-1,-1,-1,,9999,0,0,2,FEW 30   BKN 120,1,20,1,16,1015,RJAW 010800Z 11013KT 9999 FEW030 BKN120 20/16 Q1015 RMK 2CU030     6AC120 A2998=,
20180201_090000.003,0,RJAW,,,,0,20180201090000,-1,-1,-1,-1,100,-1,12,-1,-1,-1,-1,,9999,0,0,2,FEW 30   BKN 120,1,20,1,17,1015,RJAW 010900Z 10012KT 9999 FEW030 BKN120 20/17 Q1015 RMK 2CU030     6AC120 A2999=,
20180201_100000.003,0,RJAW,,,,0,20180201100000,-1,-1,-1,-1,-1,-1,-1,-1,-1,-1,-1,,-1,0,0,0,,0,-1,0,-1,-1,RJAW 011000Z NIL=,
20180201_110000.003,0,RJAW,,,,0,20180201110000,-1,-1,-1,-1,-1,-1,-1,-1,-1,-1,-1,,-1,0,0,0,,0,-1,0,-1,-1,RJAW 011100Z NIL=,
20180201_120000.003,0,RJAW,,,,0,20180201120000,-1,-1,-1,-1,120,-1,11,-1,-1,-1,-1,,9999,0,0,2,SCT 30   BKN 120,1,20,1,18,1016,RJAW 011200Z 12011KT 9999 SCT030 BKN120 20/18 Q1016 RMK 3CU030     7AC120 A3002=,
20180201_130000.003,0,RJAW,,,,0,20180201130000,-1,-1,-1,-1,-1,-1,-1,-1,-1,-1,-1,,-1,0,0,0,,0,-1,0,-1,-1,RJAW 011300Z NIL=,
20180201_140000.003,0,RJAW,,,,0,20180201140000,-1,-1,-1,-1,-1,-1,-1,-1,-1,-1,-1,,-1,0,0,0,,0,-1,0,-1,-1,RJAW 011400Z NIL=,
20180201_150000.003,0,RJAW,,,,0,20180201150000,-1,-1,-1,-1,120,-1,5,-1,-1,-1,-1,,9999,0,0,3,FEW 15   BKN 25   BKN 100,1,20,1,19,1016,RJAW 011500Z 12005KT 9999 FEW015 BKN025 BKN100 20/19 Q1016 RMK     2CU015 5CU025 7AC100 A3002=,
20180201_160000.003,0,RJAW,,,,0,20180201160000,-1,-1,-1,-1,-1,-1,-1,-1,-1,-1,-1,,-1,0,0,0,,0,-1,0,-1,-1,RJAW 011600Z NIL=,
20180201_170000.003,0,RJAW,,,,0,20180201170000,-1,-1,-1,-1,-1,-1,-1,-1,-1,-1,-1,,-1,0,0,0,,0,-1,0,-1,-1,RJAW 011700Z NIL=,
20180201_180000.003,0,RJAW,,,,0,20180201180000,-1,-1,-1,-1,150,-1,2,-1,-1,-1,-1,,9999,0,0,3,FEW 15   BKN 25   BKN 100,1,20,1,19,1015,RJAW 011800Z 15002KT 9999 FEW015 BKN025 BKN100 20/19 Q1015 RMK     2CU015 5CU025 7AC100 A2998=,
20180201_190000.004,0,RJAW,,,,0,20180201190000,-1,-1,-1,-1,-1,-1,-1,-1,-1,-1,-1,,-1,0,0,0,,0,-1,0,-1,-1,RJAW 011900Z NIL=,
20180201_200000.004,0,RJAW,,,,0,20180201200000,-1,-1,-1,-1,160,-1,6,-1,-1,-1,-1,,9999,0,0,2,SCT 25   BKN 100,1,19,1,19,1014,RJAW 012000Z 16006KT 9999 SCT025 BKN100 19/19 Q1014 RMK 3CU025     5AC100 A2996=,
20180201_210000.003,0,RJAW,,,,0,20180201210000,-1,-1,-1,-1,160,-1,7,-1,-1,-1,-1,,9999,0,0,2,FEW 25   BKN 100,1,20,1,19,1014,RJAW 012100Z 16007KT 9999 FEW025 BKN100 20/19 Q1014 RMK 2CU025     5AC100 A2995=,
20180201_220000.003,0,RJAW,,,,0,20180201220000,-1,-1,-1,-1,160,-1,13,-1,-1,-1,-1,,9999,0,0,2,FEW 25   SCT 100,1,20,1,20,1012,RJAW 012200Z 16013KT 9999 FEW025 SCT100 20/20 Q1012 RMK 1CU025     3AC100 A2990=,
20180201_230000.004,0,RJAW,,,,0,20180201230000,-1,-1,-1,-1,-1,-1,-1,-1,-1,-1,-1,,-1,0,0,0,,0,-1,0,-1,-1,RJAW 012300Z NIL=,
20180201_230000.007,1,RJAW,,,,0,20180201230000,-1,-1,-1,-1,180,-1,11,-1,-1,-1,-1,,9999,0,0,2,SCT 25   SCT 100,1,21,1,21,1013,RJAW 012300Z 18011KT 9999 SCT025 SCT100 21/21 Q1013 RMK 3CU025     3AC100 A2994=,
20180202_000000.003,0,RJAW,,,,0,20180202000000,-1,-1,-1,-1,200,-1,9,-1,-1,160,220,,9999,0,0,1,FEW 15,1,22,1,21,1014,RJAW 020000Z 20009KT 160V220 9999 FEW015 22/21 Q1014 RMK     1CU015 A2996=,
20180202_010000.003,0,RJAW,,,,0,20180202010000,-1,-1,-1,-1,200,-1,9,-1,-1,170,230,,9999,0,0,1,FEW 15,1,22,1,21,1014,RJAW 020100Z 20009KT 170V230 9999 FEW015 22/21 Q1014 RMK     1CU015 A2995=,
20180202_020000.003,0,RJAW,,,,0,20180202020000,-1,-1,-1,-1,230,-1,9,-1,-1,-1,-1,,9999,0,0,1,FEW 15,1,23,1,21,1013,RJAW 020200Z 23009KT 9999 FEW015 23/21 Q1013 RMK 1CU015 A2993=,
20180202_030000.003,0,RJAW,,,,0,20180202030000,-1,-1,-1,-1,230,-1,9,-1,-1,-1,-1,,9999,0,0,1,FEW 15,1,24,1,20,1012,RJAW 020300Z 23009KT 9999 FEW015 24/20 Q1012 RMK 1CU015 A2990=,
20180202_040000.003,0,RJAW,,,,0,20180202040000,-1,-1,-1,-1,250,-1,9,-1,-1,230,290,,9999,0,0,1,FEW 15,1,24,1,20,1011,RJAW 020400Z 25009KT 230V290 9999 FEW015 24/20 Q1011 RMK     1CU015 A2987=,
20180202_050000.002,0,RJAW,,,,0,20180202050000,-1,-1,-1,-1,280,-1,11,-1,-1,-1,-1,,9999,0,0,1,FEW 15,1,23,1,20,1011,RJAW 020500Z 28011KT 9999 FEW015 23/20 Q1011 RMK 1CU015 A2987=,
20180202_060000.003,0,RJAW,,,,0,20180202060000,-1,-1,-1,-1,280,-1,10,-1,-1,-1,-1,,9999,0,0,1,FEW 15,1,23,1,20,1011,RJAW 020600Z 28010KT 9999 FEW015 23/20 Q1011 RMK 2CU015 A2987=,
20180202_070000.003,0,RJAW,,,,0,20180202070000,-1,-1,-1,-1,330,-1,11,-1,-1,300,360,,9999,0,1,3,FEW 8   BKN 15   BKN 25,1,22,1,20,1011,RJAW 020700Z 33011KT 300V360 9999 -SHRA FEW008 BKN015 BKN025     22/20 Q1011 RMK 2ST008 6CU015 7CU025 A2987=,- RA SH
20180202_080000.003,0,RJAW,,,,0,20180202080000,-1,-1,-1,-1,340,-1,10,-1,-1,-1,-1,,9999,0,0,2,SCT 8   BKN 20,1,21,1,19,1012,RJAW 020800Z 34010KT 9999 SCT008 BKN020 21/19 Q1012 RMK 3ST008     7CU020 A2989=,
20180202_090000.003,0,RJAW,,,,0,20180202090000,-1,-1,-1,-1,340,-1,8,-1,-1,-1,-1,,9999,0,0,2,FEW 8   BKN 20,1,21,1,18,1012,RJAW 020900Z 34008KT 9999 FEW008 BKN020 21/18 Q1012 RMK 1ST008     7CU020 A2990=,
20180202_100000.004,0,RJAW,,,,0,20180202100000,-1,-1,-1,-1,350,-1,7,-1,-1,-1,-1,,9999,0,0,2,FEW 10   BKN 20,1,21,1,18,1012,RJAW 021000Z 35007KT 9999 FEW010 BKN020 21/18 Q1012 RMK 1CU010     7CU020 A2991=,
20180202_110000.003,0,RJAW,,,,0,20180202110000,-1,-1,-1,-1,350,-1,6,-1,-1,-1,-1,,9999,0,0,2,FEW 10   BKN 20,1,21,1,18,1013,RJAW 021100Z 35006KT 9999 FEW010 BKN020 21/18 Q1013 RMK 1CU010     7CU020 A2993=,
20180202_120000.003,0,RJAW,,,,0,20180202120000,-1,-1,-1,-1,330,-1,11,-1,-1,-1,-1,,9999,0,0,1,BKN 20,1,21,1,17,1014,RJAW 021200Z 33011KT 9999 BKN020 21/17 Q1014 RMK 7CU020 A2996=,
20180202_130000.004,0,RJAW,,,,0,20180202130000,-1,-1,-1,-1,-1,-1,-1,-1,-1,-1,-1,,-1,0,0,0,,0,-1,0,-1,-1,RJAW 021300Z NIL=,
20180202_140000.003,0,RJAW,,,,0,20180202140000,-1,-1,-1,-1,-1,-1,-1,-1,-1,-1,-1,,-1,0,0,0,,0,-1,0,-1,-1,RJAW 021400Z NIL=,
20180202_150000.003,0,RJAW,,,,0,20180202150000,-1,-1,-1,-1,330,-1,5,-1,-1,-1,-1,,9999,0,0,1,BKN 20,1,19,1,16,1013,RJAW 021500Z 33005KT 9999 BKN020 19/16 Q1013 RMK 7CU020 A2993=,
20180202_160000.003,0,RJAW,,,,0,20180202160000,-1,-1,-1,-1,-1,-1,-1,-1,-1,-1,-1,,-1,0,0,0,,0,-1,0,-1,-1,RJAW 021600Z NIL=,
20180202_170000.003,0,RJAW,,,,0,20180202170000,-1,-1,-1,-1,-1,-1,-1,-1,-1,-1,-1,,-1,0,0,0,,0,-1,0,-1,-1,RJAW 021700Z NIL=,
20180202_180000.004,0,RJAW,,,,0,20180202180000,-1,-1,-1,-1,290,-1,7,-1,-1,-1,-1,,9999,0,0,2,FEW 10   SCT 20,1,19,1,16,1012,RJAW 021800Z 29007KT 9999 FEW010 SCT020 19/16 Q1012 RMK 1CU010     4CU020 A2991=,
20180202_190000.004,0,RJAW,,,,0,20180202190000,-1,-1,-1,-1,-1,-1,-1,-1,-1,-1,-1,,-1,0,0,0,,0,-1,0,-1,-1,RJAW 021900Z NIL=,
20180202_200000.004,0,RJAW,,,,0,20180202200000,-1,-1,-1,-1,280,-1,10,-1,-1,-1,-1,,9999,0,0,2,FEW 15   BKN 25,1,19,1,16,1013,RJAW 022000Z 28010KT 9999 FEW015 BKN025 19/16 Q1013 RMK 1CU015     7CU025 A2993=,
20180202_210000.003,0,RJAW,,,,0,20180202210000,-1,-1,-1,-1,290,-1,12,-1,-1,-1,-1,,9999,0,0,2,SCT 15   BKN 25,1,19,1,16,1014,RJAW 022100Z 29012KT 9999 SCT015 BKN025 19/16 Q1014 RMK 3CU015     7CU025 A2994=,
20180202_220000.003,0,RJAW,,,,0,20180202220000,-1,-1,-1,-1,290,-1,13,-1,-1,-1,-1,,9999,0,0,2,FEW 15   BKN 25,1,19,1,15,1014,RJAW 022200Z 29013KT 9999 FEW015 BKN025 19/15 Q1014 RMK 1CU015     7CU025 A2996=,
20180202_230000.004,0,RJAW,,,,0,20180202230000,-1,-1,-1,-1,290,-1,13,-1,-1,-1,-1,,9999,0,0,1,SCT 15,1,20,1,15,1014,RJAW 022300Z 29013KT 9999 SCT015 20/15 Q1014 RMK 3CU015 A2996=,
20180203_000000.003,0,RJAW,,,,0,20180203000000,-1,-1,-1,-1,290,-1,14,-1,-1,-1,-1,,9999,0,0,1,FEW 15,1,21,1,16,1014,RJAW 030000Z 29014KT 9999 FEW015 21/16 Q1014 RMK 2CU015 A2996=,
20180203_010000.004,0,RJAW,,,,0,20180203010000,-1,-1,-1,-1,300,-1,14,-1,-1,-1,-1,,9999,0,0,2,FEW 15   SCT 20,1,21,1,16,1014,RJAW 030100Z 30014KT 9999 FEW015 SCT020 21/16 Q1014 RMK 1CU015     4CU020 A2996=,
20180203_020000.003,0,RJAW,,,,0,20180203020000,-1,-1,-1,-1,300,-1,14,-1,24,-1,-1,,9999,0,0,2,FEW 15   BKN 20,1,20,1,15,1014,RJAW 030200Z 30014G24KT 9999 FEW015 BKN020 20/15 Q1014 RMK     2CU015 6CU020 A2995=,
20180203_030000.003,0,RJAW,,,,0,20180203030000,-1,-1,-1,-1,310,-1,15,-1,-1,-1,-1,,9999,0,0,2,FEW 15   BKN 20,1,21,1,15,1013,RJAW 030300Z 31015KT 9999 FEW015 BKN020 21/15 Q1013 RMK 1CU015     6CU020 A2992=,
20180203_040000.003,0,RJAW,,,,0,20180203040000,-1,-1,-1,-1,320,-1,17,-1,-1,290,360,,9999,0,0,2,FEW 15   BKN 20,1,22,1,14,1012,RJAW 030400Z 32017KT 290V360 9999 FEW015 BKN020 22/14 Q1012     RMK 1CU015 5CU020 A2990=,
20180203_050000.003,0,RJAW,,,,0,20180203050000,-1,-1,-1,-1,330,-1,18,-1,-1,-1,-1,,9999,0,0,2,FEW 15   SCT 20,1,22,1,14,1012,RJAW 030500Z 33018KT 9999 FEW015 SCT020 22/14 Q1012 RMK 1CU015     4CU020 A2990=,
20180203_060000.003,0,RJAW,,,,0,20180203060000,-1,-1,-1,-1,330,-1,15,-1,-1,-1,-1,,9999,0,0,2,FEW 15   SCT 20,1,21,1,13,1012,RJAW 030600Z 33015KT 9999 FEW015 SCT020 21/13 Q1012 RMK 1CU015     3CU020 A2990=,
20180203_070000.004,0,RJAW,,,,0,20180203070000,-1,-1,-1,-1,330,-1,17,-1,-1,-1,-1,,9999,0,0,2,FEW 15   SCT 20,1,21,1,12,1012,RJAW 030700Z 33017KT 9999 FEW015 SCT020 21/12 Q1012 RMK 1CU015     3CU020 A2991=,
20180203_080000.003,0,RJAW,,,,0,20180203080000,-1,-1,-1,-1,340,-1,15,-1,-1,-1,-1,,9999,0,0,2,FEW 15   SCT 20,1,19,1,12,1013,RJAW 030800Z 34015KT 9999 FEW015 SCT020 19/12 Q1013 RMK 1CU015     3CU020 A2992=,
20180203_090000.003,0,RJAW,,,,0,20180203090000,-1,-1,-1,-1,340,-1,14,-1,-1,-1,-1,,9999,0,0,2,FEW 15   BKN 20,1,19,1,13,1013,RJAW 030900Z 34014KT 9999 FEW015 BKN020 19/13 Q1013 RMK 1CU015     5CU020 A2994=,
20180203_100000.003,0,RJAW,,,,0,20180203100000,-1,-1,-1,-1,-1,-1,-1,-1,-1,-1,-1,,-1,0,0,0,,0,-1,0,-1,-1,RJAW 031000Z NIL=,
20180203_110000.003,0,RJAW,,,,0,20180203110000,-1,-1,-1,-1,-1,-1,-1,-1,-1,-1,-1,,-1,0,0,0,,0,-1,0,-1,-1,RJAW 031100Z NIL=,
20180203_120000.003,0,RJAW,,,,0,20180203120000,-1,-1,-1,-1,340,-1,12,-1,-1,-1,-1,,9999,0,0,2,FEW 15   SCT 20,1,18,1,12,1015,RJAW 031200Z 34012KT 9999 FEW015 SCT020 18/12 Q1015 RMK 1CU015     4CU020 A2999=,
20180203_130000.003,0,RJAW,,,,0,20180203130000,-1,-1,-1,-1,-1,-1,-1,-1,-1,-1,-1,,-1,0,0,0,,0,-1,0,-1,-1,RJAW 031300Z NIL=,
20180203_140000.003,0,RJAW,,,,0,20180203140000,-1,-1,-1,-1,-1,-1,-1,-1,-1,-1,-1,,-1,0,0,0,,0,-1,0,-1,-1,RJAW 031400Z NIL=,
20180203_150000.003,0,RJAW,,,,0,20180203150000,-1,-1,-1,-1,340,-1,8,-1,-1,-1,-1,,9999,0,0,2,FEW 15   SCT 20,1,18,1,13,1015,RJAW 031500Z 34008KT 9999 FEW015 SCT020 18/13 Q1015 RMK 1CU015     4CU020 A2999=,
20180203_160000.003,0,RJAW,,,,0,20180203160000,-1,-1,-1,-1,-1,-1,-1,-1,-1,-1,-1,,-1,0,0,0,,0,-1,0,-1,-1,RJAW 031600Z NIL=,
20180203_170000.003,0,RJAW,,,,0,20180203170000,-1,-1,-1,-1,-1,-1,-1,-1,-1,-1,-1,,-1,0,0,0,,0,-1,0,-1,-1,RJAW 031700Z NIL=,
20180203_180000.004,0,RJAW,,,,0,20180203180000,-1,-1,-1,-1,330,-1,7,-1,-1,-1,-1,,9999,0,0,2,FEW 15   BKN 25,1,18,1,12,1014,RJAW 031800Z 33007KT 9999 FEW015 BKN025 18/12 Q1014 RMK 1CU015     5CU025 A2997=,
20180203_190000.003,0,RJAW,,,,0,20180203190000,-1,-1,-1,-1,-1,-1,-1,-1,-1,-1,-1,,-1,0,0,0,,0,-1,0,-1,-1,RJAW 031900Z NIL=,
20180203_200000.003,0,RJAW,,,,0,20180203200000,-1,-1,-1,-1,330,-1,7,-1,-1,-1,-1,,9999,0,0,2,FEW 15   BKN 25,1,18,1,13,1014,RJAW 032000Z 33007KT 9999 FEW015 BKN025 18/13 Q1014 RMK 1CU015     6CU025 A2996=,
20180203_210000.003,0,RJAW,,,,0,20180203210000,-1,-1,-1,-1,340,-1,6,-1,-1,-1,-1,,9999,0,0,2,FEW 15   BKN 25,1,18,1,12,1015,RJAW 032100Z 34006KT 9999 FEW015 BKN025 18/12 Q1015 RMK 1CU015     5CU025 A2998=,
20180203_220000.003,0,RJAW,,,,0,20180203220000,-1,-1,-1,-1,340,-1,5,-1,-1,310,10,,9999,0,0,3,FEW 15   BKN 25   BKN 100,1,19,1,13,1016,RJAW 032200Z 34005KT 310V010 9999 FEW015 BKN025 BKN100 19/13     Q1016 RMK 1CU015 5CU025 7AC100 A3000=,
20180203_230000.003,0,RJAW,,,,0,20180203230000,-1,-1,-1,-1,330,-1,6,-1,-1,-1,-1,,9999,0,0,3,FEW 15   SCT 25   BKN 100,1,19,1,13,1016,RJAW 032300Z 33006KT 9999 FEW015 SCT025 BKN100 19/13 Q1016 RMK     1CU015 3CU025 7AC100 A3001=,
20180204_000000.003,0,RJAW,,,,0,20180204000000,-1,-1,-1,-1,340,-1,8,-1,-1,300,10,,9999,0,0,3,FEW 15   BKN 25   BKN 100,1,20,1,13,1016,RJAW 040000Z 34008KT 300V010 9999 FEW015 BKN025 BKN100 20/13     Q1016 RMK 1CU015 6CU025 7AC100 A3002=,
20180204_010000.003,0,RJAW,,,,0,20180204010000,-1,-1,-1,-1,340,-1,8,-1,-1,310,10,,9999,0,0,3,FEW 15   SCT 25   BKN 100,1,20,1,13,1016,RJAW 040100Z 34008KT 310V010 9999 FEW015 SCT025 BKN100 20/13     Q1016 RMK 1CU015 3CU025 6AC100 A3001=,
20180204_020000.003,0,RJAW,,,,0,20180204020000,-1,-1,-1,-1,330,-1,8,-1,-1,290,10,,9999,0,0,3,FEW 15   SCT 25   BKN 100,1,21,1,13,1015,RJAW 040200Z 33008KT 290V010 9999 FEW015 SCT025 BKN100 21/13     Q1015 RMK 1CU015 3CU025 5AC100 A2999=,
20180204_030000.003,0,RJAW,,,,0,20180204030000,-1,-1,-1,-1,330,-1,10,-1,-1,290,360,,9999,0,0,3,FEW 15   SCT 25   BKN 100,1,21,1,13,1015,RJAW 040300Z 33010KT 290V360 9999 FEW015 SCT025 BKN100 21/13     Q1015 RMK 1CU015 4CU025 6AC100 A2997=,
20180204_040000.003,0,RJAW,,,,0,20180204040000,-1,-1,-1,-1,330,-1,11,-1,-1,300,360,,9999,0,0,3,FEW 15   SCT 25   BKN 100,1,21,1,13,1014,RJAW 040400Z 33011KT 300V360 9999 FEW015 SCT025 BKN100 21/13     Q1014 RMK 1CU015 3CU025 7AC100 A2995=,
20180204_050000.003,0,RJAW,,,,0,20180204050000,-1,-1,-1,-1,330,-1,11,-1,-1,300,360,,9999,0,0,3,FEW 15   SCT 25   BKN 100,1,21,1,14,1013,RJAW 040500Z 33011KT 300V360 9999 FEW015 SCT025 BKN100 21/14     Q1013 RMK 1CU015 4CU025 6AC100 A2994=,
20180204_060000.003,0,RJAW,,,,0,20180204060000,-1,-1,-1,-1,350,-1,10,-1,-1,-1,-1,,9999,0,0,3,FEW 15   BKN 25   BKN 100,1,21,1,13,1014,RJAW 040600Z 35010KT 9999 FEW015 BKN025 BKN100 21/13 Q1014 RMK     1CU015 5CU025 7AC100 A2995=,
20180204_070000.003,0,RJAW,,,,0,20180204070000,-1,-1,-1,-1,350,-1,10,-1,-1,-1,-1,,9999,0,0,2,FEW 15   BKN 100,1,20,1,12,1014,RJAW 040700Z 35010KT 9999 FEW015 BKN100 20/12 Q1014 RMK 1CU015     7AC100 A2997=,
20180204_080000.003,0,RJAW,,,,0,20180204080000,-1,-1,-1,-1,350,-1,8,-1,-1,-1,-1,,9999,0,0,2,FEW 25   BKN 100,1,19,1,13,1015,RJAW 040800Z 35008KT 9999 FEW025 BKN100 19/13 Q1015 RMK 2CU025     7AC100 A2998=,
20180204_090000.003,0,RJAW,,,,0,20180204090000,-1,-1,-1,-1,360,-1,6,-1,-1,-1,-1,,9999,0,0,2,FEW 25   BKN 100,1,19,1,13,1015,RJAW 040900Z 36006KT 9999 FEW025 BKN100 19/13 Q1015 RMK 2CU025     6AC100 A2999=,
20180204_100000.003,0,RJAW,,,,0,20180204100000,-1,-1,-1,-1,-1,-1,-1,-1,-1,-1,-1,,-1,0,0,0,,0,-1,0,-1,-1,RJAW 041000Z NIL=,
20180204_110000.004,0,RJAW,,,,0,20180204110000,-1,-1,-1,-1,-1,-1,-1,-1,-1,-1,-1,,-1,0,0,0,,0,-1,0,-1,-1,RJAW 041100Z NIL=,
20180204_120000.003,0,RJAW,,,,0,20180204120000,-1,-1,-1,-1,350,-1,5,-1,-1,-1,-1,,9999,0,0,2,SCT 25   BKN 100,1,19,1,13,1017,RJAW 041200Z 35005KT 9999 SCT025 BKN100 19/13 Q1017 RMK 3CU025     7AC100 A3004=,
20180204_130000.003,0,RJAW,,,,0,20180204130000,-1,-1,-1,-1,-1,-1,-1,-1,-1,-1,-1,,-1,0,0,0,,0,-1,0,-1,-1,RJAW 041300Z NIL=,
20180204_140000.003,0,RJAW,,,,0,20180204140000,-1,-1,-1,-1,-1,-1,-1,-1,-1,-1,-1,,-1,0,0,0,,0,-1,0,-1,-1,RJAW 041400Z NIL=,
20180204_150000.003,0,RJAW,,,,0,20180204150000,-1,-1,-1,-1,360,-1,2,-1,-1,-1,-1,,9999,0,0,2,FEW 25   BKN 100,1,18,1,13,1016,RJAW 041500Z 36002KT 9999 FEW025 BKN100 18/13 Q1016 RMK 1CU025     5AC100 A3002=,
20180204_160000.003,0,RJAW,,,,0,20180204160000,-1,-1,-1,-1,-1,-1,-1,-1,-1,-1,-1,,-1,0,0,0,,0,-1,0,-1,-1,RJAW 041600Z NIL=,
20180204_170000.003,0,RJAW,,,,0,20180204170000,-1,-1,-1,-1,-1,-1,-1,-1,-1,-1,-1,,-1,0,0,0,,0,-1,0,-1,-1,RJAW 041700Z NIL=,
20180204_180000.004,0,RJAW,,,,0,20180204180000,-1,-1,-1,-1,0,-1,0,-1,-1,-1,-1,,9999,0,0,2,FEW 25   BKN 100,1,18,1,13,1014,RJAW 041800Z 00000KT 9999 FEW025 BKN100 18/13 Q1014 RMK 1CU025     7AC100 A2996=,
20180204_190000.003,0,RJAW,,,,0,20180204190000,-1,-1,-1,-1,-1,-1,-1,-1,-1,-1,-1,,-1,0,0,0,,0,-1,0,-1,-1,RJAW 041900Z NIL=,
20180204_200000.003,0,RJAW,,,,0,20180204200000,-1,-1,-1,-1,110,-1,3,-1,-1,-1,-1,,9999,0,0,2,FEW 25   BKN 100,1,17,1,13,1014,RJAW 042000Z 11003KT 9999 FEW025 BKN100 17/13 Q1014 RMK 2CU025     6AC100 A2995=,
20180204_210000.003,0,RJAW,,,,0,20180204210000,-1,-1,-1,-1,0,-1,0,-1,-1,-1,-1,,9999,0,0,2,SCT 25   BKN 100,1,18,1,13,1015,RJAW 042100Z 00000KT 9999 SCT025 BKN100 18/13 Q1015 RMK 3CU025     7AC100 A2997=,
20180204_220000.003,0,RJAW,,,,0,20180204220000,-1,-1,-1,-1,0,-1,0,-1,-1,-1,-1,,9999,0,0,3,FEW 15   SCT 25   BKN 100,1,18,1,13,1015,RJAW 042200Z 00000KT 9999 FEW015 SCT025 BKN100 18/13 Q1015 RMK     1CU015 4CU025 7AC100 A2999=,
20180204_230000.003,0,RJAW,,,,0,20180204230000,-1,-1,-1,-1,140,-1,3,-1,-1,100,190,,9999,0,0,3,FEW 15   SCT 25   BKN 100,1,18,1,14,1015,RJAW 042300Z 14003KT 100V190 9999 FEW015 SCT025 BKN100 18/14     Q1015 RMK 1CU015 3CU025 7AC100 A3000=,
20180205_000000.004,0,RJAW,,,,0,20180205000000,-1,-1,-1,-1,999,-1,1,-1,-1,-1,-1,,9999,0,0,3,FEW 15   SCT 25   BKN 100,1,19,1,14,1016,RJAW 050000Z VRB01KT 9999 FEW015 SCT025 BKN100 19/14 Q1016 RMK     1CU015 3CU025 7AC100 A3000=,
20180205_010000.003,0,RJAW,,,,0,20180205010000,-1,-1,-1,-1,350,-1,6,-1,-1,-1,-1,,9999,0,0,3,FEW 15   BKN 20   BKN 100,1,18,1,15,1016,RJAW 050100Z 35006KT 9999 FEW015 BKN020 BKN100 18/15 Q1016 RMK     1CU015 5CU020 7AC100 A3002=,
20180205_020000.003,0,RJAW,,,,0,20180205020000,-1,-1,-1,-1,360,-1,12,-1,-1,-1,-1,,8000,0,1,3,FEW 3   BKN 5   BKN 12,1,16,1,16,1015,RJAW 050200Z 36012KT 8000 -SHRA FEW003 BKN005 BKN012 16/16     Q1015 RMK 1ST003 5ST005 7CU012 A3000=,- RA SH
