20180101_000000.002,0,RJBD,,,,0,20180101000000,-1,-1,-1,-1,340,-1,18,-1,-1,-1,-1,,9999,0,0,2,FEW 35   SCT 45,1,7,-1,3,1019,RJBD 010000Z 34018KT 9999 FEW035 SCT045 07/M03 Q1019 RMK     1CU035 3CU045 A3011=,
20180101_010000.002,0,RJBD,,,,0,20180101010000,-1,-1,-1,-1,330,-1,18,-1,-1,-1,-1,,9999,0,0,2,FEW 35   SCT 45,1,8,-1,3,1019,RJBD 010100Z 33018KT 9999 FEW035 SCT045 08/M03 Q1019 RMK     1CU035 3CU045 A3011=,
20180101_020000.002,0,RJBD,,,,0,20180101020000,-1,-1,-1,-1,330,-1,19,-1,29,-1,-1,,9999,0,0,2,FEW 35   SCT 45,1,9,-1,3,1019,RJBD 010200Z 33019G29KT 9999 FEW035 SCT045 09/M03 Q1019 RMK     1CU035 3CU045 A3010=,
20180101_030000.002,0,RJBD,,,,0,20180101030000,-1,-1,-1,-1,320,-1,18,-1,28,-1,-1,,9999,0,0,2,FEW 35   SCT 40,1,9,-1,2,1018,RJBD 010300Z 32018G28KT 9999 FEW035 SCT040 09/M02 Q1018 RMK     1CU035 3CU040 A3008=,
20180101_040000.002,0,RJBD,,,,0,20180101040000,-1,-1,-1,-1,330,-1,18,-1,-1,-1,-1,,9999,0,0,2,FEW 35   SCT 45,1,9,-1,3,1018,RJBD 010400Z 33018KT 9999 FEW035 SCT045 09/M03 Q1018 RMK     1CU035 3CU045 A3006=,
20180101_050000.002,0,RJBD,,,,0,20180101050000,-1,-1,-1,-1,330,-1,19,-1,-1,-1,-1,,9999,0,0,2,FEW 30   SCT 45,1,9,-1,3,1018,RJBD 010500Z 33019KT 9999 FEW030 SCT045 09/M03 Q1018 RMK     1CU030 4CU045 A3007=,
20180101_060000.002,0,RJBD,,,,0,20180101060000,-1,-1,-1,-1,340,-1,23,-1,33,-1,-1,,9999,0,0,2,FEW 30   SCT 45,1,8,-1,3,1018,RJBD 010600Z 34023G33KT 9999 FEW030 SCT045 08/M03 Q1018 RMK     1CU030 3CU045 A3006=,
20180101_070000.002,0,RJBD,,,,0,20180101070000,-1,-1,-1,-1,340,-1,19,-1,-1,300,360,,9999,0,0,2,FEW 30   SCT 45,1,8,-1,3,1018,RJBD 010700Z 34019KT 300V360 9999 FEW030 SCT045 08/M03 Q1018     RMK 1CU030 3CU045 A3008=,
20180101_080000.002,0,RJBD,,,,0,20180101080000,-1,-1,-1,-1,340,-1,17,-1,-1,-1,-1,,9999,0,0,2,FEW 35   SCT 50,1,7,-1,3,1019,RJBD 010800Z 34017KT 9999 FEW035 SCT050 07/M03 Q1019 RMK     1CU035 3SC050 A3010=,
20180101_090000.002,0,RJBD,,,,0,20180101090000,-1,-1,-1,-1,340,-1,11,-1,-1,-1,-1,,9999,0,0,2,FEW 35   SCT 60,1,7,-1,3,1020,RJBD 010900Z 34011KT 9999 FEW035 SCT060 07/M03 Q1020 RMK     1CU035 3SC060 A3012=,
20180101_100000.002,0,RJBD,,,,0,20180101100000,-1,-1,-1,-1,330,-1,12,-1,-1,-1,-1,,9999,0,0,2,FEW 30   SCT 60,1,7,-1,2,1020,RJBD 011000Z 33012KT 9999 FEW030 SCT060 07/M02 Q1020 RMK     1CU030 3SC060 A3014=,
20180101_230000.002,0,RJBD,,,,0,20180101230000,-1,-1,-1,-1,330,-1,13,-1,-1,-1,-1,,9999,0,0,2,FEW 35   SCT 45,1,6,-1,1,1023,RJBD 012300Z 33013KT 9999 FEW035 SCT045 06/M01 Q1023 RMK     1CU035 3CU045 A3022=,
20180102_000000.003,0,RJBD,,,,0,20180102000000,-1,-1,-1,-1,330,-1,17,-1,-1,-1,-1,,9999,0,0,2,FEW 35   SCT 50,1,7,-1,2,1023,RJBD 020000Z 33017KT 9999 FEW035 SCT050 07/M02 Q1023 RMK     1CU035 3SC050 A3022=,
20180102_010000.003,0,RJBD,,,,0,20180102010000,-1,-1,-1,-1,340,-1,17,-1,-1,-1,-1,,9999,0,0,2,FEW 35   SCT 40,1,8,-1,2,1023,RJBD 020100Z 34017KT 9999 FEW035 SCT040 08/M02 Q1023 RMK     1CU035 3CU040 A3022=,
20180102_020000.002,0,RJBD,,,,0,20180102020000,-1,-1,-1,-1,330,-1,18,-1,-1,-1,-1,,9999,0,0,2,FEW 35   SCT 40,1,9,-1,3,1022,RJBD 020200Z 33018KT 9999 FEW035 SCT040 09/M03 Q1022 RMK     1CU035 3CU040 A3021=,
20180102_030000.002,0,RJBD,,,,0,20180102030000,-1,-1,-1,-1,330,-1,15,-1,-1,-1,-1,,9999,0,0,2,FEW 35   SCT 40,1,9,-1,1,1021,RJBD 020300Z 33015KT 9999 FEW035 SCT040 09/M01 Q1021 RMK     1CU035 3CU040 A3016=,
20180102_040000.002,0,RJBD,,,,0,20180102040000,-1,-1,-1,-1,320,-1,13,-1,-1,-1,-1,,9999,0,0,2,FEW 30   SCT 40,1,10,-1,1,1020,RJBD 020400Z 32013KT 9999 FEW030 SCT040 10/M01 Q1020 RMK     1CU030 3CU040 A3014=,
20180102_050000.002,0,RJBD,,,,0,20180102050000,-1,-1,-1,-1,320,-1,15,-1,-1,-1,-1,,9999,0,0,2,FEW 30   SCT 40,1,10,-1,2,1020,RJBD 020500Z 32015KT 9999 FEW030 SCT040 10/M02 Q1020 RMK     1CU030 3CU040 A3012=,
20180102_060000.002,0,RJBD,,,,0,20180102060000,-1,-1,-1,-1,330,-1,17,-1,-1,-1,-1,,9999,0,0,1,FEW 30,1,9,-1,2,1020,RJBD 020600Z 33017KT 9999 FEW030 09/M02 Q1020 RMK 1CU030     A3013=,
20180102_070000.002,0,RJBD,,,,0,20180102070000,-1,-1,-1,-1,330,-1,16,-1,-1,-1,-1,,9999,0,0,1,FEW 30,1,9,-1,2,1020,RJBD 020700Z 33016KT 9999 FEW030 09/M02 Q1020 RMK 1CU030     A3013=,
20180102_080000.002,0,RJBD,,,,0,20180102080000,-1,-1,-1,-1,340,-1,11,-1,-1,-1,-1,,9999,0,0,1,FEW 30,1,8,-1,2,1020,RJBD 020800Z 34011KT 9999 FEW030 08/M02 Q1020 RMK 1CU030     A3015=,
20180102_090000.002,0,RJBD,,,,0,20180102090000,-1,-1,-1,-1,340,-1,8,-1,-1,-1,-1,,9999,0,0,1,FEW 30,1,7,-1,2,1020,RJBD 020900Z 34008KT 9999 FEW030 07/M02 Q1020 RMK 1CU030     A3013=,
20180102_100000.002,0,RJBD,,,,0,20180102100000,-1,-1,-1,-1,340,-1,8,-1,-1,290,20,,9999,0,0,1,FEW 40,1,7,-1,1,1020,RJBD 021000Z 34008KT 290V020 9999 FEW040 07/M01 Q1020 RMK     1CU040 A3013=,
20180102_230000.002,0,RJBD,,,,0,20180102230000,-1,-1,-1,-1,330,-1,18,-1,28,-1,-1,,9999,0,1,2,FEW 15   SCT 50,1,7,-1,1,1020,RJBD 022300Z 33018G28KT 9999 VCSH FEW015 SCT050 07/M01 Q1020     RMK 1CU015 3SC050 A3012=,VC SH
20180103_000000.002,0,RJBD,,,,0,20180103000000,-1,-1,-1,-1,330,-1,15,-1,25,-1,-1,,9999,0,1,2,FEW 15   BKN 35,1,7,-1,1,1020,RJBD 030000Z 33015G25KT 9999 VCSH FEW015 BKN035 07/M01 Q1020     RMK 1CU015 5CU035 A3013=,VC SH
20180103_010000.002,0,RJBD,,,,0,20180103010000,-1,-1,-1,-1,330,-1,16,-1,26,-1,-1,,9999,0,0,1,FEW 30,1,7,-1,0,1020,RJBD 030100Z 33016G26KT 9999 FEW030 07/M00 Q1020 RMK 2CU030     A3014=,
20180103_020000.002,0,RJBD,,,,0,20180103020000,-1,-1,-1,-1,320,-1,17,-1,28,-1,-1,,9999,0,0,2,FEW 30   SCT 40,1,8,-1,1,1019,RJBD 030200Z 32017G28KT 9999 FEW030 SCT040 08/M01 Q1019 RMK     1CU030 4CU040 A3011=,
20180103_030000.003,0,RJBD,,,,0,20180103030000,-1,-1,-1,-1,320,-1,20,-1,30,-1,-1,,9999,0,1,2,FEW 30   BKN 45,1,7,-1,2,1019,RJBD 030300Z 32020G30KT 9999 VCSH FEW030 BKN045 07/M02 Q1019     RMK 1CU030 6CU045 A3010=,VC SH
20180103_040000.002,0,RJBD,,,,0,20180103040000,-1,-1,-1,-1,330,-1,17,-1,28,310,10,,9999,0,1,2,FEW 30   SCT 45,1,8,-1,1,1018,RJBD 030400Z 33017G28KT 310V010 9999 VCSH FEW030 SCT045 08/M01     Q1018 RMK 1CU030 4CU045 A3008=,VC SH
20180103_050000.002,0,RJBD,,,,0,20180103050000,-1,-1,-1,-1,330,-1,17,-1,-1,-1,-1,,9999,0,0,2,FEW 30   SCT 45,1,8,-1,2,1018,RJBD 030500Z 33017KT 9999 FEW030 SCT045 08/M02 Q1018 RMK     1CU030 4CU045 A3008=,
20180103_060000.002,0,RJBD,,,,0,20180103060000,-1,-1,-1,-1,340,-1,16,-1,-1,-1,-1,,9999,0,1,3,FEW 30   BKN 40   BKN 60,1,6,-1,3,1019,RJBD 030600Z 34016KT 9999 VCSH FEW030 BKN040 BKN060 06/M03     Q1019 RMK 1CU030 5CU040 6SC060 A3011=,VC SH
20180103_070000.002,0,RJBD,,,,0,20180103070000,-1,-1,-1,-1,340,-1,14,-1,-1,-1,-1,,9999,0,0,3,FEW 30   SCT 40   BKN 60,1,6,-1,3,1020,RJBD 030700Z 34014KT 9999 FEW030 SCT040 BKN060 06/M03 Q1020     RMK 1CU030 4CU040 5SC060 A3013=,
20180103_080000.002,0,RJBD,,,,0,20180103080000,-1,-1,-1,-1,350,-1,12,-1,-1,-1,-1,,9999,0,0,2,FEW 30   SCT 40,1,5,-1,3,1020,RJBD 030800Z 35012KT 9999 FEW030 SCT040 05/M03 Q1020 RMK     1CU030 4CU040 A3013=,
20180103_090000.002,0,RJBD,,,,0,20180103090000,-1,-1,-1,-1,350,-1,12,-1,-1,-1,-1,,9999,0,0,2,FEW 30   SCT 40,1,5,-1,3,1021,RJBD 030900Z 35012KT 9999 FEW030 SCT040 05/M03 Q1021 RMK     1CU030 3CU040 A3016=,
20180103_100000.002,0,RJBD,,,,0,20180103100000,-1,-1,-1,-1,350,-1,13,-1,-1,-1,-1,,9999,0,0,2,FEW 30   SCT 60,1,5,-1,3,1021,RJBD 031000Z 35013KT 9999 FEW030 SCT060 05/M03 Q1021 RMK     2CU030 4SC060 A3018=,
20180103_230000.002,0,RJBD,,,,0,20180103230000,-1,-1,-1,-1,10,-1,4,-1,-1,-1,-1,,9999,0,0,1,FEW 20,1,2,-1,3,1022,RJBD 032300Z 01004KT 9999 FEW020 02/M03 Q1022 RMK 1CU020     A3020=,
20180104_000000.002,0,RJBD,,,,0,20180104000000,-1,-1,-1,-1,360,-1,5,-1,-1,320,30,,9999,0,0,1,FEW 20,1,4,-1,2,1023,RJBD 040000Z 36005KT 320V030 9999 FEW020 04/M02 Q1023 RMK     2CU020 A3021=,
20180104_010000.002,0,RJBD,,,,0,20180104010000,-1,-1,-1,-1,340,-1,11,-1,-1,-1,-1,,9999,0,0,1,FEW 25,1,6,-1,3,1023,RJBD 040100Z 34011KT 9999 FEW025 06/M03 Q1023 RMK 2CU025     A3021=,
20180104_020000.002,0,RJBD,,,,0,20180104020000,-1,-1,-1,-1,340,-1,11,-1,-1,-1,-1,,9999,0,0,2,FEW 20   SCT 30,1,7,-1,2,1022,RJBD 040200Z 34011KT 9999 FEW020 SCT030 07/M02 Q1022 RMK     1CU020 3CU030 A3019=,
20180104_030000.002,0,RJBD,,,,0,20180104030000,-1,-1,-1,-1,340,-1,12,-1,-1,310,20,,9999,0,0,2,FEW 25   SCT 40,1,7,-1,3,1021,RJBD 040300Z 34012KT 310V020 9999 FEW025 SCT040 07/M03 Q1021     RMK 1CU025 3CU040 A3016=,
20180104_040000.002,0,RJBD,,,,0,20180104040000,-1,-1,-1,-1,340,-1,11,-1,-1,-1,-1,,9999,0,0,2,FEW 25   SCT 40,1,8,-1,3,1020,RJBD 040400Z 34011KT 9999 FEW025 SCT040 08/M03 Q1020 RMK     1CU025 3CU040 A3012=,
20180104_050000.002,0,RJBD,,,,0,20180104050000,-1,-1,-1,-1,340,-1,11,-1,-1,300,10,,9999,0,0,2,FEW 25   SCT 40,1,7,-1,4,1019,RJBD 040500Z 34011KT 300V010 9999 FEW025 SCT040 07/M04 Q1019     RMK 1CU025 3CU040 A3010=,
20180104_060000.003,0,RJBD,,,,0,20180104060000,-1,-1,-1,-1,330,-1,11,-1,-1,-1,-1,,9999,0,0,2,FEW 40   SCT -9999,1,8,-1,4,1019,RJBD 040600Z 33011KT 9999 FEW040 SCT/// 08/M04 Q1019 RMK     1CU040 A3010=,
20180104_070000.002,0,RJBD,,,,0,20180104070000,-1,-1,-1,-1,340,-1,12,-1,-1,-1,-1,,9999,0,0,1,FEW 40,1,7,-1,3,1019,RJBD 040700Z 34012KT 9999 FEW040 07/M03 Q1019 RMK 1CU040     A3011=,
20180104_080000.002,0,RJBD,,,,0,20180104080000,-1,-1,-1,-1,320,-1,9,-1,-1,-1,-1,,9999,0,0,1,FEW 40,1,6,-1,3,1020,RJBD 040800Z 32009KT 9999 FEW040 06/M03 Q1020 RMK 1CU040     A3013=,
20180104_090000.002,0,RJBD,,,,0,20180104090000,-1,-1,-1,-1,340,-1,8,-1,-1,-1,-1,,9999,0,0,2,FEW 40   SCT -9999,1,5,-1,3,1020,RJBD 040900Z 34008KT 9999 FEW040 SCT/// 05/M03 Q1020 RMK     1CU040 A3014=,
20180104_100000.002,0,RJBD,,,,0,20180104100000,-1,-1,-1,-1,350,-1,7,-1,-1,-1,-1,,9999,0,0,2,FEW 40   SCT 160,1,5,-1,2,1021,RJBD 041000Z 35007KT 9999 FEW040 SCT160 05/M02 Q1021 RMK     1CU040 3AC160 A3015=,
20180104_230000.002,0,RJBD,,,,0,20180104230000,-1,-1,-1,-1,360,-1,5,-1,15,330,70,,9999,0,1,3,FEW 8   SCT 30   BKN 40,1,5,-1,1,1017,RJBD 042300Z 36005G15KT 330V070 9999 -SHRA FEW008 SCT030     BKN040 05/M01 Q1017 RMK 1ST008 4CU030 7SC040 A3005=,- RA SH
20180105_000000.002,0,RJBD,,,,0,20180105000000,-1,-1,-1,-1,350,-1,7,-1,-1,-1,-1,,9999,0,1,3,FEW 8   SCT 35   BKN 45,1,4,1,1,1017,RJBD 050000Z 35007KT 9999 -SHRA FEW008 SCT035 BKN045 04/01     Q1017 RMK 1ST008 4CU035 7SC045 A3004=,- RA SH
20180105_010000.003,0,RJBD,,,,0,20180105010000,-1,-1,-1,-1,30,-1,4,-1,-1,350,90,,9999,0,1,3,FEW 30   BKN 60   OVC 80,1,4,1,1,1017,RJBD 050100Z 03004KT 350V090 9999 -RA FEW030 BKN060 OVC080     04/01 Q1017 RMK 1CU030 6SC060 8AS080 A3005=,- RA
20180105_020000.002,0,RJBD,,,,0,20180105020000,-1,-1,-1,-1,70,-1,3,-1,-1,360,130,,9999,0,1,3,FEW 30   SCT 35   BKN 45,1,4,1,1,1016,RJBD 050200Z 07003KT 360V130 9999 -RA FEW030 SCT035 BKN045     04/01 Q1016 RMK 1CU030 3CU035 6SC045 A3003=,- RA
20180105_030000.002,0,RJBD,,,,0,20180105030000,-1,-1,-1,-1,350,-1,6,-1,-1,-1,-1,,9999,0,1,3,FEW 15   SCT 25   BKN 40,1,4,1,2,1015,RJBD 050300Z 35006KT 9999 -RA FEW015 SCT025 BKN040 04/02 Q1015     RMK 2CU015 4CU025 6CU040 A3000=,- RA
20180105_040000.002,0,RJBD,,,,0,20180105040000,-1,-1,-1,-1,340,-1,7,-1,-1,-1,-1,,9999,0,1,3,FEW 15   SCT 20   BKN 35,1,4,1,2,1015,RJBD 050400Z 34007KT 9999 -RA FEW015 SCT020 BKN035 04/02 Q1015     RMK 2CU015 4CU020 6CU035 A2997=,- RA
20180105_050000.002,0,RJBD,,,,0,20180105050000,-1,-1,-1,-1,350,-1,6,-1,-1,320,20,,9999,0,1,3,FEW 8   BKN 12   BKN 20,1,4,1,2,1015,RJBD 050500Z 35006KT 320V020 9999 -RA FEW008 BKN012 BKN020     04/02 Q1015 RMK 2ST008 5CU012 6CU020 A2998=,- RA
20180105_060000.002,0,RJBD,,,,0,20180105060000,-1,-1,-1,-1,350,-1,7,-1,-1,-1,-1,,9999,0,1,3,FEW 8   SCT 12   BKN 25,1,3,1,2,1014,RJBD 050600Z 35007KT 9999 -RA FEW008 SCT012 BKN025 03/02 Q1014     RMK 2ST008 3CU012 6CU025 A2996=,- RA
20180105_070000.002,0,RJBD,,,,0,20180105070000,-1,-1,-1,-1,360,-1,6,-1,-1,330,30,,9999,0,1,3,FEW 8   SCT 35   BKN 50,1,4,1,2,1014,RJBD 050700Z 36006KT 330V030 9999 -RA FEW008 SCT035 BKN050     04/02 Q1014 RMK 1ST008 3CU035 7SC050 A2995=,- RA
20180105_080000.002,0,RJBD,,,,0,20180105080000,-1,-1,-1,-1,999,-1,2,-1,-1,-1,-1,,9999,0,0,3,FEW 8   SCT 60   BKN 120,1,3,1,2,1013,RJBD 050800Z VRB02KT 9999 FEW008 SCT060 BKN120 03/02 Q1013 RMK     1ST008 3SC060 5AC120 A2993=,
20180105_090000.002,0,RJBD,,,,0,20180105090000,-1,-1,-1,-1,999,-1,1,-1,-1,-1,-1,,9999,0,0,1,FEW 8,1,2,1,1,1013,RJBD 050900Z VRB01KT 9999 FEW008 02/01 Q1013 RMK 1ST008 A2994=,
20180105_100000.002,0,RJBD,,,,0,20180105100000,-1,-1,-1,-1,30,-1,3,-1,-1,320,70,,9999,0,0,1,FEW 8,1,3,1,2,1014,RJBD 051000Z 03003KT 320V070 9999 FEW008 03/02 Q1014 RMK     1ST008 A2995=,
20180105_230000.002,0,RJBD,,,,0,20180105230000,-1,-1,-1,-1,30,-1,3,-1,-1,360,80,,9999,0,0,3,FEW 20   SCT 60   BKN 70,1,4,1,2,1014,RJBD 052300Z 03003KT 360V080 9999 FEW020 SCT060 BKN070 04/02     Q1014 RMK 1CU020 4SC060 6AC070 A2996=,
20180106_000000.002,0,RJBD,,,,0,20180106000000,-1,-1,-1,-1,10,-1,4,-1,-1,340,60,,9999,0,0,2,FEW 30   SCT 60,1,6,1,3,1015,RJBD 060000Z 01004KT 340V060 9999 FEW030 SCT060 06/03 Q1015     RMK 1CU030 3SC060 A2997=,
20180106_010000.002,0,RJBD,,,,0,20180106010000,-1,-1,-1,-1,340,-1,13,-1,-1,-1,-1,,9999,0,0,2,FEW 30   SCT 60,1,8,1,4,1015,RJBD 060100Z 34013KT 9999 FEW030 SCT060 08/04 Q1015 RMK 1CU030     3SC060 A2999=,
20180106_020000.002,0,RJBD,,,,0,20180106020000,-1,-1,-1,-1,320,-1,14,-1,-1,290,350,,9999,0,0,2,FEW 30   SCT 60,1,9,1,1,1015,RJBD 060200Z 32014KT 290V350 9999 FEW030 SCT060 09/01 Q1015     RMK 2CU030 3SC060 A2998=,
20180106_030000.002,0,RJBD,,,,0,20180106030000,-1,-1,-1,-1,330,-1,16,-1,27,290,350,,9999,0,0,2,FEW 30   SCT 35,1,10,-1,0,1014,RJBD 060300Z 33016G27KT 290V350 9999 FEW030 SCT035 10/M00     Q1014 RMK 1CU030 3CU035 A2995=,
20180106_040000.002,0,RJBD,,,,0,20180106040000,-1,-1,-1,-1,330,-1,11,-1,-1,300,360,,9999,0,0,3,FEW 30   SCT 40   BKN 50,1,9,-1,1,1013,RJBD 060400Z 33011KT 300V360 9999 FEW030 SCT040 BKN050 09/M01     Q1013 RMK 1CU030 3CU040 5SC050 A2994=,
20180106_050000.002,0,RJBD,,,,0,20180106050000,-1,-1,-1,-1,340,-1,14,-1,-1,300,20,,9999,0,0,2,FEW 40   BKN 50,1,9,-1,1,1013,RJBD 060500Z 34014KT 300V020 9999 FEW040 BKN050 09/M01 Q1013     RMK 1CU040 5SC050 A2994=,
20180106_060000.002,0,RJBD,,,,0,20180106060000,-1,-1,-1,-1,340,-1,14,-1,-1,-1,-1,,9999,0,0,2,FEW 40   BKN 50,1,9,-1,1,1014,RJBD 060600Z 34014KT 9999 FEW040 BKN050 09/M01 Q1014 RMK     1CU040 6SC050 A2995=,
20180106_070000.002,0,RJBD,,,,0,20180106070000,-1,-1,-1,-1,340,-1,8,-1,-1,-1,-1,,9999,0,0,3,FEW 30   SCT 40   BKN 50,1,8,1,0,1014,RJBD 060700Z 34008KT 9999 FEW030 SCT040 BKN050 08/00 Q1014 RMK     1CU030 3CU040 6SC050 A2997=,
20180106_080000.002,0,RJBD,,,,0,20180106080000,-1,-1,-1,-1,330,-1,14,-1,-1,290,360,,9999,0,1,3,FEW 25   SCT 35   BKN 40,1,8,1,1,1015,RJBD 060800Z 33014KT 290V360 9999 VCSH FEW025 SCT035 BKN040     08/01 Q1015 RMK 1CU025 3CU035 6CU040 A2998=,VC SH
20180106_090000.002,0,RJBD,,,,0,20180106090000,-1,-1,-1,-1,340,-1,10,-1,-1,-1,-1,,9999,0,1,3,FEW 20   SCT 35   BKN 45,1,8,1,1,1015,RJBD 060900Z 34010KT 9999 VCSH FEW020 SCT035 BKN045 08/01     Q1015 RMK 1CU020 3CU035 5CU045 A2998=,VC SH
20180106_100000.002,0,RJBD,,,,0,20180106100000,-1,-1,-1,-1,340,-1,14,-1,-1,-1,-1,,9999,0,0,1,FEW 35,1,7,-1,0,1016,RJBD 061000Z 34014KT 9999 FEW035 07/M00 Q1016 RMK 1CU035     A3002=,
20180106_230000.002,0,RJBD,,,,0,20180106230000,-1,-1,-1,-1,350,-1,6,-1,-1,320,80,,9999,0,0,2,FEW 30   BKN -9999,1,3,-1,2,1022,RJBD 062300Z 35006KT 320V080 9999 FEW030 BKN/// 03/M02 Q1022     RMK 1CU030 A3018=,
20180107_000000.002,0,RJBD,,,,0,20180107000000,-1,-1,-1,-1,350,-1,9,-1,-1,-1,-1,,9999,0,0,2,FEW 30   BKN -9999,1,6,-1,2,1023,RJBD 070000Z 35009KT 9999 FEW030 BKN/// 06/M02 Q1023 RMK     1CU030 A3022=,
20180107_010000.003,0,RJBD,,,,0,20180107010000,-1,-1,-1,-1,350,-1,12,-1,-1,-1,-1,,9999,0,0,2,FEW 30   BKN -9999,1,7,-1,3,1022,RJBD 070100Z 35012KT 9999 FEW030 BKN/// 07/M03 Q1022 RMK     1CU030 A3019=,
20180107_020000.002,0,RJBD,,,,0,20180107020000,-1,-1,-1,-1,350,-1,12,-1,-1,-1,-1,,9999,0,0,2,FEW 35   BKN -9999,1,8,-1,3,1022,RJBD 070200Z 35012KT 9999 FEW035 BKN/// 08/M03 Q1022 RMK     1CU035 A3019=,
20180107_030000.002,0,RJBD,,,,0,20180107030000,-1,-1,-1,-1,340,-1,10,-1,-1,300,20,,9999,0,0,2,FEW 40   BKN -9999,1,9,-1,3,1021,RJBD 070300Z 34010KT 300V020 9999 FEW040 BKN/// 09/M03 Q1021     RMK 1CU040 A3015=,
20180107_040000.002,0,RJBD,,,,0,20180107040000,-1,-1,-1,-1,310,-1,8,-1,-1,-1,-1,CAVOK,-1,0,0,0,,1,9,-1,2,1020,RJBD 070400Z 31008KT CAVOK 09/M02 Q1020 RMK A3012=,
20180107_050000.002,0,RJBD,,,,0,20180107050000,-1,-1,-1,-1,320,-1,8,-1,-1,-1,-1,CAVOK,-1,0,0,0,,1,10,-1,1,1019,RJBD 070500Z 32008KT CAVOK 10/M01 Q1019 RMK A3010=,
20180107_060000.002,0,RJBD,,,,0,20180107060000,-1,-1,-1,-1,310,-1,9,-1,-1,260,340,CAVOK,-1,0,0,0,,1,10,1,0,1020,RJBD 070600Z 31009KT 260V340 CAVOK 10/00 Q1020 RMK A3013=,
20180107_070000.002,0,RJBD,,,,0,20180107070000,-1,-1,-1,-1,320,-1,7,-1,-1,290,360,CAVOK,-1,0,0,0,,1,9,1,0,1020,RJBD 070700Z 32007KT 290V360 CAVOK 09/00 Q1020 RMK A3014=,
20180107_080000.002,0,RJBD,,,,0,20180107080000,-1,-1,-1,-1,300,-1,3,-1,-1,-1,-1,CAVOK,-1,0,0,0,,1,8,-1,0,1021,RJBD 070800Z 30003KT CAVOK 08/M00 Q1021 RMK A3015=,
20180107_090000.002,0,RJBD,,,,0,20180107090000,-1,-1,-1,-1,330,-1,4,-1,-1,-1,-1,CAVOK,-1,0,0,0,,1,8,1,1,1021,RJBD 070900Z 33004KT CAVOK 08/01 Q1021 RMK A3015=,
20180107_100000.002,0,RJBD,,,,0,20180107100000,-1,-1,-1,-1,999,-1,2,-1,-1,-1,-1,CAVOK,-1,0,0,0,,1,7,1,1,1021,RJBD 071000Z VRB02KT CAVOK 07/01 Q1021 RMK A3017=,
20180107_230000.002,0,RJBD,,,,0,20180107230000,-1,-1,-1,-1,90,-1,9,-1,-1,-1,-1,,9999,0,1,3,FEW 30   SCT 45   BKN 60,1,9,1,5,1016,RJBD 072300Z 09009KT 9999 -SHRA FEW030 SCT045 BKN060 09/05     Q1016 RMK 1CU030 3CU045 5SC060 A3002=,- RA SH
20180108_000000.002,0,RJBD,,,,0,20180108000000,-1,-1,-1,-1,100,-1,10,-1,-1,-1,-1,,9999,0,1,3,FEW 30   BKN 45   BKN 60,1,11,1,6,1015,RJBD 080000Z 10010KT 9999 VCSH FEW030 BKN045 BKN060 11/06     Q1015 RMK 1CU030 5CU045 6SC060 A2998=,VC SH
20180108_010000.002,0,RJBD,,,,0,20180108010000,-1,-1,-1,-1,110,-1,11,-1,-1,-1,-1,,9999,0,1,3,FEW 8   SCT 30   BKN 40,1,11,1,8,1013,RJBD 080100Z 11011KT 9999 -SHRA FEW008 SCT030 BKN040 11/08     Q1013 RMK 1ST008 4CU030 6CU040 A2993 P/FR=,- RA SH
20180108_020000.002,0,RJBD,,,,0,20180108020000,-1,-1,-1,-1,110,-1,13,-1,-1,-1,-1,,9000,0,1,3,FEW 6   BKN 30   BKN 40,1,12,1,9,1012,RJBD 080200Z 11013KT 9000 -SHRA FEW006 BKN030 BKN040 12/09     Q1012 RMK 1ST006 5CU030 6CU040 A2990=,- RA SH
20180108_030000.002,0,RJBD,,,,0,20180108030000,-1,-1,-1,-1,100,-1,11,-1,-1,-1,-1,,9999,0,1,3,FEW 8   BKN 40   BKN 60,1,12,1,10,1009,RJBD 080300Z 10011KT 9999 -SHRA FEW008 BKN040 BKN060 12/10     Q1009 RMK 1ST008 5CU040 6SC060 A2981 P/FR=,- RA SH
20180108_040000.002,0,RJBD,,,,0,20180108040000,-1,-1,-1,-1,80,-1,11,-1,-1,50,110,,7000,0,1,3,FEW 8   SCT 20   BKN 35,1,13,1,11,1007,RJBD 080400Z 08011KT 050V110 7000 SHRA FEW008 SCT020 BKN035     13/11 Q1007 RMK 1ST008 3CU020 6CU035 A2975 P/FR=,RA SH
20180108_050000.002,0,RJBD,,,,0,20180108050000,-1,-1,-1,-1,70,-1,5,-1,-1,20,130,,3500,0,2,3,FEW 6   SCT 15   BKN 25,1,13,1,12,1007,RJBD 080500Z 07005KT 020V130 3500 SHRA BR FEW006 SCT015 BKN025     13/12 Q1007 RMK 1ST006 4CU015 6CU025 A2975=,RA SH; BR
20180108_060000.003,0,RJBD,,,,0,20180108060000,-1,-1,-1,-1,110,-1,10,-1,-1,-1,-1,,5000,0,2,3,FEW 8   SCT 25   BKN 45,1,13,1,12,1006,RJBD 080600Z 11010KT 5000 -SHRA BR FEW008 SCT025 BKN045 13/12     Q1006 RMK 1ST008 4CU025 6CU045 A2971=,- RA SH; BR
20180108_070000.002,0,RJBD,,,,0,20180108070000,-1,-1,-1,-1,999,-1,2,-1,-1,-1,-1,,9999,0,1,3,FEW 10   SCT 40   BKN 70,1,13,1,12,1006,RJBD 080700Z VRB02KT 9999 -RA FEW010 SCT040 BKN070 13/12 Q1006     RMK 1CU010 4CU040 6AC070 A2971=,- RA
20180108_080000.002,0,RJBD,,,,0,20180108080000,-1,-1,-1,-1,140,-1,4,-1,-1,110,190,,9999,0,1,3,FEW 15   SCT 60   BKN 80,1,14,1,13,1005,RJBD 080800Z 14004KT 110V190 9999 -RA FEW015 SCT060 BKN080     14/13 Q1005 RMK 1CU015 4SC060 6AC080 A2970=,- RA
20180108_090000.002,0,RJBD,,,,0,20180108090000,-1,-1,-1,-1,110,-1,5,-1,-1,-1,-1,,9999,0,1,3,FEW 10   SCT 30   BKN 60,1,14,1,13,1005,RJBD 080900Z 11005KT 9999 -RA FEW010 SCT030 BKN060 14/13 Q1005     RMK 1CU010 4CU030 6SC060 A2969=,- RA
20180108_100000.002,0,RJBD,,,,0,20180108100000,-1,-1,-1,-1,150,-1,6,-1,-1,-1,-1,,7000,0,1,3,FEW 6   SCT 10   BKN 60,1,15,1,15,1005,RJBD 081000Z 15006KT 7000 -RA FEW006 SCT010 BKN060 15/15 Q1005     RMK 1ST006 4CU010 6SC060 A2968=,- RA
20180108_230000.003,0,RJBD,,,,0,20180108230000,-1,-1,-1,-1,340,-1,14,-1,-1,-1,-1,,9999,0,0,3,FEW 25   SCT 50   BKN 60,1,9,1,4,1003,RJBD 082300Z 34014KT 9999 FEW025 SCT050 BKN060 09/04 Q1003 RMK     1CU025 4SC050 6SC060 A2963=,
20180109_000000.002,0,RJBD,,,,0,20180109000000,-1,-1,-1,-1,330,-1,14,-1,-1,300,10,,9999,0,0,3,FEW 25   SCT 40   BKN 60,1,9,1,5,1005,RJBD 090000Z 33014KT 300V010 9999 FEW025 SCT040 BKN060 09/05     Q1005 RMK 1CU025 3CU040 6SC060 A2970=,
20180109_010000.002,0,RJBD,,,,0,20180109010000,-1,-1,-1,-1,320,-1,20,-1,30,-1,-1,,9999,0,1,3,FEW 25   SCT 35   BKN 50,1,9,1,2,1006,RJBD 090100Z 32020G30KT 9999 -SHRA FEW025 SCT035 BKN050 09/02     Q1006 RMK 1CU025 4CU035 6SC050 A2971=,- RA SH
20180109_020000.002,0,RJBD,,,,0,20180109020000,-1,-1,-1,-1,330,-1,19,-1,-1,-1,-1,,9999,0,0,3,FEW 25   BKN 45   BKN 70,1,9,1,1,1005,RJBD 090200Z 33019KT 9999 FEW025 BKN045 BKN070 09/01 Q1005 RMK     1CU025 5CU045 6AC070 A2969=,
20180109_030000.002,0,RJBD,,,,0,20180109030000,-1,-1,-1,-1,320,-1,18,-1,28,290,350,,9999,0,0,3,FEW 30   BKN 45   BKN 70,1,9,1,1,1005,RJBD 090300Z 32018G28KT 290V350 9999 FEW030 BKN045 BKN070     09/01 Q1005 RMK 1CU030 5CU045 6AC070 A2968=,
20180109_040000.002,0,RJBD,,,,0,20180109040000,-1,-1,-1,-1,330,-1,16,-1,-1,-1,-1,,9999,0,0,3,FEW 30   BKN 45   BKN 70,1,8,1,0,1004,RJBD 090400Z 33016KT 9999 FEW030 BKN045 BKN070 08/00 Q1004 RMK     1CU030 5CU045 6AC070 A2966=,
20180109_050000.002,0,RJBD,,,,0,20180109050000,-1,-1,-1,-1,330,-1,21,-1,-1,290,350,,9999,0,0,3,FEW 25   SCT 35   BKN 45,1,8,-1,1,1005,RJBD 090500Z 33021KT 290V350 9999 FEW025 SCT035 BKN045 08/M01     Q1005 RMK 1CU025 4CU035 6CU045 A2968=,
20180109_060000.002,0,RJBD,,,,0,20180109060000,-1,-1,-1,-1,330,-1,21,-1,33,-1,-1,,9999,0,0,2,FEW 35   BKN 50,1,8,-1,3,1005,RJBD 090600Z 33021G33KT 9999 FEW035 BKN050 08/M03 Q1005 RMK     1CU035 6SC050 A2970=,
20180109_070000.002,0,RJBD,,,,0,20180109070000,-1,-1,-1,-1,330,-1,22,-1,35,-1,-1,,9999,0,0,2,FEW 35   SCT 50,1,8,-1,4,1007,RJBD 090700Z 33022G35KT 9999 FEW035 SCT050 08/M04 Q1007 RMK     1CU035 4SC050 A2974=,
20180109_080000.002,0,RJBD,,,,0,20180109080000,-1,-1,-1,-1,330,-1,18,-1,28,-1,-1,,9999,0,0,2,FEW 30   SCT 40,1,6,-1,2,1008,RJBD 090800Z 33018G28KT 9999 FEW030 SCT040 06/M02 Q1008 RMK     1CU030 3CU040 A2977=,
20180109_090000.002,0,RJBD,,,,0,20180109090000,-1,-1,-1,-1,340,-1,14,-1,-1,-1,-1,,9999,0,0,2,FEW 30   SCT 40,1,6,-1,0,1009,RJBD 090900Z 34014KT 9999 FEW030 SCT040 06/M00 Q1009 RMK     1CU030 3CU040 A2982=,
20180109_100000.002,0,RJBD,,,,0,20180109100000,-1,-1,-1,-1,340,-1,15,-1,-1,-1,-1,,9999,0,0,3,FEW 25   SCT 35   BKN -9999,1,5,-1,1,1010,RJBD 091000Z 34015KT 9999 FEW025 SCT035 BKN/// 05/M01 Q1010     RMK 1CU025 3CU035 A2985=,
20180109_230000.002,0,RJBD,,,,0,20180109230000,-1,-1,-1,-1,50,-1,3,-1,-1,10,90,,9999,0,0,2,FEW 35   SCT 60,1,5,-1,4,1013,RJBD 092300Z 05003KT 010V090 9999 FEW035 SCT060 05/M04 Q1013     RMK 1CU035 3SC060 A2994=,
20180110_000000.002,0,RJBD,,,,0,20180110000000,-1,-1,-1,-1,110,-1,4,-1,-1,70,190,,9999,0,0,2,FEW 35   SCT 50,1,6,-1,3,1014,RJBD 100000Z 11004KT 070V190 9999 FEW035 SCT050 06/M03 Q1014     RMK 2CU035 4SC050 A2994=,
20180110_010000.002,0,RJBD,,,,0,20180110010000,-1,-1,-1,-1,999,-1,3,-1,-1,-1,-1,,9999,0,0,3,FEW 30   SCT 45   BKN 60,1,7,-1,2,1013,RJBD 100100Z VRB03KT 9999 FEW030 SCT045 BKN060 07/M02 Q1013     RMK 1CU030 3CU045 5SC060 A2992=,
20180110_020000.002,0,RJBD,,,,0,20180110020000,-1,-1,-1,-1,270,-1,8,-1,-1,210,310,,9999,0,0,2,FEW 30   SCT 40,1,10,-1,0,1012,RJBD 100200Z 27008KT 210V310 9999 FEW030 SCT040 10/M00 Q1012     RMK 1CU030 3CU040 A2989=,
20180110_030000.002,0,RJBD,,,,0,20180110030000,-1,-1,-1,-1,270,-1,15,-1,-1,230,310,,9999,0,0,2,FEW 30   SCT 40,1,10,1,0,1011,RJBD 100300Z 27015KT 230V310 9999 FEW030 SCT040 10/00 Q1011     RMK 1CU030 3CU040 A2985=,
20180110_040000.003,0,RJBD,,,,0,20180110040000,-1,-1,-1,-1,280,-1,10,-1,-1,210,320,,9999,0,0,2,FEW 30   SCT 40,1,10,1,1,1010,RJBD 100400Z 28010KT 210V320 9999 FEW030 SCT040 10/01 Q1010     RMK 1CU030 3CU040 A2982=,
20180110_050000.002,0,RJBD,,,,0,20180110050000,-1,-1,-1,-1,270,-1,10,-1,-1,200,310,,9999,0,0,2,FEW 30   SCT 40,1,10,1,0,1009,RJBD 100500Z 27010KT 200V310 9999 FEW030 SCT040 10/00 Q1009     RMK 1CU030 3CU040 A2982=,
20180110_060000.002,0,RJBD,,,,0,20180110060000,-1,-1,-1,-1,270,-1,10,-1,21,230,320,,9999,0,0,2,FEW 30   SCT 40,1,10,-1,1,1009,RJBD 100600Z 27010G21KT 230V320 9999 FEW030 SCT040 10/M01     Q1009 RMK 1CU030 3CU040 A2981=,
20180110_070000.002,0,RJBD,,,,0,20180110070000,-1,-1,-1,-1,300,-1,8,-1,-1,-1,-1,,9999,0,0,2,FEW 30   SCT 40,1,10,1,1,1009,RJBD 100700Z 30008KT 9999 FEW030 SCT040 10/01 Q1009 RMK 1CU030     3CU040 A2982=,
20180110_080000.002,0,RJBD,,,,0,20180110080000,-1,-1,-1,-1,330,-1,17,-1,-1,-1,-1,,9999,0,0,2,FEW 30   SCT 60,1,7,1,1,1010,RJBD 100800Z 33017KT 9999 FEW030 SCT060 07/01 Q1010 RMK 1CU030     3SC060 A2985=,
20180110_090000.002,0,RJBD,,,,0,20180110090000,-1,-1,-1,-1,340,-1,14,-1,-1,-1,-1,,9999,0,0,2,FEW 40   SCT 60,1,7,-1,1,1011,RJBD 100900Z 34014KT 9999 FEW040 SCT060 07/M01 Q1011 RMK     1CU040 3SC060 A2987=,
20180110_100000.002,0,RJBD,,,,0,20180110100000,-1,-1,-1,-1,330,-1,15,-1,25,290,360,,9999,0,0,2,FEW 40   SCT 50,1,7,-1,0,1011,RJBD 101000Z 33015G25KT 290V360 9999 FEW040 SCT050 07/M00     Q1011 RMK 1CU040 4SC050 A2987=,
20180110_230000.003,0,RJBD,,,,0,20180110230000,-1,-1,-1,-1,360,-1,12,-1,-1,-1,-1,,9999,0,0,2,FEW 20   BKN 50,1,2,-1,3,1018,RJBD 102300Z 36012KT 9999 FEW020 BKN050 02/M03 Q1018 RMK     2CU020 5SC050 A3008=,
20180111_000000.002,0,RJBD,,,,0,20180111000000,-1,-1,-1,-1,350,-1,12,-1,-1,310,20,,9999,0,0,2,FEW 20   SCT 50,1,2,-1,4,1019,RJBD 110000Z 35012KT 310V020 9999 FEW020 SCT050 02/M04 Q1019     RMK 1CU020 3SC050 A3010=,
20180111_010000.002,0,RJBD,,,,0,20180111010000,-1,-1,-1,-1,330,-1,13,-1,-1,290,360,,9999,0,0,2,FEW 25   SCT 40,1,4,-1,5,1019,RJBD 110100Z 33013KT 290V360 9999 FEW025 SCT040 04/M05 Q1019     RMK 1CU025 4CU040 A3011=,
20180111_020000.002,0,RJBD,,,,0,20180111020000,-1,-1,-1,-1,340,-1,15,-1,-1,-1,-1,,9999,0,0,2,FEW 30   SCT 45,1,4,-1,5,1019,RJBD 110200Z 34015KT 9999 FEW030 SCT045 04/M05 Q1019 RMK     1CU030 3CU045 A3010=,
20180111_030000.001,0,RJBD,,,,0,20180111030000,-1,-1,-1,-1,320,-1,14,-1,-1,300,360,,9999,0,0,1,FEW 30,1,5,-1,6,1018,RJBD 110300Z 32014KT 300V360 9999 FEW030 05/M06 Q1018 RMK     1CU030 A3008=,
20180111_040000.002,0,RJBD,,,,0,20180111040000,-1,-1,-1,-1,330,-1,13,-1,-1,-1,-1,,9999,0,0,1,FEW 35,1,5,-1,7,1018,RJBD 110400Z 33013KT 9999 FEW035 05/M07 Q1018 RMK 1CU035     A3006=,
20180111_050000.002,0,RJBD,,,,0,20180111050000,-1,-1,-1,-1,330,-1,14,-1,-1,-1,-1,,9999,0,0,2,FEW 35   SCT 45,1,5,-1,7,1018,RJBD 110500Z 33014KT 9999 FEW035 SCT045 05/M07 Q1018 RMK     1CU035 3CU045 A3007=,
20180111_060000.002,0,RJBD,,,,0,20180111060000,-1,-1,-1,-1,330,-1,14,-1,-1,-1,-1,,9999,0,0,1,FEW 45,1,4,-1,6,1017,RJBD 110600Z 33014KT 9999 FEW045 04/M06 Q1017 RMK 2CU045     A3006=,
20180111_070000.002,0,RJBD,,,,0,20180111070000,-1,-1,-1,-1,340,-1,13,-1,-1,300,360,,9999,0,0,1,FEW 40,1,4,-1,6,1017,RJBD 110700Z 34013KT 300V360 9999 FEW040 04/M06 Q1017 RMK     1CU040 A3005=,
20180111_080000.002,0,RJBD,,,,0,20180111080000,-1,-1,-1,-1,340,-1,11,-1,-1,-1,-1,,9999,0,0,2,FEW 35   BKN 60,1,3,-1,5,1018,RJBD 110800Z 34011KT 9999 FEW035 BKN060 03/M05 Q1018 RMK     1CU035 5SC060 A3008=,
20180111_090000.002,0,RJBD,,,,0,20180111090000,-1,-1,-1,-1,340,-1,13,-1,25,-1,-1,,9999,0,1,2,FEW 35   BKN 50,1,2,-1,5,1019,RJBD 110900Z 34013G25KT 9999 VCSH FEW035 BKN050 02/M05 Q1019     RMK 1CU035 7SC050 A3012=,VC SH
20180111_100000.002,0,RJBD,,,,0,20180111100000,-1,-1,-1,-1,350,-1,11,-1,-1,-1,-1,,9999,0,1,3,FEW 35   SCT 50   BKN 70,1,2,-1,5,1020,RJBD 111000Z 35011KT 9999 VCSH FEW035 SCT050 BKN070 02/M05     Q1020 RMK 1CU035 3SC050 6AC070 A3013=,VC SH
20180111_230000.002,0,RJBD,,,,0,20180111230000,-1,-1,-1,-1,340,-1,13,-1,-1,-1,-1,,9999,0,0,2,FEW 30   SCT 35,1,1,-1,7,1023,RJBD 112300Z 34013KT 9999 FEW030 SCT035 01/M07 Q1023 RMK     1CU030 3CU035 A3023=,
20180112_000000.002,0,RJBD,,,,0,20180112000000,-1,-1,-1,-1,330,-1,12,-1,-1,300,10,,9999,0,0,2,FEW 30   SCT 35,1,2,-1,7,1024,RJBD 120000Z 33012KT 300V010 9999 FEW030 SCT035 02/M07 Q1024     RMK 1CU030 3CU035 A3025=,
20180112_010000.003,0,RJBD,,,,0,20180112010000,-1,-1,-1,-1,330,-1,17,-1,-1,-1,-1,,9999,0,0,2,FEW 30   SCT 40,1,3,-1,8,1024,RJBD 120100Z 33017KT 9999 FEW030 SCT040 03/M08 Q1024 RMK     1CU030 3CU040 A3025=,
20180112_020000.002,0,RJBD,,,,0,20180112020000,-1,-1,-1,-1,330,-1,14,-1,25,290,360,,9999,0,0,2,FEW 30   SCT 35,1,3,-1,6,1023,RJBD 120200Z 33014G25KT 290V360 9999 FEW030 SCT035 03/M06     Q1023 RMK 1CU030 4CU035 A3023=,
20180112_030000.002,0,RJBD,,,,0,20180112030000,-1,-1,-1,-1,320,-1,13,-1,-1,270,350,,9999,0,0,2,FEW 30   SCT 40,1,4,-1,7,1023,RJBD 120300Z 32013KT 270V350 9999 FEW030 SCT040 04/M07 Q1023     RMK 1CU030 4CU040 A3021=,
20180112_040000.002,0,RJBD,,,,0,20180112040000,-1,-1,-1,-1,310,-1,14,-1,-1,280,350,,9999,0,1,2,FEW 30   BKN 45,1,4,-1,6,1022,RJBD 120400Z 31014KT 280V350 9999 VCSH FEW030 BKN045 04/M06     Q1022 RMK 1CU030 5CU045 A3019=,VC SH
20180112_050000.003,0,RJBD,,,,0,20180112050000,-1,-1,-1,-1,320,-1,15,-1,-1,-1,-1,,9999,0,1,2,FEW 30   SCT 50,1,4,-1,9,1022,RJBD 120500Z 32015KT 9999 VCSH FEW030 SCT050 04/M09 Q1022 RMK     1CU030 3SC050 A3019=,VC SH
20180112_060000.002,0,RJBD,,,,0,20180112060000,-1,-1,-1,-1,330,-1,14,-1,-1,-1,-1,,9999,0,0,2,FEW 30   SCT 50,1,4,-1,8,1022,RJBD 120600Z 33014KT 9999 FEW030 SCT050 04/M08 Q1022 RMK     1CU030 3SC050 A3020=,
20180112_070000.003,0,RJBD,,,,0,20180112070000,-1,-1,-1,-1,330,-1,12,-1,-1,-1,-1,,9999,0,0,2,FEW 30   SCT 40,1,3,-1,8,1022,RJBD 120700Z 33012KT 9999 FEW030 SCT040 03/M08 Q1022 RMK     1CU030 3CU040 A3020=,
20180112_080000.002,0,RJBD,,,,0,20180112080000,-1,-1,-1,-1,330,-1,12,-1,-1,-1,-1,,9999,0,0,1,FEW 40,1,2,-1,7,1023,RJBD 120800Z 33012KT 9999 FEW040 02/M07 Q1023 RMK 2CU040     A3022=,
20180112_090000.002,0,RJBD,,,,0,20180112090000,-1,-1,-1,-1,350,-1,9,-1,-1,-1,-1,,9999,0,0,1,FEW 40,1,2,-1,7,1024,RJBD 120900Z 35009KT 9999 FEW040 02/M07 Q1024 RMK 2CU040     A3024=,
20180112_100000.002,0,RJBD,,,,0,20180112100000,-1,-1,-1,-1,360,-1,7,-1,-1,320,40,,9999,0,0,1,FEW 45,1,1,-1,8,1024,RJBD 121000Z 36007KT 320V040 9999 FEW045 01/M08 Q1024 RMK     2CU045 A3025=,
20180112_230000.002,0,RJBD,,,,0,20180112230000,-1,-1,-1,-1,360,-1,9,-1,-1,-1,-1,,9999,0,0,2,FEW 30   SCT 45,1,1,-1,6,1025,RJBD 122300Z 36009KT 9999 FEW030 SCT045 01/M06 Q1025 RMK     1CU030 3CU045 A3029=,
20180113_000000.002,0,RJBD,,,,0,20180113000000,-1,-1,-1,-1,350,-1,10,-1,-1,320,20,,9999,0,0,3,FEW 25   SCT 30   BKN 45,1,3,-1,4,1026,RJBD 130000Z 35010KT 320V020 9999 FEW025 SCT030 BKN045 03/M04     Q1026 RMK 1CU025 4CU030 5CU045 A3031=,
20180113_010000.003,0,RJBD,,,,0,20180113010000,-1,-1,-1,-1,350,-1,8,-1,-1,330,40,,9999,0,0,3,FEW 25   SCT 30   BKN 40,1,3,-1,4,1026,RJBD 130100Z 35008KT 330V040 9999 FEW025 SCT030 BKN040 03/M04     Q1026 RMK 1CU025 3CU030 5CU040 A3032=,
20180113_020000.002,0,RJBD,,,,0,20180113020000,-1,-1,-1,-1,330,-1,13,-1,-1,-1,-1,,9999,0,0,2,FEW 30   SCT 40,1,5,-1,5,1026,RJBD 130200Z 33013KT 9999 FEW030 SCT040 05/M05 Q1026 RMK     1CU030 4CU040 A3031=,
20180113_030000.002,0,RJBD,,,,0,20180113030000,-1,-1,-1,-1,320,-1,16,-1,-1,-1,-1,,9999,0,0,2,FEW 25   SCT 40,1,6,-1,4,1025,RJBD 130300Z 32016KT 9999 FEW025 SCT040 06/M04 Q1025 RMK     1CU025 4CU040 A3029=,
20180113_040000.002,0,RJBD,,,,0,20180113040000,-1,-1,-1,-1,340,-1,14,-1,-1,300,10,,9999,0,0,3,FEW 25   SCT 35   BKN 50,1,4,-1,4,1025,RJBD 130400Z 34014KT 300V010 9999 FEW025 SCT035 BKN050 04/M04     Q1025 RMK 1CU025 4CU035 5SC050 A3027=,
20180113_050000.002,0,RJBD,,,,0,20180113050000,-1,-1,-1,-1,340,-1,16,-1,-1,-1,-1,,9999,0,1,3,FEW 25   SCT 35   BKN 50,1,5,-1,3,1025,RJBD 130500Z 34016KT 9999 VCSH FEW025 SCT035 BKN050 05/M03     Q1025 RMK 1CU025 4CU035 5SC050 A3027=,VC SH
20180113_060000.002,0,RJBD,,,,0,20180113060000,-1,-1,-1,-1,330,-1,13,-1,23,-1,-1,,9999,0,1,3,FEW 25   SCT 35   BKN 50,1,6,-1,3,1025,RJBD 130600Z 33013G23KT 9999 VCSH FEW025 SCT035 BKN050 06/M03     Q1025 RMK 1CU025 4CU035 5SC050 A3028=,VC SH
20180113_070000.002,0,RJBD,,,,0,20180113070000,-1,-1,-1,-1,330,-1,13,-1,-1,290,360,,9999,0,1,3,FEW 25   SCT 35   BKN 50,1,5,-1,3,1025,RJBD 130700Z 33013KT 290V360 9999 VCSH FEW025 SCT035 BKN050     05/M03 Q1025 RMK 1CU025 4CU035 5SC050 A3028=,VC SH
20180113_080000.002,0,RJBD,,,,0,20180113080000,-1,-1,-1,-1,340,-1,17,-1,-1,-1,-1,,9999,0,1,3,FEW 25   SCT 40   BKN 60,1,5,-1,4,1025,RJBD 130800Z 34017KT 9999 VCSH FEW025 SCT040 BKN060 05/M04     Q1025 RMK 1CU025 3CU040 5SC060 A3029=,VC SH
20180113_090000.002,0,RJBD,,,,0,20180113090000,-1,-1,-1,-1,320,-1,16,-1,26,280,340,,9999,0,0,2,FEW 35   SCT 50,1,5,-1,3,1026,RJBD 130900Z 32016G26KT 280V340 9999 FEW035 SCT050 05/M03     Q1026 RMK 2CU035 4SC050 A3030=,
20180113_100000.002,0,RJBD,,,,0,20180113100000,-1,-1,-1,-1,330,-1,16,-1,-1,290,350,,9999,0,0,2,FEW 35   SCT 50,1,5,-1,3,1026,RJBD 131000Z 33016KT 290V350 9999 FEW035 SCT050 05/M03 Q1026     RMK 2CU035 4SC050 A3032=,
20180113_230000.002,0,RJBD,,,,0,20180113230000,-1,-1,-1,-1,999,-1,2,-1,-1,-1,-1,,9999,0,0,2,FEW 20   BKN -9999,1,1,-1,4,1029,RJBD 132300Z VRB02KT 9999 FEW020 BKN/// 01/M04 Q1029 RMK     1CU020 A3041=,
20180114_000000.003,0,RJBD,,,,0,20180114000000,-1,-1,-1,-1,999,-1,2,-1,-1,-1,-1,,9999,0,0,2,FEW 20   BKN -9999,1,3,-1,4,1031,RJBD 140000Z VRB02KT 9999 FEW020 BKN/// 03/M04 Q1031 RMK     1CU020 A3045=,
20180114_010000.002,0,RJBD,,,,0,20180114010000,-1,-1,-1,-1,360,-1,5,-1,-1,320,40,,9999,0,0,2,FEW 20   BKN -9999,1,4,-1,3,1032,RJBD 140100Z 36005KT 320V040 9999 FEW020 BKN/// 04/M03 Q1032     RMK 1CU020 A3048=,
20180114_020000.002,0,RJBD,,,,0,20180114020000,-1,-1,-1,-1,20,-1,4,-1,-1,340,70,,9999,0,0,2,FEW 30   BKN -9999,1,5,-1,5,1031,RJBD 140200Z 02004KT 340V070 9999 FEW030 BKN/// 05/M05 Q1031     RMK 1CU030 A3046=,
20180114_030000.002,0,RJBD,,,,0,20180114030000,-1,-1,-1,-1,280,-1,3,-1,-1,210,360,,9999,0,0,2,FEW 35   BKN -9999,1,6,-1,6,1030,RJBD 140300Z 28003KT 210V360 9999 FEW035 BKN/// 06/M06 Q1030     RMK 1CU035 A3044=,
20180114_040000.002,0,RJBD,,,,0,20180114040000,-1,-1,-1,-1,290,-1,6,-1,-1,260,330,,9999,0,0,2,FEW 35   SCT -9999,1,6,-1,5,1029,RJBD 140400Z 29006KT 260V330 9999 FEW035 SCT/// 06/M05 Q1029     RMK 1CU035 A3039=,
20180114_050000.002,0,RJBD,,,,0,20180114050000,-1,-1,-1,-1,300,-1,6,-1,-1,270,340,,9999,0,0,2,FEW 35   BKN -9999,1,7,-1,4,1028,RJBD 140500Z 30006KT 270V340 9999 FEW035 BKN/// 07/M04 Q1028     RMK 1CU035 A3038=,
20180114_060000.003,0,RJBD,,,,0,20180114060000,-1,-1,-1,-1,290,-1,8,-1,-1,270,340,,9999,0,0,2,FEW 35   BKN -9999,1,8,-1,3,1027,RJBD 140600Z 29008KT 270V340 9999 FEW035 BKN/// 08/M03 Q1027     RMK 1CU035 A3035=,
20180114_070000.002,0,RJBD,,,,0,20180114070000,-1,-1,-1,-1,310,-1,8,-1,-1,280,350,,9999,0,0,2,FEW 35   BKN -9999,1,7,-1,2,1027,RJBD 140700Z 31008KT 280V350 9999 FEW035 BKN/// 07/M02 Q1027     RMK 1CU035 A3035=,
20180114_080000.002,0,RJBD,,,,0,20180114080000,-1,-1,-1,-1,330,-1,10,-1,-1,-1,-1,,9999,0,0,2,FEW 35   BKN -9999,1,6,-1,3,1027,RJBD 140800Z 33010KT 9999 FEW035 BKN/// 06/M03 Q1027 RMK     1CU035 A3035=,
20180114_090000.002,0,RJBD,,,,0,20180114090000,-1,-1,-1,-1,330,-1,6,-1,-1,-1,-1,,9999,0,0,2,FEW 35   BKN -9999,1,5,-1,3,1028,RJBD 140900Z 33006KT 9999 FEW035 BKN/// 05/M03 Q1028 RMK     1CU035 A3036=,
20180114_100000.002,0,RJBD,,,,0,20180114100000,-1,-1,-1,-1,20,-1,4,-1,-1,-1,-1,,9999,0,0,2,FEW 35   BKN 180,1,4,-1,3,1028,RJBD 141000Z 02004KT 9999 FEW035 BKN180 04/M03 Q1028 RMK     1CU035 5AC180 A3037=,
20180114_230000.002,0,RJBD,,,,0,20180114230000,-1,-1,-1,-1,999,-1,1,-1,-1,-1,-1,,9999,0,0,2,FEW 30   SCT 40,1,6,-1,0,1028,RJBD 142300Z VRB01KT 9999 FEW030 SCT040 06/M00 Q1028 RMK     1CU030 4CU040 A3036=,
20180115_000000.002,0,RJBD,,,,0,20180115000000,-1,-1,-1,-1,110,-1,4,-1,-1,-1,-1,,9999,0,0,2,FEW 20   SCT 35,1,9,1,1,1027,RJBD 150000Z 11004KT 9999 FEW020 SCT035 09/01 Q1027 RMK 1CU020     3CU035 A3035=,
20180115_010000.002,0,RJBD,,,,0,20180115010000,-1,-1,-1,-1,110,-1,4,-1,-1,60,170,,9999,0,0,2,FEW 30   SCT 40,1,10,1,2,1028,RJBD 150100Z 11004KT 060V170 9999 FEW030 SCT040 10/02 Q1028     RMK 1CU030 3CU040 A3036=,
20180115_020000.002,0,RJBD,,,,0,20180115020000,-1,-1,-1,-1,160,-1,5,-1,-1,130,200,,9999,0,0,2,FEW 30   SCT 50,1,11,1,3,1027,RJBD 150200Z 16005KT 130V200 9999 FEW030 SCT050 11/03 Q1027     RMK 1CU030 3SC050 A3035=,
20180115_030000.002,0,RJBD,,,,0,20180115030000,-1,-1,-1,-1,999,-1,3,-1,-1,-1,-1,,9999,0,0,1,FEW 35,1,11,1,3,1026,RJBD 150300Z VRB03KT 9999 FEW035 11/03 Q1026 RMK 1CU035 A3031=,
20180115_040000.002,0,RJBD,,,,0,20180115040000,-1,-1,-1,-1,190,-1,6,-1,-1,150,240,,9999,0,0,1,FEW 35,1,12,1,3,1025,RJBD 150400Z 19006KT 150V240 9999 FEW035 12/03 Q1025 RMK     1CU035 A3027=,
20180115_050000.002,0,RJBD,,,,0,20180115050000,-1,-1,-1,-1,180,-1,6,-1,-1,130,260,,9999,0,0,1,FEW 35,1,11,1,3,1023,RJBD 150500Z 18006KT 130V260 9999 FEW035 11/03 Q1023 RMK     1CU035 A3022=,
20180115_060000.002,0,RJBD,,,,0,20180115060000,-1,-1,-1,-1,160,-1,5,-1,-1,100,220,,9999,0,0,1,FEW 35,1,11,1,3,1023,RJBD 150600Z 16005KT 100V220 9999 FEW035 11/03 Q1023 RMK     1CU035 A3022=,
20180115_070000.003,0,RJBD,,,,0,20180115070000,-1,-1,-1,-1,999,-1,2,-1,-1,-1,-1,,9999,0,0,1,FEW 35,1,11,1,4,1023,RJBD 150700Z VRB02KT 9999 FEW035 11/04 Q1023 RMK 1CU035 A3023=,
20180115_080000.002,0,RJBD,,,,0,20180115080000,-1,-1,-1,-1,30,-1,2,-1,-1,-1,-1,,9999,0,0,2,FEW 35   BKN 80,1,11,1,4,1024,RJBD 150800Z 03002KT 9999 FEW035 BKN080 11/04 Q1024 RMK 1CU035     5AC080 A3024=,
20180115_090000.002,0,RJBD,,,,0,20180115090000,-1,-1,-1,-1,50,-1,3,-1,-1,10,90,,9999,0,0,2,FEW 35   SCT 70,1,10,1,4,1024,RJBD 150900Z 05003KT 010V090 9999 FEW035 SCT070 10/04 Q1024     RMK 1CU035 3AC070 A3025=,
20180115_100000.002,0,RJBD,,,,0,20180115100000,-1,-1,-1,-1,999,-1,1,-1,-1,-1,-1,,9999,0,0,2,FEW 35   SCT 60,1,9,1,5,1024,RJBD 151000Z VRB01KT 9999 FEW035 SCT060 09/05 Q1024 RMK 1CU035     3SC060 A3026=,
20180115_230000.002,0,RJBD,,,,0,20180115230000,-1,-1,-1,-1,50,-1,6,-1,-1,-1,-1,,9999,0,0,2,FEW 40   SCT 50,1,8,1,4,1023,RJBD 152300Z 05006KT 9999 FEW040 SCT050 08/04 Q1023 RMK 1CU040     3SC050 A3023=,
20180116_000000.002,0,RJBD,,,,0,20180116000000,-1,-1,-1,-1,999,-1,3,-1,-1,-1,-1,,9999,0,0,2,FEW 40   SCT 60,1,10,1,6,1023,RJBD 160000Z VRB03KT 9999 FEW040 SCT060 10/06 Q1023 RMK 2CU040     3SC060 A3023=,
20180116_010000.002,0,RJBD,,,,0,20180116010000,-1,-1,-1,-1,90,-1,3,-1,-1,50,120,,9999,0,0,3,FEW 30   SCT 35   BKN 70,1,12,1,6,1023,RJBD 160100Z 09003KT 050V120 9999 FEW030 SCT035 BKN070 12/06     Q1023 RMK 1CU030 4CU035 6AC070 A3023=,
20180116_020000.002,0,RJBD,,,,0,20180116020000,-1,-1,-1,-1,999,-1,1,-1,-1,-1,-1,,9999,0,0,3,FEW 30   SCT 35   BKN 70,1,14,1,6,1023,RJBD 160200Z VRB01KT 9999 FEW030 SCT035 BKN070 14/06 Q1023 RMK     1CU030 3CU035 5AC070 A3021=,
20180116_030000.002,0,RJBD,,,,0,20180116030000,-1,-1,-1,-1,999,-1,3,-1,-1,-1,-1,,9999,0,0,2,FEW 30   SCT 35,1,16,1,8,1021,RJBD 160300Z VRB03KT 9999 FEW030 SCT035 16/08 Q1021 RMK 1CU030     3CU035 A3017=,
20180116_040000.002,0,RJBD,,,,0,20180116040000,-1,-1,-1,-1,280,-1,4,-1,-1,180,350,,9999,0,0,1,FEW 30,1,16,1,8,1020,RJBD 160400Z 28004KT 180V350 9999 FEW030 16/08 Q1020 RMK     1CU030 A3014=,
20180116_050000.002,0,RJBD,,,,0,20180116050000,-1,-1,-1,-1,190,-1,4,-1,-1,160,250,,9999,0,0,1,FEW 30,1,15,1,8,1019,RJBD 160500Z 19004KT 160V250 9999 FEW030 15/08 Q1019 RMK     1CU030 A3011=,
20180116_060000.002,0,RJBD,,,,0,20180116060000,-1,-1,-1,-1,160,-1,9,-1,-1,-1,-1,,9999,0,0,1,FEW 30,1,14,1,8,1019,RJBD 160600Z 16009KT 9999 FEW030 14/08 Q1019 RMK 1CU030 A3010=,
20180116_070000.002,0,RJBD,,,,0,20180116070000,-1,-1,-1,-1,170,-1,8,-1,-1,130,200,,9999,0,0,1,FEW 35,1,14,1,9,1019,RJBD 160700Z 17008KT 130V200 9999 FEW035 14/09 Q1019 RMK     1CU035 A3009=,
20180116_080000.002,0,RJBD,,,,0,20180116080000,-1,-1,-1,-1,150,-1,6,-1,-1,-1,-1,,9999,0,0,1,FEW 35,1,13,1,8,1019,RJBD 160800Z 15006KT 9999 FEW035 13/08 Q1019 RMK 1CU035 A3010=,
20180116_090000.002,0,RJBD,,,,0,20180116090000,-1,-1,-1,-1,130,-1,3,-1,-1,-1,-1,,9999,0,0,1,FEW 35,1,12,1,8,1018,RJBD 160900Z 13003KT 9999 FEW035 12/08 Q1018 RMK 1CU035 A3007=,
20180116_100000.002,0,RJBD,,,,0,20180116100000,-1,-1,-1,-1,170,-1,4,-1,-1,-1,-1,,9999,0,0,2,FEW 30   SCT 40,1,13,1,8,1018,RJBD 161000Z 17004KT 9999 FEW030 SCT040 13/08 Q1018 RMK 1CU030     3CU040 A3008=,
20180116_230000.002,0,RJBD,,,,0,20180116230000,-1,-1,-1,-1,150,-1,14,-1,-1,-1,-1,,5000,0,2,3,FEW 8   SCT 20   BKN 30,1,15,1,14,1013,RJBD 162300Z 15014KT 5000 -SHRA BR FEW008 SCT020 BKN030 15/14     Q1013 RMK 1ST008 4CU020 6CU030 A2992=,- RA SH; BR
20180117_000000.002,0,RJBD,,,,0,20180117000000,-1,-1,-1,-1,150,-1,13,-1,-1,-1,-1,,5000,0,2,3,FEW 8   SCT 30   BKN 40,1,15,1,14,1013,RJBD 170000Z 15013KT 5000 -SHRA BR FEW008 SCT030 BKN040 15/14     Q1013 RMK 1ST008 4CU030 6CU040 A2992=,- RA SH; BR
20180117_010000.002,0,RJBD,,,,0,20180117010000,-1,-1,-1,-1,190,-1,8,-1,-1,140,310,,1600,0,2,3,FEW 1   BKN 3   BKN 20,1,15,1,15,1013,RJBD 170100Z 19008KT 140V310 1600 SHRA BR FEW001 BKN003 BKN020     15/15 Q1013 RMK 2ST001 5ST003 6CU020 A2992=,RA SH; BR
20180117_020000.004,0,RJBD,,,,0,20180117020000,-1,-1,-1,-1,170,-1,6,-1,-1,140,220,,4000,0,2,3,FEW 4   SCT 20   BKN 35,1,16,1,15,1012,RJBD 170200Z 17006KT 140V220 4000 -SHRA BR FEW004 SCT020     BKN035 16/15 Q1012 RMK 1ST004 4CU020 6CU035 A2989=,- RA SH; BR
20180117_030000.002,0,RJBD,,,,0,20180117030000,-1,-1,-1,-1,190,-1,5,-1,-1,120,220,,3000,0,2,3,FEW 1   BKN 3   BKN 15,1,15,1,15,1011,RJBD 170300Z 19005KT 120V220 3000 -SHRA BR FEW001 BKN003     BKN015 15/15 Q1011 RMK 1ST001 5ST003 6CU015 A2986=,- RA SH; BR
20180117_040000.003,0,RJBD,,,,0,20180117040000,-1,-1,-1,-1,170,-1,8,-1,-1,-1,-1,,9999,0,1,3,FEW 6   SCT 40   BKN 60,1,15,1,14,1009,RJBD 170400Z 17008KT 9999 -SHRA FEW006 SCT040 BKN060 15/14     Q1009 RMK 1ST006 4CU040 6SC060 A2981=,- RA SH
20180117_050000.003,0,RJBD,,,,0,20180117050000,-1,-1,-1,-1,160,-1,8,-1,-1,-1,-1,,6000,0,1,3,FEW 2   SCT 6   BKN 60,1,14,1,14,1009,RJBD 170500Z 16008KT 6000 -SHRA FEW002 SCT006 BKN060 14/14     Q1009 RMK 1ST002 4ST006 6SC060 A2982=,- RA SH
20180117_060000.002,0,RJBD,,,,0,20180117060000,-1,-1,-1,-1,160,-1,4,-1,-1,110,190,,9999,0,0,3,FEW 6   SCT 10   BKN 60,1,15,1,14,1010,RJBD 170600Z 16004KT 110V190 9999 FEW006 SCT010 BKN060 15/14     Q1010 RMK 1ST006 3CU010 5SC060 A2983=,
20180117_070000.002,0,RJBD,,,,0,20180117070000,-1,-1,-1,-1,999,-1,1,-1,-1,-1,-1,,9999,0,0,3,FEW 8   SCT 15   BKN 45,1,15,1,13,1009,RJBD 170700Z VRB01KT 9999 FEW008 SCT015 BKN045 15/13 Q1009 RMK     1ST008 3CU015 5CU045 A2982=,
20180117_080000.002,0,RJBD,,,,0,20180117080000,-1,-1,-1,-1,999,-1,1,-1,-1,-1,-1,,9999,0,0,3,FEW 8   SCT 30   BKN 45,1,14,1,14,1009,RJBD 170800Z VRB01KT 9999 FEW008 SCT030 BKN045 14/14 Q1009 RMK     1ST008 3CU030 5CU045 A2981=,
20180117_090000.003,0,RJBD,,,,0,20180117090000,-1,-1,-1,-1,0,-1,0,-1,-1,-1,-1,,9999,0,0,3,FEW 15   SCT 35   BKN 100,1,14,1,13,1009,RJBD 170900Z 00000KT 9999 FEW015 SCT035 BKN100 14/13 Q1009 RMK     1CU015 3CU035 5AC100 A2980=,
20180117_100000.002,0,RJBD,,,,0,20180117100000,-1,-1,-1,-1,300,-1,6,-1,-1,270,330,,9999,0,1,3,FEW 8   SCT 10   BKN 20,1,15,1,14,1010,RJBD 171000Z 30006KT 270V330 9999 VCSH FEW008 SCT010 BKN020     15/14 Q1010 RMK 1ST008 3CU010 5CU020 A2983=,VC SH
20180117_230000.002,0,RJBD,,,,0,20180117230000,-1,-1,-1,-1,320,-1,14,-1,-1,-1,-1,,9999,0,0,1,FEW 20,1,9,1,6,1015,RJBD 172300Z 32014KT 9999 FEW020 09/06 Q1015 RMK 1CU020 A3000=,
20180118_000000.002,0,RJBD,,,,0,20180118000000,-1,-1,-1,-1,320,-1,14,-1,-1,-1,-1,,9999,0,0,1,FEW 20,1,10,1,7,1017,RJBD 180000Z 32014KT 9999 FEW020 10/07 Q1017 RMK 1CU020 A3003=,
20180118_010000.002,0,RJBD,,,,0,20180118010000,-1,-1,-1,-1,320,-1,14,-1,-1,-1,-1,,9999,0,0,1,FEW 25,1,12,1,6,1018,RJBD 180100Z 32014KT 9999 FEW025 12/06 Q1018 RMK 1CU025 A3008=,
20180118_020000.002,0,RJBD,,,,0,20180118020000,-1,-1,-1,-1,330,-1,17,-1,-1,-1,-1,,9999,0,0,1,FEW 30,1,12,1,6,1018,RJBD 180200Z 33017KT 9999 FEW030 12/06 Q1018 RMK 1CU030 A3006=,
20180118_030000.003,0,RJBD,,,,0,20180118030000,-1,-1,-1,-1,330,-1,16,-1,-1,-1,-1,,9999,0,0,1,FEW 30,1,13,1,5,1017,RJBD 180300Z 33016KT 9999 FEW030 13/05 Q1017 RMK 1CU030 A3005=,
20180118_040000.002,0,RJBD,,,,0,20180118040000,-1,-1,-1,-1,330,-1,15,-1,-1,-1,-1,,9999,0,0,1,FEW 30,1,13,1,4,1016,RJBD 180400Z 33015KT 9999 FEW030 13/04 Q1016 RMK 1CU030 A3003=,
20180118_050000.002,0,RJBD,,,,0,20180118050000,-1,-1,-1,-1,340,-1,16,-1,-1,-1,-1,,9999,0,0,1,FEW 30,1,14,1,4,1016,RJBD 180500Z 34016KT 9999 FEW030 14/04 Q1016 RMK 1CU030 A3001=,
20180118_060000.002,0,RJBD,,,,0,20180118060000,-1,-1,-1,-1,350,-1,16,-1,-1,-1,-1,,9999,0,0,1,FEW 35,1,14,1,4,1016,RJBD 180600Z 35016KT 9999 FEW035 14/04 Q1016 RMK 1CU035 A3000=,
20180118_070000.002,0,RJBD,,,,0,20180118070000,-1,-1,-1,-1,340,-1,15,-1,-1,-1,-1,,9999,0,0,1,FEW 35,1,13,1,3,1016,RJBD 180700Z 34015KT 9999 FEW035 13/03 Q1016 RMK 1CU035 A3002=,
20180118_080000.002,0,RJBD,,,,0,20180118080000,-1,-1,-1,-1,330,-1,14,-1,-1,-1,-1,,9999,0,0,1,FEW 35,1,12,1,4,1017,RJBD 180800Z 33014KT 9999 FEW035 12/04 Q1017 RMK 1CU035 A3005=,
20180118_090000.002,0,RJBD,,,,0,20180118090000,-1,-1,-1,-1,340,-1,16,-1,-1,-1,-1,,9999,0,0,1,FEW 35,1,11,1,4,1018,RJBD 180900Z 34016KT 9999 FEW035 11/04 Q1018 RMK 1CU035 A3006=,
20180118_100000.002,0,RJBD,,,,0,20180118100000,-1,-1,-1,-1,350,-1,11,-1,-1,-1,-1,,9999,0,0,1,FEW 35,1,10,1,5,1018,RJBD 181000Z 35011KT 9999 FEW035 10/05 Q1018 RMK 1CU035 A3007=,
20180118_230000.003,0,RJBD,,,,0,20180118230000,-1,-1,-1,-1,10,-1,5,-1,-1,340,50,,9999,0,0,2,FEW 30   BKN 50,1,8,1,0,1020,RJBD 182300Z 01005KT 340V050 9999 FEW030 BKN050 08/00 Q1020     RMK 1CU030 6SC050 A3013=,
20180119_000000.002,0,RJBD,,,,0,20180119000000,-1,-1,-1,-1,20,-1,3,-1,-1,350,90,,9999,0,0,2,FEW 30   SCT 50,1,9,1,1,1020,RJBD 190000Z 02003KT 350V090 9999 FEW030 SCT050 09/01 Q1020     RMK 1CU030 4SC050 A3014=,
20180119_010000.003,0,RJBD,,,,0,20180119010000,-1,-1,-1,-1,360,-1,5,-1,-1,330,40,,9999,0,0,1,FEW 40,1,11,1,0,1020,RJBD 190100Z 36005KT 330V040 9999 FEW040 11/00 Q1020 RMK     1CU040 A3013=,
20180119_020000.002,0,RJBD,,,,0,20180119020000,-1,-1,-1,-1,340,-1,8,-1,-1,-1,-1,,9999,0,0,1,FEW 35,1,12,1,1,1020,RJBD 190200Z 34008KT 9999 FEW035 12/01 Q1020 RMK 1CU035 A3012=,
20180119_030000.002,0,RJBD,,,,0,20180119030000,-1,-1,-1,-1,330,-1,9,-1,-1,290,360,,9999,0,0,1,FEW 35,1,13,1,1,1018,RJBD 190300Z 33009KT 290V360 9999 FEW035 13/01 Q1018 RMK     1CU035 A3007=,
20180119_040000.002,0,RJBD,,,,0,20180119040000,-1,-1,-1,-1,330,-1,9,-1,-1,290,360,,9999,0,0,2,FEW 35   BKN 50,1,13,1,1,1017,RJBD 190400Z 33009KT 290V360 9999 FEW035 BKN050 13/01 Q1017     RMK 1CU035 5SC050 A3005=,
20180119_050000.003,0,RJBD,,,,0,20180119050000,-1,-1,-1,-1,330,-1,10,-1,-1,300,10,,9999,0,0,2,FEW 35   SCT 50,1,14,1,2,1016,RJBD 190500Z 33010KT 300V010 9999 FEW035 SCT050 14/02 Q1016     RMK 1CU035 3SC050 A3003=,
20180119_060000.002,0,RJBD,,,,0,20180119060000,-1,-1,-1,-1,320,-1,9,-1,-1,-1,-1,,9999,0,0,1,FEW 40,1,13,1,1,1016,RJBD 190600Z 32009KT 9999 FEW040 13/01 Q1016 RMK 1CU040 A3001=,
20180119_070000.002,0,RJBD,,,,0,20180119070000,-1,-1,-1,-1,300,-1,7,-1,-1,-1,-1,,9999,0,0,1,FEW 40,1,12,1,1,1016,RJBD 190700Z 30007KT 9999 FEW040 12/01 Q1016 RMK 1CU040 A3002=,
20180119_080000.002,0,RJBD,,,,0,20180119080000,-1,-1,-1,-1,310,-1,8,-1,-1,-1,-1,,9999,0,0,2,FEW 40   SCT -9999,1,11,1,2,1016,RJBD 190800Z 31008KT 9999 FEW040 SCT/// 11/02 Q1016 RMK 1CU040     A3003=,
20180119_090000.003,0,RJBD,,,,0,20180119090000,-1,-1,-1,-1,340,-1,11,-1,-1,-1,-1,,9999,0,0,2,FEW 30   SCT 40,1,11,1,1,1017,RJBD 190900Z 34011KT 9999 FEW030 SCT040 11/01 Q1017 RMK 1CU030     3CU040 A3005=,
20180119_100000.002,0,RJBD,,,,0,20180119100000,-1,-1,-1,-1,330,-1,6,-1,-1,290,360,,9999,0,0,2,FEW 30   SCT 40,1,10,1,1,1017,RJBD 191000Z 33006KT 290V360 9999 FEW030 SCT040 10/01 Q1017     RMK 1CU030 3CU040 A3005=,
20180119_230000.002,0,RJBD,,,,0,20180119230000,-1,-1,-1,-1,30,-1,4,-1,-1,350,80,CAVOK,-1,0,0,0,,1,7,-1,0,1017,RJBD 192300Z 03004KT 350V080 CAVOK 07/M00 Q1017 RMK A3006=,
20180120_000000.002,0,RJBD,,,,0,20180120000000,-1,-1,-1,-1,360,-1,5,-1,-1,-1,-1,CAVOK,-1,0,0,0,,1,9,1,1,1018,RJBD 200000Z 36005KT CAVOK 09/01 Q1018 RMK A3008=,
20180120_010000.002,0,RJBD,,,,0,20180120010000,-1,-1,-1,-1,360,-1,11,-1,-1,-1,-1,CAVOK,-1,0,0,0,,1,11,1,1,1018,RJBD 200100Z 36011KT CAVOK 11/01 Q1018 RMK A3009=,
20180120_020000.003,0,RJBD,,,,0,20180120020000,-1,-1,-1,-1,340,-1,11,-1,-1,-1,-1,CAVOK,-1,0,0,0,,1,12,1,2,1018,RJBD 200200Z 34011KT CAVOK 12/02 Q1018 RMK A3007=,
20180120_030000.002,0,RJBD,,,,0,20180120030000,-1,-1,-1,-1,320,-1,11,-1,-1,-1,-1,CAVOK,-1,0,0,0,,1,12,1,2,1017,RJBD 200300Z 32011KT CAVOK 12/02 Q1017 RMK A3005=,
20180120_040000.002,0,RJBD,,,,0,20180120040000,-1,-1,-1,-1,320,-1,11,-1,-1,290,350,,9999,0,0,2,FEW 40   SCT -9999,1,13,1,2,1017,RJBD 200400Z 32011KT 290V350 9999 FEW040 SCT/// 13/02 Q1017     RMK 1CU040 A3004=,
20180120_050000.002,0,RJBD,,,,0,20180120050000,-1,-1,-1,-1,320,-1,14,-1,-1,-1,-1,,9999,0,0,1,FEW 40,1,13,1,1,1017,RJBD 200500Z 32014KT 9999 FEW040 13/01 Q1017 RMK 1CU040 A3003=,
20180120_060000.002,0,RJBD,,,,0,20180120060000,-1,-1,-1,-1,340,-1,12,-1,-1,-1,-1,,9999,0,0,1,FEW 40,1,13,1,1,1016,RJBD 200600Z 34012KT 9999 FEW040 13/01 Q1016 RMK 1CU040 A3002=,
20180120_070000.002,0,RJBD,,,,0,20180120070000,-1,-1,-1,-1,330,-1,11,-1,-1,-1,-1,,9999,0,0,2,FEW 40   SCT -9999,1,11,1,0,1016,RJBD 200700Z 33011KT 9999 FEW040 SCT/// 11/00 Q1016 RMK 1CU040     A3001=,
20180120_080000.002,0,RJBD,,,,0,20180120080000,-1,-1,-1,-1,330,-1,10,-1,-1,-1,-1,,9999,0,0,2,FEW 40   BKN -9999,1,10,1,0,1016,RJBD 200800Z 33010KT 9999 FEW040 BKN/// 10/00 Q1016 RMK 1CU040     A3003=,
20180120_090000.002,0,RJBD,,,,0,20180120090000,-1,-1,-1,-1,320,-1,10,-1,-1,-1,-1,,9999,0,0,2,FEW 40   BKN -9999,1,10,-1,0,1018,RJBD 200900Z 32010KT 9999 FEW040 BKN/// 10/M00 Q1018 RMK     1CU040 A3006=,
20180120_100000.002,0,RJBD,,,,0,20180120100000,-1,-1,-1,-1,340,-1,10,-1,-1,-1,-1,,9999,0,0,2,FEW 40   BKN -9999,1,9,1,0,1018,RJBD 201000Z 34010KT 9999 FEW040 BKN/// 09/00 Q1018 RMK 1CU040     A3007=,
20180120_230000.002,0,RJBD,,,,0,20180120230000,-1,-1,-1,-1,360,-1,5,-1,-1,-1,-1,,9999,0,0,2,FEW 30   SCT 45,1,6,-1,0,1019,RJBD 202300Z 36005KT 9999 FEW030 SCT045 06/M00 Q1019 RMK     1CU030 4CU045 A3010=,
20180121_000000.002,0,RJBD,,,,0,20180121000000,-1,-1,-1,-1,350,-1,8,-1,-1,-1,-1,,9999,0,0,2,FEW 45   SCT -9999,1,7,-1,0,1019,RJBD 210000Z 35008KT 9999 FEW045 SCT/// 07/M00 Q1019 RMK     1CU045 A3011=,
20180121_010000.002,0,RJBD,,,,0,20180121010000,-1,-1,-1,-1,350,-1,12,-1,-1,-1,-1,,9999,0,0,2,FEW 45   SCT -9999,1,10,-1,1,1020,RJBD 210100Z 35012KT 9999 FEW045 SCT/// 10/M01 Q1020 RMK     1CU045 A3012=,
20180121_020000.002,0,RJBD,,,,0,20180121020000,-1,-1,-1,-1,350,-1,13,-1,-1,-1,-1,CAVOK,-1,0,0,0,,1,11,-1,1,1019,RJBD 210200Z 35013KT CAVOK 11/M01 Q1019 RMK A3010=,
20180121_030000.002,0,RJBD,,,,0,20180121030000,-1,-1,-1,-1,330,-1,13,-1,-1,-1,-1,,9999,0,0,2,FEW 45   SCT -9999,1,12,-1,1,1018,RJBD 210300Z 33013KT 9999 FEW045 SCT/// 12/M01 Q1018 RMK     1CU045 A3007=,
20180121_040000.003,0,RJBD,,,,0,20180121040000,-1,-1,-1,-1,320,-1,15,-1,-1,-1,-1,,9999,0,0,2,FEW 40   SCT -9999,1,12,-1,1,1018,RJBD 210400Z 32015KT 9999 FEW040 SCT/// 12/M01 Q1018 RMK     1CU040 A3006=,
20180121_050000.002,0,RJBD,,,,0,20180121050000,-1,-1,-1,-1,320,-1,17,-1,-1,-1,-1,,9999,0,0,1,FEW 35,1,12,-1,2,1017,RJBD 210500Z 32017KT 9999 FEW035 12/M02 Q1017 RMK 1CU035     A3005=,
20180121_060000.002,0,RJBD,,,,0,20180121060000,-1,-1,-1,-1,340,-1,15,-1,-1,-1,-1,,9999,0,0,1,FEW 35,1,11,-1,1,1017,RJBD 210600Z 34015KT 9999 FEW035 11/M01 Q1017 RMK 1CU035     A3004=,
20180121_070000.002,0,RJBD,,,,0,20180121070000,-1,-1,-1,-1,340,-1,11,-1,-1,-1,-1,,9999,0,0,2,FEW 35   SCT -9999,1,11,-1,0,1017,RJBD 210700Z 34011KT 9999 FEW035 SCT/// 11/M00 Q1017 RMK     1CU035 A3005=,
20180121_080000.002,0,RJBD,,,,0,20180121080000,-1,-1,-1,-1,340,-1,11,-1,-1,-1,-1,,9999,0,0,2,FEW 35   SCT -9999,1,9,1,0,1018,RJBD 210800Z 34011KT 9999 FEW035 SCT/// 09/00 Q1018 RMK 1CU035     A3007=,
20180121_090000.002,0,RJBD,,,,0,20180121090000,-1,-1,-1,-1,340,-1,14,-1,-1,-1,-1,,9999,0,0,2,FEW 35   BKN -9999,1,9,1,0,1019,RJBD 210900Z 34014KT 9999 FEW035 BKN/// 09/00 Q1019 RMK 1CU035     A3010=,
20180121_100000.002,0,RJBD,,,,0,20180121100000,-1,-1,-1,-1,340,-1,11,-1,-1,-1,-1,,9999,0,0,2,FEW 35   SCT -9999,1,8,1,0,1019,RJBD 211000Z 34011KT 9999 FEW035 SCT/// 08/00 Q1019 RMK 1CU035     A3012=,
20180121_230000.002,0,RJBD,,,,0,20180121230000,-1,-1,-1,-1,999,-1,1,-1,-1,-1,-1,,9999,0,0,2,FEW 40   BKN 110,1,7,-1,2,1014,RJBD 212300Z VRB01KT 9999 FEW040 BKN110 07/M02 Q1014 RMK     1CU040 7AC110 A2997=,
20180122_000000.002,0,RJBD,,,,0,20180122000000,-1,-1,-1,-1,50,-1,7,-1,-1,-1,-1,,9999,0,0,2,FEW 40   BKN 100,1,7,-1,1,1014,RJBD 220000Z 05007KT 9999 FEW040 BKN100 07/M01 Q1014 RMK     1CU040 7AC100 A2996=,
20180122_010000.002,0,RJBD,,,,0,20180122010000,-1,-1,-1,-1,40,-1,6,-1,-1,-1,-1,,9999,0,0,3,FEW 40   SCT 60   BKN 90,1,7,-1,0,1013,RJBD 220100Z 04006KT 9999 FEW040 SCT060 BKN090 07/M00 Q1013     RMK 1CU040 4SC060 7AC090 A2993=,
20180122_020000.002,0,RJBD,,,,0,20180122020000,-1,-1,-1,-1,80,-1,3,-1,-1,50,130,,9999,0,1,3,FEW 15   SCT 40   BKN 50,1,8,1,2,1013,RJBD 220200Z 08003KT 050V130 9999 -RA FEW015 SCT040 BKN050     08/02 Q1013 RMK 1CU015 4CU040 6SC050 A2992=,- RA
20180122_030000.002,0,RJBD,,,,0,20180122030000,-1,-1,-1,-1,80,-1,4,-1,-1,40,110,,9999,0,1,3,FEW 15   SCT 30   BKN 45,1,7,1,3,1011,RJBD 220300Z 08004KT 040V110 9999 -RA FEW015 SCT030 BKN045     07/03 Q1011 RMK 1CU015 4CU030 6SC045 A2988=,- RA
20180122_040000.002,0,RJBD,,,,0,20180122040000,-1,-1,-1,-1,40,-1,5,-1,-1,350,90,,9999,0,1,3,FEW 10   SCT 30   BKN 45,1,6,1,3,1009,RJBD 220400Z 04005KT 350V090 9999 -RA FEW010 SCT030 BKN045     06/03 Q1009 RMK 1CU010 3CU030 7SC045 A2982 P/FR=,- RA
20180122_050000.002,0,RJBD,,,,0,20180122050000,-1,-1,-1,-1,10,-1,5,-1,-1,330,40,,9999,0,1,3,FEW 8   SCT 30   BKN 50,1,5,1,4,1008,RJBD 220500Z 01005KT 330V040 9999 -RA FEW008 SCT030 BKN050     05/04 Q1008 RMK 1ST008 3CU030 7SC050 A2977=,- RA
20180122_060000.003,0,RJBD,,,,0,20180122060000,-1,-1,-1,-1,340,-1,9,-1,-1,310,20,,9999,0,1,3,FEW 8   SCT 35   BKN 50,1,5,1,4,1006,RJBD 220600Z 34009KT 310V020 9999 -RA FEW008 SCT035 BKN050     05/04 Q1006 RMK 1ST008 3CU035 5SC050 A2973=,- RA
20180122_070000.002,0,RJBD,,,,0,20180122070000,-1,-1,-1,-1,340,-1,10,-1,-1,-1,-1,,6000,0,1,3,FEW 8   SCT 30   BKN 40,1,5,1,4,1007,RJBD 220700Z 34010KT 6000 SHRA FEW008 SCT030 BKN040 05/04     Q1007 RMK 1ST008 3CU030 6CU040 A2976=,RA SH
20180122_080000.003,0,RJBD,,,,0,20180122080000,-1,-1,-1,-1,330,-1,5,-1,-1,-1,-1,,7000,0,1,3,FEW 2   SCT 6   BKN 40,1,6,1,5,1008,RJBD 220800Z 33005KT 7000 -SHRA FEW002 SCT006 BKN040 06/05     Q1008 RMK 1ST002 3ST006 6CU040 A2978=,- RA SH
20180122_090000.002,0,RJBD,,,,0,20180122090000,-1,-1,-1,-1,320,-1,12,-1,-1,-1,-1,,9999,0,1,3,FEW 4   SCT 8   BKN 15,1,5,1,4,1009,RJBD 220900Z 32012KT 9999 -SHRA FEW004 SCT008 BKN015 05/04     Q1009 RMK 1ST004 4ST008 6CU015 A2980=,- RA SH
20180122_100000.002,0,RJBD,,,,0,20180122100000,-1,-1,-1,-1,330,-1,12,-1,-1,-1,-1,,9999,0,0,3,FEW 8   SCT 60   BKN 70,1,4,1,3,1009,RJBD 221000Z 33012KT 9999 FEW008 SCT060 BKN070 04/03 Q1009 RMK     1ST008 4SC060 6AC070 A2982=,
20180122_230000.003,0,RJBD,,,,0,20180122230000,-1,-1,-1,-1,999,-1,1,-1,-1,-1,-1,,9999,0,0,2,FEW 30   SCT 50,1,4,1,2,1011,RJBD 222300Z VRB01KT 9999 FEW030 SCT050 04/02 Q1011 RMK 1CU030     3SC050 A2988=,
20180123_000000.002,0,RJBD,,,,0,20180123000000,-1,-1,-1,-1,340,-1,4,-1,-1,-1,-1,,9999,0,0,2,FEW 30   SCT 50,1,7,1,4,1011,RJBD 230000Z 34004KT 9999 FEW030 SCT050 07/04 Q1011 RMK 1CU030     3SC050 A2988=,
20180123_010000.002,0,RJBD,,,,0,20180123010000,-1,-1,-1,-1,340,-1,4,-1,-1,320,20,,9999,0,0,3,FEW 30   SCT 40   BKN 50,1,7,1,5,1012,RJBD 230100Z 34004KT 320V020 9999 FEW030 SCT040 BKN050 07/05     Q1012 RMK 1CU030 3CU040 5SC050 A2990=,
20180123_020000.002,0,RJBD,,,,0,20180123020000,-1,-1,-1,-1,330,-1,8,-1,-1,290,30,,9999,0,0,2,FEW 35   SCT 50,1,11,1,6,1011,RJBD 230200Z 33008KT 290V030 9999 FEW035 SCT050 11/06 Q1011     RMK 1CU035 3SC050 A2987=,
20180123_030000.003,0,RJBD,,,,0,20180123030000,-1,-1,-1,-1,310,-1,12,-1,-1,-1,-1,,9999,0,0,1,FEW 35,1,11,-1,0,1011,RJBD 230300Z 31012KT 9999 FEW035 11/M00 Q1011 RMK 1CU035     A2986=,
20180123_040000.003,0,RJBD,,,,0,20180123040000,-1,-1,-1,-1,310,-1,14,-1,24,-1,-1,,9999,0,0,1,FEW 35,1,11,-1,1,1010,RJBD 230400Z 31014G24KT 9999 FEW035 11/M01 Q1010 RMK 1CU035     A2984=,
20180123_050000.002,0,RJBD,,,,0,20180123050000,-1,-1,-1,-1,320,-1,20,-1,30,-1,-1,,9999,0,0,2,FEW 35   SCT 80,1,10,-1,1,1010,RJBD 230500Z 32020G30KT 9999 FEW035 SCT080 10/M01 Q1010 RMK     1CU035 3AC080 A2984=,
20180123_060000.003,0,RJBD,,,,0,20180123060000,-1,-1,-1,-1,330,-1,20,-1,30,-1,-1,,9999,0,0,2,FEW 35   SCT 90,1,9,-1,0,1011,RJBD 230600Z 33020G30KT 9999 FEW035 SCT090 09/M00 Q1011 RMK     1CU035 3AC090 A2986=,
20180123_070000.002,0,RJBD,,,,0,20180123070000,-1,-1,-1,-1,330,-1,20,-1,32,300,360,,9999,0,0,3,FEW 35   SCT 70   BKN 100,1,8,-1,1,1011,RJBD 230700Z 33020G32KT 300V360 9999 FEW035 SCT070 BKN100     08/M01 Q1011 RMK 1CU035 3AC070 5AC100 A2988=,
20180123_080000.002,0,RJBD,,,,0,20180123080000,-1,-1,-1,-1,330,-1,19,-1,-1,-1,-1,,9999,0,0,2,FEW 30   SCT 70,1,7,-1,1,1012,RJBD 230800Z 33019KT 9999 FEW030 SCT070 07/M01 Q1012 RMK     1CU030 3AC070 A2989=,
20180123_090000.002,0,RJBD,,,,0,20180123090000,-1,-1,-1,-1,360,-1,11,-1,-1,-1,-1,,9999,0,0,1,FEW 30,1,5,1,1,1013,RJBD 230900Z 36011KT 9999 FEW030 05/01 Q1013 RMK 1CU030 A2992=,
20180123_100000.002,0,RJBD,,,,0,20180123100000,-1,-1,-1,-1,350,-1,9,-1,-1,-1,-1,,9999,0,0,1,FEW 30,1,4,-1,1,1013,RJBD 231000Z 35009KT 9999 FEW030 04/M01 Q1013 RMK 1CU030     A2994=,
20180123_230000.002,0,RJBD,,,,0,20180123230000,-1,-1,-1,-1,330,-1,19,-1,30,-1,-1,,9999,0,0,3,FEW 30   SCT 45   BKN 140,1,1,-1,8,1016,RJBD 232300Z 33019G30KT 9999 FEW030 SCT045 BKN140 01/M08 Q1016     RMK 1CU030 3CU045 5AC140 A3000=,
20180124_000000.002,0,RJBD,,,,0,20180124000000,-1,-1,-1,-1,340,-1,20,-1,30,-1,-1,,9999,0,0,2,FEW 30   SCT 40,1,1,-1,8,1016,RJBD 240000Z 34020G30KT 9999 FEW030 SCT040 01/M08 Q1016 RMK     1CU030 3CU040 A3002=,
20180124_010000.003,0,RJBD,,,,0,20180124010000,-1,-1,-1,-1,330,-1,21,-1,32,-1,-1,,9999,0,0,2,FEW 30   SCT 50,1,3,-1,8,1016,RJBD 240100Z 33021G32KT 9999 FEW030 SCT050 03/M08 Q1016 RMK     1CU030 3SC050 A3001=,
20180124_020000.002,0,RJBD,,,,0,20180124020000,-1,-1,-1,-1,320,-1,20,-1,-1,-1,-1,,9999,0,0,2,FEW 25   SCT 50,1,3,-1,8,1015,RJBD 240200Z 32020KT 9999 FEW025 SCT050 03/M08 Q1015 RMK     1CU025 3SC050 A3000=,
20180124_030000.002,0,RJBD,,,,0,20180124030000,-1,-1,-1,-1,330,-1,18,-1,-1,-1,-1,,9999,0,0,2,FEW 30   SCT 40,1,3,-1,9,1014,RJBD 240300Z 33018KT 9999 FEW030 SCT040 03/M09 Q1014 RMK     1CU030 3CU040 A2997=,
20180124_040000.002,0,RJBD,,,,0,20180124040000,-1,-1,-1,-1,330,-1,21,-1,-1,-1,-1,,9999,0,0,2,FEW 30   SCT 45,1,4,-1,9,1013,RJBD 240400Z 33021KT 9999 FEW030 SCT045 04/M09 Q1013 RMK     1CU030 3CU045 A2993=,
20180124_050000.002,0,RJBD,,,,0,20180124050000,-1,-1,-1,-1,330,-1,19,-1,-1,-1,-1,,9999,0,0,2,FEW 30   SCT 45,1,3,-1,8,1013,RJBD 240500Z 33019KT 9999 FEW030 SCT045 03/M08 Q1013 RMK     1CU030 4CU045 A2993=,
20180124_060000.002,0,RJBD,,,,0,20180124060000,-1,-1,-1,-1,330,-1,21,-1,36,290,360,,9999,0,0,2,FEW 30   SCT 45,1,3,-1,9,1013,RJBD 240600Z 33021G36KT 290V360 9999 FEW030 SCT045 03/M09     Q1013 RMK 1CU030 3CU045 A2994=,
20180124_070000.002,0,RJBD,,,,0,20180124070000,-1,-1,-1,-1,330,-1,20,-1,-1,-1,-1,,9999,0,1,2,FEW 30   SCT 50,1,2,-1,10,1014,RJBD 240700Z 33020KT 9999 VCSH FEW030 SCT050 02/M10 Q1014 RMK     1CU030 4SC050 A2996=,VC SH
20180124_080000.002,0,RJBD,,,,0,20180124080000,-1,-1,-1,-1,330,-1,23,-1,36,-1,-1,,9999,0,1,2,FEW 30   BKN 45,1,1,-1,9,1015,RJBD 240800Z 33023G36KT 9999 VCSH FEW030 BKN045 01/M09 Q1015     RMK 1CU030 5CU045 A2997=,VC SH
20180124_090000.003,0,RJBD,,,,0,20180124090000,-1,-1,-1,-1,340,-1,20,-1,-1,300,10,,9999,0,0,2,FEW 30   BKN 45,1,0,-1,9,1016,RJBD 240900Z 34020KT 300V010 9999 FEW030 BKN045 00/M09 Q1016     RMK 1CU030 5CU045 A3000=,
20180124_100000.002,0,RJBD,,,,0,20180124100000,-1,-1,-1,-1,330,-1,23,-1,37,-1,-1,,9999,0,1,2,FEW 30   BKN 45,-1,0,-1,11,1016,RJBD 241000Z 33023G37KT 9999 VCSH FEW030 BKN045 M00/M11 Q1016     RMK 1CU030 5CU045 A3001=,VC SH
20180124_230000.002,0,RJBD,,,,0,20180124230000,-1,-1,-1,-1,330,-1,18,-1,-1,-1,-1,,9999,0,1,2,FEW 25   SCT 40,1,1,-1,8,1017,RJBD 242300Z 33018KT 9999 VCSH FEW025 SCT040 01/M08 Q1017 RMK     1CU025 4CU040 A3004=,VC SH
20180125_000000.002,0,RJBD,,,,0,20180125000000,-1,-1,-1,-1,330,-1,17,-1,27,-1,-1,,9999,0,1,3,FEW 25   SCT 30   BKN 50,1,2,-1,7,1018,RJBD 250000Z 33017G27KT 9999 VCSH FEW025 SCT030 BKN050 02/M07     Q1018 RMK 1CU025 3CU030 5SC050 A3006=,VC SH
20180125_010000.002,0,RJBD,,,,0,20180125010000,-1,-1,-1,-1,330,-1,19,-1,-1,-1,-1,,9999,0,1,3,FEW 25   SCT 30   BKN 50,1,2,-1,5,1018,RJBD 250100Z 33019KT 9999 -SHSN FEW025 SCT030 BKN050 02/M05     Q1018 RMK 2CU025 4CU030 6SC050 A3006=,- SN SH
20180125_020000.003,0,RJBD,,,,0,20180125020000,-1,-1,-1,-1,330,-1,17,-1,29,-1,-1,,9999,0,1,3,FEW 25   SCT 35   BKN 50,1,3,-1,7,1017,RJBD 250200Z 33017G29KT 9999 -SHSN FEW025 SCT035 BKN050 03/M07     Q1017 RMK 1CU025 3CU035 5SC050 A3005=,- SN SH
20180125_030000.002,0,RJBD,,,,0,20180125030000,-1,-1,-1,-1,320,-1,17,-1,-1,280,360,,9999,0,1,3,FEW 25   SCT 35   BKN 50,1,3,-1,7,1016,RJBD 250300Z 32017KT 280V360 9999 VCSH FEW025 SCT035 BKN050     03/M07 Q1016 RMK 1CU025 3CU035 5SC050 A3002=,VC SH
20180125_040000.002,0,RJBD,,,,0,20180125040000,-1,-1,-1,-1,330,-1,17,-1,-1,290,360,,9999,0,1,3,FEW 25   SCT 40   BKN 50,1,4,-1,7,1015,RJBD 250400Z 33017KT 290V360 9999 VCSH FEW025 SCT040 BKN050     04/M07 Q1015 RMK 1CU025 3CU040 5SC050 A3000=,VC SH
20180125_050000.002,0,RJBD,,,,0,20180125050000,-1,-1,-1,-1,340,-1,16,-1,-1,300,20,,9999,0,1,2,FEW 25   BKN 45,1,5,-1,6,1015,RJBD 250500Z 34016KT 300V020 9999 VCSH FEW025 BKN045 05/M06     Q1015 RMK 1CU025 5CU045 A2998=,VC SH
20180125_060000.002,0,RJBD,,,,0,20180125060000,-1,-1,-1,-1,340,-1,16,-1,-1,-1,-1,,9999,0,1,2,FEW 25   BKN 45,1,4,-1,7,1015,RJBD 250600Z 34016KT 9999 VCSH FEW025 BKN045 04/M07 Q1015 RMK     1CU025 5CU045 A2999=,VC SH
20180125_070000.002,0,RJBD,,,,0,20180125070000,-1,-1,-1,-1,340,-1,14,-1,-1,-1,-1,,9999,0,1,2,FEW 25   BKN 45,1,3,-1,6,1015,RJBD 250700Z 34014KT 9999 VCSH FEW025 BKN045 03/M06 Q1015 RMK     1CU025 5CU045 A2999=,VC SH
20180125_080000.002,0,RJBD,,,,0,20180125080000,-1,-1,-1,-1,330,-1,12,-1,-1,300,360,,9999,0,1,3,FEW 15   SCT 20   BKN 30,1,2,-1,4,1016,RJBD 250800Z 33012KT 300V360 9999 -SHSN FEW015 SCT020 BKN030     02/M04 Q1016 RMK 1CU015 3CU020 7CU030 A3000=,- SN SH
20180125_090000.002,0,RJBD,,,,0,20180125090000,-1,-1,-1,-1,360,-1,10,-1,-1,330,30,,9999,0,1,3,FEW 20   SCT 45   BKN 60,1,1,-1,3,1015,RJBD 250900Z 36010KT 330V030 9999 -SHSN FEW020 SCT045 BKN060     01/M03 Q1015 RMK 1CU020 3CU045 5SC060 A2999=,- SN SH
20180125_100000.003,0,RJBD,,,,0,20180125100000,-1,-1,-1,-1,350,-1,9,-1,-1,-1,-1,,9999,0,1,3,FEW 20   SCT 45   BKN 60,1,1,-1,3,1015,RJBD 251000Z 35009KT 9999 VCSH FEW020 SCT045 BKN060 01/M03     Q1015 RMK 1CU020 3CU045 5SC060 A3000=,VC SH
20180125_230000.002,0,RJBD,,,,0,20180125230000,-1,-1,-1,-1,320,-1,21,-1,31,-1,-1,,9999,0,1,3,FEW 20   SCT 25   BKN 35,1,3,-1,5,1013,RJBD 252300Z 32021G31KT 9999 VCSH FEW020 SCT025 BKN035 03/M05     Q1013 RMK 1CU020 3CU025 6CU035 A2993=,VC SH
20180126_000000.002,0,RJBD,,,,0,20180126000000,-1,-1,-1,-1,320,-1,20,-1,31,-1,-1,,9999,0,1,3,FEW 20   SCT 25   BKN 35,1,3,-1,4,1013,RJBD 260000Z 32020G31KT 9999 -SHSN FEW020 SCT025 BKN035 03/M04     Q1013 RMK 1CU020 3CU025 5CU035 A2994=,- SN SH
20180126_010000.002,0,RJBD,,,,0,20180126010000,-1,-1,-1,-1,320,-1,20,-1,31,-1,-1,,3000,0,1,3,FEW 10   SCT 15   BKN 20,1,2,-1,2,1014,RJBD 260100Z 32020G31KT 3000 -SHSN FEW010 SCT015 BKN020 02/M02     Q1014 RMK 1CU010 3CU015 6CU020 A2995=,- SN SH
20180126_020000.002,0,RJBD,,,,0,20180126020000,-1,-1,-1,-1,330,-1,20,-1,-1,290,350,,9999,0,1,2,FEW 20   BKN 45,1,4,-1,5,1013,RJBD 260200Z 33020KT 290V350 9999 -SHSN FEW020 BKN045 04/M05     Q1013 RMK 1CU020 5CU045 A2993=,- SN SH
20180126_030000.002,0,RJBD,,,,0,20180126030000,-1,-1,-1,-1,320,-1,23,-1,35,-1,-1,,9999,0,1,3,FEW 25   SCT 40   BKN 50,1,4,-1,7,1012,RJBD 260300Z 32023G35KT 9999 VCSH FEW025 SCT040 BKN050 04/M07     Q1012 RMK 1CU025 3CU040 5SC050 A2991=,VC SH
20180126_040000.002,0,RJBD,,,,0,20180126040000,-1,-1,-1,-1,320,-1,22,-1,-1,-1,-1,,9999,0,0,3,FEW 25   SCT 35   BKN 45,1,5,-1,5,1012,RJBD 260400Z 32022KT 9999 FEW025 SCT035 BKN045 05/M05 Q1012     RMK 1CU025 3CU035 5CU045 A2988=,
20180126_050000.002,0,RJBD,,,,0,20180126050000,-1,-1,-1,-1,320,-1,21,-1,32,-1,-1,,9999,0,1,3,FEW 25   SCT 40   BKN 50,1,5,-1,4,1012,RJBD 260500Z 32021G32KT 9999 VCSH FEW025 SCT040 BKN050 05/M04     Q1012 RMK 1CU025 3CU040 5SC050 A2989=,VC SH
20180126_060000.002,0,RJBD,,,,0,20180126060000,-1,-1,-1,-1,320,-1,20,-1,30,290,350,,9999,0,1,3,FEW 25   SCT 35   BKN 50,1,4,-1,5,1012,RJBD 260600Z 32020G30KT 290V350 9999 VCSH FEW025 SCT035 BKN050     04/M05 Q1012 RMK 1CU025 3CU035 5SC050 A2990=,VC SH
20180126_070000.002,0,RJBD,,,,0,20180126070000,-1,-1,-1,-1,320,-1,19,-1,29,-1,-1,,9999,0,1,2,FEW 35   SCT 50,1,3,-1,6,1013,RJBD 260700Z 32019G29KT 9999 VCSH FEW035 SCT050 03/M06 Q1013     RMK 2CU035 4SC050 A2991=,VC SH
20180126_080000.003,0,RJBD,,,,0,20180126080000,-1,-1,-1,-1,330,-1,20,-1,30,-1,-1,,9999,0,1,2,SCT 35   BKN 50,1,3,-1,6,1013,RJBD 260800Z 33020G30KT 9999 VCSH SCT035 BKN050 03/M06 Q1013     RMK 3CU035 5SC050 A2992=,VC SH
20180126_090000.002,0,RJBD,,,,0,20180126090000,-1,-1,-1,-1,330,-1,23,-1,35,-1,-1,,9999,0,1,2,FEW 35   SCT 50,1,3,-1,6,1013,RJBD 260900Z 33023G35KT 9999 VCSH FEW035 SCT050 03/M06 Q1013     RMK 2CU035 4SC050 A2994=,VC SH
20180126_100000.002,0,RJBD,,,,0,20180126100000,-1,-1,-1,-1,330,-1,22,-1,32,-1,-1,,9999,0,1,2,FEW 35   SCT 50,1,3,-1,6,1014,RJBD 261000Z 33022G32KT 9999 VCSH FEW035 SCT050 03/M06 Q1014     RMK 2CU035 4SC050 A2995=,VC SH
20180126_230000.002,0,RJBD,,,,0,20180126230000,-1,-1,-1,-1,340,-1,13,-1,-1,-1,-1,,9999,0,0,2,FEW 30   SCT 40,1,1,-1,6,1020,RJBD 262300Z 34013KT 9999 FEW030 SCT040 01/M06 Q1020 RMK     1CU030 3CU040 A3014=,
20180127_000000.002,0,RJBD,,,,0,20180127000000,-1,-1,-1,-1,340,-1,17,-1,-1,-1,-1,,9999,0,0,2,FEW 30   SCT 40,1,2,-1,6,1021,RJBD 270000Z 34017KT 9999 FEW030 SCT040 02/M06 Q1021 RMK     1CU030 3CU040 A3017=,
20180127_010000.002,0,RJBD,,,,0,20180127010000,-1,-1,-1,-1,350,-1,14,-1,-1,-1,-1,,9999,0,1,2,FEW 30   SCT 40,1,3,-1,5,1022,RJBD 270100Z 35014KT 9999 VCSH FEW030 SCT040 03/M05 Q1022 RMK     1CU030 3CU040 A3019=,VC SH
20180127_020000.002,0,RJBD,,,,0,20180127020000,-1,-1,-1,-1,350,-1,13,-1,-1,320,20,,9999,0,1,2,FEW 30   SCT 40,1,3,-1,5,1021,RJBD 270200Z 35013KT 320V020 9999 VCSH FEW030 SCT040 03/M05     Q1021 RMK 1CU030 3CU040 A3017=,VC SH
20180127_030000.002,0,RJBD,,,,0,20180127030000,-1,-1,-1,-1,340,-1,13,-1,-1,310,10,,9999,0,1,2,FEW 30   SCT 40,1,4,-1,4,1020,RJBD 270300Z 34013KT 310V010 9999 VCSH FEW030 SCT040 04/M04     Q1020 RMK 2CU030 4CU040 A3014=,VC SH
20180127_040000.002,0,RJBD,,,,0,20180127040000,-1,-1,-1,-1,340,-1,17,-1,-1,-1,-1,,9999,0,0,2,FEW 35   SCT 50,1,6,-1,6,1020,RJBD 270400Z 34017KT 9999 FEW035 SCT050 06/M06 Q1020 RMK     2CU035 4SC050 A3013=,
20180127_050000.002,0,RJBD,,,,0,20180127050000,-1,-1,-1,-1,340,-1,18,-1,-1,300,10,,9999,0,0,2,FEW 30   SCT 50,1,6,-1,7,1020,RJBD 270500Z 34018KT 300V010 9999 FEW030 SCT050 06/M07 Q1020     RMK 1CU030 3SC050 A3012=,
20180127_060000.002,0,RJBD,,,,0,20180127060000,-1,-1,-1,-1,340,-1,19,-1,-1,-1,-1,,9999,0,0,2,FEW 30   SCT 50,1,5,-1,7,1020,RJBD 270600Z 34019KT 9999 FEW030 SCT050 05/M07 Q1020 RMK     1CU030 3SC050 A3013=,
20180127_070000.002,0,RJBD,,,,0,20180127070000,-1,-1,-1,-1,340,-1,18,-1,-1,-1,-1,,9999,0,0,2,FEW 30   SCT 50,1,4,-1,6,1020,RJBD 270700Z 34018KT 9999 FEW030 SCT050 04/M06 Q1020 RMK     1CU030 3SC050 A3013=,
20180127_080000.002,0,RJBD,,,,0,20180127080000,-1,-1,-1,-1,340,-1,15,-1,-1,-1,-1,,9999,0,0,2,FEW 30   SCT 50,1,4,-1,5,1020,RJBD 270800Z 34015KT 9999 FEW030 SCT050 04/M05 Q1020 RMK     1CU030 3SC050 A3014=,
20180127_090000.003,0,RJBD,,,,0,20180127090000,-1,-1,-1,-1,340,-1,12,-1,-1,-1,-1,,9999,0,0,2,FEW 30   SCT 50,1,3,-1,6,1021,RJBD 270900Z 34012KT 9999 FEW030 SCT050 03/M06 Q1021 RMK     1CU030 3SC050 A3017=,
20180127_100000.002,0,RJBD,,,,0,20180127100000,-1,-1,-1,-1,350,-1,10,-1,-1,-1,-1,,9999,0,0,2,FEW 30   BKN 50,1,3,-1,6,1022,RJBD 271000Z 35010KT 9999 FEW030 BKN050 03/M06 Q1022 RMK     1CU030 5SC050 A3019=,
20180127_230000.002,0,RJBD,,,,0,20180127230000,-1,-1,-1,-1,60,-1,5,-1,-1,-1,-1,,9999,0,0,3,FEW 35   SCT 90   BKN 110,1,2,-1,7,1019,RJBD 272300Z 06005KT 9999 FEW035 SCT090 BKN110 02/M07 Q1019     RMK 1CU035 3AC090 6AC110 A3012=,
20180128_000000.003,0,RJBD,,,,0,20180128000000,-1,-1,-1,-1,999,-1,2,-1,-1,-1,-1,,9999,0,0,3,FEW 40   SCT 90   BKN 110,1,3,-1,6,1019,RJBD 280000Z VRB02KT 9999 FEW040 SCT090 BKN110 03/M06 Q1019     RMK 1CU040 4AC090 6AC110 A3011=,
20180128_010000.002,0,RJBD,,,,0,20180128010000,-1,-1,-1,-1,0,-1,0,-1,-1,-1,-1,,9999,0,1,3,FEW 35   SCT 70   BKN 90,1,5,-1,6,1018,RJBD 280100Z 00000KT 9999 VCSH FEW035 SCT070 BKN090 05/M06     Q1018 RMK 1CU035 4AC070 6AC090 A3008=,VC SH
20180128_020000.002,0,RJBD,,,,0,20180128020000,-1,-1,-1,-1,999,-1,2,-1,-1,-1,-1,,9999,0,0,3,FEW 35   BKN 80   BKN 100,1,5,-1,5,1018,RJBD 280200Z VRB02KT 9999 FEW035 BKN080 BKN100 05/M05 Q1018     RMK 1CU035 5AC080 6AC100 A3007=,
20180128_030000.002,0,RJBD,,,,0,20180128030000,-1,-1,-1,-1,70,-1,3,-1,-1,360,140,,9999,0,0,3,FEW 35   BKN 50   BKN 70,1,6,-1,4,1016,RJBD 280300Z 07003KT 360V140 9999 FEW035 BKN050 BKN070 06/M04     Q1016 RMK 1CU035 5SC050 7AC070 A3001=,
20180128_040000.002,0,RJBD,,,,0,20180128040000,-1,-1,-1,-1,0,-1,0,-1,-1,-1,-1,,9999,0,0,3,FEW 30   BKN 40   BKN 60,1,6,-1,2,1015,RJBD 280400Z 00000KT 9999 FEW030 BKN040 BKN060 06/M02 Q1015     RMK 1CU030 5CU040 7SC060 A2999=,
20180128_050000.002,0,RJBD,,,,0,20180128050000,-1,-1,-1,-1,340,-1,3,-1,-1,260,20,,9999,0,1,3,FEW 20   SCT 25   BKN 60,1,6,1,1,1015,RJBD 280500Z 34003KT 260V020 9999 -SHRA FEW020 SCT025 BKN060     06/01 Q1015 RMK 1CU020 4CU025 7SC060 A2999=,- RA SH
20180128_060000.002,0,RJBD,,,,0,20180128060000,-1,-1,-1,-1,999,-1,2,-1,-1,-1,-1,,9999,0,1,3,FEW 8   SCT 25   BKN 35,1,5,1,1,1015,RJBD 280600Z VRB02KT 9999 -SHRA FEW008 SCT025 BKN035 05/01     Q1015 RMK 1ST008 3CU025 6CU035 A2999=,- RA SH
20180128_070000.003,0,RJBD,,,,0,20180128070000,-1,-1,-1,-1,50,-1,4,-1,-1,20,90,,9999,0,1,3,FEW 8   SCT 30   BKN 60,1,5,1,3,1015,RJBD 280700Z 05004KT 020V090 9999 -SHRA FEW008 SCT030 BKN060     05/03 Q1015 RMK 1ST008 4CU030 6SC060 A2998=,- RA SH
20180128_080000.002,0,RJBD,,,,0,20180128080000,-1,-1,-1,-1,30,-1,3,-1,-1,350,80,,9999,0,1,3,FEW 20   SCT 40   BKN 80,1,4,1,2,1015,RJBD 280800Z 03003KT 350V080 9999 VCSH FEW020 SCT040 BKN080     04/02 Q1015 RMK 1CU020 4CU040 6AC080 A2997=,VC SH
20180128_090000.002,0,RJBD,,,,0,20180128090000,-1,-1,-1,-1,20,-1,4,-1,-1,340,60,,9999,0,1,3,FEW 20   SCT 80   BKN 100,1,4,1,2,1014,RJBD 280900Z 02004KT 340V060 9999 VCSH FEW020 SCT080 BKN100     04/02 Q1014 RMK 1CU020 4AC080 6AC100 A2996=,VC SH
20180128_100000.002,0,RJBD,,,,0,20180128100000,-1,-1,-1,-1,10,-1,5,-1,15,240,60,,9999,0,1,3,FEW 20   SCT 70   BKN 90,1,4,1,2,1014,RJBD 281000Z 01005G15KT 240V060 9999 VCSH FEW020 SCT070 BKN090     04/02 Q1014 RMK 1CU020 3AC070 5AC090 A2996=,VC SH
20180128_230000.002,0,RJBD,,,,0,20180128230000,-1,-1,-1,-1,350,-1,13,-1,-1,-1,-1,,9999,0,0,3,FEW 40   SCT 140   BKN -9999,1,5,-1,2,1012,RJBD 282300Z 35013KT 9999 FEW040 SCT140 BKN/// 05/M02 Q1012     RMK 1CU040 4AC140 A2989=,
20180129_000000.003,0,RJBD,,,,0,20180129000000,-1,-1,-1,-1,350,-1,12,-1,-1,-1,-1,,9999,0,0,3,FEW 35   BKN 50   BKN -9999,1,5,-1,3,1013,RJBD 290000Z 35012KT 9999 FEW035 BKN050 BKN/// 05/M03 Q1013     RMK 1CU035 5SC050 A2992=,
20180129_010000.002,0,RJBD,,,,0,20180129010000,-1,-1,-1,-1,350,-1,12,-1,-1,-1,-1,,9999,0,0,2,FEW 40   SCT 140,1,7,-1,3,1012,RJBD 290100Z 35012KT 9999 FEW040 SCT140 07/M03 Q1012 RMK     1CU040 3AC140 A2990=,
20180129_020000.002,0,RJBD,,,,0,20180129020000,-1,-1,-1,-1,340,-1,15,-1,-1,-1,-1,,9999,0,0,2,FEW 40   BKN 50,1,8,-1,2,1012,RJBD 290200Z 34015KT 9999 FEW040 BKN050 08/M02 Q1012 RMK     1CU040 6SC050 A2989=,
20180129_030000.002,0,RJBD,,,,0,20180129030000,-1,-1,-1,-1,330,-1,16,-1,-1,-1,-1,,9999,0,0,2,FEW 40   BKN 50,1,9,-1,3,1011,RJBD 290300Z 33016KT 9999 FEW040 BKN050 09/M03 Q1011 RMK     1CU040 5SC050 A2987=,
20180129_040000.002,0,RJBD,,,,0,20180129040000,-1,-1,-1,-1,330,-1,18,-1,-1,290,360,,9999,0,0,1,FEW 45,1,8,-1,4,1010,RJBD 290400Z 33018KT 290V360 9999 FEW045 08/M04 Q1010 RMK     2CU045 A2985=,
20180129_050000.002,0,RJBD,,,,0,20180129050000,-1,-1,-1,-1,340,-1,18,-1,-1,-1,-1,,9999,0,0,2,FEW 45   SCT -9999,1,8,-1,4,1010,RJBD 290500Z 34018KT 9999 FEW045 SCT/// 08/M04 Q1010 RMK     1CU045 A2984=,
20180129_060000.002,0,RJBD,,,,0,20180129060000,-1,-1,-1,-1,330,-1,17,-1,-1,-1,-1,,9999,0,0,2,FEW 45   SCT -9999,1,7,-1,4,1010,RJBD 290600Z 33017KT 9999 FEW045 SCT/// 07/M04 Q1010 RMK     1CU045 A2985=,
20180129_070000.002,0,RJBD,,,,0,20180129070000,-1,-1,-1,-1,340,-1,21,-1,-1,-1,-1,,9999,0,0,1,FEW 45,1,6,-1,6,1010,RJBD 290700Z 34021KT 9999 FEW045 06/M06 Q1010 RMK 1CU045     A2985=,
20180129_080000.002,0,RJBD,,,,0,20180129080000,-1,-1,-1,-1,340,-1,19,-1,-1,-1,-1,,9999,0,0,2,FEW 35   SCT 50,1,5,-1,5,1011,RJBD 290800Z 34019KT 9999 FEW035 SCT050 05/M05 Q1011 RMK     1CU035 3SC050 A2987=,
20180129_090000.002,0,RJBD,,,,0,20180129090000,-1,-1,-1,-1,340,-1,19,-1,29,-1,-1,,9999,0,0,2,FEW 35   BKN 50,1,5,-1,5,1013,RJBD 290900Z 34019G29KT 9999 FEW035 BKN050 05/M05 Q1013 RMK     1CU035 5SC050 A2991=,
20180129_100000.002,0,RJBD,,,,0,20180129100000,-1,-1,-1,-1,350,-1,17,-1,-1,-1,-1,,9999,0,0,2,FEW 35   BKN 50,1,4,-1,6,1014,RJBD 291000Z 35017KT 9999 FEW035 BKN050 04/M06 Q1014 RMK     1CU035 5SC050 A2994=,
20180129_230000.002,0,RJBD,,,,0,20180129230000,-1,-1,-1,-1,340,-1,14,-1,-1,-1,-1,,9999,0,0,1,FEW 30,1,1,-1,6,1019,RJBD 292300Z 34014KT 9999 FEW030 01/M06 Q1019 RMK 2CU030     A3010=,
20180130_000000.002,0,RJBD,,,,0,20180130000000,-1,-1,-1,-1,340,-1,14,-1,-1,-1,-1,,9999,0,0,2,FEW 30   SCT 50,1,3,-1,6,1020,RJBD 300000Z 34014KT 9999 FEW030 SCT050 03/M06 Q1020 RMK     1CU030 3SC050 A3012=,
20180130_010000.002,0,RJBD,,,,0,20180130010000,-1,-1,-1,-1,330,-1,15,-1,-1,-1,-1,,9999,0,1,2,FEW 30   SCT 40,1,4,-1,7,1020,RJBD 300100Z 33015KT 9999 VCSH FEW030 SCT040 04/M07 Q1020 RMK     1CU030 3CU040 A3013=,VC SH
20180130_020000.002,0,RJBD,,,,0,20180130020000,-1,-1,-1,-1,310,-1,16,-1,-1,270,330,,9999,0,1,2,FEW 25   SCT 40,1,4,-1,4,1019,RJBD 300200Z 31016KT 270V330 9999 VCSH FEW025 SCT040 04/M04     Q1019 RMK 1CU025 3CU040 A3012=,VC SH
20180130_030000.002,0,RJBD,,,,0,20180130030000,-1,-1,-1,-1,320,-1,17,-1,-1,-1,-1,,9999,0,0,2,FEW 25   SCT 40,1,5,-1,5,1019,RJBD 300300Z 32017KT 9999 FEW025 SCT040 05/M05 Q1019 RMK     1CU025 4CU040 A3009=,
20180130_040000.002,0,RJBD,,,,0,20180130040000,-1,-1,-1,-1,330,-1,16,-1,-1,-1,-1,,9999,0,0,2,FEW 25   SCT 40,1,5,-1,6,1018,RJBD 300400Z 33016KT 9999 FEW025 SCT040 05/M06 Q1018 RMK     1CU025 3CU040 A3007=,
20180130_050000.002,0,RJBD,,,,0,20180130050000,-1,-1,-1,-1,330,-1,14,-1,-1,300,360,,9999,0,0,1,FEW 40,1,6,-1,6,1018,RJBD 300500Z 33014KT 300V360 9999 FEW040 06/M06 Q1018 RMK     2CU040 A3008=,
20180130_060000.003,0,RJBD,,,,0,20180130060000,-1,-1,-1,-1,330,-1,15,-1,-1,-1,-1,,9999,0,0,1,FEW 40,1,5,-1,7,1018,RJBD 300600Z 33015KT 9999 FEW040 05/M07 Q1018 RMK 2CU040     A3009=,
20180130_070000.002,0,RJBD,,,,0,20180130070000,-1,-1,-1,-1,330,-1,14,-1,-1,-1,-1,,9999,0,0,1,FEW 40,1,5,-1,8,1019,RJBD 300700Z 33014KT 9999 FEW040 05/M08 Q1019 RMK 2CU040     A3011=,
20180130_080000.002,0,RJBD,,,,0,20180130080000,-1,-1,-1,-1,340,-1,12,-1,-1,-1,-1,,9999,0,0,1,FEW 40,1,4,-1,7,1019,RJBD 300800Z 34012KT 9999 FEW040 04/M07 Q1019 RMK 2CU040     A3011=,
20180130_090000.002,0,RJBD,,,,0,20180130090000,-1,-1,-1,-1,340,-1,10,-1,-1,-1,-1,,9999,0,0,1,FEW 40,1,3,-1,7,1021,RJBD 300900Z 34010KT 9999 FEW040 03/M07 Q1021 RMK 1CU040     A3016=,
20180130_100000.002,0,RJBD,,,,0,20180130100000,-1,-1,-1,-1,350,-1,9,-1,-1,-1,-1,,9999,0,0,1,FEW 40,1,3,-1,6,1022,RJBD 301000Z 35009KT 9999 FEW040 03/M06 Q1022 RMK 1CU040     A3019=,
20180130_230000.002,0,RJBD,,,,0,20180130230000,-1,-1,-1,-1,20,-1,7,-1,-1,-1,-1,,9999,0,0,2,FEW 35   SCT -9999,1,2,-1,4,1026,RJBD 302300Z 02007KT 9999 FEW035 SCT/// 02/M04 Q1026 RMK     1CU035 A3030=,
20180131_000000.002,0,RJBD,,,,0,20180131000000,-1,-1,-1,-1,360,-1,9,-1,-1,-1,-1,,9999,0,0,2,FEW 30   SCT -9999,1,3,-1,4,1026,RJBD 310000Z 36009KT 9999 FEW030 SCT/// 03/M04 Q1026 RMK     1CU030 A3031=,
20180131_010000.002,0,RJBD,,,,0,20180131010000,-1,-1,-1,-1,350,-1,11,-1,-1,320,30,,9999,0,0,2,FEW 30   SCT -9999,1,5,-1,4,1025,RJBD 310100Z 35011KT 320V030 9999 FEW030 SCT/// 05/M04 Q1025     RMK 1CU030 A3029=,
20180131_020000.002,0,RJBD,,,,0,20180131020000,-1,-1,-1,-1,350,-1,10,-1,-1,-1,-1,,9999,0,0,2,FEW 30   BKN -9999,1,6,-1,5,1025,RJBD 310200Z 35010KT 9999 FEW030 BKN/// 06/M05 Q1025 RMK     1CU030 A3028=,
20180131_030000.002,0,RJBD,,,,0,20180131030000,-1,-1,-1,-1,350,-1,10,-1,-1,-1,-1,,9999,0,0,2,FEW 30   BKN -9999,1,7,-1,6,1024,RJBD 310300Z 35010KT 9999 FEW030 BKN/// 07/M06 Q1024 RMK     1CU030 A3026=,
20180131_040000.002,0,RJBD,,,,0,20180131040000,-1,-1,-1,-1,330,-1,13,-1,-1,-1,-1,,9999,0,0,3,FEW 35   SCT 180   BKN -9999,1,8,-1,6,1024,RJBD 310400Z 33013KT 9999 FEW035 SCT180 BKN/// 08/M06 Q1024     RMK 1CU035 3AC180 A3026=,
20180131_050000.002,0,RJBD,,,,0,20180131050000,-1,-1,-1,-1,340,-1,10,-1,-1,300,10,,9999,0,0,2,FEW 35   BKN -9999,1,8,-1,7,1023,RJBD 310500Z 34010KT 300V010 9999 FEW035 BKN/// 08/M07 Q1023     RMK 1CU035 A3021=,
20180131_060000.002,0,RJBD,,,,0,20180131060000,-1,-1,-1,-1,330,-1,12,-1,-1,-1,-1,,9999,0,0,2,FEW 40   BKN -9999,1,8,-1,7,1022,RJBD 310600Z 33012KT 9999 FEW040 BKN/// 08/M07 Q1022 RMK     1CU040 A3020=,
20180131_070000.003,0,RJBD,,,,0,20180131070000,-1,-1,-1,-1,330,-1,10,-1,-1,-1,-1,,9999,0,0,3,FEW 40   SCT 170   BKN -9999,1,8,-1,8,1023,RJBD 310700Z 33010KT 9999 FEW040 SCT170 BKN/// 08/M08 Q1023     RMK 1CU040 4AC170 A3021=,
20180131_080000.003,0,RJBD,,,,0,20180131080000,-1,-1,-1,-1,340,-1,9,-1,-1,-1,-1,,9999,0,0,2,FEW 40   SCT 150,1,7,-1,8,1023,RJBD 310800Z 34009KT 9999 FEW040 SCT150 07/M08 Q1023 RMK     1CU040 4AC150 A3022=,
20180131_090000.002,0,RJBD,,,,0,20180131090000,-1,-1,-1,-1,340,-1,7,-1,-1,-1,-1,,9999,0,0,2,FEW 40   SCT 140,1,5,-1,6,1023,RJBD 310900Z 34007KT 9999 FEW040 SCT140 05/M06 Q1023 RMK     1CU040 3AC140 A3023=,
20180131_100000.002,0,RJBD,,,,0,20180131100000,-1,-1,-1,-1,330,-1,6,-1,-1,290,360,,9999,0,0,2,FEW 40   SCT 130,1,5,-1,7,1024,RJBD 311000Z 33006KT 290V360 9999 FEW040 SCT130 05/M07 Q1024     RMK 1CU040 3AC130 A3024=,
20180131_230000.002,0,RJBD,,,,0,20180131230000,-1,-1,-1,-1,350,-1,8,-1,-1,-1,-1,,8000,0,1,3,FEW 6   SCT 10   BKN 20,1,2,1,0,1024,RJBD 312300Z 35008KT 8000 -RA FEW006 SCT010 BKN020 02/00 Q1024     RMK 1ST006 4CU010 7CU020 A3026=,- RA
20180201_000000.003,0,RJBD,,,,0,20180201000000,-1,-1,-1,-1,10,-1,6,-1,-1,-1,-1,,8000,0,1,3,FEW 6   SCT 10   BKN 25,1,2,1,1,1024,RJBD 010000Z 01006KT 8000 -RA FEW006 SCT010 BKN025 02/01 Q1024     RMK 1ST006 4CU010 7CU025 A3026=,- RA
20180201_010000.002,0,RJBD,,,,0,20180201010000,-1,-1,-1,-1,360,-1,6,-1,-1,-1,-1,,8000,0,1,3,FEW 6   SCT 20   BKN 30,1,2,1,2,1024,RJBD 010100Z 36006KT 8000 -RA FEW006 SCT020 BKN030 02/02 Q1024     RMK 1ST006 3CU020 7CU030 A3024=,- RA
20180201_020000.002,0,RJBD,,,,0,20180201020000,-1,-1,-1,-1,350,-1,6,-1,-1,-1,-1,,7000,0,1,3,FEW 6   SCT 20   BKN 30,1,3,1,3,1023,RJBD 010200Z 35006KT 7000 -RA FEW006 SCT020 BKN030 03/03 Q1023     RMK 1ST006 3CU020 7CU030 A3023=,- RA
20180201_030000.003,0,RJBD,,,,0,20180201030000,-1,-1,-1,-1,20,-1,5,-1,-1,-1,-1,,7000,0,1,3,FEW 6   SCT 20   BKN 35,1,4,1,3,1022,RJBD 010300Z 02005KT 7000 -RA FEW006 SCT020 BKN035 04/03 Q1022     RMK 1ST006 3CU020 7CU035 A3019=,- RA
20180201_040000.003,0,RJBD,,,,0,20180201040000,-1,-1,-1,-1,10,-1,4,-1,-1,340,50,,8000,0,1,3,FEW 6   SCT 30   BKN 40,1,4,1,3,1021,RJBD 010400Z 01004KT 340V050 8000 -RA FEW006 SCT030 BKN040     04/03 Q1021 RMK 1ST006 3CU030 7CU040 A3015=,- RA
20180201_050000.002,0,RJBD,,,,0,20180201050000,-1,-1,-1,-1,999,-1,1,-1,-1,-1,-1,,8000,0,1,3,FEW 6   SCT 30   BKN 40,1,4,1,3,1020,RJBD 010500Z VRB01KT 8000 -RA FEW006 SCT030 BKN040 04/03 Q1020     RMK 1ST006 4CU030 7SC040 A3014=,- RA
20180201_060000.002,0,RJBD,,,,0,20180201060000,-1,-1,-1,-1,50,-1,3,-1,-1,-1,-1,,9999,0,1,3,FEW 6   SCT 15   BKN 35,1,4,1,3,1020,RJBD 010600Z 05003KT 9999 -RA FEW006 SCT015 BKN035 04/03 Q1020     RMK 1ST006 3CU015 6SC035 A3013=,- RA
20180201_070000.002,0,RJBD,,,,0,20180201070000,-1,-1,-1,-1,80,-1,2,-1,-1,-1,-1,,9999,0,1,3,FEW 6   SCT 20   BKN 40,1,5,1,4,1020,RJBD 010700Z 08002KT 9999 -RA FEW006 SCT020 BKN040 05/04 Q1020     RMK 1ST006 3CU020 6SC040 A3015=,- RA
20180201_080000.002,0,RJBD,,,,0,20180201080000,-1,-1,-1,-1,999,-1,2,-1,-1,-1,-1,,8000,0,1,3,FEW 4   BKN 8   BKN 40,1,4,1,3,1021,RJBD 010800Z VRB02KT 8000 -RA FEW004 BKN008 BKN040 04/03 Q1021     RMK 1ST004 5ST008 6SC040 A3016=,- RA
20180201_090000.002,0,RJBD,,,,0,20180201090000,-1,-1,-1,-1,360,-1,3,-1,-1,330,30,,9999,0,1,3,FEW 6   SCT 15   BKN 40,1,4,1,3,1021,RJBD 010900Z 36003KT 330V030 9999 -RA FEW006 SCT015 BKN040     04/03 Q1021 RMK 1ST006 3CU015 6SC040 A3016=,- RA
20180201_100000.002,0,RJBD,,,,0,20180201100000,-1,-1,-1,-1,330,-1,3,-1,-1,-1,-1,,9999,0,1,3,FEW 6   SCT 20   BKN 40,1,4,1,4,1022,RJBD 011000Z 33003KT 9999 -RA FEW006 SCT020 BKN040 04/04 Q1022     RMK 1ST006 4CU020 6SC040 A3019=,- RA
20180201_230000.003,0,RJBD,,,,0,20180201230000,-1,-1,-1,-1,20,-1,5,-1,-1,340,50,,9999,0,0,1,FEW 35,1,4,1,3,1021,RJBD 012300Z 02005KT 340V050 9999 FEW035 04/03 Q1021 RMK     2CU035 A3015=,
20180202_000000.002,0,RJBD,,,,0,20180202000000,-1,-1,-1,-1,999,-1,2,-1,-1,-1,-1,,9999,0,0,2,FEW 30   SCT 40,1,5,1,4,1021,RJBD 020000Z VRB02KT 9999 FEW030 SCT040 05/04 Q1021 RMK 1CU030     3CU040 A3017=,
20180202_010000.002,0,RJBD,,,,0,20180202010000,-1,-1,-1,-1,320,-1,3,-1,-1,290,20,,9999,0,0,3,FEW 30   SCT 50   BKN -9999,1,7,1,4,1021,RJBD 020100Z 32003KT 290V020 9999 FEW030 SCT050 BKN/// 07/04     Q1021 RMK 2CU030 3SC050 A3017=,
20180202_020000.002,0,RJBD,,,,0,20180202020000,-1,-1,-1,-1,340,-1,3,-1,-1,290,40,,9999,0,0,2,SCT 30   BKN -9999,1,8,1,3,1021,RJBD 020200Z 34003KT 290V040 9999 SCT030 BKN/// 08/03 Q1021     RMK 3CU030 A3017=,
20180202_030000.002,0,RJBD,,,,0,20180202030000,-1,-1,-1,-1,310,-1,7,-1,-1,-1,-1,,9999,0,0,3,FEW 30   SCT 50   BKN -9999,1,9,1,3,1021,RJBD 020300Z 31007KT 9999 FEW030 SCT050 BKN/// 09/03 Q1021 RMK     2CU030 3SC050 A3016=,
20180202_040000.002,0,RJBD,,,,0,20180202040000,-1,-1,-1,-1,320,-1,7,-1,-1,280,350,,9999,0,0,3,FEW 30   SCT 50   BKN -9999,1,10,1,4,1020,RJBD 020400Z 32007KT 280V350 9999 FEW030 SCT050 BKN/// 10/04     Q1020 RMK 1CU030 3SC050 A3012=,
20180202_050000.001,0,RJBD,,,,0,20180202050000,-1,-1,-1,-1,310,-1,8,-1,-1,-1,-1,,9999,0,0,2,FEW 35   BKN -9999,1,10,1,3,1020,RJBD 020500Z 31008KT 9999 FEW035 BKN/// 10/03 Q1020 RMK 1CU035     A3012=,
20180202_060000.002,0,RJBD,,,,0,20180202060000,-1,-1,-1,-1,300,-1,8,-1,-1,270,330,,9999,0,0,2,FEW 35   BKN -9999,1,10,1,4,1020,RJBD 020600Z 30008KT 270V330 9999 FEW035 BKN/// 10/04 Q1020     RMK 1CU035 A3013=,
20180202_070000.002,0,RJBD,,,,0,20180202070000,-1,-1,-1,-1,300,-1,6,-1,-1,270,340,,9999,0,0,3,FEW 30   SCT 40   BKN -9999,1,9,1,3,1020,RJBD 020700Z 30006KT 270V340 9999 FEW030 SCT040 BKN/// 09/03     Q1020 RMK 1CU030 3CU040 A3013=,
20180202_080000.002,0,RJBD,,,,0,20180202080000,-1,-1,-1,-1,270,-1,4,-1,-1,-1,-1,,9999,0,0,2,FEW 30   BKN -9999,1,9,1,3,1020,RJBD 020800Z 27004KT 9999 FEW030 BKN/// 09/03 Q1020 RMK 1CU030     A3013=,
20180202_090000.002,0,RJBD,,,,0,20180202090000,-1,-1,-1,-1,999,-1,2,-1,-1,-1,-1,,9999,0,0,3,FEW 30   SCT 40   BKN -9999,1,7,1,4,1020,RJBD 020900Z VRB02KT 9999 FEW030 SCT040 BKN/// 07/04 Q1020 RMK     1CU030 3CU040 A3012=,
20180202_100000.003,0,RJBD,,,,0,20180202100000,-1,-1,-1,-1,999,-1,1,-1,-1,-1,-1,,9999,0,0,3,FEW 30   SCT 40   BKN -9999,1,6,1,4,1019,RJBD 021000Z VRB01KT 9999 FEW030 SCT040 BKN/// 06/04 Q1019 RMK     1CU030 3CU040 A3012=,
20180202_230000.003,0,RJBD,,,,0,20180202230000,-1,-1,-1,-1,340,-1,12,-1,-1,-1,-1,,9999,0,0,2,FEW 30   BKN 60,1,6,1,0,1017,RJBD 022300Z 34012KT 9999 FEW030 BKN060 06/00 Q1017 RMK 1CU030     5SC060 A3004=,
20180203_000000.002,0,RJBD,,,,0,20180203000000,-1,-1,-1,-1,340,-1,13,-1,-1,-1,-1,,9999,0,0,3,FEW 30   SCT 70   BKN -9999,1,7,1,0,1017,RJBD 030000Z 34013KT 9999 FEW030 SCT070 BKN/// 07/00 Q1017 RMK     1CU030 3AC070 A3005=,
20180203_010000.003,0,RJBD,,,,0,20180203010000,-1,-1,-1,-1,330,-1,13,-1,-1,300,360,,9999,0,0,3,FEW 30   SCT 70   BKN -9999,1,8,1,0,1017,RJBD 030100Z 33013KT 300V360 9999 FEW030 SCT070 BKN/// 08/00     Q1017 RMK 1CU030 3AC070 A3005=,
20180203_020000.002,0,RJBD,,,,0,20180203020000,-1,-1,-1,-1,330,-1,12,-1,-1,290,350,,9999,0,0,2,FEW 30   BKN -9999,1,8,1,1,1016,RJBD 030200Z 33012KT 290V350 9999 FEW030 BKN/// 08/01 Q1016     RMK 1CU030 A3003=,
20180203_030000.002,0,RJBD,,,,0,20180203030000,-1,-1,-1,-1,320,-1,12,-1,-1,-1,-1,,9999,0,0,2,FEW 25   BKN -9999,1,8,1,1,1016,RJBD 030300Z 32012KT 9999 FEW025 BKN/// 08/01 Q1016 RMK 1CU025     A3000=,
20180203_040000.002,0,RJBD,,,,0,20180203040000,-1,-1,-1,-1,330,-1,11,-1,-1,290,350,,9999,0,0,2,FEW 30   BKN -9999,1,10,1,1,1015,RJBD 030400Z 33011KT 290V350 9999 FEW030 BKN/// 10/01 Q1015     RMK 1CU030 A2998=,
20180203_050000.002,0,RJBD,,,,0,20180203050000,-1,-1,-1,-1,320,-1,15,-1,-1,-1,-1,,9999,0,0,2,FEW 30   BKN -9999,1,10,-1,0,1015,RJBD 030500Z 32015KT 9999 FEW030 BKN/// 10/M00 Q1015 RMK     1CU030 A2997=,
20180203_060000.002,0,RJBD,,,,0,20180203060000,-1,-1,-1,-1,320,-1,16,-1,-1,-1,-1,,9999,0,0,2,FEW 30   BKN 70,1,9,-1,2,1015,RJBD 030600Z 32016KT 9999 FEW030 BKN070 09/M02 Q1015 RMK     1CU030 5AC070 A2998=,
20180203_070000.003,0,RJBD,,,,0,20180203070000,-1,-1,-1,-1,330,-1,14,-1,-1,-1,-1,,9999,0,0,2,FEW 30   BKN 70,1,8,-1,3,1015,RJBD 030700Z 33014KT 9999 FEW030 BKN070 08/M03 Q1015 RMK     1CU030 5AC070 A2999=,
20180203_080000.002,0,RJBD,,,,0,20180203080000,-1,-1,-1,-1,330,-1,14,-1,-1,-1,-1,,9999,0,0,2,FEW 40   SCT 70,1,7,-1,3,1015,RJBD 030800Z 33014KT 9999 FEW040 SCT070 07/M03 Q1015 RMK     1CU040 3AC070 A2999=,
20180203_090000.002,0,RJBD,,,,0,20180203090000,-1,-1,-1,-1,330,-1,14,-1,-1,-1,-1,,9999,0,0,2,FEW 40   SCT 70,1,6,-1,2,1016,RJBD 030900Z 33014KT 9999 FEW040 SCT070 06/M02 Q1016 RMK     1CU040 3AC070 A3000=,
20180203_100000.002,0,RJBD,,,,0,20180203100000,-1,-1,-1,-1,330,-1,13,-1,-1,-1,-1,,9999,0,0,2,FEW 40   BKN 70,1,6,-1,1,1016,RJBD 031000Z 33013KT 9999 FEW040 BKN070 06/M01 Q1016 RMK     1CU040 5AC070 A3001=,
20180203_230000.002,0,RJBD,,,,0,20180203230000,-1,-1,-1,-1,350,-1,11,-1,-1,-1,-1,,9999,0,0,2,FEW 30   BKN 50,1,2,-1,6,1016,RJBD 032300Z 35011KT 9999 FEW030 BKN050 02/M06 Q1016 RMK     1CU030 5SC050 A3003=,
20180204_000000.002,0,RJBD,,,,0,20180204000000,-1,-1,-1,-1,350,-1,11,-1,-1,310,20,,9999,0,0,3,FEW 30   SCT 40   BKN 50,1,4,-1,5,1016,RJBD 040000Z 35011KT 310V020 9999 FEW030 SCT040 BKN050 04/M05     Q1016 RMK 1CU030 3CU040 5SC050 A3003=,
20180204_010000.002,0,RJBD,,,,0,20180204010000,-1,-1,-1,-1,340,-1,13,-1,-1,300,10,,9999,0,0,3,FEW 30   SCT 40   BKN 50,1,5,-1,4,1016,RJBD 040100Z 34013KT 300V010 9999 FEW030 SCT040 BKN050 05/M04     Q1016 RMK 1CU030 3CU040 5SC050 A3002=,
20180204_020000.002,0,RJBD,,,,0,20180204020000,-1,-1,-1,-1,330,-1,15,-1,-1,-1,-1,,9999,0,0,2,FEW 30   SCT 45,1,5,-1,5,1016,RJBD 040200Z 33015KT 9999 FEW030 SCT045 05/M05 Q1016 RMK     1CU030 3CU045 A3001=,
20180204_030000.002,0,RJBD,,,,0,20180204030000,-1,-1,-1,-1,340,-1,17,-1,29,-1,-1,,9999,0,0,2,FEW 25   SCT 35,1,4,-1,4,1015,RJBD 040300Z 34017G29KT 9999 FEW025 SCT035 04/M04 Q1015 RMK     2CU025 3CU035 A2999=,
20180204_040000.002,0,RJBD,,,,0,20180204040000,-1,-1,-1,-1,340,-1,18,-1,-1,-1,-1,,9999,0,0,2,FEW 15   SCT 25,1,4,-1,3,1015,RJBD 040400Z 34018KT 9999 FEW015 SCT025 04/M03 Q1015 RMK     1CU015 3CU025 A2998=,
20180204_050000.002,0,RJBD,,,,0,20180204050000,-1,-1,-1,-1,330,-1,19,-1,-1,-1,-1,,9999,0,0,1,FEW 40,1,4,-1,7,1015,RJBD 040500Z 33019KT 9999 FEW040 04/M07 Q1015 RMK 2CU040     A2997=,
20180204_060000.002,0,RJBD,,,,0,20180204060000,-1,-1,-1,-1,330,-1,20,-1,-1,-1,-1,,9999,0,0,2,FEW 35   SCT 60,1,4,-1,8,1015,RJBD 040600Z 33020KT 9999 FEW035 SCT060 04/M08 Q1015 RMK     1CU035 3SC060 A2998=,
20180204_070000.002,0,RJBD,,,,0,20180204070000,-1,-1,-1,-1,330,-1,20,-1,-1,-1,-1,,9999,0,0,2,FEW 35   SCT 60,1,3,-1,8,1015,RJBD 040700Z 33020KT 9999 FEW035 SCT060 03/M08 Q1015 RMK     1CU035 3SC060 A2999=,
20180204_080000.002,0,RJBD,,,,0,20180204080000,-1,-1,-1,-1,330,-1,18,-1,-1,-1,-1,,9999,0,0,2,FEW 35   SCT 50,1,3,-1,8,1015,RJBD 040800Z 33018KT 9999 FEW035 SCT050 03/M08 Q1015 RMK     1CU035 3SC050 A3000=,
20180204_090000.002,0,RJBD,,,,0,20180204090000,-1,-1,-1,-1,330,-1,15,-1,-1,-1,-1,,9999,0,0,2,FEW 35   SCT 45,1,2,-1,8,1016,RJBD 040900Z 33015KT 9999 FEW035 SCT045 02/M08 Q1016 RMK     1CU035 3CU045 A3000=,
20180204_100000.002,0,RJBD,,,,0,20180204100000,-1,-1,-1,-1,330,-1,14,-1,-1,-1,-1,,9999,0,0,2,FEW 35   BKN 45,1,2,-1,7,1017,RJBD 041000Z 33014KT 9999 FEW035 BKN045 02/M07 Q1017 RMK     1CU035 5CU045 A3005=,
20180204_230000.002,0,RJBD,,,,0,20180204230000,-1,-1,-1,-1,340,-1,15,-1,-1,-1,-1,,9999,0,0,3,FEW 20   SCT 35   BKN -9999,1,2,-1,6,1017,RJBD 042300Z 34015KT 9999 FEW020 SCT035 BKN/// 02/M06 Q1017     RMK 1CU020 3CU035 A3006=,
20180205_000000.003,0,RJBD,,,,0,20180205000000,-1,-1,-1,-1,340,-1,17,-1,-1,-1,-1,,9999,0,0,3,FEW 20   SCT 35   BKN -9999,1,3,-1,7,1017,RJBD 050000Z 34017KT 9999 FEW020 SCT035 BKN/// 03/M07 Q1017     RMK 1CU020 3CU035 A3005=,
20180205_010000.002,0,RJBD,,,,0,20180205010000,-1,-1,-1,-1,330,-1,15,-1,26,-1,-1,,9999,0,0,2,FEW 25   SCT 35,1,3,-1,8,1017,RJBD 050100Z 33015G26KT 9999 FEW025 SCT035 03/M08 Q1017 RMK     1CU025 3CU035 A3006=,
20180205_020000.002,0,RJBD,,,,0,20180205020000,-1,-1,-1,-1,330,-1,17,-1,-1,-1,-1,,9999,0,0,2,FEW 25   SCT 35,1,4,-1,7,1017,RJBD 050200Z 33017KT 9999 FEW025 SCT035 04/M07 Q1017 RMK     1CU025 3CU035 A3005=,
