20180101_000000.002,0,RJBE,,,,0,20180101000000,-1,-1,-1,-1,300,-1,13,-1,-1,-1,-1,,9999,0,0,1,FEW 25,1,6,-1,1,1020,RJBE 010000Z 30013KT 9999 FEW025 06/M01 Q1020 RMK 1CU025     A3013=,
20180101_010000.002,0,RJBE,,,,0,20180101010000,-1,-1,-1,-1,280,-1,14,-1,-1,-1,-1,,9999,0,0,1,FEW 25,1,8,-1,2,1020,RJBE 010100Z 28014KT 9999 FEW025 08/M02 Q1020 RMK 1CU025     A3014=,
20180101_020000.002,0,RJBE,,,,0,20180101020000,-1,-1,-1,-1,290,-1,14,-1,-1,-1,-1,,9999,0,0,1,FEW 25,1,9,-1,3,1020,RJBE 010200Z 29014KT 9999 FEW025 09/M03 Q1020 RMK 1CU025     A3013=,
20180101_030000.002,0,RJBE,,,,0,20180101030000,-1,-1,-1,-1,280,-1,15,-1,-1,-1,-1,,9999,0,0,1,FEW 30,1,9,-1,3,1019,RJBE 010300Z 28015KT 9999 FEW030 09/M03 Q1019 RMK 1CU030     A3010=,
20180101_040000.002,0,RJBE,,,,0,20180101040000,-1,-1,-1,-1,280,-1,14,-1,-1,-1,-1,,9999,0,0,2,FEW 30   SCT 50,1,9,-1,3,1018,RJBE 010400Z 28014KT 9999 FEW030 SCT050 09/M03 Q1018 RMK     1CU030 4SC050 A3009=,
20180101_050000.002,0,RJBE,,,,0,20180101050000,-1,-1,-1,-1,300,-1,20,-1,-1,-1,-1,,9999,0,0,2,FEW 30   SCT 45,1,10,-1,4,1018,RJBE 010500Z 30020KT 9999 FEW030 SCT045 10/M04 Q1018 RMK     1CU030 3CU045 A3008=,
20180101_060000.002,0,RJBE,,,,0,20180101060000,-1,-1,-1,-1,310,-1,10,-1,-1,270,330,,9999,0,0,2,FEW 30   SCT 45,1,9,-1,4,1019,RJBE 010600Z 31010KT 270V330 9999 FEW030 SCT045 09/M04 Q1019     RMK 1CU030 4CU045 A3010=,
20180101_070000.002,0,RJBE,,,,0,20180101070000,-1,-1,-1,-1,290,-1,12,-1,-1,-1,-1,,9999,0,0,3,FEW 30   SCT 50   BKN 70,1,8,-1,4,1019,RJBE 010700Z 29012KT 9999 FEW030 SCT050 BKN070 08/M04 Q1019     RMK 1CU030 4SC050 5AC070 A3010=,
20180101_080000.002,0,RJBE,,,,0,20180101080000,-1,-1,-1,-1,310,-1,9,-1,-1,-1,-1,,9999,0,0,2,FEW 30   SCT 40,1,7,-1,3,1020,RJBE 010800Z 31009KT 9999 FEW030 SCT040 07/M03 Q1020 RMK     1CU030 3CU040 A3012=,
20180101_090000.002,0,RJBE,,,,0,20180101090000,-1,-1,-1,-1,310,-1,12,-1,-1,-1,-1,,9999,0,0,1,FEW 30,1,7,-1,3,1020,RJBE 010900Z 31012KT 9999 FEW030 07/M03 Q1020 RMK 1CU030     A3014=,
20180101_100000.002,0,RJBE,,,,0,20180101100000,-1,-1,-1,-1,290,-1,13,-1,-1,-1,-1,,9999,0,0,2,FEW 30   SCT 70,1,6,-1,3,1021,RJBE 011000Z 29013KT 9999 FEW030 SCT070 06/M03 Q1021 RMK     1CU030 3AC070 A3016=,
20180101_110000.002,0,RJBE,,,,0,20180101110000,-1,-1,-1,-1,280,-1,14,-1,-1,-1,-1,,9999,0,0,2,FEW 30   SCT 70,1,6,-1,2,1021,RJBE 011100Z 28014KT 9999 FEW030 SCT070 06/M02 Q1021 RMK     1CU030 3AC070 A3016=,
20180101_120000.002,0,RJBE,,,,0,20180101120000,-1,-1,-1,-1,290,-1,15,-1,-1,-1,-1,,9999,0,0,2,FEW 30   SCT 70,1,6,-1,2,1021,RJBE 011200Z 29015KT 9999 FEW030 SCT070 06/M02 Q1021 RMK     1CU030 4AC070 A3018=,
20180101_220000.002,0,RJBE,,,,0,20180101220000,-1,-1,-1,-1,290,-1,11,-1,-1,-1,-1,,9999,0,0,2,FEW 20   SCT 50,1,3,-1,2,1023,RJBE 012200Z 29011KT 9999 FEW020 SCT050 03/M02 Q1023 RMK     1CU020 4SC050 A3022=,
20180101_230000.002,0,RJBE,,,,0,20180101230000,-1,-1,-1,-1,300,-1,12,-1,-1,-1,-1,,9999,0,0,1,FEW 30,1,4,-1,1,1024,RJBE 012300Z 30012KT 9999 FEW030 04/M01 Q1024 RMK 1CU030     A3024=,
20180102_000000.003,0,RJBE,,,,0,20180102000000,-1,-1,-1,-1,290,-1,12,-1,-1,-1,-1,,9999,0,0,2,FEW 20   SCT 70,1,5,-1,0,1024,RJBE 020000Z 29012KT 9999 FEW020 SCT070 05/M00 Q1024 RMK     1CU020 3AC070 A3025=,
20180102_010000.003,0,RJBE,,,,0,20180102010000,-1,-1,-1,-1,290,-1,12,-1,-1,-1,-1,,9999,0,0,1,FEW 20,1,8,-1,1,1024,RJBE 020100Z 29012KT 9999 FEW020 08/M01 Q1024 RMK 1CU020     A3025=,
20180102_020000.002,0,RJBE,,,,0,20180102020000,-1,-1,-1,-1,280,-1,11,-1,-1,-1,-1,,9999,0,0,2,FEW 20   SCT 50,1,9,-1,2,1023,RJBE 020200Z 28011KT 9999 FEW020 SCT050 09/M02 Q1023 RMK     1CU020 3SC050 A3023=,
20180102_030000.002,0,RJBE,,,,0,20180102030000,-1,-1,-1,-1,280,-1,10,-1,-1,-1,-1,,9999,0,0,2,FEW 20   SCT 40,1,9,-1,3,1022,RJBE 020300Z 28010KT 9999 FEW020 SCT040 09/M03 Q1022 RMK     1CU020 3CU040 A3018=,
20180102_040000.002,0,RJBE,,,,0,20180102040000,-1,-1,-1,-1,240,-1,12,-1,-1,-1,-1,,9999,0,0,2,FEW 30   SCT 40,1,9,1,0,1021,RJBE 020400Z 24012KT 9999 FEW030 SCT040 09/00 Q1021 RMK 1CU030     3CU040 A3015=,
20180102_050000.002,0,RJBE,,,,0,20180102050000,-1,-1,-1,-1,250,-1,15,-1,-1,-1,-1,,9999,0,0,2,FEW 35   SCT 50,1,9,-1,1,1020,RJBE 020500Z 25015KT 9999 FEW035 SCT050 09/M01 Q1020 RMK     1CU035 3SC050 A3015=,
20180102_060000.002,0,RJBE,,,,0,20180102060000,-1,-1,-1,-1,250,-1,11,-1,-1,-1,-1,,9999,0,0,2,FEW 35   BKN 50,1,10,1,1,1021,RJBE 020600Z 25011KT 9999 FEW035 BKN050 10/01 Q1021 RMK 1CU035     5SC050 A3015=,
20180102_070000.002,0,RJBE,,,,0,20180102070000,-1,-1,-1,-1,250,-1,14,-1,-1,-1,-1,,9999,0,0,2,FEW 35   SCT 50,1,9,1,0,1020,RJBE 020700Z 25014KT 9999 FEW035 SCT050 09/00 Q1020 RMK 1CU035     3SC050 A3014=,
20180102_080000.002,0,RJBE,,,,0,20180102080000,-1,-1,-1,-1,240,-1,13,-1,-1,-1,-1,,9999,0,0,1,FEW 45,1,9,1,2,1020,RJBE 020800Z 24013KT 9999 FEW045 09/02 Q1020 RMK 2CU045 A3013=,
20180102_090000.002,0,RJBE,,,,0,20180102090000,-1,-1,-1,-1,280,-1,13,-1,-1,-1,-1,,9999,0,0,1,FEW 35,1,8,-1,1,1020,RJBE 020900Z 28013KT 9999 FEW035 08/M01 Q1020 RMK 1CU035     A3012=,
20180102_100000.002,0,RJBE,,,,0,20180102100000,-1,-1,-1,-1,290,-1,13,-1,-1,-1,-1,,9999,0,0,1,FEW 30,1,8,-1,1,1020,RJBE 021000Z 29013KT 9999 FEW030 08/M01 Q1020 RMK 2CU030     A3014=,
20180102_110000.002,0,RJBE,,,,0,20180102110000,-1,-1,-1,-1,290,-1,13,-1,-1,-1,-1,,9999,0,0,1,FEW 30,1,7,-1,4,1020,RJBE 021100Z 29013KT 9999 FEW030 07/M04 Q1020 RMK 1CU030     A3014=,
20180102_120000.002,0,RJBE,,,,0,20180102120000,-1,-1,-1,-1,280,-1,16,-1,-1,-1,-1,CAVOK,-1,0,0,0,,1,7,-1,3,1020,RJBE 021200Z 28016KT CAVOK 07/M03 Q1020 RMK A3014=,
20180102_220000.002,0,RJBE,,,,0,20180102220000,-1,-1,-1,-1,290,-1,11,-1,-1,-1,-1,,9999,0,1,3,FEW 20   SCT 45   BKN 60,1,4,1,0,1020,RJBE 022200Z 29011KT 9999 VCSH FEW020 SCT045 BKN060 04/00     Q1020 RMK 1CU020 3CU045 5SC060 A3015=,VC SH
20180102_230000.002,0,RJBE,,,,0,20180102230000,-1,-1,-1,-1,320,-1,10,-1,-1,-1,-1,,9999,0,1,2,FEW 15   SCT 35,1,5,1,1,1021,RJBE 022300Z 32010KT 9999 VCSH FEW015 SCT035 05/01 Q1021 RMK     1CU015 3CU035 A3016=,VC SH
20180103_000000.002,0,RJBE,,,,0,20180103000000,-1,-1,-1,-1,320,-1,10,-1,-1,-1,-1,,9999,0,1,2,FEW 10   SCT 30,1,6,1,0,1022,RJBE 030000Z 32010KT 9999 -SHRA FEW010 SCT030 06/00 Q1022 RMK     1CU010 3CU030 A3018=,- RA SH
20180103_010000.002,0,RJBE,,,,0,20180103010000,-1,-1,-1,-1,330,-1,7,-1,-1,310,10,,9999,0,1,3,FEW 10   SCT 25   BKN 40,1,7,-1,0,1022,RJBE 030100Z 33007KT 310V010 9999 VCSH FEW010 SCT025 BKN040     07/M00 Q1022 RMK 1CU010 3CU025 5CU040 A3019=,VC SH
20180103_020000.002,0,RJBE,,,,0,20180103020000,-1,-1,-1,-1,360,-1,12,-1,-1,-1,-1,,9999,0,1,3,FEW 10   BKN 25   BKN 35,1,6,-1,2,1021,RJBE 030200Z 36012KT 9999 -SHRA FEW010 BKN025 BKN035 06/M02     Q1021 RMK 1CU010 5CU025 6CU035 A3018=,- RA SH
20180103_030000.003,0,RJBE,,,,0,20180103030000,-1,-1,-1,-1,350,-1,13,-1,-1,-1,-1,,9999,0,1,3,FEW 10   BKN 20   BKN 30,1,5,-1,0,1022,RJBE 030300Z 35013KT 9999 -SHRA FEW010 BKN020 BKN030 05/M00     Q1022 RMK 1CU010 5CU020 6CU030 A3018=,- RA SH
20180103_040000.002,0,RJBE,,,,0,20180103040000,-1,-1,-1,-1,360,-1,10,-1,-1,-1,-1,,9999,0,1,3,FEW 8   SCT 15   BKN 35,1,6,-1,2,1021,RJBE 030400Z 36010KT 9999 -SHRA FEW008 SCT015 BKN035 06/M02     Q1021 RMK 1CU008 3CU015 6CU035 A3015=,- RA SH
20180103_050000.002,0,RJBE,,,,0,20180103050000,-1,-1,-1,-1,340,-1,16,-1,-1,-1,-1,,9999,0,1,2,FEW 15   SCT 35,1,7,-1,3,1020,RJBE 030500Z 34016KT 9999 VCSH FEW015 SCT035 07/M03 Q1020 RMK     1CU015 4CU035 A3014=,VC SH
20180103_060000.002,0,RJBE,,,,0,20180103060000,-1,-1,-1,-1,320,-1,13,-1,-1,-1,-1,,9999,0,1,2,FEW 20   SCT 35,1,7,-1,4,1021,RJBE 030600Z 32013KT 9999 VCSH FEW020 SCT035 07/M04 Q1021 RMK     1CU020 3CU035 A3016=,VC SH
20180103_070000.002,0,RJBE,,,,0,20180103070000,-1,-1,-1,-1,350,-1,13,-1,-1,-1,-1,,9999,0,0,1,FEW 35,1,6,-1,4,1021,RJBE 030700Z 35013KT 9999 FEW035 06/M04 Q1021 RMK 2CU035     A3018=,
20180103_080000.002,0,RJBE,,,,0,20180103080000,-1,-1,-1,-1,330,-1,12,-1,-1,-1,-1,,9999,0,0,1,FEW 35,1,5,-1,4,1022,RJBE 030800Z 33012KT 9999 FEW035 05/M04 Q1022 RMK 2CU035     A3018=,
20180103_090000.002,0,RJBE,,,,0,20180103090000,-1,-1,-1,-1,350,-1,12,-1,-1,-1,-1,,9999,0,0,1,FEW 30,1,4,-1,3,1022,RJBE 030900Z 35012KT 9999 FEW030 04/M03 Q1022 RMK 1CU030     A3020=,
20180103_100000.002,0,RJBE,,,,0,20180103100000,-1,-1,-1,-1,330,-1,10,-1,-1,-1,-1,,9999,0,0,1,FEW 30,1,3,-1,3,1023,RJBE 031000Z 33010KT 9999 FEW030 03/M03 Q1023 RMK 1CU030     A3021=,
20180103_110000.002,0,RJBE,,,,0,20180103110000,-1,-1,-1,-1,330,-1,8,-1,-1,-1,-1,,9999,0,0,1,FEW 30,1,3,-1,2,1023,RJBE 031100Z 33008KT 9999 FEW030 03/M02 Q1023 RMK 1CU030     A3022=,
20180103_120000.002,0,RJBE,,,,0,20180103120000,-1,-1,-1,-1,300,-1,6,-1,-1,-1,-1,,9999,0,0,1,FEW 30,1,3,-1,2,1023,RJBE 031200Z 30006KT 9999 FEW030 03/M02 Q1023 RMK 1CU030     A3022=,
20180103_220000.002,0,RJBE,,,,0,20180103220000,-1,-1,-1,-1,310,-1,5,-1,-1,-1,-1,,9999,0,0,1,FEW 30,1,1,-1,4,1023,RJBE 032200Z 31005KT 9999 FEW030 01/M04 Q1023 RMK 1CU030     A3023=,
20180103_230000.002,0,RJBE,,,,0,20180103230000,-1,-1,-1,-1,300,-1,6,-1,-1,270,330,,9999,0,0,1,FEW 30,1,2,-1,1,1023,RJBE 032300Z 30006KT 270V330 9999 FEW030 02/M01 Q1023 RMK     1CU030 A3023=,
20180104_000000.002,0,RJBE,,,,0,20180104000000,-1,-1,-1,-1,290,-1,5,-1,-1,250,330,,9999,0,0,1,SCT 30,1,4,-1,1,1023,RJBE 040000Z 29005KT 250V330 9999 SCT030 04/M01 Q1023 RMK     3CU030 A3023=,
20180104_010000.002,0,RJBE,,,,0,20180104010000,-1,-1,-1,-1,240,-1,3,-1,-1,180,340,,9999,0,0,1,SCT 30,1,6,-1,1,1023,RJBE 040100Z 24003KT 180V340 9999 SCT030 06/M01 Q1023 RMK     4CU030 A3023=,
20180104_020000.002,0,RJBE,,,,0,20180104020000,-1,-1,-1,-1,200,-1,3,-1,-1,150,290,,9999,0,0,1,SCT 35,1,7,-1,1,1023,RJBE 040200Z 20003KT 150V290 9999 SCT035 07/M01 Q1023 RMK     4CU035 A3021=,
20180104_030000.002,0,RJBE,,,,0,20180104030000,-1,-1,-1,-1,130,-1,7,-1,-1,-1,-1,,9999,0,0,1,BKN 35,1,6,-1,1,1022,RJBE 040300Z 13007KT 9999 BKN035 06/M01 Q1022 RMK 6CU035     A3018=,
20180104_040000.002,0,RJBE,,,,0,20180104040000,-1,-1,-1,-1,999,-1,3,-1,-1,-1,-1,,9999,0,0,1,BKN 35,1,6,-1,2,1020,RJBE 040400Z VRB03KT 9999 BKN035 06/M02 Q1020 RMK 6CU035     A3015=,
20180104_050000.002,0,RJBE,,,,0,20180104050000,-1,-1,-1,-1,270,-1,10,-1,-1,-1,-1,,9999,0,1,2,FEW 25   BKN 35,1,8,-1,0,1020,RJBE 040500Z 27010KT 9999 VCSH FEW025 BKN035 08/M00 Q1020 RMK     1CU025 5CU035 A3013=,VC SH
20180104_060000.003,0,RJBE,,,,0,20180104060000,-1,-1,-1,-1,250,-1,10,-1,-1,-1,-1,,9999,0,1,2,FEW 30   BKN 40,1,8,-1,0,1020,RJBE 040600Z 25010KT 9999 -SHRA FEW030 BKN040 08/M00 Q1020 RMK     1CU030 6CU040 A3014=,- RA SH
20180104_070000.002,0,RJBE,,,,0,20180104070000,-1,-1,-1,-1,320,-1,8,-1,-1,-1,-1,,9999,0,0,2,FEW 30   SCT 40,1,7,-1,1,1020,RJBE 040700Z 32008KT 9999 FEW030 SCT040 07/M01 Q1020 RMK     1CU030 3CU040 A3014=,
20180104_080000.002,0,RJBE,,,,0,20180104080000,-1,-1,-1,-1,290,-1,7,-1,-1,-1,-1,,9999,0,0,3,FEW 25   SCT 40   BKN -9999,1,6,-1,2,1021,RJBE 040800Z 29007KT 9999 FEW025 SCT040 BKN/// 06/M02 Q1021     RMK 1CU025 3CU040 A3016=,
20180104_090000.002,0,RJBE,,,,0,20180104090000,-1,-1,-1,-1,330,-1,6,-1,-1,-1,-1,,9999,0,0,2,FEW 25   SCT -9999,1,5,-1,1,1021,RJBE 040900Z 33006KT 9999 FEW025 SCT/// 05/M01 Q1021 RMK     2CU025 A3016=,
20180104_100000.002,0,RJBE,,,,0,20180104100000,-1,-1,-1,-1,340,-1,6,-1,-1,-1,-1,,9999,0,0,3,FEW 25   SCT 50   BKN 170,1,5,-1,1,1021,RJBE 041000Z 34006KT 9999 FEW025 SCT050 BKN170 05/M01 Q1021     RMK 1CU025 3SC050 5AC170 A3016=,
20180104_110000.002,0,RJBE,,,,0,20180104110000,-1,-1,-1,-1,20,-1,4,-1,-1,-1,-1,,9999,0,0,2,FEW 25   BKN 170,1,5,-1,1,1021,RJBE 041100Z 02004KT 9999 FEW025 BKN170 05/M01 Q1021 RMK     1CU025 6AC170 A3018=,
20180104_120000.003,0,RJBE,,,,0,20180104120000,-1,-1,-1,-1,330,-1,5,-1,-1,280,360,,9999,0,0,3,FEW 30   SCT 70   BKN 160,1,4,-1,1,1021,RJBE 041200Z 33005KT 280V360 9999 FEW030 SCT070 BKN160 04/M01     Q1021 RMK 1CU030 3AC070 5AC160 A3017=,
20180104_220000.002,0,RJBE,,,,0,20180104220000,-1,-1,-1,-1,70,-1,8,-1,-1,-1,-1,,9999,0,1,3,FEW 15   SCT 35   BKN 60,1,4,1,1,1018,RJBE 042200Z 07008KT 9999 VCSH FEW015 SCT035 BKN060 04/01     Q1018 RMK 1CU015 3CU035 5SC060 A3008=,VC SH
20180104_230000.002,0,RJBE,,,,0,20180104230000,-1,-1,-1,-1,50,-1,7,-1,-1,-1,-1,,9999,0,1,3,FEW 8   SCT 25   BKN 50,1,4,1,1,1018,RJBE 042300Z 05007KT 9999 -SHRA FEW008 SCT025 BKN050 04/01     Q1018 RMK 1ST008 3CU025 6SC050 A3008=,- RA SH
20180105_000000.002,0,RJBE,,,,0,20180105000000,-1,-1,-1,-1,60,-1,4,-1,-1,-1,-1,,9999,0,1,3,FEW 8   SCT 30   BKN 50,1,4,1,2,1018,RJBE 050000Z 06004KT 9999 -SHRA FEW008 SCT030 BKN050 04/02     Q1018 RMK 1ST008 4CU030 6SC050 A3007=,- RA SH
20180105_010000.003,0,RJBE,,,,0,20180105010000,-1,-1,-1,-1,70,-1,4,-1,-1,-1,-1,,9999,0,1,3,FEW 10   SCT 30   BKN 50,1,4,1,2,1018,RJBE 050100Z 07004KT 9999 VCSH FEW010 SCT030 BKN050 04/02     Q1018 RMK 1CU010 3CU030 5SC050 A3008=,VC SH
20180105_020000.002,0,RJBE,,,,0,20180105020000,-1,-1,-1,-1,70,-1,4,-1,-1,30,90,,9999,0,1,3,FEW 12   SCT 50   OVC 80,1,4,1,2,1018,RJBE 050200Z 07004KT 030V090 9999 -RA FEW012 SCT050 OVC080     04/02 Q1018 RMK 2CU012 4SC050 8AS080 A3007=,- RA
20180105_030000.002,0,RJBE,,,,0,20180105030000,-1,-1,-1,-1,999,-1,1,-1,-1,-1,-1,,9999,0,1,3,FEW 8   SCT 25   BKN 45,1,4,1,2,1016,RJBE 050300Z VRB01KT 9999 -RA FEW008 SCT025 BKN045 04/02 Q1016     RMK 1ST008 3CU025 5SC045 A3003=,- RA
20180105_040000.002,0,RJBE,,,,0,20180105040000,-1,-1,-1,-1,999,-1,2,-1,-1,-1,-1,,9999,0,1,3,FEW 8   SCT 30   BKN 45,1,4,1,1,1016,RJBE 050400Z VRB02KT 9999 -RA FEW008 SCT030 BKN045 04/01 Q1016     RMK 1ST008 3CU030 6SC045 A3001=,- RA
20180105_050000.002,0,RJBE,,,,0,20180105050000,-1,-1,-1,-1,999,-1,2,-1,-1,-1,-1,,9999,0,1,3,FEW 8   SCT 25   BKN 40,1,4,1,2,1015,RJBE 050500Z VRB02KT 9999 -RA FEW008 SCT025 BKN040 04/02 Q1015     RMK 1ST008 3CU025 7SC040 A3000=,- RA
20180105_060000.002,0,RJBE,,,,0,20180105060000,-1,-1,-1,-1,130,-1,4,-1,-1,80,170,,9999,0,1,3,FEW 10   SCT 25   BKN 50,1,4,1,2,1016,RJBE 050600Z 13004KT 080V170 9999 -RA FEW010 SCT025 BKN050     04/02 Q1016 RMK 1CU010 3CU025 7SC050 A3000=,- RA
20180105_070000.002,0,RJBE,,,,0,20180105070000,-1,-1,-1,-1,110,-1,3,-1,-1,70,150,,9999,0,0,3,FEW 12   SCT 15   BKN 20,1,5,1,2,1015,RJBE 050700Z 11003KT 070V150 9999 FEW012 SCT015 BKN020 05/02     Q1015 RMK 1CU012 3CU015 5CU020 A2997=,
20180105_080000.002,0,RJBE,,,,0,20180105080000,-1,-1,-1,-1,999,-1,2,-1,-1,-1,-1,,9999,0,0,3,FEW 8   SCT 15   BKN 20,1,4,1,1,1015,RJBE 050800Z VRB02KT 9999 FEW008 SCT015 BKN020 04/01 Q1015 RMK     1CU008 4CU015 6CU020 A2998=,
20180105_090000.002,0,RJBE,,,,0,20180105090000,-1,-1,-1,-1,0,-1,0,-1,-1,-1,-1,,9999,0,0,2,FEW 15   SCT 20,1,4,1,1,1015,RJBE 050900Z 00000KT 9999 FEW015 SCT020 04/01 Q1015 RMK 1CU015     3CU020 A2998=,
20180105_100000.002,0,RJBE,,,,0,20180105100000,-1,-1,-1,-1,999,-1,2,-1,-1,-1,-1,,9999,0,0,2,FEW 15   SCT 70,1,3,1,1,1015,RJBE 051000Z VRB02KT 9999 FEW015 SCT070 03/01 Q1015 RMK 1CU015     3AC070 A2998=,
20180105_110000.002,0,RJBE,,,,0,20180105110000,-1,-1,-1,-1,340,-1,4,-1,-1,-1,-1,,9999,0,0,2,FEW 15   SCT 70,1,3,1,1,1015,RJBE 051100Z 34004KT 9999 FEW015 SCT070 03/01 Q1015 RMK 1CU015     3AC070 A2998=,
20180105_120000.002,0,RJBE,,,,0,20180105120000,-1,-1,-1,-1,40,-1,3,-1,-1,360,60,,9999,0,0,1,FEW 15,1,4,1,2,1014,RJBE 051200Z 04003KT 360V060 9999 FEW015 04/02 Q1014 RMK     1CU015 A2997=,
20180105_220000.002,0,RJBE,,,,0,20180105220000,-1,-1,-1,-1,50,-1,3,-1,-1,-1,-1,,9999,0,0,3,FEW 10   BKN 30   BKN 80,1,3,1,2,1014,RJBE 052200Z 05003KT 9999 FEW010 BKN030 BKN080 03/02 Q1014 RMK     1ST010 5CU030 7AC080 A2995=,
20180105_230000.002,0,RJBE,,,,0,20180105230000,-1,-1,-1,-1,40,-1,3,-1,-1,-1,-1,,9999,0,0,3,FEW 15   SCT 25   BKN 50,1,4,1,3,1014,RJBE 052300Z 04003KT 9999 FEW015 SCT025 BKN050 04/03 Q1014 RMK     1CU015 3CU025 5SC050 A2995=,
20180106_000000.002,0,RJBE,,,,0,20180106000000,-1,-1,-1,-1,999,-1,2,-1,-1,-1,-1,,9999,0,0,2,FEW 20   BKN 50,1,6,1,4,1014,RJBE 060000Z VRB02KT 9999 FEW020 BKN050 06/04 Q1014 RMK 1CU020     5SC050 A2997=,
20180106_010000.002,0,RJBE,,,,0,20180106010000,-1,-1,-1,-1,280,-1,11,-1,-1,-1,-1,,9999,0,0,2,FEW 20   SCT 80,1,9,1,4,1015,RJBE 060100Z 28011KT 9999 FEW020 SCT080 09/04 Q1015 RMK 2CU020     3AC080 A2998=,
20180106_020000.002,0,RJBE,,,,0,20180106020000,-1,-1,-1,-1,270,-1,17,-1,-1,-1,-1,,9999,0,0,2,FEW 20   SCT 30,1,9,1,2,1014,RJBE 060200Z 27017KT 9999 FEW020 SCT030 09/02 Q1014 RMK 1CU020     3CU030 A2997=,
20180106_030000.002,0,RJBE,,,,0,20180106030000,-1,-1,-1,-1,290,-1,13,-1,-1,-1,-1,,9999,0,0,2,FEW 20   BKN 30,1,9,1,1,1014,RJBE 060300Z 29013KT 9999 FEW020 BKN030 09/01 Q1014 RMK 1CU020     5CU030 A2995=,
20180106_040000.002,0,RJBE,,,,0,20180106040000,-1,-1,-1,-1,280,-1,13,-1,-1,-1,-1,,9999,0,0,2,FEW 25   BKN 35,1,11,1,1,1013,RJBE 060400Z 28013KT 9999 FEW025 BKN035 11/01 Q1013 RMK 1CU025     5CU035 A2994=,
20180106_050000.002,0,RJBE,,,,0,20180106050000,-1,-1,-1,-1,280,-1,13,-1,-1,-1,-1,,9999,0,0,3,FEW 25   SCT 40   BKN 50,1,10,1,1,1014,RJBE 060500Z 28013KT 9999 FEW025 SCT040 BKN050 10/01 Q1014 RMK     1CU025 4CU040 5SC050 A2994=,
20180106_060000.002,0,RJBE,,,,0,20180106060000,-1,-1,-1,-1,300,-1,12,-1,-1,-1,-1,,9999,0,0,3,FEW 25   BKN 40   BKN 50,1,9,1,0,1014,RJBE 060600Z 30012KT 9999 FEW025 BKN040 BKN050 09/00 Q1014 RMK     1CU025 5CU040 6SC050 A2995=,
20180106_070000.002,0,RJBE,,,,0,20180106070000,-1,-1,-1,-1,310,-1,14,-1,-1,-1,-1,,9999,0,1,3,FEW 20   SCT 40   BKN 50,1,10,-1,1,1014,RJBE 060700Z 31014KT 9999 VCSH FEW020 SCT040 BKN050 10/M01     Q1014 RMK 1CU020 4CU040 5SC050 A2997=,VC SH
20180106_080000.002,0,RJBE,,,,0,20180106080000,-1,-1,-1,-1,320,-1,12,-1,-1,-1,-1,,9999,0,1,2,FEW 25   SCT 50,1,8,-1,2,1015,RJBE 060800Z 32012KT 9999 VCSH FEW025 SCT050 08/M02 Q1015 RMK     1CU025 4SC050 A3000=,VC SH
20180106_090000.002,0,RJBE,,,,0,20180106090000,-1,-1,-1,-1,350,-1,11,-1,-1,-1,-1,,9999,0,0,2,FEW 20   SCT 50,1,7,-1,0,1016,RJBE 060900Z 35011KT 9999 FEW020 SCT050 07/M00 Q1016 RMK     1CU020 3SC050 A3002=,
20180106_100000.002,0,RJBE,,,,0,20180106100000,-1,-1,-1,-1,340,-1,15,-1,-1,-1,-1,,9999,0,0,2,FEW 20   SCT 70,1,6,1,0,1016,RJBE 061000Z 34015KT 9999 FEW020 SCT070 06/00 Q1016 RMK 1CU020     3AC070 A3002=,
20180106_110000.002,0,RJBE,,,,0,20180106110000,-1,-1,-1,-1,330,-1,10,-1,-1,-1,-1,,9999,0,0,2,FEW 25   SCT 50,1,5,1,1,1019,RJBE 061100Z 33010KT 9999 FEW025 SCT050 05/01 Q1019 RMK 1CU025     3SC050 A3010 P/RR=,
20180106_120000.002,0,RJBE,,,,0,20180106120000,-1,-1,-1,-1,310,-1,9,-1,-1,-1,-1,,9999,0,0,2,FEW 25   SCT 50,1,5,1,1,1020,RJBE 061200Z 31009KT 9999 FEW025 SCT050 05/01 Q1020 RMK 1CU025     3SC050 A3013=,
20180106_220000.002,0,RJBE,,,,0,20180106220000,-1,-1,-1,-1,320,-1,6,-1,-1,-1,-1,,9999,0,0,2,FEW 30   BKN 50,1,4,-1,1,1022,RJBE 062200Z 32006KT 9999 FEW030 BKN050 04/M01 Q1022 RMK     1CU030 6SC050 A3020=,
20180106_230000.002,0,RJBE,,,,0,20180106230000,-1,-1,-1,-1,310,-1,6,-1,-1,260,330,,9999,0,0,3,FEW 20   SCT 50   BKN -9999,1,5,-1,1,1022,RJBE 062300Z 31006KT 260V330 9999 FEW020 SCT050 BKN/// 05/M01     Q1022 RMK 1CU020 3SC050 A3021=,
20180107_000000.002,0,RJBE,,,,0,20180107000000,-1,-1,-1,-1,280,-1,7,-1,-1,-1,-1,,9999,0,0,2,FEW 20   BKN -9999,1,7,-1,1,1023,RJBE 070000Z 28007KT 9999 FEW020 BKN/// 07/M01 Q1023 RMK     1CU020 A3023=,
20180107_010000.003,0,RJBE,,,,0,20180107010000,-1,-1,-1,-1,280,-1,6,-1,-1,-1,-1,,9999,0,0,3,FEW 20   SCT 45   BKN -9999,1,8,-1,1,1024,RJBE 070100Z 28006KT 9999 FEW020 SCT045 BKN/// 08/M01 Q1024     RMK 2CU020 3CU045 A3024=,
20180107_020000.002,0,RJBE,,,,0,20180107020000,-1,-1,-1,-1,230,-1,4,-1,-1,160,260,,9999,0,0,2,FEW 25   BKN 45,1,7,-1,1,1024,RJBE 070200Z 23004KT 160V260 9999 FEW025 BKN045 07/M01 Q1024     RMK 1CU025 6SC045 A3024=,
20180107_030000.002,0,RJBE,,,,0,20180107030000,-1,-1,-1,-1,170,-1,7,-1,-1,-1,-1,,9999,0,0,2,FEW 25   BKN 45,1,8,-1,1,1023,RJBE 070300Z 17007KT 9999 FEW025 BKN045 08/M01 Q1023 RMK     1CU025 7SC045 A3022=,
20180107_040000.002,0,RJBE,,,,0,20180107040000,-1,-1,-1,-1,150,-1,6,-1,-1,-1,-1,,9999,0,0,3,FEW 30   BKN 45   BKN -9999,1,8,-1,0,1022,RJBE 070400Z 15006KT 9999 FEW030 BKN045 BKN/// 08/M00 Q1022     RMK 1CU030 6SC045 A3020=,
20180107_050000.002,0,RJBE,,,,0,20180107050000,-1,-1,-1,-1,120,-1,5,-1,-1,-1,-1,,9999,0,0,2,FEW 45   BKN -9999,1,8,-1,1,1021,RJBE 070500Z 12005KT 9999 FEW045 BKN/// 08/M01 Q1021 RMK     1SC045 A3017=,
20180107_060000.002,0,RJBE,,,,0,20180107060000,-1,-1,-1,-1,140,-1,4,-1,-1,-1,-1,CAVOK,-1,0,0,0,,1,8,-1,1,1021,RJBE 070600Z 14004KT CAVOK 08/M01 Q1021 RMK A3017=,
20180107_070000.002,0,RJBE,,,,0,20180107070000,-1,-1,-1,-1,210,-1,3,-1,-1,-1,-1,CAVOK,-1,0,0,0,,1,8,-1,0,1022,RJBE 070700Z 21003KT CAVOK 08/M00 Q1022 RMK A3019=,
20180107_080000.002,0,RJBE,,,,0,20180107080000,-1,-1,-1,-1,260,-1,2,-1,-1,-1,-1,CAVOK,-1,0,0,0,,1,7,-1,1,1022,RJBE 070800Z 26002KT CAVOK 07/M01 Q1022 RMK A3020=,
20180107_090000.002,0,RJBE,,,,0,20180107090000,-1,-1,-1,-1,50,-1,3,-1,-1,10,90,CAVOK,-1,0,0,0,,1,7,-1,2,1022,RJBE 070900Z 05003KT 010V090 CAVOK 07/M02 Q1022 RMK A3021=,
20180107_100000.002,0,RJBE,,,,0,20180107100000,-1,-1,-1,-1,50,-1,8,-1,-1,-1,-1,CAVOK,-1,0,0,0,,1,7,-1,2,1022,RJBE 071000Z 05008KT CAVOK 07/M02 Q1022 RMK A3021=,
20180107_110000.002,0,RJBE,,,,0,20180107110000,-1,-1,-1,-1,50,-1,7,-1,-1,-1,-1,CAVOK,-1,0,0,0,,1,7,-1,2,1023,RJBE 071100Z 05007KT CAVOK 07/M02 Q1023 RMK A3021=,
20180107_120000.003,0,RJBE,,,,0,20180107120000,-1,-1,-1,-1,60,-1,7,-1,-1,-1,-1,CAVOK,-1,0,0,0,,1,7,-1,1,1022,RJBE 071200Z 06007KT CAVOK 07/M01 Q1022 RMK A3020=,
20180107_220000.002,0,RJBE,,,,0,20180107220000,-1,-1,-1,-1,60,-1,15,-1,-1,-1,-1,,9999,0,1,3,FEW 12   SCT 35   BKN 45,1,5,1,3,1017,RJBE 072200Z 06015KT 9999 -RA FEW012 SCT035 BKN045 05/03 Q1017     RMK 1ST012 3SC035 7SC045 A3005=,- RA
20180107_230000.002,0,RJBE,,,,0,20180107230000,-1,-1,-1,-1,50,-1,17,-1,-1,-1,-1,,9999,0,1,3,FEW 10   BKN 50   BKN 90,1,6,1,4,1017,RJBE 072300Z 05017KT 9999 -RA FEW010 BKN050 BKN090 06/04 Q1017     RMK 1ST010 5SC050 7AS090 A3004=,- RA
20180108_000000.002,0,RJBE,,,,0,20180108000000,-1,-1,-1,-1,50,-1,18,-1,-1,-1,-1,,9999,0,0,3,FEW 12   BKN 45   BKN 100,1,6,1,4,1015,RJBE 080000Z 05018KT 9999 FEW012 BKN045 BKN100 06/04 Q1015 RMK     1ST012 6SC045 7AC100 A2998=,
20180108_010000.002,0,RJBE,,,,0,20180108010000,-1,-1,-1,-1,50,-1,19,-1,-1,-1,-1,,9999,0,0,3,FEW 8   BKN 45   BKN 100,1,7,1,5,1013,RJBE 080100Z 05019KT 9999 FEW008 BKN045 BKN100 07/05 Q1013 RMK     1ST008 6SC045 7AC100 A2994=,
20180108_020000.002,0,RJBE,,,,0,20180108020000,-1,-1,-1,-1,50,-1,18,-1,-1,-1,-1,,9999,0,1,3,FEW 8   BKN 45   OVC 90,1,7,1,5,1012,RJBE 080200Z 05018KT 9999 -RA FEW008 BKN045 OVC090 07/05 Q1012     RMK 1ST008 7SC045 8AS090 A2988=,- RA
20180108_030000.002,0,RJBE,,,,0,20180108030000,-1,-1,-1,-1,50,-1,17,-1,-1,-1,-1,,9999,0,1,2,FEW 8   BKN 40,1,7,1,5,1010,RJBE 080300Z 05017KT 9999 RA FEW008 BKN040 07/05 Q1010 RMK     1ST008 7SC040 A2983=,RA
20180108_040000.002,0,RJBE,,,,0,20180108040000,-1,-1,-1,-1,50,-1,18,-1,-1,-1,-1,,9999,0,1,3,FEW 8   BKN 40   BKN 60,1,8,1,6,1008,RJBE 080400Z 05018KT 9999 -RA FEW008 BKN040 BKN060 08/06 Q1008     RMK 1ST008 6SC040 7SC060 A2977=,- RA
20180108_050000.002,0,RJBE,,,,0,20180108050000,-1,-1,-1,-1,50,-1,16,-1,-1,-1,-1,,9999,0,1,3,FEW 8   SCT 40   BKN 60,1,8,1,7,1007,RJBE 080500Z 05016KT 9999 -RA FEW008 SCT040 BKN060 08/07 Q1007     RMK 1ST008 4SC040 7SC060 A2975=,- RA
20180108_060000.003,0,RJBE,,,,0,20180108060000,-1,-1,-1,-1,50,-1,17,-1,-1,-1,-1,,9999,0,1,3,FEW 8   SCT 35   BKN 50,1,9,1,7,1006,RJBE 080600Z 05017KT 9999 -RA FEW008 SCT035 BKN050 09/07 Q1006     RMK 1ST008 3SC035 7SC050 A2972=,- RA
20180108_070000.002,0,RJBE,,,,0,20180108070000,-1,-1,-1,-1,50,-1,14,-1,-1,-1,-1,,9999,0,1,3,FEW 4   SCT 30   BKN 50,1,10,1,8,1006,RJBE 080700Z 05014KT 9999 VCSH FEW004 SCT030 BKN050 10/08     Q1006 RMK 1ST004 4CU030 7SC050 A2971=,VC SH
20180108_080000.002,0,RJBE,,,,0,20180108080000,-1,-1,-1,-1,60,-1,16,-1,-1,-1,-1,,9999,0,1,3,FEW 4   SCT 20   BKN 35,1,10,1,9,1005,RJBE 080800Z 06016KT 9999 -SHRA FEW004 SCT020 BKN035 10/09     Q1005 RMK 1ST004 3CU020 6CU035 A2970=,- RA SH
20180108_090000.002,0,RJBE,,,,0,20180108090000,-1,-1,-1,-1,60,-1,17,-1,-1,-1,-1,,9999,0,1,3,FEW 5   SCT 20   BKN 80,1,10,1,9,1005,RJBE 080900Z 06017KT 9999 -SHRA FEW005 SCT020 BKN080 10/09     Q1005 RMK 1ST005 4CU020 7AC080 A2969=,- RA SH
20180108_100000.002,0,RJBE,,,,0,20180108100000,-1,-1,-1,-1,60,-1,14,-1,-1,-1,-1,,9999,0,1,3,FEW 4   SCT 15   BKN 20,1,10,1,9,1004,RJBE 081000Z 06014KT 9999 -SHRA FEW004 SCT015 BKN020 10/09     Q1004 RMK 1ST004 3CU015 6CU020 A2967=,- RA SH
20180108_110000.002,0,RJBE,,,,0,20180108110000,-1,-1,-1,-1,50,-1,10,-1,-1,-1,-1,,8000,0,1,2,FEW 5   BKN 16,1,10,1,9,1004,RJBE 081100Z 05010KT 8000 -SHRA FEW005 BKN016 10/09 Q1004 RMK     1ST005 7CU016 A2967 P/RR=,- RA SH
20180108_120000.002,0,RJBE,,,,0,20180108120000,-1,-1,-1,-1,70,-1,11,-1,-1,-1,-1,,9999,0,1,3,FEW 8   SCT 15   BKN 35,1,10,1,9,1002,RJBE 081200Z 07011KT 9999 -SHRA FEW008 SCT015 BKN035 10/09     Q1002 RMK 1ST008 4CU015 7CU035 A2961 P/FR=,- RA SH
20180108_220000.002,0,RJBE,,,,0,20180108220000,-1,-1,-1,-1,270,-1,23,-1,-1,-1,-1,,9999,0,0,3,FEW 20   BKN 60   BKN -9999,1,9,1,4,1003,RJBE 082200Z 27023KT 9999 FEW020 BKN060 BKN/// 09/04 Q1003 RMK     1CU020 5SC060 A2963=,
20180108_230000.003,0,RJBE,,,,0,20180108230000,-1,-1,-1,-1,270,-1,18,-1,-1,-1,-1,,9999,0,0,2,FEW 30   BKN 60,1,9,1,2,1003,RJBE 082300Z 27018KT 9999 FEW030 BKN060 09/02 Q1003 RMK 1CU030     5SC060 A2964=,
20180109_000000.002,0,RJBE,,,,0,20180109000000,-1,-1,-1,-1,270,-1,27,-1,37,-1,-1,,9999,0,1,2,FEW 30   BKN 60,1,9,1,2,1005,RJBE 090000Z 27027G37KT 9999 VCSH FEW030 BKN060 09/02 Q1005     RMK 1CU030 6SC060 A2968=,VC SH
20180109_010000.002,0,RJBE,,,,0,20180109010000,-1,-1,-1,-1,260,-1,26,-1,-1,-1,-1,,9999,0,0,1,FEW 30,1,9,1,2,1006,RJBE 090100Z 26026KT 9999 FEW030 09/02 Q1006 RMK 1CU030 A2971=,
20180109_020000.002,0,RJBE,,,,0,20180109020000,-1,-1,-1,-1,270,-1,21,-1,-1,-1,-1,,9999,0,1,2,FEW 25   BKN 40,1,8,1,1,1005,RJBE 090200Z 27021KT 9999 -SHRA FEW025 BKN040 08/01 Q1005 RMK     1CU025 7CU040 A2969=,- RA SH
20180109_030000.002,0,RJBE,,,,0,20180109030000,-1,-1,-1,-1,270,-1,28,-1,-1,-1,-1,,9999,0,0,2,FEW 25   BKN 40,1,10,-1,2,1004,RJBE 090300Z 27028KT 9999 FEW025 BKN040 10/M02 Q1004 RMK     1CU025 5CU040 A2967=,
20180109_040000.002,0,RJBE,,,,0,20180109040000,-1,-1,-1,-1,260,-1,29,-1,-1,-1,-1,,9999,0,1,2,FEW 30   BKN 50,1,9,-1,1,1004,RJBE 090400Z 26029KT 9999 -SHRA FEW030 BKN050 09/M01 Q1004 RMK     1CU030 6SC050 A2967=,- RA SH
20180109_050000.002,0,RJBE,,,,0,20180109050000,-1,-1,-1,-1,270,-1,25,-1,-1,-1,-1,,9999,0,1,3,FEW 25   SCT 35   BKN 50,1,8,-1,2,1005,RJBE 090500Z 27025KT 9999 -SHRA FEW025 SCT035 BKN050 08/M02     Q1005 RMK 1CU025 3CU035 6SC050 A2968=,- RA SH
20180109_060000.002,0,RJBE,,,,0,20180109060000,-1,-1,-1,-1,270,-1,24,-1,-1,-1,-1,,9999,0,0,2,FEW 20   SCT 35,1,7,-1,1,1006,RJBE 090600Z 27024KT 9999 FEW020 SCT035 07/M01 Q1006 RMK     1CU020 4CU035 A2972=,
20180109_070000.002,0,RJBE,,,,0,20180109070000,-1,-1,-1,-1,290,-1,10,-1,-1,-1,-1,,9999,0,1,2,FEW 20   SCT 35,1,5,-1,0,1008,RJBE 090700Z 29010KT 9999 VCSH FEW020 SCT035 05/M00 Q1008 RMK     1CU020 3CU035 A2977=,VC SH
20180109_080000.002,0,RJBE,,,,0,20180109080000,-1,-1,-1,-1,290,-1,16,-1,-1,-1,-1,,9999,0,0,1,FEW 30,1,5,-1,2,1008,RJBE 090800Z 29016KT 9999 FEW030 05/M02 Q1008 RMK 2CU030     A2979=,
20180109_090000.002,0,RJBE,,,,0,20180109090000,-1,-1,-1,-1,280,-1,18,-1,-1,-1,-1,,9999,0,0,1,FEW 30,1,5,-1,3,1010,RJBE 090900Z 28018KT 9999 FEW030 05/M03 Q1010 RMK 1CU030     A2983=,
20180109_100000.002,0,RJBE,,,,0,20180109100000,-1,-1,-1,-1,290,-1,19,-1,-1,-1,-1,,9999,0,0,1,FEW 30,1,5,-1,3,1010,RJBE 091000Z 29019KT 9999 FEW030 05/M03 Q1010 RMK 1CU030     A2985=,
20180109_110000.002,0,RJBE,,,,0,20180109110000,-1,-1,-1,-1,290,-1,14,-1,-1,-1,-1,,9999,0,0,1,FEW 35,1,5,-1,3,1012,RJBE 091100Z 29014KT 9999 FEW035 05/M03 Q1012 RMK 1CU035     A2989=,
20180109_120000.002,0,RJBE,,,,0,20180109120000,-1,-1,-1,-1,300,-1,14,-1,-1,-1,-1,,9999,0,0,1,FEW 35,1,4,-1,2,1012,RJBE 091200Z 30014KT 9999 FEW035 04/M02 Q1012 RMK 1CU035     A2988=,
20180109_220000.002,0,RJBE,,,,0,20180109220000,-1,-1,-1,-1,300,-1,10,-1,-1,-1,-1,,9999,0,1,1,FEW 30,1,3,-1,2,1013,RJBE 092200Z 30010KT 9999 VCSH FEW030 03/M02 Q1013 RMK 2CU030     A2991=,VC SH
20180109_230000.002,0,RJBE,,,,0,20180109230000,-1,-1,-1,-1,300,-1,8,-1,-1,-1,-1,,9999,0,1,2,FEW 20   SCT 30,1,4,-1,2,1013,RJBE 092300Z 30008KT 9999 -SHRA FEW020 SCT030 04/M02 Q1013 RMK     1CU020 4CU030 A2991=,- RA SH
20180110_000000.002,0,RJBE,,,,0,20180110000000,-1,-1,-1,-1,280,-1,11,-1,-1,-1,-1,,9999,0,1,3,FEW 20   SCT 30   BKN 60,1,5,-1,1,1013,RJBE 100000Z 28011KT 9999 -SHRA FEW020 SCT030 BKN060 05/M01     Q1013 RMK 1CU020 3CU030 5SC060 A2992=,- RA SH
20180110_010000.002,0,RJBE,,,,0,20180110010000,-1,-1,-1,-1,220,-1,17,-1,-1,-1,-1,,9999,0,1,3,FEW 20   SCT 30   BKN 40,1,6,1,3,1013,RJBE 100100Z 22017KT 9999 -SHRA FEW020 SCT030 BKN040 06/03     Q1013 RMK 1CU020 3CU030 5CU040 A2992=,- RA SH
20180110_020000.002,0,RJBE,,,,0,20180110020000,-1,-1,-1,-1,220,-1,17,-1,-1,-1,-1,,9999,0,1,3,FEW 15   SCT 30   BKN 40,1,6,1,3,1012,RJBE 100200Z 22017KT 9999 -SHRA FEW015 SCT030 BKN040 06/03     Q1012 RMK 1CU015 3CU030 5CU040 A2990=,- RA SH
20180110_030000.002,0,RJBE,,,,0,20180110030000,-1,-1,-1,-1,250,-1,13,-1,-1,-1,-1,,9999,0,1,3,FEW 15   SCT 30   BKN 40,1,6,1,2,1011,RJBE 100300Z 25013KT 9999 -SHRA FEW015 SCT030 BKN040 06/02     Q1011 RMK 1CU015 4CU030 6CU040 A2987=,- RA SH
20180110_040000.003,0,RJBE,,,,0,20180110040000,-1,-1,-1,-1,250,-1,14,-1,-1,-1,-1,,9999,0,1,3,FEW 8   SCT 20   BKN 35,1,7,1,3,1010,RJBE 100400Z 25014KT 9999 -SHRA FEW008 SCT020 BKN035 07/03     Q1010 RMK 1ST008 3CU020 5CU035 A2984=,- RA SH
20180110_050000.002,0,RJBE,,,,0,20180110050000,-1,-1,-1,-1,290,-1,13,-1,-1,-1,-1,,9999,0,1,3,FEW 6   SCT 10   BKN 40,1,5,1,3,1010,RJBE 100500Z 29013KT 9999 -SHRA FEW006 SCT010 BKN040 05/03     Q1010 RMK 1ST006 3CU010 5CU040 A2984=,- RA SH
20180110_060000.002,0,RJBE,,,,0,20180110060000,-1,-1,-1,-1,240,-1,12,-1,-1,-1,-1,,9999,0,0,3,FEW 9   SCT 15   BKN 25,1,6,1,3,1010,RJBE 100600Z 24012KT 9999 FEW009 SCT015 BKN025 06/03 Q1010 RMK     1ST009 3CU015 5CU025 A2984=,
20180110_070000.002,0,RJBE,,,,0,20180110070000,-1,-1,-1,-1,300,-1,19,-1,-1,-1,-1,,9999,0,1,3,FEW 7   SCT 10   BKN 20,1,6,1,2,1010,RJBE 100700Z 30019KT 9999 -SHRA FEW007 SCT010 BKN020 06/02     Q1010 RMK 1ST007 4CU010 6CU020 A2983=,- RA SH
20180110_080000.002,0,RJBE,,,,0,20180110080000,-1,-1,-1,-1,290,-1,10,-1,-1,-1,-1,,9999,0,1,3,FEW 9   SCT 10   BKN 20,1,4,1,3,1011,RJBE 100800Z 29010KT 9999 -SHRA FEW009 SCT010 BKN020 04/03     Q1011 RMK 1ST009 4CU010 5CU020 A2986=,- RA SH
20180110_090000.002,0,RJBE,,,,0,20180110090000,-1,-1,-1,-1,230,-1,18,-1,-1,-1,-1,,9999,0,1,3,FEW 10   SCT 15   BKN 25,1,6,1,5,1011,RJBE 100900Z 23018KT 9999 -SHRA FEW010 SCT015 BKN025 06/05     Q1011 RMK 1ST010 4CU015 5CU025 A2987=,- RA SH
20180110_100000.002,0,RJBE,,,,0,20180110100000,-1,-1,-1,-1,280,-1,13,-1,-1,-1,-1,,9999,0,0,4,FEW 15   FEW 20 CB  SCT 20   BKN 60,1,5,1,1,1012,RJBE 101000Z 28013KT 9999 FEW015 FEW020CB SCT020 BKN060 05/01     Q1012 RMK 2CU015 1CB020 3CU020 5SC060 A2989 CB 30KM E MOV           E LIGHTNING E=,
20180110_110000.002,0,RJBE,,,,0,20180110110000,-1,-1,-1,-1,290,-1,12,-1,-1,-1,-1,,9999,0,0,2,FEW 15   SCT 30,1,4,-1,1,1013,RJBE 101100Z 29012KT 9999 FEW015 SCT030 04/M01 Q1013 RMK     1CU015 3CU030 A2991=,
20180110_120000.002,0,RJBE,,,,0,20180110120000,-1,-1,-1,-1,260,-1,13,-1,-1,-1,-1,,9999,0,0,2,FEW 10   SCT 30,1,4,-1,2,1013,RJBE 101200Z 26013KT 9999 FEW010 SCT030 04/M02 Q1013 RMK     1ST010 3CU030 A2993=,
20180110_220000.002,0,RJBE,,,,0,20180110220000,-1,-1,-1,-1,300,-1,15,-1,-1,-1,-1,,9999,0,0,2,FEW 30   SCT 50,1,0,-1,8,1018,RJBE 102200Z 30015KT 9999 FEW030 SCT050 00/M08 Q1018 RMK     1CU030 3SC050 A3008=,
20180110_230000.003,0,RJBE,,,,0,20180110230000,-1,-1,-1,-1,310,-1,16,-1,-1,-1,-1,,9999,0,1,2,FEW 30   SCT 45,1,0,-1,9,1019,RJBE 102300Z 31016KT 9999 VCSH FEW030 SCT045 00/M09 Q1019 RMK     1CU030 3CU045 A3010=,VC SH
20180111_000000.002,0,RJBE,,,,0,20180111000000,-1,-1,-1,-1,310,-1,11,-1,-1,-1,-1,,9999,0,1,2,FEW 20   SCT 45,1,0,-1,8,1020,RJBE 110000Z 31011KT 9999 VCSH FEW020 SCT045 00/M08 Q1020 RMK     1CU020 3CU045 A3013=,VC SH
20180111_010000.002,0,RJBE,,,,0,20180111010000,-1,-1,-1,-1,280,-1,9,-1,-1,-1,-1,,9999,0,1,2,FEW 20   SCT 40,1,2,-1,7,1020,RJBE 110100Z 28009KT 9999 VCSH FEW020 SCT040 02/M07 Q1020 RMK     1CU020 3CU040 A3013=,VC SH
20180111_020000.002,0,RJBE,,,,0,20180111020000,-1,-1,-1,-1,290,-1,12,-1,-1,-1,-1,,9999,0,0,2,FEW 30   SCT 40,1,3,-1,8,1019,RJBE 110200Z 29012KT 9999 FEW030 SCT040 03/M08 Q1019 RMK     1CU030 4CU040 A3012=,
20180111_030000.001,0,RJBE,,,,0,20180111030000,-1,-1,-1,-1,280,-1,15,-1,-1,-1,-1,,9999,0,1,2,FEW 30   BKN 40,1,3,-1,8,1019,RJBE 110300Z 28015KT 9999 VCSH FEW030 BKN040 03/M08 Q1019 RMK     2CU030 5CU040 A3010=,VC SH
20180111_040000.002,0,RJBE,,,,0,20180111040000,-1,-1,-1,-1,290,-1,13,-1,-1,250,320,,9999,0,0,2,FEW 30   SCT 40,1,3,-1,7,1018,RJBE 110400Z 29013KT 250V320 9999 FEW030 SCT040 03/M07 Q1018     RMK 1CU030 4CU040 A3009=,
20180111_050000.002,0,RJBE,,,,0,20180111050000,-1,-1,-1,-1,270,-1,15,-1,-1,-1,-1,,9999,0,0,2,FEW 25   SCT 40,1,3,-1,7,1019,RJBE 110500Z 27015KT 9999 FEW025 SCT040 03/M07 Q1019 RMK     1CU025 4CU040 A3009=,
20180111_060000.002,0,RJBE,,,,0,20180111060000,-1,-1,-1,-1,270,-1,14,-1,-1,-1,-1,,9999,0,1,2,FEW 25   BKN 40,1,4,-1,8,1019,RJBE 110600Z 27014KT 9999 VCSH FEW025 BKN040 04/M08 Q1019 RMK     1CU025 5CU040 A3010=,VC SH
20180111_070000.002,0,RJBE,,,,0,20180111070000,-1,-1,-1,-1,280,-1,16,-1,-1,-1,-1,,9999,0,0,2,FEW 25   SCT 45,1,3,-1,8,1019,RJBE 110700Z 28016KT 9999 FEW025 SCT045 03/M08 Q1019 RMK     1CU025 3CU045 A3010=,
20180111_080000.002,0,RJBE,,,,0,20180111080000,-1,-1,-1,-1,290,-1,13,-1,-1,-1,-1,,9999,0,0,2,FEW 25   SCT 50,1,2,-1,8,1019,RJBE 110800Z 29013KT 9999 FEW025 SCT050 02/M08 Q1019 RMK     1CU025 3SC050 A3010=,
20180111_090000.002,0,RJBE,,,,0,20180111090000,-1,-1,-1,-1,290,-1,14,-1,-1,-1,-1,,9999,0,1,3,FEW 25   SCT 40   BKN 50,1,3,-1,8,1019,RJBE 110900Z 29014KT 9999 -SHSN FEW025 SCT040 BKN050 03/M08     Q1019 RMK 1CU025 3CU040 5SC050 A3011=,- SN SH
20180111_100000.002,0,RJBE,,,,0,20180111100000,-1,-1,-1,-1,300,-1,18,-1,-1,-1,-1,,9999,0,0,2,FEW 25   BKN 50,1,2,-1,9,1020,RJBE 111000Z 30018KT 9999 FEW025 BKN050 02/M09 Q1020 RMK     1CU025 5SC050 A3014=,
20180111_110000.002,0,RJBE,,,,0,20180111110000,-1,-1,-1,-1,290,-1,14,-1,-1,-1,-1,,9999,0,0,1,FEW 25,1,1,-1,9,1021,RJBE 111100Z 29014KT 9999 FEW025 01/M09 Q1021 RMK 1CU025     A3016=,
20180111_120000.002,0,RJBE,,,,0,20180111120000,-1,-1,-1,-1,290,-1,14,-1,-1,-1,-1,,9999,0,0,2,FEW 25   SCT 50,1,1,-1,9,1021,RJBE 111200Z 29014KT 9999 FEW025 SCT050 01/M09 Q1021 RMK     1CU025 3SC050 A3016=,
20180111_220000.002,0,RJBE,,,,0,20180111220000,-1,-1,-1,-1,300,-1,15,-1,-1,-1,-1,,9999,0,0,1,FEW 20,-1,1,-1,5,1023,RJBE 112200Z 30015KT 9999 FEW020 M01/M05 Q1023 RMK 1CU020     A3021=,
20180111_230000.002,0,RJBE,,,,0,20180111230000,-1,-1,-1,-1,280,-1,19,-1,-1,-1,-1,,9999,0,0,1,FEW 20,1,0,-1,6,1023,RJBE 112300Z 28019KT 9999 FEW020 00/M06 Q1023 RMK 1CU020     A3023=,
20180112_000000.002,0,RJBE,,,,0,20180112000000,-1,-1,-1,-1,280,-1,20,-1,-1,-1,-1,,9999,0,0,1,FEW 25,1,1,-1,7,1023,RJBE 120000Z 28020KT 9999 FEW025 01/M07 Q1023 RMK 1CU025     A3023=,
20180112_010000.003,0,RJBE,,,,0,20180112010000,-1,-1,-1,-1,290,-1,19,-1,-1,-1,-1,,9999,0,0,1,FEW 25,1,3,-1,6,1024,RJBE 120100Z 29019KT 9999 FEW025 03/M06 Q1024 RMK 1CU025     A3024=,
20180112_020000.002,0,RJBE,,,,0,20180112020000,-1,-1,-1,-1,280,-1,18,-1,-1,-1,-1,,9999,0,0,1,FEW 25,1,3,-1,8,1024,RJBE 120200Z 28018KT 9999 FEW025 03/M08 Q1024 RMK 1CU025     A3024=,
20180112_030000.002,0,RJBE,,,,0,20180112030000,-1,-1,-1,-1,280,-1,15,-1,-1,-1,-1,,9999,0,0,1,FEW 30,1,5,-1,7,1023,RJBE 120300Z 28015KT 9999 FEW030 05/M07 Q1023 RMK 1CU030     A3021=,
20180112_040000.002,0,RJBE,,,,0,20180112040000,-1,-1,-1,-1,270,-1,15,-1,-1,-1,-1,,9999,0,0,1,FEW 30,1,4,-1,7,1022,RJBE 120400Z 27015KT 9999 FEW030 04/M07 Q1022 RMK 1CU030     A3019=,
20180112_050000.003,0,RJBE,,,,0,20180112050000,-1,-1,-1,-1,260,-1,15,-1,-1,-1,-1,,9999,0,0,1,FEW 30,1,5,-1,6,1022,RJBE 120500Z 26015KT 9999 FEW030 05/M06 Q1022 RMK 1CU030     A3020=,
20180112_060000.002,0,RJBE,,,,0,20180112060000,-1,-1,-1,-1,260,-1,15,-1,-1,-1,-1,,9999,0,0,1,FEW 30,1,5,-1,4,1022,RJBE 120600Z 26015KT 9999 FEW030 05/M04 Q1022 RMK 2CU030     A3020=,
20180112_070000.003,0,RJBE,,,,0,20180112070000,-1,-1,-1,-1,260,-1,14,-1,-1,-1,-1,,9999,0,0,2,FEW 30   SCT 40,1,4,-1,6,1023,RJBE 120700Z 26014KT 9999 FEW030 SCT040 04/M06 Q1023 RMK     1CU030 3CU040 A3021=,
20180112_080000.002,0,RJBE,,,,0,20180112080000,-1,-1,-1,-1,250,-1,14,-1,-1,-1,-1,,9999,0,0,2,FEW 25   SCT 45,1,4,-1,5,1023,RJBE 120800Z 25014KT 9999 FEW025 SCT045 04/M05 Q1023 RMK     1CU025 3CU045 A3022=,
20180112_090000.002,0,RJBE,,,,0,20180112090000,-1,-1,-1,-1,280,-1,13,-1,-1,-1,-1,,9999,0,0,1,FEW 25,1,3,-1,8,1024,RJBE 120900Z 28013KT 9999 FEW025 03/M08 Q1024 RMK 2CU025     A3024=,
20180112_100000.002,0,RJBE,,,,0,20180112100000,-1,-1,-1,-1,300,-1,13,-1,-1,-1,-1,,9999,0,0,1,FEW 25,1,3,-1,8,1024,RJBE 121000Z 30013KT 9999 FEW025 03/M08 Q1024 RMK 1CU025     A3025=,
20180112_110000.002,0,RJBE,,,,0,20180112110000,-1,-1,-1,-1,300,-1,16,-1,-1,-1,-1,,9999,0,0,1,FEW 25,1,2,-1,8,1024,RJBE 121100Z 30016KT 9999 FEW025 02/M08 Q1024 RMK 1CU025     A3026=,
20180112_120000.002,0,RJBE,,,,0,20180112120000,-1,-1,-1,-1,300,-1,16,-1,-1,-1,-1,,9999,0,0,1,FEW 25,1,2,-1,7,1025,RJBE 121200Z 30016KT 9999 FEW025 02/M07 Q1025 RMK 1CU025     A3027=,
20180112_220000.002,0,RJBE,,,,0,20180112220000,-1,-1,-1,-1,310,-1,9,-1,-1,-1,-1,,9999,0,0,1,FEW 25,-1,0,-1,6,1026,RJBE 122200Z 31009KT 9999 FEW025 M00/M06 Q1026 RMK 1CU025     A3030=,
20180112_230000.002,0,RJBE,,,,0,20180112230000,-1,-1,-1,-1,300,-1,13,-1,-1,-1,-1,,9999,0,0,1,FEW 25,1,0,-1,5,1026,RJBE 122300Z 30013KT 9999 FEW025 00/M05 Q1026 RMK 1CU025     A3031=,
20180113_000000.002,0,RJBE,,,,0,20180113000000,-1,-1,-1,-1,280,-1,12,-1,-1,-1,-1,,9999,0,0,1,FEW 25,1,2,-1,4,1027,RJBE 130000Z 28012KT 9999 FEW025 02/M04 Q1027 RMK 1CU025     A3033=,
20180113_010000.003,0,RJBE,,,,0,20180113010000,-1,-1,-1,-1,280,-1,10,-1,-1,-1,-1,,9999,0,0,1,FEW 25,1,3,-1,4,1027,RJBE 130100Z 28010KT 9999 FEW025 03/M04 Q1027 RMK 1CU025     A3034=,
20180113_020000.002,0,RJBE,,,,0,20180113020000,-1,-1,-1,-1,270,-1,13,-1,-1,-1,-1,,9999,0,0,2,FEW 25   SCT 35,1,5,-1,4,1026,RJBE 130200Z 27013KT 9999 FEW025 SCT035 05/M04 Q1026 RMK     1CU025 3CU035 A3032=,
20180113_030000.002,0,RJBE,,,,0,20180113030000,-1,-1,-1,-1,260,-1,17,-1,-1,-1,-1,,9999,0,0,2,FEW 30   BKN 40,1,5,-1,3,1026,RJBE 130300Z 26017KT 9999 FEW030 BKN040 05/M03 Q1026 RMK     1CU030 5CU040 A3030=,
20180113_040000.002,0,RJBE,,,,0,20180113040000,-1,-1,-1,-1,270,-1,14,-1,-1,-1,-1,,9999,0,0,2,FEW 30   SCT 40,1,5,-1,4,1025,RJBE 130400Z 27014KT 9999 FEW030 SCT040 05/M04 Q1025 RMK     1CU030 3CU040 A3028=,
20180113_050000.002,0,RJBE,,,,0,20180113050000,-1,-1,-1,-1,260,-1,17,-1,-1,-1,-1,,9999,0,0,1,SCT 35,1,6,-1,3,1025,RJBE 130500Z 26017KT 9999 SCT035 06/M03 Q1025 RMK 4CU035     A3027=,
20180113_060000.002,0,RJBE,,,,0,20180113060000,-1,-1,-1,-1,270,-1,21,-1,-1,-1,-1,,9999,0,0,2,FEW 30   BKN 45,1,6,-1,4,1025,RJBE 130600Z 27021KT 9999 FEW030 BKN045 06/M04 Q1025 RMK     1CU030 5CU045 A3027=,
20180113_070000.002,0,RJBE,,,,0,20180113070000,-1,-1,-1,-1,280,-1,20,-1,-1,-1,-1,,9999,0,0,1,FEW 35,1,5,-1,4,1025,RJBE 130700Z 28020KT 9999 FEW035 05/M04 Q1025 RMK 2CU035     A3028=,
20180113_080000.002,0,RJBE,,,,0,20180113080000,-1,-1,-1,-1,280,-1,10,-1,-1,-1,-1,,9999,0,0,2,FEW 30   SCT 40,1,4,-1,3,1026,RJBE 130800Z 28010KT 9999 FEW030 SCT040 04/M03 Q1026 RMK     1CU030 4CU040 A3030=,
20180113_090000.002,0,RJBE,,,,0,20180113090000,-1,-1,-1,-1,300,-1,12,-1,-1,-1,-1,,9999,0,0,2,FEW 25   BKN 40,1,5,-1,4,1026,RJBE 130900Z 30012KT 9999 FEW025 BKN040 05/M04 Q1026 RMK     1CU025 5CU040 A3032=,
20180113_100000.002,0,RJBE,,,,0,20180113100000,-1,-1,-1,-1,290,-1,13,-1,-1,-1,-1,,9999,0,0,1,FEW 25,1,4,-1,4,1027,RJBE 131000Z 29013KT 9999 FEW025 04/M04 Q1027 RMK 1CU025     A3033=,
20180113_110000.002,0,RJBE,,,,0,20180113110000,-1,-1,-1,-1,290,-1,13,-1,-1,-1,-1,,9999,0,0,1,FEW 25,1,3,-1,4,1027,RJBE 131100Z 29013KT 9999 FEW025 03/M04 Q1027 RMK 1CU025     A3034=,
20180113_120000.002,0,RJBE,,,,0,20180113120000,-1,-1,-1,-1,300,-1,15,-1,-1,-1,-1,,9999,0,0,2,FEW 25   SCT 60,1,3,-1,4,1028,RJBE 131200Z 30015KT 9999 FEW025 SCT060 03/M04 Q1028 RMK     1CU025 3SC060 A3036=,
20180113_220000.002,0,RJBE,,,,0,20180113220000,-1,-1,-1,-1,20,-1,3,-1,-1,320,70,,9999,0,0,1,FEW 25,1,2,-1,4,1030,RJBE 132200Z 02003KT 320V070 9999 FEW025 02/M04 Q1030 RMK     1CU025 A3044=,
20180113_230000.002,0,RJBE,,,,0,20180113230000,-1,-1,-1,-1,50,-1,4,-1,-1,20,80,,9999,0,0,2,FEW 15   SCT -9999,1,2,-1,3,1031,RJBE 132300Z 05004KT 020V080 9999 FEW015 SCT/// 02/M03 Q1031     RMK 1CU015 A3045=,
20180114_000000.003,0,RJBE,,,,0,20180114000000,-1,-1,-1,-1,110,-1,4,-1,-1,-1,-1,,9999,0,0,1,FEW 15,1,4,-1,3,1031,RJBE 140000Z 11004KT 9999 FEW015 04/M03 Q1031 RMK 1CU015     A3047=,
20180114_010000.002,0,RJBE,,,,0,20180114010000,-1,-1,-1,-1,170,-1,3,-1,-1,130,200,,9999,0,0,2,FEW 15   SCT 50,1,5,-1,3,1032,RJBE 140100Z 17003KT 130V200 9999 FEW015 SCT050 05/M03 Q1032     RMK 1CU015 3SC050 A3050=,
20180114_020000.002,0,RJBE,,,,0,20180114020000,-1,-1,-1,-1,220,-1,5,-1,-1,-1,-1,,9999,0,0,2,FEW 15   BKN 50,1,6,-1,3,1032,RJBE 140200Z 22005KT 9999 FEW015 BKN050 06/M03 Q1032 RMK     1CU015 6SC050 A3049=,
20180114_030000.002,0,RJBE,,,,0,20180114030000,-1,-1,-1,-1,210,-1,6,-1,-1,-1,-1,,9999,0,0,3,FEW 15   SCT 35   BKN 50,1,6,-1,3,1031,RJBE 140300Z 21006KT 9999 FEW015 SCT035 BKN050 06/M03 Q1031     RMK 1CU015 3CU035 6SC050 A3046=,
20180114_040000.002,0,RJBE,,,,0,20180114040000,-1,-1,-1,-1,150,-1,6,-1,-1,-1,-1,,9999,0,0,2,FEW 25   BKN 50,1,6,-1,2,1030,RJBE 140400Z 15006KT 9999 FEW025 BKN050 06/M02 Q1030 RMK     1CU025 7SC050 A3044=,
20180114_050000.002,0,RJBE,,,,0,20180114050000,-1,-1,-1,-1,140,-1,6,-1,-1,-1,-1,,9999,0,0,2,FEW 20   BKN 50,1,6,-1,3,1030,RJBE 140500Z 14006KT 9999 FEW020 BKN050 06/M03 Q1030 RMK     1CU020 7SC050 A3042=,
20180114_060000.003,0,RJBE,,,,0,20180114060000,-1,-1,-1,-1,130,-1,5,-1,-1,-1,-1,,9999,0,0,3,FEW 30   BKN 50   BKN -9999,1,6,-1,3,1029,RJBE 140600Z 13005KT 9999 FEW030 BKN050 BKN/// 06/M03 Q1029     RMK 1CU030 6SC050 A3041=,
20180114_070000.002,0,RJBE,,,,0,20180114070000,-1,-1,-1,-1,110,-1,4,-1,-1,-1,-1,,9999,0,0,3,FEW 30   BKN 50   BKN -9999,1,6,-1,4,1029,RJBE 140700Z 11004KT 9999 FEW030 BKN050 BKN/// 06/M04 Q1029     RMK 1CU030 5SC050 A3040=,
20180114_080000.002,0,RJBE,,,,0,20180114080000,-1,-1,-1,-1,80,-1,3,-1,-1,-1,-1,,9999,0,0,3,FEW 30   SCT 45   BKN -9999,1,5,-1,4,1029,RJBE 140800Z 08003KT 9999 FEW030 SCT045 BKN/// 05/M04 Q1029     RMK 1CU030 4SC045 A3040=,
20180114_090000.002,0,RJBE,,,,0,20180114090000,-1,-1,-1,-1,130,-1,4,-1,-1,-1,-1,,9999,0,0,3,FEW 30   SCT 45   BKN -9999,1,5,-1,4,1029,RJBE 140900Z 13004KT 9999 FEW030 SCT045 BKN/// 05/M04 Q1029     RMK 1CU030 3SC045 A3041=,
20180114_100000.002,0,RJBE,,,,0,20180114100000,-1,-1,-1,-1,999,-1,1,-1,-1,-1,-1,,9999,0,0,2,FEW 25   BKN -9999,1,3,-1,4,1029,RJBE 141000Z VRB01KT 9999 FEW025 BKN/// 03/M04 Q1029 RMK     1CU025 A3041=,
20180114_110000.002,0,RJBE,,,,0,20180114110000,-1,-1,-1,-1,30,-1,3,-1,-1,-1,-1,,9999,0,0,2,FEW 25   SCT -9999,1,3,-1,3,1030,RJBE 141100Z 03003KT 9999 FEW025 SCT/// 03/M03 Q1030 RMK     1CU025 A3041=,
20180114_120000.002,0,RJBE,,,,0,20180114120000,-1,-1,-1,-1,80,-1,9,-1,-1,-1,-1,CAVOK,-1,0,0,0,,1,3,-1,3,1030,RJBE 141200Z 08009KT CAVOK 03/M03 Q1030 RMK A3042=,
20180114_220000.002,0,RJBE,,,,0,20180114220000,-1,-1,-1,-1,60,-1,9,-1,-1,-1,-1,,9999,0,0,2,FEW 35   SCT 150,1,1,-1,2,1028,RJBE 142200Z 06009KT 9999 FEW035 SCT150 01/M02 Q1028 RMK     1CU035 3AC150 A3036=,
20180114_230000.002,0,RJBE,,,,0,20180114230000,-1,-1,-1,-1,60,-1,8,-1,-1,-1,-1,,9999,0,0,2,FEW 35   SCT 150,1,2,-1,2,1028,RJBE 142300Z 06008KT 9999 FEW035 SCT150 02/M02 Q1028 RMK     1CU035 3AC150 A3037=,
20180115_000000.002,0,RJBE,,,,0,20180115000000,-1,-1,-1,-1,70,-1,9,-1,-1,-1,-1,,9999,0,0,2,FEW 30   SCT -9999,1,3,-1,2,1028,RJBE 150000Z 07009KT 9999 FEW030 SCT/// 03/M02 Q1028 RMK     1CU030 A3037=,
20180115_010000.002,0,RJBE,,,,0,20180115010000,-1,-1,-1,-1,70,-1,7,-1,-1,50,110,,9999,0,0,3,FEW 30   SCT 40   BKN -9999,1,5,-1,1,1028,RJBE 150100Z 07007KT 050V110 9999 FEW030 SCT040 BKN/// 05/M01     Q1028 RMK 1CU030 3SC040 A3037=,
20180115_020000.002,0,RJBE,,,,0,20180115020000,-1,-1,-1,-1,80,-1,4,-1,-1,50,120,,9999,0,0,2,FEW 25   BKN -9999,1,6,-1,1,1027,RJBE 150200Z 08004KT 050V120 9999 FEW025 BKN/// 06/M01 Q1027     RMK 1CU025 A3035=,
20180115_030000.002,0,RJBE,,,,0,20180115030000,-1,-1,-1,-1,140,-1,3,-1,-1,-1,-1,,9999,0,0,2,FEW 20   BKN -9999,1,6,1,0,1026,RJBE 150300Z 14003KT 9999 FEW020 BKN/// 06/00 Q1026 RMK 2CU020     A3031=,
20180115_040000.002,0,RJBE,,,,0,20180115040000,-1,-1,-1,-1,180,-1,2,-1,-1,-1,-1,,9999,0,0,2,FEW 20   SCT -9999,1,7,1,0,1024,RJBE 150400Z 18002KT 9999 FEW020 SCT/// 07/00 Q1024 RMK 1CU020     A3026=,
20180115_050000.002,0,RJBE,,,,0,20180115050000,-1,-1,-1,-1,260,-1,3,-1,-1,220,290,,9999,0,0,1,FEW 25,1,7,1,1,1024,RJBE 150500Z 26003KT 220V290 9999 FEW025 07/01 Q1024 RMK     1CU025 A3024=,
20180115_060000.002,0,RJBE,,,,0,20180115060000,-1,-1,-1,-1,250,-1,4,-1,-1,-1,-1,,9999,0,0,2,FEW 25   BKN 70,1,7,1,3,1023,RJBE 150600Z 25004KT 9999 FEW025 BKN070 07/03 Q1023 RMK 1CU025     5AC070 A3022=,
20180115_070000.003,0,RJBE,,,,0,20180115070000,-1,-1,-1,-1,999,-1,2,-1,-1,-1,-1,,9999,0,0,2,FEW 25   SCT 70,1,8,1,5,1023,RJBE 150700Z VRB02KT 9999 FEW025 SCT070 08/05 Q1023 RMK 1CU025     4AC070 A3023=,
20180115_080000.002,0,RJBE,,,,0,20180115080000,-1,-1,-1,-1,310,-1,5,-1,-1,-1,-1,,9999,0,0,2,FEW 30   BKN 50,1,8,1,5,1024,RJBE 150800Z 31005KT 9999 FEW030 BKN050 08/05 Q1024 RMK 1CU030     6SC050 A3025=,
20180115_090000.002,0,RJBE,,,,0,20180115090000,-1,-1,-1,-1,999,-1,2,-1,-1,-1,-1,,9999,0,0,2,FEW 30   BKN 50,1,9,1,3,1024,RJBE 150900Z VRB02KT 9999 FEW030 BKN050 09/03 Q1024 RMK 1CU030     6SC050 A3026=,
20180115_100000.002,0,RJBE,,,,0,20180115100000,-1,-1,-1,-1,999,-1,2,-1,-1,-1,-1,,9999,0,0,1,FEW 45,1,8,1,4,1025,RJBE 151000Z VRB02KT 9999 FEW045 08/04 Q1025 RMK 1SC045 A3027=,
20180115_110000.002,0,RJBE,,,,0,20180115110000,-1,-1,-1,-1,200,-1,5,-1,-1,180,270,,9999,0,0,1,FEW 30,1,7,1,5,1024,RJBE 151100Z 20005KT 180V270 9999 FEW030 07/05 Q1024 RMK     1CU030 A3026=,
20180115_120000.002,0,RJBE,,,,0,20180115120000,-1,-1,-1,-1,270,-1,5,-1,-1,-1,-1,,9999,0,0,1,FEW 30,1,5,1,3,1025,RJBE 151200Z 27005KT 9999 FEW030 05/03 Q1025 RMK 1CU030 A3027=,
20180115_220000.002,0,RJBE,,,,0,20180115220000,-1,-1,-1,-1,70,-1,7,-1,-1,-1,-1,CAVOK,-1,0,0,0,,1,4,1,3,1024,RJBE 152200Z 07007KT CAVOK 04/03 Q1024 RMK A3024=,
20180115_230000.002,0,RJBE,,,,0,20180115230000,-1,-1,-1,-1,70,-1,8,-1,-1,-1,-1,CAVOK,-1,0,0,0,,1,5,1,4,1024,RJBE 152300Z 07008KT CAVOK 05/04 Q1024 RMK A3024=,
20180116_000000.002,0,RJBE,,,,0,20180116000000,-1,-1,-1,-1,60,-1,7,-1,-1,-1,-1,,8000,0,0,1,NSC -1,1,6,1,4,1024,RJBE 160000Z 06007KT 8000 NSC 06/04 Q1024 RMK 5SC050 A3025=,
20180116_010000.002,0,RJBE,,,,0,20180116010000,-1,-1,-1,-1,50,-1,7,-1,-1,-1,-1,,9000,0,0,1,NSC -1,1,7,1,4,1024,RJBE 160100Z 05007KT 9000 NSC 07/04 Q1024 RMK 1SC050 A3025=,
20180116_020000.002,0,RJBE,,,,0,20180116020000,-1,-1,-1,-1,80,-1,7,-1,-1,-1,-1,CAVOK,-1,0,0,0,,1,9,1,4,1023,RJBE 160200Z 08007KT CAVOK 09/04 Q1023 RMK A3022=,
20180116_030000.002,0,RJBE,,,,0,20180116030000,-1,-1,-1,-1,100,-1,6,-1,-1,-1,-1,CAVOK,-1,0,0,0,,1,9,1,5,1022,RJBE 160300Z 10006KT CAVOK 09/05 Q1022 RMK 6AC070 A3018=,
20180116_040000.002,0,RJBE,,,,0,20180116040000,-1,-1,-1,-1,100,-1,3,-1,-1,-1,-1,CAVOK,-1,0,0,0,,1,10,1,5,1020,RJBE 160400Z 10003KT CAVOK 10/05 Q1020 RMK A3014=,
20180116_050000.002,0,RJBE,,,,0,20180116050000,-1,-1,-1,-1,100,-1,6,-1,-1,-1,-1,,9999,0,0,2,FEW 30   SCT -9999,1,12,1,5,1019,RJBE 160500Z 10006KT 9999 FEW030 SCT/// 12/05 Q1019 RMK 1CU030     A3010=,
20180116_060000.002,0,RJBE,,,,0,20180116060000,-1,-1,-1,-1,999,-1,1,-1,-1,-1,-1,,9999,0,0,3,FEW 30   SCT 60   BKN -9999,1,11,1,5,1018,RJBE 160600Z VRB01KT 9999 FEW030 SCT060 BKN/// 11/05 Q1018 RMK     1CU030 3SC060 A3008=,
20180116_070000.002,0,RJBE,,,,0,20180116070000,-1,-1,-1,-1,999,-1,1,-1,-1,-1,-1,,9999,0,0,1,FEW 30,1,13,1,6,1018,RJBE 160700Z VRB01KT 9999 FEW030 13/06 Q1018 RMK 1CU030 A3007=,
20180116_080000.002,0,RJBE,,,,0,20180116080000,-1,-1,-1,-1,260,-1,3,-1,-1,240,310,,9999,0,0,1,FEW 30,1,10,1,7,1018,RJBE 160800Z 26003KT 240V310 9999 FEW030 10/07 Q1018 RMK     1CU030 A3007=,
20180116_090000.002,0,RJBE,,,,0,20180116090000,-1,-1,-1,-1,210,-1,3,-1,-1,-1,-1,,9999,0,0,1,FEW 30,1,9,1,8,1017,RJBE 160900Z 21003KT 9999 FEW030 09/08 Q1017 RMK 1CU030 A3005=,
20180116_100000.002,0,RJBE,,,,0,20180116100000,-1,-1,-1,-1,230,-1,4,-1,-1,-1,-1,,9999,0,0,2,FEW 20   SCT 30,1,9,1,8,1017,RJBE 161000Z 23004KT 9999 FEW020 SCT030 09/08 Q1017 RMK 1CU020     3CU030 A3004=,
20180116_110000.004,0,RJBE,,,,0,20180116110000,-1,-1,-1,-1,290,-1,3,-1,-1,-1,-1,,9999,0,0,2,FEW 15   SCT 25,1,8,1,6,1017,RJBE 161100Z 29003KT 9999 FEW015 SCT025 08/06 Q1017 RMK 1CU015     4CU025 A3003=,
20180116_120000.002,0,RJBE,,,,0,20180116120000,-1,-1,-1,-1,999,-1,2,-1,-1,-1,-1,,9999,0,0,3,FEW 25   SCT 60   BKN 160,1,9,1,7,1016,RJBE 161200Z VRB02KT 9999 FEW025 SCT060 BKN160 09/07 Q1016 RMK     1CU025 3SC060 5AC160 A3003=,
20180116_220000.002,0,RJBE,,,,0,20180116220000,-1,-1,-1,-1,50,-1,13,-1,-1,-1,-1,,3500,0,2,3,FEW 5   SCT 12   BKN 25,1,10,1,9,1013,RJBE 162200Z 05013KT 3500 SHRA BR FEW005 SCT012 BKN025 10/09     Q1013 RMK 1ST005 3CU012 6CU025 A2991=,RA SH; BR
20180116_230000.002,0,RJBE,,,,0,20180116230000,-1,-1,-1,-1,50,-1,11,-1,-1,-1,-1,,4500,0,2,3,FEW 8   SCT 10   BKN 20,1,10,1,9,1012,RJBE 162300Z 05011KT 4500 -SHRA BR FEW008 SCT010 BKN020 10/09     Q1012 RMK 1ST008 4CU010 7CU020 A2991=,- RA SH; BR
20180117_000000.002,0,RJBE,,,,0,20180117000000,-1,-1,-1,-1,50,-1,9,-1,-1,-1,-1,,4500,0,2,3,FEW 5   SCT 8   BKN 15,1,10,1,10,1012,RJBE 170000Z 05009KT 4500 SHRA BR FEW005 SCT008 BKN015 10/10     Q1012 RMK 1ST005 4ST008 6CU015 A2991=,RA SH; BR
20180117_010000.002,0,RJBE,,,,0,20180117010000,-1,-1,-1,-1,60,-1,11,-1,-1,-1,-1,,4000,0,2,3,FEW 5   SCT 10   BKN 15,1,10,1,10,1012,RJBE 170100Z 06011KT 4000 SHRA BR FEW005 SCT010 BKN015 10/10     Q1012 RMK 1ST005 3ST010 6CU015 A2989=,RA SH; BR
20180117_020000.004,0,RJBE,,,,0,20180117020000,-1,-1,-1,-1,50,-1,10,-1,-1,-1,-1,,6000,0,1,3,FEW 5   SCT 10   BKN 15,1,11,1,10,1011,RJBE 170200Z 05010KT 6000 -SHRA FEW005 SCT010 BKN015 11/10     Q1011 RMK 1ST005 4ST010 6CU015 A2986=,- RA SH
20180117_030000.002,0,RJBE,,,,0,20180117030000,-1,-1,-1,-1,40,-1,11,-1,-1,-1,-1,,8000,0,1,3,FEW 5   SCT 10   BKN 20,1,12,1,11,1009,RJBE 170300Z 04011KT 8000 -SHRA FEW005 SCT010 BKN020 12/11     Q1009 RMK 1ST005 3ST010 6CU020 A2980 P/FR=,- RA SH
20180117_040000.003,0,RJBE,,,,0,20180117040000,-1,-1,-1,-1,60,-1,7,-1,-1,-1,-1,,9999,0,1,3,FEW 5   SCT 8   BKN 20,1,11,1,11,1008,RJBE 170400Z 06007KT 9999 VCSH FEW005 SCT008 BKN020 11/11     Q1008 RMK 1ST005 3ST008 6CU020 A2978=,VC SH
20180117_050000.003,0,RJBE,,,,0,20180117050000,-1,-1,-1,-1,350,-1,3,-1,-1,280,40,,8000,0,0,3,FEW 3   BKN 6   BKN 9,1,13,1,12,1008,RJBE 170500Z 35003KT 280V040 8000 FEW003 BKN006 BKN009 13/12     Q1008 RMK 1ST003 5ST006 7ST009 A2977=,
20180117_060000.002,0,RJBE,,,,0,20180117060000,-1,-1,-1,-1,220,-1,6,-1,-1,-1,-1,,9999,0,1,3,FEW 2   SCT 4   BKN 6,1,12,1,11,1008,RJBE 170600Z 22006KT 9999 -SHRA FEW002 SCT004 BKN006 12/11     Q1008 RMK 1ST002 4ST004 6ST006 A2977=,- RA SH
20180117_070000.002,0,RJBE,,,,0,20180117070000,-1,-1,-1,-1,240,-1,12,-1,-1,-1,-1,,6000,0,2,3,FEW 2   SCT 4   BKN 6,1,12,1,12,1008,RJBE 170700Z 24012KT 6000 SHRA BR FEW002 SCT004 BKN006 12/12     Q1008 RMK 1ST002 4ST004 7ST006 A2978=,RA SH; BR
20180117_080000.002,0,RJBE,,,,0,20180117080000,-1,-1,-1,-1,260,-1,9,-1,-1,-1,-1,,9999,0,1,3,FEW 2   SCT 4   BKN 6,1,12,1,12,1009,RJBE 170800Z 26009KT 9999 -SHRA FEW002 SCT004 BKN006 12/12     Q1009 RMK 1ST002 4ST004 6ST006 A2979=,- RA SH
20180117_090000.003,0,RJBE,,,,0,20180117090000,-1,-1,-1,-1,260,-1,11,-1,-1,-1,-1,,9999,0,1,3,FEW 4   SCT 25   BKN 40,1,11,1,11,1009,RJBE 170900Z 26011KT 9999 -SHRA FEW004 SCT025 BKN040 11/11     Q1009 RMK 1ST004 4CU025 6CU040 A2980=,- RA SH
20180117_100000.002,0,RJBE,,,,0,20180117100000,-1,-1,-1,-1,280,-1,15,-1,-1,-1,-1,,9999,0,0,3,FEW 3   SCT 35   BKN 80,1,12,1,11,1009,RJBE 171000Z 28015KT 9999 FEW003 SCT035 BKN080 12/11 Q1009 RMK     1ST003 3CU035 6AC080 A2980=,
20180117_110000.003,0,RJBE,,,,0,20180117110000,-1,-1,-1,-1,270,-1,13,-1,-1,-1,-1,,9999,0,0,3,FEW 5   SCT 20   BKN 35,1,11,1,10,1011,RJBE 171100Z 27013KT 9999 FEW005 SCT020 BKN035 11/10 Q1011 RMK     1ST005 3CU020 6CU035 A2986=,
20180117_120000.003,0,RJBE,,,,0,20180117120000,-1,-1,-1,-1,270,-1,11,-1,-1,-1,-1,,9999,0,0,3,FEW 5   SCT 12   BKN 25,1,11,1,10,1012,RJBE 171200Z 27011KT 9999 FEW005 SCT012 BKN025 11/10 Q1012 RMK     1ST005 4CU012 6CU025 A2991=,
20180117_220000.003,0,RJBE,,,,0,20180117220000,-1,-1,-1,-1,330,-1,3,-1,-1,-1,-1,,9999,0,0,1,FEW 20,1,6,1,6,1017,RJBE 172200Z 33003KT 9999 FEW020 06/06 Q1017 RMK 1CU020 A3004=,
20180117_230000.002,0,RJBE,,,,0,20180117230000,-1,-1,-1,-1,330,-1,3,-1,-1,-1,-1,,9999,0,0,2,FEW 20   SCT 45,1,8,1,7,1017,RJBE 172300Z 33003KT 9999 FEW020 SCT045 08/07 Q1017 RMK 1CU020     4SC045 A3005=,
20180118_000000.002,0,RJBE,,,,0,20180118000000,-1,-1,-1,-1,280,-1,5,-1,-1,-1,-1,,9999,0,0,2,FEW 9   BKN 45,1,9,1,8,1018,RJBE 180000Z 28005KT 9999 FEW009 BKN045 09/08 Q1018 RMK 1ST009     5SC045 A3006=,
20180118_010000.002,0,RJBE,,,,0,20180118010000,-1,-1,-1,-1,270,-1,11,-1,-1,-1,-1,,9999,0,0,2,FEW 10   BKN 45,1,10,1,8,1019,RJBE 180100Z 27011KT 9999 FEW010 BKN045 10/08 Q1019 RMK 1CU010     6SC045 A3011=,
20180118_020000.002,0,RJBE,,,,0,20180118020000,-1,-1,-1,-1,260,-1,10,-1,-1,-1,-1,,9999,0,0,2,FEW 15   BKN 50,1,9,1,8,1019,RJBE 180200Z 26010KT 9999 FEW015 BKN050 09/08 Q1019 RMK 1CU015     5SC050 A3009=,
20180118_030000.003,0,RJBE,,,,0,20180118030000,-1,-1,-1,-1,260,-1,11,-1,-1,-1,-1,,9999,0,0,2,FEW 15   SCT -9999,1,11,1,7,1018,RJBE 180300Z 26011KT 9999 FEW015 SCT/// 11/07 Q1018 RMK 1CU015     A3008=,
20180118_040000.002,0,RJBE,,,,0,20180118040000,-1,-1,-1,-1,220,-1,7,-1,-1,-1,-1,,9999,0,0,1,FEW 25,1,11,1,8,1018,RJBE 180400Z 22007KT 9999 FEW025 11/08 Q1018 RMK 1CU025 A3007=,
20180118_050000.002,0,RJBE,,,,0,20180118050000,-1,-1,-1,-1,270,-1,12,-1,-1,-1,-1,,9999,0,0,1,FEW 30,1,12,1,6,1017,RJBE 180500Z 27012KT 9999 FEW030 12/06 Q1017 RMK 1CU030 A3006=,
20180118_060000.002,0,RJBE,,,,0,20180118060000,-1,-1,-1,-1,260,-1,9,-1,-1,-1,-1,,9999,0,0,1,FEW 40,1,12,1,6,1017,RJBE 180600Z 26009KT 9999 FEW040 12/06 Q1017 RMK 1CU040 A3005=,
20180118_070000.002,0,RJBE,,,,0,20180118070000,-1,-1,-1,-1,270,-1,7,-1,-1,-1,-1,,9999,0,0,2,FEW 20   SCT 40,1,12,1,6,1018,RJBE 180700Z 27007KT 9999 FEW020 SCT040 12/06 Q1018 RMK 1CU020     3CU040 A3006=,
20180118_080000.002,0,RJBE,,,,0,20180118080000,-1,-1,-1,-1,260,-1,9,-1,-1,-1,-1,,9999,0,0,2,FEW 40   SCT 60,1,10,1,7,1018,RJBE 180800Z 26009KT 9999 FEW040 SCT060 10/07 Q1018 RMK 2CU040     3SC060 A3007=,
20180118_090000.002,0,RJBE,,,,0,20180118090000,-1,-1,-1,-1,260,-1,7,-1,-1,-1,-1,,9999,0,0,2,FEW 35   SCT 60,1,10,1,8,1019,RJBE 180900Z 26007KT 9999 FEW035 SCT060 10/08 Q1019 RMK 1CU035     3SC060 A3009=,
20180118_100000.002,0,RJBE,,,,0,20180118100000,-1,-1,-1,-1,999,-1,1,-1,-1,-1,-1,,9999,0,0,2,FEW 20   SCT 50,1,10,1,8,1019,RJBE 181000Z VRB01KT 9999 FEW020 SCT050 10/08 Q1019 RMK 1CU020     4SC050 A3010=,
20180118_110000.002,0,RJBE,,,,0,20180118110000,-1,-1,-1,-1,999,-1,2,-1,-1,-1,-1,,9999,0,0,2,FEW 20   SCT 50,1,11,1,6,1019,RJBE 181100Z VRB02KT 9999 FEW020 SCT050 11/06 Q1019 RMK 1CU020     4SC050 A3010=,
20180118_120000.002,0,RJBE,,,,0,20180118120000,-1,-1,-1,-1,320,-1,4,-1,-1,-1,-1,,9999,0,0,3,FEW 20   SCT 40   BKN 60,1,9,1,5,1020,RJBE 181200Z 32004KT 9999 FEW020 SCT040 BKN060 09/05 Q1020 RMK     1CU020 4CU040 6SC060 A3012=,
20180118_220000.002,0,RJBE,,,,0,20180118220000,-1,-1,-1,-1,20,-1,6,-1,-1,-1,-1,,9999,0,0,3,FEW 20   SCT 45   BKN 60,1,8,1,3,1020,RJBE 182200Z 02006KT 9999 FEW020 SCT045 BKN060 08/03 Q1020 RMK     1CU020 3CU045 7SC060 A3015=,
20180118_230000.003,0,RJBE,,,,0,20180118230000,-1,-1,-1,-1,20,-1,8,-1,-1,350,60,,9999,0,0,2,FEW 20   BKN 50,1,8,1,2,1021,RJBE 182300Z 02008KT 350V060 9999 FEW020 BKN050 08/02 Q1021     RMK 1CU020 7SC050 A3016=,
20180119_000000.002,0,RJBE,,,,0,20180119000000,-1,-1,-1,-1,20,-1,6,-1,-1,-1,-1,,9999,0,0,2,FEW 30   BKN 50,1,9,1,2,1021,RJBE 190000Z 02006KT 9999 FEW030 BKN050 09/02 Q1021 RMK 1CU030     7SC050 A3018=,
20180119_010000.003,0,RJBE,,,,0,20180119010000,-1,-1,-1,-1,130,-1,4,-1,-1,10,140,,9999,0,0,2,FEW 30   BKN 50,1,11,1,1,1021,RJBE 190100Z 13004KT 010V140 9999 FEW030 BKN050 11/01 Q1021     RMK 1CU030 5SC050 A3017=,
20180119_020000.002,0,RJBE,,,,0,20180119020000,-1,-1,-1,-1,110,-1,8,-1,-1,-1,-1,,9999,0,0,2,FEW 35   SCT 50,1,10,1,3,1021,RJBE 190200Z 11008KT 9999 FEW035 SCT050 10/03 Q1021 RMK 2CU035     3SC050 A3016=,
20180119_030000.002,0,RJBE,,,,0,20180119030000,-1,-1,-1,-1,110,-1,8,-1,-1,-1,-1,,9999,0,0,2,FEW 20   SCT 40,1,11,1,2,1020,RJBE 190300Z 11008KT 9999 FEW020 SCT040 11/02 Q1020 RMK 1CU020     3CU040 A3013=,
20180119_040000.002,0,RJBE,,,,0,20180119040000,-1,-1,-1,-1,210,-1,3,-1,-1,140,280,,9999,0,0,1,FEW 30,1,13,-1,0,1019,RJBE 190400Z 21003KT 140V280 9999 FEW030 13/M00 Q1019 RMK     2CU030 A3011=,
20180119_050000.003,0,RJBE,,,,0,20180119050000,-1,-1,-1,-1,80,-1,9,-1,-1,30,100,,9999,0,0,1,FEW 30,1,12,-1,0,1018,RJBE 190500Z 08009KT 030V100 9999 FEW030 12/M00 Q1018 RMK     1CU030 A3006=,
20180119_060000.002,0,RJBE,,,,0,20180119060000,-1,-1,-1,-1,100,-1,10,-1,-1,-1,-1,,9999,0,0,1,FEW 35,1,11,1,3,1017,RJBE 190600Z 10010KT 9999 FEW035 11/03 Q1017 RMK 1CU035 A3005=,
20180119_070000.002,0,RJBE,,,,0,20180119070000,-1,-1,-1,-1,100,-1,6,-1,-1,-1,-1,,9999,0,0,2,FEW 35   SCT 50,1,11,1,1,1018,RJBE 190700Z 10006KT 9999 FEW035 SCT050 11/01 Q1018 RMK 1CU035     4SC050 A3006=,
20180119_080000.002,0,RJBE,,,,0,20180119080000,-1,-1,-1,-1,350,-1,6,-1,-1,-1,-1,,9999,0,0,2,FEW 35   SCT 50,1,10,-1,1,1018,RJBE 190800Z 35006KT 9999 FEW035 SCT050 10/M01 Q1018 RMK     1CU035 3SC050 A3007=,
20180119_090000.003,0,RJBE,,,,0,20180119090000,-1,-1,-1,-1,40,-1,7,-1,-1,-1,-1,CAVOK,-1,0,0,0,,1,9,1,0,1018,RJBE 190900Z 04007KT CAVOK 09/00 Q1018 RMK A3007=,
20180119_100000.002,0,RJBE,,,,0,20180119100000,-1,-1,-1,-1,60,-1,8,-1,-1,-1,-1,CAVOK,-1,0,0,0,,1,8,1,1,1018,RJBE 191000Z 06008KT CAVOK 08/01 Q1018 RMK A3008=,
20180119_110000.002,0,RJBE,,,,0,20180119110000,-1,-1,-1,-1,70,-1,8,-1,-1,-1,-1,CAVOK,-1,0,0,0,,1,7,1,1,1018,RJBE 191100Z 07008KT CAVOK 07/01 Q1018 RMK A3007=,
20180119_120000.003,0,RJBE,,,,0,20180119120000,-1,-1,-1,-1,40,-1,5,-1,-1,-1,-1,CAVOK,-1,0,0,0,,1,8,1,0,1018,RJBE 191200Z 04005KT CAVOK 08/00 Q1018 RMK A3008=,
20180119_220000.002,0,RJBE,,,,0,20180119220000,-1,-1,-1,-1,50,-1,4,-1,-1,-1,-1,,9999,0,0,2,FEW 45   BKN 60,1,4,1,1,1019,RJBE 192200Z 05004KT 9999 FEW045 BKN060 04/01 Q1019 RMK 1SC045     5SC060 A3010=,
20180119_230000.002,0,RJBE,,,,0,20180119230000,-1,-1,-1,-1,20,-1,3,-1,-1,350,120,CAVOK,-1,0,0,0,,1,5,1,2,1019,RJBE 192300Z 02003KT 350V120 CAVOK 05/02 Q1019 RMK A3010=,
20180120_000000.002,0,RJBE,,,,0,20180120000000,-1,-1,-1,-1,140,-1,2,-1,-1,-1,-1,CAVOK,-1,0,0,0,,1,7,1,2,1019,RJBE 200000Z 14002KT CAVOK 07/02 Q1019 RMK A3010=,
20180120_010000.002,0,RJBE,,,,0,20180120010000,-1,-1,-1,-1,999,-1,2,-1,-1,-1,-1,,9999,0,0,1,FEW 40,1,8,1,3,1019,RJBE 200100Z VRB02KT 9999 FEW040 08/03 Q1019 RMK 1CU040 A3011=,
20180120_020000.003,0,RJBE,,,,0,20180120020000,-1,-1,-1,-1,190,-1,4,-1,-1,-1,-1,,9999,0,0,3,FEW 40   SCT 60   BKN -9999,1,8,1,3,1019,RJBE 200200Z 19004KT 9999 FEW040 SCT060 BKN/// 08/03 Q1019 RMK     1CU040 4SC060 A3010=,
20180120_030000.002,0,RJBE,,,,0,20180120030000,-1,-1,-1,-1,230,-1,8,-1,-1,-1,-1,,9999,0,0,2,FEW 40   SCT -9999,1,10,1,5,1018,RJBE 200300Z 23008KT 9999 FEW040 SCT/// 10/05 Q1018 RMK 1CU040     A3008=,
20180120_040000.002,0,RJBE,,,,0,20180120040000,-1,-1,-1,-1,260,-1,13,-1,-1,-1,-1,,9999,0,0,1,FEW 40,1,10,1,5,1018,RJBE 200400Z 26013KT 9999 FEW040 10/05 Q1018 RMK 1CU040 A3008=,
20180120_050000.002,0,RJBE,,,,0,20180120050000,-1,-1,-1,-1,260,-1,13,-1,-1,-1,-1,,9999,0,0,1,FEW 40,1,10,1,5,1018,RJBE 200500Z 26013KT 9999 FEW040 10/05 Q1018 RMK 2CU040 A3006=,
20180120_060000.002,0,RJBE,,,,0,20180120060000,-1,-1,-1,-1,250,-1,9,-1,-1,-1,-1,,9999,0,0,3,FEW 30   SCT 40   BKN 50,1,10,1,6,1017,RJBE 200600Z 25009KT 9999 FEW030 SCT040 BKN050 10/06 Q1017 RMK     1CU030 3CU040 5SC050 A3005=,
20180120_070000.002,0,RJBE,,,,0,20180120070000,-1,-1,-1,-1,110,-1,5,-1,-1,-1,-1,,9999,0,0,2,FEW 35   SCT 50,1,10,1,5,1017,RJBE 200700Z 11005KT 9999 FEW035 SCT050 10/05 Q1017 RMK 1CU035     3SC050 A3004=,
20180120_080000.002,0,RJBE,,,,0,20180120080000,-1,-1,-1,-1,40,-1,10,-1,-1,-1,-1,,9999,0,0,2,FEW 35   BKN 50,1,10,1,2,1017,RJBE 200800Z 04010KT 9999 FEW035 BKN050 10/02 Q1017 RMK 1CU035     5SC050 A3006=,
20180120_090000.002,0,RJBE,,,,0,20180120090000,-1,-1,-1,-1,340,-1,7,-1,-1,-1,-1,,9999,0,0,3,FEW 30   SCT 50   BKN -9999,1,9,1,2,1019,RJBE 200900Z 34007KT 9999 FEW030 SCT050 BKN/// 09/02 Q1019 RMK     1CU030 3SC050 A3010=,
20180120_100000.002,0,RJBE,,,,0,20180120100000,-1,-1,-1,-1,20,-1,9,-1,-1,-1,-1,,9999,0,0,3,FEW 30   SCT 50   BKN -9999,1,9,1,0,1019,RJBE 201000Z 02009KT 9999 FEW030 SCT050 BKN/// 09/00 Q1019 RMK     1CU030 3SC050 A3010=,
20180120_110000.002,0,RJBE,,,,0,20180120110000,-1,-1,-1,-1,20,-1,7,-1,-1,-1,-1,,9999,0,0,2,FEW 30   BKN -9999,1,8,1,0,1019,RJBE 201100Z 02007KT 9999 FEW030 BKN/// 08/00 Q1019 RMK 1CU030     A3011=,
20180120_120000.002,0,RJBE,,,,0,20180120120000,-1,-1,-1,-1,90,-1,3,-1,-1,50,120,,9999,0,0,2,FEW 30   BKN -9999,1,7,1,2,1019,RJBE 201200Z 09003KT 050V120 9999 FEW030 BKN/// 07/02 Q1019     RMK 1CU030 A3011=,
20180120_220000.002,0,RJBE,,,,0,20180120220000,-1,-1,-1,-1,40,-1,3,-1,-1,-1,-1,,9999,0,0,2,FEW 30   SCT 50,1,3,1,1,1019,RJBE 202200Z 04003KT 9999 FEW030 SCT050 03/01 Q1019 RMK 1CU030     3SC050 A3012=,
20180120_230000.002,0,RJBE,,,,0,20180120230000,-1,-1,-1,-1,999,-1,1,-1,-1,-1,-1,CAVOK,-1,0,0,0,,1,4,1,3,1020,RJBE 202300Z VRB01KT CAVOK 04/03 Q1020 RMK A3014=,
20180121_000000.002,0,RJBE,,,,0,20180121000000,-1,-1,-1,-1,210,-1,3,-1,-1,-1,-1,,9999,0,0,2,FEW 25   SCT -9999,1,7,1,4,1020,RJBE 210000Z 21003KT 9999 FEW025 SCT/// 07/04 Q1020 RMK 1CU025     A3014=,
20180121_010000.002,0,RJBE,,,,0,20180121010000,-1,-1,-1,-1,240,-1,6,-1,-1,-1,-1,,9999,0,0,2,FEW 25   SCT -9999,1,8,1,3,1021,RJBE 210100Z 24006KT 9999 FEW025 SCT/// 08/03 Q1021 RMK 1CU025     A3015=,
20180121_020000.002,0,RJBE,,,,0,20180121020000,-1,-1,-1,-1,260,-1,8,-1,-1,-1,-1,,9999,0,0,2,FEW 25   BKN -9999,1,9,1,3,1020,RJBE 210200Z 26008KT 9999 FEW025 BKN/// 09/03 Q1020 RMK 1CU025     A3013=,
20180121_030000.002,0,RJBE,,,,0,20180121030000,-1,-1,-1,-1,250,-1,9,-1,-1,-1,-1,,9999,0,0,2,FEW 25   BKN -9999,1,9,1,2,1019,RJBE 210300Z 25009KT 9999 FEW025 BKN/// 09/02 Q1019 RMK 1CU025     A3011=,
20180121_040000.003,0,RJBE,,,,0,20180121040000,-1,-1,-1,-1,260,-1,12,-1,-1,-1,-1,,9999,0,0,2,FEW 25   SCT -9999,1,9,1,2,1019,RJBE 210400Z 26012KT 9999 FEW025 SCT/// 09/02 Q1019 RMK 1CU025     A3010=,
20180121_050000.002,0,RJBE,,,,0,20180121050000,-1,-1,-1,-1,250,-1,11,-1,-1,-1,-1,,9999,0,0,1,FEW 30,1,9,1,2,1018,RJBE 210500Z 25011KT 9999 FEW030 09/02 Q1018 RMK 1CU030 A3008=,
20180121_060000.002,0,RJBE,,,,0,20180121060000,-1,-1,-1,-1,260,-1,12,-1,-1,-1,-1,,9999,0,0,2,FEW 30   BKN 50,1,10,1,3,1018,RJBE 210600Z 26012KT 9999 FEW030 BKN050 10/03 Q1018 RMK 1CU030     5SC050 A3008=,
20180121_070000.002,0,RJBE,,,,0,20180121070000,-1,-1,-1,-1,280,-1,9,-1,-1,-1,-1,,9999,0,0,2,FEW 30   BKN 50,1,9,1,3,1018,RJBE 210700Z 28009KT 9999 FEW030 BKN050 09/03 Q1018 RMK 1CU030     5SC050 A3009=,
20180121_080000.002,0,RJBE,,,,0,20180121080000,-1,-1,-1,-1,290,-1,5,-1,-1,-1,-1,,9999,0,0,2,FEW 30   BKN 50,1,9,1,3,1019,RJBE 210800Z 29005KT 9999 FEW030 BKN050 09/03 Q1019 RMK 1CU030     5SC050 A3010=,
20180121_090000.002,0,RJBE,,,,0,20180121090000,-1,-1,-1,-1,20,-1,8,-1,-1,-1,-1,,9999,0,0,2,FEW 30   BKN -9999,1,9,1,1,1020,RJBE 210900Z 02008KT 9999 FEW030 BKN/// 09/01 Q1020 RMK 1CU030     A3012=,
20180121_100000.002,0,RJBE,,,,0,20180121100000,-1,-1,-1,-1,360,-1,7,-1,-1,-1,-1,,9999,0,0,2,FEW 30   BKN -9999,1,8,1,0,1020,RJBE 211000Z 36007KT 9999 FEW030 BKN/// 08/00 Q1020 RMK 1CU030     A3014=,
20180121_110000.002,0,RJBE,,,,0,20180121110000,-1,-1,-1,-1,10,-1,7,-1,-1,330,70,,9999,0,0,2,FEW 35   BKN -9999,1,8,-1,1,1021,RJBE 211100Z 01007KT 330V070 9999 FEW035 BKN/// 08/M01 Q1021     RMK 1CU035 A3015=,
20180121_120000.002,0,RJBE,,,,0,20180121120000,-1,-1,-1,-1,10,-1,5,-1,-1,340,40,,9999,0,0,2,FEW 35   BKN -9999,1,7,-1,2,1020,RJBE 211200Z 01005KT 340V040 9999 FEW035 BKN/// 07/M02 Q1020     RMK 1CU035 A3014=,
20180121_220000.002,0,RJBE,,,,0,20180121220000,-1,-1,-1,-1,80,-1,14,-1,-1,-1,-1,CAVOK,-1,0,0,0,,1,5,1,1,1016,RJBE 212200Z 08014KT CAVOK 05/01 Q1016 RMK A3002=,
20180121_230000.002,0,RJBE,,,,0,20180121230000,-1,-1,-1,-1,70,-1,13,-1,-1,-1,-1,CAVOK,-1,0,0,0,,1,5,1,1,1016,RJBE 212300Z 07013KT CAVOK 05/01 Q1016 RMK 5AC090 A3000=,
20180122_000000.002,0,RJBE,,,,0,20180122000000,-1,-1,-1,-1,60,-1,13,-1,-1,-1,-1,CAVOK,-1,0,0,0,,1,5,1,1,1016,RJBE 220000Z 06013KT CAVOK 05/01 Q1016 RMK 5AC080 A3001=,
20180122_010000.002,0,RJBE,,,,0,20180122010000,-1,-1,-1,-1,50,-1,14,-1,-1,-1,-1,CAVOK,-1,0,0,0,,1,6,1,1,1016,RJBE 220100Z 05014KT CAVOK 06/01 Q1016 RMK 5AC080 A3002=,
20180122_020000.002,0,RJBE,,,,0,20180122020000,-1,-1,-1,-1,50,-1,10,-1,-1,-1,-1,,9999,0,0,3,FEW 40   BKN 60   BKN 80,1,5,1,0,1015,RJBE 220200Z 05010KT 9999 FEW040 BKN060 BKN080 05/00 Q1015 RMK     1CU040 5SC060 6AC080 A2998=,
20180122_030000.002,0,RJBE,,,,0,20180122030000,-1,-1,-1,-1,50,-1,7,-1,-1,-1,-1,,9999,0,1,3,FEW 15   SCT 40   BKN 50,1,5,1,1,1013,RJBE 220300Z 05007KT 9999 VCSH FEW015 SCT040 BKN050 05/01     Q1013 RMK 1CU015 3CU040 6SC050 A2993=,VC SH
20180122_040000.002,0,RJBE,,,,0,20180122040000,-1,-1,-1,-1,100,-1,13,-1,-1,70,130,,9999,0,1,3,FEW 6   SCT 20   BKN 30,1,5,1,1,1012,RJBE 220400Z 10013KT 070V130 9999 -RA FEW006 SCT020 BKN030     05/01 Q1012 RMK 1ST006 3CU020 5CU030 A2989=,- RA
20180122_050000.002,0,RJBE,,,,0,20180122050000,-1,-1,-1,-1,80,-1,10,-1,-1,-1,-1,,9999,0,1,3,FEW 8   BKN 12   BKN 20,1,3,1,2,1011,RJBE 220500Z 08010KT 9999 -RA FEW008 BKN012 BKN020 03/02 Q1011     RMK 1ST008 5CU012 6CU020 A2987=,- RA
20180122_060000.003,0,RJBE,,,,0,20180122060000,-1,-1,-1,-1,20,-1,7,-1,-1,-1,-1,,9999,0,1,3,FEW 5   SCT 9   BKN 25,1,3,1,2,1010,RJBE 220600Z 02007KT 9999 -RA FEW005 SCT009 BKN025 03/02 Q1010     RMK 1ST005 4CU009 7CU025 A2983=,- RA
20180122_070000.002,0,RJBE,,,,0,20180122070000,-1,-1,-1,-1,300,-1,9,-1,-1,-1,-1,,9999,0,1,3,FEW 8   SCT 10   BKN 20,1,4,1,2,1010,RJBE 220700Z 30009KT 9999 -RA FEW008 SCT010 BKN020 04/02 Q1010     RMK 1ST008 3CU010 7CU020 A2984=,- RA
20180122_080000.003,0,RJBE,,,,0,20180122080000,-1,-1,-1,-1,320,-1,9,-1,-1,-1,-1,,9999,0,1,3,FEW 10   SCT 15   BKN 20,1,4,1,2,1011,RJBE 220800Z 32009KT 9999 -RA FEW010 SCT015 BKN020 04/02 Q1011     RMK 1CU010 3CU015 7CU020 A2986=,- RA
20180122_090000.002,0,RJBE,,,,0,20180122090000,-1,-1,-1,-1,290,-1,7,-1,-1,-1,-1,,9999,0,1,3,FEW 10   SCT 20   BKN 25,1,4,1,2,1011,RJBE 220900Z 29007KT 9999 -RA FEW010 SCT020 BKN025 04/02 Q1011     RMK 1CU010 3CU020 7CU025 A2987=,- RA
20180122_100000.002,0,RJBE,,,,0,20180122100000,-1,-1,-1,-1,290,-1,6,-1,-1,270,350,,9999,0,0,3,FEW 10   SCT 25   BKN 40,1,4,1,2,1012,RJBE 221000Z 29006KT 270V350 9999 FEW010 SCT025 BKN040 04/02     Q1012 RMK 1CU010 3CU025 5CU040 A2988=,
20180122_110000.003,0,RJBE,,,,0,20180122110000,-1,-1,-1,-1,310,-1,5,-1,-1,-1,-1,,9999,0,0,2,FEW 10   BKN 50,1,3,1,2,1012,RJBE 221100Z 31005KT 9999 FEW010 BKN050 03/02 Q1012 RMK 1CU010     5SC050 A2989=,
20180122_120000.002,0,RJBE,,,,0,20180122120000,-1,-1,-1,-1,300,-1,5,-1,-1,-1,-1,,9999,0,0,1,FEW 15,1,2,1,1,1011,RJBE 221200Z 30005KT 9999 FEW015 02/01 Q1011 RMK 1CU015 A2988=,
20180122_220000.002,0,RJBE,,,,0,20180122220000,-1,-1,-1,-1,230,-1,15,-1,-1,-1,-1,,9999,0,0,2,FEW 25   BKN 40,1,8,1,4,1010,RJBE 222200Z 23015KT 9999 FEW025 BKN040 08/04 Q1010 RMK 1CU025     5CU040 A2984=,
20180122_230000.003,0,RJBE,,,,0,20180122230000,-1,-1,-1,-1,240,-1,17,-1,-1,-1,-1,,9999,0,1,2,FEW 25   BKN 40,1,8,1,5,1010,RJBE 222300Z 24017KT 9999 VCSH FEW025 BKN040 08/05 Q1010 RMK     1CU025 7CU040 A2984=,VC SH
20180123_000000.002,0,RJBE,,,,0,20180123000000,-1,-1,-1,-1,270,-1,16,-1,-1,-1,-1,,9999,0,1,2,FEW 20   SCT 50,1,8,1,5,1011,RJBE 230000Z 27016KT 9999 VCSH FEW020 SCT050 08/05 Q1011 RMK     1CU020 3SC050 A2986=,VC SH
20180123_010000.002,0,RJBE,,,,0,20180123010000,-1,-1,-1,-1,270,-1,17,-1,-1,-1,-1,,9999,0,0,1,FEW 25,1,9,1,5,1011,RJBE 230100Z 27017KT 9999 FEW025 09/05 Q1011 RMK 1CU025 A2987=,
20180123_020000.002,0,RJBE,,,,0,20180123020000,-1,-1,-1,-1,280,-1,24,-1,-1,-1,-1,,9999,0,0,1,FEW 25,1,9,1,1,1011,RJBE 230200Z 28024KT 9999 FEW025 09/01 Q1011 RMK 1CU025 A2986=,
20180123_030000.003,0,RJBE,,,,0,20180123030000,-1,-1,-1,-1,270,-1,21,-1,-1,-1,-1,,9999,0,1,1,FEW 25,1,9,1,1,1010,RJBE 230300Z 27021KT 9999 VCSH FEW025 09/01 Q1010 RMK 2CU025     A2984=,VC SH
20180123_040000.003,0,RJBE,,,,0,20180123040000,-1,-1,-1,-1,270,-1,24,-1,34,-1,-1,,9999,0,1,2,FEW 25   SCT 40,1,9,1,1,1010,RJBE 230400Z 27024G34KT 9999 -SHRA FEW025 SCT040 09/01 Q1010     RMK 1CU025 3CU040 A2984=,- RA SH
20180123_050000.002,0,RJBE,,,,0,20180123050000,-1,-1,-1,-1,290,-1,18,-1,-1,-1,-1,,9999,0,1,2,FEW 20   SCT 40,1,7,-1,1,1011,RJBE 230500Z 29018KT 9999 VCSH FEW020 SCT040 07/M01 Q1011 RMK     1CU020 3CU040 A2987=,VC SH
20180123_060000.003,0,RJBE,,,,0,20180123060000,-1,-1,-1,-1,270,-1,25,-1,36,-1,-1,,9999,0,1,3,FEW 20   SCT 40   BKN 60,1,7,-1,2,1012,RJBE 230600Z 27025G36KT 9999 -SHRA FEW020 SCT040 BKN060 07/M02     Q1012 RMK 1CU020 3CU040 5SC060 A2988=,- RA SH
20180123_070000.002,0,RJBE,,,,0,20180123070000,-1,-1,-1,-1,300,-1,22,-1,-1,-1,-1,,9999,0,0,2,FEW 20   SCT -9999,1,5,-1,1,1012,RJBE 230700Z 30022KT 9999 FEW020 SCT/// 05/M01 Q1012 RMK     1CU020 A2990=,
20180123_080000.002,0,RJBE,,,,0,20180123080000,-1,-1,-1,-1,280,-1,16,-1,-1,-1,-1,,9999,0,0,1,FEW 20,1,5,-1,4,1012,RJBE 230800Z 28016KT 9999 FEW020 05/M04 Q1012 RMK 1CU020     A2990=,
20180123_090000.002,0,RJBE,,,,0,20180123090000,-1,-1,-1,-1,300,-1,14,-1,-1,-1,-1,,9999,0,0,1,FEW 20,1,4,-1,8,1013,RJBE 230900Z 30014KT 9999 FEW020 04/M08 Q1013 RMK 1CU020     A2993=,
20180123_100000.002,0,RJBE,,,,0,20180123100000,-1,-1,-1,-1,300,-1,17,-1,-1,-1,-1,,9999,0,0,1,FEW 20,1,3,-1,10,1014,RJBE 231000Z 30017KT 9999 FEW020 03/M10 Q1014 RMK 1CU020     A2995=,
20180123_110000.002,0,RJBE,,,,0,20180123110000,-1,-1,-1,-1,300,-1,13,-1,-1,270,330,,9999,0,0,2,FEW 30   SCT 50,1,2,-1,9,1015,RJBE 231100Z 30013KT 270V330 9999 FEW030 SCT050 02/M09 Q1015     RMK 1CU030 4SC050 A2998=,
20180123_120000.002,0,RJBE,,,,0,20180123120000,-1,-1,-1,-1,280,-1,14,-1,-1,-1,-1,,9999,0,0,2,FEW 35   SCT 50,1,1,-1,9,1016,RJBE 231200Z 28014KT 9999 FEW035 SCT050 01/M09 Q1016 RMK     1CU035 4SC050 A3000=,
20180123_220000.002,0,RJBE,,,,0,20180123220000,-1,-1,-1,-1,300,-1,11,-1,-1,-1,-1,,9999,0,0,2,FEW 20   SCT 35,-1,1,-1,8,1016,RJBE 232200Z 30011KT 9999 FEW020 SCT035 M01/M08 Q1016 RMK     1CU020 3CU035 A3001=,
20180123_230000.002,0,RJBE,,,,0,20180123230000,-1,-1,-1,-1,280,-1,13,-1,-1,-1,-1,,9999,0,0,2,FEW 25   SCT 40,1,0,-1,8,1016,RJBE 232300Z 28013KT 9999 FEW025 SCT040 00/M08 Q1016 RMK     1CU025 3CU040 A3002=,
20180124_000000.002,0,RJBE,,,,0,20180124000000,-1,-1,-1,-1,300,-1,9,-1,-1,-1,-1,,9999,0,0,2,FEW 30   BKN 40,1,0,-1,8,1016,RJBE 240000Z 30009KT 9999 FEW030 BKN040 00/M08 Q1016 RMK     1CU030 5CU040 A3003=,
20180124_010000.003,0,RJBE,,,,0,20180124010000,-1,-1,-1,-1,280,-1,23,-1,-1,-1,-1,,9999,0,0,2,FEW 30   SCT 40,1,2,-1,8,1016,RJBE 240100Z 28023KT 9999 FEW030 SCT040 02/M08 Q1016 RMK     1CU030 4CU040 A3002=,
20180124_020000.002,0,RJBE,,,,0,20180124020000,-1,-1,-1,-1,270,-1,21,-1,-1,-1,-1,,9999,0,0,2,FEW 25   BKN 40,1,2,-1,8,1015,RJBE 240200Z 27021KT 9999 FEW025 BKN040 02/M08 Q1015 RMK     1CU025 6CU040 A3000=,
20180124_030000.002,0,RJBE,,,,0,20180124030000,-1,-1,-1,-1,270,-1,22,-1,-1,-1,-1,,9999,0,1,3,FEW 25   SCT 35   BKN 45,1,3,-1,9,1014,RJBE 240300Z 27022KT 9999 -SHSN FEW025 SCT035 BKN045 03/M09     Q1014 RMK 1CU025 3CU035 5CU045 A2995=,- SN SH
20180124_040000.002,0,RJBE,,,,0,20180124040000,-1,-1,-1,-1,270,-1,23,-1,-1,-1,-1,,9999,0,0,2,FEW 30   BKN 40,1,2,-1,9,1013,RJBE 240400Z 27023KT 9999 FEW030 BKN040 02/M09 Q1013 RMK     1CU030 5CU040 A2994=,
20180124_050000.002,0,RJBE,,,,0,20180124050000,-1,-1,-1,-1,280,-1,26,-1,-1,-1,-1,,9999,0,1,2,FEW 30   BKN 40,1,2,-1,9,1013,RJBE 240500Z 28026KT 9999 -SHSN FEW030 BKN040 02/M09 Q1013 RMK     1CU030 6CU040 A2993=,- SN SH
20180124_060000.002,0,RJBE,,,,0,20180124060000,-1,-1,-1,-1,270,-1,25,-1,-1,-1,-1,,9999,0,1,2,FEW 25   BKN 40,1,2,-1,7,1014,RJBE 240600Z 27025KT 9999 -SHSN FEW025 BKN040 02/M07 Q1014 RMK     1CU025 6CU040 A2995=,- SN SH
20180124_070000.002,0,RJBE,,,,0,20180124070000,-1,-1,-1,-1,300,-1,20,-1,-1,-1,-1,,9999,0,0,2,FEW 25   SCT 45,1,1,-1,11,1015,RJBE 240700Z 30020KT 9999 FEW025 SCT045 01/M11 Q1015 RMK     1CU025 4CU045 A2997=,
20180124_080000.002,0,RJBE,,,,0,20180124080000,-1,-1,-1,-1,280,-1,22,-1,32,-1,-1,,9999,0,0,1,FEW 25,-1,0,-1,11,1015,RJBE 240800Z 28022G32KT 9999 FEW025 M00/M11 Q1015 RMK 1CU025     A3000=,
20180124_090000.003,0,RJBE,,,,0,20180124090000,-1,-1,-1,-1,280,-1,21,-1,-1,-1,-1,,9999,0,0,1,FEW 25,-1,1,-1,13,1016,RJBE 240900Z 28021KT 9999 FEW025 M01/M13 Q1016 RMK 2CU025     A3002=,
20180124_100000.002,0,RJBE,,,,0,20180124100000,-1,-1,-1,-1,290,-1,20,-1,-1,-1,-1,,9999,0,0,1,FEW 25,-1,1,-1,13,1016,RJBE 241000Z 29020KT 9999 FEW025 M01/M13 Q1016 RMK 1CU025     A3003=,
20180124_110000.002,0,RJBE,,,,0,20180124110000,-1,-1,-1,-1,290,-1,20,-1,-1,-1,-1,,9999,0,0,1,FEW 25,-1,2,-1,12,1017,RJBE 241100Z 29020KT 9999 FEW025 M02/M12 Q1017 RMK 1CU025     A3004=,
20180124_120000.002,0,RJBE,,,,0,20180124120000,-1,-1,-1,-1,300,-1,17,-1,-1,-1,-1,,9999,0,0,1,FEW 25,-1,2,-1,11,1017,RJBE 241200Z 30017KT 9999 FEW025 M02/M11 Q1017 RMK 1CU025     A3004=,
20180124_220000.002,0,RJBE,,,,0,20180124220000,-1,-1,-1,-1,300,-1,13,-1,-1,-1,-1,,9999,0,0,1,FEW 25,-1,3,-1,7,1018,RJBE 242200Z 30013KT 9999 FEW025 M03/M07 Q1018 RMK 2CU025     A3008=,
20180124_230000.002,0,RJBE,,,,0,20180124230000,-1,-1,-1,-1,300,-1,15,-1,-1,-1,-1,,9999,0,0,1,FEW 25,-1,2,-1,6,1018,RJBE 242300Z 30015KT 9999 FEW025 M02/M06 Q1018 RMK 1CU025     A3008=,
20180125_000000.002,0,RJBE,,,,0,20180125000000,-1,-1,-1,-1,300,-1,15,-1,-1,-1,-1,,9999,0,0,1,FEW 25,-1,0,-1,7,1019,RJBE 250000Z 30015KT 9999 FEW025 M00/M07 Q1019 RMK 1CU025     A3010=,
20180125_010000.002,0,RJBE,,,,0,20180125010000,-1,-1,-1,-1,300,-1,11,-1,-1,-1,-1,,9999,0,0,2,FEW 20   SCT 50,1,2,-1,6,1019,RJBE 250100Z 30011KT 9999 FEW020 SCT050 02/M06 Q1019 RMK     1CU020 3SC050 A3010=,
20180125_020000.003,0,RJBE,,,,0,20180125020000,-1,-1,-1,-1,300,-1,8,-1,-1,270,330,,9999,0,0,2,FEW 20   SCT 60,1,3,-1,6,1019,RJBE 250200Z 30008KT 270V330 9999 FEW020 SCT060 03/M06 Q1019     RMK 1CU020 3SC060 A3009=,
20180125_030000.002,0,RJBE,,,,0,20180125030000,-1,-1,-1,-1,280,-1,6,-1,-1,250,310,,9999,0,1,2,FEW 20   SCT 35,1,4,-1,8,1017,RJBE 250300Z 28006KT 250V310 9999 VCSH FEW020 SCT035 04/M08     Q1017 RMK 1CU020 3CU035 A3006=,VC SH
20180125_040000.002,0,RJBE,,,,0,20180125040000,-1,-1,-1,-1,300,-1,8,-1,-1,-1,-1,,9999,0,1,2,FEW 25   BKN 40,1,3,-1,7,1017,RJBE 250400Z 30008KT 9999 VCSH FEW025 BKN040 03/M07 Q1017 RMK     1CU025 5CU040 A3004=,VC SH
20180125_050000.002,0,RJBE,,,,0,20180125050000,-1,-1,-1,-1,310,-1,9,-1,-1,-1,-1,,9999,0,0,2,FEW 20   BKN 40,1,3,-1,8,1016,RJBE 250500Z 31009KT 9999 FEW020 BKN040 03/M08 Q1016 RMK     1CU020 5CU040 A3003=,
20180125_060000.002,0,RJBE,,,,0,20180125060000,-1,-1,-1,-1,320,-1,8,-1,19,280,350,,9999,0,1,3,FEW 20   SCT 35   BKN 50,1,4,-1,7,1016,RJBE 250600Z 32008G19KT 280V350 9999 -SHSN FEW020 SCT035     BKN050 04/M07 Q1016 RMK 1CU020 4CU035 5SC050 A3002=,- SN SH
20180125_070000.002,0,RJBE,,,,0,20180125070000,-1,-1,-1,-1,320,-1,7,-1,-1,270,10,,9999,0,0,2,FEW 20   SCT 35,1,3,-1,6,1016,RJBE 250700Z 32007KT 270V010 9999 FEW020 SCT035 03/M06 Q1016     RMK 1CU020 3CU035 A3002=,
20180125_080000.002,0,RJBE,,,,0,20180125080000,-1,-1,-1,-1,310,-1,7,-1,-1,260,340,,9999,0,0,2,FEW 20   SCT 35,1,2,-1,7,1016,RJBE 250800Z 31007KT 260V340 9999 FEW020 SCT035 02/M07 Q1016     RMK 1CU020 3CU035 A3002=,
20180125_090000.002,0,RJBE,,,,0,20180125090000,-1,-1,-1,-1,340,-1,6,-1,-1,300,20,,9999,0,0,2,FEW 20   SCT 60,1,1,-1,6,1017,RJBE 250900Z 34006KT 300V020 9999 FEW020 SCT060 01/M06 Q1017     RMK 1CU020 3SC060 A3003=,
20180125_100000.003,0,RJBE,,,,0,20180125100000,-1,-1,-1,-1,340,-1,8,-1,-1,-1,-1,,9999,0,0,1,FEW 20,1,1,-1,5,1016,RJBE 251000Z 34008KT 9999 FEW020 01/M05 Q1016 RMK 1CU020     A3002=,
20180125_110000.003,0,RJBE,,,,0,20180125110000,-1,-1,-1,-1,320,-1,10,-1,-1,-1,-1,,9999,0,0,1,FEW 20,1,1,-1,5,1016,RJBE 251100Z 32010KT 9999 FEW020 01/M05 Q1016 RMK 1CU020     A3001=,
20180125_120000.002,0,RJBE,,,,0,20180125120000,-1,-1,-1,-1,300,-1,13,-1,-1,-1,-1,,9999,0,0,1,FEW 25,1,1,-1,5,1016,RJBE 251200Z 30013KT 9999 FEW025 01/M05 Q1016 RMK 1CU025     A3001=,
20180125_220000.002,0,RJBE,,,,0,20180125220000,-1,-1,-1,-1,300,-1,12,-1,-1,-1,-1,,9999,0,1,2,FEW 25   BKN 50,-1,0,-1,4,1014,RJBE 252200Z 30012KT 9999 -SHSN FEW025 BKN050 M00/M04 Q1014     RMK 2CU025 5SC050 A2996=,- SN SH
20180125_230000.002,0,RJBE,,,,0,20180125230000,-1,-1,-1,-1,310,-1,12,-1,-1,-1,-1,,9999,0,1,1,FEW 25,-1,0,-1,5,1014,RJBE 252300Z 31012KT 9999 VCSH FEW025 M00/M05 Q1014 RMK 2CU025     A2997=,VC SH
20180126_000000.002,0,RJBE,,,,0,20180126000000,-1,-1,-1,-1,300,-1,11,-1,-1,-1,-1,,9999,0,0,1,FEW 20,1,1,-1,4,1015,RJBE 260000Z 30011KT 9999 FEW020 01/M04 Q1015 RMK 2CU020     A2998=,
20180126_010000.002,0,RJBE,,,,0,20180126010000,-1,-1,-1,-1,290,-1,12,-1,-1,-1,-1,,9999,0,0,1,FEW 25,1,3,-1,4,1015,RJBE 260100Z 29012KT 9999 FEW025 03/M04 Q1015 RMK 2CU025     A2998=,
20180126_020000.002,0,RJBE,,,,0,20180126020000,-1,-1,-1,-1,300,-1,14,-1,-1,-1,-1,,9999,0,0,2,FEW 25   SCT 35,1,4,-1,5,1015,RJBE 260200Z 30014KT 9999 FEW025 SCT035 04/M05 Q1015 RMK     1CU025 3CU035 A2997=,
20180126_030000.002,0,RJBE,,,,0,20180126030000,-1,-1,-1,-1,290,-1,16,-1,-1,-1,-1,,9999,0,1,2,FEW 30   BKN 40,1,4,-1,7,1013,RJBE 260300Z 29016KT 9999 VCSH FEW030 BKN040 04/M07 Q1013 RMK     1CU030 5CU040 A2993=,VC SH
20180126_040000.002,0,RJBE,,,,0,20180126040000,-1,-1,-1,-1,300,-1,19,-1,-1,-1,-1,,9999,0,1,3,FEW 30   SCT 40   BKN 50,1,4,-1,8,1012,RJBE 260400Z 30019KT 9999 -SHSN FEW030 SCT040 BKN050 04/M08     Q1012 RMK 1CU030 3CU040 5SC050 A2990=,- SN SH
20180126_050000.002,0,RJBE,,,,0,20180126050000,-1,-1,-1,-1,290,-1,19,-1,-1,-1,-1,,9999,0,1,3,FEW 30   SCT 40   BKN 50,1,5,-1,9,1012,RJBE 260500Z 29019KT 9999 VCSH FEW030 SCT040 BKN050 05/M09     Q1012 RMK 2CU030 4CU040 5SC050 A2990=,VC SH
20180126_060000.002,0,RJBE,,,,0,20180126060000,-1,-1,-1,-1,290,-1,21,-1,-1,-1,-1,,9999,0,1,3,FEW 25   SCT 40   BKN 50,1,5,-1,8,1012,RJBE 260600Z 29021KT 9999 VCSH FEW025 SCT040 BKN050 05/M08     Q1012 RMK 1CU025 3CU040 5SC050 A2991=,VC SH
20180126_070000.002,0,RJBE,,,,0,20180126070000,-1,-1,-1,-1,300,-1,21,-1,-1,-1,-1,,9999,0,1,3,FEW 20   SCT 35   BKN 50,1,4,-1,8,1013,RJBE 260700Z 30021KT 9999 -SHSN FEW020 SCT035 BKN050 04/M08     Q1013 RMK 1CU020 3CU035 5SC050 A2992 5000E=,- SN SH
20180126_080000.003,0,RJBE,,,,0,20180126080000,-1,-1,-1,-1,310,-1,16,-1,-1,-1,-1,,9999,0,1,2,FEW 20   SCT 30,1,3,-1,7,1014,RJBE 260800Z 31016KT 9999 -SHSN FEW020 SCT030 03/M07 Q1014 RMK     1CU020 3CU030 A2995 5000NE=,- SN SH
20180126_090000.002,0,RJBE,,,,0,20180126090000,-1,-1,-1,-1,310,-1,16,-1,-1,-1,-1,,9999,0,1,3,FEW 10   SCT 25   BKN 50,1,2,-1,7,1015,RJBE 260900Z 31016KT 9999 -SHSN FEW010 SCT025 BKN050 02/M07     Q1015 RMK 1CU010 3CU025 5SC050 A2998 3500N-E=,- SN SH
20180126_100000.002,0,RJBE,,,,0,20180126100000,-1,-1,-1,-1,320,-1,12,-1,-1,-1,-1,,9999,0,1,3,FEW 20   SCT 30   BKN 50,1,1,-1,6,1016,RJBE 261000Z 32012KT 9999 VCSH FEW020 SCT030 BKN050 01/M06     Q1016 RMK 1CU020 3CU030 5SC050 A3002=,VC SH
20180126_110000.002,0,RJBE,,,,0,20180126110000,-1,-1,-1,-1,310,-1,11,-1,-1,-1,-1,,9999,0,1,3,FEW 20   SCT 30   BKN 50,1,0,-1,5,1017,RJBE 261100Z 31011KT 9999 -SHSN FEW020 SCT030 BKN050 00/M05     Q1017 RMK 1CU020 3CU030 5SC050 A3004=,- SN SH
20180126_120000.002,0,RJBE,,,,0,20180126120000,-1,-1,-1,-1,310,-1,9,-1,-1,-1,-1,,9999,0,1,3,FEW 20   SCT 30   BKN 70,1,0,-1,4,1018,RJBE 261200Z 31009KT 9999 VCSH FEW020 SCT030 BKN070 00/M04     Q1018 RMK 1CU020 3CU030 5AC070 A3007=,VC SH
20180126_220000.002,0,RJBE,,,,0,20180126220000,-1,-1,-1,-1,320,-1,8,-1,-1,-1,-1,,9999,0,0,1,FEW 20,-1,2,-1,5,1021,RJBE 262200Z 32008KT 9999 FEW020 M02/M05 Q1021 RMK 1CU020     A3017=,
20180126_230000.002,0,RJBE,,,,0,20180126230000,-1,-1,-1,-1,330,-1,9,-1,-1,-1,-1,,9999,0,0,1,FEW 30,-1,0,-1,4,1022,RJBE 262300Z 33009KT 9999 FEW030 M00/M04 Q1022 RMK 1CU030     A3018=,
20180127_000000.002,0,RJBE,,,,0,20180127000000,-1,-1,-1,-1,330,-1,8,-1,-1,-1,-1,,9999,0,1,2,FEW 25   SCT 40,1,1,-1,4,1022,RJBE 270000Z 33008KT 9999 VCSH FEW025 SCT040 01/M04 Q1022 RMK     1CU025 3CU040 A3021=,VC SH
20180127_010000.002,0,RJBE,,,,0,20180127010000,-1,-1,-1,-1,290,-1,5,-1,-1,270,30,,9999,0,1,2,FEW 25   SCT 40,1,3,-1,4,1023,RJBE 270100Z 29005KT 270V030 9999 VCSH FEW025 SCT040 03/M04     Q1023 RMK 1CU025 3CU040 A3022=,VC SH
20180127_020000.002,0,RJBE,,,,0,20180127020000,-1,-1,-1,-1,310,-1,8,-1,-1,-1,-1,,9999,0,1,3,FEW 15   SCT 30   BKN 50,1,4,-1,4,1023,RJBE 270200Z 31008KT 9999 -SHSN FEW015 SCT030 BKN050 04/M04     Q1023 RMK 1CU015 3CU030 5SC050 A3022=,- SN SH
20180127_030000.002,0,RJBE,,,,0,20180127030000,-1,-1,-1,-1,320,-1,7,-1,-1,290,350,,9999,0,0,2,FEW 30   SCT 40,1,4,-1,3,1022,RJBE 270300Z 32007KT 290V350 9999 FEW030 SCT040 04/M03 Q1022     RMK 2CU030 4CU040 A3019=,
20180127_040000.002,0,RJBE,,,,0,20180127040000,-1,-1,-1,-1,320,-1,13,-1,-1,-1,-1,,9999,0,1,2,FEW 25   BKN 40,1,5,-1,4,1022,RJBE 270400Z 32013KT 9999 VCSH FEW025 BKN040 05/M04 Q1022 RMK     2CU025 6CU040 A3018=,VC SH
20180127_050000.002,0,RJBE,,,,0,20180127050000,-1,-1,-1,-1,10,-1,11,-1,-1,-1,-1,,9999,0,1,2,FEW 25   SCT 40,1,4,-1,5,1022,RJBE 270500Z 01011KT 9999 VCSH FEW025 SCT040 04/M05 Q1022 RMK     1CU025 4CU040 A3018=,VC SH
20180127_060000.002,0,RJBE,,,,0,20180127060000,-1,-1,-1,-1,20,-1,11,-1,-1,-1,-1,,9999,0,1,2,FEW 25   BKN 40,1,4,-1,4,1022,RJBE 270600Z 02011KT 9999 VCSH FEW025 BKN040 04/M04 Q1022 RMK     1CU025 5CU040 A3019=,VC SH
20180127_070000.002,0,RJBE,,,,0,20180127070000,-1,-1,-1,-1,10,-1,11,-1,-1,-1,-1,,9999,0,1,2,FEW 25   BKN 40,1,4,-1,4,1022,RJBE 270700Z 01011KT 9999 VCSH FEW025 BKN040 04/M04 Q1022 RMK     1CU025 5CU040 A3019=,VC SH
20180127_080000.002,0,RJBE,,,,0,20180127080000,-1,-1,-1,-1,360,-1,9,-1,-1,-1,-1,,9999,0,0,2,FEW 25   SCT 40,1,3,-1,4,1022,RJBE 270800Z 36009KT 9999 FEW025 SCT040 03/M04 Q1022 RMK     1CU025 3CU040 A3020=,
20180127_090000.003,0,RJBE,,,,0,20180127090000,-1,-1,-1,-1,360,-1,10,-1,-1,-1,-1,,9999,0,0,1,FEW 25,1,2,-1,4,1023,RJBE 270900Z 36010KT 9999 FEW025 02/M04 Q1023 RMK 1CU025     A3022=,
20180127_100000.002,0,RJBE,,,,0,20180127100000,-1,-1,-1,-1,350,-1,10,-1,-1,-1,-1,,9999,0,0,1,FEW 20,1,2,-1,4,1023,RJBE 271000Z 35010KT 9999 FEW020 02/M04 Q1023 RMK 1CU020     A3023=,
20180127_110000.002,0,RJBE,,,,0,20180127110000,-1,-1,-1,-1,10,-1,7,-1,-1,-1,-1,,9999,0,0,1,FEW 20,1,2,-1,4,1023,RJBE 271100Z 01007KT 9999 FEW020 02/M04 Q1023 RMK 1CU020     A3023=,
20180127_120000.002,0,RJBE,,,,0,20180127120000,-1,-1,-1,-1,20,-1,6,-1,-1,-1,-1,CAVOK,-1,0,0,0,,1,1,-1,4,1023,RJBE 271200Z 02006KT CAVOK 01/M04 Q1023 RMK A3023=,
20180127_220000.002,0,RJBE,,,,0,20180127220000,-1,-1,-1,-1,10,-1,2,-1,-1,-1,-1,,9999,0,0,3,FEW 25   BKN 120   BKN 150,1,1,-1,3,1020,RJBE 272200Z 01002KT 9999 FEW025 BKN120 BKN150 01/M03 Q1020     RMK 1CU025 6AC120 7AC150 A3015=,
20180127_230000.002,0,RJBE,,,,0,20180127230000,-1,-1,-1,-1,60,-1,5,-1,-1,-1,-1,,9999,0,0,3,FEW 20   BKN 110   BKN 130,1,1,-1,2,1020,RJBE 272300Z 06005KT 9999 FEW020 BKN110 BKN130 01/M02 Q1020     RMK 1CU020 5AC110 7AS130 A3013=,
20180128_000000.003,0,RJBE,,,,0,20180128000000,-1,-1,-1,-1,50,-1,6,-1,-1,-1,-1,,9999,0,0,3,FEW 20   SCT 90   BKN 110,1,2,-1,1,1020,RJBE 280000Z 05006KT 9999 FEW020 SCT090 BKN110 02/M01 Q1020     RMK 1CU020 4AC090 7AS110 A3012=,
20180128_010000.002,0,RJBE,,,,0,20180128010000,-1,-1,-1,-1,60,-1,6,-1,-1,-1,-1,,9999,0,0,3,FEW 20   SCT 70   BKN 100,1,2,-1,2,1019,RJBE 280100Z 06006KT 9999 FEW020 SCT070 BKN100 02/M02 Q1019     RMK 1CU020 3AC070 7AC100 A3011=,
20180128_020000.002,0,RJBE,,,,0,20180128020000,-1,-1,-1,-1,70,-1,5,-1,-1,-1,-1,,9999,0,0,3,FEW 25   SCT 60   BKN 90,1,3,-1,2,1018,RJBE 280200Z 07005KT 9999 FEW025 SCT060 BKN090 03/M02 Q1018     RMK 1CU025 3SC060 6AC090 A3008=,
20180128_030000.002,0,RJBE,,,,0,20180128030000,-1,-1,-1,-1,50,-1,7,-1,-1,-1,-1,,9999,0,0,3,FEW 35   SCT 45   BKN 70,1,4,-1,3,1016,RJBE 280300Z 05007KT 9999 FEW035 SCT045 BKN070 04/M03 Q1016     RMK 1CU035 4SC045 6AC070 A3002=,
20180128_040000.002,0,RJBE,,,,0,20180128040000,-1,-1,-1,-1,350,-1,4,-1,-1,-1,-1,,9999,0,1,3,FEW 20   SCT 35   BKN 50,1,4,-1,5,1016,RJBE 280400Z 35004KT 9999 VCSH FEW020 SCT035 BKN050 04/M05     Q1016 RMK 1CU020 4CU035 6SC050 A3001=,VC SH
20180128_050000.002,0,RJBE,,,,0,20180128050000,-1,-1,-1,-1,290,-1,4,-1,-1,250,330,,6000,0,1,3,FEW 8   SCT 20   BKN 45,1,3,-1,3,1016,RJBE 280500Z 29004KT 250V330 6000 -SN FEW008 SCT020 BKN045     03/M03 Q1016 RMK 1ST008 3CU020 5SC045 A3001=,- SN
20180128_060000.002,0,RJBE,,,,0,20180128060000,-1,-1,-1,-1,999,-1,1,-1,-1,-1,-1,,9999,0,1,3,FEW 8   SCT 20   BKN 45,1,3,-1,1,1015,RJBE 280600Z VRB01KT 9999 -SHSN FEW008 SCT020 BKN045 03/M01     Q1015 RMK 1ST008 4CU020 6SC045 A3000=,- SN SH
20180128_070000.003,0,RJBE,,,,0,20180128070000,-1,-1,-1,-1,999,-1,3,-1,-1,-1,-1,,9999,0,0,3,FEW 20   SCT 25   BKN 45,1,3,-1,1,1016,RJBE 280700Z VRB03KT 9999 FEW020 SCT025 BKN045 03/M01 Q1016     RMK 1CU020 3CU025 6SC045 A3000=,
20180128_080000.002,0,RJBE,,,,0,20180128080000,-1,-1,-1,-1,40,-1,4,-1,-1,-1,-1,,9999,0,1,3,FEW 8   SCT 15   BKN 25,1,3,-1,0,1016,RJBE 280800Z 04004KT 9999 -SHRA FEW008 SCT015 BKN025 03/M00     Q1016 RMK 1ST008 3CU015 6CU025 A3000=,- RA SH
20180128_090000.002,0,RJBE,,,,0,20180128090000,-1,-1,-1,-1,50,-1,5,-1,-1,-1,-1,,9999,0,1,3,FEW 8   SCT 15   BKN 25,1,3,-1,0,1015,RJBE 280900Z 05005KT 9999 VCSH FEW008 SCT015 BKN025 03/M00     Q1015 RMK 1ST008 4CU015 7CU025 A2999=,VC SH
20180128_100000.002,0,RJBE,,,,0,20180128100000,-1,-1,-1,-1,40,-1,5,-1,-1,-1,-1,,9999,0,0,3,FEW 10   SCT 15   BKN 25,1,3,1,0,1015,RJBE 281000Z 04005KT 9999 FEW010 SCT015 BKN025 03/00 Q1015 RMK     1ST010 3CU015 6CU025 A2998=,
20180128_110000.002,0,RJBE,,,,0,20180128110000,-1,-1,-1,-1,40,-1,6,-1,-1,-1,-1,,9999,0,0,3,FEW 10   SCT 15   BKN 25,1,3,-1,0,1015,RJBE 281100Z 04006KT 9999 FEW010 SCT015 BKN025 03/M00 Q1015     RMK 1ST010 3CU015 5CU025 A2998=,
20180128_120000.002,0,RJBE,,,,0,20180128120000,-1,-1,-1,-1,80,-1,4,-1,-1,-1,-1,,9999,0,0,3,FEW 10   SCT 15   BKN 20,1,4,1,0,1015,RJBE 281200Z 08004KT 9999 FEW010 SCT015 BKN020 04/00 Q1015 RMK     1ST010 3CU015 6CU020 A2998=,
20180128_220000.003,0,RJBE,,,,0,20180128220000,-1,-1,-1,-1,310,-1,6,-1,-1,-1,-1,,9999,0,0,3,FEW 15   SCT 60   BKN 170,1,2,1,0,1013,RJBE 282200Z 31006KT 9999 FEW015 SCT060 BKN170 02/00 Q1013 RMK     1CU015 3SC060 5AC170 A2992=,
20180128_230000.002,0,RJBE,,,,0,20180128230000,-1,-1,-1,-1,290,-1,8,-1,-1,-1,-1,,9999,0,0,2,FEW 20   BKN 170,1,4,-1,0,1013,RJBE 282300Z 29008KT 9999 FEW020 BKN170 04/M00 Q1013 RMK     1CU020 5AC170 A2993=,
20180129_000000.003,0,RJBE,,,,0,20180129000000,-1,-1,-1,-1,300,-1,10,-1,-1,-1,-1,,9999,0,0,3,FEW 20   SCT 170   BKN -9999,1,5,-1,2,1014,RJBE 290000Z 30010KT 9999 FEW020 SCT170 BKN/// 05/M02 Q1014     RMK 1CU020 3AC170 A2995=,
20180129_010000.002,0,RJBE,,,,0,20180129010000,-1,-1,-1,-1,300,-1,17,-1,-1,-1,-1,,9999,0,0,2,FEW 25   BKN -9999,1,6,-1,5,1013,RJBE 290100Z 30017KT 9999 FEW025 BKN/// 06/M05 Q1013 RMK     1CU025 A2994=,
20180129_020000.002,0,RJBE,,,,0,20180129020000,-1,-1,-1,-1,300,-1,15,-1,-1,-1,-1,,9999,0,0,2,FEW 25   SCT -9999,1,6,-1,7,1013,RJBE 290200Z 30015KT 9999 FEW025 SCT/// 06/M07 Q1013 RMK     1CU025 A2993=,
20180129_030000.002,0,RJBE,,,,0,20180129030000,-1,-1,-1,-1,260,-1,19,-1,-1,-1,-1,,9999,0,0,2,FEW 25   SCT -9999,1,7,-1,3,1012,RJBE 290300Z 26019KT 9999 FEW025 SCT/// 07/M03 Q1012 RMK     1CU025 A2990=,
20180129_040000.002,0,RJBE,,,,0,20180129040000,-1,-1,-1,-1,260,-1,18,-1,-1,-1,-1,,9999,0,0,3,FEW 25   SCT 45   BKN -9999,1,7,-1,3,1012,RJBE 290400Z 26018KT 9999 FEW025 SCT045 BKN/// 07/M03 Q1012     RMK 1CU025 3CU045 A2989=,
20180129_050000.002,0,RJBE,,,,0,20180129050000,-1,-1,-1,-1,250,-1,19,-1,-1,-1,-1,,9999,0,0,2,FEW 30   BKN 50,1,7,-1,3,1011,RJBE 290500Z 25019KT 9999 FEW030 BKN050 07/M03 Q1011 RMK     1CU030 5SC050 A2987=,
20180129_060000.002,0,RJBE,,,,0,20180129060000,-1,-1,-1,-1,260,-1,21,-1,-1,-1,-1,,9999,0,0,2,FEW 30   BKN 50,1,7,-1,3,1011,RJBE 290600Z 26021KT 9999 FEW030 BKN050 07/M03 Q1011 RMK     1CU030 5SC050 A2987=,
20180129_070000.002,0,RJBE,,,,0,20180129070000,-1,-1,-1,-1,270,-1,15,-1,-1,-1,-1,,9999,0,0,3,FEW 25   SCT 35   BKN 50,1,6,-1,5,1011,RJBE 290700Z 27015KT 9999 FEW025 SCT035 BKN050 06/M05 Q1011     RMK 1CU025 3CU035 5SC050 A2988=,
20180129_080000.002,0,RJBE,,,,0,20180129080000,-1,-1,-1,-1,300,-1,15,-1,-1,-1,-1,,9999,0,0,3,FEW 20   SCT 35   BKN 50,1,5,-1,6,1012,RJBE 290800Z 30015KT 9999 FEW020 SCT035 BKN050 05/M06 Q1012     RMK 1CU020 3CU035 6SC050 A2990=,
20180129_090000.002,0,RJBE,,,,0,20180129090000,-1,-1,-1,-1,290,-1,18,-1,-1,-1,-1,,9999,0,0,2,FEW 25   SCT 50,1,4,-1,7,1013,RJBE 290900Z 29018KT 9999 FEW025 SCT050 04/M07 Q1013 RMK     1CU025 4SC050 A2994=,
20180129_100000.002,0,RJBE,,,,0,20180129100000,-1,-1,-1,-1,300,-1,18,-1,-1,-1,-1,,9999,0,0,2,FEW 25   SCT 50,1,3,-1,9,1015,RJBE 291000Z 30018KT 9999 FEW025 SCT050 03/M09 Q1015 RMK     1CU025 4SC050 A2998=,
20180129_110000.002,0,RJBE,,,,0,20180129110000,-1,-1,-1,-1,300,-1,13,-1,-1,-1,-1,,9999,0,0,1,FEW 25,1,2,-1,8,1016,RJBE 291100Z 30013KT 9999 FEW025 02/M08 Q1016 RMK 1CU025     A3001=,
20180129_120000.002,0,RJBE,,,,0,20180129120000,-1,-1,-1,-1,290,-1,13,-1,-1,-1,-1,,9999,0,0,1,FEW 25,1,1,-1,7,1017,RJBE 291200Z 29013KT 9999 FEW025 01/M07 Q1017 RMK 1CU025     A3003=,
20180129_220000.002,0,RJBE,,,,0,20180129220000,-1,-1,-1,-1,290,-1,14,-1,-1,-1,-1,,9999,0,0,1,FEW 25,-1,1,-1,6,1019,RJBE 292200Z 29014KT 9999 FEW025 M01/M06 Q1019 RMK 1CU025     A3011=,
20180129_230000.002,0,RJBE,,,,0,20180129230000,-1,-1,-1,-1,300,-1,16,-1,-1,-1,-1,,9999,0,0,1,FEW 20,-1,0,-1,6,1020,RJBE 292300Z 30016KT 9999 FEW020 M00/M06 Q1020 RMK 1CU020     A3012=,
20180130_000000.002,0,RJBE,,,,0,20180130000000,-1,-1,-1,-1,300,-1,16,-1,-1,-1,-1,,9999,0,0,1,FEW 25,1,2,-1,6,1020,RJBE 300000Z 30016KT 9999 FEW025 02/M06 Q1020 RMK 1CU025     A3014=,
20180130_010000.002,0,RJBE,,,,0,20180130010000,-1,-1,-1,-1,290,-1,11,-1,-1,-1,-1,,9999,0,0,1,FEW 25,1,3,-1,7,1020,RJBE 300100Z 29011KT 9999 FEW025 03/M07 Q1020 RMK 1CU025     A3014=,
20180130_020000.002,0,RJBE,,,,0,20180130020000,-1,-1,-1,-1,270,-1,12,-1,-1,-1,-1,,9999,0,0,1,FEW 25,1,5,-1,6,1020,RJBE 300200Z 27012KT 9999 FEW025 05/M06 Q1020 RMK 1CU025     A3013=,
20180130_030000.002,0,RJBE,,,,0,20180130030000,-1,-1,-1,-1,260,-1,16,-1,-1,-1,-1,,9999,0,0,1,FEW 25,1,5,-1,4,1019,RJBE 300300Z 26016KT 9999 FEW025 05/M04 Q1019 RMK 1CU025     A3011=,
20180130_040000.002,0,RJBE,,,,0,20180130040000,-1,-1,-1,-1,260,-1,16,-1,-1,-1,-1,,9999,0,0,1,FEW 30,1,5,-1,3,1019,RJBE 300400Z 26016KT 9999 FEW030 05/M03 Q1019 RMK 1CU030     A3010=,
20180130_050000.002,0,RJBE,,,,0,20180130050000,-1,-1,-1,-1,250,-1,16,-1,-1,-1,-1,,9999,0,0,1,FEW 30,1,5,-1,3,1019,RJBE 300500Z 25016KT 9999 FEW030 05/M03 Q1019 RMK 1CU030     A3009=,
20180130_060000.003,0,RJBE,,,,0,20180130060000,-1,-1,-1,-1,260,-1,17,-1,-1,-1,-1,,9999,0,0,1,FEW 30,1,6,-1,4,1019,RJBE 300600Z 26017KT 9999 FEW030 06/M04 Q1019 RMK 1CU030     A3010=,
20180130_070000.002,0,RJBE,,,,0,20180130070000,-1,-1,-1,-1,260,-1,17,-1,-1,-1,-1,,9999,0,0,1,FEW 30,1,5,-1,4,1020,RJBE 300700Z 26017KT 9999 FEW030 05/M04 Q1020 RMK 1CU030     A3013=,
20180130_080000.002,0,RJBE,,,,0,20180130080000,-1,-1,-1,-1,260,-1,15,-1,-1,-1,-1,,9999,0,0,1,FEW 30,1,5,-1,5,1020,RJBE 300800Z 26015KT 9999 FEW030 05/M05 Q1020 RMK 1CU030     A3014=,
20180130_090000.002,0,RJBE,,,,0,20180130090000,-1,-1,-1,-1,270,-1,13,-1,-1,-1,-1,,9999,0,0,1,FEW 30,1,4,-1,6,1021,RJBE 300900Z 27013KT 9999 FEW030 04/M06 Q1021 RMK 1CU030     A3016=,
20180130_100000.002,0,RJBE,,,,0,20180130100000,-1,-1,-1,-1,290,-1,15,-1,-1,-1,-1,,9999,0,0,1,FEW 30,1,4,-1,6,1022,RJBE 301000Z 29015KT 9999 FEW030 04/M06 Q1022 RMK 1CU030     A3020=,
20180130_110000.002,0,RJBE,,,,0,20180130110000,-1,-1,-1,-1,300,-1,13,-1,-1,-1,-1,,9999,0,0,2,FEW 30   SCT -9999,1,3,-1,6,1023,RJBE 301100Z 30013KT 9999 FEW030 SCT/// 03/M06 Q1023 RMK     1CU030 A3023=,
20180130_120000.002,0,RJBE,,,,0,20180130120000,-1,-1,-1,-1,310,-1,9,-1,-1,-1,-1,,9999,0,0,1,FEW 30,1,3,-1,6,1023,RJBE 301200Z 31009KT 9999 FEW030 03/M06 Q1023 RMK 1CU030     A3023=,
20180130_220000.002,0,RJBE,,,,0,20180130220000,-1,-1,-1,-1,290,-1,13,-1,-1,-1,-1,,9999,0,0,1,FEW 30,1,1,-1,4,1026,RJBE 302200Z 29013KT 9999 FEW030 01/M04 Q1026 RMK 1CU030     A3031=,
20180130_230000.002,0,RJBE,,,,0,20180130230000,-1,-1,-1,-1,310,-1,10,-1,-1,-1,-1,,9999,0,0,1,FEW 30,1,2,-1,4,1026,RJBE 302300Z 31010KT 9999 FEW030 02/M04 Q1026 RMK 1CU030     A3032=,
20180131_000000.002,0,RJBE,,,,0,20180131000000,-1,-1,-1,-1,290,-1,10,-1,-1,-1,-1,,9999,0,0,2,FEW 30   BKN -9999,1,4,-1,5,1027,RJBE 310000Z 29010KT 9999 FEW030 BKN/// 04/M05 Q1027 RMK     1CU030 A3034=,
20180131_010000.002,0,RJBE,,,,0,20180131010000,-1,-1,-1,-1,300,-1,12,-1,-1,-1,-1,,9999,0,0,2,FEW 30   BKN -9999,1,4,-1,4,1027,RJBE 310100Z 30012KT 9999 FEW030 BKN/// 04/M04 Q1027 RMK     1CU030 A3033=,
20180131_020000.002,0,RJBE,,,,0,20180131020000,-1,-1,-1,-1,280,-1,12,-1,-1,-1,-1,,9999,0,0,2,FEW 30   BKN -9999,1,5,-1,5,1026,RJBE 310200Z 28012KT 9999 FEW030 BKN/// 05/M05 Q1026 RMK     1CU030 A3032=,
20180131_030000.002,0,RJBE,,,,0,20180131030000,-1,-1,-1,-1,270,-1,13,-1,-1,-1,-1,,9999,0,0,2,FEW 40   BKN -9999,1,6,-1,3,1026,RJBE 310300Z 27013KT 9999 FEW040 BKN/// 06/M03 Q1026 RMK     1CU040 A3030=,
20180131_040000.002,0,RJBE,,,,0,20180131040000,-1,-1,-1,-1,270,-1,15,-1,-1,-1,-1,,9999,0,0,2,FEW 40   BKN -9999,1,6,-1,3,1025,RJBE 310400Z 27015KT 9999 FEW040 BKN/// 06/M03 Q1025 RMK     1CU040 A3029=,
20180131_050000.002,0,RJBE,,,,0,20180131050000,-1,-1,-1,-1,270,-1,10,-1,-1,-1,-1,,9999,0,0,2,FEW 25   BKN -9999,1,6,-1,3,1024,RJBE 310500Z 27010KT 9999 FEW025 BKN/// 06/M03 Q1024 RMK     1CU025 A3026=,
20180131_060000.002,0,RJBE,,,,0,20180131060000,-1,-1,-1,-1,250,-1,8,-1,-1,-1,-1,,9999,0,0,2,FEW 25   BKN -9999,1,6,-1,2,1024,RJBE 310600Z 25008KT 9999 FEW025 BKN/// 06/M02 Q1024 RMK     1CU025 A3024=,
20180131_070000.003,0,RJBE,,,,0,20180131070000,-1,-1,-1,-1,250,-1,8,-1,-1,-1,-1,CAVOK,-1,0,0,0,,1,6,-1,2,1024,RJBE 310700Z 25008KT CAVOK 06/M02 Q1024 RMK A3024=,
20180131_080000.003,0,RJBE,,,,0,20180131080000,-1,-1,-1,-1,260,-1,10,-1,-1,-1,-1,,9999,0,0,2,FEW 30   BKN -9999,1,5,-1,3,1024,RJBE 310800Z 26010KT 9999 FEW030 BKN/// 05/M03 Q1024 RMK     1CU030 A3026=,
20180131_090000.002,0,RJBE,,,,0,20180131090000,-1,-1,-1,-1,250,-1,8,-1,-1,-1,-1,,9999,0,0,3,FEW 30   SCT 150   BKN -9999,1,4,-1,2,1025,RJBE 310900Z 25008KT 9999 FEW030 SCT150 BKN/// 04/M02 Q1025     RMK 1CU030 3AC150 A3027=,
20180131_100000.002,0,RJBE,,,,0,20180131100000,-1,-1,-1,-1,310,-1,5,-1,-1,-1,-1,,9999,0,0,2,FEW 30   SCT 150,1,4,-1,3,1024,RJBE 311000Z 31005KT 9999 FEW030 SCT150 04/M03 Q1024 RMK     1CU030 3AC150 A3026=,
20180131_110000.002,0,RJBE,,,,0,20180131110000,-1,-1,-1,-1,320,-1,4,-1,-1,-1,-1,CAVOK,-1,0,0,0,,1,4,-1,1,1025,RJBE 311100Z 32004KT CAVOK 04/M01 Q1025 RMK A3027=,
20180131_120000.002,0,RJBE,,,,0,20180131120000,-1,-1,-1,-1,40,-1,1,-1,-1,-1,-1,CAVOK,-1,0,0,0,,1,3,-1,2,1024,RJBE 311200Z 04001KT CAVOK 03/M02 Q1024 RMK A3025=,
20180131_220000.002,0,RJBE,,,,0,20180131220000,-1,-1,-1,-1,999,-1,1,-1,-1,-1,-1,,9999,0,1,3,FEW 10   SCT 25   BKN 50,1,3,-1,1,1025,RJBE 312200Z VRB01KT 9999 -RASN FEW010 SCT025 BKN050 03/M01     Q1025 RMK 1ST010 4CU025 6SC050 A3028=,- RA SN
20180131_230000.002,0,RJBE,,,,0,20180131230000,-1,-1,-1,-1,999,-1,2,-1,-1,-1,-1,,9999,0,1,3,FEW 7   SCT 10   BKN 20,1,3,1,0,1026,RJBE 312300Z VRB02KT 9999 -RASN FEW007 SCT010 BKN020 03/00     Q1026 RMK 2ST007 3ST010 5CU020 A3030=,- RA SN
20180201_000000.003,0,RJBE,,,,0,20180201000000,-1,-1,-1,-1,999,-1,2,-1,-1,-1,-1,,9000,0,1,3,FEW 5   SCT 7   BKN 15,1,3,1,1,1026,RJBE 010000Z VRB02KT 9000 -RA FEW005 SCT007 BKN015 03/01 Q1026     RMK 1ST005 3ST007 5CU015 A3030=,- RA
20180201_010000.002,0,RJBE,,,,0,20180201010000,-1,-1,-1,-1,999,-1,1,-1,-1,-1,-1,,5000,0,2,3,FEW 3   SCT 5   BKN 10,1,2,1,1,1026,RJBE 010100Z VRB01KT 5000 -RA BR FEW003 SCT005 BKN010 02/01     Q1026 RMK 1ST003 3ST005 6CU010 A3030=,- RA; BR
20180201_020000.002,0,RJBE,,,,0,20180201020000,-1,-1,-1,-1,999,-1,1,-1,-1,-1,-1,,5000,0,2,3,FEW 3   BKN 6   BKN 10,1,2,1,1,1025,RJBE 010200Z VRB01KT 5000 -RA BR FEW003 BKN006 BKN010 02/01     Q1025 RMK 1ST003 5ST006 6ST010 A3028=,- RA; BR
20180201_030000.003,0,RJBE,,,,0,20180201030000,-1,-1,-1,-1,999,-1,1,-1,-1,-1,-1,,6000,0,2,3,FEW 3   SCT 5   BKN 7,1,2,1,1,1024,RJBE 010300Z VRB01KT 6000 -RA BR FEW003 SCT005 BKN007 02/01     Q1024 RMK 1ST003 3ST005 5ST007 A3025=,- RA; BR
20180201_040000.003,0,RJBE,,,,0,20180201040000,-1,-1,-1,-1,999,-1,2,-1,-1,-1,-1,,8000,0,1,3,FEW 5   BKN 7   BKN 70,1,3,1,2,1023,RJBE 010400Z VRB02KT 8000 -RA FEW005 BKN007 BKN070 03/02 Q1023     RMK 2ST005 5ST007 6AC070 A3021=,- RA
20180201_050000.002,0,RJBE,,,,0,20180201050000,-1,-1,-1,-1,999,-1,1,-1,-1,-1,-1,,7000,0,1,3,FEW 4   SCT 5   BKN 7,1,3,1,2,1022,RJBE 010500Z VRB01KT 7000 -RA FEW004 SCT005 BKN007 03/02 Q1022     RMK 1ST004 4ST005 6ST007 A3020=,- RA
20180201_060000.002,0,RJBE,,,,0,20180201060000,-1,-1,-1,-1,999,-1,2,-1,-1,-1,-1,,9999,0,1,3,FEW 5   SCT 8   BKN 15,1,3,1,2,1022,RJBE 010600Z VRB02KT 9999 -RA FEW005 SCT008 BKN015 03/02 Q1022     RMK 1ST005 3ST008 5CU015 A3020=,- RA
20180201_070000.002,0,RJBE,,,,0,20180201070000,-1,-1,-1,-1,999,-1,2,-1,-1,-1,-1,,9999,0,1,3,FEW 5   SCT 10   BKN 20,1,3,1,1,1022,RJBE 010700Z VRB02KT 9999 -RA FEW005 SCT010 BKN020 03/01 Q1022     RMK 1ST005 3CU010 5CU020 A3021=,- RA
20180201_080000.002,0,RJBE,,,,0,20180201080000,-1,-1,-1,-1,160,-1,2,-1,-1,-1,-1,,9999,0,1,3,FEW 5   SCT 10   BKN 30,1,4,1,2,1023,RJBE 010800Z 16002KT 9999 -RA FEW005 SCT010 BKN030 04/02 Q1023     RMK 1ST005 3CU010 5CU030 A3022=,- RA
20180201_090000.002,0,RJBE,,,,0,20180201090000,-1,-1,-1,-1,0,-1,0,-1,-1,-1,-1,,9999,0,1,3,FEW 5   BKN 30   BKN 40,1,3,1,2,1023,RJBE 010900Z 00000KT 9999 -RA FEW005 BKN030 BKN040 03/02 Q1023     RMK 1ST005 5CU030 6SC040 A3023=,- RA
20180201_100000.002,0,RJBE,,,,0,20180201100000,-1,-1,-1,-1,999,-1,1,-1,-1,-1,-1,,9999,0,1,3,FEW 5   SCT 20   BKN 40,1,3,1,2,1024,RJBE 011000Z VRB01KT 9999 -RA FEW005 SCT020 BKN040 03/02 Q1024     RMK 1ST005 3CU020 6SC040 A3024=,- RA
20180201_110000.002,0,RJBE,,,,0,20180201110000,-1,-1,-1,-1,999,-1,2,-1,-1,-1,-1,,9999,0,1,3,FEW 5   SCT 15   BKN 45,1,3,1,2,1024,RJBE 011100Z VRB02KT 9999 -RA FEW005 SCT015 BKN045 03/02 Q1024     RMK 1ST005 3CU015 6SC045 A3026=,- RA
20180201_120000.002,0,RJBE,,,,0,20180201120000,-1,-1,-1,-1,310,-1,3,-1,-1,-1,-1,,9999,0,0,3,FEW 5   SCT 45   BKN 70,1,3,1,2,1024,RJBE 011200Z 31003KT 9999 FEW005 SCT045 BKN070 03/02 Q1024 RMK     1ST005 4SC045 6AC070 A3026=,
20180201_220000.002,0,RJBE,,,,0,20180201220000,-1,-1,-1,-1,40,-1,4,-1,-1,-1,-1,,9000,0,0,1,FEW 5,-1,0,-1,1,1023,RJBE 012200Z 04004KT 9000 FEW005 M00/M01 Q1023 RMK 1ST005     A3023=,
20180201_230000.003,0,RJBE,,,,0,20180201230000,-1,-1,-1,-1,20,-1,5,-1,-1,300,50,,9999,0,0,2,FEW 5   BKN -9999,1,2,1,1,1023,RJBE 012300Z 02005KT 300V050 9999 FEW005 BKN/// 02/01 Q1023     RMK 1ST005 A3023=,
20180202_000000.002,0,RJBE,,,,0,20180202000000,-1,-1,-1,-1,60,-1,3,-1,-1,-1,-1,,9999,0,0,2,FEW 15   BKN -9999,1,4,1,2,1024,RJBE 020000Z 06003KT 9999 FEW015 BKN/// 04/02 Q1024 RMK 1CU015     A3024=,
20180202_010000.002,0,RJBE,,,,0,20180202010000,-1,-1,-1,-1,110,-1,3,-1,-1,80,140,,9999,0,0,2,FEW 15   BKN -9999,1,4,1,2,1023,RJBE 020100Z 11003KT 080V140 9999 FEW015 BKN/// 04/02 Q1023     RMK 1CU015 A3023=,
20180202_020000.002,0,RJBE,,,,0,20180202020000,-1,-1,-1,-1,160,-1,3,-1,-1,-1,-1,,9999,0,0,2,FEW 15   BKN -9999,1,5,1,2,1023,RJBE 020200Z 16003KT 9999 FEW015 BKN/// 05/02 Q1023 RMK 1CU015     A3023=,
20180202_030000.002,0,RJBE,,,,0,20180202030000,-1,-1,-1,-1,180,-1,5,-1,-1,-1,-1,,9999,0,0,2,FEW 20   BKN -9999,1,5,1,2,1023,RJBE 020300Z 18005KT 9999 FEW020 BKN/// 05/02 Q1023 RMK 1CU020     A3021=,
20180202_040000.002,0,RJBE,,,,0,20180202040000,-1,-1,-1,-1,180,-1,4,-1,-1,-1,-1,,9999,0,0,3,FEW 20   SCT 170   OVC -9999,1,6,1,2,1022,RJBE 020400Z 18004KT 9999 FEW020 SCT170 OVC/// 06/02 Q1022 RMK     1CU020 3AC170 A3020=,
20180202_050000.001,0,RJBE,,,,0,20180202050000,-1,-1,-1,-1,180,-1,4,-1,-1,-1,-1,,9999,0,0,3,FEW 25   SCT 150   OVC -9999,1,6,1,2,1021,RJBE 020500Z 18004KT 9999 FEW025 SCT150 OVC/// 06/02 Q1021 RMK     1CU025 3AC150 A3018=,
20180202_060000.002,0,RJBE,,,,0,20180202060000,-1,-1,-1,-1,250,-1,9,-1,-1,-1,-1,,9999,0,0,3,FEW 25   SCT 150   OVC -9999,1,7,1,3,1021,RJBE 020600Z 25009KT 9999 FEW025 SCT150 OVC/// 07/03 Q1021 RMK     1CU025 3AC150 A3018=,
20180202_070000.002,0,RJBE,,,,0,20180202070000,-1,-1,-1,-1,260,-1,6,-1,-1,-1,-1,,9999,0,0,3,FEW 25   SCT 150   BKN -9999,1,7,1,2,1021,RJBE 020700Z 26006KT 9999 FEW025 SCT150 BKN/// 07/02 Q1021 RMK     1CU025 3AC150 A3016=,
20180202_080000.002,0,RJBE,,,,0,20180202080000,-1,-1,-1,-1,290,-1,5,-1,-1,-1,-1,,9999,0,0,3,FEW 25   SCT 150   BKN -9999,1,6,1,1,1021,RJBE 020800Z 29005KT 9999 FEW025 SCT150 BKN/// 06/01 Q1021 RMK     1CU025 3AC150 A3016=,
20180202_090000.002,0,RJBE,,,,0,20180202090000,-1,-1,-1,-1,260,-1,5,-1,-1,-1,-1,,9999,0,0,2,FEW 25   BKN -9999,1,5,1,1,1021,RJBE 020900Z 26005KT 9999 FEW025 BKN/// 05/01 Q1021 RMK 1CU025     A3015=,
20180202_100000.003,0,RJBE,,,,0,20180202100000,-1,-1,-1,-1,290,-1,4,-1,-1,-1,-1,,9999,0,0,3,FEW 20   SCT 120   BKN -9999,1,4,1,1,1021,RJBE 021000Z 29004KT 9999 FEW020 SCT120 BKN/// 04/01 Q1021 RMK     1CU020 3AC120 A3015=,
20180202_110000.002,0,RJBE,,,,0,20180202110000,-1,-1,-1,-1,310,-1,3,-1,-1,-1,-1,,9999,0,0,3,FEW 20   SCT 130   BKN -9999,1,4,1,1,1020,RJBE 021100Z 31003KT 9999 FEW020 SCT130 BKN/// 04/01 Q1020 RMK     1CU020 3AC130 A3014=,
20180202_120000.002,0,RJBE,,,,0,20180202120000,-1,-1,-1,-1,310,-1,5,-1,-1,-1,-1,CAVOK,-1,0,0,0,,1,3,1,1,1020,RJBE 021200Z 31005KT CAVOK 03/01 Q1020 RMK A3013=,
20180202_220000.002,0,RJBE,,,,0,20180202220000,-1,-1,-1,-1,40,-1,4,-1,-1,-1,-1,,7000,0,0,3,FEW 8   SCT 80   BKN -9999,1,2,1,1,1019,RJBE 022200Z 04004KT 7000 FEW008 SCT080 BKN/// 02/01 Q1019 RMK     1ST008 3AC080 A3009=,
20180202_230000.003,0,RJBE,,,,0,20180202230000,-1,-1,-1,-1,50,-1,4,-1,-1,-1,-1,,9999,0,0,3,FEW 20   SCT 70   BKN -9999,1,3,1,1,1019,RJBE 022300Z 05004KT 9999 FEW020 SCT070 BKN/// 03/01 Q1019 RMK     1CU020 3AC070 A3010=,
20180203_000000.002,0,RJBE,,,,0,20180203000000,-1,-1,-1,-1,70,-1,5,-1,-1,-1,-1,,8000,0,0,2,FEW 20   BKN 60,1,5,1,3,1019,RJBE 030000Z 07005KT 8000 FEW020 BKN060 05/03 Q1019 RMK 1CU020     6SC060 A3011=,
20180203_010000.003,0,RJBE,,,,0,20180203010000,-1,-1,-1,-1,50,-1,4,-1,-1,20,90,,7000,0,0,3,FEW 15   SCT 50   BKN 70,1,5,1,3,1019,RJBE 030100Z 05004KT 020V090 7000 FEW015 SCT050 BKN070 05/03     Q1019 RMK 1CU015 3SC050 6AC070 A3011=,
20180203_020000.002,0,RJBE,,,,0,20180203020000,-1,-1,-1,-1,160,-1,3,-1,-1,130,190,,9000,0,0,3,FEW 15   SCT 70   BKN -9999,1,6,1,3,1018,RJBE 030200Z 16003KT 130V190 9000 FEW015 SCT070 BKN/// 06/03     Q1018 RMK 1CU015 3AC070 A3008=,
20180203_030000.002,0,RJBE,,,,0,20180203030000,-1,-1,-1,-1,230,-1,5,-1,-1,-1,-1,,9999,0,1,3,FEW 20   SCT 35   BKN -9999,1,7,1,2,1017,RJBE 030300Z 23005KT 9999 VCSH FEW020 SCT035 BKN/// 07/02     Q1017 RMK 1CU020 3CU035 A3005=,VC SH
20180203_040000.002,0,RJBE,,,,0,20180203040000,-1,-1,-1,-1,180,-1,7,-1,-1,170,230,,9999,0,1,3,FEW 20   SCT 35   BKN 60,1,6,1,2,1017,RJBE 030400Z 18007KT 170V230 9999 -SHRA FEW020 SCT035 BKN060     06/02 Q1017 RMK 1CU020 4CU035 6SC060 A3003=,- RA SH
20180203_050000.002,0,RJBE,,,,0,20180203050000,-1,-1,-1,-1,150,-1,3,-1,-1,-1,-1,,9999,0,1,3,FEW 15   SCT 25   BKN 35,1,6,1,2,1017,RJBE 030500Z 15003KT 9999 -SHRA FEW015 SCT025 BKN035 06/02     Q1017 RMK 1CU015 3CU025 6CU035 A3003=,- RA SH
20180203_060000.002,0,RJBE,,,,0,20180203060000,-1,-1,-1,-1,10,-1,11,-1,-1,-1,-1,,9999,0,1,3,FEW 10   BKN 20   BKN 35,1,4,1,2,1017,RJBE 030600Z 01011KT 9999 -SHRA FEW010 BKN020 BKN035 04/02     Q1017 RMK 1CU010 5CU020 7CU035 A3004=,- RA SH
20180203_070000.003,0,RJBE,,,,0,20180203070000,-1,-1,-1,-1,320,-1,3,-1,13,210,10,,9999,0,1,3,FEW 8   SCT 20   BKN 40,1,6,1,2,1017,RJBE 030700Z 32003G13KT 210V010 9999 -SHRA FEW008 SCT020     BKN040 06/02 Q1017 RMK 1CU008 3CU020 5CU040 A3004=,- RA SH
20180203_080000.002,0,RJBE,,,,0,20180203080000,-1,-1,-1,-1,10,-1,5,-1,-1,-1,-1,,9999,0,1,3,FEW 10   SCT 25   BKN 50,1,5,1,1,1017,RJBE 030800Z 01005KT 9999 VCSH FEW010 SCT025 BKN050 05/01     Q1017 RMK 1CU010 3CU025 5SC050 A3004=,VC SH
20180203_090000.002,0,RJBE,,,,0,20180203090000,-1,-1,-1,-1,320,-1,10,-1,-1,-1,-1,,9999,0,1,3,FEW 10   SCT 15   BKN 25,1,4,1,2,1017,RJBE 030900Z 32010KT 9999 -SHRA FEW010 SCT015 BKN025 04/02     Q1017 RMK 1CU010 3CU015 6CU025 A3005=,- RA SH
20180203_100000.002,0,RJBE,,,,0,20180203100000,-1,-1,-1,-1,10,-1,4,-1,-1,-1,-1,,9999,0,0,2,FEW 15   SCT 45,1,4,1,1,1017,RJBE 031000Z 01004KT 9999 FEW015 SCT045 04/01 Q1017 RMK 1CU015     3CU045 A3004=,
20180203_110000.002,0,RJBE,,,,0,20180203110000,-1,-1,-1,-1,350,-1,1,-1,-1,-1,-1,,9999,0,0,1,FEW 20,1,4,-1,0,1017,RJBE 031100Z 35001KT 9999 FEW020 04/M00 Q1017 RMK 1CU020     A3004=,
20180203_120000.002,0,RJBE,,,,0,20180203120000,-1,-1,-1,-1,280,-1,4,-1,-1,260,320,,9999,0,0,1,FEW 20,1,1,-1,1,1017,RJBE 031200Z 28004KT 260V320 9999 FEW020 01/M01 Q1017 RMK     1CU020 A3005=,
20180203_220000.002,0,RJBE,,,,0,20180203220000,-1,-1,-1,-1,300,-1,10,-1,-1,-1,-1,,9999,0,0,2,FEW 30   SCT 40,1,1,-1,5,1017,RJBE 032200Z 30010KT 9999 FEW030 SCT040 01/M05 Q1017 RMK     1CU030 3CU040 A3004=,
20180203_230000.002,0,RJBE,,,,0,20180203230000,-1,-1,-1,-1,999,-1,3,-1,-1,-1,-1,,9999,0,0,2,FEW 30   SCT 40,1,1,-1,6,1017,RJBE 032300Z VRB03KT 9999 FEW030 SCT040 01/M06 Q1017 RMK     1CU030 3CU040 A3005=,
20180204_000000.002,0,RJBE,,,,0,20180204000000,-1,-1,-1,-1,280,-1,11,-1,-1,-1,-1,,9999,0,1,3,FEW 30   SCT 50   BKN 170,1,2,-1,6,1018,RJBE 040000Z 28011KT 9999 VCSH FEW030 SCT050 BKN170 02/M06     Q1018 RMK 1CU030 3SC050 5AC170 A3006=,VC SH
20180204_010000.002,0,RJBE,,,,0,20180204010000,-1,-1,-1,-1,280,-1,15,-1,-1,-1,-1,,9999,0,1,3,FEW 30   SCT 40   BKN 60,1,2,-1,7,1017,RJBE 040100Z 28015KT 9999 -SHSN FEW030 SCT040 BKN060 02/M07     Q1017 RMK 1CU030 3CU040 5SC060 A3005=,- SN SH
20180204_020000.002,0,RJBE,,,,0,20180204020000,-1,-1,-1,-1,270,-1,20,-1,-1,-1,-1,,9999,0,1,3,FEW 25   SCT 40   BKN 50,1,3,-1,7,1017,RJBE 040200Z 27020KT 9999 -SHSN FEW025 SCT040 BKN050 03/M07     Q1017 RMK 1CU025 3CU040 5SC050 A3005=,- SN SH
20180204_030000.002,0,RJBE,,,,0,20180204030000,-1,-1,-1,-1,260,-1,20,-1,-1,-1,-1,,9999,0,0,2,FEW 25   SCT 50,1,4,-1,5,1016,RJBE 040300Z 26020KT 9999 FEW025 SCT050 04/M05 Q1016 RMK     1CU025 4SC050 A3002=,
20180204_040000.002,0,RJBE,,,,0,20180204040000,-1,-1,-1,-1,260,-1,24,-1,-1,-1,-1,,9999,0,0,2,FEW 25   SCT 50,1,4,-1,7,1015,RJBE 040400Z 26024KT 9999 FEW025 SCT050 04/M07 Q1015 RMK     1CU025 3SC050 A2999=,
20180204_050000.002,0,RJBE,,,,0,20180204050000,-1,-1,-1,-1,260,-1,20,-1,-1,-1,-1,,9999,0,0,2,FEW 30   SCT 50,1,4,-1,7,1015,RJBE 040500Z 26020KT 9999 FEW030 SCT050 04/M07 Q1015 RMK     1CU030 4SC050 A2999=,
20180204_060000.002,0,RJBE,,,,0,20180204060000,-1,-1,-1,-1,260,-1,20,-1,-1,-1,-1,,9999,0,0,2,FEW 25   SCT 50,1,5,-1,6,1015,RJBE 040600Z 26020KT 9999 FEW025 SCT050 05/M06 Q1015 RMK     1CU025 3SC050 A2999=,
20180204_070000.002,0,RJBE,,,,0,20180204070000,-1,-1,-1,-1,260,-1,20,-1,-1,-1,-1,,9999,0,0,1,FEW 30,1,4,-1,5,1015,RJBE 040700Z 26020KT 9999 FEW030 04/M05 Q1015 RMK 2CU030     A3000=,
20180204_080000.002,0,RJBE,,,,0,20180204080000,-1,-1,-1,-1,270,-1,20,-1,-1,-1,-1,,9999,0,0,1,FEW 30,1,4,-1,7,1015,RJBE 040800Z 27020KT 9999 FEW030 04/M07 Q1015 RMK 1CU030     A2999=,
20180204_090000.002,0,RJBE,,,,0,20180204090000,-1,-1,-1,-1,270,-1,21,-1,-1,-1,-1,,9999,0,0,1,FEW 30,1,3,-1,7,1016,RJBE 040900Z 27021KT 9999 FEW030 03/M07 Q1016 RMK 1CU030     A3000=,
20180204_100000.002,0,RJBE,,,,0,20180204100000,-1,-1,-1,-1,280,-1,22,-1,-1,-1,-1,,9999,0,0,2,FEW 30   SCT 70,1,3,-1,7,1016,RJBE 041000Z 28022KT 9999 FEW030 SCT070 03/M07 Q1016 RMK     1CU030 3AC070 A3000=,
20180204_110000.003,0,RJBE,,,,0,20180204110000,-1,-1,-1,-1,280,-1,22,-1,-1,-1,-1,CAVOK,-1,0,0,0,,1,3,-1,7,1016,RJBE 041100Z 28022KT CAVOK 03/M07 Q1016 RMK A3002=,
20180204_120000.002,0,RJBE,,,,0,20180204120000,-1,-1,-1,-1,290,-1,20,-1,-1,-1,-1,,9999,0,0,2,FEW 30   SCT 70,1,2,-1,7,1017,RJBE 041200Z 29020KT 9999 FEW030 SCT070 02/M07 Q1017 RMK     1CU030 3AC070 A3003=,
20180204_220000.002,0,RJBE,,,,0,20180204220000,-1,-1,-1,-1,290,-1,16,-1,-1,-1,-1,,9999,0,0,1,FEW 20,1,0,-1,5,1017,RJBE 042200Z 29016KT 9999 FEW020 00/M05 Q1017 RMK 1CU020     A3004=,
20180204_230000.002,0,RJBE,,,,0,20180204230000,-1,-1,-1,-1,290,-1,18,-1,-1,-1,-1,,9999,0,0,2,FEW 30   BKN -9999,1,1,-1,5,1017,RJBE 042300Z 29018KT 9999 FEW030 BKN/// 01/M05 Q1017 RMK     2CU030 A3005=,
20180205_000000.003,0,RJBE,,,,0,20180205000000,-1,-1,-1,-1,280,-1,17,-1,-1,-1,-1,,9999,0,0,2,FEW 30   SCT -9999,1,1,-1,5,1017,RJBE 050000Z 28017KT 9999 FEW030 SCT/// 01/M05 Q1017 RMK     2CU030 A3005=,
20180205_010000.002,0,RJBE,,,,0,20180205010000,-1,-1,-1,-1,270,-1,15,-1,-1,-1,-1,,9999,0,0,1,FEW 30,1,2,-1,6,1017,RJBE 050100Z 27015KT 9999 FEW030 02/M06 Q1017 RMK 1CU030     A3005=,
20180205_020000.002,0,RJBE,,,,0,20180205020000,-1,-1,-1,-1,270,-1,20,-1,-1,-1,-1,,9999,0,0,2,FEW 25   SCT 35,1,3,-1,6,1017,RJBE 050200Z 27020KT 9999 FEW025 SCT035 03/M06 Q1017 RMK     1CU025 3CU035 A3004=,
