20180101_000000.002,0,RJBT,,,,0,20180101000000,-1,-1,-1,-1,210,-1,7,-1,-1,-1,-1,,9999,0,1,3,FEW 0   SCT 15   BKN 20,1,3,1,2,1019,RJBT 010000Z 21007KT 9999 -SHSN FEW000 SCT015 BKN020 03/02     Q1019 RMK 1ST000 3CU015 5CU020 A3010=,- SN SH
20180101_010000.002,0,RJBT,,,,0,20180101010000,-1,-1,-1,-1,240,-1,6,-1,-1,-1,-1,,9999,0,1,3,FEW 0   SCT 15   BKN 20,1,3,1,1,1019,RJBT 010100Z 24006KT 9999 -SHSN FEW000 SCT015 BKN020 03/01     Q1019 RMK 1ST000 4CU015 5CU020 A3011=,- SN SH
20180101_020000.002,0,RJBT,,,,0,20180101020000,-1,-1,-1,-1,999,-1,4,-1,-1,-1,-1,,9999,0,1,3,FEW 0   SCT 20   BKN 30,1,5,-1,0,1019,RJBT 010200Z VRB04KT 9999 VCSH FEW000 SCT020 BKN030 05/M00     Q1019 RMK 1ST000 4CU020 6CU030 A3010=,VC SH
20180101_030000.002,0,RJBT,,,,0,20180101030000,-1,-1,-1,-1,270,-1,6,-1,-1,250,310,,9999,0,1,3,FEW 0   SCT 20   BKN 30,1,3,1,1,1019,RJBT 010300Z 27006KT 250V310 9999 -SHSN FEW000 SCT020 BKN030     03/01 Q1019 RMK 1ST000 4CU020 7CU030 A3009=,- SN SH
20180101_040000.002,0,RJBT,,,,0,20180101040000,-1,-1,-1,-1,260,-1,3,-1,-1,230,290,,9999,0,1,3,FEW 5   SCT 20   BKN 30,1,5,1,1,1018,RJBT 010400Z 26003KT 230V290 9999 -SHRA FEW005 SCT020 BKN030     05/01 Q1018 RMK 1ST005 4CU020 6CU030 A3009=,- RA SH
20180101_050000.002,0,RJBT,,,,0,20180101050000,-1,-1,-1,-1,240,-1,5,-1,-1,190,310,,9999,0,1,2,FEW 0   BKN 20,1,4,1,3,1018,RJBT 010500Z 24005KT 190V310 9999 -SHRA FEW000 BKN020 04/03     Q1018 RMK 1ST000 5CU020 A3008=,- RA SH
20180101_060000.002,0,RJBT,,,,0,20180101060000,-1,-1,-1,-1,280,-1,7,-1,-1,230,310,,9999,0,1,3,FEW 10   SCT 15   BKN 20,1,5,1,0,1019,RJBT 010600Z 28007KT 230V310 9999 -SHRA FEW010 SCT015 BKN020     05/00 Q1019 RMK 1CU010 3CU015 6CU020 A3010=,- RA SH
20180101_070000.002,0,RJBT,,,,0,20180101070000,-1,-1,-1,-1,270,-1,6,-1,-1,190,320,,9999,0,1,2,FEW 15   SCT 25,1,5,-1,1,1019,RJBT 010700Z 27006KT 190V320 9999 VCSH FEW015 SCT025 05/M01     Q1019 RMK 1CU015 4CU025 A3009=,VC SH
20180101_080000.002,0,RJBT,,,,0,20180101080000,-1,-1,-1,-1,999,-1,5,-1,-1,-1,-1,,9999,0,1,2,FEW 15   BKN 25,1,5,-1,1,1019,RJBT 010800Z VRB05KT 9999 -SHRA FEW015 BKN025 05/M01 Q1019 RMK     1CU015 6CU025 A3010=,- RA SH
20180101_090000.002,0,RJBT,,,,0,20180101090000,-1,-1,-1,-1,330,-1,6,-1,-1,290,30,,9999,0,1,2,FEW 15   BKN 25,1,5,-1,1,1020,RJBT 010900Z 33006KT 290V030 9999 -SHRA FEW015 BKN025 05/M01     Q1020 RMK 1CU015 7CU025 A3012=,- RA SH
20180101_233000.001,0,RJBT,,,,0,20180101230000,-1,-1,-1,-1,210,-1,4,-1,-1,160,230,,9999,0,1,3,FEW 0   SCT 15   BKN 30,1,2,1,2,1022,RJBT 012330Z 21004KT 160V230 9999 -SHRASN FEW000 SCT015 BKN030     02/02 Q1022 RMK 1ST000 3CU015 5CU030 A3019=,- RA SN SH
20180102_000000.003,0,RJBT,,,,0,20180102000000,-1,-1,-1,-1,170,-1,5,-1,-1,-1,-1,,9999,0,1,3,FEW 0   SCT 20   BKN 30,1,2,1,2,1022,RJBT 020000Z 17005KT 9999 VCSH FEW000 SCT020 BKN030 02/02     Q1022 RMK 1ST000 3CU020 5CU030 A3020=,VC SH
20180102_010000.003,0,RJBT,,,,0,20180102010000,-1,-1,-1,-1,200,-1,7,-1,-1,-1,-1,,9999,0,1,3,FEW 0   SCT 20   BKN 45,1,4,1,3,1022,RJBT 020100Z 20007KT 9999 VCSH FEW000 SCT020 BKN045 04/03     Q1022 RMK 1ST000 3CU020 5CU045 A3020=,VC SH
20180102_020000.002,0,RJBT,,,,0,20180102020000,-1,-1,-1,-1,999,-1,3,-1,-1,-1,-1,,9999,0,0,2,FEW 5   BKN 40,1,7,-1,0,1021,RJBT 020200Z VRB03KT 9999 FEW005 BKN040 07/M00 Q1021 RMK     1ST005 5CU040 A3018=,
20180102_030000.002,0,RJBT,,,,0,20180102030000,-1,-1,-1,-1,320,-1,6,-1,16,230,40,,9999,0,1,2,FEW 10   SCT 40,1,7,-1,3,1020,RJBT 020300Z 32006G16KT 230V040 9999 VCSH FEW010 SCT040 07/M03     Q1020 RMK 1CU010 4CU040 A3014=,VC SH
20180102_040000.002,0,RJBT,,,,0,20180102040000,-1,-1,-1,-1,270,-1,8,-1,-1,220,290,,9999,0,1,3,FEW 0   SCT 20   BKN 40,1,6,-1,2,1020,RJBT 020400Z 27008KT 220V290 9999 -SHRA FEW000 SCT020 BKN040     06/M02 Q1020 RMK 1ST000 3CU020 5CU040 A3013=,- RA SH
20180102_050000.002,0,RJBT,,,,0,20180102050000,-1,-1,-1,-1,999,-1,3,-1,-1,-1,-1,,9999,0,1,3,FEW 0   SCT 25   BKN 60,1,6,-1,1,1020,RJBT 020500Z VRB03KT 9999 VCSH FEW000 SCT025 BKN060 06/M01     Q1020 RMK 1ST000 3CU025 5SC060 A3013=,VC SH
20180102_060000.002,0,RJBT,,,,0,20180102060000,-1,-1,-1,-1,210,-1,6,-1,-1,180,260,,9999,0,1,2,FEW 0   SCT 35,1,6,-1,0,1020,RJBT 020600Z 21006KT 180V260 9999 -SHRA FEW000 SCT035 06/M00     Q1020 RMK 1ST000 4CU035 A3012=,- RA SH
20180102_070000.002,0,RJBT,,,,0,20180102070000,-1,-1,-1,-1,210,-1,6,-1,-1,190,250,,9999,0,1,2,FEW 25   BKN 40,1,5,-1,0,1019,RJBT 020700Z 21006KT 190V250 9999 -SHRA FEW025 BKN040 05/M00     Q1019 RMK 1CU025 5CU040 A3011=,- RA SH
20180102_080000.002,0,RJBT,,,,0,20180102080000,-1,-1,-1,-1,300,-1,7,-1,17,240,360,,9999,0,0,2,FEW 30   SCT 45,1,6,-1,2,1019,RJBT 020800Z 30007G17KT 240V360 9999 FEW030 SCT045 06/M02     Q1019 RMK 1CU030 3CU045 A3010=,
20180102_090000.002,0,RJBT,,,,0,20180102090000,-1,-1,-1,-1,310,-1,9,-1,19,270,350,,9999,0,1,3,FEW 30   SCT 45   BKN 60,1,6,-1,2,1019,RJBT 020900Z 31009G19KT 270V350 9999 -SHRA FEW030 SCT045     BKN060 06/M02 Q1019 RMK 1CU030 3CU045 5SC060 A3011=,- RA SH
20180102_233000.001,0,RJBT,,,,0,20180102230000,-1,-1,-1,-1,340,-1,8,-1,-1,300,20,,5000,0,1,3,FEW 0   SCT 10   BKN 20,1,1,-1,1,1021,RJBT 022330Z 34008KT 300V020 5000 -SHSNGS FEW000 SCT010 BKN020     01/M01 Q1021 RMK 1ST000 3CU010 5CU020 A3016 2500W SNOW           PELLETS=,- SN GS SH
20180103_000000.002,0,RJBT,,,,0,20180103000000,-1,-1,-1,-1,350,-1,11,-1,-1,300,30,,6000,0,1,2,FEW 0   BKN 20,1,1,-1,1,1021,RJBT 030000Z 35011KT 300V030 6000 -SHSNGS FEW000 BKN020 01/M01     Q1021 RMK 1ST000 5CU020 A3017 SNOW PELLETS=,- SN GS SH
20180103_010000.002,0,RJBT,,,,0,20180103010000,-1,-1,-1,-1,360,-1,9,-1,-1,320,30,,9999,0,1,3,FEW 0   SCT 15   BKN 20,1,2,-1,2,1021,RJBT 030100Z 36009KT 320V030 9999 -SHSNGS FEW000 SCT015 BKN020     02/M02 Q1021 RMK 1ST000 3CU015 5CU020 A3017 4000W SNOW           PELLETS=,- SN GS SH
20180103_020000.002,0,RJBT,,,,0,20180103020000,-1,-1,-1,-1,350,-1,9,-1,22,320,30,,9999,0,1,3,FEW 0   SCT 15   BKN 25,1,2,-1,3,1022,RJBT 030200Z 35009G22KT 320V030 9999 -SHSNGS FEW000 SCT015     BKN025 02/M03 Q1022 RMK 1ST000 3CU015 5CU025 A3018 SNOW           PELLETS=,- SN GS SH
20180103_030000.003,0,RJBT,,,,0,20180103030000,-1,-1,-1,-1,340,-1,11,-1,-1,310,30,,9999,0,1,2,FEW 0   BKN 25,1,3,-1,3,1021,RJBT 030300Z 34011KT 310V030 9999 -SHSN FEW000 BKN025 03/M03     Q1021 RMK 1ST000 5CU025 A3016=,- SN SH
20180103_040000.002,0,RJBT,,,,0,20180103040000,-1,-1,-1,-1,330,-1,12,-1,-1,280,20,,9999,0,1,3,FEW 0   SCT 25   BKN 35,1,2,-1,3,1021,RJBT 030400Z 33012KT 280V020 9999 -SHSNGS FEW000 SCT025 BKN035     02/M03 Q1021 RMK 1ST000 3CU025 5CU035 A3015 SNOW PELLETS=,- SN GS SH
20180103_050000.002,0,RJBT,,,,0,20180103050000,-1,-1,-1,-1,340,-1,8,-1,-1,290,20,,9999,0,1,3,FEW 5   SCT 25   BKN 35,1,3,-1,2,1020,RJBT 030500Z 34008KT 290V020 9999 -SHSNGS FEW005 SCT025 BKN035     03/M02 Q1020 RMK 1ST005 3CU025 5CU035 A3014 SNOW PELLETS=,- SN GS SH
20180103_060000.002,0,RJBT,,,,0,20180103060000,-1,-1,-1,-1,360,-1,8,-1,-1,320,30,,9999,0,1,3,FEW 5   SCT 20   BKN 35,1,3,-1,2,1021,RJBT 030600Z 36008KT 320V030 9999 -SHSNGS FEW005 SCT020 BKN035     03/M02 Q1021 RMK 1ST005 3CU020 5CU035 A3016 SNOW PELLETS=,- SN GS SH
20180103_070000.002,0,RJBT,,,,0,20180103070000,-1,-1,-1,-1,360,-1,8,-1,-1,340,40,,9999,0,1,3,FEW 5   SCT 15   BKN 40,1,3,-1,2,1021,RJBT 030700Z 36008KT 340V040 9999 -SHSN FEW005 SCT015 BKN040     03/M02 Q1021 RMK 1ST005 3CU015 5CU040 A3017=,- SN SH
20180103_080000.002,0,RJBT,,,,0,20180103080000,-1,-1,-1,-1,350,-1,8,-1,-1,310,30,,9999,0,1,3,FEW 0   SCT 25   BKN 40,1,2,-1,2,1021,RJBT 030800Z 35008KT 310V030 9999 -SHSNGS FEW000 SCT025 BKN040     02/M02 Q1021 RMK 1ST000 3CU025 5CU040 A3017 SNOW PELLETS=,- SN GS SH
20180103_090000.002,0,RJBT,,,,0,20180103090000,-1,-1,-1,-1,340,-1,6,-1,16,300,40,,9999,0,1,3,FEW 0   SCT 25   BKN 35,1,2,-1,3,1021,RJBT 030900Z 34006G16KT 300V040 9999 -SHSNGS FEW000 SCT025     BKN035 02/M03 Q1021 RMK 1ST000 3CU025 5CU035 A3018 SNOW           PELLETS=,- SN GS SH
20180103_233000.001,0,RJBT,,,,0,20180103230000,-1,-1,-1,-1,210,-1,3,-1,-1,-1,-1,,200,0,1,2,FEW 0   BKN 2,1,0,1,0,1023,RJBT 032330Z 21003KT 0200 FG FEW000 BKN002 00/00 Q1023 RMK     2ST000 6ST002 A3021=,FG
20180104_000000.002,0,RJBT,,,,0,20180104000000,-1,-1,-1,-1,190,-1,4,-1,-1,-1,-1,,600,0,2,2,FEW 0   BKN 5,1,0,1,0,1022,RJBT 040000Z 19004KT 0600 FG -SHSN FEW000 BKN005 00/00 Q1022     RMK 2ST000 6ST005 A3021 FG ALL QUAD=,FG; - SN SH
20180104_010000.002,0,RJBT,,,,0,20180104010000,-1,-1,-1,-1,210,-1,5,-1,-1,-1,-1,,2000,0,2,3,FEW 0   SCT 7   BKN 15,1,2,1,2,1022,RJBT 040100Z 21005KT 2000 -SHSNRA BCFG FEW000 SCT007 BKN015     02/02 Q1022 RMK 1ST000 3ST007 5CU015 A3020 FG ALL QUAD=,- SN RA SH; BC FG
20180104_020000.002,0,RJBT,,,,0,20180104020000,-1,-1,-1,-1,999,-1,4,-1,-1,-1,-1,,9999,0,0,2,FEW 5   SCT 15,1,5,1,3,1021,RJBT 040200Z VRB04KT 9999 FEW005 SCT015 05/03 Q1021 RMK 1ST005     3CU015 A3018=,
20180104_030000.002,0,RJBT,,,,0,20180104030000,-1,-1,-1,-1,360,-1,5,-1,-1,-1,-1,,2500,0,1,3,FEW 3   SCT 15   BKN 20,1,1,1,0,1021,RJBT 040300Z 36005KT 2500 -SHSN FEW003 SCT015 BKN020 01/00     Q1021 RMK 1ST003 3CU015 5CU020 A3017=,- SN SH
20180104_040000.002,0,RJBT,,,,0,20180104040000,-1,-1,-1,-1,999,-1,2,-1,-1,-1,-1,,3000,0,1,3,FEW 0   SCT 15   BKN 50,1,2,1,2,1020,RJBT 040400Z VRB02KT 3000 BCFG FEW000 SCT015 BKN050 02/02     Q1020 RMK 1ST000 3CU015 5SC050 A3014 FG BANK AROUND=,BC FG
20180104_050000.002,0,RJBT,,,,0,20180104050000,-1,-1,-1,-1,999,-1,1,-1,-1,-1,-1,,3000,0,1,3,FEW 0   SCT 5   BKN 10,1,3,1,2,1020,RJBT 040500Z VRB01KT 3000 BCFG FEW000 SCT005 BKN010 03/02     Q1020 RMK 1ST000 3ST005 5ST010 A3013 FG ALL QUAD=,BC FG
20180104_060000.003,0,RJBT,,,,0,20180104060000,-1,-1,-1,-1,999,-1,1,-1,-1,-1,-1,,4000,0,2,3,FEW 0   SCT 15   BKN 30,1,1,1,1,1020,RJBT 040600Z VRB01KT 4000 -SHRA BCFG FEW000 SCT015 BKN030     01/01 Q1020 RMK 1ST000 3CU015 5CU030 A3014 FG ALL QUAD=,- RA SH; BC FG
20180104_070000.002,0,RJBT,,,,0,20180104070000,-1,-1,-1,-1,999,-1,1,-1,-1,-1,-1,,4000,0,2,3,FEW 0   SCT 15   BKN 30,1,1,1,1,1020,RJBT 040700Z VRB01KT 4000 -SHRA BCFG FEW000 SCT015 BKN030     01/01 Q1020 RMK 1ST000 3CU015 5CU030 A3015 FG BANK           AROUND=,- RA SH; BC FG
20180104_080000.002,0,RJBT,,,,0,20180104080000,-1,-1,-1,-1,220,-1,3,-1,-1,-1,-1,,2500,0,1,3,FEW 0   SCT 15   BKN 30,1,1,1,1,1020,RJBT 040800Z 22003KT 2500 BCFG FEW000 SCT015 BKN030 01/01     Q1020 RMK 1ST000 3CU015 5CU030 A3014 1200S-SW FG BANK           AROUND=,BC FG
20180104_090000.002,0,RJBT,,,,0,20180104090000,-1,-1,-1,-1,350,-1,3,-1,-1,310,30,,2400,0,2,3,FEW 0   SCT 10   BKN 15,1,0,1,0,1021,RJBT 040900Z 35003KT 310V030 2400 -SHSN BCFG FEW000 SCT010     BKN015 00/00 Q1021 RMK 1ST000 3ST010 5CU015 A3016 FG ALL           QUAD=,- SN SH; BC FG
20180104_233000.001,0,RJBT,,,,0,20180104230000,-1,-1,-1,-1,190,-1,3,-1,-1,140,230,,200,0,1,2,FEW 0   BKN 3,1,1,1,1,1017,RJBT 042330Z 19003KT 140V230 0200 FG FEW000 BKN003 01/01 Q1017     RMK 2ST000 6ST003 A3004=,FG
20180105_000000.002,0,RJBT,,,,0,20180105000000,-1,-1,-1,-1,999,-1,1,-1,-1,-1,-1,,600,0,1,3,FEW 0   SCT 2   BKN 5,1,1,1,1,1017,RJBT 050000Z VRB01KT 0600 FG FEW000 SCT002 BKN005 01/01 Q1017     RMK 2ST000 3ST002 5ST005 A3005=,FG
20180105_010000.003,0,RJBT,,,,0,20180105010000,-1,-1,-1,-1,160,-1,3,-1,-1,-1,-1,,1200,0,1,3,FEW 0   SCT 2   BKN 8,1,2,1,2,1017,RJBT 050100Z 16003KT 1200 BCFG FEW000 SCT002 BKN008 02/02     Q1017 RMK 2ST000 3ST002 5ST008 A3004 0500SE FG ALL QUAD=,BC FG
20180105_020000.002,0,RJBT,,,,0,20180105020000,-1,-1,-1,-1,210,-1,3,-1,-1,130,240,,4000,0,1,3,FEW 0   SCT 3   BKN 35,1,2,1,2,1016,RJBT 050200Z 21003KT 130V240 4000 BCFG FEW000 SCT003 BKN035     02/02 Q1016 RMK 1ST000 3ST003 5CU035 A3001 FG ALL QUAD=,BC FG
20180105_030000.002,0,RJBT,,,,0,20180105030000,-1,-1,-1,-1,190,-1,3,-1,-1,140,240,,6000,0,0,3,FEW 0   SCT 4   BKN 90,1,4,1,4,1015,RJBT 050300Z 19003KT 140V240 6000 FEW000 SCT004 BKN090 04/04     Q1015 RMK 1ST000 3ST004 5AC090 A3000=,
20180105_040000.002,0,RJBT,,,,0,20180105040000,-1,-1,-1,-1,160,-1,3,-1,-1,140,200,,9999,0,0,3,FEW 0   SCT 35   BKN 50,1,3,1,3,1014,RJBT 050400Z 16003KT 140V200 9999 FEW000 SCT035 BKN050 03/03     Q1014 RMK 1ST000 3CU035 5SC050 A2996=,
20180105_050000.002,0,RJBT,,,,0,20180105050000,-1,-1,-1,-1,160,-1,4,-1,-1,-1,-1,,9999,0,0,3,FEW 0   SCT 50   BKN 100,1,4,1,3,1014,RJBT 050500Z 16004KT 9999 FEW000 SCT050 BKN100 04/03 Q1014 RMK     1ST000 3SC050 5AC100 A2995=,
20180105_060000.002,0,RJBT,,,,0,20180105060000,-1,-1,-1,-1,999,-1,2,-1,-1,-1,-1,,9999,0,0,2,FEW 5   SCT 10,1,4,1,1,1014,RJBT 050600Z VRB02KT 9999 FEW005 SCT010 04/01 Q1014 RMK 1ST005     3CU010 A2995=,
20180105_070000.002,0,RJBT,,,,0,20180105070000,-1,-1,-1,-1,999,-1,1,-1,-1,-1,-1,,9999,0,0,1,FEW 10,1,5,1,1,1014,RJBT 050700Z VRB01KT 9999 FEW010 05/01 Q1014 RMK 1CU010 A2995=,
20180105_080000.002,0,RJBT,,,,0,20180105080000,-1,-1,-1,-1,320,-1,1,-1,-1,-1,-1,,9999,0,0,1,FEW 15,1,3,1,1,1014,RJBT 050800Z 32001KT 9999 FEW015 03/01 Q1014 RMK 1CU015 A2995=,
20180105_090000.002,0,RJBT,,,,0,20180105090000,-1,-1,-1,-1,170,-1,1,-1,-1,-1,-1,,9999,0,0,2,FEW 20   SCT 80,1,3,1,1,1014,RJBT 050900Z 17001KT 9999 FEW020 SCT080 03/01 Q1014 RMK 1CU020     3AC080 A2995=,
20180105_233000.001,0,RJBT,,,,0,20180105230000,-1,-1,-1,-1,210,-1,3,-1,-1,-1,-1,,1500,0,2,3,FEW 0   SCT 2   BKN 20,1,1,1,1,1013,RJBT 052330Z 21003KT 1500 -SHRA BCFG FEW000 SCT002 BKN020     01/01 Q1013 RMK 1ST000 3ST002 5CU020 A2993 FG BANK           AROUND=,- RA SH; BC FG
20180106_000000.002,0,RJBT,,,,0,20180106000000,-1,-1,-1,-1,210,-1,5,-1,-1,-1,-1,,1200,0,2,3,FEW 0   SCT 20   BKN 25,1,2,1,2,1014,RJBT 060000Z 21005KT 1200 -SHRA BCFG FEW000 SCT020 BKN025     02/02 Q1014 RMK 1ST000 3CU020 5CU025 A2995 FG BANK           AROUND=,- RA SH; BC FG
20180106_010000.002,0,RJBT,,,,0,20180106010000,-1,-1,-1,-1,220,-1,3,-1,-1,140,260,,2500,0,2,3,FEW 0   SCT 3   BKN 30,1,3,1,3,1014,RJBT 060100Z 22003KT 140V260 2500 -SHRA BCFG FEW000 SCT003     BKN030 03/03 Q1014 RMK 1ST000 3ST003 5CU030 A2997 FG BANK           AROUND=,- RA SH; BC FG
20180106_020000.002,0,RJBT,,,,0,20180106020000,-1,-1,-1,-1,60,-1,3,-1,-1,360,100,,1500,0,2,3,FEW 0   SCT 3   BKN 25,1,3,1,3,1015,RJBT 060200Z 06003KT 360V100 1500 -SHRA BCFG FEW000 SCT003     BKN025 03/03 Q1015 RMK 1ST000 3ST003 5CU025 A2997 6000W           FG ALL QUAD=,- RA SH; BC FG
20180106_030000.002,0,RJBT,,,,0,20180106030000,-1,-1,-1,-1,999,-1,2,-1,-1,-1,-1,,5000,0,2,3,FEW 0   SCT 5   BKN 25,1,5,1,5,1014,RJBT 060300Z VRB02KT 5000 -SHRA BCFG FEW000 SCT005 BKN025     05/05 Q1014 RMK 1ST000 3ST005 5CU025 A2995 FG ALL QUAD=,- RA SH; BC FG
20180106_040000.002,0,RJBT,,,,0,20180106040000,-1,-1,-1,-1,999,-1,3,-1,-1,-1,-1,,9000,0,1,3,FEW 0   SCT 25   BKN 30,1,5,1,4,1014,RJBT 060400Z VRB03KT 9000 -SHRA FEW000 SCT025 BKN030 05/04     Q1014 RMK 1ST000 3CU025 5CU030 A2994=,- RA SH
20180106_050000.002,0,RJBT,,,,0,20180106050000,-1,-1,-1,-1,350,-1,8,-1,-1,300,40,,9999,0,1,3,FEW 3   SCT 25   BKN 35,1,4,1,2,1014,RJBT 060500Z 35008KT 300V040 9999 -SHRAGS FEW003 SCT025 BKN035     04/02 Q1014 RMK 1ST003 3CU025 5CU035 A2995 SNOW PELLETS=,- RA GS SH
20180106_060000.002,0,RJBT,,,,0,20180106060000,-1,-1,-1,-1,360,-1,7,-1,-1,330,60,,9999,0,1,3,FEW 3   SCT 15   BKN 30,1,5,1,3,1014,RJBT 060600Z 36007KT 330V060 9999 -SHRA FEW003 SCT015 BKN030     05/03 Q1014 RMK 1ST003 3CU015 5CU030 A2997=,- RA SH
20180106_070000.002,0,RJBT,,,,0,20180106070000,-1,-1,-1,-1,310,-1,7,-1,-1,270,340,,5000,0,2,3,FEW 0   SCT 15   BKN 25,1,4,1,2,1016,RJBT 060700Z 31007KT 270V340 5000 -SHRA BR FEW000 SCT015     BKN025 04/02 Q1016 RMK 1ST000 3CU015 5CU025 A3000=,- RA SH; BR
20180106_080000.002,0,RJBT,,,,0,20180106080000,-1,-1,-1,-1,330,-1,6,-1,-1,280,10,,5000,0,2,3,FEW 0   SCT 15   BKN 25,1,2,1,2,1016,RJBT 060800Z 33006KT 280V010 5000 -SHRAGS BR FEW000 SCT015     BKN025 02/02 Q1016 RMK 1ST000 3CU015 5CU025 A3003 SNOW           PELLETS=,- RA GS SH; BR
20180106_090000.002,0,RJBT,,,,0,20180106090000,-1,-1,-1,-1,300,-1,5,-1,-1,260,340,,5000,0,2,3,FEW 0   SCT 15   BKN 25,1,3,1,2,1017,RJBT 060900Z 30005KT 260V340 5000 -SHRAGS BR FEW000 SCT015     BKN025 03/02 Q1017 RMK 1ST000 3CU015 5CU025 A3004 SNOW           PELLETS=,- RA GS SH; BR
20180106_233000.001,0,RJBT,,,,0,20180106230000,-1,-1,-1,-1,999,-1,1,-1,-1,-1,-1,,6000,0,1,3,FEW 0   SCT 50   BKN -9999,1,2,1,2,1023,RJBT 062330Z VRB01KT 6000 BCFG FEW000 SCT050 BKN/// 02/02     Q1023 RMK 1ST000 4SC050 A3021 FG BANK AROUND=,BC FG
20180107_000000.002,0,RJBT,,,,0,20180107000000,-1,-1,-1,-1,999,-1,2,-1,-1,-1,-1,,5000,0,1,2,FEW 0   BKN 50,1,3,1,2,1023,RJBT 070000Z VRB02KT 5000 BCFG FEW000 BKN050 03/02 Q1023 RMK     1ST000 6SC050 A3021 2000NE FG BANK AROUND=,BC FG
20180107_010000.003,0,RJBT,,,,0,20180107010000,-1,-1,-1,-1,999,-1,1,-1,-1,-1,-1,,9999,0,1,3,FEW 0   BKN 50   BKN -9999,1,5,1,3,1023,RJBT 070100Z VRB01KT 9999 PRFG FEW000 BKN050 BKN/// 05/03     Q1023 RMK 1ST000 5SC050 A3022 3000NW FG BANK NW-NE=,PR FG
20180107_020000.002,0,RJBT,,,,0,20180107020000,-1,-1,-1,-1,999,-1,3,-1,-1,-1,-1,,9999,0,0,3,FEW 10   SCT 45   BKN -9999,1,5,1,3,1023,RJBT 070200Z VRB03KT 9999 FEW010 SCT045 BKN/// 05/03 Q1023 RMK     1CU010 3CU045 A3021=,
20180107_030000.002,0,RJBT,,,,0,20180107030000,-1,-1,-1,-1,170,-1,2,-1,-1,-1,-1,,9999,0,0,3,FEW 20   SCT 35   BKN 45,1,5,1,0,1022,RJBT 070300Z 17002KT 9999 FEW020 SCT035 BKN045 05/00 Q1022 RMK     1CU020 3CU035 5CU045 A3020=,
20180107_040000.002,0,RJBT,,,,0,20180107040000,-1,-1,-1,-1,999,-1,2,-1,-1,-1,-1,,9999,0,0,3,FEW 20   SCT 30   BKN 40,1,6,-1,1,1022,RJBT 070400Z VRB02KT 9999 FEW020 SCT030 BKN040 06/M01 Q1022     RMK 1CU020 3CU030 5CU040 A3018=,
20180107_050000.002,0,RJBT,,,,0,20180107050000,-1,-1,-1,-1,999,-1,2,-1,-1,-1,-1,,9999,0,0,3,FEW 20   SCT 30   BKN 40,1,6,1,0,1021,RJBT 070500Z VRB02KT 9999 FEW020 SCT030 BKN040 06/00 Q1021 RMK     1CU020 3CU030 5CU040 A3017=,
20180107_060000.002,0,RJBT,,,,0,20180107060000,-1,-1,-1,-1,999,-1,1,-1,-1,-1,-1,,9999,0,0,3,FEW 25   BKN 45   BKN -9999,1,6,-1,1,1022,RJBT 070600Z VRB01KT 9999 FEW025 BKN045 BKN/// 06/M01 Q1022     RMK 1CU025 5SC045 A3018=,
20180107_070000.002,0,RJBT,,,,0,20180107070000,-1,-1,-1,-1,999,-1,2,-1,-1,-1,-1,,9999,0,0,2,FEW 30   BKN -9999,1,5,-1,0,1022,RJBT 070700Z VRB02KT 9999 FEW030 BKN/// 05/M00 Q1022 RMK     1CU030 A3018=,
20180107_080000.002,0,RJBT,,,,0,20180107080000,-1,-1,-1,-1,190,-1,2,-1,-1,-1,-1,,9999,0,0,3,FEW 30   BKN 150   BKN -9999,1,4,1,0,1021,RJBT 070800Z 19002KT 9999 FEW030 BKN150 BKN/// 04/00 Q1021 RMK     1CU030 5AC150 A3018=,
20180107_090000.002,0,RJBT,,,,0,20180107090000,-1,-1,-1,-1,190,-1,3,-1,-1,-1,-1,,9999,0,0,3,FEW 30   BKN 150   BKN -9999,1,4,1,1,1022,RJBT 070900Z 19003KT 9999 FEW030 BKN150 BKN/// 04/01 Q1022 RMK     1CU030 5AC150 A3019=,
20180107_233000.001,0,RJBT,,,,0,20180107230000,-1,-1,-1,-1,230,-1,4,-1,-1,-1,-1,,9999,0,1,3,FEW 0   SCT 80   BKN 100,1,4,1,3,1014,RJBT 072330Z 23004KT 9999 -RA FEW000 SCT080 BKN100 04/03 Q1014     RMK 1ST000 4AC080 7AC100 A2996=,- RA
20180108_000000.002,0,RJBT,,,,0,20180108000000,-1,-1,-1,-1,170,-1,5,-1,-1,-1,-1,,9999,0,2,3,FEW 0   SCT 20   BKN 80,1,5,1,4,1013,RJBT 080000Z 17005KT 9999 -RA BCFG FEW000 SCT020 BKN080 05/04     Q1013 RMK 1ST000 3CU020 6AC080 A2992 4500S FG BANK AROUND           P/FR=,- RA; BC FG
20180108_010000.002,0,RJBT,,,,0,20180108010000,-1,-1,-1,-1,180,-1,11,-1,-1,140,200,,9999,0,1,3,FEW 0   SCT 60   BKN 100,1,7,1,5,1011,RJBT 080100Z 18011KT 140V200 9999 -RA FEW000 SCT060 BKN100     07/05 Q1011 RMK 1ST000 4SC060 6AC100 A2986=,- RA
20180108_020000.002,0,RJBT,,,,0,20180108020000,-1,-1,-1,-1,190,-1,13,-1,-1,-1,-1,,9999,0,1,3,FEW 0   SCT 80   BKN 100,1,7,1,6,1010,RJBT 080200Z 19013KT 9999 -RA FEW000 SCT080 BKN100 07/06 Q1010     RMK 1ST000 3AC080 7AC100 A2983=,- RA
20180108_030000.002,0,RJBT,,,,0,20180108030000,-1,-1,-1,-1,190,-1,10,-1,-1,-1,-1,,9999,0,1,3,FEW 0   SCT 60   BKN 90,1,7,1,6,1008,RJBT 080300Z 19010KT 9999 -RA FEW000 SCT060 BKN090 07/06 Q1008     RMK 1ST000 4SC060 7AC090 A2977 P/FR=,- RA
20180108_040000.002,0,RJBT,,,,0,20180108040000,-1,-1,-1,-1,200,-1,12,-1,-1,-1,-1,,9999,0,1,3,FEW 0   SCT 30   BKN 60,1,8,1,7,1006,RJBT 080400Z 20012KT 9999 -RA FEW000 SCT030 BKN060 08/07 Q1006     RMK 1ST000 3CU030 5SC060 A2972=,- RA
20180108_050000.002,0,RJBT,,,,0,20180108050000,-1,-1,-1,-1,190,-1,11,-1,-1,-1,-1,,9999,0,0,3,FEW 0   SCT 15   BKN 25,1,8,1,7,1005,RJBT 080500Z 19011KT 9999 FEW000 SCT015 BKN025 08/07 Q1005 RMK     1ST000 3CU015 6CU025 A2970=,
20180108_060000.003,0,RJBT,,,,0,20180108060000,-1,-1,-1,-1,190,-1,11,-1,-1,-1,-1,,9999,0,1,3,FEW 0   BKN 20   BKN 30,1,9,1,8,1004,RJBT 080600Z 19011KT 9999 -SHRA FEW000 BKN020 BKN030 09/08     Q1004 RMK 1ST000 5CU020 6CU030 A2967=,- RA SH
20180108_070000.002,0,RJBT,,,,0,20180108070000,-1,-1,-1,-1,190,-1,11,-1,-1,-1,-1,,9999,0,0,3,FEW 0   SCT 20   BKN 90,1,10,1,9,1003,RJBT 080700Z 19011KT 9999 FEW000 SCT020 BKN090 10/09 Q1003 RMK     1ST000 3CU020 6AC090 A2964=,
20180108_080000.002,0,RJBT,,,,0,20180108080000,-1,-1,-1,-1,180,-1,10,-1,-1,-1,-1,,9999,0,1,3,FEW 0   SCT 70   BKN 90,1,10,1,9,1003,RJBT 080800Z 18010KT 9999 -RA FEW000 SCT070 BKN090 10/09 Q1003     RMK 1ST000 3AC070 7AC090 A2962=,- RA
20180108_090000.002,0,RJBT,,,,0,20180108090000,-1,-1,-1,-1,210,-1,8,-1,-1,-1,-1,,9999,0,1,3,FEW 0   SCT 70   BKN 90,1,10,1,9,1003,RJBT 080900Z 21008KT 9999 -RA FEW000 SCT070 BKN090 10/09 Q1003     RMK 1ST000 4AC070 6AC090 A2963=,- RA
20180108_233000.001,0,RJBT,,,,0,20180108230000,-1,-1,-1,-1,270,-1,8,-1,-1,220,350,,9999,0,1,2,FEW 5   SCT 30,1,6,1,0,1002,RJBT 082330Z 27008KT 220V350 9999 VCSH FEW005 SCT030 06/00     Q1002 RMK 1ST005 3CU030 A2960=,VC SH
20180109_000000.002,0,RJBT,,,,0,20180109000000,-1,-1,-1,-1,260,-1,8,-1,-1,220,320,,9999,0,1,2,FEW 10   SCT 30,1,7,-1,1,1003,RJBT 090000Z 26008KT 220V320 9999 -SHRA FEW010 SCT030 07/M01     Q1003 RMK 1CU010 4CU030 A2962=,- RA SH
20180109_010000.002,0,RJBT,,,,0,20180109010000,-1,-1,-1,-1,270,-1,7,-1,-1,230,330,,9999,0,1,2,FEW 10   SCT 30,1,6,-1,1,1003,RJBT 090100Z 27007KT 230V330 9999 -SHRA FEW010 SCT030 06/M01     Q1003 RMK 1CU010 3CU030 A2964=,- RA SH
20180109_020000.002,0,RJBT,,,,0,20180109020000,-1,-1,-1,-1,250,-1,9,-1,-1,210,360,,9999,0,1,3,FEW 5   SCT 20   BKN 30,1,4,1,1,1004,RJBT 090200Z 25009KT 210V360 9999 -SHRA FEW005 SCT020 BKN030     04/01 Q1004 RMK 1ST005 3CU020 5CU030 A2965=,- RA SH
20180109_030000.002,0,RJBT,,,,0,20180109030000,-1,-1,-1,-1,260,-1,11,-1,29,180,330,,9999,0,1,2,FEW 5   SCT 20,1,5,-1,1,1003,RJBT 090300Z 26011G29KT 180V330 9999 -SHRASN FEW005 SCT020     05/M01 Q1003 RMK 1ST005 3CU020 A2964=,- RA SN SH
20180109_040000.002,0,RJBT,,,,0,20180109040000,-1,-1,-1,-1,270,-1,13,-1,24,210,330,,9999,0,1,2,FEW 5   SCT 20,1,5,-1,3,1004,RJBT 090400Z 27013G24KT 210V330 9999 -SHSN FEW005 SCT020     05/M03 Q1004 RMK 1ST005 3CU020 A2965=,- SN SH
20180109_050000.002,0,RJBT,,,,0,20180109050000,-1,-1,-1,-1,290,-1,14,-1,32,220,350,,9999,0,1,2,FEW 0   SCT 30,1,3,-1,2,1004,RJBT 090500Z 29014G32KT 220V350 9999 -SHSN FEW000 SCT030     03/M02 Q1004 RMK 1ST000 3CU030 A2967=,- SN SH
20180109_060000.002,0,RJBT,,,,0,20180109060000,-1,-1,-1,-1,250,-1,8,-1,-1,220,310,,4500,0,1,3,FEW 0   SCT 15   BKN 25,1,2,-1,2,1006,RJBT 090600Z 25008KT 220V310 4500 -SHSN FEW000 SCT015 BKN025     02/M02 Q1006 RMK 1ST000 3CU015 5CU025 A2971=,- SN SH
20180109_070000.002,0,RJBT,,,,0,20180109070000,-1,-1,-1,-1,250,-1,6,-1,-1,200,310,,4500,0,1,3,FEW 0   SCT 10   BKN 25,1,1,-1,2,1007,RJBT 090700Z 25006KT 200V310 4500 -SHSN FEW000 SCT010 BKN025     01/M02 Q1007 RMK 1ST000 3CU010 5CU025 A2974=,- SN SH
20180109_080000.002,0,RJBT,,,,0,20180109080000,-1,-1,-1,-1,190,-1,3,-1,-1,120,250,,2500,0,2,3,FEW 0   SCT 10   BKN 20,1,0,-1,0,1007,RJBT 090800Z 19003KT 120V250 2500 -SHSN BR FEW000 SCT010     BKN020 00/M00 Q1007 RMK 1ST000 3CU010 5CU020 A2975=,- SN SH; BR
20180109_090000.002,0,RJBT,,,,0,20180109090000,-1,-1,-1,-1,190,-1,9,-1,-1,-1,-1,,2000,0,2,3,FEW 0   SCT 10   BKN 20,-1,0,-1,0,1008,RJBT 090900Z 19009KT 2000 -SHSN BR FEW000 SCT010 BKN020     M00/M00 Q1008 RMK 1ST000 3CU010 5CU020 A2979=,- SN SH; BR
20180109_233000.001,0,RJBT,,,,0,20180109230000,-1,-1,-1,-1,999,-1,2,-1,-1,-1,-1,,9999,0,0,1,FEW 25,1,2,-1,2,1010,RJBT 092330Z VRB02KT 9999 FEW025 02/M02 Q1010 RMK 1CU025     A2985=,
20180110_000000.002,0,RJBT,,,,0,20180110000000,-1,-1,-1,-1,160,-1,4,-1,-1,-1,-1,,9999,0,0,1,FEW 25,1,3,-1,2,1011,RJBT 100000Z 16004KT 9999 FEW025 03/M02 Q1011 RMK 1CU025     A2985=,
20180110_010000.002,0,RJBT,,,,0,20180110010000,-1,-1,-1,-1,10,-1,3,-1,-1,-1,-1,,9999,0,0,2,FEW 20   BKN 30,1,2,-1,1,1011,RJBT 100100Z 01003KT 9999 FEW020 BKN030 02/M01 Q1011 RMK     1CU020 6CU030 A2986=,
20180110_020000.002,0,RJBT,,,,0,20180110020000,-1,-1,-1,-1,20,-1,3,-1,-1,340,80,,9999,0,1,2,FEW 20   BKN 30,1,3,-1,2,1010,RJBT 100200Z 02003KT 340V080 9999 VCSH FEW020 BKN030 03/M02     Q1010 RMK 1CU020 5CU030 A2983=,VC SH
20180110_030000.002,0,RJBT,,,,0,20180110030000,-1,-1,-1,-1,260,-1,6,-1,-1,210,310,,9999,0,1,3,FEW 20   SCT 30   BKN 40,1,5,-1,3,1009,RJBT 100300Z 26006KT 210V310 9999 VCSH FEW020 SCT030 BKN040     05/M03 Q1009 RMK 1CU020 3CU030 5CU040 A2979=,VC SH
20180110_040000.003,0,RJBT,,,,0,20180110040000,-1,-1,-1,-1,220,-1,9,-1,-1,190,250,,9999,0,1,3,FEW 15   SCT 25   BKN 40,1,5,-1,3,1008,RJBT 100400Z 22009KT 190V250 9999 VCSH FEW015 SCT025 BKN040     05/M03 Q1008 RMK 1CU015 3CU025 6CU040 A2979=,VC SH
20180110_050000.002,0,RJBT,,,,0,20180110050000,-1,-1,-1,-1,230,-1,8,-1,-1,-1,-1,,9999,0,1,3,FEW 15   SCT 25   BKN -9999,1,5,-1,2,1008,RJBT 100500Z 23008KT 9999 VCSH FEW015 SCT025 BKN/// 05/M02     Q1008 RMK 1CU015 3CU025 A2979=,VC SH
20180110_060000.002,0,RJBT,,,,0,20180110060000,-1,-1,-1,-1,260,-1,8,-1,-1,210,310,,9999,0,1,2,FEW 10   BKN 25,1,3,-1,1,1009,RJBT 100600Z 26008KT 210V310 9999 -SHSNRA FEW010 BKN025 03/M01     Q1009 RMK 1CU010 7CU025 A2981 4500SW=,- SN RA SH
20180110_070000.002,0,RJBT,,,,0,20180110070000,-1,-1,-1,-1,330,-1,4,-1,-1,260,60,,9999,0,1,3,FEW 10   SCT 15   BKN 25,1,2,-1,0,1010,RJBT 100700Z 33004KT 260V060 9999 -SHSN FEW010 SCT015 BKN025     02/M00 Q1010 RMK 1CU010 4CU015 7CU025 A2983=,- SN SH
20180110_080000.002,0,RJBT,,,,0,20180110080000,-1,-1,-1,-1,999,-1,2,-1,-1,-1,-1,,2000,0,1,3,FEW 0   SCT 10   BKN 20,1,0,1,0,1011,RJBT 100800Z VRB02KT 2000 -SHSN FEW000 SCT010 BKN020 00/00     Q1011 RMK 1ST000 4CU010 7CU020 A2985=,- SN SH
20180110_090000.002,0,RJBT,,,,0,20180110090000,-1,-1,-1,-1,30,-1,2,-1,-1,-1,-1,,800,0,1,1,VV 3,1,0,1,0,1011,RJBT 100900Z 03002KT 0800 SHSN VV003 00/00 Q1011 RMK A2987=,SN SH
20180110_233000.001,0,RJBT,,,,0,20180110230000,-1,-1,-1,-1,210,-1,5,-1,-1,160,240,,9999,0,0,1,FEW 30,-1,1,-1,10,1016,RJBT 102330Z 21005KT 160V240 9999 FEW030 M01/M10 Q1016 RMK     1CU030 A3002=,
20180111_000000.002,0,RJBT,,,,0,20180111000000,-1,-1,-1,-1,240,-1,5,-1,-1,180,300,,9999,0,0,1,FEW 30,-1,1,-1,11,1017,RJBT 110000Z 24005KT 180V300 9999 FEW030 M01/M11 Q1017 RMK     1CU030 A3003=,
20180111_010000.002,0,RJBT,,,,0,20180111010000,-1,-1,-1,-1,240,-1,7,-1,-1,200,280,,9999,0,0,1,FEW 30,1,0,-1,13,1017,RJBT 110100Z 24007KT 200V280 9999 FEW030 00/M13 Q1017 RMK     1CU030 A3003=,
20180111_020000.002,0,RJBT,,,,0,20180111020000,-1,-1,-1,-1,240,-1,11,-1,-1,180,280,,9999,0,0,1,FEW 30,1,1,-1,12,1016,RJBT 110200Z 24011KT 180V280 9999 FEW030 01/M12 Q1016 RMK     1CU030 A3003=,
20180111_030000.001,0,RJBT,,,,0,20180111030000,-1,-1,-1,-1,240,-1,13,-1,-1,190,260,,9999,0,0,1,FEW 30,1,1,-1,11,1016,RJBT 110300Z 24013KT 190V260 9999 FEW030 01/M11 Q1016 RMK     2CU030 A3001=,
20180111_040000.002,0,RJBT,,,,0,20180111040000,-1,-1,-1,-1,240,-1,13,-1,23,200,270,,9999,0,0,1,FEW 30,1,2,-1,12,1016,RJBT 110400Z 24013G23KT 200V270 9999 FEW030 02/M12 Q1016 RMK     2CU030 A3000=,
20180111_050000.002,0,RJBT,,,,0,20180111050000,-1,-1,-1,-1,280,-1,12,-1,27,220,330,,9999,0,0,1,FEW 35,1,1,-1,13,1016,RJBT 110500Z 28012G27KT 220V330 9999 FEW035 01/M13 Q1016 RMK     2CU035 A3001=,
20180111_060000.002,0,RJBT,,,,0,20180111060000,-1,-1,-1,-1,290,-1,8,-1,-1,220,350,,9999,0,1,2,FEW 35   SCT 45,1,1,-1,10,1016,RJBT 110600Z 29008KT 220V350 9999 VCSH FEW035 SCT045 01/M10     Q1016 RMK 1CU035 3CU045 A3003=,VC SH
20180111_070000.002,0,RJBT,,,,0,20180111070000,-1,-1,-1,-1,290,-1,7,-1,-1,240,330,,9999,0,0,1,FEW 35,-1,0,-1,10,1017,RJBT 110700Z 29007KT 240V330 9999 FEW035 M00/M10 Q1017 RMK     2CU035 A3004=,
20180111_080000.002,0,RJBT,,,,0,20180111080000,-1,-1,-1,-1,260,-1,5,-1,-1,210,320,,9999,0,1,2,FEW 30   SCT 40,-1,1,-1,10,1017,RJBT 110800Z 26005KT 210V320 9999 VCSH FEW030 SCT040 M01/M10     Q1017 RMK 1CU030 3CU040 A3005=,VC SH
20180111_090000.002,0,RJBT,,,,0,20180111090000,-1,-1,-1,-1,999,-1,2,-1,-1,-1,-1,,9999,0,0,1,FEW 30,-1,1,-1,10,1018,RJBT 110900Z VRB02KT 9999 FEW030 M01/M10 Q1018 RMK 1CU030     A3006=,
20180111_233000.001,0,RJBT,,,,0,20180111230000,-1,-1,-1,-1,999,-1,5,-1,-1,-1,-1,,9999,0,0,1,FEW 25,-1,0,-1,10,1021,RJBT 112330Z VRB05KT 9999 FEW025 M00/M10 Q1021 RMK 1CU025     A3016=,
20180112_000000.002,0,RJBT,,,,0,20180112000000,-1,-1,-1,-1,170,-1,3,-1,-1,110,240,,9999,0,0,1,FEW 25,1,1,-1,10,1021,RJBT 120000Z 17003KT 110V240 9999 FEW025 01/M10 Q1021 RMK     2CU025 A3018=,
20180112_010000.003,0,RJBT,,,,0,20180112010000,-1,-1,-1,-1,999,-1,2,-1,-1,-1,-1,,9999,0,0,1,FEW 25,1,2,-1,9,1022,RJBT 120100Z VRB02KT 9999 FEW025 02/M09 Q1022 RMK 2CU025     A3019=,
20180112_020000.002,0,RJBT,,,,0,20180112020000,-1,-1,-1,-1,999,-1,9,-1,-1,-1,-1,,9999,0,0,2,FEW 25   SCT 70,1,2,-1,12,1022,RJBT 120200Z VRB09KT 9999 FEW025 SCT070 02/M12 Q1022 RMK     1CU025 3AC070 A3019=,
20180112_030000.002,0,RJBT,,,,0,20180112030000,-1,-1,-1,-1,280,-1,8,-1,-1,240,330,,9999,0,0,2,FEW 25   SCT 70,1,2,-1,11,1021,RJBT 120300Z 28008KT 240V330 9999 FEW025 SCT070 02/M11 Q1021     RMK 1CU025 4AC070 A3016=,
20180112_040000.002,0,RJBT,,,,0,20180112040000,-1,-1,-1,-1,999,-1,5,-1,-1,-1,-1,,9999,0,0,1,FEW 25,1,3,-1,10,1020,RJBT 120400Z VRB05KT 9999 FEW025 03/M10 Q1020 RMK 2CU025     A3014=,
20180112_050000.003,0,RJBT,,,,0,20180112050000,-1,-1,-1,-1,310,-1,8,-1,-1,260,360,,9999,0,0,2,FEW 10   SCT 25,1,3,-1,10,1020,RJBT 120500Z 31008KT 260V360 9999 FEW010 SCT025 03/M10 Q1020     RMK 1CU010 3CU025 A3014=,
20180112_060000.002,0,RJBT,,,,0,20180112060000,-1,-1,-1,-1,300,-1,9,-1,-1,270,330,,9999,0,1,2,FEW 15   SCT 25,1,3,-1,8,1021,RJBT 120600Z 30009KT 270V330 9999 VCSH FEW015 SCT025 03/M08     Q1021 WS RWY19 RMK 1CU015 3CU025 A3016=,VC SH
20180112_070000.003,0,RJBT,,,,0,20180112070000,-1,-1,-1,-1,300,-1,7,-1,-1,260,350,,9999,0,1,2,FEW 15   SCT 25,1,2,-1,9,1021,RJBT 120700Z 30007KT 260V350 9999 VCSH FEW015 SCT025 02/M09     Q1021 RMK 1CU015 3CU025 A3017=,VC SH
20180112_080000.002,0,RJBT,,,,0,20180112080000,-1,-1,-1,-1,260,-1,6,-1,-1,160,320,,9999,0,0,1,FEW 15,1,1,-1,9,1022,RJBT 120800Z 26006KT 160V320 9999 FEW015 01/M09 Q1022 RMK     1CU015 A3018=,
20180112_090000.002,0,RJBT,,,,0,20180112090000,-1,-1,-1,-1,230,-1,6,-1,-1,190,280,,9999,0,0,1,FEW 15,1,0,-1,9,1022,RJBT 120900Z 23006KT 190V280 9999 FEW015 00/M09 Q1022 RMK     1CU015 A3020=,
20180112_233000.001,0,RJBT,,,,0,20180112230000,-1,-1,-1,-1,210,-1,5,-1,-1,-1,-1,,9999,0,1,1,FEW 15,-1,1,-1,7,1024,RJBT 122330Z 21005KT 9999 VCSH FEW015 M01/M07 Q1024 RMK 1CU015     A3024=,VC SH
20180113_000000.002,0,RJBT,,,,0,20180113000000,-1,-1,-1,-1,190,-1,6,-1,-1,150,230,,9999,0,0,1,FEW 15,1,0,-1,7,1024,RJBT 130000Z 19006KT 150V230 9999 FEW015 00/M07 Q1024 RMK     1CU015 A3024=,
20180113_010000.003,0,RJBT,,,,0,20180113010000,-1,-1,-1,-1,999,-1,3,-1,-1,-1,-1,,9999,0,1,2,FEW 20   SCT 40,1,2,-1,7,1024,RJBT 130100Z VRB03KT 9999 VCSH FEW020 SCT040 02/M07 Q1024 RMK     1CU020 3CU040 A3026=,VC SH
20180113_020000.002,0,RJBT,,,,0,20180113020000,-1,-1,-1,-1,999,-1,3,-1,-1,-1,-1,,9999,0,1,3,FEW 5   SCT 30   BKN 50,1,3,-1,6,1024,RJBT 130200Z VRB03KT 9999 -SHSN FEW005 SCT030 BKN050 03/M06     Q1024 RMK 1ST005 3CU030 5SC050 A3025=,- SN SH
20180113_030000.002,0,RJBT,,,,0,20180113030000,-1,-1,-1,-1,290,-1,6,-1,-1,230,360,,6000,0,1,3,FEW 0   SCT 20   BKN 40,1,3,-1,4,1024,RJBT 130300Z 29006KT 230V360 6000 -SHSN FEW000 SCT020 BKN040     03/M04 Q1024 RMK 1ST000 3CU020 5CU040 A3024=,- SN SH
20180113_040000.002,0,RJBT,,,,0,20180113040000,-1,-1,-1,-1,210,-1,5,-1,-1,170,250,,4500,0,1,3,FEW 0   SCT 10   BKN 20,1,1,-1,0,1023,RJBT 130400Z 21005KT 170V250 4500 -SHSN FEW000 SCT010 BKN020     01/M00 Q1023 RMK 1ST000 3CU010 5CU020 A3023=,- SN SH
20180113_050000.002,0,RJBT,,,,0,20180113050000,-1,-1,-1,-1,999,-1,2,-1,-1,-1,-1,,800,0,2,3,FEW 0   SCT 3   BKN 6,1,0,-1,0,1024,RJBT 130500Z VRB02KT 0800 -SHSN FG FEW000 SCT003 BKN006 00/M00     Q1024 RMK 1ST000 3ST003 5ST006 A3024=,- SN SH; FG
20180113_060000.002,0,RJBT,,,,0,20180113060000,-1,-1,-1,-1,999,-1,4,-1,-1,-1,-1,,400,0,1,3,FEW 0   SCT 5   BKN 10,1,0,-1,0,1024,RJBT 130600Z VRB04KT 0400 SHSN FEW000 SCT005 BKN010 00/M00     Q1024 RMK 1ST000 3ST005 5CU010 A3026=,SN SH
20180113_070000.002,0,RJBT,,,,0,20180113070000,-1,-1,-1,-1,190,-1,6,-1,-1,-1,-1,,200,0,2,3,FEW 0   SCT 2   BKN 4,-1,0,-1,0,1024,RJBT 130700Z 19006KT 0200 -SHSN FG FEW000 SCT002 BKN004     M00/M00 Q1024 RMK 1ST000 3ST002 5ST004 A3026=,- SN SH; FG
20180113_080000.002,0,RJBT,,,,0,20180113080000,-1,-1,-1,-1,210,-1,5,-1,-1,-1,-1,,300,0,2,3,FEW 0   SCT 2   BKN 5,-1,0,-1,0,1025,RJBT 130800Z 21005KT 0300 -SHSN FG FEW000 SCT002 BKN005     M00/M00 Q1025 RMK 1ST000 3ST002 5ST005 A3028=,- SN SH; FG
20180113_090000.002,0,RJBT,,,,0,20180113090000,-1,-1,-1,-1,999,-1,2,-1,-1,-1,-1,,800,0,1,3,FEW 0   SCT 3   BKN 8,-1,0,-1,0,1026,RJBT 130900Z VRB02KT 0800 SHSN FEW000 SCT003 BKN008 M00/M00     Q1026 RMK 1ST000 3ST003 5ST008 A3030=,SN SH
20180113_233000.001,0,RJBT,,,,0,20180113230000,-1,-1,-1,-1,210,-1,3,-1,-1,-1,-1,,500,0,1,3,FEW 0   SCT 2   BKN 50,-1,1,-1,1,1030,RJBT 132330Z 21003KT 0500 FG FEW000 SCT002 BKN050 M01/M01     Q1030 RMK 1ST000 3ST002 6SC050 A3043=,FG
20180114_000000.003,0,RJBT,,,,0,20180114000000,-1,-1,-1,-1,999,-1,2,-1,-1,-1,-1,,500,0,1,3,FEW 0   SCT 2   BKN 50,-1,1,-1,1,1030,RJBT 140000Z VRB02KT 0500 FG FEW000 SCT002 BKN050 M01/M01     Q1030 RMK 1ST000 3ST002 5SC050 A3044=,FG
20180114_010000.002,0,RJBT,,,,0,20180114010000,-1,-1,-1,-1,230,-1,5,-1,-1,-1,-1,,1200,0,1,3,FEW 0   SCT 2   BKN 40,-1,0,-1,0,1031,RJBT 140100Z 23005KT 1200 BCFG FEW000 SCT002 BKN040 M00/M00     Q1031 RMK 1ST000 3ST002 5CU040 A3047 3000NW-N FG BANK           AROUND=,BC FG
20180114_020000.002,0,RJBT,,,,0,20180114020000,-1,-1,-1,-1,999,-1,1,-1,-1,-1,-1,,3000,0,1,2,FEW 0   BKN 45,1,0,1,0,1031,RJBT 140200Z VRB01KT 3000 BCFG FEW000 BKN045 00/00 Q1031 RMK     1ST000 5SC045 A3047 1000N-E FG BANK AROUND=,BC FG
20180114_030000.002,0,RJBT,,,,0,20180114030000,-1,-1,-1,-1,999,-1,3,-1,-1,-1,-1,,1200,0,1,2,FEW 0   BKN 45,1,1,1,1,1030,RJBT 140300Z VRB03KT 1200 BCFG FEW000 BKN045 01/01 Q1030 RMK     1ST000 6SC045 A3044 FG BANK AROUND=,BC FG
20180114_040000.002,0,RJBT,,,,0,20180114040000,-1,-1,-1,-1,180,-1,3,-1,-1,120,210,,1200,0,1,2,FEW 0   BKN 40,1,1,1,1,1030,RJBT 140400Z 18003KT 120V210 1200 BCFG FEW000 BKN040 01/01     Q1030 RMK 1ST000 6SC040 A3042 FG BANK AROUND=,BC FG
20180114_050000.002,0,RJBT,,,,0,20180114050000,-1,-1,-1,-1,999,-1,2,-1,-1,-1,-1,,9999,0,1,2,FEW 0   BKN 40,1,1,1,1,1029,RJBT 140500Z VRB02KT 9999 PRFG FEW000 BKN040 01/01 Q1029 RMK     1ST000 6SC040 A3039 3000W-NW FG BANK SW-NW=,PR FG
20180114_060000.003,0,RJBT,,,,0,20180114060000,-1,-1,-1,-1,999,-1,1,-1,-1,-1,-1,,9999,0,1,2,FEW 0   BKN 40,1,1,1,1,1029,RJBT 140600Z VRB01KT 9999 PRFG FEW000 BKN040 01/01 Q1029 RMK     1ST000 7SC040 A3039 FG BANK W-NW=,PR FG
20180114_070000.002,0,RJBT,,,,0,20180114070000,-1,-1,-1,-1,999,-1,1,-1,-1,-1,-1,,9999,0,0,2,FEW 0   BKN 35,1,1,1,1,1028,RJBT 140700Z VRB01KT 9999 FEW000 BKN035 01/01 Q1028 RMK 1ST000     7SC035 A3038=,
20180114_080000.002,0,RJBT,,,,0,20180114080000,-1,-1,-1,-1,190,-1,2,-1,-1,-1,-1,,9999,0,1,2,FEW 0   BKN 35,1,1,1,0,1028,RJBT 140800Z 19002KT 9999 PRFG FEW000 BKN035 01/00 Q1028 RMK     1ST000 7SC035 A3037 FG BANK S=,PR FG
20180114_090000.002,0,RJBT,,,,0,20180114090000,-1,-1,-1,-1,999,-1,2,-1,-1,-1,-1,,5000,0,1,2,FEW 0   BKN 35,1,1,1,1,1028,RJBT 140900Z VRB02KT 5000 BCFG FEW000 BKN035 01/01 Q1028 RMK     2ST000 7SC035 A3038 FG BANK AROUND=,BC FG
20180114_233000.001,0,RJBT,,,,0,20180114230000,-1,-1,-1,-1,220,-1,5,-1,-1,-1,-1,,9999,0,0,2,FEW 0   BKN -9999,-1,2,-1,3,1026,RJBT 142330Z 22005KT 9999 FEW000 BKN/// M02/M03 Q1026 RMK     1ST000 A3030=,
20180115_000000.002,0,RJBT,,,,0,20180115000000,-1,-1,-1,-1,220,-1,4,-1,-1,-1,-1,,9999,0,0,2,FEW 0   BKN -9999,-1,0,-1,2,1026,RJBT 150000Z 22004KT 9999 FEW000 BKN/// M00/M02 Q1026 RMK     1ST000 A3030=,
20180115_010000.002,0,RJBT,,,,0,20180115010000,-1,-1,-1,-1,170,-1,5,-1,-1,-1,-1,,9999,0,0,2,FEW 0   BKN -9999,1,0,-1,1,1025,RJBT 150100Z 17005KT 9999 FEW000 BKN/// 00/M01 Q1025 RMK     1ST000 A3028=,
20180115_020000.002,0,RJBT,,,,0,20180115020000,-1,-1,-1,-1,180,-1,5,-1,-1,130,210,,9999,0,0,2,FEW 0   SCT -9999,1,4,-1,0,1024,RJBT 150200Z 18005KT 130V210 9999 FEW000 SCT/// 04/M00 Q1024     RMK 1ST000 A3026=,
20180115_030000.002,0,RJBT,,,,0,20180115030000,-1,-1,-1,-1,170,-1,6,-1,-1,140,200,,9999,0,0,1,FEW 25,1,6,1,1,1023,RJBT 150300Z 17006KT 140V200 9999 FEW025 06/01 Q1023 RMK     1CU025 A3021=,
20180115_040000.002,0,RJBT,,,,0,20180115040000,-1,-1,-1,-1,200,-1,12,-1,-1,-1,-1,,9999,0,0,1,FEW 25,1,8,1,0,1021,RJBT 150400Z 20012KT 9999 FEW025 08/00 Q1021 RMK 1CU025 A3016=,
20180115_050000.002,0,RJBT,,,,0,20180115050000,-1,-1,-1,-1,190,-1,8,-1,-1,140,210,,9999,0,0,2,FEW 25   BKN 50,1,8,1,1,1020,RJBT 150500Z 19008KT 140V210 9999 FEW025 BKN050 08/01 Q1020     RMK 1CU025 6SC050 A3014=,
20180115_060000.002,0,RJBT,,,,0,20180115060000,-1,-1,-1,-1,190,-1,10,-1,-1,-1,-1,,9999,0,0,3,FEW 25   SCT 45   BKN 50,1,7,1,1,1021,RJBT 150600Z 19010KT 9999 FEW025 SCT045 BKN050 07/01 Q1021 RMK     1CU025 3SC045 5SC050 A3016=,
20180115_070000.003,0,RJBT,,,,0,20180115070000,-1,-1,-1,-1,190,-1,9,-1,-1,-1,-1,,9999,0,0,2,FEW 25   SCT 45,1,7,1,1,1021,RJBT 150700Z 19009KT 9999 FEW025 SCT045 07/01 Q1021 RMK 1CU025     4SC045 A3016=,
20180115_080000.002,0,RJBT,,,,0,20180115080000,-1,-1,-1,-1,190,-1,7,-1,-1,-1,-1,,9999,0,0,1,FEW 30,1,6,1,1,1022,RJBT 150800Z 19007KT 9999 FEW030 06/01 Q1022 RMK 1CU030 A3018=,
20180115_090000.002,0,RJBT,,,,0,20180115090000,-1,-1,-1,-1,200,-1,8,-1,-1,-1,-1,,9999,0,0,1,FEW 30,1,6,1,1,1022,RJBT 150900Z 20008KT 9999 FEW030 06/01 Q1022 RMK 1CU030 A3019=,
20180115_233000.001,0,RJBT,,,,0,20180115230000,-1,-1,-1,-1,190,-1,3,-1,-1,-1,-1,,200,0,1,3,FEW 0   SCT 2   BKN 4,-1,0,-1,0,1022,RJBT 152330Z 19003KT 0200 FG FEW000 SCT002 BKN004 M00/M00     Q1022 RMK 2ST000 3ST002 5ST004 A3019=,FG
20180116_000000.002,0,RJBT,,,,0,20180116000000,-1,-1,-1,-1,180,-1,4,-1,-1,-1,-1,,400,0,1,3,FEW 0   SCT 2   BKN 5,1,0,1,0,1022,RJBT 160000Z 18004KT 0400 FG FEW000 SCT002 BKN005 00/00 Q1022     RMK 1ST000 3ST002 5ST005 A3019=,FG
20180116_010000.002,0,RJBT,,,,0,20180116010000,-1,-1,-1,-1,180,-1,3,-1,-1,140,220,,3000,0,1,2,FEW 0   SCT 60,1,2,1,2,1021,RJBT 160100Z 18003KT 140V220 3000 BCFG FEW000 SCT060 02/02     Q1021 RMK 1ST000 4SC060 A3017 1500NE FG BANK AROUND=,BC FG
20180116_020000.002,0,RJBT,,,,0,20180116020000,-1,-1,-1,-1,210,-1,6,-1,-1,-1,-1,,9999,0,0,3,FEW 0   SCT 45   BKN 60,1,5,1,2,1020,RJBT 160200Z 21006KT 9999 FEW000 SCT045 BKN060 05/02 Q1020 RMK     1ST000 3CU045 5ST060 A3015=,
20180116_030000.002,0,RJBT,,,,0,20180116030000,-1,-1,-1,-1,200,-1,5,-1,-1,160,240,,9999,0,0,2,FEW 25   SCT 50,1,9,1,4,1019,RJBT 160300Z 20005KT 160V240 9999 FEW025 SCT050 09/04 Q1019     RMK 1CU025 3SC050 A3011=,
20180116_040000.002,0,RJBT,,,,0,20180116040000,-1,-1,-1,-1,999,-1,1,-1,-1,-1,-1,,9999,0,0,2,FEW 30   BKN 50,1,11,1,4,1018,RJBT 160400Z VRB01KT 9999 FEW030 BKN050 11/04 Q1018 RMK 1CU030     5SC050 A3007=,
20180116_050000.002,0,RJBT,,,,0,20180116050000,-1,-1,-1,-1,190,-1,4,-1,-1,150,240,,9999,0,0,3,FEW 30   BKN 50   BKN -9999,1,13,1,5,1017,RJBT 160500Z 19004KT 150V240 9999 FEW030 BKN050 BKN/// 13/05     Q1017 RMK 1CU030 5SC050 A3004=,
20180116_060000.002,0,RJBT,,,,0,20180116060000,-1,-1,-1,-1,180,-1,4,-1,-1,140,230,,9999,0,0,2,FEW 30   SCT -9999,1,12,1,6,1016,RJBT 160600Z 18004KT 140V230 9999 FEW030 SCT/// 12/06 Q1016     RMK 1CU030 A3001=,
20180116_070000.002,0,RJBT,,,,0,20180116070000,-1,-1,-1,-1,200,-1,5,-1,-1,160,240,,9999,0,0,2,FEW 40   SCT 70,1,12,1,5,1016,RJBT 160700Z 20005KT 160V240 9999 FEW040 SCT070 12/05 Q1016     RMK 1CU040 3AC070 A3000=,
20180116_080000.002,0,RJBT,,,,0,20180116080000,-1,-1,-1,-1,180,-1,4,-1,-1,150,210,,9999,0,0,2,FEW 40   BKN 70,1,11,1,5,1016,RJBT 160800Z 18004KT 150V210 9999 FEW040 BKN070 11/05 Q1016     RMK 1CU040 5AC070 A3001=,
20180116_090000.002,0,RJBT,,,,0,20180116090000,-1,-1,-1,-1,200,-1,6,-1,-1,-1,-1,,9999,0,0,2,FEW 40   BKN 70,1,10,1,5,1016,RJBT 160900Z 20006KT 9999 FEW040 BKN070 10/05 Q1016 RMK 1CU040     6AC070 A3001=,
20180116_233000.001,0,RJBT,,,,0,20180116230000,-1,-1,-1,-1,999,-1,1,-1,-1,-1,-1,,800,0,2,3,FEW 0   SCT 2   BKN 6,1,7,1,7,1011,RJBT 162330Z VRB01KT 0800 -RA FG FEW000 SCT002 BKN006 07/07     Q1011 RMK 1ST000 3ST002 5ST006 A2986=,- RA; FG
20180117_000000.002,0,RJBT,,,,0,20180117000000,-1,-1,-1,-1,999,-1,1,-1,-1,-1,-1,,1500,0,2,3,FEW 0   SCT 3   BKN 80,1,7,1,7,1011,RJBT 170000Z VRB01KT 1500 -RA BCFG FEW000 SCT003 BKN080 07/07     Q1011 RMK 1ST000 3ST003 5AC080 A2986 0600NW FG ALL QUAD=,- RA; BC FG
20180117_010000.002,0,RJBT,,,,0,20180117010000,-1,-1,-1,-1,999,-1,1,-1,-1,-1,-1,,1500,0,2,3,FEW 0   SCT 2   BKN 35,1,8,1,8,1010,RJBT 170100Z VRB01KT 1500 -RA BCFG FEW000 SCT002 BKN035 08/08     Q1010 RMK 1ST000 3ST002 5SC035 A2985 0700SE FG ALL QUAD=,- RA; BC FG
20180117_020000.004,0,RJBT,,,,0,20180117020000,-1,-1,-1,-1,999,-1,1,-1,-1,-1,-1,,400,0,2,3,FEW 0   SCT 2   BKN 6,1,8,1,8,1009,RJBT 170200Z VRB01KT 0400 -RA FG FEW000 SCT002 BKN006 08/08     Q1009 RMK 1ST000 3ST002 5ST006 A2981=,- RA; FG
20180117_030000.002,0,RJBT,,,,0,20180117030000,-1,-1,-1,-1,20,-1,3,-1,-1,350,90,,200,0,1,3,FEW 0   SCT 2   BKN 5,1,8,1,8,1008,RJBT 170300Z 02003KT 350V090 0200 FG FEW000 SCT002 BKN005     08/08 Q1008 RMK 1ST000 3ST002 5ST005 A2977=,FG
20180117_040000.003,0,RJBT,,,,0,20180117040000,-1,-1,-1,-1,0,-1,0,-1,-1,-1,-1,,3500,0,1,3,FEW 0   SCT 35   BKN 70,1,10,1,10,1007,RJBT 170400Z 00000KT 3500 BCFG FEW000 SCT035 BKN070 10/10     Q1007 RMK 1ST000 3CU035 5AC070 A2975 FG BANK AROUND=,BC FG
20180117_050000.003,0,RJBT,,,,0,20180117050000,-1,-1,-1,-1,999,-1,2,-1,-1,-1,-1,,9999,0,1,3,FEW 0   SCT 25   BKN 40,1,10,1,10,1006,RJBT 170500Z VRB02KT 9999 -SHRA FEW000 SCT025 BKN040 10/10     Q1006 RMK 1ST000 3CU025 5CU040 A2973=,- RA SH
20180117_060000.002,0,RJBT,,,,0,20180117060000,-1,-1,-1,-1,999,-1,1,-1,-1,-1,-1,,2000,0,2,3,FEW 0   SCT 25   BKN 40,1,10,1,10,1007,RJBT 170600Z VRB01KT 2000 SHRA BCFG FEW000 SCT025 BKN040 10/10     Q1007 RMK 1ST000 3CU025 5CU040 A2974 0500S FG BANK           AROUND=,RA SH; BC FG
20180117_070000.002,0,RJBT,,,,0,20180117070000,-1,-1,-1,-1,340,-1,3,-1,-1,280,20,,4000,0,2,3,FEW 0   SCT 25   BKN 40,1,11,1,10,1007,RJBT 170700Z 34003KT 280V020 4000 -SHRA BCFG FEW000 SCT025     BKN040 11/10 Q1007 RMK 1ST000 3CU025 5CU040 A2975 0300N           FG BANK AROUND=,- RA SH; BC FG
20180117_080000.002,0,RJBT,,,,0,20180117080000,-1,-1,-1,-1,360,-1,4,-1,-1,-1,-1,,9999,0,2,3,FEW 0   SCT 25   BKN 70,1,10,1,10,1008,RJBT 170800Z 36004KT 9999 -SHRA PRFG FEW000 SCT025 BKN070     10/10 Q1008 RMK 1ST000 3CU025 5AC070 A2978 1000S FG BANK           SE-W=,- RA SH; PR FG
20180117_090000.003,0,RJBT,,,,0,20180117090000,-1,-1,-1,-1,999,-1,1,-1,-1,-1,-1,,9999,0,1,3,FEW 0   SCT 25   BKN 50,1,11,1,9,1009,RJBT 170900Z VRB01KT 9999 PRFG FEW000 SCT025 BKN050 11/09     Q1009 RMK 1ST000 3CU025 5SC050 A2981 2500S FG BANK S-SW=,PR FG
20180117_233000.001,0,RJBT,,,,0,20180117230000,-1,-1,-1,-1,190,-1,4,-1,-1,-1,-1,,2500,0,2,3,FEW 0   SCT 20   BKN 30,1,6,1,6,1017,RJBT 172330Z 19004KT 2500 -SHRA BCFG FEW000 SCT020 BKN030     06/06 Q1017 RMK 1ST000 3CU020 6CU030 A3004 0400SW-NW FG           ALL QUAD=,- RA SH; BC FG
20180118_000000.002,0,RJBT,,,,0,20180118000000,-1,-1,-1,-1,280,-1,3,-1,-1,230,40,,9999,0,1,3,FEW 0   SCT 30   BKN 40,1,6,1,6,1018,RJBT 180000Z 28003KT 230V040 9999 BCFG FEW000 SCT030 BKN040     06/06 Q1018 RMK 1ST000 4CU030 6CU040 A3007 0800NW-NE FG           ALL QUAD=,BC FG
20180118_010000.002,0,RJBT,,,,0,20180118010000,-1,-1,-1,-1,210,-1,3,-1,-1,170,290,,9999,0,0,3,FEW 0   SCT 40   BKN -9999,1,9,1,7,1018,RJBT 180100Z 21003KT 170V290 9999 FEW000 SCT040 BKN/// 09/07     Q1018 RMK 1ST000 4CU040 A3007=,
20180118_020000.002,0,RJBT,,,,0,20180118020000,-1,-1,-1,-1,150,-1,5,-1,-1,100,190,,9999,0,0,3,FEW 5   SCT 50   BKN 80,1,11,1,7,1017,RJBT 180200Z 15005KT 100V190 9999 FEW005 SCT050 BKN080 11/07     Q1017 RMK 1ST005 4SC050 7AC080 A3005=,
20180118_030000.003,0,RJBT,,,,0,20180118030000,-1,-1,-1,-1,999,-1,1,-1,-1,-1,-1,,9999,0,0,3,FEW 20   SCT 30   BKN -9999,1,11,1,7,1017,RJBT 180300Z VRB01KT 9999 FEW020 SCT030 BKN/// 11/07 Q1017 RMK     1CU020 4CU030 A3004=,
20180118_040000.002,0,RJBT,,,,0,20180118040000,-1,-1,-1,-1,270,-1,8,-1,-1,230,340,,9999,0,1,3,FEW 20   BKN 30   BKN -9999,1,11,1,4,1016,RJBT 180400Z 27008KT 230V340 9999 -SHRA FEW020 BKN030 BKN///     11/04 Q1016 RMK 1CU020 5CU030 A3003=,- RA SH
20180118_050000.002,0,RJBT,,,,0,20180118050000,-1,-1,-1,-1,330,-1,5,-1,-1,270,20,,9999,0,1,3,FEW 15   SCT 25   BKN 35,1,10,1,5,1017,RJBT 180500Z 33005KT 270V020 9999 -SHRA FEW015 SCT025 BKN035     10/05 Q1017 RMK 1CU015 3CU025 7CU035 A3004=,- RA SH
20180118_060000.002,0,RJBT,,,,0,20180118060000,-1,-1,-1,-1,310,-1,7,-1,-1,260,350,,9999,0,1,3,FEW 10   SCT 20   BKN 30,1,9,1,4,1018,RJBT 180600Z 31007KT 260V350 9999 -SHRA FEW010 SCT020 BKN030     09/04 Q1018 RMK 1CU010 3CU020 7CU030 A3006=,- RA SH
20180118_070000.002,0,RJBT,,,,0,20180118070000,-1,-1,-1,-1,999,-1,3,-1,-1,-1,-1,,9999,0,0,3,FEW 15   SCT 20   BKN 30,1,9,1,3,1018,RJBT 180700Z VRB03KT 9999 FEW015 SCT020 BKN030 09/03 Q1018 RMK     1CU015 3CU020 7CU030 A3007=,
20180118_080000.002,0,RJBT,,,,0,20180118080000,-1,-1,-1,-1,10,-1,4,-1,-1,310,50,,7000,0,1,3,FEW 10   SCT 20   BKN 30,1,8,1,5,1019,RJBT 180800Z 01004KT 310V050 7000 -SHRA FEW010 SCT020 BKN030     08/05 Q1019 RMK 1CU010 4CU020 7CU030 A3009=,- RA SH
20180118_090000.002,0,RJBT,,,,0,20180118090000,-1,-1,-1,-1,360,-1,3,-1,-1,330,60,,6000,0,0,3,FEW 10   SCT 20   BKN 30,1,8,1,4,1019,RJBT 180900Z 36003KT 330V060 6000 FEW010 SCT020 BKN030 08/04     Q1019 RMK 1CU010 3CU020 6CU030 A3010=,
20180118_233000.001,0,RJBT,,,,0,20180118230000,-1,-1,-1,-1,999,-1,1,-1,-1,-1,-1,,9999,0,0,2,FEW 25   BKN 30,1,6,1,2,1021,RJBT 182330Z VRB01KT 9999 FEW025 BKN030 06/02 Q1021 RMK 1CU025     5CU030 A3017=,
20180119_000000.002,0,RJBT,,,,0,20180119000000,-1,-1,-1,-1,0,-1,0,-1,-1,-1,-1,,9999,0,0,2,FEW 25   BKN 30,1,6,1,1,1021,RJBT 190000Z 00000KT 9999 FEW025 BKN030 06/01 Q1021 RMK 1CU025     6CU030 A3016=,
20180119_010000.003,0,RJBT,,,,0,20180119010000,-1,-1,-1,-1,999,-1,1,-1,-1,-1,-1,,9999,0,0,3,FEW 25   SCT 30   BKN 60,1,7,1,0,1022,RJBT 190100Z VRB01KT 9999 FEW025 SCT030 BKN060 07/00 Q1022 RMK     1CU025 3CU030 5SC060 A3019=,
20180119_020000.002,0,RJBT,,,,0,20180119020000,-1,-1,-1,-1,10,-1,3,-1,-1,300,70,,9999,0,0,3,FEW 25   SCT 35   BKN 50,1,7,-1,0,1022,RJBT 190200Z 01003KT 300V070 9999 FEW025 SCT035 BKN050 07/M00     Q1022 RMK 1CU025 4CU035 6SC050 A3018=,
20180119_030000.002,0,RJBT,,,,0,20180119030000,-1,-1,-1,-1,40,-1,3,-1,-1,340,120,,9999,0,0,3,FEW 25   SCT 40   BKN 60,1,8,1,1,1021,RJBT 190300Z 04003KT 340V120 9999 FEW025 SCT040 BKN060 08/01     Q1021 RMK 1CU025 3CU040 5SC060 A3015=,
20180119_040000.002,0,RJBT,,,,0,20180119040000,-1,-1,-1,-1,130,-1,4,-1,-1,40,220,,9999,0,0,2,FEW 30   SCT 40,1,9,1,0,1019,RJBT 190400Z 13004KT 040V220 9999 FEW030 SCT040 09/00 Q1019     RMK 1CU030 3CU040 A3011=,
20180119_050000.003,0,RJBT,,,,0,20180119050000,-1,-1,-1,-1,999,-1,3,-1,-1,-1,-1,,9999,0,0,2,FEW 30   SCT 40,1,8,1,0,1018,RJBT 190500Z VRB03KT 9999 FEW030 SCT040 08/00 Q1018 RMK 1CU030     4CU040 A3008=,
20180119_060000.002,0,RJBT,,,,0,20180119060000,-1,-1,-1,-1,120,-1,4,-1,-1,20,170,,9999,0,0,3,FEW 30   SCT 40   BKN -9999,1,8,1,1,1018,RJBT 190600Z 12004KT 020V170 9999 FEW030 SCT040 BKN/// 08/01     Q1018 RMK 1CU030 3CU040 A3007=,
20180119_070000.002,0,RJBT,,,,0,20180119070000,-1,-1,-1,-1,170,-1,5,-1,-1,130,200,,9999,0,0,2,FEW 30   SCT -9999,1,8,1,1,1018,RJBT 190700Z 17005KT 130V200 9999 FEW030 SCT/// 08/01 Q1018     RMK 1CU030 A3008=,
20180119_080000.002,0,RJBT,,,,0,20180119080000,-1,-1,-1,-1,999,-1,2,-1,-1,-1,-1,,9999,0,0,1,FEW 30,1,6,1,1,1018,RJBT 190800Z VRB02KT 9999 FEW030 06/01 Q1018 RMK 1CU030 A3006=,
20180119_090000.003,0,RJBT,,,,0,20180119090000,-1,-1,-1,-1,999,-1,2,-1,-1,-1,-1,CAVOK,-1,0,0,0,,1,5,1,1,1018,RJBT 190900Z VRB02KT CAVOK 05/01 Q1018 RMK A3007=,
20180119_233000.001,0,RJBT,,,,0,20180119230000,-1,-1,-1,-1,280,-1,4,-1,-1,240,320,,9999,0,1,3,FEW 3   SCT 25   BKN 35,1,5,1,3,1018,RJBT 192330Z 28004KT 240V320 9999 -SHRA FEW003 SCT025 BKN035     05/03 Q1018 RMK 1ST003 3CU025 5CU035 A3008=,- RA SH
20180120_000000.002,0,RJBT,,,,0,20180120000000,-1,-1,-1,-1,270,-1,6,-1,-1,180,290,,5000,0,1,3,FEW 0   SCT 20   BKN 30,1,2,1,2,1018,RJBT 200000Z 27006KT 180V290 5000 PRFG FEW000 SCT020 BKN030     02/02 Q1018 RMK 2ST000 3CU020 5CU030 A3008 1000SE-S FG           E-SW=,PR FG
20180120_010000.002,0,RJBT,,,,0,20180120010000,-1,-1,-1,-1,0,-1,0,-1,-1,-1,-1,,9999,0,2,3,FEW 0   SCT 20   BKN 35,1,4,1,3,1019,RJBT 200100Z 00000KT 9999 -SHRA PRFG FEW000 SCT020 BKN035     04/03 Q1019 RMK 1ST000 3CU020 5CU035 A3009 1500NW FG BANK           SW-N=,- RA SH; PR FG
20180120_020000.001,2,RJBT,,,,0,20180120020000,-1,-1,-1,-1,999,-1,2,-1,-1,-1,-1,,9999,0,2,3,FEW 0   SCT 20   BKN 50,1,5,1,4,1018,RJBT 200200Z VRB02KT 9999 -SHRA PRFG FEW000 SCT020 BKN050     05/04 Q1018 RMK 1ST000 3CU020 5SC050 A3009 3000N FG BANK           N-NE=,- RA SH; PR FG
20180120_020000.003,0,RJBT,,,,0,20180120020000,-1,-1,-1,-1,999,-1,2,-1,-1,-1,-1,,9999,0,2,3,FEW 0   SCT 20   BKN 50,1,5,1,4,1018,RJBT 200200Z VRB02KT 9999 -SHRA PRFG FEW000 SCT020 BKN050     05/04 Q1018 RMK 1ST000 3CU020 5SC050 A3009 3000N FG BANK           N-NE=,- RA SH; PR FG
20180120_030000.002,0,RJBT,,,,0,20180120030000,-1,-1,-1,-1,999,-1,2,-1,-1,-1,-1,,9999,0,0,3,FEW 8   SCT 20   BKN 50,1,7,1,6,1019,RJBT 200300Z VRB02KT 9999 FEW008 SCT020 BKN050 07/06 Q1019 RMK     1ST008 3CU020 5SC050 A3009=,
20180120_040000.002,0,RJBT,,,,0,20180120040000,-1,-1,-1,-1,350,-1,4,-1,-1,270,30,,9999,0,1,3,FEW 15   SCT 25   BKN 50,1,7,1,2,1019,RJBT 200400Z 35004KT 270V030 9999 VCSH FEW015 SCT025 BKN050     07/02 Q1019 RMK 1CU015 3CU025 5SC050 A3009=,VC SH
20180120_050000.002,0,RJBT,,,,0,20180120050000,-1,-1,-1,-1,999,-1,2,-1,-1,-1,-1,,9999,0,0,3,FEW 20   SCT 30   BKN 50,1,7,1,2,1018,RJBT 200500Z VRB02KT 9999 FEW020 SCT030 BKN050 07/02 Q1018 RMK     1CU020 3CU030 5SC050 A3008=,
20180120_060000.002,0,RJBT,,,,0,20180120060000,-1,-1,-1,-1,310,-1,4,-1,-1,270,340,,9999,0,0,2,FEW 25   SCT 35,1,7,1,1,1018,RJBT 200600Z 31004KT 270V340 9999 FEW025 SCT035 07/01 Q1018     RMK 2CU025 4CU035 A3007=,
20180120_070000.002,0,RJBT,,,,0,20180120070000,-1,-1,-1,-1,300,-1,3,-1,-1,260,340,,9999,0,0,2,FEW 20   SCT 30,1,7,1,1,1018,RJBT 200700Z 30003KT 260V340 9999 FEW020 SCT030 07/01 Q1018     RMK 1CU020 3CU030 A3007=,
20180120_080000.002,0,RJBT,,,,0,20180120080000,-1,-1,-1,-1,240,-1,4,-1,-1,-1,-1,,9999,0,0,3,FEW 20   SCT 30   BKN 50,1,7,1,2,1018,RJBT 200800Z 24004KT 9999 FEW020 SCT030 BKN050 07/02 Q1018 RMK     1CU020 3CU030 5SC050 A3008=,
20180120_090000.002,0,RJBT,,,,0,20180120090000,-1,-1,-1,-1,290,-1,3,-1,-1,260,340,,9999,0,1,3,FEW 20   SCT 30   BKN 50,1,6,1,2,1019,RJBT 200900Z 29003KT 260V340 9999 -SHRA FEW020 SCT030 BKN050     06/02 Q1019 RMK 1CU020 3CU030 5SC050 A3010=,- RA SH
20180120_233000.001,0,RJBT,,,,0,20180120230000,-1,-1,-1,-1,200,-1,3,-1,-1,160,250,,9999,0,0,3,FEW 0   SCT 35   BKN 40,1,1,1,1,1019,RJBT 202330Z 20003KT 160V250 9999 FEW000 SCT035 BKN040 01/01     Q1019 RMK 1ST000 3CU035 5CU040 A3010=,
20180121_000000.002,0,RJBT,,,,0,20180121000000,-1,-1,-1,-1,200,-1,5,-1,-1,-1,-1,,9999,0,0,3,FEW 0   SCT 35   BKN 40,1,1,1,1,1019,RJBT 210000Z 20005KT 9999 FEW000 SCT035 BKN040 01/01 Q1019 RMK     1ST000 3CU035 5CU040 A3011=,
20180121_010000.002,0,RJBT,,,,0,20180121010000,-1,-1,-1,-1,190,-1,5,-1,-1,-1,-1,,5000,0,1,3,FEW 0   SCT 35   BKN 50,1,2,1,1,1019,RJBT 210100Z 19005KT 5000 PRFG FEW000 SCT035 BKN050 02/01     Q1019 RMK 1ST000 3CU035 5SC050 A3012 FG BANK NW-SE=,PR FG
20180121_020000.002,0,RJBT,,,,0,20180121020000,-1,-1,-1,-1,270,-1,3,-1,-1,210,350,,9999,0,1,3,FEW 0   SCT 30   BKN 40,1,4,1,2,1019,RJBT 210200Z 27003KT 210V350 9999 -SHRA FEW000 SCT030 BKN040     04/02 Q1019 RMK 1ST000 3CU030 5CU040 A3011=,- RA SH
20180121_030000.002,0,RJBT,,,,0,20180121030000,-1,-1,-1,-1,200,-1,3,-1,-1,150,240,,9000,0,1,3,FEW 25   SCT 35   BKN 45,1,7,1,4,1019,RJBT 210300Z 20003KT 150V240 9000 -SHRA FEW025 SCT035 BKN045     07/04 Q1019 RMK 1CU025 3CU035 5CU045 A3009=,- RA SH
20180121_040000.003,0,RJBT,,,,0,20180121040000,-1,-1,-1,-1,999,-1,1,-1,-1,-1,-1,,6000,0,1,3,FEW 10   SCT 25   BKN 35,1,5,1,4,1019,RJBT 210400Z VRB01KT 6000 -SHRA FEW010 SCT025 BKN035 05/04     Q1019 RMK 1CU010 3CU025 5CU035 A3010=,- RA SH
20180121_050000.002,0,RJBT,,,,0,20180121050000,-1,-1,-1,-1,999,-1,2,-1,-1,-1,-1,,6000,0,0,2,FEW 0   SCT 20,1,7,1,5,1018,RJBT 210500Z VRB02KT 6000 FEW000 SCT020 07/05 Q1018 RMK 1ST000     3CU020 A3008=,
20180121_060000.002,0,RJBT,,,,0,20180121060000,-1,-1,-1,-1,320,-1,6,-1,-1,250,30,,9999,0,0,2,FEW 15   SCT 25,1,7,1,2,1019,RJBT 210600Z 32006KT 250V030 9999 FEW015 SCT025 07/02 Q1019     RMK 1CU015 3CU025 A3010=,
20180121_070000.002,0,RJBT,,,,0,20180121070000,-1,-1,-1,-1,320,-1,8,-1,-1,280,360,,9999,0,0,2,FEW 30   SCT 40,1,7,-1,2,1019,RJBT 210700Z 32008KT 280V360 9999 FEW030 SCT040 07/M02 Q1019     RMK 1CU030 3CU040 A3011=,
20180121_080000.002,0,RJBT,,,,0,20180121080000,-1,-1,-1,-1,300,-1,3,-1,-1,250,350,,9999,0,0,3,FEW 30   SCT 50   BKN -9999,1,6,-1,2,1020,RJBT 210800Z 30003KT 250V350 9999 FEW030 SCT050 BKN/// 06/M02     Q1020 RMK 1CU030 3SC050 A3013=,
20180121_090000.002,0,RJBT,,,,0,20180121090000,-1,-1,-1,-1,330,-1,3,-1,-1,290,10,,9999,0,0,2,FEW 35   BKN 60,1,6,-1,1,1020,RJBT 210900Z 33003KT 290V010 9999 FEW035 BKN060 06/M01 Q1020     RMK 1CU035 5SC060 A3014=,
20180121_233000.001,0,RJBT,,,,0,20180121230000,-1,-1,-1,-1,999,-1,1,-1,-1,-1,-1,,9999,0,1,3,FEW 0   BKN 35   BKN 100,1,3,1,2,1016,RJBT 212330Z VRB01KT 9999 PRFG FEW000 BKN035 BKN100 03/02     Q1016 RMK 1ST000 5CU035 7AC100 A3002 4000E FG NE-SE=,PR FG
20180122_000000.002,0,RJBT,,,,0,20180122000000,-1,-1,-1,-1,190,-1,5,-1,-1,-1,-1,,500,0,1,3,FEW 0   SCT 35   BKN 100,1,2,1,2,1016,RJBT 220000Z 19005KT 0500 FG FEW000 SCT035 BKN100 02/02 Q1016     RMK 1ST000 4CU035 7AC100 A3003=,FG
20180122_010000.002,0,RJBT,,,,0,20180122010000,-1,-1,-1,-1,170,-1,3,-1,-1,-1,-1,,9999,0,2,3,FEW 0   SCT 50   BKN 70,1,3,1,2,1016,RJBT 220100Z 17003KT 9999 -RA BCFG FEW000 SCT050 BKN070 03/02     Q1016 RMK 1ST000 3SC050 5AC070 A3000 2000E FG BANK           AROUND=,- RA; BC FG
20180122_020000.002,0,RJBT,,,,0,20180122020000,-1,-1,-1,-1,999,-1,2,-1,-1,-1,-1,,1500,0,2,3,FEW 0   SCT 20   BKN 40,1,3,1,3,1015,RJBT 220200Z VRB02KT 1500 -RA BCFG FEW000 SCT020 BKN040 03/03     Q1015 RMK 1ST000 3CU020 5SC040 A2997 FG ALL QUAD=,- RA; BC FG
20180122_030000.002,0,RJBT,,,,0,20180122030000,-1,-1,-1,-1,170,-1,3,-1,-1,150,210,,5000,0,2,3,FEW 0   SCT 5   BKN 40,1,2,1,2,1013,RJBT 220300Z 17003KT 150V210 5000 -RASN BCFG FEW000 SCT005     BKN040 02/02 Q1013 RMK 1ST000 3ST005 5SC040 A2992 2500E           FG ALL QUAD=,- RA SN; BC FG
20180122_040000.002,0,RJBT,,,,0,20180122040000,-1,-1,-1,-1,190,-1,3,-1,-1,-1,-1,,900,0,1,1,VV 4,1,0,1,0,1012,RJBT 220400Z 19003KT 0900 SN VV004 00/00 Q1012 RMK A2989=,SN
20180122_050000.002,0,RJBT,,,,0,20180122050000,-1,-1,-1,-1,230,-1,3,-1,-1,-1,-1,,800,0,1,1,VV 6,1,0,1,0,1011,RJBT 220500Z 23003KT 0800 SN VV006 00/00 Q1011 RMK A2986=,SN
20180122_060000.003,0,RJBT,,,,0,20180122060000,-1,-1,-1,-1,0,-1,0,-1,-1,-1,-1,,500,0,1,1,VV 6,1,0,1,0,1010,RJBT 220600Z 00000KT 0500 SN VV006 00/00 Q1010 RMK A2985=,SN
20180122_070000.002,0,RJBT,,,,0,20180122070000,-1,-1,-1,-1,250,-1,2,-1,-1,-1,-1,,5000,0,2,3,FEW 0   SCT 20   BKN 40,1,1,1,1,1010,RJBT 220700Z 25002KT 5000 -SN PRFG FEW000 SCT020 BKN040 01/01     Q1010 RMK 1ST000 4CU020 6SC040 A2985 0800N FG BANK N-SE=,- SN; PR FG
20180122_080000.003,0,RJBT,,,,0,20180122080000,-1,-1,-1,-1,999,-1,1,-1,-1,-1,-1,,200,0,2,3,FEW 0   SCT 30   BKN 70,-1,0,-1,0,1010,RJBT 220800Z VRB01KT 0200 FG -SHRA FEW000 SCT030 BKN070     M00/M00 Q1010 RMK 2ST000 3CU030 5AC070 A2984=,FG; - RA SH
20180122_090000.002,0,RJBT,,,,0,20180122090000,-1,-1,-1,-1,340,-1,3,-1,-1,-1,-1,,300,0,1,2,FEW 0   SCT 70,-1,0,-1,0,1010,RJBT 220900Z 34003KT 0300 FG FEW000 SCT070 M00/M00 Q1010 RMK     2ST000 4AC070 A2985=,FG
20180122_233000.001,0,RJBT,,,,0,20180122230000,-1,-1,-1,-1,250,-1,10,-1,-1,220,310,,9999,0,1,2,FEW 20   SCT 35,1,5,-1,1,1008,RJBT 222330Z 25010KT 220V310 9999 VCSH FEW020 SCT035 05/M01     Q1008 RMK 1CU020 3CU035 A2979=,VC SH
20180123_000000.002,0,RJBT,,,,0,20180123000000,-1,-1,-1,-1,250,-1,14,-1,26,210,320,,9999,0,1,2,FEW 5   SCT 30,1,6,-1,2,1009,RJBT 230000Z 25014G26KT 210V320 9999 VCSH FEW005 SCT030 06/M02     Q1009 RMK 1ST005 3CU030 A2980=,VC SH
20180123_010000.002,0,RJBT,,,,0,20180123010000,-1,-1,-1,-1,260,-1,9,-1,22,160,310,,9999,0,0,2,FEW 7   SCT 30,1,6,-1,3,1009,RJBT 230100Z 26009G22KT 160V310 9999 FEW007 SCT030 06/M03     Q1009 RMK 1ST007 3CU030 A2982=,
20180123_020000.002,0,RJBT,,,,0,20180123020000,-1,-1,-1,-1,270,-1,11,-1,28,220,330,,9999,0,1,3,FEW 5   SCT 20   BKN 35,1,5,-1,5,1009,RJBT 230200Z 27011G28KT 220V330 9999 -SHRA FEW005 SCT020     BKN035 05/M05 Q1009 RMK 1ST005 3CU020 5CU035 A2982=,- RA SH
20180123_030000.003,0,RJBT,,,,0,20180123030000,-1,-1,-1,-1,280,-1,10,-1,-1,240,330,,9999,0,1,3,FEW 5   SCT 20   BKN 35,1,4,-1,3,1010,RJBT 230300Z 28010KT 240V330 9999 -SHSN FEW005 SCT020 BKN035     04/M03 Q1010 RMK 1ST005 3CU020 5CU035 A2983=,- SN SH
20180123_040000.003,0,RJBT,,,,0,20180123040000,-1,-1,-1,-1,250,-1,11,-1,25,210,290,,9999,0,1,3,FEW 20   SCT 30   BKN 40,1,4,-1,5,1010,RJBT 230400Z 25011G25KT 210V290 9999 -SHSN FEW020 SCT030     BKN040 04/M05 Q1010 RMK 1CU020 3CU030 5CU040 A2983=,- SN SH
20180123_050000.002,0,RJBT,,,,0,20180123050000,-1,-1,-1,-1,270,-1,11,-1,24,230,300,,9999,0,1,2,FEW 20   BKN 40,1,4,-1,7,1011,RJBT 230500Z 27011G24KT 230V300 9999 VCSH FEW020 BKN040 04/M07     Q1011 RMK 1CU020 5CU040 A2985=,VC SH
20180123_060000.003,0,RJBT,,,,0,20180123060000,-1,-1,-1,-1,290,-1,10,-1,22,240,350,,4500,0,1,3,FEW 0   SCT 15   BKN 25,1,1,-1,5,1012,RJBT 230600Z 29010G22KT 240V350 4500 -SHSN FEW000 SCT015     BKN025 01/M05 Q1012 RMK 1ST000 3CU015 5CU025 A2988=,- SN SH
20180123_070000.002,0,RJBT,,,,0,20180123070000,-1,-1,-1,-1,240,-1,5,-1,-1,170,340,,4500,0,1,2,FEW 0   SCT 15,-1,0,-1,2,1012,RJBT 230700Z 24005KT 170V340 4500 -SHSN FEW000 SCT015 M00/M02     Q1012 RMK 1ST000 4CU015 A2990 2000SE=,- SN SH
20180123_080000.002,0,RJBT,,,,0,20180123080000,-1,-1,-1,-1,270,-1,10,-1,-1,220,320,,3000,0,1,3,FEW 0   SCT 20   BKN 30,-1,1,-1,4,1013,RJBT 230800Z 27010KT 220V320 3000 -SHSN FEW000 SCT020 BKN030     M01/M04 Q1013 RMK 1ST000 3CU020 5CU030 A2991=,- SN SH
20180123_090000.002,0,RJBT,,,,0,20180123090000,-1,-1,-1,-1,250,-1,7,-1,-1,190,310,,2500,0,1,3,FEW 0   SCT 10   BKN 20,-1,1,-1,4,1013,RJBT 230900Z 25007KT 190V310 2500 -SHSN FEW000 SCT010 BKN020     M01/M04 Q1013 RMK 1ST000 3CU010 5CU020 A2992=,- SN SH
20180123_233000.001,0,RJBT,,,,0,20180123230000,-1,-1,-1,-1,260,-1,7,-1,-1,220,300,,4500,0,1,3,FEW 0   SCT 15   BKN 30,-1,3,-1,7,1014,RJBT 232330Z 26007KT 220V300 4500 -SHSN FEW000 SCT015 BKN030     M03/M07 Q1014 RMK 1ST000 3CU015 5CU030 A2995=,- SN SH
20180124_000000.002,0,RJBT,,,,0,20180124000000,-1,-1,-1,-1,270,-1,9,-1,19,240,310,,6000,0,1,3,FEW 0   SCT 15   BKN 30,-1,3,-1,8,1014,RJBT 240000Z 27009G19KT 240V310 6000 -SHSN FEW000 SCT015     BKN030 M03/M08 Q1014 RMK 1ST000 3CU015 5CU030 A2995=,- SN SH
20180124_010000.003,0,RJBT,,,,0,20180124010000,-1,-1,-1,-1,270,-1,7,-1,19,230,360,,9999,0,1,2,FEW 0   BKN 35,-1,2,-1,9,1014,RJBT 240100Z 27007G19KT 230V360 9999 VCSH FEW000 BKN035     M02/M09 Q1014 RMK 1ST000 5CU035 A2995=,VC SH
20180124_020000.002,0,RJBT,,,,0,20180124020000,-1,-1,-1,-1,280,-1,12,-1,23,220,10,,9999,0,1,2,FEW 0   BKN 35,-1,1,-1,10,1013,RJBT 240200Z 28012G23KT 220V010 9999 -SHSN FEW000 BKN035     M01/M10 Q1013 RMK 1ST000 5CU035 A2992=,- SN SH
20180124_030000.002,0,RJBT,,,,0,20180124030000,-1,-1,-1,-1,280,-1,9,-1,-1,230,310,,5000,0,1,3,FEW 0   SCT 15   BKN 25,-1,2,-1,8,1012,RJBT 240300Z 28009KT 230V310 5000 -SHSN FEW000 SCT015 BKN025     M02/M08 Q1012 RMK 1ST000 3CU015 5CU025 A2991=,- SN SH
20180124_040000.002,0,RJBT,,,,0,20180124040000,-1,-1,-1,-1,260,-1,7,-1,-1,210,340,,1000,0,1,3,FEW 0   SCT 10   BKN 20,-1,3,-1,7,1012,RJBT 240400Z 26007KT 210V340 1000 -SHSN FEW000 SCT010 BKN020     M03/M07 Q1012 RMK 1ST000 3CU010 5CU020 A2990=,- SN SH
20180124_050000.002,0,RJBT,,,,0,20180124050000,-1,-1,-1,-1,250,-1,13,-1,-1,210,290,,300,0,1,3,FEW 0   SCT 3   BKN 6,-1,4,-1,5,1013,RJBT 240500Z 25013KT 210V290 0300 SHSN FEW000 SCT003 BKN006     M04/M05 Q1013 RMK 1ST000 3ST003 5ST006 A2992=,SN SH
20180124_060000.002,0,RJBT,,,,0,20180124060000,-1,-1,-1,-1,260,-1,10,-1,21,220,340,,600,0,1,3,FEW 0   SCT 3   BKN 9,-1,4,-1,6,1013,RJBT 240600Z 26010G21KT 220V340 0600 SHSN FEW000 SCT003 BKN009     M04/M06 Q1013 RMK 1ST000 3ST003 5ST009 A2993=,SN SH
20180124_070000.002,0,RJBT,,,,0,20180124070000,-1,-1,-1,-1,260,-1,7,-1,17,220,300,,600,0,1,3,FEW 0   SCT 3   BKN 8,-1,5,-1,6,1014,RJBT 240700Z 26007G17KT 220V300 0600 SHSN FEW000 SCT003 BKN008     M05/M06 Q1014 RMK 1ST000 3ST003 5ST008 A2996=,SN SH
20180124_080000.002,0,RJBT,,,,0,20180124080000,-1,-1,-1,-1,290,-1,8,-1,19,250,330,,2500,0,1,3,FEW 0   SCT 10   BKN 15,-1,4,-1,7,1014,RJBT 240800Z 29008G19KT 250V330 2500 -SHSN FEW000 SCT010     BKN015 M04/M07 Q1014 RMK 1ST000 3CU010 5CU015 A2996=,- SN SH
20180124_090000.003,0,RJBT,,,,0,20180124090000,-1,-1,-1,-1,300,-1,5,-1,-1,240,350,,500,0,1,3,FEW 0   SCT 3   BKN 10,-1,5,-1,6,1015,RJBT 240900Z 30005KT 240V350 0500 SHSN FEW000 SCT003 BKN010     M05/M06 Q1015 RMK 1ST000 3ST003 5CU010 A2998=,SN SH
20180124_233000.001,0,RJBT,,,,0,20180124230000,-1,-1,-1,-1,360,-1,6,-1,-1,310,40,,7000,0,1,3,FEW 5   SCT 10   BKN 20,-1,2,-1,6,1017,RJBT 242330Z 36006KT 310V040 7000 -SHSN FEW005 SCT010 BKN020     M02/M06 Q1017 RMK 1ST005 3CU010 6CU020 A3004=,- SN SH
20180125_000000.002,0,RJBT,,,,0,20180125000000,-1,-1,-1,-1,350,-1,3,-1,-1,290,60,,5000,0,1,3,FEW 5   SCT 15   BKN 25,-1,3,-1,5,1017,RJBT 250000Z 35003KT 290V060 5000 -SHSNGS FEW005 SCT015 BKN025     M03/M05 Q1017 RMK 1ST005 3CU015 7CU025 A3005 SNOW           PELLETS=,- SN GS SH
20180125_010000.002,0,RJBT,,,,0,20180125010000,-1,-1,-1,-1,330,-1,7,-1,-1,280,30,,6000,0,1,3,FEW 5   SCT 15   BKN 25,-1,2,-1,7,1018,RJBT 250100Z 33007KT 280V030 6000 -SHSN FEW005 SCT015 BKN025     M02/M07 Q1018 RMK 1ST005 4CU015 7CU025 A3007=,- SN SH
20180125_020000.003,0,RJBT,,,,0,20180125020000,-1,-1,-1,-1,330,-1,8,-1,-1,270,30,,7000,0,1,3,FEW 5   SCT 15   BKN 25,-1,1,-1,6,1018,RJBT 250200Z 33008KT 270V030 7000 -SHSN FEW005 SCT015 BKN025     M01/M06 Q1018 RMK 1ST005 3CU015 6CU025 A3006=,- SN SH
20180125_030000.002,0,RJBT,,,,0,20180125030000,-1,-1,-1,-1,340,-1,7,-1,-1,310,20,,9999,0,1,3,FEW 10   SCT 20   BKN 30,-1,1,-1,7,1017,RJBT 250300Z 34007KT 310V020 9999 -SHSN FEW010 SCT020 BKN030     M01/M07 Q1017 RMK 1CU010 3CU020 6CU030 A3003=,- SN SH
20180125_040000.002,0,RJBT,,,,0,20180125040000,-1,-1,-1,-1,360,-1,7,-1,-1,310,50,,3000,0,1,3,FEW 10   BKN 20   BKN 30,-1,2,-1,5,1016,RJBT 250400Z 36007KT 310V050 3000 -SHGSSN FEW010 BKN020 BKN030     M02/M05 Q1016 RMK 1CU010 5CU020 7CU030 A3001 SNOW           PELLETS=,- GS SN SH
20180125_050000.002,0,RJBT,,,,0,20180125050000,-1,-1,-1,-1,350,-1,3,-1,-1,280,60,,2000,0,1,3,FEW 5   SCT 20   BKN 30,-1,2,-1,4,1016,RJBT 250500Z 35003KT 280V060 2000 -SHSN FEW005 SCT020 BKN030     M02/M04 Q1016 RMK 1ST005 3CU020 7CU030 A3000=,- SN SH
20180125_060000.002,0,RJBT,,,,0,20180125060000,-1,-1,-1,-1,999,-1,1,-1,-1,-1,-1,,3000,0,1,3,FEW 5   SCT 20   BKN 30,-1,2,-1,3,1015,RJBT 250600Z VRB01KT 3000 -SHSN FEW005 SCT020 BKN030 M02/M03     Q1015 RMK 1ST005 4CU020 7CU030 A3000=,- SN SH
20180125_070000.002,0,RJBT,,,,0,20180125070000,-1,-1,-1,-1,999,-1,1,-1,-1,-1,-1,,1200,0,1,3,FEW 5   SCT 10   BKN 20,-1,2,-1,2,1015,RJBT 250700Z VRB01KT 1200 -SHSN FEW005 SCT010 BKN020 M02/M02     Q1015 RMK 1ST005 3CU010 6CU020 A3000=,- SN SH
20180125_080000.002,0,RJBT,,,,0,20180125080000,-1,-1,-1,-1,180,-1,4,-1,-1,-1,-1,,2500,0,2,2,FEW 0   BKN 15,-1,2,-1,2,1015,RJBT 250800Z 18004KT 2500 -SHSN BCFG FEW000 BKN015 M02/M02     Q1015 RMK 1ST000 5CU015 A2999 FG ALL QUAD=,- SN SH; BC FG
20180125_090000.002,0,RJBT,,,,0,20180125090000,-1,-1,-1,-1,210,-1,5,-1,-1,-1,-1,,3000,0,2,3,FEW 0   SCT 15   BKN 25,-1,3,-1,3,1015,RJBT 250900Z 21005KT 3000 -SHSN BCFG FEW000 SCT015 BKN025     M03/M03 Q1015 RMK 1ST000 4CU015 6CU025 A2998 FG ALL QUAD=,- SN SH; BC FG
20180125_233000.001,0,RJBT,,,,0,20180125230000,-1,-1,-1,-1,320,-1,8,-1,18,250,10,,500,0,1,3,FEW 0   SCT 3   BKN 10,-1,2,-1,3,1013,RJBT 252330Z 32008G18KT 250V010 0500 SHSN FEW000 SCT003 BKN010     M02/M03 Q1013 RMK 1ST000 3ST003 5CU010 A2993=,SN SH
20180126_000000.002,0,RJBT,,,,0,20180126000000,-1,-1,-1,-1,999,-1,3,-1,-1,-1,-1,,4500,0,2,2,FEW 0   SCT 10,-1,1,-1,4,1013,RJBT 260000Z VRB03KT 4500 -SHSN BCFG FEW000 SCT010 M01/M04     Q1013 RMK 1ST000 4ST010 A2993 FG ALL QUAD=,- SN SH; BC FG
20180126_010000.002,0,RJBT,,,,0,20180126010000,-1,-1,-1,-1,320,-1,9,-1,-1,270,10,,300,0,1,3,FEW 0   SCT 3   BKN 8,-1,2,-1,3,1014,RJBT 260100Z 32009KT 270V010 0300 SHSN FEW000 SCT003 BKN008     M02/M03 Q1014 RMK 1ST000 3ST003 5ST008 A2995=,SN SH
20180126_020000.002,0,RJBT,,,,0,20180126020000,-1,-1,-1,-1,350,-1,4,-1,-1,300,40,,800,0,1,3,FEW 0   SCT 5   BKN 10,-1,2,-1,2,1014,RJBT 260200Z 35004KT 300V040 0800 SHSN FEW000 SCT005 BKN010     M02/M02 Q1014 RMK 1ST000 3ST005 5CU010 A2994=,SN SH
20180126_030000.002,0,RJBT,,,,0,20180126030000,-1,-1,-1,-1,999,-1,7,-1,-1,-1,-1,,2500,0,2,3,FEW 0   SCT 5   BKN 10,-1,1,-1,2,1013,RJBT 260300Z VRB07KT 2500 -SHSN BCFG FEW000 SCT005 BKN010     M01/M02 Q1013 RMK 1ST000 3ST005 5CU010 A2992 1000S FG ALL           QUAD=,- SN SH; BC FG
20180126_040000.002,0,RJBT,,,,0,20180126040000,-1,-1,-1,-1,340,-1,9,-1,19,-1,-1,,1000,0,2,3,FEW 0   SCT 10   BKN 15,-1,1,-1,4,1012,RJBT 260400Z 34009G19KT 1000 -SHSN BCFG FEW000 SCT010 BKN015     M01/M04 Q1012 RMK 1ST000 3CU010 5CU015 A2991 FG ALL QUAD=,- SN SH; BC FG
20180126_050000.002,0,RJBT,,,,0,20180126050000,-1,-1,-1,-1,340,-1,8,-1,-1,290,40,,600,0,1,3,FEW 0   SCT 5   BKN 10,-1,2,-1,3,1012,RJBT 260500Z 34008KT 290V040 0600 SHSNGS FEW000 SCT005 BKN010     M02/M03 Q1012 RMK 1ST000 3ST005 5CU010 A2991 SNOW           PELLETS=,SN GS SH
20180126_060000.002,0,RJBT,,,,0,20180126060000,-1,-1,-1,-1,350,-1,8,-1,-1,320,30,,600,0,1,3,FEW 0   SCT 5   BKN 15,-1,2,-1,3,1013,RJBT 260600Z 35008KT 320V030 0600 SHSN FEW000 SCT005 BKN015     M02/M03 Q1013 RMK 1ST000 3ST005 5CU015 A2993=,SN SH
20180126_070000.002,0,RJBT,,,,0,20180126070000,-1,-1,-1,-1,350,-1,4,-1,-1,310,40,,800,0,1,3,FEW 0   SCT 5   BKN 15,-1,2,-1,3,1013,RJBT 260700Z 35004KT 310V040 0800 SHSN FEW000 SCT005 BKN015     M02/M03 Q1013 RMK 1ST000 3ST005 5CU015 A2993=,SN SH
20180126_080000.003,0,RJBT,,,,0,20180126080000,-1,-1,-1,-1,350,-1,11,-1,21,320,40,,1500,0,2,3,FEW 0   SCT 5   BKN 15,-1,2,-1,4,1014,RJBT 260800Z 35011G21KT 320V040 1500 -SHSN BR FEW000 SCT005     BKN015 M02/M04 Q1014 RMK 1ST000 3ST005 5CU015 A2996=,- SN SH; BR
20180126_090000.002,0,RJBT,,,,0,20180126090000,-1,-1,-1,-1,340,-1,12,-1,-1,280,20,,3500,0,2,2,FEW 0   BKN 15,-1,2,-1,4,1015,RJBT 260900Z 34012KT 280V020 3500 -SHSN BR FEW000 BKN015     M02/M04 Q1015 RMK 1ST000 5CU015 A2998=,- SN SH; BR
20180126_233000.001,0,RJBT,,,,0,20180126230000,-1,-1,-1,-1,350,-1,8,-1,-1,300,30,,2000,0,1,2,FEW 10   BKN 20,-1,1,-1,2,1021,RJBT 262330Z 35008KT 300V030 2000 -SHSNGS FEW010 BKN020     M01/M02 Q1021 RMK 1CU010 5CU020 A3016 SNOW PELLETS=,- SN GS SH
20180127_000000.002,0,RJBT,,,,0,20180127000000,-1,-1,-1,-1,340,-1,7,-1,-1,300,20,,2000,0,1,2,FEW 10   BKN 20,-1,1,-1,2,1022,RJBT 270000Z 34007KT 300V020 2000 -SHSNGS FEW010 BKN020     M01/M02 Q1022 RMK 1CU010 5CU020 A3018 SNOW PELLETS=,- SN GS SH
20180127_010000.002,0,RJBT,,,,0,20180127010000,-1,-1,-1,-1,360,-1,8,-1,-1,320,50,,8000,0,1,3,FEW 10   SCT 20   BKN 25,1,0,-1,4,1022,RJBT 270100Z 36008KT 320V050 8000 -SHSN FEW010 SCT020 BKN025     00/M04 Q1022 RMK 1CU010 3CU020 5CU025 A3019=,- SN SH
20180127_020000.002,0,RJBT,,,,0,20180127020000,-1,-1,-1,-1,350,-1,4,-1,-1,300,40,,8000,0,1,3,FEW 0   SCT 20   BKN 30,1,0,-1,3,1022,RJBT 270200Z 35004KT 300V040 8000 -SHSN FEW000 SCT020 BKN030     00/M03 Q1022 RMK 1ST000 3CU020 5CU030 A3019=,- SN SH
20180127_030000.002,0,RJBT,,,,0,20180127030000,-1,-1,-1,-1,330,-1,7,-1,-1,290,10,,1500,0,1,3,FEW 0   SCT 20   BKN 30,-1,1,-1,2,1022,RJBT 270300Z 33007KT 290V010 1500 -SHSNGS FEW000 SCT020 BKN030     M01/M02 Q1022 RMK 1ST000 3CU020 5CU030 A3019 SNOW           PELLETS=,- SN GS SH
20180127_040000.002,0,RJBT,,,,0,20180127040000,-1,-1,-1,-1,360,-1,6,-1,-1,320,40,,6000,0,1,3,FEW 0   SCT 20   BKN 30,1,0,-1,3,1021,RJBT 270400Z 36006KT 320V040 6000 -SHSNGS FEW000 SCT020 BKN030     00/M03 Q1021 RMK 1ST000 3CU020 5CU030 A3018 SNOW PELLETS=,- SN GS SH
20180127_050000.002,0,RJBT,,,,0,20180127050000,-1,-1,-1,-1,999,-1,2,-1,-1,-1,-1,,9999,0,1,3,FEW 0   SCT 20   BKN 30,1,1,-1,3,1021,RJBT 270500Z VRB02KT 9999 -SHSN FEW000 SCT020 BKN030 01/M03     Q1021 RMK 1ST000 3CU020 5CU030 A3017=,- SN SH
20180127_060000.002,0,RJBT,,,,0,20180127060000,-1,-1,-1,-1,340,-1,5,-1,-1,300,60,,9999,0,1,3,FEW 5   SCT 20   BKN 35,1,1,-1,5,1022,RJBT 270600Z 34005KT 300V060 9999 -SHSN FEW005 SCT020 BKN035     01/M05 Q1022 RMK 1ST005 3CU020 5CU035 A3018=,- SN SH
20180127_070000.002,0,RJBT,,,,0,20180127070000,-1,-1,-1,-1,320,-1,3,-1,-1,270,360,,9000,0,1,3,FEW 5   SCT 20   BKN 25,1,1,-1,3,1022,RJBT 270700Z 32003KT 270V360 9000 -SHSN FEW005 SCT020 BKN025     01/M03 Q1022 RMK 1ST005 3CU020 5CU025 A3018=,- SN SH
20180127_080000.002,0,RJBT,,,,0,20180127080000,-1,-1,-1,-1,999,-1,2,-1,-1,-1,-1,,9000,0,1,3,FEW 0   SCT 20   BKN 30,1,0,-1,2,1022,RJBT 270800Z VRB02KT 9000 -SHSN FEW000 SCT020 BKN030 00/M02     Q1022 RMK 1ST000 3CU020 5CU030 A3018=,- SN SH
20180127_090000.003,0,RJBT,,,,0,20180127090000,-1,-1,-1,-1,999,-1,1,-1,-1,-1,-1,,8000,0,1,3,FEW 0   SCT 20   BKN 25,-1,0,-1,2,1022,RJBT 270900Z VRB01KT 8000 -SHSN FEW000 SCT020 BKN025 M00/M02     Q1022 RMK 1ST000 3CU020 5CU025 A3020=,- SN SH
20180127_233000.001,0,RJBT,,,,0,20180127230000,-1,-1,-1,-1,200,-1,7,-1,-1,-1,-1,,9999,0,0,3,FEW 5   SCT 80   BKN 100,-1,2,-1,3,1018,RJBT 272330Z 20007KT 9999 FEW005 SCT080 BKN100 M02/M03 Q1018     RMK 1ST005 3AC080 5AC100 A3007=,
20180128_000000.003,0,RJBT,,,,0,20180128000000,-1,-1,-1,-1,210,-1,8,-1,-1,-1,-1,,9999,0,0,3,FEW 5   SCT 70   BKN 100,-1,1,-1,3,1017,RJBT 280000Z 21008KT 9999 FEW005 SCT070 BKN100 M01/M03 Q1017     RMK 1ST005 3AC070 5AC100 A3006=,
20180128_010000.002,0,RJBT,,,,0,20180128010000,-1,-1,-1,-1,200,-1,7,-1,-1,-1,-1,,9999,0,0,3,FEW 5   SCT 80   BKN 100,-1,1,-1,3,1017,RJBT 280100Z 20007KT 9999 FEW005 SCT080 BKN100 M01/M03 Q1017     RMK 1ST005 3AC080 5AC100 A3005=,
20180128_020000.002,0,RJBT,,,,0,20180128020000,-1,-1,-1,-1,190,-1,6,-1,-1,-1,-1,,9999,0,0,3,FEW 50   SCT 80   BKN 100,1,1,-1,3,1015,RJBT 280200Z 19006KT 9999 FEW050 SCT080 BKN100 01/M03 Q1015     RMK 1SC050 3AC080 5AC100 A2999 P/FR=,
20180128_030000.002,0,RJBT,,,,0,20180128030000,-1,-1,-1,-1,200,-1,8,-1,-1,-1,-1,,9999,0,0,3,FEW 25   SCT 40   BKN 70,1,2,-1,2,1014,RJBT 280300Z 20008KT 9999 FEW025 SCT040 BKN070 02/M02 Q1014     RMK 1CU025 3SC040 5AC070 A2995=,
20180128_040000.002,0,RJBT,,,,0,20180128040000,-1,-1,-1,-1,200,-1,6,-1,-1,-1,-1,,9999,0,1,3,FEW 20   SCT 40   BKN 50,1,2,-1,1,1013,RJBT 280400Z 20006KT 9999 -SNRA FEW020 SCT040 BKN050 02/M01     Q1013 RMK 1CU020 3SC040 5SC050 A2992=,- SN RA
20180128_050000.002,0,RJBT,,,,0,20180128050000,-1,-1,-1,-1,190,-1,9,-1,-1,160,220,,9999,0,0,3,FEW 20   SCT 35   BKN 150,1,3,-1,1,1012,RJBT 280500Z 19009KT 160V220 9999 FEW020 SCT035 BKN150 03/M01     Q1012 RMK 1CU020 3CU035 5AC150 A2990=,
20180128_060000.002,0,RJBT,,,,0,20180128060000,-1,-1,-1,-1,210,-1,7,-1,-1,-1,-1,,9999,0,0,3,FEW 20   SCT 30   BKN 50,1,3,-1,1,1012,RJBT 280600Z 21007KT 9999 FEW020 SCT030 BKN050 03/M01 Q1012     RMK 1CU020 3CU030 5SC050 A2990=,
20180128_070000.003,0,RJBT,,,,0,20180128070000,-1,-1,-1,-1,210,-1,8,-1,-1,-1,-1,,9999,0,0,3,FEW 20   SCT 30   BKN 50,1,3,-1,1,1012,RJBT 280700Z 21008KT 9999 FEW020 SCT030 BKN050 03/M01 Q1012     RMK 1CU020 3CU030 5SC050 A2990=,
20180128_080000.002,0,RJBT,,,,0,20180128080000,-1,-1,-1,-1,180,-1,4,-1,-1,-1,-1,,9999,0,0,3,FEW 20   SCT 30   BKN 70,1,2,-1,0,1012,RJBT 280800Z 18004KT 9999 FEW020 SCT030 BKN070 02/M00 Q1012     RMK 1CU020 3CU030 5AC070 A2990=,
20180128_090000.002,0,RJBT,,,,0,20180128090000,-1,-1,-1,-1,210,-1,5,-1,-1,-1,-1,,9999,0,0,3,FEW 20   SCT 50   BKN 100,1,2,-1,0,1012,RJBT 280900Z 21005KT 9999 FEW020 SCT050 BKN100 02/M00 Q1012     RMK 1CU020 3SC050 5AC100 A2990=,
20180128_233000.001,0,RJBT,,,,0,20180128230000,-1,-1,-1,-1,280,-1,6,-1,-1,220,340,,3000,0,1,3,FEW 5   SCT 10   BKN 20,1,1,-1,1,1012,RJBT 282330Z 28006KT 220V340 3000 -SHSN FEW005 SCT010 BKN020     01/M01 Q1012 RMK 1ST005 3CU010 6CU020 A2990=,- SN SH
20180129_000000.003,0,RJBT,,,,0,20180129000000,-1,-1,-1,-1,270,-1,8,-1,-1,220,300,,9999,0,1,3,FEW 5   SCT 20   BKN 30,1,1,-1,3,1012,RJBT 290000Z 27008KT 220V300 9999 -SHSN FEW005 SCT020 BKN030     01/M03 Q1012 RMK 1ST005 4CU020 5CU030 A2990=,- SN SH
20180129_010000.002,0,RJBT,,,,0,20180129010000,-1,-1,-1,-1,260,-1,6,-1,-1,240,330,,8000,0,1,3,FEW 5   SCT 20   BKN 30,1,2,-1,3,1012,RJBT 290100Z 26006KT 240V330 8000 -SHSN FEW005 SCT020 BKN030     02/M03 Q1012 RMK 1ST005 4CU020 5CU030 A2990=,- SN SH
20180129_020000.002,0,RJBT,,,,0,20180129020000,-1,-1,-1,-1,230,-1,7,-1,-1,190,280,,9999,0,1,3,FEW 5   SCT 20   BKN 30,1,2,-1,3,1012,RJBT 290200Z 23007KT 190V280 9999 -SHSN FEW005 SCT020 BKN030     02/M03 Q1012 RMK 1ST005 3CU020 5CU030 A2991=,- SN SH
20180129_030000.002,0,RJBT,,,,0,20180129030000,-1,-1,-1,-1,340,-1,3,-1,-1,270,40,,9999,0,1,3,FEW 10   SCT 25   BKN 35,1,2,-1,4,1011,RJBT 290300Z 34003KT 270V040 9999 -SHSN FEW010 SCT025 BKN035     02/M04 Q1011 RMK 1CU010 3CU025 6CU035 A2988=,- SN SH
20180129_040000.002,0,RJBT,,,,0,20180129040000,-1,-1,-1,-1,999,-1,2,-1,-1,-1,-1,,9999,0,1,2,FEW 8   SCT 25,1,3,-1,5,1011,RJBT 290400Z VRB02KT 9999 VCSH FEW008 SCT025 03/M05 Q1011 RMK     1ST008 4CU025 A2986=,VC SH
20180129_050000.002,0,RJBT,,,,0,20180129050000,-1,-1,-1,-1,300,-1,9,-1,-1,270,350,,9999,0,1,2,FEW 10   BKN 30,1,3,-1,6,1010,RJBT 290500Z 30009KT 270V350 9999 VCSH FEW010 BKN030 03/M06     Q1010 RMK 1CU010 5CU030 A2985=,VC SH
20180129_060000.002,0,RJBT,,,,0,20180129060000,-1,-1,-1,-1,280,-1,8,-1,18,210,330,,9999,0,1,2,FEW 10   BKN 30,1,3,-1,6,1011,RJBT 290600Z 28008G18KT 210V330 9999 VCSH FEW010 BKN030 03/M06     Q1011 RMK 1CU010 5CU030 A2986=,VC SH
20180129_070000.002,0,RJBT,,,,0,20180129070000,-1,-1,-1,-1,250,-1,9,-1,26,210,280,,9999,0,0,3,FEW 10   SCT 20   BKN 30,1,2,-1,7,1011,RJBT 290700Z 25009G26KT 210V280 9999 FEW010 SCT020 BKN030     02/M07 Q1011 RMK 1CU010 3CU020 5CU030 A2988=,
20180129_080000.002,0,RJBT,,,,0,20180129080000,-1,-1,-1,-1,300,-1,6,-1,-1,210,360,,9999,0,1,3,FEW 0   SCT 15   BKN 30,1,1,-1,6,1012,RJBT 290800Z 30006KT 210V360 9999 VCSH FEW000 SCT015 BKN030     01/M06 Q1012 RMK 1ST000 3CU015 6CU030 A2990 3000N=,VC SH
20180129_090000.002,0,RJBT,,,,0,20180129090000,-1,-1,-1,-1,210,-1,4,-1,-1,170,300,,3000,0,1,3,FEW 0   SCT 15   BKN 30,-1,2,-1,2,1013,RJBT 290900Z 21004KT 170V300 3000 -SHSN FEW000 SCT015 BKN030     M02/M02 Q1013 RMK 1ST000 4CU015 6CU030 A2994=,- SN SH
20180129_233000.001,0,RJBT,,,,0,20180129230000,-1,-1,-1,-1,210,-1,5,-1,-1,-1,-1,,2500,0,1,3,FEW 0   SCT 5   BKN 10,-1,2,-1,2,1018,RJBT 292330Z 21005KT 2500 -SHSN FEW000 SCT005 BKN010 M02/M02     Q1018 RMK 1ST000 3ST005 5CU010 A3008=,- SN SH
20180130_000000.002,0,RJBT,,,,0,20180130000000,-1,-1,-1,-1,210,-1,3,-1,-1,160,270,,5000,0,2,3,FEW 0   SCT 10   BKN 20,-1,2,-1,2,1019,RJBT 300000Z 21003KT 160V270 5000 -SHSN BCFG FEW000 SCT010     BKN020 M02/M02 Q1019 RMK 1ST000 3ST010 5CU020 A3009 2500N           FG ALL QUAD=,- SN SH; BC FG
20180130_010000.002,0,RJBT,,,,0,20180130010000,-1,-1,-1,-1,200,-1,3,-1,-1,-1,-1,,5000,0,2,3,FEW 0   SCT 10   BKN 20,-1,1,-1,2,1018,RJBT 300100Z 20003KT 5000 -SHSN BCFG FEW000 SCT010 BKN020     M01/M02 Q1018 RMK 1ST000 3ST010 5CU020 A3009 FG ALL QUAD=,- SN SH; BC FG
20180130_020000.002,0,RJBT,,,,0,20180130020000,-1,-1,-1,-1,999,-1,1,-1,-1,-1,-1,,9999,0,2,3,FEW 0   SCT 20   BKN 30,-1,0,-1,3,1018,RJBT 300200Z VRB01KT 9999 -SHSN PRFG FEW000 SCT020 BKN030     M00/M03 Q1018 RMK 1ST000 3CU020 5CU030 A3008 3000NE FG           N-E=,- SN SH; PR FG
20180130_030000.002,0,RJBT,,,,0,20180130030000,-1,-1,-1,-1,250,-1,4,-1,-1,190,320,,9999,0,1,2,FEW 0   SCT 30,1,1,-1,3,1018,RJBT 300300Z 25004KT 190V320 9999 -SHSN FEW000 SCT030 01/M03     Q1018 RMK 1ST000 3CU030 A3007=,- SN SH
20180130_040000.002,0,RJBT,,,,0,20180130040000,-1,-1,-1,-1,310,-1,6,-1,-1,270,340,,9999,0,1,2,FEW 0   BKN 30,1,2,-1,5,1017,RJBT 300400Z 31006KT 270V340 9999 -SHSN FEW000 BKN030 02/M05     Q1017 RMK 1ST000 5CU030 A3005=,- SN SH
20180130_050000.002,0,RJBT,,,,0,20180130050000,-1,-1,-1,-1,300,-1,4,-1,-1,260,360,,9999,0,1,2,FEW 0   BKN 30,1,2,-1,4,1017,RJBT 300500Z 30004KT 260V360 9999 -SHSN FEW000 BKN030 02/M04     Q1017 RMK 1ST000 5CU030 A3006=,- SN SH
20180130_060000.003,0,RJBT,,,,0,20180130060000,-1,-1,-1,-1,999,-1,5,-1,-1,-1,-1,,9999,0,1,3,FEW 0   SCT 30   BKN 60,1,2,-1,4,1018,RJBT 300600Z VRB05KT 9999 -SHSN FEW000 SCT030 BKN060 02/M04     Q1018 RMK 1ST000 3CU030 5SC060 A3008=,- SN SH
20180130_070000.002,0,RJBT,,,,0,20180130070000,-1,-1,-1,-1,260,-1,6,-1,-1,210,310,,9999,0,1,3,FEW 0   SCT 35   BKN 50,1,2,-1,6,1019,RJBT 300700Z 26006KT 210V310 9999 -SHSN FEW000 SCT035 BKN050     02/M06 Q1019 RMK 1ST000 3CU035 5SC050 A3010=,- SN SH
20180130_080000.002,0,RJBT,,,,0,20180130080000,-1,-1,-1,-1,290,-1,9,-1,-1,250,330,,9999,0,1,2,FEW 5   SCT 45,1,1,-1,6,1019,RJBT 300800Z 29009KT 250V330 9999 VCSH FEW005 SCT045 01/M06     Q1019 RMK 1ST005 3CU045 A3012=,VC SH
20180130_090000.002,0,RJBT,,,,0,20180130090000,-1,-1,-1,-1,999,-1,2,-1,-1,-1,-1,,9999,0,1,2,FEW 5   SCT 50,1,0,-1,6,1020,RJBT 300900Z VRB02KT 9999 VCSH FEW005 SCT050 00/M06 Q1020 RMK     1ST005 3SC050 A3013=,VC SH
20180130_233000.001,0,RJBT,,,,0,20180130230000,-1,-1,-1,-1,190,-1,6,-1,-1,-1,-1,,9999,0,0,1,FEW 40,-1,1,-1,6,1024,RJBT 302330Z 19006KT 9999 FEW040 M01/M06 Q1024 RMK 1CU040     A3026=,
20180131_000000.002,0,RJBT,,,,0,20180131000000,-1,-1,-1,-1,190,-1,5,-1,-1,-1,-1,,9999,0,0,1,FEW 30,-1,0,-1,6,1025,RJBT 310000Z 19005KT 9999 FEW030 M00/M06 Q1025 RMK 1CU030     A3027=,
20180131_010000.002,0,RJBT,,,,0,20180131010000,-1,-1,-1,-1,170,-1,6,-1,-1,150,210,,9999,0,0,1,FEW 30,1,2,-1,6,1024,RJBT 310100Z 17006KT 150V210 9999 FEW030 02/M06 Q1024 RMK     1CU030 A3026=,
20180131_020000.002,0,RJBT,,,,0,20180131020000,-1,-1,-1,-1,170,-1,5,-1,-1,120,200,,9999,0,0,1,FEW 30,1,4,-1,5,1024,RJBT 310200Z 17005KT 120V200 9999 FEW030 04/M05 Q1024 RMK     1CU030 A3025=,
20180131_030000.002,0,RJBT,,,,0,20180131030000,-1,-1,-1,-1,240,-1,8,-1,-1,190,280,,9999,0,0,3,FEW 30   SCT 40   BKN -9999,1,4,-1,5,1023,RJBT 310300Z 24008KT 190V280 9999 FEW030 SCT040 BKN/// 04/M05     Q1023 RMK 1CU030 3CU040 A3023=,
20180131_040000.002,0,RJBT,,,,0,20180131040000,-1,-1,-1,-1,240,-1,6,-1,-1,150,320,,9999,0,0,2,FEW 30   BKN -9999,1,5,-1,5,1023,RJBT 310400Z 24006KT 150V320 9999 FEW030 BKN/// 05/M05 Q1023     RMK 1CU030 A3022=,
20180131_050000.002,0,RJBT,,,,0,20180131050000,-1,-1,-1,-1,240,-1,3,-1,-1,160,340,,9999,0,0,2,FEW 30   BKN -9999,1,5,-1,5,1022,RJBT 310500Z 24003KT 160V340 9999 FEW030 BKN/// 05/M05 Q1022     RMK 1CU030 A3020=,
20180131_060000.002,0,RJBT,,,,0,20180131060000,-1,-1,-1,-1,999,-1,3,-1,-1,-1,-1,,9999,0,0,3,FEW 30   SCT 50   BKN -9999,1,5,-1,4,1022,RJBT 310600Z VRB03KT 9999 FEW030 SCT050 BKN/// 05/M04 Q1022     RMK 1CU030 3SC050 A3019=,
20180131_070000.003,0,RJBT,,,,0,20180131070000,-1,-1,-1,-1,999,-1,1,-1,-1,-1,-1,,9999,0,0,3,FEW 30   SCT 50   BKN -9999,1,5,-1,5,1022,RJBT 310700Z VRB01KT 9999 FEW030 SCT050 BKN/// 05/M05 Q1022     RMK 1CU030 3SC050 A3020=,
20180131_080000.003,0,RJBT,,,,0,20180131080000,-1,-1,-1,-1,280,-1,6,-1,-1,240,320,,9999,0,1,3,FEW 5   SCT 50   BKN -9999,1,4,-1,3,1023,RJBT 310800Z 28006KT 240V320 9999 VCSH FEW005 SCT050 BKN///     04/M03 Q1023 RMK 1ST005 4SC050 A3022=,VC SH
20180131_090000.002,0,RJBT,,,,0,20180131090000,-1,-1,-1,-1,250,-1,7,-1,-1,220,290,,9999,0,1,3,FEW 20   SCT 60   BKN -9999,1,4,-1,4,1024,RJBT 310900Z 25007KT 220V290 9999 VCSH FEW020 SCT060 BKN///     04/M04 Q1024 RMK 1CU020 3SC060 A3024=,VC SH
20180131_233000.001,0,RJBT,,,,0,20180131230000,-1,-1,-1,-1,210,-1,4,-1,-1,-1,-1,,5000,0,2,3,FEW 3   SCT 15   BKN 45,-1,0,-1,0,1024,RJBT 312330Z 21004KT 5000 -SN BR FEW003 SCT015 BKN045 M00/M00     Q1024 RMK 1ST003 3CU015 5SC045 A3025=,- SN; BR
20180201_000000.003,0,RJBT,,,,0,20180201000000,-1,-1,-1,-1,210,-1,5,-1,-1,-1,-1,,7000,0,2,3,FEW 0   SCT 15   BKN 50,-1,0,-1,0,1024,RJBT 010000Z 21005KT 7000 -SNRA PRFG FEW000 SCT015 BKN050     M00/M00 Q1024 RMK 1ST000 3CU015 5SC050 A3025 FG BANK           N-NE=,- SN RA; PR FG
20180201_010000.002,0,RJBT,,,,0,20180201010000,-1,-1,-1,-1,200,-1,4,-1,-1,-1,-1,,8000,0,2,3,FEW 0   SCT 20   BKN 50,1,1,-1,0,1024,RJBT 010100Z 20004KT 8000 -SN BCFG FEW000 SCT020 BKN050 01/M00     Q1024 RMK 1ST000 3CU020 5SC050 A3025 FG BANK NW-E=,- SN; BC FG
20180201_020000.002,0,RJBT,,,,0,20180201020000,-1,-1,-1,-1,190,-1,5,-1,-1,-1,-1,,9999,0,0,3,FEW 3   SCT 20   BKN 50,1,2,-1,0,1023,RJBT 010200Z 19005KT 9999 FEW003 SCT020 BKN050 02/M00 Q1023     RMK 1ST003 3CU020 5SC050 A3023=,
20180201_030000.003,0,RJBT,,,,0,20180201030000,-1,-1,-1,-1,200,-1,5,-1,-1,-1,-1,,9999,0,0,3,FEW 5   SCT 20   BKN 70,1,2,-1,0,1023,RJBT 010300Z 20005KT 9999 FEW005 SCT020 BKN070 02/M00 Q1023     RMK 1ST005 3CU020 5AC070 A3021=,
20180201_040000.003,0,RJBT,,,,0,20180201040000,-1,-1,-1,-1,999,-1,2,-1,-1,-1,-1,,9999,0,0,3,FEW 15   SCT 30   BKN 100,1,4,-1,1,1021,RJBT 010400Z VRB02KT 9999 FEW015 SCT030 BKN100 04/M01 Q1021     RMK 1CU015 3CU030 5AC100 A3018=,
20180201_050000.002,0,RJBT,,,,0,20180201050000,-1,-1,-1,-1,999,-1,2,-1,-1,-1,-1,,9999,0,0,3,FEW 15   SCT 30   BKN 100,1,4,-1,0,1021,RJBT 010500Z VRB02KT 9999 FEW015 SCT030 BKN100 04/M00 Q1021     RMK 1CU015 3CU030 5AC100 A3016=,
20180201_060000.002,0,RJBT,,,,0,20180201060000,-1,-1,-1,-1,140,-1,3,-1,-1,90,180,,9999,0,0,3,FEW 20   SCT 30   BKN 100,1,4,-1,0,1021,RJBT 010600Z 14003KT 090V180 9999 FEW020 SCT030 BKN100 04/M00     Q1021 RMK 1CU020 3CU030 5AC100 A3016=,
20180201_070000.002,0,RJBT,,,,0,20180201070000,-1,-1,-1,-1,999,-1,2,-1,-1,-1,-1,,9999,0,0,2,FEW 25   SCT 35,1,4,-1,0,1021,RJBT 010700Z VRB02KT 9999 FEW025 SCT035 04/M00 Q1021 RMK     1CU025 4CU035 A3016=,
20180201_080000.002,0,RJBT,,,,0,20180201080000,-1,-1,-1,-1,340,-1,2,-1,-1,-1,-1,,9999,0,0,3,FEW 25   SCT 35   BKN 50,1,4,-1,0,1022,RJBT 010800Z 34002KT 9999 FEW025 SCT035 BKN050 04/M00 Q1022     RMK 1CU025 3CU035 5SC050 A3018=,
20180201_090000.002,0,RJBT,,,,0,20180201090000,-1,-1,-1,-1,20,-1,2,-1,-1,-1,-1,,9999,0,0,3,FEW 20   SCT 35   BKN 50,1,3,1,0,1022,RJBT 010900Z 02002KT 9999 FEW020 SCT035 BKN050 03/00 Q1022 RMK     1CU020 3CU035 5SC050 A3020=,
20180201_233000.001,0,RJBT,,,,0,20180201230000,-1,-1,-1,-1,210,-1,3,-1,-1,-1,-1,,400,0,1,3,FEW 0   SCT 2   BKN 40,1,0,1,0,1023,RJBT 012330Z 21003KT 0400 FG FEW000 SCT002 BKN040 00/00 Q1023     RMK 1ST000 3ST002 5CU040 A3022=,FG
20180202_000000.002,0,RJBT,,,,0,20180202000000,-1,-1,-1,-1,999,-1,1,-1,-1,-1,-1,,800,0,1,3,FEW 0   SCT 2   BKN 40,1,1,1,1,1023,RJBT 020000Z VRB01KT 0800 FG FEW000 SCT002 BKN040 01/01 Q1023     RMK 1ST000 3ST002 5CU040 A3022=,FG
20180202_010000.002,0,RJBT,,,,0,20180202010000,-1,-1,-1,-1,999,-1,1,-1,-1,-1,-1,,800,0,1,3,FEW 0   SCT 3   BKN 40,1,2,1,2,1023,RJBT 020100Z VRB01KT 0800 FG FEW000 SCT003 BKN040 02/02 Q1023     RMK 1ST000 3ST003 5CU040 A3022=,FG
20180202_020000.002,0,RJBT,,,,0,20180202020000,-1,-1,-1,-1,999,-1,4,-1,-1,-1,-1,,9999,0,0,3,FEW 0   SCT 40   BKN -9999,1,5,1,5,1023,RJBT 020200Z VRB04KT 9999 FEW000 SCT040 BKN/// 05/05 Q1023 RMK     1ST000 3CU040 A3021=,
20180202_030000.002,0,RJBT,,,,0,20180202030000,-1,-1,-1,-1,20,-1,3,-1,-1,330,60,,9999,0,0,2,FEW 25   BKN -9999,1,6,-1,1,1022,RJBT 020300Z 02003KT 330V060 9999 FEW025 BKN/// 06/M01 Q1022     RMK 1CU025 A3020=,
20180202_040000.002,0,RJBT,,,,0,20180202040000,-1,-1,-1,-1,10,-1,5,-1,-1,330,50,,9999,0,0,2,FEW 25   BKN -9999,1,6,-1,2,1021,RJBT 020400Z 01005KT 330V050 9999 FEW025 BKN/// 06/M02 Q1021     RMK 1CU025 A3018=,
20180202_050000.001,0,RJBT,,,,0,20180202050000,-1,-1,-1,-1,10,-1,6,-1,-1,-1,-1,,9999,0,0,2,FEW 30   BKN -9999,1,6,-1,2,1021,RJBT 020500Z 01006KT 9999 FEW030 BKN/// 06/M02 Q1021 RMK     1CU030 A3016=,
20180202_060000.002,0,RJBT,,,,0,20180202060000,-1,-1,-1,-1,10,-1,3,-1,-1,340,50,,9999,0,0,2,FEW 30   BKN -9999,1,6,-1,2,1021,RJBT 020600Z 01003KT 340V050 9999 FEW030 BKN/// 06/M02 Q1021     RMK 1CU030 A3016=,
20180202_070000.002,0,RJBT,,,,0,20180202070000,-1,-1,-1,-1,360,-1,3,-1,-1,330,40,,9999,0,0,3,FEW 30   SCT 180   BKN -9999,1,5,-1,1,1021,RJBT 020700Z 36003KT 330V040 9999 FEW030 SCT180 BKN/// 05/M01     Q1021 RMK 1CU030 3AC180 A3016=,
20180202_080000.002,0,RJBT,,,,0,20180202080000,-1,-1,-1,-1,340,-1,2,-1,-1,-1,-1,,9999,0,0,2,FEW 30   BKN -9999,1,5,-1,1,1020,RJBT 020800Z 34002KT 9999 FEW030 BKN/// 05/M01 Q1020 RMK     1CU030 A3015=,
20180202_090000.002,0,RJBT,,,,0,20180202090000,-1,-1,-1,-1,0,-1,0,-1,-1,-1,-1,,9999,0,0,2,FEW 30   BKN -9999,1,4,-1,1,1020,RJBT 020900Z 00000KT 9999 FEW030 BKN/// 04/M01 Q1020 RMK     1CU030 A3014=,
20180202_233000.001,0,RJBT,,,,0,20180202230000,-1,-1,-1,-1,999,-1,2,-1,-1,-1,-1,,9999,0,1,3,FEW 0   SCT 10   BKN 20,1,1,-1,0,1019,RJBT 022330Z VRB02KT 9999 -SHSNRA FEW000 SCT010 BKN020 01/M00     Q1019 RMK 1ST000 3CU010 5CU020 A3009=,- SN RA SH
20180203_000000.002,0,RJBT,,,,0,20180203000000,-1,-1,-1,-1,999,-1,1,-1,-1,-1,-1,,7000,0,1,3,FEW 0   SCT 7   BKN 15,1,1,1,0,1019,RJBT 030000Z VRB01KT 7000 -SHSN FEW000 SCT007 BKN015 01/00     Q1019 RMK 1ST000 3ST007 5CU015 A3009=,- SN SH
20180203_010000.003,0,RJBT,,,,0,20180203010000,-1,-1,-1,-1,999,-1,1,-1,-1,-1,-1,,9999,0,1,3,FEW 0   SCT 10   BKN 15,1,2,1,1,1019,RJBT 030100Z VRB01KT 9999 -SHRASN FEW000 SCT010 BKN015 02/01     Q1019 RMK 1ST000 3CU010 5CU015 A3010=,- RA SN SH
20180203_020000.002,0,RJBT,,,,0,20180203020000,-1,-1,-1,-1,999,-1,3,-1,-1,-1,-1,,9999,0,1,2,FEW 0   SCT 15,1,3,-1,1,1018,RJBT 030200Z VRB03KT 9999 -SHRA FEW000 SCT015 03/M01 Q1018 RMK     1ST000 4CU015 A3008=,- RA SH
20180203_030000.002,0,RJBT,,,,0,20180203030000,-1,-1,-1,-1,999,-1,3,-1,-1,-1,-1,,9999,0,1,2,FEW 0   BKN 20,1,3,-1,1,1017,RJBT 030300Z VRB03KT 9999 -SHRA FEW000 BKN020 03/M01 Q1017 RMK     1ST000 5CU020 A3005=,- RA SH
20180203_040000.002,0,RJBT,,,,0,20180203040000,-1,-1,-1,-1,360,-1,9,-1,-1,-1,-1,,4000,0,1,3,FEW 0   SCT 5   BKN 15,1,2,-1,0,1017,RJBT 030400Z 36009KT 4000 -SHSNRA FEW000 SCT005 BKN015 02/M00     Q1017 RMK 1ST000 3ST005 5CU015 A3005=,- SN RA SH
20180203_050000.002,0,RJBT,,,,0,20180203050000,-1,-1,-1,-1,300,-1,3,-1,-1,240,50,,6000,0,1,3,FEW 0   SCT 10   BKN 15,1,2,-1,1,1017,RJBT 030500Z 30003KT 240V050 6000 -SHSNRA FEW000 SCT010 BKN015     02/M01 Q1017 RMK 1ST000 3CU010 5CU015 A3004=,- SN RA SH
20180203_060000.002,0,RJBT,,,,0,20180203060000,-1,-1,-1,-1,330,-1,7,-1,-1,290,20,,4500,0,1,3,FEW 0   SCT 10   BKN 20,1,2,-1,0,1017,RJBT 030600Z 33007KT 290V020 4500 -SHSN FEW000 SCT010 BKN020     02/M00 Q1017 RMK 1ST000 3CU010 5CU020 A3005=,- SN SH
20180203_070000.003,0,RJBT,,,,0,20180203070000,-1,-1,-1,-1,999,-1,2,-1,-1,-1,-1,,9999,0,1,2,FEW 5   SCT 60,1,2,1,0,1017,RJBT 030700Z VRB02KT 9999 VCSH FEW005 SCT060 02/00 Q1017 RMK     1ST005 3SC060 A3004=,VC SH
20180203_080000.002,0,RJBT,,,,0,20180203080000,-1,-1,-1,-1,180,-1,3,-1,-1,150,230,,9999,0,0,1,FEW 15,1,2,-1,1,1016,RJBT 030800Z 18003KT 150V230 9999 FEW015 02/M01 Q1016 RMK     1CU015 A3003=,
20180203_090000.002,0,RJBT,,,,0,20180203090000,-1,-1,-1,-1,320,-1,5,-1,-1,260,350,,4500,0,1,3,FEW 0   SCT 10   BKN 20,1,1,-1,0,1017,RJBT 030900Z 32005KT 260V350 4500 -SHSN FEW000 SCT010 BKN020     01/M00 Q1017 RMK 1ST000 3CU010 5CU020 A3004=,- SN SH
20180203_233000.001,0,RJBT,,,,0,20180203230000,-1,-1,-1,-1,210,-1,10,-1,-1,-1,-1,,9999,0,0,2,FEW 35   SCT 45,-1,0,-1,10,1015,RJBT 032330Z 21010KT 9999 FEW035 SCT045 M00/M10 Q1015 RMK     1CU035 3CU045 A2998=,
20180204_000000.002,0,RJBT,,,,0,20180204000000,-1,-1,-1,-1,230,-1,8,-1,-1,200,260,,9999,0,0,2,FEW 35   SCT 45,1,0,-1,11,1015,RJBT 040000Z 23008KT 200V260 9999 FEW035 SCT045 00/M11 Q1015     RMK 1CU035 3CU045 A2998=,
20180204_010000.002,0,RJBT,,,,0,20180204010000,-1,-1,-1,-1,250,-1,14,-1,-1,210,290,,9999,0,0,2,FEW 35   SCT 45,1,0,-1,11,1014,RJBT 040100Z 25014KT 210V290 9999 FEW035 SCT045 00/M11 Q1014     RMK 1CU035 3CU045 A2997=,
20180204_020000.002,0,RJBT,,,,0,20180204020000,-1,-1,-1,-1,250,-1,11,-1,-1,200,300,,9999,0,0,1,FEW 35,1,2,-1,11,1014,RJBT 040200Z 25011KT 200V300 9999 FEW035 02/M11 Q1014 RMK     1CU035 A2995=,
20180204_030000.002,0,RJBT,,,,0,20180204030000,-1,-1,-1,-1,250,-1,12,-1,-1,210,330,,9999,0,0,1,FEW 35,1,2,-1,11,1013,RJBT 040300Z 25012KT 210V330 9999 FEW035 02/M11 Q1013 RMK     1CU035 A2993=,
20180204_040000.002,0,RJBT,,,,0,20180204040000,-1,-1,-1,-1,240,-1,13,-1,-1,200,300,,9999,0,1,2,FEW 30   SCT 45,1,3,-1,10,1013,RJBT 040400Z 24013KT 200V300 9999 VCSH FEW030 SCT045 03/M10     Q1013 RMK 1CU030 3CU045 A2991=,VC SH
20180204_050000.002,0,RJBT,,,,0,20180204050000,-1,-1,-1,-1,230,-1,15,-1,-1,-1,-1,,9999,0,1,2,FEW 30   SCT 45,1,2,-1,8,1013,RJBT 040500Z 23015KT 9999 -SHSN FEW030 SCT045 02/M08 Q1013 RMK     1CU030 4CU045 A2992=,- SN SH
20180204_060000.002,0,RJBT,,,,0,20180204060000,-1,-1,-1,-1,250,-1,12,-1,-1,220,280,,9999,0,1,2,FEW 30   SCT 45,1,1,-1,6,1013,RJBT 040600Z 25012KT 220V280 9999 -SHSN FEW030 SCT045 01/M06     Q1013 RMK 1CU030 3CU045 A2993=,- SN SH
20180204_070000.002,0,RJBT,,,,0,20180204070000,-1,-1,-1,-1,240,-1,10,-1,-1,210,280,,4000,0,1,2,FEW 20   BKN 30,1,1,-1,4,1014,RJBT 040700Z 24010KT 210V280 4000 -SHSN FEW020 BKN030 01/M04     Q1014 RMK 1CU020 5CU030 A2995=,- SN SH
20180204_080000.002,0,RJBT,,,,0,20180204080000,-1,-1,-1,-1,270,-1,6,-1,-1,210,300,,2000,0,1,2,FEW 15   BKN 25,-1,1,-1,3,1014,RJBT 040800Z 27006KT 210V300 2000 -SHSN FEW015 BKN025 M01/M03     Q1014 RMK 1CU015 5CU025 A2997=,- SN SH
20180204_090000.002,0,RJBT,,,,0,20180204090000,-1,-1,-1,-1,999,-1,2,-1,-1,-1,-1,,4000,0,2,3,FEW 0   SCT 15   BKN 25,-1,1,-1,4,1015,RJBT 040900Z VRB02KT 4000 -SHSN PRFG FEW000 SCT015 BKN025     M01/M04 Q1015 RMK 1ST000 3CU015 5CU025 A2998 FG BANK           NE-E=,- SN SH; PR FG
20180204_233000.001,0,RJBT,,,,0,20180204230000,-1,-1,-1,-1,250,-1,7,-1,-1,220,280,,1500,0,1,3,FEW 10   SCT 20   BKN 30,-1,2,-1,4,1015,RJBT 042330Z 25007KT 220V280 1500 -SHSN FEW010 SCT020 BKN030     M02/M04 Q1015 RMK 2CU010 4CU020 7CU030 A2998=,- SN SH
20180205_000000.003,0,RJBT,,,,0,20180205000000,-1,-1,-1,-1,240,-1,6,-1,-1,-1,-1,,1500,0,1,3,FEW 0   SCT 10   BKN 20,-1,2,-1,4,1015,RJBT 050000Z 24006KT 1500 -SHSN FEW000 SCT010 BKN020 M02/M04     Q1015 RMK 1ST000 3CU010 6CU020 A2999=,- SN SH
20180205_010000.002,0,RJBT,,,,0,20180205010000,-1,-1,-1,-1,270,-1,5,-1,-1,200,340,,7000,0,1,2,FEW 10   BKN 20,-1,1,-1,5,1015,RJBT 050100Z 27005KT 200V340 7000 -SHSN FEW010 BKN020 M01/M05     Q1015 RMK 1CU010 5CU020 A2998=,- SN SH
20180205_020000.002,0,RJBT,,,,0,20180205020000,-1,-1,-1,-1,230,-1,17,-1,-1,200,260,,9999,0,0,1,FEW 15,1,0,-1,9,1015,RJBT 050200Z 23017KT 200V260 9999 FEW015 00/M09 Q1015 RMK     1CU015 A2997=,
