20180101_000000.002,1,RJCB,,,,0,20180101000000,-1,-1,-1,-1,340,-1,5,-1,-1,-1,-1,,800,1,1,1,VV 4,-1,3,-1,4,1014,RJCB 010000Z 34005KT 0800 R35/1100U SHSN VV004 M03/M04 Q1014     RMK A2996=,SN SH
20180101_010000.002,1,RJCB,,,,0,20180101010000,-1,-1,-1,-1,330,-1,4,-1,-1,240,350,,1000,1,1,2,FEW 4   BKN 6,-1,3,-1,3,1014,RJCB 010100Z 33004KT 240V350 1000 R35/1500D -SHSN FEW004     BKN006 M03/M03 Q1014 RMK 1ST004 7ST006 A2995=,- SN SH
20180101_020000.002,1,RJCB,,,,0,20180101020000,-1,-1,-1,-1,330,-1,4,-1,-1,280,350,,1000,1,1,2,FEW 4   BKN 6,-1,2,-1,3,1013,RJCB 010200Z 33004KT 280V350 1000 R35/1300N -SHSN FEW004     BKN006 M02/M03 Q1013 RMK 1ST004 7ST006 A2991=,- SN SH
20180101_030000.002,1,RJCB,,,,0,20180101030000,-1,-1,-1,-1,340,-1,6,-1,-1,-1,-1,,1000,1,1,2,FEW 3   BKN 7,-1,2,-1,3,1011,RJCB 010300Z 34006KT 1000 R35/P1800N -SHSN FEW003 BKN007     M02/M03 Q1011 RMK 1ST003 7ST007 A2988=,- SN SH
20180101_040000.002,1,RJCB,,,,0,20180101040000,-1,-1,-1,-1,320,-1,3,-1,-1,270,350,,900,1,1,3,FEW 2   BKN 4   BKN 7,-1,2,-1,3,1011,RJCB 010400Z 32003KT 270V350 0900 R35/1400N SHSN FEW002 BKN004     BKN007 M02/M03 Q1011 RMK 1ST002 5ST004 7ST007 A2986=,SN SH
20180101_050000.002,1,RJCB,,,,0,20180101050000,-1,-1,-1,-1,999,-1,1,-1,-1,-1,-1,,1000,1,1,3,FEW 2   SCT 4   BKN 7,-1,2,-1,3,1010,RJCB 010500Z VRB01KT 1000 R35/1300V1700U -SHSN FEW002 SCT004     BKN007 M02/M03 Q1010 RMK 1ST002 4ST004 7ST007 A2984=,- SN SH
20180101_060000.002,1,RJCB,,,,0,20180101060000,-1,-1,-1,-1,999,-1,1,-1,-1,-1,-1,,800,1,1,1,VV 5,-1,2,-1,3,1010,RJCB 010600Z VRB01KT 0800 R35/1400N SHSN VV005 M02/M03 Q1010     RMK A2984=,SN SH
20180101_070000.002,1,RJCB,,,,0,20180101070000,-1,-1,-1,-1,350,-1,2,-1,-1,-1,-1,,1000,1,1,3,FEW 3   SCT 5   BKN 15,-1,2,-1,2,1010,RJCB 010700Z 35002KT 1000 R35/P1800N -SHSN FEW003 SCT005     BKN015 M02/M02 Q1010 RMK 1ST003 4ST005 7ST015 A2984=,- SN SH
20180101_080000.002,1,RJCB,,,,0,20180101080000,-1,-1,-1,-1,999,-1,2,-1,-1,-1,-1,,1000,1,1,2,FEW 5   BKN 14,-1,2,-1,2,1010,RJCB 010800Z VRB02KT 1000 R35/P1800N -SHSN FEW005 BKN014     M02/M02 Q1010 RMK 1ST005 7ST014 A2984=,- SN SH
20180101_090000.002,1,RJCB,,,,0,20180101090000,-1,-1,-1,-1,999,-1,2,-1,-1,-1,-1,,1000,1,1,2,FEW 4   BKN 14,-1,2,-1,2,1010,RJCB 010900Z VRB02KT 1000 R35/P1800N -SHSN FEW004 BKN014     M02/M02 Q1010 RMK 1ST004 7ST014 A2983=,- SN SH
20180101_100000.002,1,RJCB,,,,0,20180101100000,-1,-1,-1,-1,310,-1,3,-1,-1,260,350,,1600,0,1,3,FEW 10   SCT 12   BKN 15,-1,2,-1,2,1010,RJCB 011000Z 31003KT 260V350 1600 -SHSN FEW010 SCT012 BKN015     M02/M02 Q1010 RMK 1ST010 3ST012 7ST015 A2983=,- SN SH
20180101_110000.002,1,RJCB,,,,0,20180101110000,-1,-1,-1,-1,999,-1,2,-1,-1,-1,-1,,2500,0,1,2,FEW 10   BKN 18,-1,2,-1,3,1010,RJCB 011100Z VRB02KT 2500 -SHSN FEW010 BKN018 M02/M03 Q1010     RMK 1ST010 7ST018 A2983=,- SN SH
20180101_230000.002,1,RJCB,,,,0,20180101230000,-1,-1,-1,-1,999,-1,1,-1,-1,-1,-1,,2000,0,1,3,FEW 6   SCT 12   BKN 20,-1,1,-1,1,1008,RJCB 012300Z VRB01KT 2000 -SHSN FEW006 SCT012 BKN020 M01/M01     Q1008 RMK 1ST006 4ST012 7CU020 A2979=,- SN SH
20180102_000000.003,1,RJCB,,,,0,20180102000000,-1,-1,-1,-1,0,-1,0,-1,-1,-1,-1,,4000,0,1,2,FEW 8   BKN 25,-1,1,-1,1,1008,RJCB 020000Z 00000KT 4000 -SHSN FEW008 BKN025 M01/M01 Q1008     RMK 1ST008 7CU025 A2979=,- SN SH
20180102_010000.003,1,RJCB,,,,0,20180102010000,-1,-1,-1,-1,999,-1,1,-1,-1,-1,-1,,9999,0,1,2,FEW 10   BKN 30,-1,0,-1,2,1008,RJCB 020100Z VRB01KT 9999 -SHSN FEW010 BKN030 M00/M02 Q1008     RMK 1ST010 7CU030 A2979=,- SN SH
20180102_020000.002,1,RJCB,,,,0,20180102020000,-1,-1,-1,-1,140,-1,2,-1,-1,-1,-1,,9999,0,1,2,FEW 10   BKN 30,-1,0,-1,2,1007,RJCB 020200Z 14002KT 9999 -SHSN FEW010 BKN030 M00/M02 Q1007     RMK 1ST010 7CU030 A2976=,- SN SH
20180102_030000.002,1,RJCB,,,,0,20180102030000,-1,-1,-1,-1,999,-1,2,-1,-1,-1,-1,,9999,0,1,2,FEW 10   BKN 30,1,0,-1,2,1006,RJCB 020300Z VRB02KT 9999 -SHSN FEW010 BKN030 00/M02 Q1006 RMK     1ST010 7CU030 A2973=,- SN SH
20180102_040000.002,1,RJCB,,,,0,20180102040000,-1,-1,-1,-1,180,-1,3,-1,-1,140,250,,2500,0,1,3,FEW 4   SCT 9   BKN 20,-1,0,-1,2,1006,RJCB 020400Z 18003KT 140V250 2500 -SHSN FEW004 SCT009 BKN020     M00/M02 Q1006 RMK 1ST004 4ST009 7CU020 A2972=,- SN SH
20180102_050000.002,1,RJCB,,,,0,20180102050000,-1,-1,-1,-1,999,-1,1,-1,-1,-1,-1,,4000,1,1,3,FEW 3   SCT 8   BKN 30,-1,0,-1,1,1006,RJCB 020500Z VRB01KT 4000 R35/1800U -SHSN FEW003 SCT008 BKN030     M00/M01 Q1006 RMK 1ST003 4ST008 7CU030 A2972=,- SN SH
20180102_060000.002,1,RJCB,,,,0,20180102060000,-1,-1,-1,-1,999,-1,2,-1,-1,-1,-1,,5000,0,1,3,FEW 6   SCT 20   BKN 60,-1,0,-1,2,1006,RJCB 020600Z VRB02KT 5000 -SHSN FEW006 SCT020 BKN060 M00/M02     Q1006 RMK 1ST006 3CU020 6CU060 A2971=,- SN SH
20180102_070000.002,1,RJCB,,,,0,20180102070000,-1,-1,-1,-1,999,-1,1,-1,-1,-1,-1,,5000,0,1,2,FEW 10   BKN 20,-1,1,-1,2,1005,RJCB 020700Z VRB01KT 5000 -SHSN FEW010 BKN020 M01/M02 Q1005     RMK 1ST010 6CU020 A2970=,- SN SH
20180102_080000.002,1,RJCB,,,,0,20180102080000,-1,-1,-1,-1,130,-1,1,-1,-1,-1,-1,,5000,0,1,2,FEW 10   BKN 20,-1,1,-1,2,1005,RJCB 020800Z 13001KT 5000 -SHSN FEW010 BKN020 M01/M02 Q1005     RMK 1ST010 6CU020 A2970=,- SN SH
20180102_090000.002,1,RJCB,,,,0,20180102090000,-1,-1,-1,-1,0,-1,0,-1,-1,-1,-1,,3200,0,1,3,FEW 5   SCT 10   BKN 20,-1,1,-1,2,1005,RJCB 020900Z 00000KT 3200 -SHSN FEW005 SCT010 BKN020 M01/M02     Q1005 RMK 1ST005 3ST010 7CU020 A2968=,- SN SH
20180102_100000.002,1,RJCB,,,,0,20180102100000,-1,-1,-1,-1,999,-1,1,-1,-1,-1,-1,,3500,0,1,2,FEW 5   BKN 20,-1,1,-1,2,1004,RJCB 021000Z VRB01KT 3500 -SHSN FEW005 BKN020 M01/M02 Q1004     RMK 1ST005 7CU020 A2967=,- SN SH
20180102_110000.002,1,RJCB,,,,0,20180102110000,-1,-1,-1,-1,320,-1,3,-1,-1,-1,-1,,3100,0,1,2,FEW 6   BKN 25,-1,2,-1,2,1004,RJCB 021100Z 32003KT 3100 -SHSN FEW006 BKN025 M02/M02 Q1004     RMK 2ST006 7CU025 A2966=,- SN SH
20180102_230000.002,1,RJCB,,,,0,20180102230000,-1,-1,-1,-1,330,-1,5,-1,-1,-1,-1,,1400,1,1,3,FEW 5   SCT 7   BKN 18,-1,3,-1,4,1004,RJCB 022300Z 33005KT 1400 R35/P1800N -SHSN FEW005 SCT007     BKN018 M03/M04 Q1004 RMK 1ST005 4ST007 7ST018 A2967=,- SN SH
20180103_000000.002,1,RJCB,,,,0,20180103000000,-1,-1,-1,-1,330,-1,5,-1,-1,-1,-1,,2500,0,1,2,FEW 7   BKN 20,-1,3,-1,4,1005,RJCB 030000Z 33005KT 2500 -SHSN FEW007 BKN020 M03/M04 Q1005     RMK 1ST007 7CU020 A2970=,- SN SH
20180103_010000.002,1,RJCB,,,,0,20180103010000,-1,-1,-1,-1,320,-1,4,-1,-1,290,350,,9999,0,0,2,FEW 5   BKN 50,-1,1,-1,4,1006,RJCB 030100Z 32004KT 290V350 9999 FEW005 BKN050 M01/M04 Q1006     RMK 1ST005 6CU050 A2971=,
20180103_020000.002,1,RJCB,,,,0,20180103020000,-1,-1,-1,-1,330,-1,7,-1,-1,-1,-1,,9999,0,0,2,FEW 20   BKN 40,-1,1,-1,5,1006,RJCB 030200Z 33007KT 9999 FEW020 BKN040 M01/M05 Q1006 RMK     1CU020 7CU040 A2971=,
20180103_030000.003,1,RJCB,,,,0,20180103030000,-1,-1,-1,-1,330,-1,7,-1,-1,-1,-1,,9999,0,0,2,FEW 30   BKN 50,-1,0,-1,4,1006,RJCB 030300Z 33007KT 9999 FEW030 BKN050 M00/M04 Q1006 RMK     1CU030 7CU050 A2971=,
20180103_040000.002,1,RJCB,,,,0,20180103040000,-1,-1,-1,-1,30,-1,10,-1,-1,-1,-1,,9999,0,1,3,FEW 15   BKN 30   BKN 50,-1,1,-1,5,1006,RJCB 030400Z 03010KT 9999 -SHSN FEW015 BKN030 BKN050 M01/M05     Q1006 RMK 1ST015 5CU030 7CU050 A2972=,- SN SH
20180103_050000.002,1,RJCB,,,,0,20180103050000,-1,-1,-1,-1,340,-1,6,-1,-1,-1,-1,,9999,0,0,3,FEW 30   SCT 50   BKN -9999,-1,1,-1,5,1006,RJCB 030500Z 34006KT 9999 FEW030 SCT050 BKN/// M01/M05 Q1006     RMK 1CU030 3CU050 A2972=,
20180103_060000.002,1,RJCB,,,,0,20180103060000,-1,-1,-1,-1,320,-1,4,-1,-1,280,350,,9999,0,0,3,FEW 30   BKN 40   BKN 100,-1,1,-1,4,1006,RJCB 030600Z 32004KT 280V350 9999 FEW030 BKN040 BKN100 M01/M04     Q1006 RMK 1CU030 5CU040 7AC100 A2973=,
20180103_070000.002,1,RJCB,,,,0,20180103070000,-1,-1,-1,-1,90,-1,4,-1,-1,40,120,,9999,0,1,2,FEW 20   BKN 30,-1,2,-1,5,1007,RJCB 030700Z 09004KT 040V120 9999 -SHSN FEW020 BKN030 M02/M05     Q1007 RMK 1CU020 7CU030 A2975=,- SN SH
20180103_080000.002,1,RJCB,,,,0,20180103080000,-1,-1,-1,-1,0,-1,0,-1,-1,-1,-1,,9999,0,1,2,FEW 20   BKN 30,-1,3,-1,5,1008,RJCB 030800Z 00000KT 9999 -SHSN FEW020 BKN030 M03/M05 Q1008     RMK 1CU020 7CU030 A2978=,- SN SH
20180103_090000.002,1,RJCB,,,,0,20180103090000,-1,-1,-1,-1,0,-1,0,-1,-1,-1,-1,,9999,0,0,2,FEW 20   BKN 30,-1,3,-1,6,1009,RJCB 030900Z 00000KT 9999 FEW020 BKN030 M03/M06 Q1009 RMK     1CU020 6CU030 A2979=,
20180103_100000.002,1,RJCB,,,,0,20180103100000,-1,-1,-1,-1,30,-1,4,-1,-1,350,60,,9999,0,0,2,FEW 20   BKN 30,-1,3,-1,7,1009,RJCB 031000Z 03004KT 350V060 9999 FEW020 BKN030 M03/M07 Q1009     RMK 1CU020 7CU030 A2981=,
20180103_110000.002,1,RJCB,,,,0,20180103110000,-1,-1,-1,-1,0,-1,0,-1,-1,-1,-1,,9999,0,0,3,FEW 30   SCT 40   BKN -9999,-1,4,-1,8,1009,RJCB 031100Z 00000KT 9999 FEW030 SCT040 BKN/// M04/M08 Q1009     RMK 1CU030 3CU040 A2982=,
20180103_230000.002,1,RJCB,,,,0,20180103230000,-1,-1,-1,-1,999,-1,1,-1,-1,-1,-1,,9999,0,0,2,FEW 50   BKN -9999,-1,15,-1,17,1012,RJCB 032300Z VRB01KT 9999 FEW050 BKN/// M15/M17 Q1012 RMK     1CU050 A2990=,
20180104_000000.002,1,RJCB,,,,0,20180104000000,-1,-1,-1,-1,999,-1,1,-1,-1,-1,-1,,9999,0,0,2,FEW 50   BKN -9999,-1,13,-1,15,1012,RJCB 040000Z VRB01KT 9999 FEW050 BKN/// M13/M15 Q1012 RMK     1CU050 A2991=,
20180104_010000.002,1,RJCB,,,,0,20180104010000,-1,-1,-1,-1,999,-1,1,-1,-1,-1,-1,,9999,0,0,2,FEW 50   BKN -9999,-1,10,-1,13,1012,RJCB 040100Z VRB01KT 9999 FEW050 BKN/// M10/M13 Q1012 RMK     1CU050 A2990=,
20180104_020000.002,1,RJCB,,,,0,20180104020000,-1,-1,-1,-1,0,-1,0,-1,-1,-1,-1,,9999,0,0,2,FEW 30   BKN -9999,-1,6,-1,10,1012,RJCB 040200Z 00000KT 9999 FEW030 BKN/// M06/M10 Q1012 RMK     1CU030 A2988=,
20180104_030000.002,1,RJCB,,,,0,20180104030000,-1,-1,-1,-1,0,-1,0,-1,-1,-1,-1,,9999,0,0,2,FEW 40   BKN -9999,-1,5,-1,10,1011,RJCB 040300Z 00000KT 9999 FEW040 BKN/// M05/M10 Q1011 RMK     1CU040 A2986=,
20180104_040000.002,1,RJCB,,,,0,20180104040000,-1,-1,-1,-1,0,-1,0,-1,-1,-1,-1,,9999,0,0,2,FEW 40   BKN -9999,-1,5,-1,10,1010,RJCB 040400Z 00000KT 9999 FEW040 BKN/// M05/M10 Q1010 RMK     1CU040 A2985=,
20180104_050000.002,1,RJCB,,,,0,20180104050000,-1,-1,-1,-1,999,-1,2,-1,-1,-1,-1,,9999,0,0,2,FEW 40   BKN -9999,-1,4,-1,10,1011,RJCB 040500Z VRB02KT 9999 FEW040 BKN/// M04/M10 Q1011 RMK     1CU040 A2985=,
20180104_060000.003,1,RJCB,,,,0,20180104060000,-1,-1,-1,-1,999,-1,1,-1,-1,-1,-1,,9999,0,0,2,FEW 40   BKN -9999,-1,4,-1,10,1011,RJCB 040600Z VRB01KT 9999 FEW040 BKN/// M04/M10 Q1011 RMK     1CU040 A2987=,
20180104_070000.002,1,RJCB,,,,0,20180104070000,-1,-1,-1,-1,999,-1,1,-1,-1,-1,-1,,9999,0,0,2,FEW 40   BKN -9999,-1,7,-1,10,1011,RJCB 040700Z VRB01KT 9999 FEW040 BKN/// M07/M10 Q1011 RMK     1CU040 A2988=,
20180104_080000.002,1,RJCB,,,,0,20180104080000,-1,-1,-1,-1,999,-1,1,-1,-1,-1,-1,,9999,0,0,2,FEW 40   BKN -9999,-1,9,-1,11,1012,RJCB 040800Z VRB01KT 9999 FEW040 BKN/// M09/M11 Q1012 RMK     1CU040 A2989=,
20180104_090000.002,1,RJCB,,,,0,20180104090000,-1,-1,-1,-1,999,-1,1,-1,-1,-1,-1,,9999,0,0,2,FEW 40   BKN -9999,-1,10,-1,11,1012,RJCB 040900Z VRB01KT 9999 FEW040 BKN/// M10/M11 Q1012 RMK     1CU040 A2990=,
20180104_100000.002,1,RJCB,,,,0,20180104100000,-1,-1,-1,-1,170,-1,3,-1,-1,140,200,,9999,0,0,2,FEW 40   BKN -9999,-1,12,-1,14,1012,RJCB 041000Z 17003KT 140V200 9999 FEW040 BKN/// M12/M14 Q1012     RMK 1CU040 A2990=,
20180104_110000.002,1,RJCB,,,,0,20180104110000,-1,-1,-1,-1,0,-1,0,-1,-1,-1,-1,,9999,0,0,2,FEW 40   BKN -9999,-1,14,-1,16,1012,RJCB 041100Z 00000KT 9999 FEW040 BKN/// M14/M16 Q1012 RMK     1CU040 A2991=,
20180104_230000.002,1,RJCB,,,,0,20180104230000,-1,-1,-1,-1,0,-1,0,-1,-1,-1,-1,,9999,0,0,1,FEW 40,-1,16,-1,18,1012,RJCB 042300Z 00000KT 9999 FEW040 M16/M18 Q1012 RMK 1CU040     A2989=,
20180105_000000.002,1,RJCB,,,,0,20180105000000,-1,-1,-1,-1,0,-1,0,-1,-1,-1,-1,,9999,0,0,1,FEW 40,-1,14,-1,16,1011,RJCB 050000Z 00000KT 9999 FEW040 M14/M16 Q1011 RMK 1CU040     A2988=,
20180105_010000.003,1,RJCB,,,,0,20180105010000,-1,-1,-1,-1,360,-1,1,-1,-1,-1,-1,,9999,0,0,1,FEW 40,-1,12,-1,15,1011,RJCB 050100Z 36001KT 9999 FEW040 M12/M15 Q1011 RMK 1CU040     A2987=,
20180105_020000.002,1,RJCB,,,,0,20180105020000,-1,-1,-1,-1,340,-1,3,-1,-1,-1,-1,,9999,0,0,1,FEW 40,-1,10,-1,13,1010,RJCB 050200Z 34003KT 9999 FEW040 M10/M13 Q1010 RMK 1CU040     A2984=,
20180105_030000.002,1,RJCB,,,,0,20180105030000,-1,-1,-1,-1,0,-1,0,-1,-1,-1,-1,,9999,0,0,1,FEW 40,-1,6,-1,11,1009,RJCB 050300Z 00000KT 9999 FEW040 M06/M11 Q1009 RMK 1CU040     A2981=,
20180105_040000.002,1,RJCB,,,,0,20180105040000,-1,-1,-1,-1,999,-1,2,-1,-1,-1,-1,,9999,0,0,1,FEW 40,-1,5,-1,10,1008,RJCB 050400Z VRB02KT 9999 FEW040 M05/M10 Q1008 RMK 1CU040     A2979=,
20180105_050000.002,1,RJCB,,,,0,20180105050000,-1,-1,-1,-1,999,-1,1,-1,-1,-1,-1,,9999,0,0,1,FEW 40,-1,5,-1,10,1008,RJCB 050500Z VRB01KT 9999 FEW040 M05/M10 Q1008 RMK 1CU040     A2978=,
20180105_060000.002,1,RJCB,,,,0,20180105060000,-1,-1,-1,-1,999,-1,2,-1,-1,-1,-1,,9999,0,0,1,FEW 40,-1,4,-1,9,1008,RJCB 050600Z VRB02KT 9999 FEW040 M04/M09 Q1008 RMK 1CU040     A2978=,
20180105_070000.002,1,RJCB,,,,0,20180105070000,-1,-1,-1,-1,999,-1,2,-1,-1,-1,-1,,9999,0,0,1,FEW 40,-1,4,-1,8,1008,RJCB 050700Z VRB02KT 9999 FEW040 M04/M08 Q1008 RMK 1CU040     A2977=,
20180105_080000.002,1,RJCB,,,,0,20180105080000,-1,-1,-1,-1,999,-1,2,-1,-1,-1,-1,,9999,0,0,1,FEW 40,-1,5,-1,8,1008,RJCB 050800Z VRB02KT 9999 FEW040 M05/M08 Q1008 RMK 1CU040     A2977=,
20180105_090000.002,1,RJCB,,,,0,20180105090000,-1,-1,-1,-1,999,-1,1,-1,-1,-1,-1,,9999,0,0,1,FEW 40,-1,7,-1,8,1007,RJCB 050900Z VRB01KT 9999 FEW040 M07/M08 Q1007 RMK 1CU040     A2976=,
20180105_100000.002,1,RJCB,,,,0,20180105100000,-1,-1,-1,-1,999,-1,1,-1,-1,-1,-1,,9999,0,0,1,FEW 40,-1,9,-1,10,1007,RJCB 051000Z VRB01KT 9999 FEW040 M09/M10 Q1007 RMK 1CU040     A2976=,
20180105_110000.002,1,RJCB,,,,0,20180105110000,-1,-1,-1,-1,180,-1,1,-1,-1,-1,-1,,9999,0,0,1,FEW 40,-1,14,-1,15,1007,RJCB 051100Z 18001KT 9999 FEW040 M14/M15 Q1007 RMK 1CU040     A2976=,
20180105_230000.002,1,RJCB,,,,0,20180105230000,-1,-1,-1,-1,999,-1,2,-1,-1,-1,-1,,9999,0,0,1,FEW 40,-1,13,-1,16,1004,RJCB 052300Z VRB02KT 9999 FEW040 M13/M16 Q1004 RMK 1CU040     A2966=,
20180106_000000.002,1,RJCB,,,,0,20180106000000,-1,-1,-1,-1,310,-1,1,-1,-1,-1,-1,,9999,0,0,2,FEW 40   SCT 80,-1,12,-1,14,1004,RJCB 060000Z 31001KT 9999 FEW040 SCT080 M12/M14 Q1004 RMK     1CU040 4AC080 A2966=,
20180106_010000.002,1,RJCB,,,,0,20180106010000,-1,-1,-1,-1,340,-1,3,-1,-1,-1,-1,,9999,0,0,2,FEW 40   SCT 70,-1,11,-1,14,1004,RJCB 060100Z 34003KT 9999 FEW040 SCT070 M11/M14 Q1004 RMK     1CU040 3AC070 A2965=,
20180106_020000.002,1,RJCB,,,,0,20180106020000,-1,-1,-1,-1,0,-1,0,-1,-1,-1,-1,,9999,0,0,1,FEW 40,-1,8,-1,12,1003,RJCB 060200Z 00000KT 9999 FEW040 M08/M12 Q1003 RMK 1CU040     A2962=,
20180106_030000.002,1,RJCB,,,,0,20180106030000,-1,-1,-1,-1,320,-1,5,-1,-1,260,350,,9999,0,0,1,FEW 40,-1,7,-1,11,1002,RJCB 060300Z 32005KT 260V350 9999 FEW040 M07/M11 Q1002 RMK     1CU040 A2959=,
20180106_040000.002,1,RJCB,,,,0,20180106040000,-1,-1,-1,-1,360,-1,3,-1,-1,-1,-1,,9999,0,0,1,FEW 40,-1,6,-1,10,1001,RJCB 060400Z 36003KT 9999 FEW040 M06/M10 Q1001 RMK 1CU040     A2957=,
20180106_050000.002,1,RJCB,,,,0,20180106050000,-1,-1,-1,-1,999,-1,1,-1,-1,-1,-1,,9999,0,0,2,FEW 40   BKN -9999,-1,5,-1,9,1001,RJCB 060500Z VRB01KT 9999 FEW040 BKN/// M05/M09 Q1001 RMK     1CU040 A2956=,
20180106_060000.002,1,RJCB,,,,0,20180106060000,-1,-1,-1,-1,999,-1,2,-1,-1,-1,-1,,9999,0,0,2,FEW 30   SCT -9999,-1,4,-1,8,1001,RJCB 060600Z VRB02KT 9999 FEW030 SCT/// M04/M08 Q1001 RMK     1CU030 A2956=,
20180106_070000.002,1,RJCB,,,,0,20180106070000,-1,-1,-1,-1,999,-1,1,-1,-1,-1,-1,,9999,0,0,2,FEW 30   SCT 60,-1,6,-1,9,1001,RJCB 060700Z VRB01KT 9999 FEW030 SCT060 M06/M09 Q1001 RMK     1CU030 4CU060 A2956=,
20180106_080000.002,1,RJCB,,,,0,20180106080000,-1,-1,-1,-1,210,-1,1,-1,-1,-1,-1,,9999,0,0,1,FEW 30,-1,8,-1,11,1001,RJCB 060800Z 21001KT 9999 FEW030 M08/M11 Q1001 RMK 1CU030     A2956=,
20180106_090000.002,1,RJCB,,,,0,20180106090000,-1,-1,-1,-1,999,-1,1,-1,-1,-1,-1,,9999,0,0,1,FEW 30,-1,11,-1,13,1001,RJCB 060900Z VRB01KT 9999 FEW030 M11/M13 Q1001 RMK 1CU030     A2958=,
20180106_100000.002,1,RJCB,,,,0,20180106100000,-1,-1,-1,-1,0,-1,0,-1,-1,-1,-1,,9999,0,0,1,FEW 30,-1,13,-1,15,1002,RJCB 061000Z 00000KT 9999 FEW030 M13/M15 Q1002 RMK 1CU030     A2961=,
20180106_110000.002,1,RJCB,,,,0,20180106110000,-1,-1,-1,-1,999,-1,2,-1,-1,-1,-1,,9999,0,0,1,FEW 30,-1,11,-1,13,1002,RJCB 061100Z VRB02KT 9999 FEW030 M11/M13 Q1002 RMK 1CU030     A2961=,
20180106_230000.002,1,RJCB,,,,0,20180106230000,-1,-1,-1,-1,999,-1,2,-1,-1,-1,-1,,9999,0,0,2,FEW 40   SCT 60,-1,14,-1,16,1010,RJCB 062300Z VRB02KT 9999 FEW040 SCT060 M14/M16 Q1010 RMK     1CU040 3CU060 A2984=,
20180107_000000.002,1,RJCB,,,,0,20180107000000,-1,-1,-1,-1,999,-1,2,-1,-1,-1,-1,,9999,0,0,1,FEW 40,-1,13,-1,15,1011,RJCB 070000Z VRB02KT 9999 FEW040 M13/M15 Q1011 RMK 1CU040     A2985=,
20180107_010000.003,1,RJCB,,,,0,20180107010000,-1,-1,-1,-1,999,-1,1,-1,-1,-1,-1,,9999,0,0,1,FEW 40,-1,7,-1,12,1011,RJCB 070100Z VRB01KT 9999 FEW040 M07/M12 Q1011 RMK 1CU040     A2986=,
20180107_020000.002,1,RJCB,,,,0,20180107020000,-1,-1,-1,-1,350,-1,5,-1,-1,-1,-1,,9999,0,0,1,FEW 40,-1,5,-1,11,1011,RJCB 070200Z 35005KT 9999 FEW040 M05/M11 Q1011 RMK 1CU040     A2987=,
20180107_030000.002,1,RJCB,,,,0,20180107030000,-1,-1,-1,-1,999,-1,1,-1,-1,-1,-1,,9999,0,0,1,FEW 40,-1,3,-1,10,1011,RJCB 070300Z VRB01KT 9999 FEW040 M03/M10 Q1011 RMK 1CU040     A2987=,
20180107_040000.002,1,RJCB,,,,0,20180107040000,-1,-1,-1,-1,320,-1,5,-1,-1,280,350,,9999,0,0,1,FEW 40,-1,2,-1,11,1011,RJCB 070400Z 32005KT 280V350 9999 FEW040 M02/M11 Q1011 RMK     1CU040 A2987=,
20180107_050000.002,1,RJCB,,,,0,20180107050000,-1,-1,-1,-1,330,-1,8,-1,-1,-1,-1,,9999,0,0,1,FEW 40,-1,3,-1,11,1012,RJCB 070500Z 33008KT 9999 FEW040 M03/M11 Q1012 RMK 1CU040     A2988=,
20180107_060000.002,1,RJCB,,,,0,20180107060000,-1,-1,-1,-1,330,-1,6,-1,-1,-1,-1,,9999,0,0,1,FEW 40,-1,4,-1,11,1012,RJCB 070600Z 33006KT 9999 FEW040 M04/M11 Q1012 RMK 1CU040     A2990=,
20180107_070000.002,1,RJCB,,,,0,20180107070000,-1,-1,-1,-1,340,-1,3,-1,-1,190,360,,9999,0,0,1,FEW 40,-1,5,-1,11,1012,RJCB 070700Z 34003KT 190V360 9999 FEW040 M05/M11 Q1012 RMK     1CU040 A2991=,
20180107_080000.002,1,RJCB,,,,0,20180107080000,-1,-1,-1,-1,0,-1,0,-1,-1,-1,-1,,9999,0,0,1,FEW 40,-1,9,-1,13,1013,RJCB 070800Z 00000KT 9999 FEW040 M09/M13 Q1013 RMK 1CU040     A2993=,
20180107_090000.002,1,RJCB,,,,0,20180107090000,-1,-1,-1,-1,999,-1,1,-1,-1,-1,-1,,9999,0,0,1,FEW 40,-1,11,-1,15,1014,RJCB 070900Z VRB01KT 9999 FEW040 M11/M15 Q1014 RMK 1CU040     A2995=,
20180107_100000.002,1,RJCB,,,,0,20180107100000,-1,-1,-1,-1,999,-1,2,-1,-1,-1,-1,,9999,0,0,1,FEW 40,-1,12,-1,15,1014,RJCB 071000Z VRB02KT 9999 FEW040 M12/M15 Q1014 RMK 1CU040     A2995=,
20180107_110000.002,1,RJCB,,,,0,20180107110000,-1,-1,-1,-1,999,-1,1,-1,-1,-1,-1,,9999,0,0,1,FEW 40,-1,14,-1,18,1014,RJCB 071100Z VRB01KT 9999 FEW040 M14/M18 Q1014 RMK 1CU040     A2996=,
20180107_230000.002,1,RJCB,,,,0,20180107230000,-1,-1,-1,-1,0,-1,0,-1,-1,-1,-1,,9999,0,0,1,FEW 40,-1,15,-1,18,1014,RJCB 072300Z 00000KT 9999 FEW040 M15/M18 Q1014 RMK 1CU040     A2996=,
20180108_000000.002,1,RJCB,,,,0,20180108000000,-1,-1,-1,-1,160,-1,3,-1,-1,-1,-1,,9999,0,0,1,FEW 40,-1,12,-1,15,1014,RJCB 080000Z 16003KT 9999 FEW040 M12/M15 Q1014 RMK 1CU040     A2996=,
20180108_010000.002,1,RJCB,,,,0,20180108010000,-1,-1,-1,-1,160,-1,3,-1,-1,-1,-1,,9999,0,0,1,FEW 40,-1,8,-1,13,1014,RJCB 080100Z 16003KT 9999 FEW040 M08/M13 Q1014 RMK 1CU040     A2996=,
20180108_020000.002,1,RJCB,,,,0,20180108020000,-1,-1,-1,-1,180,-1,3,-1,-1,-1,-1,,9999,0,0,2,FEW 40   BKN -9999,-1,4,-1,10,1013,RJCB 080200Z 18003KT 9999 FEW040 BKN/// M04/M10 Q1013 RMK     1CU040 A2992=,
20180108_030000.002,1,RJCB,,,,0,20180108030000,-1,-1,-1,-1,160,-1,3,-1,-1,-1,-1,,9999,0,0,2,FEW 40   SCT -9999,1,0,-1,7,1012,RJCB 080300Z 16003KT 9999 FEW040 SCT/// 00/M07 Q1012 RMK     1CU040 A2989=,
20180108_040000.002,1,RJCB,,,,0,20180108040000,-1,-1,-1,-1,150,-1,4,-1,-1,-1,-1,,9999,0,0,2,FEW 40   BKN -9999,1,2,-1,6,1011,RJCB 080400Z 15004KT 9999 FEW040 BKN/// 02/M06 Q1011 RMK     1CU040 A2986=,
20180108_050000.002,1,RJCB,,,,0,20180108050000,-1,-1,-1,-1,130,-1,6,-1,-1,-1,-1,,9999,0,0,2,FEW 40   SCT -9999,1,2,-1,5,1010,RJCB 080500Z 13006KT 9999 FEW040 SCT/// 02/M05 Q1010 RMK     1CU040 A2983=,
20180108_060000.003,1,RJCB,,,,0,20180108060000,-1,-1,-1,-1,150,-1,5,-1,-1,-1,-1,,9999,0,0,2,FEW 40   BKN -9999,1,0,-1,7,1010,RJCB 080600Z 15005KT 9999 FEW040 BKN/// 00/M07 Q1010 RMK     1CU040 A2983=,
20180108_070000.002,1,RJCB,,,,0,20180108070000,-1,-1,-1,-1,320,-1,3,-1,-1,-1,-1,,9999,0,0,3,FEW 40   BKN 160   BKN -9999,-1,3,-1,8,1009,RJCB 080700Z 32003KT 9999 FEW040 BKN160 BKN/// M03/M08 Q1009     RMK 1CU040 5AC160 A2982=,
20180108_080000.002,1,RJCB,,,,0,20180108080000,-1,-1,-1,-1,0,-1,0,-1,-1,-1,-1,,9999,0,0,2,FEW 40   BKN 120,-1,4,-1,8,1010,RJCB 080800Z 00000KT 9999 FEW040 BKN120 M04/M08 Q1010 RMK     1CU040 7AC120 A2983=,
20180108_090000.002,1,RJCB,,,,0,20180108090000,-1,-1,-1,-1,999,-1,1,-1,-1,-1,-1,,9999,0,0,2,FEW 40   BKN 110,-1,3,-1,7,1009,RJCB 080900Z VRB01KT 9999 FEW040 BKN110 M03/M07 Q1009 RMK     1CU040 7AC110 A2980=,
20180108_100000.002,1,RJCB,,,,0,20180108100000,-1,-1,-1,-1,999,-1,2,-1,-1,-1,-1,,9999,0,0,2,FEW 40   BKN 110,-1,4,-1,7,1008,RJCB 081000Z VRB02KT 9999 FEW040 BKN110 M04/M07 Q1008 RMK     1CU040 7AC110 A2979=,
20180108_110000.002,1,RJCB,,,,0,20180108110000,-1,-1,-1,-1,0,-1,0,-1,-1,-1,-1,,9999,0,0,2,FEW 40   BKN 90,-1,2,-1,7,1008,RJCB 081100Z 00000KT 9999 FEW040 BKN090 M02/M07 Q1008 RMK     1CU040 7AC090 A2978=,
20180108_230000.003,1,RJCB,,,,0,20180108230000,-1,-1,-1,-1,999,-1,1,-1,-1,-1,-1,,1600,1,1,2,FEW 7   BKN 18,-1,3,-1,3,988,RJCB 082300Z VRB01KT 1600 R35/1400VP1800N -SHSN FEW007 BKN018     M03/M03 Q0988 RMK 1ST007 7ST018 A2920=,- SN SH
20180109_000000.002,1,RJCB,,,,0,20180109000000,-1,-1,-1,-1,999,-1,1,-1,-1,-1,-1,,1600,1,1,3,FEW 5   SCT 7   BKN 14,-1,2,-1,3,987,RJCB 090000Z VRB01KT 1600 R35/1200VP1800D -SHSN FEW005 SCT007     BKN014 M02/M03 Q0987 RMK 1ST005 3ST007 7ST014 A2915=,- SN SH
20180109_010000.002,1,RJCB,,,,0,20180109010000,-1,-1,-1,-1,999,-1,1,-1,-1,-1,-1,,3200,0,1,2,FEW 4   BKN 18,-1,2,-1,3,985,RJCB 090100Z VRB01KT 3200 -SHSN FEW004 BKN018 M02/M03 Q0985     RMK 2ST004 7ST018 A2909=,- SN SH
20180109_020000.002,1,RJCB,,,,0,20180109020000,-1,-1,-1,-1,999,-1,2,-1,-1,-1,-1,,4000,0,2,3,FEW 2   SCT 3   BKN 4,-1,1,-1,2,982,RJCB 090200Z VRB02KT 4000 -SHRASN BR FEW002 SCT003 BKN004     M01/M02 Q0982 RMK 1ST002 3ST003 7ST004 A2901 P/FR=,- RA SN SH; BR
20180109_030000.002,1,RJCB,,,,0,20180109030000,-1,-1,-1,-1,340,-1,4,-1,-1,-1,-1,,3500,0,2,3,FEW 3   BKN 4   BKN 6,-1,1,-1,2,980,RJCB 090300Z 34004KT 3500 -SHRASN BR FEW003 BKN004 BKN006     M01/M02 Q0980 RMK 1ST003 5ST004 7ST006 A2894=,- RA SN SH; BR
20180109_040000.002,1,RJCB,,,,0,20180109040000,-1,-1,-1,-1,999,-1,2,-1,-1,-1,-1,,4000,0,2,3,FEW 2   BKN 4   BKN 9,-1,0,-1,1,979,RJCB 090400Z VRB02KT 4000 -SHRA BR FEW002 BKN004 BKN009     M00/M01 Q0979 RMK 1ST002 5ST004 7ST009 A2892=,- RA SH; BR
20180109_050000.002,1,RJCB,,,,0,20180109050000,-1,-1,-1,-1,70,-1,5,-1,-1,40,110,,6000,0,0,2,FEW 4   SCT 6,1,0,-1,1,978,RJCB 090500Z 07005KT 040V110 6000 FEW004 SCT006 00/M01 Q0978     RMK 1ST004 4ST006 A2889=,
20180109_060000.002,1,RJCB,,,,0,20180109060000,-1,-1,-1,-1,150,-1,4,-1,-1,120,180,,9999,0,0,1,FEW 40,1,2,-1,1,978,RJCB 090600Z 15004KT 120V180 9999 FEW040 02/M01 Q0978 RMK     1CU040 A2889=,
20180109_070000.002,1,RJCB,,,,0,20180109070000,-1,-1,-1,-1,999,-1,3,-1,-1,-1,-1,,9999,0,0,1,FEW 40,1,2,-1,5,977,RJCB 090700Z VRB03KT 9999 FEW040 02/M05 Q0977 RMK 1CU040     A2887=,
20180109_080000.002,1,RJCB,,,,0,20180109080000,-1,-1,-1,-1,999,-1,7,-1,17,-1,-1,,9999,0,0,2,FEW 40   SCT 80,1,5,-1,7,978,RJCB 090800Z VRB07G17KT 9999 FEW040 SCT080 05/M07 Q0978 RMK     1CU040 3AC080 A2890=,
20180109_090000.002,1,RJCB,,,,0,20180109090000,-1,-1,-1,-1,999,-1,5,-1,-1,-1,-1,,9999,0,0,2,FEW 40   SCT 60,1,4,-1,7,978,RJCB 090900Z VRB05KT 9999 FEW040 SCT060 04/M07 Q0978 RMK     1CU040 3CU060 A2889=,
20180109_100000.002,1,RJCB,,,,0,20180109100000,-1,-1,-1,-1,280,-1,8,-1,-1,230,330,,9999,0,1,2,FEW 10   BKN 20,1,2,-1,3,980,RJCB 091000Z 28008KT 230V330 9999 -SHSN FEW010 BKN020 02/M03     Q0980 RMK 1ST010 7CU020 A2894 P/RR=,- SN SH
20180109_110000.002,1,RJCB,,,,0,20180109110000,-1,-1,-1,-1,999,-1,2,-1,-1,-1,-1,,9999,0,1,2,FEW 20   BKN 50,1,1,-1,2,980,RJCB 091100Z VRB02KT 9999 -SHSN FEW020 BKN050 01/M02 Q0980 RMK     1CU020 7CU050 A2894=,- SN SH
20180109_230000.002,1,RJCB,,,,0,20180109230000,-1,-1,-1,-1,999,-1,4,-1,-1,-1,-1,,9999,0,0,1,FEW 30,-1,1,-1,12,990,RJCB 092300Z VRB04KT 9999 FEW030 M01/M12 Q0990 RMK 1CU030     A2925 P/RR=,
20180110_000000.002,1,RJCB,,,,0,20180110000000,-1,-1,-1,-1,999,-1,2,-1,-1,-1,-1,,9999,0,0,1,FEW 30,-1,1,-1,11,992,RJCB 100000Z VRB02KT 9999 FEW030 M01/M11 Q0992 RMK 1CU030     A2930=,
20180110_010000.002,1,RJCB,,,,0,20180110010000,-1,-1,-1,-1,999,-1,5,-1,-1,-1,-1,,9999,0,0,1,FEW 30,-1,0,-1,10,993,RJCB 100100Z VRB05KT 9999 FEW030 M00/M10 Q0993 RMK 1CU030     A2932=,
20180110_020000.002,1,RJCB,,,,0,20180110020000,-1,-1,-1,-1,999,-1,4,-1,-1,-1,-1,,9999,0,0,1,FEW 30,-1,0,-1,11,993,RJCB 100200Z VRB04KT 9999 FEW030 M00/M11 Q0993 RMK 1CU030     A2933=,
20180110_030000.002,1,RJCB,,,,0,20180110030000,-1,-1,-1,-1,280,-1,6,-1,-1,230,20,,9999,0,0,1,FEW 40,1,0,-1,13,993,RJCB 100300Z 28006KT 230V020 9999 FEW040 00/M13 Q0993 RMK     1CU040 A2933=,
20180110_040000.003,1,RJCB,,,,0,20180110040000,-1,-1,-1,-1,280,-1,5,-1,-1,210,340,,9999,0,0,1,FEW 40,1,1,-1,14,994,RJCB 100400Z 28005KT 210V340 9999 FEW040 01/M14 Q0994 RMK     1CU040 A2935=,
20180110_050000.002,1,RJCB,,,,0,20180110050000,-1,-1,-1,-1,999,-1,4,-1,-1,-1,-1,,9999,0,0,1,FEW 40,1,1,-1,17,995,RJCB 100500Z VRB04KT 9999 FEW040 01/M17 Q0995 RMK 1CU040     A2939=,
20180110_060000.002,1,RJCB,,,,0,20180110060000,-1,-1,-1,-1,280,-1,6,-1,-1,220,350,,9999,0,0,1,FEW 40,1,0,-1,18,996,RJCB 100600Z 28006KT 220V350 9999 FEW040 00/M18 Q0996 RMK     1CU040 A2943=,
20180110_070000.002,1,RJCB,,,,0,20180110070000,-1,-1,-1,-1,999,-1,2,-1,-1,-1,-1,,9999,0,0,1,FEW 40,-1,1,-1,16,997,RJCB 100700Z VRB02KT 9999 FEW040 M01/M16 Q0997 RMK 1CU040     A2945=,
20180110_080000.002,1,RJCB,,,,0,20180110080000,-1,-1,-1,-1,40,-1,4,-1,-1,340,70,,9999,0,0,1,FEW 40,-1,4,-1,15,998,RJCB 100800Z 04004KT 340V070 9999 FEW040 M04/M15 Q0998 RMK     1CU040 A2949=,
20180110_090000.002,1,RJCB,,,,0,20180110090000,-1,-1,-1,-1,310,-1,4,-1,-1,280,340,,9999,0,0,1,FEW 40,-1,4,-1,15,999,RJCB 100900Z 31004KT 280V340 9999 FEW040 M04/M15 Q0999 RMK     1CU040 A2951=,
20180110_100000.002,1,RJCB,,,,0,20180110100000,-1,-1,-1,-1,999,-1,1,-1,-1,-1,-1,,9999,0,0,1,FEW 40,-1,7,-1,16,1000,RJCB 101000Z VRB01KT 9999 FEW040 M07/M16 Q1000 RMK 1CU040     A2955=,
20180110_110000.002,1,RJCB,,,,0,20180110110000,-1,-1,-1,-1,320,-1,4,-1,-1,290,350,,9999,0,0,1,FEW 40,-1,5,-1,15,1001,RJCB 101100Z 32004KT 290V350 9999 FEW040 M05/M15 Q1001 RMK     1CU040 A2956=,
20180110_230000.003,1,RJCB,,,,0,20180110230000,-1,-1,-1,-1,999,-1,2,-1,-1,-1,-1,,9999,0,0,1,FEW 40,-1,12,-1,17,1006,RJCB 102300Z VRB02KT 9999 FEW040 M12/M17 Q1006 RMK 1CU040     A2972=,
20180111_000000.002,1,RJCB,,,,0,20180111000000,-1,-1,-1,-1,999,-1,1,-1,-1,-1,-1,,9999,0,0,2,FEW 40   SCT 60,-1,11,-1,17,1007,RJCB 110000Z VRB01KT 9999 FEW040 SCT060 M11/M17 Q1007 RMK     1CU040 4CU060 A2974=,
20180111_010000.002,1,RJCB,,,,0,20180111010000,-1,-1,-1,-1,999,-1,1,-1,-1,-1,-1,,9999,0,0,2,FEW 30   SCT 60,-1,7,-1,14,1007,RJCB 110100Z VRB01KT 9999 FEW030 SCT060 M07/M14 Q1007 RMK     1CU030 3CU060 A2974=,
20180111_020000.002,1,RJCB,,,,0,20180111020000,-1,-1,-1,-1,999,-1,1,-1,-1,-1,-1,,9999,0,0,2,FEW 30   BKN 60,-1,5,-1,13,1006,RJCB 110200Z VRB01KT 9999 FEW030 BKN060 M05/M13 Q1006 RMK     1CU030 5CU060 A2973=,
20180111_030000.001,1,RJCB,,,,0,20180111030000,-1,-1,-1,-1,350,-1,4,-1,-1,-1,-1,,9999,0,0,2,FEW 30   SCT 60,-1,5,-1,14,1006,RJCB 110300Z 35004KT 9999 FEW030 SCT060 M05/M14 Q1006 RMK     1CU030 3CU060 A2971=,
20180111_040000.002,1,RJCB,,,,0,20180111040000,-1,-1,-1,-1,340,-1,4,-1,-1,-1,-1,,9999,0,0,2,FEW 30   BKN 60,-1,5,-1,13,1006,RJCB 110400Z 34004KT 9999 FEW030 BKN060 M05/M13 Q1006 RMK     1CU030 6CU060 A2971=,
20180111_050000.002,1,RJCB,,,,0,20180111050000,-1,-1,-1,-1,999,-1,1,-1,-1,-1,-1,,9999,0,1,2,FEW 20   BKN 40,-1,4,-1,12,1006,RJCB 110500Z VRB01KT 9999 -SHSN FEW020 BKN040 M04/M12 Q1006     RMK 1CU020 6CU040 A2971=,- SN SH
20180111_060000.002,1,RJCB,,,,0,20180111060000,-1,-1,-1,-1,999,-1,2,-1,-1,-1,-1,,5000,0,1,2,FEW 10   BKN 40,-1,5,-1,9,1006,RJCB 110600Z VRB02KT 5000 -SHSN FEW010 BKN040 M05/M09 Q1006     RMK 1ST010 6CU040 A2972=,- SN SH
20180111_070000.002,1,RJCB,,,,0,20180111070000,-1,-1,-1,-1,999,-1,2,-1,-1,-1,-1,,5000,0,1,2,FEW 7   BKN 20,-1,5,-1,7,1007,RJCB 110700Z VRB02KT 5000 -SHSN FEW007 BKN020 M05/M07 Q1007     RMK 1ST007 6CU020 A2974=,- SN SH
20180111_080000.002,1,RJCB,,,,0,20180111080000,-1,-1,-1,-1,310,-1,3,-1,-1,270,340,,4000,0,1,2,FEW 9   BKN 20,-1,5,-1,7,1007,RJCB 110800Z 31003KT 270V340 4000 -SHSN FEW009 BKN020 M05/M07     Q1007 RMK 1ST009 6CU020 A2976=,- SN SH
20180111_090000.002,1,RJCB,,,,0,20180111090000,-1,-1,-1,-1,999,-1,1,-1,-1,-1,-1,,9999,1,0,1,FEW 20,-1,8,-1,8,1008,RJCB 110900Z VRB01KT 9999 R35/1300VP1800D FEW020 M08/M08 Q1008     RMK 1CU020 A2977=,
20180111_100000.002,1,RJCB,,,,0,20180111100000,-1,-1,-1,-1,999,-1,2,-1,-1,-1,-1,,1500,1,2,2,SCT 1   BKN 2,-1,8,-1,9,1008,RJCB 111000Z VRB02KT 1500 R35/P1800N BCFG BR SCT001 BKN002     M08/M09 Q1008 RMK 4ST001 7ST002 A2978=,BC FG; BR
20180111_110000.002,1,RJCB,,,,0,20180111110000,-1,-1,-1,-1,999,-1,2,-1,-1,-1,-1,,900,1,1,1,FEW 1,-1,12,-1,13,1008,RJCB 111100Z VRB02KT 0900 R35/0650VP1800D FZFG FEW001 M12/M13     Q1008 RMK 2ST001 A2979=,FZ FG
20180111_230000.002,1,RJCB,,,,0,20180111230000,-1,-1,-1,-1,300,-1,4,-1,-1,240,340,,800,1,1,1,VV 4,-1,9,-1,10,1010,RJCB 112300Z 30004KT 240V340 0800 R35/1300U SHSN VV004 M09/M10     Q1010 RMK A2985=,SN SH
20180112_000000.002,1,RJCB,,,,0,20180112000000,-1,-1,-1,-1,310,-1,6,-1,-1,270,340,,2000,0,1,2,FEW 10   BKN 25,-1,7,-1,8,1011,RJCB 120000Z 31006KT 270V340 2000 -SHSN FEW010 BKN025 M07/M08     Q1011 RMK 1ST010 7CU025 A2988=,- SN SH
20180112_010000.003,1,RJCB,,,,0,20180112010000,-1,-1,-1,-1,300,-1,4,-1,-1,240,350,,1600,0,1,2,SCT 10   BKN 25,-1,6,-1,7,1012,RJCB 120100Z 30004KT 240V350 1600 -SHSN SCT010 BKN025 M06/M07     Q1012 RMK 3ST010 7CU025 A2989=,- SN SH
20180112_020000.002,1,RJCB,,,,0,20180112020000,-1,-1,-1,-1,320,-1,4,-1,-1,270,350,,1500,1,1,3,FEW 6   BKN 8   BKN 20,-1,5,-1,7,1012,RJCB 120200Z 32004KT 270V350 1500 R35/1600VP1800D -SHSN FEW006     BKN008 BKN020 M05/M07 Q1012 RMK 1ST006 5ST008 7CU020           A2989=,- SN SH
20180112_030000.002,1,RJCB,,,,0,20180112030000,-1,-1,-1,-1,340,-1,3,-1,-1,-1,-1,,9999,0,0,2,FEW 9   BKN 70,-1,5,-1,7,1011,RJCB 120300Z 34003KT 9999 FEW009 BKN070 M05/M07 Q1011 RMK     1ST009 5AC070 A2988=,
20180112_040000.002,1,RJCB,,,,0,20180112040000,-1,-1,-1,-1,999,-1,2,-1,-1,-1,-1,,9999,0,0,2,FEW 15   BKN 100,-1,5,-1,8,1012,RJCB 120400Z VRB02KT 9999 FEW015 BKN100 M05/M08 Q1012 RMK     1ST015 5AC100 A2988=,
20180112_050000.003,1,RJCB,,,,0,20180112050000,-1,-1,-1,-1,150,-1,3,-1,-1,120,190,,9999,0,0,2,FEW 15   BKN 100,-1,4,-1,8,1012,RJCB 120500Z 15003KT 120V190 9999 FEW015 BKN100 M04/M08 Q1012     RMK 1ST015 6AC100 A2990=,
20180112_060000.002,1,RJCB,,,,0,20180112060000,-1,-1,-1,-1,999,-1,1,-1,-1,-1,-1,,9999,0,0,2,FEW 20   BKN 120,-1,4,-1,8,1013,RJCB 120600Z VRB01KT 9999 FEW020 BKN120 M04/M08 Q1013 RMK     1CU020 6AC120 A2992=,
20180112_070000.003,1,RJCB,,,,0,20180112070000,-1,-1,-1,-1,999,-1,1,-1,-1,-1,-1,,9999,0,0,1,FEW 15,-1,7,-1,9,1014,RJCB 120700Z VRB01KT 9999 FEW015 M07/M09 Q1014 RMK 1ST015     A2995=,
20180112_080000.002,1,RJCB,,,,0,20180112080000,-1,-1,-1,-1,250,-1,1,-1,-1,-1,-1,,9999,0,0,1,FEW 15,-1,9,-1,10,1014,RJCB 120800Z 25001KT 9999 FEW015 M09/M10 Q1014 RMK 1ST015     A2997=,
20180112_090000.002,1,RJCB,,,,0,20180112090000,-1,-1,-1,-1,0,-1,0,-1,-1,-1,-1,,9999,0,0,1,FEW 15,-1,14,-1,15,1015,RJCB 120900Z 00000KT 9999 FEW015 M14/M15 Q1015 RMK 1ST015     A2998=,
20180112_100000.002,1,RJCB,,,,0,20180112100000,-1,-1,-1,-1,999,-1,1,-1,-1,-1,-1,,9999,0,0,1,FEW 10,-1,14,-1,15,1016,RJCB 121000Z VRB01KT 9999 FEW010 M14/M15 Q1016 RMK 1ST010     A3001=,
20180112_110000.002,1,RJCB,,,,0,20180112110000,-1,-1,-1,-1,0,-1,0,-1,-1,-1,-1,,9999,0,0,1,FEW 10,-1,13,-1,15,1016,RJCB 121100Z 00000KT 9999 FEW010 M13/M15 Q1016 RMK 1ST010     A3003=,
20180112_230000.002,1,RJCB,,,,0,20180112230000,-1,-1,-1,-1,0,-1,0,-1,-1,-1,-1,,9999,0,1,1,FEW 30,-1,19,-1,21,1019,RJCB 122300Z 00000KT 9999 PRFG FEW030 M19/M21 Q1019 RMK 1SC030     A3011 FG S=,PR FG
20180113_000000.002,1,RJCB,,,,0,20180113000000,-1,-1,-1,-1,999,-1,1,-1,-1,-1,-1,,9999,0,0,1,FEW 20,-1,18,-1,20,1019,RJCB 130000Z VRB01KT 9999 FEW020 M18/M20 Q1019 RMK 1CU020     A3012=,
20180113_010000.003,1,RJCB,,,,0,20180113010000,-1,-1,-1,-1,360,-1,3,-1,-1,-1,-1,,9999,0,0,2,FEW 20   SCT 30,-1,14,-1,15,1019,RJCB 130100Z 36003KT 9999 FEW020 SCT030 M14/M15 Q1019 RMK     1CU020 4CU030 A3011=,
20180113_020000.002,1,RJCB,,,,0,20180113020000,-1,-1,-1,-1,350,-1,2,-1,-1,-1,-1,,9999,0,0,1,BKN 20,-1,13,-1,14,1019,RJCB 130200Z 35002KT 9999 BKN020 M13/M14 Q1019 RMK 6CU020     A3010=,
20180113_030000.002,1,RJCB,,,,0,20180113030000,-1,-1,-1,-1,999,-1,2,-1,-1,-1,-1,,9999,0,0,1,FEW 20,-1,11,-1,12,1018,RJCB 130300Z VRB02KT 9999 FEW020 M11/M12 Q1018 RMK 2CU020     A3007=,
20180113_040000.002,1,RJCB,,,,0,20180113040000,-1,-1,-1,-1,350,-1,2,-1,-1,-1,-1,,9999,0,0,1,FEW 20,-1,11,-1,12,1018,RJCB 130400Z 35002KT 9999 FEW020 M11/M12 Q1018 RMK 1CU020     A3007=,
20180113_050000.002,1,RJCB,,,,0,20180113050000,-1,-1,-1,-1,360,-1,3,-1,-1,-1,-1,,9999,0,0,1,FEW 30,-1,10,-1,12,1018,RJCB 130500Z 36003KT 9999 FEW030 M10/M12 Q1018 RMK 1CU030     A3007=,
20180113_060000.002,1,RJCB,,,,0,20180113060000,-1,-1,-1,-1,999,-1,1,-1,-1,-1,-1,,9999,0,0,1,FEW 20,-1,9,-1,12,1018,RJCB 130600Z VRB01KT 9999 FEW020 M09/M12 Q1018 RMK 1CU020     A3008=,
20180113_070000.002,1,RJCB,,,,0,20180113070000,-1,-1,-1,-1,999,-1,1,-1,-1,-1,-1,,9999,0,0,1,FEW 20,-1,10,-1,12,1019,RJCB 130700Z VRB01KT 9999 FEW020 M10/M12 Q1019 RMK 1CU020     A3009=,
20180113_080000.002,1,RJCB,,,,0,20180113080000,-1,-1,-1,-1,999,-1,1,-1,-1,-1,-1,,9999,0,0,1,FEW 20,-1,14,-1,17,1019,RJCB 130800Z VRB01KT 9999 FEW020 M14/M17 Q1019 RMK 1CU020     A3010=,
20180113_090000.002,1,RJCB,,,,0,20180113090000,-1,-1,-1,-1,0,-1,0,-1,-1,-1,-1,,9999,0,0,1,FEW 20,-1,15,-1,16,1019,RJCB 130900Z 00000KT 9999 FEW020 M15/M16 Q1019 RMK 1CU020     A3011=,
20180113_100000.002,1,RJCB,,,,0,20180113100000,-1,-1,-1,-1,0,-1,0,-1,-1,-1,-1,,9999,0,0,1,FEW 20,-1,16,-1,18,1020,RJCB 131000Z 00000KT 9999 FEW020 M16/M18 Q1020 RMK 1CU020     A3013=,
20180113_110000.002,1,RJCB,,,,0,20180113110000,-1,-1,-1,-1,999,-1,1,-1,-1,-1,-1,,9999,0,0,1,FEW 20,-1,16,-1,18,1020,RJCB 131100Z VRB01KT 9999 FEW020 M16/M18 Q1020 RMK 1CU020     A3014=,
20180113_230000.002,1,RJCB,,,,0,20180113230000,-1,-1,-1,-1,0,-1,0,-1,-1,-1,-1,,9999,0,0,1,FEW 40,-1,19,-1,21,1025,RJCB 132300Z 00000KT 9999 FEW040 M19/M21 Q1025 RMK 1CU040     A3028=,
20180114_000000.003,1,RJCB,,,,0,20180114000000,-1,-1,-1,-1,0,-1,0,-1,-1,-1,-1,,9999,0,0,1,FEW 40,-1,16,-1,18,1026,RJCB 140000Z 00000KT 9999 FEW040 M16/M18 Q1026 RMK 1CU040     A3031=,
20180114_010000.002,1,RJCB,,,,0,20180114010000,-1,-1,-1,-1,350,-1,1,-1,-1,-1,-1,,9999,0,0,1,FEW 50,-1,12,-1,14,1026,RJCB 140100Z 35001KT 9999 FEW050 M12/M14 Q1026 RMK 1CU050     A3031=,
20180114_020000.002,1,RJCB,,,,0,20180114020000,-1,-1,-1,-1,999,-1,2,-1,-1,-1,-1,,9999,0,0,1,FEW 50,-1,10,-1,13,1026,RJCB 140200Z VRB02KT 9999 FEW050 M10/M13 Q1026 RMK 1CU050     A3030=,
20180114_030000.002,1,RJCB,,,,0,20180114030000,-1,-1,-1,-1,999,-1,2,-1,-1,-1,-1,,9999,0,0,1,FEW 50,-1,7,-1,12,1025,RJCB 140300Z VRB02KT 9999 FEW050 M07/M12 Q1025 RMK 1CU050     A3027=,
20180114_040000.002,1,RJCB,,,,0,20180114040000,-1,-1,-1,-1,160,-1,4,-1,-1,-1,-1,,9999,0,0,1,FEW 50,-1,6,-1,11,1024,RJCB 140400Z 16004KT 9999 FEW050 M06/M11 Q1024 RMK 1CU050     A3024=,
20180114_050000.002,1,RJCB,,,,0,20180114050000,-1,-1,-1,-1,150,-1,5,-1,-1,-1,-1,,9999,0,0,1,FEW 50,-1,5,-1,11,1024,RJCB 140500Z 15005KT 9999 FEW050 M05/M11 Q1024 RMK 1CU050     A3024=,
20180114_060000.003,1,RJCB,,,,0,20180114060000,-1,-1,-1,-1,999,-1,2,-1,-1,-1,-1,,9999,0,0,1,FEW 50,-1,4,-1,11,1024,RJCB 140600Z VRB02KT 9999 FEW050 M04/M11 Q1024 RMK 1CU050     A3025=,
20180114_070000.002,1,RJCB,,,,0,20180114070000,-1,-1,-1,-1,180,-1,4,-1,-1,150,210,,9999,0,0,1,FEW 50,-1,6,-1,11,1024,RJCB 140700Z 18004KT 150V210 9999 FEW050 M06/M11 Q1024 RMK     1CU050 A3025=,
20180114_080000.002,1,RJCB,,,,0,20180114080000,-1,-1,-1,-1,0,-1,0,-1,-1,-1,-1,,9999,0,0,1,FEW 40,-1,9,-1,12,1024,RJCB 140800Z 00000KT 9999 FEW040 M09/M12 Q1024 RMK 1CU040     A3026=,
20180114_090000.002,1,RJCB,,,,0,20180114090000,-1,-1,-1,-1,180,-1,2,-1,-1,-1,-1,,9999,0,0,1,FEW 40,-1,13,-1,14,1024,RJCB 140900Z 18002KT 9999 FEW040 M13/M14 Q1024 RMK 1CU040     A3025=,
20180114_100000.002,1,RJCB,,,,0,20180114100000,-1,-1,-1,-1,999,-1,1,-1,-1,-1,-1,,9999,0,0,1,FEW 40,-1,11,-1,12,1024,RJCB 141000Z VRB01KT 9999 FEW040 M11/M12 Q1024 RMK 1CU040     A3024=,
20180114_110000.002,1,RJCB,,,,0,20180114110000,-1,-1,-1,-1,999,-1,1,-1,-1,-1,-1,,9999,1,1,1,FEW 40,-1,14,-1,15,1023,RJCB 141100Z VRB01KT 9999 R35/1100VP1800D PRFG FEW040 M14/M15     Q1023 RMK 1CU040 A3023 2000S FG S=,PR FG
20180114_230000.002,1,RJCB,,,,0,20180114230000,-1,-1,-1,-1,999,-1,1,-1,-1,-1,-1,,9999,0,0,2,FEW 30   BKN 50,-1,16,-1,18,1018,RJCB 142300Z VRB01KT 9999 FEW030 BKN050 M16/M18 Q1018 RMK     1CU030 5CU050 A3008=,
20180115_000000.002,1,RJCB,,,,0,20180115000000,-1,-1,-1,-1,330,-1,3,-1,-1,-1,-1,,9999,0,1,2,FEW 20   BKN 40,-1,12,-1,14,1017,RJCB 150000Z 33003KT 9999 -SHSN FEW020 BKN040 M12/M14 Q1017     RMK 1CU020 6CU040 A3006=,- SN SH
20180115_010000.002,1,RJCB,,,,0,20180115010000,-1,-1,-1,-1,0,-1,0,-1,-1,-1,-1,,9999,0,0,3,FEW 20   SCT 40   BKN 150,-1,10,-1,12,1016,RJCB 150100Z 00000KT 9999 FEW020 SCT040 BKN150 M10/M12 Q1016     RMK 1CU020 3CU040 5AC150 A3001=,
20180115_020000.002,1,RJCB,,,,0,20180115020000,-1,-1,-1,-1,340,-1,5,-1,-1,-1,-1,,9999,0,0,2,FEW 20   SCT 50,-1,11,-1,14,1015,RJCB 150200Z 34005KT 9999 FEW020 SCT050 M11/M14 Q1015 RMK     1CU020 4CU050 A2998=,
20180115_030000.002,1,RJCB,,,,0,20180115030000,-1,-1,-1,-1,999,-1,1,-1,-1,-1,-1,,9999,0,0,1,FEW 20,-1,7,-1,11,1013,RJCB 150300Z VRB01KT 9999 FEW020 M07/M11 Q1013 RMK 1CU020     A2991 P/FR=,
20180115_040000.002,1,RJCB,,,,0,20180115040000,-1,-1,-1,-1,340,-1,3,-1,-1,280,20,,9999,0,1,3,FEW 12   SCT 30   BKN 50,-1,5,-1,9,1011,RJCB 150400Z 34003KT 280V020 9999 -SHSN FEW012 SCT030 BKN050     M05/M09 Q1011 RMK 1ST012 4CU030 6CU050 A2987=,- SN SH
20180115_050000.002,1,RJCB,,,,0,20180115050000,-1,-1,-1,-1,310,-1,3,-1,-1,250,340,,2300,0,1,3,FEW 7   BKN 8   BKN 30,-1,5,-1,7,1010,RJCB 150500Z 31003KT 250V340 2300 -SHSN FEW007 BKN008 BKN030     M05/M07 Q1010 RMK 1ST007 5ST008 7CU030 A2983=,- SN SH
20180115_060000.002,1,RJCB,,,,0,20180115060000,-1,-1,-1,-1,999,-1,2,-1,-1,-1,-1,,1400,1,1,2,FEW 5   BKN 8,-1,5,-1,6,1009,RJCB 150600Z VRB02KT 1400 R35/1700U -SHSN FEW005 BKN008     M05/M06 Q1009 RMK 1ST005 7ST008 A2982=,- SN SH
20180115_070000.003,1,RJCB,,,,0,20180115070000,-1,-1,-1,-1,340,-1,3,-1,-1,300,10,,2000,0,1,3,FEW 6   SCT 8   BKN 12,-1,4,-1,6,1009,RJCB 150700Z 34003KT 300V010 2000 -SHSN FEW006 SCT008 BKN012     M04/M06 Q1009 RMK 1ST006 4ST008 7ST012 A2981=,- SN SH
20180115_080000.002,1,RJCB,,,,0,20180115080000,-1,-1,-1,-1,0,-1,0,-1,-1,-1,-1,,8000,0,1,2,FEW 8   BKN 10,-1,4,-1,5,1009,RJCB 150800Z 00000KT 8000 -SHSN FEW008 BKN010 M04/M05 Q1009     RMK 1ST008 7ST010 A2980=,- SN SH
20180115_090000.002,1,RJCB,,,,0,20180115090000,-1,-1,-1,-1,999,-1,2,-1,-1,-1,-1,,9999,0,1,3,FEW 6   SCT 9   BKN 10,-1,5,-1,6,1009,RJCB 150900Z VRB02KT 9999 -SHSN FEW006 SCT009 BKN010 M05/M06     Q1009 RMK 1ST006 3ST009 7ST010 A2979=,- SN SH
20180115_100000.002,1,RJCB,,,,0,20180115100000,-1,-1,-1,-1,999,-1,1,-1,-1,-1,-1,,9999,0,0,3,FEW 4   BKN 5   BKN 10,-1,4,-1,5,1008,RJCB 151000Z VRB01KT 9999 FEW004 BKN005 BKN010 M04/M05 Q1008     RMK 1ST004 5ST005 7ST010 A2979=,
20180115_110000.002,1,RJCB,,,,0,20180115110000,-1,-1,-1,-1,999,-1,2,-1,-1,-1,-1,,8000,0,0,2,FEW 5   BKN 120,-1,6,-1,7,1007,RJCB 151100Z VRB02KT 8000 FEW005 BKN120 M06/M07 Q1007 RMK     1ST005 5AC120 A2976=,
20180115_230000.002,1,RJCB,,,,0,20180115230000,-1,-1,-1,-1,999,-1,2,-1,-1,-1,-1,,9999,0,0,1,FEW 40,-1,7,-1,12,1014,RJCB 152300Z VRB02KT 9999 FEW040 M07/M12 Q1014 RMK 1CU040     A2997=,
20180116_000000.002,1,RJCB,,,,0,20180116000000,-1,-1,-1,-1,130,-1,4,-1,-1,40,180,,9999,0,0,1,FEW 40,-1,6,-1,11,1015,RJCB 160000Z 13004KT 040V180 9999 FEW040 M06/M11 Q1015 RMK     1CU040 A2998=,
20180116_010000.002,1,RJCB,,,,0,20180116010000,-1,-1,-1,-1,150,-1,5,-1,-1,-1,-1,,9999,0,0,1,FEW 40,-1,4,-1,9,1015,RJCB 160100Z 15005KT 9999 FEW040 M04/M09 Q1015 RMK 1CU040     A2999=,
20180116_020000.002,1,RJCB,,,,0,20180116020000,-1,-1,-1,-1,100,-1,4,-1,-1,-1,-1,,9999,0,0,2,FEW 40   SCT -9999,-1,1,-1,8,1015,RJCB 160200Z 10004KT 9999 FEW040 SCT/// M01/M08 Q1015 RMK     1CU040 A2999=,
20180116_030000.002,1,RJCB,,,,0,20180116030000,-1,-1,-1,-1,120,-1,5,-1,-1,-1,-1,,9999,0,0,2,FEW 40   SCT -9999,1,0,-1,8,1014,RJCB 160300Z 12005KT 9999 FEW040 SCT/// 00/M08 Q1014 RMK     1CU040 A2997=,
20180116_040000.002,1,RJCB,,,,0,20180116040000,-1,-1,-1,-1,999,-1,2,-1,-1,-1,-1,,9999,0,0,1,FEW 40,1,0,-1,8,1014,RJCB 160400Z VRB02KT 9999 FEW040 00/M08 Q1014 RMK 1CU040     A2996=,
20180116_050000.002,1,RJCB,,,,0,20180116050000,-1,-1,-1,-1,120,-1,2,-1,-1,-1,-1,,9999,0,0,2,FEW 40   BKN -9999,-1,0,-1,9,1014,RJCB 160500Z 12002KT 9999 FEW040 BKN/// M00/M09 Q1014 RMK     1CU040 A2996=,
20180116_060000.002,1,RJCB,,,,0,20180116060000,-1,-1,-1,-1,0,-1,0,-1,-1,-1,-1,,9999,0,0,2,FEW 40   BKN -9999,-1,3,-1,8,1015,RJCB 160600Z 00000KT 9999 FEW040 BKN/// M03/M08 Q1015 RMK     1CU040 A2998=,
20180116_070000.002,1,RJCB,,,,0,20180116070000,-1,-1,-1,-1,80,-1,3,-1,-1,40,120,,9999,0,0,2,FEW 40   BKN -9999,-1,3,-1,9,1015,RJCB 160700Z 08003KT 040V120 9999 FEW040 BKN/// M03/M09 Q1015     RMK 1CU040 A2998=,
20180116_080000.002,1,RJCB,,,,0,20180116080000,-1,-1,-1,-1,999,-1,1,-1,-1,-1,-1,,9999,0,0,2,FEW 40   BKN -9999,-1,5,-1,10,1015,RJCB 160800Z VRB01KT 9999 FEW040 BKN/// M05/M10 Q1015 RMK     1CU040 A2998=,
20180116_090000.002,1,RJCB,,,,0,20180116090000,-1,-1,-1,-1,0,-1,0,-1,-1,-1,-1,,9999,0,0,2,FEW 40   BKN -9999,-1,6,-1,9,1015,RJCB 160900Z 00000KT 9999 FEW040 BKN/// M06/M09 Q1015 RMK     1CU040 A2999=,
20180116_100000.002,1,RJCB,,,,0,20180116100000,-1,-1,-1,-1,999,-1,1,-1,-1,-1,-1,,9999,0,0,2,FEW 40   BKN -9999,-1,7,-1,10,1015,RJCB 161000Z VRB01KT 9999 FEW040 BKN/// M07/M10 Q1015 RMK     1CU040 A2997=,
20180116_110000.004,1,RJCB,,,,0,20180116110000,-1,-1,-1,-1,999,-1,1,-1,-1,-1,-1,,9999,0,0,2,FEW 40   BKN -9999,-1,7,-1,10,1015,RJCB 161100Z VRB01KT 9999 FEW040 BKN/// M07/M10 Q1015 RMK     1CU040 A2997=,
20180116_230000.002,1,RJCB,,,,0,20180116230000,-1,-1,-1,-1,999,-1,1,-1,-1,-1,-1,,9999,0,2,1,FEW 30,-1,9,-1,10,1018,RJCB 162300Z VRB01KT 9999 BCFG BR FEW030 M09/M10 Q1018 RMK     1CU030 A3006 2000S=,BC FG; BR
20180117_000000.002,1,RJCB,,,,0,20180117000000,-1,-1,-1,-1,999,-1,1,-1,-1,-1,-1,,9999,0,0,1,FEW 30,-1,8,-1,10,1018,RJCB 170000Z VRB01KT 9999 FEW030 M08/M10 Q1018 RMK 1CU030     A3007=,
20180117_010000.002,1,RJCB,,,,0,20180117010000,-1,-1,-1,-1,999,-1,1,-1,-1,-1,-1,,9999,0,0,1,FEW 40,-1,4,-1,8,1018,RJCB 170100Z VRB01KT 9999 FEW040 M04/M08 Q1018 RMK 1CU040     A3008=,
20180117_020000.004,1,RJCB,,,,0,20180117020000,-1,-1,-1,-1,250,-1,3,-1,-1,190,300,,9999,0,0,1,FEW 40,-1,2,-1,8,1018,RJCB 170200Z 25003KT 190V300 9999 FEW040 M02/M08 Q1018 RMK     1CU040 A3008=,
20180117_030000.002,1,RJCB,,,,0,20180117030000,-1,-1,-1,-1,0,-1,0,-1,-1,-1,-1,,9999,0,0,2,FEW 40   SCT -9999,-1,2,-1,9,1018,RJCB 170300Z 00000KT 9999 FEW040 SCT/// M02/M09 Q1018 RMK     1CU040 A3006=,
20180117_040000.003,1,RJCB,,,,0,20180117040000,-1,-1,-1,-1,999,-1,2,-1,-1,-1,-1,,9999,0,0,2,FEW 40   BKN -9999,-1,1,-1,8,1018,RJCB 170400Z VRB02KT 9999 FEW040 BKN/// M01/M08 Q1018 RMK     1CU040 A3008=,
20180117_050000.003,1,RJCB,,,,0,20180117050000,-1,-1,-1,-1,180,-1,4,-1,-1,150,210,,9999,0,0,2,FEW 40   BKN -9999,-1,1,-1,7,1018,RJCB 170500Z 18004KT 150V210 9999 FEW040 BKN/// M01/M07 Q1018     RMK 1CU040 A3008=,
20180117_060000.002,1,RJCB,,,,0,20180117060000,-1,-1,-1,-1,170,-1,2,-1,-1,-1,-1,,9999,0,0,2,FEW 40   BKN -9999,-1,2,-1,7,1019,RJCB 170600Z 17002KT 9999 FEW040 BKN/// M02/M07 Q1019 RMK     1CU040 A3009=,
20180117_070000.002,1,RJCB,,,,0,20180117070000,-1,-1,-1,-1,999,-1,2,-1,-1,-1,-1,,9999,0,0,2,FEW 40   BKN -9999,-1,2,-1,6,1018,RJCB 170700Z VRB02KT 9999 FEW040 BKN/// M02/M06 Q1018 RMK     1CU040 A3008=,
20180117_080000.002,1,RJCB,,,,0,20180117080000,-1,-1,-1,-1,170,-1,3,-1,-1,-1,-1,,9999,0,0,2,SCT 40   BKN -9999,-1,4,-1,7,1019,RJCB 170800Z 17003KT 9999 SCT040 BKN/// M04/M07 Q1019 RMK     4CU040 A3010=,
20180117_090000.003,1,RJCB,,,,0,20180117090000,-1,-1,-1,-1,160,-1,3,-1,-1,-1,-1,,9999,0,0,1,BKN 40,-1,4,-1,6,1019,RJCB 170900Z 16003KT 9999 BKN040 M04/M06 Q1019 RMK 7CU040     A3011=,
20180117_100000.002,1,RJCB,,,,0,20180117100000,-1,-1,-1,-1,140,-1,4,-1,-1,-1,-1,,9999,0,0,2,SCT 40   BKN -9999,-1,4,-1,6,1019,RJCB 171000Z 14004KT 9999 SCT040 BKN/// M04/M06 Q1019 RMK     4CU040 A3011=,
20180117_110000.003,1,RJCB,,,,0,20180117110000,-1,-1,-1,-1,120,-1,3,-1,-1,-1,-1,,9999,0,0,2,FEW 40   BKN -9999,-1,5,-1,7,1019,RJCB 171100Z 12003KT 9999 FEW040 BKN/// M05/M07 Q1019 RMK     1CU040 A3010=,
20180117_230000.002,1,RJCB,,,,0,20180117230000,-1,-1,-1,-1,0,-1,0,-1,-1,-1,-1,,4900,0,1,2,FEW 6   BKN 30,-1,4,-1,5,1016,RJCB 172300Z 00000KT 4900 -SHSN FEW006 BKN030 M04/M05 Q1016     RMK 1ST006 7CU030 A3000=,- SN SH
20180118_000000.002,1,RJCB,,,,0,20180118000000,-1,-1,-1,-1,999,-1,1,-1,-1,-1,-1,,3000,0,1,2,FEW 15   BKN 30,-1,4,-1,5,1015,RJCB 180000Z VRB01KT 3000 -SHSN FEW015 BKN030 M04/M05 Q1015     RMK 1ST015 7CU030 A2999=,- SN SH
20180118_010000.002,1,RJCB,,,,0,20180118010000,-1,-1,-1,-1,999,-1,2,-1,-1,-1,-1,,3200,0,1,2,FEW 15   BKN 40,-1,3,-1,5,1015,RJCB 180100Z VRB02KT 3200 -SHSN FEW015 BKN040 M03/M05 Q1015     RMK 1ST015 7CU040 A2997=,- SN SH
20180118_020000.002,1,RJCB,,,,0,20180118020000,-1,-1,-1,-1,0,-1,0,-1,-1,-1,-1,,4000,0,1,2,FEW 10   SCT 40,-1,3,-1,5,1013,RJCB 180200Z 00000KT 4000 -SHSN FEW010 SCT040 M03/M05 Q1013     RMK 1ST010 4CU040 A2993=,- SN SH
20180118_030000.003,1,RJCB,,,,0,20180118030000,-1,-1,-1,-1,999,-1,1,-1,-1,-1,-1,,8000,0,0,3,FEW 10   SCT 50   BKN -9999,-1,2,-1,5,1012,RJCB 180300Z VRB01KT 8000 FEW010 SCT050 BKN/// M02/M05 Q1012     RMK 1ST010 4CU050 A2990=,
20180118_040000.002,1,RJCB,,,,0,20180118040000,-1,-1,-1,-1,340,-1,4,-1,-1,-1,-1,,8000,0,0,2,FEW 10   BKN 50,-1,2,-1,5,1011,RJCB 180400Z 34004KT 8000 FEW010 BKN050 M02/M05 Q1011 RMK     1ST010 6CU050 A2988=,
20180118_050000.002,1,RJCB,,,,0,20180118050000,-1,-1,-1,-1,350,-1,3,-1,-1,-1,-1,,8000,0,0,2,FEW 50   BKN -9999,-1,1,-1,4,1010,RJCB 180500Z 35003KT 8000 FEW050 BKN/// M01/M04 Q1010 RMK     2CU050 A2985=,
20180118_060000.002,1,RJCB,,,,0,20180118060000,-1,-1,-1,-1,350,-1,3,-1,-1,-1,-1,,8000,0,0,2,FEW 50   BKN -9999,-1,2,-1,5,1010,RJCB 180600Z 35003KT 8000 FEW050 BKN/// M02/M05 Q1010 RMK     1CU050 A2985=,
20180118_070000.002,1,RJCB,,,,0,20180118070000,-1,-1,-1,-1,350,-1,3,-1,-1,-1,-1,,9999,0,0,2,FEW 50   BKN -9999,-1,3,-1,5,1010,RJCB 180700Z 35003KT 9999 FEW050 BKN/// M03/M05 Q1010 RMK     2CU050 A2984=,
20180118_080000.002,1,RJCB,,,,0,20180118080000,-1,-1,-1,-1,999,-1,1,-1,-1,-1,-1,,9999,0,1,3,FEW 40   SCT 70   BKN -9999,-1,3,-1,5,1010,RJCB 180800Z VRB01KT 9999 -SHSN FEW040 SCT070 BKN/// M03/M05     Q1010 RMK 1CU040 3AC070 A2984=,- SN SH
20180118_090000.002,1,RJCB,,,,0,20180118090000,-1,-1,-1,-1,0,-1,0,-1,-1,-1,-1,,8000,0,1,2,FEW 40   BKN 60,-1,5,-1,7,1010,RJCB 180900Z 00000KT 8000 -SHSN FEW040 BKN060 M05/M07 Q1010     RMK 1CU040 7CU060 A2985=,- SN SH
20180118_100000.002,1,RJCB,,,,0,20180118100000,-1,-1,-1,-1,999,-1,1,-1,-1,-1,-1,,4900,0,1,2,FEW 40   BKN 50,-1,5,-1,6,1010,RJCB 181000Z VRB01KT 4900 BR FEW040 BKN050 M05/M06 Q1010 RMK     1CU040 7CU050 A2985=,BR
20180118_110000.002,1,RJCB,,,,0,20180118110000,-1,-1,-1,-1,999,-1,1,-1,-1,-1,-1,,3100,0,1,2,FEW 40   BKN 60,-1,7,-1,8,1010,RJCB 181100Z VRB01KT 3100 BR FEW040 BKN060 M07/M08 Q1010 RMK     1CU040 5CU060 A2983=,BR
20180118_230000.003,1,RJCB,,,,0,20180118230000,-1,-1,-1,-1,999,-1,1,-1,-1,-1,-1,,9999,0,0,1,FEW 40,-1,5,-1,8,1014,RJCB 182300Z VRB01KT 9999 FEW040 M05/M08 Q1014 RMK 1CU040     A2995=,
20180119_000000.002,1,RJCB,,,,0,20180119000000,-1,-1,-1,-1,999,-1,1,-1,-1,-1,-1,,9999,0,0,1,FEW 50,-1,4,-1,8,1014,RJCB 190000Z VRB01KT 9999 FEW050 M04/M08 Q1014 RMK 1CU050     A2996=,
20180119_010000.003,1,RJCB,,,,0,20180119010000,-1,-1,-1,-1,10,-1,3,-1,-1,-1,-1,,9999,0,0,1,FEW 50,-1,2,-1,9,1014,RJCB 190100Z 01003KT 9999 FEW050 M02/M09 Q1014 RMK 1CU050     A2997=,
20180119_020000.002,1,RJCB,,,,0,20180119020000,-1,-1,-1,-1,350,-1,9,-1,-1,-1,-1,,9999,0,0,1,FEW 50,-1,2,-1,9,1014,RJCB 190200Z 35009KT 9999 FEW050 M02/M09 Q1014 RMK 1CU050     A2996=,
20180119_030000.002,1,RJCB,,,,0,20180119030000,-1,-1,-1,-1,350,-1,14,-1,-1,-1,-1,,9999,0,0,1,FEW 50,-1,2,-1,9,1014,RJCB 190300Z 35014KT 9999 FEW050 M02/M09 Q1014 RMK 1CU050     A2995=,
20180119_040000.002,1,RJCB,,,,0,20180119040000,-1,-1,-1,-1,340,-1,14,-1,-1,-1,-1,,9999,0,0,1,FEW 50,-1,2,-1,9,1014,RJCB 190400Z 34014KT 9999 FEW050 M02/M09 Q1014 RMK 1CU050     A2995=,
20180119_050000.003,1,RJCB,,,,0,20180119050000,-1,-1,-1,-1,330,-1,11,-1,-1,-1,-1,,9999,0,0,1,FEW 50,-1,2,-1,8,1014,RJCB 190500Z 33011KT 9999 FEW050 M02/M08 Q1014 RMK 1CU050     A2995=,
20180119_060000.002,1,RJCB,,,,0,20180119060000,-1,-1,-1,-1,320,-1,6,-1,-1,260,350,,9999,0,0,1,FEW 50,-1,2,-1,9,1015,RJCB 190600Z 32006KT 260V350 9999 FEW050 M02/M09 Q1015 RMK     1CU050 A2998=,
20180119_070000.002,1,RJCB,,,,0,20180119070000,-1,-1,-1,-1,340,-1,13,-1,-1,-1,-1,,9999,0,0,1,FEW 50,-1,4,-1,10,1015,RJCB 190700Z 34013KT 9999 FEW050 M04/M10 Q1015 RMK 1CU050     A2999=,
20180119_080000.002,1,RJCB,,,,0,20180119080000,-1,-1,-1,-1,350,-1,9,-1,-1,-1,-1,,9999,0,0,1,FEW 40,-1,5,-1,10,1016,RJCB 190800Z 35009KT 9999 FEW040 M05/M10 Q1016 RMK 1CU040     A3000=,
20180119_090000.003,1,RJCB,,,,0,20180119090000,-1,-1,-1,-1,360,-1,5,-1,-1,310,10,,9999,0,0,1,FEW 40,-1,5,-1,10,1016,RJCB 190900Z 36005KT 310V010 9999 FEW040 M05/M10 Q1016 RMK     1CU040 A3002=,
20180119_100000.002,1,RJCB,,,,0,20180119100000,-1,-1,-1,-1,999,-1,2,-1,-1,-1,-1,,9999,0,0,1,FEW 40,-1,7,-1,10,1016,RJCB 191000Z VRB02KT 9999 FEW040 M07/M10 Q1016 RMK 1CU040     A3002=,
20180119_110000.002,1,RJCB,,,,0,20180119110000,-1,-1,-1,-1,290,-1,3,-1,-1,250,330,,9999,0,0,1,FEW 40,-1,9,-1,12,1016,RJCB 191100Z 29003KT 250V330 9999 FEW040 M09/M12 Q1016 RMK     1CU040 A3003=,
20180119_230000.002,1,RJCB,,,,0,20180119230000,-1,-1,-1,-1,0,-1,0,-1,-1,-1,-1,,9999,0,0,1,FEW 50,-1,18,-1,21,1016,RJCB 192300Z 00000KT 9999 FEW050 M18/M21 Q1016 RMK 1CU050     A3001=,
20180120_000000.002,1,RJCB,,,,0,20180120000000,-1,-1,-1,-1,320,-1,3,-1,-1,270,340,CAVOK,-1,0,0,0,,-1,14,-1,17,1016,RJCB 200000Z 32003KT 270V340 CAVOK M14/M17 Q1016 RMK A3002=,
20180120_010000.002,1,RJCB,,,,0,20180120010000,-1,-1,-1,-1,999,-1,1,-1,-1,-1,-1,CAVOK,-1,0,0,0,,-1,12,-1,16,1016,RJCB 200100Z VRB01KT CAVOK M12/M16 Q1016 RMK A3001=,
20180120_020000.003,1,RJCB,,,,0,20180120020000,-1,-1,-1,-1,0,-1,0,-1,-1,-1,-1,,9999,0,0,1,FEW 40,-1,9,-1,15,1015,RJCB 200200Z 00000KT 9999 FEW040 M09/M15 Q1015 RMK 1CU040     A2999=,
20180120_030000.002,1,RJCB,,,,0,20180120030000,-1,-1,-1,-1,350,-1,4,-1,-1,-1,-1,,9999,0,0,2,FEW 40   SCT 120,-1,9,-1,14,1014,RJCB 200300Z 35004KT 9999 FEW040 SCT120 M09/M14 Q1014 RMK     1CU040 3AC120 A2996=,
20180120_040000.002,1,RJCB,,,,0,20180120040000,-1,-1,-1,-1,350,-1,3,-1,-1,-1,-1,,9999,0,0,3,FEW 40   SCT 80   BKN -9999,-1,8,-1,14,1013,RJCB 200400Z 35003KT 9999 FEW040 SCT080 BKN/// M08/M14 Q1013     RMK 1CU040 3AC080 A2993=,
20180120_050000.002,1,RJCB,,,,0,20180120050000,-1,-1,-1,-1,350,-1,5,-1,-1,-1,-1,,9999,0,0,2,FEW 40   BKN 80,-1,7,-1,13,1012,RJCB 200500Z 35005KT 9999 FEW040 BKN080 M07/M13 Q1012 RMK     1CU040 6AC080 A2991=,
20180120_060000.002,1,RJCB,,,,0,20180120060000,-1,-1,-1,-1,340,-1,3,-1,-1,-1,-1,,9999,0,0,3,FEW 40   SCT 70   BKN 100,-1,7,-1,12,1012,RJCB 200600Z 34003KT 9999 FEW040 SCT070 BKN100 M07/M12 Q1012     RMK 1CU040 3AC070 6AC100 A2990=,
20180120_070000.002,1,RJCB,,,,0,20180120070000,-1,-1,-1,-1,999,-1,2,-1,-1,-1,-1,,9999,0,0,2,FEW 40   BKN 70,-1,8,-1,12,1012,RJCB 200700Z VRB02KT 9999 FEW040 BKN070 M08/M12 Q1012 RMK     1CU040 6AC070 A2989=,
20180120_080000.002,1,RJCB,,,,0,20180120080000,-1,-1,-1,-1,999,-1,1,-1,-1,-1,-1,,9999,0,0,2,FEW 40   BKN 60,-1,7,-1,11,1011,RJCB 200800Z VRB01KT 9999 FEW040 BKN060 M07/M11 Q1011 RMK     1CU040 7CU060 A2988=,
20180120_090000.002,1,RJCB,,,,0,20180120090000,-1,-1,-1,-1,0,-1,0,-1,-1,-1,-1,,9999,0,1,2,FEW 20   BKN 60,-1,7,-1,11,1011,RJCB 200900Z 00000KT 9999 -SHSN FEW020 BKN060 M07/M11 Q1011     RMK 1CU020 7CU060 A2987=,- SN SH
20180120_100000.002,1,RJCB,,,,0,20180120100000,-1,-1,-1,-1,999,-1,1,-1,-1,-1,-1,,6000,0,1,3,FEW 12   BKN 15   BKN 20,-1,7,-1,10,1010,RJCB 201000Z VRB01KT 6000 -SHSN FEW012 BKN015 BKN020 M07/M10     Q1010 RMK 1ST012 5ST015 7CU020 A2984=,- SN SH
20180120_110000.002,1,RJCB,,,,0,20180120110000,-1,-1,-1,-1,999,-1,2,-1,-1,-1,-1,,1400,1,1,2,FEW 4   BKN 10,-1,7,-1,9,1010,RJCB 201100Z VRB02KT 1400 R35/P1800N -SHSN FEW004 BKN010     M07/M09 Q1010 RMK 1ST004 7ST010 A2983=,- SN SH
20180120_230000.002,1,RJCB,,,,0,20180120230000,-1,-1,-1,-1,999,-1,2,-1,-1,-1,-1,,9999,0,0,1,FEW 40,-1,7,-1,14,1010,RJCB 202300Z VRB02KT 9999 FEW040 M07/M14 Q1010 RMK 1CU040     A2982=,
20180121_000000.002,1,RJCB,,,,0,20180121000000,-1,-1,-1,-1,60,-1,4,-1,-1,-1,-1,,9999,0,0,1,FEW 40,-1,6,-1,14,1009,RJCB 210000Z 06004KT 9999 FEW040 M06/M14 Q1009 RMK 1CU040     A2982=,
20180121_010000.002,1,RJCB,,,,0,20180121010000,-1,-1,-1,-1,10,-1,10,-1,-1,-1,-1,,9999,0,0,1,FEW 40,-1,5,-1,14,1010,RJCB 210100Z 01010KT 9999 FEW040 M05/M14 Q1010 RMK 1CU040     A2983=,
20180121_020000.002,1,RJCB,,,,0,20180121020000,-1,-1,-1,-1,350,-1,10,-1,-1,-1,-1,,9999,0,0,1,FEW 40,-1,5,-1,15,1009,RJCB 210200Z 35010KT 9999 FEW040 M05/M15 Q1009 RMK 1CU040     A2981=,
20180121_030000.002,1,RJCB,,,,0,20180121030000,-1,-1,-1,-1,350,-1,12,-1,-1,-1,-1,,9999,0,0,1,FEW 40,-1,4,-1,15,1008,RJCB 210300Z 35012KT 9999 FEW040 M04/M15 Q1008 RMK 1CU040     A2978=,
20180121_040000.003,1,RJCB,,,,0,20180121040000,-1,-1,-1,-1,360,-1,10,-1,-1,-1,-1,,9999,0,0,1,FEW 50,-1,5,-1,14,1008,RJCB 210400Z 36010KT 9999 FEW050 M05/M14 Q1008 RMK 1CU050     A2977=,
20180121_050000.002,1,RJCB,,,,0,20180121050000,-1,-1,-1,-1,10,-1,7,-1,-1,-1,-1,,9999,0,0,1,FEW 50,-1,4,-1,15,1008,RJCB 210500Z 01007KT 9999 FEW050 M04/M15 Q1008 RMK 1CU050     A2977=,
20180121_060000.002,1,RJCB,,,,0,20180121060000,-1,-1,-1,-1,999,-1,2,-1,-1,-1,-1,,9999,0,0,1,FEW 50,-1,5,-1,17,1008,RJCB 210600Z VRB02KT 9999 FEW050 M05/M17 Q1008 RMK 1CU050     A2977=,
20180121_070000.002,1,RJCB,,,,0,20180121070000,-1,-1,-1,-1,999,-1,1,-1,-1,-1,-1,,9999,0,0,1,FEW 40,-1,5,-1,16,1008,RJCB 210700Z VRB01KT 9999 FEW040 M05/M16 Q1008 RMK 1CU040     A2978=,
20180121_080000.002,1,RJCB,,,,0,20180121080000,-1,-1,-1,-1,300,-1,3,-1,-1,200,350,,9999,0,0,1,FEW 40,-1,6,-1,18,1009,RJCB 210800Z 30003KT 200V350 9999 FEW040 M06/M18 Q1009 RMK     1CU040 A2980=,
20180121_090000.002,1,RJCB,,,,0,20180121090000,-1,-1,-1,-1,290,-1,5,-1,-1,230,340,,9999,0,0,1,FEW 40,-1,7,-1,20,1010,RJCB 210900Z 29005KT 230V340 9999 FEW040 M07/M20 Q1010 RMK     1CU040 A2982=,
20180121_100000.002,1,RJCB,,,,0,20180121100000,-1,-1,-1,-1,290,-1,7,-1,19,210,340,,9999,0,0,1,FEW 40,-1,8,-1,19,1010,RJCB 211000Z 29007G19KT 210V340 9999 FEW040 M08/M19 Q1010 RMK     1CU040 A2985=,
20180121_110000.002,1,RJCB,,,,0,20180121110000,-1,-1,-1,-1,290,-1,7,-1,17,240,340,,9999,0,0,1,FEW 40,-1,9,-1,20,1011,RJCB 211100Z 29007G17KT 240V340 9999 FEW040 M09/M20 Q1011 RMK     1CU040 A2987=,
20180121_230000.002,1,RJCB,,,,0,20180121230000,-1,-1,-1,-1,999,-1,2,-1,-1,-1,-1,,9999,0,0,1,FEW 40,-1,8,-1,20,1017,RJCB 212300Z VRB02KT 9999 FEW040 M08/M20 Q1017 RMK 1CU040     A3004=,
20180122_000000.002,1,RJCB,,,,0,20180122000000,-1,-1,-1,-1,999,-1,2,-1,-1,-1,-1,,9999,0,0,1,FEW 40,-1,6,-1,21,1018,RJCB 220000Z VRB02KT 9999 FEW040 M06/M21 Q1018 RMK 1CU040     A3006=,
20180122_010000.002,1,RJCB,,,,0,20180122010000,-1,-1,-1,-1,90,-1,5,-1,-1,70,130,,9999,0,0,1,FEW 40,-1,7,-1,19,1018,RJCB 220100Z 09005KT 070V130 9999 FEW040 M07/M19 Q1018 RMK     1CU040 A3007=,
20180122_020000.002,1,RJCB,,,,0,20180122020000,-1,-1,-1,-1,140,-1,5,-1,-1,-1,-1,,9999,0,0,1,FEW 50,-1,6,-1,20,1017,RJCB 220200Z 14005KT 9999 FEW050 M06/M20 Q1017 RMK 1CU050     A3005=,
20180122_030000.002,1,RJCB,,,,0,20180122030000,-1,-1,-1,-1,170,-1,3,-1,-1,120,260,,9999,0,0,1,FEW 50,-1,5,-1,17,1017,RJCB 220300Z 17003KT 120V260 9999 FEW050 M05/M17 Q1017 RMK     1CU050 A3005=,
20180122_040000.002,1,RJCB,,,,0,20180122040000,-1,-1,-1,-1,999,-1,2,-1,-1,-1,-1,,9999,0,0,2,FEW 50   SCT -9999,-1,5,-1,18,1017,RJCB 220400Z VRB02KT 9999 FEW050 SCT/// M05/M18 Q1017 RMK     1CU050 A3003=,
20180122_050000.002,1,RJCB,,,,0,20180122050000,-1,-1,-1,-1,150,-1,3,-1,-1,-1,-1,,9999,0,0,2,FEW 50   SCT -9999,-1,5,-1,19,1016,RJCB 220500Z 15003KT 9999 FEW050 SCT/// M05/M19 Q1016 RMK     1CU050 A3003=,
20180122_060000.003,1,RJCB,,,,0,20180122060000,-1,-1,-1,-1,160,-1,2,-1,-1,-1,-1,,9999,0,0,2,FEW 50   BKN -9999,-1,5,-1,19,1017,RJCB 220600Z 16002KT 9999 FEW050 BKN/// M05/M19 Q1017 RMK     1CU050 A3004=,
20180122_070000.002,1,RJCB,,,,0,20180122070000,-1,-1,-1,-1,999,-1,1,-1,-1,-1,-1,,9999,0,0,2,FEW 50   SCT -9999,-1,6,-1,19,1016,RJCB 220700Z VRB01KT 9999 FEW050 SCT/// M06/M19 Q1016 RMK     1CU050 A3003=,
20180122_080000.003,1,RJCB,,,,0,20180122080000,-1,-1,-1,-1,0,-1,0,-1,-1,-1,-1,,9999,0,0,2,FEW 50   SCT -9999,-1,9,-1,18,1017,RJCB 220800Z 00000KT 9999 FEW050 SCT/// M09/M18 Q1017 RMK     1CU050 A3004=,
20180122_090000.002,1,RJCB,,,,0,20180122090000,-1,-1,-1,-1,350,-1,1,-1,-1,-1,-1,,9999,0,0,2,FEW 50   BKN 160,-1,12,-1,18,1017,RJCB 220900Z 35001KT 9999 FEW050 BKN160 M12/M18 Q1017 RMK     1CU050 6AC160 A3003=,
20180122_100000.002,1,RJCB,,,,0,20180122100000,-1,-1,-1,-1,999,-1,1,-1,-1,-1,-1,,9999,0,0,3,FEW 50   SCT 160   BKN -9999,-1,13,-1,19,1018,RJCB 221000Z VRB01KT 9999 FEW050 SCT160 BKN/// M13/M19 Q1018     RMK 1CU050 3AC160 A3006=,
20180122_110000.003,1,RJCB,,,,0,20180122110000,-1,-1,-1,-1,0,-1,0,-1,-1,-1,-1,,9999,0,0,2,FEW 50   BKN -9999,-1,13,-1,19,1018,RJCB 221100Z 00000KT 9999 FEW050 BKN/// M13/M19 Q1018 RMK     1CU050 A3006=,
20180122_230000.003,1,RJCB,,,,0,20180122230000,-1,-1,-1,-1,350,-1,5,-1,-1,-1,-1,,6000,0,1,1,BKN 18,-1,10,-1,13,1008,RJCB 222300Z 35005KT 6000 -SN BKN018 M10/M13 Q1008 RMK 7ST018     A2979=,- SN
20180123_000000.002,1,RJCB,,,,0,20180123000000,-1,-1,-1,-1,320,-1,3,-1,-1,270,10,,4900,0,1,1,BKN 20,-1,9,-1,11,1007,RJCB 230000Z 32003KT 270V010 4900 -SN BKN020 M09/M11 Q1007 RMK     7ST020 A2975=,- SN
20180123_010000.002,1,RJCB,,,,0,20180123010000,-1,-1,-1,-1,340,-1,5,-1,-1,-1,-1,,3100,0,1,1,BKN 20,-1,8,-1,10,1006,RJCB 230100Z 34005KT 3100 -SN BKN020 M08/M10 Q1006 RMK 7ST020     A2971=,- SN
20180123_020000.002,1,RJCB,,,,0,20180123020000,-1,-1,-1,-1,340,-1,6,-1,-1,270,350,,5000,0,1,2,FEW 15   BKN 20,-1,7,-1,9,1004,RJCB 230200Z 34006KT 270V350 5000 -SHSN FEW015 BKN020 M07/M09     Q1004 RMK 1ST015 7CU020 A2966=,- SN SH
20180123_030000.003,1,RJCB,,,,0,20180123030000,-1,-1,-1,-1,330,-1,6,-1,-1,-1,-1,,6000,0,1,2,FEW 15   BKN 20,-1,6,-1,8,1002,RJCB 230300Z 33006KT 6000 -SHSN FEW015 BKN020 M06/M08 Q1002     RMK 1ST015 7CU020 A2960=,- SN SH
20180123_040000.003,1,RJCB,,,,0,20180123040000,-1,-1,-1,-1,350,-1,5,-1,-1,-1,-1,,3000,0,1,2,FEW 15   BKN 20,-1,6,-1,8,1000,RJCB 230400Z 35005KT 3000 -SHSN FEW015 BKN020 M06/M08 Q1000     RMK 1ST015 7CU020 A2953=,- SN SH
20180123_050000.002,1,RJCB,,,,0,20180123050000,-1,-1,-1,-1,350,-1,4,-1,-1,-1,-1,,4900,0,1,2,FEW 15   BKN 20,-1,6,-1,7,999,RJCB 230500Z 35004KT 4900 -SHSN FEW015 BKN020 M06/M07 Q0999     RMK 1ST015 7CU020 A2952=,- SN SH
20180123_060000.003,1,RJCB,,,,0,20180123060000,-1,-1,-1,-1,340,-1,3,-1,-1,-1,-1,,3500,0,1,3,FEW 10   BKN 15   BKN 20,-1,6,-1,7,999,RJCB 230600Z 34003KT 3500 -SHSN FEW010 BKN015 BKN020 M06/M07     Q0999 RMK 1ST010 5ST015 7CU020 A2950=,- SN SH
20180123_070000.002,1,RJCB,,,,0,20180123070000,-1,-1,-1,-1,999,-1,2,-1,-1,-1,-1,,3000,0,1,2,FEW 10   BKN 15,-1,6,-1,7,998,RJCB 230700Z VRB02KT 3000 -SHSN FEW010 BKN015 M06/M07 Q0998     RMK 1ST010 7ST015 A2949=,- SN SH
20180123_080000.002,1,RJCB,,,,0,20180123080000,-1,-1,-1,-1,999,-1,1,-1,-1,-1,-1,,800,1,1,1,VV 4,-1,5,-1,7,998,RJCB 230800Z VRB01KT 0800 R35/1000VP1800D SHSN VV004 M05/M07     Q0998 RMK A2948=,SN SH
20180123_090000.002,1,RJCB,,,,0,20180123090000,-1,-1,-1,-1,0,-1,0,-1,-1,-1,-1,,1000,1,1,1,VV 4,-1,5,-1,6,997,RJCB 230900Z 00000KT 1000 R35/P1800N -SHSN VV004 M05/M06 Q0997     RMK A2947=,- SN SH
20180123_100000.002,1,RJCB,,,,0,20180123100000,-1,-1,-1,-1,90,-1,1,-1,-1,-1,-1,,1400,1,1,2,FEW 4   BKN 5,-1,5,-1,6,997,RJCB 231000Z 09001KT 1400 R35/P1800N -SHSN FEW004 BKN005     M05/M06 Q0997 RMK 1ST004 6ST005 A2945=,- SN SH
20180123_110000.002,1,RJCB,,,,0,20180123110000,-1,-1,-1,-1,999,-1,1,-1,-1,-1,-1,,1000,1,1,2,SCT 5   BKN 6,-1,5,-1,6,996,RJCB 231100Z VRB01KT 1000 R35/P1800N -SHSN SCT005 BKN006     M05/M06 Q0996 RMK 3ST005 7ST006 A2942=,- SN SH
20180123_230000.002,1,RJCB,,,,0,20180123230000,-1,-1,-1,-1,0,-1,0,-1,-1,-1,-1,,9999,0,0,2,FEW 30   SCT 60,-1,11,-1,12,997,RJCB 232300Z 00000KT 9999 FEW030 SCT060 M11/M12 Q0997 RMK     1CU030 4CU060 A2945=,
20180124_000000.002,1,RJCB,,,,0,20180124000000,-1,-1,-1,-1,999,-1,2,-1,-1,-1,-1,,9999,0,0,2,FEW 20   BKN 40,-1,10,-1,11,997,RJCB 240000Z VRB02KT 9999 FEW020 BKN040 M10/M11 Q0997 RMK     1CU020 5CU040 A2946=,
20180124_010000.003,1,RJCB,,,,0,20180124010000,-1,-1,-1,-1,999,-1,2,-1,-1,-1,-1,,9999,0,0,2,FEW 15   SCT 30,-1,8,-1,12,997,RJCB 240100Z VRB02KT 9999 FEW015 SCT030 M08/M12 Q0997 RMK     1ST015 4CU030 A2946=,
20180124_020000.002,1,RJCB,,,,0,20180124020000,-1,-1,-1,-1,999,-1,1,-1,-1,-1,-1,,9999,0,0,2,FEW 20   SCT 60,-1,6,-1,13,997,RJCB 240200Z VRB01KT 9999 FEW020 SCT060 M06/M13 Q0997 RMK     1CU020 3CU060 A2944=,
20180124_030000.002,1,RJCB,,,,0,20180124030000,-1,-1,-1,-1,999,-1,3,-1,-1,-1,-1,,9999,0,0,2,FEW 20   SCT 60,-1,5,-1,17,995,RJCB 240300Z VRB03KT 9999 FEW020 SCT060 M05/M17 Q0995 RMK     1CU020 3CU060 A2940=,
20180124_040000.002,1,RJCB,,,,0,20180124040000,-1,-1,-1,-1,200,-1,4,-1,-1,120,280,,9999,0,0,2,FEW 20   SCT 60,-1,5,-1,16,995,RJCB 240400Z 20004KT 120V280 9999 FEW020 SCT060 M05/M16 Q0995     RMK 1CU020 4CU060 A2940=,
20180124_050000.002,1,RJCB,,,,0,20180124050000,-1,-1,-1,-1,180,-1,5,-1,-1,150,210,,9999,0,1,2,FEW 20   BKN 40,-1,6,-1,11,995,RJCB 240500Z 18005KT 150V210 9999 -SHSN FEW020 BKN040 M06/M11     Q0995 RMK 1CU020 7CU040 A2939=,- SN SH
20180124_060000.002,1,RJCB,,,,0,20180124060000,-1,-1,-1,-1,160,-1,6,-1,-1,130,200,,6000,0,1,2,FEW 15   BKN 40,-1,7,-1,10,995,RJCB 240600Z 16006KT 130V200 6000 -SHSN FEW015 BKN040 M07/M10     Q0995 RMK 1ST015 6CU040 A2939=,- SN SH
20180124_070000.002,1,RJCB,,,,0,20180124070000,-1,-1,-1,-1,999,-1,2,-1,-1,-1,-1,,9999,0,1,2,FEW 15   BKN 50,-1,9,-1,11,995,RJCB 240700Z VRB02KT 9999 -SHSN FEW015 BKN050 M09/M11 Q0995     RMK 1ST015 5CU050 A2940=,- SN SH
20180124_080000.002,1,RJCB,,,,0,20180124080000,-1,-1,-1,-1,999,-1,1,-1,-1,-1,-1,,9999,0,0,2,FEW 20   SCT 80,-1,10,-1,12,996,RJCB 240800Z VRB01KT 9999 FEW020 SCT080 M10/M12 Q0996 RMK     1CU020 3AC080 A2941=,
20180124_090000.003,1,RJCB,,,,0,20180124090000,-1,-1,-1,-1,330,-1,3,-1,-1,-1,-1,,9999,0,0,1,FEW 20,-1,12,-1,14,996,RJCB 240900Z 33003KT 9999 FEW020 M12/M14 Q0996 RMK 1CU020     A2943=,
20180124_100000.002,1,RJCB,,,,0,20180124100000,-1,-1,-1,-1,310,-1,5,-1,-1,270,340,,9999,0,0,1,FEW 20,-1,13,-1,20,997,RJCB 241000Z 31005KT 270V340 9999 FEW020 M13/M20 Q0997 RMK     1CU020 A2944=,
20180124_110000.002,1,RJCB,,,,0,20180124110000,-1,-1,-1,-1,340,-1,6,-1,-1,-1,-1,,9999,0,0,1,FEW 20,-1,13,-1,19,997,RJCB 241100Z 34006KT 9999 FEW020 M13/M19 Q0997 RMK 1CU020     A2944=,
20180124_230000.002,1,RJCB,,,,0,20180124230000,-1,-1,-1,-1,210,-1,2,-1,-1,-1,-1,,9999,0,0,2,FEW 40   BKN 150,-1,17,-1,24,994,RJCB 242300Z 21002KT 9999 FEW040 BKN150 M17/M24 Q0994 RMK     1CU040 7AC150 A2937=,
20180125_000000.002,1,RJCB,,,,0,20180125000000,-1,-1,-1,-1,999,-1,1,-1,-1,-1,-1,,9999,0,0,3,FEW 40   SCT 60   BKN -9999,-1,14,-1,21,994,RJCB 250000Z VRB01KT 9999 FEW040 SCT060 BKN/// M14/M21 Q0994     RMK 1CU040 3CU060 A2937=,
20180125_010000.002,1,RJCB,,,,0,20180125010000,-1,-1,-1,-1,140,-1,4,-1,-1,-1,-1,,9999,0,0,2,FEW 40   BKN -9999,-1,11,-1,19,993,RJCB 250100Z 14004KT 9999 FEW040 BKN/// M11/M19 Q0993 RMK     1CU040 A2935=,
20180125_020000.003,1,RJCB,,,,0,20180125020000,-1,-1,-1,-1,150,-1,2,-1,-1,-1,-1,,9999,0,0,2,FEW 40   BKN 60,-1,8,-1,18,993,RJCB 250200Z 15002KT 9999 FEW040 BKN060 M08/M18 Q0993 RMK     1CU040 5CU060 A2933=,
20180125_030000.002,1,RJCB,,,,0,20180125030000,-1,-1,-1,-1,999,-1,1,-1,-1,-1,-1,,9999,0,0,2,FEW 40   BKN 60,-1,5,-1,16,992,RJCB 250300Z VRB01KT 9999 FEW040 BKN060 M05/M16 Q0992 RMK     1CU040 5CU060 A2930=,
20180125_040000.002,1,RJCB,,,,0,20180125040000,-1,-1,-1,-1,999,-1,7,-1,-1,-1,-1,,9999,0,0,2,FEW 40   BKN -9999,-1,4,-1,16,991,RJCB 250400Z VRB07KT 9999 FEW040 BKN/// M04/M16 Q0991 RMK     1CU040 A2928=,
20180125_050000.002,1,RJCB,,,,0,20180125050000,-1,-1,-1,-1,320,-1,6,-1,-1,280,350,,9999,0,0,2,FEW 40   SCT -9999,-1,4,-1,16,991,RJCB 250500Z 32006KT 280V350 9999 FEW040 SCT/// M04/M16 Q0991     RMK 1CU040 A2929=,
20180125_060000.002,1,RJCB,,,,0,20180125060000,-1,-1,-1,-1,310,-1,5,-1,-1,260,350,,9999,0,0,1,FEW 40,-1,5,-1,16,991,RJCB 250600Z 31005KT 260V350 9999 FEW040 M05/M16 Q0991 RMK     1CU040 A2929=,
20180125_070000.002,1,RJCB,,,,0,20180125070000,-1,-1,-1,-1,330,-1,8,-1,-1,290,350,,9999,0,0,2,FEW 30   SCT 50,-1,6,-1,15,991,RJCB 250700Z 33008KT 290V350 9999 FEW030 SCT050 M06/M15 Q0991     RMK 1CU030 3CU050 A2929=,
20180125_080000.002,1,RJCB,,,,0,20180125080000,-1,-1,-1,-1,310,-1,4,-1,-1,210,350,,9999,0,0,1,FEW 30,-1,7,-1,16,992,RJCB 250800Z 31004KT 210V350 9999 FEW030 M07/M16 Q0992 RMK     1CU030 A2930=,
20180125_090000.002,1,RJCB,,,,0,20180125090000,-1,-1,-1,-1,290,-1,3,-1,-1,230,340,,9999,0,0,1,FEW 30,-1,8,-1,16,992,RJCB 250900Z 29003KT 230V340 9999 FEW030 M08/M16 Q0992 RMK     1CU030 A2930=,
20180125_100000.003,1,RJCB,,,,0,20180125100000,-1,-1,-1,-1,320,-1,5,-1,-1,260,350,,9999,0,0,1,FEW 30,-1,8,-1,16,992,RJCB 251000Z 32005KT 260V350 9999 FEW030 M08/M16 Q0992 RMK     1CU030 A2931=,
20180125_110000.003,1,RJCB,,,,0,20180125110000,-1,-1,-1,-1,999,-1,2,-1,-1,-1,-1,,9999,0,0,1,FEW 30,-1,12,-1,18,992,RJCB 251100Z VRB02KT 9999 FEW030 M12/M18 Q0992 RMK 1CU030     A2930=,
20180125_230000.002,1,RJCB,,,,0,20180125230000,-1,-1,-1,-1,340,-1,3,-1,-1,310,20,,9999,0,0,2,FEW 30   SCT 140,-1,8,-1,14,994,RJCB 252300Z 34003KT 310V020 9999 FEW030 SCT140 M08/M14 Q0994     RMK 1CU030 3AC140 A2936=,
20180126_000000.002,1,RJCB,,,,0,20180126000000,-1,-1,-1,-1,290,-1,3,-1,-1,220,340,,9999,0,0,2,FEW 40   BKN 80,-1,5,-1,13,994,RJCB 260000Z 29003KT 220V340 9999 FEW040 BKN080 M05/M13 Q0994     RMK 1CU040 6AC080 A2938=,
20180126_010000.002,1,RJCB,,,,0,20180126010000,-1,-1,-1,-1,330,-1,8,-1,-1,-1,-1,,9999,0,0,1,FEW 40,-1,4,-1,13,995,RJCB 260100Z 33008KT 9999 FEW040 M04/M13 Q0995 RMK 1CU040     A2939=,
20180126_020000.002,1,RJCB,,,,0,20180126020000,-1,-1,-1,-1,320,-1,10,-1,-1,250,340,,9999,0,0,1,FEW 40,-1,4,-1,12,995,RJCB 260200Z 32010KT 250V340 9999 FEW040 M04/M12 Q0995 RMK     1CU040 A2938=,
20180126_030000.002,1,RJCB,,,,0,20180126030000,-1,-1,-1,-1,330,-1,13,-1,-1,-1,-1,,9999,0,0,1,FEW 40,-1,4,-1,11,994,RJCB 260300Z 33013KT 9999 FEW040 M04/M11 Q0994 RMK 1CU040     A2938=,
20180126_040000.002,1,RJCB,,,,0,20180126040000,-1,-1,-1,-1,330,-1,11,-1,-1,-1,-1,,9999,0,0,1,FEW 40,-1,4,-1,12,994,RJCB 260400Z 33011KT 9999 FEW040 M04/M12 Q0994 RMK 1CU040     A2938=,
20180126_050000.002,1,RJCB,,,,0,20180126050000,-1,-1,-1,-1,330,-1,10,-1,-1,-1,-1,,9999,0,0,1,FEW 30,-1,4,-1,11,995,RJCB 260500Z 33010KT 9999 FEW030 M04/M11 Q0995 RMK 1CU030     A2939=,
20180126_060000.002,1,RJCB,,,,0,20180126060000,-1,-1,-1,-1,330,-1,9,-1,-1,-1,-1,,9999,0,0,2,FEW 30   SCT 60,-1,4,-1,11,995,RJCB 260600Z 33009KT 9999 FEW030 SCT060 M04/M11 Q0995 RMK     1CU030 3CU060 A2940=,
20180126_070000.002,1,RJCB,,,,0,20180126070000,-1,-1,-1,-1,330,-1,6,-1,-1,-1,-1,,9999,0,0,1,FEW 20,-1,6,-1,12,996,RJCB 260700Z 33006KT 9999 FEW020 M06/M12 Q0996 RMK 1CU020     A2942=,
20180126_080000.003,1,RJCB,,,,0,20180126080000,-1,-1,-1,-1,999,-1,2,-1,-1,-1,-1,,9999,0,0,1,FEW 30,-1,7,-1,11,997,RJCB 260800Z VRB02KT 9999 FEW030 M07/M11 Q0997 RMK 1CU030     A2944=,
20180126_090000.002,1,RJCB,,,,0,20180126090000,-1,-1,-1,-1,999,-1,1,-1,-1,-1,-1,,9999,0,0,1,FEW 30,-1,8,-1,13,997,RJCB 260900Z VRB01KT 9999 FEW030 M08/M13 Q0997 RMK 1CU030     A2946=,
20180126_100000.002,1,RJCB,,,,0,20180126100000,-1,-1,-1,-1,290,-1,3,-1,-1,240,330,,9999,0,0,1,FEW 30,-1,8,-1,14,998,RJCB 261000Z 29003KT 240V330 9999 FEW030 M08/M14 Q0998 RMK     1CU030 A2947=,
20180126_110000.002,1,RJCB,,,,0,20180126110000,-1,-1,-1,-1,280,-1,3,-1,-1,240,320,,9999,0,0,1,FEW 30,-1,8,-1,14,998,RJCB 261100Z 28003KT 240V320 9999 FEW030 M08/M14 Q0998 RMK     1CU030 A2949=,
20180126_230000.002,1,RJCB,,,,0,20180126230000,-1,-1,-1,-1,999,-1,2,-1,-1,-1,-1,,9999,0,0,3,FEW 30   SCT 60   BKN 90,-1,12,-1,17,1002,RJCB 262300Z VRB02KT 9999 FEW030 SCT060 BKN090 M12/M17 Q1002     RMK 1CU030 4CU060 6AC090 A2961=,
20180127_000000.002,1,RJCB,,,,0,20180127000000,-1,-1,-1,-1,0,-1,0,-1,-1,-1,-1,,9999,0,0,3,FEW 30   SCT 40   BKN 60,-1,10,-1,15,1003,RJCB 270000Z 00000KT 9999 FEW030 SCT040 BKN060 M10/M15 Q1003     RMK 1CU030 3CU040 6CU060 A2962=,
20180127_010000.002,1,RJCB,,,,0,20180127010000,-1,-1,-1,-1,999,-1,1,-1,-1,-1,-1,,9999,0,0,3,FEW 30   SCT 60   BKN 120,-1,5,-1,14,1003,RJCB 270100Z VRB01KT 9999 FEW030 SCT060 BKN120 M05/M14 Q1003     RMK 1CU030 3CU060 5AC120 A2963=,
20180127_020000.002,1,RJCB,,,,0,20180127020000,-1,-1,-1,-1,999,-1,1,-1,-1,-1,-1,,9999,0,0,2,FEW 40   BKN 150,-1,4,-1,11,1003,RJCB 270200Z VRB01KT 9999 FEW040 BKN150 M04/M11 Q1003 RMK     1CU040 6AC150 A2962=,
20180127_030000.002,1,RJCB,,,,0,20180127030000,-1,-1,-1,-1,340,-1,5,-1,-1,-1,-1,,9999,0,0,3,FEW 40   SCT 150   BKN -9999,-1,3,-1,10,1002,RJCB 270300Z 34005KT 9999 FEW040 SCT150 BKN/// M03/M10 Q1002     RMK 1CU040 3AC150 A2961=,
20180127_040000.002,1,RJCB,,,,0,20180127040000,-1,-1,-1,-1,330,-1,5,-1,-1,250,360,,9999,0,0,2,FEW 50   SCT -9999,-1,2,-1,11,1002,RJCB 270400Z 33005KT 250V360 9999 FEW050 SCT/// M02/M11 Q1002     RMK 1CU050 A2961=,
20180127_050000.002,1,RJCB,,,,0,20180127050000,-1,-1,-1,-1,340,-1,9,-1,-1,-1,-1,,9999,0,0,2,FEW 50   SCT -9999,-1,2,-1,12,1003,RJCB 270500Z 34009KT 9999 FEW050 SCT/// M02/M12 Q1003 RMK     1CU050 A2962=,
20180127_060000.002,1,RJCB,,,,0,20180127060000,-1,-1,-1,-1,330,-1,9,-1,-1,-1,-1,,9999,0,0,1,FEW 50,-1,3,-1,12,1003,RJCB 270600Z 33009KT 9999 FEW050 M03/M12 Q1003 RMK 1CU050     A2963=,
20180127_070000.002,1,RJCB,,,,0,20180127070000,-1,-1,-1,-1,330,-1,11,-1,-1,-1,-1,,9999,0,0,1,FEW 40,-1,4,-1,11,1004,RJCB 270700Z 33011KT 9999 FEW040 M04/M11 Q1004 RMK 1CU040     A2965=,
20180127_080000.002,1,RJCB,,,,0,20180127080000,-1,-1,-1,-1,350,-1,10,-1,-1,-1,-1,,9999,0,0,2,FEW 40   BKN -9999,-1,5,-1,11,1005,RJCB 270800Z 35010KT 9999 FEW040 BKN/// M05/M11 Q1005 RMK     1CU040 A2968=,
20180127_090000.003,1,RJCB,,,,0,20180127090000,-1,-1,-1,-1,330,-1,9,-1,-1,-1,-1,,9999,0,0,2,FEW 40   BKN -9999,-1,6,-1,11,1005,RJCB 270900Z 33009KT 9999 FEW040 BKN/// M06/M11 Q1005 RMK     1CU040 A2970=,
20180127_100000.002,1,RJCB,,,,0,20180127100000,-1,-1,-1,-1,330,-1,7,-1,-1,-1,-1,,9999,0,0,2,FEW 40   BKN -9999,-1,7,-1,12,1006,RJCB 271000Z 33007KT 9999 FEW040 BKN/// M07/M12 Q1006 RMK     1CU040 A2972=,
20180127_110000.002,1,RJCB,,,,0,20180127110000,-1,-1,-1,-1,240,-1,2,-1,-1,-1,-1,,9999,0,0,2,FEW 40   SCT -9999,-1,9,-1,13,1006,RJCB 271100Z 24002KT 9999 FEW040 SCT/// M09/M13 Q1006 RMK     1CU040 A2973=,
20180127_230000.002,1,RJCB,,,,0,20180127230000,-1,-1,-1,-1,220,-1,1,-1,-1,-1,-1,,9999,0,0,1,FEW 40,-1,18,-1,21,1009,RJCB 272300Z 22001KT 9999 FEW040 M18/M21 Q1009 RMK 1CU040     A2982=,
20180128_000000.003,1,RJCB,,,,0,20180128000000,-1,-1,-1,-1,999,-1,1,-1,-1,-1,-1,,9999,0,0,1,FEW 40,-1,12,-1,16,1010,RJCB 280000Z VRB01KT 9999 FEW040 M12/M16 Q1010 RMK 1CU040     A2983=,
20180128_010000.002,1,RJCB,,,,0,20180128010000,-1,-1,-1,-1,999,-1,2,-1,-1,-1,-1,,9999,0,0,1,FEW 40,-1,9,-1,15,1009,RJCB 280100Z VRB02KT 9999 FEW040 M09/M15 Q1009 RMK 1CU040     A2981=,
20180128_020000.002,1,RJCB,,,,0,20180128020000,-1,-1,-1,-1,999,-1,2,-1,-1,-1,-1,,9999,0,0,1,FEW 40,-1,5,-1,14,1008,RJCB 280200Z VRB02KT 9999 FEW040 M05/M14 Q1008 RMK 1CU040     A2979=,
20180128_030000.002,1,RJCB,,,,0,20180128030000,-1,-1,-1,-1,20,-1,3,-1,-1,-1,-1,,9999,0,0,1,FEW 50,-1,3,-1,14,1008,RJCB 280300Z 02003KT 9999 FEW050 M03/M14 Q1008 RMK 1CU050     A2977=,
20180128_040000.002,1,RJCB,,,,0,20180128040000,-1,-1,-1,-1,10,-1,4,-1,-1,-1,-1,,9999,0,0,1,FEW 50,-1,3,-1,13,1007,RJCB 280400Z 01004KT 9999 FEW050 M03/M13 Q1007 RMK 1CU050     A2974=,
20180128_050000.002,1,RJCB,,,,0,20180128050000,-1,-1,-1,-1,360,-1,3,-1,-1,-1,-1,,9999,0,0,2,FEW 50   BKN 170,-1,4,-1,13,1007,RJCB 280500Z 36003KT 9999 FEW050 BKN170 M04/M13 Q1007 RMK     1CU050 5AC170 A2974=,
20180128_060000.002,1,RJCB,,,,0,20180128060000,-1,-1,-1,-1,999,-1,2,-1,-1,-1,-1,,9999,0,0,2,FEW 50   BKN 170,-1,3,-1,13,1007,RJCB 280600Z VRB02KT 9999 FEW050 BKN170 M03/M13 Q1007 RMK     1CU050 7AC170 A2974=,
20180128_070000.003,1,RJCB,,,,0,20180128070000,-1,-1,-1,-1,999,-1,1,-1,-1,-1,-1,,9999,0,0,3,FEW 40   BKN 60   BKN 170,-1,4,-1,13,1007,RJCB 280700Z VRB01KT 9999 FEW040 BKN060 BKN170 M04/M13 Q1007     RMK 1CU040 5CU060 7AC170 A2976=,
20180128_080000.002,1,RJCB,,,,0,20180128080000,-1,-1,-1,-1,150,-1,4,-1,-1,-1,-1,,9999,0,0,2,FEW 40   BKN 60,-1,5,-1,13,1007,RJCB 280800Z 15004KT 9999 FEW040 BKN060 M05/M13 Q1007 RMK     1CU040 6CU060 A2975=,
20180128_090000.002,1,RJCB,,,,0,20180128090000,-1,-1,-1,-1,130,-1,5,-1,-1,-1,-1,,9999,0,0,2,FEW 40   BKN -9999,-1,6,-1,13,1007,RJCB 280900Z 13005KT 9999 FEW040 BKN/// M06/M13 Q1007 RMK     1CU040 A2974=,
20180128_100000.002,1,RJCB,,,,0,20180128100000,-1,-1,-1,-1,150,-1,3,-1,-1,-1,-1,,9999,0,0,2,FEW 40   BKN -9999,-1,7,-1,13,1006,RJCB 281000Z 15003KT 9999 FEW040 BKN/// M07/M13 Q1006 RMK     1CU040 A2972=,
20180128_110000.002,1,RJCB,,,,0,20180128110000,-1,-1,-1,-1,140,-1,8,-1,-1,-1,-1,,9999,0,0,2,FEW 40   BKN 60,-1,7,-1,12,1005,RJCB 281100Z 14008KT 9999 FEW040 BKN060 M07/M12 Q1005 RMK     1CU040 6CU060 A2969=,
20180128_230000.002,1,RJCB,,,,0,20180128230000,-1,-1,-1,-1,20,-1,10,-1,-1,-1,-1,,9999,0,0,1,FEW 40,-1,9,-1,15,1002,RJCB 282300Z 02010KT 9999 FEW040 M09/M15 Q1002 RMK 1CU040     A2959=,
20180129_000000.003,1,RJCB,,,,0,20180129000000,-1,-1,-1,-1,360,-1,10,-1,-1,-1,-1,,9999,0,0,1,FEW 40,-1,9,-1,16,1002,RJCB 290000Z 36010KT 9999 FEW040 M09/M16 Q1002 RMK 1CU040     A2961=,
20180129_010000.002,1,RJCB,,,,0,20180129010000,-1,-1,-1,-1,360,-1,7,-1,-1,-1,-1,,9999,0,0,1,FEW 40,-1,8,-1,15,1003,RJCB 290100Z 36007KT 9999 FEW040 M08/M15 Q1003 RMK 1CU040     A2963=,
20180129_020000.002,1,RJCB,,,,0,20180129020000,-1,-1,-1,-1,10,-1,5,-1,-1,340,50,,9999,0,0,1,FEW 40,-1,7,-1,16,1003,RJCB 290200Z 01005KT 340V050 9999 FEW040 M07/M16 Q1003 RMK     1CU040 A2962=,
20180129_030000.002,1,RJCB,,,,0,20180129030000,-1,-1,-1,-1,350,-1,9,-1,-1,-1,-1,,9999,0,0,1,FEW 40,-1,7,-1,16,1002,RJCB 290300Z 35009KT 9999 FEW040 M07/M16 Q1002 RMK 1CU040     A2961=,
20180129_040000.002,1,RJCB,,,,0,20180129040000,-1,-1,-1,-1,350,-1,5,-1,-1,-1,-1,,9999,0,0,1,FEW 40,-1,7,-1,17,1002,RJCB 290400Z 35005KT 9999 FEW040 M07/M17 Q1002 RMK 1CU040     A2960=,
20180129_050000.002,1,RJCB,,,,0,20180129050000,-1,-1,-1,-1,20,-1,4,-1,-1,-1,-1,,9999,0,0,1,FEW 40,-1,7,-1,17,1002,RJCB 290500Z 02004KT 9999 FEW040 M07/M17 Q1002 RMK 1CU040     A2961=,
20180129_060000.002,1,RJCB,,,,0,20180129060000,-1,-1,-1,-1,350,-1,4,-1,-1,-1,-1,,9999,0,0,1,FEW 40,-1,7,-1,17,1003,RJCB 290600Z 35004KT 9999 FEW040 M07/M17 Q1003 RMK 1CU040     A2962=,
20180129_070000.002,1,RJCB,,,,0,20180129070000,-1,-1,-1,-1,360,-1,3,-1,-1,-1,-1,,9999,0,0,1,FEW 40,-1,9,-1,17,1003,RJCB 290700Z 36003KT 9999 FEW040 M09/M17 Q1003 RMK 1CU040     A2963=,
20180129_080000.002,1,RJCB,,,,0,20180129080000,-1,-1,-1,-1,999,-1,1,-1,-1,-1,-1,,9999,0,0,1,FEW 40,-1,10,-1,18,1004,RJCB 290800Z VRB01KT 9999 FEW040 M10/M18 Q1004 RMK 1CU040     A2965=,
20180129_090000.002,1,RJCB,,,,0,20180129090000,-1,-1,-1,-1,160,-1,1,-1,-1,-1,-1,,9999,0,0,1,FEW 40,-1,12,-1,17,1004,RJCB 290900Z 16001KT 9999 FEW040 M12/M17 Q1004 RMK 1CU040     A2967=,
20180129_100000.002,1,RJCB,,,,0,20180129100000,-1,-1,-1,-1,0,-1,0,-1,-1,-1,-1,,9999,0,0,1,FEW 40,-1,18,-1,21,1004,RJCB 291000Z 00000KT 9999 FEW040 M18/M21 Q1004 RMK 1CU040     A2967=,
20180129_110000.002,1,RJCB,,,,0,20180129110000,-1,-1,-1,-1,250,-1,1,-1,-1,-1,-1,,9999,0,0,1,FEW 40,-1,16,-1,20,1005,RJCB 291100Z 25001KT 9999 FEW040 M16/M20 Q1005 RMK 1CU040     A2969=,
20180129_230000.002,1,RJCB,,,,0,20180129230000,-1,-1,-1,-1,999,-1,1,-1,-1,-1,-1,,9999,0,0,1,FEW 40,-1,21,-1,24,1007,RJCB 292300Z VRB01KT 9999 FEW040 M21/M24 Q1007 RMK 1CU040     A2976=,
20180130_000000.002,1,RJCB,,,,0,20180130000000,-1,-1,-1,-1,999,-1,2,-1,-1,-1,-1,,9999,0,0,1,FEW 50,-1,14,-1,21,1008,RJCB 300000Z VRB02KT 9999 FEW050 M14/M21 Q1008 RMK 1CU050     A2977=,
20180130_010000.002,1,RJCB,,,,0,20180130010000,-1,-1,-1,-1,0,-1,0,-1,-1,-1,-1,,9999,0,0,1,FEW 50,-1,13,-1,20,1008,RJCB 300100Z 00000KT 9999 FEW050 M13/M20 Q1008 RMK 1CU050     A2977=,
20180130_020000.002,1,RJCB,,,,0,20180130020000,-1,-1,-1,-1,999,-1,2,-1,-1,-1,-1,,9999,0,0,1,FEW 40,-1,10,-1,18,1007,RJCB 300200Z VRB02KT 9999 FEW040 M10/M18 Q1007 RMK 1CU040     A2976=,
20180130_030000.002,1,RJCB,,,,0,20180130030000,-1,-1,-1,-1,999,-1,1,-1,-1,-1,-1,,9999,0,0,1,FEW 40,-1,7,-1,19,1007,RJCB 300300Z VRB01KT 9999 FEW040 M07/M19 Q1007 RMK 1CU040     A2976=,
20180130_040000.002,1,RJCB,,,,0,20180130040000,-1,-1,-1,-1,0,-1,0,-1,-1,-1,-1,,9999,0,0,1,FEW 40,-1,6,-1,20,1007,RJCB 300400Z 00000KT 9999 FEW040 M06/M20 Q1007 RMK 1CU040     A2975=,
20180130_050000.002,1,RJCB,,,,0,20180130050000,-1,-1,-1,-1,999,-1,1,-1,-1,-1,-1,,9999,0,0,1,FEW 40,-1,6,-1,19,1007,RJCB 300500Z VRB01KT 9999 FEW040 M06/M19 Q1007 RMK 1CU040     A2976=,
20180130_060000.003,1,RJCB,,,,0,20180130060000,-1,-1,-1,-1,999,-1,2,-1,-1,-1,-1,,9999,0,0,1,FEW 40,-1,7,-1,19,1008,RJCB 300600Z VRB02KT 9999 FEW040 M07/M19 Q1008 RMK 1CU040     A2977=,
20180130_070000.002,1,RJCB,,,,0,20180130070000,-1,-1,-1,-1,70,-1,2,-1,-1,-1,-1,,9999,0,0,1,FEW 40,-1,7,-1,19,1009,RJCB 300700Z 07002KT 9999 FEW040 M07/M19 Q1009 RMK 1CU040     A2979=,
20180130_080000.002,1,RJCB,,,,0,20180130080000,-1,-1,-1,-1,999,-1,1,-1,-1,-1,-1,,9999,0,0,1,FEW 40,-1,11,-1,20,1009,RJCB 300800Z VRB01KT 9999 FEW040 M11/M20 Q1009 RMK 1CU040     A2982=,
20180130_090000.002,1,RJCB,,,,0,20180130090000,-1,-1,-1,-1,0,-1,0,-1,-1,-1,-1,,9999,0,0,1,FEW 40,-1,13,-1,19,1010,RJCB 300900Z 00000KT 9999 FEW040 M13/M19 Q1010 RMK 1CU040     A2985=,
20180130_100000.002,1,RJCB,,,,0,20180130100000,-1,-1,-1,-1,999,-1,1,-1,-1,-1,-1,,9999,0,0,1,FEW 40,-1,15,-1,20,1011,RJCB 301000Z VRB01KT 9999 FEW040 M15/M20 Q1011 RMK 1CU040     A2987=,
20180130_110000.002,1,RJCB,,,,0,20180130110000,-1,-1,-1,-1,999,-1,1,-1,-1,-1,-1,,9999,0,0,1,FEW 40,-1,20,-1,24,1012,RJCB 301100Z VRB01KT 9999 FEW040 M20/M24 Q1012 RMK 1CU040     A2989=,
20180130_230000.002,1,RJCB,,,,0,20180130230000,-1,-1,-1,-1,999,-1,2,-1,-1,-1,-1,,9999,0,0,2,FEW 30   BKN 50,-1,18,-1,21,1015,RJCB 302300Z VRB02KT 9999 FEW030 BKN050 M18/M21 Q1015 RMK     1CU030 6CU050 A3000=,
20180131_000000.002,1,RJCB,,,,0,20180131000000,-1,-1,-1,-1,999,-1,2,-1,-1,-1,-1,,9999,0,0,2,FEW 30   SCT 50,-1,16,-1,21,1016,RJCB 310000Z VRB02KT 9999 FEW030 SCT050 M16/M21 Q1016 RMK     1CU030 3CU050 A3001=,
20180131_010000.002,1,RJCB,,,,0,20180131010000,-1,-1,-1,-1,999,-1,1,-1,-1,-1,-1,,9999,0,0,1,FEW 40,-1,11,-1,18,1016,RJCB 310100Z VRB01KT 9999 FEW040 M11/M18 Q1016 RMK 1CU040     A3001=,
20180131_020000.002,1,RJCB,,,,0,20180131020000,-1,-1,-1,-1,10,-1,3,-1,-1,320,70,,9999,0,0,1,FEW 40,-1,10,-1,17,1016,RJCB 310200Z 01003KT 320V070 9999 FEW040 M10/M17 Q1016 RMK     1CU040 A3001=,
20180131_030000.002,1,RJCB,,,,0,20180131030000,-1,-1,-1,-1,999,-1,1,-1,-1,-1,-1,,9999,0,0,2,FEW 40   SCT -9999,-1,10,-1,17,1016,RJCB 310300Z VRB01KT 9999 FEW040 SCT/// M10/M17 Q1016 RMK     1CU040 A3000=,
20180131_040000.002,1,RJCB,,,,0,20180131040000,-1,-1,-1,-1,350,-1,2,-1,-1,-1,-1,,9999,0,0,2,FEW 40   BKN -9999,-1,7,-1,16,1015,RJCB 310400Z 35002KT 9999 FEW040 BKN/// M07/M16 Q1015 RMK     1CU040 A2999=,
20180131_050000.002,1,RJCB,,,,0,20180131050000,-1,-1,-1,-1,999,-1,2,-1,-1,-1,-1,,9999,0,0,2,FEW 40   SCT -9999,-1,6,-1,15,1015,RJCB 310500Z VRB02KT 9999 FEW040 SCT/// M06/M15 Q1015 RMK     1CU040 A3000=,
20180131_060000.002,1,RJCB,,,,0,20180131060000,-1,-1,-1,-1,110,-1,3,-1,-1,60,150,,9999,0,0,1,FEW 40,-1,4,-1,17,1016,RJCB 310600Z 11003KT 060V150 9999 FEW040 M04/M17 Q1016 RMK     1CU040 A3001=,
20180131_070000.003,1,RJCB,,,,0,20180131070000,-1,-1,-1,-1,140,-1,2,-1,-1,-1,-1,,9999,0,0,1,FEW 40,-1,5,-1,17,1017,RJCB 310700Z 14002KT 9999 FEW040 M05/M17 Q1017 RMK 1CU040     A3003=,
20180131_080000.003,1,RJCB,,,,0,20180131080000,-1,-1,-1,-1,120,-1,4,-1,-1,-1,-1,,9999,0,0,1,FEW 40,-1,9,-1,18,1017,RJCB 310800Z 12004KT 9999 FEW040 M09/M18 Q1017 RMK 1CU040     A3005=,
20180131_090000.002,1,RJCB,,,,0,20180131090000,-1,-1,-1,-1,999,-1,1,-1,-1,-1,-1,,9999,0,0,1,FEW 40,-1,9,-1,17,1018,RJCB 310900Z VRB01KT 9999 FEW040 M09/M17 Q1018 RMK 1CU040     A3008=,
20180131_100000.002,1,RJCB,,,,0,20180131100000,-1,-1,-1,-1,999,-1,1,-1,-1,-1,-1,,9999,0,0,2,FEW 40   BKN 70,-1,9,-1,17,1018,RJCB 311000Z VRB01KT 9999 FEW040 BKN070 M09/M17 Q1018 RMK     1CU040 5AC070 A3008=,
20180131_110000.002,1,RJCB,,,,0,20180131110000,-1,-1,-1,-1,999,-1,1,-1,-1,-1,-1,,9999,0,0,2,FEW 40   BKN 70,-1,13,-1,18,1019,RJCB 311100Z VRB01KT 9999 FEW040 BKN070 M13/M18 Q1019 RMK     1CU040 5AC070 A3009=,
20180131_230000.002,1,RJCB,,,,0,20180131230000,-1,-1,-1,-1,999,-1,1,-1,-1,-1,-1,,9999,0,0,1,FEW 40,-1,16,-1,18,1024,RJCB 312300Z VRB01KT 9999 FEW040 M16/M18 Q1024 RMK 2CU040     A3025=,
20180201_000000.003,1,RJCB,,,,0,20180201000000,-1,-1,-1,-1,999,-1,1,-1,-1,-1,-1,,9999,0,0,1,FEW 40,-1,12,-1,14,1024,RJCB 010000Z VRB01KT 9999 FEW040 M12/M14 Q1024 RMK 1CU040     A3026=,
20180201_010000.002,1,RJCB,,,,0,20180201010000,-1,-1,-1,-1,350,-1,3,-1,-1,-1,-1,,9999,0,0,1,FEW 40,-1,9,-1,13,1025,RJCB 010100Z 35003KT 9999 FEW040 M09/M13 Q1025 RMK 2CU040     A3027=,
20180201_020000.002,1,RJCB,,,,0,20180201020000,-1,-1,-1,-1,999,-1,1,-1,-1,-1,-1,,9999,0,0,1,FEW 50,-1,6,-1,12,1025,RJCB 010200Z VRB01KT 9999 FEW050 M06/M12 Q1025 RMK 1CU050     A3027=,
20180201_030000.003,1,RJCB,,,,0,20180201030000,-1,-1,-1,-1,330,-1,1,-1,-1,-1,-1,,9999,0,0,1,FEW 50,-1,5,-1,12,1025,RJCB 010300Z 33001KT 9999 FEW050 M05/M12 Q1025 RMK 1CU050     A3027=,
20180201_040000.003,1,RJCB,,,,0,20180201040000,-1,-1,-1,-1,999,-1,1,-1,-1,-1,-1,,9999,0,0,1,FEW 50,-1,4,-1,12,1025,RJCB 010400Z VRB01KT 9999 FEW050 M04/M12 Q1025 RMK 1CU050     A3027=,
20180201_050000.002,1,RJCB,,,,0,20180201050000,-1,-1,-1,-1,350,-1,3,-1,-1,-1,-1,,9999,0,0,1,FEW 50,-1,4,-1,12,1025,RJCB 010500Z 35003KT 9999 FEW050 M04/M12 Q1025 RMK 1CU050     A3028=,
20180201_060000.002,1,RJCB,,,,0,20180201060000,-1,-1,-1,-1,360,-1,2,-1,-1,-1,-1,,9999,0,0,1,FEW 50,-1,4,-1,13,1026,RJCB 010600Z 36002KT 9999 FEW050 M04/M13 Q1026 RMK 1CU050     A3030=,
20180201_070000.002,1,RJCB,,,,0,20180201070000,-1,-1,-1,-1,999,-1,1,-1,-1,-1,-1,,9999,0,0,1,FEW 50,-1,6,-1,13,1026,RJCB 010700Z VRB01KT 9999 FEW050 M06/M13 Q1026 RMK 1CU050     A3031=,
20180201_080000.002,1,RJCB,,,,0,20180201080000,-1,-1,-1,-1,0,-1,0,-1,-1,-1,-1,,9999,0,0,1,FEW 50,-1,9,-1,15,1027,RJCB 010800Z 00000KT 9999 FEW050 M09/M15 Q1027 RMK 1CU050     A3033=,
20180201_090000.002,1,RJCB,,,,0,20180201090000,-1,-1,-1,-1,180,-1,1,-1,-1,-1,-1,,9999,0,0,1,FEW 50,-1,12,-1,16,1027,RJCB 010900Z 18001KT 9999 FEW050 M12/M16 Q1027 RMK 1CU050     A3034=,
20180201_100000.002,1,RJCB,,,,0,20180201100000,-1,-1,-1,-1,230,-1,2,-1,-1,-1,-1,,9999,0,0,1,FEW 50,-1,15,-1,19,1028,RJCB 011000Z 23002KT 9999 FEW050 M15/M19 Q1028 RMK 1CU050     A3037=,
20180201_110000.002,1,RJCB,,,,0,20180201110000,-1,-1,-1,-1,999,-1,2,-1,-1,-1,-1,,9999,0,0,1,FEW 50,-1,15,-1,18,1028,RJCB 011100Z VRB02KT 9999 FEW050 M15/M18 Q1028 RMK 1CU050     A3038=,
20180201_230000.003,1,RJCB,,,,0,20180201230000,-1,-1,-1,-1,340,-1,3,-1,-1,-1,-1,,9999,0,1,2,FEW 25   BKN 50,-1,14,-1,17,1031,RJCB 012300Z 34003KT 9999 -SHSN FEW025 BKN050 M14/M17 Q1031     RMK 1CU025 6CU050 A3046=,- SN SH
20180202_000000.002,1,RJCB,,,,0,20180202000000,-1,-1,-1,-1,340,-1,3,-1,-1,-1,-1,,9999,0,0,3,FEW 30   SCT 50   BKN 70,-1,12,-1,15,1031,RJCB 020000Z 34003KT 9999 FEW030 SCT050 BKN070 M12/M15 Q1031     RMK 1CU030 3CU050 6AC070 A3044=,
20180202_010000.002,1,RJCB,,,,0,20180202010000,-1,-1,-1,-1,360,-1,3,-1,-1,-1,-1,,9999,0,1,3,FEW 20   SCT 40   BKN 60,-1,11,-1,15,1030,RJCB 020100Z 36003KT 9999 -SHSN FEW020 SCT040 BKN060 M11/M15     Q1030 RMK 1CU020 3CU040 7CU060 A3044=,- SN SH
20180202_020000.002,1,RJCB,,,,0,20180202020000,-1,-1,-1,-1,360,-1,3,-1,-1,-1,-1,,9999,0,1,2,FEW 20   BKN 50,-1,9,-1,14,1030,RJCB 020200Z 36003KT 9999 -SHSN FEW020 BKN050 M09/M14 Q1030     RMK 1CU020 6CU050 A3043=,- SN SH
20180202_030000.002,1,RJCB,,,,0,20180202030000,-1,-1,-1,-1,350,-1,3,-1,-1,-1,-1,,9999,0,1,2,FEW 20   BKN 50,-1,8,-1,13,1029,RJCB 020300Z 35003KT 9999 -SHSN FEW020 BKN050 M08/M13 Q1029     RMK 1CU020 6CU050 A3039=,- SN SH
20180202_040000.002,1,RJCB,,,,0,20180202040000,-1,-1,-1,-1,360,-1,3,-1,-1,-1,-1,,9999,0,1,2,FEW 30   BKN 50,-1,7,-1,13,1028,RJCB 020400Z 36003KT 9999 -SHSN FEW030 BKN050 M07/M13 Q1028     RMK 1CU030 6CU050 A3037=,- SN SH
20180202_050000.001,1,RJCB,,,,0,20180202050000,-1,-1,-1,-1,350,-1,4,-1,-1,-1,-1,,9999,0,0,2,FEW 30   SCT 50,-1,6,-1,12,1028,RJCB 020500Z 35004KT 9999 FEW030 SCT050 M06/M12 Q1028 RMK     1CU030 4CU050 A3036=,
20180202_060000.002,1,RJCB,,,,0,20180202060000,-1,-1,-1,-1,360,-1,3,-1,-1,-1,-1,,9999,0,0,2,FEW 30   BKN 40,-1,6,-1,11,1028,RJCB 020600Z 36003KT 9999 FEW030 BKN040 M06/M11 Q1028 RMK     1CU030 6CU040 A3037=,
20180202_070000.002,1,RJCB,,,,0,20180202070000,-1,-1,-1,-1,330,-1,2,-1,-1,-1,-1,,9999,0,0,2,FEW 15   SCT 40,-1,7,-1,11,1028,RJCB 020700Z 33002KT 9999 FEW015 SCT040 M07/M11 Q1028 RMK     1ST015 4CU040 A3037=,
20180202_080000.002,1,RJCB,,,,0,20180202080000,-1,-1,-1,-1,330,-1,2,-1,-1,-1,-1,,9999,0,0,2,FEW 15   BKN 40,-1,7,-1,11,1029,RJCB 020800Z 33002KT 9999 FEW015 BKN040 M07/M11 Q1029 RMK     1ST015 7CU040 A3039=,
20180202_090000.002,1,RJCB,,,,0,20180202090000,-1,-1,-1,-1,250,-1,1,-1,-1,-1,-1,,9999,0,1,2,FEW 15   BKN 40,-1,8,-1,11,1029,RJCB 020900Z 25001KT 9999 -SHSN FEW015 BKN040 M08/M11 Q1029     RMK 1ST015 7CU040 A3039=,- SN SH
20180202_100000.003,1,RJCB,,,,0,20180202100000,-1,-1,-1,-1,999,-1,1,-1,-1,-1,-1,,9999,0,1,2,FEW 15   BKN 40,-1,9,-1,11,1029,RJCB 021000Z VRB01KT 9999 -SHSN FEW015 BKN040 M09/M11 Q1029     RMK 1ST015 7CU040 A3039=,- SN SH
20180202_110000.002,1,RJCB,,,,0,20180202110000,-1,-1,-1,-1,0,-1,0,-1,-1,-1,-1,,9999,0,1,2,FEW 15   BKN 40,-1,8,-1,11,1028,RJCB 021100Z 00000KT 9999 -SHSN FEW015 BKN040 M08/M11 Q1028     RMK 1ST015 7CU040 A3038=,- SN SH
20180202_230000.003,1,RJCB,,,,0,20180202230000,-1,-1,-1,-1,340,-1,3,-1,-1,-1,-1,,9999,0,1,2,FEW 15   BKN 30,-1,9,-1,11,1026,RJCB 022300Z 34003KT 9999 -SHSN FEW015 BKN030 M09/M11 Q1026     RMK 1ST015 7CU030 A3031=,- SN SH
20180203_000000.002,1,RJCB,,,,0,20180203000000,-1,-1,-1,-1,999,-1,1,-1,-1,-1,-1,,9999,0,1,2,FEW 15   BKN 30,-1,9,-1,11,1026,RJCB 030000Z VRB01KT 9999 -SHSN FEW015 BKN030 M09/M11 Q1026     RMK 1ST015 7CU030 A3030=,- SN SH
20180203_010000.003,1,RJCB,,,,0,20180203010000,-1,-1,-1,-1,350,-1,4,-1,-1,-1,-1,,9999,0,1,2,FEW 15   BKN 30,-1,8,-1,11,1025,RJCB 030100Z 35004KT 9999 -SHSN FEW015 BKN030 M08/M11 Q1025     RMK 1ST015 7CU030 A3028=,- SN SH
20180203_020000.002,1,RJCB,,,,0,20180203020000,-1,-1,-1,-1,350,-1,4,-1,-1,-1,-1,,9999,0,0,2,FEW 15   BKN 30,-1,7,-1,11,1024,RJCB 030200Z 35004KT 9999 FEW015 BKN030 M07/M11 Q1024 RMK     1ST015 7CU030 A3025=,
20180203_030000.002,1,RJCB,,,,0,20180203030000,-1,-1,-1,-1,310,-1,3,-1,-1,270,350,,9999,0,0,2,FEW 15   BKN 30,-1,7,-1,10,1023,RJCB 030300Z 31003KT 270V350 9999 FEW015 BKN030 M07/M10 Q1023     RMK 1ST015 6CU030 A3022=,
20180203_040000.002,1,RJCB,,,,0,20180203040000,-1,-1,-1,-1,320,-1,4,-1,-1,250,360,,9999,0,0,2,FEW 30   BKN 40,-1,6,-1,10,1022,RJCB 030400Z 32004KT 250V360 9999 FEW030 BKN040 M06/M10 Q1022     RMK 1CU030 6CU040 A3019=,
20180203_050000.002,1,RJCB,,,,0,20180203050000,-1,-1,-1,-1,340,-1,3,-1,-1,-1,-1,,9999,0,0,2,FEW 30   SCT -9999,-1,6,-1,10,1022,RJCB 030500Z 34003KT 9999 FEW030 SCT/// M06/M10 Q1022 RMK     1CU030 A3018=,
20180203_060000.002,1,RJCB,,,,0,20180203060000,-1,-1,-1,-1,340,-1,3,-1,-1,-1,-1,,9999,0,1,2,FEW 20   BKN 30,-1,6,-1,10,1022,RJCB 030600Z 34003KT 9999 -SHSN FEW020 BKN030 M06/M10 Q1022     RMK 1CU020 6CU030 A3018=,- SN SH
20180203_070000.003,1,RJCB,,,,0,20180203070000,-1,-1,-1,-1,330,-1,2,-1,-1,-1,-1,,9999,0,0,3,FEW 15   SCT 25   BKN 35,-1,5,-1,10,1021,RJCB 030700Z 33002KT 9999 FEW015 SCT025 BKN035 M05/M10 Q1021     RMK 1ST015 3CU025 6CU035 A3017=,
20180203_080000.002,1,RJCB,,,,0,20180203080000,-1,-1,-1,-1,999,-1,2,-1,-1,-1,-1,,9999,0,0,3,FEW 15   SCT 25   BKN 40,-1,6,-1,10,1021,RJCB 030800Z VRB02KT 9999 FEW015 SCT025 BKN040 M06/M10 Q1021     RMK 1ST015 4CU025 6CU040 A3017=,
20180203_090000.002,1,RJCB,,,,0,20180203090000,-1,-1,-1,-1,350,-1,3,-1,-1,-1,-1,,9999,0,0,2,FEW 15   BKN 50,-1,7,-1,10,1021,RJCB 030900Z 35003KT 9999 FEW015 BKN050 M07/M10 Q1021 RMK     1ST015 6CU050 A3015=,
20180203_100000.002,1,RJCB,,,,0,20180203100000,-1,-1,-1,-1,999,-1,1,-1,-1,-1,-1,,9999,0,1,3,FEW 15   SCT 35   BKN 50,-1,7,-1,10,1020,RJCB 031000Z VRB01KT 9999 -SHSN FEW015 SCT035 BKN050 M07/M10     Q1020 RMK 1ST015 4CU035 7CU050 A3014=,- SN SH
20180203_110000.002,1,RJCB,,,,0,20180203110000,-1,-1,-1,-1,0,-1,0,-1,-1,-1,-1,,9999,0,1,2,FEW 15   BKN 35,-1,6,-1,10,1020,RJCB 031100Z 00000KT 9999 -SHSN FEW015 BKN035 M06/M10 Q1020     RMK 1ST015 7CU035 A3013=,- SN SH
20180203_230000.002,1,RJCB,,,,0,20180203230000,-1,-1,-1,-1,310,-1,4,-1,-1,270,360,,1600,1,1,2,FEW 7   BKN 9,-1,6,-1,7,1013,RJCB 032300Z 31004KT 270V360 1600 R35/1800D -SHSN FEW007     BKN009 M06/M07 Q1013 RMK 1ST007 7ST009 A2992=,- SN SH
20180204_000000.002,1,RJCB,,,,0,20180204000000,-1,-1,-1,-1,310,-1,5,-1,-1,270,350,,1500,1,1,3,FEW 7   BKN 8   BKN 10,-1,5,-1,7,1012,RJCB 040000Z 31005KT 270V350 1500 R35/1800D -SHSN FEW007     BKN008 BKN010 M05/M07 Q1012 RMK 1ST007 5ST008 7ST010           A2990=,- SN SH
20180204_010000.002,1,RJCB,,,,0,20180204010000,-1,-1,-1,-1,310,-1,6,-1,-1,270,350,,2000,0,1,3,FEW 8   SCT 12   BKN 20,-1,5,-1,7,1012,RJCB 040100Z 31006KT 270V350 2000 -SHSN FEW008 SCT012 BKN020     M05/M07 Q1012 RMK 1ST008 4ST012 7CU020 A2988=,- SN SH
20180204_020000.002,1,RJCB,,,,0,20180204020000,-1,-1,-1,-1,310,-1,6,-1,-1,270,350,,2400,0,1,2,FEW 8   BKN 25,-1,4,-1,7,1010,RJCB 040200Z 31006KT 270V350 2400 -SHSN FEW008 BKN025 M04/M07     Q1010 RMK 1ST008 7CU025 A2985=,- SN SH
20180204_030000.002,1,RJCB,,,,0,20180204030000,-1,-1,-1,-1,310,-1,6,-1,-1,280,350,,2400,0,1,3,FEW 8   SCT 10   BKN 30,-1,4,-1,7,1009,RJCB 040300Z 31006KT 280V350 2400 -SHSN FEW008 SCT010 BKN030     M04/M07 Q1009 RMK 1ST008 3ST010 7CU030 A2981=,- SN SH
20180204_040000.002,1,RJCB,,,,0,20180204040000,-1,-1,-1,-1,310,-1,6,-1,-1,260,350,,5000,0,1,3,FEW 9   SCT 14   BKN 30,-1,4,-1,7,1008,RJCB 040400Z 31006KT 260V350 5000 -SHSN FEW009 SCT014 BKN030     M04/M07 Q1008 RMK 1ST009 4ST014 7CU030 A2978=,- SN SH
20180204_050000.002,1,RJCB,,,,0,20180204050000,-1,-1,-1,-1,310,-1,5,-1,-1,270,10,,2000,0,1,3,FEW 7   BKN 9   BKN 25,-1,4,-1,6,1007,RJCB 040500Z 31005KT 270V010 2000 -SHSN FEW007 BKN009 BKN025     M04/M06 Q1007 RMK 1ST007 5ST009 7CU025 A2976=,- SN SH
20180204_060000.002,1,RJCB,,,,0,20180204060000,-1,-1,-1,-1,300,-1,5,-1,-1,240,350,,1600,0,1,3,FEW 6   BKN 7   BKN 9,-1,3,-1,5,1007,RJCB 040600Z 30005KT 240V350 1600 -SHSN FEW006 BKN007 BKN009     M03/M05 Q1007 RMK 1ST006 5ST007 7ST009 A2976=,- SN SH
20180204_070000.002,1,RJCB,,,,0,20180204070000,-1,-1,-1,-1,300,-1,5,-1,-1,260,350,,2000,0,1,3,FEW 7   SCT 9   BKN 15,-1,3,-1,5,1007,RJCB 040700Z 30005KT 260V350 2000 -SHSN FEW007 SCT009 BKN015     M03/M05 Q1007 RMK 2ST007 4ST009 7ST015 A2976=,- SN SH
20180204_080000.002,1,RJCB,,,,0,20180204080000,-1,-1,-1,-1,320,-1,4,-1,-1,270,340,,2300,0,1,2,FEW 10   BKN 15,-1,3,-1,5,1007,RJCB 040800Z 32004KT 270V340 2300 -SHSN FEW010 BKN015 M03/M05     Q1007 RMK 1ST010 7ST015 A2976=,- SN SH
20180204_090000.002,1,RJCB,,,,0,20180204090000,-1,-1,-1,-1,310,-1,4,-1,-1,270,350,,2000,0,1,2,FEW 9   BKN 15,-1,3,-1,4,1007,RJCB 040900Z 31004KT 270V350 2000 -SHSN FEW009 BKN015 M03/M04     Q1007 RMK 2ST009 7ST015 A2976=,- SN SH
20180204_100000.002,1,RJCB,,,,0,20180204100000,-1,-1,-1,-1,310,-1,4,-1,-1,270,350,,1500,1,1,3,FEW 7   BKN 9   BKN 10,-1,3,-1,4,1007,RJCB 041000Z 31004KT 270V350 1500 R35/P1800N -SHSN FEW007     BKN009 BKN010 M03/M04 Q1007 RMK 1ST007 5ST009 7ST010           A2975=,- SN SH
20180204_110000.003,1,RJCB,,,,0,20180204110000,-1,-1,-1,-1,300,-1,4,-1,-1,240,340,,1200,1,1,3,FEW 5   BKN 6   BKN 12,-1,3,-1,4,1007,RJCB 041100Z 30004KT 240V340 1200 R35/P1800N -SHSN FEW005     BKN006 BKN012 M03/M04 Q1007 RMK 1ST005 5ST006 7ST012           A2974=,- SN SH
20180204_230000.002,1,RJCB,,,,0,20180204230000,-1,-1,-1,-1,310,-1,3,-1,-1,270,350,,2400,0,1,3,FEW 6   SCT 10   BKN 15,-1,3,-1,4,1006,RJCB 042300Z 31003KT 270V350 2400 -SHSN FEW006 SCT010 BKN015     M03/M04 Q1006 RMK 1ST006 3ST010 7ST015 A2973=,- SN SH
20180205_000000.003,1,RJCB,,,,0,20180205000000,-1,-1,-1,-1,330,-1,3,-1,-1,280,360,,1400,1,1,3,FEW 5   BKN 7   BKN 9,-1,3,-1,4,1006,RJCB 050000Z 33003KT 280V360 1400 R35/1100V1700D -SHSN FEW005     BKN007 BKN009 M03/M04 Q1006 RMK 1ST005 5ST007 7ST009           A2973=,- SN SH
20180205_010000.002,1,RJCB,,,,0,20180205010000,-1,-1,-1,-1,320,-1,3,-1,-1,260,360,,1400,1,1,3,FEW 4   SCT 7   BKN 9,-1,3,-1,4,1007,RJCB 050100Z 32003KT 260V360 1400 R35/1300D -SHSN FEW004     SCT007 BKN009 M03/M04 Q1007 RMK 1ST004 4ST007 7ST009           A2974=,- SN SH
20180205_020000.002,1,RJCB,,,,0,20180205020000,-1,-1,-1,-1,360,-1,4,-1,-1,-1,-1,,2400,0,1,3,FEW 4   SCT 9   BKN 15,-1,2,-1,4,1006,RJCB 050200Z 36004KT 2400 -SHSN FEW004 SCT009 BKN015 M02/M04     Q1006 RMK 1ST004 4ST009 7ST015 A2973=,- SN SH
