20180101_000000.002,0,RJCC,,,,0,20180101000000,-1,-1,-1,-1,120,-1,4,-1,-1,60,150,,9999,0,1,2,FEW 3   BKN 8,1,0,-1,1,1010,RJCC 010000Z 12004KT 060V150 9999 -SHSN FEW003 BKN008 00/M01     Q1010 RMK 1ST003 7ST008 A2983=,- SN SH
20180101_003000.001,0,RJCC,,,,0,20180101000000,-1,-1,-1,-1,90,-1,5,-1,-1,60,120,,9999,0,0,3,FEW 3   BKN 10   BKN 25,1,1,-1,1,1009,RJCC 010030Z 09005KT 060V120 9999 FEW003 BKN010 BKN025 01/M01     Q1009 RMK 1ST003 5ST010 7CU025 A2982=,
20180101_010000.002,0,RJCC,,,,0,20180101010000,-1,-1,-1,-1,100,-1,5,-1,-1,60,130,,9999,0,0,3,FEW 5   SCT 10   BKN -9999,1,1,-1,1,1009,RJCC 010100Z 10005KT 060V130 9999 FEW005 SCT010 BKN/// 01/M01     Q1009 RMK 1ST005 4ST010 A2981=,
20180101_013000.001,0,RJCC,,,,0,20180101010000,-1,-1,-1,-1,110,-1,3,-1,-1,60,160,,9999,0,0,3,FEW 5   SCT 15   BKN 60,1,2,-1,1,1008,RJCC 010130Z 11003KT 060V160 9999 FEW005 SCT015 BKN060 02/M01     Q1008 RMK 1ST005 3ST015 6CU060 A2979=,
20180101_020000.002,0,RJCC,,,,0,20180101020000,-1,-1,-1,-1,999,-1,2,-1,-1,-1,-1,,9999,0,0,3,FEW 10   SCT 60   BKN 130,1,1,-1,1,1008,RJCC 010200Z VRB02KT 9999 FEW010 SCT060 BKN130 01/M01 Q1008     RMK 1ST010 4CU060 6AC130 A2977=,
20180101_023000.001,0,RJCC,,,,0,20180101020000,-1,-1,-1,-1,330,-1,3,-1,-1,250,30,,9999,0,0,3,FEW 15   SCT 60   BKN -9999,1,3,-1,1,1007,RJCC 010230Z 33003KT 250V030 9999 FEW015 SCT060 BKN/// 03/M01     Q1007 RMK 1ST015 3CU060 A2976=,
20180101_030000.002,0,RJCC,,,,0,20180101030000,-1,-1,-1,-1,110,-1,7,-1,-1,-1,-1,,9999,0,0,3,FEW 20   BKN 50   BKN 110,1,3,-1,1,1007,RJCC 010300Z 11007KT 9999 FEW020 BKN050 BKN110 03/M01 Q1007     RMK 1CU020 5CU050 7AC110 A2974=,
20180101_033000.001,0,RJCC,,,,0,20180101030000,-1,-1,-1,-1,120,-1,5,-1,-1,90,150,,9999,0,1,2,FEW 20   BKN 35,1,3,-1,1,1006,RJCC 010330Z 12005KT 090V150 9999 -SHRASN FEW020 BKN035 03/M01     Q1006 RMK 1CU020 7CU035 A2973=,- RA SN SH
20180101_040000.002,0,RJCC,,,,0,20180101040000,-1,-1,-1,-1,120,-1,4,-1,-1,-1,-1,,9999,0,1,2,FEW 15   BKN 35,1,3,-1,0,1006,RJCC 010400Z 12004KT 9999 -SHRASN FEW015 BKN035 03/M00 Q1006     RMK 1ST015 7CU035 A2973=,- RA SN SH
20180101_043000.001,0,RJCC,,,,0,20180101040000,-1,-1,-1,-1,120,-1,6,-1,-1,90,160,,9999,0,1,2,FEW 15   BKN 35,1,4,-1,0,1006,RJCC 010430Z 12006KT 090V160 9999 -SHRASN FEW015 BKN035 04/M00     Q1006 RMK 1ST015 7CU035 A2972=,- RA SN SH
20180101_050000.002,0,RJCC,,,,0,20180101050000,-1,-1,-1,-1,130,-1,8,-1,-1,-1,-1,,9999,0,1,2,FEW 15   BKN 35,1,4,-1,0,1006,RJCC 010500Z 13008KT 9999 -SHRASN FEW015 BKN035 04/M00 Q1006     RMK 1ST015 7CU035 A2972=,- RA SN SH
20180101_053000.001,0,RJCC,,,,0,20180101050000,-1,-1,-1,-1,130,-1,9,-1,-1,-1,-1,,9999,0,1,3,FEW 15   BKN 35   BKN 70,1,4,-1,0,1006,RJCC 010530Z 13009KT 9999 -SHRASN FEW015 BKN035 BKN070 04/M00     Q1006 RMK 1ST015 5CU035 7AC070 A2972=,- RA SN SH
20180101_060000.002,0,RJCC,,,,0,20180101060000,-1,-1,-1,-1,140,-1,7,-1,-1,-1,-1,,9999,0,0,2,FEW 15   BKN 30,1,4,-1,0,1006,RJCC 010600Z 14007KT 9999 FEW015 BKN030 04/M00 Q1006 RMK     1ST015 7CU030 A2972=,
20180101_063000.001,0,RJCC,,,,0,20180101060000,-1,-1,-1,-1,140,-1,4,-1,-1,-1,-1,,9999,0,1,2,FEW 15   BKN 35,1,4,-1,0,1006,RJCC 010630Z 14004KT 9999 VCSH FEW015 BKN035 04/M00 Q1006 RMK     1ST015 7CU035 A2972 SH W=,VC SH
20180101_070000.002,0,RJCC,,,,0,20180101070000,-1,-1,-1,-1,130,-1,6,-1,-1,-1,-1,,9999,0,1,2,FEW 15   BKN 35,1,4,-1,0,1006,RJCC 010700Z 13006KT 9999 VCSH FEW015 BKN035 04/M00 Q1006 RMK     1ST015 6CU035 A2972 SH SW-W=,VC SH
20180101_073000.001,0,RJCC,,,,0,20180101070000,-1,-1,-1,-1,120,-1,7,-1,-1,-1,-1,,9999,0,1,3,FEW 15   BKN 35   BKN 50,1,3,-1,0,1006,RJCC 010730Z 12007KT 9999 VCSH FEW015 BKN035 BKN050 03/M00     Q1006 RMK 1ST015 6CU035 7CU050 A2972 SH SW-NW=,VC SH
20180101_080000.002,0,RJCC,,,,0,20180101080000,-1,-1,-1,-1,120,-1,8,-1,-1,-1,-1,,9999,0,0,3,FEW 15   BKN 35   BKN 50,1,3,-1,1,1006,RJCC 010800Z 12008KT 9999 FEW015 BKN035 BKN050 03/M01 Q1006     RMK 1ST015 6CU035 7CU050 A2971=,
20180101_083000.001,0,RJCC,,,,0,20180101080000,-1,-1,-1,-1,130,-1,6,-1,-1,-1,-1,,9999,0,0,3,FEW 15   BKN 35   BKN 50,1,3,-1,1,1006,RJCC 010830Z 13006KT 9999 FEW015 BKN035 BKN050 03/M01 Q1006     RMK 1ST015 6CU035 7CU050 A2971=,
20180101_090000.002,0,RJCC,,,,0,20180101090000,-1,-1,-1,-1,120,-1,7,-1,-1,-1,-1,,9999,0,1,3,FEW 15   BKN 35   BKN 50,1,4,-1,1,1006,RJCC 010900Z 12007KT 9999 -SHRASN FEW015 BKN035 BKN050 04/M01     Q1006 RMK 1ST015 5CU035 6CU050 A2971=,- RA SN SH
20180101_093000.001,0,RJCC,,,,0,20180101090000,-1,-1,-1,-1,100,-1,6,-1,-1,-1,-1,,9999,0,0,3,FEW 15   SCT 35   BKN 70,1,3,-1,1,1005,RJCC 010930Z 10006KT 9999 FEW015 SCT035 BKN070 03/M01 Q1005     RMK 1ST015 3CU035 5AC070 A2970=,
20180101_100000.002,0,RJCC,,,,0,20180101100000,-1,-1,-1,-1,110,-1,6,-1,-1,-1,-1,,9999,0,1,3,FEW 15   SCT 35   BKN 70,1,3,-1,1,1006,RJCC 011000Z 11006KT 9999 VCSH FEW015 SCT035 BKN070 03/M01     Q1006 RMK 1ST015 4CU035 6AC070 A2971 SH SW-W=,VC SH
20180101_103000.001,0,RJCC,,,,0,20180101100000,-1,-1,-1,-1,150,-1,6,-1,-1,-1,-1,,9999,0,1,3,FEW 10   SCT 15   BKN 25,1,3,-1,1,1006,RJCC 011030Z 15006KT 9999 -SHRASN FEW010 SCT015 BKN025 03/M01     Q1006 RMK 1ST010 3ST015 6CU025 A2971=,- RA SN SH
20180101_110000.002,0,RJCC,,,,0,20180101110000,-1,-1,-1,-1,130,-1,10,-1,-1,-1,-1,,9999,0,1,3,FEW 10   SCT 15   BKN 25,1,3,1,0,1006,RJCC 011100Z 13010KT 9999 -SHRASN FEW010 SCT015 BKN025 03/00     Q1006 RMK 1ST010 3ST015 6CU025 A2972=,- RA SN SH
20180101_113000.001,0,RJCC,,,,0,20180101110000,-1,-1,-1,-1,120,-1,11,-1,-1,-1,-1,,9999,0,1,3,FEW 10   SCT 15   BKN 25,1,2,1,1,1006,RJCC 011130Z 12011KT 9999 -SHRASN FEW010 SCT015 BKN025 02/01     Q1006 RMK 1ST010 4ST015 7CU025 A2971=,- RA SN SH
20180101_120000.002,0,RJCC,,,,0,20180101120000,-1,-1,-1,-1,120,-1,9,-1,-1,-1,-1,,8000,0,1,3,FEW 10   BKN 15   BKN 20,1,2,1,1,1006,RJCC 011200Z 12009KT 8000 -SHRASN FEW010 BKN015 BKN020 02/01     Q1006 RMK 1ST010 5ST015 7CU020 A2972=,- RA SN SH
20180101_123000.001,0,RJCC,,,,0,20180101120000,-1,-1,-1,-1,150,-1,5,-1,-1,-1,-1,,7000,0,1,3,FEW 9   BKN 15   BKN 20,1,2,1,1,1006,RJCC 011230Z 15005KT 7000 -SHRASN FEW009 BKN015 BKN020 02/01     Q1006 RMK 1ST009 5ST015 7CU020 A2972=,- RA SN SH
20180101_130000.002,0,RJCC,,,,0,20180101130000,-1,-1,-1,-1,140,-1,9,-1,-1,-1,-1,,9999,0,1,3,FEW 9   BKN 15   BKN 25,1,2,1,1,1006,RJCC 011300Z 14009KT 9999 -SHRASN FEW009 BKN015 BKN025 02/01     Q1006 RMK 1ST009 5ST015 7CU025 A2972=,- RA SN SH
20180101_133000.001,0,RJCC,,,,0,20180101130000,-1,-1,-1,-1,130,-1,9,-1,-1,-1,-1,,9999,0,1,3,FEW 8   BKN 15   BKN 20,1,2,1,1,1006,RJCC 011330Z 13009KT 9999 -SHRASN FEW008 BKN015 BKN020 02/01     Q1006 RMK 1ST008 5ST015 7CU020 A2972=,- RA SN SH
20180101_140000.002,0,RJCC,,,,0,20180101140000,-1,-1,-1,-1,120,-1,7,-1,-1,-1,-1,,9999,0,0,3,FEW 8   BKN 30   BKN 70,1,2,1,1,1006,RJCC 011400Z 12007KT 9999 FEW008 BKN030 BKN070 02/01 Q1006 RMK     1ST008 5CU030 7AC070 A2971=,
20180101_143000.001,0,RJCC,,,,0,20180101140000,-1,-1,-1,-1,110,-1,4,-1,-1,-1,-1,,9999,0,0,3,FEW 10   BKN 40   BKN 70,1,2,1,1,1006,RJCC 011430Z 11004KT 9999 FEW010 BKN040 BKN070 02/01 Q1006 RMK     1ST010 5CU040 7AC070 A2972=,
20180101_150000.002,0,RJCC,,,,0,20180101150000,-1,-1,-1,-1,120,-1,6,-1,-1,-1,-1,,9999,0,0,3,FEW 10   BKN 35   BKN 70,1,2,1,1,1006,RJCC 011500Z 12006KT 9999 FEW010 BKN035 BKN070 02/01 Q1006 RMK     1ST010 6CU035 7AC070 A2971=,
20180101_153000.001,0,RJCC,,,,0,20180101150000,-1,-1,-1,-1,100,-1,5,-1,-1,-1,-1,,9999,0,1,3,FEW 10   SCT 35   BKN 50,1,2,-1,0,1005,RJCC 011530Z 10005KT 9999 -SHSNRA FEW010 SCT035 BKN050 02/M00     Q1005 RMK 1ST010 3CU035 6CU050 A2970=,- SN RA SH
20180101_160000.002,0,RJCC,,,,0,20180101160000,-1,-1,-1,-1,110,-1,6,-1,-1,-1,-1,,9999,0,0,3,FEW 10   SCT 35   BKN 50,1,1,-1,1,1005,RJCC 011600Z 11006KT 9999 FEW010 SCT035 BKN050 01/M01 Q1005     RMK 1ST010 4CU035 7CU050 A2970=,
20180101_163000.001,0,RJCC,,,,0,20180101160000,-1,-1,-1,-1,90,-1,5,-1,-1,-1,-1,,9999,0,0,3,FEW 15   SCT 35   BKN 170,1,1,-1,2,1005,RJCC 011630Z 09005KT 9999 FEW015 SCT035 BKN170 01/M02 Q1005     RMK 1ST015 3CU035 6AC170 A2969=,
20180101_170000.002,0,RJCC,,,,0,20180101170000,-1,-1,-1,-1,120,-1,4,-1,-1,-1,-1,,9999,0,0,3,FEW 15   SCT 35   BKN 50,1,1,-1,2,1005,RJCC 011700Z 12004KT 9999 FEW015 SCT035 BKN050 01/M02 Q1005     RMK 1ST015 3CU035 6CU050 A2970=,
20180101_173000.001,0,RJCC,,,,0,20180101170000,-1,-1,-1,-1,0,-1,0,-1,-1,-1,-1,,9999,0,0,3,FEW 15   SCT 40   BKN 50,1,1,-1,2,1005,RJCC 011730Z 00000KT 9999 FEW015 SCT040 BKN050 01/M02 Q1005     RMK 1ST015 3CU040 7CU050 A2970=,
20180101_180000.003,0,RJCC,,,,0,20180101180000,-1,-1,-1,-1,330,-1,3,-1,-1,-1,-1,,9999,0,0,3,FEW 15   BKN 40   BKN 50,1,0,-1,1,1005,RJCC 011800Z 33003KT 9999 FEW015 BKN040 BKN050 00/M01 Q1005     RMK 1ST015 5CU040 7CU050 A2970=,
20180101_183000.001,0,RJCC,,,,0,20180101180000,-1,-1,-1,-1,320,-1,3,-1,-1,-1,-1,,9999,0,0,3,FEW 15   BKN 40   BKN 50,1,1,-1,1,1005,RJCC 011830Z 32003KT 9999 FEW015 BKN040 BKN050 01/M01 Q1005     RMK 1ST015 6CU040 7CU050 A2970=,
20180101_190000.003,0,RJCC,,,,0,20180101190000,-1,-1,-1,-1,290,-1,4,-1,-1,-1,-1,,9999,0,1,2,FEW 15   BKN 35,1,1,-1,1,1006,RJCC 011900Z 29004KT 9999 -SHSN FEW015 BKN035 01/M01 Q1006 RMK     1ST015 7CU035 A2971=,- SN SH
20180101_193000.001,0,RJCC,,,,0,20180101190000,-1,-1,-1,-1,330,-1,4,-1,-1,-1,-1,,9999,0,1,2,FEW 15   BKN 30,1,1,-1,1,1006,RJCC 011930Z 33004KT 9999 -SHSN FEW015 BKN030 01/M01 Q1006 RMK     1ST015 7CU030 A2971=,- SN SH
20180101_200000.003,0,RJCC,,,,0,20180101200000,-1,-1,-1,-1,10,-1,5,-1,-1,-1,-1,,9999,0,1,2,FEW 15   BKN 30,1,1,-1,1,1005,RJCC 012000Z 01005KT 9999 -SHSN FEW015 BKN030 01/M01 Q1005 RMK     1ST015 7CU030 A2970=,- SN SH
20180101_203000.001,0,RJCC,,,,0,20180101200000,-1,-1,-1,-1,350,-1,4,-1,-1,-1,-1,,9999,0,1,2,FEW 15   BKN 30,1,0,-1,1,1006,RJCC 012030Z 35004KT 9999 -SHSN FEW015 BKN030 00/M01 Q1006 RMK     1ST015 7CU030 A2971=,- SN SH
20180101_210000.002,0,RJCC,,,,0,20180101210000,-1,-1,-1,-1,360,-1,4,-1,-1,-1,-1,,9999,0,1,2,FEW 15   BKN 30,1,0,-1,0,1006,RJCC 012100Z 36004KT 9999 -SHSN FEW015 BKN030 00/M00 Q1006 RMK     1ST015 7CU030 A2971=,- SN SH
20180101_213000.001,0,RJCC,,,,0,20180101210000,-1,-1,-1,-1,300,-1,4,-1,-1,-1,-1,,9999,0,1,2,FEW 10   BKN 30,1,0,-1,0,1006,RJCC 012130Z 30004KT 9999 -SHSN FEW010 BKN030 00/M00 Q1006 RMK     1ST010 7CU030 A2971=,- SN SH
20180101_220000.002,0,RJCC,,,,0,20180101220000,-1,-1,-1,-1,330,-1,4,-1,-1,-1,-1,,4500,0,1,2,FEW 10   BKN 25,1,0,1,0,1006,RJCC 012200Z 33004KT 4500 -SHSN FEW010 BKN025 00/00 Q1006 RMK     1ST010 7CU025 A2972=,- SN SH
20180101_223000.002,0,RJCC,,,,0,20180101220000,-1,-1,-1,-1,999,-1,2,-1,-1,-1,-1,,2500,0,1,3,FEW 10   SCT 18   BKN 25,1,0,1,0,1006,RJCC 012230Z VRB02KT 2500 -SHSN FEW010 SCT018 BKN025 00/00     Q1006 RMK 1ST010 4ST018 7CU025 A2972=,- SN SH
20180101_230000.002,0,RJCC,,,,0,20180101230000,-1,-1,-1,-1,50,-1,4,-1,-1,30,140,,600,2,1,1,VV 7,1,0,1,0,1006,RJCC 012300Z 05004KT 030V140 0600 R19R/1400VP2000D R19L/2000N     SHSN VV007 00/00 Q1006 RMK A2972=,SN SH
20180101_233000.001,0,RJCC,,,,0,20180101230000,-1,-1,-1,-1,60,-1,4,-1,-1,-1,-1,,600,2,1,1,VV 5,1,0,1,0,1006,RJCC 012330Z 06004KT 0600 R19R/1200V1800U R19L/1600VP2000U     SHSN VV005 00/00 Q1006 RMK A2972=,SN SH
20180102_000000.003,0,RJCC,,,,0,20180102000000,-1,-1,-1,-1,999,-1,2,-1,-1,-1,-1,,700,2,1,1,VV 4,1,0,1,0,1006,RJCC 020000Z VRB02KT 0700 R19R/1800D R19L/2000N SHSN VV004     00/00 Q1006 RMK A2972=,SN SH
20180102_003000.001,0,RJCC,,,,0,20180102000000,-1,-1,-1,-1,340,-1,3,-1,-1,270,70,,1600,2,1,2,FEW 3   BKN 4,1,0,1,0,1006,RJCC 020030Z 34003KT 270V070 1600 R19R/P2000N R19L/P2000N     -SHSN FEW003 BKN004 00/00 Q1006 RMK 1ST003 7ST004 A2972=,- SN SH
20180102_010000.003,0,RJCC,,,,0,20180102010000,-1,-1,-1,-1,999,-1,1,-1,-1,-1,-1,,3000,0,1,3,FEW 2   SCT 3   BKN 4,1,1,1,1,1006,RJCC 020100Z VRB01KT 3000 -SHSN FEW002 SCT003 BKN004 01/01     Q1006 RMK 1ST002 4ST003 7ST004 A2971=,- SN SH
20180102_013000.001,0,RJCC,,,,0,20180102010000,-1,-1,-1,-1,999,-1,1,-1,-1,-1,-1,,5000,0,1,3,FEW 3   SCT 4   BKN 5,1,1,1,1,1006,RJCC 020130Z VRB01KT 5000 -SHSN FEW003 SCT004 BKN005 01/01     Q1006 RMK 1ST003 4ST004 7ST005 A2971=,- SN SH
20180102_020000.002,0,RJCC,,,,0,20180102020000,-1,-1,-1,-1,999,-1,1,-1,-1,-1,-1,,8000,0,1,3,FEW 3   BKN 4   BKN 5,1,1,1,1,1005,RJCC 020200Z VRB01KT 8000 -SHSN FEW003 BKN004 BKN005 01/01     Q1005 RMK 1ST003 6ST004 7ST005 A2970=,- SN SH
20180102_023000.001,0,RJCC,,,,0,20180102020000,-1,-1,-1,-1,999,-1,2,-1,-1,-1,-1,,6000,0,1,3,FEW 3   BKN 4   BKN 5,1,1,1,1,1005,RJCC 020230Z VRB02KT 6000 -SHSN FEW003 BKN004 BKN005 01/01     Q1005 RMK 1ST003 5ST004 7ST005 A2969=,- SN SH
20180102_030000.002,0,RJCC,,,,0,20180102030000,-1,-1,-1,-1,170,-1,5,-1,-1,-1,-1,,6000,0,0,2,FEW 3   BKN 4,1,1,1,1,1005,RJCC 020300Z 17005KT 6000 FEW003 BKN004 01/01 Q1005 RMK 1ST003     6ST004 A2969=,
20180102_033000.001,0,RJCC,,,,0,20180102030000,-1,-1,-1,-1,130,-1,4,-1,-1,-1,-1,,9999,0,0,2,FEW 4   BKN 90,1,2,1,1,1004,RJCC 020330Z 13004KT 9999 FEW004 BKN090 02/01 Q1004 RMK 2ST004     7AC090 A2967=,
20180102_040000.002,0,RJCC,,,,0,20180102040000,-1,-1,-1,-1,130,-1,6,-1,-1,-1,-1,,9999,0,0,3,FEW 5   SCT 90   BKN 120,1,3,1,1,1004,RJCC 020400Z 13006KT 9999 FEW005 SCT090 BKN120 03/01 Q1004 RMK     1ST005 4AC090 7AC120 A2967=,
20180102_043000.001,0,RJCC,,,,0,20180102040000,-1,-1,-1,-1,230,-1,6,-1,-1,200,270,,9999,0,0,3,FEW 5   SCT 40   BKN 120,1,5,-1,2,1004,RJCC 020430Z 23006KT 200V270 9999 FEW005 SCT040 BKN120 05/M02     Q1004 RMK 1ST005 3CU040 6AC120 A2967=,
20180102_050000.002,0,RJCC,,,,0,20180102050000,-1,-1,-1,-1,250,-1,16,-1,-1,-1,-1,,9999,0,0,3,FEW 15   SCT 40   BKN 120,1,4,-1,2,1005,RJCC 020500Z 25016KT 9999 FEW015 SCT040 BKN120 04/M02 Q1005     RMK 1ST015 3CU040 5AC120 A2968=,
20180102_053000.001,0,RJCC,,,,0,20180102050000,-1,-1,-1,-1,240,-1,12,-1,-1,-1,-1,,9999,0,0,2,FEW 15   SCT 50,1,4,-1,3,1005,RJCC 020530Z 24012KT 9999 FEW015 SCT050 04/M03 Q1005 RMK     1ST015 3CU050 A2969=,
20180102_060000.002,0,RJCC,,,,0,20180102060000,-1,-1,-1,-1,240,-1,14,-1,-1,-1,-1,,9999,0,1,2,FEW 15   SCT 50,1,3,-1,3,1005,RJCC 020600Z 24014KT 9999 VCSH FEW015 SCT050 03/M03 Q1005 RMK     1ST015 3CU050 A2970 SH E=,VC SH
20180102_063000.001,0,RJCC,,,,0,20180102060000,-1,-1,-1,-1,230,-1,14,-1,-1,-1,-1,,9999,0,1,2,FEW 20   SCT 50,1,3,-1,4,1005,RJCC 020630Z 23014KT 9999 VCSH FEW020 SCT050 03/M04 Q1005 RMK     1CU020 3CU050 A2970 SH E=,VC SH
20180102_070000.002,0,RJCC,,,,0,20180102070000,-1,-1,-1,-1,230,-1,13,-1,-1,-1,-1,,9999,0,0,2,FEW 20   SCT 50,1,2,-1,4,1005,RJCC 020700Z 23013KT 9999 FEW020 SCT050 02/M04 Q1005 RMK     1CU020 3CU050 A2970=,
20180102_073000.001,0,RJCC,,,,0,20180102070000,-1,-1,-1,-1,230,-1,13,-1,-1,-1,-1,,9999,0,0,3,FEW 20   SCT 45   BKN 80,1,2,-1,4,1005,RJCC 020730Z 23013KT 9999 FEW020 SCT045 BKN080 02/M04 Q1005     RMK 1CU020 3CU045 5AC080 A2970=,
20180102_080000.002,0,RJCC,,,,0,20180102080000,-1,-1,-1,-1,230,-1,11,-1,-1,-1,-1,,9999,0,0,2,FEW 20   BKN 50,1,2,-1,5,1005,RJCC 020800Z 23011KT 9999 FEW020 BKN050 02/M05 Q1005 RMK     1CU020 6CU050 A2970=,
20180102_083000.001,0,RJCC,,,,0,20180102080000,-1,-1,-1,-1,220,-1,10,-1,-1,180,250,,9999,0,0,2,FEW 20   BKN 60,1,1,-1,5,1005,RJCC 020830Z 22010KT 180V250 9999 FEW020 BKN060 01/M05 Q1005     RMK 1CU020 6CU060 A2970=,
20180102_090000.002,0,RJCC,,,,0,20180102090000,-1,-1,-1,-1,240,-1,10,-1,-1,190,270,,9999,0,0,3,FEW 20   SCT 60   BKN 80,1,1,-1,5,1005,RJCC 020900Z 24010KT 190V270 9999 FEW020 SCT060 BKN080 01/M05     Q1005 RMK 1CU020 3CU060 5AC080 A2970=,
20180102_093000.001,0,RJCC,,,,0,20180102090000,-1,-1,-1,-1,200,-1,8,-1,-1,-1,-1,,9999,0,0,2,FEW 20   SCT 80,-1,0,-1,5,1005,RJCC 020930Z 20008KT 9999 FEW020 SCT080 M00/M05 Q1005 RMK     1CU020 3AC080 A2970=,
20180102_100000.002,0,RJCC,,,,0,20180102100000,-1,-1,-1,-1,220,-1,8,-1,-1,-1,-1,,9999,0,0,2,FEW 20   BKN 50,-1,0,-1,4,1005,RJCC 021000Z 22008KT 9999 FEW020 BKN050 M00/M04 Q1005 RMK     1CU020 7CU050 A2970=,
20180102_103000.001,0,RJCC,,,,0,20180102100000,-1,-1,-1,-1,220,-1,6,-1,-1,190,250,,9999,0,0,3,FEW 20   BKN 50   BKN -9999,-1,0,-1,5,1005,RJCC 021030Z 22006KT 190V250 9999 FEW020 BKN050 BKN/// M00/M05     Q1005 RMK 1CU020 5CU050 A2969=,
20180102_110000.002,0,RJCC,,,,0,20180102110000,-1,-1,-1,-1,220,-1,8,-1,-1,190,260,,9999,0,0,3,FEW 20   SCT 50   BKN -9999,-1,1,-1,6,1005,RJCC 021100Z 22008KT 190V260 9999 FEW020 SCT050 BKN/// M01/M06     Q1005 RMK 1CU020 4CU050 A2969=,
20180102_113000.001,0,RJCC,,,,0,20180102110000,-1,-1,-1,-1,230,-1,10,-1,-1,-1,-1,,9999,0,0,2,FEW 20   BKN 50,-1,1,-1,8,1005,RJCC 021130Z 23010KT 9999 FEW020 BKN050 M01/M08 Q1005 RMK     1CU020 6CU050 A2968=,
20180102_120000.002,0,RJCC,,,,0,20180102120000,-1,-1,-1,-1,180,-1,6,-1,-1,-1,-1,,9999,0,0,2,FEW 20   BKN 60,-1,2,-1,6,1005,RJCC 021200Z 18006KT 9999 FEW020 BKN060 M02/M06 Q1005 RMK     1CU020 7CU060 A2969=,
20180102_123000.001,0,RJCC,,,,0,20180102120000,-1,-1,-1,-1,220,-1,6,-1,-1,190,290,,9999,0,0,2,FEW 20   BKN 60,-1,1,-1,7,1005,RJCC 021230Z 22006KT 190V290 9999 FEW020 BKN060 M01/M07 Q1005     RMK 1CU020 6CU060 A2969=,
20180102_130000.003,0,RJCC,,,,0,20180102130000,-1,-1,-1,-1,220,-1,9,-1,-1,-1,-1,,9999,0,0,2,FEW 20   BKN 60,-1,2,-1,8,1005,RJCC 021300Z 22009KT 9999 FEW020 BKN060 M02/M08 Q1005 RMK     1CU020 5CU060 A2968=,
20180102_133000.001,0,RJCC,,,,0,20180102130000,-1,-1,-1,-1,180,-1,7,-1,-1,-1,-1,,9999,0,0,2,FEW 20   SCT 60,-1,2,-1,8,1005,RJCC 021330Z 18007KT 9999 FEW020 SCT060 M02/M08 Q1005 RMK     1CU020 4CU060 A2968=,
20180102_140000.003,0,RJCC,,,,0,20180102140000,-1,-1,-1,-1,210,-1,8,-1,-1,-1,-1,,9999,0,0,3,FEW 20   SCT 60   BKN 170,-1,2,-1,8,1004,RJCC 021400Z 21008KT 9999 FEW020 SCT060 BKN170 M02/M08 Q1004     RMK 1CU020 3CU060 6AC170 A2967=,
20180102_143000.001,0,RJCC,,,,0,20180102140000,-1,-1,-1,-1,210,-1,5,-1,-1,-1,-1,,9999,0,0,2,FEW 30   BKN 150,-1,2,-1,8,1004,RJCC 021430Z 21005KT 9999 FEW030 BKN150 M02/M08 Q1004 RMK     1CU030 7AC150 A2967=,
20180102_150000.002,0,RJCC,,,,0,20180102150000,-1,-1,-1,-1,210,-1,4,-1,-1,-1,-1,,9999,0,0,2,FEW 25   BKN 130,-1,3,-1,8,1004,RJCC 021500Z 21004KT 9999 FEW025 BKN130 M03/M08 Q1004 RMK     2CU025 7AC130 A2967=,
20180102_153000.001,0,RJCC,,,,0,20180102150000,-1,-1,-1,-1,170,-1,4,-1,-1,-1,-1,,9999,0,0,2,FEW 25   BKN 120,-1,4,-1,7,1004,RJCC 021530Z 17004KT 9999 FEW025 BKN120 M04/M07 Q1004 RMK     1CU025 7AC120 A2966=,
20180102_160000.002,0,RJCC,,,,0,20180102160000,-1,-1,-1,-1,220,-1,4,-1,-1,-1,-1,,9999,0,0,3,FEW 15   SCT 25   BKN 120,-1,4,-1,8,1004,RJCC 021600Z 22004KT 9999 FEW015 SCT025 BKN120 M04/M08 Q1004     RMK 1ST015 3CU025 7AC120 A2966=,
20180102_163000.001,0,RJCC,,,,0,20180102160000,-1,-1,-1,-1,999,-1,2,-1,-1,-1,-1,,9999,0,0,3,FEW 15   SCT 25   BKN 120,-1,4,-1,7,1004,RJCC 021630Z VRB02KT 9999 FEW015 SCT025 BKN120 M04/M07 Q1004     RMK 1ST015 4CU025 7AC120 A2967=,
20180102_170000.002,0,RJCC,,,,0,20180102170000,-1,-1,-1,-1,360,-1,2,-1,-1,-1,-1,,9999,0,0,3,FEW 15   SCT 30   BKN 130,-1,4,-1,8,1004,RJCC 021700Z 36002KT 9999 FEW015 SCT030 BKN130 M04/M08 Q1004     RMK 1ST015 3CU030 7AC130 A2967=,
20180102_173000.001,0,RJCC,,,,0,20180102170000,-1,-1,-1,-1,360,-1,2,-1,-1,-1,-1,,9999,0,0,3,FEW 15   SCT 90   BKN 150,-1,5,-1,8,1005,RJCC 021730Z 36002KT 9999 FEW015 SCT090 BKN150 M05/M08 Q1005     RMK 1ST015 3AC090 7AC150 A2969=,
20180102_180000.003,0,RJCC,,,,0,20180102180000,-1,-1,-1,-1,330,-1,5,-1,-1,-1,-1,,9999,0,0,2,FEW 15   BKN 90,-1,5,-1,7,1005,RJCC 021800Z 33005KT 9999 FEW015 BKN090 M05/M07 Q1005 RMK     1ST015 7AC090 A2968=,
20180102_183000.001,0,RJCC,,,,0,20180102180000,-1,-1,-1,-1,330,-1,5,-1,-1,-1,-1,,9999,0,0,3,FEW 15   SCT 50   BKN 70,-1,4,-1,6,1005,RJCC 021830Z 33005KT 9999 FEW015 SCT050 BKN070 M04/M06 Q1005     RMK 1ST015 3CU050 7AC070 A2968=,
20180102_190000.002,0,RJCC,,,,0,20180102190000,-1,-1,-1,-1,340,-1,6,-1,-1,-1,-1,,9999,0,0,2,FEW 10   BKN 50,-1,4,-1,6,1005,RJCC 021900Z 34006KT 9999 FEW010 BKN050 M04/M06 Q1005 RMK     1ST010 7CU050 A2968=,
20180102_193000.001,0,RJCC,,,,0,20180102190000,-1,-1,-1,-1,340,-1,5,-1,-1,-1,-1,,9999,0,0,3,FEW 10   BKN 50   BKN 70,-1,3,-1,6,1005,RJCC 021930Z 34005KT 9999 FEW010 BKN050 BKN070 M03/M06 Q1005     RMK 1ST010 5CU050 7AC070 A2968=,
20180102_200000.003,0,RJCC,,,,0,20180102200000,-1,-1,-1,-1,330,-1,5,-1,-1,-1,-1,,9999,0,0,3,FEW 15   SCT 50   BKN 70,-1,3,-1,6,1005,RJCC 022000Z 33005KT 9999 FEW015 SCT050 BKN070 M03/M06 Q1005     RMK 1ST015 3CU050 7AC070 A2969=,
20180102_203000.001,0,RJCC,,,,0,20180102200000,-1,-1,-1,-1,330,-1,7,-1,-1,-1,-1,,9999,0,1,3,FEW 15   BKN 60   BKN 80,-1,3,-1,5,1005,RJCC 022030Z 33007KT 9999 -SHSN FEW015 BKN060 BKN080 M03/M05     Q1005 RMK 1ST015 5CU060 7AC080 A2970=,- SN SH
20180102_210000.002,0,RJCC,,,,0,20180102210000,-1,-1,-1,-1,350,-1,6,-1,-1,-1,-1,,5000,0,1,3,FEW 15   SCT 40   BKN 60,-1,3,-1,5,1005,RJCC 022100Z 35006KT 5000 -SHSN FEW015 SCT040 BKN060 M03/M05     Q1005 RMK 1ST015 4CU040 6CU060 A2970=,- SN SH
20180102_213000.001,0,RJCC,,,,0,20180102210000,-1,-1,-1,-1,350,-1,6,-1,-1,-1,-1,,4000,0,1,2,FEW 15   BKN 30,-1,3,-1,4,1006,RJCC 022130Z 35006KT 4000 -SHSN FEW015 BKN030 M03/M04 Q1006     RMK 1ST015 7CU030 A2971=,- SN SH
20180102_220000.002,0,RJCC,,,,0,20180102220000,-1,-1,-1,-1,350,-1,6,-1,-1,-1,-1,,4000,0,1,3,FEW 15   BKN 30   BKN 45,-1,4,-1,4,1006,RJCC 022200Z 35006KT 4000 -SHSN FEW015 BKN030 BKN045 M04/M04     Q1006 RMK 1ST015 5CU030 7CU045 A2972=,- SN SH
20180102_223000.002,0,RJCC,,,,0,20180102220000,-1,-1,-1,-1,340,-1,9,-1,-1,-1,-1,,5000,0,1,3,FEW 15   BKN 30   BKN 90,-1,3,-1,4,1006,RJCC 022230Z 34009KT 5000 -SHSN FEW015 BKN030 BKN090 M03/M04     Q1006 RMK 1ST015 5CU030 6AC090 A2972=,- SN SH
20180102_230000.002,0,RJCC,,,,0,20180102230000,-1,-1,-1,-1,350,-1,9,-1,-1,-1,-1,,5000,0,1,3,FEW 10   BKN 20   BKN 90,-1,3,-1,4,1006,RJCC 022300Z 35009KT 5000 -SHSN FEW010 BKN020 BKN090 M03/M04     Q1006 RMK 1ST010 5CU020 6AC090 A2973=,- SN SH
20180102_233000.001,0,RJCC,,,,0,20180102230000,-1,-1,-1,-1,350,-1,10,-1,-1,-1,-1,,5000,0,1,3,FEW 10   BKN 20   BKN 80,-1,3,-1,3,1006,RJCC 022330Z 35010KT 5000 -SHSN FEW010 BKN020 BKN080 M03/M03     Q1006 RMK 1ST010 5CU020 6AC080 A2973 9999S=,- SN SH
20180103_000000.002,0,RJCC,,,,0,20180103000000,-1,-1,-1,-1,340,-1,10,-1,-1,-1,-1,,6000,0,1,3,FEW 10   BKN 20   BKN 60,-1,2,-1,3,1007,RJCC 030000Z 34010KT 6000 -SHSN FEW010 BKN020 BKN060 M02/M03     Q1007 RMK 1ST010 5CU020 7CU060 A2974=,- SN SH
20180103_003000.001,0,RJCC,,,,0,20180103000000,-1,-1,-1,-1,340,-1,11,-1,-1,-1,-1,,9999,0,1,3,FEW 8   BKN 20   BKN 60,-1,2,-1,3,1007,RJCC 030030Z 34011KT 9999 -SHSN FEW008 BKN020 BKN060 M02/M03     Q1007 RMK 1ST008 5CU020 7CU060 A2974=,- SN SH
20180103_010000.002,0,RJCC,,,,0,20180103010000,-1,-1,-1,-1,340,-1,11,-1,-1,-1,-1,,9999,0,0,3,FEW 3   BKN 6   BKN 50,-1,2,-1,2,1007,RJCC 030100Z 34011KT 9999 FEW003 BKN006 BKN050 M02/M02 Q1007     RMK 1ST003 5ST006 7CU050 A2974=,
20180103_013000.001,0,RJCC,,,,0,20180103010000,-1,-1,-1,-1,340,-1,12,-1,-1,-1,-1,,9999,0,0,3,FEW 3   SCT 6   BKN 60,-1,1,-1,2,1007,RJCC 030130Z 34012KT 9999 FEW003 SCT006 BKN060 M01/M02 Q1007     RMK 1ST003 4ST006 5CU060 A2974=,
20180103_020000.002,0,RJCC,,,,0,20180103020000,-1,-1,-1,-1,340,-1,13,-1,-1,-1,-1,,9999,0,0,3,FEW 6   SCT 100   BKN -9999,1,0,-1,2,1007,RJCC 030200Z 34013KT 9999 FEW006 SCT100 BKN/// 00/M02 Q1007     RMK 1ST006 3AC100 A2975=,
20180103_023000.001,0,RJCC,,,,0,20180103020000,-1,-1,-1,-1,350,-1,16,-1,-1,-1,-1,,9999,0,0,3,FEW 10   SCT 100   BKN -9999,1,0,-1,3,1007,RJCC 030230Z 35016KT 9999 FEW010 SCT100 BKN/// 00/M03 Q1007     RMK 1ST010 4AC100 A2975=,
20180103_030000.003,0,RJCC,,,,0,20180103030000,-1,-1,-1,-1,350,-1,17,-1,-1,-1,-1,,9999,0,0,3,FEW 10   BKN 100   BKN -9999,1,0,-1,3,1007,RJCC 030300Z 35017KT 9999 FEW010 BKN100 BKN/// 00/M03 Q1007     RMK 1ST010 5AC100 A2975=,
20180103_033000.001,0,RJCC,,,,0,20180103030000,-1,-1,-1,-1,350,-1,16,-1,-1,-1,-1,,9999,0,0,3,FEW 20   SCT 100   BKN -9999,1,0,-1,3,1007,RJCC 030330Z 35016KT 9999 FEW020 SCT100 BKN/// 00/M03 Q1007     RMK 1CU020 4AC100 A2975=,
20180103_040000.002,0,RJCC,,,,0,20180103040000,-1,-1,-1,-1,340,-1,18,-1,-1,-1,-1,,9999,0,0,3,FEW 20   SCT 100   BKN -9999,1,1,-1,4,1007,RJCC 030400Z 34018KT 9999 FEW020 SCT100 BKN/// 01/M04 Q1007     RMK 1CU020 4AC100 A2976=,
20180103_043000.001,0,RJCC,,,,0,20180103040000,-1,-1,-1,-1,340,-1,17,-1,-1,-1,-1,,9999,0,0,3,FEW 20   SCT 100   BKN -9999,1,0,-1,3,1008,RJCC 030430Z 34017KT 9999 FEW020 SCT100 BKN/// 00/M03 Q1008     RMK 1CU020 4AC100 A2977=,
20180103_050000.002,0,RJCC,,,,0,20180103050000,-1,-1,-1,-1,340,-1,15,-1,-1,-1,-1,,9999,0,0,3,FEW 20   SCT 100   BKN -9999,1,0,-1,4,1008,RJCC 030500Z 34015KT 9999 FEW020 SCT100 BKN/// 00/M04 Q1008     RMK 1CU020 4AC100 A2977=,
20180103_053000.001,0,RJCC,,,,0,20180103050000,-1,-1,-1,-1,340,-1,17,-1,-1,-1,-1,,9999,0,0,3,FEW 25   SCT 100   BKN -9999,-1,0,-1,4,1008,RJCC 030530Z 34017KT 9999 FEW025 SCT100 BKN/// M00/M04 Q1008     RMK 1CU025 4AC100 A2979=,
20180103_060000.002,0,RJCC,,,,0,20180103060000,-1,-1,-1,-1,350,-1,17,-1,-1,-1,-1,,9999,0,0,3,FEW 25   SCT 100   BKN -9999,-1,0,-1,5,1009,RJCC 030600Z 35017KT 9999 FEW025 SCT100 BKN/// M00/M05 Q1009     RMK 1CU025 3AC100 A2980=,
20180103_063000.001,0,RJCC,,,,0,20180103060000,-1,-1,-1,-1,340,-1,14,-1,-1,-1,-1,,9999,0,0,3,FEW 20   BKN 160   BKN -9999,-1,1,-1,5,1009,RJCC 030630Z 34014KT 9999 FEW020 BKN160 BKN/// M01/M05 Q1009     RMK 1CU020 5AC160 A2981=,
20180103_070000.002,0,RJCC,,,,0,20180103070000,-1,-1,-1,-1,350,-1,12,-1,-1,-1,-1,,9999,0,0,3,FEW 20   SCT 150   BKN -9999,-1,1,-1,6,1009,RJCC 030700Z 35012KT 9999 FEW020 SCT150 BKN/// M01/M06 Q1009     RMK 1CU020 4AC150 A2982=,
20180103_073000.001,0,RJCC,,,,0,20180103070000,-1,-1,-1,-1,340,-1,11,-1,-1,-1,-1,,9999,0,0,3,FEW 20   SCT 40   BKN 150,-1,1,-1,6,1010,RJCC 030730Z 34011KT 9999 FEW020 SCT040 BKN150 M01/M06 Q1010     RMK 1CU020 3CU040 5AC150 A2983=,
20180103_080000.002,0,RJCC,,,,0,20180103080000,-1,-1,-1,-1,330,-1,10,-1,-1,-1,-1,,9999,0,0,3,FEW 20   SCT 40   BKN 160,-1,1,-1,6,1010,RJCC 030800Z 33010KT 9999 FEW020 SCT040 BKN160 M01/M06 Q1010     RMK 1CU020 4CU040 6AC160 A2984=,
20180103_083000.001,0,RJCC,,,,0,20180103080000,-1,-1,-1,-1,340,-1,9,-1,-1,-1,-1,,9999,0,0,3,FEW 20   SCT 40   BKN -9999,-1,2,-1,6,1011,RJCC 030830Z 34009KT 9999 FEW020 SCT040 BKN/// M02/M06 Q1011     RMK 1CU020 3CU040 A2986=,
20180103_090000.002,0,RJCC,,,,0,20180103090000,-1,-1,-1,-1,330,-1,9,-1,-1,-1,-1,,9999,0,0,3,FEW 20   SCT 40   BKN -9999,-1,2,-1,6,1011,RJCC 030900Z 33009KT 9999 FEW020 SCT040 BKN/// M02/M06 Q1011     RMK 1CU020 3CU040 A2987=,
20180103_093000.001,0,RJCC,,,,0,20180103090000,-1,-1,-1,-1,350,-1,9,-1,-1,-1,-1,,9999,0,0,2,FEW 20   BKN -9999,-1,3,-1,7,1011,RJCC 030930Z 35009KT 9999 FEW020 BKN/// M03/M07 Q1011 RMK     1CU020 A2988=,
20180103_100000.002,0,RJCC,,,,0,20180103100000,-1,-1,-1,-1,360,-1,10,-1,-1,-1,-1,,9999,0,0,2,FEW 20   BKN -9999,-1,3,-1,7,1011,RJCC 031000Z 36010KT 9999 FEW020 BKN/// M03/M07 Q1011 RMK     1CU020 A2988=,
20180103_103000.001,0,RJCC,,,,0,20180103100000,-1,-1,-1,-1,360,-1,11,-1,-1,-1,-1,,9999,0,0,2,FEW 20   SCT -9999,-1,3,-1,7,1012,RJCC 031030Z 36011KT 9999 FEW020 SCT/// M03/M07 Q1012 RMK     1CU020 A2989=,
20180103_110000.002,0,RJCC,,,,0,20180103110000,-1,-1,-1,-1,340,-1,10,-1,-1,-1,-1,,9999,0,0,2,FEW 20   BKN -9999,-1,3,-1,8,1012,RJCC 031100Z 34010KT 9999 FEW020 BKN/// M03/M08 Q1012 RMK     1CU020 A2990=,
20180103_113000.001,0,RJCC,,,,0,20180103110000,-1,-1,-1,-1,340,-1,10,-1,-1,-1,-1,,9999,0,0,2,FEW 20   BKN -9999,-1,4,-1,8,1012,RJCC 031130Z 34010KT 9999 FEW020 BKN/// M04/M08 Q1012 RMK     1CU020 A2990=,
20180103_120000.002,0,RJCC,,,,0,20180103120000,-1,-1,-1,-1,340,-1,8,-1,-1,-1,-1,,9999,0,0,3,FEW 20   SCT 50   BKN -9999,-1,4,-1,8,1012,RJCC 031200Z 34008KT 9999 FEW020 SCT050 BKN/// M04/M08 Q1012     RMK 1CU020 3CU050 A2990=,
20180103_123000.001,0,RJCC,,,,0,20180103120000,-1,-1,-1,-1,330,-1,8,-1,-1,-1,-1,,9999,0,0,3,FEW 20   BKN 40   BKN -9999,-1,3,-1,8,1012,RJCC 031230Z 33008KT 9999 FEW020 BKN040 BKN/// M03/M08 Q1012     RMK 1CU020 5CU040 A2991=,
20180103_130000.003,0,RJCC,,,,0,20180103130000,-1,-1,-1,-1,310,-1,10,-1,-1,-1,-1,,9999,0,0,2,FEW 20   BKN 40,-1,3,-1,8,1012,RJCC 031300Z 31010KT 9999 FEW020 BKN040 M03/M08 Q1012 RMK     1CU020 7CU040 A2991=,
20180103_133000.001,0,RJCC,,,,0,20180103130000,-1,-1,-1,-1,330,-1,10,-1,-1,-1,-1,,9999,0,0,2,FEW 20   BKN 40,-1,3,-1,8,1013,RJCC 031330Z 33010KT 9999 FEW020 BKN040 M03/M08 Q1013 RMK     1CU020 7CU040 A2992=,
20180103_140000.002,0,RJCC,,,,0,20180103140000,-1,-1,-1,-1,320,-1,9,-1,-1,-1,-1,,9999,0,1,2,FEW 15   BKN 35,-1,3,-1,8,1013,RJCC 031400Z 32009KT 9999 -SHSN FEW015 BKN035 M03/M08 Q1013     RMK 1ST015 7CU035 A2992=,- SN SH
20180103_143000.001,0,RJCC,,,,0,20180103140000,-1,-1,-1,-1,330,-1,9,-1,-1,-1,-1,,9999,0,1,2,FEW 15   BKN 30,-1,3,-1,8,1013,RJCC 031430Z 33009KT 9999 -SHSN FEW015 BKN030 M03/M08 Q1013     RMK 1ST015 7CU030 A2992=,- SN SH
20180103_150000.002,0,RJCC,,,,0,20180103150000,-1,-1,-1,-1,320,-1,9,-1,-1,-1,-1,,9999,0,1,2,FEW 15   BKN 30,-1,3,-1,8,1013,RJCC 031500Z 32009KT 9999 -SHSN FEW015 BKN030 M03/M08 Q1013     RMK 1ST015 7CU030 A2992=,- SN SH
20180103_153000.001,0,RJCC,,,,0,20180103150000,-1,-1,-1,-1,320,-1,10,-1,-1,-1,-1,,9999,0,1,2,FEW 15   BKN 30,-1,3,-1,7,1013,RJCC 031530Z 32010KT 9999 -SHSN FEW015 BKN030 M03/M07 Q1013     RMK 1ST015 7CU030 A2992 5000W=,- SN SH
20180103_160000.002,0,RJCC,,,,0,20180103160000,-1,-1,-1,-1,320,-1,10,-1,-1,-1,-1,,7000,0,1,3,FEW 10   BKN 25   BKN 40,-1,3,-1,6,1013,RJCC 031600Z 32010KT 7000 -SHSN FEW010 BKN025 BKN040 M03/M06     Q1013 RMK 1ST010 6CU025 7CU040 A2992 3500W=,- SN SH
20180103_163000.001,0,RJCC,,,,0,20180103160000,-1,-1,-1,-1,320,-1,9,-1,-1,-1,-1,,9999,0,1,3,FEW 10   SCT 25   BKN 40,-1,3,-1,5,1013,RJCC 031630Z 32009KT 9999 -SHSN FEW010 SCT025 BKN040 M03/M05     Q1013 RMK 1ST010 3CU025 6CU040 A2992=,- SN SH
20180103_170000.002,0,RJCC,,,,0,20180103170000,-1,-1,-1,-1,330,-1,8,-1,-1,-1,-1,,9999,0,1,3,FEW 10   SCT 25   BKN 40,-1,3,-1,5,1013,RJCC 031700Z 33008KT 9999 -SHSN FEW010 SCT025 BKN040 M03/M05     Q1013 RMK 1ST010 4CU025 7CU040 A2993=,- SN SH
20180103_173000.001,0,RJCC,,,,0,20180103170000,-1,-1,-1,-1,320,-1,8,-1,-1,-1,-1,,9999,0,1,3,FEW 10   SCT 25   BKN 40,-1,3,-1,5,1013,RJCC 031730Z 32008KT 9999 -SHSN FEW010 SCT025 BKN040 M03/M05     Q1013 RMK 1ST010 4CU025 7CU040 A2993=,- SN SH
20180103_180000.002,0,RJCC,,,,0,20180103180000,-1,-1,-1,-1,330,-1,9,-1,-1,-1,-1,,9999,0,1,3,FEW 10   SCT 25   BKN 40,-1,3,-1,6,1013,RJCC 031800Z 33009KT 9999 -SHSN FEW010 SCT025 BKN040 M03/M06     Q1013 RMK 1ST010 3CU025 7CU040 A2993=,- SN SH
20180103_183000.001,0,RJCC,,,,0,20180103180000,-1,-1,-1,-1,320,-1,6,-1,-1,-1,-1,,9999,0,1,2,FEW 10   BKN 45,-1,3,-1,5,1013,RJCC 031830Z 32006KT 9999 -SHSN FEW010 BKN045 M03/M05 Q1013     RMK 1ST010 7CU045 A2992=,- SN SH
20180103_190000.002,0,RJCC,,,,0,20180103190000,-1,-1,-1,-1,310,-1,5,-1,-1,-1,-1,,9999,0,1,3,FEW 10   BKN 25   BKN 45,-1,3,-1,5,1013,RJCC 031900Z 31005KT 9999 -SHSN FEW010 BKN025 BKN045 M03/M05     Q1013 RMK 1ST010 5CU025 7CU045 A2994=,- SN SH
20180103_193000.001,0,RJCC,,,,0,20180103190000,-1,-1,-1,-1,320,-1,7,-1,-1,-1,-1,,9999,0,1,2,FEW 10   BKN 25,-1,3,-1,5,1013,RJCC 031930Z 32007KT 9999 -SHSN FEW010 BKN025 M03/M05 Q1013     RMK 1ST010 7CU025 A2994=,- SN SH
20180103_200000.002,0,RJCC,,,,0,20180103200000,-1,-1,-1,-1,320,-1,7,-1,-1,-1,-1,,9999,0,1,2,FEW 10   BKN 30,-1,3,-1,5,1013,RJCC 032000Z 32007KT 9999 -SHSN FEW010 BKN030 M03/M05 Q1013     RMK 1ST010 7CU030 A2994=,- SN SH
20180103_203000.001,0,RJCC,,,,0,20180103200000,-1,-1,-1,-1,320,-1,8,-1,-1,-1,-1,,9999,0,1,2,FEW 10   BKN 30,-1,3,-1,4,1014,RJCC 032030Z 32008KT 9999 -SHSN FEW010 BKN030 M03/M04 Q1014     RMK 1ST010 7CU030 A2995=,- SN SH
20180103_210000.003,0,RJCC,,,,0,20180103210000,-1,-1,-1,-1,320,-1,8,-1,-1,-1,-1,,9999,0,1,2,FEW 10   BKN 35,-1,3,-1,4,1014,RJCC 032100Z 32008KT 9999 -SHSN FEW010 BKN035 M03/M04 Q1014     RMK 1ST010 7CU035 A2995=,- SN SH
20180103_213000.001,0,RJCC,,,,0,20180103210000,-1,-1,-1,-1,330,-1,7,-1,-1,-1,-1,,9999,0,1,2,FEW 10   BKN 40,-1,3,-1,5,1014,RJCC 032130Z 33007KT 9999 -SHSN FEW010 BKN040 M03/M05 Q1014     RMK 1ST010 7CU040 A2996=,- SN SH
20180103_220000.002,0,RJCC,,,,0,20180103220000,-1,-1,-1,-1,330,-1,8,-1,-1,-1,-1,,9999,0,0,3,FEW 20   BKN 40   BKN -9999,-1,3,-1,5,1014,RJCC 032200Z 33008KT 9999 FEW020 BKN040 BKN/// M03/M05 Q1014     RMK 1CU020 6CU040 A2996=,
20180103_223000.002,0,RJCC,,,,0,20180103220000,-1,-1,-1,-1,340,-1,7,-1,-1,-1,-1,,9999,0,0,3,FEW 20   BKN 45   BKN -9999,-1,4,-1,6,1014,RJCC 032230Z 34007KT 9999 FEW020 BKN045 BKN/// M04/M06 Q1014     RMK 1CU020 6CU045 A2996=,
20180103_230000.002,0,RJCC,,,,0,20180103230000,-1,-1,-1,-1,350,-1,7,-1,-1,-1,-1,,9999,0,0,3,FEW 20   BKN 50   BKN -9999,-1,4,-1,6,1014,RJCC 032300Z 35007KT 9999 FEW020 BKN050 BKN/// M04/M06 Q1014     RMK 1CU020 6CU050 A2997=,
20180103_233000.001,0,RJCC,,,,0,20180103230000,-1,-1,-1,-1,360,-1,6,-1,-1,-1,-1,,9999,0,0,3,FEW 20   BKN 45   BKN -9999,-1,4,-1,6,1014,RJCC 032330Z 36006KT 9999 FEW020 BKN045 BKN/// M04/M06 Q1014     RMK 1CU020 5CU045 A2996=,
20180104_000000.002,0,RJCC,,,,0,20180104000000,-1,-1,-1,-1,340,-1,7,-1,-1,-1,-1,,9999,0,0,3,FEW 25   BKN 40   BKN -9999,-1,3,-1,6,1014,RJCC 040000Z 34007KT 9999 FEW025 BKN040 BKN/// M03/M06 Q1014     RMK 1CU025 6CU040 A2997=,
20180104_003000.001,0,RJCC,,,,0,20180104000000,-1,-1,-1,-1,350,-1,7,-1,-1,-1,-1,,9999,0,0,3,FEW 25   BKN 40   BKN -9999,-1,3,-1,6,1014,RJCC 040030Z 35007KT 9999 FEW025 BKN040 BKN/// M03/M06 Q1014     RMK 1CU025 6CU040 A2997=,
20180104_010000.002,0,RJCC,,,,0,20180104010000,-1,-1,-1,-1,340,-1,8,-1,-1,-1,-1,,9999,0,0,3,FEW 25   BKN 50   BKN -9999,-1,2,-1,6,1014,RJCC 040100Z 34008KT 9999 FEW025 BKN050 BKN/// M02/M06 Q1014     RMK 1CU025 6CU050 A2997=,
20180104_013000.001,0,RJCC,,,,0,20180104010000,-1,-1,-1,-1,350,-1,11,-1,-1,-1,-1,,9999,0,1,3,FEW 25   BKN 50   BKN -9999,-1,2,-1,6,1014,RJCC 040130Z 35011KT 9999 -SHSN FEW025 BKN050 BKN/// M02/M06     Q1014 RMK 1CU025 6CU050 A2996=,- SN SH
20180104_020000.002,0,RJCC,,,,0,20180104020000,-1,-1,-1,-1,340,-1,10,-1,-1,-1,-1,,9999,0,1,3,FEW 25   BKN 40   BKN -9999,-1,2,-1,7,1014,RJCC 040200Z 34010KT 9999 -SHSN FEW025 BKN040 BKN/// M02/M07     Q1014 RMK 1CU025 6CU040 A2995=,- SN SH
20180104_023000.001,0,RJCC,,,,0,20180104020000,-1,-1,-1,-1,340,-1,10,-1,-1,-1,-1,,9999,0,1,3,FEW 25   BKN 40   BKN -9999,-1,2,-1,7,1013,RJCC 040230Z 34010KT 9999 -SHSN FEW025 BKN040 BKN/// M02/M07     Q1013 RMK 1CU025 6CU040 A2994=,- SN SH
20180104_030000.002,0,RJCC,,,,0,20180104030000,-1,-1,-1,-1,340,-1,9,-1,-1,-1,-1,,9999,0,1,3,FEW 25   SCT 30   BKN 45,-1,2,-1,7,1013,RJCC 040300Z 34009KT 9999 -SHSN FEW025 SCT030 BKN045 M02/M07     Q1013 RMK 1CU025 3CU030 7CU045 A2993=,- SN SH
20180104_033000.001,0,RJCC,,,,0,20180104030000,-1,-1,-1,-1,330,-1,8,-1,-1,-1,-1,,9999,0,1,3,FEW 20   BKN 25   BKN 45,-1,1,-1,6,1013,RJCC 040330Z 33008KT 9999 -SHSN FEW020 BKN025 BKN045 M01/M06     Q1013 RMK 1CU020 6CU025 7CU045 A2992=,- SN SH
20180104_040000.002,0,RJCC,,,,0,20180104040000,-1,-1,-1,-1,330,-1,9,-1,-1,-1,-1,,9999,0,1,3,FEW 20   SCT 25   BKN 60,-1,1,-1,6,1013,RJCC 040400Z 33009KT 9999 -SHSN FEW020 SCT025 BKN060 M01/M06     Q1013 RMK 1CU020 3CU025 5CU060 A2992=,- SN SH
20180104_043000.001,0,RJCC,,,,0,20180104040000,-1,-1,-1,-1,340,-1,8,-1,-1,-1,-1,,9999,0,1,3,FEW 15   SCT 25   BKN 45,-1,1,-1,6,1013,RJCC 040430Z 34008KT 9999 -SHSN FEW015 SCT025 BKN045 M01/M06     Q1013 RMK 1ST015 4CU025 6CU045 A2992=,- SN SH
20180104_050000.002,0,RJCC,,,,0,20180104050000,-1,-1,-1,-1,340,-1,8,-1,-1,-1,-1,,9999,0,1,3,FEW 15   SCT 25   BKN 40,-1,2,-1,5,1013,RJCC 040500Z 34008KT 9999 -SHSN FEW015 SCT025 BKN040 M02/M05     Q1013 RMK 1ST015 4CU025 7CU040 A2992=,- SN SH
20180104_053000.001,0,RJCC,,,,0,20180104050000,-1,-1,-1,-1,330,-1,7,-1,-1,-1,-1,,9999,0,1,2,FEW 15   BKN 40,-1,2,-1,5,1013,RJCC 040530Z 33007KT 9999 -SHSN FEW015 BKN040 M02/M05 Q1013     RMK 1ST015 7CU040 A2993=,- SN SH
20180104_060000.003,0,RJCC,,,,0,20180104060000,-1,-1,-1,-1,330,-1,7,-1,-1,-1,-1,,8000,0,1,2,FEW 15   BKN 25,-1,2,-1,5,1013,RJCC 040600Z 33007KT 8000 -SHSN FEW015 BKN025 M02/M05 Q1013     RMK 1ST015 7CU025 A2994=,- SN SH
20180104_063000.001,0,RJCC,,,,0,20180104060000,-1,-1,-1,-1,330,-1,7,-1,-1,-1,-1,,6000,0,1,3,FEW 15   BKN 25   BKN 40,-1,2,-1,5,1014,RJCC 040630Z 33007KT 6000 -SHSN FEW015 BKN025 BKN040 M02/M05     Q1014 RMK 1ST015 5CU025 7CU040 A2994=,- SN SH
20180104_070000.002,0,RJCC,,,,0,20180104070000,-1,-1,-1,-1,340,-1,9,-1,-1,-1,-1,,3000,0,1,2,FEW 10   BKN 25,-1,2,-1,4,1014,RJCC 040700Z 34009KT 3000 -SHSN FEW010 BKN025 M02/M04 Q1014     RMK 1ST010 7CU025 A2995=,- SN SH
20180104_073000.001,0,RJCC,,,,0,20180104070000,-1,-1,-1,-1,330,-1,7,-1,-1,-1,-1,,3500,0,1,2,FEW 10   BKN 25,-1,2,-1,3,1014,RJCC 040730Z 33007KT 3500 -SHSN FEW010 BKN025 M02/M03 Q1014     RMK 1ST010 7CU025 A2995=,- SN SH
20180104_080000.002,0,RJCC,,,,0,20180104080000,-1,-1,-1,-1,330,-1,7,-1,-1,300,360,,5000,0,1,2,FEW 8   BKN 35,-1,2,-1,3,1014,RJCC 040800Z 33007KT 300V360 5000 -SHSN FEW008 BKN035 M02/M03     Q1014 RMK 1ST008 7CU035 A2996=,- SN SH
20180104_083000.001,0,RJCC,,,,0,20180104080000,-1,-1,-1,-1,330,-1,6,-1,-1,-1,-1,,5000,0,1,2,FEW 10   BKN 40,-1,2,-1,3,1014,RJCC 040830Z 33006KT 5000 -SHSN FEW010 BKN040 M02/M03 Q1014     RMK 1ST010 7CU040 A2996=,- SN SH
20180104_090000.002,0,RJCC,,,,0,20180104090000,-1,-1,-1,-1,350,-1,6,-1,-1,-1,-1,,8000,0,1,2,FEW 10   BKN 40,-1,3,-1,3,1014,RJCC 040900Z 35006KT 8000 -SHSN FEW010 BKN040 M03/M03 Q1014     RMK 1ST010 7CU040 A2997=,- SN SH
20180104_093000.001,0,RJCC,,,,0,20180104090000,-1,-1,-1,-1,350,-1,6,-1,-1,-1,-1,,9999,0,1,2,FEW 10   BKN 45,-1,3,-1,3,1014,RJCC 040930Z 35006KT 9999 -SHSN FEW010 BKN045 M03/M03 Q1014     RMK 1ST010 6CU045 A2997=,- SN SH
20180104_100000.002,0,RJCC,,,,0,20180104100000,-1,-1,-1,-1,340,-1,5,-1,-1,-1,-1,,9999,0,1,3,FEW 10   SCT 30   BKN 40,-1,3,-1,3,1014,RJCC 041000Z 34005KT 9999 -SHSN FEW010 SCT030 BKN040 M03/M03     Q1014 RMK 1ST010 3CU030 7CU040 A2997=,- SN SH
20180104_103000.001,0,RJCC,,,,0,20180104100000,-1,-1,-1,-1,350,-1,5,-1,-1,-1,-1,,9999,0,1,2,FEW 10   BKN 40,-1,3,-1,3,1015,RJCC 041030Z 35005KT 9999 -SHSN FEW010 BKN040 M03/M03 Q1015     RMK 1ST010 7CU040 A2997=,- SN SH
20180104_110000.002,0,RJCC,,,,0,20180104110000,-1,-1,-1,-1,360,-1,5,-1,-1,-1,-1,,9999,0,1,2,FEW 10   BKN 40,-1,3,-1,3,1015,RJCC 041100Z 36005KT 9999 -SHSN FEW010 BKN040 M03/M03 Q1015     RMK 1ST010 7CU040 A2997=,- SN SH
20180104_113000.001,0,RJCC,,,,0,20180104110000,-1,-1,-1,-1,360,-1,4,-1,-1,-1,-1,,9999,0,1,2,FEW 8   BKN 40,-1,3,-1,3,1015,RJCC 041130Z 36004KT 9999 -SHSN FEW008 BKN040 M03/M03 Q1015     RMK 1ST008 7CU040 A2997=,- SN SH
20180104_120000.003,0,RJCC,,,,0,20180104120000,-1,-1,-1,-1,340,-1,4,-1,-1,300,360,,9999,0,0,2,FEW 8   BKN 40,-1,3,-1,4,1015,RJCC 041200Z 34004KT 300V360 9999 FEW008 BKN040 M03/M04 Q1015     RMK 1ST008 7CU040 A2998=,
20180104_123000.001,0,RJCC,,,,0,20180104120000,-1,-1,-1,-1,330,-1,3,-1,-1,-1,-1,,9999,0,0,2,FEW 8   BKN 40,-1,3,-1,4,1015,RJCC 041230Z 33003KT 9999 FEW008 BKN040 M03/M04 Q1015 RMK     1ST008 7CU040 A2998=,
20180104_130000.002,0,RJCC,,,,0,20180104130000,-1,-1,-1,-1,20,-1,1,-1,-1,-1,-1,,9999,0,0,2,FEW 8   BKN 40,-1,4,-1,4,1015,RJCC 041300Z 02001KT 9999 FEW008 BKN040 M04/M04 Q1015 RMK     1ST008 6CU040 A2999=,
20180104_133000.001,0,RJCC,,,,0,20180104130000,-1,-1,-1,-1,240,-1,4,-1,-1,220,300,,9999,0,0,2,FEW 8   BKN 45,-1,4,-1,4,1015,RJCC 041330Z 24004KT 220V300 9999 FEW008 BKN045 M04/M04 Q1015     RMK 1ST008 6CU045 A2999=,
20180104_140000.002,0,RJCC,,,,0,20180104140000,-1,-1,-1,-1,240,-1,2,-1,-1,-1,-1,,9999,0,0,2,FEW 8   BKN 45,-1,5,-1,5,1015,RJCC 041400Z 24002KT 9999 FEW008 BKN045 M05/M05 Q1015 RMK     1ST008 6CU045 A2997=,
20180104_143000.001,0,RJCC,,,,0,20180104140000,-1,-1,-1,-1,999,-1,1,-1,-1,-1,-1,,9999,0,0,2,FEW 10   SCT 45,-1,5,-1,5,1014,RJCC 041430Z VRB01KT 9999 FEW010 SCT045 M05/M05 Q1014 RMK     1ST010 4CU045 A2996=,
20180104_150000.003,0,RJCC,,,,0,20180104150000,-1,-1,-1,-1,999,-1,1,-1,-1,-1,-1,,9999,0,0,1,FEW 10,-1,6,-1,6,1014,RJCC 041500Z VRB01KT 9999 FEW010 M06/M06 Q1014 RMK 1ST010     A2995=,
20180104_153000.001,0,RJCC,,,,0,20180104150000,-1,-1,-1,-1,350,-1,2,-1,-1,-1,-1,,9999,0,0,1,FEW 8,-1,8,-1,8,1014,RJCC 041530Z 35002KT 9999 FEW008 M08/M08 Q1014 RMK 1ST008     A2995=,
20180104_160000.003,0,RJCC,,,,0,20180104160000,-1,-1,-1,-1,210,-1,2,-1,-1,-1,-1,,9999,0,0,1,FEW 10,-1,7,-1,7,1014,RJCC 041600Z 21002KT 9999 FEW010 M07/M07 Q1014 RMK 1ST010     A2995=,
20180104_163000.001,0,RJCC,,,,0,20180104160000,-1,-1,-1,-1,0,-1,0,-1,-1,-1,-1,,9999,2,0,2,FEW 6   SCT 40,-1,8,-1,9,1014,RJCC 041630Z 00000KT 9999 R19R/P2000N R19L/P2000N FEW006     SCT040 M08/M09 Q1014 RMK 1ST006 3CU040 A2996=,
20180104_170000.003,0,RJCC,,,,0,20180104170000,-1,-1,-1,-1,999,-1,2,-1,-1,-1,-1,,9999,0,0,2,FEW 10   BKN 40,-1,8,-1,8,1014,RJCC 041700Z VRB02KT 9999 FEW010 BKN040 M08/M08 Q1014 RMK     1ST010 7CU040 A2996=,
20180104_173000.001,0,RJCC,,,,0,20180104170000,-1,-1,-1,-1,160,-1,3,-1,-1,80,190,,9999,0,0,2,FEW 10   BKN 40,-1,7,-1,7,1014,RJCC 041730Z 16003KT 080V190 9999 FEW010 BKN040 M07/M07 Q1014     RMK 1ST010 7CU040 A2996=,
20180104_180000.002,0,RJCC,,,,0,20180104180000,-1,-1,-1,-1,999,-1,2,-1,-1,-1,-1,,9999,0,0,2,FEW 10   BKN 45,-1,6,-1,6,1014,RJCC 041800Z VRB02KT 9999 FEW010 BKN045 M06/M06 Q1014 RMK     1ST010 7CU045 A2995=,
20180104_183000.001,0,RJCC,,,,0,20180104180000,-1,-1,-1,-1,170,-1,4,-1,-1,-1,-1,,9999,0,0,2,FEW 10   BKN 45,-1,6,-1,6,1014,RJCC 041830Z 17004KT 9999 FEW010 BKN045 M06/M06 Q1014 RMK     1ST010 7CU045 A2995=,
20180104_190000.003,0,RJCC,,,,0,20180104190000,-1,-1,-1,-1,80,-1,3,-1,-1,20,100,,9999,0,0,2,FEW 10   BKN 45,-1,6,-1,6,1014,RJCC 041900Z 08003KT 020V100 9999 FEW010 BKN045 M06/M06 Q1014     RMK 1ST010 7CU045 A2995=,
20180104_193000.001,0,RJCC,,,,0,20180104190000,-1,-1,-1,-1,999,-1,2,-1,-1,-1,-1,,9999,0,1,2,FEW 10   BKN 40,-1,5,-1,6,1014,RJCC 041930Z VRB02KT 9999 -SHSN FEW010 BKN040 M05/M06 Q1014     RMK 1ST010 7CU040 A2995=,- SN SH
20180104_200000.002,0,RJCC,,,,0,20180104200000,-1,-1,-1,-1,150,-1,3,-1,-1,-1,-1,,9999,0,0,2,FEW 10   BKN 45,-1,5,-1,6,1014,RJCC 042000Z 15003KT 9999 FEW010 BKN045 M05/M06 Q1014 RMK     1ST010 7CU045 A2995=,
20180104_203000.001,0,RJCC,,,,0,20180104200000,-1,-1,-1,-1,999,-1,2,-1,-1,-1,-1,,9999,0,0,2,FEW 10   BKN 40,-1,5,-1,6,1014,RJCC 042030Z VRB02KT 9999 FEW010 BKN040 M05/M06 Q1014 RMK     1ST010 7CU040 A2995=,
20180104_210000.002,0,RJCC,,,,0,20180104210000,-1,-1,-1,-1,150,-1,1,-1,-1,-1,-1,,9999,0,1,2,FEW 10   BKN 40,-1,5,-1,6,1014,RJCC 042100Z 15001KT 9999 -SHSN FEW010 BKN040 M05/M06 Q1014     RMK 1ST010 7CU040 A2995=,- SN SH
20180104_213000.001,0,RJCC,,,,0,20180104210000,-1,-1,-1,-1,0,-1,0,-1,-1,-1,-1,,9999,0,1,2,FEW 10   BKN 40,-1,5,-1,5,1014,RJCC 042130Z 00000KT 9999 -SHSN FEW010 BKN040 M05/M05 Q1014     RMK 1ST010 7CU040 A2995=,- SN SH
20180104_220000.002,0,RJCC,,,,0,20180104220000,-1,-1,-1,-1,180,-1,2,-1,-1,-1,-1,,9999,0,1,2,FEW 10   BKN 40,-1,5,-1,5,1014,RJCC 042200Z 18002KT 9999 -SHSN FEW010 BKN040 M05/M05 Q1014     RMK 1ST010 7CU040 A2995=,- SN SH
20180104_223000.002,0,RJCC,,,,0,20180104220000,-1,-1,-1,-1,160,-1,2,-1,-1,-1,-1,,9999,0,1,2,FEW 10   BKN 40,-1,4,-1,5,1013,RJCC 042230Z 16002KT 9999 -SHSN FEW010 BKN040 M04/M05 Q1013     RMK 1ST010 7CU040 A2994=,- SN SH
20180104_230000.002,0,RJCC,,,,0,20180104230000,-1,-1,-1,-1,160,-1,3,-1,-1,110,180,,9999,0,1,2,FEW 15   BKN 40,-1,4,-1,5,1013,RJCC 042300Z 16003KT 110V180 9999 -SHSN FEW015 BKN040 M04/M05     Q1013 RMK 1ST015 7CU040 A2994=,- SN SH
20180104_233000.001,0,RJCC,,,,0,20180104230000,-1,-1,-1,-1,110,-1,4,-1,-1,-1,-1,,9999,0,0,2,FEW 15   BKN 45,-1,4,-1,5,1013,RJCC 042330Z 11004KT 9999 FEW015 BKN045 M04/M05 Q1013 RMK     1ST015 6CU045 A2993=,
20180105_000000.002,0,RJCC,,,,0,20180105000000,-1,-1,-1,-1,150,-1,4,-1,-1,-1,-1,,9999,0,1,2,FEW 15   BKN 45,-1,3,-1,5,1013,RJCC 050000Z 15004KT 9999 -SHSN FEW015 BKN045 M03/M05 Q1013     RMK 1ST015 7CU045 A2992=,- SN SH
20180105_003000.001,0,RJCC,,,,0,20180105000000,-1,-1,-1,-1,150,-1,3,-1,-1,-1,-1,,9999,0,1,2,FEW 15   BKN 45,-1,2,-1,5,1013,RJCC 050030Z 15003KT 9999 -SHSN FEW015 BKN045 M02/M05 Q1013     RMK 1ST015 7CU045 A2992=,- SN SH
20180105_010000.003,0,RJCC,,,,0,20180105010000,-1,-1,-1,-1,180,-1,6,-1,-1,-1,-1,,9999,0,1,2,FEW 15   BKN 45,-1,2,-1,4,1012,RJCC 050100Z 18006KT 9999 -SHSN FEW015 BKN045 M02/M04 Q1012     RMK 1ST015 7CU045 A2991=,- SN SH
20180105_013000.001,0,RJCC,,,,0,20180105010000,-1,-1,-1,-1,999,-1,1,-1,-1,-1,-1,,9999,0,0,2,FEW 15   BKN 40,-1,1,-1,5,1012,RJCC 050130Z VRB01KT 9999 FEW015 BKN040 M01/M05 Q1012 RMK     1ST015 7CU040 A2990=,
20180105_020000.002,0,RJCC,,,,0,20180105020000,-1,-1,-1,-1,140,-1,3,-1,-1,-1,-1,,9999,0,0,2,FEW 15   BKN 40,1,0,-1,5,1012,RJCC 050200Z 14003KT 9999 FEW015 BKN040 00/M05 Q1012 RMK     1ST015 7CU040 A2989=,
20180105_023000.001,0,RJCC,,,,0,20180105020000,-1,-1,-1,-1,210,-1,6,-1,-1,-1,-1,,9999,0,0,2,FEW 15   BKN 40,1,1,-1,6,1011,RJCC 050230Z 21006KT 9999 FEW015 BKN040 01/M06 Q1011 RMK     1ST015 7CU040 A2988=,
20180105_030000.002,0,RJCC,,,,0,20180105030000,-1,-1,-1,-1,210,-1,8,-1,-1,-1,-1,,9999,0,0,2,FEW 15   BKN 50,1,1,-1,5,1011,RJCC 050300Z 21008KT 9999 FEW015 BKN050 01/M05 Q1011 RMK     1ST015 7CU050 A2986=,
20180105_033000.001,0,RJCC,,,,0,20180105030000,-1,-1,-1,-1,220,-1,7,-1,-1,-1,-1,,9999,0,0,2,FEW 15   BKN 50,1,1,-1,6,1010,RJCC 050330Z 22007KT 9999 FEW015 BKN050 01/M06 Q1010 RMK     1ST015 7CU050 A2985=,
20180105_040000.002,0,RJCC,,,,0,20180105040000,-1,-1,-1,-1,230,-1,9,-1,-1,-1,-1,,9999,0,0,2,FEW 15   BKN 50,1,1,-1,6,1010,RJCC 050400Z 23009KT 9999 FEW015 BKN050 01/M06 Q1010 RMK     1ST015 7CU050 A2984=,
20180105_043000.001,0,RJCC,,,,0,20180105040000,-1,-1,-1,-1,230,-1,8,-1,-1,-1,-1,,9999,0,0,2,FEW 15   BKN 45,1,1,-1,6,1010,RJCC 050430Z 23008KT 9999 FEW015 BKN045 01/M06 Q1010 RMK     1ST015 7CU045 A2983=,
20180105_050000.002,0,RJCC,,,,0,20180105050000,-1,-1,-1,-1,220,-1,7,-1,-1,190,250,,9999,0,0,2,FEW 15   BKN 45,1,1,-1,6,1010,RJCC 050500Z 22007KT 190V250 9999 FEW015 BKN045 01/M06 Q1010     RMK 1ST015 7CU045 A2983=,
20180105_053000.001,0,RJCC,,,,0,20180105050000,-1,-1,-1,-1,220,-1,7,-1,-1,-1,-1,,9999,0,0,2,FEW 20   BKN 45,1,2,-1,6,1010,RJCC 050530Z 22007KT 9999 FEW020 BKN045 02/M06 Q1010 RMK     1CU020 7CU045 A2983=,
20180105_060000.002,0,RJCC,,,,0,20180105060000,-1,-1,-1,-1,210,-1,5,-1,-1,170,250,,9999,0,0,2,FEW 20   BKN 45,1,1,-1,6,1009,RJCC 050600Z 21005KT 170V250 9999 FEW020 BKN045 01/M06 Q1009     RMK 1CU020 7CU045 A2982=,
20180105_063000.001,0,RJCC,,,,0,20180105060000,-1,-1,-1,-1,190,-1,3,-1,-1,150,230,,9999,0,0,2,FEW 20   BKN 45,1,1,-1,6,1010,RJCC 050630Z 19003KT 150V230 9999 FEW020 BKN045 01/M06 Q1010     RMK 1CU020 7CU045 A2982=,
20180105_070000.002,0,RJCC,,,,0,20180105070000,-1,-1,-1,-1,999,-1,3,-1,-1,-1,-1,,9999,0,0,2,FEW 20   BKN 50,1,1,-1,6,1009,RJCC 050700Z VRB03KT 9999 FEW020 BKN050 01/M06 Q1009 RMK     1CU020 7CU050 A2982=,
20180105_073000.001,0,RJCC,,,,0,20180105070000,-1,-1,-1,-1,190,-1,3,-1,-1,140,220,,9999,0,0,2,FEW 20   BKN 50,1,1,-1,6,1009,RJCC 050730Z 19003KT 140V220 9999 FEW020 BKN050 01/M06 Q1009     RMK 1CU020 7CU050 A2982=,
20180105_080000.002,0,RJCC,,,,0,20180105080000,-1,-1,-1,-1,40,-1,1,-1,-1,-1,-1,,9999,0,0,2,FEW 20   BKN 45,1,0,-1,6,1009,RJCC 050800Z 04001KT 9999 FEW020 BKN045 00/M06 Q1009 RMK     1CU020 7CU045 A2982=,
20180105_083000.001,0,RJCC,,,,0,20180105080000,-1,-1,-1,-1,230,-1,4,-1,-1,180,250,,9999,0,0,2,FEW 20   BKN 45,1,1,-1,6,1009,RJCC 050830Z 23004KT 180V250 9999 FEW020 BKN045 01/M06 Q1009     RMK 1CU020 7CU045 A2982=,
20180105_090000.002,0,RJCC,,,,0,20180105090000,-1,-1,-1,-1,250,-1,5,-1,-1,-1,-1,,9999,0,0,2,FEW 15   BKN 45,-1,1,-1,6,1009,RJCC 050900Z 25005KT 9999 FEW015 BKN045 M01/M06 Q1009 RMK     1ST015 7CU045 A2981=,
20180105_093000.001,0,RJCC,,,,0,20180105090000,-1,-1,-1,-1,210,-1,5,-1,-1,-1,-1,,9999,0,0,2,FEW 15   BKN 45,-1,0,-1,5,1009,RJCC 050930Z 21005KT 9999 FEW015 BKN045 M00/M05 Q1009 RMK     1ST015 7CU045 A2982=,
20180105_100000.002,0,RJCC,,,,0,20180105100000,-1,-1,-1,-1,200,-1,3,-1,-1,150,240,,9999,0,0,2,FEW 15   BKN 40,-1,1,-1,6,1009,RJCC 051000Z 20003KT 150V240 9999 FEW015 BKN040 M01/M06 Q1009     RMK 1ST015 7CU040 A2981=,
20180105_103000.001,0,RJCC,,,,0,20180105100000,-1,-1,-1,-1,200,-1,4,-1,-1,-1,-1,,9999,0,0,2,FEW 15   BKN 40,1,0,-1,6,1009,RJCC 051030Z 20004KT 9999 FEW015 BKN040 00/M06 Q1009 RMK     1ST015 7CU040 A2981=,
20180105_110000.002,0,RJCC,,,,0,20180105110000,-1,-1,-1,-1,220,-1,5,-1,-1,-1,-1,,9999,0,0,2,FEW 15   BKN 40,1,0,-1,6,1009,RJCC 051100Z 22005KT 9999 FEW015 BKN040 00/M06 Q1009 RMK     1ST015 7CU040 A2981=,
20180105_113000.001,0,RJCC,,,,0,20180105110000,-1,-1,-1,-1,230,-1,6,-1,-1,-1,-1,,9999,0,0,2,FEW 15   BKN 40,-1,0,-1,6,1009,RJCC 051130Z 23006KT 9999 FEW015 BKN040 M00/M06 Q1009 RMK     1ST015 7CU040 A2980=,
20180105_120000.002,0,RJCC,,,,0,20180105120000,-1,-1,-1,-1,220,-1,5,-1,-1,-1,-1,,9999,0,0,2,FEW 15   BKN 40,-1,0,-1,6,1009,RJCC 051200Z 22005KT 9999 FEW015 BKN040 M00/M06 Q1009 RMK     1ST015 7CU040 A2980=,
20180105_123000.001,0,RJCC,,,,0,20180105120000,-1,-1,-1,-1,240,-1,4,-1,-1,-1,-1,,9999,0,0,2,FEW 15   BKN 40,-1,0,-1,6,1009,RJCC 051230Z 24004KT 9999 FEW015 BKN040 M00/M06 Q1009 RMK     1ST015 7CU040 A2979=,
20180105_130000.002,0,RJCC,,,,0,20180105130000,-1,-1,-1,-1,250,-1,6,-1,-1,-1,-1,,9999,0,0,2,FEW 15   BKN 45,-1,0,-1,6,1008,RJCC 051300Z 25006KT 9999 FEW015 BKN045 M00/M06 Q1008 RMK     1ST015 7CU045 A2979=,
20180105_133000.001,0,RJCC,,,,0,20180105130000,-1,-1,-1,-1,250,-1,7,-1,-1,-1,-1,,9999,0,0,2,FEW 15   BKN 40,-1,0,-1,6,1008,RJCC 051330Z 25007KT 9999 FEW015 BKN040 M00/M06 Q1008 RMK     1ST015 7CU040 A2978=,
20180105_140000.002,0,RJCC,,,,0,20180105140000,-1,-1,-1,-1,230,-1,5,-1,-1,-1,-1,,9999,0,0,2,FEW 15   BKN 45,-1,0,-1,6,1008,RJCC 051400Z 23005KT 9999 FEW015 BKN045 M00/M06 Q1008 RMK     1ST015 7CU045 A2978=,
20180105_143000.001,0,RJCC,,,,0,20180105140000,-1,-1,-1,-1,240,-1,6,-1,-1,-1,-1,,9999,0,0,2,FEW 15   BKN 45,-1,0,-1,6,1008,RJCC 051430Z 24006KT 9999 FEW015 BKN045 M00/M06 Q1008 RMK     1ST015 7CU045 A2977=,
20180105_150000.002,0,RJCC,,,,0,20180105150000,-1,-1,-1,-1,230,-1,5,-1,-1,-1,-1,,9999,0,0,2,FEW 15   BKN 45,-1,0,-1,6,1007,RJCC 051500Z 23005KT 9999 FEW015 BKN045 M00/M06 Q1007 RMK     1ST015 7CU045 A2976=,
20180105_153000.001,0,RJCC,,,,0,20180105150000,-1,-1,-1,-1,190,-1,5,-1,-1,-1,-1,,9999,0,0,2,FEW 15   BKN 50,-1,1,-1,5,1007,RJCC 051530Z 19005KT 9999 FEW015 BKN050 M01/M05 Q1007 RMK     1ST015 7CU050 A2974=,
20180105_160000.003,0,RJCC,,,,0,20180105160000,-1,-1,-1,-1,210,-1,5,-1,-1,-1,-1,,9999,0,0,2,FEW 15   BKN 50,-1,1,-1,6,1006,RJCC 051600Z 21005KT 9999 FEW015 BKN050 M01/M06 Q1006 RMK     1ST015 7CU050 A2973=,
20180105_163000.001,0,RJCC,,,,0,20180105160000,-1,-1,-1,-1,160,-1,4,-1,-1,-1,-1,,9999,0,0,2,FEW 15   BKN 50,-1,2,-1,5,1006,RJCC 051630Z 16004KT 9999 FEW015 BKN050 M02/M05 Q1006 RMK     1ST015 7CU050 A2973=,
20180105_170000.002,0,RJCC,,,,0,20180105170000,-1,-1,-1,-1,999,-1,1,-1,-1,-1,-1,,9999,0,0,2,FEW 15   BKN 50,-1,2,-1,5,1006,RJCC 051700Z VRB01KT 9999 FEW015 BKN050 M02/M05 Q1006 RMK     1ST015 7CU050 A2973=,
20180105_173000.001,0,RJCC,,,,0,20180105170000,-1,-1,-1,-1,999,-1,1,-1,-1,-1,-1,,9999,0,0,2,FEW 15   BKN 50,-1,2,-1,5,1006,RJCC 051730Z VRB01KT 9999 FEW015 BKN050 M02/M05 Q1006 RMK     1ST015 7CU050 A2972=,
20180105_180000.003,0,RJCC,,,,0,20180105180000,-1,-1,-1,-1,999,-1,2,-1,-1,-1,-1,,9999,0,0,2,FEW 15   BKN 60,-1,2,-1,5,1006,RJCC 051800Z VRB02KT 9999 FEW015 BKN060 M02/M05 Q1006 RMK     1ST015 7CU060 A2972=,
20180105_183000.001,0,RJCC,,,,0,20180105180000,-1,-1,-1,-1,999,-1,1,-1,-1,-1,-1,,9999,0,0,2,FEW 15   BKN 60,-1,2,-1,5,1006,RJCC 051830Z VRB01KT 9999 FEW015 BKN060 M02/M05 Q1006 RMK     1ST015 7CU060 A2971=,
20180105_190000.002,0,RJCC,,,,0,20180105190000,-1,-1,-1,-1,60,-1,2,-1,-1,-1,-1,,9999,0,0,2,FEW 15   BKN 50,-1,2,-1,5,1006,RJCC 051900Z 06002KT 9999 FEW015 BKN050 M02/M05 Q1006 RMK     1ST015 7CU050 A2971=,
20180105_193000.001,0,RJCC,,,,0,20180105190000,-1,-1,-1,-1,110,-1,3,-1,-1,90,150,,9999,0,0,2,FEW 15   BKN 60,-1,3,-1,5,1005,RJCC 051930Z 11003KT 090V150 9999 FEW015 BKN060 M03/M05 Q1005     RMK 1ST015 7CU060 A2970=,
20180105_200000.002,0,RJCC,,,,0,20180105200000,-1,-1,-1,-1,160,-1,4,-1,-1,-1,-1,,9999,0,0,2,FEW 15   BKN 60,-1,2,-1,5,1005,RJCC 052000Z 16004KT 9999 FEW015 BKN060 M02/M05 Q1005 RMK     1ST015 7CU060 A2969=,
20180105_203000.001,0,RJCC,,,,0,20180105200000,-1,-1,-1,-1,50,-1,2,-1,-1,-1,-1,,9999,0,0,2,FEW 15   BKN 60,-1,3,-1,5,1005,RJCC 052030Z 05002KT 9999 FEW015 BKN060 M03/M05 Q1005 RMK     1ST015 7CU060 A2970=,
20180105_210000.003,0,RJCC,,,,0,20180105210000,-1,-1,-1,-1,160,-1,3,-1,-1,120,200,,9999,0,0,2,FEW 15   BKN 60,-1,2,-1,5,1005,RJCC 052100Z 16003KT 120V200 9999 FEW015 BKN060 M02/M05 Q1005     RMK 1ST015 7CU060 A2970=,
20180105_213000.001,0,RJCC,,,,0,20180105210000,-1,-1,-1,-1,999,-1,1,-1,-1,-1,-1,,9999,0,0,2,FEW 15   BKN 60,-1,3,-1,5,1005,RJCC 052130Z VRB01KT 9999 FEW015 BKN060 M03/M05 Q1005 RMK     1ST015 7CU060 A2969=,
20180105_220000.002,0,RJCC,,,,0,20180105220000,-1,-1,-1,-1,70,-1,4,-1,-1,-1,-1,,9999,0,0,2,FEW 20   BKN 60,-1,3,-1,5,1005,RJCC 052200Z 07004KT 9999 FEW020 BKN060 M03/M05 Q1005 RMK     1CU020 7CU060 A2968=,
20180105_223000.002,0,RJCC,,,,0,20180105220000,-1,-1,-1,-1,999,-1,2,-1,-1,-1,-1,,9999,0,0,2,FEW 20   BKN 60,-1,3,-1,5,1005,RJCC 052230Z VRB02KT 9999 FEW020 BKN060 M03/M05 Q1005 RMK     1CU020 7CU060 A2969=,
20180105_230000.002,0,RJCC,,,,0,20180105230000,-1,-1,-1,-1,140,-1,3,-1,-1,90,160,,9999,0,0,3,FEW 20   SCT 60   BKN 70,-1,3,-1,5,1005,RJCC 052300Z 14003KT 090V160 9999 FEW020 SCT060 BKN070 M03/M05     Q1005 RMK 1CU020 3CU060 7AC070 A2968=,
20180105_233000.001,0,RJCC,,,,0,20180105230000,-1,-1,-1,-1,120,-1,3,-1,-1,90,160,,9999,0,0,3,FEW 20   SCT 60   BKN 80,-1,2,-1,5,1005,RJCC 052330Z 12003KT 090V160 9999 FEW020 SCT060 BKN080 M02/M05     Q1005 RMK 1CU020 3CU060 7AC080 A2968=,
20180106_000000.002,0,RJCC,,,,0,20180106000000,-1,-1,-1,-1,150,-1,3,-1,-1,-1,-1,,9999,0,0,2,FEW 20   BKN 80,-1,2,-1,5,1005,RJCC 060000Z 15003KT 9999 FEW020 BKN080 M02/M05 Q1005 RMK     1CU020 6AC080 A2968=,
20180106_003000.001,0,RJCC,,,,0,20180106000000,-1,-1,-1,-1,160,-1,3,-1,-1,110,200,,9999,0,0,2,FEW 20   BKN 80,-1,1,-1,6,1005,RJCC 060030Z 16003KT 110V200 9999 FEW020 BKN080 M01/M06 Q1005     RMK 1CU020 6AC080 A2968=,
20180106_010000.002,0,RJCC,,,,0,20180106010000,-1,-1,-1,-1,999,-1,1,-1,-1,-1,-1,,9999,0,0,3,FEW 20   SCT 60   BKN 90,1,0,-1,6,1005,RJCC 060100Z VRB01KT 9999 FEW020 SCT060 BKN090 00/M06 Q1005     RMK 1CU020 3CU060 6AC090 A2968=,
20180106_013000.001,0,RJCC,,,,0,20180106010000,-1,-1,-1,-1,20,-1,3,-1,-1,-1,-1,,9999,0,1,2,FEW 20   BKN 50,1,1,-1,5,1005,RJCC 060130Z 02003KT 9999 VCSH FEW020 BKN050 01/M05 Q1005 RMK     1CU020 6CU050 A2968 SH NW=,VC SH
20180106_020000.002,0,RJCC,,,,0,20180106020000,-1,-1,-1,-1,340,-1,10,-1,-1,-1,-1,,9999,0,1,2,FEW 20   BKN 50,1,1,-1,5,1004,RJCC 060200Z 34010KT 9999 -SHSN FEW020 BKN050 01/M05 Q1004 RMK     1CU020 5CU050 A2967=,- SN SH
20180106_023000.001,0,RJCC,,,,0,20180106020000,-1,-1,-1,-1,350,-1,10,-1,-1,-1,-1,,9999,0,1,2,FEW 20   BKN 50,-1,0,-1,3,1004,RJCC 060230Z 35010KT 9999 -SHSN FEW020 BKN050 M00/M03 Q1004     RMK 1CU020 6CU050 A2966=,- SN SH
20180106_030000.002,0,RJCC,,,,0,20180106030000,-1,-1,-1,-1,350,-1,8,-1,-1,-1,-1,,9999,0,1,2,FEW 10   BKN 60,-1,0,-1,3,1004,RJCC 060300Z 35008KT 9999 -SHSN FEW010 BKN060 M00/M03 Q1004     RMK 1ST010 6CU060 A2965=,- SN SH
20180106_033000.001,0,RJCC,,,,0,20180106030000,-1,-1,-1,-1,360,-1,8,-1,-1,-1,-1,,9999,0,0,3,FEW 8   BKN 10   BKN 60,-1,1,-1,3,1003,RJCC 060330Z 36008KT 9999 FEW008 BKN010 BKN060 M01/M03 Q1003     RMK 1ST008 5ST010 7CU060 A2964=,
20180106_040000.002,0,RJCC,,,,0,20180106040000,-1,-1,-1,-1,360,-1,7,-1,-1,-1,-1,,9999,0,1,3,FEW 8   SCT 10   BKN 50,-1,1,-1,3,1003,RJCC 060400Z 36007KT 9999 -SHSN FEW008 SCT010 BKN050 M01/M03     Q1003 RMK 1ST008 3ST010 5CU050 A2963=,- SN SH
20180106_043000.001,0,RJCC,,,,0,20180106040000,-1,-1,-1,-1,360,-1,11,-1,-1,-1,-1,,9999,0,0,3,FEW 8   SCT 10   BKN 25,-1,0,-1,3,1003,RJCC 060430Z 36011KT 9999 FEW008 SCT010 BKN025 M00/M03 Q1003     RMK 1ST008 3ST010 6CU025 A2963=,
20180106_050000.002,0,RJCC,,,,0,20180106050000,-1,-1,-1,-1,360,-1,8,-1,-1,-1,-1,,9999,0,1,3,FEW 8   SCT 30   BKN 60,-1,0,-1,3,1003,RJCC 060500Z 36008KT 9999 -SHSN FEW008 SCT030 BKN060 M00/M03     Q1003 RMK 1ST008 4CU030 6CU060 A2963=,- SN SH
20180106_060000.002,0,RJCC,,,,0,20180106060000,-1,-1,-1,-1,360,-1,7,-1,-1,-1,-1,,9999,0,1,3,FEW 10   SCT 40   BKN 70,-1,1,-1,3,1003,RJCC 060600Z 36007KT 9999 -SHSN FEW010 SCT040 BKN070 M01/M03     Q1003 RMK 1ST010 4CU040 6AC070 A2963=,- SN SH
20180106_063000.001,0,RJCC,,,,0,20180106060000,-1,-1,-1,-1,10,-1,7,-1,-1,-1,-1,,9999,0,0,3,FEW 10   SCT 40   BKN 120,-1,1,-1,3,1003,RJCC 060630Z 01007KT 9999 FEW010 SCT040 BKN120 M01/M03 Q1003     RMK 1ST010 3CU040 6AC120 A2963=,
20180106_070000.002,0,RJCC,,,,0,20180106070000,-1,-1,-1,-1,20,-1,5,-1,-1,-1,-1,,9999,0,1,3,FEW 10   SCT 30   BKN 110,-1,1,-1,4,1003,RJCC 060700Z 02005KT 9999 VCSH FEW010 SCT030 BKN110 M01/M04     Q1003 RMK 1ST010 3CU030 6AC110 A2963 SH NW-N=,VC SH
20180106_073000.001,0,RJCC,,,,0,20180106070000,-1,-1,-1,-1,350,-1,9,-1,-1,-1,-1,,1400,2,1,3,FEW 8   SCT 15   BKN 25,-1,1,-1,3,1003,RJCC 060730Z 35009KT 1400 R01L/P2000N R01R/P2000N -SHSN FEW008     SCT015 BKN025 M01/M03 Q1003 RMK 1ST008 3ST015 7CU025           A2964=,- SN SH
20180106_080000.002,0,RJCC,,,,0,20180106080000,-1,-1,-1,-1,330,-1,14,-1,-1,-1,-1,,1500,2,1,3,FEW 5   BKN 8   BKN 15,-1,2,-1,2,1004,RJCC 060800Z 33014KT 1500 R01L/P2000N R01R/P2000N -SHSN FEW005     BKN008 BKN015 M02/M02 Q1004 RMK 1ST005 5ST008 7ST015           A2965=,- SN SH
20180106_083000.001,0,RJCC,,,,0,20180106080000,-1,-1,-1,-1,340,-1,11,-1,-1,-1,-1,,900,2,1,3,FEW 3   SCT 5   BKN 8,-1,2,-1,2,1004,RJCC 060830Z 34011KT 0900 R01L/P2000N R01R/P2000N SHSN FEW003     SCT005 BKN008 M02/M02 Q1004 RMK 1ST003 4ST005 7ST008           A2966=,SN SH
20180106_090000.002,0,RJCC,,,,0,20180106090000,-1,-1,-1,-1,330,-1,11,-1,-1,-1,-1,,700,2,1,3,FEW 3   SCT 5   BKN 8,-1,2,-1,2,1005,RJCC 060900Z 33011KT 0700 R01L/2000N R01R/P2000N SHSN FEW003     SCT005 BKN008 M02/M02 Q1005 RMK 1ST003 4ST005 7ST008           A2968=,SN SH
20180106_093000.001,0,RJCC,,,,0,20180106090000,-1,-1,-1,-1,330,-1,11,-1,-1,-1,-1,,900,2,1,3,FEW 3   SCT 5   BKN 8,-1,2,-1,3,1005,RJCC 060930Z 33011KT 0900 R01L/2000D R01R/1500VP2000D SHSN     FEW003 SCT005 BKN008 M02/M03 Q1005 RMK 1ST003 4ST005           7ST008 A2969=,SN SH
20180106_100000.002,0,RJCC,,,,0,20180106100000,-1,-1,-1,-1,350,-1,10,-1,-1,-1,-1,,2400,0,1,3,FEW 5   BKN 10   BKN 25,-1,2,-1,3,1005,RJCC 061000Z 35010KT 2400 -SHSN FEW005 BKN010 BKN025 M02/M03     Q1005 RMK 1ST005 5ST010 7CU025 A2970=,- SN SH
20180106_103000.001,0,RJCC,,,,0,20180106100000,-1,-1,-1,-1,340,-1,11,-1,-1,-1,-1,,1200,2,1,3,FEW 3   SCT 7   BKN 9,-1,2,-1,3,1006,RJCC 061030Z 34011KT 1200 R01L/P2000N R01R/2000N -SHSN FEW003     SCT007 BKN009 M02/M03 Q1006 RMK 1ST003 4ST007 6ST009           A2971=,- SN SH
20180106_110000.002,0,RJCC,,,,0,20180106110000,-1,-1,-1,-1,330,-1,11,-1,-1,-1,-1,,1500,2,1,3,FEW 3   BKN 9   BKN 15,-1,2,-1,3,1006,RJCC 061100Z 33011KT 1500 R01L/P2000N R01R/P2000N -SHSN FEW003     BKN009 BKN015 M02/M03 Q1006 RMK 1ST003 5ST009 7ST015           A2972=,- SN SH
20180106_113000.001,0,RJCC,,,,0,20180106110000,-1,-1,-1,-1,330,-1,14,-1,-1,-1,-1,,5000,0,1,2,FEW 10   SCT 50,-1,3,-1,4,1006,RJCC 061130Z 33014KT 5000 -SHSN FEW010 SCT050 M03/M04 Q1006     RMK 1ST010 4CU050 A2972=,- SN SH
20180106_120000.002,0,RJCC,,,,0,20180106120000,-1,-1,-1,-1,340,-1,7,-1,-1,-1,-1,,7000,0,1,2,FEW 10   SCT 20,-1,3,-1,5,1006,RJCC 061200Z 34007KT 7000 -SHSN FEW010 SCT020 M03/M05 Q1006     RMK 1ST010 3CU020 A2973=,- SN SH
20180106_123000.001,0,RJCC,,,,0,20180106120000,-1,-1,-1,-1,330,-1,10,-1,-1,-1,-1,,8000,0,1,2,FEW 10   BKN 20,-1,4,-1,6,1007,RJCC 061230Z 33010KT 8000 -SHSN FEW010 BKN020 M04/M06 Q1007     RMK 1ST010 5CU020 A2974=,- SN SH
20180106_130000.002,0,RJCC,,,,0,20180106130000,-1,-1,-1,-1,340,-1,9,-1,-1,-1,-1,,9999,0,1,2,FEW 10   BKN 25,-1,4,-1,6,1007,RJCC 061300Z 34009KT 9999 -SHSN FEW010 BKN025 M04/M06 Q1007     RMK 1ST010 5CU025 A2975=,- SN SH
20180106_133000.001,0,RJCC,,,,0,20180106130000,-1,-1,-1,-1,330,-1,13,-1,-1,-1,-1,,9999,0,0,2,FEW 10   SCT 25,-1,4,-1,6,1007,RJCC 061330Z 33013KT 9999 FEW010 SCT025 M04/M06 Q1007 RMK     1ST010 3CU025 A2976=,
20180106_140000.003,0,RJCC,,,,0,20180106140000,-1,-1,-1,-1,320,-1,10,-1,-1,-1,-1,,9999,0,0,1,FEW 25,-1,4,-1,7,1008,RJCC 061400Z 32010KT 9999 FEW025 M04/M07 Q1008 RMK 1CU025     A2977=,
20180106_143000.001,0,RJCC,,,,0,20180106140000,-1,-1,-1,-1,350,-1,8,-1,-1,-1,-1,,9999,0,0,1,FEW 25,-1,6,-1,8,1008,RJCC 061430Z 35008KT 9999 FEW025 M06/M08 Q1008 RMK 1CU025     A2977=,
20180106_150000.002,0,RJCC,,,,0,20180106150000,-1,-1,-1,-1,330,-1,5,-1,-1,-1,-1,,9999,0,0,1,FEW 25,-1,6,-1,7,1008,RJCC 061500Z 33005KT 9999 FEW025 M06/M07 Q1008 RMK 1CU025     A2977=,
20180106_153000.001,0,RJCC,,,,0,20180106150000,-1,-1,-1,-1,240,-1,4,-1,-1,-1,-1,,9999,0,0,1,FEW 25,-1,7,-1,8,1008,RJCC 061530Z 24004KT 9999 FEW025 M07/M08 Q1008 RMK 1CU025     A2979=,
20180106_160000.002,0,RJCC,,,,0,20180106160000,-1,-1,-1,-1,330,-1,7,-1,-1,-1,-1,,3000,0,1,2,FEW 10   BKN 40,-1,5,-1,8,1009,RJCC 061600Z 33007KT 3000 -SHSN FEW010 BKN040 M05/M08 Q1009     RMK 1ST010 5CU040 A2979=,- SN SH
20180106_163000.001,0,RJCC,,,,0,20180106160000,-1,-1,-1,-1,350,-1,11,-1,-1,-1,-1,,8000,2,1,2,FEW 8   BKN 50,-1,5,-1,6,1009,RJCC 061630Z 35011KT 8000 R19R/P2000N R19L/P2000N -SHSN FEW008     BKN050 M05/M06 Q1009 RMK 1ST008 5CU050 A2980 1500NE=,- SN SH
20180106_170000.002,0,RJCC,,,,0,20180106170000,-1,-1,-1,-1,340,-1,6,-1,-1,-1,-1,,9999,0,0,2,FEW 15   SCT 60,-1,5,-1,6,1009,RJCC 061700Z 34006KT 9999 FEW015 SCT060 M05/M06 Q1009 RMK     1ST015 3CU060 A2982=,
20180106_173000.001,0,RJCC,,,,0,20180106170000,-1,-1,-1,-1,270,-1,3,-1,-1,230,300,,9999,2,0,2,FEW 15   SCT 60,-1,7,-1,8,1010,RJCC 061730Z 27003KT 230V300 9999 R01L/2000N R01R/P2000N     FEW015 SCT060 M07/M08 Q1010 RMK 1ST015 3CU060 A2982=,
20180106_180000.003,0,RJCC,,,,0,20180106180000,-1,-1,-1,-1,300,-1,4,-1,-1,-1,-1,,9999,0,0,2,FEW 15   SCT 60,-1,8,-1,8,1010,RJCC 061800Z 30004KT 9999 FEW015 SCT060 M08/M08 Q1010 RMK     1ST015 4CU060 A2983=,
20180106_183000.001,0,RJCC,,,,0,20180106180000,-1,-1,-1,-1,320,-1,5,-1,-1,-1,-1,,9999,2,0,2,FEW 15   SCT 60,-1,8,-1,9,1010,RJCC 061830Z 32005KT 9999 R01L/P2000N R01R/P2000N FEW015     SCT060 M08/M09 Q1010 RMK 1ST015 3CU060 A2983=,
20180106_190000.002,0,RJCC,,,,0,20180106190000,-1,-1,-1,-1,999,-1,2,-1,-1,-1,-1,,9999,0,0,1,FEW 20,-1,9,-1,9,1010,RJCC 061900Z VRB02KT 9999 FEW020 M09/M09 Q1010 RMK 1CU020     A2984=,
20180106_193000.001,0,RJCC,,,,0,20180106190000,-1,-1,-1,-1,350,-1,2,-1,-1,-1,-1,,9999,0,0,2,FEW 20   SCT 60,-1,11,-1,11,1011,RJCC 061930Z 35002KT 9999 FEW020 SCT060 M11/M11 Q1011 RMK     1CU020 3CU060 A2985=,
20180106_200000.002,0,RJCC,,,,0,20180106200000,-1,-1,-1,-1,240,-1,3,-1,-1,210,290,,9999,0,0,2,FEW 20   SCT 50,-1,12,-1,12,1011,RJCC 062000Z 24003KT 210V290 9999 FEW020 SCT050 M12/M12 Q1011     RMK 1CU020 3CU050 A2987=,
20180106_203000.001,0,RJCC,,,,0,20180106200000,-1,-1,-1,-1,999,-1,2,-1,-1,-1,-1,,9999,0,0,1,FEW 20,-1,12,-1,13,1011,RJCC 062030Z VRB02KT 9999 FEW020 M12/M13 Q1011 RMK 1CU020     A2988=,
20180106_210000.002,0,RJCC,,,,0,20180106210000,-1,-1,-1,-1,999,-1,1,-1,-1,-1,-1,,9999,0,0,2,FEW 20   SCT 50,-1,12,-1,13,1012,RJCC 062100Z VRB01KT 9999 FEW020 SCT050 M12/M13 Q1012 RMK     1CU020 4CU050 A2989=,
20180106_213000.001,0,RJCC,,,,0,20180106210000,-1,-1,-1,-1,999,-1,2,-1,-1,-1,-1,,9999,0,0,2,FEW 20   SCT 50,-1,12,-1,13,1012,RJCC 062130Z VRB02KT 9999 FEW020 SCT050 M12/M13 Q1012 RMK     1CU020 3CU050 A2990=,
20180106_220000.002,0,RJCC,,,,0,20180106220000,-1,-1,-1,-1,350,-1,4,-1,-1,-1,-1,,9999,0,1,2,FEW 15   SCT 45,-1,12,-1,13,1012,RJCC 062200Z 35004KT 9999 -SHSN FEW015 SCT045 M12/M13 Q1012     RMK 1ST015 3CU045 A2991=,- SN SH
20180106_223000.002,0,RJCC,,,,0,20180106220000,-1,-1,-1,-1,220,-1,4,-1,-1,-1,-1,,9999,0,0,1,FEW 15,-1,12,-1,13,1013,RJCC 062230Z 22004KT 9999 FEW015 M12/M13 Q1013 RMK 1ST015     A2992=,
20180106_230000.002,0,RJCC,,,,0,20180106230000,-1,-1,-1,-1,210,-1,3,-1,-1,-1,-1,,9999,0,0,1,FEW 20,-1,11,-1,12,1013,RJCC 062300Z 21003KT 9999 FEW020 M11/M12 Q1013 RMK 1CU020     A2993=,
20180106_233000.001,0,RJCC,,,,0,20180106230000,-1,-1,-1,-1,350,-1,4,-1,-1,300,10,,6000,0,1,2,FEW 20   BKN 30,-1,8,-1,8,1014,RJCC 062330Z 35004KT 300V010 6000 -SHSN FEW020 BKN030 M08/M08     Q1014 RMK 1CU020 5CU030 A2994=,- SN SH
20180107_000000.002,0,RJCC,,,,0,20180107000000,-1,-1,-1,-1,330,-1,14,-1,-1,-1,-1,,4000,0,1,2,FEW 7   BKN 20,-1,4,-1,5,1014,RJCC 070000Z 33014KT 4000 -SHSN FEW007 BKN020 M04/M05 Q1014     RMK 1ST007 7CU020 A2995 9999SW-W=,- SN SH
20180107_003000.001,0,RJCC,,,,0,20180107000000,-1,-1,-1,-1,330,-1,14,-1,-1,-1,-1,,9999,0,1,1,FEW 10,-1,3,-1,5,1014,RJCC 070030Z 33014KT 9999 -SHSN FEW010 M03/M05 Q1014 RMK     1ST010 A2996 5000E=,- SN SH
20180107_010000.003,0,RJCC,,,,0,20180107010000,-1,-1,-1,-1,330,-1,12,-1,-1,-1,-1,,9999,0,1,2,FEW 10   SCT 50,-1,2,-1,6,1015,RJCC 070100Z 33012KT 9999 -SHSN FEW010 SCT050 M02/M06 Q1015     RMK 1ST010 3CU050 A2997 5000N-E=,- SN SH
20180107_013000.001,0,RJCC,,,,0,20180107010000,-1,-1,-1,-1,330,-1,11,-1,-1,-1,-1,,9999,0,1,2,FEW 10   SCT 50,-1,2,-1,6,1015,RJCC 070130Z 33011KT 9999 -SHSN FEW010 SCT050 M02/M06 Q1015     RMK 1ST010 4CU050 A2998 5000N-E=,- SN SH
20180107_020000.002,0,RJCC,,,,0,20180107020000,-1,-1,-1,-1,350,-1,13,-1,-1,-1,-1,,9999,0,1,2,FEW 15   BKN 45,-1,2,-1,6,1015,RJCC 070200Z 35013KT 9999 -SHSN FEW015 BKN045 M02/M06 Q1015     RMK 1ST015 6CU045 A2997 5000NE-SE=,- SN SH
20180107_023000.001,0,RJCC,,,,0,20180107020000,-1,-1,-1,-1,350,-1,10,-1,-1,-1,-1,,9999,0,1,2,FEW 15   SCT 45,-1,3,-1,6,1015,RJCC 070230Z 35010KT 9999 VCSH FEW015 SCT045 M03/M06 Q1015 RMK     1ST015 4CU045 A2997 SH NE=,VC SH
20180107_030000.002,0,RJCC,,,,0,20180107030000,-1,-1,-1,-1,340,-1,7,-1,-1,-1,-1,,9999,0,0,2,FEW 15   SCT 40,-1,2,-1,6,1015,RJCC 070300Z 34007KT 9999 FEW015 SCT040 M02/M06 Q1015 RMK     1ST015 3CU040 A2997=,
20180107_033000.001,0,RJCC,,,,0,20180107030000,-1,-1,-1,-1,340,-1,7,-1,-1,-1,-1,,9999,0,0,2,FEW 20   SCT 40,-1,1,-1,7,1015,RJCC 070330Z 34007KT 9999 FEW020 SCT040 M01/M07 Q1015 RMK     1CU020 3CU040 A2998=,
20180107_040000.002,0,RJCC,,,,0,20180107040000,-1,-1,-1,-1,350,-1,8,-1,-1,-1,-1,,9999,0,0,2,FEW 20   SCT 45,-1,1,-1,8,1015,RJCC 070400Z 35008KT 9999 FEW020 SCT045 M01/M08 Q1015 RMK     1CU020 3CU045 A2998=,
20180107_043000.001,0,RJCC,,,,0,20180107040000,-1,-1,-1,-1,10,-1,7,-1,-1,-1,-1,,9999,0,0,2,FEW 20   SCT 45,-1,1,-1,9,1015,RJCC 070430Z 01007KT 9999 FEW020 SCT045 M01/M09 Q1015 RMK     1CU020 4CU045 A2998=,
20180107_050000.002,0,RJCC,,,,0,20180107050000,-1,-1,-1,-1,360,-1,6,-1,-1,-1,-1,,9999,0,0,2,FEW 20   SCT 45,-1,1,-1,9,1015,RJCC 070500Z 36006KT 9999 FEW020 SCT045 M01/M09 Q1015 RMK     1CU020 3CU045 A2999=,
20180107_053000.001,0,RJCC,,,,0,20180107050000,-1,-1,-1,-1,350,-1,6,-1,-1,-1,-1,,9999,0,1,2,FEW 20   BKN 45,-1,1,-1,8,1015,RJCC 070530Z 35006KT 9999 -SHSN FEW020 BKN045 M01/M08 Q1015     RMK 1CU020 7CU045 A3000=,- SN SH
20180107_060000.002,0,RJCC,,,,0,20180107060000,-1,-1,-1,-1,360,-1,4,-1,-1,300,40,,9999,0,1,2,FEW 20   BKN 45,-1,1,-1,9,1016,RJCC 070600Z 36004KT 300V040 9999 -SHSN FEW020 BKN045 M01/M09     Q1016 RMK 1CU020 7CU045 A3000=,- SN SH
20180107_063000.001,0,RJCC,,,,0,20180107060000,-1,-1,-1,-1,70,-1,4,-1,-1,50,110,,9999,0,0,2,FEW 20   BKN 45,-1,1,-1,9,1016,RJCC 070630Z 07004KT 050V110 9999 FEW020 BKN045 M01/M09 Q1016     RMK 1CU020 7CU045 A3001=,
20180107_070000.002,0,RJCC,,,,0,20180107070000,-1,-1,-1,-1,999,-1,1,-1,-1,-1,-1,,9999,0,0,2,FEW 25   BKN 45,-1,2,-1,9,1016,RJCC 070700Z VRB01KT 9999 FEW025 BKN045 M02/M09 Q1016 RMK     1CU025 6CU045 A3001=,
20180107_073000.001,0,RJCC,,,,0,20180107070000,-1,-1,-1,-1,120,-1,3,-1,-1,-1,-1,,9999,0,0,2,FEW 25   SCT 40,-1,4,-1,8,1016,RJCC 070730Z 12003KT 9999 FEW025 SCT040 M04/M08 Q1016 RMK     1CU025 4CU040 A3003=,
20180107_080000.002,0,RJCC,,,,0,20180107080000,-1,-1,-1,-1,110,-1,5,-1,-1,-1,-1,,9999,0,0,2,FEW 25   SCT 40,-1,3,-1,8,1016,RJCC 070800Z 11005KT 9999 FEW025 SCT040 M03/M08 Q1016 RMK     1CU025 3CU040 A3002=,
20180107_083000.001,0,RJCC,,,,0,20180107080000,-1,-1,-1,-1,110,-1,5,-1,-1,-1,-1,,9999,0,0,2,FEW 25   SCT 40,-1,5,-1,8,1017,RJCC 070830Z 11005KT 9999 FEW025 SCT040 M05/M08 Q1017 RMK     1CU025 4CU040 A3004=,
20180107_090000.002,0,RJCC,,,,0,20180107090000,-1,-1,-1,-1,120,-1,3,-1,-1,90,180,,9999,0,0,2,FEW 20   BKN 40,-1,5,-1,8,1017,RJCC 070900Z 12003KT 090V180 9999 FEW020 BKN040 M05/M08 Q1017     RMK 1CU020 6CU040 A3004=,
20180107_093000.001,0,RJCC,,,,0,20180107090000,-1,-1,-1,-1,160,-1,3,-1,-1,120,180,,9999,0,0,2,FEW 20   BKN 45,-1,5,-1,7,1017,RJCC 070930Z 16003KT 120V180 9999 FEW020 BKN045 M05/M07 Q1017     RMK 1CU020 7CU045 A3004=,
20180107_100000.002,0,RJCC,,,,0,20180107100000,-1,-1,-1,-1,130,-1,3,-1,-1,-1,-1,,9999,0,0,2,FEW 20   BKN 45,-1,5,-1,7,1017,RJCC 071000Z 13003KT 9999 FEW020 BKN045 M05/M07 Q1017 RMK     1CU020 7CU045 A3005=,
20180107_103000.001,0,RJCC,,,,0,20180107100000,-1,-1,-1,-1,130,-1,3,-1,-1,-1,-1,,9999,0,0,2,FEW 20   BKN 45,-1,4,-1,7,1017,RJCC 071030Z 13003KT 9999 FEW020 BKN045 M04/M07 Q1017 RMK     1CU020 7CU045 A3005=,
20180107_110000.002,0,RJCC,,,,0,20180107110000,-1,-1,-1,-1,120,-1,2,-1,-1,-1,-1,,9999,0,0,2,FEW 20   BKN 45,-1,4,-1,7,1017,RJCC 071100Z 12002KT 9999 FEW020 BKN045 M04/M07 Q1017 RMK     1CU020 7CU045 A3005=,
20180107_113000.001,0,RJCC,,,,0,20180107110000,-1,-1,-1,-1,130,-1,3,-1,-1,-1,-1,,9999,0,0,2,FEW 20   BKN 45,-1,5,-1,7,1017,RJCC 071130Z 13003KT 9999 FEW020 BKN045 M05/M07 Q1017 RMK     1CU020 7CU045 A3005=,
20180107_120000.003,0,RJCC,,,,0,20180107120000,-1,-1,-1,-1,140,-1,3,-1,-1,-1,-1,,9999,0,0,2,FEW 20   BKN 45,-1,4,-1,7,1017,RJCC 071200Z 14003KT 9999 FEW020 BKN045 M04/M07 Q1017 RMK     1CU020 7CU045 A3005=,
20180107_123000.001,0,RJCC,,,,0,20180107120000,-1,-1,-1,-1,130,-1,4,-1,-1,-1,-1,,9999,0,0,2,FEW 20   BKN 45,-1,5,-1,7,1017,RJCC 071230Z 13004KT 9999 FEW020 BKN045 M05/M07 Q1017 RMK     1CU020 7CU045 A3005=,
20180107_130000.003,0,RJCC,,,,0,20180107130000,-1,-1,-1,-1,999,-1,2,-1,-1,-1,-1,,9999,0,0,2,FEW 20   BKN 45,-1,5,-1,7,1017,RJCC 071300Z VRB02KT 9999 FEW020 BKN045 M05/M07 Q1017 RMK     1CU020 7CU045 A3005=,
20180107_133000.001,0,RJCC,,,,0,20180107130000,-1,-1,-1,-1,130,-1,3,-1,-1,100,160,,9999,0,0,2,FEW 15   BKN 45,-1,6,-1,8,1017,RJCC 071330Z 13003KT 100V160 9999 FEW015 BKN045 M06/M08 Q1017     RMK 1ST015 6CU045 A3005=,
20180107_140000.003,0,RJCC,,,,0,20180107140000,-1,-1,-1,-1,140,-1,4,-1,-1,-1,-1,,9999,0,0,2,FEW 15   BKN 45,-1,6,-1,7,1017,RJCC 071400Z 14004KT 9999 FEW015 BKN045 M06/M07 Q1017 RMK     1ST015 5CU045 A3005=,
20180107_143000.001,0,RJCC,,,,0,20180107140000,-1,-1,-1,-1,170,-1,7,-1,-1,-1,-1,,9999,0,0,2,FEW 15   BKN 45,-1,7,-1,8,1017,RJCC 071430Z 17007KT 9999 FEW015 BKN045 M07/M08 Q1017 RMK     1ST015 5CU045 A3004=,
20180107_150000.002,0,RJCC,,,,0,20180107150000,-1,-1,-1,-1,160,-1,4,-1,-1,-1,-1,,9999,0,0,2,FEW 15   BKN 45,-1,5,-1,8,1017,RJCC 071500Z 16004KT 9999 FEW015 BKN045 M05/M08 Q1017 RMK     1ST015 5CU045 A3004=,
20180107_153000.001,0,RJCC,,,,0,20180107150000,-1,-1,-1,-1,180,-1,5,-1,-1,-1,-1,,9999,0,0,2,FEW 15   BKN 45,-1,7,-1,9,1017,RJCC 071530Z 18005KT 9999 FEW015 BKN045 M07/M09 Q1017 RMK     1ST015 5CU045 A3003=,
20180107_160000.002,0,RJCC,,,,0,20180107160000,-1,-1,-1,-1,999,-1,4,-1,-1,-1,-1,,9999,0,0,2,FEW 15   SCT 45,-1,6,-1,8,1016,RJCC 071600Z VRB04KT 9999 FEW015 SCT045 M06/M08 Q1016 RMK     1ST015 4CU045 A3003=,
20180107_163000.001,0,RJCC,,,,0,20180107160000,-1,-1,-1,-1,100,-1,4,-1,-1,-1,-1,,9999,0,0,2,FEW 15   BKN 45,-1,6,-1,8,1017,RJCC 071630Z 10004KT 9999 FEW015 BKN045 M06/M08 Q1017 RMK     1ST015 5CU045 A3003=,
20180107_170000.002,0,RJCC,,,,0,20180107170000,-1,-1,-1,-1,110,-1,5,-1,-1,-1,-1,,9999,0,0,2,FEW 15   BKN 45,-1,6,-1,7,1017,RJCC 071700Z 11005KT 9999 FEW015 BKN045 M06/M07 Q1017 RMK     1ST015 6CU045 A3004=,
20180107_173000.001,0,RJCC,,,,0,20180107170000,-1,-1,-1,-1,120,-1,3,-1,-1,100,190,,9999,0,0,2,FEW 15   BKN 50,-1,5,-1,7,1017,RJCC 071730Z 12003KT 100V190 9999 FEW015 BKN050 M05/M07 Q1017     RMK 1ST015 7CU050 A3004=,
20180107_180000.002,0,RJCC,,,,0,20180107180000,-1,-1,-1,-1,999,-1,2,-1,-1,-1,-1,,9999,0,0,2,FEW 15   BKN 50,-1,5,-1,8,1017,RJCC 071800Z VRB02KT 9999 FEW015 BKN050 M05/M08 Q1017 RMK     1ST015 7CU050 A3003=,
20180107_183000.001,0,RJCC,,,,0,20180107180000,-1,-1,-1,-1,140,-1,4,-1,-1,-1,-1,,9999,0,0,2,FEW 15   BKN 50,-1,5,-1,7,1016,RJCC 071830Z 14004KT 9999 FEW015 BKN050 M05/M07 Q1016 RMK     1ST015 7CU050 A3001=,
20180107_190000.003,0,RJCC,,,,0,20180107190000,-1,-1,-1,-1,180,-1,3,-1,-1,160,220,,9999,0,0,2,FEW 15   BKN 45,-1,5,-1,7,1016,RJCC 071900Z 18003KT 160V220 9999 FEW015 BKN045 M05/M07 Q1016     RMK 1ST015 7CU045 A3001=,
20180107_193000.001,0,RJCC,,,,0,20180107190000,-1,-1,-1,-1,170,-1,4,-1,-1,-1,-1,,9999,0,0,2,FEW 15   BKN 45,-1,5,-1,6,1016,RJCC 071930Z 17004KT 9999 FEW015 BKN045 M05/M06 Q1016 RMK     1ST015 7CU045 A3000=,
20180107_200000.002,0,RJCC,,,,0,20180107200000,-1,-1,-1,-1,150,-1,3,-1,-1,110,200,,9999,0,0,2,FEW 15   BKN 45,-1,4,-1,6,1015,RJCC 072000Z 15003KT 110V200 9999 FEW015 BKN045 M04/M06 Q1015     RMK 1ST015 7CU045 A3000=,
20180107_203000.001,0,RJCC,,,,0,20180107200000,-1,-1,-1,-1,150,-1,4,-1,-1,-1,-1,,9999,0,0,2,FEW 15   BKN 45,-1,4,-1,6,1015,RJCC 072030Z 15004KT 9999 FEW015 BKN045 M04/M06 Q1015 RMK     1ST015 7CU045 A3000=,
20180107_210000.003,0,RJCC,,,,0,20180107210000,-1,-1,-1,-1,160,-1,2,-1,-1,-1,-1,,9999,0,0,2,FEW 15   BKN 45,-1,4,-1,6,1016,RJCC 072100Z 16002KT 9999 FEW015 BKN045 M04/M06 Q1016 RMK     1ST015 7CU045 A3000=,
20180107_213000.001,0,RJCC,,,,0,20180107210000,-1,-1,-1,-1,150,-1,3,-1,-1,-1,-1,,9999,0,0,2,FEW 15   BKN 45,-1,4,-1,5,1015,RJCC 072130Z 15003KT 9999 FEW015 BKN045 M04/M05 Q1015 RMK     1ST015 7CU045 A3000=,
20180107_220000.002,0,RJCC,,,,0,20180107220000,-1,-1,-1,-1,170,-1,4,-1,-1,-1,-1,,9999,0,0,2,FEW 20   BKN 45,-1,3,-1,5,1015,RJCC 072200Z 17004KT 9999 FEW020 BKN045 M03/M05 Q1015 RMK     1CU020 7CU045 A3000=,
20180107_223000.002,0,RJCC,,,,0,20180107220000,-1,-1,-1,-1,180,-1,3,-1,-1,-1,-1,,9999,0,0,2,FEW 20   BKN 45,-1,3,-1,5,1015,RJCC 072230Z 18003KT 9999 FEW020 BKN045 M03/M05 Q1015 RMK     1CU020 7CU045 A3000=,
20180107_230000.002,0,RJCC,,,,0,20180107230000,-1,-1,-1,-1,140,-1,3,-1,-1,110,180,,9999,0,0,2,FEW 20   BKN 45,-1,3,-1,5,1015,RJCC 072300Z 14003KT 110V180 9999 FEW020 BKN045 M03/M05 Q1015     RMK 1CU020 7CU045 A3000=,
20180107_233000.001,0,RJCC,,,,0,20180107230000,-1,-1,-1,-1,160,-1,6,-1,-1,-1,-1,,9999,0,0,2,FEW 20   BKN 40,-1,2,-1,4,1015,RJCC 072330Z 16006KT 9999 FEW020 BKN040 M02/M04 Q1015 RMK     1CU020 7CU040 A3000=,
20180108_000000.002,0,RJCC,,,,0,20180108000000,-1,-1,-1,-1,150,-1,3,-1,-1,-1,-1,,9999,0,0,2,FEW 25   BKN 50,-1,2,-1,4,1016,RJCC 080000Z 15003KT 9999 FEW025 BKN050 M02/M04 Q1016 RMK     1CU025 7CU050 A3000=,
20180108_003000.001,0,RJCC,,,,0,20180108000000,-1,-1,-1,-1,150,-1,7,-1,-1,-1,-1,,9999,0,0,3,FEW 25   BKN 50   BKN 150,-1,0,-1,3,1015,RJCC 080030Z 15007KT 9999 FEW025 BKN050 BKN150 M00/M03 Q1015     RMK 1CU025 6CU050 7AC150 A2999=,
20180108_010000.002,0,RJCC,,,,0,20180108010000,-1,-1,-1,-1,140,-1,6,-1,-1,-1,-1,,9999,0,0,3,FEW 25   SCT 50   BKN 130,1,1,-1,3,1014,RJCC 080100Z 14006KT 9999 FEW025 SCT050 BKN130 01/M03 Q1014     RMK 1CU025 3CU050 7AC130 A2997=,
20180108_013000.001,0,RJCC,,,,0,20180108010000,-1,-1,-1,-1,110,-1,5,-1,-1,-1,-1,,9999,0,0,2,FEW 25   BKN 130,1,2,-1,3,1014,RJCC 080130Z 11005KT 9999 FEW025 BKN130 02/M03 Q1014 RMK     1CU025 7AC130 A2995=,
20180108_020000.002,0,RJCC,,,,0,20180108020000,-1,-1,-1,-1,120,-1,7,-1,-1,-1,-1,,9999,0,0,2,FEW 25   BKN 130,1,3,-1,2,1013,RJCC 080200Z 12007KT 9999 FEW025 BKN130 03/M02 Q1013 RMK     1CU025 7AC130 A2993=,
20180108_023000.001,0,RJCC,,,,0,20180108020000,-1,-1,-1,-1,150,-1,7,-1,-1,-1,-1,,9999,0,0,2,FEW 25   BKN 120,1,2,-1,2,1013,RJCC 080230Z 15007KT 9999 FEW025 BKN120 02/M02 Q1013 RMK     1CU025 7AC120 A2992=,
20180108_030000.002,0,RJCC,,,,0,20180108030000,-1,-1,-1,-1,140,-1,9,-1,-1,-1,-1,,9999,0,0,2,FEW 30   BKN 120,1,4,-1,2,1012,RJCC 080300Z 14009KT 9999 FEW030 BKN120 04/M02 Q1012 RMK     1CU030 7AC120 A2991=,
20180108_033000.001,0,RJCC,,,,0,20180108030000,-1,-1,-1,-1,180,-1,11,-1,-1,-1,-1,,9999,0,0,2,FEW 30   BKN 110,1,4,-1,2,1011,RJCC 080330Z 18011KT 9999 FEW030 BKN110 04/M02 Q1011 RMK     1CU030 7AC110 A2987 P/FR=,
20180108_040000.002,0,RJCC,,,,0,20180108040000,-1,-1,-1,-1,190,-1,7,-1,-1,160,220,,9999,0,0,3,FEW 25   SCT 30   BKN 120,1,4,-1,1,1011,RJCC 080400Z 19007KT 160V220 9999 FEW025 SCT030 BKN120 04/M01     Q1011 RMK 1CU025 3CU030 7AC120 A2988=,
20180108_043000.001,0,RJCC,,,,0,20180108040000,-1,-1,-1,-1,170,-1,9,-1,-1,-1,-1,,9999,0,0,2,FEW 25   BKN 120,1,5,-1,2,1011,RJCC 080430Z 17009KT 9999 FEW025 BKN120 05/M02 Q1011 RMK     1CU025 7AC120 A2986=,
20180108_050000.002,0,RJCC,,,,0,20180108050000,-1,-1,-1,-1,190,-1,10,-1,-1,-1,-1,,9999,0,0,2,FEW 25   BKN 120,1,5,-1,2,1010,RJCC 080500Z 19010KT 9999 FEW025 BKN120 05/M02 Q1010 RMK     1CU025 7AC120 A2985=,
20180108_053000.001,0,RJCC,,,,0,20180108050000,-1,-1,-1,-1,190,-1,8,-1,-1,-1,-1,,9999,0,0,2,FEW 25   BKN 110,1,4,-1,2,1010,RJCC 080530Z 19008KT 9999 FEW025 BKN110 04/M02 Q1010 RMK     1CU025 7AC110 A2984=,
20180108_060000.003,0,RJCC,,,,0,20180108060000,-1,-1,-1,-1,180,-1,8,-1,-1,-1,-1,,9999,0,0,3,FEW 25   SCT 28   BKN 100,1,4,-1,1,1010,RJCC 080600Z 18008KT 9999 FEW025 SCT028 BKN100 04/M01 Q1010     RMK 1CU025 3CU028 7AC100 A2984=,
20180108_063000.001,0,RJCC,,,,0,20180108060000,-1,-1,-1,-1,170,-1,9,-1,-1,-1,-1,,9999,0,0,3,FEW 25   BKN 30   BKN 100,1,4,-1,1,1010,RJCC 080630Z 17009KT 9999 FEW025 BKN030 BKN100 04/M01 Q1010     RMK 1CU025 5CU030 7AC100 A2983=,
20180108_070000.002,0,RJCC,,,,0,20180108070000,-1,-1,-1,-1,170,-1,5,-1,-1,-1,-1,,9999,0,1,3,FEW 30   BKN 40   BKN 100,1,4,-1,1,1009,RJCC 080700Z 17005KT 9999 -SHRA FEW030 BKN040 BKN100 04/M01     Q1009 RMK 1CU030 5CU040 7AC100 A2982=,- RA SH
20180108_073000.001,0,RJCC,,,,0,20180108070000,-1,-1,-1,-1,160,-1,3,-1,-1,130,190,,9999,0,1,3,FEW 25   BKN 50   BKN 120,1,3,-1,1,1009,RJCC 080730Z 16003KT 130V190 9999 -SHRA FEW025 BKN050 BKN120     03/M01 Q1009 RMK 1CU025 5CU050 7AC120 A2982=,- RA SH
20180108_080000.002,0,RJCC,,,,0,20180108080000,-1,-1,-1,-1,150,-1,5,-1,-1,-1,-1,,9999,0,0,3,FEW 25   BKN 30   BKN 110,1,3,-1,1,1009,RJCC 080800Z 15005KT 9999 FEW025 BKN030 BKN110 03/M01 Q1009     RMK 1CU025 6CU030 7AC110 A2980=,
20180108_083000.001,0,RJCC,,,,0,20180108080000,-1,-1,-1,-1,180,-1,3,-1,-1,140,230,,9999,0,0,3,FEW 20   SCT 30   BKN 50,1,4,1,0,1008,RJCC 080830Z 18003KT 140V230 9999 FEW020 SCT030 BKN050 04/00     Q1008 RMK 2CU020 4CU030 6CU050 A2978=,
20180108_090000.002,0,RJCC,,,,0,20180108090000,-1,-1,-1,-1,120,-1,9,-1,-1,-1,-1,,9999,0,0,3,FEW 20   SCT 30   BKN 45,1,3,1,0,1008,RJCC 080900Z 12009KT 9999 FEW020 SCT030 BKN045 03/00 Q1008 RMK     1CU020 4CU030 7CU045 A2977=,
20180108_093000.001,0,RJCC,,,,0,20180108090000,-1,-1,-1,-1,100,-1,7,-1,-1,-1,-1,,9999,0,0,3,FEW 15   SCT 30   BKN 45,1,3,1,0,1008,RJCC 080930Z 10007KT 9999 FEW015 SCT030 BKN045 03/00 Q1008 RMK     1ST015 3CU030 6CU045 A2977=,
20180108_100000.002,0,RJCC,,,,0,20180108100000,-1,-1,-1,-1,120,-1,6,-1,-1,-1,-1,,9999,0,0,3,FEW 15   BKN 30   BKN 140,1,3,1,0,1008,RJCC 081000Z 12006KT 9999 FEW015 BKN030 BKN140 03/00 Q1008 RMK     1ST015 5CU030 7AC140 A2977=,
20180108_103000.001,0,RJCC,,,,0,20180108100000,-1,-1,-1,-1,130,-1,8,-1,-1,-1,-1,,9999,0,0,3,FEW 15   SCT 30   BKN 45,1,2,1,0,1008,RJCC 081030Z 13008KT 9999 FEW015 SCT030 BKN045 02/00 Q1008 RMK     1ST015 3CU030 6CU045 A2977=,
20180108_110000.002,0,RJCC,,,,0,20180108110000,-1,-1,-1,-1,130,-1,6,-1,-1,-1,-1,,9999,0,0,3,FEW 15   SCT 30   BKN 160,1,2,1,0,1007,RJCC 081100Z 13006KT 9999 FEW015 SCT030 BKN160 02/00 Q1007 RMK     1ST015 3CU030 6AC160 A2974=,
20180108_113000.001,0,RJCC,,,,0,20180108110000,-1,-1,-1,-1,120,-1,6,-1,-1,-1,-1,,9999,0,0,3,FEW 15   SCT 30   BKN 150,1,2,-1,0,1006,RJCC 081130Z 12006KT 9999 FEW015 SCT030 BKN150 02/M00 Q1006     RMK 1ST015 3CU030 6AC150 A2972=,
20180108_120000.002,0,RJCC,,,,0,20180108120000,-1,-1,-1,-1,120,-1,5,-1,-1,-1,-1,,9999,0,0,2,FEW 15   BKN 150,1,2,-1,1,1005,RJCC 081200Z 12005KT 9999 FEW015 BKN150 02/M01 Q1005 RMK     1ST015 6AC150 A2970=,
20180108_123000.001,0,RJCC,,,,0,20180108120000,-1,-1,-1,-1,130,-1,4,-1,-1,-1,-1,,9999,0,0,3,FEW 15   SCT 40   BKN 160,1,1,-1,1,1005,RJCC 081230Z 13004KT 9999 FEW015 SCT040 BKN160 01/M01 Q1005     RMK 1ST015 3CU040 5AC160 A2968=,
20180108_130000.003,0,RJCC,,,,0,20180108130000,-1,-1,-1,-1,130,-1,7,-1,-1,80,150,,9999,0,0,3,FEW 15   SCT 25   BKN 45,1,3,-1,2,1004,RJCC 081300Z 13007KT 080V150 9999 FEW015 SCT025 BKN045 03/M02     Q1004 RMK 1ST015 3CU025 6CU045 A2965=,
20180108_133000.001,0,RJCC,,,,0,20180108130000,-1,-1,-1,-1,40,-1,3,-1,-1,340,100,,9999,0,1,3,FEW 15   BKN 30   BKN 45,1,3,-1,2,1002,RJCC 081330Z 04003KT 340V100 9999 -SHRA FEW015 BKN030 BKN045     03/M02 Q1002 RMK 1ST015 5CU030 7CU045 A2961 P/FR=,- RA SH
20180108_140000.002,0,RJCC,,,,0,20180108140000,-1,-1,-1,-1,999,-1,1,-1,-1,-1,-1,,9999,0,1,3,FEW 15   SCT 30   BKN 45,1,3,-1,2,1002,RJCC 081400Z VRB01KT 9999 -SHRA FEW015 SCT030 BKN045 03/M02     Q1002 RMK 1ST015 3CU030 5CU045 A2959=,- RA SH
20180108_143000.001,0,RJCC,,,,0,20180108140000,-1,-1,-1,-1,120,-1,3,-1,-1,-1,-1,,9999,0,0,2,FEW 15   BKN 150,1,3,-1,2,1001,RJCC 081430Z 12003KT 9999 FEW015 BKN150 03/M02 Q1001 RMK     1ST015 6AC150 A2957=,
20180108_150000.002,0,RJCC,,,,0,20180108150000,-1,-1,-1,-1,150,-1,3,-1,-1,-1,-1,,9999,0,0,3,FEW 15   SCT 25   BKN 150,1,2,-1,2,1000,RJCC 081500Z 15003KT 9999 FEW015 SCT025 BKN150 02/M02 Q1000     RMK 1ST015 3CU025 6AC150 A2954=,
20180108_153000.001,0,RJCC,,,,0,20180108150000,-1,-1,-1,-1,200,-1,4,-1,-1,-1,-1,,9999,0,0,2,FEW 15   BKN 25,1,2,-1,1,1000,RJCC 081530Z 20004KT 9999 FEW015 BKN025 02/M01 Q1000 RMK     1ST015 7CU025 A2955=,
20180108_160000.002,0,RJCC,,,,0,20180108160000,-1,-1,-1,-1,160,-1,5,-1,-1,-1,-1,,9999,0,0,2,FEW 15   BKN 20,1,2,-1,1,999,RJCC 081600Z 16005KT 9999 FEW015 BKN020 02/M01 Q0999 RMK     1ST015 7CU020 A2952=,
20180108_163000.001,0,RJCC,,,,0,20180108160000,-1,-1,-1,-1,140,-1,6,-1,-1,-1,-1,,9999,0,0,3,FEW 15   SCT 20   BKN 80,1,3,-1,0,999,RJCC 081630Z 14006KT 9999 FEW015 SCT020 BKN080 03/M00 Q0999     RMK 1ST015 4CU020 7AC080 A2950=,
20180108_170000.002,0,RJCC,,,,0,20180108170000,-1,-1,-1,-1,120,-1,5,-1,-1,-1,-1,,9999,0,0,3,FEW 15   SCT 80   BKN 150,1,3,-1,0,997,RJCC 081700Z 12005KT 9999 FEW015 SCT080 BKN150 03/M00 Q0997     RMK 1ST015 4AC080 7AC150 A2945 P/FR=,
20180108_173000.001,0,RJCC,,,,0,20180108170000,-1,-1,-1,-1,110,-1,3,-1,-1,-1,-1,,9999,0,0,2,FEW 15   BKN 140,1,3,-1,0,996,RJCC 081730Z 11003KT 9999 FEW015 BKN140 03/M00 Q0996 RMK     1ST015 7AC140 A2942 P/FR=,
20180108_180000.002,0,RJCC,,,,0,20180108180000,-1,-1,-1,-1,130,-1,4,-1,-1,-1,-1,,9999,0,0,3,FEW 15   SCT 25   BKN 140,1,3,-1,0,994,RJCC 081800Z 13004KT 9999 FEW015 SCT025 BKN140 03/M00 Q0994     RMK 1ST015 4CU025 7AC140 A2938 P/FR=,
20180108_183000.001,0,RJCC,,,,0,20180108180000,-1,-1,-1,-1,150,-1,6,-1,-1,-1,-1,,9999,0,0,3,FEW 15   BKN 30   BKN 140,1,3,-1,0,994,RJCC 081830Z 15006KT 9999 FEW015 BKN030 BKN140 03/M00 Q0994     RMK 1ST015 5CU030 7AC140 A2935=,
20180108_190000.002,0,RJCC,,,,0,20180108190000,-1,-1,-1,-1,160,-1,7,-1,-1,-1,-1,,9999,0,0,3,FEW 15   SCT 30   BKN 150,1,2,-1,1,992,RJCC 081900Z 16007KT 9999 FEW015 SCT030 BKN150 02/M01 Q0992     RMK 1ST015 4CU030 7AC150 A2931 P/FR=,
20180108_193000.001,0,RJCC,,,,0,20180108190000,-1,-1,-1,-1,190,-1,5,-1,-1,-1,-1,,9999,0,0,3,FEW 15   SCT 120   BKN 150,1,2,-1,1,992,RJCC 081930Z 19005KT 9999 FEW015 SCT120 BKN150 02/M01 Q0992     RMK 1ST015 3AC120 7AC150 A2930=,
20180108_200000.002,0,RJCC,,,,0,20180108200000,-1,-1,-1,-1,999,-1,1,-1,-1,-1,-1,,9999,0,0,3,FEW 15   SCT 120   BKN 150,1,1,-1,1,990,RJCC 082000Z VRB01KT 9999 FEW015 SCT120 BKN150 01/M01 Q0990     RMK 1ST015 4AC120 7AC150 A2925 P/FR=,
20180108_203000.001,0,RJCC,,,,0,20180108200000,-1,-1,-1,-1,280,-1,1,-1,-1,-1,-1,,9999,0,0,3,FEW 15   BKN 40   BKN 120,1,1,-1,1,989,RJCC 082030Z 28001KT 9999 FEW015 BKN040 BKN120 01/M01 Q0989     RMK 1ST015 5CU040 7AC120 A2922 P/FR=,
20180108_210000.003,0,RJCC,,,,0,20180108210000,-1,-1,-1,-1,330,-1,2,-1,-1,-1,-1,,9999,0,1,2,FEW 15   BKN 40,1,1,-1,1,988,RJCC 082100Z 33002KT 9999 -SHRA FEW015 BKN040 01/M01 Q0988 RMK     1ST015 7CU040 A2919 P/FR=,- RA SH
20180108_213000.001,0,RJCC,,,,0,20180108210000,-1,-1,-1,-1,280,-1,4,-1,-1,-1,-1,,8000,0,1,3,FEW 10   SCT 25   BKN 40,1,1,1,0,988,RJCC 082130Z 28004KT 8000 -SHRA FEW010 SCT025 BKN040 01/00     Q0988 RMK 1ST010 3CU025 7CU040 A2919=,- RA SH
20180108_220000.002,0,RJCC,,,,0,20180108220000,-1,-1,-1,-1,340,-1,4,-1,-1,-1,-1,,6000,0,1,3,FEW 10   BKN 25   BKN 40,1,1,1,1,987,RJCC 082200Z 34004KT 6000 SHRA FEW010 BKN025 BKN040 01/01     Q0987 RMK 1ST010 6CU025 7CU040 A2916=,RA SH
20180108_223000.001,0,RJCC,,,,0,20180108220000,-1,-1,-1,-1,20,-1,4,-1,-1,-1,-1,,6000,0,1,3,FEW 10   BKN 20   BKN 30,1,1,1,1,986,RJCC 082230Z 02004KT 6000 SHRA FEW010 BKN020 BKN030 01/01     Q0986 RMK 1ST010 6CU020 7CU030 A2914=,RA SH
20180108_230000.003,0,RJCC,,,,0,20180108230000,-1,-1,-1,-1,340,-1,6,-1,-1,-1,-1,,6000,0,1,3,FEW 10   BKN 16   BKN 25,1,1,1,1,986,RJCC 082300Z 34006KT 6000 -SHRA FEW010 BKN016 BKN025 01/01     Q0986 RMK 1ST010 5ST016 7CU025 A2912=,- RA SH
20180108_233000.001,0,RJCC,,,,0,20180108230000,-1,-1,-1,-1,330,-1,5,-1,-1,-1,-1,,4500,0,2,3,FEW 8   BKN 12   BKN 15,1,1,1,1,985,RJCC 082330Z 33005KT 4500 SHRA BR FEW008 BKN012 BKN015 01/01     Q0985 RMK 1ST008 5ST012 7ST015 A2910=,RA SH; BR
20180109_000000.002,0,RJCC,,,,0,20180109000000,-1,-1,-1,-1,310,-1,5,-1,-1,260,70,,4000,0,2,2,FEW 8   BKN 12,1,1,1,1,984,RJCC 090000Z 31005KT 260V070 4000 SHRA BR FEW008 BKN012 01/01     Q0984 RMK 1ST008 7ST012 A2908=,RA SH; BR
20180109_003000.001,0,RJCC,,,,0,20180109000000,-1,-1,-1,-1,330,-1,6,-1,-1,-1,-1,,4000,0,2,2,FEW 8   BKN 12,1,2,1,1,983,RJCC 090030Z 33006KT 4000 SHRA BR FEW008 BKN012 02/01 Q0983     RMK 1ST008 7ST012 A2904 P/FR=,RA SH; BR
20180109_010000.002,0,RJCC,,,,0,20180109010000,-1,-1,-1,-1,330,-1,5,-1,-1,-1,-1,,5000,0,2,2,FEW 8   BKN 10,1,1,1,1,982,RJCC 090100Z 33005KT 5000 -SHRA BR FEW008 BKN010 01/01 Q0982     RMK 1ST008 7ST010 A2902=,- RA SH; BR
20180109_013000.001,0,RJCC,,,,0,20180109010000,-1,-1,-1,-1,330,-1,5,-1,-1,310,30,,4000,0,2,3,FEW 3   SCT 6   BKN 8,1,1,1,1,981,RJCC 090130Z 33005KT 310V030 4000 -SHRA BR FEW003 SCT006     BKN008 01/01 Q0981 RMK 1ST003 4ST006 7ST008 A2899 P/FR=,- RA SH; BR
20180109_020000.002,0,RJCC,,,,0,20180109020000,-1,-1,-1,-1,280,-1,6,-1,-1,230,330,,5000,0,2,3,FEW 3   BKN 6   BKN 8,1,2,1,2,980,RJCC 090200Z 28006KT 230V330 5000 -SHRA BR FEW003 BKN006     BKN008 02/02 Q0980 RMK 1ST003 5ST006 7ST008 A2896=,- RA SH; BR
20180109_023000.001,0,RJCC,,,,0,20180109020000,-1,-1,-1,-1,330,-1,5,-1,-1,280,40,,7000,0,1,3,FEW 3   SCT 6   BKN 8,1,2,1,2,980,RJCC 090230Z 33005KT 280V040 7000 -SHRA FEW003 SCT006 BKN008     02/02 Q0980 RMK 1ST003 4ST006 7ST008 A2895=,- RA SH
20180109_030000.002,0,RJCC,,,,0,20180109030000,-1,-1,-1,-1,999,-1,1,-1,-1,-1,-1,,8000,0,0,2,FEW 3   BKN 6,1,3,1,2,980,RJCC 090300Z VRB01KT 8000 FEW003 BKN006 03/02 Q0980 RMK 1ST003     5ST006 A2896=,
20180109_033000.001,0,RJCC,,,,0,20180109030000,-1,-1,-1,-1,250,-1,19,-1,-1,-1,-1,,9999,0,1,3,FEW 5   SCT 15   BKN 40,1,6,1,2,981,RJCC 090330Z 25019KT 9999 -SHRA FEW005 SCT015 BKN040 06/02     Q0981 RMK 1ST005 3ST015 5CU040 A2898=,- RA SH
20180109_040000.002,0,RJCC,,,,0,20180109040000,-1,-1,-1,-1,20,-1,9,-1,-1,-1,-1,,9999,0,0,1,FEW 10,1,5,1,2,981,RJCC 090400Z 02009KT 9999 FEW010 05/02 Q0981 RMK 1ST010 A2898=,
20180109_043000.001,0,RJCC,,,,0,20180109040000,-1,-1,-1,-1,999,-1,5,-1,-1,-1,-1,,9999,0,0,1,FEW 10,1,6,-1,1,981,RJCC 090430Z VRB05KT 9999 FEW010 06/M01 Q0981 RMK 1ST010     A2899=,
20180109_050000.002,0,RJCC,,,,0,20180109050000,-1,-1,-1,-1,250,-1,15,-1,-1,-1,-1,,9999,0,0,2,FEW 15   SCT 40,1,6,-1,2,982,RJCC 090500Z 25015KT 9999 FEW015 SCT040 06/M02 Q0982 RMK     1ST015 3CU040 A2901=,
20180109_053000.001,0,RJCC,,,,0,20180109050000,-1,-1,-1,-1,220,-1,7,-1,-1,-1,-1,,9999,0,0,2,FEW 15   SCT 40,1,6,-1,2,982,RJCC 090530Z 22007KT 9999 FEW015 SCT040 06/M02 Q0982 RMK     1ST015 3CU040 A2900=,
20180109_060000.002,0,RJCC,,,,0,20180109060000,-1,-1,-1,-1,230,-1,13,-1,-1,-1,-1,,9999,0,0,2,FEW 15   SCT 40,1,6,-1,3,982,RJCC 090600Z 23013KT 9999 FEW015 SCT040 06/M03 Q0982 RMK     1ST015 3CU040 A2901=,
20180109_063000.001,0,RJCC,,,,0,20180109060000,-1,-1,-1,-1,230,-1,10,-1,-1,-1,-1,,9999,0,0,3,FEW 15   SCT 50   BKN -9999,1,5,-1,4,982,RJCC 090630Z 23010KT 9999 FEW015 SCT050 BKN/// 05/M04 Q0982     RMK 1ST015 3CU050 A2902=,
20180109_070000.002,0,RJCC,,,,0,20180109070000,-1,-1,-1,-1,220,-1,9,-1,-1,190,260,,9999,0,0,2,FEW 15   SCT -9999,1,4,-1,5,982,RJCC 090700Z 22009KT 190V260 9999 FEW015 SCT/// 04/M05 Q0982     RMK 1ST015 A2902=,
20180109_073000.001,0,RJCC,,,,0,20180109070000,-1,-1,-1,-1,220,-1,8,-1,-1,180,240,,9999,0,0,2,FEW 15   SCT 50,1,4,-1,5,982,RJCC 090730Z 22008KT 180V240 9999 FEW015 SCT050 04/M05 Q0982     RMK 1ST015 4CU050 A2902=,
20180109_080000.002,0,RJCC,,,,0,20180109080000,-1,-1,-1,-1,200,-1,19,-1,-1,-1,-1,,9999,0,0,2,FEW 10   SCT 40,1,4,-1,4,982,RJCC 090800Z 20019KT 9999 FEW010 SCT040 04/M04 Q0982 RMK     1ST010 3CU040 A2900=,
20180109_083000.001,0,RJCC,,,,0,20180109080000,-1,-1,-1,-1,250,-1,20,-1,30,-1,-1,,8000,0,1,3,FEW 7   SCT 25   BKN 40,1,2,-1,2,983,RJCC 090830Z 25020G30KT 8000 -SHSN FEW007 SCT025 BKN040 02/M02     Q0983 RMK 1ST007 3CU025 6CU040 A2903=,- SN SH
20180109_090000.002,1,RJCC,,,,0,20180109090000,-1,-1,-1,-1,-1,-1,-1,-1,-1,-1,-1,,-1,0,0,0,,0,-1,0,-1,-1,RJCC 090900Z NIL=,
20180109_090000.005,1,RJCC,,,,0,20180109090000,-1,-1,-1,-1,240,-1,10,-1,-1,-1,-1,,9999,0,0,3,FEW 10   SCT 30   BKN 100,1,2,-1,2,983,RJCC 090900Z 24010KT 9999 FEW010 SCT030 BKN100 02/M02 Q0983     RMK 1ST010 3CU030 6AC100 A2904=,
20180109_093000.001,0,RJCC,,,,0,20180109090000,-1,-1,-1,-1,240,-1,10,-1,-1,-1,-1,,9999,0,1,2,FEW 10   BKN 100,1,2,-1,5,983,RJCC 090930Z 24010KT 9999 -SHSN FEW010 BKN100 02/M05 Q0983 RMK     1ST010 5AC100 A2903=,- SN SH
20180109_100000.002,0,RJCC,,,,0,20180109100000,-1,-1,-1,-1,240,-1,17,-1,-1,-1,-1,,9999,0,0,2,FEW 10   SCT 140,1,2,-1,6,983,RJCC 091000Z 24017KT 9999 FEW010 SCT140 02/M06 Q0983 RMK     1ST010 4AC140 A2903=,
20180109_103000.001,0,RJCC,,,,0,20180109100000,-1,-1,-1,-1,260,-1,14,-1,-1,-1,-1,,9999,0,1,2,FEW 10   BKN 45,1,1,-1,5,983,RJCC 091030Z 26014KT 9999 -SHSN FEW010 BKN045 01/M05 Q0983 RMK     1ST010 6CU045 A2904=,- SN SH
20180109_110000.002,0,RJCC,,,,0,20180109110000,-1,-1,-1,-1,260,-1,18,-1,-1,-1,-1,,9999,0,1,2,FEW 10   SCT 90,1,1,-1,4,983,RJCC 091100Z 26018KT 9999 -SHSN FEW010 SCT090 01/M04 Q0983 WS     R19L RMK 1ST010 3AC090 A2904=,- SN SH
20180109_113000.001,0,RJCC,,,,0,20180109110000,-1,-1,-1,-1,290,-1,16,-1,27,-1,-1,,9999,0,1,2,FEW 10   BKN 35,1,1,-1,4,984,RJCC 091130Z 29016G27KT 9999 -SHSN FEW010 BKN035 01/M04 Q0984     RMK 1ST010 5CU035 A2906=,- SN SH
20180109_120000.002,0,RJCC,,,,0,20180109120000,-1,-1,-1,-1,250,-1,15,-1,-1,-1,-1,,8000,0,1,2,FEW 10   SCT 25,-1,1,-1,4,984,RJCC 091200Z 25015KT 8000 -SHSN FEW010 SCT025 M01/M04 Q0984     RMK 1ST010 3CU025 A2907=,- SN SH
20180109_123000.001,0,RJCC,,,,0,20180109120000,-1,-1,-1,-1,260,-1,15,-1,-1,-1,-1,,9999,0,1,2,FEW 10   SCT 25,-1,0,-1,8,984,RJCC 091230Z 26015KT 9999 -SHSN FEW010 SCT025 M00/M08 Q0984     RMK 1ST010 3CU025 A2908=,- SN SH
20180109_130000.002,0,RJCC,,,,0,20180109130000,-1,-1,-1,-1,250,-1,17,-1,-1,-1,-1,,9999,0,1,2,FEW 10   SCT 40,-1,1,-1,7,985,RJCC 091300Z 25017KT 9999 -SHSN FEW010 SCT040 M01/M07 Q0985     RMK 1ST010 3CU040 A2909=,- SN SH
20180109_133000.001,0,RJCC,,,,0,20180109130000,-1,-1,-1,-1,230,-1,12,-1,-1,180,260,,9999,0,1,2,FEW 10   SCT 25,-1,1,-1,6,985,RJCC 091330Z 23012KT 180V260 9999 -SHSN FEW010 SCT025 M01/M06     Q0985 RMK 1ST010 3CU025 A2910=,- SN SH
20180109_140000.002,0,RJCC,,,,0,20180109140000,-1,-1,-1,-1,240,-1,9,-1,-1,-1,-1,,9999,0,1,2,FEW 10   BKN 30,-1,1,-1,7,985,RJCC 091400Z 24009KT 9999 -SHSN FEW010 BKN030 M01/M07 Q0985     RMK 1ST010 5CU030 A2911=,- SN SH
20180109_143000.001,0,RJCC,,,,0,20180109140000,-1,-1,-1,-1,250,-1,18,-1,-1,-1,-1,,9999,0,1,2,FEW 10   SCT 30,-1,1,-1,8,985,RJCC 091430Z 25018KT 9999 -SHSN FEW010 SCT030 M01/M08 Q0985     RMK 1ST010 3CU030 A2911=,- SN SH
20180109_150000.002,0,RJCC,,,,0,20180109150000,-1,-1,-1,-1,240,-1,15,-1,-1,-1,-1,,9999,0,1,2,FEW 10   SCT 35,-1,2,-1,7,986,RJCC 091500Z 24015KT 9999 -SHSN FEW010 SCT035 M02/M07 Q0986     RMK 1ST010 4CU035 A2912=,- SN SH
20180109_153000.001,0,RJCC,,,,0,20180109150000,-1,-1,-1,-1,220,-1,12,-1,-1,-1,-1,,8000,0,1,2,FEW 10   BKN 30,-1,2,-1,6,986,RJCC 091530Z 22012KT 8000 -SHSN FEW010 BKN030 M02/M06 Q0986     RMK 1ST010 6CU030 A2914=,- SN SH
20180109_160000.002,0,RJCC,,,,0,20180109160000,-1,-1,-1,-1,230,-1,11,-1,24,200,260,,4000,0,1,2,FEW 10   BKN 25,-1,2,-1,6,987,RJCC 091600Z 23011G24KT 200V260 4000 -SHSN FEW010 BKN025     M02/M06 Q0987 RMK 1ST010 7CU025 A2915=,- SN SH
20180109_163000.001,0,RJCC,,,,0,20180109160000,-1,-1,-1,-1,999,-1,6,-1,16,-1,-1,,9999,0,1,2,FEW 10   BKN 25,-1,2,-1,7,987,RJCC 091630Z VRB06G16KT 9999 -SHSN FEW010 BKN025 M02/M07 Q0987     RMK 1ST010 7CU025 A2917=,- SN SH
20180109_170000.002,0,RJCC,,,,0,20180109170000,-1,-1,-1,-1,260,-1,12,-1,-1,200,290,,9999,0,1,2,FEW 10   BKN 35,-1,2,-1,8,988,RJCC 091700Z 26012KT 200V290 9999 -SHSN FEW010 BKN035 M02/M08     Q0988 RMK 1ST010 7CU035 A2919=,- SN SH
20180109_173000.001,0,RJCC,,,,0,20180109170000,-1,-1,-1,-1,250,-1,17,-1,-1,-1,-1,,9999,0,1,2,FEW 10   BKN 35,-1,2,-1,9,988,RJCC 091730Z 25017KT 9999 -SHSN FEW010 BKN035 M02/M09 Q0988     RMK 1ST010 6CU035 A2920=,- SN SH
20180109_180000.002,0,RJCC,,,,0,20180109180000,-1,-1,-1,-1,240,-1,10,-1,-1,190,280,,9999,0,1,2,FEW 10   BKN 35,-1,2,-1,8,989,RJCC 091800Z 24010KT 190V280 9999 -SHSN FEW010 BKN035 M02/M08     Q0989 RMK 1ST010 7CU035 A2922=,- SN SH
20180109_183000.001,0,RJCC,,,,0,20180109180000,-1,-1,-1,-1,210,-1,12,-1,-1,170,240,,9999,0,1,2,FEW 10   BKN 30,-1,2,-1,8,989,RJCC 091830Z 21012KT 170V240 9999 -SHSN FEW010 BKN030 M02/M08     Q0989 RMK 1ST010 7CU030 A2923=,- SN SH
20180109_190000.003,0,RJCC,,,,0,20180109190000,-1,-1,-1,-1,230,-1,14,-1,-1,-1,-1,,9999,0,1,3,FEW 10   SCT 30   BKN 40,-1,2,-1,8,990,RJCC 091900Z 23014KT 9999 -SHSN FEW010 SCT030 BKN040 M02/M08     Q0990 RMK 1ST010 3CU030 6CU040 A2924=,- SN SH
20180109_193000.001,0,RJCC,,,,0,20180109190000,-1,-1,-1,-1,230,-1,14,-1,-1,-1,-1,,9999,0,1,2,FEW 10   BKN 45,-1,2,-1,8,990,RJCC 091930Z 23014KT 9999 -SHSN FEW010 BKN045 M02/M08 Q0990     RMK 1ST010 6CU045 A2925=,- SN SH
20180109_200000.002,0,RJCC,,,,0,20180109200000,-1,-1,-1,-1,230,-1,13,-1,-1,-1,-1,,9999,0,1,2,FEW 10   BKN 45,-1,2,-1,7,991,RJCC 092000Z 23013KT 9999 -SHSN FEW010 BKN045 M02/M07 Q0991     RMK 1ST010 5CU045 A2927=,- SN SH
20180109_203000.001,0,RJCC,,,,0,20180109200000,-1,-1,-1,-1,240,-1,14,-1,-1,-1,-1,,9999,0,1,2,FEW 10   BKN 45,-1,2,-1,8,991,RJCC 092030Z 24014KT 9999 -SHSN FEW010 BKN045 M02/M08 Q0991     RMK 1ST010 5CU045 A2929=,- SN SH
20180109_210000.002,0,RJCC,,,,0,20180109210000,-1,-1,-1,-1,260,-1,14,-1,-1,-1,-1,,9999,0,1,2,FEW 10   SCT 50,-1,2,-1,9,992,RJCC 092100Z 26014KT 9999 -SHSN FEW010 SCT050 M02/M09 Q0992     RMK 1ST010 4CU050 A2930=,- SN SH
20180109_213000.001,0,RJCC,,,,0,20180109210000,-1,-1,-1,-1,250,-1,12,-1,-1,220,280,,9999,0,1,2,FEW 10   SCT 50,-1,2,-1,9,993,RJCC 092130Z 25012KT 220V280 9999 -SHSN FEW010 SCT050 M02/M09     Q0993 RMK 1ST010 3CU050 A2933=,- SN SH
20180109_220000.002,0,RJCC,,,,0,20180109220000,-1,-1,-1,-1,260,-1,16,-1,-1,230,300,,9999,0,0,1,FEW 15,-1,2,-1,9,993,RJCC 092200Z 26016KT 230V300 9999 FEW015 M02/M09 Q0993 RMK     1ST015 A2935=,
20180109_223000.002,0,RJCC,,,,0,20180109220000,-1,-1,-1,-1,210,-1,9,-1,-1,-1,-1,,9999,0,0,1,FEW 20,-1,2,-1,9,994,RJCC 092230Z 21009KT 9999 FEW020 M02/M09 Q0994 RMK 1ST020     A2937=,
20180109_230000.002,0,RJCC,,,,0,20180109230000,-1,-1,-1,-1,220,-1,11,-1,-1,-1,-1,,9999,0,0,1,FEW 25,-1,2,-1,9,995,RJCC 092300Z 22011KT 9999 FEW025 M02/M09 Q0995 RMK 1CU025     A2940=,
20180109_233000.001,0,RJCC,,,,0,20180109230000,-1,-1,-1,-1,220,-1,10,-1,-1,170,240,,9999,0,0,1,FEW 25,-1,1,-1,10,996,RJCC 092330Z 22010KT 170V240 9999 FEW025 M01/M10 Q0996 RMK     1CU025 A2941=,
20180110_000000.002,0,RJCC,,,,0,20180110000000,-1,-1,-1,-1,230,-1,10,-1,-1,-1,-1,,9999,0,0,1,FEW 30,-1,1,-1,9,996,RJCC 100000Z 23010KT 9999 FEW030 M01/M09 Q0996 RMK 1CU030     A2943=,
20180110_003000.001,0,RJCC,,,,0,20180110000000,-1,-1,-1,-1,230,-1,10,-1,-1,-1,-1,,9999,0,0,1,FEW 30,-1,1,-1,9,996,RJCC 100030Z 23010KT 9999 FEW030 M01/M09 Q0996 RMK 1CU030     A2943=,
20180110_010000.002,0,RJCC,,,,0,20180110010000,-1,-1,-1,-1,250,-1,13,-1,-1,-1,-1,,9999,0,0,1,FEW 30,-1,1,-1,8,997,RJCC 100100Z 25013KT 9999 FEW030 M01/M08 Q0997 RMK 1CU030     A2944=,
20180110_013000.001,0,RJCC,,,,0,20180110010000,-1,-1,-1,-1,240,-1,13,-1,25,-1,-1,,9999,0,0,2,FEW 30   SCT 110,-1,0,-1,9,997,RJCC 100130Z 24013G25KT 9999 FEW030 SCT110 M00/M09 Q0997 RMK     1CU030 3AC110 A2945=,
20180110_020000.002,0,RJCC,,,,0,20180110020000,-1,-1,-1,-1,250,-1,11,-1,-1,210,280,,9999,0,0,2,FEW 30   SCT 120,-1,0,-1,9,997,RJCC 100200Z 25011KT 210V280 9999 FEW030 SCT120 M00/M09 Q0997     RMK 1CU030 3AC120 A2946=,
20180110_023000.001,0,RJCC,,,,0,20180110020000,-1,-1,-1,-1,250,-1,15,-1,-1,-1,-1,,9999,0,0,1,FEW 30,-1,0,-1,10,997,RJCC 100230Z 25015KT 9999 FEW030 M00/M10 Q0997 RMK 1CU030     A2946=,
20180110_030000.002,0,RJCC,,,,0,20180110030000,-1,-1,-1,-1,250,-1,15,-1,-1,-1,-1,,9999,0,0,1,FEW 30,-1,0,-1,10,997,RJCC 100300Z 25015KT 9999 FEW030 M00/M10 Q0997 RMK 1CU030     A2946=,
20180110_033000.001,0,RJCC,,,,0,20180110030000,-1,-1,-1,-1,240,-1,17,-1,-1,-1,-1,,9999,0,0,1,FEW 30,-1,0,-1,10,998,RJCC 100330Z 24017KT 9999 FEW030 M00/M10 Q0998 RMK 1CU030     A2948=,
20180110_040000.003,0,RJCC,,,,0,20180110040000,-1,-1,-1,-1,260,-1,17,-1,-1,-1,-1,,9999,0,0,1,FEW 30,-1,0,-1,10,998,RJCC 100400Z 26017KT 9999 FEW030 M00/M10 Q0998 RMK 1CU030     A2948=,
20180110_043000.001,0,RJCC,,,,0,20180110040000,-1,-1,-1,-1,260,-1,19,-1,-1,-1,-1,,9999,0,0,1,FEW 25,-1,1,-1,10,998,RJCC 100430Z 26019KT 9999 FEW025 M01/M10 Q0998 RMK 1CU025     A2948=,
20180110_050000.002,0,RJCC,,,,0,20180110050000,-1,-1,-1,-1,260,-1,18,-1,-1,-1,-1,,9999,0,1,1,FEW 25,-1,1,-1,10,998,RJCC 100500Z 26018KT 9999 VCSH FEW025 M01/M10 Q0998 RMK 1CU025     A2950 SH NW=,VC SH
20180110_053000.001,0,RJCC,,,,0,20180110050000,-1,-1,-1,-1,250,-1,18,-1,-1,-1,-1,,9999,0,0,1,FEW 25,-1,1,-1,12,999,RJCC 100530Z 25018KT 9999 FEW025 M01/M12 Q0999 RMK 1CU025     A2951=,
20180110_060000.002,0,RJCC,,,,0,20180110060000,-1,-1,-1,-1,260,-1,9,-1,-1,220,310,,9999,0,0,1,FEW 25,-1,0,-1,13,999,RJCC 100600Z 26009KT 220V310 9999 FEW025 M00/M13 Q0999 RMK     1CU025 A2952=,
20180110_063000.001,0,RJCC,,,,0,20180110060000,-1,-1,-1,-1,290,-1,9,-1,-1,240,310,,9999,0,0,2,FEW 25   SCT 50,-1,1,-1,12,1000,RJCC 100630Z 29009KT 240V310 9999 FEW025 SCT050 M01/M12 Q1000     RMK 1CU025 3CU050 A2954=,
20180110_070000.002,0,RJCC,,,,0,20180110070000,-1,-1,-1,-1,260,-1,7,-1,-1,210,290,,9999,0,0,1,FEW 25,-1,2,-1,12,1000,RJCC 100700Z 26007KT 210V290 9999 FEW025 M02/M12 Q1000 RMK     1CU025 A2955=,
20180110_073000.001,0,RJCC,,,,0,20180110070000,-1,-1,-1,-1,240,-1,7,-1,-1,200,260,,9999,0,0,1,FEW 25,-1,2,-1,13,1001,RJCC 100730Z 24007KT 200V260 9999 FEW025 M02/M13 Q1001 RMK     1CU025 A2957=,
20180110_080000.002,0,RJCC,,,,0,20180110080000,-1,-1,-1,-1,230,-1,11,-1,-1,-1,-1,,9999,0,0,1,FEW 25,-1,3,-1,12,1001,RJCC 100800Z 23011KT 9999 FEW025 M03/M12 Q1001 RMK 1CU025     A2958=,
20180110_083000.001,0,RJCC,,,,0,20180110080000,-1,-1,-1,-1,230,-1,8,-1,-1,-1,-1,,9999,0,0,1,FEW 25,-1,3,-1,12,1002,RJCC 100830Z 23008KT 9999 FEW025 M03/M12 Q1002 RMK 1CU025     A2960=,
20180110_090000.002,0,RJCC,,,,0,20180110090000,-1,-1,-1,-1,220,-1,8,-1,-1,-1,-1,,9999,0,0,1,FEW 20,-1,3,-1,12,1002,RJCC 100900Z 22008KT 9999 FEW020 M03/M12 Q1002 RMK 1CU020     A2961=,
20180110_093000.001,0,RJCC,,,,0,20180110090000,-1,-1,-1,-1,210,-1,4,-1,-1,-1,-1,,9999,0,0,1,FEW 20,-1,3,-1,12,1003,RJCC 100930Z 21004KT 9999 FEW020 M03/M12 Q1003 RMK 1CU020     A2962=,
20180110_100000.002,0,RJCC,,,,0,20180110100000,-1,-1,-1,-1,190,-1,4,-1,-1,160,230,,9999,0,0,1,FEW 20,-1,3,-1,12,1003,RJCC 101000Z 19004KT 160V230 9999 FEW020 M03/M12 Q1003 RMK     1CU020 A2963=,
20180110_103000.001,0,RJCC,,,,0,20180110100000,-1,-1,-1,-1,200,-1,7,-1,-1,-1,-1,,9999,0,0,1,FEW 20,-1,4,-1,12,1003,RJCC 101030Z 20007KT 9999 FEW020 M04/M12 Q1003 RMK 1CU020     A2964=,
20180110_110000.002,0,RJCC,,,,0,20180110110000,-1,-1,-1,-1,220,-1,8,-1,-1,-1,-1,,9999,0,0,1,FEW 20,-1,4,-1,12,1004,RJCC 101100Z 22008KT 9999 FEW020 M04/M12 Q1004 RMK 1CU020     A2965=,
20180110_113000.001,0,RJCC,,,,0,20180110110000,-1,-1,-1,-1,220,-1,3,-1,-1,180,250,,9999,0,0,1,FEW 20,-1,4,-1,13,1004,RJCC 101130Z 22003KT 180V250 9999 FEW020 M04/M13 Q1004 RMK     1CU020 A2966=,
20180110_120000.002,0,RJCC,,,,0,20180110120000,-1,-1,-1,-1,0,-1,0,-1,-1,-1,-1,,9999,0,0,1,FEW 20,-1,3,-1,13,1004,RJCC 101200Z 00000KT 9999 FEW020 M03/M13 Q1004 RMK 1CU020     A2966=,
20180110_123000.001,0,RJCC,,,,0,20180110120000,-1,-1,-1,-1,150,-1,4,-1,-1,-1,-1,,9999,0,0,1,FEW 20,-1,6,-1,12,1004,RJCC 101230Z 15004KT 9999 FEW020 M06/M12 Q1004 RMK 1CU020     A2967=,
20180110_130000.002,0,RJCC,,,,0,20180110130000,-1,-1,-1,-1,130,-1,3,-1,-1,80,160,,9999,0,0,1,FEW 20,-1,7,-1,12,1004,RJCC 101300Z 13003KT 080V160 9999 FEW020 M07/M12 Q1004 RMK     1CU020 A2967=,
20180110_133000.001,0,RJCC,,,,0,20180110130000,-1,-1,-1,-1,140,-1,5,-1,-1,-1,-1,,9999,0,0,1,FEW 20,-1,5,-1,13,1005,RJCC 101330Z 14005KT 9999 FEW020 M05/M13 Q1005 RMK 1CU020     A2968=,
20180110_140000.002,0,RJCC,,,,0,20180110140000,-1,-1,-1,-1,190,-1,3,-1,-1,-1,-1,,9999,0,0,1,FEW 20,-1,5,-1,13,1004,RJCC 101400Z 19003KT 9999 FEW020 M05/M13 Q1004 RMK 1CU020     A2967=,
20180110_143000.001,0,RJCC,,,,0,20180110140000,-1,-1,-1,-1,130,-1,3,-1,-1,-1,-1,,9999,0,0,1,FEW 20,-1,7,-1,11,1004,RJCC 101430Z 13003KT 9999 FEW020 M07/M11 Q1004 RMK 1CU020     A2967=,
20180110_150000.002,0,RJCC,,,,0,20180110150000,-1,-1,-1,-1,150,-1,5,-1,-1,-1,-1,,9999,0,0,1,FEW 20,-1,5,-1,12,1004,RJCC 101500Z 15005KT 9999 FEW020 M05/M12 Q1004 RMK 1CU020     A2967=,
20180110_153000.001,0,RJCC,,,,0,20180110150000,-1,-1,-1,-1,160,-1,3,-1,-1,120,190,,9999,0,0,1,FEW 20,-1,7,-1,12,1004,RJCC 101530Z 16003KT 120V190 9999 FEW020 M07/M12 Q1004 RMK     1CU020 A2967=,
20180110_160000.002,0,RJCC,,,,0,20180110160000,-1,-1,-1,-1,190,-1,6,-1,-1,-1,-1,,9999,0,0,1,FEW 20,-1,7,-1,12,1005,RJCC 101600Z 19006KT 9999 FEW020 M07/M12 Q1005 RMK 1CU020     A2968=,
20180110_163000.001,0,RJCC,,,,0,20180110160000,-1,-1,-1,-1,170,-1,7,-1,-1,-1,-1,,9999,0,0,1,FEW 20,-1,7,-1,12,1005,RJCC 101630Z 17007KT 9999 FEW020 M07/M12 Q1005 RMK 1CU020     A2969=,
20180110_170000.002,0,RJCC,,,,0,20180110170000,-1,-1,-1,-1,170,-1,7,-1,-1,-1,-1,,9999,0,0,1,FEW 20,-1,7,-1,12,1005,RJCC 101700Z 17007KT 9999 FEW020 M07/M12 Q1005 RMK 1CU020     A2969=,
20180110_173000.001,0,RJCC,,,,0,20180110170000,-1,-1,-1,-1,180,-1,5,-1,-1,-1,-1,,9999,0,0,1,FEW 20,-1,7,-1,12,1005,RJCC 101730Z 18005KT 9999 FEW020 M07/M12 Q1005 RMK 1CU020     A2969=,
20180110_180000.002,0,RJCC,,,,0,20180110180000,-1,-1,-1,-1,180,-1,6,-1,-1,-1,-1,,9999,0,0,1,FEW 20,-1,6,-1,12,1005,RJCC 101800Z 18006KT 9999 FEW020 M06/M12 Q1005 RMK 1CU020     A2970=,
20180110_183000.001,0,RJCC,,,,0,20180110180000,-1,-1,-1,-1,170,-1,6,-1,-1,-1,-1,,9999,0,0,1,FEW 20,-1,7,-1,12,1005,RJCC 101830Z 17006KT 9999 FEW020 M07/M12 Q1005 RMK 1CU020     A2969=,
20180110_190000.002,0,RJCC,,,,0,20180110190000,-1,-1,-1,-1,190,-1,3,-1,-1,170,230,,9999,0,0,1,FEW 20,-1,9,-1,13,1005,RJCC 101900Z 19003KT 170V230 9999 FEW020 M09/M13 Q1005 RMK     1CU020 A2969=,
20180110_193000.001,0,RJCC,,,,0,20180110190000,-1,-1,-1,-1,160,-1,5,-1,-1,-1,-1,,9999,0,0,1,FEW 20,-1,8,-1,12,1005,RJCC 101930Z 16005KT 9999 FEW020 M08/M12 Q1005 RMK 1CU020     A2970=,
20180110_200000.002,0,RJCC,,,,0,20180110200000,-1,-1,-1,-1,180,-1,9,-1,-1,-1,-1,,9999,0,0,1,FEW 20,-1,7,-1,12,1005,RJCC 102000Z 18009KT 9999 FEW020 M07/M12 Q1005 RMK 1CU020     A2970=,
20180110_203000.001,0,RJCC,,,,0,20180110200000,-1,-1,-1,-1,190,-1,6,-1,-1,-1,-1,,9999,0,0,1,FEW 20,-1,9,-1,12,1005,RJCC 102030Z 19006KT 9999 FEW020 M09/M12 Q1005 RMK 1CU020     A2970=,
20180110_210000.002,0,RJCC,,,,0,20180110210000,-1,-1,-1,-1,170,-1,6,-1,-1,-1,-1,,9999,0,0,1,FEW 20,-1,9,-1,12,1006,RJCC 102100Z 17006KT 9999 FEW020 M09/M12 Q1006 RMK 1CU020     A2971=,
20180110_213000.001,0,RJCC,,,,0,20180110210000,-1,-1,-1,-1,170,-1,5,-1,-1,-1,-1,,9999,0,0,1,FEW 20,-1,9,-1,13,1006,RJCC 102130Z 17005KT 9999 FEW020 M09/M13 Q1006 RMK 1CU020     A2973=,
20180110_220000.002,0,RJCC,,,,0,20180110220000,-1,-1,-1,-1,160,-1,3,-1,-1,-1,-1,,9999,0,0,1,FEW 30,-1,9,-1,12,1007,RJCC 102200Z 16003KT 9999 FEW030 M09/M12 Q1007 RMK 1CU030     A2974=,
20180110_223000.002,0,RJCC,,,,0,20180110220000,-1,-1,-1,-1,140,-1,3,-1,-1,-1,-1,,9999,0,0,1,FEW 20,-1,9,-1,11,1007,RJCC 102230Z 14003KT 9999 FEW020 M09/M11 Q1007 RMK 1CU020     A2975=,
20180110_230000.003,0,RJCC,,,,0,20180110230000,-1,-1,-1,-1,10,-1,3,-1,-1,-1,-1,,9999,0,0,1,FEW 20,-1,9,-1,12,1007,RJCC 102300Z 01003KT 9999 FEW020 M09/M12 Q1007 RMK 1CU020     A2976=,
20180110_233000.001,0,RJCC,,,,0,20180110230000,-1,-1,-1,-1,130,-1,3,-1,-1,90,170,,9999,0,0,1,FEW 25,-1,8,-1,12,1008,RJCC 102330Z 13003KT 090V170 9999 FEW025 M08/M12 Q1008 RMK     1CU025 A2977=,
20180111_000000.002,0,RJCC,,,,0,20180111000000,-1,-1,-1,-1,90,-1,3,-1,-1,-1,-1,,9999,0,0,1,FEW 25,-1,6,-1,11,1008,RJCC 110000Z 09003KT 9999 FEW025 M06/M11 Q1008 RMK 1CU025     A2977=,
20180111_003000.001,0,RJCC,,,,0,20180111000000,-1,-1,-1,-1,999,-1,2,-1,-1,-1,-1,,9999,0,0,1,FEW 25,-1,3,-1,12,1008,RJCC 110030Z VRB02KT 9999 FEW025 M03/M12 Q1008 RMK 1CU025     A2977=,
20180111_010000.002,0,RJCC,,,,0,20180111010000,-1,-1,-1,-1,999,-1,1,-1,-1,-1,-1,,9999,0,0,1,FEW 25,-1,3,-1,10,1007,RJCC 110100Z VRB01KT 9999 FEW025 M03/M10 Q1007 RMK 1CU025     A2976=,
20180111_013000.001,0,RJCC,,,,0,20180111010000,-1,-1,-1,-1,110,-1,3,-1,-1,30,200,,9999,0,0,2,FEW 25   BKN 45,-1,2,-1,11,1007,RJCC 110130Z 11003KT 030V200 9999 FEW025 BKN045 M02/M11 Q1007     RMK 1CU025 5CU045 A2976=,
20180111_020000.002,0,RJCC,,,,0,20180111020000,-1,-1,-1,-1,170,-1,4,-1,-1,140,210,,9999,0,1,2,FEW 20   BKN 40,-1,1,-1,10,1007,RJCC 110200Z 17004KT 140V210 9999 VCSH FEW020 BKN040 M01/M10     Q1007 RMK 1CU020 5CU040 A2974 SH SW-W=,VC SH
20180111_023000.001,0,RJCC,,,,0,20180111020000,-1,-1,-1,-1,280,-1,8,-1,-1,-1,-1,,9999,0,1,2,FEW 20   BKN 35,-1,2,-1,8,1007,RJCC 110230Z 28008KT 9999 -SHSN FEW020 BKN035 M02/M08 Q1007     RMK 1CU020 7CU035 A2974 5000SW=,- SN SH
20180111_030000.001,0,RJCC,,,,0,20180111030000,-1,-1,-1,-1,999,-1,2,-1,-1,-1,-1,,3000,2,1,3,FEW 8   SCT 15   BKN 25,-1,3,-1,6,1007,RJCC 110300Z VRB02KT 3000 R19R/1900U R19L/P2000N -SHSN FEW008     SCT015 BKN025 M03/M06 Q1007 RMK 1ST008 3ST015 5CU025           A2974 9999N=,- SN SH
20180111_033000.001,0,RJCC,,,,0,20180111030000,-1,-1,-1,-1,150,-1,3,-1,-1,-1,-1,,9999,0,1,3,FEW 15   SCT 60   BKN 90,-1,3,-1,7,1006,RJCC 110330Z 15003KT 9999 -SHSN FEW015 SCT060 BKN090 M03/M07     Q1006 RMK 1ST015 3CU060 6AC090 A2973=,- SN SH
20180111_040000.002,0,RJCC,,,,0,20180111040000,-1,-1,-1,-1,999,-1,1,-1,-1,-1,-1,,9999,0,1,3,FEW 15   SCT 40   BKN 80,-1,3,-1,7,1006,RJCC 110400Z VRB01KT 9999 -SHSN FEW015 SCT040 BKN080 M03/M07     Q1006 RMK 1ST015 3CU040 6AC080 A2973=,- SN SH
20180111_043000.001,0,RJCC,,,,0,20180111040000,-1,-1,-1,-1,150,-1,4,-1,-1,110,170,,2300,2,1,3,FEW 8   SCT 10   BKN 30,-1,3,-1,5,1006,RJCC 110430Z 15004KT 110V170 2300 R19R/0900VP2000D     R19L/0900VP2000D -SHSN FEW008 SCT010 BKN030 M03/M05 Q1006           RMK 1ST008 3ST010 6CU030 A2973=,- SN SH
20180111_050000.002,0,RJCC,,,,0,20180111050000,-1,-1,-1,-1,140,-1,6,-1,-1,-1,-1,,9999,0,1,2,FEW 5   SCT 60,-1,3,-1,5,1007,RJCC 110500Z 14006KT 9999 VCSH FEW005 SCT060 M03/M05 Q1007 RMK     1ST005 3CU060 A2974 SH E=,VC SH
20180111_053000.000,0,RJCC,,,,0,20180111050000,-1,-1,-1,-1,130,-1,7,-1,-1,-1,-1,,9999,0,1,2,FEW 10   SCT 35,-1,3,-1,5,1007,RJCC 110530Z 13007KT 9999 -SHSN FEW010 SCT035 M03/M05 Q1007     RMK 1ST010 3CU035 A2975 4000SW=,- SN SH
20180111_060000.002,0,RJCC,,,,0,20180111060000,-1,-1,-1,-1,120,-1,6,-1,-1,-1,-1,,9999,0,1,2,FEW 15   SCT 40,-1,3,-1,6,1007,RJCC 110600Z 12006KT 9999 -SHSN FEW015 SCT040 M03/M06 Q1007     RMK 1ST015 3CU040 A2975=,- SN SH
20180111_063000.001,0,RJCC,,,,0,20180111060000,-1,-1,-1,-1,120,-1,6,-1,-1,-1,-1,,9999,0,0,2,FEW 15   BKN 110,-1,3,-1,6,1007,RJCC 110630Z 12006KT 9999 FEW015 BKN110 M03/M06 Q1007 RMK     1ST015 6AC110 A2976=,
20180111_070000.002,0,RJCC,,,,0,20180111070000,-1,-1,-1,-1,140,-1,6,-1,-1,-1,-1,,9999,0,0,2,FEW 15   BKN 100,-1,3,-1,7,1007,RJCC 110700Z 14006KT 9999 FEW015 BKN100 M03/M07 Q1007 RMK     1ST015 6AC100 A2976=,
20180111_073000.001,0,RJCC,,,,0,20180111070000,-1,-1,-1,-1,130,-1,7,-1,-1,-1,-1,,9999,0,0,2,FEW 20   BKN 100,-1,3,-1,7,1007,RJCC 110730Z 13007KT 9999 FEW020 BKN100 M03/M07 Q1007 RMK     1CU020 7AC100 A2976=,
20180111_080000.002,0,RJCC,,,,0,20180111080000,-1,-1,-1,-1,150,-1,7,-1,-1,130,190,,9999,0,0,2,FEW 20   BKN 70,-1,3,-1,7,1008,RJCC 110800Z 15007KT 130V190 9999 FEW020 BKN070 M03/M07 Q1008     RMK 1CU020 7AC070 A2977=,
20180111_083000.001,0,RJCC,,,,0,20180111080000,-1,-1,-1,-1,190,-1,8,-1,-1,-1,-1,,9999,0,0,3,FEW 20   SCT 40   BKN 80,-1,2,-1,9,1008,RJCC 110830Z 19008KT 9999 FEW020 SCT040 BKN080 M02/M09 Q1008     RMK 1CU020 3CU040 6AC080 A2978=,
20180111_090000.002,0,RJCC,,,,0,20180111090000,-1,-1,-1,-1,120,-1,4,-1,-1,-1,-1,,9999,0,0,3,FEW 20   SCT 40   BKN 60,-1,2,-1,8,1008,RJCC 110900Z 12004KT 9999 FEW020 SCT040 BKN060 M02/M08 Q1008     RMK 1CU020 3CU040 7CU060 A2978=,
20180111_093000.001,0,RJCC,,,,0,20180111090000,-1,-1,-1,-1,140,-1,6,-1,-1,-1,-1,,9999,0,0,2,FEW 20   BKN 60,-1,2,-1,9,1008,RJCC 110930Z 14006KT 9999 FEW020 BKN060 M02/M09 Q1008 RMK     1CU020 7CU060 A2978=,
20180111_100000.002,0,RJCC,,,,0,20180111100000,-1,-1,-1,-1,170,-1,10,-1,-1,-1,-1,,9999,0,0,3,FEW 15   BKN 40   BKN 70,-1,2,-1,5,1008,RJCC 111000Z 17010KT 9999 FEW015 BKN040 BKN070 M02/M05 Q1008     RMK 1ST015 5CU040 7AC070 A2979=,
20180111_103000.001,0,RJCC,,,,0,20180111100000,-1,-1,-1,-1,160,-1,6,-1,-1,-1,-1,,9999,0,1,2,FEW 15   BKN 70,-1,3,-1,5,1008,RJCC 111030Z 16006KT 9999 -SHSN FEW015 BKN070 M03/M05 Q1008     RMK 1ST015 7AC070 A2979=,- SN SH
20180111_110000.002,0,RJCC,,,,0,20180111110000,-1,-1,-1,-1,110,-1,4,-1,-1,-1,-1,,9999,0,1,2,FEW 15   BKN 70,-1,2,-1,5,1008,RJCC 111100Z 11004KT 9999 -SHSN FEW015 BKN070 M02/M05 Q1008     RMK 1ST015 7AC070 A2979=,- SN SH
20180111_113000.001,0,RJCC,,,,0,20180111110000,-1,-1,-1,-1,110,-1,7,-1,-1,-1,-1,,9999,0,1,3,FEW 10   SCT 45   BKN 100,-1,3,-1,5,1008,RJCC 111130Z 11007KT 9999 -SHSN FEW010 SCT045 BKN100 M03/M05     Q1008 RMK 1ST010 3CU045 7AC100 A2979=,- SN SH
20180111_120000.002,0,RJCC,,,,0,20180111120000,-1,-1,-1,-1,120,-1,6,-1,-1,-1,-1,,6000,0,1,3,FEW 10   SCT 20   BKN 35,-1,3,-1,4,1008,RJCC 111200Z 12006KT 6000 -SHSN FEW010 SCT020 BKN035 M03/M04     Q1008 RMK 1ST010 3CU020 6CU035 A2979=,- SN SH
20180111_123000.001,0,RJCC,,,,0,20180111120000,-1,-1,-1,-1,100,-1,5,-1,-1,-1,-1,,9999,0,1,3,FEW 10   SCT 25   BKN 40,-1,3,-1,4,1008,RJCC 111230Z 10005KT 9999 -SHSN FEW010 SCT025 BKN040 M03/M04     Q1008 RMK 1ST010 3CU025 6CU040 A2979=,- SN SH
20180111_130000.002,0,RJCC,,,,0,20180111130000,-1,-1,-1,-1,110,-1,6,-1,-1,-1,-1,,9999,0,1,3,FEW 10   SCT 20   BKN 45,-1,3,-1,4,1008,RJCC 111300Z 11006KT 9999 -SHSN FEW010 SCT020 BKN045 M03/M04     Q1008 RMK 1ST010 3CU020 7CU045 A2978=,- SN SH
20180111_133000.001,0,RJCC,,,,0,20180111130000,-1,-1,-1,-1,110,-1,7,-1,-1,-1,-1,,5000,0,1,3,FEW 8   SCT 20   BKN 30,-1,3,-1,4,1008,RJCC 111330Z 11007KT 5000 -SHSN FEW008 SCT020 BKN030 M03/M04     Q1008 RMK 1ST008 3CU020 5CU030 A2979=,- SN SH
20180111_140000.002,0,RJCC,,,,0,20180111140000,-1,-1,-1,-1,100,-1,8,-1,-1,-1,-1,,1200,2,1,3,FEW 6   SCT 8   BKN 10,-1,3,-1,4,1008,RJCC 111400Z 10008KT 1200 R19R/2000N R19L/P2000N -SHSN FEW006     SCT008 BKN010 M03/M04 Q1008 RMK 1ST006 4ST008 6ST010           A2979=,- SN SH
20180111_143000.001,0,RJCC,,,,0,20180111140000,-1,-1,-1,-1,90,-1,7,-1,-1,-1,-1,,6000,0,1,3,FEW 8   SCT 10   BKN 35,-1,3,-1,4,1008,RJCC 111430Z 09007KT 6000 -SHSN FEW008 SCT010 BKN035 M03/M04     Q1008 RMK 1ST008 4ST010 6CU035 A2977=,- SN SH
20180111_150000.002,0,RJCC,,,,0,20180111150000,-1,-1,-1,-1,90,-1,8,-1,-1,-1,-1,,7000,0,1,3,FEW 10   SCT 25   BKN 35,-1,3,-1,4,1008,RJCC 111500Z 09008KT 7000 -SHSN FEW010 SCT025 BKN035 M03/M04     Q1008 RMK 1ST010 3CU025 7CU035 A2977=,- SN SH
20180111_153000.001,0,RJCC,,,,0,20180111150000,-1,-1,-1,-1,100,-1,7,-1,-1,-1,-1,,9999,0,1,2,FEW 10   BKN 35,-1,3,-1,4,1007,RJCC 111530Z 10007KT 9999 -SHSN FEW010 BKN035 M03/M04 Q1007     RMK 1ST010 7CU035 A2975=,- SN SH
20180111_160000.002,0,RJCC,,,,0,20180111160000,-1,-1,-1,-1,100,-1,7,-1,-1,70,160,,5000,0,1,3,FEW 10   SCT 20   BKN 35,-1,2,-1,4,1007,RJCC 111600Z 10007KT 070V160 5000 -SHSN FEW010 SCT020 BKN035     M02/M04 Q1007 RMK 1ST010 4CU020 7CU035 A2976=,- SN SH
20180111_163000.001,0,RJCC,,,,0,20180111160000,-1,-1,-1,-1,80,-1,8,-1,-1,-1,-1,,1000,2,1,3,FEW 5   BKN 7   BKN 10,-1,3,-1,3,1007,RJCC 111630Z 08008KT 1000 R19R/1200V1800U R19L/2000N -SHSN     FEW005 BKN007 BKN010 M03/M03 Q1007 RMK 1ST005 5ST007           7ST010 A2974=,- SN SH
20180111_170000.002,0,RJCC,,,,0,20180111170000,-1,-1,-1,-1,70,-1,10,-1,-1,-1,-1,,800,2,1,3,FEW 2   BKN 3   BKN 5,-1,3,-1,3,1006,RJCC 111700Z 07010KT 0800 R19R/0800V1100N R19L/1300N SHSN     FEW002 BKN003 BKN005 M03/M03 Q1006 RMK 1ST002 5ST003           7ST005 A2972=,SN SH
20180111_173000.001,0,RJCC,,,,0,20180111170000,-1,-1,-1,-1,50,-1,10,-1,-1,-1,-1,,800,2,1,3,FEW 2   SCT 3   BKN 5,-1,3,-1,3,1006,RJCC 111730Z 05010KT 0800 R19R/1400V1900U R19L/1900U SHSN     FEW002 SCT003 BKN005 M03/M03 Q1006 RMK 1ST002 3ST003           6ST005 A2972=,SN SH
20180111_180000.002,0,RJCC,,,,0,20180111180000,-1,-1,-1,-1,40,-1,11,-1,-1,-1,-1,,1500,2,1,3,FEW 3   SCT 12   BKN 15,-1,3,-1,3,1006,RJCC 111800Z 04011KT 1500 R01L/P2000N R01R/P2000N -SHSN FEW003     SCT012 BKN015 M03/M03 Q1006 RMK 1ST003 4ST012 5ST015           A2972=,- SN SH
20180111_183000.001,0,RJCC,,,,0,20180111180000,-1,-1,-1,-1,340,-1,17,-1,-1,-1,-1,,1400,2,1,3,FEW 3   SCT 4   BKN 6,-1,4,-1,5,1006,RJCC 111830Z 34017KT 1400 R01L/P2000N R01R/P2000N -SHSN FEW003     SCT004 BKN006 M04/M05 Q1006 RMK 1ST003 4ST004 6ST006           A2973=,- SN SH
20180111_190000.002,0,RJCC,,,,0,20180111190000,-1,-1,-1,-1,340,-1,16,-1,-1,-1,-1,,1800,0,1,3,FEW 3   SCT 6   BKN 12,-1,5,-1,5,1007,RJCC 111900Z 34016KT 1800 -SHSN FEW003 SCT006 BKN012 M05/M05     Q1007 RMK 1ST003 3ST006 5ST012 A2974=,- SN SH
20180111_193000.001,0,RJCC,,,,0,20180111190000,-1,-1,-1,-1,340,-1,16,-1,-1,-1,-1,,1200,2,1,3,FEW 4   SCT 6   BKN 8,-1,5,-1,5,1007,RJCC 111930Z 34016KT 1200 R19R/P2000N R19L/P2000N -SHSN FEW004     SCT006 BKN008 M05/M05 Q1007 RMK 1ST004 3ST006 5ST008           A2976=,- SN SH
20180111_200000.002,0,RJCC,,,,0,20180111200000,-1,-1,-1,-1,340,-1,15,-1,-1,-1,-1,,2000,0,1,3,FEW 4   SCT 10   BKN 12,-1,5,-1,6,1008,RJCC 112000Z 34015KT 2000 -SHSN FEW004 SCT010 BKN012 M05/M06     Q1008 RMK 1ST004 4ST010 5ST012 A2977=,- SN SH
20180111_203000.001,0,RJCC,,,,0,20180111200000,-1,-1,-1,-1,330,-1,14,-1,-1,-1,-1,,4000,0,1,3,FEW 10   SCT 25   BKN 40,-1,5,-1,6,1009,RJCC 112030Z 33014KT 4000 -SHSN FEW010 SCT025 BKN040 M05/M06     Q1009 RMK 1ST010 3CU025 6CU040 A2980=,- SN SH
20180111_210000.002,0,RJCC,,,,0,20180111210000,-1,-1,-1,-1,330,-1,13,-1,-1,-1,-1,,8000,0,1,3,FEW 15   SCT 25   BKN 40,-1,6,-1,7,1009,RJCC 112100Z 33013KT 8000 -SHSN FEW015 SCT025 BKN040 M06/M07     Q1009 RMK 1ST015 3CU025 5CU040 A2982=,- SN SH
20180111_213000.001,0,RJCC,,,,0,20180111210000,-1,-1,-1,-1,330,-1,16,-1,-1,-1,-1,,9999,0,1,3,FEW 15   SCT 25   BKN 110,-1,6,-1,9,1010,RJCC 112130Z 33016KT 9999 -SHSN FEW015 SCT025 BKN110 M06/M09     Q1010 RMK 1ST015 3CU025 6AC110 A2984=,- SN SH
20180111_220000.002,0,RJCC,,,,0,20180111220000,-1,-1,-1,-1,320,-1,13,-1,-1,-1,-1,,9999,0,0,2,FEW 15   BKN 120,-1,6,-1,9,1011,RJCC 112200Z 32013KT 9999 FEW015 BKN120 M06/M09 Q1011 RMK     1ST015 6AC120 A2986=,
20180111_223000.002,0,RJCC,,,,0,20180111220000,-1,-1,-1,-1,330,-1,14,-1,-1,-1,-1,,9999,0,0,2,FEW 20   BKN 120,-1,6,-1,9,1011,RJCC 112230Z 33014KT 9999 FEW020 BKN120 M06/M09 Q1011 RMK     1CU020 7AC120 A2987=,
20180111_230000.002,0,RJCC,,,,0,20180111230000,-1,-1,-1,-1,340,-1,11,-1,-1,-1,-1,,9999,0,0,2,FEW 25   BKN 120,-1,6,-1,9,1012,RJCC 112300Z 34011KT 9999 FEW025 BKN120 M06/M09 Q1012 RMK     1CU025 7AC120 A2990=,
20180111_233000.001,0,RJCC,,,,0,20180111230000,-1,-1,-1,-1,340,-1,11,-1,-1,-1,-1,,9999,0,0,3,FEW 20   SCT 120   BKN -9999,-1,6,-1,10,1012,RJCC 112330Z 34011KT 9999 FEW020 SCT120 BKN/// M06/M10 Q1012     RMK 1CU020 3AC120 A2991=,
20180112_000000.002,0,RJCC,,,,0,20180112000000,-1,-1,-1,-1,340,-1,13,-1,-1,-1,-1,,9999,0,0,2,FEW 20   BKN -9999,-1,5,-1,9,1013,RJCC 120000Z 34013KT 9999 FEW020 BKN/// M05/M09 Q1013 RMK     1CU020 A2992=,
20180112_003000.001,0,RJCC,,,,0,20180112000000,-1,-1,-1,-1,340,-1,11,-1,-1,-1,-1,,9999,0,0,2,FEW 30   BKN -9999,-1,5,-1,9,1013,RJCC 120030Z 34011KT 9999 FEW030 BKN/// M05/M09 Q1013 RMK     1CU030 A2993=,
20180112_010000.003,0,RJCC,,,,0,20180112010000,-1,-1,-1,-1,330,-1,11,-1,-1,-1,-1,,9999,0,0,2,FEW 30   BKN -9999,-1,5,-1,9,1013,RJCC 120100Z 33011KT 9999 FEW030 BKN/// M05/M09 Q1013 RMK     1CU030 A2994=,
20180112_013000.001,0,RJCC,,,,0,20180112010000,-1,-1,-1,-1,320,-1,10,-1,-1,-1,-1,,9999,0,0,2,FEW 30   BKN -9999,-1,5,-1,9,1013,RJCC 120130Z 32010KT 9999 FEW030 BKN/// M05/M09 Q1013 RMK     1CU030 A2994=,
20180112_020000.002,0,RJCC,,,,0,20180112020000,-1,-1,-1,-1,320,-1,12,-1,-1,-1,-1,,9999,0,0,2,FEW 30   SCT -9999,-1,4,-1,9,1014,RJCC 120200Z 32012KT 9999 FEW030 SCT/// M04/M09 Q1014 RMK     1CU030 A2994=,
20180112_023000.001,0,RJCC,,,,0,20180112020000,-1,-1,-1,-1,340,-1,10,-1,-1,-1,-1,,9999,0,0,2,FEW 30   SCT -9999,-1,3,-1,9,1013,RJCC 120230Z 34010KT 9999 FEW030 SCT/// M03/M09 Q1013 RMK     1CU030 A2993=,
20180112_030000.002,0,RJCC,,,,0,20180112030000,-1,-1,-1,-1,330,-1,10,-1,-1,-1,-1,,9999,0,0,1,FEW 30,-1,3,-1,9,1013,RJCC 120300Z 33010KT 9999 FEW030 M03/M09 Q1013 RMK 1CU030     A2992=,
20180112_033000.001,0,RJCC,,,,0,20180112030000,-1,-1,-1,-1,340,-1,10,-1,-1,-1,-1,,9999,0,0,1,FEW 30,-1,3,-1,9,1013,RJCC 120330Z 34010KT 9999 FEW030 M03/M09 Q1013 RMK 1CU030     A2993=,
20180112_040000.002,0,RJCC,,,,0,20180112040000,-1,-1,-1,-1,340,-1,10,-1,-1,-1,-1,,9999,0,0,1,FEW 30,-1,3,-1,9,1013,RJCC 120400Z 34010KT 9999 FEW030 M03/M09 Q1013 RMK 1CU030     A2993=,
20180112_043000.001,0,RJCC,,,,0,20180112040000,-1,-1,-1,-1,330,-1,10,-1,-1,-1,-1,,9999,0,0,1,FEW 30,-1,2,-1,10,1013,RJCC 120430Z 33010KT 9999 FEW030 M02/M10 Q1013 RMK 1CU030     A2994=,
20180112_050000.003,0,RJCC,,,,0,20180112050000,-1,-1,-1,-1,350,-1,9,-1,-1,-1,-1,,9999,0,0,1,FEW 30,-1,2,-1,10,1014,RJCC 120500Z 35009KT 9999 FEW030 M02/M10 Q1014 RMK 1CU030     A2995=,
20180112_053000.001,0,RJCC,,,,0,20180112050000,-1,-1,-1,-1,340,-1,9,-1,-1,-1,-1,,9999,0,0,2,FEW 30   SCT -9999,-1,3,-1,11,1014,RJCC 120530Z 34009KT 9999 FEW030 SCT/// M03/M11 Q1014 RMK     1CU030 A2996=,
20180112_060000.002,0,RJCC,,,,0,20180112060000,-1,-1,-1,-1,350,-1,7,-1,-1,-1,-1,,9999,0,0,2,FEW 30   BKN -9999,-1,4,-1,11,1014,RJCC 120600Z 35007KT 9999 FEW030 BKN/// M04/M11 Q1014 RMK     1CU030 A2996=,
20180112_063000.001,0,RJCC,,,,0,20180112060000,-1,-1,-1,-1,340,-1,6,-1,-1,-1,-1,,9999,0,0,3,FEW 25   SCT 100   BKN -9999,-1,3,-1,10,1015,RJCC 120630Z 34006KT 9999 FEW025 SCT100 BKN/// M03/M10 Q1015     RMK 1CU025 4AC100 A2997=,
20180112_070000.003,0,RJCC,,,,0,20180112070000,-1,-1,-1,-1,350,-1,6,-1,-1,-1,-1,,9999,0,0,3,FEW 25   SCT 90   BKN -9999,-1,5,-1,11,1015,RJCC 120700Z 35006KT 9999 FEW025 SCT090 BKN/// M05/M11 Q1015     RMK 1CU025 4AC090 A2998=,
20180112_073000.001,0,RJCC,,,,0,20180112070000,-1,-1,-1,-1,350,-1,6,-1,-1,-1,-1,,9999,0,0,2,FEW 20   BKN 90,-1,6,-1,11,1015,RJCC 120730Z 35006KT 9999 FEW020 BKN090 M06/M11 Q1015 RMK     1CU020 5AC090 A2999=,
20180112_080000.002,0,RJCC,,,,0,20180112080000,-1,-1,-1,-1,350,-1,5,-1,-1,-1,-1,,9999,0,0,2,FEW 20   BKN 90,-1,5,-1,11,1015,RJCC 120800Z 35005KT 9999 FEW020 BKN090 M05/M11 Q1015 RMK     1CU020 5AC090 A3000=,
20180112_083000.001,0,RJCC,,,,0,20180112080000,-1,-1,-1,-1,330,-1,7,-1,-1,-1,-1,,9999,0,0,2,FEW 20   BKN 90,-1,5,-1,11,1016,RJCC 120830Z 33007KT 9999 FEW020 BKN090 M05/M11 Q1016 RMK     1CU020 5AC090 A3000=,
20180112_090000.002,0,RJCC,,,,0,20180112090000,-1,-1,-1,-1,330,-1,8,-1,-1,-1,-1,,9999,0,0,2,FEW 20   BKN 80,-1,5,-1,11,1016,RJCC 120900Z 33008KT 9999 FEW020 BKN080 M05/M11 Q1016 RMK     1CU020 6AC080 A3001=,
20180112_093000.001,0,RJCC,,,,0,20180112090000,-1,-1,-1,-1,350,-1,9,-1,-1,-1,-1,,9999,0,0,2,FEW 20   BKN 80,-1,6,-1,11,1016,RJCC 120930Z 35009KT 9999 FEW020 BKN080 M06/M11 Q1016 RMK     1CU020 6AC080 A3001=,
20180112_100000.002,0,RJCC,,,,0,20180112100000,-1,-1,-1,-1,350,-1,5,-1,-1,-1,-1,,9999,0,1,2,FEW 20   BKN 80,-1,6,-1,11,1016,RJCC 121000Z 35005KT 9999 VCSH FEW020 BKN080 M06/M11 Q1016 RMK     1CU020 7AC080 A3002 SH NW=,VC SH
20180112_103000.001,0,RJCC,,,,0,20180112100000,-1,-1,-1,-1,360,-1,7,-1,-1,-1,-1,,9999,0,1,2,FEW 20   BKN 80,-1,7,-1,11,1017,RJCC 121030Z 36007KT 9999 VCSH FEW020 BKN080 M07/M11 Q1017 RMK     1CU020 7AC080 A3003 SH NW=,VC SH
20180112_110000.002,0,RJCC,,,,0,20180112110000,-1,-1,-1,-1,360,-1,7,-1,-1,-1,-1,,9999,0,0,2,FEW 20   BKN 80,-1,7,-1,10,1017,RJCC 121100Z 36007KT 9999 FEW020 BKN080 M07/M10 Q1017 RMK     1CU020 6AC080 A3004=,
20180112_113000.001,0,RJCC,,,,0,20180112110000,-1,-1,-1,-1,360,-1,7,-1,-1,-1,-1,,9999,0,0,2,FEW 20   BKN 90,-1,7,-1,9,1017,RJCC 121130Z 36007KT 9999 FEW020 BKN090 M07/M09 Q1017 RMK     1CU020 6AC090 A3005=,
20180112_120000.002,0,RJCC,,,,0,20180112120000,-1,-1,-1,-1,340,-1,6,-1,-1,-1,-1,,9999,0,0,2,FEW 20   BKN 90,-1,7,-1,9,1018,RJCC 121200Z 34006KT 9999 FEW020 BKN090 M07/M09 Q1018 RMK     1CU020 6AC090 A3006=,
20180112_123000.001,0,RJCC,,,,0,20180112120000,-1,-1,-1,-1,350,-1,7,-1,-1,-1,-1,,9999,0,0,2,FEW 20   BKN 90,-1,7,-1,8,1018,RJCC 121230Z 35007KT 9999 FEW020 BKN090 M07/M08 Q1018 RMK     1CU020 6AC090 A3008=,
20180112_130000.002,0,RJCC,,,,0,20180112130000,-1,-1,-1,-1,350,-1,6,-1,-1,-1,-1,,9999,0,0,2,FEW 20   BKN 70,-1,6,-1,7,1018,RJCC 121300Z 35006KT 9999 FEW020 BKN070 M06/M07 Q1018 RMK     1CU020 7AC070 A3009=,
20180112_133000.001,0,RJCC,,,,0,20180112130000,-1,-1,-1,-1,310,-1,6,-1,-1,-1,-1,,9999,0,1,3,FEW 20   SCT 50   BKN 70,-1,6,-1,7,1018,RJCC 121330Z 31006KT 9999 -SHSN FEW020 SCT050 BKN070 M06/M07     Q1018 RMK 1CU020 3CU050 7AC070 A3009=,- SN SH
20180112_140000.002,0,RJCC,,,,0,20180112140000,-1,-1,-1,-1,340,-1,5,-1,-1,-1,-1,,9999,0,1,3,FEW 15   SCT 50   BKN 80,-1,7,-1,8,1018,RJCC 121400Z 34005KT 9999 -SHSN FEW015 SCT050 BKN080 M07/M08     Q1018 RMK 1ST015 3CU050 7AC080 A3009 4000NW=,- SN SH
20180112_143000.001,0,RJCC,,,,0,20180112140000,-1,-1,-1,-1,330,-1,7,-1,-1,-1,-1,,9999,0,1,2,FEW 15   BKN 30,-1,7,-1,7,1018,RJCC 121430Z 33007KT 9999 -SHSN FEW015 BKN030 M07/M07 Q1018     RMK 1ST015 5CU030 A3008=,- SN SH
20180112_150000.002,0,RJCC,,,,0,20180112150000,-1,-1,-1,-1,350,-1,5,-1,-1,-1,-1,,9999,0,0,2,FEW 15   SCT 80,-1,9,-1,10,1019,RJCC 121500Z 35005KT 9999 FEW015 SCT080 M09/M10 Q1019 RMK     1ST015 3AC080 A3009=,
20180112_153000.001,0,RJCC,,,,0,20180112150000,-1,-1,-1,-1,330,-1,3,-1,-1,-1,-1,,9999,0,0,1,FEW 15,-1,9,-1,11,1019,RJCC 121530Z 33003KT 9999 FEW015 M09/M11 Q1019 RMK 1ST015     A3009=,
20180112_160000.002,0,RJCC,,,,0,20180112160000,-1,-1,-1,-1,350,-1,2,-1,-1,-1,-1,,9999,0,1,2,FEW 15   SCT 60,-1,9,-1,10,1019,RJCC 121600Z 35002KT 9999 PRFG FEW015 SCT060 M09/M10 Q1019 RMK     1ST015 3CU060 A3010 FG W=,PR FG
20180112_163000.001,0,RJCC,,,,0,20180112160000,-1,-1,-1,-1,330,-1,2,-1,-1,-1,-1,,9999,0,1,2,FEW 10   BKN 70,-1,10,-1,10,1019,RJCC 121630Z 33002KT 9999 BCFG FEW010 BKN070 M10/M10 Q1019 RMK     1ST010 6AC070 A3010=,BC FG
20180112_170000.002,0,RJCC,,,,0,20180112170000,-1,-1,-1,-1,0,-1,0,-1,-1,-1,-1,,9999,0,1,2,FEW 5   BKN 70,-1,11,-1,12,1019,RJCC 121700Z 00000KT 9999 BCFG FEW005 BKN070 M11/M12 Q1019 RMK     1ST005 5AC070 A3011=,BC FG
20180112_173000.001,0,RJCC,,,,0,20180112170000,-1,-1,-1,-1,120,-1,1,-1,-1,-1,-1,,9999,0,0,2,FEW 5   SCT 70,-1,11,-1,11,1019,RJCC 121730Z 12001KT 9999 FEW005 SCT070 M11/M11 Q1019 RMK     1ST005 3AC070 A3011=,
20180112_180000.002,0,RJCC,,,,0,20180112180000,-1,-1,-1,-1,340,-1,2,-1,-1,-1,-1,,9999,0,0,2,FEW 5   SCT 40,-1,12,-1,13,1019,RJCC 121800Z 34002KT 9999 FEW005 SCT040 M12/M13 Q1019 RMK     1ST005 3CU040 A3011=,
20180112_183000.001,0,RJCC,,,,0,20180112180000,-1,-1,-1,-1,10,-1,1,-1,-1,-1,-1,,9999,0,0,1,FEW 10,-1,13,-1,14,1019,RJCC 121830Z 01001KT 9999 FEW010 M13/M14 Q1019 RMK 1ST010     A3010=,
20180112_190000.002,0,RJCC,,,,0,20180112190000,-1,-1,-1,-1,330,-1,3,-1,-1,-1,-1,,9999,0,0,1,FEW 10,-1,12,-1,13,1019,RJCC 121900Z 33003KT 9999 FEW010 M12/M13 Q1019 RMK 1ST010     A3011=,
20180112_193000.001,0,RJCC,,,,0,20180112190000,-1,-1,-1,-1,999,-1,2,-1,-1,-1,-1,,9999,0,0,1,FEW 5,-1,13,-1,14,1019,RJCC 121930Z VRB02KT 9999 FEW005 M13/M14 Q1019 RMK 1ST005     A3012=,
20180112_200000.003,0,RJCC,,,,0,20180112200000,-1,-1,-1,-1,350,-1,4,-1,-1,-1,-1,,9999,2,0,1,FEW 5,-1,13,-1,13,1019,RJCC 122000Z 35004KT 9999 R19R/P2000N R01R/P2000N FEW005     M13/M13 Q1019 RMK 1ST005 A3011=,
20180112_203000.001,0,RJCC,,,,0,20180112200000,-1,-1,-1,-1,330,-1,4,-1,-1,-1,-1,,9999,2,1,1,FEW 3,-1,13,-1,14,1019,RJCC 122030Z 33004KT 9999 R19R/P2000N R01R/P2000N BCFG FEW003     M13/M14 Q1019 RMK 1ST003 A3011=,BC FG
20180112_210000.002,0,RJCC,,,,0,20180112210000,-1,-1,-1,-1,999,-1,1,-1,-1,-1,-1,,9999,0,1,1,FEW 3,-1,15,-1,16,1020,RJCC 122100Z VRB01KT 9999 BCFG FEW003 M15/M16 Q1020 RMK 1ST003     A3012=,BC FG
20180112_213000.001,0,RJCC,,,,0,20180112210000,-1,-1,-1,-1,320,-1,3,-1,-1,-1,-1,,9999,0,1,1,FEW 5,-1,14,-1,15,1020,RJCC 122130Z 32003KT 9999 PRFG FEW005 M14/M15 Q1020 RMK 1ST005     A3013 FG NE-E=,PR FG
20180112_220000.002,0,RJCC,,,,0,20180112220000,-1,-1,-1,-1,360,-1,3,-1,-1,-1,-1,,9999,0,1,1,FEW 5,-1,16,-1,18,1020,RJCC 122200Z 36003KT 9999 PRFG FEW005 M16/M18 Q1020 RMK 1ST005     A3013 FG E=,PR FG
20180112_223000.002,0,RJCC,,,,0,20180112220000,-1,-1,-1,-1,50,-1,3,-1,-1,20,100,,9999,0,1,1,FEW 5,-1,16,-1,18,1020,RJCC 122230Z 05003KT 020V100 9999 PRFG FEW005 M16/M18 Q1020     RMK 1ST005 A3013 FG E=,PR FG
20180112_230000.002,0,RJCC,,,,0,20180112230000,-1,-1,-1,-1,999,-1,2,-1,-1,-1,-1,,8000,0,0,2,FEW 5   SCT 70,-1,14,-1,15,1020,RJCC 122300Z VRB02KT 8000 FEW005 SCT070 M14/M15 Q1020 RMK     1ST005 3AC070 A3014=,
20180112_233000.001,0,RJCC,,,,0,20180112230000,-1,-1,-1,-1,999,-1,1,-1,-1,-1,-1,,9999,0,0,2,FEW 5   SCT 70,-1,13,-1,14,1020,RJCC 122330Z VRB01KT 9999 FEW005 SCT070 M13/M14 Q1020 RMK     1ST005 3AC070 A3014=,
20180113_000000.002,0,RJCC,,,,0,20180113000000,-1,-1,-1,-1,999,-1,1,-1,-1,-1,-1,,9999,0,0,1,FEW 5,-1,12,-1,13,1020,RJCC 130000Z VRB01KT 9999 FEW005 M12/M13 Q1020 RMK 1ST005     A3015=,
20180113_003000.001,0,RJCC,,,,0,20180113000000,-1,-1,-1,-1,20,-1,3,-1,-1,-1,-1,,9999,0,0,1,FEW 30,-1,10,-1,11,1020,RJCC 130030Z 02003KT 9999 FEW030 M10/M11 Q1020 RMK 1CU030     A3014=,
20180113_010000.003,0,RJCC,,,,0,20180113010000,-1,-1,-1,-1,999,-1,2,-1,-1,-1,-1,,9999,0,0,1,FEW 30,-1,7,-1,10,1020,RJCC 130100Z VRB02KT 9999 FEW030 M07/M10 Q1020 RMK 1CU030     A3014=,
20180113_013000.001,0,RJCC,,,,0,20180113010000,-1,-1,-1,-1,999,-1,2,-1,-1,-1,-1,,9999,0,0,1,FEW 30,-1,5,-1,9,1020,RJCC 130130Z VRB02KT 9999 FEW030 M05/M09 Q1020 RMK 1CU030     A3013=,
20180113_020000.002,0,RJCC,,,,0,20180113020000,-1,-1,-1,-1,999,-1,1,-1,-1,-1,-1,,9999,0,0,1,FEW 30,-1,5,-1,9,1020,RJCC 130200Z VRB01KT 9999 FEW030 M05/M09 Q1020 RMK 1CU030     A3012=,
20180113_023000.001,0,RJCC,,,,0,20180113020000,-1,-1,-1,-1,350,-1,1,-1,-1,-1,-1,,9999,0,0,1,FEW 30,-1,3,-1,8,1019,RJCC 130230Z 35001KT 9999 FEW030 M03/M08 Q1019 RMK 1CU030     A3011=,
20180113_030000.002,0,RJCC,,,,0,20180113030000,-1,-1,-1,-1,999,-1,1,-1,-1,-1,-1,,9999,0,0,1,FEW 30,-1,2,-1,9,1019,RJCC 130300Z VRB01KT 9999 FEW030 M02/M09 Q1019 RMK 1CU030     A3010=,
20180113_033000.001,0,RJCC,,,,0,20180113030000,-1,-1,-1,-1,999,-1,1,-1,-1,-1,-1,,9999,0,0,1,FEW 30,-1,2,-1,10,1019,RJCC 130330Z VRB01KT 9999 FEW030 M02/M10 Q1019 RMK 1CU030     A3009=,
20180113_040000.002,0,RJCC,,,,0,20180113040000,-1,-1,-1,-1,999,-1,1,-1,-1,-1,-1,,9999,0,0,1,FEW 30,-1,2,-1,10,1018,RJCC 130400Z VRB01KT 9999 FEW030 M02/M10 Q1018 RMK 1CU030     A3008=,
20180113_043000.001,0,RJCC,,,,0,20180113040000,-1,-1,-1,-1,999,-1,1,-1,-1,-1,-1,,9999,0,0,1,FEW 20,-1,1,-1,10,1018,RJCC 130430Z VRB01KT 9999 FEW020 M01/M10 Q1018 RMK 1ST020     A3009=,
20180113_050000.002,0,RJCC,,,,0,20180113050000,-1,-1,-1,-1,999,-1,1,-1,-1,-1,-1,,9999,0,0,1,FEW 20,-1,1,-1,11,1018,RJCC 130500Z VRB01KT 9999 FEW020 M01/M11 Q1018 RMK 1CU020     A3008=,
20180113_053000.001,0,RJCC,,,,0,20180113050000,-1,-1,-1,-1,60,-1,2,-1,-1,-1,-1,,9999,0,0,1,FEW 30,-1,1,-1,11,1019,RJCC 130530Z 06002KT 9999 FEW030 M01/M11 Q1019 RMK 1CU030     A3009=,
20180113_060000.002,0,RJCC,,,,0,20180113060000,-1,-1,-1,-1,130,-1,3,-1,-1,-1,-1,,9999,0,0,1,FEW 30,-1,1,-1,10,1019,RJCC 130600Z 13003KT 9999 FEW030 M01/M10 Q1019 RMK 1CU030     A3010=,
20180113_063000.001,0,RJCC,,,,0,20180113060000,-1,-1,-1,-1,999,-1,4,-1,-1,-1,-1,,9999,0,0,1,FEW 30,-1,3,-1,11,1019,RJCC 130630Z VRB04KT 9999 FEW030 M03/M11 Q1019 RMK 1CU030     A3011=,
20180113_070000.002,0,RJCC,,,,0,20180113070000,-1,-1,-1,-1,320,-1,7,-1,-1,-1,-1,,9999,0,0,1,FEW 30,-1,5,-1,9,1020,RJCC 130700Z 32007KT 9999 FEW030 M05/M09 Q1020 RMK 1CU030     A3012=,
20180113_073000.001,0,RJCC,,,,0,20180113070000,-1,-1,-1,-1,340,-1,8,-1,-1,-1,-1,,9999,0,0,1,FEW 30,-1,5,-1,9,1020,RJCC 130730Z 34008KT 9999 FEW030 M05/M09 Q1020 RMK 1CU030     A3013=,
20180113_080000.002,0,RJCC,,,,0,20180113080000,-1,-1,-1,-1,350,-1,4,-1,-1,-1,-1,,9999,0,0,1,FEW 30,-1,7,-1,10,1020,RJCC 130800Z 35004KT 9999 FEW030 M07/M10 Q1020 RMK 1CU030     A3014=,
20180113_083000.001,0,RJCC,,,,0,20180113080000,-1,-1,-1,-1,360,-1,7,-1,-1,-1,-1,,9999,0,0,1,FEW 30,-1,7,-1,10,1021,RJCC 130830Z 36007KT 9999 FEW030 M07/M10 Q1021 RMK 1CU030     A3015=,
20180113_090000.002,0,RJCC,,,,0,20180113090000,-1,-1,-1,-1,350,-1,4,-1,-1,-1,-1,,9999,0,1,2,FEW 15   SCT 35,-1,9,-1,10,1021,RJCC 130900Z 35004KT 9999 -SHSN FEW015 SCT035 M09/M10 Q1021     RMK 1ST015 3CU035 A3016=,- SN SH
20180113_093000.001,0,RJCC,,,,0,20180113090000,-1,-1,-1,-1,340,-1,3,-1,-1,-1,-1,,9999,0,1,1,FEW 15,-1,7,-1,8,1021,RJCC 130930Z 34003KT 9999 VCSH FEW015 M07/M08 Q1021 RMK 1ST015     A3017 SH NW=,VC SH
20180113_100000.002,0,RJCC,,,,0,20180113100000,-1,-1,-1,-1,350,-1,7,-1,-1,-1,-1,,9999,0,1,1,FEW 10,-1,7,-1,8,1021,RJCC 131000Z 35007KT 9999 -SHSN FEW010 M07/M08 Q1021 RMK     1ST010 A3018 5000NW=,- SN SH
20180113_103000.001,0,RJCC,,,,0,20180113100000,-1,-1,-1,-1,340,-1,4,-1,-1,-1,-1,,4000,0,1,2,FEW 10   BKN 15,-1,8,-1,9,1022,RJCC 131030Z 34004KT 4000 -SHSN FEW010 BKN015 M08/M09 Q1022     RMK 1ST010 5ST015 A3018 8000E=,- SN SH
20180113_110000.002,0,RJCC,,,,0,20180113110000,-1,-1,-1,-1,30,-1,5,-1,-1,-1,-1,,9999,0,1,1,FEW 10,-1,6,-1,6,1022,RJCC 131100Z 03005KT 9999 -SHSN FEW010 M06/M06 Q1022 RMK     1ST010 A3018=,- SN SH
20180113_113000.001,0,RJCC,,,,0,20180113110000,-1,-1,-1,-1,350,-1,4,-1,-1,-1,-1,,9999,0,0,1,FEW 10,-1,8,-1,8,1022,RJCC 131130Z 35004KT 9999 FEW010 M08/M08 Q1022 RMK 1ST010     A3018=,
20180113_120000.002,0,RJCC,,,,0,20180113120000,-1,-1,-1,-1,360,-1,4,-1,-1,-1,-1,,9999,0,1,1,FEW 10,-1,8,-1,8,1022,RJCC 131200Z 36004KT 9999 PRFG FEW010 M08/M08 Q1022 RMK 1ST010     A3019 FG SW-W=,PR FG
20180113_123000.001,0,RJCC,,,,0,20180113120000,-1,-1,-1,-1,340,-1,3,-1,-1,310,10,,9999,0,1,1,FEW 5,-1,9,-1,10,1022,RJCC 131230Z 34003KT 310V010 9999 PRFG FEW005 M09/M10 Q1022     RMK 1ST005 A3019 4500SW-W FG SW-W=,PR FG
20180113_130000.002,0,RJCC,,,,0,20180113130000,-1,-1,-1,-1,310,-1,5,-1,-1,-1,-1,,900,2,1,2,FEW 1   SCT 2,-1,10,-1,10,1022,RJCC 131300Z 31005KT 0900 R01L/P2000N R01R/P2000N FZFG FEW001     SCT002 M10/M10 Q1022 RMK 1ST001 3ST002 A3020 9999E=,FZ FG
20180113_133000.001,0,RJCC,,,,0,20180113130000,-1,-1,-1,-1,330,-1,5,-1,-1,-1,-1,,900,2,1,2,FEW 1   SCT 2,-1,9,-1,10,1022,RJCC 131330Z 33005KT 0900 R01L/1100VP2000N R01R/0400V1900U     FZFG FEW001 SCT002 M09/M10 Q1022 RMK 1ST001 3ST002 A3021           2000E=,FZ FG
20180113_140000.003,0,RJCC,,,,0,20180113140000,-1,-1,-1,-1,340,-1,4,-1,-1,-1,-1,,900,2,1,2,FEW 1   BKN 3,-1,10,-1,11,1022,RJCC 131400Z 34004KT 0900 R19R/0400V0550N R19L/0350N FZFG     FEW001 BKN003 M10/M11 Q1022 RMK 1ST001 5ST003 A3021=,FZ FG
20180113_143000.001,0,RJCC,,,,0,20180113140000,-1,-1,-1,-1,320,-1,2,-1,-1,-1,-1,,900,2,1,3,FEW 1   SCT 3   BKN 70,-1,9,-1,10,1023,RJCC 131430Z 32002KT 0900 R01L/2000N R01R/0550V1000N FZFG     FEW001 SCT003 BKN070 M09/M10 Q1023 RMK 2ST001 4ST003           6AC070 A3021 2000E=,FZ FG
20180113_150000.002,0,RJCC,,,,0,20180113150000,-1,-1,-1,-1,320,-1,3,-1,-1,-1,-1,,8000,0,0,2,FEW 3   BKN 70,-1,9,-1,9,1023,RJCC 131500Z 32003KT 8000 FEW003 BKN070 M09/M09 Q1023 RMK     1ST003 7AC070 A3022=,
20180113_153000.001,0,RJCC,,,,0,20180113150000,-1,-1,-1,-1,999,-1,1,-1,-1,-1,-1,,9999,0,0,3,FEW 3   SCT 50   BKN 70,-1,9,-1,9,1023,RJCC 131530Z VRB01KT 9999 FEW003 SCT050 BKN070 M09/M09 Q1023     RMK 2ST003 3CU050 6AC070 A3021=,
20180113_160000.002,0,RJCC,,,,0,20180113160000,-1,-1,-1,-1,0,-1,0,-1,-1,-1,-1,,9999,0,0,3,FEW 5   SCT 60   BKN 70,-1,9,-1,9,1023,RJCC 131600Z 00000KT 9999 FEW005 SCT060 BKN070 M09/M09 Q1023     RMK 1ST005 3CU060 5AC070 A3022=,
20180113_163000.001,0,RJCC,,,,0,20180113160000,-1,-1,-1,-1,320,-1,2,-1,-1,-1,-1,,9999,0,0,2,FEW 10   BKN 60,-1,10,-1,10,1023,RJCC 131630Z 32002KT 9999 FEW010 BKN060 M10/M10 Q1023 RMK     1ST010 7CU060 A3023=,
20180113_170000.002,0,RJCC,,,,0,20180113170000,-1,-1,-1,-1,340,-1,2,-1,-1,-1,-1,,9999,0,0,2,FEW 10   BKN 60,-1,10,-1,11,1023,RJCC 131700Z 34002KT 9999 FEW010 BKN060 M10/M11 Q1023 RMK     1ST010 5CU060 A3023=,
20180113_173000.001,0,RJCC,,,,0,20180113170000,-1,-1,-1,-1,330,-1,3,-1,-1,-1,-1,,9999,0,0,2,FEW 10   SCT 60,-1,11,-1,11,1024,RJCC 131730Z 33003KT 9999 FEW010 SCT060 M11/M11 Q1024 RMK     1ST010 3CU060 A3024=,
20180113_180000.002,0,RJCC,,,,0,20180113180000,-1,-1,-1,-1,320,-1,2,-1,-1,-1,-1,,9999,0,0,1,FEW 10,-1,12,-1,13,1024,RJCC 131800Z 32002KT 9999 FEW010 M12/M13 Q1024 RMK 1ST010     A3024=,
20180113_183000.001,0,RJCC,,,,0,20180113180000,-1,-1,-1,-1,999,-1,1,-1,-1,-1,-1,,9999,0,0,1,FEW 10,-1,13,-1,14,1024,RJCC 131830Z VRB01KT 9999 FEW010 M13/M14 Q1024 RMK 1ST010     A3024=,
20180113_190000.003,0,RJCC,,,,0,20180113190000,-1,-1,-1,-1,999,-1,1,-1,-1,-1,-1,,9999,0,0,1,FEW 10,-1,14,-1,15,1024,RJCC 131900Z VRB01KT 9999 FEW010 M14/M15 Q1024 RMK 1ST010     A3025=,
20180113_193000.001,0,RJCC,,,,0,20180113190000,-1,-1,-1,-1,0,-1,0,-1,-1,-1,-1,,9999,0,0,1,FEW 10,-1,14,-1,15,1024,RJCC 131930Z 00000KT 9999 FEW010 M14/M15 Q1024 RMK 1ST010     A3025=,
20180113_200000.003,0,RJCC,,,,0,20180113200000,-1,-1,-1,-1,999,-1,1,-1,-1,-1,-1,,9999,0,0,1,FEW 10,-1,14,-1,16,1024,RJCC 132000Z VRB01KT 9999 FEW010 M14/M16 Q1024 RMK 1ST010     A3026=,
20180113_203000.001,0,RJCC,,,,0,20180113200000,-1,-1,-1,-1,0,-1,0,-1,-1,-1,-1,,9999,0,0,2,FEW 10   BKN 60,-1,15,-1,16,1025,RJCC 132030Z 00000KT 9999 FEW010 BKN060 M15/M16 Q1025 RMK     1ST010 5CU060 A3027=,
20180113_210000.002,0,RJCC,,,,0,20180113210000,-1,-1,-1,-1,999,-1,2,-1,-1,-1,-1,,9999,0,0,2,FEW 10   BKN 50,-1,15,-1,17,1025,RJCC 132100Z VRB02KT 9999 FEW010 BKN050 M15/M17 Q1025 RMK     1ST010 5CU050 A3028=,
20180113_213000.001,0,RJCC,,,,0,20180113210000,-1,-1,-1,-1,330,-1,4,-1,-1,-1,-1,,9999,0,1,2,FEW 10   BKN 40,-1,14,-1,15,1026,RJCC 132130Z 33004KT 9999 PRFG FEW010 BKN040 M14/M15 Q1026 RMK     1ST010 6CU040 A3030 FG NE-E=,PR FG
20180113_220000.002,0,RJCC,,,,0,20180113220000,-1,-1,-1,-1,350,-1,6,-1,-1,-1,-1,,9999,0,1,1,FEW 10,-1,13,-1,15,1026,RJCC 132200Z 35006KT 9999 PRFG FEW010 M13/M15 Q1026 RMK 1ST010     A3031 FG NE-E=,PR FG
20180113_223000.002,0,RJCC,,,,0,20180113220000,-1,-1,-1,-1,340,-1,3,-1,-1,-1,-1,,9999,0,1,2,FEW 10   SCT 50,-1,13,-1,14,1026,RJCC 132230Z 34003KT 9999 PRFG FEW010 SCT050 M13/M14 Q1026 RMK     1ST010 3CU050 A3032 FG NE-E=,PR FG
20180113_230000.002,0,RJCC,,,,0,20180113230000,-1,-1,-1,-1,30,-1,3,-1,-1,-1,-1,,9999,0,1,2,FEW 10   SCT 40,-1,13,-1,14,1027,RJCC 132300Z 03003KT 9999 PRFG FEW010 SCT040 M13/M14 Q1027 RMK     1ST010 3CU040 A3033 FG NE-E=,PR FG
20180113_233000.001,0,RJCC,,,,0,20180113230000,-1,-1,-1,-1,360,-1,3,-1,-1,-1,-1,,9999,2,1,2,FEW 10   SCT 45,-1,12,-1,13,1027,RJCC 132330Z 36003KT 9999 R01L/P2000N R01R/P2000N PRFG FEW010     SCT045 M12/M13 Q1027 RMK 1ST010 3CU045 A3034 FG E=,PR FG
20180114_000000.003,0,RJCC,,,,0,20180114000000,-1,-1,-1,-1,360,-1,4,-1,-1,-1,-1,,9999,0,0,2,FEW 10   SCT 40,-1,10,-1,10,1027,RJCC 140000Z 36004KT 9999 FEW010 SCT040 M10/M10 Q1027 RMK     1ST010 3CU040 A3035=,
20180114_003000.001,0,RJCC,,,,0,20180114000000,-1,-1,-1,-1,340,-1,7,-1,-1,-1,-1,,9999,0,1,2,FEW 10   BKN 40,-1,8,-1,9,1028,RJCC 140030Z 34007KT 9999 -SHSN FEW010 BKN040 M08/M09 Q1028     RMK 1ST010 5CU040 A3036=,- SN SH
20180114_010000.002,0,RJCC,,,,0,20180114010000,-1,-1,-1,-1,320,-1,4,-1,-1,-1,-1,,9999,0,1,2,FEW 10   BKN 40,-1,7,-1,8,1028,RJCC 140100Z 32004KT 9999 -SHSN FEW010 BKN040 M07/M08 Q1028     RMK 1ST010 7CU040 A3036=,- SN SH
20180114_013000.001,0,RJCC,,,,0,20180114010000,-1,-1,-1,-1,360,-1,4,-1,-1,-1,-1,,9999,0,1,2,FEW 15   BKN 40,-1,6,-1,8,1027,RJCC 140130Z 36004KT 9999 -SHSN FEW015 BKN040 M06/M08 Q1027     RMK 1ST015 7CU040 A3035=,- SN SH
20180114_020000.002,0,RJCC,,,,0,20180114020000,-1,-1,-1,-1,330,-1,4,-1,-1,-1,-1,,9999,0,0,2,FEW 15   BKN 40,-1,5,-1,8,1027,RJCC 140200Z 33004KT 9999 FEW015 BKN040 M05/M08 Q1027 RMK     1ST015 7CU040 A3035=,
20180114_023000.001,0,RJCC,,,,0,20180114020000,-1,-1,-1,-1,300,-1,3,-1,-1,260,340,,9999,0,0,2,FEW 15   SCT 40,-1,5,-1,8,1027,RJCC 140230Z 30003KT 260V340 9999 FEW015 SCT040 M05/M08 Q1027     RMK 1ST015 3CU040 A3034=,
20180114_030000.002,0,RJCC,,,,0,20180114030000,-1,-1,-1,-1,999,-1,1,-1,-1,-1,-1,,9999,0,0,1,FEW 20,-1,4,-1,8,1027,RJCC 140300Z VRB01KT 9999 FEW020 M04/M08 Q1027 RMK 1CU020     A3033=,
20180114_033000.001,0,RJCC,,,,0,20180114030000,-1,-1,-1,-1,10,-1,2,-1,-1,-1,-1,,9999,0,0,1,FEW 20,-1,2,-1,8,1026,RJCC 140330Z 01002KT 9999 FEW020 M02/M08 Q1026 RMK 1CU020     A3031=,
20180114_040000.002,0,RJCC,,,,0,20180114040000,-1,-1,-1,-1,20,-1,3,-1,-1,350,60,,9999,0,0,1,FEW 20,-1,1,-1,9,1026,RJCC 140400Z 02003KT 350V060 9999 FEW020 M01/M09 Q1026 RMK     1CU020 A3031=,
20180114_043000.001,0,RJCC,,,,0,20180114040000,-1,-1,-1,-1,40,-1,4,-1,-1,350,70,,9999,0,0,2,FEW 20   SCT 40,-1,1,-1,9,1026,RJCC 140430Z 04004KT 350V070 9999 FEW020 SCT040 M01/M09 Q1026     RMK 1CU020 4CU040 A3031=,
20180114_050000.002,0,RJCC,,,,0,20180114050000,-1,-1,-1,-1,30,-1,3,-1,-1,-1,-1,,9999,0,0,2,FEW 20   SCT 40,-1,1,-1,8,1026,RJCC 140500Z 03003KT 9999 FEW020 SCT040 M01/M08 Q1026 RMK     1CU020 3CU040 A3032=,
20180114_053000.001,0,RJCC,,,,0,20180114050000,-1,-1,-1,-1,999,-1,1,-1,-1,-1,-1,,9999,0,0,2,FEW 20   BKN 40,-1,2,-1,8,1027,RJCC 140530Z VRB01KT 9999 FEW020 BKN040 M02/M08 Q1027 RMK     1CU020 5CU040 A3033=,
20180114_060000.003,0,RJCC,,,,0,20180114060000,-1,-1,-1,-1,999,-1,2,-1,-1,-1,-1,,9999,0,0,2,FEW 20   BKN 40,-1,1,-1,8,1027,RJCC 140600Z VRB02KT 9999 FEW020 BKN040 M01/M08 Q1027 RMK     1CU020 7CU040 A3033=,
20180114_063000.001,0,RJCC,,,,0,20180114060000,-1,-1,-1,-1,999,-1,2,-1,-1,-1,-1,,9999,0,0,2,FEW 20   BKN 40,-1,2,-1,9,1027,RJCC 140630Z VRB02KT 9999 FEW020 BKN040 M02/M09 Q1027 RMK     1CU020 5CU040 A3033=,
20180114_070000.002,0,RJCC,,,,0,20180114070000,-1,-1,-1,-1,999,-1,2,-1,-1,-1,-1,,9999,0,0,2,FEW 20   BKN 40,-1,2,-1,8,1027,RJCC 140700Z VRB02KT 9999 FEW020 BKN040 M02/M08 Q1027 RMK     1CU020 6CU040 A3033=,
20180114_073000.001,0,RJCC,,,,0,20180114070000,-1,-1,-1,-1,100,-1,2,-1,-1,-1,-1,,9999,0,0,2,FEW 20   BKN 40,-1,3,-1,8,1027,RJCC 140730Z 10002KT 9999 FEW020 BKN040 M03/M08 Q1027 RMK     1CU020 7CU040 A3033=,
20180114_080000.002,0,RJCC,,,,0,20180114080000,-1,-1,-1,-1,90,-1,4,-1,-1,60,120,,9999,0,0,2,FEW 20   BKN 40,-1,2,-1,8,1026,RJCC 140800Z 09004KT 060V120 9999 FEW020 BKN040 M02/M08 Q1026     RMK 1CU020 7CU040 A3032=,
20180114_083000.001,0,RJCC,,,,0,20180114080000,-1,-1,-1,-1,0,-1,0,-1,-1,-1,-1,,9999,0,0,2,FEW 20   BKN 40,-1,3,-1,8,1026,RJCC 140830Z 00000KT 9999 FEW020 BKN040 M03/M08 Q1026 RMK     1CU020 7CU040 A3032=,
20180114_090000.002,0,RJCC,,,,0,20180114090000,-1,-1,-1,-1,140,-1,3,-1,-1,-1,-1,,9999,0,0,2,FEW 20   SCT 40,-1,4,-1,10,1027,RJCC 140900Z 14003KT 9999 FEW020 SCT040 M04/M10 Q1027 RMK     1CU020 3CU040 A3033=,
20180114_093000.001,0,RJCC,,,,0,20180114090000,-1,-1,-1,-1,140,-1,3,-1,-1,-1,-1,,9999,0,0,1,FEW 20,-1,5,-1,8,1026,RJCC 140930Z 14003KT 9999 FEW020 M05/M08 Q1026 RMK 1CU020     A3032=,
20180114_100000.002,0,RJCC,,,,0,20180114100000,-1,-1,-1,-1,210,-1,3,-1,-1,170,230,,9999,0,0,1,FEW 20,-1,6,-1,10,1026,RJCC 141000Z 21003KT 170V230 9999 FEW020 M06/M10 Q1026 RMK     1CU020 A3032=,
20180114_103000.001,0,RJCC,,,,0,20180114100000,-1,-1,-1,-1,120,-1,2,-1,-1,-1,-1,,9999,0,0,1,FEW 20,-1,8,-1,10,1026,RJCC 141030Z 12002KT 9999 FEW020 M08/M10 Q1026 RMK 1CU020     A3032=,
20180114_110000.002,0,RJCC,,,,0,20180114110000,-1,-1,-1,-1,140,-1,1,-1,-1,-1,-1,,9999,0,0,1,FEW 30,-1,8,-1,9,1026,RJCC 141100Z 14001KT 9999 FEW030 M08/M09 Q1026 RMK 1CU030     A3032=,
20180114_113000.001,0,RJCC,,,,0,20180114110000,-1,-1,-1,-1,999,-1,2,-1,-1,-1,-1,,9999,0,0,2,FEW 30   SCT 40,-1,8,-1,10,1026,RJCC 141130Z VRB02KT 9999 FEW030 SCT040 M08/M10 Q1026 RMK     1CU030 4CU040 A3031=,
20180114_120000.002,0,RJCC,,,,0,20180114120000,-1,-1,-1,-1,120,-1,2,-1,-1,-1,-1,,9999,0,0,2,FEW 30   SCT 40,-1,8,-1,10,1026,RJCC 141200Z 12002KT 9999 FEW030 SCT040 M08/M10 Q1026 RMK     1CU030 4CU040 A3031=,
20180114_123000.001,0,RJCC,,,,0,20180114120000,-1,-1,-1,-1,140,-1,5,-1,-1,110,220,,9999,0,0,1,FEW 30,-1,8,-1,9,1026,RJCC 141230Z 14005KT 110V220 9999 FEW030 M08/M09 Q1026 RMK     1CU030 A3031=,
20180114_130000.003,0,RJCC,,,,0,20180114130000,-1,-1,-1,-1,999,-1,1,-1,-1,-1,-1,,9999,0,0,1,FEW 30,-1,7,-1,8,1026,RJCC 141300Z VRB01KT 9999 FEW030 M07/M08 Q1026 RMK 1CU030     A3030=,
20180114_133000.001,0,RJCC,,,,0,20180114130000,-1,-1,-1,-1,160,-1,2,-1,-1,-1,-1,,9999,0,0,1,FEW 30,-1,10,-1,11,1026,RJCC 141330Z 16002KT 9999 FEW030 M10/M11 Q1026 RMK 1CU030     A3030=,
20180114_140000.002,0,RJCC,,,,0,20180114140000,-1,-1,-1,-1,999,-1,1,-1,-1,-1,-1,,9999,0,0,2,FEW 30   BKN 45,-1,10,-1,11,1025,RJCC 141400Z VRB01KT 9999 FEW030 BKN045 M10/M11 Q1025 RMK     1CU030 6CU045 A3029=,
20180114_143000.001,0,RJCC,,,,0,20180114140000,-1,-1,-1,-1,999,-1,2,-1,-1,-1,-1,,9999,0,0,2,FEW 30   BKN 45,-1,9,-1,10,1025,RJCC 141430Z VRB02KT 9999 FEW030 BKN045 M09/M10 Q1025 RMK     1CU030 5CU045 A3028=,
20180114_150000.002,0,RJCC,,,,0,20180114150000,-1,-1,-1,-1,120,-1,3,-1,-1,-1,-1,,9999,0,0,2,FEW 30   SCT 45,-1,8,-1,10,1024,RJCC 141500Z 12003KT 9999 FEW030 SCT045 M08/M10 Q1024 RMK     1CU030 4CU045 A3026=,
20180114_153000.001,0,RJCC,,,,0,20180114150000,-1,-1,-1,-1,999,-1,3,-1,-1,-1,-1,,9999,0,0,2,FEW 30   SCT 45,-1,8,-1,10,1024,RJCC 141530Z VRB03KT 9999 FEW030 SCT045 M08/M10 Q1024 RMK     1CU030 3CU045 A3025=,
20180114_160000.002,0,RJCC,,,,0,20180114160000,-1,-1,-1,-1,130,-1,3,-1,-1,80,200,,9999,0,0,2,FEW 30   SCT 45,-1,10,-1,12,1024,RJCC 141600Z 13003KT 080V200 9999 FEW030 SCT045 M10/M12 Q1024     RMK 1CU030 3CU045 A3024=,
20180114_163000.001,0,RJCC,,,,0,20180114160000,-1,-1,-1,-1,170,-1,4,-1,-1,110,210,,9999,0,0,2,FEW 30   SCT -9999,-1,10,-1,11,1024,RJCC 141630Z 17004KT 110V210 9999 FEW030 SCT/// M10/M11 Q1024     RMK 1CU030 A3024=,
20180114_170000.002,0,RJCC,,,,0,20180114170000,-1,-1,-1,-1,170,-1,4,-1,-1,-1,-1,,9999,0,0,2,FEW 30   BKN -9999,-1,10,-1,11,1023,RJCC 141700Z 17004KT 9999 FEW030 BKN/// M10/M11 Q1023 RMK     1CU030 A3023=,
20180114_173000.001,0,RJCC,,,,0,20180114170000,-1,-1,-1,-1,120,-1,3,-1,-1,-1,-1,,9999,0,0,2,FEW 30   BKN -9999,-1,8,-1,10,1023,RJCC 141730Z 12003KT 9999 FEW030 BKN/// M08/M10 Q1023 RMK     1CU030 A3022=,
20180114_180000.003,0,RJCC,,,,0,20180114180000,-1,-1,-1,-1,120,-1,3,-1,-1,70,150,,9999,0,0,2,FEW 30   BKN -9999,-1,9,-1,10,1023,RJCC 141800Z 12003KT 070V150 9999 FEW030 BKN/// M09/M10 Q1023     RMK 1CU030 A3021=,
20180114_183000.001,0,RJCC,,,,0,20180114180000,-1,-1,-1,-1,160,-1,6,-1,-1,-1,-1,,9999,0,0,2,FEW 20   BKN -9999,-1,7,-1,9,1022,RJCC 141830Z 16006KT 9999 FEW020 BKN/// M07/M09 Q1022 RMK     1CU020 A3020=,
20180114_190000.002,0,RJCC,,,,0,20180114190000,-1,-1,-1,-1,160,-1,5,-1,-1,-1,-1,,9999,0,0,2,FEW 20   BKN -9999,-1,8,-1,10,1022,RJCC 141900Z 16005KT 9999 FEW020 BKN/// M08/M10 Q1022 RMK     1CU020 A3018=,
20180114_193000.001,0,RJCC,,,,0,20180114190000,-1,-1,-1,-1,140,-1,5,-1,-1,-1,-1,,9999,0,0,2,FEW 30   BKN 180,-1,7,-1,9,1021,RJCC 141930Z 14005KT 9999 FEW030 BKN180 M07/M09 Q1021 RMK     1CU030 6AC180 A3017=,
20180114_200000.003,0,RJCC,,,,0,20180114200000,-1,-1,-1,-1,160,-1,3,-1,-1,120,190,,9999,0,0,2,FEW 30   BKN 180,-1,7,-1,9,1021,RJCC 142000Z 16003KT 120V190 9999 FEW030 BKN180 M07/M09 Q1021     RMK 1CU030 5AC180 A3016=,
20180114_203000.001,0,RJCC,,,,0,20180114200000,-1,-1,-1,-1,140,-1,5,-1,-1,-1,-1,,9999,0,0,2,FEW 30   BKN 50,-1,7,-1,9,1021,RJCC 142030Z 14005KT 9999 FEW030 BKN050 M07/M09 Q1021 RMK     1CU030 6CU050 A3015=,
20180114_210000.002,0,RJCC,,,,0,20180114210000,-1,-1,-1,-1,150,-1,7,-1,-1,-1,-1,,9999,0,0,2,FEW 20   BKN 50,-1,6,-1,8,1020,RJCC 142100Z 15007KT 9999 FEW020 BKN050 M06/M08 Q1020 RMK     1ST020 7SC050 A3013=,
20180114_213000.001,0,RJCC,,,,0,20180114210000,-1,-1,-1,-1,150,-1,9,-1,-1,-1,-1,,9999,0,0,3,FEW 20   BKN 50   BKN 170,-1,5,-1,8,1020,RJCC 142130Z 15009KT 9999 FEW020 BKN050 BKN170 M05/M08 Q1020     RMK 1ST020 5SC050 7AC170 A3012=,
20180114_220000.002,0,RJCC,,,,0,20180114220000,-1,-1,-1,-1,160,-1,9,-1,-1,-1,-1,,9999,0,0,2,FEW 50   BKN 160,-1,4,-1,7,1019,RJCC 142200Z 16009KT 9999 FEW050 BKN160 M04/M07 Q1019 RMK     2SC050 7AC160 A3010=,
20180114_223000.002,0,RJCC,,,,0,20180114220000,-1,-1,-1,-1,170,-1,13,-1,-1,-1,-1,,9999,0,0,2,FEW 30   BKN 150,-1,4,-1,7,1018,RJCC 142230Z 17013KT 9999 FEW030 BKN150 M04/M07 Q1018 RMK     1CU030 5AC150 A3008=,
20180114_230000.002,0,RJCC,,,,0,20180114230000,-1,-1,-1,-1,170,-1,10,-1,-1,-1,-1,,9999,0,0,2,FEW 30   BKN 150,-1,3,-1,6,1018,RJCC 142300Z 17010KT 9999 FEW030 BKN150 M03/M06 Q1018 RMK     1CU030 6AC150 A3007=,
20180114_233000.001,0,RJCC,,,,0,20180114230000,-1,-1,-1,-1,170,-1,11,-1,-1,-1,-1,,9999,0,0,2,FEW 20   BKN 160,-1,3,-1,6,1017,RJCC 142330Z 17011KT 9999 FEW020 BKN160 M03/M06 Q1017 RMK     1CU020 5AC160 A3005=,
20180115_000000.002,0,RJCC,,,,0,20180115000000,-1,-1,-1,-1,160,-1,12,-1,-1,-1,-1,,9999,0,1,3,FEW 20   SCT 50   BKN 170,-1,1,-1,4,1017,RJCC 150000Z 16012KT 9999 -SHSN FEW020 SCT050 BKN170 M01/M04     Q1017 RMK 1CU020 3CU050 6AC170 A3003=,- SN SH
20180115_003000.001,0,RJCC,,,,0,20180115000000,-1,-1,-1,-1,180,-1,15,-1,-1,-1,-1,,9999,0,1,3,FEW 15   SCT 25   BKN 45,1,2,-1,0,1016,RJCC 150030Z 18015KT 9999 -SHRASN FEW015 SCT025 BKN045 02/M00     Q1016 RMK 1ST015 3CU025 6CU045 A3002=,- RA SN SH
20180115_010000.002,0,RJCC,,,,0,20180115010000,-1,-1,-1,-1,170,-1,16,-1,-1,-1,-1,,9999,0,1,3,FEW 15   SCT 30   BKN 45,1,3,-1,0,1015,RJCC 150100Z 17016KT 9999 -SHRA FEW015 SCT030 BKN045 03/M00     Q1015 RMK 1ST015 3CU030 6CU045 A2999=,- RA SH
20180115_013000.001,0,RJCC,,,,0,20180115010000,-1,-1,-1,-1,160,-1,13,-1,-1,-1,-1,,9999,0,1,3,FEW 10   SCT 15   BKN 30,1,3,1,0,1015,RJCC 150130Z 16013KT 9999 -SHRA FEW010 SCT015 BKN030 03/00     Q1015 RMK 1ST010 3ST015 6CU030 A2997=,- RA SH
20180115_020000.002,0,RJCC,,,,0,20180115020000,-1,-1,-1,-1,160,-1,16,-1,-1,-1,-1,,7000,0,1,3,FEW 6   BKN 10   BKN 15,1,2,1,1,1013,RJCC 150200Z 16016KT 7000 -SHRA FEW006 BKN010 BKN015 02/01     Q1013 RMK 1ST006 5ST010 7ST015 A2994 P/FR=,- RA SH
20180115_023000.001,0,RJCC,,,,0,20180115020000,-1,-1,-1,-1,170,-1,14,-1,-1,-1,-1,,9999,0,1,3,FEW 6   BKN 10   BKN 15,1,3,1,1,1012,RJCC 150230Z 17014KT 9999 -SHRASN FEW006 BKN010 BKN015 03/01     Q1012 RMK 1ST006 5ST010 7ST015 A2990 P/FR=,- RA SN SH
20180115_030000.002,0,RJCC,,,,0,20180115030000,-1,-1,-1,-1,170,-1,17,-1,-1,-1,-1,,8000,0,1,3,FEW 6   BKN 15   BKN 20,1,3,1,1,1011,RJCC 150300Z 17017KT 8000 -SHRASN FEW006 BKN015 BKN020 03/01     Q1011 RMK 1ST006 6ST015 7CU020 A2987 P/FR=,- RA SN SH
20180115_033000.001,0,RJCC,,,,0,20180115030000,-1,-1,-1,-1,190,-1,14,-1,-1,-1,-1,,6000,0,1,3,FEW 6   BKN 15   BKN 20,1,3,1,1,1011,RJCC 150330Z 19014KT 6000 SHRASN FEW006 BKN015 BKN020 03/01     Q1011 RMK 1ST006 6ST015 7CU020 A2986=,RA SN SH
20180115_040000.002,0,RJCC,,,,0,20180115040000,-1,-1,-1,-1,200,-1,14,-1,-1,-1,-1,,5000,0,1,3,FEW 6   BKN 10   BKN 15,1,3,1,1,1010,RJCC 150400Z 20014KT 5000 SHRASN FEW006 BKN010 BKN015 03/01     Q1010 RMK 1ST006 6ST010 7ST015 A2985=,RA SN SH
20180115_043000.001,0,RJCC,,,,0,20180115040000,-1,-1,-1,-1,190,-1,14,-1,-1,-1,-1,,9999,0,1,3,FEW 8   BKN 15   BKN 25,1,3,1,2,1010,RJCC 150430Z 19014KT 9999 -SHRA FEW008 BKN015 BKN025 03/02     Q1010 RMK 1ST008 5ST015 7CU025 A2984=,- RA SH
20180115_050000.002,0,RJCC,,,,0,20180115050000,-1,-1,-1,-1,190,-1,11,-1,-1,-1,-1,,9999,0,0,3,FEW 8   SCT 12   BKN 100,1,3,1,2,1010,RJCC 150500Z 19011KT 9999 FEW008 SCT012 BKN100 03/02 Q1010 RMK     1ST008 3ST012 6AC100 A2982=,
20180115_053000.001,0,RJCC,,,,0,20180115050000,-1,-1,-1,-1,190,-1,12,-1,-1,-1,-1,,9999,0,0,2,FEW 8   SCT 15,1,4,1,2,1009,RJCC 150530Z 19012KT 9999 FEW008 SCT015 04/02 Q1009 RMK 1ST008     3ST015 A2982=,
20180115_060000.002,0,RJCC,,,,0,20180115060000,-1,-1,-1,-1,200,-1,10,-1,-1,-1,-1,,9999,0,0,2,FEW 8   SCT 50,1,3,1,1,1009,RJCC 150600Z 20010KT 9999 FEW008 SCT050 03/01 Q1009 RMK 1ST008     3CU050 A2982=,
20180115_063000.001,0,RJCC,,,,0,20180115060000,-1,-1,-1,-1,200,-1,8,-1,-1,-1,-1,,9999,0,0,2,FEW 10   SCT 50,1,3,1,1,1010,RJCC 150630Z 20008KT 9999 FEW010 SCT050 03/01 Q1010 RMK 1ST010     3CU050 A2983=,
20180115_070000.003,0,RJCC,,,,0,20180115070000,-1,-1,-1,-1,190,-1,9,-1,-1,-1,-1,,9999,0,0,2,FEW 10   SCT 60,1,3,1,1,1010,RJCC 150700Z 19009KT 9999 FEW010 SCT060 03/01 Q1010 RMK 1ST010     3CU060 A2983=,
20180115_073000.001,0,RJCC,,,,0,20180115070000,-1,-1,-1,-1,190,-1,10,-1,-1,-1,-1,,9999,0,0,2,FEW 10   SCT 60,1,3,1,1,1010,RJCC 150730Z 19010KT 9999 FEW010 SCT060 03/01 Q1010 RMK 1ST010     3CU060 A2983=,
20180115_080000.002,0,RJCC,,,,0,20180115080000,-1,-1,-1,-1,190,-1,9,-1,-1,-1,-1,,9999,0,0,2,FEW 10   SCT 60,1,2,1,1,1009,RJCC 150800Z 19009KT 9999 FEW010 SCT060 02/01 Q1009 RMK 1ST010     3CU060 A2982=,
20180115_083000.001,0,RJCC,,,,0,20180115080000,-1,-1,-1,-1,190,-1,10,-1,-1,-1,-1,,9999,0,1,2,FEW 10   BKN 40,1,2,1,1,1009,RJCC 150830Z 19010KT 9999 -SHSN FEW010 BKN040 02/01 Q1009 RMK     1ST010 7CU040 A2982=,- SN SH
20180115_090000.002,0,RJCC,,,,0,20180115090000,-1,-1,-1,-1,250,-1,8,-1,-1,-1,-1,,9999,0,1,3,FEW 10   SCT 25   BKN 50,1,3,-1,1,1009,RJCC 150900Z 25008KT 9999 -SHSN FEW010 SCT025 BKN050 03/M01     Q1009 RMK 1ST010 3CU025 7CU050 A2982=,- SN SH
20180115_093000.001,0,RJCC,,,,0,20180115090000,-1,-1,-1,-1,210,-1,6,-1,-1,-1,-1,,9999,0,0,3,FEW 10   BKN 40   BKN 130,1,2,-1,0,1009,RJCC 150930Z 21006KT 9999 FEW010 BKN040 BKN130 02/M00 Q1009     RMK 1ST010 5CU040 6AC130 A2981=,
20180115_100000.002,0,RJCC,,,,0,20180115100000,-1,-1,-1,-1,280,-1,3,-1,-1,170,340,,9999,0,0,2,FEW 10   BKN 140,1,3,1,0,1009,RJCC 151000Z 28003KT 170V340 9999 FEW010 BKN140 03/00 Q1009     RMK 1ST010 7AC140 A2980=,
20180115_103000.001,0,RJCC,,,,0,20180115100000,-1,-1,-1,-1,210,-1,4,-1,-1,-1,-1,,9999,0,0,3,FEW 10   SCT 40   BKN 150,1,0,-1,1,1009,RJCC 151030Z 21004KT 9999 FEW010 SCT040 BKN150 00/M01 Q1009     RMK 1ST010 3CU040 6AC150 A2980=,
20180115_110000.002,0,RJCC,,,,0,20180115110000,-1,-1,-1,-1,20,-1,5,-1,-1,-1,-1,,9999,0,0,2,FEW 10   BKN 180,-1,0,-1,1,1008,RJCC 151100Z 02005KT 9999 FEW010 BKN180 M00/M01 Q1008 RMK     1ST010 6AC180 A2979 MOD TURB OBS AT 1046Z 20NM S CHE BTN           11000FT AND 12000FT IN CMB B767=,
20180115_113000.001,0,RJCC,,,,0,20180115110000,-1,-1,-1,-1,999,-1,3,-1,-1,-1,-1,,9999,0,0,2,FEW 10   BKN -9999,-1,1,-1,2,1008,RJCC 151130Z VRB03KT 9999 FEW010 BKN/// M01/M02 Q1008 RMK     1ST010 A2979=,
20180115_120000.002,0,RJCC,,,,0,20180115120000,-1,-1,-1,-1,999,-1,1,-1,-1,-1,-1,,9000,0,0,1,FEW 10,-1,0,-1,1,1008,RJCC 151200Z VRB01KT 9000 FEW010 M00/M01 Q1008 RMK 1ST010     A2979=,
20180115_123000.001,0,RJCC,,,,0,20180115120000,-1,-1,-1,-1,230,-1,5,-1,-1,-1,-1,,9000,2,0,2,FEW 10   SCT 35,1,0,-1,1,1009,RJCC 151230Z 23005KT 9000 R19R/P2000N R19L/P2000N FEW010     SCT035 00/M01 Q1009 RMK 1ST010 3CU035 A2980=,
20180115_130000.002,0,RJCC,,,,0,20180115130000,-1,-1,-1,-1,260,-1,9,-1,-1,-1,-1,,9999,0,0,2,FEW 10   SCT 50,1,0,-1,3,1009,RJCC 151300Z 26009KT 9999 FEW010 SCT050 00/M03 Q1009 RMK     1ST010 3CU050 A2980=,
20180115_133000.001,0,RJCC,,,,0,20180115130000,-1,-1,-1,-1,240,-1,8,-1,-1,-1,-1,,9999,0,0,2,FEW 10   SCT 50,1,1,-1,4,1009,RJCC 151330Z 24008KT 9999 FEW010 SCT050 01/M04 Q1009 RMK     1ST010 3CU050 A2982=,
20180115_140000.002,0,RJCC,,,,0,20180115140000,-1,-1,-1,-1,999,-1,3,-1,-1,-1,-1,,9999,0,0,2,FEW 1   SCT 40,-1,0,-1,3,1009,RJCC 151400Z VRB03KT 9999 FEW001 SCT040 M00/M03 Q1009 RMK     1ST001 4CU040 A2982=,
20180115_143000.001,0,RJCC,,,,0,20180115140000,-1,-1,-1,-1,350,-1,4,-1,-1,-1,-1,,6000,2,2,2,FEW 1   BKN 50,-1,1,-1,2,1010,RJCC 151430Z 35004KT 6000 R01L/P2000N R01R/P2000N -SHSN BCFG     FEW001 BKN050 M01/M02 Q1010 RMK 2ST001 5CU050 A2984=,- SN SH; BC FG
20180115_150000.002,0,RJCC,,,,0,20180115150000,-1,-1,-1,-1,320,-1,4,-1,14,260,360,,8000,0,1,2,FEW 8   BKN 40,-1,1,-1,2,1010,RJCC 151500Z 32004G14KT 260V360 8000 -SHSN FEW008 BKN040     M01/M02 Q1010 RMK 1ST008 6CU040 A2984=,- SN SH
20180115_153000.001,0,RJCC,,,,0,20180115150000,-1,-1,-1,-1,999,-1,1,-1,-1,-1,-1,,9999,0,0,2,FEW 8   SCT 40,-1,1,-1,2,1011,RJCC 151530Z VRB01KT 9999 FEW008 SCT040 M01/M02 Q1011 RMK     1ST008 4CU040 A2986=,
20180115_160000.002,0,RJCC,,,,0,20180115160000,-1,-1,-1,-1,0,-1,0,-1,-1,-1,-1,,9999,0,0,2,FEW 10   SCT 40,-1,2,-1,2,1011,RJCC 151600Z 00000KT 9999 FEW010 SCT040 M02/M02 Q1011 RMK     1ST010 3CU040 A2986=,
20180115_163000.001,0,RJCC,,,,0,20180115160000,-1,-1,-1,-1,999,-1,1,-1,-1,-1,-1,,9999,0,0,2,FEW 10   BKN 40,-1,3,-1,3,1012,RJCC 151630Z VRB01KT 9999 FEW010 BKN040 M03/M03 Q1012 RMK     1ST010 5CU040 A2988=,
20180115_170000.002,0,RJCC,,,,0,20180115170000,-1,-1,-1,-1,350,-1,4,-1,-1,320,30,,9999,0,1,3,FEW 7   SCT 10   BKN 40,-1,1,-1,2,1012,RJCC 151700Z 35004KT 320V030 9999 -SHSN FEW007 SCT010 BKN040     M01/M02 Q1012 RMK 1ST007 3ST010 6CU040 A2990=,- SN SH
20180115_173000.001,0,RJCC,,,,0,20180115170000,-1,-1,-1,-1,340,-1,4,-1,-1,-1,-1,,9999,0,1,2,FEW 7   BKN 30,-1,2,-1,3,1013,RJCC 151730Z 34004KT 9999 -SHSN FEW007 BKN030 M02/M03 Q1013     RMK 1ST007 6CU030 A2991=,- SN SH
20180115_180000.002,0,RJCC,,,,0,20180115180000,-1,-1,-1,-1,310,-1,13,-1,-1,-1,-1,,9999,0,1,2,FEW 7   BKN 40,-1,2,-1,6,1013,RJCC 151800Z 31013KT 9999 -SHSN FEW007 BKN040 M02/M06 Q1013     RMK 1ST007 6CU040 A2993=,- SN SH
20180115_183000.001,0,RJCC,,,,0,20180115180000,-1,-1,-1,-1,320,-1,11,-1,-1,-1,-1,,9999,0,1,2,FEW 7   SCT 40,-1,2,-1,7,1014,RJCC 151830Z 32011KT 9999 -SHSN FEW007 SCT040 M02/M07 Q1014     RMK 1ST007 4CU040 A2994=,- SN SH
20180115_190000.002,0,RJCC,,,,0,20180115190000,-1,-1,-1,-1,330,-1,8,-1,-1,-1,-1,,9999,0,0,1,FEW 10,-1,3,-1,7,1014,RJCC 151900Z 33008KT 9999 FEW010 M03/M07 Q1014 RMK 1ST010     A2995=,
20180115_193000.001,0,RJCC,,,,0,20180115190000,-1,-1,-1,-1,10,-1,4,-1,-1,-1,-1,,9999,0,0,2,FEW 10   SCT 40,-1,3,-1,7,1015,RJCC 151930Z 01004KT 9999 FEW010 SCT040 M03/M07 Q1015 RMK     1ST010 4CU040 A2998=,
20180115_200000.002,0,RJCC,,,,0,20180115200000,-1,-1,-1,-1,999,-1,2,-1,-1,-1,-1,,9999,0,0,2,FEW 10   BKN 50,-1,5,-1,7,1015,RJCC 152000Z VRB02KT 9999 FEW010 BKN050 M05/M07 Q1015 RMK     1ST010 6CU050 A2999=,
20180115_203000.001,0,RJCC,,,,0,20180115200000,-1,-1,-1,-1,170,-1,5,-1,-1,-1,-1,,9999,0,0,1,FEW 10,-1,6,-1,7,1015,RJCC 152030Z 17005KT 9999 FEW010 M06/M07 Q1015 RMK 1ST010     A2999=,
20180115_210000.002,0,RJCC,,,,0,20180115210000,-1,-1,-1,-1,170,-1,5,-1,-1,-1,-1,,9999,0,0,1,FEW 10,-1,6,-1,7,1016,RJCC 152100Z 17005KT 9999 FEW010 M06/M07 Q1016 RMK 1ST010     A3001=,
20180115_213000.001,0,RJCC,,,,0,20180115210000,-1,-1,-1,-1,190,-1,2,-1,-1,-1,-1,,9999,0,0,2,FEW 15   BKN 50,-1,4,-1,7,1016,RJCC 152130Z 19002KT 9999 FEW015 BKN050 M04/M07 Q1016 RMK     1ST015 7CU050 A3002=,
20180115_220000.002,0,RJCC,,,,0,20180115220000,-1,-1,-1,-1,999,-1,2,-1,-1,-1,-1,,9999,0,0,2,FEW 20   BKN 50,-1,4,-1,7,1017,RJCC 152200Z VRB02KT 9999 FEW020 BKN050 M04/M07 Q1017 RMK     1CU020 7CU050 A3003=,
20180115_223000.002,0,RJCC,,,,0,20180115220000,-1,-1,-1,-1,170,-1,5,-1,-1,-1,-1,,9999,0,0,2,FEW 20   BKN 50,-1,4,-1,7,1017,RJCC 152230Z 17005KT 9999 FEW020 BKN050 M04/M07 Q1017 RMK     1CU020 7CU050 A3005=,
20180115_230000.002,0,RJCC,,,,0,20180115230000,-1,-1,-1,-1,220,-1,8,-1,-1,-1,-1,,9999,0,0,3,FEW 25   BKN 50   BKN 90,-1,2,-1,7,1017,RJCC 152300Z 22008KT 9999 FEW025 BKN050 BKN090 M02/M07 Q1017     RMK 1CU025 5CU050 7AC090 A3006=,
20180115_233000.001,0,RJCC,,,,0,20180115230000,-1,-1,-1,-1,210,-1,8,-1,-1,-1,-1,,9999,0,0,2,FEW 30   BKN 50,-1,1,-1,7,1018,RJCC 152330Z 21008KT 9999 FEW030 BKN050 M01/M07 Q1018 RMK     1CU030 7SC050 A3007=,
20180116_000000.002,0,RJCC,,,,0,20180116000000,-1,-1,-1,-1,230,-1,8,-1,-1,-1,-1,,9999,0,0,3,FEW 40   BKN 50   BKN -9999,-1,1,-1,7,1018,RJCC 160000Z 23008KT 9999 FEW040 BKN050 BKN/// M01/M07 Q1018     RMK 1CU040 5SC050 A3007=,
20180116_003000.001,0,RJCC,,,,0,20180116000000,-1,-1,-1,-1,190,-1,7,-1,-1,-1,-1,,9999,0,0,3,FEW 30   BKN 45   BKN -9999,-1,0,-1,7,1018,RJCC 160030Z 19007KT 9999 FEW030 BKN045 BKN/// M00/M07 Q1018     RMK 1CU030 5SC045 A3008=,
20180116_010000.002,0,RJCC,,,,0,20180116010000,-1,-1,-1,-1,200,-1,6,-1,-1,-1,-1,,9999,0,0,3,FEW 30   SCT 45   BKN -9999,-1,0,-1,7,1018,RJCC 160100Z 20006KT 9999 FEW030 SCT045 BKN/// M00/M07 Q1018     RMK 1CU030 4SC045 A3008=,
20180116_013000.001,0,RJCC,,,,0,20180116010000,-1,-1,-1,-1,180,-1,5,-1,-1,-1,-1,,9999,0,0,3,FEW 30   SCT 140   BKN -9999,1,0,-1,7,1018,RJCC 160130Z 18005KT 9999 FEW030 SCT140 BKN/// 00/M07 Q1018     RMK 1CU030 3AC140 A3008=,
20180116_020000.002,0,RJCC,,,,0,20180116020000,-1,-1,-1,-1,160,-1,5,-1,-1,-1,-1,,9999,0,0,2,FEW 30   BKN -9999,1,0,-1,7,1018,RJCC 160200Z 16005KT 9999 FEW030 BKN/// 00/M07 Q1018 RMK     1CU030 A3007=,
20180116_023000.001,0,RJCC,,,,0,20180116020000,-1,-1,-1,-1,999,-1,2,-1,-1,-1,-1,,9999,0,0,3,FEW 30   SCT 140   BKN -9999,1,0,-1,7,1018,RJCC 160230Z VRB02KT 9999 FEW030 SCT140 BKN/// 00/M07 Q1018     RMK 1CU030 3AC140 A3006=,
20180116_030000.002,0,RJCC,,,,0,20180116030000,-1,-1,-1,-1,260,-1,8,-1,-1,-1,-1,,9999,0,0,3,FEW 30   SCT 130   BKN -9999,1,0,-1,6,1017,RJCC 160300Z 26008KT 9999 FEW030 SCT130 BKN/// 00/M06 Q1017     RMK 1CU030 3AC130 A3006=,
20180116_033000.001,0,RJCC,,,,0,20180116030000,-1,-1,-1,-1,260,-1,6,-1,-1,230,290,,9999,0,0,3,FEW 30   SCT 120   BKN -9999,1,1,-1,7,1017,RJCC 160330Z 26006KT 230V290 9999 FEW030 SCT120 BKN/// 01/M07     Q1017 RMK 1CU030 4AC120 A3005=,
20180116_040000.002,0,RJCC,,,,0,20180116040000,-1,-1,-1,-1,260,-1,9,-1,-1,-1,-1,,9999,0,0,3,FEW 30   BKN 110   BKN -9999,1,1,-1,7,1017,RJCC 160400Z 26009KT 9999 FEW030 BKN110 BKN/// 01/M07 Q1017     RMK 1CU030 5AC110 A3004=,
20180116_043000.001,0,RJCC,,,,0,20180116040000,-1,-1,-1,-1,270,-1,8,-1,-1,240,300,,9999,0,0,3,FEW 30   BKN 100   BKN -9999,1,0,-1,7,1017,RJCC 160430Z 27008KT 240V300 9999 FEW030 BKN100 BKN/// 00/M07     Q1017 RMK 1CU030 5AC100 A3004=,
20180116_050000.002,0,RJCC,,,,0,20180116050000,-1,-1,-1,-1,250,-1,6,-1,-1,-1,-1,,9999,0,0,3,FEW 30   BKN 100   BKN -9999,1,1,-1,7,1017,RJCC 160500Z 25006KT 9999 FEW030 BKN100 BKN/// 01/M07 Q1017     RMK 1CU030 6AC100 A3004=,
20180116_053000.001,0,RJCC,,,,0,20180116050000,-1,-1,-1,-1,250,-1,7,-1,-1,-1,-1,,9999,0,0,3,FEW 30   BKN 90   BKN -9999,1,0,-1,8,1017,RJCC 160530Z 25007KT 9999 FEW030 BKN090 BKN/// 00/M08 Q1017     RMK 1CU030 6AC090 A3004=,
20180116_060000.002,0,RJCC,,,,0,20180116060000,-1,-1,-1,-1,230,-1,5,-1,-1,190,260,,9999,0,0,3,FEW 30   SCT 90   BKN -9999,1,0,-1,7,1017,RJCC 160600Z 23005KT 190V260 9999 FEW030 SCT090 BKN/// 00/M07     Q1017 RMK 1CU030 3AC090 A3004=,
20180116_063000.001,0,RJCC,,,,0,20180116060000,-1,-1,-1,-1,230,-1,4,-1,-1,190,260,,9999,0,0,3,FEW 30   SCT 120   BKN -9999,1,0,-1,8,1017,RJCC 160630Z 23004KT 190V260 9999 FEW030 SCT120 BKN/// 00/M08     Q1017 RMK 1CU030 4AC120 A3004=,
20180116_070000.002,0,RJCC,,,,0,20180116070000,-1,-1,-1,-1,999,-1,2,-1,-1,-1,-1,,9999,0,0,3,FEW 30   BKN 110   BKN -9999,-1,0,-1,7,1017,RJCC 160700Z VRB02KT 9999 FEW030 BKN110 BKN/// M00/M07 Q1017     RMK 1CU030 6AC110 A3004=,
20180116_073000.001,0,RJCC,,,,0,20180116070000,-1,-1,-1,-1,260,-1,4,-1,-1,190,320,,9999,0,0,3,FEW 30   BKN 140   BKN -9999,-1,0,-1,7,1017,RJCC 160730Z 26004KT 190V320 9999 FEW030 BKN140 BKN/// M00/M07     Q1017 RMK 1CU030 5AC140 A3004=,
20180116_080000.002,0,RJCC,,,,0,20180116080000,-1,-1,-1,-1,320,-1,4,-1,-1,220,10,,9999,0,0,2,FEW 30   BKN 140,-1,1,-1,7,1017,RJCC 160800Z 32004KT 220V010 9999 FEW030 BKN140 M01/M07 Q1017     RMK 1CU030 7AC140 A3004=,
20180116_083000.001,0,RJCC,,,,0,20180116080000,-1,-1,-1,-1,10,-1,6,-1,-1,-1,-1,,9999,0,0,2,FEW 30   BKN 140,-1,1,-1,7,1017,RJCC 160830Z 01006KT 9999 FEW030 BKN140 M01/M07 Q1017 RMK     1CU030 7AC140 A3004=,
20180116_090000.002,0,RJCC,,,,0,20180116090000,-1,-1,-1,-1,40,-1,3,-1,-1,-1,-1,,9999,0,0,2,FEW 30   BKN 140,-1,1,-1,7,1017,RJCC 160900Z 04003KT 9999 FEW030 BKN140 M01/M07 Q1017 RMK     1CU030 7AC140 A3003=,
20180116_093000.001,0,RJCC,,,,0,20180116090000,-1,-1,-1,-1,360,-1,2,-1,-1,-1,-1,,9999,0,0,2,FEW 30   BKN 130,-1,1,-1,7,1016,RJCC 160930Z 36002KT 9999 FEW030 BKN130 M01/M07 Q1016 RMK     1CU030 7AC130 A3003=,
20180116_100000.002,0,RJCC,,,,0,20180116100000,-1,-1,-1,-1,350,-1,2,-1,-1,-1,-1,,9999,0,0,3,FEW 30   BKN 140   BKN -9999,-1,2,-1,6,1016,RJCC 161000Z 35002KT 9999 FEW030 BKN140 BKN/// M02/M06 Q1016     RMK 1CU030 5AC140 A3003=,
20180116_103000.001,0,RJCC,,,,0,20180116100000,-1,-1,-1,-1,330,-1,3,-1,-1,310,10,,9999,0,0,3,FEW 30   BKN 110   BKN -9999,-1,2,-1,7,1016,RJCC 161030Z 33003KT 310V010 9999 FEW030 BKN110 BKN/// M02/M07     Q1016 RMK 1CU030 5AC110 A3002=,
20180116_110000.004,0,RJCC,,,,0,20180116110000,-1,-1,-1,-1,330,-1,3,-1,-1,-1,-1,,9999,0,0,2,FEW 30   BKN 80,-1,3,-1,6,1016,RJCC 161100Z 33003KT 9999 FEW030 BKN080 M03/M06 Q1016 RMK     1CU030 7AC080 A3002=,
20180116_113000.001,0,RJCC,,,,0,20180116110000,-1,-1,-1,-1,0,-1,0,-1,-1,-1,-1,,9999,0,0,2,FEW 30   BKN 60,-1,2,-1,6,1016,RJCC 161130Z 00000KT 9999 FEW030 BKN060 M02/M06 Q1016 RMK     1CU030 7CU060 A3002=,
20180116_120000.002,0,RJCC,,,,0,20180116120000,-1,-1,-1,-1,999,-1,1,-1,-1,-1,-1,,9999,0,0,3,FEW 30   SCT 60   BKN 80,-1,2,-1,5,1016,RJCC 161200Z VRB01KT 9999 FEW030 SCT060 BKN080 M02/M05 Q1016     RMK 1CU030 3CU060 7AC080 A3002=,
20180116_123000.001,0,RJCC,,,,0,20180116120000,-1,-1,-1,-1,250,-1,4,-1,-1,190,280,,9999,0,0,3,FEW 30   SCT 60   BKN 80,-1,2,-1,7,1016,RJCC 161230Z 25004KT 190V280 9999 FEW030 SCT060 BKN080 M02/M07     Q1016 RMK 1CU030 3CU060 7AC080 A3003=,
20180116_130000.002,0,RJCC,,,,0,20180116130000,-1,-1,-1,-1,999,-1,3,-1,-1,-1,-1,,9999,0,0,2,FEW 30   BKN 50,-1,2,-1,6,1016,RJCC 161300Z VRB03KT 9999 FEW030 BKN050 M02/M06 Q1016 RMK     1CU030 7CU050 A3003=,
20180116_133000.001,0,RJCC,,,,0,20180116130000,-1,-1,-1,-1,0,-1,0,-1,-1,-1,-1,,8000,0,1,3,FEW 25   SCT 40   BKN 50,-1,2,-1,6,1016,RJCC 161330Z 00000KT 8000 -SHSN FEW025 SCT040 BKN050 M02/M06     Q1016 RMK 1CU025 3CU040 7CU050 A3002=,- SN SH
20180116_140000.002,0,RJCC,,,,0,20180116140000,-1,-1,-1,-1,110,-1,1,-1,-1,-1,-1,,9999,0,1,3,FEW 25   SCT 40   BKN 60,-1,2,-1,5,1016,RJCC 161400Z 11001KT 9999 -SHSN FEW025 SCT040 BKN060 M02/M05     Q1016 RMK 1CU025 3CU040 7CU060 A3002=,- SN SH
20180116_143000.001,0,RJCC,,,,0,20180116140000,-1,-1,-1,-1,40,-1,3,-1,-1,-1,-1,,9999,0,0,3,FEW 25   SCT 60   BKN 80,-1,2,-1,5,1016,RJCC 161430Z 04003KT 9999 FEW025 SCT060 BKN080 M02/M05 Q1016     RMK 1CU025 3CU060 7AC080 A3001=,
20180116_150000.002,0,RJCC,,,,0,20180116150000,-1,-1,-1,-1,160,-1,3,-1,-1,-1,-1,,9999,0,1,2,FEW 25   BKN 50,-1,3,-1,5,1016,RJCC 161500Z 16003KT 9999 -SHSN FEW025 BKN050 M03/M05 Q1016     RMK 1CU025 7CU050 A3002=,- SN SH
20180116_153000.001,0,RJCC,,,,0,20180116150000,-1,-1,-1,-1,120,-1,2,-1,-1,-1,-1,,9999,0,1,2,FEW 25   BKN 60,-1,2,-1,5,1016,RJCC 161530Z 12002KT 9999 -SHSN FEW025 BKN060 M02/M05 Q1016     RMK 1CU025 7CU060 A3001=,- SN SH
20180116_160000.002,0,RJCC,,,,0,20180116160000,-1,-1,-1,-1,120,-1,2,-1,-1,-1,-1,,9999,0,1,3,FEW 25   SCT 60   BKN 120,-1,2,-1,5,1016,RJCC 161600Z 12002KT 9999 -SHSN FEW025 SCT060 BKN120 M02/M05     Q1016 RMK 1CU025 3CU060 7AC120 A3000=,- SN SH
20180116_163000.001,0,RJCC,,,,0,20180116160000,-1,-1,-1,-1,150,-1,2,-1,-1,-1,-1,,9999,0,0,3,FEW 25   BKN 80   BKN 120,-1,3,-1,5,1016,RJCC 161630Z 15002KT 9999 FEW025 BKN080 BKN120 M03/M05 Q1016     RMK 1CU025 5AC080 7AC120 A3000=,
20180116_170000.002,0,RJCC,,,,0,20180116170000,-1,-1,-1,-1,270,-1,3,-1,-1,-1,-1,,9999,0,0,2,FEW 25   SCT 100,-1,4,-1,5,1016,RJCC 161700Z 27003KT 9999 FEW025 SCT100 M04/M05 Q1016 RMK     1CU025 3AC100 A3001=,
20180116_173000.001,0,RJCC,,,,0,20180116170000,-1,-1,-1,-1,310,-1,4,-1,-1,-1,-1,,9999,0,0,2,FEW 25   BKN 100,-1,5,-1,6,1016,RJCC 161730Z 31004KT 9999 FEW025 BKN100 M05/M06 Q1016 RMK     1CU025 5AC100 A3000=,
20180116_180000.002,0,RJCC,,,,0,20180116180000,-1,-1,-1,-1,330,-1,4,-1,-1,-1,-1,,9999,0,0,2,FEW 25   BKN 110,-1,5,-1,6,1016,RJCC 161800Z 33004KT 9999 FEW025 BKN110 M05/M06 Q1016 RMK     1CU025 7AC110 A3000=,
20180116_183000.001,0,RJCC,,,,0,20180116180000,-1,-1,-1,-1,360,-1,4,-1,-1,-1,-1,,9999,0,0,2,FEW 25   BKN 120,-1,5,-1,6,1016,RJCC 161830Z 36004KT 9999 FEW025 BKN120 M05/M06 Q1016 RMK     1CU025 6AC120 A3000=,
20180116_190000.002,0,RJCC,,,,0,20180116190000,-1,-1,-1,-1,350,-1,2,-1,-1,-1,-1,,9999,0,0,3,FEW 15   SCT 25   BKN 110,-1,5,-1,6,1016,RJCC 161900Z 35002KT 9999 FEW015 SCT025 BKN110 M05/M06 Q1016     RMK 1ST015 3CU025 6AC110 A3001=,
20180116_193000.001,0,RJCC,,,,0,20180116190000,-1,-1,-1,-1,320,-1,4,-1,-1,300,360,,9999,0,0,3,FEW 15   SCT 25   BKN 110,-1,6,-1,7,1016,RJCC 161930Z 32004KT 300V360 9999 FEW015 SCT025 BKN110 M06/M07     Q1016 RMK 1ST015 3CU025 5AC110 A3003=,
20180116_200000.002,0,RJCC,,,,0,20180116200000,-1,-1,-1,-1,320,-1,5,-1,-1,-1,-1,,9999,0,0,3,FEW 10   SCT 15   BKN 20,-1,5,-1,6,1017,RJCC 162000Z 32005KT 9999 FEW010 SCT015 BKN020 M05/M06 Q1017     RMK 1ST010 3ST015 7CU020 A3004=,
20180116_203000.001,0,RJCC,,,,0,20180116200000,-1,-1,-1,-1,310,-1,4,-1,-1,-1,-1,,9999,0,1,3,FEW 10   SCT 15   BKN 25,-1,4,-1,5,1017,RJCC 162030Z 31004KT 9999 -SHSN FEW010 SCT015 BKN025 M04/M05     Q1017 RMK 1ST010 4ST015 6CU025 A3005=,- SN SH
20180116_210000.002,0,RJCC,,,,0,20180116210000,-1,-1,-1,-1,320,-1,5,-1,-1,-1,-1,,9999,0,1,2,FEW 10   SCT 30,-1,5,-1,6,1018,RJCC 162100Z 32005KT 9999 -SHSN FEW010 SCT030 M05/M06 Q1018     RMK 1ST010 4CU030 A3006=,- SN SH
20180116_213000.001,0,RJCC,,,,0,20180116210000,-1,-1,-1,-1,330,-1,3,-1,-1,-1,-1,,9999,0,1,2,FEW 10   SCT 25,-1,6,-1,6,1018,RJCC 162130Z 33003KT 9999 -SHSN FEW010 SCT025 M06/M06 Q1018     RMK 1ST010 3CU025 A3008=,- SN SH
20180116_220000.002,0,RJCC,,,,0,20180116220000,-1,-1,-1,-1,330,-1,6,-1,-1,-1,-1,,9999,0,1,2,FEW 10   SCT 25,-1,6,-1,7,1019,RJCC 162200Z 33006KT 9999 -SHSN FEW010 SCT025 M06/M07 Q1019     RMK 1ST010 3CU025 A3010=,- SN SH
20180116_223000.002,0,RJCC,,,,0,20180116220000,-1,-1,-1,-1,320,-1,4,-1,-1,-1,-1,,8000,0,1,2,FEW 10   SCT 25,-1,6,-1,7,1019,RJCC 162230Z 32004KT 8000 -SHSN FEW010 SCT025 M06/M07 Q1019     RMK 1ST010 4CU025 A3011=,- SN SH
20180116_230000.002,0,RJCC,,,,0,20180116230000,-1,-1,-1,-1,350,-1,6,-1,-1,-1,-1,,8000,0,0,1,FEW 10,-1,5,-1,6,1019,RJCC 162300Z 35006KT 8000 FEW010 M05/M06 Q1019 RMK 1ST010     A3011=,
20180116_233000.001,0,RJCC,,,,0,20180116230000,-1,-1,-1,-1,340,-1,5,-1,-1,-1,-1,,5000,0,1,1,FEW 15,-1,5,-1,6,1019,RJCC 162330Z 34005KT 5000 BR FEW015 M05/M06 Q1019 RMK 1ST015     A3011=,BR
20180117_000000.002,0,RJCC,,,,0,20180117000000,-1,-1,-1,-1,330,-1,6,-1,-1,-1,-1,,6000,0,1,2,FEW 10   SCT 18,-1,3,-1,4,1019,RJCC 170000Z 33006KT 6000 -SHSN FEW010 SCT018 M03/M04 Q1019     RMK 1ST010 4ST018 A3012=,- SN SH
20180117_003000.001,0,RJCC,,,,0,20180117000000,-1,-1,-1,-1,350,-1,5,-1,-1,-1,-1,,6000,0,1,2,FEW 8   BKN 14,-1,3,-1,4,1020,RJCC 170030Z 35005KT 6000 -SHSN FEW008 BKN014 M03/M04 Q1020     RMK 1ST008 7ST014 A3013=,- SN SH
20180117_010000.002,0,RJCC,,,,0,20180117010000,-1,-1,-1,-1,350,-1,4,-1,-1,-1,-1,,7000,0,1,3,FEW 6   BKN 8   BKN 15,-1,2,-1,4,1020,RJCC 170100Z 35004KT 7000 -SHSN FEW006 BKN008 BKN015 M02/M04     Q1020 RMK 1ST006 5ST008 7ST015 A3013=,- SN SH
20180117_013000.001,0,RJCC,,,,0,20180117010000,-1,-1,-1,-1,330,-1,6,-1,-1,280,10,,7000,0,1,3,FEW 7   BKN 9   BKN 25,-1,1,-1,3,1020,RJCC 170130Z 33006KT 280V010 7000 -SHSN FEW007 BKN009 BKN025     M01/M03 Q1020 RMK 1ST007 5ST009 7CU025 A3012=,- SN SH
20180117_020000.004,0,RJCC,,,,0,20180117020000,-1,-1,-1,-1,320,-1,6,-1,-1,-1,-1,,7000,0,1,3,FEW 7   SCT 9   BKN 30,-1,1,-1,3,1019,RJCC 170200Z 32006KT 7000 -SHSN FEW007 SCT009 BKN030 M01/M03     Q1019 RMK 1ST007 3ST009 7CU030 A3011=,- SN SH
20180117_023000.001,0,RJCC,,,,0,20180117020000,-1,-1,-1,-1,310,-1,4,-1,-1,-1,-1,,9999,0,0,3,FEW 10   SCT 30   BKN -9999,-1,0,-1,3,1019,RJCC 170230Z 31004KT 9999 FEW010 SCT030 BKN/// M00/M03 Q1019     RMK 1ST010 3CU030 A3010=,
20180117_030000.002,0,RJCC,,,,0,20180117030000,-1,-1,-1,-1,350,-1,3,-1,-1,320,40,,9999,0,0,2,FEW 15   BKN -9999,1,0,-1,4,1019,RJCC 170300Z 35003KT 320V040 9999 FEW015 BKN/// 00/M04 Q1019     RMK 1ST015 A3009=,
20180117_033000.001,0,RJCC,,,,0,20180117030000,-1,-1,-1,-1,350,-1,6,-1,-1,-1,-1,,9999,0,0,2,FEW 30   BKN -9999,1,1,-1,5,1019,RJCC 170330Z 35006KT 9999 FEW030 BKN/// 01/M05 Q1019 RMK     1CU030 A3009=,
20180117_040000.003,0,RJCC,,,,0,20180117040000,-1,-1,-1,-1,360,-1,8,-1,-1,-1,-1,,9999,0,0,2,FEW 30   BKN -9999,1,1,-1,6,1019,RJCC 170400Z 36008KT 9999 FEW030 BKN/// 01/M06 Q1019 RMK     1CU030 A3010=,
20180117_043000.001,0,RJCC,,,,0,20180117040000,-1,-1,-1,-1,360,-1,6,-1,-1,330,30,,9999,0,0,2,FEW 30   BKN -9999,1,1,-1,6,1019,RJCC 170430Z 36006KT 330V030 9999 FEW030 BKN/// 01/M06 Q1019     RMK 1CU030 A3010=,
20180117_050000.003,0,RJCC,,,,0,20180117050000,-1,-1,-1,-1,350,-1,7,-1,-1,-1,-1,,9999,0,0,2,FEW 30   BKN -9999,1,1,-1,6,1019,RJCC 170500Z 35007KT 9999 FEW030 BKN/// 01/M06 Q1019 RMK     1CU030 A3010=,
20180117_053000.001,0,RJCC,,,,0,20180117050000,-1,-1,-1,-1,10,-1,5,-1,-1,-1,-1,,9999,0,0,2,FEW 30   BKN -9999,1,0,-1,6,1019,RJCC 170530Z 01005KT 9999 FEW030 BKN/// 00/M06 Q1019 RMK     1CU030 A3009=,
20180117_060000.002,0,RJCC,,,,0,20180117060000,-1,-1,-1,-1,10,-1,4,-1,-1,-1,-1,,9999,0,0,2,FEW 30   BKN -9999,1,0,-1,6,1019,RJCC 170600Z 01004KT 9999 FEW030 BKN/// 00/M06 Q1019 RMK     1CU030 A3009=,
20180117_063000.001,0,RJCC,,,,0,20180117060000,-1,-1,-1,-1,330,-1,6,-1,-1,300,30,,9999,0,0,2,FEW 30   BKN -9999,-1,0,-1,6,1018,RJCC 170630Z 33006KT 300V030 9999 FEW030 BKN/// M00/M06 Q1018     RMK 1CU030 A3007=,
20180117_070000.002,0,RJCC,,,,0,20180117070000,-1,-1,-1,-1,20,-1,4,-1,-1,-1,-1,,9999,0,0,2,FEW 30   BKN -9999,-1,1,-1,6,1018,RJCC 170700Z 02004KT 9999 FEW030 BKN/// M01/M06 Q1018 RMK     1CU030 A3008=,
20180117_073000.001,0,RJCC,,,,0,20180117070000,-1,-1,-1,-1,20,-1,2,-1,-1,-1,-1,,9999,0,0,2,FEW 30   BKN -9999,-1,1,-1,7,1018,RJCC 170730Z 02002KT 9999 FEW030 BKN/// M01/M07 Q1018 RMK     1CU030 A3008=,
20180117_080000.002,0,RJCC,,,,0,20180117080000,-1,-1,-1,-1,30,-1,2,-1,-1,-1,-1,,9999,0,0,2,FEW 30   BKN -9999,-1,1,-1,7,1018,RJCC 170800Z 03002KT 9999 FEW030 BKN/// M01/M07 Q1018 RMK     1CU030 A3008=,
20180117_083000.001,0,RJCC,,,,0,20180117080000,-1,-1,-1,-1,0,-1,0,-1,-1,-1,-1,,9999,0,0,2,FEW 30   BKN -9999,-1,1,-1,6,1018,RJCC 170830Z 00000KT 9999 FEW030 BKN/// M01/M06 Q1018 RMK     1CU030 A3009=,
20180117_090000.003,0,RJCC,,,,0,20180117090000,-1,-1,-1,-1,220,-1,3,-1,-1,-1,-1,,9999,0,0,2,FEW 30   BKN -9999,-1,2,-1,6,1019,RJCC 170900Z 22003KT 9999 FEW030 BKN/// M02/M06 Q1019 RMK     1CU030 A3009=,
20180117_093000.001,0,RJCC,,,,0,20180117090000,-1,-1,-1,-1,190,-1,3,-1,-1,140,230,,9999,0,0,2,FEW 30   BKN -9999,-1,3,-1,7,1019,RJCC 170930Z 19003KT 140V230 9999 FEW030 BKN/// M03/M07 Q1019     RMK 1CU030 A3009=,
20180117_100000.002,0,RJCC,,,,0,20180117100000,-1,-1,-1,-1,170,-1,3,-1,-1,-1,-1,,9999,0,0,2,FEW 20   BKN -9999,-1,3,-1,6,1018,RJCC 171000Z 17003KT 9999 FEW020 BKN/// M03/M06 Q1018 RMK     1CU020 A3008=,
20180117_103000.001,0,RJCC,,,,0,20180117100000,-1,-1,-1,-1,0,-1,0,-1,-1,-1,-1,,9999,0,0,2,FEW 20   BKN -9999,-1,3,-1,7,1018,RJCC 171030Z 00000KT 9999 FEW020 BKN/// M03/M07 Q1018 RMK     1CU020 A3007=,
20180117_110000.003,0,RJCC,,,,0,20180117110000,-1,-1,-1,-1,350,-1,1,-1,-1,-1,-1,,9999,0,0,2,FEW 20   BKN -9999,-1,4,-1,6,1018,RJCC 171100Z 35001KT 9999 FEW020 BKN/// M04/M06 Q1018 RMK     1CU020 A3007=,
20180117_113000.001,0,RJCC,,,,0,20180117110000,-1,-1,-1,-1,330,-1,5,-1,-1,-1,-1,,9999,0,0,3,FEW 15   BKN 30   BKN -9999,-1,4,-1,6,1018,RJCC 171130Z 33005KT 9999 FEW015 BKN030 BKN/// M04/M06 Q1018     RMK 1ST015 5CU030 A3008=,
20180117_120000.003,0,RJCC,,,,0,20180117120000,-1,-1,-1,-1,999,-1,2,-1,-1,-1,-1,,9999,0,0,2,FEW 15   BKN 25,-1,3,-1,6,1018,RJCC 171200Z VRB02KT 9999 FEW015 BKN025 M03/M06 Q1018 RMK     1ST015 7CU025 A3008=,
20180117_123000.001,0,RJCC,,,,0,20180117120000,-1,-1,-1,-1,999,-1,1,-1,-1,-1,-1,,9999,0,0,3,FEW 15   BKN 25   BKN 35,-1,3,-1,6,1018,RJCC 171230Z VRB01KT 9999 FEW015 BKN025 BKN035 M03/M06 Q1018     RMK 1ST015 6CU025 7CU035 A3007=,
20180117_130000.002,0,RJCC,,,,0,20180117130000,-1,-1,-1,-1,999,-1,2,-1,-1,-1,-1,,9999,0,0,3,FEW 15   BKN 25   BKN 35,-1,3,-1,5,1018,RJCC 171300Z VRB02KT 9999 FEW015 BKN025 BKN035 M03/M05 Q1018     RMK 1ST015 6CU025 7CU035 A3006=,
20180117_133000.001,0,RJCC,,,,0,20180117130000,-1,-1,-1,-1,220,-1,3,-1,-1,-1,-1,,9999,0,0,3,FEW 15   SCT 25   BKN 35,-1,3,-1,5,1018,RJCC 171330Z 22003KT 9999 FEW015 SCT025 BKN035 M03/M05 Q1018     RMK 1ST015 3CU025 7CU035 A3006=,
20180117_140000.002,0,RJCC,,,,0,20180117140000,-1,-1,-1,-1,160,-1,2,-1,-1,-1,-1,,9999,0,0,2,FEW 15   BKN 35,-1,3,-1,6,1018,RJCC 171400Z 16002KT 9999 FEW015 BKN035 M03/M06 Q1018 RMK     1ST015 7CU035 A3006=,
20180117_143000.001,0,RJCC,,,,0,20180117140000,-1,-1,-1,-1,120,-1,7,-1,-1,-1,-1,,9999,0,0,2,FEW 15   BKN 35,-1,3,-1,5,1017,RJCC 171430Z 12007KT 9999 FEW015 BKN035 M03/M05 Q1017 RMK     1ST015 7CU035 A3005=,
20180117_150000.002,0,RJCC,,,,0,20180117150000,-1,-1,-1,-1,130,-1,9,-1,-1,-1,-1,,9999,0,0,2,FEW 15   BKN 35,-1,1,-1,5,1017,RJCC 171500Z 13009KT 9999 FEW015 BKN035 M01/M05 Q1017 RMK     1ST015 7CU035 A3003=,
20180117_153000.001,0,RJCC,,,,0,20180117150000,-1,-1,-1,-1,130,-1,9,-1,-1,-1,-1,,9999,0,0,2,FEW 15   BKN 35,-1,1,-1,5,1016,RJCC 171530Z 13009KT 9999 FEW015 BKN035 M01/M05 Q1016 RMK     1ST015 7CU035 A3002=,
20180117_160000.002,0,RJCC,,,,0,20180117160000,-1,-1,-1,-1,130,-1,6,-1,-1,-1,-1,,9999,0,0,2,FEW 15   BKN 35,-1,1,-1,5,1016,RJCC 171600Z 13006KT 9999 FEW015 BKN035 M01/M05 Q1016 RMK     1ST015 7CU035 A3003=,
20180117_163000.001,0,RJCC,,,,0,20180117160000,-1,-1,-1,-1,130,-1,7,-1,-1,-1,-1,,9999,0,0,2,FEW 15   BKN 35,-1,1,-1,6,1016,RJCC 171630Z 13007KT 9999 FEW015 BKN035 M01/M06 Q1016 RMK     1ST015 7CU035 A3001=,
20180117_170000.002,0,RJCC,,,,0,20180117170000,-1,-1,-1,-1,130,-1,5,-1,-1,-1,-1,,9999,0,0,2,FEW 15   BKN 30,-1,1,-1,6,1016,RJCC 171700Z 13005KT 9999 FEW015 BKN030 M01/M06 Q1016 RMK     1ST015 7CU030 A3001=,
20180117_173000.001,0,RJCC,,,,0,20180117170000,-1,-1,-1,-1,110,-1,4,-1,-1,-1,-1,,9999,0,0,2,FEW 15   BKN 30,-1,1,-1,6,1015,RJCC 171730Z 11004KT 9999 FEW015 BKN030 M01/M06 Q1015 RMK     1ST015 7CU030 A2999=,
20180117_180000.002,0,RJCC,,,,0,20180117180000,-1,-1,-1,-1,110,-1,4,-1,-1,-1,-1,,9999,0,0,2,FEW 15   BKN 30,-1,1,-1,6,1015,RJCC 171800Z 11004KT 9999 FEW015 BKN030 M01/M06 Q1015 RMK     1ST015 7CU030 A2998=,
20180117_183000.001,0,RJCC,,,,0,20180117180000,-1,-1,-1,-1,999,-1,1,-1,-1,-1,-1,,9999,0,0,2,FEW 15   BKN 30,-1,1,-1,6,1015,RJCC 171830Z VRB01KT 9999 FEW015 BKN030 M01/M06 Q1015 RMK     1ST015 7CU030 A2998=,
20180117_190000.003,0,RJCC,,,,0,20180117190000,-1,-1,-1,-1,340,-1,7,-1,-1,-1,-1,,9999,0,0,2,FEW 15   BKN 35,-1,2,-1,5,1015,RJCC 171900Z 34007KT 9999 FEW015 BKN035 M02/M05 Q1015 RMK     1ST015 7CU035 A2998=,
20180117_193000.001,0,RJCC,,,,0,20180117190000,-1,-1,-1,-1,340,-1,6,-1,-1,-1,-1,,9999,0,0,2,FEW 15   BKN 35,-1,2,-1,5,1015,RJCC 171930Z 34006KT 9999 FEW015 BKN035 M02/M05 Q1015 RMK     1ST015 7CU035 A2998=,
20180117_200000.002,0,RJCC,,,,0,20180117200000,-1,-1,-1,-1,350,-1,4,-1,-1,-1,-1,,9999,0,0,2,FEW 15   BKN 35,-1,2,-1,5,1015,RJCC 172000Z 35004KT 9999 FEW015 BKN035 M02/M05 Q1015 RMK     1ST015 7CU035 A2997=,
20180117_203000.001,0,RJCC,,,,0,20180117200000,-1,-1,-1,-1,30,-1,3,-1,-1,340,50,,9999,0,0,2,FEW 15   BKN 35,-1,2,-1,5,1014,RJCC 172030Z 03003KT 340V050 9999 FEW015 BKN035 M02/M05 Q1014     RMK 1ST015 7CU035 A2997=,
20180117_210000.002,0,RJCC,,,,0,20180117210000,-1,-1,-1,-1,340,-1,4,-1,-1,-1,-1,,9999,0,1,2,FEW 15   BKN 35,-1,2,-1,5,1014,RJCC 172100Z 34004KT 9999 -SHSN FEW015 BKN035 M02/M05 Q1014     RMK 1ST015 7CU035 A2996=,- SN SH
20180117_213000.001,0,RJCC,,,,0,20180117210000,-1,-1,-1,-1,320,-1,7,-1,-1,-1,-1,,9999,0,1,2,FEW 15   BKN 35,-1,2,-1,5,1014,RJCC 172130Z 32007KT 9999 -SHSN FEW015 BKN035 M02/M05 Q1014     RMK 1ST015 7CU035 A2996=,- SN SH
20180117_220000.003,0,RJCC,,,,0,20180117220000,-1,-1,-1,-1,330,-1,6,-1,-1,-1,-1,,9999,0,1,2,FEW 15   BKN 35,-1,2,-1,5,1014,RJCC 172200Z 33006KT 9999 -SHSN FEW015 BKN035 M02/M05 Q1014     RMK 1ST015 7CU035 A2997=,- SN SH
20180117_223000.002,0,RJCC,,,,0,20180117220000,-1,-1,-1,-1,360,-1,4,-1,-1,-1,-1,,9999,0,1,2,FEW 15   BKN 35,-1,2,-1,5,1014,RJCC 172230Z 36004KT 9999 -SHSN FEW015 BKN035 M02/M05 Q1014     RMK 1ST015 7CU035 A2996=,- SN SH
20180117_230000.002,0,RJCC,,,,0,20180117230000,-1,-1,-1,-1,20,-1,2,-1,-1,-1,-1,,9999,0,1,2,FEW 15   BKN 30,-1,2,-1,5,1014,RJCC 172300Z 02002KT 9999 -SHSN FEW015 BKN030 M02/M05 Q1014     RMK 1ST015 7CU030 A2995=,- SN SH
20180117_233000.001,0,RJCC,,,,0,20180117230000,-1,-1,-1,-1,999,-1,1,-1,-1,-1,-1,,9999,0,1,2,FEW 15   BKN 30,-1,2,-1,5,1014,RJCC 172330Z VRB01KT 9999 -SHSN FEW015 BKN030 M02/M05 Q1014     RMK 1ST015 7CU030 A2995=,- SN SH
20180118_000000.002,0,RJCC,,,,0,20180118000000,-1,-1,-1,-1,230,-1,3,-1,-1,180,270,,9999,0,0,2,FEW 15   BKN 30,-1,2,-1,5,1014,RJCC 180000Z 23003KT 180V270 9999 FEW015 BKN030 M02/M05 Q1014     RMK 1ST015 7CU030 A2995=,
20180118_003000.001,0,RJCC,,,,0,20180118000000,-1,-1,-1,-1,999,-1,2,-1,-1,-1,-1,,9999,0,1,2,FEW 15   BKN 30,-1,1,-1,5,1013,RJCC 180030Z VRB02KT 9999 -SHSN FEW015 BKN030 M01/M05 Q1013     RMK 1ST015 7CU030 A2994=,- SN SH
20180118_010000.002,0,RJCC,,,,0,20180118010000,-1,-1,-1,-1,210,-1,3,-1,-1,-1,-1,,9999,0,0,2,FEW 15   BKN 30,-1,1,-1,5,1013,RJCC 180100Z 21003KT 9999 FEW015 BKN030 M01/M05 Q1013 RMK     1ST015 7CU030 A2993=,
20180118_013000.001,0,RJCC,,,,0,20180118010000,-1,-1,-1,-1,999,-1,2,-1,-1,-1,-1,,9999,0,0,2,FEW 20   BKN 30,-1,0,-1,4,1013,RJCC 180130Z VRB02KT 9999 FEW020 BKN030 M00/M04 Q1013 RMK     1CU020 7CU030 A2992=,
20180118_020000.002,0,RJCC,,,,0,20180118020000,-1,-1,-1,-1,999,-1,2,-1,-1,-1,-1,,9999,0,0,2,FEW 20   BKN 25,1,0,-1,5,1012,RJCC 180200Z VRB02KT 9999 FEW020 BKN025 00/M05 Q1012 RMK     1CU020 7CU025 A2990=,
20180118_023000.001,0,RJCC,,,,0,20180118020000,-1,-1,-1,-1,999,-1,1,-1,-1,-1,-1,,9999,0,0,2,FEW 20   BKN 25,1,1,-1,5,1012,RJCC 180230Z VRB01KT 9999 FEW020 BKN025 01/M05 Q1012 RMK     1CU020 7CU025 A2989=,
20180118_030000.003,0,RJCC,,,,0,20180118030000,-1,-1,-1,-1,999,-1,1,-1,-1,-1,-1,,9999,0,1,2,FEW 20   BKN 25,1,1,-1,5,1011,RJCC 180300Z VRB01KT 9999 -SHSN FEW020 BKN025 01/M05 Q1011 RMK     1CU020 7CU025 A2988=,- SN SH
20180118_033000.001,0,RJCC,,,,0,20180118030000,-1,-1,-1,-1,999,-1,2,-1,-1,-1,-1,,3000,2,1,2,FEW 10   BKN 25,1,0,-1,3,1011,RJCC 180330Z VRB02KT 3000 R01L/P2000N R01R/P2000N -SHSN FEW010     BKN025 00/M03 Q1011 RMK 1ST010 7CU025 A2987=,- SN SH
20180118_040000.002,0,RJCC,,,,0,20180118040000,-1,-1,-1,-1,999,-1,3,-1,-1,-1,-1,,8000,0,1,2,FEW 10   BKN 25,1,0,-1,2,1011,RJCC 180400Z VRB03KT 8000 -SHSN FEW010 BKN025 00/M02 Q1011 RMK     1ST010 6CU025 A2987 MOD TURB OBS AT 0344Z 30NM S RJCC BTN           8000FT AND 7000FT IN DES B738=,- SN SH
20180118_043000.001,0,RJCC,,,,0,20180118040000,-1,-1,-1,-1,140,-1,4,-1,-1,-1,-1,,9999,0,1,2,FEW 10   BKN 25,1,0,-1,3,1011,RJCC 180430Z 14004KT 9999 -SHSN FEW010 BKN025 00/M03 Q1011 RMK     1ST010 7CU025 A2986=,- SN SH
20180118_050000.002,0,RJCC,,,,0,20180118050000,-1,-1,-1,-1,160,-1,5,-1,-1,-1,-1,,3500,0,1,2,FEW 10   BKN 20,1,0,-1,3,1011,RJCC 180500Z 16005KT 3500 -SHSN FEW010 BKN020 00/M03 Q1011 RMK     1ST010 7CU020 A2985=,- SN SH
20180118_053000.001,0,RJCC,,,,0,20180118050000,-1,-1,-1,-1,140,-1,3,-1,-1,60,170,,1400,2,1,3,FEW 6   SCT 10   BKN 18,-1,0,-1,1,1011,RJCC 180530Z 14003KT 060V170 1400 R19R/1800N R19L/2000N -SHSN     FEW006 SCT010 BKN018 M00/M01 Q1011 RMK 1ST006 4ST010           7CU018 A2986=,- SN SH
20180118_060000.002,0,RJCC,,,,0,20180118060000,-1,-1,-1,-1,140,-1,4,-1,-1,-1,-1,,6000,0,0,2,FEW 10   SCT 50,-1,0,-1,1,1010,RJCC 180600Z 14004KT 6000 FEW010 SCT050 M00/M01 Q1010 RMK     1ST010 3CU050 A2985=,
20180118_063000.001,0,RJCC,,,,0,20180118060000,-1,-1,-1,-1,999,-1,2,-1,-1,-1,-1,,9999,0,0,2,FEW 10   SCT 60,1,0,-1,2,1011,RJCC 180630Z VRB02KT 9999 FEW010 SCT060 00/M02 Q1011 RMK     1ST010 3CU060 A2986=,
20180118_070000.002,0,RJCC,,,,0,20180118070000,-1,-1,-1,-1,999,-1,1,-1,-1,-1,-1,,9999,0,0,2,FEW 8   BKN 16,1,0,-1,2,1011,RJCC 180700Z VRB01KT 9999 FEW008 BKN016 00/M02 Q1011 RMK     1ST008 6ST016 A2986=,
20180118_073000.001,0,RJCC,,,,0,20180118070000,-1,-1,-1,-1,360,-1,5,-1,-1,-1,-1,,8000,0,1,2,FEW 8   BKN 15,1,0,-1,1,1011,RJCC 180730Z 36005KT 8000 -SHSN FEW008 BKN015 00/M01 Q1011 RMK     1ST008 7CU015 A2987=,- SN SH
20180118_080000.002,0,RJCC,,,,0,20180118080000,-1,-1,-1,-1,10,-1,2,-1,-1,-1,-1,,3100,0,1,3,FEW 8   BKN 13   BKN 20,1,0,-1,1,1011,RJCC 180800Z 01002KT 3100 -SHSN FEW008 BKN013 BKN020 00/M01     Q1011 RMK 1ST008 5ST013 7CU020 A2988=,- SN SH
20180118_083000.001,0,RJCC,,,,0,20180118080000,-1,-1,-1,-1,999,-1,2,-1,-1,-1,-1,,2500,0,1,3,FEW 8   SCT 12   BKN 30,-1,0,-1,1,1011,RJCC 180830Z VRB02KT 2500 -SHSN FEW008 SCT012 BKN030 M00/M01     Q1011 RMK 1ST008 3ST012 7CU030 A2988=,- SN SH
20180118_090000.002,0,RJCC,,,,0,20180118090000,-1,-1,-1,-1,999,-1,2,-1,-1,-1,-1,,2000,0,1,3,FEW 8   BKN 10   BKN 30,-1,0,-1,1,1011,RJCC 180900Z VRB02KT 2000 -SHSN FEW008 BKN010 BKN030 M00/M01     Q1011 RMK 1ST008 6ST010 7CU030 A2988=,- SN SH
20180118_093000.001,0,RJCC,,,,0,20180118090000,-1,-1,-1,-1,80,-1,1,-1,-1,-1,-1,,2500,0,1,3,FEW 8   BKN 10   BKN 40,-1,0,-1,1,1011,RJCC 180930Z 08001KT 2500 -SHSN FEW008 BKN010 BKN040 M00/M01     Q1011 RMK 1ST008 6ST010 7CU040 A2988=,- SN SH
20180118_100000.002,0,RJCC,,,,0,20180118100000,-1,-1,-1,-1,999,-1,1,-1,-1,-1,-1,,1800,0,1,3,FEW 6   BKN 8   BKN 10,-1,0,-1,1,1011,RJCC 181000Z VRB01KT 1800 -SHSN FEW006 BKN008 BKN010 M00/M01     Q1011 RMK 1ST006 6ST008 7ST010 A2988=,- SN SH
20180118_103000.001,0,RJCC,,,,0,20180118100000,-1,-1,-1,-1,350,-1,3,-1,-1,260,30,,2300,0,1,3,FEW 3   BKN 4   BKN 6,1,0,1,0,1011,RJCC 181030Z 35003KT 260V030 2300 -SHSN FEW003 BKN004 BKN006     00/00 Q1011 RMK 1ST003 5ST004 6ST006 A2988=,- SN SH
20180118_110000.002,0,RJCC,,,,0,20180118110000,-1,-1,-1,-1,350,-1,4,-1,-1,-1,-1,,1200,2,1,3,FEW 2   BKN 3   BKN 4,1,0,-1,0,1012,RJCC 181100Z 35004KT 1200 R01L/P2000N R01R/P2000N -SHSN FEW002     BKN003 BKN004 00/M00 Q1012 RMK 1ST002 5ST003 6ST004           A2988=,- SN SH
20180118_113000.001,0,RJCC,,,,0,20180118110000,-1,-1,-1,-1,340,-1,5,-1,-1,-1,-1,,1400,2,1,3,FEW 2   BKN 3   BKN 4,1,0,1,0,1012,RJCC 181130Z 34005KT 1400 R01L/P2000N R01R/P2000N -SHSN FEW002     BKN003 BKN004 00/00 Q1012 RMK 1ST002 5ST003 6ST004 A2989=,- SN SH
20180118_120000.002,0,RJCC,,,,0,20180118120000,-1,-1,-1,-1,350,-1,3,-1,-1,-1,-1,,1400,2,1,3,FEW 2   BKN 4   BKN 10,1,0,1,0,1012,RJCC 181200Z 35003KT 1400 R01L/P2000N R01R/P2000N -SHSN FEW002     BKN004 BKN010 00/00 Q1012 RMK 1ST002 5ST004 6ST010 A2989=,- SN SH
20180118_123000.001,0,RJCC,,,,0,20180118120000,-1,-1,-1,-1,10,-1,4,-1,-1,-1,-1,,2500,0,1,2,FEW 3   BKN 4,-1,0,-1,0,1012,RJCC 181230Z 01004KT 2500 -SHSN FEW003 BKN004 M00/M00 Q1012     RMK 1ST003 6ST004 A2988=,- SN SH
20180118_130000.002,0,RJCC,,,,0,20180118130000,-1,-1,-1,-1,360,-1,3,-1,-1,-1,-1,,2500,0,1,2,FEW 3   BKN 4,-1,0,-1,0,1012,RJCC 181300Z 36003KT 2500 BR FEW003 BKN004 M00/M00 Q1012 RMK     1ST003 7ST004 A2989=,BR
20180118_133000.001,0,RJCC,,,,0,20180118130000,-1,-1,-1,-1,340,-1,3,-1,-1,-1,-1,,3500,0,1,3,FEW 3   SCT 5   BKN 8,-1,1,-1,1,1012,RJCC 181330Z 34003KT 3500 BR FEW003 SCT005 BKN008 M01/M01     Q1012 RMK 1ST003 3ST005 7ST008 A2990=,BR
20180118_140000.002,0,RJCC,,,,0,20180118140000,-1,-1,-1,-1,340,-1,8,-1,-1,-1,-1,,4000,2,2,3,FEW 3   BKN 5   BKN 8,-1,2,-1,2,1012,RJCC 181400Z 34008KT 4000 R19R/P2000N R19L/P2000N -SHSN BR     FEW003 BKN005 BKN008 M02/M02 Q1012 RMK 1ST003 5ST005           6ST008 A2991=,- SN SH; BR
20180118_143000.001,0,RJCC,,,,0,20180118140000,-1,-1,-1,-1,330,-1,8,-1,-1,-1,-1,,6000,0,1,3,FEW 5   SCT 8   BKN 50,-1,1,-1,2,1013,RJCC 181430Z 33008KT 6000 -SHSN FEW005 SCT008 BKN050 M01/M02     Q1013 RMK 1ST005 3ST008 5CU050 A2991=,- SN SH
20180118_150000.002,0,RJCC,,,,0,20180118150000,-1,-1,-1,-1,340,-1,7,-1,-1,-1,-1,,5000,0,1,2,FEW 8   BKN 35,-1,1,-1,1,1013,RJCC 181500Z 34007KT 5000 -SHSN FEW008 BKN035 M01/M01 Q1013     RMK 1ST008 7CU035 A2992=,- SN SH
20180118_153000.001,0,RJCC,,,,0,20180118150000,-1,-1,-1,-1,330,-1,5,-1,-1,-1,-1,,1600,0,1,3,FEW 5   SCT 8   BKN 35,-1,0,-1,1,1013,RJCC 181530Z 33005KT 1600 -SHSN FEW005 SCT008 BKN035 M00/M01     Q1013 RMK 1ST005 3ST008 7CU035 A2992=,- SN SH
20180118_160000.002,0,RJCC,,,,0,20180118160000,-1,-1,-1,-1,340,-1,11,-1,-1,-1,-1,,1800,2,1,3,FEW 3   SCT 5   BKN 8,-1,1,-1,1,1013,RJCC 181600Z 34011KT 1800 R01L/P2000N R01R/P2000N -SHSN FEW003     SCT005 BKN008 M01/M01 Q1013 RMK 1ST003 3ST005 6ST008           A2993=,- SN SH
20180118_163000.001,0,RJCC,,,,0,20180118160000,-1,-1,-1,-1,350,-1,10,-1,-1,-1,-1,,8000,0,1,3,FEW 5   SCT 8   BKN 10,-1,1,-1,1,1013,RJCC 181630Z 35010KT 8000 -SHSN FEW005 SCT008 BKN010 M01/M01     Q1013 RMK 1ST005 3ST008 6ST010 A2993=,- SN SH
20180118_170000.002,0,RJCC,,,,0,20180118170000,-1,-1,-1,-1,360,-1,6,-1,-1,-1,-1,,8000,0,0,2,FEW 5   BKN 9,-1,4,-1,4,1014,RJCC 181700Z 36006KT 8000 FEW005 BKN009 M04/M04 Q1014 RMK     1ST005 7ST009 A2995=,
20180118_173000.001,0,RJCC,,,,0,20180118170000,-1,-1,-1,-1,360,-1,8,-1,-1,-1,-1,,9999,0,0,2,FEW 5   BKN 8,-1,3,-1,4,1014,RJCC 181730Z 36008KT 9999 FEW005 BKN008 M03/M04 Q1014 RMK     1ST005 6ST008 A2995=,
20180118_180000.002,0,RJCC,,,,0,20180118180000,-1,-1,-1,-1,10,-1,8,-1,-1,-1,-1,,8000,0,0,2,FEW 5   BKN 10,-1,1,-1,2,1014,RJCC 181800Z 01008KT 8000 FEW005 BKN010 M01/M02 Q1014 RMK     1ST005 7ST010 A2996=,
20180118_183000.001,0,RJCC,,,,0,20180118180000,-1,-1,-1,-1,330,-1,6,-1,-1,-1,-1,,9999,0,0,2,FEW 5   BKN 14,-1,3,-1,4,1014,RJCC 181830Z 33006KT 9999 FEW005 BKN014 M03/M04 Q1014 RMK     1ST005 5ST014 A2996=,
20180118_190000.002,0,RJCC,,,,0,20180118190000,-1,-1,-1,-1,350,-1,7,-1,-1,-1,-1,,9999,0,1,2,FEW 10   BKN 30,-1,3,-1,4,1014,RJCC 181900Z 35007KT 9999 -SHSN FEW010 BKN030 M03/M04 Q1014     RMK 1ST010 5CU030 A2996=,- SN SH
20180118_193000.001,0,RJCC,,,,0,20180118190000,-1,-1,-1,-1,320,-1,6,-1,-1,-1,-1,,9999,0,1,3,FEW 10   SCT 30   BKN 50,-1,3,-1,4,1015,RJCC 181930Z 32006KT 9999 -SHSN FEW010 SCT030 BKN050 M03/M04     Q1015 RMK 1ST010 3CU030 6CU050 A2997=,- SN SH
20180118_200000.002,0,RJCC,,,,0,20180118200000,-1,-1,-1,-1,320,-1,6,-1,-1,-1,-1,,9999,0,0,2,FEW 10   BKN 45,-1,4,-1,5,1015,RJCC 182000Z 32006KT 9999 FEW010 BKN045 M04/M05 Q1015 RMK     1ST010 5CU045 A2998=,
20180118_203000.001,0,RJCC,,,,0,20180118200000,-1,-1,-1,-1,310,-1,4,-1,-1,280,340,,9999,0,0,2,FEW 10   BKN 50,-1,4,-1,5,1015,RJCC 182030Z 31004KT 280V340 9999 FEW010 BKN050 M04/M05 Q1015     RMK 1ST010 6CU050 A3000=,
20180118_210000.003,0,RJCC,,,,0,20180118210000,-1,-1,-1,-1,330,-1,5,-1,-1,-1,-1,,9999,0,1,2,FEW 10   BKN 45,-1,4,-1,7,1016,RJCC 182100Z 33005KT 9999 -SHSN FEW010 BKN045 M04/M07 Q1016     RMK 1ST010 5CU045 A3000=,- SN SH
20180118_213000.001,0,RJCC,,,,0,20180118210000,-1,-1,-1,-1,999,-1,1,-1,-1,-1,-1,,9999,0,1,2,FEW 10   BKN 50,-1,5,-1,5,1016,RJCC 182130Z VRB01KT 9999 -SHSN FEW010 BKN050 M05/M05 Q1016     RMK 1ST010 7CU050 A3002=,- SN SH
20180118_220000.002,0,RJCC,,,,0,20180118220000,-1,-1,-1,-1,340,-1,6,-1,-1,-1,-1,,9999,0,0,2,FEW 10   BKN 50,-1,6,-1,6,1016,RJCC 182200Z 34006KT 9999 FEW010 BKN050 M06/M06 Q1016 RMK     1ST010 7CU050 A3002=,
20180118_223000.002,0,RJCC,,,,0,20180118220000,-1,-1,-1,-1,320,-1,9,-1,-1,-1,-1,,9999,0,1,3,FEW 10   BKN 40   BKN 60,-1,3,-1,5,1017,RJCC 182230Z 32009KT 9999 -SHSN FEW010 BKN040 BKN060 M03/M05     Q1017 RMK 1ST010 5CU040 7CU060 A3004=,- SN SH
20180118_230000.003,0,RJCC,,,,0,20180118230000,-1,-1,-1,-1,300,-1,11,-1,-1,-1,-1,,9999,0,0,3,FEW 10   SCT 40   BKN 60,-1,2,-1,6,1017,RJCC 182300Z 30011KT 9999 FEW010 SCT040 BKN060 M02/M06 Q1017     RMK 1ST010 3CU040 7CU060 A3005=,
20180118_233000.001,0,RJCC,,,,0,20180118230000,-1,-1,-1,-1,300,-1,11,-1,-1,-1,-1,,9999,0,0,2,FEW 10   BKN 60,-1,2,-1,7,1017,RJCC 182330Z 30011KT 9999 FEW010 BKN060 M02/M07 Q1017 RMK     1ST010 6CU060 A3005=,
20180119_000000.002,0,RJCC,,,,0,20180119000000,-1,-1,-1,-1,310,-1,11,-1,-1,-1,-1,,9999,0,0,1,FEW 10,-1,2,-1,7,1017,RJCC 190000Z 31011KT 9999 FEW010 M02/M07 Q1017 RMK 1ST010     A3005=,
20180119_003000.001,0,RJCC,,,,0,20180119000000,-1,-1,-1,-1,310,-1,12,-1,-1,-1,-1,,9999,0,0,1,FEW 15,-1,1,-1,8,1017,RJCC 190030Z 31012KT 9999 FEW015 M01/M08 Q1017 RMK 1ST015     A3006=,
20180119_010000.003,0,RJCC,,,,0,20180119010000,-1,-1,-1,-1,310,-1,13,-1,-1,-1,-1,,9999,0,0,1,FEW 15,-1,1,-1,8,1018,RJCC 190100Z 31013KT 9999 FEW015 M01/M08 Q1018 RMK 1ST015     A3006=,
20180119_013000.001,0,RJCC,,,,0,20180119010000,-1,-1,-1,-1,320,-1,14,-1,-1,-1,-1,,9999,0,0,1,FEW 15,-1,1,-1,8,1018,RJCC 190130Z 32014KT 9999 FEW015 M01/M08 Q1018 RMK 1ST015     A3006=,
20180119_020000.002,0,RJCC,,,,0,20180119020000,-1,-1,-1,-1,330,-1,12,-1,-1,-1,-1,,9999,0,0,1,FEW 20,-1,0,-1,8,1017,RJCC 190200Z 33012KT 9999 FEW020 M00/M08 Q1017 RMK 1CU020     A3005=,
20180119_023000.001,0,RJCC,,,,0,20180119020000,-1,-1,-1,-1,330,-1,12,-1,-1,-1,-1,,9999,0,0,1,FEW 20,-1,0,-1,8,1018,RJCC 190230Z 33012KT 9999 FEW020 M00/M08 Q1018 RMK 1CU020     A3006=,
20180119_030000.002,0,RJCC,,,,0,20180119030000,-1,-1,-1,-1,360,-1,10,-1,-1,-1,-1,,9999,0,0,2,FEW 15   SCT 40,-1,1,-1,6,1017,RJCC 190300Z 36010KT 9999 FEW015 SCT040 M01/M06 Q1017 RMK     1ST015 4CU040 A3005=,
20180119_033000.001,0,RJCC,,,,0,20180119030000,-1,-1,-1,-1,350,-1,13,-1,-1,-1,-1,,9999,0,0,2,FEW 15   SCT 50,-1,1,-1,6,1017,RJCC 190330Z 35013KT 9999 FEW015 SCT050 M01/M06 Q1017 RMK     1ST015 3CU050 A3005=,
20180119_040000.002,0,RJCC,,,,0,20180119040000,-1,-1,-1,-1,360,-1,11,-1,-1,-1,-1,,9999,0,0,2,FEW 20   SCT 50,-1,1,-1,6,1017,RJCC 190400Z 36011KT 9999 FEW020 SCT050 M01/M06 Q1017 RMK     1CU020 4CU050 A3005=,
20180119_043000.001,0,RJCC,,,,0,20180119040000,-1,-1,-1,-1,10,-1,11,-1,-1,-1,-1,,9999,0,0,2,FEW 20   BKN 50,-1,2,-1,5,1017,RJCC 190430Z 01011KT 9999 FEW020 BKN050 M02/M05 Q1017 RMK     1CU020 5CU050 A3005=,
20180119_050000.003,0,RJCC,,,,0,20180119050000,-1,-1,-1,-1,350,-1,14,-1,-1,-1,-1,,9999,0,0,1,FEW 20,-1,1,-1,8,1017,RJCC 190500Z 35014KT 9999 FEW020 M01/M08 Q1017 RMK 1CU020     A3006=,
20180119_053000.001,0,RJCC,,,,0,20180119050000,-1,-1,-1,-1,360,-1,10,-1,-1,-1,-1,,9999,0,0,1,FEW 20,-1,2,-1,9,1018,RJCC 190530Z 36010KT 9999 FEW020 M02/M09 Q1018 RMK 1CU020     A3006=,
20180119_060000.002,0,RJCC,,,,0,20180119060000,-1,-1,-1,-1,10,-1,10,-1,-1,-1,-1,,9999,0,0,1,FEW 20,-1,2,-1,8,1018,RJCC 190600Z 01010KT 9999 FEW020 M02/M08 Q1018 RMK 1CU020     A3007=,
20180119_063000.001,0,RJCC,,,,0,20180119060000,-1,-1,-1,-1,10,-1,9,-1,-1,-1,-1,,9999,0,0,1,FEW 20,-1,2,-1,9,1018,RJCC 190630Z 01009KT 9999 FEW020 M02/M09 Q1018 RMK 1CU020     A3007=,
20180119_070000.002,0,RJCC,,,,0,20180119070000,-1,-1,-1,-1,10,-1,8,-1,-1,-1,-1,,9999,0,0,1,FEW 20,-1,3,-1,10,1018,RJCC 190700Z 01008KT 9999 FEW020 M03/M10 Q1018 RMK 1CU020     A3007=,
20180119_073000.001,0,RJCC,,,,0,20180119070000,-1,-1,-1,-1,20,-1,7,-1,-1,-1,-1,,9999,0,0,1,FEW 30,-1,3,-1,8,1018,RJCC 190730Z 02007KT 9999 FEW030 M03/M08 Q1018 RMK 1CU030     A3008=,
20180119_080000.002,0,RJCC,,,,0,20180119080000,-1,-1,-1,-1,40,-1,4,-1,-1,-1,-1,,9999,0,0,1,FEW 30,-1,4,-1,8,1019,RJCC 190800Z 04004KT 9999 FEW030 M04/M08 Q1019 RMK 1CU030     A3009=,
20180119_083000.001,0,RJCC,,,,0,20180119080000,-1,-1,-1,-1,20,-1,5,-1,-1,-1,-1,,9999,0,0,1,FEW 30,-1,5,-1,8,1019,RJCC 190830Z 02005KT 9999 FEW030 M05/M08 Q1019 RMK 1CU030     A3010=,
20180119_090000.003,0,RJCC,,,,0,20180119090000,-1,-1,-1,-1,30,-1,5,-1,-1,-1,-1,,9999,0,0,1,FEW 30,-1,4,-1,7,1019,RJCC 190900Z 03005KT 9999 FEW030 M04/M07 Q1019 RMK 1CU030     A3010=,
20180119_093000.001,0,RJCC,,,,0,20180119090000,-1,-1,-1,-1,20,-1,4,-1,-1,-1,-1,,9999,0,0,1,FEW 30,-1,5,-1,7,1019,RJCC 190930Z 02004KT 9999 FEW030 M05/M07 Q1019 RMK 1CU030     A3009=,
20180119_100000.002,0,RJCC,,,,0,20180119100000,-1,-1,-1,-1,10,-1,4,-1,-1,-1,-1,,9999,0,0,1,FEW 30,-1,6,-1,8,1019,RJCC 191000Z 01004KT 9999 FEW030 M06/M08 Q1019 RMK 1CU030     A3009=,
20180119_103000.001,0,RJCC,,,,0,20180119100000,-1,-1,-1,-1,340,-1,3,-1,-1,320,20,,9999,0,0,1,FEW 30,-1,5,-1,7,1019,RJCC 191030Z 34003KT 320V020 9999 FEW030 M05/M07 Q1019 RMK     1CU030 A3010=,
20180119_110000.002,0,RJCC,,,,0,20180119110000,-1,-1,-1,-1,999,-1,2,-1,-1,-1,-1,,9999,0,0,2,FEW 30   SCT 45,-1,9,-1,9,1019,RJCC 191100Z VRB02KT 9999 FEW030 SCT045 M09/M09 Q1019 RMK     1CU030 4CU045 A3010=,
20180119_113000.001,0,RJCC,,,,0,20180119110000,-1,-1,-1,-1,210,-1,3,-1,-1,180,260,,9999,0,0,2,FEW 30   BKN 50,-1,6,-1,7,1019,RJCC 191130Z 21003KT 180V260 9999 FEW030 BKN050 M06/M07 Q1019     RMK 1CU030 6CU050 A3010=,
20180119_120000.003,0,RJCC,,,,0,20180119120000,-1,-1,-1,-1,180,-1,3,-1,-1,-1,-1,,9999,0,0,2,FEW 30   BKN 50,-1,5,-1,7,1019,RJCC 191200Z 18003KT 9999 FEW030 BKN050 M05/M07 Q1019 RMK     1CU030 6CU050 A3010=,
20180119_123000.001,0,RJCC,,,,0,20180119120000,-1,-1,-1,-1,80,-1,3,-1,-1,-1,-1,,9999,0,0,2,FEW 30   BKN 45,-1,6,-1,7,1019,RJCC 191230Z 08003KT 9999 FEW030 BKN045 M06/M07 Q1019 RMK     1CU030 7CU045 A3010=,
20180119_130000.002,0,RJCC,,,,0,20180119130000,-1,-1,-1,-1,90,-1,3,-1,-1,70,170,,9999,0,0,2,FEW 30   BKN 45,-1,6,-1,7,1019,RJCC 191300Z 09003KT 070V170 9999 FEW030 BKN045 M06/M07 Q1019     RMK 1CU030 7CU045 A3010=,
20180119_133000.001,0,RJCC,,,,0,20180119130000,-1,-1,-1,-1,999,-1,1,-1,-1,-1,-1,,9999,0,0,2,FEW 30   BKN 45,-1,6,-1,7,1019,RJCC 191330Z VRB01KT 9999 FEW030 BKN045 M06/M07 Q1019 RMK     1CU030 7CU045 A3010=,
20180119_140000.002,0,RJCC,,,,0,20180119140000,-1,-1,-1,-1,999,-1,2,-1,-1,-1,-1,,9999,0,0,2,FEW 30   BKN 45,-1,6,-1,7,1019,RJCC 191400Z VRB02KT 9999 FEW030 BKN045 M06/M07 Q1019 RMK     1CU030 5CU045 A3009=,
20180119_143000.001,0,RJCC,,,,0,20180119140000,-1,-1,-1,-1,140,-1,2,-1,-1,-1,-1,,9999,0,0,2,FEW 30   SCT 45,-1,8,-1,9,1019,RJCC 191430Z 14002KT 9999 FEW030 SCT045 M08/M09 Q1019 RMK     1CU030 3CU045 A3009=,
20180119_150000.002,0,RJCC,,,,0,20180119150000,-1,-1,-1,-1,150,-1,3,-1,-1,-1,-1,,9999,0,0,2,FEW 30   BKN 45,-1,9,-1,9,1018,RJCC 191500Z 15003KT 9999 FEW030 BKN045 M09/M09 Q1018 RMK     1CU030 5CU045 A3009=,
20180119_153000.001,0,RJCC,,,,0,20180119150000,-1,-1,-1,-1,160,-1,2,-1,-1,-1,-1,,9999,0,0,2,FEW 30   BKN 45,-1,10,-1,11,1018,RJCC 191530Z 16002KT 9999 FEW030 BKN045 M10/M11 Q1018 RMK     1CU030 5CU045 A3008=,
20180119_160000.002,0,RJCC,,,,0,20180119160000,-1,-1,-1,-1,190,-1,2,-1,-1,-1,-1,,9999,0,0,2,FEW 30   SCT 40,-1,11,-1,11,1019,RJCC 191600Z 19002KT 9999 FEW030 SCT040 M11/M11 Q1019 RMK     1CU030 4CU040 A3009=,
20180119_163000.001,0,RJCC,,,,0,20180119160000,-1,-1,-1,-1,150,-1,3,-1,-1,100,190,,9999,0,0,2,FEW 30   BKN 40,-1,11,-1,11,1019,RJCC 191630Z 15003KT 100V190 9999 FEW030 BKN040 M11/M11 Q1019     RMK 1CU030 5CU040 A3009=,
20180119_170000.002,0,RJCC,,,,0,20180119170000,-1,-1,-1,-1,130,-1,3,-1,-1,-1,-1,,9999,0,0,2,FEW 30   BKN 40,-1,10,-1,11,1018,RJCC 191700Z 13003KT 9999 FEW030 BKN040 M10/M11 Q1018 RMK     1CU030 5CU040 A3009=,
20180119_173000.001,0,RJCC,,,,0,20180119170000,-1,-1,-1,-1,999,-1,2,-1,-1,-1,-1,,9999,0,0,2,FEW 30   BKN 50,-1,9,-1,10,1018,RJCC 191730Z VRB02KT 9999 FEW030 BKN050 M09/M10 Q1018 RMK     1CU030 7CU050 A3009=,
20180119_180000.003,0,RJCC,,,,0,20180119180000,-1,-1,-1,-1,180,-1,5,-1,-1,-1,-1,,9999,0,0,2,FEW 30   SCT 45,-1,10,-1,11,1018,RJCC 191800Z 18005KT 9999 FEW030 SCT045 M10/M11 Q1018 RMK     1CU030 4CU045 A3008=,
20180119_183000.001,0,RJCC,,,,0,20180119180000,-1,-1,-1,-1,170,-1,3,-1,-1,-1,-1,,9999,0,0,2,FEW 30   SCT 50,-1,11,-1,12,1018,RJCC 191830Z 17003KT 9999 FEW030 SCT050 M11/M12 Q1018 RMK     1CU030 4CU050 A3007=,
20180119_190000.003,0,RJCC,,,,0,20180119190000,-1,-1,-1,-1,150,-1,4,-1,-1,-1,-1,,9999,0,0,2,FEW 30   SCT 40,-1,12,-1,13,1018,RJCC 191900Z 15004KT 9999 FEW030 SCT040 M12/M13 Q1018 RMK     1CU030 3CU040 A3006=,
20180119_193000.001,0,RJCC,,,,0,20180119190000,-1,-1,-1,-1,80,-1,3,-1,-1,-1,-1,,9999,0,0,1,FEW 30,-1,12,-1,13,1017,RJCC 191930Z 08003KT 9999 FEW030 M12/M13 Q1017 RMK 1CU030     A3005=,
20180119_200000.002,0,RJCC,,,,0,20180119200000,-1,-1,-1,-1,90,-1,3,-1,-1,-1,-1,,9999,0,0,2,FEW 30   SCT 40,-1,13,-1,14,1017,RJCC 192000Z 09003KT 9999 FEW030 SCT040 M13/M14 Q1017 RMK     1CU030 3CU040 A3005=,
20180119_203000.001,0,RJCC,,,,0,20180119200000,-1,-1,-1,-1,160,-1,3,-1,-1,140,200,,9999,0,0,1,FEW 30,-1,13,-1,14,1017,RJCC 192030Z 16003KT 140V200 9999 FEW030 M13/M14 Q1017 RMK     1CU030 A3005=,
20180119_210000.002,0,RJCC,,,,0,20180119210000,-1,-1,-1,-1,160,-1,4,-1,-1,-1,-1,,9999,0,0,1,FEW 30,-1,14,-1,15,1017,RJCC 192100Z 16004KT 9999 FEW030 M14/M15 Q1017 RMK 1CU030     A3005=,
20180119_213000.001,0,RJCC,,,,0,20180119210000,-1,-1,-1,-1,180,-1,3,-1,-1,-1,-1,,9999,0,0,1,FEW 30,-1,13,-1,15,1017,RJCC 192130Z 18003KT 9999 FEW030 M13/M15 Q1017 RMK 1CU030     A3005=,
20180119_220000.002,0,RJCC,,,,0,20180119220000,-1,-1,-1,-1,180,-1,3,-1,-1,-1,-1,,9999,0,0,1,FEW 30,-1,14,-1,15,1017,RJCC 192200Z 18003KT 9999 FEW030 M14/M15 Q1017 RMK 1CU030     A3005=,
20180119_223000.002,0,RJCC,,,,0,20180119220000,-1,-1,-1,-1,190,-1,2,-1,-1,-1,-1,,9999,0,0,1,FEW 30,-1,13,-1,14,1017,RJCC 192230Z 19002KT 9999 FEW030 M13/M14 Q1017 RMK 1CU030     A3005=,
20180119_230000.002,0,RJCC,,,,0,20180119230000,-1,-1,-1,-1,200,-1,4,-1,-1,-1,-1,,9999,0,0,1,FEW 30,-1,12,-1,14,1017,RJCC 192300Z 20004KT 9999 FEW030 M12/M14 Q1017 RMK 1CU030     A3006=,
20180119_233000.001,0,RJCC,,,,0,20180119230000,-1,-1,-1,-1,170,-1,3,-1,-1,-1,-1,,9999,0,0,2,FEW 30   BKN 100,-1,11,-1,13,1017,RJCC 192330Z 17003KT 9999 FEW030 BKN100 M11/M13 Q1017 RMK     1CU030 6AC100 A3005=,
20180120_000000.002,0,RJCC,,,,0,20180120000000,-1,-1,-1,-1,160,-1,3,-1,-1,-1,-1,,9999,0,0,1,FEW 50,-1,9,-1,10,1017,RJCC 200000Z 16003KT 9999 FEW050 M09/M10 Q1017 RMK 1CU050     A3005=,
20180120_003000.001,0,RJCC,,,,0,20180120000000,-1,-1,-1,-1,160,-1,3,-1,-1,-1,-1,,9999,0,0,1,FEW 50,-1,7,-1,9,1016,RJCC 200030Z 16003KT 9999 FEW050 M07/M09 Q1016 RMK 1CU050     A3003=,
20180120_010000.002,0,RJCC,,,,0,20180120010000,-1,-1,-1,-1,170,-1,5,-1,-1,-1,-1,,9999,0,0,2,FEW 50   BKN 80,-1,4,-1,8,1016,RJCC 200100Z 17005KT 9999 FEW050 BKN080 M04/M08 Q1016 RMK     1CU050 5AC080 A3003=,
20180120_013000.001,0,RJCC,,,,0,20180120010000,-1,-1,-1,-1,170,-1,7,-1,-1,-1,-1,,9999,0,0,3,FEW 50   BKN 90   BKN -9999,-1,3,-1,8,1016,RJCC 200130Z 17007KT 9999 FEW050 BKN090 BKN/// M03/M08 Q1016     RMK 1CU050 5AC090 A3001=,
20180120_020000.003,0,RJCC,,,,0,20180120020000,-1,-1,-1,-1,160,-1,9,-1,-1,-1,-1,,9999,0,0,3,FEW 30   BKN 80   BKN -9999,-1,1,-1,7,1015,RJCC 200200Z 16009KT 9999 FEW030 BKN080 BKN/// M01/M07 Q1015     RMK 1CU030 5AC080 A3000=,
20180120_023000.001,0,RJCC,,,,0,20180120020000,-1,-1,-1,-1,150,-1,9,-1,-1,-1,-1,,9999,0,0,3,FEW 25   SCT 80   BKN -9999,-1,1,-1,8,1015,RJCC 200230Z 15009KT 9999 FEW025 SCT080 BKN/// M01/M08 Q1015     RMK 1CU025 3AC080 A2998=,
20180120_030000.002,0,RJCC,,,,0,20180120030000,-1,-1,-1,-1,170,-1,13,-1,-1,-1,-1,,9999,0,0,3,FEW 25   SCT 35   BKN 60,-1,1,-1,7,1014,RJCC 200300Z 17013KT 9999 FEW025 SCT035 BKN060 M01/M07 Q1014     RMK 1CU025 4CU035 7CU060 A2997=,
20180120_033000.001,0,RJCC,,,,0,20180120030000,-1,-1,-1,-1,160,-1,11,-1,-1,-1,-1,,9999,0,0,3,FEW 25   SCT 35   BKN 80,-1,0,-1,6,1014,RJCC 200330Z 16011KT 9999 FEW025 SCT035 BKN080 M00/M06 Q1014     RMK 1CU025 4CU035 6AC080 A2995=,
20180120_040000.002,0,RJCC,,,,0,20180120040000,-1,-1,-1,-1,140,-1,9,-1,-1,-1,-1,,9999,0,0,3,FEW 25   BKN 80   BKN -9999,-1,0,-1,6,1013,RJCC 200400Z 14009KT 9999 FEW025 BKN080 BKN/// M00/M06 Q1013     RMK 1CU025 5AC080 A2992=,
20180120_043000.001,0,RJCC,,,,0,20180120040000,-1,-1,-1,-1,160,-1,12,-1,-1,-1,-1,,9999,0,0,3,FEW 20   SCT 30   BKN 80,-1,0,-1,6,1013,RJCC 200430Z 16012KT 9999 FEW020 SCT030 BKN080 M00/M06 Q1013     RMK 1CU020 4CU030 7AC080 A2991=,
20180120_050000.002,0,RJCC,,,,0,20180120050000,-1,-1,-1,-1,160,-1,12,-1,-1,-1,-1,,9999,0,0,3,FEW 15   BKN 25   BKN 45,-1,0,-1,6,1012,RJCC 200500Z 16012KT 9999 FEW015 BKN025 BKN045 M00/M06 Q1012     RMK 1ST015 5CU025 7CU045 A2989=,
20180120_053000.001,0,RJCC,,,,0,20180120050000,-1,-1,-1,-1,170,-1,14,-1,-1,-1,-1,,8000,0,1,3,FEW 10   BKN 25   BKN 45,-1,0,-1,4,1012,RJCC 200530Z 17014KT 8000 -SHSN FEW010 BKN025 BKN045 M00/M04     Q1012 RMK 1ST010 6CU025 7CU045 A2990=,- SN SH
20180120_060000.002,0,RJCC,,,,0,20180120060000,-1,-1,-1,-1,160,-1,12,-1,-1,-1,-1,,4000,0,1,3,FEW 10   SCT 15   BKN 25,-1,1,-1,3,1012,RJCC 200600Z 16012KT 4000 -SHSN FEW010 SCT015 BKN025 M01/M03     Q1012 RMK 1ST010 3ST015 7CU025 A2989=,- SN SH
20180120_063000.001,0,RJCC,,,,0,20180120060000,-1,-1,-1,-1,-1,-1,-1,-1,-1,-1,-1,,-1,0,0,0,,0,-1,0,-1,-1,RJCC 200630Z NIL=,
20180120_070000.002,0,RJCC,,,,0,20180120070000,-1,-1,-1,-1,130,-1,9,-1,-1,-1,-1,,1000,2,1,3,FEW 6   BKN 8   BKN 12,-1,1,-1,2,1011,RJCC 200700Z 13009KT 1000 R19R/1400VP2000U R19L/2000U -SHSN     FEW006 BKN008 BKN012 M01/M02 Q1011 RMK 1ST006 5ST008           7ST012 A2986=,- SN SH
20180120_073000.001,0,RJCC,,,,0,20180120070000,-1,-1,-1,-1,140,-1,13,-1,-1,-1,-1,,1200,2,1,3,FEW 4   BKN 6   BKN 10,-1,2,-1,2,1010,RJCC 200730Z 14013KT 1200 R19R/P2000N R19L/P2000N -SHSN FEW004     BKN006 BKN010 M02/M02 Q1010 RMK 1ST004 5ST006 7ST010           A2984=,- SN SH
20180120_080000.002,0,RJCC,,,,0,20180120080000,-1,-1,-1,-1,140,-1,13,-1,-1,-1,-1,,700,2,1,1,VV 5,-1,2,-1,2,1010,RJCC 200800Z 14013KT 0700 R19R/P2000N R19L/P2000N SHSN VV005     M02/M02 Q1010 RMK A2984=,SN SH
20180120_083000.001,0,RJCC,,,,0,20180120080000,-1,-1,-1,-1,140,-1,14,-1,-1,-1,-1,,900,2,1,1,VV 5,-1,1,-1,2,1010,RJCC 200830Z 14014KT 0900 R19R/2000N R19L/P2000N SHSN VV005     M01/M02 Q1010 RMK A2984=,SN SH
20180120_090000.002,0,RJCC,,,,0,20180120090000,-1,-1,-1,-1,180,-1,11,-1,-1,-1,-1,,1000,2,1,1,VV 5,-1,1,-1,2,1010,RJCC 200900Z 18011KT 1000 R19R/P2000N R19L/P2000N -SHSN VV005     M01/M02 Q1010 RMK A2985=,- SN SH
20180120_093000.001,0,RJCC,,,,0,20180120090000,-1,-1,-1,-1,150,-1,12,-1,-1,-1,-1,,2000,0,1,3,FEW 4   BKN 6   BKN 10,-1,1,-1,2,1010,RJCC 200930Z 15012KT 2000 -SHSN FEW004 BKN006 BKN010 M01/M02     Q1010 RMK 1ST004 5ST006 7ST010 A2984=,- SN SH
20180120_100000.002,0,RJCC,,,,0,20180120100000,-1,-1,-1,-1,150,-1,7,-1,-1,130,190,,1500,2,1,3,FEW 4   BKN 6   BKN 10,-1,1,-1,1,1011,RJCC 201000Z 15007KT 130V190 1500 R19R/P2000N R19L/P2000N     -SHSN FEW004 BKN006 BKN010 M01/M01 Q1011 RMK 1ST004           5ST006 7ST010 A2985=,- SN SH
20180120_103000.001,0,RJCC,,,,0,20180120100000,-1,-1,-1,-1,230,-1,4,-1,-1,-1,-1,,9999,0,1,2,FEW 4   SCT 20,-1,0,-1,1,1010,RJCC 201030Z 23004KT 9999 -SHSN FEW004 SCT020 M00/M01 Q1010     RMK 1ST004 4CU020 A2984=,- SN SH
20180120_110000.002,0,RJCC,,,,0,20180120110000,-1,-1,-1,-1,140,-1,4,-1,-1,90,180,,9999,0,0,2,FEW 8   SCT 20,-1,1,-1,2,1011,RJCC 201100Z 14004KT 090V180 9999 FEW008 SCT020 M01/M02 Q1011     RMK 1ST008 4CU020 A2986=,
20180120_113000.001,0,RJCC,,,,0,20180120110000,-1,-1,-1,-1,999,-1,3,-1,-1,-1,-1,,9999,0,0,1,FEW 10,-1,1,-1,5,1011,RJCC 201130Z VRB03KT 9999 FEW010 M01/M05 Q1011 RMK 1ST010     A2987=,
20180120_120000.002,0,RJCC,,,,0,20180120120000,-1,-1,-1,-1,200,-1,5,-1,-1,150,250,,9999,0,0,1,FEW 10,-1,1,-1,8,1011,RJCC 201200Z 20005KT 150V250 9999 FEW010 M01/M08 Q1011 RMK     1ST010 A2987=,
20180120_123000.001,0,RJCC,,,,0,20180120120000,-1,-1,-1,-1,200,-1,4,-1,-1,150,250,,9999,0,0,1,FEW 10,-1,2,-1,7,1011,RJCC 201230Z 20004KT 150V250 9999 FEW010 M02/M07 Q1011 RMK     1ST010 A2987=,
20180120_130000.002,0,RJCC,,,,0,20180120130000,-1,-1,-1,-1,180,-1,8,-1,-1,-1,-1,,9999,0,0,1,FEW 10,-1,3,-1,7,1012,RJCC 201300Z 18008KT 9999 FEW010 M03/M07 Q1012 RMK 1ST010     A2989=,
20180120_133000.001,0,RJCC,,,,0,20180120130000,-1,-1,-1,-1,200,-1,7,-1,-1,-1,-1,,9999,0,0,1,FEW 10,-1,3,-1,7,1012,RJCC 201330Z 20007KT 9999 FEW010 M03/M07 Q1012 RMK 1ST010     A2990=,
20180120_140000.002,0,RJCC,,,,0,20180120140000,-1,-1,-1,-1,190,-1,6,-1,-1,-1,-1,,9999,0,0,1,FEW 10,-1,3,-1,6,1012,RJCC 201400Z 19006KT 9999 FEW010 M03/M06 Q1012 RMK 1ST010     A2989=,
20180120_143000.001,0,RJCC,,,,0,20180120140000,-1,-1,-1,-1,220,-1,5,-1,-1,-1,-1,,9999,0,0,2,FEW 10   BKN 60,-1,4,-1,6,1012,RJCC 201430Z 22005KT 9999 FEW010 BKN060 M04/M06 Q1012 RMK     1ST010 5CU060 A2989=,
20180120_150000.002,0,RJCC,,,,0,20180120150000,-1,-1,-1,-1,260,-1,8,-1,-1,-1,-1,,9999,0,1,2,FEW 10   SCT 50,-1,3,-1,6,1012,RJCC 201500Z 26008KT 9999 -SHSN FEW010 SCT050 M03/M06 Q1012     RMK 1ST010 4CU050 A2989=,- SN SH
20180120_153000.001,0,RJCC,,,,0,20180120150000,-1,-1,-1,-1,270,-1,6,-1,-1,-1,-1,,9999,0,0,1,FEW 10,-1,8,-1,9,1012,RJCC 201530Z 27006KT 9999 FEW010 M08/M09 Q1012 RMK 1ST010     A2990=,
20180120_160000.002,0,RJCC,,,,0,20180120160000,-1,-1,-1,-1,290,-1,5,-1,-1,240,300,,9999,0,1,2,FEW 10   SCT 50,-1,6,-1,7,1012,RJCC 201600Z 29005KT 240V300 9999 -SHSN FEW010 SCT050 M06/M07     Q1012 RMK 1ST010 4CU050 A2991=,- SN SH
20180120_163000.001,0,RJCC,,,,0,20180120160000,-1,-1,-1,-1,280,-1,7,-1,-1,-1,-1,,9999,0,0,2,FEW 10   SCT 50,-1,6,-1,8,1013,RJCC 201630Z 28007KT 9999 FEW010 SCT050 M06/M08 Q1013 RMK     1ST010 3CU050 A2992=,
20180120_170000.002,0,RJCC,,,,0,20180120170000,-1,-1,-1,-1,300,-1,7,-1,-1,-1,-1,,9999,0,1,2,FEW 10   SCT 40,-1,6,-1,9,1013,RJCC 201700Z 30007KT 9999 -SHSN FEW010 SCT040 M06/M09 Q1013     RMK 1ST010 4CU040 A2993=,- SN SH
20180120_173000.001,0,RJCC,,,,0,20180120170000,-1,-1,-1,-1,290,-1,8,-1,-1,-1,-1,,9999,0,1,2,FEW 10   SCT 50,-1,6,-1,8,1013,RJCC 201730Z 29008KT 9999 -SHSN FEW010 SCT050 M06/M08 Q1013     RMK 1ST010 4CU050 A2994=,- SN SH
20180120_180000.002,0,RJCC,,,,0,20180120180000,-1,-1,-1,-1,300,-1,8,-1,-1,-1,-1,,9999,0,1,2,FEW 10   BKN 40,-1,5,-1,8,1014,RJCC 201800Z 30008KT 9999 -SHSN FEW010 BKN040 M05/M08 Q1014     RMK 1ST010 6CU040 A2994=,- SN SH
20180120_183000.001,0,RJCC,,,,0,20180120180000,-1,-1,-1,-1,300,-1,5,-1,-1,-1,-1,,9999,0,0,2,FEW 10   SCT 50,-1,6,-1,8,1014,RJCC 201830Z 30005KT 9999 FEW010 SCT050 M06/M08 Q1014 RMK     1ST010 3CU050 A2994=,
20180120_190000.003,0,RJCC,,,,0,20180120190000,-1,-1,-1,-1,280,-1,3,-1,-1,250,310,,9999,0,0,1,FEW 10,-1,8,-1,10,1013,RJCC 201900Z 28003KT 250V310 9999 FEW010 M08/M10 Q1013 RMK     1ST010 A2994=,
20180120_193000.001,0,RJCC,,,,0,20180120190000,-1,-1,-1,-1,330,-1,3,-1,-1,260,10,,9999,0,0,2,FEW 15   SCT 45,-1,6,-1,11,1013,RJCC 201930Z 33003KT 260V010 9999 FEW015 SCT045 M06/M11 Q1013     RMK 1ST015 3CU045 A2994=,
20180120_200000.002,0,RJCC,,,,0,20180120200000,-1,-1,-1,-1,330,-1,3,-1,-1,300,20,,9999,0,0,2,FEW 15   SCT 45,-1,7,-1,12,1013,RJCC 202000Z 33003KT 300V020 9999 FEW015 SCT045 M07/M12 Q1013     RMK 1ST015 3CU045 A2993=,
20180120_203000.001,0,RJCC,,,,0,20180120200000,-1,-1,-1,-1,999,-1,1,-1,-1,-1,-1,,9999,0,0,1,FEW 15,-1,8,-1,10,1013,RJCC 202030Z VRB01KT 9999 FEW015 M08/M10 Q1013 RMK 1ST015     A2994=,
20180120_210000.002,0,RJCC,,,,0,20180120210000,-1,-1,-1,-1,999,-1,2,-1,-1,-1,-1,,9999,0,0,2,FEW 15   BKN 50,-1,9,-1,10,1014,RJCC 202100Z VRB02KT 9999 FEW015 BKN050 M09/M10 Q1014 RMK     1ST015 6CU050 A2995=,
20180120_213000.001,0,RJCC,,,,0,20180120210000,-1,-1,-1,-1,280,-1,6,-1,-1,-1,-1,,9999,0,0,2,FEW 15   SCT 50,-1,11,-1,12,1014,RJCC 202130Z 28006KT 9999 FEW015 SCT050 M11/M12 Q1014 RMK     1ST015 4CU050 A2995=,
20180120_220000.002,0,RJCC,,,,0,20180120220000,-1,-1,-1,-1,300,-1,8,-1,-1,-1,-1,,9999,0,0,2,FEW 20   SCT 45,-1,11,-1,13,1014,RJCC 202200Z 30008KT 9999 FEW020 SCT045 M11/M13 Q1014 RMK     1CU020 3CU045 A2996=,
20180120_223000.001,0,RJCC,,,,0,20180120220000,-1,-1,-1,-1,-1,-1,-1,-1,-1,-1,-1,,-1,0,0,0,,0,-1,0,-1,-1,RJCC 202230Z NIL=,
20180120_223000.002,1,RJCC,,,,0,20180120220000,-1,-1,-1,-1,310,-1,8,-1,-1,-1,-1,,9999,0,0,2,FEW 20   SCT 50,-1,11,-1,12,1014,RJCC 202230Z 31008KT 9999 FEW020 SCT050 M11/M12 Q1014 RMK     1CU020 3CU050 A2996=,
20180120_230000.002,0,RJCC,,,,0,20180120230000,-1,-1,-1,-1,300,-1,6,-1,-1,-1,-1,,9999,0,0,1,FEW 20,-1,8,-1,13,1014,RJCC 202300Z 30006KT 9999 FEW020 M08/M13 Q1014 RMK 1CU020     A2996=,
20180120_233000.001,0,RJCC,,,,0,20180120230000,-1,-1,-1,-1,290,-1,4,-1,-1,-1,-1,,9999,0,0,1,FEW 20,-1,9,-1,14,1014,RJCC 202330Z 29004KT 9999 FEW020 M09/M14 Q1014 RMK 1CU020     A2996=,
20180121_000000.002,0,RJCC,,,,0,20180121000000,-1,-1,-1,-1,150,-1,3,-1,-1,110,190,,9999,0,0,1,FEW 20,-1,10,-1,14,1014,RJCC 210000Z 15003KT 110V190 9999 FEW020 M10/M14 Q1014 RMK     1CU020 A2996=,
20180121_003000.001,0,RJCC,,,,0,20180121000000,-1,-1,-1,-1,170,-1,4,-1,-1,-1,-1,,9999,0,0,2,FEW 20   SCT 50,-1,6,-1,12,1014,RJCC 210030Z 17004KT 9999 FEW020 SCT050 M06/M12 Q1014 RMK     1CU020 4CU050 A2996=,
20180121_010000.002,0,RJCC,,,,0,20180121010000,-1,-1,-1,-1,999,-1,1,-1,-1,-1,-1,,9999,0,0,2,FEW 20   BKN 45,-1,4,-1,13,1014,RJCC 210100Z VRB01KT 9999 FEW020 BKN045 M04/M13 Q1014 RMK     1CU020 5CU045 A2995=,
20180121_013000.001,0,RJCC,,,,0,20180121010000,-1,-1,-1,-1,250,-1,8,-1,-1,200,290,,9999,0,0,2,FEW 20   BKN 45,-1,4,-1,12,1013,RJCC 210130Z 25008KT 200V290 9999 FEW020 BKN045 M04/M12 Q1013     RMK 1CU020 6CU045 A2994=,
20180121_020000.002,0,RJCC,,,,0,20180121020000,-1,-1,-1,-1,300,-1,4,-1,-1,210,30,,9999,0,1,2,FEW 15   BKN 40,-1,3,-1,12,1013,RJCC 210200Z 30004KT 210V030 9999 -SHSN FEW015 BKN040 M03/M12     Q1013 RMK 1ST015 6CU040 A2992=,- SN SH
20180121_023000.001,0,RJCC,,,,0,20180121020000,-1,-1,-1,-1,320,-1,6,-1,-1,280,360,,9999,0,1,3,FEW 15   BKN 35   BKN 60,-1,4,-1,12,1013,RJCC 210230Z 32006KT 280V360 9999 -SHSN FEW015 BKN035 BKN060     M04/M12 Q1013 RMK 1ST015 6CU035 7CU060 A2991=,- SN SH
20180121_030000.002,0,RJCC,,,,0,20180121030000,-1,-1,-1,-1,999,-1,2,-1,-1,-1,-1,,9999,0,1,3,FEW 15   BKN 30   BKN 50,-1,4,-1,11,1012,RJCC 210300Z VRB02KT 9999 -SHSN FEW015 BKN030 BKN050 M04/M11     Q1012 RMK 1ST015 6CU030 7CU050 A2990=,- SN SH
20180121_033000.001,0,RJCC,,,,0,20180121030000,-1,-1,-1,-1,320,-1,5,-1,-1,270,340,,9999,0,1,3,FEW 15   BKN 30   BKN 50,-1,3,-1,11,1012,RJCC 210330Z 32005KT 270V340 9999 -SHSN FEW015 BKN030 BKN050     M03/M11 Q1012 RMK 1ST015 5CU030 6CU050 A2989=,- SN SH
20180121_040000.003,0,RJCC,,,,0,20180121040000,-1,-1,-1,-1,350,-1,10,-1,-1,-1,-1,,9999,0,1,3,FEW 20   BKN 30   BKN 50,-1,5,-1,10,1012,RJCC 210400Z 35010KT 9999 -SHSN FEW020 BKN030 BKN050 M05/M10     Q1012 RMK 1CU020 6CU030 7CU050 A2989=,- SN SH
20180121_043000.001,0,RJCC,,,,0,20180121040000,-1,-1,-1,-1,360,-1,6,-1,-1,-1,-1,,9999,0,0,2,FEW 20   SCT 50,-1,5,-1,10,1011,RJCC 210430Z 36006KT 9999 FEW020 SCT050 M05/M10 Q1011 RMK     1CU020 4CU050 A2988=,
20180121_050000.002,0,RJCC,,,,0,20180121050000,-1,-1,-1,-1,999,-1,4,-1,-1,-1,-1,,9999,0,0,3,FEW 20   SCT 30   BKN 45,-1,4,-1,11,1012,RJCC 210500Z VRB04KT 9999 FEW020 SCT030 BKN045 M04/M11 Q1012     RMK 1CU020 3CU030 5CU045 A2989=,
20180121_053000.001,0,RJCC,,,,0,20180121050000,-1,-1,-1,-1,330,-1,7,-1,-1,280,350,,9999,0,0,2,FEW 20   SCT 45,-1,4,-1,10,1012,RJCC 210530Z 33007KT 280V350 9999 FEW020 SCT045 M04/M10 Q1012     RMK 1CU020 4CU045 A2990=,
20180121_060000.002,0,RJCC,,,,0,20180121060000,-1,-1,-1,-1,270,-1,14,-1,-1,-1,-1,,9999,0,0,2,FEW 20   SCT 50,-1,5,-1,16,1012,RJCC 210600Z 27014KT 9999 FEW020 SCT050 M05/M16 Q1012 RMK     1CU020 3CU050 A2991=,
20180121_063000.001,0,RJCC,,,,0,20180121060000,-1,-1,-1,-1,270,-1,12,-1,-1,-1,-1,,9999,0,0,2,FEW 20   SCT 50,-1,6,-1,16,1013,RJCC 210630Z 27012KT 9999 FEW020 SCT050 M06/M16 Q1013 RMK     1CU020 3CU050 A2993=,
20180121_070000.002,0,RJCC,,,,0,20180121070000,-1,-1,-1,-1,290,-1,10,-1,-1,-1,-1,,9999,0,1,2,FEW 20   SCT 50,-1,6,-1,17,1013,RJCC 210700Z 29010KT 9999 VCSH FEW020 SCT050 M06/M17 Q1013 RMK     1CU020 4CU050 A2994 SH NW=,VC SH
20180121_073000.001,0,RJCC,,,,0,20180121070000,-1,-1,-1,-1,280,-1,9,-1,-1,-1,-1,,9999,0,1,2,FEW 20   BKN 50,-1,7,-1,16,1014,RJCC 210730Z 28009KT 9999 VCSH FEW020 BKN050 M07/M16 Q1014 RMK     1CU020 5CU050 A2995 SH W-NW=,VC SH
20180121_080000.002,0,RJCC,,,,0,20180121080000,-1,-1,-1,-1,330,-1,12,-1,-1,-1,-1,,4900,0,1,2,FEW 10   BKN 35,-1,7,-1,13,1014,RJCC 210800Z 33012KT 4900 -SHSN FEW010 BKN035 M07/M13 Q1014     RMK 1ST010 6CU035 A2997 9999S=,- SN SH
20180121_083000.001,0,RJCC,,,,0,20180121080000,-1,-1,-1,-1,320,-1,8,-1,-1,-1,-1,,9999,0,1,2,FEW 10   SCT 20,-1,8,-1,12,1015,RJCC 210830Z 32008KT 9999 -SHSN FEW010 SCT020 M08/M12 Q1015     RMK 1ST010 4CU020 A2999=,- SN SH
20180121_090000.002,0,RJCC,,,,0,20180121090000,-1,-1,-1,-1,300,-1,8,-1,-1,-1,-1,,9999,0,1,2,FEW 10   BKN 20,-1,8,-1,14,1015,RJCC 210900Z 30008KT 9999 -SHSN FEW010 BKN020 M08/M14 Q1015     RMK 1ST010 5CU020 A3000=,- SN SH
20180121_093000.001,0,RJCC,,,,0,20180121090000,-1,-1,-1,-1,330,-1,11,-1,-1,-1,-1,,9999,0,1,2,FEW 10   BKN 35,-1,8,-1,14,1016,RJCC 210930Z 33011KT 9999 -SHSN FEW010 BKN035 M08/M14 Q1016     RMK 1ST010 6CU035 A3001=,- SN SH
20180121_100000.002,0,RJCC,,,,0,20180121100000,-1,-1,-1,-1,300,-1,11,-1,-1,250,320,,9999,0,1,3,FEW 10   SCT 20   BKN 40,-1,9,-1,15,1016,RJCC 211000Z 30011KT 250V320 9999 -SHSN FEW010 SCT020 BKN040     M09/M15 Q1016 RMK 1ST010 3CU020 7CU040 A3003=,- SN SH
20180121_103000.001,0,RJCC,,,,0,20180121100000,-1,-1,-1,-1,290,-1,8,-1,-1,260,320,,9999,0,1,2,FEW 15   BKN 60,-1,10,-1,16,1017,RJCC 211030Z 29008KT 260V320 9999 -SHSN FEW015 BKN060 M10/M16     Q1017 RMK 1ST015 6CU060 A3004=,- SN SH
20180121_110000.002,0,RJCC,,,,0,20180121110000,-1,-1,-1,-1,999,-1,5,-1,-1,-1,-1,,9999,0,0,2,FEW 15   SCT 60,-1,10,-1,16,1017,RJCC 211100Z VRB05KT 9999 FEW015 SCT060 M10/M16 Q1017 RMK     1ST015 3CU060 A3004=,
20180121_113000.001,0,RJCC,,,,0,20180121110000,-1,-1,-1,-1,999,-1,2,-1,-1,-1,-1,,9999,0,0,1,FEW 20,-1,11,-1,15,1017,RJCC 211130Z VRB02KT 9999 FEW020 M11/M15 Q1017 RMK 1CU020     A3005=,
20180121_120000.002,0,RJCC,,,,0,20180121120000,-1,-1,-1,-1,200,-1,5,-1,-1,-1,-1,,9999,0,0,1,FEW 20,-1,12,-1,15,1017,RJCC 211200Z 20005KT 9999 FEW020 M12/M15 Q1017 RMK 1CU020     A3005=,
20180121_123000.001,0,RJCC,,,,0,20180121120000,-1,-1,-1,-1,210,-1,6,-1,-1,-1,-1,,9999,0,0,1,FEW 20,-1,11,-1,14,1017,RJCC 211230Z 21006KT 9999 FEW020 M11/M14 Q1017 RMK 1CU020     A3005=,
20180121_130000.003,0,RJCC,,,,0,20180121130000,-1,-1,-1,-1,200,-1,5,-1,-1,-1,-1,,9999,0,0,1,FEW 20,-1,12,-1,15,1017,RJCC 211300Z 20005KT 9999 FEW020 M12/M15 Q1017 RMK 1CU020     A3005=,
20180121_133000.001,0,RJCC,,,,0,20180121130000,-1,-1,-1,-1,200,-1,6,-1,-1,-1,-1,,9999,0,0,1,FEW 20,-1,12,-1,15,1018,RJCC 211330Z 20006KT 9999 FEW020 M12/M15 Q1018 RMK 1CU020     A3006=,
20180121_140000.002,0,RJCC,,,,0,20180121140000,-1,-1,-1,-1,230,-1,10,-1,-1,-1,-1,,9999,0,1,2,FEW 20   SCT 40,-1,11,-1,15,1018,RJCC 211400Z 23010KT 9999 -SHSN FEW020 SCT040 M11/M15 Q1018     RMK 1CU020 3CU040 A3008=,- SN SH
20180121_143000.001,0,RJCC,,,,0,20180121140000,-1,-1,-1,-1,210,-1,9,-1,-1,-1,-1,,9999,0,1,2,FEW 20   BKN 50,-1,10,-1,14,1018,RJCC 211430Z 21009KT 9999 -SHSN FEW020 BKN050 M10/M14 Q1018     RMK 1CU020 5CU050 A3008=,- SN SH
20180121_150000.002,0,RJCC,,,,0,20180121150000,-1,-1,-1,-1,210,-1,6,-1,-1,-1,-1,,9999,0,1,2,FEW 20   BKN 50,-1,10,-1,15,1019,RJCC 211500Z 21006KT 9999 -SHSN FEW020 BKN050 M10/M15 Q1019     RMK 1CU020 6CU050 A3009=,- SN SH
20180121_153000.001,0,RJCC,,,,0,20180121150000,-1,-1,-1,-1,210,-1,4,-1,-1,-1,-1,,9999,0,0,2,FEW 20   SCT 40,-1,10,-1,15,1018,RJCC 211530Z 21004KT 9999 FEW020 SCT040 M10/M15 Q1018 RMK     1CU020 4CU040 A3008=,
20180121_160000.002,0,RJCC,,,,0,20180121160000,-1,-1,-1,-1,200,-1,4,-1,-1,-1,-1,,9999,0,0,2,FEW 20   SCT 40,-1,10,-1,15,1018,RJCC 211600Z 20004KT 9999 FEW020 SCT040 M10/M15 Q1018 RMK     1CU020 3CU040 A3009=,
20180121_163000.001,0,RJCC,,,,0,20180121160000,-1,-1,-1,-1,210,-1,8,-1,-1,-1,-1,,9999,0,0,2,FEW 20   SCT 40,-1,10,-1,15,1019,RJCC 211630Z 21008KT 9999 FEW020 SCT040 M10/M15 Q1019 RMK     1CU020 3CU040 A3009=,
20180121_170000.002,0,RJCC,,,,0,20180121170000,-1,-1,-1,-1,200,-1,6,-1,-1,-1,-1,,9999,0,1,2,FEW 20   SCT 40,-1,11,-1,15,1019,RJCC 211700Z 20006KT 9999 -SHSN FEW020 SCT040 M11/M15 Q1019     RMK 1CU020 4CU040 A3010=,- SN SH
20180121_173000.001,0,RJCC,,,,0,20180121170000,-1,-1,-1,-1,210,-1,6,-1,-1,-1,-1,,9999,0,1,2,FEW 20   SCT 40,-1,11,-1,14,1019,RJCC 211730Z 21006KT 9999 -SHSN FEW020 SCT040 M11/M14 Q1019     RMK 1CU020 4CU040 A3010=,- SN SH
20180121_180000.002,0,RJCC,,,,0,20180121180000,-1,-1,-1,-1,210,-1,7,-1,-1,-1,-1,,9999,0,1,2,FEW 20   SCT 40,-1,10,-1,15,1019,RJCC 211800Z 21007KT 9999 -SHSN FEW020 SCT040 M10/M15 Q1019     RMK 1CU020 4CU040 A3010=,- SN SH
20180121_183000.001,0,RJCC,,,,0,20180121180000,-1,-1,-1,-1,210,-1,7,-1,-1,-1,-1,,9999,0,0,2,FEW 20   SCT 45,-1,10,-1,15,1019,RJCC 211830Z 21007KT 9999 FEW020 SCT045 M10/M15 Q1019 RMK     1CU020 3CU045 A3010=,
20180121_190000.002,0,RJCC,,,,0,20180121190000,-1,-1,-1,-1,210,-1,9,-1,-1,-1,-1,,9999,0,0,2,FEW 20   SCT 45,-1,9,-1,15,1019,RJCC 211900Z 21009KT 9999 FEW020 SCT045 M09/M15 Q1019 RMK     1CU020 3CU045 A3010=,
20180121_193000.001,0,RJCC,,,,0,20180121190000,-1,-1,-1,-1,210,-1,8,-1,-1,-1,-1,,9999,0,0,2,FEW 20   SCT 45,-1,10,-1,15,1019,RJCC 211930Z 21008KT 9999 FEW020 SCT045 M10/M15 Q1019 RMK     1CU020 3CU045 A3011=,
20180121_200000.002,0,RJCC,,,,0,20180121200000,-1,-1,-1,-1,230,-1,3,-1,-1,-1,-1,,9999,0,1,2,FEW 20   BKN 40,-1,9,-1,15,1019,RJCC 212000Z 23003KT 9999 -SHSN FEW020 BKN040 M09/M15 Q1019     RMK 1CU020 5CU040 A3011=,- SN SH
20180121_203000.001,0,RJCC,,,,0,20180121200000,-1,-1,-1,-1,190,-1,4,-1,-1,-1,-1,,9999,0,1,2,FEW 15   BKN 40,-1,9,-1,14,1020,RJCC 212030Z 19004KT 9999 -SHSN FEW015 BKN040 M09/M14 Q1020     RMK 1ST015 5CU040 A3012=,- SN SH
20180121_210000.002,0,RJCC,,,,0,20180121210000,-1,-1,-1,-1,170,-1,5,-1,-1,-1,-1,,9999,0,0,2,FEW 20   SCT 50,-1,10,-1,16,1020,RJCC 212100Z 17005KT 9999 FEW020 SCT050 M10/M16 Q1020 RMK     1CU020 4CU050 A3012=,
20180121_213000.001,0,RJCC,,,,0,20180121210000,-1,-1,-1,-1,190,-1,7,-1,-1,-1,-1,,9999,0,0,1,FEW 20,-1,10,-1,16,1020,RJCC 212130Z 19007KT 9999 FEW020 M10/M16 Q1020 RMK 1CU020     A3013=,
20180121_220000.002,0,RJCC,,,,0,20180121220000,-1,-1,-1,-1,190,-1,6,-1,-1,-1,-1,,9999,0,0,1,FEW 20,-1,9,-1,16,1020,RJCC 212200Z 19006KT 9999 FEW020 M09/M16 Q1020 RMK 1CU020     A3014=,
20180121_223000.002,0,RJCC,,,,0,20180121220000,-1,-1,-1,-1,220,-1,4,-1,-1,-1,-1,,9999,0,0,1,FEW 20,-1,9,-1,16,1020,RJCC 212230Z 22004KT 9999 FEW020 M09/M16 Q1020 RMK 1CU020     A3014=,
20180121_230000.002,0,RJCC,,,,0,20180121230000,-1,-1,-1,-1,210,-1,4,-1,-1,-1,-1,,9999,0,0,1,FEW 20,-1,8,-1,16,1021,RJCC 212300Z 21004KT 9999 FEW020 M08/M16 Q1021 RMK 1CU020     A3015=,
20180121_233000.001,0,RJCC,,,,0,20180121230000,-1,-1,-1,-1,200,-1,7,-1,-1,-1,-1,,9999,0,0,1,FEW 20,-1,7,-1,15,1021,RJCC 212330Z 20007KT 9999 FEW020 M07/M15 Q1021 RMK 1CU020     A3016=,
20180122_000000.002,0,RJCC,,,,0,20180122000000,-1,-1,-1,-1,200,-1,6,-1,-1,-1,-1,,9999,0,0,1,FEW 20,-1,6,-1,15,1021,RJCC 220000Z 20006KT 9999 FEW020 M06/M15 Q1021 RMK 1CU020     A3015=,
20180122_003000.001,0,RJCC,,,,0,20180122000000,-1,-1,-1,-1,200,-1,5,-1,-1,-1,-1,,9999,0,0,1,FEW 20,-1,6,-1,14,1020,RJCC 220030Z 20005KT 9999 FEW020 M06/M14 Q1020 RMK 1CU020     A3014=,
20180122_010000.002,0,RJCC,,,,0,20180122010000,-1,-1,-1,-1,220,-1,5,-1,-1,-1,-1,,9999,0,0,1,FEW 25,-1,6,-1,14,1020,RJCC 220100Z 22005KT 9999 FEW025 M06/M14 Q1020 RMK 1CU025     A3014=,
20180122_013000.001,0,RJCC,,,,0,20180122010000,-1,-1,-1,-1,200,-1,8,-1,-1,-1,-1,,9999,0,0,2,FEW 25   SCT 50,-1,5,-1,14,1021,RJCC 220130Z 20008KT 9999 FEW025 SCT050 M05/M14 Q1021 RMK     1CU025 3CU050 A3015=,
20180122_020000.002,0,RJCC,,,,0,20180122020000,-1,-1,-1,-1,180,-1,6,-1,-1,-1,-1,,9999,0,1,3,FEW 25   SCT 40   BKN 50,-1,5,-1,14,1020,RJCC 220200Z 18006KT 9999 -SHSN FEW025 SCT040 BKN050 M05/M14     Q1020 RMK 1CU025 3CU040 6CU050 A3015=,- SN SH
20180122_023000.001,0,RJCC,,,,0,20180122020000,-1,-1,-1,-1,230,-1,8,-1,-1,200,270,,9999,0,0,3,FEW 25   SCT 30   BKN 50,-1,4,-1,14,1020,RJCC 220230Z 23008KT 200V270 9999 FEW025 SCT030 BKN050 M04/M14     Q1020 RMK 1CU025 3CU030 7CU050 A3013=,
20180122_030000.002,0,RJCC,,,,0,20180122030000,-1,-1,-1,-1,250,-1,6,-1,-1,200,270,,9999,0,0,3,FEW 25   SCT 30   BKN 50,-1,4,-1,15,1020,RJCC 220300Z 25006KT 200V270 9999 FEW025 SCT030 BKN050 M04/M15     Q1020 RMK 1CU025 3CU030 7CU050 A3012=,
20180122_033000.001,0,RJCC,,,,0,20180122030000,-1,-1,-1,-1,200,-1,5,-1,-1,160,230,,9999,0,0,2,FEW 30   BKN 50,-1,4,-1,15,1019,RJCC 220330Z 20005KT 160V230 9999 FEW030 BKN050 M04/M15 Q1019     RMK 2CU030 6CU050 A3011=,
20180122_040000.002,0,RJCC,,,,0,20180122040000,-1,-1,-1,-1,210,-1,4,-1,-1,170,250,,9999,0,0,3,FEW 30   SCT 50   BKN 60,-1,4,-1,14,1019,RJCC 220400Z 21004KT 170V250 9999 FEW030 SCT050 BKN060 M04/M14     Q1019 RMK 1CU030 4CU050 7CU060 A3010=,
20180122_043000.001,0,RJCC,,,,0,20180122040000,-1,-1,-1,-1,210,-1,5,-1,-1,170,250,,9999,0,0,3,FEW 30   SCT 45   BKN 60,-1,4,-1,14,1019,RJCC 220430Z 21005KT 170V250 9999 FEW030 SCT045 BKN060 M04/M14     Q1019 RMK 1CU030 3CU045 7CU060 A3010=,
20180122_050000.002,0,RJCC,,,,0,20180122050000,-1,-1,-1,-1,220,-1,5,-1,-1,190,260,,9999,0,0,3,FEW 30   SCT 45   BKN 80,-1,4,-1,14,1019,RJCC 220500Z 22005KT 190V260 9999 FEW030 SCT045 BKN080 M04/M14     Q1019 RMK 1CU030 3CU045 7AC080 A3010=,
20180122_053000.001,0,RJCC,,,,0,20180122050000,-1,-1,-1,-1,180,-1,5,-1,-1,160,220,,9999,0,0,3,FEW 30   SCT 40   BKN 50,-1,4,-1,13,1019,RJCC 220530Z 18005KT 160V220 9999 FEW030 SCT040 BKN050 M04/M13     Q1019 RMK 1CU030 3CU040 7CU050 A3010=,
20180122_060000.003,0,RJCC,,,,0,20180122060000,-1,-1,-1,-1,150,-1,4,-1,-1,110,180,,9999,0,0,3,FEW 30   SCT 60   BKN -9999,-1,5,-1,12,1019,RJCC 220600Z 15004KT 110V180 9999 FEW030 SCT060 BKN/// M05/M12     Q1019 RMK 1CU030 4CU060 A3010=,
20180122_063000.001,0,RJCC,,,,0,20180122060000,-1,-1,-1,-1,999,-1,2,-1,-1,-1,-1,,9999,0,0,3,FEW 30   SCT 60   BKN -9999,-1,5,-1,13,1019,RJCC 220630Z VRB02KT 9999 FEW030 SCT060 BKN/// M05/M13 Q1019     RMK 1CU030 3CU060 A3009=,
20180122_070000.002,0,RJCC,,,,0,20180122070000,-1,-1,-1,-1,130,-1,2,-1,-1,-1,-1,,9999,0,0,3,FEW 30   SCT 70   BKN -9999,-1,5,-1,13,1018,RJCC 220700Z 13002KT 9999 FEW030 SCT070 BKN/// M05/M13 Q1018     RMK 1CU030 3AC070 A3008=,
20180122_073000.001,0,RJCC,,,,0,20180122070000,-1,-1,-1,-1,999,-1,1,-1,-1,-1,-1,,9999,0,0,2,FEW 30   BKN -9999,-1,6,-1,14,1018,RJCC 220730Z VRB01KT 9999 FEW030 BKN/// M06/M14 Q1018 RMK     1CU030 A3008=,
20180122_080000.003,0,RJCC,,,,0,20180122080000,-1,-1,-1,-1,80,-1,2,-1,-1,-1,-1,,9999,0,0,2,FEW 30   BKN -9999,-1,8,-1,13,1018,RJCC 220800Z 08002KT 9999 FEW030 BKN/// M08/M13 Q1018 RMK     1CU030 A3008=,
20180122_083000.001,0,RJCC,,,,0,20180122080000,-1,-1,-1,-1,0,-1,0,-1,-1,-1,-1,,9999,0,0,2,FEW 30   BKN -9999,-1,7,-1,13,1018,RJCC 220830Z 00000KT 9999 FEW030 BKN/// M07/M13 Q1018 RMK     1CU030 A3008 MOD TURB OBS AT 0800Z TIKYU TO KOJYO BTN           FL270 AND FL210 IN DES B738=,
20180122_090000.002,0,RJCC,,,,0,20180122090000,-1,-1,-1,-1,340,-1,2,-1,-1,-1,-1,,9999,0,0,3,FEW 30   SCT 80   BKN -9999,-1,8,-1,13,1018,RJCC 220900Z 34002KT 9999 FEW030 SCT080 BKN/// M08/M13 Q1018     RMK 1CU030 4AC080 A3009=,
20180122_093000.001,0,RJCC,,,,0,20180122090000,-1,-1,-1,-1,999,-1,2,-1,-1,-1,-1,,9999,0,0,2,FEW 25   BKN -9999,-1,9,-1,14,1018,RJCC 220930Z VRB02KT 9999 FEW025 BKN/// M09/M14 Q1018 RMK     1CU025 A3008=,
20180122_100000.002,0,RJCC,,,,0,20180122100000,-1,-1,-1,-1,110,-1,2,-1,-1,-1,-1,,9999,0,0,2,FEW 25   BKN -9999,-1,9,-1,13,1019,RJCC 221000Z 11002KT 9999 FEW025 BKN/// M09/M13 Q1019 RMK     1CU025 A3009=,
20180122_103000.001,0,RJCC,,,,0,20180122100000,-1,-1,-1,-1,130,-1,1,-1,-1,-1,-1,,9999,0,0,3,FEW 30   SCT 70   BKN -9999,-1,9,-1,12,1019,RJCC 221030Z 13001KT 9999 FEW030 SCT070 BKN/// M09/M12 Q1019     RMK 1CU030 3AC070 A3009=,
20180122_110000.003,0,RJCC,,,,0,20180122110000,-1,-1,-1,-1,0,-1,0,-1,-1,-1,-1,,9999,0,0,3,FEW 30   SCT 70   BKN -9999,-1,9,-1,13,1018,RJCC 221100Z 00000KT 9999 FEW030 SCT070 BKN/// M09/M13 Q1018     RMK 1CU030 3AC070 A3008=,
20180122_113000.001,0,RJCC,,,,0,20180122110000,-1,-1,-1,-1,20,-1,3,-1,-1,-1,-1,,9999,0,0,3,FEW 30   BKN 60   BKN -9999,-1,9,-1,13,1018,RJCC 221130Z 02003KT 9999 FEW030 BKN060 BKN/// M09/M13 Q1018     RMK 1CU030 5SC060 A3006=,
20180122_120000.002,0,RJCC,,,,0,20180122120000,-1,-1,-1,-1,320,-1,1,-1,-1,-1,-1,,9999,0,0,3,FEW 30   BKN 50   BKN -9999,-1,9,-1,12,1017,RJCC 221200Z 32001KT 9999 FEW030 BKN050 BKN/// M09/M12 Q1017     RMK 1CU030 6SC050 A3006=,
20180122_123000.001,0,RJCC,,,,0,20180122120000,-1,-1,-1,-1,320,-1,4,-1,-1,-1,-1,,9999,0,0,2,FEW 30   BKN 45,-1,8,-1,13,1017,RJCC 221230Z 32004KT 9999 FEW030 BKN045 M08/M13 Q1017 RMK     1CU030 7SC045 A3004=,
20180122_130000.003,0,RJCC,,,,0,20180122130000,-1,-1,-1,-1,320,-1,3,-1,-1,-1,-1,,9999,0,0,2,FEW 30   BKN 45,-1,8,-1,12,1017,RJCC 221300Z 32003KT 9999 FEW030 BKN045 M08/M12 Q1017 RMK     1CU030 7SC045 A3003=,
20180122_133000.001,0,RJCC,,,,0,20180122130000,-1,-1,-1,-1,330,-1,5,-1,-1,-1,-1,,9999,0,0,2,FEW 30   BKN 45,-1,7,-1,11,1016,RJCC 221330Z 33005KT 9999 FEW030 BKN045 M07/M11 Q1016 RMK     1CU030 7SC045 A3001=,
20180122_140000.003,0,RJCC,,,,0,20180122140000,-1,-1,-1,-1,350,-1,4,-1,-1,-1,-1,,9999,0,0,2,FEW 30   BKN 45,-1,8,-1,11,1015,RJCC 221400Z 35004KT 9999 FEW030 BKN045 M08/M11 Q1015 RMK     1CU030 7SC045 A3000=,
20180122_143000.001,0,RJCC,,,,0,20180122140000,-1,-1,-1,-1,340,-1,6,-1,-1,-1,-1,,9999,0,0,2,FEW 30   BKN 45,-1,8,-1,12,1015,RJCC 221430Z 34006KT 9999 FEW030 BKN045 M08/M12 Q1015 RMK     1CU030 7SC045 A2998=,
20180122_150000.002,0,RJCC,,,,0,20180122150000,-1,-1,-1,-1,340,-1,6,-1,-1,-1,-1,,9999,0,0,2,FEW 30   BKN 40,-1,7,-1,12,1014,RJCC 221500Z 34006KT 9999 FEW030 BKN040 M07/M12 Q1014 RMK     1CU030 7SC040 A2995=,
20180122_153000.001,0,RJCC,,,,0,20180122150000,-1,-1,-1,-1,350,-1,6,-1,-1,-1,-1,,9999,0,0,2,FEW 30   BKN 40,-1,8,-1,11,1013,RJCC 221530Z 35006KT 9999 FEW030 BKN040 M08/M11 Q1013 RMK     1CU030 7SC040 A2993=,
20180122_160000.002,0,RJCC,,,,0,20180122160000,-1,-1,-1,-1,350,-1,5,-1,-1,-1,-1,,9999,0,0,2,FEW 25   BKN 35,-1,8,-1,11,1013,RJCC 221600Z 35005KT 9999 FEW025 BKN035 M08/M11 Q1013 RMK     1CU025 7SC035 A2992=,
20180122_163000.001,0,RJCC,,,,0,20180122160000,-1,-1,-1,-1,350,-1,6,-1,-1,-1,-1,,9999,0,0,2,FEW 20   BKN 35,-1,8,-1,11,1012,RJCC 221630Z 35006KT 9999 FEW020 BKN035 M08/M11 Q1012 RMK     1CU020 7SC035 A2990=,
20180122_170000.002,0,RJCC,,,,0,20180122170000,-1,-1,-1,-1,360,-1,6,-1,-1,-1,-1,,9999,0,0,2,FEW 20   BKN 30,-1,9,-1,12,1011,RJCC 221700Z 36006KT 9999 FEW020 BKN030 M09/M12 Q1011 RMK     1CU020 7SC030 A2988=,
20180122_173000.001,0,RJCC,,,,0,20180122170000,-1,-1,-1,-1,340,-1,6,-1,-1,-1,-1,,9999,0,0,2,FEW 20   BKN 30,-1,8,-1,12,1011,RJCC 221730Z 34006KT 9999 FEW020 BKN030 M08/M12 Q1011 RMK     1CU020 7SC030 A2985=,
20180122_180000.002,0,RJCC,,,,0,20180122180000,-1,-1,-1,-1,110,-1,5,-1,-1,350,170,,9999,0,0,2,FEW 15   BKN 25,-1,8,-1,11,1010,RJCC 221800Z 11005KT 350V170 9999 FEW015 BKN025 M08/M11 Q1010     RMK 1ST015 7SC025 A2984=,
20180122_183000.001,0,RJCC,,,,0,20180122180000,-1,-1,-1,-1,360,-1,5,-1,-1,-1,-1,,9999,0,0,2,FEW 15   BKN 25,-1,8,-1,11,1009,RJCC 221830Z 36005KT 9999 FEW015 BKN025 M08/M11 Q1009 RMK     1ST015 7SC025 A2982=,
20180122_190000.002,0,RJCC,,,,0,20180122190000,-1,-1,-1,-1,10,-1,3,-1,-1,-1,-1,,9999,0,0,2,FEW 20   BKN 30,-1,8,-1,12,1008,RJCC 221900Z 01003KT 9999 FEW020 BKN030 M08/M12 Q1008 RMK     1CU020 7SC030 A2979=,
20180122_193000.001,0,RJCC,,,,0,20180122190000,-1,-1,-1,-1,10,-1,4,-1,-1,340,50,,9999,0,0,2,FEW 20   BKN 30,-1,8,-1,12,1008,RJCC 221930Z 01004KT 340V050 9999 FEW020 BKN030 M08/M12 Q1008     RMK 1CU020 7SC030 A2977=,
20180122_200000.002,0,RJCC,,,,0,20180122200000,-1,-1,-1,-1,10,-1,3,-1,-1,-1,-1,,9999,0,0,2,FEW 20   BKN 30,-1,8,-1,12,1007,RJCC 222000Z 01003KT 9999 FEW020 BKN030 M08/M12 Q1007 RMK     1CU020 7SC030 A2974=,
20180122_203000.001,0,RJCC,,,,0,20180122200000,-1,-1,-1,-1,330,-1,3,-1,-1,-1,-1,,9999,0,0,3,FEW 20   SCT 35   BKN 70,-1,9,-1,12,1006,RJCC 222030Z 33003KT 9999 FEW020 SCT035 BKN070 M09/M12 Q1006     RMK 1CU020 3CU035 7AC070 A2972=,
20180122_210000.003,0,RJCC,,,,0,20180122210000,-1,-1,-1,-1,360,-1,2,-1,-1,-1,-1,,9999,0,0,2,FEW 20   BKN 70,-1,9,-1,12,1005,RJCC 222100Z 36002KT 9999 FEW020 BKN070 M09/M12 Q1005 RMK     1CU020 7AC070 A2970=,
20180122_213000.001,0,RJCC,,,,0,20180122210000,-1,-1,-1,-1,30,-1,2,-1,-1,-1,-1,,9999,0,0,2,FEW 20   BKN 70,-1,9,-1,12,1005,RJCC 222130Z 03002KT 9999 FEW020 BKN070 M09/M12 Q1005 RMK     1CU020 7AC070 A2969=,
20180122_220000.002,0,RJCC,,,,0,20180122220000,-1,-1,-1,-1,100,-1,2,-1,-1,-1,-1,,9999,0,0,2,FEW 15   BKN 70,-1,9,-1,11,1004,RJCC 222200Z 10002KT 9999 FEW015 BKN070 M09/M11 Q1004 RMK     1ST015 7AC070 A2967=,
20180122_223000.002,0,RJCC,,,,0,20180122220000,-1,-1,-1,-1,170,-1,4,-1,-1,-1,-1,,9999,0,0,2,FEW 15   BKN 70,-1,9,-1,11,1003,RJCC 222230Z 17004KT 9999 FEW015 BKN070 M09/M11 Q1003 RMK     1ST015 7AC070 A2964=,
20180122_230000.003,0,RJCC,,,,0,20180122230000,-1,-1,-1,-1,180,-1,9,-1,-1,-1,-1,,9999,0,0,2,FEW 15   BKN 70,-1,8,-1,11,1003,RJCC 222300Z 18009KT 9999 FEW015 BKN070 M08/M11 Q1003 RMK     1ST015 7AC070 A2962=,
20180122_233000.001,0,RJCC,,,,0,20180122230000,-1,-1,-1,-1,170,-1,9,-1,-1,-1,-1,,9999,0,0,2,FEW 15   BKN 70,-1,5,-1,11,1002,RJCC 222330Z 17009KT 9999 FEW015 BKN070 M05/M11 Q1002 RMK     1ST015 7AC070 A2961=,
20180123_000000.002,0,RJCC,,,,0,20180123000000,-1,-1,-1,-1,150,-1,5,-1,-1,-1,-1,,9999,0,0,2,FEW 15   BKN 70,-1,4,-1,11,1002,RJCC 230000Z 15005KT 9999 FEW015 BKN070 M04/M11 Q1002 RMK     1ST015 7AC070 A2961=,
20180123_003000.001,0,RJCC,,,,0,20180123000000,-1,-1,-1,-1,140,-1,5,-1,-1,-1,-1,,9999,0,0,2,FEW 15   BKN 70,-1,3,-1,10,1001,RJCC 230030Z 14005KT 9999 FEW015 BKN070 M03/M10 Q1001 RMK     1ST015 7AC070 A2958=,
20180123_010000.002,0,RJCC,,,,0,20180123010000,-1,-1,-1,-1,160,-1,7,-1,-1,-1,-1,,9999,0,0,2,FEW 15   BKN 70,-1,3,-1,10,1000,RJCC 230100Z 16007KT 9999 FEW015 BKN070 M03/M10 Q1000 RMK     1ST015 7AC070 A2956=,
20180123_013000.001,0,RJCC,,,,0,20180123010000,-1,-1,-1,-1,140,-1,6,-1,-1,-1,-1,,9999,0,0,2,FEW 15   BKN 70,-1,2,-1,10,1000,RJCC 230130Z 14006KT 9999 FEW015 BKN070 M02/M10 Q1000 RMK     1ST015 6AC070 A2953=,
20180123_020000.002,0,RJCC,,,,0,20180123020000,-1,-1,-1,-1,160,-1,8,-1,-1,-1,-1,,9999,0,0,2,FEW 15   BKN 70,-1,1,-1,10,998,RJCC 230200Z 16008KT 9999 FEW015 BKN070 M01/M10 Q0998 RMK     1ST015 6AC070 A2949 P/FR=,
20180123_023000.001,0,RJCC,,,,0,20180123020000,-1,-1,-1,-1,150,-1,11,-1,-1,-1,-1,,9999,0,0,2,FEW 15   BKN 70,-1,1,-1,9,997,RJCC 230230Z 15011KT 9999 FEW015 BKN070 M01/M09 Q0997 RMK     1ST015 7AC070 A2944 P/FR=,
20180123_030000.003,0,RJCC,,,,0,20180123030000,-1,-1,-1,-1,160,-1,11,-1,-1,-1,-1,,9999,0,0,3,FEW 15   SCT 60   BKN 70,1,0,-1,8,995,RJCC 230300Z 16011KT 9999 FEW015 SCT060 BKN070 00/M08 Q0995     RMK 1ST015 3CU060 7AC070 A2940 P/FR=,
20180123_033000.001,0,RJCC,,,,0,20180123030000,-1,-1,-1,-1,150,-1,7,-1,-1,-1,-1,,9999,0,0,2,FEW 15   BKN 70,1,1,-1,8,995,RJCC 230330Z 15007KT 9999 FEW015 BKN070 01/M08 Q0995 RMK     1ST015 7AC070 A2938=,
20180123_040000.003,0,RJCC,,,,0,20180123040000,-1,-1,-1,-1,160,-1,10,-1,-1,-1,-1,,9999,0,0,3,FEW 15   SCT 60   BKN 70,1,1,-1,7,994,RJCC 230400Z 16010KT 9999 FEW015 SCT060 BKN070 01/M07 Q0994     RMK 1ST015 3CU060 7AC070 A2935=,
20180123_043000.001,0,RJCC,,,,0,20180123040000,-1,-1,-1,-1,140,-1,8,-1,-1,-1,-1,,9999,0,0,3,FEW 15   SCT 60   BKN 70,1,1,-1,6,993,RJCC 230430Z 14008KT 9999 FEW015 SCT060 BKN070 01/M06 Q0993     RMK 1ST015 3CU060 7AC070 A2933=,
20180123_050000.002,0,RJCC,,,,0,20180123050000,-1,-1,-1,-1,140,-1,6,-1,-1,-1,-1,,9999,0,0,3,FEW 15   SCT 50   BKN 60,1,2,-1,5,992,RJCC 230500Z 14006KT 9999 FEW015 SCT050 BKN060 02/M05 Q0992     RMK 1ST015 3CU050 7CU060 A2931=,
20180123_053000.001,0,RJCC,,,,0,20180123050000,-1,-1,-1,-1,180,-1,11,-1,-1,-1,-1,,9999,0,0,3,FEW 15   SCT 50   BKN 60,1,2,-1,5,993,RJCC 230530Z 18011KT 9999 FEW015 SCT050 BKN060 02/M05 Q0993     RMK 1ST015 3CU050 7CU060 A2932=,
20180123_060000.003,0,RJCC,,,,0,20180123060000,-1,-1,-1,-1,160,-1,16,-1,26,130,200,,9999,0,1,3,FEW 15   SCT 35   BKN 45,1,2,-1,6,993,RJCC 230600Z 16016G26KT 130V200 9999 -SHSN FEW015 SCT035     BKN045 02/M06 Q0993 RMK 1ST015 3CU035 7CU045 A2932=,- SN SH
20180123_063000.001,0,RJCC,,,,0,20180123060000,-1,-1,-1,-1,130,-1,16,-1,-1,-1,-1,,9999,0,0,3,FEW 15   SCT 30   BKN 50,1,2,-1,7,992,RJCC 230630Z 13016KT 9999 FEW015 SCT030 BKN050 02/M07 Q0992     RMK 1ST015 3CU030 6CU050 A2930=,
20180123_070000.002,0,RJCC,,,,0,20180123070000,-1,-1,-1,-1,140,-1,15,-1,-1,-1,-1,,9999,0,0,3,FEW 15   SCT 30   BKN 50,1,2,-1,7,991,RJCC 230700Z 14015KT 9999 FEW015 SCT030 BKN050 02/M07 Q0991     RMK 1ST015 3CU030 7CU050 A2929=,
20180123_073000.001,0,RJCC,,,,0,20180123070000,-1,-1,-1,-1,130,-1,18,-1,-1,-1,-1,,9999,0,1,3,FEW 15   SCT 35   BKN 50,1,2,-1,5,991,RJCC 230730Z 13018KT 9999 -SHSN FEW015 SCT035 BKN050 02/M05     Q0991 RMK 1ST015 3CU035 7CU050 A2927 MOD TURB OBS AT           0702Z OVER CHE BTN 6000FT AND 8000FT IN CMB E170=,- SN SH
20180123_080000.002,0,RJCC,,,,0,20180123080000,-1,-1,-1,-1,150,-1,18,-1,-1,-1,-1,,9999,0,1,3,FEW 10   BKN 35   BKN 50,1,2,-1,4,992,RJCC 230800Z 15018KT 9999 -SHSN FEW010 BKN035 BKN050 02/M04     Q0992 RMK 1ST010 5CU035 7CU050 A2929=,- SN SH
20180123_083000.001,0,RJCC,,,,0,20180123080000,-1,-1,-1,-1,140,-1,18,-1,-1,-1,-1,,1400,2,1,3,FEW 7   BKN 10   BKN 20,1,0,-1,2,992,RJCC 230830Z 14018KT 1400 R19R/P2000N R19L/P2000N -SHSN FEW007     BKN010 BKN020 00/M02 Q0992 RMK 1ST007 6ST010 7CU020           A2930=,- SN SH
20180123_090000.002,0,RJCC,,,,0,20180123090000,-1,-1,-1,-1,140,-1,20,-1,-1,-1,-1,,2000,0,1,3,FEW 6   BKN 7   BKN 15,1,0,-1,1,992,RJCC 230900Z 14020KT 2000 -TSSN FEW006 BKN007 BKN015 00/M01     Q0992 RMK 1ST006 5ST007 7ST015 A2931 4000W FBL TS 10KM SW           MOV NE=,- TS   SN
20180123_093000.001,0,RJCC,,,,0,20180123090000,-1,-1,-1,-1,210,-1,19,-1,29,-1,-1,,800,2,1,1,VV 6,-1,1,-1,1,994,RJCC 230930Z 21019G29KT 0800 R19R/1200VP2000U R19L/1000VP2000U     TSSNGS VV006 M01/M01 Q0994 RMK A2936 MOD TS OHD MOV NE           P/RR SNOW PELLETS=,TS   SN GS
20180123_100000.002,0,RJCC,,,,0,20180123100000,-1,-1,-1,-1,180,-1,10,-1,-1,-1,-1,,9999,0,1,3,FEW 6   SCT 12   BKN 25,-1,1,-1,2,994,RJCC 231000Z 18010KT 9999 -SHSN FEW006 SCT012 BKN025 M01/M02     Q0994 RMK 1ST006 3ST012 6CU025 A2937=,- SN SH
20180123_103000.001,0,RJCC,,,,0,20180123100000,-1,-1,-1,-1,250,-1,14,-1,-1,-1,-1,,9999,0,1,2,FEW 10   BKN 150,-1,1,-1,8,995,RJCC 231030Z 25014KT 9999 -SHSN FEW010 BKN150 M01/M08 Q0995     RMK 1ST010 5AC150 A2941 P/RR=,- SN SH
20180123_110000.002,0,RJCC,,,,0,20180123110000,-1,-1,-1,-1,230,-1,12,-1,-1,-1,-1,,9999,0,0,2,FEW 15   SCT 150,-1,1,-1,9,996,RJCC 231100Z 23012KT 9999 FEW015 SCT150 M01/M09 Q0996 RMK     1ST015 3AC150 A2944=,
20180123_113000.001,0,RJCC,,,,0,20180123110000,-1,-1,-1,-1,220,-1,12,-1,-1,-1,-1,,9999,0,0,2,FEW 15   SCT 100,-1,2,-1,9,997,RJCC 231130Z 22012KT 9999 FEW015 SCT100 M02/M09 Q0997 RMK     1ST015 3AC100 A2946=,
20180123_120000.002,0,RJCC,,,,0,20180123120000,-1,-1,-1,-1,220,-1,8,-1,-1,-1,-1,,9999,0,0,2,FEW 15   BKN 160,-1,2,-1,9,998,RJCC 231200Z 22008KT 9999 FEW015 BKN160 M02/M09 Q0998 RMK     1ST015 5AC160 A2947=,
20180123_123000.001,0,RJCC,,,,0,20180123120000,-1,-1,-1,-1,190,-1,6,-1,-1,-1,-1,,9999,0,0,2,FEW 15   SCT 50,-1,3,-1,10,998,RJCC 231230Z 19006KT 9999 FEW015 SCT050 M03/M10 Q0998 RMK     1ST015 3CU050 A2948=,
20180123_130000.002,0,RJCC,,,,0,20180123130000,-1,-1,-1,-1,230,-1,8,-1,-1,-1,-1,,9999,0,1,2,FEW 15   SCT 45,-1,3,-1,10,998,RJCC 231300Z 23008KT 9999 VCSH FEW015 SCT045 M03/M10 Q0998 RMK     1ST015 3CU045 A2949 SH SW=,VC SH
20180123_133000.001,0,RJCC,,,,0,20180123130000,-1,-1,-1,-1,240,-1,11,-1,-1,-1,-1,,9999,0,0,1,FEW 15,-1,3,-1,11,999,RJCC 231330Z 24011KT 9999 FEW015 M03/M11 Q0999 RMK 1ST015     A2950=,
20180123_140000.002,0,RJCC,,,,0,20180123140000,-1,-1,-1,-1,250,-1,9,-1,-1,-1,-1,,9999,0,1,2,FEW 15   SCT 40,-1,4,-1,11,999,RJCC 231400Z 25009KT 9999 VCSH FEW015 SCT040 M04/M11 Q0999 RMK     1ST015 3CU040 A2951 SH SW=,VC SH
20180123_143000.001,0,RJCC,,,,0,20180123140000,-1,-1,-1,-1,220,-1,9,-1,-1,-1,-1,,9999,0,0,1,FEW 15,-1,4,-1,10,999,RJCC 231430Z 22009KT 9999 FEW015 M04/M10 Q0999 RMK 1ST015     A2951=,
20180123_150000.002,0,RJCC,,,,0,20180123150000,-1,-1,-1,-1,200,-1,8,-1,-1,-1,-1,,9999,0,1,2,FEW 15   SCT 40,-1,6,-1,10,999,RJCC 231500Z 20008KT 9999 -SHSN FEW015 SCT040 M06/M10 Q0999     RMK 1ST015 3CU040 A2951=,- SN SH
20180123_153000.001,0,RJCC,,,,0,20180123150000,-1,-1,-1,-1,220,-1,13,-1,-1,-1,-1,,9999,0,1,2,FEW 10   SCT 40,-1,5,-1,8,999,RJCC 231530Z 22013KT 9999 -SHSN FEW010 SCT040 M05/M08 Q0999     RMK 1ST010 4CU040 A2951=,- SN SH
20180123_160000.002,0,RJCC,,,,0,20180123160000,-1,-1,-1,-1,220,-1,13,-1,-1,-1,-1,,9999,0,0,1,FEW 15,-1,6,-1,10,999,RJCC 231600Z 22013KT 9999 FEW015 M06/M10 Q0999 RMK 1ST015     A2952=,
20180123_163000.001,0,RJCC,,,,0,20180123160000,-1,-1,-1,-1,230,-1,14,-1,-1,-1,-1,,9999,0,0,1,FEW 15,-1,6,-1,11,999,RJCC 231630Z 23014KT 9999 FEW015 M06/M11 Q0999 RMK 1ST015     A2951=,
20180123_170000.002,0,RJCC,,,,0,20180123170000,-1,-1,-1,-1,250,-1,9,-1,-1,-1,-1,,9999,0,0,1,FEW 15,-1,6,-1,13,999,RJCC 231700Z 25009KT 9999 FEW015 M06/M13 Q0999 RMK 1ST015     A2951=,
20180123_173000.001,0,RJCC,,,,0,20180123170000,-1,-1,-1,-1,210,-1,7,-1,-1,-1,-1,,9999,0,0,1,FEW 15,-1,7,-1,13,999,RJCC 231730Z 21007KT 9999 FEW015 M07/M13 Q0999 RMK 1ST015     A2951=,
20180123_180000.002,0,RJCC,,,,0,20180123180000,-1,-1,-1,-1,210,-1,10,-1,-1,-1,-1,,9999,0,0,1,FEW 15,-1,7,-1,14,999,RJCC 231800Z 21010KT 9999 FEW015 M07/M14 Q0999 RMK 1ST015     A2952=,
20180123_183000.001,0,RJCC,,,,0,20180123180000,-1,-1,-1,-1,200,-1,8,-1,-1,-1,-1,,9999,0,0,1,FEW 15,-1,8,-1,15,999,RJCC 231830Z 20008KT 9999 FEW015 M08/M15 Q0999 RMK 1ST015     A2951=,
20180123_190000.002,0,RJCC,,,,0,20180123190000,-1,-1,-1,-1,190,-1,6,-1,-1,-1,-1,,9999,0,0,1,FEW 15,-1,10,-1,17,999,RJCC 231900Z 19006KT 9999 FEW015 M10/M17 Q0999 RMK 1ST015     A2951=,
20180123_193000.001,0,RJCC,,,,0,20180123190000,-1,-1,-1,-1,150,-1,5,-1,-1,-1,-1,,9999,0,0,1,FEW 15,-1,12,-1,14,999,RJCC 231930Z 15005KT 9999 FEW015 M12/M14 Q0999 RMK 1ST015     A2952=,
20180123_200000.002,0,RJCC,,,,0,20180123200000,-1,-1,-1,-1,170,-1,5,-1,-1,-1,-1,,9999,0,0,2,FEW 15   SCT 70,-1,11,-1,15,999,RJCC 232000Z 17005KT 9999 FEW015 SCT070 M11/M15 Q0999 RMK     1ST015 3AC070 A2951=,
20180123_203000.001,0,RJCC,,,,0,20180123200000,-1,-1,-1,-1,190,-1,6,-1,-1,-1,-1,,9999,0,0,2,FEW 15   SCT 80,-1,12,-1,14,999,RJCC 232030Z 19006KT 9999 FEW015 SCT080 M12/M14 Q0999 RMK     1ST015 4AC080 A2951=,
20180123_210000.002,0,RJCC,,,,0,20180123210000,-1,-1,-1,-1,200,-1,5,-1,-1,-1,-1,,9999,0,0,1,FEW 15,-1,10,-1,15,999,RJCC 232100Z 20005KT 9999 FEW015 M10/M15 Q0999 RMK 1ST015     A2952=,
20180123_213000.001,0,RJCC,,,,0,20180123210000,-1,-1,-1,-1,180,-1,1,-1,-1,-1,-1,,9999,0,1,2,FEW 10   BKN 40,-1,12,-1,14,999,RJCC 232130Z 18001KT 9999 -SHSN FEW010 BKN040 M12/M14 Q0999     RMK 1ST010 6CU040 A2951 4000SW-W=,- SN SH
20180123_220000.002,0,RJCC,,,,0,20180123220000,-1,-1,-1,-1,160,-1,6,-1,-1,-1,-1,,9999,0,0,1,FEW 10,-1,12,-1,14,999,RJCC 232200Z 16006KT 9999 FEW010 M12/M14 Q0999 RMK 1ST010     A2951=,
20180123_223000.002,0,RJCC,,,,0,20180123220000,-1,-1,-1,-1,160,-1,2,-1,-1,-1,-1,,9999,0,0,1,FEW 15,-1,13,-1,15,999,RJCC 232230Z 16002KT 9999 FEW015 M13/M15 Q0999 RMK 1ST015     A2951=,
20180123_230000.002,0,RJCC,,,,0,20180123230000,-1,-1,-1,-1,140,-1,4,-1,-1,-1,-1,,9999,0,0,1,FEW 10,-1,13,-1,15,999,RJCC 232300Z 14004KT 9999 FEW010 M13/M15 Q0999 RMK 1ST010     A2952=,
20180123_233000.001,0,RJCC,,,,0,20180123230000,-1,-1,-1,-1,999,-1,2,-1,-1,-1,-1,,9999,0,0,1,FEW 15,-1,11,-1,13,999,RJCC 232330Z VRB02KT 9999 FEW015 M11/M13 Q0999 RMK 1ST015     A2952=,
20180124_000000.002,0,RJCC,,,,0,20180124000000,-1,-1,-1,-1,130,-1,4,-1,-1,-1,-1,,9999,0,0,1,FEW 20,-1,8,-1,13,999,RJCC 240000Z 13004KT 9999 FEW020 M08/M13 Q0999 RMK 1CU020     A2952=,
20180124_003000.001,0,RJCC,,,,0,20180124000000,-1,-1,-1,-1,150,-1,4,-1,-1,-1,-1,,9999,0,0,1,FEW 20,-1,7,-1,14,999,RJCC 240030Z 15004KT 9999 FEW020 M07/M14 Q0999 RMK 1CU020     A2951=,
20180124_010000.003,0,RJCC,,,,0,20180124010000,-1,-1,-1,-1,150,-1,6,-1,-1,-1,-1,,9999,0,0,1,FEW 20,-1,7,-1,14,999,RJCC 240100Z 15006KT 9999 FEW020 M07/M14 Q0999 RMK 1CU020     A2951=,
20180124_013000.001,0,RJCC,,,,0,20180124010000,-1,-1,-1,-1,210,-1,8,-1,-1,-1,-1,,9999,0,0,2,FEW 20   BKN 80,-1,6,-1,16,998,RJCC 240130Z 21008KT 9999 FEW020 BKN080 M06/M16 Q0998 RMK     1CU020 5AC080 A2949=,
20180124_020000.002,0,RJCC,,,,0,20180124020000,-1,-1,-1,-1,150,-1,10,-1,-1,-1,-1,,9999,0,1,3,FEW 15   BKN 35   BKN 80,-1,7,-1,13,998,RJCC 240200Z 15010KT 9999 -SHSN FEW015 BKN035 BKN080 M07/M13     Q0998 RMK 1ST015 5CU035 6AC080 A2948=,- SN SH
20180124_023000.001,0,RJCC,,,,0,20180124020000,-1,-1,-1,-1,150,-1,8,-1,-1,-1,-1,,9999,0,0,3,FEW 15   SCT 35   BKN 80,-1,7,-1,13,998,RJCC 240230Z 15008KT 9999 FEW015 SCT035 BKN080 M07/M13 Q0998     RMK 1ST015 3CU035 6AC080 A2947=,
20180124_030000.002,0,RJCC,,,,0,20180124030000,-1,-1,-1,-1,200,-1,6,-1,-1,160,280,,9999,0,0,3,FEW 15   SCT 35   BKN 70,-1,6,-1,14,997,RJCC 240300Z 20006KT 160V280 9999 FEW015 SCT035 BKN070 M06/M14     Q0997 RMK 1ST015 3CU035 6AC070 A2946=,
20180124_033000.001,0,RJCC,,,,0,20180124030000,-1,-1,-1,-1,270,-1,14,-1,-1,220,290,,9999,0,0,2,FEW 15   SCT 40,-1,6,-1,15,997,RJCC 240330Z 27014KT 220V290 9999 FEW015 SCT040 M06/M15 Q0997     RMK 1ST015 3CU040 A2946=,
20180124_040000.002,0,RJCC,,,,0,20180124040000,-1,-1,-1,-1,260,-1,13,-1,-1,-1,-1,,9999,0,0,1,FEW 15,-1,6,-1,17,997,RJCC 240400Z 26013KT 9999 FEW015 M06/M17 Q0997 RMK 1ST015     A2946=,
20180124_043000.001,0,RJCC,,,,0,20180124040000,-1,-1,-1,-1,260,-1,13,-1,-1,-1,-1,,9999,0,0,1,FEW 15,-1,6,-1,16,997,RJCC 240430Z 26013KT 9999 FEW015 M06/M16 Q0997 WS R01R RMK     1ST015 A2946=,
20180124_050000.002,0,RJCC,,,,0,20180124050000,-1,-1,-1,-1,260,-1,14,-1,-1,-1,-1,,9999,0,0,2,FEW 15   BKN 100,-1,6,-1,18,997,RJCC 240500Z 26014KT 9999 FEW015 BKN100 M06/M18 Q0997 RMK     1ST015 6AC100 A2946=,
20180124_053000.001,0,RJCC,,,,0,20180124050000,-1,-1,-1,-1,260,-1,14,-1,-1,-1,-1,,9999,0,0,2,FEW 15   BKN 100,-1,7,-1,19,998,RJCC 240530Z 26014KT 9999 FEW015 BKN100 M07/M19 Q0998 WS R01R     RMK 1ST015 5AC100 A2948=,
20180124_060000.002,0,RJCC,,,,0,20180124060000,-1,-1,-1,-1,260,-1,13,-1,-1,-1,-1,,9999,0,1,2,FEW 20   BKN 100,-1,7,-1,18,998,RJCC 240600Z 26013KT 9999 -SHSN FEW020 BKN100 M07/M18 Q0998     RMK 1CU020 6AC100 A2948=,- SN SH
20180124_063000.001,0,RJCC,,,,0,20180124060000,-1,-1,-1,-1,260,-1,13,-1,-1,-1,-1,,9999,0,0,2,FEW 20   BKN 100,-1,7,-1,20,998,RJCC 240630Z 26013KT 9999 FEW020 BKN100 M07/M20 Q0998 RMK     1CU020 6AC100 A2949=,
20180124_070000.002,0,RJCC,,,,0,20180124070000,-1,-1,-1,-1,250,-1,11,-1,-1,-1,-1,,9999,0,0,2,FEW 20   SCT 100,-1,8,-1,20,999,RJCC 240700Z 25011KT 9999 FEW020 SCT100 M08/M20 Q0999 RMK     1CU020 4AC100 A2950=,
20180124_073000.001,0,RJCC,,,,0,20180124070000,-1,-1,-1,-1,220,-1,6,-1,-1,-1,-1,,9999,0,0,2,FEW 20   SCT 100,-1,8,-1,19,999,RJCC 240730Z 22006KT 9999 FEW020 SCT100 M08/M19 Q0999 RMK     1CU020 3AC100 A2950=,
20180124_080000.002,0,RJCC,,,,0,20180124080000,-1,-1,-1,-1,260,-1,7,-1,-1,210,290,,9999,0,0,1,FEW 20,-1,9,-1,18,999,RJCC 240800Z 26007KT 210V290 9999 FEW020 M09/M18 Q0999 RMK     1CU020 A2951=,
20180124_083000.001,0,RJCC,,,,0,20180124080000,-1,-1,-1,-1,240,-1,4,-1,-1,-1,-1,,9999,0,0,1,FEW 20,-1,10,-1,19,999,RJCC 240830Z 24004KT 9999 FEW020 M10/M19 Q0999 RMK 1CU020     A2951=,
20180124_090000.003,0,RJCC,,,,0,20180124090000,-1,-1,-1,-1,230,-1,5,-1,-1,-1,-1,,9999,0,0,1,FEW 20,-1,10,-1,20,999,RJCC 240900Z 23005KT 9999 FEW020 M10/M20 Q0999 RMK 1CU020     A2952=,
20180124_093000.001,0,RJCC,,,,0,20180124090000,-1,-1,-1,-1,230,-1,7,-1,-1,-1,-1,,9999,0,0,1,FEW 20,-1,11,-1,20,999,RJCC 240930Z 23007KT 9999 FEW020 M11/M20 Q0999 RMK 1CU020     A2952=,
20180124_100000.002,0,RJCC,,,,0,20180124100000,-1,-1,-1,-1,230,-1,5,-1,-1,-1,-1,,9999,0,0,1,FEW 20,-1,12,-1,20,999,RJCC 241000Z 23005KT 9999 FEW020 M12/M20 Q0999 RMK 1CU020     A2952=,
20180124_103000.001,0,RJCC,,,,0,20180124100000,-1,-1,-1,-1,230,-1,5,-1,-1,-1,-1,,9999,0,0,1,FEW 20,-1,12,-1,19,999,RJCC 241030Z 23005KT 9999 FEW020 M12/M19 Q0999 RMK 1CU020     A2952=,
20180124_110000.002,0,RJCC,,,,0,20180124110000,-1,-1,-1,-1,350,-1,3,-1,-1,270,40,,9999,0,0,1,FEW 20,-1,13,-1,19,999,RJCC 241100Z 35003KT 270V040 9999 FEW020 M13/M19 Q0999 RMK     1CU020 A2952=,
20180124_113000.001,0,RJCC,,,,0,20180124110000,-1,-1,-1,-1,999,-1,2,-1,-1,-1,-1,,9999,0,0,1,FEW 20,-1,15,-1,20,999,RJCC 241130Z VRB02KT 9999 FEW020 M15/M20 Q0999 RMK 1CU020     A2952=,
20180124_120000.002,0,RJCC,,,,0,20180124120000,-1,-1,-1,-1,999,-1,2,-1,-1,-1,-1,,9999,0,0,1,FEW 20,-1,15,-1,19,999,RJCC 241200Z VRB02KT 9999 FEW020 M15/M19 Q0999 RMK 1CU020     A2952=,
20180124_123000.001,0,RJCC,,,,0,20180124120000,-1,-1,-1,-1,999,-1,1,-1,-1,-1,-1,,9999,0,0,1,FEW 20,-1,15,-1,19,999,RJCC 241230Z VRB01KT 9999 FEW020 M15/M19 Q0999 RMK 1CU020     A2952=,
20180124_130000.002,0,RJCC,,,,0,20180124130000,-1,-1,-1,-1,999,-1,1,-1,-1,-1,-1,,9999,0,0,1,FEW 20,-1,17,-1,20,999,RJCC 241300Z VRB01KT 9999 FEW020 M17/M20 Q0999 RMK 1CU020     A2951=,
20180124_133000.001,0,RJCC,,,,0,20180124130000,-1,-1,-1,-1,999,-1,1,-1,-1,-1,-1,,9999,0,0,1,FEW 20,-1,18,-1,21,999,RJCC 241330Z VRB01KT 9999 FEW020 M18/M21 Q0999 RMK 1CU020     A2951=,
20180124_140000.003,0,RJCC,,,,0,20180124140000,-1,-1,-1,-1,360,-1,4,-1,-1,-1,-1,,9999,0,0,1,FEW 20,-1,19,-1,22,999,RJCC 241400Z 36004KT 9999 FEW020 M19/M22 Q0999 RMK 1CU020     A2951=,
20180124_143000.001,0,RJCC,,,,0,20180124140000,-1,-1,-1,-1,360,-1,1,-1,-1,-1,-1,,9999,0,0,1,FEW 20,-1,19,-1,22,999,RJCC 241430Z 36001KT 9999 FEW020 M19/M22 Q0999 RMK 1CU020     A2951=,
20180124_150000.002,0,RJCC,,,,0,20180124150000,-1,-1,-1,-1,220,-1,1,-1,-1,-1,-1,,9999,0,0,1,FEW 20,-1,20,-1,22,999,RJCC 241500Z 22001KT 9999 FEW020 M20/M22 Q0999 RMK 1CU020     A2950=,
20180124_153000.001,0,RJCC,,,,0,20180124150000,-1,-1,-1,-1,0,-1,0,-1,-1,-1,-1,,9999,0,0,1,FEW 20,-1,20,-1,22,999,RJCC 241530Z 00000KT 9999 FEW020 M20/M22 Q0999 RMK 1CU020     A2950=,
20180124_160000.002,0,RJCC,,,,0,20180124160000,-1,-1,-1,-1,30,-1,1,-1,-1,-1,-1,,9999,0,0,1,FEW 20,-1,21,-1,23,999,RJCC 241600Z 03001KT 9999 FEW020 M21/M23 Q0999 RMK 1CU020     A2951=,
20180124_163000.001,0,RJCC,,,,0,20180124160000,-1,-1,-1,-1,0,-1,0,-1,-1,-1,-1,,9999,0,0,2,FEW 20   SCT 100,-1,21,-1,23,999,RJCC 241630Z 00000KT 9999 FEW020 SCT100 M21/M23 Q0999 RMK     1CU020 3AC100 A2950=,
20180124_170000.002,0,RJCC,,,,0,20180124170000,-1,-1,-1,-1,200,-1,1,-1,-1,-1,-1,,9999,0,0,2,FEW 20   BKN 100,-1,21,-1,23,999,RJCC 241700Z 20001KT 9999 FEW020 BKN100 M21/M23 Q0999 RMK     1CU020 7AC100 A2950=,
20180124_173000.001,0,RJCC,,,,0,20180124170000,-1,-1,-1,-1,200,-1,1,-1,-1,-1,-1,,9999,0,0,2,FEW 20   BKN 120,-1,21,-1,23,998,RJCC 241730Z 20001KT 9999 FEW020 BKN120 M21/M23 Q0998 RMK     1CU020 6AC120 A2950=,
20180124_180000.002,0,RJCC,,,,0,20180124180000,-1,-1,-1,-1,160,-1,3,-1,-1,-1,-1,,9999,0,0,2,FEW 20   BKN 120,-1,21,-1,23,998,RJCC 241800Z 16003KT 9999 FEW020 BKN120 M21/M23 Q0998 RMK     1CU020 6AC120 A2949=,
20180124_183000.001,0,RJCC,,,,0,20180124180000,-1,-1,-1,-1,200,-1,2,-1,-1,-1,-1,,9999,0,0,2,FEW 20   BKN 130,-1,21,-1,23,998,RJCC 241830Z 20002KT 9999 FEW020 BKN130 M21/M23 Q0998 RMK     1CU020 7AC130 A2949=,
20180124_190000.003,0,RJCC,,,,0,20180124190000,-1,-1,-1,-1,190,-1,3,-1,-1,-1,-1,,9999,0,0,2,FEW 20   BKN 90,-1,22,-1,24,998,RJCC 241900Z 19003KT 9999 FEW020 BKN090 M22/M24 Q0998 RMK     1CU020 7AC090 A2949=,
20180124_193000.001,0,RJCC,,,,0,20180124190000,-1,-1,-1,-1,150,-1,3,-1,-1,-1,-1,,9999,0,0,3,FEW 20   SCT 90   BKN 130,-1,21,-1,23,998,RJCC 241930Z 15003KT 9999 FEW020 SCT090 BKN130 M21/M23 Q0998     RMK 1CU020 3AC090 5AC130 A2948=,
20180124_200000.002,0,RJCC,,,,0,20180124200000,-1,-1,-1,-1,160,-1,4,-1,-1,-1,-1,,9999,0,0,2,FEW 20   BKN 70,-1,21,-1,23,997,RJCC 242000Z 16004KT 9999 FEW020 BKN070 M21/M23 Q0997 RMK     1CU020 7AC070 A2947=,
20180124_203000.001,0,RJCC,,,,0,20180124200000,-1,-1,-1,-1,170,-1,6,-1,-1,-1,-1,,9999,0,0,2,FEW 20   BKN 50,-1,21,-1,23,997,RJCC 242030Z 17006KT 9999 FEW020 BKN050 M21/M23 Q0997 RMK     1CU020 6CU050 A2946=,
20180124_210000.002,0,RJCC,,,,0,20180124210000,-1,-1,-1,-1,170,-1,4,-1,-1,-1,-1,,9999,0,0,2,FEW 20   BKN 130,-1,20,-1,22,997,RJCC 242100Z 17004KT 9999 FEW020 BKN130 M20/M22 Q0997 RMK     1CU020 7AC130 A2945=,
20180124_213000.001,0,RJCC,,,,0,20180124210000,-1,-1,-1,-1,170,-1,6,-1,-1,-1,-1,,9999,0,1,3,FEW 10   SCT 20   BKN 30,-1,17,-1,20,997,RJCC 242130Z 17006KT 9999 -SHSN FEW010 SCT020 BKN030 M17/M20     Q0997 RMK 1ST010 3CU020 5CU030 A2945=,- SN SH
20180124_220000.002,0,RJCC,,,,0,20180124220000,-1,-1,-1,-1,999,-1,2,-1,-1,-1,-1,,600,2,1,1,VV 4,-1,17,-1,18,997,RJCC 242200Z VRB02KT 0600 R01L/1400VP2000N R01R/1000VP2000D     SHSN VV004 M17/M18 Q0997 RMK A2946=,SN SH
20180124_223000.002,0,RJCC,,,,0,20180124220000,-1,-1,-1,-1,999,-1,2,-1,-1,-1,-1,,900,2,1,1,VV 6,-1,15,-1,17,997,RJCC 242230Z VRB02KT 0900 R01L/2000D R01R/2000N SHSN VV006     M15/M17 Q0997 RMK A2946=,SN SH
20180124_230000.002,0,RJCC,,,,0,20180124230000,-1,-1,-1,-1,350,-1,3,-1,-1,-1,-1,,500,2,1,1,VV 3,-1,14,-1,16,998,RJCC 242300Z 35003KT 0500 R01L/1000VP2000D R01R/0900VP2000D     SHSN VV003 M14/M16 Q0998 RMK A2948=,SN SH
20180124_233000.001,0,RJCC,,,,0,20180124230000,-1,-1,-1,-1,350,-1,4,-1,-1,-1,-1,,700,2,1,1,VV 4,-1,14,-1,16,998,RJCC 242330Z 35004KT 0700 R01L/0800V1700U R01R/0800V1300U SHSN     VV004 M14/M16 Q0998 RMK A2949=,SN SH
20180125_000000.002,0,RJCC,,,,0,20180125000000,-1,-1,-1,-1,999,-1,1,-1,-1,-1,-1,,4500,2,1,3,FEW 3   BKN 8   BKN 30,-1,13,-1,15,998,RJCC 250000Z VRB01KT 4500 R01L/2000N R01R/2000N -SHSN FEW003     BKN008 BKN030 M13/M15 Q0998 RMK 1ST003 5ST008 6CU030           A2950 2000NE-SE=,- SN SH
20180125_003000.001,0,RJCC,,,,0,20180125000000,-1,-1,-1,-1,340,-1,5,-1,-1,300,20,,1000,2,1,3,FEW 3   SCT 5   BKN 8,-1,11,-1,13,998,RJCC 250030Z 34005KT 300V020 1000 R01L/0800VP2000D     R01R/1000VP2000D -SHSN FEW003 SCT005 BKN008 M11/M13 Q0998           RMK 1ST003 4ST005 7ST008 A2949=,- SN SH
20180125_010000.002,0,RJCC,,,,0,20180125010000,-1,-1,-1,-1,999,-1,2,-1,-1,-1,-1,,9999,0,1,3,FEW 5   SCT 10   BKN 25,-1,10,-1,13,998,RJCC 250100Z VRB02KT 9999 -SHSN FEW005 SCT010 BKN025 M10/M13     Q0998 RMK 1ST005 3ST010 5CU025 A2949=,- SN SH
20180125_013000.001,0,RJCC,,,,0,20180125010000,-1,-1,-1,-1,999,-1,2,-1,-1,-1,-1,,9999,0,1,2,FEW 10   BKN 25,-1,9,-1,12,998,RJCC 250130Z VRB02KT 9999 -SHSN FEW010 BKN025 M09/M12 Q0998     RMK 1ST010 5CU025 A2949=,- SN SH
20180125_020000.003,0,RJCC,,,,0,20180125020000,-1,-1,-1,-1,340,-1,5,-1,-1,-1,-1,,9999,0,1,2,FEW 10   SCT 25,-1,8,-1,11,998,RJCC 250200Z 34005KT 9999 -SHSN FEW010 SCT025 M08/M11 Q0998     RMK 1ST010 4CU025 A2947=,- SN SH
20180125_023000.001,0,RJCC,,,,0,20180125020000,-1,-1,-1,-1,330,-1,10,-1,-1,-1,-1,,9999,0,1,2,FEW 10   SCT 30,-1,5,-1,11,997,RJCC 250230Z 33010KT 9999 -SHSN FEW010 SCT030 M05/M11 Q0997     RMK 1ST010 3CU030 A2946=,- SN SH
20180125_030000.002,0,RJCC,,,,0,20180125030000,-1,-1,-1,-1,320,-1,16,-1,-1,-1,-1,,9999,0,1,3,FEW 8   SCT 10   BKN 30,-1,5,-1,10,997,RJCC 250300Z 32016KT 9999 -SHSN FEW008 SCT010 BKN030 M05/M10     Q0997 RMK 1ST008 4ST010 5CU030 A2945 3000N-SE=,- SN SH
20180125_033000.001,0,RJCC,,,,0,20180125030000,-1,-1,-1,-1,330,-1,10,-1,-1,-1,-1,,9999,0,1,2,FEW 8   SCT 30,-1,4,-1,9,997,RJCC 250330Z 33010KT 9999 -SHSN FEW008 SCT030 M04/M09 Q0997     RMK 1ST008 4CU030 A2944 4000N-E=,- SN SH
20180125_040000.002,0,RJCC,,,,0,20180125040000,-1,-1,-1,-1,340,-1,11,-1,-1,-1,-1,,9999,0,1,2,FEW 10   BKN 30,-1,4,-1,10,996,RJCC 250400Z 34011KT 9999 -SHSN FEW010 BKN030 M04/M10 Q0996     RMK 1ST010 5CU030 A2943=,- SN SH
20180125_043000.001,0,RJCC,,,,0,20180125040000,-1,-1,-1,-1,350,-1,9,-1,-1,-1,-1,,9999,0,1,2,FEW 10   BKN 45,-1,6,-1,10,996,RJCC 250430Z 35009KT 9999 -SHSN FEW010 BKN045 M06/M10 Q0996     RMK 1ST010 6CU045 A2943=,- SN SH
20180125_050000.002,0,RJCC,,,,0,20180125050000,-1,-1,-1,-1,350,-1,15,-1,-1,-1,-1,,9999,0,1,2,FEW 15   BKN 45,-1,4,-1,11,997,RJCC 250500Z 35015KT 9999 -SHSN FEW015 BKN045 M04/M11 Q0997     RMK 1ST015 5CU045 A2944=,- SN SH
20180125_053000.001,0,RJCC,,,,0,20180125050000,-1,-1,-1,-1,340,-1,12,-1,-1,-1,-1,,9999,0,1,2,FEW 15   BKN 45,-1,5,-1,11,997,RJCC 250530Z 34012KT 9999 -SHSN FEW015 BKN045 M05/M11 Q0997     RMK 1ST015 6CU045 A2944=,- SN SH
20180125_060000.002,0,RJCC,,,,0,20180125060000,-1,-1,-1,-1,310,-1,12,-1,-1,-1,-1,,9999,0,0,1,FEW 15,-1,4,-1,13,997,RJCC 250600Z 31012KT 9999 FEW015 M04/M13 Q0997 RMK 1ST015     A2945=,
20180125_063000.001,0,RJCC,,,,0,20180125060000,-1,-1,-1,-1,320,-1,13,-1,-1,-1,-1,,9999,0,0,1,FEW 15,-1,5,-1,13,997,RJCC 250630Z 32013KT 9999 FEW015 M05/M13 Q0997 RMK 1ST015     A2946=,
20180125_070000.002,0,RJCC,,,,0,20180125070000,-1,-1,-1,-1,300,-1,15,-1,-1,-1,-1,,9999,0,0,1,FEW 15,-1,5,-1,15,997,RJCC 250700Z 30015KT 9999 FEW015 M05/M15 Q0997 RMK 1ST015     A2946=,
20180125_073000.001,0,RJCC,,,,0,20180125070000,-1,-1,-1,-1,300,-1,10,-1,-1,-1,-1,,9999,0,0,1,FEW 15,-1,6,-1,15,997,RJCC 250730Z 30010KT 9999 FEW015 M06/M15 Q0997 RMK 1ST015     A2946=,
20180125_080000.002,0,RJCC,,,,0,20180125080000,-1,-1,-1,-1,290,-1,8,-1,-1,-1,-1,,9999,0,0,1,FEW 15,-1,7,-1,15,997,RJCC 250800Z 29008KT 9999 FEW015 M07/M15 Q0997 RMK 1ST015     A2946=,
20180125_083000.001,0,RJCC,,,,0,20180125080000,-1,-1,-1,-1,300,-1,13,-1,-1,-1,-1,,9999,0,0,1,FEW 15,-1,7,-1,15,997,RJCC 250830Z 30013KT 9999 FEW015 M07/M15 Q0997 RMK 1ST015     A2946=,
20180125_090000.002,0,RJCC,,,,0,20180125090000,-1,-1,-1,-1,300,-1,8,-1,-1,-1,-1,,9999,0,0,1,FEW 15,-1,8,-1,15,997,RJCC 250900Z 30008KT 9999 FEW015 M08/M15 Q0997 RMK 1ST015     A2946=,
20180125_093000.001,0,RJCC,,,,0,20180125090000,-1,-1,-1,-1,280,-1,6,-1,-1,-1,-1,,9999,0,0,1,FEW 15,-1,8,-1,15,998,RJCC 250930Z 28006KT 9999 FEW015 M08/M15 Q0998 RMK 1ST015     A2947=,
20180125_100000.003,0,RJCC,,,,0,20180125100000,-1,-1,-1,-1,300,-1,10,-1,-1,-1,-1,,9999,0,0,1,FEW 15,-1,9,-1,16,998,RJCC 251000Z 30010KT 9999 FEW015 M09/M16 Q0998 RMK 1ST015     A2947=,
20180125_103000.001,0,RJCC,,,,0,20180125100000,-1,-1,-1,-1,310,-1,6,-1,-1,-1,-1,,9999,0,0,1,FEW 15,-1,10,-1,16,997,RJCC 251030Z 31006KT 9999 FEW015 M10/M16 Q0997 RMK 1ST015     A2947=,
20180125_110000.003,0,RJCC,,,,0,20180125110000,-1,-1,-1,-1,300,-1,5,-1,-1,-1,-1,,9999,0,0,1,FEW 15,-1,10,-1,17,997,RJCC 251100Z 30005KT 9999 FEW015 M10/M17 Q0997 RMK 1ST015     A2947=,
20180125_113000.001,0,RJCC,,,,0,20180125110000,-1,-1,-1,-1,280,-1,5,-1,-1,-1,-1,,9999,0,0,1,FEW 15,-1,11,-1,16,997,RJCC 251130Z 28005KT 9999 FEW015 M11/M16 Q0997 RMK 1ST015     A2947=,
20180125_120000.002,0,RJCC,,,,0,20180125120000,-1,-1,-1,-1,240,-1,4,-1,-1,-1,-1,,9999,0,0,1,FEW 15,-1,11,-1,16,997,RJCC 251200Z 24004KT 9999 FEW015 M11/M16 Q0997 RMK 1ST015     A2945=,
20180125_123000.002,0,RJCC,,,,0,20180125120000,-1,-1,-1,-1,999,-1,1,-1,-1,-1,-1,,9999,0,0,1,FEW 15,-1,13,-1,18,997,RJCC 251230Z VRB01KT 9999 FEW015 M13/M18 Q0997 RMK 1ST015     A2945=,
20180125_130000.002,0,RJCC,,,,0,20180125130000,-1,-1,-1,-1,250,-1,4,-1,-1,210,270,,9999,0,0,2,FEW 15   SCT 70,-1,14,-1,17,997,RJCC 251300Z 25004KT 210V270 9999 FEW015 SCT070 M14/M17 Q0997     RMK 1ST015 3AC070 A2945=,
20180125_133000.001,0,RJCC,,,,0,20180125130000,-1,-1,-1,-1,150,-1,4,-1,-1,-1,-1,,9999,0,0,2,FEW 15   BKN 80,-1,15,-1,17,997,RJCC 251330Z 15004KT 9999 FEW015 BKN080 M15/M17 Q0997 RMK     1ST015 7AC080 A2944=,
20180125_140000.002,0,RJCC,,,,0,20180125140000,-1,-1,-1,-1,170,-1,3,-1,-1,-1,-1,,9999,0,0,3,FEW 15   SCT 60   BKN 80,-1,13,-1,16,997,RJCC 251400Z 17003KT 9999 FEW015 SCT060 BKN080 M13/M16 Q0997     RMK 1ST015 3CU060 7AC080 A2944=,
20180125_143000.001,0,RJCC,,,,0,20180125140000,-1,-1,-1,-1,120,-1,2,-1,-1,-1,-1,,9999,0,0,3,FEW 15   BKN 60   BKN 80,-1,12,-1,15,996,RJCC 251430Z 12002KT 9999 FEW015 BKN060 BKN080 M12/M15 Q0996     RMK 1ST015 5CU060 7AC080 A2943=,
20180125_150000.002,0,RJCC,,,,0,20180125150000,-1,-1,-1,-1,120,-1,2,-1,-1,-1,-1,,9999,0,0,3,FEW 15   BKN 50   BKN 70,-1,12,-1,15,996,RJCC 251500Z 12002KT 9999 FEW015 BKN050 BKN070 M12/M15 Q0996     RMK 1ST015 6CU050 7AC070 A2943=,
20180125_153000.001,0,RJCC,,,,0,20180125150000,-1,-1,-1,-1,150,-1,3,-1,-1,-1,-1,,9999,0,0,3,FEW 15   SCT 50   BKN 70,-1,12,-1,15,996,RJCC 251530Z 15003KT 9999 FEW015 SCT050 BKN070 M12/M15 Q0996     RMK 1ST015 4CU050 7AC070 A2943=,
20180125_160000.002,0,RJCC,,,,0,20180125160000,-1,-1,-1,-1,160,-1,2,-1,-1,-1,-1,,9999,0,0,3,FEW 15   SCT 50   BKN 90,-1,12,-1,15,996,RJCC 251600Z 16002KT 9999 FEW015 SCT050 BKN090 M12/M15 Q0996     RMK 1ST015 3CU050 7AC090 A2942=,
20180125_163000.001,0,RJCC,,,,0,20180125160000,-1,-1,-1,-1,140,-1,1,-1,-1,-1,-1,,9999,0,0,3,FEW 15   SCT 40   BKN 90,-1,12,-1,15,996,RJCC 251630Z 14001KT 9999 FEW015 SCT040 BKN090 M12/M15 Q0996     RMK 1ST015 3CU040 7AC090 A2942=,
20180125_170000.002,0,RJCC,,,,0,20180125170000,-1,-1,-1,-1,100,-1,2,-1,-1,-1,-1,,9999,0,0,3,FEW 15   SCT 40   BKN 90,-1,12,-1,14,996,RJCC 251700Z 10002KT 9999 FEW015 SCT040 BKN090 M12/M14 Q0996     RMK 1ST015 3CU040 7AC090 A2942=,
20180125_173000.001,0,RJCC,,,,0,20180125170000,-1,-1,-1,-1,80,-1,4,-1,-1,-1,-1,,9999,0,0,3,FEW 15   SCT 40   BKN 90,-1,11,-1,14,996,RJCC 251730Z 08004KT 9999 FEW015 SCT040 BKN090 M11/M14 Q0996     RMK 1ST015 3CU040 7AC090 A2942=,
20180125_180000.002,0,RJCC,,,,0,20180125180000,-1,-1,-1,-1,130,-1,2,-1,-1,-1,-1,,9999,0,0,3,FEW 15   SCT 50   BKN 100,-1,11,-1,14,996,RJCC 251800Z 13002KT 9999 FEW015 SCT050 BKN100 M11/M14 Q0996     RMK 1ST015 3CU050 7AC100 A2942=,
20180125_183000.001,0,RJCC,,,,0,20180125180000,-1,-1,-1,-1,70,-1,3,-1,-1,-1,-1,,9999,0,0,3,FEW 15   SCT 40   BKN 100,-1,11,-1,13,996,RJCC 251830Z 07003KT 9999 FEW015 SCT040 BKN100 M11/M13 Q0996     RMK 1ST015 4CU040 7AC100 A2942=,
20180125_190000.002,0,RJCC,,,,0,20180125190000,-1,-1,-1,-1,70,-1,3,-1,-1,330,120,,9999,0,1,2,FEW 15   BKN 40,-1,10,-1,13,996,RJCC 251900Z 07003KT 330V120 9999 -SHSN FEW015 BKN040 M10/M13     Q0996 RMK 1ST015 7CU040 A2943=,- SN SH
20180125_193000.001,0,RJCC,,,,0,20180125190000,-1,-1,-1,-1,999,-1,2,-1,-1,-1,-1,,3000,0,1,3,FEW 10   SCT 15   BKN 25,-1,9,-1,11,996,RJCC 251930Z VRB02KT 3000 -SHSN FEW010 SCT015 BKN025 M09/M11     Q0996 RMK 1ST010 3ST015 7CU025 A2943=,- SN SH
20180125_200000.003,0,RJCC,,,,0,20180125200000,-1,-1,-1,-1,160,-1,3,-1,-1,-1,-1,,1400,2,1,2,FEW 6   BKN 10,-1,9,-1,11,996,RJCC 252000Z 16003KT 1400 R01L/P2000N R01R/P2000N -SHSN FEW006     BKN010 M09/M11 Q0996 RMK 1ST006 7ST010 A2942=,- SN SH
20180125_203000.001,0,RJCC,,,,0,20180125200000,-1,-1,-1,-1,999,-1,2,-1,-1,-1,-1,,1300,2,1,3,FEW 3   BKN 7   BKN 10,-1,8,-1,8,996,RJCC 252030Z VRB02KT 1300 R01L/1500VP2000U R01R/1400VP2000U     -SHSN FEW003 BKN007 BKN010 M08/M08 Q0996 RMK 1ST003           5ST007 7ST010 A2942=,- SN SH
20180125_210000.002,0,RJCC,,,,0,20180125210000,-1,-1,-1,-1,200,-1,3,-1,-1,-1,-1,,900,2,1,1,VV 6,-1,7,-1,8,996,RJCC 252100Z 20003KT 0900 R01L/1300VP2000D R01R/1200VP2000D     SHSN VV006 M07/M08 Q0996 RMK A2943=,SN SH
20180125_213000.001,0,RJCC,,,,0,20180125210000,-1,-1,-1,-1,230,-1,3,-1,-1,200,270,,3000,0,1,3,FEW 6   SCT 10   BKN 25,-1,7,-1,7,996,RJCC 252130Z 23003KT 200V270 3000 -SHSN FEW006 SCT010 BKN025     M07/M07 Q0996 RMK 1ST006 4ST010 6CU025 A2943=,- SN SH
20180125_220000.002,0,RJCC,,,,0,20180125220000,-1,-1,-1,-1,300,-1,11,-1,-1,-1,-1,,2500,0,1,3,FEW 6   BKN 10   BKN 20,-1,5,-1,6,996,RJCC 252200Z 30011KT 2500 -SHSN FEW006 BKN010 BKN020 M05/M06     Q0996 RMK 1ST006 5ST010 7CU020 A2943=,- SN SH
20180125_223000.002,0,RJCC,,,,0,20180125220000,-1,-1,-1,-1,310,-1,13,-1,-1,-1,-1,,700,2,1,1,VV 8,-1,5,-1,6,997,RJCC 252230Z 31013KT 0700 R01L/P2000N R01R/2000N SHSN VV008     M05/M06 Q0997 RMK A2945=,SN SH
20180125_230000.002,0,RJCC,,,,0,20180125230000,-1,-1,-1,-1,300,-1,14,-1,-1,-1,-1,,1200,2,1,3,FEW 6   BKN 8   BKN 10,-1,5,-1,6,997,RJCC 252300Z 30014KT 1200 R01L/P2000N R01R/P2000N -SHSN FEW006     BKN008 BKN010 M05/M06 Q0997 RMK 1ST006 5ST008 6ST010           A2945=,- SN SH
20180125_233000.001,0,RJCC,,,,0,20180125230000,-1,-1,-1,-1,300,-1,12,-1,-1,-1,-1,,600,2,1,1,VV 4,-1,5,-1,6,997,RJCC 252330Z 30012KT 0600 R01L/0900VP2000U R01R/0900VP2000U     SHSN VV004 M05/M06 Q0997 RMK A2946=,SN SH
20180126_000000.002,0,RJCC,,,,0,20180126000000,-1,-1,-1,-1,320,-1,9,-1,-1,-1,-1,,200,2,1,1,VV 3,-1,5,-1,5,998,RJCC 260000Z 32009KT 0200 R01L/1200U R01R/1100N SHSN VV003     M05/M05 Q0998 RMK A2947=,SN SH
20180126_003000.001,0,RJCC,,,,0,20180126000000,-1,-1,-1,-1,310,-1,11,-1,-1,-1,-1,,700,2,1,1,VV 5,-1,5,-1,5,998,RJCC 260030Z 31011KT 0700 R01L/1800D R01R/1200VP2000D SHSN     VV005 M05/M05 Q0998 RMK A2948=,SN SH
20180126_010000.002,0,RJCC,,,,0,20180126010000,-1,-1,-1,-1,330,-1,13,-1,-1,-1,-1,,6000,2,1,3,FEW 3   SCT 12   BKN 30,-1,4,-1,6,998,RJCC 260100Z 33013KT 6000 R01L/P2000N R01R/P2000N -SHSN FEW003     SCT012 BKN030 M04/M06 Q0998 RMK 1ST003 3ST012 7CU030           A2948=,- SN SH
20180126_013000.001,0,RJCC,,,,0,20180126010000,-1,-1,-1,-1,320,-1,15,-1,-1,-1,-1,,700,2,1,1,VV 7,-1,4,-1,6,998,RJCC 260130Z 32015KT 0700 R01L/2000D R01R/2000D SHSN VV007     M04/M06 Q0998 RMK A2949=,SN SH
20180126_020000.002,0,RJCC,,,,0,20180126020000,-1,-1,-1,-1,320,-1,16,-1,-1,-1,-1,,600,2,1,1,VV 4,-1,4,-1,6,998,RJCC 260200Z 32016KT 0600 R01L/1500VP2000D R01R/2000D SHSN     VV004 M04/M06 Q0998 RMK A2949=,SN SH
20180126_023000.001,0,RJCC,,,,0,20180126020000,-1,-1,-1,-1,320,-1,19,-1,-1,-1,-1,,500,2,1,1,VV 4,-1,5,-1,6,998,RJCC 260230Z 32019KT 0500 R01L/1500VP2000N R01R/1400VP2000N     SHSN VV004 M05/M06 Q0998 RMK A2949=,SN SH
20180126_030000.002,0,RJCC,,,,0,20180126030000,-1,-1,-1,-1,330,-1,15,-1,-1,-1,-1,,900,2,2,1,VV 6,-1,4,-1,5,998,RJCC 260300Z 33015KT 0900 R01L/P2000N R01R/P2000N SHSN BLSN     VV006 M04/M05 Q0998 RMK A2949=,SN SH; BL SN
20180126_033000.001,0,RJCC,,,,0,20180126030000,-1,-1,-1,-1,340,-1,10,-1,-1,-1,-1,,1600,2,1,3,FEW 3   SCT 8   BKN 12,-1,4,-1,6,998,RJCC 260330Z 34010KT 1600 R01L/P2000N R01R/2000N -SHSN FEW003     SCT008 BKN012 M04/M06 Q0998 RMK 1ST003 4ST008 6ST012           A2948=,- SN SH
20180126_040000.002,0,RJCC,,,,0,20180126040000,-1,-1,-1,-1,350,-1,9,-1,-1,-1,-1,,9999,0,1,3,FEW 8   SCT 35   BKN 50,-1,3,-1,8,998,RJCC 260400Z 35009KT 9999 -SHSN FEW008 SCT035 BKN050 M03/M08     Q0998 RMK 1ST008 3CU035 6CU050 A2948=,- SN SH
20180126_043000.001,0,RJCC,,,,0,20180126040000,-1,-1,-1,-1,330,-1,12,-1,-1,-1,-1,,8000,2,1,2,FEW 5   BKN 45,-1,4,-1,7,998,RJCC 260430Z 33012KT 8000 R01L/2000D R01R/1300VP2000D -SHSN     FEW005 BKN045 M04/M07 Q0998 RMK 1ST005 7CU045 A2948           3000SE-S=,- SN SH
20180126_050000.002,0,RJCC,,,,0,20180126050000,-1,-1,-1,-1,350,-1,9,-1,-1,-1,-1,,9999,0,0,2,FEW 12   SCT 45,-1,4,-1,9,998,RJCC 260500Z 35009KT 9999 FEW012 SCT045 M04/M09 Q0998 RMK     1ST012 3CU045 A2949=,
20180126_053000.001,0,RJCC,,,,0,20180126050000,-1,-1,-1,-1,330,-1,10,-1,-1,-1,-1,,9999,0,0,2,FEW 12   SCT 45,-1,3,-1,10,998,RJCC 260530Z 33010KT 9999 FEW012 SCT045 M03/M10 Q0998 RMK     1ST012 3CU045 A2950=,
20180126_060000.002,0,RJCC,,,,0,20180126060000,-1,-1,-1,-1,340,-1,11,-1,-1,-1,-1,,9999,0,0,2,FEW 15   BKN 45,-1,2,-1,10,999,RJCC 260600Z 34011KT 9999 FEW015 BKN045 M02/M10 Q0999 RMK     1ST015 5CU045 A2950=,
20180126_063000.001,0,RJCC,,,,0,20180126060000,-1,-1,-1,-1,350,-1,11,-1,-1,-1,-1,,9999,0,1,2,FEW 15   BKN 45,-1,3,-1,10,999,RJCC 260630Z 35011KT 9999 -SHSN FEW015 BKN045 M03/M10 Q0999     RMK 1ST015 5CU045 A2951=,- SN SH
20180126_070000.002,0,RJCC,,,,0,20180126070000,-1,-1,-1,-1,350,-1,12,-1,-1,-1,-1,,9999,0,1,2,FEW 15   BKN 50,-1,4,-1,9,999,RJCC 260700Z 35012KT 9999 -SHSN FEW015 BKN050 M04/M09 Q0999     RMK 1ST015 5CU050 A2952 5000NE-E=,- SN SH
20180126_073000.001,0,RJCC,,,,0,20180126070000,-1,-1,-1,-1,340,-1,13,-1,-1,-1,-1,,9999,0,1,2,FEW 15   BKN 50,-1,4,-1,9,1000,RJCC 260730Z 34013KT 9999 -SHSN FEW015 BKN050 M04/M09 Q1000     RMK 1ST015 5CU050 A2953 4000NE-E=,- SN SH
20180126_080000.003,0,RJCC,,,,0,20180126080000,-1,-1,-1,-1,350,-1,11,-1,-1,-1,-1,,9999,0,1,2,FEW 15   BKN 45,-1,5,-1,7,1000,RJCC 260800Z 35011KT 9999 -SHSN FEW015 BKN045 M05/M07 Q1000     RMK 1ST015 5CU045 A2955 4000NE-E=,- SN SH
20180126_083000.001,0,RJCC,,,,0,20180126080000,-1,-1,-1,-1,340,-1,12,-1,-1,-1,-1,,5000,0,1,3,FEW 10   SCT 20   BKN 40,-1,5,-1,6,1000,RJCC 260830Z 34012KT 5000 -SHSN FEW010 SCT020 BKN040 M05/M06     Q1000 RMK 1ST010 3CU020 6CU040 A2956=,- SN SH
20180126_090000.002,0,RJCC,,,,0,20180126090000,-1,-1,-1,-1,340,-1,8,-1,-1,-1,-1,,9999,0,1,3,FEW 10   SCT 20   BKN 40,-1,5,-1,6,1001,RJCC 260900Z 34008KT 9999 -SHSN FEW010 SCT020 BKN040 M05/M06     Q1001 RMK 1ST010 3CU020 5CU040 A2957=,- SN SH
20180126_093000.001,0,RJCC,,,,0,20180126090000,-1,-1,-1,-1,360,-1,8,-1,-1,-1,-1,,9999,0,1,3,FEW 15   SCT 25   BKN 110,-1,6,-1,7,1001,RJCC 260930Z 36008KT 9999 -SHSN FEW015 SCT025 BKN110 M06/M07     Q1001 RMK 1ST015 3CU025 5AC110 A2958=,- SN SH
20180126_100000.002,0,RJCC,,,,0,20180126100000,-1,-1,-1,-1,330,-1,6,-1,-1,-1,-1,,9999,0,0,2,FEW 15   SCT 80,-1,7,-1,8,1001,RJCC 261000Z 33006KT 9999 FEW015 SCT080 M07/M08 Q1001 RMK     1ST015 4AC080 A2959=,
20180126_103000.001,0,RJCC,,,,0,20180126100000,-1,-1,-1,-1,310,-1,5,-1,-1,-1,-1,,9999,0,0,3,FEW 15   SCT 80   BKN 150,-1,8,-1,9,1002,RJCC 261030Z 31005KT 9999 FEW015 SCT080 BKN150 M08/M09 Q1002     RMK 1ST015 4AC080 5AC150 A2959=,
20180126_110000.002,0,RJCC,,,,0,20180126110000,-1,-1,-1,-1,320,-1,6,-1,-1,-1,-1,,9999,0,0,3,FEW 15   SCT 80   BKN 150,-1,5,-1,10,1002,RJCC 261100Z 32006KT 9999 FEW015 SCT080 BKN150 M05/M10 Q1002     RMK 1ST015 3AC080 6AC150 A2959=,
20180126_113000.001,0,RJCC,,,,0,20180126110000,-1,-1,-1,-1,340,-1,6,-1,-1,-1,-1,,9999,0,0,2,FEW 15   BKN 160,-1,5,-1,11,1002,RJCC 261130Z 34006KT 9999 FEW015 BKN160 M05/M11 Q1002 RMK     1ST015 6AC160 A2959=,
20180126_120000.002,0,RJCC,,,,0,20180126120000,-1,-1,-1,-1,340,-1,3,-1,-1,-1,-1,,9999,0,0,2,FEW 15   BKN 160,-1,10,-1,11,1002,RJCC 261200Z 34003KT 9999 FEW015 BKN160 M10/M11 Q1002 RMK     1ST015 6AC160 A2961=,
20180126_123000.001,0,RJCC,,,,0,20180126120000,-1,-1,-1,-1,320,-1,3,-1,-1,-1,-1,,9999,0,0,2,FEW 15   SCT 130,-1,7,-1,11,1002,RJCC 261230Z 32003KT 9999 FEW015 SCT130 M07/M11 Q1002 RMK     1ST015 4AC130 A2961=,
20180126_130000.002,0,RJCC,,,,0,20180126130000,-1,-1,-1,-1,999,-1,1,-1,-1,-1,-1,,9999,0,0,2,FEW 15   BKN 130,-1,11,-1,12,1003,RJCC 261300Z VRB01KT 9999 FEW015 BKN130 M11/M12 Q1003 RMK     1ST015 5AC130 A2962=,
20180126_133000.001,0,RJCC,,,,0,20180126130000,-1,-1,-1,-1,999,-1,1,-1,-1,-1,-1,,9999,0,0,3,FEW 15   SCT 90   BKN 130,-1,12,-1,13,1003,RJCC 261330Z VRB01KT 9999 FEW015 SCT090 BKN130 M12/M13 Q1003     RMK 1ST015 3AC090 6AC130 A2963=,
20180126_140000.002,0,RJCC,,,,0,20180126140000,-1,-1,-1,-1,120,-1,2,-1,-1,-1,-1,,9999,0,0,2,FEW 15   BKN 130,-1,11,-1,12,1003,RJCC 261400Z 12002KT 9999 FEW015 BKN130 M11/M12 Q1003 RMK     1ST015 6AC130 A2963=,
20180126_143000.001,0,RJCC,,,,0,20180126140000,-1,-1,-1,-1,0,-1,0,-1,-1,-1,-1,,9999,0,0,3,FEW 15   SCT 35   BKN 130,-1,12,-1,13,1003,RJCC 261430Z 00000KT 9999 FEW015 SCT035 BKN130 M12/M13 Q1003     RMK 1ST015 3CU035 6AC130 A2963=,
20180126_150000.002,0,RJCC,,,,0,20180126150000,-1,-1,-1,-1,999,-1,2,-1,-1,-1,-1,,9999,0,0,3,FEW 15   SCT 35   BKN 130,-1,14,-1,15,1003,RJCC 261500Z VRB02KT 9999 FEW015 SCT035 BKN130 M14/M15 Q1003     RMK 1ST015 4CU035 5AC130 A2963=,
20180126_153000.001,0,RJCC,,,,0,20180126150000,-1,-1,-1,-1,999,-1,2,-1,-1,-1,-1,,9999,0,0,3,FEW 15   SCT 35   BKN 130,-1,15,-1,16,1003,RJCC 261530Z VRB02KT 9999 FEW015 SCT035 BKN130 M15/M16 Q1003     RMK 1ST015 4CU035 5AC130 A2963=,
20180126_160000.002,0,RJCC,,,,0,20180126160000,-1,-1,-1,-1,200,-1,1,-1,-1,-1,-1,,9999,0,0,2,FEW 15   BKN 130,-1,15,-1,15,1003,RJCC 261600Z 20001KT 9999 FEW015 BKN130 M15/M15 Q1003 RMK     1ST015 6AC130 A2964=,
20180126_163000.001,0,RJCC,,,,0,20180126160000,-1,-1,-1,-1,999,-1,2,-1,-1,-1,-1,,9999,0,1,2,FEW 15   BKN 40,-1,14,-1,15,1003,RJCC 261630Z VRB02KT 9999 -SHSN FEW015 BKN040 M14/M15 Q1003     RMK 1ST015 6CU040 A2964=,- SN SH
20180126_170000.002,0,RJCC,,,,0,20180126170000,-1,-1,-1,-1,230,-1,1,-1,-1,-1,-1,,9999,0,0,2,FEW 15   BKN 40,-1,14,-1,15,1004,RJCC 261700Z 23001KT 9999 FEW015 BKN040 M14/M15 Q1004 RMK     1ST015 6CU040 A2965=,
20180126_173000.001,0,RJCC,,,,0,20180126170000,-1,-1,-1,-1,220,-1,3,-1,-1,-1,-1,,9999,0,0,3,FEW 15   SCT 25   BKN 40,-1,15,-1,16,1004,RJCC 261730Z 22003KT 9999 FEW015 SCT025 BKN040 M15/M16 Q1004     RMK 1ST015 3CU025 6CU040 A2965=,
20180126_180000.002,0,RJCC,,,,0,20180126180000,-1,-1,-1,-1,999,-1,1,-1,-1,-1,-1,,9999,0,0,3,FEW 15   SCT 30   BKN 45,-1,14,-1,15,1004,RJCC 261800Z VRB01KT 9999 FEW015 SCT030 BKN045 M14/M15 Q1004     RMK 1ST015 3CU030 6CU045 A2965=,
20180126_183000.001,0,RJCC,,,,0,20180126180000,-1,-1,-1,-1,999,-1,1,-1,-1,-1,-1,,9999,0,0,2,FEW 15   BKN 45,-1,14,-1,15,1004,RJCC 261830Z VRB01KT 9999 FEW015 BKN045 M14/M15 Q1004 RMK     1ST015 6CU045 A2965=,
20180126_190000.002,0,RJCC,,,,0,20180126190000,-1,-1,-1,-1,0,-1,0,-1,-1,-1,-1,,9999,2,0,3,FEW 15   SCT 30   BKN 45,-1,14,-1,14,1004,RJCC 261900Z 00000KT 9999 R01L/0650VP2000N R01R/P2000N FEW015     SCT030 BKN045 M14/M14 Q1004 RMK 1ST015 3CU030 6CU045           A2966=,
20180126_193000.001,0,RJCC,,,,0,20180126190000,-1,-1,-1,-1,110,-1,1,-1,-1,-1,-1,,9999,0,1,3,FEW 15   SCT 35   BKN 50,-1,13,-1,14,1004,RJCC 261930Z 11001KT 9999 -SHSN FEW015 SCT035 BKN050 M13/M14     Q1004 RMK 1ST015 3CU035 6CU050 A2966=,- SN SH
20180126_200000.003,0,RJCC,,,,0,20180126200000,-1,-1,-1,-1,190,-1,2,-1,-1,-1,-1,,9999,0,0,2,FEW 15   BKN 50,-1,12,-1,13,1004,RJCC 262000Z 19002KT 9999 FEW015 BKN050 M12/M13 Q1004 RMK     1ST015 6CU050 A2967=,
20180126_203000.001,0,RJCC,,,,0,20180126200000,-1,-1,-1,-1,999,-1,2,-1,-1,-1,-1,,9999,0,0,2,FEW 15   BKN 50,-1,13,-1,14,1005,RJCC 262030Z VRB02KT 9999 FEW015 BKN050 M13/M14 Q1005 RMK     1ST015 6CU050 A2968=,
20180126_210000.002,0,RJCC,,,,0,20180126210000,-1,-1,-1,-1,999,-1,1,-1,-1,-1,-1,,9999,0,0,2,FEW 15   BKN 50,-1,12,-1,13,1005,RJCC 262100Z VRB01KT 9999 FEW015 BKN050 M12/M13 Q1005 RMK     1ST015 6CU050 A2968=,
20180126_213000.001,0,RJCC,,,,0,20180126210000,-1,-1,-1,-1,999,-1,1,-1,-1,-1,-1,,9999,0,1,3,FEW 15   SCT 50   BKN 100,-1,13,-1,13,1005,RJCC 262130Z VRB01KT 9999 PRFG FEW015 SCT050 BKN100 M13/M13     Q1005 RMK 1ST015 4CU050 6AC100 A2969 FG NE=,PR FG
20180126_220000.002,0,RJCC,,,,0,20180126220000,-1,-1,-1,-1,0,-1,0,-1,-1,-1,-1,,9999,0,0,2,FEW 15   BKN 170,-1,13,-1,13,1005,RJCC 262200Z 00000KT 9999 FEW015 BKN170 M13/M13 Q1005 RMK     1ST015 6AC170 A2970=,
20180126_223000.002,0,RJCC,,,,0,20180126220000,-1,-1,-1,-1,999,-1,1,-1,-1,-1,-1,,9999,0,0,3,FEW 15   SCT 170   BKN -9999,-1,14,-1,15,1006,RJCC 262230Z VRB01KT 9999 FEW015 SCT170 BKN/// M14/M15 Q1006     RMK 1ST015 3AC170 A2971=,
20180126_230000.002,0,RJCC,,,,0,20180126230000,-1,-1,-1,-1,340,-1,5,-1,-1,-1,-1,,9999,0,0,2,FEW 15   SCT 130,-1,13,-1,13,1006,RJCC 262300Z 34005KT 9999 FEW015 SCT130 M13/M13 Q1006 RMK     1ST015 4AC130 A2972=,
20180126_233000.001,0,RJCC,,,,0,20180126230000,-1,-1,-1,-1,350,-1,6,-1,-1,-1,-1,,9999,0,0,1,FEW 15,-1,9,-1,11,1006,RJCC 262330Z 35006KT 9999 FEW015 M09/M11 Q1006 RMK 1ST015     A2972=,
20180127_000000.002,0,RJCC,,,,0,20180127000000,-1,-1,-1,-1,320,-1,12,-1,-1,-1,-1,,9999,0,0,2,FEW 15   SCT -9999,-1,5,-1,9,1007,RJCC 270000Z 32012KT 9999 FEW015 SCT/// M05/M09 Q1007 RMK     1ST015 A2974=,
20180127_003000.001,0,RJCC,,,,0,20180127000000,-1,-1,-1,-1,340,-1,15,-1,-1,-1,-1,,9999,0,1,3,FEW 15   SCT 35   BKN -9999,-1,4,-1,8,1007,RJCC 270030Z 34015KT 9999 VCSH FEW015 SCT035 BKN/// M04/M08     Q1007 RMK 1ST015 3CU035 A2974 SH N=,VC SH
20180127_010000.002,0,RJCC,,,,0,20180127010000,-1,-1,-1,-1,340,-1,13,-1,-1,-1,-1,,9999,0,1,3,FEW 15   SCT 35   BKN -9999,-1,4,-1,8,1007,RJCC 270100Z 34013KT 9999 -SHSN FEW015 SCT035 BKN/// M04/M08     Q1007 RMK 1ST015 3CU035 A2974=,- SN SH
20180127_013000.001,0,RJCC,,,,0,20180127010000,-1,-1,-1,-1,340,-1,15,-1,-1,-1,-1,,9999,0,1,3,FEW 15   SCT 45   BKN -9999,-1,3,-1,7,1007,RJCC 270130Z 34015KT 9999 -SHSN FEW015 SCT045 BKN/// M03/M07     Q1007 RMK 1ST015 3CU045 A2974=,- SN SH
20180127_020000.002,0,RJCC,,,,0,20180127020000,-1,-1,-1,-1,350,-1,14,-1,-1,-1,-1,,9999,0,1,3,FEW 15   SCT 45   BKN -9999,-1,3,-1,8,1007,RJCC 270200Z 35014KT 9999 -SHSN FEW015 SCT045 BKN/// M03/M08     Q1007 RMK 1ST015 3CU045 A2974=,- SN SH
20180127_023000.001,0,RJCC,,,,0,20180127020000,-1,-1,-1,-1,350,-1,14,-1,-1,-1,-1,,9999,0,1,3,FEW 15   SCT 50   BKN 150,-1,3,-1,7,1007,RJCC 270230Z 35014KT 9999 -SHSN FEW015 SCT050 BKN150 M03/M07     Q1007 RMK 1ST015 3CU050 5AC150 A2974=,- SN SH
20180127_030000.002,0,RJCC,,,,0,20180127030000,-1,-1,-1,-1,360,-1,12,-1,-1,-1,-1,,9999,0,1,3,FEW 15   SCT 40   BKN 150,-1,3,-1,7,1006,RJCC 270300Z 36012KT 9999 -SHSN FEW015 SCT040 BKN150 M03/M07     Q1006 RMK 1ST015 3CU040 5AC150 A2973=,- SN SH
20180127_033000.001,0,RJCC,,,,0,20180127030000,-1,-1,-1,-1,360,-1,11,-1,-1,-1,-1,,9999,0,1,3,FEW 10   SCT 40   BKN 150,-1,3,-1,7,1006,RJCC 270330Z 36011KT 9999 VCSH FEW010 SCT040 BKN150 M03/M07     Q1006 RMK 1ST010 3CU040 6AC150 A2973 SH NE=,VC SH
20180127_040000.002,0,RJCC,,,,0,20180127040000,-1,-1,-1,-1,360,-1,12,-1,-1,-1,-1,,9999,0,1,3,FEW 15   SCT 40   BKN 150,-1,3,-1,7,1006,RJCC 270400Z 36012KT 9999 -SHSN FEW015 SCT040 BKN150 M03/M07     Q1006 RMK 1ST015 3CU040 6AC150 A2973=,- SN SH
20180127_043000.001,0,RJCC,,,,0,20180127040000,-1,-1,-1,-1,20,-1,10,-1,-1,-1,-1,,9999,0,1,2,FEW 20   BKN 40,-1,3,-1,7,1006,RJCC 270430Z 02010KT 9999 -SHSN FEW020 BKN040 M03/M07 Q1006     RMK 1CU020 5CU040 A2972=,- SN SH
20180127_050000.002,0,RJCC,,,,0,20180127050000,-1,-1,-1,-1,10,-1,9,-1,-1,-1,-1,,9999,0,0,2,FEW 20   BKN 40,-1,3,-1,8,1006,RJCC 270500Z 01009KT 9999 FEW020 BKN040 M03/M08 Q1006 RMK     1CU020 5CU040 A2973=,
20180127_053000.001,0,RJCC,,,,0,20180127050000,-1,-1,-1,-1,360,-1,11,-1,-1,-1,-1,,9999,0,0,2,FEW 20   SCT 40,-1,3,-1,9,1007,RJCC 270530Z 36011KT 9999 FEW020 SCT040 M03/M09 Q1007 RMK     1CU020 3CU040 A2974=,
20180127_060000.002,0,RJCC,,,,0,20180127060000,-1,-1,-1,-1,360,-1,9,-1,-1,-1,-1,,9999,0,0,2,FEW 20   SCT 40,-1,4,-1,8,1007,RJCC 270600Z 36009KT 9999 FEW020 SCT040 M04/M08 Q1007 RMK     1CU020 3CU040 A2975=,
20180127_063000.001,0,RJCC,,,,0,20180127060000,-1,-1,-1,-1,360,-1,9,-1,-1,-1,-1,,9999,0,0,2,FEW 20   SCT 40,-1,4,-1,9,1008,RJCC 270630Z 36009KT 9999 FEW020 SCT040 M04/M09 Q1008 RMK     1CU020 3CU040 A2977=,
20180127_070000.002,0,RJCC,,,,0,20180127070000,-1,-1,-1,-1,350,-1,9,-1,-1,-1,-1,,9999,0,1,2,FEW 20   SCT 40,-1,5,-1,9,1008,RJCC 270700Z 35009KT 9999 VCSH FEW020 SCT040 M05/M09 Q1008 RMK     1CU020 3CU040 A2978 SH NW=,VC SH
20180127_073000.001,0,RJCC,,,,0,20180127070000,-1,-1,-1,-1,360,-1,8,-1,-1,-1,-1,,9999,0,1,2,FEW 20   SCT -9999,-1,6,-1,9,1008,RJCC 270730Z 36008KT 9999 VCSH FEW020 SCT/// M06/M09 Q1008 RMK     1CU020 A2979 SH NW=,VC SH
20180127_080000.002,0,RJCC,,,,0,20180127080000,-1,-1,-1,-1,360,-1,7,-1,-1,-1,-1,,9999,0,1,1,FEW 20,-1,6,-1,10,1009,RJCC 270800Z 36007KT 9999 VCSH FEW020 M06/M10 Q1009 RMK 1CU020     A2980 SH NW=,VC SH
20180127_083000.001,0,RJCC,,,,0,20180127080000,-1,-1,-1,-1,360,-1,8,-1,-1,-1,-1,,9999,0,0,1,FEW 20,-1,7,-1,11,1009,RJCC 270830Z 36008KT 9999 FEW020 M07/M11 Q1009 RMK 1CU020     A2981=,
20180127_090000.003,0,RJCC,,,,0,20180127090000,-1,-1,-1,-1,10,-1,5,-1,-1,-1,-1,,9999,0,0,1,FEW 20,-1,8,-1,12,1009,RJCC 270900Z 01005KT 9999 FEW020 M08/M12 Q1009 RMK 1CU020     A2982=,
20180127_093000.001,0,RJCC,,,,0,20180127090000,-1,-1,-1,-1,70,-1,2,-1,-1,-1,-1,,9999,0,0,1,FEW 20,-1,6,-1,11,1010,RJCC 270930Z 07002KT 9999 FEW020 M06/M11 Q1010 RMK 1CU020     A2983=,
20180127_100000.002,0,RJCC,,,,0,20180127100000,-1,-1,-1,-1,350,-1,4,-1,-1,310,20,,9999,0,0,1,FEW 20,-1,9,-1,13,1010,RJCC 271000Z 35004KT 310V020 9999 FEW020 M09/M13 Q1010 RMK     1CU020 A2984=,
20180127_103000.001,0,RJCC,,,,0,20180127100000,-1,-1,-1,-1,999,-1,2,-1,-1,-1,-1,,9999,0,0,2,FEW 20   SCT 45,-1,10,-1,13,1010,RJCC 271030Z VRB02KT 9999 FEW020 SCT045 M10/M13 Q1010 RMK     1CU020 3CU045 A2984=,
20180127_110000.002,0,RJCC,,,,0,20180127110000,-1,-1,-1,-1,999,-1,2,-1,-1,-1,-1,,9999,0,0,2,FEW 20   BKN 45,-1,9,-1,11,1010,RJCC 271100Z VRB02KT 9999 FEW020 BKN045 M09/M11 Q1010 RMK     1CU020 5CU045 A2984=,
20180127_113000.001,0,RJCC,,,,0,20180127110000,-1,-1,-1,-1,190,-1,3,-1,-1,160,230,,9999,0,0,2,FEW 20   BKN 45,-1,10,-1,12,1010,RJCC 271130Z 19003KT 160V230 9999 FEW020 BKN045 M10/M12 Q1010     RMK 1CU020 6CU045 A2985=,
20180127_120000.002,0,RJCC,,,,0,20180127120000,-1,-1,-1,-1,190,-1,4,-1,-1,140,210,,9999,0,0,2,FEW 20   BKN 45,-1,11,-1,14,1010,RJCC 271200Z 19004KT 140V210 9999 FEW020 BKN045 M11/M14 Q1010     RMK 1CU020 5CU045 A2985=,
20180127_123000.001,0,RJCC,,,,0,20180127120000,-1,-1,-1,-1,90,-1,3,-1,-1,70,140,,9999,0,0,2,FEW 20   BKN 50,-1,11,-1,13,1011,RJCC 271230Z 09003KT 070V140 9999 FEW020 BKN050 M11/M13 Q1011     RMK 1CU020 6CU050 A2985=,
20180127_130000.002,0,RJCC,,,,0,20180127130000,-1,-1,-1,-1,80,-1,4,-1,-1,-1,-1,,9999,0,0,2,FEW 20   BKN 50,-1,11,-1,12,1011,RJCC 271300Z 08004KT 9999 FEW020 BKN050 M11/M12 Q1011 RMK     1CU020 7CU050 A2986=,
20180127_133000.001,0,RJCC,,,,0,20180127130000,-1,-1,-1,-1,130,-1,3,-1,-1,110,170,,9999,0,0,2,FEW 20   BKN 50,-1,12,-1,13,1011,RJCC 271330Z 13003KT 110V170 9999 FEW020 BKN050 M12/M13 Q1011     RMK 1CU020 6CU050 A2987=,
20180127_140000.003,0,RJCC,,,,0,20180127140000,-1,-1,-1,-1,190,-1,1,-1,-1,-1,-1,,9999,0,0,2,FEW 20   BKN 50,-1,11,-1,12,1011,RJCC 271400Z 19001KT 9999 FEW020 BKN050 M11/M12 Q1011 RMK     1CU020 7CU050 A2987=,
20180127_143000.001,0,RJCC,,,,0,20180127140000,-1,-1,-1,-1,210,-1,3,-1,-1,-1,-1,,9999,0,0,2,FEW 20   BKN 50,-1,11,-1,12,1011,RJCC 271430Z 21003KT 9999 FEW020 BKN050 M11/M12 Q1011 RMK     1CU020 7CU050 A2988=,
20180127_150000.002,0,RJCC,,,,0,20180127150000,-1,-1,-1,-1,90,-1,3,-1,-1,70,130,,9999,0,0,2,FEW 20   BKN 50,-1,11,-1,12,1012,RJCC 271500Z 09003KT 070V130 9999 FEW020 BKN050 M11/M12 Q1012     RMK 1CU020 7CU050 A2988=,
20180127_153000.001,0,RJCC,,,,0,20180127150000,-1,-1,-1,-1,0,-1,0,-1,-1,-1,-1,,9999,0,0,2,FEW 20   BKN 50,-1,10,-1,12,1012,RJCC 271530Z 00000KT 9999 FEW020 BKN050 M10/M12 Q1012 RMK     1CU020 7CU050 A2990=,
20180127_160000.002,0,RJCC,,,,0,20180127160000,-1,-1,-1,-1,999,-1,1,-1,-1,-1,-1,,9999,0,0,2,FEW 20   BKN 50,-1,10,-1,12,1012,RJCC 271600Z VRB01KT 9999 FEW020 BKN050 M10/M12 Q1012 RMK     1CU020 6CU050 A2990=,
20180127_163000.001,0,RJCC,,,,0,20180127160000,-1,-1,-1,-1,190,-1,3,-1,-1,-1,-1,,9999,0,0,2,FEW 20   BKN 50,-1,13,-1,14,1012,RJCC 271630Z 19003KT 9999 FEW020 BKN050 M13/M14 Q1012 RMK     1CU020 7CU050 A2990=,
20180127_170000.002,0,RJCC,,,,0,20180127170000,-1,-1,-1,-1,40,-1,2,-1,-1,-1,-1,,9999,0,0,2,FEW 20   BKN 50,-1,11,-1,12,1012,RJCC 271700Z 04002KT 9999 FEW020 BKN050 M11/M12 Q1012 RMK     1CU020 7CU050 A2991=,
20180127_173000.001,0,RJCC,,,,0,20180127170000,-1,-1,-1,-1,999,-1,2,-1,-1,-1,-1,,9999,0,0,2,FEW 20   BKN 50,-1,10,-1,11,1012,RJCC 271730Z VRB02KT 9999 FEW020 BKN050 M10/M11 Q1012 RMK     1CU020 6CU050 A2990=,
20180127_180000.002,0,RJCC,,,,0,20180127180000,-1,-1,-1,-1,0,-1,0,-1,-1,-1,-1,,9999,0,0,3,FEW 20   SCT 35   BKN 50,-1,12,-1,13,1013,RJCC 271800Z 00000KT 9999 FEW020 SCT035 BKN050 M12/M13 Q1013     RMK 1CU020 3CU035 7CU050 A2991=,
20180127_183000.001,0,RJCC,,,,0,20180127180000,-1,-1,-1,-1,999,-1,1,-1,-1,-1,-1,,9999,0,0,2,FEW 20   BKN 50,-1,11,-1,12,1012,RJCC 271830Z VRB01KT 9999 FEW020 BKN050 M11/M12 Q1012 RMK     1CU020 7CU050 A2991=,
20180127_190000.002,0,RJCC,,,,0,20180127190000,-1,-1,-1,-1,240,-1,2,-1,-1,-1,-1,,9999,0,0,2,FEW 20   BKN 50,-1,12,-1,13,1013,RJCC 271900Z 24002KT 9999 FEW020 BKN050 M12/M13 Q1013 RMK     1CU020 7CU050 A2991=,
20180127_193000.001,0,RJCC,,,,0,20180127190000,-1,-1,-1,-1,240,-1,2,-1,-1,-1,-1,,9999,0,0,2,FEW 20   BKN 50,-1,11,-1,12,1013,RJCC 271930Z 24002KT 9999 FEW020 BKN050 M11/M12 Q1013 RMK     1CU020 7CU050 A2992=,
20180127_200000.002,0,RJCC,,,,0,20180127200000,-1,-1,-1,-1,230,-1,2,-1,-1,-1,-1,,9999,0,0,2,FEW 20   BKN 50,-1,11,-1,12,1013,RJCC 272000Z 23002KT 9999 FEW020 BKN050 M11/M12 Q1013 RMK     1CU020 7CU050 A2992=,
20180127_203000.001,0,RJCC,,,,0,20180127200000,-1,-1,-1,-1,999,-1,1,-1,-1,-1,-1,,9999,0,0,2,FEW 20   BKN 50,-1,11,-1,12,1013,RJCC 272030Z VRB01KT 9999 FEW020 BKN050 M11/M12 Q1013 RMK     1CU020 6CU050 A2992=,
20180127_210000.002,0,RJCC,,,,0,20180127210000,-1,-1,-1,-1,999,-1,2,-1,-1,-1,-1,,9999,0,0,2,FEW 20   BKN 50,-1,12,-1,13,1013,RJCC 272100Z VRB02KT 9999 FEW020 BKN050 M12/M13 Q1013 RMK     1CU020 5CU050 A2992=,
20180127_213000.001,0,RJCC,,,,0,20180127210000,-1,-1,-1,-1,170,-1,3,-1,-1,-1,-1,,9999,0,0,2,FEW 20   BKN 50,-1,12,-1,12,1013,RJCC 272130Z 17003KT 9999 FEW020 BKN050 M12/M12 Q1013 RMK     1CU020 5CU050 A2992=,
20180127_220000.002,0,RJCC,,,,0,20180127220000,-1,-1,-1,-1,999,-1,2,-1,-1,-1,-1,,9999,0,1,2,FEW 25   BKN 40,-1,14,-1,14,1013,RJCC 272200Z VRB02KT 9999 MIFG FEW025 BKN040 M14/M14 Q1013 RMK     1CU025 5CU040 A2992 MIFG NE-E=,MI FG
20180127_223000.002,0,RJCC,,,,0,20180127220000,-1,-1,-1,-1,999,-1,1,-1,-1,-1,-1,,9999,0,0,2,FEW 25   BKN 40,-1,14,-1,14,1013,RJCC 272230Z VRB01KT 9999 FEW025 BKN040 M14/M14 Q1013 RMK     1CU025 5CU040 A2993=,
20180127_230000.002,0,RJCC,,,,0,20180127230000,-1,-1,-1,-1,150,-1,2,-1,-1,-1,-1,,9999,0,0,2,FEW 25   BKN 40,-1,13,-1,13,1013,RJCC 272300Z 15002KT 9999 FEW025 BKN040 M13/M13 Q1013 RMK     1CU025 5CU040 A2994=,
20180127_233000.001,0,RJCC,,,,0,20180127230000,-1,-1,-1,-1,999,-1,1,-1,-1,-1,-1,,9999,0,0,2,FEW 25   BKN 45,-1,11,-1,12,1013,RJCC 272330Z VRB01KT 9999 FEW025 BKN045 M11/M12 Q1013 RMK     1CU025 5CU045 A2993=,
20180128_000000.003,0,RJCC,,,,0,20180128000000,-1,-1,-1,-1,80,-1,3,-1,-1,-1,-1,,9999,0,0,2,FEW 25   SCT 130,-1,9,-1,11,1013,RJCC 280000Z 08003KT 9999 FEW025 SCT130 M09/M11 Q1013 RMK     1CU025 4AC130 A2992=,
20180128_003000.001,0,RJCC,,,,0,20180128000000,-1,-1,-1,-1,100,-1,3,-1,-1,70,130,,9999,0,0,3,FEW 25   SCT 45   BKN 130,-1,8,-1,11,1013,RJCC 280030Z 10003KT 070V130 9999 FEW025 SCT045 BKN130 M08/M11     Q1013 RMK 1CU025 3CU045 5AC130 A2992=,
20180128_010000.002,0,RJCC,,,,0,20180128010000,-1,-1,-1,-1,150,-1,4,-1,-1,-1,-1,,9999,0,0,2,FEW 25   SCT 45,-1,5,-1,11,1013,RJCC 280100Z 15004KT 9999 FEW025 SCT045 M05/M11 Q1013 RMK     1CU025 4CU045 A2992=,
20180128_013000.001,0,RJCC,,,,0,20180128010000,-1,-1,-1,-1,240,-1,5,-1,-1,200,280,,9999,0,0,3,FEW 25   SCT 40   BKN -9999,-1,3,-1,11,1012,RJCC 280130Z 24005KT 200V280 9999 FEW025 SCT040 BKN/// M03/M11     Q1012 RMK 1CU025 4CU040 A2990=,
20180128_020000.002,0,RJCC,,,,0,20180128020000,-1,-1,-1,-1,250,-1,6,-1,-1,200,280,,9999,0,0,3,FEW 25   SCT 40   BKN -9999,-1,3,-1,13,1012,RJCC 280200Z 25006KT 200V280 9999 FEW025 SCT040 BKN/// M03/M13     Q1012 RMK 1CU025 4CU040 A2989=,
20180128_023000.001,0,RJCC,,,,0,20180128020000,-1,-1,-1,-1,250,-1,5,-1,-1,200,270,,9999,0,0,3,FEW 25   SCT 40   BKN -9999,-1,2,-1,13,1011,RJCC 280230Z 25005KT 200V270 9999 FEW025 SCT040 BKN/// M02/M13     Q1011 RMK 1CU025 3CU040 A2987=,
20180128_030000.002,0,RJCC,,,,0,20180128030000,-1,-1,-1,-1,250,-1,4,-1,-1,210,310,,9999,0,0,2,FEW 25   BKN -9999,-1,2,-1,12,1010,RJCC 280300Z 25004KT 210V310 9999 FEW025 BKN/// M02/M12 Q1010     RMK 1CU025 A2984 P/FR=,
20180128_033000.001,0,RJCC,,,,0,20180128030000,-1,-1,-1,-1,999,-1,2,-1,-1,-1,-1,,9999,0,0,2,FEW 25   BKN -9999,-1,2,-1,11,1009,RJCC 280330Z VRB02KT 9999 FEW025 BKN/// M02/M11 Q1009 RMK     1CU025 A2982=,
20180128_040000.002,0,RJCC,,,,0,20180128040000,-1,-1,-1,-1,999,-1,4,-1,-1,-1,-1,,9999,0,0,2,FEW 25   BKN -9999,-1,1,-1,12,1009,RJCC 280400Z VRB04KT 9999 FEW025 BKN/// M01/M12 Q1009 RMK     1CU025 A2981=,
20180128_043000.001,0,RJCC,,,,0,20180128040000,-1,-1,-1,-1,240,-1,11,-1,-1,-1,-1,,9999,0,0,2,FEW 25   BKN -9999,-1,1,-1,12,1009,RJCC 280430Z 24011KT 9999 FEW025 BKN/// M01/M12 Q1009 RMK     1CU025 A2981=,
20180128_050000.002,0,RJCC,,,,0,20180128050000,-1,-1,-1,-1,230,-1,13,-1,-1,-1,-1,,9999,0,0,3,FEW 25   BKN 80   BKN -9999,-1,2,-1,11,1009,RJCC 280500Z 23013KT 9999 FEW025 BKN080 BKN/// M02/M11 Q1009     RMK 1CU025 5AC080 A2981=,
20180128_053000.001,0,RJCC,,,,0,20180128050000,-1,-1,-1,-1,230,-1,10,-1,-1,-1,-1,,9999,0,0,3,FEW 25   SCT 50   BKN 70,-1,2,-1,11,1009,RJCC 280530Z 23010KT 9999 FEW025 SCT050 BKN070 M02/M11 Q1009     RMK 1CU025 3SC050 7AC070 A2982=,
20180128_060000.002,0,RJCC,,,,0,20180128060000,-1,-1,-1,-1,250,-1,7,-1,-1,210,280,,9999,0,0,2,FEW 25   BKN 70,-1,2,-1,11,1009,RJCC 280600Z 25007KT 210V280 9999 FEW025 BKN070 M02/M11 Q1009     RMK 1CU025 7AC070 A2982=,
20180128_063000.001,0,RJCC,,,,0,20180128060000,-1,-1,-1,-1,210,-1,6,-1,-1,190,250,,9999,0,1,2,FEW 20   BKN 60,-1,2,-1,11,1010,RJCC 280630Z 21006KT 190V250 9999 VCSH FEW020 BKN060 M02/M11     Q1010 RMK 1ST020 7SC060 A2982 SH W=,VC SH
20180128_070000.003,0,RJCC,,,,0,20180128070000,-1,-1,-1,-1,220,-1,8,-1,-1,-1,-1,,9999,0,1,2,FEW 20   BKN 50,-1,2,-1,11,1009,RJCC 280700Z 22008KT 9999 VCSH FEW020 BKN050 M02/M11 Q1009 RMK     1ST020 7SC050 A2982 SH NW=,VC SH
20180128_073000.001,0,RJCC,,,,0,20180128070000,-1,-1,-1,-1,180,-1,5,-1,-1,-1,-1,,9999,0,0,2,FEW 25   BKN 60,-1,3,-1,10,1009,RJCC 280730Z 18005KT 9999 FEW025 BKN060 M03/M10 Q1009 RMK     1CU025 7SC060 A2981=,
20180128_080000.002,0,RJCC,,,,0,20180128080000,-1,-1,-1,-1,180,-1,7,-1,-1,-1,-1,,9999,0,0,2,FEW 20   BKN 60,-1,3,-1,9,1009,RJCC 280800Z 18007KT 9999 FEW020 BKN060 M03/M09 Q1009 RMK     1ST020 7SC060 A2980=,
20180128_083000.001,0,RJCC,,,,0,20180128080000,-1,-1,-1,-1,170,-1,3,-1,-1,120,220,,9999,0,0,2,FEW 15   BKN 50,-1,3,-1,10,1008,RJCC 280830Z 17003KT 120V220 9999 FEW015 BKN050 M03/M10 Q1008     RMK 1ST015 6SC050 A2979=,
20180128_090000.002,0,RJCC,,,,0,20180128090000,-1,-1,-1,-1,180,-1,5,-1,-1,-1,-1,,9999,0,0,2,FEW 15   BKN 50,-1,2,-1,10,1008,RJCC 280900Z 18005KT 9999 FEW015 BKN050 M02/M10 Q1008 RMK     1ST015 6SC050 A2978=,
20180128_093000.001,0,RJCC,,,,0,20180128090000,-1,-1,-1,-1,180,-1,6,-1,-1,-1,-1,,9999,0,1,2,FEW 15   BKN 45,-1,3,-1,8,1008,RJCC 280930Z 18006KT 9999 -SN FEW015 BKN045 M03/M08 Q1008 RMK     1ST015 7SC045 A2977=,- SN
20180128_100000.002,0,RJCC,,,,0,20180128100000,-1,-1,-1,-1,170,-1,7,-1,-1,-1,-1,,9999,0,0,3,FEW 15   SCT 45   BKN 60,-1,3,-1,8,1007,RJCC 281000Z 17007KT 9999 FEW015 SCT045 BKN060 M03/M08 Q1007     RMK 1ST015 3SC045 6SC060 A2975=,
20180128_103000.001,0,RJCC,,,,0,20180128100000,-1,-1,-1,-1,160,-1,6,-1,-1,-1,-1,,9999,0,0,3,FEW 15   SCT 45   BKN 70,-1,4,-1,8,1006,RJCC 281030Z 16006KT 9999 FEW015 SCT045 BKN070 M04/M08 Q1006     RMK 1ST015 3SC045 7AS070 A2972=,
20180128_110000.002,0,RJCC,,,,0,20180128110000,-1,-1,-1,-1,160,-1,5,-1,-1,-1,-1,,9999,0,1,3,FEW 15   SCT 40   BKN 70,-1,4,-1,8,1005,RJCC 281100Z 16005KT 9999 -SN FEW015 SCT040 BKN070 M04/M08     Q1005 RMK 1ST015 4SC040 7AS070 A2969=,- SN
20180128_113000.001,0,RJCC,,,,0,20180128110000,-1,-1,-1,-1,120,-1,5,-1,-1,-1,-1,,3000,0,1,2,FEW 10   BKN 18,-1,4,-1,6,1005,RJCC 281130Z 12005KT 3000 -SHSN FEW010 BKN018 M04/M06 Q1005     RMK 1ST010 7ST018 A2968=,- SN SH
20180128_120000.002,0,RJCC,,,,0,20180128120000,-1,-1,-1,-1,120,-1,5,-1,-1,-1,-1,,1400,2,1,2,FEW 10   BKN 12,-1,4,-1,5,1004,RJCC 281200Z 12005KT 1400 R19R/P2000N R19L/P2000N -SHSN FEW010     BKN012 M04/M05 Q1004 RMK 2ST010 7ST012 A2966=,- SN SH
20180128_123000.001,0,RJCC,,,,0,20180128120000,-1,-1,-1,-1,90,-1,3,-1,-1,30,120,,1400,2,1,3,FEW 8   SCT 10   BKN 12,-1,5,-1,5,1003,RJCC 281230Z 09003KT 030V120 1400 R19R/P2000N R19L/P2000N     -SHSN FEW008 SCT010 BKN012 M05/M05 Q1003 RMK 1ST008           3ST010 7ST012 A2964=,- SN SH
20180128_130000.002,0,RJCC,,,,0,20180128130000,-1,-1,-1,-1,360,-1,5,-1,-1,-1,-1,,900,2,1,3,FEW 6   BKN 8   BKN 10,-1,5,-1,5,1003,RJCC 281300Z 36005KT 0900 R19R/P2000N R19L/P2000N SHSN FEW006     BKN008 BKN010 M05/M05 Q1003 RMK 1ST006 5ST008 7ST010           A2962=,SN SH
20180128_133000.001,0,RJCC,,,,0,20180128130000,-1,-1,-1,-1,340,-1,8,-1,-1,-1,-1,,600,2,1,1,VV 6,-1,5,-1,5,1002,RJCC 281330Z 34008KT 0600 R01L/P2000N R01R/P2000N SHSN VV006     M05/M05 Q1002 RMK A2961=,SN SH
20180128_140000.002,0,RJCC,,,,0,20180128140000,-1,-1,-1,-1,350,-1,8,-1,-1,-1,-1,,300,2,1,1,VV 3,-1,5,-1,5,1002,RJCC 281400Z 35008KT 0300 R01L/0750V1100N R01R/0800V1700D SHSN     VV003 M05/M05 Q1002 RMK A2960=,SN SH
20180128_143000.001,0,RJCC,,,,0,20180128140000,-1,-1,-1,-1,340,-1,13,-1,-1,-1,-1,,400,2,1,1,VV 3,-1,5,-1,5,1001,RJCC 281430Z 34013KT 0400 R01L/1200N R01R/1200N SHSN VV003     M05/M05 Q1001 RMK A2958=,SN SH
20180128_150000.002,0,RJCC,,,,0,20180128150000,-1,-1,-1,-1,350,-1,15,-1,-1,-1,-1,,400,2,1,1,VV 3,-1,5,-1,5,1001,RJCC 281500Z 35015KT 0400 R01L/1200D R01R/1200V1700D SHSN     VV003 M05/M05 Q1001 RMK A2957=,SN SH
20180128_153000.001,0,RJCC,,,,0,20180128150000,-1,-1,-1,-1,340,-1,23,-1,-1,-1,-1,,300,2,2,1,VV 3,-1,6,-1,6,1001,RJCC 281530Z 34023KT 0300 R01L/1400U R19L/1900U SHSN BLSN     VV003 M06/M06 Q1001 RMK A2957=,SN SH; BL SN
20180128_160000.002,0,RJCC,,,,0,20180128160000,-1,-1,-1,-1,330,-1,17,-1,-1,-1,-1,,800,2,1,3,FEW 3   SCT 6   BKN 7,-1,6,-1,7,1001,RJCC 281600Z 33017KT 0800 R01L/P2000N R19L/P2000N SHSN FEW003     SCT006 BKN007 M06/M07 Q1001 RMK 1ST003 3ST006 6ST007           A2959=,SN SH
20180128_163000.001,0,RJCC,,,,0,20180128160000,-1,-1,-1,-1,340,-1,16,-1,-1,-1,-1,,1800,0,1,3,FEW 3   SCT 8   BKN 16,-1,6,-1,7,1002,RJCC 281630Z 34016KT 1800 -SHSN FEW003 SCT008 BKN016 M06/M07     Q1002 RMK 1ST003 3ST008 6ST016 A2960=,- SN SH
20180128_170000.002,0,RJCC,,,,0,20180128170000,-1,-1,-1,-1,340,-1,12,-1,-1,-1,-1,,2000,0,1,3,FEW 9   SCT 12   BKN 20,-1,6,-1,7,1003,RJCC 281700Z 34012KT 2000 -SHSN FEW009 SCT012 BKN020 M06/M07     Q1003 RMK 1ST009 3ST012 6CU020 A2962=,- SN SH
20180128_173000.001,0,RJCC,,,,0,20180128170000,-1,-1,-1,-1,350,-1,11,-1,-1,-1,-1,,5000,0,1,3,FEW 8   BKN 10   BKN 50,-1,6,-1,7,1003,RJCC 281730Z 35011KT 5000 -SHSN FEW008 BKN010 BKN050 M06/M07     Q1003 RMK 1ST008 5ST010 7CU050 A2962=,- SN SH
20180128_180000.002,0,RJCC,,,,0,20180128180000,-1,-1,-1,-1,10,-1,9,-1,-1,-1,-1,,9999,0,1,3,FEW 8   SCT 10   BKN 100,-1,7,-1,7,1002,RJCC 281800Z 01009KT 9999 -SHSN FEW008 SCT010 BKN100 M07/M07     Q1002 RMK 1ST008 3ST010 5AC100 A2959=,- SN SH
20180128_183000.001,0,RJCC,,,,0,20180128180000,-1,-1,-1,-1,340,-1,16,-1,-1,-1,-1,,9999,0,1,2,FEW 10   BKN 50,-1,7,-1,8,1003,RJCC 281830Z 34016KT 9999 -SHSN FEW010 BKN050 M07/M08 Q1003     RMK 1ST010 7CU050 A2962 5000NE-E=,- SN SH
20180128_190000.002,0,RJCC,,,,0,20180128190000,-1,-1,-1,-1,330,-1,15,-1,-1,-1,-1,,9999,0,1,2,FEW 10   BKN 50,-1,6,-1,10,1003,RJCC 281900Z 33015KT 9999 -SHSN FEW010 BKN050 M06/M10 Q1003     RMK 1ST010 6CU050 A2964=,- SN SH
20180128_193000.001,0,RJCC,,,,0,20180128190000,-1,-1,-1,-1,340,-1,11,-1,-1,-1,-1,,9999,0,1,2,FEW 10   SCT 50,-1,8,-1,12,1004,RJCC 281930Z 34011KT 9999 -SHSN FEW010 SCT050 M08/M12 Q1004     RMK 1ST010 3CU050 A2966=,- SN SH
20180128_200000.002,0,RJCC,,,,0,20180128200000,-1,-1,-1,-1,350,-1,7,-1,-1,-1,-1,,9999,2,0,2,FEW 10   SCT 50,-1,10,-1,13,1005,RJCC 282000Z 35007KT 9999 R01L/2000N R19L/P2000N FEW010 SCT050     M10/M13 Q1005 RMK 1ST010 3CU050 A2968=,
20180128_203000.001,0,RJCC,,,,0,20180128200000,-1,-1,-1,-1,340,-1,5,-1,-1,-1,-1,,9999,0,0,1,FEW 10,-1,11,-1,14,1005,RJCC 282030Z 34005KT 9999 FEW010 M11/M14 Q1005 RMK 1ST010     A2968=,
20180128_210000.002,0,RJCC,,,,0,20180128210000,-1,-1,-1,-1,330,-1,8,-1,-1,-1,-1,,9999,0,0,1,FEW 10,-1,10,-1,14,1005,RJCC 282100Z 33008KT 9999 FEW010 M10/M14 Q1005 RMK 1ST010     A2969=,
20180128_213000.001,0,RJCC,,,,0,20180128210000,-1,-1,-1,-1,320,-1,5,-1,-1,-1,-1,,9999,0,0,1,FEW 15,-1,11,-1,16,1005,RJCC 282130Z 32005KT 9999 FEW015 M11/M16 Q1005 RMK 1ST015     A2970=,
20180128_220000.003,0,RJCC,,,,0,20180128220000,-1,-1,-1,-1,160,-1,3,-1,-1,-1,-1,,9999,0,0,2,FEW 15   SCT 40,-1,12,-1,14,1006,RJCC 282200Z 16003KT 9999 FEW015 SCT040 M12/M14 Q1006 RMK     1ST015 3CU040 A2971=,
20180128_223000.002,0,RJCC,,,,0,20180128220000,-1,-1,-1,-1,999,-1,2,-1,-1,-1,-1,,9999,2,0,2,FEW 15   SCT 60,-1,13,-1,16,1006,RJCC 282230Z VRB02KT 9999 R01L/0900VP2000U R01R/P2000N FEW015     SCT060 M13/M16 Q1006 RMK 1ST015 4CU060 A2973=,
20180128_230000.002,0,RJCC,,,,0,20180128230000,-1,-1,-1,-1,999,-1,2,-1,-1,-1,-1,,9999,0,0,2,FEW 20   BKN 50,-1,11,-1,15,1007,RJCC 282300Z VRB02KT 9999 FEW020 BKN050 M11/M15 Q1007 RMK     1CU020 6CU050 A2974=,
20180128_233000.001,0,RJCC,,,,0,20180128230000,-1,-1,-1,-1,80,-1,3,-1,-1,40,100,,9999,0,0,3,FEW 20   SCT 40   BKN 60,-1,9,-1,14,1007,RJCC 282330Z 08003KT 040V100 9999 FEW020 SCT040 BKN060 M09/M14     Q1007 RMK 1CU020 3CU040 7CU060 A2974=,
20180129_000000.003,0,RJCC,,,,0,20180129000000,-1,-1,-1,-1,170,-1,3,-1,-1,-1,-1,,9999,0,1,3,FEW 20   SCT 40   BKN 60,-1,8,-1,14,1007,RJCC 290000Z 17003KT 9999 -SHSN FEW020 SCT040 BKN060 M08/M14     Q1007 RMK 1CU020 3CU040 7CU060 A2975=,- SN SH
20180129_003000.001,0,RJCC,,,,0,20180129000000,-1,-1,-1,-1,180,-1,4,-1,-1,150,240,,9999,0,1,3,FEW 15   SCT 30   BKN 50,-1,8,-1,14,1007,RJCC 290030Z 18004KT 150V240 9999 -SHSN FEW015 SCT030 BKN050     M08/M14 Q1007 RMK 1ST015 3CU030 7CU050 A2975=,- SN SH
20180129_010000.002,0,RJCC,,,,0,20180129010000,-1,-1,-1,-1,999,-1,1,-1,-1,-1,-1,,9999,0,1,3,FEW 15   SCT 30   BKN 40,-1,7,-1,14,1007,RJCC 290100Z VRB01KT 9999 -SHSN FEW015 SCT030 BKN040 M07/M14     Q1007 RMK 1ST015 3CU030 7CU040 A2975=,- SN SH
20180129_013000.001,0,RJCC,,,,0,20180129010000,-1,-1,-1,-1,999,-1,2,-1,-1,-1,-1,,9999,0,0,2,FEW 15   BKN 40,-1,7,-1,14,1007,RJCC 290130Z VRB02KT 9999 FEW015 BKN040 M07/M14 Q1007 RMK     1ST015 6CU040 A2974=,
20180129_020000.002,0,RJCC,,,,0,20180129020000,-1,-1,-1,-1,999,-1,2,-1,-1,-1,-1,,9999,0,0,3,FEW 15   SCT 40   BKN -9999,-1,7,-1,14,1006,RJCC 290200Z VRB02KT 9999 FEW015 SCT040 BKN/// M07/M14 Q1006     RMK 1ST015 3CU040 A2973=,
20180129_023000.001,0,RJCC,,,,0,20180129020000,-1,-1,-1,-1,230,-1,6,-1,-1,180,250,,9999,0,1,3,FEW 15   SCT 30   BKN -9999,-1,7,-1,12,1006,RJCC 290230Z 23006KT 180V250 9999 -SHSN FEW015 SCT030 BKN///     M07/M12 Q1006 RMK 1ST015 4CU030 A2972=,- SN SH
20180129_030000.002,0,RJCC,,,,0,20180129030000,-1,-1,-1,-1,160,-1,3,-1,-1,-1,-1,,9999,0,0,2,FEW 15   BKN -9999,-1,7,-1,14,1006,RJCC 290300Z 16003KT 9999 FEW015 BKN/// M07/M14 Q1006 RMK     1ST015 A2972=,
20180129_033000.001,0,RJCC,,,,0,20180129030000,-1,-1,-1,-1,999,-1,2,-1,-1,-1,-1,,9999,0,0,3,FEW 15   BKN 50   BKN -9999,-1,7,-1,14,1005,RJCC 290330Z VRB02KT 9999 FEW015 BKN050 BKN/// M07/M14 Q1005     RMK 1ST015 5CU050 A2970=,
20180129_040000.002,0,RJCC,,,,0,20180129040000,-1,-1,-1,-1,999,-1,4,-1,-1,-1,-1,,9999,0,0,2,FEW 15   BKN 40,-1,5,-1,15,1005,RJCC 290400Z VRB04KT 9999 FEW015 BKN040 M05/M15 Q1005 RMK     1ST015 6CU040 A2970=,
20180129_043000.001,0,RJCC,,,,0,20180129040000,-1,-1,-1,-1,230,-1,10,-1,-1,-1,-1,,9999,0,0,2,FEW 15   BKN 45,-1,5,-1,16,1005,RJCC 290430Z 23010KT 9999 FEW015 BKN045 M05/M16 Q1005 RMK     1ST015 5CU045 A2970=,
20180129_050000.002,0,RJCC,,,,0,20180129050000,-1,-1,-1,-1,250,-1,8,-1,-1,210,280,,9999,0,0,2,FEW 15   BKN 45,-1,6,-1,16,1005,RJCC 290500Z 25008KT 210V280 9999 FEW015 BKN045 M06/M16 Q1005     RMK 1ST015 6CU045 A2970=,
20180129_053000.001,0,RJCC,,,,0,20180129050000,-1,-1,-1,-1,350,-1,6,-1,-1,-1,-1,,9999,0,0,2,FEW 15   BKN 45,-1,6,-1,13,1006,RJCC 290530Z 35006KT 9999 FEW015 BKN045 M06/M13 Q1006 RMK     1ST015 6CU045 A2971=,
20180129_060000.002,0,RJCC,,,,0,20180129060000,-1,-1,-1,-1,20,-1,6,-1,-1,340,60,,9999,0,0,2,FEW 15   BKN 40,-1,6,-1,14,1006,RJCC 290600Z 02006KT 340V060 9999 FEW015 BKN040 M06/M14 Q1006     RMK 1ST015 6CU040 A2972=,
20180129_063000.001,0,RJCC,,,,0,20180129060000,-1,-1,-1,-1,20,-1,6,-1,-1,-1,-1,,9999,0,1,2,FEW 15   BKN 35,-1,6,-1,12,1006,RJCC 290630Z 02006KT 9999 -SHSN FEW015 BKN035 M06/M12 Q1006     RMK 1ST015 6CU035 A2972=,- SN SH
20180129_070000.002,0,RJCC,,,,0,20180129070000,-1,-1,-1,-1,20,-1,5,-1,-1,-1,-1,,9999,0,0,2,FEW 15   BKN 40,-1,7,-1,13,1006,RJCC 290700Z 02005KT 9999 FEW015 BKN040 M07/M13 Q1006 RMK     1ST015 6CU040 A2972=,
20180129_073000.001,0,RJCC,,,,0,20180129070000,-1,-1,-1,-1,360,-1,5,-1,-1,-1,-1,,9999,0,0,2,FEW 15   SCT 40,-1,8,-1,13,1006,RJCC 290730Z 36005KT 9999 FEW015 SCT040 M08/M13 Q1006 RMK     1ST015 3CU040 A2973=,
20180129_080000.002,0,RJCC,,,,0,20180129080000,-1,-1,-1,-1,20,-1,4,-1,-1,-1,-1,,9999,0,0,2,FEW 15   SCT -9999,-1,9,-1,14,1006,RJCC 290800Z 02004KT 9999 FEW015 SCT/// M09/M14 Q1006 RMK     1ST015 A2973=,
20180129_083000.001,0,RJCC,,,,0,20180129080000,-1,-1,-1,-1,360,-1,3,-1,-1,-1,-1,,9999,0,0,2,FEW 15   SCT -9999,-1,10,-1,14,1006,RJCC 290830Z 36003KT 9999 FEW015 SCT/// M10/M14 Q1006 RMK     1ST015 A2973=,
20180129_090000.002,0,RJCC,,,,0,20180129090000,-1,-1,-1,-1,999,-1,2,-1,-1,-1,-1,,9999,0,0,1,FEW 15,-1,11,-1,14,1006,RJCC 290900Z VRB02KT 9999 FEW015 M11/M14 Q1006 RMK 1ST015     A2973=,
20180129_093000.001,0,RJCC,,,,0,20180129090000,-1,-1,-1,-1,350,-1,1,-1,-1,-1,-1,,9999,0,0,2,FEW 15   SCT 150,-1,12,-1,15,1006,RJCC 290930Z 35001KT 9999 FEW015 SCT150 M12/M15 Q1006 RMK     1ST015 3AC150 A2972=,
20180129_100000.002,0,RJCC,,,,0,20180129100000,-1,-1,-1,-1,260,-1,4,-1,-1,-1,-1,,9999,0,0,1,FEW 15,-1,10,-1,13,1006,RJCC 291000Z 26004KT 9999 FEW015 M10/M13 Q1006 RMK 1ST015     A2972=,
20180129_103000.001,0,RJCC,,,,0,20180129100000,-1,-1,-1,-1,260,-1,5,-1,-1,-1,-1,,9999,0,0,2,FEW 15   BKN 50,-1,11,-1,13,1007,RJCC 291030Z 26005KT 9999 FEW015 BKN050 M11/M13 Q1007 RMK     1ST015 6CU050 A2975=,
20180129_110000.002,0,RJCC,,,,0,20180129110000,-1,-1,-1,-1,270,-1,4,-1,-1,-1,-1,,9999,0,0,2,FEW 15   BKN 60,-1,11,-1,14,1007,RJCC 291100Z 27004KT 9999 FEW015 BKN060 M11/M14 Q1007 RMK     1ST015 7CU060 A2975=,
20180129_113000.001,0,RJCC,,,,0,20180129110000,-1,-1,-1,-1,90,-1,3,-1,-1,-1,-1,,9999,0,1,2,FEW 15   BKN 60,-1,12,-1,14,1007,RJCC 291130Z 09003KT 9999 -SHSN FEW015 BKN060 M12/M14 Q1007     RMK 1ST015 6CU060 A2975=,- SN SH
20180129_120000.002,0,RJCC,,,,0,20180129120000,-1,-1,-1,-1,999,-1,1,-1,-1,-1,-1,,9999,0,0,2,FEW 15   BKN 60,-1,12,-1,13,1007,RJCC 291200Z VRB01KT 9999 FEW015 BKN060 M12/M13 Q1007 RMK     1ST015 5CU060 A2976=,
20180129_123000.001,0,RJCC,,,,0,20180129120000,-1,-1,-1,-1,100,-1,2,-1,-1,-1,-1,,9999,0,0,2,FEW 15   BKN 60,-1,13,-1,14,1007,RJCC 291230Z 10002KT 9999 FEW015 BKN060 M13/M14 Q1007 RMK     1ST015 6CU060 A2976=,
20180129_130000.002,0,RJCC,,,,0,20180129130000,-1,-1,-1,-1,999,-1,1,-1,-1,-1,-1,,9999,0,0,2,FEW 15   BKN 60,-1,12,-1,13,1008,RJCC 291300Z VRB01KT 9999 FEW015 BKN060 M12/M13 Q1008 RMK     1ST015 6CU060 A2977=,
20180129_133000.001,0,RJCC,,,,0,20180129130000,-1,-1,-1,-1,999,-1,2,-1,-1,-1,-1,,9999,0,0,2,FEW 15   BKN 70,-1,13,-1,13,1008,RJCC 291330Z VRB02KT 9999 FEW015 BKN070 M13/M13 Q1008 RMK     1ST015 7AC070 A2978=,
20180129_140000.002,0,RJCC,,,,0,20180129140000,-1,-1,-1,-1,220,-1,5,-1,-1,160,250,,9999,0,0,2,FEW 15   BKN 70,-1,14,-1,16,1008,RJCC 291400Z 22005KT 160V250 9999 FEW015 BKN070 M14/M16 Q1008     RMK 1ST015 6AC070 A2977=,
20180129_143000.001,0,RJCC,,,,0,20180129140000,-1,-1,-1,-1,180,-1,5,-1,-1,-1,-1,,9999,0,0,1,FEW 15,-1,14,-1,15,1008,RJCC 291430Z 18005KT 9999 FEW015 M14/M15 Q1008 RMK 1ST015     A2977=,
20180129_150000.002,0,RJCC,,,,0,20180129150000,-1,-1,-1,-1,999,-1,5,-1,-1,-1,-1,,9999,0,0,1,FEW 15,-1,12,-1,15,1007,RJCC 291500Z VRB05KT 9999 FEW015 M12/M15 Q1007 RMK 1ST015     A2976=,
20180129_153000.001,0,RJCC,,,,0,20180129150000,-1,-1,-1,-1,70,-1,2,-1,-1,-1,-1,,9999,0,0,1,FEW 15,-1,17,-1,19,1008,RJCC 291530Z 07002KT 9999 FEW015 M17/M19 Q1008 RMK 1ST015     A2977=,
20180129_160000.002,0,RJCC,,,,0,20180129160000,-1,-1,-1,-1,50,-1,3,-1,-1,20,90,,9999,0,0,1,FEW 15,-1,17,-1,18,1008,RJCC 291600Z 05003KT 020V090 9999 FEW015 M17/M18 Q1008 RMK     1ST015 A2977=,
20180129_163000.001,0,RJCC,,,,0,20180129160000,-1,-1,-1,-1,999,-1,2,-1,-1,-1,-1,,9999,0,0,1,FEW 15,-1,17,-1,18,1008,RJCC 291630Z VRB02KT 9999 FEW015 M17/M18 Q1008 RMK 1ST015     A2977=,
20180129_170000.002,0,RJCC,,,,0,20180129170000,-1,-1,-1,-1,999,-1,2,-1,-1,-1,-1,,9999,0,0,1,FEW 15,-1,16,-1,18,1008,RJCC 291700Z VRB02KT 9999 FEW015 M16/M18 Q1008 RMK 1ST015     A2977=,
20180129_173000.001,0,RJCC,,,,0,20180129170000,-1,-1,-1,-1,999,-1,1,-1,-1,-1,-1,,9999,0,0,1,FEW 25,-1,18,-1,20,1008,RJCC 291730Z VRB01KT 9999 FEW025 M18/M20 Q1008 RMK 1CU025     A2977=,
20180129_180000.002,0,RJCC,,,,0,20180129180000,-1,-1,-1,-1,999,-1,1,-1,-1,-1,-1,,9999,0,0,1,FEW 25,-1,18,-1,20,1008,RJCC 291800Z VRB01KT 9999 FEW025 M18/M20 Q1008 RMK 1CU025     A2977=,
20180129_183000.001,0,RJCC,,,,0,20180129180000,-1,-1,-1,-1,110,-1,3,-1,-1,-1,-1,,9999,0,0,1,FEW 25,-1,19,-1,20,1008,RJCC 291830Z 11003KT 9999 FEW025 M19/M20 Q1008 RMK 1CU025     A2977=,
20180129_190000.002,0,RJCC,,,,0,20180129190000,-1,-1,-1,-1,190,-1,4,-1,-1,-1,-1,,9999,0,0,1,FEW 25,-1,19,-1,21,1007,RJCC 291900Z 19004KT 9999 FEW025 M19/M21 Q1007 RMK 1CU025     A2976=,
20180129_193000.001,0,RJCC,,,,0,20180129190000,-1,-1,-1,-1,100,-1,3,-1,-1,60,130,,9999,0,0,1,FEW 25,-1,21,-1,23,1008,RJCC 291930Z 10003KT 060V130 9999 FEW025 M21/M23 Q1008 RMK     1CU025 A2977=,
20180129_200000.002,0,RJCC,,,,0,20180129200000,-1,-1,-1,-1,190,-1,3,-1,-1,140,200,,9999,0,0,1,FEW 25,-1,20,-1,22,1008,RJCC 292000Z 19003KT 140V200 9999 FEW025 M20/M22 Q1008 RMK     1CU025 A2977=,
20180129_203000.001,0,RJCC,,,,0,20180129200000,-1,-1,-1,-1,40,-1,4,-1,-1,-1,-1,,9999,0,0,1,FEW 25,-1,21,-1,23,1008,RJCC 292030Z 04004KT 9999 FEW025 M21/M23 Q1008 RMK 1CU025     A2978=,
20180129_210000.002,0,RJCC,,,,0,20180129210000,-1,-1,-1,-1,999,-1,2,-1,-1,-1,-1,,9999,0,0,1,FEW 25,-1,19,-1,21,1008,RJCC 292100Z VRB02KT 9999 FEW025 M19/M21 Q1008 RMK 1CU025     A2979=,
20180129_213000.001,0,RJCC,,,,0,20180129210000,-1,-1,-1,-1,999,-1,2,-1,-1,-1,-1,,9999,0,0,1,FEW 25,-1,21,-1,23,1009,RJCC 292130Z VRB02KT 9999 FEW025 M21/M23 Q1009 RMK 1CU025     A2980=,
20180129_220000.002,0,RJCC,,,,0,20180129220000,-1,-1,-1,-1,999,-1,2,-1,-1,-1,-1,,9999,0,1,1,FEW 25,-1,21,-1,23,1009,RJCC 292200Z VRB02KT 9999 PRFG FEW025 M21/M23 Q1009 RMK 1CU025     A2982 FG NE=,PR FG
20180129_223000.002,0,RJCC,,,,0,20180129220000,-1,-1,-1,-1,170,-1,3,-1,-1,110,190,,9999,0,0,1,FEW 25,-1,22,-1,24,1009,RJCC 292230Z 17003KT 110V190 9999 FEW025 M22/M24 Q1009 RMK     1CU025 A2982=,
20180129_230000.002,0,RJCC,,,,0,20180129230000,-1,-1,-1,-1,80,-1,3,-1,-1,30,120,,9999,0,0,1,FEW 25,-1,19,-1,22,1010,RJCC 292300Z 08003KT 030V120 9999 FEW025 M19/M22 Q1010 RMK     1CU025 A2983=,
20180129_233000.001,0,RJCC,,,,0,20180129230000,-1,-1,-1,-1,100,-1,3,-1,-1,-1,-1,,9999,0,0,1,FEW 25,-1,17,-1,19,1010,RJCC 292330Z 10003KT 9999 FEW025 M17/M19 Q1010 RMK 1CU025     A2984=,
20180130_000000.002,0,RJCC,,,,0,20180130000000,-1,-1,-1,-1,90,-1,3,-1,-1,-1,-1,,9999,0,0,1,FEW 25,-1,16,-1,18,1010,RJCC 300000Z 09003KT 9999 FEW025 M16/M18 Q1010 RMK 1CU025     A2984=,
20180130_003000.001,0,RJCC,,,,0,20180130000000,-1,-1,-1,-1,110,-1,3,-1,-1,-1,-1,,9999,0,0,1,FEW 25,-1,12,-1,15,1010,RJCC 300030Z 11003KT 9999 FEW025 M12/M15 Q1010 RMK 1CU025     A2984=,
20180130_010000.002,0,RJCC,,,,0,20180130010000,-1,-1,-1,-1,90,-1,4,-1,-1,-1,-1,,9999,0,0,1,FEW 25,-1,8,-1,14,1010,RJCC 300100Z 09004KT 9999 FEW025 M08/M14 Q1010 RMK 1CU025     A2984=,
20180130_013000.001,0,RJCC,,,,0,20180130010000,-1,-1,-1,-1,120,-1,3,-1,-1,60,240,,9999,0,0,2,FEW 25   SCT 40,-1,5,-1,15,1010,RJCC 300130Z 12003KT 060V240 9999 FEW025 SCT040 M05/M15 Q1010     RMK 1CU025 3CU040 A2984=,
20180130_020000.002,0,RJCC,,,,0,20180130020000,-1,-1,-1,-1,240,-1,8,-1,-1,180,270,,9999,0,0,2,FEW 25   SCT 40,-1,5,-1,15,1010,RJCC 300200Z 24008KT 180V270 9999 FEW025 SCT040 M05/M15 Q1010     RMK 1CU025 4CU040 A2984=,
20180130_023000.001,0,RJCC,,,,0,20180130020000,-1,-1,-1,-1,270,-1,10,-1,-1,-1,-1,,9999,0,0,2,FEW 25   BKN 50,-1,5,-1,15,1010,RJCC 300230Z 27010KT 9999 FEW025 BKN050 M05/M15 Q1010 RMK     1CU025 6CU050 A2984=,
20180130_030000.002,0,RJCC,,,,0,20180130030000,-1,-1,-1,-1,250,-1,9,-1,-1,210,280,,9999,0,0,2,FEW 25   BKN 50,-1,4,-1,16,1010,RJCC 300300Z 25009KT 210V280 9999 FEW025 BKN050 M04/M16 Q1010     RMK 1CU025 6CU050 A2983=,
20180130_033000.001,0,RJCC,,,,0,20180130030000,-1,-1,-1,-1,250,-1,12,-1,-1,220,290,,9999,0,0,2,FEW 25   BKN 50,-1,4,-1,16,1009,RJCC 300330Z 25012KT 220V290 9999 FEW025 BKN050 M04/M16 Q1009     RMK 1CU025 6CU050 A2982=,
20180130_040000.002,0,RJCC,,,,0,20180130040000,-1,-1,-1,-1,230,-1,11,-1,-1,-1,-1,,9999,0,0,2,FEW 15   BKN 50,-1,4,-1,15,1009,RJCC 300400Z 23011KT 9999 FEW015 BKN050 M04/M15 Q1009 RMK     1ST015 6CU050 A2982=,
20180130_043000.001,0,RJCC,,,,0,20180130040000,-1,-1,-1,-1,230,-1,14,-1,-1,-1,-1,,9999,0,0,2,FEW 15   BKN 50,-1,4,-1,14,1009,RJCC 300430Z 23014KT 9999 FEW015 BKN050 M04/M14 Q1009 RMK     1ST015 6CU050 A2982=,
20180130_050000.002,0,RJCC,,,,0,20180130050000,-1,-1,-1,-1,350,-1,13,-1,-1,-1,-1,,9999,0,1,2,FEW 15   BKN 50,-1,4,-1,14,1010,RJCC 300500Z 35013KT 9999 -SHSN FEW015 BKN050 M04/M14 Q1010     RMK 1ST015 7CU050 A2983=,- SN SH
20180130_053000.001,0,RJCC,,,,0,20180130050000,-1,-1,-1,-1,350,-1,9,-1,-1,-1,-1,,9999,0,1,2,FEW 15   BKN 35,-1,6,-1,12,1010,RJCC 300530Z 35009KT 9999 -SHSN FEW015 BKN035 M06/M12 Q1010     RMK 1ST015 6CU035 A2985=,- SN SH
20180130_060000.003,0,RJCC,,,,0,20180130060000,-1,-1,-1,-1,10,-1,5,-1,-1,-1,-1,,9999,0,0,2,FEW 10   SCT 35,-1,6,-1,12,1011,RJCC 300600Z 01005KT 9999 FEW010 SCT035 M06/M12 Q1011 RMK     1ST010 4CU035 A2986=,
20180130_063000.001,0,RJCC,,,,0,20180130060000,-1,-1,-1,-1,340,-1,6,-1,-1,-1,-1,,9999,0,1,2,FEW 15   BKN 40,-1,6,-1,11,1011,RJCC 300630Z 34006KT 9999 -SHSN FEW015 BKN040 M06/M11 Q1011     RMK 1ST015 6CU040 A2987=,- SN SH
20180130_070000.002,0,RJCC,,,,0,20180130070000,-1,-1,-1,-1,350,-1,4,-1,-1,-1,-1,,9999,0,1,2,FEW 10   SCT 40,-1,7,-1,11,1011,RJCC 300700Z 35004KT 9999 -SHSN FEW010 SCT040 M07/M11 Q1011     RMK 1ST010 3CU040 A2988=,- SN SH
20180130_073000.001,0,RJCC,,,,0,20180130070000,-1,-1,-1,-1,999,-1,1,-1,-1,-1,-1,,9999,0,0,1,FEW 20,-1,7,-1,10,1012,RJCC 300730Z VRB01KT 9999 FEW020 M07/M10 Q1012 RMK 1CU020     A2989=,
20180130_080000.002,0,RJCC,,,,0,20180130080000,-1,-1,-1,-1,200,-1,3,-1,-1,150,290,,9999,0,0,1,FEW 20,-1,7,-1,11,1012,RJCC 300800Z 20003KT 150V290 9999 FEW020 M07/M11 Q1012 RMK     1CU020 A2990=,
20180130_083000.001,0,RJCC,,,,0,20180130080000,-1,-1,-1,-1,0,-1,0,-1,-1,-1,-1,,9999,0,0,1,FEW 20,-1,8,-1,13,1013,RJCC 300830Z 00000KT 9999 FEW020 M08/M13 Q1013 RMK 1CU020     A2992=,
20180130_090000.002,0,RJCC,,,,0,20180130090000,-1,-1,-1,-1,220,-1,3,-1,-1,-1,-1,,9999,0,0,1,FEW 20,-1,9,-1,13,1013,RJCC 300900Z 22003KT 9999 FEW020 M09/M13 Q1013 RMK 1CU020     A2993=,
20180130_093000.001,0,RJCC,,,,0,20180130090000,-1,-1,-1,-1,240,-1,9,-1,-1,-1,-1,,9999,0,0,1,FEW 20,-1,9,-1,15,1013,RJCC 300930Z 24009KT 9999 FEW020 M09/M15 Q1013 RMK 1CU020     A2994=,
20180130_100000.002,0,RJCC,,,,0,20180130100000,-1,-1,-1,-1,260,-1,7,-1,-1,220,280,,9999,0,0,1,FEW 20,-1,10,-1,14,1014,RJCC 301000Z 26007KT 220V280 9999 FEW020 M10/M14 Q1014 RMK     1CU020 A2995=,
20180130_103000.001,0,RJCC,,,,0,20180130100000,-1,-1,-1,-1,250,-1,9,-1,-1,-1,-1,,9999,0,0,1,FEW 20,-1,10,-1,16,1014,RJCC 301030Z 25009KT 9999 FEW020 M10/M16 Q1014 RMK 1CU020     A2995=,
20180130_110000.002,0,RJCC,,,,0,20180130110000,-1,-1,-1,-1,250,-1,7,-1,-1,190,270,,9999,0,0,1,FEW 20,-1,11,-1,14,1014,RJCC 301100Z 25007KT 190V270 9999 FEW020 M11/M14 Q1014 RMK     1CU020 A2996=,
20180130_113000.001,0,RJCC,,,,0,20180130110000,-1,-1,-1,-1,150,-1,4,-1,-1,130,190,,9999,0,0,1,FEW 20,-1,12,-1,16,1014,RJCC 301130Z 15004KT 130V190 9999 FEW020 M12/M16 Q1014 RMK     1CU020 A2997=,
20180130_120000.002,0,RJCC,,,,0,20180130120000,-1,-1,-1,-1,210,-1,3,-1,-1,170,230,,9999,0,0,1,FEW 20,-1,10,-1,16,1015,RJCC 301200Z 21003KT 170V230 9999 FEW020 M10/M16 Q1015 RMK     1CU020 A2998=,
20180130_123000.001,0,RJCC,,,,0,20180130120000,-1,-1,-1,-1,0,-1,0,-1,-1,-1,-1,,9999,0,0,1,FEW 20,-1,11,-1,16,1015,RJCC 301230Z 00000KT 9999 FEW020 M11/M16 Q1015 RMK 1CU020     A2998=,
20180130_130000.002,0,RJCC,,,,0,20180130130000,-1,-1,-1,-1,180,-1,6,-1,-1,-1,-1,,9999,0,0,1,FEW 20,-1,12,-1,17,1015,RJCC 301300Z 18006KT 9999 FEW020 M12/M17 Q1015 RMK 1CU020     A2998=,
20180130_133000.001,0,RJCC,,,,0,20180130130000,-1,-1,-1,-1,200,-1,4,-1,-1,-1,-1,,9999,0,0,1,FEW 20,-1,15,-1,19,1015,RJCC 301330Z 20004KT 9999 FEW020 M15/M19 Q1015 RMK 1CU020     A3000=,
20180130_140000.002,0,RJCC,,,,0,20180130140000,-1,-1,-1,-1,170,-1,4,-1,-1,-1,-1,,9999,0,0,1,FEW 20,-1,16,-1,18,1015,RJCC 301400Z 17004KT 9999 FEW020 M16/M18 Q1015 RMK 1CU020     A3000=,
20180130_143000.001,0,RJCC,,,,0,20180130140000,-1,-1,-1,-1,170,-1,4,-1,-1,-1,-1,,9999,0,0,1,FEW 20,-1,17,-1,18,1015,RJCC 301430Z 17004KT 9999 FEW020 M17/M18 Q1015 RMK 1CU020     A3000=,
20180130_150000.002,0,RJCC,,,,0,20180130150000,-1,-1,-1,-1,100,-1,2,-1,-1,-1,-1,,9999,0,0,1,FEW 20,-1,17,-1,19,1015,RJCC 301500Z 10002KT 9999 FEW020 M17/M19 Q1015 RMK 1CU020     A3000=,
20180130_153000.001,0,RJCC,,,,0,20180130150000,-1,-1,-1,-1,999,-1,1,-1,-1,-1,-1,,9999,0,0,1,FEW 20,-1,17,-1,20,1015,RJCC 301530Z VRB01KT 9999 FEW020 M17/M20 Q1015 RMK 1CU020     A3000=,
20180130_160000.002,0,RJCC,,,,0,20180130160000,-1,-1,-1,-1,160,-1,4,-1,-1,-1,-1,,9999,0,0,1,FEW 20,-1,19,-1,22,1015,RJCC 301600Z 16004KT 9999 FEW020 M19/M22 Q1015 RMK 1CU020     A3000=,
20180130_163000.001,0,RJCC,,,,0,20180130160000,-1,-1,-1,-1,180,-1,4,-1,-1,-1,-1,,9999,0,0,1,FEW 20,-1,17,-1,18,1016,RJCC 301630Z 18004KT 9999 FEW020 M17/M18 Q1016 RMK 1CU020     A3000=,
20180130_170000.002,0,RJCC,,,,0,20180130170000,-1,-1,-1,-1,999,-1,2,-1,-1,-1,-1,,9999,0,0,1,FEW 20,-1,19,-1,21,1016,RJCC 301700Z VRB02KT 9999 FEW020 M19/M21 Q1016 RMK 1CU020     A3000=,
20180130_173000.001,0,RJCC,,,,0,20180130170000,-1,-1,-1,-1,999,-1,2,-1,-1,-1,-1,,9999,0,0,2,FEW 20   SCT 150,-1,18,-1,20,1015,RJCC 301730Z VRB02KT 9999 FEW020 SCT150 M18/M20 Q1015 RMK     1CU020 3AC150 A3000=,
20180130_180000.002,0,RJCC,,,,0,20180130180000,-1,-1,-1,-1,999,-1,1,-1,-1,-1,-1,,9999,0,0,2,FEW 20   SCT 70,-1,20,-1,22,1015,RJCC 301800Z VRB01KT 9999 FEW020 SCT070 M20/M22 Q1015 RMK     1CU020 3AC070 A3000=,
20180130_183000.001,0,RJCC,,,,0,20180130180000,-1,-1,-1,-1,190,-1,5,-1,-1,-1,-1,,9999,2,0,1,FEW 20,-1,19,-1,21,1016,RJCC 301830Z 19005KT 9999 R19R/1000VP2000U R19L/P2000N FEW020     M19/M21 Q1016 RMK 1CU020 A3000=,
20180130_190000.002,0,RJCC,,,,0,20180130190000,-1,-1,-1,-1,140,-1,2,-1,-1,-1,-1,,9999,0,0,2,FEW 20   BKN -9999,-1,20,-1,23,1016,RJCC 301900Z 14002KT 9999 FEW020 BKN/// M20/M23 Q1016 RMK     1CU020 A3002=,
20180130_193000.001,0,RJCC,,,,0,20180130190000,-1,-1,-1,-1,200,-1,3,-1,-1,-1,-1,,9999,0,0,3,FEW 20   SCT 70   BKN -9999,-1,19,-1,21,1016,RJCC 301930Z 20003KT 9999 FEW020 SCT070 BKN/// M19/M21 Q1016     RMK 1CU020 3AC070 A3001=,
20180130_200000.002,0,RJCC,,,,0,20180130200000,-1,-1,-1,-1,190,-1,2,-1,-1,-1,-1,,9999,0,0,3,FEW 20   SCT 70   BKN -9999,-1,17,-1,20,1016,RJCC 302000Z 19002KT 9999 FEW020 SCT070 BKN/// M17/M20 Q1016     RMK 1CU020 3AC070 A3002=,
20180130_203000.001,0,RJCC,,,,0,20180130200000,-1,-1,-1,-1,170,-1,4,-1,-1,-1,-1,,9999,0,0,3,FEW 20   SCT 70   BKN 160,-1,19,-1,21,1016,RJCC 302030Z 17004KT 9999 FEW020 SCT070 BKN160 M19/M21 Q1016     RMK 1CU020 3AC070 7AC160 A3002=,
20180130_210000.002,0,RJCC,,,,0,20180130210000,-1,-1,-1,-1,180,-1,5,-1,-1,-1,-1,,9999,0,0,2,FEW 20   BKN 110,-1,19,-1,21,1016,RJCC 302100Z 18005KT 9999 FEW020 BKN110 M19/M21 Q1016 RMK     1CU020 7AC110 A3003=,
20180130_213000.001,0,RJCC,,,,0,20180130210000,-1,-1,-1,-1,180,-1,5,-1,-1,150,220,,9999,0,0,3,FEW 20   SCT 110   BKN 150,-1,18,-1,20,1016,RJCC 302130Z 18005KT 150V220 9999 FEW020 SCT110 BKN150 M18/M20     Q1016 RMK 1CU020 3AC110 7AC150 A3003=,
20180130_220000.002,0,RJCC,,,,0,20180130220000,-1,-1,-1,-1,180,-1,3,-1,-1,-1,-1,,9999,0,0,3,FEW 20   SCT 120   BKN 150,-1,16,-1,19,1016,RJCC 302200Z 18003KT 9999 FEW020 SCT120 BKN150 M16/M19 Q1016     RMK 1CU020 3AC120 6AC150 A3003=,
20180130_223000.002,0,RJCC,,,,0,20180130220000,-1,-1,-1,-1,130,-1,5,-1,-1,-1,-1,,9999,0,0,2,FEW 20   BKN 150,-1,16,-1,18,1017,RJCC 302230Z 13005KT 9999 FEW020 BKN150 M16/M18 Q1017 RMK     1CU020 7AC150 A3005=,
20180130_230000.002,0,RJCC,,,,0,20180130230000,-1,-1,-1,-1,150,-1,5,-1,-1,-1,-1,,9999,0,0,2,FEW 15   BKN 140,-1,15,-1,18,1017,RJCC 302300Z 15005KT 9999 FEW015 BKN140 M15/M18 Q1017 RMK     1ST015 7AC140 A3005=,
20180130_233000.001,0,RJCC,,,,0,20180130230000,-1,-1,-1,-1,140,-1,2,-1,-1,-1,-1,,9999,0,0,2,FEW 15   BKN 150,-1,12,-1,15,1018,RJCC 302330Z 14002KT 9999 FEW015 BKN150 M12/M15 Q1018 RMK     1ST015 6AC150 A3006=,
20180131_000000.002,0,RJCC,,,,0,20180131000000,-1,-1,-1,-1,999,-1,1,-1,-1,-1,-1,,9999,0,0,1,FEW 15,-1,11,-1,15,1018,RJCC 310000Z VRB01KT 9999 FEW015 M11/M15 Q1018 RMK 1ST015     A3006=,
20180131_003000.001,0,RJCC,,,,0,20180131000000,-1,-1,-1,-1,190,-1,6,-1,-1,150,220,,9999,0,0,2,FEW 15   SCT 100,-1,5,-1,13,1018,RJCC 310030Z 19006KT 150V220 9999 FEW015 SCT100 M05/M13 Q1018     RMK 1ST015 3AC100 A3007=,
20180131_010000.002,0,RJCC,,,,0,20180131010000,-1,-1,-1,-1,220,-1,8,-1,-1,-1,-1,,9999,0,0,2,FEW 20   SCT 50,-1,4,-1,14,1018,RJCC 310100Z 22008KT 9999 FEW020 SCT050 M04/M14 Q1018 RMK     1CU020 3CU050 A3007=,
20180131_013000.001,0,RJCC,,,,0,20180131010000,-1,-1,-1,-1,200,-1,7,-1,-1,160,240,,9999,0,0,1,FEW 30,-1,4,-1,13,1018,RJCC 310130Z 20007KT 160V240 9999 FEW030 M04/M13 Q1018 RMK     1CU030 A3008=,
20180131_020000.002,0,RJCC,,,,0,20180131020000,-1,-1,-1,-1,230,-1,7,-1,-1,200,260,,9999,0,0,2,FEW 30   SCT 130,-1,3,-1,14,1018,RJCC 310200Z 23007KT 200V260 9999 FEW030 SCT130 M03/M14 Q1018     RMK 1CU030 3AC130 A3007=,
20180131_023000.001,0,RJCC,,,,0,20180131020000,-1,-1,-1,-1,220,-1,5,-1,-1,180,270,,9999,0,0,2,FEW 30   SCT 150,-1,3,-1,13,1018,RJCC 310230Z 22005KT 180V270 9999 FEW030 SCT150 M03/M13 Q1018     RMK 1CU030 4AC150 A3007=,
20180131_030000.002,0,RJCC,,,,0,20180131030000,-1,-1,-1,-1,220,-1,12,-1,-1,-1,-1,,9999,0,0,2,FEW 30   BKN 50,-1,2,-1,14,1017,RJCC 310300Z 22012KT 9999 FEW030 BKN050 M02/M14 Q1017 RMK     1CU030 5CU050 A3005=,
20180131_033000.001,0,RJCC,,,,0,20180131030000,-1,-1,-1,-1,240,-1,12,-1,-1,-1,-1,,9999,0,0,3,FEW 30   SCT 50   BKN -9999,-1,3,-1,14,1017,RJCC 310330Z 24012KT 9999 FEW030 SCT050 BKN/// M03/M14 Q1017     RMK 1CU030 4CU050 A3005=,
20180131_040000.002,0,RJCC,,,,0,20180131040000,-1,-1,-1,-1,250,-1,9,-1,-1,-1,-1,,9999,0,0,3,FEW 30   SCT 50   BKN -9999,-1,3,-1,14,1017,RJCC 310400Z 25009KT 9999 FEW030 SCT050 BKN/// M03/M14 Q1017     RMK 1CU030 3CU050 A3004=,
20180131_043000.001,0,RJCC,,,,0,20180131040000,-1,-1,-1,-1,260,-1,10,-1,-1,220,290,,9999,0,0,3,FEW 30   SCT 50   BKN -9999,-1,3,-1,13,1017,RJCC 310430Z 26010KT 220V290 9999 FEW030 SCT050 BKN/// M03/M13     Q1017 RMK 1CU030 3CU050 A3004=,
20180131_050000.002,0,RJCC,,,,0,20180131050000,-1,-1,-1,-1,260,-1,11,-1,-1,220,290,,9999,0,0,2,FEW 30   SCT 50,-1,2,-1,14,1017,RJCC 310500Z 26011KT 220V290 9999 FEW030 SCT050 M02/M14 Q1017     RMK 1CU030 4CU050 A3004=,
20180131_053000.001,0,RJCC,,,,0,20180131050000,-1,-1,-1,-1,260,-1,11,-1,-1,210,290,,9999,0,0,3,FEW 30   SCT 50   BKN -9999,-1,2,-1,13,1017,RJCC 310530Z 26011KT 210V290 9999 FEW030 SCT050 BKN/// M02/M13     Q1017 RMK 1CU030 3CU050 A3005=,
20180131_060000.002,0,RJCC,,,,0,20180131060000,-1,-1,-1,-1,250,-1,9,-1,-1,-1,-1,,9999,0,0,2,FEW 30   BKN -9999,-1,2,-1,14,1018,RJCC 310600Z 25009KT 9999 FEW030 BKN/// M02/M14 Q1018 RMK     1CU030 A3006=,
20180131_063000.001,0,RJCC,,,,0,20180131060000,-1,-1,-1,-1,220,-1,9,-1,-1,-1,-1,,9999,0,0,2,FEW 30   SCT -9999,-1,3,-1,13,1018,RJCC 310630Z 22009KT 9999 FEW030 SCT/// M03/M13 Q1018 RMK     1CU030 A3007=,
20180131_070000.003,0,RJCC,,,,0,20180131070000,-1,-1,-1,-1,220,-1,6,-1,-1,-1,-1,,9999,0,0,2,FEW 30   BKN 70,-1,3,-1,13,1018,RJCC 310700Z 22006KT 9999 FEW030 BKN070 M03/M13 Q1018 RMK     1CU030 5AC070 A3008=,
20180131_073000.001,0,RJCC,,,,0,20180131070000,-1,-1,-1,-1,210,-1,11,-1,-1,-1,-1,,9999,0,0,2,FEW 30   BKN 60,-1,3,-1,12,1018,RJCC 310730Z 21011KT 9999 FEW030 BKN060 M03/M12 Q1018 RMK     1CU030 6CU060 A3008=,
20180131_080000.003,0,RJCC,,,,0,20180131080000,-1,-1,-1,-1,240,-1,4,-1,-1,190,270,,9999,0,0,3,FEW 30   BKN 60   BKN -9999,-1,3,-1,12,1018,RJCC 310800Z 24004KT 190V270 9999 FEW030 BKN060 BKN/// M03/M12     Q1018 RMK 1CU030 5CU060 A3009=,
20180131_083000.001,0,RJCC,,,,0,20180131080000,-1,-1,-1,-1,210,-1,5,-1,-1,-1,-1,,9999,0,0,3,FEW 30   SCT 50   BKN 70,-1,3,-1,12,1019,RJCC 310830Z 21005KT 9999 FEW030 SCT050 BKN070 M03/M12 Q1019     RMK 1CU030 3CU050 6AC070 A3010=,
20180131_090000.002,0,RJCC,,,,0,20180131090000,-1,-1,-1,-1,210,-1,3,-1,-1,-1,-1,,9999,0,0,3,FEW 30   BKN 70   BKN -9999,-1,3,-1,12,1019,RJCC 310900Z 21003KT 9999 FEW030 BKN070 BKN/// M03/M12 Q1019     RMK 1CU030 5AC070 A3010=,
20180131_093000.001,0,RJCC,,,,0,20180131090000,-1,-1,-1,-1,220,-1,4,-1,-1,-1,-1,,9999,0,0,3,FEW 30   BKN 90   BKN -9999,-1,3,-1,12,1019,RJCC 310930Z 22004KT 9999 FEW030 BKN090 BKN/// M03/M12 Q1019     RMK 1CU030 5AC090 A3010=,
20180131_100000.002,0,RJCC,,,,0,20180131100000,-1,-1,-1,-1,140,-1,3,-1,-1,100,170,,9999,0,0,2,FEW 30   BKN 90,-1,5,-1,11,1019,RJCC 311000Z 14003KT 100V170 9999 FEW030 BKN090 M05/M11 Q1019     RMK 1CU030 7AC090 A3010=,
20180131_103000.001,0,RJCC,,,,0,20180131100000,-1,-1,-1,-1,10,-1,3,-1,-1,340,60,,9999,0,0,2,FEW 30   BKN 80,-1,6,-1,12,1019,RJCC 311030Z 01003KT 340V060 9999 FEW030 BKN080 M06/M12 Q1019     RMK 1CU030 6AC080 A3011=,
20180131_110000.002,0,RJCC,,,,0,20180131110000,-1,-1,-1,-1,0,-1,0,-1,-1,-1,-1,,9999,0,0,2,FEW 30   SCT 80,-1,7,-1,12,1020,RJCC 311100Z 00000KT 9999 FEW030 SCT080 M07/M12 Q1020 RMK     1CU030 4AC080 A3012=,
20180131_113000.001,0,RJCC,,,,0,20180131110000,-1,-1,-1,-1,999,-1,2,-1,-1,-1,-1,,9999,0,0,3,FEW 30   SCT 45   BKN 70,-1,8,-1,11,1020,RJCC 311130Z VRB02KT 9999 FEW030 SCT045 BKN070 M08/M11 Q1020     RMK 1CU030 4CU045 6AC070 A3013=,
20180131_120000.002,0,RJCC,,,,0,20180131120000,-1,-1,-1,-1,350,-1,5,-1,-1,340,80,,9999,0,0,2,FEW 30   BKN 45,-1,7,-1,10,1020,RJCC 311200Z 35005KT 340V080 9999 FEW030 BKN045 M07/M10 Q1020     RMK 1CU030 7CU045 A3013=,
20180131_123000.001,0,RJCC,,,,0,20180131120000,-1,-1,-1,-1,360,-1,4,-1,-1,-1,-1,,9999,0,1,2,FEW 25   BKN 45,-1,7,-1,11,1020,RJCC 311230Z 36004KT 9999 -SHSN FEW025 BKN045 M07/M11 Q1020     RMK 1CU025 7CU045 A3014=,- SN SH
20180131_130000.003,0,RJCC,,,,0,20180131130000,-1,-1,-1,-1,350,-1,4,-1,-1,-1,-1,,9999,0,1,2,FEW 25   BKN 50,-1,7,-1,10,1020,RJCC 311300Z 35004KT 9999 -SHSN FEW025 BKN050 M07/M10 Q1020     RMK 1CU025 7CU050 A3014=,- SN SH
20180131_133000.001,0,RJCC,,,,0,20180131130000,-1,-1,-1,-1,330,-1,7,-1,-1,-1,-1,,9999,0,0,3,FEW 25   SCT 50   BKN 80,-1,8,-1,11,1021,RJCC 311330Z 33007KT 9999 FEW025 SCT050 BKN080 M08/M11 Q1021     RMK 1CU025 4CU050 7AC080 A3015=,
20180131_140000.002,0,RJCC,,,,0,20180131140000,-1,-1,-1,-1,340,-1,4,-1,-1,-1,-1,,9999,0,0,2,FEW 30   BKN 80,-1,8,-1,11,1021,RJCC 311400Z 34004KT 9999 FEW030 BKN080 M08/M11 Q1021 RMK     1CU030 7AC080 A3016=,
20180131_143000.001,0,RJCC,,,,0,20180131140000,-1,-1,-1,-1,330,-1,6,-1,-1,-1,-1,,9999,0,0,2,FEW 30   BKN 80,-1,10,-1,12,1021,RJCC 311430Z 33006KT 9999 FEW030 BKN080 M10/M12 Q1021 RMK     1CU030 5AC080 A3016=,
20180131_150000.002,0,RJCC,,,,0,20180131150000,-1,-1,-1,-1,340,-1,4,-1,-1,-1,-1,,9999,0,0,2,FEW 30   BKN 80,-1,10,-1,10,1021,RJCC 311500Z 34004KT 9999 FEW030 BKN080 M10/M10 Q1021 RMK     1CU030 5AC080 A3016=,
20180131_153000.001,0,RJCC,,,,0,20180131150000,-1,-1,-1,-1,10,-1,3,-1,-1,-1,-1,,9999,0,0,2,FEW 30   BKN 80,-1,11,-1,11,1021,RJCC 311530Z 01003KT 9999 FEW030 BKN080 M11/M11 Q1021 RMK     1CU030 6AC080 A3017=,
20180131_160000.002,0,RJCC,,,,0,20180131160000,-1,-1,-1,-1,310,-1,3,-1,-1,-1,-1,,9999,0,0,2,FEW 30   BKN 80,-1,11,-1,11,1021,RJCC 311600Z 31003KT 9999 FEW030 BKN080 M11/M11 Q1021 RMK     1CU030 7AC080 A3017=,
20180131_163000.001,0,RJCC,,,,0,20180131160000,-1,-1,-1,-1,10,-1,3,-1,-1,330,50,,9999,0,0,2,FEW 30   BKN 80,-1,11,-1,11,1022,RJCC 311630Z 01003KT 330V050 9999 FEW030 BKN080 M11/M11 Q1022     RMK 1CU030 6AC080 A3019=,
20180131_170000.002,0,RJCC,,,,0,20180131170000,-1,-1,-1,-1,360,-1,3,-1,-1,-1,-1,,9999,0,0,2,FEW 30   BKN 80,-1,10,-1,11,1022,RJCC 311700Z 36003KT 9999 FEW030 BKN080 M10/M11 Q1022 RMK     1CU030 7AC080 A3020=,
20180131_173000.001,0,RJCC,,,,0,20180131170000,-1,-1,-1,-1,310,-1,4,-1,-1,-1,-1,,9999,0,0,2,FEW 30   BKN 70,-1,10,-1,11,1022,RJCC 311730Z 31004KT 9999 FEW030 BKN070 M10/M11 Q1022 RMK     1CU030 7AC070 A3021=,
20180131_180000.002,0,RJCC,,,,0,20180131180000,-1,-1,-1,-1,310,-1,3,-1,-1,-1,-1,,9999,0,0,2,FEW 30   BKN 70,-1,11,-1,11,1023,RJCC 311800Z 31003KT 9999 FEW030 BKN070 M11/M11 Q1023 RMK     1CU030 7AC070 A3021=,
20180131_183000.001,0,RJCC,,,,0,20180131180000,-1,-1,-1,-1,999,-1,2,-1,-1,-1,-1,,9999,0,0,2,FEW 30   BKN 70,-1,10,-1,11,1023,RJCC 311830Z VRB02KT 9999 FEW030 BKN070 M10/M11 Q1023 RMK     1CU030 7AC070 A3022=,
20180131_190000.003,0,RJCC,,,,0,20180131190000,-1,-1,-1,-1,330,-1,4,-1,-1,-1,-1,,9999,0,0,2,FEW 30   BKN 70,-1,11,-1,12,1023,RJCC 311900Z 33004KT 9999 FEW030 BKN070 M11/M12 Q1023 RMK     1CU030 7AC070 A3023=,
20180131_193000.001,0,RJCC,,,,0,20180131190000,-1,-1,-1,-1,320,-1,3,-1,-1,-1,-1,,9999,0,0,2,FEW 30   BKN 70,-1,11,-1,12,1023,RJCC 311930Z 32003KT 9999 FEW030 BKN070 M11/M12 Q1023 RMK     1CU030 5AC070 A3023=,
20180131_200000.003,0,RJCC,,,,0,20180131200000,-1,-1,-1,-1,360,-1,2,-1,-1,-1,-1,,9999,0,0,2,FEW 30   SCT 70,-1,12,-1,13,1024,RJCC 312000Z 36002KT 9999 FEW030 SCT070 M12/M13 Q1024 RMK     1CU030 4AC070 A3024=,
20180131_203000.001,0,RJCC,,,,0,20180131200000,-1,-1,-1,-1,999,-1,2,-1,-1,-1,-1,,9999,0,0,1,FEW 30,-1,13,-1,13,1024,RJCC 312030Z VRB02KT 9999 FEW030 M13/M13 Q1024 RMK 1CU030     A3024=,
20180131_210000.002,0,RJCC,,,,0,20180131210000,-1,-1,-1,-1,310,-1,2,-1,-1,-1,-1,,9999,0,0,1,FEW 30,-1,14,-1,14,1024,RJCC 312100Z 31002KT 9999 FEW030 M14/M14 Q1024 RMK 1CU030     A3026=,
20180131_213000.001,0,RJCC,,,,0,20180131210000,-1,-1,-1,-1,999,-1,2,-1,-1,-1,-1,,9999,0,1,1,FEW 30,-1,16,-1,16,1025,RJCC 312130Z VRB02KT 9999 PRFG FEW030 M16/M16 Q1025 RMK 1CU030     A3028 FG NE-SE=,PR FG
20180131_220000.002,0,RJCC,,,,0,20180131220000,-1,-1,-1,-1,20,-1,2,-1,-1,-1,-1,,9999,0,0,1,FEW 30,-1,16,-1,17,1025,RJCC 312200Z 02002KT 9999 FEW030 M16/M17 Q1025 RMK 1CU030     A3029=,
20180131_223000.002,0,RJCC,,,,0,20180131220000,-1,-1,-1,-1,999,-1,1,-1,-1,-1,-1,,9999,0,0,1,FEW 30,-1,15,-1,17,1026,RJCC 312230Z VRB01KT 9999 FEW030 M15/M17 Q1026 RMK 1CU030     A3031=,
20180131_230000.002,0,RJCC,,,,0,20180131230000,-1,-1,-1,-1,999,-1,2,-1,-1,-1,-1,,9999,0,0,2,FEW 30   BKN 60,-1,14,-1,15,1026,RJCC 312300Z VRB02KT 9999 FEW030 BKN060 M14/M15 Q1026 RMK     1CU030 5SC060 A3031=,
20180131_233000.001,0,RJCC,,,,0,20180131230000,-1,-1,-1,-1,999,-1,1,-1,-1,-1,-1,,9999,0,0,2,FEW 30   BKN 60,-1,12,-1,14,1026,RJCC 312330Z VRB01KT 9999 FEW030 BKN060 M12/M14 Q1026 RMK     1CU030 6SC060 A3032=,
20180201_000000.003,0,RJCC,,,,0,20180201000000,-1,-1,-1,-1,350,-1,4,-1,-1,-1,-1,,9999,0,0,1,FEW 30,-1,10,-1,14,1027,RJCC 010000Z 35004KT 9999 FEW030 M10/M14 Q1027 RMK 1CU030     A3033=,
20180201_003000.001,0,RJCC,,,,0,20180201000000,-1,-1,-1,-1,350,-1,4,-1,-1,-1,-1,,9999,0,0,1,FEW 30,-1,9,-1,13,1027,RJCC 010030Z 35004KT 9999 FEW030 M09/M13 Q1027 RMK 1CU030     A3033=,
20180201_010000.002,0,RJCC,,,,0,20180201010000,-1,-1,-1,-1,330,-1,3,-1,-1,-1,-1,,9999,0,0,1,FEW 30,-1,6,-1,11,1027,RJCC 010100Z 33003KT 9999 FEW030 M06/M11 Q1027 RMK 1CU030     A3034=,
20180201_013000.001,0,RJCC,,,,0,20180201010000,-1,-1,-1,-1,360,-1,3,-1,-1,-1,-1,,9999,0,0,1,FEW 25,-1,4,-1,11,1027,RJCC 010130Z 36003KT 9999 FEW025 M04/M11 Q1027 RMK 1CU025     A3035=,
20180201_020000.002,0,RJCC,,,,0,20180201020000,-1,-1,-1,-1,360,-1,5,-1,-1,330,40,,9999,0,0,2,FEW 25   SCT 45,-1,3,-1,12,1027,RJCC 010200Z 36005KT 330V040 9999 FEW025 SCT045 M03/M12 Q1027     RMK 1CU025 3CU045 A3034=,
20180201_023000.001,0,RJCC,,,,0,20180201020000,-1,-1,-1,-1,360,-1,6,-1,-1,-1,-1,,9999,0,0,2,FEW 25   SCT 45,-1,3,-1,11,1027,RJCC 010230Z 36006KT 9999 FEW025 SCT045 M03/M11 Q1027 RMK     1CU025 3CU045 A3034=,
20180201_030000.003,0,RJCC,,,,0,20180201030000,-1,-1,-1,-1,350,-1,9,-1,-1,-1,-1,,9999,0,0,1,FEW 25,-1,3,-1,10,1027,RJCC 010300Z 35009KT 9999 FEW025 M03/M10 Q1027 RMK 1CU025     A3034=,
20180201_033000.001,0,RJCC,,,,0,20180201030000,-1,-1,-1,-1,30,-1,9,-1,-1,-1,-1,,9999,0,0,1,FEW 25,-1,3,-1,10,1027,RJCC 010330Z 03009KT 9999 FEW025 M03/M10 Q1027 RMK 1CU025     A3033=,
20180201_040000.003,0,RJCC,,,,0,20180201040000,-1,-1,-1,-1,10,-1,7,-1,-1,340,40,,9999,0,0,1,FEW 25,-1,3,-1,10,1027,RJCC 010400Z 01007KT 340V040 9999 FEW025 M03/M10 Q1027 RMK     1CU025 A3033=,
20180201_043000.001,0,RJCC,,,,0,20180201040000,-1,-1,-1,-1,360,-1,7,-1,-1,-1,-1,,9999,0,0,1,FEW 25,-1,3,-1,10,1027,RJCC 010430Z 36007KT 9999 FEW025 M03/M10 Q1027 RMK 1CU025     A3033=,
20180201_050000.002,0,RJCC,,,,0,20180201050000,-1,-1,-1,-1,350,-1,7,-1,-1,-1,-1,,9999,0,0,1,FEW 25,-1,3,-1,10,1027,RJCC 010500Z 35007KT 9999 FEW025 M03/M10 Q1027 RMK 1CU025     A3034=,
20180201_053000.001,0,RJCC,,,,0,20180201050000,-1,-1,-1,-1,350,-1,10,-1,-1,-1,-1,,9999,0,0,1,FEW 25,-1,3,-1,10,1027,RJCC 010530Z 35010KT 9999 FEW025 M03/M10 Q1027 RMK 1CU025     A3034=,
20180201_060000.002,0,RJCC,,,,0,20180201060000,-1,-1,-1,-1,350,-1,9,-1,-1,-1,-1,,9999,0,0,1,FEW 25,-1,3,-1,10,1027,RJCC 010600Z 35009KT 9999 FEW025 M03/M10 Q1027 RMK 1CU025     A3035=,
20180201_063000.001,0,RJCC,,,,0,20180201060000,-1,-1,-1,-1,350,-1,9,-1,-1,-1,-1,,9999,0,0,1,FEW 25,-1,4,-1,10,1028,RJCC 010630Z 35009KT 9999 FEW025 M04/M10 Q1028 RMK 1CU025     A3036=,
20180201_070000.002,0,RJCC,,,,0,20180201070000,-1,-1,-1,-1,360,-1,6,-1,-1,-1,-1,,9999,0,0,1,FEW 25,-1,4,-1,10,1028,RJCC 010700Z 36006KT 9999 FEW025 M04/M10 Q1028 RMK 1CU025     A3037=,
20180201_073000.001,0,RJCC,,,,0,20180201070000,-1,-1,-1,-1,360,-1,6,-1,-1,-1,-1,,9999,0,0,1,FEW 25,-1,5,-1,10,1028,RJCC 010730Z 36006KT 9999 FEW025 M05/M10 Q1028 RMK 1CU025     A3038=,
20180201_080000.002,0,RJCC,,,,0,20180201080000,-1,-1,-1,-1,340,-1,5,-1,-1,-1,-1,,9999,0,0,1,FEW 25,-1,5,-1,10,1028,RJCC 010800Z 34005KT 9999 FEW025 M05/M10 Q1028 RMK 1CU025     A3038=,
20180201_083000.001,0,RJCC,,,,0,20180201080000,-1,-1,-1,-1,360,-1,4,-1,-1,-1,-1,,9999,0,0,1,FEW 25,-1,7,-1,12,1029,RJCC 010830Z 36004KT 9999 FEW025 M07/M12 Q1029 RMK 1CU025     A3039=,
20180201_090000.002,0,RJCC,,,,0,20180201090000,-1,-1,-1,-1,360,-1,4,-1,-1,-1,-1,,9999,0,0,1,FEW 25,-1,8,-1,12,1029,RJCC 010900Z 36004KT 9999 FEW025 M08/M12 Q1029 RMK 1CU025     A3039=,
20180201_093000.001,0,RJCC,,,,0,20180201090000,-1,-1,-1,-1,340,-1,6,-1,-1,-1,-1,,9999,0,0,1,FEW 25,-1,9,-1,12,1029,RJCC 010930Z 34006KT 9999 FEW025 M09/M12 Q1029 RMK 1CU025     A3039=,
20180201_100000.002,0,RJCC,,,,0,20180201100000,-1,-1,-1,-1,350,-1,5,-1,-1,-1,-1,,9999,0,0,1,FEW 25,-1,10,-1,13,1029,RJCC 011000Z 35005KT 9999 FEW025 M10/M13 Q1029 RMK 1CU025     A3040=,
20180201_103000.001,0,RJCC,,,,0,20180201100000,-1,-1,-1,-1,320,-1,5,-1,-1,-1,-1,,9999,0,0,1,FEW 25,-1,7,-1,10,1029,RJCC 011030Z 32005KT 9999 FEW025 M07/M10 Q1029 RMK 1CU025     A3041=,
20180201_110000.002,0,RJCC,,,,0,20180201110000,-1,-1,-1,-1,330,-1,5,-1,-1,-1,-1,,9999,0,0,1,FEW 25,-1,9,-1,11,1029,RJCC 011100Z 33005KT 9999 FEW025 M09/M11 Q1029 RMK 1CU025     A3040=,
20180201_113000.001,0,RJCC,,,,0,20180201110000,-1,-1,-1,-1,350,-1,5,-1,-1,-1,-1,,9999,0,0,1,FEW 30,-1,9,-1,11,1029,RJCC 011130Z 35005KT 9999 FEW030 M09/M11 Q1029 RMK 1CU030     A3041=,
20180201_120000.002,0,RJCC,,,,0,20180201120000,-1,-1,-1,-1,60,-1,2,-1,-1,-1,-1,,9999,0,0,1,FEW 30,-1,10,-1,11,1030,RJCC 011200Z 06002KT 9999 FEW030 M10/M11 Q1030 RMK 1CU030     A3042=,
20180201_123000.001,0,RJCC,,,,0,20180201120000,-1,-1,-1,-1,20,-1,1,-1,-1,-1,-1,,9999,0,0,1,FEW 30,-1,10,-1,10,1030,RJCC 011230Z 02001KT 9999 FEW030 M10/M10 Q1030 RMK 1CU030     A3043=,
20180201_130000.002,0,RJCC,,,,0,20180201130000,-1,-1,-1,-1,330,-1,4,-1,-1,-1,-1,,9999,0,0,1,FEW 30,-1,12,-1,13,1030,RJCC 011300Z 33004KT 9999 FEW030 M12/M13 Q1030 RMK 1CU030     A3043=,
20180201_133000.001,0,RJCC,,,,0,20180201130000,-1,-1,-1,-1,320,-1,5,-1,-1,-1,-1,,9999,0,0,1,FEW 30,-1,13,-1,13,1030,RJCC 011330Z 32005KT 9999 FEW030 M13/M13 Q1030 RMK 1CU030     A3042=,
20180201_140000.002,0,RJCC,,,,0,20180201140000,-1,-1,-1,-1,310,-1,4,-1,-1,-1,-1,,9999,0,0,1,FEW 30,-1,12,-1,13,1030,RJCC 011400Z 31004KT 9999 FEW030 M12/M13 Q1030 RMK 1CU030     A3044=,
20180201_143000.001,0,RJCC,,,,0,20180201140000,-1,-1,-1,-1,340,-1,4,-1,-1,-1,-1,,9999,0,0,1,FEW 2,-1,14,-1,15,1030,RJCC 011430Z 34004KT 9999 FEW002 M14/M15 Q1030 RMK 2ST002     A3043=,
20180201_150000.002,0,RJCC,,,,0,20180201150000,-1,-1,-1,-1,20,-1,2,-1,-1,-1,-1,,800,2,1,1,SCT 1,-1,14,-1,15,1030,RJCC 011500Z 02002KT 0800 R19R/0450N R19L/0450V0900U FZFG     SCT001 M14/M15 Q1030 RMK 3ST001 A3044=,FZ FG
20180201_153000.001,0,RJCC,,,,0,20180201150000,-1,-1,-1,-1,320,-1,4,-1,-1,-1,-1,,900,2,1,1,BKN 1,-1,15,-1,16,1030,RJCC 011530Z 32004KT 0900 R19R/0650VP2000U R19L/0600VP2000U     FZFG BKN001 M15/M16 Q1030 RMK 5ST001 A3044 3000NE-E=,FZ FG
20180201_160000.002,0,RJCC,,,,0,20180201160000,-1,-1,-1,-1,50,-1,3,-1,-1,360,100,,5000,2,2,1,FEW 1,-1,16,-1,17,1030,RJCC 011600Z 05003KT 360V100 5000 R01L/P2000N R01R/P2000N BCFG     BR FEW001 M16/M17 Q1030 RMK 2ST001 A3044=,BC FG; BR
20180201_163000.001,0,RJCC,,,,0,20180201160000,-1,-1,-1,-1,350,-1,2,-1,-1,-1,-1,,1500,2,2,1,SCT 1,-1,15,-1,16,1030,RJCC 011630Z 35002KT 1500 R01L/P2000N R01R/P2000N BCFG BR     SCT001 M15/M16 Q1030 RMK 4ST001 A3044=,BC FG; BR
20180201_170000.002,0,RJCC,,,,0,20180201170000,-1,-1,-1,-1,330,-1,3,-1,-1,-1,-1,,3000,0,2,1,SCT 1,-1,15,-1,16,1030,RJCC 011700Z 33003KT 3000 BCFG BR SCT001 M15/M16 Q1030 RMK     3ST001 A3044=,BC FG; BR
20180201_173000.001,0,RJCC,,,,0,20180201170000,-1,-1,-1,-1,999,-1,1,-1,-1,-1,-1,,8000,0,0,1,FEW 1,-1,15,-1,16,1030,RJCC 011730Z VRB01KT 8000 FEW001 M15/M16 Q1030 RMK 1ST001     A3044=,
20180201_180000.002,0,RJCC,,,,0,20180201180000,-1,-1,-1,-1,360,-1,2,-1,-1,-1,-1,,9999,0,0,1,FEW 1,-1,16,-1,17,1030,RJCC 011800Z 36002KT 9999 FEW001 M16/M17 Q1030 RMK 1ST001     A3043=,
20180201_183000.001,0,RJCC,,,,0,20180201180000,-1,-1,-1,-1,330,-1,3,-1,-1,-1,-1,,9999,0,0,1,FEW 1,-1,17,-1,18,1030,RJCC 011830Z 33003KT 9999 FEW001 M17/M18 Q1030 RMK 1ST001     A3042=,
20180201_190000.003,0,RJCC,,,,0,20180201190000,-1,-1,-1,-1,330,-1,4,-1,-1,-1,-1,,9999,0,0,1,FEW 1,-1,18,-1,19,1030,RJCC 011900Z 33004KT 9999 FEW001 M18/M19 Q1030 RMK 1ST001     A3042=,
20180201_193000.001,0,RJCC,,,,0,20180201190000,-1,-1,-1,-1,350,-1,4,-1,-1,-1,-1,,9999,0,0,1,FEW 1,-1,18,-1,19,1030,RJCC 011930Z 35004KT 9999 FEW001 M18/M19 Q1030 RMK 1ST001     A3042=,
20180201_200000.003,0,RJCC,,,,0,20180201200000,-1,-1,-1,-1,330,-1,3,-1,-1,-1,-1,,9999,0,0,1,FEW 1,-1,18,-1,20,1030,RJCC 012000Z 33003KT 9999 FEW001 M18/M20 Q1030 RMK 1ST001     A3043=,
20180201_203000.001,0,RJCC,,,,0,20180201200000,-1,-1,-1,-1,10,-1,3,-1,-1,-1,-1,,9999,0,0,1,FEW 10,-1,18,-1,20,1030,RJCC 012030Z 01003KT 9999 FEW010 M18/M20 Q1030 RMK 1ST010     A3043=,
20180201_210000.002,0,RJCC,,,,0,20180201210000,-1,-1,-1,-1,10,-1,2,-1,-1,-1,-1,,8000,2,1,1,FEW 1,-1,18,-1,19,1030,RJCC 012100Z 01002KT 8000 R01L/P2000N R01R/P2000N BCFG FEW001     M18/M19 Q1030 RMK 1ST001 A3043=,BC FG
20180201_213000.001,0,RJCC,,,,0,20180201210000,-1,-1,-1,-1,330,-1,3,-1,-1,-1,-1,,8000,0,1,1,FEW 1,-1,19,-1,20,1030,RJCC 012130Z 33003KT 8000 BCFG FEW001 M19/M20 Q1030 RMK 1ST001     A3043=,BC FG
20180201_220000.002,0,RJCC,,,,0,20180201220000,-1,-1,-1,-1,330,-1,3,-1,-1,-1,-1,,9999,2,1,1,FEW 1,-1,19,-1,20,1030,RJCC 012200Z 33003KT 9999 R01L/P2000N R01R/P2000N PRFG FEW001     M19/M20 Q1030 RMK 1ST001 A3044 FG NE-E=,PR FG
20180201_223000.002,0,RJCC,,,,0,20180201220000,-1,-1,-1,-1,10,-1,2,-1,-1,-1,-1,,9999,0,1,1,FEW 1,-1,19,-1,20,1030,RJCC 012230Z 01002KT 9999 PRFG FEW001 M19/M20 Q1030 RMK 1ST001     A3044 FG NE-E=,PR FG
20180201_230000.003,0,RJCC,,,,0,20180201230000,-1,-1,-1,-1,10,-1,3,-1,-1,-1,-1,,9999,0,1,1,FEW 15,-1,18,-1,19,1030,RJCC 012300Z 01003KT 9999 PRFG FEW015 M18/M19 Q1030 RMK 1ST015     A3044 FG E=,PR FG
20180201_233000.001,0,RJCC,,,,0,20180201230000,-1,-1,-1,-1,10,-1,3,-1,-1,-1,-1,,9999,0,1,1,FEW 15,-1,16,-1,17,1030,RJCC 012330Z 01003KT 9999 PRFG FEW015 M16/M17 Q1030 RMK 1ST015     A3044 FG E-SE=,PR FG
20180202_000000.002,0,RJCC,,,,0,20180202000000,-1,-1,-1,-1,30,-1,2,-1,-1,-1,-1,,9999,0,1,1,FEW 50,-1,13,-1,14,1030,RJCC 020000Z 03002KT 9999 PRFG FEW050 M13/M14 Q1030 RMK 1CU050     A3043 FG SE=,PR FG
20180202_003000.001,0,RJCC,,,,0,20180202000000,-1,-1,-1,-1,999,-1,1,-1,-1,-1,-1,,9999,0,1,1,FEW 40,-1,11,-1,12,1030,RJCC 020030Z VRB01KT 9999 PRFG FEW040 M11/M12 Q1030 RMK 1CU040     A3042 FG SE=,PR FG
20180202_010000.002,0,RJCC,,,,0,20180202010000,-1,-1,-1,-1,340,-1,3,-1,-1,320,30,,9999,0,1,1,FEW 50,-1,10,-1,13,1030,RJCC 020100Z 34003KT 320V030 9999 PRFG FEW050 M10/M13 Q1030     RMK 1CU050 A3041 FG SE=,PR FG
20180202_013000.001,0,RJCC,,,,0,20180202010000,-1,-1,-1,-1,340,-1,3,-1,-1,310,20,,9999,0,0,1,FEW 30,-1,7,-1,12,1029,RJCC 020130Z 34003KT 310V020 9999 FEW030 M07/M12 Q1029 RMK     1CU030 A3041=,
20180202_020000.002,0,RJCC,,,,0,20180202020000,-1,-1,-1,-1,340,-1,2,-1,-1,-1,-1,,9999,0,0,1,FEW 30,-1,6,-1,12,1029,RJCC 020200Z 34002KT 9999 FEW030 M06/M12 Q1029 RMK 1CU030     A3040=,
20180202_023000.001,0,RJCC,,,,0,20180202020000,-1,-1,-1,-1,0,-1,0,-1,-1,-1,-1,,9999,0,0,1,FEW 30,-1,4,-1,11,1028,RJCC 020230Z 00000KT 9999 FEW030 M04/M11 Q1028 RMK 1CU030     A3038=,
20180202_030000.002,0,RJCC,,,,0,20180202030000,-1,-1,-1,-1,999,-1,1,-1,-1,-1,-1,,9999,0,0,1,FEW 30,-1,2,-1,11,1028,RJCC 020300Z VRB01KT 9999 FEW030 M02/M11 Q1028 RMK 1CU030     A3036=,
20180202_033000.001,0,RJCC,,,,0,20180202030000,-1,-1,-1,-1,100,-1,3,-1,-1,40,160,,9999,0,0,1,FEW 30,-1,1,-1,11,1027,RJCC 020330Z 10003KT 040V160 9999 FEW030 M01/M11 Q1027 RMK     1CU030 A3034=,
20180202_040000.002,0,RJCC,,,,0,20180202040000,-1,-1,-1,-1,130,-1,7,-1,-1,100,160,,9999,0,0,1,FEW 30,-1,1,-1,11,1027,RJCC 020400Z 13007KT 100V160 9999 FEW030 M01/M11 Q1027 RMK     1CU030 A3034=,
20180202_043000.001,0,RJCC,,,,0,20180202040000,-1,-1,-1,-1,120,-1,8,-1,-1,-1,-1,,9999,0,0,1,FEW 30,-1,1,-1,11,1027,RJCC 020430Z 12008KT 9999 FEW030 M01/M11 Q1027 RMK 1CU030     A3033=,
20180202_050000.001,0,RJCC,,,,0,20180202050000,-1,-1,-1,-1,150,-1,10,-1,-1,-1,-1,,9999,0,0,1,FEW 30,-1,1,-1,11,1027,RJCC 020500Z 15010KT 9999 FEW030 M01/M11 Q1027 RMK 1CU030     A3033=,
20180202_053000.001,0,RJCC,,,,0,20180202050000,-1,-1,-1,-1,170,-1,10,-1,-1,-1,-1,,9999,0,0,1,FEW 30,-1,1,-1,11,1027,RJCC 020530Z 17010KT 9999 FEW030 M01/M11 Q1027 RMK 1CU030     A3035=,
20180202_060000.002,0,RJCC,,,,0,20180202060000,-1,-1,-1,-1,170,-1,10,-1,-1,-1,-1,,9999,0,0,1,FEW 30,-1,1,-1,11,1027,RJCC 020600Z 17010KT 9999 FEW030 M01/M11 Q1027 RMK 1CU030     A3035=,
20180202_063000.001,0,RJCC,,,,0,20180202060000,-1,-1,-1,-1,170,-1,9,-1,-1,-1,-1,,9999,0,0,2,FEW 30   SCT 60,-1,1,-1,11,1027,RJCC 020630Z 17009KT 9999 FEW030 SCT060 M01/M11 Q1027 RMK     1CU030 3CU060 A3035=,
20180202_070000.002,0,RJCC,,,,0,20180202070000,-1,-1,-1,-1,170,-1,7,-1,-1,-1,-1,,9999,0,0,1,FEW 30,-1,3,-1,11,1028,RJCC 020700Z 17007KT 9999 FEW030 M03/M11 Q1028 RMK 1CU030     A3036=,
20180202_073000.001,0,RJCC,,,,0,20180202070000,-1,-1,-1,-1,160,-1,6,-1,-1,-1,-1,,9999,0,0,1,FEW 30,-1,2,-1,10,1028,RJCC 020730Z 16006KT 9999 FEW030 M02/M10 Q1028 RMK 1CU030     A3036=,
20180202_080000.002,0,RJCC,,,,0,20180202080000,-1,-1,-1,-1,160,-1,4,-1,-1,-1,-1,,9999,0,0,1,FEW 30,-1,3,-1,10,1028,RJCC 020800Z 16004KT 9999 FEW030 M03/M10 Q1028 RMK 1CU030     A3037=,
20180202_083000.001,0,RJCC,,,,0,20180202080000,-1,-1,-1,-1,150,-1,3,-1,-1,-1,-1,,9999,0,0,2,FEW 30   BKN 60,-1,4,-1,11,1028,RJCC 020830Z 15003KT 9999 FEW030 BKN060 M04/M11 Q1028 RMK     1CU030 5CU060 A3037=,
20180202_090000.002,0,RJCC,,,,0,20180202090000,-1,-1,-1,-1,160,-1,4,-1,-1,-1,-1,,9999,0,0,2,FEW 30   BKN 50,-1,4,-1,10,1028,RJCC 020900Z 16004KT 9999 FEW030 BKN050 M04/M10 Q1028 RMK     1CU030 6CU050 A3037=,
20180202_093000.001,0,RJCC,,,,0,20180202090000,-1,-1,-1,-1,130,-1,4,-1,-1,-1,-1,,9999,0,0,2,FEW 25   BKN 50,-1,4,-1,9,1028,RJCC 020930Z 13004KT 9999 FEW025 BKN050 M04/M09 Q1028 RMK     1CU025 6CU050 A3036=,
20180202_100000.003,0,RJCC,,,,0,20180202100000,-1,-1,-1,-1,160,-1,5,-1,-1,-1,-1,,9999,0,0,2,FEW 25   BKN 60,-1,4,-1,10,1028,RJCC 021000Z 16005KT 9999 FEW025 BKN060 M04/M10 Q1028 RMK     1CU025 6CU060 A3036=,
20180202_103000.001,0,RJCC,,,,0,20180202100000,-1,-1,-1,-1,999,-1,2,-1,-1,-1,-1,,9999,0,0,2,FEW 25   BKN 60,-1,4,-1,10,1027,RJCC 021030Z VRB02KT 9999 FEW025 BKN060 M04/M10 Q1027 RMK     1CU025 7CU060 A3035=,
20180202_110000.002,0,RJCC,,,,0,20180202110000,-1,-1,-1,-1,130,-1,2,-1,-1,-1,-1,,9999,0,0,2,FEW 25   BKN 60,-1,4,-1,10,1027,RJCC 021100Z 13002KT 9999 FEW025 BKN060 M04/M10 Q1027 RMK     1CU025 6CU060 A3034=,
20180202_113000.001,0,RJCC,,,,0,20180202110000,-1,-1,-1,-1,360,-1,3,-1,-1,320,110,,9999,0,0,2,FEW 25   BKN 50,-1,5,-1,9,1027,RJCC 021130Z 36003KT 320V110 9999 FEW025 BKN050 M05/M09 Q1027     RMK 1CU025 6CU050 A3034=,
20180202_120000.002,0,RJCC,,,,0,20180202120000,-1,-1,-1,-1,310,-1,4,-1,-1,260,350,,9999,0,0,3,FEW 25   SCT 50   BKN 60,-1,7,-1,11,1027,RJCC 021200Z 31004KT 260V350 9999 FEW025 SCT050 BKN060 M07/M11     Q1027 RMK 1CU025 3CU050 6CU060 A3034=,
20180202_123000.001,0,RJCC,,,,0,20180202120000,-1,-1,-1,-1,350,-1,4,-1,-1,-1,-1,,9999,0,0,2,FEW 25   SCT 45,-1,9,-1,12,1027,RJCC 021230Z 35004KT 9999 FEW025 SCT045 M09/M12 Q1027 RMK     1CU025 3CU045 A3033=,
20180202_130000.003,0,RJCC,,,,0,20180202130000,-1,-1,-1,-1,310,-1,3,-1,-1,-1,-1,,9999,0,0,2,FEW 25   SCT 50,-1,8,-1,12,1027,RJCC 021300Z 31003KT 9999 FEW025 SCT050 M08/M12 Q1027 RMK     1CU025 4CU050 A3033=,
20180202_133000.001,0,RJCC,,,,0,20180202130000,-1,-1,-1,-1,10,-1,4,-1,-1,-1,-1,,9999,0,0,2,FEW 25   BKN 70,-1,10,-1,12,1026,RJCC 021330Z 01004KT 9999 FEW025 BKN070 M10/M12 Q1026 RMK     1CU025 6AC070 A3032=,
20180202_140000.002,0,RJCC,,,,0,20180202140000,-1,-1,-1,-1,340,-1,6,-1,-1,-1,-1,,9999,0,0,3,FEW 25   SCT 50   BKN 70,-1,9,-1,12,1026,RJCC 021400Z 34006KT 9999 FEW025 SCT050 BKN070 M09/M12 Q1026     RMK 1CU025 3CU050 7AC070 A3032=,
20180202_143000.001,0,RJCC,,,,0,20180202140000,-1,-1,-1,-1,350,-1,3,-1,-1,-1,-1,,9999,0,0,2,FEW 25   BKN 70,-1,10,-1,12,1026,RJCC 021430Z 35003KT 9999 FEW025 BKN070 M10/M12 Q1026 RMK     1CU025 6AC070 A3031=,
20180202_150000.002,0,RJCC,,,,0,20180202150000,-1,-1,-1,-1,10,-1,3,-1,-1,-1,-1,,9999,0,0,2,FEW 25   SCT 70,-1,11,-1,13,1026,RJCC 021500Z 01003KT 9999 FEW025 SCT070 M11/M13 Q1026 RMK     1CU025 3AC070 A3031=,
20180202_153000.001,0,RJCC,,,,0,20180202150000,-1,-1,-1,-1,340,-1,5,-1,-1,-1,-1,,9999,0,0,1,FEW 15,-1,12,-1,14,1026,RJCC 021530Z 34005KT 9999 FEW015 M12/M14 Q1026 RMK 1ST015     A3031=,
20180202_160000.002,0,RJCC,,,,0,20180202160000,-1,-1,-1,-1,360,-1,6,-1,-1,-1,-1,,9999,0,0,2,FEW 15   SCT -9999,-1,13,-1,14,1026,RJCC 021600Z 36006KT 9999 FEW015 SCT/// M13/M14 Q1026 RMK     1ST015 A3030=,
20180202_163000.001,0,RJCC,,,,0,20180202160000,-1,-1,-1,-1,340,-1,7,-1,-1,-1,-1,,9999,0,0,2,FEW 15   BKN -9999,-1,12,-1,14,1026,RJCC 021630Z 34007KT 9999 FEW015 BKN/// M12/M14 Q1026 RMK     1ST015 A3030=,
20180202_170000.002,0,RJCC,,,,0,20180202170000,-1,-1,-1,-1,330,-1,5,-1,-1,-1,-1,,9999,0,0,3,FEW 15   SCT 160   BKN -9999,-1,12,-1,13,1026,RJCC 021700Z 33005KT 9999 FEW015 SCT160 BKN/// M12/M13 Q1026     RMK 1ST015 3AC160 A3030=,
20180202_173000.001,0,RJCC,,,,0,20180202170000,-1,-1,-1,-1,340,-1,5,-1,-1,-1,-1,,9999,0,0,3,FEW 15   BKN 35   BKN -9999,-1,12,-1,13,1026,RJCC 021730Z 34005KT 9999 FEW015 BKN035 BKN/// M12/M13 Q1026     RMK 1ST015 5CU035 A3030=,
20180202_180000.003,0,RJCC,,,,0,20180202180000,-1,-1,-1,-1,350,-1,6,-1,-1,-1,-1,,9999,0,0,3,FEW 15   BKN 40   BKN -9999,-1,12,-1,12,1025,RJCC 021800Z 35006KT 9999 FEW015 BKN040 BKN/// M12/M12 Q1025     RMK 1ST015 6CU040 A3029=,
20180202_183000.001,0,RJCC,,,,0,20180202180000,-1,-1,-1,-1,360,-1,4,-1,-1,-1,-1,,9999,0,0,3,FEW 15   BKN 45   BKN -9999,-1,11,-1,12,1025,RJCC 021830Z 36004KT 9999 FEW015 BKN045 BKN/// M11/M12 Q1025     RMK 1ST015 6CU045 A3029=,
20180202_190000.003,0,RJCC,,,,0,20180202190000,-1,-1,-1,-1,340,-1,4,-1,-1,-1,-1,,9999,0,0,2,FEW 15   BKN 40,-1,11,-1,12,1025,RJCC 021900Z 34004KT 9999 FEW015 BKN040 M11/M12 Q1025 RMK     1ST015 7CU040 A3029=,
20180202_193000.001,0,RJCC,,,,0,20180202190000,-1,-1,-1,-1,350,-1,4,-1,-1,-1,-1,,9999,0,0,2,FEW 15   BKN 40,-1,11,-1,12,1025,RJCC 021930Z 35004KT 9999 FEW015 BKN040 M11/M12 Q1025 RMK     1ST015 7CU040 A3029=,
20180202_200000.003,0,RJCC,,,,0,20180202200000,-1,-1,-1,-1,350,-1,4,-1,-1,-1,-1,,9999,0,0,2,FEW 15   BKN 45,-1,10,-1,12,1025,RJCC 022000Z 35004KT 9999 FEW015 BKN045 M10/M12 Q1025 RMK     1ST015 7CU045 A3028=,
20180202_203000.001,0,RJCC,,,,0,20180202200000,-1,-1,-1,-1,350,-1,4,-1,-1,-1,-1,,9999,0,0,2,FEW 15   BKN 45,-1,10,-1,12,1025,RJCC 022030Z 35004KT 9999 FEW015 BKN045 M10/M12 Q1025 RMK     1ST015 7CU045 A3027=,
20180202_210000.002,0,RJCC,,,,0,20180202210000,-1,-1,-1,-1,360,-1,4,-1,-1,-1,-1,,9999,0,0,2,FEW 15   BKN 45,-1,10,-1,12,1025,RJCC 022100Z 36004KT 9999 FEW015 BKN045 M10/M12 Q1025 RMK     1ST015 7CU045 A3027=,
20180202_213000.001,0,RJCC,,,,0,20180202210000,-1,-1,-1,-1,350,-1,5,-1,-1,-1,-1,,9999,0,0,3,FEW 15   SCT 45   BKN 60,-1,10,-1,12,1024,RJCC 022130Z 35005KT 9999 FEW015 SCT045 BKN060 M10/M12 Q1024     RMK 1ST015 4CU045 7CU060 A3026=,
20180202_220000.002,0,RJCC,,,,0,20180202220000,-1,-1,-1,-1,360,-1,2,-1,-1,-1,-1,,9999,0,0,2,FEW 15   BKN 50,-1,10,-1,12,1024,RJCC 022200Z 36002KT 9999 FEW015 BKN050 M10/M12 Q1024 RMK     1ST015 7CU050 A3026=,
20180202_223000.002,0,RJCC,,,,0,20180202220000,-1,-1,-1,-1,350,-1,4,-1,-1,-1,-1,,9999,0,0,2,FEW 15   BKN 50,-1,10,-1,12,1024,RJCC 022230Z 35004KT 9999 FEW015 BKN050 M10/M12 Q1024 RMK     1ST015 7CU050 A3025=,
20180202_230000.003,0,RJCC,,,,0,20180202230000,-1,-1,-1,-1,340,-1,6,-1,-1,-1,-1,,9999,0,0,3,FEW 20   BKN 50   BKN 60,-1,9,-1,11,1024,RJCC 022300Z 34006KT 9999 FEW020 BKN050 BKN060 M09/M11 Q1024     RMK 1CU020 5CU050 7CU060 A3024=,
20180202_233000.001,0,RJCC,,,,0,20180202230000,-1,-1,-1,-1,340,-1,7,-1,-1,-1,-1,,9999,0,0,2,FEW 20   BKN 60,-1,9,-1,12,1023,RJCC 022330Z 34007KT 9999 FEW020 BKN060 M09/M12 Q1023 RMK     1CU020 7CU060 A3023=,
20180203_000000.002,0,RJCC,,,,0,20180203000000,-1,-1,-1,-1,350,-1,5,-1,-1,-1,-1,,9999,0,0,2,FEW 20   BKN 60,-1,8,-1,11,1023,RJCC 030000Z 35005KT 9999 FEW020 BKN060 M08/M11 Q1023 RMK     1CU020 7CU060 A3022=,
20180203_003000.001,0,RJCC,,,,0,20180203000000,-1,-1,-1,-1,350,-1,4,-1,-1,-1,-1,,9999,0,0,2,FEW 20   BKN 60,-1,8,-1,11,1023,RJCC 030030Z 35004KT 9999 FEW020 BKN060 M08/M11 Q1023 RMK     1CU020 7CU060 A3021=,
20180203_010000.003,0,RJCC,,,,0,20180203010000,-1,-1,-1,-1,340,-1,5,-1,-1,-1,-1,,9999,0,0,3,FEW 20   SCT 60   BKN 100,-1,6,-1,11,1022,RJCC 030100Z 34005KT 9999 FEW020 SCT060 BKN100 M06/M11 Q1022     RMK 1CU020 4CU060 6AC100 A3019=,
20180203_013000.001,0,RJCC,,,,0,20180203010000,-1,-1,-1,-1,340,-1,6,-1,-1,-1,-1,,9999,0,0,2,FEW 40   BKN 80,-1,5,-1,10,1021,RJCC 030130Z 34006KT 9999 FEW040 BKN080 M05/M10 Q1021 RMK     1CU040 7AC080 A3017=,
20180203_020000.002,0,RJCC,,,,0,20180203020000,-1,-1,-1,-1,340,-1,6,-1,-1,-1,-1,,9999,0,0,2,FEW 40   BKN 80,-1,3,-1,10,1020,RJCC 030200Z 34006KT 9999 FEW040 BKN080 M03/M10 Q1020 RMK     1CU040 7AC080 A3015=,
20180203_023000.001,0,RJCC,,,,0,20180203020000,-1,-1,-1,-1,340,-1,4,-1,-1,-1,-1,,9999,0,0,2,FEW 40   BKN 80,-1,4,-1,10,1020,RJCC 030230Z 34004KT 9999 FEW040 BKN080 M04/M10 Q1020 RMK     1CU040 7AC080 A3013=,
20180203_030000.002,0,RJCC,,,,0,20180203030000,-1,-1,-1,-1,360,-1,5,-1,-1,-1,-1,,9999,0,0,2,FEW 40   BKN 80,-1,4,-1,10,1019,RJCC 030300Z 36005KT 9999 FEW040 BKN080 M04/M10 Q1019 RMK     1CU040 7AC080 A3012=,
20180203_033000.001,0,RJCC,,,,0,20180203030000,-1,-1,-1,-1,360,-1,3,-1,-1,-1,-1,,9999,0,0,2,FEW 40   BKN 90,-1,3,-1,10,1019,RJCC 030330Z 36003KT 9999 FEW040 BKN090 M03/M10 Q1019 RMK     1CU040 7AC090 A3011=,
20180203_040000.002,0,RJCC,,,,0,20180203040000,-1,-1,-1,-1,360,-1,3,-1,-1,-1,-1,,9999,0,0,3,FEW 40   BKN 60   BKN 90,-1,2,-1,9,1019,RJCC 030400Z 36003KT 9999 FEW040 BKN060 BKN090 M02/M09 Q1019     RMK 1CU040 5CU060 7AC090 A3009=,
20180203_043000.001,0,RJCC,,,,0,20180203040000,-1,-1,-1,-1,999,-1,1,-1,-1,-1,-1,,9999,0,0,3,FEW 40   BKN 60   BKN 90,-1,2,-1,10,1018,RJCC 030430Z VRB01KT 9999 FEW040 BKN060 BKN090 M02/M10 Q1018     RMK 1CU040 6CU060 7AC090 A3008=,
20180203_050000.002,0,RJCC,,,,0,20180203050000,-1,-1,-1,-1,999,-1,1,-1,-1,-1,-1,,9999,0,0,2,FEW 40   BKN 80,-1,1,-1,9,1018,RJCC 030500Z VRB01KT 9999 FEW040 BKN080 M01/M09 Q1018 RMK     1CU040 7AC080 A3008=,
20180203_053000.001,0,RJCC,,,,0,20180203050000,-1,-1,-1,-1,160,-1,5,-1,-1,120,220,,9999,0,0,3,FEW 40   SCT 80   BKN 140,-1,1,-1,9,1018,RJCC 030530Z 16005KT 120V220 9999 FEW040 SCT080 BKN140 M01/M09     Q1018 RMK 1CU040 3AC080 7AC140 A3007=,
20180203_060000.002,0,RJCC,,,,0,20180203060000,-1,-1,-1,-1,160,-1,3,-1,-1,140,210,,9999,0,0,2,FEW 30   BKN 140,-1,0,-1,9,1018,RJCC 030600Z 16003KT 140V210 9999 FEW030 BKN140 M00/M09 Q1018     RMK 1CU030 7AC140 A3006=,
20180203_063000.001,0,RJCC,,,,0,20180203060000,-1,-1,-1,-1,160,-1,5,-1,-1,-1,-1,,9999,0,0,3,FEW 30   SCT 80   BKN 120,1,0,-1,9,1018,RJCC 030630Z 16005KT 9999 FEW030 SCT080 BKN120 00/M09 Q1018     RMK 1CU030 3AC080 5AC120 A3006=,
20180203_070000.003,0,RJCC,,,,0,20180203070000,-1,-1,-1,-1,140,-1,5,-1,-1,-1,-1,,9999,0,0,2,FEW 30   BKN 90,-1,1,-1,9,1017,RJCC 030700Z 14005KT 9999 FEW030 BKN090 M01/M09 Q1017 RMK     1CU030 7AC090 A3005=,
20180203_073000.001,0,RJCC,,,,0,20180203070000,-1,-1,-1,-1,130,-1,4,-1,-1,-1,-1,,9999,0,0,3,FEW 30   SCT 70   BKN 100,-1,1,-1,10,1017,RJCC 030730Z 13004KT 9999 FEW030 SCT070 BKN100 M01/M10 Q1017     RMK 1CU030 4AC070 7AC100 A3005=,
20180203_080000.002,0,RJCC,,,,0,20180203080000,-1,-1,-1,-1,70,-1,4,-1,-1,50,130,,9999,0,0,3,FEW 30   BKN 100   BKN -9999,-1,2,-1,10,1016,RJCC 030800Z 07004KT 050V130 9999 FEW030 BKN100 BKN/// M02/M10     Q1016 RMK 1CU030 5AC100 A3003=,
20180203_083000.001,0,RJCC,,,,0,20180203080000,-1,-1,-1,-1,110,-1,3,-1,-1,-1,-1,,9999,0,0,3,FEW 30   SCT 100   BKN -9999,-1,2,-1,9,1016,RJCC 030830Z 11003KT 9999 FEW030 SCT100 BKN/// M02/M09 Q1016     RMK 1CU030 4AC100 A3003=,
20180203_090000.002,0,RJCC,,,,0,20180203090000,-1,-1,-1,-1,140,-1,3,-1,-1,-1,-1,,9999,0,0,2,FEW 30   BKN -9999,-1,5,-1,10,1016,RJCC 030900Z 14003KT 9999 FEW030 BKN/// M05/M10 Q1016 RMK     1CU030 A3002=,
20180203_093000.001,0,RJCC,,,,0,20180203090000,-1,-1,-1,-1,120,-1,4,-1,-1,80,150,,9999,0,0,3,FEW 30   SCT 120   BKN 160,-1,4,-1,9,1016,RJCC 030930Z 12004KT 080V150 9999 FEW030 SCT120 BKN160 M04/M09     Q1016 RMK 1CU030 4AC120 7AC160 A3001=,
20180203_100000.002,0,RJCC,,,,0,20180203100000,-1,-1,-1,-1,100,-1,3,-1,-1,40,140,,9999,0,0,2,FEW 30   BKN 120,-1,3,-1,9,1015,RJCC 031000Z 10003KT 040V140 9999 FEW030 BKN120 M03/M09 Q1015     RMK 1CU030 7AC120 A3000=,
20180203_103000.001,0,RJCC,,,,0,20180203100000,-1,-1,-1,-1,999,-1,2,-1,-1,-1,-1,,9999,0,0,3,FEW 30   SCT 80   BKN 120,-1,3,-1,9,1015,RJCC 031030Z VRB02KT 9999 FEW030 SCT080 BKN120 M03/M09 Q1015     RMK 1CU030 4AC080 7AC120 A2999=,
20180203_110000.002,0,RJCC,,,,0,20180203110000,-1,-1,-1,-1,999,-1,1,-1,-1,-1,-1,,9999,0,0,3,FEW 30   BKN 70   BKN 100,-1,4,-1,9,1015,RJCC 031100Z VRB01KT 9999 FEW030 BKN070 BKN100 M04/M09 Q1015     RMK 1CU030 6AC070 7AC100 A2997=,
20180203_113000.001,0,RJCC,,,,0,20180203110000,-1,-1,-1,-1,40,-1,3,-1,-1,20,90,,9999,0,0,2,FEW 30   BKN 70,-1,2,-1,10,1014,RJCC 031130Z 04003KT 020V090 9999 FEW030 BKN070 M02/M10 Q1014     RMK 1CU030 7AC070 A2996=,
20180203_120000.002,0,RJCC,,,,0,20180203120000,-1,-1,-1,-1,999,-1,2,-1,-1,-1,-1,,9999,0,0,2,FEW 30   BKN 70,-1,3,-1,9,1014,RJCC 031200Z VRB02KT 9999 FEW030 BKN070 M03/M09 Q1014 RMK     1CU030 7AC070 A2995=,
20180203_123000.001,0,RJCC,,,,0,20180203120000,-1,-1,-1,-1,320,-1,2,-1,-1,-1,-1,,9999,0,0,2,FEW 30   BKN 70,-1,3,-1,8,1013,RJCC 031230Z 32002KT 9999 FEW030 BKN070 M03/M08 Q1013 RMK     1CU030 7AC070 A2994=,
20180203_130000.002,0,RJCC,,,,0,20180203130000,-1,-1,-1,-1,999,-1,2,-1,-1,-1,-1,,9999,0,0,2,FEW 15   BKN 30,-1,3,-1,9,1013,RJCC 031300Z VRB02KT 9999 FEW015 BKN030 M03/M09 Q1013 RMK     1ST015 7CU030 A2994=,
20180203_133000.001,0,RJCC,,,,0,20180203130000,-1,-1,-1,-1,250,-1,4,-1,-1,-1,-1,,9999,0,1,2,FEW 15   BKN 30,-1,3,-1,9,1013,RJCC 031330Z 25004KT 9999 -SHSN FEW015 BKN030 M03/M09 Q1013     RMK 1ST015 7CU030 A2994=,- SN SH
20180203_140000.002,0,RJCC,,,,0,20180203140000,-1,-1,-1,-1,110,-1,4,-1,-1,-1,-1,,900,2,1,1,VV 9,-1,3,-1,6,1013,RJCC 031400Z 11004KT 0900 R01L/P2000N R01R/P2000N SHSN VV009     M03/M06 Q1013 RMK A2994=,SN SH
20180203_143000.001,0,RJCC,,,,0,20180203140000,-1,-1,-1,-1,170,-1,3,-1,-1,-1,-1,,800,2,1,1,VV 9,-1,4,-1,4,1013,RJCC 031430Z 17003KT 0800 R19R/1100VP2000U R01R/1400VP2000U     SHSN VV009 M04/M04 Q1013 RMK A2993=,SN SH
20180203_150000.002,0,RJCC,,,,0,20180203150000,-1,-1,-1,-1,0,-1,0,-1,-1,-1,-1,,900,2,1,1,VV 9,-1,4,-1,4,1013,RJCC 031500Z 00000KT 0900 R01L/2000N R01R/1600VP2000U SHSN     VV009 M04/M04 Q1013 RMK A2992=,SN SH
20180203_153000.001,0,RJCC,,,,0,20180203150000,-1,-1,-1,-1,320,-1,3,-1,-1,-1,-1,,3000,0,1,3,FEW 8   SCT 15   BKN 25,-1,5,-1,5,1012,RJCC 031530Z 32003KT 3000 -SHSN FEW008 SCT015 BKN025 M05/M05     Q1012 RMK 1ST008 3ST015 7CU025 A2990=,- SN SH
20180203_160000.002,0,RJCC,,,,0,20180203160000,-1,-1,-1,-1,300,-1,4,-1,-1,-1,-1,,9999,0,1,3,FEW 8   SCT 35   BKN 60,-1,5,-1,5,1012,RJCC 031600Z 30004KT 9999 -SHSN FEW008 SCT035 BKN060 M05/M05     Q1012 RMK 1ST008 4CU035 7CU060 A2989=,- SN SH
20180203_163000.001,0,RJCC,,,,0,20180203160000,-1,-1,-1,-1,320,-1,5,-1,-1,-1,-1,,6000,0,1,3,FEW 8   SCT 25   BKN 60,-1,5,-1,5,1011,RJCC 031630Z 32005KT 6000 -SHSN FEW008 SCT025 BKN060 M05/M05     Q1011 RMK 1ST008 4CU025 7CU060 A2987=,- SN SH
20180203_170000.002,0,RJCC,,,,0,20180203170000,-1,-1,-1,-1,300,-1,6,-1,-1,-1,-1,,9999,0,1,3,FEW 10   SCT 30   BKN 60,-1,4,-1,5,1011,RJCC 031700Z 30006KT 9999 -SHSN FEW010 SCT030 BKN060 M04/M05     Q1011 RMK 1ST010 3CU030 7CU060 A2986=,- SN SH
20180203_173000.001,0,RJCC,,,,0,20180203170000,-1,-1,-1,-1,250,-1,4,-1,-1,-1,-1,,9999,0,1,3,FEW 10   SCT 30   BKN 60,-1,5,-1,5,1011,RJCC 031730Z 25004KT 9999 -SHSN FEW010 SCT030 BKN060 M05/M05     Q1011 RMK 1ST010 3CU030 7CU060 A2986=,- SN SH
20180203_180000.003,0,RJCC,,,,0,20180203180000,-1,-1,-1,-1,280,-1,5,-1,-1,250,310,,9999,0,1,3,FEW 10   SCT 35   BKN 50,-1,4,-1,4,1011,RJCC 031800Z 28005KT 250V310 9999 -SHSN FEW010 SCT035 BKN050     M04/M04 Q1011 RMK 1ST010 3CU035 7CU055 A2985=,- SN SH
20180203_183000.001,0,RJCC,,,,0,20180203180000,-1,-1,-1,-1,20,-1,4,-1,-1,-1,-1,,9999,0,1,3,FEW 10   SCT 35   BKN 60,-1,4,-1,5,1010,RJCC 031830Z 02004KT 9999 -SHSN FEW010 SCT035 BKN060 M04/M05     Q1010 RMK 1ST010 3CU035 7CU060 A2985=,- SN SH
20180203_190000.002,0,RJCC,,,,0,20180203190000,-1,-1,-1,-1,360,-1,3,-1,-1,310,40,,9999,0,1,3,FEW 10   SCT 40   BKN 60,-1,5,-1,5,1010,RJCC 031900Z 36003KT 310V040 9999 -SHSN FEW010 SCT040 BKN060     M05/M05 Q1010 RMK 1ST010 3CU040 7CU060 A2984=,- SN SH
20180203_193000.001,0,RJCC,,,,0,20180203190000,-1,-1,-1,-1,10,-1,4,-1,-1,-1,-1,,9999,0,1,3,FEW 10   SCT 40   BKN 60,-1,5,-1,5,1010,RJCC 031930Z 01004KT 9999 -SHSN FEW010 SCT040 BKN060 M05/M05     Q1010 RMK 1ST010 3CU040 7CU060 A2983=,- SN SH
20180203_200000.002,0,RJCC,,,,0,20180203200000,-1,-1,-1,-1,320,-1,6,-1,-1,-1,-1,,9999,0,1,3,FEW 10   SCT 40   BKN 60,-1,5,-1,5,1010,RJCC 032000Z 32006KT 9999 -SHSN FEW010 SCT040 BKN060 M05/M05     Q1010 RMK 1ST010 3CU040 7CU060 A2983=,- SN SH
20180203_203000.001,0,RJCC,,,,0,20180203200000,-1,-1,-1,-1,340,-1,5,-1,-1,-1,-1,,9999,0,1,3,FEW 10   SCT 40   BKN 70,-1,5,-1,5,1009,RJCC 032030Z 34005KT 9999 -SHSN FEW010 SCT040 BKN070 M05/M05     Q1009 RMK 1ST010 3CU040 7AC070 A2982=,- SN SH
20180203_210000.002,0,RJCC,,,,0,20180203210000,-1,-1,-1,-1,330,-1,6,-1,-1,-1,-1,,9999,0,1,3,FEW 10   SCT 40   BKN 60,-1,4,-1,5,1009,RJCC 032100Z 33006KT 9999 -SHSN FEW010 SCT040 BKN060 M04/M05     Q1009 RMK 1ST010 3CU040 7CU060 A2981=,- SN SH
20180203_213000.001,0,RJCC,,,,0,20180203210000,-1,-1,-1,-1,360,-1,4,-1,-1,-1,-1,,9999,0,1,3,FEW 10   SCT 40   BKN 60,-1,5,-1,5,1009,RJCC 032130Z 36004KT 9999 -SHSN FEW010 SCT040 BKN060 M05/M05     Q1009 RMK 1ST010 3CU040 7CU060 A2981=,- SN SH
20180203_220000.002,0,RJCC,,,,0,20180203220000,-1,-1,-1,-1,360,-1,4,-1,-1,-1,-1,,9999,0,1,2,FEW 15   BKN 60,-1,5,-1,5,1009,RJCC 032200Z 36004KT 9999 -SHSN FEW015 BKN060 M05/M05 Q1009     RMK 1ST015 7CU060 A2981=,- SN SH
20180203_223000.002,0,RJCC,,,,0,20180203220000,-1,-1,-1,-1,20,-1,5,-1,-1,-1,-1,,9999,0,1,2,FEW 15   BKN 60,-1,5,-1,5,1009,RJCC 032230Z 02005KT 9999 -SHSN FEW015 BKN060 M05/M05 Q1009     RMK 1ST015 7CU060 A2981=,- SN SH
20180203_230000.002,0,RJCC,,,,0,20180203230000,-1,-1,-1,-1,320,-1,3,-1,-1,290,10,,9999,0,1,2,FEW 15   BKN 60,-1,4,-1,5,1009,RJCC 032300Z 32003KT 290V010 9999 -SHSN FEW015 BKN060 M04/M05     Q1009 RMK 1ST015 7CU060 A2981=,- SN SH
20180203_233000.001,0,RJCC,,,,0,20180203230000,-1,-1,-1,-1,340,-1,5,-1,-1,-1,-1,,9999,0,1,3,FEW 15   SCT 60   BKN 100,-1,5,-1,6,1008,RJCC 032330Z 34005KT 9999 -SHSN FEW015 SCT060 BKN100 M05/M06     Q1008 RMK 1ST015 3CU060 5AC100 A2979=,- SN SH
20180204_000000.002,0,RJCC,,,,0,20180204000000,-1,-1,-1,-1,320,-1,8,-1,-1,-1,-1,,9999,0,0,2,FEW 20   BKN 60,-1,4,-1,5,1008,RJCC 040000Z 32008KT 9999 FEW020 BKN060 M04/M05 Q1008 RMK     1CU020 6CU060 A2979=,
20180204_003000.001,0,RJCC,,,,0,20180204000000,-1,-1,-1,-1,320,-1,5,-1,-1,-1,-1,,9999,0,0,2,FEW 20   BKN 50,-1,3,-1,5,1009,RJCC 040030Z 32005KT 9999 FEW020 BKN050 M03/M05 Q1009 RMK     1CU020 6CU050 A2979=,
20180204_010000.002,0,RJCC,,,,0,20180204010000,-1,-1,-1,-1,300,-1,6,-1,-1,-1,-1,,9999,0,0,3,FEW 20   SCT 45   BKN 60,-1,2,-1,5,1009,RJCC 040100Z 30006KT 9999 FEW020 SCT045 BKN060 M02/M05 Q1009     RMK 1CU020 4CU045 7CU060 A2980=,
20180204_013000.001,0,RJCC,,,,0,20180204010000,-1,-1,-1,-1,320,-1,6,-1,-1,270,80,,9999,0,0,2,FEW 20   BKN 45,-1,1,-1,6,1008,RJCC 040130Z 32006KT 270V080 9999 FEW020 BKN045 M01/M06 Q1008     RMK 1CU020 7CU045 A2979=,
20180204_020000.002,0,RJCC,,,,0,20180204020000,-1,-1,-1,-1,999,-1,2,-1,-1,-1,-1,,9999,0,1,2,FEW 20   BKN 40,-1,1,-1,6,1008,RJCC 040200Z VRB02KT 9999 -SHSN FEW020 BKN040 M01/M06 Q1008     RMK 1CU020 7CU040 A2979=,- SN SH
20180204_023000.001,0,RJCC,,,,0,20180204020000,-1,-1,-1,-1,160,-1,5,-1,-1,130,210,,7000,0,1,2,FEW 20   BKN 40,-1,1,-1,6,1008,RJCC 040230Z 16005KT 130V210 7000 -SHSN FEW020 BKN040 M01/M06     Q1008 RMK 1CU020 7CU040 A2978=,- SN SH
20180204_030000.002,0,RJCC,,,,0,20180204030000,-1,-1,-1,-1,180,-1,4,-1,-1,120,230,,6000,0,1,2,FEW 20   BKN 40,-1,1,-1,6,1008,RJCC 040300Z 18004KT 120V230 6000 -SHSN FEW020 BKN040 M01/M06     Q1008 RMK 1CU020 7CU040 A2977=,- SN SH
20180204_033000.001,0,RJCC,,,,0,20180204030000,-1,-1,-1,-1,170,-1,4,-1,-1,-1,-1,,2000,2,1,3,FEW 10   SCT 15   BKN 30,-1,2,-1,4,1007,RJCC 040330Z 17004KT 2000 R19R/2000N R19L/P2000N -SHSN FEW010     SCT015 BKN030 M02/M04 Q1007 RMK 1ST010 3ST015 7CU030           A2976=,- SN SH
20180204_040000.002,0,RJCC,,,,0,20180204040000,-1,-1,-1,-1,80,-1,6,-1,-1,-1,-1,,3500,0,1,3,FEW 10   SCT 20   BKN 30,-1,1,-1,4,1007,RJCC 040400Z 08006KT 3500 -SHSN FEW010 SCT020 BKN030 M01/M04     Q1007 RMK 1ST010 3CU020 7CU030 A2975=,- SN SH
20180204_043000.001,0,RJCC,,,,0,20180204040000,-1,-1,-1,-1,70,-1,6,-1,-1,-1,-1,,7000,0,1,3,FEW 10   SCT 30   BKN 45,-1,1,-1,3,1007,RJCC 040430Z 07006KT 7000 -SHSN FEW010 SCT030 BKN045 M01/M03     Q1007 RMK 1ST010 3CU030 7CU045 A2974=,- SN SH
20180204_050000.002,0,RJCC,,,,0,20180204050000,-1,-1,-1,-1,90,-1,5,-1,-1,60,120,,9999,0,1,3,FEW 15   SCT 30   BKN 45,-1,1,-1,4,1007,RJCC 040500Z 09005KT 060V120 9999 -SHSN FEW015 SCT030 BKN045     M01/M04 Q1007 RMK 1ST015 3CU030 7CU045 A2974 LGT TURB OBS           AT 0448Z 10NM S CHE BTN 10000FT AND 11000FT IN CMB A320=,- SN SH
20180204_053000.001,0,RJCC,,,,0,20180204050000,-1,-1,-1,-1,80,-1,5,-1,-1,40,150,,9999,0,0,2,FEW 15   BKN 45,-1,1,-1,4,1006,RJCC 040530Z 08005KT 040V150 9999 FEW015 BKN045 M01/M04 Q1006     RMK 1ST015 7CU045 A2973=,
20180204_060000.002,0,RJCC,,,,0,20180204060000,-1,-1,-1,-1,70,-1,3,-1,-1,50,110,,9999,0,0,3,FEW 20   BKN 40   BKN 130,-1,1,-1,5,1006,RJCC 040600Z 07003KT 050V110 9999 FEW020 BKN040 BKN130 M01/M05     Q1006 RMK 1CU020 5CU040 7AC130 A2973=,
20180204_063000.001,0,RJCC,,,,0,20180204060000,-1,-1,-1,-1,999,-1,2,-1,-1,-1,-1,,9999,0,0,3,FEW 20   SCT 40   BKN 150,-1,0,-1,4,1006,RJCC 040630Z VRB02KT 9999 FEW020 SCT040 BKN150 M00/M04 Q1006     RMK 1CU020 3CU040 7AC150 A2973=,
20180204_070000.002,0,RJCC,,,,0,20180204070000,-1,-1,-1,-1,0,-1,0,-1,-1,-1,-1,,9999,0,0,2,FEW 20   BKN 150,1,0,-1,5,1006,RJCC 040700Z 00000KT 9999 FEW020 BKN150 00/M05 Q1006 RMK     1CU020 6AC150 A2973=,
20180204_073000.001,0,RJCC,,,,0,20180204070000,-1,-1,-1,-1,999,-1,2,-1,-1,-1,-1,,9999,0,0,3,FEW 20   SCT 150   BKN -9999,-1,0,-1,5,1006,RJCC 040730Z VRB02KT 9999 FEW020 SCT150 BKN/// M00/M05 Q1006     RMK 1CU020 3AC150 A2972=,
20180204_080000.002,0,RJCC,,,,0,20180204080000,-1,-1,-1,-1,350,-1,7,-1,-1,-1,-1,,9999,0,0,2,FEW 20   BKN -9999,-1,3,-1,5,1006,RJCC 040800Z 35007KT 9999 FEW020 BKN/// M03/M05 Q1006 RMK     1CU020 A2973=,
20180204_083000.001,0,RJCC,,,,0,20180204080000,-1,-1,-1,-1,350,-1,5,-1,-1,-1,-1,,9999,0,0,2,FEW 20   SCT -9999,-1,5,-1,6,1006,RJCC 040830Z 35005KT 9999 FEW020 SCT/// M05/M06 Q1006 RMK     1CU020 A2972=,
20180204_090000.002,0,RJCC,,,,0,20180204090000,-1,-1,-1,-1,350,-1,4,-1,-1,-1,-1,,9999,0,0,2,FEW 20   SCT -9999,-1,5,-1,5,1006,RJCC 040900Z 35004KT 9999 FEW020 SCT/// M05/M05 Q1006 RMK     1CU020 A2973=,
20180204_093000.001,0,RJCC,,,,0,20180204090000,-1,-1,-1,-1,999,-1,2,-1,-1,-1,-1,,9999,0,0,2,FEW 20   BKN -9999,-1,5,-1,5,1006,RJCC 040930Z VRB02KT 9999 FEW020 BKN/// M05/M05 Q1006 RMK     1CU020 A2972=,
20180204_100000.002,0,RJCC,,,,0,20180204100000,-1,-1,-1,-1,999,-1,1,-1,-1,-1,-1,,9999,2,0,2,FEW 20   BKN -9999,-1,4,-1,4,1006,RJCC 041000Z VRB01KT 9999 R01L/P2000N R01R/P2000N FEW020     BKN/// M04/M04 Q1006 RMK 1CU020 A2972=,
20180204_103000.001,0,RJCC,,,,0,20180204100000,-1,-1,-1,-1,360,-1,3,-1,-1,-1,-1,,9999,0,1,3,FEW 20   SCT 120   BKN 160,-1,6,-1,6,1006,RJCC 041030Z 36003KT 9999 PRFG FEW020 SCT120 BKN160 M06/M06     Q1006 RMK 1CU020 4AC120 6AC160 A2972 FG SW-NW=,PR FG
20180204_110000.003,0,RJCC,,,,0,20180204110000,-1,-1,-1,-1,999,-1,2,-1,-1,-1,-1,,9999,0,0,2,FEW 20   BKN 130,-1,7,-1,7,1006,RJCC 041100Z VRB02KT 9999 FEW020 BKN130 M07/M07 Q1006 RMK     1CU020 7AC130 A2972=,
20180204_113000.001,0,RJCC,,,,0,20180204110000,-1,-1,-1,-1,330,-1,3,-1,-1,270,40,,9999,0,0,2,FEW 20   BKN 120,-1,5,-1,5,1006,RJCC 041130Z 33003KT 270V040 9999 FEW020 BKN120 M05/M05 Q1006     RMK 1CU020 7AC120 A2972=,
20180204_120000.002,0,RJCC,,,,0,20180204120000,-1,-1,-1,-1,20,-1,2,-1,-1,-1,-1,,9999,0,0,3,FEW 20   SCT 70   BKN 100,-1,5,-1,5,1006,RJCC 041200Z 02002KT 9999 FEW020 SCT070 BKN100 M05/M05 Q1006     RMK 1CU020 3AC070 6AC100 A2971=,
20180204_123000.001,0,RJCC,,,,0,20180204120000,-1,-1,-1,-1,10,-1,3,-1,-1,-1,-1,,9999,2,1,3,FEW 10   SCT 120   BKN 160,-1,8,-1,8,1006,RJCC 041230Z 01003KT 9999 R01L/P2000N R01R/P2000N PRFG FEW010     SCT120 BKN160 M08/M08 Q1006 RMK 1ST010 3AC120 5AC160           A2971 FG NE=,PR FG
20180204_130000.002,0,RJCC,,,,0,20180204130000,-1,-1,-1,-1,30,-1,4,-1,-1,-1,-1,,4000,0,2,2,FEW 10   BKN 130,-1,8,-1,8,1005,RJCC 041300Z 03004KT 4000 BCFG BR FEW010 BKN130 M08/M08 Q1005     RMK 1ST010 6AC130 A2970=,BC FG; BR
20180204_133000.001,0,RJCC,,,,0,20180204130000,-1,-1,-1,-1,320,-1,2,-1,-1,-1,-1,,600,2,1,2,FEW 1   SCT 40,-1,8,-1,8,1005,RJCC 041330Z 32002KT 0600 R01L/P2000N R01R/P2000N FZFG FEW001     SCT040 M08/M08 Q1005 RMK 1ST001 3CU040 A2969 0200W=,FZ FG
20180204_140000.002,0,RJCC,,,,0,20180204140000,-1,-1,-1,-1,300,-1,3,-1,-1,230,320,,1200,2,2,2,FEW 1   BKN 40,-1,9,-1,9,1005,RJCC 041400Z 30003KT 230V320 1200 R01L/P2000N R01R/0650V1000U     BCFG BR FEW001 BKN040 M09/M09 Q1005 RMK 1ST001 5CU040           A2969=,BC FG; BR
20180204_143000.001,0,RJCC,,,,0,20180204140000,-1,-1,-1,-1,999,-1,6,-1,-1,-1,-1,,9999,0,1,2,FEW 10   BKN 40,-1,6,-1,6,1005,RJCC 041430Z VRB06KT 9999 -SHSN FEW010 BKN040 M06/M06 Q1005     RMK 1ST010 6CU040 A2970=,- SN SH
20180204_150000.002,0,RJCC,,,,0,20180204150000,-1,-1,-1,-1,130,-1,7,-1,-1,-1,-1,,1400,2,1,2,FEW 6   BKN 20,-1,3,-1,3,1005,RJCC 041500Z 13007KT 1400 R01L/P2000N R01R/P2000N -SHSN FEW006     BKN020 M03/M03 Q1005 RMK 1ST006 7CU020 A2969=,- SN SH
20180204_153000.001,0,RJCC,,,,0,20180204150000,-1,-1,-1,-1,100,-1,8,-1,-1,-1,-1,,8000,0,1,3,FEW 2   BKN 20   BKN 50,-1,3,-1,3,1005,RJCC 041530Z 10008KT 8000 -SHSN FEW002 BKN020 BKN050 M03/M03     Q1005 RMK 1ST002 5CU020 6CU050 A2968=,- SN SH
20180204_160000.002,0,RJCC,,,,0,20180204160000,-1,-1,-1,-1,170,-1,8,-1,-1,-1,-1,,1000,2,1,3,FEW 5   BKN 7   BKN 25,-1,2,-1,2,1005,RJCC 041600Z 17008KT 1000 R19R/1600VP2000D R01R/P2000N -SHSN     FEW005 BKN007 BKN025 M02/M02 Q1005 RMK 1ST005 5ST007           7CU025 A2968=,- SN SH
20180204_163000.001,0,RJCC,,,,0,20180204160000,-1,-1,-1,-1,130,-1,8,-1,-1,-1,-1,,700,2,1,1,VV 5,-1,2,-1,2,1005,RJCC 041630Z 13008KT 0700 R19R/2000N R19L/P2000N SHSN VV005     M02/M02 Q1005 RMK A2969=,SN SH
20180204_170000.002,0,RJCC,,,,0,20180204170000,-1,-1,-1,-1,110,-1,8,-1,-1,-1,-1,,800,2,1,1,VV 4,-1,2,-1,2,1005,RJCC 041700Z 11008KT 0800 R01L/P2000N R01R/P2000N SHSN VV004     M02/M02 Q1005 RMK A2969=,SN SH
20180204_173000.001,0,RJCC,,,,0,20180204170000,-1,-1,-1,-1,100,-1,8,-1,-1,-1,-1,,9999,0,1,3,FEW 3   SCT 5   BKN 50,-1,2,-1,2,1005,RJCC 041730Z 10008KT 9999 -SHSN FEW003 SCT005 BKN050 M02/M02     Q1005 RMK 1ST003 3ST005 6CU050 A2968=,- SN SH
20180204_180000.003,0,RJCC,,,,0,20180204180000,-1,-1,-1,-1,100,-1,7,-1,-1,-1,-1,,9999,0,1,3,FEW 3   SCT 35   BKN 100,-1,2,-1,3,1004,RJCC 041800Z 10007KT 9999 -SHSN FEW003 SCT035 BKN100 M02/M03     Q1004 RMK 1ST003 4CU035 7AC100 A2967=,- SN SH
20180204_183000.001,0,RJCC,,,,0,20180204180000,-1,-1,-1,-1,110,-1,7,-1,-1,-1,-1,,9999,0,1,3,FEW 5   SCT 40   BKN 100,-1,3,-1,3,1004,RJCC 041830Z 11007KT 9999 -SHSN FEW005 SCT040 BKN100 M03/M03     Q1004 RMK 1ST005 3CU040 6AC100 A2967=,- SN SH
20180204_190000.002,0,RJCC,,,,0,20180204190000,-1,-1,-1,-1,120,-1,9,-1,-1,-1,-1,,9999,0,1,2,FEW 5   SCT 40,-1,4,-1,4,1004,RJCC 041900Z 12009KT 9999 -SHSN FEW005 SCT040 M04/M04 Q1004     RMK 1ST005 3CU040 A2967=,- SN SH
20180204_193000.001,0,RJCC,,,,0,20180204190000,-1,-1,-1,-1,120,-1,9,-1,-1,-1,-1,,8000,0,1,3,FEW 5   SCT 15   BKN 25,-1,2,-1,3,1004,RJCC 041930Z 12009KT 8000 -SHSN FEW005 SCT015 BKN025 M02/M03     Q1004 RMK 1ST005 3ST015 7CU025 A2967=,- SN SH
20180204_200000.002,0,RJCC,,,,0,20180204200000,-1,-1,-1,-1,110,-1,9,-1,-1,-1,-1,,4000,2,1,3,FEW 4   SCT 7   BKN 12,-1,2,-1,2,1004,RJCC 042000Z 11009KT 4000 R19R/1100VP2000U R01R/P2000N -SHSN     FEW004 SCT007 BKN012 M02/M02 Q1004 RMK 1ST004 3ST007           7ST012 A2967=,- SN SH
20180204_203000.001,0,RJCC,,,,0,20180204200000,-1,-1,-1,-1,110,-1,7,-1,-1,-1,-1,,1700,0,1,3,FEW 3   BKN 5   BKN 8,-1,2,-1,2,1004,RJCC 042030Z 11007KT 1700 -SHSN FEW003 BKN005 BKN008 M02/M02     Q1004 RMK 1ST003 5ST005 7ST008 A2967=,- SN SH
20180204_210000.002,0,RJCC,,,,0,20180204210000,-1,-1,-1,-1,110,-1,9,-1,-1,-1,-1,,800,2,1,1,VV 4,-1,2,-1,2,1004,RJCC 042100Z 11009KT 0800 R19R/1900U R01R/2000N SHSN VV004     M02/M02 Q1004 RMK A2967=,SN SH
20180204_213000.001,0,RJCC,,,,0,20180204210000,-1,-1,-1,-1,110,-1,8,-1,-1,-1,-1,,1800,0,1,3,FEW 3   SCT 4   BKN 6,-1,2,-1,2,1005,RJCC 042130Z 11008KT 1800 -SHSN FEW003 SCT004 BKN006 M02/M02     Q1005 RMK 1ST003 4ST004 5ST006 A2968=,- SN SH
20180204_220000.002,0,RJCC,,,,0,20180204220000,-1,-1,-1,-1,100,-1,7,-1,-1,-1,-1,,5000,0,1,3,FEW 3   SCT 10   BKN 20,-1,3,-1,3,1005,RJCC 042200Z 10007KT 5000 -SHSN FEW003 SCT010 BKN020 M03/M03     Q1005 RMK 1ST003 4ST010 6CU020 A2968=,- SN SH
20180204_223000.002,0,RJCC,,,,0,20180204220000,-1,-1,-1,-1,90,-1,7,-1,-1,-1,-1,,5000,0,1,3,FEW 5   BKN 15   BKN 35,-1,2,-1,3,1005,RJCC 042230Z 09007KT 5000 -SHSN FEW005 BKN015 BKN035 M02/M03     Q1005 RMK 1ST005 5ST015 7CU035 A2968=,- SN SH
20180204_230000.002,0,RJCC,,,,0,20180204230000,-1,-1,-1,-1,110,-1,8,-1,-1,-1,-1,,1400,2,1,3,FEW 3   BKN 5   BKN 10,-1,2,-1,2,1005,RJCC 042300Z 11008KT 1400 R19R/1600VP2000D R19L/2000N -SHSN     FEW003 BKN005 BKN010 M02/M02 Q1005 RMK 1ST003 5ST005           7ST010 A2969=,- SN SH
20180204_233000.001,0,RJCC,,,,0,20180204230000,-1,-1,-1,-1,90,-1,7,-1,-1,-1,-1,,900,2,1,1,VV 4,-1,2,-1,2,1005,RJCC 042330Z 09007KT 0900 R19R/1700D R19L/2000N SHSN VV004     M02/M02 Q1005 RMK A2969=,SN SH
20180205_000000.003,0,RJCC,,,,0,20180205000000,-1,-1,-1,-1,90,-1,8,-1,-1,-1,-1,,2400,0,1,3,FEW 4   BKN 6   BKN 15,-1,2,-1,2,1005,RJCC 050000Z 09008KT 2400 -SHSN FEW004 BKN006 BKN015 M02/M02     Q1005 RMK 1ST004 5ST006 6ST015 A2969=,- SN SH
20180205_003000.001,0,RJCC,,,,0,20180205000000,-1,-1,-1,-1,100,-1,9,-1,-1,-1,-1,,5000,0,1,3,FEW 5   SCT 8   BKN 30,-1,1,-1,2,1005,RJCC 050030Z 10009KT 5000 -SHSN FEW005 SCT008 BKN030 M01/M02     Q1005 RMK 1ST005 3ST008 7CU030 A2969=,- SN SH
20180205_010000.002,0,RJCC,,,,0,20180205010000,-1,-1,-1,-1,100,-1,7,-1,-1,-1,-1,,9999,0,1,3,FEW 5   SCT 8   BKN 30,-1,1,-1,2,1005,RJCC 050100Z 10007KT 9999 -SHSN FEW005 SCT008 BKN030 M01/M02     Q1005 RMK 1ST005 4ST008 7CU030 A2970 3000W-NW=,- SN SH
20180205_013000.001,0,RJCC,,,,0,20180205010000,-1,-1,-1,-1,80,-1,8,-1,-1,-1,-1,,9999,0,1,3,FEW 5   SCT 15   BKN 30,-1,0,-1,3,1005,RJCC 050130Z 08008KT 9999 -SHSN FEW005 SCT015 BKN030 M00/M03     Q1005 RMK 1ST005 3ST015 7CU030 A2970=,- SN SH
20180205_020000.002,0,RJCC,,,,0,20180205020000,-1,-1,-1,-1,100,-1,8,-1,-1,50,140,,9999,0,0,3,FEW 8   SCT 15   BKN 25,1,0,-1,2,1005,RJCC 050200Z 10008KT 050V140 9999 FEW008 SCT015 BKN025 00/M02     Q1005 RMK 1ST008 3ST015 7CU025 A2970=,
20180205_023000.001,0,RJCC,,,,0,20180205020000,-1,-1,-1,-1,110,-1,9,-1,-1,-1,-1,,9999,0,1,3,FEW 8   SCT 15   BKN 25,1,0,-1,3,1005,RJCC 050230Z 11009KT 9999 -SHSN FEW008 SCT015 BKN025 00/M03     Q1005 RMK 1ST008 3ST015 7CU025 A2969=,- SN SH
