20180101_000000.003,0,RJCJ,,,,0,20180101000000,-1,-1,-1,-1,999,-1,1,-1,-1,-1,-1,,5000,0,2,3,FEW 5   BKN 10   BKN 50,-1,1,-1,2,1010,RJCJ 010000Z VRB01KT 5000 -SHSN BR FEW005 BKN010 BKN050     M01/M02 Q1010 RMK 1ST005 5ST010 7CU050 A2985 VIS E 10KM=,- SN SH; BR
20180101_010000.003,0,RJCJ,,,,0,20180101010000,-1,-1,-1,-1,310,-1,3,-1,-1,-1,-1,,9999,0,0,3,FEW 5   BKN 15   BKN 200,-1,0,-1,2,1010,RJCJ 010100Z 31003KT 9999 FEW005 BKN015 BKN200 M00/M02 Q1010     RMK 1ST005 5ST015 A2983=,
20180101_020000.003,0,RJCJ,,,,0,20180101020000,-1,-1,-1,-1,320,-1,3,-1,-1,-1,-1,,9999,0,0,3,FEW 10   BKN 60   BKN 130,1,1,-1,1,1009,RJCJ 010200Z 32003KT 9999 FEW010 BKN060 BKN130 01/M01 Q1009     RMK 1ST010 5CU060 5AC130 A2980=,
20180101_030000.003,0,RJCJ,,,,0,20180101030000,-1,-1,-1,-1,350,-1,3,-1,-1,320,30,,9999,0,0,3,FEW 10   BKN 50   BKN 120,1,0,-1,2,1007,RJCJ 010300Z 35003KT 320V030 9999 FEW010 BKN050 BKN120 00/M02     Q1007 RMK 1ST010 5CU050 5AC120 A2976=,
20180101_040000.003,0,RJCJ,,,,0,20180101040000,-1,-1,-1,-1,360,-1,3,-1,-1,-1,-1,,9999,0,1,3,FEW 10   BKN 30   BKN 45,1,1,-1,1,1007,RJCJ 010400Z 36003KT 9999 -SHSNRA FEW010 BKN030 BKN045 01/M01     Q1007 RMK 1ST010 6CU030 7CU045 A2975=,- SN RA SH
20180101_050000.003,0,RJCJ,,,,0,20180101050000,-1,-1,-1,-1,120,-1,6,-1,-1,-1,-1,,9999,0,1,3,FEW 10   SCT 30   BKN 45,1,3,-1,0,1006,RJCJ 010500Z 12006KT 9999 VCSH FEW010 SCT030 BKN045 03/M00     Q1006 RMK 1ST010 3CU030 7CU045 A2973 VCSH W-NW=,VC SH
20180101_060000.003,0,RJCJ,,,,0,20180101060000,-1,-1,-1,-1,140,-1,8,-1,-1,-1,-1,,9999,0,0,3,FEW 10   BKN 30   BKN 45,1,3,-1,0,1007,RJCJ 010600Z 14008KT 9999 FEW010 BKN030 BKN045 03/M00 Q1007     RMK 1ST010 5CU030 5CU045 A2974=,
20180101_070000.003,0,RJCJ,,,,0,20180101070000,-1,-1,-1,-1,130,-1,6,-1,-1,-1,-1,,9999,0,0,3,FEW 10   BKN 30   BKN 45,1,3,-1,0,1006,RJCJ 010700Z 13006KT 9999 FEW010 BKN030 BKN045 03/M00 Q1006     RMK 1ST010 6CU030 7CU045 A2973=,
20180101_080000.003,0,RJCJ,,,,0,20180101080000,-1,-1,-1,-1,120,-1,7,-1,-1,-1,-1,,9999,0,0,3,FEW 10   BKN 35   BKN 50,1,3,-1,0,1006,RJCJ 010800Z 12007KT 9999 FEW010 BKN035 BKN050 03/M00 Q1006     RMK 1ST010 5CU035 6CU050 A2972=,
20180101_090000.003,0,RJCJ,,,,0,20180101090000,-1,-1,-1,-1,120,-1,8,-1,-1,-1,-1,,9999,0,0,3,FEW 10   BKN 35   BKN 50,1,3,-1,1,1006,RJCJ 010900Z 12008KT 9999 FEW010 BKN035 BKN050 03/M01 Q1006     RMK 1ST010 6CU035 7CU050 A2972=,
20180101_100000.003,0,RJCJ,,,,0,20180101100000,-1,-1,-1,-1,110,-1,9,-1,-1,-1,-1,,9999,0,1,3,FEW 10   SCT 35   BKN 50,1,3,-1,1,1006,RJCJ 011000Z 11009KT 9999 -SHSNRA FEW010 SCT035 BKN050 03/M01     Q1006 RMK 1ST010 3CU035 5CU050 A2972=,- SN RA SH
20180101_110000.003,0,RJCJ,,,,0,20180101110000,-1,-1,-1,-1,140,-1,10,-1,-1,110,170,,9999,0,1,3,FEW 10   BKN 25   BKN 40,1,2,-1,0,1006,RJCJ 011100Z 14010KT 110V170 9999 -SHSNRA FEW010 BKN025 BKN040     02/M00 Q1006 RMK 1ST010 5CU025 7CU040 A2973=,- SN RA SH
20180101_120000.003,0,RJCJ,,,,0,20180101120000,-1,-1,-1,-1,130,-1,9,-1,-1,-1,-1,,9999,0,1,3,FEW 10   SCT 15   BKN 25,1,2,1,0,1006,RJCJ 011200Z 13009KT 9999 -SHSNRA FEW010 SCT015 BKN025 02/00     Q1006 RMK 2ST010 3ST015 6CU025 A2973=,- SN RA SH
20180101_130000.003,0,RJCJ,,,,0,20180101130000,-1,-1,-1,-1,150,-1,7,-1,-1,-1,-1,,9000,0,1,3,FEW 8   BKN 10   BKN 25,1,1,1,1,1006,RJCJ 011300Z 15007KT 9000 -SHSNRA FEW008 BKN010 BKN025 01/01     Q1006 RMK 1ST008 5ST010 7CU025 A2973=,- SN RA SH
20180101_140000.003,0,RJCJ,,,,0,20180101140000,-1,-1,-1,-1,130,-1,7,-1,-1,100,160,,9999,0,1,3,FEW 10   SCT 15   BKN 60,1,1,1,0,1006,RJCJ 011400Z 13007KT 100V160 9999 -SHRASN FEW010 SCT015 BKN060     01/00 Q1006 RMK 1ST010 4ST015 6SC060 A2972=,- RA SN SH
20180101_150000.003,0,RJCJ,,,,0,20180101150000,-1,-1,-1,-1,130,-1,8,-1,-1,-1,-1,,9999,0,0,2,FEW 15   BKN 40,1,1,1,0,1006,RJCJ 011500Z 13008KT 9999 FEW015 BKN040 01/00 Q1006 RMK 1ST015     6SC040 A2972=,
20180101_160000.003,0,RJCJ,,,,0,20180101160000,-1,-1,-1,-1,110,-1,5,-1,-1,-1,-1,,9999,0,0,2,FEW 20   BKN 50,1,1,-1,1,1006,RJCJ 011600Z 11005KT 9999 FEW020 BKN050 01/M01 Q1006 RMK     1CU020 6SC050 A2972=,
20180101_170000.003,0,RJCJ,,,,0,20180101170000,-1,-1,-1,-1,999,-1,2,-1,-1,-1,-1,,9999,0,0,3,FEW 20   SCT 35   BKN 50,1,1,-1,2,1006,RJCJ 011700Z VRB02KT 9999 FEW020 SCT035 BKN050 01/M02 Q1006     RMK 1CU020 3CU035 5SC050 A2972=,
20180101_180000.004,0,RJCJ,,,,0,20180101180000,-1,-1,-1,-1,310,-1,2,-1,-1,-1,-1,,9999,0,0,3,FEW 25   BKN 45   BKN 170,1,1,-1,1,1006,RJCJ 011800Z 31002KT 9999 FEW025 BKN045 BKN170 01/M01 Q1006     RMK 1CU025 6SC045 5AC170 A2971=,
20180101_190000.004,0,RJCJ,,,,0,20180101190000,-1,-1,-1,-1,260,-1,5,-1,-1,220,280,,9999,0,0,3,FEW 20   BKN 40   BKN 60,1,1,-1,1,1006,RJCJ 011900Z 26005KT 220V280 9999 FEW020 BKN040 BKN060 01/M01     Q1006 RMK 2CU020 6SC040 7SC060 A2972=,
20180101_200000.004,0,RJCJ,,,,0,20180101200000,-1,-1,-1,-1,40,-1,3,-1,-1,360,70,,9999,0,1,3,FEW 20   BKN 35   BKN 60,1,1,-1,1,1006,RJCJ 012000Z 04003KT 360V070 9999 -SHSN FEW020 BKN035 BKN060     01/M01 Q1006 RMK 2CU020 6SC035 7SC060 A2972=,- SN SH
20180101_210000.003,0,RJCJ,,,,0,20180101210000,-1,-1,-1,-1,340,-1,3,-1,-1,-1,-1,,9999,0,1,2,FEW 20   OVC 35,1,1,-1,1,1006,RJCJ 012100Z 34003KT 9999 -SHSN FEW020 OVC035 01/M01 Q1006 RMK     2CU020 8SC035 A2972 03/00 R009 S005 SD007=,- SN SH
20180101_220000.003,0,RJCJ,,,,0,20180101220000,-1,-1,-1,-1,999,-1,2,-1,-1,-1,-1,,8000,0,1,3,FEW 15   BKN 25   OVC 35,1,1,-1,1,1006,RJCJ 012200Z VRB02KT 8000 -SHSN FEW015 BKN025 OVC035 01/M01     Q1006 RMK 1ST015 5CU025 8CU035 A2973 VIS SE-S 4500M=,- SN SH
20180101_230000.003,0,RJCJ,,,,0,20180101230000,-1,-1,-1,-1,40,-1,4,-1,-1,-1,-1,,1000,1,1,3,FEW 6   BKN 10   OVC 15,1,0,-1,1,1006,RJCJ 012300Z 04004KT 1000 R18/1800D -SHSN FEW006 BKN010 OVC015     00/M01 Q1006 RMK 1CU006 5CU010 8CU015 A2973 VIS SE-SW           800M=,- SN SH
20180102_000000.004,0,RJCJ,,,,0,20180102000000,-1,-1,-1,-1,340,-1,4,-1,-1,-1,-1,,600,1,1,1,VV 4,1,0,-1,0,1006,RJCJ 020000Z 34004KT 0600 R18/1000V1600D SHSN VV004 00/M00     Q1006 RMK A2973 R1200 VIS N-NE 1000M=,SN SH
20180102_010000.004,0,RJCJ,,,,0,20180102010000,-1,-1,-1,-1,350,-1,5,-1,-1,-1,-1,,3000,0,1,3,SCT 4   BKN 6   OVC 10,1,1,-1,0,1006,RJCJ 020100Z 35005KT 3000 -SHSN SCT004 BKN006 OVC010 01/M00     Q1006 RMK 3ST004 6ST006 8CU010 A2973 VIS W-N 5KM=,- SN SH
20180102_020000.003,0,RJCJ,,,,0,20180102020000,-1,-1,-1,-1,290,-1,3,-1,-1,-1,-1,,8000,0,1,3,FEW 3   BKN 4   OVC 6,1,1,-1,0,1006,RJCJ 020200Z 29003KT 8000 -SHSN FEW003 BKN004 OVC006 01/M00     Q1006 RMK 1ST003 5ST004 8ST006 A2971=,- SN SH
20180102_030000.003,0,RJCJ,,,,0,20180102030000,-1,-1,-1,-1,170,-1,1,-1,-1,-1,-1,,9000,0,0,3,FEW 3   BKN 4   BKN 6,1,1,-1,0,1005,RJCJ 020300Z 17001KT 9000 FEW003 BKN004 BKN006 01/M00 Q1005     RMK 2ST003 7ST004 7ST006 A2970=,
20180102_040000.003,0,RJCJ,,,,0,20180102040000,-1,-1,-1,-1,110,-1,4,-1,-1,-1,-1,,9999,0,0,2,FEW 6   BKN 100,1,2,1,1,1005,RJCJ 020400Z 11004KT 9999 FEW006 BKN100 02/01 Q1005 RMK 1ST006     7AC100 A2968=,
20180102_050000.003,0,RJCJ,,,,0,20180102050000,-1,-1,-1,-1,240,-1,11,-1,-1,-1,-1,,9999,0,0,3,FEW 10   SCT 45   BKN 100,1,5,-1,2,1005,RJCJ 020500Z 24011KT 9999 FEW010 SCT045 BKN100 05/M02 Q1005     RMK 1ST010 3CU045 5AC100 A2968=,
20180102_060000.003,0,RJCJ,,,,0,20180102060000,-1,-1,-1,-1,230,-1,10,-1,-1,-1,-1,,9999,0,0,1,FEW 10,1,4,-1,2,1006,RJCJ 020600Z 23010KT 9999 FEW010 04/M02 Q1006 RMK 1ST010     A2971=,
20180102_070000.003,0,RJCJ,,,,0,20180102070000,-1,-1,-1,-1,220,-1,10,-1,-1,190,250,,9999,0,0,2,FEW 15   SCT 50,1,2,-1,4,1006,RJCJ 020700Z 22010KT 190V250 9999 FEW015 SCT050 02/M04 Q1006     RMK 1ST015 3CU050 A2971=,
20180102_080000.003,0,RJCJ,,,,0,20180102080000,-1,-1,-1,-1,220,-1,10,-1,-1,-1,-1,,9999,0,0,2,FEW 15   BKN 50,1,1,-1,4,1006,RJCJ 020800Z 22010KT 9999 FEW015 BKN050 01/M04 Q1006 RMK     1ST015 5CU050 A2971=,
20180102_090000.003,0,RJCJ,,,,0,20180102090000,-1,-1,-1,-1,230,-1,10,-1,-1,-1,-1,,9999,0,0,3,FEW 20   SCT 50   BKN 80,1,1,-1,5,1006,RJCJ 020900Z 23010KT 9999 FEW020 SCT050 BKN080 01/M05 Q1006     RMK 1CU020 4CU050 5AC080 A2971=,
20180102_100000.003,0,RJCJ,,,,0,20180102100000,-1,-1,-1,-1,210,-1,8,-1,-1,190,250,,9999,0,0,2,FEW 20   BKN 45,1,0,-1,5,1006,RJCJ 021000Z 21008KT 190V250 9999 FEW020 BKN045 00/M05 Q1006     RMK 1CU020 5CU045 A2971=,
20180102_110000.003,0,RJCJ,,,,0,20180102110000,-1,-1,-1,-1,210,-1,6,-1,-1,-1,-1,,9999,0,0,2,FEW 20   BKN 50,-1,1,-1,6,1005,RJCJ 021100Z 21006KT 9999 FEW020 BKN050 M01/M06 Q1005 RMK     1CU020 7CU050 A2970=,
20180102_120000.003,0,RJCJ,,,,0,20180102120000,-1,-1,-1,-1,210,-1,6,-1,-1,-1,-1,,9999,0,0,2,FEW 20   BKN 60,-1,1,-1,6,1005,RJCJ 021200Z 21006KT 9999 FEW020 BKN060 M01/M06 Q1005 RMK     1CU020 7SC060 A2970=,
20180102_130000.004,0,RJCJ,,,,0,20180102130000,-1,-1,-1,-1,210,-1,7,-1,-1,-1,-1,,9999,0,0,2,FEW 20   BKN 60,-1,2,-1,8,1005,RJCJ 021300Z 21007KT 9999 FEW020 BKN060 M02/M08 Q1005 RMK     1CU020 7SC060 A2969=,
20180102_140000.004,0,RJCJ,,,,0,20180102140000,-1,-1,-1,-1,200,-1,7,-1,-1,-1,-1,,9999,0,0,3,FEW 20   SCT 60   BKN 150,-1,2,-1,8,1005,RJCJ 021400Z 20007KT 9999 FEW020 SCT060 BKN150 M02/M08 Q1005     RMK 1CU020 3SC060 6AC150 A2969=,
20180102_150000.003,0,RJCJ,,,,0,20180102150000,-1,-1,-1,-1,999,-1,1,-1,-1,-1,-1,,9999,0,0,3,FEW 25   SCT 120   BKN 150,-1,3,-1,8,1005,RJCJ 021500Z VRB01KT 9999 FEW025 SCT120 BKN150 M03/M08 Q1005     RMK 2CU025 3AC120 7AC150 A2968=,
20180102_160000.003,0,RJCJ,,,,0,20180102160000,-1,-1,-1,-1,220,-1,3,-1,-1,-1,-1,,9999,0,0,3,SCT 25   BKN 120   BKN 150,-1,3,-1,8,1004,RJCJ 021600Z 22003KT 9999 SCT025 BKN120 BKN150 M03/M08 Q1004     RMK 3CU025 6AC120 7AC150 A2967=,
20180102_170000.003,0,RJCJ,,,,0,20180102170000,-1,-1,-1,-1,340,-1,3,-1,-1,-1,-1,,9999,0,0,2,FEW 25   BKN 150,-1,4,-1,7,1005,RJCJ 021700Z 34003KT 9999 FEW025 BKN150 M04/M07 Q1005 RMK     1CU025 7AC150 A2969=,
20180102_180000.004,0,RJCJ,,,,0,20180102180000,-1,-1,-1,-1,330,-1,4,-1,-1,-1,-1,,9999,0,0,3,FEW 25   BKN 90   BKN 150,-1,4,-1,7,1005,RJCJ 021800Z 33004KT 9999 FEW025 BKN090 BKN150 M04/M07 Q1005     RMK 1CU025 5AC090 7AC150 A2969=,
20180102_190000.003,0,RJCJ,,,,0,20180102190000,-1,-1,-1,-1,350,-1,4,-1,-1,-1,-1,,9999,0,0,3,FEW 25   BKN 45   BKN 90,-1,3,-1,7,1005,RJCJ 021900Z 35004KT 9999 FEW025 BKN045 BKN090 M03/M07 Q1005     RMK 1CU025 5CU045 7AC090 A2970=,
20180102_200000.004,0,RJCJ,,,,0,20180102200000,-1,-1,-1,-1,320,-1,7,-1,-1,-1,-1,,9999,0,0,3,FEW 25   BKN 50   BKN 80,-1,3,-1,6,1005,RJCJ 022000Z 32007KT 9999 FEW025 BKN050 BKN080 M03/M06 Q1005     RMK 1CU025 6CU050 7AC080 A2970=,
20180102_210000.003,0,RJCJ,,,,0,20180102210000,-1,-1,-1,-1,330,-1,8,-1,-1,-1,-1,,5000,0,1,3,FEW 25   BKN 45   BKN 80,-1,3,-1,6,1006,RJCJ 022100Z 33008KT 5000 -SHSN FEW025 BKN045 BKN080 M03/M06     Q1006 RMK 1CU025 7CU045 7AC080 A2972 05/M05 R006 S010           SD010=,- SN SH
20180102_220000.003,0,RJCJ,,,,0,20180102220000,-1,-1,-1,-1,340,-1,6,-1,-1,-1,-1,,4000,0,1,3,FEW 20   BKN 40   BKN 70,-1,3,-1,4,1006,RJCJ 022200Z 34006KT 4000 -SHSN FEW020 BKN040 BKN070 M03/M04     Q1006 RMK 1CU020 7CU040 7AC070 A2973=,- SN SH
20180102_230000.003,0,RJCJ,,,,0,20180102230000,-1,-1,-1,-1,340,-1,8,-1,-1,-1,-1,,6000,0,1,3,FEW 15   SCT 25   BKN 35,-1,3,-1,4,1007,RJCJ 022300Z 34008KT 6000 -SHSN FEW015 SCT025 BKN035 M03/M04     Q1007 RMK 1CU015 4CU025 7CU035 A2974=,- SN SH
20180103_000000.003,0,RJCJ,,,,0,20180103000000,-1,-1,-1,-1,350,-1,8,-1,-1,-1,-1,,5000,0,1,3,FEW 10   SCT 15   BKN 25,-1,3,-1,4,1007,RJCJ 030000Z 35008KT 5000 -SHSN FEW010 SCT015 BKN025 M03/M04     Q1007 RMK 1ST010 3CU015 7CU025 A2974 VIS SE-S 3500M=,- SN SH
20180103_010000.003,0,RJCJ,,,,0,20180103010000,-1,-1,-1,-1,340,-1,10,-1,-1,-1,-1,,5000,0,1,3,FEW 4   SCT 5   BKN 25,-1,2,-1,3,1007,RJCJ 030100Z 34010KT 5000 -SHSN FEW004 SCT005 BKN025 M02/M03     Q1007 RMK 1ST004 4ST005 7CU025 A2975=,- SN SH
20180103_020000.003,0,RJCJ,,,,0,20180103020000,-1,-1,-1,-1,340,-1,10,-1,-1,-1,-1,,9000,0,0,2,FEW 4   BKN 70,-1,1,-1,3,1007,RJCJ 030200Z 34010KT 9000 FEW004 BKN070 M01/M03 Q1007 RMK     1ST004 5AC070 A2975=,
20180103_030000.004,0,RJCJ,,,,0,20180103030000,-1,-1,-1,-1,350,-1,15,-1,-1,-1,-1,,9999,0,0,3,FEW 8   SCT 70   BKN 230,1,0,-1,3,1007,RJCJ 030300Z 35015KT 9999 FEW008 SCT070 BKN230 00/M03 Q1007     RMK 1ST008 4AC070 A2976=,
20180103_040000.003,0,RJCJ,,,,0,20180103040000,-1,-1,-1,-1,340,-1,14,-1,-1,-1,-1,,9999,0,0,2,FEW 10   BKN 230,1,1,-1,3,1008,RJCJ 030400Z 34014KT 9999 FEW010 BKN230 01/M03 Q1008 RMK     1ST010 A2977=,
20180103_050000.003,0,RJCJ,,,,0,20180103050000,-1,-1,-1,-1,350,-1,15,-1,-1,-1,-1,,9999,0,0,2,FEW 15   BKN 230,1,0,-1,4,1008,RJCJ 030500Z 35015KT 9999 FEW015 BKN230 00/M04 Q1008 RMK     1CU015 A2978=,
20180103_060000.003,0,RJCJ,,,,0,20180103060000,-1,-1,-1,-1,350,-1,16,-1,-1,-1,-1,,9999,0,0,2,FEW 15   BKN 230,-1,0,-1,5,1009,RJCJ 030600Z 35016KT 9999 FEW015 BKN230 M00/M05 Q1009 RMK     1CU015 A2981=,
20180103_070000.003,0,RJCJ,,,,0,20180103070000,-1,-1,-1,-1,350,-1,14,-1,-1,-1,-1,,9999,0,0,3,FEW 10   SCT 160   BKN 230,-1,1,-1,6,1010,RJCJ 030700Z 35014KT 9999 FEW010 SCT160 BKN230 M01/M06 Q1010     RMK 1ST010 3AC160 A2983=,
20180103_080000.003,0,RJCJ,,,,0,20180103080000,-1,-1,-1,-1,340,-1,11,-1,-1,-1,-1,,9999,0,0,3,FEW 15   BKN 35   BKN 160,-1,1,-1,6,1010,RJCJ 030800Z 34011KT 9999 FEW015 BKN035 BKN160 M01/M06 Q1010     RMK 1CU015 6CU035 7AC160 A2985=,
20180103_090000.003,0,RJCJ,,,,0,20180103090000,-1,-1,-1,-1,330,-1,10,-1,-1,-1,-1,,9999,0,0,3,FEW 15   SCT 160   BKN -9999,-1,2,-1,6,1011,RJCJ 030900Z 33010KT 9999 FEW015 SCT160 BKN/// M02/M06 Q1011     RMK 1CU015 3AC160 A2987=,
20180103_100000.003,0,RJCJ,,,,0,20180103100000,-1,-1,-1,-1,360,-1,10,-1,-1,-1,-1,,9999,0,0,2,FEW 20   BKN -9999,-1,3,-1,7,1011,RJCJ 031000Z 36010KT 9999 FEW020 BKN/// M03/M07 Q1011 RMK     1CU020 A2988=,
20180103_110000.003,0,RJCJ,,,,0,20180103110000,-1,-1,-1,-1,350,-1,11,-1,-1,-1,-1,,9999,0,0,2,FEW 20   BKN -9999,-1,3,-1,8,1012,RJCJ 031100Z 35011KT 9999 FEW020 BKN/// M03/M08 Q1012 RMK     1CU020 A2990=,
20180103_120000.003,0,RJCJ,,,,0,20180103120000,-1,-1,-1,-1,340,-1,8,-1,-1,-1,-1,,9999,0,0,2,FEW 20   BKN -9999,-1,4,-1,8,1012,RJCJ 031200Z 34008KT 9999 FEW020 BKN/// M04/M08 Q1012 RMK     1CU020 A2991=,
20180103_130000.004,0,RJCJ,,,,0,20180103130000,-1,-1,-1,-1,310,-1,9,-1,-1,-1,-1,,9999,0,0,3,FEW 20   BKN 35   BKN -9999,-1,4,-1,8,1013,RJCJ 031300Z 31009KT 9999 FEW020 BKN035 BKN/// M04/M08 Q1013     RMK 1CU020 7CU035 A2991=,
20180103_140000.003,0,RJCJ,,,,0,20180103140000,-1,-1,-1,-1,320,-1,8,-1,-1,-1,-1,,9999,0,1,2,FEW 20   BKN 35,-1,3,-1,8,1013,RJCJ 031400Z 32008KT 9999 -SHSN FEW020 BKN035 M03/M08 Q1013     RMK 1CU020 7CU035 A2993=,- SN SH
20180103_150000.003,0,RJCJ,,,,0,20180103150000,-1,-1,-1,-1,310,-1,8,-1,-1,-1,-1,,9999,0,1,2,FEW 20   BKN 30,-1,2,-1,8,1013,RJCJ 031500Z 31008KT 9999 -SHSN FEW020 BKN030 M02/M08 Q1013     RMK 1CU020 7CU030 A2993=,- SN SH
20180103_160000.003,0,RJCJ,,,,0,20180103160000,-1,-1,-1,-1,310,-1,8,-1,-1,-1,-1,,6000,0,1,2,FEW 15   BKN 25,-1,3,-1,6,1013,RJCJ 031600Z 31008KT 6000 -SHSN FEW015 BKN025 M03/M06 Q1013     RMK 1CU015 7CU025 A2993=,- SN SH
20180103_170000.003,0,RJCJ,,,,0,20180103170000,-1,-1,-1,-1,330,-1,8,-1,-1,-1,-1,,8000,0,1,3,FEW 15   BKN 25   BKN 40,-1,3,-1,6,1013,RJCJ 031700Z 33008KT 8000 -SHSN FEW015 BKN025 BKN040 M03/M06     Q1013 RMK 1CU015 5CU025 7CU040 A2993=,- SN SH
20180103_180000.003,0,RJCJ,,,,0,20180103180000,-1,-1,-1,-1,330,-1,7,-1,-1,-1,-1,,9999,0,1,3,FEW 15   BKN 25   BKN 40,-1,3,-1,6,1013,RJCJ 031800Z 33007KT 9999 -SHSN FEW015 BKN025 BKN040 M03/M06     Q1013 RMK 1CU015 6CU025 7CU040 A2994=,- SN SH
20180103_190000.003,0,RJCJ,,,,0,20180103190000,-1,-1,-1,-1,300,-1,6,-1,-1,-1,-1,,9999,0,1,3,FEW 15   BKN 25   BKN 40,-1,3,-1,6,1013,RJCJ 031900Z 30006KT 9999 -SHSN FEW015 BKN025 BKN040 M03/M06     Q1013 RMK 1CU015 6CU025 7CU040 A2994=,- SN SH
20180103_200000.003,0,RJCJ,,,,0,20180103200000,-1,-1,-1,-1,300,-1,6,-1,-1,-1,-1,,6000,0,1,3,FEW 10   BKN 25   BKN 40,-1,3,-1,6,1013,RJCJ 032000Z 30006KT 6000 -SHSN FEW010 BKN025 BKN040 M03/M06     Q1013 RMK 1ST010 7CU025 7CU040 A2994=,- SN SH
20180103_210000.004,0,RJCJ,,,,0,20180103210000,-1,-1,-1,-1,310,-1,7,-1,-1,-1,-1,,9999,0,1,3,FEW 15   BKN 35   BKN 45,-1,3,-1,5,1014,RJCJ 032100Z 31007KT 9999 -SHSN FEW015 BKN035 BKN045 M03/M05     Q1014 RMK 1CU015 7CU035 7CU045 A2995 01/M04 R000 S000           SD010=,- SN SH
20180103_220000.003,0,RJCJ,,,,0,20180103220000,-1,-1,-1,-1,330,-1,7,-1,-1,-1,-1,,9999,0,0,3,FEW 15   SCT 35   BKN 45,-1,3,-1,6,1014,RJCJ 032200Z 33007KT 9999 FEW015 SCT035 BKN045 M03/M06 Q1014     RMK 1ST015 4CU035 7CU045 A2997=,
20180103_230000.003,0,RJCJ,,,,0,20180103230000,-1,-1,-1,-1,360,-1,6,-1,-1,-1,-1,,9999,0,0,3,FEW 20   SCT 30   BKN 50,-1,4,-1,6,1014,RJCJ 032300Z 36006KT 9999 FEW020 SCT030 BKN050 M04/M06 Q1014     RMK 1CU020 3CU030 7SC050 A2997=,
20180104_000000.003,0,RJCJ,,,,0,20180104000000,-1,-1,-1,-1,350,-1,6,-1,-1,-1,-1,,9999,0,0,3,FEW 20   BKN 45   BKN 230,-1,3,-1,6,1015,RJCJ 040000Z 35006KT 9999 FEW020 BKN045 BKN230 M03/M06 Q1015     RMK 1CU020 7SC045 A2998=,
20180104_010000.003,0,RJCJ,,,,0,20180104010000,-1,-1,-1,-1,350,-1,5,-1,-1,-1,-1,,9999,0,0,3,FEW 20   BKN 45   BKN 230,-1,3,-1,7,1015,RJCJ 040100Z 35005KT 9999 FEW020 BKN045 BKN230 M03/M07 Q1015     RMK 1CU020 6CU045 A2998=,
20180104_020000.005,0,RJCJ,,,,0,20180104020000,-1,-1,-1,-1,340,-1,9,-1,-1,-1,-1,,9999,0,1,3,FEW 20   BKN 45   BKN 60,-1,2,-1,7,1014,RJCJ 040200Z 34009KT 9999 -SHSN FEW020 BKN045 BKN060 M02/M07     Q1014 RMK 1CU020 5CU045 5SC060 A2996=,- SN SH
20180104_030000.004,0,RJCJ,,,,0,20180104030000,-1,-1,-1,-1,340,-1,8,-1,-1,-1,-1,,9999,0,1,3,FEW 20   SCT 30   BKN 45,-1,2,-1,7,1013,RJCJ 040300Z 34008KT 9999 -SHSN FEW020 SCT030 BKN045 M02/M07     Q1013 RMK 1CU020 3CU030 6CU045 A2994=,- SN SH
20180104_040000.003,0,RJCJ,,,,0,20180104040000,-1,-1,-1,-1,330,-1,9,-1,-1,-1,-1,,9999,0,1,3,FEW 20   SCT 30   BKN 45,-1,2,-1,6,1013,RJCJ 040400Z 33009KT 9999 -SHSN FEW020 SCT030 BKN045 M02/M06     Q1013 RMK 1CU020 4CU030 6CU045 A2993=,- SN SH
20180104_050000.003,0,RJCJ,,,,0,20180104050000,-1,-1,-1,-1,350,-1,8,-1,-1,-1,-1,,9999,0,1,3,FEW 15   BKN 30   BKN 45,-1,2,-1,6,1013,RJCJ 040500Z 35008KT 9999 -SHSN FEW015 BKN030 BKN045 M02/M06     Q1013 RMK 1CU015 6CU030 7CU045 A2993=,- SN SH
20180104_060000.004,0,RJCJ,,,,0,20180104060000,-1,-1,-1,-1,340,-1,5,-1,-1,-1,-1,,8000,0,1,3,FEW 15   BKN 25   BKN 45,-1,2,-1,6,1014,RJCJ 040600Z 34005KT 8000 -SHSN FEW015 BKN025 BKN045 M02/M06     Q1014 RMK 1CU015 6CU025 7CU045 A2995 VIS W-NW 5KM=,- SN SH
20180104_070000.003,0,RJCJ,,,,0,20180104070000,-1,-1,-1,-1,330,-1,6,-1,-1,-1,-1,,2500,0,1,3,FEW 10   SCT 15   OVC 25,-1,2,-1,4,1014,RJCJ 040700Z 33006KT 2500 -SHSN FEW010 SCT015 OVC025 M02/M04     Q1014 RMK 1CU010 3CU015 8CU025 A2996=,- SN SH
20180104_080000.003,0,RJCJ,,,,0,20180104080000,-1,-1,-1,-1,330,-1,5,-1,-1,-1,-1,,4500,0,1,3,FEW 10   SCT 25   BKN 40,-1,3,-1,4,1014,RJCJ 040800Z 33005KT 4500 -SHSN FEW010 SCT025 BKN040 M03/M04     Q1014 RMK 1CU010 3CU025 7CU040 A2997 VIS N-NE 3000M=,- SN SH
20180104_090000.003,0,RJCJ,,,,0,20180104090000,-1,-1,-1,-1,330,-1,5,-1,-1,-1,-1,,7000,0,1,3,FEW 6   SCT 25   BKN 40,-1,3,-1,4,1015,RJCJ 040900Z 33005KT 7000 -SHSN FEW006 SCT025 BKN040 M03/M04     Q1015 RMK 2ST006 3CU025 7CU040 A2998=,- SN SH
20180104_100000.003,0,RJCJ,,,,0,20180104100000,-1,-1,-1,-1,350,-1,5,-1,-1,-1,-1,,8000,0,1,3,FEW 6   SCT 30   BKN 40,-1,3,-1,4,1015,RJCJ 041000Z 35005KT 8000 -SHSN FEW006 SCT030 BKN040 M03/M04     Q1015 RMK 1ST006 3CU030 7CU040 A2998=,- SN SH
20180104_110000.003,0,RJCJ,,,,0,20180104110000,-1,-1,-1,-1,350,-1,5,-1,-1,-1,-1,,9000,0,1,2,FEW 6   BKN 40,-1,3,-1,4,1015,RJCJ 041100Z 35005KT 9000 -SHSN FEW006 BKN040 M03/M04 Q1015     RMK 1ST006 7CU040 A2999=,- SN SH
20180104_120000.004,0,RJCJ,,,,0,20180104120000,-1,-1,-1,-1,360,-1,5,-1,-1,-1,-1,,9999,0,1,2,FEW 6   BKN 40,-1,3,-1,4,1015,RJCJ 041200Z 36005KT 9999 -SHSN FEW006 BKN040 M03/M04 Q1015     RMK 1ST006 7CU040 A2999=,- SN SH
20180104_130000.003,0,RJCJ,,,,0,20180104130000,-1,-1,-1,-1,340,-1,4,-1,-1,-1,-1,,9999,0,0,2,FEW 8   BKN 40,-1,3,-1,4,1015,RJCJ 041300Z 34004KT 9999 FEW008 BKN040 M03/M04 Q1015 RMK     1ST008 7CU040 A3000=,
20180104_140000.003,0,RJCJ,,,,0,20180104140000,-1,-1,-1,-1,999,-1,1,-1,-1,-1,-1,,9999,0,0,2,FEW 10   BKN 40,-1,4,-1,5,1015,RJCJ 041400Z VRB01KT 9999 FEW010 BKN040 M04/M05 Q1015 RMK     1ST010 7CU040 A2999=,
20180104_150000.004,0,RJCJ,,,,0,20180104150000,-1,-1,-1,-1,999,-1,2,-1,-1,-1,-1,,9999,0,0,2,FEW 10   SCT 40,-1,6,-1,7,1014,RJCJ 041500Z VRB02KT 9999 FEW010 SCT040 M06/M07 Q1014 RMK     1ST010 4CU040 A2997=,
20180104_160000.004,0,RJCJ,,,,0,20180104160000,-1,-1,-1,-1,170,-1,2,-1,-1,-1,-1,,9999,0,0,2,FEW 10   SCT 40,-1,7,-1,8,1014,RJCJ 041600Z 17002KT 9999 FEW010 SCT040 M07/M08 Q1014 RMK     1ST010 3CU040 A2996=,
20180104_170000.004,0,RJCJ,,,,0,20180104170000,-1,-1,-1,-1,0,-1,0,-1,-1,-1,-1,,9999,0,0,2,FEW 8   BKN 40,-1,8,-1,10,1014,RJCJ 041700Z 00000KT 9999 FEW008 BKN040 M08/M10 Q1014 RMK     1ST008 5CU040 A2997=,
20180104_180000.003,0,RJCJ,,,,0,20180104180000,-1,-1,-1,-1,170,-1,3,-1,-1,140,210,,9999,0,0,2,FEW 8   BKN 45,-1,6,-1,8,1014,RJCJ 041800Z 17003KT 140V210 9999 FEW008 BKN045 M06/M08 Q1014     RMK 1ST008 7SC045 A2996=,
20180104_190000.004,0,RJCJ,,,,0,20180104190000,-1,-1,-1,-1,999,-1,1,-1,-1,-1,-1,,9999,0,0,2,FEW 20   BKN 45,-1,6,-1,7,1014,RJCJ 041900Z VRB01KT 9999 FEW020 BKN045 M06/M07 Q1014 RMK     1CU020 7SC045 A2996=,
20180104_200000.003,0,RJCJ,,,,0,20180104200000,-1,-1,-1,-1,170,-1,3,-1,-1,-1,-1,,9999,0,1,2,FEW 20   BKN 40,-1,5,-1,7,1014,RJCJ 042000Z 17003KT 9999 -SHSN FEW020 BKN040 M05/M07 Q1014     RMK 1CU020 7CU040 A2996=,- SN SH
20180104_210000.003,0,RJCJ,,,,0,20180104210000,-1,-1,-1,-1,999,-1,2,-1,-1,-1,-1,,9999,0,1,2,FEW 20   BKN 40,-1,4,-1,7,1014,RJCJ 042100Z VRB02KT 9999 -SHSN FEW020 BKN040 M04/M07 Q1014     RMK 1CU020 7CU040 A2996 M01/M09 R000 S001 SD011=,- SN SH
20180104_220000.003,0,RJCJ,,,,0,20180104220000,-1,-1,-1,-1,200,-1,2,-1,-1,-1,-1,,9999,0,1,2,FEW 20   BKN 40,-1,4,-1,7,1014,RJCJ 042200Z 20002KT 9999 -SHSN FEW020 BKN040 M04/M07 Q1014     RMK 1CU020 7CU040 A2996=,- SN SH
20180104_230000.003,0,RJCJ,,,,0,20180104230000,-1,-1,-1,-1,180,-1,3,-1,-1,-1,-1,,9999,0,1,2,FEW 20   BKN 40,-1,4,-1,6,1014,RJCJ 042300Z 18003KT 9999 -SHSN FEW020 BKN040 M04/M06 Q1014     RMK 1CU020 7CU040 A2995=,- SN SH
20180105_000000.004,0,RJCJ,,,,0,20180105000000,-1,-1,-1,-1,240,-1,2,-1,-1,-1,-1,,9999,0,0,2,FEW 15   BKN 45,-1,3,-1,6,1013,RJCJ 050000Z 24002KT 9999 FEW015 BKN045 M03/M06 Q1013 RMK     1CU015 7CU045 A2994=,
20180105_010000.004,0,RJCJ,,,,0,20180105010000,-1,-1,-1,-1,180,-1,5,-1,-1,-1,-1,,9999,0,0,2,FEW 20   BKN 45,-1,2,-1,6,1013,RJCJ 050100Z 18005KT 9999 FEW020 BKN045 M02/M06 Q1013 RMK     1SC020 7SC045 A2992=,
20180105_020000.003,0,RJCJ,,,,0,20180105020000,-1,-1,-1,-1,999,-1,2,-1,-1,-1,-1,,9999,0,0,2,FEW 25   BKN 45,-1,1,-1,5,1012,RJCJ 050200Z VRB02KT 9999 FEW025 BKN045 M01/M05 Q1012 RMK     1SC025 7SC045 A2991=,
20180105_030000.003,0,RJCJ,,,,0,20180105030000,-1,-1,-1,-1,200,-1,7,-1,-1,-1,-1,,9999,0,0,2,FEW 25   BKN 45,1,1,-1,5,1011,RJCJ 050300Z 20007KT 9999 FEW025 BKN045 01/M05 Q1011 RMK     1CU025 7SC045 A2988=,
20180105_040000.003,0,RJCJ,,,,0,20180105040000,-1,-1,-1,-1,190,-1,8,-1,-1,-1,-1,,9999,0,0,2,FEW 25   BKN 45,1,1,-1,5,1010,RJCJ 050400Z 19008KT 9999 FEW025 BKN045 01/M05 Q1010 RMK     1CU025 7SC045 A2985=,
20180105_050000.003,0,RJCJ,,,,0,20180105050000,-1,-1,-1,-1,220,-1,6,-1,-1,180,250,,9999,0,0,2,FEW 25   BKN 45,1,1,-1,6,1010,RJCJ 050500Z 22006KT 180V250 9999 FEW025 BKN045 01/M06 Q1010     RMK 1SC025 7SC045 A2984=,
20180105_060000.003,0,RJCJ,,,,0,20180105060000,-1,-1,-1,-1,220,-1,6,-1,-1,-1,-1,,9999,0,0,2,FEW 25   BKN 45,1,1,-1,6,1010,RJCJ 050600Z 22006KT 9999 FEW025 BKN045 01/M06 Q1010 RMK     1CU025 7SC045 A2983=,
20180105_070000.003,0,RJCJ,,,,0,20180105070000,-1,-1,-1,-1,250,-1,3,-1,-1,220,280,,9999,0,0,1,BKN 45,1,1,-1,6,1010,RJCJ 050700Z 25003KT 220V280 9999 BKN045 01/M06 Q1010 RMK     7SC045 A2984 VIRGA E=,
20180105_080000.003,0,RJCJ,,,,0,20180105080000,-1,-1,-1,-1,999,-1,1,-1,-1,-1,-1,,9999,0,0,1,BKN 50,-1,1,-1,5,1010,RJCJ 050800Z VRB01KT 9999 BKN050 M01/M05 Q1010 RMK 7SC050     A2983=,
20180105_090000.003,0,RJCJ,,,,0,20180105090000,-1,-1,-1,-1,230,-1,3,-1,-1,-1,-1,,9999,0,0,1,BKN 45,-1,1,-1,5,1010,RJCJ 050900Z 23003KT 9999 BKN045 M01/M05 Q1010 RMK 7SC045     A2983=,
20180105_100000.003,0,RJCJ,,,,0,20180105100000,-1,-1,-1,-1,240,-1,4,-1,-1,-1,-1,,9999,0,0,1,BKN 45,-1,0,-1,5,1010,RJCJ 051000Z 24004KT 9999 BKN045 M00/M05 Q1010 RMK 7SC045     A2983=,
20180105_110000.003,0,RJCJ,,,,0,20180105110000,-1,-1,-1,-1,240,-1,3,-1,-1,-1,-1,,9999,0,0,1,BKN 45,-1,0,-1,6,1009,RJCJ 051100Z 24003KT 9999 BKN045 M00/M06 Q1009 RMK 7SC045     A2982=,
20180105_120000.003,0,RJCJ,,,,0,20180105120000,-1,-1,-1,-1,210,-1,6,-1,-1,-1,-1,,9999,0,0,2,FEW 20   BKN 45,-1,0,-1,6,1009,RJCJ 051200Z 21006KT 9999 FEW020 BKN045 M00/M06 Q1009 RMK     1SC020 7SC045 A2981=,
20180105_130000.003,0,RJCJ,,,,0,20180105130000,-1,-1,-1,-1,230,-1,4,-1,-1,-1,-1,,9999,0,0,2,FEW 20   BKN 45,-1,0,-1,6,1009,RJCJ 051300Z 23004KT 9999 FEW020 BKN045 M00/M06 Q1009 RMK     1SC020 7SC045 A2980=,
20180105_140000.003,0,RJCJ,,,,0,20180105140000,-1,-1,-1,-1,240,-1,5,-1,-1,-1,-1,,9999,0,0,1,BKN 45,-1,0,-1,6,1008,RJCJ 051400Z 24005KT 9999 BKN045 M00/M06 Q1008 RMK 7CU045     A2979=,
20180105_150000.003,0,RJCJ,,,,0,20180105150000,-1,-1,-1,-1,230,-1,5,-1,-1,-1,-1,,9999,0,0,1,BKN 45,-1,0,-1,6,1008,RJCJ 051500Z 23005KT 9999 BKN045 M00/M06 Q1008 RMK 7CU045     A2977=,
20180105_160000.004,0,RJCJ,,,,0,20180105160000,-1,-1,-1,-1,200,-1,3,-1,-1,170,250,,9999,0,0,1,BKN 45,-1,1,-1,6,1007,RJCJ 051600Z 20003KT 170V250 9999 BKN045 M01/M06 Q1007 RMK     7CU045 A2975=,
20180105_170000.003,0,RJCJ,,,,0,20180105170000,-1,-1,-1,-1,999,-1,2,-1,-1,-1,-1,,9999,0,0,2,FEW 20   BKN 50,-1,2,-1,6,1007,RJCJ 051700Z VRB02KT 9999 FEW020 BKN050 M02/M06 Q1007 RMK     1CU020 7CU050 A2974=,
20180105_180000.004,0,RJCJ,,,,0,20180105180000,-1,-1,-1,-1,999,-1,1,-1,-1,-1,-1,,9999,0,0,2,FEW 20   BKN 50,-1,1,-1,6,1006,RJCJ 051800Z VRB01KT 9999 FEW020 BKN050 M01/M06 Q1006 RMK     1CU020 7CU050 A2973=,
20180105_190000.003,0,RJCJ,,,,0,20180105190000,-1,-1,-1,-1,110,-1,2,-1,-1,-1,-1,,9999,0,0,2,FEW 20   BKN 50,-1,2,-1,6,1006,RJCJ 051900Z 11002KT 9999 FEW020 BKN050 M02/M06 Q1006 RMK     1CU020 7CU050 A2972=,
20180105_200000.003,0,RJCJ,,,,0,20180105200000,-1,-1,-1,-1,170,-1,3,-1,-1,-1,-1,,9999,0,0,2,FEW 20   BKN 50,-1,2,-1,6,1006,RJCJ 052000Z 17003KT 9999 FEW020 BKN050 M02/M06 Q1006 RMK     1CU020 7CU050 A2971=,
20180105_210000.004,0,RJCJ,,,,0,20180105210000,-1,-1,-1,-1,150,-1,3,-1,-1,-1,-1,,9999,0,0,2,FEW 20   BKN 60,-1,2,-1,6,1006,RJCJ 052100Z 15003KT 9999 FEW020 BKN060 M02/M06 Q1006 RMK     1CU020 7SC060 A2971 01/M03 R000 S000 SD010=,
20180105_220000.003,0,RJCJ,,,,0,20180105220000,-1,-1,-1,-1,0,-1,0,-1,-1,-1,-1,,9999,0,0,2,FEW 20   BKN 60,-1,3,-1,6,1005,RJCJ 052200Z 00000KT 9999 FEW020 BKN060 M03/M06 Q1005 RMK     1CU020 7SC060 A2970=,
20180105_230000.003,0,RJCJ,,,,0,20180105230000,-1,-1,-1,-1,999,-1,2,-1,-1,-1,-1,,9999,0,0,2,FEW 20   BKN 60,-1,4,-1,6,1005,RJCJ 052300Z VRB02KT 9999 FEW020 BKN060 M04/M06 Q1005 RMK     1CU020 7SC060 A2970=,
20180106_000000.003,0,RJCJ,,,,0,20180106000000,-1,-1,-1,-1,160,-1,2,-1,-1,-1,-1,,9999,0,0,2,FEW 20   BKN 70,-1,2,-1,6,1005,RJCJ 060000Z 16002KT 9999 FEW020 BKN070 M02/M06 Q1005 RMK     1CU020 6AC070 A2970=,
20180106_010000.003,0,RJCJ,,,,0,20180106010000,-1,-1,-1,-1,320,-1,2,-1,-1,-1,-1,,9999,0,0,3,FEW 20   SCT 60   BKN 80,-1,1,-1,5,1005,RJCJ 060100Z 32002KT 9999 FEW020 SCT060 BKN080 M01/M05 Q1005     RMK 1CU020 3SC060 7AC080 A2970=,
20180106_020000.003,0,RJCJ,,,,0,20180106020000,-1,-1,-1,-1,340,-1,9,-1,-1,-1,-1,,9999,0,0,3,FEW 20   BKN 50   BKN 80,1,0,-1,5,1005,RJCJ 060200Z 34009KT 9999 FEW020 BKN050 BKN080 00/M05 Q1005     RMK 1CU020 5CU050 7AC080 A2969=,
20180106_030000.003,0,RJCJ,,,,0,20180106030000,-1,-1,-1,-1,360,-1,7,-1,-1,-1,-1,,9999,0,1,2,SCT 10   BKN 45,-1,1,-1,3,1004,RJCJ 060300Z 36007KT 9999 -SHSN SCT010 BKN045 M01/M03 Q1004     RMK 3ST010 7CU045 A2966=,- SN SH
20180106_040000.003,0,RJCJ,,,,0,20180106040000,-1,-1,-1,-1,10,-1,7,-1,-1,-1,-1,,9999,0,0,3,FEW 8   SCT 10   BKN 45,-1,1,-1,3,1003,RJCJ 060400Z 01007KT 9999 FEW008 SCT010 BKN045 M01/M03 Q1003     RMK 1ST008 4ST010 6CU045 A2964=,
20180106_050000.003,0,RJCJ,,,,0,20180106050000,-1,-1,-1,-1,10,-1,8,-1,-1,-1,-1,,9999,0,0,2,FEW 8   BKN 40,-1,1,-1,3,1003,RJCJ 060500Z 01008KT 9999 FEW008 BKN040 M01/M03 Q1003 RMK     1ST008 5CU040 A2964=,
20180106_060000.003,0,RJCJ,,,,0,20180106060000,-1,-1,-1,-1,10,-1,7,-1,-1,-1,-1,,9999,0,0,3,FEW 10   SCT 20   BKN 40,-1,1,-1,3,1003,RJCJ 060600Z 01007KT 9999 FEW010 SCT020 BKN040 M01/M03 Q1003     RMK 1ST010 3CU020 5CU040 A2964=,
20180106_070000.003,0,RJCJ,,,,0,20180106070000,-1,-1,-1,-1,10,-1,6,-1,-1,-1,-1,,9999,0,0,3,FEW 10   SCT 20   BKN 40,-1,2,-1,4,1003,RJCJ 060700Z 01006KT 9999 FEW010 SCT020 BKN040 M02/M04 Q1003     RMK 1ST010 3CU020 5CU040 A2964=,
20180106_080000.003,0,RJCJ,,,,0,20180106080000,-1,-1,-1,-1,330,-1,11,-1,-1,-1,-1,,1500,1,1,3,FEW 6   BKN 8   OVC 10,-1,2,-1,3,1004,RJCJ 060800Z 33011KT 1500 R36/P1800N -SHSN FEW006 BKN008     OVC010 M02/M03 Q1004 RMK 2CU006 6CU008 8CU010 A2966=,- SN SH
20180106_090000.003,0,RJCJ,,,,0,20180106090000,-1,-1,-1,-1,330,-1,10,-1,-1,-1,-1,,1000,1,1,3,FEW 4   SCT 6   OVC 8,-1,2,-1,3,1005,RJCJ 060900Z 33010KT 1000 R36/1100VP1800U -SHSN FEW004 SCT006     OVC008 M02/M03 Q1005 RMK 2ST004 3CU006 8CU008 A2969           R1600=,- SN SH
20180106_100000.003,0,RJCJ,,,,0,20180106100000,-1,-1,-1,-1,340,-1,12,-1,-1,-1,-1,,2000,0,1,3,FEW 6   BKN 8   OVC 10,-1,2,-1,3,1006,RJCJ 061000Z 34012KT 2000 -SHSN FEW006 BKN008 OVC010 M02/M03     Q1006 RMK 2CU006 5CU008 8CU010 A2971 VIS S 1500M NW-N           3500M=,- SN SH
20180106_110000.003,0,RJCJ,,,,0,20180106110000,-1,-1,-1,-1,340,-1,11,-1,-1,-1,-1,,2000,0,1,3,FEW 4   SCT 6   BKN 8,-1,2,-1,3,1006,RJCJ 061100Z 34011KT 2000 -SHSN FEW004 SCT006 BKN008 M02/M03     Q1006 RMK 1ST004 3CU006 7CU008 A2972 VIS NW-N 800M S           3000M=,- SN SH
20180106_120000.003,0,RJCJ,,,,0,20180106120000,-1,-1,-1,-1,320,-1,8,-1,-1,270,340,,7000,0,1,3,FEW 6   SCT 8   BKN 15,-1,3,-1,6,1007,RJCJ 061200Z 32008KT 270V340 7000 -SHSN FEW006 SCT008 BKN015     M03/M06 Q1007 RMK 1ST006 3CU008 6CU015 A2974 VIS NW-E           4000M=,- SN SH
20180106_130000.005,0,RJCJ,,,,0,20180106130000,-1,-1,-1,-1,330,-1,9,-1,-1,-1,-1,,9999,0,1,3,FEW 6   SCT 10   BKN 15,-1,4,-1,6,1007,RJCJ 061300Z 33009KT 9999 -SHSN FEW006 SCT010 BKN015 M04/M06     Q1007 RMK 1ST006 3ST010 6CU015 A2976=,- SN SH
20180106_140000.004,0,RJCJ,,,,0,20180106140000,-1,-1,-1,-1,310,-1,5,-1,-1,-1,-1,,9999,0,0,2,FEW 6   SCT 15,-1,4,-1,7,1008,RJCJ 061400Z 31005KT 9999 FEW006 SCT015 M04/M07 Q1008 RMK     1ST006 4CU015 A2978=,
20180106_150000.003,0,RJCJ,,,,0,20180106150000,-1,-1,-1,-1,20,-1,5,-1,-1,330,40,,9999,0,0,1,FEW 10,-1,5,-1,7,1008,RJCJ 061500Z 02005KT 330V040 9999 FEW010 M05/M07 Q1008 RMK     1ST010 A2978=,
20180106_160000.003,0,RJCJ,,,,0,20180106160000,-1,-1,-1,-1,10,-1,3,-1,-1,330,60,,7000,0,1,2,FEW 10   BKN 40,-1,8,-1,10,1009,RJCJ 061600Z 01003KT 330V060 7000 -SHSN FEW010 BKN040 M08/M10     Q1009 RMK 1ST010 7CU040 A2980 VIS NW-N 5KM=,- SN SH
20180106_170000.003,0,RJCJ,,,,0,20180106170000,-1,-1,-1,-1,340,-1,7,-1,-1,-1,-1,,9999,0,0,2,FEW 15   BKN 60,-1,4,-1,6,1009,RJCJ 061700Z 34007KT 9999 FEW015 BKN060 M04/M06 Q1009 RMK     1CU015 5CU060 A2982=,
20180106_180000.004,0,RJCJ,,,,0,20180106180000,-1,-1,-1,-1,270,-1,3,-1,-1,-1,-1,,9999,0,0,2,FEW 15   SCT 60,-1,7,-1,7,1010,RJCJ 061800Z 27003KT 9999 FEW015 SCT060 M07/M07 Q1010 RMK     1CU015 4CU060 A2984=,
20180106_190000.003,0,RJCJ,,,,0,20180106190000,-1,-1,-1,-1,999,-1,1,-1,-1,-1,-1,,9999,0,0,1,FEW 15,-1,11,-1,12,1010,RJCJ 061900Z VRB01KT 9999 FEW015 M11/M12 Q1010 RMK 1CU015     A2984=,
20180106_200000.003,0,RJCJ,,,,0,20180106200000,-1,-1,-1,-1,190,-1,4,-1,-1,-1,-1,,9999,0,0,2,FEW 15   SCT 60,-1,14,-1,15,1011,RJCJ 062000Z 19004KT 9999 FEW015 SCT060 M14/M15 Q1011 RMK     1CU015 3CU060 A2987=,
20180106_210000.003,0,RJCJ,,,,0,20180106210000,-1,-1,-1,-1,999,-1,2,-1,-1,-1,-1,,9999,0,0,2,FEW 15   BKN 60,-1,13,-1,15,1012,RJCJ 062100Z VRB02KT 9999 FEW015 BKN060 M13/M15 Q1012 RMK     1CU015 6CU060 A2989 01/M15 R000 S011 SD019=,
20180106_220000.003,0,RJCJ,,,,0,20180106220000,-1,-1,-1,-1,300,-1,3,-1,-1,-1,-1,,9999,0,1,2,FEW 15   BKN 45,-1,11,-1,13,1012,RJCJ 062200Z 30003KT 9999 -SHSN FEW015 BKN045 M11/M13 Q1012     RMK 1CU015 6CU045 A2991 VIS N-NE 4500M=,- SN SH
20180106_230000.003,0,RJCJ,,,,0,20180106230000,-1,-1,-1,-1,999,-1,1,-1,-1,-1,-1,,9999,0,0,1,FEW 15,-1,12,-1,14,1013,RJCJ 062300Z VRB01KT 9999 FEW015 M12/M14 Q1013 RMK 1CU015     A2994=,
20180107_000000.003,0,RJCJ,,,,0,20180107000000,-1,-1,-1,-1,330,-1,11,-1,-1,-1,-1,,7000,0,1,2,FEW 15   SCT 35,-1,4,-1,6,1014,RJCJ 070000Z 33011KT 7000 -SHSN FEW015 SCT035 M04/M06 Q1014     RMK 1CU015 4CU035 A2995 VIS E-SE 5KM=,- SN SH
20180107_010000.004,0,RJCJ,,,,0,20180107010000,-1,-1,-1,-1,330,-1,12,-1,-1,-1,-1,,9999,0,1,2,FEW 15   SCT 45,-1,3,-1,7,1015,RJCJ 070100Z 33012KT 9999 -SHSN FEW015 SCT045 M03/M07 Q1015     RMK 1CU015 3CU045 A2997 VIS N-E 5KM=,- SN SH
20180107_020000.003,0,RJCJ,,,,0,20180107020000,-1,-1,-1,-1,350,-1,14,-1,-1,-1,-1,,9999,0,1,2,FEW 15   SCT 45,-1,3,-1,6,1015,RJCJ 070200Z 35014KT 9999 -SHSN FEW015 SCT045 M03/M06 Q1015     RMK 1CU015 3CU045 A2998=,- SN SH
20180107_030000.003,0,RJCJ,,,,0,20180107030000,-1,-1,-1,-1,340,-1,6,-1,-1,-1,-1,,9999,0,0,2,FEW 15   SCT 45,-1,3,-1,6,1015,RJCJ 070300Z 34006KT 9999 FEW015 SCT045 M03/M06 Q1015 RMK     1CU015 3CU045 A2998=,
20180107_040000.003,0,RJCJ,,,,0,20180107040000,-1,-1,-1,-1,350,-1,6,-1,-1,310,30,,9999,0,0,2,FEW 15   SCT 40,-1,1,-1,8,1015,RJCJ 070400Z 35006KT 310V030 9999 FEW015 SCT040 M01/M08 Q1015     RMK 1CU015 3CU040 A2999=,
20180107_050000.003,0,RJCJ,,,,0,20180107050000,-1,-1,-1,-1,30,-1,5,-1,-1,-1,-1,,9999,0,0,2,FEW 15   SCT 40,-1,1,-1,9,1015,RJCJ 070500Z 03005KT 9999 FEW015 SCT040 M01/M09 Q1015 RMK     1CU015 3CU040 A2999=,
20180107_060000.003,0,RJCJ,,,,0,20180107060000,-1,-1,-1,-1,10,-1,4,-1,-1,-1,-1,,9999,0,0,2,FEW 15   BKN 40,-1,1,-1,8,1016,RJCJ 070600Z 01004KT 9999 FEW015 BKN040 M01/M08 Q1016 RMK     1CU015 6CU040 A3001=,
20180107_070000.003,0,RJCJ,,,,0,20180107070000,-1,-1,-1,-1,140,-1,3,-1,-1,80,190,,9999,0,0,2,FEW 25   BKN 40,-1,2,-1,8,1016,RJCJ 070700Z 14003KT 080V190 9999 FEW025 BKN040 M02/M08 Q1016     RMK 1CU025 6SC040 A3002=,
20180107_080000.003,0,RJCJ,,,,0,20180107080000,-1,-1,-1,-1,100,-1,6,-1,-1,-1,-1,,9999,0,0,1,SCT 40,-1,4,-1,7,1016,RJCJ 070800Z 10006KT 9999 SCT040 M04/M07 Q1016 RMK 3SC040     A3003=,
20180107_090000.003,0,RJCJ,,,,0,20180107090000,-1,-1,-1,-1,150,-1,2,-1,-1,-1,-1,,9999,0,0,1,BKN 40,-1,5,-1,8,1017,RJCJ 070900Z 15002KT 9999 BKN040 M05/M08 Q1017 RMK 5SC040     A3004=,
20180107_100000.003,0,RJCJ,,,,0,20180107100000,-1,-1,-1,-1,180,-1,5,-1,-1,-1,-1,,9999,0,0,1,BKN 45,-1,4,-1,7,1017,RJCJ 071000Z 18005KT 9999 BKN045 M04/M07 Q1017 RMK 6SC045     A3005=,
20180107_110000.003,0,RJCJ,,,,0,20180107110000,-1,-1,-1,-1,170,-1,4,-1,-1,-1,-1,,9999,0,0,1,BKN 50,-1,4,-1,7,1017,RJCJ 071100Z 17004KT 9999 BKN050 M04/M07 Q1017 RMK 7SC050     A3006=,
20180107_120000.004,0,RJCJ,,,,0,20180107120000,-1,-1,-1,-1,180,-1,3,-1,-1,-1,-1,,9999,0,0,1,BKN 45,-1,3,-1,7,1017,RJCJ 071200Z 18003KT 9999 BKN045 M03/M07 Q1017 RMK 6SC045     A3006=,
20180107_130000.004,0,RJCJ,,,,0,20180107130000,-1,-1,-1,-1,180,-1,5,-1,-1,150,230,,9999,0,0,1,BKN 45,-1,4,-1,7,1017,RJCJ 071300Z 18005KT 150V230 9999 BKN045 M04/M07 Q1017 RMK     5SC045 A3005=,
20180107_140000.004,0,RJCJ,,,,0,20180107140000,-1,-1,-1,-1,160,-1,4,-1,-1,-1,-1,,9999,0,0,1,SCT 45,-1,5,-1,8,1017,RJCJ 071400Z 16004KT 9999 SCT045 M05/M08 Q1017 RMK 4SC045     A3005=,
20180107_150000.003,0,RJCJ,,,,0,20180107150000,-1,-1,-1,-1,210,-1,5,-1,-1,180,240,,9999,0,0,1,BKN 45,-1,2,-1,7,1017,RJCJ 071500Z 21005KT 180V240 9999 BKN045 M02/M07 Q1017 RMK     5SC045 A3004=,
20180107_160000.003,0,RJCJ,,,,0,20180107160000,-1,-1,-1,-1,190,-1,5,-1,-1,-1,-1,,9999,0,0,1,SCT 45,-1,3,-1,10,1017,RJCJ 071600Z 19005KT 9999 SCT045 M03/M10 Q1017 RMK 4SC045     A3003=,
20180107_170000.003,0,RJCJ,,,,0,20180107170000,-1,-1,-1,-1,110,-1,7,-1,-1,-1,-1,,9999,0,0,1,BKN 50,-1,5,-1,8,1017,RJCJ 071700Z 11007KT 9999 BKN050 M05/M08 Q1017 RMK 5SC050     A3004=,
20180107_180000.003,0,RJCJ,,,,0,20180107180000,-1,-1,-1,-1,170,-1,3,-1,-1,140,210,,9999,0,0,1,BKN 50,-1,5,-1,8,1017,RJCJ 071800Z 17003KT 140V210 9999 BKN050 M05/M08 Q1017 RMK     7SC050 A3004=,
20180107_190000.004,0,RJCJ,,,,0,20180107190000,-1,-1,-1,-1,190,-1,5,-1,-1,-1,-1,,9999,0,0,1,BKN 45,-1,3,-1,7,1016,RJCJ 071900Z 19005KT 9999 BKN045 M03/M07 Q1016 RMK 7SC045     A3002=,
20180107_200000.003,0,RJCJ,,,,0,20180107200000,-1,-1,-1,-1,140,-1,5,-1,-1,-1,-1,,9999,0,0,1,BKN 45,-1,4,-1,6,1016,RJCJ 072000Z 14005KT 9999 BKN045 M04/M06 Q1016 RMK 7SC045     A3000=,
20180107_210000.004,0,RJCJ,,,,0,20180107210000,-1,-1,-1,-1,180,-1,3,-1,-1,-1,-1,,9999,0,0,1,BKN 45,-1,3,-1,6,1015,RJCJ 072100Z 18003KT 9999 BKN045 M03/M06 Q1015 RMK 7SC045     A3000 00/M07 R001 S000 SD015=,
20180107_220000.003,0,RJCJ,,,,0,20180107220000,-1,-1,-1,-1,170,-1,4,-1,-1,-1,-1,,9999,0,0,2,FEW 30   BKN 45,-1,3,-1,6,1015,RJCJ 072200Z 17004KT 9999 FEW030 BKN045 M03/M06 Q1015 RMK     1SC030 7SC045 A3000=,
20180107_230000.003,0,RJCJ,,,,0,20180107230000,-1,-1,-1,-1,160,-1,5,-1,-1,-1,-1,,9999,0,0,2,FEW 30   BKN 50,-1,3,-1,5,1015,RJCJ 072300Z 16005KT 9999 FEW030 BKN050 M03/M05 Q1015 RMK     1SC030 7SC050 A3000=,
20180108_000000.003,0,RJCJ,,,,0,20180108000000,-1,-1,-1,-1,160,-1,6,-1,-1,-1,-1,,9999,0,0,3,FEW 30   BKN 50   BKN 150,-1,1,-1,4,1016,RJCJ 080000Z 16006KT 9999 FEW030 BKN050 BKN150 M01/M04 Q1016     RMK 1SC030 6SC050 7AC150 A3000=,
20180108_010000.003,0,RJCJ,,,,0,20180108010000,-1,-1,-1,-1,160,-1,7,-1,-1,-1,-1,,9999,0,0,3,FEW 30   BKN 50   BKN 130,1,0,-1,3,1015,RJCJ 080100Z 16007KT 9999 FEW030 BKN050 BKN130 00/M03 Q1015     RMK 1SC030 5SC050 7AC130 A2998=,
20180108_020000.004,0,RJCJ,,,,0,20180108020000,-1,-1,-1,-1,130,-1,7,-1,-1,-1,-1,,9999,0,0,3,FEW 30   SCT 100   BKN 120,1,2,-1,2,1013,RJCJ 080200Z 13007KT 9999 FEW030 SCT100 BKN120 02/M02 Q1013     RMK 1SC030 3AC100 7AC120 A2993=,
20180108_030000.003,0,RJCJ,,,,0,20180108030000,-1,-1,-1,-1,160,-1,8,-1,-1,-1,-1,,9999,0,0,3,FEW 30   SCT 100   BKN 120,1,3,-1,1,1012,RJCJ 080300Z 16008KT 9999 FEW030 SCT100 BKN120 03/M01 Q1012     RMK 1SC030 3AC100 7AC120 A2991=,
20180108_040000.003,0,RJCJ,,,,0,20180108040000,-1,-1,-1,-1,190,-1,10,-1,-1,140,210,,9999,0,0,3,FEW 30   BKN 120   BKN 200,1,5,-1,1,1011,RJCJ 080400Z 19010KT 140V210 9999 FEW030 BKN120 BKN200 05/M01     Q1011 RMK 1SC030 7AC120 A2988=,
20180108_050000.003,0,RJCJ,,,,0,20180108050000,-1,-1,-1,-1,190,-1,10,-1,-1,-1,-1,,9999,0,0,3,FEW 25   BKN 120   BKN 200,1,5,-1,2,1011,RJCJ 080500Z 19010KT 9999 FEW025 BKN120 BKN200 05/M02 Q1011     RMK 1SC025 5AC120 A2986=,
20180108_060000.004,0,RJCJ,,,,0,20180108060000,-1,-1,-1,-1,190,-1,9,-1,-1,-1,-1,,9999,0,0,3,FEW 25   BKN 120   BKN 200,1,5,-1,1,1010,RJCJ 080600Z 19009KT 9999 FEW025 BKN120 BKN200 05/M01 Q1010     RMK 1SC025 6AC120 A2985=,
20180108_070000.003,0,RJCJ,,,,0,20180108070000,-1,-1,-1,-1,180,-1,4,-1,-1,-1,-1,,9999,0,1,3,FEW 25   BKN 30   BKN 120,1,4,-1,1,1010,RJCJ 080700Z 18004KT 9999 -SHRA FEW025 BKN030 BKN120 04/M01     Q1010 RMK 1CU025 6CU030 7AC120 A2983=,- RA SH
20180108_080000.003,0,RJCJ,,,,0,20180108080000,-1,-1,-1,-1,180,-1,3,-1,-1,-1,-1,,9999,0,0,3,FEW 25   SCT 30   BKN 45,1,3,-1,1,1009,RJCJ 080800Z 18003KT 9999 FEW025 SCT030 BKN045 03/M01 Q1009     RMK 1CU025 4CU030 5CU045 A2981=,
20180108_090000.003,0,RJCJ,,,,0,20180108090000,-1,-1,-1,-1,150,-1,4,-1,-1,-1,-1,,9999,0,0,3,FEW 15   BKN 30   BKN 45,1,3,1,0,1008,RJCJ 080900Z 15004KT 9999 FEW015 BKN030 BKN045 03/00 Q1008 RMK     1CU015 7CU030 7CU045 A2978=,
20180108_100000.003,0,RJCJ,,,,0,20180108100000,-1,-1,-1,-1,130,-1,5,-1,-1,-1,-1,,9999,0,0,3,FEW 15   BKN 30   BKN 45,1,2,1,0,1008,RJCJ 081000Z 13005KT 9999 FEW015 BKN030 BKN045 02/00 Q1008 RMK     1CU015 5CU030 7CU045 A2978=,
20180108_110000.003,0,RJCJ,,,,0,20180108110000,-1,-1,-1,-1,150,-1,9,-1,-1,-1,-1,,9999,0,0,3,FEW 15   SCT 30   BKN 45,1,2,1,0,1007,RJCJ 081100Z 15009KT 9999 FEW015 SCT030 BKN045 02/00 Q1007 RMK     1CU015 4CU030 5CU045 A2975=,
20180108_120000.003,0,RJCJ,,,,0,20180108120000,-1,-1,-1,-1,130,-1,5,-1,-1,-1,-1,,9999,0,0,2,FEW 30   SCT 45,1,1,-1,1,1006,RJCJ 081200Z 13005KT 9999 FEW030 SCT045 01/M01 Q1006 RMK     1CU030 4CU045 A2971=,
20180108_130000.004,0,RJCJ,,,,0,20180108130000,-1,-1,-1,-1,999,-1,2,-1,-1,-1,-1,,9999,0,0,3,FEW 25   SCT 35   BKN 45,1,1,-1,1,1004,RJCJ 081300Z VRB02KT 9999 FEW025 SCT035 BKN045 01/M01 Q1004     RMK 1CU025 3CU035 7CU045 A2967=,
20180108_140000.003,0,RJCJ,,,,0,20180108140000,-1,-1,-1,-1,999,-1,1,-1,-1,-1,-1,,9999,0,0,3,FEW 20   SCT 30   BKN 45,1,2,-1,1,1002,RJCJ 081400Z VRB01KT 9999 FEW020 SCT030 BKN045 02/M01 Q1002     RMK 1CU020 4CU030 6CU045 A2961=,
20180108_150000.003,0,RJCJ,,,,0,20180108150000,-1,-1,-1,-1,999,-1,2,-1,-1,-1,-1,,9999,0,0,3,FEW 20   SCT 25   BKN 150,-1,0,-1,2,1000,RJCJ 081500Z VRB02KT 9999 FEW020 SCT025 BKN150 M00/M02 Q1000     RMK 1CU020 4CU025 7AC150 A2955=,
20180108_160000.003,0,RJCJ,,,,0,20180108160000,-1,-1,-1,-1,170,-1,3,-1,-1,-1,-1,,9999,0,0,3,FEW 15   BKN 20   BKN 100,1,2,-1,1,1000,RJCJ 081600Z 17003KT 9999 FEW015 BKN020 BKN100 02/M01 Q1000     RMK 1ST015 7CU020 7AC100 A2953=,
20180108_170000.003,0,RJCJ,,,,0,20180108170000,-1,-1,-1,-1,999,-1,1,-1,-1,-1,-1,,9999,0,0,3,FEW 15   SCT 80   OVC 100,1,2,-1,1,998,RJCJ 081700Z VRB01KT 9999 FEW015 SCT080 OVC100 02/M01 Q0998     RMK 1ST015 4AC080 8AS100 A2947=,
20180108_180000.003,0,RJCJ,,,,0,20180108180000,-1,-1,-1,-1,210,-1,3,-1,-1,-1,-1,,9999,0,0,3,FEW 15   SCT 100   OVC 150,1,2,-1,0,995,RJCJ 081800Z 21003KT 9999 FEW015 SCT100 OVC150 02/M00 Q0995     RMK 1ST015 4AC100 8AS150 A2940=,
20180108_190000.003,0,RJCJ,,,,0,20180108190000,-1,-1,-1,-1,170,-1,8,-1,-1,-1,-1,,9999,0,0,3,FEW 15   BKN 30   OVC 150,1,3,-1,0,993,RJCJ 081900Z 17008KT 9999 FEW015 BKN030 OVC150 03/M00 Q0993     RMK 1ST015 5CU030 8AS150 A2933=,
20180108_200000.003,0,RJCJ,,,,0,20180108200000,-1,-1,-1,-1,170,-1,3,-1,-1,-1,-1,,9999,0,0,3,FEW 15   BKN 40   OVC 120,1,3,-1,1,990,RJCJ 082000Z 17003KT 9999 FEW015 BKN040 OVC120 03/M01 Q0990     RMK 1ST015 5SC040 8AS120 A2926=,
20180108_210000.004,0,RJCJ,,,,0,20180108210000,-1,-1,-1,-1,999,-1,1,-1,-1,-1,-1,,9999,0,1,3,FEW 15   BKN 40   OVC 50,1,2,-1,1,989,RJCJ 082100Z VRB01KT 9999 -SHRA FEW015 BKN040 OVC050 02/M01     Q0989 RMK 1ST015 7CU040 8CU050 A2921 05/M01 R000 S000           SD12=,- RA SH
20180108_213000.001,1,RJCJ,,,,0,20180108210000,-1,-1,-1,-1,999,-1,1,-1,-1,-1,-1,,9999,0,1,3,FEW 15   BKN 40   OVC 50,1,2,-1,1,989,RJCJ 082100Z VRB01KT 9999 -SHRA FEW015 BKN040 OVC050     02/M01 Q0989 RMK 1ST015 7CU040 8CU050 A2921 05/M01 R000           S000 SD012=,- RA SH
20180108_220000.003,0,RJCJ,,,,0,20180108220000,-1,-1,-1,-1,320,-1,4,-1,-1,300,360,,5000,0,2,3,FEW 15   BKN 25   OVC 35,1,2,1,0,988,RJCJ 082200Z 32004KT 300V360 5000 -SHRA BR FEW015 BKN025     OVC035 02/00 Q0988 RMK 2ST015 7CU025 8CU035 A2918=,- RA SH; BR
20180108_230000.004,0,RJCJ,,,,0,20180108230000,-1,-1,-1,-1,340,-1,4,-1,-1,-1,-1,,6000,0,1,3,FEW 10   SCT 15   BKN 20,1,1,1,0,986,RJCJ 082300Z 34004KT 6000 -SHRA FEW010 SCT015 BKN020 01/00     Q0986 RMK 1ST010 4CU015 7CU020 A2914=,- RA SH
20180109_000000.003,0,RJCJ,,,,0,20180109000000,-1,-1,-1,-1,310,-1,4,-1,-1,-1,-1,,5000,0,2,3,FEW 9   BKN 13   OVC 20,1,1,1,1,985,RJCJ 090000Z 31004KT 5000 -SHRA BR FEW009 BKN013 OVC020 01/01     Q0985 RMK 1ST009 7ST013 8CU020 A2910=,- RA SH; BR
20180109_010000.003,0,RJCJ,,,,0,20180109010000,-1,-1,-1,-1,320,-1,4,-1,-1,-1,-1,,4500,0,2,3,FEW 8   BKN 10   OVC 20,1,2,1,1,983,RJCJ 090100Z 32004KT 4500 -SHRA BR FEW008 BKN010 OVC020 02/01     Q0983 RMK 1ST008 7ST010 8CU020 A2904=,- RA SH; BR
20180109_020000.003,0,RJCJ,,,,0,20180109020000,-1,-1,-1,-1,280,-1,3,-1,-1,-1,-1,,3500,0,2,3,FEW 3   BKN 4   BKN 6,1,2,1,1,981,RJCJ 090200Z 28003KT 3500 -SHRA BR FEW003 BKN004 BKN006 02/01     Q0981 RMK 1ST003 5ST004 7ST006 A2898=,- RA SH; BR
20180109_030000.003,0,RJCJ,,,,0,20180109030000,-1,-1,-1,-1,999,-1,1,-1,-1,-1,-1,,9999,0,0,3,FEW 4   SCT 8   BKN 35,1,3,1,1,980,RJCJ 090300Z VRB01KT 9999 FEW004 SCT008 BKN035 03/01 Q0980 RMK     1ST004 4ST008 5CU035 A2897=,
20180109_040000.003,0,RJCJ,,,,0,20180109040000,-1,-1,-1,-1,30,-1,9,-1,-1,340,50,,9999,0,0,1,FEW 5,1,4,1,2,981,RJCJ 090400Z 03009KT 340V050 9999 FEW005 04/02 Q0981 RMK     1ST005 A2898=,
20180109_050000.003,0,RJCJ,,,,0,20180109050000,-1,-1,-1,-1,240,-1,10,-1,-1,200,260,,9999,0,0,2,FEW 10   BKN 35,1,6,-1,1,982,RJCJ 090500Z 24010KT 200V260 9999 FEW010 BKN035 06/M01 Q0982     RMK 1ST010 5CU035 A2902=,
20180109_060000.003,0,RJCJ,,,,0,20180109060000,-1,-1,-1,-1,230,-1,15,-1,-1,-1,-1,,9999,0,1,2,FEW 10   SCT 35,1,5,-1,3,982,RJCJ 090600Z 23015KT 9999 VCSH FEW010 SCT035 05/M03 Q0982 RMK     1ST010 3CU035 A2902 VCSH NW=,VC SH
20180109_070000.003,0,RJCJ,,,,0,20180109070000,-1,-1,-1,-1,220,-1,7,-1,-1,190,270,,9999,0,0,2,FEW 15   SCT 50,1,4,-1,5,983,RJCJ 090700Z 22007KT 190V270 9999 FEW015 SCT050 04/M05 Q0983     RMK 1CU015 3CU050 A2903=,
20180109_080000.003,0,RJCJ,,,,0,20180109080000,-1,-1,-1,-1,200,-1,10,-1,-1,-1,-1,,9999,0,0,1,FEW 15,1,3,-1,5,982,RJCJ 090800Z 20010KT 9999 FEW015 03/M05 Q0982 RMK 1CU015     A2901=,
20180109_090000.003,0,RJCJ,,,,0,20180109090000,-1,-1,-1,-1,230,-1,8,-1,-1,-1,-1,,9999,0,0,2,FEW 10   SCT 100,1,1,-1,1,983,RJCJ 090900Z 23008KT 9999 FEW010 SCT100 01/M01 Q0983 RMK     1CU010 4AC100 A2904=,
20180109_100000.003,0,RJCJ,,,,0,20180109100000,-1,-1,-1,-1,220,-1,11,-1,-1,-1,-1,,9999,0,0,1,FEW 15,1,1,-1,4,983,RJCJ 091000Z 22011KT 9999 FEW015 01/M04 Q0983 RMK 1CU015     A2904=,
20180109_110000.003,0,RJCJ,,,,0,20180109110000,-1,-1,-1,-1,240,-1,15,-1,28,-1,-1,,9999,0,1,3,FEW 15   BKN 40   BKN 120,1,1,-1,3,983,RJCJ 091100Z 24015G28KT 9999 -SHSN FEW015 BKN040 BKN120 01/M03     Q0983 RMK 1CU015 6CU040 7AC120 A2905=,- SN SH
20180109_120000.003,0,RJCJ,,,,0,20180109120000,-1,-1,-1,-1,230,-1,14,-1,-1,-1,-1,,3000,0,1,3,FEW 8   SCT 15   BKN 25,-1,1,-1,4,984,RJCJ 091200Z 23014KT 3000 -SHSN FEW008 SCT015 BKN025 M01/M04     Q0984 RMK 1CU008 3CU015 7CU025 A2908=,- SN SH
20180109_130000.003,0,RJCJ,,,,0,20180109130000,-1,-1,-1,-1,250,-1,17,-1,31,220,280,,9999,0,1,2,FEW 8   SCT 25,-1,1,-1,8,985,RJCJ 091300Z 25017G31KT 220V280 9999 -SHSN FEW008 SCT025     M01/M08 Q0985 RMK 1CU008 4CU025 A2910=,- SN SH
20180109_140000.003,0,RJCJ,,,,0,20180109140000,-1,-1,-1,-1,240,-1,10,-1,-1,210,270,,9999,0,1,2,FEW 10   SCT 30,-1,1,-1,8,986,RJCJ 091400Z 24010KT 210V270 9999 -SHSN FEW010 SCT030 M01/M08     Q0986 RMK 1CU010 3CU030 A2912=,- SN SH
20180109_150000.003,0,RJCJ,,,,0,20180109150000,-1,-1,-1,-1,230,-1,12,-1,-1,200,270,,8000,0,1,3,FEW 10   BKN 25   BKN 30,-1,2,-1,6,986,RJCJ 091500Z 23012KT 200V270 8000 -SHSN FEW010 BKN025 BKN030     M02/M06 Q0986 RMK 1CU010 5CU025 7CU030 A2913=,- SN SH
20180109_160000.003,0,RJCJ,,,,0,20180109160000,-1,-1,-1,-1,200,-1,10,-1,-1,160,230,,6000,0,1,2,FEW 10   BKN 25,-1,3,-1,6,987,RJCJ 091600Z 20010KT 160V230 6000 -SHSN FEW010 BKN025 M03/M06     Q0987 RMK 1CU010 7CU025 A2916=,- SN SH
20180109_170000.003,0,RJCJ,,,,0,20180109170000,-1,-1,-1,-1,250,-1,11,-1,-1,230,300,,9999,0,1,3,FEW 10   SCT 25   BKN 35,-1,2,-1,9,988,RJCJ 091700Z 25011KT 230V300 9999 -SHSN FEW010 SCT025 BKN035     M02/M09 Q0988 RMK 1CU010 4CU025 5CU035 A2920=,- SN SH
20180109_180000.003,0,RJCJ,,,,0,20180109180000,-1,-1,-1,-1,230,-1,10,-1,-1,180,270,,9999,0,1,3,FEW 15   SCT 35   BKN 45,-1,2,-1,8,989,RJCJ 091800Z 23010KT 180V270 9999 -SHSN FEW015 SCT035 BKN045     M02/M08 Q0989 RMK 1CU015 4CU035 7CU045 A2922=,- SN SH
20180109_190000.004,0,RJCJ,,,,0,20180109190000,-1,-1,-1,-1,240,-1,7,-1,-1,200,270,,9999,0,1,3,FEW 15   SCT 35   BKN 45,-1,1,-1,10,990,RJCJ 091900Z 24007KT 200V270 9999 -SHSN FEW015 SCT035 BKN045     M01/M10 Q0990 RMK 1CU015 3CU035 6CU045 A2924=,- SN SH
20180109_200000.003,0,RJCJ,,,,0,20180109200000,-1,-1,-1,-1,220,-1,8,-1,-1,-1,-1,,9999,0,1,2,FEW 15   BKN 45,-1,2,-1,9,991,RJCJ 092000Z 22008KT 9999 -SHSN FEW015 BKN045 M02/M09 Q0991     RMK 1CU015 5CU045 A2928=,- SN SH
20180109_210000.003,0,RJCJ,,,,0,20180109210000,-1,-1,-1,-1,230,-1,7,-1,-1,-1,-1,,9999,0,1,2,FEW 15   SCT 45,-1,2,-1,9,992,RJCJ 092100Z 23007KT 9999 -SHSN FEW015 SCT045 M02/M09 Q0992     RMK 1CU015 4CU045 A2930 24031KT/1240 07/M03 R011 S001           SD009=,- SN SH
20180109_220000.003,0,RJCJ,,,,0,20180109220000,-1,-1,-1,-1,999,-1,4,-1,-1,-1,-1,,9999,0,0,1,FEW 15,-1,2,-1,9,994,RJCJ 092200Z VRB04KT 9999 FEW015 M02/M09 Q0994 RMK 1CU015     A2936=,
20180109_230000.003,0,RJCJ,,,,0,20180109230000,-1,-1,-1,-1,230,-1,5,-1,-1,200,330,,9999,0,0,1,FEW 20,-1,2,-1,9,995,RJCJ 092300Z 23005KT 200V330 9999 FEW020 M02/M09 Q0995 RMK     1CU020 A2940=,
20180110_000000.003,0,RJCJ,,,,0,20180110000000,-1,-1,-1,-1,220,-1,9,-1,-1,-1,-1,,9999,0,0,1,FEW 20,-1,1,-1,10,996,RJCJ 100000Z 22009KT 9999 FEW020 M01/M10 Q0996 RMK 1CU020     A2943=,
20180110_010000.003,0,RJCJ,,,,0,20180110010000,-1,-1,-1,-1,260,-1,10,-1,-1,230,290,,9999,0,0,1,FEW 25,-1,0,-1,10,997,RJCJ 100100Z 26010KT 230V290 9999 FEW025 M00/M10 Q0997 RMK     1CU025 A2944=,
20180110_020000.003,0,RJCJ,,,,0,20180110020000,-1,-1,-1,-1,240,-1,11,-1,-1,210,280,,9999,0,0,2,FEW 25   BKN 110,1,1,-1,10,997,RJCJ 100200Z 24011KT 210V280 9999 FEW025 BKN110 01/M10 Q0997     RMK 1CU025 5AC110 A2945=,
20180110_030000.003,0,RJCJ,,,,0,20180110030000,-1,-1,-1,-1,250,-1,9,-1,-1,220,280,,9999,0,0,1,FEW 25,1,0,-1,11,997,RJCJ 100300Z 25009KT 220V280 9999 FEW025 00/M11 Q0997 RMK     1CU025 A2947=,
20180110_040000.004,0,RJCJ,,,,0,20180110040000,-1,-1,-1,-1,240,-1,14,-1,-1,220,280,,9999,0,0,1,FEW 25,-1,0,-1,11,998,RJCJ 100400Z 24014KT 220V280 9999 FEW025 M00/M11 Q0998 RMK     1CU025 A2948=,
20180110_050000.003,0,RJCJ,,,,0,20180110050000,-1,-1,-1,-1,240,-1,14,-1,-1,210,280,,9999,0,0,2,FEW 25   SCT 40,-1,0,-1,11,999,RJCJ 100500Z 24014KT 210V280 9999 FEW025 SCT040 M00/M11 Q0999     RMK 1CU025 3CU040 A2950=,
20180110_060000.003,0,RJCJ,,,,0,20180110060000,-1,-1,-1,-1,300,-1,12,-1,-1,-1,-1,,9999,0,0,2,FEW 25   SCT 40,-1,0,-1,14,999,RJCJ 100600Z 30012KT 9999 FEW025 SCT040 M00/M14 Q0999 RMK     1CU025 3CU040 A2952=,
20180110_070000.003,0,RJCJ,,,,0,20180110070000,-1,-1,-1,-1,300,-1,9,-1,-1,270,330,,9999,0,0,1,FEW 20,-1,1,-1,14,1000,RJCJ 100700Z 30009KT 270V330 9999 FEW020 M01/M14 Q1000 RMK     1CU020 A2955=,
20180110_080000.003,0,RJCJ,,,,0,20180110080000,-1,-1,-1,-1,250,-1,5,-1,-1,220,300,,9999,0,0,1,FEW 20,-1,2,-1,13,1001,RJCJ 100800Z 25005KT 220V300 9999 FEW020 M02/M13 Q1001 RMK     1CU020 A2959=,
20180110_090000.003,0,RJCJ,,,,0,20180110090000,-1,-1,-1,-1,240,-1,8,-1,-1,-1,-1,,9999,0,0,1,FEW 20,-1,3,-1,12,1002,RJCJ 100900Z 24008KT 9999 FEW020 M03/M12 Q1002 RMK 1CU020     A2961=,
20180110_100000.003,0,RJCJ,,,,0,20180110100000,-1,-1,-1,-1,190,-1,4,-1,-1,-1,-1,,9999,0,0,1,FEW 20,-1,4,-1,12,1003,RJCJ 101000Z 19004KT 9999 FEW020 M04/M12 Q1003 RMK 1CU020     A2963=,
20180110_110000.003,0,RJCJ,,,,0,20180110110000,-1,-1,-1,-1,210,-1,9,-1,-1,-1,-1,,9999,0,0,1,FEW 20,-1,4,-1,12,1004,RJCJ 101100Z 21009KT 9999 FEW020 M04/M12 Q1004 RMK 1CU020     A2965=,
20180110_120000.003,0,RJCJ,,,,0,20180110120000,-1,-1,-1,-1,190,-1,3,-1,-1,140,230,,9999,0,0,1,FEW 20,-1,4,-1,13,1004,RJCJ 101200Z 19003KT 140V230 9999 FEW020 M04/M13 Q1004 RMK     1CU020 A2967=,
20180110_130000.003,0,RJCJ,,,,0,20180110130000,-1,-1,-1,-1,130,-1,6,-1,-1,100,160,,9999,0,0,1,FEW 20,-1,4,-1,13,1004,RJCJ 101300Z 13006KT 100V160 9999 FEW020 M04/M13 Q1004 RMK     1CU020 A2967=,
20180110_140000.003,0,RJCJ,,,,0,20180110140000,-1,-1,-1,-1,160,-1,6,-1,-1,-1,-1,,9999,0,0,1,FEW 20,-1,6,-1,13,1004,RJCJ 101400Z 16006KT 9999 FEW020 M06/M13 Q1004 RMK 1CU020     A2967=,
20180110_150000.003,0,RJCJ,,,,0,20180110150000,-1,-1,-1,-1,210,-1,4,-1,-1,180,240,,9999,0,0,1,FEW 20,-1,5,-1,13,1004,RJCJ 101500Z 21004KT 180V240 9999 FEW020 M05/M13 Q1004 RMK     1CU020 A2967=,
20180110_160000.003,0,RJCJ,,,,0,20180110160000,-1,-1,-1,-1,170,-1,4,-1,-1,-1,-1,,9999,0,0,1,FEW 20,-1,8,-1,13,1005,RJCJ 101600Z 17004KT 9999 FEW020 M08/M13 Q1005 RMK 1CU020     A2968=,
20180110_170000.003,0,RJCJ,,,,0,20180110170000,-1,-1,-1,-1,190,-1,6,-1,-1,-1,-1,,9999,0,0,1,FEW 20,-1,7,-1,13,1005,RJCJ 101700Z 19006KT 9999 FEW020 M07/M13 Q1005 RMK 1CU020     A2969=,
20180110_180000.003,0,RJCJ,,,,0,20180110180000,-1,-1,-1,-1,170,-1,8,-1,-1,-1,-1,,9999,0,0,1,FEW 20,-1,6,-1,12,1005,RJCJ 101800Z 17008KT 9999 FEW020 M06/M12 Q1005 RMK 1CU020     A2970=,
20180110_190000.003,0,RJCJ,,,,0,20180110190000,-1,-1,-1,-1,200,-1,4,-1,-1,180,240,,9999,0,0,1,FEW 20,-1,8,-1,13,1005,RJCJ 101900Z 20004KT 180V240 9999 FEW020 M08/M13 Q1005 RMK     1CU020 A2970=,
20180110_200000.003,0,RJCJ,,,,0,20180110200000,-1,-1,-1,-1,200,-1,6,-1,-1,-1,-1,,9999,0,0,1,FEW 20,-1,8,-1,12,1005,RJCJ 102000Z 20006KT 9999 FEW020 M08/M12 Q1005 RMK 1CU020     A2970=,
20180110_210000.003,0,RJCJ,,,,0,20180110210000,-1,-1,-1,-1,190,-1,5,-1,-1,-1,-1,,9999,0,0,1,FEW 20,-1,7,-1,12,1006,RJCJ 102100Z 19005KT 9999 FEW020 M07/M12 Q1006 RMK 1CU020     A2971 01/M10 R000 S000 SD007=,
20180110_220000.003,0,RJCJ,,,,0,20180110220000,-1,-1,-1,-1,190,-1,6,-1,-1,160,240,,9999,0,0,1,FEW 20,-1,6,-1,12,1007,RJCJ 102200Z 19006KT 160V240 9999 FEW020 M06/M12 Q1007 RMK     1CU020 A2974=,
20180110_230000.004,0,RJCJ,,,,0,20180110230000,-1,-1,-1,-1,0,-1,0,-1,-1,-1,-1,,9999,0,0,1,FEW 20,-1,7,-1,12,1007,RJCJ 102300Z 00000KT 9999 FEW020 M07/M12 Q1007 RMK 1CU020     A2976=,
20180111_000000.003,0,RJCJ,,,,0,20180111000000,-1,-1,-1,-1,130,-1,3,-1,-1,100,170,,9999,0,0,1,FEW 20,-1,7,-1,12,1008,RJCJ 110000Z 13003KT 100V170 9999 FEW020 M07/M12 Q1008 RMK     1CU020 A2978=,
20180111_010000.003,0,RJCJ,,,,0,20180111010000,-1,-1,-1,-1,999,-1,1,-1,-1,-1,-1,,9999,0,0,1,FEW 20,-1,3,-1,11,1008,RJCJ 110100Z VRB01KT 9999 FEW020 M03/M11 Q1008 RMK 1CU020     A2977=,
20180111_020000.003,0,RJCJ,,,,0,20180111020000,-1,-1,-1,-1,70,-1,4,-1,-1,30,120,,9999,0,0,2,FEW 20   BKN 40,-1,2,-1,10,1007,RJCJ 110200Z 07004KT 030V120 9999 FEW020 BKN040 M02/M10 Q1007     RMK 1CU020 6CU040 A2976=,
20180111_030000.002,0,RJCJ,,,,0,20180111030000,-1,-1,-1,-1,160,-1,4,-1,-1,-1,-1,,9999,0,1,3,FEW 10   SCT 20   BKN 40,-1,3,-1,8,1007,RJCJ 110300Z 16004KT 9999 -SHSN FEW010 SCT020 BKN040 M03/M08     Q1007 RMK 1CU010 3CU020 5CU040 A2974 VIS SE 4000M=,- SN SH
20180111_040000.003,0,RJCJ,,,,0,20180111040000,-1,-1,-1,-1,999,-1,2,-1,-1,-1,-1,,9999,0,0,3,FEW 10   SCT 20   BKN 50,-1,3,-1,7,1007,RJCJ 110400Z VRB02KT 9999 FEW010 SCT020 BKN050 M03/M07 Q1007     RMK 1CU010 4CU020 5SC050 A2974=,
20180111_050000.003,0,RJCJ,,,,0,20180111050000,-1,-1,-1,-1,150,-1,8,-1,-1,-1,-1,,9999,0,1,2,FEW 8   SCT 20,-1,3,-1,5,1007,RJCJ 110500Z 15008KT 9999 -SHSN FEW008 SCT020 M03/M05 Q1007     RMK 1CU008 4CU020 A2974 VIS E 8KM=,- SN SH
20180111_060000.003,0,RJCJ,,,,0,20180111060000,-1,-1,-1,-1,130,-1,8,-1,-1,100,170,,9999,0,1,2,FEW 10   BKN 20,-1,3,-1,5,1007,RJCJ 110600Z 13008KT 100V170 9999 -SHSN FEW010 BKN020 M03/M05     Q1007 RMK 1CU010 5CU020 A2975=,- SN SH
20180111_070000.003,0,RJCJ,,,,0,20180111070000,-1,-1,-1,-1,150,-1,8,-1,-1,-1,-1,,9999,0,0,2,FEW 10   SCT 20,-1,4,-1,7,1007,RJCJ 110700Z 15008KT 9999 FEW010 SCT020 M04/M07 Q1007 RMK     1CU010 3CU020 A2976=,
20180111_080000.003,0,RJCJ,,,,0,20180111080000,-1,-1,-1,-1,140,-1,9,-1,-1,-1,-1,,9999,0,0,3,FEW 20   SCT 30   BKN 100,-1,3,-1,8,1008,RJCJ 110800Z 14009KT 9999 FEW020 SCT030 BKN100 M03/M08 Q1008     RMK 1CU020 3CU030 7AC100 A2977=,
20180111_090000.003,0,RJCJ,,,,0,20180111090000,-1,-1,-1,-1,150,-1,6,-1,-1,-1,-1,,9999,0,0,2,FEW 20   BKN 60,-1,3,-1,9,1008,RJCJ 110900Z 15006KT 9999 FEW020 BKN060 M03/M09 Q1008 RMK     1CU020 7SC060 A2979=,
20180111_100000.003,0,RJCJ,,,,0,20180111100000,-1,-1,-1,-1,170,-1,6,-1,-1,-1,-1,,9999,0,0,3,FEW 20   BKN 60   BKN 100,-1,2,-1,8,1008,RJCJ 111000Z 17006KT 9999 FEW020 BKN060 BKN100 M02/M08 Q1008     RMK 1CU020 5SC060 7AC100 A2979=,
20180111_110000.003,0,RJCJ,,,,0,20180111110000,-1,-1,-1,-1,160,-1,6,-1,-1,-1,-1,,9999,0,1,3,FEW 20   BKN 40   BKN 80,-1,2,-1,6,1009,RJCJ 111100Z 16006KT 9999 -SHSN FEW020 BKN040 BKN080 M02/M06     Q1009 RMK 1CU020 5CU040 7AC080 A2980=,- SN SH
20180111_120000.003,0,RJCJ,,,,0,20180111120000,-1,-1,-1,-1,120,-1,9,-1,-1,-1,-1,,9999,0,1,3,SCT 20   BKN 40   BKN 80,-1,3,-1,5,1008,RJCJ 111200Z 12009KT 9999 -SHSN SCT020 BKN040 BKN080 M03/M05     Q1008 RMK 3CU020 5CU040 7AC080 A2979 VIS NW 4000M=,- SN SH
20180111_130000.003,0,RJCJ,,,,0,20180111130000,-1,-1,-1,-1,120,-1,7,-1,-1,-1,-1,,4000,0,1,3,FEW 10   SCT 20   BKN 40,-1,3,-1,4,1008,RJCJ 111300Z 12007KT 4000 -SHSN FEW010 SCT020 BKN040 M03/M04     Q1008 RMK 1CU010 3CU020 7CU040 A2979 VIS NW-N 2500M=,- SN SH
20180111_140000.003,0,RJCJ,,,,0,20180111140000,-1,-1,-1,-1,110,-1,7,-1,-1,-1,-1,,1000,1,1,3,FEW 6   BKN 8   OVC 10,-1,3,-1,4,1008,RJCJ 111400Z 11007KT 1000 R18/P1800N -SHSN FEW006 BKN008     OVC010 M03/M04 Q1008 RMK 1CU006 5CU008 8CU010 A2979 VIS           SE-S 800M=,- SN SH
20180111_150000.003,0,RJCJ,,,,0,20180111150000,-1,-1,-1,-1,100,-1,9,-1,-1,-1,-1,,4500,0,1,3,FEW 8   SCT 10   BKN 20,-1,3,-1,4,1008,RJCJ 111500Z 10009KT 4500 -SHSN FEW008 SCT010 BKN020 M03/M04     Q1008 RMK 1CU008 3CU010 7CU020 A2977 VIS S-SW 3000M=,- SN SH
20180111_160000.003,0,RJCJ,,,,0,20180111160000,-1,-1,-1,-1,100,-1,7,-1,-1,-1,-1,,4500,0,1,3,FEW 8   SCT 10   BKN 20,-1,3,-1,5,1007,RJCJ 111600Z 10007KT 4500 -SHSN FEW008 SCT010 BKN020 M03/M05     Q1007 RMK 1CU008 3CU010 7CU020 A2976 VIS S-SW 3000M=,- SN SH
20180111_170000.003,0,RJCJ,,,,0,20180111170000,-1,-1,-1,-1,60,-1,7,-1,-1,-1,-1,,600,1,1,1,VV 5,-1,3,-1,4,1007,RJCJ 111700Z 06007KT 0600 R18/0900VP1800D SHSN VV005 M03/M04     Q1007 RMK A2975 R1400=,SN SH
20180111_180000.003,0,RJCJ,,,,0,20180111180000,-1,-1,-1,-1,30,-1,12,-1,-1,-1,-1,,700,1,1,1,VV 5,-1,3,-1,4,1007,RJCJ 111800Z 03012KT 0700 R36/P1800N SHSN VV005 M03/M04 Q1007     RMK A2974=,SN SH
20180111_190000.003,0,RJCJ,,,,0,20180111190000,-1,-1,-1,-1,340,-1,17,-1,-1,-1,-1,,2500,0,1,3,FEW 4   SCT 5   BKN 8,-1,5,-1,6,1007,RJCJ 111900Z 34017KT 2500 -SHSN FEW004 SCT005 BKN008 M05/M06     Q1007 RMK 1ST004 3ST005 7CU008 A2976 VIS S 1500M=,- SN SH
20180111_200000.003,0,RJCJ,,,,0,20180111200000,-1,-1,-1,-1,340,-1,15,-1,-1,-1,-1,,4000,0,2,3,FEW 5   BKN 20   BKN 40,-1,5,-1,7,1008,RJCJ 112000Z 34015KT 4000 -SHSN DRSN FEW005 BKN020 BKN040     M05/M07 Q1008 RMK 1ST005 6CU020 7CU040 A2978=,- SN SH; DR SN
20180111_210000.003,0,RJCJ,,,,0,20180111210000,-1,-1,-1,-1,330,-1,12,-1,-1,-1,-1,,8000,0,1,3,FEW 8   SCT 20   BKN 35,-1,5,-1,8,1009,RJCJ 112100Z 33012KT 8000 -SHSN FEW008 SCT020 BKN035 M05/M08     Q1009 RMK 1CU008 3CU020 5CU035 A2982 M02/M06 R000 S011           SD012=,- SN SH
20180111_220000.004,0,RJCJ,,,,0,20180111220000,-1,-1,-1,-1,330,-1,13,-1,-1,-1,-1,,9999,0,0,3,FEW 8   SCT 20   BKN 120,-1,6,-1,10,1011,RJCJ 112200Z 33013KT 9999 FEW008 SCT020 BKN120 M06/M10 Q1011     RMK 1CU008 3CU020 5AC120 A2986=,
20180111_230000.003,0,RJCJ,,,,0,20180111230000,-1,-1,-1,-1,330,-1,11,-1,-1,-1,-1,,9999,0,0,3,FEW 8   SCT 20   BKN 120,-1,6,-1,10,1012,RJCJ 112300Z 33011KT 9999 FEW008 SCT020 BKN120 M06/M10 Q1012     RMK 1CU008 3CU020 5AC120 A2990=,
20180112_000000.003,0,RJCJ,,,,0,20180112000000,-1,-1,-1,-1,340,-1,12,-1,-1,-1,-1,,9999,0,0,3,FEW 8   SCT 80   BKN 200,-1,6,-1,10,1013,RJCJ 120000Z 34012KT 9999 FEW008 SCT080 BKN200 M06/M10 Q1013     RMK 1CU008 3AC080 A2992=,
20180112_010000.004,0,RJCJ,,,,0,20180112010000,-1,-1,-1,-1,330,-1,11,-1,-1,-1,-1,,9999,0,0,2,FEW 20   BKN 200,-1,5,-1,10,1014,RJCJ 120100Z 33011KT 9999 FEW020 BKN200 M05/M10 Q1014 RMK     2CU020 A2995=,
20180112_020000.003,0,RJCJ,,,,0,20180112020000,-1,-1,-1,-1,310,-1,11,-1,-1,-1,-1,,9999,0,0,3,FEW 20   SCT 120   BKN 200,-1,4,-1,10,1014,RJCJ 120200Z 31011KT 9999 FEW020 SCT120 BKN200 M04/M10 Q1014     RMK 1CU020 3AC120 A2995=,
20180112_030000.003,0,RJCJ,,,,0,20180112030000,-1,-1,-1,-1,330,-1,10,-1,-1,-1,-1,,9999,0,0,1,FEW 20,-1,3,-1,10,1013,RJCJ 120300Z 33010KT 9999 FEW020 M03/M10 Q1013 RMK 1CU020     A2994=,
20180112_040000.003,0,RJCJ,,,,0,20180112040000,-1,-1,-1,-1,340,-1,9,-1,-1,-1,-1,,9999,0,0,1,FEW 20,-1,3,-1,10,1013,RJCJ 120400Z 34009KT 9999 FEW020 M03/M10 Q1013 RMK 1CU020     A2994=,
20180112_050000.004,0,RJCJ,,,,0,20180112050000,-1,-1,-1,-1,340,-1,8,-1,-1,-1,-1,,9999,0,0,1,FEW 20,-1,2,-1,12,1014,RJCJ 120500Z 34008KT 9999 FEW020 M02/M12 Q1014 RMK 1CU020     A2995=,
20180112_060000.003,0,RJCJ,,,,0,20180112060000,-1,-1,-1,-1,350,-1,7,-1,-1,-1,-1,,9999,0,0,2,FEW 20   SCT 120,-1,4,-1,11,1014,RJCJ 120600Z 35007KT 9999 FEW020 SCT120 M04/M11 Q1014 RMK     1CU020 3AC120 A2997=,
20180112_070000.004,0,RJCJ,,,,0,20180112070000,-1,-1,-1,-1,330,-1,7,-1,-1,-1,-1,,9999,0,0,2,FEW 20   BKN 90,-1,3,-1,11,1015,RJCJ 120700Z 33007KT 9999 FEW020 BKN090 M03/M11 Q1015 RMK     1CU020 6AC090 A2999=,
20180112_080000.003,0,RJCJ,,,,0,20180112080000,-1,-1,-1,-1,340,-1,8,-1,-1,-1,-1,,9999,0,0,2,FEW 20   SCT 90,-1,3,-1,11,1015,RJCJ 120800Z 34008KT 9999 FEW020 SCT090 M03/M11 Q1015 RMK     1CU020 4AC090 A3000=,
20180112_090000.003,0,RJCJ,,,,0,20180112090000,-1,-1,-1,-1,350,-1,6,-1,-1,-1,-1,,9999,0,0,2,FEW 20   BKN 80,-1,4,-1,11,1016,RJCJ 120900Z 35006KT 9999 FEW020 BKN080 M04/M11 Q1016 RMK     1CU020 5AC080 A3001=,
20180112_100000.003,0,RJCJ,,,,0,20180112100000,-1,-1,-1,-1,10,-1,6,-1,-1,-1,-1,,9999,0,0,2,FEW 20   BKN 80,-1,5,-1,11,1016,RJCJ 121000Z 01006KT 9999 FEW020 BKN080 M05/M11 Q1016 RMK     1CU020 6AC080 A3002=,
20180112_110000.003,0,RJCJ,,,,0,20180112110000,-1,-1,-1,-1,20,-1,5,-1,-1,-1,-1,,9999,0,0,2,FEW 20   BKN 80,-1,8,-1,11,1017,RJCJ 121100Z 02005KT 9999 FEW020 BKN080 M08/M11 Q1017 RMK     1CU020 6AC080 A3004=,
20180112_120000.003,0,RJCJ,,,,0,20180112120000,-1,-1,-1,-1,330,-1,6,-1,-1,-1,-1,,9999,0,0,2,FEW 20   BKN 80,-1,7,-1,10,1018,RJCJ 121200Z 33006KT 9999 FEW020 BKN080 M07/M10 Q1018 RMK     1CU020 7AC080 A3007=,
20180112_130000.003,0,RJCJ,,,,0,20180112130000,-1,-1,-1,-1,330,-1,5,-1,-1,-1,-1,,9999,0,0,2,FEW 20   BKN 80,-1,6,-1,8,1018,RJCJ 121300Z 33005KT 9999 FEW020 BKN080 M06/M08 Q1018 RMK     1CU020 7AC080 A3009=,
20180112_140000.003,0,RJCJ,,,,0,20180112140000,-1,-1,-1,-1,350,-1,5,-1,-1,-1,-1,,9999,0,1,2,FEW 40   BKN 80,-1,7,-1,8,1019,RJCJ 121400Z 35005KT 9999 -SHSN FEW040 BKN080 M07/M08 Q1019     RMK 2CU040 6AC080 A3009=,- SN SH
20180112_150000.003,0,RJCJ,,,,0,20180112150000,-1,-1,-1,-1,350,-1,6,-1,-1,-1,-1,,9999,0,0,2,FEW 20   SCT 80,-1,7,-1,9,1019,RJCJ 121500Z 35006KT 9999 FEW020 SCT080 M07/M09 Q1019 RMK     1CU020 3AC080 A3009=,
20180112_160000.003,0,RJCJ,,,,0,20180112160000,-1,-1,-1,-1,350,-1,2,-1,-1,-1,-1,,9999,0,0,2,FEW 20   SCT 70,-1,9,-1,10,1019,RJCJ 121600Z 35002KT 9999 FEW020 SCT070 M09/M10 Q1019 RMK     1CU020 3AC070 A3009=,
20180112_170000.003,0,RJCJ,,,,0,20180112170000,-1,-1,-1,-1,999,-1,2,-1,-1,-1,-1,,9999,0,0,2,FEW 20   BKN 80,-1,10,-1,11,1019,RJCJ 121700Z VRB02KT 9999 FEW020 BKN080 M10/M11 Q1019 RMK     1CU020 5AC080 A3011=,
20180112_180000.003,0,RJCJ,,,,0,20180112180000,-1,-1,-1,-1,999,-1,2,-1,-1,-1,-1,,9999,0,1,2,FEW 20   BKN 50,-1,10,-1,11,1019,RJCJ 121800Z VRB02KT 9999 -SHSN FEW020 BKN050 M10/M11 Q1019     RMK 1CU020 5CU050 A3011=,- SN SH
20180112_190000.003,0,RJCJ,,,,0,20180112190000,-1,-1,-1,-1,20,-1,3,-1,-1,-1,-1,,9999,0,0,2,FEW 20   SCT 60,-1,12,-1,13,1019,RJCJ 121900Z 02003KT 9999 FEW020 SCT060 M12/M13 Q1019 RMK     1CU020 3SC060 A3011=,
20180112_200000.004,0,RJCJ,,,,0,20180112200000,-1,-1,-1,-1,340,-1,3,-1,-1,-1,-1,,9999,0,0,2,FEW 3   BKN 4,-1,12,-1,13,1019,RJCJ 122000Z 34003KT 9999 FEW003 BKN004 M12/M13 Q1019 RMK     1ST003 5ST004 A3011 VIS E 5KM=,
20180112_210000.003,0,RJCJ,,,,0,20180112210000,-1,-1,-1,-1,270,-1,3,-1,-1,-1,-1,,9999,0,0,1,FEW 4,-1,14,-1,16,1019,RJCJ 122100Z 27003KT 9999 FEW004 M14/M16 Q1019 RMK 1ST004     A3012 M02/M15 R001 S000 SD018=,
20180112_220000.003,0,RJCJ,,,,0,20180112220000,-1,-1,-1,-1,0,-1,0,-1,-1,-1,-1,,9999,0,0,1,FEW 6,-1,14,-1,15,1020,RJCJ 122200Z 00000KT 9999 FEW006 M14/M15 Q1020 RMK 1ST006     A3013=,
20180112_230000.003,0,RJCJ,,,,0,20180112230000,-1,-1,-1,-1,0,-1,0,-1,-1,-1,-1,,9999,0,0,1,FEW 40,-1,14,-1,16,1020,RJCJ 122300Z 00000KT 9999 FEW040 M14/M16 Q1020 RMK 1CU040     A3014=,
20180113_000000.003,0,RJCJ,,,,0,20180113000000,-1,-1,-1,-1,0,-1,0,-1,-1,-1,-1,,9999,0,0,1,FEW 40,-1,14,-1,15,1020,RJCJ 130000Z 00000KT 9999 FEW040 M14/M15 Q1020 RMK 1CU040     A3015=,
20180113_010000.004,0,RJCJ,,,,0,20180113010000,-1,-1,-1,-1,999,-1,1,-1,-1,-1,-1,,9999,0,0,1,FEW 30,-1,10,-1,12,1020,RJCJ 130100Z VRB01KT 9999 FEW030 M10/M12 Q1020 RMK 1CU030     A3014=,
20180113_020000.003,0,RJCJ,,,,0,20180113020000,-1,-1,-1,-1,0,-1,0,-1,-1,-1,-1,,9999,0,0,1,FEW 30,-1,6,-1,10,1020,RJCJ 130200Z 00000KT 9999 FEW030 M06/M10 Q1020 RMK 1CU030     A3012=,
20180113_030000.003,0,RJCJ,,,,0,20180113030000,-1,-1,-1,-1,0,-1,0,-1,-1,-1,-1,,9999,0,0,1,FEW 30,-1,3,-1,8,1019,RJCJ 130300Z 00000KT 9999 FEW030 M03/M08 Q1019 RMK 1CU030     A3011=,
20180113_040000.003,0,RJCJ,,,,0,20180113040000,-1,-1,-1,-1,20,-1,2,-1,-1,-1,-1,,9999,0,0,1,FEW 30,-1,3,-1,11,1019,RJCJ 130400Z 02002KT 9999 FEW030 M03/M11 Q1019 RMK 2CU030     A3009=,
20180113_050000.003,0,RJCJ,,,,0,20180113050000,-1,-1,-1,-1,999,-1,1,-1,-1,-1,-1,,9999,0,0,1,FEW 40,-1,2,-1,10,1019,RJCJ 130500Z VRB01KT 9999 FEW040 M02/M10 Q1019 RMK 2CU040     A3009=,
20180113_060000.003,0,RJCJ,,,,0,20180113060000,-1,-1,-1,-1,350,-1,5,-1,-1,-1,-1,,9999,0,0,1,FEW 40,-1,2,-1,11,1018,RJCJ 130600Z 35005KT 9999 FEW040 M02/M11 Q1018 RMK 2CU040     A3009=,
20180113_070000.003,0,RJCJ,,,,0,20180113070000,-1,-1,-1,-1,340,-1,5,-1,-1,-1,-1,,9999,0,0,1,FEW 40,-1,5,-1,8,1020,RJCJ 130700Z 34005KT 9999 FEW040 M05/M08 Q1020 RMK 1CU040     A3012=,
20180113_080000.003,0,RJCJ,,,,0,20180113080000,-1,-1,-1,-1,340,-1,7,-1,-1,-1,-1,,9999,0,0,1,FEW 40,-1,6,-1,9,1020,RJCJ 130800Z 34007KT 9999 FEW040 M06/M09 Q1020 RMK 1CU040     A3014=,
20180113_090000.003,0,RJCJ,,,,0,20180113090000,-1,-1,-1,-1,340,-1,4,-1,-1,-1,-1,,9999,0,1,2,FEW 20   SCT 35,-1,8,-1,10,1021,RJCJ 130900Z 34004KT 9999 -SHSN FEW020 SCT035 M08/M10 Q1021     RMK 1CU020 4CU035 A3016=,- SN SH
20180113_100000.003,0,RJCJ,,,,0,20180113100000,-1,-1,-1,-1,360,-1,3,-1,-1,-1,-1,,9999,0,1,2,FEW 25   SCT 35,-1,8,-1,9,1021,RJCJ 131000Z 36003KT 9999 -SHSN FEW025 SCT035 M08/M09 Q1021     RMK 1CU025 3CU035 A3017=,- SN SH
20180113_110000.003,0,RJCJ,,,,0,20180113110000,-1,-1,-1,-1,20,-1,1,-1,-1,-1,-1,,9999,0,1,2,FEW 10   SCT 30,-1,8,-1,9,1022,RJCJ 131100Z 02001KT 9999 -SHSN FEW010 SCT030 M08/M09 Q1022     RMK 1ST010 4CU030 A3018=,- SN SH
20180113_120000.003,0,RJCJ,,,,0,20180113120000,-1,-1,-1,-1,310,-1,3,-1,-1,-1,-1,,9999,0,1,1,FEW 35,-1,7,-1,8,1022,RJCJ 131200Z 31003KT 9999 PRFG FEW035 M07/M08 Q1022 RMK 1CU035     A3019 FG BANK 3000M SE-S=,PR FG
20180113_130000.003,0,RJCJ,,,,0,20180113130000,-1,-1,-1,-1,280,-1,3,-1,-1,-1,-1,,3000,1,1,2,SCT 1   BKN 2,-1,9,-1,10,1022,RJCJ 131300Z 28003KT 3000 R36/0900V1100D PRFG SCT001 BKN002     M09/M10 Q1022 RMK 3ST001 5ST002 A3020 R0900 FG BANK 1000M           W-NE=,PR FG
20180113_140000.004,0,RJCJ,,,,0,20180113140000,-1,-1,-1,-1,0,-1,0,-1,-1,-1,-1,,600,1,1,1,BKN 0,-1,10,-1,11,1022,RJCJ 131400Z 00000KT 0600 R36/0650V1000U FZFG BKN000 M10/M11     Q1022 RMK 7ST000 A3020 R0750=,FZ FG
20180113_150000.003,0,RJCJ,,,,0,20180113150000,-1,-1,-1,-1,999,-1,1,-1,-1,-1,-1,,1500,1,2,2,SCT 0   BKN 1,-1,9,-1,10,1023,RJCJ 131500Z VRB01KT 1500 R36/P1800N PRFG BR SCT000 BKN001     M09/M10 Q1023 RMK 4ST000 7ST001 A3022 FG BANK 1000M S=,PR FG; BR
20180113_160000.003,0,RJCJ,,,,0,20180113160000,-1,-1,-1,-1,140,-1,1,-1,-1,-1,-1,,9999,0,0,2,FEW 20   BKN 70,-1,10,-1,11,1023,RJCJ 131600Z 14001KT 9999 FEW020 BKN070 M10/M11 Q1023 RMK     1CU020 7AC070 A3022=,
20180113_170000.003,0,RJCJ,,,,0,20180113170000,-1,-1,-1,-1,290,-1,1,-1,-1,-1,-1,,9999,0,0,2,FEW 20   BKN 70,-1,10,-1,11,1023,RJCJ 131700Z 29001KT 9999 FEW020 BKN070 M10/M11 Q1023 RMK     1CU020 5AC070 A3023=,
20180113_180000.003,0,RJCJ,,,,0,20180113180000,-1,-1,-1,-1,310,-1,2,-1,-1,-1,-1,,9999,0,0,1,FEW 20,-1,12,-1,14,1024,RJCJ 131800Z 31002KT 9999 FEW020 M12/M14 Q1024 RMK 1CU020     A3024=,
20180113_190000.004,0,RJCJ,,,,0,20180113190000,-1,-1,-1,-1,999,-1,1,-1,-1,-1,-1,,9999,0,0,1,FEW 20,-1,14,-1,15,1024,RJCJ 131900Z VRB01KT 9999 FEW020 M14/M15 Q1024 RMK 1CU020     A3025=,
20180113_200000.004,0,RJCJ,,,,0,20180113200000,-1,-1,-1,-1,280,-1,3,-1,-1,210,10,,9999,0,0,1,FEW 20,-1,16,-1,19,1024,RJCJ 132000Z 28003KT 210V010 9999 FEW020 M16/M19 Q1024 RMK     1CU020 A3026=,
20180113_210000.003,0,RJCJ,,,,0,20180113210000,-1,-1,-1,-1,999,-1,1,-1,-1,-1,-1,,9999,0,0,2,FEW 20   BKN 50,-1,15,-1,16,1025,RJCJ 132100Z VRB01KT 9999 FEW020 BKN050 M15/M16 Q1025 RMK     1CU020 6SC050 A3028 M01/M17 R000 S000 SD018=,
20180113_220000.003,0,RJCJ,,,,0,20180113220000,-1,-1,-1,-1,360,-1,3,-1,-1,330,30,,9999,0,0,2,FEW 20   SCT 50,-1,13,-1,14,1026,RJCJ 132200Z 36003KT 330V030 9999 FEW020 SCT050 M13/M14 Q1026     RMK 1CU020 3SC050 A3031=,
20180113_230000.003,0,RJCJ,,,,0,20180113230000,-1,-1,-1,-1,999,-1,1,-1,-1,-1,-1,,9999,0,0,2,FEW 20   SCT 50,-1,14,-1,15,1027,RJCJ 132300Z VRB01KT 9999 FEW020 SCT050 M14/M15 Q1027 RMK     1CU020 4SC050 A3033=,
20180114_000000.004,0,RJCJ,,,,0,20180114000000,-1,-1,-1,-1,10,-1,3,-1,-1,-1,-1,,9999,0,0,2,FEW 20   BKN 45,-1,11,-1,13,1027,RJCJ 140000Z 01003KT 9999 FEW020 BKN045 M11/M13 Q1027 RMK     1CU020 5CU045 A3035=,
20180114_010000.003,0,RJCJ,,,,0,20180114010000,-1,-1,-1,-1,350,-1,4,-1,-1,330,30,,9999,0,1,2,FEW 20   BKN 40,-1,7,-1,9,1028,RJCJ 140100Z 35004KT 330V030 9999 -SHSN FEW020 BKN040 M07/M09     Q1028 RMK 1CU020 6CU040 A3037=,- SN SH
20180114_020000.003,0,RJCJ,,,,0,20180114020000,-1,-1,-1,-1,340,-1,3,-1,-1,-1,-1,,9999,0,0,2,FEW 20   BKN 40,-1,6,-1,9,1027,RJCJ 140200Z 34003KT 9999 FEW020 BKN040 M06/M09 Q1027 RMK     1CU020 6CU040 A3036=,
20180114_030000.003,0,RJCJ,,,,0,20180114030000,-1,-1,-1,-1,999,-1,1,-1,-1,-1,-1,,9999,0,0,1,FEW 20,-1,5,-1,8,1027,RJCJ 140300Z VRB01KT 9999 FEW020 M05/M08 Q1027 RMK 1CU020     A3033=,
20180114_040000.003,0,RJCJ,,,,0,20180114040000,-1,-1,-1,-1,0,-1,0,-1,-1,-1,-1,,9999,0,0,1,FEW 20,-1,3,-1,8,1026,RJCJ 140400Z 00000KT 9999 FEW020 M03/M08 Q1026 RMK 1CU020     A3031=,
20180114_050000.003,0,RJCJ,,,,0,20180114050000,-1,-1,-1,-1,20,-1,4,-1,-1,-1,-1,,9999,0,0,2,FEW 20   BKN 45,-1,2,-1,8,1026,RJCJ 140500Z 02004KT 9999 FEW020 BKN045 M02/M08 Q1026 RMK     1CU020 5CU045 A3032=,
20180114_060000.004,0,RJCJ,,,,0,20180114060000,-1,-1,-1,-1,350,-1,4,-1,-1,-1,-1,,9999,0,0,2,FEW 20   BKN 40,-1,3,-1,8,1027,RJCJ 140600Z 35004KT 9999 FEW020 BKN040 M03/M08 Q1027 RMK     1CU020 5CU040 A3033=,
20180114_070000.003,0,RJCJ,,,,0,20180114070000,-1,-1,-1,-1,340,-1,2,-1,-1,-1,-1,,9999,0,0,2,FEW 20   BKN 40,-1,2,-1,7,1027,RJCJ 140700Z 34002KT 9999 FEW020 BKN040 M02/M07 Q1027 RMK     1CU020 7CU040 A3035=,
20180114_080000.003,0,RJCJ,,,,0,20180114080000,-1,-1,-1,-1,10,-1,2,-1,-1,-1,-1,,9999,0,0,2,FEW 20   BKN 40,-1,3,-1,7,1026,RJCJ 140800Z 01002KT 9999 FEW020 BKN040 M03/M07 Q1026 RMK     1CU020 7CU040 A3033=,
20180114_090000.003,0,RJCJ,,,,0,20180114090000,-1,-1,-1,-1,999,-1,2,-1,-1,-1,-1,,9999,0,0,2,FEW 20   SCT 40,-1,4,-1,8,1026,RJCJ 140900Z VRB02KT 9999 FEW020 SCT040 M04/M08 Q1026 RMK     1CU020 4CU040 A3033=,
20180114_100000.003,0,RJCJ,,,,0,20180114100000,-1,-1,-1,-1,240,-1,3,-1,-1,210,280,,9999,0,0,1,FEW 20,-1,6,-1,9,1026,RJCJ 141000Z 24003KT 210V280 9999 FEW020 M06/M09 Q1026 RMK     1CU020 A3032=,
20180114_110000.003,0,RJCJ,,,,0,20180114110000,-1,-1,-1,-1,999,-1,2,-1,-1,-1,-1,,9999,0,0,1,FEW 20,-1,9,-1,11,1026,RJCJ 141100Z VRB02KT 9999 FEW020 M09/M11 Q1026 RMK 1CU020     A3032=,
20180114_120000.003,0,RJCJ,,,,0,20180114120000,-1,-1,-1,-1,999,-1,2,-1,-1,-1,-1,,9999,0,0,2,FEW 20   SCT 35,-1,11,-1,12,1026,RJCJ 141200Z VRB02KT 9999 FEW020 SCT035 M11/M12 Q1026 RMK     1CU020 3CU035 A3031=,
20180114_130000.004,0,RJCJ,,,,0,20180114130000,-1,-1,-1,-1,200,-1,5,-1,-1,-1,-1,,9999,0,0,1,FEW 20,-1,7,-1,9,1026,RJCJ 141300Z 20005KT 9999 FEW020 M07/M09 Q1026 RMK 1CU020     A3030=,
20180114_140000.003,0,RJCJ,,,,0,20180114140000,-1,-1,-1,-1,999,-1,2,-1,-1,-1,-1,,9999,0,0,2,FEW 20   BKN 40,-1,11,-1,12,1025,RJCJ 141400Z VRB02KT 9999 FEW020 BKN040 M11/M12 Q1025 RMK     1CU020 5CU040 A3029=,
20180114_150000.003,0,RJCJ,,,,0,20180114150000,-1,-1,-1,-1,190,-1,3,-1,-1,130,220,,9999,0,0,2,FEW 20   BKN 40,-1,8,-1,10,1024,RJCJ 141500Z 19003KT 130V220 9999 FEW020 BKN040 M08/M10 Q1024     RMK 1CU020 5CU040 A3026=,
20180114_160000.003,0,RJCJ,,,,0,20180114160000,-1,-1,-1,-1,150,-1,4,-1,-1,130,200,,9999,0,0,2,FEW 20   BKN 40,-1,7,-1,10,1024,RJCJ 141600Z 15004KT 130V200 9999 FEW020 BKN040 M07/M10 Q1024     RMK 1CU020 5CU040 A3024=,
20180114_170000.003,0,RJCJ,,,,0,20180114170000,-1,-1,-1,-1,190,-1,3,-1,-1,-1,-1,,9999,0,0,2,FEW 20   SCT 40,-1,9,-1,11,1023,RJCJ 141700Z 19003KT 9999 FEW020 SCT040 M09/M11 Q1023 RMK     1CU020 4CU040 A3024=,
20180114_180000.004,0,RJCJ,,,,0,20180114180000,-1,-1,-1,-1,170,-1,5,-1,-1,-1,-1,,9999,0,0,2,FEW 20   BKN -9999,-1,8,-1,10,1023,RJCJ 141800Z 17005KT 9999 FEW020 BKN/// M08/M10 Q1023 RMK     1CU020 A3021=,
20180114_190000.003,0,RJCJ,,,,0,20180114190000,-1,-1,-1,-1,170,-1,8,-1,-1,-1,-1,,9999,0,0,2,FEW 40   BKN 180,-1,6,-1,9,1022,RJCJ 141900Z 17008KT 9999 FEW040 BKN180 M06/M09 Q1022 RMK     2CU040 5AC180 A3018=,
20180114_200000.004,0,RJCJ,,,,0,20180114200000,-1,-1,-1,-1,160,-1,7,-1,-1,-1,-1,,9999,0,0,2,FEW 50   BKN 180,-1,6,-1,9,1021,RJCJ 142000Z 16007KT 9999 FEW050 BKN180 M06/M09 Q1021 RMK     1SC050 7AC180 A3016=,
20180114_210000.003,0,RJCJ,,,,0,20180114210000,-1,-1,-1,-1,160,-1,7,-1,-1,-1,-1,,9999,0,0,3,FEW 40   BKN 50   BKN 180,-1,5,-1,8,1020,RJCJ 142100Z 16007KT 9999 FEW040 BKN050 BKN180 M05/M08 Q1020     RMK 1SC040 5SC050 7AC180 A3013 M02/M11 R000 S000 SD016=,
20180114_220000.003,0,RJCJ,,,,0,20180114220000,-1,-1,-1,-1,170,-1,10,-1,-1,-1,-1,,9999,0,0,3,FEW 20   SCT 50   BKN 150,-1,3,-1,7,1019,RJCJ 142200Z 17010KT 9999 FEW020 SCT050 BKN150 M03/M07 Q1019     RMK 1SC020 4SC050 7AC150 A3010=,
20180114_230000.003,0,RJCJ,,,,0,20180114230000,-1,-1,-1,-1,170,-1,13,-1,-1,-1,-1,,9999,0,0,3,FEW 20   SCT 50   BKN 150,-1,2,-1,6,1018,RJCJ 142300Z 17013KT 9999 FEW020 SCT050 BKN150 M02/M06 Q1018     RMK 1SC020 3SC050 7AC150 A3007=,
20180115_000000.003,0,RJCJ,,,,0,20180115000000,-1,-1,-1,-1,170,-1,11,-1,-1,-1,-1,,9999,0,0,3,FEW 25   SCT 70   BKN 230,1,0,-1,4,1017,RJCJ 150000Z 17011KT 9999 FEW025 SCT070 BKN230 00/M04 Q1017     RMK 2CU025 3AC070 A3005=,
20180115_010000.003,0,RJCJ,,,,0,20180115010000,-1,-1,-1,-1,180,-1,13,-1,-1,-1,-1,,9999,0,1,3,FEW 10   SCT 20   BKN 35,1,2,-1,0,1016,RJCJ 150100Z 18013KT 9999 -SHRASN FEW010 SCT020 BKN035 02/M00     Q1016 RMK 1CU010 4CU020 7CU035 A3001 VIS SW-W 5KM=,- RA SN SH
20180115_020000.003,0,RJCJ,,,,0,20180115020000,-1,-1,-1,-1,160,-1,14,-1,24,-1,-1,,5000,0,2,3,FEW 8   SCT 10   BKN 15,1,3,1,0,1014,RJCJ 150200Z 16014G24KT 5000 -SHRA BR FEW008 SCT010 BKN015     03/00 Q1014 RMK 2ST008 3ST010 6CU015 A2996 VIS SE-W           4500M=,- RA SH; BR
20180115_030000.003,0,RJCJ,,,,0,20180115030000,-1,-1,-1,-1,170,-1,15,-1,-1,-1,-1,,9999,0,1,3,FEW 6   BKN 10   OVC 15,1,3,1,1,1012,RJCJ 150300Z 17015KT 9999 -SHRA FEW006 BKN010 OVC015 03/01     Q1012 RMK 1ST006 6CU010 8CU015 A2989=,- RA SH
20180115_040000.003,0,RJCJ,,,,0,20180115040000,-1,-1,-1,-1,200,-1,15,-1,-1,-1,-1,,7000,0,1,3,FEW 8   BKN 10   OVC 15,1,2,1,1,1011,RJCJ 150400Z 20015KT 7000 SHRASN FEW008 BKN010 OVC015 02/01     Q1011 RERA RMK 1ST008 6CU010 8CU015 A2987=,RA SN SH
20180115_050000.003,0,RJCJ,,,,0,20180115050000,-1,-1,-1,-1,200,-1,12,-1,-1,-1,-1,,9999,0,0,3,FEW 8   SCT 10   BKN 100,1,3,1,1,1010,RJCJ 150500Z 20012KT 9999 FEW008 SCT010 BKN100 03/01 Q1010     RERASN RMK 1ST008 3CU010 6AC100 A2983=,
20180115_060000.003,0,RJCJ,,,,0,20180115060000,-1,-1,-1,-1,200,-1,10,-1,-1,-1,-1,,9999,0,0,2,FEW 10   SCT 50,1,3,1,1,1010,RJCJ 150600Z 20010KT 9999 FEW010 SCT050 03/01 Q1010 RMK 1CU010     3SC050 A2983=,
20180115_070000.005,0,RJCJ,,,,0,20180115070000,-1,-1,-1,-1,200,-1,6,-1,-1,-1,-1,,9999,0,0,2,FEW 10   SCT 60,1,3,1,1,1010,RJCJ 150700Z 20006KT 9999 FEW010 SCT060 03/01 Q1010 RMK 1CU010     3SC060 A2984=,
20180115_080000.003,0,RJCJ,,,,0,20180115080000,-1,-1,-1,-1,200,-1,6,-1,-1,-1,-1,,9999,0,0,2,FEW 10   SCT 25,1,2,1,1,1010,RJCJ 150800Z 20006KT 9999 FEW010 SCT025 02/01 Q1010 RMK 1CU010     3CU025 A2983=,
20180115_090000.003,0,RJCJ,,,,0,20180115090000,-1,-1,-1,-1,210,-1,7,-1,-1,-1,-1,,9999,0,1,2,SCT 30   BKN 60,1,2,1,0,1010,RJCJ 150900Z 21007KT 9999 -SHRASN SCT030 BKN060 02/00 Q1010     RMK 3CU030 7SC060 A2983=,- RA SN SH
20180115_100000.003,0,RJCJ,,,,0,20180115100000,-1,-1,-1,-1,999,-1,2,-1,-1,-1,-1,,9999,0,0,2,BKN 60   BKN 150,1,1,-1,0,1009,RJCJ 151000Z VRB02KT 9999 BKN060 BKN150 01/M00 Q1009 RMK     5SC060 7AC150 A2982=,
20180115_110000.003,0,RJCJ,,,,0,20180115110000,-1,-1,-1,-1,40,-1,3,-1,-1,-1,-1,,9999,0,0,3,FEW 60   BKN 150   BKN -9999,-1,2,-1,3,1009,RJCJ 151100Z 04003KT 9999 FEW060 BKN150 BKN/// M02/M03 Q1009     RMK 1SC060 5AC150 A2980=,
20180115_120000.003,0,RJCJ,,,,0,20180115120000,-1,-1,-1,-1,150,-1,3,-1,-1,60,200,,5000,0,2,2,FEW 1   BKN -9999,-1,3,-1,4,1009,RJCJ 151200Z 15003KT 060V200 5000 PRFG BR FEW001 BKN///     M03/M04 Q1009 RMK 1ST001 A2981 FG BANK 3000M E-SE=,PR FG; BR
20180115_130000.003,0,RJCJ,,,,0,20180115130000,-1,-1,-1,-1,240,-1,6,-1,-1,-1,-1,,9999,0,0,2,FEW 1   SCT 40,1,0,-1,3,1009,RJCJ 151300Z 24006KT 9999 FEW001 SCT040 00/M03 Q1009 RMK     1ST001 3CU040 A2981=,
20180115_140000.003,0,RJCJ,,,,0,20180115140000,-1,-1,-1,-1,10,-1,5,-1,-1,-1,-1,,7000,0,1,2,FEW 1   SCT 40,-1,3,-1,4,1010,RJCJ 151400Z 01005KT 7000 PRFG FEW001 SCT040 M03/M04 Q1010 RMK     1ST001 3CU040 A2983 FG BANK 3000M NE-E=,PR FG
20180115_150000.003,0,RJCJ,,,,0,20180115150000,-1,-1,-1,-1,999,-1,1,-1,-1,-1,-1,,6000,0,2,2,FEW 1   BKN 40,-1,1,-1,1,1011,RJCJ 151500Z VRB01KT 6000 -SHSN PRFG FEW001 BKN040 M01/M01     Q1011 RMK 1ST001 6CU040 A2986 FG BANK 4000M E-SE=,- SN SH; PR FG
20180115_160000.003,0,RJCJ,,,,0,20180115160000,-1,-1,-1,-1,999,-1,2,-1,-1,-1,-1,,7000,0,0,2,FEW 1   SCT 40,-1,2,-1,3,1011,RJCJ 151600Z VRB02KT 7000 FEW001 SCT040 M02/M03 Q1011 RMK     1ST001 3CU040 A2987=,
20180115_170000.003,0,RJCJ,,,,0,20180115170000,-1,-1,-1,-1,320,-1,4,-1,-1,290,350,,8000,0,1,2,FEW 10   BKN 40,-1,1,-1,2,1012,RJCJ 151700Z 32004KT 290V350 8000 -SHSN FEW010 BKN040 M01/M02     Q1012 RMK 2ST010 6CU040 A2990=,- SN SH
20180115_180000.003,0,RJCJ,,,,0,20180115180000,-1,-1,-1,-1,320,-1,10,-1,-1,-1,-1,,8000,0,0,2,FEW 10   SCT 40,-1,1,-1,5,1013,RJCJ 151800Z 32010KT 8000 FEW010 SCT040 M01/M05 Q1013 RMK     1ST010 4CU040 A2994=,
20180115_190000.003,0,RJCJ,,,,0,20180115190000,-1,-1,-1,-1,320,-1,6,-1,-1,-1,-1,,8000,0,0,1,FEW 10,-1,2,-1,7,1014,RJCJ 151900Z 32006KT 8000 FEW010 M02/M07 Q1014 RMK 1ST010     A2996=,
20180115_200000.003,0,RJCJ,,,,0,20180115200000,-1,-1,-1,-1,999,-1,1,-1,-1,-1,-1,,8000,0,0,1,FEW 10,-1,6,-1,7,1015,RJCJ 152000Z VRB01KT 8000 FEW010 M06/M07 Q1015 RMK 1ST010     A2999=,
20180115_210000.003,0,RJCJ,,,,0,20180115210000,-1,-1,-1,-1,999,-1,2,-1,-1,-1,-1,,9000,0,0,1,FEW 10,-1,6,-1,8,1016,RJCJ 152100Z VRB02KT 9000 FEW010 M06/M08 Q1016 RMK 1ST010     A3002 04/M06 R006 S000 SD014=,
20180115_220000.003,0,RJCJ,,,,0,20180115220000,-1,-1,-1,-1,200,-1,3,-1,-1,-1,-1,,9999,0,0,2,FEW 15   BKN 50,-1,5,-1,7,1017,RJCJ 152200Z 20003KT 9999 FEW015 BKN050 M05/M07 Q1017 RMK     1CU015 7SC050 A3004=,
20180115_230000.003,0,RJCJ,,,,0,20180115230000,-1,-1,-1,-1,200,-1,4,-1,-1,-1,-1,,9999,0,0,3,FEW 35   BKN 50   BKN 150,-1,4,-1,7,1018,RJCJ 152300Z 20004KT 9999 FEW035 BKN050 BKN150 M04/M07 Q1018     RMK 1CU035 5SC050 6AC150 A3006=,
20180115_230000.005,1,RJCJ,,,,0,20180115230000,-1,-1,-1,-1,200,-1,4,-1,-1,-1,-1,,9999,0,0,3,FEW 35   BKN 50   BKN 150,-1,4,-1,7,1018,RJCJ 152300Z 20004KT 9999 FEW035 BKN050 BKN150 M04/M07     Q1018 RMK 1CU035 5SC050 6AC150 A3006=,
20180116_000000.003,0,RJCJ,,,,0,20180116000000,-1,-1,-1,-1,210,-1,8,-1,-1,-1,-1,,9999,0,0,3,FEW 35   BKN 50   BKN 150,-1,1,-1,7,1018,RJCJ 160000Z 21008KT 9999 FEW035 BKN050 BKN150 M01/M07 Q1018     RMK 1CU035 5SC050 5AC150 A3008=,
20180116_010000.003,0,RJCJ,,,,0,20180116010000,-1,-1,-1,-1,210,-1,6,-1,-1,180,250,,9999,0,0,2,FEW 50   BKN 200,-1,0,-1,7,1019,RJCJ 160100Z 21006KT 180V250 9999 FEW050 BKN200 M00/M07 Q1019     RMK 2SC050 A3009=,
20180116_020000.003,0,RJCJ,,,,0,20180116020000,-1,-1,-1,-1,200,-1,4,-1,-1,180,260,,9999,0,0,2,SCT 150   BKN 200,1,1,-1,7,1018,RJCJ 160200Z 20004KT 180V260 9999 SCT150 BKN200 01/M07 Q1018     RMK 3AC150 A3008=,
20180116_030000.003,0,RJCJ,,,,0,20180116030000,-1,-1,-1,-1,240,-1,8,-1,-1,-1,-1,,9999,0,0,2,SCT 130   BKN 200,1,1,-1,7,1018,RJCJ 160300Z 24008KT 9999 SCT130 BKN200 01/M07 Q1018 RMK     4AC130 A3007=,
20180116_040000.003,0,RJCJ,,,,0,20180116040000,-1,-1,-1,-1,250,-1,7,-1,-1,-1,-1,,9999,0,0,3,FEW 35   BKN 110   BKN 200,1,1,-1,8,1017,RJCJ 160400Z 25007KT 9999 FEW035 BKN110 BKN200 01/M08 Q1017     RMK 1SC035 5AC110 A3006=,
20180116_050000.003,0,RJCJ,,,,0,20180116050000,-1,-1,-1,-1,250,-1,6,-1,-1,-1,-1,,9999,0,0,3,FEW 40   BKN 100   BKN 200,1,1,-1,8,1017,RJCJ 160500Z 25006KT 9999 FEW040 BKN100 BKN200 01/M08 Q1017     RMK 1SC040 7AC100 A3006=,
20180116_060000.003,0,RJCJ,,,,0,20180116060000,-1,-1,-1,-1,230,-1,4,-1,-1,-1,-1,,9999,0,0,3,FEW 40   BKN 90   BKN 200,1,0,-1,8,1017,RJCJ 160600Z 23004KT 9999 FEW040 BKN090 BKN200 00/M08 Q1017     RMK 1SC040 6AC090 A3005=,
20180116_070000.003,0,RJCJ,,,,0,20180116070000,-1,-1,-1,-1,0,-1,0,-1,-1,-1,-1,,9999,0,0,3,FEW 40   BKN 100   BKN 200,-1,1,-1,7,1017,RJCJ 160700Z 00000KT 9999 FEW040 BKN100 BKN200 M01/M07 Q1017     RMK 1SC040 7AC100 A3004=,
20180116_080000.003,0,RJCJ,,,,0,20180116080000,-1,-1,-1,-1,360,-1,4,-1,-1,320,60,,9999,0,0,3,FEW 40   BKN 130   BKN -9999,-1,2,-1,7,1017,RJCJ 160800Z 36004KT 320V060 9999 FEW040 BKN130 BKN/// M02/M07     Q1017 RMK 1SC040 6AC130 A3006=,
20180116_090000.003,0,RJCJ,,,,0,20180116090000,-1,-1,-1,-1,999,-1,2,-1,-1,-1,-1,,9999,0,0,3,FEW 40   BKN 130   BKN -9999,-1,2,-1,6,1017,RJCJ 160900Z VRB02KT 9999 FEW040 BKN130 BKN/// M02/M06 Q1017     RMK 1SC040 7AC130 A3005=,
20180116_100000.003,0,RJCJ,,,,0,20180116100000,-1,-1,-1,-1,300,-1,2,-1,-1,-1,-1,,9999,0,0,3,FEW 60   SCT 130   BKN -9999,-1,1,-1,7,1017,RJCJ 161000Z 30002KT 9999 FEW060 SCT130 BKN/// M01/M07 Q1017     RMK 1SC060 4AC130 A3004=,
20180116_110000.005,0,RJCJ,,,,0,20180116110000,-1,-1,-1,-1,270,-1,2,-1,-1,-1,-1,,9999,0,0,3,FEW 50   BKN 90   BKN 110,-1,2,-1,6,1017,RJCJ 161100Z 27002KT 9999 FEW050 BKN090 BKN110 M02/M06 Q1017     RMK 1SC050 5AC090 5AC110 A3003=,
20180116_120000.003,0,RJCJ,,,,0,20180116120000,-1,-1,-1,-1,250,-1,2,-1,-1,-1,-1,,9999,0,0,3,BKN 50   BKN 110   BKN -9999,-1,3,-1,7,1016,RJCJ 161200Z 25002KT 9999 BKN050 BKN110 BKN/// M03/M07 Q1016     RMK 5SC050 6AC110 A3003=,
20180116_130000.003,0,RJCJ,,,,0,20180116130000,-1,-1,-1,-1,999,-1,2,-1,-1,-1,-1,,9999,0,0,3,BKN 50   BKN 100   BKN -9999,-1,2,-1,7,1017,RJCJ 161300Z VRB02KT 9999 BKN050 BKN100 BKN/// M02/M07 Q1017     RMK 5SC050 6AC100 A3004=,
20180116_140000.003,0,RJCJ,,,,0,20180116140000,-1,-1,-1,-1,999,-1,1,-1,-1,-1,-1,,9999,0,0,2,BKN 40   OVC 100,-1,2,-1,6,1017,RJCJ 161400Z VRB01KT 9999 BKN040 OVC100 M02/M06 Q1017 RMK     5CU040 8AC100 A3003=,
20180116_150000.003,0,RJCJ,,,,0,20180116150000,-1,-1,-1,-1,999,-1,1,-1,-1,-1,-1,,9999,0,0,2,BKN 50   BKN 100,-1,2,-1,6,1016,RJCJ 161500Z VRB01KT 9999 BKN050 BKN100 M02/M06 Q1016 RMK     5SC050 7AC100 A3003=,
20180116_160000.003,0,RJCJ,,,,0,20180116160000,-1,-1,-1,-1,999,-1,2,-1,-1,-1,-1,,9999,0,0,3,SCT 50   BKN 80   BKN 100,-1,3,-1,6,1016,RJCJ 161600Z VRB02KT 9999 SCT050 BKN080 BKN100 M03/M06 Q1016     RMK 3SC050 5AC080 7AC100 A3002=,
20180116_170000.003,0,RJCJ,,,,0,20180116170000,-1,-1,-1,-1,280,-1,3,-1,-1,-1,-1,,9999,0,0,3,FEW 50   SCT 100   BKN -9999,-1,3,-1,6,1016,RJCJ 161700Z 28003KT 9999 FEW050 SCT100 BKN/// M03/M06 Q1016     RMK 1SC050 4AC100 A3002=,
20180116_180000.003,0,RJCJ,,,,0,20180116180000,-1,-1,-1,-1,320,-1,1,-1,-1,-1,-1,,9999,0,0,2,FEW 50   BKN 100,-1,5,-1,7,1016,RJCJ 161800Z 32001KT 9999 FEW050 BKN100 M05/M07 Q1016 RMK     1SC050 7AC100 A3001=,
20180116_190000.003,0,RJCJ,,,,0,20180116190000,-1,-1,-1,-1,350,-1,3,-1,-1,-1,-1,,9999,0,0,2,BKN 20   SCT 100,-1,5,-1,6,1016,RJCJ 161900Z 35003KT 9999 BKN020 SCT100 M05/M06 Q1016 RMK     5CU020 4AC100 A3002=,
20180116_200000.003,0,RJCJ,,,,0,20180116200000,-1,-1,-1,-1,310,-1,3,-1,-1,-1,-1,,9999,0,0,3,FEW 10   BKN 15   BKN 20,-1,4,-1,6,1017,RJCJ 162000Z 31003KT 9999 FEW010 BKN015 BKN020 M04/M06 Q1017     RMK 1ST010 6ST015 7CU020 A3005=,
20180116_210000.003,0,RJCJ,,,,0,20180116210000,-1,-1,-1,-1,210,-1,2,-1,-1,-1,-1,,9999,0,1,2,FEW 15   BKN 25,-1,5,-1,7,1018,RJCJ 162100Z 21002KT 9999 -SHSN FEW015 BKN025 M05/M07 Q1018     RMK 1ST015 5CU025 A3007 01/M06 R000 S000 SD013=,- SN SH
20180116_220000.003,0,RJCJ,,,,0,20180116220000,-1,-1,-1,-1,320,-1,4,-1,-1,-1,-1,,7000,0,1,2,FEW 15   SCT 25,-1,5,-1,7,1019,RJCJ 162200Z 32004KT 7000 -SHSN FEW015 SCT025 M05/M07 Q1019     RMK 1ST015 4CU025 A3010=,- SN SH
20180116_230000.003,0,RJCJ,,,,0,20180116230000,-1,-1,-1,-1,350,-1,6,-1,-1,-1,-1,,5000,0,2,1,FEW 15,-1,7,-1,8,1019,RJCJ 162300Z 35006KT 5000 -SHSN BR FEW015 M07/M08 Q1019 RMK     1ST015 A3012=,- SN SH; BR
20180117_000000.004,0,RJCJ,,,,0,20180117000000,-1,-1,-1,-1,330,-1,4,-1,-1,-1,-1,,6000,0,1,2,FEW 8   BKN 20,-1,4,-1,5,1020,RJCJ 170000Z 33004KT 6000 -SHSN FEW008 BKN020 M04/M05 Q1020     RMK 1ST008 7CU020 A3012 VIS W 4000M=,- SN SH
20180117_010000.003,0,RJCJ,,,,0,20180117010000,-1,-1,-1,-1,340,-1,4,-1,-1,-1,-1,,5000,0,2,3,FEW 6   BKN 10   BKN 20,-1,2,-1,4,1020,RJCJ 170100Z 34004KT 5000 -SHSN BR FEW006 BKN010 BKN020     M02/M04 Q1020 RMK 1ST006 6ST010 7CU020 A3014 VIS E 10KM=,- SN SH; BR
20180117_020000.006,0,RJCJ,,,,0,20180117020000,-1,-1,-1,-1,340,-1,5,-1,-1,-1,-1,,9000,0,1,3,FEW 6   SCT 8   BKN 10,-1,1,-1,3,1020,RJCJ 170200Z 34005KT 9000 -SHSN FEW006 SCT008 BKN010 M01/M03     Q1020 RMK 1ST006 3ST008 7ST010 A3013=,- SN SH
20180117_030000.004,0,RJCJ,,,,0,20180117030000,-1,-1,-1,-1,340,-1,4,-1,-1,310,10,,9999,0,0,2,FEW 10   SCT 250,-1,1,-1,4,1019,RJCJ 170300Z 34004KT 310V010 9999 FEW010 SCT250 M01/M04 Q1019     RMK 2ST010 A3011=,
20180117_040000.004,0,RJCJ,,,,0,20180117040000,-1,-1,-1,-1,350,-1,6,-1,-1,-1,-1,,9999,0,0,1,FEW 10,1,0,-1,5,1019,RJCJ 170400Z 35006KT 9999 FEW010 00/M05 Q1019 RMK 1ST010     A3010=,
20180117_050000.004,0,RJCJ,,,,0,20180117050000,-1,-1,-1,-1,350,-1,5,-1,-1,320,20,,9999,0,0,1,FEW 30,1,0,-1,6,1019,RJCJ 170500Z 35005KT 320V020 9999 FEW030 00/M06 Q1019 RMK     1CU030 A3011=,
20180117_060000.003,0,RJCJ,,,,0,20180117060000,-1,-1,-1,-1,350,-1,4,-1,-1,320,20,,9999,0,0,2,FEW 30   BKN 250,-1,0,-1,6,1019,RJCJ 170600Z 35004KT 320V020 9999 FEW030 BKN250 M00/M06 Q1019     RMK 1CU030 A3011=,
20180117_070000.004,0,RJCJ,,,,0,20180117070000,-1,-1,-1,-1,40,-1,4,-1,-1,-1,-1,,9999,0,0,2,FEW 30   BKN 250,-1,1,-1,6,1018,RJCJ 170700Z 04004KT 9999 FEW030 BKN250 M01/M06 Q1018 RMK     1CU030 A3009=,
20180117_080000.003,0,RJCJ,,,,0,20180117080000,-1,-1,-1,-1,350,-1,2,-1,-1,-1,-1,,9999,0,0,2,FEW 50   BKN 250,-1,1,-1,6,1019,RJCJ 170800Z 35002KT 9999 FEW050 BKN250 M01/M06 Q1019 RMK     1SC050 A3009=,
20180117_090000.004,0,RJCJ,,,,0,20180117090000,-1,-1,-1,-1,230,-1,3,-1,-1,-1,-1,,9999,0,0,2,FEW 50   BKN -9999,-1,3,-1,6,1019,RJCJ 170900Z 23003KT 9999 FEW050 BKN/// M03/M06 Q1019 RMK     1SC050 A3010=,
20180117_100000.003,0,RJCJ,,,,0,20180117100000,-1,-1,-1,-1,180,-1,2,-1,-1,-1,-1,,9999,0,0,2,FEW 50   SCT -9999,-1,4,-1,6,1019,RJCJ 171000Z 18002KT 9999 FEW050 SCT/// M04/M06 Q1019 RMK     1SC050 A3010=,
20180117_110000.004,0,RJCJ,,,,0,20180117110000,-1,-1,-1,-1,999,-1,1,-1,-1,-1,-1,,9999,0,0,2,FEW 50   BKN -9999,-1,4,-1,7,1018,RJCJ 171100Z VRB01KT 9999 FEW050 BKN/// M04/M07 Q1018 RMK     1SC050 A3008=,
20180117_120000.004,0,RJCJ,,,,0,20180117120000,-1,-1,-1,-1,290,-1,2,-1,-1,-1,-1,,9999,0,0,3,FEW 25   BKN 30   BKN -9999,-1,3,-1,6,1018,RJCJ 171200Z 29002KT 9999 FEW025 BKN030 BKN/// M03/M06 Q1018     RMK 1SC025 7SC030 A3009=,
20180117_130000.003,0,RJCJ,,,,0,20180117130000,-1,-1,-1,-1,190,-1,2,-1,-1,-1,-1,,9999,0,0,3,FEW 20   BKN 25   BKN 30,-1,3,-1,6,1018,RJCJ 171300Z 19002KT 9999 FEW020 BKN025 BKN030 M03/M06 Q1018     RMK 1SC020 5SC025 7SC030 A3008=,
20180117_140000.003,0,RJCJ,,,,0,20180117140000,-1,-1,-1,-1,999,-1,1,-1,-1,-1,-1,,9999,0,0,3,FEW 25   SCT 30   BKN 35,-1,2,-1,6,1018,RJCJ 171400Z VRB01KT 9999 FEW025 SCT030 BKN035 M02/M06 Q1018     RMK 1SC025 4SC030 5SC035 A3007=,
20180117_150000.003,0,RJCJ,,,,0,20180117150000,-1,-1,-1,-1,140,-1,8,-1,-1,-1,-1,,9999,0,0,3,FEW 25   BKN 35   BKN -9999,-1,3,-1,5,1017,RJCJ 171500Z 14008KT 9999 FEW025 BKN035 BKN/// M03/M05 Q1017     RMK 1SC025 7SC035 A3005=,
20180117_160000.003,0,RJCJ,,,,0,20180117160000,-1,-1,-1,-1,140,-1,8,-1,-1,-1,-1,,9999,0,0,3,FEW 25   BKN 35   BKN -9999,-1,1,-1,5,1017,RJCJ 171600Z 14008KT 9999 FEW025 BKN035 BKN/// M01/M05 Q1017     RMK 1SC025 6SC035 A3004=,
20180117_170000.003,0,RJCJ,,,,0,20180117170000,-1,-1,-1,-1,140,-1,4,-1,-1,-1,-1,,9999,0,0,3,FEW 25   BKN 35   BKN -9999,-1,1,-1,5,1016,RJCJ 171700Z 14004KT 9999 FEW025 BKN035 BKN/// M01/M05 Q1016     RMK 1SC025 6SC035 A3002=,
20180117_180000.003,0,RJCJ,,,,0,20180117180000,-1,-1,-1,-1,999,-1,1,-1,-1,-1,-1,,9999,0,0,3,FEW 25   BKN 35   BKN -9999,-1,1,-1,6,1015,RJCJ 171800Z VRB01KT 9999 FEW025 BKN035 BKN/// M01/M06 Q1015     RMK 1SC025 6SC035 A2999=,
20180117_190000.004,0,RJCJ,,,,0,20180117190000,-1,-1,-1,-1,350,-1,7,-1,-1,-1,-1,,9999,0,0,3,FEW 25   BKN 35   BKN -9999,-1,2,-1,5,1015,RJCJ 171900Z 35007KT 9999 FEW025 BKN035 BKN/// M02/M05 Q1015     RMK 1SC025 6SC035 A3000=,
20180117_200000.003,0,RJCJ,,,,0,20180117200000,-1,-1,-1,-1,350,-1,4,-1,-1,-1,-1,,9999,0,1,2,FEW 25   OVC 35,-1,2,-1,5,1015,RJCJ 172000Z 35004KT 9999 -SN FEW025 OVC035 M02/M05 Q1015 RMK     2SC025 8SC035 A2999=,- SN
20180117_210000.003,0,RJCJ,,,,0,20180117210000,-1,-1,-1,-1,330,-1,4,-1,-1,300,360,,9999,0,1,2,FEW 25   OVC 35,-1,2,-1,5,1014,RJCJ 172100Z 33004KT 300V360 9999 -SN FEW025 OVC035 M02/M05     Q1014 RMK 1SC025 8SC035 A2997 00/M05 R000 S000 SD013=,- SN
20180117_220000.004,0,RJCJ,,,,0,20180117220000,-1,-1,-1,-1,330,-1,4,-1,-1,-1,-1,,9999,0,1,2,FEW 25   OVC 35,-1,2,-1,5,1015,RJCJ 172200Z 33004KT 9999 -SN FEW025 OVC035 M02/M05 Q1015 RMK     1CU025 8SC035 A2998=,- SN
20180117_230000.003,0,RJCJ,,,,0,20180117230000,-1,-1,-1,-1,20,-1,3,-1,-1,-1,-1,,9999,0,0,2,FEW 25   BKN 35,-1,3,-1,5,1014,RJCJ 172300Z 02003KT 9999 FEW025 BKN035 M03/M05 Q1014 RMK     1CU025 7SC035 A2997=,
20180118_000000.003,0,RJCJ,,,,0,20180118000000,-1,-1,-1,-1,999,-1,1,-1,-1,-1,-1,,9999,0,1,2,FEW 20   BKN 30,-1,2,-1,5,1014,RJCJ 180000Z VRB01KT 9999 -SHSN FEW020 BKN030 M02/M05 Q1014     RMK 1CU020 7CU030 A2996=,- SN SH
20180118_010000.003,0,RJCJ,,,,0,20180118010000,-1,-1,-1,-1,999,-1,1,-1,-1,-1,-1,,9999,0,0,2,FEW 20   BKN 30,-1,1,-1,5,1014,RJCJ 180100Z VRB01KT 9999 FEW020 BKN030 M01/M05 Q1014 RMK     1CU020 7CU030 A2995=,
20180118_020000.003,0,RJCJ,,,,0,20180118020000,-1,-1,-1,-1,999,-1,1,-1,-1,-1,-1,,9999,0,1,3,FEW 15   BKN 25   BKN 40,-1,1,-1,3,1013,RJCJ 180200Z VRB01KT 9999 -SHSN FEW015 BKN025 BKN040 M01/M03     Q1013 RMK 1CU015 6CU025 7CU040 A2992=,- SN SH
20180118_030000.004,0,RJCJ,,,,0,20180118030000,-1,-1,-1,-1,320,-1,1,-1,-1,-1,-1,,9999,0,1,3,FEW 15   BKN 25   BKN 40,1,1,-1,4,1012,RJCJ 180300Z 32001KT 9999 -SHSN FEW015 BKN025 BKN040 01/M04     Q1012 RMK 1CU015 6CU025 7CU040 A2990=,- SN SH
20180118_040000.003,0,RJCJ,,,,0,20180118040000,-1,-1,-1,-1,160,-1,3,-1,-1,-1,-1,,7000,0,1,3,FEW 8   BKN 25   BKN 40,-1,0,-1,2,1011,RJCJ 180400Z 16003KT 7000 -SHSN FEW008 BKN025 BKN040 M00/M02     Q1011 RMK 1CU008 7CU025 7CU040 A2988=,- SN SH
20180118_050000.003,0,RJCJ,,,,0,20180118050000,-1,-1,-1,-1,160,-1,5,-1,-1,-1,-1,,4000,0,1,3,FEW 10   SCT 15   BKN 18,1,0,-1,2,1011,RJCJ 180500Z 16005KT 4000 -SHSN FEW010 SCT015 BKN018 00/M02     Q1011 RMK 1CU010 3CU015 7CU018 A2987 VIS S-W 3000M=,- SN SH
20180118_060000.003,0,RJCJ,,,,0,20180118060000,-1,-1,-1,-1,160,-1,6,-1,-1,-1,-1,,6000,0,1,2,FEW 8   SCT 50,-1,0,-1,2,1011,RJCJ 180600Z 16006KT 6000 -SHSN FEW008 SCT050 M00/M02 Q1011     RMK 1CU008 4CU050 A2987=,- SN SH
20180118_070000.003,0,RJCJ,,,,0,20180118070000,-1,-1,-1,-1,999,-1,1,-1,-1,-1,-1,,8000,0,0,3,FEW 8   SCT 15   BKN 50,-1,0,-1,2,1011,RJCJ 180700Z VRB01KT 8000 FEW008 SCT015 BKN050 M00/M02 Q1011     RMK 1CU008 3CU015 6CU050 A2988=,
20180118_080000.003,0,RJCJ,,,,0,20180118080000,-1,-1,-1,-1,30,-1,3,-1,-1,-1,-1,,3000,0,1,3,FEW 8   BKN 15   BKN 25,-1,0,-1,1,1012,RJCJ 180800Z 03003KT 3000 -SHSN FEW008 BKN015 BKN025 M00/M01     Q1012 RMK 1ST008 6ST015 5CU025 A2989 VIS NW-N 2000M=,- SN SH
20180118_090000.003,0,RJCJ,,,,0,20180118090000,-1,-1,-1,-1,999,-1,2,-1,-1,-1,-1,,3500,0,1,3,FEW 8   SCT 10   BKN 15,-1,1,-1,1,1012,RJCJ 180900Z VRB02KT 3500 -SHSN FEW008 SCT010 BKN015 M01/M01     Q1012 RMK 2ST008 3ST010 7ST015 A2990=,- SN SH
20180118_100000.003,0,RJCJ,,,,0,20180118100000,-1,-1,-1,-1,0,-1,0,-1,-1,-1,-1,,3000,0,1,3,SCT 5   BKN 8   OVC 15,-1,1,-1,1,1012,RJCJ 181000Z 00000KT 3000 -SHSN SCT005 BKN008 OVC015 M01/M01     Q1012 RMK 3ST005 5ST008 8ST015 A2989=,- SN SH
20180118_110000.003,0,RJCJ,,,,0,20180118110000,-1,-1,-1,-1,350,-1,5,-1,-1,-1,-1,,2500,0,1,3,FEW 3   BKN 5   BKN 8,1,0,-1,0,1012,RJCJ 181100Z 35005KT 2500 -SHSN FEW003 BKN005 BKN008 00/M00     Q1012 RMK 2ST003 5ST005 6ST008 A2989=,- SN SH
20180118_120000.003,0,RJCJ,,,,0,20180118120000,-1,-1,-1,-1,350,-1,3,-1,-1,-1,-1,,2500,0,1,3,FEW 3   BKN 5   OVC 8,1,0,-1,0,1012,RJCJ 181200Z 35003KT 2500 -SHSN FEW003 BKN005 OVC008 00/M00     Q1012 RMK 2ST003 5ST005 8ST008 A2990=,- SN SH
20180118_130000.003,0,RJCJ,,,,0,20180118130000,-1,-1,-1,-1,340,-1,3,-1,-1,-1,-1,,4000,0,3,3,FEW 2   SCT 3   BKN 5,-1,1,-1,1,1012,RJCJ 181300Z 34003KT 4000 -SHSN PRFG BR FEW002 SCT003 BKN005     M01/M01 Q1012 RMK 1ST002 3ST003 5ST005 A2990 FG BANK           2000M SE-S=,- SN SH; PR FG; BR
20180118_140000.003,0,RJCJ,,,,0,20180118140000,-1,-1,-1,-1,350,-1,4,-1,-1,-1,-1,,5000,0,2,3,FEW 3   SCT 6   BKN 8,-1,0,-1,1,1012,RJCJ 181400Z 35004KT 5000 PRFG BR FEW003 SCT006 BKN008 M00/M01     Q1012 RMK 1ST003 3ST006 7ST008 A2991 FG BANK 3000M SE-S=,PR FG; BR
20180118_150000.003,0,RJCJ,,,,0,20180118150000,-1,-1,-1,-1,340,-1,8,-1,-1,-1,-1,,4000,0,1,3,FEW 6   BKN 8   BKN 15,-1,0,-1,2,1013,RJCJ 181500Z 34008KT 4000 -SHSN FEW006 BKN008 BKN015 M00/M02     Q1013 RMK 1ST006 5ST008 7CU015 A2992 VIS NW-N 2500M=,- SN SH
20180118_160000.003,0,RJCJ,,,,0,20180118160000,-1,-1,-1,-1,330,-1,10,-1,-1,-1,-1,,2500,0,1,3,FEW 4   SCT 6   BKN 8,-1,1,-1,2,1013,RJCJ 181600Z 33010KT 2500 -SHSN FEW004 SCT006 BKN008 M01/M02     Q1013 RMK 1ST004 3ST006 6ST008 A2994 VIS N-NE 2000M SW           4000M=,- SN SH
20180118_170000.003,0,RJCJ,,,,0,20180118170000,-1,-1,-1,-1,350,-1,7,-1,-1,-1,-1,,9000,0,0,3,FEW 5   BKN 10   BKN 15,-1,2,-1,4,1014,RJCJ 181700Z 35007KT 9000 FEW005 BKN010 BKN015 M02/M04 Q1014     RMK 1ST005 5ST010 5CU015 A2995=,
20180118_180000.003,0,RJCJ,,,,0,20180118180000,-1,-1,-1,-1,40,-1,8,-1,-1,-1,-1,,9999,0,0,3,FEW 4   SCT 8   BKN 10,-1,2,-1,3,1014,RJCJ 181800Z 04008KT 9999 FEW004 SCT008 BKN010 M02/M03 Q1014     RMK 1ST004 3ST008 5ST010 A2996=,
20180118_190000.003,0,RJCJ,,,,0,20180118190000,-1,-1,-1,-1,360,-1,5,-1,-1,-1,-1,,8000,0,1,3,FEW 6   SCT 8   BKN 10,-1,3,-1,4,1015,RJCJ 181900Z 36005KT 8000 -SHSN FEW006 SCT008 BKN010 M03/M04     Q1015 RMK 1ST006 3ST008 5ST010 A2997=,- SN SH
20180118_200000.003,0,RJCJ,,,,0,20180118200000,-1,-1,-1,-1,300,-1,4,-1,-1,-1,-1,,8000,0,1,2,FEW 8   BKN 10,-1,2,-1,5,1015,RJCJ 182000Z 30004KT 8000 -SHSN FEW008 BKN010 M02/M05 Q1015     RMK 2ST008 5ST010 A2999=,- SN SH
20180118_210000.004,0,RJCJ,,,,0,20180118210000,-1,-1,-1,-1,40,-1,3,-1,-1,-1,-1,,9999,0,0,2,FEW 10   BKN 50,-1,4,-1,6,1016,RJCJ 182100Z 04003KT 9999 FEW010 BKN050 M04/M06 Q1016 RMK     1ST010 5CU050 A3002 01/M07 R000 S004 SD017=,
20180118_220000.003,0,RJCJ,,,,0,20180118220000,-1,-1,-1,-1,320,-1,4,-1,-1,280,340,,9999,0,0,3,FEW 15   BKN 50   BKN 80,-1,3,-1,6,1017,RJCJ 182200Z 32004KT 280V340 9999 FEW015 BKN050 BKN080 M03/M06     Q1017 RMK 1CU015 5SC050 6AC080 A3004=,
20180118_230000.004,0,RJCJ,,,,0,20180118230000,-1,-1,-1,-1,310,-1,10,-1,-1,-1,-1,,9999,0,1,3,FEW 15   SCT 30   BKN 45,-1,2,-1,7,1017,RJCJ 182300Z 31010KT 9999 -SHSN FEW015 SCT030 BKN045 M02/M07     Q1017 RMK 1CU015 3CU030 6SC045 A3006=,- SN SH
20180119_000000.003,0,RJCJ,,,,0,20180119000000,-1,-1,-1,-1,290,-1,11,-1,-1,-1,-1,,9999,0,0,1,FEW 20,-1,2,-1,8,1018,RJCJ 190000Z 29011KT 9999 FEW020 M02/M08 Q1018 RMK 1CU020     A3007=,
20180119_010000.004,0,RJCJ,,,,0,20180119010000,-1,-1,-1,-1,300,-1,13,-1,-1,-1,-1,,9999,0,0,1,FEW 20,-1,1,-1,9,1018,RJCJ 190100Z 30013KT 9999 FEW020 M01/M09 Q1018 RMK 1CU020     A3008=,
20180119_020000.003,0,RJCJ,,,,0,20180119020000,-1,-1,-1,-1,330,-1,13,-1,-1,-1,-1,,9999,0,0,1,FEW 20,-1,1,-1,9,1018,RJCJ 190200Z 33013KT 9999 FEW020 M01/M09 Q1018 RMK 1CU020     A3007=,
20180119_030000.003,0,RJCJ,,,,0,20180119030000,-1,-1,-1,-1,360,-1,14,-1,-1,-1,-1,,9999,0,0,2,FEW 20   SCT 45,-1,1,-1,7,1018,RJCJ 190300Z 36014KT 9999 FEW020 SCT045 M01/M07 Q1018 RMK     1CU020 3CU045 A3008=,
20180119_040000.003,0,RJCJ,,,,0,20180119040000,-1,-1,-1,-1,10,-1,11,-1,-1,-1,-1,,9999,0,1,3,FEW 20   SCT 50   BKN 70,-1,1,-1,6,1018,RJCJ 190400Z 01011KT 9999 VCSH FEW020 SCT050 BKN070 M01/M06     Q1018 RMK 1CU020 3CU050 5AC070 A3007 VCSH NE-E=,VC SH
20180119_050000.004,0,RJCJ,,,,0,20180119050000,-1,-1,-1,-1,350,-1,14,-1,-1,-1,-1,,9999,0,1,2,FEW 20   SCT 45,-1,1,-1,8,1018,RJCJ 190500Z 35014KT 9999 VCSH FEW020 SCT045 M01/M08 Q1018 RMK     1CU020 3CU045 A3007 VCSH NE-E=,VC SH
20180119_060000.003,0,RJCJ,,,,0,20180119060000,-1,-1,-1,-1,360,-1,11,-1,-1,-1,-1,,9999,0,1,1,FEW 20,-1,1,-1,10,1018,RJCJ 190600Z 36011KT 9999 VCSH FEW020 M01/M10 Q1018 RMK 1CU020     A3009 VCSH NE=,VC SH
20180119_070000.003,0,RJCJ,,,,0,20180119070000,-1,-1,-1,-1,40,-1,7,-1,-1,-1,-1,,9999,0,0,1,FEW 25,-1,3,-1,9,1018,RJCJ 190700Z 04007KT 9999 FEW025 M03/M09 Q1018 RMK 1CU025     A3009=,
20180119_080000.003,0,RJCJ,,,,0,20180119080000,-1,-1,-1,-1,30,-1,6,-1,-1,-1,-1,,9999,0,0,1,FEW 25,-1,5,-1,8,1019,RJCJ 190800Z 03006KT 9999 FEW025 M05/M08 Q1019 RMK 1CU025     A3010=,
20180119_090000.004,0,RJCJ,,,,0,20180119090000,-1,-1,-1,-1,10,-1,3,-1,-1,340,40,,9999,0,0,1,FEW 25,-1,5,-1,7,1019,RJCJ 190900Z 01003KT 340V040 9999 FEW025 M05/M07 Q1019 RMK     1CU025 A3012=,
20180119_100000.003,0,RJCJ,,,,0,20180119100000,-1,-1,-1,-1,310,-1,3,-1,-1,290,350,,9999,0,0,1,FEW 25,-1,6,-1,7,1019,RJCJ 191000Z 31003KT 290V350 9999 FEW025 M06/M07 Q1019 RMK     1CU025 A3010=,
20180119_110000.003,0,RJCJ,,,,0,20180119110000,-1,-1,-1,-1,250,-1,3,-1,-1,210,270,,9999,0,0,2,FEW 25   BKN 45,-1,8,-1,9,1019,RJCJ 191100Z 25003KT 210V270 9999 FEW025 BKN045 M08/M09 Q1019     RMK 1CU025 5CU045 A3011=,
20180119_120000.004,0,RJCJ,,,,0,20180119120000,-1,-1,-1,-1,999,-1,2,-1,-1,-1,-1,,9999,0,0,1,BKN 45,-1,6,-1,7,1019,RJCJ 191200Z VRB02KT 9999 BKN045 M06/M07 Q1019 RMK 7SC045     A3012=,
20180119_130000.003,0,RJCJ,,,,0,20180119130000,-1,-1,-1,-1,999,-1,1,-1,-1,-1,-1,,9999,0,0,1,BKN 45,-1,7,-1,8,1019,RJCJ 191300Z VRB01KT 9999 BKN045 M07/M08 Q1019 RMK 7SC045     A3011=,
20180119_140000.003,0,RJCJ,,,,0,20180119140000,-1,-1,-1,-1,240,-1,2,-1,-1,-1,-1,,9999,0,0,1,SCT 45,-1,7,-1,8,1019,RJCJ 191400Z 24002KT 9999 SCT045 M07/M08 Q1019 RMK 4SC045     A3011=,
20180119_150000.003,0,RJCJ,,,,0,20180119150000,-1,-1,-1,-1,190,-1,3,-1,-1,-1,-1,,9999,0,0,1,BKN 45,-1,8,-1,9,1019,RJCJ 191500Z 19003KT 9999 BKN045 M08/M09 Q1019 RMK 6SC045     A3010=,
20180119_160000.003,0,RJCJ,,,,0,20180119160000,-1,-1,-1,-1,190,-1,4,-1,-1,-1,-1,,9999,0,0,1,BKN 45,-1,8,-1,10,1019,RJCJ 191600Z 19004KT 9999 BKN045 M08/M10 Q1019 RMK 6SC045     A3010=,
20180119_170000.003,0,RJCJ,,,,0,20180119170000,-1,-1,-1,-1,130,-1,3,-1,-1,-1,-1,,9999,0,0,1,BKN 50,-1,9,-1,10,1019,RJCJ 191700Z 13003KT 9999 BKN050 M09/M10 Q1019 RMK 6SC050     A3010=,
20180119_180000.004,0,RJCJ,,,,0,20180119180000,-1,-1,-1,-1,190,-1,5,-1,-1,-1,-1,,9999,0,0,1,SCT 50,-1,9,-1,10,1018,RJCJ 191800Z 19005KT 9999 SCT050 M09/M10 Q1018 RMK 4SC050     A3009=,
20180119_190000.004,0,RJCJ,,,,0,20180119190000,-1,-1,-1,-1,170,-1,5,-1,-1,-1,-1,,9999,0,0,1,SCT 50,-1,10,-1,12,1018,RJCJ 191900Z 17005KT 9999 SCT050 M10/M12 Q1018 RMK 3SC050     A3007=,
20180119_200000.003,0,RJCJ,,,,0,20180119200000,-1,-1,-1,-1,100,-1,4,-1,-1,-1,-1,,9999,0,0,1,BKN 45,-1,11,-1,13,1017,RJCJ 192000Z 10004KT 9999 BKN045 M11/M13 Q1017 RMK 5SC045     A3006=,
20180119_210000.003,0,RJCJ,,,,0,20180119210000,-1,-1,-1,-1,180,-1,5,-1,-1,-1,-1,,9999,0,0,1,FEW 45,-1,12,-1,14,1017,RJCJ 192100Z 18005KT 9999 FEW045 M12/M14 Q1017 RMK 2SC045     A3006 M00/M12 R000 S000 SD015=,
20180119_220000.003,0,RJCJ,,,,0,20180119220000,-1,-1,-1,-1,180,-1,6,-1,-1,-1,-1,,9999,0,0,1,FEW 50,-1,11,-1,13,1017,RJCJ 192200Z 18006KT 9999 FEW050 M11/M13 Q1017 RMK 1SC050     A3006=,
20180119_230000.003,0,RJCJ,,,,0,20180119230000,-1,-1,-1,-1,190,-1,3,-1,-1,-1,-1,,9999,0,0,1,FEW 50,-1,11,-1,13,1018,RJCJ 192300Z 19003KT 9999 FEW050 M11/M13 Q1018 RMK 1SC050     A3006=,
20180120_000000.003,0,RJCJ,,,,0,20180120000000,-1,-1,-1,-1,180,-1,6,-1,-1,-1,-1,,9999,0,0,1,FEW 50,-1,7,-1,11,1017,RJCJ 200000Z 18006KT 9999 FEW050 M07/M11 Q1017 RMK 1SC050     A3005=,
20180120_010000.003,0,RJCJ,,,,0,20180120010000,-1,-1,-1,-1,170,-1,6,-1,-1,-1,-1,,9999,0,0,2,FEW 40   SCT 90,-1,5,-1,9,1017,RJCJ 200100Z 17006KT 9999 FEW040 SCT090 M05/M09 Q1017 RMK     1CU040 4AC090 A3004=,
20180120_020000.004,0,RJCJ,,,,0,20180120020000,-1,-1,-1,-1,160,-1,7,-1,-1,-1,-1,,9999,0,0,2,FEW 40   BKN 80,-1,2,-1,7,1016,RJCJ 200200Z 16007KT 9999 FEW040 BKN080 M02/M07 Q1016 RMK     2CU040 6AC080 A3001=,
20180120_030000.003,0,RJCJ,,,,0,20180120030000,-1,-1,-1,-1,160,-1,11,-1,-1,-1,-1,,9999,0,0,3,FEW 20   BKN 35   BKN 80,-1,1,-1,7,1015,RJCJ 200300Z 16011KT 9999 FEW020 BKN035 BKN080 M01/M07 Q1015     RMK 2SC020 5SC035 6AC080 A2998=,
20180120_040000.003,0,RJCJ,,,,0,20180120040000,-1,-1,-1,-1,160,-1,11,-1,-1,-1,-1,,9999,0,1,3,FEW 20   SCT 45   BKN 80,-1,1,-1,5,1013,RJCJ 200400Z 16011KT 9999 -SHSN FEW020 SCT045 BKN080 M01/M05     Q1013 RMK 1CU020 4CU045 7AC080 A2994=,- SN SH
20180120_050000.003,0,RJCJ,,,,0,20180120050000,-1,-1,-1,-1,150,-1,13,-1,-1,-1,-1,,9999,0,1,3,FEW 25   BKN 80   BKN 200,-1,0,-1,5,1012,RJCJ 200500Z 15013KT 9999 -SHSN FEW025 BKN080 BKN200 M00/M05     Q1012 RMK 2CU025 6AC080 A2991=,- SN SH
20180120_060000.003,0,RJCJ,,,,0,20180120060000,-1,-1,-1,-1,170,-1,14,-1,-1,-1,-1,,3000,0,1,3,FEW 10   SCT 15   BKN 25,-1,1,-1,4,1012,RJCJ 200600Z 17014KT 3000 -SHSN FEW010 SCT015 BKN025 M01/M04     Q1012 RMK 1ST010 3CU015 6CU025 A2990 VIS SE-W 2500M=,- SN SH
20180120_070000.003,0,RJCJ,,,,0,20180120070000,-1,-1,-1,-1,140,-1,12,-1,-1,-1,-1,,1500,1,1,3,FEW 5   BKN 8   BKN 10,-1,1,-1,2,1011,RJCJ 200700Z 14012KT 1500 R18/P1800N -SHSN FEW005 BKN008     BKN010 M01/M02 Q1011 RMK 1ST005 5ST008 7ST010 A2986 VIS           S-SW 1000M=,- SN SH
20180120_080000.003,0,RJCJ,,,,0,20180120080000,-1,-1,-1,-1,140,-1,13,-1,-1,-1,-1,,800,1,1,1,VV 5,-1,2,-1,2,1010,RJCJ 200800Z 14013KT 0800 R18/P1800N SHSN VV005 M02/M02 Q1010     RMK A2985 VIS S-W 700M=,SN SH
20180120_090000.003,0,RJCJ,,,,0,20180120090000,-1,-1,-1,-1,180,-1,8,-1,-1,150,220,,700,1,1,1,VV 4,-1,1,-1,2,1010,RJCJ 200900Z 18008KT 150V220 0700 R18/P1800D SHGSSN VV004     M01/M02 Q1010 RMK A2985=,GS SN SH
20180120_100000.003,0,RJCJ,,,,0,20180120100000,-1,-1,-1,-1,150,-1,9,-1,-1,-1,-1,,1000,1,1,3,FEW 4   SCT 5   OVC 8,-1,1,-1,2,1011,RJCJ 201000Z 15009KT 1000 R18/P1800N -SHSN FEW004 SCT005     OVC008 M01/M02 Q1011 REGS RMK 1ST004 3ST005 8ST008 A2986           VIS SW-NW 2500M=,- SN SH
20180120_110000.003,0,RJCJ,,,,0,20180120110000,-1,-1,-1,-1,120,-1,6,-1,-1,60,180,,9999,0,0,1,FEW 10,-1,3,-1,4,1011,RJCJ 201100Z 12006KT 060V180 9999 FEW010 M03/M04 Q1011 REGS     RMK 2ST010 A2986=,
20180120_120000.003,0,RJCJ,,,,0,20180120120000,-1,-1,-1,-1,140,-1,3,-1,-1,100,160,,9999,0,0,1,FEW 10,-1,3,-1,5,1011,RJCJ 201200Z 14003KT 100V160 9999 FEW010 M03/M05 Q1011 RMK     1ST010 A2988=,
20180120_130000.003,0,RJCJ,,,,0,20180120130000,-1,-1,-1,-1,270,-1,6,-1,-1,-1,-1,,9999,0,0,1,FEW 10,-1,2,-1,7,1012,RJCJ 201300Z 27006KT 9999 FEW010 M02/M07 Q1012 RMK 1ST010     A2989=,
20180120_140000.003,0,RJCJ,,,,0,20180120140000,-1,-1,-1,-1,200,-1,4,-1,-1,-1,-1,,9999,0,0,1,FEW 10,-1,4,-1,6,1012,RJCJ 201400Z 20004KT 9999 FEW010 M04/M06 Q1012 RMK 1ST010     A2990=,
20180120_150000.003,0,RJCJ,,,,0,20180120150000,-1,-1,-1,-1,230,-1,7,-1,-1,-1,-1,,9999,0,1,2,FEW 10   SCT 40,-1,3,-1,6,1012,RJCJ 201500Z 23007KT 9999 -SHSN FEW010 SCT040 M03/M06 Q1012     RMK 1ST010 3CU040 A2990=,- SN SH
20180120_160000.003,0,RJCJ,,,,0,20180120160000,-1,-1,-1,-1,290,-1,6,-1,-1,-1,-1,,9999,0,0,2,FEW 10   SCT 50,-1,3,-1,6,1013,RJCJ 201600Z 29006KT 9999 FEW010 SCT050 M03/M06 Q1013 RMK     1ST010 3SC050 A2991=,
20180120_170000.003,0,RJCJ,,,,0,20180120170000,-1,-1,-1,-1,280,-1,5,-1,-1,-1,-1,,9999,0,1,2,FEW 20   BKN 45,-1,4,-1,7,1013,RJCJ 201700Z 28005KT 9999 -SHSN FEW020 BKN045 M04/M07 Q1013     RMK 1CU020 5CU045 A2994=,- SN SH
20180120_180000.003,0,RJCJ,,,,0,20180120180000,-1,-1,-1,-1,270,-1,4,-1,-1,-1,-1,,9999,0,1,2,FEW 20   BKN 45,-1,5,-1,7,1014,RJCJ 201800Z 27004KT 9999 -SHSN FEW020 BKN045 M05/M07 Q1014     RMK 1CU020 6CU045 A2995=,- SN SH
20180120_190000.004,0,RJCJ,,,,0,20180120190000,-1,-1,-1,-1,999,-1,1,-1,-1,-1,-1,,9999,0,0,2,FEW 20   SCT 45,-1,7,-1,9,1013,RJCJ 201900Z VRB01KT 9999 FEW020 SCT045 M07/M09 Q1013 RMK     1CU020 3CU045 A2994=,
20180120_200000.003,0,RJCJ,,,,0,20180120200000,-1,-1,-1,-1,999,-1,1,-1,-1,-1,-1,,9999,0,1,2,FEW 20   BKN 45,-1,8,-1,10,1013,RJCJ 202000Z VRB01KT 9999 -SHSN FEW020 BKN045 M08/M10 Q1013     RMK 1CU020 5CU045 A2994=,- SN SH
20180120_210000.003,0,RJCJ,,,,0,20180120210000,-1,-1,-1,-1,999,-1,2,-1,-1,-1,-1,,9999,0,1,2,FEW 20   BKN 45,-1,8,-1,10,1014,RJCJ 202100Z VRB02KT 9999 -SHSN FEW020 BKN045 M08/M10 Q1014     RMK 1CU020 5CU045 A2995 M00/M12 R000 S000 SD022=,- SN SH
20180120_210000.005,1,RJCJ,,,,0,20180120210000,-1,-1,-1,-1,999,-1,2,-1,-1,-1,-1,,9999,0,1,2,FEW 20   BKN 45,-1,8,-1,10,1014,RJCJ 202100Z VRB02KT 9999 -SHSN FEW020 BKN045 M08/M10     Q1014 RMK 1CU020 5CU045 A2995 M00/M12 R000 S011 SD022=,- SN SH
20180120_220000.003,0,RJCJ,,,,0,20180120220000,-1,-1,-1,-1,270,-1,5,-1,-1,250,310,,9999,0,1,2,FEW 20   BKN 45,-1,7,-1,11,1014,RJCJ 202200Z 27005KT 250V310 9999 -SHSN FEW020 BKN045 M07/M11     Q1014 RMK 1CU020 5CU045 A2996=,- SN SH
20180120_230000.003,0,RJCJ,,,,0,20180120230000,-1,-1,-1,-1,290,-1,5,-1,-1,-1,-1,,9999,0,0,2,FEW 20   SCT 45,-1,9,-1,13,1014,RJCJ 202300Z 29005KT 9999 FEW020 SCT045 M09/M13 Q1014 RMK     1CU020 3CU045 A2997=,
20180121_000000.003,0,RJCJ,,,,0,20180121000000,-1,-1,-1,-1,999,-1,2,-1,-1,-1,-1,,9999,0,0,2,FEW 25   SCT 45,-1,6,-1,13,1014,RJCJ 210000Z VRB02KT 9999 FEW025 SCT045 M06/M13 Q1014 RMK     1CU025 3CU045 A2996=,
20180121_010000.003,0,RJCJ,,,,0,20180121010000,-1,-1,-1,-1,140,-1,3,-1,-1,110,190,,9999,0,0,2,FEW 30   BKN 50,-1,4,-1,14,1014,RJCJ 210100Z 14003KT 110V190 9999 FEW030 BKN050 M04/M14 Q1014     RMK 1CU030 6CU050 A2996=,
20180121_020000.003,0,RJCJ,,,,0,20180121020000,-1,-1,-1,-1,350,-1,3,-1,-1,300,20,,9999,0,1,3,FEW 20   SCT 30   BKN 45,-1,4,-1,13,1013,RJCJ 210200Z 35003KT 300V020 9999 -SHSN FEW020 SCT030 BKN045     M04/M13 Q1013 RMK 1CU020 3CU030 7CU045 A2994=,- SN SH
20180121_030000.003,0,RJCJ,,,,0,20180121030000,-1,-1,-1,-1,999,-1,1,-1,-1,-1,-1,,9999,0,1,3,FEW 20   SCT 30   BKN 45,-1,5,-1,13,1012,RJCJ 210300Z VRB01KT 9999 -SHSN FEW020 SCT030 BKN045 M05/M13     Q1012 RMK 1CU020 3CU030 7CU045 A2991=,- SN SH
20180121_040000.004,0,RJCJ,,,,0,20180121040000,-1,-1,-1,-1,360,-1,10,-1,-1,-1,-1,,9999,0,1,3,FEW 20   BKN 30   BKN 45,-1,6,-1,10,1012,RJCJ 210400Z 36010KT 9999 -SHSN FEW020 BKN030 BKN045 M06/M10     Q1012 RMK 1CU020 5CU030 7CU045 A2990=,- SN SH
20180121_050000.003,0,RJCJ,,,,0,20180121050000,-1,-1,-1,-1,20,-1,3,-1,-1,320,90,,9999,0,0,3,FEW 20   SCT 30   BKN 45,-1,6,-1,10,1012,RJCJ 210500Z 02003KT 320V090 9999 FEW020 SCT030 BKN045 M06/M10     Q1012 RMK 2CU020 4CU030 5CU045 A2990=,
20180121_060000.003,0,RJCJ,,,,0,20180121060000,-1,-1,-1,-1,290,-1,11,-1,-1,260,320,,9999,0,0,2,FEW 25   SCT 45,-1,6,-1,17,1013,RJCJ 210600Z 29011KT 260V320 9999 FEW025 SCT045 M06/M17 Q1013     RMK 1CU025 3CU045 A2992=,
20180121_070000.003,0,RJCJ,,,,0,20180121070000,-1,-1,-1,-1,280,-1,7,-1,-1,240,310,,9999,0,0,2,FEW 25   BKN 45,-1,6,-1,19,1014,RJCJ 210700Z 28007KT 240V310 9999 FEW025 BKN045 M06/M19 Q1014     RMK 1CU025 5CU045 A2994=,
20180121_080000.003,0,RJCJ,,,,0,20180121080000,-1,-1,-1,-1,320,-1,8,-1,-1,-1,-1,,8000,0,1,3,FEW 10   SCT 15   BKN 25,-1,8,-1,14,1015,RJCJ 210800Z 32008KT 8000 -SHSN FEW010 SCT015 BKN025 M08/M14     Q1015 RMK 1CU010 3CU015 5CU025 A2997=,- SN SH
20180121_090000.003,0,RJCJ,,,,0,20180121090000,-1,-1,-1,-1,300,-1,7,-1,-1,-1,-1,,9999,0,1,3,FEW 8   BKN 25   BKN 45,-1,8,-1,15,1015,RJCJ 210900Z 30007KT 9999 -SHSN FEW008 BKN025 BKN045 M08/M15     Q1015 RMK 1CU008 5CU025 7CU045 A3000=,- SN SH
20180121_100000.003,0,RJCJ,,,,0,20180121100000,-1,-1,-1,-1,300,-1,11,-1,-1,-1,-1,,9999,0,1,3,FEW 8   BKN 25   BKN 45,-1,9,-1,16,1016,RJCJ 211000Z 30011KT 9999 -SHSN FEW008 BKN025 BKN045 M09/M16     Q1016 RMK 1CU008 5CU025 7CU045 A3003=,- SN SH
20180121_110000.003,0,RJCJ,,,,0,20180121110000,-1,-1,-1,-1,270,-1,4,-1,-1,-1,-1,,9999,0,0,2,FEW 15   SCT 50,-1,10,-1,17,1017,RJCJ 211100Z 27004KT 9999 FEW015 SCT050 M10/M17 Q1017 RMK     1CU015 3SC050 A3004=,
20180121_120000.003,0,RJCJ,,,,0,20180121120000,-1,-1,-1,-1,200,-1,5,-1,-1,-1,-1,,9999,0,0,1,FEW 15,-1,13,-1,17,1017,RJCJ 211200Z 20005KT 9999 FEW015 M13/M17 Q1017 RMK 1CU015     A3005=,
20180121_130000.004,0,RJCJ,,,,0,20180121130000,-1,-1,-1,-1,220,-1,6,-1,-1,-1,-1,,9999,0,0,1,FEW 20,-1,14,-1,16,1017,RJCJ 211300Z 22006KT 9999 FEW020 M14/M16 Q1017 RMK 1CU020     A3005=,
20180121_140000.003,0,RJCJ,,,,0,20180121140000,-1,-1,-1,-1,220,-1,10,-1,-1,190,250,,9999,0,0,1,FEW 20,-1,11,-1,15,1018,RJCJ 211400Z 22010KT 190V250 9999 FEW020 M11/M15 Q1018 RMK     1CU020 A3008=,
20180121_150000.003,0,RJCJ,,,,0,20180121150000,-1,-1,-1,-1,200,-1,4,-1,-1,-1,-1,,9999,0,2,2,FEW 30   BKN 45,-1,11,-1,15,1019,RJCJ 211500Z 20004KT 9999 -SHSN PRFG FEW030 BKN045 M11/M15     Q1019 RMK 1CU030 7CU045 A3009 FG BANK 4000M S=,- SN SH; PR FG
20180121_160000.003,0,RJCJ,,,,0,20180121160000,-1,-1,-1,-1,999,-1,1,-1,-1,-1,-1,,9999,0,0,2,FEW 30   SCT 50,-1,12,-1,15,1018,RJCJ 211600Z VRB01KT 9999 FEW030 SCT050 M12/M15 Q1018 RMK     1CU030 4CU050 A3009=,
20180121_170000.003,0,RJCJ,,,,0,20180121170000,-1,-1,-1,-1,200,-1,6,-1,-1,-1,-1,,9999,0,0,2,FEW 30   SCT 45,-1,11,-1,15,1019,RJCJ 211700Z 20006KT 9999 FEW030 SCT045 M11/M15 Q1019 RMK     1CU030 3CU045 A3010=,
20180121_180000.003,0,RJCJ,,,,0,20180121180000,-1,-1,-1,-1,210,-1,6,-1,-1,-1,-1,,9999,0,1,3,FEW 10   SCT 30   BKN 40,-1,11,-1,16,1019,RJCJ 211800Z 21006KT 9999 -SHSN FEW010 SCT030 BKN040 M11/M16     Q1019 RMK 1ST010 3CU030 5CU040 A3010=,- SN SH
20180121_190000.003,0,RJCJ,,,,0,20180121190000,-1,-1,-1,-1,200,-1,7,-1,-1,-1,-1,,9999,0,0,2,FEW 10   SCT 40,-1,10,-1,15,1019,RJCJ 211900Z 20007KT 9999 FEW010 SCT040 M10/M15 Q1019 RMK     1ST010 4CU040 A3010=,
20180121_200000.003,0,RJCJ,,,,0,20180121200000,-1,-1,-1,-1,200,-1,7,-1,-1,-1,-1,,9999,0,1,2,FEW 20   SCT 45,-1,10,-1,15,1019,RJCJ 212000Z 20007KT 9999 -SHSN FEW020 SCT045 M10/M15 Q1019     RMK 1CU020 4CU045 A3011=,- SN SH
20180121_210000.003,0,RJCJ,,,,0,20180121210000,-1,-1,-1,-1,160,-1,5,-1,-1,-1,-1,,9999,0,0,1,FEW 20,-1,12,-1,15,1020,RJCJ 212100Z 16005KT 9999 FEW020 M12/M15 Q1020 RMK 1CU020     A3013 M04/M15 R002 S000 SD021=,
20180121_220000.003,0,RJCJ,,,,0,20180121220000,-1,-1,-1,-1,180,-1,3,-1,-1,-1,-1,,9999,0,0,1,FEW 20,-1,14,-1,17,1020,RJCJ 212200Z 18003KT 9999 FEW020 M14/M17 Q1020 RMK 1CU020     A3014=,
20180121_230000.003,0,RJCJ,,,,0,20180121230000,-1,-1,-1,-1,0,-1,0,-1,-1,-1,-1,,9999,0,0,1,FEW 30,-1,14,-1,16,1021,RJCJ 212300Z 00000KT 9999 FEW030 M14/M16 Q1021 RMK 1CU030     A3015=,
20180122_000000.003,0,RJCJ,,,,0,20180122000000,-1,-1,-1,-1,190,-1,7,-1,-1,-1,-1,,9999,0,0,2,FEW 30   BKN 230,-1,7,-1,15,1021,RJCJ 220000Z 19007KT 9999 FEW030 BKN230 M07/M15 Q1021 RMK     1CU030 A3017=,
20180122_010000.003,0,RJCJ,,,,0,20180122010000,-1,-1,-1,-1,200,-1,6,-1,-1,180,250,,9999,0,0,1,FEW 30,-1,6,-1,14,1021,RJCJ 220100Z 20006KT 180V250 9999 FEW030 M06/M14 Q1021 RMK     1CU030 A3016=,
20180122_020000.003,0,RJCJ,,,,0,20180122020000,-1,-1,-1,-1,180,-1,5,-1,-1,150,210,,9999,0,0,2,FEW 30   BKN 50,-1,5,-1,15,1021,RJCJ 220200Z 18005KT 150V210 9999 FEW030 BKN050 M05/M15 Q1021     RMK 1CU030 6SC050 A3016=,
20180122_030000.003,0,RJCJ,,,,0,20180122030000,-1,-1,-1,-1,240,-1,6,-1,-1,210,270,,9999,0,0,2,SCT 30   BKN 50,-1,4,-1,15,1020,RJCJ 220300Z 24006KT 210V270 9999 SCT030 BKN050 M04/M15 Q1020     RMK 3CU030 6SC050 A3014=,
20180122_040000.003,0,RJCJ,,,,0,20180122040000,-1,-1,-1,-1,230,-1,6,-1,-1,200,280,,9999,0,0,2,SCT 30   BKN 50,-1,4,-1,16,1020,RJCJ 220400Z 23006KT 200V280 9999 SCT030 BKN050 M04/M16 Q1020     RMK 3CU030 6SC050 A3012=,
20180122_050000.003,0,RJCJ,,,,0,20180122050000,-1,-1,-1,-1,240,-1,4,-1,-1,180,290,,9999,0,0,3,FEW 20   SCT 30   BKN 50,-1,4,-1,13,1019,RJCJ 220500Z 24004KT 180V290 9999 FEW020 SCT030 BKN050 M04/M13     Q1019 RMK 1CU020 3CU030 6SC050 A3011=,
20180122_060000.004,0,RJCJ,,,,0,20180122060000,-1,-1,-1,-1,230,-1,3,-1,-1,200,270,,9999,0,0,3,FEW 20   SCT 30   BKN 200,-1,5,-1,13,1019,RJCJ 220600Z 23003KT 200V270 9999 FEW020 SCT030 BKN200 M05/M13     Q1019 RMK 1CU020 3CU030 A3011=,
20180122_070000.003,0,RJCJ,,,,0,20180122070000,-1,-1,-1,-1,999,-1,2,-1,-1,-1,-1,,9999,0,0,2,FEW 20   BKN 200,-1,5,-1,13,1019,RJCJ 220700Z VRB02KT 9999 FEW020 BKN200 M05/M13 Q1019 RMK     2CU020 A3010=,
20180122_080000.004,0,RJCJ,,,,0,20180122080000,-1,-1,-1,-1,270,-1,1,-1,-1,-1,-1,,9999,0,0,2,FEW 20   BKN 200,-1,6,-1,12,1018,RJCJ 220800Z 27001KT 9999 FEW020 BKN200 M06/M12 Q1018 RMK     1CU020 A3009=,
20180122_090000.003,0,RJCJ,,,,0,20180122090000,-1,-1,-1,-1,999,-1,1,-1,-1,-1,-1,,9999,0,0,3,FEW 20   SCT 80   BKN -9999,-1,9,-1,15,1019,RJCJ 220900Z VRB01KT 9999 FEW020 SCT080 BKN/// M09/M15 Q1019     RMK 1CU020 3AC080 A3010=,
20180122_100000.003,0,RJCJ,,,,0,20180122100000,-1,-1,-1,-1,160,-1,2,-1,-1,-1,-1,,9999,0,0,2,FEW 80   BKN -9999,-1,9,-1,13,1019,RJCJ 221000Z 16002KT 9999 FEW080 BKN/// M09/M13 Q1019 RMK     1AC080 A3010=,
20180122_110000.004,0,RJCJ,,,,0,20180122110000,-1,-1,-1,-1,999,-1,2,-1,-1,-1,-1,,9999,0,0,2,SCT 60   BKN -9999,-1,10,-1,14,1019,RJCJ 221100Z VRB02KT 9999 SCT060 BKN/// M10/M14 Q1019 RMK     3SC060 A3010=,
20180122_120000.003,0,RJCJ,,,,0,20180122120000,-1,-1,-1,-1,260,-1,2,-1,-1,-1,-1,,9999,0,0,3,FEW 30   BKN 50   BKN -9999,-1,9,-1,13,1018,RJCJ 221200Z 26002KT 9999 FEW030 BKN050 BKN/// M09/M13 Q1018     RMK 1CU030 5SC050 A3007=,
20180122_130000.004,0,RJCJ,,,,0,20180122130000,-1,-1,-1,-1,280,-1,2,-1,-1,-1,-1,,9999,0,0,3,FEW 30   BKN 45   BKN -9999,-1,8,-1,12,1017,RJCJ 221300Z 28002KT 9999 FEW030 BKN045 BKN/// M08/M12 Q1017     RMK 1CU030 6SC045 A3005=,
20180122_140000.004,0,RJCJ,,,,0,20180122140000,-1,-1,-1,-1,340,-1,3,-1,-1,-1,-1,,9999,0,0,2,FEW 30   BKN 45,-1,8,-1,12,1016,RJCJ 221400Z 34003KT 9999 FEW030 BKN045 M08/M12 Q1016 RMK     1CU030 7SC045 A3002=,
20180122_150000.003,0,RJCJ,,,,0,20180122150000,-1,-1,-1,-1,330,-1,5,-1,-1,-1,-1,,9999,0,0,2,FEW 30   BKN 40,-1,7,-1,12,1015,RJCJ 221500Z 33005KT 9999 FEW030 BKN040 M07/M12 Q1015 RMK     1CU030 7SC040 A2997=,
20180122_160000.003,0,RJCJ,,,,0,20180122160000,-1,-1,-1,-1,360,-1,4,-1,-1,-1,-1,,9999,0,0,2,FEW 20   BKN 35,-1,8,-1,11,1013,RJCJ 221600Z 36004KT 9999 FEW020 BKN035 M08/M11 Q1013 RMK     1CU020 7SC035 A2993=,
20180122_170000.003,0,RJCJ,,,,0,20180122170000,-1,-1,-1,-1,350,-1,6,-1,-1,-1,-1,,9999,0,0,2,FEW 20   BKN 30,-1,9,-1,12,1012,RJCJ 221700Z 35006KT 9999 FEW020 BKN030 M09/M12 Q1012 RMK     1CU020 7SC030 A2990=,
20180122_180000.003,0,RJCJ,,,,0,20180122180000,-1,-1,-1,-1,340,-1,7,-1,-1,290,90,,9999,0,0,3,FEW 20   SCT 25   BKN 30,-1,8,-1,12,1010,RJCJ 221800Z 34007KT 290V090 9999 FEW020 SCT025 BKN030 M08/M12     Q1010 RMK 1CU020 3SC025 7SC030 A2985=,
20180122_190000.003,0,RJCJ,,,,0,20180122190000,-1,-1,-1,-1,10,-1,3,-1,-1,330,30,,9999,0,1,3,FEW 15   BKN 25   OVC 30,-1,8,-1,12,1009,RJCJ 221900Z 01003KT 330V030 9999 -SN FEW015 BKN025 OVC030     M08/M12 Q1009 RMK 1SC015 6SC025 8SC030 A2980=,- SN
20180122_200000.003,0,RJCJ,,,,0,20180122200000,-1,-1,-1,-1,10,-1,4,-1,-1,-1,-1,,9999,0,1,2,FEW 15   BKN 35,-1,8,-1,11,1007,RJCJ 222000Z 01004KT 9999 -SN FEW015 BKN035 M08/M11 Q1007 RMK     1SC015 7SC035 A2976=,- SN
20180122_210000.004,0,RJCJ,,,,0,20180122210000,-1,-1,-1,-1,50,-1,1,-1,-1,-1,-1,,9999,0,0,2,FEW 15   BKN 70,-1,9,-1,12,1006,RJCJ 222100Z 05001KT 9999 FEW015 BKN070 M09/M12 Q1006 RMK     1SC015 7AC070 A2971 M04/M11 R000 S000 SD020=,
20180122_220000.003,0,RJCJ,,,,0,20180122220000,-1,-1,-1,-1,999,-1,2,-1,-1,-1,-1,,9999,0,0,2,FEW 20   BKN 70,-1,9,-1,11,1005,RJCJ 222200Z VRB02KT 9999 FEW020 BKN070 M09/M11 Q1005 RMK     1SC020 7AC070 A2968=,
20180122_230000.004,0,RJCJ,,,,0,20180122230000,-1,-1,-1,-1,999,-1,2,-1,-1,-1,-1,,9999,0,0,2,FEW 20   BKN 70,-1,9,-1,12,1003,RJCJ 222300Z VRB02KT 9999 FEW020 BKN070 M09/M12 Q1003 RMK     1SC020 5AC070 A2964=,
20180123_000000.003,0,RJCJ,,,,0,20180123000000,-1,-1,-1,-1,170,-1,6,-1,-1,-1,-1,,9999,0,0,3,FEW 10   SCT 40   BKN 70,-1,4,-1,11,1003,RJCJ 230000Z 17006KT 9999 FEW010 SCT040 BKN070 M04/M11 Q1003     RMK 1ST010 3SC040 7AC070 A2962=,
20180123_010000.003,0,RJCJ,,,,0,20180123010000,-1,-1,-1,-1,170,-1,8,-1,-1,-1,-1,,9999,0,0,2,FEW 10   BKN 70,-1,3,-1,10,1001,RJCJ 230100Z 17008KT 9999 FEW010 BKN070 M03/M10 Q1001 RMK     1ST010 6AC070 A2957=,
20180123_020000.003,0,RJCJ,,,,0,20180123020000,-1,-1,-1,-1,150,-1,10,-1,-1,-1,-1,,9999,0,0,2,FEW 10   BKN 70,-1,2,-1,9,999,RJCJ 230200Z 15010KT 9999 FEW010 BKN070 M02/M09 Q0999 RMK     1ST010 7AC070 A2952=,
20180123_030000.004,0,RJCJ,,,,0,20180123030000,-1,-1,-1,-1,160,-1,11,-1,-1,-1,-1,,9999,0,0,2,FEW 10   BKN 70,-1,1,-1,7,996,RJCJ 230300Z 16011KT 9999 FEW010 BKN070 M01/M07 Q0996 RMK     1ST010 7AC070 A2943=,
20180123_040000.004,0,RJCJ,,,,0,20180123040000,-1,-1,-1,-1,160,-1,12,-1,-1,-1,-1,,9999,0,0,3,FEW 20   BKN 60   BKN 70,1,1,-1,7,994,RJCJ 230400Z 16012KT 9999 FEW020 BKN060 BKN070 01/M07 Q0994     RMK 1CU020 5SC060 7AC070 A2938=,
20180123_050000.003,0,RJCJ,,,,0,20180123050000,-1,-1,-1,-1,150,-1,10,-1,-1,-1,-1,,9999,0,0,3,FEW 20   BKN 50   BKN 60,1,1,-1,5,993,RJCJ 230500Z 15010KT 9999 FEW020 BKN050 BKN060 01/M05 Q0993     RMK 1CU020 5CU050 7SC060 A2933=,
20180123_060000.004,0,RJCJ,,,,0,20180123060000,-1,-1,-1,-1,170,-1,15,-1,27,-1,-1,,9999,0,2,3,FEW 10   SCT 20   BKN 30,1,2,-1,5,993,RJCJ 230600Z 17015G27KT 9999 -SHSN DRSN FEW010 SCT020     BKN030 02/M05 Q0993 RMK 1CU010 3CU020 5CU030 A2934=,- SN SH; DR SN
20180123_070000.003,0,RJCJ,,,,0,20180123070000,-1,-1,-1,-1,150,-1,16,-1,-1,-1,-1,,9999,0,2,2,FEW 10   BKN 50,1,2,-1,6,992,RJCJ 230700Z 15016KT 9999 -SHSN DRSN FEW010 BKN050 02/M06     Q0992 RMK 1CU010 7CU050 A2930 MAX WIND 25KT=,- SN SH; DR SN
20180123_080000.003,0,RJCJ,,,,0,20180123080000,-1,-1,-1,-1,140,-1,20,-1,-1,-1,-1,,9999,0,2,3,FEW 10   BKN 30   BKN 45,1,1,-1,4,992,RJCJ 230800Z 14020KT 9999 -SHSN DRSN FEW010 BKN030 BKN045     01/M04 Q0992 RMK 1ST010 5CU030 7CU045 A2930 MAX WIND           27KT=,- SN SH; DR SN
20180123_090000.003,0,RJCJ,,,,0,20180123090000,-1,-1,-1,-1,140,-1,24,-1,-1,-1,-1,,3500,0,2,3,FEW 5   BKN 8   BKN 12,-1,0,-1,1,992,RJCJ 230900Z 14024KT 3500 -SHSN BLSN FEW005 BKN008 BKN012     M00/M01 Q0992 RMK 1CU005 5CU008 7CU012 A2931 MAX WIND           31KT WS ALL RWY=,- SN SH; BL SN
20180123_100000.003,0,RJCJ,,,,0,20180123100000,-1,-1,-1,-1,170,-1,12,-1,-1,-1,-1,,9999,0,1,4,FEW 15   BKN 25   FEW 25 CB  BKN 60,-1,1,-1,2,994,RJCJ 231000Z 17012KT 9999 -SHSN FEW015 BKN025 FEW025CB BKN060     M01/M02 Q0994 RETS RMK 1CU015 5CU025 1CB025 7SC060 A2938           CB N-NE MOV NE=,- SN SH
20180123_110000.003,0,RJCJ,,,,0,20180123110000,-1,-1,-1,-1,240,-1,12,-1,-1,210,280,,9999,0,1,1,FEW 25,-1,1,-1,8,996,RJCJ 231100Z 24012KT 210V280 9999 -SHSN FEW025 M01/M08 Q0996     RMK 1CU025 A2944=,- SN SH
20180123_120000.003,0,RJCJ,,,,0,20180123120000,-1,-1,-1,-1,200,-1,9,-1,-1,180,250,,9999,0,0,1,FEW 20,-1,2,-1,9,998,RJCJ 231200Z 20009KT 180V250 9999 FEW020 M02/M09 Q0998 RMK     1CU020 A2948=,
20180123_130000.003,0,RJCJ,,,,0,20180123130000,-1,-1,-1,-1,240,-1,9,-1,-1,-1,-1,,9999,0,0,1,FEW 20,-1,3,-1,11,999,RJCJ 231300Z 24009KT 9999 FEW020 M03/M11 Q0999 RMK 1CU020     A2950=,
20180123_140000.003,0,RJCJ,,,,0,20180123140000,-1,-1,-1,-1,240,-1,7,-1,-1,200,260,,9999,0,0,1,FEW 20,-1,4,-1,11,999,RJCJ 231400Z 24007KT 200V260 9999 FEW020 M04/M11 Q0999 RMK     1CU020 A2952=,
20180123_150000.003,0,RJCJ,,,,0,20180123150000,-1,-1,-1,-1,210,-1,8,-1,-1,-1,-1,,9999,0,0,1,FEW 15,-1,5,-1,10,999,RJCJ 231500Z 21008KT 9999 FEW015 M05/M10 Q0999 RMK 1CU015     A2952=,
20180123_160000.003,0,RJCJ,,,,0,20180123160000,-1,-1,-1,-1,230,-1,10,-1,-1,-1,-1,,9999,0,0,1,FEW 15,-1,6,-1,10,1000,RJCJ 231600Z 23010KT 9999 FEW015 M06/M10 Q1000 RMK 1CU015     A2953=,
20180123_170000.003,0,RJCJ,,,,0,20180123170000,-1,-1,-1,-1,270,-1,11,-1,-1,-1,-1,,9999,0,0,1,FEW 20,-1,6,-1,13,999,RJCJ 231700Z 27011KT 9999 FEW020 M06/M13 Q0999 RMK 1CU020     A2951=,
20180123_180000.003,0,RJCJ,,,,0,20180123180000,-1,-1,-1,-1,200,-1,6,-1,-1,-1,-1,,9999,0,0,1,FEW 20,-1,8,-1,14,999,RJCJ 231800Z 20006KT 9999 FEW020 M08/M14 Q0999 RMK 1CU020     A2953=,
20180123_190000.003,0,RJCJ,,,,0,20180123190000,-1,-1,-1,-1,190,-1,7,-1,-1,-1,-1,,9999,0,0,1,FEW 20,-1,9,-1,15,999,RJCJ 231900Z 19007KT 9999 FEW020 M09/M15 Q0999 RMK 1CU020     A2952=,
20180123_200000.003,0,RJCJ,,,,0,20180123200000,-1,-1,-1,-1,160,-1,7,-1,-1,-1,-1,,9999,0,0,1,FEW 15,-1,10,-1,15,999,RJCJ 232000Z 16007KT 9999 FEW015 M10/M15 Q0999 RMK 1CU015     A2953=,
20180123_210000.003,0,RJCJ,,,,0,20180123210000,-1,-1,-1,-1,210,-1,6,-1,-1,-1,-1,,9999,0,0,1,FEW 15,-1,10,-1,16,1000,RJCJ 232100Z 21006KT 9999 FEW015 M10/M16 Q1000 RMK 1CU015     A2953 14036KT/0840 02/M11 R000 S005 SD019=,
20180123_220000.003,0,RJCJ,,,,0,20180123220000,-1,-1,-1,-1,180,-1,4,-1,-1,-1,-1,,9999,0,0,1,FEW 10,-1,10,-1,14,999,RJCJ 232200Z 18004KT 9999 FEW010 M10/M14 Q0999 RMK 1ST010     A2952=,
20180123_230000.003,0,RJCJ,,,,0,20180123230000,-1,-1,-1,-1,100,-1,2,-1,-1,-1,-1,,9999,0,0,1,FEW 20,-1,14,-1,16,999,RJCJ 232300Z 10002KT 9999 FEW020 M14/M16 Q0999 RMK 1CU020     A2953=,
20180124_000000.003,0,RJCJ,,,,0,20180124000000,-1,-1,-1,-1,120,-1,5,-1,-1,-1,-1,,9999,0,0,1,FEW 25,-1,9,-1,14,1000,RJCJ 240000Z 12005KT 9999 FEW025 M09/M14 Q1000 RMK 1CU025     A2953=,
20180124_010000.004,0,RJCJ,,,,0,20180124010000,-1,-1,-1,-1,180,-1,4,-1,-1,110,270,,9999,0,0,1,FEW 30,-1,6,-1,17,999,RJCJ 240100Z 18004KT 110V270 9999 FEW030 M06/M17 Q0999 RMK     1CU030 A2952=,
20180124_020000.003,0,RJCJ,,,,0,20180124020000,-1,-1,-1,-1,180,-1,8,-1,-1,-1,-1,,9999,0,0,2,FEW 20   BKN 70,-1,6,-1,16,999,RJCJ 240200Z 18008KT 9999 FEW020 BKN070 M06/M16 Q0999 RMK     1CU020 6AC070 A2950=,
20180124_030000.003,0,RJCJ,,,,0,20180124030000,-1,-1,-1,-1,210,-1,7,-1,-1,160,270,,9999,0,0,3,FEW 20   SCT 50   BKN 70,-1,6,-1,15,998,RJCJ 240300Z 21007KT 160V270 9999 FEW020 SCT050 BKN070 M06/M15     Q0998 RMK 1CU020 3CU050 5AC070 A2948=,
20180124_040000.003,0,RJCJ,,,,0,20180124040000,-1,-1,-1,-1,260,-1,14,-1,-1,-1,-1,,9999,0,0,2,FEW 20   SCT 70,-1,6,-1,19,998,RJCJ 240400Z 26014KT 9999 FEW020 SCT070 M06/M19 Q0998 RMK     1CU020 4AC070 A2948=,
20180124_050000.003,0,RJCJ,,,,0,20180124050000,-1,-1,-1,-1,250,-1,11,-1,-1,-1,-1,,9999,0,0,2,FEW 20   SCT 90,-1,7,-1,20,998,RJCJ 240500Z 25011KT 9999 FEW020 SCT090 M07/M20 Q0998 RMK     1CU020 4AC090 A2948=,
20180124_060000.003,0,RJCJ,,,,0,20180124060000,-1,-1,-1,-1,280,-1,8,-1,-1,240,330,,9999,0,0,2,FEW 20   BKN 100,-1,7,-1,21,998,RJCJ 240600Z 28008KT 240V330 9999 FEW020 BKN100 M07/M21 Q0998     RMK 1CU020 6AC100 A2949=,
20180124_070000.003,0,RJCJ,,,,0,20180124070000,-1,-1,-1,-1,260,-1,9,-1,-1,-1,-1,,9999,0,0,2,FEW 20   BKN 100,-1,7,-1,23,999,RJCJ 240700Z 26009KT 9999 FEW020 BKN100 M07/M23 Q0999 RMK     1CU020 5AC100 A2951=,
20180124_080000.003,0,RJCJ,,,,0,20180124080000,-1,-1,-1,-1,280,-1,5,-1,-1,-1,-1,,9999,0,0,2,FEW 30   SCT 100,-1,9,-1,21,999,RJCJ 240800Z 28005KT 9999 FEW030 SCT100 M09/M21 Q0999 RMK     1CU030 3AC100 A2952=,
20180124_090000.004,0,RJCJ,,,,0,20180124090000,-1,-1,-1,-1,220,-1,4,-1,-1,-1,-1,,9999,0,0,2,FEW 30   SCT 100,-1,12,-1,20,999,RJCJ 240900Z 22004KT 9999 FEW030 SCT100 M12/M20 Q0999 RMK     1CU030 3AC100 A2952=,
20180124_100000.003,0,RJCJ,,,,0,20180124100000,-1,-1,-1,-1,220,-1,5,-1,-1,-1,-1,,9999,0,0,1,FEW 30,-1,12,-1,20,999,RJCJ 241000Z 22005KT 9999 FEW030 M12/M20 Q0999 RMK 1CU030     A2953=,
20180124_110000.003,0,RJCJ,,,,0,20180124110000,-1,-1,-1,-1,360,-1,4,-1,-1,310,30,,9999,0,0,1,FEW 20,-1,13,-1,18,1000,RJCJ 241100Z 36004KT 310V030 9999 FEW020 M13/M18 Q1000 RMK     1CU020 A2953=,
20180124_120000.003,0,RJCJ,,,,0,20180124120000,-1,-1,-1,-1,999,-1,1,-1,-1,-1,-1,,9999,0,0,1,FEW 20,-1,15,-1,20,1000,RJCJ 241200Z VRB01KT 9999 FEW020 M15/M20 Q1000 RMK 1CU020     A2954=,
20180124_130000.003,0,RJCJ,,,,0,20180124130000,-1,-1,-1,-1,999,-1,1,-1,-1,-1,-1,,9999,0,0,1,FEW 20,-1,17,-1,20,1000,RJCJ 241300Z VRB01KT 9999 FEW020 M17/M20 Q1000 RMK 1CU020     A2953=,
20180124_140000.004,0,RJCJ,,,,0,20180124140000,-1,-1,-1,-1,999,-1,2,-1,-1,-1,-1,,9999,0,0,1,FEW 20,-1,19,-1,21,999,RJCJ 241400Z VRB02KT 9999 FEW020 M19/M21 Q0999 RMK 1CU020     A2952=,
20180124_150000.003,0,RJCJ,,,,0,20180124150000,-1,-1,-1,-1,220,-1,3,-1,-1,180,260,,9999,0,0,1,FEW 20,-1,21,-1,24,999,RJCJ 241500Z 22003KT 180V260 9999 FEW020 M21/M24 Q0999 RMK     1CU020 A2951=,
20180124_160000.003,0,RJCJ,,,,0,20180124160000,-1,-1,-1,-1,999,-1,1,-1,-1,-1,-1,,9999,0,0,1,FEW 20,-1,21,-1,24,999,RJCJ 241600Z VRB01KT 9999 FEW020 M21/M24 Q0999 RMK 1CU020     A2951=,
20180124_170000.003,0,RJCJ,,,,0,20180124170000,-1,-1,-1,-1,999,-1,1,-1,-1,-1,-1,,9999,0,0,2,FEW 20   BKN 100,-1,22,-1,24,999,RJCJ 241700Z VRB01KT 9999 FEW020 BKN100 M22/M24 Q0999 RMK     1CU020 5AC100 A2951=,
20180124_180000.003,0,RJCJ,,,,0,20180124180000,-1,-1,-1,-1,999,-1,1,-1,-1,-1,-1,,9999,0,0,2,FEW 20   SCT 40,-1,22,-1,25,999,RJCJ 241800Z VRB01KT 9999 FEW020 SCT040 M22/M25 Q0999 RMK     1CU020 3CU040 A2950=,
20180124_190000.004,0,RJCJ,,,,0,20180124190000,-1,-1,-1,-1,190,-1,3,-1,-1,-1,-1,,9999,0,0,2,FEW 20   BKN 120,-1,22,-1,24,998,RJCJ 241900Z 19003KT 9999 FEW020 BKN120 M22/M24 Q0998 RMK     1CU020 5AC120 A2950=,
20180124_200000.003,0,RJCJ,,,,0,20180124200000,-1,-1,-1,-1,180,-1,3,-1,-1,-1,-1,,9999,0,0,2,FEW 20   BKN 60,-1,20,-1,22,998,RJCJ 242000Z 18003KT 9999 FEW020 BKN060 M20/M22 Q0998 RMK     1CU020 5SC060 A2948=,
20180124_210000.004,0,RJCJ,,,,0,20180124210000,-1,-1,-1,-1,170,-1,6,-1,-1,-1,-1,,9999,0,0,2,FEW 20   BKN 120,-1,18,-1,21,997,RJCJ 242100Z 17006KT 9999 FEW020 BKN120 M18/M21 Q0997 RMK     1CU020 6AC120 A2946 M05/M23 R000 S000 SD019=,
20180124_220000.003,0,RJCJ,,,,0,20180124220000,-1,-1,-1,-1,180,-1,5,-1,-1,-1,-1,,600,1,1,1,VV 3,-1,15,-1,18,997,RJCJ 242200Z 18005KT 0600 R36/1400VP1800D SHSN VV003     M15/M18 Q0997 RMK A2947 R1800=,SN SH
20180124_230000.003,0,RJCJ,,,,0,20180124230000,-1,-1,-1,-1,350,-1,3,-1,-1,270,10,,400,1,1,1,VV 3,-1,15,-1,17,998,RJCJ 242300Z 35003KT 270V010 0400 R36/1200D SHSN VV003 M15/M17     Q0998 RMK A2949=,SN SH
20180125_000000.003,0,RJCJ,,,,0,20180125000000,-1,-1,-1,-1,320,-1,3,-1,-1,-1,-1,,1500,1,1,3,SCT 3   BKN 5   BKN 8,-1,13,-1,15,998,RJCJ 250000Z 32003KT 1500 R36/P1800N -SHSN SCT003 BKN005     BKN008 M13/M15 Q0998 RMK 3ST003 5ST005 7CU008 A2949 VIS           S-W 4000M=,- SN SH
20180125_010000.003,0,RJCJ,,,,0,20180125010000,-1,-1,-1,-1,999,-1,2,-1,-1,-1,-1,,5000,0,1,3,FEW 4   SCT 8   BKN 15,-1,10,-1,13,998,RJCJ 250100Z VRB02KT 5000 -SHSN FEW004 SCT008 BKN015 M10/M13     Q0998 RMK 1ST004 3CU008 5CU015 A2949 VIS NW-N 3000M=,- SN SH
20180125_020000.004,0,RJCJ,,,,0,20180125020000,-1,-1,-1,-1,999,-1,1,-1,-1,-1,-1,,9999,0,1,3,FEW 8   SCT 30   BKN 50,-1,9,-1,12,998,RJCJ 250200Z VRB01KT 9999 -SHSN FEW008 SCT030 BKN050 M09/M12     Q0998 RMK 1CU008 3CU030 5CU050 A2948 VIS E 5KM=,- SN SH
20180125_030000.003,0,RJCJ,,,,0,20180125030000,-1,-1,-1,-1,330,-1,14,-1,-1,-1,-1,,2000,0,1,3,FEW 10   SCT 20   BKN 30,-1,4,-1,10,997,RJCJ 250300Z 33014KT 2000 -SHSN FEW010 SCT020 BKN030     M04/M10 Q0997 RMK 1CU010 3CU020 7CU030 A2946 VIS W-N           1000M S 4000M=,- SN SH
20180125_040000.003,0,RJCJ,,,,0,20180125040000,-1,-1,-1,-1,340,-1,10,-1,-1,-1,-1,,9999,0,0,3,FEW 10   SCT 45   BKN 70,-1,4,-1,10,996,RJCJ 250400Z 34010KT 9999 FEW010 SCT045 BKN070 M04/M10 Q0996     RMK 1ST010 4CU045 6AC070 A2944 VIS NE-E 5KM=,
20180125_050000.003,0,RJCJ,,,,0,20180125050000,-1,-1,-1,-1,330,-1,11,-1,-1,-1,-1,,9999,0,1,2,FEW 10   SCT 50,-1,3,-1,11,997,RJCJ 250500Z 33011KT 9999 -SHSN FEW010 SCT050 M03/M11 Q0997     RMK 1ST010 4CU050 A2944=,- SN SH
20180125_060000.003,0,RJCJ,,,,0,20180125060000,-1,-1,-1,-1,320,-1,12,-1,-1,-1,-1,,9999,0,0,2,FEW 10   SCT 50,-1,4,-1,13,997,RJCJ 250600Z 32012KT 9999 FEW010 SCT050 M04/M13 Q0997 RMK     1ST010 3CU050 A2945=,
20180125_070000.003,0,RJCJ,,,,0,20180125070000,-1,-1,-1,-1,290,-1,13,-1,-1,250,320,,9999,0,0,1,FEW 10,-1,5,-1,15,997,RJCJ 250700Z 29013KT 250V320 9999 FEW010 M05/M15 Q0997 RMK     1ST010 A2946=,
20180125_080000.003,0,RJCJ,,,,0,20180125080000,-1,-1,-1,-1,290,-1,8,-1,-1,-1,-1,,9999,0,0,1,FEW 15,-1,6,-1,15,997,RJCJ 250800Z 29008KT 9999 FEW015 M06/M15 Q0997 RMK 1CU015     A2947=,
20180125_090000.003,0,RJCJ,,,,0,20180125090000,-1,-1,-1,-1,300,-1,7,-1,-1,-1,-1,,9999,0,0,1,FEW 15,-1,7,-1,15,997,RJCJ 250900Z 30007KT 9999 FEW015 M07/M15 Q0997 RMK 1CU015     A2947=,
20180125_100000.004,0,RJCJ,,,,0,20180125100000,-1,-1,-1,-1,290,-1,8,-1,-1,-1,-1,,9999,0,0,1,FEW 15,-1,7,-1,15,998,RJCJ 251000Z 29008KT 9999 FEW015 M07/M15 Q0998 RMK 1CU015     A2947=,
20180125_110000.004,0,RJCJ,,,,0,20180125110000,-1,-1,-1,-1,300,-1,5,-1,-1,-1,-1,,9999,0,0,2,FEW 15   SCT 40,-1,8,-1,15,997,RJCJ 251100Z 30005KT 9999 FEW015 SCT040 M08/M15 Q0997 RMK     1CU015 3CU040 A2947=,
20180125_120000.003,0,RJCJ,,,,0,20180125120000,-1,-1,-1,-1,270,-1,5,-1,-1,-1,-1,,9999,0,0,2,FEW 15   SCT 35,-1,11,-1,16,997,RJCJ 251200Z 27005KT 9999 FEW015 SCT035 M11/M16 Q0997 RMK     1CU015 3CU035 A2946=,
20180125_130000.003,0,RJCJ,,,,0,20180125130000,-1,-1,-1,-1,130,-1,3,-1,-1,-1,-1,,9999,0,0,2,FEW 20   SCT 35,-1,12,-1,16,997,RJCJ 251300Z 13003KT 9999 FEW020 SCT035 M12/M16 Q0997 RMK     1CU020 3CU035 A2945=,
20180125_140000.003,0,RJCJ,,,,0,20180125140000,-1,-1,-1,-1,180,-1,3,-1,-1,140,210,,9999,0,0,2,FEW 20   BKN 80,-1,11,-1,16,996,RJCJ 251400Z 18003KT 140V210 9999 FEW020 BKN080 M11/M16 Q0996     RMK 1CU020 6AC080 A2944=,
20180125_150000.003,0,RJCJ,,,,0,20180125150000,-1,-1,-1,-1,160,-1,3,-1,-1,-1,-1,,9999,0,0,3,FEW 30   SCT 50   BKN 70,-1,10,-1,15,996,RJCJ 251500Z 16003KT 9999 FEW030 SCT050 BKN070 M10/M15 Q0996     RMK 1CU030 3CU050 5AC070 A2943=,
20180125_160000.003,0,RJCJ,,,,0,20180125160000,-1,-1,-1,-1,170,-1,3,-1,-1,-1,-1,,9999,0,0,3,FEW 30   SCT 50   BKN 80,-1,11,-1,15,996,RJCJ 251600Z 17003KT 9999 FEW030 SCT050 BKN080 M11/M15 Q0996     RMK 1CU030 4CU050 7AC080 A2943=,
20180125_170000.003,0,RJCJ,,,,0,20180125170000,-1,-1,-1,-1,999,-1,2,-1,-1,-1,-1,,9999,0,0,2,FEW 30   BKN 90,-1,11,-1,14,996,RJCJ 251700Z VRB02KT 9999 FEW030 BKN090 M11/M14 Q0996 RMK     1CU030 7AC090 A2942=,
20180125_180000.003,0,RJCJ,,,,0,20180125180000,-1,-1,-1,-1,999,-1,2,-1,-1,-1,-1,,9999,0,0,3,FEW 30   SCT 50   BKN 90,-1,11,-1,14,996,RJCJ 251800Z VRB02KT 9999 FEW030 SCT050 BKN090 M11/M14 Q0996     RMK 1CU030 3CU050 7AC090 A2942=,
20180125_190000.003,0,RJCJ,,,,0,20180125190000,-1,-1,-1,-1,999,-1,1,-1,-1,-1,-1,,9999,0,1,3,FEW 25   SCT 35   BKN 50,-1,10,-1,13,996,RJCJ 251900Z VRB01KT 9999 -SHSN FEW025 SCT035 BKN050 M10/M13     Q0996 RMK 1CU025 3CU035 7CU050 A2943=,- SN SH
20180125_200000.004,0,RJCJ,,,,0,20180125200000,-1,-1,-1,-1,999,-1,1,-1,-1,-1,-1,,2000,0,1,3,FEW 10   SCT 15   BKN 25,-1,8,-1,10,996,RJCJ 252000Z VRB01KT 2000 -SHSN FEW010 SCT015 BKN025 M08/M10     Q0996 RMK 2CU010 4CU015 7CU025 A2942 VIS W-N 1000M=,- SN SH
20180125_210000.003,0,RJCJ,,,,0,20180125210000,-1,-1,-1,-1,999,-1,1,-1,-1,-1,-1,,1200,1,1,3,SCT 8   BKN 10   OVC 15,-1,6,-1,8,996,RJCJ 252100Z VRB01KT 1200 R36/P1800N -SHSN SCT008 BKN010     OVC015 M06/M08 Q0996 RMK 3CU008 5CU010 8CU015 A2943 VIS           NW-N 2500M M03/M14 R000 S016 SD028=,- SN SH
20180125_220000.003,0,RJCJ,,,,0,20180125220000,-1,-1,-1,-1,300,-1,11,-1,-1,-1,-1,,3000,0,1,3,FEW 10   SCT 15   BKN 25,-1,5,-1,7,997,RJCJ 252200Z 30011KT 3000 -SHSN FEW010 SCT015 BKN025 M05/M07     Q0997 RMK 1CU010 3CU015 7CU025 A2944 VIS W-NW 2000M=,- SN SH
20180125_230000.003,0,RJCJ,,,,0,20180125230000,-1,-1,-1,-1,290,-1,12,-1,-1,-1,-1,,800,1,1,3,FEW 3   SCT 8   BKN 10,-1,5,-1,7,997,RJCJ 252300Z 29012KT 0800 R36/P1800N SHSN FEW003 SCT008 BKN010     M05/M07 Q0997 RMK 2CU003 3CU008 7CU010 A2946 VIS E-SE           1000M=,SN SH
20180126_000000.003,0,RJCJ,,,,0,20180126000000,-1,-1,-1,-1,330,-1,9,-1,-1,-1,-1,,600,1,1,1,VV 3,-1,5,-1,6,998,RJCJ 260000Z 33009KT 0600 R36/1200V1600N SHSN VV003 M05/M06     Q0998 RMK A2948 R1400=,SN SH
20180126_010000.003,0,RJCJ,,,,0,20180126010000,-1,-1,-1,-1,320,-1,12,-1,-1,-1,-1,,2000,0,1,3,FEW 7   SCT 10   BKN 15,-1,4,-1,6,998,RJCJ 260100Z 32012KT 2000 -SHSN FEW007 SCT010 BKN015 M04/M06     Q0998 RMK 1CU007 4CU010 5CU015 A2949 VIS W-NE 5KM=,- SN SH
20180126_020000.003,0,RJCJ,,,,0,20180126020000,-1,-1,-1,-1,320,-1,13,-1,-1,-1,-1,,400,1,1,1,VV 2,-1,4,-1,6,998,RJCJ 260200Z 32013KT 0400 R36/0650VP1800D SHSN VV002 M04/M06     Q0998 RMK A2950 R1000=,SN SH
20180126_030000.003,0,RJCJ,,,,0,20180126030000,-1,-1,-1,-1,330,-1,16,-1,-1,-1,-1,,700,1,1,1,VV 4,-1,4,-1,6,998,RJCJ 260300Z 33016KT 0700 R36/1600N SHSN VV004 M04/M06 Q0998     RMK A2949 VIS SW-W 1000M=,SN SH
20180126_040000.003,0,RJCJ,,,,0,20180126040000,-1,-1,-1,-1,340,-1,7,-1,-1,-1,-1,,8000,0,1,3,FEW 10   BKN 25   BKN 45,-1,4,-1,8,998,RJCJ 260400Z 34007KT 8000 -SHSN FEW010 BKN025 BKN045 M04/M08     Q0998 RMK 1CU010 5CU025 6CU045 A2949=,- SN SH
20180126_050000.003,0,RJCJ,,,,0,20180126050000,-1,-1,-1,-1,340,-1,12,-1,-1,-1,-1,,9999,0,0,2,FEW 10   SCT 45,-1,3,-1,9,998,RJCJ 260500Z 34012KT 9999 FEW010 SCT045 M03/M09 Q0998 RMK     1CU010 3CU045 A2949=,
20180126_060000.003,0,RJCJ,,,,0,20180126060000,-1,-1,-1,-1,330,-1,12,-1,-1,-1,-1,,9999,0,0,2,FEW 10   SCT 40,-1,2,-1,11,999,RJCJ 260600Z 33012KT 9999 FEW010 SCT040 M02/M11 Q0999 RMK     1CU010 3CU040 A2950=,
20180126_070000.003,0,RJCJ,,,,0,20180126070000,-1,-1,-1,-1,340,-1,11,-1,-1,-1,-1,,9999,0,1,2,FEW 10   BKN 45,-1,3,-1,10,999,RJCJ 260700Z 34011KT 9999 -SHSN FEW010 BKN045 M03/M10 Q0999     RMK 1CU010 6CU045 A2952 VIS NW-E 4500M=,- SN SH
20180126_080000.004,0,RJCJ,,,,0,20180126080000,-1,-1,-1,-1,350,-1,13,-1,-1,-1,-1,,9999,0,1,2,FEW 10   SCT 45,-1,5,-1,7,1000,RJCJ 260800Z 35013KT 9999 -SHSN FEW010 SCT045 M05/M07 Q1000     RMK 1CU010 3CU045 A2954 VIS N-E 3000M=,- SN SH
20180126_090000.003,0,RJCJ,,,,0,20180126090000,-1,-1,-1,-1,350,-1,9,-1,-1,-1,-1,,9999,0,1,2,FEW 10   BKN 45,-1,5,-1,7,1001,RJCJ 260900Z 35009KT 9999 -SHSN FEW010 BKN045 M05/M07 Q1001     RMK 1CU010 5CU045 A2957 VIS N-E 5KM=,- SN SH
20180126_100000.003,0,RJCJ,,,,0,20180126100000,-1,-1,-1,-1,340,-1,3,-1,-1,-1,-1,,9999,0,0,3,FEW 10   SCT 45   BKN 80,-1,6,-1,7,1001,RJCJ 261000Z 34003KT 9999 FEW010 SCT045 BKN080 M06/M07 Q1001     RMK 1CU010 3CU045 5AC080 A2959=,
20180126_110000.003,0,RJCJ,,,,0,20180126110000,-1,-1,-1,-1,290,-1,3,-1,-1,-1,-1,,9999,0,0,2,FEW 15   SCT 80,-1,7,-1,10,1002,RJCJ 261100Z 29003KT 9999 FEW015 SCT080 M07/M10 Q1002 RMK     1CU015 4AC080 A2960=,
20180126_120000.003,0,RJCJ,,,,0,20180126120000,-1,-1,-1,-1,999,-1,1,-1,-1,-1,-1,,9999,0,0,2,FEW 15   BKN 150,-1,11,-1,12,1002,RJCJ 261200Z VRB01KT 9999 FEW015 BKN150 M11/M12 Q1002 RMK     1CU015 5AC150 A2960=,
20180126_130000.003,0,RJCJ,,,,0,20180126130000,-1,-1,-1,-1,220,-1,2,-1,-1,-1,-1,,9999,0,0,3,FEW 15   SCT 90   BKN 130,-1,12,-1,14,1002,RJCJ 261300Z 22002KT 9999 FEW015 SCT090 BKN130 M12/M14 Q1002     RMK 1CU015 3AC090 6AC130 A2961=,
20180126_140000.003,0,RJCJ,,,,0,20180126140000,-1,-1,-1,-1,999,-1,1,-1,-1,-1,-1,,9999,0,0,3,FEW 15   BKN 90   BKN 120,-1,13,-1,15,1003,RJCJ 261400Z VRB01KT 9999 FEW015 BKN090 BKN120 M13/M15 Q1003     RMK 1CU015 5AC090 7AC120 A2962=,
20180126_150000.003,0,RJCJ,,,,0,20180126150000,-1,-1,-1,-1,340,-1,1,-1,-1,-1,-1,,9999,0,0,3,FEW 15   SCT 35   BKN 90,-1,14,-1,16,1003,RJCJ 261500Z 34001KT 9999 FEW015 SCT035 BKN090 M14/M16 Q1003     RMK 1CU015 4CU035 6AC090 A2963=,
20180126_160000.003,0,RJCJ,,,,0,20180126160000,-1,-1,-1,-1,0,-1,0,-1,-1,-1,-1,,9999,0,0,2,FEW 15   BKN 120,-1,14,-1,16,1003,RJCJ 261600Z 00000KT 9999 FEW015 BKN120 M14/M16 Q1003 RMK     1CU015 6AC120 A2964=,
20180126_170000.003,0,RJCJ,,,,0,20180126170000,-1,-1,-1,-1,190,-1,2,-1,-1,-1,-1,,9999,0,1,2,FEW 15   BKN 40,-1,13,-1,15,1004,RJCJ 261700Z 19002KT 9999 -SHSN FEW015 BKN040 M13/M15 Q1004     RMK 1CU015 7CU040 A2965=,- SN SH
20180126_180000.003,0,RJCJ,,,,0,20180126180000,-1,-1,-1,-1,200,-1,2,-1,-1,-1,-1,,9999,0,0,2,FEW 15   BKN 45,-1,14,-1,16,1004,RJCJ 261800Z 20002KT 9999 FEW015 BKN045 M14/M16 Q1004 RMK     1CU015 6CU045 A2965=,
20180126_190000.003,0,RJCJ,,,,0,20180126190000,-1,-1,-1,-1,999,-1,1,-1,-1,-1,-1,,9999,0,0,3,FEW 15   SCT 25   BKN 40,-1,13,-1,14,1004,RJCJ 261900Z VRB01KT 9999 FEW015 SCT025 BKN040 M13/M14 Q1004     RMK 1CU015 3CU025 7CU040 A2966=,
20180126_200000.004,0,RJCJ,,,,0,20180126200000,-1,-1,-1,-1,190,-1,3,-1,-1,-1,-1,,9999,0,0,2,FEW 15   BKN 45,-1,13,-1,14,1004,RJCJ 262000Z 19003KT 9999 FEW015 BKN045 M13/M14 Q1004 RMK     1CU015 7CU045 A2967=,
20180126_210000.003,0,RJCJ,,,,0,20180126210000,-1,-1,-1,-1,250,-1,1,-1,-1,-1,-1,,9999,0,0,2,FEW 15   BKN 45,-1,12,-1,14,1005,RJCJ 262100Z 25001KT 9999 FEW015 BKN045 M12/M14 Q1005 RMK     1CU015 6CU045 A2968 M02/M16 R000 S019 SD037=,
20180126_220000.003,0,RJCJ,,,,0,20180126220000,-1,-1,-1,-1,999,-1,1,-1,-1,-1,-1,,9999,0,0,3,FEW 20   SCT 120   BKN 170,-1,13,-1,14,1005,RJCJ 262200Z VRB01KT 9999 FEW020 SCT120 BKN170 M13/M14 Q1005     RMK 1CU020 4AC120 7AC170 A2970=,
20180126_230000.003,0,RJCJ,,,,0,20180126230000,-1,-1,-1,-1,999,-1,1,-1,-1,-1,-1,,9999,0,0,3,FEW 15   SCT 130   BKN 200,-1,13,-1,14,1006,RJCJ 262300Z VRB01KT 9999 FEW015 SCT130 BKN200 M13/M14 Q1006     RMK 1ST015 3AC130 A2972=,
20180127_000000.003,0,RJCJ,,,,0,20180127000000,-1,-1,-1,-1,320,-1,11,-1,-1,-1,-1,,9999,0,0,3,FEW 15   SCT 40   BKN 200,-1,4,-1,9,1007,RJCJ 270000Z 32011KT 9999 FEW015 SCT040 BKN200 M04/M09 Q1007     RMK 1ST015 3CU040 A2974=,
20180127_010000.003,0,RJCJ,,,,0,20180127010000,-1,-1,-1,-1,340,-1,12,-1,-1,-1,-1,,9999,0,0,2,FEW 20   SCT 40,-1,4,-1,8,1007,RJCJ 270100Z 34012KT 9999 FEW020 SCT040 M04/M08 Q1007 RMK     1CU020 3CU040 A2975=,
20180127_020000.003,0,RJCJ,,,,0,20180127020000,-1,-1,-1,-1,340,-1,14,-1,-1,-1,-1,,9999,0,1,2,FEW 15   SCT 40,-1,3,-1,8,1007,RJCJ 270200Z 34014KT 9999 -SHSN FEW015 SCT040 M03/M08 Q1007     RMK 1ST015 3CU040 A2975=,- SN SH
20180127_030000.003,0,RJCJ,,,,0,20180127030000,-1,-1,-1,-1,360,-1,14,-1,-1,-1,-1,,9999,0,1,2,FEW 20   SCT 45,-1,4,-1,7,1006,RJCJ 270300Z 36014KT 9999 -SHSN FEW020 SCT045 M04/M07 Q1006     RMK 1CU020 4CU045 A2973=,- SN SH
20180127_040000.003,0,RJCJ,,,,0,20180127040000,-1,-1,-1,-1,10,-1,12,-1,-1,-1,-1,,9999,0,1,2,FEW 20   SCT 50,-1,3,-1,7,1006,RJCJ 270400Z 01012KT 9999 -SHSN FEW020 SCT050 M03/M07 Q1006     RMK 1CU020 4CU050 A2973=,- SN SH
20180127_050000.003,0,RJCJ,,,,0,20180127050000,-1,-1,-1,-1,20,-1,11,-1,-1,-1,-1,,9999,0,0,3,FEW 20   SCT 50   BKN 150,-1,4,-1,7,1007,RJCJ 270500Z 02011KT 9999 FEW020 SCT050 BKN150 M04/M07 Q1007     RMK 1CU020 4CU050 5AC150 A2974=,
20180127_060000.003,0,RJCJ,,,,0,20180127060000,-1,-1,-1,-1,20,-1,10,-1,-1,-1,-1,,9999,0,0,2,FEW 20   SCT 50,-1,4,-1,8,1007,RJCJ 270600Z 02010KT 9999 FEW020 SCT050 M04/M08 Q1007 RMK     1CU020 4CU050 A2975=,
20180127_070000.003,0,RJCJ,,,,0,20180127070000,-1,-1,-1,-1,340,-1,11,-1,-1,-1,-1,,9999,0,0,2,FEW 20   SCT 50,-1,4,-1,9,1008,RJCJ 270700Z 34011KT 9999 FEW020 SCT050 M04/M09 Q1008 RMK     1CU020 3CU050 A2978=,
20180127_080000.003,0,RJCJ,,,,0,20180127080000,-1,-1,-1,-1,340,-1,8,-1,-1,-1,-1,,9999,0,0,2,FEW 20   SCT 50,-1,5,-1,10,1009,RJCJ 270800Z 34008KT 9999 FEW020 SCT050 M05/M10 Q1009 RMK     1CU020 3CU050 A2980=,
20180127_090000.004,0,RJCJ,,,,0,20180127090000,-1,-1,-1,-1,360,-1,6,-1,-1,-1,-1,,9999,0,0,1,FEW 20,-1,7,-1,10,1009,RJCJ 270900Z 36006KT 9999 FEW020 M07/M10 Q1009 RMK 1CU020     A2982=,
20180127_100000.003,0,RJCJ,,,,0,20180127100000,-1,-1,-1,-1,110,-1,2,-1,-1,-1,-1,,9999,0,0,2,FEW 20   SCT 50,-1,9,-1,12,1010,RJCJ 271000Z 11002KT 9999 FEW020 SCT050 M09/M12 Q1010 RMK     1CU020 3CU050 A2983=,
20180127_110000.003,0,RJCJ,,,,0,20180127110000,-1,-1,-1,-1,999,-1,1,-1,-1,-1,-1,,9999,0,0,2,FEW 20   BKN 50,-1,11,-1,13,1010,RJCJ 271100Z VRB01KT 9999 FEW020 BKN050 M11/M13 Q1010 RMK     1CU020 5CU050 A2984=,
20180127_120000.003,0,RJCJ,,,,0,20180127120000,-1,-1,-1,-1,999,-1,2,-1,-1,-1,-1,,9999,0,0,2,FEW 20   BKN 50,-1,11,-1,13,1010,RJCJ 271200Z VRB02KT 9999 FEW020 BKN050 M11/M13 Q1010 RMK     1CU020 6CU050 A2984=,
20180127_130000.003,0,RJCJ,,,,0,20180127130000,-1,-1,-1,-1,0,-1,0,-1,-1,-1,-1,,9999,0,0,2,FEW 20   BKN 50,-1,11,-1,13,1011,RJCJ 271300Z 00000KT 9999 FEW020 BKN050 M11/M13 Q1011 RMK     1CU020 6CU050 A2986=,
20180127_140000.004,0,RJCJ,,,,0,20180127140000,-1,-1,-1,-1,230,-1,3,-1,-1,-1,-1,,9999,0,0,2,FEW 20   BKN 50,-1,10,-1,12,1011,RJCJ 271400Z 23003KT 9999 FEW020 BKN050 M10/M12 Q1011 RMK     1CU020 7CU050 A2987=,
20180127_150000.003,0,RJCJ,,,,0,20180127150000,-1,-1,-1,-1,999,-1,2,-1,-1,-1,-1,,9999,0,0,2,FEW 20   BKN 50,-1,11,-1,13,1011,RJCJ 271500Z VRB02KT 9999 FEW020 BKN050 M11/M13 Q1011 RMK     1CU020 7CU050 A2988=,
20180127_160000.003,0,RJCJ,,,,0,20180127160000,-1,-1,-1,-1,999,-1,1,-1,-1,-1,-1,,9999,0,0,2,FEW 20   BKN 50,-1,10,-1,12,1012,RJCJ 271600Z VRB01KT 9999 FEW020 BKN050 M10/M12 Q1012 RMK     1CU020 6CU050 A2989=,
20180127_170000.003,0,RJCJ,,,,0,20180127170000,-1,-1,-1,-1,999,-1,2,-1,-1,-1,-1,,9999,0,0,2,FEW 20   BKN 50,-1,10,-1,13,1012,RJCJ 271700Z VRB02KT 9999 FEW020 BKN050 M10/M13 Q1012 RMK     1CU020 7CU050 A2990=,
20180127_180000.003,0,RJCJ,,,,0,20180127180000,-1,-1,-1,-1,280,-1,2,-1,-1,-1,-1,,9999,0,0,1,BKN 50,-1,11,-1,12,1012,RJCJ 271800Z 28002KT 9999 BKN050 M11/M12 Q1012 RMK 6SC050     A2991=,
20180127_190000.003,0,RJCJ,,,,0,20180127190000,-1,-1,-1,-1,999,-1,2,-1,-1,-1,-1,,9999,0,0,1,BKN 50,-1,11,-1,13,1012,RJCJ 271900Z VRB02KT 9999 BKN050 M11/M13 Q1012 RMK 7SC050     A2991=,
20180127_200000.003,0,RJCJ,,,,0,20180127200000,-1,-1,-1,-1,999,-1,2,-1,-1,-1,-1,,9999,0,0,1,BKN 50,-1,10,-1,12,1012,RJCJ 272000Z VRB02KT 9999 BKN050 M10/M12 Q1012 RMK 7SC050     A2991=,
20180127_210000.003,0,RJCJ,,,,0,20180127210000,-1,-1,-1,-1,999,-1,3,-1,-1,-1,-1,,9999,0,0,1,BKN 50,-1,9,-1,11,1012,RJCJ 272100Z VRB03KT 9999 BKN050 M09/M11 Q1012 RMK 5SC050     A2991 M03/M13 R001 S000 SD033=,
20180127_220000.003,0,RJCJ,,,,0,20180127220000,-1,-1,-1,-1,220,-1,4,-1,-1,200,270,,9999,0,0,1,SCT 50,-1,12,-1,13,1013,RJCJ 272200Z 22004KT 200V270 9999 SCT050 M12/M13 Q1013 RMK     4SC050 A2992=,
20180127_230000.003,0,RJCJ,,,,0,20180127230000,-1,-1,-1,-1,180,-1,3,-1,-1,-1,-1,,9999,0,0,2,FEW 25   SCT 50,-1,12,-1,14,1013,RJCJ 272300Z 18003KT 9999 FEW025 SCT050 M12/M14 Q1013 RMK     1CU025 4SC050 A2993=,
20180128_000000.004,0,RJCJ,,,,0,20180128000000,-1,-1,-1,-1,999,-1,1,-1,-1,-1,-1,,9999,0,0,2,FEW 25   SCT 45,-1,11,-1,12,1013,RJCJ 280000Z VRB01KT 9999 FEW025 SCT045 M11/M12 Q1013 RMK     1CU025 4CU045 A2993=,
20180128_010000.003,0,RJCJ,,,,0,20180128010000,-1,-1,-1,-1,110,-1,4,-1,-1,70,140,,9999,0,0,2,FEW 25   SCT 40,-1,8,-1,11,1013,RJCJ 280100Z 11004KT 070V140 9999 FEW025 SCT040 M08/M11 Q1013     RMK 1CU025 4CU040 A2993=,
20180128_020000.003,0,RJCJ,,,,0,20180128020000,-1,-1,-1,-1,270,-1,5,-1,-1,200,340,,9999,0,0,3,FEW 20   SCT 45   BKN 200,-1,3,-1,11,1012,RJCJ 280200Z 27005KT 200V340 9999 FEW020 SCT045 BKN200 M03/M11     Q1012 RMK 1CU020 4CU045 A2990=,
20180128_030000.003,0,RJCJ,,,,0,20180128030000,-1,-1,-1,-1,999,-1,3,-1,-1,-1,-1,,9999,0,0,2,FEW 20   SCT 45,-1,2,-1,11,1011,RJCJ 280300Z VRB03KT 9999 FEW020 SCT045 M02/M11 Q1011 RMK     1CU020 3CU045 A2986=,
20180128_040000.003,0,RJCJ,,,,0,20180128040000,-1,-1,-1,-1,220,-1,5,-1,-1,190,250,,9999,0,0,2,FEW 20   BKN 45,-1,1,-1,12,1009,RJCJ 280400Z 22005KT 190V250 9999 FEW020 BKN045 M01/M12 Q1009     RMK 1CU020 5CU045 A2982=,
20180128_050000.003,0,RJCJ,,,,0,20180128050000,-1,-1,-1,-1,230,-1,10,-1,-1,-1,-1,,9999,0,0,3,FEW 20   SCT 45   BKN 200,-1,2,-1,11,1010,RJCJ 280500Z 23010KT 9999 FEW020 SCT045 BKN200 M02/M11 Q1010     RMK 1CU020 4CU045 A2983=,
20180128_060000.003,0,RJCJ,,,,0,20180128060000,-1,-1,-1,-1,240,-1,8,-1,-1,-1,-1,,9999,0,0,2,FEW 30   BKN 60,-1,2,-1,11,1010,RJCJ 280600Z 24008KT 9999 FEW030 BKN060 M02/M11 Q1010 RMK     1CU030 7SC060 A2983=,
20180128_070000.004,0,RJCJ,,,,0,20180128070000,-1,-1,-1,-1,210,-1,8,-1,-1,190,250,,9999,0,0,3,FEW 30   SCT 45   BKN 60,-1,2,-1,11,1010,RJCJ 280700Z 21008KT 190V250 9999 FEW030 SCT045 BKN060 M02/M11     Q1010 RMK 1CU030 3SC045 7SC060 A2983=,
20180128_080000.003,0,RJCJ,,,,0,20180128080000,-1,-1,-1,-1,170,-1,4,-1,-1,-1,-1,,9999,0,0,3,FEW 30   SCT 45   BKN 60,-1,3,-1,10,1009,RJCJ 280800Z 17004KT 9999 FEW030 SCT045 BKN060 M03/M10     Q1009 RMK 1CU030 3SC045 7SC060 A2982=,
20180128_090000.003,0,RJCJ,,,,0,20180128090000,-1,-1,-1,-1,170,-1,5,-1,-1,-1,-1,,9999,0,0,3,FEW 30   SCT 45   BKN 60,-1,4,-1,9,1009,RJCJ 280900Z 17005KT 9999 FEW030 SCT045 BKN060 M04/M09 Q1009     RMK 1SC030 4SC045 7SC060 A2980=,
20180128_100000.003,0,RJCJ,,,,0,20180128100000,-1,-1,-1,-1,170,-1,7,-1,-1,-1,-1,,9999,0,0,3,FEW 30   SCT 45   BKN 60,-1,3,-1,8,1008,RJCJ 281000Z 17007KT 9999 FEW030 SCT045 BKN060 M03/M08 Q1008     RMK 1SC030 3SC045 7SC060 A2977=,
20180128_110000.003,0,RJCJ,,,,0,20180128110000,-1,-1,-1,-1,180,-1,4,-1,-1,-1,-1,,9999,0,1,3,FEW 30   SCT 45   BKN 60,-1,4,-1,8,1006,RJCJ 281100Z 18004KT 9999 -SN FEW030 SCT045 BKN060 M04/M08     Q1006 RMK 1SC030 3SC045 7SC060 A2971=,- SN
20180128_120000.003,0,RJCJ,,,,0,20180128120000,-1,-1,-1,-1,120,-1,6,-1,-1,-1,-1,,1500,1,1,3,FEW 8   BKN 10   BKN 15,-1,4,-1,6,1005,RJCJ 281200Z 12006KT 1500 R18/P1800N -SN FEW008 BKN010 BKN015     M04/M06 Q1005 RMK 1ST008 5ST010 7ST015 A2968 VIS S 1000M=,- SN
20180128_130000.003,0,RJCJ,,,,0,20180128130000,-1,-1,-1,-1,10,-1,3,-1,-1,350,50,,800,1,1,1,VV 6,-1,5,-1,6,1004,RJCJ 281300Z 01003KT 350V050 0800 R18/P1800N SHSN VV006     M05/M06 Q1004 RMK A2965=,SN SH
20180128_140000.003,0,RJCJ,,,,0,20180128140000,-1,-1,-1,-1,350,-1,8,-1,-1,-1,-1,,500,1,1,1,VV 3,-1,5,-1,6,1003,RJCJ 281400Z 35008KT 0500 R36/1200N SHSN VV003 M05/M06 Q1003     RMK A2962=,SN SH
20180128_150000.003,0,RJCJ,,,,0,20180128150000,-1,-1,-1,-1,350,-1,12,-1,-1,-1,-1,,400,1,1,1,VV 3,-1,5,-1,6,1002,RJCJ 281500Z 35012KT 0400 R36/1400U SHSN VV003 M05/M06 Q1002     RMK A2959=,SN SH
20180128_160000.003,0,RJCJ,,,,0,20180128160000,-1,-1,-1,-1,330,-1,18,-1,-1,-1,-1,,400,1,2,1,VV 3,-1,6,-1,8,1002,RJCJ 281600Z 33018KT 0400 R36/P1800N SHSN BLSN VV003 M06/M08     Q1002 RMK A2960=,SN SH; BL SN
20180128_170000.003,0,RJCJ,,,,0,20180128170000,-1,-1,-1,-1,340,-1,13,-1,-1,-1,-1,,2500,0,1,3,FEW 5   SCT 10   BKN 15,-1,6,-1,8,1003,RJCJ 281700Z 34013KT 2500 -SHSN FEW005 SCT010 BKN015 M06/M08     Q1003 REBLSN RMK 1CU005 3CU010 6CU015 A2963=,- SN SH
20180128_180000.003,0,RJCJ,,,,0,20180128180000,-1,-1,-1,-1,360,-1,10,-1,-1,-1,-1,,9999,0,1,3,FEW 6   SCT 10   BKN 100,-1,7,-1,9,1002,RJCJ 281800Z 36010KT 9999 -SHSN FEW006 SCT010 BKN100 M07/M09     Q1002 RMK 1ST006 3ST010 5AC100 A2962=,- SN SH
20180128_190000.003,0,RJCJ,,,,0,20180128190000,-1,-1,-1,-1,330,-1,14,-1,-1,-1,-1,,9999,0,1,3,FEW 10   BKN 50   BKN 100,-1,7,-1,11,1004,RJCJ 281900Z 33014KT 9999 -SHSN FEW010 BKN050 BKN100 M07/M11     Q1004 RMK 1ST010 7CU050 7AC100 A2965=,- SN SH
20180128_200000.003,0,RJCJ,,,,0,20180128200000,-1,-1,-1,-1,360,-1,7,-1,-1,-1,-1,,9999,0,0,1,FEW 10,-1,9,-1,12,1005,RJCJ 282000Z 36007KT 9999 FEW010 M09/M12 Q1005 RMK 1ST010     A2968=,
20180128_210000.003,0,RJCJ,,,,0,20180128210000,-1,-1,-1,-1,330,-1,7,-1,-1,-1,-1,,9999,0,0,1,FEW 50,-1,8,-1,13,1006,RJCJ 282100Z 33007KT 9999 FEW050 M08/M13 Q1006 RMK 1CU050     A2971 35032KT/1510 M01/M09 R004 S019 SD041=,
20180128_220000.004,0,RJCJ,,,,0,20180128220000,-1,-1,-1,-1,300,-1,6,-1,-1,-1,-1,,9999,0,0,1,FEW 50,-1,8,-1,16,1006,RJCJ 282200Z 30006KT 9999 FEW050 M08/M16 Q1006 RMK 1CU050     A2972=,
20180128_230000.003,0,RJCJ,,,,0,20180128230000,-1,-1,-1,-1,180,-1,3,-1,-1,140,300,,9999,0,0,2,FEW 30   BKN 50,-1,10,-1,16,1007,RJCJ 282300Z 18003KT 140V300 9999 FEW030 BKN050 M10/M16 Q1007     RMK 1CU030 5SC050 A2975=,
20180129_000000.004,0,RJCJ,,,,0,20180129000000,-1,-1,-1,-1,130,-1,3,-1,-1,100,160,,9999,0,0,2,FEW 30   BKN 50,-1,10,-1,14,1007,RJCJ 290000Z 13003KT 100V160 9999 FEW030 BKN050 M10/M14     Q1007 RMK 1CU030 7SC050 A2976=,
20180129_010000.003,0,RJCJ,,,,0,20180129010000,-1,-1,-1,-1,220,-1,4,-1,-1,-1,-1,,9999,0,0,3,FEW 20   SCT 35   BKN 50,-1,8,-1,13,1007,RJCJ 290100Z 22004KT 9999 FEW020 SCT035 BKN050 M08/M13 Q1007     RMK 1CU020 3CU035 7SC050 A2976=,
20180129_020000.003,0,RJCJ,,,,0,20180129020000,-1,-1,-1,-1,140,-1,4,-1,-1,-1,-1,,9999,0,0,2,FEW 20   BKN 50,-1,8,-1,13,1007,RJCJ 290200Z 14004KT 9999 FEW020 BKN050 M08/M13 Q1007 RMK     1CU020 6SC050 A2975=,
20180129_030000.003,0,RJCJ,,,,0,20180129030000,-1,-1,-1,-1,999,-1,2,-1,-1,-1,-1,,9999,0,0,3,FEW 15   SCT 45   BKN 230,-1,6,-1,13,1006,RJCJ 290300Z VRB02KT 9999 FEW015 SCT045 BKN230 M06/M13 Q1006     RMK 1CU015 3SC045 A2973=,
20180129_040000.003,0,RJCJ,,,,0,20180129040000,-1,-1,-1,-1,999,-1,1,-1,-1,-1,-1,,9999,0,1,3,FEW 15   SCT 30   BKN 45,-1,5,-1,15,1006,RJCJ 290400Z VRB01KT 9999 -SHSN FEW015 SCT030 BKN045 M05/M15     Q1006 RMK 1CU015 3CU030 5CU045 A2971=,- SN SH
20180129_050000.003,0,RJCJ,,,,0,20180129050000,-1,-1,-1,-1,270,-1,7,-1,-1,230,290,,9999,0,0,2,FEW 20   BKN 45,-1,5,-1,15,1006,RJCJ 290500Z 27007KT 230V290 9999 FEW020 BKN045 M05/M15 Q1006     RMK 1CU020 6CU045 A2972=,
20180129_060000.003,0,RJCJ,,,,0,20180129060000,-1,-1,-1,-1,360,-1,5,-1,-1,-1,-1,,9999,0,0,3,FEW 20   SCT 35   BKN 45,-1,6,-1,13,1006,RJCJ 290600Z 36005KT 9999 FEW020 SCT035 BKN045 M06/M13 Q1006     RMK 1CU020 3CU035 6CU045 A2972=,
20180129_070000.003,0,RJCJ,,,,0,20180129070000,-1,-1,-1,-1,20,-1,6,-1,-1,-1,-1,,9999,0,1,3,FEW 20   SCT 30   BKN 45,-1,7,-1,12,1007,RJCJ 290700Z 02006KT 9999 -SHSN FEW020 SCT030 BKN045 M07/M12     Q1007 RMK 1CU020 3CU030 6CU045 A2974=,- SN SH
20180129_080000.003,0,RJCJ,,,,0,20180129080000,-1,-1,-1,-1,10,-1,5,-1,-1,-1,-1,,9999,0,0,2,FEW 20   SCT 30,-1,9,-1,13,1007,RJCJ 290800Z 01005KT 9999 FEW020 SCT030 M09/M13 Q1007 RMK     1CU020 3CU030 A2974=,
20180129_090000.003,0,RJCJ,,,,0,20180129090000,-1,-1,-1,-1,999,-1,2,-1,-1,-1,-1,,9999,0,0,1,FEW 20,-1,10,-1,13,1007,RJCJ 290900Z VRB02KT 9999 FEW020 M10/M13 Q1007 RMK 1CU020     A2975=,
20180129_100000.003,0,RJCJ,,,,0,20180129100000,-1,-1,-1,-1,240,-1,4,-1,-1,-1,-1,,9999,0,0,1,FEW 20,-1,12,-1,13,1007,RJCJ 291000Z 24004KT 9999 FEW020 M12/M13 Q1007 RMK 1CU020     A2974=,
20180129_110000.003,0,RJCJ,,,,0,20180129110000,-1,-1,-1,-1,250,-1,4,-1,-1,-1,-1,,9999,0,0,2,FEW 20   BKN 45,-1,11,-1,13,1008,RJCJ 291100Z 25004KT 9999 FEW020 BKN045 M11/M13 Q1008 RMK     1CU020 5CU045 A2977=,
20180129_120000.003,0,RJCJ,,,,0,20180129120000,-1,-1,-1,-1,999,-1,1,-1,-1,-1,-1,,9999,0,0,2,FEW 20   BKN 50,-1,12,-1,13,1008,RJCJ 291200Z VRB01KT 9999 FEW020 BKN050 M12/M13 Q1008 RMK     1CU020 5CU050 A2977=,
20180129_130000.003,0,RJCJ,,,,0,20180129130000,-1,-1,-1,-1,170,-1,3,-1,-1,-1,-1,,9999,0,0,2,FEW 20   BKN 50,-1,14,-1,16,1008,RJCJ 291300Z 17003KT 9999 FEW020 BKN050 M14/M16 Q1008 RMK     1CU020 5CU050 A2978=,
20180129_140000.003,0,RJCJ,,,,0,20180129140000,-1,-1,-1,-1,210,-1,4,-1,-1,160,230,,9999,0,0,2,FEW 20   BKN 50,-1,13,-1,15,1008,RJCJ 291400Z 21004KT 160V230 9999 FEW020 BKN050 M13/M15 Q1008     RMK 1CU020 5CU050 A2978=,
20180129_150000.003,0,RJCJ,,,,0,20180129150000,-1,-1,-1,-1,210,-1,5,-1,-1,-1,-1,,9999,0,0,1,FEW 20,-1,13,-1,17,1008,RJCJ 291500Z 21005KT 9999 FEW020 M13/M17 Q1008 RMK 1CU020     A2977=,
20180129_160000.003,0,RJCJ,,,,0,20180129160000,-1,-1,-1,-1,70,-1,3,-1,-1,10,100,,9999,0,0,1,FEW 20,-1,16,-1,18,1008,RJCJ 291600Z 07003KT 010V100 9999 FEW020 M16/M18 Q1008 RMK     1CU020 A2977=,
20180129_170000.003,0,RJCJ,,,,0,20180129170000,-1,-1,-1,-1,999,-1,2,-1,-1,-1,-1,,9999,0,0,1,FEW 20,-1,18,-1,21,1008,RJCJ 291700Z VRB02KT 9999 FEW020 M18/M21 Q1008 RMK 1CU020     A2978=,
20180129_180000.003,0,RJCJ,,,,0,20180129180000,-1,-1,-1,-1,0,-1,0,-1,-1,-1,-1,,9999,0,0,1,FEW 20,-1,18,-1,20,1008,RJCJ 291800Z 00000KT 9999 FEW020 M18/M20 Q1008 RMK 1CU020     A2978=,
20180129_190000.003,0,RJCJ,,,,0,20180129190000,-1,-1,-1,-1,180,-1,5,-1,-1,-1,-1,,9999,0,0,1,FEW 20,-1,18,-1,21,1008,RJCJ 291900Z 18005KT 9999 FEW020 M18/M21 Q1008 RMK 1CU020     A2977=,
20180129_200000.003,0,RJCJ,,,,0,20180129200000,-1,-1,-1,-1,180,-1,2,-1,-1,-1,-1,,9999,0,0,1,FEW 20,-1,18,-1,20,1008,RJCJ 292000Z 18002KT 9999 FEW020 M18/M20 Q1008 RMK 1CU020     A2978=,
20180129_210000.003,0,RJCJ,,,,0,20180129210000,-1,-1,-1,-1,999,-1,2,-1,-1,-1,-1,,9999,0,0,1,FEW 20,-1,17,-1,19,1009,RJCJ 292100Z VRB02KT 9999 FEW020 M17/M19 Q1009 RMK 1CU020     A2980 M05/M21 R000 S000 SD038=,
20180129_220000.003,0,RJCJ,,,,0,20180129220000,-1,-1,-1,-1,999,-1,1,-1,-1,-1,-1,,9999,0,0,1,FEW 20,-1,21,-1,23,1009,RJCJ 292200Z VRB01KT 9999 FEW020 M21/M23 Q1009 RMK 1CU020     A2982=,
20180129_230000.003,0,RJCJ,,,,0,20180129230000,-1,-1,-1,-1,60,-1,3,-1,-1,360,100,,9999,0,1,1,FEW 20,-1,19,-1,21,1010,RJCJ 292300Z 06003KT 360V100 9999 PRFG FEW020 M19/M21 Q1010     RMK 1CU020 A2984 FG BANK 4000M NE-E=,PR FG
20180130_000000.003,0,RJCJ,,,,0,20180130000000,-1,-1,-1,-1,999,-1,1,-1,-1,-1,-1,,9999,1,1,1,FEW 25,-1,15,-1,18,1010,RJCJ 300000Z VRB01KT 9999 R18/0600VP1800D PRFG FEW025 M15/M18     Q1010 RMK 1CU025 A2985 R1000 FG BANK 1500M E-SE=,PR FG
20180130_010000.003,0,RJCJ,,,,0,20180130010000,-1,-1,-1,-1,110,-1,5,-1,-1,70,130,,9999,0,0,1,FEW 30,-1,8,-1,14,1010,RJCJ 300100Z 11005KT 070V130 9999 FEW030 M08/M14 Q1010 RMK     1CU030 A2985=,
20180130_020000.003,0,RJCJ,,,,0,20180130020000,-1,-1,-1,-1,999,-1,4,-1,-1,-1,-1,,9999,0,0,1,FEW 30,-1,6,-1,14,1010,RJCJ 300200Z VRB04KT 9999 FEW030 M06/M14 Q1010 RMK 1CU030     A2985=,
20180130_030000.003,0,RJCJ,,,,0,20180130030000,-1,-1,-1,-1,999,-1,1,-1,-1,-1,-1,,9999,0,0,2,FEW 20   BKN 40,-1,5,-1,15,1010,RJCJ 300300Z VRB01KT 9999 FEW020 BKN040 M05/M15 Q1010 RMK     1CU020 5CU040 A2985=,
20180130_040000.003,0,RJCJ,,,,0,20180130040000,-1,-1,-1,-1,240,-1,11,-1,-1,210,280,,9999,0,0,2,FEW 20   BKN 40,-1,4,-1,15,1010,RJCJ 300400Z 24011KT 210V280 9999 FEW020 BKN040 M04/M15 Q1010     RMK 1CU020 6CU040 A2983 VIRGA NE=,
20180130_050000.003,0,RJCJ,,,,0,20180130050000,-1,-1,-1,-1,10,-1,8,-1,-1,-1,-1,,9999,0,1,2,FEW 20   BKN 35,-1,6,-1,14,1010,RJCJ 300500Z 01008KT 9999 -SHSN FEW020 BKN035 M06/M14 Q1010     RMK 1CU020 6CU035 A2985=,- SN SH
20180130_060000.004,0,RJCJ,,,,0,20180130060000,-1,-1,-1,-1,360,-1,8,-1,-1,-1,-1,,9999,0,1,2,FEW 20   BKN 35,-1,7,-1,11,1011,RJCJ 300600Z 36008KT 9999 -SHSN FEW020 BKN035 M07/M11 Q1011     RMK 1CU020 6CU035 A2987=,- SN SH
20180130_070000.003,0,RJCJ,,,,0,20180130070000,-1,-1,-1,-1,360,-1,4,-1,-1,-1,-1,,9999,0,1,2,FEW 15   BKN 25,-1,7,-1,10,1012,RJCJ 300700Z 36004KT 9999 -SHSN FEW015 BKN025 M07/M10 Q1012     RMK 1CU015 5CU025 A2989 VIS N-NE 3000M NE-SE 4000M=,- SN SH
20180130_080000.003,0,RJCJ,,,,0,20180130080000,-1,-1,-1,-1,999,-1,2,-1,-1,-1,-1,,9999,0,0,1,FEW 25,-1,8,-1,10,1012,RJCJ 300800Z VRB02KT 9999 FEW025 M08/M10 Q1012 RMK 2CU025     A2991=,
20180130_090000.003,0,RJCJ,,,,0,20180130090000,-1,-1,-1,-1,999,-1,2,-1,-1,-1,-1,,9999,0,0,1,FEW 35,-1,9,-1,10,1013,RJCJ 300900Z VRB02KT 9999 FEW035 M09/M10 Q1013 RMK 2CU035     A2993=,
20180130_100000.003,0,RJCJ,,,,0,20180130100000,-1,-1,-1,-1,230,-1,6,-1,-1,200,260,,9999,0,0,1,FEW 35,-1,9,-1,14,1014,RJCJ 301000Z 23006KT 200V260 9999 FEW035 M09/M14 Q1014 RMK     1CU035 A2996=,
20180130_110000.003,0,RJCJ,,,,0,20180130110000,-1,-1,-1,-1,230,-1,6,-1,-1,-1,-1,,9999,0,0,1,FEW 35,-1,8,-1,16,1014,RJCJ 301100Z 23006KT 9999 FEW035 M08/M16 Q1014 RMK 1CU035     A2997=,
20180130_120000.003,0,RJCJ,,,,0,20180130120000,-1,-1,-1,-1,230,-1,7,-1,-1,-1,-1,,9999,0,0,1,FEW 35,-1,9,-1,16,1015,RJCJ 301200Z 23007KT 9999 FEW035 M09/M16 Q1015 RMK 1CU035     A2998=,
20180130_130000.003,0,RJCJ,,,,0,20180130130000,-1,-1,-1,-1,230,-1,5,-1,-1,-1,-1,,9999,0,0,1,FEW 30,-1,9,-1,16,1015,RJCJ 301300Z 23005KT 9999 FEW030 M09/M16 Q1015 RMK 1CU030     A2999=,
20180130_140000.003,0,RJCJ,,,,0,20180130140000,-1,-1,-1,-1,210,-1,5,-1,-1,-1,-1,,9999,0,0,1,FEW 30,-1,12,-1,17,1015,RJCJ 301400Z 21005KT 9999 FEW030 M12/M17 Q1015 RMK 1CU030     A3000=,
20180130_150000.003,0,RJCJ,,,,0,20180130150000,-1,-1,-1,-1,170,-1,3,-1,-1,-1,-1,,9999,0,0,1,FEW 30,-1,12,-1,17,1016,RJCJ 301500Z 17003KT 9999 FEW030 M12/M17 Q1016 RMK 1CU030     A3000=,
20180130_160000.003,0,RJCJ,,,,0,20180130160000,-1,-1,-1,-1,999,-1,1,-1,-1,-1,-1,,9999,0,0,1,FEW 20,-1,15,-1,20,1015,RJCJ 301600Z VRB01KT 9999 FEW020 M15/M20 Q1015 RMK 1CU020     A3000=,
20180130_170000.003,0,RJCJ,,,,0,20180130170000,-1,-1,-1,-1,120,-1,3,-1,-1,-1,-1,,9999,0,0,1,FEW 20,-1,17,-1,20,1016,RJCJ 301700Z 12003KT 9999 FEW020 M17/M20 Q1016 RMK 1CU020     A3001=,
20180130_180000.003,0,RJCJ,,,,0,20180130180000,-1,-1,-1,-1,190,-1,3,-1,-1,160,250,,9999,0,0,1,FEW 20,-1,18,-1,20,1016,RJCJ 301800Z 19003KT 160V250 9999 FEW020 M18/M20 Q1016 RMK     1CU020 A3000=,
20180130_190000.003,0,RJCJ,,,,0,20180130190000,-1,-1,-1,-1,150,-1,4,-1,-1,-1,-1,,9999,0,0,2,FEW 20   SCT -9999,-1,18,-1,20,1016,RJCJ 301900Z 15004KT 9999 FEW020 SCT/// M18/M20 Q1016 RMK     1CU020 A3002=,
20180130_200000.003,0,RJCJ,,,,0,20180130200000,-1,-1,-1,-1,160,-1,4,-1,-1,-1,-1,,9999,0,0,2,FEW 20   BKN -9999,-1,17,-1,19,1016,RJCJ 302000Z 16004KT 9999 FEW020 BKN/// M17/M19 Q1016 RMK     1CU020 A3002=,
20180130_210000.003,0,RJCJ,,,,0,20180130210000,-1,-1,-1,-1,200,-1,3,-1,-1,170,230,,9999,0,0,3,FEW 20   SCT 110   BKN 150,-1,15,-1,18,1017,RJCJ 302100Z 20003KT 170V230 9999 FEW020 SCT110 BKN150 M15/M18     Q1017 RMK 1CU020 3AC110 7AC150 A3003 M04/M20 R000 S000           SD036=,
20180130_220000.003,0,RJCJ,,,,0,20180130220000,-1,-1,-1,-1,190,-1,4,-1,-1,-1,-1,,9999,0,0,3,FEW 20   BKN 120   BKN 150,-1,14,-1,16,1017,RJCJ 302200Z 19004KT 9999 FEW020 BKN120 BKN150 M14/M16 Q1017     RMK 1CU020 5AC120 6AC150 A3004=,
20180130_230000.003,0,RJCJ,,,,0,20180130230000,-1,-1,-1,-1,160,-1,4,-1,-1,130,190,,9999,0,0,2,FEW 20   BKN 150,-1,15,-1,18,1017,RJCJ 302300Z 16004KT 130V190 9999 FEW020 BKN150 M15/M18 Q1017     RMK 1CU020 6AC150 A3006=,
20180131_000000.003,0,RJCJ,,,,0,20180131000000,-1,-1,-1,-1,130,-1,3,-1,-1,100,190,,9999,0,0,2,FEW 20   SCT 150,-1,12,-1,16,1018,RJCJ 310000Z 13003KT 100V190 9999 FEW020 SCT150 M12/M16 Q1018     RMK 1CU020 3AC150 A3006=,
20180131_010000.003,0,RJCJ,,,,0,20180131010000,-1,-1,-1,-1,220,-1,6,-1,-1,190,250,,9999,0,0,2,FEW 20   SCT 45,-1,4,-1,13,1018,RJCJ 310100Z 22006KT 190V250 9999 FEW020 SCT045 M04/M13 Q1018     RMK 1CU020 4CU045 A3007=,
20180131_020000.003,0,RJCJ,,,,0,20180131020000,-1,-1,-1,-1,240,-1,7,-1,-1,200,270,,9999,0,0,2,FEW 25   SCT 40,-1,3,-1,14,1018,RJCJ 310200Z 24007KT 200V270 9999 FEW025 SCT040 M03/M14 Q1018     RMK 1CU025 3CU040 A3007=,
20180131_030000.003,0,RJCJ,,,,0,20180131030000,-1,-1,-1,-1,220,-1,11,-1,-1,-1,-1,,9999,0,0,2,FEW 30   BKN 50,-1,2,-1,14,1018,RJCJ 310300Z 22011KT 9999 FEW030 BKN050 M02/M14 Q1018 RMK     1CU030 5CU050 A3006=,
20180131_040000.003,0,RJCJ,,,,0,20180131040000,-1,-1,-1,-1,230,-1,9,-1,-1,200,260,,9999,0,0,2,FEW 30   SCT 50,-1,2,-1,14,1017,RJCJ 310400Z 23009KT 200V260 9999 FEW030 SCT050 M02/M14 Q1017     RMK 1CU030 4CU050 A3005=,
20180131_050000.003,0,RJCJ,,,,0,20180131050000,-1,-1,-1,-1,260,-1,8,-1,-1,210,320,,9999,0,0,2,FEW 30   BKN 50,-1,1,-1,15,1017,RJCJ 310500Z 26008KT 210V320 9999 FEW030 BKN050 M01/M15 Q1017     RMK 1CU030 5CU050 A3004=,
20180131_060000.003,0,RJCJ,,,,0,20180131060000,-1,-1,-1,-1,240,-1,10,-1,-1,-1,-1,,9999,0,0,2,FEW 30   SCT 50,-1,2,-1,14,1018,RJCJ 310600Z 24010KT 9999 FEW030 SCT050 M02/M14 Q1018 RMK     1CU030 3CU050 A3006=,
20180131_070000.004,0,RJCJ,,,,0,20180131070000,-1,-1,-1,-1,230,-1,6,-1,-1,190,250,,9999,0,0,3,FEW 30   BKN 70   BKN 210,-1,3,-1,13,1018,RJCJ 310700Z 23006KT 190V250 9999 FEW030 BKN070 BKN210 M03/M13     Q1018 RMK 1CU030 5AC070 A3007=,
20180131_080000.004,0,RJCJ,,,,0,20180131080000,-1,-1,-1,-1,240,-1,3,-1,-1,220,280,,9999,0,0,3,FEW 30   BKN 70   BKN 210,-1,3,-1,12,1019,RJCJ 310800Z 24003KT 220V280 9999 FEW030 BKN070 BKN210 M03/M12     Q1019 RMK 1CU030 5AC070 A3009=,
20180131_090000.003,0,RJCJ,,,,0,20180131090000,-1,-1,-1,-1,190,-1,5,-1,-1,-1,-1,,9999,0,0,3,FEW 30   SCT 45   BKN 50,-1,3,-1,12,1019,RJCJ 310900Z 19005KT 9999 FEW030 SCT045 BKN050 M03/M12 Q1019     RMK 1CU030 3CU045 7CU050 A3011=,
20180131_100000.003,0,RJCJ,,,,0,20180131100000,-1,-1,-1,-1,999,-1,2,-1,-1,-1,-1,,9999,0,0,3,FEW 25   SCT 70   BKN 100,-1,6,-1,12,1019,RJCJ 311000Z VRB02KT 9999 FEW025 SCT070 BKN100 M06/M12 Q1019     RMK 1CU025 3AC070 6AC100 A3011=,
20180131_110000.003,0,RJCJ,,,,0,20180131110000,-1,-1,-1,-1,160,-1,2,-1,-1,-1,-1,,9999,0,0,3,FEW 25   SCT 70   BKN 100,-1,7,-1,11,1019,RJCJ 311100Z 16002KT 9999 FEW025 SCT070 BKN100 M07/M11 Q1019     RMK 1CU025 4AC070 5AC100 A3012=,
20180131_120000.003,0,RJCJ,,,,0,20180131120000,-1,-1,-1,-1,340,-1,6,-1,-1,-1,-1,,9999,0,0,3,FEW 20   BKN 45   BKN 80,-1,7,-1,11,1020,RJCJ 311200Z 34006KT 9999 FEW020 BKN045 BKN080 M07/M11 Q1020     RMK 1CU020 5CU045 7AC080 A3013=,
20180131_130000.004,0,RJCJ,,,,0,20180131130000,-1,-1,-1,-1,360,-1,4,-1,-1,-1,-1,,9999,0,0,2,FEW 20   BKN 45,-1,7,-1,11,1020,RJCJ 311300Z 36004KT 9999 FEW020 BKN045 M07/M11 Q1020 RMK     1CU020 5CU045 A3014=,
20180131_140000.003,0,RJCJ,,,,0,20180131140000,-1,-1,-1,-1,350,-1,5,-1,-1,-1,-1,,9999,0,0,2,FEW 20   BKN 80,-1,9,-1,11,1021,RJCJ 311400Z 35005KT 9999 FEW020 BKN080 M09/M11 Q1021 RMK     1CU020 5AC080 A3016=,
20180131_150000.003,0,RJCJ,,,,0,20180131150000,-1,-1,-1,-1,340,-1,3,-1,-1,-1,-1,,9999,0,0,2,FEW 20   SCT 80,-1,10,-1,11,1021,RJCJ 311500Z 34003KT 9999 FEW020 SCT080 M10/M11 Q1021 RMK     1CU020 4AC080 A3017=,
20180131_160000.003,0,RJCJ,,,,0,20180131160000,-1,-1,-1,-1,999,-1,2,-1,-1,-1,-1,,9999,0,0,2,FEW 20   BKN 80,-1,12,-1,13,1021,RJCJ 311600Z VRB02KT 9999 FEW020 BKN080 M12/M13 Q1021 RMK     1CU020 6AC080 A3017=,
20180131_170000.003,0,RJCJ,,,,0,20180131170000,-1,-1,-1,-1,40,-1,3,-1,-1,-1,-1,,9999,0,0,2,FEW 20   BKN 80,-1,12,-1,14,1022,RJCJ 311700Z 04003KT 9999 FEW020 BKN080 M12/M14 Q1022 RMK     1CU020 6AC080 A3020=,
20180131_180000.003,0,RJCJ,,,,0,20180131180000,-1,-1,-1,-1,999,-1,2,-1,-1,-1,-1,,9999,0,0,2,FEW 20   BKN 70,-1,10,-1,12,1023,RJCJ 311800Z VRB02KT 9999 FEW020 BKN070 M10/M12 Q1023 RMK     1CU020 7AC070 A3022=,
20180131_190000.004,0,RJCJ,,,,0,20180131190000,-1,-1,-1,-1,0,-1,0,-1,-1,-1,-1,,9999,0,0,2,FEW 20   BKN 60,-1,11,-1,13,1023,RJCJ 311900Z 00000KT 9999 FEW020 BKN060 M11/M13 Q1023 RMK     1CU020 7SC060 A3023=,
20180131_200000.004,0,RJCJ,,,,0,20180131200000,-1,-1,-1,-1,999,-1,1,-1,-1,-1,-1,,9999,0,0,2,FEW 20   BKN 60,-1,12,-1,13,1024,RJCJ 312000Z VRB01KT 9999 FEW020 BKN060 M12/M13 Q1024 RMK     1CU020 5SC060 A3024=,
20180131_210000.003,0,RJCJ,,,,0,20180131210000,-1,-1,-1,-1,999,-1,1,-1,-1,-1,-1,,9999,0,0,2,FEW 20   SCT 60,-1,14,-1,16,1024,RJCJ 312100Z VRB01KT 9999 FEW020 SCT060 M14/M16 Q1024 RMK     1CU020 4SC060 A3026 M01/M15 R000 S000 SD035=,
20180131_220000.003,0,RJCJ,,,,0,20180131220000,-1,-1,-1,-1,999,-1,2,-1,-1,-1,-1,,9999,0,0,1,FEW 20,-1,15,-1,17,1025,RJCJ 312200Z VRB02KT 9999 FEW020 M15/M17 Q1025 RMK 1CU020     A3029=,
20180131_230000.003,0,RJCJ,,,,0,20180131230000,-1,-1,-1,-1,200,-1,1,-1,-1,-1,-1,,9999,0,0,2,FEW 30   BKN 60,-1,14,-1,16,1026,RJCJ 312300Z 20001KT 9999 FEW030 BKN060 M14/M16 Q1026 RMK     1CU030 6SC060 A3031=,
20180201_000000.004,0,RJCJ,,,,0,20180201000000,-1,-1,-1,-1,10,-1,3,-1,-1,320,20,,9999,0,0,1,FEW 30,-1,12,-1,16,1027,RJCJ 010000Z 01003KT 320V020 9999 FEW030 M12/M16 Q1027 RMK     1CU030 A3033=,
20180201_010000.003,0,RJCJ,,,,0,20180201010000,-1,-1,-1,-1,340,-1,2,-1,-1,-1,-1,,9999,0,0,1,FEW 30,-1,7,-1,12,1027,RJCJ 010100Z 34002KT 9999 FEW030 M07/M12 Q1027 RMK 1CU030     A3034=,
20180201_020000.003,0,RJCJ,,,,0,20180201020000,-1,-1,-1,-1,20,-1,6,-1,-1,-1,-1,,9999,0,0,1,FEW 30,-1,5,-1,11,1027,RJCJ 010200Z 02006KT 9999 FEW030 M05/M11 Q1027 RMK 1CU030     A3035=,
20180201_030000.004,0,RJCJ,,,,0,20180201030000,-1,-1,-1,-1,10,-1,7,-1,-1,-1,-1,,9999,0,0,1,FEW 30,-1,4,-1,11,1027,RJCJ 010300Z 01007KT 9999 FEW030 M04/M11 Q1027 RMK 1CU030     A3034=,
20180201_040000.004,0,RJCJ,,,,0,20180201040000,-1,-1,-1,-1,20,-1,9,-1,-1,-1,-1,,9999,0,0,1,FEW 30,-1,4,-1,10,1027,RJCJ 010400Z 02009KT 9999 FEW030 M04/M10 Q1027 RMK 1CU030     A3034=,
20180201_050000.003,0,RJCJ,,,,0,20180201050000,-1,-1,-1,-1,20,-1,7,-1,-1,-1,-1,,9999,0,0,1,FEW 30,-1,4,-1,10,1027,RJCJ 010500Z 02007KT 9999 FEW030 M04/M10 Q1027 RMK 1CU030     A3034=,
20180201_060000.003,0,RJCJ,,,,0,20180201060000,-1,-1,-1,-1,350,-1,9,-1,-1,-1,-1,,9999,0,0,1,FEW 30,-1,4,-1,9,1027,RJCJ 010600Z 35009KT 9999 FEW030 M04/M09 Q1027 RMK 1CU030     A3036=,
20180201_070000.003,0,RJCJ,,,,0,20180201070000,-1,-1,-1,-1,360,-1,5,-1,-1,-1,-1,,9999,0,0,1,FEW 30,-1,5,-1,10,1028,RJCJ 010700Z 36005KT 9999 FEW030 M05/M10 Q1028 RMK 1CU030     A3037=,
20180201_080000.003,0,RJCJ,,,,0,20180201080000,-1,-1,-1,-1,340,-1,6,-1,-1,-1,-1,,9999,0,0,1,FEW 30,-1,4,-1,10,1028,RJCJ 010800Z 34006KT 9999 FEW030 M04/M10 Q1028 RMK 1CU030     A3038=,
20180201_090000.003,0,RJCJ,,,,0,20180201090000,-1,-1,-1,-1,320,-1,4,-1,-1,-1,-1,,9999,0,0,1,FEW 30,-1,5,-1,10,1029,RJCJ 010900Z 32004KT 9999 FEW030 M05/M10 Q1029 RMK 1CU030     A3039=,
20180201_100000.003,0,RJCJ,,,,0,20180201100000,-1,-1,-1,-1,330,-1,5,-1,-1,-1,-1,,9999,0,0,1,FEW 30,-1,6,-1,10,1029,RJCJ 011000Z 33005KT 9999 FEW030 M06/M10 Q1029 RMK 1CU030     A3040=,
20180201_110000.003,0,RJCJ,,,,0,20180201110000,-1,-1,-1,-1,310,-1,3,-1,-1,290,20,,9999,0,0,1,FEW 40,-1,7,-1,10,1029,RJCJ 011100Z 31003KT 290V020 9999 FEW040 M07/M10 Q1029 RMK     1SC040 A3041=,
20180201_120000.003,0,RJCJ,,,,0,20180201120000,-1,-1,-1,-1,20,-1,3,-1,-1,340,50,,9999,0,0,1,FEW 30,-1,13,-1,15,1030,RJCJ 011200Z 02003KT 340V050 9999 FEW030 M13/M15 Q1030 RMK     1SC030 A3042=,
20180201_130000.003,0,RJCJ,,,,0,20180201130000,-1,-1,-1,-1,310,-1,3,-1,-1,-1,-1,,9999,0,0,1,FEW 30,-1,11,-1,12,1030,RJCJ 011300Z 31003KT 9999 FEW030 M11/M12 Q1030 RMK 1SC030     A3043=,
20180201_140000.003,0,RJCJ,,,,0,20180201140000,-1,-1,-1,-1,290,-1,3,-1,-1,-1,-1,,9999,0,0,2,FEW 2   SCT 3,-1,11,-1,12,1030,RJCJ 011400Z 29003KT 9999 FEW002 SCT003 M11/M12 Q1030 RMK     1ST002 3ST003 A3043=,
20180201_150000.003,0,RJCJ,,,,0,20180201150000,-1,-1,-1,-1,999,-1,2,-1,-1,-1,-1,,1500,1,2,1,SCT 0,-1,15,-1,16,1030,RJCJ 011500Z VRB02KT 1500 R36/P1800N PRFG BR SCT000 M15/M16     Q1030 RMK 4ST000 A3044 FG BANK 800M NE-E=,PR FG; BR
20180201_160000.003,0,RJCJ,,,,0,20180201160000,-1,-1,-1,-1,999,-1,2,-1,-1,-1,-1,,6000,1,1,1,FEW 0,-1,15,-1,18,1030,RJCJ 011600Z VRB02KT 6000 R36/0900VP1800N PRFG FEW000 M15/M18     Q1030 RMK 2ST000 A3044 R1600 FG BANK 4000M SE-S=,PR FG
20180201_170000.003,0,RJCJ,,,,0,20180201170000,-1,-1,-1,-1,330,-1,1,-1,-1,-1,-1,,6000,0,1,1,FEW 0,-1,14,-1,16,1030,RJCJ 011700Z 33001KT 6000 PRFG FEW000 M14/M16 Q1030 RMK 2ST000     A3044 FG BANK 4000M SE-S=,PR FG
20180201_180000.003,0,RJCJ,,,,0,20180201180000,-1,-1,-1,-1,310,-1,2,-1,-1,-1,-1,,9999,0,0,1,FEW 1,-1,17,-1,19,1030,RJCJ 011800Z 31002KT 9999 FEW001 M17/M19 Q1030 RMK 1ST001     A3043=,
20180201_190000.004,0,RJCJ,,,,0,20180201190000,-1,-1,-1,-1,360,-1,3,-1,-1,-1,-1,,9999,0,0,1,FEW 1,-1,17,-1,19,1030,RJCJ 011900Z 36003KT 9999 FEW001 M17/M19 Q1030 RMK 1ST001     A3043=,
20180201_200000.004,0,RJCJ,,,,0,20180201200000,-1,-1,-1,-1,999,-1,1,-1,-1,-1,-1,,9999,0,0,1,FEW 10,-1,17,-1,19,1030,RJCJ 012000Z VRB01KT 9999 FEW010 M17/M19 Q1030 RMK 1ST010     A3043=,
20180201_210000.003,0,RJCJ,,,,0,20180201210000,-1,-1,-1,-1,30,-1,2,-1,-1,-1,-1,,9999,0,0,1,FEW 5,-1,19,-1,21,1030,RJCJ 012100Z 03002KT 9999 FEW005 M19/M21 Q1030 RMK 1ST005     A3043 M03/M20 SD034=,
20180201_220000.003,0,RJCJ,,,,0,20180201220000,-1,-1,-1,-1,999,-1,2,-1,-1,-1,-1,,9999,0,1,1,FEW 1,-1,20,-1,22,1030,RJCJ 012200Z VRB02KT 9999 PRFG FEW001 M20/M22 Q1030 RMK 1ST001     A3044 FG BANK 2500M E=,PR FG
20180201_230000.004,0,RJCJ,,,,0,20180201230000,-1,-1,-1,-1,350,-1,1,-1,-1,-1,-1,,9999,0,1,1,FEW 2,-1,18,-1,20,1030,RJCJ 012300Z 35001KT 9999 PRFG FEW002 M18/M20 Q1030 RMK 1ST002     A3044 FG BANK 3000M E-SE=,PR FG
20180202_000000.003,0,RJCJ,,,,0,20180202000000,-1,-1,-1,-1,30,-1,1,-1,-1,-1,-1,,9999,0,1,1,FEW 8,-1,16,-1,18,1030,RJCJ 020000Z 03001KT 9999 PRFG FEW008 M16/M18 Q1030 RMK 1ST008     A3044 FG BANK 3000M E-SE=,PR FG
20180202_010000.003,0,RJCJ,,,,0,20180202010000,-1,-1,-1,-1,340,-1,1,-1,-1,-1,-1,,9999,0,1,1,FEW 30,-1,12,-1,13,1030,RJCJ 020100Z 34001KT 9999 PRFG FEW030 M12/M13 Q1030 RMK 1CU030     A3044 FG BANK 4500M E-SE=,PR FG
20180202_020000.003,0,RJCJ,,,,0,20180202020000,-1,-1,-1,-1,360,-1,2,-1,-1,-1,-1,,9999,0,0,2,FEW 30   SCT 250,-1,10,-1,13,1029,RJCJ 020200Z 36002KT 9999 FEW030 SCT250 M10/M13 Q1029 RMK     1CU030 A3041=,
20180202_030000.003,0,RJCJ,,,,0,20180202030000,-1,-1,-1,-1,340,-1,3,-1,-1,-1,-1,,9999,0,0,1,FEW 30,-1,5,-1,12,1028,RJCJ 020300Z 34003KT 9999 FEW030 M05/M12 Q1028 RMK 1CU030     A3038=,
20180202_040000.003,0,RJCJ,,,,0,20180202040000,-1,-1,-1,-1,110,-1,7,-1,-1,-1,-1,,9999,0,0,1,FEW 30,-1,3,-1,10,1027,RJCJ 020400Z 11007KT 9999 FEW030 M03/M10 Q1027 RMK 1CU030     A3035=,
20180202_050000.002,0,RJCJ,,,,0,20180202050000,-1,-1,-1,-1,170,-1,9,-1,-1,140,200,,9999,0,0,1,FEW 30,-1,0,-1,11,1027,RJCJ 020500Z 17009KT 140V200 9999 FEW030 M00/M11 Q1027 RMK     1CU030 A3035=,
20180202_060000.003,0,RJCJ,,,,0,20180202060000,-1,-1,-1,-1,170,-1,9,-1,-1,-1,-1,,9999,0,0,1,FEW 30,-1,1,-1,11,1028,RJCJ 020600Z 17009KT 9999 FEW030 M01/M11 Q1028 RMK 1CU030     A3036=,
20180202_070000.003,0,RJCJ,,,,0,20180202070000,-1,-1,-1,-1,160,-1,8,-1,-1,-1,-1,,9999,0,0,1,FEW 30,-1,3,-1,10,1028,RJCJ 020700Z 16008KT 9999 FEW030 M03/M10 Q1028 RMK 1CU030     A3037=,
20180202_080000.003,0,RJCJ,,,,0,20180202080000,-1,-1,-1,-1,180,-1,5,-1,-1,-1,-1,,9999,0,0,1,FEW 30,-1,3,-1,10,1028,RJCJ 020800Z 18005KT 9999 FEW030 M03/M10 Q1028 RMK 1CU030     A3038=,
20180202_090000.003,0,RJCJ,,,,0,20180202090000,-1,-1,-1,-1,180,-1,4,-1,-1,-1,-1,,9999,0,0,2,FEW 30   BKN 60,-1,4,-1,10,1028,RJCJ 020900Z 18004KT 9999 FEW030 BKN060 M04/M10 Q1028 RMK     1CU030 5SC060 A3038=,
20180202_100000.004,0,RJCJ,,,,0,20180202100000,-1,-1,-1,-1,190,-1,5,-1,-1,-1,-1,,9999,0,0,2,FEW 30   BKN 60,-1,4,-1,10,1028,RJCJ 021000Z 19005KT 9999 FEW030 BKN060 M04/M10 Q1028 RMK     1CU030 6CU060 A3037=,
20180202_110000.003,0,RJCJ,,,,0,20180202110000,-1,-1,-1,-1,350,-1,3,-1,-1,-1,-1,,9999,0,0,2,FEW 30   BKN 60,-1,5,-1,9,1027,RJCJ 021100Z 35003KT 9999 FEW030 BKN060 M05/M09 Q1027 RMK     1CU030 6CU060 A3036=,
20180202_120000.003,0,RJCJ,,,,0,20180202120000,-1,-1,-1,-1,300,-1,3,-1,-1,-1,-1,,9999,0,0,2,FEW 30   SCT 60,-1,7,-1,10,1027,RJCJ 021200Z 30003KT 9999 FEW030 SCT060 M07/M10 Q1027 RMK     1CU030 4SC060 A3035=,
20180202_130000.004,0,RJCJ,,,,0,20180202130000,-1,-1,-1,-1,330,-1,3,-1,-1,-1,-1,,9999,0,0,2,FEW 30   SCT 50,-1,8,-1,11,1027,RJCJ 021300Z 33003KT 9999 FEW030 SCT050 M08/M11 Q1027 RMK     1CU030 3SC050 A3034=,
20180202_140000.003,0,RJCJ,,,,0,20180202140000,-1,-1,-1,-1,360,-1,3,-1,-1,-1,-1,,9999,0,0,3,FEW 30   SCT 50   BKN 70,-1,10,-1,12,1027,RJCJ 021400Z 36003KT 9999 FEW030 SCT050 BKN070 M10/M12 Q1027     RMK 1CU030 3SC050 5AC070 A3033=,
20180202_150000.003,0,RJCJ,,,,0,20180202150000,-1,-1,-1,-1,50,-1,2,-1,-1,-1,-1,,9999,0,0,2,FEW 30   SCT 70,-1,12,-1,14,1026,RJCJ 021500Z 05002KT 9999 FEW030 SCT070 M12/M14 Q1026 RMK     1CU030 4AC070 A3032=,
20180202_160000.003,0,RJCJ,,,,0,20180202160000,-1,-1,-1,-1,10,-1,5,-1,-1,-1,-1,,9999,0,0,1,FEW 30,-1,12,-1,13,1026,RJCJ 021600Z 01005KT 9999 FEW030 M12/M13 Q1026 RMK 1CU030     A3032=,
20180202_170000.003,0,RJCJ,,,,0,20180202170000,-1,-1,-1,-1,350,-1,6,-1,-1,-1,-1,,9999,0,0,1,FEW 20,-1,12,-1,14,1026,RJCJ 021700Z 35006KT 9999 FEW020 M12/M14 Q1026 RMK 1CU020     A3030=,
20180202_180000.004,0,RJCJ,,,,0,20180202180000,-1,-1,-1,-1,20,-1,4,-1,-1,-1,-1,,9999,0,0,2,FEW 20   BKN 40,-1,13,-1,15,1026,RJCJ 021800Z 02004KT 9999 FEW020 BKN040 M13/M15 Q1026 RMK     1CU020 6SC040 A3031=,
20180202_190000.004,0,RJCJ,,,,0,20180202190000,-1,-1,-1,-1,360,-1,5,-1,-1,-1,-1,,9999,0,0,2,FEW 20   BKN 40,-1,12,-1,13,1026,RJCJ 021900Z 36005KT 9999 FEW020 BKN040 M12/M13 Q1026 RMK     1CU020 7SC040 A3030=,
20180202_200000.004,0,RJCJ,,,,0,20180202200000,-1,-1,-1,-1,360,-1,3,-1,-1,-1,-1,,9999,0,0,2,FEW 20   BKN 40,-1,11,-1,13,1025,RJCJ 022000Z 36003KT 9999 FEW020 BKN040 M11/M13 Q1025 RMK     1CU020 7SC040 A3029=,
20180202_210000.003,0,RJCJ,,,,0,20180202210000,-1,-1,-1,-1,360,-1,4,-1,-1,-1,-1,,9999,0,0,2,FEW 20   BKN 45,-1,10,-1,12,1025,RJCJ 022100Z 36004KT 9999 FEW020 BKN045 M10/M12 Q1025 RMK     1CU020 7SC045 A3028 M00/M14 SD034=,
20180202_220000.003,0,RJCJ,,,,0,20180202220000,-1,-1,-1,-1,10,-1,3,-1,-1,-1,-1,,9999,0,0,2,FEW 20   BKN 45,-1,10,-1,12,1025,RJCJ 022200Z 01003KT 9999 FEW020 BKN045 M10/M12 Q1025 RMK     1CU020 7SC045 A3027=,
20180202_230000.004,0,RJCJ,,,,0,20180202230000,-1,-1,-1,-1,350,-1,5,-1,-1,-1,-1,,9999,0,0,3,FEW 20   SCT 45   BKN 60,-1,9,-1,12,1024,RJCJ 022300Z 35005KT 9999 FEW020 SCT045 BKN060 M09/M12 Q1024     RMK 1CU020 4SC045 7SC060 A3025=,
20180203_000000.003,0,RJCJ,,,,0,20180203000000,-1,-1,-1,-1,360,-1,5,-1,-1,-1,-1,,9999,0,0,2,FEW 20   BKN 60,-1,9,-1,11,1023,RJCJ 030000Z 36005KT 9999 FEW020 BKN060 M09/M11 Q1023 RMK     1CU020 7SC060 A3024=,
20180203_010000.004,0,RJCJ,,,,0,20180203010000,-1,-1,-1,-1,350,-1,5,-1,-1,-1,-1,,9999,0,0,2,FEW 20   BKN 60,-1,7,-1,11,1023,RJCJ 030100Z 35005KT 9999 FEW020 BKN060 M07/M11 Q1023 RMK     1CU020 6SC060 A3021=,
20180203_020000.003,0,RJCJ,,,,0,20180203020000,-1,-1,-1,-1,350,-1,7,-1,-1,-1,-1,,9999,0,0,2,FEW 20   BKN 70,-1,5,-1,10,1021,RJCJ 030200Z 35007KT 9999 FEW020 BKN070 M05/M10 Q1021 RMK     1CU020 7AC070 A3017=,
20180203_030000.003,0,RJCJ,,,,0,20180203030000,-1,-1,-1,-1,360,-1,6,-1,-1,-1,-1,,9999,0,0,2,FEW 20   BKN 70,-1,4,-1,10,1020,RJCJ 030300Z 36006KT 9999 FEW020 BKN070 M04/M10 Q1020 RMK     1CU020 7AC070 A3014=,
20180203_040000.003,0,RJCJ,,,,0,20180203040000,-1,-1,-1,-1,999,-1,1,-1,-1,-1,-1,,9999,0,0,2,FEW 20   BKN 70,-1,3,-1,10,1019,RJCJ 030400Z VRB01KT 9999 FEW020 BKN070 M03/M10 Q1019 RMK     1CU020 6AC070 A3011=,
20180203_050000.003,0,RJCJ,,,,0,20180203050000,-1,-1,-1,-1,999,-1,1,-1,-1,-1,-1,,9999,0,0,2,FEW 35   BKN 70,-1,2,-1,9,1019,RJCJ 030500Z VRB01KT 9999 FEW035 BKN070 M02/M09 Q1019 RMK     1CU035 7AC070 A3009=,
20180203_060000.003,0,RJCJ,,,,0,20180203060000,-1,-1,-1,-1,140,-1,3,-1,-1,80,190,,9999,0,0,3,FEW 35   SCT 70   BKN 120,-1,1,-1,9,1018,RJCJ 030600Z 14003KT 080V190 9999 FEW035 SCT070 BKN120 M01/M09     Q1018 RMK 1CU035 4AC070 5AC120 A3008=,
20180203_070000.004,0,RJCJ,,,,0,20180203070000,-1,-1,-1,-1,160,-1,7,-1,-1,-1,-1,,9999,0,0,2,FEW 40   BKN 100,-1,2,-1,8,1018,RJCJ 030700Z 16007KT 9999 FEW040 BKN100 M02/M08 Q1018 RMK     1CU040 6AC100 A3007=,
20180203_080000.003,0,RJCJ,,,,0,20180203080000,-1,-1,-1,-1,100,-1,5,-1,-1,-1,-1,,9999,0,0,3,FEW 40   SCT 100   BKN 200,-1,3,-1,9,1017,RJCJ 030800Z 10005KT 9999 FEW040 SCT100 BKN200 M03/M09 Q1017     RMK 1CU040 4AC100 A3005=,
20180203_090000.003,0,RJCJ,,,,0,20180203090000,-1,-1,-1,-1,180,-1,4,-1,-1,-1,-1,,9999,0,0,3,FEW 40   SCT 100   BKN -9999,-1,3,-1,9,1017,RJCJ 030900Z 18004KT 9999 FEW040 SCT100 BKN/// M03/M09 Q1017     RMK 1CU040 3AC100 A3004=,
20180203_100000.003,0,RJCJ,,,,0,20180203100000,-1,-1,-1,-1,999,-1,1,-1,-1,-1,-1,,9999,0,0,3,FEW 30   BKN 110   BKN -9999,-1,5,-1,9,1016,RJCJ 031000Z VRB01KT 9999 FEW030 BKN110 BKN/// M05/M09 Q1016     RMK 1CU030 6AC110 A3001=,
20180203_100000.005,1,RJCJ,,,,0,20180203100000,-1,-1,-1,-1,999,-1,1,-1,-1,-1,-1,,9999,0,0,3,FEW 30   BKN 110   BKN -9999,-1,5,-1,9,1016,RJCJ 031000Z VRB01KT 9999 FEW030 BKN110 BKN/// M05/M09     Q1016 RMK 1CU030 6AC110 A3001=,
20180203_110000.003,0,RJCJ,,,,0,20180203110000,-1,-1,-1,-1,999,-1,1,-1,-1,-1,-1,,9999,0,0,3,FEW 30   BKN 70   BKN 100,-1,3,-1,9,1015,RJCJ 031100Z VRB01KT 9999 FEW030 BKN070 BKN100 M03/M09 Q1015     RMK 1CU030 5AC070 7AC100 A2999=,
20180203_120000.003,0,RJCJ,,,,0,20180203120000,-1,-1,-1,-1,330,-1,2,-1,-1,-1,-1,,9999,0,0,2,FEW 30   BKN 70,-1,3,-1,9,1014,RJCJ 031200Z 33002KT 9999 FEW030 BKN070 M03/M09 Q1014 RMK     1CU030 7AC070 A2997=,
20180203_130000.003,0,RJCJ,,,,0,20180203130000,-1,-1,-1,-1,260,-1,3,-1,-1,240,300,,9999,0,1,3,FEW 20   BKN 30   BKN 45,-1,3,-1,9,1014,RJCJ 031300Z 26003KT 240V300 9999 -SHSN FEW020 BKN030 BKN045     M03/M09 Q1014 RMK 2CU020 5CU030 6CU045 A2995=,- SN SH
20180203_140000.003,0,RJCJ,,,,0,20180203140000,-1,-1,-1,-1,210,-1,4,-1,-1,140,270,,2500,0,1,3,FEW 8   SCT 10   BKN 15,-1,3,-1,8,1014,RJCJ 031400Z 21004KT 140V270 2500 -SHSN FEW008 SCT010 BKN015     M03/M08 Q1014 RMK 1CU008 3CU010 5CU015 A2996 VIS SE-W           2000M=,- SN SH
20180203_150000.003,0,RJCJ,,,,0,20180203150000,-1,-1,-1,-1,170,-1,2,-1,-1,-1,-1,,1500,1,1,3,FEW 8   SCT 10   OVC 15,-1,4,-1,5,1013,RJCJ 031500Z 17002KT 1500 R36/P1800U -SHSN FEW008 SCT010     OVC015 M04/M05 Q1013 RMK 2CU008 3CU010 8CU015 A2994 VIS           NE-E 1000M S-SW 2000M=,- SN SH
20180203_160000.003,0,RJCJ,,,,0,20180203160000,-1,-1,-1,-1,310,-1,3,-1,-1,260,340,,8000,0,1,3,FEW 15   SCT 25   BKN 60,-1,4,-1,5,1012,RJCJ 031600Z 31003KT 260V340 8000 -SHSN FEW015 SCT025 BKN060     M04/M05 Q1012 RMK 1CU015 3CU025 7CU060 A2991=,- SN SH
20180203_170000.003,0,RJCJ,,,,0,20180203170000,-1,-1,-1,-1,290,-1,5,-1,-1,-1,-1,,9999,0,1,2,FEW 15   BKN 60,-1,4,-1,5,1011,RJCJ 031700Z 29005KT 9999 -SHSN FEW015 BKN060 M04/M05 Q1011     RMK 1CU015 7CU060 A2988=,- SN SH
20180203_180000.004,0,RJCJ,,,,0,20180203180000,-1,-1,-1,-1,250,-1,4,-1,-1,-1,-1,,9999,0,1,3,FEW 15   SCT 40   BKN 60,-1,4,-1,5,1011,RJCJ 031800Z 25004KT 9999 -SHSN FEW015 SCT040 BKN060 M04/M05     Q1011 RMK 1CU015 3CU040 7CU060 A2987=,- SN SH
20180203_190000.003,0,RJCJ,,,,0,20180203190000,-1,-1,-1,-1,340,-1,3,-1,-1,-1,-1,,8000,0,1,3,FEW 15   SCT 40   BKN 60,-1,5,-1,6,1011,RJCJ 031900Z 34003KT 8000 -SHSN FEW015 SCT040 BKN060 M05/M06     Q1011 RMK 1CU015 3CU040 7CU060 A2986=,- SN SH
20180203_200000.003,0,RJCJ,,,,0,20180203200000,-1,-1,-1,-1,310,-1,4,-1,-1,280,340,,8000,0,1,3,FEW 10   SCT 40   BKN 60,-1,5,-1,6,1010,RJCJ 032000Z 31004KT 280V340 8000 -SHSN FEW010 SCT040 BKN060     M05/M06 Q1010 RMK 1CU010 3CU040 7CU060 A2985=,- SN SH
20180203_210000.003,0,RJCJ,,,,0,20180203210000,-1,-1,-1,-1,320,-1,4,-1,-1,-1,-1,,8000,0,1,3,FEW 10   SCT 40   BKN 60,-1,4,-1,6,1010,RJCJ 032100Z 32004KT 8000 -SHSN FEW010 SCT040 BKN060 M04/M06     Q1010 RMK 1CU010 3CU040 7CU060 A2983 M01/M06 R000 S004           SD036=,- SN SH
20180203_220000.003,0,RJCJ,,,,0,20180203220000,-1,-1,-1,-1,20,-1,5,-1,-1,-1,-1,,8000,0,1,3,FEW 10   SCT 40   BKN 60,-1,5,-1,6,1009,RJCJ 032200Z 02005KT 8000 -SHSN FEW010 SCT040 BKN060 M05/M06     Q1009 RMK 1CU010 3CU040 7CU060 A2982=,- SN SH
20180203_230000.003,0,RJCJ,,,,0,20180203230000,-1,-1,-1,-1,340,-1,3,-1,-1,-1,-1,,9999,0,1,3,FEW 10   SCT 45   BKN 70,-1,5,-1,6,1009,RJCJ 032300Z 34003KT 9999 -SHSN FEW010 SCT045 BKN070 M05/M06     Q1009 RMK 1CU010 3CU045 7AC070 A2982=,- SN SH
20180204_000000.003,0,RJCJ,,,,0,20180204000000,-1,-1,-1,-1,310,-1,5,-1,-1,-1,-1,,9999,0,0,3,FEW 20   SCT 45   BKN 70,-1,4,-1,6,1009,RJCJ 040000Z 31005KT 9999 FEW020 SCT045 BKN070 M04/M06 Q1009     RMK 1CU020 3CU045 6AC070 A2980=,
20180204_010000.003,0,RJCJ,,,,0,20180204010000,-1,-1,-1,-1,290,-1,4,-1,-1,-1,-1,,9999,0,0,3,FEW 20   SCT 50   BKN 70,-1,3,-1,6,1009,RJCJ 040100Z 29004KT 9999 FEW020 SCT050 BKN070 M03/M06 Q1009     RMK 1CU020 4CU050 7AC070 A2981=,
20180204_020000.003,0,RJCJ,,,,0,20180204020000,-1,-1,-1,-1,320,-1,3,-1,-1,250,340,,9999,0,0,3,FEW 20   BKN 40   BKN 70,-1,1,-1,7,1009,RJCJ 040200Z 32003KT 250V340 9999 FEW020 BKN040 BKN070 M01/M07     Q1009 RMK 1CU020 7CU040 7AC070 A2980=,
20180204_030000.003,0,RJCJ,,,,0,20180204030000,-1,-1,-1,-1,170,-1,5,-1,-1,-1,-1,,9000,0,1,3,FEW 15   BKN 30   BKN 40,-1,1,-1,5,1008,RJCJ 040300Z 17005KT 9000 -SHSN FEW015 BKN030 BKN040 M01/M05     Q1008 RMK 1CU015 5CU030 7CU040 A2979=,- SN SH
20180204_040000.003,0,RJCJ,,,,0,20180204040000,-1,-1,-1,-1,110,-1,5,-1,-1,-1,-1,,2500,0,1,3,FEW 10   SCT 15   BKN 25,-1,2,-1,4,1008,RJCJ 040400Z 11005KT 2500 -SHSN FEW010 SCT015 BKN025 M02/M04     Q1008 RMK 1CU010 4CU015 7CU025 A2977 VIS S 4500M=,- SN SH
20180204_050000.003,0,RJCJ,,,,0,20180204050000,-1,-1,-1,-1,70,-1,7,-1,-1,-1,-1,,9999,0,1,3,FEW 15   BKN 45   BKN 70,-1,1,-1,4,1007,RJCJ 040500Z 07007KT 9999 -SHSN FEW015 BKN045 BKN070 M01/M04     Q1007 RMK 1CU015 7CU045 7AC070 A2975=,- SN SH
20180204_060000.003,0,RJCJ,,,,0,20180204060000,-1,-1,-1,-1,90,-1,4,-1,-1,-1,-1,,9999,0,0,3,FEW 25   BKN 40   BKN 130,-1,1,-1,4,1007,RJCJ 040600Z 09004KT 9999 FEW025 BKN040 BKN130 M01/M04 Q1007     RMK 1CU025 5CU040 5AC130 A2975=,
20180204_070000.003,0,RJCJ,,,,0,20180204070000,-1,-1,-1,-1,999,-1,2,-1,-1,-1,-1,,9999,0,0,2,FEW 25   BKN 150,-1,1,-1,4,1007,RJCJ 040700Z VRB02KT 9999 FEW025 BKN150 M01/M04 Q1007 RMK     1CU025 7AC150 A2975=,
20180204_080000.003,0,RJCJ,,,,0,20180204080000,-1,-1,-1,-1,350,-1,7,-1,-1,-1,-1,,9999,0,0,2,FEW 25   BKN 160,-1,3,-1,4,1007,RJCJ 040800Z 35007KT 9999 FEW025 BKN160 M03/M04 Q1007 RMK     1CU025 6AC160 A2975=,
20180204_090000.003,0,RJCJ,,,,0,20180204090000,-1,-1,-1,-1,330,-1,4,-1,-1,-1,-1,,9999,0,0,1,FEW 25,-1,4,-1,5,1007,RJCJ 040900Z 33004KT 9999 FEW025 M04/M05 Q1007 RMK 1CU025     A2974=,
20180204_100000.003,0,RJCJ,,,,0,20180204100000,-1,-1,-1,-1,250,-1,3,-1,-1,-1,-1,,9999,0,0,1,FEW 25,-1,5,-1,6,1007,RJCJ 041000Z 25003KT 9999 FEW025 M05/M06 Q1007 RMK 1CU025     A2974=,
20180204_110000.004,0,RJCJ,,,,0,20180204110000,-1,-1,-1,-1,260,-1,2,-1,-1,-1,-1,,9999,0,0,2,FEW 1   SCT 120,-1,6,-1,7,1006,RJCJ 041100Z 26002KT 9999 FEW001 SCT120 M06/M07 Q1006 RMK     1ST001 3AC120 A2973=,
20180204_120000.003,0,RJCJ,,,,0,20180204120000,-1,-1,-1,-1,30,-1,2,-1,-1,-1,-1,,9999,0,0,2,FEW 10   BKN 130,-1,7,-1,8,1006,RJCJ 041200Z 03002KT 9999 FEW010 BKN130 M07/M08 Q1006 RMK     1ST010 5AC130 A2972=,
20180204_130000.003,0,RJCJ,,,,0,20180204130000,-1,-1,-1,-1,30,-1,2,-1,-1,-1,-1,,6000,1,1,2,FEW 10   SCT 130,-1,8,-1,9,1006,RJCJ 041300Z 03002KT 6000 R36/1200VP1800D PRFG FEW010 SCT130     M08/M09 Q1006 RMK 1ST010 3AC130 A2972 R1600 FG BANK 500M           SE=,PR FG
20180204_140000.003,0,RJCJ,,,,0,20180204140000,-1,-1,-1,-1,300,-1,2,-1,-1,-1,-1,,9000,0,1,2,FEW 10   SCT 40,-1,10,-1,11,1005,RJCJ 041400Z 30002KT 9000 PRFG FEW010 SCT040 M10/M11 Q1005 RMK     1ST010 3CU040 A2970 FG BANK 4000M SE=,PR FG
20180204_150000.003,0,RJCJ,,,,0,20180204150000,-1,-1,-1,-1,160,-1,4,-1,-1,130,190,,5000,0,1,3,FEW 7   BKN 20   BKN 40,-1,5,-1,6,1006,RJCJ 041500Z 16004KT 130V190 5000 -SHSN FEW007 BKN020 BKN040     M05/M06 Q1006 RMK 1CU007 6CU020 7CU040 A2971 VIS S-SW           3500M=,- SN SH
20180204_160000.003,0,RJCJ,,,,0,20180204160000,-1,-1,-1,-1,190,-1,9,-1,-1,-1,-1,,1000,1,1,3,SCT 4   BKN 7   OVC 15,-1,2,-1,3,1005,RJCJ 041600Z 19009KT 1000 R36/P1800N -SHSN SCT004 BKN007     OVC015 M02/M03 Q1005 RMK 3CU004 5CU007 8CU015 A2970 VIS           SE-SW 700M=,- SN SH
20180204_170000.003,0,RJCJ,,,,0,20180204170000,-1,-1,-1,-1,110,-1,12,-1,-1,-1,-1,,2000,0,1,3,SCT 7   BKN 15   OVC 20,-1,2,-1,3,1005,RJCJ 041700Z 11012KT 2000 -SHSN SCT007 BKN015 OVC020 M02/M03     Q1005 RMK 3CU007 7CU015 8CU020 A2970 VIS SE-S 1500M=,- SN SH
20180204_180000.004,0,RJCJ,,,,0,20180204180000,-1,-1,-1,-1,110,-1,7,-1,-1,-1,-1,,9999,0,1,3,FEW 4   SCT 30   BKN 100,-1,2,-1,3,1005,RJCJ 041800Z 11007KT 9999 -SHSN FEW004 SCT030 BKN100 M02/M03     Q1005 RMK 1ST004 3CU030 6AC100 A2969=,- SN SH
20180204_190000.003,0,RJCJ,,,,0,20180204190000,-1,-1,-1,-1,130,-1,7,-1,-1,-1,-1,,9999,0,0,1,FEW 15,-1,4,-1,5,1005,RJCJ 041900Z 13007KT 9999 FEW015 M04/M05 Q1005 RMK 1ST015     A2968=,
20180204_200000.003,0,RJCJ,,,,0,20180204200000,-1,-1,-1,-1,120,-1,10,-1,-1,-1,-1,,3000,0,1,3,FEW 5   SCT 8   OVC 15,-1,2,-1,3,1005,RJCJ 042000Z 12010KT 3000 -SHSN FEW005 SCT008 OVC015 M02/M03     Q1005 RMK 1CU005 3CU008 8CU015 A2969=,- SN SH
20180204_210000.003,0,RJCJ,,,,0,20180204210000,-1,-1,-1,-1,110,-1,9,-1,-1,-1,-1,,1000,1,1,3,SCT 4   BKN 8   OVC 15,-1,2,-1,3,1005,RJCJ 042100Z 11009KT 1000 R36/1200VP1800N -SHSN SCT004 BKN008     OVC015 M02/M03 Q1005 RMK 3CU004 7CU008 8CU015 A2969 R1600           M00/M10 R002 S006 SD040=,- SN SH
20180204_220000.003,0,RJCJ,,,,0,20180204220000,-1,-1,-1,-1,110,-1,7,-1,-1,-1,-1,,7000,0,1,3,FEW 5   BKN 15   BKN 30,-1,3,-1,4,1005,RJCJ 042200Z 11007KT 7000 -SHSN FEW005 BKN015 BKN030 M03/M04     Q1005 RMK 1CU005 7CU015 7CU030 A2970=,- SN SH
20180204_230000.003,0,RJCJ,,,,0,20180204230000,-1,-1,-1,-1,100,-1,7,-1,-1,-1,-1,,3500,0,1,3,FEW 5   SCT 10   BKN 15,-1,2,-1,3,1005,RJCJ 042300Z 10007KT 3500 -SHSN FEW005 SCT010 BKN015 M02/M03     Q1005 RMK 1CU005 4CU010 7CU015 A2970 VIS SE-SW 2500M=,- SN SH
20180205_000000.004,0,RJCJ,,,,0,20180205000000,-1,-1,-1,-1,100,-1,8,-1,-1,-1,-1,,5000,0,1,3,FEW 5   SCT 10   BKN 30,-1,2,-1,3,1005,RJCJ 050000Z 10008KT 5000 -SHSN FEW005 SCT010 BKN030 M02/M03     Q1005 RMK 1CU005 3CU010 7CU030 A2970=,- SN SH
20180205_010000.003,0,RJCJ,,,,0,20180205010000,-1,-1,-1,-1,110,-1,9,-1,-1,-1,-1,,4000,0,1,3,FEW 5   SCT 8   BKN 15,-1,1,-1,3,1005,RJCJ 050100Z 11009KT 4000 -SHSN FEW005 SCT008 BKN015 M01/M03     Q1005 RMK 1CU005 3CU008 7CU015 A2970 VIS S-W 2500M=,- SN SH
20180205_020000.003,0,RJCJ,,,,0,20180205020000,-1,-1,-1,-1,90,-1,9,-1,-1,-1,-1,,9999,0,1,3,FEW 10   SCT 20   BKN 30,-1,0,-1,3,1005,RJCJ 050200Z 09009KT 9999 -SHSN FEW010 SCT020 BKN030 M00/M03     Q1005 RMK 1CU010 4CU020 6CU030 A2970=,- SN SH
