20180101_000000.002,1,RJCM,,,,0,20180101000000,-1,-1,-1,-1,999,-1,2,-1,-1,-1,-1,,5000,0,1,3,FEW 10   SCT 15   BKN 20,-1,2,-1,5,1015,RJCM 010000Z VRB02KT 5000 -SHSN FEW010 SCT015 BKN020 M02/M05     Q1015 RMK 1ST010 3ST015 7CU020 A3000=,- SN SH
20180101_010000.002,1,RJCM,,,,0,20180101010000,-1,-1,-1,-1,40,-1,2,-1,-1,-1,-1,,5000,0,1,3,FEW 8   SCT 10   BKN 20,-1,2,-1,4,1015,RJCM 010100Z 04002KT 5000 -SHSN FEW008 SCT010 BKN020 M02/M04     Q1015 RMK 1ST008 3ST010 7CU020 A2999 9999W=,- SN SH
20180101_020000.002,1,RJCM,,,,0,20180101020000,-1,-1,-1,-1,999,-1,2,-1,-1,-1,-1,,2300,1,1,3,FEW 7   SCT 8   BKN 10,-1,1,-1,3,1014,RJCM 010200Z VRB02KT 2300 R36/P1800N -SHSN FEW007 SCT008     BKN010 M01/M03 Q1014 RMK 1ST007 3ST008 6ST010 A2997=,- SN SH
20180101_030000.002,1,RJCM,,,,0,20180101030000,-1,-1,-1,-1,999,-1,2,-1,-1,-1,-1,,9999,0,1,3,FEW 10   SCT 20   BKN 30,-1,1,-1,3,1013,RJCM 010300Z VRB02KT 9999 -SHSN FEW010 SCT020 BKN030 M01/M03     Q1013 RMK 1ST010 3CU020 6CU030 A2993=,- SN SH
20180101_040000.002,1,RJCM,,,,0,20180101040000,-1,-1,-1,-1,999,-1,2,-1,-1,-1,-1,,9999,0,0,3,FEW 6   SCT 50   BKN 60,-1,1,-1,3,1012,RJCM 010400Z VRB02KT 9999 FEW006 SCT050 BKN060 M01/M03 Q1012     RMK 1ST006 3CU050 6CU060 A2990=,
20180101_050000.002,1,RJCM,,,,0,20180101050000,-1,-1,-1,-1,999,-1,1,-1,-1,-1,-1,,9999,0,0,3,FEW 15   SCT 30   BKN 40,-1,0,-1,3,1011,RJCM 010500Z VRB01KT 9999 FEW015 SCT030 BKN040 M00/M03 Q1011     RMK 1ST015 3CU030 6CU040 A2988=,
20180101_060000.002,1,RJCM,,,,0,20180101060000,-1,-1,-1,-1,220,-1,1,-1,-1,-1,-1,,9999,0,0,3,FEW 15   SCT 30   BKN 60,1,0,-1,3,1011,RJCM 010600Z 22001KT 9999 FEW015 SCT030 BKN060 00/M03 Q1011     RMK 1ST015 3CU030 6CU060 A2987=,
20180101_070000.002,1,RJCM,,,,0,20180101070000,-1,-1,-1,-1,60,-1,1,-1,-1,-1,-1,,9999,0,0,2,FEW 15   BKN 60,-1,0,-1,3,1011,RJCM 010700Z 06001KT 9999 FEW015 BKN060 M00/M03 Q1011 RMK     1ST015 6CU060 A2987=,
20180101_080000.002,1,RJCM,,,,0,20180101080000,-1,-1,-1,-1,280,-1,1,-1,-1,-1,-1,,9999,0,0,3,FEW 15   SCT 60   BKN 90,-1,1,-1,3,1011,RJCM 010800Z 28001KT 9999 FEW015 SCT060 BKN090 M01/M03 Q1011     RMK 1ST015 3CU060 6AC090 A2986=,
20180101_090000.002,1,RJCM,,,,0,20180101090000,-1,-1,-1,-1,999,-1,1,-1,-1,-1,-1,,9999,0,0,3,FEW 15   SCT 60   BKN 70,-1,1,-1,4,1011,RJCM 010900Z VRB01KT 9999 FEW015 SCT060 BKN070 M01/M04 Q1011     RMK 1ST015 3CU060 6AC070 A2986=,
20180101_100000.002,1,RJCM,,,,0,20180101100000,-1,-1,-1,-1,999,-1,1,-1,-1,-1,-1,,9999,0,0,3,FEW 15   SCT 50   BKN 70,-1,1,-1,3,1010,RJCM 011000Z VRB01KT 9999 FEW015 SCT050 BKN070 M01/M03 Q1010     RMK 1ST015 3CU050 6AC070 A2985=,
20180101_110000.002,1,RJCM,,,,0,20180101110000,-1,-1,-1,-1,999,-1,1,-1,-1,-1,-1,,9999,0,0,3,FEW 15   SCT 40   BKN 60,-1,1,-1,3,1011,RJCM 011100Z VRB01KT 9999 FEW015 SCT040 BKN060 M01/M03 Q1011     RMK 1ST015 3CU040 6CU060 A2985=,
20180101_230000.002,1,RJCM,,,,0,20180101230000,-1,-1,-1,-1,999,-1,1,-1,-1,-1,-1,,2500,0,1,3,FEW 1   SCT 2   BKN 8,-1,1,-1,2,1009,RJCM 012300Z VRB01KT 2500 -SHSN FEW001 SCT002 BKN008 M01/M02     Q1009 RMK 1ST001 4ST002 6ST008 A2981=,- SN SH
20180102_000000.003,1,RJCM,,,,0,20180102000000,-1,-1,-1,-1,260,-1,2,-1,-1,-1,-1,,4000,0,1,3,FEW 5   SCT 20   BKN 30,-1,1,-1,2,1009,RJCM 020000Z 26002KT 4000 -SHSN FEW005 SCT020 BKN030 M01/M02     Q1009 RMK 1ST005 3CU020 6CU030 A2981=,- SN SH
20180102_010000.003,1,RJCM,,,,0,20180102010000,-1,-1,-1,-1,0,-1,0,-1,-1,-1,-1,,3000,0,1,3,FEW 5   BKN 20   BKN 30,-1,1,-1,2,1009,RJCM 020100Z 00000KT 3000 -SHSN FEW005 BKN020 BKN030 M01/M02     Q1009 RMK 1ST005 5CU020 7CU030 A2980=,- SN SH
20180102_020000.002,1,RJCM,,,,0,20180102020000,-1,-1,-1,-1,60,-1,2,-1,-1,-1,-1,,2500,0,1,3,FEW 2   SCT 15   BKN 20,-1,1,-1,2,1008,RJCM 020200Z 06002KT 2500 -SHSN FEW002 SCT015 BKN020 M01/M02     Q1008 RMK 1ST002 4ST015 7CU020 A2978=,- SN SH
20180102_030000.002,1,RJCM,,,,0,20180102030000,-1,-1,-1,-1,30,-1,2,-1,-1,-1,-1,,3000,0,1,3,FEW 5   SCT 15   BKN 20,-1,0,-1,1,1007,RJCM 020300Z 03002KT 3000 -SHSN FEW005 SCT015 BKN020 M00/M01     Q1007 RMK 1ST005 3ST015 7CU020 A2975=,- SN SH
20180102_040000.002,1,RJCM,,,,0,20180102040000,-1,-1,-1,-1,30,-1,2,-1,-1,-1,-1,,5000,0,1,3,FEW 2   SCT 15   BKN 25,-1,0,-1,2,1007,RJCM 020400Z 03002KT 5000 -SHSN FEW002 SCT015 BKN025 M00/M02     Q1007 RMK 1ST002 3ST015 6CU025 A2974=,- SN SH
20180102_050000.002,1,RJCM,,,,0,20180102050000,-1,-1,-1,-1,50,-1,3,-1,-1,360,80,,9999,0,0,3,FEW 4   SCT 40   BKN 70,1,0,-1,2,1006,RJCM 020500Z 05003KT 360V080 9999 FEW004 SCT040 BKN070 00/M02     Q1006 RMK 1ST004 3CU040 7AC070 A2973=,
20180102_060000.002,1,RJCM,,,,0,20180102060000,-1,-1,-1,-1,20,-1,3,-1,-1,-1,-1,,9999,0,0,3,FEW 6   SCT 15   BKN 40,1,0,-1,2,1006,RJCM 020600Z 02003KT 9999 FEW006 SCT015 BKN040 00/M02 Q1006     RMK 1ST006 3ST015 7CU040 A2972=,
20180102_070000.002,1,RJCM,,,,0,20180102070000,-1,-1,-1,-1,60,-1,3,-1,-1,-1,-1,,9999,0,1,3,FEW 6   SCT 10   BKN 40,-1,0,-1,2,1006,RJCM 020700Z 06003KT 9999 -SHSN FEW006 SCT010 BKN040 M00/M02     Q1006 RMK 1ST006 3ST010 7CU040 A2972=,- SN SH
20180102_080000.002,1,RJCM,,,,0,20180102080000,-1,-1,-1,-1,70,-1,2,-1,-1,-1,-1,,9999,0,1,3,FEW 6   SCT 10   BKN 40,-1,1,-1,2,1006,RJCM 020800Z 07002KT 9999 -SHSN FEW006 SCT010 BKN040 M01/M02     Q1006 RMK 1ST006 3ST010 7CU040 A2971=,- SN SH
20180102_090000.002,1,RJCM,,,,0,20180102090000,-1,-1,-1,-1,999,-1,1,-1,-1,-1,-1,,7000,0,1,3,FEW 6   SCT 10   BKN 40,-1,1,-1,2,1006,RJCM 020900Z VRB01KT 7000 -SHSN FEW006 SCT010 BKN040 M01/M02     Q1006 RMK 1ST006 3ST010 6CU040 A2971=,- SN SH
20180102_100000.002,1,RJCM,,,,0,20180102100000,-1,-1,-1,-1,999,-1,2,-1,-1,-1,-1,,9999,0,1,3,FEW 4   SCT 10   BKN 15,-1,0,-1,2,1005,RJCM 021000Z VRB02KT 9999 -SHSN FEW004 SCT010 BKN015 M00/M02     Q1005 RMK 1ST004 3ST010 6ST015 A2970=,- SN SH
20180102_110000.002,1,RJCM,,,,0,20180102110000,-1,-1,-1,-1,999,-1,1,-1,-1,-1,-1,,5000,0,1,3,FEW 4   SCT 10   BKN 15,-1,1,-1,2,1005,RJCM 021100Z VRB01KT 5000 -SHSN FEW004 SCT010 BKN015 M01/M02     Q1005 RMK 1ST004 3ST010 7ST015 A2969=,- SN SH
20180102_230000.002,1,RJCM,,,,0,20180102230000,-1,-1,-1,-1,20,-1,8,-1,-1,-1,-1,,2000,0,1,3,FEW 3   SCT 8   BKN 10,-1,1,-1,3,1006,RJCM 022300Z 02008KT 2000 -SHSN FEW003 SCT008 BKN010 M01/M03     Q1006 RMK 1ST003 3ST008 6ST010 A2973=,- SN SH
20180103_000000.002,1,RJCM,,,,0,20180103000000,-1,-1,-1,-1,20,-1,10,-1,-1,-1,-1,,3500,0,1,3,FEW 3   SCT 10   BKN 15,-1,1,-1,4,1007,RJCM 030000Z 02010KT 3500 -SHSN FEW003 SCT010 BKN015 M01/M04     Q1007 RMK 1ST003 3ST010 6ST015 A2974=,- SN SH
20180103_010000.002,1,RJCM,,,,0,20180103010000,-1,-1,-1,-1,360,-1,11,-1,-1,-1,-1,,5000,0,1,3,FEW 6   SCT 15   BKN 30,-1,1,-1,3,1007,RJCM 030100Z 36011KT 5000 -SHSN FEW006 SCT015 BKN030 M01/M03     Q1007 RMK 1ST006 3ST015 6CU030 A2975=,- SN SH
20180103_020000.002,1,RJCM,,,,0,20180103020000,-1,-1,-1,-1,350,-1,13,-1,-1,-1,-1,,5000,0,1,3,FEW 6   SCT 15   BKN 20,-1,1,-1,4,1007,RJCM 030200Z 35013KT 5000 -SHSN FEW006 SCT015 BKN020 M01/M04     Q1007 RMK 1ST006 3ST015 6CU020 A2975=,- SN SH
20180103_030000.003,1,RJCM,,,,0,20180103030000,-1,-1,-1,-1,340,-1,11,-1,-1,-1,-1,,7000,0,1,3,FEW 6   SCT 15   BKN 20,-1,1,-1,5,1007,RJCM 030300Z 34011KT 7000 -SHSN FEW006 SCT015 BKN020 M01/M05     Q1007 RMK 1ST006 3ST015 6CU020 A2975=,- SN SH
20180103_040000.002,1,RJCM,,,,0,20180103040000,-1,-1,-1,-1,350,-1,13,-1,-1,-1,-1,,9999,0,1,3,FEW 6   SCT 15   BKN 20,-1,1,-1,6,1007,RJCM 030400Z 35013KT 9999 -SHSN FEW006 SCT015 BKN020 M01/M06     Q1007 RMK 1ST006 3ST015 6CU020 A2976=,- SN SH
20180103_050000.002,1,RJCM,,,,0,20180103050000,-1,-1,-1,-1,340,-1,12,-1,-1,-1,-1,,3200,0,1,3,FEW 5   SCT 10   BKN 15,-1,2,-1,5,1008,RJCM 030500Z 34012KT 3200 -SHSN FEW005 SCT010 BKN015 M02/M05     Q1008 RMK 1ST005 3ST010 6ST015 A2978=,- SN SH
20180103_060000.002,1,RJCM,,,,0,20180103060000,-1,-1,-1,-1,340,-1,12,-1,-1,250,360,,7000,0,1,3,FEW 5   SCT 10   BKN 20,-1,2,-1,5,1008,RJCM 030600Z 34012KT 250V360 7000 -SHSN FEW005 SCT010 BKN020     M02/M05 Q1008 RMK 1ST005 3ST010 6CU020 A2979=,- SN SH
20180103_070000.002,1,RJCM,,,,0,20180103070000,-1,-1,-1,-1,340,-1,13,-1,-1,-1,-1,,9999,0,1,3,FEW 6   SCT 15   BKN 25,-1,2,-1,6,1009,RJCM 030700Z 34013KT 9999 -SHSN FEW006 SCT015 BKN025 M02/M06     Q1009 RMK 1ST006 3ST015 6CU025 A2981=,- SN SH
20180103_080000.002,1,RJCM,,,,0,20180103080000,-1,-1,-1,-1,350,-1,14,-1,-1,-1,-1,,9999,0,1,3,FEW 8   SCT 20   BKN 25,-1,3,-1,6,1010,RJCM 030800Z 35014KT 9999 -SHSN FEW008 SCT020 BKN025 M03/M06     Q1010 RMK 1ST008 3CU020 5CU025 A2983=,- SN SH
20180103_090000.002,1,RJCM,,,,0,20180103090000,-1,-1,-1,-1,360,-1,13,-1,-1,-1,-1,,9999,0,1,3,FEW 8   SCT 25   BKN 45,-1,3,-1,8,1010,RJCM 030900Z 36013KT 9999 -SHSN FEW008 SCT025 BKN045 M03/M08     Q1010 RMK 1ST008 3CU025 6CU045 A2984=,- SN SH
20180103_100000.002,1,RJCM,,,,0,20180103100000,-1,-1,-1,-1,350,-1,10,-1,-1,-1,-1,,9999,0,1,3,FEW 10   SCT 30   BKN 45,-1,3,-1,8,1010,RJCM 031000Z 35010KT 9999 -SHSN FEW010 SCT030 BKN045 M03/M08     Q1010 RMK 1ST010 4CU030 6CU045 A2985=,- SN SH
20180103_110000.002,1,RJCM,,,,0,20180103110000,-1,-1,-1,-1,340,-1,8,-1,-1,-1,-1,,6000,0,1,3,FEW 10   SCT 20   BKN 30,-1,4,-1,7,1011,RJCM 031100Z 34008KT 6000 -SHSN FEW010 SCT020 BKN030 M04/M07     Q1011 RMK 1ST010 3CU020 6CU030 A2985=,- SN SH
20180103_230000.002,1,RJCM,,,,0,20180103230000,-1,-1,-1,-1,310,-1,5,-1,-1,270,340,,8000,0,1,3,FEW 6   SCT 15   BKN 30,-1,4,-1,8,1013,RJCM 032300Z 31005KT 270V340 8000 -SHSN FEW006 SCT015 BKN030     M04/M08 Q1013 RMK 1ST006 3ST015 6CU030 A2994=,- SN SH
20180104_000000.002,1,RJCM,,,,0,20180104000000,-1,-1,-1,-1,270,-1,3,-1,-1,200,310,,9999,0,1,3,FEW 8   SCT 15   BKN 30,-1,4,-1,8,1014,RJCM 040000Z 27003KT 200V310 9999 -SHSN FEW008 SCT015 BKN030     M04/M08 Q1014 RMK 1ST008 3ST015 6CU030 A2995=,- SN SH
20180104_010000.002,1,RJCM,,,,0,20180104010000,-1,-1,-1,-1,330,-1,7,-1,-1,-1,-1,,8000,0,1,3,FEW 8   SCT 15   BKN 30,-1,4,-1,9,1013,RJCM 040100Z 33007KT 8000 -SHSN FEW008 SCT015 BKN030 M04/M09     Q1013 RMK 1ST008 3ST015 6CU030 A2994=,- SN SH
20180104_020000.002,1,RJCM,,,,0,20180104020000,-1,-1,-1,-1,300,-1,4,-1,-1,260,350,,4900,0,1,3,FEW 6   SCT 15   BKN 20,-1,4,-1,8,1013,RJCM 040200Z 30004KT 260V350 4900 -SHSN FEW006 SCT015 BKN020     M04/M08 Q1013 RMK 1ST006 3ST015 6CU020 A2992=,- SN SH
20180104_030000.002,1,RJCM,,,,0,20180104030000,-1,-1,-1,-1,320,-1,3,-1,-1,280,350,,9999,0,1,3,FEW 8   SCT 20   BKN 30,-1,4,-1,7,1012,RJCM 040300Z 32003KT 280V350 9999 -SHSN FEW008 SCT020 BKN030     M04/M07 Q1012 RMK 1ST008 3CU020 6CU030 A2990=,- SN SH
20180104_040000.002,1,RJCM,,,,0,20180104040000,-1,-1,-1,-1,350,-1,6,-1,-1,-1,-1,,9999,0,1,3,FEW 8   SCT 20   BKN 30,-1,4,-1,7,1012,RJCM 040400Z 35006KT 9999 -SHSN FEW008 SCT020 BKN030 M04/M07     Q1012 RMK 1ST008 3CU020 5CU030 A2989=,- SN SH
20180104_050000.002,1,RJCM,,,,0,20180104050000,-1,-1,-1,-1,350,-1,7,-1,-1,-1,-1,,8000,0,1,3,FEW 8   SCT 15   BKN 30,-1,3,-1,8,1012,RJCM 040500Z 35007KT 8000 -SHSN FEW008 SCT015 BKN030 M03/M08     Q1012 RMK 1ST008 3ST015 6CU030 A2990=,- SN SH
20180104_060000.003,1,RJCM,,,,0,20180104060000,-1,-1,-1,-1,10,-1,5,-1,-1,-1,-1,,9999,0,1,3,FEW 6   SCT 20   BKN 50,-1,4,-1,7,1012,RJCM 040600Z 01005KT 9999 -SHSN FEW006 SCT020 BKN050 M04/M07     Q1012 RMK 1ST006 3CU020 6CU050 A2991=,- SN SH
20180104_070000.002,1,RJCM,,,,0,20180104070000,-1,-1,-1,-1,360,-1,4,-1,-1,-1,-1,,9999,0,1,3,FEW 6   SCT 20   BKN 50,-1,5,-1,7,1013,RJCM 040700Z 36004KT 9999 -SHSN FEW006 SCT020 BKN050 M05/M07     Q1013 RMK 1ST006 3CU020 7CU050 A2991=,- SN SH
20180104_080000.002,1,RJCM,,,,0,20180104080000,-1,-1,-1,-1,999,-1,2,-1,-1,-1,-1,,3000,0,1,3,FEW 6   SCT 10   BKN 15,-1,4,-1,6,1013,RJCM 040800Z VRB02KT 3000 -SHSN FEW006 SCT010 BKN015 M04/M06     Q1013 RMK 1ST006 3ST010 5ST015 A2992=,- SN SH
20180104_090000.002,1,RJCM,,,,0,20180104090000,-1,-1,-1,-1,999,-1,1,-1,-1,-1,-1,,5000,0,1,3,FEW 6   SCT 15   BKN 20,-1,5,-1,6,1013,RJCM 040900Z VRB01KT 5000 -SHSN FEW006 SCT015 BKN020 M05/M06     Q1013 RMK 1ST006 3ST015 5CU020 A2992=,- SN SH
20180104_100000.002,1,RJCM,,,,0,20180104100000,-1,-1,-1,-1,220,-1,3,-1,-1,-1,-1,,3000,0,1,3,FEW 6   SCT 10   BKN 15,-1,5,-1,6,1013,RJCM 041000Z 22003KT 3000 -SHSN FEW006 SCT010 BKN015 M05/M06     Q1013 RMK 1ST006 3ST010 5ST015 A2993=,- SN SH
20180104_110000.002,1,RJCM,,,,0,20180104110000,-1,-1,-1,-1,999,-1,2,-1,-1,-1,-1,,6000,0,1,3,FEW 8   SCT 20   BKN 40,-1,5,-1,6,1013,RJCM 041100Z VRB02KT 6000 -SHSN FEW008 SCT020 BKN040 M05/M06     Q1013 RMK 1ST008 3CU020 6CU040 A2993=,- SN SH
20180104_230000.002,1,RJCM,,,,0,20180104230000,-1,-1,-1,-1,210,-1,5,-1,-1,-1,-1,,5000,0,1,3,FEW 6   SCT 15   BKN 25,-1,8,-1,10,1012,RJCM 042300Z 21005KT 5000 -SHSN FEW006 SCT015 BKN025 M08/M10     Q1012 RMK 1ST006 3ST015 5CU025 A2991=,- SN SH
20180105_000000.002,1,RJCM,,,,0,20180105000000,-1,-1,-1,-1,210,-1,6,-1,-1,-1,-1,,9999,0,1,3,FEW 6   SCT 25   BKN 50,-1,8,-1,11,1012,RJCM 050000Z 21006KT 9999 -SHSN FEW006 SCT025 BKN050 M08/M11     Q1012 RMK 1ST006 3CU025 6CU050 A2990=,- SN SH
20180105_010000.003,1,RJCM,,,,0,20180105010000,-1,-1,-1,-1,210,-1,6,-1,-1,-1,-1,,9999,0,0,2,FEW 15   BKN 50,-1,7,-1,10,1011,RJCM 050100Z 21006KT 9999 FEW015 BKN050 M07/M10 Q1011 RMK     1ST015 6CU050 A2987=,
20180105_020000.002,1,RJCM,,,,0,20180105020000,-1,-1,-1,-1,160,-1,3,-1,-1,-1,-1,,9999,0,0,2,FEW 20   BKN 50,-1,6,-1,10,1010,RJCM 050200Z 16003KT 9999 FEW020 BKN050 M06/M10 Q1010 RMK     1CU020 6CU050 A2985=,
20180105_030000.002,1,RJCM,,,,0,20180105030000,-1,-1,-1,-1,90,-1,2,-1,-1,-1,-1,,9999,0,0,1,FEW 30,-1,5,-1,10,1009,RJCM 050300Z 09002KT 9999 FEW030 M05/M10 Q1009 RMK 1CU030     A2982=,
20180105_040000.002,1,RJCM,,,,0,20180105040000,-1,-1,-1,-1,150,-1,1,-1,-1,-1,-1,,9999,0,0,2,FEW 30   BKN 50,-1,4,-1,9,1009,RJCM 050400Z 15001KT 9999 FEW030 BKN050 M04/M09 Q1009 RMK     1CU030 5CU050 A2980=,
20180105_050000.002,1,RJCM,,,,0,20180105050000,-1,-1,-1,-1,170,-1,3,-1,-1,-1,-1,,9999,0,0,2,FEW 30   SCT 60,-1,4,-1,8,1008,RJCM 050500Z 17003KT 9999 FEW030 SCT060 M04/M08 Q1008 RMK     1CU030 4CU060 A2979=,
20180105_060000.002,1,RJCM,,,,0,20180105060000,-1,-1,-1,-1,0,-1,0,-1,-1,-1,-1,,9999,0,0,2,FEW 30   BKN 60,-1,4,-1,8,1008,RJCM 050600Z 00000KT 9999 FEW030 BKN060 M04/M08 Q1008 RMK     1CU030 6CU060 A2978=,
20180105_070000.002,1,RJCM,,,,0,20180105070000,-1,-1,-1,-1,999,-1,2,-1,-1,-1,-1,,9999,0,0,3,FEW 30   SCT 40   BKN 50,-1,4,-1,8,1008,RJCM 050700Z VRB02KT 9999 FEW030 SCT040 BKN050 M04/M08 Q1008     RMK 1CU030 3CU040 5CU050 A2977=,
20180105_080000.002,1,RJCM,,,,0,20180105080000,-1,-1,-1,-1,999,-1,1,-1,-1,-1,-1,,9999,0,0,3,FEW 30   SCT 50   BKN 60,-1,5,-1,8,1008,RJCM 050800Z VRB01KT 9999 FEW030 SCT050 BKN060 M05/M08 Q1008     RMK 1CU030 3CU050 6CU060 A2977=,
20180105_090000.002,1,RJCM,,,,0,20180105090000,-1,-1,-1,-1,170,-1,3,-1,-1,-1,-1,,9999,0,0,3,FEW 30   SCT 50   BKN 60,-1,5,-1,8,1007,RJCM 050900Z 17003KT 9999 FEW030 SCT050 BKN060 M05/M08 Q1007     RMK 1CU030 3CU050 6CU060 A2976=,
20180105_100000.002,1,RJCM,,,,0,20180105100000,-1,-1,-1,-1,190,-1,2,-1,-1,-1,-1,,9999,0,1,2,FEW 30   BKN 60,-1,5,-1,8,1007,RJCM 051000Z 19002KT 9999 -SHSN FEW030 BKN060 M05/M08 Q1007     RMK 1CU030 7CU060 A2975=,- SN SH
20180105_110000.002,1,RJCM,,,,0,20180105110000,-1,-1,-1,-1,190,-1,3,-1,-1,-1,-1,,9999,0,1,3,FEW 30   SCT 50   BKN 60,-1,4,-1,7,1007,RJCM 051100Z 19003KT 9999 -SHSN FEW030 SCT050 BKN060 M04/M07     Q1007 RMK 1CU030 3CU050 7CU060 A2976=,- SN SH
20180105_230000.002,1,RJCM,,,,0,20180105230000,-1,-1,-1,-1,170,-1,8,-1,-1,-1,-1,,9999,0,0,3,FEW 40   SCT 50   BKN 60,-1,11,-1,13,1005,RJCM 052300Z 17008KT 9999 FEW040 SCT050 BKN060 M11/M13 Q1005     RMK 1CU040 3CU050 6CU060 A2968=,
20180106_000000.002,1,RJCM,,,,0,20180106000000,-1,-1,-1,-1,200,-1,6,-1,-1,-1,-1,,9999,0,0,3,FEW 40   SCT 50   BKN 60,-1,7,-1,10,1004,RJCM 060000Z 20006KT 9999 FEW040 SCT050 BKN060 M07/M10 Q1004     RMK 1CU040 3CU050 5CU060 A2967=,
20180106_010000.002,1,RJCM,,,,0,20180106010000,-1,-1,-1,-1,180,-1,6,-1,-1,-1,-1,,9999,0,0,3,FEW 30   SCT 50   BKN 70,-1,6,-1,10,1004,RJCM 060100Z 18006KT 9999 FEW030 SCT050 BKN070 M06/M10 Q1004     RMK 1CU030 3CU050 6AC070 A2966=,
20180106_020000.002,1,RJCM,,,,0,20180106020000,-1,-1,-1,-1,170,-1,4,-1,-1,-1,-1,,9999,0,0,3,FEW 30   SCT 50   BKN 80,-1,4,-1,9,1003,RJCM 060200Z 17004KT 9999 FEW030 SCT050 BKN080 M04/M09 Q1003     RMK 1CU030 3CU050 5AC080 A2963=,
20180106_030000.002,1,RJCM,,,,0,20180106030000,-1,-1,-1,-1,150,-1,3,-1,-1,-1,-1,,9999,0,0,3,FEW 30   SCT 50   BKN 70,-1,3,-1,8,1002,RJCM 060300Z 15003KT 9999 FEW030 SCT050 BKN070 M03/M08 Q1002     RMK 1CU030 3CU050 5AC070 A2960=,
20180106_040000.002,1,RJCM,,,,0,20180106040000,-1,-1,-1,-1,130,-1,1,-1,-1,-1,-1,,9999,0,0,3,FEW 30   SCT 50   BKN 70,-1,2,-1,8,1001,RJCM 060400Z 13001KT 9999 FEW030 SCT050 BKN070 M02/M08 Q1001     RMK 1CU030 3CU050 5AC070 A2958=,
20180106_050000.002,1,RJCM,,,,0,20180106050000,-1,-1,-1,-1,30,-1,4,-1,-1,-1,-1,,9999,0,0,3,FEW 30   SCT 50   BKN 70,-1,3,-1,8,1001,RJCM 060500Z 03004KT 9999 FEW030 SCT050 BKN070 M03/M08 Q1001     RMK 1CU030 4CU050 6AC070 A2958=,
20180106_060000.002,1,RJCM,,,,0,20180106060000,-1,-1,-1,-1,30,-1,3,-1,-1,-1,-1,,9999,0,0,3,FEW 20   BKN 50   BKN 70,-1,3,-1,7,1001,RJCM 060600Z 03003KT 9999 FEW020 BKN050 BKN070 M03/M07 Q1001     RMK 1CU020 5CU050 7AC070 A2958=,
20180106_070000.002,1,RJCM,,,,0,20180106070000,-1,-1,-1,-1,10,-1,5,-1,-1,-1,-1,,9999,0,0,3,FEW 15   SCT 50   BKN 80,-1,3,-1,5,1002,RJCM 060700Z 01005KT 9999 FEW015 SCT050 BKN080 M03/M05 Q1002     RMK 1ST015 3CU050 6AC080 A2959=,
20180106_080000.002,1,RJCM,,,,0,20180106080000,-1,-1,-1,-1,10,-1,5,-1,-1,-1,-1,,9999,0,0,2,FEW 15   BKN 30,-1,3,-1,5,1002,RJCM 060800Z 01005KT 9999 FEW015 BKN030 M03/M05 Q1002 RMK     1ST015 7CU030 A2960=,
20180106_090000.002,1,RJCM,,,,0,20180106090000,-1,-1,-1,-1,10,-1,3,-1,-1,-1,-1,,9999,0,1,3,FEW 15   SCT 30   BKN 40,-1,3,-1,4,1003,RJCM 060900Z 01003KT 9999 -SHSN FEW015 SCT030 BKN040 M03/M04     Q1003 RMK 1ST015 3CU030 6CU040 A2962=,- SN SH
20180106_100000.002,1,RJCM,,,,0,20180106100000,-1,-1,-1,-1,170,-1,3,-1,-1,-1,-1,,9999,0,1,3,FEW 15   SCT 30   BKN 40,-1,3,-1,5,1003,RJCM 061000Z 17003KT 9999 -SHSN FEW015 SCT030 BKN040 M03/M05     Q1003 RMK 1ST015 3CU030 6CU040 A2963=,- SN SH
20180106_110000.002,1,RJCM,,,,0,20180106110000,-1,-1,-1,-1,190,-1,5,-1,-1,-1,-1,,9999,0,0,3,FEW 15   SCT 60   BKN 80,-1,4,-1,5,1003,RJCM 061100Z 19005KT 9999 FEW015 SCT060 BKN080 M04/M05 Q1003     RMK 1ST015 4CU060 6AC080 A2964=,
20180106_230000.002,1,RJCM,,,,0,20180106230000,-1,-1,-1,-1,240,-1,2,-1,-1,-1,-1,,4500,1,1,3,FEW 8   SCT 15   BKN 25,-1,6,-1,7,1011,RJCM 062300Z 24002KT 4500 R36/P1800N -SHSN FEW008 SCT015     BKN025 M06/M07 Q1011 RMK 1ST008 3ST015 6CU025 A2986=,- SN SH
20180107_000000.002,1,RJCM,,,,0,20180107000000,-1,-1,-1,-1,240,-1,5,-1,-1,210,270,,9999,0,0,2,FEW 15   SCT 40,-1,6,-1,9,1011,RJCM 070000Z 24005KT 210V270 9999 FEW015 SCT040 M06/M09 Q1011     RMK 1ST015 3CU040 A2987=,
20180107_010000.003,1,RJCM,,,,0,20180107010000,-1,-1,-1,-1,240,-1,4,-1,-1,210,270,,9999,0,0,2,FEW 15   BKN 60,-1,5,-1,9,1011,RJCM 070100Z 24004KT 210V270 9999 FEW015 BKN060 M05/M09 Q1011     RMK 1ST015 5CU060 A2988=,
20180107_020000.002,1,RJCM,,,,0,20180107020000,-1,-1,-1,-1,280,-1,4,-1,-1,220,330,,9999,0,0,3,FEW 10   SCT 30   BKN 40,-1,4,-1,10,1011,RJCM 070200Z 28004KT 220V330 9999 FEW010 SCT030 BKN040 M04/M10     Q1011 RMK 1ST010 3CU030 6CU040 A2988=,
20180107_030000.002,1,RJCM,,,,0,20180107030000,-1,-1,-1,-1,320,-1,8,-1,-1,290,350,,9999,0,0,3,FEW 10   SCT 40   BKN 50,-1,4,-1,10,1011,RJCM 070300Z 32008KT 290V350 9999 FEW010 SCT040 BKN050 M04/M10     Q1011 RMK 1ST010 3CU040 5CU050 A2987=,
20180107_040000.002,1,RJCM,,,,0,20180107040000,-1,-1,-1,-1,340,-1,7,-1,-1,300,360,,9999,0,1,3,FEW 10   SCT 30   BKN 40,-1,3,-1,9,1012,RJCM 070400Z 34007KT 300V360 9999 -SHSN FEW010 SCT030 BKN040     M03/M09 Q1012 RMK 1ST010 3CU030 5CU040 A2988=,- SN SH
20180107_050000.002,1,RJCM,,,,0,20180107050000,-1,-1,-1,-1,340,-1,5,-1,-1,310,10,,9999,0,1,3,FEW 10   SCT 30   BKN 40,-1,4,-1,9,1012,RJCM 070500Z 34005KT 310V010 9999 -SHSN FEW010 SCT030 BKN040     M04/M09 Q1012 RMK 1ST010 3CU030 5CU040 A2990=,- SN SH
20180107_060000.002,1,RJCM,,,,0,20180107060000,-1,-1,-1,-1,999,-1,1,-1,-1,-1,-1,,9999,0,0,3,FEW 15   SCT 30   BKN 40,-1,4,-1,9,1012,RJCM 070600Z VRB01KT 9999 FEW015 SCT030 BKN040 M04/M09 Q1012     RMK 1ST015 3CU030 5CU040 A2991=,
20180107_070000.002,1,RJCM,,,,0,20180107070000,-1,-1,-1,-1,140,-1,3,-1,-1,-1,-1,,9999,0,0,1,FEW 15,-1,7,-1,10,1013,RJCM 070700Z 14003KT 9999 FEW015 M07/M10 Q1013 RMK 1ST015     A2992=,
20180107_080000.002,1,RJCM,,,,0,20180107080000,-1,-1,-1,-1,180,-1,4,-1,-1,-1,-1,,9999,0,0,1,FEW 15,-1,8,-1,10,1013,RJCM 070800Z 18004KT 9999 FEW015 M08/M10 Q1013 RMK 1ST015     A2994=,
20180107_090000.002,1,RJCM,,,,0,20180107090000,-1,-1,-1,-1,190,-1,6,-1,-1,-1,-1,,9999,0,0,1,FEW 15,-1,12,-1,13,1014,RJCM 070900Z 19006KT 9999 FEW015 M12/M13 Q1014 RMK 1ST015     A2996=,
20180107_100000.002,1,RJCM,,,,0,20180107100000,-1,-1,-1,-1,170,-1,4,-1,-1,-1,-1,,9999,0,0,1,FEW 15,-1,14,-1,16,1014,RJCM 071000Z 17004KT 9999 FEW015 M14/M16 Q1014 RMK 1ST015     A2995=,
20180107_110000.002,1,RJCM,,,,0,20180107110000,-1,-1,-1,-1,170,-1,5,-1,-1,-1,-1,,9999,0,0,1,FEW 15,-1,15,-1,17,1014,RJCM 071100Z 17005KT 9999 FEW015 M15/M17 Q1014 RMK 1ST015     A2996=,
20180107_230000.002,1,RJCM,,,,0,20180107230000,-1,-1,-1,-1,170,-1,8,-1,-1,-1,-1,,9999,0,0,1,FEW 40,-1,12,-1,14,1014,RJCM 072300Z 17008KT 9999 FEW040 M12/M14 Q1014 RMK 1CU040     A2995=,
20180108_000000.002,1,RJCM,,,,0,20180108000000,-1,-1,-1,-1,170,-1,6,-1,-1,-1,-1,,9999,0,0,1,FEW 40,-1,10,-1,14,1014,RJCM 080000Z 17006KT 9999 FEW040 M10/M14 Q1014 RMK 1CU040     A2996=,
20180108_010000.002,1,RJCM,,,,0,20180108010000,-1,-1,-1,-1,180,-1,7,-1,-1,-1,-1,,9999,0,0,2,FEW 40   SCT -9999,-1,7,-1,11,1014,RJCM 080100Z 18007KT 9999 FEW040 SCT/// M07/M11 Q1014 RMK     1CU040 A2995=,
20180108_020000.002,1,RJCM,,,,0,20180108020000,-1,-1,-1,-1,200,-1,3,-1,-1,120,250,,9999,0,0,2,FEW 40   BKN -9999,-1,5,-1,10,1012,RJCM 080200Z 20003KT 120V250 9999 FEW040 BKN/// M05/M10 Q1012     RMK 1CU040 A2991=,
20180108_030000.002,1,RJCM,,,,0,20180108030000,-1,-1,-1,-1,999,-1,1,-1,-1,-1,-1,,9999,0,0,2,FEW 40   BKN 150,-1,4,-1,9,1011,RJCM 080300Z VRB01KT 9999 FEW040 BKN150 M04/M09 Q1011 RMK     1CU040 7AC150 A2988=,
20180108_040000.002,1,RJCM,,,,0,20180108040000,-1,-1,-1,-1,170,-1,4,-1,-1,-1,-1,,9999,0,0,3,FEW 40   SCT 110   BKN 130,-1,3,-1,8,1011,RJCM 080400Z 17004KT 9999 FEW040 SCT110 BKN130 M03/M08 Q1011     RMK 1CU040 3AC110 7AC130 A2987=,
20180108_050000.002,1,RJCM,,,,0,20180108050000,-1,-1,-1,-1,200,-1,4,-1,-1,180,240,,9999,0,0,2,FEW 40   BKN 120,-1,2,-1,7,1010,RJCM 080500Z 20004KT 180V240 9999 FEW040 BKN120 M02/M07 Q1010     RMK 1CU040 7AC120 A2985=,
20180108_060000.003,1,RJCM,,,,0,20180108060000,-1,-1,-1,-1,999,-1,1,-1,-1,-1,-1,CAVOK,-1,0,0,0,,-1,2,-1,7,1010,RJCM 080600Z VRB01KT CAVOK M02/M07 Q1010 RMK A2984=,
20180108_070000.002,1,RJCM,,,,0,20180108070000,-1,-1,-1,-1,200,-1,2,-1,-1,-1,-1,CAVOK,-1,0,0,0,,-1,3,-1,7,1010,RJCM 080700Z 20002KT CAVOK M03/M07 Q1010 RMK A2983=,
20180108_080000.002,1,RJCM,,,,0,20180108080000,-1,-1,-1,-1,170,-1,6,-1,-1,-1,-1,,9999,0,0,2,FEW 50   BKN 120,-1,3,-1,6,1009,RJCM 080800Z 17006KT 9999 FEW050 BKN120 M03/M06 Q1009 RMK     1CU050 7AC120 A2982=,
20180108_090000.002,1,RJCM,,,,0,20180108090000,-1,-1,-1,-1,210,-1,5,-1,-1,-1,-1,,9999,0,0,3,FEW 50   SCT 110   BKN 140,-1,1,-1,5,1009,RJCM 080900Z 21005KT 9999 FEW050 SCT110 BKN140 M01/M05 Q1009     RMK 1CU050 3AC110 7AC140 A2981=,
20180108_100000.002,1,RJCM,,,,0,20180108100000,-1,-1,-1,-1,999,-1,1,-1,-1,-1,-1,,9999,0,0,3,FEW 50   SCT 110   BKN 130,-1,3,-1,6,1008,RJCM 081000Z VRB01KT 9999 FEW050 SCT110 BKN130 M03/M06 Q1008     RMK 1CU050 3AC110 7AC130 A2978=,
20180108_110000.002,1,RJCM,,,,0,20180108110000,-1,-1,-1,-1,250,-1,3,-1,-1,220,280,,9999,0,0,3,FEW 50   SCT 90   BKN 100,-1,2,-1,6,1008,RJCM 081100Z 25003KT 220V280 9999 FEW050 SCT090 BKN100 M02/M06     Q1008 RMK 1CU050 3AC090 7AC100 A2978=,
20180108_230000.003,1,RJCM,,,,0,20180108230000,-1,-1,-1,-1,340,-1,3,-1,-1,300,10,,9999,0,0,3,FEW 8   SCT 20   BKN 40,1,1,-1,2,989,RJCM 082300Z 34003KT 300V010 9999 FEW008 SCT020 BKN040 01/M02     Q0989 RMK 1ST008 3CU020 7CU040 A2921=,
20180109_000000.002,1,RJCM,,,,0,20180109000000,-1,-1,-1,-1,330,-1,4,-1,-1,-1,-1,,9999,0,1,3,FEW 6   SCT 20   BKN 30,1,1,-1,1,986,RJCM 090000Z 33004KT 9999 -SHRA FEW006 SCT020 BKN030 01/M01     Q0986 RMK 1ST006 3CU020 6CU030 A2913 P/FR=,- RA SH
20180109_010000.002,1,RJCM,,,,0,20180109010000,-1,-1,-1,-1,999,-1,2,-1,-1,-1,-1,,3500,0,1,3,FEW 6   SCT 15   BKN 20,1,1,-1,1,985,RJCM 090100Z VRB02KT 3500 -SHSN FEW006 SCT015 BKN020 01/M01     Q0985 RMK 1ST006 3ST015 6CU020 A2910=,- SN SH
20180109_020000.002,1,RJCM,,,,0,20180109020000,-1,-1,-1,-1,350,-1,3,-1,-1,-1,-1,,4900,0,2,3,FEW 1   SCT 3   BKN 8,1,1,-1,0,982,RJCM 090200Z 35003KT 4900 -SHRA BR FEW001 SCT003 BKN008 01/M00     Q0982 RMK 1ST001 3ST003 6ST008 A2900 P/FR=,- RA SH; BR
20180109_030000.002,1,RJCM,,,,0,20180109030000,-1,-1,-1,-1,40,-1,2,-1,-1,-1,-1,,2500,0,2,3,FEW 1   BKN 5   BKN 10,1,1,-1,0,979,RJCM 090300Z 04002KT 2500 -DZ BR FEW001 BKN005 BKN010 01/M00     Q0979 RMK 1ST001 5ST005 6ST010 A2892 P/FR=,- DZ; BR
20180109_040000.002,1,RJCM,,,,0,20180109040000,-1,-1,-1,-1,999,-1,1,-1,-1,-1,-1,,2000,1,2,3,FEW 1   BKN 5   BKN 8,1,1,-1,0,978,RJCM 090400Z VRB01KT 2000 R36/P1800N -DZ BR FEW001 BKN005     BKN008 01/M00 Q0978 RMK 1ST001 5ST005 6ST008 A2888=,- DZ; BR
20180109_050000.002,1,RJCM,,,,0,20180109050000,-1,-1,-1,-1,160,-1,4,-1,-1,-1,-1,,3200,0,2,3,FEW 1   SCT 5   BKN 8,1,1,-1,0,976,RJCM 090500Z 16004KT 3200 BCFG BR FEW001 SCT005 BKN008 01/M00     Q0976 RMK 1ST001 3ST005 5ST008 A2883=,BC FG; BR
20180109_060000.002,1,RJCM,,,,0,20180109060000,-1,-1,-1,-1,999,-1,2,-1,-1,-1,-1,,5000,0,2,3,FEW 2   SCT 5   BKN 10,1,1,-1,0,977,RJCM 090600Z VRB02KT 5000 -SHRASN BR FEW002 SCT005 BKN010     01/M00 Q0977 RMK 1ST002 3ST005 5ST010 A2886=,- RA SN SH; BR
20180109_070000.002,1,RJCM,,,,0,20180109070000,-1,-1,-1,-1,999,-1,1,-1,-1,-1,-1,,6000,0,1,1,FEW 1,1,1,-1,0,977,RJCM 090700Z VRB01KT 6000 VCFG FEW001 01/M00 Q0977 RMK 1ST001     A2887 FG N=,VC FG
20180109_080000.002,0,RJCM,,,,0,20180109080000,-1,-1,-1,-1,999,-1,1,-1,-1,-1,-1,,6000,0,0,2,FEW 3   SCT 50,-1,0,-1,1,977,RJCM 090800Z VRB01KT 6000 FEW003 SCT050 M00/M01 Q0977 RMK     1ST003 3CU050 A2886=,
20180109_090000.002,0,RJCM,,,,0,20180109090000,-1,-1,-1,-1,290,-1,3,-1,-1,250,320,,4000,1,2,1,FEW 1,-1,2,-1,3,977,RJCM 090900Z 29003KT 250V320 4000 R36/P1800N PRFG BR FEW001     M02/M03 Q0977 RMK 2ST001 A2886 0500N FG N=,PR FG; BR
20180109_100000.002,1,RJCM,,,,0,20180109100000,-1,-1,-1,-1,130,-1,5,-1,-1,-1,-1,,9999,1,0,2,FEW 1   SCT 60,-1,1,-1,2,977,RJCM 091000Z 13005KT 9999 R36/P1800N FEW001 SCT060 M01/M02     Q0977 RMK 1ST001 3CU060 A2885=,
20180109_110000.002,1,RJCM,,,,0,20180109110000,-1,-1,-1,-1,280,-1,12,-1,23,220,330,,3000,0,1,3,FEW 8   SCT 10   BKN 25,1,1,-1,2,978,RJCM 091100Z 28012G23KT 220V330 3000 -SHSN FEW008 SCT010     BKN025 01/M02 Q0978 RMK 1ST008 3ST010 5CU025 A2888=,- SN SH
20180109_230000.002,1,RJCM,,,,0,20180109230000,-1,-1,-1,-1,310,-1,10,-1,20,270,340,,2000,1,1,3,FEW 6   SCT 8   BKN 15,-1,2,-1,4,988,RJCM 092300Z 31010G20KT 270V340 2000 R36/P1800N -SHSN FEW006     SCT008 BKN015 M02/M04 Q0988 RMK 1ST006 3ST008 6ST015           A2919 P/RR=,- SN SH
20180110_000000.002,1,RJCM,,,,0,20180110000000,-1,-1,-1,-1,320,-1,7,-1,-1,270,360,,4900,0,1,3,FEW 6   SCT 15   BKN 20,-1,1,-1,5,990,RJCM 100000Z 32007KT 270V360 4900 -SHSN FEW006 SCT015 BKN020     M01/M05 Q0990 RMK 1ST006 3ST015 6CU020 A2925 P/RR=,- SN SH
20180110_010000.002,1,RJCM,,,,0,20180110010000,-1,-1,-1,-1,310,-1,10,-1,-1,280,340,,4900,0,1,3,FEW 6   SCT 15   BKN 20,-1,1,-1,5,991,RJCM 100100Z 31010KT 280V340 4900 -SHSN FEW006 SCT015 BKN020     M01/M05 Q0991 RMK 1ST006 3ST015 6CU020 A2928=,- SN SH
20180110_020000.002,1,RJCM,,,,0,20180110020000,-1,-1,-1,-1,330,-1,8,-1,-1,290,350,,5000,0,1,3,FEW 6   SCT 15   BKN 20,-1,1,-1,5,992,RJCM 100200Z 33008KT 290V350 5000 -SHSN FEW006 SCT015 BKN020     M01/M05 Q0992 RMK 1ST006 3ST015 6CU020 A2930=,- SN SH
20180110_030000.002,1,RJCM,,,,0,20180110030000,-1,-1,-1,-1,340,-1,8,-1,-1,300,10,,4500,0,1,3,FEW 6   SCT 10   BKN 20,-1,2,-1,5,993,RJCM 100300Z 34008KT 300V010 4500 -SHSN FEW006 SCT010 BKN020     M02/M05 Q0993 RMK 1ST006 3ST010 6CU020 A2933=,- SN SH
20180110_040000.003,1,RJCM,,,,0,20180110040000,-1,-1,-1,-1,340,-1,8,-1,-1,-1,-1,,8000,0,1,3,FEW 6   SCT 15   BKN 20,-1,2,-1,5,993,RJCM 100400Z 34008KT 8000 -SHSN FEW006 SCT015 BKN020 M02/M05     Q0993 RMK 1ST006 3ST015 5CU020 A2934=,- SN SH
20180110_050000.002,1,RJCM,,,,0,20180110050000,-1,-1,-1,-1,350,-1,8,-1,-1,-1,-1,,8000,0,1,3,FEW 8   SCT 15   BKN 20,-1,2,-1,5,995,RJCM 100500Z 35008KT 8000 -SHSN FEW008 SCT015 BKN020 M02/M05     Q0995 RMK 1ST008 3ST015 6CU020 A2938=,- SN SH
20180110_060000.002,1,RJCM,,,,0,20180110060000,-1,-1,-1,-1,350,-1,6,-1,-1,-1,-1,,8000,0,1,3,FEW 8   SCT 15   BKN 20,-1,3,-1,5,996,RJCM 100600Z 35006KT 8000 -SHSN FEW008 SCT015 BKN020 M03/M05     Q0996 RMK 1ST008 3ST015 5CU020 A2942=,- SN SH
20180110_070000.002,1,RJCM,,,,0,20180110070000,-1,-1,-1,-1,10,-1,8,-1,-1,-1,-1,,8000,0,1,3,FEW 8   SCT 20   BKN 25,-1,3,-1,5,997,RJCM 100700Z 01008KT 8000 -SHSNGS FEW008 SCT020 BKN025 M03/M05     Q0997 RMK 1ST008 3CU020 6CU025 A2946 SNOW PELLETS=,- SN GS SH
20180110_080000.002,1,RJCM,,,,0,20180110080000,-1,-1,-1,-1,360,-1,5,-1,-1,-1,-1,,8000,0,1,3,FEW 8   SCT 20   BKN 30,-1,4,-1,6,998,RJCM 100800Z 36005KT 8000 -SHSN FEW008 SCT020 BKN030 M04/M06     Q0998 RMK 1ST008 3CU020 6CU030 A2949=,- SN SH
20180110_090000.002,1,RJCM,,,,0,20180110090000,-1,-1,-1,-1,999,-1,2,-1,-1,-1,-1,,8000,0,1,3,FEW 8   SCT 30   BKN 50,-1,5,-1,6,999,RJCM 100900Z VRB02KT 8000 -SHSN FEW008 SCT030 BKN050 M05/M06     Q0999 RMK 1ST008 3CU030 6CU050 A2952=,- SN SH
20180110_100000.002,1,RJCM,,,,0,20180110100000,-1,-1,-1,-1,999,-1,1,-1,-1,-1,-1,,6000,0,1,3,FEW 8   SCT 15   BKN 30,-1,6,-1,8,1000,RJCM 101000Z VRB01KT 6000 -SHSN FEW008 SCT015 BKN030 M06/M08     Q1000 RMK 1ST008 3ST015 5CU030 A2955=,- SN SH
20180110_110000.002,1,RJCM,,,,0,20180110110000,-1,-1,-1,-1,999,-1,2,-1,-1,-1,-1,,8000,0,0,2,FEW 7   BKN 70,-1,7,-1,8,1001,RJCM 101100Z VRB02KT 8000 FEW007 BKN070 M07/M08 Q1001 RMK     1ST007 6AC070 A2957=,
20180110_230000.003,1,RJCM,,,,0,20180110230000,-1,-1,-1,-1,190,-1,7,-1,-1,-1,-1,,9999,0,0,1,FEW 20,-1,13,-1,16,1007,RJCM 102300Z 19007KT 9999 FEW020 M13/M16 Q1007 RMK 1CU020     A2974=,
20180111_000000.002,1,RJCM,,,,0,20180111000000,-1,-1,-1,-1,180,-1,8,-1,-1,-1,-1,,9999,0,0,1,FEW 30,-1,12,-1,15,1007,RJCM 110000Z 18008KT 9999 FEW030 M12/M15 Q1007 RMK 1CU030     A2976=,
20180111_010000.002,1,RJCM,,,,0,20180111010000,-1,-1,-1,-1,200,-1,7,-1,-1,-1,-1,,9999,0,0,1,FEW 30,-1,9,-1,13,1008,RJCM 110100Z 20007KT 9999 FEW030 M09/M13 Q1008 RMK 1CU030     A2977=,
20180111_020000.002,1,RJCM,,,,0,20180111020000,-1,-1,-1,-1,160,-1,4,-1,-1,-1,-1,,9999,0,0,1,FEW 20,-1,8,-1,12,1007,RJCM 110200Z 16004KT 9999 FEW020 M08/M12 Q1007 RMK 1CU020     A2975=,
20180111_030000.001,1,RJCM,,,,0,20180111030000,-1,-1,-1,-1,150,-1,3,-1,-1,-1,-1,,9999,0,0,1,FEW 40,-1,5,-1,12,1007,RJCM 110300Z 15003KT 9999 FEW040 M05/M12 Q1007 RMK 1CU040     A2974=,
20180111_040000.002,1,RJCM,,,,0,20180111040000,-1,-1,-1,-1,110,-1,3,-1,-1,-1,-1,,9999,0,0,1,FEW 30,-1,4,-1,13,1006,RJCM 110400Z 11003KT 9999 FEW030 M04/M13 Q1006 RMK 1CU030     A2972=,
20180111_050000.002,1,RJCM,,,,0,20180111050000,-1,-1,-1,-1,90,-1,2,-1,-1,-1,-1,,9999,0,0,1,FEW 30,-1,4,-1,12,1006,RJCM 110500Z 09002KT 9999 FEW030 M04/M12 Q1006 RMK 1CU030     A2973=,
20180111_060000.002,1,RJCM,,,,0,20180111060000,-1,-1,-1,-1,999,-1,1,-1,-1,-1,-1,,9999,0,0,1,FEW 40,-1,4,-1,12,1007,RJCM 110600Z VRB01KT 9999 FEW040 M04/M12 Q1007 RMK 1CU040     A2974=,
20180111_070000.002,1,RJCM,,,,0,20180111070000,-1,-1,-1,-1,30,-1,3,-1,-1,-1,-1,,9999,0,0,1,FEW 30,-1,6,-1,12,1007,RJCM 110700Z 03003KT 9999 FEW030 M06/M12 Q1007 RMK 1CU030     A2975=,
20180111_080000.002,1,RJCM,,,,0,20180111080000,-1,-1,-1,-1,320,-1,2,-1,-1,-1,-1,,9999,0,0,1,FEW 30,-1,6,-1,11,1008,RJCM 110800Z 32002KT 9999 FEW030 M06/M11 Q1008 RMK 1CU030     A2977=,
20180111_090000.002,1,RJCM,,,,0,20180111090000,-1,-1,-1,-1,0,-1,0,-1,-1,-1,-1,,9999,0,0,1,FEW 30,-1,10,-1,14,1008,RJCM 110900Z 00000KT 9999 FEW030 M10/M14 Q1008 RMK 1CU030     A2979=,
20180111_100000.002,1,RJCM,,,,0,20180111100000,-1,-1,-1,-1,190,-1,2,-1,-1,-1,-1,,9999,0,0,1,FEW 30,-1,12,-1,15,1009,RJCM 111000Z 19002KT 9999 FEW030 M12/M15 Q1009 RMK 1CU030     A2981=,
20180111_110000.002,1,RJCM,,,,0,20180111110000,-1,-1,-1,-1,200,-1,3,-1,-1,-1,-1,,9999,0,0,1,FEW 30,-1,13,-1,16,1009,RJCM 111100Z 20003KT 9999 FEW030 M13/M16 Q1009 RMK 1CU030     A2981=,
20180111_230000.002,1,RJCM,,,,0,20180111230000,-1,-1,-1,-1,170,-1,6,-1,-1,-1,-1,,9999,0,1,3,FEW 8   SCT 10   BKN 15,-1,14,-1,16,1013,RJCM 112300Z 17006KT 9999 -SHSN FEW008 SCT010 BKN015 M14/M16     Q1013 RMK 1ST008 3ST010 6ST015 A2993=,- SN SH
20180112_000000.002,1,RJCM,,,,0,20180112000000,-1,-1,-1,-1,0,-1,0,-1,-1,-1,-1,,7000,0,1,3,FEW 8   SCT 10   BKN 15,-1,12,-1,15,1014,RJCM 120000Z 00000KT 7000 -SHSN FEW008 SCT010 BKN015 M12/M15     Q1014 RMK 1ST008 3ST010 5ST015 A2995=,- SN SH
20180112_010000.003,1,RJCM,,,,0,20180112010000,-1,-1,-1,-1,999,-1,1,-1,-1,-1,-1,,7000,0,1,2,FEW 8   BKN 15,-1,10,-1,13,1014,RJCM 120100Z VRB01KT 7000 -SHSN FEW008 BKN015 M10/M13 Q1014     RMK 1ST008 7ST015 A2996=,- SN SH
20180112_020000.002,1,RJCM,,,,0,20180112020000,-1,-1,-1,-1,999,-1,1,-1,-1,-1,-1,,6000,0,1,3,FEW 8   BKN 15   BKN 20,-1,9,-1,12,1014,RJCM 120200Z VRB01KT 6000 -SHSN FEW008 BKN015 BKN020 M09/M12     Q1014 RMK 1ST008 5ST015 7CU020 A2995=,- SN SH
20180112_030000.002,1,RJCM,,,,0,20180112030000,-1,-1,-1,-1,360,-1,2,-1,-1,-1,-1,,8000,0,1,3,FEW 10   SCT 20   BKN 25,-1,7,-1,10,1014,RJCM 120300Z 36002KT 8000 -SHSN FEW010 SCT020 BKN025 M07/M10     Q1014 RMK 1ST010 4CU020 6CU025 A2994=,- SN SH
20180112_040000.002,1,RJCM,,,,0,20180112040000,-1,-1,-1,-1,30,-1,6,-1,-1,-1,-1,,9999,0,1,3,FEW 10   SCT 20   BKN 25,-1,5,-1,9,1014,RJCM 120400Z 03006KT 9999 -SHSN FEW010 SCT020 BKN025 M05/M09     Q1014 RMK 1ST010 3CU020 5CU025 A2994=,- SN SH
20180112_050000.003,1,RJCM,,,,0,20180112050000,-1,-1,-1,-1,10,-1,6,-1,-1,-1,-1,,9999,0,1,3,FEW 10   SCT 20   BKN 30,-1,5,-1,10,1014,RJCM 120500Z 01006KT 9999 -SHSN FEW010 SCT020 BKN030 M05/M10     Q1014 RMK 1ST010 3CU020 6CU030 A2996=,- SN SH
20180112_060000.002,1,RJCM,,,,0,20180112060000,-1,-1,-1,-1,360,-1,5,-1,-1,-1,-1,,9999,0,0,2,FEW 10   BKN 30,-1,6,-1,11,1015,RJCM 120600Z 36005KT 9999 FEW010 BKN030 M06/M11 Q1015 RMK     1ST010 5CU030 A2998=,
20180112_070000.003,1,RJCM,,,,0,20180112070000,-1,-1,-1,-1,40,-1,2,-1,-1,-1,-1,,9999,0,0,1,FEW 15,-1,7,-1,11,1015,RJCM 120700Z 04002KT 9999 FEW015 M07/M11 Q1015 RMK 1ST015     A3000=,
20180112_080000.002,1,RJCM,,,,0,20180112080000,-1,-1,-1,-1,999,-1,1,-1,-1,-1,-1,,9999,0,0,1,FEW 15,-1,10,-1,13,1016,RJCM 120800Z VRB01KT 9999 FEW015 M10/M13 Q1016 RMK 1ST015     A3002=,
20180112_090000.002,1,RJCM,,,,0,20180112090000,-1,-1,-1,-1,999,-1,1,-1,-1,-1,-1,,9999,0,0,1,FEW 15,-1,13,-1,16,1017,RJCM 120900Z VRB01KT 9999 FEW015 M13/M16 Q1017 RMK 1ST015     A3003=,
20180112_100000.002,1,RJCM,,,,0,20180112100000,-1,-1,-1,-1,180,-1,6,-1,-1,-1,-1,,9999,0,0,1,FEW 15,-1,15,-1,17,1017,RJCM 121000Z 18006KT 9999 FEW015 M15/M17 Q1017 RMK 1ST015     A3004=,
20180112_110000.002,1,RJCM,,,,0,20180112110000,-1,-1,-1,-1,170,-1,5,-1,-1,-1,-1,,9999,0,0,1,FEW 15,-1,16,-1,17,1017,RJCM 121100Z 17005KT 9999 FEW015 M16/M17 Q1017 RMK 1ST015     A3005=,
20180112_230000.002,1,RJCM,,,,0,20180112230000,-1,-1,-1,-1,170,-1,9,-1,-1,-1,-1,,9999,0,0,1,FEW 30,-1,16,-1,19,1020,RJCM 122300Z 17009KT 9999 FEW030 M16/M19 Q1020 RMK 1CU030     A3013=,
20180113_000000.002,1,RJCM,,,,0,20180113000000,-1,-1,-1,-1,190,-1,8,-1,-1,-1,-1,,9999,0,0,1,FEW 30,-1,14,-1,18,1020,RJCM 130000Z 19008KT 9999 FEW030 M14/M18 Q1020 RMK 1CU030     A3014=,
20180113_010000.003,1,RJCM,,,,0,20180113010000,-1,-1,-1,-1,170,-1,7,-1,-1,-1,-1,,9999,0,0,1,FEW 30,-1,12,-1,15,1020,RJCM 130100Z 17007KT 9999 FEW030 M12/M15 Q1020 RMK 1CU030     A3013=,
20180113_020000.002,1,RJCM,,,,0,20180113020000,-1,-1,-1,-1,160,-1,3,-1,-1,-1,-1,,9999,0,0,1,FEW 30,-1,9,-1,14,1019,RJCM 130200Z 16003KT 9999 FEW030 M09/M14 Q1019 RMK 1CU030     A3011=,
20180113_030000.002,1,RJCM,,,,0,20180113030000,-1,-1,-1,-1,110,-1,2,-1,-1,-1,-1,,9999,0,0,1,FEW 30,-1,8,-1,14,1019,RJCM 130300Z 11002KT 9999 FEW030 M08/M14 Q1019 RMK 1CU030     A3009=,
20180113_040000.002,1,RJCM,,,,0,20180113040000,-1,-1,-1,-1,130,-1,2,-1,-1,-1,-1,,9999,0,0,1,FEW 30,-1,6,-1,12,1018,RJCM 130400Z 13002KT 9999 FEW030 M06/M12 Q1018 RMK 1CU030     A3008=,
20180113_050000.002,1,RJCM,,,,0,20180113050000,-1,-1,-1,-1,0,-1,0,-1,-1,-1,-1,,9999,0,0,1,FEW 30,-1,4,-1,12,1018,RJCM 130500Z 00000KT 9999 FEW030 M04/M12 Q1018 RMK 1CU030     A3008=,
20180113_060000.002,1,RJCM,,,,0,20180113060000,-1,-1,-1,-1,10,-1,4,-1,-1,-1,-1,,9999,0,0,1,FEW 30,-1,6,-1,12,1019,RJCM 130600Z 01004KT 9999 FEW030 M06/M12 Q1019 RMK 1CU030     A3010=,
20180113_070000.002,1,RJCM,,,,0,20180113070000,-1,-1,-1,-1,40,-1,3,-1,-1,-1,-1,,9999,0,0,2,FEW 30   SCT 70,-1,7,-1,11,1019,RJCM 130700Z 04003KT 9999 FEW030 SCT070 M07/M11 Q1019 RMK     1CU030 4AC070 A3011=,
20180113_080000.002,1,RJCM,,,,0,20180113080000,-1,-1,-1,-1,30,-1,3,-1,-1,-1,-1,,9999,0,0,3,FEW 20   SCT 50   BKN 60,-1,8,-1,12,1020,RJCM 130800Z 03003KT 9999 FEW020 SCT050 BKN060 M08/M12 Q1020     RMK 1CU020 3CU050 6CU060 A3014=,
20180113_090000.002,1,RJCM,,,,0,20180113090000,-1,-1,-1,-1,999,-1,1,-1,-1,-1,-1,,8000,0,1,3,FEW 15   SCT 30   BKN 50,-1,7,-1,9,1021,RJCM 130900Z VRB01KT 8000 -SHSN FEW015 SCT030 BKN050 M07/M09     Q1021 RMK 1ST015 3CU030 6CU050 A3015=,- SN SH
20180113_100000.002,1,RJCM,,,,0,20180113100000,-1,-1,-1,-1,999,-1,2,-1,-1,-1,-1,,9999,0,1,3,FEW 15   SCT 30   BKN 50,-1,8,-1,10,1021,RJCM 131000Z VRB02KT 9999 -SHSN FEW015 SCT030 BKN050 M08/M10     Q1021 RMK 1ST015 3CU030 7CU050 A3016=,- SN SH
20180113_110000.002,1,RJCM,,,,0,20180113110000,-1,-1,-1,-1,260,-1,3,-1,-1,-1,-1,,3500,0,1,3,FEW 8   SCT 10   BKN 15,-1,7,-1,9,1022,RJCM 131100Z 26003KT 3500 -SHSN FEW008 SCT010 BKN015 M07/M09     Q1022 RMK 1ST008 3ST010 6ST015 A3018=,- SN SH
20180113_230000.002,1,RJCM,,,,0,20180113230000,-1,-1,-1,-1,180,-1,4,-1,-1,-1,-1,,9999,0,0,2,FEW 20   SCT 30,-1,13,-1,14,1026,RJCM 132300Z 18004KT 9999 FEW020 SCT030 M13/M14 Q1026 RMK     1CU020 4CU030 A3032=,
20180114_000000.003,1,RJCM,,,,0,20180114000000,-1,-1,-1,-1,220,-1,4,-1,-1,-1,-1,,9999,0,0,1,FEW 20,-1,8,-1,10,1027,RJCM 140000Z 22004KT 9999 FEW020 M08/M10 Q1027 RMK 1CU020     A3033=,
20180114_010000.002,1,RJCM,,,,0,20180114010000,-1,-1,-1,-1,230,-1,3,-1,-1,210,280,,9999,0,0,1,FEW 20,-1,7,-1,11,1027,RJCM 140100Z 23003KT 210V280 9999 FEW020 M07/M11 Q1027 RMK     1CU020 A3034=,
20180114_020000.002,1,RJCM,,,,0,20180114020000,-1,-1,-1,-1,180,-1,5,-1,-1,-1,-1,,9999,0,0,1,FEW 20,-1,7,-1,11,1026,RJCM 140200Z 18005KT 9999 FEW020 M07/M11 Q1026 RMK 1CU020     A3031=,
20180114_030000.002,1,RJCM,,,,0,20180114030000,-1,-1,-1,-1,170,-1,5,-1,-1,-1,-1,,9999,0,0,1,FEW 20,-1,6,-1,11,1025,RJCM 140300Z 17005KT 9999 FEW020 M06/M11 Q1025 RMK 1CU020     A3028=,
20180114_040000.002,1,RJCM,,,,0,20180114040000,-1,-1,-1,-1,160,-1,4,-1,-1,-1,-1,,9999,0,0,1,FEW 40,-1,5,-1,12,1024,RJCM 140400Z 16004KT 9999 FEW040 M05/M12 Q1024 RMK 1CU040     A3026=,
20180114_050000.002,1,RJCM,,,,0,20180114050000,-1,-1,-1,-1,130,-1,3,-1,-1,110,170,,9999,0,0,1,FEW 40,-1,5,-1,12,1024,RJCM 140500Z 13003KT 110V170 9999 FEW040 M05/M12 Q1024 RMK     1CU040 A3026=,
20180114_060000.003,1,RJCM,,,,0,20180114060000,-1,-1,-1,-1,140,-1,3,-1,-1,-1,-1,,9999,0,0,1,FEW 40,-1,6,-1,12,1024,RJCM 140600Z 14003KT 9999 FEW040 M06/M12 Q1024 RMK 1CU040     A3026=,
20180114_070000.002,1,RJCM,,,,0,20180114070000,-1,-1,-1,-1,150,-1,3,-1,-1,-1,-1,,9999,0,0,1,FEW 40,-1,10,-1,16,1024,RJCM 140700Z 15003KT 9999 FEW040 M10/M16 Q1024 RMK 1CU040     A3026=,
20180114_080000.002,1,RJCM,,,,0,20180114080000,-1,-1,-1,-1,999,-1,2,-1,-1,-1,-1,,9999,0,0,1,FEW 40,-1,11,-1,16,1025,RJCM 140800Z VRB02KT 9999 FEW040 M11/M16 Q1025 RMK 1CU040     A3027=,
20180114_090000.002,1,RJCM,,,,0,20180114090000,-1,-1,-1,-1,999,-1,1,-1,-1,-1,-1,,9999,0,0,1,FEW 40,-1,11,-1,17,1024,RJCM 140900Z VRB01KT 9999 FEW040 M11/M17 Q1024 RMK 1CU040     A3026=,
20180114_100000.002,1,RJCM,,,,0,20180114100000,-1,-1,-1,-1,190,-1,3,-1,-1,-1,-1,,9999,0,0,1,FEW 40,-1,16,-1,19,1024,RJCM 141000Z 19003KT 9999 FEW040 M16/M19 Q1024 RMK 1CU040     A3026=,
20180114_110000.002,1,RJCM,,,,0,20180114110000,-1,-1,-1,-1,210,-1,4,-1,-1,-1,-1,,9999,0,0,1,FEW 40,-1,15,-1,17,1024,RJCM 141100Z 21004KT 9999 FEW040 M15/M17 Q1024 RMK 1CU040     A3025=,
20180114_230000.002,1,RJCM,,,,0,20180114230000,-1,-1,-1,-1,230,-1,7,-1,-1,-1,-1,,9999,0,0,3,FEW 60   SCT 130   BKN 160,-1,7,-1,11,1017,RJCM 142300Z 23007KT 9999 FEW060 SCT130 BKN160 M07/M11 Q1017     RMK 1CU060 3AC130 6AC160 A3004=,
20180115_000000.002,1,RJCM,,,,0,20180115000000,-1,-1,-1,-1,230,-1,5,-1,-1,200,260,,9999,0,0,2,FEW 50   BKN 130,-1,6,-1,11,1016,RJCM 150000Z 23005KT 200V260 9999 FEW050 BKN130 M06/M11 Q1016     RMK 1CU050 6AC130 A3002=,
20180115_010000.002,1,RJCM,,,,0,20180115010000,-1,-1,-1,-1,220,-1,4,-1,-1,180,280,,9999,0,0,2,FEW 50   BKN 160,-1,3,-1,9,1015,RJCM 150100Z 22004KT 180V280 9999 FEW050 BKN160 M03/M09 Q1015     RMK 1CU050 6AC160 A2998=,
20180115_020000.002,1,RJCM,,,,0,20180115020000,-1,-1,-1,-1,220,-1,12,-1,-1,-1,-1,,9999,0,0,2,FEW 50   BKN 160,1,0,-1,10,1013,RJCM 150200Z 22012KT 9999 FEW050 BKN160 00/M10 Q1013 RMK     1CU050 6AC160 A2993=,
20180115_030000.002,1,RJCM,,,,0,20180115030000,-1,-1,-1,-1,210,-1,12,-1,-1,-1,-1,,9999,0,0,2,FEW 30   SCT 160,1,1,-1,8,1011,RJCM 150300Z 21012KT 9999 FEW030 SCT160 01/M08 Q1011 RMK     1CU030 4AC160 A2987=,
20180115_040000.002,1,RJCM,,,,0,20180115040000,-1,-1,-1,-1,200,-1,15,-1,-1,-1,-1,,9999,0,0,2,FEW 30   SCT 160,1,3,-1,6,1010,RJCM 150400Z 20015KT 9999 FEW030 SCT160 03/M06 Q1010 RMK     1CU030 3AC160 A2982=,
20180115_050000.002,1,RJCM,,,,0,20180115050000,-1,-1,-1,-1,210,-1,9,-1,-1,-1,-1,,9999,0,0,3,FEW 30   SCT 90   BKN 120,1,4,-1,5,1008,RJCM 150500Z 21009KT 9999 FEW030 SCT090 BKN120 04/M05 Q1008     RMK 1CU030 3AC090 5AC120 A2979=,
20180115_060000.002,1,RJCM,,,,0,20180115060000,-1,-1,-1,-1,190,-1,11,-1,-1,-1,-1,,9999,0,0,3,FEW 25   SCT 40   BKN 60,1,2,-1,3,1008,RJCM 150600Z 19011KT 9999 FEW025 SCT040 BKN060 02/M03 Q1008     RMK 1CU025 4CU040 6CU060 A2978=,
20180115_070000.003,1,RJCM,,,,0,20180115070000,-1,-1,-1,-1,190,-1,12,-1,-1,-1,-1,,9999,0,0,3,FEW 20   SCT 50   BKN 70,1,2,-1,2,1008,RJCM 150700Z 19012KT 9999 FEW020 SCT050 BKN070 02/M02 Q1008     RMK 1CU020 3CU050 5AC070 A2977=,
20180115_080000.002,1,RJCM,,,,0,20180115080000,-1,-1,-1,-1,240,-1,6,-1,-1,210,280,,9999,0,1,3,FEW 20   SCT 40   BKN 50,1,2,-1,3,1008,RJCM 150800Z 24006KT 210V280 9999 -SHSN FEW020 SCT040 BKN050     02/M03 Q1008 RMK 1CU020 4CU040 6CU050 A2977=,- SN SH
20180115_090000.002,1,RJCM,,,,0,20180115090000,-1,-1,-1,-1,240,-1,6,-1,-1,-1,-1,,9999,0,0,2,FEW 20   BKN 50,1,0,-1,3,1008,RJCM 150900Z 24006KT 9999 FEW020 BKN050 00/M03 Q1008 RMK     1CU020 6CU050 A2977=,
20180115_100000.002,1,RJCM,,,,0,20180115100000,-1,-1,-1,-1,999,-1,3,-1,-1,-1,-1,,9999,0,0,2,FEW 20   SCT 140,-1,2,-1,4,1007,RJCM 151000Z VRB03KT 9999 FEW020 SCT140 M02/M04 Q1007 RMK     1CU020 4AC140 A2976=,
20180115_110000.002,1,RJCM,,,,0,20180115110000,-1,-1,-1,-1,190,-1,6,-1,-1,-1,-1,,9999,0,0,3,FEW 20   SCT 130   BKN 160,-1,2,-1,3,1007,RJCM 151100Z 19006KT 9999 FEW020 SCT130 BKN160 M02/M03 Q1007     RMK 1CU020 3AC130 6AC160 A2976=,
20180115_230000.002,1,RJCM,,,,0,20180115230000,-1,-1,-1,-1,340,-1,4,-1,-1,-1,-1,,2500,1,1,3,FEW 6   SCT 10   BKN 30,-1,2,-1,3,1015,RJCM 152300Z 34004KT 2500 R36/P1800N -SHSN FEW006 SCT010     BKN030 M02/M03 Q1015 RMK 1ST006 3ST010 6CU030 A2997=,- SN SH
20180116_000000.002,1,RJCM,,,,0,20180116000000,-1,-1,-1,-1,350,-1,7,-1,-1,-1,-1,,4500,0,1,3,FEW 5   SCT 15   BKN 40,-1,2,-1,4,1015,RJCM 160000Z 35007KT 4500 -SHSN FEW005 SCT015 BKN040 M02/M04     Q1015 RMK 1ST005 3ST015 6CU040 A3000=,- SN SH
20180116_010000.002,1,RJCM,,,,0,20180116010000,-1,-1,-1,-1,20,-1,8,-1,-1,-1,-1,,8000,0,1,3,FEW 8   SCT 15   BKN 30,-1,2,-1,4,1016,RJCM 160100Z 02008KT 8000 -SHSN FEW008 SCT015 BKN030 M02/M04     Q1016 RMK 1ST008 3ST015 5CU030 A3001=,- SN SH
20180116_020000.002,1,RJCM,,,,0,20180116020000,-1,-1,-1,-1,360,-1,10,-1,-1,-1,-1,,4500,0,1,3,FEW 6   SCT 15   BKN 20,-1,2,-1,5,1016,RJCM 160200Z 36010KT 4500 -SHSN FEW006 SCT015 BKN020 M02/M05     Q1016 RMK 1ST006 3ST015 5CU020 A3002=,- SN SH
20180116_030000.002,1,RJCM,,,,0,20180116030000,-1,-1,-1,-1,360,-1,9,-1,-1,-1,-1,,8000,0,1,3,FEW 8   SCT 15   BKN 30,-1,3,-1,6,1016,RJCM 160300Z 36009KT 8000 -SHSN FEW008 SCT015 BKN030 M03/M06     Q1016 RMK 1ST008 3ST015 6CU030 A3000=,- SN SH
20180116_040000.002,1,RJCM,,,,0,20180116040000,-1,-1,-1,-1,30,-1,5,-1,-1,-1,-1,,9999,0,1,3,FEW 8   SCT 15   BKN 40,-1,3,-1,6,1016,RJCM 160400Z 03005KT 9999 -SHSN FEW008 SCT015 BKN040 M03/M06     Q1016 RMK 1ST008 3ST015 5CU040 A3001=,- SN SH
20180116_050000.002,1,RJCM,,,,0,20180116050000,-1,-1,-1,-1,20,-1,4,-1,-1,-1,-1,,7000,0,1,3,FEW 6   SCT 15   BKN 20,-1,3,-1,6,1016,RJCM 160500Z 02004KT 7000 -SHSN FEW006 SCT015 BKN020 M03/M06     Q1016 RMK 1ST006 3ST015 6CU020 A3001=,- SN SH
20180116_060000.002,1,RJCM,,,,0,20180116060000,-1,-1,-1,-1,90,-1,5,-1,-1,-1,-1,,5000,0,1,3,FEW 6   SCT 10   BKN 15,-1,3,-1,5,1016,RJCM 160600Z 09005KT 5000 -SHSN FEW006 SCT010 BKN015 M03/M05     Q1016 RMK 1ST006 3ST010 5ST015 A3002=,- SN SH
20180116_070000.002,1,RJCM,,,,0,20180116070000,-1,-1,-1,-1,90,-1,3,-1,-1,-1,-1,,8000,0,1,3,FEW 8   SCT 20   BKN 40,-1,4,-1,6,1016,RJCM 160700Z 09003KT 8000 -SHSN FEW008 SCT020 BKN040 M04/M06     Q1016 RMK 1ST008 3CU020 5CU040 A3002=,- SN SH
20180116_080000.002,1,RJCM,,,,0,20180116080000,-1,-1,-1,-1,90,-1,2,-1,-1,-1,-1,,9999,0,1,3,FEW 8   SCT 40   BKN 50,-1,5,-1,6,1016,RJCM 160800Z 09002KT 9999 -SHSN FEW008 SCT040 BKN050 M05/M06     Q1016 RMK 1ST008 4CU040 6CU050 A3002=,- SN SH
20180116_090000.002,1,RJCM,,,,0,20180116090000,-1,-1,-1,-1,999,-1,1,-1,-1,-1,-1,,9999,0,1,3,FEW 8   SCT 50   BKN 60,-1,4,-1,6,1016,RJCM 160900Z VRB01KT 9999 -SHSN FEW008 SCT050 BKN060 M04/M06     Q1016 RMK 1ST008 3CU050 6CU060 A3003=,- SN SH
20180116_100000.002,1,RJCM,,,,0,20180116100000,-1,-1,-1,-1,340,-1,1,-1,-1,-1,-1,,4900,0,1,3,FEW 8   SCT 30   BKN 40,-1,4,-1,6,1016,RJCM 161000Z 34001KT 4900 -SHSN FEW008 SCT030 BKN040 M04/M06     Q1016 RMK 1ST008 3CU030 6CU040 A3002=,- SN SH
20180116_110000.004,1,RJCM,,,,0,20180116110000,-1,-1,-1,-1,340,-1,2,-1,-1,-1,-1,,5000,0,1,3,FEW 8   SCT 15   BKN 30,-1,6,-1,8,1016,RJCM 161100Z 34002KT 5000 -SHSN FEW008 SCT015 BKN030 M06/M08     Q1016 RMK 1ST008 3ST015 6CU030 A3000=,- SN SH
20180116_230000.002,1,RJCM,,,,0,20180116230000,-1,-1,-1,-1,180,-1,4,-1,-1,-1,-1,,5000,0,1,1,FEW 20,-1,11,-1,13,1019,RJCM 162300Z 18004KT 5000 BR FEW020 M11/M13 Q1019 RMK 1CU020     A3010=,BR
20180117_000000.002,1,RJCM,,,,0,20180117000000,-1,-1,-1,-1,180,-1,5,-1,-1,-1,-1,,9999,0,0,1,FEW 15,-1,10,-1,12,1019,RJCM 170000Z 18005KT 9999 FEW015 M10/M12 Q1019 RMK 1ST015     A3012=,
20180117_010000.002,1,RJCM,,,,0,20180117010000,-1,-1,-1,-1,190,-1,4,-1,-1,-1,-1,,9999,0,0,1,FEW 15,-1,7,-1,9,1020,RJCM 170100Z 19004KT 9999 FEW015 M07/M09 Q1020 RMK 1ST015     A3013=,
20180117_020000.004,1,RJCM,,,,0,20180117020000,-1,-1,-1,-1,170,-1,3,-1,-1,-1,-1,,9999,0,0,1,FEW 20,-1,5,-1,8,1020,RJCM 170200Z 17003KT 9999 FEW020 M05/M08 Q1020 RMK 1CU020     A3012=,
20180117_030000.002,1,RJCM,,,,0,20180117030000,-1,-1,-1,-1,0,-1,0,-1,-1,-1,-1,,9999,0,0,1,FEW 25,-1,3,-1,7,1019,RJCM 170300Z 00000KT 9999 FEW025 M03/M07 Q1019 RMK 1CU025     A3010=,
20180117_040000.003,1,RJCM,,,,0,20180117040000,-1,-1,-1,-1,10,-1,6,-1,-1,-1,-1,,9999,0,0,1,FEW 25,-1,2,-1,7,1019,RJCM 170400Z 01006KT 9999 FEW025 M02/M07 Q1019 RMK 2CU025     A3010=,
20180117_050000.003,1,RJCM,,,,0,20180117050000,-1,-1,-1,-1,50,-1,2,-1,-1,-1,-1,,9999,0,0,2,FEW 15   BKN 30,-1,2,-1,8,1020,RJCM 170500Z 05002KT 9999 FEW015 BKN030 M02/M08 Q1020 RMK     1ST015 5CU030 A3012=,
20180117_060000.002,1,RJCM,,,,0,20180117060000,-1,-1,-1,-1,999,-1,2,-1,-1,-1,-1,,9999,0,0,1,FEW 30,-1,4,-1,9,1020,RJCM 170600Z VRB02KT 9999 FEW030 M04/M09 Q1020 RMK 2CU030     A3012=,
20180117_070000.002,1,RJCM,,,,0,20180117070000,-1,-1,-1,-1,170,-1,3,-1,-1,-1,-1,,9999,0,0,2,FEW 25   BKN 35,-1,5,-1,8,1020,RJCM 170700Z 17003KT 9999 FEW025 BKN035 M05/M08 Q1020 RMK     1CU025 6CU035 A3013=,
20180117_080000.002,1,RJCM,,,,0,20180117080000,-1,-1,-1,-1,80,-1,2,-1,-1,-1,-1,,9999,0,0,2,FEW 25   SCT 30,-1,7,-1,10,1020,RJCM 170800Z 08002KT 9999 FEW025 SCT030 M07/M10 Q1020 RMK     1CU025 3CU030 A3013=,
20180117_090000.003,1,RJCM,,,,0,20180117090000,-1,-1,-1,-1,170,-1,2,-1,-1,-1,-1,,9999,0,0,2,FEW 25   BKN -9999,-1,7,-1,9,1020,RJCM 170900Z 17002KT 9999 FEW025 BKN/// M07/M09 Q1020 RMK     1CU025 A3013=,
20180117_100000.002,1,RJCM,,,,0,20180117100000,-1,-1,-1,-1,170,-1,1,-1,-1,-1,-1,,9999,0,0,2,FEW 25   SCT -9999,-1,9,-1,11,1020,RJCM 171000Z 17001KT 9999 FEW025 SCT/// M09/M11 Q1020 RMK     1CU025 A3013=,
20180117_110000.003,1,RJCM,,,,0,20180117110000,-1,-1,-1,-1,0,-1,0,-1,-1,-1,-1,,9999,0,0,2,FEW 25   BKN 35,-1,8,-1,10,1020,RJCM 171100Z 00000KT 9999 FEW025 BKN035 M08/M10 Q1020 RMK     1CU025 6CU035 A3013=,
20180117_230000.002,1,RJCM,,,,0,20180117230000,-1,-1,-1,-1,170,-1,3,-1,-1,-1,-1,,9999,0,0,2,FEW 15   BKN 40,-1,11,-1,13,1016,RJCM 172300Z 17003KT 9999 FEW015 BKN040 M11/M13 Q1016 RMK     1ST015 6CU040 A3001=,
20180118_000000.002,1,RJCM,,,,0,20180118000000,-1,-1,-1,-1,160,-1,5,-1,-1,-1,-1,,9999,0,0,2,FEW 15   BKN 40,-1,7,-1,10,1016,RJCM 180000Z 16005KT 9999 FEW015 BKN040 M07/M10 Q1016 RMK     1ST015 7CU040 A3001=,
20180118_010000.002,1,RJCM,,,,0,20180118010000,-1,-1,-1,-1,999,-1,2,-1,-1,-1,-1,,9999,0,0,2,FEW 15   BKN 40,-1,6,-1,9,1015,RJCM 180100Z VRB02KT 9999 FEW015 BKN040 M06/M09 Q1015 RMK     1ST015 7CU040 A2999=,
20180118_020000.002,1,RJCM,,,,0,20180118020000,-1,-1,-1,-1,999,-1,1,-1,-1,-1,-1,,9999,0,0,2,FEW 30   BKN -9999,-1,4,-1,9,1014,RJCM 180200Z VRB01KT 9999 FEW030 BKN/// M04/M09 Q1014 RMK     1CU030 A2995=,
20180118_030000.003,1,RJCM,,,,0,20180118030000,-1,-1,-1,-1,999,-1,1,-1,-1,-1,-1,,9999,0,0,3,FEW 30   SCT 40   BKN -9999,-1,3,-1,8,1013,RJCM 180300Z VRB01KT 9999 FEW030 SCT040 BKN/// M03/M08 Q1013     RMK 1CU030 3CU040 A2992=,
20180118_040000.002,1,RJCM,,,,0,20180118040000,-1,-1,-1,-1,160,-1,6,-1,-1,-1,-1,,9999,0,0,3,FEW 35   SCT 170   BKN -9999,1,0,-1,6,1011,RJCM 180400Z 16006KT 9999 FEW035 SCT170 BKN/// 00/M06 Q1011     RMK 1CU035 3AC170 A2987=,
20180118_050000.002,1,RJCM,,,,0,20180118050000,-1,-1,-1,-1,190,-1,3,-1,-1,-1,-1,,9999,0,0,3,FEW 35   SCT 160   BKN -9999,1,0,-1,6,1011,RJCM 180500Z 19003KT 9999 FEW035 SCT160 BKN/// 00/M06 Q1011     RMK 1CU035 3AC160 A2985=,
20180118_060000.002,1,RJCM,,,,0,20180118060000,-1,-1,-1,-1,190,-1,6,-1,-1,-1,-1,,9999,0,0,2,FEW 50   BKN 150,-1,0,-1,6,1010,RJCM 180600Z 19006KT 9999 FEW050 BKN150 M00/M06 Q1010 RMK     1CU050 7AC150 A2984=,
20180118_070000.002,1,RJCM,,,,0,20180118070000,-1,-1,-1,-1,230,-1,4,-1,-1,-1,-1,,9999,0,0,3,FEW 50   BKN 60   BKN 150,1,0,-1,6,1010,RJCM 180700Z 23004KT 9999 FEW050 BKN060 BKN150 00/M06 Q1010     RMK 1CU050 5CU060 7AC150 A2984=,
20180118_080000.002,1,RJCM,,,,0,20180118080000,-1,-1,-1,-1,240,-1,3,-1,-1,200,280,,9999,0,0,3,FEW 50   SCT 100   BKN 120,-1,1,-1,6,1010,RJCM 180800Z 24003KT 200V280 9999 FEW050 SCT100 BKN120 M01/M06     Q1010 RMK 1CU050 3AC100 7AC120 A2984=,
20180118_090000.002,1,RJCM,,,,0,20180118090000,-1,-1,-1,-1,210,-1,4,-1,-1,-1,-1,,9999,0,0,3,FEW 40   BKN 50   BKN 70,-1,1,-1,6,1010,RJCM 180900Z 21004KT 9999 FEW040 BKN050 BKN070 M01/M06 Q1010     RMK 1CU040 5CU050 7AC070 A2984=,
20180118_100000.002,1,RJCM,,,,0,20180118100000,-1,-1,-1,-1,190,-1,4,-1,-1,160,230,,9999,0,0,3,FEW 40   SCT 50   BKN 70,-1,3,-1,7,1010,RJCM 181000Z 19004KT 160V230 9999 FEW040 SCT050 BKN070 M03/M07     Q1010 RMK 1CU040 4CU050 7AC070 A2984=,
20180118_110000.002,1,RJCM,,,,0,20180118110000,-1,-1,-1,-1,240,-1,3,-1,-1,200,270,,9999,0,0,3,FEW 30   SCT 40   BKN 50,-1,1,-1,6,1010,RJCM 181100Z 24003KT 200V270 9999 FEW030 SCT040 BKN050 M01/M06     Q1010 RMK 1CU030 3CU040 6CU050 A2984=,
20180118_230000.003,1,RJCM,,,,0,20180118230000,-1,-1,-1,-1,170,-1,3,-1,-1,110,210,,5000,1,1,3,FEW 5   SCT 20   BKN 30,-1,8,-1,10,1014,RJCM 182300Z 17003KT 110V210 5000 R36/0300VP1800D BR FEW005     SCT020 BKN030 M08/M10 Q1014 RMK 1ST005 3CU020 5CU030           A2996 1000S=,BR
20180119_000000.002,1,RJCM,,,,0,20180119000000,-1,-1,-1,-1,210,-1,3,-1,-1,160,250,,9999,0,0,1,FEW 20,-1,4,-1,6,1014,RJCM 190000Z 21003KT 160V250 9999 FEW020 M04/M06 Q1014 RMK     1CU020 A2997=,
20180119_010000.003,1,RJCM,,,,0,20180119010000,-1,-1,-1,-1,350,-1,3,-1,-1,300,30,,9999,0,0,2,FEW 20   SCT 30,-1,2,-1,7,1015,RJCM 190100Z 35003KT 300V030 9999 FEW020 SCT030 M02/M07 Q1015     RMK 1CU020 3CU030 A2997=,
20180119_020000.002,1,RJCM,,,,0,20180119020000,-1,-1,-1,-1,330,-1,7,-1,-1,230,20,,9999,0,0,3,FEW 20   SCT 30   BKN 40,-1,1,-1,8,1014,RJCM 190200Z 33007KT 230V020 9999 FEW020 SCT030 BKN040 M01/M08     Q1014 RMK 1CU020 3CU030 6CU040 A2997=,
20180119_030000.002,1,RJCM,,,,0,20180119030000,-1,-1,-1,-1,330,-1,8,-1,-1,-1,-1,,9999,0,1,3,FEW 20   SCT 30   BKN 40,-1,1,-1,8,1014,RJCM 190300Z 33008KT 9999 -SHSN FEW020 SCT030 BKN040 M01/M08     Q1014 RMK 1CU020 3CU030 5CU040 A2996=,- SN SH
20180119_040000.002,1,RJCM,,,,0,20180119040000,-1,-1,-1,-1,360,-1,16,-1,-1,-1,-1,,5000,0,1,3,FEW 10   SCT 20   BKN 25,-1,3,-1,6,1015,RJCM 190400Z 36016KT 5000 -SHSN FEW010 SCT020 BKN025 M03/M06     Q1015 RMK 1ST010 3CU020 6CU025 A2997=,- SN SH
20180119_050000.003,1,RJCM,,,,0,20180119050000,-1,-1,-1,-1,360,-1,10,-1,-1,-1,-1,,9999,0,0,3,FEW 15   SCT 20   BKN 30,-1,4,-1,8,1016,RJCM 190500Z 36010KT 9999 FEW015 SCT020 BKN030 M04/M08 Q1016     RMK 1ST015 3CU020 5CU030 A3000=,
20180119_060000.002,1,RJCM,,,,0,20180119060000,-1,-1,-1,-1,10,-1,9,-1,-1,-1,-1,,9999,0,0,3,FEW 8   SCT 20   BKN 30,-1,4,-1,8,1016,RJCM 190600Z 01009KT 9999 FEW008 SCT020 BKN030 M04/M08 Q1016     RMK 1ST008 3CU020 6CU030 A3003=,
20180119_070000.002,1,RJCM,,,,0,20180119070000,-1,-1,-1,-1,20,-1,6,-1,-1,-1,-1,,9999,0,0,3,FEW 8   SCT 20   BKN 30,-1,5,-1,8,1017,RJCM 190700Z 02006KT 9999 FEW008 SCT020 BKN030 M05/M08 Q1017     RMK 1ST008 3CU020 6CU030 A3004=,
20180119_080000.002,1,RJCM,,,,0,20180119080000,-1,-1,-1,-1,70,-1,2,-1,-1,-1,-1,,9999,0,0,2,FEW 8   SCT 20,-1,5,-1,9,1017,RJCM 190800Z 07002KT 9999 FEW008 SCT020 M05/M09 Q1017 RMK     1ST008 4CU020 A3004=,
20180119_090000.003,1,RJCM,,,,0,20180119090000,-1,-1,-1,-1,230,-1,3,-1,-1,-1,-1,,9999,0,1,3,FEW 8   SCT 20   BKN 60,-1,6,-1,9,1017,RJCM 190900Z 23003KT 9999 -SHSN FEW008 SCT020 BKN060 M06/M09     Q1017 RMK 1ST008 3CU020 6CU060 A3005=,- SN SH
20180119_100000.002,1,RJCM,,,,0,20180119100000,-1,-1,-1,-1,999,-1,2,-1,-1,-1,-1,,7000,0,1,3,FEW 8   SCT 20   BKN 40,-1,5,-1,8,1017,RJCM 191000Z VRB02KT 7000 -SHSN FEW008 SCT020 BKN040 M05/M08     Q1017 RMK 1ST008 3CU020 6CU040 A3006=,- SN SH
20180119_110000.002,1,RJCM,,,,0,20180119110000,-1,-1,-1,-1,0,-1,0,-1,-1,-1,-1,,4500,0,1,3,FEW 8   SCT 15   BKN 20,-1,6,-1,8,1018,RJCM 191100Z 00000KT 4500 -SHSN FEW008 SCT015 BKN020 M06/M08     Q1018 RMK 1ST008 3ST015 6CU020 A3006=,- SN SH
20180119_230000.002,1,RJCM,,,,0,20180119230000,-1,-1,-1,-1,190,-1,7,-1,-1,-1,-1,,9999,0,0,1,FEW 40,-1,15,-1,18,1017,RJCM 192300Z 19007KT 9999 FEW040 M15/M18 Q1017 RMK 1CU040     A3004=,
20180120_000000.002,1,RJCM,,,,0,20180120000000,-1,-1,-1,-1,200,-1,6,-1,-1,-1,-1,,9999,0,0,1,FEW 40,-1,11,-1,15,1017,RJCM 200000Z 20006KT 9999 FEW040 M11/M15 Q1017 RMK 1CU040     A3004=,
20180120_010000.002,1,RJCM,,,,0,20180120010000,-1,-1,-1,-1,190,-1,4,-1,-1,-1,-1,,9999,0,0,1,FEW 40,-1,9,-1,13,1016,RJCM 200100Z 19004KT 9999 FEW040 M09/M13 Q1016 RMK 1CU040     A3002=,
20180120_020000.003,1,RJCM,,,,0,20180120020000,-1,-1,-1,-1,160,-1,5,-1,-1,-1,-1,,9999,0,0,1,FEW 40,-1,8,-1,12,1015,RJCM 200200Z 16005KT 9999 FEW040 M08/M12 Q1015 RMK 1CU040     A2999=,
20180120_030000.002,1,RJCM,,,,0,20180120030000,-1,-1,-1,-1,130,-1,3,-1,-1,-1,-1,,9999,0,0,1,FEW 40,-1,6,-1,11,1014,RJCM 200300Z 13003KT 9999 FEW040 M06/M11 Q1014 RMK 1CU040     A2996=,
20180120_040000.002,1,RJCM,,,,0,20180120040000,-1,-1,-1,-1,120,-1,3,-1,-1,-1,-1,,9999,0,0,1,FEW 50,-1,4,-1,11,1013,RJCM 200400Z 12003KT 9999 FEW050 M04/M11 Q1013 RMK 1CU050     A2993=,
20180120_050000.002,1,RJCM,,,,0,20180120050000,-1,-1,-1,-1,120,-1,2,-1,-1,-1,-1,,9999,0,0,1,FEW 50,-1,3,-1,10,1012,RJCM 200500Z 12002KT 9999 FEW050 M03/M10 Q1012 RMK 1CU050     A2991=,
20180120_060000.002,1,RJCM,,,,0,20180120060000,-1,-1,-1,-1,150,-1,2,-1,-1,-1,-1,CAVOK,-1,0,0,0,,-1,3,-1,10,1012,RJCM 200600Z 15002KT CAVOK M03/M10 Q1012 RMK A2989=,
20180120_070000.002,1,RJCM,,,,0,20180120070000,-1,-1,-1,-1,150,-1,4,-1,-1,-1,-1,CAVOK,-1,0,0,0,,-1,4,-1,11,1011,RJCM 200700Z 15004KT CAVOK M04/M11 Q1011 RMK A2987=,
20180120_080000.002,1,RJCM,,,,0,20180120080000,-1,-1,-1,-1,160,-1,4,-1,-1,-1,-1,CAVOK,-1,0,0,0,,-1,8,-1,13,1011,RJCM 200800Z 16004KT CAVOK M08/M13 Q1011 RMK A2986=,
20180120_090000.002,1,RJCM,,,,0,20180120090000,-1,-1,-1,-1,170,-1,5,-1,-1,-1,-1,CAVOK,-1,0,0,0,,-1,5,-1,11,1011,RJCM 200900Z 17005KT CAVOK M05/M11 Q1011 RMK A2986=,
20180120_100000.002,1,RJCM,,,,0,20180120100000,-1,-1,-1,-1,230,-1,3,-1,-1,-1,-1,CAVOK,-1,0,0,0,,-1,3,-1,10,1010,RJCM 201000Z 23003KT CAVOK M03/M10 Q1010 RMK A2984=,
20180120_110000.002,1,RJCM,,,,0,20180120110000,-1,-1,-1,-1,210,-1,6,-1,-1,-1,-1,CAVOK,-1,0,0,0,,-1,3,-1,9,1009,RJCM 201100Z 21006KT CAVOK M03/M09 Q1009 RMK A2982=,
20180120_230000.002,1,RJCM,,,,0,20180120230000,-1,-1,-1,-1,210,-1,5,-1,-1,150,300,,9999,0,0,2,FEW 40   SCT 50,-1,9,-1,12,1009,RJCM 202300Z 21005KT 150V300 9999 FEW040 SCT050 M09/M12 Q1009     RMK 1CU040 3CU050 A2981=,
20180121_000000.002,1,RJCM,,,,0,20180121000000,-1,-1,-1,-1,260,-1,4,-1,-1,200,340,,9999,0,0,2,FEW 40   SCT 50,-1,5,-1,13,1009,RJCM 210000Z 26004KT 200V340 9999 FEW040 SCT050 M05/M13 Q1009     RMK 1CU040 3CU050 A2982=,
20180121_010000.002,1,RJCM,,,,0,20180121010000,-1,-1,-1,-1,240,-1,6,-1,-1,200,300,,9999,0,0,2,FEW 30   SCT 50,-1,4,-1,15,1009,RJCM 210100Z 24006KT 200V300 9999 FEW030 SCT050 M04/M15 Q1009     RMK 1CU030 3CU050 A2981=,
20180121_020000.002,1,RJCM,,,,0,20180121020000,-1,-1,-1,-1,999,-1,3,-1,-1,-1,-1,,9999,0,0,2,FEW 30   SCT 50,-1,4,-1,15,1008,RJCM 210200Z VRB03KT 9999 FEW030 SCT050 M04/M15 Q1008 RMK     1CU030 3CU050 A2978=,
20180121_030000.002,1,RJCM,,,,0,20180121030000,-1,-1,-1,-1,270,-1,9,-1,19,180,320,,9999,0,0,2,FEW 20   SCT 50,-1,3,-1,17,1007,RJCM 210300Z 27009G19KT 180V320 9999 FEW020 SCT050 M03/M17     Q1007 RMK 1CU020 3CU050 A2976=,
20180121_040000.003,1,RJCM,,,,0,20180121040000,-1,-1,-1,-1,250,-1,8,-1,-1,200,300,,9999,0,0,2,FEW 30   SCT 50,-1,3,-1,16,1007,RJCM 210400Z 25008KT 200V300 9999 FEW030 SCT050 M03/M16 Q1007     RMK 1CU030 3CU050 A2974=,
20180121_050000.002,1,RJCM,,,,0,20180121050000,-1,-1,-1,-1,999,-1,6,-1,-1,-1,-1,,9999,0,0,3,FEW 30   SCT 50   BKN 60,-1,4,-1,16,1007,RJCM 210500Z VRB06KT 9999 FEW030 SCT050 BKN060 M04/M16 Q1007     RMK 1CU030 3CU050 5CU060 A2975=,
20180121_060000.002,1,RJCM,,,,0,20180121060000,-1,-1,-1,-1,999,-1,4,-1,-1,-1,-1,,9999,0,0,2,FEW 30   SCT 50,-1,5,-1,16,1007,RJCM 210600Z VRB04KT 9999 FEW030 SCT050 M05/M16 Q1007 RMK     1CU030 3CU050 A2976=,
20180121_070000.002,1,RJCM,,,,0,20180121070000,-1,-1,-1,-1,280,-1,4,-1,-1,220,330,,9999,0,0,1,FEW 30,-1,5,-1,16,1008,RJCM 210700Z 28004KT 220V330 9999 FEW030 M05/M16 Q1008 RMK     1CU030 A2977=,
20180121_080000.002,1,RJCM,,,,0,20180121080000,-1,-1,-1,-1,300,-1,5,-1,-1,260,350,,9999,0,0,2,FEW 30   SCT 70,-1,7,-1,16,1009,RJCM 210800Z 30005KT 260V350 9999 FEW030 SCT070 M07/M16 Q1009     RMK 1CU030 3AC070 A2980=,
20180121_090000.002,1,RJCM,,,,0,20180121090000,-1,-1,-1,-1,290,-1,6,-1,-1,230,340,,9999,0,0,3,FEW 30   SCT 50   BKN 60,-1,7,-1,17,1009,RJCM 210900Z 29006KT 230V340 9999 FEW030 SCT050 BKN060 M07/M17     Q1009 RMK 1CU030 3CU050 5CU060 A2982=,
20180121_100000.002,1,RJCM,,,,0,20180121100000,-1,-1,-1,-1,999,-1,9,-1,-1,-1,-1,,9999,0,0,3,FEW 20   SCT 30   BKN 50,-1,8,-1,18,1010,RJCM 211000Z VRB09KT 9999 FEW020 SCT030 BKN050 M08/M18 Q1010     RMK 1CU020 3CU030 5CU050 A2984=,
20180121_110000.002,1,RJCM,,,,0,20180121110000,-1,-1,-1,-1,999,-1,11,-1,23,-1,-1,,9999,0,0,1,FEW 20,-1,9,-1,20,1011,RJCM 211100Z VRB11G23KT 9999 FEW020 M09/M20 Q1011 RMK 1CU020     A2986=,
20180121_230000.002,1,RJCM,,,,0,20180121230000,-1,-1,-1,-1,240,-1,4,-1,-1,210,290,,9999,0,0,3,FEW 40   SCT 50   BKN 60,-1,14,-1,19,1017,RJCM 212300Z 24004KT 210V290 9999 FEW040 SCT050 BKN060 M14/M19     Q1017 RMK 1CU040 3CU050 7CU060 A3005=,
20180122_000000.002,1,RJCM,,,,0,20180122000000,-1,-1,-1,-1,999,-1,1,-1,-1,-1,-1,,9999,0,0,3,FEW 30   SCT 50   BKN 70,-1,14,-1,19,1018,RJCM 220000Z VRB01KT 9999 FEW030 SCT050 BKN070 M14/M19 Q1018     RMK 1CU030 3CU050 6AC070 A3007=,
20180122_010000.002,1,RJCM,,,,0,20180122010000,-1,-1,-1,-1,999,-1,2,-1,-1,-1,-1,,9999,0,0,2,FEW 30   BKN 70,-1,11,-1,17,1018,RJCM 220100Z VRB02KT 9999 FEW030 BKN070 M11/M17 Q1018 RMK     1CU030 5AC070 A3006=,
20180122_020000.002,1,RJCM,,,,0,20180122020000,-1,-1,-1,-1,180,-1,8,-1,-1,-1,-1,,9999,0,0,3,FEW 30   SCT 50   BKN 60,-1,6,-1,16,1017,RJCM 220200Z 18008KT 9999 FEW030 SCT050 BKN060 M06/M16 Q1017     RMK 1CU030 3CU050 6CU060 A3005=,
20180122_030000.002,1,RJCM,,,,0,20180122030000,-1,-1,-1,-1,190,-1,7,-1,-1,-1,-1,,9999,0,0,2,FEW 30   SCT 60,-1,6,-1,16,1017,RJCM 220300Z 19007KT 9999 FEW030 SCT060 M06/M16 Q1017 RMK     1CU030 3CU060 A3003=,
20180122_040000.002,1,RJCM,,,,0,20180122040000,-1,-1,-1,-1,210,-1,8,-1,-1,-1,-1,,9999,0,0,1,FEW 40,-1,4,-1,15,1016,RJCM 220400Z 21008KT 9999 FEW040 M04/M15 Q1016 RMK 1CU040     A3003=,
20180122_050000.002,1,RJCM,,,,0,20180122050000,-1,-1,-1,-1,999,-1,2,-1,-1,-1,-1,,9999,0,0,1,FEW 50,-1,4,-1,17,1016,RJCM 220500Z VRB02KT 9999 FEW050 M04/M17 Q1016 RMK 1CU050     A3002=,
20180122_060000.003,1,RJCM,,,,0,20180122060000,-1,-1,-1,-1,999,-1,2,-1,-1,-1,-1,,9999,0,0,1,FEW 50,-1,4,-1,16,1016,RJCM 220600Z VRB02KT 9999 FEW050 M04/M16 Q1016 RMK 1CU050     A3003=,
20180122_070000.002,1,RJCM,,,,0,20180122070000,-1,-1,-1,-1,100,-1,2,-1,-1,-1,-1,,9999,0,0,1,FEW 40,-1,6,-1,16,1016,RJCM 220700Z 10002KT 9999 FEW040 M06/M16 Q1016 RMK 1CU040     A3003=,
20180122_080000.003,1,RJCM,,,,0,20180122080000,-1,-1,-1,-1,210,-1,4,-1,-1,-1,-1,,9999,0,0,1,FEW 40,-1,5,-1,16,1017,RJCM 220800Z 21004KT 9999 FEW040 M05/M16 Q1017 RMK 1CU040     A3003=,
20180122_090000.002,1,RJCM,,,,0,20180122090000,-1,-1,-1,-1,190,-1,6,-1,-1,-1,-1,,9999,0,0,1,FEW 40,-1,11,-1,18,1017,RJCM 220900Z 19006KT 9999 FEW040 M11/M18 Q1017 RMK 1CU040     A3005=,
20180122_100000.002,1,RJCM,,,,0,20180122100000,-1,-1,-1,-1,200,-1,7,-1,-1,-1,-1,,9999,0,0,1,FEW 40,-1,8,-1,17,1018,RJCM 221000Z 20007KT 9999 FEW040 M08/M17 Q1018 RMK 1CU040     A3006=,
20180122_110000.003,1,RJCM,,,,0,20180122110000,-1,-1,-1,-1,210,-1,7,-1,-1,-1,-1,,9999,0,0,2,FEW 40   SCT -9999,-1,8,-1,17,1018,RJCM 221100Z 21007KT 9999 FEW040 SCT/// M08/M17 Q1018 RMK     1CU040 A3008=,
20180122_230000.003,1,RJCM,,,,0,20180122230000,-1,-1,-1,-1,170,-1,4,-1,-1,-1,-1,,9999,0,0,2,FEW 30   BKN 160,-1,12,-1,16,1010,RJCM 222300Z 17004KT 9999 FEW030 BKN160 M12/M16 Q1010 RMK     1CU030 7AC160 A2984=,
20180123_000000.002,1,RJCM,,,,0,20180123000000,-1,-1,-1,-1,140,-1,3,-1,-1,90,200,,9999,0,0,3,FEW 30   BKN 160   BKN -9999,-1,11,-1,16,1008,RJCM 230000Z 14003KT 090V200 9999 FEW030 BKN160 BKN/// M11/M16     Q1008 RMK 1CU030 5AC160 A2979 P/FR=,
20180123_010000.002,1,RJCM,,,,0,20180123010000,-1,-1,-1,-1,190,-1,3,-1,-1,-1,-1,,9999,0,0,3,FEW 30   SCT 60   BKN -9999,-1,9,-1,15,1006,RJCM 230100Z 19003KT 9999 FEW030 SCT060 BKN/// M09/M15 Q1006     RMK 1CU030 3CU060 A2973=,
20180123_020000.002,1,RJCM,,,,0,20180123020000,-1,-1,-1,-1,999,-1,2,-1,-1,-1,-1,,9999,0,0,3,FEW 20   SCT 35   BKN 50,-1,7,-1,14,1005,RJCM 230200Z VRB02KT 9999 FEW020 SCT035 BKN050 M07/M14 Q1005     RMK 1CU020 3CU035 6CU050 A2968=,
20180123_030000.003,1,RJCM,,,,0,20180123030000,-1,-1,-1,-1,180,-1,3,-1,-1,150,250,,9999,0,0,3,FEW 15   SCT 30   BKN 40,-1,5,-1,12,1003,RJCM 230300Z 18003KT 150V250 9999 FEW015 SCT030 BKN040 M05/M12     Q1003 RMK 1ST015 3CU030 5CU040 A2963=,
20180123_040000.003,1,RJCM,,,,0,20180123040000,-1,-1,-1,-1,160,-1,3,-1,-1,-1,-1,,8000,0,1,3,FEW 10   SCT 25   BKN 40,-1,5,-1,12,1001,RJCM 230400Z 16003KT 8000 -SHSN FEW010 SCT025 BKN040 M05/M12     Q1001 RMK 1ST010 3CU025 5CU040 A2958=,- SN SH
20180123_050000.002,1,RJCM,,,,0,20180123050000,-1,-1,-1,-1,260,-1,3,-1,-1,190,290,,9999,0,1,3,FEW 15   SCT 30   BKN 40,-1,4,-1,9,1000,RJCM 230500Z 26003KT 190V290 9999 -SHSN FEW015 SCT030 BKN040     M04/M09 Q1000 RMK 1ST015 3CU030 5CU040 A2954=,- SN SH
20180123_060000.003,1,RJCM,,,,0,20180123060000,-1,-1,-1,-1,999,-1,1,-1,-1,-1,-1,,6000,0,1,3,FEW 7   SCT 25   BKN 35,-1,4,-1,8,999,RJCM 230600Z VRB01KT 6000 -SHSN FEW007 SCT025 BKN035 M04/M08     Q0999 RMK 1ST007 3CU025 6CU035 A2952=,- SN SH
20180123_070000.002,1,RJCM,,,,0,20180123070000,-1,-1,-1,-1,999,-1,1,-1,-1,-1,-1,,8000,0,1,2,FEW 10   BKN 35,-1,4,-1,7,999,RJCM 230700Z VRB01KT 8000 -SHSN FEW010 BKN035 M04/M07 Q0999     RMK 1ST010 7CU035 A2951=,- SN SH
20180123_080000.002,1,RJCM,,,,0,20180123080000,-1,-1,-1,-1,90,-1,3,-1,-1,-1,-1,,8000,0,1,3,FEW 10   SCT 30   BKN 40,-1,5,-1,7,998,RJCM 230800Z 09003KT 8000 -SHSN FEW010 SCT030 BKN040 M05/M07     Q0998 RMK 1ST010 3CU030 6CU040 A2949=,- SN SH
20180123_090000.002,1,RJCM,,,,0,20180123090000,-1,-1,-1,-1,999,-1,2,-1,-1,-1,-1,,9999,0,1,3,FEW 10   SCT 35   BKN 80,-1,5,-1,7,998,RJCM 230900Z VRB02KT 9999 -SHSN FEW010 SCT035 BKN080 M05/M07     Q0998 RMK 1ST010 3CU035 7AC080 A2949=,- SN SH
20180123_100000.002,1,RJCM,,,,0,20180123100000,-1,-1,-1,-1,999,-1,1,-1,-1,-1,-1,,9999,0,1,3,FEW 10   SCT 35   BKN 60,-1,5,-1,7,997,RJCM 231000Z VRB01KT 9999 -SHSN FEW010 SCT035 BKN060 M05/M07     Q0997 RMK 1ST010 3CU035 6CU060 A2946=,- SN SH
20180123_110000.002,1,RJCM,,,,0,20180123110000,-1,-1,-1,-1,220,-1,2,-1,-1,-1,-1,,2500,0,1,3,FEW 9   SCT 10   BKN 20,-1,5,-1,6,997,RJCM 231100Z 22002KT 2500 -SHSN FEW009 SCT010 BKN020 M05/M06     Q0997 RMK 1ST009 3ST010 6CU020 A2945=,- SN SH
20180123_230000.002,1,RJCM,,,,0,20180123230000,-1,-1,-1,-1,190,-1,6,-1,-1,-1,-1,,9999,0,0,3,FEW 30   SCT 60   BKN 80,-1,7,-1,11,996,RJCM 232300Z 19006KT 9999 FEW030 SCT060 BKN080 M07/M11 Q0996     RMK 1CU030 3CU060 6AC080 A2943=,
20180124_000000.002,1,RJCM,,,,0,20180124000000,-1,-1,-1,-1,200,-1,5,-1,-1,-1,-1,,9999,0,0,3,FEW 30   SCT 60   BKN 70,-1,6,-1,12,996,RJCM 240000Z 20005KT 9999 FEW030 SCT060 BKN070 M06/M12 Q0996     RMK 1CU030 3CU060 6AC070 A2943=,
20180124_010000.003,1,RJCM,,,,0,20180124010000,-1,-1,-1,-1,210,-1,5,-1,-1,-1,-1,,9999,0,0,2,FEW 40   SCT 90,-1,5,-1,12,996,RJCM 240100Z 21005KT 9999 FEW040 SCT090 M05/M12 Q0996 RMK     1CU040 3AC090 A2943=,
20180124_020000.002,1,RJCM,,,,0,20180124020000,-1,-1,-1,-1,240,-1,5,-1,-1,210,270,,9999,0,0,1,FEW 30,-1,3,-1,15,995,RJCM 240200Z 24005KT 210V270 9999 FEW030 M03/M15 Q0995 RMK     1CU030 A2940=,
20180124_030000.002,1,RJCM,,,,0,20180124030000,-1,-1,-1,-1,999,-1,2,-1,-1,-1,-1,,9999,0,0,1,FEW 30,-1,3,-1,17,995,RJCM 240300Z VRB02KT 9999 FEW030 M03/M17 Q0995 RMK 1CU030     A2938=,
20180124_040000.002,1,RJCM,,,,0,20180124040000,-1,-1,-1,-1,999,-1,1,-1,-1,-1,-1,,9999,0,0,1,FEW 30,-1,3,-1,17,994,RJCM 240400Z VRB01KT 9999 FEW030 M03/M17 Q0994 RMK 1CU030     A2936=,
20180124_050000.002,1,RJCM,,,,0,20180124050000,-1,-1,-1,-1,300,-1,4,-1,-1,180,360,,9999,0,0,3,FEW 30   SCT 60   BKN 70,-1,3,-1,17,994,RJCM 240500Z 30004KT 180V360 9999 FEW030 SCT060 BKN070 M03/M17     Q0994 RMK 1CU030 3CU060 5AC070 A2936=,
20180124_060000.002,1,RJCM,,,,0,20180124060000,-1,-1,-1,-1,999,-1,3,-1,-1,-1,-1,,9999,0,0,3,FEW 30   SCT 60   BKN 70,-1,3,-1,17,994,RJCM 240600Z VRB03KT 9999 FEW030 SCT060 BKN070 M03/M17 Q0994     RMK 1CU030 3CU060 5AC070 A2938=,
20180124_070000.002,1,RJCM,,,,0,20180124070000,-1,-1,-1,-1,220,-1,8,-1,-1,-1,-1,,9999,0,0,3,FEW 30   SCT 70   BKN 80,-1,4,-1,17,994,RJCM 240700Z 22008KT 9999 FEW030 SCT070 BKN080 M04/M17 Q0994     RMK 1CU030 3AC070 5AC080 A2938=,
20180124_080000.002,1,RJCM,,,,0,20180124080000,-1,-1,-1,-1,250,-1,5,-1,-1,210,290,,9999,0,0,3,FEW 30   SCT 40   BKN 50,-1,5,-1,15,995,RJCM 240800Z 25005KT 210V290 9999 FEW030 SCT040 BKN050 M05/M15     Q0995 RMK 1CU030 3CU040 5CU050 A2939=,
20180124_090000.003,1,RJCM,,,,0,20180124090000,-1,-1,-1,-1,999,-1,2,-1,-1,-1,-1,,9999,0,0,2,FEW 30   SCT 50,-1,7,-1,18,995,RJCM 240900Z VRB02KT 9999 FEW030 SCT050 M07/M18 Q0995 RMK     1CU030 3CU050 A2940=,
20180124_100000.002,1,RJCM,,,,0,20180124100000,-1,-1,-1,-1,220,-1,5,-1,-1,190,250,,9999,0,0,3,FEW 30   BKN 50   BKN 100,-1,7,-1,20,995,RJCM 241000Z 22005KT 190V250 9999 FEW030 BKN050 BKN100 M07/M20     Q0995 RMK 1CU030 5CU050 7AC100 A2941=,
20180124_110000.002,1,RJCM,,,,0,20180124110000,-1,-1,-1,-1,180,-1,3,-1,-1,150,220,,9999,0,0,3,FEW 30   SCT 60   BKN 80,-1,10,-1,19,996,RJCM 241100Z 18003KT 150V220 9999 FEW030 SCT060 BKN080 M10/M19     Q0996 RMK 1CU030 3CU060 5AC080 A2941=,
20180124_230000.002,1,RJCM,,,,0,20180124230000,-1,-1,-1,-1,240,-1,6,-1,-1,200,280,,9999,0,0,3,FEW 30   SCT 90   BKN 140,-1,12,-1,16,993,RJCM 242300Z 24006KT 200V280 9999 FEW030 SCT090 BKN140 M12/M16     Q0993 RMK 1CU030 3AC090 6AC140 A2934=,
20180125_000000.002,1,RJCM,,,,0,20180125000000,-1,-1,-1,-1,230,-1,5,-1,-1,200,270,,9999,0,0,3,FEW 30   SCT 90   BKN 140,-1,10,-1,16,993,RJCM 250000Z 23005KT 200V270 9999 FEW030 SCT090 BKN140 M10/M16     Q0993 RMK 1CU030 3AC090 6AC140 A2933=,
20180125_010000.002,1,RJCM,,,,0,20180125010000,-1,-1,-1,-1,240,-1,5,-1,-1,200,270,,9999,0,0,3,FEW 20   SCT 40   BKN 70,-1,8,-1,16,992,RJCM 250100Z 24005KT 200V270 9999 FEW020 SCT040 BKN070 M08/M16     Q0992 RMK 1CU020 3CU040 5AC070 A2931=,
20180125_020000.003,1,RJCM,,,,0,20180125020000,-1,-1,-1,-1,250,-1,5,-1,-1,200,300,,9999,0,0,3,FEW 30   SCT 40   BKN 50,-1,6,-1,15,991,RJCM 250200Z 25005KT 200V300 9999 FEW030 SCT040 BKN050 M06/M15     Q0991 RMK 1CU030 3CU040 5CU050 A2929=,
20180125_030000.002,1,RJCM,,,,0,20180125030000,-1,-1,-1,-1,290,-1,7,-1,19,250,360,,9999,0,0,3,FEW 30   SCT 40   BKN 60,-1,4,-1,15,991,RJCM 250300Z 29007G19KT 250V360 9999 FEW030 SCT040 BKN060     M04/M15 Q0991 RMK 1CU030 3CU040 5CU060 A2927=,
20180125_040000.002,1,RJCM,,,,0,20180125040000,-1,-1,-1,-1,300,-1,12,-1,24,240,330,,9999,0,0,3,FEW 20   SCT 40   BKN 50,-1,4,-1,14,990,RJCM 250400Z 30012G24KT 240V330 9999 FEW020 SCT040 BKN050     M04/M14 Q0990 RMK 1CU020 3CU040 6CU050 A2925=,
20180125_050000.002,1,RJCM,,,,0,20180125050000,-1,-1,-1,-1,310,-1,10,-1,20,240,340,,9999,0,1,3,FEW 20   SCT 30   BKN 40,-1,4,-1,13,990,RJCM 250500Z 31010G20KT 240V340 9999 -SHSN FEW020 SCT030     BKN040 M04/M13 Q0990 RMK 1CU020 3CU030 6CU040 A2925=,- SN SH
20180125_060000.002,1,RJCM,,,,0,20180125060000,-1,-1,-1,-1,270,-1,8,-1,-1,210,320,,9999,0,1,3,FEW 10   SCT 30   BKN 50,-1,4,-1,12,990,RJCM 250600Z 27008KT 210V320 9999 -SHSN FEW010 SCT030 BKN050     M04/M12 Q0990 RMK 1ST010 3CU030 6CU050 A2925=,- SN SH
20180125_070000.002,1,RJCM,,,,0,20180125070000,-1,-1,-1,-1,300,-1,9,-1,19,260,360,,9999,0,0,3,FEW 15   SCT 30   BKN 160,-1,5,-1,13,991,RJCM 250700Z 30009G19KT 260V360 9999 FEW015 SCT030 BKN160     M05/M13 Q0991 RMK 1ST015 3CU030 5AC160 A2927=,
20180125_080000.002,1,RJCM,,,,0,20180125080000,-1,-1,-1,-1,300,-1,11,-1,-1,260,340,,9999,0,0,3,FEW 20   SCT 30   BKN 160,-1,5,-1,13,991,RJCM 250800Z 30011KT 260V340 9999 FEW020 SCT030 BKN160 M05/M13     Q0991 RMK 1CU020 3CU030 5AC160 A2928=,
20180125_090000.002,1,RJCM,,,,0,20180125090000,-1,-1,-1,-1,290,-1,4,-1,-1,220,340,,9999,0,0,2,FEW 20   SCT 50,-1,6,-1,13,991,RJCM 250900Z 29004KT 220V340 9999 FEW020 SCT050 M06/M13 Q0991     RMK 1CU020 3CU050 A2928=,
20180125_100000.003,1,RJCM,,,,0,20180125100000,-1,-1,-1,-1,290,-1,8,-1,-1,230,320,,9999,0,0,2,FEW 20   SCT 50,-1,6,-1,14,991,RJCM 251000Z 29008KT 230V320 9999 FEW020 SCT050 M06/M14 Q0991     RMK 1CU020 3CU050 A2928=,
20180125_110000.003,1,RJCM,,,,0,20180125110000,-1,-1,-1,-1,290,-1,9,-1,-1,240,330,,9999,0,0,3,FEW 20   SCT 60   BKN 90,-1,5,-1,14,991,RJCM 251100Z 29009KT 240V330 9999 FEW020 SCT060 BKN090 M05/M14     Q0991 RMK 1CU020 3CU060 6AC090 A2927=,
20180125_230000.002,1,RJCM,,,,0,20180125230000,-1,-1,-1,-1,300,-1,5,-1,-1,250,20,,1000,1,1,3,FEW 3   SCT 6   BKN 15,-1,6,-1,8,993,RJCM 252300Z 30005KT 250V020 1000 R36/0800VP1800D -SHSN FEW003     SCT006 BKN015 M06/M08 Q0993 RMK 1ST003 3ST006 6ST015           A2933=,- SN SH
20180126_000000.002,1,RJCM,,,,0,20180126000000,-1,-1,-1,-1,300,-1,6,-1,-1,250,350,,4000,0,1,3,FEW 9   SCT 15   BKN 20,-1,5,-1,8,993,RJCM 260000Z 30006KT 250V350 4000 -SHSN FEW009 SCT015 BKN020     M05/M08 Q0993 RMK 1ST009 3ST015 6CU020 A2935=,- SN SH
20180126_010000.002,1,RJCM,,,,0,20180126010000,-1,-1,-1,-1,310,-1,6,-1,-1,250,350,,3000,0,1,3,FEW 9   SCT 15   BKN 20,-1,4,-1,8,994,RJCM 260100Z 31006KT 250V350 3000 -SHSN FEW009 SCT015 BKN020     M04/M08 Q0994 RMK 1ST009 3ST015 6CU020 A2936 9999SW=,- SN SH
20180126_020000.002,1,RJCM,,,,0,20180126020000,-1,-1,-1,-1,310,-1,8,-1,18,260,360,,7000,0,1,3,FEW 10   SCT 20   BKN 30,-1,4,-1,9,994,RJCM 260200Z 31008G18KT 260V360 7000 -SHSN FEW010 SCT020     BKN030 M04/M09 Q0994 RMK 1ST010 3CU020 6CU030 A2936=,- SN SH
20180126_030000.002,1,RJCM,,,,0,20180126030000,-1,-1,-1,-1,310,-1,9,-1,-1,280,360,,9999,0,1,3,FEW 10   SCT 20   BKN 40,-1,3,-1,10,994,RJCM 260300Z 31009KT 280V360 9999 -SHSN FEW010 SCT020 BKN040     M03/M10 Q0994 RMK 1ST010 3CU020 6CU040 A2935=,- SN SH
20180126_040000.002,1,RJCM,,,,0,20180126040000,-1,-1,-1,-1,320,-1,9,-1,-1,290,360,,9999,0,1,3,FEW 10   SCT 30   BKN 100,-1,3,-1,10,994,RJCM 260400Z 32009KT 290V360 9999 -SHSN FEW010 SCT030 BKN100     M03/M10 Q0994 RMK 1ST010 3CU030 7AC100 A2936=,- SN SH
20180126_050000.002,1,RJCM,,,,0,20180126050000,-1,-1,-1,-1,320,-1,9,-1,-1,280,350,,9999,0,0,3,FEW 15   SCT 40   BKN 110,-1,3,-1,10,994,RJCM 260500Z 32009KT 280V350 9999 FEW015 SCT040 BKN110 M03/M10     Q0994 RMK 1ST015 3CU040 7AC110 A2938=,
20180126_060000.002,1,RJCM,,,,0,20180126060000,-1,-1,-1,-1,330,-1,8,-1,-1,290,360,,9999,0,0,3,FEW 15   SCT 40   BKN 110,-1,3,-1,10,995,RJCM 260600Z 33008KT 290V360 9999 FEW015 SCT040 BKN110 M03/M10     Q0995 RMK 1ST015 3CU040 7AC110 A2939=,
20180126_070000.002,1,RJCM,,,,0,20180126070000,-1,-1,-1,-1,330,-1,8,-1,-1,-1,-1,,9999,0,1,3,FEW 10   SCT 20   BKN 30,-1,3,-1,8,995,RJCM 260700Z 33008KT 9999 -SHSN FEW010 SCT020 BKN030 M03/M08     Q0995 RMK 1ST010 3CU020 6CU030 A2940=,- SN SH
20180126_080000.003,1,RJCM,,,,0,20180126080000,-1,-1,-1,-1,320,-1,9,-1,21,280,360,,2000,1,1,3,FEW 2   SCT 5   BKN 10,-1,5,-1,7,996,RJCM 260800Z 32009G21KT 280V360 2000 R36/1200VP1800D -SHSN     FEW002 SCT005 BKN010 M05/M07 Q0996 RMK 1ST002 3ST005           6ST010 A2943=,- SN SH
20180126_090000.002,1,RJCM,,,,0,20180126090000,-1,-1,-1,-1,290,-1,4,-1,-1,250,340,,2000,1,1,3,FEW 2   SCT 5   BKN 10,-1,5,-1,7,997,RJCM 260900Z 29004KT 250V340 2000 R36/1800U -SHSN FEW002     SCT005 BKN010 M05/M07 Q0997 RMK 1ST002 3ST005 6ST010           A2946=,- SN SH
20180126_100000.002,1,RJCM,,,,0,20180126100000,-1,-1,-1,-1,320,-1,4,-1,-1,-1,-1,,4000,0,1,3,FEW 5   SCT 9   BKN 15,-1,5,-1,7,998,RJCM 261000Z 32004KT 4000 -SHSN FEW005 SCT009 BKN015 M05/M07     Q0998 RMK 1ST005 3ST009 5ST015 A2947=,- SN SH
20180126_110000.002,1,RJCM,,,,0,20180126110000,-1,-1,-1,-1,310,-1,4,-1,-1,270,340,,7000,0,1,3,FEW 9   SCT 20   BKN 40,-1,5,-1,8,998,RJCM 261100Z 31004KT 270V340 7000 -SHSN FEW009 SCT020 BKN040     M05/M08 Q0998 RMK 1ST009 3CU020 6CU040 A2948=,- SN SH
20180126_230000.002,1,RJCM,,,,0,20180126230000,-1,-1,-1,-1,210,-1,3,-1,-1,-1,-1,,3000,0,1,3,FEW 8   SCT 10   BKN 15,-1,7,-1,9,1003,RJCM 262300Z 21003KT 3000 -SHSN FEW008 SCT010 BKN015 M07/M09     Q1003 RMK 1ST008 3ST010 6ST015 A2964=,- SN SH
20180127_000000.002,1,RJCM,,,,0,20180127000000,-1,-1,-1,-1,999,-1,2,-1,-1,-1,-1,,7000,0,1,3,FEW 8   SCT 15   BKN 30,-1,6,-1,9,1004,RJCM 270000Z VRB02KT 7000 -SHSN FEW008 SCT015 BKN030 M06/M09     Q1004 RMK 1ST008 3ST015 6CU030 A2965=,- SN SH
20180127_010000.002,1,RJCM,,,,0,20180127010000,-1,-1,-1,-1,330,-1,3,-1,-1,270,10,,7000,0,1,3,FEW 8   SCT 20   BKN 50,-1,6,-1,9,1004,RJCM 270100Z 33003KT 270V010 7000 -SHSN FEW008 SCT020 BKN050     M06/M09 Q1004 RMK 1ST008 3CU020 6CU050 A2966=,- SN SH
20180127_020000.002,1,RJCM,,,,0,20180127020000,-1,-1,-1,-1,30,-1,2,-1,-1,-1,-1,,4000,0,1,3,FEW 8   SCT 15   BKN 20,-1,6,-1,9,1004,RJCM 270200Z 03002KT 4000 -SHSN FEW008 SCT015 BKN020 M06/M09     Q1004 RMK 1ST008 3ST015 6CU020 A2966=,- SN SH
20180127_030000.002,1,RJCM,,,,0,20180127030000,-1,-1,-1,-1,310,-1,4,-1,-1,240,20,,7000,0,1,3,FEW 8   SCT 20   BKN 30,-1,5,-1,9,1004,RJCM 270300Z 31004KT 240V020 7000 -SHSN FEW008 SCT020 BKN030     M05/M09 Q1004 RMK 1ST008 3CU020 6CU030 A2965=,- SN SH
20180127_040000.002,1,RJCM,,,,0,20180127040000,-1,-1,-1,-1,10,-1,11,-1,-1,-1,-1,,4900,0,1,3,FEW 8   SCT 15   BKN 30,-1,5,-1,8,1004,RJCM 270400Z 01011KT 4900 -SHSN FEW008 SCT015 BKN030 M05/M08     Q1004 RMK 1ST008 3ST015 6CU030 A2965 9999SE-SW=,- SN SH
20180127_050000.002,1,RJCM,,,,0,20180127050000,-1,-1,-1,-1,360,-1,8,-1,-1,320,50,,7000,0,1,3,FEW 10   SCT 15   BKN 30,-1,5,-1,9,1004,RJCM 270500Z 36008KT 320V050 7000 -SHSN FEW010 SCT015 BKN030     M05/M09 Q1004 RMK 1ST010 3ST015 6CU030 A2966=,- SN SH
20180127_060000.002,1,RJCM,,,,0,20180127060000,-1,-1,-1,-1,20,-1,7,-1,-1,-1,-1,,4500,0,1,3,FEW 10   SCT 15   BKN 20,-1,5,-1,8,1004,RJCM 270600Z 02007KT 4500 -SHSN FEW010 SCT015 BKN020 M05/M08     Q1004 RMK 1ST010 4ST015 6CU020 A2967=,- SN SH
20180127_070000.002,1,RJCM,,,,0,20180127070000,-1,-1,-1,-1,10,-1,6,-1,-1,-1,-1,,2500,0,1,3,FEW 10   SCT 15   BKN 20,-1,6,-1,8,1005,RJCM 270700Z 01006KT 2500 -SHSN FEW010 SCT015 BKN020 M06/M08     Q1005 RMK 1ST010 4ST015 6CU020 A2969=,- SN SH
20180127_080000.002,1,RJCM,,,,0,20180127080000,-1,-1,-1,-1,360,-1,2,-1,-1,-1,-1,,2000,0,1,3,FEW 9   SCT 10   BKN 15,-1,6,-1,8,1006,RJCM 270800Z 36002KT 2000 -SHSN FEW009 SCT010 BKN015 M06/M08     Q1006 RMK 1ST009 3ST010 6ST015 A2971=,- SN SH
20180127_090000.003,1,RJCM,,,,0,20180127090000,-1,-1,-1,-1,999,-1,1,-1,-1,-1,-1,,1400,1,1,3,FEW 6   SCT 10   BKN 20,-1,6,-1,8,1006,RJCM 270900Z VRB01KT 1400 R36/P1800N -SHSN FEW006 SCT010     BKN020 M06/M08 Q1006 RMK 1ST006 4ST010 6CU020 A2973=,- SN SH
20180127_090000.006,2,RJCM,,,,0,20180127090000,-1,-1,-1,-1,999,-1,1,-1,-1,-1,-1,,1400,1,1,3,FEW 6   SCT 10   BKN 20,-1,6,-1,8,1006,RJCM 270900Z VRB01KT 1400 R36/P1800N -SHSN FEW006 SCT010     BKN020 M06/M08 Q1006 RMK 1ST006 4ST010 6CU020 A2973=,- SN SH
20180127_100000.002,1,RJCM,,,,0,20180127100000,-1,-1,-1,-1,0,-1,0,-1,-1,-1,-1,,6000,0,1,3,FEW 6   SCT 15   BKN 20,-1,7,-1,8,1007,RJCM 271000Z 00000KT 6000 -SHSN FEW006 SCT015 BKN020 M07/M08     Q1007 RMK 1ST006 3ST015 5CU020 A2974=,- SN SH
20180127_110000.002,1,RJCM,,,,0,20180127110000,-1,-1,-1,-1,999,-1,1,-1,-1,-1,-1,,6000,0,1,3,FEW 6   SCT 20   BKN 25,-1,7,-1,8,1007,RJCM 271100Z VRB01KT 6000 -SHSN FEW006 SCT020 BKN025 M07/M08     Q1007 RMK 1ST006 3CU020 6CU025 A2975=,- SN SH
20180127_230000.002,1,RJCM,,,,0,20180127230000,-1,-1,-1,-1,210,-1,6,-1,-1,-1,-1,,9999,0,0,1,FEW 20,-1,14,-1,16,1010,RJCM 272300Z 21006KT 9999 FEW020 M14/M16 Q1010 RMK 1CU020     A2984=,
20180128_000000.003,1,RJCM,,,,0,20180128000000,-1,-1,-1,-1,180,-1,7,-1,-1,-1,-1,,9999,0,0,1,FEW 10,-1,14,-1,16,1010,RJCM 280000Z 18007KT 9999 FEW010 M14/M16 Q1010 RMK 1ST010     A2984=,
20180128_010000.002,1,RJCM,,,,0,20180128010000,-1,-1,-1,-1,170,-1,6,-1,-1,-1,-1,,9999,0,0,1,FEW 15,-1,11,-1,15,1010,RJCM 280100Z 17006KT 9999 FEW015 M11/M15 Q1010 RMK 1ST015     A2982=,
20180128_020000.002,1,RJCM,,,,0,20180128020000,-1,-1,-1,-1,160,-1,4,-1,-1,-1,-1,,9999,0,0,2,FEW 30   SCT 150,-1,9,-1,13,1009,RJCM 280200Z 16004KT 9999 FEW030 SCT150 M09/M13 Q1009 RMK     1CU030 3AC150 A2979=,
20180128_030000.002,1,RJCM,,,,0,20180128030000,-1,-1,-1,-1,170,-1,5,-1,-1,-1,-1,,9999,0,0,1,FEW 30,-1,6,-1,11,1007,RJCM 280300Z 17005KT 9999 FEW030 M06/M11 Q1007 RMK 1CU030     A2976=,
20180128_040000.002,1,RJCM,,,,0,20180128040000,-1,-1,-1,-1,999,-1,1,-1,-1,-1,-1,,9999,0,0,1,FEW 30,-1,4,-1,11,1007,RJCM 280400Z VRB01KT 9999 FEW030 M04/M11 Q1007 RMK 1CU030     A2974=,
20180128_050000.002,1,RJCM,,,,0,20180128050000,-1,-1,-1,-1,170,-1,5,-1,-1,-1,-1,,9999,0,0,2,FEW 30   BKN -9999,-1,2,-1,10,1006,RJCM 280500Z 17005KT 9999 FEW030 BKN/// M02/M10 Q1006 RMK     1CU030 A2973=,
20180128_060000.002,1,RJCM,,,,0,20180128060000,-1,-1,-1,-1,999,-1,2,-1,-1,-1,-1,,9999,0,0,2,FEW 30   BKN -9999,-1,3,-1,11,1007,RJCM 280600Z VRB02KT 9999 FEW030 BKN/// M03/M11 Q1007 RMK     1CU030 A2974=,
20180128_070000.003,1,RJCM,,,,0,20180128070000,-1,-1,-1,-1,999,-1,2,-1,-1,-1,-1,,9999,0,0,3,FEW 30   SCT 160   BKN -9999,-1,5,-1,11,1007,RJCM 280700Z VRB02KT 9999 FEW030 SCT160 BKN/// M05/M11 Q1007     RMK 1CU030 3AC160 A2974=,
20180128_080000.002,1,RJCM,,,,0,20180128080000,-1,-1,-1,-1,999,-1,1,-1,-1,-1,-1,,9999,0,0,3,FEW 30   SCT 60   BKN -9999,-1,8,-1,12,1007,RJCM 280800Z VRB01KT 9999 FEW030 SCT060 BKN/// M08/M12 Q1007     RMK 1CU030 4CU060 A2974=,
20180128_090000.002,1,RJCM,,,,0,20180128090000,-1,-1,-1,-1,999,-1,2,-1,-1,-1,-1,,9999,0,0,3,FEW 30   SCT 60   BKN -9999,-1,9,-1,13,1007,RJCM 280900Z VRB02KT 9999 FEW030 SCT060 BKN/// M09/M13 Q1007     RMK 1CU030 3CU060 A2974=,
20180128_100000.002,1,RJCM,,,,0,20180128100000,-1,-1,-1,-1,180,-1,3,-1,-1,-1,-1,,9999,0,0,3,FEW 30   SCT 120   BKN -9999,-1,12,-1,16,1006,RJCM 281000Z 18003KT 9999 FEW030 SCT120 BKN/// M12/M16 Q1006     RMK 1CU030 3AC120 A2973=,
20180128_110000.002,1,RJCM,,,,0,20180128110000,-1,-1,-1,-1,200,-1,9,-1,-1,-1,-1,,9999,0,0,3,FEW 30   BKN 130   BKN 150,-1,4,-1,12,1005,RJCM 281100Z 20009KT 9999 FEW030 BKN130 BKN150 M04/M12 Q1005     RMK 1CU030 5AC130 7AC150 A2969=,
20180128_230000.002,1,RJCM,,,,0,20180128230000,-1,-1,-1,-1,330,-1,10,-1,-1,280,360,,9999,0,0,1,FEW 10,-1,8,-1,13,1002,RJCM 282300Z 33010KT 280V360 9999 FEW010 M08/M13 Q1002 RMK     1ST010 A2960=,
20180129_000000.003,1,RJCM,,,,0,20180129000000,-1,-1,-1,-1,330,-1,8,-1,-1,-1,-1,,9999,0,0,1,FEW 10,-1,7,-1,14,1002,RJCM 290000Z 33008KT 9999 FEW010 M07/M14 Q1002 RMK 1ST010     A2961=,
20180129_010000.002,1,RJCM,,,,0,20180129010000,-1,-1,-1,-1,310,-1,6,-1,-1,270,340,,9999,0,1,3,FEW 10   SCT 30   BKN 50,-1,7,-1,13,1003,RJCM 290100Z 31006KT 270V340 9999 -SHSN FEW010 SCT030 BKN050     M07/M13 Q1003 RMK 1ST010 3CU030 5CU050 A2963=,- SN SH
20180129_020000.002,1,RJCM,,,,0,20180129020000,-1,-1,-1,-1,340,-1,7,-1,-1,300,10,,9999,0,1,2,FEW 15   SCT 40,-1,7,-1,13,1003,RJCM 290200Z 34007KT 300V010 9999 VCSH FEW015 SCT040 M07/M13     Q1003 RMK 1ST015 3CU040 A2963 SH NW-NE=,VC SH
20180129_030000.002,1,RJCM,,,,0,20180129030000,-1,-1,-1,-1,290,-1,8,-1,-1,240,350,,9999,0,0,1,FEW 15,-1,6,-1,18,1002,RJCM 290300Z 29008KT 240V350 9999 FEW015 M06/M18 Q1002 RMK     1ST015 A2961=,
20180129_040000.002,1,RJCM,,,,0,20180129040000,-1,-1,-1,-1,310,-1,7,-1,-1,270,340,,9999,0,0,1,FEW 20,-1,6,-1,18,1002,RJCM 290400Z 31007KT 270V340 9999 FEW020 M06/M18 Q1002 RMK     1CU020 A2960=,
20180129_050000.002,1,RJCM,,,,0,20180129050000,-1,-1,-1,-1,310,-1,8,-1,-1,270,360,,9999,0,0,2,FEW 10   SCT 40,-1,6,-1,18,1002,RJCM 290500Z 31008KT 270V360 9999 FEW010 SCT040 M06/M18 Q1002     RMK 1ST010 3CU040 A2961=,
20180129_060000.002,1,RJCM,,,,0,20180129060000,-1,-1,-1,-1,20,-1,5,-1,-1,330,40,,9999,0,0,2,FEW 15   SCT 50,-1,6,-1,18,1003,RJCM 290600Z 02005KT 330V040 9999 FEW015 SCT050 M06/M18 Q1003     RMK 1ST015 3CU050 A2964=,
20180129_070000.002,1,RJCM,,,,0,20180129070000,-1,-1,-1,-1,50,-1,5,-1,-1,-1,-1,,9999,0,0,1,FEW 20,-1,8,-1,13,1004,RJCM 290700Z 05005KT 9999 FEW020 M08/M13 Q1004 RMK 1CU020     A2966=,
20180129_080000.002,1,RJCM,,,,0,20180129080000,-1,-1,-1,-1,100,-1,4,-1,-1,-1,-1,,9999,0,0,2,FEW 20   SCT 160,-1,10,-1,13,1005,RJCM 290800Z 10004KT 9999 FEW020 SCT160 M10/M13 Q1005 RMK     1CU020 3AC160 A2968=,
20180129_090000.002,1,RJCM,,,,0,20180129090000,-1,-1,-1,-1,999,-1,1,-1,-1,-1,-1,,9999,0,0,2,FEW 20   BKN 50,-1,11,-1,13,1005,RJCM 290900Z VRB01KT 9999 FEW020 BKN050 M11/M13 Q1005 RMK     1CU020 6CU050 A2970=,
20180129_100000.002,1,RJCM,,,,0,20180129100000,-1,-1,-1,-1,999,-1,1,-1,-1,-1,-1,,9999,0,0,2,FEW 20   BKN 130,-1,10,-1,13,1005,RJCM 291000Z VRB01KT 9999 FEW020 BKN130 M10/M13 Q1005 RMK     1CU020 7AC130 A2970=,
20180129_110000.002,1,RJCM,,,,0,20180129110000,-1,-1,-1,-1,999,-1,1,-1,-1,-1,-1,,9999,0,0,2,FEW 20   BKN 130,-1,13,-1,16,1005,RJCM 291100Z VRB01KT 9999 FEW020 BKN130 M13/M16 Q1005 RMK     1CU020 7AC130 A2969=,
20180129_230000.002,1,RJCM,,,,0,20180129230000,-1,-1,-1,-1,180,-1,8,-1,-1,-1,-1,,9999,0,0,1,FEW 30,-1,18,-1,22,1008,RJCM 292300Z 18008KT 9999 FEW030 M18/M22 Q1008 RMK 1CU030     A2977=,
20180130_000000.002,1,RJCM,,,,0,20180130000000,-1,-1,-1,-1,180,-1,4,-1,-1,140,220,,9999,0,0,1,FEW 30,-1,14,-1,19,1008,RJCM 300000Z 18004KT 140V220 9999 FEW030 M14/M19 Q1008 RMK     1CU030 A2978=,
20180130_010000.002,1,RJCM,,,,0,20180130010000,-1,-1,-1,-1,180,-1,4,-1,-1,-1,-1,,9999,0,0,1,FEW 30,-1,14,-1,19,1008,RJCM 300100Z 18004KT 9999 FEW030 M14/M19 Q1008 RMK 1CU030     A2978=,
20180130_020000.002,1,RJCM,,,,0,20180130020000,-1,-1,-1,-1,180,-1,4,-1,-1,-1,-1,,9999,0,0,1,FEW 40,-1,11,-1,17,1008,RJCM 300200Z 18004KT 9999 FEW040 M11/M17 Q1008 RMK 1CU040     A2977=,
20180130_030000.002,1,RJCM,,,,0,20180130030000,-1,-1,-1,-1,130,-1,3,-1,-1,110,170,,9999,0,0,1,FEW 50,-1,8,-1,16,1007,RJCM 300300Z 13003KT 110V170 9999 FEW050 M08/M16 Q1007 RMK     1CU050 A2975=,
20180130_040000.002,1,RJCM,,,,0,20180130040000,-1,-1,-1,-1,999,-1,2,-1,-1,-1,-1,,9999,0,0,3,FEW 30   SCT 50   BKN 60,-1,6,-1,16,1007,RJCM 300400Z VRB02KT 9999 FEW030 SCT050 BKN060 M06/M16 Q1007     RMK 1CU030 3CU050 5CU060 A2975=,
20180130_050000.002,1,RJCM,,,,0,20180130050000,-1,-1,-1,-1,999,-1,2,-1,-1,-1,-1,,9999,0,0,2,FEW 30   SCT 50,-1,5,-1,17,1007,RJCM 300500Z VRB02KT 9999 FEW030 SCT050 M05/M17 Q1007 RMK     1CU030 3CU050 A2976=,
20180130_060000.003,1,RJCM,,,,0,20180130060000,-1,-1,-1,-1,60,-1,4,-1,-1,50,110,,9999,0,0,1,FEW 30,-1,6,-1,16,1008,RJCM 300600Z 06004KT 050V110 9999 FEW030 M06/M16 Q1008 RMK     1CU030 A2977=,
20180130_070000.002,1,RJCM,,,,0,20180130070000,-1,-1,-1,-1,160,-1,3,-1,-1,-1,-1,,9999,0,0,1,FEW 40,-1,6,-1,17,1008,RJCM 300700Z 16003KT 9999 FEW040 M06/M17 Q1008 RMK 1CU040     A2979=,
20180130_080000.002,1,RJCM,,,,0,20180130080000,-1,-1,-1,-1,999,-1,2,-1,-1,-1,-1,,9999,0,0,2,FEW 40   SCT 70,-1,11,-1,18,1009,RJCM 300800Z VRB02KT 9999 FEW040 SCT070 M11/M18 Q1009 RMK     1CU040 3AC070 A2982=,
20180130_090000.002,1,RJCM,,,,0,20180130090000,-1,-1,-1,-1,30,-1,3,-1,-1,-1,-1,,9999,0,0,2,FEW 40   SCT 80,-1,12,-1,18,1010,RJCM 300900Z 03003KT 9999 FEW040 SCT080 M12/M18 Q1010 RMK     1CU040 3AC080 A2985=,
20180130_100000.002,1,RJCM,,,,0,20180130100000,-1,-1,-1,-1,999,-1,2,-1,-1,-1,-1,,9999,0,0,2,FEW 40   SCT 50,-1,12,-1,18,1011,RJCM 301000Z VRB02KT 9999 FEW040 SCT050 M12/M18 Q1011 RMK     1CU040 3CU050 A2987=,
20180130_110000.002,1,RJCM,,,,0,20180130110000,-1,-1,-1,-1,170,-1,4,-1,-1,-1,-1,,9999,0,0,2,FEW 40   SCT 50,-1,16,-1,19,1012,RJCM 301100Z 17004KT 9999 FEW040 SCT050 M16/M19 Q1012 RMK     1CU040 3CU050 A2989=,
20180130_230000.002,1,RJCM,,,,0,20180130230000,-1,-1,-1,-1,180,-1,8,-1,-1,-1,-1,,9999,0,0,2,FEW 60   BKN 160,-1,17,-1,20,1016,RJCM 302300Z 18008KT 9999 FEW060 BKN160 M17/M20 Q1016 RMK     1CU060 5AC160 A3001=,
20180131_000000.002,1,RJCM,,,,0,20180131000000,-1,-1,-1,-1,220,-1,5,-1,-1,-1,-1,,9999,0,0,2,FEW 60   BKN 160,-1,12,-1,18,1016,RJCM 310000Z 22005KT 9999 FEW060 BKN160 M12/M18 Q1016 RMK     1CU060 6AC160 A3000=,
20180131_010000.002,1,RJCM,,,,0,20180131010000,-1,-1,-1,-1,220,-1,7,-1,-1,200,260,,9999,0,0,3,FEW 60   SCT 130   BKN 160,-1,10,-1,17,1016,RJCM 310100Z 22007KT 200V260 9999 FEW060 SCT130 BKN160 M10/M17     Q1016 RMK 1CU060 3AC130 6AC160 A3001=,
20180131_020000.002,1,RJCM,,,,0,20180131020000,-1,-1,-1,-1,230,-1,4,-1,-1,200,260,,9999,0,0,3,FEW 60   SCT 140   BKN 160,-1,7,-1,16,1015,RJCM 310200Z 23004KT 200V260 9999 FEW060 SCT140 BKN160 M07/M16     Q1015 RMK 1CU060 3AC140 5AC160 A3000=,
20180131_030000.002,1,RJCM,,,,0,20180131030000,-1,-1,-1,-1,999,-1,1,-1,-1,-1,-1,,9999,0,0,3,FEW 50   SCT 120   BKN 140,-1,7,-1,16,1015,RJCM 310300Z VRB01KT 9999 FEW050 SCT120 BKN140 M07/M16 Q1015     RMK 1CU050 3AC120 6AC140 A2999=,
20180131_040000.002,1,RJCM,,,,0,20180131040000,-1,-1,-1,-1,999,-1,1,-1,-1,-1,-1,,9999,0,0,2,FEW 50   BKN 110,-1,6,-1,16,1015,RJCM 310400Z VRB01KT 9999 FEW050 BKN110 M06/M16 Q1015 RMK     1CU050 6AC110 A3000=,
20180131_050000.002,0,RJCM,,,,0,20180131050000,-1,-1,-1,-1,110,-1,2,-1,-1,-1,-1,,9999,0,0,3,FEW 50   SCT 130   BKN 150,-1,5,-1,15,1015,RJCM 310500Z 11002KT 9999 FEW050 SCT130 BKN150 M05/M15 Q1015     RMK 1CU050 3AC130 5AC150 A3000=,
20180131_060000.002,1,RJCM,,,,0,20180131060000,-1,-1,-1,-1,130,-1,3,-1,-1,-1,-1,,9999,0,0,3,FEW 40   SCT 70   BKN 150,-1,5,-1,15,1016,RJCM 310600Z 13003KT 9999 FEW040 SCT070 BKN150 M05/M15 Q1016     RMK 1CU040 3AC070 6AC150 A3001=,
20180131_070000.003,1,RJCM,,,,0,20180131070000,-1,-1,-1,-1,180,-1,3,-1,-1,150,210,,9999,0,0,3,FEW 40   SCT 60   BKN 70,-1,5,-1,15,1017,RJCM 310700Z 18003KT 150V210 9999 FEW040 SCT060 BKN070 M05/M15     Q1017 RMK 1CU040 3CU060 5AC070 A3003=,
20180131_080000.003,1,RJCM,,,,0,20180131080000,-1,-1,-1,-1,210,-1,5,-1,-1,170,240,,9999,0,0,2,FEW 40   SCT 70,-1,5,-1,15,1017,RJCM 310800Z 21005KT 170V240 9999 FEW040 SCT070 M05/M15 Q1017     RMK 1CU040 3AC070 A3006=,
20180131_090000.002,1,RJCM,,,,0,20180131090000,-1,-1,-1,-1,999,-1,1,-1,-1,-1,-1,,9999,0,0,3,FEW 40   SCT 50   BKN 70,-1,8,-1,16,1019,RJCM 310900Z VRB01KT 9999 FEW040 SCT050 BKN070 M08/M16 Q1019     RMK 1CU040 3CU050 6AC070 A3010=,
20180131_100000.002,1,RJCM,,,,0,20180131100000,-1,-1,-1,-1,999,-1,1,-1,-1,-1,-1,,9999,0,0,3,FEW 30   SCT 40   BKN 60,-1,8,-1,14,1019,RJCM 311000Z VRB01KT 9999 FEW030 SCT040 BKN060 M08/M14 Q1019     RMK 1CU030 3CU040 6CU060 A3012=,
20180131_110000.002,1,RJCM,,,,0,20180131110000,-1,-1,-1,-1,250,-1,2,-1,-1,-1,-1,,9999,0,0,1,FEW 30,-1,8,-1,14,1020,RJCM 311100Z 25002KT 9999 FEW030 M08/M14 Q1020 RMK 1CU030     A3013=,
20180131_230000.002,1,RJCM,,,,0,20180131230000,-1,-1,-1,-1,190,-1,8,-1,-1,-1,-1,,9999,0,0,1,FEW 30,-1,17,-1,20,1025,RJCM 312300Z 19008KT 9999 FEW030 M17/M20 Q1025 RMK 1CU030     A3029=,
20180201_000000.003,1,RJCM,,,,0,20180201000000,-1,-1,-1,-1,999,-1,2,-1,-1,-1,-1,,9999,0,0,1,FEW 30,-1,13,-1,17,1026,RJCM 010000Z VRB02KT 9999 FEW030 M13/M17 Q1026 RMK 1CU030     A3031=,
20180201_010000.002,1,RJCM,,,,0,20180201010000,-1,-1,-1,-1,170,-1,3,-1,-1,-1,-1,,9999,0,0,1,FEW 40,-1,12,-1,16,1026,RJCM 010100Z 17003KT 9999 FEW040 M12/M16 Q1026 RMK 1CU040     A3032=,
20180201_020000.002,1,RJCM,,,,0,20180201020000,-1,-1,-1,-1,999,-1,1,-1,-1,-1,-1,,9999,0,0,1,FEW 40,-1,9,-1,15,1026,RJCM 010200Z VRB01KT 9999 FEW040 M09/M15 Q1026 RMK 1CU040     A3032=,
20180201_030000.003,1,RJCM,,,,0,20180201030000,-1,-1,-1,-1,90,-1,2,-1,-1,-1,-1,,9999,0,0,1,FEW 40,-1,7,-1,14,1027,RJCM 010300Z 09002KT 9999 FEW040 M07/M14 Q1027 RMK 1CU040     A3033=,
20180201_040000.003,1,RJCM,,,,0,20180201040000,-1,-1,-1,-1,10,-1,4,-1,-1,-1,-1,,9999,0,0,1,FEW 40,-1,6,-1,12,1027,RJCM 010400Z 01004KT 9999 FEW040 M06/M12 Q1027 RMK 1CU040     A3033=,
20180201_050000.002,1,RJCM,,,,0,20180201050000,-1,-1,-1,-1,10,-1,4,-1,-1,-1,-1,,9999,0,0,1,FEW 40,-1,5,-1,11,1027,RJCM 010500Z 01004KT 9999 FEW040 M05/M11 Q1027 RMK 1CU040     A3034=,
20180201_060000.002,1,RJCM,,,,0,20180201060000,-1,-1,-1,-1,30,-1,3,-1,-1,360,70,,9999,0,0,1,FEW 40,-1,5,-1,11,1028,RJCM 010600Z 03003KT 360V070 9999 FEW040 M05/M11 Q1028 RMK     1CU040 A3036=,
20180201_070000.002,1,RJCM,,,,0,20180201070000,-1,-1,-1,-1,60,-1,3,-1,-1,20,80,,9999,0,0,1,FEW 30,-1,6,-1,10,1028,RJCM 010700Z 06003KT 020V080 9999 FEW030 M06/M10 Q1028 RMK     1CU030 A3038=,
20180201_080000.002,1,RJCM,,,,0,20180201080000,-1,-1,-1,-1,310,-1,2,-1,-1,-1,-1,,9999,0,0,1,FEW 30,-1,8,-1,11,1029,RJCM 010800Z 31002KT 9999 FEW030 M08/M11 Q1029 RMK 1CU030     A3040=,
20180201_090000.002,1,RJCM,,,,0,20180201090000,-1,-1,-1,-1,0,-1,0,-1,-1,-1,-1,,9999,0,0,1,FEW 15,-1,11,-1,14,1030,RJCM 010900Z 00000KT 9999 FEW015 M11/M14 Q1030 RMK 1ST015     A3042=,
20180201_100000.002,1,RJCM,,,,0,20180201100000,-1,-1,-1,-1,190,-1,1,-1,-1,-1,-1,,9999,1,1,1,FEW 15,-1,15,-1,16,1030,RJCM 011000Z 19001KT 9999 R36/1200VP1800D PRFG FEW015 M15/M16     Q1030 RMK 1ST015 A3043 2500SE FG SE=,PR FG
20180201_110000.002,1,RJCM,,,,0,20180201110000,-1,-1,-1,-1,170,-1,3,-1,-1,-1,-1,,9999,0,1,3,FEW 8   SCT 10   BKN 15,-1,14,-1,16,1030,RJCM 011100Z 17003KT 9999 BCFG FEW008 SCT010 BKN015 M14/M16     Q1030 RMK 1ST008 3ST010 5ST015 A3044=,BC FG
20180201_230000.003,1,RJCM,,,,0,20180201230000,-1,-1,-1,-1,999,-1,2,-1,-1,-1,-1,,7000,0,1,3,FEW 8   SCT 15   BKN 20,-1,9,-1,12,1032,RJCM 012300Z VRB02KT 7000 -SHSN FEW008 SCT015 BKN020 M09/M12     Q1032 RMK 1ST008 3ST015 6CU020 A3049=,- SN SH
20180202_000000.002,1,RJCM,,,,0,20180202000000,-1,-1,-1,-1,220,-1,3,-1,-1,200,260,,7000,0,1,3,FEW 8   SCT 15   BKN 20,-1,9,-1,12,1032,RJCM 020000Z 22003KT 200V260 7000 -SHSN FEW008 SCT015 BKN020     M09/M12 Q1032 RMK 1ST008 3ST015 5CU020 A3049=,- SN SH
20180202_010000.002,1,RJCM,,,,0,20180202010000,-1,-1,-1,-1,0,-1,0,-1,-1,-1,-1,,4000,0,1,3,FEW 6   SCT 10   BKN 20,-1,8,-1,11,1032,RJCM 020100Z 00000KT 4000 -SHSN FEW006 SCT010 BKN020 M08/M11     Q1032 RMK 1ST006 3ST010 5CU020 A3049=,- SN SH
20180202_020000.002,1,RJCM,,,,0,20180202020000,-1,-1,-1,-1,20,-1,2,-1,-1,-1,-1,,9999,0,0,2,FEW 8   SCT 15,-1,7,-1,10,1031,RJCM 020200Z 02002KT 9999 FEW008 SCT015 M07/M10 Q1031 RMK     1ST008 3ST015 A3046=,
20180202_030000.002,1,RJCM,,,,0,20180202030000,-1,-1,-1,-1,999,-1,2,-1,-1,-1,-1,,7000,0,1,2,FEW 8   SCT 15,-1,6,-1,10,1030,RJCM 020300Z VRB02KT 7000 -SHSN FEW008 SCT015 M06/M10 Q1030     RMK 1ST008 3ST015 A3044=,- SN SH
20180202_040000.002,1,RJCM,,,,0,20180202040000,-1,-1,-1,-1,340,-1,4,-1,-1,310,10,,9999,0,0,1,FEW 20,-1,6,-1,10,1030,RJCM 020400Z 34004KT 310V010 9999 FEW020 M06/M10 Q1030 RMK     1CU020 A3042=,
20180202_050000.001,1,RJCM,,,,0,20180202050000,-1,-1,-1,-1,60,-1,6,-1,-1,20,80,,9999,0,0,1,FEW 30,-1,5,-1,11,1030,RJCM 020500Z 06006KT 020V080 9999 FEW030 M05/M11 Q1030 RMK     1CU030 A3041=,
20180202_060000.002,1,RJCM,,,,0,20180202060000,-1,-1,-1,-1,70,-1,5,-1,-1,40,100,,9999,0,0,2,FEW 30   SCT 60,-1,5,-1,12,1030,RJCM 020600Z 07005KT 040V100 9999 FEW030 SCT060 M05/M12 Q1030     RMK 1CU030 3CU060 A3042=,
20180202_070000.002,1,RJCM,,,,0,20180202070000,-1,-1,-1,-1,60,-1,5,-1,-1,-1,-1,,9999,0,0,1,FEW 30,-1,6,-1,12,1030,RJCM 020700Z 06005KT 9999 FEW030 M06/M12 Q1030 RMK 1CU030     A3043=,
20180202_080000.002,1,RJCM,,,,0,20180202080000,-1,-1,-1,-1,40,-1,3,-1,-1,-1,-1,,9999,0,0,1,FEW 30,-1,7,-1,12,1030,RJCM 020800Z 04003KT 9999 FEW030 M07/M12 Q1030 RMK 1CU030     A3044=,
20180202_090000.002,1,RJCM,,,,0,20180202090000,-1,-1,-1,-1,40,-1,2,-1,-1,-1,-1,,9999,0,0,1,FEW 30,-1,10,-1,12,1030,RJCM 020900Z 04002KT 9999 FEW030 M10/M12 Q1030 RMK 1CU030     A3044=,
20180202_100000.003,1,RJCM,,,,0,20180202100000,-1,-1,-1,-1,70,-1,1,-1,-1,-1,-1,,9999,0,0,1,FEW 30,-1,13,-1,16,1030,RJCM 021000Z 07001KT 9999 FEW030 M13/M16 Q1030 RMK 1CU030     A3044=,
20180202_110000.002,1,RJCM,,,,0,20180202110000,-1,-1,-1,-1,0,-1,0,-1,-1,-1,-1,,9999,0,0,1,FEW 30,-1,15,-1,18,1030,RJCM 021100Z 00000KT 9999 FEW030 M15/M18 Q1030 RMK 1CU030     A3044=,
20180202_230000.003,1,RJCM,,,,0,20180202230000,-1,-1,-1,-1,220,-1,4,-1,-1,-1,-1,,3500,1,1,3,FEW 5   SCT 7   BKN 10,-1,11,-1,14,1028,RJCM 022300Z 22004KT 3500 R36/P1800N -SHSN FEW005 SCT007     BKN010 M11/M14 Q1028 RMK 1ST005 3ST007 7ST010 A3038=,- SN SH
20180203_000000.002,1,RJCM,,,,0,20180203000000,-1,-1,-1,-1,210,-1,4,-1,-1,-1,-1,,8000,0,1,3,FEW 7   SCT 9   BKN 10,-1,11,-1,14,1028,RJCM 030000Z 21004KT 8000 -SHSN FEW007 SCT009 BKN010 M11/M14     Q1028 RMK 1ST007 3ST009 6ST010 A3036=,- SN SH
20180203_010000.003,1,RJCM,,,,0,20180203010000,-1,-1,-1,-1,170,-1,5,-1,-1,-1,-1,,9999,0,0,2,FEW 40   BKN -9999,-1,11,-1,14,1027,RJCM 030100Z 17005KT 9999 FEW040 BKN/// M11/M14 Q1027 RMK     1CU040 A3034=,
20180203_020000.002,1,RJCM,,,,0,20180203020000,-1,-1,-1,-1,120,-1,3,-1,-1,60,160,,9999,0,0,2,FEW 40   SCT -9999,-1,9,-1,13,1025,RJCM 030200Z 12003KT 060V160 9999 FEW040 SCT/// M09/M13 Q1025     RMK 1CU040 A3029=,
20180203_030000.002,1,RJCM,,,,0,20180203030000,-1,-1,-1,-1,0,-1,0,-1,-1,-1,-1,,9999,0,0,2,FEW 30   BKN -9999,-1,8,-1,13,1025,RJCM 030300Z 00000KT 9999 FEW030 BKN/// M08/M13 Q1025 RMK     1CU030 A3027=,
20180203_040000.002,1,RJCM,,,,0,20180203040000,-1,-1,-1,-1,350,-1,3,-1,-1,-1,-1,,9999,0,0,3,FEW 30   SCT 150   BKN -9999,-1,8,-1,13,1024,RJCM 030400Z 35003KT 9999 FEW030 SCT150 BKN/// M08/M13 Q1024     RMK 1CU030 3AC150 A3024=,
20180203_050000.002,1,RJCM,,,,0,20180203050000,-1,-1,-1,-1,10,-1,5,-1,-1,-1,-1,,9999,0,0,2,FEW 8   BKN -9999,-1,7,-1,12,1024,RJCM 030500Z 01005KT 9999 FEW008 BKN/// M07/M12 Q1024 RMK     1ST008 A3024=,
20180203_060000.002,1,RJCM,,,,0,20180203060000,-1,-1,-1,-1,60,-1,7,-1,-1,-1,-1,,9999,0,0,3,FEW 4   SCT 5   BKN -9999,-1,8,-1,10,1024,RJCM 030600Z 06007KT 9999 FEW004 SCT005 BKN/// M08/M10 Q1024     RMK 1ST004 3ST005 A3025=,
20180203_070000.003,1,RJCM,,,,0,20180203070000,-1,-1,-1,-1,60,-1,6,-1,-1,-1,-1,,9999,0,1,3,FEW 4   BKN 6   BKN 10,-1,8,-1,10,1024,RJCM 030700Z 06006KT 9999 -SHSN FEW004 BKN006 BKN010 M08/M10     Q1024 RMK 1ST004 5ST006 7ST010 A3024=,- SN SH
20180203_080000.002,1,RJCM,,,,0,20180203080000,-1,-1,-1,-1,80,-1,3,-1,-1,-1,-1,,9999,0,0,3,FEW 4   SCT 5   BKN 6,-1,8,-1,10,1023,RJCM 030800Z 08003KT 9999 FEW004 SCT005 BKN006 M08/M10 Q1023     RMK 1ST004 4ST005 6ST006 A3023=,
20180203_090000.002,1,RJCM,,,,0,20180203090000,-1,-1,-1,-1,90,-1,4,-1,-1,-1,-1,,9999,0,0,3,FEW 3   SCT 4   BKN 5,-1,8,-1,10,1023,RJCM 030900Z 09004KT 9999 FEW003 SCT004 BKN005 M08/M10 Q1023     RMK 1ST003 4ST004 7ST005 A3023=,
20180203_100000.002,1,RJCM,,,,0,20180203100000,-1,-1,-1,-1,999,-1,2,-1,-1,-1,-1,,4900,0,1,3,FEW 2   SCT 3   BKN 4,-1,8,-1,9,1023,RJCM 031000Z VRB02KT 4900 BR FEW002 SCT003 BKN004 M08/M09     Q1023 RMK 1ST002 4ST003 6ST004 A3021=,BR
20180203_110000.002,1,RJCM,,,,0,20180203110000,-1,-1,-1,-1,210,-1,4,-1,-1,-1,-1,,1400,1,2,3,FEW 1   SCT 2   BKN 3,-1,8,-1,10,1022,RJCM 031100Z 21004KT 1400 R18/1300VP1800D BCFG BR FEW001     SCT002 BKN003 M08/M10 Q1022 RMK 1ST001 4ST002 6ST003           A3020=,BC FG; BR
20180203_230000.002,1,RJCM,,,,0,20180203230000,-1,-1,-1,-1,210,-1,3,-1,-1,-1,-1,,1400,1,1,3,FEW 6   SCT 7   BKN 8,-1,9,-1,11,1015,RJCM 032300Z 21003KT 1400 R18/1300VP1800U -SHSN FEW006 SCT007     BKN008 M09/M11 Q1015 RMK 1ST006 3ST007 6ST008 A2999=,- SN SH
20180204_000000.002,1,RJCM,,,,0,20180204000000,-1,-1,-1,-1,210,-1,3,-1,-1,-1,-1,,1400,1,1,3,FEW 5   SCT 6   BKN 7,-1,8,-1,10,1014,RJCM 040000Z 21003KT 1400 R18/1500VP1800D -SHSN FEW005 SCT006     BKN007 M08/M10 Q1014 RMK 1ST005 3ST006 6ST007 A2997=,- SN SH
20180204_010000.002,1,RJCM,,,,0,20180204010000,-1,-1,-1,-1,210,-1,2,-1,-1,-1,-1,,1200,1,1,3,FEW 5   SCT 6   BKN 7,-1,7,-1,9,1014,RJCM 040100Z 21002KT 1200 R36/1400U -SHSN FEW005 SCT006 BKN007     M07/M09 Q1014 RMK 1ST005 3ST006 6ST007 A2995=,- SN SH
20180204_020000.002,1,RJCM,,,,0,20180204020000,-1,-1,-1,-1,180,-1,1,-1,-1,-1,-1,,1200,1,1,3,FEW 5   SCT 6   BKN 7,-1,6,-1,8,1013,RJCM 040200Z 18001KT 1200 R36/1300N -SHSN FEW005 SCT006 BKN007     M06/M08 Q1013 RMK 1ST005 4ST006 7ST007 A2991=,- SN SH
20180204_030000.002,1,RJCM,,,,0,20180204030000,-1,-1,-1,-1,160,-1,1,-1,-1,-1,-1,,1600,1,1,3,FEW 6   SCT 7   BKN 10,-1,5,-1,8,1011,RJCM 040300Z 16001KT 1600 R36/1700U -SHSN FEW006 SCT007 BKN010     M05/M08 Q1011 RMK 1ST006 3ST007 6ST010 A2987=,- SN SH
20180204_040000.002,1,RJCM,,,,0,20180204040000,-1,-1,-1,-1,0,-1,0,-1,-1,-1,-1,,1400,1,1,3,FEW 6   SCT 10   BKN 15,-1,5,-1,7,1010,RJCM 040400Z 00000KT 1400 R36/P1800N -SHSN FEW006 SCT010     BKN015 M05/M07 Q1010 RMK 1ST006 3ST010 7ST015 A2984=,- SN SH
20180204_050000.002,1,RJCM,,,,0,20180204050000,-1,-1,-1,-1,340,-1,3,-1,-1,-1,-1,,1000,1,1,1,VV 5,-1,4,-1,6,1009,RJCM 040500Z 34003KT 1000 R36/1000V1200U -SHSN VV005 M04/M06     Q1009 RMK A2982=,- SN SH
20180204_060000.002,1,RJCM,,,,0,20180204060000,-1,-1,-1,-1,20,-1,7,-1,-1,-1,-1,,1200,1,1,3,FEW 5   SCT 6   BKN 10,-1,2,-1,4,1009,RJCM 040600Z 02007KT 1200 R36/1600U -SHSN FEW005 SCT006 BKN010     M02/M04 Q1009 RMK 1ST005 4ST006 6ST010 A2981=,- SN SH
20180204_070000.002,1,RJCM,,,,0,20180204070000,-1,-1,-1,-1,50,-1,10,-1,-1,-1,-1,,1000,1,1,3,FEW 6   SCT 8   BKN 10,-1,2,-1,4,1009,RJCM 040700Z 05010KT 1000 R36/1500VP1800U -SHSN FEW006 SCT008     BKN010 M02/M04 Q1009 RMK 1ST006 4ST008 6ST010 A2980=,- SN SH
20180204_080000.002,1,RJCM,,,,0,20180204080000,-1,-1,-1,-1,40,-1,10,-1,-1,-1,-1,,2000,0,1,3,FEW 7   SCT 8   BKN 9,-1,2,-1,3,1009,RJCM 040800Z 04010KT 2000 -SHSN FEW007 SCT008 BKN009 M02/M03     Q1009 RMK 1ST007 3ST008 6ST009 A2980=,- SN SH
20180204_090000.002,1,RJCM,,,,0,20180204090000,-1,-1,-1,-1,50,-1,10,-1,-1,-1,-1,,2000,0,1,3,FEW 7   SCT 9   BKN 10,-1,2,-1,3,1008,RJCM 040900Z 05010KT 2000 -SHSN FEW007 SCT009 BKN010 M02/M03     Q1008 RMK 1ST007 3ST009 6ST010 A2979=,- SN SH
20180204_100000.002,1,RJCM,,,,0,20180204100000,-1,-1,-1,-1,40,-1,10,-1,-1,-1,-1,,2500,0,1,3,FEW 7   SCT 8   BKN 9,-1,2,-1,3,1008,RJCM 041000Z 04010KT 2500 -SHSN FEW007 SCT008 BKN009 M02/M03     Q1008 RMK 1ST007 4ST008 6ST009 A2978=,- SN SH
20180204_110000.003,1,RJCM,,,,0,20180204110000,-1,-1,-1,-1,50,-1,10,-1,-1,10,80,,2000,0,1,3,FEW 6   SCT 8   BKN 10,-1,2,-1,3,1008,RJCM 041100Z 05010KT 010V080 2000 -SHSN FEW006 SCT008 BKN010     M02/M03 Q1008 RMK 1ST006 3ST008 6ST010 A2977=,- SN SH
20180204_230000.002,1,RJCM,,,,0,20180204230000,-1,-1,-1,-1,10,-1,9,-1,-1,-1,-1,,6000,0,1,3,FEW 9   BKN 10   BKN 15,-1,3,-1,5,1008,RJCM 042300Z 01009KT 6000 -SHSN FEW009 BKN010 BKN015 M03/M05     Q1008 RMK 1ST009 5ST010 7ST015 A2977=,- SN SH
20180205_000000.003,1,RJCM,,,,0,20180205000000,-1,-1,-1,-1,350,-1,8,-1,-1,-1,-1,,1600,1,1,3,FEW 6   SCT 8   BKN 10,-1,3,-1,4,1008,RJCM 050000Z 35008KT 1600 R36/P1800N -SHSN FEW006 SCT008     BKN010 M03/M04 Q1008 RMK 1ST006 3ST008 6ST010 A2977=,- SN SH
20180205_010000.002,1,RJCM,,,,0,20180205010000,-1,-1,-1,-1,350,-1,10,-1,-1,-1,-1,,1200,1,1,3,FEW 5   SCT 7   BKN 10,-1,3,-1,4,1008,RJCM 050100Z 35010KT 1200 R36/0800V1300U -SHSN FEW005 SCT007     BKN010 M03/M04 Q1008 RMK 1ST005 4ST007 6ST010 A2978=,- SN SH
20180205_020000.002,1,RJCM,,,,0,20180205020000,-1,-1,-1,-1,350,-1,11,-1,-1,-1,-1,,2000,1,1,3,FEW 5   BKN 10   BKN 15,-1,3,-1,5,1008,RJCM 050200Z 35011KT 2000 R36/P1800N -SHSN FEW005 BKN010     BKN015 M03/M05 Q1008 RMK 1ST005 5ST010 7ST015 A2978=,- SN SH
