20180101_000000.003,0,RJCT,,,,0,20180101000000,-1,-1,-1,-1,-1,-1,-1,-1,-1,-1,-1,,-1,0,0,0,,0,-1,0,-1,-1,RJCT 010000Z NIL=,
20180101_010000.003,0,RJCT,,,,0,20180101010000,-1,-1,-1,-1,-1,-1,-1,-1,-1,-1,-1,,-1,0,0,0,,0,-1,0,-1,-1,RJCT 010100Z NIL=,
20180101_020000.003,0,RJCT,,,,0,20180101020000,-1,-1,-1,-1,-1,-1,-1,-1,-1,-1,-1,,-1,0,0,0,,0,-1,0,-1,-1,RJCT 010200Z NIL=,
20180101_030000.003,0,RJCT,,,,0,20180101030000,-1,-1,-1,-1,-1,-1,-1,-1,-1,-1,-1,,-1,0,0,0,,0,-1,0,-1,-1,RJCT 010300Z NIL=,
20180101_040000.003,0,RJCT,,,,0,20180101040000,-1,-1,-1,-1,-1,-1,-1,-1,-1,-1,-1,,-1,0,0,0,,0,-1,0,-1,-1,RJCT 010400Z NIL=,
20180101_050000.003,0,RJCT,,,,0,20180101050000,-1,-1,-1,-1,-1,-1,-1,-1,-1,-1,-1,,-1,0,0,0,,0,-1,0,-1,-1,RJCT 010500Z NIL=,
20180101_060000.003,0,RJCT,,,,0,20180101060000,-1,-1,-1,-1,-1,-1,-1,-1,-1,-1,-1,,-1,0,0,0,,0,-1,0,-1,-1,RJCT 010600Z NIL=,
20180101_070000.003,0,RJCT,,,,0,20180101070000,-1,-1,-1,-1,-1,-1,-1,-1,-1,-1,-1,,-1,0,0,0,,0,-1,0,-1,-1,RJCT 010700Z NIL=,
20180101_080000.003,0,RJCT,,,,0,20180101080000,-1,-1,-1,-1,-1,-1,-1,-1,-1,-1,-1,,-1,0,0,0,,0,-1,0,-1,-1,RJCT 010800Z NIL=,
20180101_090000.003,0,RJCT,,,,0,20180101090000,-1,-1,-1,-1,-1,-1,-1,-1,-1,-1,-1,,-1,0,0,0,,0,-1,0,-1,-1,RJCT 010900Z NIL=,
20180101_100000.003,0,RJCT,,,,0,20180101100000,-1,-1,-1,-1,-1,-1,-1,-1,-1,-1,-1,,-1,0,0,0,,0,-1,0,-1,-1,RJCT 011000Z NIL=,
20180101_110000.003,0,RJCT,,,,0,20180101110000,-1,-1,-1,-1,-1,-1,-1,-1,-1,-1,-1,,-1,0,0,0,,0,-1,0,-1,-1,RJCT 011100Z NIL=,
20180101_120000.003,0,RJCT,,,,0,20180101120000,-1,-1,-1,-1,-1,-1,-1,-1,-1,-1,-1,,-1,0,0,0,,0,-1,0,-1,-1,RJCT 011200Z NIL=,
20180101_130000.003,0,RJCT,,,,0,20180101130000,-1,-1,-1,-1,-1,-1,-1,-1,-1,-1,-1,,-1,0,0,0,,0,-1,0,-1,-1,RJCT 011300Z NIL=,
20180101_140000.003,0,RJCT,,,,0,20180101140000,-1,-1,-1,-1,-1,-1,-1,-1,-1,-1,-1,,-1,0,0,0,,0,-1,0,-1,-1,RJCT 011400Z NIL=,
20180101_150000.003,0,RJCT,,,,0,20180101150000,-1,-1,-1,-1,-1,-1,-1,-1,-1,-1,-1,,-1,0,0,0,,0,-1,0,-1,-1,RJCT 011500Z NIL=,
20180101_160000.003,0,RJCT,,,,0,20180101160000,-1,-1,-1,-1,-1,-1,-1,-1,-1,-1,-1,,-1,0,0,0,,0,-1,0,-1,-1,RJCT 011600Z NIL=,
20180101_170000.003,0,RJCT,,,,0,20180101170000,-1,-1,-1,-1,-1,-1,-1,-1,-1,-1,-1,,-1,0,0,0,,0,-1,0,-1,-1,RJCT 011700Z NIL=,
20180101_180000.004,0,RJCT,,,,0,20180101180000,-1,-1,-1,-1,-1,-1,-1,-1,-1,-1,-1,,-1,0,0,0,,0,-1,0,-1,-1,RJCT 011800Z NIL=,
20180101_190000.004,0,RJCT,,,,0,20180101190000,-1,-1,-1,-1,-1,-1,-1,-1,-1,-1,-1,,-1,0,0,0,,0,-1,0,-1,-1,RJCT 011900Z NIL=,
20180101_200000.004,0,RJCT,,,,0,20180101200000,-1,-1,-1,-1,-1,-1,-1,-1,-1,-1,-1,,-1,0,0,0,,0,-1,0,-1,-1,RJCT 012000Z NIL=,
20180101_210000.003,0,RJCT,,,,0,20180101210000,-1,-1,-1,-1,-1,-1,-1,-1,-1,-1,-1,,-1,0,0,0,,0,-1,0,-1,-1,RJCT 012100Z NIL=,
20180101_220000.003,0,RJCT,,,,0,20180101220000,-1,-1,-1,-1,-1,-1,-1,-1,-1,-1,-1,,-1,0,0,0,,0,-1,0,-1,-1,RJCT 012200Z NIL=,
20180101_230000.003,0,RJCT,,,,0,20180101230000,-1,-1,-1,-1,-1,-1,-1,-1,-1,-1,-1,,-1,0,0,0,,0,-1,0,-1,-1,RJCT 012300Z NIL=,
20180102_000000.004,0,RJCT,,,,0,20180102000000,-1,-1,-1,-1,-1,-1,-1,-1,-1,-1,-1,,-1,0,0,0,,0,-1,0,-1,-1,RJCT 020000Z NIL=,
20180102_010000.004,0,RJCT,,,,0,20180102010000,-1,-1,-1,-1,-1,-1,-1,-1,-1,-1,-1,,-1,0,0,0,,0,-1,0,-1,-1,RJCT 020100Z NIL=,
20180102_020000.003,0,RJCT,,,,0,20180102020000,-1,-1,-1,-1,-1,-1,-1,-1,-1,-1,-1,,-1,0,0,0,,0,-1,0,-1,-1,RJCT 020200Z NIL=,
20180102_030000.003,0,RJCT,,,,0,20180102030000,-1,-1,-1,-1,-1,-1,-1,-1,-1,-1,-1,,-1,0,0,0,,0,-1,0,-1,-1,RJCT 020300Z NIL=,
20180102_040000.003,0,RJCT,,,,0,20180102040000,-1,-1,-1,-1,-1,-1,-1,-1,-1,-1,-1,,-1,0,0,0,,0,-1,0,-1,-1,RJCT 020400Z NIL=,
20180102_050000.003,0,RJCT,,,,0,20180102050000,-1,-1,-1,-1,-1,-1,-1,-1,-1,-1,-1,,-1,0,0,0,,0,-1,0,-1,-1,RJCT 020500Z NIL=,
20180102_060000.003,0,RJCT,,,,0,20180102060000,-1,-1,-1,-1,-1,-1,-1,-1,-1,-1,-1,,-1,0,0,0,,0,-1,0,-1,-1,RJCT 020600Z NIL=,
20180102_070000.003,0,RJCT,,,,0,20180102070000,-1,-1,-1,-1,-1,-1,-1,-1,-1,-1,-1,,-1,0,0,0,,0,-1,0,-1,-1,RJCT 020700Z NIL=,
20180102_080000.003,0,RJCT,,,,0,20180102080000,-1,-1,-1,-1,-1,-1,-1,-1,-1,-1,-1,,-1,0,0,0,,0,-1,0,-1,-1,RJCT 020800Z NIL=,
20180102_090000.003,0,RJCT,,,,0,20180102090000,-1,-1,-1,-1,-1,-1,-1,-1,-1,-1,-1,,-1,0,0,0,,0,-1,0,-1,-1,RJCT 020900Z NIL=,
20180102_100000.003,0,RJCT,,,,0,20180102100000,-1,-1,-1,-1,-1,-1,-1,-1,-1,-1,-1,,-1,0,0,0,,0,-1,0,-1,-1,RJCT 021000Z NIL=,
20180102_110000.003,0,RJCT,,,,0,20180102110000,-1,-1,-1,-1,-1,-1,-1,-1,-1,-1,-1,,-1,0,0,0,,0,-1,0,-1,-1,RJCT 021100Z NIL=,
20180102_120000.003,0,RJCT,,,,0,20180102120000,-1,-1,-1,-1,-1,-1,-1,-1,-1,-1,-1,,-1,0,0,0,,0,-1,0,-1,-1,RJCT 021200Z NIL=,
20180102_130000.004,0,RJCT,,,,0,20180102130000,-1,-1,-1,-1,-1,-1,-1,-1,-1,-1,-1,,-1,0,0,0,,0,-1,0,-1,-1,RJCT 021300Z NIL=,
20180102_140000.004,0,RJCT,,,,0,20180102140000,-1,-1,-1,-1,-1,-1,-1,-1,-1,-1,-1,,-1,0,0,0,,0,-1,0,-1,-1,RJCT 021400Z NIL=,
20180102_150000.003,0,RJCT,,,,0,20180102150000,-1,-1,-1,-1,-1,-1,-1,-1,-1,-1,-1,,-1,0,0,0,,0,-1,0,-1,-1,RJCT 021500Z NIL=,
20180102_160000.003,0,RJCT,,,,0,20180102160000,-1,-1,-1,-1,-1,-1,-1,-1,-1,-1,-1,,-1,0,0,0,,0,-1,0,-1,-1,RJCT 021600Z NIL=,
20180102_170000.003,0,RJCT,,,,0,20180102170000,-1,-1,-1,-1,-1,-1,-1,-1,-1,-1,-1,,-1,0,0,0,,0,-1,0,-1,-1,RJCT 021700Z NIL=,
20180102_180000.004,0,RJCT,,,,0,20180102180000,-1,-1,-1,-1,-1,-1,-1,-1,-1,-1,-1,,-1,0,0,0,,0,-1,0,-1,-1,RJCT 021800Z NIL=,
20180102_190000.003,0,RJCT,,,,0,20180102190000,-1,-1,-1,-1,-1,-1,-1,-1,-1,-1,-1,,-1,0,0,0,,0,-1,0,-1,-1,RJCT 021900Z NIL=,
20180102_200000.004,0,RJCT,,,,0,20180102200000,-1,-1,-1,-1,-1,-1,-1,-1,-1,-1,-1,,-1,0,0,0,,0,-1,0,-1,-1,RJCT 022000Z NIL=,
20180102_210000.003,0,RJCT,,,,0,20180102210000,-1,-1,-1,-1,-1,-1,-1,-1,-1,-1,-1,,-1,0,0,0,,0,-1,0,-1,-1,RJCT 022100Z NIL=,
20180102_220000.003,0,RJCT,,,,0,20180102220000,-1,-1,-1,-1,-1,-1,-1,-1,-1,-1,-1,,-1,0,0,0,,0,-1,0,-1,-1,RJCT 022200Z NIL=,
20180102_230000.003,0,RJCT,,,,0,20180102230000,-1,-1,-1,-1,-1,-1,-1,-1,-1,-1,-1,,-1,0,0,0,,0,-1,0,-1,-1,RJCT 022300Z NIL=,
20180103_000000.003,0,RJCT,,,,0,20180103000000,-1,-1,-1,-1,-1,-1,-1,-1,-1,-1,-1,,-1,0,0,0,,0,-1,0,-1,-1,RJCT 030000Z NIL=,
20180103_010000.003,0,RJCT,,,,0,20180103010000,-1,-1,-1,-1,-1,-1,-1,-1,-1,-1,-1,,-1,0,0,0,,0,-1,0,-1,-1,RJCT 030100Z NIL=,
20180103_020000.003,0,RJCT,,,,0,20180103020000,-1,-1,-1,-1,-1,-1,-1,-1,-1,-1,-1,,-1,0,0,0,,0,-1,0,-1,-1,RJCT 030200Z NIL=,
20180103_030000.004,0,RJCT,,,,0,20180103030000,-1,-1,-1,-1,-1,-1,-1,-1,-1,-1,-1,,-1,0,0,0,,0,-1,0,-1,-1,RJCT 030300Z NIL=,
20180103_040000.003,0,RJCT,,,,0,20180103040000,-1,-1,-1,-1,-1,-1,-1,-1,-1,-1,-1,,-1,0,0,0,,0,-1,0,-1,-1,RJCT 030400Z NIL=,
20180103_050000.003,0,RJCT,,,,0,20180103050000,-1,-1,-1,-1,-1,-1,-1,-1,-1,-1,-1,,-1,0,0,0,,0,-1,0,-1,-1,RJCT 030500Z NIL=,
20180103_060000.003,0,RJCT,,,,0,20180103060000,-1,-1,-1,-1,-1,-1,-1,-1,-1,-1,-1,,-1,0,0,0,,0,-1,0,-1,-1,RJCT 030600Z NIL=,
20180103_070000.003,0,RJCT,,,,0,20180103070000,-1,-1,-1,-1,-1,-1,-1,-1,-1,-1,-1,,-1,0,0,0,,0,-1,0,-1,-1,RJCT 030700Z NIL=,
20180103_080000.003,0,RJCT,,,,0,20180103080000,-1,-1,-1,-1,-1,-1,-1,-1,-1,-1,-1,,-1,0,0,0,,0,-1,0,-1,-1,RJCT 030800Z NIL=,
20180103_090000.003,0,RJCT,,,,0,20180103090000,-1,-1,-1,-1,-1,-1,-1,-1,-1,-1,-1,,-1,0,0,0,,0,-1,0,-1,-1,RJCT 030900Z NIL=,
20180103_100000.003,0,RJCT,,,,0,20180103100000,-1,-1,-1,-1,-1,-1,-1,-1,-1,-1,-1,,-1,0,0,0,,0,-1,0,-1,-1,RJCT 031000Z NIL=,
20180103_110000.003,0,RJCT,,,,0,20180103110000,-1,-1,-1,-1,-1,-1,-1,-1,-1,-1,-1,,-1,0,0,0,,0,-1,0,-1,-1,RJCT 031100Z NIL=,
20180103_120000.003,0,RJCT,,,,0,20180103120000,-1,-1,-1,-1,-1,-1,-1,-1,-1,-1,-1,,-1,0,0,0,,0,-1,0,-1,-1,RJCT 031200Z NIL=,
20180103_130000.004,0,RJCT,,,,0,20180103130000,-1,-1,-1,-1,-1,-1,-1,-1,-1,-1,-1,,-1,0,0,0,,0,-1,0,-1,-1,RJCT 031300Z NIL=,
20180103_140000.003,0,RJCT,,,,0,20180103140000,-1,-1,-1,-1,-1,-1,-1,-1,-1,-1,-1,,-1,0,0,0,,0,-1,0,-1,-1,RJCT 031400Z NIL=,
20180103_150000.003,0,RJCT,,,,0,20180103150000,-1,-1,-1,-1,-1,-1,-1,-1,-1,-1,-1,,-1,0,0,0,,0,-1,0,-1,-1,RJCT 031500Z NIL=,
20180103_160000.003,0,RJCT,,,,0,20180103160000,-1,-1,-1,-1,-1,-1,-1,-1,-1,-1,-1,,-1,0,0,0,,0,-1,0,-1,-1,RJCT 031600Z NIL=,
20180103_170000.003,0,RJCT,,,,0,20180103170000,-1,-1,-1,-1,-1,-1,-1,-1,-1,-1,-1,,-1,0,0,0,,0,-1,0,-1,-1,RJCT 031700Z NIL=,
20180103_180000.003,0,RJCT,,,,0,20180103180000,-1,-1,-1,-1,-1,-1,-1,-1,-1,-1,-1,,-1,0,0,0,,0,-1,0,-1,-1,RJCT 031800Z NIL=,
20180103_190000.003,0,RJCT,,,,0,20180103190000,-1,-1,-1,-1,-1,-1,-1,-1,-1,-1,-1,,-1,0,0,0,,0,-1,0,-1,-1,RJCT 031900Z NIL=,
20180103_200000.003,0,RJCT,,,,0,20180103200000,-1,-1,-1,-1,-1,-1,-1,-1,-1,-1,-1,,-1,0,0,0,,0,-1,0,-1,-1,RJCT 032000Z NIL=,
20180103_210000.004,0,RJCT,,,,0,20180103210000,-1,-1,-1,-1,-1,-1,-1,-1,-1,-1,-1,,-1,0,0,0,,0,-1,0,-1,-1,RJCT 032100Z NIL=,
20180103_220000.003,0,RJCT,,,,0,20180103220000,-1,-1,-1,-1,999,-1,2,-1,-1,-1,-1,,9999,0,0,2,FEW 40   BKN 230,-1,15,-1,17,1012,RJCT 032200Z VRB02KT 9999 FEW040 BKN230 M15/M17 Q1012 RMK     1CU040 5CI230 A2990=,
20180103_230000.003,0,RJCT,,,,0,20180103230000,-1,-1,-1,-1,999,-1,2,-1,-1,-1,-1,,9999,0,0,2,FEW 40   BKN 230,-1,15,-1,17,1013,RJCT 032300Z VRB02KT 9999 FEW040 BKN230 M15/M17 Q1013 RMK     1CU040 5CI230 A2992=,
20180104_000000.003,0,RJCT,,,,0,20180104000000,-1,-1,-1,-1,999,-1,1,-1,-1,-1,-1,,9999,0,0,2,FEW 40   BKN 230,-1,13,-1,14,1013,RJCT 040000Z VRB01KT 9999 FEW040 BKN230 M13/M14 Q1013 RMK     1CU040 5CI230 A2993=,
20180104_010000.003,0,RJCT,,,,0,20180104010000,-1,-1,-1,-1,999,-1,1,-1,-1,-1,-1,,9999,0,0,2,FEW 40   BKN 230,-1,9,-1,12,1013,RJCT 040100Z VRB01KT 9999 FEW040 BKN230 M09/M12 Q1013 RMK     1CU040 5CI230 A2992=,
20180104_020000.005,0,RJCT,,,,0,20180104020000,-1,-1,-1,-1,999,-1,1,-1,-1,-1,-1,,9999,0,0,2,FEW 40   BKN 230,-1,7,-1,12,1012,RJCT 040200Z VRB01KT 9999 FEW040 BKN230 M07/M12 Q1012 RMK     1CU040 5CI230 A2990=,
20180104_030000.004,0,RJCT,,,,0,20180104030000,-1,-1,-1,-1,160,-1,2,-1,-1,-1,-1,,9999,0,0,2,FEW 40   BKN 230,-1,4,-1,10,1012,RJCT 040300Z 16002KT 9999 FEW040 BKN230 M04/M10 Q1012 RMK     1CU040 5CI230 A2988=,
20180104_040000.003,0,RJCT,,,,0,20180104040000,-1,-1,-1,-1,230,-1,3,-1,-1,-1,-1,,9999,0,0,2,FEW 40   SCT 230,-1,4,-1,10,1011,RJCT 040400Z 23003KT 9999 FEW040 SCT230 M04/M10 Q1011 RMK     1CU040 4CI230 A2986=,
20180104_050000.003,0,RJCT,,,,0,20180104050000,-1,-1,-1,-1,240,-1,3,-1,-1,-1,-1,,9999,0,0,2,FEW 40   SCT 230,-1,4,-1,10,1011,RJCT 040500Z 24003KT 9999 FEW040 SCT230 M04/M10 Q1011 RMK     1CU040 4CI230 A2986=,
20180104_060000.004,0,RJCT,,,,0,20180104060000,-1,-1,-1,-1,210,-1,3,-1,-1,-1,-1,,9999,0,0,2,FEW 40   SCT 230,-1,4,-1,10,1012,RJCT 040600Z 21003KT 9999 FEW040 SCT230 M04/M10 Q1012 RMK     1CU040 3CI230 A2988=,
20180104_070000.003,0,RJCT,,,,0,20180104070000,-1,-1,-1,-1,999,-1,1,-1,-1,-1,-1,,9999,0,0,2,FEW 40   SCT 230,-1,6,-1,10,1012,RJCT 040700Z VRB01KT 9999 FEW040 SCT230 M06/M10 Q1012 RMK     1CU040 3CI230 A2989=,
20180104_080000.003,0,RJCT,,,,0,20180104080000,-1,-1,-1,-1,999,-1,2,-1,-1,-1,-1,,9999,0,0,2,FEW 40   SCT 230,-1,9,-1,11,1012,RJCT 040800Z VRB02KT 9999 FEW040 SCT230 M09/M11 Q1012 RMK     1CU040 4CI230 A2989=,
20180104_090000.003,0,RJCT,,,,0,20180104090000,-1,-1,-1,-1,-1,-1,-1,-1,-1,-1,-1,,-1,0,0,0,,0,-1,0,-1,-1,RJCT 040900Z NIL=,
20180104_100000.003,0,RJCT,,,,0,20180104100000,-1,-1,-1,-1,-1,-1,-1,-1,-1,-1,-1,,-1,0,0,0,,0,-1,0,-1,-1,RJCT 041000Z NIL=,
20180104_110000.003,0,RJCT,,,,0,20180104110000,-1,-1,-1,-1,-1,-1,-1,-1,-1,-1,-1,,-1,0,0,0,,0,-1,0,-1,-1,RJCT 041100Z NIL=,
20180104_120000.004,0,RJCT,,,,0,20180104120000,-1,-1,-1,-1,-1,-1,-1,-1,-1,-1,-1,,-1,0,0,0,,0,-1,0,-1,-1,RJCT 041200Z NIL=,
20180104_130000.003,0,RJCT,,,,0,20180104130000,-1,-1,-1,-1,-1,-1,-1,-1,-1,-1,-1,,-1,0,0,0,,0,-1,0,-1,-1,RJCT 041300Z NIL=,
20180104_140000.003,0,RJCT,,,,0,20180104140000,-1,-1,-1,-1,-1,-1,-1,-1,-1,-1,-1,,-1,0,0,0,,0,-1,0,-1,-1,RJCT 041400Z NIL=,
20180104_150000.004,0,RJCT,,,,0,20180104150000,-1,-1,-1,-1,-1,-1,-1,-1,-1,-1,-1,,-1,0,0,0,,0,-1,0,-1,-1,RJCT 041500Z NIL=,
20180104_160000.004,0,RJCT,,,,0,20180104160000,-1,-1,-1,-1,-1,-1,-1,-1,-1,-1,-1,,-1,0,0,0,,0,-1,0,-1,-1,RJCT 041600Z NIL=,
20180104_170000.004,0,RJCT,,,,0,20180104170000,-1,-1,-1,-1,-1,-1,-1,-1,-1,-1,-1,,-1,0,0,0,,0,-1,0,-1,-1,RJCT 041700Z NIL=,
20180104_180000.003,0,RJCT,,,,0,20180104180000,-1,-1,-1,-1,-1,-1,-1,-1,-1,-1,-1,,-1,0,0,0,,0,-1,0,-1,-1,RJCT 041800Z NIL=,
20180104_190000.004,0,RJCT,,,,0,20180104190000,-1,-1,-1,-1,-1,-1,-1,-1,-1,-1,-1,,-1,0,0,0,,0,-1,0,-1,-1,RJCT 041900Z NIL=,
20180104_200000.003,0,RJCT,,,,0,20180104200000,-1,-1,-1,-1,-1,-1,-1,-1,-1,-1,-1,,-1,0,0,0,,0,-1,0,-1,-1,RJCT 042000Z NIL=,
20180104_210000.003,0,RJCT,,,,0,20180104210000,-1,-1,-1,-1,-1,-1,-1,-1,-1,-1,-1,,-1,0,0,0,,0,-1,0,-1,-1,RJCT 042100Z NIL=,
20180104_220000.003,0,RJCT,,,,0,20180104220000,-1,-1,-1,-1,999,-1,1,-1,-1,-1,-1,,9999,0,0,2,FEW 30   BKN 40,-1,16,-1,18,1013,RJCT 042200Z VRB01KT 9999 FEW030 BKN040 M16/M18 Q1013 RMK     1CU030 5CU040 A2991=,
20180104_230000.003,0,RJCT,,,,0,20180104230000,-1,-1,-1,-1,999,-1,1,-1,-1,-1,-1,,9999,0,0,3,FEW 30   BKN 40   BKN 50,-1,15,-1,17,1013,RJCT 042300Z VRB01KT 9999 FEW030 BKN040 BKN050 M15/M17 Q1013     RMK 1CU030 5CU040 6CU050 A2991=,
20180105_000000.004,0,RJCT,,,,0,20180105000000,-1,-1,-1,-1,999,-1,1,-1,-1,-1,-1,,9999,0,0,1,SCT 40,-1,12,-1,14,1012,RJCT 050000Z VRB01KT 9999 SCT040 M12/M14 Q1012 RMK 3CU040     A2990=,
20180105_010000.004,0,RJCT,,,,0,20180105010000,-1,-1,-1,-1,999,-1,1,-1,-1,-1,-1,,9999,0,0,1,FEW 40,-1,10,-1,13,1012,RJCT 050100Z VRB01KT 9999 FEW040 M10/M13 Q1012 RMK 1CU040     A2989=,
20180105_020000.003,0,RJCT,,,,0,20180105020000,-1,-1,-1,-1,230,-1,3,-1,-1,-1,-1,,9999,0,0,1,FEW 40,-1,8,-1,13,1011,RJCT 050200Z 23003KT 9999 FEW040 M08/M13 Q1011 RMK 1CU040     A2986=,
20180105_030000.003,0,RJCT,,,,0,20180105030000,-1,-1,-1,-1,250,-1,3,-1,-1,-1,-1,,9999,0,0,1,FEW 40,-1,6,-1,12,1010,RJCT 050300Z 25003KT 9999 FEW040 M06/M12 Q1010 RMK 2CU040     A2983=,
20180105_040000.003,0,RJCT,,,,0,20180105040000,-1,-1,-1,-1,150,-1,4,-1,-1,-1,-1,,9999,0,0,1,FEW 40,-1,4,-1,11,1009,RJCT 050400Z 15004KT 9999 FEW040 M04/M11 Q1009 RMK 2CU040     A2981=,
20180105_050000.003,0,RJCT,,,,0,20180105050000,-1,-1,-1,-1,999,-1,1,-1,-1,-1,-1,,9999,0,0,2,FEW 30   SCT 40,-1,3,-1,10,1009,RJCT 050500Z VRB01KT 9999 FEW030 SCT040 M03/M10 Q1009 RMK     1CU030 3CU040 A2980=,
20180105_060000.003,0,RJCT,,,,0,20180105060000,-1,-1,-1,-1,220,-1,4,-1,-1,-1,-1,,9999,0,0,1,SCT 40,-1,4,-1,9,1008,RJCT 050600Z 22004KT 9999 SCT040 M04/M09 Q1008 RMK 3CU040     A2978=,
20180105_070000.003,0,RJCT,,,,0,20180105070000,-1,-1,-1,-1,999,-1,1,-1,-1,-1,-1,,9999,0,0,1,SCT 40,-1,7,-1,10,1008,RJCT 050700Z VRB01KT 9999 SCT040 M07/M10 Q1008 RMK 3CU040     A2978=,
20180105_080000.003,0,RJCT,,,,0,20180105080000,-1,-1,-1,-1,999,-1,2,-1,-1,-1,-1,,9999,0,0,1,FEW 40,-1,7,-1,10,1008,RJCT 050800Z VRB02KT 9999 FEW040 M07/M10 Q1008 RMK 2CU040     A2978=,
20180105_090000.003,0,RJCT,,,,0,20180105090000,-1,-1,-1,-1,-1,-1,-1,-1,-1,-1,-1,,-1,0,0,0,,0,-1,0,-1,-1,RJCT 050900Z NIL=,
20180105_100000.003,0,RJCT,,,,0,20180105100000,-1,-1,-1,-1,-1,-1,-1,-1,-1,-1,-1,,-1,0,0,0,,0,-1,0,-1,-1,RJCT 051000Z NIL=,
20180105_110000.003,0,RJCT,,,,0,20180105110000,-1,-1,-1,-1,-1,-1,-1,-1,-1,-1,-1,,-1,0,0,0,,0,-1,0,-1,-1,RJCT 051100Z NIL=,
20180105_120000.003,0,RJCT,,,,0,20180105120000,-1,-1,-1,-1,-1,-1,-1,-1,-1,-1,-1,,-1,0,0,0,,0,-1,0,-1,-1,RJCT 051200Z NIL=,
20180105_130000.003,0,RJCT,,,,0,20180105130000,-1,-1,-1,-1,-1,-1,-1,-1,-1,-1,-1,,-1,0,0,0,,0,-1,0,-1,-1,RJCT 051300Z NIL=,
20180105_140000.003,0,RJCT,,,,0,20180105140000,-1,-1,-1,-1,-1,-1,-1,-1,-1,-1,-1,,-1,0,0,0,,0,-1,0,-1,-1,RJCT 051400Z NIL=,
20180105_150000.003,0,RJCT,,,,0,20180105150000,-1,-1,-1,-1,-1,-1,-1,-1,-1,-1,-1,,-1,0,0,0,,0,-1,0,-1,-1,RJCT 051500Z NIL=,
20180105_160000.004,0,RJCT,,,,0,20180105160000,-1,-1,-1,-1,-1,-1,-1,-1,-1,-1,-1,,-1,0,0,0,,0,-1,0,-1,-1,RJCT 051600Z NIL=,
20180105_170000.003,0,RJCT,,,,0,20180105170000,-1,-1,-1,-1,-1,-1,-1,-1,-1,-1,-1,,-1,0,0,0,,0,-1,0,-1,-1,RJCT 051700Z NIL=,
20180105_180000.004,0,RJCT,,,,0,20180105180000,-1,-1,-1,-1,-1,-1,-1,-1,-1,-1,-1,,-1,0,0,0,,0,-1,0,-1,-1,RJCT 051800Z NIL=,
20180105_190000.003,0,RJCT,,,,0,20180105190000,-1,-1,-1,-1,-1,-1,-1,-1,-1,-1,-1,,-1,0,0,0,,0,-1,0,-1,-1,RJCT 051900Z NIL=,
20180105_200000.003,0,RJCT,,,,0,20180105200000,-1,-1,-1,-1,-1,-1,-1,-1,-1,-1,-1,,-1,0,0,0,,0,-1,0,-1,-1,RJCT 052000Z NIL=,
20180105_210000.004,0,RJCT,,,,0,20180105210000,-1,-1,-1,-1,-1,-1,-1,-1,-1,-1,-1,,-1,0,0,0,,0,-1,0,-1,-1,RJCT 052100Z NIL=,
20180105_220000.003,0,RJCT,,,,0,20180105220000,-1,-1,-1,-1,-1,-1,-1,-1,-1,-1,-1,,-1,0,0,0,,0,-1,0,-1,-1,RJCT 052200Z NIL=,
20180105_230000.003,0,RJCT,,,,0,20180105230000,-1,-1,-1,-1,-1,-1,-1,-1,-1,-1,-1,,-1,0,0,0,,0,-1,0,-1,-1,RJCT 052300Z NIL=,
20180106_000000.003,0,RJCT,,,,0,20180106000000,-1,-1,-1,-1,-1,-1,-1,-1,-1,-1,-1,,-1,0,0,0,,0,-1,0,-1,-1,RJCT 060000Z NIL=,
20180106_010000.003,0,RJCT,,,,0,20180106010000,-1,-1,-1,-1,-1,-1,-1,-1,-1,-1,-1,,-1,0,0,0,,0,-1,0,-1,-1,RJCT 060100Z NIL=,
20180106_020000.003,0,RJCT,,,,0,20180106020000,-1,-1,-1,-1,-1,-1,-1,-1,-1,-1,-1,,-1,0,0,0,,0,-1,0,-1,-1,RJCT 060200Z NIL=,
20180106_030000.003,0,RJCT,,,,0,20180106030000,-1,-1,-1,-1,-1,-1,-1,-1,-1,-1,-1,,-1,0,0,0,,0,-1,0,-1,-1,RJCT 060300Z NIL=,
20180106_040000.003,0,RJCT,,,,0,20180106040000,-1,-1,-1,-1,-1,-1,-1,-1,-1,-1,-1,,-1,0,0,0,,0,-1,0,-1,-1,RJCT 060400Z NIL=,
20180106_050000.003,0,RJCT,,,,0,20180106050000,-1,-1,-1,-1,-1,-1,-1,-1,-1,-1,-1,,-1,0,0,0,,0,-1,0,-1,-1,RJCT 060500Z NIL=,
20180106_060000.003,0,RJCT,,,,0,20180106060000,-1,-1,-1,-1,-1,-1,-1,-1,-1,-1,-1,,-1,0,0,0,,0,-1,0,-1,-1,RJCT 060600Z NIL=,
20180106_070000.003,0,RJCT,,,,0,20180106070000,-1,-1,-1,-1,-1,-1,-1,-1,-1,-1,-1,,-1,0,0,0,,0,-1,0,-1,-1,RJCT 060700Z NIL=,
20180106_080000.003,0,RJCT,,,,0,20180106080000,-1,-1,-1,-1,-1,-1,-1,-1,-1,-1,-1,,-1,0,0,0,,0,-1,0,-1,-1,RJCT 060800Z NIL=,
20180106_090000.003,0,RJCT,,,,0,20180106090000,-1,-1,-1,-1,-1,-1,-1,-1,-1,-1,-1,,-1,0,0,0,,0,-1,0,-1,-1,RJCT 060900Z NIL=,
20180106_100000.003,0,RJCT,,,,0,20180106100000,-1,-1,-1,-1,-1,-1,-1,-1,-1,-1,-1,,-1,0,0,0,,0,-1,0,-1,-1,RJCT 061000Z NIL=,
20180106_110000.003,0,RJCT,,,,0,20180106110000,-1,-1,-1,-1,-1,-1,-1,-1,-1,-1,-1,,-1,0,0,0,,0,-1,0,-1,-1,RJCT 061100Z NIL=,
20180106_120000.003,0,RJCT,,,,0,20180106120000,-1,-1,-1,-1,-1,-1,-1,-1,-1,-1,-1,,-1,0,0,0,,0,-1,0,-1,-1,RJCT 061200Z NIL=,
20180106_130000.005,0,RJCT,,,,0,20180106130000,-1,-1,-1,-1,-1,-1,-1,-1,-1,-1,-1,,-1,0,0,0,,0,-1,0,-1,-1,RJCT 061300Z NIL=,
20180106_140000.004,0,RJCT,,,,0,20180106140000,-1,-1,-1,-1,-1,-1,-1,-1,-1,-1,-1,,-1,0,0,0,,0,-1,0,-1,-1,RJCT 061400Z NIL=,
20180106_150000.003,0,RJCT,,,,0,20180106150000,-1,-1,-1,-1,-1,-1,-1,-1,-1,-1,-1,,-1,0,0,0,,0,-1,0,-1,-1,RJCT 061500Z NIL=,
20180106_160000.003,0,RJCT,,,,0,20180106160000,-1,-1,-1,-1,-1,-1,-1,-1,-1,-1,-1,,-1,0,0,0,,0,-1,0,-1,-1,RJCT 061600Z NIL=,
20180106_170000.003,0,RJCT,,,,0,20180106170000,-1,-1,-1,-1,-1,-1,-1,-1,-1,-1,-1,,-1,0,0,0,,0,-1,0,-1,-1,RJCT 061700Z NIL=,
20180106_180000.004,0,RJCT,,,,0,20180106180000,-1,-1,-1,-1,-1,-1,-1,-1,-1,-1,-1,,-1,0,0,0,,0,-1,0,-1,-1,RJCT 061800Z NIL=,
20180106_190000.003,0,RJCT,,,,0,20180106190000,-1,-1,-1,-1,-1,-1,-1,-1,-1,-1,-1,,-1,0,0,0,,0,-1,0,-1,-1,RJCT 061900Z NIL=,
20180106_200000.003,0,RJCT,,,,0,20180106200000,-1,-1,-1,-1,-1,-1,-1,-1,-1,-1,-1,,-1,0,0,0,,0,-1,0,-1,-1,RJCT 062000Z NIL=,
20180106_210000.003,0,RJCT,,,,0,20180106210000,-1,-1,-1,-1,-1,-1,-1,-1,-1,-1,-1,,-1,0,0,0,,0,-1,0,-1,-1,RJCT 062100Z NIL=,
20180106_220000.003,0,RJCT,,,,0,20180106220000,-1,-1,-1,-1,-1,-1,-1,-1,-1,-1,-1,,-1,0,0,0,,0,-1,0,-1,-1,RJCT 062200Z NIL=,
20180106_230000.003,0,RJCT,,,,0,20180106230000,-1,-1,-1,-1,-1,-1,-1,-1,-1,-1,-1,,-1,0,0,0,,0,-1,0,-1,-1,RJCT 062300Z NIL=,
20180107_000000.003,0,RJCT,,,,0,20180107000000,-1,-1,-1,-1,-1,-1,-1,-1,-1,-1,-1,,-1,0,0,0,,0,-1,0,-1,-1,RJCT 070000Z NIL=,
20180107_010000.004,0,RJCT,,,,0,20180107010000,-1,-1,-1,-1,-1,-1,-1,-1,-1,-1,-1,,-1,0,0,0,,0,-1,0,-1,-1,RJCT 070100Z NIL=,
20180107_020000.003,0,RJCT,,,,0,20180107020000,-1,-1,-1,-1,-1,-1,-1,-1,-1,-1,-1,,-1,0,0,0,,0,-1,0,-1,-1,RJCT 070200Z NIL=,
20180107_030000.003,0,RJCT,,,,0,20180107030000,-1,-1,-1,-1,-1,-1,-1,-1,-1,-1,-1,,-1,0,0,0,,0,-1,0,-1,-1,RJCT 070300Z NIL=,
20180107_040000.003,0,RJCT,,,,0,20180107040000,-1,-1,-1,-1,-1,-1,-1,-1,-1,-1,-1,,-1,0,0,0,,0,-1,0,-1,-1,RJCT 070400Z NIL=,
20180107_050000.003,0,RJCT,,,,0,20180107050000,-1,-1,-1,-1,-1,-1,-1,-1,-1,-1,-1,,-1,0,0,0,,0,-1,0,-1,-1,RJCT 070500Z NIL=,
20180107_060000.003,0,RJCT,,,,0,20180107060000,-1,-1,-1,-1,-1,-1,-1,-1,-1,-1,-1,,-1,0,0,0,,0,-1,0,-1,-1,RJCT 070600Z NIL=,
20180107_070000.003,0,RJCT,,,,0,20180107070000,-1,-1,-1,-1,-1,-1,-1,-1,-1,-1,-1,,-1,0,0,0,,0,-1,0,-1,-1,RJCT 070700Z NIL=,
20180107_080000.003,0,RJCT,,,,0,20180107080000,-1,-1,-1,-1,-1,-1,-1,-1,-1,-1,-1,,-1,0,0,0,,0,-1,0,-1,-1,RJCT 070800Z NIL=,
20180107_090000.003,0,RJCT,,,,0,20180107090000,-1,-1,-1,-1,-1,-1,-1,-1,-1,-1,-1,,-1,0,0,0,,0,-1,0,-1,-1,RJCT 070900Z NIL=,
20180107_100000.003,0,RJCT,,,,0,20180107100000,-1,-1,-1,-1,-1,-1,-1,-1,-1,-1,-1,,-1,0,0,0,,0,-1,0,-1,-1,RJCT 071000Z NIL=,
20180107_110000.003,0,RJCT,,,,0,20180107110000,-1,-1,-1,-1,-1,-1,-1,-1,-1,-1,-1,,-1,0,0,0,,0,-1,0,-1,-1,RJCT 071100Z NIL=,
20180107_120000.004,0,RJCT,,,,0,20180107120000,-1,-1,-1,-1,-1,-1,-1,-1,-1,-1,-1,,-1,0,0,0,,0,-1,0,-1,-1,RJCT 071200Z NIL=,
20180107_130000.004,0,RJCT,,,,0,20180107130000,-1,-1,-1,-1,-1,-1,-1,-1,-1,-1,-1,,-1,0,0,0,,0,-1,0,-1,-1,RJCT 071300Z NIL=,
20180107_140000.004,0,RJCT,,,,0,20180107140000,-1,-1,-1,-1,-1,-1,-1,-1,-1,-1,-1,,-1,0,0,0,,0,-1,0,-1,-1,RJCT 071400Z NIL=,
20180107_150000.003,0,RJCT,,,,0,20180107150000,-1,-1,-1,-1,-1,-1,-1,-1,-1,-1,-1,,-1,0,0,0,,0,-1,0,-1,-1,RJCT 071500Z NIL=,
20180107_160000.003,0,RJCT,,,,0,20180107160000,-1,-1,-1,-1,-1,-1,-1,-1,-1,-1,-1,,-1,0,0,0,,0,-1,0,-1,-1,RJCT 071600Z NIL=,
20180107_170000.003,0,RJCT,,,,0,20180107170000,-1,-1,-1,-1,-1,-1,-1,-1,-1,-1,-1,,-1,0,0,0,,0,-1,0,-1,-1,RJCT 071700Z NIL=,
20180107_180000.003,0,RJCT,,,,0,20180107180000,-1,-1,-1,-1,-1,-1,-1,-1,-1,-1,-1,,-1,0,0,0,,0,-1,0,-1,-1,RJCT 071800Z NIL=,
20180107_190000.004,0,RJCT,,,,0,20180107190000,-1,-1,-1,-1,-1,-1,-1,-1,-1,-1,-1,,-1,0,0,0,,0,-1,0,-1,-1,RJCT 071900Z NIL=,
20180107_200000.003,0,RJCT,,,,0,20180107200000,-1,-1,-1,-1,-1,-1,-1,-1,-1,-1,-1,,-1,0,0,0,,0,-1,0,-1,-1,RJCT 072000Z NIL=,
20180107_210000.004,0,RJCT,,,,0,20180107210000,-1,-1,-1,-1,-1,-1,-1,-1,-1,-1,-1,,-1,0,0,0,,0,-1,0,-1,-1,RJCT 072100Z NIL=,
20180107_220000.003,0,RJCT,,,,0,20180107220000,-1,-1,-1,-1,-1,-1,-1,-1,-1,-1,-1,,-1,0,0,0,,0,-1,0,-1,-1,RJCT 072200Z NIL=,
20180107_230000.003,0,RJCT,,,,0,20180107230000,-1,-1,-1,-1,-1,-1,-1,-1,-1,-1,-1,,-1,0,0,0,,0,-1,0,-1,-1,RJCT 072300Z NIL=,
20180108_000000.003,0,RJCT,,,,0,20180108000000,-1,-1,-1,-1,-1,-1,-1,-1,-1,-1,-1,,-1,0,0,0,,0,-1,0,-1,-1,RJCT 080000Z NIL=,
20180108_010000.003,0,RJCT,,,,0,20180108010000,-1,-1,-1,-1,-1,-1,-1,-1,-1,-1,-1,,-1,0,0,0,,0,-1,0,-1,-1,RJCT 080100Z NIL=,
20180108_020000.004,0,RJCT,,,,0,20180108020000,-1,-1,-1,-1,-1,-1,-1,-1,-1,-1,-1,,-1,0,0,0,,0,-1,0,-1,-1,RJCT 080200Z NIL=,
20180108_030000.003,0,RJCT,,,,0,20180108030000,-1,-1,-1,-1,-1,-1,-1,-1,-1,-1,-1,,-1,0,0,0,,0,-1,0,-1,-1,RJCT 080300Z NIL=,
20180108_040000.003,0,RJCT,,,,0,20180108040000,-1,-1,-1,-1,-1,-1,-1,-1,-1,-1,-1,,-1,0,0,0,,0,-1,0,-1,-1,RJCT 080400Z NIL=,
20180108_050000.003,0,RJCT,,,,0,20180108050000,-1,-1,-1,-1,-1,-1,-1,-1,-1,-1,-1,,-1,0,0,0,,0,-1,0,-1,-1,RJCT 080500Z NIL=,
20180108_060000.004,0,RJCT,,,,0,20180108060000,-1,-1,-1,-1,-1,-1,-1,-1,-1,-1,-1,,-1,0,0,0,,0,-1,0,-1,-1,RJCT 080600Z NIL=,
20180108_070000.003,0,RJCT,,,,0,20180108070000,-1,-1,-1,-1,-1,-1,-1,-1,-1,-1,-1,,-1,0,0,0,,0,-1,0,-1,-1,RJCT 080700Z NIL=,
20180108_080000.003,0,RJCT,,,,0,20180108080000,-1,-1,-1,-1,-1,-1,-1,-1,-1,-1,-1,,-1,0,0,0,,0,-1,0,-1,-1,RJCT 080800Z NIL=,
20180108_090000.003,0,RJCT,,,,0,20180108090000,-1,-1,-1,-1,-1,-1,-1,-1,-1,-1,-1,,-1,0,0,0,,0,-1,0,-1,-1,RJCT 080900Z NIL=,
20180108_100000.003,0,RJCT,,,,0,20180108100000,-1,-1,-1,-1,-1,-1,-1,-1,-1,-1,-1,,-1,0,0,0,,0,-1,0,-1,-1,RJCT 081000Z NIL=,
20180108_110000.003,0,RJCT,,,,0,20180108110000,-1,-1,-1,-1,-1,-1,-1,-1,-1,-1,-1,,-1,0,0,0,,0,-1,0,-1,-1,RJCT 081100Z NIL=,
20180108_120000.003,0,RJCT,,,,0,20180108120000,-1,-1,-1,-1,-1,-1,-1,-1,-1,-1,-1,,-1,0,0,0,,0,-1,0,-1,-1,RJCT 081200Z NIL=,
20180108_130000.004,0,RJCT,,,,0,20180108130000,-1,-1,-1,-1,-1,-1,-1,-1,-1,-1,-1,,-1,0,0,0,,0,-1,0,-1,-1,RJCT 081300Z NIL=,
20180108_140000.003,0,RJCT,,,,0,20180108140000,-1,-1,-1,-1,-1,-1,-1,-1,-1,-1,-1,,-1,0,0,0,,0,-1,0,-1,-1,RJCT 081400Z NIL=,
20180108_150000.003,0,RJCT,,,,0,20180108150000,-1,-1,-1,-1,-1,-1,-1,-1,-1,-1,-1,,-1,0,0,0,,0,-1,0,-1,-1,RJCT 081500Z NIL=,
20180108_160000.003,0,RJCT,,,,0,20180108160000,-1,-1,-1,-1,-1,-1,-1,-1,-1,-1,-1,,-1,0,0,0,,0,-1,0,-1,-1,RJCT 081600Z NIL=,
20180108_170000.003,0,RJCT,,,,0,20180108170000,-1,-1,-1,-1,-1,-1,-1,-1,-1,-1,-1,,-1,0,0,0,,0,-1,0,-1,-1,RJCT 081700Z NIL=,
20180108_180000.003,0,RJCT,,,,0,20180108180000,-1,-1,-1,-1,-1,-1,-1,-1,-1,-1,-1,,-1,0,0,0,,0,-1,0,-1,-1,RJCT 081800Z NIL=,
20180108_190000.003,0,RJCT,,,,0,20180108190000,-1,-1,-1,-1,-1,-1,-1,-1,-1,-1,-1,,-1,0,0,0,,0,-1,0,-1,-1,RJCT 081900Z NIL=,
20180108_200000.003,0,RJCT,,,,0,20180108200000,-1,-1,-1,-1,-1,-1,-1,-1,-1,-1,-1,,-1,0,0,0,,0,-1,0,-1,-1,RJCT 082000Z NIL=,
20180108_210000.004,0,RJCT,,,,0,20180108210000,-1,-1,-1,-1,-1,-1,-1,-1,-1,-1,-1,,-1,0,0,0,,0,-1,0,-1,-1,RJCT 082100Z NIL=,
20180108_220000.003,0,RJCT,,,,0,20180108220000,-1,-1,-1,-1,999,-1,2,-1,-1,-1,-1,,2000,0,1,3,FEW 5   BKN 8   BKN 15,-1,4,-1,4,991,RJCT 082200Z VRB02KT 2000 -SHSN FEW005 BKN008 BKN015 M04/M04     Q0991 RMK 1ST005 5ST008 7ST015 A2927=,- SN SH
20180108_230000.004,0,RJCT,,,,0,20180108230000,-1,-1,-1,-1,260,-1,3,-1,-1,-1,-1,,1000,0,1,3,FEW 3   BKN 8   BKN 10,-1,3,-1,3,989,RJCT 082300Z 26003KT 1000 -SHSN FEW003 BKN008 BKN010 M03/M03     Q0989 RMK 1ST003 5ST008 7ST010 A2922=,- SN SH
20180109_000000.003,0,RJCT,,,,0,20180109000000,-1,-1,-1,-1,270,-1,3,-1,-1,-1,-1,,1000,0,1,3,FEW 3   BKN 8   BKN 10,-1,2,-1,2,987,RJCT 090000Z 27003KT 1000 -SHSN FEW003 BKN008 BKN010 M02/M02     Q0987 RMK 1ST003 5ST008 7ST010 A2917=,- SN SH
20180109_010000.003,0,RJCT,,,,0,20180109010000,-1,-1,-1,-1,0,-1,0,-1,-1,-1,-1,,1000,0,1,3,FEW 3   BKN 8   BKN 10,-1,1,-1,2,985,RJCT 090100Z 00000KT 1000 -SHSN FEW003 BKN008 BKN010 M01/M02     Q0985 RMK 1ST003 5ST008 7ST010 A2910 P/FR=,- SN SH
20180109_020000.003,0,RJCT,,,,0,20180109020000,-1,-1,-1,-1,270,-1,3,-1,-1,-1,-1,,3000,0,1,3,FEW 5   BKN 10   BKN 15,-1,1,-1,2,983,RJCT 090200Z 27003KT 3000 -SHRASN FEW005 BKN010 BKN015 M01/M02     Q0983 RMK 1ST005 5ST010 7ST015 A2903=,- RA SN SH
20180109_030000.003,0,RJCT,,,,0,20180109030000,-1,-1,-1,-1,280,-1,4,-1,-1,-1,-1,,3000,0,1,3,FEW 5   BKN 10   BKN 15,1,0,-1,1,980,RJCT 090300Z 28004KT 3000 -SHRASN FEW005 BKN010 BKN015 00/M01     Q0980 RMK 1ST005 5ST010 7ST015 A2896=,- RA SN SH
20180109_040000.003,0,RJCT,,,,0,20180109040000,-1,-1,-1,-1,260,-1,4,-1,-1,-1,-1,,8000,0,1,3,FEW 5   BKN 10   BKN 30,1,1,-1,0,979,RJCT 090400Z 26004KT 8000 -SHRASN FEW005 BKN010 BKN030 01/M00     Q0979 RMK 1ST005 5ST010 7CU030 A2891=,- RA SN SH
20180109_050000.003,0,RJCT,,,,0,20180109050000,-1,-1,-1,-1,999,-1,2,-1,-1,-1,-1,,9999,0,0,2,FEW 20   SCT 40,1,2,-1,0,978,RJCT 090500Z VRB02KT 9999 FEW020 SCT040 02/M00 Q0978 RMK     2CU020 4CU040 A2890=,
20180109_060000.003,0,RJCT,,,,0,20180109060000,-1,-1,-1,-1,120,-1,4,-1,-1,-1,-1,,9999,0,0,1,FEW 40,1,2,1,0,978,RJCT 090600Z 12004KT 9999 FEW040 02/00 Q0978 RMK 2CU040 A2890=,
20180109_070000.003,0,RJCT,,,,0,20180109070000,-1,-1,-1,-1,150,-1,6,-1,-1,-1,-1,,9999,0,0,1,FEW 40,1,2,1,0,978,RJCT 090700Z 15006KT 9999 FEW040 02/00 Q0978 RMK 2CU040 A2888=,
20180109_080000.003,0,RJCT,,,,0,20180109080000,-1,-1,-1,-1,90,-1,4,-1,-1,-1,-1,,9999,0,0,2,FEW 30   SCT 40,1,2,-1,2,979,RJCT 090800Z 09004KT 9999 FEW030 SCT040 02/M02 Q0979 RMK     1CU030 3CU040 A2892=,
20180109_090000.003,0,RJCT,,,,0,20180109090000,-1,-1,-1,-1,-1,-1,-1,-1,-1,-1,-1,,-1,0,0,0,,0,-1,0,-1,-1,RJCT 090900Z NIL=,
20180109_100000.003,0,RJCT,,,,0,20180109100000,-1,-1,-1,-1,-1,-1,-1,-1,-1,-1,-1,,-1,0,0,0,,0,-1,0,-1,-1,RJCT 091000Z NIL=,
20180109_110000.003,0,RJCT,,,,0,20180109110000,-1,-1,-1,-1,-1,-1,-1,-1,-1,-1,-1,,-1,0,0,0,,0,-1,0,-1,-1,RJCT 091100Z NIL=,
20180109_120000.003,0,RJCT,,,,0,20180109120000,-1,-1,-1,-1,-1,-1,-1,-1,-1,-1,-1,,-1,0,0,0,,0,-1,0,-1,-1,RJCT 091200Z NIL=,
20180109_130000.003,0,RJCT,,,,0,20180109130000,-1,-1,-1,-1,-1,-1,-1,-1,-1,-1,-1,,-1,0,0,0,,0,-1,0,-1,-1,RJCT 091300Z NIL=,
20180109_140000.003,0,RJCT,,,,0,20180109140000,-1,-1,-1,-1,-1,-1,-1,-1,-1,-1,-1,,-1,0,0,0,,0,-1,0,-1,-1,RJCT 091400Z NIL=,
20180109_150000.003,0,RJCT,,,,0,20180109150000,-1,-1,-1,-1,-1,-1,-1,-1,-1,-1,-1,,-1,0,0,0,,0,-1,0,-1,-1,RJCT 091500Z NIL=,
20180109_160000.003,0,RJCT,,,,0,20180109160000,-1,-1,-1,-1,-1,-1,-1,-1,-1,-1,-1,,-1,0,0,0,,0,-1,0,-1,-1,RJCT 091600Z NIL=,
20180109_170000.003,0,RJCT,,,,0,20180109170000,-1,-1,-1,-1,-1,-1,-1,-1,-1,-1,-1,,-1,0,0,0,,0,-1,0,-1,-1,RJCT 091700Z NIL=,
20180109_180000.003,0,RJCT,,,,0,20180109180000,-1,-1,-1,-1,-1,-1,-1,-1,-1,-1,-1,,-1,0,0,0,,0,-1,0,-1,-1,RJCT 091800Z NIL=,
20180109_190000.004,0,RJCT,,,,0,20180109190000,-1,-1,-1,-1,-1,-1,-1,-1,-1,-1,-1,,-1,0,0,0,,0,-1,0,-1,-1,RJCT 091900Z NIL=,
20180109_200000.003,0,RJCT,,,,0,20180109200000,-1,-1,-1,-1,-1,-1,-1,-1,-1,-1,-1,,-1,0,0,0,,0,-1,0,-1,-1,RJCT 092000Z NIL=,
20180109_210000.003,0,RJCT,,,,0,20180109210000,-1,-1,-1,-1,-1,-1,-1,-1,-1,-1,-1,,-1,0,0,0,,0,-1,0,-1,-1,RJCT 092100Z NIL=,
20180109_220000.003,0,RJCT,,,,0,20180109220000,-1,-1,-1,-1,270,-1,10,-1,-1,-1,-1,,9999,0,0,1,FEW 40,-1,1,-1,11,988,RJCT 092200Z 27010KT 9999 FEW040 M01/M11 Q0988 RMK 2CU040     A2917 MAX WIND 19KT=,
20180109_230000.003,0,RJCT,,,,0,20180109230000,-1,-1,-1,-1,170,-1,6,-1,-1,-1,-1,,9999,0,0,1,FEW 40,-1,1,-1,11,990,RJCT 092300Z 17006KT 9999 FEW040 M01/M11 Q0990 RMK 1CU040     A2924=,
20180110_000000.003,0,RJCT,,,,0,20180110000000,-1,-1,-1,-1,300,-1,7,-1,-1,-1,-1,,9999,0,0,1,FEW 40,1,0,-1,11,992,RJCT 100000Z 30007KT 9999 FEW040 00/M11 Q0992 RMK 1CU040     A2930=,
20180110_010000.003,0,RJCT,,,,0,20180110010000,-1,-1,-1,-1,280,-1,11,-1,-1,-1,-1,,9999,0,0,1,SCT 40,1,1,-1,10,993,RJCT 100100Z 28011KT 9999 SCT040 01/M10 Q0993 RMK 3CU040     A2932=,
20180110_020000.003,0,RJCT,,,,0,20180110020000,-1,-1,-1,-1,270,-1,9,-1,-1,-1,-1,,9999,0,0,2,FEW 30   SCT 40,1,2,-1,10,993,RJCT 100200Z 27009KT 9999 FEW030 SCT040 02/M10 Q0993 RMK     1CU030 3CU040 A2933=,
20180110_030000.003,0,RJCT,,,,0,20180110030000,-1,-1,-1,-1,290,-1,7,-1,-1,-1,-1,,9999,0,0,1,FEW 40,1,2,-1,11,993,RJCT 100300Z 29007KT 9999 FEW040 02/M11 Q0993 RMK 2CU040     A2935=,
20180110_040000.004,0,RJCT,,,,0,20180110040000,-1,-1,-1,-1,280,-1,9,-1,-1,-1,-1,,9999,0,0,1,FEW 40,1,2,-1,12,994,RJCT 100400Z 28009KT 9999 FEW040 02/M12 Q0994 RMK 1CU040     A2936=,
20180110_050000.003,0,RJCT,,,,0,20180110050000,-1,-1,-1,-1,999,-1,2,-1,-1,-1,-1,,9999,0,0,1,FEW 40,1,2,-1,11,995,RJCT 100500Z VRB02KT 9999 FEW040 02/M11 Q0995 RMK 1CU040     A2939=,
20180110_060000.003,0,RJCT,,,,0,20180110060000,-1,-1,-1,-1,300,-1,6,-1,-1,-1,-1,,9999,0,0,1,FEW 30,1,1,-1,16,996,RJCT 100600Z 30006KT 9999 FEW030 01/M16 Q0996 RMK 1CU030     A2942=,
20180110_070000.003,0,RJCT,,,,0,20180110070000,-1,-1,-1,-1,290,-1,7,-1,-1,-1,-1,,9999,0,0,1,FEW 30,-1,1,-1,15,997,RJCT 100700Z 29007KT 9999 FEW030 M01/M15 Q0997 RMK 1CU030     A2946=,
20180110_080000.003,0,RJCT,,,,0,20180110080000,-1,-1,-1,-1,300,-1,3,-1,-1,-1,-1,,9999,0,0,1,FEW 40,-1,3,-1,13,998,RJCT 100800Z 30003KT 9999 FEW040 M03/M13 Q0998 RMK 1CU040     A2949=,
20180110_090000.003,0,RJCT,,,,0,20180110090000,-1,-1,-1,-1,-1,-1,-1,-1,-1,-1,-1,,-1,0,0,0,,0,-1,0,-1,-1,RJCT 100900Z NIL=,
20180110_100000.003,0,RJCT,,,,0,20180110100000,-1,-1,-1,-1,-1,-1,-1,-1,-1,-1,-1,,-1,0,0,0,,0,-1,0,-1,-1,RJCT 101000Z NIL=,
20180110_110000.003,0,RJCT,,,,0,20180110110000,-1,-1,-1,-1,-1,-1,-1,-1,-1,-1,-1,,-1,0,0,0,,0,-1,0,-1,-1,RJCT 101100Z NIL=,
20180110_120000.003,0,RJCT,,,,0,20180110120000,-1,-1,-1,-1,-1,-1,-1,-1,-1,-1,-1,,-1,0,0,0,,0,-1,0,-1,-1,RJCT 101200Z NIL=,
20180110_130000.003,0,RJCT,,,,0,20180110130000,-1,-1,-1,-1,-1,-1,-1,-1,-1,-1,-1,,-1,0,0,0,,0,-1,0,-1,-1,RJCT 101300Z NIL=,
20180110_140000.003,0,RJCT,,,,0,20180110140000,-1,-1,-1,-1,-1,-1,-1,-1,-1,-1,-1,,-1,0,0,0,,0,-1,0,-1,-1,RJCT 101400Z NIL=,
20180110_150000.003,0,RJCT,,,,0,20180110150000,-1,-1,-1,-1,-1,-1,-1,-1,-1,-1,-1,,-1,0,0,0,,0,-1,0,-1,-1,RJCT 101500Z NIL=,
20180110_160000.003,0,RJCT,,,,0,20180110160000,-1,-1,-1,-1,-1,-1,-1,-1,-1,-1,-1,,-1,0,0,0,,0,-1,0,-1,-1,RJCT 101600Z NIL=,
20180110_170000.003,0,RJCT,,,,0,20180110170000,-1,-1,-1,-1,-1,-1,-1,-1,-1,-1,-1,,-1,0,0,0,,0,-1,0,-1,-1,RJCT 101700Z NIL=,
20180110_180000.003,0,RJCT,,,,0,20180110180000,-1,-1,-1,-1,-1,-1,-1,-1,-1,-1,-1,,-1,0,0,0,,0,-1,0,-1,-1,RJCT 101800Z NIL=,
20180110_190000.003,0,RJCT,,,,0,20180110190000,-1,-1,-1,-1,-1,-1,-1,-1,-1,-1,-1,,-1,0,0,0,,0,-1,0,-1,-1,RJCT 101900Z NIL=,
20180110_200000.003,0,RJCT,,,,0,20180110200000,-1,-1,-1,-1,-1,-1,-1,-1,-1,-1,-1,,-1,0,0,0,,0,-1,0,-1,-1,RJCT 102000Z NIL=,
20180110_210000.003,0,RJCT,,,,0,20180110210000,-1,-1,-1,-1,-1,-1,-1,-1,-1,-1,-1,,-1,0,0,0,,0,-1,0,-1,-1,RJCT 102100Z NIL=,
20180110_220000.003,0,RJCT,,,,0,20180110220000,-1,-1,-1,-1,200,-1,3,-1,-1,-1,-1,,9999,0,0,1,FEW 30,-1,15,-1,18,1006,RJCT 102200Z 20003KT 9999 FEW030 M15/M18 Q1006 RMK 1CU030     A2971=,
20180110_230000.004,0,RJCT,,,,0,20180110230000,-1,-1,-1,-1,999,-1,3,-1,-1,-1,-1,,9999,0,0,1,FEW 30,-1,14,-1,17,1007,RJCT 102300Z VRB03KT 9999 FEW030 M14/M17 Q1007 RMK 1CU030     A2974=,
20180111_000000.003,0,RJCT,,,,0,20180111000000,-1,-1,-1,-1,999,-1,2,-1,-1,-1,-1,,9999,0,0,1,FEW 30,-1,12,-1,16,1007,RJCT 110000Z VRB02KT 9999 FEW030 M12/M16 Q1007 RMK 2CU030     A2975=,
20180111_010000.003,0,RJCT,,,,0,20180111010000,-1,-1,-1,-1,999,-1,1,-1,-1,-1,-1,,9999,0,0,1,FEW 30,-1,7,-1,15,1007,RJCT 110100Z VRB01KT 9999 FEW030 M07/M15 Q1007 RMK 2CU030     A2975=,
20180111_020000.003,0,RJCT,,,,0,20180111020000,-1,-1,-1,-1,999,-1,1,-1,-1,-1,-1,,9999,0,0,2,FEW 40   BKN 70,-1,4,-1,14,1007,RJCT 110200Z VRB01KT 9999 FEW040 BKN070 M04/M14 Q1007 RMK     1CU040 5AC070 A2975=,
20180111_030000.002,0,RJCT,,,,0,20180111030000,-1,-1,-1,-1,999,-1,1,-1,-1,-1,-1,,9999,0,0,1,FEW 40,-1,3,-1,13,1006,RJCT 110300Z VRB01KT 9999 FEW040 M03/M13 Q1006 RMK 1CU040     A2973=,
20180111_040000.003,0,RJCT,,,,0,20180111040000,-1,-1,-1,-1,999,-1,2,-1,-1,-1,-1,,9999,0,0,2,FEW 40   BKN 70,-1,3,-1,13,1006,RJCT 110400Z VRB02KT 9999 FEW040 BKN070 M03/M13 Q1006 RMK     1CU040 5AC070 A2972=,
20180111_050000.003,0,RJCT,,,,0,20180111050000,-1,-1,-1,-1,170,-1,5,-1,-1,-1,-1,,9999,0,0,2,FEW 40   BKN 80,-1,3,-1,12,1006,RJCT 110500Z 17005KT 9999 FEW040 BKN080 M03/M12 Q1006 RMK     1CU040 6AC080 A2972=,
20180111_060000.003,0,RJCT,,,,0,20180111060000,-1,-1,-1,-1,190,-1,4,-1,-1,-1,-1,,9999,0,0,2,FEW 40   BKN 60,-1,3,-1,12,1006,RJCT 110600Z 19004KT 9999 FEW040 BKN060 M03/M12 Q1006 RMK     1CU040 6CU060 A2973=,
20180111_070000.003,0,RJCT,,,,0,20180111070000,-1,-1,-1,-1,240,-1,4,-1,-1,-1,-1,,9999,0,0,3,FEW 40   SCT 60   BKN 80,-1,4,-1,11,1007,RJCT 110700Z 24004KT 9999 FEW040 SCT060 BKN080 M04/M11 Q1007     RMK 1CU040 3CU060 7AC080 A2975=,
20180111_080000.003,0,RJCT,,,,0,20180111080000,-1,-1,-1,-1,240,-1,3,-1,-1,-1,-1,,9999,0,0,2,FEW 40   BKN 70,-1,5,-1,11,1008,RJCT 110800Z 24003KT 9999 FEW040 BKN070 M05/M11 Q1008 RMK     2CU040 5AC070 A2976=,
20180111_090000.003,0,RJCT,,,,0,20180111090000,-1,-1,-1,-1,-1,-1,-1,-1,-1,-1,-1,,-1,0,0,0,,0,-1,0,-1,-1,RJCT 110900Z NIL=,
20180111_100000.003,0,RJCT,,,,0,20180111100000,-1,-1,-1,-1,-1,-1,-1,-1,-1,-1,-1,,-1,0,0,0,,0,-1,0,-1,-1,RJCT 111000Z NIL=,
20180111_110000.003,0,RJCT,,,,0,20180111110000,-1,-1,-1,-1,-1,-1,-1,-1,-1,-1,-1,,-1,0,0,0,,0,-1,0,-1,-1,RJCT 111100Z NIL=,
20180111_120000.003,0,RJCT,,,,0,20180111120000,-1,-1,-1,-1,-1,-1,-1,-1,-1,-1,-1,,-1,0,0,0,,0,-1,0,-1,-1,RJCT 111200Z NIL=,
20180111_130000.003,0,RJCT,,,,0,20180111130000,-1,-1,-1,-1,-1,-1,-1,-1,-1,-1,-1,,-1,0,0,0,,0,-1,0,-1,-1,RJCT 111300Z NIL=,
20180111_140000.003,0,RJCT,,,,0,20180111140000,-1,-1,-1,-1,-1,-1,-1,-1,-1,-1,-1,,-1,0,0,0,,0,-1,0,-1,-1,RJCT 111400Z NIL=,
20180111_150000.003,0,RJCT,,,,0,20180111150000,-1,-1,-1,-1,-1,-1,-1,-1,-1,-1,-1,,-1,0,0,0,,0,-1,0,-1,-1,RJCT 111500Z NIL=,
20180111_160000.003,0,RJCT,,,,0,20180111160000,-1,-1,-1,-1,-1,-1,-1,-1,-1,-1,-1,,-1,0,0,0,,0,-1,0,-1,-1,RJCT 111600Z NIL=,
20180111_170000.003,0,RJCT,,,,0,20180111170000,-1,-1,-1,-1,-1,-1,-1,-1,-1,-1,-1,,-1,0,0,0,,0,-1,0,-1,-1,RJCT 111700Z NIL=,
20180111_180000.003,0,RJCT,,,,0,20180111180000,-1,-1,-1,-1,-1,-1,-1,-1,-1,-1,-1,,-1,0,0,0,,0,-1,0,-1,-1,RJCT 111800Z NIL=,
20180111_190000.003,0,RJCT,,,,0,20180111190000,-1,-1,-1,-1,-1,-1,-1,-1,-1,-1,-1,,-1,0,0,0,,0,-1,0,-1,-1,RJCT 111900Z NIL=,
20180111_200000.003,0,RJCT,,,,0,20180111200000,-1,-1,-1,-1,-1,-1,-1,-1,-1,-1,-1,,-1,0,0,0,,0,-1,0,-1,-1,RJCT 112000Z NIL=,
20180111_210000.003,0,RJCT,,,,0,20180111210000,-1,-1,-1,-1,-1,-1,-1,-1,-1,-1,-1,,-1,0,0,0,,0,-1,0,-1,-1,RJCT 112100Z NIL=,
20180111_220000.004,0,RJCT,,,,0,20180111220000,-1,-1,-1,-1,280,-1,3,-1,-1,-1,-1,,2500,0,1,3,FEW 4   SCT 8   BKN 12,-1,12,-1,13,1010,RJCT 112200Z 28003KT 2500 -SHSN FEW004 SCT008 BKN012 M12/M13     Q1010 RMK 1ST004 4ST008 7ST012 A2984=,- SN SH
20180111_230000.003,0,RJCT,,,,0,20180111230000,-1,-1,-1,-1,270,-1,4,-1,-1,-1,-1,,1000,0,1,3,FEW 4   BKN 8   BKN 10,-1,10,-1,11,1011,RJCT 112300Z 27004KT 1000 -SHSN FEW004 BKN008 BKN010 M10/M11     Q1011 RMK 1ST004 5ST008 7ST010 A2987=,- SN SH
20180112_000000.003,0,RJCT,,,,0,20180112000000,-1,-1,-1,-1,280,-1,4,-1,-1,-1,-1,,4000,0,1,3,FEW 8   SCT 10   BKN 15,-1,7,-1,8,1012,RJCT 120000Z 28004KT 4000 -SHSN FEW008 SCT010 BKN015 M07/M08     Q1012 RMK 1ST008 4ST010 7ST015 A2989=,- SN SH
20180112_010000.004,0,RJCT,,,,0,20180112010000,-1,-1,-1,-1,290,-1,3,-1,-1,-1,-1,,2000,0,1,3,FEW 6   BKN 8   BKN 15,-1,6,-1,7,1012,RJCT 120100Z 29003KT 2000 -SHSN FEW006 BKN008 BKN015 M06/M07     Q1012 RMK 1ST006 5ST008 7ST015 A2990=,- SN SH
20180112_020000.003,0,RJCT,,,,0,20180112020000,-1,-1,-1,-1,240,-1,3,-1,-1,-1,-1,,9999,0,1,3,FEW 8   SCT 20   BKN 30,-1,4,-1,6,1012,RJCT 120200Z 24003KT 9999 -SHSN FEW008 SCT020 BKN030 M04/M06     Q1012 RMK 1ST008 4CU020 6CU030 A2990=,- SN SH
20180112_030000.003,0,RJCT,,,,0,20180112030000,-1,-1,-1,-1,999,-1,1,-1,-1,-1,-1,,9999,0,0,3,FEW 30   SCT 100   BKN 150,-1,3,-1,8,1012,RJCT 120300Z VRB01KT 9999 FEW030 SCT100 BKN150 M03/M08 Q1012     RMK 1CU030 3AC100 5AC150 A2989=,
20180112_040000.003,0,RJCT,,,,0,20180112040000,-1,-1,-1,-1,160,-1,4,-1,-1,-1,-1,,9999,0,0,2,FEW 40   BKN 150,-1,2,-1,7,1012,RJCT 120400Z 16004KT 9999 FEW040 BKN150 M02/M07 Q1012 RMK     2CU040 6AC150 A2989=,
20180112_050000.004,0,RJCT,,,,0,20180112050000,-1,-1,-1,-1,999,-1,2,-1,-1,-1,-1,,9999,0,0,2,FEW 40   BKN 150,-1,2,-1,8,1012,RJCT 120500Z VRB02KT 9999 FEW040 BKN150 M02/M08 Q1012 RMK     1CU040 5AC150 A2991=,
20180112_060000.003,0,RJCT,,,,0,20180112060000,-1,-1,-1,-1,999,-1,1,-1,-1,-1,-1,,9999,0,0,2,FEW 40   SCT 150,-1,3,-1,8,1013,RJCT 120600Z VRB01KT 9999 FEW040 SCT150 M03/M08 Q1013 RMK     1CU040 4AC150 A2992=,
20180112_070000.004,0,RJCT,,,,0,20180112070000,-1,-1,-1,-1,180,-1,3,-1,-1,-1,-1,,9999,0,0,1,FEW 40,-1,6,-1,9,1014,RJCT 120700Z 18003KT 9999 FEW040 M06/M09 Q1014 RMK 1CU040     A2995=,
20180112_080000.003,0,RJCT,,,,0,20180112080000,-1,-1,-1,-1,230,-1,1,-1,-1,-1,-1,,9999,0,0,1,FEW 40,-1,8,-1,10,1015,RJCT 120800Z 23001KT 9999 FEW040 M08/M10 Q1015 RMK 1CU040     A3000=,
20180112_090000.003,0,RJCT,,,,0,20180112090000,-1,-1,-1,-1,-1,-1,-1,-1,-1,-1,-1,,-1,0,0,0,,0,-1,0,-1,-1,RJCT 120900Z NIL=,
20180112_100000.003,0,RJCT,,,,0,20180112100000,-1,-1,-1,-1,0,-1,0,-1,-1,-1,-1,,9999,0,0,2,FEW 40   SCT 100,-1,13,-1,14,1016,RJCT 121000Z 00000KT 9999 FEW040 SCT100 M13/M14 Q1016 RMK     1CU040 3AC100 A3001=,
20180112_110000.003,0,RJCT,,,,0,20180112110000,-1,-1,-1,-1,170,-1,2,-1,-1,-1,-1,,9999,0,0,2,FEW 10   SCT 100,-1,14,-1,16,1017,RJCT 121100Z 17002KT 9999 FEW010 SCT100 M14/M16 Q1017 RMK     1ST010 3AC100 A3004=,
20180112_120000.003,0,RJCT,,,,0,20180112120000,-1,-1,-1,-1,-1,-1,-1,-1,-1,-1,-1,,-1,0,0,0,,0,-1,0,-1,-1,RJCT 121200Z NIL=,
20180112_130000.003,0,RJCT,,,,0,20180112130000,-1,-1,-1,-1,-1,-1,-1,-1,-1,-1,-1,,-1,0,0,0,,0,-1,0,-1,-1,RJCT 121300Z NIL=,
20180112_140000.003,0,RJCT,,,,0,20180112140000,-1,-1,-1,-1,-1,-1,-1,-1,-1,-1,-1,,-1,0,0,0,,0,-1,0,-1,-1,RJCT 121400Z NIL=,
20180112_150000.003,0,RJCT,,,,0,20180112150000,-1,-1,-1,-1,-1,-1,-1,-1,-1,-1,-1,,-1,0,0,0,,0,-1,0,-1,-1,RJCT 121500Z NIL=,
20180112_160000.003,0,RJCT,,,,0,20180112160000,-1,-1,-1,-1,-1,-1,-1,-1,-1,-1,-1,,-1,0,0,0,,0,-1,0,-1,-1,RJCT 121600Z NIL=,
20180112_170000.003,0,RJCT,,,,0,20180112170000,-1,-1,-1,-1,-1,-1,-1,-1,-1,-1,-1,,-1,0,0,0,,0,-1,0,-1,-1,RJCT 121700Z NIL=,
20180112_180000.003,0,RJCT,,,,0,20180112180000,-1,-1,-1,-1,-1,-1,-1,-1,-1,-1,-1,,-1,0,0,0,,0,-1,0,-1,-1,RJCT 121800Z NIL=,
20180112_190000.003,0,RJCT,,,,0,20180112190000,-1,-1,-1,-1,-1,-1,-1,-1,-1,-1,-1,,-1,0,0,0,,0,-1,0,-1,-1,RJCT 121900Z NIL=,
20180112_200000.004,0,RJCT,,,,0,20180112200000,-1,-1,-1,-1,-1,-1,-1,-1,-1,-1,-1,,-1,0,0,0,,0,-1,0,-1,-1,RJCT 122000Z NIL=,
20180112_210000.003,0,RJCT,,,,0,20180112210000,-1,-1,-1,-1,-1,-1,-1,-1,-1,-1,-1,,-1,0,0,0,,0,-1,0,-1,-1,RJCT 122100Z NIL=,
20180112_220000.003,0,RJCT,,,,0,20180112220000,-1,-1,-1,-1,-1,-1,-1,-1,-1,-1,-1,,-1,0,0,0,,0,-1,0,-1,-1,RJCT 122200Z NIL=,
20180112_230000.003,0,RJCT,,,,0,20180112230000,-1,-1,-1,-1,-1,-1,-1,-1,-1,-1,-1,,-1,0,0,0,,0,-1,0,-1,-1,RJCT 122300Z NIL=,
20180113_000000.003,0,RJCT,,,,0,20180113000000,-1,-1,-1,-1,-1,-1,-1,-1,-1,-1,-1,,-1,0,0,0,,0,-1,0,-1,-1,RJCT 130000Z NIL=,
20180113_010000.004,0,RJCT,,,,0,20180113010000,-1,-1,-1,-1,-1,-1,-1,-1,-1,-1,-1,,-1,0,0,0,,0,-1,0,-1,-1,RJCT 130100Z NIL=,
20180113_020000.003,0,RJCT,,,,0,20180113020000,-1,-1,-1,-1,-1,-1,-1,-1,-1,-1,-1,,-1,0,0,0,,0,-1,0,-1,-1,RJCT 130200Z NIL=,
20180113_030000.003,0,RJCT,,,,0,20180113030000,-1,-1,-1,-1,-1,-1,-1,-1,-1,-1,-1,,-1,0,0,0,,0,-1,0,-1,-1,RJCT 130300Z NIL=,
20180113_040000.003,0,RJCT,,,,0,20180113040000,-1,-1,-1,-1,-1,-1,-1,-1,-1,-1,-1,,-1,0,0,0,,0,-1,0,-1,-1,RJCT 130400Z NIL=,
20180113_050000.003,0,RJCT,,,,0,20180113050000,-1,-1,-1,-1,-1,-1,-1,-1,-1,-1,-1,,-1,0,0,0,,0,-1,0,-1,-1,RJCT 130500Z NIL=,
20180113_060000.003,0,RJCT,,,,0,20180113060000,-1,-1,-1,-1,-1,-1,-1,-1,-1,-1,-1,,-1,0,0,0,,0,-1,0,-1,-1,RJCT 130600Z NIL=,
20180113_070000.003,0,RJCT,,,,0,20180113070000,-1,-1,-1,-1,-1,-1,-1,-1,-1,-1,-1,,-1,0,0,0,,0,-1,0,-1,-1,RJCT 130700Z NIL=,
20180113_080000.003,0,RJCT,,,,0,20180113080000,-1,-1,-1,-1,-1,-1,-1,-1,-1,-1,-1,,-1,0,0,0,,0,-1,0,-1,-1,RJCT 130800Z NIL=,
20180113_090000.003,0,RJCT,,,,0,20180113090000,-1,-1,-1,-1,-1,-1,-1,-1,-1,-1,-1,,-1,0,0,0,,0,-1,0,-1,-1,RJCT 130900Z NIL=,
20180113_100000.003,0,RJCT,,,,0,20180113100000,-1,-1,-1,-1,-1,-1,-1,-1,-1,-1,-1,,-1,0,0,0,,0,-1,0,-1,-1,RJCT 131000Z NIL=,
20180113_110000.003,0,RJCT,,,,0,20180113110000,-1,-1,-1,-1,-1,-1,-1,-1,-1,-1,-1,,-1,0,0,0,,0,-1,0,-1,-1,RJCT 131100Z NIL=,
20180113_120000.003,0,RJCT,,,,0,20180113120000,-1,-1,-1,-1,-1,-1,-1,-1,-1,-1,-1,,-1,0,0,0,,0,-1,0,-1,-1,RJCT 131200Z NIL=,
20180113_130000.003,0,RJCT,,,,0,20180113130000,-1,-1,-1,-1,-1,-1,-1,-1,-1,-1,-1,,-1,0,0,0,,0,-1,0,-1,-1,RJCT 131300Z NIL=,
20180113_140000.004,0,RJCT,,,,0,20180113140000,-1,-1,-1,-1,-1,-1,-1,-1,-1,-1,-1,,-1,0,0,0,,0,-1,0,-1,-1,RJCT 131400Z NIL=,
20180113_150000.003,0,RJCT,,,,0,20180113150000,-1,-1,-1,-1,-1,-1,-1,-1,-1,-1,-1,,-1,0,0,0,,0,-1,0,-1,-1,RJCT 131500Z NIL=,
20180113_160000.003,0,RJCT,,,,0,20180113160000,-1,-1,-1,-1,-1,-1,-1,-1,-1,-1,-1,,-1,0,0,0,,0,-1,0,-1,-1,RJCT 131600Z NIL=,
20180113_170000.003,0,RJCT,,,,0,20180113170000,-1,-1,-1,-1,-1,-1,-1,-1,-1,-1,-1,,-1,0,0,0,,0,-1,0,-1,-1,RJCT 131700Z NIL=,
20180113_180000.003,0,RJCT,,,,0,20180113180000,-1,-1,-1,-1,-1,-1,-1,-1,-1,-1,-1,,-1,0,0,0,,0,-1,0,-1,-1,RJCT 131800Z NIL=,
20180113_190000.004,0,RJCT,,,,0,20180113190000,-1,-1,-1,-1,-1,-1,-1,-1,-1,-1,-1,,-1,0,0,0,,0,-1,0,-1,-1,RJCT 131900Z NIL=,
20180113_200000.004,0,RJCT,,,,0,20180113200000,-1,-1,-1,-1,-1,-1,-1,-1,-1,-1,-1,,-1,0,0,0,,0,-1,0,-1,-1,RJCT 132000Z NIL=,
20180113_210000.003,0,RJCT,,,,0,20180113210000,-1,-1,-1,-1,-1,-1,-1,-1,-1,-1,-1,,-1,0,0,0,,0,-1,0,-1,-1,RJCT 132100Z NIL=,
20180113_220000.003,0,RJCT,,,,0,20180113220000,-1,-1,-1,-1,-1,-1,-1,-1,-1,-1,-1,,-1,0,0,0,,0,-1,0,-1,-1,RJCT 132200Z NIL=,
20180113_230000.003,0,RJCT,,,,0,20180113230000,-1,-1,-1,-1,-1,-1,-1,-1,-1,-1,-1,,-1,0,0,0,,0,-1,0,-1,-1,RJCT 132300Z NIL=,
20180114_000000.004,0,RJCT,,,,0,20180114000000,-1,-1,-1,-1,-1,-1,-1,-1,-1,-1,-1,,-1,0,0,0,,0,-1,0,-1,-1,RJCT 140000Z NIL=,
20180114_010000.003,0,RJCT,,,,0,20180114010000,-1,-1,-1,-1,-1,-1,-1,-1,-1,-1,-1,,-1,0,0,0,,0,-1,0,-1,-1,RJCT 140100Z NIL=,
20180114_020000.003,0,RJCT,,,,0,20180114020000,-1,-1,-1,-1,-1,-1,-1,-1,-1,-1,-1,,-1,0,0,0,,0,-1,0,-1,-1,RJCT 140200Z NIL=,
20180114_030000.003,0,RJCT,,,,0,20180114030000,-1,-1,-1,-1,-1,-1,-1,-1,-1,-1,-1,,-1,0,0,0,,0,-1,0,-1,-1,RJCT 140300Z NIL=,
20180114_040000.003,0,RJCT,,,,0,20180114040000,-1,-1,-1,-1,-1,-1,-1,-1,-1,-1,-1,,-1,0,0,0,,0,-1,0,-1,-1,RJCT 140400Z NIL=,
20180114_050000.003,0,RJCT,,,,0,20180114050000,-1,-1,-1,-1,-1,-1,-1,-1,-1,-1,-1,,-1,0,0,0,,0,-1,0,-1,-1,RJCT 140500Z NIL=,
20180114_060000.004,0,RJCT,,,,0,20180114060000,-1,-1,-1,-1,-1,-1,-1,-1,-1,-1,-1,,-1,0,0,0,,0,-1,0,-1,-1,RJCT 140600Z NIL=,
20180114_070000.003,0,RJCT,,,,0,20180114070000,-1,-1,-1,-1,-1,-1,-1,-1,-1,-1,-1,,-1,0,0,0,,0,-1,0,-1,-1,RJCT 140700Z NIL=,
20180114_080000.003,0,RJCT,,,,0,20180114080000,-1,-1,-1,-1,-1,-1,-1,-1,-1,-1,-1,,-1,0,0,0,,0,-1,0,-1,-1,RJCT 140800Z NIL=,
20180114_090000.003,0,RJCT,,,,0,20180114090000,-1,-1,-1,-1,-1,-1,-1,-1,-1,-1,-1,,-1,0,0,0,,0,-1,0,-1,-1,RJCT 140900Z NIL=,
20180114_100000.003,0,RJCT,,,,0,20180114100000,-1,-1,-1,-1,-1,-1,-1,-1,-1,-1,-1,,-1,0,0,0,,0,-1,0,-1,-1,RJCT 141000Z NIL=,
20180114_110000.003,0,RJCT,,,,0,20180114110000,-1,-1,-1,-1,-1,-1,-1,-1,-1,-1,-1,,-1,0,0,0,,0,-1,0,-1,-1,RJCT 141100Z NIL=,
20180114_120000.003,0,RJCT,,,,0,20180114120000,-1,-1,-1,-1,-1,-1,-1,-1,-1,-1,-1,,-1,0,0,0,,0,-1,0,-1,-1,RJCT 141200Z NIL=,
20180114_130000.004,0,RJCT,,,,0,20180114130000,-1,-1,-1,-1,-1,-1,-1,-1,-1,-1,-1,,-1,0,0,0,,0,-1,0,-1,-1,RJCT 141300Z NIL=,
20180114_140000.003,0,RJCT,,,,0,20180114140000,-1,-1,-1,-1,-1,-1,-1,-1,-1,-1,-1,,-1,0,0,0,,0,-1,0,-1,-1,RJCT 141400Z NIL=,
20180114_150000.003,0,RJCT,,,,0,20180114150000,-1,-1,-1,-1,-1,-1,-1,-1,-1,-1,-1,,-1,0,0,0,,0,-1,0,-1,-1,RJCT 141500Z NIL=,
20180114_160000.003,0,RJCT,,,,0,20180114160000,-1,-1,-1,-1,-1,-1,-1,-1,-1,-1,-1,,-1,0,0,0,,0,-1,0,-1,-1,RJCT 141600Z NIL=,
20180114_170000.003,0,RJCT,,,,0,20180114170000,-1,-1,-1,-1,-1,-1,-1,-1,-1,-1,-1,,-1,0,0,0,,0,-1,0,-1,-1,RJCT 141700Z NIL=,
20180114_180000.004,0,RJCT,,,,0,20180114180000,-1,-1,-1,-1,-1,-1,-1,-1,-1,-1,-1,,-1,0,0,0,,0,-1,0,-1,-1,RJCT 141800Z NIL=,
20180114_190000.003,0,RJCT,,,,0,20180114190000,-1,-1,-1,-1,-1,-1,-1,-1,-1,-1,-1,,-1,0,0,0,,0,-1,0,-1,-1,RJCT 141900Z NIL=,
20180114_200000.004,0,RJCT,,,,0,20180114200000,-1,-1,-1,-1,-1,-1,-1,-1,-1,-1,-1,,-1,0,0,0,,0,-1,0,-1,-1,RJCT 142000Z NIL=,
20180114_210000.003,0,RJCT,,,,0,20180114210000,-1,-1,-1,-1,-1,-1,-1,-1,-1,-1,-1,,-1,0,0,0,,0,-1,0,-1,-1,RJCT 142100Z NIL=,
20180114_220000.003,0,RJCT,,,,0,20180114220000,-1,-1,-1,-1,999,-1,2,-1,-1,-1,-1,,9999,0,0,2,FEW 5   BKN 100,-1,19,-1,21,1020,RJCT 142200Z VRB02KT 9999 FEW005 BKN100 M19/M21 Q1020 RMK     1ST005 5AC100 A3012=,
20180114_230000.003,0,RJCT,,,,0,20180114230000,-1,-1,-1,-1,999,-1,2,-1,-1,-1,-1,,9999,0,0,2,FEW 40   BKN 100,-1,17,-1,19,1019,RJCT 142300Z VRB02KT 9999 FEW040 BKN100 M17/M19 Q1019 RMK     1CU040 5AC100 A3011=,
20180115_000000.003,0,RJCT,,,,0,20180115000000,-1,-1,-1,-1,999,-1,1,-1,-1,-1,-1,,9999,0,0,2,FEW 40   BKN 150,-1,14,-1,16,1019,RJCT 150000Z VRB01KT 9999 FEW040 BKN150 M14/M16 Q1019 RMK     1SC040 6AC150 A3009=,
20180115_010000.003,0,RJCT,,,,0,20180115010000,-1,-1,-1,-1,999,-1,2,-1,-1,-1,-1,,9999,0,0,2,FEW 40   BKN 150,-1,11,-1,14,1017,RJCT 150100Z VRB02KT 9999 FEW040 BKN150 M11/M14 Q1017 RMK     1CU040 6AC150 A3005=,
20180115_020000.003,0,RJCT,,,,0,20180115020000,-1,-1,-1,-1,999,-1,2,-1,-1,-1,-1,,9999,0,0,2,FEW 40   SCT 200,-1,6,-1,12,1015,RJCT 150200Z VRB02KT 9999 FEW040 SCT200 M06/M12 Q1015 RMK     1CU040 4CI200 A2999 P/FR=,
20180115_030000.003,0,RJCT,,,,0,20180115030000,-1,-1,-1,-1,250,-1,3,-1,-1,-1,-1,,9999,0,0,2,FEW 40   SCT 150,-1,5,-1,11,1013,RJCT 150300Z 25003KT 9999 FEW040 SCT150 M05/M11 Q1013 RMK     1CU040 4AC150 A2994=,
20180115_040000.003,0,RJCT,,,,0,20180115040000,-1,-1,-1,-1,250,-1,3,-1,-1,-1,-1,,9999,0,1,2,FEW 40   BKN 150,-1,4,-1,9,1012,RJCT 150400Z 25003KT 9999 -SHSN FEW040 BKN150 M04/M09 Q1012     RMK 1CU040 6AC150 A2988=,- SN SH
20180115_050000.003,0,RJCT,,,,0,20180115050000,-1,-1,-1,-1,270,-1,4,-1,-1,-1,-1,,2000,0,1,3,FEW 10   BKN 20   BKN 30,-1,3,-1,7,1011,RJCT 150500Z 27004KT 2000 -SHSN FEW010 BKN020 BKN030 M03/M07     Q1011 RMK 2ST010 5CU020 7CU030 A2985=,- SN SH
20180115_060000.003,0,RJCT,,,,0,20180115060000,-1,-1,-1,-1,270,-1,3,-1,-1,-1,-1,,1800,0,1,3,FEW 4   SCT 8   BKN 20,-1,3,-1,5,1010,RJCT 150600Z 27003KT 1800 -SHSN FEW004 SCT008 BKN020 M03/M05     Q1010 RMK 1ST004 4ST008 7CU020 A2984=,- SN SH
20180115_070000.005,0,RJCT,,,,0,20180115070000,-1,-1,-1,-1,999,-1,1,-1,-1,-1,-1,,2000,0,1,3,FEW 4   SCT 10   BKN 25,-1,3,-1,4,1010,RJCT 150700Z VRB01KT 2000 -SHSN FEW004 SCT010 BKN025 M03/M04     Q1010 RMK 1ST004 4ST010 6CU025 A2982=,- SN SH
20180115_080000.003,0,RJCT,,,,0,20180115080000,-1,-1,-1,-1,250,-1,3,-1,-1,-1,-1,,8000,0,0,3,FEW 10   SCT 20   BKN 40,-1,5,-1,5,1009,RJCT 150800Z 25003KT 8000 FEW010 SCT020 BKN040 M05/M05 Q1009     RMK 1ST010 3CU020 5CU040 A2981=,
20180115_090000.003,0,RJCT,,,,0,20180115090000,-1,-1,-1,-1,-1,-1,-1,-1,-1,-1,-1,,-1,0,0,0,,0,-1,0,-1,-1,RJCT 150900Z NIL=,
20180115_100000.003,0,RJCT,,,,0,20180115100000,-1,-1,-1,-1,-1,-1,-1,-1,-1,-1,-1,,-1,0,0,0,,0,-1,0,-1,-1,RJCT 151000Z NIL=,
20180115_110000.003,0,RJCT,,,,0,20180115110000,-1,-1,-1,-1,-1,-1,-1,-1,-1,-1,-1,,-1,0,0,0,,0,-1,0,-1,-1,RJCT 151100Z NIL=,
20180115_120000.003,0,RJCT,,,,0,20180115120000,-1,-1,-1,-1,-1,-1,-1,-1,-1,-1,-1,,-1,0,0,0,,0,-1,0,-1,-1,RJCT 151200Z NIL=,
20180115_130000.003,0,RJCT,,,,0,20180115130000,-1,-1,-1,-1,-1,-1,-1,-1,-1,-1,-1,,-1,0,0,0,,0,-1,0,-1,-1,RJCT 151300Z NIL=,
20180115_140000.003,0,RJCT,,,,0,20180115140000,-1,-1,-1,-1,-1,-1,-1,-1,-1,-1,-1,,-1,0,0,0,,0,-1,0,-1,-1,RJCT 151400Z NIL=,
20180115_150000.003,0,RJCT,,,,0,20180115150000,-1,-1,-1,-1,-1,-1,-1,-1,-1,-1,-1,,-1,0,0,0,,0,-1,0,-1,-1,RJCT 151500Z NIL=,
20180115_160000.003,0,RJCT,,,,0,20180115160000,-1,-1,-1,-1,-1,-1,-1,-1,-1,-1,-1,,-1,0,0,0,,0,-1,0,-1,-1,RJCT 151600Z NIL=,
20180115_170000.003,0,RJCT,,,,0,20180115170000,-1,-1,-1,-1,-1,-1,-1,-1,-1,-1,-1,,-1,0,0,0,,0,-1,0,-1,-1,RJCT 151700Z NIL=,
20180115_180000.003,0,RJCT,,,,0,20180115180000,-1,-1,-1,-1,-1,-1,-1,-1,-1,-1,-1,,-1,0,0,0,,0,-1,0,-1,-1,RJCT 151800Z NIL=,
20180115_190000.003,0,RJCT,,,,0,20180115190000,-1,-1,-1,-1,-1,-1,-1,-1,-1,-1,-1,,-1,0,0,0,,0,-1,0,-1,-1,RJCT 151900Z NIL=,
20180115_200000.003,0,RJCT,,,,0,20180115200000,-1,-1,-1,-1,-1,-1,-1,-1,-1,-1,-1,,-1,0,0,0,,0,-1,0,-1,-1,RJCT 152000Z NIL=,
20180115_210000.003,0,RJCT,,,,0,20180115210000,-1,-1,-1,-1,-1,-1,-1,-1,-1,-1,-1,,-1,0,0,0,,0,-1,0,-1,-1,RJCT 152100Z NIL=,
20180115_220000.003,0,RJCT,,,,0,20180115220000,-1,-1,-1,-1,330,-1,3,-1,-1,-1,-1,,9999,0,0,1,NSC -1,-1,3,-1,9,1013,RJCT 152200Z 33003KT 9999 NSC M03/M09 Q1013 RMK A2993=,
20180115_230000.003,0,RJCT,,,,0,20180115230000,-1,-1,-1,-1,999,-1,1,-1,-1,-1,-1,,9999,0,0,1,FEW 40,-1,4,-1,9,1014,RJCT 152300Z VRB01KT 9999 FEW040 M04/M09 Q1014 RMK 1CU040     A2997=,
20180116_000000.003,0,RJCT,,,,0,20180116000000,-1,-1,-1,-1,290,-1,5,-1,-1,-1,-1,,9999,0,0,1,FEW 40,-1,2,-1,7,1015,RJCT 160000Z 29005KT 9999 FEW040 M02/M07 Q1015 RMK 1CU040     A2998=,
20180116_010000.003,0,RJCT,,,,0,20180116010000,-1,-1,-1,-1,999,-1,2,-1,-1,-1,-1,,9999,0,0,1,FEW 40,-1,1,-1,7,1016,RJCT 160100Z VRB02KT 9999 FEW040 M01/M07 Q1016 RMK 1CU040     A3000=,
20180116_020000.003,0,RJCT,,,,0,20180116020000,-1,-1,-1,-1,999,-1,2,-1,-1,-1,-1,,9999,0,0,1,FEW 40,1,2,-1,8,1015,RJCT 160200Z VRB02KT 9999 FEW040 02/M08 Q1015 RMK 1CU040     A3000=,
20180116_030000.003,0,RJCT,,,,0,20180116030000,-1,-1,-1,-1,150,-1,3,-1,-1,-1,-1,,9999,0,0,1,FEW 40,1,3,-1,8,1015,RJCT 160300Z 15003KT 9999 FEW040 03/M08 Q1015 RMK 1CU040     A2997=,
20180116_040000.003,0,RJCT,,,,0,20180116040000,-1,-1,-1,-1,240,-1,5,-1,-1,-1,-1,,9999,0,0,1,FEW 40,1,3,-1,9,1014,RJCT 160400Z 24005KT 9999 FEW040 03/M09 Q1014 RMK 1CU040     A2997=,
20180116_050000.003,0,RJCT,,,,0,20180116050000,-1,-1,-1,-1,300,-1,5,-1,-1,-1,-1,,9999,0,0,2,FEW 40   SCT 200,1,2,-1,8,1015,RJCT 160500Z 30005KT 9999 FEW040 SCT200 02/M08 Q1015 RMK     1CU040 3CI200 A2997=,
20180116_060000.003,0,RJCT,,,,0,20180116060000,-1,-1,-1,-1,300,-1,6,-1,-1,-1,-1,,9999,0,0,2,FEW 40   SCT 200,1,1,-1,8,1015,RJCT 160600Z 30006KT 9999 FEW040 SCT200 01/M08 Q1015 RMK     1CU040 4CI200 A2998=,
20180116_070000.003,0,RJCT,,,,0,20180116070000,-1,-1,-1,-1,300,-1,4,-1,-1,-1,-1,,9999,0,0,2,FEW 40   BKN 200,-1,1,-1,8,1015,RJCT 160700Z 30004KT 9999 FEW040 BKN200 M01/M08 Q1015 RMK     1CU040 5CI200 A2999=,
20180116_080000.003,0,RJCT,,,,0,20180116080000,-1,-1,-1,-1,240,-1,3,-1,-1,-1,-1,,9999,0,0,2,FEW 40   BKN 200,-1,4,-1,8,1015,RJCT 160800Z 24003KT 9999 FEW040 BKN200 M04/M08 Q1015 RMK     2CU040 6CI200 A2999=,
20180116_090000.003,0,RJCT,,,,0,20180116090000,-1,-1,-1,-1,-1,-1,-1,-1,-1,-1,-1,,-1,0,0,0,,0,-1,0,-1,-1,RJCT 160900Z NIL=,
20180116_100000.003,0,RJCT,,,,0,20180116100000,-1,-1,-1,-1,-1,-1,-1,-1,-1,-1,-1,,-1,0,0,0,,0,-1,0,-1,-1,RJCT 161000Z NIL=,
20180116_110000.005,0,RJCT,,,,0,20180116110000,-1,-1,-1,-1,-1,-1,-1,-1,-1,-1,-1,,-1,0,0,0,,0,-1,0,-1,-1,RJCT 161100Z NIL=,
20180116_120000.003,0,RJCT,,,,0,20180116120000,-1,-1,-1,-1,-1,-1,-1,-1,-1,-1,-1,,-1,0,0,0,,0,-1,0,-1,-1,RJCT 161200Z NIL=,
20180116_130000.003,0,RJCT,,,,0,20180116130000,-1,-1,-1,-1,-1,-1,-1,-1,-1,-1,-1,,-1,0,0,0,,0,-1,0,-1,-1,RJCT 161300Z NIL=,
20180116_140000.003,0,RJCT,,,,0,20180116140000,-1,-1,-1,-1,-1,-1,-1,-1,-1,-1,-1,,-1,0,0,0,,0,-1,0,-1,-1,RJCT 161400Z NIL=,
20180116_150000.003,0,RJCT,,,,0,20180116150000,-1,-1,-1,-1,-1,-1,-1,-1,-1,-1,-1,,-1,0,0,0,,0,-1,0,-1,-1,RJCT 161500Z NIL=,
20180116_160000.003,0,RJCT,,,,0,20180116160000,-1,-1,-1,-1,-1,-1,-1,-1,-1,-1,-1,,-1,0,0,0,,0,-1,0,-1,-1,RJCT 161600Z NIL=,
20180116_170000.003,0,RJCT,,,,0,20180116170000,-1,-1,-1,-1,-1,-1,-1,-1,-1,-1,-1,,-1,0,0,0,,0,-1,0,-1,-1,RJCT 161700Z NIL=,
20180116_180000.003,0,RJCT,,,,0,20180116180000,-1,-1,-1,-1,-1,-1,-1,-1,-1,-1,-1,,-1,0,0,0,,0,-1,0,-1,-1,RJCT 161800Z NIL=,
20180116_190000.003,0,RJCT,,,,0,20180116190000,-1,-1,-1,-1,-1,-1,-1,-1,-1,-1,-1,,-1,0,0,0,,0,-1,0,-1,-1,RJCT 161900Z NIL=,
20180116_200000.003,0,RJCT,,,,0,20180116200000,-1,-1,-1,-1,-1,-1,-1,-1,-1,-1,-1,,-1,0,0,0,,0,-1,0,-1,-1,RJCT 162000Z NIL=,
20180116_210000.003,0,RJCT,,,,0,20180116210000,-1,-1,-1,-1,-1,-1,-1,-1,-1,-1,-1,,-1,0,0,0,,0,-1,0,-1,-1,RJCT 162100Z NIL=,
20180116_220000.003,0,RJCT,,,,0,20180116220000,-1,-1,-1,-1,999,-1,2,-1,-1,-1,-1,,9999,0,0,1,FEW 30,-1,10,-1,11,1017,RJCT 162200Z VRB02KT 9999 FEW030 M10/M11 Q1017 RMK 1CU030     A3004=,
20180116_230000.003,0,RJCT,,,,0,20180116230000,-1,-1,-1,-1,999,-1,2,-1,-1,-1,-1,,9999,0,0,1,FEW 40,-1,8,-1,9,1018,RJCT 162300Z VRB02KT 9999 FEW040 M08/M09 Q1018 RMK 1CU040     A3007=,
20180117_000000.004,0,RJCT,,,,0,20180117000000,-1,-1,-1,-1,999,-1,2,-1,-1,-1,-1,,9999,0,0,1,FEW 40,-1,7,-1,9,1018,RJCT 170000Z VRB02KT 9999 FEW040 M07/M09 Q1018 RMK 1CU040     A3007=,
20180117_010000.003,0,RJCT,,,,0,20180117010000,-1,-1,-1,-1,200,-1,4,-1,-1,-1,-1,,9999,0,0,1,FEW 40,-1,4,-1,9,1019,RJCT 170100Z 20004KT 9999 FEW040 M04/M09 Q1019 RMK 1CU040     A3009=,
20180117_020000.006,0,RJCT,,,,0,20180117020000,-1,-1,-1,-1,160,-1,3,-1,-1,-1,-1,,9999,0,0,1,FEW 200,-1,1,-1,8,1018,RJCT 170200Z 16003KT 9999 FEW200 M01/M08 Q1018 RMK 1CI200     A3008=,
20180117_030000.004,0,RJCT,,,,0,20180117030000,-1,-1,-1,-1,180,-1,3,-1,-1,-1,-1,,9999,0,0,1,FEW 230,-1,0,-1,8,1018,RJCT 170300Z 18003KT 9999 FEW230 M00/M08 Q1018 RMK 2CI230     A3007=,
20180117_040000.004,0,RJCT,,,,0,20180117040000,-1,-1,-1,-1,180,-1,5,-1,-1,-1,-1,,9999,0,0,2,FEW 40   BKN 230,1,1,-1,8,1018,RJCT 170400Z 18005KT 9999 FEW040 BKN230 01/M08 Q1018 RMK     1CU040 7CS230 A3007=,
20180117_050000.004,0,RJCT,,,,0,20180117050000,-1,-1,-1,-1,160,-1,5,-1,-1,-1,-1,,9999,0,0,2,FEW 40   BKN 230,1,1,-1,8,1018,RJCT 170500Z 16005KT 9999 FEW040 BKN230 01/M08 Q1018 RMK     1CU040 7CS230 A3008=,
20180117_060000.003,0,RJCT,,,,0,20180117060000,-1,-1,-1,-1,160,-1,4,-1,-1,-1,-1,,9999,0,0,2,FEW 40   BKN 230,1,0,-1,8,1019,RJCT 170600Z 16004KT 9999 FEW040 BKN230 00/M08 Q1019 RMK     1CU040 7CS230 A3010=,
20180117_070000.004,0,RJCT,,,,0,20180117070000,-1,-1,-1,-1,170,-1,3,-1,-1,-1,-1,,9999,0,0,2,FEW 40   BKN 200,-1,2,-1,8,1019,RJCT 170700Z 17003KT 9999 FEW040 BKN200 M02/M08 Q1019 RMK     2CU040 7CI200 A3009=,
20180117_080000.003,0,RJCT,,,,0,20180117080000,-1,-1,-1,-1,999,-1,2,-1,-1,-1,-1,,9999,0,0,3,FEW 40   SCT 70   BKN 200,-1,3,-1,7,1019,RJCT 170800Z VRB02KT 9999 FEW040 SCT070 BKN200 M03/M07 Q1019     RMK 1CU040 3AC070 7CI200 A3010=,
20180117_090000.004,0,RJCT,,,,0,20180117090000,-1,-1,-1,-1,-1,-1,-1,-1,-1,-1,-1,,-1,0,0,0,,0,-1,0,-1,-1,RJCT 170900Z NIL=,
20180117_100000.003,0,RJCT,,,,0,20180117100000,-1,-1,-1,-1,-1,-1,-1,-1,-1,-1,-1,,-1,0,0,0,,0,-1,0,-1,-1,RJCT 171000Z NIL=,
20180117_110000.004,0,RJCT,,,,0,20180117110000,-1,-1,-1,-1,-1,-1,-1,-1,-1,-1,-1,,-1,0,0,0,,0,-1,0,-1,-1,RJCT 171100Z NIL=,
20180117_120000.004,0,RJCT,,,,0,20180117120000,-1,-1,-1,-1,-1,-1,-1,-1,-1,-1,-1,,-1,0,0,0,,0,-1,0,-1,-1,RJCT 171200Z NIL=,
20180117_130000.003,0,RJCT,,,,0,20180117130000,-1,-1,-1,-1,-1,-1,-1,-1,-1,-1,-1,,-1,0,0,0,,0,-1,0,-1,-1,RJCT 171300Z NIL=,
20180117_140000.003,0,RJCT,,,,0,20180117140000,-1,-1,-1,-1,-1,-1,-1,-1,-1,-1,-1,,-1,0,0,0,,0,-1,0,-1,-1,RJCT 171400Z NIL=,
20180117_150000.003,0,RJCT,,,,0,20180117150000,-1,-1,-1,-1,-1,-1,-1,-1,-1,-1,-1,,-1,0,0,0,,0,-1,0,-1,-1,RJCT 171500Z NIL=,
20180117_160000.003,0,RJCT,,,,0,20180117160000,-1,-1,-1,-1,-1,-1,-1,-1,-1,-1,-1,,-1,0,0,0,,0,-1,0,-1,-1,RJCT 171600Z NIL=,
20180117_170000.003,0,RJCT,,,,0,20180117170000,-1,-1,-1,-1,-1,-1,-1,-1,-1,-1,-1,,-1,0,0,0,,0,-1,0,-1,-1,RJCT 171700Z NIL=,
20180117_180000.003,0,RJCT,,,,0,20180117180000,-1,-1,-1,-1,-1,-1,-1,-1,-1,-1,-1,,-1,0,0,0,,0,-1,0,-1,-1,RJCT 171800Z NIL=,
20180117_190000.004,0,RJCT,,,,0,20180117190000,-1,-1,-1,-1,-1,-1,-1,-1,-1,-1,-1,,-1,0,0,0,,0,-1,0,-1,-1,RJCT 171900Z NIL=,
20180117_200000.003,0,RJCT,,,,0,20180117200000,-1,-1,-1,-1,-1,-1,-1,-1,-1,-1,-1,,-1,0,0,0,,0,-1,0,-1,-1,RJCT 172000Z NIL=,
20180117_210000.003,0,RJCT,,,,0,20180117210000,-1,-1,-1,-1,-1,-1,-1,-1,-1,-1,-1,,-1,0,0,0,,0,-1,0,-1,-1,RJCT 172100Z NIL=,
20180117_220000.004,0,RJCT,,,,0,20180117220000,-1,-1,-1,-1,999,-1,1,-1,-1,-1,-1,,7000,0,1,2,FEW 5   BKN 20,-1,4,-1,6,1016,RJCT 172200Z VRB01KT 7000 -SHSN FEW005 BKN020 M04/M06 Q1016     RMK 1ST005 7CU020 A3000=,- SN SH
20180117_230000.003,0,RJCT,,,,0,20180117230000,-1,-1,-1,-1,999,-1,1,-1,-1,-1,-1,,7000,0,1,2,FEW 5   BKN 20,-1,4,-1,5,1016,RJCT 172300Z VRB01KT 7000 -SHSN FEW005 BKN020 M04/M05 Q1016     RMK 1ST005 7CU020 A3001=,- SN SH
20180118_000000.003,0,RJCT,,,,0,20180118000000,-1,-1,-1,-1,999,-1,2,-1,-1,-1,-1,,6000,0,1,2,FEW 5   BKN 20,-1,2,-1,4,1016,RJCT 180000Z VRB02KT 6000 -SN FEW005 BKN020 M02/M04 Q1016 RMK     1ST005 7SC020 A3000=,- SN
20180118_010000.003,0,RJCT,,,,0,20180118010000,-1,-1,-1,-1,280,-1,4,-1,-1,-1,-1,,7000,0,1,3,FEW 5   SCT 20   BKN 40,-1,2,-1,4,1015,RJCT 180100Z 28004KT 7000 -SHSN FEW005 SCT020 BKN040 M02/M04     Q1015 RMK 1ST005 3SC020 6CU040 A2999=,- SN SH
20180118_020000.003,0,RJCT,,,,0,20180118020000,-1,-1,-1,-1,999,-1,1,-1,-1,-1,-1,,7000,0,1,3,FEW 5   SCT 20   BKN 40,-1,1,-1,4,1014,RJCT 180200Z VRB01KT 7000 -SHSN FEW005 SCT020 BKN040 M01/M04     Q1014 RMK 1ST005 3SC020 5CU040 A2995=,- SN SH
20180118_030000.004,0,RJCT,,,,0,20180118030000,-1,-1,-1,-1,999,-1,1,-1,-1,-1,-1,,9999,0,0,3,FEW 5   SCT 20   BKN 40,-1,0,-1,4,1013,RJCT 180300Z VRB01KT 9999 FEW005 SCT020 BKN040 M00/M04 Q1013     RMK 1ST005 3SC020 7CU040 A2991=,
20180118_040000.003,0,RJCT,,,,0,20180118040000,-1,-1,-1,-1,999,-1,2,-1,-1,-1,-1,,9999,0,0,3,FEW 5   SCT 20   BKN 40,-1,0,-1,4,1012,RJCT 180400Z VRB02KT 9999 FEW005 SCT020 BKN040 M00/M04 Q1012     RMK 1ST005 3SC020 7CU040 A2988=,
20180118_050000.003,0,RJCT,,,,0,20180118050000,-1,-1,-1,-1,260,-1,3,-1,-1,-1,-1,,9999,0,0,3,FEW 10   SCT 30   BKN 150,1,0,-1,4,1011,RJCT 180500Z 26003KT 9999 FEW010 SCT030 BKN150 00/M04 Q1011     RMK 1ST010 4SC030 6AC150 A2986=,
20180118_060000.003,0,RJCT,,,,0,20180118060000,-1,-1,-1,-1,280,-1,3,-1,-1,-1,-1,,9999,0,0,3,FEW 40   SCT 100   BKN 180,1,0,-1,4,1011,RJCT 180600Z 28003KT 9999 FEW040 SCT100 BKN180 00/M04 Q1011     RMK 1CU040 3AC100 6CI180 A2986=,
20180118_070000.003,0,RJCT,,,,0,20180118070000,-1,-1,-1,-1,270,-1,3,-1,-1,-1,-1,,9999,0,0,3,FEW 40   SCT 50   BKN 200,-1,1,-1,4,1011,RJCT 180700Z 27003KT 9999 FEW040 SCT050 BKN200 M01/M04 Q1011     RMK 1CU040 3CU050 5CI200 A2985=,
20180118_080000.003,0,RJCT,,,,0,20180118080000,-1,-1,-1,-1,999,-1,2,-1,-1,-1,-1,,9999,0,0,2,FEW 40   BKN 200,-1,2,-1,5,1011,RJCT 180800Z VRB02KT 9999 FEW040 BKN200 M02/M05 Q1011 RMK     2CU040 5CI200 A2985=,
20180118_090000.003,0,RJCT,,,,0,20180118090000,-1,-1,-1,-1,-1,-1,-1,-1,-1,-1,-1,,-1,0,0,0,,0,-1,0,-1,-1,RJCT 180900Z NIL=,
20180118_100000.003,0,RJCT,,,,0,20180118100000,-1,-1,-1,-1,-1,-1,-1,-1,-1,-1,-1,,-1,0,0,0,,0,-1,0,-1,-1,RJCT 181000Z NIL=,
20180118_110000.003,0,RJCT,,,,0,20180118110000,-1,-1,-1,-1,-1,-1,-1,-1,-1,-1,-1,,-1,0,0,0,,0,-1,0,-1,-1,RJCT 181100Z NIL=,
20180118_120000.003,0,RJCT,,,,0,20180118120000,-1,-1,-1,-1,-1,-1,-1,-1,-1,-1,-1,,-1,0,0,0,,0,-1,0,-1,-1,RJCT 181200Z NIL=,
20180118_130000.003,0,RJCT,,,,0,20180118130000,-1,-1,-1,-1,-1,-1,-1,-1,-1,-1,-1,,-1,0,0,0,,0,-1,0,-1,-1,RJCT 181300Z NIL=,
20180118_140000.003,0,RJCT,,,,0,20180118140000,-1,-1,-1,-1,-1,-1,-1,-1,-1,-1,-1,,-1,0,0,0,,0,-1,0,-1,-1,RJCT 181400Z NIL=,
20180118_150000.003,0,RJCT,,,,0,20180118150000,-1,-1,-1,-1,-1,-1,-1,-1,-1,-1,-1,,-1,0,0,0,,0,-1,0,-1,-1,RJCT 181500Z NIL=,
20180118_160000.003,0,RJCT,,,,0,20180118160000,-1,-1,-1,-1,-1,-1,-1,-1,-1,-1,-1,,-1,0,0,0,,0,-1,0,-1,-1,RJCT 181600Z NIL=,
20180118_170000.003,0,RJCT,,,,0,20180118170000,-1,-1,-1,-1,-1,-1,-1,-1,-1,-1,-1,,-1,0,0,0,,0,-1,0,-1,-1,RJCT 181700Z NIL=,
20180118_180000.003,0,RJCT,,,,0,20180118180000,-1,-1,-1,-1,-1,-1,-1,-1,-1,-1,-1,,-1,0,0,0,,0,-1,0,-1,-1,RJCT 181800Z NIL=,
20180118_190000.003,0,RJCT,,,,0,20180118190000,-1,-1,-1,-1,-1,-1,-1,-1,-1,-1,-1,,-1,0,0,0,,0,-1,0,-1,-1,RJCT 181900Z NIL=,
20180118_200000.003,0,RJCT,,,,0,20180118200000,-1,-1,-1,-1,-1,-1,-1,-1,-1,-1,-1,,-1,0,0,0,,0,-1,0,-1,-1,RJCT 182000Z NIL=,
20180118_210000.004,0,RJCT,,,,0,20180118210000,-1,-1,-1,-1,-1,-1,-1,-1,-1,-1,-1,,-1,0,0,0,,0,-1,0,-1,-1,RJCT 182100Z NIL=,
20180118_220000.003,0,RJCT,,,,0,20180118220000,-1,-1,-1,-1,320,-1,4,-1,-1,-1,-1,,9999,0,0,1,FEW 40,-1,3,-1,6,1013,RJCT 182200Z 32004KT 9999 FEW040 M03/M06 Q1013 RMK 1CU040     A2994=,
20180118_230000.004,0,RJCT,,,,0,20180118230000,-1,-1,-1,-1,310,-1,4,-1,-1,-1,-1,,9999,0,0,1,FEW 40,-1,2,-1,9,1014,RJCT 182300Z 31004KT 9999 FEW040 M02/M09 Q1014 RMK 1CU040     A2995=,
20180119_000000.003,0,RJCT,,,,0,20180119000000,-1,-1,-1,-1,340,-1,3,-1,-1,-1,-1,,9999,0,0,1,FEW 40,-1,1,-1,9,1014,RJCT 190000Z 34003KT 9999 FEW040 M01/M09 Q1014 RMK 1CU040     A2997=,
20180119_010000.004,0,RJCT,,,,0,20180119010000,-1,-1,-1,-1,300,-1,6,-1,-1,-1,-1,,9999,0,0,1,FEW 40,-1,0,-1,9,1015,RJCT 190100Z 30006KT 9999 FEW040 M00/M09 Q1015 RMK 1CU040     A2999=,
20180119_020000.003,0,RJCT,,,,0,20180119020000,-1,-1,-1,-1,300,-1,9,-1,-1,-1,-1,,9999,0,0,1,FEW 40,1,1,-1,8,1015,RJCT 190200Z 30009KT 9999 FEW040 01/M08 Q1015 RMK 1CU040     A2997=,
20180119_030000.003,0,RJCT,,,,0,20180119030000,-1,-1,-1,-1,300,-1,11,-1,-1,-1,-1,,9999,0,0,1,FEW 40,1,0,-1,9,1014,RJCT 190300Z 30011KT 9999 FEW040 00/M09 Q1014 RMK 1CU040     A2996=,
20180119_040000.003,0,RJCT,,,,0,20180119040000,-1,-1,-1,-1,300,-1,11,-1,-1,-1,-1,,9999,0,0,1,FEW 40,1,1,-1,10,1014,RJCT 190400Z 30011KT 9999 FEW040 01/M10 Q1014 RMK 1CU040 A2996     MAX WIND 20KT=,
20180119_050000.004,0,RJCT,,,,0,20180119050000,-1,-1,-1,-1,290,-1,8,-1,-1,-1,-1,,9999,0,0,1,FEW 40,1,0,-1,9,1015,RJCT 190500Z 29008KT 9999 FEW040 00/M09 Q1015 RMK 1CU040     A2997=,
20180119_060000.003,0,RJCT,,,,0,20180119060000,-1,-1,-1,-1,300,-1,10,-1,-1,-1,-1,,9999,0,0,1,FEW 40,-1,1,-1,10,1015,RJCT 190600Z 30010KT 9999 FEW040 M01/M10 Q1015 RMK 1CU040     A2999=,
20180119_070000.003,0,RJCT,,,,0,20180119070000,-1,-1,-1,-1,300,-1,6,-1,-1,-1,-1,,9999,0,0,1,FEW 40,-1,2,-1,10,1016,RJCT 190700Z 30006KT 9999 FEW040 M02/M10 Q1016 RMK 1CU040     A3001=,
20180119_080000.003,0,RJCT,,,,0,20180119080000,-1,-1,-1,-1,300,-1,9,-1,-1,-1,-1,,9999,0,0,1,FEW 40,-1,3,-1,9,1016,RJCT 190800Z 30009KT 9999 FEW040 M03/M09 Q1016 RMK 1CU040     A3002=,
20180119_090000.004,0,RJCT,,,,0,20180119090000,-1,-1,-1,-1,-1,-1,-1,-1,-1,-1,-1,,-1,0,0,0,,0,-1,0,-1,-1,RJCT 190900Z NIL=,
20180119_100000.003,0,RJCT,,,,0,20180119100000,-1,-1,-1,-1,-1,-1,-1,-1,-1,-1,-1,,-1,0,0,0,,0,-1,0,-1,-1,RJCT 191000Z NIL=,
20180119_110000.003,0,RJCT,,,,0,20180119110000,-1,-1,-1,-1,-1,-1,-1,-1,-1,-1,-1,,-1,0,0,0,,0,-1,0,-1,-1,RJCT 191100Z NIL=,
20180119_120000.004,0,RJCT,,,,0,20180119120000,-1,-1,-1,-1,-1,-1,-1,-1,-1,-1,-1,,-1,0,0,0,,0,-1,0,-1,-1,RJCT 191200Z NIL=,
20180119_130000.003,0,RJCT,,,,0,20180119130000,-1,-1,-1,-1,-1,-1,-1,-1,-1,-1,-1,,-1,0,0,0,,0,-1,0,-1,-1,RJCT 191300Z NIL=,
20180119_140000.003,0,RJCT,,,,0,20180119140000,-1,-1,-1,-1,-1,-1,-1,-1,-1,-1,-1,,-1,0,0,0,,0,-1,0,-1,-1,RJCT 191400Z NIL=,
20180119_150000.003,0,RJCT,,,,0,20180119150000,-1,-1,-1,-1,-1,-1,-1,-1,-1,-1,-1,,-1,0,0,0,,0,-1,0,-1,-1,RJCT 191500Z NIL=,
20180119_160000.003,0,RJCT,,,,0,20180119160000,-1,-1,-1,-1,-1,-1,-1,-1,-1,-1,-1,,-1,0,0,0,,0,-1,0,-1,-1,RJCT 191600Z NIL=,
20180119_170000.003,0,RJCT,,,,0,20180119170000,-1,-1,-1,-1,-1,-1,-1,-1,-1,-1,-1,,-1,0,0,0,,0,-1,0,-1,-1,RJCT 191700Z NIL=,
20180119_180000.004,0,RJCT,,,,0,20180119180000,-1,-1,-1,-1,-1,-1,-1,-1,-1,-1,-1,,-1,0,0,0,,0,-1,0,-1,-1,RJCT 191800Z NIL=,
20180119_190000.004,0,RJCT,,,,0,20180119190000,-1,-1,-1,-1,-1,-1,-1,-1,-1,-1,-1,,-1,0,0,0,,0,-1,0,-1,-1,RJCT 191900Z NIL=,
20180119_200000.003,0,RJCT,,,,0,20180119200000,-1,-1,-1,-1,-1,-1,-1,-1,-1,-1,-1,,-1,0,0,0,,0,-1,0,-1,-1,RJCT 192000Z NIL=,
20180119_210000.003,0,RJCT,,,,0,20180119210000,-1,-1,-1,-1,-1,-1,-1,-1,-1,-1,-1,,-1,0,0,0,,0,-1,0,-1,-1,RJCT 192100Z NIL=,
20180119_220000.003,0,RJCT,,,,0,20180119220000,-1,-1,-1,-1,999,-1,1,-1,-1,-1,-1,,9999,0,0,1,NSC -1,-1,17,-1,19,1017,RJCT 192200Z VRB01KT 9999 NSC M17/M19 Q1017 RMK A3004=,
20180119_230000.003,0,RJCT,,,,0,20180119230000,-1,-1,-1,-1,999,-1,1,-1,-1,-1,-1,,9999,0,0,1,FEW 40,-1,16,-1,17,1017,RJCT 192300Z VRB01KT 9999 FEW040 M16/M17 Q1017 RMK 1CU040     A3004=,
20180120_000000.003,0,RJCT,,,,0,20180120000000,-1,-1,-1,-1,999,-1,2,-1,-1,-1,-1,,9999,0,0,1,NSC -1,-1,12,-1,15,1017,RJCT 200000Z VRB02KT 9999 NSC M12/M15 Q1017 RMK A3004=,
20180120_010000.003,0,RJCT,,,,0,20180120010000,-1,-1,-1,-1,999,-1,1,-1,-1,-1,-1,,9999,0,0,1,NSC -1,-1,11,-1,15,1017,RJCT 200100Z VRB01KT 9999 NSC M11/M15 Q1017 RMK A3003=,
20180120_020000.004,0,RJCT,,,,0,20180120020000,-1,-1,-1,-1,999,-1,1,-1,-1,-1,-1,,9999,0,0,1,NSC -1,-1,8,-1,15,1016,RJCT 200200Z VRB01KT 9999 NSC M08/M15 Q1016 RMK A3001=,
20180120_030000.003,0,RJCT,,,,0,20180120030000,-1,-1,-1,-1,-1,-1,-1,-1,-1,-1,-1,,-1,0,0,0,,0,-1,0,-1,-1,RJCT 200300Z NIL=,
20180120_040000.003,0,RJCT,,,,0,20180120040000,-1,-1,-1,-1,-1,-1,-1,-1,-1,-1,-1,,-1,0,0,0,,0,-1,0,-1,-1,RJCT 200400Z NIL=,
20180120_050000.003,0,RJCT,,,,0,20180120050000,-1,-1,-1,-1,-1,-1,-1,-1,-1,-1,-1,,-1,0,0,0,,0,-1,0,-1,-1,RJCT 200500Z NIL=,
20180120_060000.003,0,RJCT,,,,0,20180120060000,-1,-1,-1,-1,-1,-1,-1,-1,-1,-1,-1,,-1,0,0,0,,0,-1,0,-1,-1,RJCT 200600Z NIL=,
20180120_070000.003,0,RJCT,,,,0,20180120070000,-1,-1,-1,-1,-1,-1,-1,-1,-1,-1,-1,,-1,0,0,0,,0,-1,0,-1,-1,RJCT 200700Z NIL=,
20180120_080000.003,0,RJCT,,,,0,20180120080000,-1,-1,-1,-1,-1,-1,-1,-1,-1,-1,-1,,-1,0,0,0,,0,-1,0,-1,-1,RJCT 200800Z NIL=,
20180120_090000.003,0,RJCT,,,,0,20180120090000,-1,-1,-1,-1,-1,-1,-1,-1,-1,-1,-1,,-1,0,0,0,,0,-1,0,-1,-1,RJCT 200900Z NIL=,
20180120_100000.003,0,RJCT,,,,0,20180120100000,-1,-1,-1,-1,-1,-1,-1,-1,-1,-1,-1,,-1,0,0,0,,0,-1,0,-1,-1,RJCT 201000Z NIL=,
20180120_110000.003,0,RJCT,,,,0,20180120110000,-1,-1,-1,-1,-1,-1,-1,-1,-1,-1,-1,,-1,0,0,0,,0,-1,0,-1,-1,RJCT 201100Z NIL=,
20180120_120000.003,0,RJCT,,,,0,20180120120000,-1,-1,-1,-1,-1,-1,-1,-1,-1,-1,-1,,-1,0,0,0,,0,-1,0,-1,-1,RJCT 201200Z NIL=,
20180120_130000.003,0,RJCT,,,,0,20180120130000,-1,-1,-1,-1,-1,-1,-1,-1,-1,-1,-1,,-1,0,0,0,,0,-1,0,-1,-1,RJCT 201300Z NIL=,
20180120_140000.003,0,RJCT,,,,0,20180120140000,-1,-1,-1,-1,-1,-1,-1,-1,-1,-1,-1,,-1,0,0,0,,0,-1,0,-1,-1,RJCT 201400Z NIL=,
20180120_150000.003,0,RJCT,,,,0,20180120150000,-1,-1,-1,-1,-1,-1,-1,-1,-1,-1,-1,,-1,0,0,0,,0,-1,0,-1,-1,RJCT 201500Z NIL=,
20180120_160000.003,0,RJCT,,,,0,20180120160000,-1,-1,-1,-1,-1,-1,-1,-1,-1,-1,-1,,-1,0,0,0,,0,-1,0,-1,-1,RJCT 201600Z NIL=,
20180120_170000.003,0,RJCT,,,,0,20180120170000,-1,-1,-1,-1,-1,-1,-1,-1,-1,-1,-1,,-1,0,0,0,,0,-1,0,-1,-1,RJCT 201700Z NIL=,
20180120_180000.003,0,RJCT,,,,0,20180120180000,-1,-1,-1,-1,-1,-1,-1,-1,-1,-1,-1,,-1,0,0,0,,0,-1,0,-1,-1,RJCT 201800Z NIL=,
20180120_190000.004,0,RJCT,,,,0,20180120190000,-1,-1,-1,-1,-1,-1,-1,-1,-1,-1,-1,,-1,0,0,0,,0,-1,0,-1,-1,RJCT 201900Z NIL=,
20180120_200000.003,0,RJCT,,,,0,20180120200000,-1,-1,-1,-1,-1,-1,-1,-1,-1,-1,-1,,-1,0,0,0,,0,-1,0,-1,-1,RJCT 202000Z NIL=,
20180120_210000.003,0,RJCT,,,,0,20180120210000,-1,-1,-1,-1,-1,-1,-1,-1,-1,-1,-1,,-1,0,0,0,,0,-1,0,-1,-1,RJCT 202100Z NIL=,
20180120_220000.003,0,RJCT,,,,0,20180120220000,-1,-1,-1,-1,-1,-1,-1,-1,-1,-1,-1,,-1,0,0,0,,0,-1,0,-1,-1,RJCT 202200Z NIL=,
20180120_230000.003,0,RJCT,,,,0,20180120230000,-1,-1,-1,-1,-1,-1,-1,-1,-1,-1,-1,,-1,0,0,0,,0,-1,0,-1,-1,RJCT 202300Z NIL=,
20180121_000000.003,0,RJCT,,,,0,20180121000000,-1,-1,-1,-1,-1,-1,-1,-1,-1,-1,-1,,-1,0,0,0,,0,-1,0,-1,-1,RJCT 210000Z NIL=,
20180121_010000.003,0,RJCT,,,,0,20180121010000,-1,-1,-1,-1,-1,-1,-1,-1,-1,-1,-1,,-1,0,0,0,,0,-1,0,-1,-1,RJCT 210100Z NIL=,
20180121_020000.003,0,RJCT,,,,0,20180121020000,-1,-1,-1,-1,-1,-1,-1,-1,-1,-1,-1,,-1,0,0,0,,0,-1,0,-1,-1,RJCT 210200Z NIL=,
20180121_030000.003,0,RJCT,,,,0,20180121030000,-1,-1,-1,-1,-1,-1,-1,-1,-1,-1,-1,,-1,0,0,0,,0,-1,0,-1,-1,RJCT 210300Z NIL=,
20180121_040000.004,0,RJCT,,,,0,20180121040000,-1,-1,-1,-1,310,-1,5,-1,-1,-1,-1,,9999,0,0,1,FEW 40,-1,3,-1,14,1008,RJCT 210400Z 31005KT 9999 FEW040 M03/M14 Q1008 RMK 2CU040     A2979=,
20180121_050000.003,0,RJCT,,,,0,20180121050000,-1,-1,-1,-1,270,-1,8,-1,-1,-1,-1,,9999,0,0,1,FEW 40,-1,2,-1,17,1008,RJCT 210500Z 27008KT 9999 FEW040 M02/M17 Q1008 RMK 2CU040     A2978=,
20180121_060000.003,0,RJCT,,,,0,20180121060000,-1,-1,-1,-1,270,-1,11,-1,-1,-1,-1,,9999,0,0,1,FEW 40,-1,3,-1,18,1008,RJCT 210600Z 27011KT 9999 FEW040 M03/M18 Q1008 RMK 1CU040     A2978=,
20180121_070000.003,0,RJCT,,,,0,20180121070000,-1,-1,-1,-1,-1,-1,-1,-1,-1,-1,-1,,-1,0,0,0,,0,-1,0,-1,-1,RJCT 210700Z NIL=,
20180121_080000.003,0,RJCT,,,,0,20180121080000,-1,-1,-1,-1,-1,-1,-1,-1,-1,-1,-1,,-1,0,0,0,,0,-1,0,-1,-1,RJCT 210800Z NIL=,
20180121_090000.003,0,RJCT,,,,0,20180121090000,-1,-1,-1,-1,-1,-1,-1,-1,-1,-1,-1,,-1,0,0,0,,0,-1,0,-1,-1,RJCT 210900Z NIL=,
20180121_100000.003,0,RJCT,,,,0,20180121100000,-1,-1,-1,-1,-1,-1,-1,-1,-1,-1,-1,,-1,0,0,0,,0,-1,0,-1,-1,RJCT 211000Z NIL=,
20180121_110000.003,0,RJCT,,,,0,20180121110000,-1,-1,-1,-1,-1,-1,-1,-1,-1,-1,-1,,-1,0,0,0,,0,-1,0,-1,-1,RJCT 211100Z NIL=,
20180121_120000.003,0,RJCT,,,,0,20180121120000,-1,-1,-1,-1,-1,-1,-1,-1,-1,-1,-1,,-1,0,0,0,,0,-1,0,-1,-1,RJCT 211200Z NIL=,
20180121_130000.004,0,RJCT,,,,0,20180121130000,-1,-1,-1,-1,-1,-1,-1,-1,-1,-1,-1,,-1,0,0,0,,0,-1,0,-1,-1,RJCT 211300Z NIL=,
20180121_140000.003,0,RJCT,,,,0,20180121140000,-1,-1,-1,-1,-1,-1,-1,-1,-1,-1,-1,,-1,0,0,0,,0,-1,0,-1,-1,RJCT 211400Z NIL=,
20180121_150000.003,0,RJCT,,,,0,20180121150000,-1,-1,-1,-1,-1,-1,-1,-1,-1,-1,-1,,-1,0,0,0,,0,-1,0,-1,-1,RJCT 211500Z NIL=,
20180121_160000.003,0,RJCT,,,,0,20180121160000,-1,-1,-1,-1,-1,-1,-1,-1,-1,-1,-1,,-1,0,0,0,,0,-1,0,-1,-1,RJCT 211600Z NIL=,
20180121_170000.003,0,RJCT,,,,0,20180121170000,-1,-1,-1,-1,-1,-1,-1,-1,-1,-1,-1,,-1,0,0,0,,0,-1,0,-1,-1,RJCT 211700Z NIL=,
20180121_180000.003,0,RJCT,,,,0,20180121180000,-1,-1,-1,-1,-1,-1,-1,-1,-1,-1,-1,,-1,0,0,0,,0,-1,0,-1,-1,RJCT 211800Z NIL=,
20180121_190000.003,0,RJCT,,,,0,20180121190000,-1,-1,-1,-1,-1,-1,-1,-1,-1,-1,-1,,-1,0,0,0,,0,-1,0,-1,-1,RJCT 211900Z NIL=,
20180121_200000.003,0,RJCT,,,,0,20180121200000,-1,-1,-1,-1,-1,-1,-1,-1,-1,-1,-1,,-1,0,0,0,,0,-1,0,-1,-1,RJCT 212000Z NIL=,
20180121_210000.003,0,RJCT,,,,0,20180121210000,-1,-1,-1,-1,-1,-1,-1,-1,-1,-1,-1,,-1,0,0,0,,0,-1,0,-1,-1,RJCT 212100Z NIL=,
20180121_220000.003,0,RJCT,,,,0,20180121220000,-1,-1,-1,-1,320,-1,4,-1,-1,-1,-1,,9999,0,0,1,FEW 40,-1,12,-1,20,1017,RJCT 212200Z 32004KT 9999 FEW040 M12/M20 Q1017 RMK 1CU040     A3004=,
20180121_230000.003,0,RJCT,,,,0,20180121230000,-1,-1,-1,-1,250,-1,4,-1,-1,-1,-1,,9999,0,0,1,FEW 40,-1,10,-1,19,1017,RJCT 212300Z 25004KT 9999 FEW040 M10/M19 Q1017 RMK 1CU040     A3006=,
20180122_000000.003,0,RJCT,,,,0,20180122000000,-1,-1,-1,-1,999,-1,2,-1,-1,-1,-1,,9999,0,0,1,FEW 40,-1,7,-1,19,1018,RJCT 220000Z VRB02KT 9999 FEW040 M07/M19 Q1018 RMK 1CU040     A3008=,
20180122_010000.003,0,RJCT,,,,0,20180122010000,-1,-1,-1,-1,300,-1,3,-1,-1,-1,-1,,9999,0,0,1,FEW 40,-1,5,-1,19,1018,RJCT 220100Z 30003KT 9999 FEW040 M05/M19 Q1018 RMK 1CU040     A3008=,
20180122_020000.003,0,RJCT,,,,0,20180122020000,-1,-1,-1,-1,60,-1,4,-1,-1,-1,-1,,9999,0,0,1,FEW 40,-1,4,-1,17,1018,RJCT 220200Z 06004KT 9999 FEW040 M04/M17 Q1018 RMK 1CU040     A3007=,
20180122_030000.003,0,RJCT,,,,0,20180122030000,-1,-1,-1,-1,140,-1,4,-1,-1,-1,-1,,9999,0,0,1,FEW 40,-1,4,-1,18,1018,RJCT 220300Z 14004KT 9999 FEW040 M04/M18 Q1018 RMK 2CU040     A3006=,
20180122_040000.003,0,RJCT,,,,0,20180122040000,-1,-1,-1,-1,150,-1,4,-1,-1,-1,-1,,9999,0,0,1,FEW 40,-1,3,-1,18,1017,RJCT 220400Z 15004KT 9999 FEW040 M03/M18 Q1017 RMK 2CU040     A3005=,
20180122_050000.003,0,RJCT,,,,0,20180122050000,-1,-1,-1,-1,180,-1,3,-1,-1,-1,-1,,9999,0,0,1,FEW 40,-1,3,-1,19,1017,RJCT 220500Z 18003KT 9999 FEW040 M03/M19 Q1017 RMK 1CU040     A3005=,
20180122_060000.004,0,RJCT,,,,0,20180122060000,-1,-1,-1,-1,999,-1,2,-1,-1,-1,-1,,9999,0,0,1,FEW 40,-1,4,-1,19,1017,RJCT 220600Z VRB02KT 9999 FEW040 M04/M19 Q1017 RMK 1CU040     A3005=,
20180122_070000.003,0,RJCT,,,,0,20180122070000,-1,-1,-1,-1,999,-1,1,-1,-1,-1,-1,,9999,0,0,1,FEW 40,-1,6,-1,18,1017,RJCT 220700Z VRB01KT 9999 FEW040 M06/M18 Q1017 RMK 1CU040     A3005=,
20180122_080000.004,0,RJCT,,,,0,20180122080000,-1,-1,-1,-1,90,-1,2,-1,-1,-1,-1,,9999,0,0,1,FEW 40,-1,9,-1,18,1017,RJCT 220800Z 09002KT 9999 FEW040 M09/M18 Q1017 RMK 1CU040     A3006=,
20180122_090000.003,0,RJCT,,,,0,20180122090000,-1,-1,-1,-1,-1,-1,-1,-1,-1,-1,-1,,-1,0,0,0,,0,-1,0,-1,-1,RJCT 220900Z NIL=,
20180122_100000.003,0,RJCT,,,,0,20180122100000,-1,-1,-1,-1,-1,-1,-1,-1,-1,-1,-1,,-1,0,0,0,,0,-1,0,-1,-1,RJCT 221000Z NIL=,
20180122_110000.004,0,RJCT,,,,0,20180122110000,-1,-1,-1,-1,-1,-1,-1,-1,-1,-1,-1,,-1,0,0,0,,0,-1,0,-1,-1,RJCT 221100Z NIL=,
20180122_120000.003,0,RJCT,,,,0,20180122120000,-1,-1,-1,-1,-1,-1,-1,-1,-1,-1,-1,,-1,0,0,0,,0,-1,0,-1,-1,RJCT 221200Z NIL=,
20180122_130000.004,0,RJCT,,,,0,20180122130000,-1,-1,-1,-1,-1,-1,-1,-1,-1,-1,-1,,-1,0,0,0,,0,-1,0,-1,-1,RJCT 221300Z NIL=,
20180122_140000.004,0,RJCT,,,,0,20180122140000,-1,-1,-1,-1,-1,-1,-1,-1,-1,-1,-1,,-1,0,0,0,,0,-1,0,-1,-1,RJCT 221400Z NIL=,
20180122_150000.003,0,RJCT,,,,0,20180122150000,-1,-1,-1,-1,-1,-1,-1,-1,-1,-1,-1,,-1,0,0,0,,0,-1,0,-1,-1,RJCT 221500Z NIL=,
20180122_160000.003,0,RJCT,,,,0,20180122160000,-1,-1,-1,-1,-1,-1,-1,-1,-1,-1,-1,,-1,0,0,0,,0,-1,0,-1,-1,RJCT 221600Z NIL=,
20180122_170000.003,0,RJCT,,,,0,20180122170000,-1,-1,-1,-1,-1,-1,-1,-1,-1,-1,-1,,-1,0,0,0,,0,-1,0,-1,-1,RJCT 221700Z NIL=,
20180122_180000.003,0,RJCT,,,,0,20180122180000,-1,-1,-1,-1,-1,-1,-1,-1,-1,-1,-1,,-1,0,0,0,,0,-1,0,-1,-1,RJCT 221800Z NIL=,
20180122_190000.003,0,RJCT,,,,0,20180122190000,-1,-1,-1,-1,-1,-1,-1,-1,-1,-1,-1,,-1,0,0,0,,0,-1,0,-1,-1,RJCT 221900Z NIL=,
20180122_200000.003,0,RJCT,,,,0,20180122200000,-1,-1,-1,-1,-1,-1,-1,-1,-1,-1,-1,,-1,0,0,0,,0,-1,0,-1,-1,RJCT 222000Z NIL=,
20180122_210000.004,0,RJCT,,,,0,20180122210000,-1,-1,-1,-1,-1,-1,-1,-1,-1,-1,-1,,-1,0,0,0,,0,-1,0,-1,-1,RJCT 222100Z NIL=,
20180122_220000.003,0,RJCT,,,,0,20180122220000,-1,-1,-1,-1,999,-1,2,-1,-1,-1,-1,,3000,0,1,3,FEW 5   SCT 8   BKN 10,-1,10,-1,14,1010,RJCT 222200Z VRB02KT 3000 -SHSN FEW005 SCT008 BKN010 M10/M14     Q1010 RMK 1ST005 3ST008 7ST010 A2984=,- SN SH
20180122_230000.004,0,RJCT,,,,0,20180122230000,-1,-1,-1,-1,999,-1,2,-1,-1,-1,-1,,4000,0,1,3,FEW 5   BKN 8   BKN 10,-1,9,-1,13,1009,RJCT 222300Z VRB02KT 4000 -SHSN FEW005 BKN008 BKN010 M09/M13     Q1009 RMK 1ST005 5ST008 7ST010 A2982=,- SN SH
20180123_000000.003,0,RJCT,,,,0,20180123000000,-1,-1,-1,-1,280,-1,3,-1,-1,-1,-1,,4000,0,1,3,FEW 5   BKN 8   BKN 10,-1,8,-1,12,1008,RJCT 230000Z 28003KT 4000 -SHSN FEW005 BKN008 BKN010 M08/M12     Q1008 RMK 1ST005 5ST008 7ST010 A2978=,- SN SH
20180123_010000.003,0,RJCT,,,,0,20180123010000,-1,-1,-1,-1,270,-1,4,-1,-1,-1,-1,,4000,0,1,3,FEW 5   BKN 8   BKN 10,-1,7,-1,10,1007,RJCT 230100Z 27004KT 4000 -SHSN FEW005 BKN008 BKN010 M07/M10     Q1007 RMK 1ST005 5ST008 7ST010 A2973=,- SN SH
20180123_020000.003,0,RJCT,,,,0,20180123020000,-1,-1,-1,-1,260,-1,5,-1,-1,-1,-1,,4000,0,1,3,FEW 8   BKN 10   BKN 20,-1,5,-1,8,1004,RJCT 230200Z 26005KT 4000 -SHSN FEW008 BKN010 BKN020 M05/M08     Q1004 RMK 1ST008 5ST010 7CU020 A2966=,- SN SH
20180123_030000.004,0,RJCT,,,,0,20180123030000,-1,-1,-1,-1,260,-1,4,-1,-1,-1,-1,,9999,0,1,2,FEW 20   BKN 40,-1,4,-1,8,1003,RJCT 230300Z 26004KT 9999 -SHSN FEW020 BKN040 M04/M08 Q1003     RMK 1CU020 7CU040 A2962=,- SN SH
20180123_040000.004,0,RJCT,,,,0,20180123040000,-1,-1,-1,-1,999,-1,2,-1,-1,-1,-1,,6000,0,1,3,FEW 8   SCT 10   BKN 20,-1,4,-1,8,1001,RJCT 230400Z VRB02KT 6000 -SHSN FEW008 SCT010 BKN020 M04/M08     Q1001 RMK 1ST008 3ST010 7CU020 A2956=,- SN SH
20180123_050000.003,0,RJCT,,,,0,20180123050000,-1,-1,-1,-1,250,-1,3,-1,-1,-1,-1,,9999,0,1,3,FEW 8   SCT 10   BKN 20,-1,4,-1,7,1000,RJCT 230500Z 25003KT 9999 -SHSN FEW008 SCT010 BKN020 M04/M07     Q1000 RMK 1ST008 3ST010 7CU020 A2953=,- SN SH
20180123_060000.004,0,RJCT,,,,0,20180123060000,-1,-1,-1,-1,260,-1,2,-1,-1,-1,-1,,2000,0,1,3,FEW 5   SCT 10   BKN 20,-1,4,-1,6,999,RJCT 230600Z 26002KT 2000 -SHSN FEW005 SCT010 BKN020 M04/M06     Q0999 RMK 1ST005 4ST010 7CU020 A2951=,- SN SH
20180123_070000.003,0,RJCT,,,,0,20180123070000,-1,-1,-1,-1,260,-1,1,-1,-1,-1,-1,,2000,0,1,3,FEW 5   SCT 10   BKN 20,-1,4,-1,5,999,RJCT 230700Z 26001KT 2000 -SHSN FEW005 SCT010 BKN020 M04/M05     Q0999 RMK 1ST005 4ST010 7CU020 A2951=,- SN SH
20180123_080000.003,0,RJCT,,,,0,20180123080000,-1,-1,-1,-1,999,-1,2,-1,-1,-1,-1,,800,0,1,1,VV 8,-1,4,-1,5,998,RJCT 230800Z VRB02KT 0800 SHSN VV008 M04/M05 Q0998 RMK A2949=,SN SH
20180123_090000.003,0,RJCT,,,,0,20180123090000,-1,-1,-1,-1,-1,-1,-1,-1,-1,-1,-1,,-1,0,0,0,,0,-1,0,-1,-1,RJCT 230900Z NIL=,
20180123_100000.003,0,RJCT,,,,0,20180123100000,-1,-1,-1,-1,-1,-1,-1,-1,-1,-1,-1,,-1,0,0,0,,0,-1,0,-1,-1,RJCT 231000Z NIL=,
20180123_110000.003,0,RJCT,,,,0,20180123110000,-1,-1,-1,-1,-1,-1,-1,-1,-1,-1,-1,,-1,0,0,0,,0,-1,0,-1,-1,RJCT 231100Z NIL=,
20180123_120000.003,0,RJCT,,,,0,20180123120000,-1,-1,-1,-1,-1,-1,-1,-1,-1,-1,-1,,-1,0,0,0,,0,-1,0,-1,-1,RJCT 231200Z NIL=,
20180123_130000.003,0,RJCT,,,,0,20180123130000,-1,-1,-1,-1,-1,-1,-1,-1,-1,-1,-1,,-1,0,0,0,,0,-1,0,-1,-1,RJCT 231300Z NIL=,
20180123_140000.003,0,RJCT,,,,0,20180123140000,-1,-1,-1,-1,-1,-1,-1,-1,-1,-1,-1,,-1,0,0,0,,0,-1,0,-1,-1,RJCT 231400Z NIL=,
20180123_150000.003,0,RJCT,,,,0,20180123150000,-1,-1,-1,-1,-1,-1,-1,-1,-1,-1,-1,,-1,0,0,0,,0,-1,0,-1,-1,RJCT 231500Z NIL=,
20180123_160000.003,0,RJCT,,,,0,20180123160000,-1,-1,-1,-1,-1,-1,-1,-1,-1,-1,-1,,-1,0,0,0,,0,-1,0,-1,-1,RJCT 231600Z NIL=,
20180123_170000.003,0,RJCT,,,,0,20180123170000,-1,-1,-1,-1,-1,-1,-1,-1,-1,-1,-1,,-1,0,0,0,,0,-1,0,-1,-1,RJCT 231700Z NIL=,
20180123_180000.003,0,RJCT,,,,0,20180123180000,-1,-1,-1,-1,-1,-1,-1,-1,-1,-1,-1,,-1,0,0,0,,0,-1,0,-1,-1,RJCT 231800Z NIL=,
20180123_190000.003,0,RJCT,,,,0,20180123190000,-1,-1,-1,-1,-1,-1,-1,-1,-1,-1,-1,,-1,0,0,0,,0,-1,0,-1,-1,RJCT 231900Z NIL=,
20180123_200000.003,0,RJCT,,,,0,20180123200000,-1,-1,-1,-1,-1,-1,-1,-1,-1,-1,-1,,-1,0,0,0,,0,-1,0,-1,-1,RJCT 232000Z NIL=,
20180123_210000.003,0,RJCT,,,,0,20180123210000,-1,-1,-1,-1,-1,-1,-1,-1,-1,-1,-1,,-1,0,0,0,,0,-1,0,-1,-1,RJCT 232100Z NIL=,
20180123_220000.003,0,RJCT,,,,0,20180123220000,-1,-1,-1,-1,0,-1,0,-1,-1,-1,-1,,9999,0,0,1,FEW 40,-1,14,-1,16,997,RJCT 232200Z 00000KT 9999 FEW040 M14/M16 Q0997 RMK 1CU040     A2946=,
20180123_230000.003,0,RJCT,,,,0,20180123230000,-1,-1,-1,-1,0,-1,0,-1,-1,-1,-1,,9999,0,0,2,FEW 40   SCT 50,-1,12,-1,14,997,RJCT 232300Z 00000KT 9999 FEW040 SCT050 M12/M14 Q0997 RMK     1CU040 3CU050 A2946=,
20180124_000000.003,0,RJCT,,,,0,20180124000000,-1,-1,-1,-1,150,-1,3,-1,-1,-1,-1,,9999,0,0,1,FEW 40,-1,9,-1,13,997,RJCT 240000Z 15003KT 9999 FEW040 M09/M13 Q0997 RMK 2CU040     A2946=,
20180124_010000.004,0,RJCT,,,,0,20180124010000,-1,-1,-1,-1,210,-1,4,-1,-1,-1,-1,,9999,0,0,2,FEW 30   BKN 40,-1,6,-1,13,998,RJCT 240100Z 21004KT 9999 FEW030 BKN040 M06/M13 Q0998 RMK     1CU030 5CU040 A2947=,
20180124_020000.003,0,RJCT,,,,0,20180124020000,-1,-1,-1,-1,140,-1,3,-1,-1,-1,-1,,9999,0,0,2,FEW 30   SCT 40,-1,6,-1,13,997,RJCT 240200Z 14003KT 9999 FEW030 SCT040 M06/M13 Q0997 RMK     1CU030 3CU040 A2945=,
20180124_030000.003,0,RJCT,,,,0,20180124030000,-1,-1,-1,-1,220,-1,7,-1,-1,-1,-1,,9999,0,0,2,FEW 30   SCT 40,-1,3,-1,18,996,RJCT 240300Z 22007KT 9999 FEW030 SCT040 M03/M18 Q0996 RMK     1CU030 3CU040 A2941=,
20180124_040000.003,0,RJCT,,,,0,20180124040000,-1,-1,-1,-1,210,-1,7,-1,-1,-1,-1,,9999,0,0,2,FEW 30   SCT 40,-1,4,-1,17,995,RJCT 240400Z 21007KT 9999 FEW030 SCT040 M04/M17 Q0995 RMK     1CU030 4CU040 A2940=,
20180124_050000.003,0,RJCT,,,,0,20180124050000,-1,-1,-1,-1,220,-1,6,-1,-1,-1,-1,,9999,0,0,2,FEW 30   SCT 40,-1,4,-1,17,995,RJCT 240500Z 22006KT 9999 FEW030 SCT040 M04/M17 Q0995 RMK     1CU030 3CU040 A2939=,
20180124_060000.003,0,RJCT,,,,0,20180124060000,-1,-1,-1,-1,150,-1,10,-1,-1,-1,-1,,9999,0,0,2,FEW 30   BKN 40,-1,5,-1,13,995,RJCT 240600Z 15010KT 9999 FEW030 BKN040 M05/M13 Q0995 RMK     1CU030 5CU040 A2939=,
20180124_070000.003,0,RJCT,,,,0,20180124070000,-1,-1,-1,-1,200,-1,6,-1,-1,-1,-1,,9999,0,0,2,FEW 30   BKN 40,-1,7,-1,11,996,RJCT 240700Z 20006KT 9999 FEW030 BKN040 M07/M11 Q0996 RMK     1CU030 5CU040 A2941=,
20180124_080000.003,0,RJCT,,,,0,20180124080000,-1,-1,-1,-1,310,-1,6,-1,-1,-1,-1,,9999,0,0,1,FEW 40,-1,8,-1,14,996,RJCT 240800Z 31006KT 9999 FEW040 M08/M14 Q0996 RMK 2CU040     A2942=,
20180124_090000.004,0,RJCT,,,,0,20180124090000,-1,-1,-1,-1,300,-1,5,-1,-1,-1,-1,,9999,0,0,1,FEW 40,-1,9,-1,17,997,RJCT 240900Z 30005KT 9999 FEW040 M09/M17 Q0997 RMK 2CU040     A2944=,
20180124_100000.003,0,RJCT,,,,0,20180124100000,-1,-1,-1,-1,-1,-1,-1,-1,-1,-1,-1,,-1,0,0,0,,0,-1,0,-1,-1,RJCT 241000Z NIL=,
20180124_110000.003,0,RJCT,,,,0,20180124110000,-1,-1,-1,-1,-1,-1,-1,-1,-1,-1,-1,,-1,0,0,0,,0,-1,0,-1,-1,RJCT 241100Z NIL=,
20180124_120000.003,0,RJCT,,,,0,20180124120000,-1,-1,-1,-1,-1,-1,-1,-1,-1,-1,-1,,-1,0,0,0,,0,-1,0,-1,-1,RJCT 241200Z NIL=,
20180124_130000.003,0,RJCT,,,,0,20180124130000,-1,-1,-1,-1,-1,-1,-1,-1,-1,-1,-1,,-1,0,0,0,,0,-1,0,-1,-1,RJCT 241300Z NIL=,
20180124_140000.004,0,RJCT,,,,0,20180124140000,-1,-1,-1,-1,-1,-1,-1,-1,-1,-1,-1,,-1,0,0,0,,0,-1,0,-1,-1,RJCT 241400Z NIL=,
20180124_150000.003,0,RJCT,,,,0,20180124150000,-1,-1,-1,-1,-1,-1,-1,-1,-1,-1,-1,,-1,0,0,0,,0,-1,0,-1,-1,RJCT 241500Z NIL=,
20180124_160000.003,0,RJCT,,,,0,20180124160000,-1,-1,-1,-1,-1,-1,-1,-1,-1,-1,-1,,-1,0,0,0,,0,-1,0,-1,-1,RJCT 241600Z NIL=,
20180124_170000.003,0,RJCT,,,,0,20180124170000,-1,-1,-1,-1,-1,-1,-1,-1,-1,-1,-1,,-1,0,0,0,,0,-1,0,-1,-1,RJCT 241700Z NIL=,
20180124_180000.003,0,RJCT,,,,0,20180124180000,-1,-1,-1,-1,-1,-1,-1,-1,-1,-1,-1,,-1,0,0,0,,0,-1,0,-1,-1,RJCT 241800Z NIL=,
20180124_190000.004,0,RJCT,,,,0,20180124190000,-1,-1,-1,-1,-1,-1,-1,-1,-1,-1,-1,,-1,0,0,0,,0,-1,0,-1,-1,RJCT 241900Z NIL=,
20180124_200000.003,0,RJCT,,,,0,20180124200000,-1,-1,-1,-1,-1,-1,-1,-1,-1,-1,-1,,-1,0,0,0,,0,-1,0,-1,-1,RJCT 242000Z NIL=,
20180124_210000.004,0,RJCT,,,,0,20180124210000,-1,-1,-1,-1,-1,-1,-1,-1,-1,-1,-1,,-1,0,0,0,,0,-1,0,-1,-1,RJCT 242100Z NIL=,
20180124_220000.003,0,RJCT,,,,0,20180124220000,-1,-1,-1,-1,180,-1,2,-1,-1,-1,-1,,9999,0,0,2,FEW 40   BKN 80,-1,18,-1,22,994,RJCT 242200Z 18002KT 9999 FEW040 BKN080 M18/M22 Q0994 RMK     1CU040 6AC080 A2938=,
20180124_230000.003,0,RJCT,,,,0,20180124230000,-1,-1,-1,-1,999,-1,1,-1,-1,-1,-1,,9999,0,0,2,FEW 40   BKN 80,-1,16,-1,20,995,RJCT 242300Z VRB01KT 9999 FEW040 BKN080 M16/M20 Q0995 RMK     1CU040 7AC080 A2939=,
20180125_000000.003,0,RJCT,,,,0,20180125000000,-1,-1,-1,-1,200,-1,4,-1,-1,-1,-1,,9999,0,0,2,FEW 40   BKN 80,-1,11,-1,18,995,RJCT 250000Z 20004KT 9999 FEW040 BKN080 M11/M18 Q0995 RMK     1CU040 7AC080 A2939=,
20180125_010000.003,0,RJCT,,,,0,20180125010000,-1,-1,-1,-1,210,-1,4,-1,-1,-1,-1,,9999,0,0,2,FEW 40   BKN 80,-1,8,-1,17,994,RJCT 250100Z 21004KT 9999 FEW040 BKN080 M08/M17 Q0994 RMK     1CU040 5AC080 A2936=,
20180125_020000.004,0,RJCT,,,,0,20180125020000,-1,-1,-1,-1,300,-1,5,-1,-1,-1,-1,,9999,0,0,2,FEW 40   SCT 100,-1,5,-1,15,993,RJCT 250200Z 30005KT 9999 FEW040 SCT100 M05/M15 Q0993 RMK     1CU040 4AC100 A2935=,
20180125_030000.003,0,RJCT,,,,0,20180125030000,-1,-1,-1,-1,300,-1,9,-1,-1,-1,-1,,9999,0,0,2,FEW 40   SCT 100,-1,3,-1,15,992,RJCT 250300Z 30009KT 9999 FEW040 SCT100 M03/M15 Q0992 RMK     1CU040 4AC100 A2931 MAX WIND 18KT=,
20180125_040000.003,0,RJCT,,,,0,20180125040000,-1,-1,-1,-1,290,-1,14,-1,27,-1,-1,,9999,0,0,2,FEW 40   BKN 200,-1,3,-1,15,992,RJCT 250400Z 29014G27KT 9999 FEW040 BKN200 M03/M15 Q0992 RMK     1CU040 5CI200 A2929=,
20180125_050000.003,0,RJCT,,,,0,20180125050000,-1,-1,-1,-1,290,-1,13,-1,25,-1,-1,,9999,0,0,1,FEW 40,-1,2,-1,14,992,RJCT 250500Z 29013G25KT 9999 FEW040 M02/M14 Q0992 RMK 2CU040     A2929=,
20180125_060000.003,0,RJCT,,,,0,20180125060000,-1,-1,-1,-1,290,-1,10,-1,21,-1,-1,,9999,0,0,1,FEW 40,-1,3,-1,14,992,RJCT 250600Z 29010G21KT 9999 FEW040 M03/M14 Q0992 RMK 2CU040     A2929=,
20180125_070000.003,0,RJCT,,,,0,20180125070000,-1,-1,-1,-1,300,-1,7,-1,-1,-1,-1,,9999,0,0,1,FEW 40,-1,5,-1,14,992,RJCT 250700Z 30007KT 9999 FEW040 M05/M14 Q0992 RMK 2CU040     A2931=,
20180125_080000.003,0,RJCT,,,,0,20180125080000,-1,-1,-1,-1,310,-1,5,-1,-1,-1,-1,,9999,0,0,1,FEW 40,-1,6,-1,13,992,RJCT 250800Z 31005KT 9999 FEW040 M06/M13 Q0992 RMK 2CU040     A2931=,
20180125_090000.003,0,RJCT,,,,0,20180125090000,-1,-1,-1,-1,320,-1,6,-1,-1,-1,-1,,9999,0,0,1,FEW 40,-1,6,-1,14,992,RJCT 250900Z 32006KT 9999 FEW040 M06/M14 Q0992 RMK 2CU040     A2931=,
20180125_100000.004,0,RJCT,,,,0,20180125100000,-1,-1,-1,-1,-1,-1,-1,-1,-1,-1,-1,,-1,0,0,0,,0,-1,0,-1,-1,RJCT 251000Z NIL=,
20180125_110000.004,0,RJCT,,,,0,20180125110000,-1,-1,-1,-1,-1,-1,-1,-1,-1,-1,-1,,-1,0,0,0,,0,-1,0,-1,-1,RJCT 251100Z NIL=,
20180125_120000.003,0,RJCT,,,,0,20180125120000,-1,-1,-1,-1,-1,-1,-1,-1,-1,-1,-1,,-1,0,0,0,,0,-1,0,-1,-1,RJCT 251200Z NIL=,
20180125_130000.003,0,RJCT,,,,0,20180125130000,-1,-1,-1,-1,-1,-1,-1,-1,-1,-1,-1,,-1,0,0,0,,0,-1,0,-1,-1,RJCT 251300Z NIL=,
20180125_140000.003,0,RJCT,,,,0,20180125140000,-1,-1,-1,-1,-1,-1,-1,-1,-1,-1,-1,,-1,0,0,0,,0,-1,0,-1,-1,RJCT 251400Z NIL=,
20180125_150000.003,0,RJCT,,,,0,20180125150000,-1,-1,-1,-1,-1,-1,-1,-1,-1,-1,-1,,-1,0,0,0,,0,-1,0,-1,-1,RJCT 251500Z NIL=,
20180125_160000.003,0,RJCT,,,,0,20180125160000,-1,-1,-1,-1,-1,-1,-1,-1,-1,-1,-1,,-1,0,0,0,,0,-1,0,-1,-1,RJCT 251600Z NIL=,
20180125_170000.003,0,RJCT,,,,0,20180125170000,-1,-1,-1,-1,-1,-1,-1,-1,-1,-1,-1,,-1,0,0,0,,0,-1,0,-1,-1,RJCT 251700Z NIL=,
20180125_180000.003,0,RJCT,,,,0,20180125180000,-1,-1,-1,-1,-1,-1,-1,-1,-1,-1,-1,,-1,0,0,0,,0,-1,0,-1,-1,RJCT 251800Z NIL=,
20180125_190000.003,0,RJCT,,,,0,20180125190000,-1,-1,-1,-1,-1,-1,-1,-1,-1,-1,-1,,-1,0,0,0,,0,-1,0,-1,-1,RJCT 251900Z NIL=,
20180125_200000.004,0,RJCT,,,,0,20180125200000,-1,-1,-1,-1,-1,-1,-1,-1,-1,-1,-1,,-1,0,0,0,,0,-1,0,-1,-1,RJCT 252000Z NIL=,
20180125_210000.003,0,RJCT,,,,0,20180125210000,-1,-1,-1,-1,-1,-1,-1,-1,-1,-1,-1,,-1,0,0,0,,0,-1,0,-1,-1,RJCT 252100Z NIL=,
20180125_220000.003,0,RJCT,,,,0,20180125220000,-1,-1,-1,-1,290,-1,6,-1,-1,-1,-1,,9999,0,0,1,FEW 40,-1,6,-1,13,993,RJCT 252200Z 29006KT 9999 FEW040 M06/M13 Q0993 RMK 2CU040     A2934=,
20180125_230000.003,0,RJCT,,,,0,20180125230000,-1,-1,-1,-1,290,-1,8,-1,-1,-1,-1,,9999,0,0,2,FEW 40   SCT 120,-1,5,-1,12,994,RJCT 252300Z 29008KT 9999 FEW040 SCT120 M05/M12 Q0994 RMK     2CU040 3AC120 A2936=,
20180126_000000.003,0,RJCT,,,,0,20180126000000,-1,-1,-1,-1,290,-1,8,-1,-1,-1,-1,,9999,0,0,2,FEW 40   SCT 120,-1,4,-1,12,995,RJCT 260000Z 29008KT 9999 FEW040 SCT120 M04/M12 Q0995 RMK     1CU040 3AC120 A2938=,
20180126_010000.003,0,RJCT,,,,0,20180126010000,-1,-1,-1,-1,300,-1,10,-1,-1,-1,-1,,9999,0,0,1,FEW 40,-1,3,-1,12,995,RJCT 260100Z 30010KT 9999 FEW040 M03/M12 Q0995 RMK 1CU040     A2939=,
20180126_020000.003,0,RJCT,,,,0,20180126020000,-1,-1,-1,-1,300,-1,10,-1,-1,-1,-1,,9999,0,0,1,FEW 40,-1,2,-1,12,995,RJCT 260200Z 30010KT 9999 FEW040 M02/M12 Q0995 RMK 1CU040     A2939=,
20180126_030000.003,0,RJCT,,,,0,20180126030000,-1,-1,-1,-1,290,-1,14,-1,26,-1,-1,,9999,0,0,1,FEW 40,-1,1,-1,11,995,RJCT 260300Z 29014G26KT 9999 FEW040 M01/M11 Q0995 RMK 2CU040     A2939=,
20180126_040000.003,0,RJCT,,,,0,20180126040000,-1,-1,-1,-1,310,-1,11,-1,-1,-1,-1,,9999,0,0,1,FEW 40,-1,1,-1,12,995,RJCT 260400Z 31011KT 9999 FEW040 M01/M12 Q0995 RMK 2CU040     A2939=,
20180126_050000.003,0,RJCT,,,,0,20180126050000,-1,-1,-1,-1,300,-1,10,-1,-1,-1,-1,,9999,0,0,1,FEW 40,-1,2,-1,11,995,RJCT 260500Z 30010KT 9999 FEW040 M02/M11 Q0995 RMK 2CU040     A2940=,
20180126_060000.003,0,RJCT,,,,0,20180126060000,-1,-1,-1,-1,300,-1,9,-1,19,-1,-1,,9999,0,0,1,FEW 40,-1,3,-1,11,996,RJCT 260600Z 30009G19KT 9999 FEW040 M03/M11 Q0996 RMK 2CU040     A2942=,
20180126_070000.003,0,RJCT,,,,0,20180126070000,-1,-1,-1,-1,300,-1,6,-1,-1,-1,-1,,9999,0,0,1,FEW 40,-1,4,-1,12,996,RJCT 260700Z 30006KT 9999 FEW040 M04/M12 Q0996 RMK 2CU040     A2943=,
20180126_080000.004,0,RJCT,,,,0,20180126080000,-1,-1,-1,-1,300,-1,6,-1,-1,-1,-1,,9999,0,0,1,FEW 40,-1,4,-1,12,997,RJCT 260800Z 30006KT 9999 FEW040 M04/M12 Q0997 RMK 1CU040     A2945=,
20180126_090000.003,0,RJCT,,,,0,20180126090000,-1,-1,-1,-1,-1,-1,-1,-1,-1,-1,-1,,-1,0,0,0,,0,-1,0,-1,-1,RJCT 260900Z NIL=,
20180126_100000.003,0,RJCT,,,,0,20180126100000,-1,-1,-1,-1,-1,-1,-1,-1,-1,-1,-1,,-1,0,0,0,,0,-1,0,-1,-1,RJCT 261000Z NIL=,
20180126_110000.003,0,RJCT,,,,0,20180126110000,-1,-1,-1,-1,-1,-1,-1,-1,-1,-1,-1,,-1,0,0,0,,0,-1,0,-1,-1,RJCT 261100Z NIL=,
20180126_120000.003,0,RJCT,,,,0,20180126120000,-1,-1,-1,-1,-1,-1,-1,-1,-1,-1,-1,,-1,0,0,0,,0,-1,0,-1,-1,RJCT 261200Z NIL=,
20180126_130000.003,0,RJCT,,,,0,20180126130000,-1,-1,-1,-1,-1,-1,-1,-1,-1,-1,-1,,-1,0,0,0,,0,-1,0,-1,-1,RJCT 261300Z NIL=,
20180126_140000.003,0,RJCT,,,,0,20180126140000,-1,-1,-1,-1,-1,-1,-1,-1,-1,-1,-1,,-1,0,0,0,,0,-1,0,-1,-1,RJCT 261400Z NIL=,
20180126_150000.003,0,RJCT,,,,0,20180126150000,-1,-1,-1,-1,-1,-1,-1,-1,-1,-1,-1,,-1,0,0,0,,0,-1,0,-1,-1,RJCT 261500Z NIL=,
20180126_160000.003,0,RJCT,,,,0,20180126160000,-1,-1,-1,-1,-1,-1,-1,-1,-1,-1,-1,,-1,0,0,0,,0,-1,0,-1,-1,RJCT 261600Z NIL=,
20180126_170000.003,0,RJCT,,,,0,20180126170000,-1,-1,-1,-1,-1,-1,-1,-1,-1,-1,-1,,-1,0,0,0,,0,-1,0,-1,-1,RJCT 261700Z NIL=,
20180126_180000.003,0,RJCT,,,,0,20180126180000,-1,-1,-1,-1,-1,-1,-1,-1,-1,-1,-1,,-1,0,0,0,,0,-1,0,-1,-1,RJCT 261800Z NIL=,
20180126_190000.003,0,RJCT,,,,0,20180126190000,-1,-1,-1,-1,-1,-1,-1,-1,-1,-1,-1,,-1,0,0,0,,0,-1,0,-1,-1,RJCT 261900Z NIL=,
20180126_200000.004,0,RJCT,,,,0,20180126200000,-1,-1,-1,-1,-1,-1,-1,-1,-1,-1,-1,,-1,0,0,0,,0,-1,0,-1,-1,RJCT 262000Z NIL=,
20180126_210000.003,0,RJCT,,,,0,20180126210000,-1,-1,-1,-1,-1,-1,-1,-1,-1,-1,-1,,-1,0,0,0,,0,-1,0,-1,-1,RJCT 262100Z NIL=,
20180126_220000.003,0,RJCT,,,,0,20180126220000,-1,-1,-1,-1,-1,-1,-1,-1,-1,-1,-1,,-1,0,0,0,,0,-1,0,-1,-1,RJCT 262200Z NIL=,
20180126_230000.003,0,RJCT,,,,0,20180126230000,-1,-1,-1,-1,-1,-1,-1,-1,-1,-1,-1,,-1,0,0,0,,0,-1,0,-1,-1,RJCT 262300Z NIL=,
20180127_000000.003,0,RJCT,,,,0,20180127000000,-1,-1,-1,-1,-1,-1,-1,-1,-1,-1,-1,,-1,0,0,0,,0,-1,0,-1,-1,RJCT 270000Z NIL=,
20180127_010000.003,0,RJCT,,,,0,20180127010000,-1,-1,-1,-1,-1,-1,-1,-1,-1,-1,-1,,-1,0,0,0,,0,-1,0,-1,-1,RJCT 270100Z NIL=,
20180127_020000.003,0,RJCT,,,,0,20180127020000,-1,-1,-1,-1,-1,-1,-1,-1,-1,-1,-1,,-1,0,0,0,,0,-1,0,-1,-1,RJCT 270200Z NIL=,
20180127_030000.003,0,RJCT,,,,0,20180127030000,-1,-1,-1,-1,-1,-1,-1,-1,-1,-1,-1,,-1,0,0,0,,0,-1,0,-1,-1,RJCT 270300Z NIL=,
20180127_040000.003,0,RJCT,,,,0,20180127040000,-1,-1,-1,-1,-1,-1,-1,-1,-1,-1,-1,,-1,0,0,0,,0,-1,0,-1,-1,RJCT 270400Z NIL=,
20180127_050000.003,0,RJCT,,,,0,20180127050000,-1,-1,-1,-1,-1,-1,-1,-1,-1,-1,-1,,-1,0,0,0,,0,-1,0,-1,-1,RJCT 270500Z NIL=,
20180127_060000.003,0,RJCT,,,,0,20180127060000,-1,-1,-1,-1,-1,-1,-1,-1,-1,-1,-1,,-1,0,0,0,,0,-1,0,-1,-1,RJCT 270600Z NIL=,
20180127_070000.003,0,RJCT,,,,0,20180127070000,-1,-1,-1,-1,-1,-1,-1,-1,-1,-1,-1,,-1,0,0,0,,0,-1,0,-1,-1,RJCT 270700Z NIL=,
20180127_080000.003,0,RJCT,,,,0,20180127080000,-1,-1,-1,-1,-1,-1,-1,-1,-1,-1,-1,,-1,0,0,0,,0,-1,0,-1,-1,RJCT 270800Z NIL=,
20180127_090000.004,0,RJCT,,,,0,20180127090000,-1,-1,-1,-1,-1,-1,-1,-1,-1,-1,-1,,-1,0,0,0,,0,-1,0,-1,-1,RJCT 270900Z NIL=,
20180127_100000.003,0,RJCT,,,,0,20180127100000,-1,-1,-1,-1,-1,-1,-1,-1,-1,-1,-1,,-1,0,0,0,,0,-1,0,-1,-1,RJCT 271000Z NIL=,
20180127_110000.003,0,RJCT,,,,0,20180127110000,-1,-1,-1,-1,-1,-1,-1,-1,-1,-1,-1,,-1,0,0,0,,0,-1,0,-1,-1,RJCT 271100Z NIL=,
20180127_120000.003,0,RJCT,,,,0,20180127120000,-1,-1,-1,-1,-1,-1,-1,-1,-1,-1,-1,,-1,0,0,0,,0,-1,0,-1,-1,RJCT 271200Z NIL=,
20180127_130000.003,0,RJCT,,,,0,20180127130000,-1,-1,-1,-1,-1,-1,-1,-1,-1,-1,-1,,-1,0,0,0,,0,-1,0,-1,-1,RJCT 271300Z NIL=,
20180127_140000.004,0,RJCT,,,,0,20180127140000,-1,-1,-1,-1,-1,-1,-1,-1,-1,-1,-1,,-1,0,0,0,,0,-1,0,-1,-1,RJCT 271400Z NIL=,
20180127_150000.003,0,RJCT,,,,0,20180127150000,-1,-1,-1,-1,-1,-1,-1,-1,-1,-1,-1,,-1,0,0,0,,0,-1,0,-1,-1,RJCT 271500Z NIL=,
20180127_160000.003,0,RJCT,,,,0,20180127160000,-1,-1,-1,-1,-1,-1,-1,-1,-1,-1,-1,,-1,0,0,0,,0,-1,0,-1,-1,RJCT 271600Z NIL=,
20180127_170000.003,0,RJCT,,,,0,20180127170000,-1,-1,-1,-1,-1,-1,-1,-1,-1,-1,-1,,-1,0,0,0,,0,-1,0,-1,-1,RJCT 271700Z NIL=,
20180127_180000.003,0,RJCT,,,,0,20180127180000,-1,-1,-1,-1,-1,-1,-1,-1,-1,-1,-1,,-1,0,0,0,,0,-1,0,-1,-1,RJCT 271800Z NIL=,
20180127_190000.003,0,RJCT,,,,0,20180127190000,-1,-1,-1,-1,-1,-1,-1,-1,-1,-1,-1,,-1,0,0,0,,0,-1,0,-1,-1,RJCT 271900Z NIL=,
20180127_200000.003,0,RJCT,,,,0,20180127200000,-1,-1,-1,-1,-1,-1,-1,-1,-1,-1,-1,,-1,0,0,0,,0,-1,0,-1,-1,RJCT 272000Z NIL=,
20180127_210000.003,0,RJCT,,,,0,20180127210000,-1,-1,-1,-1,-1,-1,-1,-1,-1,-1,-1,,-1,0,0,0,,0,-1,0,-1,-1,RJCT 272100Z NIL=,
20180127_220000.003,0,RJCT,,,,0,20180127220000,-1,-1,-1,-1,-1,-1,-1,-1,-1,-1,-1,,-1,0,0,0,,0,-1,0,-1,-1,RJCT 272200Z NIL=,
20180127_230000.003,0,RJCT,,,,0,20180127230000,-1,-1,-1,-1,-1,-1,-1,-1,-1,-1,-1,,-1,0,0,0,,0,-1,0,-1,-1,RJCT 272300Z NIL=,
20180128_000000.004,0,RJCT,,,,0,20180128000000,-1,-1,-1,-1,-1,-1,-1,-1,-1,-1,-1,,-1,0,0,0,,0,-1,0,-1,-1,RJCT 280000Z NIL=,
20180128_010000.003,0,RJCT,,,,0,20180128010000,-1,-1,-1,-1,-1,-1,-1,-1,-1,-1,-1,,-1,0,0,0,,0,-1,0,-1,-1,RJCT 280100Z NIL=,
20180128_020000.003,0,RJCT,,,,0,20180128020000,-1,-1,-1,-1,-1,-1,-1,-1,-1,-1,-1,,-1,0,0,0,,0,-1,0,-1,-1,RJCT 280200Z NIL=,
20180128_030000.003,0,RJCT,,,,0,20180128030000,-1,-1,-1,-1,-1,-1,-1,-1,-1,-1,-1,,-1,0,0,0,,0,-1,0,-1,-1,RJCT 280300Z NIL=,
20180128_040000.003,0,RJCT,,,,0,20180128040000,-1,-1,-1,-1,-1,-1,-1,-1,-1,-1,-1,,-1,0,0,0,,0,-1,0,-1,-1,RJCT 280400Z NIL=,
20180128_050000.003,0,RJCT,,,,0,20180128050000,-1,-1,-1,-1,-1,-1,-1,-1,-1,-1,-1,,-1,0,0,0,,0,-1,0,-1,-1,RJCT 280500Z NIL=,
20180128_060000.003,0,RJCT,,,,0,20180128060000,-1,-1,-1,-1,-1,-1,-1,-1,-1,-1,-1,,-1,0,0,0,,0,-1,0,-1,-1,RJCT 280600Z NIL=,
20180128_070000.004,0,RJCT,,,,0,20180128070000,-1,-1,-1,-1,-1,-1,-1,-1,-1,-1,-1,,-1,0,0,0,,0,-1,0,-1,-1,RJCT 280700Z NIL=,
20180128_080000.003,0,RJCT,,,,0,20180128080000,-1,-1,-1,-1,-1,-1,-1,-1,-1,-1,-1,,-1,0,0,0,,0,-1,0,-1,-1,RJCT 280800Z NIL=,
20180128_090000.003,0,RJCT,,,,0,20180128090000,-1,-1,-1,-1,-1,-1,-1,-1,-1,-1,-1,,-1,0,0,0,,0,-1,0,-1,-1,RJCT 280900Z NIL=,
20180128_100000.003,0,RJCT,,,,0,20180128100000,-1,-1,-1,-1,-1,-1,-1,-1,-1,-1,-1,,-1,0,0,0,,0,-1,0,-1,-1,RJCT 281000Z NIL=,
20180128_110000.003,0,RJCT,,,,0,20180128110000,-1,-1,-1,-1,-1,-1,-1,-1,-1,-1,-1,,-1,0,0,0,,0,-1,0,-1,-1,RJCT 281100Z NIL=,
20180128_120000.003,0,RJCT,,,,0,20180128120000,-1,-1,-1,-1,-1,-1,-1,-1,-1,-1,-1,,-1,0,0,0,,0,-1,0,-1,-1,RJCT 281200Z NIL=,
20180128_130000.003,0,RJCT,,,,0,20180128130000,-1,-1,-1,-1,-1,-1,-1,-1,-1,-1,-1,,-1,0,0,0,,0,-1,0,-1,-1,RJCT 281300Z NIL=,
20180128_140000.003,0,RJCT,,,,0,20180128140000,-1,-1,-1,-1,-1,-1,-1,-1,-1,-1,-1,,-1,0,0,0,,0,-1,0,-1,-1,RJCT 281400Z NIL=,
20180128_150000.003,0,RJCT,,,,0,20180128150000,-1,-1,-1,-1,-1,-1,-1,-1,-1,-1,-1,,-1,0,0,0,,0,-1,0,-1,-1,RJCT 281500Z NIL=,
20180128_160000.003,0,RJCT,,,,0,20180128160000,-1,-1,-1,-1,-1,-1,-1,-1,-1,-1,-1,,-1,0,0,0,,0,-1,0,-1,-1,RJCT 281600Z NIL=,
20180128_170000.003,0,RJCT,,,,0,20180128170000,-1,-1,-1,-1,-1,-1,-1,-1,-1,-1,-1,,-1,0,0,0,,0,-1,0,-1,-1,RJCT 281700Z NIL=,
20180128_180000.003,0,RJCT,,,,0,20180128180000,-1,-1,-1,-1,-1,-1,-1,-1,-1,-1,-1,,-1,0,0,0,,0,-1,0,-1,-1,RJCT 281800Z NIL=,
20180128_190000.003,0,RJCT,,,,0,20180128190000,-1,-1,-1,-1,-1,-1,-1,-1,-1,-1,-1,,-1,0,0,0,,0,-1,0,-1,-1,RJCT 281900Z NIL=,
20180128_200000.003,0,RJCT,,,,0,20180128200000,-1,-1,-1,-1,-1,-1,-1,-1,-1,-1,-1,,-1,0,0,0,,0,-1,0,-1,-1,RJCT 282000Z NIL=,
20180128_210000.003,0,RJCT,,,,0,20180128210000,-1,-1,-1,-1,-1,-1,-1,-1,-1,-1,-1,,-1,0,0,0,,0,-1,0,-1,-1,RJCT 282100Z NIL=,
20180128_220000.004,0,RJCT,,,,0,20180128220000,-1,-1,-1,-1,320,-1,7,-1,18,-1,-1,,9999,0,0,1,FEW 30,-1,7,-1,14,1001,RJCT 282200Z 32007G18KT 9999 FEW030 M07/M14 Q1001 RMK 2CU030     A2957=,
20180128_230000.003,0,RJCT,,,,0,20180128230000,-1,-1,-1,-1,320,-1,6,-1,16,-1,-1,,9999,0,0,1,FEW 30,-1,7,-1,16,1002,RJCT 282300Z 32006G16KT 9999 FEW030 M07/M16 Q1002 RMK 2CU030     A2961=,
20180129_000000.004,0,RJCT,,,,0,20180129000000,-1,-1,-1,-1,320,-1,8,-1,18,-1,-1,,9999,0,0,1,FEW 30,-1,7,-1,16,1003,RJCT 290000Z 32008G18KT 9999 FEW030 M07/M16 Q1003 RMK 2CU030     A2962=,
20180129_010000.003,0,RJCT,,,,0,20180129010000,-1,-1,-1,-1,320,-1,6,-1,-1,-1,-1,,9999,0,0,1,FEW 30,-1,6,-1,15,1004,RJCT 290100Z 32006KT 9999 FEW030 M06/M15 Q1004 RMK 1CU030     A2964=,
20180129_020000.003,0,RJCT,,,,0,20180129020000,-1,-1,-1,-1,300,-1,9,-1,-1,-1,-1,,9999,0,0,1,FEW 30,-1,6,-1,16,1003,RJCT 290200Z 30009KT 9999 FEW030 M06/M16 Q1003 RMK 1CU030     A2964=,
20180129_030000.003,0,RJCT,,,,0,20180129030000,-1,-1,-1,-1,300,-1,8,-1,18,-1,-1,,9999,0,0,1,FEW 40,-1,5,-1,17,1003,RJCT 290300Z 30008G18KT 9999 FEW040 M05/M17 Q1003 RMK 1CU040     A2963=,
20180129_040000.003,0,RJCT,,,,0,20180129040000,-1,-1,-1,-1,310,-1,7,-1,-1,-1,-1,,9999,0,0,1,FEW 40,-1,5,-1,17,1003,RJCT 290400Z 31007KT 9999 FEW040 M05/M17 Q1003 RMK 2CU040     A2961 MAX WIND 16KT=,
20180129_050000.003,0,RJCT,,,,0,20180129050000,-1,-1,-1,-1,310,-1,7,-1,-1,-1,-1,,9999,0,0,1,FEW 40,-1,5,-1,16,1003,RJCT 290500Z 31007KT 9999 FEW040 M05/M16 Q1003 RMK 2CU040     A2962=,
20180129_060000.003,0,RJCT,,,,0,20180129060000,-1,-1,-1,-1,310,-1,6,-1,-1,-1,-1,,9999,0,0,1,FEW 40,-1,5,-1,17,1003,RJCT 290600Z 31006KT 9999 FEW040 M05/M17 Q1003 RMK 2CU040     A2963=,
20180129_070000.003,0,RJCT,,,,0,20180129070000,-1,-1,-1,-1,310,-1,4,-1,-1,-1,-1,,9999,0,0,1,FEW 40,-1,6,-1,17,1003,RJCT 290700Z 31004KT 9999 FEW040 M06/M17 Q1003 RMK 2CU040     A2964=,
20180129_080000.003,0,RJCT,,,,0,20180129080000,-1,-1,-1,-1,0,-1,0,-1,-1,-1,-1,,9999,0,0,1,FEW 40,-1,9,-1,17,1004,RJCT 290800Z 00000KT 9999 FEW040 M09/M17 Q1004 RMK 1CU040     A2966=,
20180129_090000.003,0,RJCT,,,,0,20180129090000,-1,-1,-1,-1,-1,-1,-1,-1,-1,-1,-1,,-1,0,0,0,,0,-1,0,-1,-1,RJCT 290900Z NIL=,
20180129_100000.003,0,RJCT,,,,0,20180129100000,-1,-1,-1,-1,-1,-1,-1,-1,-1,-1,-1,,-1,0,0,0,,0,-1,0,-1,-1,RJCT 291000Z NIL=,
20180129_110000.003,0,RJCT,,,,0,20180129110000,-1,-1,-1,-1,-1,-1,-1,-1,-1,-1,-1,,-1,0,0,0,,0,-1,0,-1,-1,RJCT 291100Z NIL=,
20180129_120000.003,0,RJCT,,,,0,20180129120000,-1,-1,-1,-1,-1,-1,-1,-1,-1,-1,-1,,-1,0,0,0,,0,-1,0,-1,-1,RJCT 291200Z NIL=,
20180129_130000.003,0,RJCT,,,,0,20180129130000,-1,-1,-1,-1,-1,-1,-1,-1,-1,-1,-1,,-1,0,0,0,,0,-1,0,-1,-1,RJCT 291300Z NIL=,
20180129_140000.003,0,RJCT,,,,0,20180129140000,-1,-1,-1,-1,-1,-1,-1,-1,-1,-1,-1,,-1,0,0,0,,0,-1,0,-1,-1,RJCT 291400Z NIL=,
20180129_150000.003,0,RJCT,,,,0,20180129150000,-1,-1,-1,-1,-1,-1,-1,-1,-1,-1,-1,,-1,0,0,0,,0,-1,0,-1,-1,RJCT 291500Z NIL=,
20180129_160000.003,0,RJCT,,,,0,20180129160000,-1,-1,-1,-1,-1,-1,-1,-1,-1,-1,-1,,-1,0,0,0,,0,-1,0,-1,-1,RJCT 291600Z NIL=,
20180129_170000.003,0,RJCT,,,,0,20180129170000,-1,-1,-1,-1,-1,-1,-1,-1,-1,-1,-1,,-1,0,0,0,,0,-1,0,-1,-1,RJCT 291700Z NIL=,
20180129_180000.003,0,RJCT,,,,0,20180129180000,-1,-1,-1,-1,-1,-1,-1,-1,-1,-1,-1,,-1,0,0,0,,0,-1,0,-1,-1,RJCT 291800Z NIL=,
20180129_190000.003,0,RJCT,,,,0,20180129190000,-1,-1,-1,-1,-1,-1,-1,-1,-1,-1,-1,,-1,0,0,0,,0,-1,0,-1,-1,RJCT 291900Z NIL=,
20180129_200000.003,0,RJCT,,,,0,20180129200000,-1,-1,-1,-1,-1,-1,-1,-1,-1,-1,-1,,-1,0,0,0,,0,-1,0,-1,-1,RJCT 292000Z NIL=,
20180129_210000.003,0,RJCT,,,,0,20180129210000,-1,-1,-1,-1,110,-1,3,-1,-1,-1,-1,,9999,0,0,1,FEW 40,-1,23,-1,25,1006,RJCT 292100Z 11003KT 9999 FEW040 M23/M25 Q1006 RMK 1CU040     A2972=,
20180129_220000.003,0,RJCT,,,,0,20180129220000,-1,-1,-1,-1,210,-1,2,-1,-1,-1,-1,,9999,0,0,1,FEW 40,-1,24,-1,26,1007,RJCT 292200Z 21002KT 9999 FEW040 M24/M26 Q1007 RMK 1CU040     A2975=,
20180129_230000.003,0,RJCT,,,,0,20180129230000,-1,-1,-1,-1,240,-1,3,-1,-1,-1,-1,,9999,0,0,1,FEW 40,-1,21,-1,24,1008,RJCT 292300Z 24003KT 9999 FEW040 M21/M24 Q1008 RMK 1CU040     A2977=,
20180130_000000.003,0,RJCT,,,,0,20180130000000,-1,-1,-1,-1,0,-1,0,-1,-1,-1,-1,,9999,0,0,1,FEW 40,-1,16,-1,20,1008,RJCT 300000Z 00000KT 9999 FEW040 M16/M20 Q1008 RMK 1CU040     A2979=,
20180130_010000.003,0,RJCT,,,,0,20180130010000,-1,-1,-1,-1,170,-1,3,-1,-1,-1,-1,,9999,0,0,1,FEW 40,-1,10,-1,19,1008,RJCT 300100Z 17003KT 9999 FEW040 M10/M19 Q1008 RMK 1CU040     A2979=,
20180130_020000.003,0,RJCT,,,,0,20180130020000,-1,-1,-1,-1,140,-1,3,-1,-1,-1,-1,,9999,0,0,1,FEW 40,-1,7,-1,18,1008,RJCT 300200Z 14003KT 9999 FEW040 M07/M18 Q1008 RMK 1CU040     A2978=,
20180130_030000.003,0,RJCT,,,,0,20180130030000,-1,-1,-1,-1,150,-1,2,-1,-1,-1,-1,,9999,0,0,1,FEW 40,-1,5,-1,19,1008,RJCT 300300Z 15002KT 9999 FEW040 M05/M19 Q1008 RMK 1CU040     A2977=,
20180130_040000.003,0,RJCT,,,,0,20180130040000,-1,-1,-1,-1,999,-1,2,-1,-1,-1,-1,,9999,0,0,1,FEW 40,-1,4,-1,18,1008,RJCT 300400Z VRB02KT 9999 FEW040 M04/M18 Q1008 RMK 2CU040     A2977=,
20180130_050000.003,0,RJCT,,,,0,20180130050000,-1,-1,-1,-1,330,-1,5,-1,-1,-1,-1,,9999,0,0,1,FEW 40,-1,4,-1,17,1008,RJCT 300500Z 33005KT 9999 FEW040 M04/M17 Q1008 RMK 2CU040     A2977=,
20180130_060000.004,0,RJCT,,,,0,20180130060000,-1,-1,-1,-1,280,-1,4,-1,-1,-1,-1,,9999,0,0,1,FEW 40,-1,5,-1,17,1008,RJCT 300600Z 28004KT 9999 FEW040 M05/M17 Q1008 RMK 2CU040     A2979=,
20180130_070000.003,0,RJCT,,,,0,20180130070000,-1,-1,-1,-1,300,-1,4,-1,-1,-1,-1,,9999,0,0,1,FEW 40,-1,5,-1,17,1009,RJCT 300700Z 30004KT 9999 FEW040 M05/M17 Q1009 RMK 2CU040     A2981=,
20180130_080000.003,0,RJCT,,,,0,20180130080000,-1,-1,-1,-1,999,-1,2,-1,-1,-1,-1,,9999,0,0,1,FEW 40,-1,10,-1,17,1010,RJCT 300800Z VRB02KT 9999 FEW040 M10/M17 Q1010 RMK 2CU040     A2983=,
20180130_090000.003,0,RJCT,,,,0,20180130090000,-1,-1,-1,-1,-1,-1,-1,-1,-1,-1,-1,,-1,0,0,0,,0,-1,0,-1,-1,RJCT 300900Z NIL=,
20180130_100000.003,0,RJCT,,,,0,20180130100000,-1,-1,-1,-1,-1,-1,-1,-1,-1,-1,-1,,-1,0,0,0,,0,-1,0,-1,-1,RJCT 301000Z NIL=,
20180130_110000.003,0,RJCT,,,,0,20180130110000,-1,-1,-1,-1,-1,-1,-1,-1,-1,-1,-1,,-1,0,0,0,,0,-1,0,-1,-1,RJCT 301100Z NIL=,
20180130_120000.003,0,RJCT,,,,0,20180130120000,-1,-1,-1,-1,-1,-1,-1,-1,-1,-1,-1,,-1,0,0,0,,0,-1,0,-1,-1,RJCT 301200Z NIL=,
20180130_130000.003,0,RJCT,,,,0,20180130130000,-1,-1,-1,-1,-1,-1,-1,-1,-1,-1,-1,,-1,0,0,0,,0,-1,0,-1,-1,RJCT 301300Z NIL=,
20180130_140000.003,0,RJCT,,,,0,20180130140000,-1,-1,-1,-1,-1,-1,-1,-1,-1,-1,-1,,-1,0,0,0,,0,-1,0,-1,-1,RJCT 301400Z NIL=,
20180130_150000.003,0,RJCT,,,,0,20180130150000,-1,-1,-1,-1,-1,-1,-1,-1,-1,-1,-1,,-1,0,0,0,,0,-1,0,-1,-1,RJCT 301500Z NIL=,
20180130_160000.003,0,RJCT,,,,0,20180130160000,-1,-1,-1,-1,-1,-1,-1,-1,-1,-1,-1,,-1,0,0,0,,0,-1,0,-1,-1,RJCT 301600Z NIL=,
20180130_170000.003,0,RJCT,,,,0,20180130170000,-1,-1,-1,-1,-1,-1,-1,-1,-1,-1,-1,,-1,0,0,0,,0,-1,0,-1,-1,RJCT 301700Z NIL=,
20180130_180000.003,0,RJCT,,,,0,20180130180000,-1,-1,-1,-1,-1,-1,-1,-1,-1,-1,-1,,-1,0,0,0,,0,-1,0,-1,-1,RJCT 301800Z NIL=,
20180130_190000.003,0,RJCT,,,,0,20180130190000,-1,-1,-1,-1,-1,-1,-1,-1,-1,-1,-1,,-1,0,0,0,,0,-1,0,-1,-1,RJCT 301900Z NIL=,
20180130_200000.003,0,RJCT,,,,0,20180130200000,-1,-1,-1,-1,-1,-1,-1,-1,-1,-1,-1,,-1,0,0,0,,0,-1,0,-1,-1,RJCT 302000Z NIL=,
20180130_210000.003,0,RJCT,,,,0,20180130210000,-1,-1,-1,-1,-1,-1,-1,-1,-1,-1,-1,,-1,0,0,0,,0,-1,0,-1,-1,RJCT 302100Z NIL=,
20180130_220000.003,0,RJCT,,,,0,20180130220000,-1,-1,-1,-1,999,-1,1,-1,-1,-1,-1,,9999,0,0,1,SCT 120,-1,22,-1,24,1016,RJCT 302200Z VRB01KT 9999 SCT120 M22/M24 Q1016 RMK 4AC120     A3002=,
20180130_230000.003,0,RJCT,,,,0,20180130230000,-1,-1,-1,-1,0,-1,0,-1,-1,-1,-1,,9999,0,0,1,SCT 120,-1,20,-1,22,1017,RJCT 302300Z 00000KT 9999 SCT120 M20/M22 Q1017 RMK 4AC120     A3003=,
20180131_000000.003,0,RJCT,,,,0,20180131000000,-1,-1,-1,-1,999,-1,2,-1,-1,-1,-1,,9999,0,0,1,SCT 120,-1,18,-1,21,1017,RJCT 310000Z VRB02KT 9999 SCT120 M18/M21 Q1017 RMK 4AC120     A3003=,
20180131_010000.003,0,RJCT,,,,0,20180131010000,-1,-1,-1,-1,999,-1,1,-1,-1,-1,-1,,9999,0,0,2,FEW 40   SCT 120,-1,13,-1,19,1017,RJCT 310100Z VRB01KT 9999 FEW040 SCT120 M13/M19 Q1017 RMK     1CU040 4AC120 A3003=,
20180131_020000.003,0,RJCT,,,,0,20180131020000,-1,-1,-1,-1,260,-1,3,-1,-1,-1,-1,,9999,0,0,1,FEW 40,-1,9,-1,17,1017,RJCT 310200Z 26003KT 9999 FEW040 M09/M17 Q1017 RMK 1CU040     A3003=,
20180131_030000.003,0,RJCT,,,,0,20180131030000,-1,-1,-1,-1,999,-1,1,-1,-1,-1,-1,,9999,0,0,1,FEW 40,-1,6,-1,16,1016,RJCT 310300Z VRB01KT 9999 FEW040 M06/M16 Q1016 RMK 1CU040     A3002=,
20180131_040000.003,0,RJCT,,,,0,20180131040000,-1,-1,-1,-1,999,-1,2,-1,-1,-1,-1,,9999,0,0,2,FEW 40   SCT 180,-1,4,-1,16,1016,RJCT 310400Z VRB02KT 9999 FEW040 SCT180 M04/M16 Q1016 RMK     1CU040 3CI180 A3001=,
20180131_050000.003,0,RJCT,,,,0,20180131050000,-1,-1,-1,-1,300,-1,3,-1,-1,-1,-1,,9999,0,0,1,FEW 40,-1,4,-1,15,1016,RJCT 310500Z 30003KT 9999 FEW040 M04/M15 Q1016 RMK 1CU040     A3000=,
20180131_060000.003,0,RJCT,,,,0,20180131060000,-1,-1,-1,-1,260,-1,3,-1,-1,-1,-1,,9999,0,0,1,FEW 40,-1,3,-1,16,1016,RJCT 310600Z 26003KT 9999 FEW040 M03/M16 Q1016 RMK 2CU040     A3002=,
20180131_070000.004,0,RJCT,,,,0,20180131070000,-1,-1,-1,-1,999,-1,1,-1,-1,-1,-1,,9999,0,0,1,FEW 40,-1,4,-1,15,1017,RJCT 310700Z VRB01KT 9999 FEW040 M04/M15 Q1017 RMK 2CU040     A3004=,
20180131_080000.004,0,RJCT,,,,0,20180131080000,-1,-1,-1,-1,999,-1,2,-1,-1,-1,-1,,9999,0,0,1,FEW 40,-1,8,-1,15,1018,RJCT 310800Z VRB02KT 9999 FEW040 M08/M15 Q1018 RMK 1CU040     A3006=,
20180131_090000.003,0,RJCT,,,,0,20180131090000,-1,-1,-1,-1,-1,-1,-1,-1,-1,-1,-1,,-1,0,0,0,,0,-1,0,-1,-1,RJCT 310900Z NIL=,
20180131_100000.003,0,RJCT,,,,0,20180131100000,-1,-1,-1,-1,-1,-1,-1,-1,-1,-1,-1,,-1,0,0,0,,0,-1,0,-1,-1,RJCT 311000Z NIL=,
20180131_110000.003,0,RJCT,,,,0,20180131110000,-1,-1,-1,-1,-1,-1,-1,-1,-1,-1,-1,,-1,0,0,0,,0,-1,0,-1,-1,RJCT 311100Z NIL=,
20180131_120000.003,0,RJCT,,,,0,20180131120000,-1,-1,-1,-1,-1,-1,-1,-1,-1,-1,-1,,-1,0,0,0,,0,-1,0,-1,-1,RJCT 311200Z NIL=,
20180131_130000.004,0,RJCT,,,,0,20180131130000,-1,-1,-1,-1,-1,-1,-1,-1,-1,-1,-1,,-1,0,0,0,,0,-1,0,-1,-1,RJCT 311300Z NIL=,
20180131_140000.003,0,RJCT,,,,0,20180131140000,-1,-1,-1,-1,-1,-1,-1,-1,-1,-1,-1,,-1,0,0,0,,0,-1,0,-1,-1,RJCT 311400Z NIL=,
20180131_150000.003,0,RJCT,,,,0,20180131150000,-1,-1,-1,-1,-1,-1,-1,-1,-1,-1,-1,,-1,0,0,0,,0,-1,0,-1,-1,RJCT 311500Z NIL=,
20180131_160000.003,0,RJCT,,,,0,20180131160000,-1,-1,-1,-1,-1,-1,-1,-1,-1,-1,-1,,-1,0,0,0,,0,-1,0,-1,-1,RJCT 311600Z NIL=,
20180131_170000.003,0,RJCT,,,,0,20180131170000,-1,-1,-1,-1,-1,-1,-1,-1,-1,-1,-1,,-1,0,0,0,,0,-1,0,-1,-1,RJCT 311700Z NIL=,
20180131_180000.003,0,RJCT,,,,0,20180131180000,-1,-1,-1,-1,-1,-1,-1,-1,-1,-1,-1,,-1,0,0,0,,0,-1,0,-1,-1,RJCT 311800Z NIL=,
20180131_190000.004,0,RJCT,,,,0,20180131190000,-1,-1,-1,-1,-1,-1,-1,-1,-1,-1,-1,,-1,0,0,0,,0,-1,0,-1,-1,RJCT 311900Z NIL=,
20180131_200000.004,0,RJCT,,,,0,20180131200000,-1,-1,-1,-1,-1,-1,-1,-1,-1,-1,-1,,-1,0,0,0,,0,-1,0,-1,-1,RJCT 312000Z NIL=,
20180131_210000.003,0,RJCT,,,,0,20180131210000,-1,-1,-1,-1,-1,-1,-1,-1,-1,-1,-1,,-1,0,0,0,,0,-1,0,-1,-1,RJCT 312100Z NIL=,
20180131_220000.003,0,RJCT,,,,0,20180131220000,-1,-1,-1,-1,160,-1,2,-1,-1,-1,-1,,9999,0,0,1,FEW 40,-1,18,-1,19,1024,RJCT 312200Z 16002KT 9999 FEW040 M18/M19 Q1024 RMK 1CU040     A3025=,
20180131_230000.003,0,RJCT,,,,0,20180131230000,-1,-1,-1,-1,999,-1,1,-1,-1,-1,-1,,9999,0,0,1,FEW 40,-1,16,-1,18,1025,RJCT 312300Z VRB01KT 9999 FEW040 M16/M18 Q1025 RMK 1CU040     A3027=,
20180201_000000.004,0,RJCT,,,,0,20180201000000,-1,-1,-1,-1,999,-1,2,-1,-1,-1,-1,,9999,0,0,1,FEW 40,-1,11,-1,12,1025,RJCT 010000Z VRB02KT 9999 FEW040 M11/M12 Q1025 RMK 1CU040     A3028=,
20180201_010000.003,0,RJCT,,,,0,20180201010000,-1,-1,-1,-1,999,-1,2,-1,-1,-1,-1,,9999,0,0,1,FEW 40,-1,8,-1,13,1025,RJCT 010100Z VRB02KT 9999 FEW040 M08/M13 Q1025 RMK 1CU040     A3029=,
20180201_020000.003,0,RJCT,,,,0,20180201020000,-1,-1,-1,-1,150,-1,3,-1,-1,-1,-1,,9999,0,0,1,FEW 40,-1,5,-1,13,1025,RJCT 010200Z 15003KT 9999 FEW040 M05/M13 Q1025 RMK 1CU040     A3028=,
20180201_030000.004,0,RJCT,,,,0,20180201030000,-1,-1,-1,-1,999,-1,2,-1,-1,-1,-1,,9999,0,0,1,FEW 40,-1,4,-1,12,1025,RJCT 010300Z VRB02KT 9999 FEW040 M04/M12 Q1025 RMK 1CU040     A3028=,
20180201_040000.004,0,RJCT,,,,0,20180201040000,-1,-1,-1,-1,999,-1,2,-1,-1,-1,-1,,9999,0,0,1,FEW 40,-1,2,-1,12,1025,RJCT 010400Z VRB02KT 9999 FEW040 M02/M12 Q1025 RMK 1CU040     A3028=,
20180201_050000.003,0,RJCT,,,,0,20180201050000,-1,-1,-1,-1,999,-1,2,-1,-1,-1,-1,,9999,0,0,1,FEW 40,-1,2,-1,11,1025,RJCT 010500Z VRB02KT 9999 FEW040 M02/M11 Q1025 RMK 1CU040     A3029=,
20180201_060000.003,0,RJCT,,,,0,20180201060000,-1,-1,-1,-1,999,-1,1,-1,-1,-1,-1,,9999,0,0,1,FEW 40,-1,2,-1,12,1026,RJCT 010600Z VRB01KT 9999 FEW040 M02/M12 Q1026 RMK 1CU040     A3031=,
20180201_070000.003,0,RJCT,,,,0,20180201070000,-1,-1,-1,-1,200,-1,4,-1,-1,-1,-1,,9999,0,0,1,FEW 40,-1,4,-1,12,1027,RJCT 010700Z 20004KT 9999 FEW040 M04/M12 Q1027 RMK 1CU040     A3033=,
20180201_080000.003,0,RJCT,,,,0,20180201080000,-1,-1,-1,-1,999,-1,2,-1,-1,-1,-1,,9999,0,0,1,FEW 40,-1,8,-1,13,1027,RJCT 010800Z VRB02KT 9999 FEW040 M08/M13 Q1027 RMK 1CU040     A3034=,
20180201_090000.003,0,RJCT,,,,0,20180201090000,-1,-1,-1,-1,-1,-1,-1,-1,-1,-1,-1,,-1,0,0,0,,0,-1,0,-1,-1,RJCT 010900Z NIL=,
20180201_100000.003,0,RJCT,,,,0,20180201100000,-1,-1,-1,-1,-1,-1,-1,-1,-1,-1,-1,,-1,0,0,0,,0,-1,0,-1,-1,RJCT 011000Z NIL=,
20180201_110000.003,0,RJCT,,,,0,20180201110000,-1,-1,-1,-1,-1,-1,-1,-1,-1,-1,-1,,-1,0,0,0,,0,-1,0,-1,-1,RJCT 011100Z NIL=,
20180201_120000.003,0,RJCT,,,,0,20180201120000,-1,-1,-1,-1,-1,-1,-1,-1,-1,-1,-1,,-1,0,0,0,,0,-1,0,-1,-1,RJCT 011200Z NIL=,
20180201_130000.003,0,RJCT,,,,0,20180201130000,-1,-1,-1,-1,-1,-1,-1,-1,-1,-1,-1,,-1,0,0,0,,0,-1,0,-1,-1,RJCT 011300Z NIL=,
20180201_140000.003,0,RJCT,,,,0,20180201140000,-1,-1,-1,-1,-1,-1,-1,-1,-1,-1,-1,,-1,0,0,0,,0,-1,0,-1,-1,RJCT 011400Z NIL=,
20180201_150000.003,0,RJCT,,,,0,20180201150000,-1,-1,-1,-1,-1,-1,-1,-1,-1,-1,-1,,-1,0,0,0,,0,-1,0,-1,-1,RJCT 011500Z NIL=,
20180201_160000.003,0,RJCT,,,,0,20180201160000,-1,-1,-1,-1,-1,-1,-1,-1,-1,-1,-1,,-1,0,0,0,,0,-1,0,-1,-1,RJCT 011600Z NIL=,
20180201_170000.003,0,RJCT,,,,0,20180201170000,-1,-1,-1,-1,-1,-1,-1,-1,-1,-1,-1,,-1,0,0,0,,0,-1,0,-1,-1,RJCT 011700Z NIL=,
20180201_180000.003,0,RJCT,,,,0,20180201180000,-1,-1,-1,-1,-1,-1,-1,-1,-1,-1,-1,,-1,0,0,0,,0,-1,0,-1,-1,RJCT 011800Z NIL=,
20180201_190000.004,0,RJCT,,,,0,20180201190000,-1,-1,-1,-1,-1,-1,-1,-1,-1,-1,-1,,-1,0,0,0,,0,-1,0,-1,-1,RJCT 011900Z NIL=,
20180201_200000.004,0,RJCT,,,,0,20180201200000,-1,-1,-1,-1,-1,-1,-1,-1,-1,-1,-1,,-1,0,0,0,,0,-1,0,-1,-1,RJCT 012000Z NIL=,
20180201_210000.003,0,RJCT,,,,0,20180201210000,-1,-1,-1,-1,-1,-1,-1,-1,-1,-1,-1,,-1,0,0,0,,0,-1,0,-1,-1,RJCT 012100Z NIL=,
20180201_220000.003,0,RJCT,,,,0,20180201220000,-1,-1,-1,-1,280,-1,3,-1,-1,-1,-1,,9999,0,0,2,FEW 10   BKN 40,-1,19,-1,21,1031,RJCT 012200Z 28003KT 9999 FEW010 BKN040 M19/M21 Q1031 RMK     1ST010 6CU040 A3047=,
20180201_230000.004,0,RJCT,,,,0,20180201230000,-1,-1,-1,-1,300,-1,3,-1,-1,-1,-1,,9999,0,0,1,BKN 40,-1,15,-1,17,1032,RJCT 012300Z 30003KT 9999 BKN040 M15/M17 Q1032 RMK 6CU040     A3048=,
20180202_000000.003,0,RJCT,,,,0,20180202000000,-1,-1,-1,-1,270,-1,3,-1,-1,-1,-1,,9999,0,0,1,BKN 40,-1,14,-1,17,1032,RJCT 020000Z 27003KT 9999 BKN040 M14/M17 Q1032 RMK 5CU040     A3047=,
20180202_010000.003,0,RJCT,,,,0,20180202010000,-1,-1,-1,-1,999,-1,1,-1,-1,-1,-1,,9999,0,0,1,SCT 40,-1,11,-1,16,1031,RJCT 020100Z VRB01KT 9999 SCT040 M11/M16 Q1031 RMK 4CU040     A3046=,
20180202_020000.003,0,RJCT,,,,0,20180202020000,-1,-1,-1,-1,260,-1,3,-1,-1,-1,-1,,9999,0,0,1,SCT 40,-1,9,-1,15,1031,RJCT 020200Z 26003KT 9999 SCT040 M09/M15 Q1031 RMK 4CU040     A3045=,
20180202_030000.003,0,RJCT,,,,0,20180202030000,-1,-1,-1,-1,250,-1,3,-1,-1,-1,-1,,9999,0,0,2,FEW 40   SCT 80,-1,6,-1,14,1029,RJCT 020300Z 25003KT 9999 FEW040 SCT080 M06/M14 Q1029 RMK     1CU040 4AC080 A3039=,
20180202_040000.003,0,RJCT,,,,0,20180202040000,-1,-1,-1,-1,260,-1,2,-1,-1,-1,-1,,9999,0,0,2,FEW 40   SCT 80,-1,5,-1,13,1029,RJCT 020400Z 26002KT 9999 FEW040 SCT080 M05/M13 Q1029 RMK     1CU040 4AC080 A3039=,
20180202_050000.002,0,RJCT,,,,0,20180202050000,-1,-1,-1,-1,250,-1,3,-1,-1,-1,-1,,9999,0,0,1,FEW 40,-1,4,-1,12,1029,RJCT 020500Z 25003KT 9999 FEW040 M04/M12 Q1029 RMK 1CU040     A3039=,
20180202_060000.003,0,RJCT,,,,0,20180202060000,-1,-1,-1,-1,250,-1,4,-1,-1,-1,-1,,9999,0,0,2,FEW 40   SCT 80,-1,4,-1,12,1029,RJCT 020600Z 25004KT 9999 FEW040 SCT080 M04/M12 Q1029 RMK     1CU040 3AC080 A3038=,
20180202_070000.003,0,RJCT,,,,0,20180202070000,-1,-1,-1,-1,260,-1,3,-1,-1,-1,-1,,9999,0,0,1,FEW 40,-1,5,-1,12,1029,RJCT 020700Z 26003KT 9999 FEW040 M05/M12 Q1029 RMK 1CU040     A3039=,
20180202_080000.003,0,RJCT,,,,0,20180202080000,-1,-1,-1,-1,260,-1,3,-1,-1,-1,-1,,9999,0,0,2,FEW 40   SCT 80,-1,8,-1,12,1029,RJCT 020800Z 26003KT 9999 FEW040 SCT080 M08/M12 Q1029 RMK     1CU040 3AC080 A3039=,
20180202_090000.003,0,RJCT,,,,0,20180202090000,-1,-1,-1,-1,-1,-1,-1,-1,-1,-1,-1,,-1,0,0,0,,0,-1,0,-1,-1,RJCT 020900Z NIL=,
20180202_100000.004,0,RJCT,,,,0,20180202100000,-1,-1,-1,-1,-1,-1,-1,-1,-1,-1,-1,,-1,0,0,0,,0,-1,0,-1,-1,RJCT 021000Z NIL=,
20180202_110000.003,0,RJCT,,,,0,20180202110000,-1,-1,-1,-1,-1,-1,-1,-1,-1,-1,-1,,-1,0,0,0,,0,-1,0,-1,-1,RJCT 021100Z NIL=,
20180202_120000.003,0,RJCT,,,,0,20180202120000,-1,-1,-1,-1,-1,-1,-1,-1,-1,-1,-1,,-1,0,0,0,,0,-1,0,-1,-1,RJCT 021200Z NIL=,
20180202_130000.004,0,RJCT,,,,0,20180202130000,-1,-1,-1,-1,-1,-1,-1,-1,-1,-1,-1,,-1,0,0,0,,0,-1,0,-1,-1,RJCT 021300Z NIL=,
20180202_140000.003,0,RJCT,,,,0,20180202140000,-1,-1,-1,-1,-1,-1,-1,-1,-1,-1,-1,,-1,0,0,0,,0,-1,0,-1,-1,RJCT 021400Z NIL=,
20180202_150000.003,0,RJCT,,,,0,20180202150000,-1,-1,-1,-1,-1,-1,-1,-1,-1,-1,-1,,-1,0,0,0,,0,-1,0,-1,-1,RJCT 021500Z NIL=,
20180202_160000.003,0,RJCT,,,,0,20180202160000,-1,-1,-1,-1,-1,-1,-1,-1,-1,-1,-1,,-1,0,0,0,,0,-1,0,-1,-1,RJCT 021600Z NIL=,
20180202_170000.003,0,RJCT,,,,0,20180202170000,-1,-1,-1,-1,-1,-1,-1,-1,-1,-1,-1,,-1,0,0,0,,0,-1,0,-1,-1,RJCT 021700Z NIL=,
20180202_180000.004,0,RJCT,,,,0,20180202180000,-1,-1,-1,-1,-1,-1,-1,-1,-1,-1,-1,,-1,0,0,0,,0,-1,0,-1,-1,RJCT 021800Z NIL=,
20180202_190000.004,0,RJCT,,,,0,20180202190000,-1,-1,-1,-1,-1,-1,-1,-1,-1,-1,-1,,-1,0,0,0,,0,-1,0,-1,-1,RJCT 021900Z NIL=,
20180202_200000.004,0,RJCT,,,,0,20180202200000,-1,-1,-1,-1,-1,-1,-1,-1,-1,-1,-1,,-1,0,0,0,,0,-1,0,-1,-1,RJCT 022000Z NIL=,
20180202_210000.003,0,RJCT,,,,0,20180202210000,-1,-1,-1,-1,-1,-1,-1,-1,-1,-1,-1,,-1,0,0,0,,0,-1,0,-1,-1,RJCT 022100Z NIL=,
20180202_220000.003,0,RJCT,,,,0,20180202220000,-1,-1,-1,-1,-1,-1,-1,-1,-1,-1,-1,,-1,0,0,0,,0,-1,0,-1,-1,RJCT 022200Z NIL=,
20180202_230000.004,0,RJCT,,,,0,20180202230000,-1,-1,-1,-1,-1,-1,-1,-1,-1,-1,-1,,-1,0,0,0,,0,-1,0,-1,-1,RJCT 022300Z NIL=,
20180203_000000.003,0,RJCT,,,,0,20180203000000,-1,-1,-1,-1,-1,-1,-1,-1,-1,-1,-1,,-1,0,0,0,,0,-1,0,-1,-1,RJCT 030000Z NIL=,
20180203_010000.004,0,RJCT,,,,0,20180203010000,-1,-1,-1,-1,-1,-1,-1,-1,-1,-1,-1,,-1,0,0,0,,0,-1,0,-1,-1,RJCT 030100Z NIL=,
20180203_020000.003,0,RJCT,,,,0,20180203020000,-1,-1,-1,-1,-1,-1,-1,-1,-1,-1,-1,,-1,0,0,0,,0,-1,0,-1,-1,RJCT 030200Z NIL=,
20180203_030000.003,0,RJCT,,,,0,20180203030000,-1,-1,-1,-1,-1,-1,-1,-1,-1,-1,-1,,-1,0,0,0,,0,-1,0,-1,-1,RJCT 030300Z NIL=,
20180203_040000.003,0,RJCT,,,,0,20180203040000,-1,-1,-1,-1,-1,-1,-1,-1,-1,-1,-1,,-1,0,0,0,,0,-1,0,-1,-1,RJCT 030400Z NIL=,
20180203_050000.003,0,RJCT,,,,0,20180203050000,-1,-1,-1,-1,-1,-1,-1,-1,-1,-1,-1,,-1,0,0,0,,0,-1,0,-1,-1,RJCT 030500Z NIL=,
20180203_060000.003,0,RJCT,,,,0,20180203060000,-1,-1,-1,-1,-1,-1,-1,-1,-1,-1,-1,,-1,0,0,0,,0,-1,0,-1,-1,RJCT 030600Z NIL=,
20180203_070000.004,0,RJCT,,,,0,20180203070000,-1,-1,-1,-1,-1,-1,-1,-1,-1,-1,-1,,-1,0,0,0,,0,-1,0,-1,-1,RJCT 030700Z NIL=,
20180203_080000.003,0,RJCT,,,,0,20180203080000,-1,-1,-1,-1,-1,-1,-1,-1,-1,-1,-1,,-1,0,0,0,,0,-1,0,-1,-1,RJCT 030800Z NIL=,
20180203_090000.003,0,RJCT,,,,0,20180203090000,-1,-1,-1,-1,-1,-1,-1,-1,-1,-1,-1,,-1,0,0,0,,0,-1,0,-1,-1,RJCT 030900Z NIL=,
20180203_100000.003,0,RJCT,,,,0,20180203100000,-1,-1,-1,-1,-1,-1,-1,-1,-1,-1,-1,,-1,0,0,0,,0,-1,0,-1,-1,RJCT 031000Z NIL=,
20180203_110000.003,0,RJCT,,,,0,20180203110000,-1,-1,-1,-1,-1,-1,-1,-1,-1,-1,-1,,-1,0,0,0,,0,-1,0,-1,-1,RJCT 031100Z NIL=,
20180203_120000.003,0,RJCT,,,,0,20180203120000,-1,-1,-1,-1,-1,-1,-1,-1,-1,-1,-1,,-1,0,0,0,,0,-1,0,-1,-1,RJCT 031200Z NIL=,
20180203_130000.003,0,RJCT,,,,0,20180203130000,-1,-1,-1,-1,-1,-1,-1,-1,-1,-1,-1,,-1,0,0,0,,0,-1,0,-1,-1,RJCT 031300Z NIL=,
20180203_140000.003,0,RJCT,,,,0,20180203140000,-1,-1,-1,-1,-1,-1,-1,-1,-1,-1,-1,,-1,0,0,0,,0,-1,0,-1,-1,RJCT 031400Z NIL=,
20180203_150000.003,0,RJCT,,,,0,20180203150000,-1,-1,-1,-1,-1,-1,-1,-1,-1,-1,-1,,-1,0,0,0,,0,-1,0,-1,-1,RJCT 031500Z NIL=,
20180203_160000.003,0,RJCT,,,,0,20180203160000,-1,-1,-1,-1,-1,-1,-1,-1,-1,-1,-1,,-1,0,0,0,,0,-1,0,-1,-1,RJCT 031600Z NIL=,
20180203_170000.003,0,RJCT,,,,0,20180203170000,-1,-1,-1,-1,-1,-1,-1,-1,-1,-1,-1,,-1,0,0,0,,0,-1,0,-1,-1,RJCT 031700Z NIL=,
20180203_180000.004,0,RJCT,,,,0,20180203180000,-1,-1,-1,-1,-1,-1,-1,-1,-1,-1,-1,,-1,0,0,0,,0,-1,0,-1,-1,RJCT 031800Z NIL=,
20180203_190000.003,0,RJCT,,,,0,20180203190000,-1,-1,-1,-1,-1,-1,-1,-1,-1,-1,-1,,-1,0,0,0,,0,-1,0,-1,-1,RJCT 031900Z NIL=,
20180203_200000.003,0,RJCT,,,,0,20180203200000,-1,-1,-1,-1,-1,-1,-1,-1,-1,-1,-1,,-1,0,0,0,,0,-1,0,-1,-1,RJCT 032000Z NIL=,
20180203_210000.003,0,RJCT,,,,0,20180203210000,-1,-1,-1,-1,-1,-1,-1,-1,-1,-1,-1,,-1,0,0,0,,0,-1,0,-1,-1,RJCT 032100Z NIL=,
20180203_220000.003,0,RJCT,,,,0,20180203220000,-1,-1,-1,-1,290,-1,3,-1,-1,-1,-1,,1500,0,1,3,FEW 5   SCT 8   BKN 10,-1,6,-1,7,1014,RJCT 032200Z 29003KT 1500 -SHSN FEW005 SCT008 BKN010 M06/M07     Q1014 RMK 1ST005 3ST008 7ST010 A2995=,- SN SH
20180203_230000.003,0,RJCT,,,,0,20180203230000,-1,-1,-1,-1,280,-1,3,-1,-1,-1,-1,,1500,0,1,2,FEW 5   BKN 10,-1,5,-1,6,1014,RJCT 032300Z 28003KT 1500 -SHSN FEW005 BKN010 M05/M06 Q1014     RMK 1ST005 7ST010 A2994=,- SN SH
20180204_000000.003,0,RJCT,,,,0,20180204000000,-1,-1,-1,-1,-1,-1,-1,-1,-1,-1,-1,,-1,0,0,0,,0,-1,0,-1,-1,RJCT 040000Z NIL=,
20180204_010000.003,0,RJCT,,,,0,20180204010000,-1,-1,-1,-1,-1,-1,-1,-1,-1,-1,-1,,-1,0,0,0,,0,-1,0,-1,-1,RJCT 040100Z NIL=,
20180204_020000.003,0,RJCT,,,,0,20180204020000,-1,-1,-1,-1,-1,-1,-1,-1,-1,-1,-1,,-1,0,0,0,,0,-1,0,-1,-1,RJCT 040200Z NIL=,
20180204_030000.003,0,RJCT,,,,0,20180204030000,-1,-1,-1,-1,-1,-1,-1,-1,-1,-1,-1,,-1,0,0,0,,0,-1,0,-1,-1,RJCT 040300Z NIL=,
20180204_040000.003,0,RJCT,,,,0,20180204040000,-1,-1,-1,-1,-1,-1,-1,-1,-1,-1,-1,,-1,0,0,0,,0,-1,0,-1,-1,RJCT 040400Z NIL=,
20180204_050000.003,0,RJCT,,,,0,20180204050000,-1,-1,-1,-1,-1,-1,-1,-1,-1,-1,-1,,-1,0,0,0,,0,-1,0,-1,-1,RJCT 040500Z NIL=,
20180204_060000.003,0,RJCT,,,,0,20180204060000,-1,-1,-1,-1,-1,-1,-1,-1,-1,-1,-1,,-1,0,0,0,,0,-1,0,-1,-1,RJCT 040600Z NIL=,
20180204_070000.003,0,RJCT,,,,0,20180204070000,-1,-1,-1,-1,-1,-1,-1,-1,-1,-1,-1,,-1,0,0,0,,0,-1,0,-1,-1,RJCT 040700Z NIL=,
20180204_080000.003,0,RJCT,,,,0,20180204080000,-1,-1,-1,-1,-1,-1,-1,-1,-1,-1,-1,,-1,0,0,0,,0,-1,0,-1,-1,RJCT 040800Z NIL=,
20180204_090000.003,0,RJCT,,,,0,20180204090000,-1,-1,-1,-1,-1,-1,-1,-1,-1,-1,-1,,-1,0,0,0,,0,-1,0,-1,-1,RJCT 040900Z NIL=,
20180204_100000.003,0,RJCT,,,,0,20180204100000,-1,-1,-1,-1,-1,-1,-1,-1,-1,-1,-1,,-1,0,0,0,,0,-1,0,-1,-1,RJCT 041000Z NIL=,
20180204_110000.004,0,RJCT,,,,0,20180204110000,-1,-1,-1,-1,-1,-1,-1,-1,-1,-1,-1,,-1,0,0,0,,0,-1,0,-1,-1,RJCT 041100Z NIL=,
20180204_120000.003,0,RJCT,,,,0,20180204120000,-1,-1,-1,-1,-1,-1,-1,-1,-1,-1,-1,,-1,0,0,0,,0,-1,0,-1,-1,RJCT 041200Z NIL=,
20180204_130000.003,0,RJCT,,,,0,20180204130000,-1,-1,-1,-1,-1,-1,-1,-1,-1,-1,-1,,-1,0,0,0,,0,-1,0,-1,-1,RJCT 041300Z NIL=,
20180204_140000.003,0,RJCT,,,,0,20180204140000,-1,-1,-1,-1,-1,-1,-1,-1,-1,-1,-1,,-1,0,0,0,,0,-1,0,-1,-1,RJCT 041400Z NIL=,
20180204_150000.003,0,RJCT,,,,0,20180204150000,-1,-1,-1,-1,-1,-1,-1,-1,-1,-1,-1,,-1,0,0,0,,0,-1,0,-1,-1,RJCT 041500Z NIL=,
20180204_160000.003,0,RJCT,,,,0,20180204160000,-1,-1,-1,-1,-1,-1,-1,-1,-1,-1,-1,,-1,0,0,0,,0,-1,0,-1,-1,RJCT 041600Z NIL=,
20180204_170000.003,0,RJCT,,,,0,20180204170000,-1,-1,-1,-1,-1,-1,-1,-1,-1,-1,-1,,-1,0,0,0,,0,-1,0,-1,-1,RJCT 041700Z NIL=,
20180204_180000.004,0,RJCT,,,,0,20180204180000,-1,-1,-1,-1,-1,-1,-1,-1,-1,-1,-1,,-1,0,0,0,,0,-1,0,-1,-1,RJCT 041800Z NIL=,
20180204_190000.003,0,RJCT,,,,0,20180204190000,-1,-1,-1,-1,-1,-1,-1,-1,-1,-1,-1,,-1,0,0,0,,0,-1,0,-1,-1,RJCT 041900Z NIL=,
20180204_200000.003,0,RJCT,,,,0,20180204200000,-1,-1,-1,-1,-1,-1,-1,-1,-1,-1,-1,,-1,0,0,0,,0,-1,0,-1,-1,RJCT 042000Z NIL=,
20180204_210000.003,0,RJCT,,,,0,20180204210000,-1,-1,-1,-1,-1,-1,-1,-1,-1,-1,-1,,-1,0,0,0,,0,-1,0,-1,-1,RJCT 042100Z NIL=,
20180204_220000.003,0,RJCT,,,,0,20180204220000,-1,-1,-1,-1,999,-1,2,-1,-1,-1,-1,,1500,0,1,3,FEW 3   SCT 5   BKN 8,-1,3,-1,3,1006,RJCT 042200Z VRB02KT 1500 -SN FEW003 SCT005 BKN008 M03/M03     Q1006 RMK 1ST003 3ST005 7ST008 A2973=,- SN
20180204_230000.003,0,RJCT,,,,0,20180204230000,-1,-1,-1,-1,270,-1,3,-1,-1,-1,-1,,1500,0,1,3,FEW 3   SCT 5   BKN 8,-1,3,-1,3,1007,RJCT 042300Z 27003KT 1500 -SN FEW003 SCT005 BKN008 M03/M03     Q1007 RMK 1ST003 3ST005 7ST008 A2974=,- SN
20180205_000000.004,0,RJCT,,,,0,20180205000000,-1,-1,-1,-1,999,-1,1,-1,-1,-1,-1,,1500,0,1,3,FEW 3   SCT 5   BKN 8,-1,2,-1,4,1007,RJCT 050000Z VRB01KT 1500 -SN FEW003 SCT005 BKN008 M02/M04     Q1007 RMK 1ST003 3ST005 7ST008 A2975=,- SN
20180205_010000.003,0,RJCT,,,,0,20180205010000,-1,-1,-1,-1,999,-1,1,-1,-1,-1,-1,,2000,0,1,3,FEW 3   SCT 5   BKN 8,-1,2,-1,4,1007,RJCT 050100Z VRB01KT 2000 -SN FEW003 SCT005 BKN008 M02/M04     Q1007 RMK 1ST003 3ST005 7ST008 A2975=,- SN
20180205_020000.003,0,RJCT,,,,0,20180205020000,-1,-1,-1,-1,999,-1,1,-1,-1,-1,-1,,1500,0,1,3,FEW 3   SCT 8   BKN 10,-1,1,-1,4,1007,RJCT 050200Z VRB01KT 1500 -SN FEW003 SCT008 BKN010 M01/M04     Q1007 RMK 1ST003 4ST008 7ST010 A2975=,- SN
