20180101_000000.002,0,RJDA,,,,0,20180101000000,-1,-1,-1,-1,10,-1,8,-1,-1,-1,-1,,9999,0,0,2,FEW 30   BKN 45,1,6,-1,0,1025,RJDA 010000Z 01008KT 9999 FEW030 BKN045 06/M00 Q1025 RMK     1CU030 6SC045 A3027=,
20180101_010000.002,0,RJDA,,,,0,20180101010000,-1,-1,-1,-1,360,-1,10,-1,-1,-1,-1,,9999,0,0,2,FEW 30   BKN 45,1,7,-1,1,1025,RJDA 010100Z 36010KT 9999 FEW030 BKN045 07/M01 Q1025 RMK     1CU030 6SC045 A3029=,
20180101_020000.002,0,RJDA,,,,0,20180101020000,-1,-1,-1,-1,360,-1,10,-1,-1,-1,-1,,9999,0,0,2,FEW 35   BKN 45,1,7,1,1,1025,RJDA 010200Z 36010KT 9999 FEW035 BKN045 07/01 Q1025 RMK 1CU035     6SC045 A3028=,
20180101_030000.002,0,RJDA,,,,0,20180101030000,-1,-1,-1,-1,10,-1,10,-1,-1,340,40,,9999,0,0,2,FEW 30   SCT 45,1,8,1,1,1024,RJDA 010300Z 01010KT 340V040 9999 FEW030 SCT045 08/01 Q1024     RMK 1CU030 4SC045 A3026=,
20180101_040000.002,0,RJDA,,,,0,20180101040000,-1,-1,-1,-1,350,-1,7,-1,-1,310,30,,9999,0,0,2,FEW 35   BKN 45,1,8,1,1,1024,RJDA 010400Z 35007KT 310V030 9999 FEW035 BKN045 08/01 Q1024     RMK 1CU035 6SC045 A3025=,
20180101_050000.002,0,RJDA,,,,0,20180101050000,-1,-1,-1,-1,360,-1,10,-1,-1,320,30,,9999,0,0,2,FEW 35   BKN 40,1,8,1,0,1023,RJDA 010500Z 36010KT 320V030 9999 FEW035 BKN040 08/00 Q1023     RMK 1CU035 5CU040 A3023=,
20180101_060000.002,0,RJDA,,,,0,20180101060000,-1,-1,-1,-1,360,-1,8,-1,-1,320,30,,9999,0,0,1,FEW 40,1,8,-1,1,1024,RJDA 010600Z 36008KT 320V030 9999 FEW040 08/M01 Q1024 RMK     1CU040 A3024=,
20180101_070000.002,0,RJDA,,,,0,20180101070000,-1,-1,-1,-1,350,-1,7,-1,-1,310,30,,9999,0,0,1,FEW 40,1,8,-1,1,1024,RJDA 010700Z 35007KT 310V030 9999 FEW040 08/M01 Q1024 RMK     1CU040 A3026=,
20180101_080000.002,0,RJDA,,,,0,20180101080000,-1,-1,-1,-1,350,-1,7,-1,-1,-1,-1,,9999,0,0,1,FEW 40,1,7,-1,0,1024,RJDA 010800Z 35007KT 9999 FEW040 07/M00 Q1024 RMK 1CU040     A3025=,
20180101_090000.002,0,RJDA,,,,0,20180101090000,-1,-1,-1,-1,360,-1,6,-1,-1,-1,-1,,9999,0,0,1,FEW 40,1,5,1,0,1024,RJDA 010900Z 36006KT 9999 FEW040 05/00 Q1024 RMK 1CU040 A3026=,
20180101_100000.002,0,RJDA,,,,0,20180101100000,-1,-1,-1,-1,20,-1,7,-1,-1,-1,-1,,9999,0,0,1,FEW 35,1,5,-1,1,1025,RJDA 011000Z 02007KT 9999 FEW035 05/M01 Q1025 RMK 1CU035     A3027=,
20180101_110000.002,0,RJDA,,,,0,20180101110000,-1,-1,-1,-1,360,-1,6,-1,-1,-1,-1,,9999,0,0,1,FEW 35,1,4,-1,1,1025,RJDA 011100Z 36006KT 9999 FEW035 04/M01 Q1025 RMK 1CU035     A3029=,
20180101_223000.002,0,RJDA,,,,0,20180101220000,-1,-1,-1,-1,220,-1,3,-1,-1,-1,-1,,9999,0,0,1,FEW 40,1,1,-1,0,1027,RJDA 012230Z 22003KT 9999 FEW040 01/M00 Q1027 RMK 1CU040     A3035=,
20180101_230000.002,0,RJDA,,,,0,20180101230000,-1,-1,-1,-1,220,-1,3,-1,-1,-1,-1,,9999,0,0,1,FEW 35,1,1,1,0,1027,RJDA 012300Z 22003KT 9999 FEW035 01/00 Q1027 RMK 1CU035 A3035=,
20180102_000000.003,0,RJDA,,,,0,20180102000000,-1,-1,-1,-1,999,-1,1,-1,-1,-1,-1,,9999,0,0,1,FEW 30,1,5,1,2,1028,RJDA 020000Z VRB01KT 9999 FEW030 05/02 Q1028 RMK 1CU030 A3036=,
20180102_010000.003,0,RJDA,,,,0,20180102010000,-1,-1,-1,-1,60,-1,3,-1,-1,360,100,,9999,0,0,1,FEW 30,1,6,1,2,1028,RJDA 020100Z 06003KT 360V100 9999 FEW030 06/02 Q1028 RMK     1CU030 A3037=,
20180102_020000.002,0,RJDA,,,,0,20180102020000,-1,-1,-1,-1,999,-1,3,-1,-1,-1,-1,,9999,0,0,1,FEW 30,1,7,1,3,1027,RJDA 020200Z VRB03KT 9999 FEW030 07/03 Q1027 RMK 1CU030 A3035=,
20180102_030000.002,0,RJDA,,,,0,20180102030000,-1,-1,-1,-1,80,-1,5,-1,-1,20,150,,9999,0,0,1,FEW 35,1,8,1,1,1026,RJDA 020300Z 08005KT 020V150 9999 FEW035 08/01 Q1026 RMK     1CU035 A3032=,
20180102_040000.002,0,RJDA,,,,0,20180102040000,-1,-1,-1,-1,100,-1,5,-1,-1,60,160,,9999,0,0,1,FEW 45,1,8,1,1,1025,RJDA 020400Z 10005KT 060V160 9999 FEW045 08/01 Q1025 RMK     1CU045 A3029=,
20180102_050000.002,0,RJDA,,,,0,20180102050000,-1,-1,-1,-1,90,-1,4,-1,-1,60,140,CAVOK,-1,0,0,0,,1,8,1,0,1025,RJDA 020500Z 09004KT 060V140 CAVOK 08/00 Q1025 RMK A3027=,
20180102_060000.002,0,RJDA,,,,0,20180102060000,-1,-1,-1,-1,90,-1,4,-1,-1,50,140,CAVOK,-1,0,0,0,,1,8,-1,0,1024,RJDA 020600Z 09004KT 050V140 CAVOK 08/M00 Q1024 RMK A3026=,
20180102_070000.002,0,RJDA,,,,0,20180102070000,-1,-1,-1,-1,80,-1,4,-1,-1,30,120,CAVOK,-1,0,0,0,,1,9,1,1,1024,RJDA 020700Z 08004KT 030V120 CAVOK 09/01 Q1024 RMK A3027=,
20180102_080000.002,0,RJDA,,,,0,20180102080000,-1,-1,-1,-1,999,-1,1,-1,-1,-1,-1,CAVOK,-1,0,0,0,,1,8,1,0,1025,RJDA 020800Z VRB01KT CAVOK 08/00 Q1025 RMK A3027=,
20180102_090000.002,0,RJDA,,,,0,20180102090000,-1,-1,-1,-1,210,-1,3,-1,-1,-1,-1,CAVOK,-1,0,0,0,,1,5,1,2,1025,RJDA 020900Z 21003KT CAVOK 05/02 Q1025 RMK A3029=,
20180102_100000.002,0,RJDA,,,,0,20180102100000,-1,-1,-1,-1,220,-1,3,-1,-1,-1,-1,CAVOK,-1,0,0,0,,1,4,1,1,1025,RJDA 021000Z 22003KT CAVOK 04/01 Q1025 RMK A3029=,
20180102_110000.002,0,RJDA,,,,0,20180102110000,-1,-1,-1,-1,310,-1,3,-1,-1,270,340,CAVOK,-1,0,0,0,,1,6,1,1,1026,RJDA 021100Z 31003KT 270V340 CAVOK 06/01 Q1026 RMK A3030=,
20180102_223000.002,0,RJDA,,,,0,20180102220000,-1,-1,-1,-1,340,-1,7,-1,-1,-1,-1,,7000,0,0,3,FEW 30   SCT 120   BKN -9999,1,7,1,4,1025,RJDA 022230Z 34007KT 7000 FEW030 SCT120 BKN/// 07/04 Q1025 RMK     1CU030 3AC120 A3028=,
20180102_230000.002,0,RJDA,,,,0,20180102230000,-1,-1,-1,-1,330,-1,6,-1,-1,-1,-1,,7000,0,0,3,FEW 30   SCT 120   BKN -9999,1,7,1,4,1025,RJDA 022300Z 33006KT 7000 FEW030 SCT120 BKN/// 07/04 Q1025 RMK     1CU030 3AC120 A3029=,
20180103_000000.002,0,RJDA,,,,0,20180103000000,-1,-1,-1,-1,360,-1,4,-1,-1,320,20,,7000,0,0,3,FEW 30   SCT 40   BKN -9999,1,8,1,4,1026,RJDA 030000Z 36004KT 320V020 7000 FEW030 SCT040 BKN/// 08/04     Q1026 RMK 1CU030 3SC040 A3030=,
20180103_010000.002,0,RJDA,,,,0,20180103010000,-1,-1,-1,-1,360,-1,9,-1,-1,-1,-1,,7000,0,0,3,FEW 30   SCT 50   BKN -9999,1,9,1,4,1025,RJDA 030100Z 36009KT 7000 FEW030 SCT050 BKN/// 09/04 Q1025 RMK     1CU030 4SC050 A3029=,
20180103_020000.002,0,RJDA,,,,0,20180103020000,-1,-1,-1,-1,360,-1,9,-1,-1,330,30,,7000,0,0,2,FEW 30   SCT 40,1,9,1,3,1025,RJDA 030200Z 36009KT 330V030 7000 FEW030 SCT040 09/03 Q1025     RMK 2CU030 4SC040 A3029=,
20180103_030000.003,0,RJDA,,,,0,20180103030000,-1,-1,-1,-1,360,-1,7,-1,-1,320,50,,8000,0,0,1,SCT 35,1,9,1,2,1025,RJDA 030300Z 36007KT 320V050 8000 SCT035 09/02 Q1025 RMK     3CU035 A3027=,
20180103_040000.002,0,RJDA,,,,0,20180103040000,-1,-1,-1,-1,10,-1,10,-1,-1,-1,-1,,9999,0,0,1,FEW 40,1,10,1,1,1023,RJDA 030400Z 01010KT 9999 FEW040 10/01 Q1023 RMK 1CU040 A3024=,
20180103_050000.002,0,RJDA,,,,0,20180103050000,-1,-1,-1,-1,360,-1,9,-1,-1,320,50,,9999,0,0,1,FEW 40,1,10,-1,1,1023,RJDA 030500Z 36009KT 320V050 9999 FEW040 10/M01 Q1023 RMK     1CU040 A3023=,
20180103_060000.002,0,RJDA,,,,0,20180103060000,-1,-1,-1,-1,360,-1,10,-1,-1,-1,-1,,9999,0,0,1,FEW 40,1,10,-1,3,1023,RJDA 030600Z 36010KT 9999 FEW040 10/M03 Q1023 RMK 1CU040     A3022=,
20180103_070000.002,0,RJDA,,,,0,20180103070000,-1,-1,-1,-1,360,-1,7,-1,-1,-1,-1,,9999,0,0,1,FEW 40,1,9,-1,3,1023,RJDA 030700Z 36007KT 9999 FEW040 09/M03 Q1023 RMK 1CU040     A3022=,
20180103_080000.002,0,RJDA,,,,0,20180103080000,-1,-1,-1,-1,350,-1,6,-1,-1,-1,-1,CAVOK,-1,0,0,0,,1,8,-1,3,1023,RJDA 030800Z 35006KT CAVOK 08/M03 Q1023 RMK A3022=,
20180103_090000.002,0,RJDA,,,,0,20180103090000,-1,-1,-1,-1,340,-1,8,-1,-1,-1,-1,CAVOK,-1,0,0,0,,1,7,-1,2,1024,RJDA 030900Z 34008KT CAVOK 07/M02 Q1024 RMK A3025=,
20180103_100000.002,0,RJDA,,,,0,20180103100000,-1,-1,-1,-1,10,-1,6,-1,-1,-1,-1,CAVOK,-1,0,0,0,,1,6,-1,1,1024,RJDA 031000Z 01006KT CAVOK 06/M01 Q1024 RMK A3026=,
20180103_110000.002,0,RJDA,,,,0,20180103110000,-1,-1,-1,-1,999,-1,1,-1,-1,-1,-1,CAVOK,-1,0,0,0,,1,5,-1,1,1025,RJDA 031100Z VRB01KT CAVOK 05/M01 Q1025 RMK A3027=,
20180103_223000.002,0,RJDA,,,,0,20180103220000,-1,-1,-1,-1,220,-1,3,-1,-1,190,250,,9999,0,0,1,FEW 30,1,2,1,1,1024,RJDA 032230Z 22003KT 190V250 9999 FEW030 02/01 Q1024 RMK     1CU030 A3026=,
20180103_230000.002,0,RJDA,,,,0,20180103230000,-1,-1,-1,-1,999,-1,2,-1,-1,-1,-1,,9999,0,0,1,FEW 30,1,3,1,1,1024,RJDA 032300Z VRB02KT 9999 FEW030 03/01 Q1024 RMK 1CU030 A3026=,
20180104_000000.002,0,RJDA,,,,0,20180104000000,-1,-1,-1,-1,999,-1,1,-1,-1,-1,-1,,9999,0,0,2,FEW 30   BKN -9999,1,4,1,1,1024,RJDA 040000Z VRB01KT 9999 FEW030 BKN/// 04/01 Q1024 RMK 1CU030     A3026=,
20180104_010000.002,0,RJDA,,,,0,20180104010000,-1,-1,-1,-1,999,-1,2,-1,-1,-1,-1,,9999,0,0,2,FEW 30   SCT -9999,1,7,1,2,1024,RJDA 040100Z VRB02KT 9999 FEW030 SCT/// 07/02 Q1024 RMK 1CU030     A3026=,
20180104_020000.002,0,RJDA,,,,0,20180104020000,-1,-1,-1,-1,30,-1,7,-1,-1,350,60,,9999,0,0,2,FEW 30   BKN -9999,1,8,1,1,1024,RJDA 040200Z 03007KT 350V060 9999 FEW030 BKN/// 08/01 Q1024     RMK 1CU030 A3025=,
20180104_030000.002,0,RJDA,,,,0,20180104030000,-1,-1,-1,-1,70,-1,6,-1,-1,50,110,,9999,0,0,3,FEW 30   SCT 110   BKN -9999,1,7,1,1,1023,RJDA 040300Z 07006KT 050V110 9999 FEW030 SCT110 BKN/// 07/01     Q1023 RMK 1CU030 3AC110 A3022=,
20180104_040000.002,0,RJDA,,,,0,20180104040000,-1,-1,-1,-1,100,-1,4,-1,-1,50,150,,9999,0,0,2,FEW 35   SCT -9999,1,8,1,1,1022,RJDA 040400Z 10004KT 050V150 9999 FEW035 SCT/// 08/01 Q1022     RMK 1CU035 A3018=,
20180104_050000.002,0,RJDA,,,,0,20180104050000,-1,-1,-1,-1,90,-1,5,-1,-1,40,140,,9999,0,0,3,FEW 35   SCT 120   BKN 140,1,8,1,1,1021,RJDA 040500Z 09005KT 040V140 9999 FEW035 SCT120 BKN140 08/01     Q1021 RMK 1CU035 4AC120 6AC140 A3016=,
20180104_060000.003,0,RJDA,,,,0,20180104060000,-1,-1,-1,-1,90,-1,3,-1,-1,10,150,,9999,0,0,3,FEW 50   SCT 90   BKN 120,1,8,1,1,1021,RJDA 040600Z 09003KT 010V150 9999 FEW050 SCT090 BKN120 08/01     Q1021 RMK 1SC050 4AC090 6AC120 A3015=,
20180104_070000.002,0,RJDA,,,,0,20180104070000,-1,-1,-1,-1,40,-1,3,-1,-1,360,80,,9999,0,0,3,FEW 50   SCT 90   BKN 100,1,8,1,1,1021,RJDA 040700Z 04003KT 360V080 9999 FEW050 SCT090 BKN100 08/01     Q1021 RMK 1SC050 4AC090 6AC100 A3016=,
20180104_080000.002,0,RJDA,,,,0,20180104080000,-1,-1,-1,-1,360,-1,2,-1,-1,-1,-1,,9999,0,0,3,FEW 50   SCT 80   BKN 110,1,7,1,1,1021,RJDA 040800Z 36002KT 9999 FEW050 SCT080 BKN110 07/01 Q1021 RMK     1SC050 3AC080 5AC110 A3017=,
20180104_090000.002,0,RJDA,,,,0,20180104090000,-1,-1,-1,-1,320,-1,3,-1,-1,-1,-1,,9999,0,0,3,FEW 50   SCT 90   BKN 100,1,7,1,1,1022,RJDA 040900Z 32003KT 9999 FEW050 SCT090 BKN100 07/01 Q1022 RMK     1SC050 4AC090 6AC100 A3018=,
20180104_100000.002,0,RJDA,,,,0,20180104100000,-1,-1,-1,-1,290,-1,1,-1,-1,-1,-1,,9999,0,0,3,FEW 50   SCT 80   BKN 100,1,7,1,1,1021,RJDA 041000Z 29001KT 9999 FEW050 SCT080 BKN100 07/01 Q1021 RMK     1SC050 4AC080 6AC100 A3017=,
20180104_110000.002,0,RJDA,,,,0,20180104110000,-1,-1,-1,-1,220,-1,2,-1,-1,-1,-1,,9999,0,0,3,FEW 50   SCT 70   BKN 100,1,6,1,3,1021,RJDA 041100Z 22002KT 9999 FEW050 SCT070 BKN100 06/03 Q1021 RMK     1SC050 4AC070 6AC100 A3016=,
20180104_223000.002,0,RJDA,,,,0,20180104220000,-1,-1,-1,-1,40,-1,3,-1,-1,10,80,,3000,0,2,3,FEW 3   SCT 6   BKN 10,1,4,1,4,1017,RJDA 042230Z 04003KT 010V080 3000 -SHRA BR FEW003 SCT006     BKN010 04/04 Q1017 RMK 1ST003 3ST006 6CU010 A3005=,- RA SH; BR
20180104_230000.002,0,RJDA,,,,0,20180104230000,-1,-1,-1,-1,360,-1,3,-1,-1,320,40,,3000,0,2,3,FEW 3   SCT 6   BKN 10,1,4,1,4,1017,RJDA 042300Z 36003KT 320V040 3000 -SHRA BR FEW003 SCT006     BKN010 04/04 Q1017 RMK 1ST003 3ST006 6CU010 A3006=,- RA SH; BR
20180105_000000.002,0,RJDA,,,,0,20180105000000,-1,-1,-1,-1,20,-1,3,-1,-1,350,60,,3000,0,2,3,FEW 3   SCT 6   BKN 10,1,4,1,4,1017,RJDA 050000Z 02003KT 350V060 3000 -SHRA BR FEW003 SCT006     BKN010 04/04 Q1017 RMK 1ST003 3ST006 6CU010 A3006=,- RA SH; BR
20180105_010000.003,0,RJDA,,,,0,20180105010000,-1,-1,-1,-1,360,-1,3,-1,-1,330,40,,7000,0,2,3,FEW 5   SCT 10   BKN 15,1,5,1,4,1018,RJDA 050100Z 36003KT 330V040 7000 -SHRA BR FEW005 SCT010     BKN015 05/04 Q1018 RMK 1ST005 3CU010 6CU015 A3007           3000SE-S=,- RA SH; BR
20180105_020000.002,0,RJDA,,,,0,20180105020000,-1,-1,-1,-1,340,-1,3,-1,-1,-1,-1,,6000,0,2,3,FEW 5   SCT 15   BKN 30,1,5,1,5,1018,RJDA 050200Z 34003KT 6000 -SHRA BR FEW005 SCT015 BKN030 05/05     Q1018 RMK 1ST005 3CU015 5CU030 A3006 3000SE-S=,- RA SH; BR
20180105_030000.002,0,RJDA,,,,0,20180105030000,-1,-1,-1,-1,10,-1,3,-1,-1,310,60,,8000,0,0,3,FEW 8   SCT 10   BKN 30,1,6,1,5,1017,RJDA 050300Z 01003KT 310V060 8000 FEW008 SCT010 BKN030 06/05     Q1017 RMK 1ST008 3CU010 5CU030 A3004=,
20180105_040000.002,0,RJDA,,,,0,20180105040000,-1,-1,-1,-1,50,-1,3,-1,-1,340,100,,9999,0,0,3,FEW 8   SCT 10   BKN 30,1,6,1,5,1016,RJDA 050400Z 05003KT 340V100 9999 FEW008 SCT010 BKN030 06/05     Q1016 RMK 1ST008 3CU010 5CU030 A3002=,
20180105_050000.002,0,RJDA,,,,0,20180105050000,-1,-1,-1,-1,999,-1,2,-1,-1,-1,-1,,7000,0,1,3,FEW 5   SCT 15   BKN 20,1,6,1,5,1016,RJDA 050500Z VRB02KT 7000 -SHRA FEW005 SCT015 BKN020 06/05     Q1016 RMK 1ST005 3CU015 5CU020 A3000=,- RA SH
20180105_060000.002,0,RJDA,,,,0,20180105060000,-1,-1,-1,-1,999,-1,1,-1,-1,-1,-1,,8000,0,1,3,FEW 5   SCT 15   BKN 25,1,6,1,6,1015,RJDA 050600Z VRB01KT 8000 -SHRA FEW005 SCT015 BKN025 06/06     Q1015 RMK 1ST005 3CU015 6CU025 A3000=,- RA SH
20180105_070000.002,0,RJDA,,,,0,20180105070000,-1,-1,-1,-1,999,-1,1,-1,-1,-1,-1,,8000,0,0,3,FEW 5   SCT 20   BKN 35,1,6,1,6,1015,RJDA 050700Z VRB01KT 8000 FEW005 SCT020 BKN035 06/06 Q1015 RMK     1ST005 3CU020 5CU035 A2999=,
20180105_080000.002,0,RJDA,,,,0,20180105080000,-1,-1,-1,-1,999,-1,1,-1,-1,-1,-1,,9999,0,0,3,FEW 7   SCT 15   BKN 25,1,6,1,6,1015,RJDA 050800Z VRB01KT 9999 FEW007 SCT015 BKN025 06/06 Q1015 RMK     1ST007 4CU015 5CU025 A3000=,
20180105_090000.002,0,RJDA,,,,0,20180105090000,-1,-1,-1,-1,999,-1,2,-1,-1,-1,-1,,7000,0,0,3,FEW 7   BKN 15   BKN 45,1,6,1,5,1016,RJDA 050900Z VRB02KT 7000 FEW007 BKN015 BKN045 06/05 Q1016 RMK     1ST007 5CU015 6SC045 A3001=,
20180105_100000.002,0,RJDA,,,,0,20180105100000,-1,-1,-1,-1,999,-1,2,-1,-1,-1,-1,,9999,0,0,3,FEW 7   SCT 20   BKN 30,1,6,1,5,1016,RJDA 051000Z VRB02KT 9999 FEW007 SCT020 BKN030 06/05 Q1016 RMK     1ST007 4CU020 5CU030 A3001=,
20180105_110000.002,0,RJDA,,,,0,20180105110000,-1,-1,-1,-1,320,-1,3,-1,-1,280,350,,9999,0,0,3,FEW 7   SCT 25   BKN 40,1,6,1,6,1016,RJDA 051100Z 32003KT 280V350 9999 FEW007 SCT025 BKN040 06/06     Q1016 RMK 1ST007 3CU025 5CU040 A3002=,
20180105_223000.002,0,RJDA,,,,0,20180105220000,-1,-1,-1,-1,360,-1,3,-1,-1,330,40,,9999,0,0,1,FEW 30,1,5,1,1,1019,RJDA 052230Z 36003KT 330V040 9999 FEW030 05/01 Q1019 RMK     1CU030 A3011=,
20180105_230000.002,0,RJDA,,,,0,20180105230000,-1,-1,-1,-1,360,-1,4,-1,-1,-1,-1,,9999,0,0,1,FEW 30,1,5,1,2,1019,RJDA 052300Z 36004KT 9999 FEW030 05/02 Q1019 RMK 1CU030 A3011=,
20180106_000000.002,0,RJDA,,,,0,20180106000000,-1,-1,-1,-1,360,-1,5,-1,-1,-1,-1,,9999,0,0,1,FEW 30,1,7,1,3,1020,RJDA 060000Z 36005KT 9999 FEW030 07/03 Q1020 RMK 2CU030 A3013=,
20180106_010000.002,0,RJDA,,,,0,20180106010000,-1,-1,-1,-1,360,-1,10,-1,-1,330,40,,9999,0,0,1,FEW 30,1,7,1,2,1021,RJDA 060100Z 36010KT 330V040 9999 FEW030 07/02 Q1021 RMK     2CU030 A3015=,
20180106_020000.002,0,RJDA,,,,0,20180106020000,-1,-1,-1,-1,360,-1,8,-1,-1,310,30,,9999,0,0,1,FEW 30,1,9,1,3,1020,RJDA 060200Z 36008KT 310V030 9999 FEW030 09/03 Q1020 RMK     1CU030 A3014=,
20180106_030000.002,0,RJDA,,,,0,20180106030000,-1,-1,-1,-1,350,-1,9,-1,-1,320,20,,9999,0,0,1,FEW 30,1,8,1,1,1019,RJDA 060300Z 35009KT 320V020 9999 FEW030 08/01 Q1019 RMK     1CU030 A3011=,
20180106_040000.002,0,RJDA,,,,0,20180106040000,-1,-1,-1,-1,350,-1,8,-1,-1,300,30,,9999,0,0,1,FEW 30,1,9,1,2,1019,RJDA 060400Z 35008KT 300V030 9999 FEW030 09/02 Q1019 RMK     1CU030 A3009=,
20180106_050000.002,0,RJDA,,,,0,20180106050000,-1,-1,-1,-1,330,-1,8,-1,-1,280,20,,9999,0,0,1,FEW 40,1,10,1,0,1018,RJDA 060500Z 33008KT 280V020 9999 FEW040 10/00 Q1018 RMK     1CU040 A3008=,
20180106_060000.002,0,RJDA,,,,0,20180106060000,-1,-1,-1,-1,350,-1,8,-1,-1,-1,-1,,9999,0,0,1,FEW 40,1,9,-1,1,1018,RJDA 060600Z 35008KT 9999 FEW040 09/M01 Q1018 RMK 1CU040     A3007=,
20180106_070000.002,0,RJDA,,,,0,20180106070000,-1,-1,-1,-1,360,-1,7,-1,-1,-1,-1,,9999,0,0,1,FEW 40,1,9,-1,1,1018,RJDA 060700Z 36007KT 9999 FEW040 09/M01 Q1018 RMK 1CU040     A3007=,
20180106_080000.002,0,RJDA,,,,0,20180106080000,-1,-1,-1,-1,70,-1,3,-1,-1,360,90,,9999,0,0,2,FEW 40   SCT -9999,1,8,1,2,1019,RJDA 060800Z 07003KT 360V090 9999 FEW040 SCT/// 08/02 Q1019     RMK 1CU040 A3010=,
20180106_090000.002,0,RJDA,,,,0,20180106090000,-1,-1,-1,-1,999,-1,1,-1,-1,-1,-1,,9999,0,0,2,FEW 30   BKN -9999,1,6,1,2,1020,RJDA 060900Z VRB01KT 9999 FEW030 BKN/// 06/02 Q1020 RMK 1CU030     A3013=,
20180106_100000.002,0,RJDA,,,,0,20180106100000,-1,-1,-1,-1,310,-1,3,-1,-1,270,340,,9999,0,0,2,FEW 40   BKN -9999,1,5,1,2,1020,RJDA 061000Z 31003KT 270V340 9999 FEW040 BKN/// 05/02 Q1020     RMK 1CU040 A3014=,
20180106_110000.002,0,RJDA,,,,0,20180106110000,-1,-1,-1,-1,340,-1,4,-1,-1,-1,-1,,9999,0,0,2,FEW 40   BKN -9999,1,6,1,2,1020,RJDA 061100Z 34004KT 9999 FEW040 BKN/// 06/02 Q1020 RMK 1CU040     A3013=,
20180106_223000.002,0,RJDA,,,,0,20180106220000,-1,-1,-1,-1,999,-1,2,-1,-1,-1,-1,CAVOK,-1,0,0,0,,1,4,1,2,1021,RJDA 062230Z VRB02KT CAVOK 04/02 Q1021 RMK A3017=,
20180106_230000.002,0,RJDA,,,,0,20180106230000,-1,-1,-1,-1,220,-1,2,-1,-1,-1,-1,CAVOK,-1,0,0,0,,1,3,1,2,1022,RJDA 062300Z 22002KT CAVOK 03/02 Q1022 RMK A3018=,
20180107_000000.002,0,RJDA,,,,0,20180107000000,-1,-1,-1,-1,999,-1,1,-1,-1,-1,-1,CAVOK,-1,0,0,0,,1,5,1,3,1021,RJDA 070000Z VRB01KT CAVOK 05/03 Q1021 RMK A3017=,
20180107_010000.003,0,RJDA,,,,0,20180107010000,-1,-1,-1,-1,999,-1,1,-1,-1,-1,-1,CAVOK,-1,0,0,0,,1,6,1,2,1022,RJDA 070100Z VRB01KT CAVOK 06/02 Q1022 RMK A3021=,
20180107_020000.002,0,RJDA,,,,0,20180107020000,-1,-1,-1,-1,999,-1,2,-1,-1,-1,-1,,9999,0,0,3,FEW 30   SCT 110   BKN -9999,1,7,1,2,1021,RJDA 070200Z VRB02KT 9999 FEW030 SCT110 BKN/// 07/02 Q1021 RMK     2CU030 3AC110 A3017=,
20180107_030000.002,0,RJDA,,,,0,20180107030000,-1,-1,-1,-1,999,-1,1,-1,-1,-1,-1,,9999,0,0,3,FEW 30   SCT 110   BKN -9999,1,7,1,2,1020,RJDA 070300Z VRB01KT 9999 FEW030 SCT110 BKN/// 07/02 Q1020 RMK     1CU030 4AC110 A3015=,
20180107_040000.002,0,RJDA,,,,0,20180107040000,-1,-1,-1,-1,40,-1,3,-1,-1,350,150,,9999,0,0,3,FEW 30   SCT 100   BKN -9999,1,8,1,2,1021,RJDA 070400Z 04003KT 350V150 9999 FEW030 SCT100 BKN/// 08/02     Q1021 RMK 1SC030 4AC100 A3015=,
20180107_050000.002,0,RJDA,,,,0,20180107050000,-1,-1,-1,-1,70,-1,4,-1,-1,40,110,,9999,0,0,3,FEW 35   SCT 40   BKN 100,1,8,1,3,1019,RJDA 070500Z 07004KT 040V110 9999 FEW035 SCT040 BKN100 08/03     Q1019 RMK 1CU035 3SC040 5AC100 A3010=,
20180107_060000.002,0,RJDA,,,,0,20180107060000,-1,-1,-1,-1,110,-1,4,-1,-1,70,140,,9999,0,0,3,FEW 35   SCT 50   BKN 100,1,9,1,3,1018,RJDA 070600Z 11004KT 070V140 9999 FEW035 SCT050 BKN100 09/03     Q1018 RMK 1CU035 3SC050 5AC100 A3007=,
20180107_070000.002,0,RJDA,,,,0,20180107070000,-1,-1,-1,-1,70,-1,3,-1,-1,-1,-1,,9999,0,0,3,FEW 35   SCT 60   BKN 100,1,8,1,3,1018,RJDA 070700Z 07003KT 9999 FEW035 SCT060 BKN100 08/03 Q1018 RMK     1CU035 3SC060 6AC100 A3007=,
20180107_080000.002,0,RJDA,,,,0,20180107080000,-1,-1,-1,-1,999,-1,1,-1,-1,-1,-1,,9999,0,0,3,FEW 30   SCT 40   BKN 50,1,8,1,4,1018,RJDA 070800Z VRB01KT 9999 FEW030 SCT040 BKN050 08/04 Q1018 RMK     1CU030 3SC040 6SC050 A3008=,
20180107_090000.002,0,RJDA,,,,0,20180107090000,-1,-1,-1,-1,999,-1,2,-1,-1,-1,-1,,9999,0,0,2,FEW 35   BKN 45,1,7,1,5,1018,RJDA 070900Z VRB02KT 9999 FEW035 BKN045 07/05 Q1018 RMK 1CU035     6SC045 A3009=,
20180107_100000.002,0,RJDA,,,,0,20180107100000,-1,-1,-1,-1,220,-1,2,-1,-1,-1,-1,,9999,0,1,3,FEW 35   SCT 50   BKN 90,1,7,1,5,1019,RJDA 071000Z 22002KT 9999 -RA FEW035 SCT050 BKN090 07/05 Q1019     RMK 1CU035 4SC050 5AC090 A3009=,- RA
20180107_110000.002,0,RJDA,,,,0,20180107110000,-1,-1,-1,-1,999,-1,2,-1,-1,-1,-1,,9999,0,1,3,FEW 30   SCT 40   BKN 50,1,7,1,6,1018,RJDA 071100Z VRB02KT 9999 -RA FEW030 SCT040 BKN050 07/06 Q1018     RMK 1CU030 4SC040 5SC050 A3009=,- RA
20180107_223000.002,0,RJDA,,,,0,20180107220000,-1,-1,-1,-1,999,-1,1,-1,-1,-1,-1,,100,0,2,1,VV 1,1,10,1,10,1010,RJDA 072230Z VRB01KT 0100 -RA FG VV001 10/10 Q1010 RMK A2985=,- RA; FG
20180107_230000.002,0,RJDA,,,,0,20180107230000,-1,-1,-1,-1,280,-1,3,-1,-1,210,310,,100,0,1,1,VV 1,1,10,1,10,1010,RJDA 072300Z 28003KT 210V310 0100 FG VV001 10/10 Q1010 RMK     A2984=,FG
20180108_000000.002,0,RJDA,,,,0,20180108000000,-1,-1,-1,-1,999,-1,1,-1,-1,-1,-1,,1400,0,2,3,FEW 2   SCT 10   BKN 25,1,11,1,11,1010,RJDA 080000Z VRB01KT 1400 -SHRA BR FEW002 SCT010 BKN025 11/11     Q1010 RMK 1ST002 3ST010 6CU025 A2985=,- RA SH; BR
20180108_010000.002,0,RJDA,,,,0,20180108010000,-1,-1,-1,-1,999,-1,1,-1,-1,-1,-1,,4000,0,3,3,FEW 2   SCT 15   BKN 25,1,13,1,12,1010,RJDA 080100Z VRB01KT 4000 -SHRA BR PRFG FEW002 SCT015 BKN025     13/12 Q1010 RMK 1ST002 4CU015 6CU025 A2984 FG NW=,- RA SH; BR; PR FG
20180108_020000.002,0,RJDA,,,,0,20180108020000,-1,-1,-1,-1,999,-1,2,-1,-1,-1,-1,,6000,0,0,3,FEW 2   SCT 10   BKN 20,1,13,1,13,1010,RJDA 080200Z VRB02KT 6000 FEW002 SCT010 BKN020 13/13 Q1010 RMK     1ST002 3CU010 6CU020 A2983=,
20180108_030000.002,0,RJDA,,,,0,20180108030000,-1,-1,-1,-1,999,-1,2,-1,-1,-1,-1,,7000,0,1,3,FEW 4   SCT 20   BKN 90,1,15,1,15,1009,RJDA 080300Z VRB02KT 7000 -RA FEW004 SCT020 BKN090 15/15 Q1009     RMK 1ST004 3CU020 6AC090 A2980=,- RA
20180108_040000.002,0,RJDA,,,,0,20180108040000,-1,-1,-1,-1,999,-1,1,-1,-1,-1,-1,,7000,0,1,2,FEW 4   BKN 70,1,15,1,15,1007,RJDA 080400Z VRB01KT 7000 -RA FEW004 BKN070 15/15 Q1007 RMK     1ST004 6AC070 A2976=,- RA
20180108_050000.002,0,RJDA,,,,0,20180108050000,-1,-1,-1,-1,240,-1,4,-1,-1,160,290,,6000,0,1,3,FEW 4   SCT 50   BKN 70,1,15,1,15,1006,RJDA 080500Z 24004KT 160V290 6000 -RA FEW004 SCT050 BKN070     15/15 Q1006 RMK 1ST004 3SC050 6AC070 A2972=,- RA
20180108_060000.003,0,RJDA,,,,0,20180108060000,-1,-1,-1,-1,260,-1,9,-1,-1,200,310,,6000,0,1,3,FEW 4   SCT 20   BKN 30,1,15,1,14,1006,RJDA 080600Z 26009KT 200V310 6000 -SHRA FEW004 SCT020 BKN030     15/14 Q1006 RMK 1ST004 4CU020 6CU030 A2973=,- RA SH
20180108_070000.002,0,RJDA,,,,0,20180108070000,-1,-1,-1,-1,250,-1,10,-1,-1,200,280,,6000,0,1,3,FEW 5   SCT 15   BKN 30,1,14,1,13,1007,RJDA 080700Z 25010KT 200V280 6000 -SHRA FEW005 SCT015 BKN030     14/13 Q1007 RMK 1ST005 4CU015 6CU030 A2974=,- RA SH
20180108_080000.002,0,RJDA,,,,0,20180108080000,-1,-1,-1,-1,250,-1,7,-1,18,200,290,,6000,0,1,3,FEW 5   SCT 15   BKN 30,1,13,1,13,1007,RJDA 080800Z 25007G18KT 200V290 6000 -SHRA FEW005 SCT015     BKN030 13/13 Q1007 RMK 1ST005 3CU015 6CU030 A2974=,- RA SH
20180108_090000.002,0,RJDA,,,,0,20180108090000,-1,-1,-1,-1,260,-1,4,-1,-1,210,330,,6000,0,1,3,FEW 7   SCT 15   BKN 40,1,13,1,13,1007,RJDA 080900Z 26004KT 210V330 6000 -SHRA FEW007 SCT015 BKN040     13/13 Q1007 RMK 1ST007 4CU015 6CU040 A2974=,- RA SH
20180108_100000.002,0,RJDA,,,,0,20180108100000,-1,-1,-1,-1,280,-1,8,-1,-1,210,320,,6000,0,1,3,FEW 6   SCT 10   BKN 20,1,12,1,12,1007,RJDA 081000Z 28008KT 210V320 6000 -SHRA FEW006 SCT010 BKN020     12/12 Q1007 RMK 1ST006 4CU010 6CU020 A2974=,- RA SH
20180108_110000.002,0,RJDA,,,,0,20180108110000,-1,-1,-1,-1,300,-1,10,-1,-1,250,320,,6000,0,1,3,FEW 7   SCT 10   BKN 20,1,12,1,11,1008,RJDA 081100Z 30010KT 250V320 6000 -SHRA FEW007 SCT010 BKN020     12/11 Q1008 RMK 1ST007 4CU010 6CU020 A2978=,- RA SH
20180108_223000.001,0,RJDA,,,,0,20180108220000,-1,-1,-1,-1,290,-1,7,-1,-1,240,320,,6000,0,1,3,FEW 8   SCT 20   BKN 50,1,6,1,4,1013,RJDA 082230Z 29007KT 240V320 6000 -RA FEW008 SCT020 BKN050     06/04 Q1013 RMK 1ST008 3CU020 6SC050 A2992=,- RA
20180108_230000.003,0,RJDA,,,,0,20180108230000,-1,-1,-1,-1,300,-1,11,-1,-1,270,330,,6000,0,1,3,FEW 20   SCT 35   BKN 50,1,7,1,3,1013,RJDA 082300Z 30011KT 270V330 6000 -RA FEW020 SCT035 BKN050     07/03 Q1013 RMK 1CU020 3CU035 6SC050 A2993=,- RA
20180109_000000.002,0,RJDA,,,,0,20180109000000,-1,-1,-1,-1,310,-1,13,-1,23,270,340,,8000,0,1,3,FEW 30   SCT 40   BKN 50,1,7,1,2,1014,RJDA 090000Z 31013G23KT 270V340 8000 -RA FEW030 SCT040 BKN050     07/02 Q1014 RMK 1CU030 3SC040 5SC050 A2994=,- RA
20180109_010000.002,0,RJDA,,,,0,20180109010000,-1,-1,-1,-1,300,-1,15,-1,29,260,340,,9999,0,0,3,FEW 20   SCT 40   BKN 60,1,7,-1,1,1014,RJDA 090100Z 30015G29KT 260V340 9999 FEW020 SCT040 BKN060     07/M01 Q1014 RMK 1CU020 3CU040 5SC060 A2995=,
20180109_020000.002,0,RJDA,,,,0,20180109020000,-1,-1,-1,-1,300,-1,12,-1,23,250,330,,9999,0,0,2,FEW 20   SCT 70,1,6,1,2,1014,RJDA 090200Z 30012G23KT 250V330 9999 FEW020 SCT070 06/02 Q1014     RMK 1CU020 4AC070 A2996=,
20180109_030000.002,0,RJDA,,,,0,20180109030000,-1,-1,-1,-1,310,-1,17,-1,31,280,340,,9999,0,0,3,FEW 20   SCT 30   BKN 40,1,6,1,3,1014,RJDA 090300Z 31017G31KT 280V340 9999 FEW020 SCT030 BKN040     06/03 Q1014 RMK 1CU020 3CU030 5CU040 A2994=,
20180109_040000.002,0,RJDA,,,,0,20180109040000,-1,-1,-1,-1,310,-1,14,-1,-1,270,340,,9999,0,0,2,FEW 15   SCT 30,1,6,1,2,1013,RJDA 090400Z 31014KT 270V340 9999 FEW015 SCT030 06/02 Q1013     RMK 1CU015 4CU030 A2994=,
20180109_050000.002,0,RJDA,,,,0,20180109050000,-1,-1,-1,-1,330,-1,14,-1,-1,-1,-1,,9999,0,0,3,FEW 10   SCT 20   BKN 30,1,5,1,3,1013,RJDA 090500Z 33014KT 9999 FEW010 SCT020 BKN030 05/03 Q1013 RMK     1ST010 3CU020 5CU030 A2993=,
20180109_060000.002,0,RJDA,,,,0,20180109060000,-1,-1,-1,-1,320,-1,7,-1,18,280,350,,5000,0,2,3,FEW 8   SCT 15   BKN 30,1,3,1,2,1014,RJDA 090600Z 32007G18KT 280V350 5000 -SHSNRA BR FEW008 SCT015     BKN030 03/02 Q1014 RMK 1ST008 3CU015 5CU030 A2994=,- SN RA SH; BR
20180109_070000.002,0,RJDA,,,,0,20180109070000,-1,-1,-1,-1,280,-1,4,-1,14,240,330,,5000,0,2,3,FEW 5   SCT 10   BKN 20,1,3,1,2,1014,RJDA 090700Z 28004G14KT 240V330 5000 -SHRASN BR FEW005 SCT010     BKN020 03/02 Q1014 RMK 1ST005 3CU010 6CU020 A2996=,- RA SN SH; BR
20180109_080000.002,0,RJDA,,,,0,20180109080000,-1,-1,-1,-1,330,-1,6,-1,-1,300,360,,5000,0,2,3,FEW 5   SCT 10   BKN 20,1,3,1,3,1015,RJDA 090800Z 33006KT 300V360 5000 -SHRA BR FEW005 SCT010     BKN020 03/03 Q1015 RMK 1ST005 3CU010 5CU020 A2999=,- RA SH; BR
20180109_090000.002,0,RJDA,,,,0,20180109090000,-1,-1,-1,-1,320,-1,5,-1,-1,-1,-1,,8000,0,1,3,FEW 5   SCT 15   BKN 30,1,4,1,3,1016,RJDA 090900Z 32005KT 8000 -SHRA FEW005 SCT015 BKN030 04/03     Q1016 RMK 1ST005 3CU015 5CU030 A3001=,- RA SH
20180109_100000.002,0,RJDA,,,,0,20180109100000,-1,-1,-1,-1,330,-1,3,-1,-1,-1,-1,,9999,0,0,3,FEW 8   SCT 20   BKN 30,1,4,1,3,1016,RJDA 091000Z 33003KT 9999 FEW008 SCT020 BKN030 04/03 Q1016 RMK     1ST008 3CU020 5CU030 A3002=,
20180109_110000.002,0,RJDA,,,,0,20180109110000,-1,-1,-1,-1,180,-1,2,-1,-1,-1,-1,,9999,0,0,3,FEW 10   SCT 30   BKN 40,1,3,1,3,1017,RJDA 091100Z 18002KT 9999 FEW010 SCT030 BKN040 03/03 Q1017 RMK     1ST010 3CU030 5CU040 A3004=,
20180109_223000.002,0,RJDA,,,,0,20180109220000,-1,-1,-1,-1,270,-1,8,-1,20,200,330,,8000,0,1,3,FEW 5   SCT 20   BKN 30,1,5,1,4,1015,RJDA 092230Z 27008G20KT 200V330 8000 -SHRA FEW005 SCT020     BKN030 05/04 Q1015 RMK 1ST005 3CU020 5CU030 A2998=,- RA SH
20180109_230000.002,0,RJDA,,,,0,20180109230000,-1,-1,-1,-1,270,-1,8,-1,23,240,320,,9999,0,1,3,FEW 10   SCT 20   BKN 30,1,6,1,5,1015,RJDA 092300Z 27008G23KT 240V320 9999 -SHRA FEW010 SCT020     BKN030 06/05 Q1015 RMK 1ST010 3CU020 6CU030 A2999=,- RA SH
20180110_000000.002,0,RJDA,,,,0,20180110000000,-1,-1,-1,-1,270,-1,8,-1,-1,190,310,,9999,0,1,3,FEW 5   SCT 20   BKN 40,1,6,1,4,1015,RJDA 100000Z 27008KT 190V310 9999 -SHRA FEW005 SCT020 BKN040     06/04 Q1015 RMK 1ST005 4CU020 5CU040 A2998=,- RA SH
20180110_010000.002,0,RJDA,,,,0,20180110010000,-1,-1,-1,-1,300,-1,10,-1,21,250,330,,9999,0,1,4,FEW 5   FEW 10 CB  SCT 15   BKN 30,1,6,1,5,1016,RJDA 100100Z 30010G21KT 250V330 9999 -SHRA FEW005 FEW010CB     SCT015 BKN030 06/05 Q1016 RMK 1ST005 1CB010 3CU015 6CU030           A3001 CB 25KM NE MOV NE=,- RA SH
20180110_020000.002,0,RJDA,,,,0,20180110020000,-1,-1,-1,-1,290,-1,13,-1,26,250,330,,9999,0,1,3,FEW 5   SCT 10   BKN 30,1,6,1,5,1015,RJDA 100200Z 29013G26KT 250V330 9999 -SHRA FEW005 SCT010     BKN030 06/05 Q1015 RMK 1ST005 3CU010 6CU030 A2999=,- RA SH
20180110_030000.002,0,RJDA,,,,0,20180110030000,-1,-1,-1,-1,300,-1,8,-1,25,260,330,,8000,0,1,3,FEW 5   SCT 10   BKN 20,1,5,1,4,1016,RJDA 100300Z 30008G25KT 260V330 8000 -SHRA FEW005 SCT010     BKN020 05/04 Q1016 RMK 1ST005 4CU010 6CU020 A3001=,- RA SH
20180110_040000.003,0,RJDA,,,,0,20180110040000,-1,-1,-1,-1,290,-1,10,-1,-1,250,330,,9999,0,1,3,FEW 10   SCT 25   BKN 30,1,6,1,3,1015,RJDA 100400Z 29010KT 250V330 9999 -SHRA FEW010 SCT025 BKN030     06/03 Q1015 RMK 1ST010 3CU025 5CU030 A2999=,- RA SH
20180110_050000.002,0,RJDA,,,,0,20180110050000,-1,-1,-1,-1,310,-1,16,-1,26,270,330,,9999,0,0,3,FEW 8   SCT 25   BKN 30,1,6,1,3,1015,RJDA 100500Z 31016G26KT 270V330 9999 FEW008 SCT025 BKN030     06/03 Q1015 RMK 1ST008 3CU025 5CU030 A2999=,
20180110_060000.002,0,RJDA,,,,0,20180110060000,-1,-1,-1,-1,290,-1,11,-1,-1,250,340,,9999,0,1,3,FEW 8   SCT 30   BKN 40,1,6,1,1,1015,RJDA 100600Z 29011KT 250V340 9999 -SHRA FEW008 SCT030 BKN040     06/01 Q1015 RMK 1ST008 3CU030 5CU040 A2999=,- RA SH
20180110_070000.002,0,RJDA,,,,0,20180110070000,-1,-1,-1,-1,310,-1,19,-1,32,280,350,,9999,0,0,3,FEW 15   SCT 30   BKN 40,1,5,1,1,1016,RJDA 100700Z 31019G32KT 280V350 9999 FEW015 SCT030 BKN040     05/01 Q1016 RMK 1CU015 3CU030 5CU040 A3002=,
20180110_080000.002,0,RJDA,,,,0,20180110080000,-1,-1,-1,-1,320,-1,7,-1,-1,270,350,,9999,0,1,3,FEW 15   SCT 30   BKN 40,1,4,1,3,1016,RJDA 100800Z 32007KT 270V350 9999 -SHRA FEW015 SCT030 BKN040     04/03 Q1016 RMK 1CU015 3CU030 5CU040 A3003=,- RA SH
20180110_090000.002,0,RJDA,,,,0,20180110090000,-1,-1,-1,-1,310,-1,17,-1,28,260,340,,9999,0,0,2,FEW 20   BKN 35,1,5,-1,1,1017,RJDA 100900Z 31017G28KT 260V340 9999 FEW020 BKN035 05/M01     Q1017 RMK 1CU020 5CU035 A3005=,
20180110_100000.002,0,RJDA,,,,0,20180110100000,-1,-1,-1,-1,280,-1,8,-1,-1,230,310,,9999,0,1,2,FEW 25   BKN 35,1,4,1,0,1018,RJDA 101000Z 28008KT 230V310 9999 -SHRA FEW025 BKN035 04/00     Q1018 RMK 1CU025 5CU035 A3008=,- RA SH
20180110_110000.002,0,RJDA,,,,0,20180110110000,-1,-1,-1,-1,300,-1,11,-1,23,240,330,,9999,0,1,2,FEW 25   BKN 35,1,4,-1,0,1019,RJDA 101100Z 30011G23KT 240V330 9999 -SHSNRA FEW025 BKN035     04/M00 Q1019 RMK 1CU025 5CU035 A3010=,- SN RA SH
20180110_223000.002,0,RJDA,,,,0,20180110220000,-1,-1,-1,-1,50,-1,3,-1,-1,10,90,,700,0,1,3,FEW 3   SCT 10   BKN 15,-1,1,-1,1,1022,RJDA 102230Z 05003KT 010V090 0700 SHSN FEW003 SCT010 BKN015     M01/M01 Q1022 RMK 1ST003 3CU010 6CU015 A3019=,SN SH
20180110_230000.003,0,RJDA,,,,0,20180110230000,-1,-1,-1,-1,20,-1,4,-1,-1,-1,-1,,300,0,1,2,FEW 2   BKN 7,-1,1,-1,1,1022,RJDA 102300Z 02004KT 0300 SHSN FEW002 BKN007 M01/M01 Q1022 RMK     2ST002 6ST007 A3020=,SN SH
20180111_000000.002,0,RJDA,,,,0,20180111000000,-1,-1,-1,-1,20,-1,5,-1,-1,340,60,,300,0,1,2,FEW 3   BKN 6,-1,1,-1,1,1023,RJDA 110000Z 02005KT 340V060 0300 SHSN FEW003 BKN006 M01/M01     Q1023 RMK 2ST003 6ST006 A3022=,SN SH
20180111_010000.002,0,RJDA,,,,0,20180111010000,-1,-1,-1,-1,30,-1,3,-1,-1,340,90,,300,0,1,2,FEW 3   BKN 6,-1,1,-1,1,1023,RJDA 110100Z 03003KT 340V090 0300 SHSN FEW003 BKN006 M01/M01     Q1023 RMK 2ST003 6ST006 A3023=,SN SH
20180111_020000.002,0,RJDA,,,,0,20180111020000,-1,-1,-1,-1,20,-1,5,-1,-1,340,60,,1000,0,1,2,FEW 3   BKN 6,-1,0,-1,1,1023,RJDA 110200Z 02005KT 340V060 1000 -SHSN FEW003 BKN006 M00/M01     Q1023 RMK 2ST003 6ST006 A3023=,- SN SH
20180111_030000.001,0,RJDA,,,,0,20180111030000,-1,-1,-1,-1,10,-1,4,-1,-1,350,60,,2000,0,1,3,FEW 3   SCT 6   BKN 10,-1,0,-1,1,1023,RJDA 110300Z 01004KT 350V060 2000 -SHSN FEW003 SCT006 BKN010     M00/M01 Q1023 RMK 1ST003 3ST006 6CU010 A3022=,- SN SH
20180111_040000.002,0,RJDA,,,,0,20180111040000,-1,-1,-1,-1,350,-1,7,-1,-1,-1,-1,,1000,0,1,3,FEW 8   SCT 15   BKN 25,-1,0,-1,1,1023,RJDA 110400Z 35007KT 1000 -SHSN FEW008 SCT015 BKN025 M00/M01     Q1023 RMK 1ST008 3CU015 5CU025 A3022=,- SN SH
20180111_050000.002,0,RJDA,,,,0,20180111050000,-1,-1,-1,-1,340,-1,6,-1,-1,-1,-1,,1200,0,1,3,FEW 5   SCT 10   BKN 20,1,0,-1,0,1023,RJDA 110500Z 34006KT 1200 -SHSN FEW005 SCT010 BKN020 00/M00     Q1023 RMK 1ST005 4CU010 6CU020 A3021=,- SN SH
20180111_060000.002,0,RJDA,,,,0,20180111060000,-1,-1,-1,-1,360,-1,9,-1,-1,-1,-1,,1200,0,1,3,FEW 5   SCT 10   BKN 15,-1,0,-1,1,1022,RJDA 110600Z 36009KT 1200 -SHSN FEW005 SCT010 BKN015 M00/M01     Q1022 RMK 2ST005 4CU010 6CU015 A3021=,- SN SH
20180111_070000.002,0,RJDA,,,,0,20180111070000,-1,-1,-1,-1,360,-1,6,-1,-1,330,40,,9999,0,1,3,FEW 7   SCT 20   BKN 30,1,0,-1,1,1022,RJDA 110700Z 36006KT 330V040 9999 -SHSN FEW007 SCT020 BKN030     00/M01 Q1022 RMK 1ST007 3CU020 5CU030 A3021=,- SN SH
20180111_080000.002,0,RJDA,,,,0,20180111080000,-1,-1,-1,-1,350,-1,8,-1,-1,320,20,,5000,0,1,3,FEW 7   SCT 20   BKN 30,1,0,-1,2,1023,RJDA 110800Z 35008KT 320V020 5000 -SHSN FEW007 SCT020 BKN030     00/M02 Q1023 RMK 1ST007 4CU020 6CU030 A3022=,- SN SH
20180111_090000.002,0,RJDA,,,,0,20180111090000,-1,-1,-1,-1,350,-1,8,-1,-1,320,20,,9999,0,1,3,FEW 10   SCT 20   BKN 30,1,0,-1,2,1023,RJDA 110900Z 35008KT 320V020 9999 VCSH FEW010 SCT020 BKN030     00/M02 Q1023 RMK 1ST010 3CU020 6CU030 A3023=,VC SH
20180111_100000.002,0,RJDA,,,,0,20180111100000,-1,-1,-1,-1,340,-1,10,-1,-1,-1,-1,,9999,0,1,3,FEW 10   SCT 20   BKN 30,-1,0,-1,2,1024,RJDA 111000Z 34010KT 9999 -SHSN FEW010 SCT020 BKN030 M00/M02     Q1024 RMK 1ST010 3CU020 6CU030 A3025=,- SN SH
20180111_110000.002,0,RJDA,,,,0,20180111110000,-1,-1,-1,-1,330,-1,6,-1,-1,300,10,,9999,0,1,3,FEW 10   SCT 20   BKN 30,-1,1,-1,1,1024,RJDA 111100Z 33006KT 300V010 9999 -SHSN FEW010 SCT020 BKN030     M01/M01 Q1024 RMK 1ST010 3CU020 6CU030 A3026=,- SN SH
20180111_223000.002,0,RJDA,,,,0,20180111220000,-1,-1,-1,-1,350,-1,7,-1,-1,-1,-1,,9999,0,1,3,FEW 15   SCT 25   BKN 35,-1,1,-1,2,1027,RJDA 112230Z 35007KT 9999 -SHSN FEW015 SCT025 BKN035 M01/M02     Q1027 RMK 1CU015 4CU025 6CU035 A3033=,- SN SH
20180111_230000.002,0,RJDA,,,,0,20180111230000,-1,-1,-1,-1,330,-1,5,-1,-1,290,350,,9999,0,1,3,FEW 15   SCT 25   BKN 40,-1,1,-1,3,1027,RJDA 112300Z 33005KT 290V350 9999 -SHSN FEW015 SCT025 BKN040     M01/M03 Q1027 RMK 1CU015 3CU025 5CU040 A3034=,- SN SH
20180112_000000.002,0,RJDA,,,,0,20180112000000,-1,-1,-1,-1,360,-1,11,-1,-1,-1,-1,,9999,0,1,3,FEW 10   SCT 25   BKN 35,-1,0,-1,3,1027,RJDA 120000Z 36011KT 9999 -SHSN FEW010 SCT025 BKN035 M00/M03     Q1027 RMK 1CU010 4CU025 6CU035 A3035=,- SN SH
20180112_010000.003,0,RJDA,,,,0,20180112010000,-1,-1,-1,-1,350,-1,10,-1,-1,320,30,,9999,0,1,2,SCT 20   BKN 35,-1,0,-1,2,1028,RJDA 120100Z 35010KT 320V030 9999 -SHSN SCT020 BKN035 M00/M02     Q1028 RMK 4CU020 6CU035 A3037=,- SN SH
20180112_020000.002,0,RJDA,,,,0,20180112020000,-1,-1,-1,-1,340,-1,9,-1,-1,300,10,,9999,0,1,3,FEW 15   SCT 25   BKN 35,1,0,-1,3,1028,RJDA 120200Z 34009KT 300V010 9999 VCSH FEW015 SCT025 BKN035     00/M03 Q1028 RMK 1CU015 3CU025 5CU035 A3036=,VC SH
20180112_030000.002,0,RJDA,,,,0,20180112030000,-1,-1,-1,-1,350,-1,5,-1,-1,310,20,,9999,0,1,3,FEW 15   SCT 25   BKN 35,1,1,-1,3,1027,RJDA 120300Z 35005KT 310V020 9999 -SHSN FEW015 SCT025 BKN035     01/M03 Q1027 RMK 1CU015 3CU025 6CU035 A3033=,- SN SH
20180112_040000.002,0,RJDA,,,,0,20180112040000,-1,-1,-1,-1,350,-1,10,-1,-1,-1,-1,,9999,0,1,3,FEW 10   SCT 25   BKN 35,1,1,-1,2,1026,RJDA 120400Z 35010KT 9999 -SHSN FEW010 SCT025 BKN035 01/M02     Q1026 RMK 1CU010 3CU025 5CU035 A3032=,- SN SH
20180112_050000.003,0,RJDA,,,,0,20180112050000,-1,-1,-1,-1,340,-1,10,-1,-1,300,10,,9999,0,0,3,FEW 15   SCT 25   BKN 35,1,1,-1,2,1026,RJDA 120500Z 34010KT 300V010 9999 FEW015 SCT025 BKN035 01/M02     Q1026 RMK 1CU015 4CU025 5CU035 A3031=,
20180112_060000.002,0,RJDA,,,,0,20180112060000,-1,-1,-1,-1,330,-1,8,-1,-1,280,360,,9999,0,0,2,FEW 25   BKN 35,1,1,-1,2,1026,RJDA 120600Z 33008KT 280V360 9999 FEW025 BKN035 01/M02 Q1026     RMK 1CU025 5CU035 A3032=,
20180112_070000.003,0,RJDA,,,,0,20180112070000,-1,-1,-1,-1,340,-1,6,-1,-1,300,10,,9999,0,0,3,FEW 25   SCT 35   BKN 50,1,1,-1,2,1027,RJDA 120700Z 34006KT 300V010 9999 FEW025 SCT035 BKN050 01/M02     Q1027 RMK 1CU025 3CU035 5SC050 A3033=,
20180112_080000.002,0,RJDA,,,,0,20180112080000,-1,-1,-1,-1,340,-1,6,-1,-1,300,10,,9999,0,0,2,FEW 25   BKN 50,1,0,-1,3,1027,RJDA 120800Z 34006KT 300V010 9999 FEW025 BKN050 00/M03 Q1027     RMK 1CU025 5SC050 A3035=,
20180112_090000.002,0,RJDA,,,,0,20180112090000,-1,-1,-1,-1,0,-1,0,-1,-1,-1,-1,,9999,0,0,2,FEW 30   SCT 50,-1,0,-1,2,1028,RJDA 120900Z 00000KT 9999 FEW030 SCT050 M00/M02 Q1028 RMK     1CU030 4SC050 A3037=,
20180112_100000.002,0,RJDA,,,,0,20180112100000,-1,-1,-1,-1,350,-1,5,-1,-1,-1,-1,,9999,0,0,2,FEW 35   BKN 50,1,0,-1,4,1028,RJDA 121000Z 35005KT 9999 FEW035 BKN050 00/M04 Q1028 RMK     1CU035 5SC050 A3037=,
20180112_110000.002,0,RJDA,,,,0,20180112110000,-1,-1,-1,-1,320,-1,4,-1,-1,-1,-1,,9999,0,0,2,FEW 35   BKN 50,-1,0,-1,3,1028,RJDA 121100Z 32004KT 9999 FEW035 BKN050 M00/M03 Q1028 RMK     1CU035 5SC050 A3038=,
20180112_223000.002,0,RJDA,,,,0,20180112220000,-1,-1,-1,-1,230,-1,2,-1,-1,-1,-1,,9999,0,0,3,FEW 20   SCT 30   BKN 40,-1,1,-1,3,1030,RJDA 122230Z 23002KT 9999 FEW020 SCT030 BKN040 M01/M03 Q1030     RMK 1CU020 4CU030 6SC040 A3042=,
20180112_230000.002,0,RJDA,,,,0,20180112230000,-1,-1,-1,-1,340,-1,3,-1,-1,310,10,,9999,0,0,3,FEW 20   SCT 30   BKN 40,1,1,-1,3,1030,RJDA 122300Z 34003KT 310V010 9999 FEW020 SCT030 BKN040 01/M03     Q1030 RMK 1CU020 4CU030 5SC040 A3042=,
20180113_000000.002,0,RJDA,,,,0,20180113000000,-1,-1,-1,-1,999,-1,1,-1,-1,-1,-1,,9999,0,0,3,FEW 20   SCT 30   BKN 40,1,1,-1,2,1030,RJDA 130000Z VRB01KT 9999 FEW020 SCT030 BKN040 01/M02 Q1030     RMK 1CU020 3CU030 5SC040 A3044=,
20180113_010000.003,0,RJDA,,,,0,20180113010000,-1,-1,-1,-1,350,-1,5,-1,-1,-1,-1,,9999,0,0,3,FEW 20   SCT 30   BKN 40,1,2,-1,1,1031,RJDA 130100Z 35005KT 9999 FEW020 SCT030 BKN040 02/M01 Q1031     RMK 1CU020 3CU030 6SC040 A3046=,
20180113_020000.002,0,RJDA,,,,0,20180113020000,-1,-1,-1,-1,350,-1,6,-1,-1,-1,-1,,9999,0,0,3,FEW 20   SCT 40   BKN 50,1,3,-1,2,1031,RJDA 130200Z 35006KT 9999 FEW020 SCT040 BKN050 03/M02 Q1031     RMK 1CU020 3CU040 6SC050 A3046=,
20180113_030000.002,0,RJDA,,,,0,20180113030000,-1,-1,-1,-1,10,-1,6,-1,-1,-1,-1,,9999,0,0,3,FEW 25   SCT 35   BKN 45,1,3,-1,2,1030,RJDA 130300Z 01006KT 9999 FEW025 SCT035 BKN045 03/M02 Q1030     RMK 1CU025 4CU035 5SC045 A3044=,
20180113_040000.002,0,RJDA,,,,0,20180113040000,-1,-1,-1,-1,350,-1,7,-1,-1,-1,-1,,9999,0,0,3,FEW 25   SCT 35   BKN 45,1,3,-1,1,1030,RJDA 130400Z 35007KT 9999 FEW025 SCT035 BKN045 03/M01 Q1030     RMK 1CU025 3CU035 5SC045 A3042=,
20180113_050000.002,0,RJDA,,,,0,20180113050000,-1,-1,-1,-1,350,-1,6,-1,-1,-1,-1,,9999,0,0,3,FEW 15   SCT 30   BKN 40,1,4,-1,1,1030,RJDA 130500Z 35006KT 9999 FEW015 SCT030 BKN040 04/M01 Q1030     RMK 1CU015 4CU030 5SC040 A3042=,
20180113_060000.002,0,RJDA,,,,0,20180113060000,-1,-1,-1,-1,340,-1,6,-1,-1,300,10,,9999,0,0,3,FEW 15   SCT 30   BKN 40,1,4,-1,1,1030,RJDA 130600Z 34006KT 300V010 9999 FEW015 SCT030 BKN040 04/M01     Q1030 RMK 1CU015 3CU030 6SC040 A3043=,
20180113_070000.002,0,RJDA,,,,0,20180113070000,-1,-1,-1,-1,350,-1,5,-1,-1,-1,-1,,9999,0,0,2,FEW 20   BKN 45,1,4,-1,1,1029,RJDA 130700Z 35005KT 9999 FEW020 BKN045 04/M01 Q1029 RMK     1CU020 5SC045 A3041=,
20180113_080000.002,0,RJDA,,,,0,20180113080000,-1,-1,-1,-1,360,-1,6,-1,-1,340,50,,9999,0,0,3,FEW 20   SCT 30   BKN 45,1,4,-1,0,1030,RJDA 130800Z 36006KT 340V050 9999 FEW020 SCT030 BKN045 04/M00     Q1030 RMK 1CU020 3CU030 5SC045 A3042=,
20180113_090000.002,0,RJDA,,,,0,20180113090000,-1,-1,-1,-1,999,-1,2,-1,-1,-1,-1,,9999,0,0,3,FEW 20   SCT 35   BKN 45,1,3,1,0,1031,RJDA 130900Z VRB02KT 9999 FEW020 SCT035 BKN045 03/00 Q1031 RMK     1CU020 3CU035 6SC045 A3045=,
20180113_100000.002,0,RJDA,,,,0,20180113100000,-1,-1,-1,-1,220,-1,2,-1,-1,-1,-1,,9999,0,0,3,FEW 25   SCT 30   BKN 45,1,1,1,1,1031,RJDA 131000Z 22002KT 9999 FEW025 SCT030 BKN045 01/01 Q1031 RMK     1CU025 3CU030 5SC045 A3047=,
20180113_110000.002,0,RJDA,,,,0,20180113110000,-1,-1,-1,-1,10,-1,3,-1,-1,-1,-1,,9999,0,0,2,FEW 25   BKN 40,1,3,1,0,1031,RJDA 131100Z 01003KT 9999 FEW025 BKN040 03/00 Q1031 RMK 1CU025     5CU040 A3047=,
20180113_223000.002,0,RJDA,,,,0,20180113220000,-1,-1,-1,-1,210,-1,3,-1,-1,-1,-1,,9999,0,0,2,FEW 40   BKN -9999,1,0,1,0,1033,RJDA 132230Z 21003KT 9999 FEW040 BKN/// 00/00 Q1033 RMK 1CU040     A3051 P/RR=,
20180113_230000.002,0,RJDA,,,,0,20180113230000,-1,-1,-1,-1,220,-1,3,-1,-1,-1,-1,,9999,0,0,2,FEW 30   BKN -9999,1,1,1,1,1032,RJDA 132300Z 22003KT 9999 FEW030 BKN/// 01/01 Q1032 RMK 1CU030     A3050=,
20180114_000000.003,0,RJDA,,,,0,20180114000000,-1,-1,-1,-1,210,-1,2,-1,-1,-1,-1,,9999,0,0,2,FEW 30   BKN -9999,1,2,1,1,1032,RJDA 140000Z 21002KT 9999 FEW030 BKN/// 02/01 Q1032 RMK 1CU030     A3048=,
20180114_010000.002,0,RJDA,,,,0,20180114010000,-1,-1,-1,-1,999,-1,2,-1,-1,-1,-1,,9999,0,0,2,FEW 20   BKN -9999,1,3,1,2,1031,RJDA 140100Z VRB02KT 9999 FEW020 BKN/// 03/02 Q1031 RMK 1CU020     A3047=,
20180114_020000.002,0,RJDA,,,,0,20180114020000,-1,-1,-1,-1,50,-1,6,-1,-1,-1,-1,,9999,0,0,2,FEW 20   BKN -9999,1,5,1,2,1031,RJDA 140200Z 05006KT 9999 FEW020 BKN/// 05/02 Q1031 RMK 1CU020     A3046=,
20180114_030000.002,0,RJDA,,,,0,20180114030000,-1,-1,-1,-1,40,-1,5,-1,-1,-1,-1,,9999,0,0,3,FEW 30   SCT 170   BKN -9999,1,5,1,1,1031,RJDA 140300Z 04005KT 9999 FEW030 SCT170 BKN/// 05/01 Q1031 RMK     1CU030 4AC170 A3045=,
20180114_040000.002,0,RJDA,,,,0,20180114040000,-1,-1,-1,-1,40,-1,4,-1,-1,360,110,,9999,0,0,3,FEW 20   SCT 160   BKN -9999,1,6,1,2,1029,RJDA 140400Z 04004KT 360V110 9999 FEW020 SCT160 BKN/// 06/02     Q1029 RMK 1CU020 3AC160 A3041=,
20180114_050000.002,0,RJDA,,,,0,20180114050000,-1,-1,-1,-1,70,-1,3,-1,-1,40,100,,9999,0,0,2,FEW 35   BKN -9999,1,6,1,0,1029,RJDA 140500Z 07003KT 040V100 9999 FEW035 BKN/// 06/00 Q1029     RMK 1CU035 A3039=,
20180114_060000.003,0,RJDA,,,,0,20180114060000,-1,-1,-1,-1,50,-1,2,-1,-1,-1,-1,,9999,0,0,3,FEW 40   SCT 180   BKN -9999,1,7,1,1,1028,RJDA 140600Z 05002KT 9999 FEW040 SCT180 BKN/// 07/01 Q1028 RMK     1CU040 4AC180 A3037=,
20180114_070000.002,0,RJDA,,,,0,20180114070000,-1,-1,-1,-1,60,-1,4,-1,-1,-1,-1,,9999,0,0,3,FEW 40   SCT 180   BKN -9999,1,6,1,1,1028,RJDA 140700Z 06004KT 9999 FEW040 SCT180 BKN/// 06/01 Q1028 RMK     1CU040 3AC180 A3036=,
20180114_080000.002,0,RJDA,,,,0,20180114080000,-1,-1,-1,-1,80,-1,2,-1,-1,-1,-1,,9999,0,0,3,FEW 40   SCT 170   BKN -9999,1,6,1,2,1027,RJDA 140800Z 08002KT 9999 FEW040 SCT170 BKN/// 06/02 Q1027 RMK     1CU040 4AC170 A3035=,
20180114_090000.002,0,RJDA,,,,0,20180114090000,-1,-1,-1,-1,999,-1,2,-1,-1,-1,-1,CAVOK,-1,0,0,0,,1,3,1,2,1028,RJDA 140900Z VRB02KT CAVOK 03/02 Q1028 RMK A3036=,
20180114_100000.002,0,RJDA,,,,0,20180114100000,-1,-1,-1,-1,210,-1,4,-1,-1,-1,-1,CAVOK,-1,0,0,0,,1,1,1,1,1028,RJDA 141000Z 21004KT CAVOK 01/01 Q1028 RMK A3037=,
20180114_110000.002,0,RJDA,,,,0,20180114110000,-1,-1,-1,-1,220,-1,3,-1,-1,-1,-1,CAVOK,-1,0,0,0,,1,1,1,1,1028,RJDA 141100Z 22003KT CAVOK 01/01 Q1028 RMK A3038=,
20180114_223000.002,0,RJDA,,,,0,20180114220000,-1,-1,-1,-1,999,-1,2,-1,-1,-1,-1,,9999,0,0,1,FEW 50,1,1,1,1,1026,RJDA 142230Z VRB02KT 9999 FEW050 01/01 Q1026 RMK 1SC050 A3032=,
20180114_230000.002,0,RJDA,,,,0,20180114230000,-1,-1,-1,-1,210,-1,3,-1,-1,-1,-1,,9999,0,0,1,FEW 50,1,2,1,2,1026,RJDA 142300Z 21003KT 9999 FEW050 02/02 Q1026 RMK 1SC050 A3032=,
20180115_000000.002,0,RJDA,,,,0,20180115000000,-1,-1,-1,-1,999,-1,2,-1,-1,-1,-1,,9999,0,0,1,FEW 30,1,6,1,4,1026,RJDA 150000Z VRB02KT 9999 FEW030 06/04 Q1026 RMK 1CU030 A3032=,
20180115_010000.002,0,RJDA,,,,0,20180115010000,-1,-1,-1,-1,110,-1,4,-1,-1,80,140,,9999,0,0,2,FEW 50   SCT 70,1,8,1,5,1027,RJDA 150100Z 11004KT 080V140 9999 FEW050 SCT070 08/05 Q1027     RMK 1SC050 3AC070 A3034=,
20180115_020000.002,0,RJDA,,,,0,20180115020000,-1,-1,-1,-1,90,-1,4,-1,-1,-1,-1,,9999,0,0,2,FEW 40   SCT 50,1,10,1,6,1026,RJDA 150200Z 09004KT 9999 FEW040 SCT050 10/06 Q1026 RMK 1CU040     3SC050 A3032=,
20180115_030000.002,0,RJDA,,,,0,20180115030000,-1,-1,-1,-1,90,-1,4,-1,-1,-1,-1,,9999,0,0,2,FEW 30   SCT 50,1,11,1,7,1025,RJDA 150300Z 09004KT 9999 FEW030 SCT050 11/07 Q1025 RMK 1CU030     3SC050 A3028=,
20180115_040000.002,0,RJDA,,,,0,20180115040000,-1,-1,-1,-1,100,-1,3,-1,-1,40,140,,9999,0,0,2,FEW 35   SCT 50,1,12,1,7,1024,RJDA 150400Z 10003KT 040V140 9999 FEW035 SCT050 12/07 Q1024     RMK 1CU035 3SC050 A3024=,
20180115_050000.002,0,RJDA,,,,0,20180115050000,-1,-1,-1,-1,80,-1,5,-1,-1,40,110,,9999,0,0,2,FEW 35   SCT 50,1,13,1,8,1023,RJDA 150500Z 08005KT 040V110 9999 FEW035 SCT050 13/08 Q1023     RMK 1CU035 4SC050 A3022=,
20180115_060000.002,0,RJDA,,,,0,20180115060000,-1,-1,-1,-1,50,-1,3,-1,-1,30,90,,9999,0,0,3,FEW 35   SCT 50   BKN 80,1,12,1,8,1023,RJDA 150600Z 05003KT 030V090 9999 FEW035 SCT050 BKN080 12/08     Q1023 RMK 1CU035 3SC050 5AC080 A3022=,
20180115_070000.003,0,RJDA,,,,0,20180115070000,-1,-1,-1,-1,80,-1,3,-1,-1,40,120,,9999,0,0,3,FEW 35   SCT 45   BKN 70,1,11,1,8,1023,RJDA 150700Z 08003KT 040V120 9999 FEW035 SCT045 BKN070 11/08     Q1023 RMK 1CU035 4CU045 6AC070 A3023=,
20180115_080000.002,0,RJDA,,,,0,20180115080000,-1,-1,-1,-1,90,-1,3,-1,-1,-1,-1,,9999,0,1,3,FEW 35   SCT 45   BKN 50,1,10,1,9,1024,RJDA 150800Z 09003KT 9999 -RA FEW035 SCT045 BKN050 10/09 Q1024     RMK 1CU035 3SC045 6SC050 A3025=,- RA
20180115_090000.002,0,RJDA,,,,0,20180115090000,-1,-1,-1,-1,999,-1,2,-1,-1,-1,-1,,7000,0,0,3,FEW 35   SCT 40   BKN 60,1,9,1,8,1024,RJDA 150900Z VRB02KT 7000 FEW035 SCT040 BKN060 09/08 Q1024 RMK     1CU035 4CU040 6SC060 A3026=,
20180115_100000.002,0,RJDA,,,,0,20180115100000,-1,-1,-1,-1,210,-1,1,-1,-1,-1,-1,,7000,0,0,2,FEW 35   BKN 45,1,8,1,8,1025,RJDA 151000Z 21001KT 7000 FEW035 BKN045 08/08 Q1025 RMK 1CU035     5CU045 A3027=,
20180115_110000.002,0,RJDA,,,,0,20180115110000,-1,-1,-1,-1,999,-1,2,-1,-1,-1,-1,,7000,0,0,1,FEW 35,1,7,1,7,1024,RJDA 151100Z VRB02KT 7000 FEW035 07/07 Q1024 RMK 1CU035 A3026=,
20180115_223000.002,0,RJDA,,,,0,20180115220000,-1,-1,-1,-1,170,-1,3,-1,-1,130,210,,9999,0,0,2,FEW 30   SCT 40,1,7,1,7,1022,RJDA 152230Z 17003KT 130V210 9999 FEW030 SCT040 07/07 Q1022     RMK 1CU030 3CU040 A3018=,
20180115_230000.002,0,RJDA,,,,0,20180115230000,-1,-1,-1,-1,200,-1,3,-1,-1,140,240,,9999,0,0,2,FEW 30   SCT 110,1,7,1,6,1022,RJDA 152300Z 20003KT 140V240 9999 FEW030 SCT110 07/06 Q1022     RMK 1CU030 4AC110 A3018=,
20180116_000000.002,0,RJDA,,,,0,20180116000000,-1,-1,-1,-1,999,-1,2,-1,-1,-1,-1,,9999,0,0,2,FEW 30   BKN 70,1,8,1,8,1022,RJDA 160000Z VRB02KT 9999 FEW030 BKN070 08/08 Q1022 RMK 1CU030     5AC070 A3018=,
20180116_010000.002,0,RJDA,,,,0,20180116010000,-1,-1,-1,-1,999,-1,1,-1,-1,-1,-1,,9999,0,0,2,FEW 30   SCT 80,1,10,1,9,1021,RJDA 160100Z VRB01KT 9999 FEW030 SCT080 10/09 Q1021 RMK 1CU030     3AC080 A3016=,
20180116_020000.002,0,RJDA,,,,0,20180116020000,-1,-1,-1,-1,140,-1,7,-1,-1,120,180,,9999,0,0,1,FEW 35,1,14,1,10,1020,RJDA 160200Z 14007KT 120V180 9999 FEW035 14/10 Q1020 RMK     1CU035 A3015=,
20180116_030000.002,0,RJDA,,,,0,20180116030000,-1,-1,-1,-1,160,-1,6,-1,-1,90,210,,9999,0,0,1,FEW 35,1,17,1,11,1019,RJDA 160300Z 16006KT 090V210 9999 FEW035 17/11 Q1019 RMK     1CU035 A3010=,
20180116_040000.002,0,RJDA,,,,0,20180116040000,-1,-1,-1,-1,999,-1,6,-1,-1,-1,-1,,9999,0,0,2,FEW 35   SCT 60,1,18,1,10,1017,RJDA 160400Z VRB06KT 9999 FEW035 SCT060 18/10 Q1017 RMK 1CU035     4SC060 A3006=,
20180116_050000.002,0,RJDA,,,,0,20180116050000,-1,-1,-1,-1,180,-1,5,-1,-1,90,260,,9999,0,0,2,FEW 40   SCT 70,1,18,1,10,1016,RJDA 160500Z 18005KT 090V260 9999 FEW040 SCT070 18/10 Q1016     RMK 1CU040 3AC070 A3001=,
20180116_060000.002,0,RJDA,,,,0,20180116060000,-1,-1,-1,-1,999,-1,5,-1,18,-1,-1,,9999,0,0,2,FEW 40   SCT 80,1,19,1,10,1015,RJDA 160600Z VRB05G18KT 9999 FEW040 SCT080 19/10 Q1015 RMK     1CU040 3AC080 A3000=,
20180116_070000.002,0,RJDA,,,,0,20180116070000,-1,-1,-1,-1,220,-1,6,-1,-1,170,300,,9999,0,0,3,FEW 40   SCT 130   BKN 150,1,18,1,9,1015,RJDA 160700Z 22006KT 170V300 9999 FEW040 SCT130 BKN150 18/09     Q1015 RMK 1CU040 3AC130 5AC150 A2999=,
20180116_080000.002,0,RJDA,,,,0,20180116080000,-1,-1,-1,-1,999,-1,7,-1,17,-1,-1,,9999,0,0,3,FEW 40   SCT 120   BKN 150,1,17,1,10,1015,RJDA 160800Z VRB07G17KT 9999 FEW040 SCT120 BKN150 17/10 Q1015     RMK 1CU040 3AC120 6AC150 A2998=,
20180116_090000.002,0,RJDA,,,,0,20180116090000,-1,-1,-1,-1,999,-1,5,-1,18,-1,-1,,9999,0,0,3,FEW 40   SCT 90   BKN 120,1,16,1,10,1015,RJDA 160900Z VRB05G18KT 9999 FEW040 SCT090 BKN120 16/10 Q1015     RMK 1CU040 3AC090 6AC120 A2998=,
20180116_100000.002,0,RJDA,,,,0,20180116100000,-1,-1,-1,-1,999,-1,8,-1,21,-1,-1,,9999,0,0,3,FEW 40   SCT 90   BKN 120,1,16,1,10,1015,RJDA 161000Z VRB08G21KT 9999 FEW040 SCT090 BKN120 16/10 Q1015     RMK 1CU040 4AC090 6AC120 A2997=,
20180116_110000.004,0,RJDA,,,,0,20180116110000,-1,-1,-1,-1,170,-1,6,-1,-1,90,270,,9999,0,0,3,FEW 40   SCT 60   BKN 90,1,16,1,10,1014,RJDA 161100Z 17006KT 090V270 9999 FEW040 SCT060 BKN090 16/10     Q1014 RMK 1CU040 3SC060 6AC090 A2996=,
20180116_223000.002,0,RJDA,,,,0,20180116220000,-1,-1,-1,-1,170,-1,3,-1,-1,110,230,,6000,0,1,3,FEW 2   SCT 10   BKN 15,1,13,1,13,1011,RJDA 162230Z 17003KT 110V230 6000 -SHRA FEW002 SCT010 BKN015     13/13 Q1011 RMK 1ST002 4CU010 6CU015 A2988=,- RA SH
20180116_230000.002,0,RJDA,,,,0,20180116230000,-1,-1,-1,-1,999,-1,2,-1,-1,-1,-1,,7000,0,0,3,FEW 3   SCT 10   BKN 15,1,13,1,13,1012,RJDA 162300Z VRB02KT 7000 FEW003 SCT010 BKN015 13/13 Q1012 RMK     1ST003 3CU010 5CU015 A2989=,
20180117_000000.002,0,RJDA,,,,0,20180117000000,-1,-1,-1,-1,999,-1,2,-1,-1,-1,-1,,9999,0,0,3,FEW 3   SCT 20   BKN 90,1,14,1,14,1012,RJDA 170000Z VRB02KT 9999 FEW003 SCT020 BKN090 14/14 Q1012 RMK     1ST003 3CU020 5AC090 A2991=,
20180117_010000.002,0,RJDA,,,,0,20180117010000,-1,-1,-1,-1,999,-1,3,-1,-1,-1,-1,,9999,0,0,3,FEW 5   SCT 70   BKN 110,1,15,1,15,1013,RJDA 170100Z VRB03KT 9999 FEW005 SCT070 BKN110 15/15 Q1013 RMK     1ST005 3AC070 5AC110 A2993=,
20180117_020000.004,0,RJDA,,,,0,20180117020000,-1,-1,-1,-1,240,-1,6,-1,-1,180,280,,9999,0,0,3,FEW 10   SCT 70   BKN 90,1,15,1,12,1013,RJDA 170200Z 24006KT 180V280 9999 FEW010 SCT070 BKN090 15/12     Q1013 RMK 1ST010 3AC070 5AC090 A2993=,
20180117_030000.002,0,RJDA,,,,0,20180117030000,-1,-1,-1,-1,250,-1,10,-1,-1,210,290,,9999,0,0,2,FEW 10   SCT 60,1,17,1,13,1012,RJDA 170300Z 25010KT 210V290 9999 FEW010 SCT060 17/13 Q1012     RMK 1ST010 3SC060 A2991=,
20180117_040000.003,0,RJDA,,,,0,20180117040000,-1,-1,-1,-1,250,-1,8,-1,-1,210,310,,9999,0,1,3,FEW 10   SCT 40   BKN 50,1,15,1,12,1013,RJDA 170400Z 25008KT 210V310 9999 -RA FEW010 SCT040 BKN050     15/12 Q1013 RMK 1CU010 4SC040 6SC050 A2992=,- RA
20180117_050000.003,0,RJDA,,,,0,20180117050000,-1,-1,-1,-1,300,-1,14,-1,-1,260,330,,9999,0,1,3,FEW 5   SCT 10   BKN 20,1,13,1,12,1013,RJDA 170500Z 30014KT 260V330 9999 VCSH FEW005 SCT010 BKN020     13/12 Q1013 RMK 1ST005 3CU010 5CU020 A2994=,VC SH
20180117_060000.002,0,RJDA,,,,0,20180117060000,-1,-1,-1,-1,300,-1,10,-1,-1,260,330,,9999,0,0,2,FEW 15   SCT 25,1,13,1,12,1014,RJDA 170600Z 30010KT 260V330 9999 FEW015 SCT025 13/12 Q1014     RMK 1CU015 4CU025 A2995=,
20180117_070000.002,0,RJDA,,,,0,20180117070000,-1,-1,-1,-1,300,-1,7,-1,-1,260,330,,9999,0,0,3,FEW 10   SCT 20   BKN 30,1,13,1,11,1015,RJDA 170700Z 30007KT 260V330 9999 FEW010 SCT020 BKN030 13/11     Q1015 RMK 1CU010 4CU020 6CU030 A2997=,
20180117_080000.002,0,RJDA,,,,0,20180117080000,-1,-1,-1,-1,310,-1,8,-1,-1,260,340,,9999,0,0,2,FEW 15   SCT 40,1,12,1,9,1016,RJDA 170800Z 31008KT 260V340 9999 FEW015 SCT040 12/09 Q1016     RMK 1CU015 4CU040 A3000=,
20180117_090000.003,0,RJDA,,,,0,20180117090000,-1,-1,-1,-1,300,-1,3,-1,-1,240,340,,9999,0,0,2,FEW 15   SCT 40,1,11,1,9,1016,RJDA 170900Z 30003KT 240V340 9999 FEW015 SCT040 11/09 Q1016     RMK 1CU015 3SC040 A3003=,
20180117_100000.002,0,RJDA,,,,0,20180117100000,-1,-1,-1,-1,330,-1,3,-1,-1,250,360,,9999,0,0,2,FEW 15   SCT 40,1,10,1,8,1017,RJDA 171000Z 33003KT 250V360 9999 FEW015 SCT040 10/08 Q1017     RMK 1CU015 3SC040 A3006=,
20180117_110000.003,0,RJDA,,,,0,20180117110000,-1,-1,-1,-1,999,-1,2,-1,-1,-1,-1,,9999,0,0,2,FEW 15   SCT 40,1,10,1,8,1018,RJDA 171100Z VRB02KT 9999 FEW015 SCT040 10/08 Q1018 RMK 1CU015     3SC040 A3007=,
20180117_223000.002,0,RJDA,,,,0,20180117220000,-1,-1,-1,-1,999,-1,1,-1,-1,-1,-1,,9999,0,0,3,FEW 4   SCT 7   BKN 30,1,7,1,7,1020,RJDA 172230Z VRB01KT 9999 FEW004 SCT007 BKN030 07/07 Q1020 RMK     1ST004 3ST007 6CU030 A3014=,
20180117_230000.002,0,RJDA,,,,0,20180117230000,-1,-1,-1,-1,999,-1,1,-1,-1,-1,-1,,9999,0,0,3,FEW 7   SCT 25   BKN 35,1,7,1,7,1020,RJDA 172300Z VRB01KT 9999 FEW007 SCT025 BKN035 07/07 Q1020 RMK     1ST007 3CU025 6CU035 A3014=,
20180118_000000.002,0,RJDA,,,,0,20180118000000,-1,-1,-1,-1,999,-1,1,-1,-1,-1,-1,,9999,0,0,3,FEW 5   SCT 8   BKN 35,1,8,1,8,1021,RJDA 180000Z VRB01KT 9999 FEW005 SCT008 BKN035 08/08 Q1021 RMK     1ST005 3ST008 6CU035 A3015=,
20180118_010000.002,0,RJDA,,,,0,20180118010000,-1,-1,-1,-1,999,-1,1,-1,-1,-1,-1,,9999,0,0,2,FEW 4   BKN 40,1,9,1,9,1021,RJDA 180100Z VRB01KT 9999 FEW004 BKN040 09/09 Q1021 RMK 1ST004     6CU040 A3018=,
20180118_020000.002,0,RJDA,,,,0,20180118020000,-1,-1,-1,-1,999,-1,1,-1,-1,-1,-1,,9999,0,0,3,FEW 4   SCT 20   BKN 40,1,10,1,9,1021,RJDA 180200Z VRB01KT 9999 FEW004 SCT020 BKN040 10/09 Q1021 RMK     1ST004 3CU020 6CU040 A3017=,
20180118_030000.003,0,RJDA,,,,0,20180118030000,-1,-1,-1,-1,360,-1,6,-1,-1,-1,-1,,9999,0,0,3,FEW 10   SCT 25   BKN 35,1,10,1,9,1021,RJDA 180300Z 36006KT 9999 FEW010 SCT025 BKN035 10/09 Q1021 RMK     1CU010 4CU025 6CU035 A3016=,
20180118_040000.002,0,RJDA,,,,0,20180118040000,-1,-1,-1,-1,360,-1,7,-1,-1,-1,-1,,7000,0,0,3,FEW 15   SCT 25   BKN 35,1,11,1,8,1020,RJDA 180400Z 36007KT 7000 FEW015 SCT025 BKN035 11/08 Q1020 RMK     1CU015 4CU025 5CU035 A3014=,
20180118_050000.002,0,RJDA,,,,0,20180118050000,-1,-1,-1,-1,350,-1,7,-1,-1,320,20,,7000,0,0,3,FEW 20   SCT 25   BKN 35,1,11,1,8,1020,RJDA 180500Z 35007KT 320V020 7000 FEW020 SCT025 BKN035 11/08     Q1020 RMK 1CU020 3CU025 5CU035 A3013=,
20180118_060000.002,0,RJDA,,,,0,20180118060000,-1,-1,-1,-1,360,-1,8,-1,-1,320,40,,7000,0,0,3,FEW 20   SCT 25   BKN 35,1,11,1,7,1020,RJDA 180600Z 36008KT 320V040 7000 FEW020 SCT025 BKN035 11/07     Q1020 RMK 1CU020 4CU025 6CU035 A3012=,
20180118_070000.002,0,RJDA,,,,0,20180118070000,-1,-1,-1,-1,350,-1,7,-1,-1,-1,-1,,9999,0,0,1,FEW 30,1,11,1,6,1019,RJDA 180700Z 35007KT 9999 FEW030 11/06 Q1019 RMK 1CU030 A3012=,
20180118_080000.002,0,RJDA,,,,0,20180118080000,-1,-1,-1,-1,350,-1,4,-1,-1,-1,-1,,9999,0,0,1,FEW 30,1,11,1,6,1020,RJDA 180800Z 35004KT 9999 FEW030 11/06 Q1020 RMK 1CU030 A3013=,
20180118_090000.002,0,RJDA,,,,0,20180118090000,-1,-1,-1,-1,290,-1,3,-1,-1,250,320,,9999,0,0,1,FEW 25,1,9,1,6,1020,RJDA 180900Z 29003KT 250V320 9999 FEW025 09/06 Q1020 RMK     1CU025 A3014=,
20180118_100000.002,0,RJDA,,,,0,20180118100000,-1,-1,-1,-1,290,-1,3,-1,-1,250,330,,9999,0,0,1,FEW 30,1,9,1,6,1021,RJDA 181000Z 29003KT 250V330 9999 FEW030 09/06 Q1021 RMK     1CU030 A3016=,
20180118_110000.002,0,RJDA,,,,0,20180118110000,-1,-1,-1,-1,300,-1,2,-1,-1,-1,-1,,9999,0,0,1,FEW 30,1,9,1,6,1021,RJDA 181100Z 30002KT 9999 FEW030 09/06 Q1021 RMK 2CU030 A3017=,
20180118_223000.002,0,RJDA,,,,0,20180118220000,-1,-1,-1,-1,999,-1,2,-1,-1,-1,-1,,5000,0,1,1,FEW 30,1,4,1,4,1021,RJDA 182230Z VRB02KT 5000 BR FEW030 04/04 Q1021 RMK 1CU030     A3016=,BR
20180118_230000.003,0,RJDA,,,,0,20180118230000,-1,-1,-1,-1,999,-1,1,-1,-1,-1,-1,,5000,0,1,2,FEW 20   BKN 30,1,5,1,5,1022,RJDA 182300Z VRB01KT 5000 BR FEW020 BKN030 05/05 Q1022 RMK     1CU020 5CU030 A3019=,BR
20180119_000000.002,0,RJDA,,,,0,20180119000000,-1,-1,-1,-1,999,-1,2,-1,-1,-1,-1,,6000,0,0,2,FEW 25   BKN 35,1,7,1,7,1023,RJDA 190000Z VRB02KT 6000 FEW025 BKN035 07/07 Q1023 RMK 1CU025     6CU035 A3021=,
20180119_010000.003,0,RJDA,,,,0,20180119010000,-1,-1,-1,-1,999,-1,2,-1,-1,-1,-1,,6000,0,0,2,FEW 30   BKN 110,1,9,1,7,1022,RJDA 190100Z VRB02KT 6000 FEW030 BKN110 09/07 Q1022 RMK 1CU030     5AC110 A3020=,
20180119_020000.002,0,RJDA,,,,0,20180119020000,-1,-1,-1,-1,999,-1,1,-1,-1,-1,-1,,6000,0,0,1,NSC -1,1,10,1,7,1022,RJDA 190200Z VRB01KT 6000 NSC 10/07 Q1022 RMK 6AC110 A3019=,
20180119_030000.002,0,RJDA,,,,0,20180119030000,-1,-1,-1,-1,10,-1,7,-1,-1,330,40,,9999,0,0,2,FEW 30   SCT -9999,1,12,1,4,1021,RJDA 190300Z 01007KT 330V040 9999 FEW030 SCT/// 12/04 Q1021     RMK 1CU030 A3016=,
20180119_040000.002,0,RJDA,,,,0,20180119040000,-1,-1,-1,-1,310,-1,5,-1,-1,230,330,,9999,0,0,1,FEW 40,1,12,1,4,1020,RJDA 190400Z 31005KT 230V330 9999 FEW040 12/04 Q1020 RMK     1CU040 A3013=,
20180119_050000.003,0,RJDA,,,,0,20180119050000,-1,-1,-1,-1,360,-1,7,-1,-1,320,20,,9999,0,0,1,FEW 40,1,12,1,4,1019,RJDA 190500Z 36007KT 320V020 9999 FEW040 12/04 Q1019 RMK     1CU040 A3011=,
20180119_060000.002,0,RJDA,,,,0,20180119060000,-1,-1,-1,-1,300,-1,4,-1,-1,260,10,,9999,0,0,1,FEW 40,1,12,1,3,1019,RJDA 190600Z 30004KT 260V010 9999 FEW040 12/03 Q1019 RMK     1CU040 A3010=,
20180119_070000.002,0,RJDA,,,,0,20180119070000,-1,-1,-1,-1,330,-1,3,-1,-1,300,30,CAVOK,-1,0,0,0,,1,12,1,4,1019,RJDA 190700Z 33003KT 300V030 CAVOK 12/04 Q1019 RMK A3009=,
20180119_080000.002,0,RJDA,,,,0,20180119080000,-1,-1,-1,-1,350,-1,3,-1,-1,-1,-1,,9999,0,0,1,FEW 40,1,11,1,5,1019,RJDA 190800Z 35003KT 9999 FEW040 11/05 Q1019 RMK 2CU040 A3011=,
20180119_090000.003,0,RJDA,,,,0,20180119090000,-1,-1,-1,-1,999,-1,2,-1,-1,-1,-1,,8000,0,0,1,FEW 40,1,9,1,5,1019,RJDA 190900Z VRB02KT 8000 FEW040 09/05 Q1019 RMK 1CU040 A3011=,
20180119_100000.002,0,RJDA,,,,0,20180119100000,-1,-1,-1,-1,999,-1,2,-1,-1,-1,-1,,8000,0,0,1,FEW 40,1,7,1,5,1019,RJDA 191000Z VRB02KT 8000 FEW040 07/05 Q1019 RMK 1CU040 A3011=,
20180119_110000.002,0,RJDA,,,,0,20180119110000,-1,-1,-1,-1,210,-1,3,-1,-1,-1,-1,,8000,0,0,1,FEW 40,1,6,1,5,1019,RJDA 191100Z 21003KT 8000 FEW040 06/05 Q1019 RMK 1CU040 A3011=,
20180119_223000.002,0,RJDA,,,,0,20180119220000,-1,-1,-1,-1,999,-1,1,-1,-1,-1,-1,,2000,0,1,1,FEW 8,1,5,1,5,1020,RJDA 192230Z VRB01KT 2000 BR FEW008 05/05 Q1020 RMK 2ST008     A3013=,BR
20180119_230000.002,0,RJDA,,,,0,20180119230000,-1,-1,-1,-1,999,-1,1,-1,-1,-1,-1,,2000,0,1,1,FEW 8,1,5,1,4,1020,RJDA 192300Z VRB01KT 2000 BR FEW008 05/04 Q1020 RMK 2ST008     A3013=,BR
20180120_000000.002,0,RJDA,,,,0,20180120000000,-1,-1,-1,-1,999,-1,1,-1,-1,-1,-1,,3000,0,1,1,FEW 30,1,7,1,7,1020,RJDA 200000Z VRB01KT 3000 BR FEW030 07/07 Q1020 RMK 1CU030     A3015=,BR
20180120_010000.002,0,RJDA,,,,0,20180120010000,-1,-1,-1,-1,360,-1,3,-1,-1,320,40,,4000,0,1,2,FEW 20   SCT 35,1,8,1,6,1021,RJDA 200100Z 36003KT 320V040 4000 BR FEW020 SCT035 08/06 Q1021     RMK 1CU020 3CU035 A3015=,BR
20180120_020000.003,0,RJDA,,,,0,20180120020000,-1,-1,-1,-1,999,-1,2,-1,-1,-1,-1,,6000,0,0,2,FEW 15   SCT 30,1,9,1,7,1020,RJDA 200200Z VRB02KT 6000 FEW015 SCT030 09/07 Q1020 RMK 1CU015     3CU030 A3014=,
20180120_030000.002,0,RJDA,,,,0,20180120030000,-1,-1,-1,-1,70,-1,6,-1,-1,40,110,,6000,0,0,2,FEW 20   SCT 30,1,10,1,7,1020,RJDA 200300Z 07006KT 040V110 6000 FEW020 SCT030 10/07 Q1020     RMK 1CU020 4CU030 A3014=,
20180120_040000.002,0,RJDA,,,,0,20180120040000,-1,-1,-1,-1,100,-1,5,-1,-1,70,150,,7000,0,0,3,FEW 20   SCT 30   BKN -9999,1,10,1,5,1019,RJDA 200400Z 10005KT 070V150 7000 FEW020 SCT030 BKN/// 10/05     Q1019 RMK 1CU020 3CU030 A3011=,
20180120_050000.002,0,RJDA,,,,0,20180120050000,-1,-1,-1,-1,100,-1,5,-1,-1,40,160,,7000,0,0,2,FEW 35   BKN -9999,1,11,1,5,1019,RJDA 200500Z 10005KT 040V160 7000 FEW035 BKN/// 11/05 Q1019     RMK 1CU035 A3010=,
20180120_060000.002,0,RJDA,,,,0,20180120060000,-1,-1,-1,-1,90,-1,4,-1,-1,40,140,,7000,0,0,2,FEW 35   BKN -9999,1,11,1,4,1018,RJDA 200600Z 09004KT 040V140 7000 FEW035 BKN/// 11/04 Q1018     RMK 1CU035 A3008=,
20180120_070000.002,0,RJDA,,,,0,20180120070000,-1,-1,-1,-1,40,-1,4,-1,-1,20,80,,9999,0,0,3,FEW 35   SCT 130   BKN -9999,1,11,1,4,1018,RJDA 200700Z 04004KT 020V080 9999 FEW035 SCT130 BKN/// 11/04     Q1018 RMK 1CU035 3AC130 A3009=,
20180120_080000.002,0,RJDA,,,,0,20180120080000,-1,-1,-1,-1,350,-1,1,-1,-1,-1,-1,,9999,0,0,2,FEW 40   SCT 130,1,10,1,3,1018,RJDA 200800Z 35001KT 9999 FEW040 SCT130 10/03 Q1018 RMK 1CU040     3AC130 A3009=,
20180120_090000.002,0,RJDA,,,,0,20180120090000,-1,-1,-1,-1,999,-1,2,-1,-1,-1,-1,,7000,0,0,1,FEW 50,1,8,1,5,1019,RJDA 200900Z VRB02KT 7000 FEW050 08/05 Q1019 RMK 1SC050 A3009=,
20180120_100000.002,0,RJDA,,,,0,20180120100000,-1,-1,-1,-1,220,-1,3,-1,-1,-1,-1,,7000,0,0,1,FEW 50,1,6,1,4,1019,RJDA 201000Z 22003KT 7000 FEW050 06/04 Q1019 RMK 1SC050 A3012=,
20180120_110000.002,0,RJDA,,,,0,20180120110000,-1,-1,-1,-1,300,-1,3,-1,-1,-1,-1,,7000,0,0,1,FEW 50,1,8,1,4,1020,RJDA 201100Z 30003KT 7000 FEW050 08/04 Q1020 RMK 1SC050 A3013=,
20180120_223000.001,0,RJDA,,,,0,20180120220000,-1,-1,-1,-1,999,-1,1,-1,-1,-1,-1,,9999,0,0,2,FEW 20   SCT -9999,1,4,1,3,1021,RJDA 202230Z VRB01KT 9999 FEW020 SCT/// 04/03 Q1021 RMK 1CU020     A3016=,
20180120_230000.002,0,RJDA,,,,0,20180120230000,-1,-1,-1,-1,999,-1,1,-1,-1,-1,-1,,9999,0,0,1,FEW 20,1,5,1,4,1021,RJDA 202300Z VRB01KT 9999 FEW020 05/04 Q1021 RMK 1CU020 A3017=,
20180121_000000.002,0,RJDA,,,,0,20180121000000,-1,-1,-1,-1,999,-1,2,-1,-1,-1,-1,,9999,0,0,2,FEW 35   SCT -9999,1,5,1,4,1021,RJDA 210000Z VRB02KT 9999 FEW035 SCT/// 05/04 Q1021 RMK 1CU035     A3017=,
20180121_010000.002,0,RJDA,,,,0,20180121010000,-1,-1,-1,-1,60,-1,4,-1,-1,20,110,,9999,0,0,1,FEW 35,1,7,1,5,1021,RJDA 210100Z 06004KT 020V110 9999 FEW035 07/05 Q1021 RMK     1CU035 A3017=,
20180121_020000.002,0,RJDA,,,,0,20180121020000,-1,-1,-1,-1,60,-1,6,-1,-1,20,110,,9999,0,0,1,FEW 35,1,9,1,4,1021,RJDA 210200Z 06006KT 020V110 9999 FEW035 09/04 Q1021 RMK     1CU035 A3016=,
20180121_030000.002,0,RJDA,,,,0,20180121030000,-1,-1,-1,-1,60,-1,6,-1,-1,20,90,,9999,0,0,1,FEW 35,1,10,1,3,1021,RJDA 210300Z 06006KT 020V090 9999 FEW035 10/03 Q1021 RMK     1CU035 A3016=,
20180121_040000.003,0,RJDA,,,,0,20180121040000,-1,-1,-1,-1,100,-1,7,-1,-1,60,140,,9999,0,0,1,FEW 40,1,10,1,4,1020,RJDA 210400Z 10007KT 060V140 9999 FEW040 10/04 Q1020 RMK     1CU040 A3012=,
20180121_050000.002,0,RJDA,,,,0,20180121050000,-1,-1,-1,-1,50,-1,7,-1,-1,360,100,,9999,0,0,1,FEW 45,1,11,1,3,1019,RJDA 210500Z 05007KT 360V100 9999 FEW045 11/03 Q1019 RMK     1CU045 A3009=,
20180121_060000.002,0,RJDA,,,,0,20180121060000,-1,-1,-1,-1,30,-1,7,-1,-1,-1,-1,CAVOK,-1,0,0,0,,1,12,1,2,1018,RJDA 210600Z 03007KT CAVOK 12/02 Q1018 RMK A3007=,
20180121_070000.002,0,RJDA,,,,0,20180121070000,-1,-1,-1,-1,40,-1,6,-1,-1,-1,-1,CAVOK,-1,0,0,0,,1,12,1,0,1018,RJDA 210700Z 04006KT CAVOK 12/00 Q1018 RMK A3008=,
20180121_080000.002,0,RJDA,,,,0,20180121080000,-1,-1,-1,-1,350,-1,2,-1,-1,-1,-1,CAVOK,-1,0,0,0,,1,11,1,2,1018,RJDA 210800Z 35002KT CAVOK 11/02 Q1018 RMK A3008=,
20180121_090000.002,0,RJDA,,,,0,20180121090000,-1,-1,-1,-1,320,-1,5,-1,-1,-1,-1,CAVOK,-1,0,0,0,,1,9,1,4,1018,RJDA 210900Z 32005KT CAVOK 09/04 Q1018 RMK A3009=,
20180121_100000.002,0,RJDA,,,,0,20180121100000,-1,-1,-1,-1,999,-1,2,-1,-1,-1,-1,CAVOK,-1,0,0,0,,1,7,1,4,1019,RJDA 211000Z VRB02KT CAVOK 07/04 Q1019 RMK A3009=,
20180121_110000.002,0,RJDA,,,,0,20180121110000,-1,-1,-1,-1,180,-1,3,-1,-1,110,230,CAVOK,-1,0,0,0,,1,6,1,3,1019,RJDA 211100Z 18003KT 110V230 CAVOK 06/03 Q1019 RMK A3009=,
20180121_223000.002,0,RJDA,,,,0,20180121220000,-1,-1,-1,-1,340,-1,8,-1,-1,-1,-1,,3000,0,2,3,FEW 5   SCT 10   BKN 20,1,6,1,6,1013,RJDA 212230Z 34008KT 3000 -SHRA BR FEW005 SCT010 BKN020 06/06     Q1013 RMK 1ST005 4ST010 6CU020 A2994=,- RA SH; BR
20180121_230000.002,0,RJDA,,,,0,20180121230000,-1,-1,-1,-1,340,-1,9,-1,-1,-1,-1,,3000,0,2,3,FEW 5   SCT 10   BKN 20,1,6,1,5,1014,RJDA 212300Z 34009KT 3000 SHRA BR FEW005 SCT010 BKN020 06/05     Q1014 RMK 1ST005 4ST010 6CU020 A2995=,RA SH; BR
20180122_000000.002,0,RJDA,,,,0,20180122000000,-1,-1,-1,-1,340,-1,5,-1,-1,-1,-1,,4000,0,2,3,FEW 6   SCT 10   BKN 20,1,5,1,5,1014,RJDA 220000Z 34005KT 4000 -SHRA BR FEW006 SCT010 BKN020 05/05     Q1014 RMK 1ST006 3CU010 6CU020 A2996=,- RA SH; BR
20180122_010000.002,0,RJDA,,,,0,20180122010000,-1,-1,-1,-1,10,-1,3,-1,-1,330,70,,4000,0,2,3,FEW 2   SCT 7   BKN 10,1,6,1,5,1014,RJDA 220100Z 01003KT 330V070 4000 -SHRA BR FEW002 SCT007     BKN010 06/05 Q1014 RMK 1ST002 4ST007 6CU010 A2994=,- RA SH; BR
20180122_020000.002,0,RJDA,,,,0,20180122020000,-1,-1,-1,-1,70,-1,9,-1,-1,30,100,,7000,0,1,3,FEW 7   SCT 10   BKN 20,1,6,1,5,1012,RJDA 220200Z 07009KT 030V100 7000 -SHRA FEW007 SCT010 BKN020     06/05 Q1012 RMK 1ST007 4CU010 6CU020 A2990 P/FR=,- RA SH
20180122_030000.002,0,RJDA,,,,0,20180122030000,-1,-1,-1,-1,20,-1,6,-1,-1,350,60,,9999,0,0,3,FEW 3   SCT 7   BKN 10,1,6,1,6,1011,RJDA 220300Z 02006KT 350V060 9999 FEW003 SCT007 BKN010 06/06     Q1011 RMK 1ST003 4ST007 6CU010 A2988=,
20180122_040000.002,0,RJDA,,,,0,20180122040000,-1,-1,-1,-1,340,-1,8,-1,-1,-1,-1,,9999,0,0,3,FEW 5   SCT 10   BKN 20,1,7,1,6,1011,RJDA 220400Z 34008KT 9999 FEW005 SCT010 BKN020 07/06 Q1011 RMK     1ST005 3CU010 6CU020 A2988=,
20180122_050000.002,0,RJDA,,,,0,20180122050000,-1,-1,-1,-1,340,-1,8,-1,-1,-1,-1,,9999,0,0,3,FEW 6   SCT 15   BKN 25,1,6,1,6,1012,RJDA 220500Z 34008KT 9999 FEW006 SCT015 BKN025 06/06 Q1012 RMK     1ST006 3CU015 5CU025 A2989=,
20180122_060000.003,0,RJDA,,,,0,20180122060000,-1,-1,-1,-1,340,-1,10,-1,-1,-1,-1,,9999,0,0,3,FEW 7   SCT 20   BKN 30,1,7,1,6,1012,RJDA 220600Z 34010KT 9999 FEW007 SCT020 BKN030 07/06 Q1012 RMK     1ST007 3CU020 5CU030 A2991=,
20180122_070000.002,0,RJDA,,,,0,20180122070000,-1,-1,-1,-1,350,-1,9,-1,-1,-1,-1,,9999,0,0,2,FEW 20   SCT 30,1,8,1,5,1013,RJDA 220700Z 35009KT 9999 FEW020 SCT030 08/05 Q1013 RMK 1CU020     3CU030 A2992=,
20180122_080000.003,0,RJDA,,,,0,20180122080000,-1,-1,-1,-1,340,-1,6,-1,-1,-1,-1,,9999,0,0,1,FEW 25,1,7,1,5,1013,RJDA 220800Z 34006KT 9999 FEW025 07/05 Q1013 RMK 1CU025 A2994=,
20180122_090000.002,0,RJDA,,,,0,20180122090000,-1,-1,-1,-1,310,-1,4,-1,-1,-1,-1,,9999,0,0,1,FEW 25,1,6,1,5,1014,RJDA 220900Z 31004KT 9999 FEW025 06/05 Q1014 RMK 1CU025 A2997=,
20180122_100000.002,0,RJDA,,,,0,20180122100000,-1,-1,-1,-1,300,-1,3,-1,-1,-1,-1,,9999,0,0,1,FEW 25,1,6,1,5,1015,RJDA 221000Z 30003KT 9999 FEW025 06/05 Q1015 RMK 1CU025 A2998=,
20180122_110000.003,0,RJDA,,,,0,20180122110000,-1,-1,-1,-1,190,-1,3,-1,-1,-1,-1,,9999,0,0,1,FEW 25,1,4,1,4,1015,RJDA 221100Z 19003KT 9999 FEW025 04/04 Q1015 RMK 1CU025 A2998=,
20180122_223000.002,0,RJDA,,,,0,20180122220000,-1,-1,-1,-1,310,-1,10,-1,-1,280,10,,7000,0,0,1,FEW 30,1,8,1,4,1017,RJDA 222230Z 31010KT 280V010 7000 FEW030 08/04 Q1017 RMK     2CU030 A3004=,
20180122_230000.003,0,RJDA,,,,0,20180122230000,-1,-1,-1,-1,320,-1,8,-1,-1,-1,-1,,9999,0,0,1,FEW 30,1,7,1,3,1017,RJDA 222300Z 32008KT 9999 FEW030 07/03 Q1017 RMK 2CU030 A3004=,
20180123_000000.002,0,RJDA,,,,0,20180123000000,-1,-1,-1,-1,340,-1,12,-1,-1,-1,-1,,9999,0,0,2,FEW 30   SCT 40,1,7,1,3,1018,RJDA 230000Z 34012KT 9999 FEW030 SCT040 07/03 Q1018 RMK 2CU030     4CU040 A3008=,
20180123_010000.002,0,RJDA,,,,0,20180123010000,-1,-1,-1,-1,330,-1,10,-1,-1,310,10,,9999,0,0,2,FEW 30   BKN 40,1,7,1,2,1019,RJDA 230100Z 33010KT 310V010 9999 FEW030 BKN040 07/02 Q1019     RMK 2CU030 5CU040 A3011=,
20180123_020000.002,0,RJDA,,,,0,20180123020000,-1,-1,-1,-1,330,-1,10,-1,-1,-1,-1,,9999,0,0,2,SCT 30   BKN 40,1,7,1,3,1019,RJDA 230200Z 33010KT 9999 SCT030 BKN040 07/03 Q1019 RMK 3CU030     5CU040 A3010=,
20180123_030000.003,0,RJDA,,,,0,20180123030000,-1,-1,-1,-1,340,-1,11,-1,-1,320,20,,9999,0,0,3,FEW 30   SCT 40   BKN 50,1,7,1,2,1019,RJDA 230300Z 34011KT 320V020 9999 FEW030 SCT040 BKN050 07/02     Q1019 RMK 1CU030 3CU040 5SC050 A3010=,
20180123_040000.003,0,RJDA,,,,0,20180123040000,-1,-1,-1,-1,360,-1,14,-1,-1,330,30,,9999,0,1,3,FEW 15   SCT 20   BKN 30,1,5,1,3,1019,RJDA 230400Z 36014KT 330V030 9999 -SHRA FEW015 SCT020 BKN030     05/03 Q1019 RMK 1CU015 3CU020 5CU030 A3010=,- RA SH
20180123_050000.002,0,RJDA,,,,0,20180123050000,-1,-1,-1,-1,350,-1,13,-1,-1,-1,-1,,9999,0,0,2,FEW 30   BKN 40,1,6,1,1,1019,RJDA 230500Z 35013KT 9999 FEW030 BKN040 06/01 Q1019 RMK 1CU030     5CU040 A3009=,
20180123_060000.003,0,RJDA,,,,0,20180123060000,-1,-1,-1,-1,350,-1,11,-1,-1,-1,-1,,9999,0,0,2,FEW 20   BKN 30,1,5,1,1,1019,RJDA 230600Z 35011KT 9999 FEW020 BKN030 05/01 Q1019 RMK 2CU020     5CU030 A3009=,
20180123_070000.002,0,RJDA,,,,0,20180123070000,-1,-1,-1,-1,350,-1,9,-1,-1,320,20,,9999,0,0,3,FEW 30   SCT 35   BKN 50,1,5,1,1,1019,RJDA 230700Z 35009KT 320V020 9999 FEW030 SCT035 BKN050 05/01     Q1019 RMK 1CU030 3CU035 6SC050 A3011=,
20180123_080000.002,0,RJDA,,,,0,20180123080000,-1,-1,-1,-1,340,-1,10,-1,-1,-1,-1,,9999,0,0,3,FEW 20   SCT 30   BKN 40,1,4,-1,0,1020,RJDA 230800Z 34010KT 9999 FEW020 SCT030 BKN040 04/M00 Q1020     RMK 1CU020 3CU030 5CU040 A3012=,
20180123_090000.002,0,RJDA,,,,0,20180123090000,-1,-1,-1,-1,340,-1,8,-1,-1,300,20,,9999,0,0,2,FEW 30   BKN 40,1,4,-1,1,1020,RJDA 230900Z 34008KT 300V020 9999 FEW030 BKN040 04/M01 Q1020     RMK 2CU030 5CU040 A3013=,
20180123_100000.002,0,RJDA,,,,0,20180123100000,-1,-1,-1,-1,350,-1,7,-1,-1,-1,-1,,9999,0,0,2,FEW 30   BKN 40,1,3,-1,1,1020,RJDA 231000Z 35007KT 9999 FEW030 BKN040 03/M01 Q1020 RMK     1CU030 5CU040 A3014=,
20180123_110000.002,0,RJDA,,,,0,20180123110000,-1,-1,-1,-1,330,-1,7,-1,-1,310,10,,9999,0,0,2,FEW 30   BKN 40,1,3,-1,1,1020,RJDA 231100Z 33007KT 310V010 9999 FEW030 BKN040 03/M01 Q1020     RMK 2CU030 5CU040 A3014=,
20180123_223000.002,0,RJDA,,,,0,20180123220000,-1,-1,-1,-1,340,-1,12,-1,-1,-1,-1,,9999,0,0,3,FEW 30   SCT 40   BKN 50,1,1,-1,3,1022,RJDA 232230Z 34012KT 9999 FEW030 SCT040 BKN050 01/M03 Q1022     RMK 1CU030 3CU040 6SC050 A3020=,
20180123_230000.002,0,RJDA,,,,0,20180123230000,-1,-1,-1,-1,350,-1,9,-1,-1,-1,-1,,9999,0,0,2,FEW 30   BKN 50,1,1,-1,3,1022,RJDA 232300Z 35009KT 9999 FEW030 BKN050 01/M03 Q1022 RMK     1CU030 6SC050 A3021=,
20180124_000000.002,0,RJDA,,,,0,20180124000000,-1,-1,-1,-1,350,-1,13,-1,-1,-1,-1,,9999,0,1,2,FEW 30   BKN 50,1,1,-1,3,1023,RJDA 240000Z 35013KT 9999 -SN FEW030 BKN050 01/M03 Q1023 RMK     1CU030 6SC050 A3021=,- SN
20180124_010000.003,0,RJDA,,,,0,20180124010000,-1,-1,-1,-1,340,-1,13,-1,-1,310,10,,9999,0,0,2,FEW 25   SCT 40,1,2,-1,3,1022,RJDA 240100Z 34013KT 310V010 9999 FEW025 SCT040 02/M03 Q1022     RMK 1CU025 4CU040 A3021=,
20180124_020000.002,0,RJDA,,,,0,20180124020000,-1,-1,-1,-1,350,-1,14,-1,-1,-1,-1,,9999,0,0,2,FEW 25   SCT 40,1,2,-1,2,1023,RJDA 240200Z 35014KT 9999 FEW025 SCT040 02/M02 Q1023 RMK     1CU025 4CU040 A3022=,
20180124_030000.002,0,RJDA,,,,0,20180124030000,-1,-1,-1,-1,340,-1,15,-1,25,-1,-1,,9999,0,1,2,FEW 20   BKN 40,1,2,-1,4,1023,RJDA 240300Z 34015G25KT 9999 -SHSN FEW020 BKN040 02/M04 Q1023     RMK 2CU020 5CU040 A3021=,- SN SH
20180124_040000.002,0,RJDA,,,,0,20180124040000,-1,-1,-1,-1,330,-1,16,-1,-1,290,10,,9999,0,0,2,FEW 25   SCT 40,1,3,-1,5,1022,RJDA 240400Z 33016KT 290V010 9999 FEW025 SCT040 03/M05 Q1022     RMK 1CU025 3CU040 A3019=,
20180124_050000.002,0,RJDA,,,,0,20180124050000,-1,-1,-1,-1,330,-1,13,-1,-1,300,20,,9999,0,0,2,FEW 25   BKN 40,1,3,-1,6,1021,RJDA 240500Z 33013KT 300V020 9999 FEW025 BKN040 03/M06 Q1021     RMK 1CU025 5CU040 A3017=,
20180124_060000.002,0,RJDA,,,,0,20180124060000,-1,-1,-1,-1,340,-1,15,-1,25,-1,-1,,9999,0,0,2,FEW 25   SCT 40,1,2,-1,6,1021,RJDA 240600Z 34015G25KT 9999 FEW025 SCT040 02/M06 Q1021 RMK     1CU025 4CU040 A3018=,
20180124_070000.002,0,RJDA,,,,0,20180124070000,-1,-1,-1,-1,350,-1,11,-1,-1,300,30,,9999,0,0,2,FEW 30   SCT 40,1,2,-1,5,1022,RJDA 240700Z 35011KT 300V030 9999 FEW030 SCT040 02/M05 Q1022     RMK 1CU030 4CU040 A3019=,
20180124_080000.002,0,RJDA,,,,0,20180124080000,-1,-1,-1,-1,330,-1,14,-1,-1,-1,-1,,9999,0,0,1,FEW 20,1,1,-1,6,1022,RJDA 240800Z 33014KT 9999 FEW020 01/M06 Q1022 RMK 1CU020     A3019=,
20180124_090000.003,0,RJDA,,,,0,20180124090000,-1,-1,-1,-1,340,-1,13,-1,-1,-1,-1,,9999,0,0,1,FEW 20,-1,0,-1,6,1022,RJDA 240900Z 34013KT 9999 FEW020 M00/M06 Q1022 RMK 1CU020     A3019=,
20180124_100000.002,0,RJDA,,,,0,20180124100000,-1,-1,-1,-1,350,-1,8,-1,-1,-1,-1,,9999,0,0,1,FEW 30,-1,0,-1,6,1021,RJDA 241000Z 35008KT 9999 FEW030 M00/M06 Q1021 RMK 1CU030     A3017=,
20180124_110000.002,0,RJDA,,,,0,20180124110000,-1,-1,-1,-1,350,-1,10,-1,-1,-1,-1,,9999,0,0,1,FEW 30,-1,0,-1,6,1022,RJDA 241100Z 35010KT 9999 FEW030 M00/M06 Q1022 RMK 2CU030     A3019=,
20180124_223000.002,0,RJDA,,,,0,20180124220000,-1,-1,-1,-1,20,-1,6,-1,-1,-1,-1,,9999,0,0,3,FEW 30   SCT 140   BKN 160,-1,1,-1,7,1023,RJDA 242230Z 02006KT 9999 FEW030 SCT140 BKN160 M01/M07 Q1023     RMK 1CU030 3AC140 5AC160 A3022=,
20180124_230000.002,0,RJDA,,,,0,20180124230000,-1,-1,-1,-1,20,-1,6,-1,-1,350,60,,9999,0,0,2,FEW 30   BKN 160,-1,1,-1,7,1023,RJDA 242300Z 02006KT 350V060 9999 FEW030 BKN160 M01/M07 Q1023     RMK 1CU030 6AC160 A3023=,
20180125_000000.002,0,RJDA,,,,0,20180125000000,-1,-1,-1,-1,340,-1,10,-1,-1,310,20,,9999,0,0,1,FEW 35,1,0,-1,7,1024,RJDA 250000Z 34010KT 310V020 9999 FEW035 00/M07 Q1024 RMK     1CU035 A3024=,
20180125_010000.002,0,RJDA,,,,0,20180125010000,-1,-1,-1,-1,360,-1,12,-1,-1,-1,-1,,9999,0,0,1,FEW 35,1,1,-1,7,1024,RJDA 250100Z 36012KT 9999 FEW035 01/M07 Q1024 RMK 1CU035     A3025=,
20180125_020000.003,0,RJDA,,,,0,20180125020000,-1,-1,-1,-1,10,-1,10,-1,-1,340,60,,9999,0,0,1,FEW 35,1,1,-1,7,1023,RJDA 250200Z 01010KT 340V060 9999 FEW035 01/M07 Q1023 RMK     1CU035 A3023=,
20180125_030000.002,0,RJDA,,,,0,20180125030000,-1,-1,-1,-1,350,-1,10,-1,-1,-1,-1,,9999,0,0,1,FEW 40,1,2,-1,6,1023,RJDA 250300Z 35010KT 9999 FEW040 02/M06 Q1023 RMK 2CU040     A3021=,
20180125_040000.002,0,RJDA,,,,0,20180125040000,-1,-1,-1,-1,350,-1,6,-1,-1,280,60,,9999,0,0,1,FEW 40,1,3,-1,5,1021,RJDA 250400Z 35006KT 280V060 9999 FEW040 03/M05 Q1021 RMK     2CU040 A3018=,
20180125_050000.002,0,RJDA,,,,0,20180125050000,-1,-1,-1,-1,330,-1,8,-1,-1,270,60,,9999,0,0,1,FEW 35,1,4,-1,5,1021,RJDA 250500Z 33008KT 270V060 9999 FEW035 04/M05 Q1021 RMK     1CU035 A3016=,
20180125_060000.002,0,RJDA,,,,0,20180125060000,-1,-1,-1,-1,360,-1,9,-1,-1,330,30,,9999,0,0,1,FEW 35,1,3,-1,7,1020,RJDA 250600Z 36009KT 330V030 9999 FEW035 03/M07 Q1020 RMK     1CU035 A3014=,
20180125_070000.002,0,RJDA,,,,0,20180125070000,-1,-1,-1,-1,10,-1,9,-1,-1,-1,-1,,9999,0,0,1,FEW 35,1,3,-1,6,1020,RJDA 250700Z 01009KT 9999 FEW035 03/M06 Q1020 RMK 1CU035     A3014=,
20180125_080000.002,0,RJDA,,,,0,20180125080000,-1,-1,-1,-1,350,-1,6,-1,-1,-1,-1,,9999,0,0,2,FEW 35   BKN 170,1,2,-1,6,1020,RJDA 250800Z 35006KT 9999 FEW035 BKN170 02/M06 Q1020 RMK     2CU035 5AC170 A3014=,
20180125_090000.002,0,RJDA,,,,0,20180125090000,-1,-1,-1,-1,320,-1,5,-1,-1,-1,-1,,9999,0,0,1,FEW 35,1,2,-1,5,1020,RJDA 250900Z 32005KT 9999 FEW035 02/M05 Q1020 RMK 2CU035     A3015=,
20180125_100000.003,0,RJDA,,,,0,20180125100000,-1,-1,-1,-1,310,-1,4,-1,-1,-1,-1,,9999,0,0,2,FEW 35   SCT 140,1,1,-1,4,1021,RJDA 251000Z 31004KT 9999 FEW035 SCT140 01/M04 Q1021 RMK     2CU035 4AC140 A3016=,
20180125_110000.003,0,RJDA,,,,0,20180125110000,-1,-1,-1,-1,350,-1,6,-1,-1,-1,-1,,9999,0,0,2,FEW 35   BKN 140,1,2,-1,4,1021,RJDA 251100Z 35006KT 9999 FEW035 BKN140 02/M04 Q1021 RMK     1CU035 5AC140 A3016=,
20180125_223000.002,0,RJDA,,,,0,20180125220000,-1,-1,-1,-1,340,-1,9,-1,-1,-1,-1,,9999,0,0,2,FEW 30   BKN 40,1,2,-1,3,1020,RJDA 252230Z 34009KT 9999 FEW030 BKN040 02/M03 Q1020 RMK     2CU030 6CU040 A3015=,
20180125_230000.002,0,RJDA,,,,0,20180125230000,-1,-1,-1,-1,360,-1,8,-1,-1,-1,-1,,9999,0,0,3,FEW 25   SCT 30   BKN 40,1,2,-1,2,1021,RJDA 252300Z 36008KT 9999 FEW025 SCT030 BKN040 02/M02 Q1021     RMK 1CU025 3CU030 5CU040 A3015=,
20180126_000000.002,0,RJDA,,,,0,20180126000000,-1,-1,-1,-1,360,-1,9,-1,-1,330,40,,9999,0,0,2,FEW 30   BKN 40,1,2,-1,4,1021,RJDA 260000Z 36009KT 330V040 9999 FEW030 BKN040 02/M04 Q1021     RMK 2CU030 6CU040 A3017=,
20180126_010000.002,0,RJDA,,,,0,20180126010000,-1,-1,-1,-1,350,-1,9,-1,-1,320,30,,9999,0,0,2,FEW 30   BKN 40,1,2,-1,4,1022,RJDA 260100Z 35009KT 320V030 9999 FEW030 BKN040 02/M04 Q1022     RMK 1CU030 6CU040 A3019=,
20180126_020000.002,0,RJDA,,,,0,20180126020000,-1,-1,-1,-1,360,-1,12,-1,-1,-1,-1,,9999,0,0,2,FEW 30   SCT 40,1,2,-1,4,1022,RJDA 260200Z 36012KT 9999 FEW030 SCT040 02/M04 Q1022 RMK     1CU030 4CU040 A3018=,
20180126_030000.002,0,RJDA,,,,0,20180126030000,-1,-1,-1,-1,340,-1,12,-1,-1,-1,-1,,9999,0,0,1,FEW 35,1,4,-1,5,1021,RJDA 260300Z 34012KT 9999 FEW035 04/M05 Q1021 RMK 1CU035     A3015=,
20180126_040000.002,0,RJDA,,,,0,20180126040000,-1,-1,-1,-1,360,-1,11,-1,-1,310,30,,9999,0,0,1,FEW 40,1,4,-1,6,1020,RJDA 260400Z 36011KT 310V030 9999 FEW040 04/M06 Q1020 RMK     1CU040 A3013=,
20180126_050000.002,0,RJDA,,,,0,20180126050000,-1,-1,-1,-1,330,-1,10,-1,-1,250,20,,9999,0,0,1,FEW 40,1,4,-1,7,1020,RJDA 260500Z 33010KT 250V020 9999 FEW040 04/M07 Q1020 RMK     1CU040 A3012=,
20180126_060000.002,0,RJDA,,,,0,20180126060000,-1,-1,-1,-1,350,-1,10,-1,-1,310,30,,9999,0,0,1,FEW 40,1,5,-1,8,1020,RJDA 260600Z 35010KT 310V030 9999 FEW040 05/M08 Q1020 RMK     1CU040 A3013=,
20180126_070000.002,0,RJDA,,,,0,20180126070000,-1,-1,-1,-1,340,-1,12,-1,-1,300,10,,9999,0,0,1,FEW 40,1,3,-1,8,1020,RJDA 260700Z 34012KT 300V010 9999 FEW040 03/M08 Q1020 RMK     1CU040 A3013=,
20180126_080000.003,0,RJDA,,,,0,20180126080000,-1,-1,-1,-1,350,-1,10,-1,-1,-1,-1,,9999,0,0,1,FEW 40,1,3,-1,7,1020,RJDA 260800Z 35010KT 9999 FEW040 03/M07 Q1020 RMK 1CU040     A3013=,
20180126_090000.002,0,RJDA,,,,0,20180126090000,-1,-1,-1,-1,330,-1,6,-1,-1,-1,-1,,9999,0,0,1,FEW 30,1,1,-1,6,1021,RJDA 260900Z 33006KT 9999 FEW030 01/M06 Q1021 RMK 1CU030     A3016=,
20180126_100000.002,0,RJDA,,,,0,20180126100000,-1,-1,-1,-1,10,-1,5,-1,-1,340,40,,9999,0,0,1,FEW 30,1,1,-1,7,1022,RJDA 261000Z 01005KT 340V040 9999 FEW030 01/M07 Q1022 RMK     1CU030 A3018=,
20180126_110000.002,0,RJDA,,,,0,20180126110000,-1,-1,-1,-1,350,-1,6,-1,-1,-1,-1,,9999,0,0,1,FEW 40,1,0,-1,6,1022,RJDA 261100Z 35006KT 9999 FEW040 00/M06 Q1022 RMK 1CU040     A3020=,
20180126_223000.002,0,RJDA,,,,0,20180126220000,-1,-1,-1,-1,20,-1,5,-1,-1,-1,-1,,9999,0,0,1,FEW 30,-1,1,-1,5,1025,RJDA 262230Z 02005KT 9999 FEW030 M01/M05 Q1025 RMK 1CU030     A3027=,
20180126_230000.002,0,RJDA,,,,0,20180126230000,-1,-1,-1,-1,350,-1,4,-1,-1,320,20,,9999,0,0,1,FEW 30,-1,1,-1,5,1025,RJDA 262300Z 35004KT 320V020 9999 FEW030 M01/M05 Q1025 RMK     1CU030 A3028=,
20180127_000000.002,0,RJDA,,,,0,20180127000000,-1,-1,-1,-1,350,-1,3,-1,-1,300,40,,9999,0,0,1,FEW 30,1,1,-1,5,1025,RJDA 270000Z 35003KT 300V040 9999 FEW030 01/M05 Q1025 RMK     1CU030 A3029=,
20180127_010000.002,0,RJDA,,,,0,20180127010000,-1,-1,-1,-1,70,-1,6,-1,-1,20,120,,9999,0,0,1,FEW 30,1,2,-1,4,1026,RJDA 270100Z 07006KT 020V120 9999 FEW030 02/M04 Q1026 RMK     1CU030 A3030=,
20180127_020000.002,0,RJDA,,,,0,20180127020000,-1,-1,-1,-1,50,-1,6,-1,-1,360,80,,9999,0,0,1,FEW 30,1,3,-1,5,1025,RJDA 270200Z 05006KT 360V080 9999 FEW030 03/M05 Q1025 RMK     1CU030 A3029=,
20180127_030000.002,0,RJDA,,,,0,20180127030000,-1,-1,-1,-1,80,-1,6,-1,-1,20,120,,9999,0,0,1,FEW 30,1,4,-1,3,1024,RJDA 270300Z 08006KT 020V120 9999 FEW030 04/M03 Q1024 RMK     1CU030 A3026=,
20180127_040000.002,0,RJDA,,,,0,20180127040000,-1,-1,-1,-1,60,-1,7,-1,-1,20,130,,9999,0,0,1,FEW 40,1,5,-1,3,1023,RJDA 270400Z 06007KT 020V130 9999 FEW040 05/M03 Q1023 RMK     1CU040 A3023=,
20180127_050000.002,0,RJDA,,,,0,20180127050000,-1,-1,-1,-1,60,-1,9,-1,-1,20,110,CAVOK,-1,0,0,0,,1,5,-1,3,1022,RJDA 270500Z 06009KT 020V110 CAVOK 05/M03 Q1022 RMK A3020=,
20180127_060000.002,0,RJDA,,,,0,20180127060000,-1,-1,-1,-1,80,-1,7,-1,-1,50,120,CAVOK,-1,0,0,0,,1,6,-1,2,1022,RJDA 270600Z 08007KT 050V120 CAVOK 06/M02 Q1022 RMK A3019=,
20180127_070000.002,0,RJDA,,,,0,20180127070000,-1,-1,-1,-1,70,-1,5,-1,-1,20,120,,9999,0,0,1,FEW 40,1,6,-1,2,1022,RJDA 270700Z 07005KT 020V120 9999 FEW040 06/M02 Q1022 RMK     1CU040 A3020=,
20180127_080000.002,0,RJDA,,,,0,20180127080000,-1,-1,-1,-1,40,-1,4,-1,-1,350,150,CAVOK,-1,0,0,0,,1,6,-1,3,1022,RJDA 270800Z 04004KT 350V150 CAVOK 06/M03 Q1022 RMK A3019=,
20180127_090000.003,0,RJDA,,,,0,20180127090000,-1,-1,-1,-1,999,-1,2,-1,-1,-1,-1,,9999,0,0,1,FEW 35,1,3,-1,2,1022,RJDA 270900Z VRB02KT 9999 FEW035 03/M02 Q1022 RMK 1CU035     A3019=,
20180127_100000.002,0,RJDA,,,,0,20180127100000,-1,-1,-1,-1,999,-1,2,-1,-1,-1,-1,,9999,0,0,2,FEW 35   SCT -9999,1,2,-1,3,1022,RJDA 271000Z VRB02KT 9999 FEW035 SCT/// 02/M03 Q1022 RMK     1CU035 A3019=,
20180127_110000.002,0,RJDA,,,,0,20180127110000,-1,-1,-1,-1,210,-1,3,-1,-1,-1,-1,,9999,0,0,1,FEW 35,1,1,-1,2,1022,RJDA 271100Z 21003KT 9999 FEW035 01/M02 Q1022 RMK 1CU035     A3020=,
20180127_223000.002,0,RJDA,,,,0,20180127220000,-1,-1,-1,-1,999,-1,1,-1,-1,-1,-1,,9999,0,0,3,FEW 20   SCT 30   BKN 40,1,3,1,2,1019,RJDA 272230Z VRB01KT 9999 FEW020 SCT030 BKN040 03/02 Q1019 RMK     1CU020 4CU030 5CU040 A3011=,
20180127_230000.002,0,RJDA,,,,0,20180127230000,-1,-1,-1,-1,999,-1,1,-1,-1,-1,-1,,9999,0,0,3,FEW 20   SCT 30   BKN 45,1,3,1,3,1019,RJDA 272300Z VRB01KT 9999 FEW020 SCT030 BKN045 03/03 Q1019 RMK     1CU020 3CU030 6SC045 A3011=,
20180128_000000.003,0,RJDA,,,,0,20180128000000,-1,-1,-1,-1,999,-1,1,-1,-1,-1,-1,,9999,0,0,3,FEW 20   SCT 25   BKN 60,1,4,1,3,1019,RJDA 280000Z VRB01KT 9999 FEW020 SCT025 BKN060 04/03 Q1019 RMK     1CU020 4CU025 6SC060 A3010=,
20180128_010000.002,0,RJDA,,,,0,20180128010000,-1,-1,-1,-1,40,-1,2,-1,-1,-1,-1,,9999,0,1,3,FEW 15   SCT 25   BKN 90,1,5,1,3,1019,RJDA 280100Z 04002KT 9999 -RA FEW015 SCT025 BKN090 05/03 Q1019     RMK 1CU015 3CU025 6AC090 A3010=,- RA
20180128_020000.002,0,RJDA,,,,0,20180128020000,-1,-1,-1,-1,20,-1,3,-1,-1,350,80,,9999,0,0,2,FEW 15   BKN 90,1,6,1,3,1018,RJDA 280200Z 02003KT 350V080 9999 FEW015 BKN090 06/03 Q1018     RMK 2CU015 6AC090 A3008=,
20180128_030000.002,0,RJDA,,,,0,20180128030000,-1,-1,-1,-1,20,-1,2,-1,-1,-1,-1,,9999,0,0,2,SCT 20   BKN 90,1,6,1,3,1018,RJDA 280300Z 02002KT 9999 SCT020 BKN090 06/03 Q1018 RMK 3CU020     6AC090 A3006=,
20180128_040000.002,0,RJDA,,,,0,20180128040000,-1,-1,-1,-1,999,-1,2,-1,-1,-1,-1,,9999,0,0,2,SCT 15   BKN 90,1,6,1,4,1017,RJDA 280400Z VRB02KT 9999 SCT015 BKN090 06/04 Q1017 RMK 3CU015     6AC090 A3003=,
20180128_050000.002,0,RJDA,,,,0,20180128050000,-1,-1,-1,-1,999,-1,2,-1,-1,-1,-1,,9999,0,1,3,FEW 8   SCT 15   BKN 25,1,6,1,4,1016,RJDA 280500Z VRB02KT 9999 -SHRA FEW008 SCT015 BKN025 06/04     Q1016 RMK 1ST008 4CU015 6CU025 A3002=,- RA SH
20180128_060000.002,0,RJDA,,,,0,20180128060000,-1,-1,-1,-1,999,-1,2,-1,-1,-1,-1,,9999,0,1,3,FEW 7   SCT 10   BKN 25,1,6,1,4,1016,RJDA 280600Z VRB02KT 9999 -SHRA FEW007 SCT010 BKN025 06/04     Q1016 RMK 1ST007 4CU010 6CU025 A3002=,- RA SH
20180128_070000.003,0,RJDA,,,,0,20180128070000,-1,-1,-1,-1,10,-1,5,-1,-1,-1,-1,,7000,0,1,3,FEW 5   SCT 10   BKN 15,1,5,1,5,1016,RJDA 280700Z 01005KT 7000 -SHRA FEW005 SCT010 BKN015 05/05     Q1016 RMK 1ST005 4CU010 6CU015 A3003=,- RA SH
20180128_080000.002,0,RJDA,,,,0,20180128080000,-1,-1,-1,-1,350,-1,5,-1,-1,-1,-1,,7000,0,1,3,FEW 5   SCT 15   BKN 25,1,5,1,5,1016,RJDA 280800Z 35005KT 7000 -SHRA FEW005 SCT015 BKN025 05/05     Q1016 RMK 1ST005 4CU015 6CU025 A3003=,- RA SH
20180128_090000.002,0,RJDA,,,,0,20180128090000,-1,-1,-1,-1,350,-1,5,-1,-1,-1,-1,,9999,0,1,3,FEW 4   SCT 15   BKN 20,1,5,1,4,1017,RJDA 280900Z 35005KT 9999 -SHRA FEW004 SCT015 BKN020 05/04     Q1017 RMK 1ST004 3CU015 6CU020 A3004=,- RA SH
20180128_100000.002,0,RJDA,,,,0,20180128100000,-1,-1,-1,-1,10,-1,3,-1,-1,-1,-1,,9999,0,1,3,FEW 5   SCT 15   BKN 25,1,5,1,4,1017,RJDA 281000Z 01003KT 9999 -SHRA FEW005 SCT015 BKN025 05/04     Q1017 RMK 1ST005 3CU015 6CU025 A3006=,- RA SH
20180128_110000.002,0,RJDA,,,,0,20180128110000,-1,-1,-1,-1,350,-1,7,-1,-1,-1,-1,,9999,0,1,3,FEW 6   SCT 20   BKN 30,1,5,1,3,1017,RJDA 281100Z 35007KT 9999 -SHRA FEW006 SCT020 BKN030 05/03     Q1017 RMK 1ST006 3CU020 6CU030 A3005=,- RA SH
20180128_223000.002,0,RJDA,,,,0,20180128220000,-1,-1,-1,-1,350,-1,10,-1,-1,320,20,,9999,0,0,2,FEW 30   BKN 35,1,3,-1,2,1018,RJDA 282230Z 35010KT 320V020 9999 FEW030 BKN035 03/M02 Q1018     RMK 1CU030 6CU035 A3007=,
20180128_230000.002,0,RJDA,,,,0,20180128230000,-1,-1,-1,-1,350,-1,12,-1,-1,-1,-1,,9999,0,0,2,FEW 30   BKN 35,1,3,-1,2,1018,RJDA 282300Z 35012KT 9999 FEW030 BKN035 03/M02 Q1018 RMK     1CU030 6CU035 A3009=,
20180129_000000.003,0,RJDA,,,,0,20180129000000,-1,-1,-1,-1,350,-1,12,-1,-1,-1,-1,,9999,0,0,2,FEW 25   BKN 30,1,3,-1,2,1019,RJDA 290000Z 35012KT 9999 FEW025 BKN030 03/M02 Q1019 RMK     1CU025 5CU030 A3010=,
20180129_010000.002,0,RJDA,,,,0,20180129010000,-1,-1,-1,-1,330,-1,14,-1,-1,300,360,,9999,0,0,2,FEW 30   SCT 35,1,4,-1,2,1019,RJDA 290100Z 33014KT 300V360 9999 FEW030 SCT035 04/M02 Q1019     RMK 1CU030 3CU035 A3011=,
20180129_020000.002,0,RJDA,,,,0,20180129020000,-1,-1,-1,-1,340,-1,13,-1,-1,300,10,,9999,0,0,2,FEW 30   SCT 40,1,4,-1,3,1019,RJDA 290200Z 34013KT 300V010 9999 FEW030 SCT040 04/M03 Q1019     RMK 1CU030 4CU040 A3012=,
20180129_030000.002,0,RJDA,,,,0,20180129030000,-1,-1,-1,-1,330,-1,11,-1,-1,290,10,,9999,0,0,3,FEW 25   SCT 35   BKN 40,1,4,-1,3,1019,RJDA 290300Z 33011KT 290V010 9999 FEW025 SCT035 BKN040 04/M03     Q1019 RMK 1CU025 3CU035 5CU040 A3011=,
20180129_040000.002,0,RJDA,,,,0,20180129040000,-1,-1,-1,-1,340,-1,11,-1,-1,300,20,,9999,0,0,3,FEW 20   SCT 30   BKN 40,1,4,-1,2,1019,RJDA 290400Z 34011KT 300V020 9999 FEW020 SCT030 BKN040 04/M02     Q1019 RMK 1CU020 3CU030 6CU040 A3009=,
20180129_050000.002,0,RJDA,,,,0,20180129050000,-1,-1,-1,-1,320,-1,12,-1,-1,280,340,,9999,0,0,3,FEW 20   SCT 30   BKN 40,1,4,-1,3,1018,RJDA 290500Z 32012KT 280V340 9999 FEW020 SCT030 BKN040 04/M03     Q1018 RMK 1CU020 3CU030 5CU040 A3009=,
20180129_060000.002,0,RJDA,,,,0,20180129060000,-1,-1,-1,-1,360,-1,12,-1,-1,-1,-1,,9999,0,0,2,FEW 30   SCT 40,1,4,-1,3,1018,RJDA 290600Z 36012KT 9999 FEW030 SCT040 04/M03 Q1018 RMK     2CU030 4CU040 A3008=,
20180129_070000.002,0,RJDA,,,,0,20180129070000,-1,-1,-1,-1,330,-1,12,-1,-1,-1,-1,,9999,0,0,3,FEW 20   SCT 30   BKN 40,1,4,-1,3,1019,RJDA 290700Z 33012KT 9999 FEW020 SCT030 BKN040 04/M03 Q1019     RMK 1CU020 3CU030 5CU040 A3010=,
20180129_080000.002,0,RJDA,,,,0,20180129080000,-1,-1,-1,-1,330,-1,10,-1,-1,-1,-1,,9999,0,0,2,FEW 20   SCT 40,1,3,-1,3,1019,RJDA 290800Z 33010KT 9999 FEW020 SCT040 03/M03 Q1019 RMK     1CU020 4CU040 A3012=,
20180129_090000.002,0,RJDA,,,,0,20180129090000,-1,-1,-1,-1,350,-1,9,-1,-1,310,20,,9999,0,0,3,FEW 20   SCT 30   BKN 40,1,3,-1,3,1020,RJDA 290900Z 35009KT 310V020 9999 FEW020 SCT030 BKN040 03/M03     Q1020 RMK 1CU020 4CU030 6CU040 A3014=,
20180129_100000.002,0,RJDA,,,,0,20180129100000,-1,-1,-1,-1,350,-1,10,-1,-1,-1,-1,,9999,0,0,3,FEW 20   SCT 30   BKN 45,1,3,-1,2,1020,RJDA 291000Z 35010KT 9999 FEW020 SCT030 BKN045 03/M02 Q1020     RMK 1CU020 3CU030 5CU045 A3014=,
20180129_110000.002,0,RJDA,,,,0,20180129110000,-1,-1,-1,-1,340,-1,8,-1,-1,-1,-1,,9999,0,0,2,FEW 30   BKN 50,1,3,-1,2,1020,RJDA 291100Z 34008KT 9999 FEW030 BKN050 03/M02 Q1020 RMK     1CU030 5SC050 A3013=,
20180129_223000.002,0,RJDA,,,,0,20180129220000,-1,-1,-1,-1,320,-1,6,-1,-1,290,350,,9999,0,0,3,FEW 15   SCT 25   BKN 40,1,2,-1,5,1023,RJDA 292230Z 32006KT 290V350 9999 FEW015 SCT025 BKN040 02/M05     Q1023 RMK 1CU015 3CU025 5SC040 A3023=,
20180129_230000.002,0,RJDA,,,,0,20180129230000,-1,-1,-1,-1,360,-1,10,-1,-1,-1,-1,,9999,0,0,3,FEW 20   SCT 30   BKN 50,1,1,-1,3,1023,RJDA 292300Z 36010KT 9999 FEW020 SCT030 BKN050 01/M03 Q1023     RMK 1CU020 3CU030 5SC050 A3024=,
20180130_000000.002,0,RJDA,,,,0,20180130000000,-1,-1,-1,-1,10,-1,7,-1,-1,-1,-1,,9999,0,0,3,FEW 25   SCT 30   BKN 40,1,2,-1,3,1024,RJDA 300000Z 01007KT 9999 FEW025 SCT030 BKN040 02/M03 Q1024     RMK 1CU025 3CU030 5SC040 A3025=,
20180130_010000.002,0,RJDA,,,,0,20180130010000,-1,-1,-1,-1,20,-1,8,-1,-1,340,60,,9999,0,0,2,FEW 20   SCT 35,1,2,-1,4,1024,RJDA 300100Z 02008KT 340V060 9999 FEW020 SCT035 02/M04 Q1024     RMK 1CU020 4CU035 A3025=,
20180130_020000.002,0,RJDA,,,,0,20180130020000,-1,-1,-1,-1,350,-1,5,-1,-1,300,30,,9999,0,0,2,FEW 20   SCT 30,1,3,-1,4,1024,RJDA 300200Z 35005KT 300V030 9999 FEW020 SCT030 03/M04 Q1024     RMK 2CU020 4CU030 A3026=,
20180130_030000.002,0,RJDA,,,,0,20180130030000,-1,-1,-1,-1,360,-1,9,-1,-1,320,20,,9999,0,0,3,FEW 20   SCT 30   BKN 45,1,3,-1,4,1024,RJDA 300300Z 36009KT 320V020 9999 FEW020 SCT030 BKN045 03/M04     Q1024 RMK 1CU020 3CU030 5SC045 A3024=,
20180130_040000.002,0,RJDA,,,,0,20180130040000,-1,-1,-1,-1,310,-1,6,-1,-1,260,360,,9999,0,0,2,FEW 20   BKN 40,1,4,-1,3,1023,RJDA 300400Z 31006KT 260V360 9999 FEW020 BKN040 04/M03 Q1023     RMK 1CU020 5CU040 A3022=,
20180130_050000.002,0,RJDA,,,,0,20180130050000,-1,-1,-1,-1,20,-1,7,-1,-1,340,50,,9999,0,0,3,FEW 30   SCT 40   BKN 50,1,3,-1,3,1022,RJDA 300500Z 02007KT 340V050 9999 FEW030 SCT040 BKN050 03/M03     Q1022 RMK 1CU030 3CU040 5SC050 A3021=,
20180130_060000.003,0,RJDA,,,,0,20180130060000,-1,-1,-1,-1,340,-1,8,-1,-1,310,20,,9999,0,0,2,FEW 35   BKN 45,1,4,-1,3,1023,RJDA 300600Z 34008KT 310V020 9999 FEW035 BKN045 04/M03 Q1023     RMK 2CU035 5CU045 A3022=,
20180130_070000.002,0,RJDA,,,,0,20180130070000,-1,-1,-1,-1,340,-1,10,-1,-1,290,20,,9999,0,0,2,FEW 35   SCT 45,1,4,-1,3,1024,RJDA 300700Z 34010KT 290V020 9999 FEW035 SCT045 04/M03 Q1024     RMK 2CU035 4CU045 A3024=,
20180130_080000.002,0,RJDA,,,,0,20180130080000,-1,-1,-1,-1,330,-1,8,-1,-1,290,10,,9999,0,0,3,FEW 30   SCT 35   BKN 45,1,3,-1,2,1024,RJDA 300800Z 33008KT 290V010 9999 FEW030 SCT035 BKN045 03/M02     Q1024 RMK 1CU030 3CU035 5CU045 A3026=,
20180130_090000.002,0,RJDA,,,,0,20180130090000,-1,-1,-1,-1,350,-1,7,-1,-1,-1,-1,,9999,0,0,2,FEW 30   BKN 40,1,3,-1,2,1025,RJDA 300900Z 35007KT 9999 FEW030 BKN040 03/M02 Q1025 RMK     2CU030 5CU040 A3027=,
20180130_100000.002,0,RJDA,,,,0,20180130100000,-1,-1,-1,-1,360,-1,6,-1,-1,-1,-1,,9999,0,0,2,FEW 30   BKN 40,1,3,-1,4,1024,RJDA 301000Z 36006KT 9999 FEW030 BKN040 03/M04 Q1024 RMK     1CU030 5CU040 A3027=,
20180130_110000.002,0,RJDA,,,,0,20180130110000,-1,-1,-1,-1,340,-1,5,-1,-1,-1,-1,,9999,0,0,2,FEW 30   BKN 35,1,3,-1,3,1025,RJDA 301100Z 34005KT 9999 FEW030 BKN035 03/M03 Q1025 RMK     1CU030 5CU035 A3029=,
20180130_223000.002,0,RJDA,,,,0,20180130220000,-1,-1,-1,-1,220,-1,3,-1,-1,-1,-1,,9999,0,0,2,FEW 30   BKN -9999,-1,1,-1,2,1027,RJDA 302230Z 22003KT 9999 FEW030 BKN/// M01/M02 Q1027 RMK     1CU030 A3035=,
20180130_230000.002,0,RJDA,,,,0,20180130230000,-1,-1,-1,-1,210,-1,2,-1,-1,-1,-1,,9999,0,0,2,FEW 30   BKN -9999,-1,1,-1,2,1027,RJDA 302300Z 21002KT 9999 FEW030 BKN/// M01/M02 Q1027 RMK     1CU030 A3033=,
20180131_000000.002,0,RJDA,,,,0,20180131000000,-1,-1,-1,-1,999,-1,1,-1,-1,-1,-1,,9999,0,0,2,FEW 30   BKN -9999,1,2,-1,0,1027,RJDA 310000Z VRB01KT 9999 FEW030 BKN/// 02/M00 Q1027 RMK     1CU030 A3034=,
20180131_010000.002,0,RJDA,,,,0,20180131010000,-1,-1,-1,-1,50,-1,6,-1,-1,10,90,,9999,0,0,2,FEW 20   BKN -9999,1,4,1,0,1027,RJDA 310100Z 05006KT 010V090 9999 FEW020 BKN/// 04/00 Q1027     RMK 1CU020 A3034=,
20180131_020000.002,0,RJDA,,,,0,20180131020000,-1,-1,-1,-1,50,-1,7,-1,-1,10,80,,9999,0,0,2,FEW 30   BKN -9999,1,5,-1,1,1027,RJDA 310200Z 05007KT 010V080 9999 FEW030 BKN/// 05/M01 Q1027     RMK 1CU030 A3033=,
20180131_030000.002,0,RJDA,,,,0,20180131030000,-1,-1,-1,-1,90,-1,6,-1,-1,50,140,,9999,0,0,2,FEW 30   BKN -9999,1,5,-1,0,1026,RJDA 310300Z 09006KT 050V140 9999 FEW030 BKN/// 05/M00 Q1026     RMK 1CU030 A3031=,
20180131_040000.002,0,RJDA,,,,0,20180131040000,-1,-1,-1,-1,70,-1,6,-1,-1,40,110,CAVOK,-1,0,0,0,,1,5,-1,1,1024,RJDA 310400Z 07006KT 040V110 CAVOK 05/M01 Q1024 RMK A3026=,
20180131_050000.002,0,RJDA,,,,0,20180131050000,-1,-1,-1,-1,70,-1,4,-1,-1,20,130,,9999,0,0,3,FEW 35   SCT 130   BKN 150,1,6,-1,0,1024,RJDA 310500Z 07004KT 020V130 9999 FEW035 SCT130 BKN150 06/M00     Q1024 RMK 1CU035 3AC130 6AC150 A3024=,
20180131_060000.002,0,RJDA,,,,0,20180131060000,-1,-1,-1,-1,70,-1,4,-1,-1,10,160,,9999,0,0,3,FEW 35   SCT 120   BKN 150,1,6,-1,1,1023,RJDA 310600Z 07004KT 010V160 9999 FEW035 SCT120 BKN150 06/M01     Q1023 RMK 1CU035 3AC120 5AC150 A3022=,
20180131_070000.003,0,RJDA,,,,0,20180131070000,-1,-1,-1,-1,360,-1,3,-1,-1,330,50,,9999,0,0,3,FEW 35   SCT 110   BKN 130,1,6,-1,2,1023,RJDA 310700Z 36003KT 330V050 9999 FEW035 SCT110 BKN130 06/M02     Q1023 RMK 1CU035 4AC110 6AC130 A3022=,
20180131_080000.003,0,RJDA,,,,0,20180131080000,-1,-1,-1,-1,340,-1,5,-1,-1,-1,-1,,9999,0,0,3,FEW 35   SCT 110   BKN -9999,1,6,-1,1,1024,RJDA 310800Z 34005KT 9999 FEW035 SCT110 BKN/// 06/M01 Q1024     RMK 1CU035 3AC110 A3024=,
20180131_090000.002,0,RJDA,,,,0,20180131090000,-1,-1,-1,-1,999,-1,1,-1,-1,-1,-1,,9999,0,0,3,FEW 35   SCT 100   BKN -9999,1,5,-1,1,1024,RJDA 310900Z VRB01KT 9999 FEW035 SCT100 BKN/// 05/M01 Q1024     RMK 1CU035 3AC100 A3024=,
20180131_100000.002,0,RJDA,,,,0,20180131100000,-1,-1,-1,-1,200,-1,3,-1,-1,-1,-1,,9999,0,0,3,FEW 35   SCT 100   BKN -9999,1,4,1,0,1023,RJDA 311000Z 20003KT 9999 FEW035 SCT100 BKN/// 04/00 Q1023 RMK     1CU035 3AC100 A3021=,
20180131_110000.002,0,RJDA,,,,0,20180131110000,-1,-1,-1,-1,290,-1,2,-1,-1,-1,-1,,9999,0,0,3,FEW 35   SCT 90   BKN -9999,1,5,-1,2,1023,RJDA 311100Z 29002KT 9999 FEW035 SCT090 BKN/// 05/M02 Q1023     RMK 1CU035 3AC090 A3022=,
20180131_223000.002,0,RJDA,,,,0,20180131220000,-1,-1,-1,-1,120,-1,5,-1,-1,90,150,,9999,0,1,3,FEW 5   SCT 15   BKN 25,1,4,1,3,1023,RJDA 312230Z 12005KT 090V150 9999 -SHRA FEW005 SCT015 BKN025     04/03 Q1023 RMK 1ST005 4CU015 6CU025 A3021=,- RA SH
20180131_230000.002,0,RJDA,,,,0,20180131230000,-1,-1,-1,-1,90,-1,3,-1,-1,50,130,,8000,0,1,3,FEW 5   SCT 15   BKN 70,1,4,1,3,1023,RJDA 312300Z 09003KT 050V130 8000 -SHRA FEW005 SCT015 BKN070     04/03 Q1023 RMK 1ST005 3CU015 6AC070 A3021=,- RA SH
20180201_000000.003,0,RJDA,,,,0,20180201000000,-1,-1,-1,-1,90,-1,3,-1,-1,50,140,,8000,0,1,3,FEW 4   SCT 10   BKN 30,1,4,1,4,1023,RJDA 010000Z 09003KT 050V140 8000 -SHRA FEW004 SCT010 BKN030     04/04 Q1023 RMK 1ST004 4CU010 7CU030 A3022=,- RA SH
20180201_010000.002,0,RJDA,,,,0,20180201010000,-1,-1,-1,-1,40,-1,3,-1,-1,10,80,,8000,0,1,3,FEW 4   SCT 15   BKN 30,1,4,1,4,1023,RJDA 010100Z 04003KT 010V080 8000 -SHRA FEW004 SCT015 BKN030     04/04 Q1023 RMK 1ST004 3CU015 6CU030 A3022=,- RA SH
20180201_020000.002,0,RJDA,,,,0,20180201020000,-1,-1,-1,-1,30,-1,8,-1,-1,-1,-1,,9999,0,0,3,FEW 4   SCT 20   BKN 30,1,5,1,4,1023,RJDA 010200Z 03008KT 9999 FEW004 SCT020 BKN030 05/04 Q1023 RMK     1ST004 3CU020 6CU030 A3021=,
20180201_030000.003,0,RJDA,,,,0,20180201030000,-1,-1,-1,-1,30,-1,9,-1,-1,10,70,,9999,0,0,3,FEW 8   SCT 20   BKN 30,1,5,1,4,1022,RJDA 010300Z 03009KT 010V070 9999 FEW008 SCT020 BKN030 05/04     Q1022 RMK 1ST008 3CU020 5CU030 A3020=,
20180201_040000.003,0,RJDA,,,,0,20180201040000,-1,-1,-1,-1,60,-1,5,-1,-1,20,110,,9999,0,0,2,FEW 20   SCT 35,1,7,1,4,1022,RJDA 010400Z 06005KT 020V110 9999 FEW020 SCT035 07/04 Q1022     RMK 1CU020 4CU035 A3018=,
20180201_050000.002,0,RJDA,,,,0,20180201050000,-1,-1,-1,-1,70,-1,5,-1,-1,360,110,,9999,0,0,2,FEW 15   SCT 35,1,7,1,4,1021,RJDA 010500Z 07005KT 360V110 9999 FEW015 SCT035 07/04 Q1021     RMK 1CU015 4CU035 A3017=,
20180201_060000.002,0,RJDA,,,,0,20180201060000,-1,-1,-1,-1,90,-1,5,-1,-1,50,110,,9999,0,0,2,FEW 30   SCT 40,1,7,1,3,1021,RJDA 010600Z 09005KT 050V110 9999 FEW030 SCT040 07/03 Q1021     RMK 1CU030 4CU040 A3016=,
20180201_070000.002,0,RJDA,,,,0,20180201070000,-1,-1,-1,-1,999,-1,2,-1,-1,-1,-1,,9999,0,0,2,FEW 30   BKN 40,1,8,1,2,1021,RJDA 010700Z VRB02KT 9999 FEW030 BKN040 08/02 Q1021 RMK 1CU030     5CU040 A3017=,
20180201_080000.002,0,RJDA,,,,0,20180201080000,-1,-1,-1,-1,360,-1,5,-1,-1,-1,-1,,9999,0,0,2,FEW 30   SCT 40,1,7,1,1,1022,RJDA 010800Z 36005KT 9999 FEW030 SCT040 07/01 Q1022 RMK 1CU030     3CU040 A3019=,
20180201_090000.002,0,RJDA,,,,0,20180201090000,-1,-1,-1,-1,10,-1,4,-1,-1,-1,-1,,9999,0,0,1,FEW 35,1,6,1,1,1022,RJDA 010900Z 01004KT 9999 FEW035 06/01 Q1022 RMK 1CU035 A3020=,
20180201_100000.002,0,RJDA,,,,0,20180201100000,-1,-1,-1,-1,10,-1,7,-1,-1,-1,-1,,9999,0,0,1,FEW 35,1,6,1,0,1023,RJDA 011000Z 01007KT 9999 FEW035 06/00 Q1023 RMK 1CU035 A3022=,
20180201_110000.002,0,RJDA,,,,0,20180201110000,-1,-1,-1,-1,20,-1,7,-1,-1,-1,-1,,9999,0,0,1,FEW 35,1,5,1,1,1023,RJDA 011100Z 02007KT 9999 FEW035 05/01 Q1023 RMK 1CU035 A3021=,
20180201_223000.002,0,RJDA,,,,0,20180201220000,-1,-1,-1,-1,310,-1,4,-1,-1,-1,-1,,9999,0,0,2,FEW 30   BKN -9999,1,4,1,2,1024,RJDA 012230Z 31004KT 9999 FEW030 BKN/// 04/02 Q1024 RMK 1CU030     A3025=,
20180201_230000.003,0,RJDA,,,,0,20180201230000,-1,-1,-1,-1,320,-1,4,-1,-1,-1,-1,,9999,0,0,2,FEW 30   BKN -9999,1,4,1,3,1025,RJDA 012300Z 32004KT 9999 FEW030 BKN/// 04/03 Q1025 RMK 1CU030     A3027=,
20180202_000000.002,0,RJDA,,,,0,20180202000000,-1,-1,-1,-1,350,-1,3,-1,-1,330,30,,9999,0,0,2,FEW 35   BKN -9999,1,5,1,3,1025,RJDA 020000Z 35003KT 330V030 9999 FEW035 BKN/// 05/03 Q1025     RMK 1CU035 A3028=,
20180202_010000.002,0,RJDA,,,,0,20180202010000,-1,-1,-1,-1,350,-1,5,-1,-1,320,20,,9999,0,0,2,FEW 30   BKN -9999,1,7,1,3,1025,RJDA 020100Z 35005KT 320V020 9999 FEW030 BKN/// 07/03 Q1025     RMK 1CU030 A3029=,
20180202_020000.002,0,RJDA,,,,0,20180202020000,-1,-1,-1,-1,30,-1,6,-1,-1,330,90,,9999,0,0,2,FEW 30   BKN -9999,1,8,1,3,1025,RJDA 020200Z 03006KT 330V090 9999 FEW030 BKN/// 08/03 Q1025     RMK 1CU030 A3027=,
20180202_030000.002,0,RJDA,,,,0,20180202030000,-1,-1,-1,-1,999,-1,4,-1,-1,-1,-1,,9999,0,0,3,FEW 20   SCT 30   BKN -9999,1,8,1,3,1024,RJDA 020300Z VRB04KT 9999 FEW020 SCT030 BKN/// 08/03 Q1024 RMK     1CU020 3CU030 A3024=,
20180202_040000.002,0,RJDA,,,,0,20180202040000,-1,-1,-1,-1,50,-1,6,-1,-1,360,100,,9999,0,0,2,FEW 30   BKN -9999,1,9,1,2,1023,RJDA 020400Z 05006KT 360V100 9999 FEW030 BKN/// 09/02 Q1023     RMK 1CU030 A3022=,
20180202_050000.001,0,RJDA,,,,0,20180202050000,-1,-1,-1,-1,70,-1,6,-1,-1,40,130,,9999,0,0,2,FEW 30   BKN -9999,1,8,1,2,1022,RJDA 020500Z 07006KT 040V130 9999 FEW030 BKN/// 08/02 Q1022     RMK 1CU030 A3021=,
20180202_060000.002,0,RJDA,,,,0,20180202060000,-1,-1,-1,-1,60,-1,5,-1,-1,-1,-1,,9999,0,0,3,FEW 30   SCT 50   BKN -9999,1,8,1,2,1022,RJDA 020600Z 06005KT 9999 FEW030 SCT050 BKN/// 08/02 Q1022 RMK     1CU030 3SC050 A3020=,
20180202_070000.002,0,RJDA,,,,0,20180202070000,-1,-1,-1,-1,60,-1,4,-1,-1,20,100,,9999,0,0,3,FEW 30   SCT 50   BKN -9999,1,8,1,2,1022,RJDA 020700Z 06004KT 020V100 9999 FEW030 SCT050 BKN/// 08/02     Q1022 RMK 1CU030 3SC050 A3019=,
20180202_080000.002,0,RJDA,,,,0,20180202080000,-1,-1,-1,-1,50,-1,4,-1,-1,350,100,,9999,0,0,3,FEW 30   SCT 50   BKN -9999,1,8,1,2,1022,RJDA 020800Z 05004KT 350V100 9999 FEW030 SCT050 BKN/// 08/02     Q1022 RMK 1CU030 3SC050 A3018=,
20180202_090000.002,0,RJDA,,,,0,20180202090000,-1,-1,-1,-1,999,-1,1,-1,-1,-1,-1,,9999,0,0,2,FEW 30   SCT 50,1,7,1,2,1022,RJDA 020900Z VRB01KT 9999 FEW030 SCT050 07/02 Q1022 RMK 1CU030     3SC050 A3019=,
20180202_100000.003,0,RJDA,,,,0,20180202100000,-1,-1,-1,-1,210,-1,3,-1,-1,-1,-1,,9999,0,0,2,FEW 30   SCT 50,1,5,1,3,1022,RJDA 021000Z 21003KT 9999 FEW030 SCT050 05/03 Q1022 RMK 1CU030     4SC050 A3020=,
20180202_110000.002,0,RJDA,,,,0,20180202110000,-1,-1,-1,-1,300,-1,2,-1,-1,-1,-1,,9999,0,0,2,FEW 30   SCT 50,1,6,1,3,1023,RJDA 021100Z 30002KT 9999 FEW030 SCT050 06/03 Q1023 RMK 1CU030     4SC050 A3021=,
20180202_223000.002,0,RJDA,,,,0,20180202220000,-1,-1,-1,-1,340,-1,7,-1,-1,-1,-1,,9999,0,0,2,FEW 30   SCT -9999,1,4,-1,3,1022,RJDA 022230Z 34007KT 9999 FEW030 SCT/// 04/M03 Q1022 RMK     1CU030 A3021=,
20180202_230000.003,0,RJDA,,,,0,20180202230000,-1,-1,-1,-1,340,-1,9,-1,-1,-1,-1,,9999,0,0,2,FEW 30   BKN -9999,1,5,-1,3,1023,RJDA 022300Z 34009KT 9999 FEW030 BKN/// 05/M03 Q1023 RMK     1CU030 A3021=,
20180203_000000.002,0,RJDA,,,,0,20180203000000,-1,-1,-1,-1,340,-1,7,-1,-1,300,10,,9999,0,0,2,FEW 40   BKN -9999,1,5,-1,3,1023,RJDA 030000Z 34007KT 300V010 9999 FEW040 BKN/// 05/M03 Q1023     RMK 1CU040 A3022=,
20180203_010000.003,0,RJDA,,,,0,20180203010000,-1,-1,-1,-1,360,-1,12,-1,-1,-1,-1,,9999,0,0,3,FEW 40   SCT 70   BKN -9999,1,7,-1,5,1023,RJDA 030100Z 36012KT 9999 FEW040 SCT070 BKN/// 07/M05 Q1023     RMK 1CU040 3AC070 A3021=,
20180203_020000.002,0,RJDA,,,,0,20180203020000,-1,-1,-1,-1,320,-1,7,-1,-1,270,360,,9999,0,0,3,FEW 40   SCT 50   BKN 70,1,6,-1,4,1023,RJDA 030200Z 32007KT 270V360 9999 FEW040 SCT050 BKN070 06/M04     Q1023 RMK 1CU040 4SC050 5AC070 A3021=,
20180203_030000.002,0,RJDA,,,,0,20180203030000,-1,-1,-1,-1,330,-1,10,-1,-1,-1,-1,,9999,0,0,3,FEW 40   SCT 50   BKN 60,1,7,-1,3,1022,RJDA 030300Z 33010KT 9999 FEW040 SCT050 BKN060 07/M03 Q1022     RMK 1CU040 4SC050 5SC060 A3019=,
20180203_040000.002,0,RJDA,,,,0,20180203040000,-1,-1,-1,-1,330,-1,11,-1,21,290,360,,9999,0,1,3,FEW 30   SCT 40   BKN 50,1,6,-1,1,1022,RJDA 030400Z 33011G21KT 290V360 9999 VCSH FEW030 SCT040 BKN050     06/M01 Q1022 RMK 1CU030 4CU040 5SC050 A3018=,VC SH
20180203_050000.002,0,RJDA,,,,0,20180203050000,-1,-1,-1,-1,340,-1,7,-1,-1,300,30,,7000,0,1,2,FEW 25   BKN 60,1,5,1,3,1022,RJDA 030500Z 34007KT 300V030 7000 VCSH FEW025 BKN060 05/03     Q1022 RMK 1CU025 5SC060 A3018=,VC SH
20180203_060000.002,0,RJDA,,,,0,20180203060000,-1,-1,-1,-1,320,-1,13,-1,-1,-1,-1,,9999,0,0,3,FEW 25   SCT 30   BKN 40,1,5,-1,0,1022,RJDA 030600Z 32013KT 9999 FEW025 SCT030 BKN040 05/M00 Q1022     RMK 1CU025 3CU030 5CU040 A3019=,
20180203_070000.003,0,RJDA,,,,0,20180203070000,-1,-1,-1,-1,310,-1,14,-1,-1,270,350,,9999,0,0,2,FEW 35   BKN 45,1,4,-1,4,1022,RJDA 030700Z 31014KT 270V350 9999 FEW035 BKN045 04/M04 Q1022     RMK 2CU035 5CU045 A3019=,
20180203_080000.002,0,RJDA,,,,0,20180203080000,-1,-1,-1,-1,310,-1,8,-1,-1,270,360,,9999,0,0,2,FEW 35   BKN 45,1,4,-1,4,1022,RJDA 030800Z 31008KT 270V360 9999 FEW035 BKN045 04/M04 Q1022     RMK 2CU035 5CU045 A3019=,
20180203_090000.002,0,RJDA,,,,0,20180203090000,-1,-1,-1,-1,330,-1,9,-1,-1,280,10,,9999,0,0,2,FEW 35   BKN 45,1,3,-1,4,1022,RJDA 030900Z 33009KT 280V010 9999 FEW035 BKN045 03/M04 Q1022     RMK 1CU035 6CU045 A3021=,
20180203_100000.002,0,RJDA,,,,0,20180203100000,-1,-1,-1,-1,340,-1,9,-1,-1,-1,-1,,9999,0,0,2,FEW 35   BKN 50,1,3,-1,4,1023,RJDA 031000Z 34009KT 9999 FEW035 BKN050 03/M04 Q1023 RMK     1CU035 5SC050 A3021=,
20180203_110000.002,0,RJDA,,,,0,20180203110000,-1,-1,-1,-1,340,-1,8,-1,-1,310,10,,9999,0,0,2,FEW 35   BKN 40,1,3,-1,4,1023,RJDA 031100Z 34008KT 310V010 9999 FEW035 BKN040 03/M04 Q1023     RMK 1CU035 5CU040 A3022=,
20180203_223000.002,0,RJDA,,,,0,20180203220000,-1,-1,-1,-1,350,-1,9,-1,-1,320,30,,7000,0,1,3,FEW 10   SCT 20   BKN 30,-1,1,-1,2,1024,RJDA 032230Z 35009KT 320V030 7000 -SHSN FEW010 SCT020 BKN030     M01/M02 Q1024 RMK 1CU010 3CU020 5CU030 A3026=,- SN SH
20180203_230000.002,0,RJDA,,,,0,20180203230000,-1,-1,-1,-1,360,-1,10,-1,-1,330,30,,9999,0,1,3,FEW 10   SCT 25   BKN 35,-1,0,-1,2,1024,RJDA 032300Z 36010KT 330V030 9999 -SHSN FEW010 SCT025 BKN035     M00/M02 Q1024 RMK 1CU010 3CU025 5CU035 A3025=,- SN SH
20180204_000000.002,0,RJDA,,,,0,20180204000000,-1,-1,-1,-1,330,-1,12,-1,24,300,10,,9999,0,1,2,FEW 15   BKN 35,1,0,-1,3,1024,RJDA 040000Z 33012G24KT 300V010 9999 -SHSN FEW015 BKN035     00/M03 Q1024 RMK 1CU015 5CU035 A3026=,- SN SH
20180204_010000.002,0,RJDA,,,,0,20180204010000,-1,-1,-1,-1,330,-1,12,-1,-1,300,360,,9999,0,1,3,FEW 5   SCT 20   BKN 30,1,1,-1,2,1024,RJDA 040100Z 33012KT 300V360 9999 -SHSN FEW005 SCT020 BKN030     01/M02 Q1024 RMK 1ST005 3CU020 5CU030 A3025=,- SN SH
20180204_020000.002,0,RJDA,,,,0,20180204020000,-1,-1,-1,-1,330,-1,13,-1,-1,-1,-1,,9999,0,1,3,FEW 15   SCT 25   BKN 35,1,1,-1,3,1024,RJDA 040200Z 33013KT 9999 -SHSN FEW015 SCT025 BKN035 01/M03     Q1024 RMK 1CU015 3CU025 5CU035 A3024=,- SN SH
20180204_030000.002,0,RJDA,,,,0,20180204030000,-1,-1,-1,-1,320,-1,9,-1,-1,280,30,,9999,0,1,3,FEW 10   SCT 30   BKN 40,1,2,-1,4,1023,RJDA 040300Z 32009KT 280V030 9999 -SHSN FEW010 SCT030 BKN040     02/M04 Q1023 RMK 1CU010 3CU030 5CU040 A3023=,- SN SH
20180204_040000.002,0,RJDA,,,,0,20180204040000,-1,-1,-1,-1,320,-1,12,-1,-1,-1,-1,,5000,0,1,3,FEW 5   SCT 25   BKN 35,1,1,-1,2,1023,RJDA 040400Z 32012KT 5000 -SHSN FEW005 SCT025 BKN035 01/M02     Q1023 RMK 1ST005 3CU025 5CU035 A3021=,- SN SH
20180204_050000.002,0,RJDA,,,,0,20180204050000,-1,-1,-1,-1,320,-1,16,-1,33,290,350,,9999,0,1,3,FEW 15   SCT 30   BKN 40,1,2,-1,5,1023,RJDA 040500Z 32016G33KT 290V350 9999 -SHSN FEW015 SCT030     BKN040 02/M05 Q1023 RMK 1CU015 3CU030 5CU040 A3021=,- SN SH
20180204_060000.002,0,RJDA,,,,0,20180204060000,-1,-1,-1,-1,320,-1,17,-1,29,-1,-1,,9999,0,0,2,FEW 30   SCT 40,1,2,-1,8,1022,RJDA 040600Z 32017G29KT 9999 FEW030 SCT040 02/M08 Q1022 RMK     1CU030 3CU040 A3019=,
20180204_070000.002,0,RJDA,,,,0,20180204070000,-1,-1,-1,-1,320,-1,15,-1,27,-1,-1,,9999,0,1,3,FEW 15   SCT 30   BKN 40,1,1,-1,7,1023,RJDA 040700Z 32015G27KT 9999 -SHSN FEW015 SCT030 BKN040 01/M07     Q1023 RMK 1CU015 3CU030 5CU040 A3021=,- SN SH
20180204_080000.002,0,RJDA,,,,0,20180204080000,-1,-1,-1,-1,310,-1,10,-1,-1,270,10,,9999,0,1,3,FEW 8   SCT 30   BKN 40,1,0,-1,5,1023,RJDA 040800Z 31010KT 270V010 9999 -SHSN FEW008 SCT030 BKN040     00/M05 Q1023 RMK 1ST008 4CU030 6CU040 A3024=,- SN SH
20180204_090000.002,0,RJDA,,,,0,20180204090000,-1,-1,-1,-1,320,-1,8,-1,-1,290,360,,8000,0,1,2,FEW 5   BKN 30,1,0,-1,5,1023,RJDA 040900Z 32008KT 290V360 8000 -SHSN FEW005 BKN030 00/M05     Q1023 RMK 1ST005 6CU030 A3023=,- SN SH
20180204_100000.002,0,RJDA,,,,0,20180204100000,-1,-1,-1,-1,350,-1,7,-1,-1,-1,-1,,9999,0,1,3,FEW 10   SCT 30   BKN 40,1,0,-1,5,1024,RJDA 041000Z 35007KT 9999 -SHSN FEW010 SCT030 BKN040 00/M05     Q1024 RMK 1CU010 3CU030 5CU040 A3025=,- SN SH
20180204_110000.003,0,RJDA,,,,0,20180204110000,-1,-1,-1,-1,350,-1,8,-1,-1,-1,-1,,9999,0,1,3,FEW 15   SCT 30   BKN 45,1,0,-1,5,1024,RJDA 041100Z 35008KT 9999 -SHSN FEW015 SCT030 BKN045 00/M05     Q1024 RMK 1CU015 3CU030 5CU045 A3026=,- SN SH
20180204_223000.002,0,RJDA,,,,0,20180204220000,-1,-1,-1,-1,340,-1,12,-1,-1,-1,-1,,9999,0,1,3,FEW 20   SCT 30   BKN 40,-1,1,-1,6,1024,RJDA 042230Z 34012KT 9999 -SHSN FEW020 SCT030 BKN040 M01/M06     Q1024 RMK 1CU020 3CU030 5CU040 A3026=,- SN SH
20180204_230000.002,0,RJDA,,,,0,20180204230000,-1,-1,-1,-1,350,-1,10,-1,-1,-1,-1,,9999,0,1,3,FEW 20   SCT 35   BKN 45,-1,0,-1,6,1024,RJDA 042300Z 35010KT 9999 -SHSN FEW020 SCT035 BKN045 M00/M06     Q1024 RMK 1CU020 3CU035 5CU045 A3026=,- SN SH
20180205_000000.003,0,RJDA,,,,0,20180205000000,-1,-1,-1,-1,360,-1,11,-1,-1,-1,-1,,9999,0,1,3,FEW 20   SCT 40   BKN 60,1,0,-1,6,1024,RJDA 050000Z 36011KT 9999 -SHSN FEW020 SCT040 BKN060 00/M06     Q1024 RMK 1CU020 4CU040 5SC060 A3027=,- SN SH
20180205_010000.002,0,RJDA,,,,0,20180205010000,-1,-1,-1,-1,10,-1,9,-1,-1,340,40,,9999,0,0,3,FEW 20   SCT 30   BKN 40,1,1,-1,5,1025,RJDA 050100Z 01009KT 340V040 9999 FEW020 SCT030 BKN040 01/M05     Q1025 RMK 1CU020 3CU030 5CU040 A3027=,
20180205_020000.002,0,RJDA,,,,0,20180205020000,-1,-1,-1,-1,350,-1,12,-1,-1,310,20,,9999,0,0,2,FEW 20   SCT 30,1,1,-1,6,1024,RJDA 050200Z 35012KT 310V020 9999 FEW020 SCT030 01/M06 Q1024     RMK 1CU020 3CU030 A3026=,
