20180101_000000.002,0,RJDC,,,,0,20180101000000,-1,-1,-1,-1,340,-1,6,-1,-1,290,20,,9999,0,0,2,FEW 30   SCT 45,1,6,-1,2,1023,RJDC 010000Z 34006KT 290V020 9999 FEW030 SCT045 06/M02 Q1023     RMK 1CU030 3CU045 A3023=,
20180101_010000.002,0,RJDC,,,,0,20180101010000,-1,-1,-1,-1,320,-1,7,-1,-1,270,20,,9999,0,0,2,FEW 30   BKN 40,1,7,-1,2,1024,RJDC 010100Z 32007KT 270V020 9999 FEW030 BKN040 07/M02 Q1024     RMK 1CU030 5CU040 A3025=,
20180101_020000.002,0,RJDC,,,,0,20180101020000,-1,-1,-1,-1,290,-1,8,-1,-1,220,10,,9999,0,0,2,FEW 30   BKN 45,1,8,-1,2,1024,RJDC 010200Z 29008KT 220V010 9999 FEW030 BKN045 08/M02 Q1024     RMK 1CU030 7CU045 A3026=,
20180101_030000.002,0,RJDC,,,,0,20180101030000,-1,-1,-1,-1,290,-1,9,-1,-1,220,340,,9999,0,0,2,FEW 30   BKN 45,1,7,-1,3,1024,RJDC 010300Z 29009KT 220V340 9999 FEW030 BKN045 07/M03 Q1024     RMK 1CU030 6CU045 A3024=,
20180101_040000.002,0,RJDC,,,,0,20180101040000,-1,-1,-1,-1,290,-1,10,-1,-1,250,340,,9999,0,0,2,FEW 30   BKN 45,1,7,-1,3,1023,RJDC 010400Z 29010KT 250V340 9999 FEW030 BKN045 07/M03 Q1023     RMK 1CU030 5CU045 A3022=,
20180101_050000.002,0,RJDC,,,,0,20180101050000,-1,-1,-1,-1,310,-1,9,-1,-1,260,360,,9999,0,0,2,FEW 30   BKN 45,1,8,-1,3,1023,RJDC 010500Z 31009KT 260V360 9999 FEW030 BKN045 08/M03 Q1023     RMK 1CU030 5SC045 A3021=,
20180101_060000.002,0,RJDC,,,,0,20180101060000,-1,-1,-1,-1,300,-1,8,-1,-1,260,360,,9999,0,0,2,FEW 30   SCT 45,1,7,-1,3,1023,RJDC 010600Z 30008KT 260V360 9999 FEW030 SCT045 07/M03 Q1023     RMK 1CU030 4SC045 A3022=,
20180101_070000.002,0,RJDC,,,,0,20180101070000,-1,-1,-1,-1,330,-1,5,-1,-1,270,40,,9999,0,0,2,FEW 30   BKN 50,1,7,-1,3,1024,RJDC 010700Z 33005KT 270V040 9999 FEW030 BKN050 07/M03 Q1024     RMK 1CU030 5SC050 A3024=,
20180101_080000.002,0,RJDC,,,,0,20180101080000,-1,-1,-1,-1,350,-1,3,-1,-1,310,40,,9999,0,0,2,FEW 40   SCT 50,1,6,-1,3,1024,RJDC 010800Z 35003KT 310V040 9999 FEW040 SCT050 06/M03 Q1024     RMK 1CU040 3SC050 A3025=,
20180101_090000.002,0,RJDC,,,,0,20180101090000,-1,-1,-1,-1,330,-1,3,-1,-1,270,70,,9999,0,0,2,FEW 40   SCT 50,1,5,-1,3,1024,RJDC 010900Z 33003KT 270V070 9999 FEW040 SCT050 05/M03 Q1024     RMK 1CU040 3SC050 A3026=,
20180101_100000.002,0,RJDC,,,,0,20180101100000,-1,-1,-1,-1,999,-1,1,-1,-1,-1,-1,,9999,0,0,1,FEW 45,1,4,-1,2,1025,RJDC 011000Z VRB01KT 9999 FEW045 04/M02 Q1025 RMK 2SC045     A3028=,
20180101_110000.002,0,RJDC,,,,0,20180101110000,-1,-1,-1,-1,999,-1,1,-1,-1,-1,-1,,9999,0,0,2,FEW 40   SCT 50,1,4,-1,2,1025,RJDC 011100Z VRB01KT 9999 FEW040 SCT050 04/M02 Q1025 RMK     1CU040 4SC050 A3028=,
20180101_120000.002,0,RJDC,,,,0,20180101120000,-1,-1,-1,-1,999,-1,2,-1,-1,-1,-1,,9999,0,0,2,FEW 40   SCT 50,1,3,-1,1,1025,RJDC 011200Z VRB02KT 9999 FEW040 SCT050 03/M01 Q1025 RMK     1CU040 3SC050 A3028=,
20180101_213000.001,0,RJDC,,,,0,20180101210000,-1,-1,-1,-1,999,-1,2,-1,-1,-1,-1,,9999,0,0,2,FEW 30   SCT 50,1,1,-1,2,1026,RJDC 012130Z VRB02KT 9999 FEW030 SCT050 01/M02 Q1026 RMK     1CU030 3SC050 A3031=,
20180101_220000.002,0,RJDC,,,,0,20180101220000,-1,-1,-1,-1,999,-1,1,-1,-1,-1,-1,,9999,0,0,2,FEW 20   SCT 45,-1,1,-1,3,1026,RJDC 012200Z VRB01KT 9999 FEW020 SCT045 M01/M03 Q1026 RMK     1CU020 3SC045 A3031=,
20180101_230000.002,0,RJDC,,,,0,20180101230000,-1,-1,-1,-1,320,-1,4,-1,-1,280,10,,9999,0,0,1,FEW 20,1,3,-1,1,1026,RJDC 012300Z 32004KT 280V010 9999 FEW020 03/M01 Q1026 RMK     1CU020 A3032=,
20180102_000000.003,0,RJDC,,,,0,20180102000000,-1,-1,-1,-1,999,-1,2,-1,-1,-1,-1,,9999,0,0,1,FEW 20,1,6,-1,0,1026,RJDC 020000Z VRB02KT 9999 FEW020 06/M00 Q1026 RMK 1CU020     A3032=,
20180102_010000.003,0,RJDC,,,,0,20180102010000,-1,-1,-1,-1,280,-1,4,-1,-1,250,320,,9999,0,0,1,FEW 25,1,8,1,0,1027,RJDC 020100Z 28004KT 250V320 9999 FEW025 08/00 Q1027 RMK     1CU025 A3034=,
20180102_020000.002,0,RJDC,,,,0,20180102020000,-1,-1,-1,-1,330,-1,4,-1,-1,260,20,,9999,0,0,1,FEW 30,1,9,-1,0,1026,RJDC 020200Z 33004KT 260V020 9999 FEW030 09/M00 Q1026 RMK     2CU030 A3031=,
20180102_030000.002,0,RJDC,,,,0,20180102030000,-1,-1,-1,-1,999,-1,5,-1,-1,-1,-1,,9999,0,0,1,FEW 40,1,10,-1,1,1025,RJDC 020300Z VRB05KT 9999 FEW040 10/M01 Q1025 RMK 2CU040     A3028=,
20180102_040000.002,0,RJDC,,,,0,20180102040000,-1,-1,-1,-1,280,-1,11,-1,-1,-1,-1,,9999,0,0,1,FEW 40,1,10,-1,2,1024,RJDC 020400Z 28011KT 9999 FEW040 10/M02 Q1024 RMK 2CU040     A3025=,
20180102_050000.002,0,RJDC,,,,0,20180102050000,-1,-1,-1,-1,290,-1,9,-1,-1,250,340,,9999,0,0,1,FEW 40,1,11,-1,1,1024,RJDC 020500Z 29009KT 250V340 9999 FEW040 11/M01 Q1024 RMK     1CU040 A3025=,
20180102_060000.002,0,RJDC,,,,0,20180102060000,-1,-1,-1,-1,340,-1,8,-1,-1,270,40,,9999,0,0,1,FEW 40,1,10,-1,3,1024,RJDC 020600Z 34008KT 270V040 9999 FEW040 10/M03 Q1024 RMK     1CU040 A3025=,
20180102_070000.002,0,RJDC,,,,0,20180102070000,-1,-1,-1,-1,280,-1,10,-1,-1,250,310,,9999,0,0,1,FEW 40,1,9,-1,2,1024,RJDC 020700Z 28010KT 250V310 9999 FEW040 09/M02 Q1024 RMK     1CU040 A3025=,
20180102_080000.002,0,RJDC,,,,0,20180102080000,-1,-1,-1,-1,290,-1,5,-1,-1,250,360,,9999,0,0,1,FEW 40,1,8,-1,2,1024,RJDC 020800Z 29005KT 250V360 9999 FEW040 08/M02 Q1024 RMK     1CU040 A3025=,
20180102_090000.002,0,RJDC,,,,0,20180102090000,-1,-1,-1,-1,999,-1,2,-1,-1,-1,-1,,9999,0,0,1,FEW 40,1,7,-1,2,1024,RJDC 020900Z VRB02KT 9999 FEW040 07/M02 Q1024 RMK 1CU040     A3026=,
20180102_100000.002,0,RJDC,,,,0,20180102100000,-1,-1,-1,-1,999,-1,2,-1,-1,-1,-1,,9999,0,0,1,FEW 45,1,5,-1,2,1025,RJDC 021000Z VRB02KT 9999 FEW045 05/M02 Q1025 RMK 2SC045     A3027=,
20180102_110000.002,0,RJDC,,,,0,20180102110000,-1,-1,-1,-1,999,-1,2,-1,-1,-1,-1,,9999,0,0,2,FEW 40   BKN 50,1,5,-1,1,1025,RJDC 021100Z VRB02KT 9999 FEW040 BKN050 05/M01 Q1025 RMK     1CU040 5SC050 A3027=,
20180102_120000.002,0,RJDC,,,,0,20180102120000,-1,-1,-1,-1,999,-1,1,-1,-1,-1,-1,,9999,0,0,2,FEW 40   SCT 50,1,5,-1,1,1024,RJDC 021200Z VRB01KT 9999 FEW040 SCT050 05/M01 Q1024 RMK     1CU040 4SC050 A3026=,
20180102_213000.001,0,RJDC,,,,0,20180102210000,-1,-1,-1,-1,330,-1,6,-1,-1,270,20,,9999,0,0,1,FEW 40,1,6,-1,4,1024,RJDC 022130Z 33006KT 270V020 9999 FEW040 06/M04 Q1024 RMK     1CU040 A3025=,
20180102_220000.002,0,RJDC,,,,0,20180102220000,-1,-1,-1,-1,320,-1,5,-1,-1,280,100,,9999,0,0,1,FEW 25,1,5,-1,4,1024,RJDC 022200Z 32005KT 280V100 9999 FEW025 05/M04 Q1024 RMK     1CU025 A3026=,
20180102_230000.002,0,RJDC,,,,0,20180102230000,-1,-1,-1,-1,999,-1,3,-1,-1,-1,-1,,9999,0,0,1,FEW 30,1,5,-1,3,1025,RJDC 022300Z VRB03KT 9999 FEW030 05/M03 Q1025 RMK 1CU030     A3027=,
20180103_000000.002,0,RJDC,,,,0,20180103000000,-1,-1,-1,-1,280,-1,6,-1,-1,-1,-1,,9999,0,0,1,FEW 35,1,7,-1,2,1025,RJDC 030000Z 28006KT 9999 FEW035 07/M02 Q1025 RMK 1CU035     A3028=,
20180103_010000.002,0,RJDC,,,,0,20180103010000,-1,-1,-1,-1,290,-1,6,-1,-1,260,330,,9999,0,0,1,FEW 35,1,9,-1,2,1025,RJDC 030100Z 29006KT 260V330 9999 FEW035 09/M02 Q1025 RMK     2CU035 A3028=,
20180103_020000.002,0,RJDC,,,,0,20180103020000,-1,-1,-1,-1,310,-1,7,-1,-1,250,20,,9999,0,0,2,FEW 30   SCT 40,1,9,-1,3,1025,RJDC 030200Z 31007KT 250V020 9999 FEW030 SCT040 09/M03 Q1025     RMK 1CU030 3CU040 A3027=,
20180103_030000.003,0,RJDC,,,,0,20180103030000,-1,-1,-1,-1,350,-1,7,-1,-1,310,60,,9999,0,0,2,FEW 35   BKN 45,1,9,-1,3,1024,RJDC 030300Z 35007KT 310V060 9999 FEW035 BKN045 09/M03 Q1024     RMK 1CU035 5CU045 A3025=,
20180103_040000.002,0,RJDC,,,,0,20180103040000,-1,-1,-1,-1,999,-1,6,-1,-1,-1,-1,,9999,0,0,2,FEW 35   BKN 45,1,9,-1,3,1023,RJDC 030400Z VRB06KT 9999 FEW035 BKN045 09/M03 Q1023 RMK     1CU035 5CU045 A3023=,
20180103_050000.002,0,RJDC,,,,0,20180103050000,-1,-1,-1,-1,999,-1,6,-1,-1,-1,-1,,9999,0,0,2,FEW 30   SCT 45,1,10,-1,5,1023,RJDC 030500Z VRB06KT 9999 FEW030 SCT045 10/M05 Q1023 RMK     1CU030 4CU045 A3022=,
20180103_060000.002,0,RJDC,,,,0,20180103060000,-1,-1,-1,-1,320,-1,6,-1,-1,260,40,,9999,0,0,2,FEW 30   SCT 45,1,10,-1,5,1023,RJDC 030600Z 32006KT 260V040 9999 FEW030 SCT045 10/M05 Q1023     RMK 1CU030 4CU045 A3022=,
20180103_070000.002,0,RJDC,,,,0,20180103070000,-1,-1,-1,-1,340,-1,5,-1,-1,280,70,,9999,0,0,2,FEW 30   SCT 45,1,8,-1,6,1023,RJDC 030700Z 34005KT 280V070 9999 FEW030 SCT045 08/M06 Q1023     RMK 1CU030 3SC045 A3023=,
20180103_080000.002,0,RJDC,,,,0,20180103080000,-1,-1,-1,-1,320,-1,4,-1,-1,270,30,,9999,0,0,2,FEW 30   SCT 45,1,7,-1,5,1023,RJDC 030800Z 32004KT 270V030 9999 FEW030 SCT045 07/M05 Q1023     RMK 1CU030 3SC045 A3023=,
20180103_090000.002,0,RJDC,,,,0,20180103090000,-1,-1,-1,-1,320,-1,3,-1,-1,250,20,,9999,0,0,2,FEW 25   SCT 45,1,6,-1,4,1024,RJDC 030900Z 32003KT 250V020 9999 FEW025 SCT045 06/M04 Q1024     RMK 1CU025 3CU045 A3025=,
20180103_100000.002,0,RJDC,,,,0,20180103100000,-1,-1,-1,-1,330,-1,3,-1,-1,260,30,,9999,0,0,2,FEW 25   SCT 45,1,6,-1,4,1024,RJDC 031000Z 33003KT 260V030 9999 FEW025 SCT045 06/M04 Q1024     RMK 1CU025 3CU045 A3026=,
20180103_110000.002,0,RJDC,,,,0,20180103110000,-1,-1,-1,-1,999,-1,2,-1,-1,-1,-1,,9999,0,0,1,FEW 40,1,5,-1,4,1024,RJDC 031100Z VRB02KT 9999 FEW040 05/M04 Q1024 RMK 2CU040     A3026=,
20180103_120000.002,0,RJDC,,,,0,20180103120000,-1,-1,-1,-1,10,-1,2,-1,-1,-1,-1,,9999,0,0,1,FEW 40,1,3,-1,4,1024,RJDC 031200Z 01002KT 9999 FEW040 03/M04 Q1024 RMK 2CU040     A3026=,
20180103_213000.001,0,RJDC,,,,0,20180103210000,-1,-1,-1,-1,340,-1,5,-1,-1,-1,-1,,9999,0,0,3,FEW 3   SCT 50   BKN 150,1,1,-1,1,1024,RJDC 032130Z 34005KT 9999 FEW003 SCT050 BKN150 01/M01 Q1024     RMK 1ST003 3SC050 7AC150 A3025=,
20180103_220000.002,0,RJDC,,,,0,20180103220000,-1,-1,-1,-1,330,-1,4,-1,-1,-1,-1,,9999,0,0,3,FEW 25   SCT 50   BKN 150,1,0,-1,2,1024,RJDC 032200Z 33004KT 9999 FEW025 SCT050 BKN150 00/M02 Q1024     RMK 1CU025 3SC050 6AC150 A3025=,
20180103_230000.002,0,RJDC,,,,0,20180103230000,-1,-1,-1,-1,340,-1,6,-1,-1,-1,-1,,9999,0,0,3,FEW 20   SCT 45   BKN -9999,1,1,-1,1,1024,RJDC 032300Z 34006KT 9999 FEW020 SCT045 BKN/// 01/M01 Q1024     RMK 1CU020 4SC045 A3026=,
20180104_000000.002,0,RJDC,,,,0,20180104000000,-1,-1,-1,-1,330,-1,4,-1,-1,-1,-1,,9999,0,0,2,FEW 25   SCT 45,1,3,-1,0,1024,RJDC 040000Z 33004KT 9999 FEW025 SCT045 03/M00 Q1024 RMK     1CU025 4SC045 A3026=,
20180104_010000.002,0,RJDC,,,,0,20180104010000,-1,-1,-1,-1,250,-1,3,-1,-1,210,300,,9999,0,0,2,FEW 30   BKN -9999,1,7,1,1,1024,RJDC 040100Z 25003KT 210V300 9999 FEW030 BKN/// 07/01 Q1024     RMK 1CU030 A3026=,
20180104_020000.002,0,RJDC,,,,0,20180104020000,-1,-1,-1,-1,240,-1,5,-1,-1,-1,-1,,9999,0,0,3,FEW 30   SCT 160   BKN -9999,1,8,1,0,1023,RJDC 040200Z 24005KT 9999 FEW030 SCT160 BKN/// 08/00 Q1023 RMK     1CU030 3AC160 A3023=,
20180104_030000.002,0,RJDC,,,,0,20180104030000,-1,-1,-1,-1,240,-1,7,-1,-1,-1,-1,,9999,0,0,3,FEW 35   SCT 150   BKN -9999,1,9,1,0,1023,RJDC 040300Z 24007KT 9999 FEW035 SCT150 BKN/// 09/00 Q1023 RMK     2CU035 3AC150 A3021=,
20180104_040000.002,0,RJDC,,,,0,20180104040000,-1,-1,-1,-1,240,-1,7,-1,-1,-1,-1,,9999,0,0,2,FEW 35   BKN -9999,1,9,-1,1,1021,RJDC 040400Z 24007KT 9999 FEW035 BKN/// 09/M01 Q1021 RMK     2CU035 A3017=,
20180104_050000.002,0,RJDC,,,,0,20180104050000,-1,-1,-1,-1,230,-1,8,-1,-1,-1,-1,,9999,0,0,3,FEW 35   SCT 45   BKN -9999,1,9,-1,0,1021,RJDC 040500Z 23008KT 9999 FEW035 SCT045 BKN/// 09/M00 Q1021     RMK 1CU035 3CU045 A3015=,
20180104_060000.003,0,RJDC,,,,0,20180104060000,-1,-1,-1,-1,230,-1,6,-1,-1,-1,-1,,9999,0,0,3,FEW 30   SCT 45   BKN -9999,1,9,-1,0,1021,RJDC 040600Z 23006KT 9999 FEW030 SCT045 BKN/// 09/M00 Q1021     RMK 1CU030 3CU045 A3016=,
20180104_070000.002,0,RJDC,,,,0,20180104070000,-1,-1,-1,-1,240,-1,6,-1,-1,-1,-1,,9999,0,0,3,FEW 30   SCT 45   BKN -9999,1,8,-1,0,1021,RJDC 040700Z 24006KT 9999 FEW030 SCT045 BKN/// 08/M00 Q1021     RMK 1CU030 3CU045 A3017=,
20180104_080000.002,0,RJDC,,,,0,20180104080000,-1,-1,-1,-1,250,-1,4,-1,-1,210,280,,9999,0,0,2,FEW 40   BKN -9999,1,8,1,0,1021,RJDC 040800Z 25004KT 210V280 9999 FEW040 BKN/// 08/00 Q1021     RMK 2CU040 A3016=,
20180104_090000.002,0,RJDC,,,,0,20180104090000,-1,-1,-1,-1,270,-1,4,-1,-1,-1,-1,,9999,0,0,2,FEW 40   BKN -9999,1,8,-1,0,1021,RJDC 040900Z 27004KT 9999 FEW040 BKN/// 08/M00 Q1021 RMK     2CU040 A3016=,
20180104_100000.002,0,RJDC,,,,0,20180104100000,-1,-1,-1,-1,20,-1,4,-1,-1,-1,-1,,9999,0,0,3,FEW 30   SCT 40   BKN 120,1,7,1,0,1021,RJDC 041000Z 02004KT 9999 FEW030 SCT040 BKN120 07/00 Q1021 RMK     1CU030 3CU040 5AC120 A3017=,
20180104_110000.002,0,RJDC,,,,0,20180104110000,-1,-1,-1,-1,20,-1,4,-1,-1,-1,-1,,9999,0,0,3,FEW 40   BKN 100   BKN 120,1,7,1,1,1021,RJDC 041100Z 02004KT 9999 FEW040 BKN100 BKN120 07/01 Q1021 RMK     1CU040 5AC100 7AC120 A3016=,
20180104_120000.003,0,RJDC,,,,0,20180104120000,-1,-1,-1,-1,30,-1,4,-1,-1,-1,-1,,9999,0,0,3,FEW 40   SCT 80   BKN 100,1,7,1,1,1021,RJDC 041200Z 03004KT 9999 FEW040 SCT080 BKN100 07/01 Q1021 RMK     1CU040 3AC080 7AC100 A3017=,
20180104_213000.001,0,RJDC,,,,0,20180104210000,-1,-1,-1,-1,20,-1,2,-1,-1,-1,-1,,9999,0,1,3,FEW 8   SCT 15   BKN 20,1,4,1,3,1017,RJDC 042130Z 02002KT 9999 -SHRA FEW008 SCT015 BKN020 04/03     Q1017 RMK 1ST008 3CU015 5CU020 A3004=,- RA SH
20180104_220000.002,0,RJDC,,,,0,20180104220000,-1,-1,-1,-1,10,-1,3,-1,-1,-1,-1,,9999,0,1,3,FEW 8   SCT 15   BKN 20,1,4,1,3,1017,RJDC 042200Z 01003KT 9999 -SHRA FEW008 SCT015 BKN020 04/03     Q1017 RMK 1ST008 4CU015 6CU020 A3006=,- RA SH
20180104_230000.002,0,RJDC,,,,0,20180104230000,-1,-1,-1,-1,10,-1,3,-1,-1,-1,-1,,7000,0,1,3,FEW 8   SCT 15   BKN 20,1,4,1,3,1018,RJDC 042300Z 01003KT 7000 -SHRA FEW008 SCT015 BKN020 04/03     Q1018 RMK 1ST008 3CU015 5CU020 A3006=,- RA SH
20180105_000000.002,0,RJDC,,,,0,20180105000000,-1,-1,-1,-1,50,-1,2,-1,-1,-1,-1,,7000,0,1,3,FEW 8   SCT 10   BKN 15,1,4,1,3,1018,RJDC 050000Z 05002KT 7000 -SHRA FEW008 SCT010 BKN015 04/03     Q1018 RMK 1ST008 3CU010 5CU015 A3006=,- RA SH
20180105_010000.003,0,RJDC,,,,0,20180105010000,-1,-1,-1,-1,60,-1,4,-1,-1,-1,-1,,8000,0,1,3,FEW 8   SCT 10   BKN 15,1,4,1,3,1018,RJDC 050100Z 06004KT 8000 -SHRA FEW008 SCT010 BKN015 04/03     Q1018 RMK 1ST008 3CU010 7CU015 A3006=,- RA SH
20180105_020000.002,0,RJDC,,,,0,20180105020000,-1,-1,-1,-1,40,-1,4,-1,-1,-1,-1,,7000,0,1,3,FEW 7   SCT 10   BKN 15,1,5,1,4,1017,RJDC 050200Z 04004KT 7000 -SHRA FEW007 SCT010 BKN015 05/04     Q1017 RMK 1ST007 3CU010 7CU015 A3005=,- RA SH
20180105_030000.002,0,RJDC,,,,0,20180105030000,-1,-1,-1,-1,999,-1,2,-1,-1,-1,-1,,9999,0,0,3,FEW 7   BKN 10   BKN 15,1,5,1,4,1016,RJDC 050300Z VRB02KT 9999 FEW007 BKN010 BKN015 05/04 Q1016 RMK     1ST007 6CU010 7CU015 A3003=,
20180105_040000.002,0,RJDC,,,,0,20180105040000,-1,-1,-1,-1,100,-1,3,-1,-1,70,130,,9999,0,1,3,FEW 7   SCT 10   BKN 15,1,6,1,4,1015,RJDC 050400Z 10003KT 070V130 9999 -SHRA FEW007 SCT010 BKN015     06/04 Q1015 RMK 1ST007 3CU010 6CU015 A3000=,- RA SH
20180105_050000.002,0,RJDC,,,,0,20180105050000,-1,-1,-1,-1,160,-1,3,-1,-1,120,190,,9999,0,0,3,FEW 6   SCT 10   BKN 25,1,6,1,4,1015,RJDC 050500Z 16003KT 120V190 9999 FEW006 SCT010 BKN025 06/04     Q1015 RMK 1ST006 3CU010 7CU025 A2997=,
20180105_060000.002,0,RJDC,,,,0,20180105060000,-1,-1,-1,-1,999,-1,2,-1,-1,-1,-1,,9999,0,0,3,FEW 6   SCT 10   BKN 20,1,6,1,4,1015,RJDC 050600Z VRB02KT 9999 FEW006 SCT010 BKN020 06/04 Q1015 RMK     1ST006 3CU010 6CU020 A2997=,
20180105_070000.002,0,RJDC,,,,0,20180105070000,-1,-1,-1,-1,999,-1,2,-1,-1,-1,-1,,9999,0,0,3,FEW 8   SCT 15   BKN 25,1,6,1,4,1015,RJDC 050700Z VRB02KT 9999 FEW008 SCT015 BKN025 06/04 Q1015 RMK     1ST008 4CU015 6CU025 A2997=,
20180105_080000.002,0,RJDC,,,,0,20180105080000,-1,-1,-1,-1,999,-1,1,-1,-1,-1,-1,,9999,0,1,3,FEW 7   SCT 15   BKN 40,1,6,1,4,1015,RJDC 050800Z VRB01KT 9999 -SHRA FEW007 SCT015 BKN040 06/04     Q1015 RMK 1ST007 4CU015 6CU040 A2997=,- RA SH
20180105_090000.002,0,RJDC,,,,0,20180105090000,-1,-1,-1,-1,0,-1,0,-1,-1,-1,-1,,9999,0,1,3,FEW 7   SCT 20   BKN 30,1,6,1,4,1015,RJDC 050900Z 00000KT 9999 -SHRA FEW007 SCT020 BKN030 06/04     Q1015 RMK 1ST007 3CU020 6CU030 A2998=,- RA SH
20180105_100000.002,0,RJDC,,,,0,20180105100000,-1,-1,-1,-1,50,-1,3,-1,-1,-1,-1,,8000,0,0,3,FEW 6   SCT 15   BKN 25,1,6,1,5,1015,RJDC 051000Z 05003KT 8000 FEW006 SCT015 BKN025 06/05 Q1015 RMK     1ST006 3CU015 5CU025 A2997=,
20180105_110000.002,0,RJDC,,,,0,20180105110000,-1,-1,-1,-1,20,-1,3,-1,-1,-1,-1,,5000,0,2,3,FEW 6   SCT 15   BKN 25,1,6,1,5,1015,RJDC 051100Z 02003KT 5000 -SHRA BR FEW006 SCT015 BKN025 06/05     Q1015 RMK 1ST006 4CU015 6CU025 A2997=,- RA SH; BR
20180105_120000.002,0,RJDC,,,,0,20180105120000,-1,-1,-1,-1,50,-1,2,-1,-1,-1,-1,,4500,0,2,3,FEW 6   SCT 20   BKN 30,1,5,1,5,1015,RJDC 051200Z 05002KT 4500 -SHRA BR FEW006 SCT020 BKN030 05/05     Q1015 RMK 1ST006 3CU020 6CU030 A2997=,- RA SH; BR
20180105_213000.001,0,RJDC,,,,0,20180105210000,-1,-1,-1,-1,290,-1,7,-1,-1,260,330,,9999,0,0,1,FEW 25,1,6,1,0,1016,RJDC 052130Z 29007KT 260V330 9999 FEW025 06/00 Q1016 RMK     1CU025 A3003=,
20180105_220000.002,0,RJDC,,,,0,20180105220000,-1,-1,-1,-1,300,-1,5,-1,-1,250,340,,9999,0,0,1,FEW 30,1,6,-1,0,1017,RJDC 052200Z 30005KT 250V340 9999 FEW030 06/M00 Q1017 RMK     1CU030 A3004=,
20180105_230000.002,0,RJDC,,,,0,20180105230000,-1,-1,-1,-1,999,-1,2,-1,-1,-1,-1,,9999,0,0,1,FEW 45,1,4,1,0,1018,RJDC 052300Z VRB02KT 9999 FEW045 04/00 Q1018 RMK 2SC045 A3006=,
20180106_000000.002,0,RJDC,,,,0,20180106000000,-1,-1,-1,-1,330,-1,4,-1,-1,260,30,,9999,0,0,1,FEW 45,1,6,-1,0,1018,RJDC 060000Z 33004KT 260V030 9999 FEW045 06/M00 Q1018 RMK     1SC045 A3008=,
20180106_010000.002,0,RJDC,,,,0,20180106010000,-1,-1,-1,-1,330,-1,5,-1,-1,270,20,,9999,0,0,1,FEW 45,1,8,1,0,1019,RJDC 060100Z 33005KT 270V020 9999 FEW045 08/00 Q1019 RMK     1SC045 A3011=,
20180106_020000.002,0,RJDC,,,,0,20180106020000,-1,-1,-1,-1,320,-1,8,-1,-1,260,20,,9999,0,0,2,FEW 30   SCT 40,1,9,1,1,1019,RJDC 060200Z 32008KT 260V020 9999 FEW030 SCT040 09/01 Q1019     RMK 1CU030 3CU040 A3010=,
20180106_030000.002,0,RJDC,,,,0,20180106030000,-1,-1,-1,-1,300,-1,7,-1,-1,250,20,,9999,0,0,2,FEW 30   BKN 45,1,9,-1,0,1018,RJDC 060300Z 30007KT 250V020 9999 FEW030 BKN045 09/M00 Q1018     RMK 1CU030 5CU045 A3008=,
20180106_040000.002,0,RJDC,,,,0,20180106040000,-1,-1,-1,-1,310,-1,7,-1,17,250,30,,9999,0,0,2,FEW 30   SCT 45,1,10,1,0,1018,RJDC 060400Z 31007G17KT 250V030 9999 FEW030 SCT045 10/00 Q1018     RMK 1CU030 4SC045 A3007=,
20180106_050000.002,0,RJDC,,,,0,20180106050000,-1,-1,-1,-1,270,-1,10,-1,-1,-1,-1,,9999,0,0,1,SCT 45,1,10,-1,1,1018,RJDC 060500Z 27010KT 9999 SCT045 10/M01 Q1018 RMK 3CU045     A3006=,
20180106_060000.002,0,RJDC,,,,0,20180106060000,-1,-1,-1,-1,330,-1,6,-1,-1,260,70,,9999,0,0,1,FEW 40,1,10,-1,1,1018,RJDC 060600Z 33006KT 260V070 9999 FEW040 10/M01 Q1018 RMK     2CU040 A3006=,
20180106_070000.002,0,RJDC,,,,0,20180106070000,-1,-1,-1,-1,310,-1,5,-1,-1,260,30,,9999,0,0,2,FEW 35   SCT 45,1,9,-1,1,1018,RJDC 060700Z 31005KT 260V030 9999 FEW035 SCT045 09/M01 Q1018     RMK 1CU035 3CU045 A3008=,
20180106_080000.002,0,RJDC,,,,0,20180106080000,-1,-1,-1,-1,320,-1,5,-1,-1,260,10,,9999,0,0,2,FEW 30   SCT 45,1,8,-1,2,1018,RJDC 060800Z 32005KT 260V010 9999 FEW030 SCT045 08/M02 Q1018     RMK 1CU030 3CU045 A3008=,
20180106_090000.002,0,RJDC,,,,0,20180106090000,-1,-1,-1,-1,290,-1,3,-1,-1,250,350,,9999,0,0,2,FEW 30   SCT 45,1,7,-1,1,1020,RJDC 060900Z 29003KT 250V350 9999 FEW030 SCT045 07/M01 Q1020     RMK 1CU030 3SC045 A3013 P/RR=,
20180106_100000.002,0,RJDC,,,,0,20180106100000,-1,-1,-1,-1,290,-1,4,-1,-1,240,330,,9999,0,0,2,FEW 30   SCT -9999,1,6,-1,1,1021,RJDC 061000Z 29004KT 240V330 9999 FEW030 SCT/// 06/M01 Q1021     RMK 1CU030 A3016=,
20180106_110000.002,0,RJDC,,,,0,20180106110000,-1,-1,-1,-1,999,-1,2,-1,-1,-1,-1,,9999,0,0,2,FEW 30   SCT -9999,1,5,-1,0,1021,RJDC 061100Z VRB02KT 9999 FEW030 SCT/// 05/M00 Q1021 RMK     1CU030 A3016=,
20180106_120000.002,0,RJDC,,,,0,20180106120000,-1,-1,-1,-1,999,-1,2,-1,-1,-1,-1,,9999,0,0,2,FEW 30   BKN -9999,1,4,-1,0,1021,RJDC 061200Z VRB02KT 9999 FEW030 BKN/// 04/M00 Q1021 RMK     1CU030 A3017=,
20180106_213000.001,0,RJDC,,,,0,20180106210000,-1,-1,-1,-1,30,-1,3,-1,-1,-1,-1,,9999,0,0,3,FEW 30   SCT 40   BKN -9999,1,1,-1,0,1022,RJDC 062130Z 03003KT 9999 FEW030 SCT040 BKN/// 01/M00 Q1022     RMK 1CU030 4SC040 A3020=,
20180106_220000.002,0,RJDC,,,,0,20180106220000,-1,-1,-1,-1,60,-1,3,-1,-1,-1,-1,,9999,0,0,3,FEW 30   SCT 40   BKN -9999,1,2,1,0,1022,RJDC 062200Z 06003KT 9999 FEW030 SCT040 BKN/// 02/00 Q1022 RMK     1CU030 4SC040 A3018=,
20180106_230000.002,0,RJDC,,,,0,20180106230000,-1,-1,-1,-1,360,-1,3,-1,-1,320,20,,9999,0,0,3,FEW 30   SCT 45   BKN -9999,1,2,-1,0,1022,RJDC 062300Z 36003KT 320V020 9999 FEW030 SCT045 BKN/// 02/M00     Q1022 RMK 1CU030 4SC045 A3021=,
20180107_000000.002,0,RJDC,,,,0,20180107000000,-1,-1,-1,-1,30,-1,3,-1,-1,330,50,,9999,0,0,3,FEW 30   SCT 50   BKN -9999,1,5,1,2,1022,RJDC 070000Z 03003KT 330V050 9999 FEW030 SCT050 BKN/// 05/02     Q1022 RMK 1CU030 3SC050 A3019=,
20180107_010000.003,0,RJDC,,,,0,20180107010000,-1,-1,-1,-1,70,-1,5,-1,-1,-1,-1,,9999,0,0,2,FEW 30   BKN 180,1,6,1,2,1023,RJDC 070100Z 07005KT 9999 FEW030 BKN180 06/02 Q1023 RMK 1CU030     7AC180 A3022=,
20180107_020000.002,0,RJDC,,,,0,20180107020000,-1,-1,-1,-1,80,-1,8,-1,-1,-1,-1,,9999,0,0,3,FEW 30   SCT 180   BKN -9999,1,7,1,4,1022,RJDC 070200Z 08008KT 9999 FEW030 SCT180 BKN/// 07/04 Q1022 RMK     1CU030 4AC180 A3020=,
20180107_030000.002,0,RJDC,,,,0,20180107030000,-1,-1,-1,-1,70,-1,6,-1,-1,-1,-1,,9999,0,0,3,FEW 20   BKN 160   BKN -9999,1,8,1,4,1022,RJDC 070300Z 07006KT 9999 FEW020 BKN160 BKN/// 08/04 Q1022 RMK     1CU020 5AC160 A3018=,
20180107_040000.002,0,RJDC,,,,0,20180107040000,-1,-1,-1,-1,90,-1,8,-1,-1,-1,-1,,9999,0,0,3,FEW 40   SCT 130   BKN 150,1,9,1,4,1021,RJDC 070400Z 09008KT 9999 FEW040 SCT130 BKN150 09/04 Q1021 RMK     2CU040 4AC130 7AC150 A3017=,
20180107_050000.002,0,RJDC,,,,0,20180107050000,-1,-1,-1,-1,100,-1,10,-1,-1,-1,-1,,9999,0,0,2,FEW 25   BKN 120,1,9,1,5,1020,RJDC 070500Z 10010KT 9999 FEW025 BKN120 09/05 Q1020 RMK 2CU025     7AC120 A3014=,
20180107_060000.002,0,RJDC,,,,0,20180107060000,-1,-1,-1,-1,100,-1,14,-1,-1,-1,-1,,9999,0,0,2,SCT 20   BKN 120,1,9,1,5,1020,RJDC 070600Z 10014KT 9999 SCT020 BKN120 09/05 Q1020 RMK 3CU020     7AC120 A3012=,
20180107_070000.002,0,RJDC,,,,0,20180107070000,-1,-1,-1,-1,100,-1,14,-1,-1,-1,-1,,9999,0,0,2,FEW 25   BKN 110,1,9,1,4,1020,RJDC 070700Z 10014KT 9999 FEW025 BKN110 09/04 Q1020 RMK 1CU025     7AC110 A3013=,
20180107_080000.002,0,RJDC,,,,0,20180107080000,-1,-1,-1,-1,100,-1,13,-1,-1,-1,-1,,9999,0,0,3,FEW 25   SCT 45   BKN 120,1,9,1,5,1020,RJDC 070800Z 10013KT 9999 FEW025 SCT045 BKN120 09/05 Q1020 RMK     1CU025 3SC045 7AC120 A3013=,
20180107_090000.002,0,RJDC,,,,0,20180107090000,-1,-1,-1,-1,100,-1,15,-1,-1,-1,-1,,9999,0,0,3,FEW 25   SCT 40   BKN 100,1,9,1,5,1020,RJDC 070900Z 10015KT 9999 FEW025 SCT040 BKN100 09/05 Q1020 RMK     2CU025 4SC040 7AC100 A3013=,
20180107_100000.002,0,RJDC,,,,0,20180107100000,-1,-1,-1,-1,110,-1,14,-1,-1,-1,-1,,9999,0,0,3,FEW 25   SCT 40   BKN 90,1,9,1,4,1020,RJDC 071000Z 11014KT 9999 FEW025 SCT040 BKN090 09/04 Q1020 RMK     1CU025 3SC040 7AC090 A3013=,
20180107_110000.002,0,RJDC,,,,0,20180107110000,-1,-1,-1,-1,100,-1,13,-1,-1,-1,-1,,9999,0,0,3,FEW 20   SCT 45   BKN 90,1,9,1,5,1020,RJDC 071100Z 10013KT 9999 FEW020 SCT045 BKN090 09/05 Q1020 RMK     1CU020 4SC045 7AC090 A3013=,
20180107_120000.003,0,RJDC,,,,0,20180107120000,-1,-1,-1,-1,100,-1,16,-1,-1,-1,-1,,9999,0,1,3,FEW 20   SCT 40   BKN 70,1,9,1,5,1019,RJDC 071200Z 10016KT 9999 -RA FEW020 SCT040 BKN070 09/05 Q1019     RMK 1CU020 3CU040 5AC070 A3009=,- RA
20180107_213000.001,0,RJDC,,,,0,20180107210000,-1,-1,-1,-1,80,-1,18,-1,-1,-1,-1,,8000,0,1,3,FEW 6   BKN 10   BKN 15,1,9,1,8,1011,RJDC 072130Z 08018KT 8000 -SHRA FEW006 BKN010 BKN015 09/08     Q1011 RMK 2ST006 6ST010 7CU015 A2987=,- RA SH
20180107_220000.002,0,RJDC,,,,0,20180107220000,-1,-1,-1,-1,80,-1,18,-1,-1,-1,-1,,9999,0,0,3,FEW 7   BKN 10   BKN 15,1,9,1,8,1010,RJDC 072200Z 08018KT 9999 FEW007 BKN010 BKN015 09/08 Q1010 RMK     2ST007 6ST010 7CU015 A2985=,
20180107_230000.002,0,RJDC,,,,0,20180107230000,-1,-1,-1,-1,90,-1,17,-1,-1,-1,-1,,9999,0,0,3,FEW 6   BKN 10   BKN 15,1,9,1,8,1010,RJDC 072300Z 09017KT 9999 FEW006 BKN010 BKN015 09/08 Q1010 RMK     2ST006 6ST010 7CU015 A2985=,
20180108_000000.002,0,RJDC,,,,0,20180108000000,-1,-1,-1,-1,90,-1,17,-1,-1,-1,-1,,9999,0,0,3,FEW 6   BKN 10   BKN 15,1,9,1,8,1010,RJDC 080000Z 09017KT 9999 FEW006 BKN010 BKN015 09/08 Q1010 RMK     2ST006 6ST010 7CU015 A2984=,
20180108_010000.002,0,RJDC,,,,0,20180108010000,-1,-1,-1,-1,90,-1,14,-1,-1,-1,-1,,9999,0,0,3,SCT 6   BKN 10   BKN 15,1,10,1,8,1010,RJDC 080100Z 09014KT 9999 SCT006 BKN010 BKN015 10/08 Q1010 RMK     3ST006 6ST010 7CU015 A2984=,
20180108_020000.002,0,RJDC,,,,0,20180108020000,-1,-1,-1,-1,80,-1,13,-1,-1,-1,-1,,9999,0,0,3,FEW 6   BKN 10   BKN 15,1,10,1,9,1008,RJDC 080200Z 08013KT 9999 FEW006 BKN010 BKN015 10/09 Q1008 RMK     2ST006 6ST010 7CU015 A2978=,
20180108_030000.002,0,RJDC,,,,0,20180108030000,-1,-1,-1,-1,100,-1,10,-1,-1,-1,-1,,9999,0,0,3,FEW 8   BKN 10   BKN 15,1,10,1,9,1008,RJDC 080300Z 10010KT 9999 FEW008 BKN010 BKN015 10/09 Q1008 RMK     2ST008 6ST010 7CU015 A2978=,
20180108_040000.002,0,RJDC,,,,0,20180108040000,-1,-1,-1,-1,90,-1,12,-1,-1,-1,-1,,9999,0,1,3,FEW 5   BKN 7   BKN 8,1,10,1,9,1006,RJDC 080400Z 09012KT 9999 -SHRA FEW005 BKN007 BKN008 10/09     Q1006 RMK 1ST005 5ST007 7ST008 A2973=,- RA SH
20180108_050000.002,0,RJDC,,,,0,20180108050000,-1,-1,-1,-1,90,-1,11,-1,-1,-1,-1,,9999,0,1,3,SCT 4   BKN 5   BKN 6,1,10,1,10,1005,RJDC 080500Z 09011KT 9999 -SHRA SCT004 BKN005 BKN006 10/10     Q1005 RMK 3ST004 6ST005 7ST006 A2969=,- RA SH
20180108_060000.003,0,RJDC,,,,0,20180108060000,-1,-1,-1,-1,80,-1,12,-1,-1,-1,-1,,9999,0,1,3,FEW 3   SCT 4   BKN 5,1,10,1,10,1005,RJDC 080600Z 08012KT 9999 VCSH FEW003 SCT004 BKN005 10/10     Q1005 RMK 1ST003 4ST004 7ST005 A2968=,VC SH
20180108_070000.002,0,RJDC,,,,0,20180108070000,-1,-1,-1,-1,80,-1,11,-1,-1,-1,-1,,6000,0,1,3,FEW 2   SCT 3   BKN 4,1,10,1,10,1004,RJDC 080700Z 08011KT 6000 -SHRA FEW002 SCT003 BKN004 10/10     Q1004 RMK 1ST002 4ST003 7ST004 A2966=,- RA SH
20180108_080000.002,0,RJDC,,,,0,20180108080000,-1,-1,-1,-1,80,-1,9,-1,-1,-1,-1,,5000,0,2,3,FEW 3   SCT 4   BKN 5,1,10,1,10,1004,RJDC 080800Z 08009KT 5000 -SHRA BR FEW003 SCT004 BKN005 10/10     Q1004 RMK 2ST003 4ST004 7ST005 A2966=,- RA SH; BR
20180108_090000.002,0,RJDC,,,,0,20180108090000,-1,-1,-1,-1,60,-1,5,-1,-1,-1,-1,,4000,0,2,3,FEW 3   SCT 4   BKN 10,1,10,1,10,1004,RJDC 080900Z 06005KT 4000 SHRA BR FEW003 SCT004 BKN010 10/10     Q1004 RMK 1ST003 3ST004 5CU010 A2966=,RA SH; BR
20180108_100000.002,0,RJDC,,,,0,20180108100000,-1,-1,-1,-1,50,-1,4,-1,-1,-1,-1,,4000,0,2,3,FEW 2   SCT 15   BKN 40,1,10,1,10,1005,RJDC 081000Z 05004KT 4000 -SHRA BR FEW002 SCT015 BKN040 10/10     Q1005 RMK 1ST002 3CU015 5CU040 A2968=,- RA SH; BR
20180108_110000.002,0,RJDC,,,,0,20180108110000,-1,-1,-1,-1,270,-1,9,-1,-1,-1,-1,,6000,0,1,3,FEW 5   SCT 8   BKN 10,1,12,1,12,1005,RJDC 081100Z 27009KT 6000 -SHRA FEW005 SCT008 BKN010 12/12     Q1005 RMK 1ST005 3ST008 5CU010 A2969=,- RA SH
20180108_120000.002,0,RJDC,,,,0,20180108120000,-1,-1,-1,-1,280,-1,16,-1,-1,250,310,,9999,0,1,3,FEW 10   SCT 40   BKN 80,1,11,1,10,1005,RJDC 081200Z 28016KT 250V310 9999 -SHRA FEW010 SCT040 BKN080     11/10 Q1005 RMK 2CU010 3CU040 6AC080 A2969=,- RA SH
20180108_213000.001,0,RJDC,,,,0,20180108210000,-1,-1,-1,-1,280,-1,19,-1,34,-1,-1,,9999,0,0,3,FEW 20   SCT 30   BKN 40,1,7,1,1,1008,RJDC 082130Z 28019G34KT 9999 FEW020 SCT030 BKN040 07/01 Q1008     RMK 1CU020 3CU030 7CU040 A2978=,
20180108_220000.002,0,RJDC,,,,0,20180108220000,-1,-1,-1,-1,270,-1,19,-1,31,-1,-1,,9999,0,0,3,FEW 20   SCT 30   BKN 40,1,7,1,0,1008,RJDC 082200Z 27019G31KT 9999 FEW020 SCT030 BKN040 07/00 Q1008     RMK 1CU020 3CU030 7CU040 A2979=,
20180108_230000.003,0,RJDC,,,,0,20180108230000,-1,-1,-1,-1,270,-1,25,-1,38,-1,-1,,9999,0,0,3,FEW 20   SCT 30   BKN 40,1,7,-1,1,1009,RJDC 082300Z 27025G38KT 9999 FEW020 SCT030 BKN040 07/M01 Q1009     RMK 2CU020 3CU030 6CU040 A2982=,
20180109_000000.002,0,RJDC,,,,0,20180109000000,-1,-1,-1,-1,260,-1,25,-1,39,-1,-1,,9999,0,1,3,FEW 20   SCT 40   BKN 50,1,6,-1,1,1011,RJDC 090000Z 26025G39KT 9999 VCSH FEW020 SCT040 BKN050 06/M01     Q1011 RMK 1CU020 3CU040 6SC050 A2985=,VC SH
20180109_010000.002,0,RJDC,,,,0,20180109010000,-1,-1,-1,-1,270,-1,22,-1,38,-1,-1,,9999,0,1,3,FEW 20   BKN 30   BKN 40,1,5,-1,0,1011,RJDC 090100Z 27022G38KT 9999 -SHRASN FEW020 BKN030 BKN040     05/M00 Q1011 RMK 1CU020 5CU030 7CU040 A2987=,- RA SN SH
20180109_020000.002,0,RJDC,,,,0,20180109020000,-1,-1,-1,-1,250,-1,27,-1,37,-1,-1,,9999,0,1,3,FEW 5   SCT 20   BKN 30,1,5,1,1,1011,RJDC 090200Z 25027G37KT 9999 VCSH FEW005 SCT020 BKN030 05/01     Q1011 RMK 1ST005 3CU020 5CU030 A2987=,VC SH
20180109_030000.002,0,RJDC,,,,0,20180109030000,-1,-1,-1,-1,260,-1,22,-1,32,-1,-1,,9999,0,0,3,FEW 20   SCT 40   BKN 50,1,6,-1,0,1010,RJDC 090300Z 26022G32KT 9999 FEW020 SCT040 BKN050 06/M00 Q1010     RMK 1CU020 3CU040 6SC050 A2985=,
20180109_040000.002,0,RJDC,,,,0,20180109040000,-1,-1,-1,-1,280,-1,18,-1,-1,-1,-1,,9999,0,1,3,FEW 20   BKN 40   BKN 50,1,6,-1,2,1010,RJDC 090400Z 28018KT 9999 VCSH FEW020 BKN040 BKN050 06/M02     Q1010 RMK 1CU020 5CU040 6SC050 A2985=,VC SH
20180109_050000.002,0,RJDC,,,,0,20180109050000,-1,-1,-1,-1,280,-1,16,-1,26,-1,-1,,9999,0,1,3,FEW 20   SCT 35   BKN 45,1,6,-1,1,1010,RJDC 090500Z 28016G26KT 9999 VCSH FEW020 SCT035 BKN045 06/M01     Q1010 RMK 1CU020 4CU035 6SC045 A2984=,VC SH
20180109_060000.002,0,RJDC,,,,0,20180109060000,-1,-1,-1,-1,270,-1,17,-1,-1,-1,-1,,9999,0,0,3,FEW 20   SCT 35   BKN 50,1,6,-1,2,1010,RJDC 090600Z 27017KT 9999 FEW020 SCT035 BKN050 06/M02 Q1010     RMK 1CU020 4CU035 6SC050 A2985=,
20180109_070000.002,0,RJDC,,,,0,20180109070000,-1,-1,-1,-1,270,-1,17,-1,-1,-1,-1,,9999,0,0,3,FEW 20   SCT 40   BKN 50,1,6,-1,2,1011,RJDC 090700Z 27017KT 9999 FEW020 SCT040 BKN050 06/M02 Q1011     RMK 1CU020 4CU040 6SC050 A2986=,
20180109_080000.002,0,RJDC,,,,0,20180109080000,-1,-1,-1,-1,270,-1,18,-1,-1,-1,-1,,9999,0,0,3,FEW 20   SCT 40   BKN 50,1,6,-1,2,1011,RJDC 090800Z 27018KT 9999 FEW020 SCT040 BKN050 06/M02 Q1011     RMK 1CU020 4CU040 5SC050 A2987=,
20180109_090000.002,0,RJDC,,,,0,20180109090000,-1,-1,-1,-1,260,-1,19,-1,-1,-1,-1,,9999,0,0,3,FEW 20   SCT 35   BKN 50,1,6,-1,1,1012,RJDC 090900Z 26019KT 9999 FEW020 SCT035 BKN050 06/M01 Q1012     RMK 1CU020 4CU035 5SC050 A2991=,
20180109_100000.002,0,RJDC,,,,0,20180109100000,-1,-1,-1,-1,270,-1,14,-1,24,-1,-1,,9999,0,1,3,FEW 20   SCT 30   BKN 45,1,6,-1,1,1013,RJDC 091000Z 27014G24KT 9999 -SHRASN FEW020 SCT030 BKN045     06/M01 Q1013 RMK 2CU020 4CU030 6SC045 A2994=,- RA SN SH
20180109_110000.002,0,RJDC,,,,0,20180109110000,-1,-1,-1,-1,260,-1,18,-1,-1,-1,-1,,9999,0,0,3,FEW 20   SCT 35   BKN 50,1,6,-1,1,1014,RJDC 091100Z 26018KT 9999 FEW020 SCT035 BKN050 06/M01 Q1014     RMK 1CU020 4CU035 6SC050 A2995=,
20180109_120000.002,0,RJDC,,,,0,20180109120000,-1,-1,-1,-1,260,-1,18,-1,-1,-1,-1,,9999,0,1,3,FEW 20   SCT 35   BKN 45,1,6,1,0,1014,RJDC 091200Z 26018KT 9999 -SHRASN FEW020 SCT035 BKN045 06/00     Q1014 RMK 1CU020 4CU035 5SC045 A2996=,- RA SN SH
20180109_213000.001,0,RJDC,,,,0,20180109210000,-1,-1,-1,-1,240,-1,10,-1,-1,-1,-1,,9999,0,1,3,FEW 5   SCT 10   BKN 25,1,3,1,2,1014,RJDC 092130Z 24010KT 9999 -SHRASN FEW005 SCT010 BKN025 03/02     Q1014 RMK 1ST005 3CU010 6CU025 A2995=,- RA SN SH
20180109_220000.002,0,RJDC,,,,0,20180109220000,-1,-1,-1,-1,240,-1,12,-1,-1,-1,-1,,9999,0,1,3,FEW 6   SCT 10   BKN 15,1,3,1,2,1014,RJDC 092200Z 24012KT 9999 -SHRASN FEW006 SCT010 BKN015 03/02     Q1014 RMK 1ST006 4CU010 6CU015 A2995=,- RA SN SH
20180109_230000.002,0,RJDC,,,,0,20180109230000,-1,-1,-1,-1,240,-1,9,-1,-1,-1,-1,,9999,0,1,3,FEW 6   SCT 8   BKN 10,1,4,1,3,1014,RJDC 092300Z 24009KT 9999 VCSH FEW006 SCT008 BKN010 04/03     Q1014 RMK 1ST006 4ST008 7CU010 A2995=,VC SH
20180110_000000.002,0,RJDC,,,,0,20180110000000,-1,-1,-1,-1,240,-1,15,-1,-1,-1,-1,,9999,0,1,3,FEW 6   BKN 10   BKN 20,1,4,1,3,1014,RJDC 100000Z 24015KT 9999 -SHRA FEW006 BKN010 BKN020 04/03     Q1014 RMK 1ST006 5CU010 7CU020 A2995=,- RA SH
20180110_010000.002,0,RJDC,,,,0,20180110010000,-1,-1,-1,-1,240,-1,15,-1,-1,-1,-1,,5000,0,2,3,FEW 6   SCT 8   BKN 10,1,4,1,3,1014,RJDC 100100Z 24015KT 5000 -SHRA BR FEW006 SCT008 BKN010 04/03     Q1014 RMK 1ST006 3ST008 6CU010 A2995=,- RA SH; BR
20180110_020000.002,0,RJDC,,,,0,20180110020000,-1,-1,-1,-1,260,-1,12,-1,-1,-1,-1,,9999,0,1,3,FEW 7   SCT 10   BKN 15,1,4,1,3,1014,RJDC 100200Z 26012KT 9999 -SHRA FEW007 SCT010 BKN015 04/03     Q1014 RMK 1ST007 4CU010 6CU015 A2995=,- RA SH
20180110_030000.002,0,RJDC,,,,0,20180110030000,-1,-1,-1,-1,270,-1,10,-1,-1,240,320,,9999,0,1,3,FEW 8   SCT 10   BKN 20,1,5,1,3,1013,RJDC 100300Z 27010KT 240V320 9999 -SHRA FEW008 SCT010 BKN020     05/03 Q1013 RMK 1ST008 4CU010 6CU020 A2993=,- RA SH
20180110_040000.003,0,RJDC,,,,0,20180110040000,-1,-1,-1,-1,270,-1,17,-1,36,-1,-1,,1800,1,2,3,FEW 6   BKN 10   BKN 15,1,3,1,2,1013,RJDC 100400Z 27017G36KT 1800 R07/1400VP1800D -SHRA BR FEW006     BKN010 BKN015 03/02 Q1013 RMK 1ST006 5CU010 7CU015 A2993=,- RA SH; BR
20180110_050000.002,0,RJDC,,,,0,20180110050000,-1,-1,-1,-1,260,-1,18,-1,28,-1,-1,,9999,0,1,3,FEW 5   BKN 10   BKN 15,1,4,1,2,1013,RJDC 100500Z 26018G28KT 9999 -SHRA FEW005 BKN010 BKN015 04/02     Q1013 RMK 1ST005 5CU010 7CU015 A2993=,- RA SH
20180110_060000.002,0,RJDC,,,,0,20180110060000,-1,-1,-1,-1,270,-1,19,-1,-1,-1,-1,,9999,0,1,3,FEW 5   SCT 15   BKN 20,1,5,1,0,1013,RJDC 100600Z 27019KT 9999 -SHRA FEW005 SCT015 BKN020 05/00     Q1013 RMK 1ST005 4CU015 7CU020 A2993=,- RA SH
20180110_070000.002,0,RJDC,,,,0,20180110070000,-1,-1,-1,-1,270,-1,18,-1,-1,-1,-1,,9999,0,1,3,FEW 5   SCT 10   BKN 30,1,5,-1,0,1014,RJDC 100700Z 27018KT 9999 -SHRA FEW005 SCT010 BKN030 05/M00     Q1014 RMK 1ST005 4CU010 6CU030 A2995=,- RA SH
20180110_080000.002,0,RJDC,,,,0,20180110080000,-1,-1,-1,-1,270,-1,15,-1,-1,-1,-1,,9999,0,0,3,FEW 5   SCT 10   BKN 15,1,3,1,0,1014,RJDC 100800Z 27015KT 9999 FEW005 SCT010 BKN015 03/00 Q1014 RMK     1ST005 3CU010 6CU015 A2997=,
20180110_090000.002,0,RJDC,,,,0,20180110090000,-1,-1,-1,-1,270,-1,15,-1,-1,-1,-1,,9999,0,1,3,FEW 5   SCT 10   BKN 15,1,4,-1,0,1014,RJDC 100900Z 27015KT 9999 -SHRASN FEW005 SCT010 BKN015 04/M00     Q1014 RMK 1ST005 4CU010 6CU015 A2997=,- RA SN SH
20180110_100000.002,0,RJDC,,,,0,20180110100000,-1,-1,-1,-1,280,-1,18,-1,-1,250,310,,9999,0,0,3,FEW 8   SCT 10   BKN 20,1,5,-1,3,1015,RJDC 101000Z 28018KT 250V310 9999 FEW008 SCT010 BKN020 05/M03     Q1015 RMK 1ST008 3CU010 5CU020 A2999=,
20180110_110000.002,0,RJDC,,,,0,20180110110000,-1,-1,-1,-1,280,-1,18,-1,29,-1,-1,,9999,0,1,3,FEW 5   SCT 10   BKN 20,1,3,-1,4,1016,RJDC 101100Z 28018G29KT 9999 -SHSN FEW005 SCT010 BKN020 03/M04     Q1016 RMK 1ST005 4CU010 6CU020 A3001=,- SN SH
20180110_120000.002,0,RJDC,,,,0,20180110120000,-1,-1,-1,-1,270,-1,13,-1,-1,-1,-1,,9999,0,1,3,FEW 5   SCT 10   BKN 25,1,4,-1,3,1017,RJDC 101200Z 27013KT 9999 -SHSN FEW005 SCT010 BKN025 04/M03     Q1017 RMK 1ST005 4CU010 6CU025 A3004=,- SN SH
20180110_213000.001,0,RJDC,,,,0,20180110210000,-1,-1,-1,-1,999,-1,5,-1,15,-1,-1,,9999,0,1,3,FEW 20   SCT 30   BKN 40,1,1,-1,6,1020,RJDC 102130Z VRB05G15KT 9999 -SHSN FEW020 SCT030 BKN040 01/M06     Q1020 RMK 1CU020 3CU030 6CU040 A3013=,- SN SH
20180110_220000.002,0,RJDC,,,,0,20180110220000,-1,-1,-1,-1,310,-1,5,-1,-1,250,20,,9999,0,1,3,FEW 20   SCT 30   BKN 40,1,1,-1,6,1020,RJDC 102200Z 31005KT 250V020 9999 VCSH FEW020 SCT030 BKN040     01/M06 Q1020 RMK 1CU020 3CU030 6CU040 A3013=,VC SH
20180110_230000.003,0,RJDC,,,,0,20180110230000,-1,-1,-1,-1,320,-1,7,-1,-1,250,50,,9999,0,1,3,FEW 10   SCT 20   BKN 40,1,1,-1,6,1021,RJDC 102300Z 32007KT 250V050 9999 -SHSN FEW010 SCT020 BKN040     01/M06 Q1021 RMK 1CU010 3CU020 7CU040 A3015=,- SN SH
20180111_000000.002,0,RJDC,,,,0,20180111000000,-1,-1,-1,-1,310,-1,7,-1,-1,250,10,,9999,0,1,3,FEW 15   SCT 25   BKN 35,1,1,-1,7,1021,RJDC 110000Z 31007KT 250V010 9999 VCSH FEW015 SCT025 BKN035     01/M07 Q1021 RMK 1CU015 3CU025 6CU035 A3016=,VC SH
20180111_010000.002,0,RJDC,,,,0,20180111010000,-1,-1,-1,-1,310,-1,6,-1,16,250,10,,9999,0,1,3,FEW 15   BKN 25   BKN 35,1,1,-1,5,1021,RJDC 110100Z 31006G16KT 250V010 9999 -SHSN FEW015 BKN025     BKN035 01/M05 Q1021 RMK 2CU015 5CU025 7CU035 A3018=,- SN SH
20180111_020000.002,0,RJDC,,,,0,20180111020000,-1,-1,-1,-1,300,-1,9,-1,21,240,350,,9999,0,1,3,FEW 15   SCT 30   BKN 40,1,2,-1,6,1021,RJDC 110200Z 30009G21KT 240V350 9999 -SHSN FEW015 SCT030     BKN040 02/M06 Q1021 RMK 1CU015 3CU030 7CU040 A3018=,- SN SH
20180111_030000.001,0,RJDC,,,,0,20180111030000,-1,-1,-1,-1,290,-1,10,-1,21,250,340,,9999,0,1,3,FEW 10   SCT 25   BKN 35,1,2,-1,6,1021,RJDC 110300Z 29010G21KT 250V340 9999 -SHSN FEW010 SCT025     BKN035 02/M06 Q1021 RMK 1CU010 3CU025 7CU035 A3017=,- SN SH
20180111_040000.002,0,RJDC,,,,0,20180111040000,-1,-1,-1,-1,290,-1,11,-1,-1,260,340,,8000,0,1,3,FEW 10   SCT 20   BKN 30,1,1,-1,6,1021,RJDC 110400Z 29011KT 260V340 8000 -SHSN FEW010 SCT020 BKN030     01/M06 Q1021 RMK 1CU010 3CU020 6CU030 A3016=,- SN SH
20180111_050000.002,0,RJDC,,,,0,20180111050000,-1,-1,-1,-1,280,-1,17,-1,29,250,340,,6000,0,1,3,FEW 10   SCT 20   BKN 30,1,1,-1,6,1021,RJDC 110500Z 28017G29KT 250V340 6000 -SHSN FEW010 SCT020     BKN030 01/M06 Q1021 RMK 1CU010 3CU020 6CU030 A3016=,- SN SH
20180111_060000.002,0,RJDC,,,,0,20180111060000,-1,-1,-1,-1,290,-1,15,-1,25,250,320,,9999,0,1,3,FEW 10   SCT 30   BKN 40,1,2,-1,8,1021,RJDC 110600Z 29015G25KT 250V320 9999 VCSH FEW010 SCT030 BKN040     02/M08 Q1021 RMK 1CU010 3CU030 6CU040 A3016=,VC SH
20180111_070000.002,0,RJDC,,,,0,20180111070000,-1,-1,-1,-1,270,-1,16,-1,28,250,320,,9999,0,1,3,FEW 10   SCT 30   BKN 40,1,2,-1,8,1021,RJDC 110700Z 27016G28KT 250V320 9999 -SHSN FEW010 SCT030     BKN040 02/M08 Q1021 RMK 1CU010 3CU030 6CU040 A3018=,- SN SH
20180111_080000.002,0,RJDC,,,,0,20180111080000,-1,-1,-1,-1,280,-1,15,-1,25,-1,-1,,9999,0,1,3,FEW 5   SCT 20   BKN 40,1,1,-1,8,1022,RJDC 110800Z 28015G25KT 9999 -SHSN FEW005 SCT020 BKN040 01/M08     Q1022 RMK 1ST005 3CU020 6CU040 A3018=,- SN SH
20180111_090000.002,0,RJDC,,,,0,20180111090000,-1,-1,-1,-1,280,-1,11,-1,-1,250,320,,9999,0,1,3,FEW 10   SCT 25   BKN 40,1,1,-1,7,1022,RJDC 110900Z 28011KT 250V320 9999 -SHSN FEW010 SCT025 BKN040     01/M07 Q1022 RMK 1CU010 3CU025 6CU040 A3019=,- SN SH
20180111_100000.002,0,RJDC,,,,0,20180111100000,-1,-1,-1,-1,999,-1,7,-1,-1,-1,-1,,9999,0,1,3,FEW 10   SCT 30   BKN 40,1,1,-1,8,1022,RJDC 111000Z VRB07KT 9999 VCSH FEW010 SCT030 BKN040 01/M08     Q1022 RMK 1CU010 3CU030 6CU040 A3021=,VC SH
20180111_110000.002,0,RJDC,,,,0,20180111110000,-1,-1,-1,-1,310,-1,8,-1,-1,270,20,,9999,0,1,3,FEW 10   SCT 25   BKN 40,1,1,-1,9,1023,RJDC 111100Z 31008KT 270V020 9999 VCSH FEW010 SCT025 BKN040     01/M09 Q1023 RMK 1CU010 3CU025 5CU040 A3021=,VC SH
20180111_120000.002,0,RJDC,,,,0,20180111120000,-1,-1,-1,-1,290,-1,9,-1,-1,250,320,,9999,0,0,3,FEW 20   SCT 40   BKN 50,1,1,-1,9,1023,RJDC 111200Z 29009KT 250V320 9999 FEW020 SCT040 BKN050 01/M09     Q1023 RMK 1CU020 3CU040 6SC050 A3021=,
20180111_213000.001,0,RJDC,,,,0,20180111210000,-1,-1,-1,-1,330,-1,6,-1,-1,260,60,,9999,0,1,2,FEW 20   BKN 40,-1,1,-1,7,1025,RJDC 112130Z 33006KT 260V060 9999 VCSH FEW020 BKN040 M01/M07     Q1025 RMK 1CU020 5CU040 A3028=,VC SH
20180111_220000.002,0,RJDC,,,,0,20180111220000,-1,-1,-1,-1,330,-1,5,-1,-1,270,70,,9999,0,1,2,FEW 15   SCT 45,-1,2,-1,5,1025,RJDC 112200Z 33005KT 270V070 9999 VCSH FEW015 SCT045 M02/M05     Q1025 RMK 1CU015 4CU045 A3029=,VC SH
20180111_230000.002,0,RJDC,,,,0,20180111230000,-1,-1,-1,-1,10,-1,5,-1,-1,310,40,,9999,0,1,3,FEW 10   SCT 45   BKN 60,-1,2,-1,4,1026,RJDC 112300Z 01005KT 310V040 9999 VCSH FEW010 SCT045 BKN060     M02/M04 Q1026 RMK 1CU010 4CU045 6SC060 A3032=,VC SH
20180112_000000.002,0,RJDC,,,,0,20180112000000,-1,-1,-1,-1,360,-1,5,-1,-1,310,30,,9999,0,1,3,FEW 10   SCT 30   BKN 40,-1,1,-1,4,1027,RJDC 120000Z 36005KT 310V030 9999 VCSH FEW010 SCT030 BKN040     M01/M04 Q1027 RMK 1CU010 3CU030 5CU040 A3033=,VC SH
20180112_010000.003,0,RJDC,,,,0,20180112010000,-1,-1,-1,-1,360,-1,6,-1,-1,310,50,,9999,0,1,2,FEW 10   SCT 40,-1,0,-1,4,1027,RJDC 120100Z 36006KT 310V050 9999 VCSH FEW010 SCT040 M00/M04     Q1027 RMK 1CU010 3CU040 A3034=,VC SH
20180112_020000.002,0,RJDC,,,,0,20180112020000,-1,-1,-1,-1,340,-1,6,-1,-1,280,50,,9999,0,1,2,FEW 10   SCT 40,1,0,-1,4,1027,RJDC 120200Z 34006KT 280V050 9999 VCSH FEW010 SCT040 00/M04     Q1027 RMK 1CU010 3CU040 A3033=,VC SH
20180112_030000.002,0,RJDC,,,,0,20180112030000,-1,-1,-1,-1,320,-1,9,-1,-1,270,30,,9999,0,1,2,FEW 15   SCT 40,1,1,-1,4,1026,RJDC 120300Z 32009KT 270V030 9999 VCSH FEW015 SCT040 01/M04     Q1026 RMK 1CU015 3CU040 A3030=,VC SH
20180112_040000.002,0,RJDC,,,,0,20180112040000,-1,-1,-1,-1,999,-1,7,-1,-1,-1,-1,,9999,0,1,2,FEW 20   SCT 40,1,2,-1,4,1025,RJDC 120400Z VRB07KT 9999 VCSH FEW020 SCT040 02/M04 Q1025 RMK     1CU020 4CU040 A3028=,VC SH
20180112_050000.003,0,RJDC,,,,0,20180112050000,-1,-1,-1,-1,340,-1,7,-1,-1,290,20,,9999,0,1,3,FEW 15   SCT 30   BKN 40,1,1,-1,3,1025,RJDC 120500Z 34007KT 290V020 9999 -SHSN FEW015 SCT030 BKN040     01/M03 Q1025 RMK 1CU015 3CU030 5CU040 A3028=,- SN SH
20180112_060000.002,0,RJDC,,,,0,20180112060000,-1,-1,-1,-1,999,-1,4,-1,-1,-1,-1,,9999,0,0,3,FEW 15   SCT 30   BKN 40,1,2,-1,4,1025,RJDC 120600Z VRB04KT 9999 FEW015 SCT030 BKN040 02/M04 Q1025     RMK 1CU015 3CU030 5CU040 A3029=,
20180112_070000.003,0,RJDC,,,,0,20180112070000,-1,-1,-1,-1,360,-1,4,-1,-1,300,90,,9999,0,1,3,FEW 15   SCT 30   BKN 40,1,1,-1,4,1026,RJDC 120700Z 36004KT 300V090 9999 -SHSN FEW015 SCT030 BKN040     01/M04 Q1026 RMK 1CU015 4CU030 6CU040 A3030=,- SN SH
20180112_080000.002,0,RJDC,,,,0,20180112080000,-1,-1,-1,-1,350,-1,4,-1,-1,310,60,,9999,0,1,3,FEW 15   SCT 25   BKN 40,1,1,-1,4,1026,RJDC 120800Z 35004KT 310V060 9999 -SHSN FEW015 SCT025 BKN040     01/M04 Q1026 RMK 1CU015 3CU025 7CU040 A3031=,- SN SH
20180112_090000.002,0,RJDC,,,,0,20180112090000,-1,-1,-1,-1,20,-1,5,-1,-1,330,30,,9999,0,1,3,FEW 15   SCT 25   BKN 40,1,1,-1,4,1027,RJDC 120900Z 02005KT 330V030 9999 -SHSN FEW015 SCT025 BKN040     01/M04 Q1027 RMK 1CU015 4CU025 7CU040 A3034=,- SN SH
20180112_100000.002,0,RJDC,,,,0,20180112100000,-1,-1,-1,-1,320,-1,4,-1,-1,270,360,,9999,0,1,3,FEW 15   SCT 25   BKN 40,-1,0,-1,3,1027,RJDC 121000Z 32004KT 270V360 9999 -SHSN FEW015 SCT025 BKN040     M00/M03 Q1027 RMK 1CU015 3CU025 6CU040 A3035=,- SN SH
20180112_110000.002,0,RJDC,,,,0,20180112110000,-1,-1,-1,-1,999,-1,2,-1,-1,-1,-1,,9999,0,1,3,FEW 15   SCT 20   BKN 30,-1,0,-1,3,1028,RJDC 121100Z VRB02KT 9999 -SHSN FEW015 SCT020 BKN030 M00/M03     Q1028 RMK 1CU015 3CU020 6CU030 A3036=,- SN SH
20180112_120000.002,0,RJDC,,,,0,20180112120000,-1,-1,-1,-1,10,-1,3,-1,-1,330,40,,9999,0,1,3,FEW 15   SCT 30   BKN 40,-1,0,-1,4,1028,RJDC 121200Z 01003KT 330V040 9999 VCSH FEW015 SCT030 BKN040     M00/M04 Q1028 RMK 1CU015 3CU030 5CU040 A3036=,VC SH
20180112_213000.001,0,RJDC,,,,0,20180112210000,-1,-1,-1,-1,310,-1,6,-1,17,260,30,,9999,0,0,2,FEW 25   BKN 45,1,2,-1,4,1028,RJDC 122130Z 31006G17KT 260V030 9999 FEW025 BKN045 02/M04     Q1028 RMK 1CU025 6CU045 A3036=,
20180112_220000.002,0,RJDC,,,,0,20180112220000,-1,-1,-1,-1,320,-1,4,-1,-1,270,30,,9999,0,0,3,FEW 25   BKN 40   BKN 50,1,2,-1,4,1028,RJDC 122200Z 32004KT 270V030 9999 FEW025 BKN040 BKN050 02/M04     Q1028 RMK 1CU025 5CU040 7SC050 A3036=,
20180112_230000.002,0,RJDC,,,,0,20180112230000,-1,-1,-1,-1,310,-1,3,-1,-1,250,10,,9999,0,0,3,FEW 20   SCT 35   BKN 45,1,2,-1,4,1028,RJDC 122300Z 31003KT 250V010 9999 FEW020 SCT035 BKN045 02/M04     Q1028 RMK 1CU020 4CU035 7CU045 A3037=,
20180113_000000.002,0,RJDC,,,,0,20180113000000,-1,-1,-1,-1,340,-1,5,-1,-1,290,30,,9999,0,0,3,FEW 20   SCT 30   BKN 40,1,2,-1,3,1029,RJDC 130000Z 34005KT 290V030 9999 FEW020 SCT030 BKN040 02/M03     Q1029 RMK 1CU020 3CU030 5CU040 A3040=,
20180113_010000.003,0,RJDC,,,,0,20180113010000,-1,-1,-1,-1,340,-1,6,-1,-1,290,30,,9999,0,1,3,FEW 15   SCT 30   BKN 40,1,3,-1,2,1030,RJDC 130100Z 34006KT 290V030 9999 -SHSN FEW015 SCT030 BKN040     03/M02 Q1030 RMK 1CU015 3CU030 5CU040 A3042=,- SN SH
20180113_020000.002,0,RJDC,,,,0,20180113020000,-1,-1,-1,-1,320,-1,7,-1,-1,270,20,,9999,0,0,3,FEW 20   SCT 30   BKN 50,1,4,-1,0,1030,RJDC 130200Z 32007KT 270V020 9999 FEW020 SCT030 BKN050 04/M00     Q1030 RMK 1CU020 3CU030 5SC050 A3042=,
20180113_030000.002,0,RJDC,,,,0,20180113030000,-1,-1,-1,-1,330,-1,7,-1,-1,260,20,,9999,0,0,3,FEW 20   SCT 30   BKN 45,1,4,-1,1,1029,RJDC 130300Z 33007KT 260V020 9999 FEW020 SCT030 BKN045 04/M01     Q1029 RMK 1CU020 3CU030 5CU045 A3041=,
20180113_040000.002,0,RJDC,,,,0,20180113040000,-1,-1,-1,-1,290,-1,8,-1,-1,260,340,,9999,0,0,3,FEW 20   SCT 30   BKN 40,1,6,-1,1,1028,RJDC 130400Z 29008KT 260V340 9999 FEW020 SCT030 BKN040 06/M01     Q1028 RMK 1CU020 3CU030 5CU040 A3037=,
20180113_050000.002,0,RJDC,,,,0,20180113050000,-1,-1,-1,-1,300,-1,7,-1,-1,250,10,,9999,0,0,3,FEW 15   SCT 30   BKN 50,1,6,-1,2,1028,RJDC 130500Z 30007KT 250V010 9999 FEW015 SCT030 BKN050 06/M02     Q1028 RMK 1CU015 3CU030 6SC050 A3038=,
20180113_060000.002,0,RJDC,,,,0,20180113060000,-1,-1,-1,-1,290,-1,10,-1,-1,250,340,,9999,0,0,2,FEW 15   SCT 60,1,5,-1,3,1028,RJDC 130600Z 29010KT 250V340 9999 FEW015 SCT060 05/M03 Q1028     RMK 1CU015 4SC060 A3038=,
20180113_070000.002,0,RJDC,,,,0,20180113070000,-1,-1,-1,-1,320,-1,4,-1,-1,260,40,,9999,0,0,3,FEW 20   SCT 40   BKN 60,1,5,-1,1,1029,RJDC 130700Z 32004KT 260V040 9999 FEW020 SCT040 BKN060 05/M01     Q1029 RMK 1CU020 3CU040 5SC060 A3040=,
20180113_080000.002,0,RJDC,,,,0,20180113080000,-1,-1,-1,-1,350,-1,6,-1,-1,300,40,,9999,0,1,3,FEW 20   SCT 40   BKN 60,1,3,-1,0,1030,RJDC 130800Z 35006KT 300V040 9999 VCSH FEW020 SCT040 BKN060     03/M00 Q1030 RMK 1CU020 3CU040 6SC060 A3041=,VC SH
20180113_090000.002,0,RJDC,,,,0,20180113090000,-1,-1,-1,-1,300,-1,4,-1,-1,250,350,,9999,0,0,3,FEW 20   SCT 45   BKN 60,1,3,1,0,1030,RJDC 130900Z 30004KT 250V350 9999 FEW020 SCT045 BKN060 03/00     Q1030 RMK 1CU020 3CU045 6SC060 A3042=,
20180113_100000.002,0,RJDC,,,,0,20180113100000,-1,-1,-1,-1,280,-1,3,-1,-1,250,310,,9999,0,0,2,FEW 20   BKN 60,1,3,1,1,1030,RJDC 131000Z 28003KT 250V310 9999 FEW020 BKN060 03/01 Q1030     RMK 1CU020 7SC060 A3043=,
20180113_110000.002,0,RJDC,,,,0,20180113110000,-1,-1,-1,-1,270,-1,4,-1,-1,-1,-1,,9999,0,0,2,FEW 25   BKN 60,1,4,1,0,1030,RJDC 131100Z 27004KT 9999 FEW025 BKN060 04/00 Q1030 RMK 1CU025     7SC060 A3044=,
20180113_120000.002,0,RJDC,,,,0,20180113120000,-1,-1,-1,-1,20,-1,5,-1,-1,-1,-1,,9999,0,0,2,FEW 30   BKN 60,1,3,1,0,1031,RJDC 131200Z 02005KT 9999 FEW030 BKN060 03/00 Q1031 RMK 1CU030     7SC060 A3045=,
20180113_213000.001,0,RJDC,,,,0,20180113210000,-1,-1,-1,-1,350,-1,4,-1,-1,330,30,,9999,0,0,2,FEW 30   BKN 50,1,3,1,0,1030,RJDC 132130Z 35004KT 330V030 9999 FEW030 BKN050 03/00 Q1030     RMK 1CU030 7SC050 A3044=,
20180113_220000.002,0,RJDC,,,,0,20180113220000,-1,-1,-1,-1,320,-1,3,-1,-1,-1,-1,,9999,0,0,2,FEW 20   BKN 50,1,2,1,0,1031,RJDC 132200Z 32003KT 9999 FEW020 BKN050 02/00 Q1031 RMK 1CU020     6SC050 A3046=,
20180113_230000.002,0,RJDC,,,,0,20180113230000,-1,-1,-1,-1,50,-1,5,-1,-1,-1,-1,,9999,0,0,3,FEW 20   SCT 50   BKN 70,1,2,1,0,1032,RJDC 132300Z 05005KT 9999 FEW020 SCT050 BKN070 02/00 Q1032 RMK     1CU020 4SC050 7AC070 A3048=,
20180114_000000.003,0,RJDC,,,,0,20180114000000,-1,-1,-1,-1,50,-1,3,-1,-1,-1,-1,,9999,0,0,3,FEW 20   SCT 50   BKN -9999,1,4,1,1,1032,RJDC 140000Z 05003KT 9999 FEW020 SCT050 BKN/// 04/01 Q1032 RMK     1CU020 3SC050 A3050=,
20180114_010000.002,0,RJDC,,,,0,20180114010000,-1,-1,-1,-1,70,-1,6,-1,-1,-1,-1,,9999,0,0,3,FEW 30   SCT 50   BKN 150,1,5,1,1,1032,RJDC 140100Z 07006KT 9999 FEW030 SCT050 BKN150 05/01 Q1032 RMK     1CU030 4SC050 7AC150 A3050=,
20180114_020000.002,0,RJDC,,,,0,20180114020000,-1,-1,-1,-1,80,-1,8,-1,-1,-1,-1,,9999,0,0,3,FEW 30   SCT 45   BKN -9999,1,7,1,3,1032,RJDC 140200Z 08008KT 9999 FEW030 SCT045 BKN/// 07/03 Q1032 RMK     1CU030 3CU045 A3048=,
20180114_030000.002,0,RJDC,,,,0,20180114030000,-1,-1,-1,-1,120,-1,7,-1,-1,-1,-1,,9999,0,0,3,FEW 25   SCT 35   BKN -9999,1,7,1,1,1030,RJDC 140300Z 12007KT 9999 FEW025 SCT035 BKN/// 07/01 Q1030 RMK     1CU025 3CU035 A3043=,
20180114_040000.002,0,RJDC,,,,0,20180114040000,-1,-1,-1,-1,110,-1,7,-1,-1,-1,-1,,9999,0,0,2,SCT 30   BKN -9999,1,7,1,1,1030,RJDC 140400Z 11007KT 9999 SCT030 BKN/// 07/01 Q1030 RMK 3CU030     A3042=,
20180114_050000.002,0,RJDC,,,,0,20180114050000,-1,-1,-1,-1,110,-1,7,-1,-1,-1,-1,,9999,0,0,3,FEW 30   SCT 40   BKN -9999,1,7,-1,0,1028,RJDC 140500Z 11007KT 9999 FEW030 SCT040 BKN/// 07/M00 Q1028     RMK 1CU030 3CU040 A3038=,
20180114_060000.003,0,RJDC,,,,0,20180114060000,-1,-1,-1,-1,120,-1,6,-1,-1,-1,-1,,9999,0,0,3,FEW 30   SCT 180   BKN -9999,1,7,-1,1,1028,RJDC 140600Z 12006KT 9999 FEW030 SCT180 BKN/// 07/M01 Q1028     RMK 1CU030 3AC180 A3038=,
20180114_070000.002,0,RJDC,,,,0,20180114070000,-1,-1,-1,-1,100,-1,4,-1,-1,-1,-1,,9999,0,0,3,FEW 30   SCT 180   BKN -9999,1,7,-1,1,1028,RJDC 140700Z 10004KT 9999 FEW030 SCT180 BKN/// 07/M01 Q1028     RMK 1CU030 4AC180 A3038=,
20180114_080000.002,0,RJDC,,,,0,20180114080000,-1,-1,-1,-1,110,-1,2,-1,-1,-1,-1,,9999,0,0,3,FEW 25   SCT 180   BKN -9999,1,6,-1,1,1028,RJDC 140800Z 11002KT 9999 FEW025 SCT180 BKN/// 06/M01 Q1028     RMK 1CU025 4AC180 A3038=,
20180114_090000.002,0,RJDC,,,,0,20180114090000,-1,-1,-1,-1,30,-1,3,-1,-1,-1,-1,,9999,0,0,2,FEW 30   BKN -9999,1,5,-1,1,1028,RJDC 140900Z 03003KT 9999 FEW030 BKN/// 05/M01 Q1028 RMK     1CU030 A3038=,
20180114_100000.002,0,RJDC,,,,0,20180114100000,-1,-1,-1,-1,40,-1,2,-1,-1,-1,-1,,9999,0,0,2,FEW 30   SCT -9999,1,3,-1,1,1029,RJDC 141000Z 04002KT 9999 FEW030 SCT/// 03/M01 Q1029 RMK     1CU030 A3039=,
20180114_110000.002,0,RJDC,,,,0,20180114110000,-1,-1,-1,-1,40,-1,3,-1,-1,-1,-1,,9999,0,0,1,FEW 30,1,3,-1,1,1029,RJDC 141100Z 04003KT 9999 FEW030 03/M01 Q1029 RMK 1CU030     A3040=,
20180114_120000.002,0,RJDC,,,,0,20180114120000,-1,-1,-1,-1,40,-1,3,-1,-1,-1,-1,,9999,0,0,1,FEW 30,1,3,-1,1,1029,RJDC 141200Z 04003KT 9999 FEW030 03/M01 Q1029 RMK 2CU030     A3040=,
20180114_213000.001,0,RJDC,,,,0,20180114210000,-1,-1,-1,-1,40,-1,6,-1,-1,-1,-1,,9999,0,0,2,FEW 40   BKN 60,1,3,1,1,1026,RJDC 142130Z 04006KT 9999 FEW040 BKN060 03/01 Q1026 RMK 1SC040     6SC060 A3031=,
20180114_220000.002,0,RJDC,,,,0,20180114220000,-1,-1,-1,-1,50,-1,8,-1,-1,-1,-1,,9999,0,0,3,FEW 45   SCT 50   BKN 70,1,3,1,1,1026,RJDC 142200Z 05008KT 9999 FEW045 SCT050 BKN070 03/01 Q1026 RMK     1SC045 3SC050 7AC070 A3030=,
20180114_230000.002,0,RJDC,,,,0,20180114230000,-1,-1,-1,-1,50,-1,6,-1,-1,-1,-1,,9999,0,0,3,FEW 25   BKN 50   BKN 70,1,4,1,3,1026,RJDC 142300Z 05006KT 9999 FEW025 BKN050 BKN070 04/03 Q1026 RMK     1CU025 5SC050 7AC070 A3031=,
20180115_000000.002,0,RJDC,,,,0,20180115000000,-1,-1,-1,-1,50,-1,9,-1,-1,-1,-1,,9999,0,0,3,FEW 30   BKN 50   BKN 80,1,5,1,4,1026,RJDC 150000Z 05009KT 9999 FEW030 BKN050 BKN080 05/04 Q1026 RMK     1CU030 5SC050 7AC080 A3032=,
20180115_010000.002,0,RJDC,,,,0,20180115010000,-1,-1,-1,-1,60,-1,7,-1,-1,-1,-1,,9999,0,1,3,FEW 9   SCT 15   BKN 45,1,6,1,4,1027,RJDC 150100Z 06007KT 9999 -RA FEW009 SCT015 BKN045 06/04 Q1027     RMK 1ST009 3CU015 7SC045 A3033=,- RA
20180115_020000.002,0,RJDC,,,,0,20180115020000,-1,-1,-1,-1,60,-1,10,-1,-1,-1,-1,,9999,0,1,3,FEW 10   SCT 35   BKN 45,1,6,1,5,1026,RJDC 150200Z 06010KT 9999 -RA FEW010 SCT035 BKN045 06/05 Q1026     RMK 1ST010 3CU035 7SC045 A3032=,- RA
20180115_030000.002,0,RJDC,,,,0,20180115030000,-1,-1,-1,-1,60,-1,3,-1,-1,330,100,,9999,0,0,3,FEW 8   SCT 20   BKN 35,1,7,1,6,1025,RJDC 150300Z 06003KT 330V100 9999 FEW008 SCT020 BKN035 07/06     Q1025 RMK 1ST008 3CU020 6SC035 A3028=,
20180115_040000.002,0,RJDC,,,,0,20180115040000,-1,-1,-1,-1,80,-1,8,-1,-1,-1,-1,,9999,0,0,3,FEW 7   SCT 10   BKN 60,1,8,1,7,1023,RJDC 150400Z 08008KT 9999 FEW007 SCT010 BKN060 08/07 Q1023 RMK     1ST007 3ST010 5SC060 A3023=,
20180115_050000.002,0,RJDC,,,,0,20180115050000,-1,-1,-1,-1,90,-1,6,-1,-1,50,140,,9999,0,0,3,FEW 7   SCT 10   BKN 40,1,9,1,7,1023,RJDC 150500Z 09006KT 050V140 9999 FEW007 SCT010 BKN040 09/07     Q1023 RMK 1ST007 3CU010 5SC040 A3022=,
20180115_060000.002,0,RJDC,,,,0,20180115060000,-1,-1,-1,-1,60,-1,8,-1,-1,-1,-1,,9999,0,0,2,FEW 8   BKN 50,1,9,1,7,1023,RJDC 150600Z 06008KT 9999 FEW008 BKN050 09/07 Q1023 RMK 1ST008     7SC050 A3023=,
20180115_070000.003,0,RJDC,,,,0,20180115070000,-1,-1,-1,-1,90,-1,6,-1,-1,-1,-1,,9999,0,0,3,FEW 10   SCT 40   BKN 50,1,9,1,7,1023,RJDC 150700Z 09006KT 9999 FEW010 SCT040 BKN050 09/07 Q1023 RMK     1CU010 4SC040 7SC050 A3023=,
20180115_080000.002,0,RJDC,,,,0,20180115080000,-1,-1,-1,-1,80,-1,3,-1,-1,-1,-1,,9999,0,0,3,FEW 30   SCT 40   BKN 50,1,8,1,7,1024,RJDC 150800Z 08003KT 9999 FEW030 SCT040 BKN050 08/07 Q1024 RMK     1CU030 3SC040 6SC050 A3026=,
20180115_090000.002,0,RJDC,,,,0,20180115090000,-1,-1,-1,-1,70,-1,3,-1,-1,-1,-1,,9999,0,0,2,FEW 30   SCT 50,1,8,1,7,1024,RJDC 150900Z 07003KT 9999 FEW030 SCT050 08/07 Q1024 RMK 1CU030     3SC050 A3026=,
20180115_100000.002,0,RJDC,,,,0,20180115100000,-1,-1,-1,-1,140,-1,5,-1,-1,-1,-1,,9999,0,0,2,FEW 25   SCT 50,1,8,1,7,1024,RJDC 151000Z 14005KT 9999 FEW025 SCT050 08/07 Q1024 RMK 1CU025     3SC050 A3024=,
20180115_110000.002,0,RJDC,,,,0,20180115110000,-1,-1,-1,-1,80,-1,3,-1,-1,30,100,,9999,0,0,1,FEW 30,1,6,1,5,1024,RJDC 151100Z 08003KT 030V100 9999 FEW030 06/05 Q1024 RMK     1CU030 A3025=,
20180115_120000.002,0,RJDC,,,,0,20180115120000,-1,-1,-1,-1,10,-1,3,-1,-1,-1,-1,,7000,0,0,1,FEW 20,1,6,1,5,1024,RJDC 151200Z 01003KT 7000 FEW020 06/05 Q1024 RMK 1SC020 A3026=,
20180115_213000.001,0,RJDC,,,,0,20180115210000,-1,-1,-1,-1,60,-1,3,-1,-1,-1,-1,,4500,0,2,2,FEW 3   BKN 5,1,6,1,6,1022,RJDC 152130Z 06003KT 4500 PRFG BR FEW003 BKN005 06/06 Q1022     RMK 1ST003 7ST005 A3018 2000SE-S FG SE-S=,PR FG; BR
20180115_220000.002,0,RJDC,,,,0,20180115220000,-1,-1,-1,-1,60,-1,5,-1,-1,-1,-1,,5000,0,1,2,FEW 5   SCT 60,1,5,1,5,1022,RJDC 152200Z 06005KT 5000 BR FEW005 SCT060 05/05 Q1022 RMK     2ST005 4SC060 A3019=,BR
20180115_230000.002,0,RJDC,,,,0,20180115230000,-1,-1,-1,-1,20,-1,2,-1,-1,-1,-1,,4000,0,1,2,FEW 5   SCT 8,1,6,1,6,1022,RJDC 152300Z 02002KT 4000 BR FEW005 SCT008 06/06 Q1022 RMK     2ST005 3ST008 A3018=,BR
20180116_000000.002,0,RJDC,,,,0,20180116000000,-1,-1,-1,-1,999,-1,1,-1,-1,-1,-1,,4500,0,1,2,FEW 5   BKN 7,1,8,1,8,1022,RJDC 160000Z VRB01KT 4500 BR FEW005 BKN007 08/08 Q1022 RMK     1ST005 7ST007 A3018=,BR
20180116_010000.002,0,RJDC,,,,0,20180116010000,-1,-1,-1,-1,60,-1,7,-1,-1,-1,-1,,8000,0,0,3,FEW 5   BKN 7   BKN 20,1,10,1,9,1022,RJDC 160100Z 06007KT 8000 FEW005 BKN007 BKN020 10/09 Q1022 RMK     1ST005 5ST007 6CU020 A3018=,
20180116_020000.002,0,RJDC,,,,0,20180116020000,-1,-1,-1,-1,70,-1,11,-1,-1,-1,-1,,8000,0,0,3,FEW 5   SCT 7   BKN 10,1,11,1,9,1021,RJDC 160200Z 07011KT 8000 FEW005 SCT007 BKN010 11/09 Q1021 RMK     1ST005 3ST007 5ST010 A3016=,
20180116_030000.002,0,RJDC,,,,0,20180116030000,-1,-1,-1,-1,80,-1,10,-1,-1,-1,-1,,9999,0,0,3,FEW 5   SCT 7   BKN 10,1,12,1,10,1019,RJDC 160300Z 08010KT 9999 FEW005 SCT007 BKN010 12/10 Q1019 RMK     1ST005 3ST007 5ST010 A3011=,
20180116_040000.002,0,RJDC,,,,0,20180116040000,-1,-1,-1,-1,90,-1,7,-1,-1,-1,-1,,9999,0,0,2,FEW 5   BKN 7,1,11,1,10,1018,RJDC 160400Z 09007KT 9999 FEW005 BKN007 11/10 Q1018 RMK 1ST005     7ST007 A3007=,
20180116_050000.002,0,RJDC,,,,0,20180116050000,-1,-1,-1,-1,90,-1,8,-1,-1,-1,-1,,9999,0,0,2,FEW 5   SCT 7,1,12,1,10,1016,RJDC 160500Z 09008KT 9999 FEW005 SCT007 12/10 Q1016 RMK 1ST005     3ST007 A3002=,
20180116_060000.002,0,RJDC,,,,0,20180116060000,-1,-1,-1,-1,80,-1,10,-1,-1,-1,-1,,9999,0,0,2,FEW 5   SCT -9999,1,12,1,10,1016,RJDC 160600Z 08010KT 9999 FEW005 SCT/// 12/10 Q1016 RMK 1ST005     A3000=,
20180116_070000.002,0,RJDC,,,,0,20180116070000,-1,-1,-1,-1,70,-1,12,-1,-1,-1,-1,,9999,0,0,3,FEW 5   SCT 60   BKN 100,1,12,1,10,1015,RJDC 160700Z 07012KT 9999 FEW005 SCT060 BKN100 12/10 Q1015 RMK     1ST005 3SC060 6AC100 A2998=,
20180116_080000.002,0,RJDC,,,,0,20180116080000,-1,-1,-1,-1,80,-1,8,-1,-1,-1,-1,,9999,0,0,3,FEW 25   SCT 60   BKN 90,1,11,1,10,1014,RJDC 160800Z 08008KT 9999 FEW025 SCT060 BKN090 11/10 Q1014 RMK     1CU025 3SC060 7AC090 A2997=,
20180116_090000.002,0,RJDC,,,,0,20180116090000,-1,-1,-1,-1,60,-1,7,-1,-1,-1,-1,,9999,0,1,3,FEW 25   SCT 60   BKN 90,1,11,1,10,1014,RJDC 160900Z 06007KT 9999 -RA FEW025 SCT060 BKN090 11/10 Q1014     RMK 1CU025 4SC060 7AC090 A2995=,- RA
20180116_100000.002,0,RJDC,,,,0,20180116100000,-1,-1,-1,-1,260,-1,3,-1,-1,-1,-1,,6000,0,1,3,FEW 6   SCT 40   BKN 50,1,11,1,10,1015,RJDC 161000Z 26003KT 6000 -RA FEW006 SCT040 BKN050 11/10 Q1015     RMK 1ST006 3CU040 7SC050 A2997=,- RA
20180116_110000.004,0,RJDC,,,,0,20180116110000,-1,-1,-1,-1,70,-1,6,-1,-1,-1,-1,,8000,0,1,3,FEW 15   BKN 50   BKN 70,1,11,1,10,1014,RJDC 161100Z 07006KT 8000 -RA FEW015 BKN050 BKN070 11/10 Q1014     RMK 1CU015 5SC050 7AC070 A2995=,- RA
20180116_120000.002,0,RJDC,,,,0,20180116120000,-1,-1,-1,-1,60,-1,8,-1,-1,-1,-1,,9999,0,1,3,FEW 15   SCT 60   BKN 90,1,11,1,11,1014,RJDC 161200Z 06008KT 9999 -RA FEW015 SCT060 BKN090 11/11 Q1014     RMK 1CU015 4SC060 7AC090 A2995=,- RA
20180116_213000.001,0,RJDC,,,,0,20180116210000,-1,-1,-1,-1,70,-1,5,-1,-1,-1,-1,,2500,0,2,3,FEW 1   SCT 30   BKN 60,1,11,1,11,1010,RJDC 162130Z 07005KT 2500 -SHRA BR FEW001 SCT030 BKN060 11/11     Q1010 RMK 1ST001 3CU030 6SC060 A2985=,- RA SH; BR
20180116_220000.002,0,RJDC,,,,0,20180116220000,-1,-1,-1,-1,70,-1,4,-1,-1,-1,-1,,4000,0,2,3,FEW 1   SCT 30   BKN 60,1,10,1,10,1010,RJDC 162200Z 07004KT 4000 -SHRA BR FEW001 SCT030 BKN060 10/10     Q1010 RMK 1ST001 3CU030 5SC060 A2984=,- RA SH; BR
20180116_230000.002,0,RJDC,,,,0,20180116230000,-1,-1,-1,-1,60,-1,4,-1,-1,-1,-1,,8000,0,0,3,FEW 5   SCT 40   BKN 70,1,11,1,11,1010,RJDC 162300Z 06004KT 8000 FEW005 SCT040 BKN070 11/11 Q1010 RMK     1ST005 3CU040 5AC070 A2985=,
20180117_000000.002,0,RJDC,,,,0,20180117000000,-1,-1,-1,-1,60,-1,5,-1,-1,-1,-1,,9999,0,0,3,FEW 7   SCT 40   BKN 80,1,11,1,11,1010,RJDC 170000Z 06005KT 9999 FEW007 SCT040 BKN080 11/11 Q1010 RMK     1ST007 3CU040 6AC080 A2985=,
20180117_010000.002,0,RJDC,,,,0,20180117010000,-1,-1,-1,-1,60,-1,4,-1,-1,-1,-1,,9999,0,0,2,FEW 7   BKN 70,1,12,1,12,1011,RJDC 170100Z 06004KT 9999 FEW007 BKN070 12/12 Q1011 RMK 1ST007     7AC070 A2986=,
20180117_020000.004,0,RJDC,,,,0,20180117020000,-1,-1,-1,-1,999,-1,2,-1,-1,-1,-1,,7000,0,1,3,FEW 7   SCT 15   BKN 30,1,13,1,12,1011,RJDC 170200Z VRB02KT 7000 -SHRA FEW007 SCT015 BKN030 13/12     Q1011 RMK 2ST007 3CU015 5CU030 A2987=,- RA SH
20180117_030000.002,0,RJDC,,,,0,20180117030000,-1,-1,-1,-1,999,-1,2,-1,-1,-1,-1,,3500,0,1,3,FEW 5   SCT 10   BKN 70,1,14,1,13,1010,RJDC 170300Z VRB02KT 3500 BR FEW005 SCT010 BKN070 14/13 Q1010     RMK 1ST005 3CU010 7AC070 A2983=,BR
20180117_040000.003,0,RJDC,,,,0,20180117040000,-1,-1,-1,-1,280,-1,6,-1,-1,250,330,,3500,0,2,3,FEW 5   SCT 10   BKN 30,1,13,1,12,1010,RJDC 170400Z 28006KT 250V330 3500 SHRA BR FEW005 SCT010 BKN030     13/12 Q1010 RMK 1ST005 3CU010 6CU030 A2983=,RA SH; BR
20180117_050000.003,0,RJDC,,,,0,20180117050000,-1,-1,-1,-1,330,-1,6,-1,-1,290,20,,9999,0,1,3,FEW 7   SCT 10   BKN 45,1,12,1,11,1011,RJDC 170500Z 33006KT 290V020 9999 -SHRA FEW007 SCT010 BKN045     12/11 Q1011 RMK 1ST007 4CU010 6CU045 A2985=,- RA SH
20180117_060000.002,0,RJDC,,,,0,20180117060000,-1,-1,-1,-1,310,-1,6,-1,-1,220,20,,9999,0,0,3,FEW 8   SCT 10   BKN 70,1,12,1,10,1012,RJDC 170600Z 31006KT 220V020 9999 FEW008 SCT010 BKN070 12/10     Q1012 RMK 1ST008 4CU010 6AC070 A2989=,
20180117_070000.002,0,RJDC,,,,0,20180117070000,-1,-1,-1,-1,310,-1,5,-1,-1,220,360,,9999,0,0,3,FEW 10   SCT 20   BKN 40,1,12,1,10,1013,RJDC 170700Z 31005KT 220V360 9999 FEW010 SCT020 BKN040 12/10     Q1013 RMK 1CU010 4CU020 6CU040 A2992=,
20180117_080000.002,0,RJDC,,,,0,20180117080000,-1,-1,-1,-1,330,-1,4,-1,-1,240,30,,9999,0,0,3,FEW 10   SCT 20   BKN 50,1,11,1,9,1014,RJDC 170800Z 33004KT 240V030 9999 FEW010 SCT020 BKN050 11/09     Q1014 RMK 1CU010 3CU020 7SC050 A2997=,
20180117_090000.003,0,RJDC,,,,0,20180117090000,-1,-1,-1,-1,999,-1,5,-1,-1,-1,-1,,9999,0,0,3,FEW 15   SCT 25   BKN 50,1,11,1,9,1016,RJDC 170900Z VRB05KT 9999 FEW015 SCT025 BKN050 11/09 Q1016 RMK     1CU015 3CU025 7SC050 A3000=,
20180117_100000.002,0,RJDC,,,,0,20180117100000,-1,-1,-1,-1,999,-1,4,-1,-1,-1,-1,,9999,0,0,3,FEW 15   SCT 25   BKN 60,1,10,1,8,1016,RJDC 171000Z VRB04KT 9999 FEW015 SCT025 BKN060 10/08 Q1016 RMK     1CU015 3CU025 6SC060 A3002=,
20180117_110000.003,0,RJDC,,,,0,20180117110000,-1,-1,-1,-1,300,-1,3,-1,-1,250,350,,9999,0,0,2,FEW 15   SCT 50,1,10,1,8,1017,RJDC 171100Z 30003KT 250V350 9999 FEW015 SCT050 10/08 Q1017     RMK 1CU015 3SC050 A3004=,
20180117_120000.003,0,RJDC,,,,0,20180117120000,-1,-1,-1,-1,280,-1,5,-1,-1,250,310,,9999,0,0,2,FEW 10   SCT 50,1,9,1,8,1018,RJDC 171200Z 28005KT 250V310 9999 FEW010 SCT050 09/08 Q1018     RMK 1ST010 3SC050 A3008=,
20180117_213000.001,0,RJDC,,,,0,20180117210000,-1,-1,-1,-1,40,-1,4,-1,-1,-1,-1,,9999,0,0,2,FEW 8   BKN 40,1,5,1,5,1018,RJDC 172130Z 04004KT 9999 FEW008 BKN040 05/05 Q1018 RMK 1ST008     7SC040 A3009=,
20180117_220000.003,0,RJDC,,,,0,20180117220000,-1,-1,-1,-1,60,-1,2,-1,-1,-1,-1,,9999,0,0,3,FEW 5   SCT 40   BKN 45,1,6,1,6,1019,RJDC 172200Z 06002KT 9999 FEW005 SCT040 BKN045 06/06 Q1019 RMK     1ST005 3CU040 7SC045 A3010=,
20180117_230000.002,0,RJDC,,,,0,20180117230000,-1,-1,-1,-1,999,-1,1,-1,-1,-1,-1,,9999,0,0,3,FEW 10   BKN 25   BKN 40,1,6,1,6,1019,RJDC 172300Z VRB01KT 9999 FEW010 BKN025 BKN040 06/06 Q1019 RMK     1CU010 6CU025 7SC040 A3009=,
20180118_000000.002,0,RJDC,,,,0,20180118000000,-1,-1,-1,-1,20,-1,1,-1,-1,-1,-1,,9999,0,0,3,FEW 10   SCT 20   BKN 45,1,8,1,7,1020,RJDC 180000Z 02001KT 9999 FEW010 SCT020 BKN045 08/07 Q1020 RMK     1CU010 3CU020 7SC045 A3013=,
20180118_010000.002,0,RJDC,,,,0,20180118010000,-1,-1,-1,-1,90,-1,3,-1,-1,60,130,,9999,0,0,2,FEW 20   BKN 45,1,8,1,8,1020,RJDC 180100Z 09003KT 060V130 9999 FEW020 BKN045 08/08 Q1020     RMK 2CU020 7SC045 A3013=,
20180118_020000.002,0,RJDC,,,,0,20180118020000,-1,-1,-1,-1,999,-1,2,-1,-1,-1,-1,,9999,0,0,3,FEW 15   SCT 25   BKN 40,1,9,1,8,1020,RJDC 180200Z VRB02KT 9999 FEW015 SCT025 BKN040 09/08 Q1020 RMK     1CU015 3CU025 7CU040 A3014=,
20180118_030000.003,0,RJDC,,,,0,20180118030000,-1,-1,-1,-1,999,-1,2,-1,-1,-1,-1,,9999,0,0,3,FEW 20   SCT 30   BKN 40,1,10,1,9,1020,RJDC 180300Z VRB02KT 9999 FEW020 SCT030 BKN040 10/09 Q1020 RMK     1CU020 3CU030 7CU040 A3014=,
20180118_040000.002,0,RJDC,,,,0,20180118040000,-1,-1,-1,-1,250,-1,4,-1,-1,-1,-1,,9999,0,0,3,FEW 20   SCT 30   BKN 40,1,11,1,9,1019,RJDC 180400Z 25004KT 9999 FEW020 SCT030 BKN040 11/09 Q1019 RMK     1CU020 3CU030 7CU040 A3011=,
20180118_050000.002,0,RJDC,,,,0,20180118050000,-1,-1,-1,-1,260,-1,9,-1,-1,-1,-1,,9999,0,0,3,FEW 20   SCT 30   BKN 40,1,12,1,8,1019,RJDC 180500Z 26009KT 9999 FEW020 SCT030 BKN040 12/08 Q1019 RMK     1CU020 3CU030 6CU040 A3010=,
20180118_060000.002,0,RJDC,,,,0,20180118060000,-1,-1,-1,-1,270,-1,10,-1,-1,-1,-1,,9999,0,0,3,FEW 20   SCT 30   BKN 40,1,12,1,7,1019,RJDC 180600Z 27010KT 9999 FEW020 SCT030 BKN040 12/07 Q1019 RMK     1CU020 3CU030 7CU040 A3010=,
20180118_070000.002,0,RJDC,,,,0,20180118070000,-1,-1,-1,-1,270,-1,10,-1,-1,-1,-1,,9999,0,0,2,FEW 25   BKN 40,1,11,1,6,1019,RJDC 180700Z 27010KT 9999 FEW025 BKN040 11/06 Q1019 RMK 1CU025     7CU040 A3011=,
20180118_080000.002,0,RJDC,,,,0,20180118080000,-1,-1,-1,-1,280,-1,6,-1,-1,250,330,,9999,0,0,2,FEW 20   BKN 35,1,11,1,7,1019,RJDC 180800Z 28006KT 250V330 9999 FEW020 BKN035 11/07 Q1019     RMK 1CU020 7CU035 A3012=,
20180118_090000.002,0,RJDC,,,,0,20180118090000,-1,-1,-1,-1,280,-1,3,-1,-1,240,320,,9999,0,0,2,FEW 20   BKN 35,1,11,1,7,1020,RJDC 180900Z 28003KT 240V320 9999 FEW020 BKN035 11/07 Q1020     RMK 1CU020 7CU035 A3013=,
20180118_100000.002,0,RJDC,,,,0,20180118100000,-1,-1,-1,-1,999,-1,1,-1,-1,-1,-1,,9999,0,0,3,FEW 20   SCT 35   BKN 40,1,10,1,7,1021,RJDC 181000Z VRB01KT 9999 FEW020 SCT035 BKN040 10/07 Q1021 RMK     1CU020 3CU035 6CU040 A3015=,
20180118_110000.002,0,RJDC,,,,0,20180118110000,-1,-1,-1,-1,999,-1,2,-1,-1,-1,-1,,9999,0,0,2,FEW 20   BKN 40,1,10,1,6,1021,RJDC 181100Z VRB02KT 9999 FEW020 BKN040 10/06 Q1021 RMK 1CU020     7CU040 A3016=,
20180118_120000.002,0,RJDC,,,,0,20180118120000,-1,-1,-1,-1,999,-1,2,-1,-1,-1,-1,,9999,0,0,2,FEW 20   BKN 40,1,9,1,6,1021,RJDC 181200Z VRB02KT 9999 FEW020 BKN040 09/06 Q1021 RMK 1CU020     5CU040 A3016=,
20180118_213000.001,0,RJDC,,,,0,20180118210000,-1,-1,-1,-1,10,-1,5,-1,-1,330,30,,7000,0,0,2,FEW 20   BKN 50,1,5,1,2,1021,RJDC 182130Z 01005KT 330V030 7000 FEW020 BKN050 05/02 Q1021     RMK 1CU020 5SC050 A3016=,
20180118_220000.002,0,RJDC,,,,0,20180118220000,-1,-1,-1,-1,280,-1,3,-1,-1,240,330,,6000,0,0,2,FEW 20   BKN 50,1,4,1,2,1021,RJDC 182200Z 28003KT 240V330 6000 FEW020 BKN050 04/02 Q1021     RMK 1CU020 5SC050 A3016=,
20180118_230000.003,0,RJDC,,,,0,20180118230000,-1,-1,-1,-1,60,-1,3,-1,-1,30,90,,4500,0,1,2,FEW 20   SCT 50,1,4,1,3,1021,RJDC 182300Z 06003KT 030V090 4500 BR FEW020 SCT050 04/03 Q1021     RMK 1CU020 3SC050 A3016=,BR
20180119_000000.002,0,RJDC,,,,0,20180119000000,-1,-1,-1,-1,110,-1,4,-1,-1,-1,-1,,5000,0,1,2,FEW 20   BKN -9999,1,7,1,4,1021,RJDC 190000Z 11004KT 5000 BR FEW020 BKN/// 07/04 Q1021 RMK     1CU020 A3016=,BR
20180119_010000.003,0,RJDC,,,,0,20180119010000,-1,-1,-1,-1,999,-1,1,-1,-1,-1,-1,,5000,0,1,2,FEW 20   SCT -9999,1,8,1,4,1022,RJDC 190100Z VRB01KT 5000 BR FEW020 SCT/// 08/04 Q1022 RMK     1CU020 A3018=,BR
20180119_020000.002,0,RJDC,,,,0,20180119020000,-1,-1,-1,-1,250,-1,6,-1,-1,-1,-1,,5000,0,1,2,FEW 20   SCT -9999,1,10,1,6,1022,RJDC 190200Z 25006KT 5000 BR FEW020 SCT/// 10/06 Q1022 RMK     1CU020 A3019=,BR
20180119_030000.002,0,RJDC,,,,0,20180119030000,-1,-1,-1,-1,210,-1,3,-1,-1,170,250,,5000,0,1,2,FEW 30   SCT 50,1,10,1,6,1020,RJDC 190300Z 21003KT 170V250 5000 BR FEW030 SCT050 10/06 Q1020     RMK 1CU030 3SC050 A3014=,BR
20180119_040000.002,0,RJDC,,,,0,20180119040000,-1,-1,-1,-1,230,-1,6,-1,-1,-1,-1,,6000,0,0,2,FEW 30   SCT 50,1,10,1,6,1019,RJDC 190400Z 23006KT 6000 FEW030 SCT050 10/06 Q1019 RMK 1CU030     3SC050 A3010=,
20180119_050000.003,0,RJDC,,,,0,20180119050000,-1,-1,-1,-1,230,-1,5,-1,-1,-1,-1,,6000,0,0,2,FEW 30   BKN 50,1,10,1,5,1018,RJDC 190500Z 23005KT 6000 FEW030 BKN050 10/05 Q1018 RMK 1CU030     6SC050 A3008=,
20180119_060000.002,0,RJDC,,,,0,20180119060000,-1,-1,-1,-1,250,-1,5,-1,-1,-1,-1,,8000,0,0,3,FEW 30   SCT 40   BKN 50,1,10,1,5,1019,RJDC 190600Z 25005KT 8000 FEW030 SCT040 BKN050 10/05 Q1019 RMK     1CU030 3CU040 7SC050 A3009=,
20180119_070000.002,0,RJDC,,,,0,20180119070000,-1,-1,-1,-1,240,-1,2,-1,-1,-1,-1,,8000,0,0,2,FEW 30   SCT 60,1,10,1,4,1018,RJDC 190700Z 24002KT 8000 FEW030 SCT060 10/04 Q1018 RMK 1CU030     4SC060 A3008=,
20180119_080000.002,0,RJDC,,,,0,20180119080000,-1,-1,-1,-1,230,-1,2,-1,-1,-1,-1,,8000,0,0,2,FEW 35   SCT 60,1,10,1,3,1018,RJDC 190800Z 23002KT 8000 FEW035 SCT060 10/03 Q1018 RMK 1CU035     3SC060 A3008=,
20180119_090000.003,0,RJDC,,,,0,20180119090000,-1,-1,-1,-1,0,-1,0,-1,-1,-1,-1,,7000,0,0,1,FEW 35,1,8,1,3,1018,RJDC 190900Z 00000KT 7000 FEW035 08/03 Q1018 RMK 1CU035 A3008=,
20180119_100000.002,0,RJDC,,,,0,20180119100000,-1,-1,-1,-1,200,-1,2,-1,-1,-1,-1,,7000,0,0,2,FEW 35   SCT 45,1,8,1,3,1018,RJDC 191000Z 20002KT 7000 FEW035 SCT045 08/03 Q1018 RMK 1CU035     3SC045 A3008=,
20180119_110000.002,0,RJDC,,,,0,20180119110000,-1,-1,-1,-1,270,-1,2,-1,-1,-1,-1,,7000,0,0,2,FEW 35   SCT 45,1,7,1,4,1018,RJDC 191100Z 27002KT 7000 FEW035 SCT045 07/04 Q1018 RMK 2CU035     3SC045 A3008=,
20180119_120000.003,0,RJDC,,,,0,20180119120000,-1,-1,-1,-1,340,-1,3,-1,-1,-1,-1,,6000,0,0,2,FEW 30   SCT 40,1,7,1,4,1019,RJDC 191200Z 34003KT 6000 FEW030 SCT040 07/04 Q1019 RMK 1CU030     3CU040 A3009=,
20180119_213000.001,0,RJDC,,,,0,20180119210000,-1,-1,-1,-1,330,-1,3,-1,-1,-1,-1,,5000,0,1,2,FEW 30   SCT 45,1,3,1,3,1019,RJDC 192130Z 33003KT 5000 BR FEW030 SCT045 03/03 Q1019 RMK     1CU030 4SC045 A3010=,BR
20180119_220000.002,0,RJDC,,,,0,20180119220000,-1,-1,-1,-1,999,-1,2,-1,-1,-1,-1,,6000,0,0,2,FEW 30   SCT 45,1,4,1,3,1019,RJDC 192200Z VRB02KT 6000 FEW030 SCT045 04/03 Q1019 RMK 1CU030     3SC045 A3010=,
20180119_230000.002,0,RJDC,,,,0,20180119230000,-1,-1,-1,-1,320,-1,5,-1,-1,-1,-1,,8000,0,0,2,FEW 30   SCT 45,1,3,1,2,1020,RJDC 192300Z 32005KT 8000 FEW030 SCT045 03/02 Q1020 RMK 1CU030     3SC045 A3012=,
20180120_000000.002,0,RJDC,,,,0,20180120000000,-1,-1,-1,-1,999,-1,2,-1,-1,-1,-1,,8000,0,0,2,FEW 20   SCT 50,1,6,1,4,1019,RJDC 200000Z VRB02KT 8000 FEW020 SCT050 06/04 Q1019 RMK 1CU020     3SC050 A3012=,
20180120_010000.002,0,RJDC,,,,0,20180120010000,-1,-1,-1,-1,999,-1,1,-1,-1,-1,-1,,9999,0,0,2,FEW 30   SCT -9999,1,9,1,4,1020,RJDC 200100Z VRB01KT 9999 FEW030 SCT/// 09/04 Q1020 RMK 1CU030     A3014=,
20180120_020000.003,0,RJDC,,,,0,20180120020000,-1,-1,-1,-1,270,-1,4,-1,-1,210,360,,9999,0,0,2,FEW 30   SCT -9999,1,11,1,3,1021,RJDC 200200Z 27004KT 210V360 9999 FEW030 SCT/// 11/03 Q1021     RMK 1CU030 A3016=,
20180120_030000.002,0,RJDC,,,,0,20180120030000,-1,-1,-1,-1,280,-1,6,-1,-1,240,310,,9999,0,0,2,FEW 30   SCT 40,1,12,1,2,1020,RJDC 200300Z 28006KT 240V310 9999 FEW030 SCT040 12/02 Q1020     RMK 1CU030 3SC040 A3013=,
20180120_040000.002,0,RJDC,,,,0,20180120040000,-1,-1,-1,-1,260,-1,6,-1,-1,220,330,,9999,0,0,1,FEW 30,1,13,1,3,1018,RJDC 200400Z 26006KT 220V330 9999 FEW030 13/03 Q1018 RMK     1CU030 A3008=,
20180120_050000.002,0,RJDC,,,,0,20180120050000,-1,-1,-1,-1,250,-1,10,-1,-1,-1,-1,,9999,0,0,1,FEW 40,1,12,1,3,1018,RJDC 200500Z 25010KT 9999 FEW040 12/03 Q1018 RMK 1CU040 A3006=,
20180120_060000.002,0,RJDC,,,,0,20180120060000,-1,-1,-1,-1,250,-1,12,-1,-1,-1,-1,,9999,0,0,2,FEW 40   SCT -9999,1,12,1,3,1018,RJDC 200600Z 25012KT 9999 FEW040 SCT/// 12/03 Q1018 RMK 1CU040     A3008=,
20180120_070000.002,0,RJDC,,,,0,20180120070000,-1,-1,-1,-1,260,-1,10,-1,-1,-1,-1,,9999,0,0,2,FEW 35   BKN -9999,1,11,1,5,1018,RJDC 200700Z 26010KT 9999 FEW035 BKN/// 11/05 Q1018 RMK 1CU035     A3008=,
20180120_080000.002,0,RJDC,,,,0,20180120080000,-1,-1,-1,-1,10,-1,6,-1,-1,-1,-1,,9999,0,0,2,FEW 35   BKN -9999,1,11,1,2,1019,RJDC 200800Z 01006KT 9999 FEW035 BKN/// 11/02 Q1019 RMK 1CU035     A3009=,
20180120_090000.002,0,RJDC,,,,0,20180120090000,-1,-1,-1,-1,360,-1,3,-1,-1,290,60,,9999,0,0,2,FEW 30   BKN -9999,1,10,1,2,1019,RJDC 200900Z 36003KT 290V060 9999 FEW030 BKN/// 10/02 Q1019     RMK 1CU030 A3010=,
20180120_100000.002,0,RJDC,,,,0,20180120100000,-1,-1,-1,-1,999,-1,2,-1,-1,-1,-1,,9999,0,0,2,FEW 30   BKN -9999,1,8,1,2,1019,RJDC 201000Z VRB02KT 9999 FEW030 BKN/// 08/02 Q1019 RMK 1CU030     A3011=,
20180120_110000.002,0,RJDC,,,,0,20180120110000,-1,-1,-1,-1,340,-1,3,-1,-1,-1,-1,,9999,0,0,2,FEW 30   BKN -9999,1,7,1,2,1020,RJDC 201100Z 34003KT 9999 FEW030 BKN/// 07/02 Q1020 RMK 1CU030     A3013=,
20180120_120000.002,0,RJDC,,,,0,20180120120000,-1,-1,-1,-1,999,-1,2,-1,-1,-1,-1,,9999,0,0,2,FEW 30   BKN -9999,1,7,1,2,1020,RJDC 201200Z VRB02KT 9999 FEW030 BKN/// 07/02 Q1020 RMK 1CU030     A3014=,
20180120_213000.001,0,RJDC,,,,0,20180120210000,-1,-1,-1,-1,0,-1,0,-1,-1,-1,-1,,9999,0,0,1,FEW 5,1,1,-1,1,1021,RJDC 202130Z 00000KT 9999 FEW005 01/M01 Q1021 RMK 1ST005     A3015=,
20180120_220000.002,0,RJDC,,,,0,20180120220000,-1,-1,-1,-1,340,-1,3,-1,-1,-1,-1,,9999,0,0,1,FEW 15,1,1,-1,0,1021,RJDC 202200Z 34003KT 9999 FEW015 01/M00 Q1021 RMK 1CU015     A3015=,
20180120_230000.002,0,RJDC,,,,0,20180120230000,-1,-1,-1,-1,999,-1,1,-1,-1,-1,-1,,9999,0,0,1,FEW 35,1,1,-1,0,1021,RJDC 202300Z VRB01KT 9999 FEW035 01/M00 Q1021 RMK 1CU035     A3016=,
20180121_000000.002,0,RJDC,,,,0,20180121000000,-1,-1,-1,-1,999,-1,1,-1,-1,-1,-1,,9999,0,0,2,FEW 10   SCT -9999,1,4,1,3,1021,RJDC 210000Z VRB01KT 9999 FEW010 SCT/// 04/03 Q1021 RMK 1ST010     A3017=,
20180121_010000.002,0,RJDC,,,,0,20180121010000,-1,-1,-1,-1,999,-1,2,-1,-1,-1,-1,,9999,0,0,1,FEW 40,1,7,1,4,1021,RJDC 210100Z VRB02KT 9999 FEW040 07/04 Q1021 RMK 1CU040 A3018=,
20180121_020000.002,0,RJDC,,,,0,20180121020000,-1,-1,-1,-1,999,-1,2,-1,-1,-1,-1,,9999,0,0,2,FEW 35   BKN 45,1,9,1,4,1022,RJDC 210200Z VRB02KT 9999 FEW035 BKN045 09/04 Q1022 RMK 1CU035     5SC045 A3019=,
20180121_030000.002,0,RJDC,,,,0,20180121030000,-1,-1,-1,-1,220,-1,8,-1,-1,-1,-1,,9999,0,0,2,FEW 30   BKN 40,1,9,1,5,1021,RJDC 210300Z 22008KT 9999 FEW030 BKN040 09/05 Q1021 RMK 1CU030     6CU040 A3016=,
20180121_040000.003,0,RJDC,,,,0,20180121040000,-1,-1,-1,-1,999,-1,4,-1,-1,-1,-1,,9999,0,0,2,FEW 30   SCT 40,1,12,1,1,1020,RJDC 210400Z VRB04KT 9999 FEW030 SCT040 12/01 Q1020 RMK 1CU030     3CU040 A3013=,
20180121_050000.002,0,RJDC,,,,0,20180121050000,-1,-1,-1,-1,20,-1,10,-1,-1,-1,-1,,9999,0,0,3,FEW 30   SCT 40   BKN -9999,1,12,1,0,1019,RJDC 210500Z 02010KT 9999 FEW030 SCT040 BKN/// 12/00 Q1019 RMK     1CU030 3CU040 A3012=,
20180121_060000.002,0,RJDC,,,,0,20180121060000,-1,-1,-1,-1,20,-1,8,-1,-1,330,40,,9999,0,0,2,FEW 40   BKN -9999,1,12,-1,0,1019,RJDC 210600Z 02008KT 330V040 9999 FEW040 BKN/// 12/M00 Q1019     RMK 1CU040 A3011=,
20180121_070000.002,0,RJDC,,,,0,20180121070000,-1,-1,-1,-1,10,-1,7,-1,-1,330,40,,9999,0,0,2,FEW 40   BKN -9999,1,11,-1,4,1019,RJDC 210700Z 01007KT 330V040 9999 FEW040 BKN/// 11/M04 Q1019     RMK 1CU040 A3010=,
20180121_080000.002,0,RJDC,,,,0,20180121080000,-1,-1,-1,-1,10,-1,7,-1,-1,320,30,,9999,0,0,2,FEW 40   BKN -9999,1,10,-1,2,1019,RJDC 210800Z 01007KT 320V030 9999 FEW040 BKN/// 10/M02 Q1019     RMK 1CU040 A3012=,
20180121_090000.002,0,RJDC,,,,0,20180121090000,-1,-1,-1,-1,10,-1,5,-1,-1,270,50,,9999,0,0,3,FEW 40   BKN 170   BKN -9999,1,9,-1,2,1020,RJDC 210900Z 01005KT 270V050 9999 FEW040 BKN170 BKN/// 09/M02     Q1020 RMK 1CU040 6AC170 A3013=,
20180121_100000.002,0,RJDC,,,,0,20180121100000,-1,-1,-1,-1,20,-1,7,-1,-1,-1,-1,,9999,0,0,3,FEW 35   BKN 170   BKN -9999,1,8,-1,2,1020,RJDC 211000Z 02007KT 9999 FEW035 BKN170 BKN/// 08/M02 Q1020     RMK 1CU035 5AC170 A3012=,
20180121_110000.002,0,RJDC,,,,0,20180121110000,-1,-1,-1,-1,30,-1,6,-1,-1,-1,-1,,9999,0,0,2,FEW 30   BKN -9999,1,8,-1,2,1020,RJDC 211100Z 03006KT 9999 FEW030 BKN/// 08/M02 Q1020 RMK     1CU030 A3012=,
20180121_120000.002,0,RJDC,,,,0,20180121120000,-1,-1,-1,-1,30,-1,8,-1,-1,-1,-1,,9999,0,0,2,FEW 30   BKN 180,1,7,-1,1,1019,RJDC 211200Z 03008KT 9999 FEW030 BKN180 07/M01 Q1019 RMK     1CU030 7AC180 A3012=,
20180121_213000.001,0,RJDC,,,,0,20180121210000,-1,-1,-1,-1,300,-1,3,-1,-1,230,360,,9999,0,1,3,FEW 30   BKN 40   BKN 50,1,6,-1,2,1015,RJDC 212130Z 30003KT 230V360 9999 -RA FEW030 BKN040 BKN050     06/M02 Q1015 RMK 1CU030 5CU040 7SC050 A2998=,- RA
20180121_220000.002,0,RJDC,,,,0,20180121220000,-1,-1,-1,-1,999,-1,1,-1,-1,-1,-1,,9999,0,1,3,FEW 25   BKN 35   BKN 45,1,5,1,0,1015,RJDC 212200Z VRB01KT 9999 -RA FEW025 BKN035 BKN045 05/00 Q1015     RMK 1CU025 5CU035 7SC045 A2998=,- RA
20180121_230000.002,0,RJDC,,,,0,20180121230000,-1,-1,-1,-1,999,-1,2,-1,-1,-1,-1,,7000,0,1,3,FEW 15   BKN 25   BKN 35,1,5,1,2,1015,RJDC 212300Z VRB02KT 7000 -RA FEW015 BKN025 BKN035 05/02 Q1015     RMK 1CU015 5CU025 7SC035 A3000=,- RA
20180122_000000.002,0,RJDC,,,,0,20180122000000,-1,-1,-1,-1,20,-1,4,-1,-1,340,40,,5000,0,2,3,FEW 10   BKN 20   BKN 25,1,5,1,3,1016,RJDC 220000Z 02004KT 340V040 5000 -SHRA BR FEW010 BKN020     BKN025 05/03 Q1016 RMK 1CU010 6CU020 7CU025 A3000=,- RA SH; BR
20180122_010000.002,0,RJDC,,,,0,20180122010000,-1,-1,-1,-1,40,-1,7,-1,-1,350,50,,5000,0,2,3,FEW 8   SCT 10   BKN 20,1,4,1,2,1016,RJDC 220100Z 04007KT 350V050 5000 -SHRA BR FEW008 SCT010     BKN020 04/02 Q1016 RMK 1ST008 4CU010 7CU020 A3001=,- RA SH; BR
20180122_020000.002,0,RJDC,,,,0,20180122020000,-1,-1,-1,-1,80,-1,7,-1,-1,-1,-1,,5000,0,2,3,FEW 6   SCT 8   BKN 10,1,3,1,2,1015,RJDC 220200Z 08007KT 5000 -SHRA BR FEW006 SCT008 BKN010 03/02     Q1015 RMK 1ST006 3ST008 6CU010 A2999=,- RA SH; BR
20180122_030000.002,0,RJDC,,,,0,20180122030000,-1,-1,-1,-1,50,-1,6,-1,-1,-1,-1,,7000,0,1,3,FEW 4   SCT 6   BKN 8,1,2,1,2,1014,RJDC 220300Z 05006KT 7000 -SHRASN FEW004 SCT006 BKN008 02/02     Q1014 RMK 1ST004 4ST006 6ST008 A2995=,- RA SN SH
20180122_040000.002,0,RJDC,,,,0,20180122040000,-1,-1,-1,-1,999,-1,1,-1,-1,-1,-1,,9999,0,1,3,FEW 4   SCT 5   BKN 7,1,3,1,2,1013,RJDC 220400Z VRB01KT 9999 -SHRA FEW004 SCT005 BKN007 03/02     Q1013 RMK 1ST004 3ST005 6ST007 A2992=,- RA SH
20180122_050000.002,0,RJDC,,,,0,20180122050000,-1,-1,-1,-1,240,-1,3,-1,-1,-1,-1,,9999,0,0,3,FEW 4   SCT 5   BKN 7,1,3,1,2,1012,RJDC 220500Z 24003KT 9999 FEW004 SCT005 BKN007 03/02 Q1012 RMK     1ST004 3ST005 6ST007 A2991=,
20180122_060000.003,0,RJDC,,,,0,20180122060000,-1,-1,-1,-1,250,-1,3,-1,-1,200,280,,9999,0,0,3,FEW 5   SCT 8   BKN 10,1,5,1,3,1012,RJDC 220600Z 25003KT 200V280 9999 FEW005 SCT008 BKN010 05/03     Q1012 RMK 1ST005 4ST008 7ST010 A2990=,
20180122_070000.002,0,RJDC,,,,0,20180122070000,-1,-1,-1,-1,240,-1,4,-1,-1,-1,-1,,9999,0,0,3,FEW 5   SCT 8   BKN 10,1,5,1,3,1013,RJDC 220700Z 24004KT 9999 FEW005 SCT008 BKN010 05/03 Q1013 RMK     1ST005 3ST008 7ST010 A2992=,
20180122_080000.003,0,RJDC,,,,0,20180122080000,-1,-1,-1,-1,230,-1,5,-1,-1,180,260,,9999,0,0,3,FEW 10   SCT 15   BKN 25,1,5,1,3,1013,RJDC 220800Z 23005KT 180V260 9999 FEW010 SCT015 BKN025 05/03     Q1013 RMK 1ST010 3CU015 6CU025 A2994=,
20180122_090000.002,0,RJDC,,,,0,20180122090000,-1,-1,-1,-1,240,-1,5,-1,-1,-1,-1,,9999,0,0,3,FEW 10   SCT 25   BKN 35,1,5,1,4,1014,RJDC 220900Z 24005KT 9999 FEW010 SCT025 BKN035 05/04 Q1014 RMK     1ST010 4CU025 6CU035 A2995=,
20180122_100000.002,0,RJDC,,,,0,20180122100000,-1,-1,-1,-1,220,-1,6,-1,-1,-1,-1,,9999,0,0,3,FEW 10   SCT 30   BKN 60,1,5,1,4,1014,RJDC 221000Z 22006KT 9999 FEW010 SCT030 BKN060 05/04 Q1014 RMK     1ST010 4CU030 5SC060 A2995=,
20180122_110000.003,0,RJDC,,,,0,20180122110000,-1,-1,-1,-1,210,-1,9,-1,-1,-1,-1,,9999,0,0,3,FEW 10   SCT 15   BKN 60,1,6,1,4,1014,RJDC 221100Z 21009KT 9999 FEW010 SCT015 BKN060 06/04 Q1014 RMK     1ST010 4CU015 5SC060 A2994=,
20180122_120000.002,0,RJDC,,,,0,20180122120000,-1,-1,-1,-1,210,-1,10,-1,-1,-1,-1,,9999,0,0,2,FEW 20   SCT 50,1,6,1,4,1014,RJDC 221200Z 21010KT 9999 FEW020 SCT050 06/04 Q1014 RMK 1CU020     3SC050 A2994=,
20180122_213000.001,0,RJDC,,,,0,20180122210000,-1,-1,-1,-1,270,-1,17,-1,-1,-1,-1,,9999,0,0,2,FEW 30   SCT 40,1,8,1,2,1014,RJDC 222130Z 27017KT 9999 FEW030 SCT040 08/02 Q1014 RMK 2CU030     4CU040 A2995=,
20180122_220000.002,0,RJDC,,,,0,20180122220000,-1,-1,-1,-1,270,-1,15,-1,-1,-1,-1,,9999,0,0,1,FEW 35,1,8,1,2,1014,RJDC 222200Z 27015KT 9999 FEW035 08/02 Q1014 RMK 2CU035 A2995=,
20180122_230000.003,0,RJDC,,,,0,20180122230000,-1,-1,-1,-1,270,-1,16,-1,-1,-1,-1,,9999,0,0,2,FEW 30   BKN 40,1,8,1,2,1015,RJDC 222300Z 27016KT 9999 FEW030 BKN040 08/02 Q1015 RMK 1CU030     5CU040 A2997=,
20180123_000000.002,0,RJDC,,,,0,20180123000000,-1,-1,-1,-1,260,-1,17,-1,28,-1,-1,,9999,0,1,2,FEW 30   BKN 40,1,8,1,2,1016,RJDC 230000Z 26017G28KT 9999 VCSH FEW030 BKN040 08/02 Q1016     RMK 2CU030 6CU040 A3000=,VC SH
20180123_010000.002,0,RJDC,,,,0,20180123010000,-1,-1,-1,-1,270,-1,21,-1,-1,-1,-1,,9999,0,0,2,FEW 30   BKN 40,1,8,1,0,1017,RJDC 230100Z 27021KT 9999 FEW030 BKN040 08/00 Q1017 RMK 1CU030     5CU040 A3004=,
20180123_020000.002,0,RJDC,,,,0,20180123020000,-1,-1,-1,-1,290,-1,16,-1,27,260,320,,9999,0,1,3,FEW 20   SCT 30   BKN 40,1,7,-1,1,1017,RJDC 230200Z 29016G27KT 260V320 9999 VCSH FEW020 SCT030 BKN040     07/M01 Q1017 RMK 1CU020 3CU030 5CU040 A3006=,VC SH
20180123_030000.003,0,RJDC,,,,0,20180123030000,-1,-1,-1,-1,280,-1,17,-1,27,-1,-1,,9999,0,0,3,FEW 20   SCT 40   BKN 80,1,8,-1,2,1017,RJDC 230300Z 28017G27KT 9999 FEW020 SCT040 BKN080 08/M02 Q1017     RMK 1CU020 3CU040 6AC080 A3004=,
20180123_040000.003,0,RJDC,,,,0,20180123040000,-1,-1,-1,-1,280,-1,15,-1,27,260,330,,9999,0,1,3,FEW 20   SCT 40   BKN 80,1,7,-1,2,1017,RJDC 230400Z 28015G27KT 260V330 9999 VCSH FEW020 SCT040 BKN080     07/M02 Q1017 RMK 1CU020 3CU040 5AC080 A3003=,VC SH
20180123_050000.002,0,RJDC,,,,0,20180123050000,-1,-1,-1,-1,270,-1,19,-1,-1,-1,-1,,9999,0,1,3,FEW 20   BKN 35   BKN 100,1,6,-1,0,1016,RJDC 230500Z 27019KT 9999 VCSH FEW020 BKN035 BKN100 06/M00     Q1016 RMK 1CU020 5CU035 6AC100 A3003=,VC SH
20180123_060000.003,0,RJDC,,,,0,20180123060000,-1,-1,-1,-1,340,-1,10,-1,21,270,20,,9999,0,1,3,FEW 15   BKN 30   BKN 40,1,4,-1,0,1017,RJDC 230600Z 34010G21KT 270V020 9999 VCSH FEW015 BKN030 BKN040     04/M00 Q1017 RMK 1CU015 5CU030 7CU040 A3004=,VC SH
20180123_070000.002,0,RJDC,,,,0,20180123070000,-1,-1,-1,-1,300,-1,9,-1,20,250,340,,9999,0,0,3,FEW 15   SCT 25   BKN 40,1,4,-1,0,1017,RJDC 230700Z 30009G20KT 250V340 9999 FEW015 SCT025 BKN040     04/M00 Q1017 RMK 1CU015 3CU025 6CU040 A3005=,
20180123_080000.002,0,RJDC,,,,0,20180123080000,-1,-1,-1,-1,300,-1,8,-1,-1,260,350,,9999,0,1,2,FEW 15   SCT 35,1,3,-1,3,1017,RJDC 230800Z 30008KT 260V350 9999 VCSH FEW015 SCT035 03/M03     Q1017 RMK 1CU015 4CU035 A3005=,VC SH
20180123_090000.002,0,RJDC,,,,0,20180123090000,-1,-1,-1,-1,260,-1,15,-1,-1,-1,-1,,9999,0,1,3,FEW 10   SCT 20   BKN 40,1,3,1,0,1018,RJDC 230900Z 26015KT 9999 -SHSN FEW010 SCT020 BKN040 03/00     Q1018 RMK 1CU010 3CU020 7CU040 A3007=,- SN SH
20180123_100000.002,0,RJDC,,,,0,20180123100000,-1,-1,-1,-1,250,-1,19,-1,-1,-1,-1,,9999,0,0,3,FEW 10   SCT 15   BKN 30,1,3,1,0,1018,RJDC 231000Z 25019KT 9999 FEW010 SCT015 BKN030 03/00 Q1018 RMK     1CU010 3CU015 6CU030 A3007=,
20180123_110000.002,0,RJDC,,,,0,20180123110000,-1,-1,-1,-1,270,-1,15,-1,-1,-1,-1,,6000,0,1,3,FEW 15   BKN 25   BKN 30,1,2,-1,2,1018,RJDC 231100Z 27015KT 6000 -SHSN FEW015 BKN025 BKN030 02/M02     Q1018 RMK 1CU015 5CU025 7CU030 A3009=,- SN SH
20180123_120000.002,0,RJDC,,,,0,20180123120000,-1,-1,-1,-1,330,-1,4,-1,-1,250,60,,9999,0,1,3,FEW 15   SCT 25   BKN 35,1,1,-1,2,1018,RJDC 231200Z 33004KT 250V060 9999 -SHSN FEW015 SCT025 BKN035     01/M02 Q1018 RMK 1CU015 3CU025 7CU035 A3009=,- SN SH
20180123_213000.001,0,RJDC,,,,0,20180123210000,-1,-1,-1,-1,330,-1,6,-1,-1,280,30,,9999,0,1,3,FEW 15   SCT 30   BKN 40,-1,0,-1,4,1020,RJDC 232130Z 33006KT 280V030 9999 -SHSN FEW015 SCT030 BKN040     M00/M04 Q1020 RMK 1CU015 3CU030 6CU040 A3013=,- SN SH
20180123_220000.002,0,RJDC,,,,0,20180123220000,-1,-1,-1,-1,320,-1,9,-1,20,230,20,,9999,0,1,3,FEW 15   SCT 40   BKN 60,-1,0,-1,7,1020,RJDC 232200Z 32009G20KT 230V020 9999 VCSH FEW015 SCT040 BKN060     M00/M07 Q1020 RMK 1CU015 3CU040 5SC060 A3014=,VC SH
20180123_230000.002,0,RJDC,,,,0,20180123230000,-1,-1,-1,-1,340,-1,9,-1,19,290,20,,4000,0,1,3,FEW 10   SCT 20   BKN 40,-1,1,-1,5,1021,RJDC 232300Z 34009G19KT 290V020 4000 -SHSN FEW010 SCT020     BKN040 M01/M05 Q1021 RMK 1CU010 3CU020 5CU040 A3017=,- SN SH
20180124_000000.002,0,RJDC,,,,0,20180124000000,-1,-1,-1,-1,350,-1,7,-1,-1,290,40,,500,1,1,3,FEW 2   SCT 3   BKN 4,-1,2,-1,3,1022,RJDC 240000Z 35007KT 290V040 0500 R07/0900V1500N SHSN FEW002     SCT003 BKN004 M02/M03 Q1022 RMK 1ST002 4ST003 6ST004           A3018=,SN SH
20180124_010000.003,0,RJDC,,,,0,20180124010000,-1,-1,-1,-1,320,-1,9,-1,23,260,30,,9999,0,1,3,FEW 10   SCT 25   BKN 40,-1,1,-1,6,1022,RJDC 240100Z 32009G23KT 260V030 9999 -SHSN FEW010 SCT025     BKN040 M01/M06 Q1022 RMK 1CU010 3CU025 5CU040 A3018=,- SN SH
20180124_020000.002,0,RJDC,,,,0,20180124020000,-1,-1,-1,-1,300,-1,10,-1,-1,250,360,,9999,0,1,2,FEW 15   SCT 40,-1,0,-1,8,1022,RJDC 240200Z 30010KT 250V360 9999 VCSH FEW015 SCT040 M00/M08     Q1022 RMK 1CU015 4CU040 A3018=,VC SH
20180124_030000.002,0,RJDC,,,,0,20180124030000,-1,-1,-1,-1,300,-1,11,-1,23,260,360,,9999,0,1,3,FEW 15   SCT 30   BKN 40,-1,0,-1,8,1022,RJDC 240300Z 30011G23KT 260V360 9999 -SHSN FEW015 SCT030     BKN040 M00/M08 Q1022 RMK 1CU015 3CU030 5CU040 A3018=,- SN SH
20180124_040000.002,0,RJDC,,,,0,20180124040000,-1,-1,-1,-1,290,-1,12,-1,-1,260,320,,9999,0,1,3,FEW 15   SCT 25   BKN 35,-1,1,-1,8,1021,RJDC 240400Z 29012KT 260V320 9999 -SHSN FEW015 SCT025 BKN035     M01/M08 Q1021 RMK 1CU015 3CU025 5CU035 A3017=,- SN SH
20180124_050000.002,0,RJDC,,,,0,20180124050000,-1,-1,-1,-1,290,-1,12,-1,23,260,340,,9999,0,1,3,FEW 10   SCT 20   BKN 30,-1,2,-1,8,1021,RJDC 240500Z 29012G23KT 260V340 9999 -SHSN FEW010 SCT020     BKN030 M02/M08 Q1021 RMK 1CU010 4CU020 6CU030 A3017=,- SN SH
20180124_060000.002,0,RJDC,,,,0,20180124060000,-1,-1,-1,-1,310,-1,7,-1,19,250,10,,9999,0,1,3,FEW 10   SCT 20   BKN 30,-1,2,-1,6,1021,RJDC 240600Z 31007G19KT 250V010 9999 -SHSN FEW010 SCT020     BKN030 M02/M06 Q1021 RMK 1CU010 4CU020 6CU030 A3017=,- SN SH
20180124_070000.002,0,RJDC,,,,0,20180124070000,-1,-1,-1,-1,350,-1,6,-1,-1,300,50,,5000,0,1,3,FEW 10   SCT 20   BKN 30,-1,3,-1,5,1022,RJDC 240700Z 35006KT 300V050 5000 -SHSN FEW010 SCT020 BKN030     M03/M05 Q1022 RMK 1CU010 4CU020 6CU030 A3018=,- SN SH
20180124_080000.002,0,RJDC,,,,0,20180124080000,-1,-1,-1,-1,340,-1,6,-1,-1,290,30,,7000,0,1,3,FEW 15   SCT 25   BKN 30,-1,3,-1,5,1022,RJDC 240800Z 34006KT 290V030 7000 -SHSN FEW015 SCT025 BKN030     M03/M05 Q1022 RMK 1CU015 3CU025 5CU030 A3018=,- SN SH
20180124_090000.003,0,RJDC,,,,0,20180124090000,-1,-1,-1,-1,350,-1,4,-1,-1,290,30,,9999,0,1,3,FEW 15   SCT 25   BKN 50,-1,2,-1,6,1022,RJDC 240900Z 35004KT 290V030 9999 VCSH FEW015 SCT025 BKN050     M02/M06 Q1022 RMK 1CU015 3CU025 5SC050 A3019=,VC SH
20180124_100000.002,0,RJDC,,,,0,20180124100000,-1,-1,-1,-1,310,-1,4,-1,-1,240,360,,9999,0,0,2,FEW 25   SCT 45,-1,2,-1,8,1022,RJDC 241000Z 31004KT 240V360 9999 FEW025 SCT045 M02/M08 Q1022     RMK 1CU025 3CU045 A3018=,
20180124_110000.002,0,RJDC,,,,0,20180124110000,-1,-1,-1,-1,999,-1,2,-1,-1,-1,-1,,9999,0,0,2,FEW 25   SCT 45,-1,3,-1,7,1021,RJDC 241100Z VRB02KT 9999 FEW025 SCT045 M03/M07 Q1021 RMK     1CU025 4CU045 A3018=,
20180124_120000.002,0,RJDC,,,,0,20180124120000,-1,-1,-1,-1,320,-1,5,-1,-1,230,20,,9999,0,0,2,FEW 25   BKN 45,-1,1,-1,6,1021,RJDC 241200Z 32005KT 230V020 9999 FEW025 BKN045 M01/M06 Q1021     RMK 1CU025 6CU045 A3017=,
20180124_213000.001,0,RJDC,,,,0,20180124210000,-1,-1,-1,-1,290,-1,5,-1,-1,250,330,,9999,0,0,2,FEW 20   SCT 45,-1,1,-1,7,1022,RJDC 242130Z 29005KT 250V330 9999 FEW020 SCT045 M01/M07 Q1022     RMK 1CU020 3CU045 A3020=,
20180124_220000.002,0,RJDC,,,,0,20180124220000,-1,-1,-1,-1,290,-1,7,-1,-1,260,330,,9999,0,0,1,FEW 20,-1,1,-1,6,1022,RJDC 242200Z 29007KT 260V330 9999 FEW020 M01/M06 Q1022 RMK     1CU020 A3021=,
20180124_230000.002,0,RJDC,,,,0,20180124230000,-1,-1,-1,-1,290,-1,7,-1,-1,260,340,,9999,0,0,1,FEW 20,-1,1,-1,5,1022,RJDC 242300Z 29007KT 260V340 9999 FEW020 M01/M05 Q1022 RMK     1CU020 A3020=,
20180125_000000.002,0,RJDC,,,,0,20180125000000,-1,-1,-1,-1,300,-1,8,-1,-1,250,10,,9999,0,0,1,FEW 15,1,0,-1,5,1023,RJDC 250000Z 30008KT 250V010 9999 FEW015 00/M05 Q1023 RMK     1CU015 A3021=,
20180125_010000.002,0,RJDC,,,,0,20180125010000,-1,-1,-1,-1,300,-1,7,-1,-1,250,340,,9999,0,0,1,FEW 15,1,1,-1,5,1023,RJDC 250100Z 30007KT 250V340 9999 FEW015 01/M05 Q1023 RMK     1CU015 A3021=,
20180125_020000.003,0,RJDC,,,,0,20180125020000,-1,-1,-1,-1,290,-1,10,-1,-1,250,340,,9999,0,0,1,FEW 15,1,2,-1,7,1023,RJDC 250200Z 29010KT 250V340 9999 FEW015 02/M07 Q1023 RMK     1CU015 A3021=,
20180125_030000.002,0,RJDC,,,,0,20180125030000,-1,-1,-1,-1,280,-1,12,-1,-1,250,310,,9999,0,0,2,FEW 15   SCT 40,1,2,-1,4,1021,RJDC 250300Z 28012KT 250V310 9999 FEW015 SCT040 02/M04 Q1021     RMK 1CU015 4CU040 A3017=,
20180125_040000.002,0,RJDC,,,,0,20180125040000,-1,-1,-1,-1,330,-1,8,-1,-1,270,20,,9999,0,0,2,FEW 20   BKN 40,1,2,-1,5,1021,RJDC 250400Z 33008KT 270V020 9999 FEW020 BKN040 02/M05 Q1021     RMK 1CU020 5CU040 A3015=,
20180125_050000.002,0,RJDC,,,,0,20180125050000,-1,-1,-1,-1,300,-1,7,-1,-1,240,30,,9999,0,1,2,FEW 20   BKN 35,1,3,-1,5,1020,RJDC 250500Z 30007KT 240V030 9999 VCSH FEW020 BKN035 03/M05     Q1020 RMK 1CU020 5CU035 A3014=,VC SH
20180125_060000.002,0,RJDC,,,,0,20180125060000,-1,-1,-1,-1,999,-1,6,-1,-1,-1,-1,,9999,0,1,3,FEW 20   SCT 35   BKN 40,1,2,-1,5,1020,RJDC 250600Z VRB06KT 9999 -SHSN FEW020 SCT035 BKN040 02/M05     Q1020 RMK 1CU020 3CU035 5CU040 A3015=,- SN SH
20180125_070000.002,0,RJDC,,,,0,20180125070000,-1,-1,-1,-1,300,-1,8,-1,-1,250,350,,9999,0,0,2,FEW 15   SCT 20,1,2,-1,6,1020,RJDC 250700Z 30008KT 250V350 9999 FEW015 SCT020 02/M06 Q1020     RMK 1CU015 3CU020 A3014=,
20180125_080000.002,0,RJDC,,,,0,20180125080000,-1,-1,-1,-1,300,-1,6,-1,-1,250,360,,9999,0,0,2,FEW 15   SCT 20,1,2,-1,7,1020,RJDC 250800Z 30006KT 250V360 9999 FEW015 SCT020 02/M07 Q1020     RMK 1CU015 3CU020 A3013=,
20180125_090000.002,0,RJDC,,,,0,20180125090000,-1,-1,-1,-1,330,-1,5,-1,-1,280,10,,9999,0,0,2,FEW 25   SCT 40,1,1,-1,8,1020,RJDC 250900Z 33005KT 280V010 9999 FEW025 SCT040 01/M08 Q1020     RMK 1CU025 3CU040 A3014=,
20180125_100000.003,0,RJDC,,,,0,20180125100000,-1,-1,-1,-1,999,-1,2,-1,-1,-1,-1,,9999,0,0,1,FEW 40,1,0,-1,7,1020,RJDC 251000Z VRB02KT 9999 FEW040 00/M07 Q1020 RMK 2CU040     A3014=,
20180125_110000.003,0,RJDC,,,,0,20180125110000,-1,-1,-1,-1,999,-1,2,-1,-1,-1,-1,,9999,0,0,3,FEW 40   SCT 140   BKN -9999,-1,0,-1,7,1020,RJDC 251100Z VRB02KT 9999 FEW040 SCT140 BKN/// M00/M07 Q1020     RMK 1CU040 3AC140 A3013=,
20180125_120000.002,0,RJDC,,,,0,20180125120000,-1,-1,-1,-1,999,-1,2,-1,-1,-1,-1,,9999,0,0,3,FEW 40   BKN 140   BKN -9999,1,1,-1,7,1019,RJDC 251200Z VRB02KT 9999 FEW040 BKN140 BKN/// 01/M07 Q1019     RMK 1CU040 6AC140 A3012=,
20180125_213000.001,0,RJDC,,,,0,20180125210000,-1,-1,-1,-1,340,-1,5,-1,-1,250,40,,9999,0,0,2,FEW 30   BKN 40,-1,0,-1,6,1019,RJDC 252130Z 34005KT 250V040 9999 FEW030 BKN040 M00/M06 Q1019     RMK 1CU030 5CU040 A3010=,
20180125_220000.002,0,RJDC,,,,0,20180125220000,-1,-1,-1,-1,330,-1,6,-1,-1,250,10,,9999,0,1,2,FEW 25   BKN 40,1,0,-1,6,1019,RJDC 252200Z 33006KT 250V010 9999 VCSH FEW025 BKN040 00/M06     Q1019 RMK 2CU025 6CU040 A3010=,VC SH
20180125_230000.002,0,RJDC,,,,0,20180125230000,-1,-1,-1,-1,999,-1,6,-1,-1,-1,-1,,9999,0,0,2,FEW 20   BKN 35,1,0,-1,6,1020,RJDC 252300Z VRB06KT 9999 FEW020 BKN035 00/M06 Q1020 RMK     1CU020 5CU035 A3012=,
20180126_000000.002,0,RJDC,,,,0,20180126000000,-1,-1,-1,-1,999,-1,6,-1,-1,-1,-1,,9999,0,1,2,FEW 20   BKN 35,1,0,-1,6,1020,RJDC 260000Z VRB06KT 9999 VCSH FEW020 BKN035 00/M06 Q1020 RMK     2CU020 5CU035 A3014=,VC SH
20180126_010000.002,0,RJDC,,,,0,20180126010000,-1,-1,-1,-1,320,-1,7,-1,-1,260,20,,9999,0,1,3,FEW 15   SCT 25   BKN 35,1,0,-1,6,1021,RJDC 260100Z 32007KT 260V020 9999 -SHSN FEW015 SCT025 BKN035     00/M06 Q1021 RMK 1CU015 3CU025 5CU035 A3016=,- SN SH
20180126_020000.002,0,RJDC,,,,0,20180126020000,-1,-1,-1,-1,290,-1,7,-1,-1,260,340,,9999,0,0,3,FEW 15   SCT 20   BKN 35,1,1,-1,6,1021,RJDC 260200Z 29007KT 260V340 9999 FEW015 SCT020 BKN035 01/M06     Q1021 RMK 1CU015 3CU020 5CU035 A3015=,
20180126_030000.002,0,RJDC,,,,0,20180126030000,-1,-1,-1,-1,310,-1,8,-1,20,260,20,,9999,0,0,2,FEW 20   BKN 35,1,1,-1,7,1020,RJDC 260300Z 31008G20KT 260V020 9999 FEW020 BKN035 01/M07     Q1020 RMK 1CU020 6CU035 A3013=,
20180126_040000.002,0,RJDC,,,,0,20180126040000,-1,-1,-1,-1,290,-1,12,-1,-1,240,340,,9999,0,0,2,FEW 25   BKN 35,1,2,-1,6,1019,RJDC 260400Z 29012KT 240V340 9999 FEW025 BKN035 02/M06 Q1019     RMK 1CU025 6CU035 A3010=,
20180126_050000.002,0,RJDC,,,,0,20180126050000,-1,-1,-1,-1,320,-1,9,-1,19,250,360,,9999,0,0,2,FEW 25   BKN 35,1,2,-1,6,1019,RJDC 260500Z 32009G19KT 250V360 9999 FEW025 BKN035 02/M06     Q1019 RMK 1CU025 6CU035 A3010=,
20180126_060000.002,0,RJDC,,,,0,20180126060000,-1,-1,-1,-1,290,-1,10,-1,-1,260,10,,9999,0,0,2,FEW 25   BKN 40,1,2,-1,7,1019,RJDC 260600Z 29010KT 260V010 9999 FEW025 BKN040 02/M07 Q1019     RMK 1CU025 5CU040 A3012=,
20180126_070000.002,0,RJDC,,,,0,20180126070000,-1,-1,-1,-1,300,-1,8,-1,19,260,360,,9999,0,0,3,FEW 25   SCT 35   BKN 40,1,1,-1,7,1020,RJDC 260700Z 30008G19KT 260V360 9999 FEW025 SCT035 BKN040     01/M07 Q1020 RMK 1CU025 3CU035 6CU040 A3012=,
20180126_080000.003,0,RJDC,,,,0,20180126080000,-1,-1,-1,-1,310,-1,7,-1,-1,250,20,,9999,0,0,3,FEW 20   SCT 30   BKN 40,1,0,-1,7,1020,RJDC 260800Z 31007KT 250V020 9999 FEW020 SCT030 BKN040 00/M07     Q1020 RMK 1CU020 3CU030 7CU040 A3013=,
20180126_090000.002,0,RJDC,,,,0,20180126090000,-1,-1,-1,-1,350,-1,5,-1,-1,270,40,,9999,0,0,1,FEW 25,-1,1,-1,7,1021,RJDC 260900Z 35005KT 270V040 9999 FEW025 M01/M07 Q1021 RMK     1CU025 A3016=,
20180126_100000.002,0,RJDC,,,,0,20180126100000,-1,-1,-1,-1,300,-1,5,-1,-1,250,360,,9999,0,0,2,FEW 20   SCT 35,-1,1,-1,6,1021,RJDC 261000Z 30005KT 250V360 9999 FEW020 SCT035 M01/M06 Q1021     RMK 1CU020 4CU035 A3018=,
20180126_110000.002,0,RJDC,,,,0,20180126110000,-1,-1,-1,-1,290,-1,7,-1,-1,250,350,,9999,0,0,3,FEW 20   SCT 35   BKN 45,-1,1,-1,6,1022,RJDC 261100Z 29007KT 250V350 9999 FEW020 SCT035 BKN045 M01/M06     Q1022 RMK 1CU020 3CU035 6CU045 A3020=,
20180126_120000.002,0,RJDC,,,,0,20180126120000,-1,-1,-1,-1,320,-1,4,-1,-1,250,40,,9999,0,1,3,FEW 20   SCT 35   BKN 45,-1,1,-1,7,1023,RJDC 261200Z 32004KT 250V040 9999 -SHSN FEW020 SCT035 BKN045     M01/M07 Q1023 RMK 1CU020 3CU035 7CU045 A3021=,- SN SH
20180126_213000.001,0,RJDC,,,,0,20180126210000,-1,-1,-1,-1,999,-1,2,-1,-1,-1,-1,,9999,0,1,3,FEW 25   SCT 35   BKN 45,1,0,-1,3,1024,RJDC 262130Z VRB02KT 9999 -SHSN FEW025 SCT035 BKN045 00/M03     Q1024 RMK 1CU025 3CU035 6CU045 A3025=,- SN SH
20180126_220000.002,0,RJDC,,,,0,20180126220000,-1,-1,-1,-1,999,-1,1,-1,-1,-1,-1,,9999,0,1,2,FEW 20   BKN 40,1,0,-1,3,1024,RJDC 262200Z VRB01KT 9999 -SHSN FEW020 BKN040 00/M03 Q1024 RMK     1CU020 7CU040 A3025=,- SN SH
20180126_230000.002,0,RJDC,,,,0,20180126230000,-1,-1,-1,-1,999,-1,2,-1,-1,-1,-1,,9999,0,0,3,FEW 20   SCT 40   BKN 50,1,0,-1,2,1025,RJDC 262300Z VRB02KT 9999 FEW020 SCT040 BKN050 00/M02 Q1025     RMK 1CU020 3CU040 7SC050 A3027=,
20180127_000000.002,0,RJDC,,,,0,20180127000000,-1,-1,-1,-1,70,-1,2,-1,-1,-1,-1,,9999,0,0,2,FEW 20   BKN 45,1,1,-1,2,1025,RJDC 270000Z 07002KT 9999 FEW020 BKN045 01/M02 Q1025 RMK     1CU020 6SC045 A3027=,
20180127_010000.002,0,RJDC,,,,0,20180127010000,-1,-1,-1,-1,60,-1,3,-1,-1,-1,-1,,9999,0,0,2,FEW 25   BKN 50,1,2,-1,1,1025,RJDC 270100Z 06003KT 9999 FEW025 BKN050 02/M01 Q1025 RMK     1CU025 7SC050 A3029=,
20180127_020000.002,0,RJDC,,,,0,20180127020000,-1,-1,-1,-1,120,-1,3,-1,-1,-1,-1,,9999,0,0,2,FEW 25   BKN 50,1,4,-1,1,1025,RJDC 270200Z 12003KT 9999 FEW025 BKN050 04/M01 Q1025 RMK     1CU025 7SC050 A3028=,
20180127_030000.002,0,RJDC,,,,0,20180127030000,-1,-1,-1,-1,200,-1,5,-1,-1,-1,-1,,9999,0,0,3,FEW 25   SCT 35   BKN 45,1,4,-1,2,1024,RJDC 270300Z 20005KT 9999 FEW025 SCT035 BKN045 04/M02 Q1024     RMK 1CU025 3CU035 7SC045 A3026=,
20180127_040000.002,0,RJDC,,,,0,20180127040000,-1,-1,-1,-1,240,-1,4,-1,-1,190,280,,9999,0,0,3,FEW 25   SCT 35   BKN 50,1,4,-1,1,1024,RJDC 270400Z 24004KT 190V280 9999 FEW025 SCT035 BKN050 04/M01     Q1024 RMK 1CU025 3CU035 7SC050 A3025=,
20180127_050000.002,0,RJDC,,,,0,20180127050000,-1,-1,-1,-1,190,-1,3,-1,-1,-1,-1,,9999,0,0,3,FEW 25   SCT 35   BKN 50,1,4,-1,1,1024,RJDC 270500Z 19003KT 9999 FEW025 SCT035 BKN050 04/M01 Q1024     RMK 1CU025 4CU035 7SC050 A3024=,
20180127_060000.002,0,RJDC,,,,0,20180127060000,-1,-1,-1,-1,240,-1,4,-1,-1,-1,-1,,9999,0,0,3,FEW 20   SCT 35   BKN 45,1,5,-1,1,1023,RJDC 270600Z 24004KT 9999 FEW020 SCT035 BKN045 05/M01 Q1023     RMK 1CU020 4CU035 7SC045 A3022=,
20180127_070000.002,0,RJDC,,,,0,20180127070000,-1,-1,-1,-1,999,-1,2,-1,-1,-1,-1,,9999,0,0,3,FEW 25   SCT 35   BKN 45,1,5,-1,1,1023,RJDC 270700Z VRB02KT 9999 FEW025 SCT035 BKN045 05/M01 Q1023     RMK 1CU025 3CU035 5SC045 A3022=,
20180127_080000.002,0,RJDC,,,,0,20180127080000,-1,-1,-1,-1,250,-1,3,-1,-1,-1,-1,,9999,0,0,2,FEW 25   BKN 45,1,4,-1,1,1023,RJDC 270800Z 25003KT 9999 FEW025 BKN045 04/M01 Q1023 RMK     1CU025 5SC045 A3023=,
20180127_090000.003,0,RJDC,,,,0,20180127090000,-1,-1,-1,-1,300,-1,2,-1,-1,-1,-1,,9999,0,0,2,FEW 25   SCT 50,1,3,-1,1,1023,RJDC 270900Z 30002KT 9999 FEW025 SCT050 03/M01 Q1023 RMK     1CU025 3SC050 A3021=,
20180127_100000.002,0,RJDC,,,,0,20180127100000,-1,-1,-1,-1,30,-1,2,-1,-1,-1,-1,,9999,0,0,2,FEW 25   SCT -9999,1,2,-1,1,1023,RJDC 271000Z 03002KT 9999 FEW025 SCT/// 02/M01 Q1023 RMK     1CU025 A3021=,
20180127_110000.002,0,RJDC,,,,0,20180127110000,-1,-1,-1,-1,10,-1,3,-1,-1,-1,-1,,9999,0,0,2,FEW 25   SCT -9999,1,1,-1,2,1023,RJDC 271100Z 01003KT 9999 FEW025 SCT/// 01/M02 Q1023 RMK     1CU025 A3021=,
20180127_120000.002,0,RJDC,,,,0,20180127120000,-1,-1,-1,-1,10,-1,3,-1,-1,-1,-1,,9999,0,0,2,FEW 30   SCT -9999,1,0,-1,2,1022,RJDC 271200Z 01003KT 9999 FEW030 SCT/// 00/M02 Q1022 RMK     1CU030 A3020=,
20180127_213000.001,0,RJDC,,,,0,20180127210000,-1,-1,-1,-1,30,-1,3,-1,-1,-1,-1,,9999,0,0,3,FEW 30   SCT 40   BKN 60,1,2,-1,0,1019,RJDC 272130Z 03003KT 9999 FEW030 SCT040 BKN060 02/M00 Q1019     RMK 1CU030 3CU040 7SC060 A3011=,
20180127_220000.002,0,RJDC,,,,0,20180127220000,-1,-1,-1,-1,90,-1,4,-1,-1,-1,-1,,9999,0,0,3,FEW 20   SCT 35   BKN 60,1,3,1,0,1019,RJDC 272200Z 09004KT 9999 FEW020 SCT035 BKN060 03/00 Q1019 RMK     1CU020 4CU035 7SC060 A3009=,
20180127_230000.002,0,RJDC,,,,0,20180127230000,-1,-1,-1,-1,200,-1,8,-1,-1,170,230,,9999,0,0,3,FEW 10   SCT 20   BKN 30,1,4,1,0,1019,RJDC 272300Z 20008KT 170V230 9999 FEW010 SCT020 BKN030 04/00     Q1019 RMK 1CU010 3CU020 6CU030 A3010=,
20180128_000000.003,0,RJDC,,,,0,20180128000000,-1,-1,-1,-1,200,-1,6,-1,-1,-1,-1,,9999,0,1,3,FEW 15   SCT 25   BKN 35,1,4,1,1,1019,RJDC 280000Z 20006KT 9999 -SHRA FEW015 SCT025 BKN035 04/01     Q1019 RMK 1CU015 4CU025 6CU035 A3010=,- RA SH
20180128_010000.002,0,RJDC,,,,0,20180128010000,-1,-1,-1,-1,200,-1,6,-1,-1,-1,-1,,9999,0,0,3,FEW 15   SCT 25   BKN 40,1,5,1,2,1018,RJDC 280100Z 20006KT 9999 FEW015 SCT025 BKN040 05/02 Q1018 RMK     1CU015 3CU025 5CU040 A3008=,
20180128_020000.002,0,RJDC,,,,0,20180128020000,-1,-1,-1,-1,190,-1,5,-1,-1,170,230,,9999,0,1,3,FEW 20   SCT 30   BKN 40,1,5,1,2,1018,RJDC 280200Z 19005KT 170V230 9999 -SHRA FEW020 SCT030 BKN040     05/02 Q1018 RMK 1CU020 4CU030 6CU040 A3007=,- RA SH
20180128_030000.002,0,RJDC,,,,0,20180128030000,-1,-1,-1,-1,210,-1,7,-1,-1,-1,-1,,9999,0,1,3,FEW 15   SCT 25   BKN 35,1,6,1,3,1017,RJDC 280300Z 21007KT 9999 -SHRA FEW015 SCT025 BKN035 06/03     Q1017 RMK 1CU015 4CU025 6CU035 A3004=,- RA SH
20180128_040000.002,0,RJDC,,,,0,20180128040000,-1,-1,-1,-1,230,-1,8,-1,-1,-1,-1,,9999,0,0,3,FEW 15   BKN 25   BKN 35,1,6,1,3,1016,RJDC 280400Z 23008KT 9999 FEW015 BKN025 BKN035 06/03 Q1016 RMK     1CU015 5CU025 6CU035 A3001=,
20180128_050000.002,0,RJDC,,,,0,20180128050000,-1,-1,-1,-1,270,-1,5,-1,-1,-1,-1,,9999,0,1,3,FEW 10   SCT 20   BKN 25,1,6,1,3,1015,RJDC 280500Z 27005KT 9999 -SHRA FEW010 SCT020 BKN025 06/03     Q1015 RMK 1CU010 4CU020 7CU025 A3000=,- RA SH
20180128_060000.002,0,RJDC,,,,0,20180128060000,-1,-1,-1,-1,270,-1,13,-1,-1,-1,-1,,9999,0,1,3,FEW 10   SCT 15   BKN 20,1,6,1,4,1016,RJDC 280600Z 27013KT 9999 -SHRA FEW010 SCT015 BKN020 06/04     Q1016 RMK 1CU010 4CU015 7CU020 A3000=,- RA SH
20180128_070000.003,0,RJDC,,,,0,20180128070000,-1,-1,-1,-1,270,-1,8,-1,-1,-1,-1,,9999,0,1,3,FEW 10   SCT 20   BKN 25,1,6,1,4,1015,RJDC 280700Z 27008KT 9999 -SHRA FEW010 SCT020 BKN025 06/04     Q1015 RMK 1ST010 4CU020 7CU025 A2999=,- RA SH
20180128_080000.002,0,RJDC,,,,0,20180128080000,-1,-1,-1,-1,240,-1,13,-1,-1,-1,-1,,9999,0,0,3,FEW 5   SCT 20   BKN 30,1,6,1,4,1015,RJDC 280800Z 24013KT 9999 FEW005 SCT020 BKN030 06/04 Q1015 RMK     1ST005 4CU020 7CU030 A3000=,
20180128_090000.002,0,RJDC,,,,0,20180128090000,-1,-1,-1,-1,240,-1,15,-1,-1,-1,-1,,9999,0,0,3,FEW 10   SCT 25   BKN 35,1,6,1,3,1016,RJDC 280900Z 24015KT 9999 FEW010 SCT025 BKN035 06/03 Q1016 RMK     1CU010 4CU025 7CU035 A3000=,
20180128_100000.002,0,RJDC,,,,0,20180128100000,-1,-1,-1,-1,270,-1,10,-1,-1,-1,-1,,9999,0,0,3,FEW 10   SCT 30   BKN 40,1,6,1,3,1016,RJDC 281000Z 27010KT 9999 FEW010 SCT030 BKN040 06/03 Q1016 RMK     1CU010 4CU030 7CU040 A3001=,
20180128_110000.002,0,RJDC,,,,0,20180128110000,-1,-1,-1,-1,350,-1,3,-1,-1,290,50,,9999,0,0,3,FEW 10   SCT 30   BKN 40,1,5,1,2,1016,RJDC 281100Z 35003KT 290V050 9999 FEW010 SCT030 BKN040 05/02     Q1016 RMK 1CU010 4CU030 6CU040 A3003=,
20180128_120000.002,0,RJDC,,,,0,20180128120000,-1,-1,-1,-1,999,-1,2,-1,-1,-1,-1,,9999,0,0,3,FEW 15   SCT 40   BKN -9999,1,3,1,1,1016,RJDC 281200Z VRB02KT 9999 FEW015 SCT040 BKN/// 03/01 Q1016 RMK     1CU015 4CU040 A3002=,
20180128_213000.001,0,RJDC,,,,0,20180128210000,-1,-1,-1,-1,350,-1,6,-1,-1,270,60,,9999,0,0,3,FEW 30   SCT 40   BKN 50,1,3,-1,0,1016,RJDC 282130Z 35006KT 270V060 9999 FEW030 SCT040 BKN050 03/M00     Q1016 RMK 1CU030 3CU040 7SC050 A3000=,
20180128_220000.003,0,RJDC,,,,0,20180128220000,-1,-1,-1,-1,10,-1,5,-1,-1,310,50,,9999,0,0,3,FEW 25   SCT 35   BKN 45,1,3,-1,1,1016,RJDC 282200Z 01005KT 310V050 9999 FEW025 SCT035 BKN045 03/M01     Q1016 RMK 1CU025 3CU035 6CU045 A3003=,
20180128_230000.002,0,RJDC,,,,0,20180128230000,-1,-1,-1,-1,350,-1,7,-1,-1,290,30,,9999,0,0,3,FEW 30   SCT 40   BKN 50,1,2,-1,3,1017,RJDC 282300Z 35007KT 290V030 9999 FEW030 SCT040 BKN050 02/M03     Q1017 RMK 1CU030 3CU040 7SC050 A3005=,
20180129_000000.003,0,RJDC,,,,0,20180129000000,-1,-1,-1,-1,330,-1,6,-1,-1,270,40,,9999,0,0,2,FEW 25   SCT 45,1,2,-1,4,1018,RJDC 290000Z 33006KT 270V040 9999 FEW025 SCT045 02/M04 Q1018     RMK 1CU025 4SC045 A3007=,
20180129_010000.002,0,RJDC,,,,0,20180129010000,-1,-1,-1,-1,330,-1,9,-1,-1,280,30,,9999,0,0,3,FEW 20   SCT 30   BKN 40,1,3,-1,5,1018,RJDC 290100Z 33009KT 280V030 9999 FEW020 SCT030 BKN040 03/M05     Q1018 RMK 1CU020 3CU030 5CU040 A3009=,
20180129_020000.002,0,RJDC,,,,0,20180129020000,-1,-1,-1,-1,330,-1,7,-1,-1,270,10,,9999,0,1,3,FEW 15   SCT 30   BKN 40,1,3,-1,4,1019,RJDC 290200Z 33007KT 270V010 9999 VCSH FEW015 SCT030 BKN040     03/M04 Q1019 RMK 1CU015 3CU030 5CU040 A3010=,VC SH
20180129_030000.002,0,RJDC,,,,0,20180129030000,-1,-1,-1,-1,330,-1,6,-1,-1,250,20,,600,1,1,3,FEW 8   SCT 10   BKN 20,1,1,-1,1,1018,RJDC 290300Z 33006KT 250V020 0600 R07/P1800N SHSN FEW008     SCT010 BKN020 01/M01 Q1018 RMK 1ST008 4CU010 6CU020           A3009=,SN SH
20180129_040000.002,0,RJDC,,,,0,20180129040000,-1,-1,-1,-1,340,-1,7,-1,-1,280,50,,7000,0,1,3,FEW 15   SCT 30   BKN 40,1,2,-1,1,1018,RJDC 290400Z 34007KT 280V050 7000 -SHSN FEW015 SCT030 BKN040     02/M01 Q1018 RMK 2CU015 4CU030 6CU040 A3007=,- SN SH
20180129_050000.002,0,RJDC,,,,0,20180129050000,-1,-1,-1,-1,999,-1,7,-1,-1,-1,-1,,5000,0,1,3,FEW 10   SCT 15   BKN 25,1,1,-1,1,1018,RJDC 290500Z VRB07KT 5000 -SHSN FEW010 SCT015 BKN025 01/M01     Q1018 RMK 1CU010 3CU015 6CU025 A3006=,- SN SH
20180129_060000.002,0,RJDC,,,,0,20180129060000,-1,-1,-1,-1,290,-1,9,-1,-1,260,340,,9999,0,0,3,FEW 20   SCT 30   BKN 40,1,2,-1,5,1017,RJDC 290600Z 29009KT 260V340 9999 FEW020 SCT030 BKN040 02/M05     Q1017 RMK 1CU020 4CU030 5CU040 A3006=,
20180129_070000.002,0,RJDC,,,,0,20180129070000,-1,-1,-1,-1,290,-1,8,-1,19,260,320,,9999,0,1,3,FEW 15   SCT 25   BKN 40,1,3,-1,4,1018,RJDC 290700Z 29008G19KT 260V320 9999 -SHSN FEW015 SCT025     BKN040 03/M04 Q1018 RMK 1CU015 3CU025 7CU040 A3006=,- SN SH
20180129_080000.002,0,RJDC,,,,0,20180129080000,-1,-1,-1,-1,999,-1,6,-1,-1,-1,-1,,7000,0,1,3,FEW 10   SCT 20   BKN 30,1,1,-1,3,1018,RJDC 290800Z VRB06KT 7000 -SHSN FEW010 SCT020 BKN030 01/M03     Q1018 RMK 1CU010 3CU020 5CU030 A3008=,- SN SH
20180129_090000.002,0,RJDC,,,,0,20180129090000,-1,-1,-1,-1,340,-1,4,-1,-1,280,60,,9999,0,0,3,FEW 20   SCT 30   BKN 45,1,1,-1,4,1019,RJDC 290900Z 34004KT 280V060 9999 FEW020 SCT030 BKN045 01/M04     Q1019 RMK 1CU020 3CU030 5CU045 A3009=,
20180129_100000.002,0,RJDC,,,,0,20180129100000,-1,-1,-1,-1,10,-1,3,-1,-1,300,40,,9999,0,0,2,FEW 20   BKN 50,1,1,-1,4,1019,RJDC 291000Z 01003KT 300V040 9999 FEW020 BKN050 01/M04 Q1019     RMK 1CU020 5SC050 A3012=,
20180129_110000.002,0,RJDC,,,,0,20180129110000,-1,-1,-1,-1,320,-1,3,-1,-1,260,20,,9999,0,0,3,FEW 25   SCT 35   BKN 60,1,1,-1,5,1019,RJDC 291100Z 32003KT 260V020 9999 FEW025 SCT035 BKN060 01/M05     Q1019 RMK 1CU025 4CU035 6SC060 A3011=,
20180129_120000.002,0,RJDC,,,,0,20180129120000,-1,-1,-1,-1,999,-1,2,-1,-1,-1,-1,,9999,0,0,3,FEW 25   SCT 35   BKN 60,1,0,-1,6,1019,RJDC 291200Z VRB02KT 9999 FEW025 SCT035 BKN060 00/M06 Q1019     RMK 1CU025 3CU035 5SC060 A3010=,
20180129_213000.001,0,RJDC,,,,0,20180129210000,-1,-1,-1,-1,350,-1,5,-1,-1,300,40,,9999,0,1,3,FEW 20   SCT 30   BKN 40,1,0,-1,5,1021,RJDC 292130Z 35005KT 300V040 9999 VCSH FEW020 SCT030 BKN040     00/M05 Q1021 RMK 1CU020 3CU030 7CU040 A3018=,VC SH
20180129_220000.002,0,RJDC,,,,0,20180129220000,-1,-1,-1,-1,350,-1,5,-1,-1,290,50,,9999,0,1,2,FEW 20   BKN 40,1,0,-1,5,1022,RJDC 292200Z 35005KT 290V050 9999 VCSH FEW020 BKN040 00/M05     Q1022 RMK 1CU020 7CU040 A3019=,VC SH
20180129_230000.002,0,RJDC,,,,0,20180129230000,-1,-1,-1,-1,350,-1,4,-1,-1,270,30,,9999,0,0,2,FEW 20   BKN 40,1,0,-1,5,1022,RJDC 292300Z 35004KT 270V030 9999 FEW020 BKN040 00/M05 Q1022     RMK 1CU020 5CU040 A3021=,
20180130_000000.002,0,RJDC,,,,0,20180130000000,-1,-1,-1,-1,350,-1,5,-1,-1,300,40,,9999,0,1,2,FEW 20   SCT 40,1,1,-1,5,1023,RJDC 300000Z 35005KT 300V040 9999 VCSH FEW020 SCT040 01/M05     Q1023 RMK 1CU020 4CU040 A3021=,VC SH
20180130_010000.002,0,RJDC,,,,0,20180130010000,-1,-1,-1,-1,280,-1,4,-1,-1,230,360,,9999,0,0,2,FEW 20   SCT 40,1,3,-1,6,1023,RJDC 300100Z 28004KT 230V360 9999 FEW020 SCT040 03/M06 Q1023     RMK 1CU020 3CU040 A3022=,
20180130_020000.002,0,RJDC,,,,0,20180130020000,-1,-1,-1,-1,280,-1,8,-1,-1,250,320,,9999,0,0,2,FEW 20   BKN 40,1,3,-1,5,1023,RJDC 300200Z 28008KT 250V320 9999 FEW020 BKN040 03/M05 Q1023     RMK 2CU020 5CU040 A3022=,
20180130_030000.002,0,RJDC,,,,0,20180130030000,-1,-1,-1,-1,260,-1,15,-1,-1,-1,-1,,9999,0,0,2,FEW 20   BKN 40,1,5,-1,6,1022,RJDC 300300Z 26015KT 9999 FEW020 BKN040 05/M06 Q1022 RMK     1CU020 5CU040 A3020=,
20180130_040000.002,0,RJDC,,,,0,20180130040000,-1,-1,-1,-1,270,-1,14,-1,-1,-1,-1,,9999,0,0,2,FEW 25   BKN 40,1,5,-1,5,1022,RJDC 300400Z 27014KT 9999 FEW025 BKN040 05/M05 Q1022 RMK     1CU025 5CU040 A3019=,
20180130_050000.002,0,RJDC,,,,0,20180130050000,-1,-1,-1,-1,270,-1,13,-1,-1,-1,-1,,9999,0,0,2,FEW 25   BKN 40,1,5,-1,4,1022,RJDC 300500Z 27013KT 9999 FEW025 BKN040 05/M04 Q1022 RMK     1CU025 5CU040 A3018=,
20180130_060000.003,0,RJDC,,,,0,20180130060000,-1,-1,-1,-1,270,-1,14,-1,-1,-1,-1,,9999,0,0,2,FEW 25   SCT 40,1,5,-1,5,1022,RJDC 300600Z 27014KT 9999 FEW025 SCT040 05/M05 Q1022 RMK     1CU025 3CU040 A3019=,
20180130_070000.002,0,RJDC,,,,0,20180130070000,-1,-1,-1,-1,270,-1,12,-1,-1,-1,-1,,9999,0,0,2,FEW 25   SCT 40,1,4,-1,5,1023,RJDC 300700Z 27012KT 9999 FEW025 SCT040 04/M05 Q1023 RMK     1CU025 3CU040 A3021=,
20180130_080000.002,0,RJDC,,,,0,20180130080000,-1,-1,-1,-1,290,-1,7,-1,-1,240,360,,9999,0,1,3,FEW 20   SCT 35   BKN -9999,1,3,-1,5,1024,RJDC 300800Z 29007KT 240V360 9999 VCSH FEW020 SCT035 BKN///     03/M05 Q1024 RMK 1CU020 3CU035 A3024=,VC SH
20180130_090000.002,0,RJDC,,,,0,20180130090000,-1,-1,-1,-1,360,-1,4,-1,-1,260,50,,9999,0,0,2,FEW 25   BKN 40,1,3,-1,4,1024,RJDC 300900Z 36004KT 260V050 9999 FEW025 BKN040 03/M04 Q1024     RMK 1CU025 5CU040 A3025=,
20180130_100000.002,0,RJDC,,,,0,20180130100000,-1,-1,-1,-1,999,-1,1,-1,-1,-1,-1,,9999,0,0,2,FEW 25   BKN 35,1,3,-1,4,1024,RJDC 301000Z VRB01KT 9999 FEW025 BKN035 03/M04 Q1024 RMK     1CU025 5CU035 A3025=,
20180130_110000.002,0,RJDC,,,,0,20180130110000,-1,-1,-1,-1,10,-1,4,-1,-1,-1,-1,,9999,0,0,2,FEW 30   SCT 40,1,2,-1,4,1024,RJDC 301100Z 01004KT 9999 FEW030 SCT040 02/M04 Q1024 RMK     1CU030 4CU040 A3026=,
20180130_120000.002,0,RJDC,,,,0,20180130120000,-1,-1,-1,-1,340,-1,2,-1,-1,-1,-1,,9999,0,0,3,FEW 30   SCT 40   BKN 180,1,1,-1,4,1025,RJDC 301200Z 34002KT 9999 FEW030 SCT040 BKN180 01/M04 Q1025     RMK 1CU030 3CU040 5AC180 A3028=,
20180130_213000.001,0,RJDC,,,,0,20180130210000,-1,-1,-1,-1,40,-1,2,-1,-1,-1,-1,,9999,0,0,2,FEW 30   SCT 40,-1,3,-1,5,1027,RJDC 302130Z 04002KT 9999 FEW030 SCT040 M03/M05 Q1027 RMK     1CU030 3CU040 A3033=,
20180130_220000.002,0,RJDC,,,,0,20180130220000,-1,-1,-1,-1,60,-1,3,-1,-1,-1,-1,,9999,0,0,2,FEW 30   SCT -9999,-1,3,-1,4,1027,RJDC 302200Z 06003KT 9999 FEW030 SCT/// M03/M04 Q1027 RMK     1CU030 A3033=,
20180130_230000.002,0,RJDC,,,,0,20180130230000,-1,-1,-1,-1,60,-1,4,-1,-1,-1,-1,,9999,0,0,2,FEW 30   BKN -9999,-1,1,-1,3,1027,RJDC 302300Z 06004KT 9999 FEW030 BKN/// M01/M03 Q1027 RMK     1CU030 A3034=,
20180131_000000.002,0,RJDC,,,,0,20180131000000,-1,-1,-1,-1,50,-1,4,-1,-1,-1,-1,,9999,0,0,2,FEW 20   BKN -9999,1,1,-1,1,1027,RJDC 310000Z 05004KT 9999 FEW020 BKN/// 01/M01 Q1027 RMK     1CU020 A3034=,
20180131_010000.002,0,RJDC,,,,0,20180131010000,-1,-1,-1,-1,150,-1,3,-1,-1,110,190,,9999,0,0,2,FEW 30   BKN -9999,1,3,-1,1,1028,RJDC 310100Z 15003KT 110V190 9999 FEW030 BKN/// 03/M01 Q1028     RMK 1CU030 A3036=,
20180131_020000.002,0,RJDC,,,,0,20180131020000,-1,-1,-1,-1,999,-1,2,-1,-1,-1,-1,,9999,0,0,2,FEW 30   BKN -9999,1,4,1,0,1027,RJDC 310200Z VRB02KT 9999 FEW030 BKN/// 04/00 Q1027 RMK 1CU030     A3034=,
20180131_030000.002,0,RJDC,,,,0,20180131030000,-1,-1,-1,-1,160,-1,5,-1,-1,-1,-1,,9999,0,0,2,FEW 30   BKN -9999,1,5,1,1,1026,RJDC 310300Z 16005KT 9999 FEW030 BKN/// 05/01 Q1026 RMK 1CU030     A3030=,
20180131_040000.002,0,RJDC,,,,0,20180131040000,-1,-1,-1,-1,150,-1,5,-1,-1,-1,-1,,9999,0,0,2,FEW 30   BKN -9999,1,6,-1,0,1025,RJDC 310400Z 15005KT 9999 FEW030 BKN/// 06/M00 Q1025 RMK     1CU030 A3027=,
20180131_050000.002,0,RJDC,,,,0,20180131050000,-1,-1,-1,-1,170,-1,5,-1,-1,-1,-1,,9999,0,0,2,FEW 30   BKN -9999,1,6,-1,1,1024,RJDC 310500Z 17005KT 9999 FEW030 BKN/// 06/M01 Q1024 RMK     1CU030 A3025=,
20180131_060000.002,0,RJDC,,,,0,20180131060000,-1,-1,-1,-1,170,-1,3,-1,-1,120,220,,9999,0,0,3,FEW 30   SCT 120   BKN -9999,1,6,-1,1,1024,RJDC 310600Z 17003KT 120V220 9999 FEW030 SCT120 BKN/// 06/M01     Q1024 RMK 1CU030 4AC120 A3025=,
20180131_070000.003,0,RJDC,,,,0,20180131070000,-1,-1,-1,-1,150,-1,3,-1,-1,-1,-1,,9999,0,0,2,FEW 30   BKN 130,1,6,-1,0,1024,RJDC 310700Z 15003KT 9999 FEW030 BKN130 06/M00 Q1024 RMK     1CU030 5AC130 A3025=,
20180131_080000.003,0,RJDC,,,,0,20180131080000,-1,-1,-1,-1,90,-1,3,-1,-1,-1,-1,,9999,0,0,2,FEW 30   BKN 130,1,6,-1,0,1024,RJDC 310800Z 09003KT 9999 FEW030 BKN130 06/M00 Q1024 RMK     1CU030 5AC130 A3025=,
20180131_090000.002,0,RJDC,,,,0,20180131090000,-1,-1,-1,-1,999,-1,1,-1,-1,-1,-1,,9999,0,0,2,FEW 30   BKN 130,1,5,1,0,1024,RJDC 310900Z VRB01KT 9999 FEW030 BKN130 05/00 Q1024 RMK 1CU030     5AC130 A3026=,
20180131_100000.002,0,RJDC,,,,0,20180131100000,-1,-1,-1,-1,130,-1,2,-1,-1,-1,-1,,9999,0,0,3,FEW 30   SCT 130   BKN -9999,1,5,1,0,1024,RJDC 311000Z 13002KT 9999 FEW030 SCT130 BKN/// 05/00 Q1024 RMK     1CU030 4AC130 A3024=,
20180131_110000.002,0,RJDC,,,,0,20180131110000,-1,-1,-1,-1,999,-1,1,-1,-1,-1,-1,,9999,0,0,3,FEW 30   SCT 120   BKN -9999,1,4,1,1,1024,RJDC 311100Z VRB01KT 9999 FEW030 SCT120 BKN/// 04/01 Q1024 RMK     1CU030 4AC120 A3024=,
20180131_120000.002,0,RJDC,,,,0,20180131120000,-1,-1,-1,-1,360,-1,4,-1,-1,-1,-1,,9999,0,0,3,FEW 25   BKN 110   BKN -9999,1,4,1,0,1024,RJDC 311200Z 36004KT 9999 FEW025 BKN110 BKN/// 04/00 Q1024 RMK     1CU025 5AC110 A3025=,
20180131_213000.001,0,RJDC,,,,0,20180131210000,-1,-1,-1,-1,170,-1,3,-1,-1,80,240,,9999,0,0,3,FEW 10   SCT 20   BKN 100,1,4,1,1,1024,RJDC 312130Z 17003KT 080V240 9999 FEW010 SCT020 BKN100 04/01     Q1024 RMK 1CU010 4CU020 7AC100 A3024=,
20180131_220000.002,0,RJDC,,,,0,20180131220000,-1,-1,-1,-1,190,-1,3,-1,-1,-1,-1,,9999,0,0,3,SCT 10   BKN 20   BKN 50,1,4,1,1,1024,RJDC 312200Z 19003KT 9999 SCT010 BKN020 BKN050 04/01 Q1024 RMK     3CU010 5CU020 7SC050 A3026=,
20180131_230000.002,0,RJDC,,,,0,20180131230000,-1,-1,-1,-1,30,-1,3,-1,-1,-1,-1,,9999,0,0,3,FEW 10   BKN 20   BKN 40,1,4,1,0,1024,RJDC 312300Z 03003KT 9999 FEW010 BKN020 BKN040 04/00 Q1024 RMK     1CU010 5CU020 7CU040 A3026=,
20180201_000000.003,0,RJDC,,,,0,20180201000000,-1,-1,-1,-1,999,-1,1,-1,-1,-1,-1,,9999,0,1,3,FEW 10   SCT 20   BKN 30,1,4,1,2,1024,RJDC 010000Z VRB01KT 9999 -SHRA FEW010 SCT020 BKN030 04/02     Q1024 RMK 1CU010 3CU020 6CU030 A3026=,- RA SH
20180201_010000.002,0,RJDC,,,,0,20180201010000,-1,-1,-1,-1,999,-1,2,-1,-1,-1,-1,,9999,0,0,3,FEW 10   SCT 20   BKN 120,1,5,1,2,1024,RJDC 010100Z VRB02KT 9999 FEW010 SCT020 BKN120 05/02 Q1024 RMK     1CU010 4CU020 7AC120 A3026=,
20180201_020000.002,0,RJDC,,,,0,20180201020000,-1,-1,-1,-1,90,-1,3,-1,-1,-1,-1,,9999,0,0,2,FEW 15   BKN 25,1,5,1,1,1024,RJDC 010200Z 09003KT 9999 FEW015 BKN025 05/01 Q1024 RMK 1CU015     6CU025 A3026=,
20180201_030000.003,0,RJDC,,,,0,20180201030000,-1,-1,-1,-1,100,-1,7,-1,-1,-1,-1,,9999,0,0,3,FEW 20   SCT 25   BKN 120,1,6,1,1,1024,RJDC 010300Z 10007KT 9999 FEW020 SCT025 BKN120 06/01 Q1024 RMK     1CU020 4CU025 7AC120 A3024=,
20180201_040000.003,0,RJDC,,,,0,20180201040000,-1,-1,-1,-1,140,-1,6,-1,-1,-1,-1,,9999,0,0,2,FEW 20   SCT 30,1,6,1,1,1023,RJDC 010400Z 14006KT 9999 FEW020 SCT030 06/01 Q1023 RMK 1CU020     3CU030 A3021=,
20180201_050000.002,0,RJDC,,,,0,20180201050000,-1,-1,-1,-1,210,-1,6,-1,-1,180,240,,9999,0,0,2,FEW 20   BKN 30,1,7,1,1,1022,RJDC 010500Z 21006KT 180V240 9999 FEW020 BKN030 07/01 Q1022     RMK 1CU020 5CU030 A3021=,
20180201_060000.002,0,RJDC,,,,0,20180201060000,-1,-1,-1,-1,220,-1,6,-1,-1,-1,-1,,9999,0,0,2,FEW 25   BKN 45,1,7,1,1,1022,RJDC 010600Z 22006KT 9999 FEW025 BKN045 07/01 Q1022 RMK 1CU025     5SC045 A3021=,
20180201_070000.002,0,RJDC,,,,0,20180201070000,-1,-1,-1,-1,220,-1,6,-1,-1,-1,-1,,9999,0,0,2,FEW 20   SCT 45,1,7,1,2,1023,RJDC 010700Z 22006KT 9999 FEW020 SCT045 07/02 Q1023 RMK 1CU020     3SC045 A3021=,
20180201_080000.002,0,RJDC,,,,0,20180201080000,-1,-1,-1,-1,250,-1,6,-1,-1,-1,-1,,9999,0,0,1,FEW 30,1,6,1,2,1023,RJDC 010800Z 25006KT 9999 FEW030 06/02 Q1023 RMK 2CU030 A3022=,
20180201_090000.002,0,RJDC,,,,0,20180201090000,-1,-1,-1,-1,240,-1,6,-1,-1,-1,-1,,9999,0,0,1,FEW 30,1,5,1,2,1024,RJDC 010900Z 24006KT 9999 FEW030 05/02 Q1024 RMK 2CU030 A3024=,
20180201_100000.002,0,RJDC,,,,0,20180201100000,-1,-1,-1,-1,999,-1,2,-1,-1,-1,-1,,9999,0,0,1,FEW 20,1,5,1,2,1024,RJDC 011000Z VRB02KT 9999 FEW020 05/02 Q1024 RMK 1CU020 A3024=,
20180201_110000.002,0,RJDC,,,,0,20180201110000,-1,-1,-1,-1,999,-1,2,-1,-1,-1,-1,,9999,0,0,1,FEW 20,1,4,1,2,1024,RJDC 011100Z VRB02KT 9999 FEW020 04/02 Q1024 RMK 1CU020 A3026=,
20180201_120000.002,0,RJDC,,,,0,20180201120000,-1,-1,-1,-1,330,-1,4,-1,-1,-1,-1,,9999,0,0,1,FEW 20,1,3,1,1,1024,RJDC 011200Z 33004KT 9999 FEW020 03/01 Q1024 RMK 1CU020 A3024=,
20180201_213000.001,0,RJDC,,,,0,20180201210000,-1,-1,-1,-1,330,-1,5,-1,-1,-1,-1,,9999,0,0,2,FEW 35   BKN -9999,1,1,-1,0,1023,RJDC 012130Z 33005KT 9999 FEW035 BKN/// 01/M00 Q1023 RMK     1CU035 A3021=,
20180201_220000.002,0,RJDC,,,,0,20180201220000,-1,-1,-1,-1,360,-1,2,-1,-1,-1,-1,,9999,0,0,2,FEW 25   BKN -9999,1,1,-1,0,1023,RJDC 012200Z 36002KT 9999 FEW025 BKN/// 01/M00 Q1023 RMK     1CU025 A3023=,
20180201_230000.003,0,RJDC,,,,0,20180201230000,-1,-1,-1,-1,300,-1,3,-1,-1,260,320,,9999,0,0,3,FEW 25   SCT 40   BKN -9999,1,1,1,0,1024,RJDC 012300Z 30003KT 260V320 9999 FEW025 SCT040 BKN/// 01/00     Q1024 RMK 1CU025 4CU040 A3025=,
20180202_000000.002,0,RJDC,,,,0,20180202000000,-1,-1,-1,-1,0,-1,0,-1,-1,-1,-1,,9999,0,0,2,FEW 25   BKN -9999,1,4,1,2,1024,RJDC 020000Z 00000KT 9999 FEW025 BKN/// 04/02 Q1024 RMK 1CU025     A3026=,
20180202_010000.002,0,RJDC,,,,0,20180202010000,-1,-1,-1,-1,250,-1,4,-1,-1,220,300,,9999,0,0,3,FEW 25   SCT 170   BKN -9999,1,6,1,4,1024,RJDC 020100Z 25004KT 220V300 9999 FEW025 SCT170 BKN/// 06/04     Q1024 RMK 1CU025 3AC170 A3026=,
20180202_020000.002,0,RJDC,,,,0,20180202020000,-1,-1,-1,-1,250,-1,5,-1,-1,-1,-1,,9999,0,0,3,FEW 25   SCT 50   BKN 150,1,7,1,4,1024,RJDC 020200Z 25005KT 9999 FEW025 SCT050 BKN150 07/04 Q1024 RMK     1CU025 3SC050 6AC150 A3026=,
20180202_030000.002,0,RJDC,,,,0,20180202030000,-1,-1,-1,-1,230,-1,6,-1,-1,-1,-1,,9999,0,0,3,FEW 25   SCT 50   BKN 170,1,8,1,4,1023,RJDC 020300Z 23006KT 9999 FEW025 SCT050 BKN170 08/04 Q1023 RMK     1CU025 3SC050 6AC170 A3022=,
20180202_040000.002,0,RJDC,,,,0,20180202040000,-1,-1,-1,-1,230,-1,7,-1,-1,-1,-1,,9999,0,0,3,FEW 25   BKN 50   BKN 170,1,8,1,3,1022,RJDC 020400Z 23007KT 9999 FEW025 BKN050 BKN170 08/03 Q1022 RMK     1CU025 6SC050 7AC170 A3020=,
20180202_050000.001,0,RJDC,,,,0,20180202050000,-1,-1,-1,-1,260,-1,7,-1,-1,-1,-1,,9999,0,0,3,FEW 25   BKN 50   BKN 170,1,8,1,2,1022,RJDC 020500Z 26007KT 9999 FEW025 BKN050 BKN170 08/02 Q1022 RMK     1CU025 6SC050 7AC170 A3019=,
20180202_060000.002,0,RJDC,,,,0,20180202060000,-1,-1,-1,-1,250,-1,9,-1,-1,-1,-1,,9999,0,0,3,FEW 25   SCT 35   BKN 50,1,8,1,4,1022,RJDC 020600Z 25009KT 9999 FEW025 SCT035 BKN050 08/04 Q1022 RMK     1CU025 3CU035 5SC050 A3019=,
20180202_070000.002,0,RJDC,,,,0,20180202070000,-1,-1,-1,-1,260,-1,7,-1,-1,-1,-1,,9999,0,0,3,FEW 20   SCT 35   BKN 50,1,8,1,4,1022,RJDC 020700Z 26007KT 9999 FEW020 SCT035 BKN050 08/04 Q1022 RMK     1CU020 4CU035 6SC050 A3018=,
20180202_080000.002,0,RJDC,,,,0,20180202080000,-1,-1,-1,-1,280,-1,5,-1,-1,250,320,,9999,0,0,3,FEW 20   SCT 30   BKN 40,1,8,1,4,1021,RJDC 020800Z 28005KT 250V320 9999 FEW020 SCT030 BKN040 08/04     Q1021 RMK 1CU020 4CU030 5CU040 A3017=,
20180202_090000.002,0,RJDC,,,,0,20180202090000,-1,-1,-1,-1,330,-1,3,-1,-1,280,40,,9999,0,0,3,FEW 15   SCT 30   BKN 40,1,7,1,4,1022,RJDC 020900Z 33003KT 280V040 9999 FEW015 SCT030 BKN040 07/04     Q1022 RMK 1CU015 4CU030 6CU040 A3018=,
20180202_100000.003,0,RJDC,,,,0,20180202100000,-1,-1,-1,-1,350,-1,4,-1,-1,290,30,,9999,0,0,3,FEW 15   SCT 30   BKN 40,1,6,1,3,1022,RJDC 021000Z 35004KT 290V030 9999 FEW015 SCT030 BKN040 06/03     Q1022 RMK 1CU015 3CU030 6CU040 A3018=,
20180202_110000.002,0,RJDC,,,,0,20180202110000,-1,-1,-1,-1,350,-1,3,-1,-1,270,60,,9999,0,0,3,FEW 20   SCT 40   BKN 50,1,6,1,3,1022,RJDC 021100Z 35003KT 270V060 9999 FEW020 SCT040 BKN050 06/03     Q1022 RMK 1CU020 4CU040 7SC050 A3019=,
20180202_120000.002,0,RJDC,,,,0,20180202120000,-1,-1,-1,-1,999,-1,2,-1,-1,-1,-1,,9999,0,1,3,FEW 20   SCT 30   BKN 40,1,6,1,3,1022,RJDC 021200Z VRB02KT 9999 -SHRA FEW020 SCT030 BKN040 06/03     Q1022 RMK 1CU020 4CU030 6CU040 A3019=,- RA SH
20180202_213000.001,0,RJDC,,,,0,20180202210000,-1,-1,-1,-1,340,-1,4,-1,-1,260,30,,9999,0,0,2,FEW 15   BKN 25,1,4,1,1,1021,RJDC 022130Z 34004KT 260V030 9999 FEW015 BKN025 04/01 Q1021     RMK 1CU015 6CU025 A3018=,
20180202_220000.002,0,RJDC,,,,0,20180202220000,-1,-1,-1,-1,360,-1,3,-1,-1,300,60,,9999,0,0,3,FEW 20   SCT 30   BKN 60,1,3,1,1,1021,RJDC 022200Z 36003KT 300V060 9999 FEW020 SCT030 BKN060 03/01     Q1021 RMK 1CU020 3CU030 6SC060 A3017=,
20180202_230000.003,0,RJDC,,,,0,20180202230000,-1,-1,-1,-1,999,-1,1,-1,-1,-1,-1,,9999,0,0,3,FEW 20   SCT 60   BKN -9999,1,3,1,1,1021,RJDC 022300Z VRB01KT 9999 FEW020 SCT060 BKN/// 03/01 Q1021 RMK     1CU020 3SC060 A3018=,
20180203_000000.002,0,RJDC,,,,0,20180203000000,-1,-1,-1,-1,999,-1,2,-1,-1,-1,-1,,9999,0,0,2,FEW 25   BKN -9999,1,4,1,1,1022,RJDC 030000Z VRB02KT 9999 FEW025 BKN/// 04/01 Q1022 RMK 1CU025     A3018=,
20180203_010000.003,0,RJDC,,,,0,20180203010000,-1,-1,-1,-1,999,-1,1,-1,-1,-1,-1,,9999,0,0,2,FEW 25   BKN -9999,1,6,-1,0,1021,RJDC 030100Z VRB01KT 9999 FEW025 BKN/// 06/M00 Q1021 RMK     1CU025 A3017=,
20180203_020000.002,0,RJDC,,,,0,20180203020000,-1,-1,-1,-1,310,-1,6,-1,-1,230,40,,9999,0,0,3,FEW 25   BKN 40   BKN -9999,1,7,-1,4,1021,RJDC 030200Z 31006KT 230V040 9999 FEW025 BKN040 BKN/// 07/M04     Q1021 RMK 1CU025 5CU040 A3016=,
20180203_030000.002,0,RJDC,,,,0,20180203030000,-1,-1,-1,-1,290,-1,8,-1,-1,260,340,,9999,0,0,2,FEW 25   BKN 45,1,8,-1,4,1020,RJDC 030300Z 29008KT 260V340 9999 FEW025 BKN045 08/M04 Q1020     RMK 1CU025 6CU045 A3014=,
20180203_040000.002,0,RJDC,,,,0,20180203040000,-1,-1,-1,-1,280,-1,11,-1,-1,250,320,,9999,0,1,3,FEW 25   SCT 35   BKN 45,1,7,-1,4,1020,RJDC 030400Z 28011KT 250V320 9999 -SHRA FEW025 SCT035 BKN045     07/M04 Q1020 RMK 1CU025 3CU035 6CU045 A3013=,- RA SH
20180203_050000.002,0,RJDC,,,,0,20180203050000,-1,-1,-1,-1,310,-1,6,-1,-1,250,30,,9999,0,0,3,FEW 25   SCT 35   BKN 45,1,7,-1,3,1020,RJDC 030500Z 31006KT 250V030 9999 FEW025 SCT035 BKN045 07/M03     Q1020 RMK 1CU025 3CU035 6CU045 A3012=,
20180203_060000.002,0,RJDC,,,,0,20180203060000,-1,-1,-1,-1,260,-1,13,-1,-1,-1,-1,,9999,0,1,3,FEW 15   SCT 30   BKN 40,1,6,-1,1,1020,RJDC 030600Z 26013KT 9999 -SHRA FEW015 SCT030 BKN040 06/M01     Q1020 RMK 1CU015 4CU030 7CU040 A3012=,- RA SH
20180203_070000.003,0,RJDC,,,,0,20180203070000,-1,-1,-1,-1,290,-1,10,-1,-1,260,330,,6000,0,1,3,FEW 8   SCT 15   BKN 20,1,3,1,2,1020,RJDC 030700Z 29010KT 260V330 6000 -SHRA FEW008 SCT015 BKN020     03/02 Q1020 RMK 1ST008 3CU015 6CU020 A3013=,- RA SH
20180203_080000.002,0,RJDC,,,,0,20180203080000,-1,-1,-1,-1,300,-1,5,-1,-1,240,20,,9999,0,0,3,FEW 10   SCT 20   BKN 30,1,4,1,2,1020,RJDC 030800Z 30005KT 240V020 9999 FEW010 SCT020 BKN030 04/02     Q1020 RMK 1CU010 3CU020 5CU030 A3013=,
20180203_090000.002,0,RJDC,,,,0,20180203090000,-1,-1,-1,-1,270,-1,12,-1,-1,-1,-1,,9999,0,1,3,FEW 10   SCT 20   BKN 30,1,3,1,0,1020,RJDC 030900Z 27012KT 9999 -SHRA FEW010 SCT020 BKN030 03/00     Q1020 RMK 1CU010 3CU020 6CU030 A3014=,- RA SH
20180203_100000.002,0,RJDC,,,,0,20180203100000,-1,-1,-1,-1,310,-1,7,-1,-1,250,360,,9999,0,0,3,FEW 20   SCT 30   BKN 40,1,4,-1,2,1020,RJDC 031000Z 31007KT 250V360 9999 FEW020 SCT030 BKN040 04/M02     Q1020 RMK 1CU020 3CU030 5CU040 A3015=,
20180203_110000.002,0,RJDC,,,,0,20180203110000,-1,-1,-1,-1,320,-1,3,-1,-1,250,20,,9999,0,0,2,FEW 30   SCT 40,1,3,-1,2,1021,RJDC 031100Z 32003KT 250V020 9999 FEW030 SCT040 03/M02 Q1021     RMK 1CU030 4CU040 A3015=,
20180203_120000.002,0,RJDC,,,,0,20180203120000,-1,-1,-1,-1,280,-1,9,-1,19,250,330,,9999,0,0,2,FEW 30   SCT 45,1,4,-1,5,1021,RJDC 031200Z 28009G19KT 250V330 9999 FEW030 SCT045 04/M05     Q1021 RMK 1CU030 4CU045 A3015=,
20180203_213000.001,0,RJDC,,,,0,20180203210000,-1,-1,-1,-1,310,-1,9,-1,19,250,10,,7000,0,1,3,FEW 10   SCT 30   BKN 40,-1,2,-1,5,1022,RJDC 032130Z 31009G19KT 250V010 7000 -SHSN FEW010 SCT030     BKN040 M02/M05 Q1022 RMK 2CU010 3CU030 6CU040 A3018=,- SN SH
20180203_220000.002,0,RJDC,,,,0,20180203220000,-1,-1,-1,-1,320,-1,6,-1,-1,270,30,,4000,0,1,3,FEW 10   SCT 30   BKN 40,-1,2,-1,6,1022,RJDC 032200Z 32006KT 270V030 4000 -SHSN FEW010 SCT030 BKN040     M02/M06 Q1022 RMK 2CU010 4CU030 6CU040 A3019=,- SN SH
20180203_230000.002,0,RJDC,,,,0,20180203230000,-1,-1,-1,-1,310,-1,5,-1,-1,220,30,,6000,0,1,3,FEW 10   SCT 25   BKN 35,-1,1,-1,5,1022,RJDC 032300Z 31005KT 220V030 6000 -SHSN FEW010 SCT025 BKN035     M01/M05 Q1022 RMK 1CU010 4CU025 6CU035 A3020=,- SN SH
20180204_000000.002,0,RJDC,,,,0,20180204000000,-1,-1,-1,-1,290,-1,8,-1,19,250,20,,1000,1,1,3,FEW 7   SCT 10   BKN 15,-1,2,-1,4,1022,RJDC 040000Z 29008G19KT 250V020 1000 R07/1300VP1800N -SHSN     FEW007 SCT010 BKN015 M02/M04 Q1022 RMK 1ST007 3CU010           6CU015 A3020=,- SN SH
20180204_010000.002,0,RJDC,,,,0,20180204010000,-1,-1,-1,-1,310,-1,8,-1,18,250,10,,9999,0,1,3,FEW 5   SCT 10   BKN 40,-1,0,-1,5,1022,RJDC 040100Z 31008G18KT 250V010 9999 -SHSN FEW005 SCT010     BKN040 M00/M05 Q1022 RMK 1ST005 3CU010 6CU040 A3020=,- SN SH
20180204_020000.002,0,RJDC,,,,0,20180204020000,-1,-1,-1,-1,290,-1,14,-1,-1,250,350,,9999,0,1,3,FEW 10   SCT 30   BKN 40,1,1,-1,6,1022,RJDC 040200Z 29014KT 250V350 9999 -SHSN FEW010 SCT030 BKN040     01/M06 Q1022 RMK 1CU010 3CU030 5CU040 A3018=,- SN SH
20180204_030000.002,0,RJDC,,,,0,20180204030000,-1,-1,-1,-1,300,-1,10,-1,20,250,350,,9999,0,1,3,FEW 8   SCT 10   BKN 30,-1,1,-1,5,1022,RJDC 040300Z 30010G20KT 250V350 9999 -SHSN FEW008 SCT010     BKN030 M01/M05 Q1022 RMK 1ST008 3CU010 5CU030 A3018=,- SN SH
20180204_040000.002,0,RJDC,,,,0,20180204040000,-1,-1,-1,-1,310,-1,9,-1,20,270,360,,8000,0,1,3,FEW 10   SCT 20   BKN 30,1,0,-1,5,1021,RJDC 040400Z 31009G20KT 270V360 8000 -SHSN FEW010 SCT020     BKN030 00/M05 Q1021 RMK 1CU010 3CU020 5CU030 A3016=,- SN SH
20180204_050000.002,0,RJDC,,,,0,20180204050000,-1,-1,-1,-1,280,-1,11,-1,21,250,60,,9999,0,1,3,FEW 10   SCT 15   BKN 25,1,1,-1,5,1021,RJDC 040500Z 28011G21KT 250V060 9999 -SHSN FEW010 SCT015     BKN025 01/M05 Q1021 RMK 1CU010 3CU015 6CU025 A3015=,- SN SH
20180204_060000.002,0,RJDC,,,,0,20180204060000,-1,-1,-1,-1,290,-1,11,-1,-1,240,350,,9999,0,0,3,FEW 10   SCT 20   BKN 35,1,1,-1,7,1021,RJDC 040600Z 29011KT 240V350 9999 FEW010 SCT020 BKN035 01/M07     Q1021 RMK 1CU010 3CU020 6CU035 A3016=,
20180204_070000.002,0,RJDC,,,,0,20180204070000,-1,-1,-1,-1,280,-1,10,-1,21,260,320,,9999,0,1,3,FEW 10   SCT 25   BKN 40,1,1,-1,7,1021,RJDC 040700Z 28010G21KT 260V320 9999 VCSH FEW010 SCT025 BKN040     01/M07 Q1021 RMK 1CU010 3CU025 6CU040 A3015=,VC SH
20180204_080000.002,0,RJDC,,,,0,20180204080000,-1,-1,-1,-1,280,-1,11,-1,22,260,320,,9999,0,1,3,FEW 20   SCT 30   BKN 40,1,1,-1,7,1021,RJDC 040800Z 28011G22KT 260V320 9999 -SHSN FEW020 SCT030     BKN040 01/M07 Q1021 RMK 1CU020 3CU030 6CU040 A3016=,- SN SH
20180204_090000.002,0,RJDC,,,,0,20180204090000,-1,-1,-1,-1,300,-1,7,-1,-1,250,20,,9999,0,1,3,FEW 20   SCT 30   BKN 40,1,0,-1,7,1021,RJDC 040900Z 30007KT 250V020 9999 -SHSN FEW020 SCT030 BKN040     00/M07 Q1021 RMK 1CU020 3CU030 6CU040 A3017=,- SN SH
20180204_100000.002,0,RJDC,,,,0,20180204100000,-1,-1,-1,-1,290,-1,9,-1,19,260,350,,9999,0,1,3,FEW 25   SCT 35   BKN 45,1,1,-1,7,1022,RJDC 041000Z 29009G19KT 260V350 9999 -SHSN FEW025 SCT035     BKN045 01/M07 Q1022 RMK 1CU025 3CU035 6CU045 A3018=,- SN SH
20180204_110000.003,0,RJDC,,,,0,20180204110000,-1,-1,-1,-1,290,-1,6,-1,-1,240,350,,9999,0,0,2,FEW 25   BKN 40,1,1,-1,7,1022,RJDC 041100Z 29006KT 240V350 9999 FEW025 BKN040 01/M07 Q1022     RMK 1CU025 7CU040 A3019=,
20180204_120000.002,0,RJDC,,,,0,20180204120000,-1,-1,-1,-1,280,-1,12,-1,-1,260,330,,9999,0,1,3,FEW 25   SCT 35   BKN 45,1,2,-1,9,1022,RJDC 041200Z 28012KT 260V330 9999 -SHSN FEW025 SCT035 BKN045     02/M09 Q1022 RMK 1CU025 3CU035 6CU045 A3019=,- SN SH
20180204_213000.001,0,RJDC,,,,0,20180204210000,-1,-1,-1,-1,300,-1,8,-1,-1,250,350,,9999,0,1,3,FEW 15   SCT 40   BKN 60,-1,1,-1,9,1022,RJDC 042130Z 30008KT 250V350 9999 -SHSN FEW015 SCT040 BKN060     M01/M09 Q1022 RMK 1CU015 3CU040 5SC060 A3019=,- SN SH
20180204_220000.002,0,RJDC,,,,0,20180204220000,-1,-1,-1,-1,290,-1,10,-1,-1,250,360,,9999,0,1,3,FEW 20   SCT 40   BKN 60,-1,1,-1,10,1022,RJDC 042200Z 29010KT 250V360 9999 VCSH FEW020 SCT040 BKN060     M01/M10 Q1022 RMK 1CU020 3CU040 5SC060 A3020=,VC SH
20180204_230000.002,0,RJDC,,,,0,20180204230000,-1,-1,-1,-1,290,-1,11,-1,-1,250,330,,9999,0,1,3,FEW 15   SCT 40   BKN 60,-1,0,-1,9,1023,RJDC 042300Z 29011KT 250V330 9999 VCSH FEW015 SCT040 BKN060     M00/M09 Q1023 RMK 1CU015 4CU040 6SC060 A3021=,VC SH
20180205_000000.003,0,RJDC,,,,0,20180205000000,-1,-1,-1,-1,280,-1,14,-1,-1,250,350,,9999,0,1,3,FEW 15   SCT 30   BKN 40,1,0,-1,10,1023,RJDC 050000Z 28014KT 250V350 9999 VCSH FEW015 SCT030 BKN040     00/M10 Q1023 RMK 1CU015 3CU030 5CU040 A3021=,VC SH
20180205_010000.002,0,RJDC,,,,0,20180205010000,-1,-1,-1,-1,320,-1,10,-1,23,240,10,,9999,0,1,3,FEW 15   SCT 30   BKN 40,1,0,-1,8,1023,RJDC 050100Z 32010G23KT 240V010 9999 -SHSN FEW015 SCT030     BKN040 00/M08 Q1023 RMK 1CU015 3CU030 5CU040 A3021=,- SN SH
20180205_020000.002,0,RJDC,,,,0,20180205020000,-1,-1,-1,-1,280,-1,13,-1,-1,230,310,,9999,0,1,3,FEW 15   SCT 30   BKN 45,1,0,-1,10,1023,RJDC 050200Z 28013KT 230V310 9999 -SHSN FEW015 SCT030 BKN045     00/M10 Q1023 RMK 1CU015 3CU030 6CU045 A3021=,- SN SH
