20180101_000000.003,0,RJDM,,,,0,20180101000000,-1,-1,-1,-1,-1,-1,-1,-1,-1,-1,-1,,-1,0,0,0,,0,-1,0,-1,-1,RJDM 010000Z NIL=,
20180101_010000.003,0,RJDM,,,,0,20180101010000,-1,-1,-1,-1,-1,-1,-1,-1,-1,-1,-1,,-1,0,0,0,,0,-1,0,-1,-1,RJDM 010100Z NIL=,
20180101_020000.003,0,RJDM,,,,0,20180101020000,-1,-1,-1,-1,-1,-1,-1,-1,-1,-1,-1,,-1,0,0,0,,0,-1,0,-1,-1,RJDM 010200Z NIL=,
20180101_030000.003,0,RJDM,,,,0,20180101030000,-1,-1,-1,-1,-1,-1,-1,-1,-1,-1,-1,,-1,0,0,0,,0,-1,0,-1,-1,RJDM 010300Z NIL=,
20180101_040000.003,0,RJDM,,,,0,20180101040000,-1,-1,-1,-1,-1,-1,-1,-1,-1,-1,-1,,-1,0,0,0,,0,-1,0,-1,-1,RJDM 010400Z NIL=,
20180101_050000.003,0,RJDM,,,,0,20180101050000,-1,-1,-1,-1,-1,-1,-1,-1,-1,-1,-1,,-1,0,0,0,,0,-1,0,-1,-1,RJDM 010500Z NIL=,
20180101_060000.003,0,RJDM,,,,0,20180101060000,-1,-1,-1,-1,-1,-1,-1,-1,-1,-1,-1,,-1,0,0,0,,0,-1,0,-1,-1,RJDM 010600Z NIL=,
20180101_070000.003,0,RJDM,,,,0,20180101070000,-1,-1,-1,-1,-1,-1,-1,-1,-1,-1,-1,,-1,0,0,0,,0,-1,0,-1,-1,RJDM 010700Z NIL=,
20180101_080000.003,0,RJDM,,,,0,20180101080000,-1,-1,-1,-1,-1,-1,-1,-1,-1,-1,-1,,-1,0,0,0,,0,-1,0,-1,-1,RJDM 010800Z NIL=,
20180101_090000.003,0,RJDM,,,,0,20180101090000,-1,-1,-1,-1,-1,-1,-1,-1,-1,-1,-1,,-1,0,0,0,,0,-1,0,-1,-1,RJDM 010900Z NIL=,
20180101_100000.003,0,RJDM,,,,0,20180101100000,-1,-1,-1,-1,-1,-1,-1,-1,-1,-1,-1,,-1,0,0,0,,0,-1,0,-1,-1,RJDM 011000Z NIL=,
20180101_110000.003,0,RJDM,,,,0,20180101110000,-1,-1,-1,-1,-1,-1,-1,-1,-1,-1,-1,,-1,0,0,0,,0,-1,0,-1,-1,RJDM 011100Z NIL=,
20180101_120000.003,0,RJDM,,,,0,20180101120000,-1,-1,-1,-1,-1,-1,-1,-1,-1,-1,-1,,-1,0,0,0,,0,-1,0,-1,-1,RJDM 011200Z NIL=,
20180101_130000.003,0,RJDM,,,,0,20180101130000,-1,-1,-1,-1,-1,-1,-1,-1,-1,-1,-1,,-1,0,0,0,,0,-1,0,-1,-1,RJDM 011300Z NIL=,
20180101_140000.003,0,RJDM,,,,0,20180101140000,-1,-1,-1,-1,-1,-1,-1,-1,-1,-1,-1,,-1,0,0,0,,0,-1,0,-1,-1,RJDM 011400Z NIL=,
20180101_150000.003,0,RJDM,,,,0,20180101150000,-1,-1,-1,-1,-1,-1,-1,-1,-1,-1,-1,,-1,0,0,0,,0,-1,0,-1,-1,RJDM 011500Z NIL=,
20180101_160000.003,0,RJDM,,,,0,20180101160000,-1,-1,-1,-1,-1,-1,-1,-1,-1,-1,-1,,-1,0,0,0,,0,-1,0,-1,-1,RJDM 011600Z NIL=,
20180101_170000.003,0,RJDM,,,,0,20180101170000,-1,-1,-1,-1,-1,-1,-1,-1,-1,-1,-1,,-1,0,0,0,,0,-1,0,-1,-1,RJDM 011700Z NIL=,
20180101_180000.004,0,RJDM,,,,0,20180101180000,-1,-1,-1,-1,-1,-1,-1,-1,-1,-1,-1,,-1,0,0,0,,0,-1,0,-1,-1,RJDM 011800Z NIL=,
20180101_190000.004,0,RJDM,,,,0,20180101190000,-1,-1,-1,-1,-1,-1,-1,-1,-1,-1,-1,,-1,0,0,0,,0,-1,0,-1,-1,RJDM 011900Z NIL=,
20180101_200000.004,0,RJDM,,,,0,20180101200000,-1,-1,-1,-1,-1,-1,-1,-1,-1,-1,-1,,-1,0,0,0,,0,-1,0,-1,-1,RJDM 012000Z NIL=,
20180101_210000.003,0,RJDM,,,,0,20180101210000,-1,-1,-1,-1,-1,-1,-1,-1,-1,-1,-1,,-1,0,0,0,,0,-1,0,-1,-1,RJDM 012100Z NIL=,
20180101_220000.003,0,RJDM,,,,0,20180101220000,-1,-1,-1,-1,-1,-1,-1,-1,-1,-1,-1,,-1,0,0,0,,0,-1,0,-1,-1,RJDM 012200Z NIL=,
20180101_230000.003,0,RJDM,,,,0,20180101230000,-1,-1,-1,-1,-1,-1,-1,-1,-1,-1,-1,,-1,0,0,0,,0,-1,0,-1,-1,RJDM 012300Z NIL=,
20180102_000000.004,0,RJDM,,,,0,20180102000000,-1,-1,-1,-1,-1,-1,-1,-1,-1,-1,-1,,-1,0,0,0,,0,-1,0,-1,-1,RJDM 020000Z NIL=,
20180102_010000.004,0,RJDM,,,,0,20180102010000,-1,-1,-1,-1,-1,-1,-1,-1,-1,-1,-1,,-1,0,0,0,,0,-1,0,-1,-1,RJDM 020100Z NIL=,
20180102_020000.003,0,RJDM,,,,0,20180102020000,-1,-1,-1,-1,-1,-1,-1,-1,-1,-1,-1,,-1,0,0,0,,0,-1,0,-1,-1,RJDM 020200Z NIL=,
20180102_030000.003,0,RJDM,,,,0,20180102030000,-1,-1,-1,-1,-1,-1,-1,-1,-1,-1,-1,,-1,0,0,0,,0,-1,0,-1,-1,RJDM 020300Z NIL=,
20180102_040000.003,0,RJDM,,,,0,20180102040000,-1,-1,-1,-1,-1,-1,-1,-1,-1,-1,-1,,-1,0,0,0,,0,-1,0,-1,-1,RJDM 020400Z NIL=,
20180102_050000.003,0,RJDM,,,,0,20180102050000,-1,-1,-1,-1,-1,-1,-1,-1,-1,-1,-1,,-1,0,0,0,,0,-1,0,-1,-1,RJDM 020500Z NIL=,
20180102_060000.003,0,RJDM,,,,0,20180102060000,-1,-1,-1,-1,-1,-1,-1,-1,-1,-1,-1,,-1,0,0,0,,0,-1,0,-1,-1,RJDM 020600Z NIL=,
20180102_070000.003,0,RJDM,,,,0,20180102070000,-1,-1,-1,-1,-1,-1,-1,-1,-1,-1,-1,,-1,0,0,0,,0,-1,0,-1,-1,RJDM 020700Z NIL=,
20180102_080000.003,0,RJDM,,,,0,20180102080000,-1,-1,-1,-1,-1,-1,-1,-1,-1,-1,-1,,-1,0,0,0,,0,-1,0,-1,-1,RJDM 020800Z NIL=,
20180102_090000.003,0,RJDM,,,,0,20180102090000,-1,-1,-1,-1,-1,-1,-1,-1,-1,-1,-1,,-1,0,0,0,,0,-1,0,-1,-1,RJDM 020900Z NIL=,
20180102_100000.003,0,RJDM,,,,0,20180102100000,-1,-1,-1,-1,-1,-1,-1,-1,-1,-1,-1,,-1,0,0,0,,0,-1,0,-1,-1,RJDM 021000Z NIL=,
20180102_110000.003,0,RJDM,,,,0,20180102110000,-1,-1,-1,-1,-1,-1,-1,-1,-1,-1,-1,,-1,0,0,0,,0,-1,0,-1,-1,RJDM 021100Z NIL=,
20180102_120000.003,0,RJDM,,,,0,20180102120000,-1,-1,-1,-1,-1,-1,-1,-1,-1,-1,-1,,-1,0,0,0,,0,-1,0,-1,-1,RJDM 021200Z NIL=,
20180102_130000.004,0,RJDM,,,,0,20180102130000,-1,-1,-1,-1,-1,-1,-1,-1,-1,-1,-1,,-1,0,0,0,,0,-1,0,-1,-1,RJDM 021300Z NIL=,
20180102_140000.004,0,RJDM,,,,0,20180102140000,-1,-1,-1,-1,-1,-1,-1,-1,-1,-1,-1,,-1,0,0,0,,0,-1,0,-1,-1,RJDM 021400Z NIL=,
20180102_150000.003,0,RJDM,,,,0,20180102150000,-1,-1,-1,-1,-1,-1,-1,-1,-1,-1,-1,,-1,0,0,0,,0,-1,0,-1,-1,RJDM 021500Z NIL=,
20180102_160000.003,0,RJDM,,,,0,20180102160000,-1,-1,-1,-1,-1,-1,-1,-1,-1,-1,-1,,-1,0,0,0,,0,-1,0,-1,-1,RJDM 021600Z NIL=,
20180102_170000.003,0,RJDM,,,,0,20180102170000,-1,-1,-1,-1,-1,-1,-1,-1,-1,-1,-1,,-1,0,0,0,,0,-1,0,-1,-1,RJDM 021700Z NIL=,
20180102_180000.004,0,RJDM,,,,0,20180102180000,-1,-1,-1,-1,-1,-1,-1,-1,-1,-1,-1,,-1,0,0,0,,0,-1,0,-1,-1,RJDM 021800Z NIL=,
20180102_190000.003,0,RJDM,,,,0,20180102190000,-1,-1,-1,-1,-1,-1,-1,-1,-1,-1,-1,,-1,0,0,0,,0,-1,0,-1,-1,RJDM 021900Z NIL=,
20180102_200000.004,0,RJDM,,,,0,20180102200000,-1,-1,-1,-1,-1,-1,-1,-1,-1,-1,-1,,-1,0,0,0,,0,-1,0,-1,-1,RJDM 022000Z NIL=,
20180102_210000.003,0,RJDM,,,,0,20180102210000,-1,-1,-1,-1,-1,-1,-1,-1,-1,-1,-1,,-1,0,0,0,,0,-1,0,-1,-1,RJDM 022100Z NIL=,
20180102_220000.003,0,RJDM,,,,0,20180102220000,-1,-1,-1,-1,-1,-1,-1,-1,-1,-1,-1,,-1,0,0,0,,0,-1,0,-1,-1,RJDM 022200Z NIL=,
20180102_230000.003,0,RJDM,,,,0,20180102230000,-1,-1,-1,-1,-1,-1,-1,-1,-1,-1,-1,,-1,0,0,0,,0,-1,0,-1,-1,RJDM 022300Z NIL=,
20180103_000000.003,0,RJDM,,,,0,20180103000000,-1,-1,-1,-1,-1,-1,-1,-1,-1,-1,-1,,-1,0,0,0,,0,-1,0,-1,-1,RJDM 030000Z NIL=,
20180103_010000.003,0,RJDM,,,,0,20180103010000,-1,-1,-1,-1,-1,-1,-1,-1,-1,-1,-1,,-1,0,0,0,,0,-1,0,-1,-1,RJDM 030100Z NIL=,
20180103_020000.003,0,RJDM,,,,0,20180103020000,-1,-1,-1,-1,-1,-1,-1,-1,-1,-1,-1,,-1,0,0,0,,0,-1,0,-1,-1,RJDM 030200Z NIL=,
20180103_030000.004,0,RJDM,,,,0,20180103030000,-1,-1,-1,-1,-1,-1,-1,-1,-1,-1,-1,,-1,0,0,0,,0,-1,0,-1,-1,RJDM 030300Z NIL=,
20180103_040000.003,0,RJDM,,,,0,20180103040000,-1,-1,-1,-1,-1,-1,-1,-1,-1,-1,-1,,-1,0,0,0,,0,-1,0,-1,-1,RJDM 030400Z NIL=,
20180103_050000.003,0,RJDM,,,,0,20180103050000,-1,-1,-1,-1,-1,-1,-1,-1,-1,-1,-1,,-1,0,0,0,,0,-1,0,-1,-1,RJDM 030500Z NIL=,
20180103_060000.003,0,RJDM,,,,0,20180103060000,-1,-1,-1,-1,-1,-1,-1,-1,-1,-1,-1,,-1,0,0,0,,0,-1,0,-1,-1,RJDM 030600Z NIL=,
20180103_070000.003,0,RJDM,,,,0,20180103070000,-1,-1,-1,-1,-1,-1,-1,-1,-1,-1,-1,,-1,0,0,0,,0,-1,0,-1,-1,RJDM 030700Z NIL=,
20180103_080000.003,0,RJDM,,,,0,20180103080000,-1,-1,-1,-1,-1,-1,-1,-1,-1,-1,-1,,-1,0,0,0,,0,-1,0,-1,-1,RJDM 030800Z NIL=,
20180103_090000.003,0,RJDM,,,,0,20180103090000,-1,-1,-1,-1,-1,-1,-1,-1,-1,-1,-1,,-1,0,0,0,,0,-1,0,-1,-1,RJDM 030900Z NIL=,
20180103_100000.003,0,RJDM,,,,0,20180103100000,-1,-1,-1,-1,-1,-1,-1,-1,-1,-1,-1,,-1,0,0,0,,0,-1,0,-1,-1,RJDM 031000Z NIL=,
20180103_110000.003,0,RJDM,,,,0,20180103110000,-1,-1,-1,-1,-1,-1,-1,-1,-1,-1,-1,,-1,0,0,0,,0,-1,0,-1,-1,RJDM 031100Z NIL=,
20180103_120000.003,0,RJDM,,,,0,20180103120000,-1,-1,-1,-1,-1,-1,-1,-1,-1,-1,-1,,-1,0,0,0,,0,-1,0,-1,-1,RJDM 031200Z NIL=,
20180103_130000.004,0,RJDM,,,,0,20180103130000,-1,-1,-1,-1,-1,-1,-1,-1,-1,-1,-1,,-1,0,0,0,,0,-1,0,-1,-1,RJDM 031300Z NIL=,
20180103_140000.003,0,RJDM,,,,0,20180103140000,-1,-1,-1,-1,-1,-1,-1,-1,-1,-1,-1,,-1,0,0,0,,0,-1,0,-1,-1,RJDM 031400Z NIL=,
20180103_150000.003,0,RJDM,,,,0,20180103150000,-1,-1,-1,-1,-1,-1,-1,-1,-1,-1,-1,,-1,0,0,0,,0,-1,0,-1,-1,RJDM 031500Z NIL=,
20180103_160000.003,0,RJDM,,,,0,20180103160000,-1,-1,-1,-1,-1,-1,-1,-1,-1,-1,-1,,-1,0,0,0,,0,-1,0,-1,-1,RJDM 031600Z NIL=,
20180103_170000.003,0,RJDM,,,,0,20180103170000,-1,-1,-1,-1,-1,-1,-1,-1,-1,-1,-1,,-1,0,0,0,,0,-1,0,-1,-1,RJDM 031700Z NIL=,
20180103_180000.003,0,RJDM,,,,0,20180103180000,-1,-1,-1,-1,-1,-1,-1,-1,-1,-1,-1,,-1,0,0,0,,0,-1,0,-1,-1,RJDM 031800Z NIL=,
20180103_190000.003,0,RJDM,,,,0,20180103190000,-1,-1,-1,-1,-1,-1,-1,-1,-1,-1,-1,,-1,0,0,0,,0,-1,0,-1,-1,RJDM 031900Z NIL=,
20180103_200000.003,0,RJDM,,,,0,20180103200000,-1,-1,-1,-1,-1,-1,-1,-1,-1,-1,-1,,-1,0,0,0,,0,-1,0,-1,-1,RJDM 032000Z NIL=,
20180103_210000.004,0,RJDM,,,,0,20180103210000,-1,-1,-1,-1,-1,-1,-1,-1,-1,-1,-1,,-1,0,0,0,,0,-1,0,-1,-1,RJDM 032100Z NIL=,
20180103_220000.003,0,RJDM,,,,0,20180103220000,-1,-1,-1,-1,30,-1,3,-1,-1,-1,-1,,9999,0,0,1,FEW 60,1,1,-1,3,1025,RJDM 032200Z 03003KT 9999 FEW060 01/M03 Q1025 RMK 1SC060     A3028=,
20180103_230000.003,0,RJDM,,,,0,20180103230000,-1,-1,-1,-1,50,-1,4,-1,-1,-1,-1,,9999,0,0,1,FEW 60,1,1,-1,2,1025,RJDM 032300Z 05004KT 9999 FEW060 01/M02 Q1025 RMK 1SC060     A3029=,
20180104_000000.003,0,RJDM,,,,0,20180104000000,-1,-1,-1,-1,60,-1,3,-1,-1,-1,-1,,9999,0,0,2,FEW 60   BKN 150,1,3,-1,2,1025,RJDM 040000Z 06003KT 9999 FEW060 BKN150 03/M02 Q1025 RMK     1SC060 6AC150 A3029=,
20180104_010000.003,0,RJDM,,,,0,20180104010000,-1,-1,-1,-1,80,-1,2,-1,-1,-1,-1,,9999,0,0,2,FEW 60   BKN 150,1,5,-1,2,1025,RJDM 040100Z 08002KT 9999 FEW060 BKN150 05/M02 Q1025 RMK     1SC060 6AC150 A3028=,
20180104_020000.005,0,RJDM,,,,0,20180104020000,-1,-1,-1,-1,110,-1,1,-1,-1,-1,-1,,9999,0,0,2,FEW 120   BKN 150,1,6,-1,2,1025,RJDM 040200Z 11001KT 9999 FEW120 BKN150 06/M02 Q1025 RMK     1AC120 6AC150 A3027=,
20180104_030000.004,0,RJDM,,,,0,20180104030000,-1,-1,-1,-1,210,-1,1,-1,-1,-1,-1,,9999,0,0,2,FEW 120   BKN 150,1,7,-1,2,1023,RJDM 040300Z 21001KT 9999 FEW120 BKN150 07/M02 Q1023 RMK     1AC120 6AC150 A3023=,
20180104_040000.003,0,RJDM,,,,0,20180104040000,-1,-1,-1,-1,140,-1,2,-1,-1,-1,-1,,9999,0,0,2,FEW 40   BKN 150,1,9,-1,2,1022,RJDM 040400Z 14002KT 9999 FEW040 BKN150 09/M02 Q1022 RMK     1CU040 6AC150 A3019=,
20180104_050000.003,0,RJDM,,,,0,20180104050000,-1,-1,-1,-1,170,-1,2,-1,-1,-1,-1,,9999,0,0,2,FEW 40   BKN 150,1,9,-1,2,1022,RJDM 040500Z 17002KT 9999 FEW040 BKN150 09/M02 Q1022 RMK     1CU040 6AC150 A3018=,
20180104_060000.004,0,RJDM,,,,0,20180104060000,-1,-1,-1,-1,220,-1,2,-1,-1,-1,-1,,9999,0,0,2,FEW 40   BKN 150,1,9,-1,2,1021,RJDM 040600Z 22002KT 9999 FEW040 BKN150 09/M02 Q1021 RMK     1CU040 6AC150 A3016=,
20180104_070000.003,0,RJDM,,,,0,20180104070000,-1,-1,-1,-1,270,-1,1,-1,-1,-1,-1,,9999,0,0,2,FEW 40   BKN 150,1,9,-1,2,1021,RJDM 040700Z 27001KT 9999 FEW040 BKN150 09/M02 Q1021 RMK     1CU040 6AC150 A3017=,
20180104_080000.003,0,RJDM,,,,0,20180104080000,-1,-1,-1,-1,310,-1,1,-1,-1,-1,-1,,9999,0,0,2,FEW 40   BKN 150,1,8,-1,2,1021,RJDM 040800Z 31001KT 9999 FEW040 BKN150 08/M02 Q1021 RMK     1CU040 6AC150 A3017=,
20180104_090000.003,0,RJDM,,,,0,20180104090000,-1,-1,-1,-1,-1,-1,-1,-1,-1,-1,-1,,-1,0,0,0,,0,-1,0,-1,-1,RJDM 040900Z NIL=,
20180104_100000.003,0,RJDM,,,,0,20180104100000,-1,-1,-1,-1,-1,-1,-1,-1,-1,-1,-1,,-1,0,0,0,,0,-1,0,-1,-1,RJDM 041000Z NIL=,
20180104_110000.003,0,RJDM,,,,0,20180104110000,-1,-1,-1,-1,-1,-1,-1,-1,-1,-1,-1,,-1,0,0,0,,0,-1,0,-1,-1,RJDM 041100Z NIL=,
20180104_120000.004,0,RJDM,,,,0,20180104120000,-1,-1,-1,-1,-1,-1,-1,-1,-1,-1,-1,,-1,0,0,0,,0,-1,0,-1,-1,RJDM 041200Z NIL=,
20180104_130000.003,0,RJDM,,,,0,20180104130000,-1,-1,-1,-1,-1,-1,-1,-1,-1,-1,-1,,-1,0,0,0,,0,-1,0,-1,-1,RJDM 041300Z NIL=,
20180104_140000.003,0,RJDM,,,,0,20180104140000,-1,-1,-1,-1,-1,-1,-1,-1,-1,-1,-1,,-1,0,0,0,,0,-1,0,-1,-1,RJDM 041400Z NIL=,
20180104_150000.004,0,RJDM,,,,0,20180104150000,-1,-1,-1,-1,-1,-1,-1,-1,-1,-1,-1,,-1,0,0,0,,0,-1,0,-1,-1,RJDM 041500Z NIL=,
20180104_160000.004,0,RJDM,,,,0,20180104160000,-1,-1,-1,-1,-1,-1,-1,-1,-1,-1,-1,,-1,0,0,0,,0,-1,0,-1,-1,RJDM 041600Z NIL=,
20180104_170000.004,0,RJDM,,,,0,20180104170000,-1,-1,-1,-1,-1,-1,-1,-1,-1,-1,-1,,-1,0,0,0,,0,-1,0,-1,-1,RJDM 041700Z NIL=,
20180104_180000.003,0,RJDM,,,,0,20180104180000,-1,-1,-1,-1,-1,-1,-1,-1,-1,-1,-1,,-1,0,0,0,,0,-1,0,-1,-1,RJDM 041800Z NIL=,
20180104_190000.004,0,RJDM,,,,0,20180104190000,-1,-1,-1,-1,-1,-1,-1,-1,-1,-1,-1,,-1,0,0,0,,0,-1,0,-1,-1,RJDM 041900Z NIL=,
20180104_200000.003,0,RJDM,,,,0,20180104200000,-1,-1,-1,-1,-1,-1,-1,-1,-1,-1,-1,,-1,0,0,0,,0,-1,0,-1,-1,RJDM 042000Z NIL=,
20180104_210000.003,0,RJDM,,,,0,20180104210000,-1,-1,-1,-1,-1,-1,-1,-1,-1,-1,-1,,-1,0,0,0,,0,-1,0,-1,-1,RJDM 042100Z NIL=,
20180104_220000.003,0,RJDM,,,,0,20180104220000,-1,-1,-1,-1,340,-1,2,-1,-1,-1,-1,,9999,0,1,3,FEW 25   SCT 30   BKN 40,1,4,1,2,1018,RJDM 042200Z 34002KT 9999 -SHRA FEW025 SCT030 BKN040 04/02     Q1018 RMK 1CU025 3CU030 7SC040 A3007=,- RA SH
20180104_230000.003,0,RJDM,,,,0,20180104230000,-1,-1,-1,-1,60,-1,2,-1,-1,-1,-1,,7000,0,1,3,FEW 5   SCT 30   BKN 40,1,4,1,1,1018,RJDM 042300Z 06002KT 7000 -SHRA FEW005 SCT030 BKN040 04/01     Q1018 RMK 1ST005 4CU030 6SC040 A3008=,- RA SH
20180105_000000.004,0,RJDM,,,,0,20180105000000,-1,-1,-1,-1,90,-1,2,-1,-1,-1,-1,,6000,0,1,3,FEW 5   BKN 30   BKN 40,1,4,1,1,1018,RJDM 050000Z 09002KT 6000 -SHRA FEW005 BKN030 BKN040 04/01     Q1018 RMK 1ST005 5CU030 6SC040 A3008=,- RA SH
20180105_010000.004,0,RJDM,,,,0,20180105010000,-1,-1,-1,-1,120,-1,1,-1,-1,-1,-1,,9999,0,1,3,FEW 8   BKN 40   BKN 50,1,4,1,2,1019,RJDM 050100Z 12001KT 9999 -SHRA FEW008 BKN040 BKN050 04/02     Q1019 RMK 1ST008 5CU040 7SC050 A3009=,- RA SH
20180105_020000.003,0,RJDM,,,,0,20180105020000,-1,-1,-1,-1,140,-1,1,-1,-1,-1,-1,,8000,0,1,3,FEW 5   BKN 45   BKN 100,1,4,1,2,1019,RJDM 050200Z 14001KT 8000 -SHRA FEW005 BKN045 BKN100 04/02     Q1019 RMK 1ST005 5CU045 7AC100 A3009=,- RA SH
20180105_030000.003,0,RJDM,,,,0,20180105030000,-1,-1,-1,-1,240,-1,1,-1,-1,-1,-1,,8000,0,0,2,FEW 8   BKN 100,1,5,1,2,1017,RJDM 050300Z 24001KT 8000 FEW008 BKN100 05/02 Q1017 RMK 1ST008     7AC100 A3005=,
20180105_040000.003,0,RJDM,,,,0,20180105040000,-1,-1,-1,-1,170,-1,2,-1,-1,-1,-1,,9000,0,0,3,FEW 10   SCT 25   BKN 70,1,6,1,2,1016,RJDM 050400Z 17002KT 9000 FEW010 SCT025 BKN070 06/02 Q1016 RMK     1CU010 3CU025 6AC070 A3002=,
20180105_050000.003,0,RJDM,,,,0,20180105050000,-1,-1,-1,-1,210,-1,2,-1,-1,-1,-1,,9000,0,0,3,FEW 12   SCT 15   BKN 25,1,7,1,3,1016,RJDM 050500Z 21002KT 9000 FEW012 SCT015 BKN025 07/03 Q1016 RMK     1CU012 3CU015 5CU025 A3001=,
20180105_060000.003,0,RJDM,,,,0,20180105060000,-1,-1,-1,-1,230,-1,2,-1,-1,-1,-1,,8000,0,0,3,FEW 15   SCT 25   BKN 40,1,7,1,3,1016,RJDM 050600Z 23002KT 8000 FEW015 SCT025 BKN040 07/03 Q1016 RMK     1CU015 3CU025 6CU040 A3000=,
20180105_070000.003,0,RJDM,,,,0,20180105070000,-1,-1,-1,-1,200,-1,5,-1,-1,-1,-1,,9000,0,0,3,FEW 15   SCT 25   BKN 40,1,7,1,3,1016,RJDM 050700Z 20005KT 9000 FEW015 SCT025 BKN040 07/03 Q1016 RMK     1CU015 3CU025 6CU040 A3000=,
20180105_080000.003,0,RJDM,,,,0,20180105080000,-1,-1,-1,-1,220,-1,3,-1,-1,-1,-1,,9000,0,1,3,FEW 15   SCT 25   BKN 40,1,6,1,3,1016,RJDM 050800Z 22003KT 9000 -SHRA FEW015 SCT025 BKN040 06/03     Q1016 RMK 1CU015 3CU025 6CU040 A3000=,- RA SH
20180105_090000.003,0,RJDM,,,,0,20180105090000,-1,-1,-1,-1,-1,-1,-1,-1,-1,-1,-1,,-1,0,0,0,,0,-1,0,-1,-1,RJDM 050900Z NIL=,
20180105_100000.003,0,RJDM,,,,0,20180105100000,-1,-1,-1,-1,-1,-1,-1,-1,-1,-1,-1,,-1,0,0,0,,0,-1,0,-1,-1,RJDM 051000Z NIL=,
20180105_110000.003,0,RJDM,,,,0,20180105110000,-1,-1,-1,-1,-1,-1,-1,-1,-1,-1,-1,,-1,0,0,0,,0,-1,0,-1,-1,RJDM 051100Z NIL=,
20180105_120000.003,0,RJDM,,,,0,20180105120000,-1,-1,-1,-1,-1,-1,-1,-1,-1,-1,-1,,-1,0,0,0,,0,-1,0,-1,-1,RJDM 051200Z NIL=,
20180105_130000.003,0,RJDM,,,,0,20180105130000,-1,-1,-1,-1,-1,-1,-1,-1,-1,-1,-1,,-1,0,0,0,,0,-1,0,-1,-1,RJDM 051300Z NIL=,
20180105_140000.003,0,RJDM,,,,0,20180105140000,-1,-1,-1,-1,-1,-1,-1,-1,-1,-1,-1,,-1,0,0,0,,0,-1,0,-1,-1,RJDM 051400Z NIL=,
20180105_150000.003,0,RJDM,,,,0,20180105150000,-1,-1,-1,-1,-1,-1,-1,-1,-1,-1,-1,,-1,0,0,0,,0,-1,0,-1,-1,RJDM 051500Z NIL=,
20180105_160000.004,0,RJDM,,,,0,20180105160000,-1,-1,-1,-1,-1,-1,-1,-1,-1,-1,-1,,-1,0,0,0,,0,-1,0,-1,-1,RJDM 051600Z NIL=,
20180105_170000.003,0,RJDM,,,,0,20180105170000,-1,-1,-1,-1,-1,-1,-1,-1,-1,-1,-1,,-1,0,0,0,,0,-1,0,-1,-1,RJDM 051700Z NIL=,
20180105_180000.004,0,RJDM,,,,0,20180105180000,-1,-1,-1,-1,-1,-1,-1,-1,-1,-1,-1,,-1,0,0,0,,0,-1,0,-1,-1,RJDM 051800Z NIL=,
20180105_190000.003,0,RJDM,,,,0,20180105190000,-1,-1,-1,-1,-1,-1,-1,-1,-1,-1,-1,,-1,0,0,0,,0,-1,0,-1,-1,RJDM 051900Z NIL=,
20180105_200000.003,0,RJDM,,,,0,20180105200000,-1,-1,-1,-1,-1,-1,-1,-1,-1,-1,-1,,-1,0,0,0,,0,-1,0,-1,-1,RJDM 052000Z NIL=,
20180105_210000.004,0,RJDM,,,,0,20180105210000,-1,-1,-1,-1,-1,-1,-1,-1,-1,-1,-1,,-1,0,0,0,,0,-1,0,-1,-1,RJDM 052100Z NIL=,
20180105_220000.003,0,RJDM,,,,0,20180105220000,-1,-1,-1,-1,-1,-1,-1,-1,-1,-1,-1,,-1,0,0,0,,0,-1,0,-1,-1,RJDM 052200Z NIL=,
20180105_230000.003,0,RJDM,,,,0,20180105230000,-1,-1,-1,-1,-1,-1,-1,-1,-1,-1,-1,,-1,0,0,0,,0,-1,0,-1,-1,RJDM 052300Z NIL=,
20180106_000000.003,0,RJDM,,,,0,20180106000000,-1,-1,-1,-1,-1,-1,-1,-1,-1,-1,-1,,-1,0,0,0,,0,-1,0,-1,-1,RJDM 060000Z NIL=,
20180106_010000.003,0,RJDM,,,,0,20180106010000,-1,-1,-1,-1,-1,-1,-1,-1,-1,-1,-1,,-1,0,0,0,,0,-1,0,-1,-1,RJDM 060100Z NIL=,
20180106_020000.003,0,RJDM,,,,0,20180106020000,-1,-1,-1,-1,-1,-1,-1,-1,-1,-1,-1,,-1,0,0,0,,0,-1,0,-1,-1,RJDM 060200Z NIL=,
20180106_030000.003,0,RJDM,,,,0,20180106030000,-1,-1,-1,-1,-1,-1,-1,-1,-1,-1,-1,,-1,0,0,0,,0,-1,0,-1,-1,RJDM 060300Z NIL=,
20180106_040000.003,0,RJDM,,,,0,20180106040000,-1,-1,-1,-1,-1,-1,-1,-1,-1,-1,-1,,-1,0,0,0,,0,-1,0,-1,-1,RJDM 060400Z NIL=,
20180106_050000.003,0,RJDM,,,,0,20180106050000,-1,-1,-1,-1,-1,-1,-1,-1,-1,-1,-1,,-1,0,0,0,,0,-1,0,-1,-1,RJDM 060500Z NIL=,
20180106_060000.003,0,RJDM,,,,0,20180106060000,-1,-1,-1,-1,-1,-1,-1,-1,-1,-1,-1,,-1,0,0,0,,0,-1,0,-1,-1,RJDM 060600Z NIL=,
20180106_070000.003,0,RJDM,,,,0,20180106070000,-1,-1,-1,-1,-1,-1,-1,-1,-1,-1,-1,,-1,0,0,0,,0,-1,0,-1,-1,RJDM 060700Z NIL=,
20180106_080000.003,0,RJDM,,,,0,20180106080000,-1,-1,-1,-1,-1,-1,-1,-1,-1,-1,-1,,-1,0,0,0,,0,-1,0,-1,-1,RJDM 060800Z NIL=,
20180106_090000.003,0,RJDM,,,,0,20180106090000,-1,-1,-1,-1,-1,-1,-1,-1,-1,-1,-1,,-1,0,0,0,,0,-1,0,-1,-1,RJDM 060900Z NIL=,
20180106_100000.003,0,RJDM,,,,0,20180106100000,-1,-1,-1,-1,-1,-1,-1,-1,-1,-1,-1,,-1,0,0,0,,0,-1,0,-1,-1,RJDM 061000Z NIL=,
20180106_110000.003,0,RJDM,,,,0,20180106110000,-1,-1,-1,-1,-1,-1,-1,-1,-1,-1,-1,,-1,0,0,0,,0,-1,0,-1,-1,RJDM 061100Z NIL=,
20180106_120000.003,0,RJDM,,,,0,20180106120000,-1,-1,-1,-1,-1,-1,-1,-1,-1,-1,-1,,-1,0,0,0,,0,-1,0,-1,-1,RJDM 061200Z NIL=,
20180106_130000.005,0,RJDM,,,,0,20180106130000,-1,-1,-1,-1,-1,-1,-1,-1,-1,-1,-1,,-1,0,0,0,,0,-1,0,-1,-1,RJDM 061300Z NIL=,
20180106_140000.004,0,RJDM,,,,0,20180106140000,-1,-1,-1,-1,-1,-1,-1,-1,-1,-1,-1,,-1,0,0,0,,0,-1,0,-1,-1,RJDM 061400Z NIL=,
20180106_150000.003,0,RJDM,,,,0,20180106150000,-1,-1,-1,-1,-1,-1,-1,-1,-1,-1,-1,,-1,0,0,0,,0,-1,0,-1,-1,RJDM 061500Z NIL=,
20180106_160000.003,0,RJDM,,,,0,20180106160000,-1,-1,-1,-1,-1,-1,-1,-1,-1,-1,-1,,-1,0,0,0,,0,-1,0,-1,-1,RJDM 061600Z NIL=,
20180106_170000.003,0,RJDM,,,,0,20180106170000,-1,-1,-1,-1,-1,-1,-1,-1,-1,-1,-1,,-1,0,0,0,,0,-1,0,-1,-1,RJDM 061700Z NIL=,
20180106_180000.004,0,RJDM,,,,0,20180106180000,-1,-1,-1,-1,-1,-1,-1,-1,-1,-1,-1,,-1,0,0,0,,0,-1,0,-1,-1,RJDM 061800Z NIL=,
20180106_190000.003,0,RJDM,,,,0,20180106190000,-1,-1,-1,-1,-1,-1,-1,-1,-1,-1,-1,,-1,0,0,0,,0,-1,0,-1,-1,RJDM 061900Z NIL=,
20180106_200000.003,0,RJDM,,,,0,20180106200000,-1,-1,-1,-1,-1,-1,-1,-1,-1,-1,-1,,-1,0,0,0,,0,-1,0,-1,-1,RJDM 062000Z NIL=,
20180106_210000.003,0,RJDM,,,,0,20180106210000,-1,-1,-1,-1,-1,-1,-1,-1,-1,-1,-1,,-1,0,0,0,,0,-1,0,-1,-1,RJDM 062100Z NIL=,
20180106_220000.003,0,RJDM,,,,0,20180106220000,-1,-1,-1,-1,-1,-1,-1,-1,-1,-1,-1,,-1,0,0,0,,0,-1,0,-1,-1,RJDM 062200Z NIL=,
20180106_230000.003,0,RJDM,,,,0,20180106230000,-1,-1,-1,-1,-1,-1,-1,-1,-1,-1,-1,,-1,0,0,0,,0,-1,0,-1,-1,RJDM 062300Z NIL=,
20180107_000000.003,0,RJDM,,,,0,20180107000000,-1,-1,-1,-1,-1,-1,-1,-1,-1,-1,-1,,-1,0,0,0,,0,-1,0,-1,-1,RJDM 070000Z NIL=,
20180107_010000.004,0,RJDM,,,,0,20180107010000,-1,-1,-1,-1,-1,-1,-1,-1,-1,-1,-1,,-1,0,0,0,,0,-1,0,-1,-1,RJDM 070100Z NIL=,
20180107_020000.003,0,RJDM,,,,0,20180107020000,-1,-1,-1,-1,-1,-1,-1,-1,-1,-1,-1,,-1,0,0,0,,0,-1,0,-1,-1,RJDM 070200Z NIL=,
20180107_030000.003,0,RJDM,,,,0,20180107030000,-1,-1,-1,-1,-1,-1,-1,-1,-1,-1,-1,,-1,0,0,0,,0,-1,0,-1,-1,RJDM 070300Z NIL=,
20180107_040000.003,0,RJDM,,,,0,20180107040000,-1,-1,-1,-1,-1,-1,-1,-1,-1,-1,-1,,-1,0,0,0,,0,-1,0,-1,-1,RJDM 070400Z NIL=,
20180107_050000.003,0,RJDM,,,,0,20180107050000,-1,-1,-1,-1,-1,-1,-1,-1,-1,-1,-1,,-1,0,0,0,,0,-1,0,-1,-1,RJDM 070500Z NIL=,
20180107_060000.003,0,RJDM,,,,0,20180107060000,-1,-1,-1,-1,-1,-1,-1,-1,-1,-1,-1,,-1,0,0,0,,0,-1,0,-1,-1,RJDM 070600Z NIL=,
20180107_070000.003,0,RJDM,,,,0,20180107070000,-1,-1,-1,-1,-1,-1,-1,-1,-1,-1,-1,,-1,0,0,0,,0,-1,0,-1,-1,RJDM 070700Z NIL=,
20180107_080000.003,0,RJDM,,,,0,20180107080000,-1,-1,-1,-1,-1,-1,-1,-1,-1,-1,-1,,-1,0,0,0,,0,-1,0,-1,-1,RJDM 070800Z NIL=,
20180107_090000.003,0,RJDM,,,,0,20180107090000,-1,-1,-1,-1,-1,-1,-1,-1,-1,-1,-1,,-1,0,0,0,,0,-1,0,-1,-1,RJDM 070900Z NIL=,
20180107_100000.003,0,RJDM,,,,0,20180107100000,-1,-1,-1,-1,-1,-1,-1,-1,-1,-1,-1,,-1,0,0,0,,0,-1,0,-1,-1,RJDM 071000Z NIL=,
20180107_110000.003,0,RJDM,,,,0,20180107110000,-1,-1,-1,-1,-1,-1,-1,-1,-1,-1,-1,,-1,0,0,0,,0,-1,0,-1,-1,RJDM 071100Z NIL=,
20180107_120000.004,0,RJDM,,,,0,20180107120000,-1,-1,-1,-1,-1,-1,-1,-1,-1,-1,-1,,-1,0,0,0,,0,-1,0,-1,-1,RJDM 071200Z NIL=,
20180107_130000.004,0,RJDM,,,,0,20180107130000,-1,-1,-1,-1,-1,-1,-1,-1,-1,-1,-1,,-1,0,0,0,,0,-1,0,-1,-1,RJDM 071300Z NIL=,
20180107_140000.004,0,RJDM,,,,0,20180107140000,-1,-1,-1,-1,-1,-1,-1,-1,-1,-1,-1,,-1,0,0,0,,0,-1,0,-1,-1,RJDM 071400Z NIL=,
20180107_150000.003,0,RJDM,,,,0,20180107150000,-1,-1,-1,-1,-1,-1,-1,-1,-1,-1,-1,,-1,0,0,0,,0,-1,0,-1,-1,RJDM 071500Z NIL=,
20180107_160000.003,0,RJDM,,,,0,20180107160000,-1,-1,-1,-1,-1,-1,-1,-1,-1,-1,-1,,-1,0,0,0,,0,-1,0,-1,-1,RJDM 071600Z NIL=,
20180107_170000.003,0,RJDM,,,,0,20180107170000,-1,-1,-1,-1,-1,-1,-1,-1,-1,-1,-1,,-1,0,0,0,,0,-1,0,-1,-1,RJDM 071700Z NIL=,
20180107_180000.003,0,RJDM,,,,0,20180107180000,-1,-1,-1,-1,-1,-1,-1,-1,-1,-1,-1,,-1,0,0,0,,0,-1,0,-1,-1,RJDM 071800Z NIL=,
20180107_190000.004,0,RJDM,,,,0,20180107190000,-1,-1,-1,-1,-1,-1,-1,-1,-1,-1,-1,,-1,0,0,0,,0,-1,0,-1,-1,RJDM 071900Z NIL=,
20180107_200000.003,0,RJDM,,,,0,20180107200000,-1,-1,-1,-1,-1,-1,-1,-1,-1,-1,-1,,-1,0,0,0,,0,-1,0,-1,-1,RJDM 072000Z NIL=,
20180107_210000.004,0,RJDM,,,,0,20180107210000,-1,-1,-1,-1,-1,-1,-1,-1,-1,-1,-1,,-1,0,0,0,,0,-1,0,-1,-1,RJDM 072100Z NIL=,
20180107_220000.003,0,RJDM,,,,0,20180107220000,-1,-1,-1,-1,-1,-1,-1,-1,-1,-1,-1,,-1,0,0,0,,0,-1,0,-1,-1,RJDM 072200Z NIL=,
20180107_230000.003,0,RJDM,,,,0,20180107230000,-1,-1,-1,-1,-1,-1,-1,-1,-1,-1,-1,,-1,0,0,0,,0,-1,0,-1,-1,RJDM 072300Z NIL=,
20180108_000000.003,0,RJDM,,,,0,20180108000000,-1,-1,-1,-1,-1,-1,-1,-1,-1,-1,-1,,-1,0,0,0,,0,-1,0,-1,-1,RJDM 080000Z NIL=,
20180108_010000.003,0,RJDM,,,,0,20180108010000,-1,-1,-1,-1,-1,-1,-1,-1,-1,-1,-1,,-1,0,0,0,,0,-1,0,-1,-1,RJDM 080100Z NIL=,
20180108_020000.004,0,RJDM,,,,0,20180108020000,-1,-1,-1,-1,-1,-1,-1,-1,-1,-1,-1,,-1,0,0,0,,0,-1,0,-1,-1,RJDM 080200Z NIL=,
20180108_030000.003,0,RJDM,,,,0,20180108030000,-1,-1,-1,-1,-1,-1,-1,-1,-1,-1,-1,,-1,0,0,0,,0,-1,0,-1,-1,RJDM 080300Z NIL=,
20180108_040000.003,0,RJDM,,,,0,20180108040000,-1,-1,-1,-1,-1,-1,-1,-1,-1,-1,-1,,-1,0,0,0,,0,-1,0,-1,-1,RJDM 080400Z NIL=,
20180108_050000.003,0,RJDM,,,,0,20180108050000,-1,-1,-1,-1,-1,-1,-1,-1,-1,-1,-1,,-1,0,0,0,,0,-1,0,-1,-1,RJDM 080500Z NIL=,
20180108_060000.004,0,RJDM,,,,0,20180108060000,-1,-1,-1,-1,-1,-1,-1,-1,-1,-1,-1,,-1,0,0,0,,0,-1,0,-1,-1,RJDM 080600Z NIL=,
20180108_070000.003,0,RJDM,,,,0,20180108070000,-1,-1,-1,-1,-1,-1,-1,-1,-1,-1,-1,,-1,0,0,0,,0,-1,0,-1,-1,RJDM 080700Z NIL=,
20180108_080000.003,0,RJDM,,,,0,20180108080000,-1,-1,-1,-1,-1,-1,-1,-1,-1,-1,-1,,-1,0,0,0,,0,-1,0,-1,-1,RJDM 080800Z NIL=,
20180108_090000.003,0,RJDM,,,,0,20180108090000,-1,-1,-1,-1,-1,-1,-1,-1,-1,-1,-1,,-1,0,0,0,,0,-1,0,-1,-1,RJDM 080900Z NIL=,
20180108_100000.003,0,RJDM,,,,0,20180108100000,-1,-1,-1,-1,-1,-1,-1,-1,-1,-1,-1,,-1,0,0,0,,0,-1,0,-1,-1,RJDM 081000Z NIL=,
20180108_110000.003,0,RJDM,,,,0,20180108110000,-1,-1,-1,-1,-1,-1,-1,-1,-1,-1,-1,,-1,0,0,0,,0,-1,0,-1,-1,RJDM 081100Z NIL=,
20180108_120000.003,0,RJDM,,,,0,20180108120000,-1,-1,-1,-1,-1,-1,-1,-1,-1,-1,-1,,-1,0,0,0,,0,-1,0,-1,-1,RJDM 081200Z NIL=,
20180108_130000.004,0,RJDM,,,,0,20180108130000,-1,-1,-1,-1,-1,-1,-1,-1,-1,-1,-1,,-1,0,0,0,,0,-1,0,-1,-1,RJDM 081300Z NIL=,
20180108_140000.003,0,RJDM,,,,0,20180108140000,-1,-1,-1,-1,-1,-1,-1,-1,-1,-1,-1,,-1,0,0,0,,0,-1,0,-1,-1,RJDM 081400Z NIL=,
20180108_150000.003,0,RJDM,,,,0,20180108150000,-1,-1,-1,-1,-1,-1,-1,-1,-1,-1,-1,,-1,0,0,0,,0,-1,0,-1,-1,RJDM 081500Z NIL=,
20180108_160000.003,0,RJDM,,,,0,20180108160000,-1,-1,-1,-1,-1,-1,-1,-1,-1,-1,-1,,-1,0,0,0,,0,-1,0,-1,-1,RJDM 081600Z NIL=,
20180108_170000.003,0,RJDM,,,,0,20180108170000,-1,-1,-1,-1,-1,-1,-1,-1,-1,-1,-1,,-1,0,0,0,,0,-1,0,-1,-1,RJDM 081700Z NIL=,
20180108_180000.003,0,RJDM,,,,0,20180108180000,-1,-1,-1,-1,-1,-1,-1,-1,-1,-1,-1,,-1,0,0,0,,0,-1,0,-1,-1,RJDM 081800Z NIL=,
20180108_190000.003,0,RJDM,,,,0,20180108190000,-1,-1,-1,-1,-1,-1,-1,-1,-1,-1,-1,,-1,0,0,0,,0,-1,0,-1,-1,RJDM 081900Z NIL=,
20180108_200000.003,0,RJDM,,,,0,20180108200000,-1,-1,-1,-1,-1,-1,-1,-1,-1,-1,-1,,-1,0,0,0,,0,-1,0,-1,-1,RJDM 082000Z NIL=,
20180108_210000.004,0,RJDM,,,,0,20180108210000,-1,-1,-1,-1,280,-1,5,-1,-1,-1,-1,,9999,0,1,3,FEW 20   SCT 30   BKN 45,1,6,1,2,1010,RJDM 082100Z 28005KT 9999 -SHRA FEW020 SCT030 BKN045 06/02     Q1010 RMK 1CU020 3CU030 7SC045 A2985=,- RA SH
20180108_220000.003,0,RJDM,,,,0,20180108220000,-1,-1,-1,-1,260,-1,9,-1,-1,-1,-1,,9999,0,1,3,FEW 20   SCT 30   BKN 45,1,6,1,0,1011,RJDM 082200Z 26009KT 9999 -SHRA FEW020 SCT030 BKN045 06/00     Q1011 RMK 1CU020 3CU030 5CU045 A2988=,- RA SH
20180108_230000.004,0,RJDM,,,,0,20180108230000,-1,-1,-1,-1,270,-1,11,-1,21,-1,-1,,9999,0,1,3,FEW 20   SCT 30   BKN 45,1,6,-1,1,1013,RJDM 082300Z 27011G21KT 9999 -SHRA FEW020 SCT030 BKN045 06/M01     Q1013 RMK 1CU020 3CU030 5CU045 A2991=,- RA SH
20180109_000000.003,0,RJDM,,,,0,20180109000000,-1,-1,-1,-1,270,-1,8,-1,18,-1,-1,,9000,0,1,3,FEW 15   SCT 30   BKN 45,1,6,-1,0,1014,RJDM 090000Z 27008G18KT 9000 -SHRA FEW015 SCT030 BKN045 06/M00     Q1014 RMK 1CU015 3CU030 5CU045 A2994=,- RA SH
20180109_010000.003,0,RJDM,,,,0,20180109010000,-1,-1,-1,-1,280,-1,5,-1,-1,-1,-1,,9999,0,1,2,FEW 30   BKN 45,1,5,1,0,1014,RJDM 090100Z 28005KT 9999 -SHRA FEW030 BKN045 05/00 Q1014 RMK     2CU030 5CU045 A2995=,- RA SH
20180109_020000.003,0,RJDM,,,,0,20180109020000,-1,-1,-1,-1,260,-1,8,-1,-1,-1,-1,,9000,0,1,2,FEW 20   BKN 40,1,6,-1,1,1014,RJDM 090200Z 26008KT 9000 -SHRA FEW020 BKN040 06/M01 Q1014 RMK     1CU020 5CU040 A2996=,- RA SH
20180109_030000.003,0,RJDM,,,,0,20180109030000,-1,-1,-1,-1,270,-1,12,-1,27,-1,-1,,9999,0,0,2,FEW 25   BKN 45,1,7,-1,3,1014,RJDM 090300Z 27012G27KT 9999 FEW025 BKN045 07/M03 Q1014 RMK     1CU025 6CU045 A2994=,
20180109_040000.003,0,RJDM,,,,0,20180109040000,-1,-1,-1,-1,260,-1,13,-1,24,-1,-1,,9999,0,0,2,FEW 25   SCT 35,1,8,-1,3,1013,RJDM 090400Z 26013G24KT 9999 FEW025 SCT035 08/M03 Q1013 RMK     1CU025 3CU035 A2992=,
20180109_050000.003,0,RJDM,,,,0,20180109050000,-1,-1,-1,-1,320,-1,12,-1,22,-1,-1,,9999,0,1,2,FEW 9   BKN 30,1,5,-1,2,1013,RJDM 090500Z 32012G22KT 9999 -SHSN FEW009 BKN030 05/M02 Q1013     RMK 1ST009 6CU030 A2992 1000N=,- SN SH
20180109_060000.003,0,RJDM,,,,0,20180109060000,-1,-1,-1,-1,280,-1,5,-1,-1,-1,-1,,9999,0,0,2,FEW 25   BKN 40,1,6,-1,4,1013,RJDM 090600Z 28005KT 9999 FEW025 BKN040 06/M04 Q1013 RMK     1CU025 6CU040 A2992 MAX WIND 13KT=,
20180109_070000.003,0,RJDM,,,,0,20180109070000,-1,-1,-1,-1,270,-1,7,-1,-1,-1,-1,,9999,0,0,2,FEW 15   BKN 35,1,6,-1,4,1014,RJDM 090700Z 27007KT 9999 FEW015 BKN035 06/M04 Q1014 RMK     1CU015 5CU035 A2995=,
20180109_080000.003,0,RJDM,,,,0,20180109080000,-1,-1,-1,-1,240,-1,6,-1,-1,-1,-1,,9999,0,0,2,FEW 15   BKN 35,1,6,-1,3,1015,RJDM 090800Z 24006KT 9999 FEW015 BKN035 06/M03 Q1015 RMK     1CU015 6CU035 A2998=,
20180109_090000.003,0,RJDM,,,,0,20180109090000,-1,-1,-1,-1,-1,-1,-1,-1,-1,-1,-1,,-1,0,0,0,,0,-1,0,-1,-1,RJDM 090900Z NIL=,
20180109_100000.003,0,RJDM,,,,0,20180109100000,-1,-1,-1,-1,-1,-1,-1,-1,-1,-1,-1,,-1,0,0,0,,0,-1,0,-1,-1,RJDM 091000Z NIL=,
20180109_110000.003,0,RJDM,,,,0,20180109110000,-1,-1,-1,-1,-1,-1,-1,-1,-1,-1,-1,,-1,0,0,0,,0,-1,0,-1,-1,RJDM 091100Z NIL=,
20180109_120000.003,0,RJDM,,,,0,20180109120000,-1,-1,-1,-1,-1,-1,-1,-1,-1,-1,-1,,-1,0,0,0,,0,-1,0,-1,-1,RJDM 091200Z NIL=,
20180109_130000.003,0,RJDM,,,,0,20180109130000,-1,-1,-1,-1,-1,-1,-1,-1,-1,-1,-1,,-1,0,0,0,,0,-1,0,-1,-1,RJDM 091300Z NIL=,
20180109_140000.003,0,RJDM,,,,0,20180109140000,-1,-1,-1,-1,-1,-1,-1,-1,-1,-1,-1,,-1,0,0,0,,0,-1,0,-1,-1,RJDM 091400Z NIL=,
20180109_150000.003,0,RJDM,,,,0,20180109150000,-1,-1,-1,-1,-1,-1,-1,-1,-1,-1,-1,,-1,0,0,0,,0,-1,0,-1,-1,RJDM 091500Z NIL=,
20180109_160000.003,0,RJDM,,,,0,20180109160000,-1,-1,-1,-1,-1,-1,-1,-1,-1,-1,-1,,-1,0,0,0,,0,-1,0,-1,-1,RJDM 091600Z NIL=,
20180109_170000.003,0,RJDM,,,,0,20180109170000,-1,-1,-1,-1,-1,-1,-1,-1,-1,-1,-1,,-1,0,0,0,,0,-1,0,-1,-1,RJDM 091700Z NIL=,
20180109_180000.003,0,RJDM,,,,0,20180109180000,-1,-1,-1,-1,-1,-1,-1,-1,-1,-1,-1,,-1,0,0,0,,0,-1,0,-1,-1,RJDM 091800Z NIL=,
20180109_190000.004,0,RJDM,,,,0,20180109190000,-1,-1,-1,-1,-1,-1,-1,-1,-1,-1,-1,,-1,0,0,0,,0,-1,0,-1,-1,RJDM 091900Z NIL=,
20180109_200000.003,0,RJDM,,,,0,20180109200000,-1,-1,-1,-1,-1,-1,-1,-1,-1,-1,-1,,-1,0,0,0,,0,-1,0,-1,-1,RJDM 092000Z NIL=,
20180109_210000.003,0,RJDM,,,,0,20180109210000,-1,-1,-1,-1,300,-1,1,-1,-1,-1,-1,,9000,0,1,2,FEW 15   BKN 25,1,2,1,1,1015,RJDM 092100Z 30001KT 9000 -SHRA FEW015 BKN025 02/01 Q1015 RMK     1CU015 7CU025 A2999=,- RA SH
20180109_220000.003,0,RJDM,,,,0,20180109220000,-1,-1,-1,-1,170,-1,1,-1,-1,-1,-1,,9000,0,1,2,FEW 15   BKN 25,1,2,1,1,1015,RJDM 092200Z 17001KT 9000 -SHRA FEW015 BKN025 02/01 Q1015 RMK     1CU015 6CU025 A2998=,- RA SH
20180109_230000.003,0,RJDM,,,,0,20180109230000,-1,-1,-1,-1,280,-1,1,-1,-1,-1,-1,,9000,0,0,3,FEW 8   BKN 25   BKN 35,1,2,1,1,1015,RJDM 092300Z 28001KT 9000 FEW008 BKN025 BKN035 02/01 Q1015 RMK     1ST008 5CU025 6SC035 A2998=,
20180110_000000.003,0,RJDM,,,,0,20180110000000,-1,-1,-1,-1,200,-1,1,-1,-1,-1,-1,,6000,0,1,3,FEW 8   BKN 20   BKN 35,1,2,1,1,1015,RJDM 100000Z 20001KT 6000 -SHRA FEW008 BKN020 BKN035 02/01     Q1015 RMK 1ST008 6CU020 7SC035 A3000=,- RA SH
20180110_010000.003,0,RJDM,,,,0,20180110010000,-1,-1,-1,-1,210,-1,1,-1,-1,-1,-1,,4500,0,2,3,FEW 5   BKN 25   BKN 40,1,3,1,2,1016,RJDM 100100Z 21001KT 4500 -SHRA BR FEW005 BKN025 BKN040 03/02     Q1016 RMK 1ST005 6CU025 7SC040 A3000=,- RA SH; BR
20180110_020000.003,0,RJDM,,,,0,20180110020000,-1,-1,-1,-1,200,-1,2,-1,-1,-1,-1,,7000,0,1,3,FEW 8   SCT 25   BKN 40,1,4,1,3,1016,RJDM 100200Z 20002KT 7000 -SHRA FEW008 SCT025 BKN040 04/03     Q1016 RMK 1ST008 4CU025 6SC040 A3000=,- RA SH
20180110_030000.003,0,RJDM,,,,0,20180110030000,-1,-1,-1,-1,260,-1,7,-1,-1,-1,-1,,9000,0,1,3,FEW 10   SCT 25   BKN 40,1,5,1,3,1015,RJDM 100300Z 26007KT 9000 -SHRA FEW010 SCT025 BKN040 05/03     Q1015 RMK 1ST010 4CU025 6SC040 A3000=,- RA SH
20180110_040000.004,0,RJDM,,,,0,20180110040000,-1,-1,-1,-1,250,-1,7,-1,-1,-1,-1,,9999,0,1,3,FEW 10   SCT 25   BKN 45,1,5,1,2,1015,RJDM 100400Z 25007KT 9999 -SHRA FEW010 SCT025 BKN045 05/02     Q1015 RMK 1ST010 4CU025 6SC045 A2999=,- RA SH
20180110_050000.003,0,RJDM,,,,0,20180110050000,-1,-1,-1,-1,270,-1,12,-1,23,-1,-1,,9999,0,0,2,FEW 20   SCT 25,1,7,1,1,1015,RJDM 100500Z 27012G23KT 9999 FEW020 SCT025 07/01 Q1015 RMK     1CU020 3CU025 A2998=,
20180110_060000.003,0,RJDM,,,,0,20180110060000,-1,-1,-1,-1,270,-1,7,-1,-1,-1,-1,,7000,0,1,2,FEW 10   BKN 15,1,4,1,2,1016,RJDM 100600Z 27007KT 7000 -SHRA FEW010 BKN015 04/02 Q1016 RMK     1ST010 5CU015 A3000=,- RA SH
20180110_070000.003,0,RJDM,,,,0,20180110070000,-1,-1,-1,-1,270,-1,6,-1,-1,-1,-1,,7000,0,1,2,FEW 10   BKN 15,1,3,1,1,1016,RJDM 100700Z 27006KT 7000 -SHRA FEW010 BKN015 03/01 Q1016 RMK     1ST010 5CU015 A3001=,- RA SH
20180110_080000.003,0,RJDM,,,,0,20180110080000,-1,-1,-1,-1,240,-1,11,-1,-1,-1,-1,,9999,0,1,2,FEW 10   BKN 25,1,2,1,0,1017,RJDM 100800Z 24011KT 9999 -SHRA FEW010 BKN025 02/00 Q1017 RMK     1ST010 5CU025 A3003=,- RA SH
20180110_090000.003,0,RJDM,,,,0,20180110090000,-1,-1,-1,-1,-1,-1,-1,-1,-1,-1,-1,,-1,0,0,0,,0,-1,0,-1,-1,RJDM 100900Z NIL=,
20180110_100000.003,0,RJDM,,,,0,20180110100000,-1,-1,-1,-1,-1,-1,-1,-1,-1,-1,-1,,-1,0,0,0,,0,-1,0,-1,-1,RJDM 101000Z NIL=,
20180110_110000.003,0,RJDM,,,,0,20180110110000,-1,-1,-1,-1,-1,-1,-1,-1,-1,-1,-1,,-1,0,0,0,,0,-1,0,-1,-1,RJDM 101100Z NIL=,
20180110_120000.003,0,RJDM,,,,0,20180110120000,-1,-1,-1,-1,-1,-1,-1,-1,-1,-1,-1,,-1,0,0,0,,0,-1,0,-1,-1,RJDM 101200Z NIL=,
20180110_130000.003,0,RJDM,,,,0,20180110130000,-1,-1,-1,-1,-1,-1,-1,-1,-1,-1,-1,,-1,0,0,0,,0,-1,0,-1,-1,RJDM 101300Z NIL=,
20180110_140000.003,0,RJDM,,,,0,20180110140000,-1,-1,-1,-1,-1,-1,-1,-1,-1,-1,-1,,-1,0,0,0,,0,-1,0,-1,-1,RJDM 101400Z NIL=,
20180110_150000.003,0,RJDM,,,,0,20180110150000,-1,-1,-1,-1,-1,-1,-1,-1,-1,-1,-1,,-1,0,0,0,,0,-1,0,-1,-1,RJDM 101500Z NIL=,
20180110_160000.003,0,RJDM,,,,0,20180110160000,-1,-1,-1,-1,-1,-1,-1,-1,-1,-1,-1,,-1,0,0,0,,0,-1,0,-1,-1,RJDM 101600Z NIL=,
20180110_170000.003,0,RJDM,,,,0,20180110170000,-1,-1,-1,-1,-1,-1,-1,-1,-1,-1,-1,,-1,0,0,0,,0,-1,0,-1,-1,RJDM 101700Z NIL=,
20180110_180000.003,0,RJDM,,,,0,20180110180000,-1,-1,-1,-1,-1,-1,-1,-1,-1,-1,-1,,-1,0,0,0,,0,-1,0,-1,-1,RJDM 101800Z NIL=,
20180110_190000.003,0,RJDM,,,,0,20180110190000,-1,-1,-1,-1,-1,-1,-1,-1,-1,-1,-1,,-1,0,0,0,,0,-1,0,-1,-1,RJDM 101900Z NIL=,
20180110_200000.003,0,RJDM,,,,0,20180110200000,-1,-1,-1,-1,-1,-1,-1,-1,-1,-1,-1,,-1,0,0,0,,0,-1,0,-1,-1,RJDM 102000Z NIL=,
20180110_210000.003,0,RJDM,,,,0,20180110210000,-1,-1,-1,-1,180,-1,3,-1,-1,-1,-1,,5000,0,1,3,FEW 5   BKN 15   BKN 20,-1,1,-1,2,1022,RJDM 102100Z 18003KT 5000 -SHSN FEW005 BKN015 BKN020 M01/M02     Q1022 RMK 1ST005 5CU015 7CU020 A3018=,- SN SH
20180110_220000.003,0,RJDM,,,,0,20180110220000,-1,-1,-1,-1,190,-1,3,-1,-1,-1,-1,,5000,0,1,3,FEW 5   BKN 15   BKN 20,-1,1,-1,2,1022,RJDM 102200Z 19003KT 5000 -SHSN FEW005 BKN015 BKN020 M01/M02     Q1022 RMK 1ST005 5CU015 7CU020 A3019 2000W=,- SN SH
20180110_230000.004,0,RJDM,,,,0,20180110230000,-1,-1,-1,-1,180,-1,2,-1,-1,-1,-1,,2500,0,1,3,FEW 5   BKN 15   BKN 20,-1,1,-1,2,1023,RJDM 102300Z 18002KT 2500 -SHSN FEW005 BKN015 BKN020 M01/M02     Q1023 RMK 1ST005 6CU015 7CU020 A3021=,- SN SH
20180111_000000.003,0,RJDM,,,,0,20180111000000,-1,-1,-1,-1,0,-1,0,-1,-1,-1,-1,,2500,0,1,3,FEW 5   BKN 20   BKN 25,-1,0,-1,1,1023,RJDM 110000Z 00000KT 2500 -SHSN FEW005 BKN020 BKN025 M00/M01     Q1023 RMK 1ST005 6CU020 7CU025 A3022=,- SN SH
20180111_010000.003,0,RJDM,,,,0,20180111010000,-1,-1,-1,-1,200,-1,3,-1,-1,-1,-1,,2500,0,1,3,FEW 5   SCT 20   BKN 30,1,0,-1,1,1023,RJDM 110100Z 20003KT 2500 -SHSN FEW005 SCT020 BKN030 00/M01     Q1023 RMK 1ST005 3CU020 6CU030 A3023=,- SN SH
20180111_020000.003,0,RJDM,,,,0,20180111020000,-1,-1,-1,-1,240,-1,3,-1,-1,-1,-1,,3000,0,1,3,FEW 5   SCT 20   BKN 25,1,2,-1,1,1024,RJDM 110200Z 24003KT 3000 -SHSN FEW005 SCT020 BKN025 02/M01     Q1024 RMK 1ST005 3CU020 6CU025 A3024=,- SN SH
20180111_030000.002,0,RJDM,,,,0,20180111030000,-1,-1,-1,-1,270,-1,3,-1,-1,-1,-1,,2500,0,1,3,FEW 5   SCT 15   BKN 25,1,1,-1,2,1023,RJDM 110300Z 27003KT 2500 -SHSN FEW005 SCT015 BKN025 01/M02     Q1023 RMK 1ST005 4CU015 6CU025 A3023=,- SN SH
20180111_040000.003,0,RJDM,,,,0,20180111040000,-1,-1,-1,-1,290,-1,4,-1,-1,-1,-1,,3000,0,1,3,FEW 5   SCT 15   BKN 25,1,1,-1,2,1023,RJDM 110400Z 29004KT 3000 -SHSN FEW005 SCT015 BKN025 01/M02     Q1023 RMK 1ST005 3CU015 6CU025 A3023=,- SN SH
20180111_050000.003,0,RJDM,,,,0,20180111050000,-1,-1,-1,-1,310,-1,7,-1,19,-1,-1,,9999,0,1,2,FEW 15   SCT 25,1,2,-1,4,1023,RJDM 110500Z 31007G19KT 9999 -SHSN FEW015 SCT025 02/M04 Q1023     RMK 1CU015 3CU025 A3022=,- SN SH
20180111_060000.003,0,RJDM,,,,0,20180111060000,-1,-1,-1,-1,300,-1,5,-1,15,-1,-1,,9999,0,0,1,FEW 20,1,2,-1,5,1023,RJDM 110600Z 30005G15KT 9999 FEW020 02/M05 Q1023 RMK 1CU020     A3023=,
20180111_070000.003,0,RJDM,,,,0,20180111070000,-1,-1,-1,-1,310,-1,7,-1,-1,-1,-1,,9999,0,0,1,FEW 25,1,2,-1,7,1023,RJDM 110700Z 31007KT 9999 FEW025 02/M07 Q1023 RMK 1CU025     A3022=,
20180111_080000.003,0,RJDM,,,,0,20180111080000,-1,-1,-1,-1,330,-1,5,-1,-1,-1,-1,,9999,0,1,2,FEW 20   SCT 25,1,1,-1,6,1023,RJDM 110800Z 33005KT 9999 -SHSN FEW020 SCT025 01/M06 Q1023 RMK     1CU020 3CU025 A3023=,- SN SH
20180111_090000.003,0,RJDM,,,,0,20180111090000,-1,-1,-1,-1,-1,-1,-1,-1,-1,-1,-1,,-1,0,0,0,,0,-1,0,-1,-1,RJDM 110900Z NIL=,
20180111_100000.003,0,RJDM,,,,0,20180111100000,-1,-1,-1,-1,-1,-1,-1,-1,-1,-1,-1,,-1,0,0,0,,0,-1,0,-1,-1,RJDM 111000Z NIL=,
20180111_110000.003,0,RJDM,,,,0,20180111110000,-1,-1,-1,-1,-1,-1,-1,-1,-1,-1,-1,,-1,0,0,0,,0,-1,0,-1,-1,RJDM 111100Z NIL=,
20180111_120000.003,0,RJDM,,,,0,20180111120000,-1,-1,-1,-1,-1,-1,-1,-1,-1,-1,-1,,-1,0,0,0,,0,-1,0,-1,-1,RJDM 111200Z NIL=,
20180111_130000.003,0,RJDM,,,,0,20180111130000,-1,-1,-1,-1,-1,-1,-1,-1,-1,-1,-1,,-1,0,0,0,,0,-1,0,-1,-1,RJDM 111300Z NIL=,
20180111_140000.003,0,RJDM,,,,0,20180111140000,-1,-1,-1,-1,-1,-1,-1,-1,-1,-1,-1,,-1,0,0,0,,0,-1,0,-1,-1,RJDM 111400Z NIL=,
20180111_150000.003,0,RJDM,,,,0,20180111150000,-1,-1,-1,-1,-1,-1,-1,-1,-1,-1,-1,,-1,0,0,0,,0,-1,0,-1,-1,RJDM 111500Z NIL=,
20180111_160000.003,0,RJDM,,,,0,20180111160000,-1,-1,-1,-1,-1,-1,-1,-1,-1,-1,-1,,-1,0,0,0,,0,-1,0,-1,-1,RJDM 111600Z NIL=,
20180111_170000.003,0,RJDM,,,,0,20180111170000,-1,-1,-1,-1,-1,-1,-1,-1,-1,-1,-1,,-1,0,0,0,,0,-1,0,-1,-1,RJDM 111700Z NIL=,
20180111_180000.003,0,RJDM,,,,0,20180111180000,-1,-1,-1,-1,-1,-1,-1,-1,-1,-1,-1,,-1,0,0,0,,0,-1,0,-1,-1,RJDM 111800Z NIL=,
20180111_190000.003,0,RJDM,,,,0,20180111190000,-1,-1,-1,-1,-1,-1,-1,-1,-1,-1,-1,,-1,0,0,0,,0,-1,0,-1,-1,RJDM 111900Z NIL=,
20180111_200000.003,0,RJDM,,,,0,20180111200000,-1,-1,-1,-1,-1,-1,-1,-1,-1,-1,-1,,-1,0,0,0,,0,-1,0,-1,-1,RJDM 112000Z NIL=,
20180111_210000.003,0,RJDM,,,,0,20180111210000,-1,-1,-1,-1,70,-1,1,-1,-1,-1,-1,,9999,0,0,1,FEW 25,-1,3,-1,5,1027,RJDM 112100Z 07001KT 9999 FEW025 M03/M05 Q1027 RMK 2CU025     A3033=,
20180111_220000.004,0,RJDM,,,,0,20180111220000,-1,-1,-1,-1,320,-1,2,-1,-1,-1,-1,,9000,0,1,1,SCT 25,-1,3,-1,5,1027,RJDM 112200Z 32002KT 9000 -SHSN SCT025 M03/M05 Q1027 RMK     3CU025 A3035=,- SN SH
20180111_230000.003,0,RJDM,,,,0,20180111230000,-1,-1,-1,-1,340,-1,1,-1,-1,-1,-1,,8000,0,1,2,FEW 15   BKN 35,-1,2,-1,4,1028,RJDM 112300Z 34001KT 8000 -SHSN FEW015 BKN035 M02/M04 Q1028     RMK 1CU015 5CU035 A3036=,- SN SH
20180112_000000.003,0,RJDM,,,,0,20180112000000,-1,-1,-1,-1,140,-1,3,-1,-1,-1,-1,,7000,0,1,2,FEW 15   BKN 35,-1,2,-1,4,1028,RJDM 120000Z 14003KT 7000 -SHSN FEW015 BKN035 M02/M04 Q1028     RMK 1CU015 5CU035 A3037=,- SN SH
20180112_010000.004,0,RJDM,,,,0,20180112010000,-1,-1,-1,-1,210,-1,1,-1,-1,-1,-1,,9999,0,1,2,FEW 15   SCT 25,1,0,-1,3,1028,RJDM 120100Z 21001KT 9999 -SHSN FEW015 SCT025 00/M03 Q1028 RMK     1CU015 3CU025 A3038 2500N-NE=,- SN SH
20180112_020000.003,0,RJDM,,,,0,20180112020000,-1,-1,-1,-1,330,-1,1,-1,-1,-1,-1,,9999,0,1,2,FEW 15   BKN 25,1,1,-1,4,1028,RJDM 120200Z 33001KT 9999 -SHSN FEW015 BKN025 01/M04 Q1028 RMK     1CU015 5CU025 A3036=,- SN SH
20180112_030000.003,0,RJDM,,,,0,20180112030000,-1,-1,-1,-1,320,-1,3,-1,-1,-1,-1,,9000,0,1,2,FEW 15   BKN 25,1,1,-1,4,1027,RJDM 120300Z 32003KT 9000 -SHSN FEW015 BKN025 01/M04 Q1027 RMK     1CU015 6CU025 A3035 4000NE=,- SN SH
20180112_040000.003,0,RJDM,,,,0,20180112040000,-1,-1,-1,-1,300,-1,3,-1,-1,-1,-1,,2000,0,1,3,FEW 10   BKN 15   BKN 25,1,0,-1,3,1027,RJDM 120400Z 30003KT 2000 -SHSN FEW010 BKN015 BKN025 00/M03     Q1027 RMK 1CU010 6CU015 7CU025 A3033 6000S=,- SN SH
20180112_050000.004,0,RJDM,,,,0,20180112050000,-1,-1,-1,-1,290,-1,3,-1,-1,-1,-1,,9000,0,0,2,FEW 15   BKN 35,1,3,-1,3,1026,RJDM 120500Z 29003KT 9000 FEW015 BKN035 03/M03 Q1026 RMK     1CU015 6CU035 A3031=,
20180112_060000.003,0,RJDM,,,,0,20180112060000,-1,-1,-1,-1,250,-1,6,-1,-1,-1,-1,,9999,0,1,2,FEW 15   SCT 25,1,2,-1,4,1026,RJDM 120600Z 25006KT 9999 -SHSN FEW015 SCT025 02/M04 Q1026 RMK     1CU015 4CU025 A3032=,- SN SH
20180112_070000.004,0,RJDM,,,,0,20180112070000,-1,-1,-1,-1,290,-1,3,-1,-1,-1,-1,,9999,0,1,2,FEW 15   BKN 25,1,1,-1,3,1027,RJDM 120700Z 29003KT 9999 -SHSN FEW015 BKN025 01/M03 Q1027 RMK     1CU015 5CU025 A3033=,- SN SH
20180112_080000.003,0,RJDM,,,,0,20180112080000,-1,-1,-1,-1,320,-1,3,-1,-1,-1,-1,,9999,0,0,2,FEW 15   BKN 25,1,1,-1,5,1027,RJDM 120800Z 32003KT 9999 FEW015 BKN025 01/M05 Q1027 RMK     1CU015 5CU025 A3035=,
20180112_090000.003,0,RJDM,,,,0,20180112090000,-1,-1,-1,-1,-1,-1,-1,-1,-1,-1,-1,,-1,0,0,0,,0,-1,0,-1,-1,RJDM 120900Z NIL=,
20180112_100000.003,0,RJDM,,,,0,20180112100000,-1,-1,-1,-1,-1,-1,-1,-1,-1,-1,-1,,-1,0,0,0,,0,-1,0,-1,-1,RJDM 121000Z NIL=,
20180112_110000.003,0,RJDM,,,,0,20180112110000,-1,-1,-1,-1,-1,-1,-1,-1,-1,-1,-1,,-1,0,0,0,,0,-1,0,-1,-1,RJDM 121100Z NIL=,
20180112_120000.003,0,RJDM,,,,0,20180112120000,-1,-1,-1,-1,-1,-1,-1,-1,-1,-1,-1,,-1,0,0,0,,0,-1,0,-1,-1,RJDM 121200Z NIL=,
20180112_130000.003,0,RJDM,,,,0,20180112130000,-1,-1,-1,-1,-1,-1,-1,-1,-1,-1,-1,,-1,0,0,0,,0,-1,0,-1,-1,RJDM 121300Z NIL=,
20180112_140000.003,0,RJDM,,,,0,20180112140000,-1,-1,-1,-1,-1,-1,-1,-1,-1,-1,-1,,-1,0,0,0,,0,-1,0,-1,-1,RJDM 121400Z NIL=,
20180112_150000.003,0,RJDM,,,,0,20180112150000,-1,-1,-1,-1,-1,-1,-1,-1,-1,-1,-1,,-1,0,0,0,,0,-1,0,-1,-1,RJDM 121500Z NIL=,
20180112_160000.003,0,RJDM,,,,0,20180112160000,-1,-1,-1,-1,-1,-1,-1,-1,-1,-1,-1,,-1,0,0,0,,0,-1,0,-1,-1,RJDM 121600Z NIL=,
20180112_170000.003,0,RJDM,,,,0,20180112170000,-1,-1,-1,-1,-1,-1,-1,-1,-1,-1,-1,,-1,0,0,0,,0,-1,0,-1,-1,RJDM 121700Z NIL=,
20180112_180000.003,0,RJDM,,,,0,20180112180000,-1,-1,-1,-1,-1,-1,-1,-1,-1,-1,-1,,-1,0,0,0,,0,-1,0,-1,-1,RJDM 121800Z NIL=,
20180112_190000.003,0,RJDM,,,,0,20180112190000,-1,-1,-1,-1,-1,-1,-1,-1,-1,-1,-1,,-1,0,0,0,,0,-1,0,-1,-1,RJDM 121900Z NIL=,
20180112_200000.004,0,RJDM,,,,0,20180112200000,-1,-1,-1,-1,-1,-1,-1,-1,-1,-1,-1,,-1,0,0,0,,0,-1,0,-1,-1,RJDM 122000Z NIL=,
20180112_210000.003,0,RJDM,,,,0,20180112210000,-1,-1,-1,-1,-1,-1,-1,-1,-1,-1,-1,,-1,0,0,0,,0,-1,0,-1,-1,RJDM 122100Z NIL=,
20180112_220000.003,0,RJDM,,,,0,20180112220000,-1,-1,-1,-1,-1,-1,-1,-1,-1,-1,-1,,-1,0,0,0,,0,-1,0,-1,-1,RJDM 122200Z NIL=,
20180112_230000.003,0,RJDM,,,,0,20180112230000,-1,-1,-1,-1,-1,-1,-1,-1,-1,-1,-1,,-1,0,0,0,,0,-1,0,-1,-1,RJDM 122300Z NIL=,
20180113_000000.003,0,RJDM,,,,0,20180113000000,-1,-1,-1,-1,-1,-1,-1,-1,-1,-1,-1,,-1,0,0,0,,0,-1,0,-1,-1,RJDM 130000Z NIL=,
20180113_010000.004,0,RJDM,,,,0,20180113010000,-1,-1,-1,-1,-1,-1,-1,-1,-1,-1,-1,,-1,0,0,0,,0,-1,0,-1,-1,RJDM 130100Z NIL=,
20180113_020000.003,0,RJDM,,,,0,20180113020000,-1,-1,-1,-1,-1,-1,-1,-1,-1,-1,-1,,-1,0,0,0,,0,-1,0,-1,-1,RJDM 130200Z NIL=,
20180113_030000.003,0,RJDM,,,,0,20180113030000,-1,-1,-1,-1,-1,-1,-1,-1,-1,-1,-1,,-1,0,0,0,,0,-1,0,-1,-1,RJDM 130300Z NIL=,
20180113_040000.003,0,RJDM,,,,0,20180113040000,-1,-1,-1,-1,-1,-1,-1,-1,-1,-1,-1,,-1,0,0,0,,0,-1,0,-1,-1,RJDM 130400Z NIL=,
20180113_050000.003,0,RJDM,,,,0,20180113050000,-1,-1,-1,-1,-1,-1,-1,-1,-1,-1,-1,,-1,0,0,0,,0,-1,0,-1,-1,RJDM 130500Z NIL=,
20180113_060000.003,0,RJDM,,,,0,20180113060000,-1,-1,-1,-1,-1,-1,-1,-1,-1,-1,-1,,-1,0,0,0,,0,-1,0,-1,-1,RJDM 130600Z NIL=,
20180113_070000.003,0,RJDM,,,,0,20180113070000,-1,-1,-1,-1,-1,-1,-1,-1,-1,-1,-1,,-1,0,0,0,,0,-1,0,-1,-1,RJDM 130700Z NIL=,
20180113_080000.003,0,RJDM,,,,0,20180113080000,-1,-1,-1,-1,-1,-1,-1,-1,-1,-1,-1,,-1,0,0,0,,0,-1,0,-1,-1,RJDM 130800Z NIL=,
20180113_090000.003,0,RJDM,,,,0,20180113090000,-1,-1,-1,-1,-1,-1,-1,-1,-1,-1,-1,,-1,0,0,0,,0,-1,0,-1,-1,RJDM 130900Z NIL=,
20180113_100000.003,0,RJDM,,,,0,20180113100000,-1,-1,-1,-1,-1,-1,-1,-1,-1,-1,-1,,-1,0,0,0,,0,-1,0,-1,-1,RJDM 131000Z NIL=,
20180113_110000.003,0,RJDM,,,,0,20180113110000,-1,-1,-1,-1,-1,-1,-1,-1,-1,-1,-1,,-1,0,0,0,,0,-1,0,-1,-1,RJDM 131100Z NIL=,
20180113_120000.003,0,RJDM,,,,0,20180113120000,-1,-1,-1,-1,-1,-1,-1,-1,-1,-1,-1,,-1,0,0,0,,0,-1,0,-1,-1,RJDM 131200Z NIL=,
20180113_130000.003,0,RJDM,,,,0,20180113130000,-1,-1,-1,-1,-1,-1,-1,-1,-1,-1,-1,,-1,0,0,0,,0,-1,0,-1,-1,RJDM 131300Z NIL=,
20180113_140000.004,0,RJDM,,,,0,20180113140000,-1,-1,-1,-1,-1,-1,-1,-1,-1,-1,-1,,-1,0,0,0,,0,-1,0,-1,-1,RJDM 131400Z NIL=,
20180113_150000.003,0,RJDM,,,,0,20180113150000,-1,-1,-1,-1,-1,-1,-1,-1,-1,-1,-1,,-1,0,0,0,,0,-1,0,-1,-1,RJDM 131500Z NIL=,
20180113_160000.003,0,RJDM,,,,0,20180113160000,-1,-1,-1,-1,-1,-1,-1,-1,-1,-1,-1,,-1,0,0,0,,0,-1,0,-1,-1,RJDM 131600Z NIL=,
20180113_170000.003,0,RJDM,,,,0,20180113170000,-1,-1,-1,-1,-1,-1,-1,-1,-1,-1,-1,,-1,0,0,0,,0,-1,0,-1,-1,RJDM 131700Z NIL=,
20180113_180000.003,0,RJDM,,,,0,20180113180000,-1,-1,-1,-1,-1,-1,-1,-1,-1,-1,-1,,-1,0,0,0,,0,-1,0,-1,-1,RJDM 131800Z NIL=,
20180113_190000.004,0,RJDM,,,,0,20180113190000,-1,-1,-1,-1,-1,-1,-1,-1,-1,-1,-1,,-1,0,0,0,,0,-1,0,-1,-1,RJDM 131900Z NIL=,
20180113_200000.004,0,RJDM,,,,0,20180113200000,-1,-1,-1,-1,-1,-1,-1,-1,-1,-1,-1,,-1,0,0,0,,0,-1,0,-1,-1,RJDM 132000Z NIL=,
20180113_210000.003,0,RJDM,,,,0,20180113210000,-1,-1,-1,-1,-1,-1,-1,-1,-1,-1,-1,,-1,0,0,0,,0,-1,0,-1,-1,RJDM 132100Z NIL=,
20180113_220000.003,0,RJDM,,,,0,20180113220000,-1,-1,-1,-1,-1,-1,-1,-1,-1,-1,-1,,-1,0,0,0,,0,-1,0,-1,-1,RJDM 132200Z NIL=,
20180113_230000.003,0,RJDM,,,,0,20180113230000,-1,-1,-1,-1,-1,-1,-1,-1,-1,-1,-1,,-1,0,0,0,,0,-1,0,-1,-1,RJDM 132300Z NIL=,
20180114_000000.004,0,RJDM,,,,0,20180114000000,-1,-1,-1,-1,-1,-1,-1,-1,-1,-1,-1,,-1,0,0,0,,0,-1,0,-1,-1,RJDM 140000Z NIL=,
20180114_010000.003,0,RJDM,,,,0,20180114010000,-1,-1,-1,-1,-1,-1,-1,-1,-1,-1,-1,,-1,0,0,0,,0,-1,0,-1,-1,RJDM 140100Z NIL=,
20180114_020000.003,0,RJDM,,,,0,20180114020000,-1,-1,-1,-1,-1,-1,-1,-1,-1,-1,-1,,-1,0,0,0,,0,-1,0,-1,-1,RJDM 140200Z NIL=,
20180114_030000.003,0,RJDM,,,,0,20180114030000,-1,-1,-1,-1,-1,-1,-1,-1,-1,-1,-1,,-1,0,0,0,,0,-1,0,-1,-1,RJDM 140300Z NIL=,
20180114_040000.003,0,RJDM,,,,0,20180114040000,-1,-1,-1,-1,-1,-1,-1,-1,-1,-1,-1,,-1,0,0,0,,0,-1,0,-1,-1,RJDM 140400Z NIL=,
20180114_050000.003,0,RJDM,,,,0,20180114050000,-1,-1,-1,-1,-1,-1,-1,-1,-1,-1,-1,,-1,0,0,0,,0,-1,0,-1,-1,RJDM 140500Z NIL=,
20180114_060000.004,0,RJDM,,,,0,20180114060000,-1,-1,-1,-1,-1,-1,-1,-1,-1,-1,-1,,-1,0,0,0,,0,-1,0,-1,-1,RJDM 140600Z NIL=,
20180114_070000.003,0,RJDM,,,,0,20180114070000,-1,-1,-1,-1,-1,-1,-1,-1,-1,-1,-1,,-1,0,0,0,,0,-1,0,-1,-1,RJDM 140700Z NIL=,
20180114_080000.003,0,RJDM,,,,0,20180114080000,-1,-1,-1,-1,-1,-1,-1,-1,-1,-1,-1,,-1,0,0,0,,0,-1,0,-1,-1,RJDM 140800Z NIL=,
20180114_090000.003,0,RJDM,,,,0,20180114090000,-1,-1,-1,-1,-1,-1,-1,-1,-1,-1,-1,,-1,0,0,0,,0,-1,0,-1,-1,RJDM 140900Z NIL=,
20180114_100000.003,0,RJDM,,,,0,20180114100000,-1,-1,-1,-1,-1,-1,-1,-1,-1,-1,-1,,-1,0,0,0,,0,-1,0,-1,-1,RJDM 141000Z NIL=,
20180114_110000.003,0,RJDM,,,,0,20180114110000,-1,-1,-1,-1,-1,-1,-1,-1,-1,-1,-1,,-1,0,0,0,,0,-1,0,-1,-1,RJDM 141100Z NIL=,
20180114_120000.003,0,RJDM,,,,0,20180114120000,-1,-1,-1,-1,-1,-1,-1,-1,-1,-1,-1,,-1,0,0,0,,0,-1,0,-1,-1,RJDM 141200Z NIL=,
20180114_130000.004,0,RJDM,,,,0,20180114130000,-1,-1,-1,-1,-1,-1,-1,-1,-1,-1,-1,,-1,0,0,0,,0,-1,0,-1,-1,RJDM 141300Z NIL=,
20180114_140000.003,0,RJDM,,,,0,20180114140000,-1,-1,-1,-1,-1,-1,-1,-1,-1,-1,-1,,-1,0,0,0,,0,-1,0,-1,-1,RJDM 141400Z NIL=,
20180114_150000.003,0,RJDM,,,,0,20180114150000,-1,-1,-1,-1,-1,-1,-1,-1,-1,-1,-1,,-1,0,0,0,,0,-1,0,-1,-1,RJDM 141500Z NIL=,
20180114_160000.003,0,RJDM,,,,0,20180114160000,-1,-1,-1,-1,-1,-1,-1,-1,-1,-1,-1,,-1,0,0,0,,0,-1,0,-1,-1,RJDM 141600Z NIL=,
20180114_170000.003,0,RJDM,,,,0,20180114170000,-1,-1,-1,-1,-1,-1,-1,-1,-1,-1,-1,,-1,0,0,0,,0,-1,0,-1,-1,RJDM 141700Z NIL=,
20180114_180000.004,0,RJDM,,,,0,20180114180000,-1,-1,-1,-1,-1,-1,-1,-1,-1,-1,-1,,-1,0,0,0,,0,-1,0,-1,-1,RJDM 141800Z NIL=,
20180114_190000.003,0,RJDM,,,,0,20180114190000,-1,-1,-1,-1,-1,-1,-1,-1,-1,-1,-1,,-1,0,0,0,,0,-1,0,-1,-1,RJDM 141900Z NIL=,
20180114_200000.004,0,RJDM,,,,0,20180114200000,-1,-1,-1,-1,-1,-1,-1,-1,-1,-1,-1,,-1,0,0,0,,0,-1,0,-1,-1,RJDM 142000Z NIL=,
20180114_210000.003,0,RJDM,,,,0,20180114210000,-1,-1,-1,-1,260,-1,2,-1,-1,-1,-1,,9999,0,0,2,FEW 35   BKN 70,-1,1,-1,3,1027,RJDM 142100Z 26002KT 9999 FEW035 BKN070 M01/M03 Q1027 RMK     1CU035 5AC070 A3033=,
20180114_220000.003,0,RJDM,,,,0,20180114220000,-1,-1,-1,-1,230,-1,2,-1,-1,-1,-1,,9999,0,0,2,FEW 35   BKN 70,-1,1,-1,2,1027,RJDM 142200Z 23002KT 9999 FEW035 BKN070 M01/M02 Q1027 RMK     1CU035 5AC070 A3033=,
20180114_230000.003,0,RJDM,,,,0,20180114230000,-1,-1,-1,-1,60,-1,3,-1,-1,-1,-1,,9999,0,0,2,FEW 35   BKN 80,1,0,-1,1,1027,RJDM 142300Z 06003KT 9999 FEW035 BKN080 00/M01 Q1027 RMK     1CU035 5AC080 A3034=,
20180115_000000.003,0,RJDM,,,,0,20180115000000,-1,-1,-1,-1,0,-1,0,-1,-1,-1,-1,,9999,0,0,2,FEW 35   BKN 70,1,2,-1,0,1027,RJDM 150000Z 00000KT 9999 FEW035 BKN070 02/M00 Q1027 RMK     1CU035 5AC070 A3035=,
20180115_010000.003,0,RJDM,,,,0,20180115010000,-1,-1,-1,-1,240,-1,1,-1,-1,-1,-1,,9999,0,0,3,FEW 35   BKN 40   BKN 70,1,3,1,0,1027,RJDM 150100Z 24001KT 9999 FEW035 BKN040 BKN070 03/00 Q1027 RMK     1CU035 5SC040 7AC070 A3035=,
20180115_020000.003,0,RJDM,,,,0,20180115020000,-1,-1,-1,-1,290,-1,2,-1,-1,-1,-1,,9999,0,1,3,FEW 35   BKN 40   BKN 50,1,4,1,2,1027,RJDM 150200Z 29002KT 9999 -RA FEW035 BKN040 BKN050 04/02 Q1027     RMK 1CU035 5SC040 6SC050 A3034=,- RA
20180115_030000.003,0,RJDM,,,,0,20180115030000,-1,-1,-1,-1,110,-1,2,-1,-1,-1,-1,,9999,0,1,3,FEW 35   BKN 40   BKN 60,1,4,1,2,1026,RJDM 150300Z 11002KT 9999 -RA FEW035 BKN040 BKN060 04/02 Q1026     RMK 1CU035 5SC040 7SC060 A3031=,- RA
20180115_040000.003,0,RJDM,,,,0,20180115040000,-1,-1,-1,-1,130,-1,2,-1,-1,-1,-1,,9999,0,0,3,FEW 5   BKN 40   BKN 50,1,6,1,3,1024,RJDM 150400Z 13002KT 9999 FEW005 BKN040 BKN050 06/03 Q1024 RMK     1ST005 5SC040 7SC050 A3026=,
20180115_050000.003,0,RJDM,,,,0,20180115050000,-1,-1,-1,-1,70,-1,4,-1,-1,-1,-1,,9999,0,0,3,FEW 30   BKN 40   BKN 50,1,6,1,3,1024,RJDM 150500Z 07004KT 9999 FEW030 BKN040 BKN050 06/03 Q1024 RMK     1CU030 6SC040 7SC050 A3025=,
20180115_060000.003,0,RJDM,,,,0,20180115060000,-1,-1,-1,-1,80,-1,2,-1,-1,-1,-1,,9999,0,0,3,FEW 6   SCT 30   BKN 40,1,7,1,3,1024,RJDM 150600Z 08002KT 9999 FEW006 SCT030 BKN040 07/03 Q1024 RMK     1ST006 3SC030 7SC040 A3025=,
20180115_070000.005,0,RJDM,,,,0,20180115070000,-1,-1,-1,-1,70,-1,4,-1,-1,-1,-1,,9999,0,0,3,FEW 25   SCT 30   BKN 40,1,7,1,4,1024,RJDM 150700Z 07004KT 9999 FEW025 SCT030 BKN040 07/04 Q1024 RMK     1SC025 3SC030 7SC040 A3025=,
20180115_080000.003,0,RJDM,,,,0,20180115080000,-1,-1,-1,-1,70,-1,5,-1,-1,-1,-1,,9999,0,0,3,FEW 25   SCT 30   BKN 50,1,7,1,3,1025,RJDM 150800Z 07005KT 9999 FEW025 SCT030 BKN050 07/03 Q1025 RMK     1SC025 3SC030 6SC050 A3027=,
20180115_090000.003,0,RJDM,,,,0,20180115090000,-1,-1,-1,-1,40,-1,5,-1,-1,-1,-1,,9999,0,0,3,FEW 25   SCT 35   BKN 50,1,7,1,3,1025,RJDM 150900Z 04005KT 9999 FEW025 SCT035 BKN050 07/03 Q1025 RMK     1CU025 3CU035 6SC050 A3028=,
20180115_100000.003,0,RJDM,,,,0,20180115100000,-1,-1,-1,-1,70,-1,4,-1,-1,-1,-1,,9999,0,0,2,FEW 25   SCT 50,1,6,1,3,1024,RJDM 151000Z 07004KT 9999 FEW025 SCT050 06/03 Q1024 RMK 1CU025     4SC050 A3026=,
20180115_110000.003,0,RJDM,,,,0,20180115110000,-1,-1,-1,-1,310,-1,3,-1,-1,-1,-1,,9999,0,0,1,FEW 25,1,5,1,3,1024,RJDM 151100Z 31003KT 9999 FEW025 05/03 Q1024 RMK 1CU025 A3026=,
20180115_120000.003,0,RJDM,,,,0,20180115120000,-1,-1,-1,-1,-1,-1,-1,-1,-1,-1,-1,,-1,0,0,0,,0,-1,0,-1,-1,RJDM 151200Z NIL=,
20180115_130000.003,0,RJDM,,,,0,20180115130000,-1,-1,-1,-1,-1,-1,-1,-1,-1,-1,-1,,-1,0,0,0,,0,-1,0,-1,-1,RJDM 151300Z NIL=,
20180115_140000.003,0,RJDM,,,,0,20180115140000,-1,-1,-1,-1,-1,-1,-1,-1,-1,-1,-1,,-1,0,0,0,,0,-1,0,-1,-1,RJDM 151400Z NIL=,
20180115_150000.003,0,RJDM,,,,0,20180115150000,-1,-1,-1,-1,-1,-1,-1,-1,-1,-1,-1,,-1,0,0,0,,0,-1,0,-1,-1,RJDM 151500Z NIL=,
20180115_160000.003,0,RJDM,,,,0,20180115160000,-1,-1,-1,-1,-1,-1,-1,-1,-1,-1,-1,,-1,0,0,0,,0,-1,0,-1,-1,RJDM 151600Z NIL=,
20180115_170000.003,0,RJDM,,,,0,20180115170000,-1,-1,-1,-1,-1,-1,-1,-1,-1,-1,-1,,-1,0,0,0,,0,-1,0,-1,-1,RJDM 151700Z NIL=,
20180115_180000.003,0,RJDM,,,,0,20180115180000,-1,-1,-1,-1,-1,-1,-1,-1,-1,-1,-1,,-1,0,0,0,,0,-1,0,-1,-1,RJDM 151800Z NIL=,
20180115_190000.003,0,RJDM,,,,0,20180115190000,-1,-1,-1,-1,-1,-1,-1,-1,-1,-1,-1,,-1,0,0,0,,0,-1,0,-1,-1,RJDM 151900Z NIL=,
20180115_200000.003,0,RJDM,,,,0,20180115200000,-1,-1,-1,-1,-1,-1,-1,-1,-1,-1,-1,,-1,0,0,0,,0,-1,0,-1,-1,RJDM 152000Z NIL=,
20180115_210000.003,0,RJDM,,,,0,20180115210000,-1,-1,-1,-1,310,-1,1,-1,-1,-1,-1,,7000,0,0,2,FEW 20   BKN 50,1,2,1,1,1022,RJDM 152100Z 31001KT 7000 FEW020 BKN050 02/01 Q1022 RMK 1CU020     6SC050 A3020=,
20180115_220000.003,0,RJDM,,,,0,20180115220000,-1,-1,-1,-1,50,-1,3,-1,-1,-1,-1,,8000,0,0,2,FEW 25   BKN 50,1,3,1,2,1023,RJDM 152200Z 05003KT 8000 FEW025 BKN050 03/02 Q1023 RMK 1CU025     5SC050 A3021=,
20180115_230000.003,0,RJDM,,,,0,20180115230000,-1,-1,-1,-1,50,-1,3,-1,-1,-1,-1,,9999,0,0,1,FEW 25,1,2,1,1,1022,RJDM 152300Z 05003KT 9999 FEW025 02/01 Q1022 RMK 1CU025 A3019=,
20180116_000000.003,0,RJDM,,,,0,20180116000000,-1,-1,-1,-1,50,-1,1,-1,-1,-1,-1,,9999,0,0,2,FEW 25   SCT 50,1,6,1,5,1022,RJDM 160000Z 05001KT 9999 FEW025 SCT050 06/05 Q1022 RMK 1CU025     3SC050 A3019=,
20180116_010000.003,0,RJDM,,,,0,20180116010000,-1,-1,-1,-1,280,-1,1,-1,-1,-1,-1,,9999,0,0,2,FEW 30   SCT 70,1,9,1,3,1022,RJDM 160100Z 28001KT 9999 FEW030 SCT070 09/03 Q1022 RMK 2CU030     4AC070 A3018=,
20180116_020000.003,0,RJDM,,,,0,20180116020000,-1,-1,-1,-1,270,-1,1,-1,-1,-1,-1,,9999,0,0,2,FEW 30   BKN 50,1,11,1,8,1021,RJDM 160200Z 27001KT 9999 FEW030 BKN050 11/08 Q1021 RMK 1CU030     6SC050 A3016=,
20180116_030000.003,0,RJDM,,,,0,20180116030000,-1,-1,-1,-1,300,-1,1,-1,-1,-1,-1,,9999,0,0,2,FEW 30   BKN 50,1,14,1,9,1019,RJDM 160300Z 30001KT 9999 FEW030 BKN050 14/09 Q1019 RMK 1CU030     5SC050 A3011=,
20180116_040000.003,0,RJDM,,,,0,20180116040000,-1,-1,-1,-1,190,-1,4,-1,-1,-1,-1,,9999,0,0,2,FEW 30   BKN 50,1,16,1,11,1018,RJDM 160400Z 19004KT 9999 FEW030 BKN050 16/11 Q1018 RMK 1CU030     5SC050 A3006=,
20180116_050000.003,0,RJDM,,,,0,20180116050000,-1,-1,-1,-1,240,-1,2,-1,-1,-1,-1,,9999,0,0,2,FEW 30   BKN 50,1,17,1,12,1017,RJDM 160500Z 24002KT 9999 FEW030 BKN050 17/12 Q1017 RMK 1CU030     5SC050 A3003=,
20180116_060000.003,0,RJDM,,,,0,20180116060000,-1,-1,-1,-1,250,-1,4,-1,-1,-1,-1,,9999,0,0,2,FEW 40   SCT 80,1,16,1,9,1016,RJDM 160600Z 25004KT 9999 FEW040 SCT080 16/09 Q1016 RMK 2SC040     4AC080 A3000=,
20180116_060000.006,1,RJDM,,,,0,20180116060000,-1,-1,-1,-1,250,-1,4,-1,-1,-1,-1,,9999,0,0,2,FEW 40   SCT 80,1,16,1,9,1016,RJDM 160600Z 25004KT 9999 FEW040 SCT080 16/09 Q1016 RMK     2SC040 4AC080 A3000=,
20180116_070000.003,0,RJDM,,,,0,20180116070000,-1,-1,-1,-1,270,-1,5,-1,-1,-1,-1,,9999,0,0,2,FEW 30   BKN 90,1,16,1,10,1015,RJDM 160700Z 27005KT 9999 FEW030 BKN090 16/10 Q1015 RMK 2SC030     5AC090 A2999=,
20180116_080000.003,0,RJDM,,,,0,20180116080000,-1,-1,-1,-1,270,-1,5,-1,-1,-1,-1,,9999,0,0,2,FEW 35   BKN 70,1,15,1,10,1015,RJDM 160800Z 27005KT 9999 FEW035 BKN070 15/10 Q1015 RMK 1SC035     5AC070 A2997=,
20180116_090000.003,0,RJDM,,,,0,20180116090000,-1,-1,-1,-1,260,-1,5,-1,-1,-1,-1,,9999,0,0,2,FEW 35   BKN 60,1,14,1,9,1015,RJDM 160900Z 26005KT 9999 FEW035 BKN060 14/09 Q1015 RMK 1SC035     7SC060 A2997=,
20180116_100000.003,0,RJDM,,,,0,20180116100000,-1,-1,-1,-1,260,-1,3,-1,-1,-1,-1,,9999,0,0,2,FEW 35   BKN 50,1,14,1,9,1015,RJDM 161000Z 26003KT 9999 FEW035 BKN050 14/09 Q1015 RMK 1SC035     6SC050 A2997=,
20180116_110000.005,0,RJDM,,,,0,20180116110000,-1,-1,-1,-1,-1,-1,-1,-1,-1,-1,-1,,-1,0,0,0,,0,-1,0,-1,-1,RJDM 161100Z NIL=,
20180116_120000.003,0,RJDM,,,,0,20180116120000,-1,-1,-1,-1,-1,-1,-1,-1,-1,-1,-1,,-1,0,0,0,,0,-1,0,-1,-1,RJDM 161200Z NIL=,
20180116_130000.003,0,RJDM,,,,0,20180116130000,-1,-1,-1,-1,-1,-1,-1,-1,-1,-1,-1,,-1,0,0,0,,0,-1,0,-1,-1,RJDM 161300Z NIL=,
20180116_140000.003,0,RJDM,,,,0,20180116140000,-1,-1,-1,-1,-1,-1,-1,-1,-1,-1,-1,,-1,0,0,0,,0,-1,0,-1,-1,RJDM 161400Z NIL=,
20180116_150000.003,0,RJDM,,,,0,20180116150000,-1,-1,-1,-1,-1,-1,-1,-1,-1,-1,-1,,-1,0,0,0,,0,-1,0,-1,-1,RJDM 161500Z NIL=,
20180116_160000.003,0,RJDM,,,,0,20180116160000,-1,-1,-1,-1,-1,-1,-1,-1,-1,-1,-1,,-1,0,0,0,,0,-1,0,-1,-1,RJDM 161600Z NIL=,
20180116_170000.003,0,RJDM,,,,0,20180116170000,-1,-1,-1,-1,-1,-1,-1,-1,-1,-1,-1,,-1,0,0,0,,0,-1,0,-1,-1,RJDM 161700Z NIL=,
20180116_180000.003,0,RJDM,,,,0,20180116180000,-1,-1,-1,-1,-1,-1,-1,-1,-1,-1,-1,,-1,0,0,0,,0,-1,0,-1,-1,RJDM 161800Z NIL=,
20180116_190000.003,0,RJDM,,,,0,20180116190000,-1,-1,-1,-1,-1,-1,-1,-1,-1,-1,-1,,-1,0,0,0,,0,-1,0,-1,-1,RJDM 161900Z NIL=,
20180116_200000.003,0,RJDM,,,,0,20180116200000,-1,-1,-1,-1,-1,-1,-1,-1,-1,-1,-1,,-1,0,0,0,,0,-1,0,-1,-1,RJDM 162000Z NIL=,
20180116_210000.003,0,RJDM,,,,0,20180116210000,-1,-1,-1,-1,0,-1,0,-1,-1,-1,-1,,7000,0,1,3,FEW 6   BKN 15   BKN 20,1,12,1,11,1011,RJDM 162100Z 00000KT 7000 -SHRA FEW006 BKN015 BKN020 12/11     Q1011 RMK 1ST006 5CU015 7CU020 A2986=,- RA SH
20180116_220000.003,0,RJDM,,,,0,20180116220000,-1,-1,-1,-1,0,-1,0,-1,-1,-1,-1,,7000,0,1,3,FEW 6   BKN 15   BKN 20,1,12,1,12,1011,RJDM 162200Z 00000KT 7000 -SHRA FEW006 BKN015 BKN020 12/12     Q1011 RMK 1ST006 5CU015 7CU020 A2986=,- RA SH
20180116_230000.003,0,RJDM,,,,0,20180116230000,-1,-1,-1,-1,290,-1,2,-1,-1,-1,-1,,7000,0,0,3,FEW 6   BKN 15   BKN 20,1,12,1,12,1011,RJDM 162300Z 29002KT 7000 FEW006 BKN015 BKN020 12/12 Q1011 RMK     1ST006 5CU015 7CU020 A2987=,
20180117_000000.004,0,RJDM,,,,0,20180117000000,-1,-1,-1,-1,250,-1,5,-1,-1,-1,-1,,5000,0,2,3,FEW 5   BKN 15   BKN 20,1,13,1,12,1012,RJDM 170000Z 25005KT 5000 -SHRA BR FEW005 BKN015 BKN020 13/12     Q1012 RMK 1ST005 5CU015 7CU020 A2990=,- RA SH; BR
20180117_010000.003,0,RJDM,,,,0,20180117010000,-1,-1,-1,-1,200,-1,4,-1,-1,-1,-1,,7000,0,0,3,FEW 6   BKN 15   BKN 20,1,13,1,13,1012,RJDM 170100Z 20004KT 7000 FEW006 BKN015 BKN020 13/13 Q1012 RMK     1ST006 5CU015 7CU020 A2990=,
20180117_020000.006,0,RJDM,,,,0,20180117020000,-1,-1,-1,-1,210,-1,4,-1,-1,-1,-1,,8000,0,1,3,FEW 6   SCT 15   BKN 20,1,13,1,12,1013,RJDM 170200Z 21004KT 8000 -SHRA FEW006 SCT015 BKN020 13/12     Q1013 RMK 1ST006 4CU015 7CU020 A2991=,- RA SH
20180117_030000.004,0,RJDM,,,,0,20180117030000,-1,-1,-1,-1,210,-1,4,-1,-1,-1,-1,,8000,0,0,3,FEW 6   BKN 15   BKN 20,1,14,1,14,1012,RJDM 170300Z 21004KT 8000 FEW006 BKN015 BKN020 14/14 Q1012 RMK     1ST006 5CU015 7CU020 A2989=,
20180117_040000.004,0,RJDM,,,,0,20180117040000,-1,-1,-1,-1,200,-1,5,-1,-1,-1,-1,,5000,0,2,3,FEW 6   BKN 12   BKN 20,1,14,1,13,1011,RJDM 170400Z 20005KT 5000 -SHRA BR FEW006 BKN012 BKN020 14/13     Q1011 RMK 1ST006 5CU012 7CU020 A2988=,- RA SH; BR
20180117_050000.004,0,RJDM,,,,0,20180117050000,-1,-1,-1,-1,310,-1,4,-1,-1,-1,-1,,9999,0,0,3,FEW 15   SCT 40   BKN 50,1,14,1,11,1012,RJDM 170500Z 31004KT 9999 FEW015 SCT040 BKN050 14/11 Q1012 RMK     1CU015 3SC040 6SC050 A2990=,
20180117_060000.003,0,RJDM,,,,0,20180117060000,-1,-1,-1,-1,20,-1,6,-1,-1,-1,-1,,9999,0,0,3,FEW 15   SCT 25   BKN 40,1,13,1,9,1013,RJDM 170600Z 02006KT 9999 FEW015 SCT025 BKN040 13/09 Q1013 RMK     1CU015 3CU025 5SC040 A2994=,
20180117_070000.004,0,RJDM,,,,0,20180117070000,-1,-1,-1,-1,60,-1,3,-1,-1,-1,-1,,9999,0,0,3,FEW 15   SCT 25   BKN 40,1,14,1,10,1014,RJDM 170700Z 06003KT 9999 FEW015 SCT025 BKN040 14/10 Q1014 RMK     1CU015 3CU025 6CU040 A2996=,
20180117_080000.003,0,RJDM,,,,0,20180117080000,-1,-1,-1,-1,340,-1,4,-1,-1,-1,-1,,9999,0,0,3,FEW 20   SCT 25   BKN 50,1,13,1,9,1015,RJDM 170800Z 34004KT 9999 FEW020 SCT025 BKN050 13/09 Q1015 RMK     1CU020 3CU025 6SC050 A2999=,
20180117_090000.004,0,RJDM,,,,0,20180117090000,-1,-1,-1,-1,360,-1,4,-1,-1,-1,-1,,9999,0,0,3,FEW 15   SCT 25   BKN 40,1,12,1,10,1017,RJDM 170900Z 36004KT 9999 FEW015 SCT025 BKN040 12/10 Q1017 RMK     1CU015 3CU025 7CU040 A3003=,
20180117_100000.003,0,RJDM,,,,0,20180117100000,-1,-1,-1,-1,10,-1,7,-1,-1,-1,-1,,9999,0,1,3,FEW 20   SCT 30   BKN 45,1,12,1,10,1017,RJDM 171000Z 01007KT 9999 -SHRA FEW020 SCT030 BKN045 12/10     Q1017 RMK 1CU020 3CU030 7CU045 A3005=,- RA SH
20180117_110000.004,0,RJDM,,,,0,20180117110000,-1,-1,-1,-1,-1,-1,-1,-1,-1,-1,-1,,-1,0,0,0,,0,-1,0,-1,-1,RJDM 171100Z NIL=,
20180117_120000.004,0,RJDM,,,,0,20180117120000,-1,-1,-1,-1,-1,-1,-1,-1,-1,-1,-1,,-1,0,0,0,,0,-1,0,-1,-1,RJDM 171200Z NIL=,
20180117_130000.003,0,RJDM,,,,0,20180117130000,-1,-1,-1,-1,-1,-1,-1,-1,-1,-1,-1,,-1,0,0,0,,0,-1,0,-1,-1,RJDM 171300Z NIL=,
20180117_140000.003,0,RJDM,,,,0,20180117140000,-1,-1,-1,-1,-1,-1,-1,-1,-1,-1,-1,,-1,0,0,0,,0,-1,0,-1,-1,RJDM 171400Z NIL=,
20180117_150000.003,0,RJDM,,,,0,20180117150000,-1,-1,-1,-1,-1,-1,-1,-1,-1,-1,-1,,-1,0,0,0,,0,-1,0,-1,-1,RJDM 171500Z NIL=,
20180117_160000.003,0,RJDM,,,,0,20180117160000,-1,-1,-1,-1,-1,-1,-1,-1,-1,-1,-1,,-1,0,0,0,,0,-1,0,-1,-1,RJDM 171600Z NIL=,
20180117_170000.003,0,RJDM,,,,0,20180117170000,-1,-1,-1,-1,-1,-1,-1,-1,-1,-1,-1,,-1,0,0,0,,0,-1,0,-1,-1,RJDM 171700Z NIL=,
20180117_180000.003,0,RJDM,,,,0,20180117180000,-1,-1,-1,-1,-1,-1,-1,-1,-1,-1,-1,,-1,0,0,0,,0,-1,0,-1,-1,RJDM 171800Z NIL=,
20180117_190000.004,0,RJDM,,,,0,20180117190000,-1,-1,-1,-1,-1,-1,-1,-1,-1,-1,-1,,-1,0,0,0,,0,-1,0,-1,-1,RJDM 171900Z NIL=,
20180117_200000.003,0,RJDM,,,,0,20180117200000,-1,-1,-1,-1,-1,-1,-1,-1,-1,-1,-1,,-1,0,0,0,,0,-1,0,-1,-1,RJDM 172000Z NIL=,
20180117_210000.003,0,RJDM,,,,0,20180117210000,-1,-1,-1,-1,320,-1,1,-1,-1,-1,-1,,1000,0,1,3,FEW 1   BKN 10   BKN 35,1,6,1,5,1020,RJDM 172100Z 32001KT 1000 BR FEW001 BKN010 BKN035 06/05 Q1020     RMK 2ST001 5ST010 7SC035 A3013=,BR
20180117_220000.004,0,RJDM,,,,0,20180117220000,-1,-1,-1,-1,250,-1,1,-1,-1,-1,-1,,6000,0,0,3,FEW 2   BKN 12   BKN 35,1,6,1,5,1020,RJDM 172200Z 25001KT 6000 FEW002 BKN012 BKN035 06/05 Q1020 RMK     1ST002 5CU012 6CU035 A3014=,
20180117_230000.003,0,RJDM,,,,0,20180117230000,-1,-1,-1,-1,280,-1,1,-1,-1,-1,-1,,9000,0,0,3,FEW 5   SCT 20   BKN 35,1,7,1,6,1020,RJDM 172300Z 28001KT 9000 FEW005 SCT020 BKN035 07/06 Q1020 RMK     1ST005 3CU020 6CU035 A3013=,
20180118_000000.003,0,RJDM,,,,0,20180118000000,-1,-1,-1,-1,260,-1,2,-1,-1,-1,-1,,9000,0,0,3,FEW 8   SCT 25   BKN 40,1,8,1,7,1022,RJDM 180000Z 26002KT 9000 FEW008 SCT025 BKN040 08/07 Q1022 RMK     1ST008 3CU025 7SC040 A3018=,
20180118_010000.003,0,RJDM,,,,0,20180118010000,-1,-1,-1,-1,250,-1,3,-1,-1,-1,-1,,7000,0,0,3,FEW 5   SCT 30   BKN 40,1,8,1,7,1022,RJDM 180100Z 25003KT 7000 FEW005 SCT030 BKN040 08/07 Q1022 RMK     1ST005 3CU030 7SC040 A3019=,
20180118_020000.003,0,RJDM,,,,0,20180118020000,-1,-1,-1,-1,230,-1,2,-1,-1,-1,-1,,6000,0,0,3,FEW 6   SCT 15   BKN 35,1,9,1,7,1022,RJDM 180200Z 23002KT 6000 FEW006 SCT015 BKN035 09/07 Q1022 RMK     1ST006 4CU015 7SC035 A3018=,
20180118_030000.004,0,RJDM,,,,0,20180118030000,-1,-1,-1,-1,210,-1,1,-1,-1,-1,-1,,6000,0,0,3,FEW 6   SCT 15   BKN 35,1,10,1,9,1022,RJDM 180300Z 21001KT 6000 FEW006 SCT015 BKN035 10/09 Q1022 RMK     1ST006 4CU015 7SC035 A3018=,
20180118_040000.003,0,RJDM,,,,0,20180118040000,-1,-1,-1,-1,200,-1,2,-1,-1,-1,-1,,6000,0,0,3,FEW 6   SCT 15   BKN 35,1,10,1,9,1021,RJDM 180400Z 20002KT 6000 FEW006 SCT015 BKN035 10/09 Q1021 RMK     1ST006 4CU015 7SC035 A3015=,
20180118_050000.003,0,RJDM,,,,0,20180118050000,-1,-1,-1,-1,230,-1,3,-1,-1,-1,-1,,9999,0,0,2,FEW 10   SCT 35,1,12,1,9,1020,RJDM 180500Z 23003KT 9999 FEW010 SCT035 12/09 Q1020 RMK 1ST010     4SC035 A3013=,
20180118_060000.003,0,RJDM,,,,0,20180118060000,-1,-1,-1,-1,220,-1,5,-1,-1,-1,-1,,9999,0,0,2,FEW 10   SCT 35,1,13,1,9,1020,RJDM 180600Z 22005KT 9999 FEW010 SCT035 13/09 Q1020 RMK 1ST010     4SC035 A3012=,
20180118_070000.003,0,RJDM,,,,0,20180118070000,-1,-1,-1,-1,230,-1,4,-1,-1,-1,-1,,9999,0,0,2,FEW 15   BKN 35,1,13,1,6,1020,RJDM 180700Z 23004KT 9999 FEW015 BKN035 13/06 Q1020 RMK 1CU015     7SC035 A3012=,
20180118_080000.003,0,RJDM,,,,0,20180118080000,-1,-1,-1,-1,310,-1,3,-1,-1,-1,-1,,9999,0,0,2,FEW 15   BKN 35,1,11,1,6,1020,RJDM 180800Z 31003KT 9999 FEW015 BKN035 11/06 Q1020 RMK 1CU015     7SC035 A3013=,
20180118_090000.003,0,RJDM,,,,0,20180118090000,-1,-1,-1,-1,310,-1,2,-1,-1,-1,-1,,9999,0,0,2,FEW 15   BKN 35,1,11,1,7,1021,RJDM 180900Z 31002KT 9999 FEW015 BKN035 11/07 Q1021 RMK 1CU015     7SC035 A3015=,
20180118_100000.003,0,RJDM,,,,0,20180118100000,-1,-1,-1,-1,310,-1,3,-1,-1,-1,-1,,9999,0,0,2,FEW 15   BKN 35,1,10,1,5,1021,RJDM 181000Z 31003KT 9999 FEW015 BKN035 10/05 Q1021 RMK 1CU015     6SC035 A3016=,
20180118_110000.003,0,RJDM,,,,0,20180118110000,-1,-1,-1,-1,-1,-1,-1,-1,-1,-1,-1,,-1,0,0,0,,0,-1,0,-1,-1,RJDM 181100Z NIL=,
20180118_120000.003,0,RJDM,,,,0,20180118120000,-1,-1,-1,-1,-1,-1,-1,-1,-1,-1,-1,,-1,0,0,0,,0,-1,0,-1,-1,RJDM 181200Z NIL=,
20180118_130000.003,0,RJDM,,,,0,20180118130000,-1,-1,-1,-1,-1,-1,-1,-1,-1,-1,-1,,-1,0,0,0,,0,-1,0,-1,-1,RJDM 181300Z NIL=,
20180118_140000.003,0,RJDM,,,,0,20180118140000,-1,-1,-1,-1,-1,-1,-1,-1,-1,-1,-1,,-1,0,0,0,,0,-1,0,-1,-1,RJDM 181400Z NIL=,
20180118_150000.003,0,RJDM,,,,0,20180118150000,-1,-1,-1,-1,-1,-1,-1,-1,-1,-1,-1,,-1,0,0,0,,0,-1,0,-1,-1,RJDM 181500Z NIL=,
20180118_160000.003,0,RJDM,,,,0,20180118160000,-1,-1,-1,-1,-1,-1,-1,-1,-1,-1,-1,,-1,0,0,0,,0,-1,0,-1,-1,RJDM 181600Z NIL=,
20180118_170000.003,0,RJDM,,,,0,20180118170000,-1,-1,-1,-1,-1,-1,-1,-1,-1,-1,-1,,-1,0,0,0,,0,-1,0,-1,-1,RJDM 181700Z NIL=,
20180118_180000.003,0,RJDM,,,,0,20180118180000,-1,-1,-1,-1,-1,-1,-1,-1,-1,-1,-1,,-1,0,0,0,,0,-1,0,-1,-1,RJDM 181800Z NIL=,
20180118_190000.003,0,RJDM,,,,0,20180118190000,-1,-1,-1,-1,-1,-1,-1,-1,-1,-1,-1,,-1,0,0,0,,0,-1,0,-1,-1,RJDM 181900Z NIL=,
20180118_200000.003,0,RJDM,,,,0,20180118200000,-1,-1,-1,-1,-1,-1,-1,-1,-1,-1,-1,,-1,0,0,0,,0,-1,0,-1,-1,RJDM 182000Z NIL=,
20180118_210000.004,0,RJDM,,,,0,20180118210000,-1,-1,-1,-1,10,-1,3,-1,-1,-1,-1,,6000,0,0,1,FEW 45,1,4,1,4,1021,RJDM 182100Z 01003KT 6000 FEW045 04/04 Q1021 RMK 1SC045 A3016=,
20180118_220000.003,0,RJDM,,,,0,20180118220000,-1,-1,-1,-1,50,-1,8,-1,-1,-1,-1,,9000,0,0,2,FEW 45   SCT 120,1,4,1,3,1021,RJDM 182200Z 05008KT 9000 FEW045 SCT120 04/03 Q1021 RMK 1SC045     3AC120 A3016=,
20180118_230000.004,0,RJDM,,,,0,20180118230000,-1,-1,-1,-1,20,-1,4,-1,-1,-1,-1,,9999,0,0,2,FEW 45   SCT 120,1,4,1,3,1022,RJDM 182300Z 02004KT 9999 FEW045 SCT120 04/03 Q1022 RMK 1SC045     3AC120 A3018=,
20180119_000000.003,0,RJDM,,,,0,20180119000000,-1,-1,-1,-1,0,-1,0,-1,-1,-1,-1,,9999,0,0,2,FEW 30   BKN 35,1,4,1,3,1023,RJDM 190000Z 00000KT 9999 FEW030 BKN035 04/03 Q1023 RMK 1CU030     5SC035 A3021=,
20180119_010000.004,0,RJDM,,,,0,20180119010000,-1,-1,-1,-1,220,-1,1,-1,-1,-1,-1,,9999,0,0,2,FEW 30   BKN 35,1,6,1,4,1023,RJDM 190100Z 22001KT 9999 FEW030 BKN035 06/04 Q1023 RMK 1CU030     6SC035 A3021=,
20180119_020000.003,0,RJDM,,,,0,20180119020000,-1,-1,-1,-1,190,-1,1,-1,-1,-1,-1,,9999,0,0,2,FEW 30   BKN 35,1,9,1,6,1023,RJDM 190200Z 19001KT 9999 FEW030 BKN035 09/06 Q1023 RMK 1CU030     5SC035 A3021=,
20180119_030000.003,0,RJDM,,,,0,20180119030000,-1,-1,-1,-1,140,-1,3,-1,-1,-1,-1,,9999,0,0,2,FEW 30   SCT 35,1,10,1,5,1021,RJDM 190300Z 14003KT 9999 FEW030 SCT035 10/05 Q1021 RMK 1CU030     4SC035 A3017=,
20180119_040000.003,0,RJDM,,,,0,20180119040000,-1,-1,-1,-1,210,-1,2,-1,-1,-1,-1,,9999,0,0,2,FEW 30   SCT 40,1,12,1,5,1020,RJDM 190400Z 21002KT 9999 FEW030 SCT040 12/05 Q1020 RMK 1CU030     3SC040 A3014=,
20180119_050000.004,0,RJDM,,,,0,20180119050000,-1,-1,-1,-1,190,-1,3,-1,-1,-1,-1,,9999,0,0,2,FEW 30   SCT 40,1,14,1,5,1019,RJDM 190500Z 19003KT 9999 FEW030 SCT040 14/05 Q1019 RMK 1CU030     3SC040 A3011=,
20180119_060000.003,0,RJDM,,,,0,20180119060000,-1,-1,-1,-1,180,-1,4,-1,-1,-1,-1,,9999,0,0,2,FEW 30   SCT 40,1,14,1,5,1019,RJDM 190600Z 18004KT 9999 FEW030 SCT040 14/05 Q1019 RMK 1CU030     3SC040 A3010=,
20180119_070000.003,0,RJDM,,,,0,20180119070000,-1,-1,-1,-1,200,-1,3,-1,-1,-1,-1,,9999,0,0,2,FEW 30   SCT 45,1,13,1,3,1019,RJDM 190700Z 20003KT 9999 FEW030 SCT045 13/03 Q1019 RMK 1CU030     3SC045 A3009=,
20180119_080000.003,0,RJDM,,,,0,20180119080000,-1,-1,-1,-1,60,-1,4,-1,-1,-1,-1,,9999,0,0,2,FEW 35   SCT 45,1,12,1,3,1018,RJDM 190800Z 06004KT 9999 FEW035 SCT045 12/03 Q1018 RMK 2CU035     3SC045 A3008=,
20180119_090000.004,0,RJDM,,,,0,20180119090000,-1,-1,-1,-1,210,-1,2,-1,-1,-1,-1,,9999,0,0,2,FEW 30   SCT 35,1,11,1,3,1019,RJDM 190900Z 21002KT 9999 FEW030 SCT035 11/03 Q1019 RMK 1CU030     3SC035 A3010=,
20180119_100000.003,0,RJDM,,,,0,20180119100000,-1,-1,-1,-1,-1,-1,-1,-1,-1,-1,-1,,-1,0,0,0,,0,-1,0,-1,-1,RJDM 191000Z NIL=,
20180119_110000.003,0,RJDM,,,,0,20180119110000,-1,-1,-1,-1,-1,-1,-1,-1,-1,-1,-1,,-1,0,0,0,,0,-1,0,-1,-1,RJDM 191100Z NIL=,
20180119_120000.004,0,RJDM,,,,0,20180119120000,-1,-1,-1,-1,-1,-1,-1,-1,-1,-1,-1,,-1,0,0,0,,0,-1,0,-1,-1,RJDM 191200Z NIL=,
20180119_130000.003,0,RJDM,,,,0,20180119130000,-1,-1,-1,-1,-1,-1,-1,-1,-1,-1,-1,,-1,0,0,0,,0,-1,0,-1,-1,RJDM 191300Z NIL=,
20180119_140000.003,0,RJDM,,,,0,20180119140000,-1,-1,-1,-1,-1,-1,-1,-1,-1,-1,-1,,-1,0,0,0,,0,-1,0,-1,-1,RJDM 191400Z NIL=,
20180119_150000.003,0,RJDM,,,,0,20180119150000,-1,-1,-1,-1,-1,-1,-1,-1,-1,-1,-1,,-1,0,0,0,,0,-1,0,-1,-1,RJDM 191500Z NIL=,
20180119_160000.003,0,RJDM,,,,0,20180119160000,-1,-1,-1,-1,-1,-1,-1,-1,-1,-1,-1,,-1,0,0,0,,0,-1,0,-1,-1,RJDM 191600Z NIL=,
20180119_170000.003,0,RJDM,,,,0,20180119170000,-1,-1,-1,-1,-1,-1,-1,-1,-1,-1,-1,,-1,0,0,0,,0,-1,0,-1,-1,RJDM 191700Z NIL=,
20180119_180000.004,0,RJDM,,,,0,20180119180000,-1,-1,-1,-1,-1,-1,-1,-1,-1,-1,-1,,-1,0,0,0,,0,-1,0,-1,-1,RJDM 191800Z NIL=,
20180119_190000.004,0,RJDM,,,,0,20180119190000,-1,-1,-1,-1,-1,-1,-1,-1,-1,-1,-1,,-1,0,0,0,,0,-1,0,-1,-1,RJDM 191900Z NIL=,
20180119_200000.003,0,RJDM,,,,0,20180119200000,-1,-1,-1,-1,-1,-1,-1,-1,-1,-1,-1,,-1,0,0,0,,0,-1,0,-1,-1,RJDM 192000Z NIL=,
20180119_210000.003,0,RJDM,,,,0,20180119210000,-1,-1,-1,-1,-1,-1,-1,-1,-1,-1,-1,,-1,0,0,0,,0,-1,0,-1,-1,RJDM 192100Z NIL=,
20180119_220000.003,0,RJDM,,,,0,20180119220000,-1,-1,-1,-1,30,-1,4,-1,-1,-1,-1,,5000,0,1,1,FEW 1,1,3,1,1,1020,RJDM 192200Z 03004KT 5000 BR FEW001 03/01 Q1020 RMK 1ST001     A3014=,BR
20180119_230000.003,0,RJDM,,,,0,20180119230000,-1,-1,-1,-1,40,-1,5,-1,-1,-1,-1,,5000,0,1,1,FEW 1,1,4,1,2,1021,RJDM 192300Z 04005KT 5000 BR FEW001 04/02 Q1021 RMK 1ST001     A3015=,BR
20180120_000000.003,0,RJDM,,,,0,20180120000000,-1,-1,-1,-1,70,-1,5,-1,-1,-1,-1,,6000,0,0,1,FEW 1,1,5,1,2,1020,RJDM 200000Z 07005KT 6000 FEW001 05/02 Q1020 RMK 1ST001 A3014=,
20180120_010000.003,0,RJDM,,,,0,20180120010000,-1,-1,-1,-1,80,-1,2,-1,-1,-1,-1,,6000,0,0,1,NSC -1,1,7,1,4,1022,RJDM 200100Z 08002KT 6000 NSC 07/04 Q1022 RMK A3018=,
20180120_020000.004,0,RJDM,,,,0,20180120020000,-1,-1,-1,-1,0,-1,0,-1,-1,-1,-1,,7000,0,0,1,FEW 30,1,9,1,4,1022,RJDM 200200Z 00000KT 7000 FEW030 09/04 Q1022 RMK 1CU030 A3018=,
20180120_030000.003,0,RJDM,,,,0,20180120030000,-1,-1,-1,-1,100,-1,2,-1,-1,-1,-1,,8000,0,0,2,FEW 30   SCT 200,1,11,1,4,1020,RJDM 200300Z 10002KT 8000 FEW030 SCT200 11/04 Q1020 RMK 1CU030     3CI200 A3013=,
20180120_040000.003,0,RJDM,,,,0,20180120040000,-1,-1,-1,-1,-1,-1,-1,-1,-1,-1,-1,,-1,0,0,0,,0,-1,0,-1,-1,RJDM 200400Z NIL=,
20180120_050000.003,0,RJDM,,,,0,20180120050000,-1,-1,-1,-1,-1,-1,-1,-1,-1,-1,-1,,-1,0,0,0,,0,-1,0,-1,-1,RJDM 200500Z NIL=,
20180120_060000.003,0,RJDM,,,,0,20180120060000,-1,-1,-1,-1,-1,-1,-1,-1,-1,-1,-1,,-1,0,0,0,,0,-1,0,-1,-1,RJDM 200600Z NIL=,
20180120_070000.003,0,RJDM,,,,0,20180120070000,-1,-1,-1,-1,-1,-1,-1,-1,-1,-1,-1,,-1,0,0,0,,0,-1,0,-1,-1,RJDM 200700Z NIL=,
20180120_080000.003,0,RJDM,,,,0,20180120080000,-1,-1,-1,-1,-1,-1,-1,-1,-1,-1,-1,,-1,0,0,0,,0,-1,0,-1,-1,RJDM 200800Z NIL=,
20180120_090000.003,0,RJDM,,,,0,20180120090000,-1,-1,-1,-1,-1,-1,-1,-1,-1,-1,-1,,-1,0,0,0,,0,-1,0,-1,-1,RJDM 200900Z NIL=,
20180120_100000.003,0,RJDM,,,,0,20180120100000,-1,-1,-1,-1,-1,-1,-1,-1,-1,-1,-1,,-1,0,0,0,,0,-1,0,-1,-1,RJDM 201000Z NIL=,
20180120_110000.003,0,RJDM,,,,0,20180120110000,-1,-1,-1,-1,-1,-1,-1,-1,-1,-1,-1,,-1,0,0,0,,0,-1,0,-1,-1,RJDM 201100Z NIL=,
20180120_120000.003,0,RJDM,,,,0,20180120120000,-1,-1,-1,-1,-1,-1,-1,-1,-1,-1,-1,,-1,0,0,0,,0,-1,0,-1,-1,RJDM 201200Z NIL=,
20180120_130000.003,0,RJDM,,,,0,20180120130000,-1,-1,-1,-1,-1,-1,-1,-1,-1,-1,-1,,-1,0,0,0,,0,-1,0,-1,-1,RJDM 201300Z NIL=,
20180120_140000.003,0,RJDM,,,,0,20180120140000,-1,-1,-1,-1,-1,-1,-1,-1,-1,-1,-1,,-1,0,0,0,,0,-1,0,-1,-1,RJDM 201400Z NIL=,
20180120_150000.003,0,RJDM,,,,0,20180120150000,-1,-1,-1,-1,-1,-1,-1,-1,-1,-1,-1,,-1,0,0,0,,0,-1,0,-1,-1,RJDM 201500Z NIL=,
20180120_160000.003,0,RJDM,,,,0,20180120160000,-1,-1,-1,-1,-1,-1,-1,-1,-1,-1,-1,,-1,0,0,0,,0,-1,0,-1,-1,RJDM 201600Z NIL=,
20180120_170000.003,0,RJDM,,,,0,20180120170000,-1,-1,-1,-1,-1,-1,-1,-1,-1,-1,-1,,-1,0,0,0,,0,-1,0,-1,-1,RJDM 201700Z NIL=,
20180120_180000.003,0,RJDM,,,,0,20180120180000,-1,-1,-1,-1,-1,-1,-1,-1,-1,-1,-1,,-1,0,0,0,,0,-1,0,-1,-1,RJDM 201800Z NIL=,
20180120_190000.004,0,RJDM,,,,0,20180120190000,-1,-1,-1,-1,-1,-1,-1,-1,-1,-1,-1,,-1,0,0,0,,0,-1,0,-1,-1,RJDM 201900Z NIL=,
20180120_200000.003,0,RJDM,,,,0,20180120200000,-1,-1,-1,-1,-1,-1,-1,-1,-1,-1,-1,,-1,0,0,0,,0,-1,0,-1,-1,RJDM 202000Z NIL=,
20180120_210000.003,0,RJDM,,,,0,20180120210000,-1,-1,-1,-1,-1,-1,-1,-1,-1,-1,-1,,-1,0,0,0,,0,-1,0,-1,-1,RJDM 202100Z NIL=,
20180120_220000.003,0,RJDM,,,,0,20180120220000,-1,-1,-1,-1,40,-1,4,-1,-1,-1,-1,,9999,0,0,1,FEW 35,1,1,-1,2,1021,RJDM 202200Z 04004KT 9999 FEW035 01/M02 Q1021 RMK 1CU035     A3017=,
20180120_230000.003,0,RJDM,,,,0,20180120230000,-1,-1,-1,-1,40,-1,3,-1,-1,-1,-1,,9999,0,0,1,FEW 35,1,2,-1,0,1022,RJDM 202300Z 04003KT 9999 FEW035 02/M00 Q1022 RMK 1CU035     A3019=,
20180121_000000.003,0,RJDM,,,,0,20180121000000,-1,-1,-1,-1,70,-1,3,-1,-1,-1,-1,,9999,0,0,1,FEW 35,1,4,1,1,1022,RJDM 210000Z 07003KT 9999 FEW035 04/01 Q1022 RMK 1CU035 A3020=,
20180121_010000.003,0,RJDM,,,,0,20180121010000,-1,-1,-1,-1,60,-1,5,-1,-1,-1,-1,,9999,0,0,1,FEW 35,1,6,1,1,1022,RJDM 210100Z 06005KT 9999 FEW035 06/01 Q1022 RMK 1CU035 A3019=,
20180121_020000.003,0,RJDM,,,,0,20180121020000,-1,-1,-1,-1,60,-1,5,-1,-1,-1,-1,,9999,0,0,1,FEW 40,1,8,1,2,1022,RJDM 210200Z 06005KT 9999 FEW040 08/02 Q1022 RMK 2CU040 A3019=,
20180121_030000.003,0,RJDM,,,,0,20180121030000,-1,-1,-1,-1,100,-1,5,-1,-1,-1,-1,,9999,0,0,1,FEW 40,1,11,1,1,1021,RJDM 210300Z 10005KT 9999 FEW040 11/01 Q1021 RMK 2CU040 A3016=,
20180121_040000.004,0,RJDM,,,,0,20180121040000,-1,-1,-1,-1,350,-1,10,-1,-1,-1,-1,,9999,0,0,1,FEW 40,1,13,-1,0,1020,RJDM 210400Z 35010KT 9999 FEW040 13/M00 Q1020 RMK 2CU040     A3013=,
20180121_050000.003,0,RJDM,,,,0,20180121050000,-1,-1,-1,-1,-1,-1,-1,-1,-1,-1,-1,,-1,0,0,0,,0,-1,0,-1,-1,RJDM 210500Z NIL=,
20180121_060000.003,0,RJDM,,,,0,20180121060000,-1,-1,-1,-1,-1,-1,-1,-1,-1,-1,-1,,-1,0,0,0,,0,-1,0,-1,-1,RJDM 210600Z NIL=,
20180121_070000.003,0,RJDM,,,,0,20180121070000,-1,-1,-1,-1,-1,-1,-1,-1,-1,-1,-1,,-1,0,0,0,,0,-1,0,-1,-1,RJDM 210700Z NIL=,
20180121_080000.003,0,RJDM,,,,0,20180121080000,-1,-1,-1,-1,-1,-1,-1,-1,-1,-1,-1,,-1,0,0,0,,0,-1,0,-1,-1,RJDM 210800Z NIL=,
20180121_090000.003,0,RJDM,,,,0,20180121090000,-1,-1,-1,-1,-1,-1,-1,-1,-1,-1,-1,,-1,0,0,0,,0,-1,0,-1,-1,RJDM 210900Z NIL=,
20180121_100000.003,0,RJDM,,,,0,20180121100000,-1,-1,-1,-1,-1,-1,-1,-1,-1,-1,-1,,-1,0,0,0,,0,-1,0,-1,-1,RJDM 211000Z NIL=,
20180121_110000.003,0,RJDM,,,,0,20180121110000,-1,-1,-1,-1,-1,-1,-1,-1,-1,-1,-1,,-1,0,0,0,,0,-1,0,-1,-1,RJDM 211100Z NIL=,
20180121_120000.003,0,RJDM,,,,0,20180121120000,-1,-1,-1,-1,-1,-1,-1,-1,-1,-1,-1,,-1,0,0,0,,0,-1,0,-1,-1,RJDM 211200Z NIL=,
20180121_130000.004,0,RJDM,,,,0,20180121130000,-1,-1,-1,-1,-1,-1,-1,-1,-1,-1,-1,,-1,0,0,0,,0,-1,0,-1,-1,RJDM 211300Z NIL=,
20180121_140000.003,0,RJDM,,,,0,20180121140000,-1,-1,-1,-1,-1,-1,-1,-1,-1,-1,-1,,-1,0,0,0,,0,-1,0,-1,-1,RJDM 211400Z NIL=,
20180121_150000.003,0,RJDM,,,,0,20180121150000,-1,-1,-1,-1,-1,-1,-1,-1,-1,-1,-1,,-1,0,0,0,,0,-1,0,-1,-1,RJDM 211500Z NIL=,
20180121_160000.003,0,RJDM,,,,0,20180121160000,-1,-1,-1,-1,-1,-1,-1,-1,-1,-1,-1,,-1,0,0,0,,0,-1,0,-1,-1,RJDM 211600Z NIL=,
20180121_170000.003,0,RJDM,,,,0,20180121170000,-1,-1,-1,-1,-1,-1,-1,-1,-1,-1,-1,,-1,0,0,0,,0,-1,0,-1,-1,RJDM 211700Z NIL=,
20180121_180000.003,0,RJDM,,,,0,20180121180000,-1,-1,-1,-1,-1,-1,-1,-1,-1,-1,-1,,-1,0,0,0,,0,-1,0,-1,-1,RJDM 211800Z NIL=,
20180121_190000.003,0,RJDM,,,,0,20180121190000,-1,-1,-1,-1,-1,-1,-1,-1,-1,-1,-1,,-1,0,0,0,,0,-1,0,-1,-1,RJDM 211900Z NIL=,
20180121_200000.003,0,RJDM,,,,0,20180121200000,-1,-1,-1,-1,-1,-1,-1,-1,-1,-1,-1,,-1,0,0,0,,0,-1,0,-1,-1,RJDM 212000Z NIL=,
20180121_210000.003,0,RJDM,,,,0,20180121210000,-1,-1,-1,-1,40,-1,8,-1,-1,-1,-1,,7000,0,1,3,FEW 15   BKN 30   BKN 40,1,6,1,2,1016,RJDM 212100Z 04008KT 7000 -SHRA FEW015 BKN030 BKN040 06/02     Q1016 RMK 1CU015 5CU030 7SC040 A3002=,- RA SH
20180121_220000.003,0,RJDM,,,,0,20180121220000,-1,-1,-1,-1,20,-1,3,-1,-1,-1,-1,,6000,0,1,3,FEW 10   BKN 25   BKN 30,1,5,1,3,1015,RJDM 212200Z 02003KT 6000 SHRA FEW010 BKN025 BKN030 05/03     Q1015 RMK 1CU010 5CU025 6CU030 A2998=,RA SH
20180121_230000.003,0,RJDM,,,,0,20180121230000,-1,-1,-1,-1,360,-1,5,-1,-1,-1,-1,,8000,0,1,3,FEW 8   BKN 25   BKN 30,1,5,1,2,1015,RJDM 212300Z 36005KT 8000 -SHRA FEW008 BKN025 BKN030 05/02     Q1015 RMK 1ST008 5CU025 7CU030 A2999=,- RA SH
20180122_000000.003,0,RJDM,,,,0,20180122000000,-1,-1,-1,-1,30,-1,1,-1,-1,-1,-1,,9000,0,1,3,FEW 10   SCT 25   BKN 35,1,5,1,3,1015,RJDM 220000Z 03001KT 9000 -SHRA FEW010 SCT025 BKN035 05/03     Q1015 RMK 1CU010 3CU025 6CU035 A2999=,- RA SH
20180122_010000.003,0,RJDM,,,,0,20180122010000,-1,-1,-1,-1,50,-1,6,-1,-1,-1,-1,,7000,0,1,3,FEW 5   SCT 25   BKN 35,1,5,1,3,1015,RJDM 220100Z 05006KT 7000 -SHRA FEW005 SCT025 BKN035 05/03     Q1015 RMK 1ST005 3CU025 7CU035 A2999=,- RA SH
20180122_020000.003,0,RJDM,,,,0,20180122020000,-1,-1,-1,-1,50,-1,11,-1,-1,-1,-1,,7000,0,1,3,FEW 5   SCT 25   BKN 35,1,4,1,2,1014,RJDM 220200Z 05011KT 7000 -SHRA FEW005 SCT025 BKN035 04/02     Q1014 RMK 1ST005 3CU025 6CU035 A2995 MAX WIND 17KT=,- RA SH
20180122_030000.003,0,RJDM,,,,0,20180122030000,-1,-1,-1,-1,60,-1,8,-1,-1,-1,-1,,9000,0,1,3,FEW 5   SCT 25   BKN 35,1,5,1,2,1013,RJDM 220300Z 06008KT 9000 -SHRA FEW005 SCT025 BKN035 05/02     Q1013 RMK 1ST005 3CU025 7CU035 A2993=,- RA SH
20180122_040000.003,0,RJDM,,,,0,20180122040000,-1,-1,-1,-1,10,-1,4,-1,-1,-1,-1,,9999,0,0,3,FEW 5   SCT 25   BKN 40,1,6,1,2,1012,RJDM 220400Z 01004KT 9999 FEW005 SCT025 BKN040 06/02 Q1012 RMK     1ST005 3CU025 7SC040 A2990=,
20180122_050000.003,0,RJDM,,,,0,20180122050000,-1,-1,-1,-1,60,-1,7,-1,-1,-1,-1,,9999,0,0,3,FEW 8   SCT 25   BKN 45,1,6,1,2,1013,RJDM 220500Z 06007KT 9999 FEW008 SCT025 BKN045 06/02 Q1013 RMK     1ST008 3CU025 7SC045 A2991=,
20180122_060000.004,0,RJDM,,,,0,20180122060000,-1,-1,-1,-1,70,-1,9,-1,-1,-1,-1,,9999,0,0,1,FEW 20,1,7,1,4,1012,RJDM 220600Z 07009KT 9999 FEW020 07/04 Q1012 RMK 1CU020 A2991=,
20180122_070000.003,0,RJDM,,,,0,20180122070000,-1,-1,-1,-1,120,-1,4,-1,-1,-1,-1,,9999,0,0,2,FEW 20   SCT 35,1,8,1,3,1013,RJDM 220700Z 12004KT 9999 FEW020 SCT035 08/03 Q1013 RMK 1CU020     3CU035 A2993=,
20180122_080000.004,0,RJDM,,,,0,20180122080000,-1,-1,-1,-1,70,-1,4,-1,-1,-1,-1,,9999,0,0,2,FEW 20   SCT 30,1,7,1,3,1014,RJDM 220800Z 07004KT 9999 FEW020 SCT030 07/03 Q1014 RMK 1CU020     4CU030 A2995=,
20180122_090000.003,0,RJDM,,,,0,20180122090000,-1,-1,-1,-1,70,-1,5,-1,-1,-1,-1,,9999,0,0,1,FEW 20,1,6,1,3,1014,RJDM 220900Z 07005KT 9999 FEW020 06/03 Q1014 RMK 1CU020 A2996=,
20180122_100000.003,0,RJDM,,,,0,20180122100000,-1,-1,-1,-1,40,-1,1,-1,-1,-1,-1,,9999,0,0,1,FEW 25,1,5,1,3,1015,RJDM 221000Z 04001KT 9999 FEW025 05/03 Q1015 RMK 1CU025 A2999=,
20180122_110000.004,0,RJDM,,,,0,20180122110000,-1,-1,-1,-1,-1,-1,-1,-1,-1,-1,-1,,-1,0,0,0,,0,-1,0,-1,-1,RJDM 221100Z NIL=,
20180122_120000.003,0,RJDM,,,,0,20180122120000,-1,-1,-1,-1,-1,-1,-1,-1,-1,-1,-1,,-1,0,0,0,,0,-1,0,-1,-1,RJDM 221200Z NIL=,
20180122_130000.004,0,RJDM,,,,0,20180122130000,-1,-1,-1,-1,-1,-1,-1,-1,-1,-1,-1,,-1,0,0,0,,0,-1,0,-1,-1,RJDM 221300Z NIL=,
20180122_140000.004,0,RJDM,,,,0,20180122140000,-1,-1,-1,-1,-1,-1,-1,-1,-1,-1,-1,,-1,0,0,0,,0,-1,0,-1,-1,RJDM 221400Z NIL=,
20180122_150000.003,0,RJDM,,,,0,20180122150000,-1,-1,-1,-1,-1,-1,-1,-1,-1,-1,-1,,-1,0,0,0,,0,-1,0,-1,-1,RJDM 221500Z NIL=,
20180122_160000.003,0,RJDM,,,,0,20180122160000,-1,-1,-1,-1,-1,-1,-1,-1,-1,-1,-1,,-1,0,0,0,,0,-1,0,-1,-1,RJDM 221600Z NIL=,
20180122_170000.003,0,RJDM,,,,0,20180122170000,-1,-1,-1,-1,-1,-1,-1,-1,-1,-1,-1,,-1,0,0,0,,0,-1,0,-1,-1,RJDM 221700Z NIL=,
20180122_180000.003,0,RJDM,,,,0,20180122180000,-1,-1,-1,-1,-1,-1,-1,-1,-1,-1,-1,,-1,0,0,0,,0,-1,0,-1,-1,RJDM 221800Z NIL=,
20180122_190000.003,0,RJDM,,,,0,20180122190000,-1,-1,-1,-1,-1,-1,-1,-1,-1,-1,-1,,-1,0,0,0,,0,-1,0,-1,-1,RJDM 221900Z NIL=,
20180122_200000.003,0,RJDM,,,,0,20180122200000,-1,-1,-1,-1,-1,-1,-1,-1,-1,-1,-1,,-1,0,0,0,,0,-1,0,-1,-1,RJDM 222000Z NIL=,
20180122_210000.004,0,RJDM,,,,0,20180122210000,-1,-1,-1,-1,230,-1,5,-1,-1,-1,-1,,7000,0,0,1,FEW 30,1,5,1,3,1016,RJDM 222100Z 23005KT 7000 FEW030 05/03 Q1016 RMK 1CU030 A3001=,
20180122_220000.003,0,RJDM,,,,0,20180122220000,-1,-1,-1,-1,260,-1,9,-1,-1,-1,-1,,9999,0,0,1,FEW 30,1,6,-1,0,1017,RJDM 222200Z 26009KT 9999 FEW030 06/M00 Q1017 RMK 1CU030     A3003=,
20180122_230000.004,0,RJDM,,,,0,20180122230000,-1,-1,-1,-1,230,-1,4,-1,-1,-1,-1,,9999,0,0,1,FEW 30,1,5,-1,0,1017,RJDM 222300Z 23004KT 9999 FEW030 05/M00 Q1017 RMK 1CU030     A3005=,
20180123_000000.003,0,RJDM,,,,0,20180123000000,-1,-1,-1,-1,250,-1,4,-1,-1,-1,-1,,9999,0,0,1,FEW 30,1,7,1,1,1018,RJDM 230000Z 25004KT 9999 FEW030 07/01 Q1018 RMK 2CU030 A3008=,
20180123_010000.003,0,RJDM,,,,0,20180123010000,-1,-1,-1,-1,300,-1,4,-1,-1,-1,-1,,9999,0,0,2,FEW 25   BKN 35,1,7,-1,0,1019,RJDM 230100Z 30004KT 9999 FEW025 BKN035 07/M00 Q1019 RMK     2CU025 5CU035 A3011=,
20180123_020000.003,0,RJDM,,,,0,20180123020000,-1,-1,-1,-1,280,-1,7,-1,19,-1,-1,,9999,0,1,3,FEW 25   BKN 35   BKN 40,1,6,1,3,1020,RJDM 230200Z 28007G19KT 9999 -SHRA FEW025 BKN035 BKN040 06/03     Q1020 RMK 1CU025 5CU035 7CU040 A3012=,- RA SH
20180123_030000.004,0,RJDM,,,,0,20180123030000,-1,-1,-1,-1,290,-1,6,-1,16,-1,-1,,9999,0,0,2,FEW 30   SCT 40,1,7,-1,0,1019,RJDM 230300Z 29006G16KT 9999 FEW030 SCT040 07/M00 Q1019 RMK     1CU030 4CU040 A3011=,
20180123_040000.004,0,RJDM,,,,0,20180123040000,-1,-1,-1,-1,300,-1,5,-1,-1,-1,-1,,9999,0,1,3,FEW 20   SCT 35   BKN 45,1,6,-1,1,1020,RJDM 230400Z 30005KT 9999 -SHRA FEW020 SCT035 BKN045 06/M01     Q1020 RMK 1CU020 3CU035 5CU045 A3012=,- RA SH
20180123_050000.003,0,RJDM,,,,0,20180123050000,-1,-1,-1,-1,330,-1,6,-1,17,-1,-1,,9999,0,0,3,FEW 20   SCT 45   BKN 200,1,5,-1,0,1020,RJDM 230500Z 33006G17KT 9999 FEW020 SCT045 BKN200 05/M00 Q1020     RMK 1CU020 4CU045 5CI200 A3012=,
20180123_060000.004,0,RJDM,,,,0,20180123060000,-1,-1,-1,-1,300,-1,4,-1,-1,-1,-1,,9999,0,0,3,FEW 25   SCT 45   BKN 200,1,6,-1,4,1020,RJDM 230600Z 30004KT 9999 FEW025 SCT045 BKN200 06/M04 Q1020     RMK 1CU025 4CU045 6CI200 A3012=,
20180123_070000.003,0,RJDM,,,,0,20180123070000,-1,-1,-1,-1,270,-1,7,-1,19,-1,-1,,9999,0,0,2,FEW 30   SCT 45,1,5,-1,4,1020,RJDM 230700Z 27007G19KT 9999 FEW030 SCT045 05/M04 Q1020 RMK     1CU030 3CU045 A3012=,
20180123_080000.003,0,RJDM,,,,0,20180123080000,-1,-1,-1,-1,270,-1,8,-1,-1,-1,-1,,9999,0,0,1,FEW 30,1,4,-1,2,1020,RJDM 230800Z 27008KT 9999 FEW030 04/M02 Q1020 RMK 1CU030 A3012     MAX WIND 16KT=,
20180123_090000.003,0,RJDM,,,,0,20180123090000,-1,-1,-1,-1,270,-1,4,-1,-1,-1,-1,,9999,0,0,1,FEW 30,1,2,-1,6,1020,RJDM 230900Z 27004KT 9999 FEW030 02/M06 Q1020 RMK 1CU030     A3013=,
20180123_100000.003,0,RJDM,,,,0,20180123100000,-1,-1,-1,-1,250,-1,3,-1,-1,-1,-1,,9999,0,0,1,FEW 30,1,2,-1,7,1021,RJDM 231000Z 25003KT 9999 FEW030 02/M07 Q1021 RMK 1CU030     A3015=,
20180123_110000.003,0,RJDM,,,,0,20180123110000,-1,-1,-1,-1,-1,-1,-1,-1,-1,-1,-1,,-1,0,0,0,,0,-1,0,-1,-1,RJDM 231100Z NIL=,
20180123_120000.003,0,RJDM,,,,0,20180123120000,-1,-1,-1,-1,-1,-1,-1,-1,-1,-1,-1,,-1,0,0,0,,0,-1,0,-1,-1,RJDM 231200Z NIL=,
20180123_130000.003,0,RJDM,,,,0,20180123130000,-1,-1,-1,-1,-1,-1,-1,-1,-1,-1,-1,,-1,0,0,0,,0,-1,0,-1,-1,RJDM 231300Z NIL=,
20180123_140000.003,0,RJDM,,,,0,20180123140000,-1,-1,-1,-1,-1,-1,-1,-1,-1,-1,-1,,-1,0,0,0,,0,-1,0,-1,-1,RJDM 231400Z NIL=,
20180123_150000.003,0,RJDM,,,,0,20180123150000,-1,-1,-1,-1,-1,-1,-1,-1,-1,-1,-1,,-1,0,0,0,,0,-1,0,-1,-1,RJDM 231500Z NIL=,
20180123_160000.003,0,RJDM,,,,0,20180123160000,-1,-1,-1,-1,-1,-1,-1,-1,-1,-1,-1,,-1,0,0,0,,0,-1,0,-1,-1,RJDM 231600Z NIL=,
20180123_170000.003,0,RJDM,,,,0,20180123170000,-1,-1,-1,-1,-1,-1,-1,-1,-1,-1,-1,,-1,0,0,0,,0,-1,0,-1,-1,RJDM 231700Z NIL=,
20180123_180000.003,0,RJDM,,,,0,20180123180000,-1,-1,-1,-1,-1,-1,-1,-1,-1,-1,-1,,-1,0,0,0,,0,-1,0,-1,-1,RJDM 231800Z NIL=,
20180123_190000.003,0,RJDM,,,,0,20180123190000,-1,-1,-1,-1,-1,-1,-1,-1,-1,-1,-1,,-1,0,0,0,,0,-1,0,-1,-1,RJDM 231900Z NIL=,
20180123_200000.003,0,RJDM,,,,0,20180123200000,-1,-1,-1,-1,-1,-1,-1,-1,-1,-1,-1,,-1,0,0,0,,0,-1,0,-1,-1,RJDM 232000Z NIL=,
20180123_210000.003,0,RJDM,,,,0,20180123210000,-1,-1,-1,-1,330,-1,2,-1,-1,-1,-1,,2500,0,1,3,FEW 10   BKN 20   BKN 40,-1,1,-1,3,1022,RJDM 232100Z 33002KT 2500 -SHSN FEW010 BKN020 BKN040 M01/M03     Q1022 RMK 1CU010 5CU020 7CU040 A3019=,- SN SH
20180123_220000.003,0,RJDM,,,,0,20180123220000,-1,-1,-1,-1,180,-1,1,-1,-1,-1,-1,,9000,0,1,3,FEW 15   SCT 30   BKN 45,-1,1,-1,3,1023,RJDM 232200Z 18001KT 9000 -SHSN FEW015 SCT030 BKN045 M01/M03     Q1023 RMK 1CU015 3CU030 6CU045 A3021=,- SN SH
20180123_230000.003,0,RJDM,,,,0,20180123230000,-1,-1,-1,-1,280,-1,5,-1,-1,-1,-1,,9999,0,1,3,FEW 15   SCT 25   BKN 35,1,0,-1,4,1023,RJDM 232300Z 28005KT 9999 -SHSN FEW015 SCT025 BKN035 00/M04     Q1023 RMK 1CU015 3CU025 7CU035 A3023=,- SN SH
20180124_000000.003,0,RJDM,,,,0,20180124000000,-1,-1,-1,-1,310,-1,5,-1,-1,-1,-1,,9999,0,1,2,FEW 10   BKN 40,1,2,-1,6,1023,RJDM 240000Z 31005KT 9999 -SHSN FEW010 BKN040 02/M06 Q1023 RMK     1CU010 5CU040 A3023=,- SN SH
20180124_010000.004,0,RJDM,,,,0,20180124010000,-1,-1,-1,-1,350,-1,9,-1,-1,-1,-1,,6000,0,1,2,FEW 25   BKN 35,1,1,-1,4,1024,RJDM 240100Z 35009KT 6000 -SHSN FEW025 BKN035 01/M04 Q1024 RMK     1CU025 5CU035 A3024 MAX WIND 16KT 3000N=,- SN SH
20180124_020000.003,0,RJDM,,,,0,20180124020000,-1,-1,-1,-1,320,-1,6,-1,-1,-1,-1,,4000,0,1,3,FEW 10   BKN 20   BKN 35,1,0,-1,4,1024,RJDM 240200Z 32006KT 4000 -SHSN FEW010 BKN020 BKN035 00/M04     Q1024 RMK 1CU010 5CU020 6CU035 A3024=,- SN SH
20180124_030000.003,0,RJDM,,,,0,20180124030000,-1,-1,-1,-1,280,-1,7,-1,-1,-1,-1,,7000,0,1,3,FEW 10   SCT 25   BKN 40,1,2,-1,3,1023,RJDM 240300Z 28007KT 7000 -SHSN FEW010 SCT025 BKN040 02/M03     Q1023 RMK 1CU010 3CU025 5CU040 A3023 MAX WIND 16KT=,- SN SH
20180124_040000.003,0,RJDM,,,,0,20180124040000,-1,-1,-1,-1,330,-1,13,-1,28,-1,-1,,9999,0,1,3,FEW 10   SCT 25   BKN 40,1,3,-1,7,1023,RJDM 240400Z 33013G28KT 9999 -SHSN FEW010 SCT025 BKN040 03/M07     Q1023 RMK 1CU010 3CU025 5CU040 A3021=,- SN SH
20180124_050000.003,0,RJDM,,,,0,20180124050000,-1,-1,-1,-1,300,-1,7,-1,-1,-1,-1,,9999,0,0,2,FEW 25   SCT 40,1,2,-1,9,1022,RJDM 240500Z 30007KT 9999 FEW025 SCT040 02/M09 Q1022 RMK     1CU025 3CU040 A3020=,
20180124_060000.003,0,RJDM,,,,0,20180124060000,-1,-1,-1,-1,310,-1,7,-1,18,-1,-1,,9999,0,0,2,FEW 30   SCT 40,1,2,-1,10,1022,RJDM 240600Z 31007G18KT 9999 FEW030 SCT040 02/M10 Q1022 RMK     1CU030 3CU040 A3020=,
20180124_070000.003,0,RJDM,,,,0,20180124070000,-1,-1,-1,-1,310,-1,5,-1,15,-1,-1,,9999,0,0,2,FEW 30   SCT 40,1,2,-1,9,1022,RJDM 240700Z 31005G15KT 9999 FEW030 SCT040 02/M09 Q1022 RMK     1CU030 3CU040 A3020=,
20180124_080000.003,0,RJDM,,,,0,20180124080000,-1,-1,-1,-1,320,-1,7,-1,-1,-1,-1,,9999,0,0,2,FEW 30   SCT 40,1,1,-1,10,1023,RJDM 240800Z 32007KT 9999 FEW030 SCT040 01/M10 Q1023 RMK     1CU030 3CU040 A3021 MAX WIND 16KT=,
20180124_090000.004,0,RJDM,,,,0,20180124090000,-1,-1,-1,-1,-1,-1,-1,-1,-1,-1,-1,,-1,0,0,0,,0,-1,0,-1,-1,RJDM 240900Z NIL=,
20180124_100000.003,0,RJDM,,,,0,20180124100000,-1,-1,-1,-1,-1,-1,-1,-1,-1,-1,-1,,-1,0,0,0,,0,-1,0,-1,-1,RJDM 241000Z NIL=,
20180124_110000.003,0,RJDM,,,,0,20180124110000,-1,-1,-1,-1,-1,-1,-1,-1,-1,-1,-1,,-1,0,0,0,,0,-1,0,-1,-1,RJDM 241100Z NIL=,
20180124_120000.003,0,RJDM,,,,0,20180124120000,-1,-1,-1,-1,-1,-1,-1,-1,-1,-1,-1,,-1,0,0,0,,0,-1,0,-1,-1,RJDM 241200Z NIL=,
20180124_130000.003,0,RJDM,,,,0,20180124130000,-1,-1,-1,-1,-1,-1,-1,-1,-1,-1,-1,,-1,0,0,0,,0,-1,0,-1,-1,RJDM 241300Z NIL=,
20180124_140000.004,0,RJDM,,,,0,20180124140000,-1,-1,-1,-1,-1,-1,-1,-1,-1,-1,-1,,-1,0,0,0,,0,-1,0,-1,-1,RJDM 241400Z NIL=,
20180124_150000.003,0,RJDM,,,,0,20180124150000,-1,-1,-1,-1,-1,-1,-1,-1,-1,-1,-1,,-1,0,0,0,,0,-1,0,-1,-1,RJDM 241500Z NIL=,
20180124_160000.003,0,RJDM,,,,0,20180124160000,-1,-1,-1,-1,-1,-1,-1,-1,-1,-1,-1,,-1,0,0,0,,0,-1,0,-1,-1,RJDM 241600Z NIL=,
20180124_170000.003,0,RJDM,,,,0,20180124170000,-1,-1,-1,-1,-1,-1,-1,-1,-1,-1,-1,,-1,0,0,0,,0,-1,0,-1,-1,RJDM 241700Z NIL=,
20180124_180000.003,0,RJDM,,,,0,20180124180000,-1,-1,-1,-1,-1,-1,-1,-1,-1,-1,-1,,-1,0,0,0,,0,-1,0,-1,-1,RJDM 241800Z NIL=,
20180124_190000.004,0,RJDM,,,,0,20180124190000,-1,-1,-1,-1,-1,-1,-1,-1,-1,-1,-1,,-1,0,0,0,,0,-1,0,-1,-1,RJDM 241900Z NIL=,
20180124_200000.003,0,RJDM,,,,0,20180124200000,-1,-1,-1,-1,-1,-1,-1,-1,-1,-1,-1,,-1,0,0,0,,0,-1,0,-1,-1,RJDM 242000Z NIL=,
20180124_210000.004,0,RJDM,,,,0,20180124210000,-1,-1,-1,-1,330,-1,5,-1,-1,-1,-1,,9000,0,0,2,FEW 20   SCT 35,-1,1,-1,8,1024,RJDM 242100Z 33005KT 9000 FEW020 SCT035 M01/M08 Q1024 RMK     1CU020 4SC035 A3024=,
20180124_220000.003,0,RJDM,,,,0,20180124220000,-1,-1,-1,-1,290,-1,2,-1,-1,-1,-1,,9999,0,0,2,FEW 20   BKN 35,-1,1,-1,8,1024,RJDM 242200Z 29002KT 9999 FEW020 BKN035 M01/M08 Q1024 RMK     1CU020 6SC035 A3024=,
20180124_230000.003,0,RJDM,,,,0,20180124230000,-1,-1,-1,-1,320,-1,1,-1,-1,-1,-1,,9999,0,0,2,FEW 20   SCT 35,-1,1,-1,7,1024,RJDM 242300Z 32001KT 9999 FEW020 SCT035 M01/M07 Q1024 RMK     1CU020 4SC035 A3025=,
20180125_000000.003,0,RJDM,,,,0,20180125000000,-1,-1,-1,-1,280,-1,3,-1,-1,-1,-1,,9999,0,1,1,FEW 15,1,1,-1,7,1024,RJDM 250000Z 28003KT 9999 -SHSN FEW015 01/M07 Q1024 RMK 2CU015     A3025=,- SN SH
20180125_010000.003,0,RJDM,,,,0,20180125010000,-1,-1,-1,-1,300,-1,3,-1,-1,-1,-1,,9999,0,1,2,FEW 20   BKN 40,1,2,-1,7,1024,RJDM 250100Z 30003KT 9999 VCSH FEW020 BKN040 02/M07 Q1024 RMK     1CU020 5CU040 A3026=,VC SH
20180125_020000.004,0,RJDM,,,,0,20180125020000,-1,-1,-1,-1,290,-1,4,-1,-1,-1,-1,,9999,0,1,2,FEW 25   SCT 30,1,2,-1,7,1024,RJDM 250200Z 29004KT 9999 -SHSN FEW025 SCT030 02/M07 Q1024 RMK     1CU025 4CU030 A3025=,- SN SH
20180125_030000.003,0,RJDM,,,,0,20180125030000,-1,-1,-1,-1,60,-1,2,-1,-1,-1,-1,,9999,0,0,2,FEW 30   BKN 40,1,2,-1,8,1023,RJDM 250300Z 06002KT 9999 FEW030 BKN040 02/M08 Q1023 RMK     2CU030 5CU040 A3023=,
20180125_040000.003,0,RJDM,,,,0,20180125040000,-1,-1,-1,-1,360,-1,7,-1,24,-1,-1,,9999,0,0,2,FEW 30   BKN 40,1,3,-1,9,1022,RJDM 250400Z 36007G24KT 9999 FEW030 BKN040 03/M09 Q1022 RMK     1CU030 5CU040 A3019=,
20180125_050000.003,0,RJDM,,,,0,20180125050000,-1,-1,-1,-1,280,-1,4,-1,-1,-1,-1,,9999,0,0,2,FEW 30   SCT 50,1,5,-1,9,1021,RJDM 250500Z 28004KT 9999 FEW030 SCT050 05/M09 Q1021 RMK     1CU030 3CU050 A3017=,
20180125_060000.003,0,RJDM,,,,0,20180125060000,-1,-1,-1,-1,310,-1,3,-1,-1,-1,-1,,9999,0,0,1,FEW 35,1,4,-1,10,1021,RJDM 250600Z 31003KT 9999 FEW035 04/M10 Q1021 RMK 1CU035     A3016=,
20180125_070000.003,0,RJDM,,,,0,20180125070000,-1,-1,-1,-1,310,-1,6,-1,-1,-1,-1,,9999,0,0,1,FEW 35,1,4,-1,9,1021,RJDM 250700Z 31006KT 9999 FEW035 04/M09 Q1021 RMK 1CU035     A3016=,
20180125_080000.003,0,RJDM,,,,0,20180125080000,-1,-1,-1,-1,310,-1,5,-1,-1,-1,-1,,9999,0,0,1,FEW 40,1,3,-1,9,1021,RJDM 250800Z 31005KT 9999 FEW040 03/M09 Q1021 RMK 1CU040     A3016=,
20180125_090000.003,0,RJDM,,,,0,20180125090000,-1,-1,-1,-1,340,-1,5,-1,-1,-1,-1,,9999,0,0,1,FEW 40,1,2,-1,8,1021,RJDM 250900Z 34005KT 9999 FEW040 02/M08 Q1021 RMK 1CU040     A3017=,
20180125_100000.004,0,RJDM,,,,0,20180125100000,-1,-1,-1,-1,350,-1,6,-1,-1,-1,-1,,9999,0,0,2,FEW 40   SCT 180,1,1,-1,8,1022,RJDM 251000Z 35006KT 9999 FEW040 SCT180 01/M08 Q1022 RMK     1CU040 3AC180 A3018=,
20180125_110000.004,0,RJDM,,,,0,20180125110000,-1,-1,-1,-1,-1,-1,-1,-1,-1,-1,-1,,-1,0,0,0,,0,-1,0,-1,-1,RJDM 251100Z NIL=,
20180125_120000.003,0,RJDM,,,,0,20180125120000,-1,-1,-1,-1,-1,-1,-1,-1,-1,-1,-1,,-1,0,0,0,,0,-1,0,-1,-1,RJDM 251200Z NIL=,
20180125_130000.003,0,RJDM,,,,0,20180125130000,-1,-1,-1,-1,-1,-1,-1,-1,-1,-1,-1,,-1,0,0,0,,0,-1,0,-1,-1,RJDM 251300Z NIL=,
20180125_140000.003,0,RJDM,,,,0,20180125140000,-1,-1,-1,-1,-1,-1,-1,-1,-1,-1,-1,,-1,0,0,0,,0,-1,0,-1,-1,RJDM 251400Z NIL=,
20180125_150000.003,0,RJDM,,,,0,20180125150000,-1,-1,-1,-1,-1,-1,-1,-1,-1,-1,-1,,-1,0,0,0,,0,-1,0,-1,-1,RJDM 251500Z NIL=,
20180125_160000.003,0,RJDM,,,,0,20180125160000,-1,-1,-1,-1,-1,-1,-1,-1,-1,-1,-1,,-1,0,0,0,,0,-1,0,-1,-1,RJDM 251600Z NIL=,
20180125_170000.003,0,RJDM,,,,0,20180125170000,-1,-1,-1,-1,-1,-1,-1,-1,-1,-1,-1,,-1,0,0,0,,0,-1,0,-1,-1,RJDM 251700Z NIL=,
20180125_180000.003,0,RJDM,,,,0,20180125180000,-1,-1,-1,-1,-1,-1,-1,-1,-1,-1,-1,,-1,0,0,0,,0,-1,0,-1,-1,RJDM 251800Z NIL=,
20180125_190000.003,0,RJDM,,,,0,20180125190000,-1,-1,-1,-1,-1,-1,-1,-1,-1,-1,-1,,-1,0,0,0,,0,-1,0,-1,-1,RJDM 251900Z NIL=,
20180125_200000.004,0,RJDM,,,,0,20180125200000,-1,-1,-1,-1,-1,-1,-1,-1,-1,-1,-1,,-1,0,0,0,,0,-1,0,-1,-1,RJDM 252000Z NIL=,
20180125_210000.003,0,RJDM,,,,0,20180125210000,-1,-1,-1,-1,150,-1,1,-1,-1,-1,-1,,9999,0,0,2,FEW 40   SCT 45,-1,3,-1,6,1021,RJDM 252100Z 15001KT 9999 FEW040 SCT045 M03/M06 Q1021 RMK     1CU040 3SC045 A3015=,
20180125_220000.003,0,RJDM,,,,0,20180125220000,-1,-1,-1,-1,300,-1,2,-1,-1,-1,-1,,9999,0,0,1,FEW 40,-1,2,-1,6,1021,RJDM 252200Z 30002KT 9999 FEW040 M02/M06 Q1021 RMK 2CU040     A3016=,
20180125_230000.003,0,RJDM,,,,0,20180125230000,-1,-1,-1,-1,310,-1,2,-1,-1,-1,-1,,9999,0,0,2,FEW 35   SCT 45,-1,0,-1,7,1022,RJDM 252300Z 31002KT 9999 FEW035 SCT045 M00/M07 Q1022 RMK     1CU035 4SC045 A3018=,
20180126_000000.003,0,RJDM,,,,0,20180126000000,-1,-1,-1,-1,320,-1,5,-1,-1,-1,-1,,9999,0,0,2,FEW 35   SCT 45,1,2,-1,9,1022,RJDM 260000Z 32005KT 9999 FEW035 SCT045 02/M09 Q1022 RMK     1CU035 3SC045 A3019=,
20180126_010000.003,0,RJDM,,,,0,20180126010000,-1,-1,-1,-1,310,-1,7,-1,18,-1,-1,,9999,0,0,1,FEW 30,1,2,-1,10,1022,RJDM 260100Z 31007G18KT 9999 FEW030 02/M10 Q1022 RMK 1CU030     A3020=,
20180126_020000.003,0,RJDM,,,,0,20180126020000,-1,-1,-1,-1,320,-1,7,-1,19,-1,-1,,9999,0,0,1,FEW 30,1,3,-1,9,1022,RJDM 260200Z 32007G19KT 9999 FEW030 03/M09 Q1022 RMK 1CU030     A3020=,
20180126_030000.003,0,RJDM,,,,0,20180126030000,-1,-1,-1,-1,330,-1,5,-1,17,-1,-1,,9999,0,0,1,FEW 35,1,4,-1,9,1022,RJDM 260300Z 33005G17KT 9999 FEW035 04/M09 Q1022 RMK 2CU035     A3018=,
20180126_040000.003,0,RJDM,,,,0,20180126040000,-1,-1,-1,-1,340,-1,8,-1,-1,-1,-1,,9999,0,0,1,FEW 30,1,4,-1,10,1021,RJDM 260400Z 34008KT 9999 FEW030 04/M10 Q1021 RMK 2CU030 A3016     MAX WIND 17KT=,
20180126_050000.003,0,RJDM,,,,0,20180126050000,-1,-1,-1,-1,330,-1,10,-1,-1,-1,-1,,9999,0,0,1,FEW 30,1,4,-1,10,1021,RJDM 260500Z 33010KT 9999 FEW030 04/M10 Q1021 RMK 1CU030 A3015     MAX WIND 16KT=,
20180126_060000.003,0,RJDM,,,,0,20180126060000,-1,-1,-1,-1,320,-1,6,-1,-1,-1,-1,,9999,0,0,1,FEW 40,1,4,-1,10,1021,RJDM 260600Z 32006KT 9999 FEW040 04/M10 Q1021 RMK 1CU040     A3016=,
20180126_070000.003,0,RJDM,,,,0,20180126070000,-1,-1,-1,-1,340,-1,9,-1,-1,-1,-1,,9999,0,0,1,FEW 40,1,3,-1,12,1021,RJDM 260700Z 34009KT 9999 FEW040 03/M12 Q1021 RMK 1CU040     A3016=,
20180126_080000.004,0,RJDM,,,,0,20180126080000,-1,-1,-1,-1,350,-1,8,-1,-1,-1,-1,,9999,0,0,1,FEW 40,1,3,-1,11,1021,RJDM 260800Z 35008KT 9999 FEW040 03/M11 Q1021 RMK 1CU040     A3016=,
20180126_090000.003,0,RJDM,,,,0,20180126090000,-1,-1,-1,-1,-1,-1,-1,-1,-1,-1,-1,,-1,0,0,0,,0,-1,0,-1,-1,RJDM 260900Z NIL=,
20180126_100000.003,0,RJDM,,,,0,20180126100000,-1,-1,-1,-1,-1,-1,-1,-1,-1,-1,-1,,-1,0,0,0,,0,-1,0,-1,-1,RJDM 261000Z NIL=,
20180126_110000.003,0,RJDM,,,,0,20180126110000,-1,-1,-1,-1,-1,-1,-1,-1,-1,-1,-1,,-1,0,0,0,,0,-1,0,-1,-1,RJDM 261100Z NIL=,
20180126_120000.003,0,RJDM,,,,0,20180126120000,-1,-1,-1,-1,-1,-1,-1,-1,-1,-1,-1,,-1,0,0,0,,0,-1,0,-1,-1,RJDM 261200Z NIL=,
20180126_130000.003,0,RJDM,,,,0,20180126130000,-1,-1,-1,-1,-1,-1,-1,-1,-1,-1,-1,,-1,0,0,0,,0,-1,0,-1,-1,RJDM 261300Z NIL=,
20180126_140000.003,0,RJDM,,,,0,20180126140000,-1,-1,-1,-1,-1,-1,-1,-1,-1,-1,-1,,-1,0,0,0,,0,-1,0,-1,-1,RJDM 261400Z NIL=,
20180126_150000.003,0,RJDM,,,,0,20180126150000,-1,-1,-1,-1,-1,-1,-1,-1,-1,-1,-1,,-1,0,0,0,,0,-1,0,-1,-1,RJDM 261500Z NIL=,
20180126_160000.003,0,RJDM,,,,0,20180126160000,-1,-1,-1,-1,-1,-1,-1,-1,-1,-1,-1,,-1,0,0,0,,0,-1,0,-1,-1,RJDM 261600Z NIL=,
20180126_170000.003,0,RJDM,,,,0,20180126170000,-1,-1,-1,-1,-1,-1,-1,-1,-1,-1,-1,,-1,0,0,0,,0,-1,0,-1,-1,RJDM 261700Z NIL=,
20180126_180000.003,0,RJDM,,,,0,20180126180000,-1,-1,-1,-1,-1,-1,-1,-1,-1,-1,-1,,-1,0,0,0,,0,-1,0,-1,-1,RJDM 261800Z NIL=,
20180126_190000.003,0,RJDM,,,,0,20180126190000,-1,-1,-1,-1,-1,-1,-1,-1,-1,-1,-1,,-1,0,0,0,,0,-1,0,-1,-1,RJDM 261900Z NIL=,
20180126_200000.004,0,RJDM,,,,0,20180126200000,-1,-1,-1,-1,-1,-1,-1,-1,-1,-1,-1,,-1,0,0,0,,0,-1,0,-1,-1,RJDM 262000Z NIL=,
20180126_210000.003,0,RJDM,,,,0,20180126210000,-1,-1,-1,-1,-1,-1,-1,-1,-1,-1,-1,,-1,0,0,0,,0,-1,0,-1,-1,RJDM 262100Z NIL=,
20180126_220000.003,0,RJDM,,,,0,20180126220000,-1,-1,-1,-1,60,-1,3,-1,-1,-1,-1,,9999,0,0,2,FEW 30   SCT 45,-1,2,-1,6,1025,RJDM 262200Z 06003KT 9999 FEW030 SCT045 M02/M06 Q1025 RMK     1CU030 4SC045 A3029=,
20180126_230000.003,0,RJDM,,,,0,20180126230000,-1,-1,-1,-1,60,-1,2,-1,-1,-1,-1,,9999,0,0,2,FEW 30   SCT 45,-1,2,-1,5,1026,RJDM 262300Z 06002KT 9999 FEW030 SCT045 M02/M05 Q1026 RMK     1CU030 3SC045 A3029=,
20180127_000000.003,0,RJDM,,,,0,20180127000000,-1,-1,-1,-1,150,-1,2,-1,-1,-1,-1,,9999,0,0,2,FEW 30   SCT 45,-1,0,-1,5,1026,RJDM 270000Z 15002KT 9999 FEW030 SCT045 M00/M05 Q1026 RMK     1CU030 3SC045 A3031=,
20180127_010000.003,0,RJDM,,,,0,20180127010000,-1,-1,-1,-1,130,-1,4,-1,-1,-1,-1,,9999,0,0,1,FEW 50,1,2,-1,5,1027,RJDM 270100Z 13004KT 9999 FEW050 02/M05 Q1027 RMK 2SC050     A3032=,
20180127_020000.003,0,RJDM,,,,0,20180127020000,-1,-1,-1,-1,90,-1,3,-1,-1,-1,-1,,9999,0,0,1,FEW 50,1,2,-1,6,1026,RJDM 270200Z 09003KT 9999 FEW050 02/M06 Q1026 RMK 2SC050     A3031=,
20180127_030000.003,0,RJDM,,,,0,20180127030000,-1,-1,-1,-1,90,-1,3,-1,-1,-1,-1,,9999,0,0,2,FEW 30   SCT 50,1,5,-1,5,1025,RJDM 270300Z 09003KT 9999 FEW030 SCT050 05/M05 Q1025 RMK     1CU030 3SC050 A3029=,
20180127_040000.003,0,RJDM,,,,0,20180127040000,-1,-1,-1,-1,70,-1,10,-1,-1,-1,-1,,9999,0,0,2,FEW 30   SCT 50,1,6,-1,5,1024,RJDM 270400Z 07010KT 9999 FEW030 SCT050 06/M05 Q1024 RMK     1CU030 3SC050 A3025 MAX WIND 18KT=,
20180127_050000.003,0,RJDM,,,,0,20180127050000,-1,-1,-1,-1,-1,-1,-1,-1,-1,-1,-1,,-1,0,0,0,,0,-1,0,-1,-1,RJDM 270500Z NIL=,
20180127_060000.003,0,RJDM,,,,0,20180127060000,-1,-1,-1,-1,-1,-1,-1,-1,-1,-1,-1,,-1,0,0,0,,0,-1,0,-1,-1,RJDM 270600Z NIL=,
20180127_070000.003,0,RJDM,,,,0,20180127070000,-1,-1,-1,-1,-1,-1,-1,-1,-1,-1,-1,,-1,0,0,0,,0,-1,0,-1,-1,RJDM 270700Z NIL=,
20180127_080000.003,0,RJDM,,,,0,20180127080000,-1,-1,-1,-1,-1,-1,-1,-1,-1,-1,-1,,-1,0,0,0,,0,-1,0,-1,-1,RJDM 270800Z NIL=,
20180127_090000.004,0,RJDM,,,,0,20180127090000,-1,-1,-1,-1,-1,-1,-1,-1,-1,-1,-1,,-1,0,0,0,,0,-1,0,-1,-1,RJDM 270900Z NIL=,
20180127_100000.003,0,RJDM,,,,0,20180127100000,-1,-1,-1,-1,-1,-1,-1,-1,-1,-1,-1,,-1,0,0,0,,0,-1,0,-1,-1,RJDM 271000Z NIL=,
20180127_110000.003,0,RJDM,,,,0,20180127110000,-1,-1,-1,-1,-1,-1,-1,-1,-1,-1,-1,,-1,0,0,0,,0,-1,0,-1,-1,RJDM 271100Z NIL=,
20180127_120000.003,0,RJDM,,,,0,20180127120000,-1,-1,-1,-1,-1,-1,-1,-1,-1,-1,-1,,-1,0,0,0,,0,-1,0,-1,-1,RJDM 271200Z NIL=,
20180127_130000.003,0,RJDM,,,,0,20180127130000,-1,-1,-1,-1,-1,-1,-1,-1,-1,-1,-1,,-1,0,0,0,,0,-1,0,-1,-1,RJDM 271300Z NIL=,
20180127_140000.004,0,RJDM,,,,0,20180127140000,-1,-1,-1,-1,-1,-1,-1,-1,-1,-1,-1,,-1,0,0,0,,0,-1,0,-1,-1,RJDM 271400Z NIL=,
20180127_150000.003,0,RJDM,,,,0,20180127150000,-1,-1,-1,-1,-1,-1,-1,-1,-1,-1,-1,,-1,0,0,0,,0,-1,0,-1,-1,RJDM 271500Z NIL=,
20180127_160000.003,0,RJDM,,,,0,20180127160000,-1,-1,-1,-1,-1,-1,-1,-1,-1,-1,-1,,-1,0,0,0,,0,-1,0,-1,-1,RJDM 271600Z NIL=,
20180127_170000.003,0,RJDM,,,,0,20180127170000,-1,-1,-1,-1,-1,-1,-1,-1,-1,-1,-1,,-1,0,0,0,,0,-1,0,-1,-1,RJDM 271700Z NIL=,
20180127_180000.003,0,RJDM,,,,0,20180127180000,-1,-1,-1,-1,-1,-1,-1,-1,-1,-1,-1,,-1,0,0,0,,0,-1,0,-1,-1,RJDM 271800Z NIL=,
20180127_190000.003,0,RJDM,,,,0,20180127190000,-1,-1,-1,-1,-1,-1,-1,-1,-1,-1,-1,,-1,0,0,0,,0,-1,0,-1,-1,RJDM 271900Z NIL=,
20180127_200000.003,0,RJDM,,,,0,20180127200000,-1,-1,-1,-1,-1,-1,-1,-1,-1,-1,-1,,-1,0,0,0,,0,-1,0,-1,-1,RJDM 272000Z NIL=,
20180127_210000.003,0,RJDM,,,,0,20180127210000,-1,-1,-1,-1,-1,-1,-1,-1,-1,-1,-1,,-1,0,0,0,,0,-1,0,-1,-1,RJDM 272100Z NIL=,
20180127_220000.003,0,RJDM,,,,0,20180127220000,-1,-1,-1,-1,-1,-1,-1,-1,-1,-1,-1,,-1,0,0,0,,0,-1,0,-1,-1,RJDM 272200Z NIL=,
20180127_230000.003,0,RJDM,,,,0,20180127230000,-1,-1,-1,-1,-1,-1,-1,-1,-1,-1,-1,,-1,0,0,0,,0,-1,0,-1,-1,RJDM 272300Z NIL=,
20180128_000000.004,0,RJDM,,,,0,20180128000000,-1,-1,-1,-1,-1,-1,-1,-1,-1,-1,-1,,-1,0,0,0,,0,-1,0,-1,-1,RJDM 280000Z NIL=,
20180128_010000.003,0,RJDM,,,,0,20180128010000,-1,-1,-1,-1,-1,-1,-1,-1,-1,-1,-1,,-1,0,0,0,,0,-1,0,-1,-1,RJDM 280100Z NIL=,
20180128_020000.003,0,RJDM,,,,0,20180128020000,-1,-1,-1,-1,-1,-1,-1,-1,-1,-1,-1,,-1,0,0,0,,0,-1,0,-1,-1,RJDM 280200Z NIL=,
20180128_030000.003,0,RJDM,,,,0,20180128030000,-1,-1,-1,-1,-1,-1,-1,-1,-1,-1,-1,,-1,0,0,0,,0,-1,0,-1,-1,RJDM 280300Z NIL=,
20180128_040000.003,0,RJDM,,,,0,20180128040000,-1,-1,-1,-1,-1,-1,-1,-1,-1,-1,-1,,-1,0,0,0,,0,-1,0,-1,-1,RJDM 280400Z NIL=,
20180128_050000.003,0,RJDM,,,,0,20180128050000,-1,-1,-1,-1,-1,-1,-1,-1,-1,-1,-1,,-1,0,0,0,,0,-1,0,-1,-1,RJDM 280500Z NIL=,
20180128_060000.003,0,RJDM,,,,0,20180128060000,-1,-1,-1,-1,-1,-1,-1,-1,-1,-1,-1,,-1,0,0,0,,0,-1,0,-1,-1,RJDM 280600Z NIL=,
20180128_070000.004,0,RJDM,,,,0,20180128070000,-1,-1,-1,-1,-1,-1,-1,-1,-1,-1,-1,,-1,0,0,0,,0,-1,0,-1,-1,RJDM 280700Z NIL=,
20180128_080000.003,0,RJDM,,,,0,20180128080000,-1,-1,-1,-1,-1,-1,-1,-1,-1,-1,-1,,-1,0,0,0,,0,-1,0,-1,-1,RJDM 280800Z NIL=,
20180128_090000.003,0,RJDM,,,,0,20180128090000,-1,-1,-1,-1,-1,-1,-1,-1,-1,-1,-1,,-1,0,0,0,,0,-1,0,-1,-1,RJDM 280900Z NIL=,
20180128_100000.003,0,RJDM,,,,0,20180128100000,-1,-1,-1,-1,-1,-1,-1,-1,-1,-1,-1,,-1,0,0,0,,0,-1,0,-1,-1,RJDM 281000Z NIL=,
20180128_110000.003,0,RJDM,,,,0,20180128110000,-1,-1,-1,-1,-1,-1,-1,-1,-1,-1,-1,,-1,0,0,0,,0,-1,0,-1,-1,RJDM 281100Z NIL=,
20180128_120000.003,0,RJDM,,,,0,20180128120000,-1,-1,-1,-1,-1,-1,-1,-1,-1,-1,-1,,-1,0,0,0,,0,-1,0,-1,-1,RJDM 281200Z NIL=,
20180128_130000.003,0,RJDM,,,,0,20180128130000,-1,-1,-1,-1,-1,-1,-1,-1,-1,-1,-1,,-1,0,0,0,,0,-1,0,-1,-1,RJDM 281300Z NIL=,
20180128_140000.003,0,RJDM,,,,0,20180128140000,-1,-1,-1,-1,-1,-1,-1,-1,-1,-1,-1,,-1,0,0,0,,0,-1,0,-1,-1,RJDM 281400Z NIL=,
20180128_150000.003,0,RJDM,,,,0,20180128150000,-1,-1,-1,-1,-1,-1,-1,-1,-1,-1,-1,,-1,0,0,0,,0,-1,0,-1,-1,RJDM 281500Z NIL=,
20180128_160000.003,0,RJDM,,,,0,20180128160000,-1,-1,-1,-1,-1,-1,-1,-1,-1,-1,-1,,-1,0,0,0,,0,-1,0,-1,-1,RJDM 281600Z NIL=,
20180128_170000.003,0,RJDM,,,,0,20180128170000,-1,-1,-1,-1,-1,-1,-1,-1,-1,-1,-1,,-1,0,0,0,,0,-1,0,-1,-1,RJDM 281700Z NIL=,
20180128_180000.003,0,RJDM,,,,0,20180128180000,-1,-1,-1,-1,-1,-1,-1,-1,-1,-1,-1,,-1,0,0,0,,0,-1,0,-1,-1,RJDM 281800Z NIL=,
20180128_190000.003,0,RJDM,,,,0,20180128190000,-1,-1,-1,-1,-1,-1,-1,-1,-1,-1,-1,,-1,0,0,0,,0,-1,0,-1,-1,RJDM 281900Z NIL=,
20180128_200000.003,0,RJDM,,,,0,20180128200000,-1,-1,-1,-1,-1,-1,-1,-1,-1,-1,-1,,-1,0,0,0,,0,-1,0,-1,-1,RJDM 282000Z NIL=,
20180128_210000.003,0,RJDM,,,,0,20180128210000,-1,-1,-1,-1,260,-1,7,-1,-1,-1,-1,,9999,0,0,2,FEW 25   BKN 35,1,3,-1,1,1017,RJDM 282100Z 26007KT 9999 FEW025 BKN035 03/M01 Q1017 RMK     1CU025 7CU035 A3003=,
20180128_220000.004,0,RJDM,,,,0,20180128220000,-1,-1,-1,-1,240,-1,5,-1,-1,-1,-1,,9999,0,0,3,FEW 25   SCT 30   BKN 35,1,3,-1,2,1018,RJDM 282200Z 24005KT 9999 FEW025 SCT030 BKN035 03/M02 Q1018     RMK 1CU025 3CU030 7CU035 A3006=,
20180128_230000.003,0,RJDM,,,,0,20180128230000,-1,-1,-1,-1,250,-1,4,-1,-1,-1,-1,,9999,0,0,3,FEW 25   BKN 35   BKN 40,1,3,-1,2,1018,RJDM 282300Z 25004KT 9999 FEW025 BKN035 BKN040 03/M02 Q1018     RMK 1CU025 5CU035 7CU040 A3008=,
20180129_000000.004,0,RJDM,,,,0,20180129000000,-1,-1,-1,-1,310,-1,3,-1,-1,-1,-1,,9999,0,0,3,FEW 10   SCT 35   BKN 45,1,3,-1,2,1019,RJDM 290000Z 31003KT 9999 FEW010 SCT035 BKN045 03/M02 Q1019     RMK 1ST010 3CU035 7SC045 A3010=,
20180129_010000.003,0,RJDM,,,,0,20180129010000,-1,-1,-1,-1,310,-1,3,-1,-1,-1,-1,,9999,0,1,3,FEW 10   SCT 30   BKN 50,1,4,-1,3,1020,RJDM 290100Z 31003KT 9999 VCSH FEW010 SCT030 BKN050 04/M03     Q1020 RMK 1ST010 3CU030 6SC050 A3013=,VC SH
20180129_020000.003,0,RJDM,,,,0,20180129020000,-1,-1,-1,-1,320,-1,4,-1,-1,-1,-1,,9999,0,1,3,FEW 10   SCT 20   BKN 50,1,4,-1,3,1020,RJDM 290200Z 32004KT 9999 VCSH FEW010 SCT020 BKN050 04/M03     Q1020 RMK 1ST010 3CU020 6SC050 A3014=,VC SH
20180129_030000.003,0,RJDM,,,,0,20180129030000,-1,-1,-1,-1,320,-1,5,-1,-1,-1,-1,,9999,0,1,3,FEW 10   SCT 25   BKN 50,1,5,-1,3,1020,RJDM 290300Z 32005KT 9999 -SHSN FEW010 SCT025 BKN050 05/M03     Q1020 RMK 1ST010 3CU025 6SC050 A3012=,- SN SH
20180129_040000.003,0,RJDM,,,,0,20180129040000,-1,-1,-1,-1,310,-1,5,-1,-1,-1,-1,,9999,0,1,3,FEW 10   SCT 25   BKN 50,1,3,-1,4,1019,RJDM 290400Z 31005KT 9999 -SHSN FEW010 SCT025 BKN050 03/M04     Q1019 RMK 1ST010 3CU025 5SC050 A3011=,- SN SH
20180129_050000.003,0,RJDM,,,,0,20180129050000,-1,-1,-1,-1,270,-1,7,-1,-1,-1,-1,,9999,0,1,3,FEW 10   SCT 20   BKN 35,1,4,-1,3,1019,RJDM 290500Z 27007KT 9999 -SHSN FEW010 SCT020 BKN035 04/M03     Q1019 RMK 1ST010 3CU020 5CU035 A3010=,- SN SH
20180129_060000.003,0,RJDM,,,,0,20180129060000,-1,-1,-1,-1,320,-1,6,-1,-1,-1,-1,,9999,0,0,2,FEW 10   SCT 40,1,4,-1,4,1019,RJDM 290600Z 32006KT 9999 FEW010 SCT040 04/M04 Q1019 RMK     1ST010 3CU040 A3010 MAX WIND 15KT=,
20180129_070000.003,0,RJDM,,,,0,20180129070000,-1,-1,-1,-1,300,-1,2,-1,-1,-1,-1,,9999,0,1,2,FEW 15   BKN 30,1,2,-1,2,1019,RJDM 290700Z 30002KT 9999 -SHSN FEW015 BKN030 02/M02 Q1019 RMK     1CU015 5CU030 A3011=,- SN SH
20180129_080000.003,0,RJDM,,,,0,20180129080000,-1,-1,-1,-1,290,-1,6,-1,16,-1,-1,,9999,0,0,2,FEW 20   SCT 45,1,3,-1,6,1020,RJDM 290800Z 29006G16KT 9999 FEW020 SCT045 03/M06 Q1020 RMK     1CU020 3CU045 A3012=,
20180129_090000.003,0,RJDM,,,,0,20180129090000,-1,-1,-1,-1,-1,-1,-1,-1,-1,-1,-1,,-1,0,0,0,,0,-1,0,-1,-1,RJDM 290900Z NIL=,
20180129_100000.003,0,RJDM,,,,0,20180129100000,-1,-1,-1,-1,-1,-1,-1,-1,-1,-1,-1,,-1,0,0,0,,0,-1,0,-1,-1,RJDM 291000Z NIL=,
20180129_110000.003,0,RJDM,,,,0,20180129110000,-1,-1,-1,-1,-1,-1,-1,-1,-1,-1,-1,,-1,0,0,0,,0,-1,0,-1,-1,RJDM 291100Z NIL=,
20180129_120000.003,0,RJDM,,,,0,20180129120000,-1,-1,-1,-1,-1,-1,-1,-1,-1,-1,-1,,-1,0,0,0,,0,-1,0,-1,-1,RJDM 291200Z NIL=,
20180129_130000.003,0,RJDM,,,,0,20180129130000,-1,-1,-1,-1,-1,-1,-1,-1,-1,-1,-1,,-1,0,0,0,,0,-1,0,-1,-1,RJDM 291300Z NIL=,
20180129_140000.003,0,RJDM,,,,0,20180129140000,-1,-1,-1,-1,-1,-1,-1,-1,-1,-1,-1,,-1,0,0,0,,0,-1,0,-1,-1,RJDM 291400Z NIL=,
20180129_150000.003,0,RJDM,,,,0,20180129150000,-1,-1,-1,-1,-1,-1,-1,-1,-1,-1,-1,,-1,0,0,0,,0,-1,0,-1,-1,RJDM 291500Z NIL=,
20180129_160000.003,0,RJDM,,,,0,20180129160000,-1,-1,-1,-1,-1,-1,-1,-1,-1,-1,-1,,-1,0,0,0,,0,-1,0,-1,-1,RJDM 291600Z NIL=,
20180129_170000.003,0,RJDM,,,,0,20180129170000,-1,-1,-1,-1,-1,-1,-1,-1,-1,-1,-1,,-1,0,0,0,,0,-1,0,-1,-1,RJDM 291700Z NIL=,
20180129_180000.003,0,RJDM,,,,0,20180129180000,-1,-1,-1,-1,-1,-1,-1,-1,-1,-1,-1,,-1,0,0,0,,0,-1,0,-1,-1,RJDM 291800Z NIL=,
20180129_190000.003,0,RJDM,,,,0,20180129190000,-1,-1,-1,-1,-1,-1,-1,-1,-1,-1,-1,,-1,0,0,0,,0,-1,0,-1,-1,RJDM 291900Z NIL=,
20180129_200000.003,0,RJDM,,,,0,20180129200000,-1,-1,-1,-1,-1,-1,-1,-1,-1,-1,-1,,-1,0,0,0,,0,-1,0,-1,-1,RJDM 292000Z NIL=,
20180129_210000.003,0,RJDM,,,,0,20180129210000,-1,-1,-1,-1,310,-1,2,-1,-1,-1,-1,,9999,0,0,3,FEW 20   SCT 35   BKN 45,1,1,-1,5,1023,RJDM 292100Z 31002KT 9999 FEW020 SCT035 BKN045 01/M05 Q1023     RMK 1CU020 3CU035 6SC045 A3021=,
20180129_220000.003,0,RJDM,,,,0,20180129220000,-1,-1,-1,-1,320,-1,4,-1,-1,-1,-1,,9999,0,0,2,FEW 25   SCT 45,1,0,-1,7,1024,RJDM 292200Z 32004KT 9999 FEW025 SCT045 00/M07 Q1024 RMK     1CU025 3SC045 A3024=,
20180129_230000.003,0,RJDM,,,,0,20180129230000,-1,-1,-1,-1,310,-1,2,-1,-1,-1,-1,,9999,0,0,2,FEW 30   BKN 50,1,0,-1,7,1024,RJDM 292300Z 31002KT 9999 FEW030 BKN050 00/M07 Q1024 RMK     1CU030 5SC050 A3025=,
20180130_000000.003,0,RJDM,,,,0,20180130000000,-1,-1,-1,-1,270,-1,5,-1,-1,-1,-1,,9999,0,1,2,FEW 25   SCT 40,1,2,-1,5,1024,RJDM 300000Z 27005KT 9999 -SHSN FEW025 SCT040 02/M05 Q1024 RMK     1CU025 3CU040 A3026=,- SN SH
20180130_010000.003,0,RJDM,,,,0,20180130010000,-1,-1,-1,-1,140,-1,1,-1,-1,-1,-1,,9999,0,0,2,FEW 30   SCT 40,1,3,-1,5,1024,RJDM 300100Z 14001KT 9999 FEW030 SCT040 03/M05 Q1024 RMK     1CU030 3CU040 A3026=,
20180130_020000.003,0,RJDM,,,,0,20180130020000,-1,-1,-1,-1,290,-1,1,-1,-1,-1,-1,,9999,0,0,2,FEW 35   BKN 40,1,3,-1,7,1025,RJDM 300200Z 29001KT 9999 FEW035 BKN040 03/M07 Q1025 RMK     2CU035 5SC040 A3026=,
20180130_030000.003,0,RJDM,,,,0,20180130030000,-1,-1,-1,-1,230,-1,4,-1,-1,-1,-1,,9999,0,0,2,FEW 35   BKN 45,1,4,-1,7,1024,RJDM 300300Z 23004KT 9999 FEW035 BKN045 04/M07 Q1024 RMK     2CU035 6CU045 A3025=,
20180130_040000.003,0,RJDM,,,,0,20180130040000,-1,-1,-1,-1,200,-1,4,-1,-1,-1,-1,,9999,0,0,2,FEW 30   SCT 45,1,6,-1,7,1023,RJDM 300400Z 20004KT 9999 FEW030 SCT045 06/M07 Q1023 RMK     1CU030 4CU045 A3022=,
20180130_050000.003,0,RJDM,,,,0,20180130050000,-1,-1,-1,-1,210,-1,4,-1,-1,-1,-1,,9999,0,0,2,FEW 30   SCT 50,1,6,-1,6,1023,RJDM 300500Z 21004KT 9999 FEW030 SCT050 06/M06 Q1023 RMK     1CU030 3CU050 A3021=,
20180130_060000.004,0,RJDM,,,,0,20180130060000,-1,-1,-1,-1,230,-1,4,-1,-1,-1,-1,,9999,0,0,2,FEW 30   SCT 50,1,7,-1,6,1023,RJDM 300600Z 23004KT 9999 FEW030 SCT050 07/M06 Q1023 RMK     1CU030 4SC050 A3022=,
20180130_070000.003,0,RJDM,,,,0,20180130070000,-1,-1,-1,-1,280,-1,4,-1,-1,-1,-1,,9999,0,0,2,FEW 30   SCT 50,1,7,-1,7,1023,RJDM 300700Z 28004KT 9999 FEW030 SCT050 07/M07 Q1023 RMK     1CU030 3SC050 A3023=,
20180130_080000.003,0,RJDM,,,,0,20180130080000,-1,-1,-1,-1,290,-1,6,-1,-1,-1,-1,,9999,0,0,1,FEW 35,1,5,-1,7,1024,RJDM 300800Z 29006KT 9999 FEW035 05/M07 Q1024 RMK 1CU035     A3025=,
20180130_090000.003,0,RJDM,,,,0,20180130090000,-1,-1,-1,-1,270,-1,5,-1,-1,-1,-1,,9999,0,0,1,FEW 30,1,3,-1,6,1025,RJDM 300900Z 27005KT 9999 FEW030 03/M06 Q1025 RMK 1CU030     A3028=,
20180130_100000.003,0,RJDM,,,,0,20180130100000,-1,-1,-1,-1,280,-1,3,-1,-1,-1,-1,,9999,0,0,1,FEW 30,1,2,-1,5,1025,RJDM 301000Z 28003KT 9999 FEW030 02/M05 Q1025 RMK 1CU030     A3028=,
20180130_110000.003,0,RJDM,,,,0,20180130110000,-1,-1,-1,-1,-1,-1,-1,-1,-1,-1,-1,,-1,0,0,0,,0,-1,0,-1,-1,RJDM 301100Z NIL=,
20180130_120000.003,0,RJDM,,,,0,20180130120000,-1,-1,-1,-1,-1,-1,-1,-1,-1,-1,-1,,-1,0,0,0,,0,-1,0,-1,-1,RJDM 301200Z NIL=,
20180130_130000.003,0,RJDM,,,,0,20180130130000,-1,-1,-1,-1,-1,-1,-1,-1,-1,-1,-1,,-1,0,0,0,,0,-1,0,-1,-1,RJDM 301300Z NIL=,
20180130_140000.003,0,RJDM,,,,0,20180130140000,-1,-1,-1,-1,-1,-1,-1,-1,-1,-1,-1,,-1,0,0,0,,0,-1,0,-1,-1,RJDM 301400Z NIL=,
20180130_150000.003,0,RJDM,,,,0,20180130150000,-1,-1,-1,-1,-1,-1,-1,-1,-1,-1,-1,,-1,0,0,0,,0,-1,0,-1,-1,RJDM 301500Z NIL=,
20180130_160000.003,0,RJDM,,,,0,20180130160000,-1,-1,-1,-1,-1,-1,-1,-1,-1,-1,-1,,-1,0,0,0,,0,-1,0,-1,-1,RJDM 301600Z NIL=,
20180130_170000.003,0,RJDM,,,,0,20180130170000,-1,-1,-1,-1,-1,-1,-1,-1,-1,-1,-1,,-1,0,0,0,,0,-1,0,-1,-1,RJDM 301700Z NIL=,
20180130_180000.003,0,RJDM,,,,0,20180130180000,-1,-1,-1,-1,-1,-1,-1,-1,-1,-1,-1,,-1,0,0,0,,0,-1,0,-1,-1,RJDM 301800Z NIL=,
20180130_190000.003,0,RJDM,,,,0,20180130190000,-1,-1,-1,-1,-1,-1,-1,-1,-1,-1,-1,,-1,0,0,0,,0,-1,0,-1,-1,RJDM 301900Z NIL=,
20180130_200000.003,0,RJDM,,,,0,20180130200000,-1,-1,-1,-1,-1,-1,-1,-1,-1,-1,-1,,-1,0,0,0,,0,-1,0,-1,-1,RJDM 302000Z NIL=,
20180130_210000.003,0,RJDM,,,,0,20180130210000,-1,-1,-1,-1,200,-1,1,-1,-1,-1,-1,,9999,0,0,1,FEW 200,-1,4,-1,6,1028,RJDM 302100Z 20001KT 9999 FEW200 M04/M06 Q1028 RMK 1CI200     A3036=,
20180130_220000.003,0,RJDM,,,,0,20180130220000,-1,-1,-1,-1,70,-1,4,-1,-1,-1,-1,,9999,0,0,2,FEW 120   BKN 200,-1,3,-1,5,1028,RJDM 302200Z 07004KT 9999 FEW120 BKN200 M03/M05 Q1028 RMK     2AC120 5CI200 A3037=,
20180130_230000.003,0,RJDM,,,,0,20180130230000,-1,-1,-1,-1,20,-1,2,-1,-1,-1,-1,,9999,0,0,2,FEW 120   BKN 200,-1,2,-1,5,1028,RJDM 302300Z 02002KT 9999 FEW120 BKN200 M02/M05 Q1028 RMK     2AC120 7CI200 A3037=,
20180131_000000.003,0,RJDM,,,,0,20180131000000,-1,-1,-1,-1,50,-1,3,-1,-1,-1,-1,,9999,0,0,2,FEW 100   BKN 200,-1,0,-1,4,1028,RJDM 310000Z 05003KT 9999 FEW100 BKN200 M00/M04 Q1028 RMK     1AC100 7CI200 A3038=,
20180131_010000.003,0,RJDM,,,,0,20180131010000,-1,-1,-1,-1,50,-1,5,-1,-1,-1,-1,,9999,0,0,2,FEW 150   BKN 220,1,1,-1,4,1028,RJDM 310100Z 05005KT 9999 FEW150 BKN220 01/M04 Q1028 RMK     1AC150 7CI220 A3037=,
20180131_020000.003,0,RJDM,,,,0,20180131020000,-1,-1,-1,-1,70,-1,9,-1,-1,-1,-1,,9999,0,0,2,FEW 40   BKN 220,1,4,-1,3,1028,RJDM 310200Z 07009KT 9999 FEW040 BKN220 04/M03 Q1028 RMK     1CU040 6CI220 A3035=,
20180131_030000.003,0,RJDM,,,,0,20180131030000,-1,-1,-1,-1,130,-1,2,-1,-1,-1,-1,,9999,0,0,2,FEW 35   BKN 200,1,5,-1,4,1026,RJDM 310300Z 13002KT 9999 FEW035 BKN200 05/M04 Q1026 RMK     1CU035 7CI200 A3032=,
20180131_040000.003,0,RJDM,,,,0,20180131040000,-1,-1,-1,-1,190,-1,1,-1,-1,-1,-1,,9999,0,0,3,FEW 35   SCT 150   BKN 200,1,6,-1,4,1025,RJDM 310400Z 19001KT 9999 FEW035 SCT150 BKN200 06/M04 Q1025     RMK 1CU035 3AC150 6CI200 A3028=,
20180131_050000.003,0,RJDM,,,,0,20180131050000,-1,-1,-1,-1,280,-1,1,-1,-1,-1,-1,,9999,0,0,3,FEW 35   SCT 130   BKN 200,1,8,-1,4,1024,RJDM 310500Z 28001KT 9999 FEW035 SCT130 BKN200 08/M04 Q1024     RMK 1CU035 4AC130 6CI200 A3024=,
20180131_060000.003,0,RJDM,,,,0,20180131060000,-1,-1,-1,-1,160,-1,2,-1,-1,-1,-1,,9999,0,0,3,FEW 35   SCT 130   BKN 200,1,9,-1,4,1024,RJDM 310600Z 16002KT 9999 FEW035 SCT130 BKN200 09/M04 Q1024     RMK 1CU035 3AC130 6CI200 A3024=,
20180131_070000.004,0,RJDM,,,,0,20180131070000,-1,-1,-1,-1,260,-1,2,-1,-1,-1,-1,,9999,0,0,3,FEW 35   SCT 130   BKN 200,1,9,-1,5,1023,RJDM 310700Z 26002KT 9999 FEW035 SCT130 BKN200 09/M05 Q1023     RMK 1CU035 4AC130 7CI200 A3023=,
20180131_080000.004,0,RJDM,,,,0,20180131080000,-1,-1,-1,-1,260,-1,3,-1,-1,-1,-1,,9999,0,0,3,FEW 35   BKN 130   BKN 200,1,8,-1,7,1024,RJDM 310800Z 26003KT 9999 FEW035 BKN130 BKN200 08/M07 Q1024     RMK 1CU035 5AC130 7CI200 A3025=,
20180131_090000.003,0,RJDM,,,,0,20180131090000,-1,-1,-1,-1,310,-1,2,-1,-1,-1,-1,,9999,0,0,3,FEW 35   BKN 130   BKN 200,1,7,-1,4,1024,RJDM 310900Z 31002KT 9999 FEW035 BKN130 BKN200 07/M04 Q1024     RMK 1CU035 5AC130 7CI200 A3025=,
20180131_100000.003,0,RJDM,,,,0,20180131100000,-1,-1,-1,-1,30,-1,3,-1,-1,-1,-1,,9999,0,0,3,FEW 35   SCT 130   BKN 200,1,6,-1,4,1023,RJDM 311000Z 03003KT 9999 FEW035 SCT130 BKN200 06/M04 Q1023     RMK 1CU035 4AC130 6CI200 A3021=,
20180131_110000.003,0,RJDM,,,,0,20180131110000,-1,-1,-1,-1,-1,-1,-1,-1,-1,-1,-1,,-1,0,0,0,,0,-1,0,-1,-1,RJDM 311100Z NIL=,
20180131_120000.003,0,RJDM,,,,0,20180131120000,-1,-1,-1,-1,-1,-1,-1,-1,-1,-1,-1,,-1,0,0,0,,0,-1,0,-1,-1,RJDM 311200Z NIL=,
20180131_130000.004,0,RJDM,,,,0,20180131130000,-1,-1,-1,-1,-1,-1,-1,-1,-1,-1,-1,,-1,0,0,0,,0,-1,0,-1,-1,RJDM 311300Z NIL=,
20180131_140000.003,0,RJDM,,,,0,20180131140000,-1,-1,-1,-1,-1,-1,-1,-1,-1,-1,-1,,-1,0,0,0,,0,-1,0,-1,-1,RJDM 311400Z NIL=,
20180131_150000.003,0,RJDM,,,,0,20180131150000,-1,-1,-1,-1,-1,-1,-1,-1,-1,-1,-1,,-1,0,0,0,,0,-1,0,-1,-1,RJDM 311500Z NIL=,
20180131_160000.003,0,RJDM,,,,0,20180131160000,-1,-1,-1,-1,-1,-1,-1,-1,-1,-1,-1,,-1,0,0,0,,0,-1,0,-1,-1,RJDM 311600Z NIL=,
20180131_170000.003,0,RJDM,,,,0,20180131170000,-1,-1,-1,-1,-1,-1,-1,-1,-1,-1,-1,,-1,0,0,0,,0,-1,0,-1,-1,RJDM 311700Z NIL=,
20180131_180000.003,0,RJDM,,,,0,20180131180000,-1,-1,-1,-1,-1,-1,-1,-1,-1,-1,-1,,-1,0,0,0,,0,-1,0,-1,-1,RJDM 311800Z NIL=,
20180131_190000.004,0,RJDM,,,,0,20180131190000,-1,-1,-1,-1,-1,-1,-1,-1,-1,-1,-1,,-1,0,0,0,,0,-1,0,-1,-1,RJDM 311900Z NIL=,
20180131_200000.004,0,RJDM,,,,0,20180131200000,-1,-1,-1,-1,-1,-1,-1,-1,-1,-1,-1,,-1,0,0,0,,0,-1,0,-1,-1,RJDM 312000Z NIL=,
20180131_210000.003,0,RJDM,,,,0,20180131210000,-1,-1,-1,-1,60,-1,7,-1,-1,-1,-1,,9999,0,0,2,FEW 25   BKN 100,1,3,-1,0,1023,RJDM 312100Z 06007KT 9999 FEW025 BKN100 03/M00 Q1023 RMK     1CU025 7AC100 A3023=,
20180131_220000.003,0,RJDM,,,,0,20180131220000,-1,-1,-1,-1,60,-1,7,-1,-1,-1,-1,,9999,0,0,2,FEW 25   BKN 80,1,3,-1,0,1024,RJDM 312200Z 06007KT 9999 FEW025 BKN080 03/M00 Q1024 RMK     1CU025 7AC080 A3024=,
20180131_230000.003,0,RJDM,,,,0,20180131230000,-1,-1,-1,-1,50,-1,5,-1,-1,-1,-1,,9999,0,0,2,FEW 25   BKN 70,1,3,-1,0,1024,RJDM 312300Z 05005KT 9999 FEW025 BKN070 03/M00 Q1024 RMK     1CU025 7AC070 A3025=,
20180201_000000.004,0,RJDM,,,,0,20180201000000,-1,-1,-1,-1,60,-1,8,-1,-1,-1,-1,,9999,0,0,2,FEW 25   BKN 70,1,4,-1,0,1024,RJDM 010000Z 06008KT 9999 FEW025 BKN070 04/M00 Q1024 RMK     1CU025 7AC070 A3026=,
20180201_010000.003,0,RJDM,,,,0,20180201010000,-1,-1,-1,-1,70,-1,9,-1,-1,-1,-1,,9999,0,0,2,FEW 25   BKN 120,1,5,-1,0,1024,RJDM 010100Z 07009KT 9999 FEW025 BKN120 05/M00 Q1024 RMK     1CU025 7AC120 A3025=,
20180201_020000.003,0,RJDM,,,,0,20180201020000,-1,-1,-1,-1,80,-1,8,-1,-1,-1,-1,,9999,0,0,2,FEW 25   BKN 120,1,6,-1,0,1024,RJDM 010200Z 08008KT 9999 FEW025 BKN120 06/M00 Q1024 RMK     1CU025 5AC120 A3024=,
20180201_030000.004,0,RJDM,,,,0,20180201030000,-1,-1,-1,-1,70,-1,10,-1,-1,-1,-1,,9999,0,0,2,FEW 35   SCT 120,1,8,-1,0,1023,RJDM 010300Z 07010KT 9999 FEW035 SCT120 08/M00 Q1023 RMK     2CU035 3AC120 A3022 MAX WIND 16KT=,
20180201_040000.004,0,RJDM,,,,0,20180201040000,-1,-1,-1,-1,70,-1,13,-1,-1,-1,-1,,9999,0,0,2,FEW 35   SCT 40,1,9,-1,1,1022,RJDM 010400Z 07013KT 9999 FEW035 SCT040 09/M01 Q1022 RMK     1CU035 4CU040 A3019 MAX WIND 20KT=,
20180201_050000.003,0,RJDM,,,,0,20180201050000,-1,-1,-1,-1,70,-1,12,-1,-1,-1,-1,,9999,0,0,3,FEW 25   SCT 35   BKN 40,1,8,-1,1,1022,RJDM 010500Z 07012KT 9999 FEW025 SCT035 BKN040 08/M01 Q1022     RMK 1CU025 3CU035 6CU040 A3019 MAX WIND 18KT=,
20180201_060000.003,0,RJDM,,,,0,20180201060000,-1,-1,-1,-1,40,-1,10,-1,-1,-1,-1,,9999,0,0,2,FEW 30   BKN 40,1,10,-1,0,1022,RJDM 010600Z 04010KT 9999 FEW030 BKN040 10/M00 Q1022 RMK     1CU030 5CU040 A3019 MAX WIND 17KT=,
20180201_070000.003,0,RJDM,,,,0,20180201070000,-1,-1,-1,-1,10,-1,6,-1,-1,-1,-1,,9999,0,0,2,FEW 35   SCT 50,1,8,-1,0,1022,RJDM 010700Z 01006KT 9999 FEW035 SCT050 08/M00 Q1022 RMK     1CU035 3SC050 A3020=,
20180201_080000.003,0,RJDM,,,,0,20180201080000,-1,-1,-1,-1,10,-1,7,-1,-1,-1,-1,,9999,0,0,2,FEW 35   SCT 40,1,8,-1,1,1023,RJDM 010800Z 01007KT 9999 FEW035 SCT040 08/M01 Q1023 RMK     2CU035 4CU040 A3021 MAX WIND 15KT=,
20180201_090000.003,0,RJDM,,,,0,20180201090000,-1,-1,-1,-1,10,-1,5,-1,-1,-1,-1,,9999,0,0,3,FEW 35   SCT 40   BKN 60,1,7,1,0,1023,RJDM 010900Z 01005KT 9999 FEW035 SCT040 BKN060 07/00 Q1023 RMK     1CU035 3CU040 5SC060 A3023=,
20180201_100000.003,0,RJDM,,,,0,20180201100000,-1,-1,-1,-1,360,-1,6,-1,-1,-1,-1,,9999,0,0,2,FEW 35   BKN 50,1,6,1,0,1024,RJDM 011000Z 36006KT 9999 FEW035 BKN050 06/00 Q1024 RMK 1CU035     5SC050 A3025=,
20180201_110000.003,0,RJDM,,,,0,20180201110000,-1,-1,-1,-1,-1,-1,-1,-1,-1,-1,-1,,-1,0,0,0,,0,-1,0,-1,-1,RJDM 011100Z NIL=,
20180201_120000.003,0,RJDM,,,,0,20180201120000,-1,-1,-1,-1,-1,-1,-1,-1,-1,-1,-1,,-1,0,0,0,,0,-1,0,-1,-1,RJDM 011200Z NIL=,
20180201_130000.003,0,RJDM,,,,0,20180201130000,-1,-1,-1,-1,-1,-1,-1,-1,-1,-1,-1,,-1,0,0,0,,0,-1,0,-1,-1,RJDM 011300Z NIL=,
20180201_140000.003,0,RJDM,,,,0,20180201140000,-1,-1,-1,-1,-1,-1,-1,-1,-1,-1,-1,,-1,0,0,0,,0,-1,0,-1,-1,RJDM 011400Z NIL=,
20180201_150000.003,0,RJDM,,,,0,20180201150000,-1,-1,-1,-1,-1,-1,-1,-1,-1,-1,-1,,-1,0,0,0,,0,-1,0,-1,-1,RJDM 011500Z NIL=,
20180201_160000.003,0,RJDM,,,,0,20180201160000,-1,-1,-1,-1,-1,-1,-1,-1,-1,-1,-1,,-1,0,0,0,,0,-1,0,-1,-1,RJDM 011600Z NIL=,
20180201_170000.003,0,RJDM,,,,0,20180201170000,-1,-1,-1,-1,-1,-1,-1,-1,-1,-1,-1,,-1,0,0,0,,0,-1,0,-1,-1,RJDM 011700Z NIL=,
20180201_180000.003,0,RJDM,,,,0,20180201180000,-1,-1,-1,-1,-1,-1,-1,-1,-1,-1,-1,,-1,0,0,0,,0,-1,0,-1,-1,RJDM 011800Z NIL=,
20180201_190000.004,0,RJDM,,,,0,20180201190000,-1,-1,-1,-1,-1,-1,-1,-1,-1,-1,-1,,-1,0,0,0,,0,-1,0,-1,-1,RJDM 011900Z NIL=,
20180201_200000.004,0,RJDM,,,,0,20180201200000,-1,-1,-1,-1,-1,-1,-1,-1,-1,-1,-1,,-1,0,0,0,,0,-1,0,-1,-1,RJDM 012000Z NIL=,
20180201_210000.003,0,RJDM,,,,0,20180201210000,-1,-1,-1,-1,60,-1,6,-1,-1,-1,-1,,9999,0,0,2,FEW 30   SCT 40,1,1,-1,1,1024,RJDM 012100Z 06006KT 9999 FEW030 SCT040 01/M01 Q1024 RMK     1CU030 3SC040 A3024=,
20180201_220000.003,0,RJDM,,,,0,20180201220000,-1,-1,-1,-1,30,-1,4,-1,-1,-1,-1,,9999,0,0,2,FEW 40   BKN 210,1,1,-1,1,1024,RJDM 012200Z 03004KT 9999 FEW040 BKN210 01/M01 Q1024 RMK     1CU040 5CI210 A3025=,
20180201_230000.004,0,RJDM,,,,0,20180201230000,-1,-1,-1,-1,70,-1,3,-1,-1,-1,-1,,9999,0,0,3,FEW 40   SCT 50   BKN 200,1,0,-1,1,1025,RJDM 012300Z 07003KT 9999 FEW040 SCT050 BKN200 00/M01 Q1025     RMK 1CU040 3SC050 5CI200 A3029=,
20180202_000000.003,0,RJDM,,,,0,20180202000000,-1,-1,-1,-1,90,-1,2,-1,-1,-1,-1,,9999,0,0,2,FEW 40   BKN 200,1,3,-1,0,1025,RJDM 020000Z 09002KT 9999 FEW040 BKN200 03/M00 Q1025 RMK     1CU040 7CI200 A3029=,
20180202_010000.003,0,RJDM,,,,0,20180202010000,-1,-1,-1,-1,160,-1,2,-1,-1,-1,-1,,9999,0,0,2,FEW 40   BKN 200,1,4,1,0,1026,RJDM 020100Z 16002KT 9999 FEW040 BKN200 04/00 Q1026 RMK 1CU040     7CI200 A3030=,
20180202_020000.003,0,RJDM,,,,0,20180202020000,-1,-1,-1,-1,0,-1,0,-1,-1,-1,-1,,9999,0,0,3,FEW 35   BKN 45   BKN 200,1,5,1,0,1025,RJDM 020200Z 00000KT 9999 FEW035 BKN045 BKN200 05/00 Q1025 RMK     1CU035 6SC045 7CI200 A3029=,
20180202_030000.003,0,RJDM,,,,0,20180202030000,-1,-1,-1,-1,170,-1,2,-1,-1,-1,-1,,9999,0,0,3,FEW 35   BKN 40   BKN 200,1,6,1,1,1024,RJDM 020300Z 17002KT 9999 FEW035 BKN040 BKN200 06/01 Q1024 RMK     1CU035 6SC040 7CI200 A3026=,
20180202_040000.003,0,RJDM,,,,0,20180202040000,-1,-1,-1,-1,60,-1,1,-1,-1,-1,-1,,9999,0,0,3,FEW 35   BKN 40   BKN 200,1,6,1,1,1024,RJDM 020400Z 06001KT 9999 FEW035 BKN040 BKN200 06/01 Q1024 RMK     1CU035 6SC040 7CI200 A3024=,
20180202_050000.002,0,RJDM,,,,0,20180202050000,-1,-1,-1,-1,100,-1,1,-1,-1,-1,-1,,9999,0,0,3,FEW 30   BKN 35   BKN 200,1,7,1,1,1023,RJDM 020500Z 10001KT 9999 FEW030 BKN035 BKN200 07/01 Q1023 RMK     1CU030 6SC035 7CI200 A3022=,
20180202_060000.003,0,RJDM,,,,0,20180202060000,-1,-1,-1,-1,360,-1,3,-1,-1,-1,-1,,9999,0,1,3,FEW 30   BKN 35   BKN 200,1,7,1,3,1023,RJDM 020600Z 36003KT 9999 -RA FEW030 BKN035 BKN200 07/03 Q1023     RMK 1CU030 5SC035 7CI200 A3022=,- RA
20180202_070000.003,0,RJDM,,,,0,20180202070000,-1,-1,-1,-1,20,-1,5,-1,-1,-1,-1,,9999,0,1,3,FEW 20   BKN 25   BKN 35,1,7,1,3,1023,RJDM 020700Z 02005KT 9999 -RA FEW020 BKN025 BKN035 07/03 Q1023     RMK 1CU020 5SC025 7SC035 A3021=,- RA
20180202_080000.003,0,RJDM,,,,0,20180202080000,-1,-1,-1,-1,20,-1,4,-1,-1,-1,-1,,9999,0,0,3,FEW 20   BKN 25   BKN 35,1,7,1,3,1022,RJDM 020800Z 02004KT 9999 FEW020 BKN025 BKN035 07/03 Q1022 RMK     1CU020 5CU025 6CU035 A3020=,
20180202_090000.003,0,RJDM,,,,0,20180202090000,-1,-1,-1,-1,-1,-1,-1,-1,-1,-1,-1,,-1,0,0,0,,0,-1,0,-1,-1,RJDM 020900Z NIL=,
20180202_100000.004,0,RJDM,,,,0,20180202100000,-1,-1,-1,-1,-1,-1,-1,-1,-1,-1,-1,,-1,0,0,0,,0,-1,0,-1,-1,RJDM 021000Z NIL=,
20180202_110000.003,0,RJDM,,,,0,20180202110000,-1,-1,-1,-1,-1,-1,-1,-1,-1,-1,-1,,-1,0,0,0,,0,-1,0,-1,-1,RJDM 021100Z NIL=,
20180202_120000.003,0,RJDM,,,,0,20180202120000,-1,-1,-1,-1,-1,-1,-1,-1,-1,-1,-1,,-1,0,0,0,,0,-1,0,-1,-1,RJDM 021200Z NIL=,
20180202_130000.004,0,RJDM,,,,0,20180202130000,-1,-1,-1,-1,-1,-1,-1,-1,-1,-1,-1,,-1,0,0,0,,0,-1,0,-1,-1,RJDM 021300Z NIL=,
20180202_140000.003,0,RJDM,,,,0,20180202140000,-1,-1,-1,-1,-1,-1,-1,-1,-1,-1,-1,,-1,0,0,0,,0,-1,0,-1,-1,RJDM 021400Z NIL=,
20180202_150000.003,0,RJDM,,,,0,20180202150000,-1,-1,-1,-1,-1,-1,-1,-1,-1,-1,-1,,-1,0,0,0,,0,-1,0,-1,-1,RJDM 021500Z NIL=,
20180202_160000.003,0,RJDM,,,,0,20180202160000,-1,-1,-1,-1,-1,-1,-1,-1,-1,-1,-1,,-1,0,0,0,,0,-1,0,-1,-1,RJDM 021600Z NIL=,
20180202_170000.003,0,RJDM,,,,0,20180202170000,-1,-1,-1,-1,-1,-1,-1,-1,-1,-1,-1,,-1,0,0,0,,0,-1,0,-1,-1,RJDM 021700Z NIL=,
20180202_180000.004,0,RJDM,,,,0,20180202180000,-1,-1,-1,-1,-1,-1,-1,-1,-1,-1,-1,,-1,0,0,0,,0,-1,0,-1,-1,RJDM 021800Z NIL=,
20180202_190000.004,0,RJDM,,,,0,20180202190000,-1,-1,-1,-1,-1,-1,-1,-1,-1,-1,-1,,-1,0,0,0,,0,-1,0,-1,-1,RJDM 021900Z NIL=,
20180202_200000.004,0,RJDM,,,,0,20180202200000,-1,-1,-1,-1,-1,-1,-1,-1,-1,-1,-1,,-1,0,0,0,,0,-1,0,-1,-1,RJDM 022000Z NIL=,
20180202_210000.003,0,RJDM,,,,0,20180202210000,-1,-1,-1,-1,-1,-1,-1,-1,-1,-1,-1,,-1,0,0,0,,0,-1,0,-1,-1,RJDM 022100Z NIL=,
20180202_220000.003,0,RJDM,,,,0,20180202220000,-1,-1,-1,-1,110,-1,3,-1,-1,-1,-1,,9999,0,0,1,FEW 35,-1,2,-1,3,1022,RJDM 022200Z 11003KT 9999 FEW035 M02/M03 Q1022 RMK 1CU035     A3020=,
20180202_230000.004,0,RJDM,,,,0,20180202230000,-1,-1,-1,-1,340,-1,2,-1,-1,-1,-1,,9999,0,0,2,FEW 50   BKN 240,1,0,-1,1,1023,RJDM 022300Z 34002KT 9999 FEW050 BKN240 00/M01 Q1023 RMK     1SC050 6CI240 A3021=,
20180203_000000.003,0,RJDM,,,,0,20180203000000,-1,-1,-1,-1,150,-1,2,-1,-1,-1,-1,,9999,0,0,2,FEW 40   BKN 240,1,2,1,0,1023,RJDM 030000Z 15002KT 9999 FEW040 BKN240 02/00 Q1023 RMK 1CU040     6CI240 A3022=,
20180203_010000.004,0,RJDM,,,,0,20180203010000,-1,-1,-1,-1,130,-1,2,-1,-1,-1,-1,,9999,0,0,2,FEW 40   SCT 240,1,5,1,1,1023,RJDM 030100Z 13002KT 9999 FEW040 SCT240 05/01 Q1023 RMK 1CU040     4CI240 A3021=,
20180203_020000.003,0,RJDM,,,,0,20180203020000,-1,-1,-1,-1,340,-1,9,-1,-1,-1,-1,,9999,0,0,2,FEW 30   SCT 40,1,7,-1,6,1023,RJDM 030200Z 34009KT 9999 FEW030 SCT040 07/M06 Q1023 RMK     1CU030 4CU040 A3021 MAX WIND 15KT=,
20180203_030000.003,0,RJDM,,,,0,20180203030000,-1,-1,-1,-1,320,-1,6,-1,17,-1,-1,,9999,0,0,2,FEW 35   SCT 50,1,9,-1,4,1022,RJDM 030300Z 32006G17KT 9999 FEW035 SCT050 09/M04 Q1022 RMK     1CU035 3SC050 A3019=,
20180203_040000.003,0,RJDM,,,,0,20180203040000,-1,-1,-1,-1,280,-1,6,-1,18,-1,-1,,9000,0,1,3,FEW 20   BKN 30   BKN 50,1,6,-1,3,1022,RJDM 030400Z 28006G18KT 9000 -SHRA FEW020 BKN030 BKN050 06/M03     Q1022 RMK 1CU020 5CU030 7SC050 A3019=,- RA SH
20180203_050000.003,0,RJDM,,,,0,20180203050000,-1,-1,-1,-1,280,-1,8,-1,-1,-1,-1,,9999,0,0,2,FEW 25   SCT 45,1,7,-1,3,1021,RJDM 030500Z 28008KT 9999 FEW025 SCT045 07/M03 Q1021 RMK     1CU025 3CU045 A3017 MAX WIND 16KT=,
20180203_060000.003,0,RJDM,,,,0,20180203060000,-1,-1,-1,-1,280,-1,9,-1,-1,-1,-1,,9999,0,0,2,FEW 25   BKN 45,1,6,-1,2,1022,RJDM 030600Z 28009KT 9999 FEW025 BKN045 06/M02 Q1022 RMK     1CU025 5CU045 A3018 MAX WIND 18KT=,
20180203_070000.004,0,RJDM,,,,0,20180203070000,-1,-1,-1,-1,270,-1,8,-1,-1,-1,-1,,9999,0,0,2,FEW 30   BKN 45,1,5,-1,4,1022,RJDM 030700Z 27008KT 9999 FEW030 BKN045 05/M04 Q1022 RMK     1CU030 5CU045 A3019 MAX WIND 17KT=,
20180203_080000.003,0,RJDM,,,,0,20180203080000,-1,-1,-1,-1,-1,-1,-1,-1,-1,-1,-1,,-1,0,0,0,,0,-1,0,-1,-1,RJDM 030800Z NIL=,
20180203_090000.003,0,RJDM,,,,0,20180203090000,-1,-1,-1,-1,-1,-1,-1,-1,-1,-1,-1,,-1,0,0,0,,0,-1,0,-1,-1,RJDM 030900Z NIL=,
20180203_100000.003,0,RJDM,,,,0,20180203100000,-1,-1,-1,-1,-1,-1,-1,-1,-1,-1,-1,,-1,0,0,0,,0,-1,0,-1,-1,RJDM 031000Z NIL=,
20180203_110000.003,0,RJDM,,,,0,20180203110000,-1,-1,-1,-1,-1,-1,-1,-1,-1,-1,-1,,-1,0,0,0,,0,-1,0,-1,-1,RJDM 031100Z NIL=,
20180203_120000.003,0,RJDM,,,,0,20180203120000,-1,-1,-1,-1,-1,-1,-1,-1,-1,-1,-1,,-1,0,0,0,,0,-1,0,-1,-1,RJDM 031200Z NIL=,
20180203_130000.003,0,RJDM,,,,0,20180203130000,-1,-1,-1,-1,-1,-1,-1,-1,-1,-1,-1,,-1,0,0,0,,0,-1,0,-1,-1,RJDM 031300Z NIL=,
20180203_140000.003,0,RJDM,,,,0,20180203140000,-1,-1,-1,-1,-1,-1,-1,-1,-1,-1,-1,,-1,0,0,0,,0,-1,0,-1,-1,RJDM 031400Z NIL=,
20180203_150000.003,0,RJDM,,,,0,20180203150000,-1,-1,-1,-1,-1,-1,-1,-1,-1,-1,-1,,-1,0,0,0,,0,-1,0,-1,-1,RJDM 031500Z NIL=,
20180203_160000.003,0,RJDM,,,,0,20180203160000,-1,-1,-1,-1,-1,-1,-1,-1,-1,-1,-1,,-1,0,0,0,,0,-1,0,-1,-1,RJDM 031600Z NIL=,
20180203_170000.003,0,RJDM,,,,0,20180203170000,-1,-1,-1,-1,-1,-1,-1,-1,-1,-1,-1,,-1,0,0,0,,0,-1,0,-1,-1,RJDM 031700Z NIL=,
20180203_180000.004,0,RJDM,,,,0,20180203180000,-1,-1,-1,-1,-1,-1,-1,-1,-1,-1,-1,,-1,0,0,0,,0,-1,0,-1,-1,RJDM 031800Z NIL=,
20180203_190000.003,0,RJDM,,,,0,20180203190000,-1,-1,-1,-1,-1,-1,-1,-1,-1,-1,-1,,-1,0,0,0,,0,-1,0,-1,-1,RJDM 031900Z NIL=,
20180203_200000.003,0,RJDM,,,,0,20180203200000,-1,-1,-1,-1,-1,-1,-1,-1,-1,-1,-1,,-1,0,0,0,,0,-1,0,-1,-1,RJDM 032000Z NIL=,
20180203_210000.003,0,RJDM,,,,0,20180203210000,-1,-1,-1,-1,-1,-1,-1,-1,-1,-1,-1,,-1,0,0,0,,0,-1,0,-1,-1,RJDM 032100Z NIL=,
20180203_220000.003,0,RJDM,,,,0,20180203220000,-1,-1,-1,-1,-1,-1,-1,-1,-1,-1,-1,,-1,0,0,0,,0,-1,0,-1,-1,RJDM 032200Z NIL=,
20180203_230000.003,0,RJDM,,,,0,20180203230000,-1,-1,-1,-1,-1,-1,-1,-1,-1,-1,-1,,-1,0,0,0,,0,-1,0,-1,-1,RJDM 032300Z NIL=,
20180204_000000.003,0,RJDM,,,,0,20180204000000,-1,-1,-1,-1,-1,-1,-1,-1,-1,-1,-1,,-1,0,0,0,,0,-1,0,-1,-1,RJDM 040000Z NIL=,
20180204_010000.003,0,RJDM,,,,0,20180204010000,-1,-1,-1,-1,-1,-1,-1,-1,-1,-1,-1,,-1,0,0,0,,0,-1,0,-1,-1,RJDM 040100Z NIL=,
20180204_020000.003,0,RJDM,,,,0,20180204020000,-1,-1,-1,-1,-1,-1,-1,-1,-1,-1,-1,,-1,0,0,0,,0,-1,0,-1,-1,RJDM 040200Z NIL=,
20180204_030000.003,0,RJDM,,,,0,20180204030000,-1,-1,-1,-1,280,-1,12,-1,22,-1,-1,,9999,0,0,2,FEW 15   BKN 40,1,2,-1,10,1024,RJDM 040300Z 28012G22KT 9999 FEW015 BKN040 02/M10 Q1024 RMK     1CU015 6CU040 A3024=,
20180204_040000.003,0,RJDM,,,,0,20180204040000,-1,-1,-1,-1,270,-1,16,-1,26,-1,-1,,9999,0,1,2,FEW 15   BKN 35,1,3,-1,8,1023,RJDM 040400Z 27016G26KT 9999 -SHSN FEW015 BKN035 03/M08 Q1023     RMK 2CU015 6CU035 A3023=,- SN SH
20180204_050000.003,0,RJDM,,,,0,20180204050000,-1,-1,-1,-1,-1,-1,-1,-1,-1,-1,-1,,-1,0,0,0,,0,-1,0,-1,-1,RJDM 040500Z NIL=,
20180204_060000.003,0,RJDM,,,,0,20180204060000,-1,-1,-1,-1,-1,-1,-1,-1,-1,-1,-1,,-1,0,0,0,,0,-1,0,-1,-1,RJDM 040600Z NIL=,
20180204_070000.003,0,RJDM,,,,0,20180204070000,-1,-1,-1,-1,-1,-1,-1,-1,-1,-1,-1,,-1,0,0,0,,0,-1,0,-1,-1,RJDM 040700Z NIL=,
20180204_080000.003,0,RJDM,,,,0,20180204080000,-1,-1,-1,-1,-1,-1,-1,-1,-1,-1,-1,,-1,0,0,0,,0,-1,0,-1,-1,RJDM 040800Z NIL=,
20180204_090000.003,0,RJDM,,,,0,20180204090000,-1,-1,-1,-1,-1,-1,-1,-1,-1,-1,-1,,-1,0,0,0,,0,-1,0,-1,-1,RJDM 040900Z NIL=,
20180204_100000.003,0,RJDM,,,,0,20180204100000,-1,-1,-1,-1,-1,-1,-1,-1,-1,-1,-1,,-1,0,0,0,,0,-1,0,-1,-1,RJDM 041000Z NIL=,
20180204_110000.004,0,RJDM,,,,0,20180204110000,-1,-1,-1,-1,-1,-1,-1,-1,-1,-1,-1,,-1,0,0,0,,0,-1,0,-1,-1,RJDM 041100Z NIL=,
20180204_120000.003,0,RJDM,,,,0,20180204120000,-1,-1,-1,-1,-1,-1,-1,-1,-1,-1,-1,,-1,0,0,0,,0,-1,0,-1,-1,RJDM 041200Z NIL=,
20180204_130000.003,0,RJDM,,,,0,20180204130000,-1,-1,-1,-1,-1,-1,-1,-1,-1,-1,-1,,-1,0,0,0,,0,-1,0,-1,-1,RJDM 041300Z NIL=,
20180204_140000.003,0,RJDM,,,,0,20180204140000,-1,-1,-1,-1,-1,-1,-1,-1,-1,-1,-1,,-1,0,0,0,,0,-1,0,-1,-1,RJDM 041400Z NIL=,
20180204_150000.003,0,RJDM,,,,0,20180204150000,-1,-1,-1,-1,-1,-1,-1,-1,-1,-1,-1,,-1,0,0,0,,0,-1,0,-1,-1,RJDM 041500Z NIL=,
20180204_160000.003,0,RJDM,,,,0,20180204160000,-1,-1,-1,-1,-1,-1,-1,-1,-1,-1,-1,,-1,0,0,0,,0,-1,0,-1,-1,RJDM 041600Z NIL=,
20180204_170000.003,0,RJDM,,,,0,20180204170000,-1,-1,-1,-1,-1,-1,-1,-1,-1,-1,-1,,-1,0,0,0,,0,-1,0,-1,-1,RJDM 041700Z NIL=,
20180204_180000.004,0,RJDM,,,,0,20180204180000,-1,-1,-1,-1,-1,-1,-1,-1,-1,-1,-1,,-1,0,0,0,,0,-1,0,-1,-1,RJDM 041800Z NIL=,
20180204_190000.003,0,RJDM,,,,0,20180204190000,-1,-1,-1,-1,-1,-1,-1,-1,-1,-1,-1,,-1,0,0,0,,0,-1,0,-1,-1,RJDM 041900Z NIL=,
20180204_200000.003,0,RJDM,,,,0,20180204200000,-1,-1,-1,-1,-1,-1,-1,-1,-1,-1,-1,,-1,0,0,0,,0,-1,0,-1,-1,RJDM 042000Z NIL=,
20180204_210000.003,0,RJDM,,,,0,20180204210000,-1,-1,-1,-1,270,-1,1,-1,-1,-1,-1,,9999,0,0,3,FEW 20   BKN 30   BKN 45,-1,2,-1,6,1024,RJDM 042100Z 27001KT 9999 FEW020 BKN030 BKN045 M02/M06 Q1024     RMK 1CU020 5CU030 7CU045 A3025=,
20180204_220000.003,0,RJDM,,,,0,20180204220000,-1,-1,-1,-1,260,-1,2,-1,-1,-1,-1,,9999,0,0,2,FEW 20   SCT 45,-1,1,-1,8,1025,RJDM 042200Z 26002KT 9999 FEW020 SCT045 M01/M08 Q1025 RMK     1CU020 3CU045 A3027=,
20180204_230000.003,0,RJDM,,,,0,20180204230000,-1,-1,-1,-1,200,-1,2,-1,-1,-1,-1,,9999,0,1,2,FEW 20   BKN 40,-1,2,-1,8,1025,RJDM 042300Z 20002KT 9999 -SHSN FEW020 BKN040 M02/M08 Q1025     RMK 1CU020 5CU040 A3027=,- SN SH
20180205_000000.004,0,RJDM,,,,0,20180205000000,-1,-1,-1,-1,350,-1,3,-1,13,-1,-1,,9999,0,1,2,FEW 20   BKN 35,-1,0,-1,9,1025,RJDM 050000Z 35003G13KT 9999 -SHSN FEW020 BKN035 M00/M09 Q1025     RMK 1CU020 5CU035 A3027=,- SN SH
20180205_010000.003,0,RJDM,,,,0,20180205010000,-1,-1,-1,-1,320,-1,5,-1,15,-1,-1,,9999,0,1,2,FEW 20   BKN 50,1,2,-1,8,1025,RJDM 050100Z 32005G15KT 9999 -SHSN FEW020 BKN050 02/M08 Q1025     RMK 1CU020 5SC050 A3027=,- SN SH
20180205_020000.003,0,RJDM,,,,0,20180205020000,-1,-1,-1,-1,260,-1,5,-1,-1,-1,-1,,9999,0,1,2,FEW 20   BKN 35,1,2,-1,6,1025,RJDM 050200Z 26005KT 9999 -SHSN FEW020 BKN035 02/M06 Q1025 RMK     1CU020 6CU035 A3027 3500W=,- SN SH
