20180101_000000.002,0,RJEB,,,,0,20180101000000,-1,-1,-1,-1,120,-1,8,-1,-1,-1,-1,,6000,0,1,2,FEW 4   BKN 40,-1,3,-1,4,1015,RJEB 010000Z 12008KT 6000 -SHSN FEW004 BKN040 M03/M04 Q1015     RMK 1ST004 7CU040 A2997 3000SE=,- SN SH
20180101_010000.002,0,RJEB,,,,0,20180101010000,-1,-1,-1,-1,120,-1,7,-1,-1,-1,-1,,6000,0,1,3,FEW 4   BKN 5   BKN 30,-1,2,-1,3,1014,RJEB 010100Z 12007KT 6000 -SHSN FEW004 BKN005 BKN030 M02/M03     Q1014 RMK 1ST004 6ST005 7CU030 A2996=,- SN SH
20180101_020000.002,0,RJEB,,,,0,20180101020000,-1,-1,-1,-1,120,-1,7,-1,-1,-1,-1,,3200,0,1,3,FEW 3   SCT 4   BKN 5,-1,1,-1,2,1013,RJEB 010200Z 12007KT 3200 -SHSN FEW003 SCT004 BKN005 M01/M02     Q1013 RMK 1ST003 4ST004 6ST005 A2992=,- SN SH
20180101_030000.002,0,RJEB,,,,0,20180101030000,-1,-1,-1,-1,110,-1,9,-1,-1,-1,-1,,9999,0,0,3,FEW 4   SCT 5   BKN 50,-1,1,-1,3,1012,RJEB 010300Z 11009KT 9999 FEW004 SCT005 BKN050 M01/M03 Q1012     RMK 1ST004 3ST005 6CU050 A2989=,
20180101_040000.002,0,RJEB,,,,0,20180101040000,-1,-1,-1,-1,110,-1,8,-1,-1,-1,-1,,9999,0,0,2,FEW 8   BKN 80,-1,0,-1,3,1011,RJEB 010400Z 11008KT 9999 FEW008 BKN080 M00/M03 Q1011 RMK     1ST008 7AC080 A2986=,
20180101_050000.002,0,RJEB,,,,0,20180101050000,-1,-1,-1,-1,120,-1,6,-1,-1,-1,-1,,9999,0,0,2,FEW 9   BKN 70,1,0,-1,2,1010,RJEB 010500Z 12006KT 9999 FEW009 BKN070 00/M02 Q1010 RMK     1ST009 7AC070 A2984=,
20180101_060000.002,0,RJEB,,,,0,20180101060000,-1,-1,-1,-1,120,-1,6,-1,-1,-1,-1,,9999,0,0,3,FEW 10   BKN 70   BKN 80,1,1,-1,3,1010,RJEB 010600Z 12006KT 9999 FEW010 BKN070 BKN080 01/M03 Q1010     RMK 1ST010 6AC070 7AC080 A2984=,
20180101_070000.002,0,RJEB,,,,0,20180101070000,-1,-1,-1,-1,120,-1,11,-1,-1,-1,-1,,9999,0,1,3,FEW 10   SCT 60   BKN 70,1,1,-1,2,1010,RJEB 010700Z 12011KT 9999 -SHSN FEW010 SCT060 BKN070 01/M02     Q1010 RMK 1ST010 3CU060 6AC070 A2984=,- SN SH
20180102_000000.003,0,RJEB,,,,0,20180102000000,-1,-1,-1,-1,120,-1,7,-1,-1,-1,-1,,4500,0,1,3,FEW 2   SCT 3   BKN 15,1,0,-1,1,1009,RJEB 020000Z 12007KT 4500 -SHSN FEW002 SCT003 BKN015 00/M01     Q1009 RMK 1ST002 4ST003 6ST015 A2981=,- SN SH
20180102_010000.003,0,RJEB,,,,0,20180102010000,-1,-1,-1,-1,130,-1,7,-1,-1,-1,-1,,2500,0,1,3,FEW 2   SCT 4   BKN 20,1,0,-1,1,1009,RJEB 020100Z 13007KT 2500 -SHSN FEW002 SCT004 BKN020 00/M01     Q1009 RMK 1ST002 4ST004 7CU020 A2980=,- SN SH
20180102_020000.002,0,RJEB,,,,0,20180102020000,-1,-1,-1,-1,120,-1,6,-1,-1,-1,-1,,4500,0,1,3,FEW 3   SCT 20   BKN 30,1,0,-1,1,1008,RJEB 020200Z 12006KT 4500 -SHSN FEW003 SCT020 BKN030 00/M01     Q1008 RMK 1ST003 4CU020 6CU030 A2978=,- SN SH
20180102_030000.002,0,RJEB,,,,0,20180102030000,-1,-1,-1,-1,100,-1,8,-1,-1,-1,-1,,9999,0,1,3,FEW 3   BKN 7   BKN 30,1,0,-1,1,1007,RJEB 020300Z 10008KT 9999 -SHSN FEW003 BKN007 BKN030 00/M01     Q1007 RMK 1ST003 5ST007 7CU030 A2975=,- SN SH
20180102_040000.002,0,RJEB,,,,0,20180102040000,-1,-1,-1,-1,100,-1,8,-1,-1,-1,-1,,9999,0,1,3,FEW 4   BKN 7   BKN 30,1,0,-1,1,1007,RJEB 020400Z 10008KT 9999 -SHSN FEW004 BKN007 BKN030 00/M01     Q1007 RMK 1ST004 5ST007 6CU030 A2974=,- SN SH
20180102_050000.002,0,RJEB,,,,0,20180102050000,-1,-1,-1,-1,100,-1,11,-1,-1,-1,-1,,9999,0,0,3,FEW 5   SCT 8   BKN 45,1,0,-1,1,1006,RJEB 020500Z 10011KT 9999 FEW005 SCT008 BKN045 00/M01 Q1006     RMK 1ST005 3ST008 6CU045 A2972=,
20180102_060000.002,0,RJEB,,,,0,20180102060000,-1,-1,-1,-1,100,-1,9,-1,-1,-1,-1,,9999,0,0,3,FEW 5   BKN 7   BKN 30,1,0,-1,1,1006,RJEB 020600Z 10009KT 9999 FEW005 BKN007 BKN030 00/M01 Q1006     RMK 1ST005 5ST007 6CU030 A2972=,
20180102_070000.002,0,RJEB,,,,0,20180102070000,-1,-1,-1,-1,100,-1,10,-1,-1,-1,-1,,3000,0,1,3,FEW 3   SCT 4   BKN 9,1,0,-1,0,1006,RJEB 020700Z 10010KT 3000 -SHSN FEW003 SCT004 BKN009 00/M00     Q1006 RMK 1ST003 3ST004 6ST009 A2971=,- SN SH
20180103_000000.002,0,RJEB,,,,0,20180103000000,-1,-1,-1,-1,30,-1,15,-1,-1,-1,-1,,9999,0,1,3,FEW 15   SCT 30   BKN 40,-1,0,-1,4,1009,RJEB 030000Z 03015KT 9999 -SHSN FEW015 SCT030 BKN040 M00/M04     Q1009 RMK 1ST015 3CU030 6CU040 A2979=,- SN SH
20180103_010000.002,0,RJEB,,,,0,20180103010000,-1,-1,-1,-1,10,-1,12,-1,-1,-1,-1,,9999,0,1,3,FEW 15   BKN 20   BKN 40,-1,1,-1,5,1009,RJEB 030100Z 01012KT 9999 -SHSN FEW015 BKN020 BKN040 M01/M05     Q1009 RMK 1ST015 6CU020 7CU040 A2981=,- SN SH
20180103_020000.002,0,RJEB,,,,0,20180103020000,-1,-1,-1,-1,360,-1,12,-1,-1,-1,-1,,8000,0,1,2,FEW 5   BKN 20,-1,1,-1,6,1009,RJEB 030200Z 36012KT 8000 -SHSN FEW005 BKN020 M01/M06 Q1009     RMK 1ST005 7CU020 A2981=,- SN SH
20180103_030000.003,0,RJEB,,,,0,20180103030000,-1,-1,-1,-1,360,-1,11,-1,-1,-1,-1,,9999,0,1,3,FEW 15   SCT 25   BKN 30,-1,1,-1,6,1009,RJEB 030300Z 36011KT 9999 -SHSN FEW015 SCT025 BKN030 M01/M06     Q1009 RMK 1ST015 4CU025 6CU030 A2981=,- SN SH
20180103_040000.002,0,RJEB,,,,0,20180103040000,-1,-1,-1,-1,350,-1,14,-1,-1,-1,-1,,6000,0,1,3,FEW 5   SCT 25   BKN 30,-1,2,-1,6,1009,RJEB 030400Z 35014KT 6000 -SHSN FEW005 SCT025 BKN030 M02/M06     Q1009 RMK 1ST005 3CU025 6CU030 A2982=,- SN SH
20180103_050000.002,0,RJEB,,,,0,20180103050000,-1,-1,-1,-1,340,-1,14,-1,-1,-1,-1,,9999,0,1,3,FEW 15   BKN 20   BKN 30,-1,2,-1,7,1010,RJEB 030500Z 34014KT 9999 -SHSN FEW015 BKN020 BKN030 M02/M07     Q1010 RMK 1ST015 5CU020 6CU030 A2983=,- SN SH
20180103_060000.002,0,RJEB,,,,0,20180103060000,-1,-1,-1,-1,330,-1,14,-1,-1,-1,-1,,9999,0,1,2,FEW 20   BKN 30,-1,2,-1,8,1010,RJEB 030600Z 33014KT 9999 -SHSN FEW020 BKN030 M02/M08 Q1010     RMK 1CU020 6CU030 A2984=,- SN SH
20180103_070000.002,0,RJEB,,,,0,20180103070000,-1,-1,-1,-1,350,-1,11,-1,-1,-1,-1,,9999,0,1,3,FEW 12   SCT 20   BKN 30,-1,2,-1,7,1011,RJEB 030700Z 35011KT 9999 -SHSN FEW012 SCT020 BKN030 M02/M07     Q1011 RMK 1ST012 3CU020 6CU030 A2986=,- SN SH
20180104_000000.002,0,RJEB,,,,0,20180104000000,-1,-1,-1,-1,280,-1,10,-1,-1,-1,-1,,8000,0,1,2,FEW 10   BKN 30,-1,4,-1,9,1014,RJEB 040000Z 28010KT 8000 -SHSN FEW010 BKN030 M04/M09 Q1014     RMK 1ST010 6CU030 A2997=,- SN SH
20180104_010000.002,0,RJEB,,,,0,20180104010000,-1,-1,-1,-1,290,-1,7,-1,-1,-1,-1,,8000,0,1,2,FEW 12   BKN 30,-1,4,-1,9,1014,RJEB 040100Z 29007KT 8000 -SHSN FEW012 BKN030 M04/M09 Q1014     RMK 1ST012 6CU030 A2996=,- SN SH
20180104_020000.002,0,RJEB,,,,0,20180104020000,-1,-1,-1,-1,300,-1,7,-1,-1,-1,-1,,9999,0,0,2,FEW 35   BKN 45,-1,3,-1,9,1013,RJEB 040200Z 30007KT 9999 FEW035 BKN045 M03/M09 Q1013 RMK     1CU035 7CU045 A2994=,
20180104_030000.002,0,RJEB,,,,0,20180104030000,-1,-1,-1,-1,290,-1,6,-1,-1,-1,-1,,9999,0,1,2,FEW 20   BKN 40,-1,3,-1,8,1013,RJEB 040300Z 29006KT 9999 -SHSN FEW020 BKN040 M03/M08 Q1013     RMK 1CU020 6CU040 A2991=,- SN SH
20180104_040000.002,0,RJEB,,,,0,20180104040000,-1,-1,-1,-1,290,-1,6,-1,-1,-1,-1,,9999,0,1,2,FEW 25   BKN 50,-1,3,-1,8,1012,RJEB 040400Z 29006KT 9999 -SHSN FEW025 BKN050 M03/M08 Q1012     RMK 1CU025 7CU050 A2990=,- SN SH
20180104_050000.002,0,RJEB,,,,0,20180104050000,-1,-1,-1,-1,300,-1,6,-1,-1,-1,-1,,9999,0,1,2,FEW 25   BKN 50,-1,3,-1,8,1012,RJEB 040500Z 30006KT 9999 -SHSN FEW025 BKN050 M03/M08 Q1012     RMK 1CU025 7CU050 A2990=,- SN SH
20180104_060000.003,0,RJEB,,,,0,20180104060000,-1,-1,-1,-1,320,-1,9,-1,-1,-1,-1,,9999,0,1,3,FEW 15   SCT 30   BKN 50,-1,3,-1,7,1013,RJEB 040600Z 32009KT 9999 -SHSN FEW015 SCT030 BKN050 M03/M07     Q1013 RMK 1ST015 4CU030 6CU050 A2992=,- SN SH
20180104_070000.002,0,RJEB,,,,0,20180104070000,-1,-1,-1,-1,300,-1,6,-1,-1,-1,-1,,9999,0,1,3,FEW 20   SCT 30   BKN 50,-1,3,-1,7,1013,RJEB 040700Z 30006KT 9999 -SHSN FEW020 SCT030 BKN050 M03/M07     Q1013 RMK 1CU020 4CU030 6CU050 A2992=,- SN SH
20180105_000000.002,0,RJEB,,,,0,20180105000000,-1,-1,-1,-1,220,-1,2,-1,-1,-1,-1,,9999,0,1,2,FEW 10   BKN 50,-1,4,-1,6,1011,RJEB 050000Z 22002KT 9999 -SHSN FEW010 BKN050 M04/M06 Q1011     RMK 1ST010 7CU050 A2988=,- SN SH
20180105_010000.003,0,RJEB,,,,0,20180105010000,-1,-1,-1,-1,0,-1,0,-1,-1,-1,-1,,9999,0,1,2,FEW 40   BKN 60,-1,3,-1,6,1011,RJEB 050100Z 00000KT 9999 -SHSN FEW040 BKN060 M03/M06 Q1011     RMK 1CU040 6CU060 A2986=,- SN SH
20180105_020000.002,0,RJEB,,,,0,20180105020000,-1,-1,-1,-1,999,-1,2,-1,-1,-1,-1,,9999,0,1,2,FEW 30   BKN 60,-1,3,-1,6,1010,RJEB 050200Z VRB02KT 9999 -SHSN FEW030 BKN060 M03/M06 Q1010     RMK 1CU030 6CU060 A2984=,- SN SH
20180105_030000.002,0,RJEB,,,,0,20180105030000,-1,-1,-1,-1,100,-1,3,-1,-1,-1,-1,,9999,0,1,2,FEW 30   BKN 50,-1,2,-1,6,1009,RJEB 050300Z 10003KT 9999 -SHSN FEW030 BKN050 M02/M06 Q1009     RMK 1CU030 6CU050 A2981=,- SN SH
20180105_040000.002,0,RJEB,,,,0,20180105040000,-1,-1,-1,-1,130,-1,5,-1,-1,-1,-1,,9999,0,1,3,FEW 10   SCT 50   BKN 60,-1,2,-1,6,1008,RJEB 050400Z 13005KT 9999 -SHSN FEW010 SCT050 BKN060 M02/M06     Q1008 RMK 1ST010 4CU050 7CU060 A2979=,- SN SH
20180105_050000.002,0,RJEB,,,,0,20180105050000,-1,-1,-1,-1,110,-1,5,-1,-1,-1,-1,,9999,0,1,2,FEW 40   BKN 60,-1,2,-1,6,1008,RJEB 050500Z 11005KT 9999 -SHSN FEW040 BKN060 M02/M06 Q1008     RMK 1CU040 7CU060 A2978=,- SN SH
20180105_060000.002,0,RJEB,,,,0,20180105060000,-1,-1,-1,-1,150,-1,6,-1,-1,-1,-1,,9999,0,1,3,FEW 30   SCT 40   BKN 60,-1,2,-1,5,1008,RJEB 050600Z 15006KT 9999 -SHSN FEW030 SCT040 BKN060 M02/M05     Q1008 RMK 1CU030 3CU040 6CU060 A2977=,- SN SH
20180105_070000.002,0,RJEB,,,,0,20180105070000,-1,-1,-1,-1,180,-1,3,-1,-1,-1,-1,,9999,0,0,3,FEW 30   SCT 40   BKN 50,-1,2,-1,5,1008,RJEB 050700Z 18003KT 9999 FEW030 SCT040 BKN050 M02/M05 Q1008     RMK 1CU030 4CU040 6CU050 A2977=,
20180106_000000.002,0,RJEB,,,,0,20180106000000,-1,-1,-1,-1,999,-1,1,-1,-1,-1,-1,,9999,0,0,3,FEW 30   SCT 50   BKN 80,-1,4,-1,7,1004,RJEB 060000Z VRB01KT 9999 FEW030 SCT050 BKN080 M04/M07 Q1004     RMK 1CU030 3CU050 6AC080 A2965=,
20180106_010000.002,0,RJEB,,,,0,20180106010000,-1,-1,-1,-1,270,-1,3,-1,-1,-1,-1,,9999,0,0,2,FEW 40   BKN 80,-1,4,-1,8,1004,RJEB 060100Z 27003KT 9999 FEW040 BKN080 M04/M08 Q1004 RMK     1CU040 6AC080 A2965=,
20180106_020000.002,0,RJEB,,,,0,20180106020000,-1,-1,-1,-1,999,-1,2,-1,-1,-1,-1,,9999,0,1,2,FEW 10   SCT 40,-1,1,-1,6,1003,RJEB 060200Z VRB02KT 9999 -SHSN FEW010 SCT040 M01/M06 Q1003     RMK 1ST010 4CU040 A2963=,- SN SH
20180106_030000.002,0,RJEB,,,,0,20180106030000,-1,-1,-1,-1,320,-1,11,-1,-1,-1,-1,,4500,0,1,3,FEW 4   SCT 20   BKN 40,-1,2,-1,5,1002,RJEB 060300Z 32011KT 4500 -SHSN FEW004 SCT020 BKN040 M02/M05     Q1002 RMK 1ST004 4CU020 6CU040 A2961 9999E=,- SN SH
20180106_040000.002,0,RJEB,,,,0,20180106040000,-1,-1,-1,-1,260,-1,4,-1,-1,-1,-1,,9999,0,1,3,FEW 4   SCT 20   BKN 40,-1,2,-1,5,1002,RJEB 060400Z 26004KT 9999 -SHSN FEW004 SCT020 BKN040 M02/M05     Q1002 RMK 1ST004 4CU020 6CU040 A2960 3000SE-S=,- SN SH
20180106_050000.002,0,RJEB,,,,0,20180106050000,-1,-1,-1,-1,290,-1,2,-1,-1,-1,-1,,9999,0,0,3,FEW 40   SCT 60   BKN 90,-1,1,-1,6,1002,RJEB 060500Z 29002KT 9999 FEW040 SCT060 BKN090 M01/M06 Q1002     RMK 1CU040 3CU060 7AC090 A2960=,
20180106_060000.002,0,RJEB,,,,0,20180106060000,-1,-1,-1,-1,310,-1,5,-1,-1,-1,-1,,9999,0,1,3,FEW 8   SCT 40   BKN 90,-1,2,-1,6,1002,RJEB 060600Z 31005KT 9999 -SHSN FEW008 SCT040 BKN090 M02/M06     Q1002 RMK 1ST008 4CU040 5AC090 A2960=,- SN SH
20180106_070000.002,0,RJEB,,,,0,20180106070000,-1,-1,-1,-1,290,-1,4,-1,-1,-1,-1,,9999,0,0,2,FEW 30   SCT 90,-1,3,-1,6,1002,RJEB 060700Z 29004KT 9999 FEW030 SCT090 M03/M06 Q1002 RMK     1CU030 4AC090 A2960=,
20180107_000000.002,0,RJEB,,,,0,20180107000000,-1,-1,-1,-1,250,-1,9,-1,-1,-1,-1,,9999,0,0,1,FEW 20,-1,5,-1,11,1011,RJEB 070000Z 25009KT 9999 FEW020 M05/M11 Q1011 RMK 1CU020     A2987=,
20180107_010000.003,0,RJEB,,,,0,20180107010000,-1,-1,-1,-1,270,-1,9,-1,-1,-1,-1,,9999,0,1,2,FEW 20   BKN 50,-1,4,-1,10,1012,RJEB 070100Z 27009KT 9999 -SHSN FEW020 BKN050 M04/M10 Q1012     RMK 1CU020 5CU050 A2989=,- SN SH
20180107_020000.002,0,RJEB,,,,0,20180107020000,-1,-1,-1,-1,310,-1,7,-1,-1,-1,-1,,9999,0,1,3,FEW 8   SCT 35   BKN 40,-1,4,-1,9,1012,RJEB 070200Z 31007KT 9999 -SHSN FEW008 SCT035 BKN040 M04/M09     Q1012 RMK 1ST008 3CU035 6CU040 A2989=,- SN SH
20180107_030000.002,0,RJEB,,,,0,20180107030000,-1,-1,-1,-1,330,-1,5,-1,-1,-1,-1,,9999,0,1,2,FEW 15   SCT 30,-1,4,-1,8,1012,RJEB 070300Z 33005KT 9999 -SHSN FEW015 SCT030 M04/M08 Q1012     RMK 1ST015 4CU030 A2988=,- SN SH
20180107_040000.002,0,RJEB,,,,0,20180107040000,-1,-1,-1,-1,330,-1,9,-1,-1,-1,-1,,9999,0,1,3,FEW 15   SCT 30   BKN 40,-1,4,-1,8,1012,RJEB 070400Z 33009KT 9999 -SHSN FEW015 SCT030 BKN040 M04/M08     Q1012 RMK 1ST015 3CU030 6CU040 A2989=,- SN SH
20180107_050000.002,0,RJEB,,,,0,20180107050000,-1,-1,-1,-1,330,-1,7,-1,-1,-1,-1,,9999,0,1,3,FEW 30   SCT 40   BKN 50,-1,4,-1,8,1012,RJEB 070500Z 33007KT 9999 -SHSN FEW030 SCT040 BKN050 M04/M08     Q1012 RMK 1CU030 3CU040 5CU050 A2990=,- SN SH
20180107_060000.002,0,RJEB,,,,0,20180107060000,-1,-1,-1,-1,330,-1,7,-1,-1,-1,-1,,9999,0,0,2,FEW 30   SCT 40,-1,3,-1,7,1012,RJEB 070600Z 33007KT 9999 FEW030 SCT040 M03/M07 Q1012 RMK     1CU030 3CU040 A2990=,
20180107_070000.002,0,RJEB,,,,0,20180107070000,-1,-1,-1,-1,999,-1,1,-1,-1,-1,-1,,9999,0,0,2,FEW 30   BKN 40,-1,3,-1,8,1012,RJEB 070700Z VRB01KT 9999 FEW030 BKN040 M03/M08 Q1012 RMK     1CU030 5CU040 A2991=,
20180108_000000.002,0,RJEB,,,,0,20180108000000,-1,-1,-1,-1,300,-1,5,-1,-1,250,350,,9999,0,0,2,FEW 40   BKN 50,1,1,-1,5,1013,RJEB 080000Z 30005KT 250V350 9999 FEW040 BKN050 01/M05 Q1013     RMK 1CU040 6CU050 A2993=,
20180108_010000.002,0,RJEB,,,,0,20180108010000,-1,-1,-1,-1,230,-1,7,-1,-1,180,260,,9999,0,0,2,FEW 40   BKN -9999,1,2,-1,5,1012,RJEB 080100Z 23007KT 180V260 9999 FEW040 BKN/// 02/M05 Q1012     RMK 1CU040 A2988=,
20180108_020000.002,0,RJEB,,,,0,20180108020000,-1,-1,-1,-1,130,-1,8,-1,-1,-1,-1,,9999,0,0,3,FEW 40   SCT 50   BKN -9999,1,2,-1,6,1012,RJEB 080200Z 13008KT 9999 FEW040 SCT050 BKN/// 02/M06 Q1012     RMK 1CU040 4CU050 A2988=,
20180108_030000.002,0,RJEB,,,,0,20180108030000,-1,-1,-1,-1,100,-1,7,-1,-1,-1,-1,,9999,0,0,3,FEW 30   SCT 50   BKN 140,1,1,-1,6,1010,RJEB 080300Z 10007KT 9999 FEW030 SCT050 BKN140 01/M06 Q1010     RMK 1CU030 4CU050 7AC140 A2985=,
20180108_040000.002,0,RJEB,,,,0,20180108040000,-1,-1,-1,-1,110,-1,3,-1,-1,-1,-1,,9999,0,0,3,FEW 30   SCT 50   BKN 130,1,1,-1,4,1010,RJEB 080400Z 11003KT 9999 FEW030 SCT050 BKN130 01/M04 Q1010     RMK 1CU030 3CU050 7AC130 A2984=,
20180108_050000.002,0,RJEB,,,,0,20180108050000,-1,-1,-1,-1,130,-1,5,-1,-1,-1,-1,,9999,0,0,3,FEW 40   SCT 150   BKN -9999,1,0,-1,3,1009,RJEB 080500Z 13005KT 9999 FEW040 SCT150 BKN/// 00/M03 Q1009     RMK 1CU040 4AC150 A2982=,
20180108_060000.003,0,RJEB,,,,0,20180108060000,-1,-1,-1,-1,140,-1,5,-1,-1,-1,-1,,9999,0,0,3,FEW 45   BKN 50   BKN -9999,1,1,-1,3,1009,RJEB 080600Z 14005KT 9999 FEW045 BKN050 BKN/// 01/M03 Q1009     RMK 1CU045 6CU050 A2981=,
20180108_070000.002,0,RJEB,,,,0,20180108070000,-1,-1,-1,-1,140,-1,4,-1,-1,-1,-1,,9999,0,0,3,FEW 35   BKN 40   BKN -9999,1,1,-1,4,1009,RJEB 080700Z 14004KT 9999 FEW035 BKN040 BKN/// 01/M04 Q1009     RMK 1CU035 6CU040 A2979=,
20180109_000000.002,0,RJEB,,,,0,20180109000000,-1,-1,-1,-1,999,-1,1,-1,-1,-1,-1,,1300,1,1,1,VV 3,1,0,1,0,988,RJEB 090000Z VRB01KT 1300 R32/1000V1700D -SHSN VV003 00/00     Q0988 RMK A2917=,- SN SH
20180109_010000.002,0,RJEB,,,,0,20180109010000,-1,-1,-1,-1,100,-1,3,-1,-1,-1,-1,,600,1,1,1,VV 2,1,0,-1,0,985,RJEB 090100Z 10003KT 0600 R32/0400V0550N SHSN VV002 00/M00     Q0985 RMK A2911 P/FR=,SN SH
20180109_020000.002,0,RJEB,,,,0,20180109020000,-1,-1,-1,-1,110,-1,4,-1,-1,-1,-1,,800,1,1,1,VV 2,1,0,-1,0,982,RJEB 090200Z 11004KT 0800 R32/0800N SHSN VV002 00/M00 Q0982     RMK A2901 P/FR=,SN SH
20180109_030000.002,0,RJEB,,,,0,20180109030000,-1,-1,-1,-1,999,-1,2,-1,-1,-1,-1,,1500,1,2,1,VV 2,1,1,1,0,979,RJEB 090300Z VRB02KT 1500 R32/P2000N -SHSN BR VV002 01/00     Q0979 RMK A2893 P/FR=,- SN SH; BR
20180109_040000.002,0,RJEB,,,,0,20180109040000,-1,-1,-1,-1,999,-1,1,-1,-1,-1,-1,,300,1,2,1,VV 1,1,1,1,0,977,RJEB 090400Z VRB01KT 0300 R32/0600V0900N FG -SHSN VV001 01/00     Q0977 RMK A2888=,FG; - SN SH
20180109_050000.002,0,RJEB,,,,0,20180109050000,-1,-1,-1,-1,290,-1,6,-1,-1,-1,-1,,1600,1,1,1,VV 4,1,1,1,0,977,RJEB 090500Z 29006KT 1600 R32/0900VP2000N -SHSN VV004 01/00     Q0977 RMK A2887=,- SN SH
20180109_060000.002,0,RJEB,,,,0,20180109060000,-1,-1,-1,-1,260,-1,6,-1,-1,-1,-1,,9999,0,1,1,FEW 6,1,2,1,0,977,RJEB 090600Z 26006KT 9999 -SHRASN FEW006 02/00 Q0977 RMK     1ST006 A2887=,- RA SN SH
20180109_070000.002,0,RJEB,,,,0,20180109070000,-1,-1,-1,-1,240,-1,10,-1,-1,-1,-1,,9999,0,0,1,FEW 30,1,3,1,0,977,RJEB 090700Z 24010KT 9999 FEW030 03/00 Q0977 RMK 1CU030 A2885=,
20180110_000000.002,0,RJEB,,,,0,20180110000000,-1,-1,-1,-1,320,-1,17,-1,-1,-1,-1,,3000,1,1,3,FEW 3   SCT 4   BKN 15,-1,2,-1,3,991,RJEB 100000Z 32017KT 3000 R32/0650VP2000D -SHSN FEW003 SCT004     BKN015 M02/M03 Q0991 RMK 1ST003 4ST004 7ST015 A2928=,- SN SH
20180110_010000.002,0,RJEB,,,,0,20180110010000,-1,-1,-1,-1,310,-1,15,-1,-1,-1,-1,,2400,0,1,3,FEW 3   SCT 5   BKN 30,-1,2,-1,4,992,RJEB 100100Z 31015KT 2400 -SHSN FEW003 SCT005 BKN030 M02/M04     Q0992 RMK 1ST003 3ST005 6CU030 A2931 5000NE-E=,- SN SH
20180110_020000.002,0,RJEB,,,,0,20180110020000,-1,-1,-1,-1,310,-1,13,-1,-1,-1,-1,,2400,1,1,3,FEW 3   SCT 4   BKN 15,-1,3,-1,5,993,RJEB 100200Z 31013KT 2400 R32/1500VP2000U -SHSN FEW003 SCT004     BKN015 M03/M05 Q0993 RMK 1ST003 3ST004 6ST015 A2934           5000NE=,- SN SH
20180110_030000.002,0,RJEB,,,,0,20180110030000,-1,-1,-1,-1,320,-1,15,-1,-1,-1,-1,,2500,1,1,3,FEW 3   SCT 4   BKN 15,-1,3,-1,5,993,RJEB 100300Z 32015KT 2500 R32/2000N -SHSN FEW003 SCT004 BKN015     M03/M05 Q0993 RMK 1ST003 4ST004 6ST015 A2935=,- SN SH
20180110_040000.003,0,RJEB,,,,0,20180110040000,-1,-1,-1,-1,330,-1,15,-1,-1,-1,-1,,3200,0,1,3,FEW 3   SCT 5   BKN 15,-1,3,-1,6,994,RJEB 100400Z 33015KT 3200 -SHSN FEW003 SCT005 BKN015 M03/M06     Q0994 RMK 1ST003 3ST005 6ST015 A2937=,- SN SH
20180110_050000.002,0,RJEB,,,,0,20180110050000,-1,-1,-1,-1,330,-1,11,-1,-1,-1,-1,,2500,0,1,3,FEW 3   SCT 4   BKN 12,-1,2,-1,5,995,RJEB 100500Z 33011KT 2500 -SHSN FEW003 SCT004 BKN012 M02/M05     Q0995 RMK 1ST003 3ST004 6ST012 A2940=,- SN SH
20180110_060000.002,0,RJEB,,,,0,20180110060000,-1,-1,-1,-1,330,-1,10,-1,-1,-1,-1,,1600,1,1,1,VV 4,-1,3,-1,5,996,RJEB 100600Z 33010KT 1600 R32/1400VP2000U -SHSN VV004 M03/M05     Q0996 RMK A2944=,- SN SH
20180110_070000.002,0,RJEB,,,,0,20180110070000,-1,-1,-1,-1,300,-1,6,-1,-1,-1,-1,,1000,1,1,1,VV 3,-1,3,-1,5,998,RJEB 100700Z 30006KT 1000 R32/1900D -SHSN VV003 M03/M05 Q0998     RMK A2947=,- SN SH
20180111_000000.002,0,RJEB,,,,0,20180111000000,-1,-1,-1,-1,0,-1,0,-1,-1,-1,-1,,9999,0,0,1,FEW 30,-1,8,-1,11,1007,RJEB 110000Z 00000KT 9999 FEW030 M08/M11 Q1007 RMK 1CU030     A2974=,
20180111_010000.002,0,RJEB,,,,0,20180111010000,-1,-1,-1,-1,999,-1,1,-1,-1,-1,-1,,9999,0,0,1,FEW 20,-1,5,-1,9,1007,RJEB 110100Z VRB01KT 9999 FEW020 M05/M09 Q1007 RMK 1CU020     A2975=,
20180111_020000.002,0,RJEB,,,,0,20180111020000,-1,-1,-1,-1,320,-1,3,-1,-1,-1,-1,,9999,0,0,2,FEW 20   SCT 60,-1,4,-1,8,1007,RJEB 110200Z 32003KT 9999 FEW020 SCT060 M04/M08 Q1007 RMK     1CU020 3CU060 A2974=,
20180111_030000.001,0,RJEB,,,,0,20180111030000,-1,-1,-1,-1,0,-1,0,-1,-1,-1,-1,,9999,0,0,2,FEW 30   SCT 70,-1,3,-1,8,1006,RJEB 110300Z 00000KT 9999 FEW030 SCT070 M03/M08 Q1006 RMK     1CU030 3AC070 A2973=,
20180111_040000.002,0,RJEB,,,,0,20180111040000,-1,-1,-1,-1,999,-1,1,-1,-1,-1,-1,,9999,0,0,1,FEW 30,-1,2,-1,12,1006,RJEB 110400Z VRB01KT 9999 FEW030 M02/M12 Q1006 RMK 1CU030     A2972=,
20180111_050000.002,0,RJEB,,,,0,20180111050000,-1,-1,-1,-1,80,-1,2,-1,-1,-1,-1,,9999,0,0,1,FEW 30,-1,3,-1,9,1006,RJEB 110500Z 08002KT 9999 FEW030 M03/M09 Q1006 RMK 1CU030     A2973=,
20180111_060000.002,0,RJEB,,,,0,20180111060000,-1,-1,-1,-1,999,-1,2,-1,-1,-1,-1,,9999,0,0,1,FEW 40,-1,5,-1,10,1007,RJEB 110600Z VRB02KT 9999 FEW040 M05/M10 Q1007 RMK 1CU040     A2974=,
20180111_070000.002,0,RJEB,,,,0,20180111070000,-1,-1,-1,-1,999,-1,2,-1,-1,-1,-1,,9999,0,0,2,FEW 18   SCT 120,-1,5,-1,11,1007,RJEB 110700Z VRB02KT 9999 FEW018 SCT120 M05/M11 Q1007 RMK     1ST018 4AC120 A2976=,
20180112_000000.002,0,RJEB,,,,0,20180112000000,-1,-1,-1,-1,300,-1,3,-1,-1,240,10,,4000,0,1,3,FEW 4   BKN 15   BKN 20,-1,6,-1,8,1014,RJEB 120000Z 30003KT 240V010 4000 -SHSN FEW004 BKN015 BKN020     M06/M08 Q1014 RMK 2ST004 5ST015 7CU020 A2996 9999N-NE=,- SN SH
20180112_010000.003,0,RJEB,,,,0,20180112010000,-1,-1,-1,-1,20,-1,6,-1,-1,350,60,,5000,0,1,2,FEW 3   BKN 15,-1,5,-1,9,1015,RJEB 120100Z 02006KT 350V060 5000 -SHSN FEW003 BKN015 M05/M09     Q1015 RMK 1ST003 7ST015 A2997 9999N-E=,- SN SH
20180112_020000.002,0,RJEB,,,,0,20180112020000,-1,-1,-1,-1,350,-1,4,-1,-1,320,30,,8000,0,1,3,FEW 10   SCT 15   BKN 20,-1,5,-1,10,1014,RJEB 120200Z 35004KT 320V030 8000 -SHSN FEW010 SCT015 BKN020     M05/M10 Q1014 RMK 1ST010 3ST015 6CU020 A2997=,- SN SH
20180112_030000.002,0,RJEB,,,,0,20180112030000,-1,-1,-1,-1,340,-1,3,-1,-1,300,30,,8000,0,1,2,FEW 10   BKN 20,-1,5,-1,10,1014,RJEB 120300Z 34003KT 300V030 8000 -SHSN FEW010 BKN020 M05/M10     Q1014 RMK 1ST010 6CU020 A2995=,- SN SH
20180112_040000.002,0,RJEB,,,,0,20180112040000,-1,-1,-1,-1,999,-1,2,-1,-1,-1,-1,,9999,0,1,2,FEW 20   SCT 30,-1,5,-1,11,1014,RJEB 120400Z VRB02KT 9999 -SHSN FEW020 SCT030 M05/M11 Q1014     RMK 1CU020 4CU030 A2995=,- SN SH
20180112_050000.003,0,RJEB,,,,0,20180112050000,-1,-1,-1,-1,999,-1,2,-1,-1,-1,-1,,9999,0,1,2,FEW 20   SCT 25,-1,5,-1,11,1014,RJEB 120500Z VRB02KT 9999 -SHSN FEW020 SCT025 M05/M11 Q1014     RMK 1CU020 4CU025 A2996=,- SN SH
20180112_060000.002,0,RJEB,,,,0,20180112060000,-1,-1,-1,-1,230,-1,1,-1,-1,-1,-1,,9999,0,0,1,FEW 30,-1,6,-1,11,1015,RJEB 120600Z 23001KT 9999 FEW030 M06/M11 Q1015 RMK 1CU030     A2998=,
20180112_070000.003,0,RJEB,,,,0,20180112070000,-1,-1,-1,-1,190,-1,3,-1,-1,-1,-1,,9999,0,0,1,FEW 20,-1,8,-1,11,1015,RJEB 120700Z 19003KT 9999 FEW020 M08/M11 Q1015 RMK 1CU020     A3000=,
20180113_000000.002,0,RJEB,,,,0,20180113000000,-1,-1,-1,-1,220,-1,5,-1,-1,-1,-1,,6000,0,1,2,FEW 4   BKN 40,-1,7,-1,10,1020,RJEB 130000Z 22005KT 6000 -SHSN FEW004 BKN040 M07/M10 Q1020     RMK 1ST004 7CU040 A3013=,- SN SH
20180113_010000.003,0,RJEB,,,,0,20180113010000,-1,-1,-1,-1,240,-1,2,-1,-1,-1,-1,,9999,0,0,1,FEW 30,-1,5,-1,9,1020,RJEB 130100Z 24002KT 9999 FEW030 M05/M09 Q1020 RMK 1CU030     A3012=,
20180113_020000.002,0,RJEB,,,,0,20180113020000,-1,-1,-1,-1,270,-1,1,-1,-1,-1,-1,,9999,0,0,2,FEW 30   SCT 70,-1,4,-1,10,1019,RJEB 130200Z 27001KT 9999 FEW030 SCT070 M04/M10 Q1019 RMK     1CU030 3AC070 A3011=,
20180113_030000.002,0,RJEB,,,,0,20180113030000,-1,-1,-1,-1,320,-1,3,-1,-1,-1,-1,,9999,0,0,1,FEW 30,-1,5,-1,11,1019,RJEB 130300Z 32003KT 9999 FEW030 M05/M11 Q1019 RMK 1CU030     A3010=,
20180113_040000.002,0,RJEB,,,,0,20180113040000,-1,-1,-1,-1,999,-1,2,-1,-1,-1,-1,,9999,0,1,1,FEW 30,-1,4,-1,10,1018,RJEB 130400Z VRB02KT 9999 VCSH FEW030 M04/M10 Q1018 RMK 1CU030     A3008 SH W=,VC SH
20180113_050000.002,0,RJEB,,,,0,20180113050000,-1,-1,-1,-1,320,-1,4,-1,-1,-1,-1,,9999,0,1,2,FEW 30   SCT 40,-1,4,-1,10,1019,RJEB 130500Z 32004KT 9999 -SHSN FEW030 SCT040 M04/M10 Q1019     RMK 1CU030 4CU040 A3009=,- SN SH
20180113_060000.002,0,RJEB,,,,0,20180113060000,-1,-1,-1,-1,320,-1,9,-1,-1,-1,-1,,9999,0,1,1,FEW 20,-1,6,-1,9,1019,RJEB 130600Z 32009KT 9999 VCSH FEW020 M06/M09 Q1019 RMK 1CU020     A3011 SH N=,VC SH
20180113_070000.002,0,RJEB,,,,0,20180113070000,-1,-1,-1,-1,280,-1,6,-1,-1,-1,-1,,9999,0,0,3,FEW 20   SCT 30   BKN 50,-1,5,-1,10,1020,RJEB 130700Z 28006KT 9999 FEW020 SCT030 BKN050 M05/M10 Q1020     RMK 1CU020 3CU030 7CU050 A3013=,
20180114_000000.003,0,RJEB,,,,0,20180114000000,-1,-1,-1,-1,230,-1,6,-1,-1,-1,-1,,9999,0,0,1,FEW 30,-1,8,-1,12,1027,RJEB 140000Z 23006KT 9999 FEW030 M08/M12 Q1027 RMK 1CU030     A3033=,
20180114_010000.002,0,RJEB,,,,0,20180114010000,-1,-1,-1,-1,999,-1,1,-1,-1,-1,-1,,9999,0,0,1,FEW 40,-1,6,-1,12,1026,RJEB 140100Z VRB01KT 9999 FEW040 M06/M12 Q1026 RMK 1CU040     A3032=,
20180114_020000.002,0,RJEB,,,,0,20180114020000,-1,-1,-1,-1,999,-1,2,-1,-1,-1,-1,,9999,0,0,1,FEW 40,-1,5,-1,11,1025,RJEB 140200Z VRB02KT 9999 FEW040 M05/M11 Q1025 RMK 1CU040     A3029=,
20180114_030000.002,0,RJEB,,,,0,20180114030000,-1,-1,-1,-1,999,-1,2,-1,-1,-1,-1,,9999,0,0,1,FEW 30,-1,4,-1,12,1025,RJEB 140300Z VRB02KT 9999 FEW030 M04/M12 Q1025 RMK 1CU030     A3027=,
20180114_040000.002,0,RJEB,,,,0,20180114040000,-1,-1,-1,-1,80,-1,3,-1,-1,-1,-1,,9999,0,0,1,FEW 30,-1,3,-1,11,1024,RJEB 140400Z 08003KT 9999 FEW030 M03/M11 Q1024 RMK 1CU030     A3025=,
20180114_050000.002,0,RJEB,,,,0,20180114050000,-1,-1,-1,-1,130,-1,5,-1,-1,-1,-1,,9999,0,0,1,FEW 30,-1,4,-1,11,1024,RJEB 140500Z 13005KT 9999 FEW030 M04/M11 Q1024 RMK 1CU030     A3025=,
20180114_060000.003,0,RJEB,,,,0,20180114060000,-1,-1,-1,-1,130,-1,6,-1,-1,-1,-1,,9999,0,0,1,FEW 30,-1,5,-1,12,1024,RJEB 140600Z 13006KT 9999 FEW030 M05/M12 Q1024 RMK 1CU030     A3025=,
20180114_070000.002,0,RJEB,,,,0,20180114070000,-1,-1,-1,-1,0,-1,0,-1,-1,-1,-1,,9999,0,0,1,FEW 30,-1,5,-1,11,1024,RJEB 140700Z 00000KT 9999 FEW030 M05/M11 Q1024 RMK 1CU030     A3025=,
20180115_000000.002,0,RJEB,,,,0,20180115000000,-1,-1,-1,-1,220,-1,17,-1,-1,-1,-1,,9999,0,0,2,FEW 40   BKN 120,1,2,-1,9,1014,RJEB 150000Z 22017KT 9999 FEW040 BKN120 02/M09 Q1014 RMK     1CU040 5AC120 A2995=,
20180115_010000.002,0,RJEB,,,,0,20180115010000,-1,-1,-1,-1,220,-1,15,-1,-1,-1,-1,,9999,0,0,2,FEW 40   SCT -9999,1,3,-1,8,1013,RJEB 150100Z 22015KT 9999 FEW040 SCT/// 03/M08 Q1013 RMK     1CU040 A2991=,
20180115_020000.002,0,RJEB,,,,0,20180115020000,-1,-1,-1,-1,190,-1,9,-1,-1,160,220,,9999,0,0,3,FEW 50   SCT 70   BKN -9999,1,4,-1,7,1011,RJEB 150200Z 19009KT 160V220 9999 FEW050 SCT070 BKN/// 04/M07     Q1011 RMK 1CU050 3AC070 A2987 P/FR=,
20180115_030000.002,0,RJEB,,,,0,20180115030000,-1,-1,-1,-1,160,-1,12,-1,-1,-1,-1,,9999,0,0,2,FEW 30   BKN 40,1,4,-1,7,1009,RJEB 150300Z 16012KT 9999 FEW030 BKN040 04/M07 Q1009 RMK     1CU030 6CU040 A2981 P/FR=,
20180115_040000.002,0,RJEB,,,,0,20180115040000,-1,-1,-1,-1,160,-1,9,-1,-1,-1,-1,,9999,0,1,2,FEW 8   BKN 30,1,4,-1,5,1008,RJEB 150400Z 16009KT 9999 -SHSN FEW008 BKN030 04/M05 Q1008 RMK     1ST008 6CU030 A2977=,- SN SH
20180115_050000.002,0,RJEB,,,,0,20180115050000,-1,-1,-1,-1,160,-1,9,-1,-1,-1,-1,,9999,0,0,3,FEW 20   SCT 30   BKN 50,1,3,-1,4,1007,RJEB 150500Z 16009KT 9999 FEW020 SCT030 BKN050 03/M04 Q1007     RMK 1CU020 3CU030 7CU050 A2975=,
20180115_060000.002,0,RJEB,,,,0,20180115060000,-1,-1,-1,-1,150,-1,7,-1,-1,-1,-1,,9999,0,1,2,FEW 6   BKN 25,1,3,-1,4,1007,RJEB 150600Z 15007KT 9999 -SHSN FEW006 BKN025 03/M04 Q1007 RMK     1ST006 7CU025 A2975=,- SN SH
20180115_070000.003,0,RJEB,,,,0,20180115070000,-1,-1,-1,-1,240,-1,4,-1,-1,-1,-1,,9999,0,1,2,FEW 4   BKN 30,1,2,-1,1,1008,RJEB 150700Z 24004KT 9999 -SHSNRA FEW004 BKN030 02/M01 Q1008     RMK 1ST004 6CU030 A2977 3000W-NW=,- SN RA SH
20180116_000000.002,0,RJEB,,,,0,20180116000000,-1,-1,-1,-1,360,-1,9,-1,-1,-1,-1,,4000,0,1,3,FEW 4   SCT 8   BKN 12,-1,3,-1,5,1016,RJEB 160000Z 36009KT 4000 -SHSN FEW004 SCT008 BKN012 M03/M05     Q1016 RMK 1ST004 3ST008 7ST012 A3003 9999N-NE=,- SN SH
20180116_010000.002,0,RJEB,,,,0,20180116010000,-1,-1,-1,-1,360,-1,7,-1,-1,-1,-1,,3100,0,1,3,FEW 4   SCT 8   BKN 11,-1,4,-1,6,1017,RJEB 160100Z 36007KT 3100 -SHSN FEW004 SCT008 BKN011 M04/M06     Q1017 RMK 1ST004 3ST008 7ST011 A3003 9999N-NE=,- SN SH
20180116_020000.002,0,RJEB,,,,0,20180116020000,-1,-1,-1,-1,10,-1,3,-1,-1,-1,-1,,4500,1,1,3,FEW 5   SCT 9   BKN 13,-1,3,-1,6,1017,RJEB 160200Z 01003KT 4500 R32/1200VP2000D -SHSN FEW005 SCT009     BKN013 M03/M06 Q1017 RMK 1ST005 3ST009 7ST013 A3004           9999N-E=,- SN SH
20180116_030000.002,0,RJEB,,,,0,20180116030000,-1,-1,-1,-1,10,-1,4,-1,-1,-1,-1,,7000,0,1,2,FEW 6   BKN 19,-1,3,-1,6,1016,RJEB 160300Z 01004KT 7000 -SHSN FEW006 BKN019 M03/M06 Q1016     RMK 1ST006 7ST019 A3002=,- SN SH
20180116_040000.002,0,RJEB,,,,0,20180116040000,-1,-1,-1,-1,40,-1,3,-1,-1,10,80,,9999,0,1,2,FEW 9   BKN 13,-1,3,-1,6,1016,RJEB 160400Z 04003KT 010V080 9999 -SHSN FEW009 BKN013 M03/M06     Q1016 RMK 1ST009 7ST013 A3001=,- SN SH
20180116_050000.002,0,RJEB,,,,0,20180116050000,-1,-1,-1,-1,100,-1,3,-1,-1,-1,-1,,9999,0,1,2,FEW 9   BKN 30,-1,3,-1,6,1016,RJEB 160500Z 10003KT 9999 -SHSN FEW009 BKN030 M03/M06 Q1016     RMK 1ST009 7CU030 A3001=,- SN SH
20180116_060000.002,0,RJEB,,,,0,20180116060000,-1,-1,-1,-1,120,-1,6,-1,-1,-1,-1,,3000,0,1,3,FEW 4   BKN 30   BKN 50,-1,4,-1,5,1016,RJEB 160600Z 12006KT 3000 -SHSN FEW004 BKN030 BKN050 M04/M05     Q1016 RMK 2ST004 5CU030 7CU050 A3001=,- SN SH
20180116_070000.002,0,RJEB,,,,0,20180116070000,-1,-1,-1,-1,140,-1,6,-1,-1,-1,-1,,4000,0,1,2,FEW 5   BKN 30,-1,4,-1,5,1016,RJEB 160700Z 14006KT 4000 -SHSN FEW005 BKN030 M04/M05 Q1016     RMK 2ST005 7CU030 A3002 9999NE=,- SN SH
20180117_000000.002,0,RJEB,,,,0,20180117000000,-1,-1,-1,-1,260,-1,5,-1,-1,-1,-1,,9999,0,0,1,FEW 30,-1,5,-1,7,1020,RJEB 170000Z 26005KT 9999 FEW030 M05/M07 Q1020 RMK 1CU030     A3012=,
20180117_010000.002,0,RJEB,,,,0,20180117010000,-1,-1,-1,-1,270,-1,4,-1,-1,-1,-1,,9999,0,0,1,FEW 40,-1,3,-1,7,1020,RJEB 170100Z 27004KT 9999 FEW040 M03/M07 Q1020 RMK 1CU040     A3013=,
20180117_020000.004,0,RJEB,,,,0,20180117020000,-1,-1,-1,-1,310,-1,7,-1,-1,-1,-1,,9999,0,0,1,FEW 30,-1,3,-1,8,1020,RJEB 170200Z 31007KT 9999 FEW030 M03/M08 Q1020 RMK 1CU030     A3012=,
20180117_030000.002,0,RJEB,,,,0,20180117030000,-1,-1,-1,-1,330,-1,8,-1,-1,-1,-1,,9999,0,0,1,FEW 30,-1,2,-1,8,1019,RJEB 170300Z 33008KT 9999 FEW030 M02/M08 Q1019 RMK 1CU030     A3011=,
20180117_040000.003,0,RJEB,,,,0,20180117040000,-1,-1,-1,-1,350,-1,7,-1,-1,-1,-1,,9999,0,0,1,FEW 30,-1,1,-1,7,1019,RJEB 170400Z 35007KT 9999 FEW030 M01/M07 Q1019 RMK 1CU030     A3010=,
20180117_050000.003,0,RJEB,,,,0,20180117050000,-1,-1,-1,-1,340,-1,7,-1,-1,-1,-1,,9999,0,0,2,FEW 30   BKN 40,-1,1,-1,8,1019,RJEB 170500Z 34007KT 9999 FEW030 BKN040 M01/M08 Q1019 RMK     1CU030 6CU040 A3011=,
20180117_060000.002,0,RJEB,,,,0,20180117060000,-1,-1,-1,-1,360,-1,4,-1,-1,-1,-1,,9999,0,0,1,FEW 30,-1,2,-1,8,1019,RJEB 170600Z 36004KT 9999 FEW030 M02/M08 Q1019 RMK 1CU030     A3012=,
20180117_070000.002,0,RJEB,,,,0,20180117070000,-1,-1,-1,-1,999,-1,2,-1,-1,-1,-1,,9999,0,0,2,FEW 25   BKN 35,-1,3,-1,7,1020,RJEB 170700Z VRB02KT 9999 FEW025 BKN035 M03/M07 Q1020 RMK     1CU025 5CU035 A3013=,
20180118_000000.002,0,RJEB,,,,0,20180118000000,-1,-1,-1,-1,999,-1,2,-1,-1,-1,-1,,9999,0,0,2,FEW 30   BKN -9999,-1,5,-1,9,1014,RJEB 180000Z VRB02KT 9999 FEW030 BKN/// M05/M09 Q1014 RMK     1CU030 A2996=,
20180118_010000.002,0,RJEB,,,,0,20180118010000,-1,-1,-1,-1,250,-1,1,-1,-1,-1,-1,,9999,0,0,2,FEW 50   BKN -9999,-1,4,-1,8,1013,RJEB 180100Z 25001KT 9999 FEW050 BKN/// M04/M08 Q1013 RMK     1CU050 A2994=,
20180118_020000.002,0,RJEB,,,,0,20180118020000,-1,-1,-1,-1,150,-1,2,-1,-1,-1,-1,,9999,0,0,3,FEW 40   SCT 50   BKN -9999,-1,2,-1,7,1012,RJEB 180200Z 15002KT 9999 FEW040 SCT050 BKN/// M02/M07 Q1012     RMK 1CU040 4CU050 A2990=,
20180118_030000.003,0,RJEB,,,,0,20180118030000,-1,-1,-1,-1,10,-1,3,-1,-1,-1,-1,,9999,0,0,3,FEW 40   SCT 60   BKN -9999,-1,1,-1,6,1011,RJEB 180300Z 01003KT 9999 FEW040 SCT060 BKN/// M01/M06 Q1011     RMK 1CU040 3CU060 A2987=,
20180118_040000.002,0,RJEB,,,,0,20180118040000,-1,-1,-1,-1,150,-1,5,-1,-1,130,210,,9999,0,0,2,FEW 40   BKN 150,1,1,-1,6,1010,RJEB 180400Z 15005KT 130V210 9999 FEW040 BKN150 01/M06 Q1010     RMK 1CU040 6AC150 A2984=,
20180118_050000.002,0,RJEB,,,,0,20180118050000,-1,-1,-1,-1,999,-1,1,-1,-1,-1,-1,,9999,0,0,3,FEW 40   SCT 70   BKN 140,1,1,-1,7,1010,RJEB 180500Z VRB01KT 9999 FEW040 SCT070 BKN140 01/M07 Q1010     RMK 1CU040 3AC070 6AC140 A2984=,
20180118_060000.002,0,RJEB,,,,0,20180118060000,-1,-1,-1,-1,120,-1,4,-1,-1,-1,-1,,9999,0,0,3,FEW 40   BKN 130   BKN -9999,1,0,-1,6,1009,RJEB 180600Z 12004KT 9999 FEW040 BKN130 BKN/// 00/M06 Q1009     RMK 1CU040 5AC130 A2982=,
20180118_070000.002,0,RJEB,,,,0,20180118070000,-1,-1,-1,-1,999,-1,2,-1,-1,-1,-1,,9999,0,0,3,FEW 50   SCT 80   BKN -9999,-1,1,-1,5,1009,RJEB 180700Z VRB02KT 9999 FEW050 SCT080 BKN/// M01/M05 Q1009     RMK 1CU050 3AC080 A2982=,
20180119_000000.002,0,RJEB,,,,0,20180119000000,-1,-1,-1,-1,260,-1,6,-1,-1,-1,-1,,9999,0,0,1,FEW 40,-1,2,-1,8,1015,RJEB 190000Z 26006KT 9999 FEW040 M02/M08 Q1015 RMK 1CU040     A2997=,
20180119_010000.003,0,RJEB,,,,0,20180119010000,-1,-1,-1,-1,300,-1,20,-1,-1,-1,-1,,9999,0,1,2,FEW 20   BKN 30,-1,1,-1,8,1015,RJEB 190100Z 30020KT 9999 -SHSN FEW020 BKN030 M01/M08 Q1015     RMK 1CU020 6CU030 A2999=,- SN SH
20180119_020000.002,0,RJEB,,,,0,20180119020000,-1,-1,-1,-1,350,-1,13,-1,-1,-1,-1,,9999,0,1,3,FEW 5   BKN 8   BKN 20,-1,3,-1,5,1016,RJEB 190200Z 35013KT 9999 -SHSN FEW005 BKN008 BKN020 M03/M05     Q1016 RMK 1ST005 5ST008 6CU020 A3001=,- SN SH
20180119_030000.002,0,RJEB,,,,0,20180119030000,-1,-1,-1,-1,340,-1,9,-1,-1,-1,-1,,9999,0,1,3,FEW 8   SCT 12   BKN 20,-1,3,-1,7,1016,RJEB 190300Z 34009KT 9999 -SHSN FEW008 SCT012 BKN020 M03/M07     Q1016 RMK 1ST008 4ST012 6CU020 A3001=,- SN SH
20180119_040000.002,0,RJEB,,,,0,20180119040000,-1,-1,-1,-1,360,-1,5,-1,-1,330,40,,9999,0,1,2,FEW 15   BKN 20,-1,3,-1,8,1016,RJEB 190400Z 36005KT 330V040 9999 VCSH FEW015 BKN020 M03/M08     Q1016 RMK 1ST015 5CU020 A3000 SH W=,VC SH
20180119_050000.003,0,RJEB,,,,0,20180119050000,-1,-1,-1,-1,350,-1,5,-1,-1,-1,-1,,9999,0,1,2,FEW 15   BKN 20,-1,3,-1,8,1016,RJEB 190500Z 35005KT 9999 VCSH FEW015 BKN020 M03/M08 Q1016 RMK     1ST015 5CU020 A3001 SH W=,VC SH
20180119_060000.002,0,RJEB,,,,0,20180119060000,-1,-1,-1,-1,310,-1,6,-1,-1,270,350,,2300,1,1,2,SCT 3   BKN 20,-1,4,-1,6,1017,RJEB 190600Z 31006KT 270V350 2300 R32/2000N -SHSN SCT003     BKN020 M04/M06 Q1017 RMK 4ST003 7CU020 A3003=,- SN SH
20180119_070000.002,0,RJEB,,,,0,20180119070000,-1,-1,-1,-1,280,-1,3,-1,-1,-1,-1,,3000,1,1,2,SCT 4   BKN 20,-1,4,-1,5,1017,RJEB 190700Z 28003KT 3000 R32/1400V2000D -SHSN SCT004 BKN020     M04/M05 Q1017 RMK 4ST004 7CU020 A3004=,- SN SH
20180120_000000.002,0,RJEB,,,,0,20180120000000,-1,-1,-1,-1,260,-1,3,-1,-1,-1,-1,,9999,0,0,1,FEW 40,-1,9,-1,12,1016,RJEB 200000Z 26003KT 9999 FEW040 M09/M12 Q1016 RMK 1CU040     A3001=,
20180120_010000.002,0,RJEB,,,,0,20180120010000,-1,-1,-1,-1,0,-1,0,-1,-1,-1,-1,,9999,0,0,1,FEW 40,-1,7,-1,11,1015,RJEB 200100Z 00000KT 9999 FEW040 M07/M11 Q1015 RMK 1CU040     A3000=,
20180120_020000.003,0,RJEB,,,,0,20180120020000,-1,-1,-1,-1,999,-1,1,-1,-1,-1,-1,,9999,0,0,1,FEW 40,-1,5,-1,10,1014,RJEB 200200Z VRB01KT 9999 FEW040 M05/M10 Q1014 RMK 1CU040     A2997=,
20180120_030000.002,0,RJEB,,,,0,20180120030000,-1,-1,-1,-1,110,-1,4,-1,-1,-1,-1,,9999,0,0,1,FEW 40,-1,2,-1,10,1013,RJEB 200300Z 11004KT 9999 FEW040 M02/M10 Q1013 RMK 1CU040     A2994=,
20180120_040000.002,0,RJEB,,,,0,20180120040000,-1,-1,-1,-1,100,-1,6,-1,-1,-1,-1,,9999,0,0,1,FEW 40,-1,3,-1,10,1012,RJEB 200400Z 10006KT 9999 FEW040 M03/M10 Q1012 RMK 1CU040     A2991=,
20180120_050000.002,0,RJEB,,,,0,20180120050000,-1,-1,-1,-1,120,-1,6,-1,-1,-1,-1,,9999,0,0,1,FEW 40,-1,2,-1,10,1012,RJEB 200500Z 12006KT 9999 FEW040 M02/M10 Q1012 RMK 1CU040     A2989=,
20180120_060000.002,0,RJEB,,,,0,20180120060000,-1,-1,-1,-1,-1,-1,-1,-1,-1,-1,-1,,-1,0,0,0,,0,-1,0,-1,-1,RJEB 200600Z NIL=,
20180120_060000.007,1,RJEB,,,,0,20180120060000,-1,-1,-1,-1,140,-1,7,-1,-1,-1,-1,,9999,0,0,1,FEW 50,-1,2,-1,10,1011,RJEB 200600Z 14007KT 9999 FEW050 M02/M10 Q1011 RMK 1CU050     A2986=,
20180120_063000.001,1,RJEB,,,,0,20180120060000,-1,-1,-1,-1,140,-1,7,-1,-1,-1,-1,,9999,0,0,1,FEW 50,-1,2,-1,10,1011,RJEB 200600Z 14007KT 9999 FEW050 M02/M10 Q1011 RMK 1CU050     A2986=,
20180120_070000.002,0,RJEB,,,,0,20180120070000,-1,-1,-1,-1,170,-1,4,-1,-1,-1,-1,,9999,0,0,1,FEW 50,-1,3,-1,11,1010,RJEB 200700Z 17004KT 9999 FEW050 M03/M11 Q1010 RMK 1CU050     A2984=,
20180121_000000.002,0,RJEB,,,,0,20180121000000,-1,-1,-1,-1,-1,-1,-1,-1,-1,-1,-1,,-1,0,0,0,,0,-1,0,-1,-1,RJEB 210000Z NIL=,
20180121_000000.005,1,RJEB,,,,0,20180121000000,-1,-1,-1,-1,250,-1,14,-1,-1,-1,-1,,9999,0,1,2,FEW 30   SCT 40,-1,6,-1,14,1009,RJEB 210000Z 25014KT 9999 -SHSN FEW030 SCT040 M06/M14 Q1009 RMK     1CU030 3CU040 A2981=,- SN SH
20180121_000000.006,1,RJEB,,,,0,20180121000000,-1,-1,-1,-1,250,-1,14,-1,-1,-1,-1,,9999,0,1,2,FEW 30   SCT 40,-1,6,-1,14,1009,RJEB 210000Z 25014KT 9999 -SHSN FEW030 SCT040 M06/M14 Q1009     RMK 1CU030 3CU040 A2981=,- SN SH
20180121_010000.002,0,RJEB,,,,0,20180121010000,-1,-1,-1,-1,250,-1,14,-1,-1,210,280,,9999,0,1,2,FEW 30   SCT 40,-1,5,-1,15,1009,RJEB 210100Z 25014KT 210V280 9999 -SHSN FEW030 SCT040 M05/M15     Q1009 RMK 1CU030 4CU040 A2980=,- SN SH
20180121_020000.002,0,RJEB,,,,0,20180121020000,-1,-1,-1,-1,260,-1,14,-1,-1,-1,-1,,9999,0,1,2,FEW 30   BKN 40,-1,5,-1,13,1008,RJEB 210200Z 26014KT 9999 -SHSN FEW030 BKN040 M05/M13 Q1008     RMK 2CU030 5CU040 A2978=,- SN SH
20180121_030000.002,0,RJEB,,,,0,20180121030000,-1,-1,-1,-1,270,-1,16,-1,-1,-1,-1,,6000,0,1,3,FEW 4   SCT 20   BKN 40,-1,5,-1,12,1008,RJEB 210300Z 27016KT 6000 -SHSN FEW004 SCT020 BKN040 M05/M12     Q1008 RMK 1ST004 3CU020 6CU040 A2977=,- SN SH
20180121_040000.003,0,RJEB,,,,0,20180121040000,-1,-1,-1,-1,270,-1,17,-1,-1,-1,-1,,1500,1,1,3,FEW 3   SCT 4   BKN 12,-1,6,-1,11,1007,RJEB 210400Z 27017KT 1500 R32/0900V1800D -SHSN FEW003 SCT004     BKN012 M06/M11 Q1007 RMK 1ST003 4ST004 6ST012 A2975=,- SN SH
20180121_050000.002,0,RJEB,,,,0,20180121050000,-1,-1,-1,-1,260,-1,13,-1,-1,-1,-1,,3200,0,1,3,FEW 4   SCT 20   BKN 30,-1,7,-1,11,1007,RJEB 210500Z 26013KT 3200 -SHSN FEW004 SCT020 BKN030 M07/M11     Q1007 RMK 2ST004 3CU020 6CU030 A2976 9999N-E=,- SN SH
20180121_060000.002,0,RJEB,,,,0,20180121060000,-1,-1,-1,-1,270,-1,13,-1,-1,-1,-1,,2400,0,1,3,FEW 4   SCT 5   BKN 20,-1,8,-1,11,1008,RJEB 210600Z 27013KT 2400 -SHSN FEW004 SCT005 BKN020 M08/M11     Q1008 RMK 1ST004 3ST005 7CU020 A2977 9999N-NE=,- SN SH
20180121_070000.002,0,RJEB,,,,0,20180121070000,-1,-1,-1,-1,280,-1,11,-1,-1,-1,-1,,9999,0,1,2,FEW 6   SCT 30,-1,8,-1,13,1008,RJEB 210700Z 28011KT 9999 -SHSN FEW006 SCT030 M08/M13 Q1008     RMK 1ST006 4CU030 A2979=,- SN SH
20180122_000000.002,0,RJEB,,,,0,20180122000000,-1,-1,-1,-1,150,-1,4,-1,-1,-1,-1,,9999,0,1,2,FEW 10   BKN 50,-1,10,-1,15,1017,RJEB 220000Z 15004KT 9999 -SHSN FEW010 BKN050 M10/M15 Q1017     RMK 1ST010 7CU050 A3004=,- SN SH
20180122_010000.002,0,RJEB,,,,0,20180122010000,-1,-1,-1,-1,999,-1,3,-1,-1,-1,-1,,9999,0,1,2,FEW 11   BKN 40,-1,8,-1,13,1016,RJEB 220100Z VRB03KT 9999 -SHSN FEW011 BKN040 M08/M13 Q1016     RMK 1ST011 7CU040 A3003=,- SN SH
20180122_020000.002,0,RJEB,,,,0,20180122020000,-1,-1,-1,-1,260,-1,8,-1,-1,220,300,,9999,0,1,2,FEW 40   BKN 50,-1,5,-1,14,1016,RJEB 220200Z 26008KT 220V300 9999 -SHSN FEW040 BKN050 M05/M14     Q1016 RMK 1CU040 7CU050 A3002=,- SN SH
20180122_030000.002,0,RJEB,,,,0,20180122030000,-1,-1,-1,-1,999,-1,3,-1,-1,-1,-1,,9999,0,0,2,FEW 40   BKN 60,-1,6,-1,13,1016,RJEB 220300Z VRB03KT 9999 FEW040 BKN060 M06/M13 Q1016 RMK     1CU040 6CU060 A3001=,
20180122_040000.002,0,RJEB,,,,0,20180122040000,-1,-1,-1,-1,250,-1,9,-1,-1,-1,-1,,9999,0,0,2,FEW 40   BKN 50,-1,5,-1,14,1016,RJEB 220400Z 25009KT 9999 FEW040 BKN050 M05/M14 Q1016 RMK     1CU040 7CU050 A3000=,
20180122_050000.002,0,RJEB,,,,0,20180122050000,-1,-1,-1,-1,240,-1,11,-1,-1,210,280,,9999,0,0,2,FEW 35   BKN 45,-1,5,-1,14,1016,RJEB 220500Z 24011KT 210V280 9999 FEW035 BKN045 M05/M14 Q1016     RMK 1CU035 5CU045 A3000=,
20180122_060000.003,0,RJEB,,,,0,20180122060000,-1,-1,-1,-1,250,-1,8,-1,-1,220,280,,9999,0,0,2,FEW 30   SCT 40,-1,5,-1,14,1016,RJEB 220600Z 25008KT 220V280 9999 FEW030 SCT040 M05/M14 Q1016     RMK 1CU030 3CU040 A3001=,
20180122_070000.002,0,RJEB,,,,0,20180122070000,-1,-1,-1,-1,240,-1,6,-1,-1,-1,-1,,9999,0,0,2,FEW 30   SCT 40,-1,6,-1,15,1016,RJEB 220700Z 24006KT 9999 FEW030 SCT040 M06/M15 Q1016 RMK     1CU030 3CU040 A3002=,
20180123_000000.002,0,RJEB,,,,0,20180123000000,-1,-1,-1,-1,130,-1,7,-1,-1,-1,-1,,9999,0,0,2,FEW 40   SCT -9999,-1,7,-1,14,1008,RJEB 230000Z 13007KT 9999 FEW040 SCT/// M07/M14 Q1008 RMK     1CU040 A2977=,
20180123_010000.002,0,RJEB,,,,0,20180123010000,-1,-1,-1,-1,120,-1,9,-1,-1,-1,-1,,9999,0,0,2,FEW 30   BKN -9999,-1,5,-1,14,1006,RJEB 230100Z 12009KT 9999 FEW030 BKN/// M05/M14 Q1006 RMK     1CU030 A2972=,
20180123_020000.002,0,RJEB,,,,0,20180123020000,-1,-1,-1,-1,110,-1,8,-1,-1,-1,-1,,9999,0,0,3,FEW 30   SCT 150   BKN -9999,-1,4,-1,13,1004,RJEB 230200Z 11008KT 9999 FEW030 SCT150 BKN/// M04/M13 Q1004     RMK 1CU030 4AC150 A2966=,
20180123_030000.003,0,RJEB,,,,0,20180123030000,-1,-1,-1,-1,120,-1,8,-1,-1,-1,-1,,9999,0,0,3,FEW 40   BKN 50   BKN -9999,-1,3,-1,12,1002,RJEB 230300Z 12008KT 9999 FEW040 BKN050 BKN/// M03/M12 Q1002     RMK 1CU040 5CU050 A2961=,
20180123_040000.003,0,RJEB,,,,0,20180123040000,-1,-1,-1,-1,100,-1,13,-1,-1,-1,-1,,9999,0,0,2,FEW 30   BKN 45,-1,2,-1,9,1000,RJEB 230400Z 10013KT 9999 FEW030 BKN045 M02/M09 Q1000 RMK     1CU030 5CU045 A2956=,
20180123_050000.002,0,RJEB,,,,0,20180123050000,-1,-1,-1,-1,110,-1,15,-1,-1,-1,-1,,9999,0,1,3,FEW 20   SCT 30   BKN 40,-1,2,-1,8,999,RJEB 230500Z 11015KT 9999 -SHSN FEW020 SCT030 BKN040 M02/M08     Q0999 RMK 1CU020 3CU030 6CU040 A2951=,- SN SH
20180123_060000.003,0,RJEB,,,,0,20180123060000,-1,-1,-1,-1,110,-1,10,-1,-1,-1,-1,,9999,0,0,3,FEW 20   SCT 30   BKN 70,-1,3,-1,7,999,RJEB 230600Z 11010KT 9999 FEW020 SCT030 BKN070 M03/M07 Q0999     RMK 1CU020 3CU030 6AC070 A2951=,
20180123_070000.002,0,RJEB,,,,0,20180123070000,-1,-1,-1,-1,110,-1,12,-1,-1,-1,-1,,9999,0,1,2,FEW 30   BKN 50,-1,3,-1,6,998,RJEB 230700Z 11012KT 9999 -SHSN FEW030 BKN050 M03/M06 Q0998     RMK 1CU030 7CU050 A2949=,- SN SH
20180124_000000.002,0,RJEB,,,,0,20180124000000,-1,-1,-1,-1,250,-1,9,-1,-1,-1,-1,,9999,0,0,3,FEW 30   SCT 80   BKN -9999,-1,5,-1,15,997,RJEB 240000Z 25009KT 9999 FEW030 SCT080 BKN/// M05/M15 Q0997     RMK 1CU030 3AC080 A2944=,
20180124_010000.003,0,RJEB,,,,0,20180124010000,-1,-1,-1,-1,250,-1,13,-1,-1,-1,-1,,9999,0,0,2,FEW 30   BKN 90,-1,4,-1,14,996,RJEB 240100Z 25013KT 9999 FEW030 BKN090 M04/M14 Q0996 RMK     1CU030 6AC090 A2943=,
20180124_020000.002,0,RJEB,,,,0,20180124020000,-1,-1,-1,-1,250,-1,14,-1,-1,-1,-1,,9999,0,0,2,FEW 30   SCT 90,-1,4,-1,15,995,RJEB 240200Z 25014KT 9999 FEW030 SCT090 M04/M15 Q0995 RMK     1CU030 3AC090 A2941=,
20180124_030000.002,0,RJEB,,,,0,20180124030000,-1,-1,-1,-1,260,-1,12,-1,-1,220,290,,9999,0,0,1,FEW 30,-1,3,-1,16,995,RJEB 240300Z 26012KT 220V290 9999 FEW030 M03/M16 Q0995 RMK     1CU030 A2939=,
20180124_040000.002,0,RJEB,,,,0,20180124040000,-1,-1,-1,-1,260,-1,17,-1,-1,-1,-1,,9999,0,0,1,FEW 20,-1,3,-1,18,994,RJEB 240400Z 26017KT 9999 FEW020 M03/M18 Q0994 RMK 1CU020     A2938=,
20180124_050000.002,0,RJEB,,,,0,20180124050000,-1,-1,-1,-1,240,-1,15,-1,-1,-1,-1,,9999,0,0,1,FEW 30,-1,4,-1,21,995,RJEB 240500Z 24015KT 9999 FEW030 M04/M21 Q0995 RMK 1CU030     A2938=,
20180124_060000.002,0,RJEB,,,,0,20180124060000,-1,-1,-1,-1,240,-1,17,-1,-1,-1,-1,,9999,0,0,2,FEW 30   SCT 60,-1,4,-1,20,995,RJEB 240600Z 24017KT 9999 FEW030 SCT060 M04/M20 Q0995 RMK     1CU030 3CU060 A2939=,
20180124_070000.002,0,RJEB,,,,0,20180124070000,-1,-1,-1,-1,240,-1,12,-1,-1,-1,-1,,9999,0,0,2,FEW 40   BKN 80,-1,5,-1,20,995,RJEB 240700Z 24012KT 9999 FEW040 BKN080 M05/M20 Q0995 RMK     1CU040 6AC080 A2940=,
20180125_000000.002,0,RJEB,,,,0,20180125000000,-1,-1,-1,-1,250,-1,10,-1,-1,-1,-1,,9999,0,0,1,FEW 40,-1,7,-1,15,993,RJEB 250000Z 25010KT 9999 FEW040 M07/M15 Q0993 RMK 1CU040     A2932=,
20180125_010000.002,0,RJEB,,,,0,20180125010000,-1,-1,-1,-1,270,-1,15,-1,25,-1,-1,,9999,0,0,2,FEW 30   BKN -9999,-1,6,-1,15,992,RJEB 250100Z 27015G25KT 9999 FEW030 BKN/// M06/M15 Q0992 RMK     1CU030 A2931=,
20180125_020000.003,0,RJEB,,,,0,20180125020000,-1,-1,-1,-1,270,-1,18,-1,-1,-1,-1,,9999,0,0,1,FEW 30,-1,5,-1,14,991,RJEB 250200Z 27018KT 9999 FEW030 M05/M14 Q0991 RMK 1CU030     A2929=,
20180125_030000.002,0,RJEB,,,,0,20180125030000,-1,-1,-1,-1,280,-1,19,-1,30,-1,-1,,9999,0,1,2,FEW 30   BKN 40,-1,5,-1,13,991,RJEB 250300Z 28019G30KT 9999 -SHSN FEW030 BKN040 M05/M13 Q0991     RMK 1CU030 7CU040 A2927=,- SN SH
20180125_040000.002,0,RJEB,,,,0,20180125040000,-1,-1,-1,-1,280,-1,16,-1,-1,-1,-1,,9999,0,1,2,FEW 30   BKN 50,-1,5,-1,12,991,RJEB 250400Z 28016KT 9999 -SHSN FEW030 BKN050 M05/M12 Q0991     RMK 1CU030 7CU050 A2927=,- SN SH
20180125_050000.002,0,RJEB,,,,0,20180125050000,-1,-1,-1,-1,290,-1,19,-1,-1,-1,-1,,9999,0,1,3,FEW 20   SCT 30   BKN 40,-1,5,-1,12,991,RJEB 250500Z 29019KT 9999 -SHSN FEW020 SCT030 BKN040 M05/M12     Q0991 RMK 1CU020 3CU030 7CU040 A2926=,- SN SH
20180125_060000.002,0,RJEB,,,,0,20180125060000,-1,-1,-1,-1,280,-1,18,-1,-1,-1,-1,,9999,0,0,2,FEW 30   BKN -9999,-1,5,-1,12,991,RJEB 250600Z 28018KT 9999 FEW030 BKN/// M05/M12 Q0991 RMK     1CU030 A2926=,
20180125_070000.002,0,RJEB,,,,0,20180125070000,-1,-1,-1,-1,280,-1,14,-1,-1,-1,-1,,9999,0,1,2,FEW 20   SCT -9999,-1,5,-1,12,991,RJEB 250700Z 28014KT 9999 -SHSN FEW020 SCT/// M05/M12 Q0991     RMK 1CU020 A2928=,- SN SH
20180126_000000.002,0,RJEB,,,,0,20180126000000,-1,-1,-1,-1,280,-1,10,-1,-1,-1,-1,,6000,1,1,3,FEW 5   BKN 20   BKN 40,-1,5,-1,9,994,RJEB 260000Z 28010KT 6000 R32/1200VP2000N -SHSN FEW005 BKN020     BKN040 M05/M09 Q0994 RMK 1ST005 5CU020 7CU040 A2937=,- SN SH
20180126_010000.002,0,RJEB,,,,0,20180126010000,-1,-1,-1,-1,290,-1,15,-1,-1,-1,-1,,9999,0,1,3,FEW 30   SCT 40   BKN 50,-1,4,-1,10,995,RJEB 260100Z 29015KT 9999 -SHSN FEW030 SCT040 BKN050 M04/M10     Q0995 RMK 1CU030 4CU040 7CU050 A2938=,- SN SH
20180126_020000.002,0,RJEB,,,,0,20180126020000,-1,-1,-1,-1,300,-1,14,-1,-1,-1,-1,,9999,0,1,3,FEW 30   BKN 40   BKN 50,-1,3,-1,11,995,RJEB 260200Z 30014KT 9999 -SHSN FEW030 BKN040 BKN050 M03/M11     Q0995 RMK 1CU030 5CU040 7CU050 A2938=,- SN SH
20180126_030000.002,0,RJEB,,,,0,20180126030000,-1,-1,-1,-1,310,-1,14,-1,-1,-1,-1,,9999,0,1,2,FEW 30   BKN 40,-1,3,-1,10,995,RJEB 260300Z 31014KT 9999 -SHSN FEW030 BKN040 M03/M10 Q0995     RMK 1CU030 7CU040 A2938=,- SN SH
20180126_040000.002,0,RJEB,,,,0,20180126040000,-1,-1,-1,-1,320,-1,12,-1,-1,-1,-1,,9999,0,0,3,FEW 20   SCT 40   BKN 60,-1,3,-1,11,994,RJEB 260400Z 32012KT 9999 FEW020 SCT040 BKN060 M03/M11 Q0994     RMK 1CU020 3CU040 7CU060 A2938=,
20180126_050000.002,0,RJEB,,,,0,20180126050000,-1,-1,-1,-1,320,-1,15,-1,-1,-1,-1,,9999,0,1,3,FEW 30   SCT 50   BKN 60,-1,3,-1,8,995,RJEB 260500Z 32015KT 9999 -SHSN FEW030 SCT050 BKN060 M03/M08     Q0995 RMK 1CU030 3CU050 7CU060 A2939=,- SN SH
20180126_060000.002,0,RJEB,,,,0,20180126060000,-1,-1,-1,-1,320,-1,17,-1,-1,-1,-1,,9999,0,1,3,FEW 20   BKN 50   BKN 60,-1,3,-1,8,996,RJEB 260600Z 32017KT 9999 -SHSN FEW020 BKN050 BKN060 M03/M08     Q0996 RMK 1CU020 5CU050 7CU060 A2941=,- SN SH
20180126_070000.002,0,RJEB,,,,0,20180126070000,-1,-1,-1,-1,320,-1,15,-1,-1,-1,-1,,9999,0,1,2,FEW 30   BKN 50,-1,4,-1,7,996,RJEB 260700Z 32015KT 9999 -SHSN FEW030 BKN050 M04/M07 Q0996     RMK 1CU030 7CU050 A2943=,- SN SH
20180127_000000.002,0,RJEB,,,,0,20180127000000,-1,-1,-1,-1,280,-1,11,-1,-1,-1,-1,,9999,0,1,2,FEW 20   BKN 50,-1,5,-1,11,1004,RJEB 270000Z 28011KT 9999 -SHSN FEW020 BKN050 M05/M11 Q1004     RMK 1CU020 7CU050 A2966=,- SN SH
20180127_010000.002,0,RJEB,,,,0,20180127010000,-1,-1,-1,-1,290,-1,11,-1,-1,-1,-1,,9999,0,1,2,FEW 20   BKN 50,-1,5,-1,11,1004,RJEB 270100Z 29011KT 9999 -SHSN FEW020 BKN050 M05/M11 Q1004     RMK 1CU020 7CU050 A2967=,- SN SH
20180127_020000.002,0,RJEB,,,,0,20180127020000,-1,-1,-1,-1,280,-1,12,-1,-1,-1,-1,,9999,0,1,2,FEW 20   BKN 50,-1,4,-1,12,1004,RJEB 270200Z 28012KT 9999 -SHSN FEW020 BKN050 M04/M12 Q1004     RMK 2CU020 7CU050 A2966=,- SN SH
20180127_030000.002,0,RJEB,,,,0,20180127030000,-1,-1,-1,-1,300,-1,9,-1,-1,-1,-1,,9999,0,1,3,FEW 20   SCT 30   BKN 60,-1,4,-1,10,1004,RJEB 270300Z 30009KT 9999 -SHSN FEW020 SCT030 BKN060 M04/M10     Q1004 RMK 1CU020 3CU030 7CU060 A2966=,- SN SH
20180127_040000.002,0,RJEB,,,,0,20180127040000,-1,-1,-1,-1,340,-1,8,-1,-1,-1,-1,,9999,0,1,2,FEW 30   BKN 60,-1,4,-1,10,1004,RJEB 270400Z 34008KT 9999 -SHSN FEW030 BKN060 M04/M10 Q1004     RMK 2CU030 6CU060 A2966=,- SN SH
20180127_050000.002,0,RJEB,,,,0,20180127050000,-1,-1,-1,-1,330,-1,10,-1,-1,-1,-1,,9999,0,1,2,FEW 30   BKN 40,-1,4,-1,9,1004,RJEB 270500Z 33010KT 9999 -SHSN FEW030 BKN040 M04/M09 Q1004     RMK 1CU030 7CU040 A2966=,- SN SH
20180127_060000.002,0,RJEB,,,,0,20180127060000,-1,-1,-1,-1,320,-1,9,-1,-1,-1,-1,,3100,0,1,3,FEW 4   SCT 10   BKN 20,-1,4,-1,8,1004,RJEB 270600Z 32009KT 3100 -SHSN FEW004 SCT010 BKN020 M04/M08     Q1004 RMK 2ST004 4ST010 7CU020 A2967 9999N-E=,- SN SH
20180127_070000.002,0,RJEB,,,,0,20180127070000,-1,-1,-1,-1,310,-1,8,-1,-1,-1,-1,,2400,1,1,3,FEW 3   SCT 4   BKN 20,-1,4,-1,6,1005,RJEB 270700Z 31008KT 2400 R32/2000N -SHSN FEW003 SCT004 BKN020     M04/M06 Q1005 RMK 1ST003 4ST004 7CU020 A2969=,- SN SH
20180128_000000.003,0,RJEB,,,,0,20180128000000,-1,-1,-1,-1,250,-1,12,-1,-1,-1,-1,,9999,0,0,2,FEW 30   SCT 40,-1,3,-1,12,1009,RJEB 280000Z 25012KT 9999 FEW030 SCT040 M03/M12 Q1009 RMK     1CU030 3CU040 A2980=,
20180128_010000.002,0,RJEB,,,,0,20180128010000,-1,-1,-1,-1,260,-1,13,-1,-1,-1,-1,,9999,0,0,2,FEW 30   BKN -9999,-1,2,-1,12,1009,RJEB 280100Z 26013KT 9999 FEW030 BKN/// M02/M12 Q1009 RMK     1CU030 A2979=,
20180128_020000.002,0,RJEB,,,,0,20180128020000,-1,-1,-1,-1,260,-1,11,-1,-1,-1,-1,,9999,0,0,2,FEW 30   BKN 40,-1,2,-1,11,1008,RJEB 280200Z 26011KT 9999 FEW030 BKN040 M02/M11 Q1008 RMK     1CU030 5CU040 A2977=,
20180128_030000.002,0,RJEB,,,,0,20180128030000,-1,-1,-1,-1,250,-1,12,-1,-1,-1,-1,,9999,0,0,2,FEW 20   BKN 40,-1,2,-1,12,1007,RJEB 280300Z 25012KT 9999 FEW020 BKN040 M02/M12 Q1007 RMK     1CU020 6CU040 A2974=,
20180128_040000.002,0,RJEB,,,,0,20180128040000,-1,-1,-1,-1,260,-1,14,-1,25,220,290,,9999,0,0,2,FEW 30   BKN 40,-1,2,-1,12,1006,RJEB 280400Z 26014G25KT 220V290 9999 FEW030 BKN040 M02/M12     Q1006 RMK 1CU030 6CU040 A2972=,
20180128_050000.002,0,RJEB,,,,0,20180128050000,-1,-1,-1,-1,250,-1,16,-1,26,-1,-1,,9999,0,0,2,FEW 30   SCT 50,-1,2,-1,12,1006,RJEB 280500Z 25016G26KT 9999 FEW030 SCT050 M02/M12 Q1006 RMK     1CU030 3CU050 A2972=,
20180128_060000.002,0,RJEB,,,,0,20180128060000,-1,-1,-1,-1,230,-1,11,-1,-1,-1,-1,,9999,0,0,3,FEW 30   BKN 50   BKN 60,-1,2,-1,13,1006,RJEB 280600Z 23011KT 9999 FEW030 BKN050 BKN060 M02/M13 Q1006     RMK 1CU030 5CU050 6CU060 A2972=,
20180128_070000.003,0,RJEB,,,,0,20180128070000,-1,-1,-1,-1,240,-1,8,-1,-1,-1,-1,,9999,0,0,2,FEW 30   SCT 50,-1,2,-1,13,1006,RJEB 280700Z 24008KT 9999 FEW030 SCT050 M02/M13 Q1006 RMK     1CU030 4CU050 A2973=,
20180129_000000.003,0,RJEB,,,,0,20180129000000,-1,-1,-1,-1,310,-1,11,-1,-1,-1,-1,,9999,0,0,2,FEW 30   BKN 50,-1,9,-1,15,1003,RJEB 290000Z 31011KT 9999 FEW030 BKN050 M09/M15 Q1003 RMK     1CU030 5CU050 A2963=,
20180129_010000.002,0,RJEB,,,,0,20180129010000,-1,-1,-1,-1,290,-1,10,-1,-1,-1,-1,,9999,0,0,2,FEW 20   BKN 40,-1,8,-1,15,1003,RJEB 290100Z 29010KT 9999 FEW020 BKN040 M08/M15 Q1003 RMK     1CU020 6CU040 A2963=,
20180129_020000.002,0,RJEB,,,,0,20180129020000,-1,-1,-1,-1,290,-1,6,-1,-1,-1,-1,,9999,0,1,2,FEW 20   BKN 30,-1,7,-1,15,1003,RJEB 290200Z 29006KT 9999 -SHSN FEW020 BKN030 M07/M15 Q1003     RMK 1CU020 6CU030 A2964=,- SN SH
20180129_030000.002,0,RJEB,,,,0,20180129030000,-1,-1,-1,-1,310,-1,8,-1,-1,-1,-1,,9999,0,1,2,FEW 20   BKN 30,-1,7,-1,14,1003,RJEB 290300Z 31008KT 9999 -SHSN FEW020 BKN030 M07/M14 Q1003     RMK 1CU020 6CU030 A2962=,- SN SH
20180129_040000.002,0,RJEB,,,,0,20180129040000,-1,-1,-1,-1,240,-1,12,-1,-1,-1,-1,,9999,0,0,3,FEW 20   SCT 40   BKN 50,-1,6,-1,17,1002,RJEB 290400Z 24012KT 9999 FEW020 SCT040 BKN050 M06/M17 Q1002     RMK 1CU020 3CU040 5CU050 A2961=,
20180129_050000.002,0,RJEB,,,,0,20180129050000,-1,-1,-1,-1,240,-1,10,-1,-1,210,280,,9999,0,1,2,FEW 20   BKN 50,-1,6,-1,16,1002,RJEB 290500Z 24010KT 210V280 9999 -SHSN FEW020 BKN050 M06/M16     Q1002 RMK 1CU020 5CU050 A2961=,- SN SH
20180129_060000.002,0,RJEB,,,,0,20180129060000,-1,-1,-1,-1,250,-1,11,-1,-1,-1,-1,,9999,0,0,2,FEW 20   BKN 50,-1,6,-1,18,1003,RJEB 290600Z 25011KT 9999 FEW020 BKN050 M06/M18 Q1003 RMK     1CU020 5CU050 A2964=,
20180129_070000.002,0,RJEB,,,,0,20180129070000,-1,-1,-1,-1,250,-1,9,-1,-1,-1,-1,,9999,0,0,2,FEW 20   SCT 50,-1,7,-1,18,1004,RJEB 290700Z 25009KT 9999 FEW020 SCT050 M07/M18 Q1004 RMK     1CU020 4CU050 A2966=,
20180130_000000.002,0,RJEB,,,,0,20180130000000,-1,-1,-1,-1,230,-1,10,-1,-1,-1,-1,,9999,0,0,1,FEW 40,-1,8,-1,16,1007,RJEB 300000Z 23010KT 9999 FEW040 M08/M16 Q1007 RMK 1CU040     A2975=,
20180130_010000.002,0,RJEB,,,,0,20180130010000,-1,-1,-1,-1,250,-1,9,-1,-1,-1,-1,,9999,0,0,1,FEW 40,-1,6,-1,16,1007,RJEB 300100Z 25009KT 9999 FEW040 M06/M16 Q1007 RMK 1CU040     A2976=,
20180130_020000.002,0,RJEB,,,,0,20180130020000,-1,-1,-1,-1,250,-1,12,-1,-1,-1,-1,,9999,0,0,1,FEW 30,-1,5,-1,16,1007,RJEB 300200Z 25012KT 9999 FEW030 M05/M16 Q1007 RMK 1CU030     A2974=,
20180130_030000.002,0,RJEB,,,,0,20180130030000,-1,-1,-1,-1,250,-1,10,-1,-1,-1,-1,,9999,0,0,2,FEW 30   BKN 40,-1,5,-1,17,1007,RJEB 300300Z 25010KT 9999 FEW030 BKN040 M05/M17 Q1007 RMK     1CU030 5CU040 A2974=,
20180130_040000.002,0,RJEB,,,,0,20180130040000,-1,-1,-1,-1,250,-1,11,-1,-1,220,280,,9999,0,0,2,FEW 40   SCT 50,-1,4,-1,16,1007,RJEB 300400Z 25011KT 220V280 9999 FEW040 SCT050 M04/M16 Q1007     RMK 1CU040 3CU050 A2974=,
20180130_050000.002,0,RJEB,,,,0,20180130050000,-1,-1,-1,-1,310,-1,7,-1,-1,290,350,,9999,0,0,2,FEW 40   BKN 50,-1,6,-1,13,1007,RJEB 300500Z 31007KT 290V350 9999 FEW040 BKN050 M06/M13 Q1007     RMK 1CU040 6CU050 A2975=,
20180130_060000.003,0,RJEB,,,,0,20180130060000,-1,-1,-1,-1,30,-1,8,-1,-1,-1,-1,,9999,0,0,2,FEW 30   BKN 50,-1,6,-1,12,1008,RJEB 300600Z 03008KT 9999 FEW030 BKN050 M06/M12 Q1008 RMK     1CU030 5CU050 A2978=,
20180130_070000.002,0,RJEB,,,,0,20180130070000,-1,-1,-1,-1,999,-1,1,-1,-1,-1,-1,,9999,0,1,2,FEW 30   BKN 50,-1,7,-1,12,1009,RJEB 300700Z VRB01KT 9999 -SHSN FEW030 BKN050 M07/M12 Q1009     RMK 1CU030 6CU050 A2980=,- SN SH
20180131_000000.002,0,RJEB,,,,0,20180131000000,-1,-1,-1,-1,240,-1,5,-1,-1,-1,-1,,9999,0,0,3,FEW 30   SCT 50   BKN 60,-1,6,-1,14,1015,RJEB 310000Z 24005KT 9999 FEW030 SCT050 BKN060 M06/M14 Q1015     RMK 1CU030 3CU050 7CU060 A2998=,
20180131_010000.002,0,RJEB,,,,0,20180131010000,-1,-1,-1,-1,290,-1,4,-1,-1,-1,-1,,9999,0,0,2,FEW 40   BKN 140,-1,6,-1,14,1015,RJEB 310100Z 29004KT 9999 FEW040 BKN140 M06/M14 Q1015 RMK     1CU040 6AC140 A2998=,
20180131_020000.002,0,RJEB,,,,0,20180131020000,-1,-1,-1,-1,240,-1,7,-1,-1,-1,-1,,9999,0,0,2,FEW 40   BKN 140,-1,4,-1,14,1015,RJEB 310200Z 24007KT 9999 FEW040 BKN140 M04/M14 Q1015 RMK     1CU040 6AC140 A2997=,
20180131_030000.002,0,RJEB,,,,0,20180131030000,-1,-1,-1,-1,250,-1,9,-1,-1,220,300,,9999,0,0,2,FEW 40   BKN -9999,-1,3,-1,14,1015,RJEB 310300Z 25009KT 220V300 9999 FEW040 BKN/// M03/M14 Q1015     RMK 1CU040 A2998=,
20180131_040000.002,0,RJEB,,,,0,20180131040000,-1,-1,-1,-1,250,-1,5,-1,-1,210,290,,9999,0,0,2,FEW 40   BKN -9999,-1,3,-1,14,1015,RJEB 310400Z 25005KT 210V290 9999 FEW040 BKN/// M03/M14 Q1015     RMK 1CU040 A2997=,
20180131_050000.002,0,RJEB,,,,0,20180131050000,-1,-1,-1,-1,250,-1,11,-1,-1,-1,-1,,9999,0,0,2,FEW 40   BKN 50,-1,3,-1,13,1015,RJEB 310500Z 25011KT 9999 FEW040 BKN050 M03/M13 Q1015 RMK     1CU040 5CU050 A2999=,
20180131_060000.002,0,RJEB,,,,0,20180131060000,-1,-1,-1,-1,300,-1,8,-1,-1,-1,-1,,9999,0,1,3,FEW 4   SCT 20   BKN 40,-1,4,-1,11,1016,RJEB 310600Z 30008KT 9999 -SHSN FEW004 SCT020 BKN040 M04/M11     Q1016 RMK 1ST004 3CU020 5CU040 A3001=,- SN SH
20180131_070000.003,0,RJEB,,,,0,20180131070000,-1,-1,-1,-1,340,-1,4,-1,-1,-1,-1,,9999,0,1,2,FEW 20   SCT 40,-1,5,-1,11,1017,RJEB 310700Z 34004KT 9999 -SHSN FEW020 SCT040 M05/M11 Q1017     RMK 1CU020 4CU040 A3003=,- SN SH
20180201_000000.003,0,RJEB,,,,0,20180201000000,-1,-1,-1,-1,999,-1,1,-1,-1,-1,-1,,9999,0,0,1,FEW 30,-1,7,-1,14,1026,RJEB 010000Z VRB01KT 9999 FEW030 M07/M14 Q1026 RMK 1CU030     A3030=,
20180201_010000.002,0,RJEB,,,,0,20180201010000,-1,-1,-1,-1,260,-1,2,-1,-1,-1,-1,,9999,0,0,1,FEW 40,-1,5,-1,13,1026,RJEB 010100Z 26002KT 9999 FEW040 M05/M13 Q1026 RMK 1CU040     A3032=,
20180201_020000.002,0,RJEB,,,,0,20180201020000,-1,-1,-1,-1,999,-1,2,-1,-1,-1,-1,,9999,0,0,1,FEW 40,-1,5,-1,11,1026,RJEB 010200Z VRB02KT 9999 FEW040 M05/M11 Q1026 RMK 1CU040     A3032=,
20180201_030000.003,0,RJEB,,,,0,20180201030000,-1,-1,-1,-1,90,-1,4,-1,-1,40,120,,9999,0,0,1,FEW 40,-1,4,-1,9,1027,RJEB 010300Z 09004KT 040V120 9999 FEW040 M04/M09 Q1027 RMK     1CU040 A3033=,
20180201_040000.003,0,RJEB,,,,0,20180201040000,-1,-1,-1,-1,70,-1,3,-1,-1,30,100,,9999,0,0,2,FEW 30   BKN 50,-1,5,-1,9,1027,RJEB 010400Z 07003KT 030V100 9999 FEW030 BKN050 M05/M09 Q1027     RMK 1CU030 5CU050 A3034=,
20180201_050000.002,0,RJEB,,,,0,20180201050000,-1,-1,-1,-1,90,-1,4,-1,-1,60,120,,9999,0,0,1,FEW 30,-1,4,-1,9,1027,RJEB 010500Z 09004KT 060V120 9999 FEW030 M04/M09 Q1027 RMK     1CU030 A3035=,
20180201_060000.002,0,RJEB,,,,0,20180201060000,-1,-1,-1,-1,999,-1,2,-1,-1,-1,-1,,9999,0,0,1,FEW 30,-1,5,-1,10,1028,RJEB 010600Z VRB02KT 9999 FEW030 M05/M10 Q1028 RMK 1CU030     A3037=,
20180201_070000.002,0,RJEB,,,,0,20180201070000,-1,-1,-1,-1,0,-1,0,-1,-1,-1,-1,,9999,0,0,1,FEW 40,-1,6,-1,10,1029,RJEB 010700Z 00000KT 9999 FEW040 M06/M10 Q1029 RMK 1CU040     A3039=,
20180202_000000.002,0,RJEB,,,,0,20180202000000,-1,-1,-1,-1,260,-1,3,-1,-1,-1,-1,,9999,0,1,2,FEW 20   SCT 50,-1,9,-1,12,1033,RJEB 020000Z 26003KT 9999 -SHSN FEW020 SCT050 M09/M12 Q1033     RMK 1CU020 3CU050 A3050=,- SN SH
20180202_010000.002,0,RJEB,,,,0,20180202010000,-1,-1,-1,-1,0,-1,0,-1,-1,-1,-1,,9999,0,1,1,FEW 30,-1,9,-1,12,1032,RJEB 020100Z 00000KT 9999 -SHSN FEW030 M09/M12 Q1032 RMK     1CU030 A3049=,- SN SH
20180202_020000.002,0,RJEB,,,,0,20180202020000,-1,-1,-1,-1,90,-1,4,-1,-1,60,120,,9999,0,0,1,FEW 11,-1,7,-1,10,1031,RJEB 020200Z 09004KT 060V120 9999 FEW011 M07/M10 Q1031 RMK     1ST011 A3047=,
20180202_030000.002,0,RJEB,,,,0,20180202030000,-1,-1,-1,-1,110,-1,5,-1,-1,60,130,,9999,0,0,1,FEW 15,-1,6,-1,10,1031,RJEB 020300Z 11005KT 060V130 9999 FEW015 M06/M10 Q1031 RMK     1ST015 A3044=,
20180202_040000.002,0,RJEB,,,,0,20180202040000,-1,-1,-1,-1,110,-1,6,-1,-1,-1,-1,,9999,0,0,1,FEW 10,-1,6,-1,10,1030,RJEB 020400Z 11006KT 9999 FEW010 M06/M10 Q1030 RMK 1ST010     A3043=,
20180202_050000.001,0,RJEB,,,,0,20180202050000,-1,-1,-1,-1,100,-1,7,-1,-1,-1,-1,,9999,0,0,1,FEW 13,-1,6,-1,10,1030,RJEB 020500Z 10007KT 9999 FEW013 M06/M10 Q1030 RMK 1ST013     A3042=,
20180202_060000.002,0,RJEB,,,,0,20180202060000,-1,-1,-1,-1,120,-1,6,-1,-1,-1,-1,,9999,0,0,1,FEW 15,-1,6,-1,10,1030,RJEB 020600Z 12006KT 9999 FEW015 M06/M10 Q1030 RMK 1ST015     A3043=,
20180202_070000.002,0,RJEB,,,,0,20180202070000,-1,-1,-1,-1,120,-1,6,-1,-1,-1,-1,,9999,0,0,1,FEW 30,-1,7,-1,10,1030,RJEB 020700Z 12006KT 9999 FEW030 M07/M10 Q1030 RMK 1CU030     A3044=,
20180203_000000.002,0,RJEB,,,,0,20180203000000,-1,-1,-1,-1,300,-1,3,-1,-1,-1,-1,,9999,0,1,2,FEW 9   BKN 11,-1,10,-1,12,1028,RJEB 030000Z 30003KT 9999 -SHSN FEW009 BKN011 M10/M12 Q1028     RMK 1ST009 6ST011 A3036=,- SN SH
20180203_010000.003,0,RJEB,,,,0,20180203010000,-1,-1,-1,-1,110,-1,3,-1,-1,60,140,,9999,0,1,2,FEW 9   BKN 35,-1,7,-1,10,1027,RJEB 030100Z 11003KT 060V140 9999 -SHSN FEW009 BKN035 M07/M10     Q1027 RMK 1ST009 6CU035 A3034=,- SN SH
20180203_020000.002,0,RJEB,,,,0,20180203020000,-1,-1,-1,-1,90,-1,6,-1,-1,-1,-1,,9999,0,1,1,FEW 10,-1,7,-1,10,1026,RJEB 030200Z 09006KT 9999 -SHSN FEW010 M07/M10 Q1026 RMK     1ST010 A3031=,- SN SH
20180203_030000.002,0,RJEB,,,,0,20180203030000,-1,-1,-1,-1,90,-1,5,-1,-1,-1,-1,,9999,0,0,1,FEW 7,-1,7,-1,10,1025,RJEB 030300Z 09005KT 9999 FEW007 M07/M10 Q1025 RMK 1ST007     A3028=,
20180203_040000.002,0,RJEB,,,,0,20180203040000,-1,-1,-1,-1,90,-1,4,-1,-1,-1,-1,,9999,0,0,1,FEW 7,-1,7,-1,9,1024,RJEB 030400Z 09004KT 9999 FEW007 M07/M09 Q1024 RMK 2ST007     A3026=,
20180203_050000.002,0,RJEB,,,,0,20180203050000,-1,-1,-1,-1,120,-1,6,-1,-1,-1,-1,,9999,0,0,2,FEW 7   BKN 8,-1,6,-1,9,1024,RJEB 030500Z 12006KT 9999 FEW007 BKN008 M06/M09 Q1024 RMK     1ST007 6ST008 A3025=,
20180203_060000.002,0,RJEB,,,,0,20180203060000,-1,-1,-1,-1,100,-1,7,-1,-1,-1,-1,,9999,0,0,2,FEW 6   BKN 7,-1,7,-1,8,1024,RJEB 030600Z 10007KT 9999 FEW006 BKN007 M07/M08 Q1024 RMK     1ST006 7ST007 A3025=,
20180203_070000.003,0,RJEB,,,,0,20180203070000,-1,-1,-1,-1,120,-1,7,-1,-1,80,150,,9999,0,0,2,FEW 7   BKN 9,-1,7,-1,9,1024,RJEB 030700Z 12007KT 080V150 9999 FEW007 BKN009 M07/M09 Q1024     RMK 1ST007 7ST009 A3024=,
20180204_000000.002,0,RJEB,,,,0,20180204000000,-1,-1,-1,-1,160,-1,3,-1,-1,-1,-1,,1600,1,1,1,VV 4,-1,5,-1,6,1015,RJEB 040000Z 16003KT 1600 R32/1600VP2000N -SHSN VV004 M05/M06     Q1015 RMK A2999=,- SN SH
20180204_010000.002,0,RJEB,,,,0,20180204010000,-1,-1,-1,-1,150,-1,3,-1,-1,-1,-1,,2500,0,1,3,FEW 3   SCT 4   BKN 25,-1,4,-1,6,1015,RJEB 040100Z 15003KT 2500 -SHSN FEW003 SCT004 BKN025 M04/M06     Q1015 RMK 1ST003 4ST004 7CU025 A2997=,- SN SH
20180204_020000.002,0,RJEB,,,,0,20180204020000,-1,-1,-1,-1,999,-1,1,-1,-1,-1,-1,,2300,1,1,3,FEW 3   SCT 4   BKN 25,-1,4,-1,6,1013,RJEB 040200Z VRB01KT 2300 R32/2000N -SHSN FEW003 SCT004 BKN025     M04/M06 Q1013 RMK 1ST003 4ST004 7CU025 A2994=,- SN SH
20180204_030000.002,0,RJEB,,,,0,20180204030000,-1,-1,-1,-1,320,-1,1,-1,-1,-1,-1,,2300,1,1,3,FEW 3   SCT 4   BKN 25,-1,4,-1,6,1012,RJEB 040300Z 32001KT 2300 R32/2000N -SHSN FEW003 SCT004 BKN025     M04/M06 Q1012 RMK 1ST003 4ST004 7CU025 A2990=,- SN SH
20180204_040000.002,0,RJEB,,,,0,20180204040000,-1,-1,-1,-1,300,-1,2,-1,-1,-1,-1,,2000,1,1,3,FEW 3   BKN 4   BKN 15,-1,4,-1,5,1011,RJEB 040400Z 30002KT 2000 R32/2000U -SHSN FEW003 BKN004 BKN015     M04/M05 Q1011 RMK 1ST003 5ST004 7ST015 A2987=,- SN SH
20180204_050000.002,0,RJEB,,,,0,20180204050000,-1,-1,-1,-1,280,-1,2,-1,-1,-1,-1,,1600,1,1,1,VV 4,-1,3,-1,5,1011,RJEB 040500Z 28002KT 1600 R32/2000N -SHSN VV004 M03/M05 Q1011     RMK A2986=,- SN SH
20180204_060000.002,0,RJEB,,,,0,20180204060000,-1,-1,-1,-1,310,-1,4,-1,-1,-1,-1,,1300,1,1,1,VV 3,-1,3,-1,4,1011,RJEB 040600Z 31004KT 1300 R32/1000N -SHSN VV003 M03/M04 Q1011     RMK A2985=,- SN SH
20180204_070000.002,0,RJEB,,,,0,20180204070000,-1,-1,-1,-1,60,-1,3,-1,-1,-1,-1,,1100,1,1,1,VV 3,-1,2,-1,3,1010,RJEB 040700Z 06003KT 1100 R32/1000VP2000U -SHSN VV003 M02/M03     Q1010 RMK A2985=,- SN SH
20180205_000000.003,0,RJEB,,,,0,20180205000000,-1,-1,-1,-1,330,-1,9,-1,-1,-1,-1,,1400,1,1,1,VV 4,-1,5,-1,7,1010,RJEB 050000Z 33009KT 1400 R32/1400VP2000D -SHSN VV004 M05/M07     Q1010 RMK A2984=,- SN SH
20180205_010000.002,0,RJEB,,,,0,20180205010000,-1,-1,-1,-1,330,-1,8,-1,-1,-1,-1,,1000,1,1,1,VV 3,-1,5,-1,7,1010,RJEB 050100Z 33008KT 1000 R32/1100N -SHSN VV003 M05/M07 Q1010     RMK A2984=,- SN SH
20180205_020000.002,0,RJEB,,,,0,20180205020000,-1,-1,-1,-1,320,-1,10,-1,-1,-1,-1,,1300,1,1,1,VV 4,-1,6,-1,7,1010,RJEB 050200Z 32010KT 1300 R32/1800N -SHSN VV004 M06/M07 Q1010     RMK A2984=,- SN SH
