20180101_000000.002,1,RJEC,,,,0,20180101000000,-1,-1,-1,-1,999,-1,1,-1,-1,-1,-1,,4500,0,1,3,FEW 4   SCT 15   BKN 25,-1,6,-1,7,1011,RJEC 010000Z VRB01KT 4500 -SHSN FEW004 SCT015 BKN025 M06/M07     Q1011 RMK 1ST004 4ST015 7CU025 A2988=,- SN SH
20180101_010000.002,1,RJEC,,,,0,20180101010000,-1,-1,-1,-1,999,-1,1,-1,-1,-1,-1,,9999,0,1,3,FEW 5   SCT 25   BKN 50,-1,5,-1,6,1011,RJEC 010100Z VRB01KT 9999 -SHSN FEW005 SCT025 BKN050 M05/M06     Q1011 RMK 1ST005 3CU025 5CU050 A2986=,- SN SH
20180101_020000.002,1,RJEC,,,,0,20180101020000,-1,-1,-1,-1,999,-1,2,-1,-1,-1,-1,,9999,0,1,3,FEW 15   SCT 25   BKN 70,-1,6,-1,7,1009,RJEC 010200Z VRB02KT 9999 -SHSN FEW015 SCT025 BKN070 M06/M07     Q1009 RMK 1ST015 3CU025 5AC070 A2982=,- SN SH
20180101_030000.002,1,RJEC,,,,0,20180101030000,-1,-1,-1,-1,999,-1,3,-1,-1,-1,-1,,9999,0,0,3,FEW 5   SCT 25   BKN 70,-1,5,-1,7,1008,RJEC 010300Z VRB03KT 9999 FEW005 SCT025 BKN070 M05/M07 Q1008     RMK 1ST005 3CU025 5AC070 A2978=,
20180101_040000.002,1,RJEC,,,,0,20180101040000,-1,-1,-1,-1,999,-1,2,-1,-1,-1,-1,,9999,0,0,3,FEW 7   SCT 70   BKN 120,-1,4,-1,5,1007,RJEC 010400Z VRB02KT 9999 FEW007 SCT070 BKN120 M04/M05 Q1007     RMK 1ST007 3AC070 6AC120 A2976=,
20180101_050000.002,1,RJEC,,,,0,20180101050000,-1,-1,-1,-1,999,-1,2,-1,-1,-1,-1,,9999,0,0,3,FEW 10   SCT 25   BKN 70,-1,4,-1,5,1007,RJEC 010500Z VRB02KT 9999 FEW010 SCT025 BKN070 M04/M05 Q1007     RMK 1ST010 3CU025 5AC070 A2974=,
20180101_060000.002,1,RJEC,,,,0,20180101060000,-1,-1,-1,-1,999,-1,2,-1,-1,-1,-1,,9999,0,0,3,FEW 10   SCT 25   BKN 120,-1,4,-1,5,1007,RJEC 010600Z VRB02KT 9999 FEW010 SCT025 BKN120 M04/M05 Q1007     RMK 1ST010 3CU025 6AC120 A2975=,
20180101_070000.002,1,RJEC,,,,0,20180101070000,-1,-1,-1,-1,999,-1,2,-1,-1,-1,-1,,9999,0,0,3,FEW 10   SCT 60   BKN 120,-1,4,-1,5,1007,RJEC 010700Z VRB02KT 9999 FEW010 SCT060 BKN120 M04/M05 Q1007     RMK 1ST010 3CU060 5AC120 A2974=,
20180101_080000.002,1,RJEC,,,,0,20180101080000,-1,-1,-1,-1,110,-1,4,-1,-1,-1,-1,,9999,0,0,3,FEW 10   SCT 50   BKN 120,-1,4,-1,5,1007,RJEC 010800Z 11004KT 9999 FEW010 SCT050 BKN120 M04/M05 Q1007     RMK 1ST010 3CU050 5AC120 A2974=,
20180101_090000.002,1,RJEC,,,,0,20180101090000,-1,-1,-1,-1,999,-1,1,-1,-1,-1,-1,,9999,0,0,3,FEW 10   SCT 40   BKN 100,-1,4,-1,5,1007,RJEC 010900Z VRB01KT 9999 FEW010 SCT040 BKN100 M04/M05 Q1007     RMK 1ST010 3CU040 5AC100 A2975=,
20180101_100000.002,1,RJEC,,,,0,20180101100000,-1,-1,-1,-1,999,-1,2,-1,-1,-1,-1,,9999,0,0,3,FEW 10   SCT 30   BKN 80,-1,5,-1,6,1007,RJEC 011000Z VRB02KT 9999 FEW010 SCT030 BKN080 M05/M06 Q1007     RMK 1ST010 3CU030 5AC080 A2975=,
20180101_110000.002,1,RJEC,,,,0,20180101110000,-1,-1,-1,-1,999,-1,2,-1,-1,-1,-1,,9999,0,0,3,FEW 10   SCT 70   BKN 150,-1,5,-1,6,1007,RJEC 011100Z VRB02KT 9999 FEW010 SCT070 BKN150 M05/M06 Q1007     RMK 1ST010 3AC070 5AC150 A2975=,
20180101_220000.002,0,RJEC,,,,0,20180101220000,-1,-1,-1,-1,999,-1,2,-1,-1,-1,-1,,200,1,1,1,VV 1,-1,8,-1,9,1006,RJEC 012200Z VRB02KT 0200 R34/0225V0325N FZFG VV001 M08/M09     Q1006 RMK A2973=,FZ FG
20180101_230000.002,1,RJEC,,,,0,20180101230000,-1,-1,-1,-1,999,-1,2,-1,-1,-1,-1,,400,1,1,2,SCT 1   BKN 2,-1,8,-1,9,1006,RJEC 012300Z VRB02KT 0400 R34/0300V0450N FZFG SCT001 BKN002     M08/M09 Q1006 RMK 4ST001 6ST002 A2973=,FZ FG
20180102_000000.003,1,RJEC,,,,0,20180102000000,-1,-1,-1,-1,80,-1,1,-1,-1,-1,-1,,800,1,1,2,SCT 1   BKN 3,-1,7,-1,8,1006,RJEC 020000Z 08001KT 0800 R34/0400V1500N FZFG SCT001 BKN003     M07/M08 Q1006 RMK 3ST001 5ST003 A2973=,FZ FG
20180102_010000.003,1,RJEC,,,,0,20180102010000,-1,-1,-1,-1,340,-1,2,-1,-1,-1,-1,,200,1,1,1,VV 2,-1,5,-1,6,1006,RJEC 020100Z 34002KT 0200 R34/0300N FZFG VV002 M05/M06 Q1006     RMK A2972=,FZ FG
20180102_020000.002,1,RJEC,,,,0,20180102020000,-1,-1,-1,-1,999,-1,1,-1,-1,-1,-1,,1000,1,2,2,FEW 1   BKN 2,-1,5,-1,6,1005,RJEC 020200Z VRB01KT 1000 R34/0700VP2000U BCFG BR FEW001     BKN002 M05/M06 Q1005 RMK 2ST001 5ST002 A2969 9999N=,BC FG; BR
20180102_030000.002,1,RJEC,,,,0,20180102030000,-1,-1,-1,-1,999,-1,1,-1,-1,-1,-1,,9999,0,1,3,FEW 2   SCT 18   BKN 35,-1,4,-1,4,1004,RJEC 020300Z VRB01KT 9999 -SHSN FEW002 SCT018 BKN035 M04/M04     Q1004 RMK 1ST002 3ST018 6CU035 A2966=,- SN SH
20180102_040000.002,1,RJEC,,,,0,20180102040000,-1,-1,-1,-1,999,-1,1,-1,-1,-1,-1,,2400,0,1,3,FEW 2   SCT 8   BKN 12,-1,3,-1,4,1003,RJEC 020400Z VRB01KT 2400 -SHSN FEW002 SCT008 BKN012 M03/M04     Q1003 RMK 1ST002 3ST008 6ST012 A2964=,- SN SH
20180102_050000.002,1,RJEC,,,,0,20180102050000,-1,-1,-1,-1,130,-1,1,-1,-1,-1,-1,,3000,0,1,3,FEW 5   SCT 10   BKN 15,-1,3,-1,3,1003,RJEC 020500Z 13001KT 3000 -SHSN FEW005 SCT010 BKN015 M03/M03     Q1003 RMK 1ST005 3ST010 6ST015 A2964=,- SN SH
20180102_060000.002,1,RJEC,,,,0,20180102060000,-1,-1,-1,-1,170,-1,10,-1,-1,-1,-1,,2000,0,1,3,FEW 3   SCT 8   BKN 12,-1,1,-1,1,1003,RJEC 020600Z 17010KT 2000 -SHSN FEW003 SCT008 BKN012 M01/M01     Q1003 RMK 2ST003 4ST008 7ST012 A2964=,- SN SH
20180102_070000.002,1,RJEC,,,,0,20180102070000,-1,-1,-1,-1,170,-1,12,-1,-1,-1,-1,,2500,0,1,3,FEW 3   SCT 10   BKN 15,-1,1,-1,1,1003,RJEC 020700Z 17012KT 2500 -SHSN FEW003 SCT010 BKN015 M01/M01     Q1003 RMK 1ST003 3ST010 6ST015 A2964=,- SN SH
20180102_080000.002,1,RJEC,,,,0,20180102080000,-1,-1,-1,-1,170,-1,12,-1,-1,-1,-1,,3500,0,1,3,FEW 5   SCT 10   BKN 15,-1,1,-1,1,1003,RJEC 020800Z 17012KT 3500 -SHSN FEW005 SCT010 BKN015 M01/M01     Q1003 RMK 1ST005 3ST010 6ST015 A2964=,- SN SH
20180102_090000.002,1,RJEC,,,,0,20180102090000,-1,-1,-1,-1,170,-1,12,-1,-1,-1,-1,,9999,0,1,3,FEW 10   SCT 18   BKN 30,-1,1,-1,1,1003,RJEC 020900Z 17012KT 9999 -SHSN FEW010 SCT018 BKN030 M01/M01     Q1003 RMK 1ST010 3ST018 6CU030 A2964=,- SN SH
20180102_100000.002,1,RJEC,,,,0,20180102100000,-1,-1,-1,-1,170,-1,10,-1,-1,-1,-1,,9999,0,0,3,FEW 12   SCT 20   BKN 30,-1,1,-1,1,1003,RJEC 021000Z 17010KT 9999 FEW012 SCT020 BKN030 M01/M01 Q1003     RMK 1ST012 3CU020 6CU030 A2964=,
20180102_110000.002,1,RJEC,,,,0,20180102110000,-1,-1,-1,-1,180,-1,7,-1,-1,-1,-1,,9999,0,0,3,FEW 15   SCT 20   BKN 30,-1,1,-1,2,1003,RJEC 021100Z 18007KT 9999 FEW015 SCT020 BKN030 M01/M02 Q1003     RMK 1ST015 3CU020 6CU030 A2963=,
20180102_220000.002,0,RJEC,,,,0,20180102220000,-1,-1,-1,-1,180,-1,2,-1,-1,-1,-1,,7000,0,1,3,FEW 3   SCT 6   BKN 12,-1,4,-1,5,1005,RJEC 022200Z 18002KT 7000 -SHSN FEW003 SCT006 BKN012 M04/M05     Q1005 RMK 1ST003 4ST006 7ST012 A2968=,- SN SH
20180102_230000.002,1,RJEC,,,,0,20180102230000,-1,-1,-1,-1,210,-1,1,-1,-1,-1,-1,,9999,0,1,3,FEW 3   SCT 9   BKN 12,-1,4,-1,4,1005,RJEC 022300Z 21001KT 9999 -SHSN FEW003 SCT009 BKN012 M04/M04     Q1005 RMK 1ST003 4ST009 7ST012 A2969=,- SN SH
20180103_000000.002,1,RJEC,,,,0,20180103000000,-1,-1,-1,-1,330,-1,6,-1,-1,-1,-1,,7000,0,1,3,FEW 3   BKN 5   BKN 10,-1,3,-1,4,1006,RJEC 030000Z 33006KT 7000 -SHSN FEW003 BKN005 BKN010 M03/M04     Q1006 RMK 2ST003 5ST005 7ST010 A2972=,- SN SH
20180103_010000.002,1,RJEC,,,,0,20180103010000,-1,-1,-1,-1,330,-1,8,-1,-1,-1,-1,,9999,0,0,3,FEW 3   SCT 25   BKN 40,-1,3,-1,4,1006,RJEC 030100Z 33008KT 9999 FEW003 SCT025 BKN040 M03/M04 Q1006     RMK 1ST003 3CU025 5CU040 A2973=,
20180103_020000.002,1,RJEC,,,,0,20180103020000,-1,-1,-1,-1,330,-1,5,-1,-1,-1,-1,,9999,0,0,3,FEW 3   SCT 25   BKN 40,-1,3,-1,4,1006,RJEC 030200Z 33005KT 9999 FEW003 SCT025 BKN040 M03/M04 Q1006     RMK 1ST003 3CU025 5CU040 A2973=,
20180103_030000.003,1,RJEC,,,,0,20180103030000,-1,-1,-1,-1,360,-1,12,-1,-1,-1,-1,,9999,0,1,3,FEW 10   SCT 25   BKN 40,-1,2,-1,6,1007,RJEC 030300Z 36012KT 9999 VCSH FEW010 SCT025 BKN040 M02/M06     Q1007 RMK 1ST010 3CU025 6CU040 A2974 SH SW-W=,VC SH
20180103_040000.002,1,RJEC,,,,0,20180103040000,-1,-1,-1,-1,360,-1,12,-1,-1,-1,-1,,9999,0,0,3,FEW 10   BKN 40   BKN 80,-1,2,-1,6,1007,RJEC 030400Z 36012KT 9999 FEW010 BKN040 BKN080 M02/M06 Q1007     RMK 1ST010 5CU040 7AC080 A2974=,
20180103_050000.002,1,RJEC,,,,0,20180103050000,-1,-1,-1,-1,350,-1,14,-1,-1,-1,-1,,9999,0,0,3,FEW 10   SCT 40   BKN 80,-1,2,-1,6,1007,RJEC 030500Z 35014KT 9999 FEW010 SCT040 BKN080 M02/M06 Q1007     RMK 1ST010 4CU040 7AC080 A2976=,
20180103_060000.002,1,RJEC,,,,0,20180103060000,-1,-1,-1,-1,340,-1,10,-1,-1,-1,-1,,9999,0,0,3,FEW 25   SCT 40   BKN 80,-1,4,-1,7,1008,RJEC 030600Z 34010KT 9999 FEW025 SCT040 BKN080 M04/M07 Q1008     RMK 1CU025 3CU040 5AC080 A2978=,
20180103_070000.002,1,RJEC,,,,0,20180103070000,-1,-1,-1,-1,340,-1,10,-1,-1,-1,-1,,9999,0,0,3,FEW 25   SCT 80   BKN 150,-1,6,-1,8,1009,RJEC 030700Z 34010KT 9999 FEW025 SCT080 BKN150 M06/M08 Q1009     RMK 1CU025 4AC080 7AC150 A2980=,
20180103_080000.002,1,RJEC,,,,0,20180103080000,-1,-1,-1,-1,330,-1,7,-1,-1,-1,-1,,9999,0,0,3,FEW 10   SCT 20   BKN 40,-1,7,-1,9,1010,RJEC 030800Z 33007KT 9999 FEW010 SCT020 BKN040 M07/M09 Q1010     RMK 1ST010 3CU020 5CU040 A2983=,
20180103_090000.002,1,RJEC,,,,0,20180103090000,-1,-1,-1,-1,330,-1,12,-1,-1,-1,-1,,9999,0,1,3,FEW 10   SCT 20   BKN 40,-1,5,-1,6,1010,RJEC 030900Z 33012KT 9999 -SHSN FEW010 SCT020 BKN040 M05/M06     Q1010 RMK 1ST010 3CU020 7CU040 A2985=,- SN SH
20180103_100000.002,1,RJEC,,,,0,20180103100000,-1,-1,-1,-1,999,-1,2,-1,-1,-1,-1,,9999,0,0,3,FEW 15   SCT 25   BKN 50,-1,5,-1,7,1011,RJEC 031000Z VRB02KT 9999 FEW015 SCT025 BKN050 M05/M07 Q1011     RMK 1ST015 3CU025 7CU050 A2986=,
20180103_110000.002,1,RJEC,,,,0,20180103110000,-1,-1,-1,-1,60,-1,3,-1,-1,10,90,,9999,0,0,3,FEW 10   SCT 20   BKN 40,-1,6,-1,7,1011,RJEC 031100Z 06003KT 010V090 9999 FEW010 SCT020 BKN040 M06/M07     Q1011 RMK 1ST010 3CU020 7CU040 A2987=,
20180103_220000.002,0,RJEC,,,,0,20180103220000,-1,-1,-1,-1,260,-1,3,-1,-1,220,300,,9999,0,1,3,FEW 10   SCT 20   BKN 40,-1,6,-1,8,1013,RJEC 032200Z 26003KT 220V300 9999 -SHSN FEW010 SCT020 BKN040     M06/M08 Q1013 RMK 1ST010 3CU020 6CU040 A2993=,- SN SH
20180103_230000.002,1,RJEC,,,,0,20180103230000,-1,-1,-1,-1,999,-1,1,-1,-1,-1,-1,,9999,0,1,3,FEW 10   SCT 20   BKN 40,-1,7,-1,8,1013,RJEC 032300Z VRB01KT 9999 -SHSN FEW010 SCT020 BKN040 M07/M08     Q1013 RMK 1ST010 3CU020 6CU040 A2993=,- SN SH
20180104_000000.002,1,RJEC,,,,0,20180104000000,-1,-1,-1,-1,999,-1,2,-1,-1,-1,-1,,9999,0,1,3,FEW 15   SCT 20   BKN 40,-1,6,-1,8,1013,RJEC 040000Z VRB02KT 9999 -SHSN FEW015 SCT020 BKN040 M06/M08     Q1013 RMK 1ST015 3CU020 6CU040 A2993=,- SN SH
20180104_010000.002,1,RJEC,,,,0,20180104010000,-1,-1,-1,-1,340,-1,4,-1,-1,-1,-1,,9999,0,1,3,FEW 15   SCT 25   BKN 45,-1,6,-1,7,1013,RJEC 040100Z 34004KT 9999 -SHSN FEW015 SCT025 BKN045 M06/M07     Q1013 RMK 1ST015 3CU025 6CU045 A2992=,- SN SH
20180104_020000.002,1,RJEC,,,,0,20180104020000,-1,-1,-1,-1,360,-1,3,-1,-1,-1,-1,,9999,0,1,3,FEW 15   SCT 25   BKN 45,-1,5,-1,7,1012,RJEC 040200Z 36003KT 9999 -SHSN FEW015 SCT025 BKN045 M05/M07     Q1012 RMK 1ST015 3CU025 6CU045 A2991=,- SN SH
20180104_030000.002,1,RJEC,,,,0,20180104030000,-1,-1,-1,-1,10,-1,4,-1,-1,-1,-1,,9999,0,1,3,FEW 15   SCT 25   BKN 45,-1,5,-1,7,1012,RJEC 040300Z 01004KT 9999 -SHSN FEW015 SCT025 BKN045 M05/M07     Q1012 RMK 1ST015 3CU025 6CU045 A2989=,- SN SH
20180104_040000.002,1,RJEC,,,,0,20180104040000,-1,-1,-1,-1,320,-1,3,-1,-1,-1,-1,,9999,0,1,3,FEW 15   SCT 25   BKN 45,-1,5,-1,7,1011,RJEC 040400Z 32003KT 9999 -SHSN FEW015 SCT025 BKN045 M05/M07     Q1011 RMK 1ST015 3CU025 7CU045 A2988=,- SN SH
20180104_050000.002,1,RJEC,,,,0,20180104050000,-1,-1,-1,-1,999,-1,2,-1,-1,-1,-1,,9999,0,1,3,FEW 15   SCT 25   BKN 45,-1,4,-1,7,1011,RJEC 040500Z VRB02KT 9999 -SHSN FEW015 SCT025 BKN045 M04/M07     Q1011 RMK 1ST015 3CU025 7CU045 A2988=,- SN SH
20180104_060000.003,1,RJEC,,,,0,20180104060000,-1,-1,-1,-1,999,-1,2,-1,-1,-1,-1,,9999,0,1,3,FEW 15   SCT 25   BKN 45,-1,4,-1,7,1012,RJEC 040600Z VRB02KT 9999 -SHSN FEW015 SCT025 BKN045 M04/M07     Q1012 RMK 1ST015 3CU025 7CU045 A2990=,- SN SH
20180104_070000.002,1,RJEC,,,,0,20180104070000,-1,-1,-1,-1,320,-1,1,-1,-1,-1,-1,,9999,0,1,3,FEW 15   SCT 25   BKN 50,-1,5,-1,8,1012,RJEC 040700Z 32001KT 9999 -SHSN FEW015 SCT025 BKN050 M05/M08     Q1012 RMK 1ST015 3CU025 7CU050 A2990=,- SN SH
20180104_080000.002,1,RJEC,,,,0,20180104080000,-1,-1,-1,-1,100,-1,2,-1,-1,-1,-1,,9999,0,1,3,FEW 15   SCT 25   BKN 50,-1,5,-1,7,1012,RJEC 040800Z 10002KT 9999 -SHSN FEW015 SCT025 BKN050 M05/M07     Q1012 RMK 1ST015 3CU025 7CU050 A2990=,- SN SH
20180104_090000.002,1,RJEC,,,,0,20180104090000,-1,-1,-1,-1,120,-1,2,-1,-1,-1,-1,,9999,0,1,3,FEW 15   SCT 25   BKN 50,-1,6,-1,7,1012,RJEC 040900Z 12002KT 9999 -SHSN FEW015 SCT025 BKN050 M06/M07     Q1012 RMK 1ST015 3CU025 7CU050 A2991=,- SN SH
20180104_100000.002,1,RJEC,,,,0,20180104100000,-1,-1,-1,-1,210,-1,1,-1,-1,-1,-1,,9999,0,1,3,FEW 10   SCT 20   BKN 50,-1,6,-1,7,1013,RJEC 041000Z 21001KT 9999 -SHSN FEW010 SCT020 BKN050 M06/M07     Q1013 RMK 1ST010 3CU020 7CU050 A2992=,- SN SH
20180104_110000.002,1,RJEC,,,,0,20180104110000,-1,-1,-1,-1,999,-1,2,-1,-1,-1,-1,,9999,0,1,3,FEW 10   SCT 20   BKN 50,-1,6,-1,7,1013,RJEC 041100Z VRB02KT 9999 -SHSN FEW010 SCT020 BKN050 M06/M07     Q1013 RMK 1ST010 3CU020 7CU050 A2992=,- SN SH
20180104_220000.002,0,RJEC,,,,0,20180104220000,-1,-1,-1,-1,160,-1,5,-1,-1,-1,-1,,7000,0,1,3,FEW 3   SCT 15   BKN 35,-1,5,-1,6,1011,RJEC 042200Z 16005KT 7000 -SHSN FEW003 SCT015 BKN035 M05/M06     Q1011 RMK 1ST003 3ST015 6CU035 A2988=,- SN SH
20180104_230000.002,1,RJEC,,,,0,20180104230000,-1,-1,-1,-1,190,-1,5,-1,-1,-1,-1,,3500,0,1,3,FEW 3   SCT 12   BKN 25,-1,5,-1,6,1011,RJEC 042300Z 19005KT 3500 -SHSN FEW003 SCT012 BKN025 M05/M06     Q1011 RMK 1ST003 3ST012 7CU025 A2988=,- SN SH
20180105_000000.002,1,RJEC,,,,0,20180105000000,-1,-1,-1,-1,180,-1,5,-1,-1,-1,-1,,2000,1,1,3,FEW 3   SCT 10   BKN 25,-1,4,-1,5,1011,RJEC 050000Z 18005KT 2000 R34/1000VP2000D -SHSN FEW003 SCT010     BKN025 M04/M05 Q1011 RMK 1ST003 3ST010 7CU025 A2987=,- SN SH
20180105_010000.003,1,RJEC,,,,0,20180105010000,-1,-1,-1,-1,140,-1,5,-1,-1,-1,-1,,9999,0,1,3,FEW 10   SCT 25   BKN 45,-1,3,-1,5,1010,RJEC 050100Z 14005KT 9999 -SHSN FEW010 SCT025 BKN045 M03/M05     Q1010 RMK 1ST010 3CU025 6CU045 A2984=,- SN SH
20180105_020000.002,1,RJEC,,,,0,20180105020000,-1,-1,-1,-1,190,-1,5,-1,-1,-1,-1,,9999,0,1,3,FEW 10   SCT 30   BKN 45,-1,3,-1,5,1010,RJEC 050200Z 19005KT 9999 -SHSN FEW010 SCT030 BKN045 M03/M05     Q1010 RMK 1ST010 3CU030 6CU045 A2982=,- SN SH
20180105_030000.002,1,RJEC,,,,0,20180105030000,-1,-1,-1,-1,160,-1,8,-1,-1,-1,-1,,9999,0,1,3,FEW 15   SCT 30   BKN 50,-1,3,-1,5,1009,RJEC 050300Z 16008KT 9999 -SHSN FEW015 SCT030 BKN050 M03/M05     Q1009 RMK 1ST015 3CU030 7CU050 A2979=,- SN SH
20180105_040000.002,1,RJEC,,,,0,20180105040000,-1,-1,-1,-1,170,-1,9,-1,-1,-1,-1,,5000,0,1,3,FEW 8   SCT 15   BKN 30,-1,3,-1,5,1008,RJEC 050400Z 17009KT 5000 -SHSN FEW008 SCT015 BKN030 M03/M05     Q1008 RMK 1ST008 3ST015 6CU030 A2977=,- SN SH
20180105_050000.002,1,RJEC,,,,0,20180105050000,-1,-1,-1,-1,170,-1,9,-1,-1,-1,-1,,7000,0,1,3,FEW 8   SCT 15   BKN 25,-1,3,-1,4,1008,RJEC 050500Z 17009KT 7000 -SHSN FEW008 SCT015 BKN025 M03/M04     Q1008 RMK 1ST008 3ST015 6CU025 A2977=,- SN SH
20180105_060000.002,1,RJEC,,,,0,20180105060000,-1,-1,-1,-1,160,-1,8,-1,-1,-1,-1,,4000,0,1,3,FEW 5   SCT 15   BKN 20,-1,3,-1,4,1007,RJEC 050600Z 16008KT 4000 -SHSN FEW005 SCT015 BKN020 M03/M04     Q1007 RMK 1ST005 3ST015 7CU020 A2976=,- SN SH
20180105_070000.002,1,RJEC,,,,0,20180105070000,-1,-1,-1,-1,170,-1,6,-1,-1,-1,-1,,8000,0,1,3,FEW 5   SCT 15   BKN 20,-1,2,-1,4,1007,RJEC 050700Z 17006KT 8000 -SHSN FEW005 SCT015 BKN020 M02/M04     Q1007 RMK 1ST005 3ST015 7CU020 A2976=,- SN SH
20180105_080000.002,1,RJEC,,,,0,20180105080000,-1,-1,-1,-1,210,-1,5,-1,-1,-1,-1,,9999,0,1,3,FEW 10   SCT 25   BKN 40,-1,2,-1,5,1007,RJEC 050800Z 21005KT 9999 -SHSN FEW010 SCT025 BKN040 M02/M05     Q1007 RMK 1ST010 3CU025 7CU040 A2976=,- SN SH
20180105_090000.002,1,RJEC,,,,0,20180105090000,-1,-1,-1,-1,999,-1,2,-1,-1,-1,-1,,9999,0,1,3,FEW 8   SCT 12   BKN 25,-1,2,-1,4,1007,RJEC 050900Z VRB02KT 9999 -SHSN FEW008 SCT012 BKN025 M02/M04     Q1007 RMK 2ST008 4ST012 7CU025 A2976=,- SN SH
20180105_100000.002,1,RJEC,,,,0,20180105100000,-1,-1,-1,-1,80,-1,3,-1,-1,-1,-1,,9999,0,1,3,FEW 10   SCT 20   BKN 40,-1,3,-1,4,1007,RJEC 051000Z 08003KT 9999 -SHSN FEW010 SCT020 BKN040 M03/M04     Q1007 RMK 1ST010 3CU020 7CU040 A2976=,- SN SH
20180105_110000.002,1,RJEC,,,,0,20180105110000,-1,-1,-1,-1,160,-1,3,-1,-1,70,190,,9999,0,1,3,FEW 10   SCT 20   BKN 40,-1,3,-1,5,1007,RJEC 051100Z 16003KT 070V190 9999 -SHSN FEW010 SCT020 BKN040     M03/M05 Q1007 RMK 1ST010 3CU020 7CU040 A2975=,- SN SH
20180105_220000.002,0,RJEC,,,,0,20180105220000,-1,-1,-1,-1,170,-1,8,-1,-1,-1,-1,,3100,0,1,3,FEW 3   SCT 12   BKN 25,-1,4,-1,4,1003,RJEC 052200Z 17008KT 3100 -SHSN FEW003 SCT012 BKN025 M04/M04     Q1003 RMK 1ST003 3ST012 7CU025 A2963=,- SN SH
20180105_230000.002,1,RJEC,,,,0,20180105230000,-1,-1,-1,-1,170,-1,9,-1,-1,-1,-1,,7000,0,1,3,FEW 5   SCT 15   BKN 45,-1,3,-1,4,1003,RJEC 052300Z 17009KT 7000 -SHSN FEW005 SCT015 BKN045 M03/M04     Q1003 RMK 1ST005 3ST015 6CU045 A2963=,- SN SH
20180106_000000.002,1,RJEC,,,,0,20180106000000,-1,-1,-1,-1,160,-1,7,-1,-1,-1,-1,,3200,0,1,3,FEW 3   SCT 12   BKN 30,-1,3,-1,4,1003,RJEC 060000Z 16007KT 3200 -SHSN FEW003 SCT012 BKN030 M03/M04     Q1003 RMK 1ST003 3ST012 6CU030 A2963=,- SN SH
20180106_010000.002,1,RJEC,,,,0,20180106010000,-1,-1,-1,-1,180,-1,7,-1,-1,-1,-1,,4000,0,1,3,FEW 3   SCT 15   BKN 40,-1,3,-1,4,1003,RJEC 060100Z 18007KT 4000 -SHSN FEW003 SCT015 BKN040 M03/M04     Q1003 RMK 1ST003 3ST015 6CU040 A2963=,- SN SH
20180106_020000.002,1,RJEC,,,,0,20180106020000,-1,-1,-1,-1,170,-1,6,-1,-1,-1,-1,,9999,0,0,3,FEW 5   SCT 15   BKN 50,-1,3,-1,5,1002,RJEC 060200Z 17006KT 9999 FEW005 SCT015 BKN050 M03/M05 Q1002     RMK 1ST005 3ST015 5CU050 A2961=,
20180106_030000.002,1,RJEC,,,,0,20180106030000,-1,-1,-1,-1,170,-1,5,-1,-1,-1,-1,,4900,0,1,3,FEW 5   SCT 15   BKN 25,-1,2,-1,4,1001,RJEC 060300Z 17005KT 4900 -SHSN FEW005 SCT015 BKN025 M02/M04     Q1001 RMK 1ST005 3ST015 6CU025 A2958=,- SN SH
20180106_040000.002,1,RJEC,,,,0,20180106040000,-1,-1,-1,-1,160,-1,3,-1,-1,110,190,,9999,0,1,3,FEW 8   SCT 15   BKN 50,-1,2,-1,4,1001,RJEC 060400Z 16003KT 110V190 9999 -SHSN FEW008 SCT015 BKN050     M02/M04 Q1001 RMK 1ST008 3ST015 5CU050 A2956=,- SN SH
20180106_050000.002,1,RJEC,,,,0,20180106050000,-1,-1,-1,-1,999,-1,2,-1,-1,-1,-1,,3000,1,1,3,FEW 5   SCT 15   BKN 20,-1,3,-1,4,1001,RJEC 060500Z VRB02KT 3000 R34/2000N -SHSN FEW005 SCT015 BKN020     M03/M04 Q1001 RMK 1ST005 3ST015 6CU020 A2957=,- SN SH
20180106_060000.002,1,RJEC,,,,0,20180106060000,-1,-1,-1,-1,330,-1,7,-1,-1,-1,-1,,1500,1,1,3,FEW 3   SCT 8   BKN 12,-1,3,-1,4,1001,RJEC 060600Z 33007KT 1500 R34/1300VP2000U -SHSN FEW003 SCT008     BKN012 M03/M04 Q1001 RMK 2ST003 4ST008 7ST012 A2957=,- SN SH
20180106_070000.002,1,RJEC,,,,0,20180106070000,-1,-1,-1,-1,330,-1,3,-1,-1,300,10,,9999,0,1,3,FEW 10   SCT 25   BKN 40,-1,4,-1,5,1001,RJEC 060700Z 33003KT 300V010 9999 -SHSN FEW010 SCT025 BKN040     M04/M05 Q1001 RMK 1ST010 3CU025 7CU040 A2958=,- SN SH
20180106_080000.002,1,RJEC,,,,0,20180106080000,-1,-1,-1,-1,310,-1,4,-1,-1,-1,-1,,9999,0,1,3,FEW 10   SCT 25   BKN 50,-1,4,-1,6,1002,RJEC 060800Z 31004KT 9999 -SHSN FEW010 SCT025 BKN050 M04/M06     Q1002 RMK 1ST010 3CU025 5CU050 A2959=,- SN SH
20180106_090000.002,1,RJEC,,,,0,20180106090000,-1,-1,-1,-1,300,-1,6,-1,-1,-1,-1,,3100,0,1,3,FEW 8   SCT 15   BKN 25,-1,4,-1,5,1003,RJEC 060900Z 30006KT 3100 -SHSN FEW008 SCT015 BKN025 M04/M05     Q1003 RMK 2ST008 4ST015 7CU025 A2962=,- SN SH
20180106_100000.002,1,RJEC,,,,0,20180106100000,-1,-1,-1,-1,999,-1,1,-1,-1,-1,-1,,9999,0,1,3,FEW 10   SCT 25   BKN 50,-1,5,-1,6,1003,RJEC 061000Z VRB01KT 9999 -SHSN FEW010 SCT025 BKN050 M05/M06     Q1003 RMK 1ST010 3CU025 5CU050 A2963=,- SN SH
20180106_110000.002,1,RJEC,,,,0,20180106110000,-1,-1,-1,-1,320,-1,5,-1,-1,-1,-1,,1400,1,1,3,FEW 3   SCT 8   BKN 12,-1,4,-1,5,1004,RJEC 061100Z 32005KT 1400 R34/1400VP2000N -SHSN FEW003 SCT008     BKN012 M04/M05 Q1004 RMK 2ST003 4ST008 7ST012 A2965=,- SN SH
20180106_220000.002,0,RJEC,,,,0,20180106220000,-1,-1,-1,-1,180,-1,4,-1,-1,-1,-1,,7000,0,1,3,FEW 3   SCT 15   BKN 25,-1,7,-1,8,1010,RJEC 062200Z 18004KT 7000 -SHSN FEW003 SCT015 BKN025 M07/M08     Q1010 RMK 1ST003 3ST015 6CU025 A2983=,- SN SH
20180106_230000.002,1,RJEC,,,,0,20180106230000,-1,-1,-1,-1,190,-1,3,-1,-1,150,230,,2000,1,1,3,FEW 3   SCT 10   BKN 15,-1,6,-1,7,1010,RJEC 062300Z 19003KT 150V230 2000 R34/1600VP2000N -SHSN FEW003     SCT010 BKN015 M06/M07 Q1010 RMK 1ST003 3ST010 6ST015           A2985=,- SN SH
20180107_000000.002,1,RJEC,,,,0,20180107000000,-1,-1,-1,-1,140,-1,4,-1,-1,-1,-1,,1500,1,1,3,FEW 3   SCT 10   BKN 15,-1,6,-1,7,1011,RJEC 070000Z 14004KT 1500 R34/1200VP2000U -SHSN FEW003 SCT010     BKN015 M06/M07 Q1011 RMK 1ST003 4ST010 6ST015 A2986=,- SN SH
20180107_010000.003,1,RJEC,,,,0,20180107010000,-1,-1,-1,-1,170,-1,5,-1,-1,-1,-1,,1500,1,1,3,FEW 3   SCT 8   BKN 15,-1,6,-1,7,1011,RJEC 070100Z 17005KT 1500 R34/1200VP2000U -SHSN FEW003 SCT008     BKN015 M06/M07 Q1011 RMK 1ST003 3ST008 6ST015 A2988=,- SN SH
20180107_020000.002,1,RJEC,,,,0,20180107020000,-1,-1,-1,-1,999,-1,2,-1,-1,-1,-1,,1600,1,1,3,FEW 5   SCT 12   BKN 18,-1,5,-1,6,1012,RJEC 070200Z VRB02KT 1600 R34/0900VP2000U -SHSN FEW005 SCT012     BKN018 M05/M06 Q1012 RMK 2ST005 4ST012 7ST018 A2990=,- SN SH
20180107_030000.002,1,RJEC,,,,0,20180107030000,-1,-1,-1,-1,260,-1,3,-1,-1,180,310,,8000,0,1,3,FEW 8   SCT 20   BKN 30,-1,5,-1,7,1012,RJEC 070300Z 26003KT 180V310 8000 -SHSN FEW008 SCT020 BKN030     M05/M07 Q1012 RMK 1ST008 3CU020 6CU030 A2989=,- SN SH
20180107_040000.002,1,RJEC,,,,0,20180107040000,-1,-1,-1,-1,999,-1,2,-1,-1,-1,-1,,1500,1,1,3,FEW 3   SCT 8   BKN 12,-1,5,-1,6,1012,RJEC 070400Z VRB02KT 1500 R34/1000VP2000U -SHSN FEW003 SCT008     BKN012 M05/M06 Q1012 RMK 2ST003 4ST008 7ST012 A2991=,- SN SH
20180107_050000.002,1,RJEC,,,,0,20180107050000,-1,-1,-1,-1,150,-1,7,-1,-1,-1,-1,,5000,0,1,3,FEW 8   SCT 15   BKN 30,-1,5,-1,6,1013,RJEC 070500Z 15007KT 5000 -SHSN FEW008 SCT015 BKN030 M05/M06     Q1013 RMK 2ST008 4ST015 7CU030 A2992=,- SN SH
20180107_060000.002,1,RJEC,,,,0,20180107060000,-1,-1,-1,-1,160,-1,7,-1,-1,-1,-1,,9999,0,1,3,FEW 10   SCT 25   BKN 40,-1,6,-1,8,1013,RJEC 070600Z 16007KT 9999 -SHSN FEW010 SCT025 BKN040 M06/M08     Q1013 RMK 1ST010 3CU025 5CU040 A2992=,- SN SH
20180107_070000.002,1,RJEC,,,,0,20180107070000,-1,-1,-1,-1,180,-1,6,-1,-1,-1,-1,,9999,0,1,2,FEW 10   SCT 25,-1,7,-1,10,1013,RJEC 070700Z 18006KT 9999 VCSH FEW010 SCT025 M07/M10 Q1013 RMK     1ST010 3CU025 A2994 SH W-N=,VC SH
20180107_080000.002,1,RJEC,,,,0,20180107080000,-1,-1,-1,-1,160,-1,8,-1,-1,-1,-1,,9999,0,0,3,FEW 10   SCT 25   BKN 40,-1,6,-1,9,1014,RJEC 070800Z 16008KT 9999 FEW010 SCT025 BKN040 M06/M09 Q1014     RMK 1ST010 3CU025 6CU040 A2996=,
20180107_090000.002,1,RJEC,,,,0,20180107090000,-1,-1,-1,-1,150,-1,10,-1,-1,-1,-1,,9999,0,1,3,FEW 10   SCT 18   BKN 25,-1,5,-1,8,1015,RJEC 070900Z 15010KT 9999 -SHSN FEW010 SCT018 BKN025 M05/M08     Q1015 RMK 1ST010 3ST018 6CU025 A2997=,- SN SH
20180107_100000.002,1,RJEC,,,,0,20180107100000,-1,-1,-1,-1,150,-1,8,-1,-1,-1,-1,,9999,0,1,3,FEW 10   SCT 25   BKN 50,-1,5,-1,8,1014,RJEC 071000Z 15008KT 9999 -SHSN FEW010 SCT025 BKN050 M05/M08     Q1014 RMK 1ST010 3CU025 6CU050 A2996=,- SN SH
20180107_110000.002,1,RJEC,,,,0,20180107110000,-1,-1,-1,-1,170,-1,8,-1,-1,-1,-1,,7000,0,1,3,FEW 8   SCT 15   BKN 25,-1,5,-1,7,1014,RJEC 071100Z 17008KT 7000 -SHSN FEW008 SCT015 BKN025 M05/M07     Q1014 RMK 1ST008 3ST015 6CU025 A2996=,- SN SH
20180107_220000.002,0,RJEC,,,,0,20180107220000,-1,-1,-1,-1,170,-1,10,-1,-1,-1,-1,,9999,0,1,3,FEW 10   SCT 25   BKN 40,-1,1,-1,4,1013,RJEC 072200Z 17010KT 9999 -SHSN FEW010 SCT025 BKN040 M01/M04     Q1013 RMK 1ST010 3CU025 7CU040 A2994=,- SN SH
20180107_230000.002,1,RJEC,,,,0,20180107230000,-1,-1,-1,-1,170,-1,10,-1,-1,-1,-1,,9999,0,1,3,FEW 10   SCT 25   BKN 40,-1,1,-1,5,1013,RJEC 072300Z 17010KT 9999 -SHSN FEW010 SCT025 BKN040 M01/M05     Q1013 RMK 1ST010 3CU025 7CU040 A2993=,- SN SH
20180108_000000.002,1,RJEC,,,,0,20180108000000,-1,-1,-1,-1,170,-1,6,-1,-1,-1,-1,,9999,0,1,3,FEW 10   SCT 20   BKN 30,-1,1,-1,4,1013,RJEC 080000Z 17006KT 9999 -SHSN FEW010 SCT020 BKN030 M01/M04     Q1013 RMK 1ST010 3CU020 7CU030 A2994=,- SN SH
20180108_010000.002,1,RJEC,,,,0,20180108010000,-1,-1,-1,-1,160,-1,10,-1,-1,-1,-1,,9999,0,0,3,FEW 20   SCT 30   BKN -9999,1,0,-1,4,1012,RJEC 080100Z 16010KT 9999 FEW020 SCT030 BKN/// 00/M04 Q1012     RMK 1CU020 4CU030 A2990=,
20180108_020000.002,1,RJEC,,,,0,20180108020000,-1,-1,-1,-1,170,-1,11,-1,-1,-1,-1,,9999,0,0,3,FEW 25   BKN 40   BKN -9999,1,0,-1,4,1011,RJEC 080200Z 17011KT 9999 FEW025 BKN040 BKN/// 00/M04 Q1011     RMK 1CU025 5CU040 A2988=,
20180108_030000.002,1,RJEC,,,,0,20180108030000,-1,-1,-1,-1,170,-1,11,-1,-1,-1,-1,,9999,0,0,3,FEW 25   BKN 40   BKN 130,1,1,-1,4,1011,RJEC 080300Z 17011KT 9999 FEW025 BKN040 BKN130 01/M04 Q1011     RMK 1CU025 5CU040 7AC130 A2986=,
20180108_040000.002,1,RJEC,,,,0,20180108040000,-1,-1,-1,-1,170,-1,10,-1,-1,-1,-1,,9999,0,0,3,FEW 25   SCT 35   BKN 50,1,1,-1,4,1010,RJEC 080400Z 17010KT 9999 FEW025 SCT035 BKN050 01/M04 Q1010     RMK 1CU025 3CU035 6CU050 A2983=,
20180108_050000.002,1,RJEC,,,,0,20180108050000,-1,-1,-1,-1,180,-1,11,-1,-1,-1,-1,,9999,0,0,3,FEW 25   SCT 35   BKN 50,1,1,-1,3,1009,RJEC 080500Z 18011KT 9999 FEW025 SCT035 BKN050 01/M03 Q1009     RMK 1CU025 3CU035 5CU050 A2980=,
20180108_060000.003,1,RJEC,,,,0,20180108060000,-1,-1,-1,-1,180,-1,9,-1,-1,-1,-1,,9999,0,0,3,FEW 25   SCT 35   BKN 50,1,1,-1,3,1009,RJEC 080600Z 18009KT 9999 FEW025 SCT035 BKN050 01/M03 Q1009     RMK 1CU025 3CU035 5CU050 A2980=,
20180108_070000.002,1,RJEC,,,,0,20180108070000,-1,-1,-1,-1,190,-1,8,-1,-1,-1,-1,,9999,0,0,3,FEW 25   SCT 50   BKN 100,1,1,-1,3,1008,RJEC 080700Z 19008KT 9999 FEW025 SCT050 BKN100 01/M03 Q1008     RMK 1CU025 3CU050 6AC100 A2978=,
20180108_080000.002,1,RJEC,,,,0,20180108080000,-1,-1,-1,-1,170,-1,9,-1,-1,-1,-1,,9999,0,0,3,FEW 25   SCT 50   BKN 80,1,1,-1,3,1008,RJEC 080800Z 17009KT 9999 FEW025 SCT050 BKN080 01/M03 Q1008     RMK 1CU025 3CU050 6AC080 A2977=,
20180108_090000.002,1,RJEC,,,,0,20180108090000,-1,-1,-1,-1,180,-1,9,-1,-1,-1,-1,,9999,0,0,3,FEW 25   SCT 50   BKN 110,1,0,-1,3,1007,RJEC 080900Z 18009KT 9999 FEW025 SCT050 BKN110 00/M03 Q1007     RMK 1CU025 3CU050 6AC110 A2974=,
20180108_100000.002,1,RJEC,,,,0,20180108100000,-1,-1,-1,-1,150,-1,6,-1,-1,-1,-1,,9999,0,0,3,FEW 25   SCT 50   BKN 140,-1,1,-1,3,1006,RJEC 081000Z 15006KT 9999 FEW025 SCT050 BKN140 M01/M03 Q1006     RMK 1CU025 3CU050 6AC140 A2973=,
20180108_110000.002,1,RJEC,,,,0,20180108110000,-1,-1,-1,-1,110,-1,4,-1,-1,-1,-1,,9999,0,0,3,FEW 15   SCT 50   BKN 90,-1,0,-1,3,1006,RJEC 081100Z 11004KT 9999 FEW015 SCT050 BKN090 M00/M03 Q1006     RMK 1ST015 3CU050 6AC090 A2972=,
20180108_220000.002,0,RJEC,,,,0,20180108220000,-1,-1,-1,-1,340,-1,4,-1,-1,-1,-1,,1800,1,1,3,FEW 3   SCT 8   BKN 12,-1,4,-1,4,988,RJEC 082200Z 34004KT 1800 R34/1800U -SHSN FEW003 SCT008 BKN012     M04/M04 Q0988 RMK 2ST003 4ST008 7ST012 A2917 P/FR=,- SN SH
20180108_230000.003,1,RJEC,,,,0,20180108230000,-1,-1,-1,-1,340,-1,3,-1,-1,320,20,,900,1,1,1,VV 8,-1,4,-1,4,987,RJEC 082300Z 34003KT 320V020 0900 R34/0900V1600N SHSN VV008     M04/M04 Q0987 RMK A2916=,SN SH
20180109_000000.002,1,RJEC,,,,0,20180109000000,-1,-1,-1,-1,320,-1,1,-1,-1,-1,-1,,900,1,1,1,VV 8,-1,3,-1,4,985,RJEC 090000Z 32001KT 0900 R34/1100V1500N SHSN VV008 M03/M04     Q0985 RMK A2911=,SN SH
20180109_010000.002,1,RJEC,,,,0,20180109010000,-1,-1,-1,-1,999,-1,1,-1,-1,-1,-1,,3500,0,1,3,FEW 5   SCT 15   BKN 25,-1,3,-1,3,983,RJEC 090100Z VRB01KT 3500 -SHSN FEW005 SCT015 BKN025 M03/M03     Q0983 RMK 1ST005 3ST015 6CU025 A2903 P/FR=,- SN SH
20180109_020000.002,1,RJEC,,,,0,20180109020000,-1,-1,-1,-1,160,-1,3,-1,-1,-1,-1,,7000,0,1,3,FEW 8   SCT 15   BKN 25,-1,2,-1,3,980,RJEC 090200Z 16003KT 7000 -SHSN FEW008 SCT015 BKN025 M02/M03     Q0980 RMK 1ST008 3ST015 6CU025 A2896 P/FR=,- SN SH
20180109_030000.002,1,RJEC,,,,0,20180109030000,-1,-1,-1,-1,999,-1,1,-1,-1,-1,-1,,9999,0,1,3,FEW 3   SCT 8   BKN 15,-1,2,-1,2,978,RJEC 090300Z VRB01KT 9999 -SHSN FEW003 SCT008 BKN015 M02/M02     Q0978 RMK 1ST003 3ST008 6ST015 A2889=,- SN SH
20180109_040000.002,1,RJEC,,,,0,20180109040000,-1,-1,-1,-1,320,-1,5,-1,-1,-1,-1,,1500,1,1,3,FEW 3   SCT 6   BKN 10,-1,2,-1,2,979,RJEC 090400Z 32005KT 1500 R34/1100VP2000U -SHSN FEW003 SCT006     BKN010 M02/M02 Q0979 RMK 2ST003 4ST006 7ST010 A2891=,- SN SH
20180109_050000.002,1,RJEC,,,,0,20180109050000,-1,-1,-1,-1,220,-1,10,-1,-1,-1,-1,,8000,0,1,3,FEW 3   SCT 15   BKN 25,1,3,1,0,979,RJEC 090500Z 22010KT 8000 -SHSNRA FEW003 SCT015 BKN025 03/00     Q0979 RMK 1ST003 3ST015 5CU025 A2893=,- SN RA SH
20180109_060000.002,1,RJEC,,,,0,20180109060000,-1,-1,-1,-1,230,-1,15,-1,-1,-1,-1,,9999,0,0,2,FEW 8   SCT 20,1,3,-1,0,979,RJEC 090600Z 23015KT 9999 FEW008 SCT020 03/M00 Q0979 RMK     1ST008 3CU020 A2892=,
20180109_070000.002,1,RJEC,,,,0,20180109070000,-1,-1,-1,-1,230,-1,12,-1,-1,190,260,,9999,0,0,2,FEW 8   SCT 30,1,3,-1,2,978,RJEC 090700Z 23012KT 190V260 9999 FEW008 SCT030 03/M02 Q0978     RMK 1ST008 3CU030 A2891=,
20180109_080000.002,1,RJEC,,,,0,20180109080000,-1,-1,-1,-1,240,-1,14,-1,-1,-1,-1,,9999,0,1,3,FEW 5   SCT 25   BKN 50,1,2,-1,2,978,RJEC 090800Z 24014KT 9999 VCSH FEW005 SCT025 BKN050 02/M02     Q0978 RMK 1ST005 3CU025 5CU050 A2890 SH NW=,VC SH
20180109_090000.002,1,RJEC,,,,0,20180109090000,-1,-1,-1,-1,250,-1,11,-1,-1,-1,-1,,900,1,1,1,VV 8,-1,0,-1,1,979,RJEC 090900Z 25011KT 0900 R34/0900V2000U SHSN VV008 M00/M01     Q0979 RMK A2891=,SN SH
20180109_100000.002,1,RJEC,,,,0,20180109100000,-1,-1,-1,-1,260,-1,7,-1,-1,210,330,,6000,0,1,3,FEW 3   SCT 12   BKN 20,-1,0,-1,3,979,RJEC 091000Z 26007KT 210V330 6000 -SHSN FEW003 SCT012 BKN020     M00/M03 Q0979 RMK 1ST003 3ST012 5CU020 A2892=,- SN SH
20180109_110000.002,1,RJEC,,,,0,20180109110000,-1,-1,-1,-1,240,-1,14,-1,-1,-1,-1,,5000,0,1,3,FEW 3   SCT 10   BKN 20,-1,1,-1,3,979,RJEC 091100Z 24014KT 5000 -SHSN FEW003 SCT010 BKN020 M01/M03     Q0979 RMK 1ST003 3ST010 6CU020 A2892=,- SN SH
20180109_220000.002,0,RJEC,,,,0,20180109220000,-1,-1,-1,-1,230,-1,5,-1,-1,150,310,,2000,1,1,3,FEW 3   SCT 8   BKN 12,-1,3,-1,4,988,RJEC 092200Z 23005KT 150V310 2000 R34/2000N -SHSN FEW003     SCT008 BKN012 M03/M04 Q0988 RMK 1ST003 3ST008 6ST012           A2918=,- SN SH
20180109_230000.002,1,RJEC,,,,0,20180109230000,-1,-1,-1,-1,170,-1,9,-1,-1,-1,-1,,700,1,1,1,VV 6,-1,3,-1,4,990,RJEC 092300Z 17009KT 0700 R34/0600V1200N SHSN VV006 M03/M04     Q0990 RMK A2924=,SN SH
20180110_000000.002,1,RJEC,,,,0,20180110000000,-1,-1,-1,-1,190,-1,8,-1,-1,170,230,,800,1,1,1,VV 7,-1,3,-1,4,991,RJEC 100000Z 19008KT 170V230 0800 R34/0700V1100N SHSN VV007     M03/M04 Q0991 RMK A2928=,SN SH
20180110_010000.002,1,RJEC,,,,0,20180110010000,-1,-1,-1,-1,220,-1,11,-1,-1,-1,-1,,800,1,1,1,VV 7,-1,4,-1,5,992,RJEC 100100Z 22011KT 0800 R34/0900N SHSN VV007 M04/M05 Q0992     RMK A2930=,SN SH
20180110_020000.002,1,RJEC,,,,0,20180110020000,-1,-1,-1,-1,180,-1,10,-1,21,150,230,,1800,1,1,3,FEW 3   SCT 10   BKN 15,-1,3,-1,5,993,RJEC 100200Z 18010G21KT 150V230 1800 R34/0900VP2000D -SHSN     FEW003 SCT010 BKN015 M03/M05 Q0993 RMK 1ST003 3ST010           6ST015 A2932=,- SN SH
20180110_030000.002,1,RJEC,,,,0,20180110030000,-1,-1,-1,-1,180,-1,12,-1,-1,130,210,,3500,0,1,3,FEW 6   SCT 15   BKN 25,-1,3,-1,6,993,RJEC 100300Z 18012KT 130V210 3500 -SHSN FEW006 SCT015 BKN025     M03/M06 Q0993 RMK 1ST006 3ST015 6CU025 A2934=,- SN SH
20180110_040000.003,1,RJEC,,,,0,20180110040000,-1,-1,-1,-1,200,-1,9,-1,19,150,250,,9999,0,1,3,FEW 10   SCT 18   BKN 25,-1,3,-1,8,994,RJEC 100400Z 20009G19KT 150V250 9999 -SHSN FEW010 SCT018     BKN025 M03/M08 Q0994 RMK 1ST010 3ST018 6CU025 A2936=,- SN SH
20180110_050000.002,1,RJEC,,,,0,20180110050000,-1,-1,-1,-1,210,-1,13,-1,-1,180,240,,8000,0,1,3,FEW 8   SCT 18   BKN 25,-1,3,-1,8,995,RJEC 100500Z 21013KT 180V240 8000 -SHSN FEW008 SCT018 BKN025     M03/M08 Q0995 RMK 1ST008 3ST018 6CU025 A2939=,- SN SH
20180110_060000.002,1,RJEC,,,,0,20180110060000,-1,-1,-1,-1,220,-1,8,-1,-1,-1,-1,,9999,0,1,3,FEW 10   SCT 30   BKN 90,-1,3,-1,9,996,RJEC 100600Z 22008KT 9999 -SHSN FEW010 SCT030 BKN090 M03/M09     Q0996 RMK 1ST010 4CU030 6AC090 A2943=,- SN SH
20180110_070000.002,1,RJEC,,,,0,20180110070000,-1,-1,-1,-1,220,-1,12,-1,23,180,260,,9999,0,1,3,FEW 15   SCT 35   BKN 60,-1,3,-1,9,998,RJEC 100700Z 22012G23KT 180V260 9999 VCSH FEW015 SCT035 BKN060     M03/M09 Q0998 RMK 1ST015 3CU035 6CU060 A2947 SH NW=,VC SH
20180110_080000.002,1,RJEC,,,,0,20180110080000,-1,-1,-1,-1,210,-1,7,-1,-1,-1,-1,,9999,0,1,3,FEW 10   SCT 15   BKN 30,-1,5,-1,9,999,RJEC 100800Z 21007KT 9999 -SHSN FEW010 SCT015 BKN030 M05/M09     Q0999 RMK 1ST010 3ST015 6CU030 A2950=,- SN SH
20180110_090000.002,1,RJEC,,,,0,20180110090000,-1,-1,-1,-1,190,-1,11,-1,-1,-1,-1,,9999,0,1,3,FEW 15   SCT 20   BKN 100,-1,5,-1,11,999,RJEC 100900Z 19011KT 9999 -SHSN FEW015 SCT020 BKN100 M05/M11     Q0999 RMK 1ST015 3CU020 7AC100 A2953=,- SN SH
20180110_100000.002,1,RJEC,,,,0,20180110100000,-1,-1,-1,-1,180,-1,11,-1,-1,-1,-1,,9999,0,0,3,FEW 15   SCT 30   BKN 70,-1,6,-1,11,1000,RJEC 101000Z 18011KT 9999 FEW015 SCT030 BKN070 M06/M11 Q1000     RMK 1ST015 3CU030 5AC070 A2954=,
20180110_110000.002,1,RJEC,,,,0,20180110110000,-1,-1,-1,-1,160,-1,9,-1,-1,-1,-1,,9999,0,0,2,FEW 15   BKN 30,-1,8,-1,12,1000,RJEC 101100Z 16009KT 9999 FEW015 BKN030 M08/M12 Q1000 RMK     1ST015 5CU030 A2955=,
20180110_220000.002,0,RJEC,,,,0,20180110220000,-1,-1,-1,-1,150,-1,12,-1,-1,-1,-1,,9999,0,0,1,FEW 20,-1,12,-1,16,1004,RJEC 102200Z 15012KT 9999 FEW020 M12/M16 Q1004 RMK 1CU020     A2967=,
20180110_230000.003,1,RJEC,,,,0,20180110230000,-1,-1,-1,-1,180,-1,8,-1,-1,-1,-1,,9999,0,0,1,FEW 30,-1,13,-1,16,1005,RJEC 102300Z 18008KT 9999 FEW030 M13/M16 Q1005 RMK 1CU030     A2969=,
20180111_000000.002,1,RJEC,,,,0,20180111000000,-1,-1,-1,-1,160,-1,12,-1,-1,-1,-1,,9999,0,0,1,FEW 30,-1,10,-1,15,1006,RJEC 110000Z 16012KT 9999 FEW030 M10/M15 Q1006 RMK 1CU030     A2971=,
20180111_010000.002,1,RJEC,,,,0,20180111010000,-1,-1,-1,-1,160,-1,13,-1,-1,-1,-1,,9999,0,0,1,FEW 30,-1,8,-1,13,1006,RJEC 110100Z 16013KT 9999 FEW030 M08/M13 Q1006 RMK 1CU030     A2971=,
20180111_020000.002,1,RJEC,,,,0,20180111020000,-1,-1,-1,-1,170,-1,11,-1,-1,-1,-1,,9999,0,0,1,FEW 30,-1,6,-1,12,1005,RJEC 110200Z 17011KT 9999 FEW030 M06/M12 Q1005 RMK 1CU030     A2970=,
20180111_030000.001,1,RJEC,,,,0,20180111030000,-1,-1,-1,-1,160,-1,11,-1,-1,-1,-1,,9999,0,0,1,FEW 30,-1,5,-1,13,1005,RJEC 110300Z 16011KT 9999 FEW030 M05/M13 Q1005 RMK 1CU030     A2968=,
20180111_040000.002,1,RJEC,,,,0,20180111040000,-1,-1,-1,-1,160,-1,7,-1,-1,-1,-1,,9999,0,0,1,FEW 30,-1,5,-1,13,1004,RJEC 110400Z 16007KT 9999 FEW030 M05/M13 Q1004 RMK 1CU030     A2967=,
20180111_050000.002,1,RJEC,,,,0,20180111050000,-1,-1,-1,-1,140,-1,6,-1,-1,-1,-1,,9999,0,0,1,FEW 30,-1,8,-1,13,1005,RJEC 110500Z 14006KT 9999 FEW030 M08/M13 Q1005 RMK 1CU030     A2968=,
20180111_060000.002,1,RJEC,,,,0,20180111060000,-1,-1,-1,-1,150,-1,4,-1,-1,-1,-1,,9999,0,0,1,FEW 30,-1,7,-1,14,1005,RJEC 110600Z 15004KT 9999 FEW030 M07/M14 Q1005 RMK 1CU030     A2968=,
20180111_070000.002,1,RJEC,,,,0,20180111070000,-1,-1,-1,-1,200,-1,1,-1,-1,-1,-1,,9999,0,0,2,FEW 30   SCT 50,-1,10,-1,16,1005,RJEC 110700Z 20001KT 9999 FEW030 SCT050 M10/M16 Q1005 RMK     1CU030 3CU050 A2969=,
20180111_080000.002,1,RJEC,,,,0,20180111080000,-1,-1,-1,-1,170,-1,2,-1,-1,-1,-1,,9999,0,0,3,FEW 20   BKN 60   BKN 100,-1,11,-1,16,1006,RJEC 110800Z 17002KT 9999 FEW020 BKN060 BKN100 M11/M16 Q1006     RMK 1CU020 5SC060 7AC100 A2972=,
20180111_090000.002,1,RJEC,,,,0,20180111090000,-1,-1,-1,-1,160,-1,7,-1,-1,-1,-1,,9999,0,0,3,FEW 20   SCT 60   BKN 100,-1,9,-1,14,1007,RJEC 110900Z 16007KT 9999 FEW020 SCT060 BKN100 M09/M14 Q1007     RMK 1CU020 4SC060 7AC100 A2974=,
20180111_100000.002,1,RJEC,,,,0,20180111100000,-1,-1,-1,-1,170,-1,6,-1,-1,-1,-1,,9999,0,0,2,FEW 20   BKN 100,-1,10,-1,13,1007,RJEC 111000Z 17006KT 9999 FEW020 BKN100 M10/M13 Q1007 RMK     1CU020 5AC100 A2976=,
20180111_110000.002,1,RJEC,,,,0,20180111110000,-1,-1,-1,-1,180,-1,7,-1,-1,-1,-1,,9999,0,0,3,FEW 20   SCT 50   BKN 80,-1,10,-1,12,1007,RJEC 111100Z 18007KT 9999 FEW020 SCT050 BKN080 M10/M12 Q1007     RMK 1CU020 3SC050 6AC080 A2976=,
20180111_220000.002,0,RJEC,,,,0,20180111220000,-1,-1,-1,-1,360,-1,4,-1,-1,-1,-1,,9999,0,0,3,FEW 5   SCT 70   BKN 130,-1,14,-1,16,1010,RJEC 112200Z 36004KT 9999 FEW005 SCT070 BKN130 M14/M16 Q1010     RMK 1ST005 3AC070 6AC130 A2985=,
20180111_230000.002,1,RJEC,,,,0,20180111230000,-1,-1,-1,-1,200,-1,2,-1,-1,-1,-1,,9999,0,0,3,FEW 5   SCT 25   BKN 130,-1,16,-1,17,1012,RJEC 112300Z 20002KT 9999 FEW005 SCT025 BKN130 M16/M17 Q1012     RMK 1ST005 3CU025 5AC130 A2988=,
20180112_000000.002,1,RJEC,,,,0,20180112000000,-1,-1,-1,-1,120,-1,2,-1,-1,-1,-1,,9999,0,0,2,FEW 5   BKN 130,-1,15,-1,16,1012,RJEC 120000Z 12002KT 9999 FEW005 BKN130 M15/M16 Q1012 RMK     1ST005 5AC130 A2990=,
20180112_010000.003,1,RJEC,,,,0,20180112010000,-1,-1,-1,-1,999,-1,2,-1,-1,-1,-1,,9999,0,0,2,FEW 10   SCT 130,-1,12,-1,14,1013,RJEC 120100Z VRB02KT 9999 FEW010 SCT130 M12/M14 Q1013 RMK     1ST010 3AC130 A2992=,
20180112_020000.002,1,RJEC,,,,0,20180112020000,-1,-1,-1,-1,999,-1,1,-1,-1,-1,-1,,9999,0,0,2,FEW 20   SCT -9999,-1,10,-1,12,1012,RJEC 120200Z VRB01KT 9999 FEW020 SCT/// M10/M12 Q1012 RMK     1CU020 A2991=,
20180112_030000.002,1,RJEC,,,,0,20180112030000,-1,-1,-1,-1,150,-1,2,-1,-1,-1,-1,,9999,0,0,2,FEW 20   SCT -9999,-1,10,-1,12,1012,RJEC 120300Z 15002KT 9999 FEW020 SCT/// M10/M12 Q1012 RMK     1CU020 A2990=,
20180112_040000.002,1,RJEC,,,,0,20180112040000,-1,-1,-1,-1,210,-1,1,-1,-1,-1,-1,,9999,0,0,1,FEW 20,-1,7,-1,10,1012,RJEC 120400Z 21001KT 9999 FEW020 M07/M10 Q1012 RMK 1CU020     A2990=,
20180112_050000.003,1,RJEC,,,,0,20180112050000,-1,-1,-1,-1,999,-1,1,-1,-1,-1,-1,,9999,0,0,1,FEW 25,-1,8,-1,10,1012,RJEC 120500Z VRB01KT 9999 FEW025 M08/M10 Q1012 RMK 1CU025     A2991=,
20180112_060000.002,1,RJEC,,,,0,20180112060000,-1,-1,-1,-1,260,-1,1,-1,-1,-1,-1,,9999,0,0,1,FEW 20,-1,8,-1,10,1013,RJEC 120600Z 26001KT 9999 FEW020 M08/M10 Q1013 RMK 1CU020     A2993=,
20180112_070000.003,1,RJEC,,,,0,20180112070000,-1,-1,-1,-1,170,-1,2,-1,-1,-1,-1,,9999,0,0,1,FEW 5,-1,12,-1,14,1014,RJEC 120700Z 17002KT 9999 FEW005 M12/M14 Q1014 RMK 1ST005     A2995=,
20180112_080000.002,1,RJEC,,,,0,20180112080000,-1,-1,-1,-1,180,-1,6,-1,-1,-1,-1,,9999,0,0,2,FEW 5   BKN 40,-1,11,-1,12,1014,RJEC 120800Z 18006KT 9999 FEW005 BKN040 M11/M12 Q1014 RMK     1ST005 5SC040 A2997=,
20180112_090000.002,1,RJEC,,,,0,20180112090000,-1,-1,-1,-1,190,-1,8,-1,-1,-1,-1,,9999,0,0,2,FEW 5   SCT 40,-1,11,-1,14,1015,RJEC 120900Z 19008KT 9999 FEW005 SCT040 M11/M14 Q1015 RMK     1ST005 4SC040 A2997=,
20180112_100000.002,1,RJEC,,,,0,20180112100000,-1,-1,-1,-1,170,-1,7,-1,-1,-1,-1,,9999,0,0,2,FEW 5   SCT 40,-1,13,-1,15,1015,RJEC 121000Z 17007KT 9999 FEW005 SCT040 M13/M15 Q1015 RMK     1ST005 3SC040 A2999=,
20180112_110000.002,1,RJEC,,,,0,20180112110000,-1,-1,-1,-1,220,-1,4,-1,-1,200,270,,9999,0,0,2,FEW 5   SCT 40,-1,13,-1,15,1016,RJEC 121100Z 22004KT 200V270 9999 FEW005 SCT040 M13/M15 Q1016     RMK 1ST005 4SC040 A3001=,
20180112_220000.002,0,RJEC,,,,0,20180112220000,-1,-1,-1,-1,160,-1,4,-1,-1,130,200,,9999,0,1,3,FEW 15   SCT 35   BKN 50,-1,17,-1,18,1018,RJEC 122200Z 16004KT 130V200 9999 -SHSN FEW015 SCT035 BKN050     M17/M18 Q1018 RMK 1ST015 3CU035 5CU050 A3008=,- SN SH
20180112_230000.002,1,RJEC,,,,0,20180112230000,-1,-1,-1,-1,160,-1,8,-1,-1,-1,-1,,9999,0,1,2,FEW 15   SCT 35,-1,15,-1,17,1018,RJEC 122300Z 16008KT 9999 -SHSN FEW015 SCT035 M15/M17 Q1018     RMK 1ST015 3CU035 A3009=,- SN SH
20180113_000000.002,1,RJEC,,,,0,20180113000000,-1,-1,-1,-1,999,-1,6,-1,-1,-1,-1,,9999,0,0,1,FEW 20,-1,14,-1,16,1019,RJEC 130000Z VRB06KT 9999 FEW020 M14/M16 Q1019 RMK 1CU020     A3010=,
20180113_010000.003,1,RJEC,,,,0,20180113010000,-1,-1,-1,-1,170,-1,7,-1,-1,-1,-1,,9999,0,1,1,FEW 20,-1,13,-1,15,1019,RJEC 130100Z 17007KT 9999 VCSH FEW020 M13/M15 Q1019 RMK 1CU020     A3009 SH SW=,VC SH
20180113_020000.002,1,RJEC,,,,0,20180113020000,-1,-1,-1,-1,360,-1,3,-1,-1,330,40,,9999,0,0,3,FEW 5   SCT 25   BKN 40,-1,13,-1,15,1018,RJEC 130200Z 36003KT 330V040 9999 FEW005 SCT025 BKN040 M13/M15     Q1018 RMK 1ST005 3CU025 7SC040 A3008=,
20180113_030000.002,1,RJEC,,,,0,20180113030000,-1,-1,-1,-1,340,-1,3,-1,-1,-1,-1,,9999,0,0,2,FEW 5   BKN 40,-1,12,-1,14,1018,RJEC 130300Z 34003KT 9999 FEW005 BKN040 M12/M14 Q1018 RMK     2ST005 7SC040 A3007=,
20180113_040000.002,1,RJEC,,,,0,20180113040000,-1,-1,-1,-1,330,-1,3,-1,-1,-1,-1,,9999,0,0,3,FEW 5   SCT 40   BKN 80,-1,11,-1,14,1017,RJEC 130400Z 33003KT 9999 FEW005 SCT040 BKN080 M11/M14 Q1017     RMK 1ST005 3SC040 5AC080 A3005=,
20180113_050000.002,1,RJEC,,,,0,20180113050000,-1,-1,-1,-1,999,-1,2,-1,-1,-1,-1,,9999,0,1,3,FEW 5   SCT 40   BKN 80,-1,10,-1,13,1017,RJEC 130500Z VRB02KT 9999 VCSH FEW005 SCT040 BKN080 M10/M13     Q1017 RMK 1ST005 3CU040 6AC080 A3006 SH NW=,VC SH
20180113_060000.002,1,RJEC,,,,0,20180113060000,-1,-1,-1,-1,340,-1,2,-1,-1,-1,-1,,9999,0,1,3,FEW 5   SCT 25   BKN 40,-1,10,-1,12,1018,RJEC 130600Z 34002KT 9999 VCSH FEW005 SCT025 BKN040 M10/M12     Q1018 RMK 1ST005 3CU025 5CU040 A3007 SH W-NW=,VC SH
20180113_070000.002,1,RJEC,,,,0,20180113070000,-1,-1,-1,-1,70,-1,1,-1,-1,-1,-1,,3000,0,1,3,FEW 5   SCT 10   BKN 15,-1,9,-1,11,1019,RJEC 130700Z 07001KT 3000 -SHSN FEW005 SCT010 BKN015 M09/M11     Q1019 RMK 1ST005 3ST010 6ST015 A3009=,- SN SH
20180113_080000.002,1,RJEC,,,,0,20180113080000,-1,-1,-1,-1,999,-1,1,-1,-1,-1,-1,,9999,0,1,3,FEW 5   SCT 25   BKN 40,-1,11,-1,12,1019,RJEC 130800Z VRB01KT 9999 -SHSN FEW005 SCT025 BKN040 M11/M12     Q1019 RMK 1ST005 3CU025 5CU040 A3010=,- SN SH
20180113_090000.002,1,RJEC,,,,0,20180113090000,-1,-1,-1,-1,190,-1,8,-1,-1,-1,-1,,9999,0,0,2,FEW 5   SCT 40,-1,12,-1,14,1019,RJEC 130900Z 19008KT 9999 FEW005 SCT040 M12/M14 Q1019 RMK     1ST005 3CU040 A3010=,
20180113_100000.002,1,RJEC,,,,0,20180113100000,-1,-1,-1,-1,270,-1,7,-1,-1,220,330,,9999,0,0,3,FEW 5   SCT 25   BKN 70,-1,10,-1,12,1020,RJEC 131000Z 27007KT 220V330 9999 FEW005 SCT025 BKN070 M10/M12     Q1020 RMK 1ST005 3CU025 6AC070 A3013=,
20180113_110000.002,1,RJEC,,,,0,20180113110000,-1,-1,-1,-1,330,-1,3,-1,-1,250,20,,9999,0,1,3,FEW 5   SCT 25   BKN 40,-1,12,-1,13,1020,RJEC 131100Z 33003KT 250V020 9999 -SHSN FEW005 SCT025 BKN040     M12/M13 Q1020 RMK 1ST005 3CU025 6CU040 A3014=,- SN SH
20180113_220000.002,0,RJEC,,,,0,20180113220000,-1,-1,-1,-1,180,-1,3,-1,-1,-1,-1,,9999,0,0,2,FEW 5   SCT 15,-1,15,-1,17,1024,RJEC 132200Z 18003KT 9999 FEW005 SCT015 M15/M17 Q1024 RMK     1ST005 3ST015 A3026=,
20180113_230000.002,1,RJEC,,,,0,20180113230000,-1,-1,-1,-1,180,-1,5,-1,-1,-1,-1,,9999,0,0,1,FEW 5,-1,15,-1,16,1025,RJEC 132300Z 18005KT 9999 FEW005 M15/M16 Q1025 RMK 1ST005     A3029=,
20180114_000000.003,1,RJEC,,,,0,20180114000000,-1,-1,-1,-1,160,-1,2,-1,-1,-1,-1,,9999,0,0,1,FEW 5,-1,15,-1,16,1026,RJEC 140000Z 16002KT 9999 FEW005 M15/M16 Q1026 RMK 2ST005     A3031=,
20180114_010000.002,1,RJEC,,,,0,20180114010000,-1,-1,-1,-1,200,-1,8,-1,-1,-1,-1,,9999,0,0,1,FEW 5,-1,11,-1,12,1026,RJEC 140100Z 20008KT 9999 FEW005 M11/M12 Q1026 RMK 1ST005     A3030=,
20180114_020000.002,1,RJEC,,,,0,20180114020000,-1,-1,-1,-1,999,-1,3,-1,-1,-1,-1,,9999,0,0,2,FEW 8   SCT 40,-1,11,-1,13,1025,RJEC 140200Z VRB03KT 9999 FEW008 SCT040 M11/M13 Q1025 RMK     1ST008 3SC040 A3028=,
20180114_030000.002,1,RJEC,,,,0,20180114030000,-1,-1,-1,-1,350,-1,2,-1,-1,-1,-1,,9999,0,0,2,FEW 8   BKN 40,-1,11,-1,13,1025,RJEC 140300Z 35002KT 9999 FEW008 BKN040 M11/M13 Q1025 RMK     1ST008 6SC040 A3027=,
20180114_040000.002,1,RJEC,,,,0,20180114040000,-1,-1,-1,-1,999,-1,1,-1,-1,-1,-1,,9999,0,0,2,FEW 5   BKN 40,-1,9,-1,12,1024,RJEC 140400Z VRB01KT 9999 FEW005 BKN040 M09/M12 Q1024 RMK     1ST005 6SC040 A3025=,
20180114_050000.002,1,RJEC,,,,0,20180114050000,-1,-1,-1,-1,999,-1,1,-1,-1,-1,-1,,9999,0,0,3,FEW 5   SCT 25   BKN 40,-1,8,-1,11,1024,RJEC 140500Z VRB01KT 9999 FEW005 SCT025 BKN040 M08/M11 Q1024     RMK 1ST005 3CU025 6SC040 A3026=,
20180114_060000.003,1,RJEC,,,,0,20180114060000,-1,-1,-1,-1,999,-1,2,-1,-1,-1,-1,,9999,0,0,3,FEW 5   SCT 25   BKN 40,-1,8,-1,11,1024,RJEC 140600Z VRB02KT 9999 FEW005 SCT025 BKN040 M08/M11 Q1024     RMK 1ST005 3CU025 6SC040 A3026=,
20180114_070000.002,1,RJEC,,,,0,20180114070000,-1,-1,-1,-1,190,-1,4,-1,-1,-1,-1,,9999,0,1,3,FEW 5   SCT 25   BKN 35,-1,5,-1,9,1025,RJEC 140700Z 19004KT 9999 VCSH FEW005 SCT025 BKN035 M05/M09     Q1025 RMK 1ST005 3CU025 6CU035 A3027 SH SW-W=,VC SH
20180114_080000.002,1,RJEC,,,,0,20180114080000,-1,-1,-1,-1,180,-1,7,-1,-1,-1,-1,,9999,0,1,3,FEW 5   SCT 20   BKN 30,-1,4,-1,9,1024,RJEC 140800Z 18007KT 9999 -SHSN FEW005 SCT020 BKN030 M04/M09     Q1024 RMK 1ST005 3CU020 6CU030 A3026=,- SN SH
20180114_090000.002,1,RJEC,,,,0,20180114090000,-1,-1,-1,-1,180,-1,6,-1,-1,-1,-1,,9999,0,1,3,FEW 5   SCT 20   BKN 35,-1,4,-1,8,1024,RJEC 140900Z 18006KT 9999 -SHSN FEW005 SCT020 BKN035 M04/M08     Q1024 RMK 1ST005 3CU020 6CU035 A3026=,- SN SH
20180114_100000.002,1,RJEC,,,,0,20180114100000,-1,-1,-1,-1,160,-1,8,-1,-1,-1,-1,,9999,0,1,3,FEW 5   SCT 20   BKN 35,-1,4,-1,9,1024,RJEC 141000Z 16008KT 9999 -SHSN FEW005 SCT020 BKN035 M04/M09     Q1024 RMK 1ST005 3CU020 6CU035 A3025=,- SN SH
20180114_110000.002,1,RJEC,,,,0,20180114110000,-1,-1,-1,-1,160,-1,9,-1,-1,-1,-1,,9999,0,1,3,FEW 10   SCT 20   BKN 35,-1,4,-1,9,1024,RJEC 141100Z 16009KT 9999 -SHSN FEW010 SCT020 BKN035 M04/M09     Q1024 RMK 1ST010 3CU020 6CU035 A3024=,- SN SH
20180114_220000.002,0,RJEC,,,,0,20180114220000,-1,-1,-1,-1,170,-1,14,-1,-1,-1,-1,,9999,0,0,3,FEW 18   SCT 50   BKN 110,-1,3,-1,8,1016,RJEC 142200Z 17014KT 9999 FEW018 SCT050 BKN110 M03/M08 Q1016     RMK 1ST018 3SC050 6AC110 A3003=,
20180114_230000.002,1,RJEC,,,,0,20180114230000,-1,-1,-1,-1,170,-1,12,-1,-1,-1,-1,,9999,0,0,3,FEW 18   SCT 50   BKN 80,-1,2,-1,8,1015,RJEC 142300Z 17012KT 9999 FEW018 SCT050 BKN080 M02/M08 Q1015     RMK 1ST018 3SC050 6AC080 A3000=,
20180115_000000.002,1,RJEC,,,,0,20180115000000,-1,-1,-1,-1,180,-1,13,-1,-1,-1,-1,,9999,0,0,3,FEW 18   SCT 50   BKN 150,-1,1,-1,7,1014,RJEC 150000Z 18013KT 9999 FEW018 SCT050 BKN150 M01/M07 Q1014     RMK 1ST018 3SC050 5AC150 A2996=,
20180115_010000.002,1,RJEC,,,,0,20180115010000,-1,-1,-1,-1,170,-1,19,-1,-1,-1,-1,,9999,0,1,3,FEW 10   SCT 20   BKN 30,1,0,-1,5,1013,RJEC 150100Z 17019KT 9999 VCSH FEW010 SCT020 BKN030 00/M05     Q1013 RMK 1ST010 3CU020 6CU030 A2993 SH SW-W=,VC SH
20180115_020000.002,1,RJEC,,,,0,20180115020000,-1,-1,-1,-1,180,-1,20,-1,-1,-1,-1,,4500,0,1,3,FEW 5   SCT 15   BKN 20,1,0,-1,2,1011,RJEC 150200Z 18020KT 4500 -SHSN FEW005 SCT015 BKN020 00/M02     Q1011 RMK 1ST005 3ST015 6CU020 A2986 P/FR=,- SN SH
20180115_030000.002,1,RJEC,,,,0,20180115030000,-1,-1,-1,-1,180,-1,17,-1,-1,-1,-1,,4000,0,1,3,FEW 5   SCT 15   BKN 20,1,1,-1,1,1009,RJEC 150300Z 18017KT 4000 -SHSN FEW005 SCT015 BKN020 01/M01     Q1009 RMK 1ST005 3ST015 6CU020 A2980=,- SN SH
20180115_040000.002,1,RJEC,,,,0,20180115040000,-1,-1,-1,-1,190,-1,14,-1,-1,-1,-1,,1500,1,1,3,FEW 3   SCT 8   BKN 12,1,1,-1,0,1007,RJEC 150400Z 19014KT 1500 R34/0900V1500U -SHSN FEW003 SCT008     BKN012 01/M00 Q1007 RMK 2ST003 4ST008 7ST012 A2976=,- SN SH
20180115_050000.002,1,RJEC,,,,0,20180115050000,-1,-1,-1,-1,180,-1,10,-1,-1,-1,-1,,1200,1,1,3,FEW 3   SCT 7   BKN 10,1,0,-1,0,1007,RJEC 150500Z 18010KT 1200 R34/1200V1700U -SHSN FEW003 SCT007     BKN010 00/M00 Q1007 RMK 2ST003 4ST007 7ST010 A2975=,- SN SH
20180115_060000.002,1,RJEC,,,,0,20180115060000,-1,-1,-1,-1,180,-1,11,-1,-1,-1,-1,,4000,1,1,3,FEW 3   SCT 10   BKN 15,1,1,1,0,1007,RJEC 150600Z 18011KT 4000 R34/2000N -SHSNRA FEW003 SCT010     BKN015 01/00 Q1007 RMK 1ST003 3ST010 6ST015 A2975=,- SN RA SH
20180115_070000.003,1,RJEC,,,,0,20180115070000,-1,-1,-1,-1,180,-1,10,-1,-1,160,220,,9999,0,1,3,FEW 8   SCT 25   BKN 50,1,0,-1,0,1007,RJEC 150700Z 18010KT 160V220 9999 VCSH FEW008 SCT025 BKN050     00/M00 Q1007 RMK 1ST008 3CU025 5CU050 A2976 SH NW-N=,VC SH
20180115_080000.002,1,RJEC,,,,0,20180115080000,-1,-1,-1,-1,100,-1,5,-1,-1,-1,-1,,8000,0,1,3,FEW 5   SCT 15   BKN 25,1,0,-1,1,1007,RJEC 150800Z 10005KT 8000 -SHSN FEW005 SCT015 BKN025 00/M01     Q1007 RMK 1ST005 3ST015 6CU025 A2976=,- SN SH
20180115_090000.002,1,RJEC,,,,0,20180115090000,-1,-1,-1,-1,270,-1,3,-1,-1,220,300,,3000,0,1,3,FEW 3   SCT 10   BKN 18,1,0,-1,0,1007,RJEC 150900Z 27003KT 220V300 3000 -SHSN FEW003 SCT010 BKN018     00/M00 Q1007 RMK 1ST003 3ST010 7ST018 A2976=,- SN SH
20180115_100000.002,1,RJEC,,,,0,20180115100000,-1,-1,-1,-1,180,-1,4,-1,-1,-1,-1,,3000,0,1,3,FEW 3   SCT 10   BKN 18,-1,0,-1,1,1007,RJEC 151000Z 18004KT 3000 -SHSN FEW003 SCT010 BKN018 M00/M01     Q1007 RMK 1ST003 3ST010 7ST018 A2976=,- SN SH
20180115_110000.002,1,RJEC,,,,0,20180115110000,-1,-1,-1,-1,160,-1,7,-1,-1,-1,-1,,5000,0,1,3,FEW 5   SCT 12   BKN 25,-1,0,-1,1,1007,RJEC 151100Z 16007KT 5000 -SHSN FEW005 SCT012 BKN025 M00/M01     Q1007 RMK 1ST005 3ST012 6CU025 A2974=,- SN SH
20180115_220000.002,0,RJEC,,,,0,20180115220000,-1,-1,-1,-1,170,-1,9,-1,-1,-1,-1,,4500,0,1,3,FEW 8   SCT 18   BKN 25,-1,3,-1,5,1013,RJEC 152200Z 17009KT 4500 -SHSN FEW008 SCT018 BKN025 M03/M05     Q1013 RMK 1ST008 3ST018 6CU025 A2992=,- SN SH
20180115_230000.002,1,RJEC,,,,0,20180115230000,-1,-1,-1,-1,160,-1,12,-1,-1,-1,-1,,9999,0,1,3,FEW 8   SCT 18   BKN 25,-1,3,-1,5,1014,RJEC 152300Z 16012KT 9999 -SHSN FEW008 SCT018 BKN025 M03/M05     Q1014 RMK 1ST008 3ST018 6CU025 A2995=,- SN SH
20180116_000000.002,1,RJEC,,,,0,20180116000000,-1,-1,-1,-1,160,-1,12,-1,-1,-1,-1,,1800,1,1,3,FEW 3   SCT 8   BKN 12,-1,3,-1,4,1014,RJEC 160000Z 16012KT 1800 R34/1400VP2000U -SHSN FEW003 SCT008     BKN012 M03/M04 Q1014 RMK 2ST003 4ST008 7ST012 A2996=,- SN SH
20180116_010000.002,1,RJEC,,,,0,20180116010000,-1,-1,-1,-1,170,-1,12,-1,-1,-1,-1,,3200,0,1,3,FEW 5   SCT 15   BKN 25,-1,3,-1,4,1015,RJEC 160100Z 17012KT 3200 -SHSN FEW005 SCT015 BKN025 M03/M04     Q1015 RMK 2ST005 4ST015 7CU025 A2998=,- SN SH
20180116_020000.002,1,RJEC,,,,0,20180116020000,-1,-1,-1,-1,170,-1,10,-1,-1,-1,-1,,2000,1,1,3,FEW 5   SCT 12   BKN 18,-1,2,-1,3,1015,RJEC 160200Z 17010KT 2000 R34/2000N -SHSN FEW005 SCT012 BKN018     M02/M03 Q1015 RMK 2ST005 4ST012 7ST018 A2997=,- SN SH
20180116_030000.002,1,RJEC,,,,0,20180116030000,-1,-1,-1,-1,170,-1,10,-1,-1,-1,-1,,2000,1,1,3,FEW 5   SCT 15   BKN 20,-1,2,-1,3,1015,RJEC 160300Z 17010KT 2000 R34/2000N -SHSN FEW005 SCT015 BKN020     M02/M03 Q1015 RMK 2ST005 4ST015 7CU020 A2997=,- SN SH
20180116_040000.002,1,RJEC,,,,0,20180116040000,-1,-1,-1,-1,180,-1,7,-1,-1,-1,-1,,5000,0,1,3,FEW 5   SCT 18   BKN 25,-1,1,-1,3,1015,RJEC 160400Z 18007KT 5000 -SHSN FEW005 SCT018 BKN025 M01/M03     Q1015 RMK 1ST005 3ST018 6CU025 A2998=,- SN SH
20180116_050000.002,1,RJEC,,,,0,20180116050000,-1,-1,-1,-1,160,-1,11,-1,-1,-1,-1,,8000,0,1,3,FEW 7   SCT 18   BKN 25,-1,2,-1,4,1015,RJEC 160500Z 16011KT 8000 -SHSN FEW007 SCT018 BKN025 M02/M04     Q1015 RMK 1ST007 3ST018 6CU025 A2999=,- SN SH
20180116_060000.002,1,RJEC,,,,0,20180116060000,-1,-1,-1,-1,180,-1,8,-1,-1,160,220,,8000,0,1,3,FEW 5   SCT 15   BKN 20,-1,2,-1,4,1015,RJEC 160600Z 18008KT 160V220 8000 -SHSN FEW005 SCT015 BKN020     M02/M04 Q1015 RMK 1ST005 3ST015 7CU020 A2999=,- SN SH
20180116_070000.002,1,RJEC,,,,0,20180116070000,-1,-1,-1,-1,200,-1,5,-1,-1,-1,-1,,9999,0,0,2,FEW 10   BKN 25,-1,2,-1,6,1015,RJEC 160700Z 20005KT 9999 FEW010 BKN025 M02/M06 Q1015 RMK     1ST010 5CU025 A2998=,
20180116_080000.002,1,RJEC,,,,0,20180116080000,-1,-1,-1,-1,220,-1,7,-1,-1,-1,-1,,9999,0,0,3,FEW 15   SCT 25   BKN 130,-1,3,-1,7,1015,RJEC 160800Z 22007KT 9999 FEW015 SCT025 BKN130 M03/M07 Q1015     RMK 1ST015 3CU025 6AC130 A2999=,
20180116_090000.002,1,RJEC,,,,0,20180116090000,-1,-1,-1,-1,170,-1,6,-1,-1,-1,-1,,9999,0,0,3,FEW 15   SCT 70   BKN 130,-1,5,-1,8,1015,RJEC 160900Z 17006KT 9999 FEW015 SCT070 BKN130 M05/M08 Q1015     RMK 1ST015 4AC070 7AC130 A2999=,
20180116_100000.002,1,RJEC,,,,0,20180116100000,-1,-1,-1,-1,170,-1,8,-1,-1,-1,-1,,9999,0,0,3,FEW 10   SCT 40   BKN 130,-1,5,-1,8,1015,RJEC 161000Z 17008KT 9999 FEW010 SCT040 BKN130 M05/M08 Q1015     RMK 1ST010 3CU040 6AC130 A2998=,
20180116_110000.004,1,RJEC,,,,0,20180116110000,-1,-1,-1,-1,170,-1,7,-1,-1,-1,-1,,9999,0,0,3,FEW 10   SCT 40   BKN 50,-1,5,-1,7,1015,RJEC 161100Z 17007KT 9999 FEW010 SCT040 BKN050 M05/M07 Q1015     RMK 1ST010 3CU040 6CU050 A2997=,
20180116_220000.002,0,RJEC,,,,0,20180116220000,-1,-1,-1,-1,160,-1,3,-1,-1,-1,-1,,8000,0,1,3,FEW 8   SCT 20   BKN 50,-1,9,-1,10,1017,RJEC 162200Z 16003KT 8000 -SHSN FEW008 SCT020 BKN050 M09/M10     Q1017 RMK 1ST008 3CU020 5CU050 A3005=,- SN SH
20180116_230000.002,1,RJEC,,,,0,20180116230000,-1,-1,-1,-1,180,-1,3,-1,-1,140,200,,6000,0,1,3,FEW 5   SCT 18   BKN 30,-1,6,-1,7,1018,RJEC 162300Z 18003KT 140V200 6000 -SHSN FEW005 SCT018 BKN030     M06/M07 Q1018 RMK 1ST005 3ST018 6CU030 A3008=,- SN SH
20180117_000000.002,1,RJEC,,,,0,20180117000000,-1,-1,-1,-1,180,-1,5,-1,-1,-1,-1,,9999,0,1,3,FEW 10   SCT 20   BKN 30,-1,6,-1,7,1019,RJEC 170000Z 18005KT 9999 -SHSN FEW010 SCT020 BKN030 M06/M07     Q1019 RMK 1ST010 3CU020 6CU030 A3009=,- SN SH
20180117_010000.002,1,RJEC,,,,0,20180117010000,-1,-1,-1,-1,210,-1,3,-1,-1,170,230,,9999,0,0,1,FEW 20,-1,5,-1,7,1019,RJEC 170100Z 21003KT 170V230 9999 FEW020 M05/M07 Q1019 RMK     1CU020 A3009=,
20180117_020000.004,1,RJEC,,,,0,20180117020000,-1,-1,-1,-1,200,-1,4,-1,-1,-1,-1,,9999,0,0,1,FEW 20,-1,3,-1,6,1018,RJEC 170200Z 20004KT 9999 FEW020 M03/M06 Q1018 RMK 1CU020     A3007=,
20180117_030000.002,1,RJEC,,,,0,20180117030000,-1,-1,-1,-1,20,-1,4,-1,-1,-1,-1,,9999,0,0,1,FEW 20,-1,4,-1,6,1017,RJEC 170300Z 02004KT 9999 FEW020 M04/M06 Q1017 RMK 1CU020     A3006=,
20180117_040000.003,1,RJEC,,,,0,20180117040000,-1,-1,-1,-1,340,-1,3,-1,-1,-1,-1,,9999,0,0,2,FEW 15   SCT -9999,-1,5,-1,7,1017,RJEC 170400Z 34003KT 9999 FEW015 SCT/// M05/M07 Q1017 RMK     1ST015 A3005=,
20180117_050000.003,1,RJEC,,,,0,20180117050000,-1,-1,-1,-1,330,-1,3,-1,-1,300,360,,9999,0,0,2,FEW 20   SCT -9999,-1,5,-1,7,1017,RJEC 170500Z 33003KT 300V360 9999 FEW020 SCT/// M05/M07 Q1017     RMK 1CU020 A3005=,
20180117_060000.002,1,RJEC,,,,0,20180117060000,-1,-1,-1,-1,90,-1,2,-1,-1,-1,-1,,9999,0,0,2,FEW 20   SCT -9999,-1,6,-1,8,1017,RJEC 170600Z 09002KT 9999 FEW020 SCT/// M06/M08 Q1017 RMK     1CU020 A3005=,
20180117_070000.002,1,RJEC,,,,0,20180117070000,-1,-1,-1,-1,80,-1,1,-1,-1,-1,-1,,9999,0,0,2,FEW 15   BKN -9999,-1,9,-1,10,1017,RJEC 170700Z 08001KT 9999 FEW015 BKN/// M09/M10 Q1017 RMK     1ST015 A3006=,
20180117_080000.002,1,RJEC,,,,0,20180117080000,-1,-1,-1,-1,170,-1,3,-1,-1,-1,-1,,9999,0,0,2,FEW 10   BKN -9999,-1,12,-1,13,1017,RJEC 170800Z 17003KT 9999 FEW010 BKN/// M12/M13 Q1017 RMK     1ST010 A3004=,
20180117_090000.003,1,RJEC,,,,0,20180117090000,-1,-1,-1,-1,200,-1,5,-1,-1,-1,-1,,9999,0,0,3,FEW 8   BKN 150   BKN -9999,-1,8,-1,9,1017,RJEC 170900Z 20005KT 9999 FEW008 BKN150 BKN/// M08/M09 Q1017     RMK 1ST008 5AC150 A3004=,
20180117_100000.002,1,RJEC,,,,0,20180117100000,-1,-1,-1,-1,170,-1,5,-1,-1,-1,-1,,9999,0,0,3,FEW 8   BKN 150   BKN -9999,-1,11,-1,12,1017,RJEC 171000Z 17005KT 9999 FEW008 BKN150 BKN/// M11/M12 Q1017     RMK 1ST008 5AC150 A3005=,
20180117_110000.003,1,RJEC,,,,0,20180117110000,-1,-1,-1,-1,140,-1,4,-1,-1,-1,-1,,9999,0,0,3,FEW 8   SCT 150   BKN -9999,-1,11,-1,13,1017,RJEC 171100Z 14004KT 9999 FEW008 SCT150 BKN/// M11/M13 Q1017     RMK 1ST008 4AC150 A3005=,
20180117_220000.003,0,RJEC,,,,0,20180117220000,-1,-1,-1,-1,999,-1,1,-1,-1,-1,-1,,8000,0,0,2,FEW 1   BKN 35,-1,13,-1,15,1015,RJEC 172200Z VRB01KT 8000 FEW001 BKN035 M13/M15 Q1015 RMK     2ST001 6CU035 A2998=,
20180117_230000.002,1,RJEC,,,,0,20180117230000,-1,-1,-1,-1,999,-1,2,-1,-1,-1,-1,,7000,0,1,3,FEW 1   SCT 10   BKN 35,-1,12,-1,13,1014,RJEC 172300Z VRB02KT 7000 -SHSN FEW001 SCT010 BKN035 M12/M13     Q1014 RMK 1ST001 3ST010 7CU035 A2996=,- SN SH
20180118_000000.002,1,RJEC,,,,0,20180118000000,-1,-1,-1,-1,160,-1,3,-1,-1,110,190,,9999,0,1,3,FEW 2   SCT 15   BKN 40,-1,9,-1,10,1013,RJEC 180000Z 16003KT 110V190 9999 -SHSN FEW002 SCT015 BKN040     M09/M10 Q1013 RMK 1ST002 3ST015 7CU040 A2993=,- SN SH
20180118_010000.002,1,RJEC,,,,0,20180118010000,-1,-1,-1,-1,190,-1,6,-1,-1,170,230,,9999,0,0,2,FEW 2   BKN 40,-1,5,-1,6,1012,RJEC 180100Z 19006KT 170V230 9999 FEW002 BKN040 M05/M06 Q1012     RMK 1ST002 7CU040 A2990=,
20180118_020000.002,1,RJEC,,,,0,20180118020000,-1,-1,-1,-1,350,-1,3,-1,-1,320,30,,7000,0,1,3,FEW 2   SCT 30   BKN 50,-1,9,-1,10,1011,RJEC 180200Z 35003KT 320V030 7000 -SHSN FEW002 SCT030 BKN050     M09/M10 Q1011 RMK 1ST002 3CU030 7CU050 A2988=,- SN SH
20180118_030000.003,1,RJEC,,,,0,20180118030000,-1,-1,-1,-1,999,-1,2,-1,-1,-1,-1,,3500,0,1,3,FEW 2   SCT 30   BKN 45,-1,8,-1,9,1010,RJEC 180300Z VRB02KT 3500 -SHSN FEW002 SCT030 BKN045 M08/M09     Q1010 RMK 1ST002 3CU030 7CU045 A2985=,- SN SH
20180118_040000.002,1,RJEC,,,,0,20180118040000,-1,-1,-1,-1,999,-1,2,-1,-1,-1,-1,,3500,0,1,3,FEW 2   SCT 30   BKN 40,-1,8,-1,9,1010,RJEC 180400Z VRB02KT 3500 -SHSN FEW002 SCT030 BKN040 M08/M09     Q1010 RMK 1ST002 3CU030 7CU040 A2984=,- SN SH
20180118_050000.002,1,RJEC,,,,0,20180118050000,-1,-1,-1,-1,350,-1,2,-1,-1,-1,-1,,7000,0,0,3,FEW 5   SCT 40   BKN 70,-1,7,-1,8,1010,RJEC 180500Z 35002KT 7000 FEW005 SCT040 BKN070 M07/M08 Q1010     RMK 1ST005 3CU040 6AC070 A2983=,
20180118_060000.002,1,RJEC,,,,0,20180118060000,-1,-1,-1,-1,230,-1,5,-1,-1,-1,-1,,8000,0,0,3,FEW 8   SCT 120   BKN -9999,-1,7,-1,8,1009,RJEC 180600Z 23005KT 8000 FEW008 SCT120 BKN/// M07/M08 Q1009     RMK 1ST008 4AC120 A2982=,
20180118_070000.002,1,RJEC,,,,0,20180118070000,-1,-1,-1,-1,350,-1,4,-1,-1,-1,-1,,7000,0,0,3,FEW 8   SCT 30   BKN 120,-1,8,-1,9,1010,RJEC 180700Z 35004KT 7000 FEW008 SCT030 BKN120 M08/M09 Q1010     RMK 1ST008 3CU030 5AC120 A2982=,
20180118_080000.002,1,RJEC,,,,0,20180118080000,-1,-1,-1,-1,0,-1,0,-1,-1,-1,-1,,7000,0,1,3,FEW 5   SCT 15   BKN 25,-1,6,-1,7,1010,RJEC 180800Z 00000KT 7000 -SHSN FEW005 SCT015 BKN025 M06/M07     Q1010 RMK 1ST005 3ST015 7CU025 A2983=,- SN SH
20180118_090000.002,1,RJEC,,,,0,20180118090000,-1,-1,-1,-1,110,-1,2,-1,-1,-1,-1,,3200,0,1,3,FEW 5   SCT 15   BKN 25,-1,6,-1,6,1010,RJEC 180900Z 11002KT 3200 -SHSN FEW005 SCT015 BKN025 M06/M06     Q1010 RMK 2ST005 4ST015 7CU025 A2984=,- SN SH
20180118_100000.002,1,RJEC,,,,0,20180118100000,-1,-1,-1,-1,999,-1,1,-1,-1,-1,-1,,3100,1,1,3,FEW 5   SCT 15   BKN 25,-1,5,-1,6,1010,RJEC 181000Z VRB01KT 3100 R34/1600VP2000N -SHSN FEW005 SCT015     BKN025 M05/M06 Q1010 RMK 2ST005 4ST015 7CU025 A2984=,- SN SH
20180118_110000.002,1,RJEC,,,,0,20180118110000,-1,-1,-1,-1,190,-1,3,-1,-1,-1,-1,,2300,1,1,3,FEW 5   SCT 12   BKN 18,-1,5,-1,6,1010,RJEC 181100Z 19003KT 2300 R34/2000N -SHSN FEW005 SCT012 BKN018     M05/M06 Q1010 RMK 2ST005 4ST012 7ST018 A2984=,- SN SH
20180118_220000.002,0,RJEC,,,,0,20180118220000,-1,-1,-1,-1,270,-1,7,-1,-1,220,300,,1500,1,1,3,FEW 3   SCT 8   BKN 15,-1,4,-1,6,1014,RJEC 182200Z 27007KT 220V300 1500 R34/2000N -SHSN FEW003     SCT008 BKN015 M04/M06 Q1014 RMK 1ST003 3ST008 6ST015           A2995=,- SN SH
20180118_230000.003,1,RJEC,,,,0,20180118230000,-1,-1,-1,-1,230,-1,3,-1,-1,-1,-1,,3200,0,1,3,FEW 3   SCT 15   BKN 25,-1,4,-1,5,1014,RJEC 182300Z 23003KT 3200 -SHSN FEW003 SCT015 BKN025 M04/M05     Q1014 RMK 1ST003 3ST015 6CU025 A2997=,- SN SH
20180119_000000.002,1,RJEC,,,,0,20180119000000,-1,-1,-1,-1,280,-1,4,-1,-1,-1,-1,,2300,1,1,3,FEW 3   SCT 10   BKN 20,-1,4,-1,5,1015,RJEC 190000Z 28004KT 2300 R34/1000VP2000D -SHSN FEW003 SCT010     BKN020 M04/M05 Q1015 RMK 1ST003 3ST010 5CU020 A2999=,- SN SH
20180119_010000.003,1,RJEC,,,,0,20180119010000,-1,-1,-1,-1,320,-1,7,-1,-1,-1,-1,,9999,0,1,2,FEW 10   SCT 25,-1,5,-1,6,1015,RJEC 190100Z 32007KT 9999 -SHSN FEW010 SCT025 M05/M06 Q1015     RMK 1ST010 3CU025 A3000=,- SN SH
20180119_020000.002,1,RJEC,,,,0,20180119020000,-1,-1,-1,-1,310,-1,9,-1,-1,-1,-1,,9999,0,0,2,FEW 15   SCT 30,-1,3,-1,7,1015,RJEC 190200Z 31009KT 9999 FEW015 SCT030 M03/M07 Q1015 RMK     1ST015 4CU030 A2999=,
20180119_030000.002,1,RJEC,,,,0,20180119030000,-1,-1,-1,-1,320,-1,7,-1,-1,-1,-1,,3200,0,1,3,FEW 5   SCT 15   BKN 25,-1,4,-1,6,1015,RJEC 190300Z 32007KT 3200 -SHSN FEW005 SCT015 BKN025 M04/M06     Q1015 RMK 1ST005 3ST015 6CU025 A2998=,- SN SH
20180119_040000.002,1,RJEC,,,,0,20180119040000,-1,-1,-1,-1,280,-1,8,-1,-1,-1,-1,,9999,0,1,3,FEW 8   SCT 15   BKN 40,-1,4,-1,7,1015,RJEC 190400Z 28008KT 9999 -SHSN FEW008 SCT015 BKN040 M04/M07     Q1015 RMK 1ST008 3ST015 5CU040 A2997=,- SN SH
20180119_050000.003,1,RJEC,,,,0,20180119050000,-1,-1,-1,-1,290,-1,9,-1,-1,-1,-1,,9999,0,1,3,FEW 10   SCT 20   BKN 50,-1,5,-1,8,1015,RJEC 190500Z 29009KT 9999 -SHSN FEW010 SCT020 BKN050 M05/M08     Q1015 RMK 1ST010 3CU020 5CU050 A3000=,- SN SH
20180119_060000.002,1,RJEC,,,,0,20180119060000,-1,-1,-1,-1,300,-1,10,-1,-1,-1,-1,,9999,0,1,3,FEW 8   SCT 18   BKN 25,-1,5,-1,7,1016,RJEC 190600Z 30010KT 9999 -SHSN FEW008 SCT018 BKN025 M05/M07     Q1016 RMK 1ST008 3ST018 5CU025 A3002=,- SN SH
20180119_070000.002,1,RJEC,,,,0,20180119070000,-1,-1,-1,-1,320,-1,6,-1,-1,-1,-1,,9999,0,1,3,FEW 5   SCT 15   BKN 25,-1,7,-1,9,1016,RJEC 190700Z 32006KT 9999 -SHSN FEW005 SCT015 BKN025 M07/M09     Q1016 RMK 1ST005 3ST015 5CU025 A3002=,- SN SH
20180119_080000.002,1,RJEC,,,,0,20180119080000,-1,-1,-1,-1,190,-1,2,-1,-1,-1,-1,,9999,0,1,3,FEW 10   SCT 15   BKN 25,-1,8,-1,9,1016,RJEC 190800Z 19002KT 9999 -SHSN FEW010 SCT015 BKN025 M08/M09     Q1016 RMK 1ST010 3ST015 5CU025 A3003=,- SN SH
20180119_090000.003,1,RJEC,,,,0,20180119090000,-1,-1,-1,-1,170,-1,2,-1,-1,-1,-1,,9999,0,0,2,FEW 10   SCT 25,-1,13,-1,14,1017,RJEC 190900Z 17002KT 9999 FEW010 SCT025 M13/M14 Q1017 RMK     1ST010 3CU025 A3004=,
20180119_100000.002,1,RJEC,,,,0,20180119100000,-1,-1,-1,-1,170,-1,4,-1,-1,-1,-1,,9999,0,0,3,FEW 10   SCT 25   BKN 50,-1,8,-1,9,1017,RJEC 191000Z 17004KT 9999 FEW010 SCT025 BKN050 M08/M09 Q1017     RMK 1ST010 3CU025 6CU050 A3004=,
20180119_110000.002,1,RJEC,,,,0,20180119110000,-1,-1,-1,-1,160,-1,5,-1,-1,-1,-1,,9999,0,1,3,FEW 8   SCT 18   BKN 25,-1,7,-1,9,1017,RJEC 191100Z 16005KT 9999 -SHSN FEW008 SCT018 BKN025 M07/M09     Q1017 RMK 1ST008 3ST018 6CU025 A3004=,- SN SH
20180119_220000.002,0,RJEC,,,,0,20180119220000,-1,-1,-1,-1,170,-1,10,-1,-1,-1,-1,,9999,0,0,1,FEW 5,-1,10,-1,11,1015,RJEC 192200Z 17010KT 9999 FEW005 M10/M11 Q1015 RMK 1ST005     A2999=,
20180119_230000.002,1,RJEC,,,,0,20180119230000,-1,-1,-1,-1,170,-1,9,-1,-1,-1,-1,,9999,0,0,1,FEW 5,-1,10,-1,11,1015,RJEC 192300Z 17009KT 9999 FEW005 M10/M11 Q1015 RMK 1ST005     A2998=,
20180120_000000.002,1,RJEC,,,,0,20180120000000,-1,-1,-1,-1,170,-1,8,-1,-1,-1,-1,,9999,0,0,1,FEW 10,-1,9,-1,12,1015,RJEC 200000Z 17008KT 9999 FEW010 M09/M12 Q1015 RMK 1ST010     A2997=,
20180120_010000.002,1,RJEC,,,,0,20180120010000,-1,-1,-1,-1,160,-1,10,-1,-1,-1,-1,,9999,0,0,1,FEW 25,-1,7,-1,9,1014,RJEC 200100Z 16010KT 9999 FEW025 M07/M09 Q1014 RMK 1CU025     A2996=,
20180120_020000.003,1,RJEC,,,,0,20180120020000,-1,-1,-1,-1,170,-1,11,-1,-1,-1,-1,,9999,0,0,1,FEW 25,-1,5,-1,9,1013,RJEC 200200Z 17011KT 9999 FEW025 M05/M09 Q1013 RMK 1CU025     A2994=,
20180120_030000.002,1,RJEC,,,,0,20180120030000,-1,-1,-1,-1,180,-1,10,-1,-1,-1,-1,,9999,0,0,3,FEW 25   SCT 150   BKN -9999,-1,3,-1,9,1012,RJEC 200300Z 18010KT 9999 FEW025 SCT150 BKN/// M03/M09 Q1012     RMK 1CU025 3AC150 A2990=,
20180120_040000.002,1,RJEC,,,,0,20180120040000,-1,-1,-1,-1,170,-1,11,-1,-1,-1,-1,,9999,0,0,3,FEW 25   SCT 150   BKN -9999,-1,3,-1,9,1011,RJEC 200400Z 17011KT 9999 FEW025 SCT150 BKN/// M03/M09 Q1011     RMK 1CU025 4AC150 A2987=,
20180120_050000.002,1,RJEC,,,,0,20180120050000,-1,-1,-1,-1,160,-1,12,-1,-1,-1,-1,,9999,0,0,3,FEW 25   SCT 150   BKN -9999,-1,3,-1,9,1010,RJEC 200500Z 16012KT 9999 FEW025 SCT150 BKN/// M03/M09 Q1010     RMK 1CU025 3AC150 A2984=,
20180120_060000.002,1,RJEC,,,,0,20180120060000,-1,-1,-1,-1,190,-1,8,-1,-1,-1,-1,,9999,0,0,3,FEW 25   SCT 80   BKN -9999,-1,3,-1,10,1009,RJEC 200600Z 19008KT 9999 FEW025 SCT080 BKN/// M03/M10 Q1009     RMK 1CU025 3AC080 A2982=,
20180120_070000.002,1,RJEC,,,,0,20180120070000,-1,-1,-1,-1,190,-1,13,-1,-1,-1,-1,,9999,0,1,3,FEW 15   SCT 50   BKN 80,-1,2,-1,7,1009,RJEC 200700Z 19013KT 9999 -SHSN FEW015 SCT050 BKN080 M02/M07     Q1009 RMK 1ST015 3CU050 6AC080 A2980=,- SN SH
20180120_080000.002,1,RJEC,,,,0,20180120080000,-1,-1,-1,-1,190,-1,11,-1,-1,-1,-1,,9999,0,1,3,FEW 15   SCT 25   BKN 40,-1,3,-1,6,1008,RJEC 200800Z 19011KT 9999 -SHSN FEW015 SCT025 BKN040 M03/M06     Q1008 RMK 1ST015 3CU025 6CU040 A2978=,- SN SH
20180120_090000.002,1,RJEC,,,,0,20180120090000,-1,-1,-1,-1,190,-1,15,-1,-1,-1,-1,,9999,0,1,3,FEW 10   SCT 15   BKN 25,-1,2,-1,6,1007,RJEC 200900Z 19015KT 9999 -SHSN FEW010 SCT015 BKN025 M02/M06     Q1007 RMK 1ST010 3ST015 6CU025 A2975=,- SN SH
20180120_100000.002,1,RJEC,,,,0,20180120100000,-1,-1,-1,-1,190,-1,15,-1,-1,-1,-1,,2000,1,1,3,FEW 3   SCT 8   BKN 15,-1,4,-1,5,1007,RJEC 201000Z 19015KT 2000 R34/2000N -SHSN FEW003 SCT008 BKN015     M04/M05 Q1007 RMK 2ST003 4ST008 7ST015 A2974=,- SN SH
20180120_110000.002,1,RJEC,,,,0,20180120110000,-1,-1,-1,-1,180,-1,18,-1,-1,-1,-1,,1600,1,1,3,FEW 3   SCT 8   BKN 12,-1,4,-1,5,1007,RJEC 201100Z 18018KT 1600 R34/0800VP2000U -SHSN FEW003 SCT008     BKN012 M04/M05 Q1007 RMK 2ST003 4ST008 7ST012 A2975=,- SN SH
20180120_220000.002,0,RJEC,,,,0,20180120220000,-1,-1,-1,-1,310,-1,11,-1,-1,-1,-1,,4000,0,1,3,FEW 5   SCT 10   BKN 15,-1,8,-1,10,1010,RJEC 202200Z 31011KT 4000 -SHSN FEW005 SCT010 BKN015 M08/M10     Q1010 RMK 1ST005 3ST010 5ST015 A2984=,- SN SH
20180120_230000.002,1,RJEC,,,,0,20180120230000,-1,-1,-1,-1,999,-1,3,-1,-1,-1,-1,,9999,0,0,2,FEW 15   SCT 25,-1,13,-1,15,1011,RJEC 202300Z VRB03KT 9999 FEW015 SCT025 M13/M15 Q1011 RMK     1ST015 3CU025 A2986=,
20180121_000000.002,1,RJEC,,,,0,20180121000000,-1,-1,-1,-1,230,-1,7,-1,-1,190,260,,9999,0,1,3,FEW 10   SCT 25   BKN 40,-1,8,-1,14,1010,RJEC 210000Z 23007KT 190V260 9999 -SHSN FEW010 SCT025 BKN040     M08/M14 Q1010 RMK 1ST010 3CU025 5CU040 A2985=,- SN SH
20180121_010000.002,1,RJEC,,,,0,20180121010000,-1,-1,-1,-1,190,-1,7,-1,-1,-1,-1,,900,1,1,1,VV 8,-1,9,-1,10,1010,RJEC 210100Z 19007KT 0900 R34/0750V1000N SHSN VV008 M09/M10     Q1010 RMK A2984=,SN SH
20180121_020000.002,1,RJEC,,,,0,20180121020000,-1,-1,-1,-1,230,-1,17,-1,-1,-1,-1,,1100,1,2,3,FEW 3   SCT 8   BKN 12,-1,8,-1,11,1009,RJEC 210200Z 23017KT 1100 R34/0700V1800D -SHSN BLSN FEW003     SCT008 BKN012 M08/M11 Q1009 RMK 2ST003 4ST008 7ST012           A2981=,- SN SH; BL SN
20180121_030000.002,1,RJEC,,,,0,20180121030000,-1,-1,-1,-1,270,-1,5,-1,-1,210,330,,3000,1,1,3,FEW 5   SCT 10   BKN 15,-1,8,-1,10,1009,RJEC 210300Z 27005KT 210V330 3000 R34/1000VP2000U -SHSN FEW005     SCT010 BKN015 M08/M10 Q1009 RMK 1ST005 3ST010 6ST015           A2979=,- SN SH
20180121_040000.003,1,RJEC,,,,0,20180121040000,-1,-1,-1,-1,250,-1,11,-1,23,210,280,,1600,1,1,3,FEW 3   SCT 8   BKN 12,-1,8,-1,12,1008,RJEC 210400Z 25011G23KT 210V280 1600 R34/0700VP2000U -SHSN     FEW003 SCT008 BKN012 M08/M12 Q1008 RMK 2ST003 4ST008           7ST012 A2978=,- SN SH
20180121_050000.002,1,RJEC,,,,0,20180121050000,-1,-1,-1,-1,250,-1,14,-1,-1,-1,-1,,2000,1,1,3,FEW 3   SCT 8   BKN 12,-1,8,-1,11,1008,RJEC 210500Z 25014KT 2000 R34/0800VP2000U -SHSN FEW003 SCT008     BKN012 M08/M11 Q1008 RMK 1ST003 3ST008 6ST012 A2978=,- SN SH
20180121_060000.002,1,RJEC,,,,0,20180121060000,-1,-1,-1,-1,260,-1,14,-1,-1,-1,-1,,2400,1,1,3,FEW 3   SCT 8   BKN 12,-1,9,-1,13,1008,RJEC 210600Z 26014KT 2400 R34/1500VP2000N -SHSN FEW003 SCT008     BKN012 M09/M13 Q1008 RMK 1ST003 3ST008 6ST012 A2979=,- SN SH
20180121_070000.002,1,RJEC,,,,0,20180121070000,-1,-1,-1,-1,260,-1,16,-1,26,-1,-1,,1500,1,2,3,FEW 3   SCT 8   BKN 12,-1,10,-1,13,1009,RJEC 210700Z 26016G26KT 1500 R34/1100VP2000N -SHSN BLSN FEW003     SCT008 BKN012 M10/M13 Q1009 RMK 2ST003 4ST008 7ST012           A2982=,- SN SH; BL SN
20180121_080000.002,1,RJEC,,,,0,20180121080000,-1,-1,-1,-1,250,-1,13,-1,-1,-1,-1,,3000,1,1,3,FEW 3   SCT 12   BKN 20,-1,10,-1,13,1010,RJEC 210800Z 25013KT 3000 R34/1500VP2000N -SHSN FEW003 SCT012     BKN020 M10/M13 Q1010 RMK 1ST003 3ST012 6CU020 A2984=,- SN SH
20180121_090000.002,1,RJEC,,,,0,20180121090000,-1,-1,-1,-1,280,-1,11,-1,-1,-1,-1,,5000,0,1,3,FEW 5   SCT 10   BKN 20,-1,11,-1,15,1011,RJEC 210900Z 28011KT 5000 -SHSN FEW005 SCT010 BKN020 M11/M15     Q1011 RMK 1ST005 3ST010 5CU020 A2988=,- SN SH
20180121_100000.002,1,RJEC,,,,0,20180121100000,-1,-1,-1,-1,999,-1,1,-1,-1,-1,-1,,5000,0,1,3,FEW 5   SCT 10   BKN 20,-1,12,-1,14,1012,RJEC 211000Z VRB01KT 5000 -SHSN FEW005 SCT010 BKN020 M12/M14     Q1012 RMK 1ST005 3ST010 6CU020 A2990=,- SN SH
20180121_110000.002,1,RJEC,,,,0,20180121110000,-1,-1,-1,-1,200,-1,7,-1,-1,170,230,,8000,0,1,3,FEW 5   SCT 15   BKN 30,-1,12,-1,17,1013,RJEC 211100Z 20007KT 170V230 8000 -SHSN FEW005 SCT015 BKN030     M12/M17 Q1013 RMK 1ST005 3ST015 5CU030 A2992=,- SN SH
20180121_220000.002,0,RJEC,,,,0,20180121220000,-1,-1,-1,-1,170,-1,8,-1,-1,-1,-1,,9999,0,1,3,FEW 8   SCT 15   BKN 20,-1,12,-1,14,1016,RJEC 212200Z 17008KT 9999 -SHSN FEW008 SCT015 BKN020 M12/M14     Q1016 RMK 1ST008 3ST015 5CU020 A3002=,- SN SH
20180121_230000.002,1,RJEC,,,,0,20180121230000,-1,-1,-1,-1,160,-1,9,-1,-1,-1,-1,,900,1,1,1,VV 8,-1,10,-1,12,1017,RJEC 212300Z 16009KT 0900 R34/0800V1800D SHSN VV008 M10/M12     Q1017 RMK A3004=,SN SH
20180122_000000.002,1,RJEC,,,,0,20180122000000,-1,-1,-1,-1,160,-1,10,-1,-1,-1,-1,,2500,0,1,3,FEW 5   SCT 10   BKN 15,-1,10,-1,12,1017,RJEC 220000Z 16010KT 2500 -SHSN FEW005 SCT010 BKN015 M10/M12     Q1017 RMK 1ST005 3ST010 6ST015 A3004=,- SN SH
20180122_010000.002,1,RJEC,,,,0,20180122010000,-1,-1,-1,-1,160,-1,11,-1,-1,-1,-1,,3000,1,1,3,FEW 6   SCT 12   BKN 18,-1,9,-1,12,1017,RJEC 220100Z 16011KT 3000 R34/2000N -SHSN FEW006 SCT012 BKN018     M09/M12 Q1017 RMK 1ST006 3ST012 6ST018 A3004=,- SN SH
20180122_020000.002,1,RJEC,,,,0,20180122020000,-1,-1,-1,-1,160,-1,11,-1,-1,-1,-1,,6000,0,1,3,FEW 8   SCT 18   BKN 25,-1,8,-1,11,1017,RJEC 220200Z 16011KT 6000 -SHSN FEW008 SCT018 BKN025 M08/M11     Q1017 RMK 1ST008 3ST018 6CU025 A3003=,- SN SH
20180122_030000.002,1,RJEC,,,,0,20180122030000,-1,-1,-1,-1,190,-1,7,-1,-1,150,250,,9999,0,1,3,FEW 8   SCT 25   BKN -9999,-1,7,-1,11,1016,RJEC 220300Z 19007KT 150V250 9999 -SHSN FEW008 SCT025 BKN///     M07/M11 Q1016 RMK 1ST008 3CU025 A3003=,- SN SH
20180122_040000.002,1,RJEC,,,,0,20180122040000,-1,-1,-1,-1,170,-1,10,-1,-1,-1,-1,,4500,0,1,3,FEW 5   SCT 18   BKN 25,-1,8,-1,11,1016,RJEC 220400Z 17010KT 4500 -SHSN FEW005 SCT018 BKN025 M08/M11     Q1016 RMK 1ST005 3ST018 5CU025 A3002=,- SN SH
20180122_050000.002,1,RJEC,,,,0,20180122050000,-1,-1,-1,-1,190,-1,8,-1,-1,-1,-1,,5000,0,1,3,FEW 5   SCT 18   BKN 30,-1,8,-1,10,1016,RJEC 220500Z 19008KT 5000 -SHSN FEW005 SCT018 BKN030 M08/M10     Q1016 RMK 1ST005 3ST018 6CU030 A3002=,- SN SH
20180122_060000.003,1,RJEC,,,,0,20180122060000,-1,-1,-1,-1,160,-1,8,-1,-1,-1,-1,,5000,0,1,3,FEW 5   SCT 18   BKN 30,-1,8,-1,10,1016,RJEC 220600Z 16008KT 5000 -SHSN FEW005 SCT018 BKN030 M08/M10     Q1016 RMK 1ST005 3ST018 6CU030 A3003=,- SN SH
20180122_070000.002,1,RJEC,,,,0,20180122070000,-1,-1,-1,-1,170,-1,12,-1,-1,-1,-1,,3200,0,1,3,FEW 5   SCT 15   BKN 25,-1,8,-1,10,1016,RJEC 220700Z 17012KT 3200 -SHSN FEW005 SCT015 BKN025 M08/M10     Q1016 RMK 1ST005 3ST015 6CU025 A3001=,- SN SH
20180122_080000.003,1,RJEC,,,,0,20180122080000,-1,-1,-1,-1,180,-1,10,-1,-1,-1,-1,,7000,0,1,3,FEW 5   SCT 15   BKN 25,-1,8,-1,10,1016,RJEC 220800Z 18010KT 7000 -SHSN FEW005 SCT015 BKN025 M08/M10     Q1016 RMK 1ST005 3ST015 5CU025 A3001=,- SN SH
20180122_090000.002,1,RJEC,,,,0,20180122090000,-1,-1,-1,-1,180,-1,10,-1,-1,-1,-1,,9999,0,0,3,FEW 10   SCT 20   BKN 50,-1,8,-1,11,1016,RJEC 220900Z 18010KT 9999 FEW010 SCT020 BKN050 M08/M11 Q1016     RMK 1ST010 3CU020 5CU050 A3003=,
20180122_100000.002,1,RJEC,,,,0,20180122100000,-1,-1,-1,-1,200,-1,8,-1,-1,-1,-1,,9999,0,0,3,FEW 10   SCT 60   BKN 70,-1,8,-1,14,1016,RJEC 221000Z 20008KT 9999 FEW010 SCT060 BKN070 M08/M14 Q1016     RMK 1ST010 4CU060 6AC070 A3002=,
20180122_110000.003,1,RJEC,,,,0,20180122110000,-1,-1,-1,-1,160,-1,6,-1,-1,-1,-1,,9999,0,0,3,FEW 10   SCT 60   BKN -9999,-1,14,-1,17,1017,RJEC 221100Z 16006KT 9999 FEW010 SCT060 BKN/// M14/M17 Q1017     RMK 1ST010 3CU060 A3004=,
20180122_220000.002,0,RJEC,,,,0,20180122220000,-1,-1,-1,-1,999,-1,2,-1,-1,-1,-1,,9999,0,0,2,FEW 10   SCT 80,-1,16,-1,18,1006,RJEC 222200Z VRB02KT 9999 FEW010 SCT080 M16/M18 Q1006 RMK     1ST010 4AC080 A2971=,
20180122_230000.003,1,RJEC,,,,0,20180122230000,-1,-1,-1,-1,999,-1,1,-1,-1,-1,-1,,9999,0,0,3,FEW 20   SCT 80   BKN -9999,-1,16,-1,17,1004,RJEC 222300Z VRB01KT 9999 FEW020 SCT080 BKN/// M16/M17 Q1004     RMK 1CU020 3AC080 A2966=,
20180123_000000.002,1,RJEC,,,,0,20180123000000,-1,-1,-1,-1,999,-1,2,-1,-1,-1,-1,,9999,0,0,3,FEW 15   SCT 25   BKN 100,-1,14,-1,15,1003,RJEC 230000Z VRB02KT 9999 FEW015 SCT025 BKN100 M14/M15 Q1003     RMK 1ST015 3CU025 5AC100 A2962=,
20180123_010000.002,1,RJEC,,,,0,20180123010000,-1,-1,-1,-1,320,-1,3,-1,-1,-1,-1,,9999,0,0,3,FEW 15   SCT 100   BKN 150,-1,13,-1,14,1000,RJEC 230100Z 32003KT 9999 FEW015 SCT100 BKN150 M13/M14 Q1000     RMK 1ST015 3AC100 5AC150 A2956=,
20180123_020000.002,1,RJEC,,,,0,20180123020000,-1,-1,-1,-1,280,-1,3,-1,-1,240,320,,9999,0,0,3,FEW 30   SCT 120   BKN -9999,-1,12,-1,15,998,RJEC 230200Z 28003KT 240V320 9999 FEW030 SCT120 BKN/// M12/M15     Q0998 RMK 1CU030 4AC120 A2950 P/FR=,
20180123_030000.003,1,RJEC,,,,0,20180123030000,-1,-1,-1,-1,999,-1,2,-1,-1,-1,-1,,9999,0,0,2,FEW 30   SCT 100,-1,11,-1,14,996,RJEC 230300Z VRB02KT 9999 FEW030 SCT100 M11/M14 Q0996 RMK     1CU030 3AC100 A2943 P/FR=,
20180123_040000.003,1,RJEC,,,,0,20180123040000,-1,-1,-1,-1,40,-1,4,-1,-1,340,90,,9999,0,0,3,FEW 25   SCT 180   BKN -9999,-1,8,-1,12,993,RJEC 230400Z 04004KT 340V090 9999 FEW025 SCT180 BKN/// M08/M12     Q0993 RMK 1CU025 3AC180 A2935 P/FR=,
20180123_050000.002,1,RJEC,,,,0,20180123050000,-1,-1,-1,-1,999,-1,3,-1,-1,-1,-1,,9999,0,0,3,FEW 20   SCT 110   BKN 180,-1,8,-1,12,993,RJEC 230500Z VRB03KT 9999 FEW020 SCT110 BKN180 M08/M12 Q0993     RMK 1CU020 3AC110 5AC180 A2933=,
20180123_060000.003,1,RJEC,,,,0,20180123060000,-1,-1,-1,-1,150,-1,16,-1,-1,-1,-1,,9999,0,0,3,FEW 20   SCT 80   BKN 120,-1,1,-1,9,992,RJEC 230600Z 15016KT 9999 FEW020 SCT080 BKN120 M01/M09 Q0992     RMK 1CU020 3AC080 6AC120 A2932=,
20180123_070000.002,1,RJEC,,,,0,20180123070000,-1,-1,-1,-1,190,-1,9,-1,-1,150,230,,9999,0,1,3,FEW 15   SCT 25   BKN 50,-1,2,-1,8,993,RJEC 230700Z 19009KT 150V230 9999 VCSH FEW015 SCT025 BKN050     M02/M08 Q0993 RMK 1ST015 3CU025 6CU050 A2933 SH SW=,VC SH
20180123_080000.002,1,RJEC,,,,0,20180123080000,-1,-1,-1,-1,150,-1,18,-1,-1,-1,-1,,9999,0,1,3,FEW 10   SCT 20   BKN 30,-1,2,-1,7,993,RJEC 230800Z 15018KT 9999 -SHSN FEW010 SCT020 BKN030 M02/M07     Q0993 RMK 2ST010 4CU020 7CU030 A2933=,- SN SH
20180123_090000.002,1,RJEC,,,,0,20180123090000,-1,-1,-1,-1,170,-1,7,-1,-1,130,190,,9999,0,1,3,FEW 10   SCT 20   BKN 30,-1,3,-1,6,992,RJEC 230900Z 17007KT 130V190 9999 -SHSN FEW010 SCT020 BKN030     M03/M06 Q0992 RMK 1ST010 3CU020 7CU030 A2931=,- SN SH
20180123_100000.002,1,RJEC,,,,0,20180123100000,-1,-1,-1,-1,190,-1,8,-1,-1,-1,-1,,9999,0,1,3,FEW 10   SCT 20   BKN 30,-1,4,-1,5,992,RJEC 231000Z 19008KT 9999 -SHSN FEW010 SCT020 BKN030 M04/M05     Q0992 RMK 1ST010 3CU020 6CU030 A2930=,- SN SH
20180123_110000.002,1,RJEC,,,,0,20180123110000,-1,-1,-1,-1,180,-1,9,-1,-1,-1,-1,,9999,0,1,3,FEW 10   SCT 25   BKN 40,-1,3,-1,7,992,RJEC 231100Z 18009KT 9999 -SHSN FEW010 SCT025 BKN040 M03/M07     Q0992 RMK 1ST010 3CU025 5CU040 A2930=,- SN SH
20180123_220000.002,0,RJEC,,,,0,20180123220000,-1,-1,-1,-1,160,-1,10,-1,-1,-1,-1,,9999,0,0,1,FEW 25,-1,13,-1,16,996,RJEC 232200Z 16010KT 9999 FEW025 M13/M16 Q0996 RMK 1CU025     A2943=,
20180123_230000.002,1,RJEC,,,,0,20180123230000,-1,-1,-1,-1,150,-1,11,-1,-1,-1,-1,,9999,0,0,1,FEW 30,-1,13,-1,16,996,RJEC 232300Z 15011KT 9999 FEW030 M13/M16 Q0996 RMK 1CU030     A2943=,
20180124_000000.002,1,RJEC,,,,0,20180124000000,-1,-1,-1,-1,150,-1,11,-1,-1,-1,-1,,9999,0,0,1,FEW 30,-1,12,-1,15,996,RJEC 240000Z 15011KT 9999 FEW030 M12/M15 Q0996 RMK 1CU030     A2943=,
20180124_010000.003,1,RJEC,,,,0,20180124010000,-1,-1,-1,-1,160,-1,11,-1,-1,-1,-1,,9999,0,0,1,FEW 30,-1,10,-1,14,996,RJEC 240100Z 16011KT 9999 FEW030 M10/M14 Q0996 RMK 1CU030     A2943=,
20180124_020000.002,1,RJEC,,,,0,20180124020000,-1,-1,-1,-1,170,-1,7,-1,-1,-1,-1,,9999,0,0,1,FEW 30,-1,8,-1,14,995,RJEC 240200Z 17007KT 9999 FEW030 M08/M14 Q0995 RMK 1CU030     A2940=,
20180124_030000.002,1,RJEC,,,,0,20180124030000,-1,-1,-1,-1,210,-1,7,-1,-1,170,250,,9999,0,0,2,FEW 30   SCT 50,-1,7,-1,16,995,RJEC 240300Z 21007KT 170V250 9999 FEW030 SCT050 M07/M16 Q0995     RMK 1CU030 4CU050 A2938=,
20180124_040000.002,1,RJEC,,,,0,20180124040000,-1,-1,-1,-1,270,-1,13,-1,-1,-1,-1,,9999,0,0,3,FEW 30   SCT 50   BKN 70,-1,8,-1,19,994,RJEC 240400Z 27013KT 9999 FEW030 SCT050 BKN070 M08/M19 Q0994     RMK 1CU030 3CU050 6AC070 A2937=,
20180124_050000.002,1,RJEC,,,,0,20180124050000,-1,-1,-1,-1,250,-1,10,-1,-1,-1,-1,,9999,0,0,3,FEW 30   SCT 60   BKN 70,-1,8,-1,20,995,RJEC 240500Z 25010KT 9999 FEW030 SCT060 BKN070 M08/M20 Q0995     RMK 1CU030 3CU060 6AC070 A2938=,
20180124_060000.002,1,RJEC,,,,0,20180124060000,-1,-1,-1,-1,270,-1,8,-1,-1,-1,-1,,9999,0,0,2,FEW 25   BKN 40,-1,8,-1,17,995,RJEC 240600Z 27008KT 9999 FEW025 BKN040 M08/M17 Q0995 RMK     1CU025 5CU040 A2939=,
20180124_070000.002,1,RJEC,,,,0,20180124070000,-1,-1,-1,-1,230,-1,6,-1,-1,-1,-1,,9999,0,0,2,FEW 25   SCT 40,-1,10,-1,19,996,RJEC 240700Z 23006KT 9999 FEW025 SCT040 M10/M19 Q0996 RMK     1CU025 3CU040 A2941=,
20180124_080000.002,1,RJEC,,,,0,20180124080000,-1,-1,-1,-1,20,-1,3,-1,-1,290,70,,9999,0,0,1,FEW 25,-1,12,-1,17,996,RJEC 240800Z 02003KT 290V070 9999 FEW025 M12/M17 Q0996 RMK     1CU025 A2942=,
20180124_090000.003,1,RJEC,,,,0,20180124090000,-1,-1,-1,-1,190,-1,4,-1,-1,-1,-1,,9999,0,0,1,FEW 10,-1,13,-1,17,996,RJEC 240900Z 19004KT 9999 FEW010 M13/M17 Q0996 RMK 1ST010     A2943=,
20180124_100000.002,1,RJEC,,,,0,20180124100000,-1,-1,-1,-1,170,-1,7,-1,-1,-1,-1,,9999,0,0,2,FEW 10   SCT 100,-1,16,-1,19,996,RJEC 241000Z 17007KT 9999 FEW010 SCT100 M16/M19 Q0996 RMK     1ST010 3AC100 A2944=,
20180124_110000.002,1,RJEC,,,,0,20180124110000,-1,-1,-1,-1,190,-1,7,-1,-1,-1,-1,,9999,0,0,2,FEW 10   BKN 100,-1,16,-1,20,996,RJEC 241100Z 19007KT 9999 FEW010 BKN100 M16/M20 Q0996 RMK     1ST010 5AC100 A2944=,
20180124_220000.002,0,RJEC,,,,0,20180124220000,-1,-1,-1,-1,230,-1,4,-1,-1,-1,-1,,9999,0,1,3,FEW 8   SCT 40   BKN 80,-1,15,-1,17,994,RJEC 242200Z 23004KT 9999 -SHSN FEW008 SCT040 BKN080 M15/M17     Q0994 RMK 1ST008 3CU040 7AC080 A2937=,- SN SH
20180124_230000.002,1,RJEC,,,,0,20180124230000,-1,-1,-1,-1,180,-1,7,-1,-1,-1,-1,,3200,0,1,3,FEW 8   SCT 20   BKN 30,-1,15,-1,17,994,RJEC 242300Z 18007KT 3200 -SHSN FEW008 SCT020 BKN030 M15/M17     Q0994 RMK 1ST008 3CU020 7CU030 A2938=,- SN SH
20180125_000000.002,1,RJEC,,,,0,20180125000000,-1,-1,-1,-1,170,-1,9,-1,-1,-1,-1,,8000,0,1,3,FEW 8   SCT 15   BKN 30,-1,13,-1,15,994,RJEC 250000Z 17009KT 8000 -SHSN FEW008 SCT015 BKN030 M13/M15     Q0994 RMK 1ST008 3ST015 6CU030 A2938=,- SN SH
20180125_010000.002,1,RJEC,,,,0,20180125010000,-1,-1,-1,-1,170,-1,9,-1,-1,-1,-1,,7000,0,1,3,FEW 8   SCT 15   BKN 30,-1,10,-1,13,994,RJEC 250100Z 17009KT 7000 -SHSN FEW008 SCT015 BKN030 M10/M13     Q0994 RMK 1ST008 3ST015 6CU030 A2938=,- SN SH
20180125_020000.003,1,RJEC,,,,0,20180125020000,-1,-1,-1,-1,180,-1,8,-1,-1,-1,-1,,1400,1,1,3,FEW 5   SCT 10   BKN 15,-1,9,-1,11,994,RJEC 250200Z 18008KT 1400 R34/0600V1200D -SHSN FEW005 SCT010     BKN015 M09/M11 Q0994 RMK 2ST005 4ST010 6ST015 A2937=,- SN SH
20180125_030000.002,1,RJEC,,,,0,20180125030000,-1,-1,-1,-1,180,-1,6,-1,-1,-1,-1,,900,1,1,1,VV 8,-1,8,-1,10,993,RJEC 250300Z 18006KT 0900 R34/0800V1000N SHSN VV008 M08/M10     Q0993 RMK A2935=,SN SH
20180125_040000.002,1,RJEC,,,,0,20180125040000,-1,-1,-1,-1,999,-1,3,-1,-1,-1,-1,,7000,0,1,3,FEW 5   SCT 15   BKN 20,-1,7,-1,10,993,RJEC 250400Z VRB03KT 7000 -SHSN FEW005 SCT015 BKN020 M07/M10     Q0993 RMK 1ST005 3ST015 6CU020 A2933=,- SN SH
20180125_050000.002,1,RJEC,,,,0,20180125050000,-1,-1,-1,-1,290,-1,12,-1,-1,-1,-1,,6000,0,1,3,FEW 5   SCT 20   BKN 50,-1,7,-1,10,993,RJEC 250500Z 29012KT 6000 -SHSN FEW005 SCT020 BKN050 M07/M10     Q0993 RMK 1ST005 3CU020 5CU050 A2935=,- SN SH
20180125_060000.002,1,RJEC,,,,0,20180125060000,-1,-1,-1,-1,310,-1,7,-1,-1,-1,-1,,3000,1,1,3,FEW 3   SCT 10   BKN 15,-1,7,-1,9,994,RJEC 250600Z 31007KT 3000 R34/1800N -SHSN FEW003 SCT010 BKN015     M07/M09 Q0994 RMK 1ST003 4ST010 7ST015 A2936=,- SN SH
20180125_070000.002,1,RJEC,,,,0,20180125070000,-1,-1,-1,-1,300,-1,4,-1,-1,-1,-1,,9999,0,1,3,FEW 8   SCT 15   BKN 25,-1,8,-1,10,994,RJEC 250700Z 30004KT 9999 -SHSN FEW008 SCT015 BKN025 M08/M10     Q0994 RMK 1ST008 3ST015 5CU025 A2936=,- SN SH
20180125_080000.002,1,RJEC,,,,0,20180125080000,-1,-1,-1,-1,290,-1,5,-1,-1,-1,-1,,9999,0,1,3,FEW 5   SCT 15   BKN 25,-1,9,-1,10,994,RJEC 250800Z 29005KT 9999 -SHSN FEW005 SCT015 BKN025 M09/M10     Q0994 RMK 1ST005 3ST015 5CU025 A2936 4000S=,- SN SH
20180125_090000.002,1,RJEC,,,,0,20180125090000,-1,-1,-1,-1,300,-1,4,-1,-1,-1,-1,,9999,0,0,3,FEW 10   SCT 25   BKN 80,-1,9,-1,11,994,RJEC 250900Z 30004KT 9999 FEW010 SCT025 BKN080 M09/M11 Q0994     RMK 1ST010 3CU025 6AC080 A2936=,
20180125_100000.003,1,RJEC,,,,0,20180125100000,-1,-1,-1,-1,200,-1,4,-1,-1,160,260,,2500,1,1,3,FEW 5   SCT 10   BKN 15,-1,8,-1,10,994,RJEC 251000Z 20004KT 160V260 2500 R34/2000N -SHSN FEW005     SCT010 BKN015 M08/M10 Q0994 RMK 2ST005 4ST010 7ST015           A2937=,- SN SH
20180125_110000.003,1,RJEC,,,,0,20180125110000,-1,-1,-1,-1,160,-1,6,-1,-1,-1,-1,,9999,0,1,3,FEW 8   SCT 15   BKN 25,-1,9,-1,10,994,RJEC 251100Z 16006KT 9999 -SHSN FEW008 SCT015 BKN025 M09/M10     Q0994 RMK 1ST008 3ST015 6CU025 A2936=,- SN SH
20180125_220000.002,0,RJEC,,,,0,20180125220000,-1,-1,-1,-1,340,-1,5,-1,-1,-1,-1,,3000,0,1,3,FEW 5   SCT 10   BKN 18,-1,7,-1,8,994,RJEC 252200Z 34005KT 3000 -SHSN FEW005 SCT010 BKN018 M07/M08     Q0994 RMK 1ST005 4ST010 7ST018 A2936=,- SN SH
20180125_230000.002,1,RJEC,,,,0,20180125230000,-1,-1,-1,-1,20,-1,3,-1,-1,-1,-1,,2400,1,1,3,FEW 3   SCT 10   BKN 18,-1,7,-1,8,994,RJEC 252300Z 02003KT 2400 R34/2000N -SHSN FEW003 SCT010 BKN018     M07/M08 Q0994 RMK 1ST003 4ST010 7ST018 A2938=,- SN SH
20180126_000000.002,1,RJEC,,,,0,20180126000000,-1,-1,-1,-1,300,-1,5,-1,-1,-1,-1,,2500,1,1,3,FEW 5   SCT 12   BKN 18,-1,7,-1,8,995,RJEC 260000Z 30005KT 2500 R34/2000N -SHSN FEW005 SCT012 BKN018     M07/M08 Q0995 RMK 1ST005 4ST012 7ST018 A2940=,- SN SH
20180126_010000.002,1,RJEC,,,,0,20180126010000,-1,-1,-1,-1,330,-1,7,-1,-1,-1,-1,,8000,0,1,3,FEW 8   SCT 18   BKN 30,-1,6,-1,8,996,RJEC 260100Z 33007KT 8000 -SHSN FEW008 SCT018 BKN030 M06/M08     Q0996 RMK 1ST008 3ST018 6CU030 A2941=,- SN SH
20180126_020000.002,1,RJEC,,,,0,20180126020000,-1,-1,-1,-1,350,-1,8,-1,-1,-1,-1,,7000,0,1,3,FEW 7   SCT 15   BKN 30,-1,5,-1,9,995,RJEC 260200Z 35008KT 7000 -SHSN FEW007 SCT015 BKN030 M05/M09     Q0995 RMK 1ST007 3ST015 6CU030 A2941=,- SN SH
20180126_030000.002,1,RJEC,,,,0,20180126030000,-1,-1,-1,-1,10,-1,7,-1,-1,-1,-1,,6000,0,1,3,FEW 6   SCT 15   BKN 25,-1,6,-1,8,995,RJEC 260300Z 01007KT 6000 -SHSN FEW006 SCT015 BKN025 M06/M08     Q0995 RMK 1ST006 3ST015 6CU025 A2940=,- SN SH
20180126_040000.002,1,RJEC,,,,0,20180126040000,-1,-1,-1,-1,360,-1,4,-1,-1,-1,-1,,3500,1,1,3,FEW 5   SCT 10   BKN 15,-1,6,-1,8,995,RJEC 260400Z 36004KT 3500 R34/0750VP2000D -SHSN FEW005 SCT010     BKN015 M06/M08 Q0995 RMK 2ST005 4ST010 7ST015 A2940=,- SN SH
20180126_050000.002,1,RJEC,,,,0,20180126050000,-1,-1,-1,-1,999,-1,2,-1,-1,-1,-1,,9999,0,1,3,FEW 8   SCT 15   BKN 25,-1,6,-1,8,996,RJEC 260500Z VRB02KT 9999 -SHSN FEW008 SCT015 BKN025 M06/M08     Q0996 RMK 1ST008 3ST015 6CU025 A2941=,- SN SH
20180126_060000.002,1,RJEC,,,,0,20180126060000,-1,-1,-1,-1,290,-1,10,-1,-1,-1,-1,,3500,0,1,3,FEW 5   SCT 12   BKN 18,-1,5,-1,8,996,RJEC 260600Z 29010KT 3500 -SHSN FEW005 SCT012 BKN018 M05/M08     Q0996 RMK 1ST005 3ST012 6ST018 A2942 9999S=,- SN SH
20180126_070000.002,1,RJEC,,,,0,20180126070000,-1,-1,-1,-1,290,-1,7,-1,-1,-1,-1,,9999,0,1,3,FEW 5   SCT 25   BKN 40,-1,7,-1,9,996,RJEC 260700Z 29007KT 9999 VCSH FEW005 SCT025 BKN040 M07/M09     Q0996 RMK 1ST005 3CU025 5CU040 A2944 SH SW=,VC SH
20180126_080000.003,1,RJEC,,,,0,20180126080000,-1,-1,-1,-1,300,-1,9,-1,-1,-1,-1,,9999,0,1,3,FEW 5   SCT 15   BKN 20,-1,6,-1,8,997,RJEC 260800Z 30009KT 9999 -SHSN FEW005 SCT015 BKN020 M06/M08     Q0997 RMK 1ST005 3ST015 6CU020 A2947=,- SN SH
20180126_090000.002,1,RJEC,,,,0,20180126090000,-1,-1,-1,-1,330,-1,4,-1,-1,-1,-1,,9999,0,1,3,FEW 8   SCT 15   BKN 25,-1,7,-1,8,998,RJEC 260900Z 33004KT 9999 -SHSN FEW008 SCT015 BKN025 M07/M08     Q0998 RMK 1ST008 3ST015 6CU025 A2949=,- SN SH
20180126_100000.002,1,RJEC,,,,0,20180126100000,-1,-1,-1,-1,999,-1,1,-1,-1,-1,-1,,9999,0,1,3,FEW 10   SCT 15   BKN 20,-1,6,-1,7,999,RJEC 261000Z VRB01KT 9999 -SHSN FEW010 SCT015 BKN020 M06/M07     Q0999 RMK 1ST010 3ST015 6CU020 A2951=,- SN SH
20180126_110000.002,1,RJEC,,,,0,20180126110000,-1,-1,-1,-1,340,-1,3,-1,-1,-1,-1,,9999,0,1,3,FEW 8   SCT 18   BKN 25,-1,7,-1,8,999,RJEC 261100Z 34003KT 9999 -SHSN FEW008 SCT018 BKN025 M07/M08     Q0999 RMK 1ST008 3ST018 6CU025 A2952=,- SN SH
20180126_220000.002,0,RJEC,,,,0,20180126220000,-1,-1,-1,-1,80,-1,2,-1,-1,-1,-1,,3500,0,1,3,FEW 5   SCT 10   BKN 18,-1,8,-1,9,1003,RJEC 262200Z 08002KT 3500 -SHSN FEW005 SCT010 BKN018 M08/M09     Q1003 RMK 1ST005 3ST010 7ST018 A2963=,- SN SH
20180126_230000.002,1,RJEC,,,,0,20180126230000,-1,-1,-1,-1,180,-1,3,-1,-1,-1,-1,,3000,0,1,3,FEW 5   SCT 10   BKN 15,-1,8,-1,9,1003,RJEC 262300Z 18003KT 3000 -SHSN FEW005 SCT010 BKN015 M08/M09     Q1003 RMK 1ST005 3ST010 7ST015 A2964=,- SN SH
20180127_000000.002,1,RJEC,,,,0,20180127000000,-1,-1,-1,-1,180,-1,3,-1,-1,-1,-1,,3200,0,1,3,FEW 5   SCT 15   BKN 30,-1,7,-1,9,1004,RJEC 270000Z 18003KT 3200 -SHSN FEW005 SCT015 BKN030 M07/M09     Q1004 RMK 1ST005 4ST015 7CU030 A2965=,- SN SH
20180127_010000.002,1,RJEC,,,,0,20180127010000,-1,-1,-1,-1,190,-1,4,-1,-1,160,230,,9999,0,1,3,FEW 10   SCT 20   BKN 30,-1,7,-1,9,1004,RJEC 270100Z 19004KT 160V230 9999 -SHSN FEW010 SCT020 BKN030     M07/M09 Q1004 RMK 1ST010 3CU020 6CU030 A2966=,- SN SH
20180127_020000.002,1,RJEC,,,,0,20180127020000,-1,-1,-1,-1,170,-1,7,-1,-1,-1,-1,,2000,1,1,3,FEW 3   SCT 10   BKN 15,-1,6,-1,8,1004,RJEC 270200Z 17007KT 2000 R34/1800D -SHSN FEW003 SCT010 BKN015     M06/M08 Q1004 RMK 2ST003 4ST010 7ST015 A2966=,- SN SH
20180127_030000.002,1,RJEC,,,,0,20180127030000,-1,-1,-1,-1,999,-1,2,-1,-1,-1,-1,,8000,0,1,3,FEW 8   SCT 20   BKN 30,-1,5,-1,9,1004,RJEC 270300Z VRB02KT 8000 -SHSN FEW008 SCT020 BKN030 M05/M09     Q1004 RMK 1ST008 3CU020 6CU030 A2966=,- SN SH
20180127_040000.002,1,RJEC,,,,0,20180127040000,-1,-1,-1,-1,290,-1,15,-1,-1,-1,-1,,9999,0,1,3,FEW 10   SCT 20   BKN 50,-1,5,-1,9,1004,RJEC 270400Z 29015KT 9999 -SHSN FEW010 SCT020 BKN050 M05/M09     Q1004 RMK 1ST010 3CU020 5CU050 A2966=,- SN SH
20180127_050000.002,1,RJEC,,,,0,20180127050000,-1,-1,-1,-1,280,-1,8,-1,-1,-1,-1,,9999,0,0,2,FEW 20   SCT 50,-1,6,-1,11,1004,RJEC 270500Z 28008KT 9999 FEW020 SCT050 M06/M11 Q1004 RMK     1CU020 3CU050 A2967=,
20180127_060000.002,1,RJEC,,,,0,20180127060000,-1,-1,-1,-1,290,-1,6,-1,-1,-1,-1,,9999,0,1,3,FEW 10   SCT 20   BKN 50,-1,7,-1,10,1005,RJEC 270600Z 29006KT 9999 -SHSN FEW010 SCT020 BKN050 M07/M10     Q1005 RMK 1ST010 3CU020 5CU050 A2969=,- SN SH
20180127_070000.002,1,RJEC,,,,0,20180127070000,-1,-1,-1,-1,270,-1,2,-1,-1,-1,-1,,9999,0,1,3,FEW 10   SCT 20   BKN 50,-1,7,-1,10,1006,RJEC 270700Z 27002KT 9999 -SHSN FEW010 SCT020 BKN050 M07/M10     Q1006 RMK 1ST010 3CU020 6CU050 A2971=,- SN SH
20180127_080000.002,1,RJEC,,,,0,20180127080000,-1,-1,-1,-1,310,-1,4,-1,-1,-1,-1,,8000,0,1,3,FEW 8   SCT 18   BKN 30,-1,7,-1,9,1006,RJEC 270800Z 31004KT 8000 -SHSN FEW008 SCT018 BKN030 M07/M09     Q1006 RMK 1ST008 3ST018 6CU030 A2972=,- SN SH
20180127_090000.003,1,RJEC,,,,0,20180127090000,-1,-1,-1,-1,0,-1,0,-1,-1,-1,-1,,6000,0,1,3,FEW 8   SCT 18   BKN 25,-1,7,-1,8,1006,RJEC 270900Z 00000KT 6000 -SHSN FEW008 SCT018 BKN025 M07/M08     Q1006 RMK 1ST008 3ST018 6CU025 A2973=,- SN SH
20180127_100000.002,1,RJEC,,,,0,20180127100000,-1,-1,-1,-1,170,-1,4,-1,-1,-1,-1,,3000,0,1,3,FEW 5   SCT 15   BKN 20,-1,7,-1,8,1007,RJEC 271000Z 17004KT 3000 -SHSN FEW005 SCT015 BKN020 M07/M08     Q1007 RMK 1ST005 3ST015 6CU020 A2974=,- SN SH
20180127_110000.002,1,RJEC,,,,0,20180127110000,-1,-1,-1,-1,180,-1,4,-1,-1,-1,-1,,9999,0,1,3,FEW 10   SCT 20   BKN 40,-1,7,-1,9,1007,RJEC 271100Z 18004KT 9999 -SHSN FEW010 SCT020 BKN040 M07/M09     Q1007 RMK 1ST010 3CU020 6CU040 A2976=,- SN SH
20180127_220000.002,0,RJEC,,,,0,20180127220000,-1,-1,-1,-1,180,-1,6,-1,-1,-1,-1,,9999,0,1,3,FEW 10   SCT 18   BKN 25,-1,8,-1,10,1010,RJEC 272200Z 18006KT 9999 -SHSN FEW010 SCT018 BKN025 M08/M10     Q1010 RMK 1ST010 3ST018 6CU025 A2982=,- SN SH
20180127_230000.002,1,RJEC,,,,0,20180127230000,-1,-1,-1,-1,190,-1,6,-1,-1,-1,-1,,6000,0,1,3,FEW 6   SCT 15   BKN 20,-1,7,-1,9,1010,RJEC 272300Z 19006KT 6000 -SHSN FEW006 SCT015 BKN020 M07/M09     Q1010 RMK 1ST006 3ST015 6CU020 A2983=,- SN SH
20180128_000000.003,1,RJEC,,,,0,20180128000000,-1,-1,-1,-1,160,-1,10,-1,-1,-1,-1,,3000,0,1,3,FEW 3   SCT 10   BKN 15,-1,6,-1,8,1010,RJEC 280000Z 16010KT 3000 -SHSN FEW003 SCT010 BKN015 M06/M08     Q1010 RMK 1ST003 3ST010 6ST015 A2983=,- SN SH
20180128_010000.002,1,RJEC,,,,0,20180128010000,-1,-1,-1,-1,170,-1,11,-1,-1,-1,-1,,7000,0,1,3,FEW 5   SCT 15   BKN 25,-1,6,-1,8,1010,RJEC 280100Z 17011KT 7000 -SHSN FEW005 SCT015 BKN025 M06/M08     Q1010 RMK 1ST005 3ST015 6CU025 A2982=,- SN SH
20180128_020000.002,1,RJEC,,,,0,20180128020000,-1,-1,-1,-1,170,-1,10,-1,-1,-1,-1,,2500,0,1,3,FEW 3   SCT 12   BKN 18,-1,5,-1,8,1009,RJEC 280200Z 17010KT 2500 -SHSN FEW003 SCT012 BKN018 M05/M08     Q1009 RMK 2ST003 4ST012 7ST018 A2980=,- SN SH
20180128_030000.002,1,RJEC,,,,0,20180128030000,-1,-1,-1,-1,200,-1,9,-1,-1,160,230,,4000,0,1,3,FEW 5   SCT 15   BKN 20,-1,5,-1,8,1008,RJEC 280300Z 20009KT 160V230 4000 -SHSN FEW005 SCT015 BKN020     M05/M08 Q1008 RMK 1ST005 3ST015 6CU020 A2977=,- SN SH
20180128_040000.002,1,RJEC,,,,0,20180128040000,-1,-1,-1,-1,220,-1,11,-1,-1,-1,-1,,9999,0,1,3,FEW 15   SCT 25   BKN -9999,-1,5,-1,10,1007,RJEC 280400Z 22011KT 9999 -SHSN FEW015 SCT025 BKN/// M05/M10     Q1007 RMK 1ST015 4CU025 A2974=,- SN SH
20180128_050000.002,1,RJEC,,,,0,20180128050000,-1,-1,-1,-1,200,-1,10,-1,-1,-1,-1,,9999,0,1,3,FEW 15   SCT 25   BKN -9999,-1,5,-1,10,1006,RJEC 280500Z 20010KT 9999 -SHSN FEW015 SCT025 BKN/// M05/M10     Q1006 RMK 1ST015 3CU025 A2973=,- SN SH
20180128_060000.002,1,RJEC,,,,0,20180128060000,-1,-1,-1,-1,190,-1,12,-1,-1,-1,-1,,6000,0,1,3,FEW 6   SCT 15   BKN 25,-1,5,-1,9,1007,RJEC 280600Z 19012KT 6000 -SHSN FEW006 SCT015 BKN025 M05/M09     Q1007 RMK 1ST006 3ST015 6CU025 A2974=,- SN SH
20180128_070000.003,1,RJEC,,,,0,20180128070000,-1,-1,-1,-1,190,-1,12,-1,-1,-1,-1,,3200,0,1,3,FEW 5   SCT 12   BKN 20,-1,6,-1,8,1006,RJEC 280700Z 19012KT 3200 -SHSN FEW005 SCT012 BKN020 M06/M08     Q1006 RMK 1ST005 3ST012 6CU020 A2973=,- SN SH
20180128_080000.002,1,RJEC,,,,0,20180128080000,-1,-1,-1,-1,190,-1,11,-1,-1,-1,-1,,8000,0,1,3,FEW 8   SCT 20   BKN 35,-1,6,-1,9,1006,RJEC 280800Z 19011KT 8000 -SHSN FEW008 SCT020 BKN035 M06/M09     Q1006 RMK 1ST008 3CU020 6CU035 A2972=,- SN SH
20180128_090000.002,1,RJEC,,,,0,20180128090000,-1,-1,-1,-1,200,-1,7,-1,-1,-1,-1,,8000,0,1,3,FEW 5   SCT 18   BKN 30,-1,6,-1,9,1005,RJEC 280900Z 20007KT 8000 -SHSN FEW005 SCT018 BKN030 M06/M09     Q1005 RMK 1ST005 3ST018 7CU030 A2970=,- SN SH
20180128_100000.002,1,RJEC,,,,0,20180128100000,-1,-1,-1,-1,190,-1,8,-1,-1,-1,-1,,9999,0,0,3,FEW 10   SCT 25   BKN 150,-1,7,-1,10,1004,RJEC 281000Z 19008KT 9999 FEW010 SCT025 BKN150 M07/M10 Q1004     RMK 1ST010 3CU025 6AC150 A2966=,
20180128_110000.002,1,RJEC,,,,0,20180128110000,-1,-1,-1,-1,180,-1,9,-1,-1,-1,-1,,9999,0,0,3,FEW 10   SCT 30   BKN 50,-1,6,-1,10,1003,RJEC 281100Z 18009KT 9999 FEW010 SCT030 BKN050 M06/M10 Q1003     RMK 1ST010 3CU030 5CU050 A2964=,
20180128_220000.003,0,RJEC,,,,0,20180128220000,-1,-1,-1,-1,270,-1,15,-1,-1,-1,-1,,9999,0,0,2,FEW 10   SCT 25,-1,11,-1,16,1002,RJEC 282200Z 27015KT 9999 FEW010 SCT025 M11/M16 Q1002 RMK     1ST010 3CU025 A2961=,
20180128_230000.002,1,RJEC,,,,0,20180128230000,-1,-1,-1,-1,260,-1,12,-1,-1,-1,-1,,9999,0,0,2,FEW 25   SCT 40,-1,11,-1,17,1003,RJEC 282300Z 26012KT 9999 FEW025 SCT040 M11/M17 Q1003 RMK     1CU025 3CU040 A2962=,
20180129_000000.003,1,RJEC,,,,0,20180129000000,-1,-1,-1,-1,290,-1,10,-1,-1,-1,-1,,9999,0,0,2,FEW 20   SCT 40,-1,11,-1,17,1003,RJEC 290000Z 29010KT 9999 FEW020 SCT040 M11/M17 Q1003 RMK     1CU020 3CU040 A2964=,
20180129_010000.002,1,RJEC,,,,0,20180129010000,-1,-1,-1,-1,260,-1,4,-1,-1,-1,-1,,9999,0,1,2,FEW 18   SCT 35,-1,9,-1,16,1003,RJEC 290100Z 26004KT 9999 VCSH FEW018 SCT035 M09/M16 Q1003 RMK     1ST018 3CU035 A2964 SH SW=,VC SH
20180129_020000.002,1,RJEC,,,,0,20180129020000,-1,-1,-1,-1,240,-1,4,-1,-1,-1,-1,,9999,0,1,2,FEW 15   SCT 35,-1,9,-1,15,1003,RJEC 290200Z 24004KT 9999 -SHSN FEW015 SCT035 M09/M15 Q1003     RMK 1ST015 3CU035 A2964=,- SN SH
20180129_030000.002,1,RJEC,,,,0,20180129030000,-1,-1,-1,-1,190,-1,5,-1,-1,-1,-1,,2400,1,1,3,FEW 5   SCT 12   BKN 30,-1,10,-1,12,1003,RJEC 290300Z 19005KT 2400 R34/1900U -SHSN FEW005 SCT012 BKN030     M10/M12 Q1003 RMK 1ST005 3ST012 5CU030 A2963=,- SN SH
20180129_040000.002,1,RJEC,,,,0,20180129040000,-1,-1,-1,-1,160,-1,3,-1,-1,130,190,,1500,1,1,3,FEW 5   SCT 10   BKN 15,-1,10,-1,12,1003,RJEC 290400Z 16003KT 130V190 1500 R34/1400VP2000N -SHSN FEW005     SCT010 BKN015 M10/M12 Q1003 RMK 1ST005 3ST010 6ST015           A2962=,- SN SH
20180129_050000.002,1,RJEC,,,,0,20180129050000,-1,-1,-1,-1,999,-1,1,-1,-1,-1,-1,,1200,1,1,3,FEW 5   SCT 10   BKN 15,-1,9,-1,12,1003,RJEC 290500Z VRB01KT 1200 R34/1100V1900D -SHSN FEW005 SCT010     BKN015 M09/M12 Q1003 RMK 1ST005 4ST010 6ST015 A2963=,- SN SH
20180129_060000.002,1,RJEC,,,,0,20180129060000,-1,-1,-1,-1,999,-1,2,-1,-1,-1,-1,,1500,1,1,3,FEW 5   SCT 10   BKN 15,-1,9,-1,11,1003,RJEC 290600Z VRB02KT 1500 R34/2000N -SHSN FEW005 SCT010 BKN015     M09/M11 Q1003 RMK 1ST005 4ST010 6ST015 A2964=,- SN SH
20180129_070000.002,1,RJEC,,,,0,20180129070000,-1,-1,-1,-1,210,-1,7,-1,-1,-1,-1,,2400,0,1,3,FEW 5   SCT 15   BKN 20,-1,9,-1,12,1003,RJEC 290700Z 21007KT 2400 -SHSN FEW005 SCT015 BKN020 M09/M12     Q1003 RMK 1ST005 3ST015 5CU020 A2964 5000S=,- SN SH
20180129_080000.002,1,RJEC,,,,0,20180129080000,-1,-1,-1,-1,180,-1,5,-1,-1,-1,-1,,7000,0,1,3,FEW 5   SCT 15   BKN 40,-1,10,-1,13,1004,RJEC 290800Z 18005KT 7000 -SHSN FEW005 SCT015 BKN040 M10/M13     Q1004 RMK 1ST005 3ST015 5CU040 A2965=,- SN SH
20180129_090000.002,1,RJEC,,,,0,20180129090000,-1,-1,-1,-1,180,-1,6,-1,-1,-1,-1,,9999,0,1,3,FEW 5   SCT 15   BKN 25,-1,10,-1,13,1004,RJEC 290900Z 18006KT 9999 -SHSN FEW005 SCT015 BKN025 M10/M13     Q1004 RMK 1ST005 3ST015 6CU025 A2965=,- SN SH
20180129_100000.002,1,RJEC,,,,0,20180129100000,-1,-1,-1,-1,160,-1,7,-1,-1,-1,-1,,9999,0,1,3,FEW 10   SCT 25   BKN 40,-1,10,-1,13,1004,RJEC 291000Z 16007KT 9999 -SHSN FEW010 SCT025 BKN040 M10/M13     Q1004 RMK 1ST010 3CU025 6CU040 A2965=,- SN SH
20180129_110000.002,1,RJEC,,,,0,20180129110000,-1,-1,-1,-1,150,-1,8,-1,-1,-1,-1,,9999,0,1,3,FEW 10   SCT 20   BKN 30,-1,11,-1,13,1004,RJEC 291100Z 15008KT 9999 -SHSN FEW010 SCT020 BKN030 M11/M13     Q1004 RMK 1ST010 3CU020 6CU030 A2965=,- SN SH
20180129_220000.002,0,RJEC,,,,0,20180129220000,-1,-1,-1,-1,170,-1,10,-1,-1,-1,-1,,9999,0,0,2,FEW 10   SCT 25,-1,14,-1,16,1006,RJEC 292200Z 17010KT 9999 FEW010 SCT025 M14/M16 Q1006 RMK     1ST010 3CU025 A2972=,
20180129_230000.002,1,RJEC,,,,0,20180129230000,-1,-1,-1,-1,160,-1,12,-1,-1,-1,-1,,9999,0,0,1,FEW 20,-1,13,-1,16,1006,RJEC 292300Z 16012KT 9999 FEW020 M13/M16 Q1006 RMK 1CU020     A2973=,
20180130_000000.002,1,RJEC,,,,0,20180130000000,-1,-1,-1,-1,170,-1,11,-1,-1,-1,-1,,9999,0,0,1,FEW 18,-1,11,-1,14,1007,RJEC 300000Z 17011KT 9999 FEW018 M11/M14 Q1007 RMK 1ST018     A2974=,
20180130_010000.002,1,RJEC,,,,0,20180130010000,-1,-1,-1,-1,160,-1,11,-1,-1,-1,-1,,9999,0,0,2,FEW 18   SCT 50,-1,10,-1,14,1007,RJEC 300100Z 16011KT 9999 FEW018 SCT050 M10/M14 Q1007 RMK     1ST018 3CU050 A2975=,
20180130_020000.002,1,RJEC,,,,0,20180130020000,-1,-1,-1,-1,160,-1,11,-1,-1,-1,-1,,9999,0,1,2,FEW 15   SCT 40,-1,9,-1,13,1007,RJEC 300200Z 16011KT 9999 -SHSN FEW015 SCT040 M09/M13 Q1007     RMK 1ST015 4CU040 A2974=,- SN SH
20180130_030000.002,1,RJEC,,,,0,20180130030000,-1,-1,-1,-1,180,-1,10,-1,-1,-1,-1,,9999,0,1,3,FEW 15   SCT 25   BKN 35,-1,8,-1,13,1007,RJEC 300300Z 18010KT 9999 -SHSN FEW015 SCT025 BKN035 M08/M13     Q1007 RMK 1ST015 3CU025 5CU035 A2974=,- SN SH
20180130_040000.002,1,RJEC,,,,0,20180130040000,-1,-1,-1,-1,170,-1,9,-1,-1,-1,-1,,5000,0,1,3,FEW 10   SCT 15   BKN 25,-1,8,-1,10,1007,RJEC 300400Z 17009KT 5000 -SHSN FEW010 SCT015 BKN025 M08/M10     Q1007 RMK 1ST010 3ST015 5CU025 A2974=,- SN SH
20180130_050000.002,1,RJEC,,,,0,20180130050000,-1,-1,-1,-1,250,-1,8,-1,-1,-1,-1,,8000,0,1,2,FEW 10   SCT 20,-1,7,-1,12,1007,RJEC 300500Z 25008KT 8000 -SHSN FEW010 SCT020 M07/M12 Q1007     RMK 1ST010 3CU020 A2974=,- SN SH
20180130_060000.003,1,RJEC,,,,0,20180130060000,-1,-1,-1,-1,230,-1,5,-1,-1,-1,-1,,7000,0,1,3,FEW 5   SCT 15   BKN 25,-1,8,-1,11,1008,RJEC 300600Z 23005KT 7000 -SHSN FEW005 SCT015 BKN025 M08/M11     Q1008 RMK 1ST005 3ST015 5CU025 A2977=,- SN SH
20180130_070000.002,1,RJEC,,,,0,20180130070000,-1,-1,-1,-1,250,-1,6,-1,-1,-1,-1,,3100,1,1,3,FEW 5   SCT 12   BKN 18,-1,9,-1,10,1008,RJEC 300700Z 25006KT 3100 R34/1000VP2000D -SHSN FEW005 SCT012     BKN018 M09/M10 Q1008 RMK 2ST005 4ST012 7ST018 A2979=,- SN SH
20180130_080000.002,1,RJEC,,,,0,20180130080000,-1,-1,-1,-1,180,-1,6,-1,-1,-1,-1,,4000,0,1,3,FEW 8   SCT 15   BKN 25,-1,9,-1,10,1009,RJEC 300800Z 18006KT 4000 -SHSN FEW008 SCT015 BKN025 M09/M10     Q1009 RMK 1ST008 3ST015 7CU025 A2980=,- SN SH
20180130_090000.002,1,RJEC,,,,0,20180130090000,-1,-1,-1,-1,180,-1,9,-1,-1,-1,-1,,4900,0,1,3,FEW 5   SCT 12   BKN 18,-1,9,-1,11,1010,RJEC 300900Z 18009KT 4900 -SHSN FEW005 SCT012 BKN018 M09/M11     Q1010 RMK 2ST005 4ST012 7ST018 A2982=,- SN SH
20180130_100000.002,1,RJEC,,,,0,20180130100000,-1,-1,-1,-1,180,-1,8,-1,-1,-1,-1,,9999,0,1,3,FEW 10   SCT 20   BKN 40,-1,10,-1,14,1010,RJEC 301000Z 18008KT 9999 -SHSN FEW010 SCT020 BKN040 M10/M14     Q1010 RMK 1ST010 3CU020 5CU040 A2985=,- SN SH
20180130_110000.002,1,RJEC,,,,0,20180130110000,-1,-1,-1,-1,170,-1,10,-1,-1,-1,-1,,9999,0,1,3,FEW 10   SCT 20   BKN 40,-1,9,-1,13,1011,RJEC 301100Z 17010KT 9999 -SHSN FEW010 SCT020 BKN040 M09/M13     Q1011 RMK 1ST010 3CU020 6CU040 A2987=,- SN SH
20180130_220000.002,0,RJEC,,,,0,20180130220000,-1,-1,-1,-1,150,-1,11,-1,-1,-1,-1,,9999,0,1,3,FEW 15   SCT 20   BKN 50,-1,12,-1,16,1014,RJEC 302200Z 15011KT 9999 -SHSN FEW015 SCT020 BKN050 M12/M16     Q1014 RMK 1ST015 3CU020 6CU050 A2994=,- SN SH
20180130_230000.002,1,RJEC,,,,0,20180130230000,-1,-1,-1,-1,190,-1,6,-1,-1,140,230,,9999,0,1,3,FEW 15   SCT 35   BKN 50,-1,11,-1,15,1014,RJEC 302300Z 19006KT 140V230 9999 VCSH FEW015 SCT035 BKN050     M11/M15 Q1014 RMK 1ST015 3CU035 6CU050 A2996 SH W-N=,VC SH
20180131_000000.002,1,RJEC,,,,0,20180131000000,-1,-1,-1,-1,180,-1,7,-1,-1,-1,-1,,9999,0,0,3,FEW 15   SCT 50   BKN 70,-1,9,-1,14,1014,RJEC 310000Z 18007KT 9999 FEW015 SCT050 BKN070 M09/M14 Q1014     RMK 1ST015 3CU050 5AC070 A2996=,
20180131_010000.002,1,RJEC,,,,0,20180131010000,-1,-1,-1,-1,180,-1,11,-1,-1,-1,-1,,9999,0,1,3,FEW 15   SCT 20   BKN 70,-1,7,-1,14,1015,RJEC 310100Z 18011KT 9999 VCSH FEW015 SCT020 BKN070 M07/M14     Q1015 RMK 1ST015 3CU020 6AC070 A2997 SH SW-NW=,VC SH
20180131_020000.002,1,RJEC,,,,0,20180131020000,-1,-1,-1,-1,180,-1,13,-1,-1,-1,-1,,9999,0,1,3,FEW 8   SCT 18   BKN 30,-1,6,-1,13,1015,RJEC 310200Z 18013KT 9999 -SHSN FEW008 SCT018 BKN030 M06/M13     Q1015 RMK 1ST008 3ST018 5CU030 A2997=,- SN SH
20180131_030000.002,1,RJEC,,,,0,20180131030000,-1,-1,-1,-1,170,-1,10,-1,-1,-1,-1,,5000,0,1,3,FEW 8   SCT 15   BKN 25,-1,7,-1,10,1015,RJEC 310300Z 17010KT 5000 -SHSN FEW008 SCT015 BKN025 M07/M10     Q1015 RMK 2ST008 4ST015 7CU025 A2998=,- SN SH
20180131_040000.002,1,RJEC,,,,0,20180131040000,-1,-1,-1,-1,160,-1,10,-1,-1,-1,-1,,3500,1,1,3,FEW 8   SCT 15   BKN 30,-1,7,-1,9,1015,RJEC 310400Z 16010KT 3500 R34/2000N -SHSN FEW008 SCT015 BKN030     M07/M09 Q1015 RMK 2ST008 4ST015 7CU030 A2997=,- SN SH
20180131_050000.002,1,RJEC,,,,0,20180131050000,-1,-1,-1,-1,170,-1,5,-1,-1,-1,-1,,3000,1,1,3,FEW 8   SCT 15   BKN 25,-1,7,-1,8,1015,RJEC 310500Z 17005KT 3000 R34/2000N -SHSN FEW008 SCT015 BKN025     M07/M08 Q1015 RMK 2ST008 4ST015 7CU025 A2998=,- SN SH
20180131_060000.002,1,RJEC,,,,0,20180131060000,-1,-1,-1,-1,170,-1,6,-1,-1,-1,-1,,8000,0,1,3,FEW 8   SCT 18   BKN 30,-1,6,-1,8,1015,RJEC 310600Z 17006KT 8000 -SHSN FEW008 SCT018 BKN030 M06/M08     Q1015 RMK 1ST008 3ST018 6CU030 A2999=,- SN SH
20180131_070000.003,1,RJEC,,,,0,20180131070000,-1,-1,-1,-1,180,-1,6,-1,-1,-1,-1,,1800,1,1,3,FEW 3   SCT 8   BKN 12,-1,7,-1,8,1016,RJEC 310700Z 18006KT 1800 R34/1400D -SHSN FEW003 SCT008 BKN012     M07/M08 Q1016 RMK 2ST003 4ST008 7ST012 A3001=,- SN SH
20180131_080000.003,1,RJEC,,,,0,20180131080000,-1,-1,-1,-1,180,-1,6,-1,-1,-1,-1,,2000,0,1,3,FEW 3   SCT 10   BKN 15,-1,7,-1,8,1017,RJEC 310800Z 18006KT 2000 -SHSN FEW003 SCT010 BKN015 M07/M08     Q1017 RMK 2ST003 4ST010 7ST015 A3003=,- SN SH
20180131_090000.002,1,RJEC,,,,0,20180131090000,-1,-1,-1,-1,160,-1,5,-1,-1,-1,-1,,4500,0,1,3,FEW 8   SCT 18   BKN 30,-1,8,-1,10,1017,RJEC 310900Z 16005KT 4500 -SHSN FEW008 SCT018 BKN030 M08/M10     Q1017 RMK 1ST008 3ST018 6CU030 A3005=,- SN SH
20180131_100000.002,1,RJEC,,,,0,20180131100000,-1,-1,-1,-1,100,-1,3,-1,-1,-1,-1,,6000,0,1,3,FEW 8   SCT 18   BKN 35,-1,8,-1,10,1018,RJEC 311000Z 10003KT 6000 -SHSN FEW008 SCT018 BKN035 M08/M10     Q1018 RMK 1ST008 3ST018 6CU035 A3007=,- SN SH
20180131_110000.002,1,RJEC,,,,0,20180131110000,-1,-1,-1,-1,110,-1,3,-1,-1,-1,-1,,9999,0,1,3,FEW 10   SCT 20   BKN 30,-1,8,-1,10,1018,RJEC 311100Z 11003KT 9999 -SHSN FEW010 SCT020 BKN030 M08/M10     Q1018 RMK 1ST010 3CU020 6CU030 A3008=,- SN SH
20180131_220000.002,0,RJEC,,,,0,20180131220000,-1,-1,-1,-1,180,-1,6,-1,-1,-1,-1,,7000,0,1,3,FEW 8   SCT 15   BKN 30,-1,11,-1,13,1023,RJEC 312200Z 18006KT 7000 -SHSN FEW008 SCT015 BKN030 M11/M13     Q1023 RMK 1ST008 3ST015 6CU030 A3023=,- SN SH
20180131_230000.002,1,RJEC,,,,0,20180131230000,-1,-1,-1,-1,190,-1,3,-1,-1,-1,-1,,5000,0,1,3,FEW 8   SCT 15   BKN 30,-1,12,-1,13,1024,RJEC 312300Z 19003KT 5000 -SHSN FEW008 SCT015 BKN030 M12/M13     Q1024 RMK 1ST008 3ST015 5CU030 A3025=,- SN SH
20180201_000000.003,1,RJEC,,,,0,20180201000000,-1,-1,-1,-1,160,-1,5,-1,-1,-1,-1,,9999,0,1,3,FEW 10   SCT 18   BKN 40,-1,11,-1,13,1025,RJEC 010000Z 16005KT 9999 VCSH FEW010 SCT018 BKN040 M11/M13     Q1025 RMK 1ST010 3ST018 5CU040 A3027 SH SW-W=,VC SH
20180201_010000.002,1,RJEC,,,,0,20180201010000,-1,-1,-1,-1,210,-1,3,-1,-1,-1,-1,,9999,0,1,2,FEW 10   SCT 20,-1,9,-1,12,1025,RJEC 010100Z 21003KT 9999 VCSH FEW010 SCT020 M09/M12 Q1025 RMK     1ST010 3CU020 A3028 SH SW=,VC SH
20180201_020000.002,1,RJEC,,,,0,20180201020000,-1,-1,-1,-1,999,-1,3,-1,-1,-1,-1,,9999,0,1,2,FEW 10   SCT 20,-1,9,-1,12,1025,RJEC 010200Z VRB03KT 9999 VCSH FEW010 SCT020 M09/M12 Q1025 RMK     1ST010 3CU020 A3028 SH SW=,VC SH
20180201_030000.003,1,RJEC,,,,0,20180201030000,-1,-1,-1,-1,350,-1,2,-1,-1,-1,-1,,9999,0,1,2,FEW 10   SCT 20,-1,8,-1,11,1025,RJEC 010300Z 35002KT 9999 VCSH FEW010 SCT020 M08/M11 Q1025 RMK     1ST010 3CU020 A3028 SH SW=,VC SH
20180201_040000.003,1,RJEC,,,,0,20180201040000,-1,-1,-1,-1,999,-1,2,-1,-1,-1,-1,,9999,0,0,1,FEW 25,-1,8,-1,11,1025,RJEC 010400Z VRB02KT 9999 FEW025 M08/M11 Q1025 RMK 2CU025     A3028=,
20180201_050000.002,1,RJEC,,,,0,20180201050000,-1,-1,-1,-1,999,-1,1,-1,-1,-1,-1,,9999,0,0,1,FEW 25,-1,6,-1,11,1025,RJEC 010500Z VRB01KT 9999 FEW025 M06/M11 Q1025 RMK 1CU025     A3029=,
20180201_060000.002,1,RJEC,,,,0,20180201060000,-1,-1,-1,-1,360,-1,3,-1,-1,-1,-1,,9999,0,1,1,FEW 15,-1,7,-1,12,1026,RJEC 010600Z 36003KT 9999 VCSH FEW015 M07/M12 Q1026 RMK 1ST015     A3031 SH SW=,VC SH
20180201_070000.002,1,RJEC,,,,0,20180201070000,-1,-1,-1,-1,999,-1,1,-1,-1,-1,-1,,9999,0,0,1,FEW 25,-1,9,-1,13,1027,RJEC 010700Z VRB01KT 9999 FEW025 M09/M13 Q1027 RMK 1CU025     A3033=,
20180201_080000.002,1,RJEC,,,,0,20180201080000,-1,-1,-1,-1,999,-1,1,-1,-1,-1,-1,,9999,0,0,1,FEW 20,-1,13,-1,15,1027,RJEC 010800Z VRB01KT 9999 FEW020 M13/M15 Q1027 RMK 1CU020     A3034=,
20180201_090000.002,1,RJEC,,,,0,20180201090000,-1,-1,-1,-1,200,-1,3,-1,-1,-1,-1,,9999,0,0,1,FEW 15,-1,14,-1,16,1027,RJEC 010900Z 20003KT 9999 FEW015 M14/M16 Q1027 RMK 1ST015     A3035=,
20180201_100000.002,1,RJEC,,,,0,20180201100000,-1,-1,-1,-1,190,-1,7,-1,-1,-1,-1,,9999,0,0,1,FEW 10,-1,13,-1,15,1028,RJEC 011000Z 19007KT 9999 FEW010 M13/M15 Q1028 RMK 1ST010     A3036=,
20180201_110000.002,1,RJEC,,,,0,20180201110000,-1,-1,-1,-1,180,-1,6,-1,-1,-1,-1,,9999,0,0,1,FEW 8,-1,13,-1,16,1028,RJEC 011100Z 18006KT 9999 FEW008 M13/M16 Q1028 RMK 1ST008     A3037=,
20180201_220000.002,0,RJEC,,,,0,20180201220000,-1,-1,-1,-1,180,-1,3,-1,-1,-1,-1,,9999,0,1,1,FEW 1,-1,21,-1,24,1030,RJEC 012200Z 18003KT 9999 PRFG FEW001 M21/M24 Q1030 RMK 1ST001     A3041 FG NW-N=,PR FG
20180201_230000.003,1,RJEC,,,,0,20180201230000,-1,-1,-1,-1,999,-1,1,-1,-1,-1,-1,,9999,0,1,1,FEW 1,-1,19,-1,21,1030,RJEC 012300Z VRB01KT 9999 PRFG FEW001 M19/M21 Q1030 RMK 1ST001     A3042 FG NW-N=,PR FG
20180202_000000.002,1,RJEC,,,,0,20180202000000,-1,-1,-1,-1,120,-1,2,-1,-1,-1,-1,,9999,0,0,1,FEW 3,-1,19,-1,21,1030,RJEC 020000Z 12002KT 9999 FEW003 M19/M21 Q1030 RMK 1ST003     A3041=,
20180202_010000.002,1,RJEC,,,,0,20180202010000,-1,-1,-1,-1,999,-1,1,-1,-1,-1,-1,,9999,0,0,1,FEW 5,-1,17,-1,19,1029,RJEC 020100Z VRB01KT 9999 FEW005 M17/M19 Q1029 RMK 1ST005     A3040=,
20180202_020000.002,1,RJEC,,,,0,20180202020000,-1,-1,-1,-1,999,-1,2,-1,-1,-1,-1,,9999,0,0,1,FEW 5,-1,15,-1,17,1028,RJEC 020200Z VRB02KT 9999 FEW005 M15/M17 Q1028 RMK 1ST005     A3038=,
20180202_030000.002,1,RJEC,,,,0,20180202030000,-1,-1,-1,-1,290,-1,2,-1,-1,-1,-1,,9999,0,0,1,FEW 25,-1,13,-1,15,1027,RJEC 020300Z 29002KT 9999 FEW025 M13/M15 Q1027 RMK 1CU025     A3035=,
20180202_040000.002,1,RJEC,,,,0,20180202040000,-1,-1,-1,-1,999,-1,1,-1,-1,-1,-1,,9999,0,0,1,FEW 25,-1,11,-1,13,1026,RJEC 020400Z VRB01KT 9999 FEW025 M11/M13 Q1026 RMK 1CU025     A3032=,
20180202_050000.001,1,RJEC,,,,0,20180202050000,-1,-1,-1,-1,330,-1,2,-1,-1,-1,-1,,9999,0,0,1,FEW 30,-1,9,-1,11,1026,RJEC 020500Z 33002KT 9999 FEW030 M09/M11 Q1026 RMK 1CU030     A3032=,
20180202_060000.002,1,RJEC,,,,0,20180202060000,-1,-1,-1,-1,350,-1,2,-1,-1,-1,-1,,9999,0,0,1,FEW 30,-1,10,-1,14,1027,RJEC 020600Z 35002KT 9999 FEW030 M10/M14 Q1027 RMK 1CU030     A3033=,
20180202_070000.002,1,RJEC,,,,0,20180202070000,-1,-1,-1,-1,70,-1,1,-1,-1,-1,-1,,9999,0,0,1,FEW 30,-1,11,-1,15,1027,RJEC 020700Z 07001KT 9999 FEW030 M11/M15 Q1027 RMK 1CU030     A3033=,
20180202_080000.002,1,RJEC,,,,0,20180202080000,-1,-1,-1,-1,160,-1,1,-1,-1,-1,-1,,9999,0,0,1,FEW 30,-1,15,-1,18,1027,RJEC 020800Z 16001KT 9999 FEW030 M15/M18 Q1027 RMK 1CU030     A3034=,
20180202_090000.002,1,RJEC,,,,0,20180202090000,-1,-1,-1,-1,150,-1,4,-1,-1,-1,-1,,9999,0,0,1,FEW 30,-1,15,-1,18,1027,RJEC 020900Z 15004KT 9999 FEW030 M15/M18 Q1027 RMK 1CU030     A3034=,
20180202_100000.003,1,RJEC,,,,0,20180202100000,-1,-1,-1,-1,180,-1,3,-1,-1,-1,-1,,9999,0,0,1,FEW 15,-1,14,-1,17,1027,RJEC 021000Z 18003KT 9999 FEW015 M14/M17 Q1027 RMK 1ST015     A3034=,
20180202_110000.002,1,RJEC,,,,0,20180202110000,-1,-1,-1,-1,180,-1,3,-1,-1,-1,-1,,9999,0,0,1,FEW 15,-1,16,-1,18,1027,RJEC 021100Z 18003KT 9999 FEW015 M16/M18 Q1027 RMK 1ST015     A3033=,
20180202_220000.002,0,RJEC,,,,0,20180202220000,-1,-1,-1,-1,130,-1,2,-1,-1,-1,-1,,4500,0,2,3,FEW 1   SCT 5   BKN 130,-1,19,-1,21,1025,RJEC 022200Z 13002KT 4500 BCFG BR FEW001 SCT005 BKN130 M19/M21     Q1025 RMK 2ST001 3ST005 6AC130 A3028=,BC FG; BR
20180202_230000.003,1,RJEC,,,,0,20180202230000,-1,-1,-1,-1,220,-1,1,-1,-1,-1,-1,,2500,0,3,3,FEW 1   SCT 3   BKN 5,-1,17,-1,19,1024,RJEC 022300Z 22001KT 2500 -SHSN BCFG BR FEW001 SCT003 BKN005     M17/M19 Q1024 RMK 2ST001 3ST003 6ST005 A3026=,- SN SH; BC FG; BR
20180203_000000.002,1,RJEC,,,,0,20180203000000,-1,-1,-1,-1,999,-1,1,-1,-1,-1,-1,,9999,0,0,3,FEW 3   SCT 5   BKN 50,-1,15,-1,16,1024,RJEC 030000Z VRB01KT 9999 FEW003 SCT005 BKN050 M15/M16 Q1024     RMK 1ST003 3ST005 6CU050 A3024=,
20180203_010000.003,1,RJEC,,,,0,20180203010000,-1,-1,-1,-1,0,-1,0,-1,-1,-1,-1,,9999,0,0,3,FEW 5   SCT 40   BKN 60,-1,13,-1,14,1023,RJEC 030100Z 00000KT 9999 FEW005 SCT040 BKN060 M13/M14 Q1023     RMK 1ST005 3CU040 6CU060 A3021=,
20180203_020000.002,1,RJEC,,,,0,20180203020000,-1,-1,-1,-1,280,-1,2,-1,-1,-1,-1,,9999,0,0,3,FEW 20   SCT 50   BKN 70,-1,12,-1,14,1021,RJEC 030200Z 28002KT 9999 FEW020 SCT050 BKN070 M12/M14 Q1021     RMK 1CU020 3CU050 7AC070 A3017=,
20180203_030000.002,1,RJEC,,,,0,20180203030000,-1,-1,-1,-1,999,-1,1,-1,-1,-1,-1,,9999,0,0,3,FEW 25   SCT 50   BKN 70,-1,11,-1,12,1020,RJEC 030300Z VRB01KT 9999 FEW025 SCT050 BKN070 M11/M12 Q1020     RMK 1CU025 3CU050 7AC070 A3013=,
20180203_040000.002,1,RJEC,,,,0,20180203040000,-1,-1,-1,-1,330,-1,5,-1,-1,-1,-1,,9999,0,0,3,FEW 30   SCT 60   BKN 70,-1,10,-1,12,1019,RJEC 030400Z 33005KT 9999 FEW030 SCT060 BKN070 M10/M12 Q1019     RMK 1CU030 3CU060 7AC070 A3010=,
20180203_050000.002,1,RJEC,,,,0,20180203050000,-1,-1,-1,-1,350,-1,4,-1,-1,-1,-1,,9999,0,0,2,FEW 30   SCT 70,-1,9,-1,11,1019,RJEC 030500Z 35004KT 9999 FEW030 SCT070 M09/M11 Q1019 RMK     1CU030 4AC070 A3009=,
20180203_060000.002,1,RJEC,,,,0,20180203060000,-1,-1,-1,-1,999,-1,1,-1,-1,-1,-1,,9999,0,0,1,FEW 40,-1,7,-1,11,1018,RJEC 030600Z VRB01KT 9999 FEW040 M07/M11 Q1018 RMK 1CU040     A3008=,
20180203_070000.003,1,RJEC,,,,0,20180203070000,-1,-1,-1,-1,999,-1,2,-1,-1,-1,-1,,9999,0,0,1,FEW 40,-1,10,-1,13,1018,RJEC 030700Z VRB02KT 9999 FEW040 M10/M13 Q1018 RMK 1CU040     A3007=,
20180203_080000.002,1,RJEC,,,,0,20180203080000,-1,-1,-1,-1,999,-1,1,-1,-1,-1,-1,,9999,0,0,1,FEW 30,-1,12,-1,15,1017,RJEC 030800Z VRB01KT 9999 FEW030 M12/M15 Q1017 RMK 1SC030     A3006=,
20180203_090000.002,1,RJEC,,,,0,20180203090000,-1,-1,-1,-1,999,-1,2,-1,-1,-1,-1,,9999,0,0,2,FEW 30   SCT 140,-1,11,-1,14,1017,RJEC 030900Z VRB02KT 9999 FEW030 SCT140 M11/M14 Q1017 RMK     1SC030 3AC140 A3004=,
20180203_100000.002,1,RJEC,,,,0,20180203100000,-1,-1,-1,-1,999,-1,2,-1,-1,-1,-1,,9999,0,0,2,FEW 30   SCT 180,-1,11,-1,14,1016,RJEC 031000Z VRB02KT 9999 FEW030 SCT180 M11/M14 Q1016 RMK     1SC030 3AC180 A3001=,
20180203_110000.002,1,RJEC,,,,0,20180203110000,-1,-1,-1,-1,999,-1,2,-1,-1,-1,-1,,9999,0,0,3,FEW 30   SCT 180   BKN -9999,-1,11,-1,13,1015,RJEC 031100Z VRB02KT 9999 FEW030 SCT180 BKN/// M11/M13 Q1015     RMK 1SC030 3AC180 A3000=,
20180203_220000.002,0,RJEC,,,,0,20180203220000,-1,-1,-1,-1,999,-1,2,-1,-1,-1,-1,,1600,1,1,3,FEW 2   SCT 8   BKN 12,-1,8,-1,9,1010,RJEC 032200Z VRB02KT 1600 R34/1600VP2000U -SHSN FEW002 SCT008     BKN012 M08/M09 Q1010 RMK 2ST002 4ST008 7ST012 A2985=,- SN SH
20180203_230000.002,1,RJEC,,,,0,20180203230000,-1,-1,-1,-1,70,-1,5,-1,-1,-1,-1,,1200,1,1,3,FEW 2   SCT 7   BKN 10,-1,6,-1,7,1010,RJEC 032300Z 07005KT 1200 R34/1000VP2000D -SHSN FEW002 SCT007     BKN010 M06/M07 Q1010 RMK 2ST002 4ST007 7ST010 A2985=,- SN SH
20180204_000000.002,1,RJEC,,,,0,20180204000000,-1,-1,-1,-1,40,-1,5,-1,-1,-1,-1,,7000,0,1,3,FEW 6   SCT 15   BKN 30,-1,6,-1,7,1010,RJEC 040000Z 04005KT 7000 -SHSN FEW006 SCT015 BKN030 M06/M07     Q1010 RMK 1ST006 3ST015 6CU030 A2983=,- SN SH
20180204_010000.002,1,RJEC,,,,0,20180204010000,-1,-1,-1,-1,360,-1,4,-1,-1,-1,-1,,9999,0,1,3,FEW 7   SCT 15   BKN 40,-1,6,-1,7,1010,RJEC 040100Z 36004KT 9999 -SHSN FEW007 SCT015 BKN040 M06/M07     Q1010 RMK 1ST007 3ST015 6CU040 A2983=,- SN SH
20180204_020000.002,1,RJEC,,,,0,20180204020000,-1,-1,-1,-1,999,-1,2,-1,-1,-1,-1,,9999,0,1,3,FEW 8   SCT 18   BKN 40,-1,6,-1,7,1009,RJEC 040200Z VRB02KT 9999 -SHSN FEW008 SCT018 BKN040 M06/M07     Q1009 RMK 1ST008 3ST018 5CU040 A2980=,- SN SH
20180204_030000.002,1,RJEC,,,,0,20180204030000,-1,-1,-1,-1,999,-1,2,-1,-1,-1,-1,,9999,0,1,3,FEW 5   SCT 18   BKN 40,-1,6,-1,7,1008,RJEC 040300Z VRB02KT 9999 -SHSN FEW005 SCT018 BKN040 M06/M07     Q1008 RMK 1ST005 3ST018 6CU040 A2977=,- SN SH
20180204_040000.002,1,RJEC,,,,0,20180204040000,-1,-1,-1,-1,999,-1,1,-1,-1,-1,-1,,9999,0,1,3,FEW 15   SCT 30   BKN 60,-1,4,-1,7,1007,RJEC 040400Z VRB01KT 9999 -SHSN FEW015 SCT030 BKN060 M04/M07     Q1007 RMK 1ST015 3CU030 7CU060 A2975=,- SN SH
20180204_050000.002,1,RJEC,,,,0,20180204050000,-1,-1,-1,-1,220,-1,2,-1,-1,-1,-1,,9999,0,0,3,FEW 18   SCT 60   BKN 70,-1,5,-1,6,1007,RJEC 040500Z 22002KT 9999 FEW018 SCT060 BKN070 M05/M06 Q1007     RMK 1ST018 3CU060 7AC070 A2974=,
20180204_060000.002,1,RJEC,,,,0,20180204060000,-1,-1,-1,-1,300,-1,5,-1,-1,-1,-1,,9999,0,0,3,FEW 20   SCT 60   BKN 70,-1,4,-1,7,1007,RJEC 040600Z 30005KT 9999 FEW020 SCT060 BKN070 M04/M07 Q1007     RMK 1CU020 3CU060 7AC070 A2974=,
20180204_070000.002,1,RJEC,,,,0,20180204070000,-1,-1,-1,-1,999,-1,1,-1,-1,-1,-1,,9999,0,0,3,FEW 20   SCT 60   BKN 70,-1,5,-1,7,1007,RJEC 040700Z VRB01KT 9999 FEW020 SCT060 BKN070 M05/M07 Q1007     RMK 1CU020 3CU060 7AC070 A2974=,
20180204_080000.002,1,RJEC,,,,0,20180204080000,-1,-1,-1,-1,170,-1,3,-1,-1,-1,-1,,9999,0,0,3,FEW 15   SCT 25   BKN 80,-1,5,-1,7,1007,RJEC 040800Z 17003KT 9999 FEW015 SCT025 BKN080 M05/M07 Q1007     RMK 1ST015 3CU025 5AC080 A2974=,
20180204_090000.002,1,RJEC,,,,0,20180204090000,-1,-1,-1,-1,120,-1,2,-1,-1,-1,-1,,9999,0,0,3,FEW 10   SCT 50   BKN 80,-1,5,-1,8,1006,RJEC 040900Z 12002KT 9999 FEW010 SCT050 BKN080 M05/M08 Q1006     RMK 1ST010 3SC050 5AC080 A2973=,
20180204_100000.002,1,RJEC,,,,0,20180204100000,-1,-1,-1,-1,0,-1,0,-1,-1,-1,-1,,9999,0,0,3,FEW 10   SCT 50   BKN 80,-1,6,-1,7,1006,RJEC 041000Z 00000KT 9999 FEW010 SCT050 BKN080 M06/M07 Q1006     RMK 1ST010 3SC050 5AC080 A2972=,
20180204_110000.003,1,RJEC,,,,0,20180204110000,-1,-1,-1,-1,240,-1,3,-1,-1,-1,-1,,9999,0,0,3,FEW 10   SCT 80   BKN 150,-1,5,-1,8,1006,RJEC 041100Z 24003KT 9999 FEW010 SCT080 BKN150 M05/M08 Q1006     RMK 1ST010 4AC080 7AC150 A2971=,
20180204_220000.002,0,RJEC,,,,0,20180204220000,-1,-1,-1,-1,0,-1,0,-1,-1,-1,-1,,9999,0,0,3,FEW 10   SCT 25   BKN 70,-1,6,-1,8,1005,RJEC 042200Z 00000KT 9999 FEW010 SCT025 BKN070 M06/M08 Q1005     RMK 1ST010 3CU025 7AC070 A2970=,
20180204_230000.002,1,RJEC,,,,0,20180204230000,-1,-1,-1,-1,999,-1,1,-1,-1,-1,-1,,9999,0,1,3,FEW 10   SCT 25   BKN 50,-1,6,-1,8,1006,RJEC 042300Z VRB01KT 9999 -SHSN FEW010 SCT025 BKN050 M06/M08     Q1006 RMK 1ST010 3CU025 6CU050 A2971=,- SN SH
20180205_000000.003,1,RJEC,,,,0,20180205000000,-1,-1,-1,-1,290,-1,3,-1,-1,-1,-1,,9999,0,0,3,FEW 15   SCT 50   BKN 70,-1,6,-1,8,1006,RJEC 050000Z 29003KT 9999 FEW015 SCT050 BKN070 M06/M08 Q1006     RMK 1ST015 3CU050 6AC070 A2971=,
20180205_010000.002,1,RJEC,,,,0,20180205010000,-1,-1,-1,-1,320,-1,5,-1,-1,-1,-1,,9999,0,0,3,FEW 20   SCT 50   BKN 70,-1,5,-1,8,1006,RJEC 050100Z 32005KT 9999 FEW020 SCT050 BKN070 M05/M08 Q1006     RMK 1CU020 4CU050 6AC070 A2971=,
20180205_020000.002,1,RJEC,,,,0,20180205020000,-1,-1,-1,-1,300,-1,8,-1,-1,-1,-1,,9999,0,0,3,FEW 20   SCT 50   BKN 100,-1,4,-1,7,1005,RJEC 050200Z 30008KT 9999 FEW020 SCT050 BKN100 M04/M07 Q1005     RMK 1CU020 3CU050 5AC100 A2969=,
