20180101_000000.003,0,RJFA,,,,0,20180101000000,-1,-1,-1,-1,310,-1,13,-1,-1,-1,-1,,9999,0,0,2,FEW 20   BKN 35,1,6,-1,4,1024,RJFA 010000Z 31013KT 9999 FEW020 BKN035 06/M04 Q1024 RMK     1CU020 6CU035 A3025=,
20180101_010000.003,0,RJFA,,,,0,20180101010000,-1,-1,-1,-1,300,-1,9,-1,-1,250,330,,9999,0,0,2,FEW 20   BKN 35,1,6,-1,3,1025,RJFA 010100Z 30009KT 250V330 9999 FEW020 BKN035 06/M03 Q1025     RMK 1CU020 6CU035 A3027=,
20180101_020000.003,0,RJFA,,,,0,20180101020000,-1,-1,-1,-1,310,-1,9,-1,-1,-1,-1,,9999,0,0,2,FEW 20   BKN 35,1,7,-1,4,1025,RJFA 010200Z 31009KT 9999 FEW020 BKN035 07/M04 Q1025 RMK     1CU020 6CU035 A3028=,
20180101_030000.003,0,RJFA,,,,0,20180101030000,-1,-1,-1,-1,320,-1,13,-1,-1,270,360,,9999,0,0,2,FEW 20   BKN 35,1,6,-1,3,1025,RJFA 010300Z 32013KT 270V360 9999 FEW020 BKN035 06/M03 Q1025     RMK 1CU020 6CU035 A3027=,
20180101_040000.003,0,RJFA,,,,0,20180101040000,-1,-1,-1,-1,330,-1,13,-1,-1,-1,-1,,9999,0,0,2,FEW 20   BKN 35,1,7,-1,4,1024,RJFA 010400Z 33013KT 9999 FEW020 BKN035 07/M04 Q1024 RMK     1CU020 6CU035 A3025=,
20180101_050000.003,0,RJFA,,,,0,20180101050000,-1,-1,-1,-1,320,-1,10,-1,-1,280,340,,9999,0,0,2,FEW 20   BKN 35,1,7,-1,4,1024,RJFA 010500Z 32010KT 280V340 9999 FEW020 BKN035 07/M04 Q1024     RMK 1CU020 6CU035 A3024=,
20180101_060000.003,0,RJFA,,,,0,20180101060000,-1,-1,-1,-1,300,-1,10,-1,-1,230,330,,9999,0,0,2,FEW 20   BKN 40,1,7,-1,4,1024,RJFA 010600Z 30010KT 230V330 9999 FEW020 BKN040 07/M04 Q1024     RMK 1CU020 6CU040 A3024=,
20180101_070000.003,0,RJFA,,,,0,20180101070000,-1,-1,-1,-1,330,-1,10,-1,-1,-1,-1,,9999,0,0,2,FEW 20   BKN 45,1,7,-1,4,1024,RJFA 010700Z 33010KT 9999 FEW020 BKN045 07/M04 Q1024 RMK     1CU020 5SC045 A3026=,
20180101_080000.003,0,RJFA,,,,0,20180101080000,-1,-1,-1,-1,300,-1,6,-1,-1,260,330,,9999,0,0,2,FEW 20   BKN 45,1,6,-1,4,1024,RJFA 010800Z 30006KT 260V330 9999 FEW020 BKN045 06/M04 Q1024     RMK 1CU020 5SC045 A3026=,
20180101_090000.003,0,RJFA,,,,0,20180101090000,-1,-1,-1,-1,300,-1,8,-1,-1,260,330,,9999,0,0,2,FEW 20   BKN 45,1,6,-1,4,1025,RJFA 010900Z 30008KT 260V330 9999 FEW020 BKN045 06/M04 Q1025     RMK 1CU020 5SC045 A3027=,
20180101_100000.003,0,RJFA,,,,0,20180101100000,-1,-1,-1,-1,330,-1,10,-1,-1,-1,-1,,9999,0,0,2,FEW 20   SCT 45,1,6,-1,6,1025,RJFA 011000Z 33010KT 9999 FEW020 SCT045 06/M06 Q1025 RMK     1CU020 4SC045 A3029=,
20180101_110000.003,0,RJFA,,,,0,20180101110000,-1,-1,-1,-1,330,-1,8,-1,-1,290,10,,9999,0,0,2,FEW 20   SCT 50,1,6,-1,6,1025,RJFA 011100Z 33008KT 290V010 9999 FEW020 SCT050 06/M06 Q1025     RMK 1CU020 3SC050 A3029=,
20180101_120000.003,0,RJFA,,,,0,20180101120000,-1,-1,-1,-1,330,-1,6,-1,-1,-1,-1,,9999,0,0,2,FEW 20   BKN 50,1,6,-1,6,1025,RJFA 011200Z 33006KT 9999 FEW020 BKN050 06/M06 Q1025 RMK     1CU020 5SC050 A3028=,
20180101_130000.003,0,RJFA,,,,0,20180101130000,-1,-1,-1,-1,170,-1,3,-1,-1,160,260,,9999,0,0,2,FEW 20   SCT 50,1,2,-1,3,1025,RJFA 011300Z 17003KT 160V260 9999 FEW020 SCT050 02/M03 Q1025     RMK 1CU020 4SC050 A3029=,
20180101_140000.003,0,RJFA,,,,0,20180101140000,-1,-1,-1,-1,160,-1,5,-1,-1,-1,-1,,9999,0,0,2,FEW 20   SCT 50,1,1,-1,3,1025,RJFA 011400Z 16005KT 9999 FEW020 SCT050 01/M03 Q1025 RMK     1CU020 4SC050 A3029=,
20180101_150000.003,0,RJFA,,,,0,20180101150000,-1,-1,-1,-1,160,-1,7,-1,-1,-1,-1,,9999,0,0,2,FEW 20   SCT 50,1,1,-1,3,1025,RJFA 011500Z 16007KT 9999 FEW020 SCT050 01/M03 Q1025 RMK     1CU020 3SC050 A3029=,
20180101_160000.003,0,RJFA,,,,0,20180101160000,-1,-1,-1,-1,160,-1,8,-1,-1,-1,-1,,9999,0,0,1,FEW 20,1,0,-1,3,1025,RJFA 011600Z 16008KT 9999 FEW020 00/M03 Q1025 RMK 1CU020     A3029=,
20180101_170000.003,0,RJFA,,,,0,20180101170000,-1,-1,-1,-1,150,-1,8,-1,-1,-1,-1,,9999,0,0,2,FEW 20   SCT 50,1,0,-1,3,1025,RJFA 011700Z 15008KT 9999 FEW020 SCT050 00/M03 Q1025 RMK     1CU020 3SC050 A3029=,
20180101_180000.004,0,RJFA,,,,0,20180101180000,-1,-1,-1,-1,140,-1,7,-1,-1,80,190,,9999,0,0,2,FEW 20   BKN 50,1,1,-1,3,1026,RJFA 011800Z 14007KT 080V190 9999 FEW020 BKN050 01/M03 Q1026     RMK 1CU020 5SC050 A3030=,
20180101_190000.004,0,RJFA,,,,0,20180101190000,-1,-1,-1,-1,310,-1,10,-1,-1,270,340,,9999,0,0,2,FEW 20   BKN 50,1,1,-1,3,1026,RJFA 011900Z 31010KT 270V340 9999 FEW020 BKN050 01/M03 Q1026     RMK 1CU020 5SC050 A3030=,
20180101_200000.004,0,RJFA,,,,0,20180101200000,-1,-1,-1,-1,330,-1,10,-1,-1,270,360,,9999,0,0,2,FEW 20   BKN 50,1,1,-1,3,1026,RJFA 012000Z 33010KT 270V360 9999 FEW020 BKN050 01/M03 Q1026     RMK 1CU020 5SC050 A3030=,
20180101_210000.003,0,RJFA,,,,0,20180101210000,-1,-1,-1,-1,180,-1,5,-1,-1,-1,-1,,9999,0,0,2,FEW 20   SCT 50,1,1,-1,3,1026,RJFA 012100Z 18005KT 9999 FEW020 SCT050 01/M03 Q1026 RMK     1CU020 3SC050 A3030 08/00=,
20180101_220000.003,0,RJFA,,,,0,20180101220000,-1,-1,-1,-1,150,-1,4,-1,-1,70,210,,9999,0,0,1,FEW 20,-1,1,-1,3,1026,RJFA 012200Z 15004KT 070V210 9999 FEW020 M01/M03 Q1026 RMK     1CU020 A3032=,
20180101_230000.003,0,RJFA,,,,0,20180101230000,-1,-1,-1,-1,140,-1,3,-1,-1,-1,-1,,9999,0,0,1,FEW 20,-1,0,-1,3,1027,RJFA 012300Z 14003KT 9999 FEW020 M00/M03 Q1027 RMK 1CU020     A3033=,
20180102_000000.004,0,RJFA,,,,0,20180102000000,-1,-1,-1,-1,310,-1,4,-1,-1,-1,-1,,9999,0,0,1,FEW 30,1,3,-1,2,1027,RJFA 020000Z 31004KT 9999 FEW030 03/M02 Q1027 RMK 1CU030     A3034=,
20180102_010000.004,0,RJFA,,,,0,20180102010000,-1,-1,-1,-1,340,-1,13,-1,-1,-1,-1,,9999,0,0,1,FEW 30,1,8,-1,3,1027,RJFA 020100Z 34013KT 9999 FEW030 08/M03 Q1027 RMK 1CU030     A3035=,
20180102_020000.003,0,RJFA,,,,0,20180102020000,-1,-1,-1,-1,330,-1,11,-1,-1,-1,-1,,9999,0,0,1,FEW 40,1,9,-1,3,1027,RJFA 020200Z 33011KT 9999 FEW040 09/M03 Q1027 RMK 1CU040     A3035=,
20180102_030000.003,0,RJFA,,,,0,20180102030000,-1,-1,-1,-1,320,-1,9,-1,-1,-1,-1,,9999,0,0,1,FEW 40,1,9,-1,4,1027,RJFA 020300Z 32009KT 9999 FEW040 09/M04 Q1027 RMK 1CU040     A3033=,
20180102_040000.003,0,RJFA,,,,0,20180102040000,-1,-1,-1,-1,330,-1,9,-1,-1,-1,-1,,9999,0,0,1,FEW 40,1,9,-1,3,1026,RJFA 020400Z 33009KT 9999 FEW040 09/M03 Q1026 RMK 1CU040     A3030=,
20180102_050000.003,0,RJFA,,,,0,20180102050000,-1,-1,-1,-1,310,-1,8,-1,-1,-1,-1,,9999,0,0,1,FEW 40,1,9,-1,5,1025,RJFA 020500Z 31008KT 9999 FEW040 09/M05 Q1025 RMK 1CU040     A3029=,
20180102_060000.003,0,RJFA,,,,0,20180102060000,-1,-1,-1,-1,300,-1,7,-1,-1,-1,-1,,9999,0,0,1,FEW 40,1,9,-1,2,1025,RJFA 020600Z 30007KT 9999 FEW040 09/M02 Q1025 RMK 1CU040     A3029=,
20180102_070000.003,0,RJFA,,,,0,20180102070000,-1,-1,-1,-1,290,-1,5,-1,-1,-1,-1,,9999,0,0,1,FEW 40,1,9,-1,3,1025,RJFA 020700Z 29005KT 9999 FEW040 09/M03 Q1025 RMK 1CU040     A3027=,
20180102_080000.003,0,RJFA,,,,0,20180102080000,-1,-1,-1,-1,300,-1,5,-1,-1,-1,-1,,9999,0,0,2,FEW 40   SCT 230,1,8,-1,3,1025,RJFA 020800Z 30005KT 9999 FEW040 SCT230 08/M03 Q1025 RMK     1CU040 A3029=,
20180102_090000.003,0,RJFA,,,,0,20180102090000,-1,-1,-1,-1,270,-1,3,-1,-1,210,350,,9999,0,0,2,FEW 40   SCT -9999,1,6,-1,3,1025,RJFA 020900Z 27003KT 210V350 9999 FEW040 SCT/// 06/M03 Q1025     RMK 1CU040 A3028=,
20180102_100000.003,0,RJFA,,,,0,20180102100000,-1,-1,-1,-1,220,-1,3,-1,-1,-1,-1,,9999,0,0,2,FEW 40   SCT -9999,1,4,-1,3,1025,RJFA 021000Z 22003KT 9999 FEW040 SCT/// 04/M03 Q1025 RMK     1CU040 A3029=,
20180102_110000.003,0,RJFA,,,,0,20180102110000,-1,-1,-1,-1,200,-1,3,-1,-1,-1,-1,,9999,0,0,2,FEW 35   SCT -9999,1,4,-1,3,1025,RJFA 021100Z 20003KT 9999 FEW035 SCT/// 04/M03 Q1025 RMK     1CU035 A3029=,
20180102_120000.003,0,RJFA,,,,0,20180102120000,-1,-1,-1,-1,170,-1,7,-1,-1,-1,-1,,9999,0,0,1,FEW 35,1,3,-1,2,1025,RJFA 021200Z 17007KT 9999 FEW035 03/M02 Q1025 RMK 1CU035     A3027=,
20180102_130000.004,0,RJFA,,,,0,20180102130000,-1,-1,-1,-1,150,-1,8,-1,-1,-1,-1,,9999,0,0,1,FEW 30,1,3,-1,2,1024,RJFA 021300Z 15008KT 9999 FEW030 03/M02 Q1024 RMK 1CU030     A3026=,
20180102_140000.004,0,RJFA,,,,0,20180102140000,-1,-1,-1,-1,150,-1,5,-1,-1,-1,-1,,9999,0,0,1,FEW 30,1,3,-1,1,1024,RJFA 021400Z 15005KT 9999 FEW030 03/M01 Q1024 RMK 1CU030     A3025=,
20180102_150000.003,0,RJFA,,,,0,20180102150000,-1,-1,-1,-1,180,-1,3,-1,-1,-1,-1,,9999,0,0,2,FEW 30   SCT 40,1,3,-1,1,1024,RJFA 021500Z 18003KT 9999 FEW030 SCT040 03/M01 Q1024 RMK     1CU030 4CU040 A3024=,
20180102_160000.003,0,RJFA,,,,0,20180102160000,-1,-1,-1,-1,290,-1,7,-1,-1,240,330,,9999,0,0,2,FEW 30   SCT 40,1,5,-1,1,1024,RJFA 021600Z 29007KT 240V330 9999 FEW030 SCT040 05/M01 Q1024     RMK 1CU030 4CU040 A3024=,
20180102_170000.003,0,RJFA,,,,0,20180102170000,-1,-1,-1,-1,300,-1,12,-1,-1,-1,-1,,9999,0,0,2,FEW 30   BKN 40,1,9,-1,0,1023,RJFA 021700Z 30012KT 9999 FEW030 BKN040 09/M00 Q1023 RMK     1CU030 5CU040 A3024=,
20180102_180000.004,0,RJFA,,,,0,20180102180000,-1,-1,-1,-1,300,-1,12,-1,-1,260,330,,9999,0,0,2,FEW 30   BKN 40,1,9,1,1,1024,RJFA 021800Z 30012KT 260V330 9999 FEW030 BKN040 09/01 Q1024     RMK 1CU030 6CU040 A3025=,
20180102_190000.003,0,RJFA,,,,0,20180102190000,-1,-1,-1,-1,310,-1,17,-1,-1,-1,-1,,9999,0,0,2,FEW 30   BKN 40,1,9,1,1,1024,RJFA 021900Z 31017KT 9999 FEW030 BKN040 09/01 Q1024 RMK 1CU030     5CU040 A3026=,
20180102_200000.004,0,RJFA,,,,0,20180102200000,-1,-1,-1,-1,330,-1,18,-1,-1,-1,-1,,9999,0,0,2,FEW 40   SCT -9999,1,8,-1,3,1024,RJFA 022000Z 33018KT 9999 FEW040 SCT/// 08/M03 Q1024 RMK     2CU040 A3026=,
20180102_210000.003,0,RJFA,,,,0,20180102210000,-1,-1,-1,-1,310,-1,15,-1,-1,-1,-1,,9999,0,0,3,FEW 30   SCT 40   BKN -9999,1,8,-1,3,1025,RJFA 022100Z 31015KT 9999 FEW030 SCT040 BKN/// 08/M03 Q1025     RMK 1CU030 4CU040 A3028 09/02=,
20180102_220000.003,0,RJFA,,,,0,20180102220000,-1,-1,-1,-1,320,-1,13,-1,-1,-1,-1,,9999,0,0,2,FEW 40   SCT -9999,1,7,-1,5,1025,RJFA 022200Z 32013KT 9999 FEW040 SCT/// 07/M05 Q1025 RMK     2CU040 A3028=,
20180102_230000.003,0,RJFA,,,,0,20180102230000,-1,-1,-1,-1,340,-1,15,-1,-1,-1,-1,,9999,0,0,1,FEW 40,1,7,-1,5,1025,RJFA 022300Z 34015KT 9999 FEW040 07/M05 Q1025 RMK 2CU040     A3029=,
20180103_000000.003,0,RJFA,,,,0,20180103000000,-1,-1,-1,-1,340,-1,12,-1,-1,-1,-1,,9999,0,0,1,FEW 40,1,7,-1,5,1026,RJFA 030000Z 34012KT 9999 FEW040 07/M05 Q1026 RMK 2CU040     A3030=,
20180103_010000.003,0,RJFA,,,,0,20180103010000,-1,-1,-1,-1,320,-1,10,-1,-1,-1,-1,,9999,0,0,1,FEW 40,1,8,-1,4,1026,RJFA 030100Z 32010KT 9999 FEW040 08/M04 Q1026 RMK 2CU040     A3031=,
20180103_020000.003,0,RJFA,,,,0,20180103020000,-1,-1,-1,-1,320,-1,9,-1,-1,-1,-1,,9999,0,0,2,FEW 30   SCT 40,1,8,-1,3,1026,RJFA 030200Z 32009KT 9999 FEW030 SCT040 08/M03 Q1026 RMK     1CU030 3CU040 A3030=,
20180103_030000.004,0,RJFA,,,,0,20180103030000,-1,-1,-1,-1,320,-1,9,-1,-1,-1,-1,,9999,0,0,2,FEW 30   BKN 40,1,9,-1,3,1025,RJFA 030300Z 32009KT 9999 FEW030 BKN040 09/M03 Q1025 RMK     1CU030 6CU040 A3027=,
20180103_040000.003,0,RJFA,,,,0,20180103040000,-1,-1,-1,-1,330,-1,10,-1,-1,-1,-1,,9999,0,0,2,FEW 30   BKN 40,1,8,-1,3,1024,RJFA 030400Z 33010KT 9999 FEW030 BKN040 08/M03 Q1024 RMK     1CU030 6CU040 A3026=,
20180103_050000.003,0,RJFA,,,,0,20180103050000,-1,-1,-1,-1,320,-1,11,-1,-1,-1,-1,,9999,0,0,2,FEW 30   BKN 40,1,8,-1,3,1024,RJFA 030500Z 32011KT 9999 FEW030 BKN040 08/M03 Q1024 RMK     1CU030 5CU040 A3025=,
20180103_060000.003,0,RJFA,,,,0,20180103060000,-1,-1,-1,-1,340,-1,9,-1,-1,-1,-1,,9999,0,0,2,FEW 30   BKN 40,1,9,-1,3,1024,RJFA 030600Z 34009KT 9999 FEW030 BKN040 09/M03 Q1024 RMK     1CU030 5CU040 A3024=,
20180103_070000.003,0,RJFA,,,,0,20180103070000,-1,-1,-1,-1,330,-1,9,-1,-1,-1,-1,,9999,0,0,2,FEW 30   SCT 40,1,8,-1,3,1024,RJFA 030700Z 33009KT 9999 FEW030 SCT040 08/M03 Q1024 RMK     1CU030 3CU040 A3024=,
20180103_080000.003,0,RJFA,,,,0,20180103080000,-1,-1,-1,-1,330,-1,10,-1,-1,-1,-1,,9999,0,0,2,FEW 30   SCT 40,1,7,-1,4,1024,RJFA 030800Z 33010KT 9999 FEW030 SCT040 07/M04 Q1024 RMK     1CU030 4CU040 A3025=,
20180103_090000.003,0,RJFA,,,,0,20180103090000,-1,-1,-1,-1,320,-1,9,-1,-1,-1,-1,,9999,0,0,2,FEW 30   SCT 40,1,7,-1,4,1024,RJFA 030900Z 32009KT 9999 FEW030 SCT040 07/M04 Q1024 RMK     1CU030 3CU040 A3026=,
20180103_100000.003,0,RJFA,,,,0,20180103100000,-1,-1,-1,-1,320,-1,8,-1,-1,-1,-1,,9999,0,0,2,FEW 30   SCT 40,1,7,-1,3,1025,RJFA 031000Z 32008KT 9999 FEW030 SCT040 07/M03 Q1025 RMK     1CU030 4CU040 A3027=,
20180103_110000.003,0,RJFA,,,,0,20180103110000,-1,-1,-1,-1,330,-1,9,-1,-1,-1,-1,,9999,0,0,2,FEW 30   SCT 40,1,6,-1,3,1024,RJFA 031100Z 33009KT 9999 FEW030 SCT040 06/M03 Q1024 RMK     1CU030 3CU040 A3026=,
20180103_120000.003,0,RJFA,,,,0,20180103120000,-1,-1,-1,-1,360,-1,6,-1,-1,-1,-1,,9999,0,0,2,FEW 30   SCT 40,1,6,-1,4,1024,RJFA 031200Z 36006KT 9999 FEW030 SCT040 06/M04 Q1024 RMK     1CU030 4CU040 A3026=,
20180103_130000.004,0,RJFA,,,,0,20180103130000,-1,-1,-1,-1,350,-1,7,-1,-1,-1,-1,,9999,0,0,2,FEW 30   SCT 40,1,6,-1,4,1025,RJFA 031300Z 35007KT 9999 FEW030 SCT040 06/M04 Q1025 RMK     1CU030 4CU040 A3027=,
20180103_140000.003,0,RJFA,,,,0,20180103140000,-1,-1,-1,-1,170,-1,3,-1,-1,-1,-1,,9999,0,0,2,FEW 30   SCT 40,1,3,-1,2,1025,RJFA 031400Z 17003KT 9999 FEW030 SCT040 03/M02 Q1025 RMK     1CU030 3CU040 A3027=,
20180103_150000.003,0,RJFA,,,,0,20180103150000,-1,-1,-1,-1,160,-1,6,-1,-1,-1,-1,,9999,0,0,2,FEW 30   SCT 40,1,1,-1,2,1025,RJFA 031500Z 16006KT 9999 FEW030 SCT040 01/M02 Q1025 RMK     1CU030 4CU040 A3027=,
20180103_160000.003,0,RJFA,,,,0,20180103160000,-1,-1,-1,-1,150,-1,7,-1,-1,-1,-1,,9999,0,0,2,FEW 30   BKN 40,1,1,-1,2,1025,RJFA 031600Z 15007KT 9999 FEW030 BKN040 01/M02 Q1025 RMK     1CU030 5CU040 A3027=,
20180103_170000.003,0,RJFA,,,,0,20180103170000,-1,-1,-1,-1,160,-1,7,-1,-1,-1,-1,,9999,0,0,2,FEW 30   BKN 40,1,1,-1,2,1024,RJFA 031700Z 16007KT 9999 FEW030 BKN040 01/M02 Q1024 RMK     1CU030 5CU040 A3026=,
20180103_180000.003,0,RJFA,,,,0,20180103180000,-1,-1,-1,-1,160,-1,7,-1,-1,-1,-1,,9999,0,0,2,FEW 30   BKN 40,1,0,-1,2,1024,RJFA 031800Z 16007KT 9999 FEW030 BKN040 00/M02 Q1024 RMK     1CU030 5CU040 A3025=,
20180103_190000.003,0,RJFA,,,,0,20180103190000,-1,-1,-1,-1,160,-1,8,-1,-1,-1,-1,,9999,0,0,2,FEW 30   BKN 40,1,1,-1,2,1024,RJFA 031900Z 16008KT 9999 FEW030 BKN040 01/M02 Q1024 RMK     1CU030 5CU040 A3025=,
20180103_200000.003,0,RJFA,,,,0,20180103200000,-1,-1,-1,-1,160,-1,7,-1,-1,-1,-1,,9999,0,0,3,FEW 30   BKN 40   BKN 150,1,1,-1,2,1024,RJFA 032000Z 16007KT 9999 FEW030 BKN040 BKN150 01/M02 Q1024     RMK 1CU030 5CU040 5AC150 A3025=,
20180103_210000.004,0,RJFA,,,,0,20180103210000,-1,-1,-1,-1,160,-1,8,-1,-1,-1,-1,,9999,0,0,3,FEW 30   SCT 40   BKN 150,1,1,-1,2,1024,RJFA 032100Z 16008KT 9999 FEW030 SCT040 BKN150 01/M02 Q1024     RMK 1CU030 4CU040 6AC150 A3025 09/M00=,
20180103_220000.003,0,RJFA,,,,0,20180103220000,-1,-1,-1,-1,150,-1,7,-1,-1,-1,-1,,9999,0,0,2,FEW 30   SCT 40,1,1,-1,2,1024,RJFA 032200Z 15007KT 9999 FEW030 SCT040 01/M02 Q1024 RMK     1CU030 3CU040 A3025=,
20180103_230000.003,0,RJFA,,,,0,20180103230000,-1,-1,-1,-1,160,-1,7,-1,-1,-1,-1,,9999,0,0,2,FEW 30   SCT 40,1,1,-1,2,1024,RJFA 032300Z 16007KT 9999 FEW030 SCT040 01/M02 Q1024 RMK     1CU030 3CU040 A3025=,
20180104_000000.003,0,RJFA,,,,0,20180104000000,-1,-1,-1,-1,160,-1,5,-1,-1,-1,-1,,9999,0,0,2,FEW 30   SCT 40,1,3,-1,1,1024,RJFA 040000Z 16005KT 9999 FEW030 SCT040 03/M01 Q1024 RMK     1CU030 3CU040 A3026=,
20180104_010000.003,0,RJFA,,,,0,20180104010000,-1,-1,-1,-1,160,-1,7,-1,-1,-1,-1,,9999,0,0,3,FEW 30   SCT 40   BKN 250,1,5,-1,1,1025,RJFA 040100Z 16007KT 9999 FEW030 SCT040 BKN250 05/M01 Q1025     RMK 1CU030 3CU040 A3027=,
20180104_020000.005,0,RJFA,,,,0,20180104020000,-1,-1,-1,-1,160,-1,5,-1,-1,-1,-1,,9999,0,0,2,FEW 30   BKN 230,1,7,-1,1,1023,RJFA 040200Z 16005KT 9999 FEW030 BKN230 07/M01 Q1023 RMK     1CU030 A3024=,
20180104_030000.004,0,RJFA,,,,0,20180104030000,-1,-1,-1,-1,999,-1,1,-1,-1,-1,-1,,9999,0,0,3,FEW 30   SCT 40   BKN 230,1,8,-1,2,1023,RJFA 040300Z VRB01KT 9999 FEW030 SCT040 BKN230 08/M02 Q1023     RMK 1CU030 4CU040 A3022=,
20180104_040000.003,0,RJFA,,,,0,20180104040000,-1,-1,-1,-1,350,-1,6,-1,-1,-1,-1,,9999,0,0,3,FEW 30   SCT 40   BKN 230,1,8,-1,3,1022,RJFA 040400Z 35006KT 9999 FEW030 SCT040 BKN230 08/M03 Q1022     RMK 1CU030 3CU040 A3020=,
20180104_050000.003,0,RJFA,,,,0,20180104050000,-1,-1,-1,-1,40,-1,6,-1,-1,-1,-1,,9999,0,0,3,FEW 30   SCT 40   BKN 230,1,8,-1,2,1021,RJFA 040500Z 04006KT 9999 FEW030 SCT040 BKN230 08/M02 Q1021     RMK 1CU030 3CU040 A3018=,
20180104_060000.004,0,RJFA,,,,0,20180104060000,-1,-1,-1,-1,10,-1,4,-1,-1,310,40,,9999,0,0,3,FEW 40   SCT 150   BKN 180,1,8,-1,1,1021,RJFA 040600Z 01004KT 310V040 9999 FEW040 SCT150 BKN180 08/M01     Q1021 RMK 2CU040 3AC150 6AC180 A3017=,
20180104_070000.003,0,RJFA,,,,0,20180104070000,-1,-1,-1,-1,10,-1,2,-1,-1,-1,-1,,9999,0,0,3,FEW 40   SCT 150   BKN 180,1,8,-1,2,1021,RJFA 040700Z 01002KT 9999 FEW040 SCT150 BKN180 08/M02 Q1021     RMK 1CU040 3AC150 7AC180 A3017=,
20180104_080000.003,0,RJFA,,,,0,20180104080000,-1,-1,-1,-1,60,-1,3,-1,-1,-1,-1,,9999,0,0,3,FEW 40   SCT 180   BKN 230,1,8,-1,3,1021,RJFA 040800Z 06003KT 9999 FEW040 SCT180 BKN230 08/M03 Q1021     RMK 1CU040 3AC180 A3016=,
20180104_090000.003,0,RJFA,,,,0,20180104090000,-1,-1,-1,-1,80,-1,2,-1,-1,-1,-1,,9999,0,0,3,FEW 40   SCT 150   BKN -9999,1,7,-1,3,1021,RJFA 040900Z 08002KT 9999 FEW040 SCT150 BKN/// 07/M03 Q1021     RMK 1CU040 3AC150 A3016=,
20180104_100000.003,0,RJFA,,,,0,20180104100000,-1,-1,-1,-1,999,-1,2,-1,-1,-1,-1,,9999,0,0,3,FEW 40   SCT 130   BKN -9999,1,6,-1,1,1022,RJFA 041000Z VRB02KT 9999 FEW040 SCT130 BKN/// 06/M01 Q1022     RMK 1CU040 3AC130 A3018=,
20180104_110000.003,0,RJFA,,,,0,20180104110000,-1,-1,-1,-1,180,-1,3,-1,-1,-1,-1,,9999,0,0,3,FEW 40   BKN 130   BKN -9999,1,5,-1,0,1021,RJFA 041100Z 18003KT 9999 FEW040 BKN130 BKN/// 05/M00 Q1021     RMK 1CU040 5AC130 A3016=,
20180104_120000.004,0,RJFA,,,,0,20180104120000,-1,-1,-1,-1,180,-1,2,-1,-1,-1,-1,,9999,0,0,2,FEW 40   BKN 120,1,5,-1,0,1021,RJFA 041200Z 18002KT 9999 FEW040 BKN120 05/M00 Q1021 RMK     1CU040 7AC120 A3017=,
20180104_130000.003,0,RJFA,,,,0,20180104130000,-1,-1,-1,-1,140,-1,4,-1,-1,-1,-1,,9999,0,0,3,FEW 40   SCT 100   BKN 120,1,5,1,0,1020,RJFA 041300Z 14004KT 9999 FEW040 SCT100 BKN120 05/00 Q1020 RMK     1CU040 3AC100 7AC120 A3014=,
20180104_140000.003,0,RJFA,,,,0,20180104140000,-1,-1,-1,-1,150,-1,5,-1,-1,-1,-1,,9999,0,0,3,FEW 40   SCT 80   BKN 100,1,5,1,0,1020,RJFA 041400Z 15005KT 9999 FEW040 SCT080 BKN100 05/00 Q1020 RMK     1CU040 3AC080 5AC100 A3014=,
20180104_150000.004,0,RJFA,,,,0,20180104150000,-1,-1,-1,-1,150,-1,5,-1,-1,-1,-1,,9999,0,0,3,FEW 40   SCT 80   BKN 100,1,5,1,0,1019,RJFA 041500Z 15005KT 9999 FEW040 SCT080 BKN100 05/00 Q1019 RMK     1CU040 3AC080 7AC100 A3012=,
20180104_160000.004,0,RJFA,,,,0,20180104160000,-1,-1,-1,-1,150,-1,4,-1,-1,-1,-1,,9999,0,0,3,FEW 40   SCT 60   BKN 80,1,5,1,0,1019,RJFA 041600Z 15004KT 9999 FEW040 SCT060 BKN080 05/00 Q1019 RMK     1CU040 3SC060 5AC080 A3011=,
20180104_170000.004,0,RJFA,,,,0,20180104170000,-1,-1,-1,-1,160,-1,3,-1,-1,-1,-1,,9999,0,0,3,FEW 40   SCT 60   BKN 80,1,5,1,0,1019,RJFA 041700Z 16003KT 9999 FEW040 SCT060 BKN080 05/00 Q1019 RMK     1CU040 3SC060 7AC080 A3010=,
20180104_180000.003,0,RJFA,,,,0,20180104180000,-1,-1,-1,-1,150,-1,5,-1,-1,130,190,,9999,0,1,3,FEW 30   BKN 60   BKN 80,1,5,1,0,1019,RJFA 041800Z 15005KT 130V190 9999 -RA FEW030 BKN060 BKN080     05/00 Q1019 RMK 1CU030 5SC060 7AS080 A3009=,- RA
20180104_190000.004,0,RJFA,,,,0,20180104190000,-1,-1,-1,-1,999,-1,1,-1,-1,-1,-1,,9999,0,1,3,FEW 30   SCT 40   BKN 50,1,5,1,1,1018,RJFA 041900Z VRB01KT 9999 -RA FEW030 SCT040 BKN050 05/01 Q1018     RMK 1CU030 3CU040 6SC050 A3008=,- RA
20180104_200000.003,0,RJFA,,,,0,20180104200000,-1,-1,-1,-1,190,-1,3,-1,-1,-1,-1,,9999,0,1,3,FEW 15   SCT 20   BKN 30,1,4,1,1,1018,RJFA 042000Z 19003KT 9999 -RA FEW015 SCT020 BKN030 04/01 Q1018     RMK 1CU015 3CU020 5CU030 A3007=,- RA
20180104_210000.003,0,RJFA,,,,0,20180104210000,-1,-1,-1,-1,160,-1,5,-1,-1,-1,-1,,9999,0,1,3,FEW 15   SCT 20   BKN 25,1,3,1,2,1017,RJFA 042100Z 16005KT 9999 -RA FEW015 SCT020 BKN025 03/02 Q1017     RMK 1CU015 3CU020 6CU025 A3005 08/03 R000=,- RA
20180104_220000.003,0,RJFA,,,,0,20180104220000,-1,-1,-1,-1,170,-1,5,-1,-1,-1,-1,,9999,0,1,3,FEW 15   BKN 30   BKN 50,1,3,1,2,1017,RJFA 042200Z 17005KT 9999 -RA FEW015 BKN030 BKN050 03/02 Q1017     RMK 1CU015 5CU030 7SC050 A3005=,- RA
20180104_230000.003,0,RJFA,,,,0,20180104230000,-1,-1,-1,-1,170,-1,6,-1,-1,-1,-1,,9999,0,1,3,FEW 10   SCT 30   BKN 50,1,3,1,2,1017,RJFA 042300Z 17006KT 9999 -RA FEW010 SCT030 BKN050 03/02 Q1017     RMK 1ST010 3CU030 7SC050 A3005 1ST010 W=,- RA
20180105_000000.004,0,RJFA,,,,0,20180105000000,-1,-1,-1,-1,180,-1,6,-1,-1,-1,-1,,9999,0,1,3,FEW 3   SCT 50   BKN 80,1,3,1,2,1017,RJFA 050000Z 18006KT 9999 -RA FEW003 SCT050 BKN080 03/02 Q1017     RMK 1ST003 3SC050 7AS080 A3006 1ST003 SW=,- RA
20180105_010000.004,0,RJFA,,,,0,20180105010000,-1,-1,-1,-1,160,-1,6,-1,-1,-1,-1,,9999,0,1,3,FEW 5   SCT 50   BKN 100,1,3,1,2,1018,RJFA 050100Z 16006KT 9999 -RA FEW005 SCT050 BKN100 03/02 Q1018     RMK 1ST005 3SC050 7AS100 A3007 1ST005 SW=,- RA
20180105_020000.003,0,RJFA,,,,0,20180105020000,-1,-1,-1,-1,150,-1,9,-1,-1,-1,-1,,9999,0,1,3,FEW 7   SCT 50   BKN 100,1,5,1,3,1017,RJFA 050200Z 15009KT 9999 -RA FEW007 SCT050 BKN100 05/03 Q1017     RMK 1ST007 4SC050 7AS100 A3005 1ST007 SW=,- RA
20180105_030000.003,0,RJFA,,,,0,20180105030000,-1,-1,-1,-1,170,-1,7,-1,-1,-1,-1,,9999,0,1,3,FEW 7   BKN 50   BKN 100,1,5,1,3,1016,RJFA 050300Z 17007KT 9999 -RA FEW007 BKN050 BKN100 05/03 Q1016     RMK 1ST007 5SC050 7AS100 A3002 1ST007 SW=,- RA
20180105_040000.003,0,RJFA,,,,0,20180105040000,-1,-1,-1,-1,160,-1,7,-1,-1,-1,-1,,9999,0,1,3,FEW 7   BKN 20   BKN 50,1,5,1,4,1015,RJFA 050400Z 16007KT 9999 -RA FEW007 BKN020 BKN050 05/04 Q1015     RMK 1ST007 5CU020 7SC050 A2999 VIS S-SW 6KM 1ST007 SW=,- RA
20180105_050000.003,0,RJFA,,,,0,20180105050000,-1,-1,-1,-1,190,-1,4,-1,-1,150,240,,7000,0,1,3,FEW 5   SCT 7   BKN 10,1,6,1,5,1015,RJFA 050500Z 19004KT 150V240 7000 -RA FEW005 SCT007 BKN010     06/05 Q1015 RMK 1ST005 3ST007 5ST010 A2997 VIS E-SW 5KM           1ST005 SW 3ST007 AAL=,- RA
20180105_060000.003,0,RJFA,,,,0,20180105060000,-1,-1,-1,-1,220,-1,3,-1,-1,160,260,,7000,0,1,3,FEW 2   SCT 10   BKN 15,1,6,1,5,1014,RJFA 050600Z 22003KT 160V260 7000 -RA FEW002 SCT010 BKN015     06/05 Q1014 RMK 1ST002 4ST010 7CU015 A2997 VIS E-S 5KM           1ST002 SW 2ST007 AAL=,- RA
20180105_070000.003,0,RJFA,,,,0,20180105070000,-1,-1,-1,-1,180,-1,6,-1,-1,-1,-1,,9999,0,1,3,FEW 2   BKN 20   BKN 50,1,6,1,5,1014,RJFA 050700Z 18006KT 9999 -RA FEW002 BKN020 BKN050 06/05 Q1014     RMK 1ST002 5CU020 7SC050 A2997 VIS S-SW 6KM 1ST002 SW           2ST007 SW-W=,- RA
20180105_080000.003,0,RJFA,,,,0,20180105080000,-1,-1,-1,-1,170,-1,6,-1,-1,-1,-1,,9999,0,0,3,FEW 2   BKN 25   BKN 50,1,6,1,5,1014,RJFA 050800Z 17006KT 9999 FEW002 BKN025 BKN050 06/05 Q1014 RMK     1ST002 5CU025 7SC050 A2997 VIS E 9KM 1ST002 SW 2ST007 E           AND W=,
20180105_090000.003,0,RJFA,,,,0,20180105090000,-1,-1,-1,-1,170,-1,6,-1,-1,-1,-1,,9999,0,1,3,FEW 2   SCT 15   BKN 20,1,5,1,5,1014,RJFA 050900Z 17006KT 9999 -RA FEW002 SCT015 BKN020 05/05 Q1014     RMK 1ST002 4CU015 6CU020 A2997 VIS S-W 5KM 1ST002 SW           2ST007 E AND W=,- RA
20180105_100000.003,0,RJFA,,,,0,20180105100000,-1,-1,-1,-1,160,-1,6,-1,-1,-1,-1,,8000,0,1,3,FEW 2   SCT 15   BKN 20,1,5,1,5,1014,RJFA 051000Z 16006KT 8000 -RA FEW002 SCT015 BKN020 05/05 Q1014     RMK 1ST002 4CU015 6CU020 A2997 VIS S-W 5KM 1ST002 SW           2ST007 E AND W=,- RA
20180105_110000.003,0,RJFA,,,,0,20180105110000,-1,-1,-1,-1,190,-1,4,-1,-1,-1,-1,,9999,0,1,3,FEW 10   SCT 15   BKN 20,1,5,1,5,1015,RJFA 051100Z 19004KT 9999 -RA FEW010 SCT015 BKN020 05/05 Q1015     RMK 1ST010 3CU015 5CU020 A2997 VIS S-W 8KM=,- RA
20180105_120000.003,0,RJFA,,,,0,20180105120000,-1,-1,-1,-1,230,-1,3,-1,-1,190,300,,9999,0,1,3,FEW 15   BKN 25   BKN 50,1,6,1,4,1015,RJFA 051200Z 23003KT 190V300 9999 -RA FEW015 BKN025 BKN050     06/04 Q1015 RMK 2CU015 5CU025 7SC050 A2998=,- RA
20180105_130000.003,0,RJFA,,,,0,20180105130000,-1,-1,-1,-1,240,-1,4,-1,-1,200,340,,9999,0,0,3,FEW 15   BKN 30   BKN 50,1,7,1,3,1015,RJFA 051300Z 24004KT 200V340 9999 FEW015 BKN030 BKN050 07/03     Q1015 RMK 2CU015 5CU030 7SC050 A2999=,
20180105_140000.003,0,RJFA,,,,0,20180105140000,-1,-1,-1,-1,240,-1,4,-1,-1,150,300,,9999,0,0,3,FEW 15   BKN 30   BKN 50,1,7,1,1,1015,RJFA 051400Z 24004KT 150V300 9999 FEW015 BKN030 BKN050 07/01     Q1015 RMK 2CU015 5CU030 7SC050 A2999=,
20180105_150000.003,0,RJFA,,,,0,20180105150000,-1,-1,-1,-1,220,-1,4,-1,-1,180,280,,9999,0,0,3,FEW 15   SCT 30   BKN 50,1,6,1,1,1015,RJFA 051500Z 22004KT 180V280 9999 FEW015 SCT030 BKN050 06/01     Q1015 RMK 1CU015 4CU030 5SC050 A2999=,
20180105_160000.004,0,RJFA,,,,0,20180105160000,-1,-1,-1,-1,220,-1,3,-1,-1,170,270,,9999,0,0,2,FEW 30   SCT 50,1,5,-1,2,1015,RJFA 051600Z 22003KT 170V270 9999 FEW030 SCT050 05/M02 Q1015     RMK 2CU030 4SC050 A2999=,
20180105_170000.003,0,RJFA,,,,0,20180105170000,-1,-1,-1,-1,250,-1,4,-1,14,170,290,,9999,0,0,2,FEW 30   SCT 50,1,7,-1,1,1016,RJFA 051700Z 25004G14KT 170V290 9999 FEW030 SCT050 07/M01     Q1016 RMK 1CU030 3SC050 A3000=,
20180105_180000.004,0,RJFA,,,,0,20180105180000,-1,-1,-1,-1,300,-1,12,-1,-1,250,330,,9999,0,0,2,FEW 30   SCT 50,1,7,1,0,1016,RJFA 051800Z 30012KT 250V330 9999 FEW030 SCT050 07/00 Q1016     RMK 1CU030 3SC050 A3001 MAX WIND 20KT=,
20180105_190000.003,0,RJFA,,,,0,20180105190000,-1,-1,-1,-1,290,-1,11,-1,-1,250,320,,9999,0,0,2,FEW 30   SCT 50,1,6,-1,3,1016,RJFA 051900Z 29011KT 250V320 9999 FEW030 SCT050 06/M03 Q1016     RMK 1CU030 4SC050 A3002=,
20180105_200000.003,0,RJFA,,,,0,20180105200000,-1,-1,-1,-1,300,-1,12,-1,22,260,330,,9999,0,0,2,FEW 30   SCT 50,1,7,-1,2,1017,RJFA 052000Z 30012G22KT 260V330 9999 FEW030 SCT050 07/M02     Q1017 RMK 1CU030 3SC050 A3003=,
20180105_210000.004,0,RJFA,,,,0,20180105210000,-1,-1,-1,-1,300,-1,11,-1,-1,260,330,,9999,0,0,1,FEW 30,1,6,-1,2,1017,RJFA 052100Z 30011KT 260V330 9999 FEW030 06/M02 Q1017 RMK     1CU030 A3005 07/05 R007=,
20180105_220000.003,0,RJFA,,,,0,20180105220000,-1,-1,-1,-1,310,-1,15,-1,-1,280,340,,9999,0,0,1,FEW 30,1,6,-1,3,1018,RJFA 052200Z 31015KT 280V340 9999 FEW030 06/M03 Q1018 RMK     2CU030 A3007=,
20180105_230000.003,0,RJFA,,,,0,20180105230000,-1,-1,-1,-1,310,-1,13,-1,-1,-1,-1,,9999,0,0,2,FEW 25   SCT 30,1,6,-1,2,1018,RJFA 052300Z 31013KT 9999 FEW025 SCT030 06/M02 Q1018 RMK     1CU025 4CU030 A3008=,
20180106_000000.003,0,RJFA,,,,0,20180106000000,-1,-1,-1,-1,310,-1,11,-1,-1,-1,-1,,9999,0,0,2,FEW 30   SCT 40,1,7,-1,2,1019,RJFA 060000Z 31011KT 9999 FEW030 SCT040 07/M02 Q1019 RMK     1CU030 3CU040 A3011=,
20180106_010000.003,0,RJFA,,,,0,20180106010000,-1,-1,-1,-1,300,-1,10,-1,-1,270,340,,9999,0,0,1,FEW 30,1,8,-1,1,1020,RJFA 060100Z 30010KT 270V340 9999 FEW030 08/M01 Q1020 RMK     1CU030 A3012=,
20180106_020000.003,0,RJFA,,,,0,20180106020000,-1,-1,-1,-1,330,-1,13,-1,-1,270,340,,9999,0,0,1,FEW 25,1,8,-1,4,1020,RJFA 060200Z 33013KT 270V340 9999 FEW025 08/M04 Q1020 RMK     2CU025 A3012=,
20180106_030000.003,0,RJFA,,,,0,20180106030000,-1,-1,-1,-1,320,-1,10,-1,-1,280,340,,9999,0,0,2,FEW 25   BKN 35,1,8,-1,2,1019,RJFA 060300Z 32010KT 280V340 9999 FEW025 BKN035 08/M02 Q1019     RMK 2CU025 6CU035 A3010=,
20180106_040000.003,0,RJFA,,,,0,20180106040000,-1,-1,-1,-1,330,-1,12,-1,-1,300,360,,9999,0,0,2,FEW 30   BKN 40,1,8,-1,2,1019,RJFA 060400Z 33012KT 300V360 9999 FEW030 BKN040 08/M02 Q1019     RMK 1CU030 5CU040 A3009=,
20180106_050000.003,0,RJFA,,,,0,20180106050000,-1,-1,-1,-1,340,-1,11,-1,-1,310,20,,9999,0,0,2,FEW 30   SCT 40,1,8,-1,2,1018,RJFA 060500Z 34011KT 310V020 9999 FEW030 SCT040 08/M02 Q1018     RMK 1CU030 4CU040 A3009=,
20180106_060000.003,0,RJFA,,,,0,20180106060000,-1,-1,-1,-1,340,-1,10,-1,-1,310,10,,9999,0,0,2,FEW 30   SCT 40,1,8,-1,2,1018,RJFA 060600Z 34010KT 310V010 9999 FEW030 SCT040 08/M02 Q1018     RMK 1CU030 4CU040 A3009=,
20180106_070000.003,0,RJFA,,,,0,20180106070000,-1,-1,-1,-1,330,-1,10,-1,-1,300,360,,9999,0,0,2,FEW 30   SCT 40,1,8,-1,2,1019,RJFA 060700Z 33010KT 300V360 9999 FEW030 SCT040 08/M02 Q1019     RMK 1CU030 3CU040 A3010=,
20180106_080000.003,0,RJFA,,,,0,20180106080000,-1,-1,-1,-1,320,-1,6,-1,-1,290,10,,9999,0,0,2,FEW 30   SCT 45,1,7,-1,2,1019,RJFA 060800Z 32006KT 290V010 9999 FEW030 SCT045 07/M02 Q1019     RMK 1CU030 3SC045 A3010=,
20180106_090000.003,0,RJFA,,,,0,20180106090000,-1,-1,-1,-1,350,-1,5,-1,-1,310,40,,9999,0,0,2,FEW 30   BKN 45,1,7,-1,2,1020,RJFA 060900Z 35005KT 310V040 9999 FEW030 BKN045 07/M02 Q1020     RMK 1CU030 5SC045 A3014=,
20180106_100000.003,0,RJFA,,,,0,20180106100000,-1,-1,-1,-1,200,-1,3,-1,-1,170,240,,9999,0,0,2,FEW 30   BKN 45,1,5,-1,2,1021,RJFA 061000Z 20003KT 170V240 9999 FEW030 BKN045 05/M02 Q1021     RMK 1CU030 5SC045 A3016=,
20180106_110000.003,0,RJFA,,,,0,20180106110000,-1,-1,-1,-1,130,-1,3,-1,-1,100,170,,9999,0,0,3,FEW 30   SCT 45   BKN -9999,1,4,-1,1,1021,RJFA 061100Z 13003KT 100V170 9999 FEW030 SCT045 BKN/// 04/M01     Q1021 RMK 1CU030 4SC045 A3016=,
20180106_120000.003,0,RJFA,,,,0,20180106120000,-1,-1,-1,-1,190,-1,2,-1,-1,-1,-1,,9999,0,0,3,FEW 30   SCT 45   BKN -9999,1,3,-1,1,1021,RJFA 061200Z 19002KT 9999 FEW030 SCT045 BKN/// 03/M01 Q1021     RMK 1CU030 3SC045 A3016=,
20180106_130000.005,0,RJFA,,,,0,20180106130000,-1,-1,-1,-1,160,-1,6,-1,-1,-1,-1,,9999,0,0,2,FEW 30   BKN -9999,1,3,-1,1,1022,RJFA 061300Z 16006KT 9999 FEW030 BKN/// 03/M01 Q1022 RMK     1CU030 A3018=,
20180106_140000.004,0,RJFA,,,,0,20180106140000,-1,-1,-1,-1,160,-1,6,-1,-1,-1,-1,,9999,0,0,3,FEW 30   SCT 45   BKN -9999,1,3,-1,1,1021,RJFA 061400Z 16006KT 9999 FEW030 SCT045 BKN/// 03/M01 Q1021     RMK 1CU030 4SC045 A3017=,
20180106_150000.003,0,RJFA,,,,0,20180106150000,-1,-1,-1,-1,150,-1,7,-1,-1,-1,-1,,9999,0,0,2,FEW 30   BKN -9999,1,2,-1,1,1021,RJFA 061500Z 15007KT 9999 FEW030 BKN/// 02/M01 Q1021 RMK     1CU030 A3017=,
20180106_160000.003,0,RJFA,,,,0,20180106160000,-1,-1,-1,-1,160,-1,7,-1,-1,-1,-1,,9999,0,0,2,FEW 30   BKN -9999,1,2,-1,1,1022,RJFA 061600Z 16007KT 9999 FEW030 BKN/// 02/M01 Q1022 RMK     1CU030 A3018=,
20180106_170000.003,0,RJFA,,,,0,20180106170000,-1,-1,-1,-1,160,-1,7,-1,-1,-1,-1,,9999,0,0,2,FEW 30   SCT -9999,1,1,-1,1,1022,RJFA 061700Z 16007KT 9999 FEW030 SCT/// 01/M01 Q1022 RMK     1CU030 A3019=,
20180106_180000.004,0,RJFA,,,,0,20180106180000,-1,-1,-1,-1,160,-1,8,-1,-1,-1,-1,,9999,0,0,1,FEW 30,1,1,-1,1,1022,RJFA 061800Z 16008KT 9999 FEW030 01/M01 Q1022 RMK 1CU030     A3020=,
20180106_190000.003,0,RJFA,,,,0,20180106190000,-1,-1,-1,-1,150,-1,9,-1,-1,-1,-1,,9999,0,0,2,FEW 30   SCT -9999,1,1,-1,1,1022,RJFA 061900Z 15009KT 9999 FEW030 SCT/// 01/M01 Q1022 RMK     1CU030 A3018=,
20180106_200000.003,0,RJFA,,,,0,20180106200000,-1,-1,-1,-1,150,-1,8,-1,-1,-1,-1,,9999,0,0,2,FEW 30   SCT -9999,1,1,-1,1,1022,RJFA 062000Z 15008KT 9999 FEW030 SCT/// 01/M01 Q1022 RMK     1CU030 A3018=,
20180106_210000.003,0,RJFA,,,,0,20180106210000,-1,-1,-1,-1,150,-1,7,-1,-1,-1,-1,,9999,0,0,2,FEW 30   SCT -9999,1,1,-1,2,1022,RJFA 062100Z 15007KT 9999 FEW030 SCT/// 01/M02 Q1022 RMK     1CU030 A3018 09/00=,
20180106_220000.003,0,RJFA,,,,0,20180106220000,-1,-1,-1,-1,160,-1,8,-1,-1,-1,-1,,9999,0,0,2,FEW 30   BKN 230,1,0,-1,1,1022,RJFA 062200Z 16008KT 9999 FEW030 BKN230 00/M01 Q1022 RMK     1CU030 A3018=,
20180106_230000.003,0,RJFA,,,,0,20180106230000,-1,-1,-1,-1,160,-1,8,-1,-1,-1,-1,,9999,0,0,3,FEW 50   SCT 180   BKN 230,1,1,-1,1,1022,RJFA 062300Z 16008KT 9999 FEW050 SCT180 BKN230 01/M01 Q1022     RMK 1SC050 3AC180 A3018=,
20180107_000000.003,0,RJFA,,,,0,20180107000000,-1,-1,-1,-1,150,-1,7,-1,-1,-1,-1,,9999,0,0,3,FEW 30   SCT 180   BKN 230,1,1,-1,0,1021,RJFA 070000Z 15007KT 9999 FEW030 SCT180 BKN230 01/M00 Q1021     RMK 1CU030 3AC180 A3018=,
20180107_010000.004,0,RJFA,,,,0,20180107010000,-1,-1,-1,-1,170,-1,6,-1,-1,-1,-1,,9999,0,0,3,FEW 30   SCT 180   BKN 230,1,5,1,0,1023,RJFA 070100Z 17006KT 9999 FEW030 SCT180 BKN230 05/00 Q1023 RMK     1CU030 3AC180 A3021=,
20180107_020000.003,0,RJFA,,,,0,20180107020000,-1,-1,-1,-1,170,-1,5,-1,-1,-1,-1,,9999,0,0,3,FEW 30   SCT 180   BKN 230,1,6,1,0,1022,RJFA 070200Z 17005KT 9999 FEW030 SCT180 BKN230 06/00 Q1022 RMK     1CU030 4AC180 A3020=,
20180107_030000.003,0,RJFA,,,,0,20180107030000,-1,-1,-1,-1,130,-1,4,-1,-1,-1,-1,,9999,0,0,3,FEW 30   SCT 120   BKN 160,1,7,-1,0,1021,RJFA 070300Z 13004KT 9999 FEW030 SCT120 BKN160 07/M00 Q1021     RMK 1SC030 3AC120 7AC160 A3018=,
20180107_040000.003,0,RJFA,,,,0,20180107040000,-1,-1,-1,-1,50,-1,2,-1,-1,-1,-1,,9999,0,0,3,FEW 30   BKN 120   BKN 160,1,7,-1,1,1021,RJFA 070400Z 05002KT 9999 FEW030 BKN120 BKN160 07/M01 Q1021     RMK 1CU030 5AC120 7AC160 A3016=,
20180107_050000.003,0,RJFA,,,,0,20180107050000,-1,-1,-1,-1,100,-1,7,-1,-1,-1,-1,,9999,0,0,3,FEW 50   BKN 120   BKN 160,1,8,-1,0,1019,RJFA 070500Z 10007KT 9999 FEW050 BKN120 BKN160 08/M00 Q1019     RMK 1SC050 5AC120 7AC160 A3012=,
20180107_060000.003,0,RJFA,,,,0,20180107060000,-1,-1,-1,-1,110,-1,7,-1,-1,-1,-1,,9999,0,0,3,FEW 50   BKN 120   BKN 160,1,8,-1,0,1019,RJFA 070600Z 11007KT 9999 FEW050 BKN120 BKN160 08/M00 Q1019     RMK 1SC050 6AC120 7AC160 A3010=,
20180107_070000.003,0,RJFA,,,,0,20180107070000,-1,-1,-1,-1,150,-1,5,-1,-1,-1,-1,,9999,0,0,3,FEW 35   SCT 90   BKN 120,1,8,-1,0,1019,RJFA 070700Z 15005KT 9999 FEW035 SCT090 BKN120 08/M00 Q1019     RMK 1CU035 3AC090 7AC120 A3011=,
20180107_080000.003,0,RJFA,,,,0,20180107080000,-1,-1,-1,-1,140,-1,4,-1,-1,-1,-1,,9999,0,1,3,FEW 50   BKN 90   BKN 120,1,8,1,2,1019,RJFA 070800Z 14004KT 9999 -RA FEW050 BKN090 BKN120 08/02 Q1019     RMK 2SC050 5AC090 7AS120 A3010=,- RA
20180107_090000.003,0,RJFA,,,,0,20180107090000,-1,-1,-1,-1,120,-1,3,-1,-1,-1,-1,,9999,0,0,3,FEW 50   BKN 90   BKN 120,1,8,1,2,1018,RJFA 070900Z 12003KT 9999 FEW050 BKN090 BKN120 08/02 Q1018 RMK     2SC050 6AC090 7AS120 A3009=,
20180107_100000.003,0,RJFA,,,,0,20180107100000,-1,-1,-1,-1,160,-1,3,-1,-1,-1,-1,,9999,0,0,3,FEW 50   BKN 90   BKN 120,1,7,1,2,1019,RJFA 071000Z 16003KT 9999 FEW050 BKN090 BKN120 07/02 Q1019 RMK     2SC050 6AC090 7AS120 A3010=,
20180107_110000.003,0,RJFA,,,,0,20180107110000,-1,-1,-1,-1,130,-1,5,-1,-1,-1,-1,,9999,0,1,3,FEW 30   BKN 50   BKN 90,1,7,1,2,1018,RJFA 071100Z 13005KT 9999 -RA FEW030 BKN050 BKN090 07/02 Q1018     RMK 1CU030 5SC050 7AS090 A3008=,- RA
20180107_120000.004,0,RJFA,,,,0,20180107120000,-1,-1,-1,-1,150,-1,5,-1,-1,-1,-1,,9999,0,1,3,FEW 30   BKN 50   BKN 90,1,7,1,4,1018,RJFA 071200Z 15005KT 9999 -RA FEW030 BKN050 BKN090 07/04 Q1018     RMK 2CU030 6SC050 7AS090 A3007=,- RA
20180107_130000.004,0,RJFA,,,,0,20180107130000,-1,-1,-1,-1,160,-1,5,-1,-1,-1,-1,,9999,0,1,3,FEW 20   SCT 30   BKN 50,1,6,1,5,1017,RJFA 071300Z 16005KT 9999 -RA FEW020 SCT030 BKN050 06/05 Q1017     RMK 1CU020 3CU030 6SC050 A3005 VIS S 7KM=,- RA
20180107_140000.004,0,RJFA,,,,0,20180107140000,-1,-1,-1,-1,120,-1,1,-1,-1,-1,-1,,9999,0,1,3,FEW 20   BKN 50   OVC 90,1,6,1,5,1017,RJFA 071400Z 12001KT 9999 -RA FEW020 BKN050 OVC090 06/05 Q1017     RMK 1CU020 6SC050 8AS090 A3003 VIS S 8KM=,- RA
20180107_150000.003,0,RJFA,,,,0,20180107150000,-1,-1,-1,-1,220,-1,2,-1,-1,-1,-1,,9000,0,1,3,FEW 20   BKN 50   OVC 90,1,6,1,5,1016,RJFA 071500Z 22002KT 9000 -RA FEW020 BKN050 OVC090 06/05 Q1016     RMK 1CU020 6SC050 8AS090 A3000 VIS S 8KM=,- RA
20180107_160000.003,0,RJFA,,,,0,20180107160000,-1,-1,-1,-1,190,-1,2,-1,-1,-1,-1,,8000,0,1,3,FEW 20   SCT 30   BKN 40,1,6,1,5,1015,RJFA 071600Z 19002KT 8000 -RA FEW020 SCT030 BKN040 06/05 Q1015     RMK 1CU020 3CU030 6SC040 A2999 VIS S 6KM=,- RA
20180107_170000.003,0,RJFA,,,,0,20180107170000,-1,-1,-1,-1,30,-1,1,-1,-1,-1,-1,,5000,0,2,3,FEW 20   SCT 30   BKN 40,1,6,1,5,1014,RJFA 071700Z 03001KT 5000 RA BR FEW020 SCT030 BKN040 06/05     Q1014 RMK 1CU020 4CU030 6SC040 A2997 VIS S 4000M=,RA; BR
20180107_180000.003,0,RJFA,,,,0,20180107180000,-1,-1,-1,-1,240,-1,1,-1,-1,-1,-1,,5000,0,2,3,FEW 20   BKN 30   BKN 40,1,6,1,6,1014,RJFA 071800Z 24001KT 5000 RA BR FEW020 BKN030 BKN040 06/06     Q1014 RMK 1CU020 5CU030 7SC040 A2994 VIS S 4000M=,RA; BR
20180107_190000.004,0,RJFA,,,,0,20180107190000,-1,-1,-1,-1,180,-1,4,-1,-1,150,230,,3000,0,2,3,FEW 15   SCT 30   BKN 40,1,7,1,6,1013,RJFA 071900Z 18004KT 150V230 3000 -RA BR FEW015 SCT030 BKN040     07/06 Q1013 RMK 1CU015 3CU030 7SC040 A2992=,- RA; BR
20180107_200000.003,0,RJFA,,,,0,20180107200000,-1,-1,-1,-1,160,-1,5,-1,-1,-1,-1,,2500,0,2,3,FEW 3   BKN 8   BKN 30,1,6,1,6,1012,RJFA 072000Z 16005KT 2500 -SHRA BR FEW003 BKN008 BKN030 06/06     Q1012 RMK 1ST003 5ST008 7CU030 A2991=,- RA SH; BR
20180107_210000.004,0,RJFA,,,,0,20180107210000,-1,-1,-1,-1,130,-1,5,-1,-1,-1,-1,,2500,0,2,3,FEW 2   SCT 5   BKN 8,1,7,1,6,1011,RJFA 072100Z 13005KT 2500 -SHRA BR FEW002 SCT005 BKN008 07/06     Q1011 RMK 1ST002 3ST005 6ST008 A2987 09/06 R014=,- RA SH; BR
20180107_220000.003,0,RJFA,,,,0,20180107220000,-1,-1,-1,-1,180,-1,5,-1,-1,-1,-1,,3000,0,1,3,FEW 2   BKN 8   BKN 20,1,7,1,6,1009,RJFA 072200Z 18005KT 3000 BR FEW002 BKN008 BKN020 07/06 Q1009     RMK 1ST002 5ST008 7CU020 A2981=,BR
20180107_230000.003,0,RJFA,,,,0,20180107230000,-1,-1,-1,-1,120,-1,4,-1,-1,-1,-1,,4000,0,2,3,FEW 2   SCT 3   BKN 8,1,6,1,6,1009,RJFA 072300Z 12004KT 4000 BR BCFG FEW002 SCT003 BKN008 06/06     Q1009 RMK 2ST002 3ST003 5ST008 A2982 VIS E AND SW 2000M           FG BANK E AND SW=,BR; BC FG
20180108_000000.003,0,RJFA,,,,0,20180108000000,-1,-1,-1,-1,130,-1,4,-1,-1,-1,-1,,4000,0,2,3,FEW 2   SCT 3   BKN 8,1,7,1,7,1009,RJFA 080000Z 13004KT 4000 -SHRA BR FEW002 SCT003 BKN008 07/07     Q1009 RMK 2ST002 3ST003 5ST008 A2980 VIS E-SW 3000M=,- RA SH; BR
20180108_010000.003,0,RJFA,,,,0,20180108010000,-1,-1,-1,-1,130,-1,10,-1,-1,-1,-1,,5000,0,1,3,FEW 3   SCT 8   BKN 20,1,8,1,8,1008,RJFA 080100Z 13010KT 5000 BR FEW003 SCT008 BKN020 08/08 Q1008     RMK 2ST003 3ST008 6CU020 A2978 VIS E-SW 3000M=,BR
20180108_020000.004,0,RJFA,,,,0,20180108020000,-1,-1,-1,-1,140,-1,10,-1,-1,-1,-1,,9999,0,0,3,FEW 8   SCT 20   BKN 100,1,9,1,9,1007,RJFA 080200Z 14010KT 9999 FEW008 SCT020 BKN100 09/09 Q1007 RMK     2ST008 3CU020 7AC100 A2975=,
20180108_030000.003,0,RJFA,,,,0,20180108030000,-1,-1,-1,-1,150,-1,7,-1,-1,-1,-1,,9999,0,1,3,FEW 3   SCT 35   BKN 90,1,11,1,11,1006,RJFA 080300Z 15007KT 9999 -RA FEW003 SCT035 BKN090 11/11 Q1006     RMK 1ST003 4CU035 7AS090 A2973=,- RA
20180108_040000.003,0,RJFA,,,,0,20180108040000,-1,-1,-1,-1,160,-1,7,-1,-1,-1,-1,,9999,0,1,3,FEW 5   SCT 20   BKN 35,1,12,1,11,1005,RJFA 080400Z 16007KT 9999 -SHRA FEW005 SCT020 BKN035 12/11     Q1005 RMK 1ST005 4CU020 6CU035 A2970=,- RA SH
20180108_050000.003,0,RJFA,,,,0,20180108050000,-1,-1,-1,-1,150,-1,7,-1,-1,-1,-1,,9999,0,1,3,FEW 5   BKN 30   BKN 80,1,12,1,12,1004,RJFA 080500Z 15007KT 9999 -SHRA FEW005 BKN030 BKN080 12/12     Q1004 RMK 1ST005 5CU030 7AS080 A2966=,- RA SH
20180108_060000.004,0,RJFA,,,,0,20180108060000,-1,-1,-1,-1,180,-1,6,-1,-1,-1,-1,,9999,0,1,3,FEW 5   SCT 20   BKN 30,1,13,1,13,1004,RJFA 080600Z 18006KT 9999 -SHRA FEW005 SCT020 BKN030 13/13     Q1004 RMK 1ST005 3CU020 7CU030 A2965=,- RA SH
20180108_070000.003,0,RJFA,,,,0,20180108070000,-1,-1,-1,-1,170,-1,7,-1,-1,-1,-1,,8000,0,1,3,FEW 3   SCT 10   BKN 15,1,13,1,13,1004,RJFA 080700Z 17007KT 8000 -SHRA FEW003 SCT010 BKN015 13/13     Q1004 RMK 1ST003 4ST010 6CU015 A2965 VIS SW 7KM=,- RA SH
20180108_080000.003,0,RJFA,,,,0,20180108080000,-1,-1,-1,-1,999,-1,9,-1,22,-1,-1,,9999,0,1,3,FEW 3   SCT 10   BKN 15,1,14,1,12,1004,RJFA 080800Z VRB09G22KT 9999 -SHRA FEW003 SCT010 BKN015 14/12     Q1004 RMK 1ST003 3CU010 6CU015 A2965=,- RA SH
20180108_090000.003,0,RJFA,,,,0,20180108090000,-1,-1,-1,-1,250,-1,7,-1,-1,170,310,,9999,0,1,3,FEW 3   BKN 12   BKN 20,1,13,1,12,1004,RJFA 080900Z 25007KT 170V310 9999 -SHRA FEW003 BKN012 BKN020     13/12 Q1004 RMK 1ST003 5CU012 7CU020 A2966=,- RA SH
20180108_100000.003,0,RJFA,,,,0,20180108100000,-1,-1,-1,-1,280,-1,9,-1,19,190,340,,9999,0,1,3,FEW 3   SCT 8   BKN 12,1,12,1,11,1005,RJFA 081000Z 28009G19KT 190V340 9999 -SHRA FEW003 SCT008     BKN012 12/11 Q1005 RMK 1ST003 3ST008 5CU012 A2969 VIS SW           7KM=,- RA SH
20180108_110000.003,0,RJFA,,,,0,20180108110000,-1,-1,-1,-1,999,-1,8,-1,18,-1,-1,,9999,0,1,3,FEW 5   SCT 15   BKN 20,1,11,1,9,1006,RJFA 081100Z VRB08G18KT 9999 -SHRA FEW005 SCT015 BKN020 11/09     Q1006 RMK 1ST005 3CU015 5CU020 A2973=,- RA SH
20180108_120000.003,0,RJFA,,,,0,20180108120000,-1,-1,-1,-1,270,-1,9,-1,19,180,320,,9999,0,1,3,FEW 5   SCT 10   BKN 20,1,11,1,8,1006,RJFA 081200Z 27009G19KT 180V320 9999 -SHRA FEW005 SCT010     BKN020 11/08 Q1006 RMK 1ST005 3ST010 6CU020 A2973 VIS           S-SW 7KM=,- RA SH
20180108_130000.004,0,RJFA,,,,0,20180108130000,-1,-1,-1,-1,270,-1,10,-1,21,180,350,,9999,0,0,3,FEW 5   SCT 10   BKN 20,1,10,1,6,1007,RJFA 081300Z 27010G21KT 180V350 9999 FEW005 SCT010 BKN020     10/06 Q1007 RMK 1ST005 3CU010 5CU020 A2975=,
20180108_140000.003,0,RJFA,,,,0,20180108140000,-1,-1,-1,-1,280,-1,11,-1,24,210,350,,9999,0,0,3,FEW 10   BKN 20   BKN 50,1,10,1,4,1007,RJFA 081400Z 28011G24KT 210V350 9999 FEW010 BKN020 BKN050     10/04 Q1007 RMK 2CU010 5CU020 7SC050 A2975=,
20180108_150000.003,0,RJFA,,,,0,20180108150000,-1,-1,-1,-1,280,-1,13,-1,23,250,330,,9999,0,0,3,FEW 10   BKN 20   BKN 50,1,9,1,2,1007,RJFA 081500Z 28013G23KT 250V330 9999 FEW010 BKN020 BKN050     09/02 Q1007 RMK 2CU010 5CU020 7SC050 A2976=,
20180108_160000.003,0,RJFA,,,,0,20180108160000,-1,-1,-1,-1,280,-1,16,-1,29,240,350,,9999,0,1,3,FEW 10   BKN 20   BKN 50,1,9,1,3,1007,RJFA 081600Z 28016G29KT 240V350 9999 -SHRA FEW010 BKN020     BKN050 09/03 Q1007 RMK 2CU010 6CU020 7SC050 A2976=,- RA SH
20180108_170000.003,0,RJFA,,,,0,20180108170000,-1,-1,-1,-1,280,-1,15,-1,28,240,340,,9999,0,1,3,FEW 6   SCT 12   BKN 20,1,8,1,2,1007,RJFA 081700Z 28015G28KT 240V340 9999 -SHRA FEW006 SCT012     BKN020 08/02 Q1007 RMK 1ST006 3CU012 6CU020 A2974=,- RA SH
20180108_180000.003,0,RJFA,,,,0,20180108180000,-1,-1,-1,-1,290,-1,15,-1,30,220,350,,9999,0,0,3,FEW 6   SCT 12   BKN 25,1,7,1,0,1007,RJFA 081800Z 29015G30KT 220V350 9999 FEW006 SCT012 BKN025     07/00 Q1007 RMK 1ST006 3CU012 5CU025 A2976=,
20180108_190000.003,0,RJFA,,,,0,20180108190000,-1,-1,-1,-1,280,-1,14,-1,26,220,340,,9999,0,0,3,FEW 15   SCT 25   BKN 45,1,7,-1,1,1008,RJFA 081900Z 28014G26KT 220V340 9999 FEW015 SCT025 BKN045     07/M01 Q1008 RMK 1CU015 4CU025 7SC045 A2978=,
20180108_200000.003,0,RJFA,,,,0,20180108200000,-1,-1,-1,-1,290,-1,15,-1,28,230,340,,9999,0,1,3,FEW 20   BKN 30   BKN 50,1,7,-1,1,1008,RJFA 082000Z 29015G28KT 230V340 9999 -SHRA FEW020 BKN030     BKN050 07/M01 Q1008 RMK 1CU020 5CU030 7SC050 A2978=,- RA SH
20180108_210000.004,0,RJFA,,,,0,20180108210000,-1,-1,-1,-1,280,-1,18,-1,30,-1,-1,,9999,0,0,3,FEW 20   SCT 35   BKN 50,1,6,-1,1,1008,RJFA 082100Z 28018G30KT 9999 FEW020 SCT035 BKN050 06/M01 Q1008     RMK 1CU020 3CU035 7SC050 A2978 28035KT/2040 14/06 R018=,
20180108_220000.003,0,RJFA,,,,0,20180108220000,-1,-1,-1,-1,280,-1,17,-1,37,240,340,,9999,0,0,2,FEW 20   BKN 35,1,6,-1,3,1009,RJFA 082200Z 28017G37KT 240V340 9999 FEW020 BKN035 06/M03     Q1009 RMK 1CU020 5CU035 A2981 RWY30 29025G39KT=,
20180108_230000.004,0,RJFA,,,,0,20180108230000,-1,-1,-1,-1,280,-1,17,-1,34,210,350,,9999,0,0,3,FEW 20   BKN 30   BKN 35,1,5,-1,4,1011,RJFA 082300Z 28017G34KT 210V350 9999 FEW020 BKN030 BKN035     05/M04 Q1011 RMK 1CU020 5CU030 6CU035 A2986 RWY30           29025G38KT=,
20180109_000000.003,0,RJFA,,,,0,20180109000000,-1,-1,-1,-1,280,-1,14,-1,31,210,340,,9999,0,1,3,FEW 20   SCT 30   BKN 35,1,5,-1,3,1012,RJFA 090000Z 28014G31KT 210V340 9999 -SHRASN FEW020 SCT030     BKN035 05/M03 Q1012 RMK 1CU020 4CU030 7CU035 A2989 RWY30           29021G37KT=,- RA SN SH
20180109_010000.003,0,RJFA,,,,0,20180109010000,-1,-1,-1,-1,290,-1,16,-1,30,240,340,,9999,0,1,3,FEW 20   BKN 30   BKN 35,1,4,-1,2,1013,RJFA 090100Z 29016G30KT 240V340 9999 -SHSNRA FEW020 BKN030     BKN035 04/M02 Q1013 RMK 1CU020 5CU030 7CU035 A2992 VIS W           5KM RWY30 30015G30KT=,- SN RA SH
20180109_020000.003,0,RJFA,,,,0,20180109020000,-1,-1,-1,-1,999,-1,13,-1,26,-1,-1,,9999,0,1,3,FEW 20   SCT 30   BKN 35,1,4,-1,3,1013,RJFA 090200Z VRB13G26KT 9999 -SHSNRA FEW020 SCT030 BKN035     04/M03 Q1013 RMK 1CU020 4CU030 6CU035 A2993 VIS S-SW 5KM           RWY30 28015G29KT=,- SN RA SH
20180109_030000.003,0,RJFA,,,,0,20180109030000,-1,-1,-1,-1,290,-1,15,-1,29,230,320,,9999,0,1,3,FEW 20   SCT 30   BKN 40,1,5,-1,4,1012,RJFA 090300Z 29015G29KT 230V320 9999 -SHSNRA FEW020 SCT030     BKN040 05/M04 Q1012 RMK 1CU020 3CU030 6CU040 A2991 RWY30           28021G31KT=,- SN RA SH
20180109_040000.003,0,RJFA,,,,0,20180109040000,-1,-1,-1,-1,290,-1,12,-1,26,220,350,,9999,0,1,2,FEW 20   BKN 40,1,5,-1,5,1012,RJFA 090400Z 29012G26KT 220V350 9999 VCSH FEW020 BKN040 05/M05     Q1012 RMK 1CU020 5CU040 A2989=,VC SH
20180109_050000.003,0,RJFA,,,,0,20180109050000,-1,-1,-1,-1,300,-1,15,-1,29,260,330,,9999,0,1,2,FEW 20   BKN 40,1,5,-1,4,1011,RJFA 090500Z 30015G29KT 260V330 9999 VCSH FEW020 BKN040 05/M04     Q1011 RMK 1CU020 6CU040 A2988 RWY30 30017/23KT=,VC SH
20180109_060000.003,0,RJFA,,,,0,20180109060000,-1,-1,-1,-1,290,-1,13,-1,25,250,330,,9999,0,0,2,FEW 20   BKN 40,1,6,-1,4,1012,RJFA 090600Z 29013G25KT 250V330 9999 FEW020 BKN040 06/M04     Q1012 RMK 1CU020 7CU040 A2989 RWY30 29017/23KT=,
20180109_070000.003,0,RJFA,,,,0,20180109070000,-1,-1,-1,-1,280,-1,10,-1,22,200,330,,9999,0,1,2,FEW 20   BKN 40,1,5,-1,3,1012,RJFA 090700Z 28010G22KT 200V330 9999 -SHRA FEW020 BKN040     05/M03 Q1012 RMK 1CU020 7CU040 A2989 RWY30 28015KT=,- RA SH
20180109_080000.003,0,RJFA,,,,0,20180109080000,-1,-1,-1,-1,270,-1,7,-1,17,200,340,,9999,0,1,3,FEW 20   SCT 30   BKN 40,1,5,-1,4,1012,RJFA 090800Z 27007G17KT 200V340 9999 -SHRA FEW020 SCT030     BKN040 05/M04 Q1012 RMK 1CU020 3CU030 7CU040 A2990 RWY30           26012KT=,- RA SH
20180109_090000.003,0,RJFA,,,,0,20180109090000,-1,-1,-1,-1,999,-1,7,-1,21,-1,-1,,9999,0,0,3,FEW 20   SCT 30   BKN 40,1,5,-1,3,1013,RJFA 090900Z VRB07G21KT 9999 FEW020 SCT030 BKN040 05/M03 Q1013     RMK 1CU020 3CU030 7CU040 A2994 RWY30 27016/23KT=,
20180109_100000.003,0,RJFA,,,,0,20180109100000,-1,-1,-1,-1,999,-1,10,-1,21,-1,-1,,9999,0,0,3,FEW 20   SCT 30   BKN 45,1,5,-1,3,1014,RJFA 091000Z VRB10G21KT 9999 FEW020 SCT030 BKN045 05/M03 Q1014     RMK 1CU020 3CU030 5SC045 A2996=,
20180109_110000.003,0,RJFA,,,,0,20180109110000,-1,-1,-1,-1,999,-1,7,-1,27,-1,-1,,9999,0,0,2,FEW 20   BKN 45,1,5,-1,4,1014,RJFA 091100Z VRB07G27KT 9999 FEW020 BKN045 05/M04 Q1014 RMK     1CU020 7SC045 A2996=,
20180109_120000.003,0,RJFA,,,,0,20180109120000,-1,-1,-1,-1,280,-1,7,-1,19,210,340,,9999,0,0,2,FEW 20   BKN 45,1,6,-1,3,1015,RJFA 091200Z 28007G19KT 210V340 9999 FEW020 BKN045 06/M03     Q1015 RMK 1CU020 7SC045 A2998=,
20180109_130000.003,0,RJFA,,,,0,20180109130000,-1,-1,-1,-1,999,-1,8,-1,20,-1,-1,,9999,0,0,2,FEW 20   BKN 45,1,5,-1,5,1015,RJFA 091300Z VRB08G20KT 9999 FEW020 BKN045 05/M05 Q1015 RMK     1CU020 5SC045 A2998=,
20180109_140000.003,0,RJFA,,,,0,20180109140000,-1,-1,-1,-1,999,-1,7,-1,17,-1,-1,,9999,0,0,2,FEW 20   SCT 45,1,6,-1,3,1015,RJFA 091400Z VRB07G17KT 9999 FEW020 SCT045 06/M03 Q1015 RMK     1CU020 4SC045 A2998=,
20180109_150000.003,0,RJFA,,,,0,20180109150000,-1,-1,-1,-1,999,-1,9,-1,20,-1,-1,,9999,0,0,2,FEW 20   BKN 45,1,6,-1,4,1015,RJFA 091500Z VRB09G20KT 9999 FEW020 BKN045 06/M04 Q1015 RMK     1CU020 6SC045 A2997=,
20180109_160000.003,0,RJFA,,,,0,20180109160000,-1,-1,-1,-1,999,-1,10,-1,23,-1,-1,,9999,0,0,2,FEW 20   BKN 45,1,6,-1,1,1014,RJFA 091600Z VRB10G23KT 9999 FEW020 BKN045 06/M01 Q1014 RMK     1CU020 5SC045 A2996=,
20180109_170000.003,0,RJFA,,,,0,20180109170000,-1,-1,-1,-1,290,-1,11,-1,-1,240,330,,9999,0,0,3,FEW 20   SCT 30   BKN 40,1,6,-1,3,1014,RJFA 091700Z 29011KT 240V330 9999 FEW020 SCT030 BKN040 06/M03     Q1014 RMK 1CU020 3CU030 7CU040 A2996=,
20180109_180000.003,0,RJFA,,,,0,20180109180000,-1,-1,-1,-1,999,-1,5,-1,-1,-1,-1,,9999,0,1,3,FEW 8   SCT 20   BKN 30,1,3,1,1,1015,RJFA 091800Z VRB05KT 9999 -SHRA FEW008 SCT020 BKN030 03/01     Q1015 RETS RMK 1ST008 3CU020 5CU030 A2997=,- RA SH
20180109_190000.004,0,RJFA,,,,0,20180109190000,-1,-1,-1,-1,280,-1,8,-1,-1,240,340,,9999,0,0,3,FEW 8   SCT 15   BKN 25,1,4,1,2,1014,RJFA 091900Z 28008KT 240V340 9999 FEW008 SCT015 BKN025 04/02     Q1014 RMK 1ST008 3CU015 5CU025 A2994=,
20180109_200000.003,0,RJFA,,,,0,20180109200000,-1,-1,-1,-1,170,-1,6,-1,-1,150,300,,4000,0,2,4,FEW 5   SCT 10   BKN 15   SCT 30 TCU,1,2,1,0,1014,RJFA 092000Z 17006KT 150V300 4000 -SHGSRA BR FEW005 SCT010     BKN015 SCT030TCU 02/00 Q1014 RMK 1ST005 3CU010 7CU015           3TCU030 A2995 TCU OHD MOV E=,- GS RA SH; BR
20180109_210000.003,0,RJFA,,,,0,20180109210000,-1,-1,-1,-1,180,-1,9,-1,-1,-1,-1,,4000,0,2,3,FEW 5   BKN 10   BKN 15,1,0,-1,0,1014,RJFA 092100Z 18009KT 4000 -SHSNRA BR FEW005 BKN010 BKN015     00/M00 Q1014 RMK 1ST005 5CU010 7CU015 A2995 VIS S-W 3000M           28038KT/2120 07/00 R003 S001=,- SN RA SH; BR
20180109_220000.003,0,RJFA,,,,0,20180109220000,-1,-1,-1,-1,150,-1,8,-1,-1,-1,-1,,3500,0,2,3,FEW 5   SCT 8   BKN 10,1,0,-1,0,1013,RJFA 092200Z 15008KT 3500 -SHSNRA BR FEW005 SCT008 BKN010     00/M00 Q1013 RMK 1ST005 4ST008 5CU010 A2994 VIS SE-S           2000M NW 5KM=,- SN RA SH; BR
20180109_230000.003,0,RJFA,,,,0,20180109230000,-1,-1,-1,-1,170,-1,11,-1,-1,-1,-1,,5000,0,2,3,FEW 3   SCT 8   BKN 10,1,0,-1,0,1014,RJFA 092300Z 17011KT 5000 -SHRA BR FEW003 SCT008 BKN010 00/M00     Q1014 RMK 1ST003 3ST008 5CU010 A2995 VIS S-SW 3000M NW-NE           8KM=,- RA SH; BR
20180110_000000.003,0,RJFA,,,,0,20180110000000,-1,-1,-1,-1,170,-1,5,-1,-1,120,210,,9999,0,1,3,FEW 1   SCT 3   BKN 15,1,1,-1,0,1014,RJFA 100000Z 17005KT 120V210 9999 -SHRA FEW001 SCT003 BKN015     01/M00 Q1014 RMK 1ST001 3ST003 5CU015 A2996 VIS S-SW           3500M 3ST003 AAL=,- RA SH
20180110_010000.003,0,RJFA,,,,0,20180110010000,-1,-1,-1,-1,300,-1,14,-1,29,230,330,,8000,0,1,3,FEW 1   SCT 8   BKN 20,1,2,1,2,1014,RJFA 100100Z 30014G29KT 230V330 8000 -SHRASN FEW001 SCT008     BKN020 02/02 Q1014 RMK 1ST001 3ST008 6CU020 A2997 VIS           SE-S 5KM 3ST008 AAL=,- RA SN SH
20180110_020000.003,0,RJFA,,,,0,20180110020000,-1,-1,-1,-1,290,-1,15,-1,26,220,330,,9999,0,1,3,FEW 5   BKN 25   BKN 40,1,5,-1,0,1014,RJFA 100200Z 29015G26KT 220V330 9999 -SHRA FEW005 BKN025     BKN040 05/M00 Q1014 RMK 1ST005 5CU025 7CU040 A2996 1ST005           W RWY30 30018G28KT=,- RA SH
20180110_030000.003,0,RJFA,,,,0,20180110030000,-1,-1,-1,-1,999,-1,9,-1,28,-1,-1,,9999,0,1,4,FEW 5   SCT 12   FEW 20 TCU  BKN 25,1,4,1,1,1014,RJFA 100300Z VRB09G28KT 9999 -SHGSRA FEW005 SCT012 FEW020TCU     BKN025 04/01 Q1014 RMK 1ST005 3ST012 1TCU020 6CU025 A2995           VIS SW-N 7KM TCU W APCHG STN RWY30 27014KT=,- GS RA SH
20180110_040000.004,0,RJFA,,,,0,20180110040000,-1,-1,-1,-1,999,-1,13,-1,26,-1,-1,,9999,0,1,3,FEW 8   SCT 12   BKN 25,1,4,-1,1,1013,RJFA 100400Z VRB13G26KT 9999 -SHRASN FEW008 SCT012 BKN025     04/M01 Q1013 RMK 1ST008 3CU012 6CU025 A2993 RWY30           29017G31KT=,- RA SN SH
20180110_050000.003,0,RJFA,,,,0,20180110050000,-1,-1,-1,-1,290,-1,14,-1,25,240,330,,9999,0,0,3,FEW 8   BKN 25   BKN 35,1,5,-1,3,1014,RJFA 100500Z 29014G25KT 240V330 9999 FEW008 BKN025 BKN035     05/M03 Q1014 RMK 1ST008 6CU025 7CU035 A2994 VIRGA S RWY30           30024G35KT=,
20180110_060000.003,0,RJFA,,,,0,20180110060000,-1,-1,-1,-1,280,-1,14,-1,30,210,360,,9999,0,1,3,FEW 15   SCT 25   BKN 35,1,5,-1,1,1014,RJFA 100600Z 28014G30KT 210V360 9999 -SHRA FEW015 SCT025     BKN035 05/M01 Q1014 RMK 1CU015 3CU025 6CU035 A2995=,- RA SH
20180110_070000.003,0,RJFA,,,,0,20180110070000,-1,-1,-1,-1,999,-1,11,-1,23,-1,-1,,9999,0,1,3,FEW 15   SCT 25   BKN 35,1,3,-1,2,1014,RJFA 100700Z VRB11G23KT 9999 -SHSNRA FEW015 SCT025 BKN035     03/M02 Q1014 RMK 1CU015 3CU025 7CU035 A2997=,- SN RA SH
20180110_080000.003,0,RJFA,,,,0,20180110080000,-1,-1,-1,-1,300,-1,13,-1,24,230,330,,9999,0,1,3,FEW 5   SCT 15   BKN 30,1,3,1,0,1015,RJFA 100800Z 30013G24KT 230V330 9999 -SHRASN FEW005 SCT015     BKN030 03/00 Q1015 RMK 1ST005 4CU015 7CU030 A2998=,- RA SN SH
20180110_090000.003,0,RJFA,,,,0,20180110090000,-1,-1,-1,-1,290,-1,15,-1,27,220,350,,9999,0,1,2,FEW 10   BKN 30,1,3,-1,4,1015,RJFA 100900Z 29015G27KT 220V350 9999 VCSH FEW010 BKN030 03/M04     Q1015 RMK 1ST010 6CU030 A2998=,VC SH
20180110_100000.003,0,RJFA,,,,0,20180110100000,-1,-1,-1,-1,290,-1,15,-1,30,240,330,,9999,0,0,2,FEW 10   BKN 30,1,3,-1,5,1016,RJFA 101000Z 29015G30KT 240V330 9999 FEW010 BKN030 03/M05     Q1016 RMK 1ST010 6CU030 A3001=,
20180110_110000.003,0,RJFA,,,,0,20180110110000,-1,-1,-1,-1,280,-1,13,-1,25,220,20,,9999,0,1,2,FEW 10   BKN 30,1,3,-1,4,1017,RJFA 101100Z 28013G25KT 220V020 9999 -SHSN FEW010 BKN030     03/M04 Q1017 RMK 1ST010 7CU030 A3005 VIS S-SW 5KM=,- SN SH
20180110_120000.003,0,RJFA,,,,0,20180110120000,-1,-1,-1,-1,290,-1,11,-1,23,230,360,,9999,0,0,2,FEW 15   BKN 30,1,2,-1,5,1017,RJFA 101200Z 29011G23KT 230V360 9999 FEW015 BKN030 02/M05     Q1017 RMK 1CU015 7CU030 A3006 VIS S-SW 8KM=,
20180110_130000.003,0,RJFA,,,,0,20180110130000,-1,-1,-1,-1,290,-1,15,-1,26,250,330,,9999,0,0,2,FEW 15   BKN 30,1,3,-1,6,1018,RJFA 101300Z 29015G26KT 250V330 9999 FEW015 BKN030 03/M06     Q1018 RMK 1CU015 7CU030 A3008=,
20180110_140000.003,0,RJFA,,,,0,20180110140000,-1,-1,-1,-1,300,-1,16,-1,28,250,330,,9999,0,1,2,FEW 15   BKN 30,1,2,-1,7,1019,RJFA 101400Z 30016G28KT 250V330 9999 -SHSN FEW015 BKN030     02/M07 Q1019 RMK 1CU015 7CU030 A3010=,- SN SH
20180110_150000.003,0,RJFA,,,,0,20180110150000,-1,-1,-1,-1,270,-1,7,-1,-1,210,340,,9999,0,1,2,FEW 15   BKN 35,1,2,-1,6,1019,RJFA 101500Z 27007KT 210V340 9999 -SHSN FEW015 BKN035 02/M06     Q1019 RMK 1CU015 7CU035 A3011=,- SN SH
20180110_160000.003,0,RJFA,,,,0,20180110160000,-1,-1,-1,-1,290,-1,12,-1,24,220,330,,9999,0,1,2,FEW 15   BKN 35,1,2,-1,8,1019,RJFA 101600Z 29012G24KT 220V330 9999 -SHSN FEW015 BKN035     02/M08 Q1019 RMK 1CU015 5CU035 A3011=,- SN SH
20180110_170000.003,0,RJFA,,,,0,20180110170000,-1,-1,-1,-1,290,-1,12,-1,-1,240,320,,9999,0,1,2,FEW 15   BKN 35,1,2,-1,7,1020,RJFA 101700Z 29012KT 240V320 9999 -SHSN FEW015 BKN035 02/M07     Q1020 RMK 1CU015 7CU035 A3013 MAX WIND 20KT=,- SN SH
20180110_180000.003,0,RJFA,,,,0,20180110180000,-1,-1,-1,-1,290,-1,16,-1,26,230,340,,9999,0,0,3,FEW 10   SCT 20   BKN 35,1,1,-1,7,1020,RJFA 101800Z 29016G26KT 230V340 9999 FEW010 SCT020 BKN035     01/M07 Q1020 RMK 1CU010 3CU020 7CU035 A3014=,
20180110_190000.003,0,RJFA,,,,0,20180110190000,-1,-1,-1,-1,300,-1,12,-1,22,260,340,,9999,0,1,3,FEW 10   SCT 20   BKN 35,1,0,-1,5,1020,RJFA 101900Z 30012G22KT 260V340 9999 -SHSN FEW010 SCT020     BKN035 00/M05 Q1020 RMK 1CU010 3CU020 7CU035 A3014 VIS           W-NW 7KM=,- SN SH
20180110_200000.003,0,RJFA,,,,0,20180110200000,-1,-1,-1,-1,290,-1,11,-1,21,260,330,,9999,0,1,3,FEW 10   SCT 20   BKN 35,1,1,-1,6,1020,RJFA 102000Z 29011G21KT 260V330 9999 -SHSN FEW010 SCT020     BKN035 01/M06 Q1020 RMK 1CU010 3CU020 7CU035 A3015=,- SN SH
20180110_210000.003,0,RJFA,,,,0,20180110210000,-1,-1,-1,-1,300,-1,15,-1,25,270,330,,9999,0,1,3,FEW 10   SCT 20   BKN 35,1,1,-1,6,1020,RJFA 102100Z 30015G25KT 270V330 9999 -SHSN FEW010 SCT020     BKN035 01/M06 Q1020 RMK 1CU010 3CU020 7CU035 A3015           30036KT/0720 05/00 R002 S001=,- SN SH
20180110_220000.003,0,RJFA,,,,0,20180110220000,-1,-1,-1,-1,290,-1,12,-1,25,240,20,,9999,0,0,2,FEW 15   BKN 35,1,1,-1,7,1020,RJFA 102200Z 29012G25KT 240V020 9999 FEW015 BKN035 01/M07     Q1020 RMK 1CU015 5CU035 A3014 RWY30 30019KT=,
20180110_230000.004,0,RJFA,,,,0,20180110230000,-1,-1,-1,-1,300,-1,13,-1,25,260,350,,9999,0,1,3,FEW 15   SCT 20   BKN 35,1,1,-1,7,1021,RJFA 102300Z 30013G25KT 260V350 9999 -SHSN FEW015 SCT020     BKN035 01/M07 Q1021 RMK 1CU015 3CU020 6CU035 A3016 RWY30           31017/25KT=,- SN SH
20180111_000000.003,0,RJFA,,,,0,20180111000000,-1,-1,-1,-1,300,-1,16,-1,36,210,340,,9999,0,0,2,FEW 15   BKN 35,1,1,-1,9,1022,RJFA 110000Z 30016G36KT 210V340 9999 FEW015 BKN035 01/M09     Q1022 RMK 1CU015 6CU035 A3018 RWY30 31020/29KT=,
20180111_010000.003,0,RJFA,,,,0,20180111010000,-1,-1,-1,-1,300,-1,12,-1,22,250,350,,9999,0,1,2,FEW 15   BKN 35,1,2,-1,8,1022,RJFA 110100Z 30012G22KT 250V350 9999 -SHSN FEW015 BKN035     02/M08 Q1022 RMK 1CU015 7CU035 A3019 RWY30 30019/27KT=,- SN SH
20180111_020000.003,0,RJFA,,,,0,20180111020000,-1,-1,-1,-1,300,-1,16,-1,27,270,360,,9999,0,1,3,FEW 15   BKN 20   BKN 30,1,1,-1,6,1022,RJFA 110200Z 30016G27KT 270V360 9999 -SHSN FEW015 BKN020     BKN030 01/M06 Q1022 RMK 1CU015 6CU020 7CU030 A3019 VIS W           8KM RWY30 31019/25KT=,- SN SH
20180111_030000.002,0,RJFA,,,,0,20180111030000,-1,-1,-1,-1,290,-1,16,-1,31,240,340,,9999,0,1,3,FEW 15   BKN 20   BKN 30,1,1,-1,5,1022,RJFA 110300Z 29016G31KT 240V340 9999 -SHSN FEW015 BKN020     BKN030 01/M05 Q1022 RMK 1CU015 6CU020 7CU030 A3019 VIS           E-SW 8KM RWY30 30020G32KT=,- SN SH
20180111_040000.003,0,RJFA,,,,0,20180111040000,-1,-1,-1,-1,300,-1,12,-1,29,230,360,,9999,0,1,3,FEW 15   SCT 20   BKN 25,1,1,-1,7,1022,RJFA 110400Z 30012G29KT 230V360 9999 -SHSN FEW015 SCT020     BKN025 01/M07 Q1022 RMK 1CU015 3CU020 6CU025 A3019 RWY30           31017/24KT=,- SN SH
20180111_050000.003,0,RJFA,,,,0,20180111050000,-1,-1,-1,-1,300,-1,13,-1,23,240,10,,9999,0,1,3,FEW 15   SCT 20   BKN 25,1,1,-1,7,1022,RJFA 110500Z 30013G23KT 240V010 9999 -SHSN FEW015 SCT020     BKN025 01/M07 Q1022 RMK 1CU015 4CU020 7CU025 A3019 RWY30           30019/28KT=,- SN SH
20180111_060000.003,0,RJFA,,,,0,20180111060000,-1,-1,-1,-1,300,-1,14,-1,26,250,350,,9999,0,1,2,FEW 15   BKN 40,1,1,-1,8,1022,RJFA 110600Z 30014G26KT 250V350 9999 -SHSN FEW015 BKN040     01/M08 Q1022 RMK 1CU015 6CU040 A3020 RWY30 31019KT=,- SN SH
20180111_070000.003,0,RJFA,,,,0,20180111070000,-1,-1,-1,-1,280,-1,10,-1,26,220,30,,9999,0,1,3,FEW 20   SCT 30   BKN 40,1,1,-1,9,1022,RJFA 110700Z 28010G26KT 220V030 9999 -SHSN FEW020 SCT030     BKN040 01/M09 Q1022 RMK 1CU020 4CU030 7CU040 A3020=,- SN SH
20180111_080000.003,0,RJFA,,,,0,20180111080000,-1,-1,-1,-1,290,-1,15,-1,26,220,350,,9999,0,1,3,FEW 15   BKN 30   BKN 40,1,1,-1,10,1022,RJFA 110800Z 29015G26KT 220V350 9999 -SHSN FEW015 BKN030     BKN040 01/M10 Q1022 RMK 1CU015 6CU030 7CU040 A3020=,- SN SH
20180111_090000.003,0,RJFA,,,,0,20180111090000,-1,-1,-1,-1,300,-1,15,-1,27,250,340,,9999,0,0,3,FEW 20   SCT 30   BKN 40,1,1,-1,10,1022,RJFA 110900Z 30015G27KT 250V340 9999 FEW020 SCT030 BKN040     01/M10 Q1022 RMK 1CU020 3CU030 7CU040 A3021=,
20180111_100000.003,0,RJFA,,,,0,20180111100000,-1,-1,-1,-1,300,-1,14,-1,24,240,350,,9999,0,0,3,FEW 20   SCT 30   BKN 40,1,2,-1,11,1022,RJFA 111000Z 30014G24KT 240V350 9999 FEW020 SCT030 BKN040     02/M11 Q1022 RMK 1CU020 3CU030 7CU040 A3021=,
20180111_110000.003,0,RJFA,,,,0,20180111110000,-1,-1,-1,-1,300,-1,15,-1,29,260,350,,9999,0,0,3,FEW 20   SCT 30   BKN 40,1,1,-1,9,1023,RJFA 111100Z 30015G29KT 260V350 9999 FEW020 SCT030 BKN040     01/M09 Q1023 RMK 1CU020 3CU030 5CU040 A3021=,
20180111_120000.003,0,RJFA,,,,0,20180111120000,-1,-1,-1,-1,300,-1,12,-1,24,230,350,,9999,0,0,3,FEW 30   BKN 40   BKN 50,1,2,-1,12,1023,RJFA 111200Z 30012G24KT 230V350 9999 FEW030 BKN040 BKN050     02/M12 Q1023 RMK 2CU030 5CU040 6SC050 A3023=,
20180111_130000.003,0,RJFA,,,,0,20180111130000,-1,-1,-1,-1,300,-1,13,-1,28,260,350,,9999,0,1,2,FEW 30   BKN 40,1,1,-1,10,1024,RJFA 111300Z 30013G28KT 260V350 9999 -SHSN FEW030 BKN040     01/M10 Q1024 RMK 2CU030 7CU040 A3024=,- SN SH
20180111_140000.003,0,RJFA,,,,0,20180111140000,-1,-1,-1,-1,300,-1,15,-1,25,270,330,,9999,0,1,2,FEW 30   BKN 40,1,1,-1,6,1024,RJFA 111400Z 30015G25KT 270V330 9999 -SHSN FEW030 BKN040     01/M06 Q1024 RMK 2CU030 6CU040 A3025 VIS S-SW 7KM=,- SN SH
20180111_150000.003,0,RJFA,,,,0,20180111150000,-1,-1,-1,-1,290,-1,11,-1,22,250,340,,6000,0,1,2,FEW 20   BKN 35,-1,0,-1,7,1024,RJFA 111500Z 29011G22KT 250V340 6000 -SHSN FEW020 BKN035     M00/M07 Q1024 RMK 1CU020 7CU035 A3026 VIS SW-W 10KM=,- SN SH
20180111_160000.003,0,RJFA,,,,0,20180111160000,-1,-1,-1,-1,290,-1,12,-1,-1,240,320,,9999,0,1,2,FEW 25   BKN 40,1,1,-1,10,1024,RJFA 111600Z 29012KT 240V320 9999 VCSH FEW025 BKN040 01/M10     Q1024 RMK 1CU025 6CU040 A3026=,VC SH
20180111_170000.003,0,RJFA,,,,0,20180111170000,-1,-1,-1,-1,300,-1,13,-1,-1,260,320,,9999,0,1,2,FEW 20   BKN 35,-1,0,-1,7,1024,RJFA 111700Z 30013KT 260V320 9999 -SHSN FEW020 BKN035 M00/M07     Q1024 RMK 1CU020 5CU035 A3026=,- SN SH
20180111_180000.003,0,RJFA,,,,0,20180111180000,-1,-1,-1,-1,290,-1,13,-1,25,240,330,,9999,0,1,2,FEW 20   BKN 35,1,0,-1,9,1025,RJFA 111800Z 29013G25KT 240V330 9999 -SHSN FEW020 BKN035     00/M09 Q1025 RMK 1CU020 5CU035 A3027=,- SN SH
20180111_190000.003,0,RJFA,,,,0,20180111190000,-1,-1,-1,-1,290,-1,12,-1,27,240,330,,8000,0,1,3,FEW 15   SCT 30   BKN 40,-1,0,-1,9,1025,RJFA 111900Z 29012G27KT 240V330 8000 -SHSN FEW015 SCT030     BKN040 M00/M09 Q1025 RMK 1CU015 4CU030 7CU040 A3027 VIS           S-SW 6KM=,- SN SH
20180111_200000.003,0,RJFA,,,,0,20180111200000,-1,-1,-1,-1,290,-1,13,-1,25,260,340,,9999,0,1,2,FEW 15   BKN 30,1,1,-1,8,1025,RJFA 112000Z 29013G25KT 260V340 9999 -SHSN FEW015 BKN030     01/M08 Q1025 RMK 1CU015 6CU030 A3027 VIS S 8KM=,- SN SH
20180111_210000.003,0,RJFA,,,,0,20180111210000,-1,-1,-1,-1,290,-1,12,-1,-1,230,360,,9999,0,1,2,FEW 15   BKN 30,-1,0,-1,9,1025,RJFA 112100Z 29012KT 230V360 9999 -SHSN FEW015 BKN030 M00/M09     Q1025 RMK 2CU015 7CU030 A3029 VIS S-SW 5KM 30036KT/2350           02/M01 R000 S002=,- SN SH
20180111_220000.004,0,RJFA,,,,0,20180111220000,-1,-1,-1,-1,999,-1,7,-1,-1,-1,-1,,3000,0,1,3,FEW 15   BKN 20   BKN 30,-1,1,-1,5,1026,RJFA 112200Z VRB07KT 3000 -SHSN FEW015 BKN020 BKN030 M01/M05     Q1026 RMK 1CU015 5CU020 7CU030 A3030 VIS SW-W 2000M RWY30           28015KT=,- SN SH
20180111_230000.003,0,RJFA,,,,0,20180111230000,-1,-1,-1,-1,290,-1,9,-1,-1,220,360,,9999,0,1,3,FEW 8   BKN 15   BKN 20,-1,0,-1,8,1026,RJFA 112300Z 29009KT 220V360 9999 -SHSN FEW008 BKN015 BKN020     M00/M08 Q1026 RMK 1CU008 5CU015 7CU020 A3032 VIS S-SW 7KM           RWY30 30014/22KT=,- SN SH
20180112_000000.003,0,RJFA,,,,0,20180112000000,-1,-1,-1,-1,300,-1,11,-1,-1,250,350,,9999,0,1,3,FEW 8   BKN 20   BKN 30,1,0,-1,8,1027,RJFA 120000Z 30011KT 250V350 9999 -SHSN FEW008 BKN020 BKN030     00/M08 Q1027 RMK 1CU008 5CU020 7CU030 A3034 VIS S-SW 8KM           RWY30 31014KT=,- SN SH
20180112_010000.004,0,RJFA,,,,0,20180112010000,-1,-1,-1,-1,290,-1,9,-1,-1,250,350,,9999,0,1,3,FEW 10   SCT 20   BKN 30,1,1,-1,9,1028,RJFA 120100Z 29009KT 250V350 9999 -SHSN FEW010 SCT020 BKN030     01/M09 Q1028 RMK 1CU010 3CU020 5CU030 A3036 VIS S-SW 8KM           RWY30 31011KT=,- SN SH
20180112_020000.003,0,RJFA,,,,0,20180112020000,-1,-1,-1,-1,300,-1,12,-1,22,250,350,,9999,0,0,2,FEW 10   BKN 40,1,2,-1,9,1027,RJFA 120200Z 30012G22KT 250V350 9999 FEW010 BKN040 02/M09     Q1027 RMK 1CU010 5CU040 A3035 RWY30 31013KT=,
20180112_030000.003,0,RJFA,,,,0,20180112030000,-1,-1,-1,-1,310,-1,12,-1,-1,280,340,,9999,0,0,2,FEW 10   BKN 40,1,2,-1,8,1027,RJFA 120300Z 31012KT 280V340 9999 FEW010 BKN040 02/M08 Q1027     RMK 1CU010 5CU040 A3033 RWY30 33014KT=,
20180112_040000.003,0,RJFA,,,,0,20180112040000,-1,-1,-1,-1,320,-1,12,-1,-1,270,350,,9999,0,0,2,FEW 20   BKN 40,1,2,-1,7,1026,RJFA 120400Z 32012KT 270V350 9999 FEW020 BKN040 02/M07 Q1026     RMK 1CU020 5CU040 A3031 MAX WIND 19KT RWY30 32014KT=,
20180112_050000.004,0,RJFA,,,,0,20180112050000,-1,-1,-1,-1,300,-1,10,-1,-1,240,360,,9999,0,1,2,FEW 20   BKN 40,1,2,-1,8,1026,RJFA 120500Z 30010KT 240V360 9999 -SHSN FEW020 BKN040 02/M08     Q1026 RMK 1CU020 5CU040 A3030 MAX WIND 19KT=,- SN SH
20180112_060000.003,0,RJFA,,,,0,20180112060000,-1,-1,-1,-1,300,-1,7,-1,-1,240,360,,9999,0,0,2,FEW 20   BKN 40,1,1,-1,10,1026,RJFA 120600Z 30007KT 240V360 9999 FEW020 BKN040 01/M10 Q1026     RMK 1CU020 6CU040 A3031=,
20180112_070000.004,0,RJFA,,,,0,20180112070000,-1,-1,-1,-1,330,-1,8,-1,-1,210,350,,9999,0,0,2,FEW 20   BKN 40,1,1,-1,8,1026,RJFA 120700Z 33008KT 210V350 9999 FEW020 BKN040 01/M08 Q1026     RMK 1CU020 6CU040 A3032=,
20180112_080000.003,0,RJFA,,,,0,20180112080000,-1,-1,-1,-1,300,-1,8,-1,-1,240,350,,9999,0,0,2,FEW 20   BKN 40,1,1,-1,8,1027,RJFA 120800Z 30008KT 240V350 9999 FEW020 BKN040 01/M08 Q1027     RMK 1CU020 6CU040 A3033=,
20180112_090000.003,0,RJFA,,,,0,20180112090000,-1,-1,-1,-1,280,-1,6,-1,-1,230,340,,9999,0,0,2,FEW 20   BKN 40,1,1,-1,8,1027,RJFA 120900Z 28006KT 230V340 9999 FEW020 BKN040 01/M08 Q1027     RMK 1CU020 7CU040 A3035=,
20180112_100000.003,0,RJFA,,,,0,20180112100000,-1,-1,-1,-1,300,-1,9,-1,-1,270,340,,9999,0,0,2,FEW 20   BKN 40,1,1,-1,8,1028,RJFA 121000Z 30009KT 270V340 9999 FEW020 BKN040 01/M08 Q1028     RMK 1CU020 6CU040 A3037=,
20180112_110000.003,0,RJFA,,,,0,20180112110000,-1,-1,-1,-1,290,-1,7,-1,-1,250,340,,9999,0,0,2,FEW 20   BKN 40,1,1,-1,8,1028,RJFA 121100Z 29007KT 250V340 9999 FEW020 BKN040 01/M08 Q1028     RMK 1CU020 7CU040 A3037=,
20180112_120000.003,0,RJFA,,,,0,20180112120000,-1,-1,-1,-1,310,-1,9,-1,-1,220,350,,9999,0,0,2,FEW 20   BKN 45,1,2,-1,9,1028,RJFA 121200Z 31009KT 220V350 9999 FEW020 BKN045 02/M09 Q1028     RMK 1CU020 7CU045 A3037=,
20180112_130000.003,0,RJFA,,,,0,20180112130000,-1,-1,-1,-1,320,-1,9,-1,-1,290,350,,9999,0,0,2,FEW 20   BKN 45,1,2,-1,9,1029,RJFA 121300Z 32009KT 290V350 9999 FEW020 BKN045 02/M09 Q1029     RMK 1CU020 7CU045 A3039=,
20180112_140000.003,0,RJFA,,,,0,20180112140000,-1,-1,-1,-1,300,-1,6,-1,-1,260,340,,9999,0,0,2,FEW 20   BKN 45,1,2,-1,9,1029,RJFA 121400Z 30006KT 260V340 9999 FEW020 BKN045 02/M09 Q1029     RMK 1CU020 7CU045 A3039=,
20180112_150000.003,0,RJFA,,,,0,20180112150000,-1,-1,-1,-1,300,-1,8,-1,-1,250,350,,9999,0,0,2,FEW 20   BKN 45,1,2,-1,9,1029,RJFA 121500Z 30008KT 250V350 9999 FEW020 BKN045 02/M09 Q1029     RMK 1CU020 6CU045 A3039=,
20180112_160000.003,0,RJFA,,,,0,20180112160000,-1,-1,-1,-1,280,-1,6,-1,-1,190,350,,9999,0,0,2,FEW 20   BKN 45,1,1,-1,9,1029,RJFA 121600Z 28006KT 190V350 9999 FEW020 BKN045 01/M09 Q1029     RMK 1CU020 5CU045 A3040=,
20180112_170000.003,0,RJFA,,,,0,20180112170000,-1,-1,-1,-1,300,-1,9,-1,-1,190,350,,9999,0,0,2,FEW 20   BKN 45,1,2,-1,9,1029,RJFA 121700Z 30009KT 190V350 9999 FEW020 BKN045 02/M09 Q1029     RMK 1CU020 6CU045 A3039=,
20180112_180000.003,0,RJFA,,,,0,20180112180000,-1,-1,-1,-1,290,-1,9,-1,-1,250,340,,9999,0,0,2,FEW 20   BKN 45,1,2,-1,7,1029,RJFA 121800Z 29009KT 250V340 9999 FEW020 BKN045 02/M07 Q1029     RMK 1CU020 6CU045 A3039=,
20180112_190000.003,0,RJFA,,,,0,20180112190000,-1,-1,-1,-1,310,-1,11,-1,-1,260,350,,9999,0,0,2,FEW 20   BKN 50,1,2,-1,7,1029,RJFA 121900Z 31011KT 260V350 9999 FEW020 BKN050 02/M07 Q1029     RMK 1CU020 6SC050 A3039=,
20180112_200000.004,0,RJFA,,,,0,20180112200000,-1,-1,-1,-1,300,-1,10,-1,20,270,350,,9999,0,0,2,FEW 20   BKN 50,1,2,-1,7,1028,RJFA 122000Z 30010G20KT 270V350 9999 FEW020 BKN050 02/M07     Q1028 RMK 1CU020 7SC050 A3038=,
20180112_210000.003,0,RJFA,,,,0,20180112210000,-1,-1,-1,-1,300,-1,11,-1,-1,260,350,,9999,0,0,2,FEW 20   BKN 50,1,2,-1,7,1029,RJFA 122100Z 30011KT 260V350 9999 FEW020 BKN050 02/M07 Q1029     RMK 1CU020 7SC050 A3039 03/01 R000 S001=,
20180112_220000.003,0,RJFA,,,,0,20180112220000,-1,-1,-1,-1,310,-1,12,-1,-1,270,350,,9999,0,0,2,FEW 20   BKN 40,1,2,-1,7,1029,RJFA 122200Z 31012KT 270V350 9999 FEW020 BKN040 02/M07 Q1029     RMK 1CU020 7CU040 A3039=,
20180112_230000.003,0,RJFA,,,,0,20180112230000,-1,-1,-1,-1,300,-1,13,-1,23,260,320,,9999,0,0,2,FEW 20   BKN 40,1,3,-1,6,1029,RJFA 122300Z 30013G23KT 260V320 9999 FEW020 BKN040 03/M06     Q1029 RMK 1CU020 7CU040 A3040=,
20180113_000000.003,0,RJFA,,,,0,20180113000000,-1,-1,-1,-1,310,-1,14,-1,-1,-1,-1,,9999,0,1,3,FEW 20   SCT 30   BKN 40,1,3,-1,4,1029,RJFA 130000Z 31014KT 9999 -SHSN FEW020 SCT030 BKN040 03/M04     Q1029 RMK 1CU020 3CU030 7CU040 A3041=,- SN SH
20180113_010000.004,0,RJFA,,,,0,20180113010000,-1,-1,-1,-1,310,-1,14,-1,-1,-1,-1,,9999,0,1,3,FEW 20   SCT 30   BKN 40,1,4,-1,4,1030,RJFA 130100Z 31014KT 9999 -SHSN FEW020 SCT030 BKN040 04/M04     Q1030 RMK 1CU020 3CU030 6CU040 A3042=,- SN SH
20180113_020000.003,0,RJFA,,,,0,20180113020000,-1,-1,-1,-1,300,-1,11,-1,-1,240,330,,9999,0,1,3,FEW 20   SCT 30   BKN 40,1,4,-1,3,1030,RJFA 130200Z 30011KT 240V330 9999 -SHSN FEW020 SCT030 BKN040     04/M03 Q1030 RMK 1CU020 3CU030 7CU040 A3044 VIS SW 8KM=,- SN SH
20180113_030000.003,0,RJFA,,,,0,20180113030000,-1,-1,-1,-1,310,-1,10,-1,-1,260,360,,9999,0,0,3,FEW 20   SCT 30   BKN 40,1,4,-1,4,1030,RJFA 130300Z 31010KT 260V360 9999 FEW020 SCT030 BKN040 04/M04     Q1030 RMK 1CU020 3CU030 7CU040 A3042=,
20180113_040000.003,0,RJFA,,,,0,20180113040000,-1,-1,-1,-1,300,-1,10,-1,-1,230,330,,9999,0,1,3,FEW 15   SCT 30   BKN 40,1,4,-1,2,1029,RJFA 130400Z 30010KT 230V330 9999 -SHRA FEW015 SCT030 BKN040     04/M02 Q1029 RMK 1CU015 4CU030 7CU040 A3041=,- RA SH
20180113_050000.003,0,RJFA,,,,0,20180113050000,-1,-1,-1,-1,310,-1,13,-1,-1,260,340,,9999,0,1,3,FEW 15   SCT 20   BKN 30,1,4,-1,2,1029,RJFA 130500Z 31013KT 260V340 9999 -SHRA FEW015 SCT020 BKN030     04/M02 Q1029 RMK 1CU015 3CU020 5CU030 A3039=,- RA SH
20180113_060000.003,0,RJFA,,,,0,20180113060000,-1,-1,-1,-1,310,-1,11,-1,-1,270,340,,9999,0,1,3,FEW 15   SCT 20   BKN 30,1,4,-1,3,1029,RJFA 130600Z 31011KT 270V340 9999 -SHRA FEW015 SCT020 BKN030     04/M03 Q1029 RMK 1CU015 3CU020 5CU030 A3040=,- RA SH
20180113_070000.003,0,RJFA,,,,0,20180113070000,-1,-1,-1,-1,320,-1,12,-1,-1,-1,-1,,9999,0,1,3,FEW 15   SCT 20   BKN 30,1,4,-1,2,1030,RJFA 130700Z 32012KT 9999 -SHRA FEW015 SCT020 BKN030 04/M02     Q1030 RMK 1CU015 3CU020 5CU030 A3042=,- RA SH
20180113_080000.003,0,RJFA,,,,0,20180113080000,-1,-1,-1,-1,320,-1,10,-1,-1,280,350,,9999,0,1,3,FEW 15   SCT 20   BKN 30,1,5,-1,2,1030,RJFA 130800Z 32010KT 280V350 9999 -SHRA FEW015 SCT020 BKN030     05/M02 Q1030 RMK 1CU015 3CU020 5CU030 A3042=,- RA SH
20180113_090000.003,0,RJFA,,,,0,20180113090000,-1,-1,-1,-1,330,-1,11,-1,-1,-1,-1,,9999,0,1,3,FEW 15   SCT 20   BKN 30,1,5,-1,2,1030,RJFA 130900Z 33011KT 9999 -SHRA FEW015 SCT020 BKN030 05/M02     Q1030 RMK 1CU015 3CU020 5CU030 A3042=,- RA SH
20180113_100000.003,0,RJFA,,,,0,20180113100000,-1,-1,-1,-1,330,-1,9,-1,-1,300,360,,9999,0,0,3,FEW 15   SCT 20   BKN 30,1,5,-1,4,1030,RJFA 131000Z 33009KT 300V360 9999 FEW015 SCT020 BKN030 05/M04     Q1030 RMK 1CU015 3CU020 5CU030 A3044=,
20180113_110000.003,0,RJFA,,,,0,20180113110000,-1,-1,-1,-1,320,-1,7,-1,-1,280,350,,9999,0,0,3,FEW 20   SCT 30   BKN 45,1,5,-1,4,1031,RJFA 131100Z 32007KT 280V350 9999 FEW020 SCT030 BKN045 05/M04     Q1031 RMK 2CU020 4CU030 7CU045 A3045=,
20180113_120000.003,0,RJFA,,,,0,20180113120000,-1,-1,-1,-1,150,-1,8,-1,-1,-1,-1,,9999,0,0,2,FEW 30   BKN 45,1,2,-1,1,1031,RJFA 131200Z 15008KT 9999 FEW030 BKN045 02/M01 Q1031 RMK     2CU030 7SC045 A3047=,
20180113_130000.003,0,RJFA,,,,0,20180113130000,-1,-1,-1,-1,160,-1,8,-1,-1,-1,-1,,9999,0,0,2,FEW 30   BKN 45,1,2,-1,1,1031,RJFA 131300Z 16008KT 9999 FEW030 BKN045 02/M01 Q1031 RMK     1CU030 7SC045 A3046=,
20180113_140000.004,0,RJFA,,,,0,20180113140000,-1,-1,-1,-1,160,-1,7,-1,-1,-1,-1,,9999,0,0,2,FEW 30   BKN 45,1,2,-1,1,1031,RJFA 131400Z 16007KT 9999 FEW030 BKN045 02/M01 Q1031 RMK     1CU030 7SC045 A3045=,
20180113_150000.003,0,RJFA,,,,0,20180113150000,-1,-1,-1,-1,150,-1,8,-1,-1,-1,-1,,9999,0,0,2,FEW 30   BKN 45,1,2,-1,1,1030,RJFA 131500Z 15008KT 9999 FEW030 BKN045 02/M01 Q1030 RMK     1CU030 7SC045 A3043=,
20180113_160000.003,0,RJFA,,,,0,20180113160000,-1,-1,-1,-1,160,-1,4,-1,-1,-1,-1,,9999,0,0,2,FEW 30   BKN 45,1,2,-1,1,1030,RJFA 131600Z 16004KT 9999 FEW030 BKN045 02/M01 Q1030 RMK     1CU030 5SC045 A3044=,
20180113_170000.003,0,RJFA,,,,0,20180113170000,-1,-1,-1,-1,160,-1,7,-1,-1,-1,-1,,9999,0,0,2,FEW 30   BKN 45,1,2,-1,1,1030,RJFA 131700Z 16007KT 9999 FEW030 BKN045 02/M01 Q1030 RMK     1CU030 6SC045 A3044=,
20180113_180000.003,0,RJFA,,,,0,20180113180000,-1,-1,-1,-1,150,-1,6,-1,-1,-1,-1,,9999,0,0,2,FEW 30   BKN 45,1,2,-1,1,1030,RJFA 131800Z 15006KT 9999 FEW030 BKN045 02/M01 Q1030 RMK     1CU030 7SC045 A3043=,
20180113_190000.004,0,RJFA,,,,0,20180113190000,-1,-1,-1,-1,170,-1,6,-1,-1,-1,-1,,9999,0,0,2,FEW 30   BKN 45,1,1,-1,1,1030,RJFA 131900Z 17006KT 9999 FEW030 BKN045 01/M01 Q1030 RMK     1CU030 6SC045 A3043=,
20180113_200000.004,0,RJFA,,,,0,20180113200000,-1,-1,-1,-1,170,-1,6,-1,-1,-1,-1,,9999,0,0,2,FEW 30   BKN 45,1,0,-1,1,1030,RJFA 132000Z 17006KT 9999 FEW030 BKN045 00/M01 Q1030 RMK     1CU030 7SC045 A3042=,
20180113_210000.003,0,RJFA,,,,0,20180113210000,-1,-1,-1,-1,160,-1,8,-1,-1,-1,-1,,9999,0,0,2,FEW 30   BKN 40,1,1,-1,1,1030,RJFA 132100Z 16008KT 9999 FEW030 BKN040 01/M01 Q1030 RMK     1CU030 7CU040 A3042 05/M00 R000 S000=,
20180113_220000.003,0,RJFA,,,,0,20180113220000,-1,-1,-1,-1,160,-1,6,-1,-1,-1,-1,,9999,0,0,3,FEW 30   BKN 40   BKN 230,1,0,-1,1,1031,RJFA 132200Z 16006KT 9999 FEW030 BKN040 BKN230 00/M01 Q1031     RMK 1CU030 6CU040 A3045=,
20180113_230000.003,0,RJFA,,,,0,20180113230000,-1,-1,-1,-1,150,-1,7,-1,-1,-1,-1,,9999,0,0,2,FEW 30   BKN 50,1,1,-1,1,1032,RJFA 132300Z 15007KT 9999 FEW030 BKN050 01/M01 Q1032 RMK     1CU030 7SC050 A3048=,
20180114_000000.004,0,RJFA,,,,0,20180114000000,-1,-1,-1,-1,150,-1,9,-1,-1,-1,-1,,9999,0,0,2,FEW 30   BKN 50,1,1,-1,1,1032,RJFA 140000Z 15009KT 9999 FEW030 BKN050 01/M01 Q1032 RMK     1CU030 7SC050 A3049=,
20180114_010000.003,0,RJFA,,,,0,20180114010000,-1,-1,-1,-1,150,-1,9,-1,-1,-1,-1,,9999,0,0,3,FEW 30   BKN 50   BKN 180,1,3,-1,1,1032,RJFA 140100Z 15009KT 9999 FEW030 BKN050 BKN180 03/M01 Q1032     RMK 1CU030 5SC050 7AC180 A3048=,
20180114_020000.003,0,RJFA,,,,0,20180114020000,-1,-1,-1,-1,160,-1,6,-1,-1,-1,-1,,9999,0,0,3,FEW 30   BKN 50   BKN 180,1,4,-1,1,1032,RJFA 140200Z 16006KT 9999 FEW030 BKN050 BKN180 04/M01 Q1032     RMK 1CU030 5SC050 7AC180 A3048=,
20180114_030000.003,0,RJFA,,,,0,20180114030000,-1,-1,-1,-1,170,-1,6,-1,-1,-1,-1,,9999,0,0,3,FEW 30   BKN 50   BKN 180,1,6,-1,1,1030,RJFA 140300Z 17006KT 9999 FEW030 BKN050 BKN180 06/M01 Q1030     RMK 1CU030 5SC050 7AC180 A3044=,
20180114_040000.003,0,RJFA,,,,0,20180114040000,-1,-1,-1,-1,150,-1,7,-1,-1,140,220,,9999,0,0,3,FEW 30   BKN 50   BKN 200,1,7,-1,3,1030,RJFA 140400Z 15007KT 140V220 9999 FEW030 BKN050 BKN200 07/M03     Q1030 RMK 1CU030 5SC050 A3042=,
20180114_050000.003,0,RJFA,,,,0,20180114050000,-1,-1,-1,-1,170,-1,6,-1,-1,140,210,,9999,0,0,3,FEW 30   BKN 180   BKN 200,1,7,-1,3,1028,RJFA 140500Z 17006KT 140V210 9999 FEW030 BKN180 BKN200 07/M03     Q1028 RMK 1CU030 5AC180 A3038=,
20180114_060000.004,0,RJFA,,,,0,20180114060000,-1,-1,-1,-1,160,-1,5,-1,-1,150,270,,9999,0,0,2,FEW 30   BKN 200,1,7,-1,3,1028,RJFA 140600Z 16005KT 150V270 9999 FEW030 BKN200 07/M03 Q1028     RMK 1CU030 A3038=,
20180114_070000.003,0,RJFA,,,,0,20180114070000,-1,-1,-1,-1,150,-1,5,-1,-1,-1,-1,,9999,0,0,2,FEW 30   BKN 200,1,7,-1,3,1028,RJFA 140700Z 15005KT 9999 FEW030 BKN200 07/M03 Q1028 RMK     1CU030 A3037=,
20180114_080000.003,0,RJFA,,,,0,20180114080000,-1,-1,-1,-1,150,-1,3,-1,-1,-1,-1,,9999,0,0,2,FEW 35   BKN 200,1,6,-1,3,1028,RJFA 140800Z 15003KT 9999 FEW035 BKN200 06/M03 Q1028 RMK     1CU035 A3037=,
20180114_090000.003,0,RJFA,,,,0,20180114090000,-1,-1,-1,-1,130,-1,4,-1,-1,-1,-1,,9999,0,0,2,FEW 35   SCT 200,1,5,-1,2,1028,RJFA 140900Z 13004KT 9999 FEW035 SCT200 05/M02 Q1028 RMK     1CU035 A3037=,
20180114_100000.003,0,RJFA,,,,0,20180114100000,-1,-1,-1,-1,150,-1,4,-1,-1,-1,-1,,9999,0,0,1,FEW 35,1,4,-1,2,1028,RJFA 141000Z 15004KT 9999 FEW035 04/M02 Q1028 RMK 1CU035     A3038=,
20180114_110000.003,0,RJFA,,,,0,20180114110000,-1,-1,-1,-1,180,-1,4,-1,-1,-1,-1,,9999,0,0,1,FEW 35,1,2,-1,2,1029,RJFA 141100Z 18004KT 9999 FEW035 02/M02 Q1029 RMK 1CU035     A3040=,
20180114_120000.003,0,RJFA,,,,0,20180114120000,-1,-1,-1,-1,170,-1,6,-1,-1,-1,-1,,9999,0,0,1,FEW 35,1,1,-1,1,1029,RJFA 141200Z 17006KT 9999 FEW035 01/M01 Q1029 RMK 1CU035     A3039=,
20180114_130000.004,0,RJFA,,,,0,20180114130000,-1,-1,-1,-1,160,-1,7,-1,-1,-1,-1,,9999,0,0,1,FEW 30,1,0,-1,1,1028,RJFA 141300Z 16007KT 9999 FEW030 00/M01 Q1028 RMK 1CU030     A3038=,
20180114_140000.003,0,RJFA,,,,0,20180114140000,-1,-1,-1,-1,150,-1,7,-1,-1,-1,-1,,9999,0,0,1,FEW 30,-1,0,-1,2,1028,RJFA 141400Z 15007KT 9999 FEW030 M00/M02 Q1028 RMK 1CU030     A3036=,
20180114_150000.003,0,RJFA,,,,0,20180114150000,-1,-1,-1,-1,160,-1,6,-1,-1,-1,-1,,9999,0,0,1,FEW 30,-1,0,-1,2,1027,RJFA 141500Z 16006KT 9999 FEW030 M00/M02 Q1027 RMK 1CU030     A3035=,
20180114_160000.003,0,RJFA,,,,0,20180114160000,-1,-1,-1,-1,140,-1,7,-1,-1,-1,-1,,9999,0,0,1,FEW 30,-1,1,-1,2,1027,RJFA 141600Z 14007KT 9999 FEW030 M01/M02 Q1027 RMK 1CU030     A3033=,
20180114_170000.003,0,RJFA,,,,0,20180114170000,-1,-1,-1,-1,130,-1,7,-1,-1,-1,-1,,9999,0,0,1,FEW 30,-1,2,-1,3,1027,RJFA 141700Z 13007KT 9999 FEW030 M02/M03 Q1027 RMK 1CU030     A3033 VIS SW 8KM=,
20180114_180000.004,0,RJFA,,,,0,20180114180000,-1,-1,-1,-1,150,-1,10,-1,-1,-1,-1,,9999,0,0,1,FEW 30,-1,0,-1,2,1026,RJFA 141800Z 15010KT 9999 FEW030 M00/M02 Q1026 RMK 1CU030     A3032=,
20180114_190000.003,0,RJFA,,,,0,20180114190000,-1,-1,-1,-1,160,-1,9,-1,-1,-1,-1,,9999,0,0,1,FEW 30,-1,0,-1,2,1026,RJFA 141900Z 16009KT 9999 FEW030 M00/M02 Q1026 RMK 1CU030     A3032=,
20180114_200000.004,0,RJFA,,,,0,20180114200000,-1,-1,-1,-1,150,-1,6,-1,-1,-1,-1,,9999,0,0,2,FEW 30   SCT 50,1,0,-1,2,1026,RJFA 142000Z 15006KT 9999 FEW030 SCT050 00/M02 Q1026 RMK     1CU030 3SC050 A3030=,
20180114_210000.003,0,RJFA,,,,0,20180114210000,-1,-1,-1,-1,150,-1,7,-1,-1,-1,-1,,9999,0,0,2,FEW 30   BKN 50,1,1,-1,1,1025,RJFA 142100Z 15007KT 9999 FEW030 BKN050 01/M01 Q1025 RMK     1CU030 7SC050 A3029 07/M02=,
20180114_220000.003,0,RJFA,,,,0,20180114220000,-1,-1,-1,-1,150,-1,9,-1,-1,-1,-1,,9999,0,0,2,FEW 30   BKN 50,1,1,-1,1,1025,RJFA 142200Z 15009KT 9999 FEW030 BKN050 01/M01 Q1025 RMK     1CU030 7SC050 A3029=,
20180114_230000.003,0,RJFA,,,,0,20180114230000,-1,-1,-1,-1,150,-1,9,-1,-1,-1,-1,,9999,0,1,2,FEW 30   BKN 50,1,2,-1,0,1025,RJFA 142300Z 15009KT 9999 VCSH FEW030 BKN050 02/M00 Q1025 RMK     1CU030 7SC050 A3029 VCSH W=,VC SH
20180115_000000.003,0,RJFA,,,,0,20180115000000,-1,-1,-1,-1,150,-1,10,-1,-1,-1,-1,,9999,0,1,3,FEW 30   BKN 35   BKN 50,1,4,1,1,1025,RJFA 150000Z 15010KT 9999 -SHRA FEW030 BKN035 BKN050 04/01     Q1025 RMK 1CU030 5CU035 6SC050 A3029=,- RA SH
20180115_010000.003,0,RJFA,,,,0,20180115010000,-1,-1,-1,-1,140,-1,5,-1,-1,-1,-1,,9999,0,1,3,FEW 30   BKN 35   BKN 50,1,4,1,2,1026,RJFA 150100Z 14005KT 9999 -SHRA FEW030 BKN035 BKN050 04/02     Q1026 RMK 1CU030 5CU035 7SC050 A3032=,- RA SH
20180115_020000.003,0,RJFA,,,,0,20180115020000,-1,-1,-1,-1,150,-1,7,-1,-1,-1,-1,,9999,0,1,3,FEW 25   BKN 30   BKN 50,1,5,1,4,1026,RJFA 150200Z 15007KT 9999 -SHRA FEW025 BKN030 BKN050 05/04     Q1026 RMK 1CU025 5CU030 7SC050 A3031=,- RA SH
20180115_030000.003,0,RJFA,,,,0,20180115030000,-1,-1,-1,-1,150,-1,11,-1,-1,-1,-1,,9999,0,0,2,FEW 30   BKN 50,1,6,1,5,1025,RJFA 150300Z 15011KT 9999 FEW030 BKN050 06/05 Q1025 RMK 1CU030     5SC050 A3027=,
20180115_040000.003,0,RJFA,,,,0,20180115040000,-1,-1,-1,-1,170,-1,10,-1,-1,-1,-1,,9999,0,0,1,FEW 30,1,9,1,5,1023,RJFA 150400Z 17010KT 9999 FEW030 09/05 Q1023 RMK 1CU030 A3023=,
20180115_050000.003,0,RJFA,,,,0,20180115050000,-1,-1,-1,-1,140,-1,9,-1,-1,-1,-1,,9999,0,0,3,FEW 30   BKN 50   BKN 70,1,9,1,5,1023,RJFA 150500Z 14009KT 9999 FEW030 BKN050 BKN070 09/05 Q1023 RMK     1CU030 6SC050 7AC070 A3021=,
20180115_060000.003,0,RJFA,,,,0,20180115060000,-1,-1,-1,-1,150,-1,7,-1,-1,-1,-1,,9999,0,0,3,FEW 30   BKN 50   BKN 70,1,9,1,5,1023,RJFA 150600Z 15007KT 9999 FEW030 BKN050 BKN070 09/05 Q1023 RMK     1CU030 5SC050 7AC070 A3023=,
20180115_070000.005,0,RJFA,,,,0,20180115070000,-1,-1,-1,-1,150,-1,8,-1,-1,-1,-1,,9999,0,0,3,FEW 30   SCT 50   BKN 70,1,10,1,5,1023,RJFA 150700Z 15008KT 9999 FEW030 SCT050 BKN070 10/05 Q1023 RMK     1CU030 3SC050 6AC070 A3023=,
20180115_080000.003,0,RJFA,,,,0,20180115080000,-1,-1,-1,-1,170,-1,6,-1,-1,-1,-1,,9999,0,0,2,FEW 30   SCT 70,1,9,1,5,1024,RJFA 150800Z 17006KT 9999 FEW030 SCT070 09/05 Q1024 RMK 1CU030     3AC070 A3024=,
20180115_090000.003,0,RJFA,,,,0,20180115090000,-1,-1,-1,-1,180,-1,6,-1,-1,-1,-1,,9999,0,0,1,FEW 30,1,7,1,5,1024,RJFA 150900Z 18006KT 9999 FEW030 07/05 Q1024 RMK 1CU030 A3024=,
20180115_100000.003,0,RJFA,,,,0,20180115100000,-1,-1,-1,-1,150,-1,10,-1,-1,-1,-1,,9999,0,0,1,FEW 30,1,7,1,4,1023,RJFA 151000Z 15010KT 9999 FEW030 07/04 Q1023 RMK 1CU030 A3021=,
20180115_110000.003,0,RJFA,,,,0,20180115110000,-1,-1,-1,-1,150,-1,5,-1,-1,-1,-1,,9999,0,0,1,FEW 30,1,6,1,4,1023,RJFA 151100Z 15005KT 9999 FEW030 06/04 Q1023 RMK 1CU030 A3024=,
20180115_120000.003,0,RJFA,,,,0,20180115120000,-1,-1,-1,-1,160,-1,7,-1,-1,-1,-1,,9999,0,0,1,FEW 30,1,4,1,4,1024,RJFA 151200Z 16007KT 9999 FEW030 04/04 Q1024 RMK 1CU030 A3024=,
20180115_130000.003,0,RJFA,,,,0,20180115130000,-1,-1,-1,-1,150,-1,7,-1,-1,-1,-1,,9999,0,0,1,FEW 30,1,4,1,3,1024,RJFA 151300Z 15007KT 9999 FEW030 04/03 Q1024 RMK 1CU030 A3024=,
20180115_140000.003,0,RJFA,,,,0,20180115140000,-1,-1,-1,-1,150,-1,8,-1,-1,-1,-1,,9999,0,0,1,FEW 30,1,4,1,4,1023,RJFA 151400Z 15008KT 9999 FEW030 04/04 Q1023 RMK 1CU030 A3023=,
20180115_150000.003,0,RJFA,,,,0,20180115150000,-1,-1,-1,-1,150,-1,8,-1,-1,-1,-1,,9999,0,0,1,FEW 30,1,4,1,3,1023,RJFA 151500Z 15008KT 9999 FEW030 04/03 Q1023 RMK 1CU030 A3022=,
20180115_160000.003,0,RJFA,,,,0,20180115160000,-1,-1,-1,-1,150,-1,6,-1,-1,-1,-1,,9999,0,0,1,FEW 30,1,3,1,3,1023,RJFA 151600Z 15006KT 9999 FEW030 03/03 Q1023 RMK 1CU030 A3022     VIS S 8KM=,
20180115_170000.003,0,RJFA,,,,0,20180115170000,-1,-1,-1,-1,150,-1,7,-1,-1,-1,-1,,9999,0,1,1,FEW 25,1,3,1,3,1023,RJFA 151700Z 15007KT 9999 PRFG FEW025 03/03 Q1023 RMK 1CU025     A3021 VIS S 7KM FG BANK S=,PR FG
20180115_180000.003,0,RJFA,,,,0,20180115180000,-1,-1,-1,-1,160,-1,7,-1,-1,-1,-1,,9999,0,1,1,FEW 20,1,3,1,2,1022,RJFA 151800Z 16007KT 9999 PRFG FEW020 03/02 Q1022 RMK 1CU020     A3019 VIS S 6KM FG BANK S=,PR FG
20180115_190000.003,0,RJFA,,,,0,20180115190000,-1,-1,-1,-1,160,-1,7,-1,-1,-1,-1,,9999,0,1,1,FEW 3,1,3,1,3,1021,RJFA 151900Z 16007KT 9999 PRFG FEW003 03/03 Q1021 RMK 1ST003     A3017 VIS S 6KM FG BANK S=,PR FG
20180115_200000.003,0,RJFA,,,,0,20180115200000,-1,-1,-1,-1,160,-1,6,-1,-1,-1,-1,,9999,0,0,1,FEW 5,1,3,1,3,1021,RJFA 152000Z 16006KT 9999 FEW005 03/03 Q1021 RMK 1ST005 A3016=,
20180115_210000.003,0,RJFA,,,,0,20180115210000,-1,-1,-1,-1,150,-1,9,-1,-1,-1,-1,,9999,0,0,1,FEW 30,1,3,1,3,1021,RJFA 152100Z 15009KT 9999 FEW030 03/03 Q1021 RMK 1CU030 A3016     11/02 R000=,
20180115_220000.003,0,RJFA,,,,0,20180115220000,-1,-1,-1,-1,150,-1,10,-1,-1,-1,-1,,9999,0,0,1,FEW 40,1,3,1,3,1021,RJFA 152200Z 15010KT 9999 FEW040 03/03 Q1021 RMK 2CU040 A3016=,
20180115_230000.003,0,RJFA,,,,0,20180115230000,-1,-1,-1,-1,150,-1,10,-1,-1,-1,-1,,9999,0,0,1,FEW 40,1,3,1,3,1021,RJFA 152300Z 15010KT 9999 FEW040 03/03 Q1021 RMK 1CU040 A3015=,
20180116_000000.003,0,RJFA,,,,0,20180116000000,-1,-1,-1,-1,150,-1,6,-1,-1,-1,-1,,9999,0,0,1,FEW 40,1,6,1,6,1021,RJFA 160000Z 15006KT 9999 FEW040 06/06 Q1021 RMK 1CU040 A3016=,
20180116_010000.003,0,RJFA,,,,0,20180116010000,-1,-1,-1,-1,130,-1,9,-1,-1,-1,-1,,9999,0,0,2,FEW 40   BKN 110,1,9,1,7,1020,RJFA 160100Z 13009KT 9999 FEW040 BKN110 09/07 Q1020 RMK 1CU040     5AC110 A3014=,
20180116_020000.003,0,RJFA,,,,0,20180116020000,-1,-1,-1,-1,150,-1,10,-1,-1,-1,-1,,9999,0,0,1,FEW 30,1,14,1,7,1019,RJFA 160200Z 15010KT 9999 FEW030 14/07 Q1019 RMK 1CU030 A3012=,
20180116_030000.003,0,RJFA,,,,0,20180116030000,-1,-1,-1,-1,150,-1,13,-1,-1,-1,-1,,9999,0,0,2,FEW 30   SCT 230,1,16,1,7,1018,RJFA 160300Z 15013KT 9999 FEW030 SCT230 16/07 Q1018 RMK 1CU030     A3007=,
20180116_040000.003,0,RJFA,,,,0,20180116040000,-1,-1,-1,-1,150,-1,12,-1,-1,-1,-1,,9999,0,0,2,FEW 30   SCT 110,1,18,1,7,1016,RJFA 160400Z 15012KT 9999 FEW030 SCT110 18/07 Q1016 RMK 1CU030     3AC110 A3002=,
20180116_050000.003,0,RJFA,,,,0,20180116050000,-1,-1,-1,-1,180,-1,8,-1,-1,140,240,,9999,0,0,2,FEW 30   SCT 100,1,18,1,7,1015,RJFA 160500Z 18008KT 140V240 9999 FEW030 SCT100 18/07 Q1015     RMK 1CU030 4AC100 A2998=,
20180116_060000.003,0,RJFA,,,,0,20180116060000,-1,-1,-1,-1,160,-1,15,-1,-1,-1,-1,,9999,0,0,3,FEW 30   SCT 50   BKN 100,1,18,1,7,1014,RJFA 160600Z 16015KT 9999 FEW030 SCT050 BKN100 18/07 Q1014 RMK     1CU030 3SC050 6AC100 A2997=,
20180116_070000.003,0,RJFA,,,,0,20180116070000,-1,-1,-1,-1,160,-1,11,-1,-1,-1,-1,,9999,0,0,3,FEW 30   BKN 50   BKN 90,1,16,1,7,1014,RJFA 160700Z 16011KT 9999 FEW030 BKN050 BKN090 16/07 Q1014 RMK     1CU030 5SC050 7AC090 A2996=,
20180116_080000.003,0,RJFA,,,,0,20180116080000,-1,-1,-1,-1,140,-1,6,-1,-1,-1,-1,,9999,0,1,3,FEW 30   SCT 40   BKN 50,1,15,1,8,1014,RJFA 160800Z 14006KT 9999 -RA FEW030 SCT040 BKN050 15/08 Q1014     RMK 1CU030 3SC040 6SC050 A2995=,- RA
20180116_090000.003,0,RJFA,,,,0,20180116090000,-1,-1,-1,-1,120,-1,5,-1,-1,-1,-1,,9999,0,1,3,FEW 30   SCT 40   BKN 50,1,14,1,8,1014,RJFA 160900Z 12005KT 9999 -RA FEW030 SCT040 BKN050 14/08 Q1014     RMK 1CU030 3SC040 6SC050 A2995=,- RA
20180116_100000.003,0,RJFA,,,,0,20180116100000,-1,-1,-1,-1,160,-1,5,-1,-1,-1,-1,,9999,0,1,3,FEW 20   SCT 40   BKN 50,1,12,1,10,1014,RJFA 161000Z 16005KT 9999 -RA FEW020 SCT040 BKN050 12/10 Q1014     RMK 1CU020 3SC040 6SC050 A2995=,- RA
20180116_110000.005,0,RJFA,,,,0,20180116110000,-1,-1,-1,-1,140,-1,6,-1,-1,-1,-1,,9999,0,1,3,FEW 20   BKN 50   OVC 80,1,12,1,10,1013,RJFA 161100Z 14006KT 9999 -RA FEW020 BKN050 OVC080 12/10 Q1013     RMK 1CU020 5SC050 8AS080 A2993=,- RA
20180116_120000.003,0,RJFA,,,,0,20180116120000,-1,-1,-1,-1,120,-1,4,-1,-1,-1,-1,,9999,0,1,3,FEW 20   BKN 50   OVC 80,1,12,1,10,1012,RJFA 161200Z 12004KT 9999 -RA FEW020 BKN050 OVC080 12/10 Q1012     RMK 1CU020 6SC050 8AS080 A2991=,- RA
20180116_130000.003,0,RJFA,,,,0,20180116130000,-1,-1,-1,-1,170,-1,7,-1,-1,-1,-1,,9999,0,1,3,FEW 35   BKN 50   OVC 80,1,12,1,10,1012,RJFA 161300Z 17007KT 9999 -RA FEW035 BKN050 OVC080 12/10 Q1012     RMK 1CU035 6SC050 8AS080 A2990=,- RA
20180116_140000.003,0,RJFA,,,,0,20180116140000,-1,-1,-1,-1,150,-1,3,-1,-1,-1,-1,,9999,0,1,3,FEW 20   SCT 35   BKN 50,1,12,1,10,1012,RJFA 161400Z 15003KT 9999 -RA FEW020 SCT035 BKN050 12/10 Q1012     RMK 1CU020 3CU035 6SC050 A2989 VIS S 7KM=,- RA
20180116_150000.003,0,RJFA,,,,0,20180116150000,-1,-1,-1,-1,120,-1,4,-1,-1,-1,-1,,8000,0,1,3,FEW 20   SCT 35   BKN 45,1,11,1,11,1011,RJFA 161500Z 12004KT 8000 -RA FEW020 SCT035 BKN045 11/11 Q1011     RMK 1CU020 3CU035 7SC045 A2986 VIS S 6KM=,- RA
20180116_160000.003,0,RJFA,,,,0,20180116160000,-1,-1,-1,-1,230,-1,2,-1,-1,-1,-1,,9999,0,1,3,FEW 20   BKN 35   BKN 45,1,11,1,11,1011,RJFA 161600Z 23002KT 9999 -SHRA FEW020 BKN035 BKN045 11/11     Q1011 RMK 2CU020 6CU035 7SC045 A2987 VIS NE-SE 8KM=,- RA SH
20180116_170000.003,0,RJFA,,,,0,20180116170000,-1,-1,-1,-1,120,-1,5,-1,-1,-1,-1,,9000,0,1,3,FEW 15   SCT 25   BKN 35,1,11,1,11,1011,RJFA 161700Z 12005KT 9000 -SHRA FEW015 SCT025 BKN035 11/11     Q1011 RMK 1CU015 3CU025 7CU035 A2986=,- RA SH
20180116_180000.003,0,RJFA,,,,0,20180116180000,-1,-1,-1,-1,140,-1,7,-1,-1,-1,-1,,8000,0,1,3,FEW 15   BKN 25   BKN 35,1,11,1,11,1010,RJFA 161800Z 14007KT 8000 -SHRA FEW015 BKN025 BKN035 11/11     Q1010 RMK 1CU015 5CU025 7CU035 A2985 VIS S 7KM=,- RA SH
20180116_190000.003,0,RJFA,,,,0,20180116190000,-1,-1,-1,-1,150,-1,7,-1,-1,-1,-1,,8000,0,1,3,FEW 15   BKN 25   BKN 35,1,11,1,11,1010,RJFA 161900Z 15007KT 8000 -SHRA FEW015 BKN025 BKN035 11/11     Q1010 RMK 1CU015 5CU025 7CU035 A2984 VIS S 6KM=,- RA SH
20180116_200000.003,0,RJFA,,,,0,20180116200000,-1,-1,-1,-1,180,-1,3,-1,-1,-1,-1,,8000,0,1,3,FEW 15   BKN 25   BKN 35,1,11,1,11,1010,RJFA 162000Z 18003KT 8000 -SHRA FEW015 BKN025 BKN035 11/11     Q1010 RMK 1CU015 5CU025 7CU035 A2984 VIS S 6KM=,- RA SH
20180116_210000.003,0,RJFA,,,,0,20180116210000,-1,-1,-1,-1,150,-1,5,-1,-1,-1,-1,,7000,0,1,3,FEW 15   BKN 35   BKN 60,1,11,1,11,1010,RJFA 162100Z 15005KT 7000 -SHRA FEW015 BKN035 BKN060 11/11     Q1010 RMK 1CU015 5CU035 7SC060 A2983 VIS S 5KM 19/11           R013=,- RA SH
20180116_220000.003,0,RJFA,,,,0,20180116220000,-1,-1,-1,-1,150,-1,2,-1,-1,-1,-1,,9999,0,0,3,FEW 5   SCT 20   BKN 35,1,11,1,11,1009,RJFA 162200Z 15002KT 9999 FEW005 SCT020 BKN035 11/11 Q1009 RMK     1ST005 4CU020 6CU035 A2982 VIS SE 8KM=,
20180116_230000.003,0,RJFA,,,,0,20180116230000,-1,-1,-1,-1,150,-1,4,-1,-1,-1,-1,,9999,0,1,3,FEW 5   SCT 10   BKN 20,1,11,1,11,1010,RJFA 162300Z 15004KT 9999 -SHRA FEW005 SCT010 BKN020 11/11     Q1010 RMK 1ST005 3ST010 6CU020 A2984 1ST005 AND 2ST008 W           3ST010 AAL=,- RA SH
20180117_000000.004,0,RJFA,,,,0,20180117000000,-1,-1,-1,-1,180,-1,2,-1,-1,-1,-1,,9999,1,2,3,FEW 3   SCT 8   BKN 15,1,12,1,12,1011,RJFA 170000Z 18002KT 9999 R12/1800U -SHRA PRFG FEW003     SCT008 BKN015 12/12 Q1011 RMK 1ST003 3ST008 6CU015 A2986           VIS W 3500M FG BANK W 1ST003 AND 2ST005 W 3ST008 AAL=,- RA SH; PR FG
20180117_010000.003,0,RJFA,,,,0,20180117010000,-1,-1,-1,-1,220,-1,4,-1,-1,160,260,,9999,0,0,3,FEW 3   BKN 8   BKN 15,1,13,1,13,1011,RJFA 170100Z 22004KT 160V260 9999 FEW003 BKN008 BKN015 13/13     Q1011 RMK 1ST003 6ST008 7CU015 A2988 1ST003 AND 2ST005           SW-W=,
20180117_020000.006,0,RJFA,,,,0,20180117020000,-1,-1,-1,-1,240,-1,3,-1,-1,160,310,,9999,0,1,3,FEW 3   SCT 5   BKN 8,1,13,1,13,1011,RJFA 170200Z 24003KT 160V310 9999 -SHRA FEW003 SCT005 BKN008     13/13 Q1011 RMK 1ST003 3ST005 6ST008 A2987 1ST003 SW           3ST005 AAL=,- RA SH
20180117_030000.004,0,RJFA,,,,0,20180117030000,-1,-1,-1,-1,340,-1,16,-1,-1,-1,-1,,5000,0,2,3,FEW 2   SCT 5   BKN 6,1,12,1,12,1011,RJFA 170300Z 34016KT 5000 -SHRA BR FEW002 SCT005 BKN006 12/12     Q1011 RMK 1ST002 3ST005 5ST006 A2986 VIS W-NE 10KM 1ST002           SW 3ST005 AAL RWY30 34016KT=,- RA SH; BR
20180117_040000.004,0,RJFA,,,,0,20180117040000,-1,-1,-1,-1,350,-1,16,-1,-1,-1,-1,,4000,0,2,3,FEW 1   SCT 5   BKN 6,1,12,1,10,1011,RJFA 170400Z 35016KT 4000 SHRA BR FEW001 SCT005 BKN006 12/10     Q1011 RMK 1ST001 4ST005 7ST006 A2987 VIS S 3000M 1ST001           SW 3ST005 AAL RWY30 35017KT=,RA SH; BR
20180117_050000.004,0,RJFA,,,,0,20180117050000,-1,-1,-1,-1,360,-1,12,-1,-1,330,30,,5000,0,2,3,FEW 3   SCT 6   BKN 8,1,11,1,9,1012,RJFA 170500Z 36012KT 330V030 5000 -SHRA BR FEW003 SCT006     BKN008 11/09 Q1012 RMK 1ST003 3ST006 5ST008 A2991 VIS W-N           8KM 1ST003 SW 3ST006 AAL RWY30 36013KT=,- RA SH; BR
20180117_060000.003,0,RJFA,,,,0,20180117060000,-1,-1,-1,-1,360,-1,11,-1,-1,-1,-1,,8000,0,1,3,FEW 3   SCT 8   BKN 12,1,11,1,9,1013,RJFA 170600Z 36011KT 8000 -SHRA FEW003 SCT008 BKN012 11/09     Q1013 RMK 1ST003 3ST008 6CU012 A2994 VIS SE 5KM 3ST008           AAL=,- RA SH
20180117_070000.004,0,RJFA,,,,0,20180117070000,-1,-1,-1,-1,360,-1,10,-1,-1,-1,-1,,9999,0,1,3,FEW 5   SCT 8   BKN 12,1,11,1,9,1014,RJFA 170700Z 36010KT 9999 -SHRA FEW005 SCT008 BKN012 11/09     Q1014 RMK 1ST005 3ST008 5CU012 A2996 3ST008 AAL=,- RA SH
20180117_080000.003,0,RJFA,,,,0,20180117080000,-1,-1,-1,-1,350,-1,11,-1,-1,-1,-1,,9999,0,1,3,FEW 5   BKN 15   BKN 25,1,11,1,8,1015,RJFA 170800Z 35011KT 9999 -SHRA FEW005 BKN015 BKN025 11/08     Q1015 RMK 1ST005 5CU015 7CU025 A2999=,- RA SH
20180117_090000.004,0,RJFA,,,,0,20180117090000,-1,-1,-1,-1,350,-1,12,-1,-1,-1,-1,,9999,0,1,3,FEW 8   BKN 15   BKN 30,1,11,1,8,1016,RJFA 170900Z 35012KT 9999 -SHRA FEW008 BKN015 BKN030 11/08     Q1016 RMK 1ST008 5CU015 7CU030 A3001=,- RA SH
20180117_100000.003,0,RJFA,,,,0,20180117100000,-1,-1,-1,-1,10,-1,10,-1,-1,-1,-1,,9999,0,0,3,FEW 8   SCT 15   BKN 30,1,11,1,7,1016,RJFA 171000Z 01010KT 9999 FEW008 SCT015 BKN030 11/07 Q1016 RMK     1ST008 3CU015 7CU030 A3003=,
20180117_110000.004,0,RJFA,,,,0,20180117110000,-1,-1,-1,-1,20,-1,5,-1,-1,-1,-1,,9999,0,0,3,FEW 8   SCT 15   BKN 30,1,10,1,7,1017,RJFA 171100Z 02005KT 9999 FEW008 SCT015 BKN030 10/07 Q1017 RMK     1ST008 3CU015 5CU030 A3005=,
20180117_120000.004,0,RJFA,,,,0,20180117120000,-1,-1,-1,-1,60,-1,3,-1,-1,360,80,,9999,0,0,2,FEW 15   BKN 30,1,10,1,7,1018,RJFA 171200Z 06003KT 360V080 9999 FEW015 BKN030 10/07 Q1018     RMK 2CU015 5CU030 A3007=,
20180117_130000.003,0,RJFA,,,,0,20180117130000,-1,-1,-1,-1,140,-1,3,-1,-1,-1,-1,,9999,0,0,3,FEW 15   BKN 30   BKN 50,1,8,1,7,1019,RJFA 171300Z 14003KT 9999 FEW015 BKN030 BKN050 08/07 Q1019 RMK     1CU015 5CU030 5SC050 A3010=,
20180117_140000.003,0,RJFA,,,,0,20180117140000,-1,-1,-1,-1,170,-1,4,-1,-1,-1,-1,,9999,0,0,3,FEW 15   BKN 30   BKN 45,1,8,1,8,1019,RJFA 171400Z 17004KT 9999 FEW015 BKN030 BKN045 08/08 Q1019 RMK     1CU015 5CU030 6SC045 A3011=,
20180117_150000.003,0,RJFA,,,,0,20180117150000,-1,-1,-1,-1,150,-1,6,-1,-1,-1,-1,,9999,0,0,3,FEW 15   SCT 30   BKN 45,1,8,1,7,1018,RJFA 171500Z 15006KT 9999 FEW015 SCT030 BKN045 08/07 Q1018 RMK     1CU015 4CU030 5SC045 A3008=,
20180117_160000.003,0,RJFA,,,,0,20180117160000,-1,-1,-1,-1,170,-1,5,-1,-1,-1,-1,,5000,0,2,1,FEW 30,1,7,1,7,1018,RJFA 171600Z 17005KT 5000 PRFG BR FEW030 07/07 Q1018 RMK     1CU030 A3008 VIS SE-SW 3000M FG BANK SE-SW=,PR FG; BR
20180117_170000.003,0,RJFA,,,,0,20180117170000,-1,-1,-1,-1,150,-1,6,-1,-1,-1,-1,,100,0,1,1,VV 1,1,7,1,7,1018,RJFA 171700Z 15006KT 0100 FG VV001 07/07 Q1018 RMK A3008=,FG
20180117_180000.003,0,RJFA,,,,0,20180117180000,-1,-1,-1,-1,190,-1,5,-1,-1,160,220,,300,0,1,1,FEW 1,1,6,1,6,1018,RJFA 171800Z 19005KT 160V220 0300 FG FEW001 06/06 Q1018 RMK     1ST001 A3008 VIS SW 500M=,FG
20180117_190000.004,0,RJFA,,,,0,20180117190000,-1,-1,-1,-1,160,-1,8,-1,-1,-1,-1,,200,0,1,1,VV 1,1,6,1,6,1018,RJFA 171900Z 16008KT 0200 FG VV001 06/06 Q1018 RMK A3007=,FG
20180117_200000.003,0,RJFA,,,,0,20180117200000,-1,-1,-1,-1,170,-1,6,-1,-1,-1,-1,,300,0,1,1,FEW 1,1,6,1,6,1018,RJFA 172000Z 17006KT 0300 FG FEW001 06/06 Q1018 RMK 1ST001     A3008=,FG
20180117_210000.003,0,RJFA,,,,0,20180117210000,-1,-1,-1,-1,170,-1,6,-1,-1,-1,-1,,800,0,1,1,VV 2,1,6,1,6,1019,RJFA 172100Z 17006KT 0800 FG VV002 06/06 Q1019 RMK A3010 VIS     SE-S 500M 14/05 R007=,FG
20180117_220000.004,0,RJFA,,,,0,20180117220000,-1,-1,-1,-1,160,-1,6,-1,-1,-1,-1,,5000,0,1,3,FEW 2   SCT 15   BKN 25,1,6,1,6,1019,RJFA 172200Z 16006KT 5000 BR FEW002 SCT015 BKN025 06/06 Q1019     RMK 2ST002 3CU015 7CU025 A3011 VIS SE-S 3000M NW-N 10KM=,BR
20180117_230000.003,0,RJFA,,,,0,20180117230000,-1,-1,-1,-1,170,-1,7,-1,-1,-1,-1,,9999,0,0,3,FEW 12   BKN 20   BKN 30,1,6,1,6,1019,RJFA 172300Z 17007KT 9999 FEW012 BKN020 BKN030 06/06 Q1019 RMK     1CU012 5CU020 7CU030 A3010=,
20180118_000000.003,0,RJFA,,,,0,20180118000000,-1,-1,-1,-1,290,-1,7,-1,-1,230,340,,9999,0,0,3,FEW 12   BKN 20   BKN 35,1,8,1,8,1020,RJFA 180000Z 29007KT 230V340 9999 FEW012 BKN020 BKN035 08/08     Q1020 RMK 1CU012 5CU020 7CU035 A3013 RWY30 18003KT=,
20180118_010000.003,0,RJFA,,,,0,20180118010000,-1,-1,-1,-1,290,-1,8,-1,21,210,360,,9999,0,0,3,FEW 15   SCT 20   BKN 35,1,11,1,8,1020,RJFA 180100Z 29008G21KT 210V360 9999 FEW015 SCT020 BKN035     11/08 Q1020 RMK 1CU015 3CU020 7CU035 A3014 RWY30 18003KT=,
20180118_020000.003,0,RJFA,,,,0,20180118020000,-1,-1,-1,-1,300,-1,7,-1,-1,260,350,,9999,0,0,3,FEW 15   SCT 25   BKN 35,1,11,1,6,1021,RJFA 180200Z 30007KT 260V350 9999 FEW015 SCT025 BKN035 11/06     Q1021 RMK 1CU015 3CU025 5CU035 A3016 RWY30 29009KT=,
20180118_030000.004,0,RJFA,,,,0,20180118030000,-1,-1,-1,-1,280,-1,4,-1,-1,210,360,,9999,0,0,3,FEW 25   BKN 35   BKN 45,1,11,1,6,1021,RJFA 180300Z 28004KT 210V360 9999 FEW025 BKN035 BKN045 11/06     Q1021 RMK 2CU025 6CU035 7SC045 A3015 RWY30 28009KT=,
20180118_040000.003,0,RJFA,,,,0,20180118040000,-1,-1,-1,-1,999,-1,3,-1,-1,-1,-1,,9999,0,0,3,FEW 25   BKN 35   BKN 45,1,11,1,5,1020,RJFA 180400Z VRB03KT 9999 FEW025 BKN035 BKN045 11/05 Q1020 RMK     1CU025 5CU035 7SC045 A3013 RWY30 28009KT=,
20180118_050000.003,0,RJFA,,,,0,20180118050000,-1,-1,-1,-1,290,-1,6,-1,-1,220,10,,9999,0,0,2,FEW 35   BKN 45,1,11,1,4,1019,RJFA 180500Z 29006KT 220V010 9999 FEW035 BKN045 11/04 Q1019     RMK 2CU035 7SC045 A3011 RWY30 29010KT=,
20180118_060000.003,0,RJFA,,,,0,20180118060000,-1,-1,-1,-1,270,-1,4,-1,-1,200,360,,9999,0,0,3,FEW 25   BKN 35   BKN 45,1,11,1,4,1020,RJFA 180600Z 27004KT 200V360 9999 FEW025 BKN035 BKN045 11/04     Q1020 RMK 1CU025 6CU035 7SC045 A3012 RWY30 28008KT=,
20180118_070000.003,0,RJFA,,,,0,20180118070000,-1,-1,-1,-1,999,-1,2,-1,-1,-1,-1,,9999,0,0,3,FEW 20   SCT 30   BKN 45,1,10,1,4,1020,RJFA 180700Z VRB02KT 9999 FEW020 SCT030 BKN045 10/04 Q1020 RMK     1CU020 3CU030 7SC045 A3012 RWY30 27007KT=,
20180118_080000.003,0,RJFA,,,,0,20180118080000,-1,-1,-1,-1,300,-1,4,-1,-1,260,10,,9999,0,0,2,FEW 20   BKN 30,1,10,1,5,1020,RJFA 180800Z 30004KT 260V010 9999 FEW020 BKN030 10/05 Q1020     RMK 1CU020 7CU030 A3013 RWY30 28002KT=,
20180118_090000.003,0,RJFA,,,,0,20180118090000,-1,-1,-1,-1,999,-1,2,-1,-1,-1,-1,,9999,0,0,3,FEW 20   BKN 30   BKN 45,1,10,1,4,1020,RJFA 180900Z VRB02KT 9999 FEW020 BKN030 BKN045 10/04 Q1020 RMK     1CU020 6CU030 5SC045 A3014 RWY30 28002KT=,
20180118_100000.003,0,RJFA,,,,0,20180118100000,-1,-1,-1,-1,290,-1,4,-1,-1,270,350,,9999,0,0,2,FEW 20   BKN 30,1,10,1,3,1021,RJFA 181000Z 29004KT 270V350 9999 FEW020 BKN030 10/03 Q1021     RMK 1CU020 7CU030 A3016 VIS S 8KM=,
20180118_110000.003,0,RJFA,,,,0,20180118110000,-1,-1,-1,-1,220,-1,2,-1,-1,-1,-1,,9999,0,0,2,FEW 30   BKN 45,1,8,1,4,1021,RJFA 181100Z 22002KT 9999 FEW030 BKN045 08/04 Q1021 RMK 2CU030     7SC045 A3016=,
20180118_120000.003,0,RJFA,,,,0,20180118120000,-1,-1,-1,-1,180,-1,4,-1,-1,-1,-1,,9999,0,0,2,FEW 30   SCT 45,1,7,1,4,1021,RJFA 181200Z 18004KT 9999 FEW030 SCT045 07/04 Q1021 RMK 1CU030     3SC045 A3017=,
20180118_130000.003,0,RJFA,,,,0,20180118130000,-1,-1,-1,-1,160,-1,5,-1,-1,-1,-1,,9999,0,0,2,FEW 30   SCT 45,1,7,1,5,1021,RJFA 181300Z 16005KT 9999 FEW030 SCT045 07/05 Q1021 RMK 1CU030     4SC045 A3017=,
20180118_140000.003,0,RJFA,,,,0,20180118140000,-1,-1,-1,-1,130,-1,6,-1,-1,-1,-1,,9999,0,0,2,FEW 30   BKN 45,1,7,1,6,1021,RJFA 181400Z 13006KT 9999 FEW030 BKN045 07/06 Q1021 RMK 1CU030     5SC045 A3017=,
20180118_150000.003,0,RJFA,,,,0,20180118150000,-1,-1,-1,-1,160,-1,6,-1,-1,-1,-1,,9999,0,0,3,FEW 30   SCT 35   BKN 45,1,7,1,5,1021,RJFA 181500Z 16006KT 9999 FEW030 SCT035 BKN045 07/05 Q1021 RMK     1CU030 3SC035 7SC045 A3016 VIS SE-SW 7KM=,
20180118_160000.003,0,RJFA,,,,0,20180118160000,-1,-1,-1,-1,180,-1,3,-1,-1,-1,-1,,9999,0,0,3,FEW 30   SCT 35   BKN 45,1,7,1,5,1021,RJFA 181600Z 18003KT 9999 FEW030 SCT035 BKN045 07/05 Q1021 RMK     1CU030 3SC035 7SC045 A3016 VIS SE-SW 7KM=,
20180118_170000.003,0,RJFA,,,,0,20180118170000,-1,-1,-1,-1,150,-1,6,-1,-1,-1,-1,,8000,0,0,2,FEW 30   BKN 45,1,6,1,5,1021,RJFA 181700Z 15006KT 8000 FEW030 BKN045 06/05 Q1021 RMK 1CU030     7SC045 A3016 VIS SE-SW 7KM=,
20180118_180000.003,0,RJFA,,,,0,20180118180000,-1,-1,-1,-1,170,-1,4,-1,-1,-1,-1,,6000,0,0,2,FEW 30   BKN 45,1,6,1,5,1021,RJFA 181800Z 17004KT 6000 FEW030 BKN045 06/05 Q1021 RMK 1CU030     7SC045 A3016 VIS SE-SW 5KM=,
20180118_190000.003,0,RJFA,,,,0,20180118190000,-1,-1,-1,-1,160,-1,5,-1,-1,-1,-1,,4000,0,1,2,FEW 30   BKN 45,1,6,1,5,1021,RJFA 181900Z 16005KT 4000 BR FEW030 BKN045 06/05 Q1021 RMK     1CU030 7SC045 A3016 VIS SE-SW 3500M=,BR
20180118_200000.003,0,RJFA,,,,0,20180118200000,-1,-1,-1,-1,160,-1,6,-1,-1,-1,-1,,4000,0,1,2,FEW 30   BKN 45,1,6,1,5,1020,RJFA 182000Z 16006KT 4000 BR FEW030 BKN045 06/05 Q1020 RMK     1CU030 7SC045 A3014 VIS SE-S 3500M=,BR
20180118_210000.004,0,RJFA,,,,0,20180118210000,-1,-1,-1,-1,160,-1,4,-1,-1,-1,-1,,4000,0,1,2,FEW 30   BKN 50,1,6,1,5,1021,RJFA 182100Z 16004KT 4000 BR FEW030 BKN050 06/05 Q1021 RMK     1CU030 7SC050 A3016 VIS SE-S 3500M 12/06 R000=,BR
20180118_220000.003,0,RJFA,,,,0,20180118220000,-1,-1,-1,-1,150,-1,6,-1,-1,-1,-1,,4000,0,1,2,FEW 30   BKN 50,1,6,1,5,1021,RJFA 182200Z 15006KT 4000 BR FEW030 BKN050 06/05 Q1021 RMK     1CU030 7SC050 A3016 VIS SW-W 8KM=,BR
20180118_230000.004,0,RJFA,,,,0,20180118230000,-1,-1,-1,-1,160,-1,6,-1,-1,-1,-1,,9999,0,0,1,FEW 30,1,5,1,4,1021,RJFA 182300Z 16006KT 9999 FEW030 05/04 Q1021 RMK 1CU030 A3015=,
20180119_000000.003,0,RJFA,,,,0,20180119000000,-1,-1,-1,-1,150,-1,7,-1,-1,-1,-1,,9999,0,0,1,FEW 30,1,6,1,5,1021,RJFA 190000Z 15007KT 9999 FEW030 06/05 Q1021 RMK 1CU030 A3017=,
20180119_010000.004,0,RJFA,,,,0,20180119010000,-1,-1,-1,-1,170,-1,6,-1,-1,-1,-1,,9999,0,0,2,FEW 30   BKN 45,1,8,1,5,1022,RJFA 190100Z 17006KT 9999 FEW030 BKN045 08/05 Q1022 RMK 1CU030     7SC045 A3019=,
20180119_020000.003,0,RJFA,,,,0,20180119020000,-1,-1,-1,-1,170,-1,6,-1,-1,130,200,,9999,0,0,2,FEW 30   BKN 45,1,10,1,4,1022,RJFA 190200Z 17006KT 130V200 9999 FEW030 BKN045 10/04 Q1022     RMK 1CU030 7SC045 A3019=,
20180119_030000.003,0,RJFA,,,,0,20180119030000,-1,-1,-1,-1,140,-1,7,-1,-1,-1,-1,,9999,0,0,2,FEW 30   BKN 50,1,11,1,3,1021,RJFA 190300Z 14007KT 9999 FEW030 BKN050 11/03 Q1021 RMK 1CU030     5SC050 A3015=,
20180119_040000.003,0,RJFA,,,,0,20180119040000,-1,-1,-1,-1,200,-1,3,-1,-1,160,300,,9999,0,0,3,FEW 30   SCT 35   BKN 50,1,11,1,3,1019,RJFA 190400Z 20003KT 160V300 9999 FEW030 SCT035 BKN050 11/03     Q1019 RMK 1CU030 3CU035 6SC050 A3011=,
20180119_050000.004,0,RJFA,,,,0,20180119050000,-1,-1,-1,-1,290,-1,5,-1,-1,270,360,,9999,0,0,2,FEW 35   BKN 50,1,12,1,4,1019,RJFA 190500Z 29005KT 270V360 9999 FEW035 BKN050 12/04 Q1019     RMK 2CU035 5SC050 A3010 RWY30 30008KT=,
20180119_060000.003,0,RJFA,,,,0,20180119060000,-1,-1,-1,-1,240,-1,4,-1,-1,190,300,,9999,0,0,2,FEW 35   BKN 50,1,12,1,3,1019,RJFA 190600Z 24004KT 190V300 9999 FEW035 BKN050 12/03 Q1019     RMK 2CU035 5SC050 A3010 RWY30 26009KT=,
20180119_070000.003,0,RJFA,,,,0,20180119070000,-1,-1,-1,-1,260,-1,3,-1,-1,210,330,,9999,0,0,1,FEW 35,1,12,1,2,1019,RJFA 190700Z 26003KT 210V330 9999 FEW035 12/02 Q1019 RMK     1CU035 A3009=,
20180119_080000.003,0,RJFA,,,,0,20180119080000,-1,-1,-1,-1,999,-1,2,-1,-1,-1,-1,,9999,0,0,1,FEW 35,1,11,1,4,1018,RJFA 190800Z VRB02KT 9999 FEW035 11/04 Q1018 RMK 1CU035 A3009=,
20180119_090000.004,0,RJFA,,,,0,20180119090000,-1,-1,-1,-1,330,-1,6,-1,-1,-1,-1,,9999,0,0,1,FEW 20,1,10,1,4,1018,RJFA 190900Z 33006KT 9999 FEW020 10/04 Q1018 RMK 2CU020 A3009=,
20180119_100000.003,0,RJFA,,,,0,20180119100000,-1,-1,-1,-1,210,-1,2,-1,-1,-1,-1,,9999,0,0,2,FEW 20   SCT 25,1,9,1,5,1019,RJFA 191000Z 21002KT 9999 FEW020 SCT025 09/05 Q1019 RMK 1CU020     3CU025 A3010=,
20180119_110000.003,0,RJFA,,,,0,20180119110000,-1,-1,-1,-1,200,-1,2,-1,-1,-1,-1,,9999,0,0,2,FEW 25   SCT 35,1,7,1,4,1019,RJFA 191100Z 20002KT 9999 FEW025 SCT035 07/04 Q1019 RMK 1CU025     3CU035 A3010=,
20180119_120000.004,0,RJFA,,,,0,20180119120000,-1,-1,-1,-1,190,-1,4,-1,-1,-1,-1,,9999,0,0,2,FEW 25   SCT 35,1,6,1,4,1019,RJFA 191200Z 19004KT 9999 FEW025 SCT035 06/04 Q1019 RMK 1CU025     3CU035 A3010=,
20180119_130000.003,0,RJFA,,,,0,20180119130000,-1,-1,-1,-1,160,-1,6,-1,-1,-1,-1,,9999,0,0,1,FEW 35,1,5,1,4,1019,RJFA 191300Z 16006KT 9999 FEW035 05/04 Q1019 RMK 2CU035 A3010=,
20180119_140000.003,0,RJFA,,,,0,20180119140000,-1,-1,-1,-1,170,-1,6,-1,-1,-1,-1,,9999,0,0,2,FEW 25   BKN 35,1,6,1,5,1019,RJFA 191400Z 17006KT 9999 FEW025 BKN035 06/05 Q1019 RMK 1CU025     7CU035 A3012 VIS S 7KM=,
20180119_150000.003,0,RJFA,,,,0,20180119150000,-1,-1,-1,-1,150,-1,7,-1,-1,-1,-1,,9999,0,0,2,FEW 25   BKN 35,1,6,1,5,1019,RJFA 191500Z 15007KT 9999 FEW025 BKN035 06/05 Q1019 RMK 1CU025     7CU035 A3011 VIS SE-S 6KM=,
20180119_160000.003,0,RJFA,,,,0,20180119160000,-1,-1,-1,-1,170,-1,6,-1,-1,-1,-1,,9999,0,0,2,FEW 25   BKN 35,1,5,1,4,1019,RJFA 191600Z 17006KT 9999 FEW025 BKN035 05/04 Q1019 RMK 1CU025     6CU035 A3011=,
20180119_170000.003,0,RJFA,,,,0,20180119170000,-1,-1,-1,-1,160,-1,7,-1,-1,-1,-1,,8000,0,0,2,FEW 35   BKN 45,1,5,1,4,1019,RJFA 191700Z 16007KT 8000 FEW035 BKN045 05/04 Q1019 RMK 2CU035     6SC045 A3012 VIS SE-S 6KM=,
20180119_180000.004,0,RJFA,,,,0,20180119180000,-1,-1,-1,-1,180,-1,4,-1,-1,-1,-1,,8000,0,0,2,FEW 30   SCT 45,1,5,1,3,1020,RJFA 191800Z 18004KT 8000 FEW030 SCT045 05/03 Q1020 RMK 1CU030     3SC045 A3012 VIS SE-S 5KM=,
20180119_190000.004,0,RJFA,,,,0,20180119190000,-1,-1,-1,-1,130,-1,4,-1,-1,70,160,,8000,0,0,2,FEW 30   SCT 45,1,4,1,3,1019,RJFA 191900Z 13004KT 070V160 8000 FEW030 SCT045 04/03 Q1019     RMK 1CU030 3SC045 A3010 VIS SE-S 6KM=,
20180119_200000.003,0,RJFA,,,,0,20180119200000,-1,-1,-1,-1,160,-1,7,-1,-1,-1,-1,,8000,0,0,2,FEW 30   SCT 45,1,4,1,3,1019,RJFA 192000Z 16007KT 8000 FEW030 SCT045 04/03 Q1019 RMK 1CU030     3SC045 A3010 VIS SE-S 6KM=,
20180119_210000.003,0,RJFA,,,,0,20180119210000,-1,-1,-1,-1,160,-1,6,-1,-1,-1,-1,,8000,0,0,2,FEW 30   SCT 45,1,4,1,3,1019,RJFA 192100Z 16006KT 8000 FEW030 SCT045 04/03 Q1019 RMK 2CU030     3SC045 A3011 VIS SE-S 6KM 13/03=,
20180119_220000.003,0,RJFA,,,,0,20180119220000,-1,-1,-1,-1,160,-1,7,-1,-1,-1,-1,,9000,0,0,2,FEW 30   SCT 40,1,3,1,3,1019,RJFA 192200Z 16007KT 9000 FEW030 SCT040 03/03 Q1019 RMK 1CU030     3CU040 A3011=,
20180119_230000.003,0,RJFA,,,,0,20180119230000,-1,-1,-1,-1,180,-1,4,-1,-1,-1,-1,,9999,0,0,1,FEW 35,1,3,1,2,1020,RJFA 192300Z 18004KT 9999 FEW035 03/02 Q1020 RMK 2CU035 A3014=,
20180120_000000.003,0,RJFA,,,,0,20180120000000,-1,-1,-1,-1,150,-1,7,-1,-1,-1,-1,,9999,0,0,2,FEW 20   SCT 230,1,4,1,4,1020,RJFA 200000Z 15007KT 9999 FEW020 SCT230 04/04 Q1020 RMK 1CU020     A3013 VIS SE-S 8KM=,
20180120_010000.003,0,RJFA,,,,0,20180120010000,-1,-1,-1,-1,160,-1,5,-1,-1,-1,-1,,9999,0,0,2,FEW 20   SCT 230,1,8,1,5,1021,RJFA 200100Z 16005KT 9999 FEW020 SCT230 08/05 Q1021 RMK 1CU020     A3016=,
20180120_020000.004,0,RJFA,,,,0,20180120020000,-1,-1,-1,-1,320,-1,4,-1,-1,-1,-1,,9999,0,0,2,FEW 20   SCT 40,1,10,1,3,1021,RJFA 200200Z 32004KT 9999 FEW020 SCT040 10/03 Q1021 RMK 1CU020     3CU040 A3018=,
20180120_030000.003,0,RJFA,,,,0,20180120030000,-1,-1,-1,-1,340,-1,8,-1,-1,-1,-1,,9999,0,0,1,FEW 35,1,11,-1,1,1021,RJFA 200300Z 34008KT 9999 FEW035 11/M01 Q1021 RMK 2CU035     A3015=,
20180120_040000.003,0,RJFA,,,,0,20180120040000,-1,-1,-1,-1,350,-1,7,-1,-1,-1,-1,,9999,0,0,1,FEW 35,1,11,-1,0,1019,RJFA 200400Z 35007KT 9999 FEW035 11/M00 Q1019 RMK 1CU035     A3011=,
20180120_050000.003,0,RJFA,,,,0,20180120050000,-1,-1,-1,-1,10,-1,7,-1,-1,-1,-1,,9999,0,0,1,FEW 35,1,11,-1,1,1019,RJFA 200500Z 01007KT 9999 FEW035 11/M01 Q1019 RMK 1CU035     A3011=,
20180120_060000.003,0,RJFA,,,,0,20180120060000,-1,-1,-1,-1,350,-1,6,-1,-1,-1,-1,,9999,0,0,2,FEW 30   SCT 230,1,10,-1,1,1019,RJFA 200600Z 35006KT 9999 FEW030 SCT230 10/M01 Q1019 RMK     1CU030 A3011=,
20180120_070000.003,0,RJFA,,,,0,20180120070000,-1,-1,-1,-1,20,-1,6,-1,-1,310,40,,9999,0,0,2,FEW 30   BKN 230,1,10,-1,1,1019,RJFA 200700Z 02006KT 310V040 9999 FEW030 BKN230 10/M01 Q1019     RMK 1CU030 A3010=,
20180120_080000.003,0,RJFA,,,,0,20180120080000,-1,-1,-1,-1,10,-1,5,-1,-1,330,40,,9999,0,0,2,FEW 30   BKN 230,1,10,-1,1,1019,RJFA 200800Z 01005KT 330V040 9999 FEW030 BKN230 10/M01 Q1019     RMK 1CU030 A3011=,
20180120_090000.003,0,RJFA,,,,0,20180120090000,-1,-1,-1,-1,30,-1,4,-1,-1,-1,-1,,9999,0,0,2,FEW 30   BKN 230,1,9,-1,0,1020,RJFA 200900Z 03004KT 9999 FEW030 BKN230 09/M00 Q1020 RMK     1CU030 A3012=,
20180120_100000.003,0,RJFA,,,,0,20180120100000,-1,-1,-1,-1,40,-1,2,-1,-1,-1,-1,,9999,0,0,2,FEW 30   BKN -9999,1,9,-1,0,1020,RJFA 201000Z 04002KT 9999 FEW030 BKN/// 09/M00 Q1020 RMK     1CU030 A3013=,
20180120_110000.003,0,RJFA,,,,0,20180120110000,-1,-1,-1,-1,200,-1,3,-1,-1,-1,-1,,9999,0,0,2,FEW 30   SCT -9999,1,4,1,0,1020,RJFA 201100Z 20003KT 9999 FEW030 SCT/// 04/00 Q1020 RMK 1CU030     A3014=,
20180120_120000.003,0,RJFA,,,,0,20180120120000,-1,-1,-1,-1,210,-1,5,-1,-1,-1,-1,,9999,0,0,2,FEW 30   SCT -9999,1,3,1,0,1021,RJFA 201200Z 21005KT 9999 FEW030 SCT/// 03/00 Q1021 RMK 1CU030     A3015=,
20180120_130000.003,0,RJFA,,,,0,20180120130000,-1,-1,-1,-1,180,-1,5,-1,-1,-1,-1,,9999,0,0,1,FEW -9999,1,3,1,1,1021,RJFA 201300Z 18005KT 9999 FEW/// 03/01 Q1021 RMK A3015=,
20180120_140000.003,0,RJFA,,,,0,20180120140000,-1,-1,-1,-1,160,-1,5,-1,-1,-1,-1,,9999,0,0,1,FEW -9999,1,3,1,1,1021,RJFA 201400Z 16005KT 9999 FEW/// 03/01 Q1021 RMK A3015=,
20180120_150000.003,0,RJFA,,,,0,20180120150000,-1,-1,-1,-1,160,-1,6,-1,-1,-1,-1,,9999,0,0,1,FEW -9999,1,2,1,1,1021,RJFA 201500Z 16006KT 9999 FEW/// 02/01 Q1021 RMK A3015=,
20180120_160000.003,0,RJFA,,,,0,20180120160000,-1,-1,-1,-1,160,-1,6,-1,-1,-1,-1,,9999,0,0,1,NSC -1,1,2,1,1,1020,RJFA 201600Z 16006KT 9999 NSC 02/01 Q1020 RMK A3013=,
20180120_170000.003,0,RJFA,,,,0,20180120170000,-1,-1,-1,-1,170,-1,7,-1,-1,-1,-1,,9999,0,0,1,NSC -1,1,1,1,1,1020,RJFA 201700Z 17007KT 9999 NSC 01/01 Q1020 RMK A3015=,
20180120_180000.003,0,RJFA,,,,0,20180120180000,-1,-1,-1,-1,160,-1,8,-1,-1,-1,-1,,9999,0,0,1,NSC -1,1,1,1,0,1020,RJFA 201800Z 16008KT 9999 NSC 01/00 Q1020 RMK A3014=,
20180120_190000.004,0,RJFA,,,,0,20180120190000,-1,-1,-1,-1,160,-1,7,-1,-1,-1,-1,,9999,0,0,1,NSC -1,1,1,1,0,1020,RJFA 201900Z 16007KT 9999 NSC 01/00 Q1020 RMK A3014=,
20180120_200000.003,0,RJFA,,,,0,20180120200000,-1,-1,-1,-1,160,-1,7,-1,-1,-1,-1,,9999,0,0,1,NSC -1,1,1,-1,0,1020,RJFA 202000Z 16007KT 9999 NSC 01/M00 Q1020 RMK A3014=,
20180120_210000.003,0,RJFA,,,,0,20180120210000,-1,-1,-1,-1,160,-1,8,-1,-1,-1,-1,,9999,0,0,1,FEW -9999,1,1,-1,0,1020,RJFA 202100Z 16008KT 9999 FEW/// 01/M00 Q1020 RMK A3015 11/01=,
20180120_220000.003,0,RJFA,,,,0,20180120220000,-1,-1,-1,-1,160,-1,8,-1,-1,-1,-1,,9999,0,0,1,FEW 30,1,1,-1,0,1021,RJFA 202200Z 16008KT 9999 FEW030 01/M00 Q1021 RMK 1CU030     A3016=,
20180120_230000.003,0,RJFA,,,,0,20180120230000,-1,-1,-1,-1,160,-1,7,-1,-1,-1,-1,,9999,0,0,1,FEW 30,1,0,-1,0,1021,RJFA 202300Z 16007KT 9999 FEW030 00/M00 Q1021 RMK 2CU030     A3018=,
20180121_000000.003,0,RJFA,,,,0,20180121000000,-1,-1,-1,-1,160,-1,7,-1,-1,-1,-1,,9999,0,0,1,FEW 30,1,2,1,1,1022,RJFA 210000Z 16007KT 9999 FEW030 02/01 Q1022 RMK 1CU030 A3018=,
20180121_010000.003,0,RJFA,,,,0,20180121010000,-1,-1,-1,-1,150,-1,7,-1,-1,-1,-1,,9999,0,0,1,FEW 30,1,5,1,2,1022,RJFA 210100Z 15007KT 9999 FEW030 05/02 Q1022 RMK 1CU030 A3018=,
20180121_020000.003,0,RJFA,,,,0,20180121020000,-1,-1,-1,-1,160,-1,1,-1,-1,-1,-1,,9999,0,0,2,FEW 25   BKN 35,1,7,1,3,1022,RJFA 210200Z 16001KT 9999 FEW025 BKN035 07/03 Q1022 RMK 1CU025     5CU035 A3021=,
20180121_030000.003,0,RJFA,,,,0,20180121030000,-1,-1,-1,-1,10,-1,10,-1,-1,-1,-1,,9999,0,0,2,FEW 30   BKN 40,1,10,-1,0,1022,RJFA 210300Z 01010KT 9999 FEW030 BKN040 10/M00 Q1022 RMK     1CU030 6CU040 A3018=,
20180121_040000.004,0,RJFA,,,,0,20180121040000,-1,-1,-1,-1,10,-1,10,-1,-1,340,50,,9999,0,0,2,FEW 30   BKN 40,1,11,-1,0,1021,RJFA 210400Z 01010KT 340V050 9999 FEW030 BKN040 11/M00 Q1021     RMK 1CU030 5CU040 A3015=,
20180121_050000.003,0,RJFA,,,,0,20180121050000,-1,-1,-1,-1,20,-1,10,-1,-1,-1,-1,,9999,0,0,2,FEW 30   SCT 45,1,11,-1,2,1020,RJFA 210500Z 02010KT 9999 FEW030 SCT045 11/M02 Q1020 RMK     1CU030 3SC045 A3014=,
20180121_060000.003,0,RJFA,,,,0,20180121060000,-1,-1,-1,-1,20,-1,9,-1,-1,350,50,,9999,0,0,2,FEW 30   SCT 200,1,11,-1,2,1020,RJFA 210600Z 02009KT 350V050 9999 FEW030 SCT200 11/M02 Q1020     RMK 1CU030 A3012=,
20180121_070000.003,0,RJFA,,,,0,20180121070000,-1,-1,-1,-1,20,-1,12,-1,-1,-1,-1,,9999,0,0,2,FEW 30   SCT 200,1,11,-1,2,1019,RJFA 210700Z 02012KT 9999 FEW030 SCT200 11/M02 Q1019 RMK     1CU030 A3012=,
20180121_080000.003,0,RJFA,,,,0,20180121080000,-1,-1,-1,-1,30,-1,10,-1,-1,350,50,,9999,0,0,2,FEW 30   BKN 200,1,10,-1,1,1020,RJFA 210800Z 03010KT 350V050 9999 FEW030 BKN200 10/M01 Q1020     RMK 1CU030 A3013=,
20180121_090000.003,0,RJFA,,,,0,20180121090000,-1,-1,-1,-1,40,-1,8,-1,-1,-1,-1,,9999,0,0,2,FEW 30   BKN 200,1,9,-1,2,1020,RJFA 210900Z 04008KT 9999 FEW030 BKN200 09/M02 Q1020 RMK     1CU030 A3013=,
20180121_100000.003,0,RJFA,,,,0,20180121100000,-1,-1,-1,-1,70,-1,8,-1,-1,-1,-1,,9999,0,0,2,FEW 30   BKN -9999,1,8,-1,2,1020,RJFA 211000Z 07008KT 9999 FEW030 BKN/// 08/M02 Q1020 RMK     1CU030 A3013=,
20180121_110000.003,0,RJFA,,,,0,20180121110000,-1,-1,-1,-1,80,-1,6,-1,-1,-1,-1,,9999,0,0,2,FEW 30   BKN -9999,1,8,-1,2,1020,RJFA 211100Z 08006KT 9999 FEW030 BKN/// 08/M02 Q1020 RMK     1CU030 A3013=,
20180121_120000.003,0,RJFA,,,,0,20180121120000,-1,-1,-1,-1,100,-1,7,-1,-1,-1,-1,,9999,0,0,2,FEW 180   BKN -9999,1,8,-1,2,1020,RJFA 211200Z 10007KT 9999 FEW180 BKN/// 08/M02 Q1020 RMK     2AC180 A3013=,
20180121_130000.004,0,RJFA,,,,0,20180121130000,-1,-1,-1,-1,110,-1,4,-1,-1,-1,-1,,9999,0,0,2,FEW 180   BKN -9999,1,7,-1,2,1019,RJFA 211300Z 11004KT 9999 FEW180 BKN/// 07/M02 Q1019 RMK     1AC180 A3011=,
20180121_140000.003,0,RJFA,,,,0,20180121140000,-1,-1,-1,-1,90,-1,4,-1,-1,-1,-1,,9999,0,0,3,FEW 30   BKN 180   BKN -9999,1,6,-1,1,1018,RJFA 211400Z 09004KT 9999 FEW030 BKN180 BKN/// 06/M01 Q1018     RMK 1CU030 5AC180 A3008=,
20180121_150000.003,0,RJFA,,,,0,20180121150000,-1,-1,-1,-1,90,-1,6,-1,-1,-1,-1,,9999,0,0,3,FEW 30   SCT 180   BKN -9999,1,6,-1,0,1018,RJFA 211500Z 09006KT 9999 FEW030 SCT180 BKN/// 06/M00 Q1018     RMK 1CU030 3AC180 A3007=,
20180121_160000.003,0,RJFA,,,,0,20180121160000,-1,-1,-1,-1,210,-1,1,-1,-1,-1,-1,,9999,0,0,3,FEW 30   SCT 180   BKN -9999,1,4,1,0,1017,RJFA 211600Z 21001KT 9999 FEW030 SCT180 BKN/// 04/00 Q1017 RMK     1CU030 4AC180 A3005=,
20180121_170000.003,0,RJFA,,,,0,20180121170000,-1,-1,-1,-1,999,-1,1,-1,-1,-1,-1,,9999,0,0,3,FEW 30   BKN 150   BKN -9999,1,5,1,0,1016,RJFA 211700Z VRB01KT 9999 FEW030 BKN150 BKN/// 05/00 Q1016 RMK     1CU030 5AC150 A3003=,
20180121_180000.003,0,RJFA,,,,0,20180121180000,-1,-1,-1,-1,100,-1,9,-1,-1,-1,-1,,9999,0,0,3,FEW 30   BKN 100   BKN 140,1,7,1,1,1016,RJFA 211800Z 10009KT 9999 FEW030 BKN100 BKN140 07/01 Q1016 RMK     1CU030 5AC100 7AC140 A3002=,
20180121_190000.003,0,RJFA,,,,0,20180121190000,-1,-1,-1,-1,150,-1,5,-1,-1,-1,-1,,9999,0,0,3,FEW 30   SCT 70   BKN 100,1,7,1,1,1015,RJFA 211900Z 15005KT 9999 FEW030 SCT070 BKN100 07/01 Q1015 RMK     1CU030 3AC070 7AC100 A3000=,
20180121_200000.003,0,RJFA,,,,0,20180121200000,-1,-1,-1,-1,999,-1,2,-1,-1,-1,-1,,9999,0,1,3,FEW 30   BKN 70   BKN 100,1,5,1,1,1015,RJFA 212000Z VRB02KT 9999 -RA FEW030 BKN070 BKN100 05/01 Q1015     RMK 1CU030 6AC070 7AS100 A2998=,- RA
20180121_210000.003,0,RJFA,,,,0,20180121210000,-1,-1,-1,-1,240,-1,1,-1,-1,-1,-1,,9999,0,1,3,FEW 30   BKN 45   OVC 70,1,6,1,2,1015,RJFA 212100Z 24001KT 9999 -RA FEW030 BKN045 OVC070 06/02 Q1015     RMK 1CU030 6SC045 8AS070 A2998 11/03 R000=,- RA
20180121_220000.003,0,RJFA,,,,0,20180121220000,-1,-1,-1,-1,999,-1,1,-1,-1,-1,-1,,9999,0,1,3,FEW 20   SCT 30   BKN 45,1,5,1,2,1015,RJFA 212200Z VRB01KT 9999 -RA FEW020 SCT030 BKN045 05/02 Q1015     RMK 1CU020 3CU030 7SC045 A3000 VIS SW 8KM=,- RA
20180121_230000.003,0,RJFA,,,,0,20180121230000,-1,-1,-1,-1,190,-1,1,-1,-1,-1,-1,,9999,0,1,3,FEW 20   BKN 25   BKN 45,1,5,1,4,1015,RJFA 212300Z 19001KT 9999 -RA FEW020 BKN025 BKN045 05/04 Q1015     RMK 1CU020 5CU025 7SC045 A3000=,- RA
20180122_000000.003,0,RJFA,,,,0,20180122000000,-1,-1,-1,-1,150,-1,2,-1,-1,-1,-1,,9999,0,1,3,FEW 15   BKN 25   BKN 45,1,5,1,4,1015,RJFA 220000Z 15002KT 9999 -RA FEW015 BKN025 BKN045 05/04 Q1015     RMK 1CU015 5CU025 7SC045 A3000=,- RA
20180122_010000.003,0,RJFA,,,,0,20180122010000,-1,-1,-1,-1,130,-1,4,-1,-1,-1,-1,,7000,0,1,3,FEW 10   BKN 25   BKN 45,1,5,1,4,1015,RJFA 220100Z 13004KT 7000 -RA FEW010 BKN025 BKN045 05/04 Q1015     RMK 1ST010 5CU025 7SC045 A3000 VIS S-SW 4000M 1ST010 SW=,- RA
20180122_010000.005,1,RJFA,,,,0,20180122010000,-1,-1,-1,-1,130,-1,4,-1,-1,-1,-1,,7000,0,1,3,FEW 10   BKN 25   BKN 45,1,5,1,4,1015,RJFA 220100Z 13004KT 7000 -RA FEW010 BKN025 BKN045 05/04     Q1015 RMK 1ST010 5CU025 7SC045 A3000 VIS S-SW 4000M           1ST010 SW=,- RA
20180122_020000.003,0,RJFA,,,,0,20180122020000,-1,-1,-1,-1,110,-1,8,-1,-1,-1,-1,,8000,0,1,3,FEW 5   SCT 10   BKN 25,1,4,1,3,1015,RJFA 220200Z 11008KT 8000 -RA FEW005 SCT010 BKN025 04/03 Q1015     RMK 1ST005 4ST010 7CU025 A2998 4ST010 AAL=,- RA
20180122_030000.003,0,RJFA,,,,0,20180122030000,-1,-1,-1,-1,110,-1,6,-1,-1,-1,-1,,9999,0,1,3,FEW 3   SCT 8   BKN 25,1,4,1,3,1014,RJFA 220300Z 11006KT 9999 -RA FEW003 SCT008 BKN025 04/03 Q1014     RMK 1ST003 3ST008 7CU025 A2995 VIS SE-S 7KM 1ST003 S           3ST008 OVER RWY=,- RA
20180122_040000.003,0,RJFA,,,,0,20180122040000,-1,-1,-1,-1,100,-1,5,-1,-1,-1,-1,,9999,0,0,3,FEW 3   SCT 8   BKN 45,1,4,1,3,1013,RJFA 220400Z 10005KT 9999 FEW003 SCT008 BKN045 04/03 Q1013 RMK     1ST003 3ST008 7SC045 A2992 1ST003 S-SW 3ST008 AAL=,
20180122_050000.003,0,RJFA,,,,0,20180122050000,-1,-1,-1,-1,150,-1,4,-1,-1,120,180,,9999,0,1,3,FEW 5   SCT 10   BKN 45,1,4,1,3,1013,RJFA 220500Z 15004KT 120V180 9999 -SHRA FEW005 SCT010 BKN045     04/03 Q1013 RMK 1ST005 3CU010 6SC045 A2992 1ST005 SW           1ST008 SE-SW=,- RA SH
20180122_060000.004,0,RJFA,,,,0,20180122060000,-1,-1,-1,-1,150,-1,6,-1,-1,120,180,,9999,0,0,2,FEW 8   SCT 15,1,5,1,3,1013,RJFA 220600Z 15006KT 120V180 9999 FEW008 SCT015 05/03 Q1013     RMK 1ST008 4CU015 A2992 1ST008 SW=,
20180122_070000.003,0,RJFA,,,,0,20180122070000,-1,-1,-1,-1,170,-1,4,-1,-1,140,200,,9999,0,0,1,FEW 10,1,6,1,3,1013,RJFA 220700Z 17004KT 140V200 9999 FEW010 06/03 Q1013 RMK     1CU010 A2993=,
20180122_080000.004,0,RJFA,,,,0,20180122080000,-1,-1,-1,-1,170,-1,6,-1,-1,-1,-1,,9999,0,1,3,FEW 10   SCT 15   BKN 25,1,6,1,3,1013,RJFA 220800Z 17006KT 9999 -SHRA FEW010 SCT015 BKN025 06/03     Q1013 RMK 1CU010 3CU015 6CU025 A2994=,- RA SH
20180122_090000.003,0,RJFA,,,,0,20180122090000,-1,-1,-1,-1,170,-1,7,-1,-1,-1,-1,,9999,0,1,3,FEW 5   BKN 25   BKN 35,1,5,1,3,1014,RJFA 220900Z 17007KT 9999 -SHRA FEW005 BKN025 BKN035 05/03     Q1014 RMK 1ST005 5CU025 6SC035 A2995 1ST005 SW=,- RA SH
20180122_100000.003,0,RJFA,,,,0,20180122100000,-1,-1,-1,-1,160,-1,7,-1,-1,-1,-1,,9999,0,0,2,FEW 10   BKN 35,1,4,1,3,1014,RJFA 221000Z 16007KT 9999 FEW010 BKN035 04/03 Q1014 RMK 1CU010     5SC035 A2995=,
20180122_110000.004,0,RJFA,,,,0,20180122110000,-1,-1,-1,-1,170,-1,7,-1,-1,-1,-1,,9999,0,0,2,FEW 15   SCT 40,1,4,1,3,1013,RJFA 221100Z 17007KT 9999 FEW015 SCT040 04/03 Q1013 RMK 1CU015     4SC040 A2994=,
20180122_120000.003,0,RJFA,,,,0,20180122120000,-1,-1,-1,-1,170,-1,6,-1,-1,-1,-1,,9999,0,0,2,FEW 15   SCT 40,1,4,1,3,1014,RJFA 221200Z 17006KT 9999 FEW015 SCT040 04/03 Q1014 RMK 1CU015     3SC040 A2995=,
20180122_130000.004,0,RJFA,,,,0,20180122130000,-1,-1,-1,-1,150,-1,9,-1,-1,-1,-1,,9999,0,0,2,FEW 15   SCT 40,1,4,1,3,1013,RJFA 221300Z 15009KT 9999 FEW015 SCT040 04/03 Q1013 RMK 1CU015     3SC040 A2994=,
20180122_140000.004,0,RJFA,,,,0,20180122140000,-1,-1,-1,-1,150,-1,9,-1,-1,-1,-1,,9999,0,1,3,FEW 15   SCT 30   BKN 40,1,4,1,3,1013,RJFA 221400Z 15009KT 9999 -SHRA FEW015 SCT030 BKN040 04/03     Q1013 RMK 1CU015 3CU030 7CU040 A2993=,- RA SH
20180122_150000.003,0,RJFA,,,,0,20180122150000,-1,-1,-1,-1,160,-1,7,-1,-1,-1,-1,,9999,0,0,3,FEW 15   SCT 30   BKN 40,1,4,1,3,1012,RJFA 221500Z 16007KT 9999 FEW015 SCT030 BKN040 04/03 Q1012 RMK     1CU015 3CU030 7CU040 A2991=,
20180122_160000.003,0,RJFA,,,,0,20180122160000,-1,-1,-1,-1,150,-1,12,-1,-1,-1,-1,,9999,0,0,3,FEW 15   SCT 30   BKN 40,1,5,1,3,1012,RJFA 221600Z 15012KT 9999 FEW015 SCT030 BKN040 05/03 Q1012 RMK     1CU015 3CU030 7CU040 A2989=,
20180122_170000.003,0,RJFA,,,,0,20180122170000,-1,-1,-1,-1,210,-1,7,-1,-1,140,260,,9999,0,0,3,FEW 30   SCT 40   BKN 50,1,8,1,4,1012,RJFA 221700Z 21007KT 140V260 9999 FEW030 SCT040 BKN050 08/04     Q1012 RMK 2CU030 4CU040 7SC050 A2990=,
20180122_180000.003,0,RJFA,,,,0,20180122180000,-1,-1,-1,-1,280,-1,13,-1,24,230,360,,9999,0,0,3,FEW 30   SCT 40   BKN 50,1,10,1,4,1012,RJFA 221800Z 28013G24KT 230V360 9999 FEW030 SCT040 BKN050     10/04 Q1012 RMK 1CU030 3CU040 7SC050 A2991=,
20180122_190000.003,0,RJFA,,,,0,20180122190000,-1,-1,-1,-1,280,-1,14,-1,27,220,320,,9999,0,0,3,FEW 30   SCT 40   BKN 50,1,9,1,1,1013,RJFA 221900Z 28014G27KT 220V320 9999 FEW030 SCT040 BKN050     09/01 Q1013 RMK 1CU030 3CU040 7SC050 A2992=,
20180122_200000.003,0,RJFA,,,,0,20180122200000,-1,-1,-1,-1,280,-1,15,-1,25,210,320,,9999,0,0,2,FEW 30   SCT 40,1,8,1,1,1013,RJFA 222000Z 28015G25KT 210V320 9999 FEW030 SCT040 08/01 Q1013     RMK 1CU030 3CU040 A2994=,
20180122_210000.004,0,RJFA,,,,0,20180122210000,-1,-1,-1,-1,270,-1,9,-1,19,190,340,,9999,0,0,2,FEW 30   SCT 40,1,7,1,1,1014,RJFA 222100Z 27009G19KT 190V340 9999 FEW030 SCT040 07/01 Q1014     RMK 1CU030 3CU040 A2996 28030KT/1830 10/03 R003=,
20180122_220000.003,0,RJFA,,,,0,20180122220000,-1,-1,-1,-1,270,-1,7,-1,-1,190,340,,9999,0,0,2,FEW 25   SCT 30,1,7,-1,1,1015,RJFA 222200Z 27007KT 190V340 9999 FEW025 SCT030 07/M01 Q1015     RMK 1CU025 4CU030 A2998 MAX WIND 16KT RWY30 28013KT=,
20180122_230000.004,0,RJFA,,,,0,20180122230000,-1,-1,-1,-1,999,-1,6,-1,18,-1,-1,,9999,0,0,2,FEW 25   BKN 30,1,6,-1,1,1016,RJFA 222300Z VRB06G18KT 9999 FEW025 BKN030 06/M01 Q1016 RMK     1CU025 6CU030 A3001 RWY30 28014KT=,
20180123_000000.003,0,RJFA,,,,0,20180123000000,-1,-1,-1,-1,270,-1,10,-1,20,210,10,,9999,0,0,2,FEW 25   BKN 30,1,7,-1,2,1017,RJFA 230000Z 27010G20KT 210V010 9999 FEW025 BKN030 07/M02     Q1017 RMK 1CU025 5CU030 A3004 RWY30 29017/25KT=,
20180123_010000.003,0,RJFA,,,,0,20180123010000,-1,-1,-1,-1,290,-1,12,-1,22,240,360,,9999,0,1,2,FEW 25   SCT 30,1,7,-1,2,1018,RJFA 230100Z 29012G22KT 240V360 9999 VCSH FEW025 SCT030 07/M02     Q1018 RMK 1CU025 4CU030 A3008 RWY30 30020KT=,VC SH
20180123_020000.003,0,RJFA,,,,0,20180123020000,-1,-1,-1,-1,290,-1,14,-1,26,230,340,,9999,0,1,2,FEW 25   SCT 30,1,6,-1,3,1018,RJFA 230200Z 29014G26KT 230V340 9999 VCSH FEW025 SCT030 06/M03     Q1018 RMK 1CU025 4CU030 A3009 RWY30 30020/28KT=,VC SH
20180123_030000.004,0,RJFA,,,,0,20180123030000,-1,-1,-1,-1,290,-1,12,-1,22,230,320,,9999,0,0,2,FEW 25   BKN 30,1,7,-1,3,1018,RJFA 230300Z 29012G22KT 230V320 9999 FEW025 BKN030 07/M03     Q1018 RMK 1CU025 5CU030 A3009 RWY30 29018KT=,
20180123_040000.004,0,RJFA,,,,0,20180123040000,-1,-1,-1,-1,290,-1,10,-1,23,220,350,,9999,0,0,2,FEW 25   BKN 30,1,6,-1,3,1018,RJFA 230400Z 29010G23KT 220V350 9999 FEW025 BKN030 06/M03     Q1018 RMK 1CU025 5CU030 A3009 RWY30 28017/23KT=,
20180123_050000.003,0,RJFA,,,,0,20180123050000,-1,-1,-1,-1,260,-1,7,-1,17,210,340,,9999,0,0,3,FEW 25   BKN 30   BKN 200,1,5,-1,4,1018,RJFA 230500Z 26007G17KT 210V340 9999 FEW025 BKN030 BKN200     05/M04 Q1018 RMK 1CU025 5CU030 A3008 RWY30 28013KT=,
20180123_060000.004,0,RJFA,,,,0,20180123060000,-1,-1,-1,-1,280,-1,10,-1,20,240,340,,9999,0,0,3,FEW 25   BKN 30   BKN 200,1,4,-1,5,1018,RJFA 230600Z 28010G20KT 240V340 9999 FEW025 BKN030 BKN200     04/M05 Q1018 RMK 1CU025 5CU030 A3008 RWY30 28017/22KT=,
20180123_070000.003,0,RJFA,,,,0,20180123070000,-1,-1,-1,-1,999,-1,7,-1,18,-1,-1,,9999,0,0,3,FEW 25   BKN 40   BKN 200,1,3,-1,5,1018,RJFA 230700Z VRB07G18KT 9999 FEW025 BKN040 BKN200 03/M05 Q1018     RMK 1CU025 5CU040 A3008 VIRGA NW-N RWY30 27011/18KT=,
20180123_080000.003,0,RJFA,,,,0,20180123080000,-1,-1,-1,-1,260,-1,6,-1,16,-1,-1,,9999,0,1,3,FEW 8   BKN 25   BKN 40,1,3,-1,4,1018,RJFA 230800Z 26006G16KT 9999 -SHSN FEW008 BKN025 BKN040 03/M04     Q1018 RMK 1ST008 5CU025 7CU040 A3008 1ST008 NW-N RWY30           28013/18KT=,- SN SH
20180123_090000.003,0,RJFA,,,,0,20180123090000,-1,-1,-1,-1,270,-1,7,-1,-1,180,340,,9999,0,1,3,FEW 6   BKN 15   BKN 25,1,2,-1,2,1018,RJFA 230900Z 27007KT 180V340 9999 -SHSN FEW006 BKN015 BKN025     02/M02 Q1018 RMK 1ST006 6CU015 7CU025 A3009 1ST006 SE           2ST008 SE-S RWY30 28013KT=,- SN SH
20180123_100000.003,0,RJFA,,,,0,20180123100000,-1,-1,-1,-1,999,-1,5,-1,15,-1,-1,,9999,0,0,3,FEW 15   SCT 25   BKN 40,1,2,-1,6,1018,RJFA 231000Z VRB05G15KT 9999 FEW015 SCT025 BKN040 02/M06 Q1018     RMK 1CU015 4CU025 7CU040 A3009 RWY30 27015KT=,
20180123_110000.003,0,RJFA,,,,0,20180123110000,-1,-1,-1,-1,270,-1,10,-1,21,210,330,,9999,0,0,2,FEW 15   BKN 40,1,2,-1,8,1019,RJFA 231100Z 27010G21KT 210V330 9999 FEW015 BKN040 02/M08     Q1019 RMK 1CU015 6CU040 A3010=,
20180123_120000.003,0,RJFA,,,,0,20180123120000,-1,-1,-1,-1,999,-1,9,-1,-1,-1,-1,,9999,0,0,2,FEW 25   BKN 40,1,2,-1,7,1019,RJFA 231200Z VRB09KT 9999 FEW025 BKN040 02/M07 Q1019 RMK     1CU025 6CU040 A3011=,
20180123_130000.003,0,RJFA,,,,0,20180123130000,-1,-1,-1,-1,280,-1,9,-1,20,210,360,,9999,0,0,2,FEW 25   BKN 40,1,2,-1,7,1019,RJFA 231300Z 28009G20KT 210V360 9999 FEW025 BKN040 02/M07     Q1019 RMK 1CU025 7CU040 A3012=,
20180123_140000.003,0,RJFA,,,,0,20180123140000,-1,-1,-1,-1,270,-1,9,-1,19,190,340,,9999,0,1,3,FEW 25   SCT 35   BKN 40,1,2,-1,8,1020,RJFA 231400Z 27009G19KT 190V340 9999 -SHSN FEW025 SCT035     BKN040 02/M08 Q1020 RMK 1CU025 3CU035 7CU040 A3012=,- SN SH
20180123_150000.003,0,RJFA,,,,0,20180123150000,-1,-1,-1,-1,280,-1,11,-1,22,190,330,,9999,0,1,3,FEW 25   SCT 35   BKN 40,1,2,-1,6,1020,RJFA 231500Z 28011G22KT 190V330 9999 -SHSN FEW025 SCT035     BKN040 02/M06 Q1020 RMK 1CU025 3CU035 7CU040 A3013=,- SN SH
20180123_160000.003,0,RJFA,,,,0,20180123160000,-1,-1,-1,-1,290,-1,12,-1,24,230,330,,9999,0,1,3,FEW 20   SCT 35   BKN 40,1,1,-1,4,1020,RJFA 231600Z 29012G24KT 230V330 9999 -SHSN FEW020 SCT035     BKN040 01/M04 Q1020 RMK 1CU020 3CU035 7CU040 A3014=,- SN SH
20180123_170000.003,0,RJFA,,,,0,20180123170000,-1,-1,-1,-1,290,-1,11,-1,22,250,330,,9999,0,1,2,FEW 15   BKN 30,1,1,-1,5,1020,RJFA 231700Z 29011G22KT 250V330 9999 -SHSN FEW015 BKN030     01/M05 Q1020 RMK 1CU015 7CU030 A3014=,- SN SH
20180123_180000.003,0,RJFA,,,,0,20180123180000,-1,-1,-1,-1,270,-1,7,-1,17,190,340,,9999,0,1,3,FEW 20   BKN 30   BKN 40,1,1,-1,8,1020,RJFA 231800Z 27007G17KT 190V340 9999 -SHSN FEW020 BKN030     BKN040 01/M08 Q1020 RMK 1CU020 5CU030 5CU040 A3014=,- SN SH
20180123_190000.003,0,RJFA,,,,0,20180123190000,-1,-1,-1,-1,290,-1,13,-1,23,250,330,,9999,0,1,3,FEW 20   SCT 30   BKN 40,1,1,-1,7,1020,RJFA 231900Z 29013G23KT 250V330 9999 VCSH FEW020 SCT030 BKN040     01/M07 Q1020 RMK 1CU020 4CU030 6CU040 A3013=,VC SH
20180123_200000.003,0,RJFA,,,,0,20180123200000,-1,-1,-1,-1,280,-1,11,-1,21,240,320,,9999,0,1,3,FEW 20   SCT 30   BKN 40,1,1,-1,8,1020,RJFA 232000Z 28011G21KT 240V320 9999 -SHSN FEW020 SCT030     BKN040 01/M08 Q1020 RMK 1CU020 4CU030 6CU040 A3014=,- SN SH
20180123_210000.003,0,RJFA,,,,0,20180123210000,-1,-1,-1,-1,290,-1,10,-1,20,230,360,,9999,0,0,2,FEW 20   BKN 40,1,1,-1,7,1021,RJFA 232100Z 29010G20KT 230V360 9999 FEW020 BKN040 01/M07     Q1021 RMK 1CU020 6CU040 A3015 07/01 R000 S001=,
20180123_220000.003,0,RJFA,,,,0,20180123220000,-1,-1,-1,-1,310,-1,13,-1,-1,270,350,,9999,0,1,3,FEW 20   SCT 30   BKN 40,1,1,-1,7,1021,RJFA 232200Z 31013KT 270V350 9999 -SHSN FEW020 SCT030 BKN040     01/M07 Q1021 RMK 1CU020 3CU030 7CU040 A3017 MAX WIND           22KT=,- SN SH
20180123_230000.003,0,RJFA,,,,0,20180123230000,-1,-1,-1,-1,300,-1,13,-1,-1,250,350,,9999,0,1,3,FEW 20   BKN 35   BKN 40,1,1,-1,7,1022,RJFA 232300Z 30013KT 250V350 9999 -SHSN FEW020 BKN035 BKN040     01/M07 Q1022 RMK 1CU020 5CU035 5CU040 A3018 MAX WIND 22KT           VIRGA SW-W RWY30 31016/23KT=,- SN SH
20180124_000000.003,0,RJFA,,,,0,20180124000000,-1,-1,-1,-1,300,-1,13,-1,-1,250,330,,9999,0,1,3,FEW 15   SCT 20   BKN 35,1,1,-1,6,1023,RJFA 240000Z 30013KT 250V330 9999 -SHSN FEW015 SCT020 BKN035     01/M06 Q1023 RMK 1CU015 3CU020 6CU035 A3021 MAX WIND 22KT           RWY30 31017/24KT=,- SN SH
20180124_010000.004,0,RJFA,,,,0,20180124010000,-1,-1,-1,-1,300,-1,17,-1,32,240,340,,7000,0,1,3,FEW 5   BKN 20   BKN 30,1,0,-1,5,1023,RJFA 240100Z 30017G32KT 240V340 7000 -SHSN FEW005 BKN020     BKN030 00/M05 Q1023 RMK 1ST005 6CU020 7CU030 A3023 VIS           N-E 5KM SW-W 10KM 1ST005 S RWY30 32015/24KT=,- SN SH
20180124_020000.003,0,RJFA,,,,0,20180124020000,-1,-1,-1,-1,320,-1,21,-1,32,290,350,,5000,0,1,3,FEW 5   BKN 20   BKN 30,-1,1,-1,5,1023,RJFA 240200Z 32021G32KT 290V350 5000 -SHSN FEW005 BKN020     BKN030 M01/M05 Q1023 RMK 1ST005 6CU020 7CU030 A3022 VIS S           3000M SW-W 8KM RWY30 33021/28KT=,- SN SH
20180124_030000.003,0,RJFA,,,,0,20180124030000,-1,-1,-1,-1,320,-1,22,-1,-1,-1,-1,,9999,0,1,3,FEW 5   SCT 10   BKN 20,-1,1,-1,6,1023,RJFA 240300Z 32022KT 9999 -SHSN FEW005 SCT010 BKN020 M01/M06     Q1023 RMK 2ST005 3CU010 6CU020 A3022 MAX WIND 29KT VIS           S-W 3000M 2ST005 S-W RWY30 33023/31KT=,- SN SH
20180124_040000.003,0,RJFA,,,,0,20180124040000,-1,-1,-1,-1,320,-1,17,-1,-1,-1,-1,,5000,0,1,3,FEW 5   SCT 10   BKN 20,-1,1,-1,6,1022,RJFA 240400Z 32017KT 5000 -SHSN FEW005 SCT010 BKN020 M01/M06     Q1022 RMK 2ST005 3CU010 6CU020 A3021 MAX WIND 26KT VIS           S-NW 3000M 2ST005 S-W RWY30 33022/31KT=,- SN SH
20180124_050000.003,0,RJFA,,,,0,20180124050000,-1,-1,-1,-1,310,-1,18,-1,-1,-1,-1,,9999,0,0,3,FEW 10   SCT 20   BKN 30,-1,1,-1,9,1022,RJFA 240500Z 31018KT 9999 FEW010 SCT020 BKN030 M01/M09 Q1022     RMK 1CU010 3CU020 6CU030 A3021 MAX WIND 24KT RWY30           32020/26KT=,
20180124_060000.003,0,RJFA,,,,0,20180124060000,-1,-1,-1,-1,320,-1,18,-1,-1,-1,-1,,9999,0,0,3,FEW 10   SCT 20   BKN 30,-1,1,-1,9,1022,RJFA 240600Z 32018KT 9999 FEW010 SCT020 BKN030 M01/M09 Q1022     RMK 1CU010 3CU020 6CU030 A3020 MAX WIND 26KT VIRGA N AND           S RWY30 32020KT=,
20180124_070000.003,0,RJFA,,,,0,20180124070000,-1,-1,-1,-1,320,-1,20,-1,-1,-1,-1,,9999,0,1,3,FEW 10   SCT 20   BKN 30,-1,1,-1,11,1022,RJFA 240700Z 32020KT 9999 VCSH FEW010 SCT020 BKN030 M01/M11     Q1022 RMK 1CU010 3CU020 6CU030 A3021 MAX WIND 26KT RWY30           32018/26KT=,VC SH
20180124_080000.003,0,RJFA,,,,0,20180124080000,-1,-1,-1,-1,320,-1,15,-1,-1,-1,-1,,9999,0,1,3,FEW 15   SCT 20   BKN 30,-1,1,-1,9,1023,RJFA 240800Z 32015KT 9999 -SHSN FEW015 SCT020 BKN030 M01/M09     Q1023 RMK 1CU015 3CU020 6CU030 A3021 RWY30 33016KT=,- SN SH
20180124_090000.004,0,RJFA,,,,0,20180124090000,-1,-1,-1,-1,320,-1,14,-1,-1,-1,-1,,9999,0,0,3,FEW 15   SCT 20   BKN 30,-1,1,-1,9,1022,RJFA 240900Z 32014KT 9999 FEW015 SCT020 BKN030 M01/M09 Q1022     RMK 1CU015 3CU020 6CU030 A3021=,
20180124_100000.003,0,RJFA,,,,0,20180124100000,-1,-1,-1,-1,310,-1,11,-1,-1,-1,-1,,9999,0,0,2,FEW 20   BKN 35,-1,1,-1,9,1022,RJFA 241000Z 31011KT 9999 FEW020 BKN035 M01/M09 Q1022 RMK     2CU020 6CU035 A3019=,
20180124_110000.003,0,RJFA,,,,0,20180124110000,-1,-1,-1,-1,320,-1,19,-1,-1,-1,-1,,9999,0,0,2,FEW 20   BKN 35,-1,0,-1,9,1022,RJFA 241100Z 32019KT 9999 FEW020 BKN035 M00/M09 Q1022 RMK     2CU020 6CU035 A3019=,
20180124_120000.003,0,RJFA,,,,0,20180124120000,-1,-1,-1,-1,330,-1,15,-1,-1,-1,-1,,9999,0,0,2,FEW 20   BKN 35,1,0,-1,11,1022,RJFA 241200Z 33015KT 9999 FEW020 BKN035 00/M11 Q1022 RMK     1CU020 6CU035 A3020=,
20180124_130000.003,0,RJFA,,,,0,20180124130000,-1,-1,-1,-1,320,-1,15,-1,-1,-1,-1,,9999,0,0,2,FEW 25   BKN 35,-1,0,-1,10,1022,RJFA 241300Z 32015KT 9999 FEW025 BKN035 M00/M10 Q1022 RMK     1CU025 6CU035 A3019=,
20180124_140000.004,0,RJFA,,,,0,20180124140000,-1,-1,-1,-1,310,-1,12,-1,-1,270,350,,9999,0,0,2,FEW 25   BKN 35,-1,0,-1,11,1022,RJFA 241400Z 31012KT 270V350 9999 FEW025 BKN035 M00/M11 Q1022     RMK 1CU025 5CU035 A3019=,
20180124_150000.003,0,RJFA,,,,0,20180124150000,-1,-1,-1,-1,310,-1,11,-1,-1,280,350,,9999,0,0,2,FEW 25   BKN 35,-1,0,-1,9,1022,RJFA 241500Z 31011KT 280V350 9999 FEW025 BKN035 M00/M09 Q1022     RMK 1CU025 6CU035 A3018=,
20180124_160000.003,0,RJFA,,,,0,20180124160000,-1,-1,-1,-1,310,-1,13,-1,-1,280,350,,9999,0,0,2,FEW 25   BKN 35,-1,1,-1,9,1022,RJFA 241600Z 31013KT 280V350 9999 FEW025 BKN035 M01/M09 Q1022     RMK 1CU025 6CU035 A3018=,
20180124_170000.003,0,RJFA,,,,0,20180124170000,-1,-1,-1,-1,330,-1,15,-1,-1,-1,-1,,9999,0,0,2,FEW 25   BKN 35,-1,1,-1,9,1022,RJFA 241700Z 33015KT 9999 FEW025 BKN035 M01/M09 Q1022 RMK     1CU025 5CU035 A3021=,
20180124_180000.003,0,RJFA,,,,0,20180124180000,-1,-1,-1,-1,310,-1,11,-1,-1,250,350,,9999,0,0,2,FEW 20   BKN 30,-1,1,-1,8,1023,RJFA 241800Z 31011KT 250V350 9999 FEW020 BKN030 M01/M08 Q1023     RMK 1CU020 7CU030 A3021=,
20180124_190000.004,0,RJFA,,,,0,20180124190000,-1,-1,-1,-1,320,-1,11,-1,-1,250,10,,9999,0,0,2,FEW 25   BKN 35,-1,1,-1,9,1022,RJFA 241900Z 32011KT 250V010 9999 FEW025 BKN035 M01/M09 Q1022     RMK 1CU025 7CU035 A3021=,
20180124_200000.003,0,RJFA,,,,0,20180124200000,-1,-1,-1,-1,330,-1,12,-1,-1,260,360,,9999,0,1,2,FEW 25   BKN 35,-1,1,-1,7,1022,RJFA 242000Z 33012KT 260V360 9999 -SHSN FEW025 BKN035 M01/M07     Q1022 RMK 1CU025 7CU035 A3020=,- SN SH
20180124_210000.004,0,RJFA,,,,0,20180124210000,-1,-1,-1,-1,330,-1,12,-1,-1,240,10,,9999,0,1,2,FEW 25   BKN 35,-1,1,-1,8,1023,RJFA 242100Z 33012KT 240V010 9999 -SHSN FEW025 BKN035 M01/M08     Q1023 RMK 1CU025 6CU035 A3021 33036KT/0200 01/M01 R000           S001=,- SN SH
20180124_220000.003,0,RJFA,,,,0,20180124220000,-1,-1,-1,-1,320,-1,12,-1,-1,-1,-1,,9999,0,0,2,FEW 20   BKN 30,-1,0,-1,8,1023,RJFA 242200Z 32012KT 9999 FEW020 BKN030 M00/M08 Q1023 RMK     2CU020 6CU030 A3021 RWY30 33010KT=,
20180124_230000.003,0,RJFA,,,,0,20180124230000,-1,-1,-1,-1,320,-1,11,-1,-1,-1,-1,,9999,0,1,3,FEW 15   SCT 20   BKN 30,-1,0,-1,8,1023,RJFA 242300Z 32011KT 9999 VCSH FEW015 SCT020 BKN030 M00/M08     Q1023 RMK 1CU015 3CU020 6CU030 A3022 RWY30 32011KT=,VC SH
20180125_000000.003,0,RJFA,,,,0,20180125000000,-1,-1,-1,-1,330,-1,11,-1,-1,-1,-1,,9999,0,1,3,FEW 15   SCT 20   BKN 30,1,0,-1,8,1023,RJFA 250000Z 33011KT 9999 VCSH FEW015 SCT020 BKN030 00/M08     Q1023 RMK 1CU015 3CU020 6CU030 A3022 RWY30 33011KT=,VC SH
20180125_010000.003,0,RJFA,,,,0,20180125010000,-1,-1,-1,-1,330,-1,11,-1,-1,-1,-1,,9999,0,1,2,FEW 20   BKN 30,1,1,-1,10,1023,RJFA 250100Z 33011KT 9999 VCSH FEW020 BKN030 01/M10 Q1023 RMK     2CU020 6CU030 A3023 RWY30 34008KT=,VC SH
20180125_020000.004,0,RJFA,,,,0,20180125020000,-1,-1,-1,-1,310,-1,9,-1,-1,-1,-1,,9999,0,1,2,FEW 20   BKN 30,1,1,-1,9,1023,RJFA 250200Z 31009KT 9999 VCSH FEW020 BKN030 01/M09 Q1023 RMK     2CU020 6CU030 A3023 VIS W 8KM RWY30 32009KT=,VC SH
20180125_030000.003,0,RJFA,,,,0,20180125030000,-1,-1,-1,-1,300,-1,8,-1,-1,260,340,,9999,0,1,2,FEW 15   BKN 30,1,2,-1,8,1022,RJFA 250300Z 30008KT 260V340 9999 VCSH FEW015 BKN030 02/M08     Q1022 RMK 1CU015 6CU030 A3020 RWY30 31011KT=,VC SH
20180125_040000.003,0,RJFA,,,,0,20180125040000,-1,-1,-1,-1,330,-1,12,-1,-1,280,340,,9999,0,0,2,FEW 20   BKN 30,1,2,-1,7,1021,RJFA 250400Z 33012KT 280V340 9999 FEW020 BKN030 02/M07 Q1021     RMK 1CU020 5CU030 A3017 VIRGA SE-S RWY30 32011KT=,
20180125_050000.003,0,RJFA,,,,0,20180125050000,-1,-1,-1,-1,280,-1,7,-1,-1,240,340,,9999,0,0,2,FEW 25   BKN 35,1,2,-1,8,1021,RJFA 250500Z 28007KT 240V340 9999 FEW025 BKN035 02/M08 Q1021     RMK 1CU025 5CU035 A3016 RWY30 29011KT=,
20180125_060000.003,0,RJFA,,,,0,20180125060000,-1,-1,-1,-1,300,-1,6,-1,-1,250,350,,9999,0,0,2,FEW 25   BKN 40,1,2,-1,8,1021,RJFA 250600Z 30006KT 250V350 9999 FEW025 BKN040 02/M08 Q1021     RMK 1CU025 6CU040 A3016 RWY30 32010KT=,
20180125_070000.003,0,RJFA,,,,0,20180125070000,-1,-1,-1,-1,290,-1,8,-1,-1,250,320,,9999,0,0,2,FEW 25   BKN 40,1,2,-1,7,1020,RJFA 250700Z 29008KT 250V320 9999 FEW025 BKN040 02/M07 Q1020     RMK 1CU025 6CU040 A3014 RWY30 31011KT=,
20180125_080000.003,0,RJFA,,,,0,20180125080000,-1,-1,-1,-1,320,-1,9,-1,-1,280,350,,9999,0,0,2,FEW 25   SCT 40,1,2,-1,10,1020,RJFA 250800Z 32009KT 280V350 9999 FEW025 SCT040 02/M10 Q1020     RMK 1CU025 4CU040 A3014 RWY30 32009KT 270V350=,
20180125_090000.003,0,RJFA,,,,0,20180125090000,-1,-1,-1,-1,300,-1,6,-1,-1,240,330,,9999,0,0,2,FEW 25   SCT 40,1,1,-1,10,1020,RJFA 250900Z 30006KT 240V330 9999 FEW025 SCT040 01/M10 Q1020     RMK 1CU025 3CU040 A3014 RWY30 31008KT=,
20180125_100000.004,0,RJFA,,,,0,20180125100000,-1,-1,-1,-1,300,-1,7,-1,-1,240,340,,9999,0,0,2,FEW 25   SCT 40,1,1,-1,10,1020,RJFA 251000Z 30007KT 240V340 9999 FEW025 SCT040 01/M10 Q1020     RMK 1CU025 3CU040 A3014=,
20180125_110000.004,0,RJFA,,,,0,20180125110000,-1,-1,-1,-1,310,-1,10,-1,-1,240,340,,9999,0,0,3,FEW 25   SCT 40   BKN -9999,1,2,-1,9,1020,RJFA 251100Z 31010KT 240V340 9999 FEW025 SCT040 BKN/// 02/M09     Q1020 RMK 1CU025 3CU040 A3014=,
20180125_120000.003,0,RJFA,,,,0,20180125120000,-1,-1,-1,-1,310,-1,9,-1,-1,-1,-1,,9999,0,0,3,FEW 25   SCT 40   BKN -9999,1,2,-1,9,1020,RJFA 251200Z 31009KT 9999 FEW025 SCT040 BKN/// 02/M09 Q1020     RMK 1CU025 3CU040 A3012=,
20180125_130000.003,0,RJFA,,,,0,20180125130000,-1,-1,-1,-1,290,-1,5,-1,-1,-1,-1,,9999,0,0,3,FEW 25   SCT 40   BKN -9999,1,1,-1,8,1019,RJFA 251300Z 29005KT 9999 FEW025 SCT040 BKN/// 01/M08 Q1019     RMK 1CU025 4CU040 A3011=,
20180125_140000.003,0,RJFA,,,,0,20180125140000,-1,-1,-1,-1,300,-1,7,-1,-1,-1,-1,,9999,0,0,2,FEW 25   BKN 40,1,2,-1,8,1019,RJFA 251400Z 30007KT 9999 FEW025 BKN040 02/M08 Q1019 RMK     1CU025 5CU040 A3010=,
20180125_150000.003,0,RJFA,,,,0,20180125150000,-1,-1,-1,-1,280,-1,5,-1,-1,260,340,,9999,0,0,2,FEW 25   BKN 40,1,2,-1,8,1019,RJFA 251500Z 28005KT 260V340 9999 FEW025 BKN040 02/M08 Q1019     RMK 1CU025 5CU040 A3010=,
20180125_160000.003,0,RJFA,,,,0,20180125160000,-1,-1,-1,-1,310,-1,13,-1,-1,-1,-1,,9999,0,0,3,FEW 25   BKN 40   BKN -9999,1,2,-1,7,1019,RJFA 251600Z 31013KT 9999 FEW025 BKN040 BKN/// 02/M07 Q1019     RMK 1CU025 5CU040 A3010=,
20180125_170000.003,0,RJFA,,,,0,20180125170000,-1,-1,-1,-1,300,-1,11,-1,-1,-1,-1,,9999,0,0,3,FEW 25   BKN 40   BKN -9999,1,2,-1,7,1019,RJFA 251700Z 30011KT 9999 FEW025 BKN040 BKN/// 02/M07 Q1019     RMK 1CU025 5CU040 A3010=,
20180125_180000.003,0,RJFA,,,,0,20180125180000,-1,-1,-1,-1,300,-1,12,-1,-1,-1,-1,,9999,0,0,2,FEW 25   BKN 40,1,2,-1,7,1019,RJFA 251800Z 30012KT 9999 FEW025 BKN040 02/M07 Q1019 RMK     1CU025 5CU040 A3011=,
20180125_190000.003,0,RJFA,,,,0,20180125190000,-1,-1,-1,-1,300,-1,13,-1,-1,-1,-1,,9999,0,0,2,FEW 25   BKN 40,1,1,-1,6,1019,RJFA 251900Z 30013KT 9999 FEW025 BKN040 01/M06 Q1019 RMK     1CU025 6CU040 A3010=,
20180125_200000.004,0,RJFA,,,,0,20180125200000,-1,-1,-1,-1,300,-1,12,-1,-1,-1,-1,,9999,0,0,2,FEW 25   BKN 40,1,1,-1,7,1019,RJFA 252000Z 30012KT 9999 FEW025 BKN040 01/M07 Q1019 RMK     2CU025 5CU040 A3010=,
20180125_210000.003,0,RJFA,,,,0,20180125210000,-1,-1,-1,-1,300,-1,14,-1,-1,250,350,,9999,0,0,2,FEW 25   BKN 40,1,1,-1,7,1019,RJFA 252100Z 30014KT 250V350 9999 FEW025 BKN040 01/M07 Q1019     RMK 1CU025 5CU040 A3012 03/M01 R000 S000=,
20180125_220000.003,0,RJFA,,,,0,20180125220000,-1,-1,-1,-1,300,-1,14,-1,25,-1,-1,,9999,0,0,2,FEW 25   BKN 35,1,0,-1,8,1020,RJFA 252200Z 30014G25KT 9999 FEW025 BKN035 00/M08 Q1020 RMK     1CU025 6CU035 A3014=,
20180125_230000.003,0,RJFA,,,,0,20180125230000,-1,-1,-1,-1,310,-1,15,-1,-1,-1,-1,,9999,0,0,2,FEW 25   BKN 35,1,0,-1,8,1021,RJFA 252300Z 31015KT 9999 FEW025 BKN035 00/M08 Q1021 RMK     1CU025 7CU035 A3015 RWY30 32015KT=,
20180126_000000.003,0,RJFA,,,,0,20180126000000,-1,-1,-1,-1,310,-1,14,-1,-1,-1,-1,,9999,0,0,2,FEW 25   BKN 35,1,0,-1,7,1021,RJFA 260000Z 31014KT 9999 FEW025 BKN035 00/M07 Q1021 RMK     1CU025 7CU035 A3018 RWY30 32014KT=,
20180126_010000.003,0,RJFA,,,,0,20180126010000,-1,-1,-1,-1,310,-1,12,-1,-1,-1,-1,,9999,0,0,2,FEW 25   BKN 35,1,0,-1,8,1022,RJFA 260100Z 31012KT 9999 FEW025 BKN035 00/M08 Q1022 RMK     1CU025 7CU035 A3019 MAX WIND 20KT VIRGA SE-S RWY30           32015KT=,
20180126_020000.003,0,RJFA,,,,0,20180126020000,-1,-1,-1,-1,320,-1,14,-1,-1,-1,-1,,9999,0,0,2,FEW 25   BKN 35,1,1,-1,8,1022,RJFA 260200Z 32014KT 9999 FEW025 BKN035 01/M08 Q1022 RMK     1CU025 7CU035 A3019 VIRGA SE-S RWY30 32013KT=,
20180126_030000.003,0,RJFA,,,,0,20180126030000,-1,-1,-1,-1,320,-1,14,-1,-1,290,350,,9999,0,0,2,FEW 25   BKN 35,1,1,-1,7,1021,RJFA 260300Z 32014KT 290V350 9999 FEW025 BKN035 01/M07 Q1021     RMK 1CU025 7CU035 A3017 VIRGA SE RWY30 33014KT=,
20180126_040000.003,0,RJFA,,,,0,20180126040000,-1,-1,-1,-1,310,-1,11,-1,-1,250,350,,9999,0,0,2,FEW 25   BKN 35,1,1,-1,7,1021,RJFA 260400Z 31011KT 250V350 9999 FEW025 BKN035 01/M07 Q1021     RMK 1CU025 7CU035 A3015 RWY30 31013KT=,
20180126_050000.003,0,RJFA,,,,0,20180126050000,-1,-1,-1,-1,300,-1,10,-1,-1,250,360,,9999,0,0,2,FEW 25   BKN 35,1,1,-1,7,1020,RJFA 260500Z 30010KT 250V360 9999 FEW025 BKN035 01/M07 Q1020     RMK 1CU025 7CU035 A3014 RWY30 31015KT=,
20180126_060000.003,0,RJFA,,,,0,20180126060000,-1,-1,-1,-1,310,-1,11,-1,-1,280,350,,9999,0,0,2,FEW 25   BKN 35,1,0,-1,7,1021,RJFA 260600Z 31011KT 280V350 9999 FEW025 BKN035 00/M07 Q1021     RMK 1CU025 7CU035 A3015 RWY30 31014KT=,
20180126_070000.003,0,RJFA,,,,0,20180126070000,-1,-1,-1,-1,320,-1,14,-1,-1,260,360,,9999,0,0,2,FEW 30   BKN 35,1,0,-1,8,1021,RJFA 260700Z 32014KT 260V360 9999 FEW030 BKN035 00/M08 Q1021     RMK 1CU030 7CU035 A3016 RWY30 32013KT=,
20180126_080000.004,0,RJFA,,,,0,20180126080000,-1,-1,-1,-1,320,-1,10,-1,-1,270,360,,9999,0,0,2,FEW 30   BKN 40,1,0,-1,8,1021,RJFA 260800Z 32010KT 270V360 9999 FEW030 BKN040 00/M08 Q1021     RMK 1CU030 6CU040 A3016=,
20180126_090000.003,0,RJFA,,,,0,20180126090000,-1,-1,-1,-1,330,-1,13,-1,-1,-1,-1,,9999,0,0,2,FEW 30   BKN 40,1,0,-1,9,1021,RJFA 260900Z 33013KT 9999 FEW030 BKN040 00/M09 Q1021 RMK     1CU030 6CU040 A3017=,
20180126_100000.003,0,RJFA,,,,0,20180126100000,-1,-1,-1,-1,340,-1,12,-1,-1,-1,-1,,9999,0,0,2,FEW 30   BKN 40,1,0,-1,8,1022,RJFA 261000Z 34012KT 9999 FEW030 BKN040 00/M08 Q1022 RMK     1CU030 6SC040 A3020=,
20180126_110000.003,0,RJFA,,,,0,20180126110000,-1,-1,-1,-1,340,-1,14,-1,-1,-1,-1,,9999,0,0,2,FEW 30   BKN 40,1,0,-1,10,1022,RJFA 261100Z 34014KT 9999 FEW030 BKN040 00/M10 Q1022 RMK     1CU030 6CU040 A3020=,
20180126_120000.003,0,RJFA,,,,0,20180126120000,-1,-1,-1,-1,340,-1,13,-1,23,-1,-1,,9999,0,0,2,FEW 30   BKN 40,1,0,-1,9,1023,RJFA 261200Z 34013G23KT 9999 FEW030 BKN040 00/M09 Q1023 RMK     1CU030 6CU040 A3022=,
20180126_130000.003,0,RJFA,,,,0,20180126130000,-1,-1,-1,-1,350,-1,13,-1,-1,-1,-1,,9999,0,0,2,FEW 30   BKN 40,1,0,-1,10,1023,RJFA 261300Z 35013KT 9999 FEW030 BKN040 00/M10 Q1023 RMK     1CU030 6CU040 A3023=,
20180126_140000.003,0,RJFA,,,,0,20180126140000,-1,-1,-1,-1,330,-1,11,-1,-1,-1,-1,,9999,0,0,2,FEW 30   BKN 40,1,1,-1,8,1023,RJFA 261400Z 33011KT 9999 FEW030 BKN040 01/M08 Q1023 RMK     1CU030 5CU040 A3023=,
20180126_150000.003,0,RJFA,,,,0,20180126150000,-1,-1,-1,-1,340,-1,13,-1,-1,-1,-1,,9999,0,0,2,FEW 30   BKN 40,1,1,-1,9,1023,RJFA 261500Z 34013KT 9999 FEW030 BKN040 01/M09 Q1023 RMK     1CU030 6CU040 A3023=,
20180126_160000.003,0,RJFA,,,,0,20180126160000,-1,-1,-1,-1,340,-1,11,-1,-1,-1,-1,,9999,0,0,2,FEW 30   BKN 40,1,1,-1,8,1023,RJFA 261600Z 34011KT 9999 FEW030 BKN040 01/M08 Q1023 RMK     1CU030 7CU040 A3024=,
20180126_170000.003,0,RJFA,,,,0,20180126170000,-1,-1,-1,-1,340,-1,9,-1,-1,-1,-1,,9999,0,0,2,FEW 30   BKN 40,1,1,-1,9,1024,RJFA 261700Z 34009KT 9999 FEW030 BKN040 01/M09 Q1024 RMK     1CU030 7CU040 A3024=,
20180126_180000.003,0,RJFA,,,,0,20180126180000,-1,-1,-1,-1,330,-1,7,-1,-1,280,360,,9999,0,0,2,FEW 30   BKN 45,1,1,-1,7,1023,RJFA 261800Z 33007KT 280V360 9999 FEW030 BKN045 01/M07 Q1023     RMK 1CU030 7CU045 A3024=,
20180126_190000.003,0,RJFA,,,,0,20180126190000,-1,-1,-1,-1,360,-1,7,-1,-1,-1,-1,,9999,0,0,2,FEW 30   BKN 45,1,2,-1,7,1023,RJFA 261900Z 36007KT 9999 FEW030 BKN045 02/M07 Q1023 RMK     1CU030 7SC045 A3023=,
20180126_200000.004,0,RJFA,,,,0,20180126200000,-1,-1,-1,-1,180,-1,5,-1,-1,-1,-1,,9999,0,0,2,FEW 30   BKN 45,-1,0,-1,7,1023,RJFA 262000Z 18005KT 9999 FEW030 BKN045 M00/M07 Q1023 RMK     1CU030 7SC045 A3022=,
20180126_210000.003,0,RJFA,,,,0,20180126210000,-1,-1,-1,-1,160,-1,5,-1,-1,-1,-1,,9999,0,0,2,FEW 30   BKN 45,-1,1,-1,7,1024,RJFA 262100Z 16005KT 9999 FEW030 BKN045 M01/M07 Q1024 RMK     1CU030 7SC045 A3024 02/M01=,
20180126_220000.003,0,RJFA,,,,0,20180126220000,-1,-1,-1,-1,160,-1,7,-1,-1,-1,-1,,9999,0,0,2,FEW 30   BKN 45,-1,1,-1,7,1024,RJFA 262200Z 16007KT 9999 FEW030 BKN045 M01/M07 Q1024 RMK     1CU030 7SC045 A3026=,
20180126_230000.003,0,RJFA,,,,0,20180126230000,-1,-1,-1,-1,160,-1,7,-1,-1,-1,-1,,9999,0,0,2,FEW 25   BKN 35,-1,1,-1,7,1024,RJFA 262300Z 16007KT 9999 FEW025 BKN035 M01/M07 Q1024 RMK     2CU025 5CU035 A3026=,
20180127_000000.003,0,RJFA,,,,0,20180127000000,-1,-1,-1,-1,170,-1,8,-1,-1,-1,-1,,9999,0,0,2,FEW 30   BKN 35,-1,0,-1,7,1025,RJFA 270000Z 17008KT 9999 FEW030 BKN035 M00/M07 Q1025 RMK     2CU030 7CU035 A3028=,
20180127_010000.003,0,RJFA,,,,0,20180127010000,-1,-1,-1,-1,180,-1,9,-1,-1,-1,-1,,9999,0,1,2,FEW 25   BKN 30,1,1,-1,6,1025,RJFA 270100Z 18009KT 9999 -SHSN FEW025 BKN030 01/M06 Q1025 RMK     2CU025 7CU030 A3029=,- SN SH
20180127_020000.003,0,RJFA,,,,0,20180127020000,-1,-1,-1,-1,170,-1,8,-1,-1,-1,-1,,9999,0,1,3,FEW 25   SCT 30   BKN 40,1,1,-1,5,1025,RJFA 270200Z 17008KT 9999 VCSH FEW025 SCT030 BKN040 01/M05     Q1025 RMK 1CU025 4CU030 7CU040 A3029=,VC SH
20180127_030000.003,0,RJFA,,,,0,20180127030000,-1,-1,-1,-1,190,-1,4,-1,-1,150,230,,9999,0,0,3,FEW 25   SCT 30   BKN 45,1,3,-1,4,1025,RJFA 270300Z 19004KT 150V230 9999 FEW025 SCT030 BKN045 03/M04     Q1025 RMK 1CU025 4CU030 7SC045 A3028=,
20180127_040000.003,0,RJFA,,,,0,20180127040000,-1,-1,-1,-1,120,-1,7,-1,-1,-1,-1,,9999,0,1,3,FEW 20   SCT 30   BKN 40,1,2,-1,3,1024,RJFA 270400Z 12007KT 9999 -SHSN FEW020 SCT030 BKN040 02/M03     Q1024 RMK 1CU020 3CU030 7CU040 A3026=,- SN SH
20180127_050000.003,0,RJFA,,,,0,20180127050000,-1,-1,-1,-1,160,-1,7,-1,-1,-1,-1,,9999,0,0,3,FEW 20   SCT 40   BKN 50,1,3,-1,2,1023,RJFA 270500Z 16007KT 9999 FEW020 SCT040 BKN050 03/M02 Q1023     RMK 1CU020 3CU040 5SC050 A3024=,
20180127_060000.003,0,RJFA,,,,0,20180127060000,-1,-1,-1,-1,170,-1,4,-1,-1,140,220,,9999,0,0,2,FEW 20   SCT 50,1,5,-1,2,1023,RJFA 270600Z 17004KT 140V220 9999 FEW020 SCT050 05/M02 Q1023     RMK 1CU020 3SC050 A3022=,
20180127_070000.003,0,RJFA,,,,0,20180127070000,-1,-1,-1,-1,170,-1,2,-1,-1,-1,-1,,9999,0,0,2,FEW 20   BKN 45,1,5,-1,3,1023,RJFA 270700Z 17002KT 9999 FEW020 BKN045 05/M03 Q1023 RMK     1CU020 6SC045 A3022=,
20180127_080000.003,0,RJFA,,,,0,20180127080000,-1,-1,-1,-1,0,-1,0,-1,-1,-1,-1,,9999,0,0,2,FEW 35   BKN 45,1,5,-1,2,1023,RJFA 270800Z 00000KT 9999 FEW035 BKN045 05/M02 Q1023 RMK     2CU035 7SC045 A3022=,
20180127_090000.004,0,RJFA,,,,0,20180127090000,-1,-1,-1,-1,70,-1,5,-1,-1,-1,-1,,9999,0,0,2,FEW 35   BKN 45,1,4,-1,2,1022,RJFA 270900Z 07005KT 9999 FEW035 BKN045 04/M02 Q1022 RMK     1CU035 7SC045 A3021=,
20180127_100000.003,0,RJFA,,,,0,20180127100000,-1,-1,-1,-1,80,-1,3,-1,-1,80,150,,9999,0,0,2,FEW 35   SCT 45,1,3,-1,2,1023,RJFA 271000Z 08003KT 080V150 9999 FEW035 SCT045 03/M02 Q1023     RMK 1CU035 4SC045 A3021=,
20180127_110000.003,0,RJFA,,,,0,20180127110000,-1,-1,-1,-1,140,-1,3,-1,-1,-1,-1,,9999,0,0,1,FEW 40,1,2,-1,2,1022,RJFA 271100Z 14003KT 9999 FEW040 02/M02 Q1022 RMK 2CU040     A3021=,
20180127_120000.003,0,RJFA,,,,0,20180127120000,-1,-1,-1,-1,190,-1,4,-1,-1,-1,-1,,9999,0,0,1,FEW 150,1,0,-1,3,1022,RJFA 271200Z 19004KT 9999 FEW150 00/M03 Q1022 RMK 2AC150     A3021=,
20180127_130000.003,0,RJFA,,,,0,20180127130000,-1,-1,-1,-1,140,-1,5,-1,-1,-1,-1,,9999,0,0,2,SCT 150   SCT -9999,-1,1,-1,2,1022,RJFA 271300Z 14005KT 9999 SCT150 SCT/// M01/M02 Q1022 RMK     3AC150 A3021=,
20180127_140000.004,0,RJFA,,,,0,20180127140000,-1,-1,-1,-1,160,-1,7,-1,-1,-1,-1,,9999,0,0,2,FEW 30   SCT 150,-1,1,-1,2,1022,RJFA 271400Z 16007KT 9999 FEW030 SCT150 M01/M02 Q1022 RMK     1CU030 4AC150 A3018=,
20180127_150000.003,0,RJFA,,,,0,20180127150000,-1,-1,-1,-1,170,-1,5,-1,-1,-1,-1,,9999,0,0,2,FEW 30   BKN 150,-1,1,-1,3,1022,RJFA 271500Z 17005KT 9999 FEW030 BKN150 M01/M03 Q1022 RMK     1CU030 7AC150 A3018=,
20180127_160000.003,0,RJFA,,,,0,20180127160000,-1,-1,-1,-1,170,-1,7,-1,-1,-1,-1,,9999,0,0,1,FEW 30,-1,1,-1,3,1021,RJFA 271600Z 17007KT 9999 FEW030 M01/M03 Q1021 RMK 1CU030     A3015=,
20180127_170000.003,0,RJFA,,,,0,20180127170000,-1,-1,-1,-1,160,-1,8,-1,-1,-1,-1,,9999,0,0,3,FEW 30   BKN 100   BKN 150,-1,1,-1,2,1021,RJFA 271700Z 16008KT 9999 FEW030 BKN100 BKN150 M01/M02 Q1021     RMK 2CU030 7AC100 7AC150 A3016=,
20180127_180000.003,0,RJFA,,,,0,20180127180000,-1,-1,-1,-1,160,-1,8,-1,-1,-1,-1,,9999,0,0,3,FEW 30   BKN 80   BKN 120,1,0,-1,2,1020,RJFA 271800Z 16008KT 9999 FEW030 BKN080 BKN120 00/M02 Q1020     RMK 1CU030 5AC080 7AS120 A3014=,
20180127_190000.003,0,RJFA,,,,0,20180127190000,-1,-1,-1,-1,160,-1,7,-1,-1,-1,-1,,9999,0,1,3,FEW 30   BKN 80   BKN 120,-1,0,-1,2,1020,RJFA 271900Z 16007KT 9999 -SNRA FEW030 BKN080 BKN120 M00/M02     Q1020 RMK 1CU030 5AC080 7AS120 A3013=,- SN RA
20180127_200000.003,0,RJFA,,,,0,20180127200000,-1,-1,-1,-1,150,-1,8,-1,-1,-1,-1,,9999,0,0,3,FEW 30   BKN 80   BKN 120,1,0,-1,3,1019,RJFA 272000Z 15008KT 9999 FEW030 BKN080 BKN120 00/M03 Q1019     RMK 1CU030 5AC080 7AS120 A3012=,
20180127_210000.003,0,RJFA,,,,0,20180127210000,-1,-1,-1,-1,150,-1,8,-1,-1,-1,-1,,9999,0,1,3,FEW 30   SCT 50   BKN 80,1,0,-1,2,1019,RJFA 272100Z 15008KT 9999 -SN FEW030 SCT050 BKN080 00/M02     Q1019 RMK 1CU030 3SC050 7AC080 A3010 06/M01 R000 S000=,- SN
20180127_220000.003,0,RJFA,,,,0,20180127220000,-1,-1,-1,-1,160,-1,7,-1,-1,-1,-1,,9999,0,0,3,FEW 30   SCT 50   BKN 80,1,2,-1,2,1018,RJFA 272200Z 16007KT 9999 FEW030 SCT050 BKN080 02/M02 Q1018     RMK 1CU030 3SC050 6AC080 A3009=,
20180127_230000.003,0,RJFA,,,,0,20180127230000,-1,-1,-1,-1,150,-1,9,-1,-1,-1,-1,,9999,0,1,3,FEW 20   SCT 50   BKN 80,1,1,-1,2,1019,RJFA 272300Z 15009KT 9999 -RASN FEW020 SCT050 BKN080 01/M02     Q1019 RMK 1CU020 4SC050 7AC080 A3010=,- RA SN
20180128_000000.004,0,RJFA,,,,0,20180128000000,-1,-1,-1,-1,150,-1,11,-1,-1,-1,-1,,9999,0,1,3,FEW 15   SCT 50   BKN 80,1,2,-1,1,1019,RJFA 280000Z 15011KT 9999 -RA FEW015 SCT050 BKN080 02/M01     Q1019 RMK 1CU015 3SC050 7AS080 A3010=,- RA
20180128_010000.003,0,RJFA,,,,0,20180128010000,-1,-1,-1,-1,140,-1,9,-1,-1,-1,-1,,9999,0,0,3,FEW 15   SCT 50   BKN 80,1,3,1,0,1018,RJFA 280100Z 14009KT 9999 FEW015 SCT050 BKN080 03/00 Q1018 RMK     1CU015 3SC050 7AC080 A3008=,
20180128_020000.003,0,RJFA,,,,0,20180128020000,-1,-1,-1,-1,170,-1,7,-1,-1,-1,-1,,9999,0,1,3,FEW 15   BKN 50   BKN 80,1,5,1,1,1017,RJFA 280200Z 17007KT 9999 VCSH FEW015 BKN050 BKN080 05/01     Q1017 RMK 1CU015 5SC050 7AC080 A3006=,VC SH
20180128_030000.003,0,RJFA,,,,0,20180128030000,-1,-1,-1,-1,200,-1,5,-1,-1,170,280,,9999,0,1,3,FEW 15   SCT 20   BKN 30,1,4,1,2,1017,RJFA 280300Z 20005KT 170V280 9999 -RA FEW015 SCT020 BKN030     04/02 Q1017 RMK 2CU015 3CU020 5CU030 A3004=,- RA
20180128_040000.003,0,RJFA,,,,0,20180128040000,-1,-1,-1,-1,220,-1,5,-1,-1,180,270,,9999,0,1,3,FEW 10   SCT 15   BKN 30,1,5,1,3,1016,RJFA 280400Z 22005KT 180V270 9999 -SHRA FEW010 SCT015 BKN030     05/03 Q1016 RMK 2CU010 3CU015 6CU030 A3002 VIS SW-W 7KM=,- RA SH
20180128_050000.003,0,RJFA,,,,0,20180128050000,-1,-1,-1,-1,200,-1,5,-1,-1,-1,-1,,7000,0,1,3,FEW 10   SCT 15   BKN 30,1,4,1,3,1016,RJFA 280500Z 20005KT 7000 -SHRA FEW010 SCT015 BKN030 04/03     Q1016 RMK 2CU010 3CU015 7CU030 A3002=,- RA SH
20180128_060000.003,0,RJFA,,,,0,20180128060000,-1,-1,-1,-1,260,-1,6,-1,-1,180,330,,9999,0,1,3,FEW 8   SCT 15   BKN 20,1,5,1,3,1016,RJFA 280600Z 26006KT 180V330 9999 -SHRA FEW008 SCT015 BKN020     05/03 Q1016 RMK 1ST008 3CU015 5CU020 A3001=,- RA SH
20180128_070000.004,0,RJFA,,,,0,20180128070000,-1,-1,-1,-1,210,-1,4,-1,-1,-1,-1,,9999,0,0,3,FEW 8   SCT 20   BKN 30,1,5,1,3,1015,RJFA 280700Z 21004KT 9999 FEW008 SCT020 BKN030 05/03 Q1015 RMK     1ST008 3CU020 5CU030 A2999=,
20180128_080000.003,0,RJFA,,,,0,20180128080000,-1,-1,-1,-1,230,-1,4,-1,-1,180,320,,9999,0,0,2,FEW 8   BKN 30,1,5,1,2,1015,RJFA 280800Z 23004KT 180V320 9999 FEW008 BKN030 05/02 Q1015     RMK 1ST008 6CU030 A3000=,
20180128_090000.003,0,RJFA,,,,0,20180128090000,-1,-1,-1,-1,999,-1,2,-1,-1,-1,-1,,9999,0,0,2,FEW 15   BKN 30,1,5,1,0,1016,RJFA 280900Z VRB02KT 9999 FEW015 BKN030 05/00 Q1016 RMK 1CU015     6CU030 A3002=,
20180128_100000.003,0,RJFA,,,,0,20180128100000,-1,-1,-1,-1,310,-1,8,-1,-1,240,350,,9999,0,0,3,FEW 15   BKN 30   BKN -9999,1,6,1,0,1016,RJFA 281000Z 31008KT 240V350 9999 FEW015 BKN030 BKN/// 06/00     Q1016 RMK 1CU015 7CU030 A3003=,
20180128_110000.003,0,RJFA,,,,0,20180128110000,-1,-1,-1,-1,300,-1,8,-1,-1,250,340,,9999,0,0,3,FEW 15   SCT 30   BKN -9999,1,6,-1,1,1017,RJFA 281100Z 30008KT 250V340 9999 FEW015 SCT030 BKN/// 06/M01     Q1017 RMK 1CU015 3CU030 A3004=,
20180128_120000.003,0,RJFA,,,,0,20180128120000,-1,-1,-1,-1,290,-1,7,-1,-1,260,350,,9999,0,0,2,FEW 15   BKN -9999,1,5,-1,2,1016,RJFA 281200Z 29007KT 260V350 9999 FEW015 BKN/// 05/M02 Q1016     RMK 1CU015 A3003=,
20180128_130000.003,0,RJFA,,,,0,20180128130000,-1,-1,-1,-1,300,-1,6,-1,-1,250,340,,9999,0,0,2,FEW 15   BKN -9999,1,5,-1,3,1017,RJFA 281300Z 30006KT 250V340 9999 FEW015 BKN/// 05/M03 Q1017     RMK 1CU015 A3005=,
20180128_140000.003,0,RJFA,,,,0,20180128140000,-1,-1,-1,-1,200,-1,4,-1,-1,160,220,,9999,0,0,2,FEW 15   SCT 40,1,2,-1,1,1016,RJFA 281400Z 20004KT 160V220 9999 FEW015 SCT040 02/M01 Q1016     RMK 1CU015 3CU040 A3003=,
20180128_150000.003,0,RJFA,,,,0,20180128150000,-1,-1,-1,-1,200,-1,3,-1,-1,160,250,,9999,0,0,2,FEW 20   BKN 40,1,1,-1,1,1016,RJFA 281500Z 20003KT 160V250 9999 FEW020 BKN040 01/M01 Q1016     RMK 1CU020 6CU040 A3001=,
20180128_160000.003,0,RJFA,,,,0,20180128160000,-1,-1,-1,-1,310,-1,10,-1,-1,220,360,,9999,0,0,2,FEW 20   BKN 40,1,2,-1,0,1016,RJFA 281600Z 31010KT 220V360 9999 FEW020 BKN040 02/M00 Q1016     RMK 1CU020 7CU040 A3001=,
20180128_170000.003,0,RJFA,,,,0,20180128170000,-1,-1,-1,-1,150,-1,4,-1,-1,-1,-1,,9999,0,0,2,FEW 20   BKN 40,1,2,1,0,1016,RJFA 281700Z 15004KT 9999 FEW020 BKN040 02/00 Q1016 RMK 1CU020     7CU040 A3000=,
20180128_180000.003,0,RJFA,,,,0,20180128180000,-1,-1,-1,-1,320,-1,15,-1,-1,280,350,,9999,0,0,2,FEW 20   BKN 40,1,5,-1,1,1016,RJFA 281800Z 32015KT 280V350 9999 FEW020 BKN040 05/M01 Q1016     RMK 1CU020 7CU040 A3000=,
20180128_190000.003,0,RJFA,,,,0,20180128190000,-1,-1,-1,-1,310,-1,14,-1,-1,-1,-1,,9999,0,0,2,FEW 20   BKN 40,1,5,-1,2,1015,RJFA 281900Z 31014KT 9999 FEW020 BKN040 05/M02 Q1015 RMK     1CU020 7CU040 A3000=,
20180128_200000.003,0,RJFA,,,,0,20180128200000,-1,-1,-1,-1,310,-1,15,-1,-1,-1,-1,,9999,0,0,2,FEW 20   BKN 40,1,5,-1,2,1016,RJFA 282000Z 31015KT 9999 FEW020 BKN040 05/M02 Q1016 RMK     1CU020 7CU040 A3001=,
20180128_210000.003,0,RJFA,,,,0,20180128210000,-1,-1,-1,-1,320,-1,17,-1,-1,290,360,,9999,0,0,2,FEW 20   BKN 40,1,4,-1,3,1016,RJFA 282100Z 32017KT 290V360 9999 FEW020 BKN040 04/M03 Q1016     RMK 1CU020 7CU040 A3002 06/00 R000 S000=,
20180128_220000.004,0,RJFA,,,,0,20180128220000,-1,-1,-1,-1,330,-1,20,-1,-1,-1,-1,,9999,0,0,2,FEW 20   BKN 40,1,3,-1,4,1017,RJFA 282200Z 33020KT 9999 FEW020 BKN040 03/M04 Q1017 RMK     1CU020 7CU040 A3005 MAX WIND 25KT RWY30 33019/24KT=,
20180128_230000.003,0,RJFA,,,,0,20180128230000,-1,-1,-1,-1,330,-1,13,-1,-1,290,360,,9999,0,0,2,FEW 20   BKN 35,1,3,-1,6,1018,RJFA 282300Z 33013KT 290V360 9999 FEW020 BKN035 03/M06 Q1018     RMK 1CU020 7CU035 A3008 MAX WIND 18KT RWY30 33015/22KT=,
20180129_000000.004,0,RJFA,,,,0,20180129000000,-1,-1,-1,-1,300,-1,9,-1,-1,260,350,,9999,0,0,2,FEW 25   BKN 40,1,2,-1,6,1019,RJFA 290000Z 30009KT 260V350 9999 FEW025 BKN040 02/M06 Q1019     RMK 1CU025 7CU040 A3010 MAX WIND 16KT RWY30 31012KT=,
20180129_010000.003,0,RJFA,,,,0,20180129010000,-1,-1,-1,-1,300,-1,10,-1,-1,250,360,,9999,0,0,2,FEW 25   BKN 40,1,2,-1,5,1020,RJFA 290100Z 30010KT 250V360 9999 FEW025 BKN040 02/M05 Q1020     RMK 1CU025 7CU040 A3012 MAX WIND 18KT RWY30 31015KT=,
20180129_020000.003,0,RJFA,,,,0,20180129020000,-1,-1,-1,-1,310,-1,14,-1,-1,250,340,,9999,0,0,2,FEW 30   BKN 40,1,2,-1,6,1020,RJFA 290200Z 31014KT 250V340 9999 FEW030 BKN040 02/M06 Q1020     RMK 1CU030 7CU040 A3013 MAX WIND 21KT RWY30 31015/21KT=,
20180129_030000.003,0,RJFA,,,,0,20180129030000,-1,-1,-1,-1,290,-1,11,-1,21,220,340,,9999,0,0,3,FEW 20   SCT 30   BKN 40,1,2,-1,7,1019,RJFA 290300Z 29011G21KT 220V340 9999 FEW020 SCT030 BKN040     02/M07 Q1019 RMK 1CU020 3CU030 6CU040 A3011 VIRGA SE-S           RWY30 31015KT=,
20180129_040000.003,0,RJFA,,,,0,20180129040000,-1,-1,-1,-1,330,-1,15,-1,-1,-1,-1,,9999,0,0,3,FEW 20   SCT 30   BKN 40,1,2,-1,6,1019,RJFA 290400Z 33015KT 9999 FEW020 SCT030 BKN040 02/M06 Q1019     RMK 1CU020 4CU030 7CU040 A3009 MAX WIND 23KT VIRGA S           RWY30 33017/25KT=,
20180129_050000.003,0,RJFA,,,,0,20180129050000,-1,-1,-1,-1,320,-1,13,-1,-1,270,340,,9999,0,1,3,FEW 20   SCT 30   BKN 40,1,2,-1,6,1018,RJFA 290500Z 32013KT 270V340 9999 VCSH FEW020 SCT030 BKN040     02/M06 Q1018 RMK 1CU020 3CU030 7CU040 A3009 MAX WIND 19KT           RWY30 32013/19KT=,VC SH
20180129_060000.003,0,RJFA,,,,0,20180129060000,-1,-1,-1,-1,300,-1,9,-1,-1,240,340,,9999,0,0,2,FEW 20   BKN 40,1,3,-1,4,1018,RJFA 290600Z 30009KT 240V340 9999 FEW020 BKN040 03/M04 Q1018     RMK 1CU020 6CU040 A3008 RWY30 30012KT=,
20180129_070000.003,0,RJFA,,,,0,20180129070000,-1,-1,-1,-1,280,-1,7,-1,-1,190,330,,9999,0,1,3,FEW 15   BKN 25   BKN 40,1,3,-1,5,1018,RJFA 290700Z 28007KT 190V330 9999 -SHSN FEW015 BKN025 BKN040     03/M05 Q1018 RMK 1CU015 5CU025 5CU040 A3008 RWY30           29010KT=,- SN SH
20180129_080000.003,0,RJFA,,,,0,20180129080000,-1,-1,-1,-1,280,-1,8,-1,-1,230,330,,9999,0,1,3,FEW 15   BKN 25   BKN 40,1,3,-1,6,1018,RJFA 290800Z 28008KT 230V330 9999 -SHSN FEW015 BKN025 BKN040     03/M06 Q1018 RMK 1CU015 6CU025 5CU040 A3009=,- SN SH
20180129_090000.003,0,RJFA,,,,0,20180129090000,-1,-1,-1,-1,320,-1,11,-1,-1,280,340,,9999,0,1,3,FEW 15   BKN 25   BKN 35,1,2,-1,4,1019,RJFA 290900Z 32011KT 280V340 9999 -SHSN FEW015 BKN025 BKN035     02/M04 Q1019 RMK 1CU015 5CU025 7CU035 A3011=,- SN SH
20180129_100000.003,0,RJFA,,,,0,20180129100000,-1,-1,-1,-1,290,-1,9,-1,-1,240,330,,9999,0,0,3,FEW 20   SCT 25   BKN 35,1,2,-1,8,1020,RJFA 291000Z 29009KT 240V330 9999 FEW020 SCT025 BKN035 02/M08     Q1020 RMK 2CU020 3CU025 6CU035 A3012=,
20180129_110000.003,0,RJFA,,,,0,20180129110000,-1,-1,-1,-1,999,-1,6,-1,-1,-1,-1,,9999,0,0,2,FEW 20   BKN 35,1,2,-1,5,1019,RJFA 291100Z VRB06KT 9999 FEW020 BKN035 02/M05 Q1019 RMK     1CU020 5CU035 A3012=,
20180129_120000.003,0,RJFA,,,,0,20180129120000,-1,-1,-1,-1,240,-1,5,-1,-1,160,320,,9999,0,0,2,FEW 25   BKN 35,1,3,-1,4,1019,RJFA 291200Z 24005KT 160V320 9999 FEW025 BKN035 03/M04 Q1019     RMK 1CU025 6CU035 A3010=,
20180129_130000.003,0,RJFA,,,,0,20180129130000,-1,-1,-1,-1,330,-1,12,-1,-1,290,10,,9999,0,0,2,FEW 25   BKN 35,1,3,-1,7,1019,RJFA 291300Z 33012KT 290V010 9999 FEW025 BKN035 03/M07 Q1019     RMK 1CU025 7CU035 A3011=,
20180129_140000.003,0,RJFA,,,,0,20180129140000,-1,-1,-1,-1,320,-1,9,-1,-1,280,360,,9999,0,0,2,FEW 25   BKN 35,1,3,-1,8,1019,RJFA 291400Z 32009KT 280V360 9999 FEW025 BKN035 03/M08 Q1019     RMK 1CU025 5CU035 A3010=,
20180129_150000.003,0,RJFA,,,,0,20180129150000,-1,-1,-1,-1,280,-1,6,-1,-1,210,350,,9999,0,0,2,FEW 25   BKN 35,1,3,-1,8,1019,RJFA 291500Z 28006KT 210V350 9999 FEW025 BKN035 03/M08 Q1019     RMK 1CU025 7CU035 A3010=,
20180129_160000.003,0,RJFA,,,,0,20180129160000,-1,-1,-1,-1,310,-1,11,-1,-1,260,360,,9999,0,1,2,FEW 25   BKN 35,1,3,-1,7,1020,RJFA 291600Z 31011KT 260V360 9999 -SHSNRA FEW025 BKN035 03/M07     Q1020 RMK 1CU025 7CU035 A3013=,- SN RA SH
20180129_170000.003,0,RJFA,,,,0,20180129170000,-1,-1,-1,-1,320,-1,13,-1,-1,270,360,,9999,0,0,2,FEW 25   BKN 35,1,3,-1,7,1020,RJFA 291700Z 32013KT 270V360 9999 FEW025 BKN035 03/M07 Q1020     RMK 1CU025 7CU035 A3014=,
20180129_180000.003,0,RJFA,,,,0,20180129180000,-1,-1,-1,-1,310,-1,13,-1,-1,270,350,,9999,0,1,2,FEW 25   BKN 35,1,2,-1,7,1021,RJFA 291800Z 31013KT 270V350 9999 -SHSN FEW025 BKN035 02/M07     Q1021 RMK 2CU025 7CU035 A3017=,- SN SH
20180129_190000.003,0,RJFA,,,,0,20180129190000,-1,-1,-1,-1,310,-1,13,-1,23,250,10,,9999,0,0,3,FEW 25   BKN 35   BKN 45,1,1,-1,7,1022,RJFA 291900Z 31013G23KT 250V010 9999 FEW025 BKN035 BKN045     01/M07 Q1022 RMK 1CU025 5CU035 6SC045 A3018=,
20180129_200000.003,0,RJFA,,,,0,20180129200000,-1,-1,-1,-1,310,-1,11,-1,-1,270,10,,9999,0,0,2,FEW 20   BKN 30,1,1,-1,7,1022,RJFA 292000Z 31011KT 270V010 9999 FEW020 BKN030 01/M07 Q1022     RMK 1CU020 6CU030 A3018=,
20180129_210000.003,0,RJFA,,,,0,20180129210000,-1,-1,-1,-1,300,-1,11,-1,-1,250,350,,9999,0,0,2,FEW 25   BKN 35,1,1,-1,8,1022,RJFA 292100Z 30011KT 250V350 9999 FEW025 BKN035 01/M08 Q1022     RMK 1CU025 6CU035 A3020 04/01 R000 S000=,
20180129_220000.003,0,RJFA,,,,0,20180129220000,-1,-1,-1,-1,290,-1,10,-1,-1,240,350,,9999,0,0,2,FEW 25   BKN 35,1,1,-1,9,1023,RJFA 292200Z 29010KT 240V350 9999 FEW025 BKN035 01/M09 Q1023     RMK 1CU025 6CU035 A3021 RWY30 30014KT=,
20180129_230000.003,0,RJFA,,,,0,20180129230000,-1,-1,-1,-1,310,-1,14,-1,-1,270,340,,9999,0,0,2,FEW 30   BKN 40,1,1,-1,8,1023,RJFA 292300Z 31014KT 270V340 9999 FEW030 BKN040 01/M08 Q1023     RMK 1CU030 7CU040 A3022 VIRGA SE-S RWY30 31014KT=,
20180130_000000.003,0,RJFA,,,,0,20180130000000,-1,-1,-1,-1,300,-1,10,-1,-1,-1,-1,,9999,0,0,2,FEW 30   BKN 40,1,1,-1,8,1023,RJFA 300000Z 30010KT 9999 FEW030 BKN040 01/M08 Q1023 RMK     1CU030 7CU040 A3022 VIRGA SE-S RWY30 31012KT=,
20180130_010000.003,0,RJFA,,,,0,20180130010000,-1,-1,-1,-1,300,-1,10,-1,-1,250,340,,9999,0,0,2,FEW 30   BKN 40,1,2,-1,8,1024,RJFA 300100Z 30010KT 250V340 9999 FEW030 BKN040 02/M08 Q1024     RMK 1CU030 6CU040 A3024 RWY30 31011KT=,
20180130_020000.003,0,RJFA,,,,0,20180130020000,-1,-1,-1,-1,300,-1,12,-1,-1,250,360,,9999,0,0,2,FEW 30   BKN 40,1,2,-1,7,1024,RJFA 300200Z 30012KT 250V360 9999 FEW030 BKN040 02/M07 Q1024     RMK 1CU030 5CU040 A3025 RWY30 31013KT=,
20180130_030000.003,0,RJFA,,,,0,20180130030000,-1,-1,-1,-1,300,-1,12,-1,-1,250,350,,9999,0,1,2,FEW 25   BKN 40,1,2,-1,6,1023,RJFA 300300Z 30012KT 250V350 9999 VCSH FEW025 BKN040 02/M06     Q1023 RMK 1CU025 5CU040 A3023 RWY30 31012KT=,VC SH
20180130_040000.003,0,RJFA,,,,0,20180130040000,-1,-1,-1,-1,310,-1,9,-1,-1,280,340,,9999,0,0,2,FEW 25   BKN 40,1,3,-1,6,1023,RJFA 300400Z 31009KT 280V340 9999 FEW025 BKN040 03/M06 Q1023     RMK 1CU025 6CU040 A3021 VIRGA SE-S AND NW RWY30 31010KT=,
20180130_050000.003,0,RJFA,,,,0,20180130050000,-1,-1,-1,-1,310,-1,9,-1,-1,250,20,,9999,0,1,3,FEW 25   SCT 30   BKN 40,1,3,-1,5,1022,RJFA 300500Z 31009KT 250V020 9999 VCSH FEW025 SCT030 BKN040     03/M05 Q1022 RMK 1CU025 3CU030 6CU040 A3021 RWY30           31009KT=,VC SH
20180130_060000.004,0,RJFA,,,,0,20180130060000,-1,-1,-1,-1,310,-1,12,-1,-1,270,350,,9999,0,0,2,FEW 25   BKN 40,1,3,-1,7,1023,RJFA 300600Z 31012KT 270V350 9999 FEW025 BKN040 03/M07 Q1023     RMK 1CU025 6CU040 A3022 VIRGA SW-NW RWY30 32013KT=,
20180130_070000.003,0,RJFA,,,,0,20180130070000,-1,-1,-1,-1,280,-1,6,-1,-1,210,350,,9999,0,0,2,FEW 25   BKN 40,1,3,-1,7,1023,RJFA 300700Z 28006KT 210V350 9999 FEW025 BKN040 03/M07 Q1023     RMK 1CU025 5CU040 A3023 VIRGA N AND E RWY30 28011KT=,
20180130_080000.003,0,RJFA,,,,0,20180130080000,-1,-1,-1,-1,260,-1,4,-1,-1,180,350,,9999,0,0,2,FEW 30   BKN 40,1,3,-1,6,1024,RJFA 300800Z 26004KT 180V350 9999 FEW030 BKN040 03/M06 Q1024     RMK 1CU030 5CU040 A3026=,
20180130_090000.003,0,RJFA,,,,0,20180130090000,-1,-1,-1,-1,220,-1,4,-1,-1,180,290,,9999,0,0,2,FEW 30   BKN 40,1,2,-1,6,1024,RJFA 300900Z 22004KT 180V290 9999 FEW030 BKN040 02/M06 Q1024     RMK 1CU030 6CU040 A3026=,
20180130_100000.003,0,RJFA,,,,0,20180130100000,-1,-1,-1,-1,270,-1,3,-1,-1,210,350,,9999,0,0,2,FEW 30   SCT 40,1,2,-1,5,1024,RJFA 301000Z 27003KT 210V350 9999 FEW030 SCT040 02/M05 Q1024     RMK 1CU030 4CU040 A3026=,
20180130_110000.003,0,RJFA,,,,0,20180130110000,-1,-1,-1,-1,230,-1,3,-1,-1,170,310,,9999,0,0,2,FEW 30   SCT 45,1,2,-1,6,1025,RJFA 301100Z 23003KT 170V310 9999 FEW030 SCT045 02/M06 Q1025     RMK 1CU030 4SC045 A3027=,
20180130_120000.003,0,RJFA,,,,0,20180130120000,-1,-1,-1,-1,230,-1,3,-1,-1,180,280,,9999,0,0,2,FEW 30   BKN 45,1,2,-1,6,1025,RJFA 301200Z 23003KT 180V280 9999 FEW030 BKN045 02/M06 Q1025     RMK 1CU030 6SC045 A3028=,
20180130_130000.003,0,RJFA,,,,0,20180130130000,-1,-1,-1,-1,220,-1,3,-1,-1,-1,-1,,9999,0,0,2,FEW 30   BKN 45,1,1,-1,6,1025,RJFA 301300Z 22003KT 9999 FEW030 BKN045 01/M06 Q1025 RMK     1CU030 5SC045 A3029=,
20180130_140000.003,0,RJFA,,,,0,20180130140000,-1,-1,-1,-1,160,-1,6,-1,-1,-1,-1,,9999,0,0,2,FEW 30   BKN 45,-1,1,-1,5,1025,RJFA 301400Z 16006KT 9999 FEW030 BKN045 M01/M05 Q1025 RMK     1CU030 6SC045 A3029=,
20180130_150000.003,0,RJFA,,,,0,20180130150000,-1,-1,-1,-1,170,-1,6,-1,-1,-1,-1,,9999,0,0,2,FEW 30   SCT 45,-1,1,-1,5,1026,RJFA 301500Z 17006KT 9999 FEW030 SCT045 M01/M05 Q1026 RMK     1CU030 4SC045 A3030=,
20180130_160000.003,0,RJFA,,,,0,20180130160000,-1,-1,-1,-1,160,-1,7,-1,-1,-1,-1,,9999,0,0,1,FEW 30,-1,2,-1,5,1025,RJFA 301600Z 16007KT 9999 FEW030 M02/M05 Q1025 RMK 1CU030     A3029=,
20180130_170000.003,0,RJFA,,,,0,20180130170000,-1,-1,-1,-1,170,-1,9,-1,-1,-1,-1,,9999,0,0,1,FEW 40,-1,2,-1,5,1026,RJFA 301700Z 17009KT 9999 FEW040 M02/M05 Q1026 RMK 1CU040     A3030=,
20180130_180000.003,0,RJFA,,,,0,20180130180000,-1,-1,-1,-1,160,-1,9,-1,-1,-1,-1,,9999,0,0,1,FEW 40,-1,2,-1,5,1025,RJFA 301800Z 16009KT 9999 FEW040 M02/M05 Q1025 RMK 1CU040     A3029=,
20180130_190000.003,0,RJFA,,,,0,20180130190000,-1,-1,-1,-1,170,-1,8,-1,-1,-1,-1,,9999,0,0,1,FEW 40,-1,2,-1,5,1026,RJFA 301900Z 17008KT 9999 FEW040 M02/M05 Q1026 RMK 1CU040     A3030=,
20180130_200000.003,0,RJFA,,,,0,20180130200000,-1,-1,-1,-1,170,-1,9,-1,-1,-1,-1,,9999,0,0,2,FEW 40   SCT -9999,-1,2,-1,5,1026,RJFA 302000Z 17009KT 9999 FEW040 SCT/// M02/M05 Q1026 RMK     1CU040 A3030=,
20180130_210000.003,0,RJFA,,,,0,20180130210000,-1,-1,-1,-1,160,-1,10,-1,-1,-1,-1,,9999,0,0,2,FEW 30   SCT -9999,-1,2,-1,5,1027,RJFA 302100Z 16010KT 9999 FEW030 SCT/// M02/M05 Q1027 RMK     1CU030 A3033 04/M03 R000 S000=,
20180130_220000.003,0,RJFA,,,,0,20180130220000,-1,-1,-1,-1,160,-1,10,-1,-1,-1,-1,,9999,0,0,2,FEW 25   BKN 200,-1,2,-1,5,1027,RJFA 302200Z 16010KT 9999 FEW025 BKN200 M02/M05 Q1027 RMK     1CU025 A3034=,
20180130_230000.003,0,RJFA,,,,0,20180130230000,-1,-1,-1,-1,170,-1,10,-1,-1,-1,-1,,9999,0,0,2,FEW 30   BKN 200,-1,1,-1,5,1027,RJFA 302300Z 17010KT 9999 FEW030 BKN200 M01/M05 Q1027 RMK     1CU030 A3034=,
20180131_000000.003,0,RJFA,,,,0,20180131000000,-1,-1,-1,-1,170,-1,10,-1,-1,-1,-1,,9999,0,0,1,FEW 30,1,0,-1,5,1027,RJFA 310000Z 17010KT 9999 FEW030 00/M05 Q1027 RMK 1CU030     A3034=,
20180131_010000.003,0,RJFA,,,,0,20180131010000,-1,-1,-1,-1,170,-1,9,-1,-1,-1,-1,,9999,0,0,2,FEW 30   SCT 200,1,3,-1,3,1028,RJFA 310100Z 17009KT 9999 FEW030 SCT200 03/M03 Q1028 RMK     1CU030 A3036=,
20180131_020000.003,0,RJFA,,,,0,20180131020000,-1,-1,-1,-1,160,-1,8,-1,-1,-1,-1,,9999,0,0,2,FEW 30   BKN 200,1,4,-1,3,1027,RJFA 310200Z 16008KT 9999 FEW030 BKN200 04/M03 Q1027 RMK     1CU030 A3034=,
20180131_030000.003,0,RJFA,,,,0,20180131030000,-1,-1,-1,-1,150,-1,5,-1,-1,-1,-1,,9999,0,0,2,FEW 30   BKN 200,1,6,-1,3,1026,RJFA 310300Z 15005KT 9999 FEW030 BKN200 06/M03 Q1026 RMK     1CU030 A3031=,
20180131_040000.003,0,RJFA,,,,0,20180131040000,-1,-1,-1,-1,999,-1,2,-1,-1,-1,-1,,9999,0,0,2,FEW 30   BKN 200,1,6,-1,2,1024,RJFA 310400Z VRB02KT 9999 FEW030 BKN200 06/M02 Q1024 RMK     1CU030 A3026=,
20180131_050000.003,0,RJFA,,,,0,20180131050000,-1,-1,-1,-1,10,-1,5,-1,-1,-1,-1,,9999,0,0,3,FEW 30   SCT 150   BKN 180,1,6,-1,3,1024,RJFA 310500Z 01005KT 9999 FEW030 SCT150 BKN180 06/M03 Q1024     RMK 1CU030 3AC150 5AC180 A3025 RWY30 02005KT=,
20180131_060000.003,0,RJFA,,,,0,20180131060000,-1,-1,-1,-1,340,-1,5,-1,-1,-1,-1,,9999,0,0,3,FEW 30   SCT 180   BKN 200,1,7,-1,2,1024,RJFA 310600Z 34005KT 9999 FEW030 SCT180 BKN200 07/M02 Q1024     RMK 1CU030 3AC180 A3024 RWY30 01006KT=,
20180131_070000.004,0,RJFA,,,,0,20180131070000,-1,-1,-1,-1,360,-1,4,-1,-1,-1,-1,,9999,0,0,3,FEW 30   SCT 180   BKN 200,1,7,-1,2,1024,RJFA 310700Z 36004KT 9999 FEW030 SCT180 BKN200 07/M02 Q1024     RMK 1CU030 4AC180 A3024 RWY30 01005KT=,
20180131_080000.004,0,RJFA,,,,0,20180131080000,-1,-1,-1,-1,30,-1,5,-1,-1,-1,-1,,9999,0,0,3,FEW 30   SCT 180   BKN 200,1,6,-1,2,1024,RJFA 310800Z 03005KT 9999 FEW030 SCT180 BKN200 06/M02 Q1024     RMK 1CU030 3AC180 A3025 RWY30 04005KT=,
20180131_090000.003,0,RJFA,,,,0,20180131090000,-1,-1,-1,-1,50,-1,3,-1,-1,-1,-1,,9999,0,0,3,FEW 30   SCT 120   BKN -9999,1,6,-1,2,1024,RJFA 310900Z 05003KT 9999 FEW030 SCT120 BKN/// 06/M02 Q1024     RMK 1CU030 3AC120 A3025=,
20180131_100000.003,0,RJFA,,,,0,20180131100000,-1,-1,-1,-1,100,-1,3,-1,-1,-1,-1,,9999,0,0,3,FEW 30   SCT 40   BKN 120,1,5,-1,1,1023,RJFA 311000Z 10003KT 9999 FEW030 SCT040 BKN120 05/M01 Q1023     RMK 1CU030 3SC040 6AC120 A3023=,
20180131_110000.003,0,RJFA,,,,0,20180131110000,-1,-1,-1,-1,180,-1,4,-1,-1,-1,-1,,9999,0,0,3,FEW 30   SCT 40   BKN 120,1,4,-1,1,1024,RJFA 311100Z 18004KT 9999 FEW030 SCT040 BKN120 04/M01 Q1024     RMK 1CU030 3SC040 5AC120 A3025=,
20180131_120000.003,0,RJFA,,,,0,20180131120000,-1,-1,-1,-1,150,-1,3,-1,-1,-1,-1,,9999,0,0,3,FEW 30   BKN 120   BKN -9999,1,3,-1,1,1024,RJFA 311200Z 15003KT 9999 FEW030 BKN120 BKN/// 03/M01 Q1024     RMK 1CU030 6AC120 A3025=,
20180131_130000.004,0,RJFA,,,,0,20180131130000,-1,-1,-1,-1,150,-1,3,-1,-1,-1,-1,,9999,0,0,2,FEW 30   BKN 100,1,4,-1,1,1024,RJFA 311300Z 15003KT 9999 FEW030 BKN100 04/M01 Q1024 RMK     1CU030 7AC100 A3026=,
20180131_140000.003,0,RJFA,,,,0,20180131140000,-1,-1,-1,-1,130,-1,5,-1,-1,-1,-1,,9999,0,0,3,FEW 30   SCT 80   BKN 100,1,4,-1,1,1024,RJFA 311400Z 13005KT 9999 FEW030 SCT080 BKN100 04/M01 Q1024     RMK 1CU030 3AC080 7AS100 A3026=,
20180131_150000.003,0,RJFA,,,,0,20180131150000,-1,-1,-1,-1,160,-1,6,-1,-1,-1,-1,,9999,0,0,3,FEW 30   SCT 80   BKN 100,1,3,-1,1,1024,RJFA 311500Z 16006KT 9999 FEW030 SCT080 BKN100 03/M01 Q1024     RMK 1CU030 3AC080 7AS100 A3026=,
20180131_160000.003,0,RJFA,,,,0,20180131160000,-1,-1,-1,-1,20,-1,6,-1,-1,340,70,,9999,0,1,3,FEW 20   BKN 40   BKN 80,1,4,1,1,1024,RJFA 311600Z 02006KT 340V070 9999 -SHRA FEW020 BKN040 BKN080     04/01 Q1024 RMK 1CU020 5CU040 6AC080 A3026=,- RA SH
20180131_170000.003,0,RJFA,,,,0,20180131170000,-1,-1,-1,-1,999,-1,2,-1,-1,-1,-1,,9999,0,1,3,FEW 25   SCT 45   BKN 80,1,4,1,1,1024,RJFA 311700Z VRB02KT 9999 -RA FEW025 SCT045 BKN080 04/01 Q1024     RMK 1CU025 3SC045 6AC080 A3026=,- RA
20180131_180000.003,0,RJFA,,,,0,20180131180000,-1,-1,-1,-1,180,-1,5,-1,-1,160,230,,9999,0,1,3,FEW 20   SCT 25   BKN 50,1,3,1,1,1024,RJFA 311800Z 18005KT 160V230 9999 -SHRA FEW020 SCT025 BKN050     03/01 Q1024 RMK 1CU020 3CU025 7SC050 A3025=,- RA SH
20180131_190000.004,0,RJFA,,,,0,20180131190000,-1,-1,-1,-1,160,-1,6,-1,-1,120,180,,9999,0,1,3,FEW 20   BKN 30   BKN 50,1,2,1,1,1023,RJFA 311900Z 16006KT 120V180 9999 -SHRA FEW020 BKN030 BKN050     02/01 Q1023 RMK 2CU020 5CU030 6SC050 A3023=,- RA SH
20180131_200000.004,0,RJFA,,,,0,20180131200000,-1,-1,-1,-1,160,-1,6,-1,-1,-1,-1,,9999,0,1,3,FEW 20   BKN 30   BKN 50,1,2,1,0,1023,RJFA 312000Z 16006KT 9999 -SHRA FEW020 BKN030 BKN050 02/00     Q1023 RMK 2CU020 5CU030 6SC050 A3023=,- RA SH
20180131_210000.003,0,RJFA,,,,0,20180131210000,-1,-1,-1,-1,150,-1,6,-1,-1,-1,-1,,9999,0,1,3,FEW 20   BKN 30   BKN 50,1,2,1,1,1023,RJFA 312100Z 15006KT 9999 -SHRA FEW020 BKN030 BKN050 02/01     Q1023 RMK 2CU020 6CU030 6SC050 A3023 07/02 R000=,- RA SH
20180131_220000.003,0,RJFA,,,,0,20180131220000,-1,-1,-1,-1,190,-1,5,-1,-1,-1,-1,,9999,0,1,3,FEW 20   BKN 30   BKN 45,1,2,1,1,1024,RJFA 312200Z 19005KT 9999 -SHRA FEW020 BKN030 BKN045 02/01     Q1024 RMK 1CU020 6CU030 7SC045 A3025=,- RA SH
20180131_230000.003,0,RJFA,,,,0,20180131230000,-1,-1,-1,-1,150,-1,5,-1,-1,-1,-1,,9999,0,0,3,FEW 20   BKN 35   BKN 45,1,2,1,1,1024,RJFA 312300Z 15005KT 9999 FEW020 BKN035 BKN045 02/01 Q1024 RMK     1CU020 5CU035 7SC045 A3025=,
20180201_000000.004,0,RJFA,,,,0,20180201000000,-1,-1,-1,-1,160,-1,4,-1,-1,-1,-1,,9999,0,0,3,FEW 25   SCT 35   BKN 45,1,2,1,1,1024,RJFA 010000Z 16004KT 9999 FEW025 SCT035 BKN045 02/01 Q1024 RMK     1CU025 3CU035 7SC045 A3026=,
20180201_010000.003,0,RJFA,,,,0,20180201010000,-1,-1,-1,-1,160,-1,3,-1,-1,-1,-1,,9999,0,0,3,FEW 35   SCT 45   BKN 80,1,3,1,1,1024,RJFA 010100Z 16003KT 9999 FEW035 SCT045 BKN080 03/01 Q1024 RMK     1CU035 4SC045 5AC080 A3026=,
20180201_020000.003,0,RJFA,,,,0,20180201020000,-1,-1,-1,-1,140,-1,4,-1,-1,70,160,,9999,0,0,2,FEW 35   SCT 80,1,5,1,1,1024,RJFA 010200Z 14004KT 070V160 9999 FEW035 SCT080 05/01 Q1024     RMK 2CU035 3AC080 A3025=,
20180201_030000.004,0,RJFA,,,,0,20180201030000,-1,-1,-1,-1,60,-1,7,-1,-1,-1,-1,,9999,0,0,3,FEW 20   BKN 25   BKN 30,1,6,1,1,1024,RJFA 010300Z 06007KT 9999 FEW020 BKN025 BKN030 06/01 Q1024 RMK     1CU020 5CU025 6CU030 A3024=,
20180201_040000.004,0,RJFA,,,,0,20180201040000,-1,-1,-1,-1,999,-1,4,-1,-1,-1,-1,,9999,0,1,3,FEW 15   SCT 25   BKN 30,1,6,1,1,1023,RJFA 010400Z VRB04KT 9999 -SHRA FEW015 SCT025 BKN030 06/01     Q1023 RMK 2CU015 3CU025 6CU030 A3022=,- RA SH
20180201_050000.003,0,RJFA,,,,0,20180201050000,-1,-1,-1,-1,350,-1,5,-1,-1,300,50,,9999,0,0,2,FEW 15   BKN 30,1,6,1,1,1023,RJFA 010500Z 35005KT 300V050 9999 FEW015 BKN030 06/01 Q1023     RMK 1CU015 5CU030 A3021 RWY30 34004KT 320V070=,
20180201_060000.003,0,RJFA,,,,0,20180201060000,-1,-1,-1,-1,360,-1,14,-1,-1,-1,-1,,9999,0,1,3,FEW 15   BKN 20   BKN 30,1,6,1,2,1023,RJFA 010600Z 36014KT 9999 -SHRA FEW015 BKN020 BKN030 06/02     Q1023 RMK 2CU015 5CU020 6CU030 A3021 MAX WIND 19KT RWY30           36014/19KT=,- RA SH
20180201_070000.003,0,RJFA,,,,0,20180201070000,-1,-1,-1,-1,30,-1,8,-1,-1,-1,-1,,9999,0,0,3,FEW 15   BKN 20   BKN 50,1,6,1,3,1023,RJFA 010700Z 03008KT 9999 FEW015 BKN020 BKN050 06/03 Q1023 RMK     2CU015 5CU020 5SC050 A3022 RWY30 04007KT=,
20180201_080000.003,0,RJFA,,,,0,20180201080000,-1,-1,-1,-1,30,-1,9,-1,-1,-1,-1,,9999,0,0,2,FEW 15   SCT 20,1,6,1,3,1023,RJFA 010800Z 03009KT 9999 FEW015 SCT020 06/03 Q1023 RMK 1CU015     4CU020 A3023 RWY30 02008KT=,
20180201_090000.003,0,RJFA,,,,0,20180201090000,-1,-1,-1,-1,40,-1,7,-1,-1,-1,-1,,9999,0,1,3,FEW 20   BKN 25   BKN 50,1,6,1,2,1024,RJFA 010900Z 04007KT 9999 -SHGSRA FEW020 BKN025 BKN050 06/02     Q1024 RMK 2CU020 5CU025 5SC050 A3024 RWY30 06004KT=,- GS RA SH
20180201_100000.003,0,RJFA,,,,0,20180201100000,-1,-1,-1,-1,40,-1,9,-1,-1,-1,-1,,9999,0,0,2,FEW 20   BKN 25,1,6,1,1,1024,RJFA 011000Z 04009KT 9999 FEW020 BKN025 06/01 Q1024 RMK 1CU020     5CU025 A3025=,
20180201_110000.003,0,RJFA,,,,0,20180201110000,-1,-1,-1,-1,70,-1,4,-1,-1,-1,-1,,9999,0,0,2,FEW 20   SCT 30,1,5,1,1,1025,RJFA 011100Z 07004KT 9999 FEW020 SCT030 05/01 Q1025 RMK 1CU020     3CU030 A3027=,
20180201_120000.003,0,RJFA,,,,0,20180201120000,-1,-1,-1,-1,130,-1,4,-1,-1,-1,-1,,9999,0,0,3,FEW 20   SCT 30   BKN 50,1,3,1,1,1024,RJFA 011200Z 13004KT 9999 FEW020 SCT030 BKN050 03/01 Q1024 RMK     1CU020 3CU030 5SC050 A3025=,
20180201_130000.003,0,RJFA,,,,0,20180201130000,-1,-1,-1,-1,180,-1,3,-1,-1,-1,-1,,9999,0,0,2,FEW 30   BKN 50,1,4,1,1,1026,RJFA 011300Z 18003KT 9999 FEW030 BKN050 04/01 Q1026 RMK 2CU030     6SC050 A3030=,
20180201_140000.003,0,RJFA,,,,0,20180201140000,-1,-1,-1,-1,170,-1,5,-1,-1,-1,-1,,9999,0,1,3,FEW 20   SCT 30   BKN 50,1,3,1,2,1026,RJFA 011400Z 17005KT 9999 -SHRA FEW020 SCT030 BKN050 03/02     Q1026 RMK 1CU020 3CU030 7SC050 A3030=,- RA SH
20180201_150000.003,0,RJFA,,,,0,20180201150000,-1,-1,-1,-1,160,-1,6,-1,-1,-1,-1,,9999,0,0,2,FEW 30   BKN 50,1,2,1,1,1025,RJFA 011500Z 16006KT 9999 FEW030 BKN050 02/01 Q1025 RMK 1CU030     6SC050 A3028=,
20180201_160000.003,0,RJFA,,,,0,20180201160000,-1,-1,-1,-1,170,-1,8,-1,-1,-1,-1,,9999,0,0,2,FEW 30   BKN 50,1,2,1,0,1024,RJFA 011600Z 17008KT 9999 FEW030 BKN050 02/00 Q1024 RMK 1CU030     5SC050 A3025=,
20180201_170000.003,0,RJFA,,,,0,20180201170000,-1,-1,-1,-1,180,-1,5,-1,-1,-1,-1,,9999,0,1,3,FEW 20   BKN 30   BKN 50,1,2,1,1,1025,RJFA 011700Z 18005KT 9999 -SHRA FEW020 BKN030 BKN050 02/01     Q1025 RMK 2CU020 5CU030 7SC050 A3028=,- RA SH
20180201_180000.003,0,RJFA,,,,0,20180201180000,-1,-1,-1,-1,160,-1,7,-1,-1,-1,-1,,9999,0,0,3,FEW 20   BKN 30   BKN 45,1,1,1,1,1024,RJFA 011800Z 16007KT 9999 FEW020 BKN030 BKN045 01/01 Q1024 RMK     1CU020 5CU030 7SC045 A3025=,
20180201_190000.004,0,RJFA,,,,0,20180201190000,-1,-1,-1,-1,150,-1,7,-1,-1,-1,-1,,9999,0,0,2,FEW 20   BKN 45,1,1,1,0,1024,RJFA 011900Z 15007KT 9999 FEW020 BKN045 01/00 Q1024 RMK 1CU020     7SC045 A3024=,
20180201_200000.004,0,RJFA,,,,0,20180201200000,-1,-1,-1,-1,150,-1,6,-1,-1,-1,-1,,9999,0,0,2,FEW 30   SCT 45,1,1,-1,0,1023,RJFA 012000Z 15006KT 9999 FEW030 SCT045 01/M00 Q1023 RMK     1CU030 3SC045 A3023=,
20180201_210000.003,0,RJFA,,,,0,20180201210000,-1,-1,-1,-1,180,-1,6,-1,-1,-1,-1,,9999,0,0,2,FEW 20   SCT 45,1,0,-1,0,1023,RJFA 012100Z 18006KT 9999 FEW020 SCT045 00/M00 Q1023 RMK     1CU020 3SC045 A3022 08/00 R000 S000=,
20180201_220000.003,0,RJFA,,,,0,20180201220000,-1,-1,-1,-1,170,-1,9,-1,-1,-1,-1,,9999,0,0,2,FEW 20   BKN -9999,1,0,-1,1,1024,RJFA 012200Z 17009KT 9999 FEW020 BKN/// 00/M01 Q1024 RMK     1CU020 A3024=,
20180201_230000.004,0,RJFA,,,,0,20180201230000,-1,-1,-1,-1,160,-1,7,-1,-1,-1,-1,,9999,0,0,3,FEW 30   SCT 35   BKN 200,1,0,-1,1,1024,RJFA 012300Z 16007KT 9999 FEW030 SCT035 BKN200 00/M01 Q1024     RMK 1CU030 3CU035 A3025=,
20180202_000000.003,0,RJFA,,,,0,20180202000000,-1,-1,-1,-1,160,-1,8,-1,-1,-1,-1,,9999,0,0,3,FEW 30   SCT 45   BKN 200,1,2,1,1,1025,RJFA 020000Z 16008KT 9999 FEW030 SCT045 BKN200 02/01 Q1025 RMK     2CU030 4SC045 A3027=,
20180202_010000.003,0,RJFA,,,,0,20180202010000,-1,-1,-1,-1,180,-1,5,-1,-1,-1,-1,,9999,0,1,3,FEW 20   BKN 30   BKN 45,1,3,1,2,1025,RJFA 020100Z 18005KT 9999 -SHRA FEW020 BKN030 BKN045 03/02     Q1025 RMK 2CU020 5CU030 6SC045 A3028=,- RA SH
20180202_020000.003,0,RJFA,,,,0,20180202020000,-1,-1,-1,-1,190,-1,3,-1,-1,-1,-1,,9999,0,1,3,FEW 20   SCT 30   BKN 40,1,5,1,4,1024,RJFA 020200Z 19003KT 9999 -SHRA FEW020 SCT030 BKN040 05/04     Q1024 RMK 1CU020 4CU030 6CU040 A3026=,- RA SH
20180202_030000.003,0,RJFA,,,,0,20180202030000,-1,-1,-1,-1,150,-1,7,-1,-1,-1,-1,,9999,0,1,3,FEW 20   SCT 30   BKN 40,1,5,1,2,1023,RJFA 020300Z 15007KT 9999 -SHRA FEW020 SCT030 BKN040 05/02     Q1023 RMK 1CU020 3CU030 6CU040 A3024=,- RA SH
20180202_040000.003,0,RJFA,,,,0,20180202040000,-1,-1,-1,-1,160,-1,5,-1,-1,-1,-1,,9999,0,1,3,FEW 15   BKN 25   BKN 40,1,6,1,3,1023,RJFA 020400Z 16005KT 9999 -SHRA FEW015 BKN025 BKN040 06/03     Q1023 RMK 1CU015 5CU025 7CU040 A3022=,- RA SH
20180202_050000.002,0,RJFA,,,,0,20180202050000,-1,-1,-1,-1,210,-1,4,-1,-1,180,270,,9999,0,1,3,FEW 15   SCT 20   BKN 25,1,6,1,4,1022,RJFA 020500Z 21004KT 180V270 9999 -SHRA FEW015 SCT020 BKN025     06/04 Q1022 RMK 1CU015 3CU020 5CU025 A3021 RWY30 22003KT           170V270=,- RA SH
20180202_060000.003,0,RJFA,,,,0,20180202060000,-1,-1,-1,-1,320,-1,4,-1,-1,290,360,,9999,0,1,3,FEW 8   SCT 15   BKN 25,1,6,1,3,1022,RJFA 020600Z 32004KT 290V360 9999 -SHRA FEW008 SCT015 BKN025     06/03 Q1022 RMK 1ST008 3CU015 5CU025 A3021 VIS W 9KM           1ST008 SW RWY30 32005KT=,- RA SH
20180202_070000.003,0,RJFA,,,,0,20180202070000,-1,-1,-1,-1,350,-1,11,-1,-1,-1,-1,,9999,0,0,3,FEW 6   SCT 15   BKN 25,1,7,1,4,1022,RJFA 020700Z 35011KT 9999 FEW006 SCT015 BKN025 07/04 Q1022 RMK     1ST006 4CU015 5CU025 A3020 1ST006 SW RWY30 01010KT=,
20180202_080000.003,0,RJFA,,,,0,20180202080000,-1,-1,-1,-1,60,-1,7,-1,-1,-1,-1,,9999,0,1,3,FEW 6   SCT 15   BKN 25,1,5,1,4,1022,RJFA 020800Z 06007KT 9999 -SHRA FEW006 SCT015 BKN025 05/04     Q1022 RMK 1ST006 3CU015 5CU025 A3019 1ST006 S=,- RA SH
20180202_090000.003,0,RJFA,,,,0,20180202090000,-1,-1,-1,-1,330,-1,10,-1,-1,-1,-1,,9999,0,0,3,FEW 6   SCT 25   BKN 35,1,7,1,2,1022,RJFA 020900Z 33010KT 9999 FEW006 SCT025 BKN035 07/02 Q1022 RMK     1ST006 4CU025 7CU035 A3019=,
20180202_100000.004,0,RJFA,,,,0,20180202100000,-1,-1,-1,-1,330,-1,10,-1,-1,-1,-1,,9999,0,0,3,FEW 15   BKN 35   BKN 45,1,7,1,1,1022,RJFA 021000Z 33010KT 9999 FEW015 BKN035 BKN045 07/01 Q1022 RMK     1CU015 6CU035 7SC045 A3019=,
20180202_110000.003,0,RJFA,,,,0,20180202110000,-1,-1,-1,-1,330,-1,10,-1,-1,-1,-1,,9999,0,0,3,FEW 15   BKN 35   BKN 45,1,7,1,1,1022,RJFA 021100Z 33010KT 9999 FEW015 BKN035 BKN045 07/01 Q1022 RMK     1CU015 6CU035 7SC045 A3020=,
20180202_120000.003,0,RJFA,,,,0,20180202120000,-1,-1,-1,-1,310,-1,9,-1,-1,-1,-1,,9999,0,0,3,FEW 25   BKN 35   BKN 45,1,7,-1,0,1022,RJFA 021200Z 31009KT 9999 FEW025 BKN035 BKN045 07/M00 Q1022     RMK 1CU025 6CU035 7SC045 A3020=,
20180202_130000.004,0,RJFA,,,,0,20180202130000,-1,-1,-1,-1,280,-1,6,-1,-1,240,340,,9999,0,0,3,FEW 25   BKN 35   BKN 45,1,7,-1,1,1022,RJFA 021300Z 28006KT 240V340 9999 FEW025 BKN035 BKN045 07/M01     Q1022 RMK 1CU025 5CU035 6SC045 A3020=,
20180202_140000.003,0,RJFA,,,,0,20180202140000,-1,-1,-1,-1,150,-1,4,-1,-1,-1,-1,,9999,0,0,3,FEW 25   SCT 35   BKN 45,1,4,1,3,1022,RJFA 021400Z 15004KT 9999 FEW025 SCT035 BKN045 04/03 Q1022 RMK     1CU025 4CU035 6SC045 A3019=,
20180202_150000.003,0,RJFA,,,,0,20180202150000,-1,-1,-1,-1,999,-1,2,-1,-1,-1,-1,,9999,0,0,3,FEW 25   SCT 35   BKN 50,1,4,1,3,1022,RJFA 021500Z VRB02KT 9999 FEW025 SCT035 BKN050 04/03 Q1022 RMK     1CU025 4CU035 6SC050 A3018=,
20180202_160000.003,0,RJFA,,,,0,20180202160000,-1,-1,-1,-1,999,-1,2,-1,-1,-1,-1,,9999,0,1,3,FEW 20   BKN 30   BKN 50,1,4,1,3,1022,RJFA 021600Z VRB02KT 9999 -SHRA FEW020 BKN030 BKN050 04/03     Q1022 RMK 1CU020 5CU030 7SC050 A3018=,- RA SH
20180202_170000.003,0,RJFA,,,,0,20180202170000,-1,-1,-1,-1,180,-1,4,-1,-1,-1,-1,,9999,0,1,3,FEW 20   BKN 30   BKN 50,1,4,1,2,1021,RJFA 021700Z 18004KT 9999 -SHRA FEW020 BKN030 BKN050 04/02     Q1021 RMK 1CU020 6CU030 6SC050 A3018=,- RA SH
20180202_180000.004,0,RJFA,,,,0,20180202180000,-1,-1,-1,-1,140,-1,6,-1,-1,-1,-1,,9999,0,0,3,FEW 20   SCT 30   BKN 50,1,3,1,3,1021,RJFA 021800Z 14006KT 9999 FEW020 SCT030 BKN050 03/03 Q1021 RMK     1CU020 3CU030 6SC050 A3017=,
20180202_190000.004,0,RJFA,,,,0,20180202190000,-1,-1,-1,-1,999,-1,12,-1,-1,-1,-1,,9999,0,1,3,FEW 20   BKN 30   BKN 50,1,3,1,2,1021,RJFA 021900Z VRB12KT 9999 -SHRA FEW020 BKN030 BKN050 03/02     Q1021 RMK 1CU020 5CU030 5SC050 A3017=,- RA SH
20180202_200000.004,0,RJFA,,,,0,20180202200000,-1,-1,-1,-1,330,-1,15,-1,-1,-1,-1,,9999,0,0,2,FEW 15   BKN 50,1,6,-1,1,1021,RJFA 022000Z 33015KT 9999 FEW015 BKN050 06/M01 Q1021 RMK     1CU015 5SC050 A3016=,
20180202_210000.003,0,RJFA,,,,0,20180202210000,-1,-1,-1,-1,330,-1,11,-1,-1,-1,-1,,9999,0,0,2,FEW 15   BKN 50,1,6,-1,1,1021,RJFA 022100Z 33011KT 9999 FEW015 BKN050 06/M01 Q1021 RMK     1CU015 5SC050 A3016 07/03 R000 S000=,
20180202_220000.003,0,RJFA,,,,0,20180202220000,-1,-1,-1,-1,320,-1,12,-1,-1,280,340,,9999,0,1,2,FEW 15   SCT 35,1,6,-1,4,1022,RJFA 022200Z 32012KT 280V340 9999 VCSH FEW015 SCT035 06/M04     Q1022 RMK 1CU015 3CU035 A3018=,VC SH
20180202_230000.004,0,RJFA,,,,0,20180202230000,-1,-1,-1,-1,330,-1,10,-1,-1,-1,-1,,9999,0,0,2,FEW 25   SCT 35,1,6,-1,5,1022,RJFA 022300Z 33010KT 9999 FEW025 SCT035 06/M05 Q1022 RMK     1CU025 4CU035 A3018=,
20180203_000000.003,0,RJFA,,,,0,20180203000000,-1,-1,-1,-1,320,-1,9,-1,-1,-1,-1,,9999,0,0,3,FEW 25   BKN 35   BKN 230,1,6,-1,4,1022,RJFA 030000Z 32009KT 9999 FEW025 BKN035 BKN230 06/M04 Q1022     RMK 1CU025 5CU035 A3019=,
20180203_010000.004,0,RJFA,,,,0,20180203010000,-1,-1,-1,-1,320,-1,10,-1,-1,270,350,,9999,0,0,3,FEW 25   BKN 35   BKN 230,1,7,-1,4,1021,RJFA 030100Z 32010KT 270V350 9999 FEW025 BKN035 BKN230 07/M04     Q1021 RMK 1CU025 6CU035 A3018=,
20180203_020000.003,0,RJFA,,,,0,20180203020000,-1,-1,-1,-1,310,-1,10,-1,-1,270,340,,9999,0,0,3,FEW 25   BKN 35   BKN 230,1,7,-1,4,1021,RJFA 030200Z 31010KT 270V340 9999 FEW025 BKN035 BKN230 07/M04     Q1021 RMK 1CU025 5CU035 A3018=,
20180203_030000.003,0,RJFA,,,,0,20180203030000,-1,-1,-1,-1,300,-1,12,-1,-1,260,330,,9999,0,1,2,FEW 25   SCT 35,1,7,-1,4,1021,RJFA 030300Z 30012KT 260V330 9999 VCSH FEW025 SCT035 07/M04     Q1021 RMK 1CU025 3CU035 A3017=,VC SH
20180203_040000.003,0,RJFA,,,,0,20180203040000,-1,-1,-1,-1,290,-1,8,-1,-1,250,350,,9999,0,1,3,FEW 20   SCT 25   BKN 35,1,6,-1,4,1021,RJFA 030400Z 29008KT 250V350 9999 VCSH FEW020 SCT025 BKN035     06/M04 Q1021 RMK 1CU020 3CU025 7CU035 A3015=,VC SH
20180203_050000.003,0,RJFA,,,,0,20180203050000,-1,-1,-1,-1,999,-1,8,-1,-1,-1,-1,,9999,0,1,4,FEW 15   SCT 25   FEW 30 TCU  BKN 35,1,5,-1,2,1020,RJFA 030500Z VRB08KT 9999 -SHGSSN FEW015 SCT025 FEW030TCU     BKN035 05/M02 Q1020 RMK 1CU015 3CU025 2TCU030 7CU035           A3015 VIS S-SW 8KM TCU S-SW MOV SE=,- GS SN SH
20180203_060000.003,0,RJFA,,,,0,20180203060000,-1,-1,-1,-1,270,-1,8,-1,-1,220,340,,9999,0,0,3,FEW 25   SCT 35   BKN 40,1,4,-1,1,1021,RJFA 030600Z 27008KT 220V340 9999 FEW025 SCT035 BKN040 04/M01     Q1021 RMK 1CU025 4CU035 7CU040 A3015=,
20180203_070000.004,0,RJFA,,,,0,20180203070000,-1,-1,-1,-1,999,-1,6,-1,-1,-1,-1,,9999,0,0,3,FEW 20   SCT 30   BKN 40,1,4,-1,3,1021,RJFA 030700Z VRB06KT 9999 FEW020 SCT030 BKN040 04/M03 Q1021     RMK 1CU020 3CU030 7CU040 A3016=,
20180203_080000.003,0,RJFA,,,,0,20180203080000,-1,-1,-1,-1,260,-1,4,-1,-1,180,340,,9999,0,1,3,FEW 15   SCT 30   BKN 40,1,4,-1,3,1021,RJFA 030800Z 26004KT 180V340 9999 VCSH FEW015 SCT030 BKN040     04/M03 Q1021 RMK 1CU015 4CU030 5CU040 A3015=,VC SH
20180203_090000.003,0,RJFA,,,,0,20180203090000,-1,-1,-1,-1,290,-1,9,-1,19,250,330,,9999,0,0,2,FEW 30   BKN 40,1,3,-1,7,1021,RJFA 030900Z 29009G19KT 250V330 9999 FEW030 BKN040 03/M07     Q1021 RMK 2CU030 5CU040 A3016=,
20180203_100000.003,0,RJFA,,,,0,20180203100000,-1,-1,-1,-1,290,-1,8,-1,-1,240,320,,9999,0,0,2,FEW 30   BKN 40,1,3,-1,7,1021,RJFA 031000Z 29008KT 240V320 9999 FEW030 BKN040 03/M07 Q1021     RMK 1CU030 5CU040 A3017=,
20180203_110000.003,0,RJFA,,,,0,20180203110000,-1,-1,-1,-1,290,-1,8,-1,-1,240,330,,9999,0,0,2,FEW 30   BKN 40,1,3,-1,7,1021,RJFA 031100Z 29008KT 240V330 9999 FEW030 BKN040 03/M07 Q1021     RMK 1CU030 5CU040 A3017=,
20180203_120000.003,0,RJFA,,,,0,20180203120000,-1,-1,-1,-1,300,-1,10,-1,-1,250,340,,9999,0,0,2,FEW 30   BKN 45,1,3,-1,8,1021,RJFA 031200Z 30010KT 250V340 9999 FEW030 BKN045 03/M08 Q1021     RMK 1CU030 5SC045 A3018=,
20180203_130000.003,0,RJFA,,,,0,20180203130000,-1,-1,-1,-1,290,-1,9,-1,-1,200,320,,9999,0,0,2,FEW 30   BKN 45,1,3,-1,7,1022,RJFA 031300Z 29009KT 200V320 9999 FEW030 BKN045 03/M07 Q1022     RMK 1CU030 6SC045 A3018=,
20180203_140000.003,0,RJFA,,,,0,20180203140000,-1,-1,-1,-1,290,-1,10,-1,-1,220,330,,9999,0,0,2,FEW 30   BKN 45,1,3,-1,7,1022,RJFA 031400Z 29010KT 220V330 9999 FEW030 BKN045 03/M07 Q1022     RMK 1CU030 7SC045 A3018=,
20180203_150000.003,0,RJFA,,,,0,20180203150000,-1,-1,-1,-1,280,-1,10,-1,20,250,320,,9999,0,0,2,FEW 30   BKN 50,1,3,-1,7,1022,RJFA 031500Z 28010G20KT 250V320 9999 FEW030 BKN050 03/M07     Q1022 RMK 1CU030 7SC050 A3018=,
20180203_160000.003,0,RJFA,,,,0,20180203160000,-1,-1,-1,-1,300,-1,19,-1,33,250,330,,9999,0,0,3,FEW 30   SCT 40   BKN 50,1,2,-1,7,1022,RJFA 031600Z 30019G33KT 250V330 9999 FEW030 SCT040 BKN050     02/M07 Q1022 RMK 1CU030 3CU040 6SC050 A3019=,
20180203_170000.003,0,RJFA,,,,0,20180203170000,-1,-1,-1,-1,300,-1,16,-1,27,260,330,,9999,0,0,2,FEW 30   SCT 50,1,1,-1,9,1022,RJFA 031700Z 30016G27KT 260V330 9999 FEW030 SCT050 01/M09     Q1022 RMK 1CU030 3SC050 A3019=,
20180203_180000.004,0,RJFA,,,,0,20180203180000,-1,-1,-1,-1,300,-1,15,-1,25,260,320,,9999,0,0,2,FEW 30   BKN 40,1,0,-1,8,1022,RJFA 031800Z 30015G25KT 260V320 9999 FEW030 BKN040 00/M08     Q1022 RMK 1CU030 5CU040 A3020=,
20180203_190000.003,0,RJFA,,,,0,20180203190000,-1,-1,-1,-1,310,-1,15,-1,25,270,330,,9999,0,0,2,FEW 30   BKN 40,-1,0,-1,9,1022,RJFA 031900Z 31015G25KT 270V330 9999 FEW030 BKN040 M00/M09     Q1022 RMK 1CU030 6CU040 A3020=,
20180203_200000.003,0,RJFA,,,,0,20180203200000,-1,-1,-1,-1,300,-1,15,-1,32,270,330,,9999,0,0,2,FEW 30   BKN 40,-1,0,-1,7,1022,RJFA 032000Z 30015G32KT 270V330 9999 FEW030 BKN040 M00/M07     Q1022 RMK 1CU030 6CU040 A3021=,
20180203_210000.003,0,RJFA,,,,0,20180203210000,-1,-1,-1,-1,300,-1,15,-1,25,260,330,,9999,0,1,3,FEW 25   BKN 30   BKN 40,-1,1,-1,8,1022,RJFA 032100Z 30015G25KT 260V330 9999 -SHSN FEW025 BKN030     BKN040 M01/M08 Q1022 RMK 1CU025 5CU030 7CU040 A3021           30037KT/1910 08/M01 R000 S000=,- SN SH
20180203_220000.003,0,RJFA,,,,0,20180203220000,-1,-1,-1,-1,300,-1,13,-1,29,250,350,,9999,0,1,3,FEW 25   BKN 30   BKN 40,-1,1,-1,10,1023,RJFA 032200Z 30013G29KT 250V350 9999 -SHSN FEW025 BKN030     BKN040 M01/M10 Q1023 RMK 1CU025 5CU030 7CU040 A3021=,- SN SH
20180203_230000.003,0,RJFA,,,,0,20180203230000,-1,-1,-1,-1,290,-1,12,-1,23,240,330,,9999,0,1,3,FEW 10   BKN 25   BKN 35,-1,1,-1,8,1023,RJFA 032300Z 29012G23KT 240V330 9999 -SHSN FEW010 BKN025     BKN035 M01/M08 Q1023 RMK 1CU010 5CU025 6CU035 A3022=,- SN SH
20180204_000000.003,0,RJFA,,,,0,20180204000000,-1,-1,-1,-1,300,-1,15,-1,27,230,330,,9999,0,0,2,FEW 15   BKN 35,-1,0,-1,11,1023,RJFA 040000Z 30015G27KT 230V330 9999 FEW015 BKN035 M00/M11     Q1023 RMK 1CU015 5CU035 A3022=,
20180204_010000.003,0,RJFA,,,,0,20180204010000,-1,-1,-1,-1,300,-1,20,-1,-1,-1,-1,,9999,0,1,2,FEW 15   BKN 35,1,1,-1,8,1023,RJFA 040100Z 30020KT 9999 VCSH FEW015 BKN035 01/M08 Q1023 RMK     1CU015 5CU035 A3023 WIND BY EQPT/30=,VC SH
20180204_020000.003,0,RJFA,,,,0,20180204020000,-1,-1,-1,-1,290,-1,14,-1,28,250,320,,9999,0,1,3,FEW 15   SCT 25   BKN 35,1,1,-1,9,1023,RJFA 040200Z 29014G28KT 250V320 9999 -SHSN FEW015 SCT025     BKN035 01/M09 Q1023 RMK 1CU015 3CU025 6CU035 A3022=,- SN SH
20180204_030000.003,0,RJFA,,,,0,20180204030000,-1,-1,-1,-1,290,-1,11,-1,24,220,330,,9999,0,1,3,FEW 15   SCT 25   BKN 35,1,1,-1,10,1023,RJFA 040300Z 29011G24KT 220V330 9999 -SHSN FEW015 SCT025     BKN035 01/M10 Q1023 RMK 1CU015 3CU025 7CU035 A3021=,- SN SH
20180204_040000.003,0,RJFA,,,,0,20180204040000,-1,-1,-1,-1,300,-1,14,-1,25,260,320,,9999,0,1,3,FEW 15   SCT 25   BKN 35,1,0,-1,5,1022,RJFA 040400Z 30014G25KT 260V320 9999 -SHSN FEW015 SCT025     BKN035 00/M05 Q1022 RMK 1CU015 3CU025 7CU035 A3019=,- SN SH
20180204_050000.003,0,RJFA,,,,0,20180204050000,-1,-1,-1,-1,290,-1,12,-1,23,240,330,,9999,0,1,3,FEW 15   SCT 25   BKN 35,1,1,-1,8,1022,RJFA 040500Z 29012G23KT 240V330 9999 -SHSN FEW015 SCT025     BKN035 01/M08 Q1022 RMK 1CU015 3CU025 7CU035 A3018=,- SN SH
20180204_060000.003,0,RJFA,,,,0,20180204060000,-1,-1,-1,-1,290,-1,12,-1,22,250,320,,9999,0,1,3,FEW 15   SCT 25   BKN 35,1,1,-1,9,1022,RJFA 040600Z 29012G22KT 250V320 9999 -SHSN FEW015 SCT025     BKN035 01/M09 Q1022 RMK 1CU015 3CU025 7CU035 A3019=,- SN SH
20180204_070000.003,0,RJFA,,,,0,20180204070000,-1,-1,-1,-1,300,-1,13,-1,24,260,330,,9999,0,1,3,FEW 15   SCT 25   BKN 35,1,1,-1,10,1022,RJFA 040700Z 30013G24KT 260V330 9999 VCSH FEW015 SCT025 BKN035     01/M10 Q1022 RMK 1CU015 3CU025 7CU035 A3019=,VC SH
20180204_080000.003,0,RJFA,,,,0,20180204080000,-1,-1,-1,-1,290,-1,8,-1,19,230,340,,9999,0,1,3,FEW 15   SCT 25   BKN 35,1,1,-1,9,1022,RJFA 040800Z 29008G19KT 230V340 9999 VCSH FEW015 SCT025 BKN035     01/M09 Q1022 RMK 1CU015 3CU025 7CU035 A3019=,VC SH
20180204_090000.003,0,RJFA,,,,0,20180204090000,-1,-1,-1,-1,280,-1,8,-1,18,220,350,,9999,0,0,3,FEW 15   SCT 25   BKN 35,1,0,-1,8,1022,RJFA 040900Z 28008G18KT 220V350 9999 FEW015 SCT025 BKN035     00/M08 Q1022 RMK 1CU015 3CU025 7CU035 A3020 VIRGA S=,
20180204_100000.003,0,RJFA,,,,0,20180204100000,-1,-1,-1,-1,290,-1,9,-1,19,250,320,,9999,0,0,2,FEW 25   BKN 40,1,1,-1,10,1023,RJFA 041000Z 29009G19KT 250V320 9999 FEW025 BKN040 01/M10     Q1023 RMK 2CU025 7CU040 A3021=,
20180204_110000.004,0,RJFA,,,,0,20180204110000,-1,-1,-1,-1,290,-1,9,-1,-1,250,330,,9999,0,0,2,FEW 25   BKN 40,1,1,-1,11,1023,RJFA 041100Z 29009KT 250V330 9999 FEW025 BKN040 01/M11 Q1023     RMK 1CU025 7CU040 A3022=,
20180204_120000.003,0,RJFA,,,,0,20180204120000,-1,-1,-1,-1,280,-1,10,-1,-1,230,340,,9999,0,0,2,FEW 25   BKN 40,1,1,-1,12,1023,RJFA 041200Z 28010KT 230V340 9999 FEW025 BKN040 01/M12 Q1023     RMK 1CU025 7CU040 A3021=,
20180204_130000.003,0,RJFA,,,,0,20180204130000,-1,-1,-1,-1,300,-1,10,-1,20,250,340,,9999,0,0,2,FEW 20   BKN 40,1,1,-1,10,1023,RJFA 041300Z 30010G20KT 250V340 9999 FEW020 BKN040 01/M10     Q1023 RMK 1CU020 7CU040 A3021=,
20180204_140000.003,0,RJFA,,,,0,20180204140000,-1,-1,-1,-1,300,-1,11,-1,-1,250,330,,9999,0,0,2,FEW 20   BKN 40,1,1,-1,10,1022,RJFA 041400Z 30011KT 250V330 9999 FEW020 BKN040 01/M10 Q1022     RMK 1CU020 6CU040 A3021=,
20180204_150000.003,0,RJFA,,,,0,20180204150000,-1,-1,-1,-1,280,-1,8,-1,-1,220,340,,9999,0,1,3,FEW 20   SCT 30   BKN 40,1,1,-1,11,1022,RJFA 041500Z 28008KT 220V340 9999 -SHSN FEW020 SCT030 BKN040     01/M11 Q1022 RMK 1CU020 3CU030 6CU040 A3021=,- SN SH
20180204_160000.003,0,RJFA,,,,0,20180204160000,-1,-1,-1,-1,300,-1,12,-1,-1,-1,-1,,9999,0,1,3,FEW 20   SCT 30   BKN 40,1,1,-1,8,1022,RJFA 041600Z 30012KT 9999 -SHSN FEW020 SCT030 BKN040 01/M08     Q1022 RMK 1CU020 3CU030 7CU040 A3019=,- SN SH
20180204_170000.003,0,RJFA,,,,0,20180204170000,-1,-1,-1,-1,300,-1,14,-1,24,230,330,,9999,0,1,3,FEW 20   SCT 30   BKN 40,1,1,-1,8,1022,RJFA 041700Z 30014G24KT 230V330 9999 -SHSN FEW020 SCT030     BKN040 01/M08 Q1022 RMK 1CU020 4CU030 6CU040 A3019=,- SN SH
20180204_180000.004,0,RJFA,,,,0,20180204180000,-1,-1,-1,-1,300,-1,14,-1,-1,260,330,,9999,0,1,3,FEW 20   SCT 30   BKN 40,1,0,-1,8,1023,RJFA 041800Z 30014KT 260V330 9999 -SHSN FEW020 SCT030 BKN040     00/M08 Q1023 RMK 1CU020 3CU030 6CU040 A3021=,- SN SH
20180204_190000.003,0,RJFA,,,,0,20180204190000,-1,-1,-1,-1,290,-1,13,-1,23,250,330,,9999,0,1,3,FEW 20   SCT 30   BKN 40,-1,0,-1,9,1023,RJFA 041900Z 29013G23KT 250V330 9999 -SHSN FEW020 SCT030     BKN040 M00/M09 Q1023 RMK 1CU020 3CU030 7CU040 A3022=,- SN SH
20180204_200000.003,0,RJFA,,,,0,20180204200000,-1,-1,-1,-1,300,-1,14,-1,25,270,330,,9999,0,1,3,FEW 20   SCT 30   BKN 40,-1,1,-1,9,1023,RJFA 042000Z 30014G25KT 270V330 9999 -SHSN FEW020 SCT030     BKN040 M01/M09 Q1023 RMK 1CU020 3CU030 7CU040 A3022=,- SN SH
20180204_210000.003,0,RJFA,,,,0,20180204210000,-1,-1,-1,-1,320,-1,18,-1,29,290,350,,9999,0,1,3,FEW 20   SCT 30   BKN 40,-1,1,-1,10,1023,RJFA 042100Z 32018G29KT 290V350 9999 -SHSN FEW020 SCT030     BKN040 M01/M10 Q1023 RMK 1CU020 3CU030 6CU040 A3023           31032KT/0020 02/M01 R000 S000=,- SN SH
20180204_220000.003,0,RJFA,,,,0,20180204220000,-1,-1,-1,-1,310,-1,17,-1,27,-1,-1,,9999,0,1,3,FEW 20   SCT 30   BKN 40,-1,1,-1,11,1024,RJFA 042200Z 31017G27KT 9999 VCSH FEW020 SCT030 BKN040 M01/M11     Q1024 RMK 1CU020 4CU030 7CU040 A3024 RWY30 31018G30KT=,VC SH
20180204_230000.003,0,RJFA,,,,0,20180204230000,-1,-1,-1,-1,320,-1,21,-1,33,-1,-1,,9999,0,0,3,FEW 15   SCT 30   BKN 35,-1,0,-1,10,1024,RJFA 042300Z 32021G33KT 9999 FEW015 SCT030 BKN035 M00/M10     Q1024 RMK 1CU015 3CU030 7CU035 A3024 VIRGA S-SW RWY30           32023/31KT=,
20180205_000000.004,0,RJFA,,,,0,20180205000000,-1,-1,-1,-1,310,-1,19,-1,29,-1,-1,,9999,0,1,3,FEW 15   SCT 30   BKN 35,-1,0,-1,10,1024,RJFA 050000Z 31019G29KT 9999 -SHSN FEW015 SCT030 BKN035     M00/M10 Q1024 RMK 1CU015 3CU030 5CU035 A3024 RWY30           31022/29KT=,- SN SH
20180205_010000.003,0,RJFA,,,,0,20180205010000,-1,-1,-1,-1,300,-1,17,-1,31,260,330,,9999,0,1,3,FEW 15   SCT 30   BKN 35,1,0,-1,9,1024,RJFA 050100Z 30017G31KT 260V330 9999 -SHSN FEW015 SCT030     BKN035 00/M09 Q1024 RMK 1CU015 3CU030 7CU035 A3024 RWY30           31019G29KT=,- SN SH
20180205_020000.003,0,RJFA,,,,0,20180205020000,-1,-1,-1,-1,290,-1,14,-1,25,240,320,,9999,0,1,3,FEW 15   SCT 25   BKN 35,-1,0,-1,9,1024,RJFA 050200Z 29014G25KT 240V320 9999 -SHSN FEW015 SCT025     BKN035 M00/M09 Q1024 RMK 1CU015 3CU025 7CU035 A3024 RWY30           30017G27KT=,- SN SH
