20180101_000000.002,0,RJFF,,,,0,20180101000000,-1,-1,-1,-1,340,-1,12,-1,-1,-1,-1,,9999,0,0,3,FEW 30   BKN 40   BKN 50,1,6,-1,2,1024,RJFF 010000Z 34012KT 9999 FEW030 BKN040 BKN050 06/M02 Q1024     RMK 1CU030 5CU040 7SC050 A3026=,
20180101_003000.001,0,RJFF,,,,0,20180101000000,-1,-1,-1,-1,340,-1,11,-1,-1,-1,-1,,9999,0,0,2,FEW 30   BKN 50,1,6,-1,2,1025,RJFF 010030Z 34011KT 9999 FEW030 BKN050 06/M02 Q1025 RMK     1CU030 6SC050 A3028=,
20180101_010000.002,0,RJFF,,,,0,20180101010000,-1,-1,-1,-1,330,-1,12,-1,-1,290,350,,9999,0,0,2,FEW 30   BKN 50,1,6,-1,3,1026,RJFF 010100Z 33012KT 290V350 9999 FEW030 BKN050 06/M03 Q1026     RMK 1CU030 7SC050 A3030=,
20180101_013000.001,0,RJFF,,,,0,20180101010000,-1,-1,-1,-1,330,-1,12,-1,-1,-1,-1,,9999,0,0,2,FEW 30   BKN 50,1,7,-1,3,1026,RJFF 010130Z 33012KT 9999 FEW030 BKN050 07/M03 Q1026 RMK     1CU030 5SC050 A3030=,
20180101_020000.002,0,RJFF,,,,0,20180101020000,-1,-1,-1,-1,290,-1,11,-1,-1,-1,-1,,9999,0,0,2,FEW 30   BKN 50,1,8,-1,4,1026,RJFF 010200Z 29011KT 9999 FEW030 BKN050 08/M04 Q1026 RMK     1CU030 5SC050 A3030=,
20180101_023000.001,0,RJFF,,,,0,20180101020000,-1,-1,-1,-1,310,-1,11,-1,-1,-1,-1,,9999,0,0,2,FEW 30   BKN 50,1,7,-1,3,1025,RJFF 010230Z 31011KT 9999 FEW030 BKN050 07/M03 Q1025 RMK     1CU030 5SC050 A3029=,
20180101_030000.002,0,RJFF,,,,0,20180101030000,-1,-1,-1,-1,290,-1,12,-1,-1,260,330,,9999,0,0,2,FEW 30   BKN 50,1,7,-1,3,1025,RJFF 010300Z 29012KT 260V330 9999 FEW030 BKN050 07/M03 Q1025     RMK 1CU030 5SC050 A3028=,
20180101_033000.001,0,RJFF,,,,0,20180101030000,-1,-1,-1,-1,300,-1,11,-1,-1,250,320,,9999,0,0,2,FEW 30   BKN 50,1,8,-1,4,1025,RJFF 010330Z 30011KT 250V320 9999 FEW030 BKN050 08/M04 Q1025     RMK 1CU030 5SC050 A3027=,
20180101_040000.002,0,RJFF,,,,0,20180101040000,-1,-1,-1,-1,290,-1,11,-1,-1,260,320,,9999,0,0,2,FEW 30   BKN 50,1,8,-1,3,1024,RJFF 010400Z 29011KT 260V320 9999 FEW030 BKN050 08/M03 Q1024     RMK 1CU030 5SC050 A3026=,
20180101_043000.001,0,RJFF,,,,0,20180101040000,-1,-1,-1,-1,300,-1,10,-1,-1,260,330,,9999,0,0,2,FEW 30   BKN 50,1,8,-1,4,1024,RJFF 010430Z 30010KT 260V330 9999 FEW030 BKN050 08/M04 Q1024     RMK 1CU030 5SC050 A3025=,
20180101_050000.002,0,RJFF,,,,0,20180101050000,-1,-1,-1,-1,320,-1,11,-1,-1,-1,-1,,9999,0,0,2,FEW 30   BKN 50,1,8,-1,3,1024,RJFF 010500Z 32011KT 9999 FEW030 BKN050 08/M03 Q1024 RMK     1CU030 6SC050 A3025=,
20180101_053000.001,0,RJFF,,,,0,20180101050000,-1,-1,-1,-1,310,-1,12,-1,-1,260,330,,9999,0,0,2,FEW 30   BKN 50,1,8,-1,4,1024,RJFF 010530Z 31012KT 260V330 9999 FEW030 BKN050 08/M04 Q1024     RMK 1CU030 6SC050 A3025=,
20180101_060000.002,0,RJFF,,,,0,20180101060000,-1,-1,-1,-1,320,-1,10,-1,-1,290,350,,9999,0,0,2,FEW 30   BKN 50,1,7,-1,5,1024,RJFF 010600Z 32010KT 290V350 9999 FEW030 BKN050 07/M05 Q1024     RMK 1CU030 6SC050 A3026=,
20180101_063000.001,0,RJFF,,,,0,20180101060000,-1,-1,-1,-1,320,-1,11,-1,-1,-1,-1,,9999,0,0,2,FEW 30   BKN 50,1,7,-1,4,1024,RJFF 010630Z 32011KT 9999 FEW030 BKN050 07/M04 Q1024 RMK     1CU030 5SC050 A3026=,
20180101_070000.002,0,RJFF,,,,0,20180101070000,-1,-1,-1,-1,320,-1,9,-1,-1,-1,-1,,9999,0,0,2,FEW 30   BKN 50,1,7,-1,4,1025,RJFF 010700Z 32009KT 9999 FEW030 BKN050 07/M04 Q1025 RMK     1CU030 5SC050 A3027=,
20180101_073000.001,0,RJFF,,,,0,20180101070000,-1,-1,-1,-1,330,-1,8,-1,-1,-1,-1,,9999,0,0,2,FEW 30   BKN 50,1,7,-1,3,1025,RJFF 010730Z 33008KT 9999 FEW030 BKN050 07/M03 Q1025 RMK     1CU030 6SC050 A3027=,
20180101_080000.002,0,RJFF,,,,0,20180101080000,-1,-1,-1,-1,340,-1,9,-1,-1,-1,-1,,9999,0,0,2,FEW 30   BKN 50,1,7,-1,3,1025,RJFF 010800Z 34009KT 9999 FEW030 BKN050 07/M03 Q1025 RMK     1CU030 6SC050 A3027=,
20180101_083000.001,0,RJFF,,,,0,20180101080000,-1,-1,-1,-1,320,-1,7,-1,-1,-1,-1,,9999,0,0,2,FEW 30   BKN 50,1,7,-1,4,1025,RJFF 010830Z 32007KT 9999 FEW030 BKN050 07/M04 Q1025 RMK     1CU030 7SC050 A3028=,
20180101_090000.002,0,RJFF,,,,0,20180101090000,-1,-1,-1,-1,310,-1,7,-1,-1,280,350,,9999,0,0,2,FEW 30   BKN 50,1,7,-1,4,1025,RJFF 010900Z 31007KT 280V350 9999 FEW030 BKN050 07/M04 Q1025     RMK 1CU030 6SC050 A3028=,
20180101_093000.001,0,RJFF,,,,0,20180101090000,-1,-1,-1,-1,330,-1,8,-1,-1,-1,-1,,9999,0,0,2,FEW 30   BKN 50,1,7,-1,4,1025,RJFF 010930Z 33008KT 9999 FEW030 BKN050 07/M04 Q1025 RMK     1CU030 5SC050 A3029=,
20180101_100000.002,0,RJFF,,,,0,20180101100000,-1,-1,-1,-1,330,-1,4,-1,-1,300,360,,9999,0,0,2,FEW 30   BKN 50,1,7,-1,3,1025,RJFF 011000Z 33004KT 300V360 9999 FEW030 BKN050 07/M03 Q1025     RMK 1CU030 5SC050 A3029=,
20180101_103000.001,0,RJFF,,,,0,20180101100000,-1,-1,-1,-1,340,-1,5,-1,-1,310,30,,9999,0,0,1,FEW 30,1,6,-1,4,1026,RJFF 011030Z 34005KT 310V030 9999 FEW030 06/M04 Q1026 RMK     1CU030 A3030=,
20180101_110000.002,0,RJFF,,,,0,20180101110000,-1,-1,-1,-1,999,-1,3,-1,-1,-1,-1,,9999,0,0,1,FEW 30,1,5,-1,3,1026,RJFF 011100Z VRB03KT 9999 FEW030 05/M03 Q1026 RMK 1CU030     A3030=,
20180101_113000.001,0,RJFF,,,,0,20180101110000,-1,-1,-1,-1,80,-1,4,-1,-1,40,120,,9999,0,0,1,FEW 30,1,4,-1,3,1025,RJFF 011130Z 08004KT 040V120 9999 FEW030 04/M03 Q1025 RMK     1CU030 A3029=,
20180101_120000.002,0,RJFF,,,,0,20180101120000,-1,-1,-1,-1,999,-1,1,-1,-1,-1,-1,CAVOK,-1,0,0,0,,1,4,-1,3,1026,RJFF 011200Z VRB01KT CAVOK 04/M03 Q1026 RMK A3030=,
20180101_123000.001,0,RJFF,,,,0,20180101120000,-1,-1,-1,-1,999,-1,2,-1,-1,-1,-1,CAVOK,-1,0,0,0,,1,4,-1,3,1025,RJFF 011230Z VRB02KT CAVOK 04/M03 Q1025 RMK A3029=,
20180101_130000.002,0,RJFF,,,,0,20180101130000,-1,-1,-1,-1,999,-1,2,-1,-1,-1,-1,CAVOK,-1,0,0,0,,1,3,-1,2,1025,RJFF 011300Z VRB02KT CAVOK 03/M02 Q1025 RMK A3029=,
20180101_133000.001,0,RJFF,,,,0,20180101130000,-1,-1,-1,-1,150,-1,3,-1,-1,-1,-1,CAVOK,-1,0,0,0,,1,1,-1,3,1026,RJFF 011330Z 15003KT CAVOK 01/M03 Q1026 RMK A3030=,
20180101_140000.002,0,RJFF,,,,1,20180101140000,-1,-1,-1,-1,999,-1,2,-1,-1,-1,-1,,9999,0,0,1,NCD -1,1,3,-1,2,1026,RJFF 011400Z AUTO VRB02KT 9999 NCD 03/M02 Q1026 RMK A3031=,
20180101_143000.001,0,RJFF,,,,1,20180101140000,-1,-1,-1,-1,999,-1,2,-1,-1,-1,-1,,9999,0,0,1,NCD -1,1,1,-1,3,1026,RJFF 011430Z AUTO VRB02KT 9999 NCD 01/M03 Q1026 RMK A3031=,
20180101_150000.002,0,RJFF,,,,1,20180101150000,-1,-1,-1,-1,140,-1,3,-1,-1,-1,-1,,9999,0,0,1,NCD -1,1,1,-1,3,1026,RJFF 011500Z AUTO 14003KT 9999 NCD 01/M03 Q1026 RMK A3031=,
20180101_153000.001,0,RJFF,,,,1,20180101150000,-1,-1,-1,-1,130,-1,3,-1,-1,-1,-1,,9999,0,0,1,NCD -1,1,1,-1,3,1026,RJFF 011530Z AUTO 13003KT 9999 NCD 01/M03 Q1026 RMK A3031=,
20180101_160000.002,0,RJFF,,,,1,20180101160000,-1,-1,-1,-1,140,-1,4,-1,-1,-1,-1,,9999,0,0,1,NCD -1,1,2,-1,2,1026,RJFF 011600Z AUTO 14004KT 9999 NCD 02/M02 Q1026 RMK A3031=,
20180101_163000.001,0,RJFF,,,,1,20180101160000,-1,-1,-1,-1,999,-1,2,-1,-1,-1,-1,,9999,0,0,1,NCD -1,1,1,-1,4,1026,RJFF 011630Z AUTO VRB02KT 9999 NCD 01/M04 Q1026 RMK A3030=,
20180101_170000.002,0,RJFF,,,,1,20180101170000,-1,-1,-1,-1,110,-1,3,-1,-1,-1,-1,,9999,0,0,1,NCD -1,1,2,-1,3,1026,RJFF 011700Z AUTO 11003KT 9999 NCD 02/M03 Q1026 RMK A3031=,
20180101_173000.001,0,RJFF,,,,1,20180101170000,-1,-1,-1,-1,150,-1,4,-1,-1,-1,-1,,9999,0,0,1,NSC -1,-1,1,-1,4,1026,RJFF 011730Z AUTO 15004KT 9999 NSC M01/M04 Q1026 RMK A3032=,
20180101_180000.003,0,RJFF,,,,1,20180101180000,-1,-1,-1,-1,140,-1,5,-1,-1,-1,-1,,9999,0,0,1,NSC -1,1,1,-1,3,1026,RJFF 011800Z AUTO 14005KT 9999 NSC 01/M03 Q1026 RMK A3032=,
20180101_183000.001,0,RJFF,,,,1,20180101180000,-1,-1,-1,-1,999,-1,2,-1,-1,-1,-1,,9999,0,0,1,NSC -1,1,1,-1,3,1026,RJFF 011830Z AUTO VRB02KT 9999 NSC 01/M03 Q1026 RMK A3032=,
20180101_190000.003,0,RJFF,,,,1,20180101190000,-1,-1,-1,-1,140,-1,5,-1,-1,-1,-1,,9999,0,0,1,NSC -1,1,1,-1,2,1026,RJFF 011900Z AUTO 14005KT 9999 NSC 01/M02 Q1026 RMK A3031=,
20180101_193000.001,0,RJFF,,,,1,20180101190000,-1,-1,-1,-1,140,-1,4,-1,-1,-1,-1,,9999,0,0,1,NSC -1,1,1,-1,3,1026,RJFF 011930Z AUTO 14004KT 9999 NSC 01/M03 Q1026 RMK A3032=,
20180101_200000.003,0,RJFF,,,,1,20180101200000,-1,-1,-1,-1,180,-1,5,-1,-1,160,220,,9999,0,0,1,SCT 49,1,0,-1,3,1026,RJFF 012000Z AUTO 18005KT 160V220 9999 SCT049 00/M03 Q1026 RMK     A3032=,
20180101_203000.001,0,RJFF,,,,1,20180101200000,-1,-1,-1,-1,150,-1,3,-1,-1,-1,-1,,9999,0,0,1,NCD -1,1,0,-1,3,1026,RJFF 012030Z AUTO 15003KT 9999 NCD 00/M03 Q1026 RMK A3032=,
20180101_210000.002,0,RJFF,,,,0,20180101210000,-1,-1,-1,-1,180,-1,3,-1,-1,120,260,,9999,0,0,1,FEW 30,-1,1,-1,4,1027,RJFF 012100Z 18003KT 120V260 9999 FEW030 M01/M04 Q1027 RMK     1CU030 A3033=,
20180101_213000.001,0,RJFF,,,,0,20180101210000,-1,-1,-1,-1,140,-1,3,-1,-1,-1,-1,,9999,0,0,1,FEW 30,-1,0,-1,4,1027,RJFF 012130Z 14003KT 9999 FEW030 M00/M04 Q1027 RMK 1CU030     A3034=,
20180101_220000.002,0,RJFF,,,,0,20180101220000,-1,-1,-1,-1,140,-1,4,-1,-1,-1,-1,,9999,0,0,1,FEW 30,1,0,-1,3,1027,RJFF 012200Z 14004KT 9999 FEW030 00/M03 Q1027 RMK 1CU030     A3035=,
20180101_223000.002,0,RJFF,,,,0,20180101220000,-1,-1,-1,-1,999,-1,2,-1,-1,-1,-1,,9999,0,0,1,FEW 40,1,1,-1,3,1027,RJFF 012230Z VRB02KT 9999 FEW040 01/M03 Q1027 RMK 1SC040     A3035=,
20180101_230000.002,0,RJFF,,,,0,20180101230000,-1,-1,-1,-1,999,-1,2,-1,-1,-1,-1,,9999,0,0,1,FEW 40,1,1,-1,3,1028,RJFF 012300Z VRB02KT 9999 FEW040 01/M03 Q1028 RMK 1SC040     A3036=,
20180101_233000.001,0,RJFF,,,,0,20180101230000,-1,-1,-1,-1,150,-1,4,-1,-1,-1,-1,,9999,0,0,2,FEW 40   SCT -9999,1,2,-1,2,1028,RJFF 012330Z 15004KT 9999 FEW040 SCT/// 02/M02 Q1028 RMK     1SC040 A3036=,
20180102_000000.003,0,RJFF,,,,0,20180102000000,-1,-1,-1,-1,140,-1,6,-1,-1,-1,-1,,9999,0,0,1,FEW 40,1,3,-1,2,1028,RJFF 020000Z 14006KT 9999 FEW040 03/M02 Q1028 RMK 1SC040     A3036=,
20180102_003000.001,0,RJFF,,,,0,20180102000000,-1,-1,-1,-1,160,-1,6,-1,-1,110,190,,9999,0,0,1,FEW 30,1,4,-1,1,1028,RJFF 020030Z 16006KT 110V190 9999 FEW030 04/M01 Q1028 RMK     1CU030 A3036=,
20180102_010000.003,0,RJFF,,,,0,20180102010000,-1,-1,-1,-1,160,-1,5,-1,-1,-1,-1,,9999,0,0,1,FEW 30,1,5,-1,2,1028,RJFF 020100Z 16005KT 9999 FEW030 05/M02 Q1028 RMK 1CU030     A3037=,
20180102_013000.001,0,RJFF,,,,0,20180102010000,-1,-1,-1,-1,170,-1,4,-1,-1,140,210,,9999,0,0,1,FEW 30,1,7,-1,2,1028,RJFF 020130Z 17004KT 140V210 9999 FEW030 07/M02 Q1028 RMK     1CU030 A3036=,
20180102_020000.002,0,RJFF,,,,0,20180102020000,-1,-1,-1,-1,200,-1,3,-1,-1,140,240,,9999,0,0,1,FEW 30,1,8,-1,2,1027,RJFF 020200Z 20003KT 140V240 9999 FEW030 08/M02 Q1027 RMK     1CU030 A3035=,
20180102_023000.001,0,RJFF,,,,0,20180102020000,-1,-1,-1,-1,170,-1,3,-1,-1,100,220,,9999,0,0,1,FEW 30,1,8,-1,2,1027,RJFF 020230Z 17003KT 100V220 9999 FEW030 08/M02 Q1027 RMK     1CU030 A3034=,
20180102_030000.002,0,RJFF,,,,0,20180102030000,-1,-1,-1,-1,999,-1,4,-1,-1,-1,-1,,9999,0,0,1,FEW 35,1,10,-1,1,1026,RJFF 020300Z VRB04KT 9999 FEW035 10/M01 Q1026 RMK 1CU035     A3032=,
20180102_033000.001,0,RJFF,,,,0,20180102030000,-1,-1,-1,-1,320,-1,7,-1,-1,290,350,,9999,0,0,1,FEW 35,1,10,-1,1,1025,RJFF 020330Z 32007KT 290V350 9999 FEW035 10/M01 Q1025 RMK     1CU035 A3029=,
20180102_040000.002,0,RJFF,,,,0,20180102040000,-1,-1,-1,-1,330,-1,6,-1,-1,290,20,,9999,0,0,1,FEW 35,1,10,-1,1,1025,RJFF 020400Z 33006KT 290V020 9999 FEW035 10/M01 Q1025 RMK     1CU035 A3029=,
20180102_043000.001,0,RJFF,,,,0,20180102040000,-1,-1,-1,-1,290,-1,7,-1,-1,270,340,,9999,0,0,1,FEW 35,1,10,-1,1,1025,RJFF 020430Z 29007KT 270V340 9999 FEW035 10/M01 Q1025 RMK     1CU035 A3029=,
20180102_050000.002,0,RJFF,,,,0,20180102050000,-1,-1,-1,-1,330,-1,7,-1,-1,280,360,,9999,0,0,1,FEW 35,1,10,-1,1,1025,RJFF 020500Z 33007KT 280V360 9999 FEW035 10/M01 Q1025 RMK     1CU035 A3028=,
20180102_053000.001,0,RJFF,,,,0,20180102050000,-1,-1,-1,-1,320,-1,9,-1,-1,-1,-1,,9999,0,0,1,FEW 40,1,10,-1,3,1025,RJFF 020530Z 32009KT 9999 FEW040 10/M03 Q1025 RMK 1CU040     A3028=,
20180102_060000.002,0,RJFF,,,,0,20180102060000,-1,-1,-1,-1,320,-1,10,-1,-1,-1,-1,,9999,0,0,1,FEW 40,1,10,-1,2,1025,RJFF 020600Z 32010KT 9999 FEW040 10/M02 Q1025 RMK 1CU040     A3029=,
20180102_063000.001,0,RJFF,,,,0,20180102060000,-1,-1,-1,-1,310,-1,9,-1,-1,280,340,,9999,0,0,1,FEW 40,1,10,-1,2,1025,RJFF 020630Z 31009KT 280V340 9999 FEW040 10/M02 Q1025 RMK     1CU040 A3028=,
20180102_070000.002,0,RJFF,,,,0,20180102070000,-1,-1,-1,-1,340,-1,9,-1,-1,290,10,,9999,0,0,1,FEW 40,1,9,-1,2,1025,RJFF 020700Z 34009KT 290V010 9999 FEW040 09/M02 Q1025 RMK     1CU040 A3028=,
20180102_073000.001,0,RJFF,,,,0,20180102070000,-1,-1,-1,-1,340,-1,7,-1,-1,300,360,,9999,0,0,1,FEW 40,1,9,-1,3,1025,RJFF 020730Z 34007KT 300V360 9999 FEW040 09/M03 Q1025 RMK     1CU040 A3027=,
20180102_080000.002,0,RJFF,,,,0,20180102080000,-1,-1,-1,-1,330,-1,5,-1,-1,300,10,,9999,0,0,2,FEW 40   SCT -9999,1,9,-1,2,1025,RJFF 020800Z 33005KT 300V010 9999 FEW040 SCT/// 09/M02 Q1025     RMK 1CU040 A3027=,
20180102_083000.001,0,RJFF,,,,0,20180102080000,-1,-1,-1,-1,310,-1,3,-1,-1,280,340,,9999,0,0,2,FEW 40   BKN -9999,1,9,-1,2,1025,RJFF 020830Z 31003KT 280V340 9999 FEW040 BKN/// 09/M02 Q1025     RMK 1CU040 A3028=,
20180102_090000.002,0,RJFF,,,,0,20180102090000,-1,-1,-1,-1,300,-1,4,-1,-1,260,320,,9999,0,0,2,FEW 40   BKN -9999,1,8,-1,3,1025,RJFF 020900Z 30004KT 260V320 9999 FEW040 BKN/// 08/M03 Q1025     RMK 1CU040 A3028=,
20180102_093000.001,0,RJFF,,,,0,20180102090000,-1,-1,-1,-1,290,-1,4,-1,-1,-1,-1,,9999,0,0,2,FEW 40   BKN -9999,1,8,-1,2,1025,RJFF 020930Z 29004KT 9999 FEW040 BKN/// 08/M02 Q1025 RMK     1CU040 A3029=,
20180102_100000.002,0,RJFF,,,,0,20180102100000,-1,-1,-1,-1,230,-1,3,-1,-1,190,330,,9999,0,0,2,FEW 40   BKN -9999,1,8,-1,2,1026,RJFF 021000Z 23003KT 190V330 9999 FEW040 BKN/// 08/M02 Q1026     RMK 1CU040 A3030=,
20180102_103000.001,0,RJFF,,,,0,20180102100000,-1,-1,-1,-1,150,-1,6,-1,-1,-1,-1,CAVOK,-1,0,0,0,,1,5,-1,1,1026,RJFF 021030Z 15006KT CAVOK 05/M01 Q1026 RMK A3030=,
20180102_110000.002,0,RJFF,,,,0,20180102110000,-1,-1,-1,-1,160,-1,7,-1,-1,-1,-1,,9999,0,0,2,FEW 40   SCT -9999,1,5,-1,1,1025,RJFF 021100Z 16007KT 9999 FEW040 SCT/// 05/M01 Q1025 RMK     1CU040 A3029=,
20180102_113000.001,0,RJFF,,,,0,20180102110000,-1,-1,-1,-1,160,-1,6,-1,-1,-1,-1,CAVOK,-1,0,0,0,,1,4,-1,2,1025,RJFF 021130Z 16006KT CAVOK 04/M02 Q1025 RMK A3028=,
20180102_120000.002,0,RJFF,,,,0,20180102120000,-1,-1,-1,-1,999,-1,2,-1,-1,-1,-1,CAVOK,-1,0,0,0,,1,5,-1,2,1025,RJFF 021200Z VRB02KT CAVOK 05/M02 Q1025 RMK A3028=,
20180102_123000.001,0,RJFF,,,,0,20180102120000,-1,-1,-1,-1,160,-1,3,-1,-1,-1,-1,,9999,0,0,2,FEW 40   BKN 50,1,5,-1,1,1025,RJFF 021230Z 16003KT 9999 FEW040 BKN050 05/M01 Q1025 RMK     1CU040 5SC050 A3027=,
20180102_130000.003,0,RJFF,,,,0,20180102130000,-1,-1,-1,-1,170,-1,4,-1,-1,-1,-1,,9999,0,0,2,FEW 40   BKN 50,1,5,-1,1,1025,RJFF 021300Z 17004KT 9999 FEW040 BKN050 05/M01 Q1025 RMK     1CU040 5SC050 A3027=,
20180102_133000.001,0,RJFF,,,,0,20180102130000,-1,-1,-1,-1,150,-1,3,-1,-1,-1,-1,,9999,0,0,2,FEW 40   BKN 50,1,4,-1,1,1024,RJFF 021330Z 15003KT 9999 FEW040 BKN050 04/M01 Q1024 RMK     1CU040 5SC050 A3026=,
20180102_140000.003,0,RJFF,,,,1,20180102140000,-1,-1,-1,-1,140,-1,2,-1,-1,-1,-1,,9999,0,0,2,FEW 44   SCT 48,1,5,-1,1,1024,RJFF 021400Z AUTO 14002KT 9999 FEW044 SCT048 05/M01 Q1024 RMK     A3026=,
20180102_143000.001,0,RJFF,,,,1,20180102140000,-1,-1,-1,-1,130,-1,3,-1,-1,-1,-1,,9999,0,0,2,BKN 43   OVC 50,1,5,-1,1,1024,RJFF 021430Z AUTO 13003KT 9999 BKN043 OVC050 05/M01 Q1024 RMK     A3025=,
20180102_150000.002,0,RJFF,,,,1,20180102150000,-1,-1,-1,-1,140,-1,5,-1,-1,-1,-1,,9999,0,0,1,SCT 47,1,5,-1,1,1024,RJFF 021500Z AUTO 14005KT 9999 SCT047 05/M01 Q1024 RMK A3025=,
20180102_153000.001,0,RJFF,,,,1,20180102150000,-1,-1,-1,-1,180,-1,5,-1,-1,160,240,,9999,0,0,1,FEW 48,1,4,-1,1,1024,RJFF 021530Z AUTO 18005KT 160V240 9999 FEW048 04/M01 Q1024 RMK     A3026=,
20180102_160000.002,0,RJFF,,,,1,20180102160000,-1,-1,-1,-1,160,-1,4,-1,-1,-1,-1,,9999,0,0,3,SCT 49   BKN 120   BKN 130,1,3,-1,1,1024,RJFF 021600Z AUTO 16004KT 9999 SCT049 BKN120 BKN130 03/M01     Q1024 RMK A3026=,
20180102_163000.001,0,RJFF,,,,1,20180102160000,-1,-1,-1,-1,150,-1,5,-1,-1,-1,-1,,9999,0,0,3,BKN 44   BKN 120   OVC 130,1,4,-1,1,1024,RJFF 021630Z AUTO 15005KT 9999 BKN044 BKN120 OVC130 04/M01     Q1024 RMK A3025=,
20180102_170000.002,0,RJFF,,,,1,20180102170000,-1,-1,-1,-1,150,-1,3,-1,-1,90,170,,9999,0,0,3,SCT 46   SCT 49   BKN 50,1,3,-1,1,1024,RJFF 021700Z AUTO 15003KT 090V170 9999 SCT046 SCT049 BKN050     03/M01 Q1024 RMK A3025=,
20180102_173000.001,0,RJFF,,,,1,20180102170000,-1,-1,-1,-1,140,-1,5,-1,-1,-1,-1,,9999,0,0,3,FEW 45   SCT 50   OVC 160,1,4,-1,1,1025,RJFF 021730Z AUTO 14005KT 9999 FEW045 SCT050 OVC160 04/M01     Q1025 RMK A3028=,
20180102_180000.003,0,RJFF,,,,1,20180102180000,-1,-1,-1,-1,150,-1,5,-1,-1,-1,-1,,9999,0,0,3,FEW 45   SCT 50   BKN 60,1,4,-1,1,1025,RJFF 021800Z AUTO 15005KT 9999 FEW045 SCT050 BKN060 04/M01     Q1025 RMK A3027=,
20180102_183000.001,0,RJFF,,,,1,20180102180000,-1,-1,-1,-1,330,-1,11,-1,-1,-1,-1,,9000,0,0,3,FEW 44   SCT 48   OVC 130,1,8,1,1,1025,RJFF 021830Z AUTO 33011KT 9000 FEW044 SCT048 OVC130 08/01     Q1025 RMK A3027=,
20180102_190000.002,0,RJFF,,,,1,20180102190000,-1,-1,-1,-1,340,-1,13,-1,-1,-1,-1,,8000,0,0,3,FEW 44   SCT 49   BKN 50,1,9,-1,0,1024,RJFF 021900Z AUTO 34013KT 8000 FEW044 SCT049 BKN050 09/M00     Q1024 RMK A3026=,
20180102_193000.001,0,RJFF,,,,1,20180102190000,-1,-1,-1,-1,340,-1,10,-1,-1,-1,-1,,7000,0,0,3,SCT 43   BKN 48   BKN 50,1,9,-1,0,1024,RJFF 021930Z AUTO 34010KT 7000 SCT043 BKN048 BKN050 09/M00     Q1024 RMK A3026=,
20180102_200000.003,0,RJFF,,,,1,20180102200000,-1,-1,-1,-1,330,-1,11,-1,-1,-1,-1,,9999,0,0,2,FEW 46   BKN 130,1,8,-1,2,1024,RJFF 022000Z AUTO 33011KT 9999 FEW046 BKN130 08/M02 Q1024 RMK     A3026=,
20180102_203000.001,0,RJFF,,,,1,20180102200000,-1,-1,-1,-1,330,-1,12,-1,-1,-1,-1,,9999,0,0,1,NSC -1,1,8,-1,3,1024,RJFF 022030Z AUTO 33012KT 9999 NSC 08/M03 Q1024 RMK A3026=,
20180102_210000.002,0,RJFF,,,,0,20180102210000,-1,-1,-1,-1,330,-1,11,-1,-1,-1,-1,,9999,0,0,1,FEW 30,1,8,-1,3,1025,RJFF 022100Z 33011KT 9999 FEW030 08/M03 Q1025 RMK 1CU030     A3028=,
20180102_213000.001,0,RJFF,,,,0,20180102210000,-1,-1,-1,-1,330,-1,11,-1,-1,-1,-1,,9999,0,0,1,FEW 30,1,8,-1,2,1025,RJFF 022130Z 33011KT 9999 FEW030 08/M02 Q1025 RMK 1CU030     A3028=,
20180102_220000.002,0,RJFF,,,,0,20180102220000,-1,-1,-1,-1,340,-1,10,-1,-1,-1,-1,,9999,0,0,1,FEW 30,1,8,-1,5,1025,RJFF 022200Z 34010KT 9999 FEW030 08/M05 Q1025 RMK 1CU030     A3029=,
20180102_223000.002,0,RJFF,,,,0,20180102220000,-1,-1,-1,-1,330,-1,13,-1,-1,-1,-1,,9999,0,0,1,FEW 30,1,8,-1,5,1025,RJFF 022230Z 33013KT 9999 FEW030 08/M05 Q1025 RMK 1CU030     A3029=,
20180102_230000.002,0,RJFF,,,,0,20180102230000,-1,-1,-1,-1,330,-1,11,-1,-1,-1,-1,,9999,0,0,1,FEW 30,1,8,-1,5,1025,RJFF 022300Z 33011KT 9999 FEW030 08/M05 Q1025 RMK 1CU030     A3029=,
20180102_233000.001,0,RJFF,,,,0,20180102230000,-1,-1,-1,-1,330,-1,11,-1,-1,-1,-1,,9999,0,0,1,FEW 30,1,8,-1,5,1026,RJFF 022330Z 33011KT 9999 FEW030 08/M05 Q1026 RMK 1CU030     A3030=,
20180103_000000.002,0,RJFF,,,,0,20180103000000,-1,-1,-1,-1,330,-1,10,-1,-1,-1,-1,,9999,0,0,1,FEW 30,1,8,-1,4,1026,RJFF 030000Z 33010KT 9999 FEW030 08/M04 Q1026 RMK 1CU030     A3031=,
20180103_003000.001,0,RJFF,,,,0,20180103000000,-1,-1,-1,-1,330,-1,10,-1,-1,-1,-1,,9999,0,0,1,FEW 30,1,9,-1,5,1026,RJFF 030030Z 33010KT 9999 FEW030 09/M05 Q1026 RMK 1CU030     A3031=,
20180103_010000.002,0,RJFF,,,,0,20180103010000,-1,-1,-1,-1,330,-1,11,-1,-1,290,350,,9999,0,0,1,FEW 30,1,9,-1,6,1026,RJFF 030100Z 33011KT 290V350 9999 FEW030 09/M06 Q1026 RMK     1CU030 A3031=,
20180103_013000.001,0,RJFF,,,,0,20180103010000,-1,-1,-1,-1,350,-1,12,-1,-1,-1,-1,,9999,0,0,1,FEW 35,1,9,-1,3,1026,RJFF 030130Z 35012KT 9999 FEW035 09/M03 Q1026 RMK 1CU035     A3031=,
20180103_020000.002,0,RJFF,,,,0,20180103020000,-1,-1,-1,-1,340,-1,11,-1,-1,-1,-1,,9999,0,0,1,FEW 40,1,9,-1,3,1026,RJFF 030200Z 34011KT 9999 FEW040 09/M03 Q1026 RMK 1CU040     A3031=,
20180103_023000.001,0,RJFF,,,,0,20180103020000,-1,-1,-1,-1,330,-1,12,-1,-1,-1,-1,,9999,0,0,1,FEW 40,1,9,-1,4,1026,RJFF 030230Z 33012KT 9999 FEW040 09/M04 Q1026 RMK 1CU040     A3030=,
20180103_030000.003,0,RJFF,,,,0,20180103030000,-1,-1,-1,-1,350,-1,12,-1,-1,-1,-1,,9999,0,0,1,FEW 40,1,9,-1,4,1025,RJFF 030300Z 35012KT 9999 FEW040 09/M04 Q1025 RMK 1CU040     A3029=,
20180103_033000.001,0,RJFF,,,,0,20180103030000,-1,-1,-1,-1,320,-1,12,-1,-1,-1,-1,,9999,0,0,1,FEW 40,1,9,-1,5,1025,RJFF 030330Z 32012KT 9999 FEW040 09/M05 Q1025 RMK 1CU040     A3027=,
20180103_040000.002,0,RJFF,,,,0,20180103040000,-1,-1,-1,-1,350,-1,11,-1,-1,-1,-1,,9999,0,0,1,FEW 40,1,9,-1,4,1024,RJFF 030400Z 35011KT 9999 FEW040 09/M04 Q1024 RMK 1CU040     A3026=,
20180103_043000.001,0,RJFF,,,,0,20180103040000,-1,-1,-1,-1,340,-1,11,-1,-1,-1,-1,,9999,0,0,1,FEW 40,1,9,-1,3,1024,RJFF 030430Z 34011KT 9999 FEW040 09/M03 Q1024 RMK 1CU040     A3025=,
20180103_050000.002,0,RJFF,,,,0,20180103050000,-1,-1,-1,-1,310,-1,10,-1,-1,-1,-1,,9999,0,0,1,FEW 40,1,9,-1,3,1024,RJFF 030500Z 31010KT 9999 FEW040 09/M03 Q1024 RMK 1CU040     A3026=,
20180103_053000.001,0,RJFF,,,,0,20180103050000,-1,-1,-1,-1,320,-1,10,-1,-1,-1,-1,,9999,0,0,1,FEW 40,1,9,-1,3,1024,RJFF 030530Z 32010KT 9999 FEW040 09/M03 Q1024 RMK 2CU040     A3025=,
20180103_060000.002,0,RJFF,,,,0,20180103060000,-1,-1,-1,-1,320,-1,8,-1,-1,-1,-1,,9999,0,0,2,FEW 40   BKN 180,1,9,-1,2,1024,RJFF 030600Z 32008KT 9999 FEW040 BKN180 09/M02 Q1024 RMK     1CU040 5AC180 A3025=,
20180103_063000.001,0,RJFF,,,,0,20180103060000,-1,-1,-1,-1,340,-1,9,-1,-1,-1,-1,,9999,0,0,2,FEW 40   BKN 180,1,9,-1,3,1024,RJFF 030630Z 34009KT 9999 FEW040 BKN180 09/M03 Q1024 RMK     1CU040 5AC180 A3025=,
20180103_070000.002,0,RJFF,,,,0,20180103070000,-1,-1,-1,-1,310,-1,10,-1,-1,-1,-1,,9999,0,0,2,FEW 40   BKN 180,1,8,-1,2,1024,RJFF 030700Z 31010KT 9999 FEW040 BKN180 08/M02 Q1024 RMK     1CU040 5AC180 A3026=,
20180103_073000.001,0,RJFF,,,,0,20180103070000,-1,-1,-1,-1,350,-1,9,-1,-1,-1,-1,,9999,0,0,2,FEW 45   SCT 180,1,8,-1,2,1024,RJFF 030730Z 35009KT 9999 FEW045 SCT180 08/M02 Q1024 RMK     1SC045 4AC180 A3025=,
20180103_080000.002,0,RJFF,,,,0,20180103080000,-1,-1,-1,-1,340,-1,9,-1,-1,-1,-1,,9999,0,0,3,FEW 40   SCT 45   BKN -9999,1,8,-1,3,1024,RJFF 030800Z 34009KT 9999 FEW040 SCT045 BKN/// 08/M03 Q1024     RMK 1CU040 3CU045 A3026=,
20180103_083000.001,0,RJFF,,,,0,20180103080000,-1,-1,-1,-1,340,-1,9,-1,-1,-1,-1,,9999,0,0,2,FEW 40   SCT -9999,1,7,-1,2,1024,RJFF 030830Z 34009KT 9999 FEW040 SCT/// 07/M02 Q1024 RMK     1CU040 A3026=,
20180103_090000.002,0,RJFF,,,,0,20180103090000,-1,-1,-1,-1,340,-1,10,-1,-1,-1,-1,,9999,0,0,1,FEW 40,1,7,-1,3,1025,RJFF 030900Z 34010KT 9999 FEW040 07/M03 Q1025 RMK 1CU040     A3027=,
20180103_093000.001,0,RJFF,,,,0,20180103090000,-1,-1,-1,-1,330,-1,8,-1,-1,-1,-1,,9999,0,0,2,FEW 35   SCT 40,1,7,-1,3,1025,RJFF 030930Z 33008KT 9999 FEW035 SCT040 07/M03 Q1025 RMK     1CU035 3CU040 A3028=,
20180103_100000.002,0,RJFF,,,,0,20180103100000,-1,-1,-1,-1,330,-1,7,-1,-1,320,20,,9999,0,0,2,FEW 35   SCT 45,1,7,-1,3,1025,RJFF 031000Z 33007KT 320V020 9999 FEW035 SCT045 07/M03 Q1025     RMK 1CU035 3CU045 A3027=,
20180103_103000.001,0,RJFF,,,,0,20180103100000,-1,-1,-1,-1,999,-1,4,-1,-1,-1,-1,,9999,0,0,1,FEW 35,1,6,-1,2,1025,RJFF 031030Z VRB04KT 9999 FEW035 06/M02 Q1025 RMK 1CU035     A3027=,
20180103_110000.002,0,RJFF,,,,0,20180103110000,-1,-1,-1,-1,70,-1,4,-1,-1,30,140,,9999,0,0,1,FEW 35,1,6,-1,2,1025,RJFF 031100Z 07004KT 030V140 9999 FEW035 06/M02 Q1025 RMK     1CU035 A3027=,
20180103_113000.001,0,RJFF,,,,0,20180103110000,-1,-1,-1,-1,80,-1,4,-1,-1,30,180,,9999,0,0,1,FEW 30,1,5,-1,2,1025,RJFF 031130Z 08004KT 030V180 9999 FEW030 05/M02 Q1025 RMK     1CU030 A3028=,
20180103_120000.002,0,RJFF,,,,0,20180103120000,-1,-1,-1,-1,999,-1,2,-1,-1,-1,-1,,9999,0,0,2,FEW 30   SCT 45,1,5,-1,2,1025,RJFF 031200Z VRB02KT 9999 FEW030 SCT045 05/M02 Q1025 RMK     1CU030 3CU045 A3028=,
20180103_123000.001,0,RJFF,,,,0,20180103120000,-1,-1,-1,-1,999,-1,2,-1,-1,-1,-1,,9999,0,0,2,FEW 30   BKN 45,1,5,-1,2,1025,RJFF 031230Z VRB02KT 9999 FEW030 BKN045 05/M02 Q1025 RMK     1CU030 5SC045 A3028=,
20180103_130000.003,0,RJFF,,,,0,20180103130000,-1,-1,-1,-1,999,-1,2,-1,-1,-1,-1,,9999,0,0,2,FEW 30   BKN 45,1,5,-1,2,1025,RJFF 031300Z VRB02KT 9999 FEW030 BKN045 05/M02 Q1025 RMK     1CU030 5SC045 A3029=,
20180103_133000.001,0,RJFF,,,,0,20180103130000,-1,-1,-1,-1,999,-1,1,-1,-1,-1,-1,,9999,0,0,2,FEW 30   SCT 45,1,4,-1,2,1025,RJFF 031330Z VRB01KT 9999 FEW030 SCT045 04/M02 Q1025 RMK     1CU030 3SC045 A3028=,
20180103_140000.002,0,RJFF,,,,1,20180103140000,-1,-1,-1,-1,130,-1,2,-1,-1,-1,-1,,9999,0,0,1,NSC -1,1,3,-1,2,1025,RJFF 031400Z AUTO 13002KT 9999 NSC 03/M02 Q1025 RMK A3029=,
20180103_143000.001,0,RJFF,,,,1,20180103140000,-1,-1,-1,-1,150,-1,3,-1,-1,-1,-1,,9999,0,0,1,NSC -1,1,3,-1,2,1025,RJFF 031430Z AUTO 15003KT 9999 NSC 03/M02 Q1025 RMK A3028=,
20180103_150000.002,0,RJFF,,,,1,20180103150000,-1,-1,-1,-1,160,-1,5,-1,-1,-1,-1,,9999,0,0,1,NSC -1,1,2,-1,2,1025,RJFF 031500Z AUTO 16005KT 9999 NSC 02/M02 Q1025 RMK A3029=,
20180103_153000.001,0,RJFF,,,,1,20180103150000,-1,-1,-1,-1,150,-1,5,-1,-1,-1,-1,,9999,0,0,1,NSC -1,1,2,-1,1,1025,RJFF 031530Z AUTO 15005KT 9999 NSC 02/M01 Q1025 RMK A3029=,
20180103_160000.002,0,RJFF,,,,1,20180103160000,-1,-1,-1,-1,140,-1,4,-1,-1,-1,-1,,9999,0,0,1,NSC -1,1,2,-1,2,1025,RJFF 031600Z AUTO 14004KT 9999 NSC 02/M02 Q1025 RMK A3029=,
20180103_163000.001,0,RJFF,,,,1,20180103160000,-1,-1,-1,-1,120,-1,3,-1,-1,-1,-1,,9999,0,0,1,NSC -1,1,3,-1,2,1025,RJFF 031630Z AUTO 12003KT 9999 NSC 03/M02 Q1025 RMK A3028=,
20180103_170000.002,0,RJFF,,,,1,20180103170000,-1,-1,-1,-1,150,-1,3,-1,-1,-1,-1,,9999,0,0,1,NSC -1,1,2,-1,2,1025,RJFF 031700Z AUTO 15003KT 9999 NSC 02/M02 Q1025 RMK A3027=,
20180103_173000.001,0,RJFF,,,,1,20180103170000,-1,-1,-1,-1,130,-1,4,-1,-1,-1,-1,,9999,0,0,1,NSC -1,1,3,-1,2,1025,RJFF 031730Z AUTO 13004KT 9999 NSC 03/M02 Q1025 RMK A3027=,
20180103_180000.002,0,RJFF,,,,1,20180103180000,-1,-1,-1,-1,150,-1,5,-1,-1,-1,-1,,9999,0,0,1,NSC -1,1,3,-1,2,1025,RJFF 031800Z AUTO 15005KT 9999 NSC 03/M02 Q1025 RMK A3027=,
20180103_183000.001,0,RJFF,,,,1,20180103180000,-1,-1,-1,-1,150,-1,4,-1,-1,-1,-1,,9999,0,0,1,NSC -1,1,3,-1,1,1025,RJFF 031830Z AUTO 15004KT 9999 NSC 03/M01 Q1025 RMK A3027=,
20180103_190000.002,0,RJFF,,,,1,20180103190000,-1,-1,-1,-1,150,-1,5,-1,-1,-1,-1,,9999,0,0,1,NSC -1,1,2,-1,2,1024,RJFF 031900Z AUTO 15005KT 9999 NSC 02/M02 Q1024 RMK A3026=,
20180103_193000.001,0,RJFF,,,,1,20180103190000,-1,-1,-1,-1,140,-1,3,-1,-1,-1,-1,,9999,0,0,3,FEW 47   SCT 200   OVC 210,1,2,-1,2,1024,RJFF 031930Z AUTO 14003KT 9999 FEW047 SCT200 OVC210 02/M02     Q1024 RMK A3026=,
20180103_200000.002,0,RJFF,,,,1,20180103200000,-1,-1,-1,-1,150,-1,4,-1,-1,-1,-1,,9999,0,0,3,FEW 47   SCT 140   BKN 210,1,2,-1,2,1024,RJFF 032000Z AUTO 15004KT 9999 FEW047 SCT140 BKN210 02/M02     Q1024 RMK A3026=,
20180103_203000.001,0,RJFF,,,,1,20180103200000,-1,-1,-1,-1,140,-1,4,-1,-1,-1,-1,,9999,0,0,3,FEW 48   SCT 140   BKN 200,1,2,-1,2,1025,RJFF 032030Z AUTO 14004KT 9999 FEW048 SCT140 BKN200 02/M02     Q1025 RMK A3027=,
20180103_210000.003,0,RJFF,,,,0,20180103210000,-1,-1,-1,-1,130,-1,2,-1,-1,-1,-1,,9999,0,0,2,FEW 40   BKN -9999,1,2,-1,2,1025,RJFF 032100Z 13002KT 9999 FEW040 BKN/// 02/M02 Q1025 RMK     1CU040 A3027=,
20180103_213000.001,0,RJFF,,,,0,20180103210000,-1,-1,-1,-1,140,-1,2,-1,-1,-1,-1,,9999,0,0,2,FEW 40   BKN -9999,1,3,-1,2,1025,RJFF 032130Z 14002KT 9999 FEW040 BKN/// 03/M02 Q1025 RMK     1CU040 A3028=,
20180103_220000.002,0,RJFF,,,,0,20180103220000,-1,-1,-1,-1,160,-1,4,-1,-1,-1,-1,,9999,0,0,3,FEW 40   SCT 180   BKN -9999,1,2,-1,1,1025,RJFF 032200Z 16004KT 9999 FEW040 SCT180 BKN/// 02/M01 Q1025     RMK 1CU040 3AC180 A3027=,
20180103_223000.002,0,RJFF,,,,0,20180103220000,-1,-1,-1,-1,150,-1,3,-1,-1,100,180,,9999,0,0,2,FEW 40   BKN -9999,1,2,-1,2,1024,RJFF 032230Z 15003KT 100V180 9999 FEW040 BKN/// 02/M02 Q1024     RMK 1CU040 A3026=,
20180103_230000.002,0,RJFF,,,,0,20180103230000,-1,-1,-1,-1,150,-1,4,-1,-1,-1,-1,,9999,0,0,2,FEW 30   BKN -9999,1,3,-1,2,1025,RJFF 032300Z 15004KT 9999 FEW030 BKN/// 03/M02 Q1025 RMK     1CU030 A3028=,
20180103_233000.001,0,RJFF,,,,0,20180103230000,-1,-1,-1,-1,160,-1,5,-1,-1,-1,-1,,9999,0,0,2,FEW 30   BKN -9999,1,4,-1,1,1025,RJFF 032330Z 16005KT 9999 FEW030 BKN/// 04/M01 Q1025 RMK     1CU030 A3027=,
20180104_000000.002,0,RJFF,,,,0,20180104000000,-1,-1,-1,-1,150,-1,5,-1,-1,-1,-1,,9999,0,0,3,FEW 30   SCT 160   BKN -9999,1,5,-1,1,1025,RJFF 040000Z 15005KT 9999 FEW030 SCT160 BKN/// 05/M01 Q1025     RMK 1CU030 3AC160 A3027=,
20180104_003000.001,0,RJFF,,,,0,20180104000000,-1,-1,-1,-1,150,-1,7,-1,-1,-1,-1,,9999,0,0,3,FEW 30   SCT 120   BKN -9999,1,6,-1,1,1024,RJFF 040030Z 15007KT 9999 FEW030 SCT120 BKN/// 06/M01 Q1024     RMK 1CU030 3AC120 A3026=,
20180104_010000.002,0,RJFF,,,,0,20180104010000,-1,-1,-1,-1,160,-1,6,-1,-1,130,190,,9999,0,0,3,FEW 40   SCT 120   BKN -9999,1,6,-1,1,1025,RJFF 040100Z 16006KT 130V190 9999 FEW040 SCT120 BKN/// 06/M01     Q1025 RMK 1CU040 3AC120 A3027=,
20180104_013000.001,0,RJFF,,,,0,20180104010000,-1,-1,-1,-1,170,-1,5,-1,-1,-1,-1,,9999,0,0,3,FEW 40   SCT 120   BKN 150,1,7,-1,2,1024,RJFF 040130Z 17005KT 9999 FEW040 SCT120 BKN150 07/M02 Q1024     RMK 1CU040 3AC120 5AC150 A3026=,
20180104_020000.002,0,RJFF,,,,0,20180104020000,-1,-1,-1,-1,150,-1,4,-1,-1,110,190,,9999,0,0,3,FEW 35   SCT 130   BKN 150,1,7,-1,2,1024,RJFF 040200Z 15004KT 110V190 9999 FEW035 SCT130 BKN150 07/M02     Q1024 RMK 1CU035 3AC130 5AC150 A3025=,
20180104_023000.001,0,RJFF,,,,0,20180104020000,-1,-1,-1,-1,180,-1,3,-1,-1,110,250,,9999,0,0,3,FEW 30   SCT 150   BKN -9999,1,8,-1,2,1024,RJFF 040230Z 18003KT 110V250 9999 FEW030 SCT150 BKN/// 08/M02     Q1024 RMK 1CU030 3AC150 A3024=,
20180104_030000.002,0,RJFF,,,,0,20180104030000,-1,-1,-1,-1,999,-1,2,-1,-1,-1,-1,,9999,0,0,3,FEW 30   SCT 120   BKN -9999,1,8,-1,3,1023,RJFF 040300Z VRB02KT 9999 FEW030 SCT120 BKN/// 08/M03 Q1023     RMK 1CU030 3AC120 A3022=,
20180104_033000.001,0,RJFF,,,,0,20180104030000,-1,-1,-1,-1,999,-1,2,-1,-1,-1,-1,,9999,0,0,3,FEW 30   SCT 120   BKN 150,1,8,-1,2,1022,RJFF 040330Z VRB02KT 9999 FEW030 SCT120 BKN150 08/M02 Q1022     RMK 1CU030 3AC120 5AC150 A3020=,
20180104_040000.002,0,RJFF,,,,0,20180104040000,-1,-1,-1,-1,340,-1,4,-1,-1,280,20,,9999,0,0,3,FEW 30   BKN 120   BKN 150,1,8,-1,2,1022,RJFF 040400Z 34004KT 280V020 9999 FEW030 BKN120 BKN150 08/M02     Q1022 RMK 1CU030 5AC120 6AC150 A3018=,
20180104_043000.001,0,RJFF,,,,0,20180104040000,-1,-1,-1,-1,340,-1,4,-1,-1,290,60,,9999,0,0,3,FEW 30   BKN 120   BKN 150,1,9,-1,3,1021,RJFF 040430Z 34004KT 290V060 9999 FEW030 BKN120 BKN150 09/M03     Q1021 RMK 1CU030 5AC120 6AC150 A3016=,
20180104_050000.002,0,RJFF,,,,0,20180104050000,-1,-1,-1,-1,280,-1,5,-1,-1,240,330,,9999,0,0,3,FEW 30   BKN 120   BKN 150,1,9,-1,2,1021,RJFF 040500Z 28005KT 240V330 9999 FEW030 BKN120 BKN150 09/M02     Q1021 RMK 1CU030 5AC120 6AC150 A3017=,
20180104_053000.001,0,RJFF,,,,0,20180104050000,-1,-1,-1,-1,320,-1,6,-1,-1,-1,-1,,9999,0,0,3,FEW 30   BKN 120   BKN 150,1,9,-1,2,1021,RJFF 040530Z 32006KT 9999 FEW030 BKN120 BKN150 09/M02 Q1021     RMK 1CU030 5AC120 6AC150 A3016=,
20180104_060000.003,0,RJFF,,,,0,20180104060000,-1,-1,-1,-1,330,-1,5,-1,-1,290,20,,9999,0,0,3,FEW 30   BKN 120   BKN 150,1,9,-1,1,1021,RJFF 040600Z 33005KT 290V020 9999 FEW030 BKN120 BKN150 09/M01     Q1021 RMK 1CU030 5AC120 6AC150 A3017=,
20180104_063000.001,0,RJFF,,,,0,20180104060000,-1,-1,-1,-1,330,-1,6,-1,-1,290,20,,9999,0,0,3,FEW 30   BKN 100   BKN 140,1,9,-1,1,1021,RJFF 040630Z 33006KT 290V020 9999 FEW030 BKN100 BKN140 09/M01     Q1021 RMK 1CU030 5AC100 6AC140 A3017=,
20180104_070000.002,0,RJFF,,,,0,20180104070000,-1,-1,-1,-1,350,-1,6,-1,-1,320,30,,9999,0,0,3,FEW 30   BKN 100   BKN 140,1,9,-1,1,1021,RJFF 040700Z 35006KT 320V030 9999 FEW030 BKN100 BKN140 09/M01     Q1021 RMK 1CU030 5AC100 6AC140 A3017=,
20180104_073000.001,0,RJFF,,,,0,20180104070000,-1,-1,-1,-1,340,-1,6,-1,-1,320,30,,9999,0,0,3,FEW 30   BKN 120   BKN -9999,1,9,-1,2,1021,RJFF 040730Z 34006KT 320V030 9999 FEW030 BKN120 BKN/// 09/M02     Q1021 RMK 1CU030 5AC120 A3017=,
20180104_080000.002,0,RJFF,,,,0,20180104080000,-1,-1,-1,-1,340,-1,5,-1,-1,310,30,,9999,0,0,3,FEW 35   SCT 120   BKN -9999,1,8,-1,2,1021,RJFF 040800Z 34005KT 310V030 9999 FEW035 SCT120 BKN/// 08/M02     Q1021 RMK 1CU035 4AC120 A3017=,
20180104_083000.001,0,RJFF,,,,0,20180104080000,-1,-1,-1,-1,20,-1,4,-1,-1,320,70,,9999,0,0,3,FEW 35   BKN 110   BKN 140,1,8,-1,2,1021,RJFF 040830Z 02004KT 320V070 9999 FEW035 BKN110 BKN140 08/M02     Q1021 RMK 1CU035 5AC110 7AC140 A3017=,
20180104_090000.002,0,RJFF,,,,0,20180104090000,-1,-1,-1,-1,360,-1,3,-1,-1,280,60,,9999,0,0,3,FEW 45   BKN 110   BKN 140,1,8,-1,2,1021,RJFF 040900Z 36003KT 280V060 9999 FEW045 BKN110 BKN140 08/M02     Q1021 RMK 1SC045 5AC110 7AC140 A3017=,
20180104_093000.001,0,RJFF,,,,0,20180104090000,-1,-1,-1,-1,999,-1,4,-1,-1,-1,-1,,9999,0,0,3,FEW 45   BKN 110   BKN 130,1,8,-1,2,1021,RJFF 040930Z VRB04KT 9999 FEW045 BKN110 BKN130 08/M02 Q1021     RMK 1SC045 5AC110 7AC130 A3018=,
20180104_100000.002,0,RJFF,,,,0,20180104100000,-1,-1,-1,-1,50,-1,4,-1,-1,10,150,,9999,0,0,3,FEW 45   BKN 100   BKN 110,1,8,-1,1,1022,RJFF 041000Z 05004KT 010V150 9999 FEW045 BKN100 BKN110 08/M01     Q1022 RMK 1SC045 5AC100 7AC110 A3019=,
20180104_103000.001,0,RJFF,,,,0,20180104100000,-1,-1,-1,-1,60,-1,3,-1,-1,20,140,,9999,0,0,3,FEW 45   BKN 110   BKN 120,1,7,-1,1,1021,RJFF 041030Z 06003KT 020V140 9999 FEW045 BKN110 BKN120 07/M01     Q1021 RMK 1SC045 5AC110 7AC120 A3018=,
20180104_110000.002,0,RJFF,,,,0,20180104110000,-1,-1,-1,-1,70,-1,4,-1,-1,30,130,,9999,0,0,3,FEW 45   BKN 100   OVC 130,1,7,-1,1,1021,RJFF 041100Z 07004KT 030V130 9999 FEW045 BKN100 OVC130 07/M01     Q1021 RMK 1SC045 5AC100 8AS130 A3017=,
20180104_113000.001,0,RJFF,,,,0,20180104110000,-1,-1,-1,-1,80,-1,3,-1,-1,330,130,,9999,0,0,3,FEW 40   SCT 100   OVC 120,1,7,-1,0,1021,RJFF 041130Z 08003KT 330V130 9999 FEW040 SCT100 OVC120 07/M00     Q1021 RMK 1SC040 4AC100 8AS120 A3018=,
20180104_120000.003,0,RJFF,,,,0,20180104120000,-1,-1,-1,-1,999,-1,2,-1,-1,-1,-1,,9999,0,0,3,FEW 40   SCT 100   OVC 120,1,7,1,0,1021,RJFF 041200Z VRB02KT 9999 FEW040 SCT100 OVC120 07/00 Q1021 RMK     1SC040 4AC100 8AS120 A3017=,
20180104_123000.001,0,RJFF,,,,0,20180104120000,-1,-1,-1,-1,110,-1,3,-1,-1,60,140,,9999,0,0,3,FEW 40   BKN 100   OVC 120,1,7,1,0,1021,RJFF 041230Z 11003KT 060V140 9999 FEW040 BKN100 OVC120 07/00     Q1021 RMK 1SC040 5AC100 8AS120 A3016=,
20180104_130000.002,0,RJFF,,,,0,20180104130000,-1,-1,-1,-1,130,-1,3,-1,-1,90,150,,9999,0,0,3,FEW 40   SCT 100   OVC 120,1,7,-1,0,1020,RJFF 041300Z 13003KT 090V150 9999 FEW040 SCT100 OVC120 07/M00     Q1020 RMK 1SC040 4AC100 8AS120 A3014=,
20180104_133000.001,0,RJFF,,,,0,20180104130000,-1,-1,-1,-1,150,-1,3,-1,-1,-1,-1,,9999,0,0,3,FEW 40   BKN 100   OVC 110,1,7,-1,0,1020,RJFF 041330Z 15003KT 9999 FEW040 BKN100 OVC110 07/M00 Q1020     RMK 1SC040 5AC100 8AS110 A3015=,
20180104_140000.002,0,RJFF,,,,1,20180104140000,-1,-1,-1,-1,150,-1,3,-1,-1,-1,-1,,9999,0,0,1,NSC -1,1,6,1,0,1020,RJFF 041400Z AUTO 15003KT 9999 NSC 06/00 Q1020 RMK A3014=,
20180104_143000.001,0,RJFF,,,,1,20180104140000,-1,-1,-1,-1,140,-1,4,-1,-1,-1,-1,,9999,0,0,1,NSC -1,1,6,1,0,1020,RJFF 041430Z AUTO 14004KT 9999 NSC 06/00 Q1020 RMK A3013=,
20180104_150000.003,0,RJFF,,,,1,20180104150000,-1,-1,-1,-1,999,-1,2,-1,-1,-1,-1,,9999,0,0,1,NSC -1,1,7,1,0,1020,RJFF 041500Z AUTO VRB02KT 9999 NSC 07/00 Q1020 RMK A3012=,
20180104_153000.001,0,RJFF,,,,1,20180104150000,-1,-1,-1,-1,999,-1,2,-1,-1,-1,-1,,9999,0,0,1,NSC -1,1,6,1,0,1020,RJFF 041530Z AUTO VRB02KT 9999 NSC 06/00 Q1020 RMK A3012=,
20180104_160000.003,0,RJFF,,,,1,20180104160000,-1,-1,-1,-1,90,-1,2,-1,-1,-1,-1,,9999,0,0,1,NSC -1,1,6,1,0,1019,RJFF 041600Z AUTO 09002KT 9999 NSC 06/00 Q1019 RMK A3011=,
20180104_163000.001,0,RJFF,,,,1,20180104160000,-1,-1,-1,-1,120,-1,3,-1,-1,-1,-1,,9999,0,0,1,NSC -1,1,6,-1,0,1019,RJFF 041630Z AUTO 12003KT 9999 NSC 06/M00 Q1019 RMK A3010=,
20180104_170000.003,0,RJFF,,,,1,20180104170000,-1,-1,-1,-1,130,-1,3,-1,-1,-1,-1,,9999,0,0,1,NSC -1,1,6,-1,0,1019,RJFF 041700Z AUTO 13003KT 9999 NSC 06/M00 Q1019 RMK A3010=,
20180104_173000.001,0,RJFF,,,,1,20180104170000,-1,-1,-1,-1,140,-1,5,-1,-1,-1,-1,,9999,0,0,1,NSC -1,1,6,-1,0,1019,RJFF 041730Z AUTO 14005KT 9999 NSC 06/M00 Q1019 RMK A3010=,
20180104_180000.002,0,RJFF,,,,1,20180104180000,-1,-1,-1,-1,150,-1,4,-1,-1,-1,-1,,9999,0,0,1,NSC -1,1,6,-1,0,1019,RJFF 041800Z AUTO 15004KT 9999 NSC 06/M00 Q1019 RMK A3010=,
20180104_183000.001,0,RJFF,,,,1,20180104180000,-1,-1,-1,-1,120,-1,3,-1,-1,-1,-1,,9999,0,0,2,BKN 46   OVC 60,1,6,-1,0,1018,RJFF 041830Z AUTO 12003KT 9999 BKN046 OVC060 06/M00 Q1018 RMK     A3009=,
20180104_190000.003,0,RJFF,,,,1,20180104190000,-1,-1,-1,-1,70,-1,3,-1,-1,340,140,,9999,0,1,3,FEW 20   BKN 27   OVC 38,1,6,-1,1,1018,RJFF 041900Z AUTO 07003KT 340V140 9999 -RASN FEW020 BKN027     OVC038 06/M01 Q1018 RMK A3008=,- RA SN
20180104_193000.001,0,RJFF,,,,1,20180104190000,-1,-1,-1,-1,999,-1,1,-1,-1,-1,-1,,9999,0,1,3,BKN 19   BKN 27   OVC 38,1,6,-1,0,1018,RJFF 041930Z AUTO VRB01KT 9999 -RASN BKN019 BKN027 OVC038     06/M00 Q1018 RMK A3008=,- RA SN
20180104_200000.002,0,RJFF,,,,1,20180104200000,-1,-1,-1,-1,90,-1,3,-1,-1,50,150,,9999,0,1,3,FEW 15   SCT 26   OVC 29,1,5,1,0,1018,RJFF 042000Z AUTO 09003KT 050V150 9999 -RASN FEW015 SCT026     OVC029 05/00 Q1018 RMK A3008=,- RA SN
20180104_203000.001,0,RJFF,,,,1,20180104200000,-1,-1,-1,-1,120,-1,6,-1,-1,-1,-1,,9999,0,1,1,OVC 20,1,5,1,1,1018,RJFF 042030Z AUTO 12006KT 9999 -RASN OVC020 05/01 Q1018 RMK     A3006=,- RA SN
20180104_210000.002,0,RJFF,,,,0,20180104210000,-1,-1,-1,-1,120,-1,5,-1,-1,-1,-1,,9999,0,1,3,FEW 15   BKN 25   BKN 50,1,4,1,2,1017,RJFF 042100Z 12005KT 9999 -SHRA FEW015 BKN025 BKN050 04/02     Q1017 RMK 1CU015 5CU025 7SC050 A3004=,- RA SH
20180104_213000.001,0,RJFF,,,,0,20180104210000,-1,-1,-1,-1,150,-1,5,-1,-1,-1,-1,,9999,0,1,3,FEW 15   BKN 20   BKN 35,1,4,1,2,1018,RJFF 042130Z 15005KT 9999 -SHRA FEW015 BKN020 BKN035 04/02     Q1018 RMK 1CU015 5CU020 6CU035 A3006=,- RA SH
20180104_220000.002,0,RJFF,,,,0,20180104220000,-1,-1,-1,-1,180,-1,6,-1,-1,-1,-1,,9999,0,1,3,FEW 15   SCT 20   BKN 25,1,4,1,2,1018,RJFF 042200Z 18006KT 9999 -SHRA FEW015 SCT020 BKN025 04/02     Q1018 RMK 1CU015 4CU020 6CU025 A3007=,- RA SH
20180104_223000.002,0,RJFF,,,,0,20180104220000,-1,-1,-1,-1,150,-1,6,-1,-1,-1,-1,,9999,0,1,3,FEW 9   SCT 20   BKN 30,1,4,1,2,1018,RJFF 042230Z 15006KT 9999 -SHRA FEW009 SCT020 BKN030 04/02     Q1018 RMK 1ST009 4CU020 6CU030 A3007=,- RA SH
20180104_230000.002,0,RJFF,,,,0,20180104230000,-1,-1,-1,-1,130,-1,6,-1,-1,-1,-1,,9999,0,1,3,FEW 10   SCT 20   BKN 35,1,4,1,2,1018,RJFF 042300Z 13006KT 9999 -SHRA FEW010 SCT020 BKN035 04/02     Q1018 RMK 1ST010 4CU020 6CU035 A3006=,- RA SH
20180104_233000.001,0,RJFF,,,,0,20180104230000,-1,-1,-1,-1,160,-1,9,-1,-1,-1,-1,,9999,0,1,3,FEW 9   SCT 25   BKN 35,1,4,1,2,1018,RJFF 042330Z 16009KT 9999 -SHRA FEW009 SCT025 BKN035 04/02     Q1018 RMK 1ST009 4CU025 5CU035 A3006=,- RA SH
20180105_000000.002,0,RJFF,,,,0,20180105000000,-1,-1,-1,-1,150,-1,10,-1,-1,-1,-1,,9999,0,1,3,FEW 6   SCT 35   BKN 50,1,4,1,2,1018,RJFF 050000Z 15010KT 9999 -SHRA FEW006 SCT035 BKN050 04/02     Q1018 RMK 1ST006 3CU035 7SC050 A3006=,- RA SH
20180105_003000.001,0,RJFF,,,,0,20180105000000,-1,-1,-1,-1,170,-1,9,-1,-1,-1,-1,,9999,0,0,3,FEW 9   SCT 50   BKN 110,1,4,1,2,1018,RJFF 050030Z 17009KT 9999 FEW009 SCT050 BKN110 04/02 Q1018 RMK     1ST009 3SC050 7AC110 A3007=,
20180105_010000.003,0,RJFF,,,,0,20180105010000,-1,-1,-1,-1,160,-1,8,-1,-1,-1,-1,,9999,0,0,3,FEW 6   SCT 50   BKN 110,1,4,1,2,1018,RJFF 050100Z 16008KT 9999 FEW006 SCT050 BKN110 04/02 Q1018 RMK     1ST006 3SC050 7AC110 A3007=,
20180105_013000.001,0,RJFF,,,,0,20180105010000,-1,-1,-1,-1,160,-1,8,-1,-1,-1,-1,,9999,0,1,3,FEW 6   SCT 45   BKN 110,1,5,1,3,1018,RJFF 050130Z 16008KT 9999 -SHRA FEW006 SCT045 BKN110 05/03     Q1018 RMK 1ST006 3CU045 7AC110 A3007=,- RA SH
20180105_020000.002,0,RJFF,,,,0,20180105020000,-1,-1,-1,-1,180,-1,6,-1,-1,150,210,,9999,0,0,3,FEW 6   SCT 50   BKN 110,1,5,1,3,1018,RJFF 050200Z 18006KT 150V210 9999 FEW006 SCT050 BKN110 05/03     Q1018 RMK 1ST006 3SC050 7AC110 A3007=,
20180105_023000.001,0,RJFF,,,,0,20180105020000,-1,-1,-1,-1,160,-1,9,-1,-1,-1,-1,,9999,0,0,3,FEW 9   SCT 60   BKN 110,1,5,1,3,1017,RJFF 050230Z 16009KT 9999 FEW009 SCT060 BKN110 05/03 Q1017 RMK     1ST009 4SC060 7AC110 A3005=,
20180105_030000.002,0,RJFF,,,,0,20180105030000,-1,-1,-1,-1,160,-1,8,-1,-1,-1,-1,,9999,0,0,3,FEW 9   SCT 60   BKN 110,1,6,1,3,1017,RJFF 050300Z 16008KT 9999 FEW009 SCT060 BKN110 06/03 Q1017 RMK     1ST009 4SC060 7AC110 A3003=,
20180105_033000.001,0,RJFF,,,,0,20180105030000,-1,-1,-1,-1,150,-1,7,-1,-1,-1,-1,,9999,0,0,3,FEW 15   SCT 50   BKN 110,1,6,1,3,1016,RJFF 050330Z 15007KT 9999 FEW015 SCT050 BKN110 06/03 Q1016 RMK     1CU015 3SC050 7AC110 A3001=,
20180105_040000.002,0,RJFF,,,,0,20180105040000,-1,-1,-1,-1,170,-1,6,-1,-1,-1,-1,,9999,0,1,3,FEW 9   BKN 30   BKN 50,1,6,1,3,1016,RJFF 050400Z 17006KT 9999 -SHRA FEW009 BKN030 BKN050 06/03     Q1016 RMK 1ST009 5CU030 7SC050 A3000=,- RA SH
20180105_043000.001,0,RJFF,,,,0,20180105040000,-1,-1,-1,-1,160,-1,6,-1,-1,-1,-1,,9999,0,1,3,FEW 10   BKN 25   BKN 50,1,7,1,4,1015,RJFF 050430Z 16006KT 9999 VCSH FEW010 BKN025 BKN050 07/04     Q1015 RMK 1ST010 5CU025 7SC050 A2999=,VC SH
20180105_050000.002,0,RJFF,,,,0,20180105050000,-1,-1,-1,-1,150,-1,5,-1,-1,-1,-1,,9999,0,1,3,FEW 10   BKN 20   BKN 25,1,7,1,4,1015,RJFF 050500Z 15005KT 9999 -SHRA FEW010 BKN020 BKN025 07/04     Q1015 RMK 1ST010 5CU020 7CU025 A2999=,- RA SH
20180105_053000.001,0,RJFF,,,,0,20180105050000,-1,-1,-1,-1,150,-1,3,-1,-1,-1,-1,,5000,0,2,3,FEW 10   BKN 20   BKN 25,1,7,1,4,1015,RJFF 050530Z 15003KT 5000 -SHRA BR FEW010 BKN020 BKN025 07/04     Q1015 RMK 1ST010 5CU020 7CU025 A2999=,- RA SH; BR
20180105_060000.002,0,RJFF,,,,0,20180105060000,-1,-1,-1,-1,170,-1,7,-1,-1,-1,-1,,7000,0,1,3,FEW 10   BKN 20   BKN 30,1,6,1,4,1015,RJFF 050600Z 17007KT 7000 -SHRA FEW010 BKN020 BKN030 06/04     Q1015 RMK 1ST010 5CU020 7CU030 A2998=,- RA SH
20180105_063000.001,0,RJFF,,,,0,20180105060000,-1,-1,-1,-1,150,-1,8,-1,-1,110,190,,6000,0,1,3,FEW 15   SCT 20   BKN 30,1,6,1,5,1015,RJFF 050630Z 15008KT 110V190 6000 -SHRA FEW015 SCT020 BKN030     06/05 Q1015 RMK 1CU015 3CU020 7CU030 A2998=,- RA SH
20180105_070000.002,0,RJFF,,,,0,20180105070000,-1,-1,-1,-1,150,-1,5,-1,-1,100,160,,9000,0,1,3,FEW 10   SCT 20   BKN 30,1,6,1,5,1015,RJFF 050700Z 15005KT 100V160 9000 -SHRA FEW010 SCT020 BKN030     06/05 Q1015 RMK 1ST010 4CU020 7CU030 A2998=,- RA SH
20180105_073000.001,0,RJFF,,,,0,20180105070000,-1,-1,-1,-1,160,-1,6,-1,-1,140,200,,9000,0,0,3,FEW 9   SCT 30   BKN 50,1,6,1,4,1015,RJFF 050730Z 16006KT 140V200 9000 FEW009 SCT030 BKN050 06/04     Q1015 RMK 1ST009 3CU030 7SC050 A2998=,
20180105_080000.002,0,RJFF,,,,0,20180105080000,-1,-1,-1,-1,170,-1,6,-1,-1,130,190,,9999,0,1,3,FEW 3   SCT 20   BKN 30,1,6,1,4,1015,RJFF 050800Z 17006KT 130V190 9999 -SHRA FEW003 SCT020 BKN030     06/04 Q1015 RMK 1ST003 4CU020 6CU030 A2999=,- RA SH
20180105_083000.001,0,RJFF,,,,0,20180105080000,-1,-1,-1,-1,160,-1,6,-1,-1,-1,-1,,9999,0,1,3,FEW 3   SCT 20   BKN 30,1,6,1,5,1015,RJFF 050830Z 16006KT 9999 -SHRA FEW003 SCT020 BKN030 06/05     Q1015 RMK 1ST003 4CU020 6CU030 A2998=,- RA SH
20180105_090000.002,0,RJFF,,,,0,20180105090000,-1,-1,-1,-1,160,-1,4,-1,-1,-1,-1,,9999,0,0,3,FEW 3   SCT 30   BKN 45,1,6,1,5,1015,RJFF 050900Z 16004KT 9999 FEW003 SCT030 BKN045 06/05 Q1015 RMK     1ST003 4CU030 6CU045 A2998=,
20180105_093000.001,0,RJFF,,,,0,20180105090000,-1,-1,-1,-1,190,-1,4,-1,-1,170,240,,9999,0,0,3,FEW 3   SCT 30   BKN 40,1,7,1,4,1015,RJFF 050930Z 19004KT 170V240 9999 FEW003 SCT030 BKN040 07/04     Q1015 RMK 1ST003 4CU030 6CU040 A2999=,
20180105_100000.002,0,RJFF,,,,0,20180105100000,-1,-1,-1,-1,190,-1,4,-1,-1,160,250,,9999,0,0,3,FEW 3   SCT 30   BKN 45,1,7,1,5,1015,RJFF 051000Z 19004KT 160V250 9999 FEW003 SCT030 BKN045 07/05     Q1015 RMK 1ST003 4CU030 6CU045 A3000=,
20180105_103000.001,0,RJFF,,,,0,20180105100000,-1,-1,-1,-1,190,-1,4,-1,-1,-1,-1,,9999,0,0,3,FEW 10   SCT 30   BKN 40,1,7,1,4,1016,RJFF 051030Z 19004KT 9999 FEW010 SCT030 BKN040 07/04 Q1016 RMK     1ST010 4CU030 6CU040 A3000=,
20180105_110000.002,0,RJFF,,,,0,20180105110000,-1,-1,-1,-1,170,-1,4,-1,-1,-1,-1,,9999,0,0,3,FEW 10   SCT 30   BKN 45,1,7,1,4,1016,RJFF 051100Z 17004KT 9999 FEW010 SCT030 BKN045 07/04 Q1016 RMK     1ST010 3CU030 6CU045 A3000=,
20180105_113000.001,0,RJFF,,,,0,20180105110000,-1,-1,-1,-1,160,-1,4,-1,-1,-1,-1,,9999,0,0,3,FEW 20   SCT 35   BKN 45,1,7,1,4,1016,RJFF 051130Z 16004KT 9999 FEW020 SCT035 BKN045 07/04 Q1016 RMK     1CU020 3CU035 6CU045 A3000=,
20180105_120000.002,0,RJFF,,,,0,20180105120000,-1,-1,-1,-1,150,-1,5,-1,-1,-1,-1,,9999,0,0,3,FEW 25   SCT 35   BKN 50,1,6,1,4,1016,RJFF 051200Z 15005KT 9999 FEW025 SCT035 BKN050 06/04 Q1016 RMK     1CU025 3CU035 6SC050 A3001=,
20180105_123000.001,0,RJFF,,,,0,20180105120000,-1,-1,-1,-1,160,-1,5,-1,-1,-1,-1,,9999,0,0,3,FEW 25   SCT 35   BKN 50,1,6,1,4,1016,RJFF 051230Z 16005KT 9999 FEW025 SCT035 BKN050 06/04 Q1016 RMK     1CU025 3CU035 6SC050 A3001=,
20180105_130000.002,0,RJFF,,,,0,20180105130000,-1,-1,-1,-1,170,-1,5,-1,-1,-1,-1,,9999,0,0,3,FEW 25   SCT 35   BKN 50,1,6,1,4,1016,RJFF 051300Z 17005KT 9999 FEW025 SCT035 BKN050 06/04 Q1016 RMK     1CU025 4CU035 6SC050 A3001=,
20180105_133000.001,0,RJFF,,,,0,20180105130000,-1,-1,-1,-1,170,-1,5,-1,-1,-1,-1,,9999,0,0,3,FEW 25   SCT 35   BKN 50,1,6,1,4,1016,RJFF 051330Z 17005KT 9999 FEW025 SCT035 BKN050 06/04 Q1016 RMK     1CU025 4CU035 6SC050 A3002=,
20180105_140000.002,0,RJFF,,,,1,20180105140000,-1,-1,-1,-1,180,-1,4,-1,-1,-1,-1,,9999,0,0,3,FEW 36   BKN 42   BKN 49,1,6,1,4,1016,RJFF 051400Z AUTO 18004KT 9999 FEW036 BKN042 BKN049 06/04     Q1016 RMK A3002=,
20180105_143000.001,0,RJFF,,,,1,20180105140000,-1,-1,-1,-1,200,-1,3,-1,-1,170,240,,9999,0,0,3,FEW 42   SCT 49   OVC 50,1,6,1,4,1016,RJFF 051430Z AUTO 20003KT 170V240 9999 FEW042 SCT049 OVC050     06/04 Q1016 RMK A3002=,
20180105_150000.002,0,RJFF,,,,1,20180105150000,-1,-1,-1,-1,180,-1,3,-1,-1,-1,-1,,9999,0,0,2,FEW 46   BKN 50,1,5,1,3,1016,RJFF 051500Z AUTO 18003KT 9999 FEW046 BKN050 05/03 Q1016 RMK     A3002=,
20180105_153000.001,0,RJFF,,,,1,20180105150000,-1,-1,-1,-1,190,-1,3,-1,-1,170,230,,9999,0,0,1,NSC -1,1,5,1,3,1016,RJFF 051530Z AUTO 19003KT 170V230 9999 NSC 05/03 Q1016 RMK     A3002=,
20180105_160000.003,0,RJFF,,,,1,20180105160000,-1,-1,-1,-1,200,-1,3,-1,-1,160,240,,9999,0,0,3,FEW 39   SCT 46   BKN 50,1,5,1,3,1016,RJFF 051600Z AUTO 20003KT 160V240 9999 FEW039 SCT046 BKN050     05/03 Q1016 RMK A3002=,
20180105_163000.001,0,RJFF,,,,1,20180105160000,-1,-1,-1,-1,230,-1,4,-1,-1,200,260,,9999,0,0,3,SCT 38   BKN 45   OVC 50,1,7,1,2,1016,RJFF 051630Z AUTO 23004KT 200V260 9999 SCT038 BKN045 OVC050     07/02 Q1016 RMK A3003=,
20180105_170000.002,0,RJFF,,,,1,20180105170000,-1,-1,-1,-1,230,-1,4,-1,-1,-1,-1,,9999,0,0,3,SCT 38   BKN 49   BKN 50,1,7,1,1,1017,RJFF 051700Z AUTO 23004KT 9999 SCT038 BKN049 BKN050 07/01     Q1017 RMK A3003=,
20180105_173000.001,0,RJFF,,,,1,20180105170000,-1,-1,-1,-1,270,-1,7,-1,-1,220,310,,9999,0,0,1,FEW 46,1,7,1,0,1017,RJFF 051730Z AUTO 27007KT 220V310 9999 FEW046 07/00 Q1017 RMK     A3004=,
20180105_180000.003,0,RJFF,,,,1,20180105180000,-1,-1,-1,-1,260,-1,5,-1,-1,220,300,,9999,0,0,3,FEW 41   SCT 46   BKN 50,1,7,-1,0,1017,RJFF 051800Z AUTO 26005KT 220V300 9999 FEW041 SCT046 BKN050     07/M00 Q1017 RMK A3003=,
20180105_183000.001,0,RJFF,,,,1,20180105180000,-1,-1,-1,-1,250,-1,5,-1,-1,210,280,,9999,0,0,2,SCT 40   BKN 49,1,7,-1,0,1017,RJFF 051830Z AUTO 25005KT 210V280 9999 SCT040 BKN049 07/M00     Q1017 RMK A3004=,
20180105_190000.002,0,RJFF,,,,1,20180105190000,-1,-1,-1,-1,300,-1,8,-1,-1,-1,-1,,9999,0,0,2,FEW 40   SCT 48,1,7,-1,1,1017,RJFF 051900Z AUTO 30008KT 9999 FEW040 SCT048 07/M01 Q1017 RMK     A3005=,
20180105_193000.001,0,RJFF,,,,1,20180105190000,-1,-1,-1,-1,300,-1,7,-1,-1,260,330,,9999,0,0,1,SCT 45,1,7,-1,2,1017,RJFF 051930Z AUTO 30007KT 260V330 9999 SCT045 07/M02 Q1017 RMK     A3005=,
20180105_200000.002,0,RJFF,,,,1,20180105200000,-1,-1,-1,-1,270,-1,5,-1,-1,210,300,,9999,0,0,2,FEW 45   SCT 48,1,6,-1,2,1017,RJFF 052000Z AUTO 27005KT 210V300 9999 FEW045 SCT048 06/M02     Q1017 RMK A3006=,
20180105_203000.001,0,RJFF,,,,1,20180105200000,-1,-1,-1,-1,290,-1,6,-1,-1,240,340,,9999,0,0,1,FEW 44,1,6,-1,2,1017,RJFF 052030Z AUTO 29006KT 240V340 9999 FEW044 06/M02 Q1017 RMK     A3006=,
20180105_210000.003,0,RJFF,,,,0,20180105210000,-1,-1,-1,-1,320,-1,9,-1,-1,-1,-1,,9999,0,0,1,FEW 30,1,6,-1,2,1018,RJFF 052100Z 32009KT 9999 FEW030 06/M02 Q1018 RMK 1CU030     A3006=,
20180105_213000.001,0,RJFF,,,,0,20180105210000,-1,-1,-1,-1,310,-1,9,-1,-1,-1,-1,,9999,0,0,1,FEW 30,1,7,-1,2,1018,RJFF 052130Z 31009KT 9999 FEW030 07/M02 Q1018 RMK 1CU030     A3008=,
20180105_220000.002,0,RJFF,,,,0,20180105220000,-1,-1,-1,-1,300,-1,9,-1,-1,-1,-1,,9999,0,0,2,FEW 30   SCT 40,1,6,-1,1,1018,RJFF 052200Z 30009KT 9999 FEW030 SCT040 06/M01 Q1018 RMK     1CU030 3CU040 A3008=,
20180105_223000.002,0,RJFF,,,,0,20180105220000,-1,-1,-1,-1,300,-1,8,-1,-1,-1,-1,,9999,0,0,2,FEW 35   SCT 40,1,7,-1,1,1018,RJFF 052230Z 30008KT 9999 FEW035 SCT040 07/M01 Q1018 RMK     1CU035 4CU040 A3009=,
20180105_230000.002,0,RJFF,,,,0,20180105230000,-1,-1,-1,-1,310,-1,9,-1,-1,-1,-1,,9999,0,0,2,FEW 35   SCT 45,1,7,-1,2,1019,RJFF 052300Z 31009KT 9999 FEW035 SCT045 07/M02 Q1019 RMK     1CU035 4CU045 A3010=,
20180105_233000.001,0,RJFF,,,,0,20180105230000,-1,-1,-1,-1,310,-1,6,-1,-1,280,340,,9999,0,0,2,FEW 35   SCT 45,1,8,-1,2,1019,RJFF 052330Z 31006KT 280V340 9999 FEW035 SCT045 08/M02 Q1019     RMK 1CU035 3CU045 A3011=,
20180106_000000.002,0,RJFF,,,,0,20180106000000,-1,-1,-1,-1,310,-1,7,-1,-1,280,340,,9999,0,0,1,FEW 35,1,8,-1,1,1020,RJFF 060000Z 31007KT 280V340 9999 FEW035 08/M01 Q1020 RMK     1CU035 A3012=,
20180106_003000.001,0,RJFF,,,,0,20180106000000,-1,-1,-1,-1,320,-1,9,-1,-1,280,360,,9999,0,0,2,FEW 35   SCT 40,1,8,-1,2,1020,RJFF 060030Z 32009KT 280V360 9999 FEW035 SCT040 08/M02 Q1020     RMK 1CU035 3CU040 A3013=,
20180106_010000.002,0,RJFF,,,,0,20180106010000,-1,-1,-1,-1,320,-1,10,-1,-1,280,340,,9999,0,0,1,FEW 35,1,8,-1,2,1020,RJFF 060100Z 32010KT 280V340 9999 FEW035 08/M02 Q1020 RMK     1CU035 A3014=,
20180106_013000.001,0,RJFF,,,,0,20180106010000,-1,-1,-1,-1,320,-1,10,-1,-1,-1,-1,,9999,0,0,1,FEW 35,1,9,-1,2,1020,RJFF 060130Z 32010KT 9999 FEW035 09/M02 Q1020 RMK 1CU035     A3014=,
20180106_020000.002,0,RJFF,,,,0,20180106020000,-1,-1,-1,-1,330,-1,12,-1,-1,-1,-1,,9999,0,0,1,FEW 35,1,9,-1,2,1020,RJFF 060200Z 33012KT 9999 FEW035 09/M02 Q1020 RMK 1CU035     A3014=,
20180106_023000.001,0,RJFF,,,,0,20180106020000,-1,-1,-1,-1,340,-1,11,-1,-1,-1,-1,,9999,0,0,1,FEW 35,1,9,-1,1,1020,RJFF 060230Z 34011KT 9999 FEW035 09/M01 Q1020 RMK 1CU035     A3013=,
20180106_030000.002,0,RJFF,,,,0,20180106030000,-1,-1,-1,-1,300,-1,10,-1,-1,270,340,,9999,0,0,1,FEW 35,1,9,-1,2,1019,RJFF 060300Z 30010KT 270V340 9999 FEW035 09/M02 Q1019 RMK     1CU035 A3011=,
20180106_033000.001,0,RJFF,,,,0,20180106030000,-1,-1,-1,-1,320,-1,9,-1,-1,270,360,,9999,0,0,1,FEW 35,1,9,-1,3,1019,RJFF 060330Z 32009KT 270V360 9999 FEW035 09/M03 Q1019 RMK     1CU035 A3011=,
20180106_040000.002,0,RJFF,,,,0,20180106040000,-1,-1,-1,-1,350,-1,9,-1,-1,-1,-1,,9999,0,0,2,FEW 35   SCT 45,1,9,-1,1,1019,RJFF 060400Z 35009KT 9999 FEW035 SCT045 09/M01 Q1019 RMK     1CU035 3CU045 A3010=,
20180106_043000.001,0,RJFF,,,,0,20180106040000,-1,-1,-1,-1,320,-1,11,-1,-1,290,350,,9999,0,0,2,FEW 35   SCT 45,1,9,-1,2,1019,RJFF 060430Z 32011KT 290V350 9999 FEW035 SCT045 09/M02 Q1019     RMK 1CU035 3CU045 A3010=,
20180106_050000.002,0,RJFF,,,,0,20180106050000,-1,-1,-1,-1,300,-1,10,-1,-1,270,340,,9999,0,0,2,FEW 35   SCT 45,1,9,-1,2,1019,RJFF 060500Z 30010KT 270V340 9999 FEW035 SCT045 09/M02 Q1019     RMK 1CU035 3CU045 A3009=,
20180106_060000.002,0,RJFF,,,,0,20180106060000,-1,-1,-1,-1,320,-1,9,-1,-1,290,350,,9999,0,0,2,FEW 35   SCT 45,1,9,-1,2,1019,RJFF 060600Z 32009KT 290V350 9999 FEW035 SCT045 09/M02 Q1019     RMK 1CU035 3CU045 A3009=,
20180106_063000.001,0,RJFF,,,,0,20180106060000,-1,-1,-1,-1,300,-1,9,-1,-1,-1,-1,,9999,0,0,2,FEW 35   SCT 45,1,9,-1,2,1019,RJFF 060630Z 30009KT 9999 FEW035 SCT045 09/M02 Q1019 RMK     1CU035 3CU045 A3010=,
20180106_070000.002,0,RJFF,,,,0,20180106070000,-1,-1,-1,-1,320,-1,8,-1,-1,300,360,,9999,0,0,1,FEW 35,1,9,-1,2,1019,RJFF 060700Z 32008KT 300V360 9999 FEW035 09/M02 Q1019 RMK     1CU035 A3010=,
20180106_073000.001,0,RJFF,,,,0,20180106070000,-1,-1,-1,-1,330,-1,7,-1,-1,-1,-1,,9999,0,0,1,FEW 35,1,8,-1,3,1019,RJFF 060730Z 33007KT 9999 FEW035 08/M03 Q1019 RMK 1CU035     A3010=,
20180106_080000.002,0,RJFF,,,,0,20180106080000,-1,-1,-1,-1,340,-1,8,-1,-1,-1,-1,,9999,0,0,1,FEW 35,1,8,-1,3,1019,RJFF 060800Z 34008KT 9999 FEW035 08/M03 Q1019 RMK 1CU035     A3010=,
20180106_083000.001,0,RJFF,,,,0,20180106080000,-1,-1,-1,-1,330,-1,6,-1,-1,300,10,,9999,0,0,1,SCT 45,1,8,-1,2,1020,RJFF 060830Z 33006KT 300V010 9999 SCT045 08/M02 Q1020 RMK     3SC045 A3014 P/RR=,
20180106_090000.002,0,RJFF,,,,0,20180106090000,-1,-1,-1,-1,340,-1,5,-1,-1,320,110,,9999,0,0,2,FEW 45   SCT -9999,1,8,-1,2,1020,RJFF 060900Z 34005KT 320V110 9999 FEW045 SCT/// 08/M02 Q1020     RMK 1SC045 A3015=,
20180106_093000.001,0,RJFF,,,,0,20180106090000,-1,-1,-1,-1,20,-1,4,-1,-1,310,90,,9999,0,0,2,FEW 45   SCT -9999,1,7,-1,2,1021,RJFF 060930Z 02004KT 310V090 9999 FEW045 SCT/// 07/M02 Q1021     RMK 1SC045 A3016=,
20180106_100000.002,0,RJFF,,,,0,20180106100000,-1,-1,-1,-1,80,-1,5,-1,-1,20,130,,9999,0,0,1,FEW 45,1,6,-1,1,1021,RJFF 061000Z 08005KT 020V130 9999 FEW045 06/M01 Q1021 RMK     1SC045 A3017=,
20180106_103000.001,0,RJFF,,,,0,20180106100000,-1,-1,-1,-1,70,-1,4,-1,-1,40,160,,9999,0,0,2,FEW 45   SCT -9999,1,6,-1,1,1021,RJFF 061030Z 07004KT 040V160 9999 FEW045 SCT/// 06/M01 Q1021     RMK 1SC045 A3017=,
20180106_110000.002,0,RJFF,,,,0,20180106110000,-1,-1,-1,-1,999,-1,4,-1,-1,-1,-1,,9999,0,0,2,FEW 45   SCT -9999,1,6,-1,1,1021,RJFF 061100Z VRB04KT 9999 FEW045 SCT/// 06/M01 Q1021 RMK     1SC045 A3016=,
20180106_113000.001,0,RJFF,,,,0,20180106110000,-1,-1,-1,-1,999,-1,2,-1,-1,-1,-1,,9999,0,0,2,FEW 45   BKN -9999,1,5,-1,2,1021,RJFF 061130Z VRB02KT 9999 FEW045 BKN/// 05/M02 Q1021 RMK     1SC045 A3017=,
20180106_120000.002,0,RJFF,,,,0,20180106120000,-1,-1,-1,-1,160,-1,3,-1,-1,130,200,,9999,0,0,2,FEW 45   BKN -9999,1,5,-1,1,1022,RJFF 061200Z 16003KT 130V200 9999 FEW045 BKN/// 05/M01 Q1022     RMK 1SC045 A3018=,
20180106_123000.001,0,RJFF,,,,0,20180106120000,-1,-1,-1,-1,170,-1,3,-1,-1,-1,-1,,9999,0,0,2,FEW 45   BKN -9999,1,5,-1,1,1021,RJFF 061230Z 17003KT 9999 FEW045 BKN/// 05/M01 Q1021 RMK     1SC045 A3017=,
20180106_130000.002,0,RJFF,,,,0,20180106130000,-1,-1,-1,-1,180,-1,4,-1,-1,-1,-1,,9999,0,0,2,FEW 45   SCT -9999,1,5,-1,1,1022,RJFF 061300Z 18004KT 9999 FEW045 SCT/// 05/M01 Q1022 RMK     1SC045 A3020=,
20180106_133000.001,0,RJFF,,,,0,20180106130000,-1,-1,-1,-1,160,-1,3,-1,-1,-1,-1,,9999,0,0,2,FEW 45   SCT -9999,1,4,-1,1,1022,RJFF 061330Z 16003KT 9999 FEW045 SCT/// 04/M01 Q1022 RMK     1SC045 A3019=,
20180106_140000.003,0,RJFF,,,,1,20180106140000,-1,-1,-1,-1,150,-1,4,-1,-1,-1,-1,,9999,0,0,1,NCD -1,1,4,-1,0,1022,RJFF 061400Z AUTO 15004KT 9999 NCD 04/M00 Q1022 RMK A3018=,
20180106_143000.001,0,RJFF,,,,1,20180106140000,-1,-1,-1,-1,999,-1,2,-1,-1,-1,-1,,9999,0,0,1,NCD -1,1,4,-1,1,1022,RJFF 061430Z AUTO VRB02KT 9999 NCD 04/M01 Q1022 RMK A3018=,
20180106_150000.002,0,RJFF,,,,1,20180106150000,-1,-1,-1,-1,150,-1,2,-1,-1,-1,-1,,9999,0,0,1,NCD -1,1,2,-1,1,1022,RJFF 061500Z AUTO 15002KT 9999 NCD 02/M01 Q1022 RMK A3018=,
20180106_153000.001,0,RJFF,,,,1,20180106150000,-1,-1,-1,-1,150,-1,4,-1,-1,-1,-1,,9999,0,0,1,NCD -1,1,2,-1,1,1022,RJFF 061530Z AUTO 15004KT 9999 NCD 02/M01 Q1022 RMK A3020=,
20180106_160000.002,0,RJFF,,,,1,20180106160000,-1,-1,-1,-1,140,-1,4,-1,-1,-1,-1,,9999,0,0,1,NCD -1,1,2,-1,1,1022,RJFF 061600Z AUTO 14004KT 9999 NCD 02/M01 Q1022 RMK A3019=,
20180106_163000.001,0,RJFF,,,,1,20180106160000,-1,-1,-1,-1,110,-1,2,-1,-1,-1,-1,,9999,0,0,1,NCD -1,1,3,-1,1,1022,RJFF 061630Z AUTO 11002KT 9999 NCD 03/M01 Q1022 RMK A3019=,
20180106_170000.002,0,RJFF,,,,1,20180106170000,-1,-1,-1,-1,100,-1,3,-1,-1,-1,-1,,9999,0,0,1,NCD -1,1,3,-1,1,1022,RJFF 061700Z AUTO 10003KT 9999 NCD 03/M01 Q1022 RMK A3018=,
20180106_173000.001,0,RJFF,,,,1,20180106170000,-1,-1,-1,-1,140,-1,2,-1,-1,-1,-1,,9999,0,0,1,NCD -1,1,1,-1,2,1022,RJFF 061730Z AUTO 14002KT 9999 NCD 01/M02 Q1022 RMK A3020=,
20180106_180000.003,0,RJFF,,,,1,20180106180000,-1,-1,-1,-1,140,-1,3,-1,-1,-1,-1,,9999,0,0,1,NCD -1,1,0,-1,2,1023,RJFF 061800Z AUTO 14003KT 9999 NCD 00/M02 Q1023 RMK A3021=,
20180106_183000.001,0,RJFF,,,,1,20180106180000,-1,-1,-1,-1,130,-1,4,-1,-1,-1,-1,,9999,0,0,1,NCD -1,1,3,-1,1,1022,RJFF 061830Z AUTO 13004KT 9999 NCD 03/M01 Q1022 RMK A3020=,
20180106_190000.002,0,RJFF,,,,1,20180106190000,-1,-1,-1,-1,120,-1,2,-1,-1,-1,-1,,9999,0,0,1,NCD -1,1,3,-1,1,1022,RJFF 061900Z AUTO 12002KT 9999 NCD 03/M01 Q1022 RMK A3020=,
20180106_193000.001,0,RJFF,,,,1,20180106190000,-1,-1,-1,-1,140,-1,3,-1,-1,-1,-1,,9999,0,0,1,NSC -1,1,2,-1,1,1022,RJFF 061930Z AUTO 14003KT 9999 NSC 02/M01 Q1022 RMK A3018=,
20180106_200000.002,0,RJFF,,,,1,20180106200000,-1,-1,-1,-1,160,-1,4,-1,-1,-1,-1,,9999,0,0,1,NCD -1,1,2,-1,1,1022,RJFF 062000Z AUTO 16004KT 9999 NCD 02/M01 Q1022 RMK A3018=,
20180106_203000.001,0,RJFF,,,,1,20180106200000,-1,-1,-1,-1,160,-1,4,-1,-1,-1,-1,,9999,0,0,1,NSC -1,1,2,-1,1,1022,RJFF 062030Z AUTO 16004KT 9999 NSC 02/M01 Q1022 RMK A3018=,
20180106_210000.002,0,RJFF,,,,0,20180106210000,-1,-1,-1,-1,160,-1,4,-1,-1,-1,-1,CAVOK,-1,0,0,0,,1,2,-1,1,1022,RJFF 062100Z 16004KT CAVOK 02/M01 Q1022 RMK A3020=,
20180106_213000.001,0,RJFF,,,,0,20180106210000,-1,-1,-1,-1,130,-1,3,-1,-1,-1,-1,CAVOK,-1,0,0,0,,1,3,-1,1,1022,RJFF 062130Z 13003KT CAVOK 03/M01 Q1022 RMK A3019=,
20180106_220000.002,0,RJFF,,,,0,20180106220000,-1,-1,-1,-1,999,-1,2,-1,-1,-1,-1,CAVOK,-1,0,0,0,,1,3,-1,1,1022,RJFF 062200Z VRB02KT CAVOK 03/M01 Q1022 RMK A3020=,
20180106_223000.002,0,RJFF,,,,0,20180106220000,-1,-1,-1,-1,130,-1,3,-1,-1,110,180,CAVOK,-1,0,0,0,,1,3,-1,1,1022,RJFF 062230Z 13003KT 110V180 CAVOK 03/M01 Q1022 RMK A3019=,
20180106_230000.002,0,RJFF,,,,0,20180106230000,-1,-1,-1,-1,999,-1,2,-1,-1,-1,-1,CAVOK,-1,0,0,0,,1,3,-1,0,1022,RJFF 062300Z VRB02KT CAVOK 03/M00 Q1022 RMK A3019=,
20180106_233000.001,0,RJFF,,,,0,20180106230000,-1,-1,-1,-1,999,-1,2,-1,-1,-1,-1,,9999,0,0,2,FEW 8   BKN -9999,1,4,1,0,1022,RJFF 062330Z VRB02KT 9999 FEW008 BKN/// 04/00 Q1022 RMK 1ST008     A3019=,
20180107_000000.002,0,RJFF,,,,0,20180107000000,-1,-1,-1,-1,160,-1,2,-1,-1,-1,-1,CAVOK,-1,0,0,0,,1,5,-1,0,1021,RJFF 070000Z 16002KT CAVOK 05/M00 Q1021 RMK A3017=,
20180107_003000.001,0,RJFF,,,,0,20180107000000,-1,-1,-1,-1,160,-1,4,-1,-1,-1,-1,CAVOK,-1,0,0,0,,1,5,1,1,1022,RJFF 070030Z 16004KT CAVOK 05/01 Q1022 RMK A3019=,
20180107_010000.003,0,RJFF,,,,0,20180107010000,-1,-1,-1,-1,150,-1,3,-1,-1,120,190,CAVOK,-1,0,0,0,,1,7,-1,0,1022,RJFF 070100Z 15003KT 120V190 CAVOK 07/M00 Q1022 RMK A3021=,
20180107_013000.001,0,RJFF,,,,0,20180107010000,-1,-1,-1,-1,150,-1,6,-1,-1,120,180,CAVOK,-1,0,0,0,,1,8,-1,0,1022,RJFF 070130Z 15006KT 120V180 CAVOK 08/M00 Q1022 RMK A3019=,
20180107_020000.002,0,RJFF,,,,0,20180107020000,-1,-1,-1,-1,160,-1,8,-1,-1,-1,-1,CAVOK,-1,0,0,0,,1,8,-1,1,1022,RJFF 070200Z 16008KT CAVOK 08/M01 Q1022 RMK A3020=,
20180107_023000.001,0,RJFF,,,,0,20180107020000,-1,-1,-1,-1,150,-1,6,-1,-1,100,170,CAVOK,-1,0,0,0,,1,8,-1,1,1021,RJFF 070230Z 15006KT 100V170 CAVOK 08/M01 Q1021 RMK A3018=,
20180107_030000.002,0,RJFF,,,,0,20180107030000,-1,-1,-1,-1,100,-1,4,-1,-1,60,130,CAVOK,-1,0,0,0,,1,8,-1,1,1020,RJFF 070300Z 10004KT 060V130 CAVOK 08/M01 Q1020 RMK A3015=,
20180107_033000.001,0,RJFF,,,,0,20180107030000,-1,-1,-1,-1,180,-1,3,-1,-1,-1,-1,CAVOK,-1,0,0,0,,1,8,-1,1,1020,RJFF 070330Z 18003KT CAVOK 08/M01 Q1020 RMK A3014=,
20180107_040000.002,0,RJFF,,,,0,20180107040000,-1,-1,-1,-1,170,-1,4,-1,-1,140,200,CAVOK,-1,0,0,0,,1,9,-1,1,1021,RJFF 070400Z 17004KT 140V200 CAVOK 09/M01 Q1021 RMK A3015=,
20180107_043000.001,0,RJFF,,,,0,20180107040000,-1,-1,-1,-1,150,-1,6,-1,-1,110,180,CAVOK,-1,0,0,0,,1,9,-1,0,1020,RJFF 070430Z 15006KT 110V180 CAVOK 09/M00 Q1020 RMK A3013=,
20180107_050000.002,0,RJFF,,,,0,20180107050000,-1,-1,-1,-1,110,-1,4,-1,-1,70,140,CAVOK,-1,0,0,0,,1,9,-1,1,1019,RJFF 070500Z 11004KT 070V140 CAVOK 09/M01 Q1019 RMK A3010=,
20180107_053000.001,0,RJFF,,,,0,20180107050000,-1,-1,-1,-1,160,-1,4,-1,-1,120,210,,9999,0,0,3,FEW 40   SCT 110   BKN 130,1,10,-1,1,1019,RJFF 070530Z 16004KT 120V210 9999 FEW040 SCT110 BKN130 10/M01     Q1019 RMK 1CU040 3AC110 5AC130 A3010=,
20180107_060000.002,0,RJFF,,,,0,20180107060000,-1,-1,-1,-1,140,-1,6,-1,-1,-1,-1,,9999,0,0,3,FEW 35   BKN 110   BKN 120,1,10,-1,1,1018,RJFF 070600Z 14006KT 9999 FEW035 BKN110 BKN120 10/M01 Q1018     RMK 1CU035 5AC110 6AC120 A3008=,
20180107_063000.001,0,RJFF,,,,0,20180107060000,-1,-1,-1,-1,160,-1,4,-1,-1,130,190,,9999,0,0,3,FEW 30   BKN 110   BKN 120,1,10,-1,1,1019,RJFF 070630Z 16004KT 130V190 9999 FEW030 BKN110 BKN120 10/M01     Q1019 RMK 1CU030 6AC110 7AC120 A3009=,
20180107_070000.002,0,RJFF,,,,0,20180107070000,-1,-1,-1,-1,160,-1,5,-1,-1,-1,-1,,9999,0,0,3,FEW 30   SCT 100   BKN 110,1,10,1,0,1019,RJFF 070700Z 16005KT 9999 FEW030 SCT100 BKN110 10/00 Q1019 RMK     1CU030 3AC100 6AC110 A3010=,
20180107_073000.001,0,RJFF,,,,0,20180107070000,-1,-1,-1,-1,70,-1,3,-1,-1,20,120,,9999,0,0,3,FEW 30   SCT 90   BKN 100,1,10,1,0,1018,RJFF 070730Z 07003KT 020V120 9999 FEW030 SCT090 BKN100 10/00     Q1018 RMK 1CU030 3AC090 5AC100 A3009=,
20180107_080000.002,0,RJFF,,,,0,20180107080000,-1,-1,-1,-1,130,-1,3,-1,-1,80,190,CAVOK,-1,0,0,0,,1,10,1,1,1018,RJFF 070800Z 13003KT 080V190 CAVOK 10/01 Q1018 RMK A3008=,
20180107_083000.001,0,RJFF,,,,0,20180107080000,-1,-1,-1,-1,160,-1,7,-1,-1,-1,-1,,9999,0,0,3,FEW 30   SCT 80   BKN 100,1,9,1,2,1018,RJFF 070830Z 16007KT 9999 FEW030 SCT080 BKN100 09/02 Q1018 RMK     1CU030 3AC080 5AC100 A3008=,
20180107_090000.002,0,RJFF,,,,0,20180107090000,-1,-1,-1,-1,999,-1,3,-1,-1,-1,-1,,9999,0,0,3,FEW 30   SCT 80   BKN 100,1,9,1,2,1018,RJFF 070900Z VRB03KT 9999 FEW030 SCT080 BKN100 09/02 Q1018 RMK     1CU030 3AC080 5AC100 A3007=,
20180107_093000.001,0,RJFF,,,,0,20180107090000,-1,-1,-1,-1,150,-1,3,-1,-1,90,180,CAVOK,-1,0,0,0,,1,9,1,2,1018,RJFF 070930Z 15003KT 090V180 CAVOK 09/02 Q1018 RMK A3008=,
20180107_100000.002,0,RJFF,,,,0,20180107100000,-1,-1,-1,-1,160,-1,5,-1,-1,-1,-1,CAVOK,-1,0,0,0,,1,9,1,2,1018,RJFF 071000Z 16005KT CAVOK 09/02 Q1018 RMK A3008=,
20180107_103000.001,0,RJFF,,,,0,20180107100000,-1,-1,-1,-1,140,-1,5,-1,-1,110,170,,9999,0,1,3,FEW 40   SCT 80   BKN 100,1,10,1,3,1018,RJFF 071030Z 14005KT 110V170 9999 -RA FEW040 SCT080 BKN100     10/03 Q1018 RMK 1CU040 3AC080 5AC100 A3008=,- RA
20180107_110000.002,0,RJFF,,,,0,20180107110000,-1,-1,-1,-1,160,-1,7,-1,-1,-1,-1,,9999,0,1,3,FEW 40   BKN 50   BKN 80,1,9,1,3,1018,RJFF 071100Z 16007KT 9999 -RA FEW040 BKN050 BKN080 09/03 Q1018     RMK 1CU040 5SC050 6AC080 A3008=,- RA
20180107_113000.001,0,RJFF,,,,0,20180107110000,-1,-1,-1,-1,160,-1,9,-1,-1,-1,-1,,9999,0,1,3,FEW 30   BKN 40   BKN 80,1,8,1,4,1018,RJFF 071130Z 16009KT 9999 -RA FEW030 BKN040 BKN080 08/04 Q1018     RMK 1CU030 5CU040 6AC080 A3007=,- RA
20180107_120000.003,0,RJFF,,,,0,20180107120000,-1,-1,-1,-1,140,-1,7,-1,-1,-1,-1,,9999,0,1,3,FEW 30   BKN 40   BKN 80,1,8,1,4,1017,RJFF 071200Z 14007KT 9999 -RA FEW030 BKN040 BKN080 08/04 Q1017     RMK 1CU030 5CU040 6AC080 A3006=,- RA
20180107_123000.001,0,RJFF,,,,0,20180107120000,-1,-1,-1,-1,150,-1,7,-1,-1,-1,-1,,9999,0,1,3,FEW 30   BKN 40   BKN 80,1,8,1,4,1017,RJFF 071230Z 15007KT 9999 -RA FEW030 BKN040 BKN080 08/04 Q1017     RMK 1CU030 5CU040 6AC080 A3005=,- RA
20180107_130000.003,0,RJFF,,,,0,20180107130000,-1,-1,-1,-1,150,-1,11,-1,-1,-1,-1,,9999,0,1,3,FEW 30   BKN 50   BKN 80,1,8,1,4,1017,RJFF 071300Z 15011KT 9999 -RA FEW030 BKN050 BKN080 08/04 Q1017     RMK 1CU030 5SC050 6AC080 A3003=,- RA
20180107_133000.001,0,RJFF,,,,0,20180107130000,-1,-1,-1,-1,160,-1,11,-1,-1,-1,-1,,9999,0,1,3,FEW 30   BKN 50   BKN 80,1,7,1,4,1016,RJFF 071330Z 16011KT 9999 -RA FEW030 BKN050 BKN080 07/04 Q1016     RMK 1CU030 5SC050 6AC080 A3003=,- RA
20180107_140000.003,0,RJFF,,,,1,20180107140000,-1,-1,-1,-1,120,-1,7,-1,-1,-1,-1,,9999,0,0,3,FEW 47   BKN 60   BKN 70,1,8,1,5,1016,RJFF 071400Z AUTO 12007KT 9999 FEW047 BKN060 BKN070 08/05     Q1016 RMK A3001=,
20180107_143000.001,0,RJFF,,,,1,20180107140000,-1,-1,-1,-1,150,-1,9,-1,-1,-1,-1,,9999,0,0,1,NSC -1,1,7,1,4,1015,RJFF 071430Z AUTO 15009KT 9999 NSC 07/04 Q1015 RMK A3000=,
20180107_150000.002,0,RJFF,,,,1,20180107150000,-1,-1,-1,-1,140,-1,9,-1,-1,-1,-1,,9999,0,1,1,NSC -1,1,7,1,5,1015,RJFF 071500Z AUTO 14009KT 9999 -RA NSC 07/05 Q1015 RMK A2998=,- RA
20180107_153000.001,0,RJFF,,,,1,20180107150000,-1,-1,-1,-1,140,-1,9,-1,-1,-1,-1,,9999,0,1,1,NSC -1,1,7,1,5,1015,RJFF 071530Z AUTO 14009KT 9999 -RA NSC 07/05 Q1015 RMK A2997=,- RA
20180107_160000.002,0,RJFF,,,,1,20180107160000,-1,-1,-1,-1,160,-1,4,-1,-1,-1,-1,,6000,0,1,3,FEW 48   SCT 50   BKN 60,1,7,1,5,1015,RJFF 071600Z AUTO 16004KT 6000 -RA FEW048 SCT050 BKN060 07/05     Q1015 RMK A2998=,- RA
20180107_163000.001,0,RJFF,,,,1,20180107160000,-1,-1,-1,-1,100,-1,6,-1,-1,70,160,,4400,0,2,3,SCT 30   SCT 36   OVC 50,1,8,1,6,1014,RJFF 071630Z AUTO 10006KT 070V160 4400 RA BR SCT030 SCT036     OVC050 08/06 Q1014 RMK A2995 RI005=,RA; BR
20180107_170000.002,0,RJFF,,,,1,20180107170000,-1,-1,-1,-1,300,-1,9,-1,-1,-1,-1,,9999,0,1,3,FEW 21   SCT 28   BKN 46,1,8,1,6,1014,RJFF 071700Z AUTO 30009KT 9999 -RA FEW021 SCT028 BKN046 08/06     Q1014 RMK A2996=,- RA
20180107_173000.001,0,RJFF,,,,1,20180107170000,-1,-1,-1,-1,999,-1,1,-1,-1,-1,-1,,2200,0,2,4,FEW 3   SCT 7   BKN 20   /// -9999 TCU,1,8,1,7,1014,RJFF 071730Z AUTO VRB01KT 2200 RA BR FEW003 SCT007 BKN020     //////TCU 08/07 Q1014 RMK A2995 RI005 TCU 20KM S-W MOV           UNKNOWN=,RA; BR
20180107_180000.002,0,RJFF,,,,1,20180107180000,-1,-1,-1,-1,300,-1,4,-1,-1,-1,-1,,2400,1,2,3,FEW 3   BKN 6   OVC 22,1,8,1,7,1013,RJFF 071800Z AUTO 30004KT 2400 R16/P2000N RA BR FEW003 BKN006     OVC022 08/07 Q1013 RMK A2994 RI004=,RA; BR
20180107_183000.001,0,RJFF,,,,1,20180107180000,-1,-1,-1,-1,60,-1,3,-1,-1,350,140,,6000,0,1,3,FEW 2   SCT 10   BKN 15,1,8,1,7,1013,RJFF 071830Z AUTO 06003KT 350V140 6000 -RA FEW002 SCT010     BKN015 08/07 Q1013 RMK A2994=,- RA
20180107_190000.003,0,RJFF,,,,1,20180107190000,-1,-1,-1,-1,130,-1,5,-1,-1,-1,-1,,6000,0,1,3,FEW 2   BKN 36   BKN 44,1,8,1,7,1012,RJFF 071900Z AUTO 13005KT 6000 -RA FEW002 BKN036 BKN044 08/07     Q1012 RMK A2990 P/FR=,- RA
20180107_193000.001,0,RJFF,,,,1,20180107190000,-1,-1,-1,-1,999,-1,2,-1,-1,-1,-1,,7000,0,0,3,FEW 3   SCT 30   OVC 33,1,8,1,7,1012,RJFF 071930Z AUTO VRB02KT 7000 FEW003 SCT030 OVC033 08/07     Q1012 RMK A2989=,
20180107_200000.002,0,RJFF,,,,1,20180107200000,-1,-1,-1,-1,999,-1,1,-1,-1,-1,-1,,3000,0,1,3,FEW 2   SCT 5   BKN 21,1,8,1,7,1011,RJFF 072000Z AUTO VRB01KT 3000 BR FEW002 SCT005 BKN021 08/07     Q1011 RMK A2988=,BR
20180107_203000.001,0,RJFF,,,,1,20180107200000,-1,-1,-1,-1,20,-1,2,-1,-1,-1,-1,,4200,0,2,2,FEW 3   OVC 20,1,8,1,7,1011,RJFF 072030Z AUTO 02002KT 4200 -RA BR FEW003 OVC020 08/07     Q1011 RMK A2987=,- RA; BR
20180107_210000.003,0,RJFF,,,,0,20180107210000,-1,-1,-1,-1,140,-1,2,-1,-1,-1,-1,,9999,0,0,3,FEW 5   SCT 20   BKN 70,1,8,1,7,1010,RJFF 072100Z 14002KT 9999 FEW005 SCT020 BKN070 08/07 Q1010 RMK     1ST005 3CU020 5AC070 A2984 P/FR=,
20180107_213000.001,0,RJFF,,,,0,20180107210000,-1,-1,-1,-1,140,-1,2,-1,-1,-1,-1,,9999,0,0,3,FEW 5   SCT 20   BKN 70,1,8,1,7,1009,RJFF 072130Z 14002KT 9999 FEW005 SCT020 BKN070 08/07 Q1009 RMK     1ST005 3CU020 5AC070 A2982=,
20180107_220000.002,0,RJFF,,,,0,20180107220000,-1,-1,-1,-1,160,-1,4,-1,-1,130,220,,9999,0,0,3,FEW 5   SCT 20   BKN 50,1,9,1,8,1009,RJFF 072200Z 16004KT 130V220 9999 FEW005 SCT020 BKN050 09/08     Q1009 RMK 1ST005 3CU020 5SC050 A2981=,
20180107_223000.002,0,RJFF,,,,0,20180107220000,-1,-1,-1,-1,140,-1,7,-1,-1,-1,-1,,9999,0,0,3,FEW 3   SCT 20   BKN 40,1,9,1,8,1009,RJFF 072230Z 14007KT 9999 FEW003 SCT020 BKN040 09/08 Q1009 RMK     1ST003 3CU020 5CU040 A2981=,
20180107_230000.002,0,RJFF,,,,0,20180107230000,-1,-1,-1,-1,130,-1,8,-1,-1,-1,-1,,9999,0,0,3,FEW 3   SCT 20   BKN 30,1,9,1,8,1009,RJFF 072300Z 13008KT 9999 FEW003 SCT020 BKN030 09/08 Q1009 RMK     1ST003 3CU020 5CU030 A2982=,
20180107_233000.001,0,RJFF,,,,0,20180107230000,-1,-1,-1,-1,110,-1,4,-1,-1,80,150,,9999,0,0,3,FEW 2   BKN 20   BKN 30,1,11,1,9,1009,RJFF 072330Z 11004KT 080V150 9999 FEW002 BKN020 BKN030 11/09     Q1009 RMK 1ST002 5CU020 7CU030 A2980=,
20180108_000000.002,0,RJFF,,,,0,20180108000000,-1,-1,-1,-1,160,-1,11,-1,-1,-1,-1,,9999,0,1,3,FEW 2   BKN 20   BKN 30,1,11,1,10,1009,RJFF 080000Z 16011KT 9999 -SHRA FEW002 BKN020 BKN030 11/10     Q1009 RMK 1ST002 5CU020 7CU030 A2980=,- RA SH
20180108_003000.001,0,RJFF,,,,0,20180108000000,-1,-1,-1,-1,170,-1,9,-1,-1,-1,-1,,9999,0,0,3,FEW 2   BKN 20   BKN 30,1,12,1,10,1009,RJFF 080030Z 17009KT 9999 FEW002 BKN020 BKN030 12/10 Q1009 RMK     1ST002 5CU020 7CU030 A2980=,
20180108_010000.002,0,RJFF,,,,0,20180108010000,-1,-1,-1,-1,170,-1,10,-1,-1,-1,-1,,9999,0,0,3,FEW 4   SCT 25   BKN 50,1,13,1,11,1008,RJFF 080100Z 17010KT 9999 FEW004 SCT025 BKN050 13/11 Q1008 RMK     1ST004 3CU025 5SC050 A2978=,
20180108_013000.001,0,RJFF,,,,0,20180108010000,-1,-1,-1,-1,150,-1,13,-1,-1,-1,-1,,9999,0,0,3,FEW 4   SCT 25   BKN 50,1,13,1,11,1008,RJFF 080130Z 15013KT 9999 FEW004 SCT025 BKN050 13/11 Q1008 RMK     1ST004 3CU025 5SC050 A2978=,
20180108_020000.002,0,RJFF,,,,0,20180108020000,-1,-1,-1,-1,150,-1,12,-1,-1,-1,-1,,9999,0,0,3,FEW 4   SCT 20   BKN 30,1,13,1,11,1008,RJFF 080200Z 15012KT 9999 FEW004 SCT020 BKN030 13/11 Q1008 RMK     1ST004 3CU020 6CU030 A2977=,
20180108_023000.001,0,RJFF,,,,0,20180108020000,-1,-1,-1,-1,150,-1,10,-1,-1,-1,-1,,9999,0,1,3,FEW 2   SCT 30   BKN 80,1,13,1,12,1007,RJFF 080230Z 15010KT 9999 -RA FEW002 SCT030 BKN080 13/12 Q1007     RMK 1ST002 4CU030 7AC080 A2976=,- RA
20180108_030000.002,0,RJFF,,,,0,20180108030000,-1,-1,-1,-1,150,-1,14,-1,-1,-1,-1,,9999,0,1,3,FEW 2   SCT 25   BKN 60,1,14,1,12,1007,RJFF 080300Z 15014KT 9999 -RA FEW002 SCT025 BKN060 14/12 Q1007     RMK 1ST002 3CU025 5SC060 A2974=,- RA
20180108_033000.001,0,RJFF,,,,0,20180108030000,-1,-1,-1,-1,170,-1,11,-1,-1,-1,-1,,9999,0,1,3,FEW 4   SCT 15   BKN 30,1,14,1,12,1007,RJFF 080330Z 17011KT 9999 -SHRA FEW004 SCT015 BKN030 14/12     Q1007 RMK 1ST004 3CU015 6CU030 A2974=,- RA SH
20180108_040000.002,0,RJFF,,,,0,20180108040000,-1,-1,-1,-1,120,-1,7,-1,-1,-1,-1,,9999,0,1,3,FEW 3   SCT 15   BKN 25,1,14,1,12,1005,RJFF 080400Z 12007KT 9999 -SHRA FEW003 SCT015 BKN025 14/12     Q1005 RMK 1ST003 3CU015 6CU025 A2970 P/FR=,- RA SH
20180108_043000.001,0,RJFF,,,,0,20180108040000,-1,-1,-1,-1,120,-1,6,-1,-1,80,150,,9999,0,1,3,FEW 3   SCT 15   BKN 25,1,14,1,12,1005,RJFF 080430Z 12006KT 080V150 9999 -SHRA FEW003 SCT015 BKN025     14/12 Q1005 RMK 1ST003 3CU015 5CU025 A2969=,- RA SH
20180108_050000.002,0,RJFF,,,,0,20180108050000,-1,-1,-1,-1,160,-1,6,-1,-1,-1,-1,,9999,0,1,3,FEW 3   SCT 15   BKN 40,1,15,1,12,1004,RJFF 080500Z 16006KT 9999 -SHRA FEW003 SCT015 BKN040 15/12     Q1004 RMK 1ST003 3CU015 5CU040 A2967=,- RA SH
20180108_053000.001,0,RJFF,,,,0,20180108050000,-1,-1,-1,-1,160,-1,9,-1,-1,-1,-1,,9999,0,0,3,FEW 6   SCT 20   BKN 40,1,15,1,13,1004,RJFF 080530Z 16009KT 9999 FEW006 SCT020 BKN040 15/13 Q1004 RMK     1ST006 3CU020 6CU040 A2966 MOD TURB OBS AT 0506Z 10NM E           STOUT BTN 23000FT AND 22000FT IN DES MOV W A320=,
20180108_060000.003,0,RJFF,,,,0,20180108060000,-1,-1,-1,-1,100,-1,5,-1,-1,30,150,,9999,0,1,3,FEW 6   SCT 20   BKN 40,1,15,1,12,1004,RJFF 080600Z 10005KT 030V150 9999 -SHRA FEW006 SCT020 BKN040     15/12 Q1004 RMK 1ST006 3CU020 6CU040 A2966=,- RA SH
20180108_063000.001,0,RJFF,,,,0,20180108060000,-1,-1,-1,-1,170,-1,7,-1,-1,150,220,,9999,0,1,3,FEW 4   SCT 15   BKN 35,1,15,1,13,1003,RJFF 080630Z 17007KT 150V220 9999 -SHRA FEW004 SCT015 BKN035     15/13 Q1003 RMK 1ST004 4CU015 7CU035 A2964=,- RA SH
20180108_070000.002,0,RJFF,,,,0,20180108070000,-1,-1,-1,-1,210,-1,4,-1,-1,190,260,,7000,0,1,3,FEW 4   SCT 15   BKN 30,1,15,1,12,1004,RJFF 080700Z 21004KT 190V260 7000 -SHRA FEW004 SCT015 BKN030     15/12 Q1004 RMK 1ST004 4CU015 7CU030 A2967=,- RA SH
20180108_073000.001,0,RJFF,,,,0,20180108070000,-1,-1,-1,-1,250,-1,4,-1,-1,180,310,,9000,1,1,3,FEW 4   SCT 10   BKN 20,1,15,1,13,1004,RJFF 080730Z 25004KT 180V310 9000 R16/2000N -SHRA FEW004     SCT010 BKN020 15/13 Q1004 RMK 1ST004 4CU010 7CU020 A2967           MOD TURB OBS AT 0709Z STOUT TO TANRE BTN 17000FT AND           7000FT IN DES MOV W B772=,- RA SH
20180108_080000.002,0,RJFF,,,,0,20180108080000,-1,-1,-1,-1,260,-1,6,-1,-1,210,300,,9999,0,1,3,FEW 5   SCT 25   BKN 50,1,15,1,12,1005,RJFF 080800Z 26006KT 210V300 9999 -SHRA FEW005 SCT025 BKN050     15/12 Q1005 RMK 1ST005 3CU025 5SC050 A2969=,- RA SH
20180108_083000.001,0,RJFF,,,,0,20180108080000,-1,-1,-1,-1,270,-1,5,-1,-1,230,310,,9999,0,1,3,FEW 5   SCT 30   BKN 40,1,14,1,12,1004,RJFF 080830Z 27005KT 230V310 9999 -SHRA FEW005 SCT030 BKN040     14/12 Q1004 RMK 1ST005 3CU030 5CU040 A2967=,- RA SH
20180108_090000.002,0,RJFF,,,,0,20180108090000,-1,-1,-1,-1,280,-1,9,-1,-1,240,330,,9999,0,1,3,FEW 5   SCT 15   BKN 20,1,14,1,11,1005,RJFF 080900Z 28009KT 240V330 9999 -SHRA FEW005 SCT015 BKN020     14/11 Q1005 RMK 1ST005 3CU015 5CU020 A2969 MOD TURB OBS           AT 0830Z 16NM NE MALTS 9000FT IN DES MOV SW E170=,- RA SH
20180108_093000.001,0,RJFF,,,,0,20180108090000,-1,-1,-1,-1,280,-1,12,-1,-1,-1,-1,,9999,0,1,3,FEW 5   SCT 10   BKN 15,1,12,1,10,1007,RJFF 080930Z 28012KT 9999 -SHRA FEW005 SCT010 BKN015 12/10     Q1007 RMK 1ST005 3CU010 6CU015 A2974 P/RR=,- RA SH
20180108_100000.002,0,RJFF,,,,0,20180108100000,-1,-1,-1,-1,290,-1,9,-1,-1,260,320,,9999,0,1,3,FEW 5   SCT 10   BKN 15,1,12,1,10,1007,RJFF 081000Z 29009KT 260V320 9999 -SHRA FEW005 SCT010 BKN015     12/10 Q1007 RMK 1ST005 3CU010 5CU015 A2974=,- RA SH
20180108_103000.001,0,RJFF,,,,0,20180108100000,-1,-1,-1,-1,280,-1,8,-1,-1,240,310,,9999,0,1,3,FEW 5   SCT 10   BKN 15,1,12,1,9,1007,RJFF 081030Z 28008KT 240V310 9999 -SHRA FEW005 SCT010 BKN015     12/09 Q1007 RMK 1ST005 3CU010 5CU015 A2975=,- RA SH
20180108_110000.002,0,RJFF,,,,0,20180108110000,-1,-1,-1,-1,270,-1,7,-1,-1,230,300,,9000,0,1,3,FEW 5   SCT 10   BKN 20,1,11,1,9,1008,RJFF 081100Z 27007KT 230V300 9000 -SHRA FEW005 SCT010 BKN020     11/09 Q1008 RMK 1ST005 3CU010 5CU020 A2977=,- RA SH
20180108_113000.001,0,RJFF,,,,0,20180108110000,-1,-1,-1,-1,280,-1,6,-1,-1,250,310,,8000,0,1,3,FEW 5   SCT 10   BKN 25,1,11,1,9,1007,RJFF 081130Z 28006KT 250V310 8000 -SHRA FEW005 SCT010 BKN025     11/09 Q1007 RMK 1ST005 3CU010 5CU025 A2975=,- RA SH
20180108_120000.002,0,RJFF,,,,0,20180108120000,-1,-1,-1,-1,280,-1,10,-1,23,250,320,,8000,0,1,3,FEW 5   SCT 10   BKN 20,1,11,1,8,1008,RJFF 081200Z 28010G23KT 250V320 8000 -SHRA FEW005 SCT010     BKN020 11/08 Q1008 RMK 1ST005 3CU010 5CU020 A2979 P/RR=,- RA SH
20180108_123000.001,0,RJFF,,,,0,20180108120000,-1,-1,-1,-1,270,-1,10,-1,20,240,300,,9999,0,0,3,FEW 10   SCT 40   BKN 50,1,11,1,5,1009,RJFF 081230Z 27010G20KT 240V300 9999 FEW010 SCT040 BKN050     11/05 Q1009 RMK 1CU010 3CU040 6SC050 A2980=,
20180108_130000.003,0,RJFF,,,,0,20180108130000,-1,-1,-1,-1,280,-1,11,-1,-1,250,310,,9999,0,0,3,FEW 10   SCT 30   BKN 50,1,10,1,5,1009,RJFF 081300Z 28011KT 250V310 9999 FEW010 SCT030 BKN050 10/05     Q1009 RMK 1CU010 3CU030 6SC050 A2981=,
20180108_133000.001,0,RJFF,,,,0,20180108130000,-1,-1,-1,-1,280,-1,8,-1,-1,240,320,,9999,0,0,3,FEW 15   SCT 30   BKN 70,1,10,1,4,1009,RJFF 081330Z 28008KT 240V320 9999 FEW015 SCT030 BKN070 10/04     Q1009 RMK 1CU015 3CU030 7AC070 A2980=,
20180108_140000.002,0,RJFF,,,,1,20180108140000,-1,-1,-1,-1,300,-1,10,-1,20,260,330,,9999,0,0,1,NSC -1,1,10,1,3,1008,RJFF 081400Z AUTO 30010G20KT 260V330 9999 NSC 10/03 Q1008 RMK     A2978=,
20180108_143000.001,0,RJFF,,,,1,20180108140000,-1,-1,-1,-1,300,-1,12,-1,-1,270,330,,9999,0,0,3,FEW 39   BKN 46   OVC 50,1,10,1,3,1009,RJFF 081430Z AUTO 30012KT 270V330 9999 FEW039 BKN046 OVC050     10/03 Q1009 RMK A2980=,
20180108_150000.002,0,RJFF,,,,1,20180108150000,-1,-1,-1,-1,290,-1,13,-1,-1,260,330,,9999,0,0,3,FEW 38   SCT 42   OVC 49,1,10,1,3,1009,RJFF 081500Z AUTO 29013KT 260V330 9999 FEW038 SCT042 OVC049     10/03 Q1009 RMK A2982=,
20180108_153000.001,0,RJFF,,,,1,20180108150000,-1,-1,-1,-1,300,-1,12,-1,-1,260,330,,9999,0,1,3,FEW 24   SCT 36   BKN 43,1,9,1,3,1009,RJFF 081530Z AUTO 30012KT 260V330 9999 -RA FEW024 SCT036     BKN043 09/03 Q1009 RMK A2980=,- RA
20180108_160000.002,0,RJFF,,,,1,20180108160000,-1,-1,-1,-1,300,-1,14,-1,-1,270,330,,9999,0,1,3,FEW 17   SCT 29   BKN 37,1,8,1,4,1009,RJFF 081600Z AUTO 30014KT 270V330 9999 -RA FEW017 SCT029     BKN037 08/04 Q1009 RMK A2979=,- RA
20180108_163000.001,0,RJFF,,,,1,20180108160000,-1,-1,-1,-1,290,-1,13,-1,-1,260,330,,9999,0,1,3,FEW 15   BKN 32   OVC 37,1,8,1,4,1008,RJFF 081630Z AUTO 29013KT 260V330 9999 -RA FEW015 BKN032     OVC037 08/04 Q1008 RMK A2979=,- RA
20180108_170000.002,0,RJFF,,,,1,20180108170000,-1,-1,-1,-1,280,-1,13,-1,27,250,310,,7000,0,1,3,FEW 13   BKN 28   OVC 32,1,8,1,4,1009,RJFF 081700Z AUTO 28013G27KT 250V310 7000 -RA FEW013 BKN028     OVC032 08/04 Q1009 RMK A2980=,- RA
20180108_173000.001,0,RJFF,,,,1,20180108170000,-1,-1,-1,-1,290,-1,17,-1,-1,-1,-1,,7000,0,1,3,SCT 25   SCT 36   BKN 38,1,7,1,2,1009,RJFF 081730Z AUTO 29017KT 7000 -RA SCT025 SCT036 BKN038 07/02     Q1009 RMK A2980=,- RA
20180108_180000.002,0,RJFF,,,,1,20180108180000,-1,-1,-1,-1,290,-1,16,-1,-1,250,330,,9999,0,1,2,FEW 35   OVC 39,1,7,1,1,1010,RJFF 081800Z AUTO 29016KT 250V330 9999 -RA FEW035 OVC039 07/01     Q1010 RMK A2982=,- RA
20180108_183000.001,0,RJFF,,,,1,20180108180000,-1,-1,-1,-1,280,-1,14,-1,26,250,320,,9999,0,1,2,FEW 37   BKN 40,1,7,1,0,1009,RJFF 081830Z AUTO 28014G26KT 250V320 9999 -RA FEW037 BKN040     07/00 Q1009 RMK A2982=,- RA
20180108_190000.002,0,RJFF,,,,1,20180108190000,-1,-1,-1,-1,290,-1,15,-1,25,250,320,,9999,0,0,2,SCT 43   OVC 50,1,8,-1,0,1009,RJFF 081900Z AUTO 29015G25KT 250V320 9999 SCT043 OVC050 08/M00     Q1009 RMK A2982=,
20180108_193000.001,0,RJFF,,,,1,20180108190000,-1,-1,-1,-1,300,-1,16,-1,-1,-1,-1,,9000,0,1,3,FEW 38   BKN 41   BKN 47,1,7,1,0,1009,RJFF 081930Z AUTO 30016KT 9000 -RA FEW038 BKN041 BKN047 07/00     Q1009 RMK A2982=,- RA
20180108_200000.002,0,RJFF,,,,1,20180108200000,-1,-1,-1,-1,300,-1,15,-1,-1,270,330,,9000,0,1,3,SCT 28   BKN 32   BKN 37,1,7,1,2,1009,RJFF 082000Z AUTO 30015KT 270V330 9000 -RA SCT028 BKN032     BKN037 07/02 Q1009 RMK A2982=,- RA
20180108_203000.001,0,RJFF,,,,1,20180108200000,-1,-1,-1,-1,280,-1,13,-1,-1,250,320,,9999,0,1,3,FEW 29   BKN 34   OVC 46,1,7,1,1,1010,RJFF 082030Z AUTO 28013KT 250V320 9999 -RA FEW029 BKN034     OVC046 07/01 Q1010 RMK A2982=,- RA
20180108_210000.003,0,RJFF,,,,0,20180108210000,-1,-1,-1,-1,300,-1,18,-1,-1,-1,-1,,9999,0,1,3,FEW 20   SCT 35   BKN 40,1,7,-1,1,1010,RJFF 082100Z 30018KT 9999 -SHRA FEW020 SCT035 BKN040 07/M01     Q1010 RMK 1CU020 4CU035 5CU040 A2983=,- RA SH
20180108_213000.001,0,RJFF,,,,0,20180108210000,-1,-1,-1,-1,290,-1,15,-1,26,260,320,,9999,0,1,3,FEW 20   SCT 35   BKN 40,1,7,1,0,1010,RJFF 082130Z 29015G26KT 260V320 9999 -SHRA FEW020 SCT035     BKN040 07/00 Q1010 RMK 1CU020 3CU035 5CU040 A2984=,- RA SH
20180108_220000.002,0,RJFF,,,,0,20180108220000,-1,-1,-1,-1,290,-1,14,-1,26,230,320,,9999,0,1,3,FEW 20   SCT 35   BKN 40,1,7,-1,1,1011,RJFF 082200Z 29014G26KT 230V320 9999 -SHRA FEW020 SCT035     BKN040 07/M01 Q1011 RMK 1CU020 3CU035 6CU040 A2986=,- RA SH
20180108_223000.001,0,RJFF,,,,0,20180108220000,-1,-1,-1,-1,290,-1,15,-1,25,240,330,,9999,0,0,3,FEW 25   SCT 35   BKN 40,1,6,-1,0,1012,RJFF 082230Z 29015G25KT 240V330 9999 FEW025 SCT035 BKN040     06/M00 Q1012 RMK 1CU025 4CU035 5CU040 A2988=,
20180108_230000.003,0,RJFF,,,,0,20180108230000,-1,-1,-1,-1,290,-1,16,-1,30,240,320,,9999,0,1,3,FEW 25   SCT 35   BKN 40,1,6,-1,2,1012,RJFF 082300Z 29016G30KT 240V320 9999 -SHRA FEW025 SCT035     BKN040 06/M02 Q1012 RMK 1CU025 3CU035 5CU040 A2989=,- RA SH
20180108_233000.001,0,RJFF,,,,0,20180108230000,-1,-1,-1,-1,290,-1,14,-1,29,260,330,,9999,0,1,3,FEW 25   SCT 40   BKN 45,1,6,-1,2,1012,RJFF 082330Z 29014G29KT 260V330 9999 -SHRA FEW025 SCT040     BKN045 06/M02 Q1012 RMK 1CU025 4CU040 5CU045 A2991=,- RA SH
20180109_000000.002,0,RJFF,,,,0,20180109000000,-1,-1,-1,-1,290,-1,16,-1,27,250,330,,9999,0,1,3,FEW 15   SCT 35   BKN 40,1,5,-1,0,1013,RJFF 090000Z 29016G27KT 250V330 9999 -SHSNRA FEW015 SCT035     BKN040 05/M00 Q1013 RMK 1CU015 4CU035 6CU040 A2993=,- SN RA SH
20180109_003000.001,0,RJFF,,,,0,20180109000000,-1,-1,-1,-1,290,-1,14,-1,30,220,340,,9999,0,1,3,FEW 15   SCT 35   BKN 40,1,6,-1,1,1013,RJFF 090030Z 29014G30KT 220V340 9999 -SHSNRA FEW015 SCT035     BKN040 06/M01 Q1013 RMK 1CU015 4CU035 6CU040 A2994=,- SN RA SH
20180109_010000.002,0,RJFF,,,,0,20180109010000,-1,-1,-1,-1,300,-1,17,-1,29,-1,-1,,9999,0,0,3,FEW 25   SCT 35   BKN 40,1,5,-1,2,1014,RJFF 090100Z 30017G29KT 9999 FEW025 SCT035 BKN040 05/M02 Q1014     RMK 1CU025 4CU035 6CU040 A2995=,
20180109_013000.001,0,RJFF,,,,0,20180109010000,-1,-1,-1,-1,300,-1,16,-1,26,-1,-1,,9999,0,0,3,FEW 25   BKN 40   BKN 70,1,5,-1,2,1014,RJFF 090130Z 30016G26KT 9999 FEW025 BKN040 BKN070 05/M02 Q1014     RMK 1CU025 5CU040 6AC070 A2994=,
20180109_020000.002,0,RJFF,,,,0,20180109020000,-1,-1,-1,-1,300,-1,20,-1,-1,-1,-1,,9999,0,1,3,FEW 20   BKN 30   BKN 40,1,5,-1,1,1014,RJFF 090200Z 30020KT 9999 VCSH FEW020 BKN030 BKN040 05/M01     Q1014 RMK 1CU020 5CU030 6CU040 A2995=,VC SH
20180109_023000.001,0,RJFF,,,,0,20180109020000,-1,-1,-1,-1,260,-1,11,-1,21,230,320,,9999,0,1,3,FEW 5   SCT 30   BKN 40,1,4,-1,0,1013,RJFF 090230Z 26011G21KT 230V320 9999 -SHSNRA FEW005 SCT030     BKN040 04/M00 Q1013 RMK 1ST005 4CU030 6CU040 A2994=,- SN RA SH
20180109_030000.002,0,RJFF,,,,0,20180109030000,-1,-1,-1,-1,290,-1,16,-1,27,250,330,,9999,0,1,3,FEW 20   SCT 30   BKN 40,1,5,-1,3,1013,RJFF 090300Z 29016G27KT 250V330 9999 -SHSNRA FEW020 SCT030     BKN040 05/M03 Q1013 WS R34 RMK 1CU020 3CU030 5CU040           A2993=,- SN RA SH
20180109_033000.001,0,RJFF,,,,0,20180109030000,-1,-1,-1,-1,290,-1,15,-1,27,250,320,,9999,0,0,3,FEW 20   SCT 35   BKN 45,1,6,-1,3,1012,RJFF 090330Z 29015G27KT 250V320 9999 FEW020 SCT035 BKN045     06/M03 Q1012 RMK 1CU020 3CU035 5CU045 A2991=,
20180109_040000.002,0,RJFF,,,,0,20180109040000,-1,-1,-1,-1,290,-1,14,-1,26,260,320,,9999,0,0,3,FEW 20   SCT 35   BKN 40,1,6,-1,2,1013,RJFF 090400Z 29014G26KT 260V320 9999 FEW020 SCT035 BKN040     06/M02 Q1013 RMK 1CU020 3CU035 5CU040 A2992=,
20180109_043000.001,0,RJFF,,,,0,20180109040000,-1,-1,-1,-1,290,-1,17,-1,27,260,320,,9999,0,0,3,FEW 15   SCT 30   BKN 40,1,6,-1,4,1013,RJFF 090430Z 29017G27KT 260V320 9999 FEW015 SCT030 BKN040     06/M04 Q1013 RMK 1CU015 3CU030 6CU040 A2991=,
20180109_050000.002,0,RJFF,,,,0,20180109050000,-1,-1,-1,-1,290,-1,13,-1,23,250,320,,9999,0,0,3,FEW 15   SCT 30   BKN 40,1,6,-1,4,1012,RJFF 090500Z 29013G23KT 250V320 9999 FEW015 SCT030 BKN040     06/M04 Q1012 RMK 1CU015 3CU030 6CU040 A2991=,
20180109_053000.001,0,RJFF,,,,0,20180109050000,-1,-1,-1,-1,270,-1,14,-1,24,230,310,,9999,0,0,3,FEW 20   BKN 35   BKN 60,1,6,-1,5,1012,RJFF 090530Z 27014G24KT 230V310 9999 FEW020 BKN035 BKN060     06/M05 Q1012 RMK 1CU020 5CU035 6SC060 A2990=,
20180109_060000.002,0,RJFF,,,,0,20180109060000,-1,-1,-1,-1,300,-1,14,-1,24,260,330,,9999,0,0,3,FEW 20   SCT 30   BKN 40,1,6,-1,3,1012,RJFF 090600Z 30014G24KT 260V330 9999 FEW020 SCT030 BKN040     06/M03 Q1012 RMK 1CU020 3CU030 5CU040 A2990=,
20180109_063000.001,0,RJFF,,,,0,20180109060000,-1,-1,-1,-1,280,-1,13,-1,-1,240,310,,9999,0,0,3,FEW 20   SCT 30   BKN 45,1,6,-1,4,1013,RJFF 090630Z 28013KT 240V310 9999 FEW020 SCT030 BKN045 06/M04     Q1013 RMK 1CU020 3CU030 6CU045 A2992=,
20180109_070000.002,0,RJFF,,,,0,20180109070000,-1,-1,-1,-1,280,-1,14,-1,-1,250,320,,9999,0,0,3,FEW 20   SCT 30   BKN 45,1,6,-1,4,1013,RJFF 090700Z 28014KT 250V320 9999 FEW020 SCT030 BKN045 06/M04     Q1013 RMK 1CU020 3CU030 6CU045 A2992=,
20180109_073000.001,0,RJFF,,,,0,20180109070000,-1,-1,-1,-1,280,-1,11,-1,-1,-1,-1,,9999,0,1,3,FEW 15   SCT 30   BKN 40,1,6,-1,2,1013,RJFF 090730Z 28011KT 9999 VCSH FEW015 SCT030 BKN040 06/M02     Q1013 RMK 1CU015 4CU030 6CU040 A2994=,VC SH
20180109_080000.002,0,RJFF,,,,0,20180109080000,-1,-1,-1,-1,250,-1,12,-1,-1,210,290,,9999,0,1,3,FEW 15   SCT 30   BKN 40,1,6,-1,1,1014,RJFF 090800Z 25012KT 210V290 9999 -SHRA FEW015 SCT030 BKN040     06/M01 Q1014 RMK 1CU015 3CU030 7CU040 A2995=,- RA SH
20180109_083000.001,0,RJFF,,,,0,20180109080000,-1,-1,-1,-1,240,-1,12,-1,23,190,280,,9999,0,1,3,FEW 15   BKN 35   BKN 40,1,5,-1,1,1014,RJFF 090830Z 24012G23KT 190V280 9999 -SHRA FEW015 BKN035     BKN040 05/M01 Q1014 RMK 1CU015 5CU035 7CU040 A2996=,- RA SH
20180109_090000.002,0,RJFF,,,,0,20180109090000,-1,-1,-1,-1,270,-1,11,-1,21,240,310,,9999,0,1,3,FEW 10   BKN 35   BKN 60,1,5,-1,1,1014,RJFF 090900Z 27011G21KT 240V310 9999 -SHRA FEW010 BKN035     BKN060 05/M01 Q1014 RMK 1CU010 5CU035 6SC060 A2997=,- RA SH
20180109_093000.001,0,RJFF,,,,0,20180109090000,-1,-1,-1,-1,300,-1,13,-1,-1,-1,-1,,9999,0,0,3,FEW 15   SCT 35   BKN 50,1,6,-1,2,1015,RJFF 090930Z 30013KT 9999 FEW015 SCT035 BKN050 06/M02 Q1015     RMK 1CU015 3CU035 6SC050 A2998=,
20180109_100000.002,0,RJFF,,,,0,20180109100000,-1,-1,-1,-1,290,-1,9,-1,-1,260,330,,9999,0,1,3,FEW 10   SCT 30   BKN 40,1,6,1,0,1015,RJFF 091000Z 29009KT 260V330 9999 -SHRA FEW010 SCT030 BKN040     06/00 Q1015 WS R16 RMK 1CU010 3CU030 6CU040 A2999=,- RA SH
20180109_103000.001,0,RJFF,,,,0,20180109100000,-1,-1,-1,-1,210,-1,3,-1,-1,160,270,,9999,0,1,3,FEW 15   SCT 30   BKN 40,1,6,-1,0,1015,RJFF 091030Z 21003KT 160V270 9999 -SHRA FEW015 SCT030 BKN040     06/M00 Q1015 RMK 1CU015 3CU030 6CU040 A2999=,- RA SH
20180109_110000.002,0,RJFF,,,,0,20180109110000,-1,-1,-1,-1,260,-1,9,-1,-1,220,320,,9999,0,1,3,FEW 15   SCT 30   BKN 40,1,6,-1,1,1015,RJFF 091100Z 26009KT 220V320 9999 -SHRA FEW015 SCT030 BKN040     06/M01 Q1015 RMK 1CU015 3CU030 5CU040 A3000=,- RA SH
20180109_113000.001,0,RJFF,,,,0,20180109110000,-1,-1,-1,-1,260,-1,8,-1,-1,220,290,,9999,0,0,3,FEW 20   SCT 30   BKN 45,1,6,-1,1,1016,RJFF 091130Z 26008KT 220V290 9999 FEW020 SCT030 BKN045 06/M01     Q1016 RMK 1CU020 3CU030 5CU045 A3000=,
20180109_120000.002,0,RJFF,,,,0,20180109120000,-1,-1,-1,-1,270,-1,8,-1,-1,230,310,,9999,0,1,3,FEW 10   SCT 20   BKN 35,1,6,-1,0,1016,RJFF 091200Z 27008KT 230V310 9999 -SHRASN FEW010 SCT020 BKN035     06/M00 Q1016 RMK 1CU010 3CU020 6CU035 A3000=,- RA SN SH
20180109_123000.001,0,RJFF,,,,0,20180109120000,-1,-1,-1,-1,290,-1,8,-1,-1,-1,-1,,9999,0,1,3,FEW 15   SCT 20   BKN 40,1,7,-1,2,1016,RJFF 091230Z 29008KT 9999 -SHRASN FEW015 SCT020 BKN040 07/M02     Q1016 RMK 1CU015 3CU020 7CU040 A3001=,- RA SN SH
20180109_130000.002,0,RJFF,,,,0,20180109130000,-1,-1,-1,-1,270,-1,9,-1,-1,240,300,,9999,0,0,2,FEW 30   SCT 40,1,6,-1,3,1016,RJFF 091300Z 27009KT 240V300 9999 FEW030 SCT040 06/M03 Q1016     RMK 1CU030 3CU040 A3001=,
20180109_133000.001,0,RJFF,,,,0,20180109130000,-1,-1,-1,-1,270,-1,5,-1,-1,210,320,,9999,0,1,3,FEW 15   SCT 30   BKN 40,1,6,-1,3,1016,RJFF 091330Z 27005KT 210V320 9999 -SHRA FEW015 SCT030 BKN040     06/M03 Q1016 RMK 1CU015 3CU030 6CU040 A3001=,- RA SH
20180109_140000.002,0,RJFF,,,,1,20180109140000,-1,-1,-1,-1,240,-1,6,-1,-1,210,290,,9999,0,0,3,FEW 41   SCT 46   BKN 60,1,6,-1,1,1016,RJFF 091400Z AUTO 24006KT 210V290 9999 FEW041 SCT046 BKN060     06/M01 Q1016 RMK A3001=,
20180109_143000.001,0,RJFF,,,,1,20180109140000,-1,-1,-1,-1,230,-1,4,-1,-1,200,270,,9999,0,0,3,FEW 39   SCT 50   BKN 60,1,6,-1,1,1016,RJFF 091430Z AUTO 23004KT 200V270 9999 FEW039 SCT050 BKN060     06/M01 Q1016 RMK A3000=,
20180109_150000.002,0,RJFF,,,,1,20180109150000,-1,-1,-1,-1,220,-1,7,-1,-1,180,260,,9999,0,1,3,FEW 21   SCT 45   BKN 50,1,5,-1,1,1016,RJFF 091500Z AUTO 22007KT 180V260 9999 -RASN FEW021 SCT045     BKN050 05/M01 Q1016 RMK A3000=,- RA SN
20180109_153000.001,0,RJFF,,,,1,20180109150000,-1,-1,-1,-1,220,-1,5,-1,-1,190,260,,9999,0,0,3,FEW 5   SCT 45   BKN 50,1,4,1,1,1015,RJFF 091530Z AUTO 22005KT 190V260 9999 FEW005 SCT045 BKN050     04/01 Q1015 RMK A3000=,
20180109_160000.002,0,RJFF,,,,1,20180109160000,-1,-1,-1,-1,120,-1,3,-1,-1,90,160,,9999,0,0,3,FEW 30   SCT 35   BKN 50,1,4,1,1,1015,RJFF 091600Z AUTO 12003KT 090V160 9999 FEW030 SCT035 BKN050     04/01 Q1015 RMK A2998=,
20180109_163000.001,0,RJFF,,,,1,20180109160000,-1,-1,-1,-1,180,-1,5,-1,-1,-1,-1,,9999,0,1,3,FEW 16   BKN 41   BKN 46,1,4,1,1,1016,RJFF 091630Z AUTO 18005KT 9999 -RASN FEW016 BKN041 BKN046     04/01 Q1016 RMK A3001=,- RA SN
20180109_170000.002,0,RJFF,,,,1,20180109170000,-1,-1,-1,-1,230,-1,6,-1,-1,150,300,,9999,0,1,3,FEW 7   BKN 12   BKN 26,1,3,1,1,1016,RJFF 091700Z AUTO 23006KT 150V300 9999 -RASN FEW007 BKN012     BKN026 03/01 Q1016 RMK A3001=,- RA SN
20180109_173000.001,0,RJFF,,,,1,20180109170000,-1,-1,-1,-1,140,-1,3,-1,-1,-1,-1,,9999,0,1,3,FEW 16   SCT 23   BKN 29,1,3,1,2,1015,RJFF 091730Z AUTO 14003KT 9999 -RASN FEW016 SCT023 BKN029     03/02 Q1015 RMK A3000=,- RA SN
20180109_180000.002,0,RJFF,,,,1,20180109180000,-1,-1,-1,-1,120,-1,3,-1,-1,80,150,,5000,0,1,3,FEW 13   BKN 19   BKN 27,1,3,1,1,1015,RJFF 091800Z AUTO 12003KT 080V150 5000 -RASN FEW013 BKN019     BKN027 03/01 Q1015 RMK A2999=,- RA SN
20180109_183000.001,0,RJFF,,,,1,20180109180000,-1,-1,-1,-1,50,-1,4,-1,-1,360,100,,7000,0,1,3,BKN 22   OVC 50   /// -9999 TCU,1,2,1,1,1014,RJFF 091830Z AUTO 05004KT 360V100 7000 -RASN BKN022 OVC050     //////TCU 02/01 Q1014 RMK A2997 TCU 25KM W MOV NE=,- RA SN
20180109_190000.003,0,RJFF,,,,1,20180109190000,-1,-1,-1,-1,150,-1,4,-1,-1,-1,-1,,3700,0,1,3,BKN 16   OVC 42   /// -9999 TCU,1,3,1,1,1014,RJFF 091900Z AUTO 15004KT 3700 -RASN BKN016 OVC042 //////TCU     03/01 Q1014 RMK A2996 TCU 5KM W MOV UNKNOWN=,- RA SN
20180109_193000.001,0,RJFF,,,,1,20180109190000,-1,-1,-1,-1,240,-1,7,-1,-1,200,280,,6000,0,1,2,BKN 8   OVC 12,1,2,1,1,1015,RJFF 091930Z AUTO 24007KT 200V280 6000 RASN BKN008 OVC012     02/01 Q1015 RMK A2997 RI005=,RA SN
20180109_200000.002,0,RJFF,,,,1,20180109200000,-1,-1,-1,-1,270,-1,4,-1,-1,190,340,,3400,0,1,2,SCT 9   BKN 13,1,3,1,1,1015,RJFF 092000Z AUTO 27004KT 190V340 3400 RASN SCT009 BKN013     03/01 Q1015 RMK A2998 RI005=,RA SN
20180109_203000.001,0,RJFF,,,,1,20180109200000,-1,-1,-1,-1,230,-1,4,-1,-1,190,280,,4300,0,1,1,OVC 6,1,2,1,0,1015,RJFF 092030Z AUTO 23004KT 190V280 4300 RASN OVC006 02/00 Q1015     RMK A2998 RI007=,RA SN
20180109_210000.002,0,RJFF,,,,0,20180109210000,-1,-1,-1,-1,160,-1,5,-1,-1,-1,-1,,9999,0,1,3,FEW 3   SCT 10   BKN 20,1,1,1,0,1015,RJFF 092100Z 16005KT 9999 -SHRASN FEW003 SCT010 BKN020 01/00     Q1015 RMK 1ST003 3CU010 7CU020 A2997=,- RA SN SH
20180109_213000.001,0,RJFF,,,,0,20180109210000,-1,-1,-1,-1,120,-1,8,-1,-1,-1,-1,,9999,0,0,3,FEW 3   SCT 10   BKN 35,1,2,1,0,1014,RJFF 092130Z 12008KT 9999 FEW003 SCT010 BKN035 02/00 Q1014 RMK     1ST003 3CU010 6CU035 A2995=,
20180109_220000.002,0,RJFF,,,,0,20180109220000,-1,-1,-1,-1,180,-1,6,-1,-1,-1,-1,,5000,0,2,3,FEW 3   SCT 15   BKN 20,1,2,1,1,1014,RJFF 092200Z 18006KT 5000 -SHRASN BR FEW003 SCT015 BKN020     02/01 Q1014 RMK 1ST003 4CU015 7CU020 A2997=,- RA SN SH; BR
20180109_223000.002,0,RJFF,,,,0,20180109220000,-1,-1,-1,-1,150,-1,6,-1,-1,-1,-1,,9999,0,1,3,FEW 3   SCT 10   BKN 15,1,2,1,1,1015,RJFF 092230Z 15006KT 9999 -SHRASN FEW003 SCT010 BKN015 02/01     Q1015 RMK 1ST003 3CU010 7CU015 A2997=,- RA SN SH
20180109_230000.002,0,RJFF,,,,0,20180109230000,-1,-1,-1,-1,999,-1,2,-1,-1,-1,-1,,2500,0,2,3,FEW 3   BKN 8   BKN 15,1,1,1,0,1015,RJFF 092300Z VRB02KT 2500 -SHSNRA BR FEW003 BKN008 BKN015     01/00 Q1015 RMK 1ST003 5ST008 7CU015 A2998=,- SN RA SH; BR
20180109_233000.001,0,RJFF,,,,0,20180109230000,-1,-1,-1,-1,150,-1,4,-1,-1,100,170,,4000,0,2,3,FEW 5   SCT 8   BKN 20,1,1,1,0,1015,RJFF 092330Z 15004KT 100V170 4000 -SHRASN BR FEW005 SCT008     BKN020 01/00 Q1015 RMK 1ST005 3ST008 7CU020 A2998=,- RA SN SH; BR
20180110_000000.002,0,RJFF,,,,0,20180110000000,-1,-1,-1,-1,160,-1,7,-1,-1,-1,-1,,6000,0,1,3,FEW 3   SCT 10   BKN 20,1,1,1,0,1015,RJFF 100000Z 16007KT 6000 -SHRASN FEW003 SCT010 BKN020 01/00     Q1015 RMK 1ST003 3CU010 6CU020 A2998=,- RA SN SH
20180110_003000.001,0,RJFF,,,,0,20180110000000,-1,-1,-1,-1,170,-1,7,-1,-1,130,220,,2000,0,2,3,FEW 3   SCT 8   BKN 15,1,2,1,1,1015,RJFF 100030Z 17007KT 130V220 2000 -SHRASN BR FEW003 SCT008     BKN015 02/01 Q1015 RMK 1ST003 3ST008 5CU015 A2999=,- RA SN SH; BR
20180110_010000.002,0,RJFF,,,,0,20180110010000,-1,-1,-1,-1,180,-1,5,-1,-1,140,240,,4500,0,2,3,FEW 3   SCT 8   BKN 10,1,2,1,1,1015,RJFF 100100Z 18005KT 140V240 4500 -SHRASN BR FEW003 SCT008     BKN010 02/01 Q1015 RMK 1ST003 3ST008 5CU010 A2999=,- RA SN SH; BR
20180110_013000.001,0,RJFF,,,,0,20180110010000,-1,-1,-1,-1,280,-1,10,-1,-1,240,340,,9000,0,1,3,FEW 3   BKN 15   BKN 30,1,4,1,2,1015,RJFF 100130Z 28010KT 240V340 9000 VCSH FEW003 BKN015 BKN030     04/02 Q1015 RMK 1ST003 5CU015 7CU030 A3000=,VC SH
20180110_020000.002,0,RJFF,,,,0,20180110020000,-1,-1,-1,-1,280,-1,11,-1,-1,240,320,,9000,0,1,3,FEW 10   BKN 20   BKN 30,1,5,1,1,1015,RJFF 100200Z 28011KT 240V320 9000 -SHRA FEW010 BKN020 BKN030     05/01 Q1015 RMK 1ST010 5CU020 7CU030 A2999=,- RA SH
20180110_023000.001,0,RJFF,,,,0,20180110020000,-1,-1,-1,-1,280,-1,12,-1,22,230,320,,9999,0,1,3,FEW 5   SCT 10   BKN 20,1,5,1,1,1015,RJFF 100230Z 28012G22KT 230V320 9999 -SHRASN FEW005 SCT010     BKN020 05/01 Q1015 RMK 1ST005 3CU010 5CU020 A2998=,- RA SN SH
20180110_030000.002,0,RJFF,,,,0,20180110030000,-1,-1,-1,-1,260,-1,16,-1,26,-1,-1,,4000,0,2,3,FEW 5   SCT 8   BKN 20,1,4,1,2,1015,RJFF 100300Z 26016G26KT 4000 SHRASN BR FEW005 SCT008 BKN020     04/02 Q1015 RMK 1ST005 4ST008 7CU020 A2998=,RA SN SH; BR
20180110_033000.001,0,RJFF,,,,0,20180110030000,-1,-1,-1,-1,300,-1,13,-1,-1,260,330,,4000,0,2,3,FEW 5   BKN 15   BKN 30,1,5,1,2,1014,RJFF 100330Z 30013KT 260V330 4000 SHRASNGS BR FEW005 BKN015     BKN030 05/02 Q1014 RMK 1ST005 5CU015 7CU030 A2997 SNOW           PELLETS=,RA, SN GS SH; BR
20180110_040000.003,0,RJFF,,,,0,20180110040000,-1,-1,-1,-1,280,-1,10,-1,-1,220,320,,9999,0,1,3,FEW 7   SCT 20   BKN 25,1,6,1,2,1014,RJFF 100400Z 28010KT 220V320 9999 VCSH FEW007 SCT020 BKN025     06/02 Q1014 RMK 1ST007 3CU020 5CU025 A2996=,VC SH
20180110_043000.001,0,RJFF,,,,0,20180110040000,-1,-1,-1,-1,290,-1,15,-1,30,260,330,,5000,0,2,3,FEW 7   SCT 20   BKN 35,1,4,1,1,1014,RJFF 100430Z 29015G30KT 260V330 5000 -SHRASN BR FEW007 SCT020     BKN035 04/01 Q1014 RMK 1ST007 3CU020 6CU035 A2997=,- RA SN SH; BR
20180110_050000.002,0,RJFF,,,,0,20180110050000,-1,-1,-1,-1,250,-1,13,-1,-1,-1,-1,,9999,0,1,3,FEW 7   SCT 15   BKN 20,1,3,1,1,1015,RJFF 100500Z 25013KT 9999 -SHRASN FEW007 SCT015 BKN020 03/01     Q1015 RMK 1ST007 3CU015 5CU020 A2998=,- RA SN SH
20180110_053000.001,0,RJFF,,,,0,20180110050000,-1,-1,-1,-1,240,-1,8,-1,-1,190,280,,9999,0,1,3,FEW 8   SCT 15   BKN 25,1,4,1,1,1015,RJFF 100530Z 24008KT 190V280 9999 -SHRASN FEW008 SCT015 BKN025     04/01 Q1015 RMK 1ST008 3CU015 6CU025 A2997=,- RA SN SH
20180110_060000.002,0,RJFF,,,,0,20180110060000,-1,-1,-1,-1,300,-1,15,-1,-1,-1,-1,,9999,0,1,3,FEW 8   SCT 20   BKN 25,1,4,1,0,1015,RJFF 100600Z 30015KT 9999 -SHRASN FEW008 SCT020 BKN025 04/00     Q1015 RMK 1ST008 4CU020 7CU025 A2998=,- RA SN SH
20180110_063000.001,0,RJFF,,,,0,20180110060000,-1,-1,-1,-1,270,-1,9,-1,-1,230,310,,9999,0,1,3,FEW 10   SCT 20   BKN 35,1,4,1,1,1015,RJFF 100630Z 27009KT 230V310 9999 VCSH FEW010 SCT020 BKN035     04/01 Q1015 RMK 1ST010 3CU020 5CU035 A2998=,VC SH
20180110_070000.002,0,RJFF,,,,0,20180110070000,-1,-1,-1,-1,250,-1,7,-1,-1,190,290,,7000,0,1,3,FEW 10   SCT 20   BKN 35,1,3,-1,0,1015,RJFF 100700Z 25007KT 190V290 7000 -SHRASNGS FEW010 SCT020     BKN035 03/M00 Q1015 RMK 1ST010 4CU020 7CU035 A2999 SNOW           PELLETS=,- RA, SN GS SH
20180110_073000.001,0,RJFF,,,,0,20180110070000,-1,-1,-1,-1,260,-1,9,-1,19,210,300,,8000,0,1,3,FEW 10   SCT 25   BKN 35,1,4,-1,1,1015,RJFF 100730Z 26009G19KT 210V300 8000 -SHRASN FEW010 SCT025     BKN035 04/M01 Q1015 RMK 1ST010 3CU025 6CU035 A2999=,- RA SN SH
20180110_080000.002,0,RJFF,,,,0,20180110080000,-1,-1,-1,-1,260,-1,7,-1,-1,210,300,,9999,0,1,3,FEW 3   SCT 20   BKN 30,1,4,-1,0,1015,RJFF 100800Z 26007KT 210V300 9999 VCSH FEW003 SCT020 BKN030     04/M00 Q1015 RMK 1ST003 4CU020 6CU030 A3000=,VC SH
20180110_083000.001,0,RJFF,,,,0,20180110080000,-1,-1,-1,-1,290,-1,11,-1,-1,250,320,,9999,0,1,3,FEW 5   SCT 20   BKN 35,1,5,-1,0,1016,RJFF 100830Z 29011KT 250V320 9999 VCSH FEW005 SCT020 BKN035     05/M00 Q1016 RMK 1ST005 3CU020 6CU035 A3001=,VC SH
20180110_090000.002,0,RJFF,,,,0,20180110090000,-1,-1,-1,-1,300,-1,17,-1,29,260,330,,9999,0,0,3,FEW 10   SCT 25   BKN 35,1,4,-1,1,1016,RJFF 100900Z 30017G29KT 260V330 9999 FEW010 SCT025 BKN035     04/M01 Q1016 RMK 1ST010 3CU025 6CU035 A3003 WS 10KT GAIN           AND LOSS OBS AT 0854Z ON DEP COURSE RWY34 1000FT IN CMB           E170=,
20180110_090000.003,2,RJFF,,,,0,20180110090000,-1,-1,-1,-1,300,-1,17,-1,29,260,330,,9999,0,0,3,FEW 10   SCT 25   BKN 35,1,4,-1,1,1016,RJFF 100900Z 30017G29KT 260V330 9999 FEW010 SCT025 BKN035     04/M01 Q1016 WS R34 RMK 1ST010 3CU025 6CU035 A3003=,
20180110_093000.001,0,RJFF,,,,0,20180110090000,-1,-1,-1,-1,290,-1,9,-1,20,250,350,,9999,0,0,3,FEW 10   SCT 30   BKN 40,1,3,-1,1,1017,RJFF 100930Z 29009G20KT 250V350 9999 FEW010 SCT030 BKN040     03/M01 Q1017 RMK 1ST010 3CU030 6CU040 A3004=,
20180110_100000.002,0,RJFF,,,,0,20180110100000,-1,-1,-1,-1,300,-1,16,-1,28,-1,-1,,8000,0,1,3,FEW 10   SCT 15   BKN 25,1,2,-1,1,1018,RJFF 101000Z 30016G28KT 8000 -SHGS FEW010 SCT015 BKN025 02/M01     Q1018 RMK 1ST010 4CU015 6CU025 A3006 SNOW PELLETS=,- GS SH
20180110_103000.001,0,RJFF,,,,0,20180110100000,-1,-1,-1,-1,280,-1,17,-1,27,250,320,,3500,0,1,4,FEW 5   FEW 25 CB  SCT 30   BKN 40,1,1,-1,1,1018,RJFF 101030Z 28017G27KT 250V320 3500 -SHGS FEW005 FEW025CB     SCT030 BKN040 01/M01 Q1018 RMK 1ST005 2CB025 4CU030           6CU040 A3008 CB OHD MOV E SNOW PELLETS=,- GS SH
20180110_110000.002,0,RJFF,,,,0,20180110110000,-1,-1,-1,-1,330,-1,11,-1,-1,-1,-1,,9999,0,1,3,FEW 5   SCT 30   BKN 40,1,2,-1,1,1018,RJFF 101100Z 33011KT 9999 VCSH FEW005 SCT030 BKN040 02/M01     Q1018 RMK 1ST005 3CU030 6CU040 A3007=,VC SH
20180110_113000.001,0,RJFF,,,,0,20180110110000,-1,-1,-1,-1,220,-1,5,-1,-1,130,270,,9999,0,1,3,FEW 5   SCT 30   BKN 40,1,2,-1,2,1018,RJFF 101130Z 22005KT 130V270 9999 -SHSNRA FEW005 SCT030 BKN040     02/M02 Q1018 RMK 1ST005 3CU030 6CU040 A3008=,- SN RA SH
20180110_120000.002,0,RJFF,,,,0,20180110120000,-1,-1,-1,-1,300,-1,18,-1,-1,270,340,,9999,0,0,3,FEW 5   SCT 35   BKN 45,1,2,-1,2,1019,RJFF 101200Z 30018KT 270V340 9999 FEW005 SCT035 BKN045 02/M02     Q1019 RMK 1ST005 3CU035 5CU045 A3010=,
20180110_123000.001,0,RJFF,,,,0,20180110120000,-1,-1,-1,-1,310,-1,14,-1,-1,-1,-1,,9999,0,0,2,FEW 5   BKN 45,1,2,-1,1,1019,RJFF 101230Z 31014KT 9999 FEW005 BKN045 02/M01 Q1019 RMK     1ST005 5CU045 A3011=,
20180110_130000.002,0,RJFF,,,,0,20180110130000,-1,-1,-1,-1,290,-1,14,-1,24,240,310,,9999,0,1,3,FEW 5   SCT 30   BKN 40,1,3,-1,2,1019,RJFF 101300Z 29014G24KT 240V310 9999 -SHSNRA FEW005 SCT030     BKN040 03/M02 Q1019 RMK 1ST005 4CU030 6CU040 A3011=,- SN RA SH
20180110_133000.001,0,RJFF,,,,0,20180110130000,-1,-1,-1,-1,290,-1,13,-1,-1,240,320,,9999,0,0,2,FEW 30   BKN 40,1,3,-1,5,1019,RJFF 101330Z 29013KT 240V320 9999 FEW030 BKN040 03/M05 Q1019     RMK 1CU030 6CU040 A3011=,
20180110_140000.002,0,RJFF,,,,1,20180110140000,-1,-1,-1,-1,290,-1,12,-1,-1,250,320,,9999,0,0,2,FEW 33   OVC 50,1,3,-1,6,1019,RJFF 101400Z AUTO 29012KT 250V320 9999 FEW033 OVC050 03/M06     Q1019 RMK A3012=,
20180110_143000.001,0,RJFF,,,,1,20180110140000,-1,-1,-1,-1,310,-1,15,-1,28,-1,-1,,9999,0,0,3,FEW 36   BKN 50   OVC 80,1,3,-1,7,1020,RJFF 101430Z AUTO 31015G28KT 9999 FEW036 BKN050 OVC080 03/M07     Q1020 RMK A3012=,
20180110_150000.002,0,RJFF,,,,1,20180110150000,-1,-1,-1,-1,310,-1,12,-1,-1,-1,-1,,9999,0,0,1,NSC -1,1,2,-1,6,1020,RJFF 101500Z AUTO 31012KT 9999 NSC 02/M06 Q1020 RMK A3013=,
20180110_153000.001,0,RJFF,,,,1,20180110150000,-1,-1,-1,-1,300,-1,13,-1,-1,-1,-1,,9999,0,0,3,FEW 49   SCT 60   OVC 80,1,2,-1,8,1020,RJFF 101530Z AUTO 30013KT 9999 FEW049 SCT060 OVC080 02/M08     Q1020 RMK A3013=,
20180110_160000.002,0,RJFF,,,,1,20180110160000,-1,-1,-1,-1,310,-1,11,-1,-1,240,330,,9999,0,0,1,NSC -1,1,2,-1,7,1020,RJFF 101600Z AUTO 31011KT 240V330 9999 NSC 02/M07 Q1020 RMK     A3013=,
20180110_163000.001,0,RJFF,,,,1,20180110160000,-1,-1,-1,-1,300,-1,12,-1,-1,270,330,,9999,0,0,3,FEW 46   SCT 60   OVC 80,1,2,-1,7,1020,RJFF 101630Z AUTO 30012KT 270V330 9999 FEW046 SCT060 OVC080     02/M07 Q1020 RMK A3014=,
20180110_170000.002,0,RJFF,,,,1,20180110170000,-1,-1,-1,-1,290,-1,10,-1,-1,240,330,,9999,0,1,3,FEW 36   SCT 48   BKN 60,1,2,-1,7,1020,RJFF 101700Z AUTO 29010KT 240V330 9999 -SN FEW036 SCT048     BKN060 02/M07 Q1020 RMK A3014=,- SN
20180110_173000.001,0,RJFF,,,,1,20180110170000,-1,-1,-1,-1,290,-1,13,-1,-1,260,330,,9999,0,0,3,FEW 37   SCT 50   BKN 60,1,2,-1,7,1021,RJFF 101730Z AUTO 29013KT 260V330 9999 FEW037 SCT050 BKN060     02/M07 Q1021 RMK A3015=,
20180110_180000.002,0,RJFF,,,,1,20180110180000,-1,-1,-1,-1,320,-1,13,-1,-1,-1,-1,,9999,0,1,3,FEW 28   SCT 38   BKN 43,1,2,-1,4,1021,RJFF 101800Z AUTO 32013KT 9999 -SN FEW028 SCT038 BKN043 02/M04     Q1021 RMK A3015=,- SN
20180110_183000.001,0,RJFF,,,,1,20180110180000,-1,-1,-1,-1,340,-1,11,-1,-1,-1,-1,,9999,0,1,3,FEW 35   SCT 49   BKN 50,1,1,-1,4,1021,RJFF 101830Z AUTO 34011KT 9999 -SN FEW035 SCT049 BKN050 01/M04     Q1021 RMK A3015=,- SN
20180110_190000.002,0,RJFF,,,,1,20180110190000,-1,-1,-1,-1,300,-1,9,-1,-1,-1,-1,,9999,0,0,3,FEW 35   BKN 39   BKN 48,1,2,-1,5,1020,RJFF 101900Z AUTO 30009KT 9999 FEW035 BKN039 BKN048 02/M05     Q1020 RMK A3015=,
20180110_193000.001,0,RJFF,,,,1,20180110190000,-1,-1,-1,-1,310,-1,11,-1,-1,-1,-1,,9999,0,0,3,FEW 39   SCT 41   BKN 50,1,2,-1,6,1021,RJFF 101930Z AUTO 31011KT 9999 FEW039 SCT041 BKN050 02/M06     Q1021 RMK A3015=,
20180110_200000.002,0,RJFF,,,,1,20180110200000,-1,-1,-1,-1,310,-1,13,-1,-1,-1,-1,,9999,0,0,3,FEW 32   BKN 41   BKN 48,1,2,-1,5,1021,RJFF 102000Z AUTO 31013KT 9999 FEW032 BKN041 BKN048 02/M05     Q1021 RMK A3016=,
20180110_203000.001,0,RJFF,,,,1,20180110200000,-1,-1,-1,-1,310,-1,15,-1,-1,280,340,,9999,0,0,3,FEW 27   BKN 42   OVC 48,1,2,-1,6,1021,RJFF 102030Z AUTO 31015KT 280V340 9999 FEW027 BKN042 OVC048     02/M06 Q1021 RMK A3016=,
20180110_210000.002,0,RJFF,,,,0,20180110210000,-1,-1,-1,-1,310,-1,13,-1,23,270,340,,9999,0,0,3,FEW 15   SCT 35   BKN 45,1,2,-1,6,1021,RJFF 102100Z 31013G23KT 270V340 9999 FEW015 SCT035 BKN045     02/M06 Q1021 RMK 1CU015 3CU035 5CU045 A3016=,
20180110_213000.001,0,RJFF,,,,0,20180110210000,-1,-1,-1,-1,310,-1,14,-1,24,270,350,,9999,0,1,3,FEW 15   SCT 35   BKN 40,1,2,-1,6,1021,RJFF 102130Z 31014G24KT 270V350 9999 -SHSN FEW015 SCT035     BKN040 02/M06 Q1021 RMK 1CU015 3CU035 5CU040 A3016=,- SN SH
20180110_220000.002,0,RJFF,,,,0,20180110220000,-1,-1,-1,-1,310,-1,15,-1,26,240,330,,9999,0,1,3,FEW 15   SCT 35   BKN 45,1,2,-1,7,1021,RJFF 102200Z 31015G26KT 240V330 9999 VCSH FEW015 SCT035 BKN045     02/M07 Q1021 RMK 1CU015 3CU035 5CU045 A3017=,VC SH
20180110_223000.002,0,RJFF,,,,0,20180110220000,-1,-1,-1,-1,290,-1,15,-1,-1,260,320,,9999,0,1,3,FEW 15   SCT 35   BKN 45,1,2,-1,8,1022,RJFF 102230Z 29015KT 260V320 9999 VCSH FEW015 SCT035 BKN045     02/M08 Q1022 RMK 1CU015 3CU035 5CU045 A3018=,VC SH
20180110_230000.003,0,RJFF,,,,0,20180110230000,-1,-1,-1,-1,310,-1,10,-1,-1,260,340,,9999,0,1,3,FEW 20   SCT 35   BKN 45,1,2,-1,6,1022,RJFF 102300Z 31010KT 260V340 9999 -SHSN FEW020 SCT035 BKN045     02/M06 Q1022 RMK 1CU020 4CU035 5CU045 A3018=,- SN SH
20180110_233000.001,0,RJFF,,,,0,20180110230000,-1,-1,-1,-1,310,-1,10,-1,-1,270,350,,9999,0,1,3,FEW 20   SCT 35   BKN 45,1,2,-1,6,1022,RJFF 102330Z 31010KT 270V350 9999 -SHSN FEW020 SCT035 BKN045     02/M06 Q1022 RMK 1CU020 4CU035 6CU045 A3018=,- SN SH
20180111_000000.002,0,RJFF,,,,0,20180111000000,-1,-1,-1,-1,310,-1,10,-1,-1,260,330,,9999,0,1,3,FEW 20   SCT 30   BKN 40,1,2,-1,6,1022,RJFF 110000Z 31010KT 260V330 9999 -SHSN FEW020 SCT030 BKN040     02/M06 Q1022 RMK 1CU020 4CU030 6CU040 A3020=,- SN SH
20180111_003000.001,0,RJFF,,,,0,20180111000000,-1,-1,-1,-1,310,-1,14,-1,-1,270,340,,9999,0,1,3,FEW 20   SCT 30   BKN 40,1,2,-1,7,1022,RJFF 110030Z 31014KT 270V340 9999 -SHSN FEW020 SCT030 BKN040     02/M07 Q1022 RMK 1CU020 3CU030 6CU040 A3020=,- SN SH
20180111_010000.002,0,RJFF,,,,0,20180111010000,-1,-1,-1,-1,300,-1,11,-1,-1,-1,-1,,9999,0,1,3,FEW 20   SCT 30   BKN 40,1,2,-1,6,1023,RJFF 110100Z 30011KT 9999 -SHSN FEW020 SCT030 BKN040 02/M06     Q1023 RMK 1CU020 3CU030 6CU040 A3021=,- SN SH
20180111_013000.001,0,RJFF,,,,0,20180111010000,-1,-1,-1,-1,300,-1,12,-1,22,250,330,,9999,0,1,3,FEW 20   SCT 30   BKN 40,1,2,-1,7,1023,RJFF 110130Z 30012G22KT 250V330 9999 -SHSN FEW020 SCT030     BKN040 02/M07 Q1023 RMK 1CU020 3CU030 6CU040 A3021=,- SN SH
20180111_020000.002,0,RJFF,,,,0,20180111020000,-1,-1,-1,-1,300,-1,14,-1,-1,270,330,,9999,0,1,3,FEW 20   SCT 30   BKN 40,1,2,-1,6,1023,RJFF 110200Z 30014KT 270V330 9999 -SHSN FEW020 SCT030 BKN040     02/M06 Q1023 RMK 1CU020 3CU030 6CU040 A3022=,- SN SH
20180111_023000.001,0,RJFF,,,,0,20180111020000,-1,-1,-1,-1,310,-1,9,-1,19,260,360,,9999,0,1,3,FEW 20   SCT 30   BKN 40,1,2,-1,5,1023,RJFF 110230Z 31009G19KT 260V360 9999 -SHSN FEW020 SCT030     BKN040 02/M05 Q1023 RMK 1CU020 3CU030 6CU040 A3022=,- SN SH
20180111_030000.001,0,RJFF,,,,0,20180111030000,-1,-1,-1,-1,310,-1,13,-1,25,280,350,,9999,0,1,3,FEW 20   SCT 25   BKN 30,1,1,-1,4,1023,RJFF 110300Z 31013G25KT 280V350 9999 -SHSN FEW020 SCT025     BKN030 01/M04 Q1023 RMK 1CU020 3CU025 5CU030 A3022=,- SN SH
20180111_033000.001,0,RJFF,,,,0,20180111030000,-1,-1,-1,-1,300,-1,14,-1,-1,270,330,,9999,0,1,3,FEW 20   SCT 25   BKN 30,1,2,-1,8,1023,RJFF 110330Z 30014KT 270V330 9999 -SHSN FEW020 SCT025 BKN030     02/M08 Q1023 RMK 1CU020 3CU025 5CU030 A3022=,- SN SH
20180111_040000.002,0,RJFF,,,,0,20180111040000,-1,-1,-1,-1,290,-1,15,-1,-1,-1,-1,,9999,0,1,3,FEW 20   SCT 30   BKN 40,1,2,-1,8,1023,RJFF 110400Z 29015KT 9999 -SHSN FEW020 SCT030 BKN040 02/M08     Q1023 RMK 1CU020 3CU030 5CU040 A3021=,- SN SH
20180111_043000.001,0,RJFF,,,,0,20180111040000,-1,-1,-1,-1,300,-1,16,-1,26,-1,-1,,9999,0,1,3,FEW 20   SCT 30   BKN 40,1,2,-1,9,1023,RJFF 110430Z 30016G26KT 9999 -SHSN FEW020 SCT030 BKN040 02/M09     Q1023 RMK 1CU020 3CU030 5CU040 A3022=,- SN SH
20180111_050000.002,0,RJFF,,,,0,20180111050000,-1,-1,-1,-1,290,-1,15,-1,-1,250,330,,9999,0,0,3,FEW 20   SCT 30   BKN 40,1,2,-1,9,1023,RJFF 110500Z 29015KT 250V330 9999 FEW020 SCT030 BKN040 02/M09     Q1023 RMK 1CU020 3CU030 5CU040 A3022=,
20180111_053000.000,0,RJFF,,,,0,20180111050000,-1,-1,-1,-1,300,-1,14,-1,26,260,330,,9999,0,0,3,FEW 20   BKN 40   BKN 50,1,2,-1,10,1023,RJFF 110530Z 30014G26KT 260V330 9999 FEW020 BKN040 BKN050     02/M10 Q1023 RMK 1CU020 5CU040 6SC050 A3022=,
20180111_060000.002,0,RJFF,,,,0,20180111060000,-1,-1,-1,-1,300,-1,16,-1,29,260,330,,9999,0,0,3,FEW 20   SCT 40   BKN 50,1,2,-1,10,1023,RJFF 110600Z 30016G29KT 260V330 9999 FEW020 SCT040 BKN050     02/M10 Q1023 RMK 1CU020 3CU040 5SC050 A3022=,
20180111_063000.001,0,RJFF,,,,0,20180111060000,-1,-1,-1,-1,310,-1,13,-1,27,260,330,,9999,0,0,3,FEW 20   SCT 40   BKN 50,1,2,-1,7,1023,RJFF 110630Z 31013G27KT 260V330 9999 FEW020 SCT040 BKN050     02/M07 Q1023 RMK 1CU020 3CU040 5SC050 A3022=,
20180111_070000.002,0,RJFF,,,,0,20180111070000,-1,-1,-1,-1,300,-1,14,-1,24,260,340,,9999,0,0,3,FEW 20   SCT 40   BKN 50,1,2,-1,9,1023,RJFF 110700Z 30014G24KT 260V340 9999 FEW020 SCT040 BKN050     02/M09 Q1023 RMK 1CU020 3CU040 5SC050 A3022=,
20180111_073000.001,0,RJFF,,,,0,20180111070000,-1,-1,-1,-1,280,-1,13,-1,-1,-1,-1,,9999,0,0,2,FEW 20   SCT 50,1,2,-1,9,1023,RJFF 110730Z 28013KT 9999 FEW020 SCT050 02/M09 Q1023 RMK     1CU020 4SC050 A3022=,
20180111_080000.002,0,RJFF,,,,0,20180111080000,-1,-1,-1,-1,290,-1,13,-1,29,260,320,,9999,0,0,2,FEW 20   BKN 45,1,2,-1,10,1023,RJFF 110800Z 29013G29KT 260V320 9999 FEW020 BKN045 02/M10     Q1023 RMK 1CU020 6CU045 A3022=,
20180111_083000.001,0,RJFF,,,,0,20180111080000,-1,-1,-1,-1,310,-1,17,-1,30,270,340,,9999,0,0,2,FEW 20   BKN 45,1,2,-1,10,1023,RJFF 110830Z 31017G30KT 270V340 9999 FEW020 BKN045 02/M10     Q1023 RMK 1CU020 6CU045 A3022=,
20180111_090000.002,0,RJFF,,,,0,20180111090000,-1,-1,-1,-1,310,-1,12,-1,-1,-1,-1,,9999,0,0,2,FEW 20   BKN 45,1,2,-1,9,1023,RJFF 110900Z 31012KT 9999 FEW020 BKN045 02/M09 Q1023 RMK     1CU020 7CU045 A3023=,
20180111_093000.001,0,RJFF,,,,0,20180111090000,-1,-1,-1,-1,290,-1,12,-1,-1,250,320,,9999,0,0,2,FEW 20   BKN 45,1,2,-1,8,1023,RJFF 110930Z 29012KT 250V320 9999 FEW020 BKN045 02/M08 Q1023     RMK 1CU020 6CU045 A3023=,
20180111_100000.002,0,RJFF,,,,0,20180111100000,-1,-1,-1,-1,310,-1,10,-1,-1,280,340,,9999,0,0,2,FEW 20   BKN 45,1,2,-1,7,1023,RJFF 111000Z 31010KT 280V340 9999 FEW020 BKN045 02/M07 Q1023     RMK 1CU020 6CU045 A3023=,
20180111_103000.001,0,RJFF,,,,0,20180111100000,-1,-1,-1,-1,300,-1,15,-1,-1,270,330,,9999,0,0,2,FEW 20   BKN 45,1,2,-1,9,1023,RJFF 111030Z 30015KT 270V330 9999 FEW020 BKN045 02/M09 Q1023     RMK 1CU020 6CU045 A3023=,
20180111_110000.002,0,RJFF,,,,0,20180111110000,-1,-1,-1,-1,300,-1,16,-1,-1,270,330,,9999,0,1,2,FEW 20   BKN 40,1,2,-1,9,1023,RJFF 111100Z 30016KT 270V330 9999 -SHSN FEW020 BKN040 02/M09     Q1023 RMK 1CU020 5CU040 A3023=,- SN SH
20180111_113000.001,0,RJFF,,,,0,20180111110000,-1,-1,-1,-1,310,-1,15,-1,25,-1,-1,,9999,0,1,2,FEW 20   BKN 35,1,2,-1,9,1024,RJFF 111130Z 31015G25KT 9999 -SHSN FEW020 BKN035 02/M09 Q1024     RMK 1CU020 6CU035 A3024=,- SN SH
20180111_120000.002,0,RJFF,,,,0,20180111120000,-1,-1,-1,-1,320,-1,15,-1,-1,-1,-1,,9999,0,1,2,FEW 35   BKN 45,1,2,-1,8,1024,RJFF 111200Z 32015KT 9999 -SHSN FEW035 BKN045 02/M08 Q1024 RMK     1CU035 7CU045 A3026=,- SN SH
20180111_123000.001,0,RJFF,,,,0,20180111120000,-1,-1,-1,-1,310,-1,17,-1,28,280,350,,9999,0,1,2,FEW 30   BKN 45,1,1,-1,8,1024,RJFF 111230Z 31017G28KT 280V350 9999 -SHSN FEW030 BKN045     01/M08 Q1024 RMK 1CU030 7CU045 A3026=,- SN SH
20180111_130000.002,0,RJFF,,,,0,20180111130000,-1,-1,-1,-1,310,-1,15,-1,-1,-1,-1,,9999,0,0,2,FEW 30   BKN 45,1,2,-1,9,1024,RJFF 111300Z 31015KT 9999 FEW030 BKN045 02/M09 Q1024 RMK     1CU030 6CU045 A3026=,
20180111_133000.001,0,RJFF,,,,0,20180111130000,-1,-1,-1,-1,310,-1,13,-1,24,-1,-1,,9999,0,1,2,FEW 35   SCT 45,1,1,-1,8,1025,RJFF 111330Z 31013G24KT 9999 -SHSN FEW035 SCT045 01/M08 Q1025     RMK 1CU035 4CU045 A3027=,- SN SH
20180111_140000.002,0,RJFF,,,,1,20180111140000,-1,-1,-1,-1,290,-1,16,-1,27,250,320,,9999,0,0,3,FEW 45   BKN 70   BKN 80,1,2,-1,13,1025,RJFF 111400Z AUTO 29016G27KT 250V320 9999 FEW045 BKN070 BKN080     02/M13 Q1025 RMK A3028=,
20180111_143000.001,0,RJFF,,,,1,20180111140000,-1,-1,-1,-1,280,-1,14,-1,24,250,330,,9999,0,0,1,NSC -1,1,2,-1,13,1025,RJFF 111430Z AUTO 28014G24KT 250V330 9999 NSC 02/M13 Q1025 RMK     A3028=,
20180111_150000.002,0,RJFF,,,,1,20180111150000,-1,-1,-1,-1,320,-1,10,-1,20,280,350,,9999,0,1,2,FEW 41   SCT 50,1,1,-1,7,1025,RJFF 111500Z AUTO 32010G20KT 280V350 9999 -SN FEW041 SCT050     01/M07 Q1025 RMK A3028=,- SN
20180111_153000.001,0,RJFF,,,,1,20180111150000,-1,-1,-1,-1,290,-1,12,-1,-1,250,320,,9999,0,0,1,NSC -1,1,1,-1,11,1025,RJFF 111530Z AUTO 29012KT 250V320 9999 NSC 01/M11 Q1025 RMK     A3028=,
20180111_160000.002,0,RJFF,,,,1,20180111160000,-1,-1,-1,-1,310,-1,14,-1,24,270,330,,9999,0,0,3,FEW 49   SCT 60   BKN 70,1,1,-1,10,1025,RJFF 111600Z AUTO 31014G24KT 270V330 9999 FEW049 SCT060 BKN070     01/M10 Q1025 RMK A3028=,
20180111_163000.001,0,RJFF,,,,1,20180111160000,-1,-1,-1,-1,310,-1,14,-1,24,270,340,,9999,0,0,3,FEW 43   BKN 50   BKN 60,1,1,-1,10,1025,RJFF 111630Z AUTO 31014G24KT 270V340 9999 FEW043 BKN050 BKN060     01/M10 Q1025 RMK A3028=,
20180111_170000.002,0,RJFF,,,,1,20180111170000,-1,-1,-1,-1,310,-1,13,-1,23,-1,-1,,9999,0,0,3,FEW 43   SCT 46   BKN 50,1,1,-1,9,1025,RJFF 111700Z AUTO 31013G23KT 9999 FEW043 SCT046 BKN050 01/M09     Q1025 RMK A3029=,
20180111_173000.001,0,RJFF,,,,1,20180111170000,-1,-1,-1,-1,310,-1,14,-1,-1,-1,-1,,9999,0,0,3,FEW 41   SCT 49   BKN 60,1,1,-1,9,1025,RJFF 111730Z AUTO 31014KT 9999 FEW041 SCT049 BKN060 01/M09     Q1025 RMK A3029=,
20180111_180000.002,0,RJFF,,,,1,20180111180000,-1,-1,-1,-1,300,-1,10,-1,-1,270,340,,9999,0,1,3,FEW 42   SCT 46   BKN 60,1,1,-1,9,1025,RJFF 111800Z AUTO 30010KT 270V340 9999 -SN FEW042 SCT046     BKN060 01/M09 Q1025 RMK A3029=,- SN
20180111_183000.001,0,RJFF,,,,1,20180111180000,-1,-1,-1,-1,310,-1,12,-1,-1,270,330,,9999,0,1,3,FEW 41   SCT 50   BKN 60,1,1,-1,9,1025,RJFF 111830Z AUTO 31012KT 270V330 9999 -SN FEW041 SCT050     BKN060 01/M09 Q1025 RMK A3029=,- SN
20180111_190000.002,0,RJFF,,,,1,20180111190000,-1,-1,-1,-1,310,-1,11,-1,-1,-1,-1,,9999,0,1,3,FEW 30   BKN 70   BKN 80,1,0,-1,7,1025,RJFF 111900Z AUTO 31011KT 9999 -SN FEW030 BKN070 BKN080 00/M07     Q1025 RMK A3029=,- SN
20180111_193000.001,0,RJFF,,,,1,20180111190000,-1,-1,-1,-1,280,-1,12,-1,-1,-1,-1,,9999,0,0,3,FEW 31   SCT 60   BKN 70,1,1,-1,9,1025,RJFF 111930Z AUTO 28012KT 9999 FEW031 SCT060 BKN070 01/M09     Q1025 RMK A3029=,
20180111_200000.002,0,RJFF,,,,1,20180111200000,-1,-1,-1,-1,290,-1,10,-1,-1,260,320,,9999,0,0,3,FEW 38   SCT 48   OVC 80,1,1,-1,9,1025,RJFF 112000Z AUTO 29010KT 260V320 9999 FEW038 SCT048 OVC080     01/M09 Q1025 RMK A3029=,
20180111_203000.001,0,RJFF,,,,1,20180111200000,-1,-1,-1,-1,310,-1,12,-1,-1,-1,-1,,9999,0,1,3,FEW 37   SCT 70   BKN 80,1,0,-1,6,1026,RJFF 112030Z AUTO 31012KT 9999 -SN FEW037 SCT070 BKN080 00/M06     Q1026 RMK A3030=,- SN
20180111_210000.002,0,RJFF,,,,0,20180111210000,-1,-1,-1,-1,280,-1,11,-1,-1,230,320,,9999,0,1,3,FEW 15   SCT 30   BKN 45,1,1,-1,8,1026,RJFF 112100Z 28011KT 230V320 9999 -SHSN FEW015 SCT030 BKN045     01/M08 Q1026 RMK 1CU015 3CU030 5CU045 A3031=,- SN SH
20180111_213000.001,0,RJFF,,,,0,20180111210000,-1,-1,-1,-1,330,-1,8,-1,-1,-1,-1,,9999,0,1,2,FEW 15   BKN 45,-1,0,-1,5,1026,RJFF 112130Z 33008KT 9999 -SHSN FEW015 BKN045 M00/M05 Q1026     RMK 1CU015 5CU045 A3032=,- SN SH
20180111_220000.002,0,RJFF,,,,0,20180111220000,-1,-1,-1,-1,300,-1,12,-1,-1,270,330,,9999,0,1,2,FEW 20   BKN 45,1,1,-1,9,1026,RJFF 112200Z 30012KT 270V330 9999 VCSH FEW020 BKN045 01/M09     Q1026 RMK 1CU020 5CU045 A3032=,VC SH
20180111_223000.002,0,RJFF,,,,0,20180111220000,-1,-1,-1,-1,290,-1,12,-1,-1,250,310,,9999,0,1,2,FEW 20   SCT 45,1,1,-1,9,1027,RJFF 112230Z 29012KT 250V310 9999 VCSH FEW020 SCT045 01/M09     Q1027 RMK 1CU020 4CU045 A3033=,VC SH
20180111_230000.002,0,RJFF,,,,0,20180111230000,-1,-1,-1,-1,270,-1,10,-1,-1,240,300,,9999,0,1,2,FEW 20   BKN 45,1,1,-1,9,1027,RJFF 112300Z 27010KT 240V300 9999 VCSH FEW020 BKN045 01/M09     Q1027 RMK 1CU020 5CU045 A3034=,VC SH
20180111_233000.001,0,RJFF,,,,0,20180111230000,-1,-1,-1,-1,290,-1,10,-1,-1,260,320,,9999,0,1,2,FEW 20   SCT 45,1,1,-1,10,1027,RJFF 112330Z 29010KT 260V320 9999 VCSH FEW020 SCT045 01/M10     Q1027 RMK 1CU020 4CU045 A3035=,VC SH
20180112_000000.002,0,RJFF,,,,0,20180112000000,-1,-1,-1,-1,300,-1,11,-1,-1,270,340,,9999,0,1,2,FEW 20   BKN 45,1,2,-1,10,1027,RJFF 120000Z 30011KT 270V340 9999 VCSH FEW020 BKN045 02/M10     Q1027 RMK 1CU020 5CU045 A3035=,VC SH
20180112_003000.001,0,RJFF,,,,0,20180112000000,-1,-1,-1,-1,320,-1,13,-1,-1,-1,-1,,9999,0,1,2,FEW 20   SCT 45,1,1,-1,6,1028,RJFF 120030Z 32013KT 9999 -SHSN FEW020 SCT045 01/M06 Q1028 RMK     1CU020 4CU045 A3036=,- SN SH
20180112_010000.003,0,RJFF,,,,0,20180112010000,-1,-1,-1,-1,310,-1,12,-1,-1,-1,-1,,9999,0,1,2,FEW 20   BKN 45,1,1,-1,5,1028,RJFF 120100Z 31012KT 9999 -SHSN FEW020 BKN045 01/M05 Q1028 RMK     1CU020 5CU045 A3036=,- SN SH
20180112_013000.001,0,RJFF,,,,0,20180112010000,-1,-1,-1,-1,300,-1,9,-1,-1,250,340,,9999,0,1,2,FEW 20   BKN 45,1,1,-1,4,1028,RJFF 120130Z 30009KT 250V340 9999 -SHSN FEW020 BKN045 01/M04     Q1028 RMK 1CU020 6CU045 A3036=,- SN SH
20180112_020000.002,0,RJFF,,,,0,20180112020000,-1,-1,-1,-1,290,-1,8,-1,-1,-1,-1,,7000,1,1,2,FEW 15   BKN 40,1,1,-1,3,1027,RJFF 120200Z 29008KT 7000 R34/1500VP2000U -SHSN FEW015 BKN040     01/M03 Q1027 RMK 1CU015 7CU040 A3035=,- SN SH
20180112_023000.001,0,RJFF,,,,0,20180112020000,-1,-1,-1,-1,300,-1,13,-1,-1,-1,-1,,9000,0,1,2,FEW 20   BKN 40,1,1,-1,4,1027,RJFF 120230Z 30013KT 9000 -SHSN FEW020 BKN040 01/M04 Q1027 RMK     1CU020 6CU040 A3035=,- SN SH
20180112_030000.002,0,RJFF,,,,0,20180112030000,-1,-1,-1,-1,310,-1,11,-1,-1,-1,-1,,2000,1,1,2,FEW 15   BKN 40,1,0,-1,3,1027,RJFF 120300Z 31011KT 2000 R34/1900D -SHSN FEW015 BKN040 00/M03     Q1027 RMK 1CU015 7CU040 A3034=,- SN SH
20180112_033000.001,0,RJFF,,,,0,20180112030000,-1,-1,-1,-1,320,-1,11,-1,-1,-1,-1,,2000,1,1,3,FEW 15   SCT 20   BKN 40,1,0,-1,3,1027,RJFF 120330Z 32011KT 2000 R34/P2000N -SHSN FEW015 SCT020     BKN040 00/M03 Q1027 RMK 1CU015 3CU020 7CU040 A3033=,- SN SH
20180112_040000.002,0,RJFF,,,,0,20180112040000,-1,-1,-1,-1,330,-1,10,-1,-1,-1,-1,,8000,0,1,2,FEW 15   BKN 40,1,1,-1,3,1026,RJFF 120400Z 33010KT 8000 -SHSN FEW015 BKN040 01/M03 Q1026 RMK     1CU015 6CU040 A3031=,- SN SH
20180112_043000.001,0,RJFF,,,,0,20180112040000,-1,-1,-1,-1,290,-1,7,-1,-1,240,320,,2500,1,1,3,FEW 10   SCT 20   BKN 40,1,0,-1,3,1026,RJFF 120430Z 29007KT 240V320 2500 R34/2000N -SHSN FEW010     SCT020 BKN040 00/M03 Q1026 RMK 1CU010 3CU020 7CU040           A3031=,- SN SH
20180112_050000.003,0,RJFF,,,,0,20180112050000,-1,-1,-1,-1,310,-1,6,-1,-1,280,340,,9999,0,1,3,FEW 10   SCT 25   BKN 40,1,1,-1,3,1026,RJFF 120500Z 31006KT 280V340 9999 -SHSN FEW010 SCT025 BKN040     01/M03 Q1026 RMK 1CU010 3CU025 7CU040 A3031=,- SN SH
20180112_053000.001,0,RJFF,,,,0,20180112050000,-1,-1,-1,-1,290,-1,10,-1,-1,240,320,,9999,0,0,2,FEW 10   BKN 40,1,2,-1,5,1026,RJFF 120530Z 29010KT 240V320 9999 FEW010 BKN040 02/M05 Q1026     RMK 1CU010 6CU040 A3031=,
20180112_060000.002,0,RJFF,,,,0,20180112060000,-1,-1,-1,-1,320,-1,11,-1,-1,290,360,,9999,0,1,2,FEW 10   BKN 40,1,3,-1,6,1026,RJFF 120600Z 32011KT 290V360 9999 VCSH FEW010 BKN040 03/M06     Q1026 RMK 1CU010 5CU040 A3032=,VC SH
20180112_063000.001,0,RJFF,,,,0,20180112060000,-1,-1,-1,-1,320,-1,11,-1,-1,280,350,,9999,0,1,2,FEW 10   SCT 40,1,3,-1,7,1026,RJFF 120630Z 32011KT 280V350 9999 VCSH FEW010 SCT040 03/M07     Q1026 RMK 1CU010 3CU040 A3032=,VC SH
20180112_070000.003,0,RJFF,,,,0,20180112070000,-1,-1,-1,-1,320,-1,8,-1,-1,270,360,,9999,0,1,1,FEW 30,1,2,-1,7,1027,RJFF 120700Z 32008KT 270V360 9999 VCSH FEW030 02/M07 Q1027 RMK     1CU030 A3033=,VC SH
20180112_073000.001,0,RJFF,,,,0,20180112070000,-1,-1,-1,-1,310,-1,8,-1,-1,280,350,,9999,0,0,1,FEW 30,1,2,-1,8,1027,RJFF 120730Z 31008KT 280V350 9999 FEW030 02/M08 Q1027 RMK     1CU030 A3033=,
20180112_080000.002,0,RJFF,,,,0,20180112080000,-1,-1,-1,-1,320,-1,8,-1,-1,270,340,,9999,0,0,1,FEW 30,1,2,-1,8,1027,RJFF 120800Z 32008KT 270V340 9999 FEW030 02/M08 Q1027 RMK     1CU030 A3034=,
20180112_083000.001,0,RJFF,,,,0,20180112080000,-1,-1,-1,-1,320,-1,3,-1,-1,280,350,,9999,0,0,1,FEW 30,1,2,-1,9,1027,RJFF 120830Z 32003KT 280V350 9999 FEW030 02/M09 Q1027 RMK     1CU030 A3035=,
20180112_090000.002,0,RJFF,,,,0,20180112090000,-1,-1,-1,-1,290,-1,6,-1,-1,250,310,,9999,0,0,2,FEW 30   SCT 40,1,2,-1,9,1027,RJFF 120900Z 29006KT 250V310 9999 FEW030 SCT040 02/M09 Q1027     RMK 1CU030 3CU040 A3035=,
20180112_093000.001,0,RJFF,,,,0,20180112090000,-1,-1,-1,-1,250,-1,5,-1,-1,210,310,,9999,0,0,2,FEW 30   BKN 40,1,2,-1,7,1028,RJFF 120930Z 25005KT 210V310 9999 FEW030 BKN040 02/M07 Q1028     RMK 1CU030 5CU040 A3036=,
20180112_100000.002,0,RJFF,,,,0,20180112100000,-1,-1,-1,-1,220,-1,4,-1,-1,180,260,,9999,0,0,2,FEW 30   BKN 40,1,1,-1,7,1028,RJFF 121000Z 22004KT 180V260 9999 FEW030 BKN040 01/M07 Q1028     RMK 1CU030 5CU040 A3037=,
20180112_103000.001,0,RJFF,,,,0,20180112100000,-1,-1,-1,-1,230,-1,5,-1,-1,-1,-1,,9999,0,0,2,FEW 30   BKN 45,1,1,-1,8,1028,RJFF 121030Z 23005KT 9999 FEW030 BKN045 01/M08 Q1028 RMK     1CU030 5CU045 A3038=,
20180112_110000.002,0,RJFF,,,,0,20180112110000,-1,-1,-1,-1,999,-1,3,-1,-1,-1,-1,,9999,0,0,2,FEW 30   BKN 45,1,2,-1,8,1028,RJFF 121100Z VRB03KT 9999 FEW030 BKN045 02/M08 Q1028 RMK     1CU030 5CU045 A3038=,
20180112_113000.001,0,RJFF,,,,0,20180112110000,-1,-1,-1,-1,300,-1,7,-1,-1,-1,-1,,9999,0,0,2,FEW 30   BKN 45,1,2,-1,8,1028,RJFF 121130Z 30007KT 9999 FEW030 BKN045 02/M08 Q1028 RMK     1CU030 5CU045 A3038=,
20180112_120000.002,0,RJFF,,,,0,20180112120000,-1,-1,-1,-1,300,-1,6,-1,-1,250,340,,9999,0,0,2,FEW 30   BKN 45,1,2,-1,7,1029,RJFF 121200Z 30006KT 250V340 9999 FEW030 BKN045 02/M07 Q1029     RMK 1CU030 5CU045 A3039=,
20180112_123000.001,0,RJFF,,,,0,20180112120000,-1,-1,-1,-1,310,-1,7,-1,-1,270,350,,9999,0,0,2,FEW 30   BKN 45,1,1,-1,6,1029,RJFF 121230Z 31007KT 270V350 9999 FEW030 BKN045 01/M06 Q1029     RMK 1CU030 6CU045 A3039=,
20180112_130000.002,0,RJFF,,,,0,20180112130000,-1,-1,-1,-1,160,-1,3,-1,-1,110,190,,9999,0,0,2,FEW 30   BKN 45,1,1,-1,6,1029,RJFF 121300Z 16003KT 110V190 9999 FEW030 BKN045 01/M06 Q1029     RMK 1CU030 6CU045 A3040=,
20180112_133000.001,0,RJFF,,,,0,20180112130000,-1,-1,-1,-1,120,-1,4,-1,-1,30,150,,9999,0,0,2,FEW 30   BKN 45,1,0,-1,6,1029,RJFF 121330Z 12004KT 030V150 9999 FEW030 BKN045 00/M06 Q1029     RMK 1CU030 5CU045 A3040=,
20180112_140000.002,0,RJFF,,,,1,20180112140000,-1,-1,-1,-1,150,-1,8,-1,-1,-1,-1,,9999,0,0,2,BKN 49   OVC 50,-1,0,-1,5,1029,RJFF 121400Z AUTO 15008KT 9999 BKN049 OVC050 M00/M05 Q1029 RMK     A3041=,
20180112_143000.001,0,RJFF,,,,1,20180112140000,-1,-1,-1,-1,160,-1,7,-1,-1,-1,-1,,9999,0,0,2,FEW 49   BKN 50,-1,1,-1,5,1029,RJFF 121430Z AUTO 16007KT 9999 FEW049 BKN050 M01/M05 Q1029 RMK     A3041=,
20180112_150000.002,0,RJFF,,,,1,20180112150000,-1,-1,-1,-1,150,-1,6,-1,-1,-1,-1,,9999,0,0,2,FEW 47   BKN 50,-1,0,-1,5,1029,RJFF 121500Z AUTO 15006KT 9999 FEW047 BKN050 M00/M05 Q1029 RMK     A3041=,
20180112_153000.001,0,RJFF,,,,1,20180112150000,-1,-1,-1,-1,160,-1,7,-1,-1,-1,-1,,9999,0,0,2,FEW 49   BKN 50,-1,1,-1,5,1029,RJFF 121530Z AUTO 16007KT 9999 FEW049 BKN050 M01/M05 Q1029 RMK     A3041=,
20180112_160000.002,0,RJFF,,,,1,20180112160000,-1,-1,-1,-1,180,-1,6,-1,-1,150,210,,9999,0,0,1,NSC -1,-1,2,-1,5,1029,RJFF 121600Z AUTO 18006KT 150V210 9999 NSC M02/M05 Q1029 RMK     A3041=,
20180112_163000.001,0,RJFF,,,,1,20180112160000,-1,-1,-1,-1,150,-1,6,-1,-1,-1,-1,,9999,0,0,1,NSC -1,-1,1,-1,5,1029,RJFF 121630Z AUTO 15006KT 9999 NSC M01/M05 Q1029 RMK A3040=,
20180112_170000.002,0,RJFF,,,,1,20180112170000,-1,-1,-1,-1,140,-1,4,-1,-1,50,160,,9999,0,0,2,SCT 49   BKN 50,-1,1,-1,4,1029,RJFF 121700Z AUTO 14004KT 050V160 9999 SCT049 BKN050 M01/M04     Q1029 RMK A3041=,
20180112_173000.001,0,RJFF,,,,1,20180112170000,-1,-1,-1,-1,180,-1,4,-1,-1,-1,-1,,9999,0,0,2,FEW 44   BKN 48,-1,1,-1,4,1029,RJFF 121730Z AUTO 18004KT 9999 FEW044 BKN048 M01/M04 Q1029 RMK     A3041=,
20180112_180000.002,0,RJFF,,,,1,20180112180000,-1,-1,-1,-1,160,-1,6,-1,-1,-1,-1,,9999,0,0,2,FEW 44   BKN 50,-1,1,-1,4,1029,RJFF 121800Z AUTO 16006KT 9999 FEW044 BKN050 M01/M04 Q1029 RMK     A3040=,
20180112_183000.001,0,RJFF,,,,1,20180112180000,-1,-1,-1,-1,190,-1,5,-1,-1,-1,-1,,9999,0,0,2,FEW 42   BKN 50,-1,1,-1,4,1029,RJFF 121830Z AUTO 19005KT 9999 FEW042 BKN050 M01/M04 Q1029 RMK     A3041=,
20180112_190000.002,0,RJFF,,,,1,20180112190000,-1,-1,-1,-1,160,-1,5,-1,-1,-1,-1,,9999,0,0,2,FEW 43   OVC 50,-1,1,-1,4,1029,RJFF 121900Z AUTO 16005KT 9999 FEW043 OVC050 M01/M04 Q1029 RMK     A3040=,
20180112_193000.001,0,RJFF,,,,1,20180112190000,-1,-1,-1,-1,170,-1,6,-1,-1,-1,-1,,9999,0,0,2,BKN 47   OVC 50,-1,1,-1,4,1029,RJFF 121930Z AUTO 17006KT 9999 BKN047 OVC050 M01/M04 Q1029 RMK     A3039=,
20180112_200000.003,0,RJFF,,,,1,20180112200000,-1,-1,-1,-1,999,-1,5,-1,-1,-1,-1,,9999,0,0,2,FEW 46   OVC 50,-1,1,-1,4,1029,RJFF 122000Z AUTO VRB05KT 9999 FEW046 OVC050 M01/M04 Q1029 RMK     A3040=,
20180112_203000.001,0,RJFF,,,,1,20180112200000,-1,-1,-1,-1,170,-1,6,-1,-1,-1,-1,,9999,0,0,3,FEW 38   SCT 42   BKN 46,-1,1,-1,4,1029,RJFF 122030Z AUTO 17006KT 9999 FEW038 SCT042 BKN046 M01/M04     Q1029 RMK A3041=,
20180112_210000.002,0,RJFF,,,,0,20180112210000,-1,-1,-1,-1,150,-1,10,-1,-1,-1,-1,,9999,0,0,3,FEW 30   SCT 40   BKN 50,-1,1,-1,4,1029,RJFF 122100Z 15010KT 9999 FEW030 SCT040 BKN050 M01/M04 Q1029     RMK 1CU030 3CU040 5SC050 A3041=,
20180112_213000.001,0,RJFF,,,,0,20180112210000,-1,-1,-1,-1,170,-1,8,-1,-1,-1,-1,,9999,0,0,3,FEW 30   SCT 40   BKN 50,-1,1,-1,4,1029,RJFF 122130Z 17008KT 9999 FEW030 SCT040 BKN050 M01/M04 Q1029     RMK 1CU030 3CU040 5SC050 A3040=,
20180112_220000.002,0,RJFF,,,,0,20180112220000,-1,-1,-1,-1,160,-1,7,-1,-1,-1,-1,,9999,0,0,3,FEW 30   SCT 40   BKN 50,-1,1,-1,4,1029,RJFF 122200Z 16007KT 9999 FEW030 SCT040 BKN050 M01/M04 Q1029     RMK 1CU030 3CU040 5SC050 A3040=,
20180112_223000.002,0,RJFF,,,,0,20180112220000,-1,-1,-1,-1,180,-1,7,-1,-1,-1,-1,,9999,0,0,3,FEW 30   SCT 40   BKN 50,-1,1,-1,4,1029,RJFF 122230Z 18007KT 9999 FEW030 SCT040 BKN050 M01/M04 Q1029     RMK 1CU030 3CU040 5SC050 A3041=,
20180112_230000.002,0,RJFF,,,,0,20180112230000,-1,-1,-1,-1,160,-1,7,-1,-1,-1,-1,,9999,0,0,2,FEW 30   BKN 50,-1,0,-1,4,1030,RJFF 122300Z 16007KT 9999 FEW030 BKN050 M00/M04 Q1030 RMK     1CU030 6SC050 A3042=,
20180112_233000.001,0,RJFF,,,,0,20180112230000,-1,-1,-1,-1,170,-1,6,-1,-1,-1,-1,,9999,0,0,3,FEW 30   SCT 40   BKN 50,-1,0,-1,4,1030,RJFF 122330Z 17006KT 9999 FEW030 SCT040 BKN050 M00/M04 Q1030     RMK 1CU030 4CU040 6SC050 A3043=,
20180113_000000.002,0,RJFF,,,,0,20180113000000,-1,-1,-1,-1,170,-1,8,-1,-1,-1,-1,,9999,0,0,3,FEW 30   BKN 40   BKN 50,1,0,-1,4,1030,RJFF 130000Z 17008KT 9999 FEW030 BKN040 BKN050 00/M04 Q1030     RMK 1CU030 5CU040 6SC050 A3044=,
20180113_003000.001,0,RJFF,,,,0,20180113000000,-1,-1,-1,-1,170,-1,6,-1,-1,-1,-1,,9999,0,0,2,FEW 30   BKN 45,1,1,-1,4,1031,RJFF 130030Z 17006KT 9999 FEW030 BKN045 01/M04 Q1031 RMK     1CU030 6SC045 A3045=,
20180113_010000.003,0,RJFF,,,,0,20180113010000,-1,-1,-1,-1,170,-1,7,-1,-1,-1,-1,,9999,0,1,3,FEW 15   SCT 30   BKN 40,1,1,-1,4,1031,RJFF 130100Z 17007KT 9999 -SHSN FEW015 SCT030 BKN040 01/M04     Q1031 RMK 1CU015 3CU030 6CU040 A3046=,- SN SH
20180113_013000.001,0,RJFF,,,,0,20180113010000,-1,-1,-1,-1,150,-1,10,-1,-1,-1,-1,,8000,0,1,3,FEW 15   SCT 25   BKN 35,1,1,-1,3,1031,RJFF 130130Z 15010KT 8000 -SHSN FEW015 SCT025 BKN035 01/M03     Q1031 RMK 1CU015 4CU025 6CU035 A3047=,- SN SH
20180113_020000.002,0,RJFF,,,,0,20180113020000,-1,-1,-1,-1,150,-1,10,-1,-1,-1,-1,,9999,0,1,3,FEW 15   SCT 25   BKN 35,1,1,-1,2,1031,RJFF 130200Z 15010KT 9999 -SHSN FEW015 SCT025 BKN035 01/M02     Q1031 RMK 1CU015 3CU025 6CU035 A3046=,- SN SH
20180113_023000.001,0,RJFF,,,,0,20180113020000,-1,-1,-1,-1,150,-1,9,-1,-1,-1,-1,,9999,0,0,3,FEW 20   SCT 25   BKN 35,1,2,-1,2,1031,RJFF 130230Z 15009KT 9999 FEW020 SCT025 BKN035 02/M02 Q1031     RMK 1CU020 3CU025 6CU035 A3046=,
20180113_030000.002,0,RJFF,,,,0,20180113030000,-1,-1,-1,-1,150,-1,9,-1,-1,-1,-1,,9999,0,0,3,FEW 20   BKN 35   BKN 50,1,2,-1,2,1031,RJFF 130300Z 15009KT 9999 FEW020 BKN035 BKN050 02/M02 Q1031     RMK 1CU020 5CU035 7SC050 A3045=,
20180113_033000.001,0,RJFF,,,,0,20180113030000,-1,-1,-1,-1,160,-1,9,-1,-1,-1,-1,,9999,0,0,3,FEW 20   SCT 35   BKN 50,1,3,-1,1,1030,RJFF 130330Z 16009KT 9999 FEW020 SCT035 BKN050 03/M01 Q1030     RMK 1CU020 4CU035 7SC050 A3043=,
20180113_040000.002,0,RJFF,,,,0,20180113040000,-1,-1,-1,-1,150,-1,10,-1,-1,-1,-1,,9999,0,0,3,FEW 20   SCT 35   BKN 45,1,3,-1,1,1030,RJFF 130400Z 15010KT 9999 FEW020 SCT035 BKN045 03/M01 Q1030     RMK 1CU020 3CU035 7SC045 A3042=,
20180113_043000.001,0,RJFF,,,,0,20180113040000,-1,-1,-1,-1,150,-1,7,-1,-1,-1,-1,,9999,0,0,3,FEW 15   SCT 30   BKN 45,1,3,-1,1,1029,RJFF 130430Z 15007KT 9999 FEW015 SCT030 BKN045 03/M01 Q1029     RMK 1CU015 4CU030 7SC045 A3041=,
20180113_050000.002,0,RJFF,,,,0,20180113050000,-1,-1,-1,-1,160,-1,9,-1,-1,-1,-1,,9999,0,1,3,FEW 15   SCT 30   BKN 40,1,2,-1,1,1029,RJFF 130500Z 16009KT 9999 -SHSN FEW015 SCT030 BKN040 02/M01     Q1029 RMK 1CU015 4CU030 7CU040 A3041=,- SN SH
20180113_053000.001,0,RJFF,,,,0,20180113050000,-1,-1,-1,-1,150,-1,5,-1,-1,110,180,,9999,0,0,3,FEW 20   SCT 30   BKN 40,1,3,-1,0,1030,RJFF 130530Z 15005KT 110V180 9999 FEW020 SCT030 BKN040 03/M00     Q1030 RMK 1CU020 3CU030 7CU040 A3041=,
20180113_060000.002,0,RJFF,,,,0,20180113060000,-1,-1,-1,-1,150,-1,5,-1,-1,-1,-1,,9999,0,0,3,FEW 20   SCT 30   BKN 45,1,4,-1,0,1030,RJFF 130600Z 15005KT 9999 FEW020 SCT030 BKN045 04/M00 Q1030     RMK 1CU020 4CU030 6SC045 A3042=,
20180113_063000.001,0,RJFF,,,,0,20180113060000,-1,-1,-1,-1,150,-1,8,-1,-1,-1,-1,,9999,0,0,3,FEW 20   SCT 30   BKN 45,1,4,-1,0,1030,RJFF 130630Z 15008KT 9999 FEW020 SCT030 BKN045 04/M00 Q1030     RMK 1CU020 4CU030 7SC045 A3043=,
20180113_070000.002,0,RJFF,,,,0,20180113070000,-1,-1,-1,-1,170,-1,6,-1,-1,140,220,,9999,0,0,3,FEW 20   SCT 30   BKN 45,1,4,-1,0,1030,RJFF 130700Z 17006KT 140V220 9999 FEW020 SCT030 BKN045 04/M00     Q1030 RMK 1CU020 4CU030 6SC045 A3043=,
20180113_073000.001,0,RJFF,,,,0,20180113070000,-1,-1,-1,-1,150,-1,6,-1,-1,100,170,,9999,0,0,3,FEW 20   BKN 30   BKN 45,1,4,-1,0,1030,RJFF 130730Z 15006KT 100V170 9999 FEW020 BKN030 BKN045 04/M00     Q1030 RMK 1CU020 5CU030 6SC045 A3043=,
20180113_080000.002,0,RJFF,,,,0,20180113080000,-1,-1,-1,-1,160,-1,6,-1,-1,-1,-1,,9999,0,0,3,FEW 20   SCT 40   BKN 50,1,3,-1,0,1030,RJFF 130800Z 16006KT 9999 FEW020 SCT040 BKN050 03/M00 Q1030     RMK 1CU020 4CU040 6SC050 A3043=,
20180113_083000.001,0,RJFF,,,,0,20180113080000,-1,-1,-1,-1,160,-1,7,-1,-1,-1,-1,,9999,0,0,3,FEW 20   SCT 40   BKN 50,1,3,-1,0,1030,RJFF 130830Z 16007KT 9999 FEW020 SCT040 BKN050 03/M00 Q1030     RMK 1CU020 4CU040 6SC050 A3043=,
20180113_090000.002,0,RJFF,,,,0,20180113090000,-1,-1,-1,-1,180,-1,7,-1,-1,-1,-1,,9999,0,0,3,FEW 30   SCT 40   BKN 50,1,3,-1,0,1030,RJFF 130900Z 18007KT 9999 FEW030 SCT040 BKN050 03/M00 Q1030     RMK 1CU030 3CU040 6SC050 A3044=,
20180113_093000.001,0,RJFF,,,,0,20180113090000,-1,-1,-1,-1,160,-1,7,-1,-1,-1,-1,,9999,0,0,3,FEW 30   SCT 40   BKN 50,1,3,-1,0,1031,RJFF 130930Z 16007KT 9999 FEW030 SCT040 BKN050 03/M00 Q1031     RMK 1CU030 3CU040 6SC050 A3045=,
20180113_100000.002,0,RJFF,,,,0,20180113100000,-1,-1,-1,-1,180,-1,7,-1,-1,-1,-1,,9999,0,0,3,FEW 30   SCT 40   BKN 50,1,3,-1,0,1031,RJFF 131000Z 18007KT 9999 FEW030 SCT040 BKN050 03/M00 Q1031     RMK 1CU030 4CU040 6SC050 A3046=,
20180113_103000.001,0,RJFF,,,,0,20180113100000,-1,-1,-1,-1,160,-1,7,-1,-1,-1,-1,,9999,0,0,3,FEW 35   SCT 45   BKN 50,1,3,-1,0,1031,RJFF 131030Z 16007KT 9999 FEW035 SCT045 BKN050 03/M00 Q1031     RMK 1CU035 4SC045 5SC050 A3047=,
20180113_110000.002,0,RJFF,,,,0,20180113110000,-1,-1,-1,-1,160,-1,6,-1,-1,-1,-1,,9999,0,0,3,FEW 35   SCT 45   BKN 50,1,3,-1,0,1031,RJFF 131100Z 16006KT 9999 FEW035 SCT045 BKN050 03/M00 Q1031     RMK 1CU035 3SC045 6SC050 A3047=,
20180113_113000.001,0,RJFF,,,,0,20180113110000,-1,-1,-1,-1,160,-1,7,-1,-1,-1,-1,,9999,0,0,3,FEW 35   SCT 40   BKN 45,1,3,-1,1,1032,RJFF 131130Z 16007KT 9999 FEW035 SCT040 BKN045 03/M01 Q1032     RMK 1CU035 3CU040 5SC045 A3048=,
20180113_120000.002,0,RJFF,,,,0,20180113120000,-1,-1,-1,-1,150,-1,6,-1,-1,100,170,,9999,0,0,3,FEW 35   BKN 50   BKN 60,1,3,-1,0,1032,RJFF 131200Z 15006KT 100V170 9999 FEW035 BKN050 BKN060 03/M00     Q1032 RMK 1CU035 6SC050 7SC060 A3048=,
20180113_123000.001,0,RJFF,,,,0,20180113120000,-1,-1,-1,-1,170,-1,6,-1,-1,-1,-1,,9999,0,0,2,FEW 35   SCT 60,1,3,-1,1,1032,RJFF 131230Z 17006KT 9999 FEW035 SCT060 03/M01 Q1032 RMK     1CU035 3SC060 A3048=,
20180113_130000.002,0,RJFF,,,,0,20180113130000,-1,-1,-1,-1,140,-1,3,-1,-1,-1,-1,,9999,0,0,1,FEW 40,1,2,-1,1,1032,RJFF 131300Z 14003KT 9999 FEW040 02/M01 Q1032 RMK 1CU040     A3047=,
20180113_133000.001,0,RJFF,,,,0,20180113130000,-1,-1,-1,-1,999,-1,2,-1,-1,-1,-1,,9999,0,0,1,FEW 40,1,1,-1,1,1032,RJFF 131330Z VRB02KT 9999 FEW040 01/M01 Q1032 RMK 1CU040     A3047=,
20180113_140000.003,0,RJFF,,,,1,20180113140000,-1,-1,-1,-1,999,-1,2,-1,-1,-1,-1,,9999,0,0,1,FEW 49,1,1,-1,1,1031,RJFF 131400Z AUTO VRB02KT 9999 FEW049 01/M01 Q1031 RMK A3046=,
20180113_143000.001,0,RJFF,,,,1,20180113140000,-1,-1,-1,-1,150,-1,1,-1,-1,-1,-1,,9999,0,0,2,FEW 41   BKN 50,1,0,-1,1,1031,RJFF 131430Z AUTO 15001KT 9999 FEW041 BKN050 00/M01 Q1031 RMK     A3045=,
20180113_150000.002,0,RJFF,,,,1,20180113150000,-1,-1,-1,-1,160,-1,2,-1,-1,-1,-1,,9999,0,0,2,FEW 39   OVC 50,1,0,-1,1,1031,RJFF 131500Z AUTO 16002KT 9999 FEW039 OVC050 00/M01 Q1031 RMK     A3045=,
20180113_153000.001,0,RJFF,,,,1,20180113150000,-1,-1,-1,-1,150,-1,4,-1,-1,-1,-1,,9999,0,0,3,FEW 38   SCT 45   OVC 50,1,1,-1,1,1031,RJFF 131530Z AUTO 15004KT 9999 FEW038 SCT045 OVC050 01/M01     Q1031 RMK A3046=,
20180113_160000.002,0,RJFF,,,,1,20180113160000,-1,-1,-1,-1,160,-1,3,-1,-1,-1,-1,,9999,0,0,3,BKN 35   BKN 42   OVC 48,1,1,-1,0,1031,RJFF 131600Z AUTO 16003KT 9999 BKN035 BKN042 OVC048 01/M00     Q1031 RMK A3045=,
20180113_163000.001,0,RJFF,,,,1,20180113160000,-1,-1,-1,-1,999,-1,1,-1,-1,-1,-1,,9999,0,0,3,FEW 39   SCT 49   OVC 50,1,2,-1,1,1031,RJFF 131630Z AUTO VRB01KT 9999 FEW039 SCT049 OVC050 02/M01     Q1031 RMK A3045=,
20180113_170000.002,0,RJFF,,,,1,20180113170000,-1,-1,-1,-1,999,-1,2,-1,-1,-1,-1,,9999,0,0,3,FEW 44   SCT 49   OVC 50,1,2,-1,1,1031,RJFF 131700Z AUTO VRB02KT 9999 FEW044 SCT049 OVC050 02/M01     Q1031 RMK A3045=,
20180113_173000.001,0,RJFF,,,,1,20180113170000,-1,-1,-1,-1,160,-1,5,-1,-1,-1,-1,,9999,0,0,1,NSC -1,1,2,-1,0,1031,RJFF 131730Z AUTO 16005KT 9999 NSC 02/M00 Q1031 RMK A3044=,
20180113_180000.002,0,RJFF,,,,1,20180113180000,-1,-1,-1,-1,170,-1,3,-1,-1,-1,-1,,9999,0,0,1,NSC -1,1,1,-1,1,1030,RJFF 131800Z AUTO 17003KT 9999 NSC 01/M01 Q1030 RMK A3044=,
20180113_183000.001,0,RJFF,,,,1,20180113180000,-1,-1,-1,-1,170,-1,5,-1,-1,-1,-1,,9999,0,0,1,NSC -1,1,1,-1,1,1030,RJFF 131830Z AUTO 17005KT 9999 NSC 01/M01 Q1030 RMK A3044=,
20180113_190000.003,0,RJFF,,,,1,20180113190000,-1,-1,-1,-1,140,-1,6,-1,-1,-1,-1,,9999,0,0,1,NSC -1,1,2,-1,1,1030,RJFF 131900Z AUTO 14006KT 9999 NSC 02/M01 Q1030 RMK A3043=,
20180113_193000.001,0,RJFF,,,,1,20180113190000,-1,-1,-1,-1,170,-1,3,-1,-1,-1,-1,,9999,0,0,1,SCT 48,1,1,-1,1,1030,RJFF 131930Z AUTO 17003KT 9999 SCT048 01/M01 Q1030 RMK A3044=,
20180113_200000.003,0,RJFF,,,,1,20180113200000,-1,-1,-1,-1,150,-1,3,-1,-1,-1,-1,,9999,0,0,1,FEW 47,1,1,-1,1,1030,RJFF 132000Z AUTO 15003KT 9999 FEW047 01/M01 Q1030 RMK A3042=,
20180113_203000.001,0,RJFF,,,,1,20180113200000,-1,-1,-1,-1,140,-1,3,-1,-1,-1,-1,,9999,0,0,1,NCD -1,1,1,-1,1,1030,RJFF 132030Z AUTO 14003KT 9999 NCD 01/M01 Q1030 RMK A3042=,
20180113_210000.002,0,RJFF,,,,0,20180113210000,-1,-1,-1,-1,170,-1,4,-1,-1,-1,-1,CAVOK,-1,0,0,0,,-1,0,-1,2,1031,RJFF 132100Z 17004KT CAVOK M00/M02 Q1031 RMK A3045=,
20180113_213000.001,0,RJFF,,,,0,20180113210000,-1,-1,-1,-1,150,-1,4,-1,-1,-1,-1,CAVOK,-1,0,0,0,,1,0,-1,1,1031,RJFF 132130Z 15004KT CAVOK 00/M01 Q1031 RMK A3047=,
20180113_220000.002,0,RJFF,,,,0,20180113220000,-1,-1,-1,-1,150,-1,3,-1,-1,-1,-1,CAVOK,-1,0,0,0,,1,1,-1,1,1031,RJFF 132200Z 15003KT CAVOK 01/M01 Q1031 RMK A3047=,
20180113_223000.002,0,RJFF,,,,0,20180113220000,-1,-1,-1,-1,0,-1,0,-1,-1,-1,-1,CAVOK,-1,0,0,0,,1,1,-1,2,1032,RJFF 132230Z 00000KT CAVOK 01/M02 Q1032 RMK A3049=,
20180113_230000.002,0,RJFF,,,,0,20180113230000,-1,-1,-1,-1,160,-1,3,-1,-1,130,200,CAVOK,-1,0,0,0,,1,1,-1,1,1033,RJFF 132300Z 16003KT 130V200 CAVOK 01/M01 Q1033 RMK A3051=,
20180113_233000.001,0,RJFF,,,,0,20180113230000,-1,-1,-1,-1,170,-1,5,-1,-1,-1,-1,,9999,0,0,3,FEW 40   SCT 50   BKN -9999,1,2,-1,1,1033,RJFF 132330Z 17005KT 9999 FEW040 SCT050 BKN/// 02/M01 Q1033     RMK 1CU040 4SC050 A3051=,
20180114_000000.003,0,RJFF,,,,0,20180114000000,-1,-1,-1,-1,150,-1,6,-1,-1,-1,-1,,9999,0,0,3,FEW 40   BKN 50   BKN -9999,1,3,-1,0,1033,RJFF 140000Z 15006KT 9999 FEW040 BKN050 BKN/// 03/M00 Q1033     RMK 1CU040 6SC050 A3050=,
20180114_003000.001,0,RJFF,,,,0,20180114000000,-1,-1,-1,-1,150,-1,6,-1,-1,-1,-1,,9999,0,0,3,FEW 40   BKN 50   BKN -9999,1,4,-1,1,1032,RJFF 140030Z 15006KT 9999 FEW040 BKN050 BKN/// 04/M01 Q1032     RMK 1CU040 5SC050 A3049=,
20180114_010000.002,0,RJFF,,,,0,20180114010000,-1,-1,-1,-1,160,-1,10,-1,-1,-1,-1,,9999,0,0,3,FEW 40   BKN 50   BKN -9999,1,3,-1,0,1032,RJFF 140100Z 16010KT 9999 FEW040 BKN050 BKN/// 03/M00 Q1032     RMK 1CU040 5SC050 A3049=,
20180114_013000.001,0,RJFF,,,,0,20180114010000,-1,-1,-1,-1,160,-1,12,-1,-1,-1,-1,,9999,0,0,3,FEW 40   SCT 50   BKN -9999,1,4,1,0,1032,RJFF 140130Z 16012KT 9999 FEW040 SCT050 BKN/// 04/00 Q1032 RMK     1CU040 4SC050 A3048=,
20180114_020000.002,0,RJFF,,,,0,20180114020000,-1,-1,-1,-1,160,-1,11,-1,-1,-1,-1,,9999,0,0,3,FEW 45   BKN 180   BKN -9999,1,5,-1,0,1032,RJFF 140200Z 16011KT 9999 FEW045 BKN180 BKN/// 05/M00 Q1032     RMK 1SC045 5AC180 A3047=,
20180114_023000.001,0,RJFF,,,,0,20180114020000,-1,-1,-1,-1,160,-1,9,-1,-1,-1,-1,,9999,0,0,3,FEW 45   SCT 180   BKN -9999,1,5,1,0,1031,RJFF 140230Z 16009KT 9999 FEW045 SCT180 BKN/// 05/00 Q1031 RMK     1SC045 4AC180 A3046=,
20180114_030000.002,0,RJFF,,,,0,20180114030000,-1,-1,-1,-1,160,-1,7,-1,-1,130,210,,9999,0,0,3,FEW 45   SCT 180   BKN -9999,1,6,-1,1,1031,RJFF 140300Z 16007KT 130V210 9999 FEW045 SCT180 BKN/// 06/M01     Q1031 RMK 1SC045 3AC180 A3045=,
20180114_033000.001,0,RJFF,,,,0,20180114030000,-1,-1,-1,-1,170,-1,8,-1,-1,-1,-1,,9999,0,0,3,FEW 45   BKN 180   BKN -9999,1,6,-1,1,1030,RJFF 140330Z 17008KT 9999 FEW045 BKN180 BKN/// 06/M01 Q1030     RMK 1SC045 5AC180 A3044=,
20180114_040000.002,0,RJFF,,,,0,20180114040000,-1,-1,-1,-1,170,-1,8,-1,-1,-1,-1,,9999,0,0,3,FEW 35   BKN 180   BKN -9999,1,7,-1,2,1030,RJFF 140400Z 17008KT 9999 FEW035 BKN180 BKN/// 07/M02 Q1030     RMK 1CU035 5AC180 A3042=,
20180114_043000.001,0,RJFF,,,,0,20180114040000,-1,-1,-1,-1,170,-1,8,-1,-1,-1,-1,,9999,0,0,3,FEW 35   BKN 180   BKN -9999,1,7,-1,1,1029,RJFF 140430Z 17008KT 9999 FEW035 BKN180 BKN/// 07/M01 Q1029     RMK 1CU035 5AC180 A3039=,
20180114_050000.002,0,RJFF,,,,0,20180114050000,-1,-1,-1,-1,160,-1,9,-1,-1,-1,-1,,9999,0,0,3,FEW 35   BKN 180   BKN -9999,1,7,-1,2,1029,RJFF 140500Z 16009KT 9999 FEW035 BKN180 BKN/// 07/M02 Q1029     RMK 1CU035 5AC180 A3039=,
20180114_053000.001,0,RJFF,,,,0,20180114050000,-1,-1,-1,-1,170,-1,8,-1,-1,-1,-1,,9999,0,0,3,FEW 35   BKN 180   BKN -9999,1,7,-1,3,1028,RJFF 140530Z 17008KT 9999 FEW035 BKN180 BKN/// 07/M03 Q1028     RMK 1CU035 5AC180 A3038=,
20180114_060000.003,0,RJFF,,,,0,20180114060000,-1,-1,-1,-1,160,-1,8,-1,-1,-1,-1,,9999,0,0,3,FEW 35   BKN 180   BKN -9999,1,7,-1,2,1028,RJFF 140600Z 16008KT 9999 FEW035 BKN180 BKN/// 07/M02 Q1028     RMK 1CU035 5AC180 A3037=,
20180114_063000.001,0,RJFF,,,,0,20180114060000,-1,-1,-1,-1,160,-1,8,-1,-1,130,190,,9999,0,0,3,FEW 35   BKN 180   BKN -9999,1,7,-1,2,1028,RJFF 140630Z 16008KT 130V190 9999 FEW035 BKN180 BKN/// 07/M02     Q1028 RMK 1CU035 5AC180 A3037=,
20180114_070000.002,0,RJFF,,,,0,20180114070000,-1,-1,-1,-1,150,-1,6,-1,-1,-1,-1,,9999,0,0,2,FEW 35   BKN -9999,1,8,-1,2,1028,RJFF 140700Z 15006KT 9999 FEW035 BKN/// 08/M02 Q1028 RMK     1CU035 A3037=,
20180114_073000.001,0,RJFF,,,,0,20180114070000,-1,-1,-1,-1,160,-1,5,-1,-1,140,210,,9999,0,0,2,FEW 35   BKN -9999,1,7,-1,1,1028,RJFF 140730Z 16005KT 140V210 9999 FEW035 BKN/// 07/M01 Q1028     RMK 1CU035 A3036=,
20180114_080000.002,0,RJFF,,,,0,20180114080000,-1,-1,-1,-1,110,-1,4,-1,-1,70,160,CAVOK,-1,0,0,0,,1,7,-1,2,1028,RJFF 140800Z 11004KT 070V160 CAVOK 07/M02 Q1028 RMK A3036=,
20180114_083000.001,0,RJFF,,,,0,20180114080000,-1,-1,-1,-1,80,-1,3,-1,-1,360,130,,9999,0,0,2,FEW 35   BKN -9999,1,7,-1,2,1028,RJFF 140830Z 08003KT 360V130 9999 FEW035 BKN/// 07/M02 Q1028     RMK 1CU035 A3036=,
20180114_090000.002,0,RJFF,,,,0,20180114090000,-1,-1,-1,-1,70,-1,4,-1,-1,360,140,,9999,0,0,2,FEW 35   SCT -9999,1,6,-1,1,1028,RJFF 140900Z 07004KT 360V140 9999 FEW035 SCT/// 06/M01 Q1028     RMK 1CU035 A3037=,
20180114_093000.001,0,RJFF,,,,0,20180114090000,-1,-1,-1,-1,80,-1,4,-1,-1,50,120,,9999,0,0,2,FEW 35   SCT -9999,1,5,-1,1,1028,RJFF 140930Z 08004KT 050V120 9999 FEW035 SCT/// 05/M01 Q1028     RMK 1CU035 A3038=,
20180114_100000.002,0,RJFF,,,,0,20180114100000,-1,-1,-1,-1,150,-1,4,-1,-1,110,170,CAVOK,-1,0,0,0,,1,4,-1,0,1029,RJFF 141000Z 15004KT 110V170 CAVOK 04/M00 Q1029 RMK A3039=,
20180114_103000.001,0,RJFF,,,,0,20180114100000,-1,-1,-1,-1,230,-1,2,-1,-1,-1,-1,CAVOK,-1,0,0,0,,1,3,-1,0,1029,RJFF 141030Z 23002KT CAVOK 03/M00 Q1029 RMK A3039=,
20180114_110000.002,0,RJFF,,,,0,20180114110000,-1,-1,-1,-1,170,-1,3,-1,-1,150,220,CAVOK,-1,0,0,0,,1,3,-1,0,1029,RJFF 141100Z 17003KT 150V220 CAVOK 03/M00 Q1029 RMK A3039=,
20180114_113000.001,0,RJFF,,,,0,20180114110000,-1,-1,-1,-1,160,-1,5,-1,-1,-1,-1,CAVOK,-1,0,0,0,,1,2,-1,0,1029,RJFF 141130Z 16005KT CAVOK 02/M00 Q1029 RMK A3039=,
20180114_120000.002,0,RJFF,,,,0,20180114120000,-1,-1,-1,-1,150,-1,4,-1,-1,110,170,CAVOK,-1,0,0,0,,1,3,-1,0,1029,RJFF 141200Z 15004KT 110V170 CAVOK 03/M00 Q1029 RMK A3039=,
20180114_123000.001,0,RJFF,,,,0,20180114120000,-1,-1,-1,-1,160,-1,3,-1,-1,100,190,CAVOK,-1,0,0,0,,1,1,-1,1,1029,RJFF 141230Z 16003KT 100V190 CAVOK 01/M01 Q1029 RMK A3039=,
20180114_130000.003,0,RJFF,,,,0,20180114130000,-1,-1,-1,-1,150,-1,4,-1,-1,130,190,CAVOK,-1,0,0,0,,1,1,-1,1,1028,RJFF 141300Z 15004KT 130V190 CAVOK 01/M01 Q1028 RMK A3037=,
20180114_133000.001,0,RJFF,,,,0,20180114130000,-1,-1,-1,-1,130,-1,3,-1,-1,-1,-1,CAVOK,-1,0,0,0,,1,1,-1,1,1028,RJFF 141330Z 13003KT CAVOK 01/M01 Q1028 RMK A3037=,
20180114_140000.002,0,RJFF,,,,1,20180114140000,-1,-1,-1,-1,170,-1,3,-1,-1,-1,-1,,9999,0,0,1,NCD -1,1,2,-1,1,1028,RJFF 141400Z AUTO 17003KT 9999 NCD 02/M01 Q1028 RMK A3036=,
20180114_143000.001,0,RJFF,,,,1,20180114140000,-1,-1,-1,-1,160,-1,6,-1,-1,-1,-1,,9999,0,0,1,NCD -1,1,1,-1,2,1028,RJFF 141430Z AUTO 16006KT 9999 NCD 01/M02 Q1028 RMK A3036=,
20180114_150000.002,0,RJFF,,,,1,20180114150000,-1,-1,-1,-1,130,-1,2,-1,-1,-1,-1,,9999,0,0,1,NCD -1,1,2,-1,1,1027,RJFF 141500Z AUTO 13002KT 9999 NCD 02/M01 Q1027 RMK A3035=,
20180114_153000.001,0,RJFF,,,,1,20180114150000,-1,-1,-1,-1,130,-1,3,-1,-1,-1,-1,,9999,0,0,1,NCD -1,1,1,-1,1,1027,RJFF 141530Z AUTO 13003KT 9999 NCD 01/M01 Q1027 RMK A3034=,
20180114_160000.002,0,RJFF,,,,1,20180114160000,-1,-1,-1,-1,120,-1,3,-1,-1,-1,-1,,9999,0,0,1,NCD -1,1,1,-1,1,1027,RJFF 141600Z AUTO 12003KT 9999 NCD 01/M01 Q1027 RMK A3034=,
20180114_163000.001,0,RJFF,,,,1,20180114160000,-1,-1,-1,-1,150,-1,6,-1,-1,-1,-1,,9999,0,0,1,NCD -1,1,2,-1,1,1027,RJFF 141630Z AUTO 15006KT 9999 NCD 02/M01 Q1027 RMK A3034=,
20180114_170000.002,0,RJFF,,,,1,20180114170000,-1,-1,-1,-1,150,-1,8,-1,-1,-1,-1,,9999,0,0,1,NCD -1,1,0,-1,2,1027,RJFF 141700Z AUTO 15008KT 9999 NCD 00/M02 Q1027 RMK A3033=,
20180114_173000.001,0,RJFF,,,,1,20180114170000,-1,-1,-1,-1,140,-1,6,-1,-1,-1,-1,,9999,0,0,1,NCD -1,1,2,-1,2,1027,RJFF 141730Z AUTO 14006KT 9999 NCD 02/M02 Q1027 RMK A3033=,
20180114_180000.003,0,RJFF,,,,1,20180114180000,-1,-1,-1,-1,160,-1,12,-1,-1,-1,-1,,9999,0,0,1,NCD -1,1,2,-1,1,1026,RJFF 141800Z AUTO 16012KT 9999 NCD 02/M01 Q1026 RMK A3032=,
20180114_183000.001,0,RJFF,,,,1,20180114180000,-1,-1,-1,-1,160,-1,13,-1,-1,-1,-1,,9999,0,0,1,NCD -1,1,1,-1,1,1026,RJFF 141830Z AUTO 16013KT 9999 NCD 01/M01 Q1026 RMK A3031=,
20180114_190000.002,0,RJFF,,,,1,20180114190000,-1,-1,-1,-1,150,-1,9,-1,-1,-1,-1,,9999,0,0,1,NCD -1,1,1,-1,1,1026,RJFF 141900Z AUTO 15009KT 9999 NCD 01/M01 Q1026 RMK A3032=,
20180114_193000.001,0,RJFF,,,,1,20180114190000,-1,-1,-1,-1,170,-1,8,-1,-1,-1,-1,,9999,0,0,1,NCD -1,1,2,-1,2,1026,RJFF 141930Z AUTO 17008KT 9999 NCD 02/M02 Q1026 RMK A3030=,
20180114_200000.003,0,RJFF,,,,1,20180114200000,-1,-1,-1,-1,180,-1,7,-1,-1,-1,-1,,9999,0,0,1,NCD -1,1,1,-1,2,1026,RJFF 142000Z AUTO 18007KT 9999 NCD 01/M02 Q1026 RMK A3030=,
20180114_203000.001,0,RJFF,,,,1,20180114200000,-1,-1,-1,-1,160,-1,6,-1,-1,-1,-1,,9999,0,0,1,NSC -1,1,1,-1,1,1025,RJFF 142030Z AUTO 16006KT 9999 NSC 01/M01 Q1025 RMK A3029=,
20180114_210000.002,0,RJFF,,,,0,20180114210000,-1,-1,-1,-1,170,-1,8,-1,-1,-1,-1,,9999,0,0,2,FEW 35   BKN 70,1,2,-1,1,1025,RJFF 142100Z 17008KT 9999 FEW035 BKN070 02/M01 Q1025 RMK     1CU035 6AC070 A3029=,
20180114_213000.001,0,RJFF,,,,0,20180114210000,-1,-1,-1,-1,160,-1,7,-1,-1,-1,-1,,9999,0,0,3,FEW 35   SCT 50   BKN 70,1,3,-1,0,1025,RJFF 142130Z 16007KT 9999 FEW035 SCT050 BKN070 03/M00 Q1025     RMK 1CU035 3SC050 6AC070 A3029=,
20180114_220000.002,0,RJFF,,,,0,20180114220000,-1,-1,-1,-1,160,-1,12,-1,-1,-1,-1,,9999,0,0,3,FEW 35   SCT 50   BKN 70,1,4,-1,0,1025,RJFF 142200Z 16012KT 9999 FEW035 SCT050 BKN070 04/M00 Q1025     RMK 1CU035 3SC050 6AC070 A3029=,
20180114_223000.002,0,RJFF,,,,0,20180114220000,-1,-1,-1,-1,150,-1,13,-1,-1,-1,-1,,9999,0,0,3,FEW 35   SCT 50   BKN 70,1,3,-1,0,1025,RJFF 142230Z 15013KT 9999 FEW035 SCT050 BKN070 03/M00 Q1025     RMK 1CU035 3SC050 6AC070 A3029=,
20180114_230000.002,0,RJFF,,,,0,20180114230000,-1,-1,-1,-1,160,-1,12,-1,-1,-1,-1,,9999,0,0,3,FEW 35   SCT 45   BKN 70,1,4,1,0,1025,RJFF 142300Z 16012KT 9999 FEW035 SCT045 BKN070 04/00 Q1025 RMK     1CU035 3SC045 6AC070 A3029=,
20180114_233000.001,0,RJFF,,,,0,20180114230000,-1,-1,-1,-1,160,-1,11,-1,-1,-1,-1,,9999,0,0,3,FEW 35   SCT 45   BKN 60,1,4,1,1,1026,RJFF 142330Z 16011KT 9999 FEW035 SCT045 BKN060 04/01 Q1026 RMK     1CU035 4SC045 7SC060 A3030=,
20180115_000000.002,0,RJFF,,,,0,20180115000000,-1,-1,-1,-1,160,-1,12,-1,-1,-1,-1,,9999,0,1,3,FEW 35   SCT 45   BKN 60,1,5,1,1,1026,RJFF 150000Z 16012KT 9999 -RA FEW035 SCT045 BKN060 05/01 Q1026     RMK 1CU035 4SC045 7SC060 A3030=,- RA
20180115_003000.001,0,RJFF,,,,0,20180115000000,-1,-1,-1,-1,160,-1,11,-1,-1,-1,-1,,9999,0,0,3,FEW 35   SCT 45   BKN 60,1,6,1,1,1026,RJFF 150030Z 16011KT 9999 FEW035 SCT045 BKN060 06/01 Q1026 RMK     1CU035 4SC045 7SC060 A3030=,
20180115_010000.002,0,RJFF,,,,0,20180115010000,-1,-1,-1,-1,160,-1,13,-1,-1,-1,-1,,9999,0,1,3,FEW 35   SCT 45   BKN 50,1,6,1,1,1026,RJFF 150100Z 16013KT 9999 -RA FEW035 SCT045 BKN050 06/01 Q1026     RMK 1CU035 4SC045 7SC050 A3031=,- RA
20180115_013000.001,0,RJFF,,,,0,20180115010000,-1,-1,-1,-1,160,-1,10,-1,-1,-1,-1,,9999,0,0,2,FEW 35   BKN 45,1,6,1,1,1026,RJFF 150130Z 16010KT 9999 FEW035 BKN045 06/01 Q1026 RMK 1CU035     7SC045 A3032=,
20180115_020000.002,0,RJFF,,,,0,20180115020000,-1,-1,-1,-1,160,-1,10,-1,-1,-1,-1,,9999,0,1,3,FEW 30   SCT 40   BKN 50,1,6,1,2,1026,RJFF 150200Z 16010KT 9999 -RA FEW030 SCT040 BKN050 06/02 Q1026     RMK 1CU030 3SC040 7SC050 A3031=,- RA
20180115_023000.001,0,RJFF,,,,0,20180115020000,-1,-1,-1,-1,160,-1,8,-1,-1,-1,-1,,9999,0,1,3,FEW 30   SCT 35   BKN 45,1,6,1,2,1025,RJFF 150230Z 16008KT 9999 -SHRA FEW030 SCT035 BKN045 06/02     Q1025 RMK 1CU030 4CU035 7SC045 A3029=,- RA SH
20180115_030000.002,0,RJFF,,,,0,20180115030000,-1,-1,-1,-1,160,-1,9,-1,-1,-1,-1,,9999,0,0,3,FEW 30   SCT 35   BKN 45,1,7,1,2,1025,RJFF 150300Z 16009KT 9999 FEW030 SCT035 BKN045 07/02 Q1025 RMK     1CU030 3CU035 7SC045 A3027=,
20180115_033000.001,0,RJFF,,,,0,20180115030000,-1,-1,-1,-1,170,-1,9,-1,-1,-1,-1,,9999,0,0,3,FEW 30   SCT 35   BKN 45,1,8,1,3,1024,RJFF 150330Z 17009KT 9999 FEW030 SCT035 BKN045 08/03 Q1024 RMK     1CU030 3CU035 7SC045 A3025=,
20180115_040000.002,0,RJFF,,,,0,20180115040000,-1,-1,-1,-1,170,-1,7,-1,-1,-1,-1,,9999,0,0,3,FEW 30   BKN 35   BKN 45,1,8,1,3,1024,RJFF 150400Z 17007KT 9999 FEW030 BKN035 BKN045 08/03 Q1024 RMK     1CU030 6CU035 7SC045 A3024=,
20180115_043000.001,0,RJFF,,,,0,20180115040000,-1,-1,-1,-1,170,-1,5,-1,-1,-1,-1,,9999,0,0,3,FEW 30   BKN 35   BKN 45,1,9,1,3,1023,RJFF 150430Z 17005KT 9999 FEW030 BKN035 BKN045 09/03 Q1023 RMK     1CU030 5CU035 7SC045 A3023=,
20180115_050000.002,0,RJFF,,,,0,20180115050000,-1,-1,-1,-1,170,-1,7,-1,-1,-1,-1,,9999,0,0,3,FEW 30   BKN 35   BKN 45,1,8,1,3,1023,RJFF 150500Z 17007KT 9999 FEW030 BKN035 BKN045 08/03 Q1023 RMK     1CU030 5CU035 7SC045 A3022=,
20180115_053000.001,0,RJFF,,,,0,20180115050000,-1,-1,-1,-1,180,-1,5,-1,-1,-1,-1,,9999,0,0,3,FEW 30   BKN 35   BKN 45,1,8,1,3,1023,RJFF 150530Z 18005KT 9999 FEW030 BKN035 BKN045 08/03 Q1023 RMK     1CU030 5CU035 7SC045 A3023=,
20180115_060000.002,0,RJFF,,,,0,20180115060000,-1,-1,-1,-1,190,-1,5,-1,-1,-1,-1,,9999,0,0,3,FEW 20   BKN 35   BKN 45,1,9,1,3,1023,RJFF 150600Z 19005KT 9999 FEW020 BKN035 BKN045 09/03 Q1023 RMK     1CU020 5CU035 7SC045 A3023=,
20180115_063000.001,0,RJFF,,,,0,20180115060000,-1,-1,-1,-1,180,-1,4,-1,-1,150,220,,9999,0,0,3,FEW 20   BKN 35   BKN 45,1,9,1,3,1024,RJFF 150630Z 18004KT 150V220 9999 FEW020 BKN035 BKN045 09/03     Q1024 RMK 1CU020 6CU035 7SC045 A3024=,
20180115_070000.003,0,RJFF,,,,0,20180115070000,-1,-1,-1,-1,180,-1,4,-1,-1,-1,-1,,9999,0,0,3,FEW 20   BKN 30   BKN 45,1,9,1,3,1024,RJFF 150700Z 18004KT 9999 FEW020 BKN030 BKN045 09/03 Q1024 RMK     1CU020 6CU030 7SC045 A3024=,
20180115_073000.001,0,RJFF,,,,0,20180115070000,-1,-1,-1,-1,160,-1,5,-1,-1,-1,-1,,9999,0,0,3,FEW 20   SCT 30   BKN 45,1,9,1,4,1024,RJFF 150730Z 16005KT 9999 FEW020 SCT030 BKN045 09/04 Q1024 RMK     1CU020 4CU030 6SC045 A3025=,
20180115_080000.002,0,RJFF,,,,0,20180115080000,-1,-1,-1,-1,170,-1,5,-1,-1,-1,-1,,9999,0,0,2,FEW 30   SCT 50,1,9,1,4,1024,RJFF 150800Z 17005KT 9999 FEW030 SCT050 09/04 Q1024 RMK 1CU030     3SC050 A3026=,
20180115_083000.001,0,RJFF,,,,0,20180115080000,-1,-1,-1,-1,170,-1,6,-1,-1,-1,-1,,9999,0,0,1,FEW 30,1,7,1,3,1024,RJFF 150830Z 17006KT 9999 FEW030 07/03 Q1024 RMK 1CU030 A3026=,
20180115_090000.002,0,RJFF,,,,0,20180115090000,-1,-1,-1,-1,170,-1,6,-1,-1,-1,-1,,9999,0,0,1,FEW 30,1,7,1,4,1024,RJFF 150900Z 17006KT 9999 FEW030 07/04 Q1024 RMK 1CU030 A3026=,
20180115_093000.001,0,RJFF,,,,0,20180115090000,-1,-1,-1,-1,160,-1,7,-1,-1,-1,-1,,9999,0,0,1,FEW 40,1,6,1,4,1024,RJFF 150930Z 16007KT 9999 FEW040 06/04 Q1024 RMK 1CU040 A3024=,
20180115_100000.002,0,RJFF,,,,0,20180115100000,-1,-1,-1,-1,180,-1,6,-1,-1,150,220,,9999,0,0,1,FEW 40,1,7,1,4,1023,RJFF 151000Z 18006KT 150V220 9999 FEW040 07/04 Q1023 RMK     1CU040 A3023=,
20180115_103000.001,0,RJFF,,,,0,20180115100000,-1,-1,-1,-1,160,-1,10,-1,-1,-1,-1,,9999,0,0,1,FEW 40,1,7,1,4,1024,RJFF 151030Z 16010KT 9999 FEW040 07/04 Q1024 RMK 1CU040 A3024=,
20180115_110000.002,0,RJFF,,,,0,20180115110000,-1,-1,-1,-1,160,-1,5,-1,-1,90,190,,9999,0,0,1,FEW 40,1,6,1,4,1024,RJFF 151100Z 16005KT 090V190 9999 FEW040 06/04 Q1024 RMK     1CU040 A3025=,
20180115_113000.001,0,RJFF,,,,0,20180115110000,-1,-1,-1,-1,999,-1,2,-1,-1,-1,-1,,9999,0,0,1,FEW 40,1,6,1,4,1024,RJFF 151130Z VRB02KT 9999 FEW040 06/04 Q1024 RMK 1CU040 A3025=,
20180115_120000.002,0,RJFF,,,,0,20180115120000,-1,-1,-1,-1,110,-1,4,-1,-1,60,150,,9999,0,0,1,FEW 40,1,5,1,3,1024,RJFF 151200Z 11004KT 060V150 9999 FEW040 05/03 Q1024 RMK     1CU040 A3025=,
20180115_123000.001,0,RJFF,,,,0,20180115120000,-1,-1,-1,-1,190,-1,3,-1,-1,140,230,,9999,0,0,1,FEW 40,1,6,1,4,1024,RJFF 151230Z 19003KT 140V230 9999 FEW040 06/04 Q1024 RMK     1CU040 A3025=,
20180115_130000.002,0,RJFF,,,,0,20180115130000,-1,-1,-1,-1,160,-1,4,-1,-1,-1,-1,,9999,0,0,1,FEW 40,1,5,1,4,1024,RJFF 151300Z 16004KT 9999 FEW040 05/04 Q1024 RMK 1CU040 A3024=,
20180115_133000.001,0,RJFF,,,,0,20180115130000,-1,-1,-1,-1,150,-1,4,-1,-1,-1,-1,,9999,0,0,1,FEW 40,1,5,1,4,1024,RJFF 151330Z 15004KT 9999 FEW040 05/04 Q1024 RMK 1CU040 A3024=,
20180115_140000.002,0,RJFF,,,,1,20180115140000,-1,-1,-1,-1,160,-1,8,-1,-1,-1,-1,,9999,0,0,1,NCD -1,1,5,1,3,1024,RJFF 151400Z AUTO 16008KT 9999 NCD 05/03 Q1024 RMK A3024=,
20180115_143000.001,0,RJFF,,,,1,20180115140000,-1,-1,-1,-1,170,-1,9,-1,-1,-1,-1,,9999,0,0,1,NCD -1,1,5,1,4,1023,RJFF 151430Z AUTO 17009KT 9999 NCD 05/04 Q1023 RMK A3023=,
20180115_150000.002,0,RJFF,,,,1,20180115150000,-1,-1,-1,-1,160,-1,7,-1,-1,-1,-1,,9999,0,0,1,NCD -1,1,5,1,4,1023,RJFF 151500Z AUTO 16007KT 9999 NCD 05/04 Q1023 RMK A3022=,
20180115_153000.001,0,RJFF,,,,1,20180115150000,-1,-1,-1,-1,160,-1,6,-1,-1,-1,-1,,9999,0,0,1,NCD -1,1,5,1,4,1023,RJFF 151530Z AUTO 16006KT 9999 NCD 05/04 Q1023 RMK A3021=,
20180115_160000.002,0,RJFF,,,,1,20180115160000,-1,-1,-1,-1,190,-1,4,-1,-1,-1,-1,,9999,0,0,1,NCD -1,1,5,1,3,1023,RJFF 151600Z AUTO 19004KT 9999 NCD 05/03 Q1023 RMK A3022=,
20180115_163000.001,0,RJFF,,,,1,20180115160000,-1,-1,-1,-1,999,-1,2,-1,-1,-1,-1,,9999,0,0,1,NCD -1,1,5,1,4,1023,RJFF 151630Z AUTO VRB02KT 9999 NCD 05/04 Q1023 RMK A3021=,
20180115_170000.002,0,RJFF,,,,1,20180115170000,-1,-1,-1,-1,140,-1,3,-1,-1,-1,-1,,9999,0,0,1,NCD -1,1,4,1,3,1023,RJFF 151700Z AUTO 14003KT 9999 NCD 04/03 Q1023 RMK A3021=,
20180115_173000.001,0,RJFF,,,,1,20180115170000,-1,-1,-1,-1,160,-1,5,-1,-1,-1,-1,,9999,0,0,1,NCD -1,1,4,1,3,1022,RJFF 151730Z AUTO 16005KT 9999 NCD 04/03 Q1022 RMK A3020=,
20180115_180000.002,0,RJFF,,,,1,20180115180000,-1,-1,-1,-1,170,-1,7,-1,-1,-1,-1,,9999,0,0,1,NCD -1,1,5,1,4,1022,RJFF 151800Z AUTO 17007KT 9999 NCD 05/04 Q1022 RMK A3019=,
20180115_183000.001,0,RJFF,,,,1,20180115180000,-1,-1,-1,-1,170,-1,6,-1,-1,-1,-1,,9999,0,0,1,NCD -1,1,6,1,5,1022,RJFF 151830Z AUTO 17006KT 9999 NCD 06/05 Q1022 RMK A3018=,
20180115_190000.002,0,RJFF,,,,1,20180115190000,-1,-1,-1,-1,160,-1,7,-1,-1,-1,-1,,9999,0,0,1,NCD -1,1,6,1,4,1021,RJFF 151900Z AUTO 16007KT 9999 NCD 06/04 Q1021 RMK A3018=,
20180115_193000.001,0,RJFF,,,,1,20180115190000,-1,-1,-1,-1,170,-1,6,-1,-1,-1,-1,,9999,0,0,1,NSC -1,1,6,1,4,1021,RJFF 151930Z AUTO 17006KT 9999 NSC 06/04 Q1021 RMK A3018=,
20180115_200000.002,0,RJFF,,,,1,20180115200000,-1,-1,-1,-1,180,-1,7,-1,-1,-1,-1,,9999,0,0,1,NSC -1,1,5,1,4,1021,RJFF 152000Z AUTO 18007KT 9999 NSC 05/04 Q1021 RMK A3016=,
20180115_203000.001,0,RJFF,,,,1,20180115200000,-1,-1,-1,-1,170,-1,8,-1,-1,-1,-1,,9999,0,0,1,NSC -1,1,6,1,4,1021,RJFF 152030Z AUTO 17008KT 9999 NSC 06/04 Q1021 RMK A3016=,
20180115_210000.002,0,RJFF,,,,0,20180115210000,-1,-1,-1,-1,150,-1,4,-1,-1,-1,-1,,9999,0,0,1,FEW 40,1,5,1,4,1021,RJFF 152100Z 15004KT 9999 FEW040 05/04 Q1021 RMK 1CU040 A3016=,
20180115_213000.001,0,RJFF,,,,0,20180115210000,-1,-1,-1,-1,160,-1,7,-1,-1,-1,-1,,9999,0,0,1,FEW 40,1,7,1,4,1021,RJFF 152130Z 16007KT 9999 FEW040 07/04 Q1021 RMK 1CU040 A3016=,
20180115_220000.002,0,RJFF,,,,0,20180115220000,-1,-1,-1,-1,160,-1,8,-1,-1,-1,-1,,9999,0,0,1,FEW 40,1,6,1,4,1021,RJFF 152200Z 16008KT 9999 FEW040 06/04 Q1021 RMK 1CU040 A3016=,
20180115_223000.002,0,RJFF,,,,0,20180115220000,-1,-1,-1,-1,170,-1,6,-1,-1,-1,-1,,9999,0,0,1,FEW 40,1,8,1,5,1021,RJFF 152230Z 17006KT 9999 FEW040 08/05 Q1021 RMK 1CU040 A3016=,
20180115_230000.002,0,RJFF,,,,0,20180115230000,-1,-1,-1,-1,160,-1,9,-1,-1,-1,-1,,9999,0,0,1,FEW 40,1,7,1,5,1021,RJFF 152300Z 16009KT 9999 FEW040 07/05 Q1021 RMK 1CU040 A3016=,
20180115_233000.001,0,RJFF,,,,0,20180115230000,-1,-1,-1,-1,150,-1,15,-1,-1,-1,-1,,9999,0,0,1,FEW 35,1,7,1,5,1020,RJFF 152330Z 15015KT 9999 FEW035 07/05 Q1020 RMK 1CU035 A3014=,
20180116_000000.002,0,RJFF,,,,0,20180116000000,-1,-1,-1,-1,160,-1,9,-1,-1,-1,-1,,9999,0,0,1,FEW 35,1,10,1,6,1021,RJFF 160000Z 16009KT 9999 FEW035 10/06 Q1021 RMK 1CU035 A3016=,
20180116_003000.001,0,RJFF,,,,0,20180116000000,-1,-1,-1,-1,170,-1,9,-1,-1,-1,-1,,9999,0,0,2,FEW 35   BKN 110,1,11,1,7,1021,RJFF 160030Z 17009KT 9999 FEW035 BKN110 11/07 Q1021 RMK 1CU035     5AC110 A3015=,
20180116_010000.002,0,RJFF,,,,0,20180116010000,-1,-1,-1,-1,160,-1,13,-1,-1,-1,-1,,9999,0,0,2,FEW 35   SCT 110,1,12,1,6,1020,RJFF 160100Z 16013KT 9999 FEW035 SCT110 12/06 Q1020 RMK 1CU035     3AC110 A3015=,
20180116_013000.001,0,RJFF,,,,0,20180116010000,-1,-1,-1,-1,170,-1,12,-1,-1,-1,-1,,9999,0,0,1,FEW 40,1,15,1,7,1020,RJFF 160130Z 17012KT 9999 FEW040 15/07 Q1020 RMK 1CU040 A3013=,
20180116_020000.002,0,RJFF,,,,0,20180116020000,-1,-1,-1,-1,140,-1,13,-1,-1,-1,-1,,9999,0,0,1,FEW 40,1,15,1,7,1019,RJFF 160200Z 14013KT 9999 FEW040 15/07 Q1019 RMK 2CU040 A3012=,
20180116_023000.001,0,RJFF,,,,0,20180116020000,-1,-1,-1,-1,140,-1,11,-1,-1,-1,-1,,9999,0,0,1,FEW 35,1,16,1,7,1019,RJFF 160230Z 14011KT 9999 FEW035 16/07 Q1019 RMK 1CU035 A3009=,
20180116_030000.002,0,RJFF,,,,0,20180116030000,-1,-1,-1,-1,170,-1,12,-1,-1,-1,-1,,9999,0,0,1,FEW 35,1,17,1,7,1018,RJFF 160300Z 17012KT 9999 FEW035 17/07 Q1018 RMK 1CU035 A3007=,
20180116_033000.001,0,RJFF,,,,0,20180116030000,-1,-1,-1,-1,160,-1,13,-1,-1,-1,-1,,9999,0,0,2,FEW 35   SCT 110,1,17,1,8,1017,RJFF 160330Z 16013KT 9999 FEW035 SCT110 17/08 Q1017 RMK 1CU035     3AC110 A3005=,
20180116_040000.002,0,RJFF,,,,0,20180116040000,-1,-1,-1,-1,150,-1,17,-1,-1,-1,-1,,9999,0,0,1,FEW 35,1,17,1,7,1016,RJFF 160400Z 15017KT 9999 FEW035 17/07 Q1016 RMK 1CU035 A3003=,
20180116_043000.001,0,RJFF,,,,0,20180116040000,-1,-1,-1,-1,140,-1,17,-1,-1,-1,-1,,9999,0,0,2,FEW 35   SCT 100,1,17,1,7,1016,RJFF 160430Z 14017KT 9999 FEW035 SCT100 17/07 Q1016 RMK 1CU035     3AC100 A3000=,
20180116_050000.002,0,RJFF,,,,0,20180116050000,-1,-1,-1,-1,140,-1,11,-1,-1,-1,-1,,9999,0,0,3,FEW 35   SCT 50   BKN 100,1,18,1,8,1015,RJFF 160500Z 14011KT 9999 FEW035 SCT050 BKN100 18/08 Q1015 RMK     1CU035 3SC050 5AC100 A2999=,
20180116_053000.001,0,RJFF,,,,0,20180116050000,-1,-1,-1,-1,160,-1,9,-1,-1,120,210,,9999,0,0,3,FEW 35   SCT 50   BKN 100,1,17,1,7,1015,RJFF 160530Z 16009KT 120V210 9999 FEW035 SCT050 BKN100 17/07     Q1015 RMK 1CU035 3SC050 6AC100 A2997=,
20180116_060000.002,0,RJFF,,,,0,20180116060000,-1,-1,-1,-1,150,-1,9,-1,-1,120,180,,9999,0,0,3,FEW 40   SCT 50   BKN 90,1,17,1,8,1015,RJFF 160600Z 15009KT 120V180 9999 FEW040 SCT050 BKN090 17/08     Q1015 RMK 1CU040 3SC050 6AC090 A2997=,
20180116_063000.001,0,RJFF,,,,0,20180116060000,-1,-1,-1,-1,130,-1,10,-1,-1,90,170,,9999,0,0,3,FEW 40   SCT 50   BKN 80,1,17,1,7,1014,RJFF 160630Z 13010KT 090V170 9999 FEW040 SCT050 BKN080 17/07     Q1014 RMK 1CU040 3SC050 7AC080 A2996=,
20180116_070000.002,0,RJFF,,,,0,20180116070000,-1,-1,-1,-1,130,-1,10,-1,-1,90,150,,9999,0,0,3,FEW 40   SCT 50   BKN 80,1,17,1,8,1014,RJFF 160700Z 13010KT 090V150 9999 FEW040 SCT050 BKN080 17/08     Q1014 RMK 1CU040 3SC050 7AC080 A2995=,
20180116_073000.001,0,RJFF,,,,0,20180116070000,-1,-1,-1,-1,130,-1,8,-1,-1,90,180,,9999,0,0,3,FEW 40   BKN 50   BKN 80,1,17,1,8,1014,RJFF 160730Z 13008KT 090V180 9999 FEW040 BKN050 BKN080 17/08     Q1014 RMK 1CU040 5SC050 7AC080 A2995=,
20180116_080000.002,0,RJFF,,,,0,20180116080000,-1,-1,-1,-1,130,-1,7,-1,-1,90,170,,9999,0,0,3,FEW 40   BKN 50   BKN 100,1,17,1,8,1014,RJFF 160800Z 13007KT 090V170 9999 FEW040 BKN050 BKN100 17/08     Q1014 RMK 1CU040 5SC050 7AC100 A2995=,
20180116_083000.001,0,RJFF,,,,0,20180116080000,-1,-1,-1,-1,130,-1,9,-1,-1,90,160,,9999,0,0,3,FEW 40   SCT 50   BKN 60,1,17,1,8,1014,RJFF 160830Z 13009KT 090V160 9999 FEW040 SCT050 BKN060 17/08     Q1014 RMK 1CU040 3SC050 6SC060 A2995=,
20180116_090000.002,0,RJFF,,,,0,20180116090000,-1,-1,-1,-1,160,-1,7,-1,-1,110,190,,9999,0,1,3,FEW 40   BKN 60   BKN 100,1,17,1,8,1014,RJFF 160900Z 16007KT 110V190 9999 VCSH FEW040 BKN060 BKN100     17/08 Q1014 RMK 1CU040 5SC060 7AC100 A2995=,VC SH
20180116_093000.001,0,RJFF,,,,0,20180116090000,-1,-1,-1,-1,180,-1,13,-1,24,-1,-1,,9999,0,1,3,FEW 40   SCT 60   BKN 100,1,17,1,8,1013,RJFF 160930Z 18013G24KT 9999 -RA FEW040 SCT060 BKN100 17/08     Q1013 RMK 1CU040 4SC060 7AC100 A2994=,- RA
20180116_100000.002,0,RJFF,,,,0,20180116100000,-1,-1,-1,-1,170,-1,14,-1,-1,-1,-1,,9999,0,1,3,FEW 40   SCT 60   BKN 70,1,16,1,8,1013,RJFF 161000Z 17014KT 9999 -RA FEW040 SCT060 BKN070 16/08 Q1013     WS R16 RMK 1CU040 3SC060 5AC070 A2994=,- RA
20180116_103000.001,0,RJFF,,,,0,20180116100000,-1,-1,-1,-1,180,-1,12,-1,-1,-1,-1,,9999,0,0,3,FEW 40   SCT 60   BKN 80,1,16,1,8,1013,RJFF 161030Z 18012KT 9999 FEW040 SCT060 BKN080 16/08 Q1013 RMK     1CU040 3SC060 5AC080 A2992=,
20180116_110000.004,0,RJFF,,,,0,20180116110000,-1,-1,-1,-1,180,-1,10,-1,-1,-1,-1,,9999,0,0,3,FEW 40   SCT 60   BKN 80,1,17,1,8,1013,RJFF 161100Z 18010KT 9999 FEW040 SCT060 BKN080 17/08 Q1013 RMK     1CU040 3SC060 7AC080 A2992=,
20180116_113000.001,0,RJFF,,,,0,20180116110000,-1,-1,-1,-1,180,-1,13,-1,-1,-1,-1,,9999,0,0,3,FEW 40   SCT 60   BKN 90,1,16,1,8,1013,RJFF 161130Z 18013KT 9999 FEW040 SCT060 BKN090 16/08 Q1013 RMK     1CU040 3SC060 7AC090 A2991=,
20180116_120000.002,0,RJFF,,,,0,20180116120000,-1,-1,-1,-1,170,-1,11,-1,-1,-1,-1,,9999,0,1,3,FEW 40   SCT 70   BKN 100,1,15,1,8,1012,RJFF 161200Z 17011KT 9999 -RA FEW040 SCT070 BKN100 15/08 Q1012     WS R16 RMK 1CU040 3AC070 7AC100 A2991=,- RA
20180116_123000.001,0,RJFF,,,,0,20180116120000,-1,-1,-1,-1,170,-1,12,-1,-1,-1,-1,,9999,0,1,3,FEW 40   BKN 70   BKN 100,1,15,1,9,1012,RJFF 161230Z 17012KT 9999 -RA FEW040 BKN070 BKN100 15/09 Q1012     RMK 1CU040 5AC070 7AC100 A2990=,- RA
20180116_130000.002,0,RJFF,,,,0,20180116130000,-1,-1,-1,-1,170,-1,12,-1,-1,-1,-1,,9999,0,1,3,FEW 40   BKN 70   BKN 90,1,14,1,10,1012,RJFF 161300Z 17012KT 9999 -RA FEW040 BKN070 BKN090 14/10 Q1012     RMK 1CU040 5AC070 7AC090 A2990=,- RA
20180116_133000.001,0,RJFF,,,,0,20180116130000,-1,-1,-1,-1,150,-1,15,-1,-1,-1,-1,,9999,0,1,3,FEW 40   BKN 70   BKN 90,1,14,1,10,1011,RJFF 161330Z 15015KT 9999 -RA FEW040 BKN070 BKN090 14/10 Q1011     RMK 1CU040 5AC070 7AC090 A2987=,- RA
20180116_140000.002,0,RJFF,,,,1,20180116140000,-1,-1,-1,-1,160,-1,13,-1,-1,-1,-1,,6000,0,1,3,FEW 32   SCT 41   BKN 70,1,13,1,10,1011,RJFF 161400Z AUTO 16013KT 6000 -RA FEW032 SCT041 BKN070 13/10     Q1011 RMK A2987=,- RA
20180116_143000.001,0,RJFF,,,,1,20180116140000,-1,-1,-1,-1,150,-1,12,-1,-1,-1,-1,,4000,0,2,4,FEW 23   SCT 36   BKN 60   /// -9999 TCU,1,13,1,11,1011,RJFF 161430Z AUTO 15012KT 4000 -RA BR FEW023 SCT036 BKN060     //////TCU 13/11 Q1011 RMK A2986 TCU FM 40KM W TO 30KM NW           MOV UNKNOWN=,- RA; BR
20180116_150000.002,0,RJFF,,,,1,20180116150000,-1,-1,-1,-1,150,-1,16,-1,26,-1,-1,,9000,0,1,4,FEW 13   SCT 42   BKN 50   /// -9999 TCU,1,13,1,11,1011,RJFF 161500Z AUTO 15016G26KT 9000 RA FEW013 SCT042 BKN050     //////TCU 13/11 Q1011 RMK A2985 RI003 TCU 15KM SW MOV NE           AND 20KM NW-N MOV UNKNOWN=,RA
20180116_153000.001,0,RJFF,,,,1,20180116150000,-1,-1,-1,-1,999,-1,1,-1,-1,-1,-1,,9999,0,1,4,FEW 43   SCT 49   BKN 50   /// -9999 TCU,1,13,1,11,1011,RJFF 161530Z AUTO VRB01KT 9999 -RA FEW043 SCT049 BKN050     //////TCU 13/11 Q1011 RMK A2987 TCU OHD MOV E=,- RA
20180116_160000.002,0,RJFF,,,,1,20180116160000,-1,-1,-1,-1,120,-1,5,-1,-1,-1,-1,,9999,0,1,4,FEW 34   BKN 37   OVC 90   /// -9999 TCU,1,13,1,11,1011,RJFF 161600Z AUTO 12005KT 9999 -RA FEW034 BKN037 OVC090     //////TCU 13/11 Q1011 RMK A2987 TCU 20KM S MOV NE=,- RA
20180116_163000.001,0,RJFF,,,,1,20180116160000,-1,-1,-1,-1,110,-1,4,-1,-1,-1,-1,,9999,0,1,1,OVC 31,1,13,1,11,1011,RJFF 161630Z AUTO 11004KT 9999 -RA OVC031 13/11 Q1011 RMK     A2986=,- RA
20180116_170000.002,0,RJFF,,,,1,20180116170000,-1,-1,-1,-1,999,-1,1,-1,-1,-1,-1,,9999,0,1,1,OVC 29,1,12,1,11,1011,RJFF 161700Z AUTO VRB01KT 9999 -RA OVC029 12/11 Q1011 RMK     A2987=,- RA
20180116_173000.001,0,RJFF,,,,1,20180116170000,-1,-1,-1,-1,160,-1,11,-1,-1,-1,-1,,9999,0,1,1,OVC 26,1,13,1,11,1011,RJFF 161730Z AUTO 16011KT 9999 -RA OVC026 13/11 Q1011 RMK     A2986=,- RA
20180116_180000.002,0,RJFF,,,,1,20180116180000,-1,-1,-1,-1,160,-1,12,-1,-1,-1,-1,,6000,0,1,1,OVC 26,1,13,1,11,1011,RJFF 161800Z AUTO 16012KT 6000 -RA OVC026 13/11 Q1011 RMK     A2986=,- RA
20180116_183000.001,0,RJFF,,,,1,20180116180000,-1,-1,-1,-1,150,-1,10,-1,-1,-1,-1,,9999,0,1,3,FEW 24   SCT 70   BKN 80,1,13,1,11,1010,RJFF 161830Z AUTO 15010KT 9999 -RA FEW024 SCT070 BKN080 13/11     Q1010 RMK A2985=,- RA
20180116_190000.002,0,RJFF,,,,1,20180116190000,-1,-1,-1,-1,150,-1,11,-1,-1,-1,-1,,9999,0,1,3,FEW 19   SCT 70   OVC 80,1,13,1,12,1010,RJFF 161900Z AUTO 15011KT 9999 -RA FEW019 SCT070 OVC080 13/12     Q1010 RMK A2984=,- RA
20180116_193000.001,0,RJFF,,,,1,20180116190000,-1,-1,-1,-1,150,-1,12,-1,-1,-1,-1,,9999,0,1,3,FEW 49   BKN 70   OVC 90,1,13,1,12,1010,RJFF 161930Z AUTO 15012KT 9999 -RA FEW049 BKN070 OVC090 13/12     Q1010 RMK A2984=,- RA
20180116_200000.002,0,RJFF,,,,1,20180116200000,-1,-1,-1,-1,180,-1,6,-1,-1,-1,-1,,5000,0,2,3,FEW 20   SCT 48   BKN 60,1,13,1,12,1010,RJFF 162000Z AUTO 18006KT 5000 -RA BR FEW020 SCT048 BKN060     13/12 Q1010 RMK A2985=,- RA; BR
20180116_203000.001,0,RJFF,,,,1,20180116200000,-1,-1,-1,-1,160,-1,4,-1,-1,-1,-1,,4300,0,2,3,FEW 18   SCT 30   BKN 38,1,13,1,12,1010,RJFF 162030Z AUTO 16004KT 4300 -RA BR FEW018 SCT030 BKN038     13/12 Q1010 RMK A2984=,- RA; BR
20180116_210000.002,0,RJFF,,,,0,20180116210000,-1,-1,-1,-1,160,-1,3,-1,-1,-1,-1,,9999,0,1,3,FEW 15   SCT 25   BKN 30,1,12,1,12,1010,RJFF 162100Z 16003KT 9999 -SHRA FEW015 SCT025 BKN030 12/12     Q1010 RMK 1CU015 3CU025 5CU030 A2985=,- RA SH
20180116_213000.001,0,RJFF,,,,0,20180116210000,-1,-1,-1,-1,150,-1,5,-1,-1,-1,-1,,9999,0,1,3,FEW 15   SCT 35   BKN 100,1,13,1,12,1010,RJFF 162130Z 15005KT 9999 -SHRA FEW015 SCT035 BKN100 13/12     Q1010 RMK 1CU015 4CU035 7AC100 A2983=,- RA SH
20180116_220000.002,0,RJFF,,,,0,20180116220000,-1,-1,-1,-1,170,-1,5,-1,-1,-1,-1,,9999,0,0,2,FEW 10   BKN 100,1,13,1,12,1010,RJFF 162200Z 17005KT 9999 FEW010 BKN100 13/12 Q1010 RMK 1CU010     7AC100 A2984=,
20180116_223000.002,0,RJFF,,,,0,20180116220000,-1,-1,-1,-1,170,-1,6,-1,-1,-1,-1,,9999,0,0,2,FEW 3   BKN 80,1,13,1,12,1010,RJFF 162230Z 17006KT 9999 FEW003 BKN080 13/12 Q1010 RMK 1ST003     7AC080 A2985=,
20180116_230000.002,0,RJFF,,,,0,20180116230000,-1,-1,-1,-1,230,-1,3,-1,-1,190,260,,9999,0,0,3,FEW 8   SCT 40   BKN 80,1,14,1,12,1011,RJFF 162300Z 23003KT 190V260 9999 FEW008 SCT040 BKN080 14/12     Q1011 RMK 1ST008 4SC040 7AC080 A2986=,
20180116_233000.001,0,RJFF,,,,0,20180116230000,-1,-1,-1,-1,210,-1,3,-1,-1,170,240,,9999,0,1,3,FEW 8   SCT 40   BKN 80,1,14,1,12,1011,RJFF 162330Z 21003KT 170V240 9999 -RA FEW008 SCT040 BKN080     14/12 Q1011 RMK 1ST008 4SC040 7AC080 A2986=,- RA
20180117_000000.002,0,RJFF,,,,0,20180117000000,-1,-1,-1,-1,999,-1,2,-1,-1,-1,-1,,9999,0,0,2,FEW 8   BKN 70,1,13,1,12,1011,RJFF 170000Z VRB02KT 9999 FEW008 BKN070 13/12 Q1011 RMK 1ST008     7AC070 A2987=,
20180117_003000.001,0,RJFF,,,,0,20180117000000,-1,-1,-1,-1,320,-1,4,-1,-1,-1,-1,,9999,0,0,3,FEW 8   SCT 45   BKN 80,1,14,1,12,1011,RJFF 170030Z 32004KT 9999 FEW008 SCT045 BKN080 14/12 Q1011 RMK     1ST008 4SC045 7AC080 A2988=,
20180117_010000.002,0,RJFF,,,,0,20180117010000,-1,-1,-1,-1,330,-1,5,-1,-1,-1,-1,,9999,0,0,3,FEW 4   SCT 40   BKN 60,1,13,1,12,1012,RJFF 170100Z 33005KT 9999 FEW004 SCT040 BKN060 13/12 Q1012 RMK     1ST004 4CU040 5SC060 A2989=,
20180117_013000.001,0,RJFF,,,,0,20180117010000,-1,-1,-1,-1,999,-1,2,-1,-1,-1,-1,,9999,0,1,3,FEW 3   SCT 40   BKN 60,1,13,1,12,1012,RJFF 170130Z VRB02KT 9999 -SHRA FEW003 SCT040 BKN060 13/12     Q1012 RMK 1ST003 4CU040 7SC060 A2989=,- RA SH
20180117_020000.004,0,RJFF,,,,0,20180117020000,-1,-1,-1,-1,20,-1,4,-1,-1,340,100,,9999,0,1,3,FEW 3   SCT 35   BKN 50,1,14,1,12,1012,RJFF 170200Z 02004KT 340V100 9999 -SHRA FEW003 SCT035 BKN050     14/12 Q1012 RMK 1ST003 3CU035 5SC050 A2988=,- RA SH
20180117_023000.001,0,RJFF,,,,0,20180117020000,-1,-1,-1,-1,999,-1,2,-1,-1,-1,-1,,9000,0,1,3,FEW 3   SCT 8   BKN 15,1,14,1,12,1011,RJFF 170230Z VRB02KT 9000 VCSH FEW003 SCT008 BKN015 14/12     Q1011 RMK 1ST003 3ST008 7CU015 A2988=,VC SH
20180117_030000.002,0,RJFF,,,,0,20180117030000,-1,-1,-1,-1,290,-1,8,-1,-1,260,320,,3000,1,2,3,FEW 3   BKN 8   BKN 10,1,13,1,12,1011,RJFF 170300Z 29008KT 260V320 3000 R16/2000N +SHRA BR FEW003     BKN008 BKN010 13/12 Q1011 RMK 1ST003 5ST008 7ST010 A2987=,+ RA SH; BR
20180117_033000.001,0,RJFF,,,,0,20180117030000,-1,-1,-1,-1,340,-1,12,-1,-1,-1,-1,,7000,0,1,3,FEW 5   SCT 7   BKN 15,1,13,1,12,1011,RJFF 170330Z 34012KT 7000 -SHRA FEW005 SCT007 BKN015 13/12     Q1011 RMK 1ST005 3ST007 7CU015 A2988=,- RA SH
20180117_040000.003,0,RJFF,,,,0,20180117040000,-1,-1,-1,-1,340,-1,13,-1,-1,-1,-1,,7000,0,1,3,FEW 6   SCT 10   BKN 15,1,13,1,11,1012,RJFF 170400Z 34013KT 7000 -SHRA FEW006 SCT010 BKN015 13/11     Q1012 RMK 1ST006 3ST010 5CU015 A2989=,- RA SH
20180117_043000.001,0,RJFF,,,,0,20180117040000,-1,-1,-1,-1,330,-1,13,-1,-1,-1,-1,,8000,0,1,3,FEW 6   SCT 10   BKN 15,1,12,1,10,1013,RJFF 170430Z 33013KT 8000 -SHRA FEW006 SCT010 BKN015 12/10     Q1013 RMK 1ST006 3ST010 6CU015 A2992=,- RA SH
20180117_050000.003,0,RJFF,,,,0,20180117050000,-1,-1,-1,-1,340,-1,11,-1,-1,-1,-1,,6000,0,1,3,FEW 6   SCT 10   BKN 15,1,12,1,11,1013,RJFF 170500Z 34011KT 6000 -SHRA FEW006 SCT010 BKN015 12/11     Q1013 RMK 1ST006 3ST010 5CU015 A2993=,- RA SH
20180117_053000.001,0,RJFF,,,,0,20180117050000,-1,-1,-1,-1,340,-1,11,-1,-1,-1,-1,,8000,0,1,3,FEW 5   SCT 15   BKN 20,1,12,1,10,1013,RJFF 170530Z 34011KT 8000 -SHRA FEW005 SCT015 BKN020 12/10     Q1013 RMK 1ST005 4CU015 6CU020 A2994=,- RA SH
20180117_060000.002,0,RJFF,,,,0,20180117060000,-1,-1,-1,-1,340,-1,8,-1,-1,-1,-1,,6000,0,1,3,FEW 5   SCT 10   BKN 15,1,12,1,10,1014,RJFF 170600Z 34008KT 6000 -SHRA FEW005 SCT010 BKN015 12/10     Q1014 RMK 1ST005 4ST010 6CU015 A2995=,- RA SH
20180117_063000.001,0,RJFF,,,,0,20180117060000,-1,-1,-1,-1,340,-1,8,-1,-1,-1,-1,,4500,0,1,3,FEW 7   SCT 10   BKN 15,1,11,1,10,1014,RJFF 170630Z 34008KT 4500 -SHRA FEW007 SCT010 BKN015 11/10     Q1014 RMK 1ST007 3ST010 5CU015 A2996=,- RA SH
20180117_070000.002,0,RJFF,,,,0,20180117070000,-1,-1,-1,-1,360,-1,6,-1,-1,-1,-1,,9999,0,1,3,FEW 3   SCT 15   BKN 20,1,12,1,10,1014,RJFF 170700Z 36006KT 9999 -SHRA FEW003 SCT015 BKN020 12/10     Q1014 RMK 1ST003 3CU015 6CU020 A2997=,- RA SH
20180117_073000.001,0,RJFF,,,,0,20180117070000,-1,-1,-1,-1,350,-1,7,-1,-1,320,30,,9999,0,1,3,FEW 3   SCT 15   BKN 20,1,12,1,9,1015,RJFF 170730Z 35007KT 320V030 9999 -SHRA FEW003 SCT015 BKN020     12/09 Q1015 RMK 1ST003 3CU015 6CU020 A2999=,- RA SH
20180117_080000.002,0,RJFF,,,,0,20180117080000,-1,-1,-1,-1,350,-1,8,-1,-1,310,20,,9999,0,0,3,FEW 5   SCT 15   BKN 30,1,12,1,9,1016,RJFF 170800Z 35008KT 310V020 9999 FEW005 SCT015 BKN030 12/09     Q1016 RMK 1ST005 3CU015 6CU030 A3000=,
20180117_083000.001,0,RJFF,,,,0,20180117080000,-1,-1,-1,-1,350,-1,5,-1,-1,310,30,,9999,0,0,3,FEW 5   SCT 15   BKN 30,1,12,1,9,1016,RJFF 170830Z 35005KT 310V030 9999 FEW005 SCT015 BKN030 12/09     Q1016 RMK 1ST005 3CU015 6CU030 A3001=,
20180117_090000.003,0,RJFF,,,,0,20180117090000,-1,-1,-1,-1,350,-1,9,-1,-1,-1,-1,,9999,0,1,3,FEW 5   SCT 15   BKN 30,1,12,1,9,1016,RJFF 170900Z 35009KT 9999 -SHRA FEW005 SCT015 BKN030 12/09     Q1016 RMK 1ST005 3CU015 6CU030 A3003=,- RA SH
20180117_093000.001,0,RJFF,,,,0,20180117090000,-1,-1,-1,-1,10,-1,6,-1,-1,330,90,,9999,0,0,3,FEW 5   SCT 15   BKN 30,1,11,1,8,1017,RJFF 170930Z 01006KT 330V090 9999 FEW005 SCT015 BKN030 11/08     Q1017 RMK 1ST005 3CU015 6CU030 A3003=,
20180117_100000.002,0,RJFF,,,,0,20180117100000,-1,-1,-1,-1,20,-1,4,-1,-1,320,70,,9999,0,0,3,FEW 5   SCT 15   BKN 40,1,11,1,9,1017,RJFF 171000Z 02004KT 320V070 9999 FEW005 SCT015 BKN040 11/09     Q1017 RMK 1ST005 3CU015 5CU040 A3004=,
20180117_103000.001,0,RJFF,,,,0,20180117100000,-1,-1,-1,-1,40,-1,3,-1,-1,340,150,,9999,0,0,3,FEW 15   SCT 30   BKN 40,1,11,1,8,1017,RJFF 171030Z 04003KT 340V150 9999 FEW015 SCT030 BKN040 11/08     Q1017 RMK 1CU015 3CU030 5CU040 A3005=,
20180117_110000.003,0,RJFF,,,,0,20180117110000,-1,-1,-1,-1,10,-1,3,-1,-1,330,50,,9999,0,0,3,FEW 15   SCT 40   BKN 50,1,11,1,8,1018,RJFF 171100Z 01003KT 330V050 9999 FEW015 SCT040 BKN050 11/08     Q1018 RMK 1CU015 3CU040 6SC050 A3006=,
20180117_113000.001,0,RJFF,,,,0,20180117110000,-1,-1,-1,-1,320,-1,3,-1,-1,280,20,,9999,0,0,3,FEW 15   SCT 40   BKN 50,1,11,1,8,1018,RJFF 171130Z 32003KT 280V020 9999 FEW015 SCT040 BKN050 11/08     Q1018 RMK 1CU015 3CU040 6SC050 A3008=,
20180117_120000.003,0,RJFF,,,,0,20180117120000,-1,-1,-1,-1,20,-1,3,-1,-1,330,120,,9999,0,0,2,FEW 15   SCT 50,1,10,1,8,1019,RJFF 171200Z 02003KT 330V120 9999 FEW015 SCT050 10/08 Q1019     RMK 1CU015 3SC050 A3009=,
20180117_123000.001,0,RJFF,,,,0,20180117120000,-1,-1,-1,-1,80,-1,3,-1,-1,20,120,,9999,0,0,2,FEW 15   SCT 50,1,9,1,8,1019,RJFF 171230Z 08003KT 020V120 9999 FEW015 SCT050 09/08 Q1019     RMK 1CU015 3SC050 A3010=,
20180117_130000.002,0,RJFF,,,,0,20180117130000,-1,-1,-1,-1,90,-1,4,-1,-1,50,130,,9999,0,0,2,FEW 20   BKN 30,1,9,1,8,1019,RJFF 171300Z 09004KT 050V130 9999 FEW020 BKN030 09/08 Q1019     RMK 1CU020 5CU030 A3009=,
20180117_133000.001,0,RJFF,,,,0,20180117130000,-1,-1,-1,-1,999,-1,2,-1,-1,-1,-1,,9999,0,0,2,FEW 20   BKN 30,1,8,1,7,1019,RJFF 171330Z VRB02KT 9999 FEW020 BKN030 08/07 Q1019 RMK 1CU020     5CU030 A3010=,
20180117_140000.002,0,RJFF,,,,1,20180117140000,-1,-1,-1,-1,999,-1,1,-1,-1,-1,-1,,9999,0,0,2,SCT 31   OVC 34,1,9,1,8,1019,RJFF 171400Z AUTO VRB01KT 9999 SCT031 OVC034 09/08 Q1019 RMK     A3011=,
20180117_143000.001,0,RJFF,,,,1,20180117140000,-1,-1,-1,-1,90,-1,3,-1,-1,-1,-1,,9999,0,0,2,BKN 27   OVC 38,1,9,1,8,1019,RJFF 171430Z AUTO 09003KT 9999 BKN027 OVC038 09/08 Q1019 RMK     A3010=,
20180117_150000.002,0,RJFF,,,,1,20180117150000,-1,-1,-1,-1,130,-1,2,-1,-1,-1,-1,,9999,0,0,2,FEW 29   BKN 41,1,8,1,7,1018,RJFF 171500Z AUTO 13002KT 9999 FEW029 BKN041 08/07 Q1018 RMK     A3008=,
20180117_153000.001,0,RJFF,,,,1,20180117150000,-1,-1,-1,-1,999,-1,1,-1,-1,-1,-1,,9999,0,0,1,NCD -1,1,8,1,7,1018,RJFF 171530Z AUTO VRB01KT 9999 NCD 08/07 Q1018 RMK A3008=,
20180117_160000.002,0,RJFF,,,,1,20180117160000,-1,-1,-1,-1,999,-1,2,-1,-1,-1,-1,,9999,0,0,1,NCD -1,1,7,1,7,1018,RJFF 171600Z AUTO VRB02KT 9999 NCD 07/07 Q1018 RMK A3008=,
20180117_163000.001,0,RJFF,,,,1,20180117160000,-1,-1,-1,-1,100,-1,4,-1,-1,50,130,,9999,0,0,1,NCD -1,1,8,1,7,1018,RJFF 171630Z AUTO 10004KT 050V130 9999 NCD 08/07 Q1018 RMK     A3006=,
20180117_170000.002,0,RJFF,,,,1,20180117170000,-1,-1,-1,-1,120,-1,3,-1,-1,90,180,,9999,0,0,1,NCD -1,1,7,1,5,1018,RJFF 171700Z AUTO 12003KT 090V180 9999 NCD 07/05 Q1018 RMK     A3006=,
20180117_173000.001,0,RJFF,,,,1,20180117170000,-1,-1,-1,-1,999,-1,2,-1,-1,-1,-1,,9999,0,0,1,NCD -1,1,6,1,5,1018,RJFF 171730Z AUTO VRB02KT 9999 NCD 06/05 Q1018 RMK A3006=,
20180117_180000.002,0,RJFF,,,,1,20180117180000,-1,-1,-1,-1,999,-1,1,-1,-1,-1,-1,,9999,0,0,1,NCD -1,1,7,1,6,1018,RJFF 171800Z AUTO VRB01KT 9999 NCD 07/06 Q1018 RMK A3008=,
20180117_183000.001,0,RJFF,,,,1,20180117180000,-1,-1,-1,-1,130,-1,3,-1,-1,-1,-1,,9999,0,0,1,NCD -1,1,6,1,5,1018,RJFF 171830Z AUTO 13003KT 9999 NCD 06/05 Q1018 RMK A3008=,
20180117_190000.003,0,RJFF,,,,1,20180117190000,-1,-1,-1,-1,999,-1,2,-1,-1,-1,-1,,9999,0,0,1,NCD -1,1,6,1,5,1018,RJFF 171900Z AUTO VRB02KT 9999 NCD 06/05 Q1018 RMK A3008=,
20180117_193000.001,0,RJFF,,,,1,20180117190000,-1,-1,-1,-1,999,-1,2,-1,-1,-1,-1,,9999,0,0,1,NCD -1,1,5,1,4,1019,RJFF 171930Z AUTO VRB02KT 9999 NCD 05/04 Q1019 RMK A3009=,
20180117_200000.002,0,RJFF,,,,1,20180117200000,-1,-1,-1,-1,170,-1,3,-1,-1,150,210,,9999,0,0,1,BKN 37,1,7,1,6,1019,RJFF 172000Z AUTO 17003KT 150V210 9999 BKN037 07/06 Q1019 RMK     A3010=,
20180117_203000.001,0,RJFF,,,,1,20180117200000,-1,-1,-1,-1,130,-1,4,-1,-1,-1,-1,,9999,0,0,2,FEW 35   OVC 38,1,7,1,6,1019,RJFF 172030Z AUTO 13004KT 9999 FEW035 OVC038 07/06 Q1019 RMK     A3011=,
20180117_210000.002,0,RJFF,,,,0,20180117210000,-1,-1,-1,-1,999,-1,1,-1,-1,-1,-1,,9999,0,1,3,FEW 5   SCT 30   BKN 45,1,8,1,6,1019,RJFF 172100Z VRB01KT 9999 -SHRA FEW005 SCT030 BKN045 08/06     Q1019 RMK 1ST005 3CU030 6CU045 A3011=,- RA SH
20180117_213000.001,0,RJFF,,,,0,20180117210000,-1,-1,-1,-1,160,-1,3,-1,-1,-1,-1,,9999,0,0,3,FEW 5   SCT 30   BKN 45,1,8,1,6,1019,RJFF 172130Z 16003KT 9999 FEW005 SCT030 BKN045 08/06 Q1019 RMK     1ST005 3CU030 6CU045 A3011=,
20180117_220000.003,0,RJFF,,,,0,20180117220000,-1,-1,-1,-1,180,-1,5,-1,-1,-1,-1,,9999,0,0,3,FEW 5   SCT 30   BKN 45,1,7,1,6,1020,RJFF 172200Z 18005KT 9999 FEW005 SCT030 BKN045 07/06 Q1020 RMK     1ST005 3CU030 6CU045 A3012=,
20180117_223000.002,0,RJFF,,,,0,20180117220000,-1,-1,-1,-1,170,-1,7,-1,-1,-1,-1,,9999,0,0,3,FEW 2   SCT 30   BKN 40,1,8,1,6,1020,RJFF 172230Z 17007KT 9999 FEW002 SCT030 BKN040 08/06 Q1020 RMK     1ST002 3CU030 7CU040 A3012=,
20180117_230000.002,0,RJFF,,,,0,20180117230000,-1,-1,-1,-1,160,-1,6,-1,-1,-1,-1,,9999,0,0,3,FEW 2   SCT 30   BKN 40,1,8,1,6,1019,RJFF 172300Z 16006KT 9999 FEW002 SCT030 BKN040 08/06 Q1019 RMK     1ST002 3CU030 7CU040 A3011=,
20180117_233000.001,0,RJFF,,,,0,20180117230000,-1,-1,-1,-1,170,-1,4,-1,-1,-1,-1,,9999,0,1,3,FEW 2   SCT 30   BKN 40,1,8,1,7,1020,RJFF 172330Z 17004KT 9999 -SHRA FEW002 SCT030 BKN040 08/07     Q1020 RMK 1ST002 3CU030 7CU040 A3014=,- RA SH
20180118_000000.002,0,RJFF,,,,0,20180118000000,-1,-1,-1,-1,170,-1,5,-1,-1,-1,-1,,9999,0,1,3,FEW 2   SCT 30   BKN 40,1,8,1,7,1021,RJFF 180000Z 17005KT 9999 -SHRA FEW002 SCT030 BKN040 08/07     Q1021 RMK 1ST002 3CU030 7CU040 A3016=,- RA SH
20180118_003000.001,0,RJFF,,,,0,20180118000000,-1,-1,-1,-1,170,-1,5,-1,-1,-1,-1,,9999,0,0,3,FEW 2   SCT 25   BKN 40,1,9,1,7,1021,RJFF 180030Z 17005KT 9999 FEW002 SCT025 BKN040 09/07 Q1021 RMK     1ST002 3CU025 7CU040 A3015=,
20180118_010000.002,0,RJFF,,,,0,20180118010000,-1,-1,-1,-1,170,-1,5,-1,-1,150,250,,9999,0,0,3,FEW 2   SCT 30   BKN 40,1,9,1,7,1021,RJFF 180100Z 17005KT 150V250 9999 FEW002 SCT030 BKN040 09/07     Q1021 RMK 1ST002 3CU030 7CU040 A3016=,
20180118_013000.001,0,RJFF,,,,0,20180118010000,-1,-1,-1,-1,170,-1,3,-1,-1,-1,-1,,9999,0,0,3,FEW 3   SCT 25   BKN 35,1,10,1,7,1021,RJFF 180130Z 17003KT 9999 FEW003 SCT025 BKN035 10/07 Q1021 RMK     1ST003 4CU025 6CU035 A3016=,
20180118_020000.002,0,RJFF,,,,0,20180118020000,-1,-1,-1,-1,150,-1,4,-1,-1,-1,-1,,9999,0,0,3,FEW 15   SCT 25   BKN 35,1,10,1,7,1021,RJFF 180200Z 15004KT 9999 FEW015 SCT025 BKN035 10/07 Q1021 RMK     1CU015 4CU025 7CU035 A3017=,
20180118_023000.001,0,RJFF,,,,0,20180118020000,-1,-1,-1,-1,280,-1,6,-1,-1,-1,-1,,9999,0,0,3,FEW 20   SCT 25   BKN 35,1,11,1,6,1021,RJFF 180230Z 28006KT 9999 FEW020 SCT025 BKN035 11/06 Q1021 RMK     1CU020 4CU025 7CU035 A3018=,
20180118_030000.003,0,RJFF,,,,0,20180118030000,-1,-1,-1,-1,290,-1,6,-1,-1,250,320,,9999,0,0,3,FEW 20   SCT 25   BKN 35,1,11,1,6,1021,RJFF 180300Z 29006KT 250V320 9999 FEW020 SCT025 BKN035 11/06     Q1021 RMK 1CU020 4CU025 7CU035 A3017=,
20180118_033000.001,0,RJFF,,,,0,20180118030000,-1,-1,-1,-1,290,-1,5,-1,-1,250,330,,9999,0,0,3,FEW 20   SCT 25   BKN 40,1,11,1,6,1021,RJFF 180330Z 29005KT 250V330 9999 FEW020 SCT025 BKN040 11/06     Q1021 RMK 1CU020 3CU025 7CU040 A3015=,
20180118_040000.002,0,RJFF,,,,0,20180118040000,-1,-1,-1,-1,280,-1,8,-1,-1,240,320,,9999,0,0,3,FEW 20   SCT 30   BKN 40,1,11,1,5,1020,RJFF 180400Z 28008KT 240V320 9999 FEW020 SCT030 BKN040 11/05     Q1020 RMK 1CU020 4CU030 7CU040 A3014=,
20180118_043000.001,0,RJFF,,,,0,20180118040000,-1,-1,-1,-1,290,-1,9,-1,-1,-1,-1,,9999,0,0,3,FEW 20   SCT 30   BKN 40,1,12,1,5,1020,RJFF 180430Z 29009KT 9999 FEW020 SCT030 BKN040 12/05 Q1020 RMK     1CU020 3CU030 5CU040 A3013=,
20180118_050000.002,0,RJFF,,,,0,20180118050000,-1,-1,-1,-1,300,-1,6,-1,-1,260,340,,9999,0,0,3,FEW 20   SCT 30   BKN 40,1,12,1,5,1020,RJFF 180500Z 30006KT 260V340 9999 FEW020 SCT030 BKN040 12/05     Q1020 RMK 1CU020 3CU030 5CU040 A3012=,
20180118_053000.001,0,RJFF,,,,0,20180118050000,-1,-1,-1,-1,300,-1,9,-1,-1,-1,-1,,9999,0,0,2,FEW 30   BKN 40,1,12,1,6,1020,RJFF 180530Z 30009KT 9999 FEW030 BKN040 12/06 Q1020 RMK 1CU030     6CU040 A3013=,
20180118_060000.002,0,RJFF,,,,0,20180118060000,-1,-1,-1,-1,300,-1,7,-1,-1,260,340,,9999,0,0,2,FEW 30   BKN 40,1,12,1,4,1020,RJFF 180600Z 30007KT 260V340 9999 FEW030 BKN040 12/04 Q1020     RMK 1CU030 7CU040 A3013=,
20180118_063000.001,0,RJFF,,,,0,20180118060000,-1,-1,-1,-1,280,-1,7,-1,-1,-1,-1,,9999,0,0,2,FEW 30   BKN 40,1,11,1,4,1020,RJFF 180630Z 28007KT 9999 FEW030 BKN040 11/04 Q1020 RMK 1CU030     7CU040 A3013=,
20180118_070000.002,0,RJFF,,,,0,20180118070000,-1,-1,-1,-1,310,-1,7,-1,-1,-1,-1,,9999,0,0,3,FEW 25   SCT 35   BKN 40,1,11,1,4,1020,RJFF 180700Z 31007KT 9999 FEW025 SCT035 BKN040 11/04 Q1020 RMK     1CU025 3CU035 7CU040 A3013=,
20180118_073000.001,0,RJFF,,,,0,20180118070000,-1,-1,-1,-1,300,-1,6,-1,-1,-1,-1,,9999,0,0,3,FEW 25   SCT 35   BKN 40,1,11,1,4,1020,RJFF 180730Z 30006KT 9999 FEW025 SCT035 BKN040 11/04 Q1020 RMK     1CU025 4CU035 7CU040 A3014=,
20180118_080000.002,0,RJFF,,,,0,20180118080000,-1,-1,-1,-1,300,-1,4,-1,-1,260,330,,9999,0,0,3,FEW 30   SCT 35   BKN 40,1,11,1,4,1020,RJFF 180800Z 30004KT 260V330 9999 FEW030 SCT035 BKN040 11/04     Q1020 RMK 1CU030 3CU035 6CU040 A3013=,
20180118_083000.001,0,RJFF,,,,0,20180118080000,-1,-1,-1,-1,320,-1,4,-1,-1,290,30,,9999,0,0,3,FEW 30   SCT 35   BKN 40,1,11,1,4,1020,RJFF 180830Z 32004KT 290V030 9999 FEW030 SCT035 BKN040 11/04     Q1020 RMK 1CU030 3CU035 6CU040 A3015=,
20180118_090000.002,0,RJFF,,,,0,20180118090000,-1,-1,-1,-1,280,-1,4,-1,-1,230,320,,9999,0,0,3,FEW 30   SCT 35   BKN 40,1,11,1,3,1021,RJFF 180900Z 28004KT 230V320 9999 FEW030 SCT035 BKN040 11/03     Q1021 RMK 1CU030 4CU035 7CU040 A3015=,
20180118_093000.001,0,RJFF,,,,0,20180118090000,-1,-1,-1,-1,250,-1,5,-1,-1,200,280,,9999,0,0,3,FEW 30   SCT 35   BKN 40,1,11,1,3,1021,RJFF 180930Z 25005KT 200V280 9999 FEW030 SCT035 BKN040 11/03     Q1021 RMK 1CU030 3CU035 6CU040 A3015=,
20180118_100000.002,0,RJFF,,,,0,20180118100000,-1,-1,-1,-1,270,-1,3,-1,-1,220,340,,9999,0,0,3,FEW 30   SCT 35   BKN 40,1,11,1,3,1021,RJFF 181000Z 27003KT 220V340 9999 FEW030 SCT035 BKN040 11/03     Q1021 RMK 1CU030 3CU035 6CU040 A3016=,
20180118_103000.001,0,RJFF,,,,0,20180118100000,-1,-1,-1,-1,310,-1,3,-1,-1,-1,-1,,9999,0,0,3,FEW 30   SCT 35   BKN 40,1,11,1,3,1021,RJFF 181030Z 31003KT 9999 FEW030 SCT035 BKN040 11/03 Q1021 RMK     1CU030 3CU035 6CU040 A3016=,
20180118_110000.002,0,RJFF,,,,0,20180118110000,-1,-1,-1,-1,90,-1,3,-1,-1,350,140,,9999,0,0,3,FEW 30   SCT 35   BKN 40,1,10,1,4,1021,RJFF 181100Z 09003KT 350V140 9999 FEW030 SCT035 BKN040 10/04     Q1021 RMK 1CU030 3CU035 7CU040 A3017=,
20180118_113000.001,0,RJFF,,,,0,20180118110000,-1,-1,-1,-1,110,-1,4,-1,-1,70,150,,9999,0,0,3,FEW 30   SCT 35   BKN 40,1,10,1,5,1021,RJFF 181130Z 11004KT 070V150 9999 FEW030 SCT035 BKN040 10/05     Q1021 RMK 1CU030 3CU035 7CU040 A3018=,
20180118_120000.002,0,RJFF,,,,0,20180118120000,-1,-1,-1,-1,120,-1,3,-1,-1,70,170,,9999,0,0,2,FEW 30   BKN 40,1,9,1,5,1022,RJFF 181200Z 12003KT 070V170 9999 FEW030 BKN040 09/05 Q1022     RMK 1CU030 7CU040 A3018=,
20180118_123000.001,0,RJFF,,,,0,20180118120000,-1,-1,-1,-1,120,-1,4,-1,-1,90,150,,9999,0,0,2,FEW 30   BKN 35,1,9,1,5,1022,RJFF 181230Z 12004KT 090V150 9999 FEW030 BKN035 09/05 Q1022     RMK 1CU030 7CU035 A3018=,
20180118_130000.002,0,RJFF,,,,0,20180118130000,-1,-1,-1,-1,999,-1,2,-1,-1,-1,-1,,9999,0,0,2,FEW 30   BKN 35,1,9,1,5,1021,RJFF 181300Z VRB02KT 9999 FEW030 BKN035 09/05 Q1021 RMK 1CU030     7CU035 A3017=,
20180118_133000.001,0,RJFF,,,,0,20180118130000,-1,-1,-1,-1,160,-1,3,-1,-1,-1,-1,,9999,0,0,2,FEW 30   BKN 35,1,8,1,5,1021,RJFF 181330Z 16003KT 9999 FEW030 BKN035 08/05 Q1021 RMK 1CU030     7CU035 A3017=,
20180118_140000.002,0,RJFF,,,,1,20180118140000,-1,-1,-1,-1,999,-1,2,-1,-1,-1,-1,,9999,0,0,1,FEW 40,1,8,1,5,1021,RJFF 181400Z AUTO VRB02KT 9999 FEW040 08/05 Q1021 RMK A3017=,
20180118_143000.001,0,RJFF,,,,1,20180118140000,-1,-1,-1,-1,110,-1,3,-1,-1,-1,-1,,9999,0,0,1,SCT 40,1,8,1,5,1021,RJFF 181430Z AUTO 11003KT 9999 SCT040 08/05 Q1021 RMK A3016=,
20180118_150000.002,0,RJFF,,,,1,20180118150000,-1,-1,-1,-1,160,-1,3,-1,-1,-1,-1,,7000,0,0,1,BKN 40,1,6,1,4,1021,RJFF 181500Z AUTO 16003KT 7000 BKN040 06/04 Q1021 RMK A3017=,
20180118_153000.001,0,RJFF,,,,1,20180118150000,-1,-1,-1,-1,170,-1,3,-1,-1,100,210,,6000,0,0,1,OVC 41,1,7,1,5,1021,RJFF 181530Z AUTO 17003KT 100V210 6000 OVC041 07/05 Q1021 RMK     A3016=,
20180118_160000.002,0,RJFF,,,,1,20180118160000,-1,-1,-1,-1,999,-1,2,-1,-1,-1,-1,,9999,0,0,1,BKN 42,1,8,1,5,1021,RJFF 181600Z AUTO VRB02KT 9999 BKN042 08/05 Q1021 RMK A3017=,
20180118_163000.001,0,RJFF,,,,1,20180118160000,-1,-1,-1,-1,999,-1,2,-1,-1,-1,-1,,9999,0,0,1,BKN 43,1,7,1,4,1021,RJFF 181630Z AUTO VRB02KT 9999 BKN043 07/04 Q1021 RMK A3017=,
20180118_170000.002,0,RJFF,,,,1,20180118170000,-1,-1,-1,-1,170,-1,3,-1,-1,-1,-1,,5000,0,1,1,BKN 44,1,6,1,4,1021,RJFF 181700Z AUTO 17003KT 5000 BR BKN044 06/04 Q1021 RMK     A3017=,BR
20180118_173000.001,0,RJFF,,,,1,20180118170000,-1,-1,-1,-1,130,-1,3,-1,-1,-1,-1,,9999,0,0,2,FEW 40   OVC 43,1,7,1,5,1021,RJFF 181730Z AUTO 13003KT 9999 FEW040 OVC043 07/05 Q1021 RMK     A3017=,
20180118_180000.002,0,RJFF,,,,1,20180118180000,-1,-1,-1,-1,140,-1,4,-1,-1,-1,-1,,9999,0,0,2,FEW 40   OVC 44,1,7,1,5,1021,RJFF 181800Z AUTO 14004KT 9999 FEW040 OVC044 07/05 Q1021 RMK     A3017=,
20180118_183000.001,0,RJFF,,,,1,20180118180000,-1,-1,-1,-1,150,-1,3,-1,-1,-1,-1,,9999,0,0,3,FEW 39   SCT 46   OVC 48,1,7,1,5,1021,RJFF 181830Z AUTO 15003KT 9999 FEW039 SCT046 OVC048 07/05     Q1021 RMK A3017=,
20180118_190000.002,0,RJFF,,,,1,20180118190000,-1,-1,-1,-1,150,-1,5,-1,-1,-1,-1,,9999,0,0,2,FEW 40   BKN 47,1,6,1,5,1021,RJFF 181900Z AUTO 15005KT 9999 FEW040 BKN047 06/05 Q1021 RMK     A3016=,
20180118_193000.001,0,RJFF,,,,1,20180118190000,-1,-1,-1,-1,160,-1,5,-1,-1,-1,-1,,9000,0,0,1,BKN 48,1,6,1,4,1020,RJFF 181930Z AUTO 16005KT 9000 BKN048 06/04 Q1020 RMK A3015=,
20180118_200000.002,0,RJFF,,,,1,20180118200000,-1,-1,-1,-1,140,-1,4,-1,-1,-1,-1,,9999,0,0,1,BKN 49,1,7,1,4,1021,RJFF 182000Z AUTO 14004KT 9999 BKN049 07/04 Q1021 RMK A3015=,
20180118_203000.001,0,RJFF,,,,1,20180118200000,-1,-1,-1,-1,150,-1,6,-1,-1,-1,-1,,5000,0,1,1,OVC 49,1,6,1,4,1021,RJFF 182030Z AUTO 15006KT 5000 BR OVC049 06/04 Q1021 RMK     A3016=,BR
20180118_210000.003,0,RJFF,,,,0,20180118210000,-1,-1,-1,-1,160,-1,6,-1,-1,-1,-1,,9999,0,0,2,FEW 45   BKN 50,1,6,1,4,1021,RJFF 182100Z 16006KT 9999 FEW045 BKN050 06/04 Q1021 RMK 2SC045     6SC050 A3016=,
20180118_213000.001,0,RJFF,,,,0,20180118210000,-1,-1,-1,-1,170,-1,2,-1,-1,-1,-1,,9999,0,0,3,FEW 40   SCT 45   BKN 50,1,6,1,4,1021,RJFF 182130Z 17002KT 9999 FEW040 SCT045 BKN050 06/04 Q1021 RMK     1CU040 3SC045 5SC050 A3015=,
20180118_220000.002,0,RJFF,,,,0,20180118220000,-1,-1,-1,-1,150,-1,3,-1,-1,-1,-1,,9000,0,0,2,FEW 25   SCT 45,1,5,1,3,1021,RJFF 182200Z 15003KT 9000 FEW025 SCT045 05/03 Q1021 RMK 1CU025     3SC045 A3016=,
20180118_223000.002,0,RJFF,,,,0,20180118220000,-1,-1,-1,-1,160,-1,4,-1,-1,-1,-1,,8000,0,0,1,FEW 30,1,5,1,3,1021,RJFF 182230Z 16004KT 8000 FEW030 05/03 Q1021 RMK 1CU030 A3016=,
20180118_230000.003,0,RJFF,,,,0,20180118230000,-1,-1,-1,-1,160,-1,4,-1,-1,-1,-1,,9000,0,0,3,FEW 30   SCT 35   BKN 45,1,6,1,4,1021,RJFF 182300Z 16004KT 9000 FEW030 SCT035 BKN045 06/04 Q1021 RMK     1CU030 3CU035 5SC045 A3016=,
20180118_233000.001,0,RJFF,,,,0,20180118230000,-1,-1,-1,-1,160,-1,5,-1,-1,-1,-1,,9999,0,0,3,FEW 30   SCT 35   BKN 40,1,6,1,5,1021,RJFF 182330Z 16005KT 9999 FEW030 SCT035 BKN040 06/05 Q1021 RMK     1CU030 4CU035 5CU040 A3017=,
20180119_000000.002,0,RJFF,,,,0,20180119000000,-1,-1,-1,-1,170,-1,6,-1,-1,-1,-1,,9999,0,0,2,FEW 30   SCT 40,1,7,1,4,1021,RJFF 190000Z 17006KT 9999 FEW030 SCT040 07/04 Q1021 RMK 1CU030     3CU040 A3017=,
20180119_003000.001,0,RJFF,,,,0,20180119000000,-1,-1,-1,-1,160,-1,6,-1,-1,-1,-1,,8000,0,0,2,FEW 30   SCT 40,1,8,1,5,1022,RJFF 190030Z 16006KT 8000 FEW030 SCT040 08/05 Q1022 RMK 1CU030     3CU040 A3018=,
20180119_010000.003,0,RJFF,,,,0,20180119010000,-1,-1,-1,-1,150,-1,8,-1,-1,-1,-1,,8000,0,0,3,FEW 30   SCT 35   BKN 40,1,9,1,5,1022,RJFF 190100Z 15008KT 8000 FEW030 SCT035 BKN040 09/05 Q1022 RMK     1CU030 3CU035 5CU040 A3019=,
20180119_013000.001,0,RJFF,,,,0,20180119010000,-1,-1,-1,-1,160,-1,10,-1,-1,-1,-1,,9000,0,0,3,FEW 30   SCT 35   BKN 40,1,10,1,5,1022,RJFF 190130Z 16010KT 9000 FEW030 SCT035 BKN040 10/05 Q1022 RMK     1CU030 4CU035 5CU040 A3020=,
20180119_020000.002,0,RJFF,,,,0,20180119020000,-1,-1,-1,-1,160,-1,7,-1,-1,-1,-1,,9000,0,0,3,FEW 30   SCT 35   BKN 40,1,10,1,4,1022,RJFF 190200Z 16007KT 9000 FEW030 SCT035 BKN040 10/04 Q1022 RMK     1CU030 4CU035 5CU040 A3019=,
20180119_023000.001,0,RJFF,,,,0,20180119020000,-1,-1,-1,-1,160,-1,7,-1,-1,-1,-1,,9999,0,0,3,FEW 30   SCT 35   BKN 40,1,10,1,4,1021,RJFF 190230Z 16007KT 9999 FEW030 SCT035 BKN040 10/04 Q1021 RMK     1CU030 4CU035 5CU040 A3017=,
20180119_030000.002,0,RJFF,,,,0,20180119030000,-1,-1,-1,-1,160,-1,7,-1,-1,-1,-1,,9999,0,0,3,FEW 30   SCT 35   BKN 50,1,11,1,4,1021,RJFF 190300Z 16007KT 9999 FEW030 SCT035 BKN050 11/04 Q1021 RMK     1CU030 3CU035 5SC050 A3015=,
20180119_033000.001,0,RJFF,,,,0,20180119030000,-1,-1,-1,-1,150,-1,5,-1,-1,110,180,,9999,0,0,2,FEW 30   SCT 50,1,13,1,5,1020,RJFF 190330Z 15005KT 110V180 9999 FEW030 SCT050 13/05 Q1020     RMK 1CU030 4SC050 A3013=,
20180119_040000.002,0,RJFF,,,,0,20180119040000,-1,-1,-1,-1,230,-1,3,-1,-1,120,260,,9999,0,0,2,FEW 30   SCT 45,1,12,1,4,1019,RJFF 190400Z 23003KT 120V260 9999 FEW030 SCT045 12/04 Q1019     RMK 1CU030 3SC045 A3012=,
20180119_043000.001,0,RJFF,,,,0,20180119040000,-1,-1,-1,-1,230,-1,4,-1,-1,180,330,,9999,0,0,2,FEW 30   SCT 45,1,12,1,4,1019,RJFF 190430Z 23004KT 180V330 9999 FEW030 SCT045 12/04 Q1019     RMK 1CU030 3SC045 A3010=,
20180119_050000.003,0,RJFF,,,,0,20180119050000,-1,-1,-1,-1,310,-1,6,-1,-1,270,340,,9999,0,0,2,FEW 30   SCT 45,1,12,1,4,1019,RJFF 190500Z 31006KT 270V340 9999 FEW030 SCT045 12/04 Q1019     RMK 1CU030 3SC045 A3010=,
20180119_053000.001,0,RJFF,,,,0,20180119050000,-1,-1,-1,-1,330,-1,9,-1,-1,270,360,,9999,0,0,1,FEW 30,1,13,1,3,1019,RJFF 190530Z 33009KT 270V360 9999 FEW030 13/03 Q1019 RMK     1CU030 A3010=,
20180119_060000.002,0,RJFF,,,,0,20180119060000,-1,-1,-1,-1,330,-1,9,-1,-1,-1,-1,,9999,0,0,2,FEW 30   SCT 45,1,12,1,4,1019,RJFF 190600Z 33009KT 9999 FEW030 SCT045 12/04 Q1019 RMK 1CU030     3SC045 A3010=,
20180119_063000.001,0,RJFF,,,,0,20180119060000,-1,-1,-1,-1,320,-1,7,-1,-1,280,360,,9999,0,0,1,FEW 30,1,12,1,5,1018,RJFF 190630Z 32007KT 280V360 9999 FEW030 12/05 Q1018 RMK     1CU030 A3009=,
20180119_070000.002,0,RJFF,,,,0,20180119070000,-1,-1,-1,-1,310,-1,10,-1,-1,-1,-1,,9999,0,0,1,FEW 35,1,13,1,3,1019,RJFF 190700Z 31010KT 9999 FEW035 13/03 Q1019 RMK 1CU035 A3009=,
20180119_073000.001,0,RJFF,,,,0,20180119070000,-1,-1,-1,-1,310,-1,8,-1,-1,-1,-1,,9999,0,0,1,FEW 35,1,12,1,3,1018,RJFF 190730Z 31008KT 9999 FEW035 12/03 Q1018 RMK 1CU035 A3008=,
20180119_080000.002,0,RJFF,,,,0,20180119080000,-1,-1,-1,-1,310,-1,7,-1,-1,-1,-1,,9999,0,0,1,FEW 40,1,12,1,4,1018,RJFF 190800Z 31007KT 9999 FEW040 12/04 Q1018 RMK 1CU040 A3008=,
20180119_083000.001,0,RJFF,,,,0,20180119080000,-1,-1,-1,-1,300,-1,8,-1,-1,-1,-1,,8000,0,0,1,FEW 40,1,12,1,5,1018,RJFF 190830Z 30008KT 8000 FEW040 12/05 Q1018 RMK 1CU040 A3009=,
20180119_090000.003,0,RJFF,,,,0,20180119090000,-1,-1,-1,-1,310,-1,5,-1,-1,-1,-1,,8000,0,0,1,FEW 40,1,11,1,4,1019,RJFF 190900Z 31005KT 8000 FEW040 11/04 Q1019 RMK 2CU040 A3009=,
20180119_093000.001,0,RJFF,,,,0,20180119090000,-1,-1,-1,-1,330,-1,5,-1,-1,300,360,,9000,0,0,1,FEW 40,1,11,1,5,1019,RJFF 190930Z 33005KT 300V360 9000 FEW040 11/05 Q1019 RMK     1CU040 A3010=,
20180119_100000.002,0,RJFF,,,,0,20180119100000,-1,-1,-1,-1,999,-1,1,-1,-1,-1,-1,,9999,0,0,1,FEW 40,1,11,1,4,1019,RJFF 191000Z VRB01KT 9999 FEW040 11/04 Q1019 RMK 1CU040 A3010=,
20180119_103000.001,0,RJFF,,,,0,20180119100000,-1,-1,-1,-1,160,-1,6,-1,-1,-1,-1,,8000,0,0,1,FEW 40,1,9,1,4,1019,RJFF 191030Z 16006KT 8000 FEW040 09/04 Q1019 RMK 1CU040 A3010=,
20180119_110000.002,0,RJFF,,,,0,20180119110000,-1,-1,-1,-1,160,-1,4,-1,-1,-1,-1,,8000,0,0,1,FEW 45,1,8,1,4,1019,RJFF 191100Z 16004KT 8000 FEW045 08/04 Q1019 RMK 1SC045 A3010=,
20180119_113000.001,0,RJFF,,,,0,20180119110000,-1,-1,-1,-1,120,-1,3,-1,-1,70,170,,8000,0,0,1,FEW 45,1,8,1,5,1019,RJFF 191130Z 12003KT 070V170 8000 FEW045 08/05 Q1019 RMK     1SC045 A3010=,
20180119_120000.003,0,RJFF,,,,0,20180119120000,-1,-1,-1,-1,120,-1,4,-1,-1,-1,-1,,7000,0,0,1,FEW 45,1,8,1,4,1019,RJFF 191200Z 12004KT 7000 FEW045 08/04 Q1019 RMK 1SC045 A3010=,
20180119_123000.001,0,RJFF,,,,0,20180119120000,-1,-1,-1,-1,150,-1,5,-1,-1,110,180,,7000,0,0,1,FEW 45,1,7,1,4,1019,RJFF 191230Z 15005KT 110V180 7000 FEW045 07/04 Q1019 RMK     1SC045 A3010=,
20180119_130000.002,0,RJFF,,,,0,20180119130000,-1,-1,-1,-1,160,-1,3,-1,-1,120,190,,7000,0,0,1,FEW 45,1,7,1,4,1019,RJFF 191300Z 16003KT 120V190 7000 FEW045 07/04 Q1019 RMK     1SC045 A3011=,
20180119_133000.001,0,RJFF,,,,0,20180119130000,-1,-1,-1,-1,130,-1,2,-1,-1,-1,-1,,7000,0,0,1,FEW 45,1,7,1,4,1019,RJFF 191330Z 13002KT 7000 FEW045 07/04 Q1019 RMK 1SC045 A3011=,
20180119_140000.002,0,RJFF,,,,1,20180119140000,-1,-1,-1,-1,140,-1,2,-1,-1,-1,-1,,6000,0,0,1,NCD -1,1,6,1,4,1019,RJFF 191400Z AUTO 14002KT 6000 NCD 06/04 Q1019 RMK A3011=,
20180119_143000.001,0,RJFF,,,,1,20180119140000,-1,-1,-1,-1,150,-1,3,-1,-1,-1,-1,,5000,0,1,1,BKN 42,1,6,1,4,1019,RJFF 191430Z AUTO 15003KT 5000 BR BKN042 06/04 Q1019 RMK     A3011=,BR
20180119_150000.002,0,RJFF,,,,1,20180119150000,-1,-1,-1,-1,150,-1,2,-1,-1,-1,-1,,5000,0,1,1,BKN 41,1,6,1,4,1020,RJFF 191500Z AUTO 15002KT 5000 BR BKN041 06/04 Q1020 RMK     A3012=,BR
20180119_153000.001,0,RJFF,,,,1,20180119150000,-1,-1,-1,-1,160,-1,3,-1,-1,-1,-1,,5000,0,1,3,FEW 32   SCT 38   BKN 45,1,5,1,4,1019,RJFF 191530Z AUTO 16003KT 5000 BR FEW032 SCT038 BKN045 05/04     Q1019 RMK A3012=,BR
20180119_160000.002,0,RJFF,,,,1,20180119160000,-1,-1,-1,-1,140,-1,5,-1,-1,-1,-1,,7000,0,0,3,SCT 34   BKN 38   BKN 43,1,6,1,4,1019,RJFF 191600Z AUTO 14005KT 7000 SCT034 BKN038 BKN043 06/04     Q1019 RMK A3012=,
20180119_163000.001,0,RJFF,,,,1,20180119160000,-1,-1,-1,-1,150,-1,4,-1,-1,-1,-1,,5000,0,1,2,FEW 39   SCT 47,1,5,1,3,1019,RJFF 191630Z AUTO 15004KT 5000 BR FEW039 SCT047 05/03 Q1019     RMK A3011=,BR
20180119_170000.002,0,RJFF,,,,1,20180119170000,-1,-1,-1,-1,170,-1,3,-1,-1,120,220,,5000,0,1,3,BKN 33   BKN 37   OVC 48,1,6,1,4,1020,RJFF 191700Z AUTO 17003KT 120V220 5000 BR BKN033 BKN037 OVC048     06/04 Q1020 RMK A3012=,BR
20180119_173000.001,0,RJFF,,,,1,20180119170000,-1,-1,-1,-1,150,-1,2,-1,-1,-1,-1,,5000,0,1,3,SCT 33   BKN 43   BKN 48,1,6,1,4,1020,RJFF 191730Z AUTO 15002KT 5000 BR SCT033 BKN043 BKN048 06/04     Q1020 RMK A3013=,BR
20180119_180000.003,0,RJFF,,,,1,20180119180000,-1,-1,-1,-1,130,-1,2,-1,-1,-1,-1,,7000,0,0,2,FEW 33   BKN 48,1,6,1,4,1020,RJFF 191800Z AUTO 13002KT 7000 FEW033 BKN048 06/04 Q1020 RMK     A3013=,
20180119_183000.001,0,RJFF,,,,1,20180119180000,-1,-1,-1,-1,150,-1,4,-1,-1,-1,-1,,7000,0,0,1,FEW 48,1,4,1,3,1019,RJFF 191830Z AUTO 15004KT 7000 FEW048 04/03 Q1019 RMK A3012=,
20180119_190000.003,0,RJFF,,,,1,20180119190000,-1,-1,-1,-1,150,-1,5,-1,-1,-1,-1,,6000,0,0,2,SCT 34   BKN 41,1,5,1,4,1019,RJFF 191900Z AUTO 15005KT 6000 SCT034 BKN041 05/04 Q1019 RMK     A3010=,
20180119_193000.001,0,RJFF,,,,1,20180119190000,-1,-1,-1,-1,140,-1,3,-1,-1,-1,-1,,4900,0,1,2,FEW 34   BKN 39,1,5,1,3,1019,RJFF 191930Z AUTO 14003KT 4900 BR FEW034 BKN039 05/03 Q1019     RMK A3010=,BR
20180119_200000.002,0,RJFF,,,,1,20180119200000,-1,-1,-1,-1,150,-1,5,-1,-1,-1,-1,,6000,0,0,1,BKN 39,1,5,1,3,1019,RJFF 192000Z AUTO 15005KT 6000 BKN039 05/03 Q1019 RMK A3011=,
20180119_203000.001,0,RJFF,,,,1,20180119200000,-1,-1,-1,-1,130,-1,2,-1,-1,-1,-1,,4300,0,1,1,BKN 39,1,5,1,4,1019,RJFF 192030Z AUTO 13002KT 4300 BR BKN039 05/04 Q1019 RMK     A3011=,BR
20180119_210000.002,0,RJFF,,,,0,20180119210000,-1,-1,-1,-1,150,-1,3,-1,-1,-1,-1,,7000,0,0,2,FEW 8   BKN 40,1,5,1,3,1019,RJFF 192100Z 15003KT 7000 FEW008 BKN040 05/03 Q1019 RMK 1ST008     5CU040 A3012=,
20180119_213000.001,0,RJFF,,,,0,20180119210000,-1,-1,-1,-1,140,-1,3,-1,-1,-1,-1,,6000,0,0,2,FEW 8   SCT 40,1,5,1,4,1019,RJFF 192130Z 14003KT 6000 FEW008 SCT040 05/04 Q1019 RMK 1ST008     4CU040 A3012=,
20180119_220000.002,0,RJFF,,,,0,20180119220000,-1,-1,-1,-1,160,-1,2,-1,-1,-1,-1,,8000,0,0,2,FEW 8   SCT 40,1,4,1,3,1020,RJFF 192200Z 16002KT 8000 FEW008 SCT040 04/03 Q1020 RMK 1ST008     3CU040 A3013=,
20180119_223000.002,0,RJFF,,,,0,20180119220000,-1,-1,-1,-1,160,-1,3,-1,-1,-1,-1,,4000,0,1,1,FEW 30,1,5,1,3,1020,RJFF 192230Z 16003KT 4000 BR FEW030 05/03 Q1020 RMK 1CU030     A3013=,BR
20180119_230000.002,0,RJFF,,,,0,20180119230000,-1,-1,-1,-1,150,-1,3,-1,-1,-1,-1,,4500,0,1,1,FEW 30,1,4,1,3,1020,RJFF 192300Z 15003KT 4500 BR FEW030 04/03 Q1020 RMK 1CU030     A3013=,BR
20180119_233000.001,0,RJFF,,,,0,20180119230000,-1,-1,-1,-1,140,-1,4,-1,-1,-1,-1,,5000,0,1,1,FEW 30,1,5,1,4,1020,RJFF 192330Z 14004KT 5000 BR FEW030 05/04 Q1020 RMK 1CU030     A3013=,BR
20180120_000000.002,0,RJFF,,,,0,20180120000000,-1,-1,-1,-1,999,-1,2,-1,-1,-1,-1,,7000,0,0,1,NSC -1,1,6,1,4,1020,RJFF 200000Z VRB02KT 7000 NSC 06/04 Q1020 RMK A3013=,
20180120_003000.001,0,RJFF,,,,0,20180120000000,-1,-1,-1,-1,160,-1,4,-1,-1,-1,-1,,7000,0,0,1,NSC -1,1,8,1,5,1020,RJFF 200030Z 16004KT 7000 NSC 08/05 Q1020 RMK A3014=,
20180120_010000.002,0,RJFF,,,,0,20180120010000,-1,-1,-1,-1,170,-1,4,-1,-1,130,220,,8000,0,0,2,FEW 40   SCT -9999,1,9,1,5,1021,RJFF 200100Z 17004KT 130V220 8000 FEW040 SCT/// 09/05 Q1021     RMK 1CU040 A3016=,
20180120_013000.001,0,RJFF,,,,0,20180120010000,-1,-1,-1,-1,210,-1,3,-1,-1,170,240,,9000,0,0,2,FEW 40   SCT -9999,1,10,1,4,1021,RJFF 200130Z 21003KT 170V240 9000 FEW040 SCT/// 10/04 Q1021     RMK 1CU040 A3017=,
20180120_020000.003,0,RJFF,,,,0,20180120020000,-1,-1,-1,-1,999,-1,2,-1,-1,-1,-1,,9999,0,0,2,FEW 35   BKN -9999,1,10,1,3,1021,RJFF 200200Z VRB02KT 9999 FEW035 BKN/// 10/03 Q1021 RMK 1CU035     A3017=,
20180120_023000.001,0,RJFF,,,,0,20180120020000,-1,-1,-1,-1,340,-1,6,-1,-1,300,10,,9999,0,0,2,FEW 35   BKN -9999,1,12,1,1,1021,RJFF 200230Z 34006KT 300V010 9999 FEW035 BKN/// 12/01 Q1021     RMK 1CU035 A3016=,
20180120_030000.002,0,RJFF,,,,0,20180120030000,-1,-1,-1,-1,350,-1,8,-1,-1,310,50,,9999,0,0,2,FEW 35   BKN -9999,1,11,1,1,1020,RJFF 200300Z 35008KT 310V050 9999 FEW035 BKN/// 11/01 Q1020     RMK 1CU035 A3013=,
20180120_033000.001,0,RJFF,,,,0,20180120030000,-1,-1,-1,-1,350,-1,6,-1,-1,280,50,,9999,0,0,2,FEW 35   SCT -9999,1,12,1,0,1019,RJFF 200330Z 35006KT 280V050 9999 FEW035 SCT/// 12/00 Q1019     RMK 1CU035 A3011=,
20180120_040000.002,0,RJFF,,,,0,20180120040000,-1,-1,-1,-1,330,-1,8,-1,-1,290,10,,9999,0,0,2,FEW 35   SCT -9999,1,12,1,0,1019,RJFF 200400Z 33008KT 290V010 9999 FEW035 SCT/// 12/00 Q1019     RMK 1CU035 A3010=,
20180120_043000.001,0,RJFF,,,,0,20180120040000,-1,-1,-1,-1,310,-1,7,-1,-1,270,340,,9999,0,0,2,FEW 35   SCT -9999,1,12,-1,0,1019,RJFF 200430Z 31007KT 270V340 9999 FEW035 SCT/// 12/M00 Q1019     RMK 1CU035 A3010=,
20180120_050000.002,0,RJFF,,,,0,20180120050000,-1,-1,-1,-1,310,-1,9,-1,-1,280,340,,9999,0,0,2,FEW 35   BKN -9999,1,12,-1,0,1019,RJFF 200500Z 31009KT 280V340 9999 FEW035 BKN/// 12/M00 Q1019     RMK 1CU035 A3010=,
20180120_053000.001,0,RJFF,,,,0,20180120050000,-1,-1,-1,-1,320,-1,10,-1,-1,-1,-1,,9999,0,0,2,FEW 35   BKN -9999,1,12,1,0,1019,RJFF 200530Z 32010KT 9999 FEW035 BKN/// 12/00 Q1019 RMK 1CU035     A3010=,
20180120_060000.002,0,RJFF,,,,0,20180120060000,-1,-1,-1,-1,350,-1,9,-1,-1,-1,-1,,9999,0,0,2,FEW 35   BKN -9999,1,12,1,0,1019,RJFF 200600Z 35009KT 9999 FEW035 BKN/// 12/00 Q1019 RMK 1CU035     A3010=,
20180120_063000.001,0,RJFF,,,,0,20180120060000,-1,-1,-1,-1,-1,-1,-1,-1,-1,-1,-1,,-1,0,0,0,,0,-1,0,-1,-1,RJFF 200630Z NIL=,
20180120_063000.002,1,RJFF,,,,0,20180120060000,-1,-1,-1,-1,360,-1,9,-1,-1,-1,-1,,9999,0,0,2,FEW 35   BKN -9999,1,12,-1,1,1019,RJFF 200630Z 36009KT 9999 FEW035 BKN/// 12/M01 Q1019 RMK 1CU035     A3010=,
20180120_063000.003,2,RJFF,,,,0,20180120060000,-1,-1,-1,-1,360,-1,9,-1,-1,-1,-1,,9999,0,0,2,FEW 35   BKN -9999,1,11,-1,1,1019,RJFF 200630Z 36009KT 9999 FEW035 BKN/// 11/M01 Q1019 RMK 1CU035     A3010=,
20180120_070000.002,0,RJFF,,,,0,20180120070000,-1,-1,-1,-1,330,-1,9,-1,-1,-1,-1,,9999,0,0,2,FEW 35   BKN -9999,1,11,1,0,1019,RJFF 200700Z 33009KT 9999 FEW035 BKN/// 11/00 Q1019 RMK 1CU035     A3010=,
20180120_073000.001,0,RJFF,,,,0,20180120070000,-1,-1,-1,-1,360,-1,7,-1,-1,-1,-1,,9999,0,0,2,FEW 35   BKN -9999,1,11,-1,1,1019,RJFF 200730Z 36007KT 9999 FEW035 BKN/// 11/M01 Q1019 RMK     1CU035 A3010=,
20180120_080000.002,0,RJFF,,,,0,20180120080000,-1,-1,-1,-1,10,-1,7,-1,-1,330,60,,9999,0,0,2,FEW 35   BKN -9999,1,11,1,0,1019,RJFF 200800Z 01007KT 330V060 9999 FEW035 BKN/// 11/00 Q1019     RMK 1CU035 A3010=,
20180120_083000.001,0,RJFF,,,,0,20180120080000,-1,-1,-1,-1,20,-1,7,-1,-1,350,90,,9999,0,0,2,FEW 40   BKN -9999,1,10,1,0,1019,RJFF 200830Z 02007KT 350V090 9999 FEW040 BKN/// 10/00 Q1019     RMK 1CU040 A3012=,
20180120_090000.002,0,RJFF,,,,0,20180120090000,-1,-1,-1,-1,10,-1,6,-1,-1,330,50,,9999,0,0,2,FEW 40   BKN -9999,1,10,1,1,1019,RJFF 200900Z 01006KT 330V050 9999 FEW040 BKN/// 10/01 Q1019     RMK 1CU040 A3012=,
20180120_093000.001,0,RJFF,,,,0,20180120090000,-1,-1,-1,-1,10,-1,4,-1,-1,340,50,,9999,0,0,2,FEW 40   BKN -9999,1,10,1,1,1020,RJFF 200930Z 01004KT 340V050 9999 FEW040 BKN/// 10/01 Q1020     RMK 1CU040 A3012=,
20180120_100000.002,0,RJFF,,,,0,20180120100000,-1,-1,-1,-1,10,-1,4,-1,-1,340,90,,9999,0,0,2,FEW 40   BKN -9999,1,10,1,1,1020,RJFF 201000Z 01004KT 340V090 9999 FEW040 BKN/// 10/01 Q1020     RMK 1CU040 A3013=,
20180120_103000.001,0,RJFF,,,,0,20180120100000,-1,-1,-1,-1,999,-1,4,-1,-1,-1,-1,,9999,0,0,2,FEW 40   BKN -9999,1,9,1,1,1020,RJFF 201030Z VRB04KT 9999 FEW040 BKN/// 09/01 Q1020 RMK 1CU040     A3013=,
20180120_110000.002,0,RJFF,,,,0,20180120110000,-1,-1,-1,-1,60,-1,3,-1,-1,340,140,,9999,0,0,2,FEW 40   SCT -9999,1,8,1,2,1020,RJFF 201100Z 06003KT 340V140 9999 FEW040 SCT/// 08/02 Q1020     RMK 1CU040 A3014=,
20180120_113000.001,0,RJFF,,,,0,20180120110000,-1,-1,-1,-1,80,-1,4,-1,-1,360,170,,9999,0,0,2,FEW 40   SCT -9999,1,7,1,1,1021,RJFF 201130Z 08004KT 360V170 9999 FEW040 SCT/// 07/01 Q1021     RMK 1CU040 A3015=,
20180120_120000.002,0,RJFF,,,,0,20180120120000,-1,-1,-1,-1,999,-1,2,-1,-1,-1,-1,,9999,0,0,2,FEW 40   SCT -9999,1,7,1,1,1021,RJFF 201200Z VRB02KT 9999 FEW040 SCT/// 07/01 Q1021 RMK 1CU040     A3015=,
20180120_123000.001,0,RJFF,,,,0,20180120120000,-1,-1,-1,-1,110,-1,4,-1,-1,60,140,,9999,0,0,2,FEW 40   BKN -9999,1,6,1,1,1021,RJFF 201230Z 11004KT 060V140 9999 FEW040 BKN/// 06/01 Q1021     RMK 1CU040 A3015=,
20180120_130000.002,0,RJFF,,,,0,20180120130000,-1,-1,-1,-1,160,-1,3,-1,-1,80,190,CAVOK,-1,0,0,0,,1,5,1,1,1021,RJFF 201300Z 16003KT 080V190 CAVOK 05/01 Q1021 RMK A3015=,
20180120_133000.001,0,RJFF,,,,0,20180120130000,-1,-1,-1,-1,110,-1,1,-1,-1,-1,-1,CAVOK,-1,0,0,0,,1,5,1,1,1021,RJFF 201330Z 11001KT CAVOK 05/01 Q1021 RMK A3015=,
20180120_140000.002,0,RJFF,,,,1,20180120140000,-1,-1,-1,-1,999,-1,2,-1,-1,-1,-1,,9999,0,0,1,NSC -1,1,5,1,1,1021,RJFF 201400Z AUTO VRB02KT 9999 NSC 05/01 Q1021 RMK A3015=,
20180120_143000.001,0,RJFF,,,,1,20180120140000,-1,-1,-1,-1,130,-1,2,-1,-1,-1,-1,,9999,0,0,1,NSC -1,1,4,1,1,1020,RJFF 201430Z AUTO 13002KT 9999 NSC 04/01 Q1020 RMK A3015=,
20180120_150000.002,0,RJFF,,,,1,20180120150000,-1,-1,-1,-1,120,-1,1,-1,-1,-1,-1,,9999,0,0,1,NSC -1,1,5,1,1,1020,RJFF 201500Z AUTO 12001KT 9999 NSC 05/01 Q1020 RMK A3015=,
20180120_153000.001,0,RJFF,,,,1,20180120150000,-1,-1,-1,-1,90,-1,1,-1,-1,-1,-1,,9999,0,0,1,NSC -1,1,4,1,1,1020,RJFF 201530Z AUTO 09001KT 9999 NSC 04/01 Q1020 RMK A3014=,
20180120_160000.002,0,RJFF,,,,1,20180120160000,-1,-1,-1,-1,120,-1,1,-1,-1,-1,-1,,9999,0,0,1,NCD -1,1,3,1,0,1020,RJFF 201600Z AUTO 12001KT 9999 NCD 03/00 Q1020 RMK A3014=,
20180120_163000.001,0,RJFF,,,,1,20180120160000,-1,-1,-1,-1,150,-1,3,-1,-1,-1,-1,,9999,0,0,1,NCD -1,1,3,1,0,1020,RJFF 201630Z AUTO 15003KT 9999 NCD 03/00 Q1020 RMK A3015=,
20180120_170000.002,0,RJFF,,,,1,20180120170000,-1,-1,-1,-1,999,-1,1,-1,-1,-1,-1,,9999,0,0,1,NCD -1,1,3,1,1,1020,RJFF 201700Z AUTO VRB01KT 9999 NCD 03/01 Q1020 RMK A3014=,
20180120_173000.001,0,RJFF,,,,1,20180120170000,-1,-1,-1,-1,130,-1,2,-1,-1,-1,-1,,9999,0,0,1,NSC -1,1,2,1,0,1021,RJFF 201730Z AUTO 13002KT 9999 NSC 02/00 Q1021 RMK A3015=,
20180120_180000.002,0,RJFF,,,,1,20180120180000,-1,-1,-1,-1,140,-1,2,-1,-1,-1,-1,,9999,0,0,1,NSC -1,1,2,1,0,1020,RJFF 201800Z AUTO 14002KT 9999 NSC 02/00 Q1020 RMK A3015=,
20180120_183000.001,0,RJFF,,,,1,20180120180000,-1,-1,-1,-1,90,-1,1,-1,-1,-1,-1,,9999,0,0,1,NSC -1,1,3,1,1,1020,RJFF 201830Z AUTO 09001KT 9999 NSC 03/01 Q1020 RMK A3015=,
20180120_190000.003,0,RJFF,,,,1,20180120190000,-1,-1,-1,-1,140,-1,1,-1,-1,-1,-1,,9999,0,0,1,NSC -1,1,2,1,0,1020,RJFF 201900Z AUTO 14001KT 9999 NSC 02/00 Q1020 RMK A3015=,
20180120_193000.001,0,RJFF,,,,1,20180120190000,-1,-1,-1,-1,140,-1,3,-1,-1,-1,-1,,9999,0,0,1,NCD -1,1,1,-1,1,1020,RJFF 201930Z AUTO 14003KT 9999 NCD 01/M01 Q1020 RMK A3014=,
20180120_200000.002,0,RJFF,,,,1,20180120200000,-1,-1,-1,-1,120,-1,3,-1,-1,-1,-1,,9999,0,0,1,NCD -1,1,3,1,1,1020,RJFF 202000Z AUTO 12003KT 9999 NCD 03/01 Q1020 RMK A3014=,
20180120_203000.001,0,RJFF,,,,1,20180120200000,-1,-1,-1,-1,150,-1,3,-1,-1,-1,-1,,9999,0,0,1,NCD -1,1,1,-1,0,1020,RJFF 202030Z AUTO 15003KT 9999 NCD 01/M00 Q1020 RMK A3015=,
20180120_210000.002,0,RJFF,,,,0,20180120210000,-1,-1,-1,-1,999,-1,2,-1,-1,-1,-1,CAVOK,-1,0,0,0,,1,2,-1,0,1021,RJFF 202100Z VRB02KT CAVOK 02/M00 Q1021 RMK A3016=,
20180120_213000.001,0,RJFF,,,,0,20180120210000,-1,-1,-1,-1,999,-1,2,-1,-1,-1,-1,CAVOK,-1,0,0,0,,1,2,1,0,1021,RJFF 202130Z VRB02KT CAVOK 02/00 Q1021 RMK A3016=,
20180120_220000.002,0,RJFF,,,,0,20180120220000,-1,-1,-1,-1,150,-1,2,-1,-1,-1,-1,CAVOK,-1,0,0,0,,1,1,-1,1,1021,RJFF 202200Z 15002KT CAVOK 01/M01 Q1021 RMK A3017=,
20180120_223000.001,0,RJFF,,,,0,20180120220000,-1,-1,-1,-1,150,-1,4,-1,-1,-1,-1,CAVOK,-1,0,0,0,,1,2,1,0,1021,RJFF 202230Z 15004KT CAVOK 02/00 Q1021 RMK A3017=,
20180120_230000.002,0,RJFF,,,,0,20180120230000,-1,-1,-1,-1,150,-1,4,-1,-1,-1,-1,,9999,0,0,1,FEW 40,1,2,1,0,1022,RJFF 202300Z 15004KT 9999 FEW040 02/00 Q1022 RMK 1CU040 A3018=,
20180120_233000.001,0,RJFF,,,,0,20180120230000,-1,-1,-1,-1,140,-1,4,-1,-1,-1,-1,,9999,0,0,2,FEW 40   SCT 45,1,3,1,0,1022,RJFF 202330Z 14004KT 9999 FEW040 SCT045 03/00 Q1022 RMK 1CU040     3SC045 A3018=,
20180121_000000.002,0,RJFF,,,,0,20180121000000,-1,-1,-1,-1,150,-1,5,-1,-1,-1,-1,,9999,0,0,1,FEW 40,1,4,1,1,1022,RJFF 210000Z 15005KT 9999 FEW040 04/01 Q1022 RMK 1CU040 A3018=,
20180121_003000.001,0,RJFF,,,,0,20180121000000,-1,-1,-1,-1,150,-1,4,-1,-1,-1,-1,,9999,0,0,1,FEW 40,1,5,1,2,1022,RJFF 210030Z 15004KT 9999 FEW040 05/02 Q1022 RMK 1CU040 A3018=,
20180121_010000.002,0,RJFF,,,,0,20180121010000,-1,-1,-1,-1,160,-1,3,-1,-1,110,220,,9999,0,0,1,FEW 40,1,7,1,2,1022,RJFF 210100Z 16003KT 110V220 9999 FEW040 07/02 Q1022 RMK     1CU040 A3018=,
20180121_013000.001,0,RJFF,,,,0,20180121010000,-1,-1,-1,-1,200,-1,3,-1,-1,150,230,,9999,0,0,2,FEW 40   SCT -9999,1,9,1,1,1022,RJFF 210130Z 20003KT 150V230 9999 FEW040 SCT/// 09/01 Q1022     RMK 1CU040 A3018=,
20180121_020000.002,0,RJFF,,,,0,20180121020000,-1,-1,-1,-1,999,-1,1,-1,-1,-1,-1,,9999,0,0,2,FEW 40   BKN -9999,1,10,1,1,1022,RJFF 210200Z VRB01KT 9999 FEW040 BKN/// 10/01 Q1022 RMK 1CU040     A3019=,
20180121_023000.001,0,RJFF,,,,0,20180121020000,-1,-1,-1,-1,330,-1,7,-1,-1,280,20,,9999,0,0,2,FEW 40   SCT -9999,1,11,1,2,1022,RJFF 210230Z 33007KT 280V020 9999 FEW040 SCT/// 11/02 Q1022     RMK 1CU040 A3018=,
20180121_030000.002,0,RJFF,,,,0,20180121030000,-1,-1,-1,-1,360,-1,9,-1,-1,330,40,,9999,0,0,2,FEW 40   SCT -9999,1,11,1,2,1021,RJFF 210300Z 36009KT 330V040 9999 FEW040 SCT/// 11/02 Q1021     RMK 1CU040 A3016=,
20180121_033000.001,0,RJFF,,,,0,20180121030000,-1,-1,-1,-1,340,-1,12,-1,-1,-1,-1,,9999,0,0,1,FEW 40,1,12,1,1,1021,RJFF 210330Z 34012KT 9999 FEW040 12/01 Q1021 RMK 2CU040 A3015=,
20180121_040000.003,0,RJFF,,,,0,20180121040000,-1,-1,-1,-1,350,-1,10,-1,-1,310,20,,9999,0,0,2,FEW 40   SCT -9999,1,11,1,1,1020,RJFF 210400Z 35010KT 310V020 9999 FEW040 SCT/// 11/01 Q1020     RMK 2CU040 A3013=,
20180121_043000.001,0,RJFF,,,,0,20180121040000,-1,-1,-1,-1,360,-1,11,-1,-1,-1,-1,,9999,0,0,2,FEW 40   SCT -9999,1,11,-1,0,1020,RJFF 210430Z 36011KT 9999 FEW040 SCT/// 11/M00 Q1020 RMK     1CU040 A3013=,
20180121_050000.002,0,RJFF,,,,0,20180121050000,-1,-1,-1,-1,360,-1,10,-1,-1,330,30,,9999,0,0,2,FEW 40   BKN -9999,1,12,-1,1,1020,RJFF 210500Z 36010KT 330V030 9999 FEW040 BKN/// 12/M01 Q1020     RMK 1CU040 A3012=,
20180121_053000.001,0,RJFF,,,,0,20180121050000,-1,-1,-1,-1,10,-1,11,-1,-1,350,50,,9999,0,0,2,FEW 40   BKN -9999,1,12,-1,1,1019,RJFF 210530Z 01011KT 350V050 9999 FEW040 BKN/// 12/M01 Q1019     RMK 1CU040 A3011=,
20180121_060000.002,0,RJFF,,,,0,20180121060000,-1,-1,-1,-1,10,-1,11,-1,-1,-1,-1,,9999,0,0,2,FEW 40   BKN -9999,1,12,-1,0,1019,RJFF 210600Z 01011KT 9999 FEW040 BKN/// 12/M00 Q1019 RMK     1CU040 A3010=,
20180121_063000.001,0,RJFF,,,,0,20180121060000,-1,-1,-1,-1,10,-1,9,-1,-1,-1,-1,,9999,0,0,2,FEW 40   SCT -9999,1,11,-1,1,1019,RJFF 210630Z 01009KT 9999 FEW040 SCT/// 11/M01 Q1019 RMK     1CU040 A3010=,
20180121_070000.002,0,RJFF,,,,0,20180121070000,-1,-1,-1,-1,10,-1,8,-1,-1,-1,-1,,9999,0,0,2,FEW 40   BKN -9999,1,11,-1,2,1019,RJFF 210700Z 01008KT 9999 FEW040 BKN/// 11/M02 Q1019 RMK     1CU040 A3010=,
20180121_073000.001,0,RJFF,,,,0,20180121070000,-1,-1,-1,-1,20,-1,7,-1,-1,340,90,,9999,0,0,2,FEW 40   BKN -9999,1,11,-1,2,1019,RJFF 210730Z 02007KT 340V090 9999 FEW040 BKN/// 11/M02 Q1019     RMK 1CU040 A3011=,
20180121_080000.002,0,RJFF,,,,0,20180121080000,-1,-1,-1,-1,20,-1,7,-1,-1,330,90,,9999,0,0,2,FEW 40   BKN -9999,1,11,-1,2,1019,RJFF 210800Z 02007KT 330V090 9999 FEW040 BKN/// 11/M02 Q1019     RMK 1CU040 A3012=,
20180121_083000.001,0,RJFF,,,,0,20180121080000,-1,-1,-1,-1,20,-1,7,-1,-1,350,100,CAVOK,-1,0,0,0,,1,10,-1,0,1020,RJFF 210830Z 02007KT 350V100 CAVOK 10/M00 Q1020 RMK A3012=,
20180121_090000.002,0,RJFF,,,,0,20180121090000,-1,-1,-1,-1,999,-1,5,-1,-1,-1,-1,CAVOK,-1,0,0,0,,1,10,-1,1,1020,RJFF 210900Z VRB05KT CAVOK 10/M01 Q1020 RMK A3013=,
20180121_093000.001,0,RJFF,,,,0,20180121090000,-1,-1,-1,-1,70,-1,3,-1,-1,20,130,CAVOK,-1,0,0,0,,1,10,-1,1,1020,RJFF 210930Z 07003KT 020V130 CAVOK 10/M01 Q1020 RMK A3012=,
20180121_100000.002,0,RJFF,,,,0,20180121100000,-1,-1,-1,-1,90,-1,3,-1,-1,50,130,CAVOK,-1,0,0,0,,1,9,1,0,1020,RJFF 211000Z 09003KT 050V130 CAVOK 09/00 Q1020 RMK A3012=,
20180121_103000.001,0,RJFF,,,,0,20180121100000,-1,-1,-1,-1,80,-1,4,-1,-1,30,130,CAVOK,-1,0,0,0,,1,8,1,0,1019,RJFF 211030Z 08004KT 030V130 CAVOK 08/00 Q1019 RMK A3012=,
20180121_110000.002,0,RJFF,,,,0,20180121110000,-1,-1,-1,-1,110,-1,4,-1,-1,50,140,CAVOK,-1,0,0,0,,1,8,1,0,1019,RJFF 211100Z 11004KT 050V140 CAVOK 08/00 Q1019 RMK A3011=,
20180121_113000.001,0,RJFF,,,,0,20180121110000,-1,-1,-1,-1,70,-1,4,-1,-1,20,120,CAVOK,-1,0,0,0,,1,8,-1,0,1019,RJFF 211130Z 07004KT 020V120 CAVOK 08/M00 Q1019 RMK A3011=,
20180121_120000.002,0,RJFF,,,,0,20180121120000,-1,-1,-1,-1,110,-1,3,-1,-1,60,150,CAVOK,-1,0,0,0,,1,8,-1,0,1019,RJFF 211200Z 11003KT 060V150 CAVOK 08/M00 Q1019 RMK A3011=,
20180121_123000.001,0,RJFF,,,,0,20180121120000,-1,-1,-1,-1,50,-1,5,-1,-1,20,110,CAVOK,-1,0,0,0,,1,7,-1,0,1019,RJFF 211230Z 05005KT 020V110 CAVOK 07/M00 Q1019 RMK A3010=,
20180121_130000.003,0,RJFF,,,,0,20180121130000,-1,-1,-1,-1,140,-1,3,-1,-1,50,180,CAVOK,-1,0,0,0,,1,8,-1,0,1019,RJFF 211300Z 14003KT 050V180 CAVOK 08/M00 Q1019 RMK A3010=,
20180121_133000.001,0,RJFF,,,,0,20180121130000,-1,-1,-1,-1,130,-1,2,-1,-1,-1,-1,CAVOK,-1,0,0,0,,1,6,1,0,1018,RJFF 211330Z 13002KT CAVOK 06/00 Q1018 RMK A3008=,
20180121_140000.002,0,RJFF,,,,1,20180121140000,-1,-1,-1,-1,190,-1,3,-1,-1,150,220,,9999,0,0,1,NSC -1,1,6,1,0,1018,RJFF 211400Z AUTO 19003KT 150V220 9999 NSC 06/00 Q1018 RMK     A3007=,
20180121_143000.001,0,RJFF,,,,1,20180121140000,-1,-1,-1,-1,999,-1,1,-1,-1,-1,-1,,9999,0,0,1,NSC -1,1,7,1,1,1018,RJFF 211430Z AUTO VRB01KT 9999 NSC 07/01 Q1018 RMK A3006=,
20180121_150000.002,0,RJFF,,,,1,20180121150000,-1,-1,-1,-1,0,-1,0,-1,-1,-1,-1,,9999,0,0,1,NSC -1,1,5,1,0,1017,RJFF 211500Z AUTO 00000KT 9999 NSC 05/00 Q1017 RMK A3006=,
20180121_153000.001,0,RJFF,,,,1,20180121150000,-1,-1,-1,-1,999,-1,1,-1,-1,-1,-1,,9999,0,0,1,NSC -1,1,5,1,1,1017,RJFF 211530Z AUTO VRB01KT 9999 NSC 05/01 Q1017 RMK A3005=,
20180121_160000.002,0,RJFF,,,,1,20180121160000,-1,-1,-1,-1,999,-1,2,-1,-1,-1,-1,,9999,0,0,1,NSC -1,1,6,1,1,1017,RJFF 211600Z AUTO VRB02KT 9999 NSC 06/01 Q1017 RMK A3003=,
20180121_163000.001,0,RJFF,,,,1,20180121160000,-1,-1,-1,-1,999,-1,1,-1,-1,-1,-1,,9999,0,0,1,NSC -1,1,6,1,1,1016,RJFF 211630Z AUTO VRB01KT 9999 NSC 06/01 Q1016 RMK A3002=,
20180121_170000.002,0,RJFF,,,,1,20180121170000,-1,-1,-1,-1,360,-1,2,-1,-1,-1,-1,,9999,0,0,1,NSC -1,1,6,1,1,1015,RJFF 211700Z AUTO 36002KT 9999 NSC 06/01 Q1015 RMK A3000=,
20180121_173000.001,0,RJFF,,,,1,20180121170000,-1,-1,-1,-1,240,-1,4,-1,-1,-1,-1,,9999,0,0,1,NSC -1,1,7,1,0,1016,RJFF 211730Z AUTO 24004KT 9999 NSC 07/00 Q1016 RMK A3000=,
20180121_180000.002,0,RJFF,,,,1,20180121180000,-1,-1,-1,-1,120,-1,4,-1,-1,90,170,,9999,0,0,1,NSC -1,1,7,1,1,1015,RJFF 211800Z AUTO 12004KT 090V170 9999 NSC 07/01 Q1015 RMK     A3000=,
20180121_183000.001,0,RJFF,,,,1,20180121180000,-1,-1,-1,-1,999,-1,1,-1,-1,-1,-1,,9999,0,0,1,NSC -1,1,6,1,1,1015,RJFF 211830Z AUTO VRB01KT 9999 NSC 06/01 Q1015 RMK A2998=,
20180121_190000.002,0,RJFF,,,,1,20180121190000,-1,-1,-1,-1,999,-1,2,-1,-1,-1,-1,,9999,0,0,1,NSC -1,1,7,1,1,1015,RJFF 211900Z AUTO VRB02KT 9999 NSC 07/01 Q1015 RMK A2997=,
20180121_193000.001,0,RJFF,,,,1,20180121190000,-1,-1,-1,-1,999,-1,2,-1,-1,-1,-1,,9999,0,0,1,NSC -1,1,7,1,0,1015,RJFF 211930Z AUTO VRB02KT 9999 NSC 07/00 Q1015 RMK A2997=,
20180121_200000.002,0,RJFF,,,,1,20180121200000,-1,-1,-1,-1,330,-1,6,-1,-1,-1,-1,,9999,0,1,3,FEW 41   BKN 50   OVC 60,1,7,1,2,1014,RJFF 212000Z AUTO 33006KT 9999 -RA FEW041 BKN050 OVC060 07/02     Q1014 RMK A2997=,- RA
20180121_203000.001,0,RJFF,,,,1,20180121200000,-1,-1,-1,-1,30,-1,9,-1,-1,-1,-1,,9999,0,1,3,FEW 23   BKN 30   BKN 35,1,7,1,2,1014,RJFF 212030Z AUTO 03009KT 9999 -RA FEW023 BKN030 BKN035 07/02     Q1014 RMK A2997=,- RA
20180121_210000.002,0,RJFF,,,,0,20180121210000,-1,-1,-1,-1,70,-1,5,-1,-1,-1,-1,,9999,0,1,3,FEW 20   BKN 30   BKN 80,1,6,1,2,1015,RJFF 212100Z 07005KT 9999 -RA FEW020 BKN030 BKN080 06/02 Q1015     RMK 1CU020 5CU030 7AC080 A2998=,- RA
20180121_213000.001,0,RJFF,,,,0,20180121210000,-1,-1,-1,-1,210,-1,3,-1,-1,160,290,,8000,0,1,3,FEW 20   BKN 30   BKN 40,1,6,1,3,1015,RJFF 212130Z 21003KT 160V290 8000 -RA FEW020 BKN030 BKN040     06/03 Q1015 RMK 2CU020 5CU030 6CU040 A2999=,- RA
20180121_220000.002,0,RJFF,,,,0,20180121220000,-1,-1,-1,-1,999,-1,2,-1,-1,-1,-1,,7000,0,1,3,FEW 8   SCT 20   BKN 30,1,6,1,3,1015,RJFF 212200Z VRB02KT 7000 -RA FEW008 SCT020 BKN030 06/03 Q1015     RMK 1ST008 3CU020 5CU030 A2999=,- RA
20180121_223000.002,0,RJFF,,,,0,20180121220000,-1,-1,-1,-1,180,-1,3,-1,-1,-1,-1,,4000,0,1,3,FEW 8   SCT 20   BKN 25,1,6,1,4,1016,RJFF 212230Z 18003KT 4000 SHRA FEW008 SCT020 BKN025 06/04     Q1016 RMK 1ST008 3CU020 6CU025 A3000=,RA SH
20180121_230000.002,0,RJFF,,,,0,20180121230000,-1,-1,-1,-1,999,-1,2,-1,-1,-1,-1,,4500,0,1,3,FEW 8   SCT 15   BKN 20,1,5,1,4,1015,RJFF 212300Z VRB02KT 4500 SHRA FEW008 SCT015 BKN020 05/04     Q1015 RMK 1ST008 3CU015 6CU020 A3000=,RA SH
20180121_233000.001,0,RJFF,,,,0,20180121230000,-1,-1,-1,-1,80,-1,3,-1,-1,20,140,,7000,0,1,3,FEW 8   SCT 15   BKN 25,1,5,1,3,1015,RJFF 212330Z 08003KT 020V140 7000 -SHRA FEW008 SCT015 BKN025     05/03 Q1015 RMK 1ST008 3CU015 6CU025 A2999=,- RA SH
20180122_000000.002,0,RJFF,,,,0,20180122000000,-1,-1,-1,-1,80,-1,3,-1,-1,40,120,,7000,0,1,3,FEW 6   SCT 20   BKN 30,1,5,1,3,1015,RJFF 220000Z 08003KT 040V120 7000 -SHRA FEW006 SCT020 BKN030     05/03 Q1015 RMK 1ST006 3CU020 6CU030 A2999=,- RA SH
20180122_003000.001,0,RJFF,,,,0,20180122000000,-1,-1,-1,-1,60,-1,3,-1,-1,10,110,,9000,0,1,3,FEW 7   SCT 30   BKN 35,1,5,1,3,1015,RJFF 220030Z 06003KT 010V110 9000 -SHRA FEW007 SCT030 BKN035     05/03 Q1015 RMK 1ST007 3CU030 7CU035 A2999=,- RA SH
20180122_010000.002,0,RJFF,,,,0,20180122010000,-1,-1,-1,-1,60,-1,5,-1,-1,40,120,,9000,0,1,3,FEW 7   SCT 30   BKN 35,1,5,1,3,1015,RJFF 220100Z 06005KT 040V120 9000 -SHRA FEW007 SCT030 BKN035     05/03 Q1015 RMK 1ST007 3CU030 7CU035 A2998=,- RA SH
20180122_013000.001,0,RJFF,,,,0,20180122010000,-1,-1,-1,-1,70,-1,5,-1,-1,10,120,,9000,0,1,2,FEW 2   BKN 35,1,5,1,3,1014,RJFF 220130Z 07005KT 010V120 9000 -SHRA FEW002 BKN035 05/03     Q1014 RMK 1ST002 7CU035 A2997=,- RA SH
20180122_020000.002,0,RJFF,,,,0,20180122020000,-1,-1,-1,-1,999,-1,2,-1,-1,-1,-1,,9999,0,1,3,FEW 3   SCT 10   BKN 15,1,5,1,3,1014,RJFF 220200Z VRB02KT 9999 -SHRA FEW003 SCT010 BKN015 05/03     Q1014 RMK 1ST003 3CU010 6CU015 A2996=,- RA SH
20180122_023000.001,0,RJFF,,,,0,20180122020000,-1,-1,-1,-1,60,-1,6,-1,-1,20,90,,9999,0,1,3,FEW 3   SCT 15   BKN 20,1,5,1,2,1014,RJFF 220230Z 06006KT 020V090 9999 -SHRA FEW003 SCT015 BKN020     05/02 Q1014 RMK 1ST003 3CU015 6CU020 A2996=,- RA SH
20180122_030000.002,0,RJFF,,,,0,20180122030000,-1,-1,-1,-1,80,-1,4,-1,-1,30,120,,9999,0,1,3,FEW 2   SCT 35   BKN 40,1,5,1,2,1013,RJFF 220300Z 08004KT 030V120 9999 -SHRA FEW002 SCT035 BKN040     05/02 Q1013 RMK 1ST002 3CU035 6CU040 A2993=,- RA SH
20180122_033000.001,0,RJFF,,,,0,20180122030000,-1,-1,-1,-1,60,-1,5,-1,-1,10,110,,9999,0,1,3,FEW 5   SCT 40   BKN 50,1,5,1,3,1013,RJFF 220330Z 06005KT 010V110 9999 -SHRA FEW005 SCT040 BKN050     05/03 Q1013 RMK 1ST005 3CU040 7SC050 A2992=,- RA SH
20180122_040000.002,0,RJFF,,,,0,20180122040000,-1,-1,-1,-1,60,-1,4,-1,-1,350,120,,9999,0,0,2,FEW 5   BKN 60,1,5,1,2,1013,RJFF 220400Z 06004KT 350V120 9999 FEW005 BKN060 05/02 Q1013     RMK 1ST005 7SC060 A2992=,
20180122_043000.001,0,RJFF,,,,0,20180122040000,-1,-1,-1,-1,30,-1,5,-1,-1,360,100,,9999,0,0,2,FEW 5   BKN 60,1,6,1,2,1013,RJFF 220430Z 03005KT 360V100 9999 FEW005 BKN060 06/02 Q1013     RMK 1ST005 7SC060 A2992=,
20180122_050000.002,0,RJFF,,,,0,20180122050000,-1,-1,-1,-1,40,-1,3,-1,-1,330,110,,9999,0,0,2,FEW 5   BKN 60,1,6,1,2,1013,RJFF 220500Z 04003KT 330V110 9999 FEW005 BKN060 06/02 Q1013     RMK 1ST005 5SC060 A2992=,
20180122_053000.001,0,RJFF,,,,0,20180122050000,-1,-1,-1,-1,999,-1,3,-1,-1,-1,-1,,9999,0,0,1,FEW 15,1,7,1,3,1013,RJFF 220530Z VRB03KT 9999 FEW015 07/03 Q1013 RMK 1CU015 A2992=,
20180122_060000.003,0,RJFF,,,,0,20180122060000,-1,-1,-1,-1,999,-1,3,-1,-1,-1,-1,,9999,0,0,1,FEW 10,1,8,1,4,1013,RJFF 220600Z VRB03KT 9999 FEW010 08/04 Q1013 RMK 1CU010 A2992=,
20180122_063000.001,0,RJFF,,,,0,20180122060000,-1,-1,-1,-1,999,-1,1,-1,-1,-1,-1,,9999,0,0,1,FEW 10,1,7,1,3,1013,RJFF 220630Z VRB01KT 9999 FEW010 07/03 Q1013 RMK 1CU010 A2992=,
20180122_070000.002,0,RJFF,,,,0,20180122070000,-1,-1,-1,-1,999,-1,2,-1,-1,-1,-1,,9999,0,0,2,FEW 15   SCT -9999,1,8,1,3,1013,RJFF 220700Z VRB02KT 9999 FEW015 SCT/// 08/03 Q1013 RMK 1CU015     A2993=,
20180122_073000.001,0,RJFF,,,,0,20180122070000,-1,-1,-1,-1,340,-1,3,-1,-1,290,90,,9999,0,0,3,FEW 15   SCT 30   BKN 45,1,8,1,3,1013,RJFF 220730Z 34003KT 290V090 9999 FEW015 SCT030 BKN045 08/03     Q1013 RMK 1CU015 3CU030 5SC045 A2994=,
20180122_080000.003,0,RJFF,,,,0,20180122080000,-1,-1,-1,-1,320,-1,4,-1,-1,-1,-1,,9999,0,0,3,FEW 15   SCT 30   BKN 40,1,7,1,3,1014,RJFF 220800Z 32004KT 9999 FEW015 SCT030 BKN040 07/03 Q1014 RMK     1CU015 3CU030 5CU040 A2995=,
20180122_083000.001,0,RJFF,,,,0,20180122080000,-1,-1,-1,-1,999,-1,2,-1,-1,-1,-1,,9999,0,0,3,FEW 15   SCT 30   BKN 40,1,7,1,3,1014,RJFF 220830Z VRB02KT 9999 FEW015 SCT030 BKN040 07/03 Q1014 RMK     1CU015 3CU030 5CU040 A2996=,
20180122_090000.002,0,RJFF,,,,0,20180122090000,-1,-1,-1,-1,999,-1,1,-1,-1,-1,-1,,9999,0,1,3,FEW 15   SCT 25   BKN 40,1,7,1,3,1014,RJFF 220900Z VRB01KT 9999 -SHRA FEW015 SCT025 BKN040 07/03     Q1014 RMK 1CU015 3CU025 5CU040 A2995=,- RA SH
20180122_093000.001,0,RJFF,,,,0,20180122090000,-1,-1,-1,-1,999,-1,2,-1,-1,-1,-1,,9999,0,0,2,FEW 15   SCT 40,1,5,1,3,1014,RJFF 220930Z VRB02KT 9999 FEW015 SCT040 05/03 Q1014 RMK 1CU015     3CU040 A2996=,
20180122_100000.002,0,RJFF,,,,0,20180122100000,-1,-1,-1,-1,150,-1,5,-1,-1,110,180,,9999,0,0,2,FEW 15   BKN 50,1,6,1,3,1014,RJFF 221000Z 15005KT 110V180 9999 FEW015 BKN050 06/03 Q1014     RMK 1CU015 5SC050 A2997=,
20180122_103000.001,0,RJFF,,,,0,20180122100000,-1,-1,-1,-1,150,-1,11,-1,-1,-1,-1,,9999,0,0,2,FEW 30   SCT 50,1,6,1,3,1014,RJFF 221030Z 15011KT 9999 FEW030 SCT050 06/03 Q1014 RMK 1CU030     3SC050 A2997=,
20180122_110000.003,0,RJFF,,,,0,20180122110000,-1,-1,-1,-1,160,-1,10,-1,-1,-1,-1,,9999,0,0,1,FEW 30,1,5,1,3,1014,RJFF 221100Z 16010KT 9999 FEW030 05/03 Q1014 RMK 1CU030 A2996=,
20180122_113000.001,0,RJFF,,,,0,20180122110000,-1,-1,-1,-1,160,-1,10,-1,-1,-1,-1,,9999,0,0,1,FEW 30,1,5,1,2,1014,RJFF 221130Z 16010KT 9999 FEW030 05/02 Q1014 RMK 1CU030 A2996=,
20180122_120000.002,0,RJFF,,,,0,20180122120000,-1,-1,-1,-1,160,-1,8,-1,-1,-1,-1,,9999,0,0,1,FEW 30,1,5,1,2,1015,RJFF 221200Z 16008KT 9999 FEW030 05/02 Q1015 RMK 1CU030 A2997=,
20180122_123000.001,0,RJFF,,,,0,20180122120000,-1,-1,-1,-1,160,-1,7,-1,-1,-1,-1,,9999,0,0,2,FEW 30   SCT 50,1,5,1,2,1015,RJFF 221230Z 16007KT 9999 FEW030 SCT050 05/02 Q1015 RMK 1CU030     3SC050 A2997=,
20180122_130000.003,0,RJFF,,,,0,20180122130000,-1,-1,-1,-1,160,-1,9,-1,-1,-1,-1,,9999,0,0,1,FEW 30,1,5,1,3,1014,RJFF 221300Z 16009KT 9999 FEW030 05/03 Q1014 RMK 1CU030 A2996=,
20180122_133000.001,0,RJFF,,,,0,20180122130000,-1,-1,-1,-1,160,-1,10,-1,-1,-1,-1,,9999,0,0,2,FEW 30   BKN 60,1,5,1,3,1014,RJFF 221330Z 16010KT 9999 FEW030 BKN060 05/03 Q1014 RMK 1CU030     5SC060 A2995=,
20180122_140000.003,0,RJFF,,,,1,20180122140000,-1,-1,-1,-1,160,-1,10,-1,-1,-1,-1,,9999,0,0,3,FEW 43   SCT 60   BKN 70,1,5,1,3,1014,RJFF 221400Z AUTO 16010KT 9999 FEW043 SCT060 BKN070 05/03     Q1014 RMK A2995=,
20180122_143000.001,0,RJFF,,,,1,20180122140000,-1,-1,-1,-1,170,-1,8,-1,-1,-1,-1,,9999,0,0,3,FEW 47   BKN 60   BKN 70,1,5,1,3,1013,RJFF 221430Z AUTO 17008KT 9999 FEW047 BKN060 BKN070 05/03     Q1013 RMK A2994=,
20180122_150000.002,0,RJFF,,,,1,20180122150000,-1,-1,-1,-1,160,-1,9,-1,-1,-1,-1,,9999,0,0,3,FEW 41   SCT 60   BKN 70,1,5,1,3,1013,RJFF 221500Z AUTO 16009KT 9999 FEW041 SCT060 BKN070 05/03     Q1013 RMK A2992=,
20180122_153000.001,0,RJFF,,,,1,20180122150000,-1,-1,-1,-1,170,-1,9,-1,-1,-1,-1,,9999,0,1,3,SCT 36   BKN 41   BKN 47,1,6,1,4,1013,RJFF 221530Z AUTO 17009KT 9999 -RA SCT036 BKN041 BKN047 06/04     Q1013 RMK A2992=,- RA
20180122_160000.002,0,RJFF,,,,1,20180122160000,-1,-1,-1,-1,160,-1,11,-1,-1,-1,-1,,9999,0,0,3,FEW 38   SCT 44   BKN 50,1,6,1,4,1013,RJFF 221600Z AUTO 16011KT 9999 FEW038 SCT044 BKN050 06/04     Q1013 RMK A2992=,
20180122_163000.001,0,RJFF,,,,1,20180122160000,-1,-1,-1,-1,170,-1,9,-1,-1,-1,-1,,9999,0,0,3,BKN 31   BKN 50   OVC 70,1,6,1,4,1013,RJFF 221630Z AUTO 17009KT 9999 BKN031 BKN050 OVC070 06/04     Q1013 RMK A2992=,
20180122_170000.002,0,RJFF,,,,1,20180122170000,-1,-1,-1,-1,170,-1,8,-1,-1,-1,-1,,9999,0,0,3,BKN 30   BKN 38   BKN 44,1,7,1,4,1013,RJFF 221700Z AUTO 17008KT 9999 BKN030 BKN038 BKN044 07/04     Q1013 RMK A2993=,
20180122_173000.001,0,RJFF,,,,1,20180122170000,-1,-1,-1,-1,160,-1,8,-1,-1,-1,-1,,9999,0,0,3,FEW 31   SCT 38   BKN 41,1,6,1,4,1013,RJFF 221730Z AUTO 16008KT 9999 FEW031 SCT038 BKN041 06/04     Q1013 RMK A2993=,
20180122_180000.002,0,RJFF,,,,1,20180122180000,-1,-1,-1,-1,999,-1,5,-1,-1,-1,-1,,5000,0,1,3,SCT 30   BKN 38   BKN 40,1,7,1,4,1014,RJFF 221800Z AUTO VRB05KT 5000 BR SCT030 BKN038 BKN040 07/04     Q1014 RMK A2995=,BR
20180122_183000.001,0,RJFF,,,,1,20180122180000,-1,-1,-1,-1,280,-1,12,-1,24,240,320,,4000,0,1,3,FEW 30   SCT 36   BKN 49,1,10,1,3,1014,RJFF 221830Z AUTO 28012G24KT 240V320 4000 HZ FEW030 SCT036     BKN049 10/03 Q1014 RMK A2995=,HZ
20180122_190000.002,0,RJFF,,,,1,20180122190000,-1,-1,-1,-1,280,-1,13,-1,-1,240,310,,8000,0,0,3,BKN 36   BKN 43   BKN 50,1,9,1,3,1014,RJFF 221900Z AUTO 28013KT 240V310 8000 BKN036 BKN043 BKN050     09/03 Q1014 RMK A2995=,
20180122_193000.001,0,RJFF,,,,1,20180122190000,-1,-1,-1,-1,280,-1,16,-1,-1,-1,-1,,9999,0,0,3,SCT 33   BKN 40   BKN 110,1,9,1,2,1014,RJFF 221930Z AUTO 28016KT 9999 SCT033 BKN040 BKN110 09/02     Q1014 RMK A2995=,
20180122_200000.002,0,RJFF,,,,1,20180122200000,-1,-1,-1,-1,280,-1,14,-1,24,240,320,,9999,0,0,2,FEW 33   SCT 100,1,8,1,1,1014,RJFF 222000Z AUTO 28014G24KT 240V320 9999 FEW033 SCT100 08/01     Q1014 RMK A2997=,
20180122_203000.001,0,RJFF,,,,1,20180122200000,-1,-1,-1,-1,270,-1,12,-1,-1,240,310,,9999,0,0,1,NSC -1,1,8,1,1,1015,RJFF 222030Z AUTO 27012KT 240V310 9999 NSC 08/01 Q1015 RMK     A2997=,
20180122_210000.003,0,RJFF,,,,0,20180122210000,-1,-1,-1,-1,270,-1,11,-1,-1,230,350,,9999,0,0,1,FEW 30,1,8,1,1,1015,RJFF 222100Z 27011KT 230V350 9999 FEW030 08/01 Q1015 RMK     1CU030 A2999=,
20180122_213000.001,0,RJFF,,,,0,20180122210000,-1,-1,-1,-1,280,-1,12,-1,-1,250,320,,9999,0,0,1,FEW 30,1,7,1,1,1016,RJFF 222130Z 28012KT 250V320 9999 FEW030 07/01 Q1016 RMK     1CU030 A3000=,
20180122_220000.002,0,RJFF,,,,0,20180122220000,-1,-1,-1,-1,270,-1,8,-1,-1,210,320,,9999,0,0,2,FEW 30   SCT 40,1,7,1,0,1016,RJFF 222200Z 27008KT 210V320 9999 FEW030 SCT040 07/00 Q1016     RMK 1CU030 3CU040 A3002=,
20180122_223000.002,0,RJFF,,,,0,20180122220000,-1,-1,-1,-1,260,-1,9,-1,-1,230,310,,9999,0,0,2,FEW 30   SCT 40,1,7,1,0,1017,RJFF 222230Z 26009KT 230V310 9999 FEW030 SCT040 07/00 Q1017     RMK 1CU030 4CU040 A3003=,
20180122_230000.003,0,RJFF,,,,0,20180122230000,-1,-1,-1,-1,270,-1,7,-1,18,200,360,,9999,0,0,2,FEW 30   SCT 40,1,7,1,0,1017,RJFF 222300Z 27007G18KT 200V360 9999 FEW030 SCT040 07/00 Q1017     RMK 1CU030 4CU040 A3004=,
20180122_233000.001,0,RJFF,,,,0,20180122230000,-1,-1,-1,-1,300,-1,12,-1,-1,260,330,,9999,0,0,1,FEW 30,1,7,-1,1,1017,RJFF 222330Z 30012KT 260V330 9999 FEW030 07/M01 Q1017 RMK     1CU030 A3005=,
20180123_000000.002,0,RJFF,,,,0,20180123000000,-1,-1,-1,-1,300,-1,11,-1,-1,270,330,,9999,0,0,3,FEW 30   SCT 40   BKN 50,1,7,-1,0,1018,RJFF 230000Z 30011KT 270V330 9999 FEW030 SCT040 BKN050 07/M00     Q1018 RMK 1CU030 3CU040 5SC050 A3007=,
20180123_003000.001,0,RJFF,,,,0,20180123000000,-1,-1,-1,-1,280,-1,14,-1,-1,250,310,,9999,0,0,3,FEW 25   SCT 35   BKN 50,1,7,-1,1,1019,RJFF 230030Z 28014KT 250V310 9999 FEW025 SCT035 BKN050 07/M01     Q1019 RMK 1CU025 3CU035 5SC050 A3009=,
20180123_010000.002,0,RJFF,,,,0,20180123010000,-1,-1,-1,-1,300,-1,12,-1,-1,260,330,,9999,0,0,3,FEW 25   SCT 35   BKN 50,1,7,-1,2,1019,RJFF 230100Z 30012KT 260V330 9999 FEW025 SCT035 BKN050 07/M02     Q1019 RMK 1CU025 3CU035 6SC050 A3010 MOD TURB OBS AT           0036Z 12NM SW STOUT BTN 16000FT AND 15000FT IN DES MOV SW           E170=,
20180123_013000.001,0,RJFF,,,,0,20180123010000,-1,-1,-1,-1,270,-1,15,-1,-1,-1,-1,,9999,0,1,3,FEW 25   SCT 40   BKN 50,1,7,-1,2,1019,RJFF 230130Z 27015KT 9999 -SHRA FEW025 SCT040 BKN050 07/M02     Q1019 RMK 1CU025 4CU040 6SC050 A3012=,- RA SH
20180123_020000.002,0,RJFF,,,,0,20180123020000,-1,-1,-1,-1,300,-1,15,-1,-1,270,340,,9999,0,1,3,FEW 25   SCT 40   BKN 45,1,5,1,0,1019,RJFF 230200Z 30015KT 270V340 9999 -SHRA FEW025 SCT040 BKN045     05/00 Q1019 RMK 1CU025 3CU040 7CU045 A3012=,- RA SH
20180123_023000.001,0,RJFF,,,,0,20180123020000,-1,-1,-1,-1,280,-1,13,-1,-1,230,310,,9999,0,1,3,FEW 20   SCT 35   BKN 45,1,5,1,0,1019,RJFF 230230Z 28013KT 230V310 9999 VCSH FEW020 SCT035 BKN045     05/00 Q1019 RMK 1CU020 3CU035 6CU045 A3011=,VC SH
20180123_030000.003,0,RJFF,,,,0,20180123030000,-1,-1,-1,-1,310,-1,15,-1,-1,260,330,,9999,0,1,3,FEW 15   SCT 25   BKN 40,1,5,-1,0,1019,RJFF 230300Z 31015KT 260V330 9999 -SHRA FEW015 SCT025 BKN040     05/M00 Q1019 RMK 1CU015 3CU025 7CU040 A3011=,- RA SH
20180123_033000.001,0,RJFF,,,,0,20180123030000,-1,-1,-1,-1,290,-1,14,-1,25,250,320,,9999,0,0,3,FEW 15   SCT 25   BKN 40,1,5,-1,2,1019,RJFF 230330Z 29014G25KT 250V320 9999 FEW015 SCT025 BKN040     05/M02 Q1019 RMK 1CU015 3CU025 6CU040 A3010=,
20180123_040000.003,0,RJFF,,,,0,20180123040000,-1,-1,-1,-1,300,-1,15,-1,-1,270,330,,9999,0,0,3,FEW 15   SCT 25   BKN 35,1,5,-1,3,1019,RJFF 230400Z 30015KT 270V330 9999 FEW015 SCT025 BKN035 05/M03     Q1019 RMK 1CU015 3CU025 6CU035 A3011=,
20180123_043000.001,0,RJFF,,,,0,20180123040000,-1,-1,-1,-1,290,-1,12,-1,-1,250,330,,9999,0,0,3,FEW 15   SCT 25   BKN 40,1,5,-1,4,1019,RJFF 230430Z 29012KT 250V330 9999 FEW015 SCT025 BKN040 05/M04     Q1019 RMK 1CU015 3CU025 6CU040 A3012=,
20180123_050000.002,0,RJFF,,,,0,20180123050000,-1,-1,-1,-1,300,-1,14,-1,-1,-1,-1,,9999,0,0,3,FEW 20   SCT 40   BKN -9999,1,5,-1,5,1019,RJFF 230500Z 30014KT 9999 FEW020 SCT040 BKN/// 05/M05 Q1019     RMK 1CU020 4CU040 A3011=,
20180123_053000.001,0,RJFF,,,,0,20180123050000,-1,-1,-1,-1,280,-1,11,-1,24,240,320,,9999,0,0,3,FEW 20   SCT 35   BKN -9999,1,5,-1,5,1019,RJFF 230530Z 28011G24KT 240V320 9999 FEW020 SCT035 BKN///     05/M05 Q1019 RMK 1CU020 3CU035 A3010=,
20180123_060000.003,0,RJFF,,,,0,20180123060000,-1,-1,-1,-1,310,-1,15,-1,-1,-1,-1,,9999,0,0,3,FEW 25   SCT 35   BKN -9999,1,5,-1,5,1019,RJFF 230600Z 31015KT 9999 FEW025 SCT035 BKN/// 05/M05 Q1019     RMK 1CU025 3CU035 A3011=,
20180123_063000.001,0,RJFF,,,,0,20180123060000,-1,-1,-1,-1,280,-1,13,-1,-1,240,320,,9999,0,0,2,FEW 30   SCT 45,1,5,-1,5,1019,RJFF 230630Z 28013KT 240V320 9999 FEW030 SCT045 05/M05 Q1019     RMK 1CU030 3SC045 A3011=,
20180123_070000.002,0,RJFF,,,,0,20180123070000,-1,-1,-1,-1,280,-1,15,-1,-1,250,320,,9999,0,0,2,FEW 25   SCT 40,1,5,-1,6,1019,RJFF 230700Z 28015KT 250V320 9999 FEW025 SCT040 05/M06 Q1019     RMK 1CU025 3CU040 A3011=,
20180123_073000.001,0,RJFF,,,,0,20180123070000,-1,-1,-1,-1,270,-1,14,-1,24,230,300,,9999,0,0,2,FEW 30   SCT 40,1,4,-1,7,1019,RJFF 230730Z 27014G24KT 230V300 9999 FEW030 SCT040 04/M07     Q1019 RMK 1CU030 3CU040 A3011=,
20180123_080000.002,0,RJFF,,,,0,20180123080000,-1,-1,-1,-1,270,-1,14,-1,-1,240,310,,9999,0,0,2,FEW 30   SCT 45,1,4,-1,7,1019,RJFF 230800Z 27014KT 240V310 9999 FEW030 SCT045 04/M07 Q1019     RMK 1CU030 3CU045 A3011=,
20180123_083000.001,0,RJFF,,,,0,20180123080000,-1,-1,-1,-1,280,-1,14,-1,-1,-1,-1,,9999,0,0,2,FEW 30   SCT 45,1,3,-1,7,1019,RJFF 230830Z 28014KT 9999 FEW030 SCT045 03/M07 Q1019 RMK     1CU030 3CU045 A3012 MOD TURB OBS AT 0815Z 30NM N RJFF BTN           8000FT AND 5000FT IN DES MOV SW B763=,
20180123_090000.002,0,RJFF,,,,0,20180123090000,-1,-1,-1,-1,270,-1,13,-1,-1,230,300,,9999,0,0,2,FEW 30   SCT 45,1,3,-1,7,1020,RJFF 230900Z 27013KT 230V300 9999 FEW030 SCT045 03/M07 Q1020     RMK 1CU030 3CU045 A3012 MOD TURB OBS AT 0845Z 15NM NE DGC           BTN 8000FT AND 7000FT IN DES MOV W E75L=,
20180123_093000.001,0,RJFF,,,,0,20180123090000,-1,-1,-1,-1,280,-1,12,-1,-1,240,310,,9999,0,0,1,FEW 35,1,3,-1,8,1020,RJFF 230930Z 28012KT 240V310 9999 FEW035 03/M08 Q1020 RMK     1CU035 A3013=,
20180123_100000.002,0,RJFF,,,,0,20180123100000,-1,-1,-1,-1,270,-1,10,-1,-1,230,320,,9999,0,0,2,FEW 35   SCT 45,1,3,-1,7,1020,RJFF 231000Z 27010KT 230V320 9999 FEW035 SCT045 03/M07 Q1020     RMK 1CU035 3CU045 A3014=,
20180123_103000.001,0,RJFF,,,,0,20180123100000,-1,-1,-1,-1,290,-1,14,-1,-1,250,330,,9999,0,0,2,FEW 30   SCT 40,1,3,-1,9,1020,RJFF 231030Z 29014KT 250V330 9999 FEW030 SCT040 03/M09 Q1020     RMK 1CU030 3CU040 A3013=,
20180123_110000.002,0,RJFF,,,,0,20180123110000,-1,-1,-1,-1,300,-1,12,-1,-1,260,330,,9999,0,0,2,FEW 30   BKN 40,1,3,-1,7,1020,RJFF 231100Z 30012KT 260V330 9999 FEW030 BKN040 03/M07 Q1020     RMK 1CU030 5CU040 A3013=,
20180123_113000.001,0,RJFF,,,,0,20180123110000,-1,-1,-1,-1,280,-1,12,-1,-1,240,320,,9999,0,0,2,FEW 35   BKN 45,1,3,-1,6,1020,RJFF 231130Z 28012KT 240V320 9999 FEW035 BKN045 03/M06 Q1020     RMK 1CU035 5CU045 A3013=,
20180123_120000.002,0,RJFF,,,,0,20180123120000,-1,-1,-1,-1,280,-1,14,-1,-1,250,320,,9999,0,0,2,FEW 35   BKN 45,1,3,-1,7,1020,RJFF 231200Z 28014KT 250V320 9999 FEW035 BKN045 03/M07 Q1020     RMK 2CU035 5CU045 A3014=,
20180123_123000.001,0,RJFF,,,,0,20180123120000,-1,-1,-1,-1,290,-1,11,-1,-1,260,320,,9999,0,0,2,FEW 35   BKN 45,1,3,-1,7,1020,RJFF 231230Z 29011KT 260V320 9999 FEW035 BKN045 03/M07 Q1020     RMK 1CU035 5CU045 A3015=,
20180123_130000.002,0,RJFF,,,,0,20180123130000,-1,-1,-1,-1,290,-1,11,-1,21,240,310,,9999,0,0,2,FEW 35   BKN 45,1,3,-1,7,1020,RJFF 231300Z 29011G21KT 240V310 9999 FEW035 BKN045 03/M07     Q1020 RMK 1CU035 6CU045 A3014=,
20180123_133000.001,0,RJFF,,,,0,20180123130000,-1,-1,-1,-1,300,-1,15,-1,-1,-1,-1,,9999,0,0,2,FEW 35   BKN 45,1,3,-1,6,1020,RJFF 231330Z 30015KT 9999 FEW035 BKN045 03/M06 Q1020 RMK     1CU035 6CU045 A3015=,
20180123_140000.002,0,RJFF,,,,1,20180123140000,-1,-1,-1,-1,300,-1,12,-1,23,260,340,,9999,0,0,3,SCT 39   BKN 45   BKN 49,1,3,-1,6,1021,RJFF 231400Z AUTO 30012G23KT 260V340 9999 SCT039 BKN045 BKN049     03/M06 Q1021 RMK A3015=,
20180123_143000.001,0,RJFF,,,,1,20180123140000,-1,-1,-1,-1,300,-1,13,-1,23,-1,-1,,9999,0,0,3,FEW 40   BKN 44   OVC 50,1,2,-1,7,1021,RJFF 231430Z AUTO 30013G23KT 9999 FEW040 BKN044 OVC050 02/M07     Q1021 RMK A3016=,
20180123_150000.002,0,RJFF,,,,1,20180123150000,-1,-1,-1,-1,300,-1,15,-1,-1,-1,-1,,9999,0,0,3,FEW 41   SCT 48   OVC 50,1,2,-1,7,1021,RJFF 231500Z AUTO 30015KT 9999 FEW041 SCT048 OVC050 02/M07     Q1021 RMK A3016=,
20180123_153000.001,0,RJFF,,,,1,20180123150000,-1,-1,-1,-1,300,-1,12,-1,-1,260,320,,9999,0,0,3,FEW 37   SCT 44   BKN 49,1,2,-1,7,1021,RJFF 231530Z AUTO 30012KT 260V320 9999 FEW037 SCT044 BKN049     02/M07 Q1021 RMK A3017=,
20180123_160000.002,0,RJFF,,,,1,20180123160000,-1,-1,-1,-1,300,-1,13,-1,-1,270,330,,9999,0,0,3,FEW 41   SCT 46   BKN 50,1,2,-1,7,1021,RJFF 231600Z AUTO 30013KT 270V330 9999 FEW041 SCT046 BKN050     02/M07 Q1021 RMK A3016=,
20180123_163000.001,0,RJFF,,,,1,20180123160000,-1,-1,-1,-1,290,-1,12,-1,-1,250,320,,9999,0,0,3,FEW 39   BKN 50   OVC 150,1,2,-1,8,1021,RJFF 231630Z AUTO 29012KT 250V320 9999 FEW039 BKN050 OVC150     02/M08 Q1021 RMK A3017=,
20180123_170000.002,0,RJFF,,,,1,20180123170000,-1,-1,-1,-1,300,-1,13,-1,-1,270,330,,9999,0,0,3,FEW 40   SCT 45   BKN 50,1,2,-1,8,1021,RJFF 231700Z AUTO 30013KT 270V330 9999 FEW040 SCT045 BKN050     02/M08 Q1021 RMK A3017=,
20180123_173000.001,0,RJFF,,,,1,20180123170000,-1,-1,-1,-1,300,-1,14,-1,24,-1,-1,,9999,0,0,2,FEW 41   BKN 50,1,2,-1,9,1021,RJFF 231730Z AUTO 30014G24KT 9999 FEW041 BKN050 02/M09 Q1021     RMK A3017=,
20180123_180000.002,0,RJFF,,,,1,20180123180000,-1,-1,-1,-1,300,-1,14,-1,25,260,330,,9999,0,0,3,FEW 39   BKN 50   OVC 60,1,2,-1,8,1021,RJFF 231800Z AUTO 30014G25KT 260V330 9999 FEW039 BKN050 OVC060     02/M08 Q1021 RMK A3017=,
20180123_183000.001,0,RJFF,,,,1,20180123180000,-1,-1,-1,-1,300,-1,11,-1,-1,260,320,,9000,0,0,2,FEW 41   BKN 50,1,2,-1,7,1021,RJFF 231830Z AUTO 30011KT 260V320 9000 FEW041 BKN050 02/M07     Q1021 RMK A3016=,
20180123_190000.002,0,RJFF,,,,1,20180123190000,-1,-1,-1,-1,290,-1,13,-1,-1,260,330,,9999,0,0,3,FEW 38   SCT 49   BKN 50,1,2,-1,7,1021,RJFF 231900Z AUTO 29013KT 260V330 9999 FEW038 SCT049 BKN050     02/M07 Q1021 RMK A3016=,
20180123_193000.001,0,RJFF,,,,1,20180123190000,-1,-1,-1,-1,300,-1,13,-1,-1,-1,-1,,9999,0,0,3,FEW 37   SCT 49   BKN 60,1,2,-1,8,1021,RJFF 231930Z AUTO 30013KT 9999 FEW037 SCT049 BKN060 02/M08     Q1021 RMK A3016=,
20180123_200000.002,0,RJFF,,,,1,20180123200000,-1,-1,-1,-1,290,-1,13,-1,-1,260,330,,9999,0,1,3,SCT 37   BKN 41   BKN 49,1,1,-1,6,1021,RJFF 232000Z AUTO 29013KT 260V330 9999 -SN SCT037 BKN041     BKN049 01/M06 Q1021 RMK A3017=,- SN
20180123_203000.001,0,RJFF,,,,1,20180123200000,-1,-1,-1,-1,290,-1,10,-1,-1,240,320,,9999,0,0,3,FEW 37   BKN 50   OVC 60,1,1,-1,8,1021,RJFF 232030Z AUTO 29010KT 240V320 9999 FEW037 BKN050 OVC060     01/M08 Q1021 RMK A3017=,
20180123_210000.002,0,RJFF,,,,0,20180123210000,-1,-1,-1,-1,290,-1,12,-1,-1,260,330,,9999,0,0,3,FEW 30   SCT 40   BKN 50,1,1,-1,8,1021,RJFF 232100Z 29012KT 260V330 9999 FEW030 SCT040 BKN050 01/M08     Q1021 RMK 1CU030 4CU040 6SC050 A3018=,
20180123_213000.001,0,RJFF,,,,0,20180123210000,-1,-1,-1,-1,290,-1,15,-1,-1,250,320,,9999,0,0,3,FEW 30   SCT 40   BKN 50,1,1,-1,9,1022,RJFF 232130Z 29015KT 250V320 9999 FEW030 SCT040 BKN050 01/M09     Q1022 RMK 1CU030 3CU040 6SC050 A3019=,
20180123_220000.002,0,RJFF,,,,0,20180123220000,-1,-1,-1,-1,290,-1,13,-1,-1,260,330,,9999,0,0,3,FEW 30   SCT 40   BKN 50,1,1,-1,8,1022,RJFF 232200Z 29013KT 260V330 9999 FEW030 SCT040 BKN050 01/M08     Q1022 RMK 1CU030 4CU040 6SC050 A3020=,
20180123_223000.002,0,RJFF,,,,0,20180123220000,-1,-1,-1,-1,300,-1,11,-1,-1,250,330,,9999,0,1,3,FEW 30   BKN 40   BKN 50,1,1,-1,7,1022,RJFF 232230Z 30011KT 250V330 9999 VCSH FEW030 BKN040 BKN050     01/M07 Q1022 RMK 1CU030 5CU040 6SC050 A3021=,VC SH
20180123_230000.002,0,RJFF,,,,0,20180123230000,-1,-1,-1,-1,290,-1,14,-1,-1,250,320,,9999,0,1,3,FEW 30   SCT 40   BKN 50,1,1,-1,9,1023,RJFF 232300Z 29014KT 250V320 9999 VCSH FEW030 SCT040 BKN050     01/M09 Q1023 RMK 1CU030 3CU040 5SC050 A3021=,VC SH
20180123_233000.001,0,RJFF,,,,0,20180123230000,-1,-1,-1,-1,290,-1,12,-1,-1,250,320,,9999,0,1,3,FEW 30   SCT 40   BKN 50,1,1,-1,10,1023,RJFF 232330Z 29012KT 250V320 9999 VCSH FEW030 SCT040 BKN050     01/M10 Q1023 RMK 1CU030 3CU040 5SC050 A3021=,VC SH
20180124_000000.002,0,RJFF,,,,0,20180124000000,-1,-1,-1,-1,290,-1,13,-1,24,260,340,,9999,0,1,3,FEW 25   SCT 40   BKN 50,1,2,-1,10,1023,RJFF 240000Z 29013G24KT 260V340 9999 VCSH FEW025 SCT040 BKN050     02/M10 Q1023 RMK 1CU025 4CU040 6SC050 A3022=,VC SH
20180124_003000.001,0,RJFF,,,,0,20180124000000,-1,-1,-1,-1,310,-1,15,-1,-1,270,340,,5000,0,1,3,FEW 15   SCT 30   BKN 45,1,1,-1,6,1023,RJFF 240030Z 31015KT 270V340 5000 -SHSN FEW015 SCT030 BKN045     01/M06 Q1023 RMK 1CU015 4CU030 6SC045 A3023=,- SN SH
20180124_010000.003,0,RJFF,,,,0,20180124010000,-1,-1,-1,-1,310,-1,12,-1,22,280,350,,9999,0,1,3,FEW 15   SCT 30   BKN 40,1,1,-1,7,1024,RJFF 240100Z 31012G22KT 280V350 9999 VCSH FEW015 SCT030 BKN040     01/M07 Q1024 RMK 1CU015 3CU030 6CU040 A3024=,VC SH
20180124_013000.001,0,RJFF,,,,0,20180124010000,-1,-1,-1,-1,310,-1,15,-1,-1,-1,-1,,9999,0,1,3,FEW 20   SCT 30   BKN 40,1,1,-1,8,1024,RJFF 240130Z 31015KT 9999 -SHSN FEW020 SCT030 BKN040 01/M08     Q1024 RMK 1CU020 3CU030 6CU040 A3024=,- SN SH
20180124_020000.002,0,RJFF,,,,0,20180124020000,-1,-1,-1,-1,310,-1,15,-1,25,-1,-1,,9999,0,0,2,FEW 20   SCT 35,1,2,-1,9,1023,RJFF 240200Z 31015G25KT 9999 FEW020 SCT035 02/M09 Q1023 RMK     1CU020 3CU035 A3023=,
20180124_023000.001,0,RJFF,,,,0,20180124020000,-1,-1,-1,-1,300,-1,16,-1,-1,270,330,,9999,0,0,2,FEW 20   SCT 35,1,2,-1,10,1023,RJFF 240230Z 30016KT 270V330 9999 FEW020 SCT035 02/M10 Q1023     RMK 1CU020 3CU035 A3023=,
20180124_030000.002,0,RJFF,,,,0,20180124030000,-1,-1,-1,-1,310,-1,15,-1,-1,-1,-1,,9999,0,0,2,FEW 20   SCT 40,1,2,-1,9,1023,RJFF 240300Z 31015KT 9999 FEW020 SCT040 02/M09 Q1023 RMK     1CU020 4CU040 A3023=,
20180124_033000.001,0,RJFF,,,,0,20180124030000,-1,-1,-1,-1,300,-1,14,-1,25,-1,-1,,9999,0,0,3,FEW 20   SCT 35   BKN 45,1,1,-1,9,1023,RJFF 240330Z 30014G25KT 9999 FEW020 SCT035 BKN045 01/M09 Q1023     RMK 1CU020 3CU035 6SC045 A3021=,
20180124_040000.002,0,RJFF,,,,0,20180124040000,-1,-1,-1,-1,310,-1,14,-1,-1,-1,-1,,9999,0,1,3,FEW 15   BKN 30   BKN 40,1,1,-1,6,1023,RJFF 240400Z 31014KT 9999 -SHSN FEW015 BKN030 BKN040 01/M06     Q1023 RMK 1CU015 5CU030 6CU040 A3021=,- SN SH
20180124_043000.001,0,RJFF,,,,0,20180124040000,-1,-1,-1,-1,310,-1,16,-1,26,290,350,,9999,0,1,3,FEW 15   BKN 30   BKN 40,1,1,-1,6,1023,RJFF 240430Z 31016G26KT 290V350 9999 -SHSN FEW015 BKN030     BKN040 01/M06 Q1023 RMK 1CU015 5CU030 6CU040 A3021=,- SN SH
20180124_050000.002,0,RJFF,,,,0,20180124050000,-1,-1,-1,-1,320,-1,15,-1,-1,-1,-1,,9999,0,1,3,FEW 15   SCT 30   BKN 40,1,1,-1,7,1022,RJFF 240500Z 32015KT 9999 VCSH FEW015 SCT030 BKN040 01/M07     Q1022 RMK 1CU015 4CU030 5CU040 A3021=,VC SH
20180124_053000.001,0,RJFF,,,,0,20180124050000,-1,-1,-1,-1,310,-1,15,-1,-1,-1,-1,,9999,0,1,3,FEW 15   SCT 30   BKN 40,1,1,-1,7,1022,RJFF 240530Z 31015KT 9999 -SHSN FEW015 SCT030 BKN040 01/M07     Q1022 RMK 1CU015 4CU030 6CU040 A3021=,- SN SH
20180124_060000.002,0,RJFF,,,,0,20180124060000,-1,-1,-1,-1,330,-1,15,-1,-1,-1,-1,,9999,0,1,3,FEW 25   SCT 30   BKN 40,1,1,-1,7,1022,RJFF 240600Z 33015KT 9999 VCSH FEW025 SCT030 BKN040 01/M07     Q1022 RMK 1CU025 3CU030 6CU040 A3020=,VC SH
20180124_063000.001,0,RJFF,,,,0,20180124060000,-1,-1,-1,-1,330,-1,14,-1,-1,-1,-1,,9999,0,0,3,FEW 25   SCT 30   BKN 45,1,1,-1,8,1022,RJFF 240630Z 33014KT 9999 FEW025 SCT030 BKN045 01/M08 Q1022     RMK 1CU025 3CU030 6CU045 A3020=,
20180124_070000.002,0,RJFF,,,,0,20180124070000,-1,-1,-1,-1,330,-1,13,-1,-1,-1,-1,,9999,0,0,3,FEW 30   SCT 35   BKN 45,1,0,-1,9,1022,RJFF 240700Z 33013KT 9999 FEW030 SCT035 BKN045 00/M09 Q1022     RMK 1CU030 3CU035 5CU045 A3021=,
20180124_073000.001,0,RJFF,,,,0,20180124070000,-1,-1,-1,-1,330,-1,12,-1,-1,-1,-1,,9999,0,1,3,FEW 30   SCT 35   BKN 45,1,1,-1,9,1023,RJFF 240730Z 33012KT 9999 VCSH FEW030 SCT035 BKN045 01/M09     Q1023 RMK 1CU030 3CU035 5CU045 A3021=,VC SH
20180124_080000.002,0,RJFF,,,,0,20180124080000,-1,-1,-1,-1,330,-1,11,-1,-1,-1,-1,,9999,0,1,3,FEW 25   SCT 35   BKN 40,1,0,-1,9,1023,RJFF 240800Z 33011KT 9999 VCSH FEW025 SCT035 BKN040 00/M09     Q1023 RMK 1CU025 3CU035 5CU040 A3021=,VC SH
20180124_083000.001,0,RJFF,,,,0,20180124080000,-1,-1,-1,-1,320,-1,10,-1,-1,280,340,,9999,0,1,2,FEW 25   BKN 40,1,0,-1,9,1023,RJFF 240830Z 32010KT 280V340 9999 VCSH FEW025 BKN040 00/M09     Q1023 RMK 1CU025 5CU040 A3022=,VC SH
20180124_090000.003,0,RJFF,,,,0,20180124090000,-1,-1,-1,-1,320,-1,11,-1,-1,-1,-1,,9999,0,1,3,FEW 25   SCT 35   BKN 40,-1,0,-1,9,1023,RJFF 240900Z 32011KT 9999 VCSH FEW025 SCT035 BKN040 M00/M09     Q1023 RMK 1CU025 3CU035 5CU040 A3021=,VC SH
20180124_093000.001,0,RJFF,,,,0,20180124090000,-1,-1,-1,-1,330,-1,11,-1,-1,-1,-1,,9999,0,1,3,FEW 25   SCT 30   BKN 40,1,0,-1,9,1022,RJFF 240930Z 33011KT 9999 VCSH FEW025 SCT030 BKN040 00/M09     Q1022 RMK 1CU025 3CU030 5CU040 A3020=,VC SH
20180124_100000.002,0,RJFF,,,,0,20180124100000,-1,-1,-1,-1,330,-1,11,-1,-1,-1,-1,,9999,0,0,2,FEW 30   SCT 40,-1,0,-1,9,1022,RJFF 241000Z 33011KT 9999 FEW030 SCT040 M00/M09 Q1022 RMK     1CU030 4CU040 A3020=,
20180124_103000.001,0,RJFF,,,,0,20180124100000,-1,-1,-1,-1,330,-1,11,-1,-1,290,360,,9999,0,0,2,FEW 30   BKN 45,1,0,-1,8,1022,RJFF 241030Z 33011KT 290V360 9999 FEW030 BKN045 00/M08 Q1022     RMK 1CU030 5CU045 A3020=,
20180124_110000.002,0,RJFF,,,,0,20180124110000,-1,-1,-1,-1,330,-1,10,-1,-1,-1,-1,,9999,0,0,2,FEW 25   BKN 40,1,0,-1,8,1022,RJFF 241100Z 33010KT 9999 FEW025 BKN040 00/M08 Q1022 RMK     1CU025 5CU040 A3020=,
20180124_113000.001,0,RJFF,,,,0,20180124110000,-1,-1,-1,-1,330,-1,10,-1,-1,-1,-1,,9999,0,0,2,FEW 30   BKN 50,1,0,-1,9,1023,RJFF 241130Z 33010KT 9999 FEW030 BKN050 00/M09 Q1023 RMK     1CU030 5SC050 A3021=,
20180124_120000.002,0,RJFF,,,,0,20180124120000,-1,-1,-1,-1,330,-1,9,-1,-1,-1,-1,,9999,0,0,2,FEW 35   BKN 50,1,1,-1,8,1022,RJFF 241200Z 33009KT 9999 FEW035 BKN050 01/M08 Q1022 RMK     1CU035 6SC050 A3021=,
20180124_123000.001,0,RJFF,,,,0,20180124120000,-1,-1,-1,-1,310,-1,9,-1,-1,-1,-1,,9999,0,0,2,FEW 30   BKN 50,1,1,-1,9,1023,RJFF 241230Z 31009KT 9999 FEW030 BKN050 01/M09 Q1023 RMK     1CU030 7SC050 A3021=,
20180124_130000.002,0,RJFF,,,,0,20180124130000,-1,-1,-1,-1,320,-1,7,-1,-1,280,340,,9999,0,0,3,FEW 25   SCT 40   BKN 50,1,1,-1,8,1023,RJFF 241300Z 32007KT 280V340 9999 FEW025 SCT040 BKN050 01/M08     Q1023 RMK 1CU025 3CU040 7SC050 A3021=,
20180124_133000.001,0,RJFF,,,,0,20180124130000,-1,-1,-1,-1,330,-1,14,-1,-1,-1,-1,,9999,0,0,2,FEW 25   BKN 50,1,1,-1,10,1022,RJFF 241330Z 33014KT 9999 FEW025 BKN050 01/M10 Q1022 RMK     1CU025 5SC050 A3020=,
20180124_140000.003,0,RJFF,,,,1,20180124140000,-1,-1,-1,-1,340,-1,14,-1,-1,-1,-1,,9999,0,0,2,BKN 46   BKN 50,1,1,-1,9,1022,RJFF 241400Z AUTO 34014KT 9999 BKN046 BKN050 01/M09 Q1022 RMK     A3020=,
20180124_143000.001,0,RJFF,,,,1,20180124140000,-1,-1,-1,-1,330,-1,14,-1,-1,-1,-1,,9999,0,0,1,SCT 47,1,1,-1,10,1022,RJFF 241430Z AUTO 33014KT 9999 SCT047 01/M10 Q1022 RMK A3018=,
20180124_150000.002,0,RJFF,,,,1,20180124150000,-1,-1,-1,-1,330,-1,14,-1,-1,-1,-1,,9999,0,0,2,FEW 41   SCT 45,1,1,-1,10,1022,RJFF 241500Z AUTO 33014KT 9999 FEW041 SCT045 01/M10 Q1022 RMK     A3019=,
20180124_153000.001,0,RJFF,,,,1,20180124150000,-1,-1,-1,-1,330,-1,12,-1,-1,-1,-1,,9999,0,0,2,SCT 45   BKN 50,1,1,-1,9,1022,RJFF 241530Z AUTO 33012KT 9999 SCT045 BKN050 01/M09 Q1022 RMK     A3019=,
20180124_160000.002,0,RJFF,,,,1,20180124160000,-1,-1,-1,-1,330,-1,11,-1,-1,-1,-1,,9999,0,0,2,BKN 45   BKN 50,1,1,-1,10,1022,RJFF 241600Z AUTO 33011KT 9999 BKN045 BKN050 01/M10 Q1022 RMK     A3020=,
20180124_163000.001,0,RJFF,,,,1,20180124160000,-1,-1,-1,-1,330,-1,13,-1,-1,-1,-1,,9999,0,0,3,BKN 42   BKN 46   OVC 48,1,1,-1,8,1022,RJFF 241630Z AUTO 33013KT 9999 BKN042 BKN046 OVC048 01/M08     Q1022 RMK A3021=,
20180124_170000.002,0,RJFF,,,,1,20180124170000,-1,-1,-1,-1,330,-1,12,-1,-1,-1,-1,,9999,0,0,2,FEW 39   BKN 42,-1,0,-1,9,1023,RJFF 241700Z AUTO 33012KT 9999 FEW039 BKN042 M00/M09 Q1023 RMK     A3023=,
20180124_173000.001,0,RJFF,,,,1,20180124170000,-1,-1,-1,-1,330,-1,9,-1,-1,290,360,,9999,0,0,2,FEW 38   BKN 45,-1,0,-1,9,1023,RJFF 241730Z AUTO 33009KT 290V360 9999 FEW038 BKN045 M00/M09     Q1023 RMK A3023=,
20180124_180000.002,0,RJFF,,,,1,20180124180000,-1,-1,-1,-1,310,-1,11,-1,-1,-1,-1,,9999,0,0,3,BKN 37   BKN 43   OVC 46,1,0,-1,8,1023,RJFF 241800Z AUTO 31011KT 9999 BKN037 BKN043 OVC046 00/M08     Q1023 RMK A3022=,
20180124_183000.001,0,RJFF,,,,1,20180124180000,-1,-1,-1,-1,320,-1,11,-1,-1,-1,-1,,9999,0,0,3,SCT 35   BKN 39   OVC 50,1,0,-1,8,1023,RJFF 241830Z AUTO 32011KT 9999 SCT035 BKN039 OVC050 00/M08     Q1023 RMK A3022=,
20180124_190000.003,0,RJFF,,,,1,20180124190000,-1,-1,-1,-1,330,-1,11,-1,-1,-1,-1,,9999,0,1,3,SCT 37   BKN 40   OVC 46,1,0,-1,8,1023,RJFF 241900Z AUTO 33011KT 9999 -SN SCT037 BKN040 OVC046 00/M08     Q1023 RMK A3021=,- SN
20180124_193000.001,0,RJFF,,,,1,20180124190000,-1,-1,-1,-1,330,-1,11,-1,-1,-1,-1,,9999,0,0,2,BKN 35   BKN 44,-1,0,-1,8,1023,RJFF 241930Z AUTO 33011KT 9999 BKN035 BKN044 M00/M08 Q1023 RMK     A3021=,
20180124_200000.002,0,RJFF,,,,1,20180124200000,-1,-1,-1,-1,320,-1,10,-1,-1,-1,-1,,9999,0,0,3,FEW 32   SCT 37   BKN 43,-1,0,-1,8,1023,RJFF 242000Z AUTO 32010KT 9999 FEW032 SCT037 BKN043 M00/M08     Q1023 RMK A3021=,
20180124_203000.001,0,RJFF,,,,1,20180124200000,-1,-1,-1,-1,330,-1,11,-1,-1,-1,-1,,9999,0,0,3,SCT 33   BKN 41   OVC 49,-1,0,-1,8,1023,RJFF 242030Z AUTO 33011KT 9999 SCT033 BKN041 OVC049 M00/M08     Q1023 RMK A3022=,
20180124_210000.002,0,RJFF,,,,0,20180124210000,-1,-1,-1,-1,340,-1,10,-1,-1,-1,-1,,9999,0,1,3,FEW 20   SCT 35   BKN 40,1,0,-1,8,1023,RJFF 242100Z 34010KT 9999 VCSH FEW020 SCT035 BKN040 00/M08     Q1023 RMK 1CU020 3CU035 6CU040 A3023=,VC SH
20180124_213000.001,0,RJFF,,,,0,20180124210000,-1,-1,-1,-1,320,-1,10,-1,-1,-1,-1,,9999,0,0,3,FEW 30   SCT 40   BKN 45,1,0,-1,8,1023,RJFF 242130Z 32010KT 9999 FEW030 SCT040 BKN045 00/M08 Q1023     RMK 1CU030 3CU040 6CU045 A3023=,
20180124_220000.002,0,RJFF,,,,0,20180124220000,-1,-1,-1,-1,330,-1,10,-1,-1,-1,-1,,9999,0,1,3,FEW 20   SCT 30   BKN 40,1,0,-1,8,1023,RJFF 242200Z 33010KT 9999 VCSH FEW020 SCT030 BKN040 00/M08     Q1023 RMK 1CU020 3CU030 6CU040 A3023=,VC SH
20180124_223000.002,0,RJFF,,,,0,20180124220000,-1,-1,-1,-1,330,-1,9,-1,-1,310,10,,9999,0,1,3,FEW 15   SCT 30   BKN 40,1,0,-1,7,1023,RJFF 242230Z 33009KT 310V010 9999 -SHSN FEW015 SCT030 BKN040     00/M07 Q1023 RMK 1CU015 4CU030 7CU040 A3023=,- SN SH
20180124_230000.002,0,RJFF,,,,0,20180124230000,-1,-1,-1,-1,350,-1,8,-1,-1,-1,-1,,9999,0,1,3,FEW 15   SCT 30   BKN 40,1,1,-1,7,1024,RJFF 242300Z 35008KT 9999 -SHSN FEW015 SCT030 BKN040 01/M07     Q1024 RMK 1CU015 4CU030 7CU040 A3024=,- SN SH
20180124_233000.001,0,RJFF,,,,0,20180124230000,-1,-1,-1,-1,330,-1,7,-1,-1,300,360,,9999,0,1,3,FEW 15   SCT 30   BKN 40,1,1,-1,7,1023,RJFF 242330Z 33007KT 300V360 9999 VCSH FEW015 SCT030 BKN040     01/M07 Q1023 RMK 1CU015 4CU030 6CU040 A3023=,VC SH
20180125_000000.002,0,RJFF,,,,0,20180125000000,-1,-1,-1,-1,310,-1,8,-1,-1,240,340,,9999,0,1,3,FEW 20   SCT 30   BKN 40,1,1,-1,7,1024,RJFF 250000Z 31008KT 240V340 9999 -SHSN FEW020 SCT030 BKN040     01/M07 Q1024 RMK 1CU020 3CU030 7CU040 A3025=,- SN SH
20180125_003000.001,0,RJFF,,,,0,20180125000000,-1,-1,-1,-1,320,-1,9,-1,-1,-1,-1,,9999,0,0,3,FEW 20   SCT 30   BKN 40,1,1,-1,7,1024,RJFF 250030Z 32009KT 9999 FEW020 SCT030 BKN040 01/M07 Q1024     RMK 1CU020 3CU030 7CU040 A3024=,
20180125_010000.002,0,RJFF,,,,0,20180125010000,-1,-1,-1,-1,310,-1,9,-1,-1,-1,-1,,9999,0,0,3,FEW 20   SCT 40   BKN 50,1,2,-1,8,1024,RJFF 250100Z 31009KT 9999 FEW020 SCT040 BKN050 02/M08 Q1024     RMK 1CU020 4CU040 7SC050 A3025=,
20180125_013000.001,0,RJFF,,,,0,20180125010000,-1,-1,-1,-1,330,-1,8,-1,-1,290,20,,9999,0,0,3,FEW 20   SCT 40   BKN 50,1,2,-1,8,1024,RJFF 250130Z 33008KT 290V020 9999 FEW020 SCT040 BKN050 02/M08     Q1024 RMK 1CU020 4CU040 7SC050 A3025=,
20180125_020000.003,0,RJFF,,,,0,20180125020000,-1,-1,-1,-1,300,-1,8,-1,-1,260,360,,9999,0,0,3,FEW 20   SCT 40   BKN 50,1,2,-1,7,1024,RJFF 250200Z 30008KT 260V360 9999 FEW020 SCT040 BKN050 02/M07     Q1024 RMK 1CU020 4CU040 7SC050 A3024=,
20180125_023000.001,0,RJFF,,,,0,20180125020000,-1,-1,-1,-1,340,-1,9,-1,-1,310,20,,9999,0,0,3,FEW 20   SCT 40   BKN 50,1,2,-1,7,1023,RJFF 250230Z 34009KT 310V020 9999 FEW020 SCT040 BKN050 02/M07     Q1023 RMK 1CU020 4CU040 7SC050 A3023=,
20180125_030000.002,0,RJFF,,,,0,20180125030000,-1,-1,-1,-1,330,-1,11,-1,-1,-1,-1,,9999,0,1,3,FEW 10   SCT 35   BKN 45,1,1,-1,6,1023,RJFF 250300Z 33011KT 9999 -SHSN FEW010 SCT035 BKN045 01/M06     Q1023 RMK 1CU010 4CU035 7CU045 A3023=,- SN SH
20180125_033000.001,0,RJFF,,,,0,20180125030000,-1,-1,-1,-1,300,-1,8,-1,-1,270,340,,9999,0,1,3,FEW 15   SCT 35   BKN 45,1,3,-1,7,1022,RJFF 250330Z 30008KT 270V340 9999 VCSH FEW015 SCT035 BKN045     03/M07 Q1022 RMK 1CU015 3CU035 6CU045 A3020=,VC SH
20180125_040000.002,0,RJFF,,,,0,20180125040000,-1,-1,-1,-1,300,-1,11,-1,-1,260,330,,9999,0,0,3,FEW 15   SCT 35   BKN 45,1,2,-1,6,1022,RJFF 250400Z 30011KT 260V330 9999 FEW015 SCT035 BKN045 02/M06     Q1022 RMK 1CU015 3CU035 6CU045 A3019=,
20180125_043000.001,0,RJFF,,,,0,20180125040000,-1,-1,-1,-1,300,-1,8,-1,-1,250,340,,9999,0,0,3,FEW 15   SCT 35   BKN 45,1,2,-1,7,1022,RJFF 250430Z 30008KT 250V340 9999 FEW015 SCT035 BKN045 02/M07     Q1022 RMK 1CU015 3CU035 6CU045 A3019=,
20180125_050000.002,0,RJFF,,,,0,20180125050000,-1,-1,-1,-1,310,-1,10,-1,-1,270,330,,9999,0,0,2,FEW 30   SCT 45,1,3,-1,9,1022,RJFF 250500Z 31010KT 270V330 9999 FEW030 SCT045 03/M09 Q1022     RMK 1CU030 4CU045 A3018=,
20180125_053000.001,0,RJFF,,,,0,20180125050000,-1,-1,-1,-1,330,-1,10,-1,-1,280,350,,9999,0,0,2,FEW 35   BKN 45,1,2,-1,7,1022,RJFF 250530Z 33010KT 280V350 9999 FEW035 BKN045 02/M07 Q1022     RMK 1CU035 5CU045 A3018=,
20180125_060000.002,0,RJFF,,,,0,20180125060000,-1,-1,-1,-1,300,-1,9,-1,-1,260,340,,9999,0,0,3,FEW 30   SCT 40   BKN 45,1,3,-1,9,1021,RJFF 250600Z 30009KT 260V340 9999 FEW030 SCT040 BKN045 03/M09     Q1021 RMK 1CU030 3CU040 5CU045 A3017=,
20180125_063000.001,0,RJFF,,,,0,20180125060000,-1,-1,-1,-1,320,-1,9,-1,-1,-1,-1,,9999,0,0,2,FEW 35   BKN 45,1,3,-1,8,1021,RJFF 250630Z 32009KT 9999 FEW035 BKN045 03/M08 Q1021 RMK     1CU035 6CU045 A3017=,
20180125_070000.002,0,RJFF,,,,0,20180125070000,-1,-1,-1,-1,320,-1,9,-1,-1,280,350,,9999,0,0,2,FEW 35   BKN 45,1,2,-1,8,1021,RJFF 250700Z 32009KT 280V350 9999 FEW035 BKN045 02/M08 Q1021     RMK 1CU035 6CU045 A3017=,
20180125_073000.001,0,RJFF,,,,0,20180125070000,-1,-1,-1,-1,320,-1,9,-1,-1,280,350,,9999,0,0,2,FEW 35   BKN 45,1,2,-1,8,1021,RJFF 250730Z 32009KT 280V350 9999 FEW035 BKN045 02/M08 Q1021     RMK 1CU035 6CU045 A3016=,
20180125_080000.002,0,RJFF,,,,0,20180125080000,-1,-1,-1,-1,330,-1,8,-1,-1,-1,-1,,9999,0,0,2,FEW 35   SCT 40,1,3,-1,7,1021,RJFF 250800Z 33008KT 9999 FEW035 SCT040 03/M07 Q1021 RMK     1CU035 4CU040 A3016=,
20180125_083000.001,0,RJFF,,,,0,20180125080000,-1,-1,-1,-1,310,-1,7,-1,-1,270,340,,9999,0,0,2,FEW 35   SCT 40,1,2,-1,8,1021,RJFF 250830Z 31007KT 270V340 9999 FEW035 SCT040 02/M08 Q1021     RMK 1CU035 3CU040 A3016=,
20180125_090000.002,0,RJFF,,,,0,20180125090000,-1,-1,-1,-1,300,-1,9,-1,-1,-1,-1,,9999,0,0,2,FEW 35   SCT 40,1,2,-1,8,1021,RJFF 250900Z 30009KT 9999 FEW035 SCT040 02/M08 Q1021 RMK     1CU035 3CU040 A3017=,
20180125_093000.001,0,RJFF,,,,0,20180125090000,-1,-1,-1,-1,310,-1,8,-1,-1,-1,-1,,9999,0,0,1,FEW 35,1,2,-1,9,1021,RJFF 250930Z 31008KT 9999 FEW035 02/M09 Q1021 RMK 1CU035     A3017=,
20180125_100000.003,0,RJFF,,,,0,20180125100000,-1,-1,-1,-1,320,-1,7,-1,-1,270,340,,9999,0,0,2,FEW 35   BKN -9999,1,2,-1,9,1021,RJFF 251000Z 32007KT 270V340 9999 FEW035 BKN/// 02/M09 Q1021     RMK 1CU035 A3016=,
20180125_103000.001,0,RJFF,,,,0,20180125100000,-1,-1,-1,-1,310,-1,6,-1,-1,270,340,,9999,0,0,2,FEW 35   BKN -9999,1,2,-1,8,1021,RJFF 251030Z 31006KT 270V340 9999 FEW035 BKN/// 02/M08 Q1021     RMK 1CU035 A3016=,
20180125_110000.003,0,RJFF,,,,0,20180125110000,-1,-1,-1,-1,300,-1,6,-1,-1,280,350,,9999,0,0,2,FEW 40   BKN -9999,1,2,-1,9,1021,RJFF 251100Z 30006KT 280V350 9999 FEW040 BKN/// 02/M09 Q1021     RMK 1CU040 A3016=,
20180125_113000.001,0,RJFF,,,,0,20180125110000,-1,-1,-1,-1,300,-1,5,-1,-1,260,330,,9999,0,0,2,FEW 40   BKN -9999,1,2,-1,8,1021,RJFF 251130Z 30005KT 260V330 9999 FEW040 BKN/// 02/M08 Q1021     RMK 1CU040 A3015=,
20180125_120000.002,0,RJFF,,,,0,20180125120000,-1,-1,-1,-1,280,-1,4,-1,-1,210,330,,9999,0,0,3,FEW 40   SCT 160   BKN -9999,1,2,-1,7,1021,RJFF 251200Z 28004KT 210V330 9999 FEW040 SCT160 BKN/// 02/M07     Q1021 RMK 1CU040 3AC160 A3015=,
20180125_123000.002,0,RJFF,,,,0,20180125120000,-1,-1,-1,-1,230,-1,4,-1,-1,-1,-1,,9999,0,0,2,FEW 40   SCT 130,1,2,-1,7,1020,RJFF 251230Z 23004KT 9999 FEW040 SCT130 02/M07 Q1020 RMK     1CU040 4AC130 A3015=,
20180125_130000.002,0,RJFF,,,,0,20180125130000,-1,-1,-1,-1,220,-1,3,-1,-1,190,260,,9999,0,0,2,FEW 40   SCT 160,1,2,-1,7,1020,RJFF 251300Z 22003KT 190V260 9999 FEW040 SCT160 02/M07 Q1020     RMK 1CU040 3AC160 A3013=,
20180125_133000.001,0,RJFF,,,,0,20180125130000,-1,-1,-1,-1,300,-1,7,-1,-1,260,350,,9999,0,0,1,FEW 40,1,2,-1,7,1020,RJFF 251330Z 30007KT 260V350 9999 FEW040 02/M07 Q1020 RMK     1CU040 A3013=,
20180125_140000.002,0,RJFF,,,,1,20180125140000,-1,-1,-1,-1,300,-1,7,-1,-1,-1,-1,,9999,0,0,1,FEW 45,1,2,-1,7,1020,RJFF 251400Z AUTO 30007KT 9999 FEW045 02/M07 Q1020 RMK A3013=,
20180125_143000.001,0,RJFF,,,,1,20180125140000,-1,-1,-1,-1,300,-1,8,-1,-1,-1,-1,,9999,0,0,1,FEW 49,1,2,-1,7,1020,RJFF 251430Z AUTO 30008KT 9999 FEW049 02/M07 Q1020 RMK A3013=,
20180125_150000.002,0,RJFF,,,,1,20180125150000,-1,-1,-1,-1,310,-1,9,-1,-1,-1,-1,,9999,0,0,1,FEW 47,1,2,-1,8,1020,RJFF 251500Z AUTO 31009KT 9999 FEW047 02/M08 Q1020 RMK A3013=,
20180125_153000.001,0,RJFF,,,,1,20180125150000,-1,-1,-1,-1,310,-1,10,-1,-1,-1,-1,,9999,0,0,3,FEW 47   SCT 180   BKN 200,1,2,-1,9,1020,RJFF 251530Z AUTO 31010KT 9999 FEW047 SCT180 BKN200 02/M09     Q1020 RMK A3012=,
20180125_160000.002,0,RJFF,,,,1,20180125160000,-1,-1,-1,-1,320,-1,10,-1,-1,-1,-1,,9999,0,0,1,NSC -1,1,2,-1,7,1020,RJFF 251600Z AUTO 32010KT 9999 NSC 02/M07 Q1020 RMK A3013=,
20180125_163000.001,0,RJFF,,,,1,20180125160000,-1,-1,-1,-1,320,-1,10,-1,-1,-1,-1,,9999,0,0,2,FEW 48   SCT 50,1,3,-1,7,1020,RJFF 251630Z AUTO 32010KT 9999 FEW048 SCT050 03/M07 Q1020 RMK     A3013=,
20180125_170000.002,0,RJFF,,,,1,20180125170000,-1,-1,-1,-1,320,-1,11,-1,-1,270,340,,9999,0,0,1,NSC -1,1,2,-1,8,1020,RJFF 251700Z AUTO 32011KT 270V340 9999 NSC 02/M08 Q1020 RMK     A3013=,
20180125_173000.001,0,RJFF,,,,1,20180125170000,-1,-1,-1,-1,310,-1,10,-1,-1,-1,-1,,9999,0,0,3,SCT 45   BKN 48   BKN 50,1,2,-1,7,1020,RJFF 251730Z AUTO 31010KT 9999 SCT045 BKN048 BKN050 02/M07     Q1020 RMK A3013=,
20180125_180000.002,0,RJFF,,,,1,20180125180000,-1,-1,-1,-1,310,-1,11,-1,-1,-1,-1,,9999,0,0,2,FEW 45   SCT 48,1,2,-1,6,1020,RJFF 251800Z AUTO 31011KT 9999 FEW045 SCT048 02/M06 Q1020 RMK     A3014=,
20180125_183000.001,0,RJFF,,,,1,20180125180000,-1,-1,-1,-1,320,-1,11,-1,-1,-1,-1,,9999,0,0,3,SCT 38   SCT 43   BKN 45,1,2,-1,7,1020,RJFF 251830Z AUTO 32011KT 9999 SCT038 SCT043 BKN045 02/M07     Q1020 RMK A3013=,
20180125_190000.002,0,RJFF,,,,1,20180125190000,-1,-1,-1,-1,310,-1,12,-1,-1,260,330,,9999,0,0,3,SCT 38   BKN 45   BKN 49,1,2,-1,7,1020,RJFF 251900Z AUTO 31012KT 260V330 9999 SCT038 BKN045 BKN049     02/M07 Q1020 RMK A3013=,
20180125_193000.001,0,RJFF,,,,1,20180125190000,-1,-1,-1,-1,300,-1,12,-1,-1,-1,-1,,9999,0,0,1,FEW 42,1,2,-1,7,1020,RJFF 251930Z AUTO 30012KT 9999 FEW042 02/M07 Q1020 RMK A3013=,
20180125_200000.003,0,RJFF,,,,1,20180125200000,-1,-1,-1,-1,310,-1,11,-1,-1,-1,-1,,9999,0,0,2,FEW 40   SCT 45,1,2,-1,7,1020,RJFF 252000Z AUTO 31011KT 9999 FEW040 SCT045 02/M07 Q1020 RMK     A3013=,
20180125_203000.001,0,RJFF,,,,1,20180125200000,-1,-1,-1,-1,310,-1,10,-1,-1,-1,-1,,9999,0,0,2,SCT 40   BKN 47,1,2,-1,8,1020,RJFF 252030Z AUTO 31010KT 9999 SCT040 BKN047 02/M08 Q1020 RMK     A3013=,
20180125_210000.002,0,RJFF,,,,0,20180125210000,-1,-1,-1,-1,330,-1,13,-1,-1,-1,-1,,9999,0,0,2,FEW 35   SCT 45,1,1,-1,8,1021,RJFF 252100Z 33013KT 9999 FEW035 SCT045 01/M08 Q1021 RMK     1CU035 3CU045 A3015=,
20180125_213000.001,0,RJFF,,,,0,20180125210000,-1,-1,-1,-1,320,-1,12,-1,-1,-1,-1,,9999,0,0,2,FEW 35   SCT 45,1,1,-1,8,1021,RJFF 252130Z 32012KT 9999 FEW035 SCT045 01/M08 Q1021 RMK     1CU035 3CU045 A3015=,
20180125_220000.002,0,RJFF,,,,0,20180125220000,-1,-1,-1,-1,320,-1,12,-1,-1,-1,-1,,9999,0,0,2,FEW 35   SCT 45,1,1,-1,8,1021,RJFF 252200Z 32012KT 9999 FEW035 SCT045 01/M08 Q1021 RMK     1CU035 4CU045 A3016=,
20180125_223000.002,0,RJFF,,,,0,20180125220000,-1,-1,-1,-1,330,-1,13,-1,-1,-1,-1,,9999,0,0,2,FEW 35   BKN 45,1,1,-1,8,1021,RJFF 252230Z 33013KT 9999 FEW035 BKN045 01/M08 Q1021 RMK     1CU035 6CU045 A3017=,
20180125_230000.002,0,RJFF,,,,0,20180125230000,-1,-1,-1,-1,320,-1,14,-1,-1,-1,-1,,9999,0,0,2,FEW 35   BKN 45,1,1,-1,7,1022,RJFF 252300Z 32014KT 9999 FEW035 BKN045 01/M07 Q1022 RMK     1CU035 5CU045 A3018=,
20180125_233000.001,0,RJFF,,,,0,20180125230000,-1,-1,-1,-1,320,-1,13,-1,-1,280,350,,9999,0,0,2,FEW 35   BKN 45,1,1,-1,8,1022,RJFF 252330Z 32013KT 280V350 9999 FEW035 BKN045 01/M08 Q1022     RMK 1CU035 6CU045 A3018=,
20180126_000000.002,0,RJFF,,,,0,20180126000000,-1,-1,-1,-1,310,-1,13,-1,-1,280,340,,9999,0,0,2,FEW 35   BKN 45,1,1,-1,8,1022,RJFF 260000Z 31013KT 280V340 9999 FEW035 BKN045 01/M08 Q1022     RMK 1CU035 6CU045 A3020=,
20180126_003000.001,0,RJFF,,,,0,20180126000000,-1,-1,-1,-1,320,-1,12,-1,-1,280,350,,9999,0,0,2,FEW 30   BKN 40,1,1,-1,7,1023,RJFF 260030Z 32012KT 280V350 9999 FEW030 BKN040 01/M07 Q1023     RMK 1CU030 6CU040 A3021=,
20180126_010000.002,0,RJFF,,,,0,20180126010000,-1,-1,-1,-1,320,-1,14,-1,-1,-1,-1,,9999,0,0,2,FEW 30   BKN 40,1,1,-1,7,1023,RJFF 260100Z 32014KT 9999 FEW030 BKN040 01/M07 Q1023 RMK     1CU030 6CU040 A3021=,
20180126_013000.001,0,RJFF,,,,0,20180126010000,-1,-1,-1,-1,330,-1,14,-1,-1,-1,-1,,9999,0,0,2,FEW 30   BKN 40,1,2,-1,7,1023,RJFF 260130Z 33014KT 9999 FEW030 BKN040 02/M07 Q1023 RMK     1CU030 6CU040 A3021=,
20180126_020000.002,0,RJFF,,,,0,20180126020000,-1,-1,-1,-1,320,-1,14,-1,-1,-1,-1,,9999,0,0,2,FEW 30   BKN 40,1,2,-1,6,1023,RJFF 260200Z 32014KT 9999 FEW030 BKN040 02/M06 Q1023 RMK     1CU030 6CU040 A3021=,
20180126_023000.001,0,RJFF,,,,0,20180126020000,-1,-1,-1,-1,330,-1,13,-1,-1,-1,-1,,9999,0,0,3,FEW 30   SCT 35   BKN 40,1,2,-1,8,1022,RJFF 260230Z 33013KT 9999 FEW030 SCT035 BKN040 02/M08 Q1022     RMK 1CU030 3CU035 5CU040 A3020=,
20180126_030000.002,0,RJFF,,,,0,20180126030000,-1,-1,-1,-1,340,-1,16,-1,-1,-1,-1,,9999,0,0,3,FEW 30   SCT 35   BKN 40,1,2,-1,7,1022,RJFF 260300Z 34016KT 9999 FEW030 SCT035 BKN040 02/M07 Q1022     RMK 1CU030 3CU035 5CU040 A3019=,
20180126_033000.001,0,RJFF,,,,0,20180126030000,-1,-1,-1,-1,320,-1,13,-1,-1,290,360,,9999,0,0,3,FEW 30   SCT 35   BKN 40,1,2,-1,7,1021,RJFF 260330Z 32013KT 290V360 9999 FEW030 SCT035 BKN040 02/M07     Q1021 RMK 1CU030 3CU035 5CU040 A3018=,
20180126_040000.002,0,RJFF,,,,0,20180126040000,-1,-1,-1,-1,320,-1,13,-1,-1,290,350,,9999,0,0,2,FEW 30   BKN 40,1,1,-1,7,1021,RJFF 260400Z 32013KT 290V350 9999 FEW030 BKN040 01/M07 Q1021     RMK 1CU030 5CU040 A3018=,
20180126_043000.001,0,RJFF,,,,0,20180126040000,-1,-1,-1,-1,310,-1,13,-1,-1,270,340,,9999,0,0,2,FEW 30   BKN 40,1,2,-1,9,1021,RJFF 260430Z 31013KT 270V340 9999 FEW030 BKN040 02/M09 Q1021     RMK 1CU030 5CU040 A3017=,
20180126_050000.002,0,RJFF,,,,0,20180126050000,-1,-1,-1,-1,320,-1,12,-1,-1,290,350,,9999,0,0,2,FEW 30   BKN 40,1,2,-1,8,1021,RJFF 260500Z 32012KT 290V350 9999 FEW030 BKN040 02/M08 Q1021     RMK 1CU030 5CU040 A3016=,
20180126_053000.001,0,RJFF,,,,0,20180126050000,-1,-1,-1,-1,310,-1,11,-1,-1,-1,-1,,9999,0,0,2,FEW 30   BKN 40,1,2,-1,8,1021,RJFF 260530Z 31011KT 9999 FEW030 BKN040 02/M08 Q1021 RMK     1CU030 5CU040 A3017=,
20180126_060000.002,0,RJFF,,,,0,20180126060000,-1,-1,-1,-1,330,-1,12,-1,-1,-1,-1,,9999,0,0,2,FEW 30   SCT 40,1,2,-1,7,1021,RJFF 260600Z 33012KT 9999 FEW030 SCT040 02/M07 Q1021 RMK     1CU030 4CU040 A3017=,
20180126_063000.001,0,RJFF,,,,0,20180126060000,-1,-1,-1,-1,320,-1,13,-1,-1,290,350,,9999,0,0,2,FEW 30   BKN 40,1,3,-1,7,1021,RJFF 260630Z 32013KT 290V350 9999 FEW030 BKN040 03/M07 Q1021     RMK 1CU030 5CU040 A3017=,
20180126_070000.002,0,RJFF,,,,0,20180126070000,-1,-1,-1,-1,330,-1,12,-1,-1,-1,-1,,9999,0,0,2,FEW 30   SCT 40,1,2,-1,8,1021,RJFF 260700Z 33012KT 9999 FEW030 SCT040 02/M08 Q1021 RMK     1CU030 4CU040 A3017=,
20180126_073000.001,0,RJFF,,,,0,20180126070000,-1,-1,-1,-1,340,-1,14,-1,-1,310,10,,9999,0,0,2,FEW 30   SCT 40,1,2,-1,8,1021,RJFF 260730Z 34014KT 310V010 9999 FEW030 SCT040 02/M08 Q1021     RMK 1CU030 4CU040 A3017=,
20180126_080000.003,0,RJFF,,,,0,20180126080000,-1,-1,-1,-1,330,-1,12,-1,-1,-1,-1,,9999,0,0,2,FEW 30   SCT 40,1,2,-1,7,1021,RJFF 260800Z 33012KT 9999 FEW030 SCT040 02/M07 Q1021 RMK     1CU030 4CU040 A3017=,
20180126_083000.001,0,RJFF,,,,0,20180126080000,-1,-1,-1,-1,350,-1,11,-1,-1,-1,-1,,9999,0,0,1,BKN 35,1,1,-1,8,1021,RJFF 260830Z 35011KT 9999 BKN035 01/M08 Q1021 RMK 5CU035     A3018=,
20180126_090000.002,0,RJFF,,,,0,20180126090000,-1,-1,-1,-1,330,-1,12,-1,-1,-1,-1,,9999,0,0,1,BKN 40,1,1,-1,8,1022,RJFF 260900Z 33012KT 9999 BKN040 01/M08 Q1022 RMK 6CU040     A3019=,
20180126_093000.001,0,RJFF,,,,0,20180126090000,-1,-1,-1,-1,330,-1,12,-1,-1,-1,-1,,9999,0,0,1,BKN 40,1,1,-1,8,1022,RJFF 260930Z 33012KT 9999 BKN040 01/M08 Q1022 RMK 5CU040     A3020=,
20180126_100000.002,0,RJFF,,,,0,20180126100000,-1,-1,-1,-1,340,-1,9,-1,-1,-1,-1,,9999,0,0,1,SCT 40,1,1,-1,9,1023,RJFF 261000Z 34009KT 9999 SCT040 01/M09 Q1023 RMK 3CU040     A3021=,
20180126_103000.001,0,RJFF,,,,0,20180126100000,-1,-1,-1,-1,340,-1,10,-1,-1,-1,-1,,9999,0,0,1,BKN 40,1,1,-1,8,1023,RJFF 261030Z 34010KT 9999 BKN040 01/M08 Q1023 RMK 6CU040     A3022=,
20180126_110000.002,0,RJFF,,,,0,20180126110000,-1,-1,-1,-1,330,-1,11,-1,-1,290,360,,9999,0,0,1,BKN 40,1,1,-1,8,1023,RJFF 261100Z 33011KT 290V360 9999 BKN040 01/M08 Q1023 RMK     6CU040 A3022=,
20180126_113000.001,0,RJFF,,,,0,20180126110000,-1,-1,-1,-1,340,-1,10,-1,-1,-1,-1,,9999,0,0,1,BKN 45,1,1,-1,9,1023,RJFF 261130Z 34010KT 9999 BKN045 01/M09 Q1023 RMK 6CU045     A3023=,
20180126_120000.002,0,RJFF,,,,0,20180126120000,-1,-1,-1,-1,340,-1,8,-1,-1,-1,-1,,9999,0,0,1,BKN 45,1,1,-1,9,1023,RJFF 261200Z 34008KT 9999 BKN045 01/M09 Q1023 RMK 5CU045     A3023=,
20180126_123000.001,0,RJFF,,,,0,20180126120000,-1,-1,-1,-1,340,-1,9,-1,-1,-1,-1,,9999,0,0,1,BKN 45,1,2,-1,7,1024,RJFF 261230Z 34009KT 9999 BKN045 02/M07 Q1024 RMK 6CU045     A3024=,
20180126_130000.002,0,RJFF,,,,0,20180126130000,-1,-1,-1,-1,340,-1,8,-1,-1,-1,-1,,9999,0,0,2,FEW 30   BKN 45,1,1,-1,7,1023,RJFF 261300Z 34008KT 9999 FEW030 BKN045 01/M07 Q1023 RMK     1CU030 7CU045 A3023=,
20180126_133000.001,0,RJFF,,,,0,20180126130000,-1,-1,-1,-1,20,-1,7,-1,-1,350,50,,9999,0,1,2,FEW 30   BKN 40,1,1,-1,7,1024,RJFF 261330Z 02007KT 350V050 9999 -SHSN FEW030 BKN040 01/M07     Q1024 RMK 1CU030 7CU040 A3024=,- SN SH
20180126_140000.002,0,RJFF,,,,1,20180126140000,-1,-1,-1,-1,10,-1,8,-1,-1,-1,-1,,9999,0,0,3,FEW 42   BKN 47   OVC 50,1,1,-1,8,1023,RJFF 261400Z AUTO 01008KT 9999 FEW042 BKN047 OVC050 01/M08     Q1023 RMK A3023=,
20180126_143000.001,0,RJFF,,,,1,20180126140000,-1,-1,-1,-1,10,-1,8,-1,-1,-1,-1,,9999,0,0,3,SCT 46   BKN 49   BKN 50,1,1,-1,9,1024,RJFF 261430Z AUTO 01008KT 9999 SCT046 BKN049 BKN050 01/M09     Q1024 RMK A3024=,
20180126_150000.002,0,RJFF,,,,1,20180126150000,-1,-1,-1,-1,20,-1,6,-1,-1,340,60,,9999,0,0,2,FEW 43   OVC 49,1,1,-1,8,1024,RJFF 261500Z AUTO 02006KT 340V060 9999 FEW043 OVC049 01/M08     Q1024 RMK A3024=,
20180126_153000.001,0,RJFF,,,,1,20180126150000,-1,-1,-1,-1,40,-1,5,-1,-1,-1,-1,,9999,0,0,3,FEW 35   SCT 43   OVC 46,1,1,-1,8,1024,RJFF 261530Z AUTO 04005KT 9999 FEW035 SCT043 OVC046 01/M08     Q1024 RMK A3025=,
20180126_160000.002,0,RJFF,,,,1,20180126160000,-1,-1,-1,-1,40,-1,3,-1,-1,10,70,,9999,0,0,2,FEW 41   OVC 48,1,1,-1,8,1024,RJFF 261600Z AUTO 04003KT 010V070 9999 FEW041 OVC048 01/M08     Q1024 RMK A3025=,
20180126_163000.001,0,RJFF,,,,1,20180126160000,-1,-1,-1,-1,50,-1,4,-1,-1,-1,-1,,9999,0,0,2,FEW 44   OVC 47,1,1,-1,8,1024,RJFF 261630Z AUTO 05004KT 9999 FEW044 OVC047 01/M08 Q1024 RMK     A3025=,
20180126_170000.002,0,RJFF,,,,1,20180126170000,-1,-1,-1,-1,40,-1,5,-1,-1,20,80,,9999,0,0,2,FEW 41   OVC 47,1,1,-1,8,1024,RJFF 261700Z AUTO 04005KT 020V080 9999 FEW041 OVC047 01/M08     Q1024 RMK A3026=,
20180126_173000.001,0,RJFF,,,,1,20180126170000,-1,-1,-1,-1,50,-1,3,-1,-1,-1,-1,,9999,0,0,2,SCT 40   OVC 49,1,1,-1,8,1024,RJFF 261730Z AUTO 05003KT 9999 SCT040 OVC049 01/M08 Q1024 RMK     A3026=,
20180126_180000.002,0,RJFF,,,,1,20180126180000,-1,-1,-1,-1,60,-1,3,-1,-1,20,90,,9999,0,0,2,FEW 39   BKN 45,1,0,-1,8,1024,RJFF 261800Z AUTO 06003KT 020V090 9999 FEW039 BKN045 00/M08     Q1024 RMK A3026=,
20180126_183000.001,0,RJFF,,,,1,20180126180000,-1,-1,-1,-1,70,-1,3,-1,-1,-1,-1,,9999,0,0,1,BKN 43,1,0,-1,8,1024,RJFF 261830Z AUTO 07003KT 9999 BKN043 00/M08 Q1024 RMK A3026=,
20180126_190000.002,0,RJFF,,,,1,20180126190000,-1,-1,-1,-1,70,-1,3,-1,-1,-1,-1,,9999,0,0,1,BKN 43,-1,0,-1,8,1024,RJFF 261900Z AUTO 07003KT 9999 BKN043 M00/M08 Q1024 RMK A3024=,
20180126_193000.001,0,RJFF,,,,1,20180126190000,-1,-1,-1,-1,70,-1,2,-1,-1,-1,-1,,9999,0,0,2,FEW 40   BKN 43,-1,0,-1,8,1024,RJFF 261930Z AUTO 07002KT 9999 FEW040 BKN043 M00/M08 Q1024 RMK     A3024=,
20180126_200000.003,0,RJFF,,,,1,20180126200000,-1,-1,-1,-1,999,-1,1,-1,-1,-1,-1,,9999,0,0,1,SCT 43,-1,1,-1,8,1024,RJFF 262000Z AUTO VRB01KT 9999 SCT043 M01/M08 Q1024 RMK A3025=,
20180126_203000.001,0,RJFF,,,,1,20180126200000,-1,-1,-1,-1,140,-1,3,-1,-1,110,190,,9999,0,0,1,OVC 43,-1,0,-1,7,1024,RJFF 262030Z AUTO 14003KT 110V190 9999 OVC043 M00/M07 Q1024     RMK A3025=,
20180126_210000.002,0,RJFF,,,,0,20180126210000,-1,-1,-1,-1,140,-1,4,-1,-1,-1,-1,,9999,0,0,1,BKN 40,-1,0,-1,6,1024,RJFF 262100Z 14004KT 9999 BKN040 M00/M06 Q1024 RMK 7CU040     A3026=,
20180126_213000.001,0,RJFF,,,,0,20180126210000,-1,-1,-1,-1,170,-1,4,-1,-1,-1,-1,,9999,0,0,1,BKN 45,-1,1,-1,6,1025,RJFF 262130Z 17004KT 9999 BKN045 M01/M06 Q1025 RMK 5SC045     A3028=,
20180126_220000.002,0,RJFF,,,,0,20180126220000,-1,-1,-1,-1,160,-1,6,-1,-1,-1,-1,,9999,0,0,1,BKN 40,-1,0,-1,6,1025,RJFF 262200Z 16006KT 9999 BKN040 M00/M06 Q1025 RMK 7SC040     A3028=,
20180126_223000.002,0,RJFF,,,,0,20180126220000,-1,-1,-1,-1,140,-1,6,-1,-1,-1,-1,,9999,0,0,1,BKN 45,-1,1,-1,6,1025,RJFF 262230Z 14006KT 9999 BKN045 M01/M06 Q1025 RMK 5SC045     A3027=,
20180126_230000.002,0,RJFF,,,,0,20180126230000,-1,-1,-1,-1,180,-1,5,-1,-1,-1,-1,,9999,0,0,1,BKN 45,1,0,-1,7,1025,RJFF 262300Z 18005KT 9999 BKN045 00/M07 Q1025 RMK 7SC045     A3028=,
20180126_233000.001,0,RJFF,,,,0,20180126230000,-1,-1,-1,-1,170,-1,6,-1,-1,-1,-1,,9999,0,0,1,BKN 45,1,0,-1,7,1025,RJFF 262330Z 17006KT 9999 BKN045 00/M07 Q1025 RMK 7SC045     A3029=,
20180127_000000.002,0,RJFF,,,,0,20180127000000,-1,-1,-1,-1,160,-1,5,-1,-1,-1,-1,,9999,0,0,1,BKN 45,1,1,-1,7,1026,RJFF 270000Z 16005KT 9999 BKN045 01/M07 Q1026 RMK 6SC045     A3030=,
20180127_003000.001,0,RJFF,,,,0,20180127000000,-1,-1,-1,-1,160,-1,7,-1,-1,-1,-1,,9999,0,0,2,FEW 40   BKN 45,1,2,-1,6,1026,RJFF 270030Z 16007KT 9999 FEW040 BKN045 02/M06 Q1026 RMK     1CU040 6SC045 A3030=,
20180127_010000.002,0,RJFF,,,,0,20180127010000,-1,-1,-1,-1,170,-1,6,-1,-1,130,210,,9999,0,0,2,FEW 40   BKN 50,1,2,-1,7,1026,RJFF 270100Z 17006KT 130V210 9999 FEW040 BKN050 02/M07 Q1026     RMK 1CU040 6SC050 A3031=,
20180127_013000.001,0,RJFF,,,,0,20180127010000,-1,-1,-1,-1,150,-1,8,-1,-1,-1,-1,,9999,0,0,2,FEW 40   BKN 50,1,3,-1,6,1026,RJFF 270130Z 15008KT 9999 FEW040 BKN050 03/M06 Q1026 RMK     1CU040 7SC050 A3031=,
20180127_020000.002,0,RJFF,,,,0,20180127020000,-1,-1,-1,-1,170,-1,7,-1,-1,-1,-1,,9999,0,0,2,FEW 30   BKN 50,1,4,-1,5,1026,RJFF 270200Z 17007KT 9999 FEW030 BKN050 04/M05 Q1026 RMK     1CU030 6SC050 A3030=,
20180127_023000.001,0,RJFF,,,,0,20180127020000,-1,-1,-1,-1,160,-1,7,-1,-1,-1,-1,,9999,0,0,2,FEW 30   BKN 50,1,3,-1,5,1026,RJFF 270230Z 16007KT 9999 FEW030 BKN050 03/M05 Q1026 RMK     1CU030 7SC050 A3030=,
20180127_030000.002,0,RJFF,,,,0,20180127030000,-1,-1,-1,-1,170,-1,5,-1,-1,-1,-1,,9999,0,0,2,FEW 30   BKN 50,1,4,-1,5,1025,RJFF 270300Z 17005KT 9999 FEW030 BKN050 04/M05 Q1025 RMK     1CU030 7SC050 A3028=,
20180127_033000.001,0,RJFF,,,,0,20180127030000,-1,-1,-1,-1,120,-1,4,-1,-1,30,150,,9999,0,0,2,FEW 30   BKN 50,1,5,-1,5,1025,RJFF 270330Z 12004KT 030V150 9999 FEW030 BKN050 05/M05 Q1025     RMK 1CU030 7SC050 A3027=,
20180127_040000.002,0,RJFF,,,,0,20180127040000,-1,-1,-1,-1,999,-1,2,-1,-1,-1,-1,,9999,0,0,2,FEW 30   SCT 50,1,5,-1,5,1024,RJFF 270400Z VRB02KT 9999 FEW030 SCT050 05/M05 Q1024 RMK     1CU030 3SC050 A3025=,
20180127_043000.001,0,RJFF,,,,0,20180127040000,-1,-1,-1,-1,999,-1,4,-1,-1,-1,-1,,9999,0,0,1,FEW 30,1,6,-1,4,1024,RJFF 270430Z VRB04KT 9999 FEW030 06/M04 Q1024 RMK 1CU030     A3024=,
20180127_050000.002,0,RJFF,,,,0,20180127050000,-1,-1,-1,-1,320,-1,3,-1,-1,230,10,,9999,0,0,2,FEW 30   SCT 40,1,6,-1,5,1023,RJFF 270500Z 32003KT 230V010 9999 FEW030 SCT040 06/M05 Q1023     RMK 1CU030 3CU040 A3022=,
20180127_053000.001,0,RJFF,,,,0,20180127050000,-1,-1,-1,-1,40,-1,4,-1,-1,330,120,,9999,0,0,3,FEW 30   SCT 40   BKN 50,1,7,-1,3,1023,RJFF 270530Z 04004KT 330V120 9999 FEW030 SCT040 BKN050 07/M03     Q1023 RMK 1CU030 3CU040 5SC050 A3021=,
20180127_060000.002,0,RJFF,,,,0,20180127060000,-1,-1,-1,-1,30,-1,5,-1,-1,290,100,,9999,0,0,3,FEW 30   SCT 40   BKN 45,1,7,-1,3,1023,RJFF 270600Z 03005KT 290V100 9999 FEW030 SCT040 BKN045 07/M03     Q1023 RMK 1CU030 4CU040 5SC045 A3021=,
20180127_063000.001,0,RJFF,,,,0,20180127060000,-1,-1,-1,-1,999,-1,2,-1,-1,-1,-1,,9999,0,0,3,FEW 30   BKN 40   BKN 45,1,6,-1,3,1023,RJFF 270630Z VRB02KT 9999 FEW030 BKN040 BKN045 06/M03 Q1023     RMK 1CU030 5CU040 6SC045 A3023=,
20180127_070000.002,0,RJFF,,,,0,20180127070000,-1,-1,-1,-1,320,-1,7,-1,-1,290,30,,9999,0,0,3,FEW 30   SCT 40   BKN 45,1,7,-1,3,1023,RJFF 270700Z 32007KT 290V030 9999 FEW030 SCT040 BKN045 07/M03     Q1023 RMK 1CU030 3CU040 5SC045 A3022=,
20180127_073000.001,0,RJFF,,,,0,20180127070000,-1,-1,-1,-1,320,-1,6,-1,-1,260,20,,9999,0,0,2,FEW 25   SCT 45,1,6,-1,3,1023,RJFF 270730Z 32006KT 260V020 9999 FEW025 SCT045 06/M03 Q1023     RMK 1CU025 3SC045 A3022=,
20180127_080000.002,0,RJFF,,,,0,20180127080000,-1,-1,-1,-1,30,-1,5,-1,-1,340,80,,9999,0,0,2,FEW 40   SCT -9999,1,6,-1,3,1023,RJFF 270800Z 03005KT 340V080 9999 FEW040 SCT/// 06/M03 Q1023     RMK 1CU040 A3021=,
20180127_083000.001,0,RJFF,,,,0,20180127080000,-1,-1,-1,-1,20,-1,7,-1,-1,330,110,,9999,0,0,1,FEW 40,1,6,-1,3,1022,RJFF 270830Z 02007KT 330V110 9999 FEW040 06/M03 Q1022 RMK     1CU040 A3020=,
20180127_090000.003,0,RJFF,,,,0,20180127090000,-1,-1,-1,-1,50,-1,4,-1,-1,330,120,,9999,0,0,1,FEW 40,1,5,-1,3,1023,RJFF 270900Z 05004KT 330V120 9999 FEW040 05/M03 Q1023 RMK     1CU040 A3021=,
20180127_093000.001,0,RJFF,,,,0,20180127090000,-1,-1,-1,-1,60,-1,4,-1,-1,20,110,,9999,0,0,1,FEW 40,1,5,-1,3,1022,RJFF 270930Z 06004KT 020V110 9999 FEW040 05/M03 Q1022 RMK     1CU040 A3020=,
20180127_100000.002,0,RJFF,,,,0,20180127100000,-1,-1,-1,-1,50,-1,4,-1,-1,350,130,,9999,0,0,2,FEW 40   SCT -9999,1,4,-1,3,1022,RJFF 271000Z 05004KT 350V130 9999 FEW040 SCT/// 04/M03 Q1022     RMK 1CU040 A3021=,
20180127_103000.001,0,RJFF,,,,0,20180127100000,-1,-1,-1,-1,30,-1,4,-1,-1,340,110,,9999,0,0,1,FEW 40,1,4,-1,3,1023,RJFF 271030Z 03004KT 340V110 9999 FEW040 04/M03 Q1023 RMK     1CU040 A3021=,
20180127_110000.002,0,RJFF,,,,0,20180127110000,-1,-1,-1,-1,80,-1,4,-1,-1,10,140,,9999,0,0,1,FEW 40,1,3,-1,3,1022,RJFF 271100Z 08004KT 010V140 9999 FEW040 03/M03 Q1022 RMK     1CU040 A3020=,
20180127_113000.001,0,RJFF,,,,0,20180127110000,-1,-1,-1,-1,120,-1,4,-1,-1,80,160,,9999,0,0,2,FEW 40   BKN 150,1,2,-1,2,1023,RJFF 271130Z 12004KT 080V160 9999 FEW040 BKN150 02/M02 Q1023     RMK 1CU040 5AC150 A3021=,
20180127_120000.002,0,RJFF,,,,0,20180127120000,-1,-1,-1,-1,150,-1,4,-1,-1,-1,-1,,9999,0,0,2,FEW 40   BKN 150,1,2,-1,3,1022,RJFF 271200Z 15004KT 9999 FEW040 BKN150 02/M03 Q1022 RMK     1CU040 5AC150 A3021=,
20180127_123000.001,0,RJFF,,,,0,20180127120000,-1,-1,-1,-1,150,-1,4,-1,-1,-1,-1,,9999,0,0,3,FEW 40   SCT 130   BKN 150,1,2,-1,3,1023,RJFF 271230Z 15004KT 9999 FEW040 SCT130 BKN150 02/M03 Q1023     RMK 1CU040 3AC130 5AC150 A3021=,
20180127_130000.002,0,RJFF,,,,0,20180127130000,-1,-1,-1,-1,140,-1,3,-1,-1,70,180,CAVOK,-1,0,0,0,,1,2,-1,2,1022,RJFF 271300Z 14003KT 070V180 CAVOK 02/M02 Q1022 RMK A3020=,
20180127_133000.001,0,RJFF,,,,0,20180127130000,-1,-1,-1,-1,999,-1,2,-1,-1,-1,-1,CAVOK,-1,0,0,0,,1,2,-1,3,1022,RJFF 271330Z VRB02KT CAVOK 02/M03 Q1022 RMK A3019=,
20180127_140000.003,0,RJFF,,,,1,20180127140000,-1,-1,-1,-1,110,-1,2,-1,-1,-1,-1,,9999,0,0,1,NSC -1,1,2,-1,2,1022,RJFF 271400Z AUTO 11002KT 9999 NSC 02/M02 Q1022 RMK A3018=,
20180127_143000.001,0,RJFF,,,,1,20180127140000,-1,-1,-1,-1,110,-1,1,-1,-1,-1,-1,,9999,0,0,1,NSC -1,1,2,-1,2,1022,RJFF 271430Z AUTO 11001KT 9999 NSC 02/M02 Q1022 RMK A3018=,
20180127_150000.002,0,RJFF,,,,1,20180127150000,-1,-1,-1,-1,90,-1,1,-1,-1,-1,-1,,9999,0,0,1,NSC -1,1,2,-1,2,1022,RJFF 271500Z AUTO 09001KT 9999 NSC 02/M02 Q1022 RMK A3018=,
20180127_153000.001,0,RJFF,,,,1,20180127150000,-1,-1,-1,-1,90,-1,3,-1,-1,-1,-1,,9999,0,0,1,NSC -1,1,2,-1,3,1021,RJFF 271530Z AUTO 09003KT 9999 NSC 02/M03 Q1021 RMK A3016=,
20180127_160000.002,0,RJFF,,,,1,20180127160000,-1,-1,-1,-1,999,-1,1,-1,-1,-1,-1,,9999,0,0,1,NSC -1,1,2,-1,3,1021,RJFF 271600Z AUTO VRB01KT 9999 NSC 02/M03 Q1021 RMK A3017=,
20180127_163000.001,0,RJFF,,,,1,20180127160000,-1,-1,-1,-1,150,-1,3,-1,-1,-1,-1,,9999,0,0,1,NSC -1,1,2,-1,2,1021,RJFF 271630Z AUTO 15003KT 9999 NSC 02/M02 Q1021 RMK A3016=,
20180127_170000.002,0,RJFF,,,,1,20180127170000,-1,-1,-1,-1,130,-1,2,-1,-1,-1,-1,,9999,0,0,1,NSC -1,1,2,-1,2,1022,RJFF 271700Z AUTO 13002KT 9999 NSC 02/M02 Q1022 RMK A3018=,
20180127_173000.001,0,RJFF,,,,1,20180127170000,-1,-1,-1,-1,999,-1,1,-1,-1,-1,-1,,9999,0,0,1,NSC -1,1,3,-1,3,1021,RJFF 271730Z AUTO VRB01KT 9999 NSC 03/M03 Q1021 RMK A3016=,
20180127_180000.002,0,RJFF,,,,1,20180127180000,-1,-1,-1,-1,999,-1,1,-1,-1,-1,-1,,9999,0,0,1,NSC -1,1,3,-1,3,1021,RJFF 271800Z AUTO VRB01KT 9999 NSC 03/M03 Q1021 RMK A3015=,
20180127_183000.001,0,RJFF,,,,1,20180127180000,-1,-1,-1,-1,140,-1,4,-1,-1,-1,-1,,9999,0,0,1,NSC -1,1,3,-1,3,1020,RJFF 271830Z AUTO 14004KT 9999 NSC 03/M03 Q1020 RMK A3014=,
20180127_190000.002,0,RJFF,,,,1,20180127190000,-1,-1,-1,-1,170,-1,4,-1,-1,-1,-1,,9999,0,0,1,NSC -1,1,3,-1,3,1020,RJFF 271900Z AUTO 17004KT 9999 NSC 03/M03 Q1020 RMK A3013=,
20180127_193000.001,0,RJFF,,,,1,20180127190000,-1,-1,-1,-1,140,-1,4,-1,-1,-1,-1,,9999,0,0,3,FEW 46   BKN 50   BKN 60,1,3,-1,3,1020,RJFF 271930Z AUTO 14004KT 9999 FEW046 BKN050 BKN060 03/M03     Q1020 RMK A3013=,
20180127_200000.002,0,RJFF,,,,1,20180127200000,-1,-1,-1,-1,160,-1,5,-1,-1,-1,-1,,9999,0,0,3,FEW 24   SCT 34   OVC 38,1,3,-1,3,1019,RJFF 272000Z AUTO 16005KT 9999 FEW024 SCT034 OVC038 03/M03     Q1019 RMK A3012=,
20180127_203000.001,0,RJFF,,,,1,20180127200000,-1,-1,-1,-1,150,-1,4,-1,-1,-1,-1,,9999,0,0,3,FEW 35   BKN 70   OVC 80,1,3,-1,2,1019,RJFF 272030Z AUTO 15004KT 9999 FEW035 BKN070 OVC080 03/M02     Q1019 RMK A3011=,
20180127_210000.002,0,RJFF,,,,0,20180127210000,-1,-1,-1,-1,170,-1,2,-1,-1,-1,-1,,9999,0,0,2,FEW 40   BKN 70,1,3,-1,2,1019,RJFF 272100Z 17002KT 9999 FEW040 BKN070 03/M02 Q1019 RMK     1CU040 7AC070 A3012=,
20180127_213000.001,0,RJFF,,,,0,20180127210000,-1,-1,-1,-1,150,-1,8,-1,-1,-1,-1,,9999,0,1,2,FEW 20   BKN 30,1,3,-1,2,1019,RJFF 272130Z 15008KT 9999 -SHRA FEW020 BKN030 03/M02 Q1019 RMK     1CU020 6CU030 A3011=,- RA SH
20180127_220000.002,0,RJFF,,,,0,20180127220000,-1,-1,-1,-1,160,-1,8,-1,-1,-1,-1,,9999,0,1,2,FEW 20   BKN 40,1,2,-1,1,1019,RJFF 272200Z 16008KT 9999 -SHRA FEW020 BKN040 02/M01 Q1019 RMK     1CU020 6CU040 A3010=,- RA SH
20180127_223000.002,0,RJFF,,,,0,20180127220000,-1,-1,-1,-1,160,-1,11,-1,-1,-1,-1,,9999,0,1,3,FEW 20   SCT 30   BKN 40,1,2,-1,1,1019,RJFF 272230Z 16011KT 9999 -SHRA FEW020 SCT030 BKN040 02/M01     Q1019 RMK 1CU020 3CU030 6CU040 A3012=,- RA SH
20180127_230000.002,0,RJFF,,,,0,20180127230000,-1,-1,-1,-1,150,-1,10,-1,-1,-1,-1,,9999,0,0,2,FEW 30   BKN 70,1,2,1,0,1019,RJFF 272300Z 15010KT 9999 FEW030 BKN070 02/00 Q1019 RMK 1CU030     5AC070 A3011=,
20180127_233000.001,0,RJFF,,,,0,20180127230000,-1,-1,-1,-1,160,-1,9,-1,-1,-1,-1,,9999,0,1,3,FEW 10   SCT 40   BKN 70,1,3,1,0,1020,RJFF 272330Z 16009KT 9999 -SHRA FEW010 SCT040 BKN070 03/00     Q1020 RMK 1CU010 3CU040 7AC070 A3012=,- RA SH
20180128_000000.003,0,RJFF,,,,0,20180128000000,-1,-1,-1,-1,160,-1,10,-1,-1,-1,-1,,9999,0,1,3,FEW 20   SCT 30   BKN 70,1,3,1,1,1019,RJFF 280000Z 16010KT 9999 -SHRA FEW020 SCT030 BKN070 03/01     Q1019 RMK 1CU020 4CU030 7AC070 A3010=,- RA SH
20180128_003000.001,0,RJFF,,,,0,20180128000000,-1,-1,-1,-1,160,-1,12,-1,-1,-1,-1,,9999,0,1,3,FEW 10   SCT 40   BKN 60,1,3,1,1,1018,RJFF 280030Z 16012KT 9999 -RA FEW010 SCT040 BKN060 03/01 Q1018     RMK 1ST010 3CU040 5SC060 A3009=,- RA
20180128_010000.002,0,RJFF,,,,0,20180128010000,-1,-1,-1,-1,160,-1,10,-1,-1,-1,-1,,9999,0,1,3,FEW 8   BKN 50   BKN 70,1,4,1,1,1019,RJFF 280100Z 16010KT 9999 -RA FEW008 BKN050 BKN070 04/01 Q1019     RMK 1ST008 5SC050 7AC070 A3009=,- RA
20180128_013000.001,0,RJFF,,,,0,20180128010000,-1,-1,-1,-1,160,-1,11,-1,-1,-1,-1,,9999,0,1,3,FEW 8   BKN 50   BKN 70,1,4,1,1,1019,RJFF 280130Z 16011KT 9999 -RA FEW008 BKN050 BKN070 04/01 Q1019     RMK 1ST008 5SC050 7AC070 A3009=,- RA
20180128_020000.002,0,RJFF,,,,0,20180128020000,-1,-1,-1,-1,160,-1,11,-1,-1,-1,-1,,9999,0,1,3,FEW 10   BKN 45   BKN 70,1,5,1,2,1018,RJFF 280200Z 16011KT 9999 -RA FEW010 BKN045 BKN070 05/02 Q1018     RMK 1ST010 5SC045 7AC070 A3008=,- RA
20180128_023000.001,0,RJFF,,,,0,20180128020000,-1,-1,-1,-1,160,-1,7,-1,-1,-1,-1,,9999,0,1,3,FEW 10   SCT 30   BKN 40,1,5,1,2,1018,RJFF 280230Z 16007KT 9999 -SHRA FEW010 SCT030 BKN040 05/02     Q1018 RMK 1ST010 3CU030 5CU040 A3007=,- RA SH
20180128_030000.002,0,RJFF,,,,0,20180128030000,-1,-1,-1,-1,170,-1,4,-1,-1,140,200,,9999,0,1,3,FEW 10   SCT 30   BKN 40,1,5,1,2,1018,RJFF 280300Z 17004KT 140V200 9999 -SHRA FEW010 SCT030 BKN040     05/02 Q1018 RMK 1ST010 4CU030 6CU040 A3007=,- RA SH
20180128_033000.001,0,RJFF,,,,0,20180128030000,-1,-1,-1,-1,170,-1,5,-1,-1,130,190,,9000,0,1,3,FEW 8   SCT 25   BKN 35,1,5,1,2,1017,RJFF 280330Z 17005KT 130V190 9000 -SHRA FEW008 SCT025 BKN035     05/02 Q1017 RMK 1ST008 4CU025 6CU035 A3005=,- RA SH
20180128_040000.002,0,RJFF,,,,0,20180128040000,-1,-1,-1,-1,170,-1,3,-1,-1,120,230,,9999,0,1,3,FEW 6   BKN 15   BKN 35,1,5,1,2,1017,RJFF 280400Z 17003KT 120V230 9999 -SHRA FEW006 BKN015 BKN035     05/02 Q1017 RMK 1ST006 5CU015 6CU035 A3004=,- RA SH
20180128_043000.001,0,RJFF,,,,0,20180128040000,-1,-1,-1,-1,230,-1,4,-1,-1,190,260,,9999,0,1,3,FEW 6   SCT 10   BKN 15,1,5,1,3,1017,RJFF 280430Z 23004KT 190V260 9999 -SHRA FEW006 SCT010 BKN015     05/03 Q1017 RMK 1ST006 3CU010 6CU015 A3004=,- RA SH
20180128_050000.002,0,RJFF,,,,0,20180128050000,-1,-1,-1,-1,250,-1,5,-1,-1,220,330,,9999,0,1,3,FEW 8   SCT 15   BKN 25,1,6,1,3,1017,RJFF 280500Z 25005KT 220V330 9999 -SHRA FEW008 SCT015 BKN025     06/03 Q1017 RMK 1ST008 3CU015 6CU025 A3003=,- RA SH
20180128_053000.001,0,RJFF,,,,0,20180128050000,-1,-1,-1,-1,270,-1,6,-1,-1,240,300,,9999,0,1,3,FEW 6   SCT 10   BKN 20,1,6,1,3,1017,RJFF 280530Z 27006KT 240V300 9999 -SHRA FEW006 SCT010 BKN020     06/03 Q1017 RMK 1ST006 3CU010 6CU020 A3003=,- RA SH
20180128_060000.002,0,RJFF,,,,0,20180128060000,-1,-1,-1,-1,280,-1,7,-1,-1,-1,-1,,6000,0,1,3,FEW 6   SCT 10   BKN 20,1,6,1,3,1017,RJFF 280600Z 28007KT 6000 -SHRA FEW006 SCT010 BKN020 06/03     Q1017 RMK 1ST006 3CU010 6CU020 A3003=,- RA SH
20180128_063000.001,0,RJFF,,,,0,20180128060000,-1,-1,-1,-1,280,-1,6,-1,-1,250,310,,9000,0,1,3,FEW 6   SCT 10   BKN 20,1,6,1,3,1016,RJFF 280630Z 28006KT 250V310 9000 -SHRA FEW006 SCT010 BKN020     06/03 Q1016 RMK 1ST006 4CU010 7CU020 A3002=,- RA SH
20180128_070000.003,0,RJFF,,,,0,20180128070000,-1,-1,-1,-1,290,-1,4,-1,-1,260,320,,9999,0,1,3,FEW 10   BKN 20   BKN 30,1,6,1,4,1016,RJFF 280700Z 29004KT 260V320 9999 -SHRA FEW010 BKN020 BKN030     06/04 Q1016 RMK 1CU010 5CU020 7CU030 A3002=,- RA SH
20180128_073000.001,0,RJFF,,,,0,20180128070000,-1,-1,-1,-1,210,-1,6,-1,-1,170,240,,9999,0,0,3,FEW 8   SCT 25   BKN 30,1,5,1,3,1016,RJFF 280730Z 21006KT 170V240 9999 FEW008 SCT025 BKN030 05/03     Q1016 RMK 1ST008 4CU025 6CU030 A3003=,
20180128_080000.002,0,RJFF,,,,0,20180128080000,-1,-1,-1,-1,230,-1,4,-1,-1,200,270,,9999,0,0,3,FEW 8   SCT 40   BKN 50,1,6,1,3,1016,RJFF 280800Z 23004KT 200V270 9999 FEW008 SCT040 BKN050 06/03     Q1016 RMK 1ST008 3CU040 5SC050 A3002=,
20180128_083000.001,0,RJFF,,,,0,20180128080000,-1,-1,-1,-1,220,-1,5,-1,-1,190,260,,9999,0,0,3,FEW 8   SCT 30   BKN 35,1,6,1,2,1017,RJFF 280830Z 22005KT 190V260 9999 FEW008 SCT030 BKN035 06/02     Q1017 RMK 1ST008 3CU030 5CU035 A3003=,
20180128_090000.002,0,RJFF,,,,0,20180128090000,-1,-1,-1,-1,240,-1,4,-1,-1,180,290,,9999,0,0,3,FEW 10   SCT 30   BKN -9999,1,6,1,2,1017,RJFF 280900Z 24004KT 180V290 9999 FEW010 SCT030 BKN/// 06/02     Q1017 RMK 1ST010 3CU030 A3004=,
20180128_093000.001,0,RJFF,,,,0,20180128090000,-1,-1,-1,-1,260,-1,4,-1,-1,210,290,,9999,0,0,3,FEW 10   SCT 40   BKN -9999,1,6,1,2,1017,RJFF 280930Z 26004KT 210V290 9999 FEW010 SCT040 BKN/// 06/02     Q1017 RMK 1ST010 4CU040 A3004=,
20180128_100000.002,0,RJFF,,,,0,20180128100000,-1,-1,-1,-1,230,-1,4,-1,-1,200,270,,9999,0,0,3,FEW 10   SCT 40   BKN 45,1,6,1,2,1017,RJFF 281000Z 23004KT 200V270 9999 FEW010 SCT040 BKN045 06/02     Q1017 RMK 1ST010 4CU040 5SC045 A3005=,
20180128_103000.001,0,RJFF,,,,0,20180128100000,-1,-1,-1,-1,210,-1,4,-1,-1,180,240,,9999,0,0,3,FEW 10   BKN 45   BKN -9999,1,5,1,1,1017,RJFF 281030Z 21004KT 180V240 9999 FEW010 BKN045 BKN/// 05/01     Q1017 RMK 1ST010 5SC045 A3005=,
20180128_110000.002,0,RJFF,,,,0,20180128110000,-1,-1,-1,-1,210,-1,4,-1,-1,-1,-1,,9999,0,0,3,FEW 10   SCT 30   BKN 50,1,5,1,1,1017,RJFF 281100Z 21004KT 9999 FEW010 SCT030 BKN050 05/01 Q1017 RMK     1ST010 3CU030 5SC050 A3005=,
20180128_113000.001,0,RJFF,,,,0,20180128110000,-1,-1,-1,-1,210,-1,5,-1,-1,-1,-1,,9999,0,0,3,FEW 15   SCT 30   BKN 50,1,5,1,1,1017,RJFF 281130Z 21005KT 9999 FEW015 SCT030 BKN050 05/01 Q1017 RMK     1CU015 3CU030 6SC050 A3005=,
20180128_120000.002,0,RJFF,,,,0,20180128120000,-1,-1,-1,-1,220,-1,4,-1,-1,190,260,,9999,0,0,3,FEW 15   SCT 30   BKN 50,1,5,1,1,1017,RJFF 281200Z 22004KT 190V260 9999 FEW015 SCT030 BKN050 05/01     Q1017 RMK 1CU015 3CU030 6SC050 A3005=,
20180128_123000.001,0,RJFF,,,,0,20180128120000,-1,-1,-1,-1,240,-1,4,-1,-1,200,310,,9999,0,0,3,FEW 15   SCT 35   BKN -9999,1,5,1,1,1017,RJFF 281230Z 24004KT 200V310 9999 FEW015 SCT035 BKN/// 05/01     Q1017 RMK 1CU015 4CU035 A3006=,
20180128_130000.002,0,RJFF,,,,0,20180128130000,-1,-1,-1,-1,240,-1,4,-1,-1,-1,-1,,9999,0,0,3,FEW 20   SCT 35   BKN -9999,1,5,1,0,1017,RJFF 281300Z 24004KT 9999 FEW020 SCT035 BKN/// 05/00 Q1017 RMK     1CU020 3CU035 A3005=,
20180128_133000.001,0,RJFF,,,,0,20180128130000,-1,-1,-1,-1,200,-1,3,-1,-1,180,250,,9999,0,0,3,FEW 20   SCT 35   BKN 40,1,4,1,0,1017,RJFF 281330Z 20003KT 180V250 9999 FEW020 SCT035 BKN040 04/00     Q1017 RMK 1CU020 3CU035 5CU040 A3005=,
20180128_140000.002,0,RJFF,,,,1,20180128140000,-1,-1,-1,-1,170,-1,5,-1,-1,-1,-1,,9999,0,0,3,SCT 40   SCT 43   BKN 220,1,3,1,1,1017,RJFF 281400Z AUTO 17005KT 9999 SCT040 SCT043 BKN220 03/01     Q1017 RMK A3005=,
20180128_143000.001,0,RJFF,,,,1,20180128140000,-1,-1,-1,-1,150,-1,6,-1,-1,-1,-1,,9999,0,0,2,FEW 36   BKN 39,1,3,1,1,1016,RJFF 281430Z AUTO 15006KT 9999 FEW036 BKN039 03/01 Q1016 RMK     A3003=,
20180128_150000.002,0,RJFF,,,,1,20180128150000,-1,-1,-1,-1,150,-1,5,-1,-1,-1,-1,,9999,0,0,1,BKN 37,1,3,1,1,1016,RJFF 281500Z AUTO 15005KT 9999 BKN037 03/01 Q1016 RMK A3003=,
20180128_153000.001,0,RJFF,,,,1,20180128150000,-1,-1,-1,-1,160,-1,4,-1,-1,-1,-1,,9999,0,0,2,FEW 38   BKN 42,1,2,1,0,1016,RJFF 281530Z AUTO 16004KT 9999 FEW038 BKN042 02/00 Q1016 RMK     A3003=,
20180128_160000.002,0,RJFF,,,,1,20180128160000,-1,-1,-1,-1,150,-1,4,-1,-1,-1,-1,,9999,0,0,2,FEW 38   BKN 43,1,3,1,1,1016,RJFF 281600Z AUTO 15004KT 9999 FEW038 BKN043 03/01 Q1016 RMK     A3002=,
20180128_163000.001,0,RJFF,,,,1,20180128160000,-1,-1,-1,-1,170,-1,6,-1,-1,-1,-1,,6000,0,0,1,BKN 45,1,2,1,1,1016,RJFF 281630Z AUTO 17006KT 6000 BKN045 02/01 Q1016 RMK A3002=,
20180128_170000.002,0,RJFF,,,,1,20180128170000,-1,-1,-1,-1,150,-1,4,-1,-1,-1,-1,,9000,0,0,3,SCT 38   BKN 44   OVC 48,1,3,1,1,1016,RJFF 281700Z AUTO 15004KT 9000 SCT038 BKN044 OVC048 03/01     Q1016 RMK A3002=,
20180128_173000.001,0,RJFF,,,,1,20180128170000,-1,-1,-1,-1,180,-1,4,-1,-1,140,320,,9000,0,0,3,SCT 38   BKN 41   OVC 48,1,3,1,1,1016,RJFF 281730Z AUTO 18004KT 140V320 9000 SCT038 BKN041 OVC048     03/01 Q1016 RMK A3002=,
20180128_180000.002,0,RJFF,,,,1,20180128180000,-1,-1,-1,-1,130,-1,3,-1,-1,-1,-1,,9999,0,0,3,FEW 37   SCT 43   BKN 46,1,3,1,1,1016,RJFF 281800Z AUTO 13003KT 9999 FEW037 SCT043 BKN046 03/01     Q1016 RMK A3002=,
20180128_183000.001,0,RJFF,,,,1,20180128180000,-1,-1,-1,-1,180,-1,5,-1,-1,140,220,,6000,0,0,3,FEW 42   BKN 45   OVC 50,1,3,1,1,1016,RJFF 281830Z AUTO 18005KT 140V220 6000 FEW042 BKN045 OVC050     03/01 Q1016 RMK A3001=,
20180128_190000.002,0,RJFF,,,,1,20180128190000,-1,-1,-1,-1,999,-1,4,-1,-1,-1,-1,,9999,0,0,3,BKN 30   BKN 34   BKN 45,1,4,1,1,1016,RJFF 281900Z AUTO VRB04KT 9999 BKN030 BKN034 BKN045 04/01     Q1016 RMK A3002=,
20180128_193000.001,0,RJFF,,,,1,20180128190000,-1,-1,-1,-1,320,-1,12,-1,-1,-1,-1,,9999,0,0,1,OVC 32,1,5,-1,0,1016,RJFF 281930Z AUTO 32012KT 9999 OVC032 05/M00 Q1016 RMK A3002=,
20180128_200000.002,0,RJFF,,,,1,20180128200000,-1,-1,-1,-1,320,-1,10,-1,-1,-1,-1,,9999,0,0,1,OVC 34,1,5,-1,1,1016,RJFF 282000Z AUTO 32010KT 9999 OVC034 05/M01 Q1016 RMK A3002=,
20180128_203000.001,0,RJFF,,,,1,20180128200000,-1,-1,-1,-1,320,-1,12,-1,-1,-1,-1,,9999,0,0,3,FEW 32   SCT 36   OVC 43,1,5,-1,1,1016,RJFF 282030Z AUTO 32012KT 9999 FEW032 SCT036 OVC043 05/M01     Q1016 RMK A3001=,
20180128_210000.002,0,RJFF,,,,0,20180128210000,-1,-1,-1,-1,320,-1,11,-1,-1,-1,-1,,9999,0,0,3,FEW 30   SCT 40   BKN 45,1,4,-1,1,1016,RJFF 282100Z 32011KT 9999 FEW030 SCT040 BKN045 04/M01 Q1016     RMK 1CU030 3CU040 6SC045 A3003=,
20180128_213000.001,0,RJFF,,,,0,20180128210000,-1,-1,-1,-1,330,-1,13,-1,-1,-1,-1,,9999,0,0,3,FEW 30   SCT 35   BKN 40,1,4,-1,3,1017,RJFF 282130Z 33013KT 9999 FEW030 SCT035 BKN040 04/M03 Q1017     RMK 1CU030 3CU035 5CU040 A3004=,
20180128_220000.003,0,RJFF,,,,0,20180128220000,-1,-1,-1,-1,330,-1,14,-1,-1,-1,-1,,9999,0,0,3,FEW 30   SCT 35   BKN 40,1,4,-1,3,1017,RJFF 282200Z 33014KT 9999 FEW030 SCT035 BKN040 04/M03 Q1017     RMK 1CU030 3CU035 6CU040 A3006=,
20180128_223000.002,0,RJFF,,,,0,20180128220000,-1,-1,-1,-1,330,-1,13,-1,-1,-1,-1,,9999,0,0,3,FEW 30   BKN 40   BKN 45,1,4,-1,4,1018,RJFF 282230Z 33013KT 9999 FEW030 BKN040 BKN045 04/M04 Q1018     RMK 1CU030 6CU040 7SC045 A3007=,
20180128_230000.002,0,RJFF,,,,0,20180128230000,-1,-1,-1,-1,340,-1,14,-1,-1,-1,-1,,9999,0,0,3,FEW 30   BKN 40   BKN 45,1,4,-1,4,1018,RJFF 282300Z 34014KT 9999 FEW030 BKN040 BKN045 04/M04 Q1018     RMK 1CU030 5CU040 7SC045 A3008=,
20180128_233000.001,0,RJFF,,,,0,20180128230000,-1,-1,-1,-1,330,-1,13,-1,-1,-1,-1,,9999,0,1,3,FEW 30   SCT 40   BKN 45,1,3,-1,4,1019,RJFF 282330Z 33013KT 9999 -SHRA FEW030 SCT040 BKN045 03/M04     Q1019 RMK 1CU030 3CU040 7SC045 A3010=,- RA SH
20180129_000000.003,0,RJFF,,,,0,20180129000000,-1,-1,-1,-1,340,-1,13,-1,-1,-1,-1,,9999,0,0,3,FEW 30   SCT 40   BKN 45,1,3,-1,4,1019,RJFF 290000Z 34013KT 9999 FEW030 SCT040 BKN045 03/M04 Q1019     RMK 1CU030 3CU040 5CU045 A3010=,
20180129_003000.001,0,RJFF,,,,0,20180129000000,-1,-1,-1,-1,330,-1,16,-1,-1,-1,-1,,9999,0,0,3,FEW 30   SCT 35   BKN 45,1,3,-1,5,1020,RJFF 290030Z 33016KT 9999 FEW030 SCT035 BKN045 03/M05 Q1020     RMK 1CU030 3CU035 6CU045 A3012=,
20180129_010000.002,0,RJFF,,,,0,20180129010000,-1,-1,-1,-1,330,-1,15,-1,-1,-1,-1,,9999,0,0,3,FEW 30   SCT 35   BKN 45,1,3,-1,5,1020,RJFF 290100Z 33015KT 9999 FEW030 SCT035 BKN045 03/M05 Q1020     RMK 1CU030 3CU035 6CU045 A3013=,
20180129_013000.001,0,RJFF,,,,0,20180129010000,-1,-1,-1,-1,330,-1,15,-1,-1,-1,-1,,9999,0,0,3,FEW 30   SCT 35   BKN 45,1,3,-1,4,1020,RJFF 290130Z 33015KT 9999 FEW030 SCT035 BKN045 03/M04 Q1020     RMK 1CU030 3CU035 6CU045 A3015=,
20180129_020000.002,0,RJFF,,,,0,20180129020000,-1,-1,-1,-1,340,-1,13,-1,-1,-1,-1,,9999,0,0,3,FEW 30   SCT 35   BKN 45,1,3,-1,5,1020,RJFF 290200Z 34013KT 9999 FEW030 SCT035 BKN045 03/M05 Q1020     RMK 1CU030 3CU035 6CU045 A3015=,
20180129_023000.001,0,RJFF,,,,0,20180129020000,-1,-1,-1,-1,340,-1,14,-1,-1,-1,-1,,9999,0,1,3,FEW 20   SCT 30   BKN 40,1,2,-1,4,1020,RJFF 290230Z 34014KT 9999 -SHSN FEW020 SCT030 BKN040 02/M04     Q1020 RMK 1CU020 3CU030 6CU040 A3014=,- SN SH
20180129_030000.002,0,RJFF,,,,0,20180129030000,-1,-1,-1,-1,310,-1,11,-1,-1,-1,-1,,9999,0,1,3,FEW 20   SCT 30   BKN 45,1,3,-1,5,1020,RJFF 290300Z 31011KT 9999 VCSH FEW020 SCT030 BKN045 03/M05     Q1020 RMK 1CU020 3CU030 6CU045 A3013=,VC SH
20180129_033000.001,0,RJFF,,,,0,20180129030000,-1,-1,-1,-1,310,-1,11,-1,-1,270,340,,9999,0,1,3,FEW 20   SCT 30   BKN 45,1,3,-1,4,1019,RJFF 290330Z 31011KT 270V340 9999 VCSH FEW020 SCT030 BKN045     03/M04 Q1019 RMK 1CU020 3CU030 6CU045 A3011=,VC SH
20180129_040000.002,0,RJFF,,,,0,20180129040000,-1,-1,-1,-1,320,-1,12,-1,-1,-1,-1,,9999,0,0,3,FEW 25   SCT 30   BKN 40,1,3,-1,4,1019,RJFF 290400Z 32012KT 9999 FEW025 SCT030 BKN040 03/M04 Q1019     RMK 1CU025 3CU030 6CU040 A3010=,
20180129_043000.001,0,RJFF,,,,0,20180129040000,-1,-1,-1,-1,330,-1,12,-1,-1,-1,-1,,9999,0,0,3,FEW 20   SCT 25   BKN 40,1,4,-1,3,1019,RJFF 290430Z 33012KT 9999 FEW020 SCT025 BKN040 04/M03 Q1019     RMK 1CU020 3CU025 5CU040 A3010=,
20180129_050000.002,0,RJFF,,,,0,20180129050000,-1,-1,-1,-1,310,-1,12,-1,-1,270,340,,9999,0,1,3,FEW 20   SCT 25   BKN 40,1,3,-1,3,1019,RJFF 290500Z 31012KT 270V340 9999 -SHSN FEW020 SCT025 BKN040     03/M03 Q1019 RMK 1CU020 4CU025 6CU040 A3010=,- SN SH
20180129_053000.001,0,RJFF,,,,0,20180129050000,-1,-1,-1,-1,340,-1,10,-1,-1,-1,-1,,9999,0,0,2,FEW 25   BKN 40,1,4,-1,3,1018,RJFF 290530Z 34010KT 9999 FEW025 BKN040 04/M03 Q1018 RMK     2CU025 5CU040 A3009=,
20180129_060000.002,0,RJFF,,,,0,20180129060000,-1,-1,-1,-1,300,-1,10,-1,-1,260,330,,9999,0,0,2,FEW 30   SCT 40,1,4,-1,6,1018,RJFF 290600Z 30010KT 260V330 9999 FEW030 SCT040 04/M06 Q1018     RMK 2CU030 4CU040 A3008=,
20180129_063000.001,0,RJFF,,,,0,20180129060000,-1,-1,-1,-1,290,-1,12,-1,-1,260,330,,9999,0,0,2,FEW 30   BKN 45,1,4,-1,5,1018,RJFF 290630Z 29012KT 260V330 9999 FEW030 BKN045 04/M05 Q1018     RMK 2CU030 5CU045 A3008=,
20180129_070000.002,0,RJFF,,,,0,20180129070000,-1,-1,-1,-1,280,-1,14,-1,-1,240,330,,9999,0,0,3,FEW 30   SCT 35   BKN 45,1,4,-1,6,1019,RJFF 290700Z 28014KT 240V330 9999 FEW030 SCT035 BKN045 04/M06     Q1019 RMK 1CU030 3CU035 6CU045 A3009=,
20180129_073000.001,0,RJFF,,,,0,20180129070000,-1,-1,-1,-1,290,-1,14,-1,-1,-1,-1,,9999,0,1,3,FEW 20   SCT 30   BKN 40,1,3,-1,5,1019,RJFF 290730Z 29014KT 9999 -SHSN FEW020 SCT030 BKN040 03/M05     Q1019 RMK 1CU020 3CU030 6CU040 A3010=,- SN SH
20180129_080000.002,0,RJFF,,,,0,20180129080000,-1,-1,-1,-1,300,-1,11,-1,-1,-1,-1,,9999,0,1,3,FEW 20   SCT 35   BKN 40,1,3,-1,4,1019,RJFF 290800Z 30011KT 9999 VCSH FEW020 SCT035 BKN040 03/M04     Q1019 RMK 1CU020 4CU035 6CU040 A3010=,VC SH
20180129_083000.001,0,RJFF,,,,0,20180129080000,-1,-1,-1,-1,290,-1,10,-1,-1,-1,-1,,9999,0,1,3,FEW 15   SCT 30   BKN 35,1,3,-1,4,1019,RJFF 290830Z 29010KT 9999 -SHSN FEW015 SCT030 BKN035 03/M04     Q1019 RMK 1CU015 3CU030 6CU035 A3011=,- SN SH
20180129_090000.002,0,RJFF,,,,0,20180129090000,-1,-1,-1,-1,300,-1,5,-1,-1,250,360,,9999,0,1,3,FEW 15   SCT 25   BKN 35,1,3,-1,4,1020,RJFF 290900Z 30005KT 250V360 9999 -SHSN FEW015 SCT025 BKN035     03/M04 Q1020 RMK 1CU015 3CU025 6CU035 A3013=,- SN SH
20180129_093000.001,0,RJFF,,,,0,20180129090000,-1,-1,-1,-1,290,-1,11,-1,-1,250,320,,9999,0,1,3,FEW 10   SCT 20   BKN 30,1,3,-1,3,1020,RJFF 290930Z 29011KT 250V320 9999 -SHSN FEW010 SCT020 BKN030     03/M03 Q1020 RMK 1CU010 3CU020 5CU030 A3014=,- SN SH
20180129_100000.002,0,RJFF,,,,0,20180129100000,-1,-1,-1,-1,290,-1,8,-1,-1,250,320,,9999,0,1,3,FEW 10   SCT 25   BKN 40,1,3,-1,4,1020,RJFF 291000Z 29008KT 250V320 9999 -SHSN FEW010 SCT025 BKN040     03/M04 Q1020 RMK 1CU010 3CU025 7CU040 A3013=,- SN SH
20180129_103000.001,0,RJFF,,,,0,20180129100000,-1,-1,-1,-1,300,-1,10,-1,-1,250,330,,9999,0,1,3,FEW 15   SCT 25   BKN 40,1,3,-1,4,1020,RJFF 291030Z 30010KT 250V330 9999 -SHSN FEW015 SCT025 BKN040     03/M04 Q1020 RMK 1CU015 3CU025 5CU040 A3013=,- SN SH
20180129_110000.002,0,RJFF,,,,0,20180129110000,-1,-1,-1,-1,290,-1,9,-1,-1,250,320,,9999,0,0,3,FEW 20   SCT 30   BKN 40,1,3,-1,4,1020,RJFF 291100Z 29009KT 250V320 9999 FEW020 SCT030 BKN040 03/M04     Q1020 RMK 1CU020 3CU030 5CU040 A3013=,
20180129_113000.001,0,RJFF,,,,0,20180129110000,-1,-1,-1,-1,290,-1,8,-1,-1,260,320,,9999,0,1,3,FEW 20   SCT 30   BKN 40,1,4,-1,5,1019,RJFF 291130Z 29008KT 260V320 9999 -SHSN FEW020 SCT030 BKN040     04/M05 Q1019 RMK 1CU020 3CU030 5CU040 A3011=,- SN SH
20180129_120000.002,0,RJFF,,,,0,20180129120000,-1,-1,-1,-1,290,-1,10,-1,-1,260,320,,9999,0,1,3,FEW 15   SCT 30   BKN 40,1,3,-1,4,1019,RJFF 291200Z 29010KT 260V320 9999 -SHSN FEW015 SCT030 BKN040     03/M04 Q1019 RMK 1CU015 4CU030 6CU040 A3011=,- SN SH
20180129_123000.001,0,RJFF,,,,0,20180129120000,-1,-1,-1,-1,300,-1,9,-1,-1,270,330,,9999,0,1,3,FEW 15   SCT 30   BKN 40,1,4,-1,4,1019,RJFF 291230Z 30009KT 270V330 9999 -SHSN FEW015 SCT030 BKN040     04/M04 Q1019 RMK 1CU015 4CU030 6CU040 A3011=,- SN SH
20180129_130000.002,0,RJFF,,,,0,20180129130000,-1,-1,-1,-1,310,-1,8,-1,-1,250,340,,9999,0,0,3,FEW 20   SCT 30   BKN 40,1,4,-1,5,1019,RJFF 291300Z 31008KT 250V340 9999 FEW020 SCT030 BKN040 04/M05     Q1019 RMK 1CU020 3CU030 5CU040 A3011=,
20180129_133000.001,0,RJFF,,,,0,20180129130000,-1,-1,-1,-1,320,-1,10,-1,-1,-1,-1,,9999,0,0,3,FEW 20   SCT 35   BKN 40,1,4,-1,6,1019,RJFF 291330Z 32010KT 9999 FEW020 SCT035 BKN040 04/M06 Q1019     RMK 1CU020 3CU035 5CU040 A3011=,
20180129_140000.002,0,RJFF,,,,1,20180129140000,-1,-1,-1,-1,310,-1,7,-1,-1,270,330,,9999,0,0,3,FEW 41   SCT 50   OVC 60,1,4,-1,5,1019,RJFF 291400Z AUTO 31007KT 270V330 9999 FEW041 SCT050 OVC060     04/M05 Q1019 RMK A3011=,
20180129_143000.001,0,RJFF,,,,1,20180129140000,-1,-1,-1,-1,310,-1,8,-1,-1,270,350,,9999,0,0,3,BKN 39   BKN 50   OVC 60,1,4,-1,5,1019,RJFF 291430Z AUTO 31008KT 270V350 9999 BKN039 BKN050 OVC060     04/M05 Q1019 RMK A3011=,
20180129_150000.002,0,RJFF,,,,1,20180129150000,-1,-1,-1,-1,290,-1,6,-1,-1,260,340,,9999,0,0,3,FEW 44   BKN 47   BKN 50,1,4,-1,5,1019,RJFF 291500Z AUTO 29006KT 260V340 9999 FEW044 BKN047 BKN050     04/M05 Q1019 RMK A3011=,
20180129_153000.001,0,RJFF,,,,1,20180129150000,-1,-1,-1,-1,310,-1,8,-1,-1,270,330,,9999,0,0,3,FEW 46   BKN 49   OVC 60,1,4,-1,6,1020,RJFF 291530Z AUTO 31008KT 270V330 9999 FEW046 BKN049 OVC060     04/M06 Q1020 RMK A3013=,
20180129_160000.002,0,RJFF,,,,1,20180129160000,-1,-1,-1,-1,300,-1,10,-1,-1,260,320,,9999,0,0,3,FEW 20   BKN 50   OVC 60,1,4,-1,6,1020,RJFF 291600Z AUTO 30010KT 260V320 9999 FEW020 BKN050 OVC060     04/M06 Q1020 RMK A3013=,
20180129_163000.001,0,RJFF,,,,1,20180129160000,-1,-1,-1,-1,310,-1,10,-1,-1,-1,-1,,9999,0,1,3,FEW 36   SCT 44   BKN 50,1,4,-1,6,1020,RJFF 291630Z AUTO 31010KT 9999 -SN FEW036 SCT044 BKN050 04/M06     Q1020 RMK A3014=,- SN
20180129_170000.002,0,RJFF,,,,1,20180129170000,-1,-1,-1,-1,310,-1,11,-1,-1,270,340,,9999,0,0,3,FEW 29   SCT 42   BKN 48,1,4,-1,6,1020,RJFF 291700Z AUTO 31011KT 270V340 9999 FEW029 SCT042 BKN048     04/M06 Q1020 RMK A3015=,
20180129_173000.001,0,RJFF,,,,1,20180129170000,-1,-1,-1,-1,310,-1,12,-1,-1,-1,-1,,9999,0,1,3,FEW 26   SCT 35   BKN 42,1,3,-1,6,1021,RJFF 291730Z AUTO 31012KT 9999 -SN FEW026 SCT035 BKN042 03/M06     Q1021 RMK A3016=,- SN
20180129_180000.002,0,RJFF,,,,1,20180129180000,-1,-1,-1,-1,310,-1,12,-1,-1,-1,-1,,9999,0,0,2,FEW 40   BKN 60,1,3,-1,6,1021,RJFF 291800Z AUTO 31012KT 9999 FEW040 BKN060 03/M06 Q1021 RMK     A3018=,
20180129_183000.001,0,RJFF,,,,1,20180129180000,-1,-1,-1,-1,320,-1,12,-1,-1,-1,-1,,9999,0,0,3,FEW 38   SCT 50   OVC 60,1,3,-1,7,1022,RJFF 291830Z AUTO 32012KT 9999 FEW038 SCT050 OVC060 03/M07     Q1022 RMK A3018=,
20180129_190000.002,0,RJFF,,,,1,20180129190000,-1,-1,-1,-1,310,-1,10,-1,-1,-1,-1,,9999,0,0,3,FEW 46   BKN 50   OVC 60,1,3,-1,6,1022,RJFF 291900Z AUTO 31010KT 9999 FEW046 BKN050 OVC060 03/M06     Q1022 RMK A3018=,
20180129_193000.001,0,RJFF,,,,1,20180129190000,-1,-1,-1,-1,310,-1,10,-1,-1,-1,-1,,9999,0,0,2,FEW 44   OVC 50,1,2,-1,7,1022,RJFF 291930Z AUTO 31010KT 9999 FEW044 OVC050 02/M07 Q1022 RMK     A3018=,
20180129_200000.002,0,RJFF,,,,1,20180129200000,-1,-1,-1,-1,310,-1,13,-1,-1,-1,-1,,9999,0,0,3,FEW 36   SCT 39   BKN 47,1,2,-1,6,1022,RJFF 292000Z AUTO 31013KT 9999 FEW036 SCT039 BKN047 02/M06     Q1022 RMK A3019=,
20180129_203000.001,0,RJFF,,,,1,20180129200000,-1,-1,-1,-1,310,-1,12,-1,22,-1,-1,,9999,0,0,2,FEW 44   OVC 50,1,2,-1,7,1022,RJFF 292030Z AUTO 31012G22KT 9999 FEW044 OVC050 02/M07 Q1022     RMK A3020=,
20180129_210000.002,0,RJFF,,,,0,20180129210000,-1,-1,-1,-1,300,-1,9,-1,-1,280,340,,9999,0,0,3,FEW 25   SCT 30   BKN 40,1,2,-1,7,1023,RJFF 292100Z 30009KT 280V340 9999 FEW025 SCT030 BKN040 02/M07     Q1023 RMK 1CU025 3CU030 5CU040 A3021=,
20180129_213000.001,0,RJFF,,,,0,20180129210000,-1,-1,-1,-1,320,-1,12,-1,-1,280,340,,9999,0,0,3,FEW 25   SCT 35   BKN 50,1,1,-1,9,1023,RJFF 292130Z 32012KT 280V340 9999 FEW025 SCT035 BKN050 01/M09     Q1023 RMK 1CU025 3CU035 6SC050 A3022=,
20180129_220000.002,0,RJFF,,,,0,20180129220000,-1,-1,-1,-1,330,-1,11,-1,-1,-1,-1,,9999,0,0,3,FEW 25   SCT 35   BKN 50,1,1,-1,8,1023,RJFF 292200Z 33011KT 9999 FEW025 SCT035 BKN050 01/M08 Q1023     RMK 1CU025 3CU035 6SC050 A3023=,
20180129_223000.002,0,RJFF,,,,0,20180129220000,-1,-1,-1,-1,340,-1,11,-1,-1,-1,-1,,9999,0,1,3,FEW 25   SCT 30   BKN 40,1,1,-1,6,1023,RJFF 292230Z 34011KT 9999 -SHSN FEW025 SCT030 BKN040 01/M06     Q1023 RMK 1CU025 3CU030 7CU040 A3023=,- SN SH
20180129_230000.002,0,RJFF,,,,0,20180129230000,-1,-1,-1,-1,320,-1,10,-1,-1,-1,-1,,9999,0,1,3,FEW 15   SCT 25   BKN 35,1,2,-1,6,1023,RJFF 292300Z 32010KT 9999 -SHSN FEW015 SCT025 BKN035 02/M06     Q1023 RMK 1CU015 3CU025 7CU035 A3023=,- SN SH
20180129_233000.001,0,RJFF,,,,0,20180129230000,-1,-1,-1,-1,320,-1,14,-1,-1,-1,-1,,9999,0,1,3,FEW 15   SCT 25   BKN 35,1,2,-1,6,1024,RJFF 292330Z 32014KT 9999 VCSH FEW015 SCT025 BKN035 02/M06     Q1024 RMK 1CU015 3CU025 6CU035 A3024=,VC SH
20180130_000000.002,0,RJFF,,,,0,20180130000000,-1,-1,-1,-1,300,-1,11,-1,-1,260,340,,9999,0,1,3,FEW 15   SCT 25   BKN 40,1,2,-1,6,1024,RJFF 300000Z 30011KT 260V340 9999 VCSH FEW015 SCT025 BKN040     02/M06 Q1024 RMK 1CU015 3CU025 6CU040 A3024=,VC SH
20180130_003000.001,0,RJFF,,,,0,20180130000000,-1,-1,-1,-1,320,-1,11,-1,-1,-1,-1,,9999,0,1,3,FEW 15   SCT 25   BKN 45,1,2,-1,6,1024,RJFF 300030Z 32011KT 9999 VCSH FEW015 SCT025 BKN045 02/M06     Q1024 RMK 1CU015 3CU025 6CU045 A3025=,VC SH
20180130_010000.002,0,RJFF,,,,0,20180130010000,-1,-1,-1,-1,310,-1,11,-1,-1,260,330,,9999,0,1,3,FEW 15   SCT 25   BKN 45,1,3,-1,5,1024,RJFF 300100Z 31011KT 260V330 9999 -SHSN FEW015 SCT025 BKN045     03/M05 Q1024 RMK 1CU015 3CU025 7CU045 A3025=,- SN SH
20180130_013000.001,0,RJFF,,,,0,20180130010000,-1,-1,-1,-1,310,-1,11,-1,-1,-1,-1,,9999,0,1,3,FEW 15   SCT 30   BKN 45,1,3,-1,7,1024,RJFF 300130Z 31011KT 9999 VCSH FEW015 SCT030 BKN045 03/M07     Q1024 RMK 1CU015 3CU030 7CU045 A3026=,VC SH
20180130_020000.002,0,RJFF,,,,0,20180130020000,-1,-1,-1,-1,310,-1,11,-1,-1,280,350,,9999,0,1,3,FEW 15   SCT 30   BKN 40,1,3,-1,6,1024,RJFF 300200Z 31011KT 280V350 9999 VCSH FEW015 SCT030 BKN040     03/M06 Q1024 RMK 1CU015 3CU030 7CU040 A3026=,VC SH
20180130_023000.001,0,RJFF,,,,0,20180130020000,-1,-1,-1,-1,320,-1,11,-1,-1,-1,-1,,9999,0,1,3,FEW 15   SCT 30   BKN 40,1,3,-1,6,1024,RJFF 300230Z 32011KT 9999 -SHSN FEW015 SCT030 BKN040 03/M06     Q1024 RMK 1CU015 3CU030 6CU040 A3026 MOD TURB OBS AT           0211Z STOUT BTN FL180 AND FL160 B735=,- SN SH
20180130_030000.002,0,RJFF,,,,0,20180130030000,-1,-1,-1,-1,270,-1,6,-1,-1,220,320,,9999,0,1,3,FEW 15   SCT 30   BKN 40,1,3,-1,5,1024,RJFF 300300Z 27006KT 220V320 9999 -SHSN FEW015 SCT030 BKN040     03/M05 Q1024 RMK 1CU015 3CU030 6CU040 A3025=,- SN SH
20180130_033000.001,0,RJFF,,,,0,20180130030000,-1,-1,-1,-1,290,-1,10,-1,-1,240,330,,9999,0,0,2,FEW 15   BKN 40,1,4,-1,7,1024,RJFF 300330Z 29010KT 240V330 9999 FEW015 BKN040 04/M07 Q1024     RMK 1CU015 5CU040 A3024=,
20180130_040000.002,0,RJFF,,,,0,20180130040000,-1,-1,-1,-1,280,-1,9,-1,-1,240,320,,9999,0,1,2,FEW 25   BKN 45,1,4,-1,7,1023,RJFF 300400Z 28009KT 240V320 9999 VCSH FEW025 BKN045 04/M07     Q1023 RMK 1CU025 5CU045 A3022=,VC SH
20180130_043000.001,0,RJFF,,,,0,20180130040000,-1,-1,-1,-1,320,-1,10,-1,-1,270,350,,9999,0,0,2,FEW 30   SCT 45,1,5,-1,8,1023,RJFF 300430Z 32010KT 270V350 9999 FEW030 SCT045 05/M08 Q1023     RMK 1CU030 3CU045 A3022=,
20180130_050000.002,0,RJFF,,,,0,20180130050000,-1,-1,-1,-1,310,-1,6,-1,-1,270,30,,9999,0,0,2,FEW 30   SCT 45,1,4,-1,8,1023,RJFF 300500Z 31006KT 270V030 9999 FEW030 SCT045 04/M08 Q1023     RMK 1CU030 3CU045 A3021=,
20180130_053000.001,0,RJFF,,,,0,20180130050000,-1,-1,-1,-1,330,-1,9,-1,-1,300,10,,9999,0,0,1,FEW 45,1,4,-1,7,1023,RJFF 300530Z 33009KT 300V010 9999 FEW045 04/M07 Q1023 RMK     2CU045 A3021=,
20180130_060000.003,0,RJFF,,,,0,20180130060000,-1,-1,-1,-1,340,-1,10,-1,-1,-1,-1,,9999,0,0,1,FEW 45,1,5,-1,7,1023,RJFF 300600Z 34010KT 9999 FEW045 05/M07 Q1023 RMK 2CU045     A3023=,
20180130_063000.001,0,RJFF,,,,0,20180130060000,-1,-1,-1,-1,330,-1,9,-1,-1,-1,-1,,9999,0,0,1,FEW 45,1,4,-1,7,1023,RJFF 300630Z 33009KT 9999 FEW045 04/M07 Q1023 RMK 2CU045     A3023=,
20180130_070000.002,0,RJFF,,,,0,20180130070000,-1,-1,-1,-1,999,-1,5,-1,-1,-1,-1,,9999,0,0,2,FEW 35   SCT 45,1,5,-1,6,1024,RJFF 300700Z VRB05KT 9999 FEW035 SCT045 05/M06 Q1024 RMK     1CU035 4CU045 A3024=,
20180130_073000.001,0,RJFF,,,,0,20180130070000,-1,-1,-1,-1,260,-1,8,-1,-1,220,300,,9999,0,0,2,FEW 35   SCT 45,1,4,-1,6,1024,RJFF 300730Z 26008KT 220V300 9999 FEW035 SCT045 04/M06 Q1024     RMK 1CU035 4CU045 A3026=,
20180130_080000.002,0,RJFF,,,,0,20180130080000,-1,-1,-1,-1,280,-1,7,-1,-1,250,320,,9999,0,0,2,FEW 35   BKN 45,1,4,-1,5,1025,RJFF 300800Z 28007KT 250V320 9999 FEW035 BKN045 04/M05 Q1025     RMK 1CU035 5CU045 A3027=,
20180130_083000.001,0,RJFF,,,,0,20180130080000,-1,-1,-1,-1,270,-1,6,-1,-1,220,320,,9999,0,0,2,FEW 35   SCT 45,1,4,-1,6,1025,RJFF 300830Z 27006KT 220V320 9999 FEW035 SCT045 04/M06 Q1025     RMK 1CU035 4CU045 A3027=,
20180130_090000.002,0,RJFF,,,,0,20180130090000,-1,-1,-1,-1,270,-1,6,-1,-1,230,320,,9999,0,0,2,FEW 30   SCT 45,1,4,-1,6,1025,RJFF 300900Z 27006KT 230V320 9999 FEW030 SCT045 04/M06 Q1025     RMK 1CU030 3CU045 A3027=,
20180130_093000.001,0,RJFF,,,,0,20180130090000,-1,-1,-1,-1,260,-1,5,-1,-1,230,300,,9999,0,0,1,FEW 30,1,3,-1,6,1024,RJFF 300930Z 26005KT 230V300 9999 FEW030 03/M06 Q1024 RMK     1CU030 A3026=,
20180130_100000.002,0,RJFF,,,,0,20180130100000,-1,-1,-1,-1,280,-1,3,-1,-1,240,330,,9999,0,0,1,FEW 30,1,3,-1,5,1025,RJFF 301000Z 28003KT 240V330 9999 FEW030 03/M05 Q1025 RMK     1CU030 A3027=,
20180130_103000.001,0,RJFF,,,,0,20180130100000,-1,-1,-1,-1,270,-1,4,-1,-1,230,300,,9999,0,0,1,FEW 30,1,3,-1,5,1025,RJFF 301030Z 27004KT 230V300 9999 FEW030 03/M05 Q1025 RMK     1CU030 A3028=,
20180130_110000.002,0,RJFF,,,,0,20180130110000,-1,-1,-1,-1,230,-1,5,-1,-1,200,290,,9999,0,0,1,FEW 30,1,3,-1,5,1025,RJFF 301100Z 23005KT 200V290 9999 FEW030 03/M05 Q1025 RMK     1CU030 A3028=,
20180130_113000.001,0,RJFF,,,,0,20180130110000,-1,-1,-1,-1,200,-1,3,-1,-1,170,230,,9999,0,0,1,FEW 30,1,2,-1,5,1025,RJFF 301130Z 20003KT 170V230 9999 FEW030 02/M05 Q1025 RMK     1CU030 A3029=,
20180130_120000.002,0,RJFF,,,,0,20180130120000,-1,-1,-1,-1,150,-1,8,-1,-1,-1,-1,,9999,0,0,1,FEW 30,1,1,-1,5,1026,RJFF 301200Z 15008KT 9999 FEW030 01/M05 Q1026 RMK 1CU030     A3030=,
20180130_123000.001,0,RJFF,,,,0,20180130120000,-1,-1,-1,-1,150,-1,7,-1,-1,-1,-1,,9999,0,0,2,FEW 30   SCT 40,1,1,-1,4,1026,RJFF 301230Z 15007KT 9999 FEW030 SCT040 01/M04 Q1026 RMK     1CU030 3CU040 A3031=,
20180130_130000.002,0,RJFF,,,,0,20180130130000,-1,-1,-1,-1,140,-1,5,-1,-1,-1,-1,,9999,0,0,1,FEW 35,1,1,-1,5,1026,RJFF 301300Z 14005KT 9999 FEW035 01/M05 Q1026 RMK 1CU035     A3030=,
20180130_133000.001,0,RJFF,,,,0,20180130130000,-1,-1,-1,-1,160,-1,4,-1,-1,-1,-1,,9999,0,0,1,FEW 35,-1,1,-1,5,1026,RJFF 301330Z 16004KT 9999 FEW035 M01/M05 Q1026 RMK 1CU035     A3030=,
20180130_140000.002,0,RJFF,,,,1,20180130140000,-1,-1,-1,-1,150,-1,4,-1,-1,-1,-1,,9999,0,0,1,FEW 38,-1,1,-1,5,1026,RJFF 301400Z AUTO 15004KT 9999 FEW038 M01/M05 Q1026 RMK A3030=,
20180130_143000.001,0,RJFF,,,,1,20180130140000,-1,-1,-1,-1,999,-1,2,-1,-1,-1,-1,,9999,0,0,1,NCD -1,1,0,-1,5,1026,RJFF 301430Z AUTO VRB02KT 9999 NCD 00/M05 Q1026 RMK A3030=,
20180130_150000.002,0,RJFF,,,,1,20180130150000,-1,-1,-1,-1,140,-1,3,-1,-1,-1,-1,,9999,0,0,1,NCD -1,1,0,-1,5,1026,RJFF 301500Z AUTO 14003KT 9999 NCD 00/M05 Q1026 RMK A3030=,
20180130_153000.001,0,RJFF,,,,1,20180130150000,-1,-1,-1,-1,130,-1,3,-1,-1,-1,-1,,9999,0,0,1,NCD -1,-1,0,-1,5,1025,RJFF 301530Z AUTO 13003KT 9999 NCD M00/M05 Q1025 RMK A3029=,
20180130_160000.002,0,RJFF,,,,1,20180130160000,-1,-1,-1,-1,150,-1,3,-1,-1,-1,-1,,9999,0,0,1,NCD -1,-1,2,-1,5,1026,RJFF 301600Z AUTO 15003KT 9999 NCD M02/M05 Q1026 RMK A3031=,
20180130_163000.001,0,RJFF,,,,1,20180130160000,-1,-1,-1,-1,140,-1,4,-1,-1,-1,-1,,9999,0,0,1,NCD -1,-1,0,-1,4,1026,RJFF 301630Z AUTO 14004KT 9999 NCD M00/M04 Q1026 RMK A3031=,
20180130_170000.002,0,RJFF,,,,1,20180130170000,-1,-1,-1,-1,140,-1,4,-1,-1,-1,-1,,9999,0,0,1,NCD -1,-1,1,-1,5,1026,RJFF 301700Z AUTO 14004KT 9999 NCD M01/M05 Q1026 RMK A3032=,
20180130_173000.001,0,RJFF,,,,1,20180130170000,-1,-1,-1,-1,130,-1,3,-1,-1,90,160,,9999,0,0,1,FEW 40,-1,0,-1,5,1026,RJFF 301730Z AUTO 13003KT 090V160 9999 FEW040 M00/M05 Q1026     RMK A3032=,
20180130_180000.002,0,RJFF,,,,1,20180130180000,-1,-1,-1,-1,999,-1,2,-1,-1,-1,-1,,9999,0,0,1,NCD -1,-1,1,-1,5,1026,RJFF 301800Z AUTO VRB02KT 9999 NCD M01/M05 Q1026 RMK A3031=,
20180130_183000.001,0,RJFF,,,,1,20180130180000,-1,-1,-1,-1,999,-1,2,-1,-1,-1,-1,,9999,0,0,1,NCD -1,-1,1,-1,5,1026,RJFF 301830Z AUTO VRB02KT 9999 NCD M01/M05 Q1026 RMK A3031=,
20180130_190000.002,0,RJFF,,,,1,20180130190000,-1,-1,-1,-1,160,-1,3,-1,-1,-1,-1,,9999,0,0,1,NCD -1,-1,2,-1,5,1026,RJFF 301900Z AUTO 16003KT 9999 NCD M02/M05 Q1026 RMK A3032=,
20180130_193000.001,0,RJFF,,,,1,20180130190000,-1,-1,-1,-1,140,-1,7,-1,-1,-1,-1,,9999,0,0,1,NCD -1,-1,1,-1,4,1026,RJFF 301930Z AUTO 14007KT 9999 NCD M01/M04 Q1026 RMK A3032=,
20180130_200000.002,0,RJFF,,,,1,20180130200000,-1,-1,-1,-1,160,-1,10,-1,-1,-1,-1,,9999,0,0,1,NCD -1,-1,1,-1,4,1027,RJFF 302000Z AUTO 16010KT 9999 NCD M01/M04 Q1027 RMK A3033=,
20180130_203000.001,0,RJFF,,,,1,20180130200000,-1,-1,-1,-1,160,-1,8,-1,-1,-1,-1,,9999,0,0,1,NCD -1,-1,1,-1,5,1027,RJFF 302030Z AUTO 16008KT 9999 NCD M01/M05 Q1027 RMK A3034=,
20180130_210000.002,0,RJFF,,,,0,20180130210000,-1,-1,-1,-1,150,-1,7,-1,-1,-1,-1,,9999,0,0,2,FEW 30   SCT 35,-1,1,-1,4,1027,RJFF 302100Z 15007KT 9999 FEW030 SCT035 M01/M04 Q1027 RMK     1CU030 3CU035 A3034=,
20180130_213000.001,0,RJFF,,,,0,20180130210000,-1,-1,-1,-1,150,-1,7,-1,-1,-1,-1,,9999,0,0,2,FEW 35   SCT -9999,-1,1,-1,4,1027,RJFF 302130Z 15007KT 9999 FEW035 SCT/// M01/M04 Q1027 RMK     1CU035 A3035=,
20180130_220000.002,0,RJFF,,,,0,20180130220000,-1,-1,-1,-1,160,-1,8,-1,-1,-1,-1,,9999,0,0,2,FEW 35   BKN -9999,-1,1,-1,4,1027,RJFF 302200Z 16008KT 9999 FEW035 BKN/// M01/M04 Q1027 RMK     1CU035 A3035=,
20180130_223000.002,0,RJFF,,,,0,20180130220000,-1,-1,-1,-1,160,-1,8,-1,-1,-1,-1,,9999,0,0,2,FEW 35   BKN -9999,-1,1,-1,4,1027,RJFF 302230Z 16008KT 9999 FEW035 BKN/// M01/M04 Q1027 RMK     1CU035 A3035=,
20180130_230000.002,0,RJFF,,,,0,20180130230000,-1,-1,-1,-1,160,-1,10,-1,-1,-1,-1,,9999,0,0,2,FEW 35   BKN -9999,-1,1,-1,4,1027,RJFF 302300Z 16010KT 9999 FEW035 BKN/// M01/M04 Q1027 RMK     1CU035 A3035=,
20180130_233000.001,0,RJFF,,,,0,20180130230000,-1,-1,-1,-1,160,-1,9,-1,-1,-1,-1,,9999,0,0,2,FEW 35   BKN -9999,-1,0,-1,4,1027,RJFF 302330Z 16009KT 9999 FEW035 BKN/// M00/M04 Q1027 RMK     1CU035 A3035=,
20180131_000000.002,0,RJFF,,,,0,20180131000000,-1,-1,-1,-1,150,-1,10,-1,-1,-1,-1,,9999,0,0,2,FEW 35   BKN -9999,1,1,-1,4,1027,RJFF 310000Z 15010KT 9999 FEW035 BKN/// 01/M04 Q1027 RMK     1CU035 A3035=,
20180131_003000.001,0,RJFF,,,,0,20180131000000,-1,-1,-1,-1,160,-1,10,-1,-1,-1,-1,,9999,0,0,2,FEW 35   BKN -9999,1,2,-1,4,1028,RJFF 310030Z 16010KT 9999 FEW035 BKN/// 02/M04 Q1028 RMK     1CU035 A3036=,
20180131_010000.002,0,RJFF,,,,0,20180131010000,-1,-1,-1,-1,150,-1,7,-1,-1,-1,-1,,9999,0,0,2,FEW 35   BKN -9999,1,3,-1,4,1028,RJFF 310100Z 15007KT 9999 FEW035 BKN/// 03/M04 Q1028 RMK     1CU035 A3036=,
20180131_013000.001,0,RJFF,,,,0,20180131010000,-1,-1,-1,-1,190,-1,5,-1,-1,150,250,,9999,0,0,2,FEW 35   BKN -9999,1,4,-1,4,1028,RJFF 310130Z 19005KT 150V250 9999 FEW035 BKN/// 04/M04 Q1028     RMK 1CU035 A3036=,
20180131_020000.002,0,RJFF,,,,0,20180131020000,-1,-1,-1,-1,170,-1,5,-1,-1,130,200,,9999,0,0,2,FEW 35   BKN -9999,1,5,-1,3,1027,RJFF 310200Z 17005KT 130V200 9999 FEW035 BKN/// 05/M03 Q1027     RMK 1CU035 A3034=,
20180131_023000.001,0,RJFF,,,,0,20180131020000,-1,-1,-1,-1,180,-1,5,-1,-1,150,230,,9999,0,0,2,FEW 35   BKN -9999,1,6,-1,3,1026,RJFF 310230Z 18005KT 150V230 9999 FEW035 BKN/// 06/M03 Q1026     RMK 1CU035 A3032=,
20180131_030000.002,0,RJFF,,,,0,20180131030000,-1,-1,-1,-1,40,-1,3,-1,-1,330,140,,9999,0,0,2,FEW 35   BKN -9999,1,7,-1,3,1026,RJFF 310300Z 04003KT 330V140 9999 FEW035 BKN/// 07/M03 Q1026     RMK 1CU035 A3030=,
20180131_033000.001,0,RJFF,,,,0,20180131030000,-1,-1,-1,-1,230,-1,4,-1,-1,190,270,,9999,0,0,2,FEW 35   BKN -9999,1,7,-1,3,1025,RJFF 310330Z 23004KT 190V270 9999 FEW035 BKN/// 07/M03 Q1025     RMK 1CU035 A3028=,
20180131_040000.002,0,RJFF,,,,0,20180131040000,-1,-1,-1,-1,260,-1,3,-1,-1,170,320,,9999,0,0,2,FEW 35   BKN -9999,1,7,-1,4,1024,RJFF 310400Z 26003KT 170V320 9999 FEW035 BKN/// 07/M04 Q1024     RMK 1CU035 A3026=,
20180131_043000.001,0,RJFF,,,,0,20180131040000,-1,-1,-1,-1,220,-1,3,-1,-1,180,330,,9999,0,0,2,FEW 35   BKN -9999,1,8,-1,4,1024,RJFF 310430Z 22003KT 180V330 9999 FEW035 BKN/// 08/M04 Q1024     RMK 1CU035 A3024=,
20180131_050000.002,0,RJFF,,,,0,20180131050000,-1,-1,-1,-1,20,-1,3,-1,-1,330,140,,9999,0,0,3,FEW 35   SCT 130   BKN -9999,1,8,-1,4,1024,RJFF 310500Z 02003KT 330V140 9999 FEW035 SCT130 BKN/// 08/M04     Q1024 RMK 1CU035 3AC130 A3024=,
20180131_053000.001,0,RJFF,,,,0,20180131050000,-1,-1,-1,-1,330,-1,6,-1,-1,300,20,,9999,0,0,3,FEW 35   SCT 130   BKN -9999,1,8,-1,3,1024,RJFF 310530Z 33006KT 300V020 9999 FEW035 SCT130 BKN/// 08/M03     Q1024 RMK 1CU035 3AC130 A3024=,
20180131_060000.002,0,RJFF,,,,0,20180131060000,-1,-1,-1,-1,330,-1,8,-1,-1,300,10,,9999,0,0,2,FEW 35   BKN -9999,1,9,-1,2,1023,RJFF 310600Z 33008KT 300V010 9999 FEW035 BKN/// 09/M02 Q1023     RMK 1CU035 A3023=,
20180131_063000.001,0,RJFF,,,,0,20180131060000,-1,-1,-1,-1,330,-1,7,-1,-1,-1,-1,,9999,0,0,3,FEW 35   SCT 130   BKN 150,1,8,-1,3,1023,RJFF 310630Z 33007KT 9999 FEW035 SCT130 BKN150 08/M03 Q1023     RMK 1CU035 3AC130 5AC150 A3023=,
20180131_070000.003,0,RJFF,,,,0,20180131070000,-1,-1,-1,-1,350,-1,7,-1,-1,320,30,,9999,0,0,3,FEW 35   SCT 130   BKN 150,1,8,-1,2,1023,RJFF 310700Z 35007KT 320V030 9999 FEW035 SCT130 BKN150 08/M02     Q1023 RMK 1CU035 3AC130 5AC150 A3023=,
20180131_073000.001,0,RJFF,,,,0,20180131070000,-1,-1,-1,-1,320,-1,9,-1,-1,-1,-1,,9999,0,0,3,FEW 35   SCT 130   BKN -9999,1,8,-1,2,1023,RJFF 310730Z 32009KT 9999 FEW035 SCT130 BKN/// 08/M02 Q1023     RMK 1CU035 3AC130 A3023=,
20180131_080000.003,0,RJFF,,,,0,20180131080000,-1,-1,-1,-1,340,-1,10,-1,-1,-1,-1,,9999,0,0,3,FEW 35   SCT 130   BKN -9999,1,7,-1,2,1024,RJFF 310800Z 34010KT 9999 FEW035 SCT130 BKN/// 07/M02 Q1024     RMK 1CU035 3AC130 A3025=,
20180131_083000.001,0,RJFF,,,,0,20180131080000,-1,-1,-1,-1,340,-1,7,-1,-1,-1,-1,,9999,0,0,3,FEW 35   BKN 130   BKN -9999,1,7,-1,2,1024,RJFF 310830Z 34007KT 9999 FEW035 BKN130 BKN/// 07/M02 Q1024     RMK 1CU035 5AC130 A3025=,
20180131_090000.002,0,RJFF,,,,0,20180131090000,-1,-1,-1,-1,350,-1,5,-1,-1,320,40,,9999,0,0,3,FEW 35   SCT 130   BKN 170,1,7,-1,2,1024,RJFF 310900Z 35005KT 320V040 9999 FEW035 SCT130 BKN170 07/M02     Q1024 RMK 1CU035 3AC130 7AC170 A3025=,
20180131_093000.001,0,RJFF,,,,0,20180131090000,-1,-1,-1,-1,30,-1,4,-1,-1,350,70,,9999,0,0,3,FEW 35   SCT 130   BKN 170,1,7,-1,2,1024,RJFF 310930Z 03004KT 350V070 9999 FEW035 SCT130 BKN170 07/M02     Q1024 RMK 1CU035 3AC130 7AC170 A3024=,
20180131_100000.002,0,RJFF,,,,0,20180131100000,-1,-1,-1,-1,60,-1,4,-1,-1,330,130,,9999,0,0,3,FEW 35   SCT 130   BKN -9999,1,7,-1,2,1023,RJFF 311000Z 06004KT 330V130 9999 FEW035 SCT130 BKN/// 07/M02     Q1023 RMK 1CU035 3AC130 A3022=,
20180131_103000.001,0,RJFF,,,,0,20180131100000,-1,-1,-1,-1,70,-1,3,-1,-1,20,150,,9999,0,0,3,FEW 35   SCT 130   BKN -9999,1,6,-1,1,1024,RJFF 311030Z 07003KT 020V150 9999 FEW035 SCT130 BKN/// 06/M01     Q1024 RMK 1CU035 4AC130 A3024=,
20180131_110000.002,0,RJFF,,,,0,20180131110000,-1,-1,-1,-1,999,-1,4,-1,-1,-1,-1,,9999,0,0,3,FEW 35   SCT 100   BKN 120,1,6,-1,1,1024,RJFF 311100Z VRB04KT 9999 FEW035 SCT100 BKN120 06/M01 Q1024     RMK 1CU035 3AC100 6AC120 A3026=,
20180131_113000.001,0,RJFF,,,,0,20180131110000,-1,-1,-1,-1,60,-1,4,-1,-1,30,120,,9999,0,0,3,FEW 35   SCT 100   BKN 120,1,6,-1,1,1024,RJFF 311130Z 06004KT 030V120 9999 FEW035 SCT100 BKN120 06/M01     Q1024 RMK 1CU035 4AC100 6AC120 A3025=,
20180131_120000.002,0,RJFF,,,,0,20180131120000,-1,-1,-1,-1,999,-1,2,-1,-1,-1,-1,,9999,0,0,3,FEW 35   SCT 80   BKN 110,1,6,-1,1,1024,RJFF 311200Z VRB02KT 9999 FEW035 SCT080 BKN110 06/M01 Q1024     RMK 1CU035 3AC080 7AC110 A3025=,
20180131_123000.001,0,RJFF,,,,0,20180131120000,-1,-1,-1,-1,999,-1,2,-1,-1,-1,-1,,9999,0,0,3,FEW 35   SCT 80   BKN 100,1,5,-1,1,1024,RJFF 311230Z VRB02KT 9999 FEW035 SCT080 BKN100 05/M01 Q1024     RMK 1CU035 3AC080 7AC100 A3026=,
20180131_130000.003,0,RJFF,,,,0,20180131130000,-1,-1,-1,-1,160,-1,3,-1,-1,-1,-1,,9999,0,0,2,FEW 35   BKN 80,1,5,-1,1,1024,RJFF 311300Z 16003KT 9999 FEW035 BKN080 05/M01 Q1024 RMK     1CU035 7AC080 A3026=,
20180131_133000.001,0,RJFF,,,,0,20180131130000,-1,-1,-1,-1,180,-1,3,-1,-1,-1,-1,,9999,0,0,3,FEW 35   SCT 60   BKN 80,1,5,-1,1,1024,RJFF 311330Z 18003KT 9999 FEW035 SCT060 BKN080 05/M01 Q1024     RMK 1CU035 3SC060 7AC080 A3026=,
20180131_140000.002,0,RJFF,,,,1,20180131140000,-1,-1,-1,-1,160,-1,4,-1,-1,-1,-1,,9999,0,0,1,NSC -1,1,5,-1,1,1024,RJFF 311400Z AUTO 16004KT 9999 NSC 05/M01 Q1024 RMK A3026=,
20180131_143000.001,0,RJFF,,,,1,20180131140000,-1,-1,-1,-1,150,-1,3,-1,-1,-1,-1,,9999,0,0,1,NSC -1,1,5,-1,1,1024,RJFF 311430Z AUTO 15003KT 9999 NSC 05/M01 Q1024 RMK A3026=,
20180131_150000.002,0,RJFF,,,,1,20180131150000,-1,-1,-1,-1,90,-1,1,-1,-1,-1,-1,,9999,0,0,2,FEW 46   OVC 60,1,5,-1,1,1024,RJFF 311500Z AUTO 09001KT 9999 FEW046 OVC060 05/M01 Q1024 RMK     A3026=,
20180131_153000.001,0,RJFF,,,,1,20180131150000,-1,-1,-1,-1,340,-1,2,-1,-1,-1,-1,,9999,0,0,3,BKN 45   BKN 49   OVC 50,1,5,-1,1,1024,RJFF 311530Z AUTO 34002KT 9999 BKN045 BKN049 OVC050 05/M01     Q1024 RMK A3025=,
20180131_160000.002,0,RJFF,,,,1,20180131160000,-1,-1,-1,-1,999,-1,2,-1,-1,-1,-1,,9999,0,0,2,BKN 44   OVC 48,1,5,-1,1,1024,RJFF 311600Z AUTO VRB02KT 9999 BKN044 OVC048 05/M01 Q1024 RMK     A3024=,
20180131_163000.001,0,RJFF,,,,1,20180131160000,-1,-1,-1,-1,210,-1,5,-1,-1,-1,-1,,9999,0,0,2,SCT 34   OVC 40,1,5,-1,1,1024,RJFF 311630Z AUTO 21005KT 9999 SCT034 OVC040 05/M01 Q1024 RMK     A3025=,
20180131_170000.002,0,RJFF,,,,1,20180131170000,-1,-1,-1,-1,210,-1,3,-1,-1,180,250,,9999,0,0,2,SCT 28   OVC 38,1,5,-1,1,1024,RJFF 311700Z AUTO 21003KT 180V250 9999 SCT028 OVC038 05/M01     Q1024 RMK A3025=,
20180131_173000.001,0,RJFF,,,,1,20180131170000,-1,-1,-1,-1,999,-1,1,-1,-1,-1,-1,,9999,0,0,3,SCT 28   SCT 31   BKN 37,1,4,-1,1,1024,RJFF 311730Z AUTO VRB01KT 9999 SCT028 SCT031 BKN037 04/M01     Q1024 RMK A3025=,
20180131_180000.002,0,RJFF,,,,1,20180131180000,-1,-1,-1,-1,360,-1,2,-1,-1,-1,-1,,9999,0,0,2,FEW 27   OVC 120,1,5,-1,1,1024,RJFF 311800Z AUTO 36002KT 9999 FEW027 OVC120 05/M01 Q1024 RMK     A3025=,
20180131_183000.001,0,RJFF,,,,1,20180131180000,-1,-1,-1,-1,20,-1,4,-1,-1,-1,-1,,9999,0,0,1,NSC -1,1,4,-1,2,1024,RJFF 311830Z AUTO 02004KT 9999 NSC 04/M02 Q1024 RMK A3024=,
20180131_190000.003,0,RJFF,,,,1,20180131190000,-1,-1,-1,-1,10,-1,4,-1,-1,-1,-1,,9999,0,0,1,NSC -1,1,4,-1,1,1023,RJFF 311900Z AUTO 01004KT 9999 NSC 04/M01 Q1023 RMK A3023=,
20180131_193000.001,0,RJFF,,,,1,20180131190000,-1,-1,-1,-1,130,-1,4,-1,-1,80,150,,9999,0,0,3,BKN 38   BKN 43   OVC 120,1,3,-1,1,1023,RJFF 311930Z AUTO 13004KT 080V150 9999 BKN038 BKN043 OVC120     03/M01 Q1023 RMK A3023=,
20180131_200000.003,0,RJFF,,,,1,20180131200000,-1,-1,-1,-1,150,-1,3,-1,-1,-1,-1,,9999,0,0,3,SCT 35   BKN 42   OVC 120,1,4,-1,0,1023,RJFF 312000Z AUTO 15003KT 9999 SCT035 BKN042 OVC120 04/M00     Q1023 RMK A3023=,
20180131_203000.001,0,RJFF,,,,1,20180131200000,-1,-1,-1,-1,999,-1,2,-1,-1,-1,-1,,9999,0,0,2,FEW 32   OVC 37,1,4,-1,0,1023,RJFF 312030Z AUTO VRB02KT 9999 FEW032 OVC037 04/M00 Q1023 RMK     A3023=,
20180131_210000.002,0,RJFF,,,,0,20180131210000,-1,-1,-1,-1,140,-1,3,-1,-1,-1,-1,,9999,0,0,3,FEW 30   BKN 40   BKN 130,1,4,-1,0,1023,RJFF 312100Z 14003KT 9999 FEW030 BKN040 BKN130 04/M00 Q1023     RMK 1CU030 5CU040 7AC130 A3023=,
20180131_213000.001,0,RJFF,,,,0,20180131210000,-1,-1,-1,-1,180,-1,2,-1,-1,-1,-1,,9999,0,0,3,FEW 30   BKN 45   BKN 130,1,3,1,0,1024,RJFF 312130Z 18002KT 9999 FEW030 BKN045 BKN130 03/00 Q1024 RMK     1CU030 5CU045 7AC130 A3025=,
20180131_220000.002,0,RJFF,,,,0,20180131220000,-1,-1,-1,-1,160,-1,3,-1,-1,-1,-1,,9999,0,0,3,FEW 30   SCT 45   BKN 70,1,3,-1,0,1024,RJFF 312200Z 16003KT 9999 FEW030 SCT045 BKN070 03/M00 Q1024     RMK 1CU030 3CU045 5AC070 A3024=,
20180131_223000.002,0,RJFF,,,,0,20180131220000,-1,-1,-1,-1,170,-1,4,-1,-1,-1,-1,,9999,0,0,3,FEW 30   SCT 50   BKN 120,1,4,-1,0,1024,RJFF 312230Z 17004KT 9999 FEW030 SCT050 BKN120 04/M00 Q1024     RMK 1CU030 4SC050 7AC120 A3025=,
20180131_230000.002,0,RJFF,,,,0,20180131230000,-1,-1,-1,-1,130,-1,3,-1,-1,90,150,,9999,0,0,3,FEW 30   BKN 50   BKN 120,1,4,-1,0,1024,RJFF 312300Z 13003KT 090V150 9999 FEW030 BKN050 BKN120 04/M00     Q1024 RMK 1CU030 5SC050 7AC120 A3025=,
20180131_233000.001,0,RJFF,,,,0,20180131230000,-1,-1,-1,-1,160,-1,3,-1,-1,120,180,,9999,0,0,3,FEW 30   SCT 50   BKN 120,1,4,1,0,1024,RJFF 312330Z 16003KT 120V180 9999 FEW030 SCT050 BKN120 04/00     Q1024 RMK 1CU030 4SC050 7AC120 A3025=,
20180201_000000.003,0,RJFF,,,,0,20180201000000,-1,-1,-1,-1,140,-1,3,-1,-1,-1,-1,,9999,0,0,3,FEW 25   SCT 50   BKN 120,1,5,1,0,1024,RJFF 010000Z 14003KT 9999 FEW025 SCT050 BKN120 05/00 Q1024 RMK     1CU025 4SC050 7AC120 A3025=,
20180201_003000.001,0,RJFF,,,,0,20180201000000,-1,-1,-1,-1,999,-1,1,-1,-1,-1,-1,,9999,0,0,3,FEW 25   SCT 50   BKN 120,1,5,-1,0,1024,RJFF 010030Z VRB01KT 9999 FEW025 SCT050 BKN120 05/M00 Q1024     RMK 1CU025 3SC050 7AC120 A3025=,
20180201_010000.002,0,RJFF,,,,0,20180201010000,-1,-1,-1,-1,999,-1,1,-1,-1,-1,-1,,9999,0,0,3,FEW 25   SCT 70   BKN 130,1,6,-1,0,1024,RJFF 010100Z VRB01KT 9999 FEW025 SCT070 BKN130 06/M00 Q1024     RMK 1CU025 3AC070 7AC130 A3025=,
20180201_013000.001,0,RJFF,,,,0,20180201010000,-1,-1,-1,-1,999,-1,2,-1,-1,-1,-1,,9999,0,0,2,FEW 25   BKN 120,1,6,-1,1,1024,RJFF 010130Z VRB02KT 9999 FEW025 BKN120 06/M01 Q1024 RMK     1CU025 5AC120 A3025=,
20180201_020000.002,0,RJFF,,,,0,20180201020000,-1,-1,-1,-1,130,-1,4,-1,-1,50,200,,9999,0,0,2,FEW 30   SCT 130,1,7,-1,1,1024,RJFF 010200Z 13004KT 050V200 9999 FEW030 SCT130 07/M01 Q1024     RMK 1CU030 3AC130 A3024=,
20180201_023000.001,0,RJFF,,,,0,20180201020000,-1,-1,-1,-1,50,-1,6,-1,-1,340,120,,9999,0,0,1,FEW 30,1,8,-1,0,1023,RJFF 010230Z 05006KT 340V120 9999 FEW030 08/M00 Q1023 RMK     2CU030 A3023=,
20180201_030000.003,0,RJFF,,,,0,20180201030000,-1,-1,-1,-1,90,-1,5,-1,-1,40,220,,9999,0,0,2,FEW 25   BKN 40,1,8,-1,0,1023,RJFF 010300Z 09005KT 040V220 9999 FEW025 BKN040 08/M00 Q1023     RMK 1CU025 5CU040 A3022=,
20180201_033000.001,0,RJFF,,,,0,20180201030000,-1,-1,-1,-1,310,-1,7,-1,-1,-1,-1,,9999,0,0,3,FEW 30   SCT 35   BKN 40,1,7,-1,0,1023,RJFF 010330Z 31007KT 9999 FEW030 SCT035 BKN040 07/M00 Q1023     RMK 1CU030 3CU035 6CU040 A3021=,
20180201_040000.003,0,RJFF,,,,0,20180201040000,-1,-1,-1,-1,60,-1,3,-1,-1,340,130,,9999,0,0,3,FEW 25   SCT 35   BKN 40,1,8,-1,0,1022,RJFF 010400Z 06003KT 340V130 9999 FEW025 SCT035 BKN040 08/M00     Q1022 RMK 1CU025 4CU035 5CU040 A3021=,
20180201_043000.001,0,RJFF,,,,0,20180201040000,-1,-1,-1,-1,999,-1,4,-1,-1,-1,-1,,9999,0,0,3,FEW 25   BKN 35   BKN 40,1,8,-1,1,1022,RJFF 010430Z VRB04KT 9999 FEW025 BKN035 BKN040 08/M01 Q1022     RMK 1CU025 5CU035 6CU040 A3020=,
20180201_050000.002,0,RJFF,,,,0,20180201050000,-1,-1,-1,-1,330,-1,10,-1,-1,-1,-1,,9999,0,0,3,FEW 25   BKN 35   BKN 40,1,7,1,1,1022,RJFF 010500Z 33010KT 9999 FEW025 BKN035 BKN040 07/01 Q1022 RMK     1CU025 5CU035 6CU040 A3019=,
20180201_053000.001,0,RJFF,,,,0,20180201050000,-1,-1,-1,-1,20,-1,8,-1,-1,330,80,,9999,0,0,3,FEW 20   SCT 35   BKN 40,1,8,-1,1,1022,RJFF 010530Z 02008KT 330V080 9999 FEW020 SCT035 BKN040 08/M01     Q1022 RMK 1CU020 4CU035 5CU040 A3020=,
20180201_060000.002,0,RJFF,,,,0,20180201060000,-1,-1,-1,-1,50,-1,6,-1,-1,360,110,,9999,0,0,3,FEW 20   SCT 35   BKN 50,1,8,-1,0,1022,RJFF 010600Z 05006KT 360V110 9999 FEW020 SCT035 BKN050 08/M00     Q1022 RMK 1CU020 3CU035 5SC050 A3019=,
20180201_063000.001,0,RJFF,,,,0,20180201060000,-1,-1,-1,-1,999,-1,4,-1,-1,-1,-1,,9999,0,0,3,FEW 25   SCT 40   BKN 70,1,8,-1,0,1022,RJFF 010630Z VRB04KT 9999 FEW025 SCT040 BKN070 08/M00 Q1022     RMK 1CU025 3CU040 5AC070 A3020=,
20180201_070000.002,0,RJFF,,,,0,20180201070000,-1,-1,-1,-1,10,-1,10,-1,-1,-1,-1,,9999,0,0,3,FEW 20   SCT 35   BKN 40,1,8,-1,0,1022,RJFF 010700Z 01010KT 9999 FEW020 SCT035 BKN040 08/M00 Q1022     RMK 1CU020 4CU035 5CU040 A3021=,
20180201_073000.001,0,RJFF,,,,0,20180201070000,-1,-1,-1,-1,360,-1,12,-1,-1,-1,-1,,9999,0,1,3,FEW 15   SCT 35   BKN 40,1,7,1,1,1023,RJFF 010730Z 36012KT 9999 VCSH FEW015 SCT035 BKN040 07/01     Q1023 RMK 1CU015 3CU035 5CU040 A3022=,VC SH
20180201_080000.002,0,RJFF,,,,0,20180201080000,-1,-1,-1,-1,350,-1,7,-1,-1,-1,-1,,9999,0,1,3,FEW 15   SCT 30   BKN 40,1,6,1,2,1023,RJFF 010800Z 35007KT 9999 -SHRA FEW015 SCT030 BKN040 06/02     Q1023 RMK 1CU015 3CU030 5CU040 A3023=,- RA SH
20180201_083000.001,0,RJFF,,,,0,20180201080000,-1,-1,-1,-1,330,-1,3,-1,-1,290,40,,9999,0,0,3,FEW 15   SCT 30   BKN 50,1,6,1,2,1024,RJFF 010830Z 33003KT 290V040 9999 FEW015 SCT030 BKN050 06/02     Q1024 RMK 1CU015 3CU030 5SC050 A3024=,
20180201_090000.002,0,RJFF,,,,0,20180201090000,-1,-1,-1,-1,999,-1,3,-1,-1,-1,-1,,9999,0,0,3,FEW 20   SCT 60   BKN -9999,1,6,1,2,1023,RJFF 010900Z VRB03KT 9999 FEW020 SCT060 BKN/// 06/02 Q1023 RMK     1CU020 4SC060 A3023=,
20180201_093000.001,0,RJFF,,,,0,20180201090000,-1,-1,-1,-1,20,-1,4,-1,-1,330,100,,9999,0,0,3,FEW 20   SCT 60   BKN -9999,1,6,1,2,1024,RJFF 010930Z 02004KT 330V100 9999 FEW020 SCT060 BKN/// 06/02     Q1024 RMK 1CU020 3SC060 A3024=,
20180201_100000.002,0,RJFF,,,,0,20180201100000,-1,-1,-1,-1,20,-1,6,-1,-1,350,90,,9999,0,0,3,FEW 20   SCT 60   BKN -9999,1,6,1,1,1024,RJFF 011000Z 02006KT 350V090 9999 FEW020 SCT060 BKN/// 06/01     Q1024 RMK 1CU020 3SC060 A3025=,
20180201_103000.001,0,RJFF,,,,0,20180201100000,-1,-1,-1,-1,360,-1,3,-1,-1,310,80,,9999,0,0,2,FEW 25   SCT 60,1,6,1,2,1024,RJFF 011030Z 36003KT 310V080 9999 FEW025 SCT060 06/02 Q1024     RMK 1CU025 4SC060 A3026=,
20180201_110000.002,0,RJFF,,,,0,20180201110000,-1,-1,-1,-1,999,-1,2,-1,-1,-1,-1,,9999,0,0,2,FEW 25   SCT 60,1,6,1,1,1024,RJFF 011100Z VRB02KT 9999 FEW025 SCT060 06/01 Q1024 RMK 1CU025     3SC060 A3026=,
20180201_113000.001,0,RJFF,,,,0,20180201110000,-1,-1,-1,-1,70,-1,3,-1,-1,10,120,,9999,0,0,1,FEW 25,1,5,1,1,1024,RJFF 011130Z 07003KT 010V120 9999 FEW025 05/01 Q1024 RMK     1CU025 A3024=,
20180201_120000.002,0,RJFF,,,,0,20180201120000,-1,-1,-1,-1,999,-1,2,-1,-1,-1,-1,,9999,0,0,1,FEW 25,1,6,1,1,1025,RJFF 011200Z VRB02KT 9999 FEW025 06/01 Q1025 RMK 1CU025 A3027=,
20180201_123000.001,0,RJFF,,,,0,20180201120000,-1,-1,-1,-1,360,-1,4,-1,-1,300,70,CAVOK,-1,0,0,0,,1,4,1,1,1026,RJFF 011230Z 36004KT 300V070 CAVOK 04/01 Q1026 RMK A3030=,
20180201_130000.002,0,RJFF,,,,0,20180201130000,-1,-1,-1,-1,150,-1,4,-1,-1,-1,-1,CAVOK,-1,0,0,0,,1,5,1,1,1025,RJFF 011300Z 15004KT CAVOK 05/01 Q1025 RMK 5SC060 A3029=,
20180201_133000.001,0,RJFF,,,,0,20180201130000,-1,-1,-1,-1,999,-1,1,-1,-1,-1,-1,CAVOK,-1,0,0,0,,1,5,1,1,1026,RJFF 011330Z VRB01KT CAVOK 05/01 Q1026 RMK 5SC060 A3030=,
20180201_140000.002,0,RJFF,,,,1,20180201140000,-1,-1,-1,-1,140,-1,2,-1,-1,-1,-1,,9999,0,0,3,SCT 41   BKN 50   BKN 70,1,5,1,1,1025,RJFF 011400Z AUTO 14002KT 9999 SCT041 BKN050 BKN070 05/01     Q1025 RMK A3029=,
20180201_143000.001,0,RJFF,,,,1,20180201140000,-1,-1,-1,-1,150,-1,3,-1,-1,90,170,,9999,0,0,3,FEW 43   SCT 48   BKN 60,1,4,1,1,1025,RJFF 011430Z AUTO 15003KT 090V170 9999 FEW043 SCT048 BKN060     04/01 Q1025 RMK A3029=,
20180201_150000.002,0,RJFF,,,,1,20180201150000,-1,-1,-1,-1,180,-1,4,-1,-1,-1,-1,,9999,0,0,3,SCT 37   SCT 45   BKN 49,1,4,1,1,1025,RJFF 011500Z AUTO 18004KT 9999 SCT037 SCT045 BKN049 04/01     Q1025 RMK A3028=,
20180201_153000.001,0,RJFF,,,,1,20180201150000,-1,-1,-1,-1,999,-1,2,-1,-1,-1,-1,,9999,0,0,2,SCT 37   BKN 45,1,4,1,1,1024,RJFF 011530Z AUTO VRB02KT 9999 SCT037 BKN045 04/01 Q1024 RMK     A3026=,
20180201_160000.002,0,RJFF,,,,1,20180201160000,-1,-1,-1,-1,150,-1,2,-1,-1,-1,-1,,9999,0,0,1,OVC 35,1,4,1,1,1024,RJFF 011600Z AUTO 15002KT 9999 OVC035 04/01 Q1024 RMK A3026=,
20180201_163000.001,0,RJFF,,,,1,20180201160000,-1,-1,-1,-1,150,-1,5,-1,-1,-1,-1,,9999,0,0,1,OVC 33,1,4,1,1,1025,RJFF 011630Z AUTO 15005KT 9999 OVC033 04/01 Q1025 RMK A3028=,
20180201_170000.002,0,RJFF,,,,1,20180201170000,-1,-1,-1,-1,150,-1,5,-1,-1,-1,-1,,9999,0,0,1,OVC 34,1,4,1,1,1025,RJFF 011700Z AUTO 15005KT 9999 OVC034 04/01 Q1025 RMK A3028=,
20180201_173000.001,0,RJFF,,,,1,20180201170000,-1,-1,-1,-1,140,-1,5,-1,-1,-1,-1,,9999,0,0,1,OVC 32,1,4,1,1,1024,RJFF 011730Z AUTO 14005KT 9999 OVC032 04/01 Q1024 RMK A3026=,
20180201_180000.002,0,RJFF,,,,1,20180201180000,-1,-1,-1,-1,150,-1,2,-1,-1,-1,-1,,9999,0,0,3,FEW 34   BKN 39   OVC 50,1,4,1,1,1024,RJFF 011800Z AUTO 15002KT 9999 FEW034 BKN039 OVC050 04/01     Q1024 RMK A3024=,
20180201_183000.001,0,RJFF,,,,1,20180201180000,-1,-1,-1,-1,150,-1,5,-1,-1,-1,-1,,9999,0,0,1,FEW 37,1,3,1,1,1024,RJFF 011830Z AUTO 15005KT 9999 FEW037 03/01 Q1024 RMK A3024=,
20180201_190000.003,0,RJFF,,,,1,20180201190000,-1,-1,-1,-1,130,-1,3,-1,-1,-1,-1,,9999,0,0,1,FEW 37,1,3,1,1,1024,RJFF 011900Z AUTO 13003KT 9999 FEW037 03/01 Q1024 RMK A3024=,
20180201_193000.001,0,RJFF,,,,1,20180201190000,-1,-1,-1,-1,150,-1,3,-1,-1,-1,-1,,9999,0,0,1,FEW 39,1,2,-1,0,1023,RJFF 011930Z AUTO 15003KT 9999 FEW039 02/M00 Q1023 RMK A3023=,
20180201_200000.003,0,RJFF,,,,1,20180201200000,-1,-1,-1,-1,130,-1,3,-1,-1,-1,-1,,9999,0,0,2,FEW 38   SCT 240,1,2,1,0,1023,RJFF 012000Z AUTO 13003KT 9999 FEW038 SCT240 02/00 Q1023 RMK     A3023=,
20180201_203000.001,0,RJFF,,,,1,20180201200000,-1,-1,-1,-1,160,-1,3,-1,-1,-1,-1,,9999,0,0,1,FEW 41,1,0,-1,1,1023,RJFF 012030Z AUTO 16003KT 9999 FEW041 00/M01 Q1023 RMK A3023=,
20180201_210000.002,0,RJFF,,,,0,20180201210000,-1,-1,-1,-1,150,-1,3,-1,-1,-1,-1,,9999,0,0,2,FEW 30   SCT -9999,1,0,-1,1,1023,RJFF 012100Z 15003KT 9999 FEW030 SCT/// 00/M01 Q1023 RMK     1CU030 A3023=,
20180201_213000.001,0,RJFF,,,,0,20180201210000,-1,-1,-1,-1,160,-1,3,-1,-1,-1,-1,,9999,0,0,3,FEW 30   SCT 50   BKN -9999,1,1,-1,1,1024,RJFF 012130Z 16003KT 9999 FEW030 SCT050 BKN/// 01/M01 Q1024     RMK 1CU030 3SC050 A3024=,
20180201_220000.002,0,RJFF,,,,0,20180201220000,-1,-1,-1,-1,130,-1,5,-1,-1,-1,-1,,9999,0,0,3,FEW 30   SCT 50   BKN -9999,1,2,1,0,1024,RJFF 012200Z 13005KT 9999 FEW030 SCT050 BKN/// 02/00 Q1024 RMK     1CU030 4SC050 A3025=,
20180201_223000.002,0,RJFF,,,,0,20180201220000,-1,-1,-1,-1,190,-1,3,-1,-1,150,220,,9999,0,0,2,FEW 35   BKN -9999,1,2,-1,0,1024,RJFF 012230Z 19003KT 150V220 9999 FEW035 BKN/// 02/M00 Q1024     RMK 1CU035 A3026=,
20180201_230000.003,0,RJFF,,,,0,20180201230000,-1,-1,-1,-1,140,-1,4,-1,-1,-1,-1,,9999,0,0,2,FEW 35   BKN -9999,1,2,1,0,1025,RJFF 012300Z 14004KT 9999 FEW035 BKN/// 02/00 Q1025 RMK 1CU035     A3027=,
20180201_233000.001,0,RJFF,,,,0,20180201230000,-1,-1,-1,-1,160,-1,5,-1,-1,-1,-1,,9999,0,0,2,FEW 35   BKN -9999,1,3,1,1,1025,RJFF 012330Z 16005KT 9999 FEW035 BKN/// 03/01 Q1025 RMK 1CU035     A3028=,
20180202_000000.002,0,RJFF,,,,0,20180202000000,-1,-1,-1,-1,170,-1,5,-1,-1,-1,-1,,9999,0,0,3,FEW 35   SCT 50   BKN -9999,1,4,1,1,1025,RJFF 020000Z 17005KT 9999 FEW035 SCT050 BKN/// 04/01 Q1025 RMK     1CU035 4SC050 A3028=,
20180202_003000.001,0,RJFF,,,,0,20180202000000,-1,-1,-1,-1,160,-1,5,-1,-1,130,190,,9999,0,0,3,FEW 35   SCT 45   BKN 180,1,5,1,1,1025,RJFF 020030Z 16005KT 130V190 9999 FEW035 SCT045 BKN180 05/01     Q1025 RMK 1CU035 3CU045 6AC180 A3027=,
20180202_010000.002,0,RJFF,,,,0,20180202010000,-1,-1,-1,-1,190,-1,4,-1,-1,140,260,,9999,0,0,3,FEW 35   BKN 40   BKN 180,1,6,1,1,1025,RJFF 020100Z 19004KT 140V260 9999 FEW035 BKN040 BKN180 06/01     Q1025 RMK 1CU035 5CU040 6AC180 A3029=,
20180202_013000.001,0,RJFF,,,,0,20180202010000,-1,-1,-1,-1,170,-1,5,-1,-1,-1,-1,,9999,0,0,3,FEW 35   BKN 40   BKN 180,1,7,1,1,1025,RJFF 020130Z 17005KT 9999 FEW035 BKN040 BKN180 07/01 Q1025 RMK     1CU035 5CU040 6AC180 A3028=,
20180202_020000.002,0,RJFF,,,,0,20180202020000,-1,-1,-1,-1,180,-1,4,-1,-1,140,230,,9999,0,0,3,FEW 35   SCT 40   BKN 60,1,7,1,1,1025,RJFF 020200Z 18004KT 140V230 9999 FEW035 SCT040 BKN060 07/01     Q1025 RMK 1CU035 4CU040 6SC060 A3027=,
20180202_023000.001,0,RJFF,,,,0,20180202020000,-1,-1,-1,-1,220,-1,3,-1,-1,170,270,,6000,0,1,3,FEW 20   SCT 25   BKN 35,1,6,1,1,1024,RJFF 020230Z 22003KT 170V270 6000 -SHRA FEW020 SCT025 BKN035     06/01 Q1024 RMK 1CU020 4CU025 6CU035 A3026=,- RA SH
20180202_030000.002,0,RJFF,,,,0,20180202030000,-1,-1,-1,-1,999,-1,3,-1,-1,-1,-1,,9999,0,1,3,FEW 15   SCT 20   BKN 30,1,6,1,2,1024,RJFF 020300Z VRB03KT 9999 -SHRA FEW015 SCT020 BKN030 06/02     Q1024 RMK 1CU015 4CU020 6CU030 A3025=,- RA SH
20180202_033000.001,0,RJFF,,,,0,20180202030000,-1,-1,-1,-1,160,-1,6,-1,-1,-1,-1,,9999,0,0,3,FEW 20   SCT 30   BKN 40,1,6,1,3,1023,RJFF 020330Z 16006KT 9999 FEW020 SCT030 BKN040 06/03 Q1023 RMK     1CU020 4CU030 6CU040 A3023=,
20180202_040000.002,0,RJFF,,,,0,20180202040000,-1,-1,-1,-1,200,-1,4,-1,-1,170,240,,9999,0,1,3,FEW 20   BKN 35   BKN 60,1,7,1,3,1023,RJFF 020400Z 20004KT 170V240 9999 -SHRA FEW020 BKN035 BKN060     07/03 Q1023 RMK 1CU020 5CU035 7SC060 A3023=,- RA SH
20180202_043000.001,0,RJFF,,,,0,20180202040000,-1,-1,-1,-1,999,-1,2,-1,-1,-1,-1,,9999,0,1,3,FEW 10   SCT 20   BKN 30,1,6,1,3,1023,RJFF 020430Z VRB02KT 9999 -SHRA FEW010 SCT020 BKN030 06/03     Q1023 RMK 1CU010 4CU020 6CU030 A3023=,- RA SH
20180202_050000.001,0,RJFF,,,,0,20180202050000,-1,-1,-1,-1,290,-1,4,-1,-1,230,340,,9999,0,0,3,FEW 15   SCT 20   BKN 35,1,7,1,3,1023,RJFF 020500Z 29004KT 230V340 9999 FEW015 SCT020 BKN035 07/03     Q1023 RMK 1CU015 4CU020 5CU035 A3022=,
20180202_053000.001,0,RJFF,,,,0,20180202050000,-1,-1,-1,-1,999,-1,2,-1,-1,-1,-1,,9999,0,1,3,FEW 15   SCT 25   BKN 35,1,7,1,4,1023,RJFF 020530Z VRB02KT 9999 -SHRA FEW015 SCT025 BKN035 07/04     Q1023 RMK 1CU015 3CU025 5CU035 A3021=,- RA SH
20180202_060000.002,0,RJFF,,,,0,20180202060000,-1,-1,-1,-1,999,-1,1,-1,-1,-1,-1,,9999,0,1,3,FEW 10   SCT 15   BKN 20,1,6,1,3,1023,RJFF 020600Z VRB01KT 9999 -SHRA FEW010 SCT015 BKN020 06/03     Q1023 RMK 1CU010 3CU015 6CU020 A3021=,- RA SH
20180202_063000.001,0,RJFF,,,,0,20180202060000,-1,-1,-1,-1,260,-1,3,-1,-1,240,300,,9999,0,1,3,FEW 6   SCT 10   BKN 20,1,6,1,4,1023,RJFF 020630Z 26003KT 240V300 9999 -SHRA FEW006 SCT010 BKN020     06/04 Q1023 RMK 1ST006 3CU010 6CU020 A3021=,- RA SH
20180202_070000.002,0,RJFF,,,,0,20180202070000,-1,-1,-1,-1,350,-1,3,-1,-1,290,90,,9999,0,1,3,FEW 5   SCT 10   BKN 15,1,6,1,4,1022,RJFF 020700Z 35003KT 290V090 9999 -SHRA FEW005 SCT010 BKN015     06/04 Q1022 RMK 1ST005 3CU010 5CU015 A3021=,- RA SH
20180202_073000.001,0,RJFF,,,,0,20180202070000,-1,-1,-1,-1,999,-1,2,-1,-1,-1,-1,,9999,0,0,3,FEW 8   SCT 10   BKN 20,1,6,1,3,1022,RJFF 020730Z VRB02KT 9999 FEW008 SCT010 BKN020 06/03 Q1022 RMK     1ST008 3CU010 6CU020 A3021=,
20180202_080000.002,0,RJFF,,,,0,20180202080000,-1,-1,-1,-1,999,-1,2,-1,-1,-1,-1,,9999,0,1,3,FEW 8   SCT 30   BKN 35,1,6,1,4,1022,RJFF 020800Z VRB02KT 9999 -SHRA FEW008 SCT030 BKN035 06/04     Q1022 RMK 1ST008 4CU030 6CU035 A3020=,- RA SH
20180202_083000.001,0,RJFF,,,,0,20180202080000,-1,-1,-1,-1,170,-1,3,-1,-1,140,210,,9999,0,1,3,FEW 8   SCT 30   BKN 35,1,6,1,4,1022,RJFF 020830Z 17003KT 140V210 9999 VCSH FEW008 SCT030 BKN035     06/04 Q1022 RMK 1ST008 3CU030 5CU035 A3020=,VC SH
20180202_090000.002,0,RJFF,,,,0,20180202090000,-1,-1,-1,-1,999,-1,2,-1,-1,-1,-1,,9999,0,0,3,FEW 8   BKN 35   BKN 50,1,6,1,4,1022,RJFF 020900Z VRB02KT 9999 FEW008 BKN035 BKN050 06/04 Q1022 RMK     1ST008 5CU035 6SC050 A3021=,
20180202_093000.001,0,RJFF,,,,0,20180202090000,-1,-1,-1,-1,999,-1,2,-1,-1,-1,-1,,9999,0,0,3,FEW 10   BKN 35   BKN 50,1,6,1,4,1022,RJFF 020930Z VRB02KT 9999 FEW010 BKN035 BKN050 06/04 Q1022 RMK     1ST010 5CU035 6SC050 A3020=,
20180202_100000.003,0,RJFF,,,,0,20180202100000,-1,-1,-1,-1,999,-1,1,-1,-1,-1,-1,,9999,0,0,3,FEW 10   BKN 50   BKN 60,1,6,1,4,1023,RJFF 021000Z VRB01KT 9999 FEW010 BKN050 BKN060 06/04 Q1023 RMK     1ST010 6SC050 7SC060 A3021=,
20180202_103000.001,0,RJFF,,,,0,20180202100000,-1,-1,-1,-1,999,-1,3,-1,-1,-1,-1,,9999,0,0,3,FEW 10   SCT 50   BKN 60,1,6,1,4,1023,RJFF 021030Z VRB03KT 9999 FEW010 SCT050 BKN060 06/04 Q1023 RMK     1ST010 3SC050 7SC060 A3021=,
20180202_110000.002,0,RJFF,,,,0,20180202110000,-1,-1,-1,-1,90,-1,4,-1,-1,50,150,,9999,0,0,2,FEW 10   BKN 60,1,5,1,4,1023,RJFF 021100Z 09004KT 050V150 9999 FEW010 BKN060 05/04 Q1023     RMK 1ST010 6SC060 A3021=,
20180202_113000.001,0,RJFF,,,,0,20180202110000,-1,-1,-1,-1,999,-1,2,-1,-1,-1,-1,,9999,0,0,2,FEW 10   BKN 60,1,5,1,4,1023,RJFF 021130Z VRB02KT 9999 FEW010 BKN060 05/04 Q1023 RMK 1ST010     6SC060 A3021=,
20180202_120000.002,0,RJFF,,,,0,20180202120000,-1,-1,-1,-1,120,-1,3,-1,-1,70,160,,9999,0,0,2,FEW 10   SCT 60,1,5,1,4,1023,RJFF 021200Z 12003KT 070V160 9999 FEW010 SCT060 05/04 Q1023     RMK 1ST010 4SC060 A3021=,
20180202_123000.001,0,RJFF,,,,0,20180202120000,-1,-1,-1,-1,999,-1,2,-1,-1,-1,-1,,9999,0,0,2,FEW 10   BKN 60,1,5,1,3,1023,RJFF 021230Z VRB02KT 9999 FEW010 BKN060 05/03 Q1023 RMK 1ST010     6SC060 A3021=,
20180202_130000.003,0,RJFF,,,,0,20180202130000,-1,-1,-1,-1,999,-1,2,-1,-1,-1,-1,,9999,0,1,3,FEW 10   SCT 50   BKN 60,1,5,1,4,1023,RJFF 021300Z VRB02KT 9999 -RA FEW010 SCT050 BKN060 05/04 Q1023     RMK 1ST010 3SC050 6SC060 A3021=,- RA
20180202_133000.001,0,RJFF,,,,0,20180202130000,-1,-1,-1,-1,999,-1,2,-1,-1,-1,-1,,9999,0,1,3,FEW 10   SCT 40   BKN 60,1,4,1,3,1023,RJFF 021330Z VRB02KT 9999 -SHRA FEW010 SCT040 BKN060 04/03     Q1023 RMK 1ST010 4CU040 6SC060 A3021=,- RA SH
20180202_140000.002,0,RJFF,,,,1,20180202140000,-1,-1,-1,-1,160,-1,3,-1,-1,-1,-1,,9999,0,1,3,FEW 28   SCT 35   BKN 40,1,4,1,3,1023,RJFF 021400Z AUTO 16003KT 9999 -RA FEW028 SCT035 BKN040 04/03     Q1023 RMK A3021=,- RA
20180202_143000.001,0,RJFF,,,,1,20180202140000,-1,-1,-1,-1,999,-1,2,-1,-1,-1,-1,,9999,0,1,3,FEW 11   BKN 27   OVC 39,1,5,1,3,1023,RJFF 021430Z AUTO VRB02KT 9999 -RA FEW011 BKN027 OVC039 05/03     Q1023 RMK A3021=,- RA
20180202_150000.002,0,RJFF,,,,1,20180202150000,-1,-1,-1,-1,120,-1,2,-1,-1,-1,-1,,9999,0,1,3,FEW 23   BKN 38   OVC 43,1,5,1,3,1022,RJFF 021500Z AUTO 12002KT 9999 -RA FEW023 BKN038 OVC043 05/03     Q1022 RMK A3020=,- RA
20180202_153000.001,0,RJFF,,,,1,20180202150000,-1,-1,-1,-1,150,-1,3,-1,-1,-1,-1,,9999,0,0,3,FEW 39   BKN 47   BKN 50,1,5,1,3,1022,RJFF 021530Z AUTO 15003KT 9999 FEW039 BKN047 BKN050 05/03     Q1022 RMK A3020=,
20180202_160000.002,0,RJFF,,,,1,20180202160000,-1,-1,-1,-1,999,-1,1,-1,-1,-1,-1,,9999,0,0,1,NSC -1,1,4,1,3,1022,RJFF 021600Z AUTO VRB01KT 9999 NSC 04/03 Q1022 RMK A3019=,
20180202_163000.001,0,RJFF,,,,1,20180202160000,-1,-1,-1,-1,110,-1,2,-1,-1,-1,-1,,9999,0,0,1,NSC -1,1,4,1,3,1022,RJFF 021630Z AUTO 11002KT 9999 NSC 04/03 Q1022 RMK A3019=,
20180202_170000.002,0,RJFF,,,,1,20180202170000,-1,-1,-1,-1,160,-1,3,-1,-1,140,200,,9000,0,0,2,FEW 49   SCT 220,1,3,1,2,1022,RJFF 021700Z AUTO 16003KT 140V200 9000 FEW049 SCT220 03/02     Q1022 RMK A3020=,
20180202_173000.001,0,RJFF,,,,1,20180202170000,-1,-1,-1,-1,0,-1,0,-1,-1,-1,-1,,9999,0,0,1,NSC -1,1,3,1,2,1022,RJFF 021730Z AUTO 00000KT 9999 NSC 03/02 Q1022 RMK A3020=,
20180202_180000.003,0,RJFF,,,,1,20180202180000,-1,-1,-1,-1,999,-1,2,-1,-1,-1,-1,,9999,0,0,1,NSC -1,1,2,1,1,1022,RJFF 021800Z AUTO VRB02KT 9999 NSC 02/01 Q1022 RMK A3019=,
20180202_183000.001,0,RJFF,,,,1,20180202180000,-1,-1,-1,-1,240,-1,5,-1,-1,220,280,,9999,0,0,3,FEW 45   SCT 50   BKN 60,1,5,-1,0,1022,RJFF 021830Z AUTO 24005KT 220V280 9999 FEW045 SCT050 BKN060     05/M00 Q1022 RMK A3018=,
20180202_190000.003,0,RJFF,,,,1,20180202190000,-1,-1,-1,-1,290,-1,6,-1,-1,260,340,,9999,0,0,3,FEW 47   SCT 50   BKN 60,1,5,-1,0,1021,RJFF 021900Z AUTO 29006KT 260V340 9999 FEW047 SCT050 BKN060     05/M00 Q1021 RMK A3017=,
20180202_193000.001,0,RJFF,,,,1,20180202190000,-1,-1,-1,-1,999,-1,2,-1,-1,-1,-1,,9999,0,0,1,NSC -1,1,3,1,1,1021,RJFF 021930Z AUTO VRB02KT 9999 NSC 03/01 Q1021 RMK A3018=,
20180202_200000.003,0,RJFF,,,,1,20180202200000,-1,-1,-1,-1,100,-1,3,-1,-1,80,150,,9999,0,0,1,NSC -1,1,3,1,1,1021,RJFF 022000Z AUTO 10003KT 080V150 9999 NSC 03/01 Q1021 RMK     A3018=,
20180202_203000.001,0,RJFF,,,,1,20180202200000,-1,-1,-1,-1,999,-1,2,-1,-1,-1,-1,,9999,0,0,1,NSC -1,1,2,1,0,1022,RJFF 022030Z AUTO VRB02KT 9999 NSC 02/00 Q1022 RMK A3018=,
20180202_210000.002,0,RJFF,,,,0,20180202210000,-1,-1,-1,-1,999,-1,1,-1,-1,-1,-1,,9999,0,0,2,FEW 40   SCT 50,1,2,1,0,1022,RJFF 022100Z VRB01KT 9999 FEW040 SCT050 02/00 Q1022 RMK 1CU040     3SC050 A3019=,
20180202_213000.001,0,RJFF,,,,0,20180202210000,-1,-1,-1,-1,170,-1,3,-1,-1,-1,-1,,9999,0,0,1,FEW 30,1,1,-1,0,1022,RJFF 022130Z 17003KT 9999 FEW030 01/M00 Q1022 RMK 1CU030     A3019=,
20180202_220000.002,0,RJFF,,,,0,20180202220000,-1,-1,-1,-1,140,-1,3,-1,-1,-1,-1,,9999,0,0,2,FEW 15   BKN -9999,1,1,1,0,1022,RJFF 022200Z 14003KT 9999 FEW015 BKN/// 01/00 Q1022 RMK 1CU015     A3019=,
20180202_223000.002,0,RJFF,,,,0,20180202220000,-1,-1,-1,-1,160,-1,6,-1,-1,-1,-1,,9999,0,0,2,FEW 25   BKN -9999,1,1,-1,1,1022,RJFF 022230Z 16006KT 9999 FEW025 BKN/// 01/M01 Q1022 RMK     1CU025 A3020=,
20180202_230000.003,0,RJFF,,,,0,20180202230000,-1,-1,-1,-1,150,-1,5,-1,-1,-1,-1,,9999,0,0,2,FEW 25   BKN -9999,1,1,-1,0,1022,RJFF 022300Z 15005KT 9999 FEW025 BKN/// 01/M00 Q1022 RMK     1CU025 A3020=,
20180202_233000.001,0,RJFF,,,,0,20180202230000,-1,-1,-1,-1,150,-1,5,-1,-1,-1,-1,,9999,0,0,2,FEW 25   BKN -9999,1,3,1,0,1022,RJFF 022330Z 15005KT 9999 FEW025 BKN/// 03/00 Q1022 RMK 1CU025     A3020=,
20180203_000000.002,0,RJFF,,,,0,20180203000000,-1,-1,-1,-1,150,-1,6,-1,-1,-1,-1,,9999,0,0,2,FEW 30   BKN -9999,1,4,1,1,1022,RJFF 030000Z 15006KT 9999 FEW030 BKN/// 04/01 Q1022 RMK 1CU030     A3021=,
20180203_003000.001,0,RJFF,,,,0,20180203000000,-1,-1,-1,-1,160,-1,5,-1,-1,-1,-1,,9999,0,0,3,FEW 30   SCT 50   BKN -9999,1,5,1,2,1022,RJFF 030030Z 16005KT 9999 FEW030 SCT050 BKN/// 05/02 Q1022 RMK     1CU030 3SC050 A3020=,
20180203_010000.003,0,RJFF,,,,0,20180203010000,-1,-1,-1,-1,310,-1,9,-1,-1,280,340,,9999,0,0,3,FEW 30   SCT 50   BKN -9999,1,7,-1,1,1022,RJFF 030100Z 31009KT 280V340 9999 FEW030 SCT050 BKN/// 07/M01     Q1022 RMK 1CU030 3SC050 A3019=,
20180203_013000.001,0,RJFF,,,,0,20180203010000,-1,-1,-1,-1,300,-1,12,-1,-1,-1,-1,,9999,0,0,2,FEW 30   SCT 50,1,7,-1,3,1022,RJFF 030130Z 30012KT 9999 FEW030 SCT050 07/M03 Q1022 RMK     1CU030 3SC050 A3020=,
20180203_020000.002,0,RJFF,,,,0,20180203020000,-1,-1,-1,-1,290,-1,12,-1,-1,-1,-1,,9999,0,0,2,FEW 25   BKN -9999,1,8,-1,5,1022,RJFF 030200Z 29012KT 9999 FEW025 BKN/// 08/M05 Q1022 RMK     1CU025 A3020=,
20180203_023000.001,0,RJFF,,,,0,20180203020000,-1,-1,-1,-1,300,-1,11,-1,-1,260,330,,9999,0,0,3,FEW 25   SCT 60   BKN -9999,1,7,-1,6,1022,RJFF 030230Z 30011KT 260V330 9999 FEW025 SCT060 BKN/// 07/M06     Q1022 RMK 1CU025 3SC060 A3020=,
20180203_030000.002,0,RJFF,,,,0,20180203030000,-1,-1,-1,-1,300,-1,11,-1,-1,260,330,,9999,0,1,3,FEW 30   SCT 40   BKN -9999,1,7,-1,5,1022,RJFF 030300Z 30011KT 260V330 9999 -SHRA FEW030 SCT040 BKN///     07/M05 Q1022 RMK 1CU030 4CU040 A3019=,- RA SH
20180203_033000.001,0,RJFF,,,,0,20180203030000,-1,-1,-1,-1,290,-1,9,-1,-1,250,320,,9999,0,0,3,FEW 30   SCT 40   BKN -9999,1,7,-1,3,1021,RJFF 030330Z 29009KT 250V320 9999 FEW030 SCT040 BKN/// 07/M03     Q1021 RMK 1CU030 4CU040 A3018=,
20180203_040000.002,0,RJFF,,,,0,20180203040000,-1,-1,-1,-1,290,-1,10,-1,-1,260,320,,9999,0,0,3,FEW 20   SCT 40   BKN 60,1,6,-1,2,1021,RJFF 030400Z 29010KT 260V320 9999 FEW020 SCT040 BKN060 06/M02     Q1021 RMK 1CU020 3CU040 5SC060 A3018=,
20180203_043000.001,0,RJFF,,,,0,20180203040000,-1,-1,-1,-1,300,-1,13,-1,-1,260,340,,6000,0,1,3,FEW 10   SCT 20   BKN 35,1,4,1,0,1021,RJFF 030430Z 30013KT 260V340 6000 -SHRASN FEW010 SCT020 BKN035     04/00 Q1021 RMK 1ST010 4CU020 6CU035 A3017=,- RA SN SH
20180203_050000.002,0,RJFF,,,,0,20180203050000,-1,-1,-1,-1,280,-1,9,-1,-1,190,320,,9999,0,0,3,FEW 20   SCT 25   BKN 35,1,6,-1,0,1021,RJFF 030500Z 28009KT 190V320 9999 FEW020 SCT025 BKN035 06/M00     Q1021 RMK 1CU020 3CU025 5CU035 A3017=,
20180203_053000.001,0,RJFF,,,,0,20180203050000,-1,-1,-1,-1,290,-1,12,-1,-1,240,320,,9999,0,1,3,FEW 20   SCT 30   BKN 40,1,5,-1,1,1021,RJFF 030530Z 29012KT 240V320 9999 VCSH FEW020 SCT030 BKN040     05/M01 Q1021 RMK 1CU020 3CU030 5CU040 A3017=,VC SH
20180203_060000.002,0,RJFF,,,,0,20180203060000,-1,-1,-1,-1,280,-1,11,-1,-1,240,320,,9999,0,1,3,FEW 20   SCT 30   BKN 40,1,5,-1,2,1021,RJFF 030600Z 28011KT 240V320 9999 -SHRA FEW020 SCT030 BKN040     05/M02 Q1021 RMK 1CU020 4CU030 6CU040 A3018=,- RA SH
20180203_063000.001,0,RJFF,,,,0,20180203060000,-1,-1,-1,-1,280,-1,13,-1,-1,250,320,,9999,0,0,3,FEW 20   SCT 30   BKN 40,1,5,-1,3,1022,RJFF 030630Z 28013KT 250V320 9999 FEW020 SCT030 BKN040 05/M03     Q1022 RMK 1CU020 3CU030 5CU040 A3018=,
20180203_070000.003,0,RJFF,,,,0,20180203070000,-1,-1,-1,-1,280,-1,13,-1,24,260,320,,9999,0,0,3,FEW 20   SCT 30   BKN 40,1,4,-1,4,1022,RJFF 030700Z 28013G24KT 260V320 9999 FEW020 SCT030 BKN040     04/M04 Q1022 RMK 1CU020 3CU030 5CU040 A3018=,
20180203_073000.001,0,RJFF,,,,0,20180203070000,-1,-1,-1,-1,270,-1,11,-1,-1,220,340,,9999,0,0,2,FEW 35   BKN 40,1,4,-1,6,1021,RJFF 030730Z 27011KT 220V340 9999 FEW035 BKN040 04/M06 Q1021     RMK 1CU035 5CU040 A3018=,
20180203_080000.002,0,RJFF,,,,0,20180203080000,-1,-1,-1,-1,280,-1,12,-1,-1,-1,-1,,9999,0,0,2,FEW 35   BKN 40,1,4,-1,5,1021,RJFF 030800Z 28012KT 9999 FEW035 BKN040 04/M05 Q1021 RMK     1CU035 5CU040 A3018=,
20180203_083000.001,0,RJFF,,,,0,20180203080000,-1,-1,-1,-1,270,-1,9,-1,-1,240,310,,9999,0,0,2,FEW 35   BKN 40,1,4,-1,6,1021,RJFF 030830Z 27009KT 240V310 9999 FEW035 BKN040 04/M06 Q1021     RMK 1CU035 6CU040 A3017=,
20180203_090000.002,0,RJFF,,,,0,20180203090000,-1,-1,-1,-1,270,-1,9,-1,-1,230,320,,9999,0,0,3,FEW 35   BKN 40   BKN 50,1,4,-1,6,1022,RJFF 030900Z 27009KT 230V320 9999 FEW035 BKN040 BKN050 04/M06     Q1022 RMK 1CU035 5CU040 6SC050 A3018=,
20180203_093000.001,0,RJFF,,,,0,20180203090000,-1,-1,-1,-1,280,-1,9,-1,-1,230,310,,9999,0,0,3,FEW 35   SCT 40   BKN 60,1,4,-1,7,1022,RJFF 030930Z 28009KT 230V310 9999 FEW035 SCT040 BKN060 04/M07     Q1022 RMK 1CU035 3CU040 5SC060 A3018=,
20180203_100000.002,0,RJFF,,,,0,20180203100000,-1,-1,-1,-1,270,-1,9,-1,-1,220,300,,9999,0,0,3,FEW 35   SCT 40   BKN 60,1,4,-1,6,1022,RJFF 031000Z 27009KT 220V300 9999 FEW035 SCT040 BKN060 04/M06     Q1022 RMK 1CU035 4CU040 5SC060 A3019=,
20180203_103000.001,0,RJFF,,,,0,20180203100000,-1,-1,-1,-1,270,-1,10,-1,-1,240,310,,9999,0,0,3,FEW 35   SCT 40   BKN 60,1,4,-1,6,1022,RJFF 031030Z 27010KT 240V310 9999 FEW035 SCT040 BKN060 04/M06     Q1022 RMK 1CU035 4CU040 5SC060 A3019=,
20180203_110000.002,0,RJFF,,,,0,20180203110000,-1,-1,-1,-1,270,-1,7,-1,-1,220,320,,9999,0,0,3,FEW 35   BKN 40   BKN 60,1,4,-1,5,1022,RJFF 031100Z 27007KT 220V320 9999 FEW035 BKN040 BKN060 04/M05     Q1022 RMK 1CU035 5CU040 6SC060 A3019=,
20180203_113000.001,0,RJFF,,,,0,20180203110000,-1,-1,-1,-1,280,-1,10,-1,-1,-1,-1,,9999,0,0,3,FEW 35   SCT 40   BKN 60,1,4,-1,6,1022,RJFF 031130Z 28010KT 9999 FEW035 SCT040 BKN060 04/M06 Q1022     RMK 1CU035 4CU040 6SC060 A3020=,
20180203_120000.002,0,RJFF,,,,0,20180203120000,-1,-1,-1,-1,250,-1,7,-1,-1,210,270,,9999,0,1,3,FEW 30   SCT 35   BKN 45,1,4,-1,6,1022,RJFF 031200Z 25007KT 210V270 9999 -SHSN FEW030 SCT035 BKN045     04/M06 Q1022 RMK 1CU030 4CU035 6CU045 A3020=,- SN SH
20180203_123000.001,0,RJFF,,,,0,20180203120000,-1,-1,-1,-1,290,-1,7,-1,-1,230,320,,9999,0,1,3,FEW 30   SCT 35   BKN 45,1,4,-1,5,1022,RJFF 031230Z 29007KT 230V320 9999 -SHSN FEW030 SCT035 BKN045     04/M05 Q1022 RMK 1CU030 4CU035 6CU045 A3020=,- SN SH
20180203_130000.002,0,RJFF,,,,0,20180203130000,-1,-1,-1,-1,300,-1,11,-1,-1,-1,-1,,9999,0,0,3,FEW 30   SCT 40   BKN 45,1,4,-1,5,1022,RJFF 031300Z 30011KT 9999 FEW030 SCT040 BKN045 04/M05 Q1022     RMK 1CU030 4CU040 6CU045 A3020=,
20180203_133000.001,0,RJFF,,,,0,20180203130000,-1,-1,-1,-1,280,-1,9,-1,-1,-1,-1,,9999,0,0,3,FEW 30   SCT 45   BKN 60,1,4,-1,7,1022,RJFF 031330Z 28009KT 9999 FEW030 SCT045 BKN060 04/M07 Q1022     RMK 1CU030 4CU045 6SC060 A3020=,
20180203_140000.002,0,RJFF,,,,1,20180203140000,-1,-1,-1,-1,310,-1,11,-1,-1,-1,-1,,9999,0,0,3,FEW 47   SCT 49   BKN 50,1,4,-1,7,1022,RJFF 031400Z AUTO 31011KT 9999 FEW047 SCT049 BKN050 04/M07     Q1022 RMK A3020=,
20180203_143000.001,0,RJFF,,,,1,20180203140000,-1,-1,-1,-1,310,-1,10,-1,-1,-1,-1,,9999,0,1,3,SCT 46   BKN 49   OVC 60,1,4,-1,6,1022,RJFF 031430Z AUTO 31010KT 9999 -SN SCT046 BKN049 OVC060 04/M06     Q1022 RMK A3019=,- SN
20180203_150000.002,0,RJFF,,,,1,20180203150000,-1,-1,-1,-1,310,-1,10,-1,-1,270,340,,9999,0,0,2,BKN 43   OVC 50,1,4,-1,5,1022,RJFF 031500Z AUTO 31010KT 270V340 9999 BKN043 OVC050 04/M05     Q1022 RMK A3020=,
20180203_153000.001,0,RJFF,,,,1,20180203150000,-1,-1,-1,-1,320,-1,14,-1,-1,-1,-1,,9999,0,1,3,FEW 40   SCT 42   OVC 46,1,3,-1,7,1022,RJFF 031530Z AUTO 32014KT 9999 -SN FEW040 SCT042 OVC046 03/M07     Q1022 RMK A3020=,- SN
20180203_160000.002,0,RJFF,,,,1,20180203160000,-1,-1,-1,-1,310,-1,12,-1,-1,-1,-1,,9999,0,0,2,BKN 46   OVC 50,1,3,-1,7,1022,RJFF 031600Z AUTO 31012KT 9999 BKN046 OVC050 03/M07 Q1022 RMK     A3020=,
20180203_163000.001,0,RJFF,,,,1,20180203160000,-1,-1,-1,-1,320,-1,14,-1,-1,-1,-1,,9999,0,0,2,BKN 46   OVC 50,1,2,-1,7,1022,RJFF 031630Z AUTO 32014KT 9999 BKN046 OVC050 02/M07 Q1022 RMK     A3020=,
20180203_170000.002,0,RJFF,,,,1,20180203170000,-1,-1,-1,-1,320,-1,14,-1,-1,-1,-1,,9999,0,1,3,FEW 36   BKN 38   BKN 43,1,2,-1,5,1022,RJFF 031700Z AUTO 32014KT 9999 -SN FEW036 BKN038 BKN043 02/M05     Q1022 RMK A3020=,- SN
20180203_173000.001,0,RJFF,,,,1,20180203170000,-1,-1,-1,-1,320,-1,13,-1,-1,-1,-1,,9999,0,1,2,FEW 24   BKN 32,1,2,-1,4,1022,RJFF 031730Z AUTO 32013KT 9999 -SN FEW024 BKN032 02/M04 Q1022     RMK A3021=,- SN
20180203_180000.003,0,RJFF,,,,1,20180203180000,-1,-1,-1,-1,320,-1,13,-1,23,280,350,,9999,0,1,2,FEW 24   BKN 30,1,1,-1,5,1023,RJFF 031800Z AUTO 32013G23KT 280V350 9999 -SN FEW024 BKN030     01/M05 Q1023 RMK A3021=,- SN
20180203_183000.001,0,RJFF,,,,1,20180203180000,-1,-1,-1,-1,310,-1,12,-1,-1,280,340,,9999,0,1,1,BKN 31,1,1,-1,5,1023,RJFF 031830Z AUTO 31012KT 280V340 9999 -SN BKN031 01/M05 Q1023     RMK A3021=,- SN
20180203_190000.002,0,RJFF,,,,1,20180203190000,-1,-1,-1,-1,310,-1,14,-1,-1,-1,-1,,9999,0,1,3,FEW 12   BKN 20   BKN 30,1,1,-1,5,1023,RJFF 031900Z AUTO 31014KT 9999 -SN FEW012 BKN020 BKN030 01/M05     Q1023 RMK A3021=,- SN
20180203_193000.001,0,RJFF,,,,1,20180203190000,-1,-1,-1,-1,310,-1,11,-1,-1,-1,-1,,2500,0,1,3,FEW 6   SCT 9   BKN 20,1,0,-1,4,1023,RJFF 031930Z AUTO 31011KT 2500 -SN FEW006 SCT009 BKN020 00/M04     Q1023 RMK A3022=,- SN
20180203_200000.002,0,RJFF,,,,1,20180203200000,-1,-1,-1,-1,300,-1,11,-1,-1,260,330,,3500,0,1,3,FEW 6   BKN 12   BKN 25,1,0,-1,4,1023,RJFF 032000Z AUTO 30011KT 260V330 3500 -SN FEW006 BKN012     BKN025 00/M04 Q1023 RMK A3022=,- SN
20180203_203000.001,0,RJFF,,,,1,20180203200000,-1,-1,-1,-1,310,-1,14,-1,-1,-1,-1,,9999,0,1,3,FEW 14   SCT 24   BKN 30,1,0,-1,5,1023,RJFF 032030Z AUTO 31014KT 9999 -SN FEW014 SCT024 BKN030 00/M05     Q1023 RMK A3021=,- SN
20180203_210000.002,0,RJFF,,,,0,20180203210000,-1,-1,-1,-1,310,-1,13,-1,-1,-1,-1,,9999,0,1,3,FEW 15   SCT 25   BKN 40,1,0,-1,7,1023,RJFF 032100Z 31013KT 9999 VCSH FEW015 SCT025 BKN040 00/M07     Q1023 RMK 1CU015 3CU025 6CU040 A3022=,VC SH
20180203_213000.001,0,RJFF,,,,0,20180203210000,-1,-1,-1,-1,300,-1,11,-1,-1,260,330,,6000,0,1,3,FEW 10   SCT 20   BKN 25,-1,0,-1,5,1023,RJFF 032130Z 30011KT 260V330 6000 -SHSN FEW010 SCT020 BKN025     M00/M05 Q1023 RMK 1CU010 3CU020 6CU025 A3023=,- SN SH
20180203_220000.002,0,RJFF,,,,0,20180203220000,-1,-1,-1,-1,280,-1,15,-1,29,250,320,,3000,0,1,3,FEW 10   SCT 15   BKN 25,-1,1,-1,5,1023,RJFF 032200Z 28015G29KT 250V320 3000 -SHSN FEW010 SCT015     BKN025 M01/M05 Q1023 RMK 1CU010 3CU015 6CU025 A3023=,- SN SH
20180203_223000.002,0,RJFF,,,,0,20180203220000,-1,-1,-1,-1,310,-1,12,-1,23,-1,-1,,6000,0,1,3,FEW 6   SCT 10   BKN 20,-1,1,-1,4,1024,RJFF 032230Z 31012G23KT 6000 -SHSN FEW006 SCT010 BKN020     M01/M04 Q1024 RMK 1ST006 3CU010 6CU020 A3024=,- SN SH
20180203_230000.002,0,RJFF,,,,0,20180203230000,-1,-1,-1,-1,270,-1,12,-1,-1,240,320,,8000,0,1,3,FEW 6   SCT 20   BKN 35,1,0,-1,6,1024,RJFF 032300Z 27012KT 240V320 8000 -SHSN FEW006 SCT020 BKN035     00/M06 Q1024 RMK 1ST006 4CU020 6CU035 A3024=,- SN SH
20180203_233000.001,0,RJFF,,,,0,20180203230000,-1,-1,-1,-1,270,-1,15,-1,25,240,310,,9999,0,1,3,FEW 10   SCT 20   BKN 35,1,0,-1,7,1023,RJFF 032330Z 27015G25KT 240V310 9999 VCSH FEW010 SCT020 BKN035     00/M07 Q1023 RMK 1ST010 4CU020 6CU035 A3023=,VC SH
20180204_000000.002,0,RJFF,,,,0,20180204000000,-1,-1,-1,-1,270,-1,13,-1,-1,230,310,,7000,1,1,3,FEW 8   SCT 15   BKN 30,-1,0,-1,6,1024,RJFF 040000Z 27013KT 230V310 7000 R34/1500VP2000U -SHSN FEW008     SCT015 BKN030 M00/M06 Q1024 RMK 1ST008 3CU015 6CU030           A3024=,- SN SH
20180204_003000.001,0,RJFF,,,,0,20180204000000,-1,-1,-1,-1,280,-1,15,-1,-1,240,310,,9999,0,1,3,FEW 10   SCT 20   BKN 30,1,0,-1,7,1024,RJFF 040030Z 28015KT 240V310 9999 -SHSN FEW010 SCT020 BKN030     00/M07 Q1024 RMK 1CU010 3CU020 5CU030 A3024=,- SN SH
20180204_010000.002,0,RJFF,,,,0,20180204010000,-1,-1,-1,-1,280,-1,14,-1,25,260,330,,9999,0,1,3,FEW 15   SCT 20   BKN 35,1,1,-1,6,1024,RJFF 040100Z 28014G25KT 260V330 9999 -SHSN FEW015 SCT020     BKN035 01/M06 Q1024 RMK 1CU015 3CU020 6CU035 A3024=,- SN SH
20180204_013000.001,0,RJFF,,,,0,20180204010000,-1,-1,-1,-1,290,-1,16,-1,26,250,320,,9999,0,1,3,FEW 10   SCT 20   BKN 30,1,1,-1,6,1024,RJFF 040130Z 29016G26KT 250V320 9999 -SHSN FEW010 SCT020     BKN030 01/M06 Q1024 RMK 1CU010 3CU020 6CU030 A3024=,- SN SH
20180204_020000.002,0,RJFF,,,,0,20180204020000,-1,-1,-1,-1,270,-1,14,-1,-1,230,310,,9999,0,1,3,FEW 10   SCT 25   BKN 35,1,0,-1,6,1024,RJFF 040200Z 27014KT 230V310 9999 -SHSN FEW010 SCT025 BKN035     00/M06 Q1024 RMK 1ST010 4CU025 6CU035 A3024=,- SN SH
20180204_023000.001,0,RJFF,,,,0,20180204020000,-1,-1,-1,-1,280,-1,15,-1,25,240,310,,9999,0,1,3,FEW 15   SCT 25   BKN 35,1,1,-1,6,1024,RJFF 040230Z 28015G25KT 240V310 9999 -SHSN FEW015 SCT025     BKN035 01/M06 Q1024 RMK 1CU015 3CU025 6CU035 A3024=,- SN SH
20180204_030000.002,0,RJFF,,,,0,20180204030000,-1,-1,-1,-1,300,-1,14,-1,-1,-1,-1,,9999,0,1,3,FEW 15   SCT 20   BKN 35,1,1,-1,6,1023,RJFF 040300Z 30014KT 9999 -SHSN FEW015 SCT020 BKN035 01/M06     Q1023 RMK 1CU015 3CU020 6CU035 A3023=,- SN SH
20180204_033000.001,0,RJFF,,,,0,20180204030000,-1,-1,-1,-1,280,-1,14,-1,-1,240,320,,9999,0,1,3,FEW 15   SCT 25   BKN 35,1,1,-1,7,1023,RJFF 040330Z 28014KT 240V320 9999 -SHSN FEW015 SCT025 BKN035     01/M07 Q1023 RMK 1CU015 4CU025 7CU035 A3022=,- SN SH
20180204_040000.002,0,RJFF,,,,0,20180204040000,-1,-1,-1,-1,280,-1,16,-1,-1,240,320,,9999,0,1,3,FEW 20   SCT 30   BKN 35,1,2,-1,8,1022,RJFF 040400Z 28016KT 240V320 9999 VCSH FEW020 SCT030 BKN035     02/M08 Q1022 RMK 1CU020 3CU030 5CU035 A3020=,VC SH
20180204_043000.001,0,RJFF,,,,0,20180204040000,-1,-1,-1,-1,270,-1,13,-1,24,240,310,,9999,0,1,3,FEW 20   SCT 30   BKN 40,1,1,-1,8,1022,RJFF 040430Z 27013G24KT 240V310 9999 -SHSN FEW020 SCT030     BKN040 01/M08 Q1022 RMK 1CU020 4CU030 6CU040 A3021=,- SN SH
20180204_050000.002,0,RJFF,,,,0,20180204050000,-1,-1,-1,-1,280,-1,14,-1,24,240,310,,9999,0,1,3,FEW 20   SCT 35   BKN 40,1,2,-1,8,1022,RJFF 040500Z 28014G24KT 240V310 9999 -SHSN FEW020 SCT035     BKN040 02/M08 Q1022 RMK 1CU020 4CU035 6CU040 A3020=,- SN SH
20180204_053000.001,0,RJFF,,,,0,20180204050000,-1,-1,-1,-1,300,-1,13,-1,23,-1,-1,,9999,0,1,3,FEW 15   SCT 30   BKN 40,1,1,-1,7,1022,RJFF 040530Z 30013G23KT 9999 -SHSN FEW015 SCT030 BKN040 01/M07     Q1022 RMK 1CU015 4CU030 6CU040 A3021=,- SN SH
20180204_060000.002,0,RJFF,,,,0,20180204060000,-1,-1,-1,-1,280,-1,14,-1,-1,250,320,,9999,0,1,3,FEW 15   SCT 30   BKN 40,1,1,-1,8,1022,RJFF 040600Z 28014KT 250V320 9999 -SHSN FEW015 SCT030 BKN040     01/M08 Q1022 RMK 1CU015 4CU030 7CU040 A3020=,- SN SH
20180204_063000.001,0,RJFF,,,,0,20180204060000,-1,-1,-1,-1,300,-1,13,-1,-1,240,330,,9999,0,1,3,FEW 15   SCT 30   BKN 35,1,1,-1,7,1022,RJFF 040630Z 30013KT 240V330 9999 -SHSN FEW015 SCT030 BKN035     01/M07 Q1022 RMK 1CU015 3CU030 7CU035 A3020=,- SN SH
20180204_070000.002,0,RJFF,,,,0,20180204070000,-1,-1,-1,-1,280,-1,8,-1,-1,240,310,,9999,0,0,3,FEW 15   SCT 30   BKN 40,1,1,-1,7,1022,RJFF 040700Z 28008KT 240V310 9999 FEW015 SCT030 BKN040 01/M07     Q1022 RMK 1CU015 3CU030 7CU040 A3020=,
20180204_073000.001,0,RJFF,,,,0,20180204070000,-1,-1,-1,-1,300,-1,11,-1,-1,260,340,,9999,0,1,3,FEW 15   SCT 30   BKN 40,1,1,-1,7,1022,RJFF 040730Z 30011KT 260V340 9999 -SHSN FEW015 SCT030 BKN040     01/M07 Q1022 RMK 1CU015 4CU030 7CU040 A3021=,- SN SH
20180204_080000.002,0,RJFF,,,,0,20180204080000,-1,-1,-1,-1,280,-1,12,-1,-1,250,320,,9999,0,0,3,FEW 15   SCT 30   BKN 40,1,1,-1,9,1022,RJFF 040800Z 28012KT 250V320 9999 FEW015 SCT030 BKN040 01/M09     Q1022 RMK 1CU015 3CU030 5CU040 A3021=,
20180204_083000.001,0,RJFF,,,,0,20180204080000,-1,-1,-1,-1,290,-1,9,-1,-1,250,330,,9999,0,0,3,FEW 15   SCT 30   BKN 40,1,1,-1,9,1023,RJFF 040830Z 29009KT 250V330 9999 FEW015 SCT030 BKN040 01/M09     Q1023 RMK 1CU015 3CU030 6CU040 A3021=,
20180204_090000.002,0,RJFF,,,,0,20180204090000,-1,-1,-1,-1,310,-1,10,-1,-1,250,340,,9999,0,0,3,FEW 15   SCT 30   BKN 40,1,1,-1,9,1023,RJFF 040900Z 31010KT 250V340 9999 FEW015 SCT030 BKN040 01/M09     Q1023 RMK 1CU015 3CU030 6CU040 A3022=,
20180204_093000.001,0,RJFF,,,,0,20180204090000,-1,-1,-1,-1,310,-1,7,-1,-1,260,350,,9999,0,0,3,FEW 20   SCT 30   BKN 40,1,1,-1,8,1023,RJFF 040930Z 31007KT 260V350 9999 FEW020 SCT030 BKN040 01/M08     Q1023 RMK 1CU020 3CU030 6CU040 A3022=,
20180204_100000.002,0,RJFF,,,,0,20180204100000,-1,-1,-1,-1,290,-1,9,-1,-1,250,320,,9999,0,0,3,FEW 20   SCT 30   BKN 40,1,1,-1,9,1023,RJFF 041000Z 29009KT 250V320 9999 FEW020 SCT030 BKN040 01/M09     Q1023 RMK 1CU020 3CU030 6CU040 A3023=,
20180204_103000.001,0,RJFF,,,,0,20180204100000,-1,-1,-1,-1,290,-1,9,-1,-1,260,320,,9999,0,0,3,FEW 20   SCT 30   BKN 40,1,1,-1,8,1023,RJFF 041030Z 29009KT 260V320 9999 FEW020 SCT030 BKN040 01/M08     Q1023 RMK 1CU020 3CU030 6CU040 A3023=,
20180204_110000.003,0,RJFF,,,,0,20180204110000,-1,-1,-1,-1,300,-1,8,-1,-1,250,330,,9999,0,0,3,FEW 20   SCT 30   BKN 40,1,1,-1,9,1024,RJFF 041100Z 30008KT 250V330 9999 FEW020 SCT030 BKN040 01/M09     Q1024 RMK 1CU020 3CU030 6CU040 A3024=,
20180204_113000.001,0,RJFF,,,,0,20180204110000,-1,-1,-1,-1,280,-1,7,-1,-1,240,320,,9999,0,0,3,FEW 20   SCT 30   BKN 45,1,1,-1,9,1024,RJFF 041130Z 28007KT 240V320 9999 FEW020 SCT030 BKN045 01/M09     Q1024 RMK 1CU020 3CU030 6CU045 A3024=,
20180204_120000.002,0,RJFF,,,,0,20180204120000,-1,-1,-1,-1,290,-1,7,-1,-1,-1,-1,,9999,0,0,3,FEW 20   SCT 30   BKN 45,1,1,-1,9,1023,RJFF 041200Z 29007KT 9999 FEW020 SCT030 BKN045 01/M09 Q1023     RMK 1CU020 3CU030 5CU045 A3023=,
20180204_123000.001,0,RJFF,,,,0,20180204120000,-1,-1,-1,-1,280,-1,5,-1,-1,240,310,,9999,0,0,3,FEW 25   SCT 30   BKN 45,1,3,-1,8,1023,RJFF 041230Z 28005KT 240V310 9999 FEW025 SCT030 BKN045 03/M08     Q1023 RMK 1CU025 3CU030 5CU045 A3023=,
20180204_130000.002,0,RJFF,,,,0,20180204130000,-1,-1,-1,-1,250,-1,5,-1,-1,210,290,,9999,0,0,3,FEW 25   SCT 40   BKN 45,1,1,-1,9,1023,RJFF 041300Z 25005KT 210V290 9999 FEW025 SCT040 BKN045 01/M09     Q1023 RMK 1CU025 3CU040 5CU045 A3023=,
20180204_133000.001,0,RJFF,,,,0,20180204130000,-1,-1,-1,-1,250,-1,8,-1,-1,210,280,,9999,0,0,3,FEW 30   SCT 40   BKN 45,1,2,-1,10,1023,RJFF 041330Z 25008KT 210V280 9999 FEW030 SCT040 BKN045 02/M10     Q1023 RMK 1CU030 3CU040 5CU045 A3023=,
20180204_140000.002,0,RJFF,,,,1,20180204140000,-1,-1,-1,-1,250,-1,6,-1,-1,200,290,,9999,0,0,2,BKN 49   OVC 60,1,2,-1,10,1023,RJFF 041400Z AUTO 25006KT 200V290 9999 BKN049 OVC060 02/M10     Q1023 RMK A3022=,
20180204_143000.001,0,RJFF,,,,1,20180204140000,-1,-1,-1,-1,270,-1,9,-1,-1,230,310,,9999,0,0,3,BKN 47   BKN 50   OVC 60,1,2,-1,9,1023,RJFF 041430Z AUTO 27009KT 230V310 9999 BKN047 BKN050 OVC060     02/M09 Q1023 RMK A3022=,
20180204_150000.002,0,RJFF,,,,1,20180204150000,-1,-1,-1,-1,280,-1,8,-1,-1,250,310,,9999,0,0,3,SCT 47   BKN 50   OVC 60,1,2,-1,9,1023,RJFF 041500Z AUTO 28008KT 250V310 9999 SCT047 BKN050 OVC060     02/M09 Q1023 RMK A3022=,
20180204_153000.001,0,RJFF,,,,1,20180204150000,-1,-1,-1,-1,290,-1,9,-1,-1,-1,-1,,9999,0,0,2,BKN 46   OVC 50,1,2,-1,9,1023,RJFF 041530Z AUTO 29009KT 9999 BKN046 OVC050 02/M09 Q1023 RMK     A3021=,
20180204_160000.002,0,RJFF,,,,1,20180204160000,-1,-1,-1,-1,290,-1,11,-1,-1,250,320,,9999,0,0,3,FEW 48   BKN 50   OVC 60,1,2,-1,9,1023,RJFF 041600Z AUTO 29011KT 250V320 9999 FEW048 BKN050 OVC060     02/M09 Q1023 RMK A3021=,
20180204_163000.001,0,RJFF,,,,1,20180204160000,-1,-1,-1,-1,290,-1,12,-1,-1,250,320,,9999,0,0,3,SCT 49   BKN 50   OVC 60,1,1,-1,9,1023,RJFF 041630Z AUTO 29012KT 250V320 9999 SCT049 BKN050 OVC060     01/M09 Q1023 RMK A3021=,
20180204_170000.002,0,RJFF,,,,1,20180204170000,-1,-1,-1,-1,300,-1,14,-1,-1,-1,-1,,9999,0,0,1,NSC -1,1,1,-1,10,1023,RJFF 041700Z AUTO 30014KT 9999 NSC 01/M10 Q1023 RMK A3022=,
20180204_173000.001,0,RJFF,,,,1,20180204170000,-1,-1,-1,-1,300,-1,11,-1,-1,260,330,,9999,0,0,3,FEW 49   BKN 50   OVC 60,1,1,-1,10,1023,RJFF 041730Z AUTO 30011KT 260V330 9999 FEW049 BKN050 OVC060     01/M10 Q1023 RMK A3023=,
20180204_180000.003,0,RJFF,,,,1,20180204180000,-1,-1,-1,-1,310,-1,13,-1,-1,-1,-1,,9999,0,0,3,FEW 44   SCT 49   BKN 50,1,0,-1,10,1023,RJFF 041800Z AUTO 31013KT 9999 FEW044 SCT049 BKN050 00/M10     Q1023 RMK A3023=,
20180204_183000.001,0,RJFF,,,,1,20180204180000,-1,-1,-1,-1,310,-1,14,-1,-1,-1,-1,,9999,0,0,3,FEW 44   BKN 50   BKN 60,1,0,-1,10,1023,RJFF 041830Z AUTO 31014KT 9999 FEW044 BKN050 BKN060 00/M10     Q1023 RMK A3023=,
20180204_190000.002,0,RJFF,,,,1,20180204190000,-1,-1,-1,-1,310,-1,16,-1,-1,-1,-1,,9999,0,0,3,FEW 44   BKN 50   OVC 60,1,0,-1,10,1024,RJFF 041900Z AUTO 31016KT 9999 FEW044 BKN050 OVC060 00/M10     Q1024 RMK A3024=,
20180204_193000.001,0,RJFF,,,,1,20180204190000,-1,-1,-1,-1,320,-1,17,-1,27,-1,-1,,9999,0,0,3,FEW 42   BKN 50   OVC 60,-1,0,-1,10,1024,RJFF 041930Z AUTO 32017G27KT 9999 FEW042 BKN050 OVC060 M00/M10     Q1024 RMK A3024=,
20180204_200000.002,0,RJFF,,,,1,20180204200000,-1,-1,-1,-1,320,-1,14,-1,-1,-1,-1,,9999,0,0,2,FEW 47   OVC 50,-1,0,-1,10,1024,RJFF 042000Z AUTO 32014KT 9999 FEW047 OVC050 M00/M10 Q1024 RMK     A3024=,
20180204_203000.001,0,RJFF,,,,1,20180204200000,-1,-1,-1,-1,320,-1,16,-1,-1,-1,-1,,9999,0,0,2,FEW 38   SCT 50,-1,0,-1,10,1024,RJFF 042030Z AUTO 32016KT 9999 FEW038 SCT050 M00/M10 Q1024 RMK     A3024=,
20180204_210000.002,0,RJFF,,,,0,20180204210000,-1,-1,-1,-1,310,-1,18,-1,28,-1,-1,,9999,0,0,3,FEW 20   SCT 30   BKN 40,-1,0,-1,11,1024,RJFF 042100Z 31018G28KT 9999 FEW020 SCT030 BKN040 M00/M11     Q1024 RMK 1CU020 3CU030 5CU040 A3024=,
20180204_213000.001,0,RJFF,,,,0,20180204210000,-1,-1,-1,-1,310,-1,17,-1,-1,-1,-1,,9999,0,0,3,FEW 20   SCT 30   BKN 40,-1,0,-1,12,1024,RJFF 042130Z 31017KT 9999 FEW020 SCT030 BKN040 M00/M12 Q1024     RMK 1CU020 3CU030 5CU040 A3025=,
20180204_220000.002,0,RJFF,,,,0,20180204220000,-1,-1,-1,-1,320,-1,13,-1,-1,270,340,,9999,0,0,3,FEW 20   SCT 30   BKN 40,-1,0,-1,10,1024,RJFF 042200Z 32013KT 270V340 9999 FEW020 SCT030 BKN040 M00/M10     Q1024 RMK 1CU020 3CU030 5CU040 A3026=,
20180204_223000.002,0,RJFF,,,,0,20180204220000,-1,-1,-1,-1,310,-1,16,-1,-1,-1,-1,,9999,0,0,3,FEW 20   SCT 30   BKN 40,-1,0,-1,11,1024,RJFF 042230Z 31016KT 9999 FEW020 SCT030 BKN040 M00/M11 Q1024     RMK 1CU020 3CU030 5CU040 A3026=,
20180204_230000.002,0,RJFF,,,,0,20180204230000,-1,-1,-1,-1,320,-1,16,-1,27,-1,-1,,9999,0,0,3,FEW 20   SCT 30   BKN 40,1,0,-1,10,1024,RJFF 042300Z 32016G27KT 9999 FEW020 SCT030 BKN040 00/M10 Q1024     RMK 1CU020 3CU030 5CU040 A3026=,
20180204_233000.001,0,RJFF,,,,0,20180204230000,-1,-1,-1,-1,320,-1,15,-1,26,280,350,,9999,0,1,3,FEW 20   SCT 30   BKN 40,1,0,-1,11,1024,RJFF 042330Z 32015G26KT 280V350 9999 -SHSN FEW020 SCT030     BKN040 00/M11 Q1024 RMK 1CU020 3CU030 5CU040 A3026=,- SN SH
20180205_000000.003,0,RJFF,,,,0,20180205000000,-1,-1,-1,-1,310,-1,15,-1,-1,-1,-1,,9999,0,1,3,FEW 20   SCT 40   BKN 50,1,1,-1,10,1024,RJFF 050000Z 31015KT 9999 -SHSN FEW020 SCT040 BKN050 01/M10     Q1024 RMK 1CU020 4CU040 6SC050 A3026=,- SN SH
20180205_003000.001,0,RJFF,,,,0,20180205000000,-1,-1,-1,-1,320,-1,12,-1,24,-1,-1,,9999,0,1,3,FEW 20   SCT 40   BKN 50,-1,1,-1,5,1024,RJFF 050030Z 32012G24KT 9999 -SHSN FEW020 SCT040 BKN050     M01/M05 Q1024 RMK 1CU020 3CU040 5SC050 A3026=,- SN SH
20180205_010000.002,0,RJFF,,,,0,20180205010000,-1,-1,-1,-1,340,-1,16,-1,-1,-1,-1,,9999,0,1,3,FEW 25   SCT 40   BKN 60,1,0,-1,7,1024,RJFF 050100Z 34016KT 9999 -SHSN FEW025 SCT040 BKN060 00/M07     Q1024 RMK 1CU025 3CU040 5SC060 A3026=,- SN SH
20180205_013000.001,0,RJFF,,,,0,20180205010000,-1,-1,-1,-1,310,-1,13,-1,-1,-1,-1,,9999,0,1,3,FEW 30   SCT 40   BKN 50,1,1,-1,8,1024,RJFF 050130Z 31013KT 9999 VCSH FEW030 SCT040 BKN050 01/M08     Q1024 RMK 1CU030 3CU040 5SC050 A3026=,VC SH
20180205_020000.002,0,RJFF,,,,0,20180205020000,-1,-1,-1,-1,300,-1,13,-1,23,260,330,,9999,0,1,3,FEW 25   SCT 35   BKN 40,1,1,-1,7,1024,RJFF 050200Z 30013G23KT 260V330 9999 -SHSN FEW025 SCT035     BKN040 01/M07 Q1024 RMK 1CU025 3CU035 5CU040 A3026=,- SN SH
20180205_023000.001,0,RJFF,,,,0,20180205020000,-1,-1,-1,-1,290,-1,7,-1,-1,250,330,,9999,1,1,3,FEW 30   SCT 35   BKN 50,1,1,-1,4,1024,RJFF 050230Z 29007KT 250V330 9999 R34/1600VP2000U -SHSN FEW030     SCT035 BKN050 01/M04 Q1024 RMK 1CU030 3CU035 5SC050           A3025=,- SN SH
