20180101_000000.002,0,RJFG,,,,0,20180101000000,-1,-1,-1,-1,320,-1,13,-1,-1,-1,-1,,9999,0,0,1,FEW 30,1,9,1,2,1022,RJFG 010000Z 32013KT 9999 FEW030 09/02 Q1022 RMK 1CU030 A3020=,
20180101_010000.002,0,RJFG,,,,0,20180101010000,-1,-1,-1,-1,320,-1,15,-1,-1,-1,-1,,9999,0,0,1,FEW 30,1,10,1,2,1023,RJFG 010100Z 32015KT 9999 FEW030 10/02 Q1023 RMK 1CU030 A3021=,
20180101_020000.002,0,RJFG,,,,0,20180101020000,-1,-1,-1,-1,310,-1,16,-1,28,-1,-1,,9999,0,0,1,FEW 30,1,10,1,1,1023,RJFG 010200Z 31016G28KT 9999 FEW030 10/01 Q1023 RMK 1CU030     A3021=,
20180101_030000.002,0,RJFG,,,,0,20180101030000,-1,-1,-1,-1,310,-1,16,-1,-1,-1,-1,,9999,0,0,2,FEW 30   SCT 35,1,10,1,2,1022,RJFG 010300Z 31016KT 9999 FEW030 SCT035 10/02 Q1022 RMK 1CU030     3CU035 A3018=,
20180101_040000.002,0,RJFG,,,,0,20180101040000,-1,-1,-1,-1,310,-1,16,-1,-1,-1,-1,,9999,0,0,2,FEW 25   SCT 30,1,10,1,3,1021,RJFG 010400Z 31016KT 9999 FEW025 SCT030 10/03 Q1021 RMK 1CU025     3CU030 A3016=,
20180101_050000.002,0,RJFG,,,,0,20180101050000,-1,-1,-1,-1,310,-1,23,-1,-1,-1,-1,,9999,0,0,1,FEW 30,1,10,1,2,1021,RJFG 010500Z 31023KT 9999 FEW030 10/02 Q1021 RMK 2CU030 A3016=,
20180101_060000.002,0,RJFG,,,,0,20180101060000,-1,-1,-1,-1,310,-1,15,-1,25,-1,-1,,9999,0,0,2,FEW 25   SCT 30,1,10,1,3,1021,RJFG 010600Z 31015G25KT 9999 FEW025 SCT030 10/03 Q1021 RMK     1CU025 3CU030 A3016=,
20180101_070000.002,0,RJFG,,,,0,20180101070000,-1,-1,-1,-1,310,-1,15,-1,-1,-1,-1,,9999,0,0,1,FEW 25,1,9,1,3,1021,RJFG 010700Z 31015KT 9999 FEW025 09/03 Q1021 RMK 2CU025 A3016=,
20180101_080000.002,0,RJFG,,,,0,20180101080000,-1,-1,-1,-1,310,-1,19,-1,-1,-1,-1,,9999,0,0,1,FEW 25,1,8,1,2,1021,RJFG 010800Z 31019KT 9999 FEW025 08/02 Q1021 RMK 1CU025 A3017=,
20180101_090000.002,0,RJFG,,,,0,20180101090000,-1,-1,-1,-1,310,-1,12,-1,-1,-1,-1,,9999,0,0,1,FEW 25,1,8,1,2,1022,RJFG 010900Z 31012KT 9999 FEW025 08/02 Q1022 RMK 1CU025 A3019=,
20180101_233000.001,0,RJFG,,,,0,20180101230000,-1,-1,-1,-1,320,-1,5,-1,-1,-1,-1,,9999,0,0,1,FEW 25,1,8,1,2,1025,RJFG 012330Z 32005KT 9999 FEW025 08/02 Q1025 RMK 1CU025 A3028=,
20180102_000000.003,0,RJFG,,,,0,20180102000000,-1,-1,-1,-1,310,-1,8,-1,-1,-1,-1,,9999,0,0,1,FEW 25,1,9,1,2,1025,RJFG 020000Z 31008KT 9999 FEW025 09/02 Q1025 RMK 1CU025 A3028=,
20180102_010000.003,0,RJFG,,,,0,20180102010000,-1,-1,-1,-1,280,-1,5,-1,-1,-1,-1,,9999,0,0,1,FEW 25,1,10,1,2,1025,RJFG 020100Z 28005KT 9999 FEW025 10/02 Q1025 RMK 1CU025 A3029=,
20180102_020000.002,0,RJFG,,,,0,20180102020000,-1,-1,-1,-1,999,-1,2,-1,-1,-1,-1,,9999,0,0,1,FEW 25,1,11,1,1,1025,RJFG 020200Z VRB02KT 9999 FEW025 11/01 Q1025 RMK 1CU025 A3028=,
20180102_030000.002,0,RJFG,,,,0,20180102030000,-1,-1,-1,-1,280,-1,5,-1,-1,230,340,,9999,0,0,1,FEW 25,1,12,1,0,1024,RJFG 020300Z 28005KT 230V340 9999 FEW025 12/00 Q1024 RMK     1CU025 A3025=,
20180102_040000.002,0,RJFG,,,,0,20180102040000,-1,-1,-1,-1,280,-1,5,-1,-1,230,330,,9999,0,0,1,FEW 25,1,12,-1,0,1023,RJFG 020400Z 28005KT 230V330 9999 FEW025 12/M00 Q1023 RMK     1CU025 A3023=,
20180102_050000.002,0,RJFG,,,,0,20180102050000,-1,-1,-1,-1,290,-1,10,-1,-1,-1,-1,,9999,0,0,1,FEW 25,1,12,1,3,1023,RJFG 020500Z 29010KT 9999 FEW025 12/03 Q1023 RMK 1CU025 A3023=,
20180102_060000.002,0,RJFG,,,,0,20180102060000,-1,-1,-1,-1,290,-1,9,-1,-1,-1,-1,,9999,0,0,1,FEW 25,1,12,-1,0,1023,RJFG 020600Z 29009KT 9999 FEW025 12/M00 Q1023 RMK 1CU025     A3022=,
20180102_070000.002,0,RJFG,,,,0,20180102070000,-1,-1,-1,-1,290,-1,11,-1,-1,-1,-1,,9999,0,0,1,FEW 25,1,11,-1,0,1022,RJFG 020700Z 29011KT 9999 FEW025 11/M00 Q1022 RMK 1CU025     A3020=,
20180102_080000.002,0,RJFG,,,,0,20180102080000,-1,-1,-1,-1,290,-1,8,-1,-1,-1,-1,,9999,0,0,1,FEW 25,1,10,-1,1,1022,RJFG 020800Z 29008KT 9999 FEW025 10/M01 Q1022 RMK 1CU025     A3020=,
20180102_090000.002,0,RJFG,,,,0,20180102090000,-1,-1,-1,-1,290,-1,10,-1,-1,-1,-1,,9999,0,0,1,FEW 25,1,9,-1,0,1023,RJFG 020900Z 29010KT 9999 FEW025 09/M00 Q1023 RMK 1CU025     A3022=,
20180102_233000.001,0,RJFG,,,,0,20180102230000,-1,-1,-1,-1,310,-1,15,-1,-1,-1,-1,,8000,0,0,2,FEW 30   BKN 120,1,10,1,3,1024,RJFG 022330Z 31015KT 8000 FEW030 BKN120 10/03 Q1024 RMK 1CU030     5AC120 A3024=,
20180103_000000.002,0,RJFG,,,,0,20180103000000,-1,-1,-1,-1,310,-1,16,-1,-1,-1,-1,,8000,0,0,2,FEW 30   BKN 110,1,10,1,3,1024,RJFG 030000Z 31016KT 8000 FEW030 BKN110 10/03 Q1024 RMK 1CU030     5AC110 A3024=,
20180103_010000.002,0,RJFG,,,,0,20180103010000,-1,-1,-1,-1,310,-1,14,-1,-1,-1,-1,,8000,0,0,3,FEW 30   SCT 80   BKN 100,1,10,1,4,1024,RJFG 030100Z 31014KT 8000 FEW030 SCT080 BKN100 10/04 Q1024 RMK     1CU030 3AC080 5AC100 A3026=,
20180103_020000.002,0,RJFG,,,,0,20180103020000,-1,-1,-1,-1,320,-1,13,-1,-1,-1,-1,,8000,0,0,2,FEW 30   SCT -9999,1,12,1,4,1024,RJFG 030200Z 32013KT 8000 FEW030 SCT/// 12/04 Q1024 RMK 1CU030     A3024=,
20180103_030000.003,0,RJFG,,,,0,20180103030000,-1,-1,-1,-1,310,-1,12,-1,-1,270,330,,8000,0,0,1,FEW 25,1,12,1,5,1023,RJFG 030300Z 31012KT 270V330 8000 FEW025 12/05 Q1023 RMK     1CU025 A3022=,
20180103_040000.002,0,RJFG,,,,0,20180103040000,-1,-1,-1,-1,310,-1,19,-1,29,280,340,,8000,0,0,2,FEW 25   SCT -9999,1,12,1,3,1021,RJFG 030400Z 31019G29KT 280V340 8000 FEW025 SCT/// 12/03 Q1021     RMK 1CU025 A3018=,
20180103_050000.002,0,RJFG,,,,0,20180103050000,-1,-1,-1,-1,300,-1,19,-1,-1,-1,-1,,9999,0,0,1,FEW 30,1,13,1,3,1021,RJFG 030500Z 30019KT 9999 FEW030 13/03 Q1021 RMK 1CU030 A3017=,
20180103_060000.002,0,RJFG,,,,0,20180103060000,-1,-1,-1,-1,300,-1,18,-1,-1,-1,-1,,9999,0,0,2,FEW 35   BKN -9999,1,13,1,3,1021,RJFG 030600Z 30018KT 9999 FEW035 BKN/// 13/03 Q1021 RMK 1CU035     A3017=,
20180103_070000.002,0,RJFG,,,,0,20180103070000,-1,-1,-1,-1,310,-1,15,-1,-1,-1,-1,,9999,0,0,2,FEW 30   BKN -9999,1,11,1,4,1021,RJFG 030700Z 31015KT 9999 FEW030 BKN/// 11/04 Q1021 RMK 1CU030     A3017=,
20180103_080000.002,0,RJFG,,,,0,20180103080000,-1,-1,-1,-1,310,-1,12,-1,-1,-1,-1,,9999,0,0,2,FEW 30   BKN -9999,1,11,1,3,1021,RJFG 030800Z 31012KT 9999 FEW030 BKN/// 11/03 Q1021 RMK 1CU030     A3017=,
20180103_090000.002,0,RJFG,,,,0,20180103090000,-1,-1,-1,-1,310,-1,12,-1,-1,-1,-1,,9999,0,0,1,FEW 30,1,10,1,2,1021,RJFG 030900Z 31012KT 9999 FEW030 10/02 Q1021 RMK 1CU030 A3017=,
20180103_233000.001,0,RJFG,,,,0,20180103230000,-1,-1,-1,-1,999,-1,1,-1,-1,-1,-1,,9999,0,0,3,FEW 25   SCT 100   BKN 120,1,9,1,4,1023,RJFG 032330Z VRB01KT 9999 FEW025 SCT100 BKN120 09/04 Q1023 RMK     1CU025 3AC100 5AC120 A3021=,
20180104_000000.002,0,RJFG,,,,0,20180104000000,-1,-1,-1,-1,999,-1,2,-1,-1,-1,-1,,9999,0,0,3,FEW 25   SCT 80   BKN 150,1,10,1,4,1022,RJFG 040000Z VRB02KT 9999 FEW025 SCT080 BKN150 10/04 Q1022 RMK     1CU025 3AC080 5AC150 A3020=,
20180104_010000.002,0,RJFG,,,,0,20180104010000,-1,-1,-1,-1,999,-1,2,-1,-1,-1,-1,,9999,0,0,3,FEW 25   SCT 80   BKN 150,1,11,1,4,1023,RJFG 040100Z VRB02KT 9999 FEW025 SCT080 BKN150 11/04 Q1023 RMK     1CU025 3AC080 5AC150 A3021=,
20180104_020000.002,0,RJFG,,,,0,20180104020000,-1,-1,-1,-1,300,-1,3,-1,-1,250,340,,9999,0,0,3,FEW 25   SCT 70   BKN 120,1,11,1,4,1022,RJFG 040200Z 30003KT 250V340 9999 FEW025 SCT070 BKN120 11/04     Q1022 RMK 1CU025 3AC070 5AC120 A3020=,
20180104_030000.002,0,RJFG,,,,0,20180104030000,-1,-1,-1,-1,999,-1,2,-1,-1,-1,-1,,9999,0,0,3,FEW 25   SCT 70   BKN 120,1,13,1,4,1021,RJFG 040300Z VRB02KT 9999 FEW025 SCT070 BKN120 13/04 Q1021 RMK     1CU025 3AC070 5AC120 A3016=,
20180104_040000.002,0,RJFG,,,,0,20180104040000,-1,-1,-1,-1,300,-1,6,-1,-1,280,340,,9999,0,1,3,FEW 30   SCT 80   BKN 120,1,12,1,4,1020,RJFG 040400Z 30006KT 280V340 9999 -RA FEW030 SCT080 BKN120     12/04 Q1020 RMK 1CU030 3AC080 5AC120 A3014=,- RA
20180104_050000.002,0,RJFG,,,,0,20180104050000,-1,-1,-1,-1,320,-1,6,-1,-1,290,360,,9999,0,0,3,FEW 30   SCT 70   BKN 90,1,12,1,4,1020,RJFG 040500Z 32006KT 290V360 9999 FEW030 SCT070 BKN090 12/04     Q1020 RMK 1CU030 3AC070 7AS090 A3013=,
20180104_060000.003,0,RJFG,,,,0,20180104060000,-1,-1,-1,-1,300,-1,6,-1,-1,-1,-1,,9999,0,0,3,FEW 30   SCT 70   BKN 90,1,12,1,3,1019,RJFG 040600Z 30006KT 9999 FEW030 SCT070 BKN090 12/03 Q1019 RMK     1CU030 4AC070 7AS090 A3011=,
20180104_070000.002,0,RJFG,,,,0,20180104070000,-1,-1,-1,-1,290,-1,5,-1,-1,-1,-1,,9999,0,0,2,FEW 30   BKN 70,1,11,1,3,1019,RJFG 040700Z 29005KT 9999 FEW030 BKN070 11/03 Q1019 RMK 1CU030     6AC070 A3012=,
20180104_080000.002,0,RJFG,,,,0,20180104080000,-1,-1,-1,-1,330,-1,3,-1,-1,300,360,,9999,0,1,3,FEW 30   SCT 70   BKN 90,1,10,1,4,1019,RJFG 040800Z 33003KT 300V360 9999 -RA FEW030 SCT070 BKN090     10/04 Q1019 RMK 1CU030 4AC070 7AS090 A3010=,- RA
20180104_090000.002,0,RJFG,,,,0,20180104090000,-1,-1,-1,-1,320,-1,3,-1,-1,-1,-1,,9999,0,1,3,FEW 30   SCT 50   BKN 70,1,10,1,3,1020,RJFG 040900Z 32003KT 9999 -RA FEW030 SCT050 BKN070 10/03 Q1020     RMK 1CU030 3SC050 5AC070 A3012=,- RA
20180104_233000.001,0,RJFG,,,,0,20180104230000,-1,-1,-1,-1,60,-1,5,-1,-1,340,130,,2000,0,2,3,FEW 1   SCT 2   BKN 3,1,11,1,11,1013,RJFG 042330Z 06005KT 340V130 2000 -SHRA BR FEW001 SCT002     BKN003 11/11 Q1013 RMK 1ST001 3ST002 5ST003 A2992=,- RA SH; BR
20180105_000000.002,0,RJFG,,,,0,20180105000000,-1,-1,-1,-1,999,-1,7,-1,-1,-1,-1,,2000,0,2,3,FEW 1   SCT 2   BKN 4,1,11,1,11,1013,RJFG 050000Z VRB07KT 2000 SHRA BR FEW001 SCT002 BKN004 11/11     Q1013 RMK 1ST001 3ST002 5ST004 A2992=,RA SH; BR
20180105_010000.003,0,RJFG,,,,0,20180105010000,-1,-1,-1,-1,30,-1,8,-1,19,290,100,,3000,0,2,3,FEW 2   SCT 3   BKN 5,1,10,1,10,1013,RJFG 050100Z 03008G19KT 290V100 3000 -SHRA BR FEW002 SCT003     BKN005 10/10 Q1013 RMK 1ST002 3ST003 5ST005 A2994=,- RA SH; BR
20180105_020000.002,0,RJFG,,,,0,20180105020000,-1,-1,-1,-1,10,-1,8,-1,-1,300,60,,4000,0,2,3,FEW 2   SCT 3   BKN 6,1,9,1,9,1014,RJFG 050200Z 01008KT 300V060 4000 SHRA BR FEW002 SCT003 BKN006     09/09 Q1014 RMK 1ST002 3ST003 5ST006 A2996=,RA SH; BR
20180105_030000.002,0,RJFG,,,,0,20180105030000,-1,-1,-1,-1,360,-1,7,-1,-1,300,70,,9999,0,1,3,FEW 2   SCT 4   BKN 6,1,9,1,9,1013,RJFG 050300Z 36007KT 300V070 9999 -SHRA FEW002 SCT004 BKN006     09/09 Q1013 RMK 1ST002 3ST004 5ST006 A2994=,- RA SH
20180105_040000.002,0,RJFG,,,,0,20180105040000,-1,-1,-1,-1,330,-1,7,-1,-1,-1,-1,,5000,0,2,3,FEW 4   SCT 15   BKN 20,1,10,1,9,1013,RJFG 050400Z 33007KT 5000 -SHRA BR FEW004 SCT015 BKN020 10/09     Q1013 RMK 1ST004 3CU015 5CU020 A2994=,- RA SH; BR
20180105_050000.002,0,RJFG,,,,0,20180105050000,-1,-1,-1,-1,320,-1,10,-1,22,-1,-1,,8000,0,1,3,FEW 6   SCT 15   BKN 20,1,10,1,9,1013,RJFG 050500Z 32010G22KT 8000 -SHRA FEW006 SCT015 BKN020 10/09     Q1013 RMK 1ST006 3CU015 5CU020 A2992=,- RA SH
20180105_060000.002,0,RJFG,,,,0,20180105060000,-1,-1,-1,-1,310,-1,12,-1,-1,-1,-1,,9999,0,0,3,FEW 15   SCT 20   BKN 40,1,10,1,8,1013,RJFG 050600Z 31012KT 9999 FEW015 SCT020 BKN040 10/08 Q1013 RMK     1CU015 4CU020 5SC040 A2993=,
20180105_070000.002,0,RJFG,,,,0,20180105070000,-1,-1,-1,-1,310,-1,17,-1,-1,-1,-1,,9999,0,0,3,FEW 15   SCT 20   BKN 45,1,9,1,7,1013,RJFG 050700Z 31017KT 9999 FEW015 SCT020 BKN045 09/07 Q1013 RMK     1CU015 3CU020 5SC045 A2994=,
20180105_080000.002,0,RJFG,,,,0,20180105080000,-1,-1,-1,-1,310,-1,13,-1,-1,-1,-1,,9999,0,0,2,FEW 15   SCT 60,1,9,1,5,1014,RJFG 050800Z 31013KT 9999 FEW015 SCT060 09/05 Q1014 RMK 1CU015     3SC060 A2995=,
20180105_090000.002,0,RJFG,,,,0,20180105090000,-1,-1,-1,-1,320,-1,12,-1,-1,-1,-1,,9999,0,0,2,FEW 20   BKN 45,1,9,1,5,1014,RJFG 050900Z 32012KT 9999 FEW020 BKN045 09/05 Q1014 RMK 1CU020     5SC045 A2996=,
20180105_233000.001,0,RJFG,,,,0,20180105230000,-1,-1,-1,-1,310,-1,15,-1,-1,-1,-1,,9999,0,0,2,FEW 25   SCT 35,1,9,1,3,1018,RJFG 052330Z 31015KT 9999 FEW025 SCT035 09/03 Q1018 RMK 1CU025     3CU035 A3007=,
20180106_000000.002,0,RJFG,,,,0,20180106000000,-1,-1,-1,-1,320,-1,13,-1,-1,270,350,,9999,0,0,2,FEW 25   SCT 35,1,10,1,3,1018,RJFG 060000Z 32013KT 270V350 9999 FEW025 SCT035 10/03 Q1018     RMK 1CU025 3CU035 A3008=,
20180106_010000.002,0,RJFG,,,,0,20180106010000,-1,-1,-1,-1,310,-1,13,-1,-1,-1,-1,,9999,0,0,1,FEW 30,1,10,1,3,1018,RJFG 060100Z 31013KT 9999 FEW030 10/03 Q1018 RMK 2CU030 A3009=,
20180106_020000.002,0,RJFG,,,,0,20180106020000,-1,-1,-1,-1,310,-1,14,-1,-1,-1,-1,,9999,0,0,1,FEW 30,1,11,1,3,1018,RJFG 060200Z 31014KT 9999 FEW030 11/03 Q1018 RMK 1CU030 A3008=,
20180106_030000.002,0,RJFG,,,,0,20180106030000,-1,-1,-1,-1,300,-1,18,-1,-1,-1,-1,,9999,0,0,1,SCT 30,1,10,1,4,1018,RJFG 060300Z 30018KT 9999 SCT030 10/04 Q1018 RMK 3CU030 A3006=,
20180106_040000.002,0,RJFG,,,,0,20180106040000,-1,-1,-1,-1,310,-1,15,-1,-1,-1,-1,,9999,0,0,2,FEW 25   SCT 35,1,12,1,4,1017,RJFG 060400Z 31015KT 9999 FEW025 SCT035 12/04 Q1017 RMK 1CU025     3CU035 A3004=,
20180106_050000.002,0,RJFG,,,,0,20180106050000,-1,-1,-1,-1,310,-1,16,-1,-1,-1,-1,,9999,0,0,1,FEW 25,1,12,1,5,1016,RJFG 060500Z 31016KT 9999 FEW025 12/05 Q1016 RMK 2CU025 A3002=,
20180106_060000.002,0,RJFG,,,,0,20180106060000,-1,-1,-1,-1,310,-1,15,-1,-1,-1,-1,,9999,0,0,1,FEW 20,1,11,1,4,1016,RJFG 060600Z 31015KT 9999 FEW020 11/04 Q1016 RMK 1CU020 A3003=,
20180106_070000.002,0,RJFG,,,,0,20180106070000,-1,-1,-1,-1,300,-1,16,-1,-1,-1,-1,,9999,0,0,1,FEW 20,1,11,1,3,1017,RJFG 060700Z 30016KT 9999 FEW020 11/03 Q1017 RMK 1CU020 A3003=,
20180106_080000.002,0,RJFG,,,,0,20180106080000,-1,-1,-1,-1,320,-1,13,-1,-1,-1,-1,,9999,0,0,1,FEW 25,1,10,1,4,1017,RJFG 060800Z 32013KT 9999 FEW025 10/04 Q1017 RMK 1CU025 A3003=,
20180106_090000.002,0,RJFG,,,,0,20180106090000,-1,-1,-1,-1,310,-1,12,-1,-1,-1,-1,,9999,0,0,2,FEW 30   SCT -9999,1,9,1,3,1018,RJFG 060900Z 31012KT 9999 FEW030 SCT/// 09/03 Q1018 RMK 1CU030     A3007 P/RR=,
20180106_233000.001,0,RJFG,,,,0,20180106230000,-1,-1,-1,-1,110,-1,5,-1,-1,-1,-1,,9999,0,0,2,FEW 35   BKN -9999,1,12,1,6,1020,RJFG 062330Z 11005KT 9999 FEW035 BKN/// 12/06 Q1020 RMK 1CU035     A3013=,
20180107_000000.002,0,RJFG,,,,0,20180107000000,-1,-1,-1,-1,100,-1,5,-1,-1,-1,-1,,9999,0,0,2,FEW 35   BKN -9999,1,12,1,6,1020,RJFG 070000Z 10005KT 9999 FEW035 BKN/// 12/06 Q1020 RMK 2CU035     A3014=,
20180107_010000.003,0,RJFG,,,,0,20180107010000,-1,-1,-1,-1,100,-1,5,-1,-1,70,130,,9999,0,0,3,FEW 35   SCT 40   BKN -9999,1,13,1,7,1021,RJFG 070100Z 10005KT 070V130 9999 FEW035 SCT040 BKN/// 13/07     Q1021 RMK 1CU035 3SC040 A3017 P/RR=,
20180107_020000.002,0,RJFG,,,,0,20180107020000,-1,-1,-1,-1,90,-1,5,-1,-1,60,130,,9999,0,0,3,FEW 30   SCT 40   BKN -9999,1,13,1,9,1020,RJFG 070200Z 09005KT 060V130 9999 FEW030 SCT040 BKN/// 13/09     Q1020 RMK 1CU030 4SC040 A3014=,
20180107_030000.002,0,RJFG,,,,0,20180107030000,-1,-1,-1,-1,100,-1,7,-1,-1,-1,-1,,9999,0,0,3,FEW 25   SCT 40   BKN 120,1,14,1,9,1019,RJFG 070300Z 10007KT 9999 FEW025 SCT040 BKN120 14/09 Q1019 RMK     2CU025 4SC040 6AC120 A3010=,
20180107_040000.002,0,RJFG,,,,0,20180107040000,-1,-1,-1,-1,110,-1,9,-1,-1,80,140,,9999,0,0,3,FEW 20   SCT 30   BKN 50,1,14,1,9,1018,RJFG 070400Z 11009KT 080V140 9999 FEW020 SCT030 BKN050 14/09     Q1018 RMK 1CU020 3CU030 5SC050 A3008 P/FR=,
20180107_050000.002,0,RJFG,,,,0,20180107050000,-1,-1,-1,-1,100,-1,6,-1,-1,60,130,,9999,0,0,3,FEW 20   SCT 30   BKN 40,1,14,1,9,1018,RJFG 070500Z 10006KT 060V130 9999 FEW020 SCT030 BKN040 14/09     Q1018 RMK 1CU020 3CU030 5SC040 A3008=,
20180107_060000.002,0,RJFG,,,,0,20180107060000,-1,-1,-1,-1,999,-1,2,-1,-1,-1,-1,,4000,0,2,3,FEW 15   SCT 20   BKN 30,1,12,1,11,1018,RJFG 070600Z VRB02KT 4000 SHRA BR FEW015 SCT020 BKN030 12/11     Q1018 RMK 1CU015 3CU020 5CU030 A3008=,RA SH; BR
20180107_070000.002,0,RJFG,,,,0,20180107070000,-1,-1,-1,-1,999,-1,2,-1,-1,-1,-1,,9999,0,0,3,FEW 15   SCT 20   BKN 35,1,12,1,11,1018,RJFG 070700Z VRB02KT 9999 FEW015 SCT020 BKN035 12/11 Q1018 RMK     1CU015 3CU020 5CU035 A3007=,
20180107_080000.002,0,RJFG,,,,0,20180107080000,-1,-1,-1,-1,100,-1,4,-1,-1,50,140,,8000,0,1,2,FEW 20   BKN 25,1,12,1,11,1019,RJFG 070800Z 10004KT 050V140 8000 -SHRA FEW020 BKN025 12/11     Q1019 RMK 1CU020 5CU025 A3009=,- RA SH
20180107_090000.002,0,RJFG,,,,0,20180107090000,-1,-1,-1,-1,120,-1,9,-1,-1,-1,-1,,8000,0,1,2,FEW 10   BKN 15,1,12,1,11,1018,RJFG 070900Z 12009KT 8000 -SHRA FEW010 BKN015 12/11 Q1018 RMK     1CU010 5CU015 A3009=,- RA SH
20180107_233000.001,0,RJFG,,,,0,20180107230000,-1,-1,-1,-1,280,-1,10,-1,-1,-1,-1,,400,1,2,3,FEW 1   SCT 2   BKN 3,1,16,1,16,1012,RJFG 072330Z 28010KT 0400 R31/0650V1200D -SHRA FG FEW001     SCT002 BKN003 16/16 Q1012 RMK 1ST001 3ST002 5ST003 A2989=,- RA SH; FG
20180108_000000.002,0,RJFG,,,,0,20180108000000,-1,-1,-1,-1,280,-1,6,-1,-1,-1,-1,,1500,1,3,3,FEW 1   SCT 3   BKN 5,1,16,1,16,1012,RJFG 080000Z 28006KT 1500 R31/1300VP1800U SHRA PRFG BR FEW001     SCT003 BKN005 16/16 Q1012 RMK 1ST001 3ST003 5ST005 A2989           FG SE=,RA SH; PR FG; BR
20180108_010000.002,0,RJFG,,,,0,20180108010000,-1,-1,-1,-1,260,-1,6,-1,-1,-1,-1,,600,1,2,3,FEW 1   SCT 4   BKN 6,1,17,1,17,1012,RJFG 080100Z 26006KT 0600 R31/0600V1300U -SHRA FG FEW001     SCT004 BKN006 17/17 Q1012 RMK 1ST001 3ST004 5ST006 A2990=,- RA SH; FG
20180108_020000.002,0,RJFG,,,,0,20180108020000,-1,-1,-1,-1,290,-1,17,-1,-1,-1,-1,,2000,0,2,3,FEW 1   SCT 3   BKN 6,1,16,1,16,1011,RJFG 080200Z 29017KT 2000 SHRA BR FEW001 SCT003 BKN006 16/16     Q1011 RMK 1ST001 3ST003 5ST006 A2988=,RA SH; BR
20180108_030000.002,0,RJFG,,,,0,20180108030000,-1,-1,-1,-1,280,-1,14,-1,-1,-1,-1,,9999,0,1,3,FEW 3   SCT 5   BKN 8,1,17,1,17,1010,RJFG 080300Z 28014KT 9999 -SHRA FEW003 SCT005 BKN008 17/17     Q1010 RMK 1ST003 3ST005 5CU008 A2983=,- RA SH
20180108_040000.002,0,RJFG,,,,0,20180108040000,-1,-1,-1,-1,280,-1,12,-1,-1,-1,-1,,9999,0,1,3,FEW 2   SCT 8   BKN 12,1,17,1,17,1009,RJFG 080400Z 28012KT 9999 -SHRA FEW002 SCT008 BKN012 17/17     Q1009 RMK 1ST002 3CU008 5CU012 A2980=,- RA SH
20180108_050000.002,0,RJFG,,,,0,20180108050000,-1,-1,-1,-1,280,-1,13,-1,-1,-1,-1,,9999,0,1,3,FEW 8   SCT 15   BKN 30,1,17,1,16,1008,RJFG 080500Z 28013KT 9999 -SHRA FEW008 SCT015 BKN030 17/16     Q1008 RMK 1CU008 3CU015 5CU030 A2977=,- RA SH
20180108_060000.003,0,RJFG,,,,0,20180108060000,-1,-1,-1,-1,280,-1,14,-1,-1,-1,-1,,5000,0,2,3,FEW 10   SCT 15   BKN 25,1,16,1,16,1008,RJFG 080600Z 28014KT 5000 -SHRA BR FEW010 SCT015 BKN025 16/16     Q1008 RMK 1CU010 3CU015 5CU025 A2978=,- RA SH; BR
20180108_070000.002,0,RJFG,,,,0,20180108070000,-1,-1,-1,-1,290,-1,12,-1,-1,-1,-1,,6000,0,1,3,FEW 7   SCT 9   BKN 12,1,15,1,15,1008,RJFG 080700Z 29012KT 6000 -SHRA FEW007 SCT009 BKN012 15/15     Q1008 RMK 1ST007 3CU009 5CU012 A2978=,- RA SH
20180108_080000.002,0,RJFG,,,,0,20180108080000,-1,-1,-1,-1,290,-1,18,-1,-1,-1,-1,,6000,0,1,3,FEW 5   SCT 8   BKN 10,1,15,1,15,1008,RJFG 080800Z 29018KT 6000 -SHRA FEW005 SCT008 BKN010 15/15     Q1008 RMK 1ST005 3CU008 5CU010 A2979=,- RA SH
20180108_090000.002,0,RJFG,,,,0,20180108090000,-1,-1,-1,-1,280,-1,12,-1,-1,-1,-1,,8000,0,1,3,FEW 6   SCT 10   BKN 15,1,15,1,15,1007,RJFG 080900Z 28012KT 8000 -SHRA FEW006 SCT010 BKN015 15/15     Q1007 RMK 1ST006 3CU010 5CU015 A2976=,- RA SH
20180108_233000.001,0,RJFG,,,,0,20180108230000,-1,-1,-1,-1,290,-1,27,-1,39,-1,-1,,6000,0,1,3,FEW 25   SCT 40   BKN 50,1,11,1,5,1012,RJFG 082330Z 29027G39KT 6000 -RA FEW025 SCT040 BKN050 11/05     Q1012 RMK 1CU025 3SC040 5SC050 A2988=,- RA
20180109_000000.002,0,RJFG,,,,0,20180109000000,-1,-1,-1,-1,290,-1,24,-1,35,-1,-1,,6000,0,1,3,FEW 25   SCT 30   BKN 50,1,11,1,5,1012,RJFG 090000Z 29024G35KT 6000 -RA FEW025 SCT030 BKN050 11/05     Q1012 RMK 1CU025 3CU030 5SC050 A2989=,- RA
20180109_010000.002,0,RJFG,,,,0,20180109010000,-1,-1,-1,-1,290,-1,23,-1,37,-1,-1,,6000,0,0,3,FEW 15   SCT 30   BKN 50,1,10,1,5,1013,RJFG 090100Z 29023G37KT 6000 FEW015 SCT030 BKN050 10/05 Q1013     RMK 1CU015 3CU030 5SC050 A2991=,
20180109_020000.002,0,RJFG,,,,0,20180109020000,-1,-1,-1,-1,290,-1,28,-1,-1,-1,-1,,8000,0,0,2,FEW 15   SCT 50,1,10,1,7,1012,RJFG 090200Z 29028KT 8000 FEW015 SCT050 10/07 Q1012 RMK 1CU015     4SC050 A2989=,
20180109_030000.002,0,RJFG,,,,0,20180109030000,-1,-1,-1,-1,300,-1,27,-1,39,-1,-1,,8000,0,1,3,FEW 15   SCT 25   BKN 40,1,9,1,6,1011,RJFG 090300Z 30027G39KT 8000 -RA FEW015 SCT025 BKN040 09/06     Q1011 RMK 1CU015 3CU025 5SC040 A2988=,- RA
20180109_040000.002,0,RJFG,,,,0,20180109040000,-1,-1,-1,-1,290,-1,26,-1,37,-1,-1,,9999,0,1,3,FEW 10   SCT 20   BKN 30,1,9,1,7,1011,RJFG 090400Z 29026G37KT 9999 -SHRA FEW010 SCT020 BKN030 09/07     Q1011 RMK 1CU010 3CU020 5CU030 A2986=,- RA SH
20180109_050000.002,0,RJFG,,,,0,20180109050000,-1,-1,-1,-1,290,-1,23,-1,34,-1,-1,,3000,1,2,3,FEW 10   SCT 15   BKN 20,1,8,1,6,1011,RJFG 090500Z 29023G34KT 3000 R31/1200VP1800D SHRA BR FEW010     SCT015 BKN020 08/06 Q1011 RMK 1CU010 3CU015 5CU020 A2987=,RA SH; BR
20180109_060000.002,0,RJFG,,,,0,20180109060000,-1,-1,-1,-1,290,-1,25,-1,-1,-1,-1,,9999,0,1,3,FEW 10   SCT 20   BKN 25,1,9,1,7,1012,RJFG 090600Z 29025KT 9999 VCSH FEW010 SCT020 BKN025 09/07     Q1012 RMK 1CU010 3CU020 5CU025 A2990=,VC SH
20180109_070000.002,0,RJFG,,,,0,20180109070000,-1,-1,-1,-1,310,-1,19,-1,30,-1,-1,,8000,0,1,3,FEW 10   SCT 15   BKN 20,1,7,1,6,1012,RJFG 090700Z 31019G30KT 8000 -SHRA FEW010 SCT015 BKN020 07/06     Q1012 RMK 1CU010 3CU015 5CU020 A2991=,- RA SH
20180109_080000.002,0,RJFG,,,,0,20180109080000,-1,-1,-1,-1,300,-1,19,-1,30,280,340,,3000,0,2,3,FEW 10   SCT 20   BKN 25,1,7,1,6,1013,RJFG 090800Z 30019G30KT 280V340 3000 -SHRA BR FEW010 SCT020     BKN025 07/06 Q1013 RMK 1CU010 3CU020 5CU025 A2992=,- RA SH; BR
20180109_090000.002,0,RJFG,,,,0,20180109090000,-1,-1,-1,-1,320,-1,16,-1,-1,-1,-1,,8000,0,0,3,FEW 15   SCT 25   BKN 30,1,7,1,5,1014,RJFG 090900Z 32016KT 8000 FEW015 SCT025 BKN030 07/05 Q1014 RMK     1CU015 3CU025 5CU030 A2994=,
20180109_233000.001,0,RJFG,,,,0,20180109230000,-1,-1,-1,-1,280,-1,16,-1,28,-1,-1,,9999,0,0,3,FEW 20   SCT 30   BKN 70,1,10,1,2,1016,RJFG 092330Z 28016G28KT 9999 FEW020 SCT030 BKN070 10/02 Q1016     RMK 1CU020 4CU030 5AC070 A3002=,
20180110_000000.002,0,RJFG,,,,0,20180110000000,-1,-1,-1,-1,270,-1,18,-1,-1,-1,-1,,9999,0,0,2,FEW 20   BKN 35,1,9,1,3,1017,RJFG 100000Z 27018KT 9999 FEW020 BKN035 09/03 Q1017 RMK 1CU020     5CU035 A3003=,
20180110_010000.002,0,RJFG,,,,0,20180110010000,-1,-1,-1,-1,290,-1,24,-1,35,-1,-1,,9999,0,0,2,FEW 20   BKN 40,1,10,1,3,1017,RJFG 100100Z 29024G35KT 9999 FEW020 BKN040 10/03 Q1017 RMK     1CU020 5CU040 A3003=,
20180110_020000.002,0,RJFG,,,,0,20180110020000,-1,-1,-1,-1,280,-1,20,-1,35,-1,-1,,9999,0,0,2,FEW 20   BKN 35,1,10,1,4,1016,RJFG 100200Z 28020G35KT 9999 FEW020 BKN035 10/04 Q1016 RMK     1CU020 5CU035 A3002=,
20180110_030000.002,0,RJFG,,,,0,20180110030000,-1,-1,-1,-1,280,-1,25,-1,37,-1,-1,,9999,0,0,2,FEW 20   SCT 40,1,10,1,4,1015,RJFG 100300Z 28025G37KT 9999 FEW020 SCT040 10/04 Q1015 RMK     1CU020 3CU040 A3000=,
20180110_040000.003,0,RJFG,,,,0,20180110040000,-1,-1,-1,-1,280,-1,22,-1,32,-1,-1,,9999,0,0,2,FEW 20   SCT 35,1,10,1,3,1015,RJFG 100400Z 28022G32KT 9999 FEW020 SCT035 10/03 Q1015 RMK     1CU020 3CU035 A2997=,
20180110_050000.002,0,RJFG,,,,0,20180110050000,-1,-1,-1,-1,280,-1,26,-1,38,-1,-1,,9999,0,0,2,FEW 30   SCT 40,1,10,1,0,1014,RJFG 100500Z 28026G38KT 9999 FEW030 SCT040 10/00 Q1014 RMK     1CU030 3CU040 A2997=,
20180110_060000.002,0,RJFG,,,,0,20180110060000,-1,-1,-1,-1,280,-1,21,-1,31,-1,-1,,9999,0,1,3,FEW 10   SCT 30   BKN 40,1,9,1,6,1014,RJFG 100600Z 28021G31KT 9999 -SHRA FEW010 SCT030 BKN040 09/06     Q1014 RMK 1CU010 3CU030 5CU040 A2997=,- RA SH
20180110_070000.002,0,RJFG,,,,0,20180110070000,-1,-1,-1,-1,290,-1,26,-1,36,-1,-1,,9999,0,1,3,FEW 10   SCT 25   BKN 30,1,9,1,5,1015,RJFG 100700Z 29026G36KT 9999 VCSH FEW010 SCT025 BKN030 09/05     Q1015 RMK 1CU010 3CU025 5CU030 A2998=,VC SH
20180110_080000.002,0,RJFG,,,,0,20180110080000,-1,-1,-1,-1,300,-1,28,-1,40,-1,-1,,9999,0,1,3,FEW 20   SCT 35   BKN 40,1,9,1,2,1016,RJFG 100800Z 30028G40KT 9999 -SHRA FEW020 SCT035 BKN040 09/02     Q1016 RMK 1CU020 3CU035 5CU040 A3000=,- RA SH
20180110_090000.002,0,RJFG,,,,0,20180110090000,-1,-1,-1,-1,300,-1,26,-1,36,260,320,,6000,0,0,3,FEW 15   SCT 30   BKN 40,1,7,1,3,1016,RJFG 100900Z 30026G36KT 260V320 6000 FEW015 SCT030 BKN040     07/03 Q1016 RMK 1CU015 3CU030 5CU040 A3003=,
20180110_233000.001,0,RJFG,,,,0,20180110230000,-1,-1,-1,-1,330,-1,7,-1,-1,-1,-1,,9999,0,1,3,FEW 15   SCT 30   BKN 40,1,4,1,3,1020,RJFG 102330Z 33007KT 9999 -SHRA FEW015 SCT030 BKN040 04/03     Q1020 RMK 1CU015 3CU030 5SC040 A3014=,- RA SH
20180111_000000.002,0,RJFG,,,,0,20180111000000,-1,-1,-1,-1,320,-1,10,-1,-1,-1,-1,,9999,0,1,3,FEW 10   SCT 25   BKN 40,1,4,1,4,1021,RJFG 110000Z 32010KT 9999 VCSH FEW010 SCT025 BKN040 04/04     Q1021 RMK 1CU010 3CU025 5SC040 A3015=,VC SH
20180111_010000.002,0,RJFG,,,,0,20180111010000,-1,-1,-1,-1,320,-1,9,-1,-1,-1,-1,,9999,0,0,2,FEW 10   SCT 35,1,5,1,4,1021,RJFG 110100Z 32009KT 9999 FEW010 SCT035 05/04 Q1021 RMK 1CU010     4CU035 A3016=,
20180111_020000.002,0,RJFG,,,,0,20180111020000,-1,-1,-1,-1,310,-1,14,-1,-1,-1,-1,,8000,0,1,3,FEW 10   SCT 20   BKN 30,1,5,1,4,1021,RJFG 110200Z 31014KT 8000 -SHRA FEW010 SCT020 BKN030 05/04     Q1021 RMK 1CU010 4CU020 5CU030 A3016=,- RA SH
20180111_030000.001,0,RJFG,,,,0,20180111030000,-1,-1,-1,-1,310,-1,15,-1,-1,-1,-1,,8000,0,1,3,FEW 10   SCT 20   BKN 25,1,5,1,4,1021,RJFG 110300Z 31015KT 8000 -SHRA FEW010 SCT020 BKN025 05/04     Q1021 RMK 1CU010 4CU020 6CU025 A3016=,- RA SH
20180111_040000.002,0,RJFG,,,,0,20180111040000,-1,-1,-1,-1,320,-1,13,-1,25,290,350,,9999,1,1,3,FEW 8   SCT 10   BKN 15,1,4,1,4,1020,RJFG 110400Z 32013G25KT 290V350 9999 R31/1700U SHRA FEW008     SCT010 BKN015 04/04 Q1020 RMK 1CU008 3CU010 5CU015 A3013=,RA SH
20180111_050000.002,0,RJFG,,,,0,20180111050000,-1,-1,-1,-1,310,-1,18,-1,29,-1,-1,,9999,0,1,3,FEW 10   SCT 15   BKN 20,1,5,1,4,1019,RJFG 110500Z 31018G29KT 9999 -SHRA FEW010 SCT015 BKN020 05/04     Q1019 RMK 1CU010 3CU015 5CU020 A3011=,- RA SH
20180111_060000.002,0,RJFG,,,,0,20180111060000,-1,-1,-1,-1,310,-1,13,-1,-1,-1,-1,,8000,1,1,3,FEW 8   SCT 10   BKN 15,1,4,1,3,1019,RJFG 110600Z 31013KT 8000 R31/1200VP1800D -SHRA FEW008 SCT010     BKN015 04/03 Q1019 RMK 1CU008 3CU010 5CU015 A3010=,- RA SH
20180111_070000.002,0,RJFG,,,,0,20180111070000,-1,-1,-1,-1,330,-1,9,-1,-1,-1,-1,,3000,0,2,3,FEW 3   SCT 15   BKN 20,1,4,1,3,1019,RJFG 110700Z 33009KT 3000 -SHRA BR FEW003 SCT015 BKN020 04/03     Q1019 RMK 1ST003 3CU015 5CU020 A3012=,- RA SH; BR
20180111_080000.002,0,RJFG,,,,0,20180111080000,-1,-1,-1,-1,320,-1,12,-1,-1,-1,-1,,9999,0,1,3,FEW 10   SCT 15   BKN 20,1,4,1,3,1020,RJFG 110800Z 32012KT 9999 -SHRA FEW010 SCT015 BKN020 04/03     Q1020 RMK 1CU010 3CU015 5CU020 A3014=,- RA SH
20180111_090000.002,0,RJFG,,,,0,20180111090000,-1,-1,-1,-1,310,-1,13,-1,-1,-1,-1,,8000,0,1,3,FEW 10   SCT 20   BKN 25,1,4,1,2,1021,RJFG 110900Z 31013KT 8000 -SHRA FEW010 SCT020 BKN025 04/02     Q1021 RMK 1CU010 3CU020 5CU025 A3015=,- RA SH
20180111_233000.001,0,RJFG,,,,0,20180111230000,-1,-1,-1,-1,999,-1,1,-1,-1,-1,-1,,9999,0,0,2,FEW 25   SCT 35,1,1,-1,2,1025,RJFG 112330Z VRB01KT 9999 FEW025 SCT035 01/M02 Q1025 RMK     1CU025 3CU035 A3027=,
20180112_000000.002,0,RJFG,,,,0,20180112000000,-1,-1,-1,-1,999,-1,1,-1,-1,-1,-1,,9999,0,0,3,FEW 25   SCT 30   BKN 35,1,2,-1,2,1025,RJFG 120000Z VRB01KT 9999 FEW025 SCT030 BKN035 02/M02 Q1025     RMK 1CU025 3CU030 5CU035 A3028=,
20180112_010000.003,0,RJFG,,,,0,20180112010000,-1,-1,-1,-1,999,-1,2,-1,-1,-1,-1,,9999,0,0,3,FEW 25   SCT 30   BKN 40,1,4,-1,1,1026,RJFG 120100Z VRB02KT 9999 FEW025 SCT030 BKN040 04/M01 Q1026     RMK 1CU025 3CU030 5CU040 A3031=,
20180112_020000.002,0,RJFG,,,,0,20180112020000,-1,-1,-1,-1,999,-1,2,-1,-1,-1,-1,,9999,0,1,3,FEW 30   SCT 35   BKN 40,1,3,-1,1,1025,RJFG 120200Z VRB02KT 9999 -SHSN FEW030 SCT035 BKN040 03/M01     Q1025 RMK 1CU030 3CU035 5CU040 A3029=,- SN SH
20180112_030000.002,0,RJFG,,,,0,20180112030000,-1,-1,-1,-1,360,-1,4,-1,-1,320,50,,9999,0,1,3,FEW 25   SCT 30   BKN 35,1,3,-1,1,1025,RJFG 120300Z 36004KT 320V050 9999 -SHSN FEW025 SCT030 BKN035     03/M01 Q1025 RMK 1CU025 3CU030 5CU035 A3027=,- SN SH
20180112_040000.002,0,RJFG,,,,0,20180112040000,-1,-1,-1,-1,330,-1,7,-1,-1,300,30,,9999,0,0,3,FEW 25   SCT 30   BKN 35,1,3,-1,1,1024,RJFG 120400Z 33007KT 300V030 9999 FEW025 SCT030 BKN035 03/M01     Q1024 RMK 1CU025 3CU030 5CU035 A3024=,
20180112_050000.003,0,RJFG,,,,0,20180112050000,-1,-1,-1,-1,330,-1,10,-1,-1,310,10,,9999,0,0,3,FEW 30   SCT 35   BKN 40,1,4,-1,1,1023,RJFG 120500Z 33010KT 310V010 9999 FEW030 SCT035 BKN040 04/M01     Q1023 RMK 1CU030 3CU035 5CU040 A3023=,
20180112_060000.002,0,RJFG,,,,0,20180112060000,-1,-1,-1,-1,320,-1,9,-1,-1,290,360,,9999,0,0,2,FEW 25   BKN 35,1,4,-1,2,1024,RJFG 120600Z 32009KT 290V360 9999 FEW025 BKN035 04/M02 Q1024     RMK 1CU025 5CU035 A3024=,
20180112_070000.003,0,RJFG,,,,0,20180112070000,-1,-1,-1,-1,330,-1,9,-1,-1,300,10,,9999,0,0,2,FEW 25   SCT 30,1,4,-1,2,1024,RJFG 120700Z 33009KT 300V010 9999 FEW025 SCT030 04/M02 Q1024     RMK 1CU025 4CU030 A3025=,
20180112_080000.002,0,RJFG,,,,0,20180112080000,-1,-1,-1,-1,330,-1,8,-1,-1,300,10,,9999,0,0,2,FEW 25   SCT 40,1,3,-1,2,1025,RJFG 120800Z 33008KT 300V010 9999 FEW025 SCT040 03/M02 Q1025     RMK 1CU025 4CU040 A3027=,
20180112_090000.002,0,RJFG,,,,0,20180112090000,-1,-1,-1,-1,330,-1,7,-1,-1,300,30,,9999,0,0,2,FEW 25   BKN 40,1,3,-1,2,1025,RJFG 120900Z 33007KT 300V030 9999 FEW025 BKN040 03/M02 Q1025     RMK 1CU025 5CU040 A3029=,
20180112_233000.001,0,RJFG,,,,0,20180112230000,-1,-1,-1,-1,320,-1,10,-1,-1,290,360,,9999,0,0,1,FEW 25,1,4,-1,2,1028,RJFG 122330Z 32010KT 290V360 9999 FEW025 04/M02 Q1028 RMK     1CU025 A3038=,
20180113_000000.002,0,RJFG,,,,0,20180113000000,-1,-1,-1,-1,320,-1,12,-1,-1,-1,-1,,9999,0,0,1,FEW 25,1,5,-1,2,1029,RJFG 130000Z 32012KT 9999 FEW025 05/M02 Q1029 RMK 1CU025     A3040=,
20180113_010000.003,0,RJFG,,,,0,20180113010000,-1,-1,-1,-1,310,-1,14,-1,-1,290,350,,9999,0,0,2,FEW 20   SCT 30,1,6,-1,1,1029,RJFG 130100Z 31014KT 290V350 9999 FEW020 SCT030 06/M01 Q1029     RMK 1CU020 3CU030 A3040=,
20180113_020000.002,0,RJFG,,,,0,20180113020000,-1,-1,-1,-1,320,-1,14,-1,-1,-1,-1,,9999,0,0,2,FEW 25   SCT 30,1,6,-1,2,1029,RJFG 130200Z 32014KT 9999 FEW025 SCT030 06/M02 Q1029 RMK     1CU025 3CU030 A3039=,
20180113_030000.002,0,RJFG,,,,0,20180113030000,-1,-1,-1,-1,310,-1,11,-1,-1,290,10,,9999,0,0,3,FEW 25   SCT 30   BKN 40,1,6,-1,1,1028,RJFG 130300Z 31011KT 290V010 9999 FEW025 SCT030 BKN040 06/M01     Q1028 RMK 1CU025 3CU030 5CU040 A3038=,
20180113_040000.002,0,RJFG,,,,0,20180113040000,-1,-1,-1,-1,310,-1,11,-1,-1,-1,-1,,9999,0,0,3,FEW 25   SCT 30   BKN 45,1,6,-1,0,1028,RJFG 130400Z 31011KT 9999 FEW025 SCT030 BKN045 06/M00 Q1028     RMK 1CU025 3CU030 5SC045 A3036=,
20180113_050000.002,0,RJFG,,,,0,20180113050000,-1,-1,-1,-1,310,-1,14,-1,-1,-1,-1,,9999,0,0,3,FEW 25   SCT 30   BKN 40,1,7,-1,0,1027,RJFG 130500Z 31014KT 9999 FEW025 SCT030 BKN040 07/M00 Q1027     RMK 1CU025 3CU030 5SC040 A3035=,
20180113_060000.002,0,RJFG,,,,0,20180113060000,-1,-1,-1,-1,320,-1,12,-1,22,-1,-1,,9999,0,0,2,FEW 25   SCT 35,1,6,-1,0,1028,RJFG 130600Z 32012G22KT 9999 FEW025 SCT035 06/M00 Q1028 RMK     1CU025 4CU035 A3036=,
20180113_070000.002,0,RJFG,,,,0,20180113070000,-1,-1,-1,-1,310,-1,11,-1,-1,270,360,,9999,0,0,2,FEW 25   SCT 35,1,6,-1,0,1028,RJFG 130700Z 31011KT 270V360 9999 FEW025 SCT035 06/M00 Q1028     RMK 1CU025 4CU035 A3036=,
20180113_080000.002,0,RJFG,,,,0,20180113080000,-1,-1,-1,-1,310,-1,13,-1,-1,-1,-1,,9999,0,0,2,FEW 25   SCT 30,1,5,1,0,1028,RJFG 130800Z 31013KT 9999 FEW025 SCT030 05/00 Q1028 RMK 1CU025     3CU030 A3037=,
20180113_090000.002,0,RJFG,,,,0,20180113090000,-1,-1,-1,-1,310,-1,11,-1,-1,-1,-1,,9999,0,0,1,FEW 25,1,5,1,1,1029,RJFG 130900Z 31011KT 9999 FEW025 05/01 Q1029 RMK 1CU025 A3039=,
20180113_233000.001,0,RJFG,,,,0,20180113230000,-1,-1,-1,-1,40,-1,4,-1,-1,360,90,,9999,0,0,2,FEW 25   BKN -9999,1,6,1,2,1029,RJFG 132330Z 04004KT 360V090 9999 FEW025 BKN/// 06/02 Q1029     RMK 1CU025 A3041=,
20180114_000000.003,0,RJFG,,,,0,20180114000000,-1,-1,-1,-1,40,-1,4,-1,-1,320,100,,9999,0,0,2,FEW 25   SCT -9999,1,8,1,3,1029,RJFG 140000Z 04004KT 320V100 9999 FEW025 SCT/// 08/03 Q1029     RMK 1CU025 A3041=,
20180114_010000.002,0,RJFG,,,,0,20180114010000,-1,-1,-1,-1,80,-1,6,-1,-1,40,130,,9999,0,0,2,FEW 25   BKN -9999,1,11,1,3,1030,RJFG 140100Z 08006KT 040V130 9999 FEW025 BKN/// 11/03 Q1030     RMK 1CU025 A3041=,
20180114_020000.002,0,RJFG,,,,0,20180114020000,-1,-1,-1,-1,80,-1,5,-1,-1,360,160,,9999,0,0,2,FEW 25   SCT -9999,1,11,1,3,1029,RJFG 140200Z 08005KT 360V160 9999 FEW025 SCT/// 11/03 Q1029     RMK 1CU025 A3039=,
20180114_030000.002,0,RJFG,,,,0,20180114030000,-1,-1,-1,-1,90,-1,8,-1,-1,40,130,,9999,0,0,2,FEW 25   SCT -9999,1,12,1,4,1028,RJFG 140300Z 09008KT 040V130 9999 FEW025 SCT/// 12/04 Q1028     RMK 2CU025 A3036=,
20180114_040000.002,0,RJFG,,,,0,20180114040000,-1,-1,-1,-1,999,-1,5,-1,-1,-1,-1,,9999,0,0,3,FEW 25   SCT 35   BKN -9999,1,12,1,5,1027,RJFG 140400Z VRB05KT 9999 FEW025 SCT035 BKN/// 12/05 Q1027 RMK     1CU025 3CU035 A3034=,
20180114_050000.002,0,RJFG,,,,0,20180114050000,-1,-1,-1,-1,20,-1,4,-1,-1,310,110,,9999,0,0,3,FEW 25   SCT 30   BKN 35,1,11,1,6,1027,RJFG 140500Z 02004KT 310V110 9999 FEW025 SCT030 BKN035 11/06     Q1027 RMK 1CU025 3CU030 5CU035 A3033=,
20180114_060000.003,0,RJFG,,,,0,20180114060000,-1,-1,-1,-1,30,-1,4,-1,-1,310,80,,9999,0,0,3,FEW 25   SCT 35   BKN 50,1,10,1,6,1027,RJFG 140600Z 03004KT 310V080 9999 FEW025 SCT035 BKN050 10/06     Q1027 RMK 1CU025 3CU035 5SC050 A3033=,
20180114_070000.002,0,RJFG,,,,0,20180114070000,-1,-1,-1,-1,40,-1,5,-1,-1,350,100,,9999,0,0,3,FEW 35   SCT 40   BKN 50,1,10,1,6,1027,RJFG 140700Z 04005KT 350V100 9999 FEW035 SCT040 BKN050 10/06     Q1027 RMK 1CU035 3CU040 5SC050 A3033=,
20180114_080000.002,0,RJFG,,,,0,20180114080000,-1,-1,-1,-1,50,-1,5,-1,-1,340,110,,9999,0,0,2,FEW 35   SCT 60,1,10,1,6,1026,RJFG 140800Z 05005KT 340V110 9999 FEW035 SCT060 10/06 Q1026     RMK 1CU035 3SC060 A3031=,
20180114_090000.002,0,RJFG,,,,0,20180114090000,-1,-1,-1,-1,70,-1,4,-1,-1,10,130,,9999,0,0,1,FEW 35,1,9,1,5,1026,RJFG 140900Z 07004KT 010V130 9999 FEW035 09/05 Q1026 RMK     1CU035 A3031=,
20180114_233000.001,0,RJFG,,,,0,20180114230000,-1,-1,-1,-1,999,-1,1,-1,-1,-1,-1,,9999,0,0,1,FEW 25,1,11,1,9,1026,RJFG 142330Z VRB01KT 9999 FEW025 11/09 Q1026 RMK 1CU025 A3031=,
20180115_000000.002,0,RJFG,,,,0,20180115000000,-1,-1,-1,-1,30,-1,3,-1,-1,320,90,,9999,0,0,2,FEW 25   SCT 100,1,13,1,11,1026,RJFG 150000Z 03003KT 320V090 9999 FEW025 SCT100 13/11 Q1026     RMK 1CU025 3AC100 A3031=,
20180115_010000.002,0,RJFG,,,,0,20180115010000,-1,-1,-1,-1,50,-1,3,-1,-1,340,100,,9999,0,0,2,FEW 25   SCT 100,1,14,1,9,1027,RJFG 150100Z 05003KT 340V100 9999 FEW025 SCT100 14/09 Q1027     RMK 1CU025 3AC100 A3033=,
20180115_020000.002,0,RJFG,,,,0,20180115020000,-1,-1,-1,-1,110,-1,6,-1,-1,70,180,,9999,0,0,1,FEW 25,1,15,1,5,1026,RJFG 150200Z 11006KT 070V180 9999 FEW025 15/05 Q1026 RMK     1CU025 A3030=,
20180115_030000.002,0,RJFG,,,,0,20180115030000,-1,-1,-1,-1,110,-1,6,-1,-1,40,140,,9999,0,0,2,FEW 25   SCT 80,1,16,1,4,1024,RJFG 150300Z 11006KT 040V140 9999 FEW025 SCT080 16/04 Q1024     RMK 1CU025 3AC080 A3026=,
20180115_040000.002,0,RJFG,,,,0,20180115040000,-1,-1,-1,-1,110,-1,7,-1,-1,60,140,,9999,0,0,1,FEW 25,1,16,1,4,1023,RJFG 150400Z 11007KT 060V140 9999 FEW025 16/04 Q1023 RMK     1CU025 A3023=,
20180115_050000.002,0,RJFG,,,,0,20180115050000,-1,-1,-1,-1,140,-1,8,-1,-1,100,180,,9999,0,0,1,FEW 25,1,16,1,5,1023,RJFG 150500Z 14008KT 100V180 9999 FEW025 16/05 Q1023 RMK     1CU025 A3022=,
20180115_060000.002,0,RJFG,,,,0,20180115060000,-1,-1,-1,-1,100,-1,7,-1,-1,-1,-1,,9999,0,0,3,FEW 30   SCT 50   BKN 70,1,15,1,6,1023,RJFG 150600Z 10007KT 9999 FEW030 SCT050 BKN070 15/06 Q1023 RMK     1CU030 3SC050 5AC070 A3021=,
20180115_070000.003,0,RJFG,,,,0,20180115070000,-1,-1,-1,-1,130,-1,5,-1,-1,60,170,,9999,0,0,2,FEW 30   SCT 50,1,15,1,7,1023,RJFG 150700Z 13005KT 060V170 9999 FEW030 SCT050 15/07 Q1023     RMK 1CU030 3SC050 A3021=,
20180115_080000.002,0,RJFG,,,,0,20180115080000,-1,-1,-1,-1,120,-1,5,-1,-1,-1,-1,,9999,0,0,1,FEW 30,1,14,1,6,1023,RJFG 150800Z 12005KT 9999 FEW030 14/06 Q1023 RMK 1CU030 A3023=,
20180115_090000.002,0,RJFG,,,,0,20180115090000,-1,-1,-1,-1,0,-1,0,-1,-1,-1,-1,,9999,0,0,2,FEW 30   SCT 45,1,11,1,8,1024,RJFG 150900Z 00000KT 9999 FEW030 SCT045 11/08 Q1024 RMK 1CU030     3SC045 A3024=,
20180115_233000.001,0,RJFG,,,,0,20180115230000,-1,-1,-1,-1,140,-1,9,-1,-1,-1,-1,,9999,0,0,1,FEW 30,1,15,1,6,1023,RJFG 152330Z 14009KT 9999 FEW030 15/06 Q1023 RMK 1CU030 A3021=,
20180116_000000.002,0,RJFG,,,,0,20180116000000,-1,-1,-1,-1,140,-1,11,-1,-1,-1,-1,,9999,0,0,1,FEW 30,1,16,1,7,1023,RJFG 160000Z 14011KT 9999 FEW030 16/07 Q1023 RMK 1CU030 A3021=,
20180116_010000.002,0,RJFG,,,,0,20180116010000,-1,-1,-1,-1,140,-1,11,-1,-1,-1,-1,,9999,0,0,1,FEW 35,1,17,1,7,1022,RJFG 160100Z 14011KT 9999 FEW035 17/07 Q1022 RMK 1CU035 A3020=,
20180116_020000.002,0,RJFG,,,,0,20180116020000,-1,-1,-1,-1,140,-1,12,-1,-1,120,180,,9999,0,0,1,FEW 35,1,17,1,6,1022,RJFG 160200Z 14012KT 120V180 9999 FEW035 17/06 Q1022 RMK     1CU035 A3018=,
20180116_030000.002,0,RJFG,,,,0,20180116030000,-1,-1,-1,-1,150,-1,12,-1,-1,-1,-1,,9999,0,0,1,FEW 35,1,17,1,7,1021,RJFG 160300Z 15012KT 9999 FEW035 17/07 Q1021 RMK 1CU035 A3016=,
20180116_040000.002,0,RJFG,,,,0,20180116040000,-1,-1,-1,-1,140,-1,12,-1,-1,110,190,,9999,0,0,1,FEW 35,1,17,1,8,1020,RJFG 160400Z 14012KT 110V190 9999 FEW035 17/08 Q1020 RMK     1CU035 A3012=,
20180116_050000.002,0,RJFG,,,,0,20180116050000,-1,-1,-1,-1,150,-1,11,-1,-1,120,180,,9999,0,0,1,FEW 35,1,17,1,8,1018,RJFG 160500Z 15011KT 120V180 9999 FEW035 17/08 Q1018 RMK     1CU035 A3009=,
20180116_060000.002,0,RJFG,,,,0,20180116060000,-1,-1,-1,-1,170,-1,10,-1,-1,130,210,,9999,0,0,1,FEW 35,1,18,1,9,1018,RJFG 160600Z 17010KT 130V210 9999 FEW035 18/09 Q1018 RMK     1CU035 A3007=,
20180116_070000.002,0,RJFG,,,,0,20180116070000,-1,-1,-1,-1,160,-1,10,-1,-1,130,200,,9999,0,0,1,FEW 35,1,17,1,9,1017,RJFG 160700Z 16010KT 130V200 9999 FEW035 17/09 Q1017 RMK     2CU035 A3005=,
20180116_080000.002,0,RJFG,,,,0,20180116080000,-1,-1,-1,-1,160,-1,10,-1,-1,120,190,,9999,0,0,1,FEW 35,1,16,1,9,1017,RJFG 160800Z 16010KT 120V190 9999 FEW035 16/09 Q1017 RMK     1CU035 A3005=,
20180116_090000.002,0,RJFG,,,,0,20180116090000,-1,-1,-1,-1,160,-1,10,-1,-1,-1,-1,,9999,0,0,2,FEW 30   SCT 35,1,16,1,10,1017,RJFG 160900Z 16010KT 9999 FEW030 SCT035 16/10 Q1017 RMK 1CU030     3CU035 A3005=,
20180116_233000.001,0,RJFG,,,,0,20180116230000,-1,-1,-1,-1,260,-1,7,-1,-1,-1,-1,,5000,0,2,3,FEW 15   SCT 30   BKN 40,1,15,1,14,1014,RJFG 162330Z 26007KT 5000 -SHRA BR FEW015 SCT030 BKN040 15/14     Q1014 RMK 1CU015 3CU030 5CU040 A2995=,- RA SH; BR
20180117_000000.002,0,RJFG,,,,0,20180117000000,-1,-1,-1,-1,270,-1,9,-1,-1,-1,-1,,8000,0,1,3,FEW 5   SCT 15   BKN 40,1,15,1,14,1014,RJFG 170000Z 27009KT 8000 -SHRA FEW005 SCT015 BKN040 15/14     Q1014 RMK 1ST005 3CU015 5CU040 A2995=,- RA SH
20180117_010000.002,0,RJFG,,,,0,20180117010000,-1,-1,-1,-1,260,-1,8,-1,-1,-1,-1,,9999,0,0,3,FEW 5   SCT 10   BKN 45,1,16,1,16,1014,RJFG 170100Z 26008KT 9999 FEW005 SCT010 BKN045 16/16 Q1014 RMK     1ST005 3CU010 5SC045 A2996=,
20180117_020000.004,0,RJFG,,,,0,20180117020000,-1,-1,-1,-1,270,-1,9,-1,-1,-1,-1,,9999,0,0,3,FEW 20   SCT 40   BKN 100,1,17,1,16,1014,RJFG 170200Z 27009KT 9999 FEW020 SCT040 BKN100 17/16 Q1014 RMK     1CU020 3SC040 5AC100 A2996=,
20180117_030000.002,0,RJFG,,,,0,20180117030000,-1,-1,-1,-1,270,-1,10,-1,-1,-1,-1,,9999,0,0,3,FEW 7   SCT 15   BKN 25,1,17,1,16,1014,RJFG 170300Z 27010KT 9999 FEW007 SCT015 BKN025 17/16 Q1014 RMK     1ST007 3CU015 5CU025 A2995=,
20180117_040000.003,0,RJFG,,,,0,20180117040000,-1,-1,-1,-1,290,-1,15,-1,-1,-1,-1,,9999,0,0,3,FEW 15   SCT 25   BKN 35,1,18,1,15,1013,RJFG 170400Z 29015KT 9999 FEW015 SCT025 BKN035 18/15 Q1013 RMK     1CU015 3CU025 5CU035 A2994=,
20180117_050000.003,0,RJFG,,,,0,20180117050000,-1,-1,-1,-1,290,-1,16,-1,-1,-1,-1,,9999,0,0,2,FEW 10   SCT 20,1,18,1,15,1013,RJFG 170500Z 29016KT 9999 FEW010 SCT020 18/15 Q1013 RMK 2CU010     4CU020 A2993=,
20180117_060000.002,0,RJFG,,,,0,20180117060000,-1,-1,-1,-1,290,-1,19,-1,-1,-1,-1,,9999,0,0,1,FEW 15,1,18,1,13,1014,RJFG 170600Z 29019KT 9999 FEW015 18/13 Q1014 RMK 1CU015 A2995=,
20180117_070000.002,0,RJFG,,,,0,20180117070000,-1,-1,-1,-1,290,-1,18,-1,-1,-1,-1,,9999,0,0,2,FEW 20   SCT 30,1,16,1,12,1014,RJFG 170700Z 29018KT 9999 FEW020 SCT030 16/12 Q1014 RMK 1CU020     3SC030 A2996=,
20180117_080000.002,0,RJFG,,,,0,20180117080000,-1,-1,-1,-1,300,-1,18,-1,-1,-1,-1,,9999,0,0,3,FEW 9   SCT 10   BKN 15,1,15,1,13,1015,RJFG 170800Z 30018KT 9999 FEW009 SCT010 BKN015 15/13 Q1015 RMK     1CU009 3CU010 5CU015 A2997=,
20180117_090000.003,0,RJFG,,,,0,20180117090000,-1,-1,-1,-1,300,-1,17,-1,-1,-1,-1,,9999,0,0,2,FEW 10   SCT 15,1,14,1,12,1015,RJFG 170900Z 30017KT 9999 FEW010 SCT015 14/12 Q1015 RMK 1CU010     3CU015 A2998=,
20180117_233000.001,0,RJFG,,,,0,20180117230000,-1,-1,-1,-1,300,-1,16,-1,-1,-1,-1,,9999,0,0,1,FEW 15,1,12,1,9,1018,RJFG 172330Z 30016KT 9999 FEW015 12/09 Q1018 RMK 1CU015 A3009=,
20180118_000000.002,0,RJFG,,,,0,20180118000000,-1,-1,-1,-1,300,-1,18,-1,-1,-1,-1,,9999,0,0,1,FEW 30,1,12,1,9,1019,RJFG 180000Z 30018KT 9999 FEW030 12/09 Q1019 RMK 1CU030 A3009=,
20180118_010000.002,0,RJFG,,,,0,20180118010000,-1,-1,-1,-1,290,-1,18,-1,-1,-1,-1,,9999,0,0,1,FEW 30,1,13,1,9,1019,RJFG 180100Z 29018KT 9999 FEW030 13/09 Q1019 RMK 1CU030 A3010=,
20180118_020000.002,0,RJFG,,,,0,20180118020000,-1,-1,-1,-1,290,-1,20,-1,-1,-1,-1,,9999,0,0,2,FEW 13   SCT 15,1,14,1,10,1019,RJFG 180200Z 29020KT 9999 FEW013 SCT015 14/10 Q1019 RMK 1CU013     3CU015 A3011=,
20180118_030000.003,0,RJFG,,,,0,20180118030000,-1,-1,-1,-1,300,-1,22,-1,-1,-1,-1,,9999,0,0,2,FEW 13   SCT 15,1,14,1,9,1018,RJFG 180300Z 30022KT 9999 FEW013 SCT015 14/09 Q1018 RMK 1CU013     4CU015 A3009=,
20180118_040000.002,0,RJFG,,,,0,20180118040000,-1,-1,-1,-1,300,-1,19,-1,-1,-1,-1,,9999,0,0,1,FEW 15,1,14,1,9,1018,RJFG 180400Z 30019KT 9999 FEW015 14/09 Q1018 RMK 2CU015 A3007=,
20180118_050000.002,0,RJFG,,,,0,20180118050000,-1,-1,-1,-1,310,-1,15,-1,-1,-1,-1,,9999,0,0,1,FEW 20,1,14,1,8,1017,RJFG 180500Z 31015KT 9999 FEW020 14/08 Q1017 RMK 1CU020 A3006=,
20180118_060000.002,0,RJFG,,,,0,20180118060000,-1,-1,-1,-1,310,-1,14,-1,-1,-1,-1,,9999,0,0,1,FEW 20,1,14,1,9,1017,RJFG 180600Z 31014KT 9999 FEW020 14/09 Q1017 RMK 1CU020 A3005=,
20180118_070000.002,0,RJFG,,,,0,20180118070000,-1,-1,-1,-1,290,-1,14,-1,-1,-1,-1,,9999,0,0,1,FEW 20,1,14,1,9,1018,RJFG 180700Z 29014KT 9999 FEW020 14/09 Q1018 RMK 2CU020 A3006=,
20180118_080000.002,0,RJFG,,,,0,20180118080000,-1,-1,-1,-1,300,-1,10,-1,-1,-1,-1,,9999,0,0,2,FEW 25   SCT 30,1,13,1,9,1018,RJFG 180800Z 30010KT 9999 FEW025 SCT030 13/09 Q1018 RMK 1CU025     3CU030 A3008=,
20180118_090000.002,0,RJFG,,,,0,20180118090000,-1,-1,-1,-1,290,-1,11,-1,-1,-1,-1,,9999,0,0,3,FEW 20   SCT 25   BKN 30,1,13,1,8,1019,RJFG 180900Z 29011KT 9999 FEW020 SCT025 BKN030 13/08 Q1019 RMK     1CU020 3CU025 5CU030 A3010=,
20180118_233000.001,0,RJFG,,,,0,20180118230000,-1,-1,-1,-1,300,-1,15,-1,-1,-1,-1,,5000,0,1,2,FEW 15   SCT 100,1,11,1,8,1020,RJFG 182330Z 30015KT 5000 BR FEW015 SCT100 11/08 Q1020 RMK     1CU015 3AC100 A3012=,BR
20180119_000000.002,0,RJFG,,,,0,20180119000000,-1,-1,-1,-1,300,-1,19,-1,-1,-1,-1,,5000,0,1,2,FEW 15   BKN 100,1,11,1,8,1020,RJFG 190000Z 30019KT 5000 BR FEW015 BKN100 11/08 Q1020 RMK     1CU015 5AC100 A3014=,BR
20180119_010000.003,0,RJFG,,,,0,20180119010000,-1,-1,-1,-1,310,-1,16,-1,-1,-1,-1,,5000,0,1,2,FEW 15   BKN 100,1,11,1,8,1021,RJFG 190100Z 31016KT 5000 BR FEW015 BKN100 11/08 Q1021 RMK     1CU015 5AC100 A3015=,BR
20180119_020000.002,0,RJFG,,,,0,20180119020000,-1,-1,-1,-1,310,-1,18,-1,-1,-1,-1,,5000,0,1,2,FEW 15   BKN 100,1,12,1,8,1020,RJFG 190200Z 31018KT 5000 BR FEW015 BKN100 12/08 Q1020 RMK     1CU015 6AC100 A3015=,BR
20180119_030000.002,0,RJFG,,,,0,20180119030000,-1,-1,-1,-1,300,-1,22,-1,-1,-1,-1,,5000,0,1,2,FEW 25   BKN 100,1,12,1,8,1019,RJFG 190300Z 30022KT 5000 BR FEW025 BKN100 12/08 Q1019 RMK     1CU025 6AC100 A3010=,BR
20180119_040000.002,0,RJFG,,,,0,20180119040000,-1,-1,-1,-1,300,-1,20,-1,-1,-1,-1,,5000,0,1,2,FEW 30   BKN 100,1,13,1,8,1018,RJFG 190400Z 30020KT 5000 BR FEW030 BKN100 13/08 Q1018 RMK     1CU030 5AC100 A3008=,BR
20180119_050000.003,0,RJFG,,,,0,20180119050000,-1,-1,-1,-1,300,-1,20,-1,-1,-1,-1,,5000,0,1,2,FEW 30   SCT 100,1,13,1,8,1018,RJFG 190500Z 30020KT 5000 HZ FEW030 SCT100 13/08 Q1018 RMK     1CU030 3AC100 A3007=,HZ
20180119_060000.002,0,RJFG,,,,0,20180119060000,-1,-1,-1,-1,300,-1,17,-1,-1,-1,-1,,6000,0,0,1,FEW 15,1,13,1,7,1018,RJFG 190600Z 30017KT 6000 FEW015 13/07 Q1018 RMK 1CU015 A3006=,
20180119_070000.002,0,RJFG,,,,0,20180119070000,-1,-1,-1,-1,290,-1,16,-1,-1,-1,-1,,6000,0,0,1,FEW 20,1,13,1,7,1018,RJFG 190700Z 29016KT 6000 FEW020 13/07 Q1018 RMK 1CU020 A3007=,
20180119_080000.002,0,RJFG,,,,0,20180119080000,-1,-1,-1,-1,300,-1,12,-1,-1,-1,-1,,6000,0,0,1,FEW 20,1,12,1,6,1018,RJFG 190800Z 30012KT 6000 FEW020 12/06 Q1018 RMK 1CU020 A3007=,
20180119_090000.003,0,RJFG,,,,0,20180119090000,-1,-1,-1,-1,300,-1,14,-1,-1,-1,-1,,6000,0,0,1,FEW 20,1,11,1,7,1018,RJFG 190900Z 30014KT 6000 FEW020 11/07 Q1018 RMK 1CU020 A3008=,
20180119_233000.001,0,RJFG,,,,0,20180119230000,-1,-1,-1,-1,330,-1,5,-1,-1,290,360,,8000,0,0,1,FEW 30,1,11,1,6,1019,RJFG 192330Z 33005KT 290V360 8000 FEW030 11/06 Q1019 RMK     1CU030 A3010=,
20180120_000000.002,0,RJFG,,,,0,20180120000000,-1,-1,-1,-1,320,-1,6,-1,-1,280,350,,8000,0,0,1,FEW 30,1,12,1,6,1019,RJFG 200000Z 32006KT 280V350 8000 FEW030 12/06 Q1019 RMK     1CU030 A3011=,
20180120_010000.002,0,RJFG,,,,0,20180120010000,-1,-1,-1,-1,310,-1,12,-1,-1,-1,-1,,8000,0,0,1,FEW 30,1,13,1,7,1019,RJFG 200100Z 31012KT 8000 FEW030 13/07 Q1019 RMK 1CU030 A3011=,
20180120_020000.003,0,RJFG,,,,0,20180120020000,-1,-1,-1,-1,310,-1,10,-1,-1,270,340,,8000,0,0,1,NSC -1,1,13,1,6,1018,RJFG 200200Z 31010KT 270V340 8000 NSC 13/06 Q1018 RMK A3008=,
20180120_030000.002,0,RJFG,,,,0,20180120030000,-1,-1,-1,-1,300,-1,12,-1,-1,-1,-1,,8000,0,0,1,NSC -1,1,14,1,6,1018,RJFG 200300Z 30012KT 8000 NSC 14/06 Q1018 RMK A3007=,
20180120_040000.002,0,RJFG,,,,0,20180120040000,-1,-1,-1,-1,300,-1,15,-1,-1,-1,-1,,8000,0,0,1,FEW 30,1,14,1,3,1018,RJFG 200400Z 30015KT 8000 FEW030 14/03 Q1018 RMK 1CU030 A3006=,
20180120_050000.002,0,RJFG,,,,0,20180120050000,-1,-1,-1,-1,300,-1,13,-1,-1,-1,-1,CAVOK,-1,0,0,0,,1,14,1,2,1017,RJFG 200500Z 30013KT CAVOK 14/02 Q1017 RMK A3004=,
20180120_060000.002,0,RJFG,,,,0,20180120060000,-1,-1,-1,-1,310,-1,11,-1,-1,-1,-1,CAVOK,-1,0,0,0,,1,14,1,1,1017,RJFG 200600Z 31011KT CAVOK 14/01 Q1017 RMK A3004=,
20180120_070000.002,0,RJFG,,,,0,20180120070000,-1,-1,-1,-1,290,-1,11,-1,-1,-1,-1,,9999,0,0,1,FEW 30,1,13,1,2,1017,RJFG 200700Z 29011KT 9999 FEW030 13/02 Q1017 RMK 1CU030 A3005=,
20180120_080000.002,0,RJFG,,,,0,20180120080000,-1,-1,-1,-1,300,-1,6,-1,-1,-1,-1,,9999,0,0,2,FEW 30   SCT 130,1,12,1,2,1018,RJFG 200800Z 30006KT 9999 FEW030 SCT130 12/02 Q1018 RMK 1CU030     3AC130 A3006=,
20180120_090000.002,0,RJFG,,,,0,20180120090000,-1,-1,-1,-1,290,-1,6,-1,-1,-1,-1,,9999,0,0,2,FEW 80   BKN 120,1,11,1,2,1017,RJFG 200900Z 29006KT 9999 FEW080 BKN120 11/02 Q1017 RMK 2AC080     5AC120 A3005=,
20180120_233000.001,0,RJFG,,,,0,20180120230000,-1,-1,-1,-1,300,-1,9,-1,-1,-1,-1,,9999,0,0,2,FEW 30   BKN 70,1,11,1,3,1019,RJFG 202330Z 30009KT 9999 FEW030 BKN070 11/03 Q1019 RMK 1CU030     6AC070 A3010=,
20180121_000000.002,0,RJFG,,,,0,20180121000000,-1,-1,-1,-1,300,-1,11,-1,-1,-1,-1,,9999,0,0,2,FEW 30   BKN 70,1,11,1,4,1020,RJFG 210000Z 30011KT 9999 FEW030 BKN070 11/04 Q1020 RMK 1CU030     6AC070 A3012=,
20180121_010000.002,0,RJFG,,,,0,20180121010000,-1,-1,-1,-1,300,-1,11,-1,-1,-1,-1,,9999,0,0,3,FEW 30   SCT 70   BKN 80,1,12,1,5,1020,RJFG 210100Z 30011KT 9999 FEW030 SCT070 BKN080 12/05 Q1020 RMK     1CU030 4AC070 5AC080 A3012=,
20180121_020000.002,0,RJFG,,,,0,20180121020000,-1,-1,-1,-1,310,-1,7,-1,-1,270,340,,9999,0,0,2,FEW 30   SCT 130,1,12,1,3,1019,RJFG 210200Z 31007KT 270V340 9999 FEW030 SCT130 12/03 Q1019     RMK 1CU030 4AC130 A3011=,
20180121_030000.002,0,RJFG,,,,0,20180121030000,-1,-1,-1,-1,290,-1,7,-1,-1,-1,-1,,9999,0,0,1,FEW 25,1,13,-1,2,1018,RJFG 210300Z 29007KT 9999 FEW025 13/M02 Q1018 RMK 1CU025     A3007=,
20180121_040000.003,0,RJFG,,,,0,20180121040000,-1,-1,-1,-1,290,-1,10,-1,-1,-1,-1,,9999,0,0,1,FEW 25,1,14,1,1,1017,RJFG 210400Z 29010KT 9999 FEW025 14/01 Q1017 RMK 1CU025 A3004=,
20180121_050000.002,0,RJFG,,,,0,20180121050000,-1,-1,-1,-1,290,-1,8,-1,-1,-1,-1,,9999,0,0,1,FEW 25,1,14,1,3,1016,RJFG 210500Z 29008KT 9999 FEW025 14/03 Q1016 RMK 1CU025 A3003=,
20180121_060000.002,0,RJFG,,,,0,20180121060000,-1,-1,-1,-1,280,-1,4,-1,-1,220,320,,9999,0,0,1,FEW 25,1,14,1,4,1016,RJFG 210600Z 28004KT 220V320 9999 FEW025 14/04 Q1016 RMK     1CU025 A3003=,
20180121_070000.002,0,RJFG,,,,0,20180121070000,-1,-1,-1,-1,290,-1,3,-1,-1,260,340,,9999,0,0,2,FEW 30   SCT 160,1,14,1,5,1016,RJFG 210700Z 29003KT 260V340 9999 FEW030 SCT160 14/05 Q1016     RMK 1CU030 3AC160 A3003=,
20180121_080000.002,0,RJFG,,,,0,20180121080000,-1,-1,-1,-1,999,-1,2,-1,-1,-1,-1,,9999,0,0,2,FEW 30   SCT 150,1,13,1,9,1016,RJFG 210800Z VRB02KT 9999 FEW030 SCT150 13/09 Q1016 RMK 1CU030     3AC150 A3003=,
20180121_090000.002,0,RJFG,,,,0,20180121090000,-1,-1,-1,-1,350,-1,1,-1,-1,-1,-1,,9999,0,0,2,FEW 25   SCT 140,1,12,1,9,1017,RJFG 210900Z 35001KT 9999 FEW025 SCT140 12/09 Q1017 RMK 1CU025     4AC140 A3005=,
20180121_233000.001,0,RJFG,,,,0,20180121230000,-1,-1,-1,-1,999,-1,3,-1,-1,-1,-1,,4000,1,3,3,FEW 3   SCT 5   BKN 7,1,13,1,12,1007,RJFG 212330Z VRB03KT 4000 R31/1800D SHRA PRFG BR FEW003 SCT005     BKN007 13/12 Q1007 RMK 1ST003 3ST005 5ST007 A2975 1500SE           FG SE P/FR=,RA SH; PR FG; BR
20180122_000000.002,0,RJFG,,,,0,20180122000000,-1,-1,-1,-1,70,-1,6,-1,-1,10,120,,4000,1,3,3,FEW 2   SCT 5   BKN 7,1,13,1,13,1007,RJFG 220000Z 07006KT 010V120 4000 R31/1300VP1800D SHRA PRFG BR     FEW002 SCT005 BKN007 13/13 Q1007 RMK 1ST002 3ST005 5ST007           A2974 2000SE FG SE=,RA SH; PR FG; BR
20180122_010000.002,0,RJFG,,,,0,20180122010000,-1,-1,-1,-1,40,-1,8,-1,-1,330,90,,5000,0,2,4,FEW 1   SCT 3   BKN 5   FEW 20 CB,1,13,1,13,1007,RJFG 220100Z 04008KT 330V090 5000 TSRA BR FEW001 SCT003 BKN005     FEW020CB 13/13 Q1007 RMK 1ST001 3ST003 5ST005 1CB020           A2974 FBL TS 20KM NE MOV NE=,TS   RA; BR
20180122_020000.002,0,RJFG,,,,0,20180122020000,-1,-1,-1,-1,999,-1,6,-1,-1,-1,-1,,8000,0,0,3,FEW 1   SCT 3   BKN 5,1,13,1,13,1008,RJFG 220200Z VRB06KT 8000 FEW001 SCT003 BKN005 13/13 Q1008 RMK     1ST001 3ST003 5ST005 A2977=,
20180122_030000.002,0,RJFG,,,,0,20180122030000,-1,-1,-1,-1,360,-1,6,-1,-1,310,70,,8000,0,1,3,FEW 2   SCT 5   BKN 7,1,12,1,12,1008,RJFG 220300Z 36006KT 310V070 8000 -SHRA FEW002 SCT005 BKN007     12/12 Q1008 RMK 1ST002 3ST005 5ST007 A2978=,- RA SH
20180122_040000.002,0,RJFG,,,,0,20180122040000,-1,-1,-1,-1,350,-1,6,-1,-1,240,40,,9999,0,0,3,FEW 4   SCT 7   BKN 15,1,12,1,11,1008,RJFG 220400Z 35006KT 240V040 9999 FEW004 SCT007 BKN015 12/11     Q1008 RMK 1ST004 3ST007 5CU015 A2977=,
20180122_050000.002,0,RJFG,,,,0,20180122050000,-1,-1,-1,-1,300,-1,11,-1,-1,-1,-1,,9999,0,0,3,FEW 8   SCT 15   BKN 20,1,12,1,11,1008,RJFG 220500Z 30011KT 9999 FEW008 SCT015 BKN020 12/11 Q1008 RMK     2CU008 4CU015 5CU020 A2977=,
20180122_060000.003,0,RJFG,,,,0,20180122060000,-1,-1,-1,-1,310,-1,16,-1,-1,-1,-1,,9999,0,0,2,FEW 10   SCT 15,1,12,1,9,1009,RJFG 220600Z 31016KT 9999 FEW010 SCT015 12/09 Q1009 RMK 1CU010     4CU015 A2981=,
20180122_070000.002,0,RJFG,,,,0,20180122070000,-1,-1,-1,-1,310,-1,18,-1,31,-1,-1,,9999,0,0,2,FEW 15   SCT 20,1,11,1,8,1010,RJFG 220700Z 31018G31KT 9999 FEW015 SCT020 11/08 Q1010 RMK     1CU015 4CU020 A2983=,
20180122_080000.003,0,RJFG,,,,0,20180122080000,-1,-1,-1,-1,310,-1,18,-1,-1,-1,-1,,9999,0,0,2,FEW 20   SCT 30,1,10,1,6,1011,RJFG 220800Z 31018KT 9999 FEW020 SCT030 10/06 Q1011 RMK 1CU020     3CU030 A2986=,
20180122_090000.002,0,RJFG,,,,0,20180122090000,-1,-1,-1,-1,310,-1,18,-1,28,-1,-1,,9999,0,0,1,FEW 20,1,10,1,6,1012,RJFG 220900Z 31018G28KT 9999 FEW020 10/06 Q1012 RMK 2CU020     A2990=,
20180122_233000.001,0,RJFG,,,,0,20180122230000,-1,-1,-1,-1,310,-1,13,-1,-1,-1,-1,,6000,0,0,3,FEW 25   SCT 30   BKN 40,1,12,1,6,1016,RJFG 222330Z 31013KT 6000 FEW025 SCT030 BKN040 12/06 Q1016 RMK     1CU025 3CU030 5SC040 A3002=,
20180123_000000.002,0,RJFG,,,,0,20180123000000,-1,-1,-1,-1,290,-1,17,-1,-1,-1,-1,,6000,0,0,2,FEW 30   SCT 40,1,13,1,6,1016,RJFG 230000Z 29017KT 6000 FEW030 SCT040 13/06 Q1016 RMK 2CU030     4SC040 A3001=,
20180123_010000.002,0,RJFG,,,,0,20180123010000,-1,-1,-1,-1,320,-1,11,-1,-1,-1,-1,,5000,0,1,2,FEW 20   BKN 40,1,12,1,8,1016,RJFG 230100Z 32011KT 5000 BR FEW020 BKN040 12/08 Q1016 RMK     1CU020 5SC040 A3001=,BR
20180123_020000.002,0,RJFG,,,,0,20180123020000,-1,-1,-1,-1,300,-1,18,-1,-1,-1,-1,,5000,0,1,3,FEW 18   SCT 20   BKN 35,1,12,1,8,1016,RJFG 230200Z 30018KT 5000 BR FEW018 SCT020 BKN035 12/08 Q1016     RMK 1CU018 3CU020 5SC035 A3002=,BR
20180123_030000.003,0,RJFG,,,,0,20180123030000,-1,-1,-1,-1,320,-1,16,-1,-1,-1,-1,,6000,0,0,3,FEW 20   SCT 25   BKN 35,1,11,1,6,1016,RJFG 230300Z 32016KT 6000 FEW020 SCT025 BKN035 11/06 Q1016 RMK     1CU020 3CU025 5SC035 A3000=,
20180123_040000.003,0,RJFG,,,,0,20180123040000,-1,-1,-1,-1,310,-1,15,-1,25,-1,-1,,9999,0,0,3,FEW 25   SCT 35   BKN 45,1,11,1,4,1015,RJFG 230400Z 31015G25KT 9999 FEW025 SCT035 BKN045 11/04 Q1015     RMK 1CU025 3SC035 5SC045 A3000=,
20180123_050000.002,0,RJFG,,,,0,20180123050000,-1,-1,-1,-1,310,-1,19,-1,-1,-1,-1,,9999,0,0,3,FEW 25   SCT 35   BKN 70,1,12,1,6,1015,RJFG 230500Z 31019KT 9999 FEW025 SCT035 BKN070 12/06 Q1015 RMK     1CU025 3SC035 5AC070 A2998=,
20180123_060000.001,2,RJFG,,,,0,20180123060000,-1,-1,-1,-1,310,-1,17,-1,-1,-1,-1,,9999,0,0,3,FEW 25   SCT 30   BKN 40,1,11,1,4,1015,RJFG 230600Z 31017KT 9999 FEW025 SCT030 BKN040 11/04 Q1015     RMK 1CU025 3CU030 5SC040 A3000=,
20180123_060000.003,0,RJFG,,,,0,20180123060000,-1,-1,-1,-1,310,-1,17,-1,-1,-1,-1,,9999,0,0,3,FEW 25   SCT 30   BKN 40,1,11,1,4,1015,RJFG 230600Z 31017KT 9999 FEW025 SCT030 BKN040 11/04 Q1015     RMK 1CU025 3CU030 5SC040 A3000=,
20180123_070000.002,0,RJFG,,,,0,20180123070000,-1,-1,-1,-1,310,-1,16,-1,-1,-1,-1,,9999,0,0,3,FEW 25   SCT 30   BKN 40,1,10,1,5,1016,RJFG 230700Z 31016KT 9999 FEW025 SCT030 BKN040 10/05 Q1016 RMK     1CU025 3CU030 5SC040 A3000=,
20180123_080000.002,0,RJFG,,,,0,20180123080000,-1,-1,-1,-1,310,-1,15,-1,-1,-1,-1,,9999,0,0,2,FEW 25   SCT 40,1,9,1,4,1016,RJFG 230800Z 31015KT 9999 FEW025 SCT040 09/04 Q1016 RMK 2CU025     4SC040 A3002=,
20180123_090000.002,0,RJFG,,,,0,20180123090000,-1,-1,-1,-1,320,-1,13,-1,-1,-1,-1,,9999,0,0,2,FEW 20   SCT 30,1,8,1,4,1017,RJFG 230900Z 32013KT 9999 FEW020 SCT030 08/04 Q1017 RMK 1CU020     3CU030 A3004=,
20180123_233000.001,0,RJFG,,,,0,20180123230000,-1,-1,-1,-1,310,-1,16,-1,-1,-1,-1,,9999,0,0,3,FEW 18   SCT 20   BKN 25,1,7,1,3,1019,RJFG 232330Z 31016KT 9999 FEW018 SCT020 BKN025 07/03 Q1019 RMK     1CU018 3CU020 5CU025 A3010=,
20180124_000000.002,0,RJFG,,,,0,20180124000000,-1,-1,-1,-1,310,-1,19,-1,-1,-1,-1,,9999,0,0,3,FEW 15   SCT 20   BKN 25,1,7,1,3,1019,RJFG 240000Z 31019KT 9999 FEW015 SCT020 BKN025 07/03 Q1019 RMK     1CU015 3CU020 5CU025 A3010=,
20180124_010000.003,0,RJFG,,,,0,20180124010000,-1,-1,-1,-1,310,-1,14,-1,-1,-1,-1,,9999,0,0,3,FEW 15   SCT 20   BKN 25,1,7,1,3,1019,RJFG 240100Z 31014KT 9999 FEW015 SCT020 BKN025 07/03 Q1019 RMK     1CU015 3CU020 5CU025 A3010=,
20180124_020000.002,0,RJFG,,,,0,20180124020000,-1,-1,-1,-1,310,-1,15,-1,-1,-1,-1,,9999,0,0,3,FEW 15   SCT 20   BKN 25,1,6,1,3,1019,RJFG 240200Z 31015KT 9999 FEW015 SCT020 BKN025 06/03 Q1019 RMK     1CU015 3CU020 5CU025 A3009=,
20180124_030000.002,0,RJFG,,,,0,20180124030000,-1,-1,-1,-1,310,-1,17,-1,-1,-1,-1,,9999,0,0,3,FEW 15   SCT 20   BKN 25,1,6,1,3,1018,RJFG 240300Z 31017KT 9999 FEW015 SCT020 BKN025 06/03 Q1018 RMK     1CU015 3CU020 5CU025 A3007=,
20180124_040000.002,0,RJFG,,,,0,20180124040000,-1,-1,-1,-1,310,-1,20,-1,-1,-1,-1,,9999,0,0,3,FEW 13   SCT 20   BKN 25,1,6,1,2,1018,RJFG 240400Z 31020KT 9999 FEW013 SCT020 BKN025 06/02 Q1018 RMK     1CU013 3CU020 5CU025 A3006=,
20180124_050000.002,0,RJFG,,,,0,20180124050000,-1,-1,-1,-1,310,-1,18,-1,30,-1,-1,,9999,0,1,3,FEW 13   SCT 20   BKN 25,1,6,1,2,1017,RJFG 240500Z 31018G30KT 9999 -SHRA FEW013 SCT020 BKN025 06/02     Q1017 RMK 1CU013 3CU020 5CU025 A3005=,- RA SH
20180124_060000.002,0,RJFG,,,,0,20180124060000,-1,-1,-1,-1,320,-1,19,-1,-1,-1,-1,,9999,0,0,3,FEW 15   SCT 20   BKN 25,1,5,1,1,1017,RJFG 240600Z 32019KT 9999 FEW015 SCT020 BKN025 05/01 Q1017 RMK     1CU015 3CU020 5CU025 A3003=,
20180124_070000.002,0,RJFG,,,,0,20180124070000,-1,-1,-1,-1,310,-1,17,-1,28,-1,-1,,9999,0,0,3,FEW 20   SCT 25   BKN 30,1,5,-1,0,1017,RJFG 240700Z 31017G28KT 9999 FEW020 SCT025 BKN030 05/M00 Q1017     RMK 1CU020 3CU025 5CU030 A3006=,
20180124_080000.002,0,RJFG,,,,0,20180124080000,-1,-1,-1,-1,320,-1,18,-1,-1,-1,-1,,9999,0,0,3,FEW 25   SCT 30   BKN 35,1,4,-1,1,1018,RJFG 240800Z 32018KT 9999 FEW025 SCT030 BKN035 04/M01 Q1018     RMK 2CU025 4CU030 5CU035 A3007=,
20180124_090000.003,0,RJFG,,,,0,20180124090000,-1,-1,-1,-1,320,-1,16,-1,-1,-1,-1,,9999,0,0,3,FEW 25   SCT 30   BKN 35,1,4,-1,1,1018,RJFG 240900Z 32016KT 9999 FEW025 SCT030 BKN035 04/M01 Q1018     RMK 2CU025 4CU030 5CU035 A3009=,
20180124_233000.001,0,RJFG,,,,0,20180124230000,-1,-1,-1,-1,320,-1,10,-1,-1,-1,-1,,9999,0,0,2,FEW 20   BKN 25,1,3,-1,2,1020,RJFG 242330Z 32010KT 9999 FEW020 BKN025 03/M02 Q1020 RMK     1CU020 5CU025 A3014=,
20180125_000000.002,0,RJFG,,,,0,20180125000000,-1,-1,-1,-1,320,-1,10,-1,-1,290,350,,9999,0,0,3,FEW 20   SCT 25   BKN 100,1,3,-1,2,1021,RJFG 250000Z 32010KT 290V350 9999 FEW020 SCT025 BKN100 03/M02     Q1021 RMK 1CU020 4CU025 7AS100 A3015=,
20180125_010000.002,0,RJFG,,,,0,20180125010000,-1,-1,-1,-1,320,-1,10,-1,-1,-1,-1,,9999,0,0,3,FEW 20   BKN 25   BKN 70,1,3,-1,1,1021,RJFG 250100Z 32010KT 9999 FEW020 BKN025 BKN070 03/M01 Q1021     RMK 1CU020 5CU025 7AS070 A3016=,
20180125_020000.003,0,RJFG,,,,0,20180125020000,-1,-1,-1,-1,320,-1,10,-1,-1,-1,-1,,9999,0,0,2,FEW 20   BKN 25,1,3,-1,1,1021,RJFG 250200Z 32010KT 9999 FEW020 BKN025 03/M01 Q1021 RMK     1CU020 6CU025 A3016=,
20180125_030000.002,0,RJFG,,,,0,20180125030000,-1,-1,-1,-1,320,-1,12,-1,-1,-1,-1,,9999,0,1,2,FEW 15   BKN 20,1,3,-1,1,1020,RJFG 250300Z 32012KT 9999 -SHSN FEW015 BKN020 03/M01 Q1020 RMK     1CU015 5CU020 A3013=,- SN SH
20180125_040000.002,0,RJFG,,,,0,20180125040000,-1,-1,-1,-1,310,-1,14,-1,-1,-1,-1,,9999,0,0,2,FEW 15   BKN 20,1,3,-1,1,1019,RJFG 250400Z 31014KT 9999 FEW015 BKN020 03/M01 Q1019 RMK     1CU015 5CU020 A3010=,
20180125_050000.002,0,RJFG,,,,0,20180125050000,-1,-1,-1,-1,310,-1,13,-1,-1,290,350,,9999,0,0,2,FEW 20   BKN 25,1,4,-1,1,1018,RJFG 250500Z 31013KT 290V350 9999 FEW020 BKN025 04/M01 Q1018     RMK 2CU020 5CU025 A3007=,
20180125_060000.002,0,RJFG,,,,0,20180125060000,-1,-1,-1,-1,310,-1,16,-1,-1,-1,-1,,9999,0,0,2,FEW 25   BKN 30,1,5,-1,0,1018,RJFG 250600Z 31016KT 9999 FEW025 BKN030 05/M00 Q1018 RMK     2CU025 5CU030 A3006=,
20180125_070000.002,0,RJFG,,,,0,20180125070000,-1,-1,-1,-1,310,-1,17,-1,-1,-1,-1,,9999,0,0,2,FEW 20   SCT 25,1,5,-1,0,1017,RJFG 250700Z 31017KT 9999 FEW020 SCT025 05/M00 Q1017 RMK     1CU020 4CU025 A3006=,
20180125_080000.002,0,RJFG,,,,0,20180125080000,-1,-1,-1,-1,310,-1,19,-1,-1,-1,-1,,9999,0,0,2,FEW 20   BKN 25,1,5,-1,0,1017,RJFG 250800Z 31019KT 9999 FEW020 BKN025 05/M00 Q1017 RMK     1CU020 5CU025 A3005=,
20180125_090000.002,0,RJFG,,,,0,20180125090000,-1,-1,-1,-1,310,-1,17,-1,-1,-1,-1,,9999,0,0,2,FEW 20   OVC 140,1,5,-1,0,1017,RJFG 250900Z 31017KT 9999 FEW020 OVC140 05/M00 Q1017 RMK     1CU020 8AC140 A3005=,
20180125_233000.001,0,RJFG,,,,0,20180125230000,-1,-1,-1,-1,320,-1,14,-1,-1,280,340,,9999,0,0,2,FEW 20   BKN 25,1,5,1,1,1018,RJFG 252330Z 32014KT 280V340 9999 FEW020 BKN025 05/01 Q1018     RMK 1CU020 6CU025 A3006=,
20180126_000000.002,0,RJFG,,,,0,20180126000000,-1,-1,-1,-1,310,-1,18,-1,-1,-1,-1,,9999,0,0,3,FEW 20   SCT 25   BKN 30,1,5,1,1,1018,RJFG 260000Z 31018KT 9999 FEW020 SCT025 BKN030 05/01 Q1018 RMK     1CU020 4CU025 6CU030 A3006=,
20180126_010000.002,0,RJFG,,,,0,20180126010000,-1,-1,-1,-1,310,-1,20,-1,-1,-1,-1,,9999,0,0,2,FEW 20   BKN 25,1,5,1,1,1018,RJFG 260100Z 31020KT 9999 FEW020 BKN025 05/01 Q1018 RMK 1CU020     6CU025 A3008=,
20180126_020000.002,0,RJFG,,,,0,20180126020000,-1,-1,-1,-1,310,-1,21,-1,-1,-1,-1,,9999,0,0,2,FEW 20   BKN 25,1,5,1,0,1018,RJFG 260200Z 31021KT 9999 FEW020 BKN025 05/00 Q1018 RMK 1CU020     6CU025 A3008=,
20180126_030000.002,0,RJFG,,,,0,20180126030000,-1,-1,-1,-1,310,-1,24,-1,38,-1,-1,,9999,0,0,3,FEW 25   SCT 30   BKN 35,1,6,-1,1,1017,RJFG 260300Z 31024G38KT 9999 FEW025 SCT030 BKN035 06/M01 Q1017     RMK 1CU025 3CU030 5CU035 A3004=,
20180126_040000.002,0,RJFG,,,,0,20180126040000,-1,-1,-1,-1,310,-1,19,-1,-1,-1,-1,,9999,0,0,3,FEW 20   SCT 25   BKN 30,1,6,-1,0,1016,RJFG 260400Z 31019KT 9999 FEW020 SCT025 BKN030 06/M00 Q1016     RMK 1CU020 3CU025 5CU030 A3002=,
20180126_050000.002,0,RJFG,,,,0,20180126050000,-1,-1,-1,-1,310,-1,20,-1,31,-1,-1,,9999,0,0,3,FEW 20   SCT 25   BKN 30,1,5,-1,1,1016,RJFG 260500Z 31020G31KT 9999 FEW020 SCT025 BKN030 05/M01 Q1016     RMK 1CU020 3CU025 5CU030 A3001=,
20180126_060000.002,0,RJFG,,,,0,20180126060000,-1,-1,-1,-1,310,-1,19,-1,30,-1,-1,,9999,0,0,2,FEW 20   BKN 30,1,5,-1,1,1016,RJFG 260600Z 31019G30KT 9999 FEW020 BKN030 05/M01 Q1016 RMK     1CU020 5CU030 A3002=,
20180126_070000.002,0,RJFG,,,,0,20180126070000,-1,-1,-1,-1,310,-1,20,-1,-1,-1,-1,,9999,0,0,2,FEW 20   BKN 30,1,5,-1,0,1016,RJFG 260700Z 31020KT 9999 FEW020 BKN030 05/M00 Q1016 RMK     1CU020 5CU030 A3003=,
20180126_080000.003,0,RJFG,,,,0,20180126080000,-1,-1,-1,-1,310,-1,23,-1,-1,-1,-1,,9999,0,0,1,FEW 25,1,4,-1,2,1017,RJFG 260800Z 31023KT 9999 FEW025 04/M02 Q1017 RMK 2CU025     A3003=,
20180126_090000.002,0,RJFG,,,,0,20180126090000,-1,-1,-1,-1,310,-1,22,-1,-1,-1,-1,,9999,0,0,1,FEW 25,1,4,-1,2,1017,RJFG 260900Z 31022KT 9999 FEW025 04/M02 Q1017 RMK 2CU025     A3006=,
20180126_233000.001,0,RJFG,,,,0,20180126230000,-1,-1,-1,-1,330,-1,3,-1,-1,300,20,,9999,0,0,1,FEW 25,1,5,-1,0,1022,RJFG 262330Z 33003KT 300V020 9999 FEW025 05/M00 Q1022 RMK     1CU025 A3020=,
20180127_000000.002,0,RJFG,,,,0,20180127000000,-1,-1,-1,-1,340,-1,4,-1,-1,300,20,,9999,0,0,1,FEW 25,1,5,-1,0,1023,RJFG 270000Z 34004KT 300V020 9999 FEW025 05/M00 Q1023 RMK     1CU025 A3021=,
20180127_010000.002,0,RJFG,,,,0,20180127010000,-1,-1,-1,-1,360,-1,5,-1,-1,280,60,,9999,0,0,1,FEW 25,1,6,1,0,1023,RJFG 270100Z 36005KT 280V060 9999 FEW025 06/00 Q1023 RMK     1CU025 A3022=,
20180127_020000.002,0,RJFG,,,,0,20180127020000,-1,-1,-1,-1,90,-1,6,-1,-1,10,120,,9999,0,0,2,FEW 20   SCT 25,1,7,-1,0,1023,RJFG 270200Z 09006KT 010V120 9999 FEW020 SCT025 07/M00 Q1023     RMK 1CU020 3CU025 A3022=,
20180127_030000.002,0,RJFG,,,,0,20180127030000,-1,-1,-1,-1,20,-1,5,-1,-1,310,110,,9999,0,0,1,FEW 25,1,7,-1,0,1022,RJFG 270300Z 02005KT 310V110 9999 FEW025 07/M00 Q1022 RMK     2CU025 A3019=,
20180127_040000.002,0,RJFG,,,,0,20180127040000,-1,-1,-1,-1,90,-1,5,-1,-1,360,130,,9999,0,0,2,FEW 25   SCT 30,1,9,-1,1,1021,RJFG 270400Z 09005KT 360V130 9999 FEW025 SCT030 09/M01 Q1021     RMK 1CU025 3CU030 A3017=,
20180127_050000.002,0,RJFG,,,,0,20180127050000,-1,-1,-1,-1,40,-1,4,-1,-1,320,100,,9999,0,0,2,FEW 30   SCT 35,1,8,1,0,1021,RJFG 270500Z 04004KT 320V100 9999 FEW030 SCT035 08/00 Q1021     RMK 1CU030 3CU035 A3017=,
20180127_060000.002,0,RJFG,,,,0,20180127060000,-1,-1,-1,-1,999,-1,2,-1,-1,-1,-1,,9999,0,0,2,FEW 20   BKN 30,1,7,1,0,1021,RJFG 270600Z VRB02KT 9999 FEW020 BKN030 07/00 Q1021 RMK 1CU020     5CU030 A3015=,
20180127_070000.002,0,RJFG,,,,0,20180127070000,-1,-1,-1,-1,90,-1,3,-1,-1,40,120,,9999,0,0,2,FEW 20   SCT 30,1,7,1,1,1021,RJFG 270700Z 09003KT 040V120 9999 FEW020 SCT030 07/01 Q1021     RMK 1CU020 4CU030 A3015=,
20180127_080000.002,0,RJFG,,,,0,20180127080000,-1,-1,-1,-1,999,-1,2,-1,-1,-1,-1,,9999,0,0,1,FEW 25,1,7,1,1,1021,RJFG 270800Z VRB02KT 9999 FEW025 07/01 Q1021 RMK 2CU025 A3016=,
20180127_090000.003,0,RJFG,,,,0,20180127090000,-1,-1,-1,-1,999,-1,2,-1,-1,-1,-1,,9999,0,0,1,FEW 25,1,4,1,1,1021,RJFG 270900Z VRB02KT 9999 FEW025 04/01 Q1021 RMK 1CU025 A3017=,
20180127_233000.001,0,RJFG,,,,0,20180127230000,-1,-1,-1,-1,0,-1,0,-1,-1,-1,-1,,9999,0,0,3,FEW 25   SCT 60   BKN 80,1,8,1,7,1018,RJFG 272330Z 00000KT 9999 FEW025 SCT060 BKN080 08/07 Q1018 RMK     1CU025 3SC060 6AC080 A3007=,
20180128_000000.003,0,RJFG,,,,0,20180128000000,-1,-1,-1,-1,100,-1,2,-1,-1,-1,-1,,9999,0,0,3,FEW 30   SCT 60   BKN 70,1,9,1,7,1017,RJFG 280000Z 10002KT 9999 FEW030 SCT060 BKN070 09/07 Q1017 RMK     1CU030 3SC060 6AC070 A3004=,
20180128_010000.002,0,RJFG,,,,0,20180128010000,-1,-1,-1,-1,70,-1,3,-1,-1,10,110,,9999,0,0,3,FEW 30   SCT 50   BKN 70,1,11,1,7,1017,RJFG 280100Z 07003KT 010V110 9999 FEW030 SCT050 BKN070 11/07     Q1017 RMK 1CU030 3SC050 5AC070 A3004=,
20180128_020000.002,0,RJFG,,,,0,20180128020000,-1,-1,-1,-1,110,-1,4,-1,-1,-1,-1,,9999,0,0,3,FEW 25   SCT 40   BKN 50,1,12,1,8,1017,RJFG 280200Z 11004KT 9999 FEW025 SCT040 BKN050 12/08 Q1017 RMK     1CU025 4SC040 5SC050 A3003=,
20180128_030000.002,0,RJFG,,,,0,20180128030000,-1,-1,-1,-1,160,-1,7,-1,-1,-1,-1,,9999,0,0,3,FEW 20   SCT 25   BKN 35,1,12,1,8,1015,RJFG 280300Z 16007KT 9999 FEW020 SCT025 BKN035 12/08 Q1015 RMK     1CU020 4CU025 5SC035 A2999=,
20180128_040000.002,0,RJFG,,,,0,20180128040000,-1,-1,-1,-1,150,-1,3,-1,-1,120,180,,9999,0,0,3,FEW 20   SCT 25   BKN 30,1,12,1,9,1014,RJFG 280400Z 15003KT 120V180 9999 FEW020 SCT025 BKN030 12/09     Q1014 RMK 1CU020 3CU025 5CU030 A2997=,
20180128_050000.002,0,RJFG,,,,0,20180128050000,-1,-1,-1,-1,210,-1,3,-1,-1,160,260,,9999,0,1,3,FEW 20   SCT 25   BKN 30,1,12,1,9,1014,RJFG 280500Z 21003KT 160V260 9999 -SHRA FEW020 SCT025 BKN030     12/09 Q1014 RMK 1CU020 3CU025 6CU030 A2995=,- RA SH
20180128_060000.002,0,RJFG,,,,0,20180128060000,-1,-1,-1,-1,260,-1,6,-1,-1,-1,-1,,9999,0,1,3,FEW 10   SCT 15   BKN 20,1,12,1,10,1013,RJFG 280600Z 26006KT 9999 -SHRA FEW010 SCT015 BKN020 12/10     Q1013 RMK 1CU010 3CU015 5CU020 A2994=,- RA SH
20180128_070000.003,0,RJFG,,,,0,20180128070000,-1,-1,-1,-1,350,-1,4,-1,-1,300,60,,9999,0,1,3,FEW 3   SCT 15   BKN 50,1,11,1,10,1013,RJFG 280700Z 35004KT 300V060 9999 -SHRA FEW003 SCT015 BKN050     11/10 Q1013 RMK 1ST003 4CU015 5SC050 A2992=,- RA SH
20180128_080000.002,0,RJFG,,,,0,20180128080000,-1,-1,-1,-1,350,-1,4,-1,-1,310,40,,9999,0,1,3,FEW 2   SCT 15   BKN 30,1,11,1,10,1013,RJFG 280800Z 35004KT 310V040 9999 -SHRA FEW002 SCT015 BKN030     11/10 Q1013 RMK 1ST002 3CU015 5SC030 A2993=,- RA SH
20180128_090000.002,0,RJFG,,,,0,20180128090000,-1,-1,-1,-1,320,-1,7,-1,-1,-1,-1,,6000,0,1,3,FEW 2   SCT 4   BKN 6,1,10,1,10,1013,RJFG 280900Z 32007KT 6000 -SHRA FEW002 SCT004 BKN006 10/10     Q1013 RMK 1ST002 3ST004 5ST006 A2993=,- RA SH
20180128_233000.001,0,RJFG,,,,0,20180128230000,-1,-1,-1,-1,320,-1,14,-1,-1,-1,-1,,8000,0,0,3,FEW 20   SCT 25   BKN 80,1,6,1,3,1015,RJFG 282330Z 32014KT 8000 FEW020 SCT025 BKN080 06/03 Q1015 RMK     1CU020 3CU025 5AC080 A2999=,
20180129_000000.003,0,RJFG,,,,0,20180129000000,-1,-1,-1,-1,320,-1,12,-1,-1,-1,-1,,8000,0,0,3,FEW 20   SCT 25   BKN 80,1,6,1,3,1015,RJFG 290000Z 32012KT 8000 FEW020 SCT025 BKN080 06/03 Q1015 RMK     1CU020 3CU025 5AC080 A3000=,
20180129_010000.002,0,RJFG,,,,0,20180129010000,-1,-1,-1,-1,320,-1,16,-1,-1,-1,-1,,8000,0,0,3,FEW 18   SCT 25   BKN 150,1,6,1,3,1016,RJFG 290100Z 32016KT 8000 FEW018 SCT025 BKN150 06/03 Q1016 RMK     1CU018 3CU025 5AC150 A3002=,
20180129_020000.002,0,RJFG,,,,0,20180129020000,-1,-1,-1,-1,310,-1,20,-1,-1,-1,-1,,9999,0,0,2,FEW 20   BKN 25,1,6,1,1,1016,RJFG 290200Z 31020KT 9999 FEW020 BKN025 06/01 Q1016 RMK 2CU020     5CU025 A3002=,
20180129_030000.002,0,RJFG,,,,0,20180129030000,-1,-1,-1,-1,310,-1,25,-1,-1,-1,-1,,9999,0,0,2,FEW 18   BKN 25,1,6,1,2,1015,RJFG 290300Z 31025KT 9999 FEW018 BKN025 06/02 Q1015 RMK 1CU018     5CU025 A3000=,
20180129_040000.002,0,RJFG,,,,0,20180129040000,-1,-1,-1,-1,310,-1,22,-1,-1,-1,-1,,9999,0,0,2,FEW 20   BKN 25,1,6,1,1,1015,RJFG 290400Z 31022KT 9999 FEW020 BKN025 06/01 Q1015 RMK 1CU020     5CU025 A2997=,
20180129_050000.002,0,RJFG,,,,0,20180129050000,-1,-1,-1,-1,300,-1,29,-1,40,-1,-1,,9999,0,0,2,FEW 20   SCT 25,1,6,1,1,1013,RJFG 290500Z 30029G40KT 9999 FEW020 SCT025 06/01 Q1013 RMK     1CU020 4CU025 A2994=,
20180129_060000.002,0,RJFG,,,,0,20180129060000,-1,-1,-1,-1,310,-1,31,-1,43,-1,-1,,9999,0,0,2,FEW 20   SCT 25,1,6,1,1,1014,RJFG 290600Z 31031G43KT 9999 FEW020 SCT025 06/01 Q1014 RMK     1CU020 3CU025 A2995=,
20180129_070000.002,0,RJFG,,,,0,20180129070000,-1,-1,-1,-1,310,-1,30,-1,44,-1,-1,,9999,0,0,2,FEW 25   SCT 30,1,6,1,0,1015,RJFG 290700Z 31030G44KT 9999 FEW025 SCT030 06/00 Q1015 RMK     1CU025 4CU030 A2998=,
20180129_080000.002,0,RJFG,,,,0,20180129080000,-1,-1,-1,-1,310,-1,22,-1,35,-1,-1,,9999,0,0,2,FEW 25   BKN 30,1,5,1,0,1016,RJFG 290800Z 31022G35KT 9999 FEW025 BKN030 05/00 Q1016 RMK     2CU025 6CU030 A3001=,
20180129_090000.002,0,RJFG,,,,0,20180129090000,-1,-1,-1,-1,320,-1,13,-1,24,-1,-1,,9999,0,0,2,FEW 25   BKN 30,1,5,1,0,1016,RJFG 290900Z 32013G24KT 9999 FEW025 BKN030 05/00 Q1016 RMK     2CU025 6CU030 A3003=,
20180129_233000.001,0,RJFG,,,,0,20180129230000,-1,-1,-1,-1,320,-1,10,-1,-1,290,360,,9999,0,0,3,FEW 30   SCT 35   BKN 45,1,5,-1,1,1021,RJFG 292330Z 32010KT 290V360 9999 FEW030 SCT035 BKN045 05/M01     Q1021 RMK 1CU030 4CU035 5SC045 A3017=,
20180130_000000.002,0,RJFG,,,,0,20180130000000,-1,-1,-1,-1,320,-1,13,-1,-1,-1,-1,,9999,0,0,3,FEW 30   SCT 35   BKN 45,1,5,-1,1,1022,RJFG 300000Z 32013KT 9999 FEW030 SCT035 BKN045 05/M01 Q1022     RMK 1CU030 4CU035 5SC045 A3018=,
20180130_010000.002,0,RJFG,,,,0,20180130010000,-1,-1,-1,-1,310,-1,13,-1,23,-1,-1,,9999,0,0,2,FEW 25   SCT 30,1,6,-1,1,1022,RJFG 300100Z 31013G23KT 9999 FEW025 SCT030 06/M01 Q1022 RMK     1CU025 4CU030 A3018=,
20180130_020000.002,0,RJFG,,,,0,20180130020000,-1,-1,-1,-1,310,-1,15,-1,-1,290,360,,9999,0,0,3,FEW 25   SCT 30   BKN 45,1,6,-1,1,1022,RJFG 300200Z 31015KT 290V360 9999 FEW025 SCT030 BKN045 06/M01     Q1022 RMK 1CU025 4CU030 5SC045 A3018=,
20180130_030000.002,0,RJFG,,,,0,20180130030000,-1,-1,-1,-1,310,-1,17,-1,-1,-1,-1,,9999,0,0,2,FEW 25   SCT -9999,1,7,-1,0,1021,RJFG 300300Z 31017KT 9999 FEW025 SCT/// 07/M00 Q1021 RMK     1CU025 A3016=,
20180130_040000.002,0,RJFG,,,,0,20180130040000,-1,-1,-1,-1,310,-1,18,-1,-1,-1,-1,,9999,0,0,2,FEW 30   BKN -9999,1,7,-1,1,1020,RJFG 300400Z 31018KT 9999 FEW030 BKN/// 07/M01 Q1020 RMK     1CU030 A3014=,
20180130_050000.002,0,RJFG,,,,0,20180130050000,-1,-1,-1,-1,310,-1,16,-1,-1,-1,-1,,9999,0,0,1,FEW 30,1,7,-1,1,1019,RJFG 300500Z 31016KT 9999 FEW030 07/M01 Q1019 RMK 1CU030     A3012=,
20180130_060000.003,0,RJFG,,,,0,20180130060000,-1,-1,-1,-1,310,-1,17,-1,-1,-1,-1,,9999,0,0,2,FEW 25   BKN 30,1,6,-1,1,1021,RJFG 300600Z 31017KT 9999 FEW025 BKN030 06/M01 Q1021 RMK     2CU025 5CU030 A3016=,
20180130_070000.002,0,RJFG,,,,0,20180130070000,-1,-1,-1,-1,310,-1,16,-1,-1,-1,-1,,9999,0,0,2,FEW 20   BKN 25,1,6,-1,1,1021,RJFG 300700Z 31016KT 9999 FEW020 BKN025 06/M01 Q1021 RMK     1CU020 5CU025 A3015=,
20180130_080000.002,0,RJFG,,,,0,20180130080000,-1,-1,-1,-1,310,-1,16,-1,-1,-1,-1,,9999,0,0,2,FEW 20   SCT 30,1,5,-1,1,1022,RJFG 300800Z 31016KT 9999 FEW020 SCT030 05/M01 Q1022 RMK     1CU020 4CU030 A3018=,
20180130_090000.002,0,RJFG,,,,0,20180130090000,-1,-1,-1,-1,310,-1,15,-1,-1,-1,-1,,9999,0,0,2,FEW 25   SCT 30,1,5,-1,1,1022,RJFG 300900Z 31015KT 9999 FEW025 SCT030 05/M01 Q1022 RMK     1CU025 4CU030 A3020=,
20180130_233000.001,0,RJFG,,,,0,20180130230000,-1,-1,-1,-1,340,-1,4,-1,-1,310,30,,9999,0,0,1,FEW 30,1,6,-1,0,1024,RJFG 302330Z 34004KT 310V030 9999 FEW030 06/M00 Q1024 RMK     1CU030 A3024=,
20180131_000000.002,0,RJFG,,,,0,20180131000000,-1,-1,-1,-1,30,-1,5,-1,-1,330,120,,9999,0,0,1,FEW 30,1,6,-1,0,1022,RJFG 310000Z 03005KT 330V120 9999 FEW030 06/M00 Q1022 RMK     1CU030 A3019 P/FR=,
20180131_010000.002,0,RJFG,,,,0,20180131010000,-1,-1,-1,-1,290,-1,9,-1,-1,250,310,,9999,0,0,1,FEW 30,1,9,-1,1,1025,RJFG 310100Z 29009KT 250V310 9999 FEW030 09/M01 Q1025 RMK     1CU030 A3027=,
20180131_020000.002,0,RJFG,,,,0,20180131020000,-1,-1,-1,-1,270,-1,8,-1,-1,210,310,,9999,0,0,1,FEW 30,1,9,-1,0,1024,RJFG 310200Z 27008KT 210V310 9999 FEW030 09/M00 Q1024 RMK     1CU030 A3026=,
20180131_030000.002,0,RJFG,,,,0,20180131030000,-1,-1,-1,-1,290,-1,6,-1,-1,240,330,,9999,0,0,3,FEW 35   SCT 130   BKN -9999,1,9,1,0,1024,RJFG 310300Z 29006KT 240V330 9999 FEW035 SCT130 BKN/// 09/00     Q1024 RMK 1SC035 4AC130 A3025=,
20180131_040000.002,0,RJFG,,,,0,20180131040000,-1,-1,-1,-1,310,-1,7,-1,-1,280,350,,9999,0,0,2,FEW 30   BKN 40,1,8,1,1,1023,RJFG 310400Z 31007KT 280V350 9999 FEW030 BKN040 08/01 Q1023     RMK 1CU030 5SC040 A3021=,
20180131_050000.002,0,RJFG,,,,0,20180131050000,-1,-1,-1,-1,300,-1,7,-1,-1,-1,-1,,9999,0,0,2,FEW 30   BKN 35,1,8,1,1,1023,RJFG 310500Z 30007KT 9999 FEW030 BKN035 08/01 Q1023 RMK 1CU030     5SC035 A3022=,
20180131_060000.002,0,RJFG,,,,0,20180131060000,-1,-1,-1,-1,330,-1,3,-1,-1,-1,-1,,9999,0,0,2,FEW 30   BKN 100,1,9,1,1,1021,RJFG 310600Z 33003KT 9999 FEW030 BKN100 09/01 Q1021 RMK 1CU030     5AC100 A3017=,
20180131_070000.003,0,RJFG,,,,0,20180131070000,-1,-1,-1,-1,330,-1,4,-1,-1,300,360,,9999,0,0,3,FEW 30   SCT 50   BKN 100,1,9,1,2,1022,RJFG 310700Z 33004KT 300V360 9999 FEW030 SCT050 BKN100 09/02     Q1022 RMK 1CU030 3SC050 5AC100 A3018=,
20180131_080000.003,0,RJFG,,,,0,20180131080000,-1,-1,-1,-1,999,-1,2,-1,-1,-1,-1,,9999,0,1,3,FEW 30   SCT 50   BKN 120,1,8,1,4,1022,RJFG 310800Z VRB02KT 9999 -RA FEW030 SCT050 BKN120 08/04 Q1022     RMK 1CU030 3SC050 7AS120 A3019=,- RA
20180131_090000.002,0,RJFG,,,,0,20180131090000,-1,-1,-1,-1,999,-1,2,-1,-1,-1,-1,,9999,0,0,3,FEW 30   SCT 50   BKN 100,1,7,1,4,1022,RJFG 310900Z VRB02KT 9999 FEW030 SCT050 BKN100 07/04 Q1022 RMK     1CU030 3SC050 5AC100 A3018=,
20180131_233000.001,0,RJFG,,,,0,20180131230000,-1,-1,-1,-1,30,-1,9,-1,19,340,160,,5000,0,2,3,FEW 2   SCT 5   BKN 7,1,8,1,7,1018,RJFG 312330Z 03009G19KT 340V160 5000 -SHRA BR FEW002 SCT005     BKN007 08/07 Q1018 RMK 1ST002 3ST005 5ST007 A3007=,- RA SH; BR
20180201_000000.003,0,RJFG,,,,0,20180201000000,-1,-1,-1,-1,999,-1,9,-1,-1,-1,-1,,8000,0,1,3,FEW 3   SCT 6   BKN 10,1,8,1,7,1018,RJFG 010000Z VRB09KT 8000 -SHRA FEW003 SCT006 BKN010 08/07     Q1018 RMK 1ST003 3ST006 5CU010 A3008=,- RA SH
20180201_010000.002,0,RJFG,,,,0,20180201010000,-1,-1,-1,-1,20,-1,8,-1,19,310,110,,6000,0,1,3,FEW 3   SCT 5   BKN 7,1,8,1,8,1018,RJFG 010100Z 02008G19KT 310V110 6000 -SHRA FEW003 SCT005     BKN007 08/08 Q1018 RMK 1ST003 3ST005 5ST007 A3009=,- RA SH
20180201_020000.002,0,RJFG,,,,0,20180201020000,-1,-1,-1,-1,10,-1,6,-1,-1,310,120,,6000,0,1,3,FEW 3   SCT 7   BKN 10,1,8,1,8,1019,RJFG 010200Z 01006KT 310V120 6000 -SHRA FEW003 SCT007 BKN010     08/08 Q1019 RMK 1ST003 3ST007 5CU010 A3009=,- RA SH
20180201_030000.003,0,RJFG,,,,0,20180201030000,-1,-1,-1,-1,20,-1,8,-1,19,300,80,,8000,0,1,3,FEW 4   SCT 7   BKN 10,1,8,1,7,1018,RJFG 010300Z 02008G19KT 300V080 8000 -SHRA FEW004 SCT007     BKN010 08/07 Q1018 RMK 1ST004 3ST007 5CU010 A3007=,- RA SH
20180201_040000.003,0,RJFG,,,,0,20180201040000,-1,-1,-1,-1,20,-1,7,-1,19,310,90,,8000,0,1,3,FEW 4   SCT 7   BKN 10,1,8,1,8,1017,RJFG 010400Z 02007G19KT 310V090 8000 -SHRA FEW004 SCT007     BKN010 08/08 Q1017 RMK 1ST004 3ST007 5CU010 A3005=,- RA SH
20180201_050000.002,0,RJFG,,,,0,20180201050000,-1,-1,-1,-1,20,-1,7,-1,-1,320,110,,9999,0,0,3,FEW 4   SCT 7   BKN 10,1,8,1,8,1017,RJFG 010500Z 02007KT 320V110 9999 FEW004 SCT007 BKN010 08/08     Q1017 RMK 1ST004 3ST007 5CU010 A3004=,
20180201_060000.002,0,RJFG,,,,0,20180201060000,-1,-1,-1,-1,10,-1,6,-1,-1,300,60,,9999,0,1,3,FEW 5   SCT 8   BKN 10,1,8,1,8,1017,RJFG 010600Z 01006KT 300V060 9999 -SHRA FEW005 SCT008 BKN010     08/08 Q1017 RMK 1ST005 3ST008 5CU010 A3005=,- RA SH
20180201_070000.002,0,RJFG,,,,0,20180201070000,-1,-1,-1,-1,350,-1,6,-1,-1,300,30,,9999,0,0,3,FEW 7   SCT 10   BKN 12,1,8,1,7,1018,RJFG 010700Z 35006KT 300V030 9999 FEW007 SCT010 BKN012 08/07     Q1018 RMK 1ST007 3CU010 5CU012 A3008=,
20180201_080000.002,0,RJFG,,,,0,20180201080000,-1,-1,-1,-1,360,-1,6,-1,-1,310,50,,8000,0,1,3,FEW 10   SCT 20   BKN 35,1,7,1,7,1019,RJFG 010800Z 36006KT 310V050 8000 -SHRA FEW010 SCT020 BKN035     07/07 Q1019 RMK 1CU010 3CU020 5CU035 A3010=,- RA SH
20180201_090000.002,0,RJFG,,,,0,20180201090000,-1,-1,-1,-1,10,-1,3,-1,-1,270,70,,9999,0,0,3,FEW 30   SCT 35   BKN 50,1,7,1,7,1020,RJFG 010900Z 01003KT 270V070 9999 FEW030 SCT035 BKN050 07/07     Q1020 RMK 1CU030 3CU035 6SC050 A3012=,
20180201_233000.001,0,RJFG,,,,0,20180201230000,-1,-1,-1,-1,999,-1,3,-1,-1,-1,-1,,9999,0,0,2,FEW 30   SCT 50,1,8,1,6,1022,RJFG 012330Z VRB03KT 9999 FEW030 SCT050 08/06 Q1022 RMK 1CU030     3SC050 A3018=,
20180202_000000.002,0,RJFG,,,,0,20180202000000,-1,-1,-1,-1,350,-1,3,-1,-1,300,40,,9999,0,0,2,FEW 30   BKN 50,1,8,1,6,1022,RJFG 020000Z 35003KT 300V040 9999 FEW030 BKN050 08/06 Q1022     RMK 1CU030 5SC050 A3020=,
20180202_010000.002,0,RJFG,,,,0,20180202010000,-1,-1,-1,-1,350,-1,4,-1,-1,270,30,,9999,0,0,3,FEW 25   SCT 40   BKN 50,1,9,1,6,1023,RJFG 020100Z 35004KT 270V030 9999 FEW025 SCT040 BKN050 09/06     Q1023 RMK 1CU025 3SC040 6SC050 A3021=,
20180202_020000.002,0,RJFG,,,,0,20180202020000,-1,-1,-1,-1,320,-1,4,-1,-1,-1,-1,,9999,0,1,3,FEW 15   SCT 20   BKN 25,1,8,1,6,1022,RJFG 020200Z 32004KT 9999 -SHRA FEW015 SCT020 BKN025 08/06     Q1022 RMK 1CU015 3CU020 5SC025 A3020=,- RA SH
20180202_030000.002,0,RJFG,,,,0,20180202030000,-1,-1,-1,-1,310,-1,12,-1,-1,-1,-1,,9999,0,0,1,FEW 15,1,10,1,6,1021,RJFG 020300Z 31012KT 9999 FEW015 10/06 Q1021 RMK 1CU015 A3017=,
20180202_040000.002,0,RJFG,,,,0,20180202040000,-1,-1,-1,-1,310,-1,14,-1,-1,-1,-1,,9999,0,0,2,FEW 15   SCT 60,1,9,1,2,1021,RJFG 020400Z 31014KT 9999 FEW015 SCT060 09/02 Q1021 RMK 1CU015     3SC060 A3015=,
20180202_050000.001,0,RJFG,,,,0,20180202050000,-1,-1,-1,-1,320,-1,12,-1,-1,-1,-1,,9999,0,0,2,FEW 20   BKN 70,1,9,-1,1,1020,RJFG 020500Z 32012KT 9999 FEW020 BKN070 09/M01 Q1020 RMK     1CU020 5AC070 A3014=,
20180202_060000.002,0,RJFG,,,,0,20180202060000,-1,-1,-1,-1,310,-1,13,-1,-1,290,350,,9999,0,0,3,FEW 25   SCT 70   BKN -9999,1,11,1,1,1020,RJFG 020600Z 31013KT 290V350 9999 FEW025 SCT070 BKN/// 11/01     Q1020 RMK 1CU025 3AC070 A3013=,
20180202_070000.002,0,RJFG,,,,0,20180202070000,-1,-1,-1,-1,310,-1,10,-1,-1,290,350,,9999,0,0,2,FEW 25   SCT -9999,1,10,1,2,1020,RJFG 020700Z 31010KT 290V350 9999 FEW025 SCT/// 10/02 Q1020     RMK 1CU025 A3013=,
20180202_080000.002,0,RJFG,,,,0,20180202080000,-1,-1,-1,-1,310,-1,8,-1,-1,-1,-1,,9999,0,0,1,FEW 25,1,9,1,2,1020,RJFG 020800Z 31008KT 9999 FEW025 09/02 Q1020 RMK 1CU025 A3013=,
20180202_090000.002,0,RJFG,,,,0,20180202090000,-1,-1,-1,-1,320,-1,6,-1,-1,290,350,,9999,0,0,1,FEW 25,1,8,1,1,1020,RJFG 020900Z 32006KT 290V350 9999 FEW025 08/01 Q1020 RMK     1CU025 A3013=,
20180202_233000.001,0,RJFG,,,,0,20180202230000,-1,-1,-1,-1,320,-1,12,-1,-1,290,350,,9999,0,0,3,FEW 30   SCT 40   BKN 60,1,7,1,1,1020,RJFG 022330Z 32012KT 290V350 9999 FEW030 SCT040 BKN060 07/01     Q1020 RMK 1CU030 3SC040 5SC060 A3014=,
20180203_000000.002,0,RJFG,,,,0,20180203000000,-1,-1,-1,-1,320,-1,11,-1,-1,-1,-1,,9999,0,0,3,FEW 30   SCT 40   BKN 60,1,7,1,0,1020,RJFG 030000Z 32011KT 9999 FEW030 SCT040 BKN060 07/00 Q1020 RMK     1CU030 3SC040 5SC060 A3015=,
20180203_010000.003,0,RJFG,,,,0,20180203010000,-1,-1,-1,-1,320,-1,11,-1,-1,-1,-1,,9999,0,0,3,FEW 30   SCT 40   BKN 70,1,8,1,0,1020,RJFG 030100Z 32011KT 9999 FEW030 SCT040 BKN070 08/00 Q1020 RMK     1CU030 3SC040 5AC070 A3014=,
20180203_020000.002,0,RJFG,,,,0,20180203020000,-1,-1,-1,-1,320,-1,16,-1,27,-1,-1,,9999,0,0,2,FEW 30   SCT -9999,1,9,-1,0,1020,RJFG 030200Z 32016G27KT 9999 FEW030 SCT/// 09/M00 Q1020 RMK     1CU030 A3014=,
20180203_030000.002,0,RJFG,,,,0,20180203030000,-1,-1,-1,-1,320,-1,15,-1,-1,-1,-1,,9999,0,0,2,FEW 30   SCT -9999,1,8,-1,2,1020,RJFG 030300Z 32015KT 9999 FEW030 SCT/// 08/M02 Q1020 RMK     1CU030 A3013=,
20180203_040000.002,0,RJFG,,,,0,20180203040000,-1,-1,-1,-1,320,-1,15,-1,-1,-1,-1,,9999,0,0,1,FEW 35,1,9,-1,1,1019,RJFG 030400Z 32015KT 9999 FEW035 09/M01 Q1019 RMK 2CU035     A3010=,
20180203_050000.002,0,RJFG,,,,0,20180203050000,-1,-1,-1,-1,310,-1,15,-1,26,-1,-1,,9999,0,0,1,FEW 35,1,9,1,0,1019,RJFG 030500Z 31015G26KT 9999 FEW035 09/00 Q1019 RMK 2CU035     A3010=,
20180203_060000.002,0,RJFG,,,,0,20180203060000,-1,-1,-1,-1,320,-1,13,-1,-1,-1,-1,,9999,0,1,2,SCT 35   BKN 50,1,7,-1,0,1019,RJFG 030600Z 32013KT 9999 -SHRA SCT035 BKN050 07/M00 Q1019 RMK     3CU035 5SC050 A3010=,- RA SH
20180203_070000.003,0,RJFG,,,,0,20180203070000,-1,-1,-1,-1,320,-1,12,-1,-1,-1,-1,,8000,0,0,3,SCT 35   SCT 40   BKN 50,1,8,1,0,1019,RJFG 030700Z 32012KT 8000 SCT035 SCT040 BKN050 08/00 Q1019 RMK     3CU035 4SC040 5CU050 A3009=,
20180203_080000.002,0,RJFG,,,,0,20180203080000,-1,-1,-1,-1,320,-1,12,-1,-1,-1,-1,,9999,0,0,3,FEW 30   SCT 40   BKN 50,1,7,1,1,1019,RJFG 030800Z 32012KT 9999 FEW030 SCT040 BKN050 07/01 Q1019 RMK     1CU030 3SC040 5SC050 A3010=,
20180203_090000.002,0,RJFG,,,,0,20180203090000,-1,-1,-1,-1,320,-1,12,-1,-1,-1,-1,,9999,0,1,3,FEW 25   SCT 35   BKN 50,1,7,1,1,1019,RJFG 030900Z 32012KT 9999 -SHRA FEW025 SCT035 BKN050 07/01     Q1019 RMK 2CU025 4CU035 5SC050 A3010=,- RA SH
20180203_233000.001,0,RJFG,,,,0,20180203230000,-1,-1,-1,-1,320,-1,15,-1,25,-1,-1,,9999,0,0,2,FEW 20   SCT 30,1,4,-1,3,1021,RJFG 032330Z 32015G25KT 9999 FEW020 SCT030 04/M03 Q1021 RMK     1CU020 3CU030 A3016=,
20180204_000000.002,0,RJFG,,,,0,20180204000000,-1,-1,-1,-1,320,-1,17,-1,-1,-1,-1,,9999,0,0,3,FEW 20   SCT 30   BKN 40,1,4,-1,2,1021,RJFG 040000Z 32017KT 9999 FEW020 SCT030 BKN040 04/M02 Q1021     RMK 1CU020 3CU030 5SC040 A3016=,
20180204_010000.002,0,RJFG,,,,0,20180204010000,-1,-1,-1,-1,320,-1,15,-1,26,290,360,,9999,0,0,2,FEW 20   BKN 30,1,4,-1,2,1021,RJFG 040100Z 32015G26KT 290V360 9999 FEW020 BKN030 04/M02     Q1021 RMK 1CU020 5CU030 A3017=,
20180204_020000.002,0,RJFG,,,,0,20180204020000,-1,-1,-1,-1,320,-1,13,-1,-1,300,360,,9999,0,1,2,FEW 20   BKN 30,1,3,-1,2,1021,RJFG 040200Z 32013KT 300V360 9999 -SHSN FEW020 BKN030 03/M02     Q1021 RMK 1CU020 5CU030 A3016=,- SN SH
20180204_030000.002,0,RJFG,,,,0,20180204030000,-1,-1,-1,-1,320,-1,13,-1,-1,300,360,,9999,0,1,2,FEW 20   BKN 30,1,4,-1,1,1020,RJFG 040300Z 32013KT 300V360 9999 -SHSN FEW020 BKN030 04/M01     Q1020 RMK 1CU020 5CU030 A3015=,- SN SH
20180204_040000.002,0,RJFG,,,,0,20180204040000,-1,-1,-1,-1,320,-1,15,-1,-1,-1,-1,,9999,0,0,2,FEW 15   BKN 25,1,4,-1,1,1020,RJFG 040400Z 32015KT 9999 FEW015 BKN025 04/M01 Q1020 RMK     1CU015 5CU025 A3012=,
20180204_050000.002,0,RJFG,,,,0,20180204050000,-1,-1,-1,-1,310,-1,20,-1,31,-1,-1,,8000,0,1,3,FEW 10   SCT 15   BKN 20,1,4,1,1,1019,RJFG 040500Z 31020G31KT 8000 -SHSN FEW010 SCT015 BKN020 04/01     Q1019 RMK 1CU010 3CU015 5CU020 A3011=,- SN SH
20180204_060000.002,0,RJFG,,,,0,20180204060000,-1,-1,-1,-1,320,-1,17,-1,27,-1,-1,,8000,0,1,3,FEW 10   SCT 15   BKN 40,1,4,1,2,1019,RJFG 040600Z 32017G27KT 8000 -SHRA FEW010 SCT015 BKN040 04/02     Q1019 RMK 1CU010 3CU015 5SC040 A3010=,- RA SH
20180204_070000.002,0,RJFG,,,,0,20180204070000,-1,-1,-1,-1,320,-1,13,-1,-1,290,350,,9999,0,0,3,FEW 5   SCT 7   BKN 15,1,3,1,2,1019,RJFG 040700Z 32013KT 290V350 9999 FEW005 SCT007 BKN015 03/02     Q1019 RMK 2ST005 4ST007 5CU015 A3010=,
20180204_080000.002,0,RJFG,,,,0,20180204080000,-1,-1,-1,-1,320,-1,19,-1,30,-1,-1,,9999,0,1,3,FEW 7   SCT 10   BKN 30,1,3,1,1,1020,RJFG 040800Z 32019G30KT 9999 -SHSN FEW007 SCT010 BKN030 03/01     Q1020 RMK 2ST007 3CU010 5CU030 A3013=,- SN SH
20180204_090000.002,0,RJFG,,,,0,20180204090000,-1,-1,-1,-1,320,-1,17,-1,-1,-1,-1,,9999,0,0,3,FEW 15   SCT 20   BKN 30,1,2,-1,0,1020,RJFG 040900Z 32017KT 9999 FEW015 SCT020 BKN030 02/M00 Q1020     RMK 1CU015 3CU020 5CU030 A3013=,
20180204_233000.001,0,RJFG,,,,0,20180204230000,-1,-1,-1,-1,330,-1,11,-1,23,300,20,,9999,0,0,3,FEW 20   SCT 30   BKN -9999,1,3,-1,3,1022,RJFG 042330Z 33011G23KT 300V020 9999 FEW020 SCT030 BKN///     03/M03 Q1022 RMK 1CU020 3CU030 A3018=,
20180205_000000.003,0,RJFG,,,,0,20180205000000,-1,-1,-1,-1,320,-1,13,-1,24,300,10,,9999,0,0,3,FEW 20   SCT 50   BKN -9999,1,3,-1,4,1021,RJFG 050000Z 32013G24KT 300V010 9999 FEW020 SCT050 BKN///     03/M04 Q1021 RMK 1CU020 3SC050 A3018=,
20180205_010000.002,0,RJFG,,,,0,20180205010000,-1,-1,-1,-1,320,-1,13,-1,23,300,10,,9999,0,0,2,FEW 20   SCT 50,1,4,-1,4,1021,RJFG 050100Z 32013G23KT 300V010 9999 FEW020 SCT050 04/M04     Q1021 RMK 1CU020 3SC050 A3017=,
20180205_020000.002,0,RJFG,,,,0,20180205020000,-1,-1,-1,-1,320,-1,14,-1,26,300,360,,9999,0,0,2,FEW 20   SCT 50,1,5,-1,4,1021,RJFG 050200Z 32014G26KT 300V360 9999 FEW020 SCT050 05/M04     Q1021 RMK 1CU020 3SC050 A3017=,
