20180101_000000.003,0,RJFN,,,,0,20180101000000,-1,-1,-1,-1,290,-1,8,-1,-1,-1,-1,,9999,0,0,1,FEW 30,1,6,-1,3,1022,RJFN 010000Z 29008KT 9999 FEW030 06/M03 Q1022 RMK 1CU030     A3020=,
20180101_010000.003,0,RJFN,,,,0,20180101010000,-1,-1,-1,-1,290,-1,7,-1,-1,-1,-1,,9999,0,0,1,FEW 30,1,8,-1,3,1023,RJFN 010100Z 29007KT 9999 FEW030 08/M03 Q1023 RMK 1CU030     A3021=,
20180101_020000.003,0,RJFN,,,,0,20180101020000,-1,-1,-1,-1,270,-1,8,-1,-1,240,310,,9999,0,0,1,FEW 35,1,9,-1,4,1022,RJFN 010200Z 27008KT 240V310 9999 FEW035 09/M04 Q1022 RMK     1CU035 A3020=,
20180101_030000.003,0,RJFN,,,,0,20180101030000,-1,-1,-1,-1,280,-1,5,-1,-1,170,330,,9999,0,0,1,FEW 35,1,10,-1,5,1021,RJFN 010300Z 28005KT 170V330 9999 FEW035 10/M05 Q1021 RMK     1CU035 A3017=,
20180101_040000.003,0,RJFN,,,,0,20180101040000,-1,-1,-1,-1,250,-1,6,-1,-1,200,320,,9999,0,0,1,FEW 35,1,11,-1,4,1020,RJFN 010400Z 25006KT 200V320 9999 FEW035 11/M04 Q1020 RMK     1CU035 A3015=,
20180101_050000.003,0,RJFN,,,,0,20180101050000,-1,-1,-1,-1,180,-1,4,-1,-1,-1,-1,,9999,0,0,1,FEW 35,1,12,-1,3,1020,RJFN 010500Z 18004KT 9999 FEW035 12/M03 Q1020 RMK 1CU035     A3013=,
20180101_060000.003,0,RJFN,,,,0,20180101060000,-1,-1,-1,-1,70,-1,9,-1,-1,40,100,,9999,0,0,1,FEW 35,1,11,-1,1,1020,RJFN 010600Z 07009KT 040V100 9999 FEW035 11/M01 Q1020 RMK     1CU035 A3014=,
20180101_070000.003,0,RJFN,,,,0,20180101070000,-1,-1,-1,-1,50,-1,7,-1,-1,30,90,,9999,0,0,1,FEW 35,1,11,-1,1,1021,RJFN 010700Z 05007KT 030V090 9999 FEW035 11/M01 Q1021 RMK     1CU035 A3015=,
20180101_080000.003,0,RJFN,,,,0,20180101080000,-1,-1,-1,-1,30,-1,5,-1,-1,-1,-1,,9999,0,0,1,FEW 35,1,10,-1,1,1021,RJFN 010800Z 03005KT 9999 FEW035 10/M01 Q1021 RMK 1CU035     A3016=,
20180101_090000.003,0,RJFN,,,,0,20180101090000,-1,-1,-1,-1,350,-1,2,-1,-1,-1,-1,,9999,0,0,1,FEW 30,1,9,-1,1,1022,RJFN 010900Z 35002KT 9999 FEW030 09/M01 Q1022 RMK 1CU030     A3018=,
20180101_100000.003,0,RJFN,,,,0,20180101100000,-1,-1,-1,-1,290,-1,6,-1,-1,-1,-1,,9999,0,0,1,FEW 30,1,7,-1,1,1022,RJFN 011000Z 29006KT 9999 FEW030 07/M01 Q1022 RMK 1CU030     A3019=,
20180101_110000.003,0,RJFN,,,,0,20180101110000,-1,-1,-1,-1,250,-1,5,-1,-1,-1,-1,,9999,0,0,1,FEW 30,1,4,-1,1,1022,RJFN 011100Z 25005KT 9999 FEW030 04/M01 Q1022 RMK 1CU030     A3020=,
20180101_120000.003,0,RJFN,,,,0,20180101120000,-1,-1,-1,-1,240,-1,6,-1,-1,-1,-1,,9999,0,0,1,FEW 30,1,3,-1,2,1023,RJFN 011200Z 24006KT 9999 FEW030 03/M02 Q1023 RMK 1CU030     A3021=,
20180101_130000.003,0,RJFN,,,,0,20180101130000,-1,-1,-1,-1,230,-1,4,-1,-1,-1,-1,,9999,0,0,1,FEW 30,1,2,-1,2,1023,RJFN 011300Z 23004KT 9999 FEW030 02/M02 Q1023 RMK 1CU030     A3022=,
20180101_140000.003,0,RJFN,,,,0,20180101140000,-1,-1,-1,-1,250,-1,5,-1,-1,-1,-1,,9999,0,0,1,FEW 30,1,2,-1,2,1023,RJFN 011400Z 25005KT 9999 FEW030 02/M02 Q1023 RMK 1CU030     A3024=,
20180101_150000.003,0,RJFN,,,,0,20180101150000,-1,-1,-1,-1,250,-1,3,-1,-1,-1,-1,,9999,0,0,1,FEW 30,1,1,-1,2,1023,RJFN 011500Z 25003KT 9999 FEW030 01/M02 Q1023 RMK 1CU030     A3024=,
20180101_160000.003,0,RJFN,,,,0,20180101160000,-1,-1,-1,-1,260,-1,8,-1,-1,-1,-1,,9999,0,0,1,NSC -1,1,1,-1,2,1024,RJFN 011600Z 26008KT 9999 NSC 01/M02 Q1024 RMK A3024=,
20180101_170000.003,0,RJFN,,,,0,20180101170000,-1,-1,-1,-1,270,-1,6,-1,-1,-1,-1,,9999,0,0,1,NSC -1,1,0,-1,3,1024,RJFN 011700Z 27006KT 9999 NSC 00/M03 Q1024 RMK A3025=,
20180101_180000.004,0,RJFN,,,,0,20180101180000,-1,-1,-1,-1,270,-1,6,-1,-1,-1,-1,,9999,0,0,1,NSC -1,1,0,-1,2,1025,RJFN 011800Z 27006KT 9999 NSC 00/M02 Q1025 RMK A3027=,
20180101_190000.004,0,RJFN,,,,0,20180101190000,-1,-1,-1,-1,250,-1,6,-1,-1,-1,-1,,9999,0,0,1,NSC -1,-1,1,-1,3,1024,RJFN 011900Z 25006KT 9999 NSC M01/M03 Q1024 RMK A3026=,
20180101_200000.004,0,RJFN,,,,0,20180101200000,-1,-1,-1,-1,290,-1,5,-1,-1,-1,-1,,9999,0,0,1,NSC -1,-1,0,-1,3,1024,RJFN 012000Z 29005KT 9999 NSC M00/M03 Q1024 RMK A3026=,
20180101_210000.003,0,RJFN,,,,0,20180101210000,-1,-1,-1,-1,270,-1,6,-1,-1,-1,-1,,9999,0,0,1,NSC -1,-1,1,-1,3,1025,RJFN 012100Z 27006KT 9999 NSC M01/M03 Q1025 RMK A3028 12/M01=,
20180101_220000.003,0,RJFN,,,,0,20180101220000,-1,-1,-1,-1,270,-1,7,-1,-1,-1,-1,,9999,0,0,1,FEW 25,-1,0,-1,3,1025,RJFN 012200Z 27007KT 9999 FEW025 M00/M03 Q1025 RMK 1CU025     A3029=,
20180101_230000.003,0,RJFN,,,,0,20180101230000,-1,-1,-1,-1,270,-1,8,-1,-1,-1,-1,,9999,0,0,1,FEW 30,1,0,-1,3,1026,RJFN 012300Z 27008KT 9999 FEW030 00/M03 Q1026 RMK 1CU030     A3030=,
20180102_000000.004,0,RJFN,,,,0,20180102000000,-1,-1,-1,-1,270,-1,7,-1,-1,-1,-1,,9999,0,0,1,FEW 200,1,3,-1,3,1026,RJFN 020000Z 27007KT 9999 FEW200 03/M03 Q1026 RMK A3031=,
20180102_010000.004,0,RJFN,,,,0,20180102010000,-1,-1,-1,-1,270,-1,6,-1,-1,-1,-1,,9999,0,0,1,FEW 200,1,7,-1,3,1026,RJFN 020100Z 27006KT 9999 FEW200 07/M03 Q1026 RMK A3031=,
20180102_020000.003,0,RJFN,,,,0,20180102020000,-1,-1,-1,-1,240,-1,7,-1,-1,210,280,,9999,0,0,1,FEW 200,1,9,-1,3,1025,RJFN 020200Z 24007KT 210V280 9999 FEW200 09/M03 Q1025 RMK     A3029=,
20180102_030000.003,0,RJFN,,,,0,20180102030000,-1,-1,-1,-1,999,-1,3,-1,-1,-1,-1,,9999,0,0,1,FEW 200,1,10,-1,5,1024,RJFN 020300Z VRB03KT 9999 FEW200 10/M05 Q1024 RMK A3026=,
20180102_040000.003,0,RJFN,,,,0,20180102040000,-1,-1,-1,-1,170,-1,6,-1,-1,120,250,,9999,0,0,1,FEW 200,1,11,-1,5,1023,RJFN 020400Z 17006KT 120V250 9999 FEW200 11/M05 Q1023 RMK     A3023=,
20180102_050000.003,0,RJFN,,,,0,20180102050000,-1,-1,-1,-1,130,-1,6,-1,-1,90,180,,9999,0,0,1,NSC -1,1,12,-1,2,1022,RJFN 020500Z 13006KT 090V180 9999 NSC 12/M02 Q1022 RMK A3020=,
20180102_060000.003,0,RJFN,,,,0,20180102060000,-1,-1,-1,-1,130,-1,8,-1,-1,-1,-1,,9999,0,0,1,NSC -1,1,11,-1,0,1022,RJFN 020600Z 13008KT 9999 NSC 11/M00 Q1022 RMK A3019=,
20180102_070000.003,0,RJFN,,,,0,20180102070000,-1,-1,-1,-1,140,-1,7,-1,-1,-1,-1,,9999,0,0,1,NSC -1,1,11,1,1,1022,RJFN 020700Z 14007KT 9999 NSC 11/01 Q1022 RMK A3019=,
20180102_080000.003,0,RJFN,,,,0,20180102080000,-1,-1,-1,-1,110,-1,3,-1,-1,-1,-1,,9999,0,0,1,NSC -1,1,9,1,2,1022,RJFN 020800Z 11003KT 9999 NSC 09/02 Q1022 RMK A3020=,
20180102_090000.003,0,RJFN,,,,0,20180102090000,-1,-1,-1,-1,360,-1,4,-1,-1,-1,-1,,9999,0,0,1,FEW 120,1,9,1,3,1023,RJFN 020900Z 36004KT 9999 FEW120 09/03 Q1023 RMK 1AC120 A3022=,
20180102_100000.003,0,RJFN,,,,0,20180102100000,-1,-1,-1,-1,340,-1,5,-1,-1,-1,-1,,9999,0,0,1,FEW 120,1,8,1,2,1023,RJFN 021000Z 34005KT 9999 FEW120 08/02 Q1023 RMK 1AC120 A3023=,
20180102_110000.003,0,RJFN,,,,0,20180102110000,-1,-1,-1,-1,310,-1,3,-1,-1,-1,-1,,9999,0,0,1,SCT 120,1,6,1,2,1023,RJFN 021100Z 31003KT 9999 SCT120 06/02 Q1023 RMK 3AC120 A3023=,
20180102_120000.003,0,RJFN,,,,0,20180102120000,-1,-1,-1,-1,320,-1,5,-1,-1,-1,-1,,9999,0,0,2,FEW 30   BKN 130,1,6,1,1,1023,RJFN 021200Z 32005KT 9999 FEW030 BKN130 06/01 Q1023 RMK 1CU030     6AC130 A3024=,
20180102_130000.004,0,RJFN,,,,0,20180102130000,-1,-1,-1,-1,250,-1,6,-1,-1,-1,-1,,9999,0,0,2,FEW 30   BKN 120,1,6,1,1,1023,RJFN 021300Z 25006KT 9999 FEW030 BKN120 06/01 Q1023 RMK 1CU030     7AC120 A3022=,
20180102_140000.004,0,RJFN,,,,0,20180102140000,-1,-1,-1,-1,270,-1,7,-1,-1,-1,-1,,9999,0,0,2,FEW 30   BKN 120,1,5,1,1,1023,RJFN 021400Z 27007KT 9999 FEW030 BKN120 05/01 Q1023 RMK 1CU030     7AC120 A3021=,
20180102_150000.003,0,RJFN,,,,0,20180102150000,-1,-1,-1,-1,240,-1,5,-1,-1,-1,-1,,9999,0,0,2,FEW 30   BKN 130,1,5,-1,1,1022,RJFN 021500Z 24005KT 9999 FEW030 BKN130 05/M01 Q1022 RMK     1CU030 6AC130 A3020=,
20180102_160000.003,0,RJFN,,,,0,20180102160000,-1,-1,-1,-1,270,-1,7,-1,-1,-1,-1,,9999,0,0,2,FEW 30   SCT 130,1,4,-1,2,1022,RJFN 021600Z 27007KT 9999 FEW030 SCT130 04/M02 Q1022 RMK     1CU030 3AC130 A3018=,
20180102_170000.003,0,RJFN,,,,0,20180102170000,-1,-1,-1,-1,260,-1,8,-1,-1,-1,-1,,9999,0,0,2,FEW 30   BKN 130,1,4,-1,2,1022,RJFN 021700Z 26008KT 9999 FEW030 BKN130 04/M02 Q1022 RMK     1CU030 7AC130 A3019=,
20180102_180000.004,0,RJFN,,,,0,20180102180000,-1,-1,-1,-1,290,-1,10,-1,-1,-1,-1,,9999,0,0,3,FEW 30   SCT 100   BKN 130,1,6,-1,3,1022,RJFN 021800Z 29010KT 9999 FEW030 SCT100 BKN130 06/M03 Q1022     RMK 1CU030 3AC100 7AC130 A3019=,
20180102_190000.003,0,RJFN,,,,0,20180102190000,-1,-1,-1,-1,300,-1,12,-1,-1,-1,-1,,9999,0,0,3,FEW 30   SCT 100   BKN 130,1,7,-1,3,1023,RJFN 021900Z 30012KT 9999 FEW030 SCT100 BKN130 07/M03 Q1023     RMK 1CU030 3AC100 7AC130 A3021=,
20180102_200000.004,0,RJFN,,,,0,20180102200000,-1,-1,-1,-1,240,-1,6,-1,-1,-1,-1,,9999,0,0,3,FEW 30   SCT 100   BKN 130,1,6,-1,2,1022,RJFN 022000Z 24006KT 9999 FEW030 SCT100 BKN130 06/M02 Q1022     RMK 1CU030 3AC100 7AC130 A3021=,
20180102_210000.003,0,RJFN,,,,0,20180102210000,-1,-1,-1,-1,250,-1,7,-1,-1,-1,-1,,9999,0,0,2,FEW 30   BKN 120,1,5,-1,2,1023,RJFN 022100Z 25007KT 9999 FEW030 BKN120 05/M02 Q1023 RMK     1CU030 6AC120 A3021 12/03=,
20180102_220000.003,0,RJFN,,,,0,20180102220000,-1,-1,-1,-1,290,-1,4,-1,-1,-1,-1,,9999,0,0,2,FEW 30   SCT 120,1,4,-1,2,1023,RJFN 022200Z 29004KT 9999 FEW030 SCT120 04/M02 Q1023 RMK     1CU030 4AC120 A3022=,
20180102_230000.003,0,RJFN,,,,0,20180102230000,-1,-1,-1,-1,260,-1,7,-1,-1,-1,-1,,9999,0,0,2,FEW 30   SCT 110,1,4,-1,1,1023,RJFN 022300Z 26007KT 9999 FEW030 SCT110 04/M01 Q1023 RMK     1CU030 3AC110 A3023=,
20180103_000000.003,0,RJFN,,,,0,20180103000000,-1,-1,-1,-1,240,-1,7,-1,-1,210,270,,9999,0,0,1,FEW 250,1,7,1,0,1023,RJFN 030000Z 24007KT 210V270 9999 FEW250 07/00 Q1023 RMK     A3023=,
20180103_010000.003,0,RJFN,,,,0,20180103010000,-1,-1,-1,-1,220,-1,5,-1,-1,180,260,,9999,0,0,1,FEW 250,1,9,1,1,1023,RJFN 030100Z 22005KT 180V260 9999 FEW250 09/01 Q1023 RMK     A3023=,
20180103_020000.003,0,RJFN,,,,0,20180103020000,-1,-1,-1,-1,230,-1,6,-1,-1,190,270,,9999,0,0,1,FEW 250,1,11,-1,0,1023,RJFN 030200Z 23006KT 190V270 9999 FEW250 11/M00 Q1023 RMK     A3021=,
20180103_030000.004,0,RJFN,,,,0,20180103030000,-1,-1,-1,-1,999,-1,2,-1,-1,-1,-1,,9999,0,0,1,NSC -1,1,12,-1,1,1021,RJFN 030300Z VRB02KT 9999 NSC 12/M01 Q1021 RMK A3018=,
20180103_040000.003,0,RJFN,,,,0,20180103040000,-1,-1,-1,-1,999,-1,2,-1,-1,-1,-1,,9999,0,0,1,NSC -1,1,14,-1,2,1020,RJFN 030400Z VRB02KT 9999 NSC 14/M02 Q1020 RMK A3014=,
20180103_050000.003,0,RJFN,,,,0,20180103050000,-1,-1,-1,-1,70,-1,7,-1,-1,30,100,,9999,0,0,1,NSC -1,1,14,1,0,1020,RJFN 030500Z 07007KT 030V100 9999 NSC 14/00 Q1020 RMK A3012=,
20180103_060000.003,0,RJFN,,,,0,20180103060000,-1,-1,-1,-1,70,-1,7,-1,-1,30,110,,9999,0,0,1,FEW 250,1,13,1,2,1020,RJFN 030600Z 07007KT 030V110 9999 FEW250 13/02 Q1020 RMK     A3013=,
20180103_070000.003,0,RJFN,,,,0,20180103070000,-1,-1,-1,-1,80,-1,6,-1,-1,40,100,,9999,0,0,1,FEW 30,1,12,1,1,1020,RJFN 030700Z 08006KT 040V100 9999 FEW030 12/01 Q1020 RMK     1CU030 A3014=,
20180103_080000.003,0,RJFN,,,,0,20180103080000,-1,-1,-1,-1,80,-1,5,-1,-1,50,110,,9999,0,0,1,FEW 30,1,11,1,1,1020,RJFN 030800Z 08005KT 050V110 9999 FEW030 11/01 Q1020 RMK     1CU030 A3015=,
20180103_090000.003,0,RJFN,,,,0,20180103090000,-1,-1,-1,-1,90,-1,4,-1,-1,-1,-1,,9999,0,0,2,FEW 30   SCT -9999,1,9,1,1,1021,RJFN 030900Z 09004KT 9999 FEW030 SCT/// 09/01 Q1021 RMK 1CU030     A3015=,
20180103_100000.003,0,RJFN,,,,0,20180103100000,-1,-1,-1,-1,999,-1,2,-1,-1,-1,-1,,9999,0,0,2,FEW 30   BKN -9999,1,7,1,1,1022,RJFN 031000Z VRB02KT 9999 FEW030 BKN/// 07/01 Q1022 RMK 1CU030     A3018=,
20180103_110000.003,0,RJFN,,,,0,20180103110000,-1,-1,-1,-1,260,-1,8,-1,-1,-1,-1,,9999,0,0,2,FEW 30   BKN -9999,1,6,1,2,1022,RJFN 031100Z 26008KT 9999 FEW030 BKN/// 06/02 Q1022 RMK 1CU030     A3018=,
20180103_120000.003,0,RJFN,,,,0,20180103120000,-1,-1,-1,-1,230,-1,5,-1,-1,-1,-1,,9999,0,0,2,FEW 30   SCT -9999,1,5,1,0,1022,RJFN 031200Z 23005KT 9999 FEW030 SCT/// 05/00 Q1022 RMK 1CU030     A3021=,
20180103_130000.004,0,RJFN,,,,0,20180103130000,-1,-1,-1,-1,270,-1,6,-1,-1,-1,-1,,9999,0,0,1,FEW 30,1,5,-1,3,1023,RJFN 031300Z 27006KT 9999 FEW030 05/M03 Q1023 RMK 1CU030     A3022=,
20180103_140000.003,0,RJFN,,,,0,20180103140000,-1,-1,-1,-1,260,-1,5,-1,-1,-1,-1,,9999,0,0,1,FEW 30,1,4,-1,2,1023,RJFN 031400Z 26005KT 9999 FEW030 04/M02 Q1023 RMK 1CU030     A3023=,
20180103_150000.003,0,RJFN,,,,0,20180103150000,-1,-1,-1,-1,260,-1,4,-1,-1,-1,-1,,9999,0,0,1,FEW 30,1,3,-1,3,1023,RJFN 031500Z 26004KT 9999 FEW030 03/M03 Q1023 RMK 1CU030     A3022=,
20180103_160000.003,0,RJFN,,,,0,20180103160000,-1,-1,-1,-1,250,-1,6,-1,-1,-1,-1,,9999,0,0,1,FEW 30,1,3,-1,3,1023,RJFN 031600Z 25006KT 9999 FEW030 03/M03 Q1023 RMK 1CU030     A3022=,
20180103_170000.003,0,RJFN,,,,0,20180103170000,-1,-1,-1,-1,350,-1,3,-1,-1,-1,-1,,9999,0,0,2,FEW 30   SCT 130,1,2,-1,3,1023,RJFN 031700Z 35003KT 9999 FEW030 SCT130 02/M03 Q1023 RMK     1CU030 3AC130 A3021=,
20180103_180000.003,0,RJFN,,,,0,20180103180000,-1,-1,-1,-1,260,-1,2,-1,-1,-1,-1,,9999,0,0,2,FEW 30   BKN 130,1,3,-1,2,1022,RJFN 031800Z 26002KT 9999 FEW030 BKN130 03/M02 Q1022 RMK     1CU030 7AC130 A3020=,
20180103_190000.003,0,RJFN,,,,0,20180103190000,-1,-1,-1,-1,999,-1,2,-1,-1,-1,-1,,9999,0,0,2,FEW 30   BKN 130,1,5,-1,3,1022,RJFN 031900Z VRB02KT 9999 FEW030 BKN130 05/M03 Q1022 RMK     1CU030 7AC130 A3020=,
20180103_200000.003,0,RJFN,,,,0,20180103200000,-1,-1,-1,-1,290,-1,4,-1,-1,-1,-1,,9999,0,0,2,FEW 30   BKN 120,1,5,-1,3,1023,RJFN 032000Z 29004KT 9999 FEW030 BKN120 05/M03 Q1023 RMK     1CU030 7AC120 A3021=,
20180103_210000.004,0,RJFN,,,,0,20180103210000,-1,-1,-1,-1,0,-1,0,-1,-1,-1,-1,,9999,0,0,2,FEW 30   BKN 110,1,4,-1,3,1023,RJFN 032100Z 00000KT 9999 FEW030 BKN110 04/M03 Q1023 RMK     1CU030 7AC110 A3023 14/01=,
20180103_220000.003,0,RJFN,,,,0,20180103220000,-1,-1,-1,-1,270,-1,4,-1,-1,-1,-1,,9999,0,0,2,FEW 30   BKN 110,1,4,-1,2,1023,RJFN 032200Z 27004KT 9999 FEW030 BKN110 04/M02 Q1023 RMK     1CU030 7AC110 A3023=,
20180103_230000.003,0,RJFN,,,,0,20180103230000,-1,-1,-1,-1,280,-1,4,-1,-1,-1,-1,,9999,0,0,1,FEW 30,1,3,-1,2,1023,RJFN 032300Z 28004KT 9999 FEW030 03/M02 Q1023 RMK 1CU030     A3022=,
20180104_000000.003,0,RJFN,,,,0,20180104000000,-1,-1,-1,-1,320,-1,2,-1,-1,-1,-1,,9999,0,0,2,FEW 30   SCT 140,1,5,-1,3,1023,RJFN 040000Z 32002KT 9999 FEW030 SCT140 05/M03 Q1023 RMK     1CU030 4AC140 A3023=,
20180104_010000.003,0,RJFN,,,,0,20180104010000,-1,-1,-1,-1,280,-1,2,-1,-1,-1,-1,,9999,0,0,2,FEW 30   BKN 120,1,7,-1,3,1023,RJFN 040100Z 28002KT 9999 FEW030 BKN120 07/M03 Q1023 RMK     1CU030 6AC120 A3023=,
20180104_020000.005,0,RJFN,,,,0,20180104020000,-1,-1,-1,-1,999,-1,2,-1,-1,-1,-1,,9999,0,0,2,FEW 30   BKN 130,1,9,-1,2,1023,RJFN 040200Z VRB02KT 9999 FEW030 BKN130 09/M02 Q1023 RMK     1CU030 6AC130 A3022=,
20180104_030000.004,0,RJFN,,,,0,20180104030000,-1,-1,-1,-1,999,-1,3,-1,-1,-1,-1,,9999,0,0,2,FEW 30   BKN 130,1,9,-1,2,1022,RJFN 040300Z VRB03KT 9999 FEW030 BKN130 09/M02 Q1022 RMK     1CU030 6AC130 A3019=,
20180104_040000.003,0,RJFN,,,,0,20180104040000,-1,-1,-1,-1,180,-1,3,-1,-1,110,250,,9999,0,0,2,FEW 30   BKN 110,1,9,-1,2,1021,RJFN 040400Z 18003KT 110V250 9999 FEW030 BKN110 09/M02 Q1021     RMK 1CU030 7AC110 A3016=,
20180104_050000.003,0,RJFN,,,,0,20180104050000,-1,-1,-1,-1,190,-1,4,-1,-1,110,230,,9999,0,0,2,FEW 30   BKN 130,1,10,-1,2,1020,RJFN 040500Z 19004KT 110V230 9999 FEW030 BKN130 10/M02 Q1020     RMK 1CU030 7AC130 A3013=,
20180104_060000.004,0,RJFN,,,,0,20180104060000,-1,-1,-1,-1,140,-1,5,-1,-1,90,180,,9999,0,0,2,FEW 30   BKN 160,1,10,-1,1,1019,RJFN 040600Z 14005KT 090V180 9999 FEW030 BKN160 10/M01 Q1019     RMK 1CU030 7AC160 A3012=,
20180104_070000.003,0,RJFN,,,,0,20180104070000,-1,-1,-1,-1,110,-1,5,-1,-1,80,140,,9999,0,0,2,FEW 30   BKN 160,1,10,-1,1,1020,RJFN 040700Z 11005KT 080V140 9999 FEW030 BKN160 10/M01 Q1020     RMK 1CU030 7AC160 A3013=,
20180104_080000.003,0,RJFN,,,,0,20180104080000,-1,-1,-1,-1,120,-1,3,-1,-1,90,150,,9999,0,0,2,FEW 30   BKN 170,1,9,-1,0,1020,RJFN 040800Z 12003KT 090V150 9999 FEW030 BKN170 09/M00 Q1020     RMK 1CU030 5AC170 A3013=,
20180104_090000.003,0,RJFN,,,,0,20180104090000,-1,-1,-1,-1,140,-1,1,-1,-1,-1,-1,,9999,0,0,3,FEW 30   SCT 100   BKN 170,1,9,1,0,1020,RJFN 040900Z 14001KT 9999 FEW030 SCT100 BKN170 09/00 Q1020 RMK     1CU030 3AC100 6AC170 A3014=,
20180104_100000.003,0,RJFN,,,,0,20180104100000,-1,-1,-1,-1,330,-1,3,-1,-1,-1,-1,,9999,0,0,3,FEW 30   BKN 100   BKN 170,1,8,1,1,1020,RJFN 041000Z 33003KT 9999 FEW030 BKN100 BKN170 08/01 Q1020 RMK     1CU030 5AC100 7AC170 A3015=,
20180104_110000.003,0,RJFN,,,,0,20180104110000,-1,-1,-1,-1,320,-1,3,-1,-1,-1,-1,,9999,0,0,3,FEW 30   BKN 100   BKN 170,1,8,1,1,1020,RJFN 041100Z 32003KT 9999 FEW030 BKN100 BKN170 08/01 Q1020 RMK     1CU030 5AC100 7AC170 A3015=,
20180104_120000.004,0,RJFN,,,,0,20180104120000,-1,-1,-1,-1,330,-1,3,-1,-1,-1,-1,,9999,0,0,3,FEW 30   BKN 100   BKN 170,1,8,1,1,1020,RJFN 041200Z 33003KT 9999 FEW030 BKN100 BKN170 08/01 Q1020 RMK     1CU030 6AC100 7AC170 A3014=,
20180104_130000.003,0,RJFN,,,,0,20180104130000,-1,-1,-1,-1,300,-1,5,-1,-1,-1,-1,,9999,0,0,2,FEW 30   BKN 100,1,7,1,1,1020,RJFN 041300Z 30005KT 9999 FEW030 BKN100 07/01 Q1020 RMK 1CU030     7AC100 A3013=,
20180104_140000.003,0,RJFN,,,,0,20180104140000,-1,-1,-1,-1,310,-1,5,-1,-1,-1,-1,,9999,0,0,2,FEW 30   BKN 90,1,7,1,1,1019,RJFN 041400Z 31005KT 9999 FEW030 BKN090 07/01 Q1019 RMK 1CU030     7AC090 A3011=,
20180104_150000.004,0,RJFN,,,,0,20180104150000,-1,-1,-1,-1,310,-1,5,-1,-1,-1,-1,,9999,0,1,3,FEW 30   BKN 60   OVC 90,1,7,1,2,1019,RJFN 041500Z 31005KT 9999 -RA FEW030 BKN060 OVC090 07/02 Q1019     RMK 1SC030 5SC060 8AS090 A3010=,- RA
20180104_160000.004,0,RJFN,,,,0,20180104160000,-1,-1,-1,-1,330,-1,4,-1,-1,-1,-1,,9999,0,1,3,FEW 30   BKN 50   OVC 90,1,7,1,3,1018,RJFN 041600Z 33004KT 9999 -RA FEW030 BKN050 OVC090 07/03 Q1018     RMK 1SC030 7SC050 8AS090 A3008=,- RA
20180104_170000.004,0,RJFN,,,,0,20180104170000,-1,-1,-1,-1,320,-1,3,-1,-1,290,350,,9999,0,1,3,FEW 30   BKN 50   OVC 80,1,6,1,4,1018,RJFN 041700Z 32003KT 290V350 9999 -RA FEW030 BKN050 OVC080     06/04 Q1018 RMK 1SC030 7SC050 8AS080 A3007=,- RA
20180104_180000.003,0,RJFN,,,,0,20180104180000,-1,-1,-1,-1,310,-1,5,-1,-1,-1,-1,,9999,0,1,3,FEW 15   SCT 30   OVC 50,1,6,1,5,1018,RJFN 041800Z 31005KT 9999 -RA FEW015 SCT030 OVC050 06/05 Q1018     RMK 1SC015 4SC030 8SC050 A3007=,- RA
20180104_190000.004,0,RJFN,,,,0,20180104190000,-1,-1,-1,-1,300,-1,5,-1,-1,-1,-1,,9999,0,1,3,FEW 15   BKN 30   OVC 50,1,5,1,5,1017,RJFN 041900Z 30005KT 9999 -RA FEW015 BKN030 OVC050 05/05 Q1017     RMK 1SC015 5SC030 8SC050 A3004=,- RA
20180104_200000.003,0,RJFN,,,,0,20180104200000,-1,-1,-1,-1,310,-1,5,-1,-1,-1,-1,,9999,0,1,3,FEW 15   BKN 30   OVC 50,1,5,1,5,1016,RJFN 042000Z 31005KT 9999 -RA FEW015 BKN030 OVC050 05/05 Q1016     RMK 1SC015 6SC030 8SC050 A3002=,- RA
20180104_210000.003,0,RJFN,,,,0,20180104210000,-1,-1,-1,-1,320,-1,5,-1,-1,-1,-1,,9999,0,1,3,FEW 15   BKN 30   OVC 50,1,5,1,5,1016,RJFN 042100Z 32005KT 9999 -RA FEW015 BKN030 OVC050 05/05 Q1016     RMK 1SC015 7SC030 8SC050 A3001 10/05 R004=,- RA
20180104_220000.003,0,RJFN,,,,0,20180104220000,-1,-1,-1,-1,350,-1,2,-1,-1,-1,-1,,8000,0,1,3,FEW 15   BKN 25   OVC 40,1,6,1,6,1016,RJFN 042200Z 35002KT 8000 -RA FEW015 BKN025 OVC040 06/06 Q1016     RMK 2SC015 7SC025 8SC040 A3000=,- RA
20180104_230000.003,0,RJFN,,,,0,20180104230000,-1,-1,-1,-1,330,-1,3,-1,-1,-1,-1,,7000,0,1,3,FEW 4   BKN 25   BKN 35,1,5,1,5,1016,RJFN 042300Z 33003KT 7000 -RA FEW004 BKN025 BKN035 05/05 Q1016     RMK 1ST004 6SC025 7SC035 A3002 1ST004 AND 1ST008 E=,- RA
20180105_000000.004,0,RJFN,,,,0,20180105000000,-1,-1,-1,-1,40,-1,3,-1,-1,-1,-1,,6000,0,1,3,FEW 5   BKN 25   BKN 40,1,5,1,5,1016,RJFN 050000Z 04003KT 6000 -RA FEW005 BKN025 BKN040 05/05 Q1016     RMK 1ST005 5SC025 6SC040 A3003 1ST005 AND 1ST008 E=,- RA
20180105_010000.004,0,RJFN,,,,0,20180105010000,-1,-1,-1,-1,10,-1,4,-1,-1,340,40,,6000,0,1,3,FEW 12   BKN 50   OVC 70,1,5,1,5,1016,RJFN 050100Z 01004KT 340V040 6000 -RA FEW012 BKN050 OVC070     05/05 Q1016 RMK 2CU012 6SC050 8AS070 A3002=,- RA
20180105_020000.003,0,RJFN,,,,0,20180105020000,-1,-1,-1,-1,10,-1,4,-1,-1,340,50,,6000,0,1,3,FEW 5   BKN 15   OVC 40,1,6,1,6,1016,RJFN 050200Z 01004KT 340V050 6000 -RA FEW005 BKN015 OVC040     06/06 Q1016 RMK 1ST005 5SC015 8SC040 A3002 1ST005 AND           1ST009 AAL=,- RA
20180105_030000.003,0,RJFN,,,,0,20180105030000,-1,-1,-1,-1,350,-1,3,-1,-1,-1,-1,,4500,0,2,3,FEW 3   BKN 15   OVC 40,1,6,1,6,1015,RJFN 050300Z 35003KT 4500 -RA BR FEW003 BKN015 OVC040 06/06     Q1015 RMK 1ST003 6SC015 8SC040 A2999 1ST003 AAL=,- RA; BR
20180105_040000.003,0,RJFN,,,,0,20180105040000,-1,-1,-1,-1,30,-1,3,-1,-1,-1,-1,,4500,0,2,3,FEW 3   BKN 5   BKN 15,1,7,1,7,1014,RJFN 050400Z 03003KT 4500 -RA BR FEW003 BKN005 BKN015 07/07     Q1014 RMK 1ST003 5ST005 7SC015 A2996 1ST003 W=,- RA; BR
20180105_050000.003,0,RJFN,,,,0,20180105050000,-1,-1,-1,-1,340,-1,3,-1,-1,-1,-1,,6000,0,1,3,FEW 3   SCT 5   BKN 15,1,7,1,7,1014,RJFN 050500Z 34003KT 6000 -RA FEW003 SCT005 BKN015 07/07 Q1014     RMK 1ST003 3ST005 6SC015 A2994 1ST003 AND 3ST005 AAL=,- RA
20180105_060000.003,0,RJFN,,,,0,20180105060000,-1,-1,-1,-1,10,-1,2,-1,-1,-1,-1,,8000,0,0,3,FEW 8   SCT 30   BKN 80,1,8,1,7,1013,RJFN 050600Z 01002KT 8000 FEW008 SCT030 BKN080 08/07 Q1013 RMK     1ST008 3SC030 5AC080 A2994 1ST008 W=,
20180105_070000.003,0,RJFN,,,,0,20180105070000,-1,-1,-1,-1,999,-1,1,-1,-1,-1,-1,,9999,0,0,2,FEW 10   SCT 30,1,8,1,6,1014,RJFN 050700Z VRB01KT 9999 FEW010 SCT030 08/06 Q1014 RMK 1ST010     3SC030 A2995=,
20180105_080000.003,0,RJFN,,,,0,20180105080000,-1,-1,-1,-1,320,-1,1,-1,-1,-1,-1,,9999,0,0,1,FEW 15,1,8,1,6,1014,RJFN 050800Z 32001KT 9999 FEW015 08/06 Q1014 RMK 1SC015 A2995=,
20180105_090000.003,0,RJFN,,,,0,20180105090000,-1,-1,-1,-1,350,-1,3,-1,-1,-1,-1,,9999,0,0,2,SCT 15   BKN 50,1,8,1,7,1014,RJFN 050900Z 35003KT 9999 SCT015 BKN050 08/07 Q1014 RMK 4SC015     5SC050 A2996=,
20180105_100000.003,0,RJFN,,,,0,20180105100000,-1,-1,-1,-1,280,-1,3,-1,-1,-1,-1,,9999,0,0,3,FEW 15   SCT 30   BKN 50,1,7,1,7,1014,RJFN 051000Z 28003KT 9999 FEW015 SCT030 BKN050 07/07 Q1014 RMK     2SC015 3SC030 7SC050 A2997=,
20180105_110000.003,0,RJFN,,,,0,20180105110000,-1,-1,-1,-1,270,-1,6,-1,-1,-1,-1,,5000,0,1,2,FEW 15   BKN 50,1,5,1,5,1015,RJFN 051100Z 27006KT 5000 BR FEW015 BKN050 05/05 Q1015 RMK     1SC015 5SC050 A2997 VIS SW-W 4500M=,BR
20180105_120000.003,0,RJFN,,,,0,20180105120000,-1,-1,-1,-1,280,-1,4,-1,-1,-1,-1,,1600,1,2,2,FEW 2   SCT 50,1,4,1,4,1015,RJFN 051200Z 28004KT 1600 R28/0800VP1800U BR MIFG FEW002     SCT050 04/04 Q1015 RMK 2ST002 3SC050 A2998 R1100=,BR; MI FG
20180105_130000.003,0,RJFN,,,,0,20180105130000,-1,-1,-1,-1,270,-1,6,-1,-1,-1,-1,,7000,0,0,2,FEW 2   BKN 50,1,5,1,5,1015,RJFN 051300Z 27006KT 7000 FEW002 BKN050 05/05 Q1015 RMK 1ST002     5SC050 A2998=,
20180105_140000.003,0,RJFN,,,,0,20180105140000,-1,-1,-1,-1,280,-1,8,-1,-1,-1,-1,,9999,0,0,2,FEW 30   BKN 50,1,5,1,5,1015,RJFN 051400Z 28008KT 9999 FEW030 BKN050 05/05 Q1015 RMK 1CU030     5SC050 A2998=,
20180105_150000.003,0,RJFN,,,,0,20180105150000,-1,-1,-1,-1,280,-1,8,-1,-1,-1,-1,,9999,0,0,2,FEW 30   SCT 50,1,4,1,4,1015,RJFN 051500Z 28008KT 9999 FEW030 SCT050 04/04 Q1015 RMK 1CU030     3SC050 A2999=,
20180105_160000.004,0,RJFN,,,,0,20180105160000,-1,-1,-1,-1,270,-1,8,-1,-1,-1,-1,,9999,0,0,2,FEW 30   SCT 50,1,4,1,3,1015,RJFN 051600Z 27008KT 9999 FEW030 SCT050 04/03 Q1015 RMK 1CU030     3SC050 A2998=,
20180105_170000.003,0,RJFN,,,,0,20180105170000,-1,-1,-1,-1,260,-1,8,-1,-1,-1,-1,,9999,0,0,1,FEW 30,1,3,1,2,1015,RJFN 051700Z 26008KT 9999 FEW030 03/02 Q1015 RMK 1CU030 A2998=,
20180105_180000.004,0,RJFN,,,,0,20180105180000,-1,-1,-1,-1,270,-1,10,-1,-1,-1,-1,,9999,0,0,1,FEW 50,1,4,1,2,1015,RJFN 051800Z 27010KT 9999 FEW050 04/02 Q1015 RMK 1SC050 A2998=,
20180105_190000.003,0,RJFN,,,,0,20180105190000,-1,-1,-1,-1,260,-1,8,-1,-1,-1,-1,,9999,0,0,1,FEW 50,1,3,1,2,1015,RJFN 051900Z 26008KT 9999 FEW050 03/02 Q1015 RMK 1SC050 A2998=,
20180105_200000.003,0,RJFN,,,,0,20180105200000,-1,-1,-1,-1,280,-1,7,-1,-1,-1,-1,,9999,0,0,1,FEW 50,1,4,1,2,1015,RJFN 052000Z 28007KT 9999 FEW050 04/02 Q1015 RMK 1SC050 A2999=,
20180105_210000.004,0,RJFN,,,,0,20180105210000,-1,-1,-1,-1,230,-1,6,-1,-1,-1,-1,,9999,0,0,1,FEW 50,1,3,1,1,1016,RJFN 052100Z 23006KT 9999 FEW050 03/01 Q1016 RMK 1SC050 A3000     08/02 R008=,
20180105_220000.003,0,RJFN,,,,0,20180105220000,-1,-1,-1,-1,300,-1,7,-1,-1,-1,-1,,9999,0,0,1,FEW 50,1,3,1,1,1016,RJFN 052200Z 30007KT 9999 FEW050 03/01 Q1016 RMK 1SC050 A3003=,
20180105_230000.003,0,RJFN,,,,0,20180105230000,-1,-1,-1,-1,270,-1,6,-1,-1,190,300,,9999,0,0,1,FEW 50,1,3,1,1,1017,RJFN 052300Z 27006KT 190V300 9999 FEW050 03/01 Q1017 RMK     1SC050 A3004=,
20180106_000000.003,0,RJFN,,,,0,20180106000000,-1,-1,-1,-1,260,-1,6,-1,-1,-1,-1,,9999,0,0,1,FEW 50,1,5,1,3,1017,RJFN 060000Z 26006KT 9999 FEW050 05/03 Q1017 RMK 1SC050 A3005=,
20180106_010000.003,0,RJFN,,,,0,20180106010000,-1,-1,-1,-1,270,-1,7,-1,-1,-1,-1,,9999,0,0,1,FEW 30,1,8,1,2,1018,RJFN 060100Z 27007KT 9999 FEW030 08/02 Q1018 RMK 1CU030 A3007=,
20180106_020000.003,0,RJFN,,,,0,20180106020000,-1,-1,-1,-1,260,-1,4,-1,-1,220,320,,9999,0,0,1,FEW 30,1,9,1,1,1018,RJFN 060200Z 26004KT 220V320 9999 FEW030 09/01 Q1018 RMK     1CU030 A3006=,
20180106_030000.003,0,RJFN,,,,0,20180106030000,-1,-1,-1,-1,200,-1,5,-1,-1,170,250,,9999,0,0,1,NSC -1,1,11,-1,1,1017,RJFN 060300Z 20005KT 170V250 9999 NSC 11/M01 Q1017 RMK A3004=,
20180106_040000.003,0,RJFN,,,,0,20180106040000,-1,-1,-1,-1,180,-1,4,-1,-1,110,240,,9999,0,0,1,NSC -1,1,12,-1,3,1016,RJFN 060400Z 18004KT 110V240 9999 NSC 12/M03 Q1016 RMK A3002=,
20180106_050000.003,0,RJFN,,,,0,20180106050000,-1,-1,-1,-1,140,-1,5,-1,-1,50,210,,9999,0,0,1,NSC -1,1,12,-1,3,1015,RJFN 060500Z 14005KT 050V210 9999 NSC 12/M03 Q1015 RMK A2999=,
20180106_060000.003,0,RJFN,,,,0,20180106060000,-1,-1,-1,-1,130,-1,8,-1,-1,-1,-1,,9999,0,0,1,NSC -1,1,12,-1,1,1015,RJFN 060600Z 13008KT 9999 NSC 12/M01 Q1015 RMK A2999=,
20180106_070000.003,0,RJFN,,,,0,20180106070000,-1,-1,-1,-1,100,-1,7,-1,-1,80,150,,9999,0,0,1,NSC -1,1,12,1,0,1016,RJFN 060700Z 10007KT 080V150 9999 NSC 12/00 Q1016 RMK A3001=,
20180106_080000.003,0,RJFN,,,,0,20180106080000,-1,-1,-1,-1,80,-1,4,-1,-1,-1,-1,,9999,0,0,1,FEW 210,1,10,1,1,1017,RJFN 060800Z 08004KT 9999 FEW210 10/01 Q1017 RMK A3004=,
20180106_090000.003,0,RJFN,,,,0,20180106090000,-1,-1,-1,-1,20,-1,4,-1,-1,-1,-1,,9999,0,0,1,FEW 210,1,9,1,1,1017,RJFN 060900Z 02004KT 9999 FEW210 09/01 Q1017 RMK A3005=,
20180106_100000.003,0,RJFN,,,,0,20180106100000,-1,-1,-1,-1,350,-1,5,-1,-1,-1,-1,,9999,0,0,1,FEW -9999,1,8,1,2,1018,RJFN 061000Z 35005KT 9999 FEW/// 08/02 Q1018 RMK A3008=,
20180106_110000.003,0,RJFN,,,,0,20180106110000,-1,-1,-1,-1,320,-1,5,-1,-1,-1,-1,,9999,0,0,1,FEW -9999,1,7,1,2,1019,RJFN 061100Z 32005KT 9999 FEW/// 07/02 Q1019 RMK A3010=,
20180106_120000.003,0,RJFN,,,,0,20180106120000,-1,-1,-1,-1,310,-1,5,-1,-1,-1,-1,,9999,0,0,2,FEW 30   BKN -9999,1,7,1,1,1019,RJFN 061200Z 31005KT 9999 FEW030 BKN/// 07/01 Q1019 RMK 1CU030     A3010=,
20180106_130000.005,0,RJFN,,,,0,20180106130000,-1,-1,-1,-1,250,-1,8,-1,-1,-1,-1,,9999,0,0,2,FEW 30   BKN -9999,1,5,1,1,1020,RJFN 061300Z 25008KT 9999 FEW030 BKN/// 05/01 Q1020 RMK 1CU030     A3013=,
20180106_140000.004,0,RJFN,,,,0,20180106140000,-1,-1,-1,-1,260,-1,6,-1,-1,-1,-1,,9999,0,0,2,FEW 30   BKN -9999,1,5,1,0,1020,RJFN 061400Z 26006KT 9999 FEW030 BKN/// 05/00 Q1020 RMK 1CU030     A3013=,
20180106_150000.003,0,RJFN,,,,0,20180106150000,-1,-1,-1,-1,280,-1,3,-1,-1,-1,-1,,9999,0,0,2,FEW 30   BKN -9999,1,5,1,0,1020,RJFN 061500Z 28003KT 9999 FEW030 BKN/// 05/00 Q1020 RMK 1CU030     A3015=,
20180106_160000.003,0,RJFN,,,,0,20180106160000,-1,-1,-1,-1,270,-1,6,-1,-1,-1,-1,,9999,0,0,2,FEW 30   BKN -9999,1,4,1,1,1020,RJFN 061600Z 27006KT 9999 FEW030 BKN/// 04/01 Q1020 RMK 1CU030     A3013=,
20180106_170000.003,0,RJFN,,,,0,20180106170000,-1,-1,-1,-1,300,-1,3,-1,-1,-1,-1,,9999,0,0,2,FEW 30   BKN -9999,1,4,1,1,1020,RJFN 061700Z 30003KT 9999 FEW030 BKN/// 04/01 Q1020 RMK 1CU030     A3013=,
20180106_180000.004,0,RJFN,,,,0,20180106180000,-1,-1,-1,-1,999,-1,1,-1,-1,-1,-1,,9999,0,0,2,FEW 30   BKN -9999,1,3,1,1,1021,RJFN 061800Z VRB01KT 9999 FEW030 BKN/// 03/01 Q1021 RMK 1CU030     A3015=,
20180106_190000.003,0,RJFN,,,,0,20180106190000,-1,-1,-1,-1,340,-1,3,-1,-1,-1,-1,,9999,0,0,2,FEW 30   BKN -9999,1,4,-1,0,1020,RJFN 061900Z 34003KT 9999 FEW030 BKN/// 04/M00 Q1020 RMK     1CU030 A3015=,
20180106_200000.003,0,RJFN,,,,0,20180106200000,-1,-1,-1,-1,310,-1,4,-1,-1,-1,-1,,9999,0,0,2,FEW 30   BKN -9999,1,3,1,1,1021,RJFN 062000Z 31004KT 9999 FEW030 BKN/// 03/01 Q1021 RMK 1CU030     A3015=,
20180106_210000.003,0,RJFN,,,,0,20180106210000,-1,-1,-1,-1,270,-1,3,-1,-1,-1,-1,,9999,0,0,2,FEW 30   BKN -9999,1,3,1,1,1021,RJFN 062100Z 27003KT 9999 FEW030 BKN/// 03/01 Q1021 RMK 1CU030     A3016 13/03=,
20180106_220000.003,0,RJFN,,,,0,20180106220000,-1,-1,-1,-1,290,-1,4,-1,-1,-1,-1,,9999,0,0,3,FEW 30   SCT 180   BKN 250,1,3,1,1,1021,RJFN 062200Z 29004KT 9999 FEW030 SCT180 BKN250 03/01 Q1021 RMK     1CU030 3AC180 A3017=,
20180106_230000.003,0,RJFN,,,,0,20180106230000,-1,-1,-1,-1,270,-1,4,-1,-1,-1,-1,,9999,0,0,2,FEW 30   BKN 230,1,3,1,1,1022,RJFN 062300Z 27004KT 9999 FEW030 BKN230 03/01 Q1022 RMK 1CU030     A3019=,
20180107_000000.003,0,RJFN,,,,0,20180107000000,-1,-1,-1,-1,290,-1,4,-1,-1,-1,-1,,9999,0,0,2,FEW 30   BKN 230,1,5,1,2,1022,RJFN 070000Z 29004KT 9999 FEW030 BKN230 05/02 Q1022 RMK 1CU030     A3020=,
20180107_010000.004,0,RJFN,,,,0,20180107010000,-1,-1,-1,-1,320,-1,3,-1,-1,290,350,,9999,0,0,2,FEW 30   BKN 230,1,7,1,1,1022,RJFN 070100Z 32003KT 290V350 9999 FEW030 BKN230 07/01 Q1022     RMK 1CU030 A3021=,
20180107_020000.003,0,RJFN,,,,0,20180107020000,-1,-1,-1,-1,10,-1,6,-1,-1,330,40,,9999,0,0,3,FEW 30   SCT 140   BKN 230,1,9,1,1,1023,RJFN 070200Z 01006KT 330V040 9999 FEW030 SCT140 BKN230 09/01     Q1023 RMK 1CU030 3AC140 A3021=,
20180107_030000.003,0,RJFN,,,,0,20180107030000,-1,-1,-1,-1,10,-1,4,-1,-1,-1,-1,,9999,0,0,3,FEW 30   BKN 140   BKN 230,1,10,1,2,1021,RJFN 070300Z 01004KT 9999 FEW030 BKN140 BKN230 10/02 Q1021 RMK     1CU030 5AC140 A3017=,
20180107_040000.003,0,RJFN,,,,0,20180107040000,-1,-1,-1,-1,40,-1,3,-1,-1,350,90,,9999,0,0,3,FEW 30   BKN 120   OVC 230,1,10,1,1,1020,RJFN 070400Z 04003KT 350V090 9999 FEW030 BKN120 OVC230 10/01     Q1020 RMK 1CU030 5AC120 A3014=,
20180107_050000.003,0,RJFN,,,,0,20180107050000,-1,-1,-1,-1,40,-1,4,-1,-1,360,60,,9999,0,0,3,FEW 30   BKN 120   OVC 230,1,10,1,1,1020,RJFN 070500Z 04004KT 360V060 9999 FEW030 BKN120 OVC230 10/01     Q1020 RMK 1CU030 6AC120 A3015=,
20180107_060000.003,0,RJFN,,,,0,20180107060000,-1,-1,-1,-1,20,-1,3,-1,-1,350,60,,9999,0,0,3,FEW 30   BKN 110   OVC 230,1,10,1,1,1020,RJFN 070600Z 02003KT 350V060 9999 FEW030 BKN110 OVC230 10/01     Q1020 RMK 1CU030 6AC110 A3013=,
20180107_070000.003,0,RJFN,,,,0,20180107070000,-1,-1,-1,-1,10,-1,3,-1,-1,330,50,,9999,0,0,2,FEW 30   OVC 100,1,9,1,2,1020,RJFN 070700Z 01003KT 330V050 9999 FEW030 OVC100 09/02 Q1020     RMK 1CU030 8AC100 A3014=,
20180107_080000.003,0,RJFN,,,,0,20180107080000,-1,-1,-1,-1,360,-1,3,-1,-1,320,20,,9999,0,0,2,FEW 30   OVC 80,1,9,1,2,1020,RJFN 070800Z 36003KT 320V020 9999 FEW030 OVC080 09/02 Q1020     RMK 1CU030 8AC080 A3014=,
20180107_090000.003,0,RJFN,,,,0,20180107090000,-1,-1,-1,-1,360,-1,3,-1,-1,-1,-1,,9999,0,0,3,FEW 30   SCT 50   OVC 80,1,9,1,2,1020,RJFN 070900Z 36003KT 9999 FEW030 SCT050 OVC080 09/02 Q1020 RMK     1CU030 3SC050 8AS080 A3013=,
20180107_100000.003,0,RJFN,,,,0,20180107100000,-1,-1,-1,-1,320,-1,3,-1,-1,-1,-1,,9999,0,0,3,FEW 30   BKN 50   BKN 80,1,9,1,3,1020,RJFN 071000Z 32003KT 9999 FEW030 BKN050 BKN080 09/03 Q1020 RMK     1CU030 5SC050 7AS080 A3015=,
20180107_110000.003,0,RJFN,,,,0,20180107110000,-1,-1,-1,-1,320,-1,4,-1,-1,-1,-1,,9999,0,1,3,FEW 30   BKN 40   BKN 80,1,9,1,4,1020,RJFN 071100Z 32004KT 9999 -RA FEW030 BKN040 BKN080 09/04 Q1020     RMK 1CU030 6SC040 7AS080 A3014=,- RA
20180107_120000.004,0,RJFN,,,,0,20180107120000,-1,-1,-1,-1,310,-1,6,-1,-1,-1,-1,,9999,0,1,3,FEW 25   BKN 40   OVC 80,1,8,1,6,1020,RJFN 071200Z 31006KT 9999 -RA FEW025 BKN040 OVC080 08/06 Q1020     RMK 1CU025 7SC040 8AS080 A3013=,- RA
20180107_130000.004,0,RJFN,,,,0,20180107130000,-1,-1,-1,-1,320,-1,3,-1,-1,-1,-1,,9999,0,1,3,FEW 25   BKN 45   OVC 80,1,8,1,8,1019,RJFN 071300Z 32003KT 9999 -RA FEW025 BKN045 OVC080 08/08 Q1019     RMK 1CU025 6SC045 8AS080 A3009=,- RA
20180107_140000.004,0,RJFN,,,,0,20180107140000,-1,-1,-1,-1,340,-1,2,-1,-1,-1,-1,,8000,0,1,3,FEW 15   BKN 20   BKN 40,1,8,1,8,1018,RJFN 071400Z 34002KT 8000 -RA FEW015 BKN020 BKN040 08/08 Q1018     RMK 1CU015 6SC020 7SC040 A3008=,- RA
20180107_150000.003,0,RJFN,,,,0,20180107150000,-1,-1,-1,-1,330,-1,3,-1,-1,-1,-1,,6000,0,1,3,FEW 15   BKN 20   BKN 35,1,8,1,8,1017,RJFN 071500Z 33003KT 6000 -RA FEW015 BKN020 BKN035 08/08 Q1017     RMK 1CU015 6SC020 7SC035 A3006=,- RA
20180107_160000.003,0,RJFN,,,,0,20180107160000,-1,-1,-1,-1,290,-1,3,-1,-1,-1,-1,,4500,0,2,3,FEW 12   BKN 15   BKN 25,1,8,1,8,1017,RJFN 071600Z 29003KT 4500 -RA BR FEW012 BKN015 BKN025 08/08     Q1017 RMK 1CU012 6SC015 7SC025 A3004=,- RA; BR
20180107_170000.003,0,RJFN,,,,0,20180107170000,-1,-1,-1,-1,320,-1,3,-1,-1,300,360,,4500,0,2,3,FEW 5   BKN 15   BKN 20,1,8,1,8,1016,RJFN 071700Z 32003KT 300V360 4500 -RA BR FEW005 BKN015 BKN020     08/08 Q1016 RMK 1ST005 6SC015 7SC020 A3000=,- RA; BR
20180107_180000.003,0,RJFN,,,,0,20180107180000,-1,-1,-1,-1,290,-1,4,-1,-1,-1,-1,,4500,0,2,3,FEW 7   BKN 12   BKN 20,1,8,1,8,1015,RJFN 071800Z 29004KT 4500 -RA BR FEW007 BKN012 BKN020 08/08     Q1015 RMK 1ST007 6SC012 7SC020 A2997=,- RA; BR
20180107_190000.004,0,RJFN,,,,0,20180107190000,-1,-1,-1,-1,310,-1,3,-1,-1,290,20,,4000,0,2,3,FEW 7   BKN 12   BKN 20,1,9,1,9,1013,RJFN 071900Z 31003KT 290V020 4000 -RA BR FEW007 BKN012 BKN020     09/09 Q1013 RMK 1ST007 6ST012 7SC020 A2993=,- RA; BR
20180107_200000.003,0,RJFN,,,,0,20180107200000,-1,-1,-1,-1,320,-1,4,-1,-1,290,350,,4000,0,2,3,FEW 7   BKN 12   BKN 20,1,9,1,9,1012,RJFN 072000Z 32004KT 290V350 4000 -RA BR FEW007 BKN012 BKN020     09/09 Q1012 RMK 1ST007 5ST012 7SC020 A2989=,- RA; BR
20180107_210000.004,0,RJFN,,,,0,20180107210000,-1,-1,-1,-1,999,-1,2,-1,-1,-1,-1,,3500,0,2,3,FEW 7   SCT 12   BKN 20,1,10,1,10,1011,RJFN 072100Z VRB02KT 3500 RA BR FEW007 SCT012 BKN020 10/10     Q1011 RMK 1ST007 4ST012 6SC020 A2986 11/07 R015=,RA; BR
20180107_220000.003,0,RJFN,,,,0,20180107220000,-1,-1,-1,-1,300,-1,4,-1,-1,-1,-1,,3500,0,2,3,FEW 10   BKN 20   BKN 35,1,10,1,10,1010,RJFN 072200Z 30004KT 3500 -RA BR FEW010 BKN020 BKN035 10/10     Q1010 RMK 2ST010 5SC020 7SC035 A2985 VIS E-SE 2500M=,- RA; BR
20180107_230000.003,0,RJFN,,,,0,20180107230000,-1,-1,-1,-1,270,-1,5,-1,-1,-1,-1,,5000,0,3,3,FEW 2   BKN 20   OVC 40,1,10,1,10,1010,RJFN 072300Z 27005KT 5000 -RA PRFG BR FEW002 BKN020 OVC040     10/10 Q1010 RMK 2ST002 6SC020 8SC040 A2985 FG BANK 3000M           S-W 2ST002 S-W=,- RA; PR FG; BR
20180108_000000.003,0,RJFN,,,,0,20180108000000,-1,-1,-1,-1,280,-1,7,-1,-1,-1,-1,,9999,0,0,3,FEW 1   BKN 100   BKN 200,1,11,1,11,1010,RJFN 080000Z 28007KT 9999 FEW001 BKN100 BKN200 11/11 Q1010 RMK     1ST001 6AC100 A2983 1ST001 W=,
20180108_010000.003,0,RJFN,,,,0,20180108010000,-1,-1,-1,-1,250,-1,6,-1,-1,-1,-1,,9999,0,0,3,FEW 1   BKN 40   BKN 100,1,12,1,12,1010,RJFN 080100Z 25006KT 9999 FEW001 BKN040 BKN100 12/12 Q1010 RMK     1ST001 5SC040 7AC100 A2984 1ST001 W=,
20180108_020000.004,0,RJFN,,,,0,20180108020000,-1,-1,-1,-1,250,-1,9,-1,-1,-1,-1,,9999,0,1,3,FEW 2   BKN 35   BKN 100,1,14,1,14,1009,RJFN 080200Z 25009KT 9999 -SHRA FEW002 BKN035 BKN100 14/14     Q1009 RMK 1ST002 5CU035 7AC100 A2980 1ST002 W=,- RA SH
20180108_030000.003,0,RJFN,,,,0,20180108030000,-1,-1,-1,-1,250,-1,8,-1,-1,-1,-1,,9999,0,1,2,FEW 2   BKN 100,1,14,1,14,1007,RJFN 080300Z 25008KT 9999 -RA FEW002 BKN100 14/14 Q1007 RMK     1ST002 7AS100 A2975 1ST002 W=,- RA
20180108_040000.003,0,RJFN,,,,0,20180108040000,-1,-1,-1,-1,240,-1,7,-1,-1,-1,-1,,9999,0,0,3,FEW 2   BKN 100   BKN 150,1,16,1,16,1006,RJFN 080400Z 24007KT 9999 FEW002 BKN100 BKN150 16/16 Q1006 RMK     1ST002 5AC100 7AS150 A2973 1ST002 W=,
20180108_050000.003,0,RJFN,,,,0,20180108050000,-1,-1,-1,-1,250,-1,10,-1,-1,-1,-1,,9999,0,0,3,FEW 2   BKN 90   OVC 190,1,16,1,16,1006,RJFN 080500Z 25010KT 9999 FEW002 BKN090 OVC190 16/16 Q1006 RMK     1ST002 5AC090 8AS190 A2971 1ST002 W=,
20180108_060000.004,0,RJFN,,,,0,20180108060000,-1,-1,-1,-1,260,-1,5,-1,-1,-1,-1,,9999,0,1,3,FEW 2   BKN 90   BKN 120,1,16,1,16,1005,RJFN 080600Z 26005KT 9999 -RA FEW002 BKN090 BKN120 16/16 Q1005     RMK 1ST002 5AC090 5AC120 A2969 1ST002 W=,- RA
20180108_070000.003,0,RJFN,,,,0,20180108070000,-1,-1,-1,-1,220,-1,6,-1,-1,180,240,,9999,0,0,3,FEW 15   BKN 50   BKN 140,1,16,1,16,1005,RJFN 080700Z 22006KT 180V240 9999 FEW015 BKN050 BKN140 16/16     Q1005 RMK 1SC015 5SC050 6AS140 A2969 1ST002 W=,
20180108_080000.003,0,RJFN,,,,0,20180108080000,-1,-1,-1,-1,230,-1,8,-1,-1,-1,-1,,9999,0,0,3,FEW 15   BKN 50   OVC 120,1,16,1,15,1006,RJFN 080800Z 23008KT 9999 FEW015 BKN050 OVC120 16/15 Q1006 RMK     1SC015 6SC050 8AS120 A2971=,
20180108_090000.003,0,RJFN,,,,0,20180108090000,-1,-1,-1,-1,220,-1,11,-1,-1,-1,-1,,9999,0,0,3,FEW 20   BKN 60   OVC 120,1,15,1,15,1004,RJFN 080900Z 22011KT 9999 FEW020 BKN060 OVC120 15/15 Q1004 RMK     1SC020 6SC060 8AS120 A2967=,
20180108_100000.003,0,RJFN,,,,0,20180108100000,-1,-1,-1,-1,240,-1,10,-1,-1,-1,-1,,9999,0,0,2,FEW 20   OVC 60,1,15,1,14,1005,RJFN 081000Z 24010KT 9999 FEW020 OVC060 15/14 Q1005 RMK 1SC020     8SC060 A2970=,
20180108_110000.003,0,RJFN,,,,0,20180108110000,-1,-1,-1,-1,220,-1,10,-1,-1,-1,-1,,9999,0,1,2,FEW 20   OVC 70,1,14,1,14,1005,RJFN 081100Z 22010KT 9999 -RA FEW020 OVC070 14/14 Q1005 RMK     1SC020 8AS070 A2968=,- RA
20180108_120000.003,0,RJFN,,,,0,20180108120000,-1,-1,-1,-1,230,-1,5,-1,-1,170,260,,9999,0,1,2,FEW 20   OVC 80,1,14,1,14,1004,RJFN 081200Z 23005KT 170V260 9999 -RA FEW020 OVC080 14/14     Q1004 RMK 1SC020 8AS080 A2966=,- RA
20180108_130000.004,0,RJFN,,,,0,20180108130000,-1,-1,-1,-1,250,-1,8,-1,-1,-1,-1,,9999,0,1,2,FEW 20   OVC 80,1,13,1,13,1005,RJFN 081300Z 25008KT 9999 -RA FEW020 OVC080 13/13 Q1005 RMK     1SC020 8AS080 A2970=,- RA
20180108_140000.003,0,RJFN,,,,0,20180108140000,-1,-1,-1,-1,290,-1,3,-1,-1,-1,-1,,9999,0,1,3,FEW 20   BKN 80   OVC 130,1,13,1,13,1005,RJFN 081400Z 29003KT 9999 -RA FEW020 BKN080 OVC130 13/13 Q1005     RMK 1SC020 7AS080 8AS130 A2969=,- RA
20180108_150000.003,0,RJFN,,,,0,20180108150000,-1,-1,-1,-1,290,-1,8,-1,-1,-1,-1,,9999,0,1,3,FEW 20   BKN 80   OVC 150,1,13,1,10,1005,RJFN 081500Z 29008KT 9999 -RA FEW020 BKN080 OVC150 13/10 Q1005     RMK 1SC020 6AS080 8AS150 A2968=,- RA
20180108_160000.003,0,RJFN,,,,0,20180108160000,-1,-1,-1,-1,230,-1,6,-1,-1,200,260,,9999,0,0,3,FEW 20   SCT 45   OVC 80,1,12,1,10,1006,RJFN 081600Z 23006KT 200V260 9999 FEW020 SCT045 OVC080 12/10     Q1006 RMK 1SC020 4SC045 8AS080 A2971=,
20180108_170000.003,0,RJFN,,,,0,20180108170000,-1,-1,-1,-1,270,-1,8,-1,-1,250,310,,9999,0,0,3,FEW 40   SCT 80   BKN 150,1,10,1,6,1005,RJFN 081700Z 27008KT 250V310 9999 FEW040 SCT080 BKN150 10/06     Q1005 RMK 2SC040 4AC080 6AC150 A2971=,
20180108_180000.003,0,RJFN,,,,0,20180108180000,-1,-1,-1,-1,270,-1,5,-1,-1,240,300,,9999,0,0,2,FEW 20   BKN -9999,1,9,1,5,1006,RJFN 081800Z 27005KT 240V300 9999 FEW020 BKN/// 09/05     Q1006 RMK 1SC020 A2972=,
20180108_190000.003,0,RJFN,,,,0,20180108190000,-1,-1,-1,-1,280,-1,6,-1,-1,240,310,,9999,0,0,3,FEW 20   SCT 45   BKN -9999,1,9,1,4,1006,RJFN 081900Z 28006KT 240V310 9999 FEW020 SCT045 BKN/// 09/04     Q1006 RMK 1SC020 3SC045 A2972=,
20180108_200000.003,0,RJFN,,,,0,20180108200000,-1,-1,-1,-1,280,-1,14,-1,-1,-1,-1,,9999,0,0,3,FEW 20   SCT 45   BKN -9999,1,10,1,3,1006,RJFN 082000Z 28014KT 9999 FEW020 SCT045 BKN/// 10/03 Q1006 RMK     1SC020 3SC045 A2973 MAX WIND 22KT=,
20180108_210000.004,0,RJFN,,,,0,20180108210000,-1,-1,-1,-1,280,-1,15,-1,-1,-1,-1,,9999,0,0,2,FEW 20   SCT 45,1,9,1,2,1007,RJFN 082100Z 28015KT 9999 FEW020 SCT045 09/02 Q1007 RMK 1CU020     3SC045 A2975 MAX WIND 22KT 17/09 R004=,
20180108_220000.003,0,RJFN,,,,0,20180108220000,-1,-1,-1,-1,260,-1,16,-1,-1,-1,-1,,9999,0,0,2,FEW 20   BKN 50,1,9,1,2,1009,RJFN 082200Z 26016KT 9999 FEW020 BKN050 09/02 Q1009 RMK 1CU020     5SC050 A2980 MAX WIND 22KT=,
20180108_230000.004,0,RJFN,,,,0,20180108230000,-1,-1,-1,-1,240,-1,12,-1,-1,-1,-1,,9999,0,0,3,FEW 20   SCT 45   BKN 70,1,8,1,2,1009,RJFN 082300Z 24012KT 9999 FEW020 SCT045 BKN070 08/02 Q1009 RMK     1CU020 3SC045 5AC070 A2981 MAX WIND 17KT=,
20180109_000000.003,0,RJFN,,,,0,20180109000000,-1,-1,-1,-1,280,-1,16,-1,-1,250,330,,9999,0,1,3,FEW 20   SCT 35   BKN 230,1,9,1,2,1010,RJFN 090000Z 28016KT 250V330 9999 -SHRA FEW020 SCT035 BKN230     09/02 Q1010 RMK 1CU020 3CU035 A2984 MAX WIND 23KT=,- RA SH
20180109_010000.003,0,RJFN,,,,0,20180109010000,-1,-1,-1,-1,280,-1,20,-1,-1,-1,-1,,9999,0,0,1,FEW 20,1,9,1,1,1011,RJFN 090100Z 28020KT 9999 FEW020 09/01 Q1011 RMK 1CU020 A2985     MAX WIND 26KT=,
20180109_020000.003,0,RJFN,,,,0,20180109020000,-1,-1,-1,-1,270,-1,21,-1,31,-1,-1,,9999,0,0,1,FEW 35,1,9,1,0,1010,RJFN 090200Z 27021G31KT 9999 FEW035 09/00 Q1010 RMK 1CU035     A2985=,
20180109_030000.003,0,RJFN,,,,0,20180109030000,-1,-1,-1,-1,280,-1,24,-1,37,-1,-1,,9999,0,0,1,FEW 35,1,10,-1,1,1010,RJFN 090300Z 28024G37KT 9999 FEW035 10/M01 Q1010 RMK 1CU035     A2982=,
20180109_040000.003,0,RJFN,,,,0,20180109040000,-1,-1,-1,-1,290,-1,23,-1,33,-1,-1,,9999,0,0,1,FEW 25,1,10,-1,1,1010,RJFN 090400Z 29023G33KT 9999 FEW025 10/M01 Q1010 RMK 1CU025     A2982=,
20180109_050000.003,0,RJFN,,,,0,20180109050000,-1,-1,-1,-1,270,-1,24,-1,36,-1,-1,,9999,0,0,1,FEW 25,1,10,-1,2,1010,RJFN 090500Z 27024G36KT 9999 FEW025 10/M02 Q1010 RMK 1CU025     A2982=,
20180109_060000.003,0,RJFN,,,,0,20180109060000,-1,-1,-1,-1,290,-1,23,-1,33,-1,-1,,9999,0,0,1,FEW 30,1,9,-1,3,1010,RJFN 090600Z 29023G33KT 9999 FEW030 09/M03 Q1010 RMK 1CU030     A2985=,
20180109_070000.003,0,RJFN,,,,0,20180109070000,-1,-1,-1,-1,280,-1,27,-1,37,-1,-1,,9999,0,0,1,FEW 30,1,8,-1,3,1011,RJFN 090700Z 28027G37KT 9999 FEW030 08/M03 Q1011 RMK 1CU030     A2986=,
20180109_080000.003,0,RJFN,,,,0,20180109080000,-1,-1,-1,-1,280,-1,16,-1,26,-1,-1,,9999,0,0,2,FEW 30   BKN 250,1,7,-1,3,1012,RJFN 090800Z 28016G26KT 9999 FEW030 BKN250 07/M03 Q1012 RMK     1CU030 A2990=,
20180109_090000.003,0,RJFN,,,,0,20180109090000,-1,-1,-1,-1,260,-1,4,-1,-1,200,310,,9999,0,0,2,FEW 30   BKN 250,1,6,-1,2,1013,RJFN 090900Z 26004KT 200V310 9999 FEW030 BKN250 06/M02 Q1013     RMK 1CU030 A2993=,
20180109_100000.003,0,RJFN,,,,0,20180109100000,-1,-1,-1,-1,280,-1,13,-1,-1,-1,-1,,9999,0,0,2,FEW 30   SCT -9999,1,6,-1,2,1014,RJFN 091000Z 28013KT 9999 FEW030 SCT/// 06/M02 Q1014 RMK     1CU030 A2995=,
20180109_110000.003,0,RJFN,,,,0,20180109110000,-1,-1,-1,-1,270,-1,14,-1,-1,-1,-1,,9999,0,0,2,FEW 30   SCT -9999,1,5,-1,2,1014,RJFN 091100Z 27014KT 9999 FEW030 SCT/// 05/M02 Q1014 RMK     1CU030 A2997=,
20180109_120000.003,0,RJFN,,,,0,20180109120000,-1,-1,-1,-1,260,-1,12,-1,-1,-1,-1,,9999,0,0,1,FEW 30,1,5,-1,2,1015,RJFN 091200Z 26012KT 9999 FEW030 05/M02 Q1015 RMK 1CU030     A2999=,
20180109_130000.003,0,RJFN,,,,0,20180109130000,-1,-1,-1,-1,270,-1,13,-1,-1,-1,-1,,9999,0,0,1,FEW 30,1,5,-1,3,1015,RJFN 091300Z 27013KT 9999 FEW030 05/M03 Q1015 RMK 1CU030     A2998=,
20180109_140000.003,0,RJFN,,,,0,20180109140000,-1,-1,-1,-1,270,-1,13,-1,-1,-1,-1,,9999,0,0,1,FEW 30,1,5,-1,3,1015,RJFN 091400Z 27013KT 9999 FEW030 05/M03 Q1015 RMK 1CU030 A2999     MAX WIND 19KT=,
20180109_150000.003,0,RJFN,,,,0,20180109150000,-1,-1,-1,-1,210,-1,7,-1,-1,-1,-1,,9999,0,0,1,FEW 30,1,3,-1,2,1015,RJFN 091500Z 21007KT 9999 FEW030 03/M02 Q1015 RMK 1CU030     A3000=,
20180109_160000.003,0,RJFN,,,,0,20180109160000,-1,-1,-1,-1,210,-1,6,-1,-1,-1,-1,,9999,0,0,1,FEW 30,1,2,-1,1,1015,RJFN 091600Z 21006KT 9999 FEW030 02/M01 Q1015 RMK 1CU030     A2999=,
20180109_170000.003,0,RJFN,,,,0,20180109170000,-1,-1,-1,-1,230,-1,6,-1,-1,-1,-1,,9999,0,0,1,FEW 30,1,2,-1,1,1016,RJFN 091700Z 23006KT 9999 FEW030 02/M01 Q1016 RMK 1CU030     A3001=,
20180109_180000.003,0,RJFN,,,,0,20180109180000,-1,-1,-1,-1,230,-1,3,-1,-1,-1,-1,,9999,0,0,1,FEW 30,1,2,-1,0,1015,RJFN 091800Z 23003KT 9999 FEW030 02/M00 Q1015 RMK 1CU030     A2999=,
20180109_190000.004,0,RJFN,,,,0,20180109190000,-1,-1,-1,-1,220,-1,7,-1,-1,-1,-1,,9999,0,0,1,FEW 30,1,2,-1,0,1015,RJFN 091900Z 22007KT 9999 FEW030 02/M00 Q1015 RMK 1CU030     A2998=,
20180109_200000.003,0,RJFN,,,,0,20180109200000,-1,-1,-1,-1,260,-1,8,-1,-1,-1,-1,,9999,0,0,1,FEW 60,1,1,-1,0,1014,RJFN 092000Z 26008KT 9999 FEW060 01/M00 Q1014 RMK 1SC060     A2996=,
20180109_210000.003,0,RJFN,,,,0,20180109210000,-1,-1,-1,-1,230,-1,8,-1,-1,-1,-1,,9999,0,0,2,FEW 35   BKN 70,1,2,1,1,1015,RJFN 092100Z 23008KT 9999 FEW035 BKN070 02/01 Q1015 RMK 1CU035     5AC070 A2997 10/01 R000=,
20180109_210000.004,1,RJFN,,,,0,20180109210000,-1,-1,-1,-1,230,-1,8,-1,-1,-1,-1,,9999,0,0,2,FEW 35   BKN 70,1,2,1,1,1015,RJFN 092100Z 23008KT 9999 FEW035 BKN070 02/01 Q1015 RMK     1CU035 5AC070 A2997 29039KT/0640 10/01 R000=,
20180109_220000.003,0,RJFN,,,,0,20180109220000,-1,-1,-1,-1,260,-1,5,-1,-1,-1,-1,,9999,0,0,1,FEW 30,1,1,1,1,1015,RJFN 092200Z 26005KT 9999 FEW030 01/01 Q1015 RMK 1CU030 A2998=,
20180109_230000.003,0,RJFN,,,,0,20180109230000,-1,-1,-1,-1,260,-1,6,-1,-1,-1,-1,,9999,0,0,1,FEW 15,1,3,1,2,1015,RJFN 092300Z 26006KT 9999 FEW015 03/02 Q1015 RMK 1CU015 A2998=,
20180109_230000.004,1,RJFN,,,,0,20180109230000,-1,-1,-1,-1,260,-1,6,-1,-1,-1,-1,,9999,0,0,1,FEW 15,1,3,1,2,1015,RJFN 092300Z 26006KT 9999 FEW015 03/02 Q1015 RMK 1CU015     A2998=,
20180110_000000.003,0,RJFN,,,,0,20180110000000,-1,-1,-1,-1,270,-1,7,-1,-1,-1,-1,,9999,0,0,2,FEW 30   SCT 70,1,5,1,4,1015,RJFN 100000Z 27007KT 9999 FEW030 SCT070 05/04 Q1015 RMK 2CU030     3AC070 A2999=,
20180110_010000.003,0,RJFN,,,,0,20180110010000,-1,-1,-1,-1,250,-1,12,-1,-1,-1,-1,,9999,0,1,2,FEW 20   SCT 50,1,8,1,4,1015,RJFN 100100Z 25012KT 9999 -SHRA FEW020 SCT050 08/04 Q1015 RMK     1CU020 3SC050 A2998=,- RA SH
20180110_020000.003,0,RJFN,,,,0,20180110020000,-1,-1,-1,-1,230,-1,15,-1,-1,-1,-1,,9999,0,0,2,FEW 20   SCT 45,1,9,1,3,1014,RJFN 100200Z 23015KT 9999 FEW020 SCT045 09/03 Q1014 RMK 1CU020     3SC045 A2996 MAX WIND 22KT=,
20180110_030000.003,0,RJFN,,,,0,20180110030000,-1,-1,-1,-1,230,-1,15,-1,-1,-1,-1,,9999,0,0,2,FEW 20   SCT 45,1,10,1,2,1013,RJFN 100300Z 23015KT 9999 FEW020 SCT045 10/02 Q1013 RMK 1CU020     3CU045 A2992 MAX WIND 21KT=,
20180110_040000.004,0,RJFN,,,,0,20180110040000,-1,-1,-1,-1,260,-1,16,-1,-1,-1,-1,,9999,0,1,2,FEW 20   SCT 40,1,9,1,4,1013,RJFN 100400Z 26016KT 9999 -SHRA FEW020 SCT040 09/04 Q1013     RMK 1CU020 4CU040 A2991 MAX WIND 20KT=,- RA SH
20180110_050000.003,0,RJFN,,,,0,20180110050000,-1,-1,-1,-1,270,-1,13,-1,23,-1,-1,,9999,0,0,2,FEW 20   SCT 40,1,9,1,1,1012,RJFN 100500Z 27013G23KT 9999 FEW020 SCT040 09/01 Q1012 RMK     1CU020 4CU040 A2990=,
20180110_060000.003,0,RJFN,,,,0,20180110060000,-1,-1,-1,-1,280,-1,17,-1,27,-1,-1,,9999,0,0,2,FEW 20   SCT 40,1,9,-1,0,1013,RJFN 100600Z 28017G27KT 9999 FEW020 SCT040 09/M00 Q1013 RMK     1CU020 3CU040 A2992=,
20180110_070000.003,0,RJFN,,,,0,20180110070000,-1,-1,-1,-1,270,-1,17,-1,-1,-1,-1,,9999,0,0,1,FEW 20,1,8,-1,0,1013,RJFN 100700Z 27017KT 9999 FEW020 08/M00 Q1013 RMK 1CU020 A2994     MAX WIND 25KT=,
20180110_080000.003,0,RJFN,,,,0,20180110080000,-1,-1,-1,-1,270,-1,15,-1,-1,230,290,,9999,0,0,1,FEW 20,1,7,-1,2,1014,RJFN 100800Z 27015KT 230V290 9999 FEW020 07/M02 Q1014 RMK     1CU020 A2995 MAX WIND 24KT=,
20180110_090000.003,0,RJFN,,,,0,20180110090000,-1,-1,-1,-1,280,-1,12,-1,-1,-1,-1,,9999,0,0,1,FEW 20,1,5,-1,0,1015,RJFN 100900Z 28012KT 9999 FEW020 05/M00 Q1015 RMK 1CU020     A2998=,
20180110_100000.003,0,RJFN,,,,0,20180110100000,-1,-1,-1,-1,260,-1,9,-1,19,-1,-1,,9999,0,0,1,FEW 20,1,4,-1,1,1015,RJFN 101000Z 26009G19KT 9999 FEW020 04/M01 Q1015 RMK 1CU020     A3000=,
20180110_110000.003,0,RJFN,,,,0,20180110110000,-1,-1,-1,-1,280,-1,11,-1,22,-1,-1,,9999,0,0,1,FEW 20,1,5,-1,2,1016,RJFN 101100Z 28011G22KT 9999 FEW020 05/M02 Q1016 RMK 1CU020     A3002=,
20180110_120000.003,0,RJFN,,,,0,20180110120000,-1,-1,-1,-1,290,-1,13,-1,-1,-1,-1,,9999,0,0,1,FEW 20,1,5,-1,3,1017,RJFN 101200Z 29013KT 9999 FEW020 05/M03 Q1017 RMK 1CU020     A3005=,
20180110_130000.003,0,RJFN,,,,0,20180110130000,-1,-1,-1,-1,280,-1,14,-1,-1,-1,-1,,9999,0,0,1,FEW 30,1,4,-1,4,1017,RJFN 101300Z 28014KT 9999 FEW030 04/M04 Q1017 RMK 1CU030 A3005     MAX WIND 22KT=,
20180110_140000.003,0,RJFN,,,,0,20180110140000,-1,-1,-1,-1,270,-1,10,-1,-1,-1,-1,,9999,0,0,1,FEW 30,1,4,-1,4,1018,RJFN 101400Z 27010KT 9999 FEW030 04/M04 Q1018 RMK 1CU030     A3006=,
20180110_150000.003,0,RJFN,,,,0,20180110150000,-1,-1,-1,-1,270,-1,5,-1,-1,-1,-1,,9999,0,0,1,FEW 30,1,2,-1,3,1018,RJFN 101500Z 27005KT 9999 FEW030 02/M03 Q1018 RMK 1CU030     A3007=,
20180110_160000.003,0,RJFN,,,,0,20180110160000,-1,-1,-1,-1,270,-1,9,-1,-1,230,290,,9999,0,0,1,FEW 30,1,2,-1,3,1018,RJFN 101600Z 27009KT 230V290 9999 FEW030 02/M03 Q1018 RMK     1CU030 A3007=,
20180110_170000.003,0,RJFN,,,,0,20180110170000,-1,-1,-1,-1,220,-1,8,-1,-1,-1,-1,,9999,0,0,1,FEW 30,1,2,-1,2,1018,RJFN 101700Z 22008KT 9999 FEW030 02/M02 Q1018 RMK 1CU030     A3007=,
20180110_180000.003,0,RJFN,,,,0,20180110180000,-1,-1,-1,-1,270,-1,12,-1,-1,-1,-1,,9999,0,0,1,FEW 30,1,2,-1,4,1018,RJFN 101800Z 27012KT 9999 FEW030 02/M04 Q1018 RMK 1CU030     A3009=,
20180110_190000.003,0,RJFN,,,,0,20180110190000,-1,-1,-1,-1,250,-1,9,-1,-1,-1,-1,,9999,0,0,1,FEW 30,1,1,-1,3,1018,RJFN 101900Z 25009KT 9999 FEW030 01/M03 Q1018 RMK 1CU030     A3009=,
20180110_200000.003,0,RJFN,,,,0,20180110200000,-1,-1,-1,-1,280,-1,9,-1,-1,-1,-1,,9999,0,0,1,FEW 30,-1,0,-1,6,1019,RJFN 102000Z 28009KT 9999 FEW030 M00/M06 Q1019 RMK 1CU030     A3011=,
20180110_210000.003,0,RJFN,,,,0,20180110210000,-1,-1,-1,-1,250,-1,5,-1,-1,220,280,,9999,0,0,1,FEW 30,-1,1,-1,3,1019,RJFN 102100Z 25005KT 220V280 9999 FEW030 M01/M03 Q1019 RMK     1CU030 A3012 25035KT/0330 11/M01 R000 S000=,
20180110_220000.003,0,RJFN,,,,0,20180110220000,-1,-1,-1,-1,290,-1,7,-1,-1,-1,-1,,9999,0,0,1,FEW 30,-1,1,-1,4,1020,RJFN 102200Z 29007KT 9999 FEW030 M01/M04 Q1020 RMK 1CU030     A3013=,
20180110_230000.004,0,RJFN,,,,0,20180110230000,-1,-1,-1,-1,250,-1,4,-1,-1,-1,-1,,9999,0,0,1,FEW 30,-1,1,-1,4,1020,RJFN 102300Z 25004KT 9999 FEW030 M01/M04 Q1020 RMK 1CU030     A3014=,
20180111_000000.003,0,RJFN,,,,0,20180111000000,-1,-1,-1,-1,290,-1,9,-1,-1,-1,-1,,9999,0,0,1,FEW 30,1,3,-1,5,1021,RJFN 110000Z 29009KT 9999 FEW030 03/M05 Q1021 RMK 1CU030     A3016=,
20180111_010000.003,0,RJFN,,,,0,20180111010000,-1,-1,-1,-1,290,-1,10,-1,-1,-1,-1,,9999,0,0,1,FEW 30,1,5,-1,5,1020,RJFN 110100Z 29010KT 9999 FEW030 05/M05 Q1020 RMK 1CU030     A3015=,
20180111_020000.003,0,RJFN,,,,0,20180111020000,-1,-1,-1,-1,250,-1,9,-1,-1,210,280,,9999,0,0,1,FEW 30,1,6,-1,5,1021,RJFN 110200Z 25009KT 210V280 9999 FEW030 06/M05 Q1021 RMK     1CU030 A3015=,
20180111_030000.002,0,RJFN,,,,0,20180111030000,-1,-1,-1,-1,290,-1,12,-1,-1,260,330,,9999,0,0,1,FEW 30,1,7,-1,6,1020,RJFN 110300Z 29012KT 260V330 9999 FEW030 07/M06 Q1020 RMK     1CU030 A3013 MAX WIND 19KT=,
20180111_040000.003,0,RJFN,,,,0,20180111040000,-1,-1,-1,-1,280,-1,14,-1,-1,-1,-1,,9999,0,0,2,FEW 30   SCT 50,1,7,-1,7,1019,RJFN 110400Z 28014KT 9999 FEW030 SCT050 07/M07 Q1019 RMK     1CU030 3SC050 A3012 MAX WIND 22KT=,
20180111_050000.003,0,RJFN,,,,0,20180111050000,-1,-1,-1,-1,300,-1,13,-1,-1,-1,-1,,9999,0,0,2,FEW 30   BKN 60,1,6,-1,6,1019,RJFN 110500Z 30013KT 9999 FEW030 BKN060 06/M06 Q1019 RMK     1CU030 6SC060 A3012=,
20180111_060000.003,0,RJFN,,,,0,20180111060000,-1,-1,-1,-1,280,-1,16,-1,-1,-1,-1,,9999,0,0,2,FEW 30   SCT 60,1,6,-1,7,1019,RJFN 110600Z 28016KT 9999 FEW030 SCT060 06/M07 Q1019 RMK     1CU030 3SC060 A3010 MAX WIND 23KT=,
20180111_070000.003,0,RJFN,,,,0,20180111070000,-1,-1,-1,-1,280,-1,17,-1,-1,-1,-1,,9999,0,0,1,FEW 30,1,6,-1,8,1019,RJFN 110700Z 28017KT 9999 FEW030 06/M08 Q1019 RMK 1CU030 A3011     MAX WIND 23KT=,
20180111_080000.003,0,RJFN,,,,0,20180111080000,-1,-1,-1,-1,260,-1,16,-1,-1,-1,-1,,9999,0,0,1,FEW 30,1,5,-1,8,1020,RJFN 110800Z 26016KT 9999 FEW030 05/M08 Q1020 RMK 1CU030     A3013=,
20180111_090000.003,0,RJFN,,,,0,20180111090000,-1,-1,-1,-1,280,-1,11,-1,-1,-1,-1,,9999,0,0,1,FEW 30,1,3,-1,6,1021,RJFN 110900Z 28011KT 9999 FEW030 03/M06 Q1021 RMK 1CU030     A3015=,
20180111_100000.003,0,RJFN,,,,0,20180111100000,-1,-1,-1,-1,280,-1,9,-1,-1,-1,-1,,9999,0,0,1,FEW 30,1,2,-1,7,1021,RJFN 111000Z 28009KT 9999 FEW030 02/M07 Q1021 RMK 1CU030     A3017=,
20180111_110000.003,0,RJFN,,,,0,20180111110000,-1,-1,-1,-1,270,-1,6,-1,-1,-1,-1,,9999,0,0,1,FEW 30,-1,1,-1,6,1022,RJFN 111100Z 27006KT 9999 FEW030 M01/M06 Q1022 RMK 1CU030     A3020=,
20180111_120000.003,0,RJFN,,,,0,20180111120000,-1,-1,-1,-1,30,-1,4,-1,-1,-1,-1,,9999,0,0,1,FEW 30,1,0,-1,7,1024,RJFN 111200Z 03004KT 9999 FEW030 00/M07 Q1024 RMK 1CU030     A3024=,
20180111_130000.003,0,RJFN,,,,0,20180111130000,-1,-1,-1,-1,999,-1,2,-1,-1,-1,-1,,9999,0,0,1,FEW 30,-1,1,-1,7,1024,RJFN 111300Z VRB02KT 9999 FEW030 M01/M07 Q1024 RMK 1CU030     A3025=,
20180111_140000.003,0,RJFN,,,,0,20180111140000,-1,-1,-1,-1,999,-1,1,-1,-1,-1,-1,,9999,0,0,1,FEW 30,-1,2,-1,7,1024,RJFN 111400Z VRB01KT 9999 FEW030 M02/M07 Q1024 RMK 1CU030     A3025=,
20180111_150000.003,0,RJFN,,,,0,20180111150000,-1,-1,-1,-1,300,-1,3,-1,-1,-1,-1,,9999,0,0,1,FEW 30,-1,3,-1,6,1024,RJFN 111500Z 30003KT 9999 FEW030 M03/M06 Q1024 RMK 1CU030     A3025=,
20180111_160000.003,0,RJFN,,,,0,20180111160000,-1,-1,-1,-1,310,-1,4,-1,-1,-1,-1,,9999,0,0,1,FEW 30,-1,3,-1,6,1024,RJFN 111600Z 31004KT 9999 FEW030 M03/M06 Q1024 RMK 1CU030     A3025=,
20180111_170000.003,0,RJFN,,,,0,20180111170000,-1,-1,-1,-1,320,-1,6,-1,-1,-1,-1,,9999,0,0,2,FEW 30   SCT 90,-1,2,-1,6,1024,RJFN 111700Z 32006KT 9999 FEW030 SCT090 M02/M06 Q1024 RMK     1CU030 3AC090 A3026=,
20180111_180000.003,0,RJFN,,,,0,20180111180000,-1,-1,-1,-1,310,-1,6,-1,-1,-1,-1,,9999,0,0,1,FEW 30,-1,2,-1,6,1024,RJFN 111800Z 31006KT 9999 FEW030 M02/M06 Q1024 RMK 1CU030     A3025=,
20180111_190000.003,0,RJFN,,,,0,20180111190000,-1,-1,-1,-1,300,-1,5,-1,-1,-1,-1,,9999,0,0,1,FEW 30,-1,3,-1,5,1024,RJFN 111900Z 30005KT 9999 FEW030 M03/M05 Q1024 RMK 1CU030     A3025=,
20180111_200000.003,0,RJFN,,,,0,20180111200000,-1,-1,-1,-1,290,-1,4,-1,-1,-1,-1,,9999,0,0,1,FEW 30,-1,4,-1,5,1024,RJFN 112000Z 29004KT 9999 FEW030 M04/M05 Q1024 RMK 1CU030     A3026=,
20180111_210000.003,0,RJFN,,,,0,20180111210000,-1,-1,-1,-1,270,-1,6,-1,-1,-1,-1,,9999,0,0,1,FEW 30,-1,4,-1,5,1025,RJFN 112100Z 27006KT 9999 FEW030 M04/M05 Q1025 RMK 1CU030     A3027 08/M05=,
20180111_220000.004,0,RJFN,,,,0,20180111220000,-1,-1,-1,-1,310,-1,4,-1,-1,-1,-1,,9999,0,0,1,FEW 30,-1,3,-1,5,1025,RJFN 112200Z 31004KT 9999 FEW030 M03/M05 Q1025 RMK 1CU030     A3028=,
20180111_230000.003,0,RJFN,,,,0,20180111230000,-1,-1,-1,-1,999,-1,2,-1,-1,-1,-1,,9999,0,0,1,FEW 30,-1,4,-1,6,1025,RJFN 112300Z VRB02KT 9999 FEW030 M04/M06 Q1025 RMK 1CU030     A3029=,
20180112_000000.003,0,RJFN,,,,0,20180112000000,-1,-1,-1,-1,999,-1,1,-1,-1,-1,-1,,9999,0,0,1,FEW 30,-1,0,-1,5,1026,RJFN 120000Z VRB01KT 9999 FEW030 M00/M05 Q1026 RMK 1CU030     A3031=,
20180112_010000.004,0,RJFN,,,,0,20180112010000,-1,-1,-1,-1,999,-1,1,-1,-1,-1,-1,,9999,0,0,1,FEW 30,1,2,-1,7,1026,RJFN 120100Z VRB01KT 9999 FEW030 02/M07 Q1026 RMK 1CU030     A3032=,
20180112_020000.003,0,RJFN,,,,0,20180112020000,-1,-1,-1,-1,150,-1,4,-1,-1,110,200,,9999,0,0,1,FEW 40,1,3,-1,8,1026,RJFN 120200Z 15004KT 110V200 9999 FEW040 03/M08 Q1026 RMK     1CU040 A3031=,
20180112_030000.003,0,RJFN,,,,0,20180112030000,-1,-1,-1,-1,999,-1,2,-1,-1,-1,-1,,9999,0,0,2,FEW 40   SCT 50,1,4,-1,9,1025,RJFN 120300Z VRB02KT 9999 FEW040 SCT050 04/M09 Q1025 RMK     1CU040 3SC050 A3028=,
20180112_040000.003,0,RJFN,,,,0,20180112040000,-1,-1,-1,-1,250,-1,17,-1,-1,-1,-1,,9999,0,0,2,FEW 40   SCT 50,1,6,-1,10,1024,RJFN 120400Z 25017KT 9999 FEW040 SCT050 06/M10 Q1024 RMK     1CU040 3SC050 A3026 MAX WIND 24KT=,
20180112_050000.004,0,RJFN,,,,0,20180112050000,-1,-1,-1,-1,250,-1,17,-1,-1,-1,-1,,9999,0,0,1,FEW 40,1,6,-1,11,1024,RJFN 120500Z 25017KT 9999 FEW040 06/M11 Q1024 RMK 1CU040 A3024     MAX WIND 23KT=,
20180112_060000.003,0,RJFN,,,,0,20180112060000,-1,-1,-1,-1,270,-1,18,-1,-1,-1,-1,,9999,0,0,1,FEW 60,1,6,-1,10,1024,RJFN 120600Z 27018KT 9999 FEW060 06/M10 Q1024 RMK 2SC060 A3024     MAX WIND 25KT=,
20180112_070000.004,0,RJFN,,,,0,20180112070000,-1,-1,-1,-1,270,-1,14,-1,-1,-1,-1,,9999,0,0,1,FEW 50,1,5,-1,11,1024,RJFN 120700Z 27014KT 9999 FEW050 05/M11 Q1024 RMK 2SC050 A3025     MAX WIND 18KT=,
20180112_080000.003,0,RJFN,,,,0,20180112080000,-1,-1,-1,-1,270,-1,14,-1,-1,-1,-1,,9999,0,0,1,FEW 50,1,4,-1,10,1025,RJFN 120800Z 27014KT 9999 FEW050 04/M10 Q1025 RMK 2SC050 A3028     MAX WIND 17KT=,
20180112_090000.003,0,RJFN,,,,0,20180112090000,-1,-1,-1,-1,280,-1,12,-1,-1,-1,-1,,9999,0,0,1,FEW 50,1,2,-1,9,1026,RJFN 120900Z 28012KT 9999 FEW050 02/M09 Q1026 RMK 1SC050     A3030=,
20180112_100000.003,0,RJFN,,,,0,20180112100000,-1,-1,-1,-1,260,-1,8,-1,-1,-1,-1,,9999,0,0,1,FEW 50,1,1,-1,9,1026,RJFN 121000Z 26008KT 9999 FEW050 01/M09 Q1026 RMK 1SC050     A3032=,
20180112_110000.003,0,RJFN,,,,0,20180112110000,-1,-1,-1,-1,280,-1,9,-1,-1,-1,-1,,9999,0,0,1,FEW 50,-1,0,-1,9,1027,RJFN 121100Z 28009KT 9999 FEW050 M00/M09 Q1027 RMK 1SC050     A3033=,
20180112_120000.003,0,RJFN,,,,0,20180112120000,-1,-1,-1,-1,250,-1,6,-1,-1,-1,-1,,9999,0,0,1,FEW 30,-1,1,-1,8,1027,RJFN 121200Z 25006KT 9999 FEW030 M01/M08 Q1027 RMK 1CU030     A3033=,
20180112_130000.003,0,RJFN,,,,0,20180112130000,-1,-1,-1,-1,240,-1,5,-1,-1,-1,-1,,9999,0,0,1,FEW 30,-1,3,-1,8,1027,RJFN 121300Z 24005KT 9999 FEW030 M03/M08 Q1027 RMK 1CU030     A3035=,
20180112_140000.003,0,RJFN,,,,0,20180112140000,-1,-1,-1,-1,240,-1,4,-1,-1,-1,-1,,9999,0,0,1,FEW 30,-1,3,-1,7,1028,RJFN 121400Z 24004KT 9999 FEW030 M03/M07 Q1028 RMK 1CU030     A3036=,
20180112_150000.003,0,RJFN,,,,0,20180112150000,-1,-1,-1,-1,240,-1,4,-1,-1,-1,-1,,9999,0,0,1,FEW 30,-1,2,-1,7,1028,RJFN 121500Z 24004KT 9999 FEW030 M02/M07 Q1028 RMK 1CU030     A3036=,
20180112_160000.003,0,RJFN,,,,0,20180112160000,-1,-1,-1,-1,270,-1,4,-1,-1,-1,-1,,9999,0,0,1,FEW 30,-1,3,-1,7,1027,RJFN 121600Z 27004KT 9999 FEW030 M03/M07 Q1027 RMK 1CU030     A3035=,
20180112_170000.003,0,RJFN,,,,0,20180112170000,-1,-1,-1,-1,260,-1,7,-1,-1,-1,-1,,9999,0,0,1,FEW 30,-1,3,-1,7,1027,RJFN 121700Z 26007KT 9999 FEW030 M03/M07 Q1027 RMK 1CU030     A3035=,
20180112_180000.003,0,RJFN,,,,0,20180112180000,-1,-1,-1,-1,240,-1,5,-1,-1,-1,-1,,9999,0,0,1,FEW 30,-1,4,-1,8,1027,RJFN 121800Z 24005KT 9999 FEW030 M04/M08 Q1027 RMK 1CU030     A3035=,
20180112_190000.003,0,RJFN,,,,0,20180112190000,-1,-1,-1,-1,260,-1,6,-1,-1,-1,-1,,9999,0,0,1,FEW 30,-1,5,-1,8,1027,RJFN 121900Z 26006KT 9999 FEW030 M05/M08 Q1027 RMK 1CU030     A3034=,
20180112_200000.004,0,RJFN,,,,0,20180112200000,-1,-1,-1,-1,999,-1,2,-1,-1,-1,-1,,9999,0,0,1,FEW 30,-1,3,-1,7,1027,RJFN 122000Z VRB02KT 9999 FEW030 M03/M07 Q1027 RMK 1CU030     A3033=,
20180112_210000.003,0,RJFN,,,,0,20180112210000,-1,-1,-1,-1,220,-1,3,-1,-1,190,260,,9999,0,0,1,FEW 30,-1,5,-1,8,1027,RJFN 122100Z 22003KT 190V260 9999 FEW030 M05/M08 Q1027 RMK     1CU030 A3035 07/M06=,
20180112_220000.003,0,RJFN,,,,0,20180112220000,-1,-1,-1,-1,240,-1,7,-1,-1,-1,-1,,9999,0,0,1,FEW 30,-1,5,-1,8,1028,RJFN 122200Z 24007KT 9999 FEW030 M05/M08 Q1028 RMK 1CU030     A3037=,
20180112_230000.003,0,RJFN,,,,0,20180112230000,-1,-1,-1,-1,270,-1,5,-1,-1,-1,-1,,9999,0,0,1,FEW 30,-1,3,-1,7,1028,RJFN 122300Z 27005KT 9999 FEW030 M03/M07 Q1028 RMK 1CU030     A3038=,
20180113_000000.003,0,RJFN,,,,0,20180113000000,-1,-1,-1,-1,300,-1,9,-1,-1,-1,-1,,9999,0,0,1,FEW 30,1,1,-1,7,1029,RJFN 130000Z 30009KT 9999 FEW030 01/M07 Q1029 RMK 1CU030     A3040=,
20180113_010000.004,0,RJFN,,,,0,20180113010000,-1,-1,-1,-1,260,-1,6,-1,-1,230,300,,9999,0,0,1,FEW 30,1,3,-1,7,1030,RJFN 130100Z 26006KT 230V300 9999 FEW030 03/M07 Q1030 RMK     1CU030 A3042=,
20180113_020000.003,0,RJFN,,,,0,20180113020000,-1,-1,-1,-1,290,-1,6,-1,-1,250,330,,9999,0,0,1,FEW 30,1,5,-1,9,1029,RJFN 130200Z 29006KT 250V330 9999 FEW030 05/M09 Q1029 RMK     1CU030 A3040=,
20180113_030000.003,0,RJFN,,,,0,20180113030000,-1,-1,-1,-1,230,-1,3,-1,-1,-1,-1,,9999,0,0,1,FEW 30,1,7,-1,8,1028,RJFN 130300Z 23003KT 9999 FEW030 07/M08 Q1028 RMK 1CU030     A3038=,
20180113_040000.003,0,RJFN,,,,0,20180113040000,-1,-1,-1,-1,80,-1,5,-1,-1,30,130,,9999,0,0,1,FEW 30,1,7,-1,7,1027,RJFN 130400Z 08005KT 030V130 9999 FEW030 07/M07 Q1027 RMK     1CU030 A3035=,
20180113_050000.003,0,RJFN,,,,0,20180113050000,-1,-1,-1,-1,100,-1,6,-1,-1,40,150,,9999,0,0,1,FEW 30,1,7,-1,7,1027,RJFN 130500Z 10006KT 040V150 9999 FEW030 07/M07 Q1027 RMK     1CU030 A3034=,
20180113_060000.003,0,RJFN,,,,0,20180113060000,-1,-1,-1,-1,100,-1,5,-1,-1,50,130,,9999,0,0,1,FEW 30,1,7,-1,7,1027,RJFN 130600Z 10005KT 050V130 9999 FEW030 07/M07 Q1027 RMK     1CU030 A3034=,
20180113_070000.003,0,RJFN,,,,0,20180113070000,-1,-1,-1,-1,70,-1,5,-1,-1,40,100,,9999,0,0,1,FEW 30,1,7,-1,5,1027,RJFN 130700Z 07005KT 040V100 9999 FEW030 07/M05 Q1027 RMK     1CU030 A3034=,
20180113_080000.003,0,RJFN,,,,0,20180113080000,-1,-1,-1,-1,70,-1,5,-1,-1,-1,-1,,9999,0,0,1,FEW 30,1,6,-1,5,1027,RJFN 130800Z 07005KT 9999 FEW030 06/M05 Q1027 RMK 1CU030     A3035=,
20180113_090000.003,0,RJFN,,,,0,20180113090000,-1,-1,-1,-1,30,-1,3,-1,-1,-1,-1,,9999,0,0,1,FEW 30,1,5,-1,6,1028,RJFN 130900Z 03003KT 9999 FEW030 05/M06 Q1028 RMK 1CU030     A3038=,
20180113_100000.003,0,RJFN,,,,0,20180113100000,-1,-1,-1,-1,320,-1,4,-1,-1,-1,-1,,9999,0,0,1,FEW 30,1,3,-1,5,1029,RJFN 131000Z 32004KT 9999 FEW030 03/M05 Q1029 RMK 1CU030     A3041=,
20180113_110000.003,0,RJFN,,,,0,20180113110000,-1,-1,-1,-1,270,-1,8,-1,-1,-1,-1,,9999,0,0,1,FEW 30,1,1,-1,4,1030,RJFN 131100Z 27008KT 9999 FEW030 01/M04 Q1030 RMK 1CU030     A3044=,
20180113_120000.003,0,RJFN,,,,0,20180113120000,-1,-1,-1,-1,300,-1,8,-1,-1,-1,-1,,9999,0,0,1,FEW 30,1,2,-1,4,1030,RJFN 131200Z 30008KT 9999 FEW030 02/M04 Q1030 RMK 1CU030     A3043=,
20180113_130000.003,0,RJFN,,,,0,20180113130000,-1,-1,-1,-1,310,-1,9,-1,-1,-1,-1,,9999,0,0,1,FEW 30,1,2,-1,5,1030,RJFN 131300Z 31009KT 9999 FEW030 02/M05 Q1030 RMK 1CU030     A3043=,
20180113_140000.004,0,RJFN,,,,0,20180113140000,-1,-1,-1,-1,320,-1,5,-1,-1,-1,-1,,9999,0,0,1,FEW 30,1,1,-1,4,1030,RJFN 131400Z 32005KT 9999 FEW030 01/M04 Q1030 RMK 1CU030     A3043=,
20180113_150000.003,0,RJFN,,,,0,20180113150000,-1,-1,-1,-1,300,-1,3,-1,-1,250,320,,9999,0,0,1,FEW 30,-1,0,-1,5,1030,RJFN 131500Z 30003KT 250V320 9999 FEW030 M00/M05 Q1030 RMK     1CU030 A3042=,
20180113_160000.003,0,RJFN,,,,0,20180113160000,-1,-1,-1,-1,300,-1,7,-1,-1,-1,-1,,9999,0,0,1,FEW 30,1,1,-1,4,1030,RJFN 131600Z 30007KT 9999 FEW030 01/M04 Q1030 RMK 1CU030     A3042=,
20180113_170000.003,0,RJFN,,,,0,20180113170000,-1,-1,-1,-1,300,-1,8,-1,-1,-1,-1,,9999,0,0,1,FEW 30,1,1,-1,4,1029,RJFN 131700Z 30008KT 9999 FEW030 01/M04 Q1029 RMK 1CU030     A3040=,
20180113_180000.003,0,RJFN,,,,0,20180113180000,-1,-1,-1,-1,310,-1,6,-1,-1,-1,-1,,9999,0,0,1,FEW 30,1,1,-1,4,1029,RJFN 131800Z 31006KT 9999 FEW030 01/M04 Q1029 RMK 1CU030     A3040=,
20180113_190000.004,0,RJFN,,,,0,20180113190000,-1,-1,-1,-1,300,-1,7,-1,-1,-1,-1,,9999,0,0,1,FEW 30,1,0,-1,4,1029,RJFN 131900Z 30007KT 9999 FEW030 00/M04 Q1029 RMK 1CU030     A3041=,
20180113_200000.004,0,RJFN,,,,0,20180113200000,-1,-1,-1,-1,270,-1,5,-1,-1,-1,-1,,9999,0,0,1,FEW 30,-1,1,-1,4,1029,RJFN 132000Z 27005KT 9999 FEW030 M01/M04 Q1029 RMK 1CU030     A3041=,
20180113_210000.003,0,RJFN,,,,0,20180113210000,-1,-1,-1,-1,290,-1,5,-1,-1,-1,-1,,9999,0,0,2,FEW 30   BKN -9999,1,0,-1,3,1030,RJFN 132100Z 29005KT 9999 FEW030 BKN/// 00/M03 Q1030 RMK     1CU030 A3042 08/M02=,
20180113_220000.003,0,RJFN,,,,0,20180113220000,-1,-1,-1,-1,300,-1,7,-1,-1,-1,-1,,9999,0,0,2,FEW 30   BKN 230,1,0,-1,3,1031,RJFN 132200Z 30007KT 9999 FEW030 BKN230 00/M03 Q1031 RMK     1CU030 A3045=,
20180113_230000.003,0,RJFN,,,,0,20180113230000,-1,-1,-1,-1,290,-1,9,-1,-1,-1,-1,,9999,0,0,2,FEW 30   BKN 230,1,1,-1,4,1032,RJFN 132300Z 29009KT 9999 FEW030 BKN230 01/M04 Q1032 RMK     1CU030 A3049=,
20180114_000000.004,0,RJFN,,,,0,20180114000000,-1,-1,-1,-1,300,-1,6,-1,-1,-1,-1,,9999,0,0,3,FEW 30   SCT 180   BKN 230,1,2,-1,3,1032,RJFN 140000Z 30006KT 9999 FEW030 SCT180 BKN230 02/M03 Q1032     RMK 1CU030 3AC180 A3049=,
20180114_010000.003,0,RJFN,,,,0,20180114010000,-1,-1,-1,-1,300,-1,5,-1,-1,-1,-1,,9999,0,0,2,FEW 30   BKN 200,1,4,-1,3,1032,RJFN 140100Z 30005KT 9999 FEW030 BKN200 04/M03 Q1032 RMK     1CU030 A3048=,
20180114_020000.003,0,RJFN,,,,0,20180114020000,-1,-1,-1,-1,30,-1,5,-1,-1,320,70,,9999,0,0,2,FEW 30   BKN 200,1,7,-1,3,1031,RJFN 140200Z 03005KT 320V070 9999 FEW030 BKN200 07/M03 Q1031     RMK 1CU030 A3046=,
20180114_030000.003,0,RJFN,,,,0,20180114030000,-1,-1,-1,-1,50,-1,5,-1,-1,10,90,,9999,0,0,2,FEW 30   OVC 180,1,8,-1,3,1030,RJFN 140300Z 05005KT 010V090 9999 FEW030 OVC180 08/M03 Q1030     RMK 1CU030 8AS180 A3042=,
20180114_040000.003,0,RJFN,,,,0,20180114040000,-1,-1,-1,-1,70,-1,5,-1,-1,310,120,,9999,0,0,3,FEW 30   BKN 180   BKN 230,1,9,-1,3,1029,RJFN 140400Z 07005KT 310V120 9999 FEW030 BKN180 BKN230 09/M03     Q1029 RMK 1CU030 6AC180 A3039=,
20180114_050000.003,0,RJFN,,,,0,20180114050000,-1,-1,-1,-1,20,-1,3,-1,-1,340,80,,9999,0,0,3,FEW 30   BKN 180   BKN 230,1,9,-1,3,1028,RJFN 140500Z 02003KT 340V080 9999 FEW030 BKN180 BKN230 09/M03     Q1028 RMK 1CU030 7AC180 A3036=,
20180114_060000.004,0,RJFN,,,,0,20180114060000,-1,-1,-1,-1,60,-1,3,-1,-1,10,120,,9999,0,0,2,FEW 30   OVC 180,1,9,-1,2,1028,RJFN 140600Z 06003KT 010V120 9999 FEW030 OVC180 09/M02 Q1028     RMK 1CU030 8AS180 A3036=,
20180114_070000.003,0,RJFN,,,,0,20180114070000,-1,-1,-1,-1,80,-1,4,-1,-1,20,120,,9999,0,0,2,FEW 30   BKN 230,1,9,-1,2,1028,RJFN 140700Z 08004KT 020V120 9999 FEW030 BKN230 09/M02 Q1028     RMK 1CU030 A3036=,
20180114_080000.003,0,RJFN,,,,0,20180114080000,-1,-1,-1,-1,90,-1,2,-1,-1,-1,-1,,9999,0,0,3,FEW 30   SCT 180   BKN 230,1,8,-1,1,1028,RJFN 140800Z 09002KT 9999 FEW030 SCT180 BKN230 08/M01 Q1028     RMK 1CU030 3AC180 A3036=,
20180114_090000.003,0,RJFN,,,,0,20180114090000,-1,-1,-1,-1,20,-1,2,-1,-1,-1,-1,,9999,0,0,3,FEW 30   SCT 180   BKN 230,1,8,-1,1,1028,RJFN 140900Z 02002KT 9999 FEW030 SCT180 BKN230 08/M01 Q1028     RMK 1CU030 4AC180 A3036=,
20180114_100000.003,0,RJFN,,,,0,20180114100000,-1,-1,-1,-1,330,-1,6,-1,-1,-1,-1,,9999,0,0,2,FEW 30   BKN -9999,1,6,-1,0,1028,RJFN 141000Z 33006KT 9999 FEW030 BKN/// 06/M00 Q1028 RMK     1CU030 A3036=,
20180114_110000.003,0,RJFN,,,,0,20180114110000,-1,-1,-1,-1,320,-1,5,-1,-1,-1,-1,,9999,0,0,3,FEW 30   SCT 180   BKN -9999,1,5,-1,0,1028,RJFN 141100Z 32005KT 9999 FEW030 SCT180 BKN/// 05/M00 Q1028     RMK 1CU030 3AC180 A3038=,
20180114_120000.003,0,RJFN,,,,0,20180114120000,-1,-1,-1,-1,320,-1,7,-1,-1,-1,-1,,9999,0,0,3,FEW 30   SCT 180   BKN -9999,1,4,-1,0,1029,RJFN 141200Z 32007KT 9999 FEW030 SCT180 BKN/// 04/M00 Q1029     RMK 1CU030 3AC180 A3039=,
20180114_130000.004,0,RJFN,,,,0,20180114130000,-1,-1,-1,-1,310,-1,7,-1,-1,-1,-1,,9999,0,0,2,FEW 30   BKN -9999,1,4,-1,0,1028,RJFN 141300Z 31007KT 9999 FEW030 BKN/// 04/M00 Q1028 RMK     1CU030 A3038=,
20180114_140000.003,0,RJFN,,,,0,20180114140000,-1,-1,-1,-1,300,-1,4,-1,-1,-1,-1,,9999,0,0,2,FEW 30   SCT -9999,1,3,1,0,1028,RJFN 141400Z 30004KT 9999 FEW030 SCT/// 03/00 Q1028 RMK 1CU030     A3037=,
20180114_150000.003,0,RJFN,,,,0,20180114150000,-1,-1,-1,-1,290,-1,5,-1,-1,-1,-1,,9999,0,0,1,FEW 30,1,3,1,0,1028,RJFN 141500Z 29005KT 9999 FEW030 03/00 Q1028 RMK 1CU030 A3036=,
20180114_160000.003,0,RJFN,,,,0,20180114160000,-1,-1,-1,-1,290,-1,7,-1,-1,-1,-1,,9999,0,0,1,FEW 30,1,3,1,0,1027,RJFN 141600Z 29007KT 9999 FEW030 03/00 Q1027 RMK 1CU030 A3034=,
20180114_170000.003,0,RJFN,,,,0,20180114170000,-1,-1,-1,-1,290,-1,6,-1,-1,-1,-1,,9999,0,0,1,FEW 30,1,3,1,0,1027,RJFN 141700Z 29006KT 9999 FEW030 03/00 Q1027 RMK 1CU030 A3034=,
20180114_180000.004,0,RJFN,,,,0,20180114180000,-1,-1,-1,-1,280,-1,6,-1,-1,-1,-1,,9999,0,0,1,FEW 30,1,3,1,0,1026,RJFN 141800Z 28006KT 9999 FEW030 03/00 Q1026 RMK 1CU030 A3032=,
20180114_190000.003,0,RJFN,,,,0,20180114190000,-1,-1,-1,-1,280,-1,6,-1,-1,-1,-1,,9999,0,0,1,FEW 30,1,2,1,0,1026,RJFN 141900Z 28006KT 9999 FEW030 02/00 Q1026 RMK 1CU030 A3032=,
20180114_200000.004,0,RJFN,,,,0,20180114200000,-1,-1,-1,-1,290,-1,5,-1,-1,-1,-1,,9999,0,0,1,FEW 30,1,3,1,1,1026,RJFN 142000Z 29005KT 9999 FEW030 03/01 Q1026 RMK 1CU030 A3031=,
20180114_210000.003,0,RJFN,,,,0,20180114210000,-1,-1,-1,-1,300,-1,3,-1,-1,-1,-1,,9999,0,0,1,FEW 30,1,2,1,1,1026,RJFN 142100Z 30003KT 9999 FEW030 02/01 Q1026 RMK 1CU030 A3031     09/02=,
20180114_220000.003,0,RJFN,,,,0,20180114220000,-1,-1,-1,-1,290,-1,6,-1,-1,-1,-1,,9999,0,0,1,FEW 30,1,3,1,1,1026,RJFN 142200Z 29006KT 9999 FEW030 03/01 Q1026 RMK 1CU030 A3032=,
20180114_230000.003,0,RJFN,,,,0,20180114230000,-1,-1,-1,-1,290,-1,4,-1,-1,-1,-1,,9999,0,0,1,FEW 30,1,3,1,1,1026,RJFN 142300Z 29004KT 9999 FEW030 03/01 Q1026 RMK 1CU030 A3032=,
20180115_000000.003,0,RJFN,,,,0,20180115000000,-1,-1,-1,-1,290,-1,7,-1,-1,-1,-1,,9999,0,0,1,FEW 30,1,6,1,3,1027,RJFN 150000Z 29007KT 9999 FEW030 06/03 Q1027 RMK 1CU030 A3034=,
20180115_010000.003,0,RJFN,,,,0,20180115010000,-1,-1,-1,-1,280,-1,5,-1,-1,-1,-1,,9999,0,0,1,FEW 30,1,10,1,3,1027,RJFN 150100Z 28005KT 9999 FEW030 10/03 Q1027 RMK 1CU030 A3034=,
20180115_020000.003,0,RJFN,,,,0,20180115020000,-1,-1,-1,-1,300,-1,3,-1,-1,240,330,,9999,0,0,1,FEW 30,1,13,1,4,1026,RJFN 150200Z 30003KT 240V330 9999 FEW030 13/04 Q1026 RMK     1CU030 A3032=,
20180115_030000.003,0,RJFN,,,,0,20180115030000,-1,-1,-1,-1,180,-1,4,-1,-1,140,220,,9999,0,0,1,FEW 30,1,14,1,5,1025,RJFN 150300Z 18004KT 140V220 9999 FEW030 14/05 Q1025 RMK     1CU030 A3028=,
20180115_040000.003,0,RJFN,,,,0,20180115040000,-1,-1,-1,-1,999,-1,3,-1,-1,-1,-1,,9999,0,0,1,FEW 30,1,15,1,5,1024,RJFN 150400Z VRB03KT 9999 FEW030 15/05 Q1024 RMK 1CU030 A3024=,
20180115_050000.003,0,RJFN,,,,0,20180115050000,-1,-1,-1,-1,130,-1,9,-1,-1,-1,-1,,9999,0,0,1,FEW 30,1,15,1,7,1022,RJFN 150500Z 13009KT 9999 FEW030 15/07 Q1022 RMK 1CU030 A3021=,
20180115_060000.003,0,RJFN,,,,0,20180115060000,-1,-1,-1,-1,140,-1,6,-1,-1,110,170,,9999,0,0,2,FEW 30   SCT 60,1,14,1,8,1022,RJFN 150600Z 14006KT 110V170 9999 FEW030 SCT060 14/08 Q1022     RMK 1CU030 4SC060 A3020=,
20180115_070000.005,0,RJFN,,,,0,20180115070000,-1,-1,-1,-1,160,-1,7,-1,-1,130,190,,9999,0,0,1,FEW 30,1,15,1,6,1022,RJFN 150700Z 16007KT 130V190 9999 FEW030 15/06 Q1022 RMK     1CU030 A3020=,
20180115_080000.003,0,RJFN,,,,0,20180115080000,-1,-1,-1,-1,140,-1,4,-1,-1,-1,-1,,9999,0,0,2,FEW 30   SCT 60,1,14,1,6,1023,RJFN 150800Z 14004KT 9999 FEW030 SCT060 14/06 Q1023 RMK 1CU030     4SC060 A3021=,
20180115_090000.003,0,RJFN,,,,0,20180115090000,-1,-1,-1,-1,999,-1,1,-1,-1,-1,-1,,9999,0,0,3,FEW 30   SCT 60   BKN 90,1,13,1,7,1023,RJFN 150900Z VRB01KT 9999 FEW030 SCT060 BKN090 13/07 Q1023 RMK     1CU030 3SC060 5AC090 A3023=,
20180115_100000.003,0,RJFN,,,,0,20180115100000,-1,-1,-1,-1,999,-1,3,-1,-1,-1,-1,,9999,0,0,2,FEW 30   BKN 90,1,12,1,7,1024,RJFN 151000Z VRB03KT 9999 FEW030 BKN090 12/07 Q1024 RMK 1CU030     6AC090 A3024=,
20180115_110000.003,0,RJFN,,,,0,20180115110000,-1,-1,-1,-1,310,-1,5,-1,-1,-1,-1,,9999,0,0,3,FEW 30   SCT 60   BKN 90,1,11,1,7,1024,RJFN 151100Z 31005KT 9999 FEW030 SCT060 BKN090 11/07 Q1024 RMK     1CU030 3SC060 5AC090 A3025=,
20180115_120000.003,0,RJFN,,,,0,20180115120000,-1,-1,-1,-1,270,-1,6,-1,-1,-1,-1,,9999,0,0,2,FEW 30   SCT 90,1,8,1,4,1024,RJFN 151200Z 27006KT 9999 FEW030 SCT090 08/04 Q1024 RMK 1CU030     4AC090 A3024=,
20180115_130000.003,0,RJFN,,,,0,20180115130000,-1,-1,-1,-1,280,-1,6,-1,-1,-1,-1,,9999,0,0,1,FEW 30,1,8,1,4,1024,RJFN 151300Z 28006KT 9999 FEW030 08/04 Q1024 RMK 1CU030 A3024=,
20180115_140000.003,0,RJFN,,,,0,20180115140000,-1,-1,-1,-1,290,-1,7,-1,-1,-1,-1,,9999,0,0,1,FEW 30,1,8,1,5,1024,RJFN 151400Z 29007KT 9999 FEW030 08/05 Q1024 RMK 1CU030 A3025=,
20180115_150000.003,0,RJFN,,,,0,20180115150000,-1,-1,-1,-1,290,-1,7,-1,-1,-1,-1,,9999,0,0,1,FEW 30,1,7,1,4,1024,RJFN 151500Z 29007KT 9999 FEW030 07/04 Q1024 RMK 1CU030 A3024=,
20180115_160000.003,0,RJFN,,,,0,20180115160000,-1,-1,-1,-1,290,-1,8,-1,-1,-1,-1,,9999,0,0,1,FEW 30,1,7,1,4,1023,RJFN 151600Z 29008KT 9999 FEW030 07/04 Q1023 RMK 1CU030 A3023=,
20180115_170000.003,0,RJFN,,,,0,20180115170000,-1,-1,-1,-1,280,-1,6,-1,-1,-1,-1,,9999,0,0,1,FEW 30,1,7,1,4,1023,RJFN 151700Z 28006KT 9999 FEW030 07/04 Q1023 RMK 1CU030 A3023=,
20180115_180000.003,0,RJFN,,,,0,20180115180000,-1,-1,-1,-1,290,-1,9,-1,-1,-1,-1,,9999,0,0,1,FEW 30,1,7,1,4,1023,RJFN 151800Z 29009KT 9999 FEW030 07/04 Q1023 RMK 1CU030 A3021=,
20180115_190000.003,0,RJFN,,,,0,20180115190000,-1,-1,-1,-1,290,-1,7,-1,-1,-1,-1,,9999,0,0,2,FEW 30   SCT 70,1,8,1,4,1022,RJFN 151900Z 29007KT 9999 FEW030 SCT070 08/04 Q1022 RMK 1CU030     4AC070 A3020=,
20180115_200000.003,0,RJFN,,,,0,20180115200000,-1,-1,-1,-1,290,-1,7,-1,-1,-1,-1,,9999,0,0,2,FEW 30   BKN 70,1,8,1,5,1022,RJFN 152000Z 29007KT 9999 FEW030 BKN070 08/05 Q1022 RMK 1CU030     5AC070 A3019=,
20180115_210000.003,0,RJFN,,,,0,20180115210000,-1,-1,-1,-1,280,-1,7,-1,-1,-1,-1,,9999,0,0,2,FEW 30   BKN 70,1,8,1,4,1022,RJFN 152100Z 28007KT 9999 FEW030 BKN070 08/04 Q1022 RMK     1CU030 5AC070 A3020 16/07=,
20180115_220000.003,0,RJFN,,,,0,20180115220000,-1,-1,-1,-1,290,-1,6,-1,-1,-1,-1,,9999,0,0,2,FEW 30   SCT 70,1,8,1,4,1023,RJFN 152200Z 29006KT 9999 FEW030 SCT070 08/04 Q1023 RMK 1CU030     3AC070 A3021=,
20180115_230000.003,0,RJFN,,,,0,20180115230000,-1,-1,-1,-1,290,-1,6,-1,-1,-1,-1,,9999,0,0,1,FEW 30,1,8,1,5,1023,RJFN 152300Z 29006KT 9999 FEW030 08/05 Q1023 RMK 1CU030 A3021=,
20180116_000000.003,0,RJFN,,,,0,20180116000000,-1,-1,-1,-1,280,-1,3,-1,-1,260,320,,9999,0,0,1,FEW 30,1,11,1,5,1022,RJFN 160000Z 28003KT 260V320 9999 FEW030 11/05 Q1022 RMK     1CU030 A3020=,
20180116_010000.003,0,RJFN,,,,0,20180116010000,-1,-1,-1,-1,300,-1,4,-1,-1,-1,-1,,9999,0,0,1,FEW 30,1,13,1,6,1022,RJFN 160100Z 30004KT 9999 FEW030 13/06 Q1022 RMK 1CU030 A3020=,
20180116_020000.003,0,RJFN,,,,0,20180116020000,-1,-1,-1,-1,240,-1,4,-1,-1,150,290,,9999,0,0,1,FEW 30,1,17,1,7,1022,RJFN 160200Z 24004KT 150V290 9999 FEW030 17/07 Q1022 RMK     1CU030 A3018=,
20180116_030000.003,0,RJFN,,,,0,20180116030000,-1,-1,-1,-1,190,-1,5,-1,-1,140,240,,9999,0,0,1,FEW 25,1,17,1,8,1020,RJFN 160300Z 19005KT 140V240 9999 FEW025 17/08 Q1020 RMK     1CU025 A3014=,
20180116_040000.003,0,RJFN,,,,0,20180116040000,-1,-1,-1,-1,150,-1,9,-1,-1,120,210,,9999,0,0,1,FEW 40,1,18,1,9,1019,RJFN 160400Z 15009KT 120V210 9999 FEW040 18/09 Q1019 RMK     1CU040 A3009 MAX WIND 14KT=,
20180116_050000.003,0,RJFN,,,,0,20180116050000,-1,-1,-1,-1,150,-1,14,-1,-1,-1,-1,,9999,0,0,2,FEW 40   SCT 50,1,19,1,8,1017,RJFN 160500Z 15014KT 9999 FEW040 SCT050 19/08 Q1017 RMK 1CU040     3SC050 A3005 MAX WIND 22KT=,
20180116_060000.003,0,RJFN,,,,0,20180116060000,-1,-1,-1,-1,160,-1,14,-1,-1,140,200,,9999,0,0,2,FEW 40   SCT 50,1,18,1,8,1017,RJFN 160600Z 16014KT 140V200 9999 FEW040 SCT050 18/08 Q1017     RMK 1CU040 3SC050 A3004 MAX WIND 21KT=,
20180116_070000.003,0,RJFN,,,,0,20180116070000,-1,-1,-1,-1,160,-1,11,-1,-1,-1,-1,,9999,0,0,2,FEW 50   SCT 60,1,18,1,8,1016,RJFN 160700Z 16011KT 9999 FEW050 SCT060 18/08 Q1016 RMK 1SC050     3SC060 A3002 MAX WIND 20KT=,
20180116_080000.003,0,RJFN,,,,0,20180116080000,-1,-1,-1,-1,160,-1,11,-1,-1,-1,-1,,9999,0,0,1,FEW 50,1,17,1,9,1016,RJFN 160800Z 16011KT 9999 FEW050 17/09 Q1016 RMK 1SC050 A3002     MAX WIND 18KT=,
20180116_090000.003,0,RJFN,,,,0,20180116090000,-1,-1,-1,-1,170,-1,9,-1,-1,-1,-1,,9999,0,0,2,FEW 50   BKN 170,1,16,1,8,1016,RJFN 160900Z 17009KT 9999 FEW050 BKN170 16/08 Q1016 RMK 1SC050     5AC170 A3001=,
20180116_100000.003,0,RJFN,,,,0,20180116100000,-1,-1,-1,-1,210,-1,6,-1,-1,-1,-1,,9999,0,0,2,FEW 50   BKN 180,1,15,1,9,1016,RJFN 161000Z 21006KT 9999 FEW050 BKN180 15/09 Q1016 RMK 1SC050     6AC180 A3003=,
20180116_110000.005,0,RJFN,,,,0,20180116110000,-1,-1,-1,-1,220,-1,6,-1,-1,-1,-1,,9999,0,0,3,FEW 50   BKN 140   BKN 180,1,14,1,9,1016,RJFN 161100Z 22006KT 9999 FEW050 BKN140 BKN180 14/09 Q1016 RMK     1SC050 5AC140 7AC180 A3002=,
20180116_120000.003,0,RJFN,,,,0,20180116120000,-1,-1,-1,-1,240,-1,5,-1,-1,200,260,,9999,0,0,2,FEW 30   BKN 140,1,13,1,9,1016,RJFN 161200Z 24005KT 200V260 9999 FEW030 BKN140 13/09 Q1016     RMK 1CU030 7AC140 A3001=,
20180116_130000.003,0,RJFN,,,,0,20180116130000,-1,-1,-1,-1,260,-1,4,-1,-1,-1,-1,,9999,0,0,3,FEW 30   SCT 50   BKN 120,1,13,1,9,1015,RJFN 161300Z 26004KT 9999 FEW030 SCT050 BKN120 13/09 Q1015 RMK     1CU030 4SC050 7AC120 A2999=,
20180116_140000.003,0,RJFN,,,,0,20180116140000,-1,-1,-1,-1,240,-1,6,-1,-1,-1,-1,,9999,0,0,3,FEW 30   BKN 50   BKN 120,1,14,1,10,1014,RJFN 161400Z 24006KT 9999 FEW030 BKN050 BKN120 14/10 Q1014 RMK     1CU030 6SC050 7AC120 A2996=,
20180116_150000.003,0,RJFN,,,,0,20180116150000,-1,-1,-1,-1,230,-1,4,-1,-1,-1,-1,,9999,0,0,3,FEW 30   BKN 50   BKN 100,1,15,1,10,1013,RJFN 161500Z 23004KT 9999 FEW030 BKN050 BKN100 15/10 Q1013 RMK     1CU030 6SC050 7AC100 A2994=,
20180116_160000.003,0,RJFN,,,,0,20180116160000,-1,-1,-1,-1,230,-1,5,-1,-1,-1,-1,,9999,0,0,3,FEW 30   BKN 50   BKN 100,1,14,1,10,1013,RJFN 161600Z 23005KT 9999 FEW030 BKN050 BKN100 14/10 Q1013 RMK     1CU030 5SC050 7AC100 A2991=,
20180116_170000.003,0,RJFN,,,,0,20180116170000,-1,-1,-1,-1,250,-1,2,-1,-1,-1,-1,,9999,0,1,3,FEW 30   BKN 50   BKN 70,1,14,1,11,1012,RJFN 161700Z 25002KT 9999 -SHRA FEW030 BKN050 BKN070 14/11     Q1012 RMK 1CU030 5SC050 7AC070 A2990=,- RA SH
20180116_180000.003,0,RJFN,,,,0,20180116180000,-1,-1,-1,-1,290,-1,3,-1,-1,240,320,,9999,0,1,3,FEW 15   BKN 30   BKN 50,1,14,1,11,1012,RJFN 161800Z 29003KT 240V320 9999 -SHRA FEW015 BKN030 BKN050     14/11 Q1012 RMK 2CU015 5CU030 7SC050 A2990=,- RA SH
20180116_190000.003,0,RJFN,,,,0,20180116190000,-1,-1,-1,-1,290,-1,6,-1,-1,-1,-1,,5000,0,2,3,FEW 15   BKN 30   BKN 50,1,13,1,13,1011,RJFN 161900Z 29006KT 5000 -SHRA BR FEW015 BKN030 BKN050 13/13     Q1011 RMK 1CU015 5CU030 7SC050 A2988=,- RA SH; BR
20180116_200000.003,0,RJFN,,,,0,20180116200000,-1,-1,-1,-1,290,-1,3,-1,-1,260,320,,3000,0,2,3,FEW 6   SCT 15   BKN 25,1,13,1,13,1011,RJFN 162000Z 29003KT 260V320 3000 SHRA BR FEW006 SCT015 BKN025     13/13 Q1011 RMK 2ST006 3CU015 7CU025 A2988=,RA SH; BR
20180116_210000.003,0,RJFN,,,,0,20180116210000,-1,-1,-1,-1,290,-1,5,-1,-1,-1,-1,,3500,0,2,3,FEW 8   BKN 30   BKN 50,1,13,1,13,1012,RJFN 162100Z 29005KT 3500 SHRA BR FEW008 BKN030 BKN050 13/13     Q1012 RMK 1ST008 6CU030 7SC050 A2988 20/13 R015=,RA SH; BR
20180116_220000.003,0,RJFN,,,,0,20180116220000,-1,-1,-1,-1,280,-1,4,-1,-1,-1,-1,,4500,0,2,3,FEW 15   BKN 50   BKN 80,1,13,1,13,1012,RJFN 162200Z 28004KT 4500 -SHRA BR FEW015 BKN050 BKN080 13/13     Q1012 RMK 2CU015 5SC050 7AC080 A2989=,- RA SH; BR
20180116_230000.003,0,RJFN,,,,0,20180116230000,-1,-1,-1,-1,240,-1,3,-1,-1,-1,-1,,9999,0,2,2,FEW 2   OVC 90,1,12,1,12,1011,RJFN 162300Z 24003KT 9999 -SHRA PRFG FEW002 OVC090 12/12 Q1011     RMK 1ST002 8AC090 A2988 FG BANK 1000M SE-SW 1ST005 W=,- RA SH; PR FG
20180117_000000.004,0,RJFN,,,,0,20180117000000,-1,-1,-1,-1,250,-1,5,-1,-1,-1,-1,,7000,0,1,2,FEW 1   BKN 100,1,13,1,13,1011,RJFN 170000Z 25005KT 7000 PRFG FEW001 BKN100 13/13 Q1011 RMK     1ST001 7AC100 A2988 FG BANK 2000M NW-N 2ST003 ALL QUAD=,PR FG
20180117_010000.003,0,RJFN,,,,0,20180117010000,-1,-1,-1,-1,240,-1,9,-1,-1,-1,-1,,9999,0,0,2,FEW 1   BKN 140,1,15,1,14,1012,RJFN 170100Z 24009KT 9999 FEW001 BKN140 15/14 Q1012 RMK 1ST001     5AC140 A2989 1ST001 W-N 1ST005 SE AND SW=,
20180117_020000.006,0,RJFN,,,,0,20180117020000,-1,-1,-1,-1,220,-1,11,-1,-1,-1,-1,,9999,0,0,2,FEW 5   SCT 140,1,17,1,16,1011,RJFN 170200Z 22011KT 9999 FEW005 SCT140 17/16 Q1011 RMK 1ST005     4AC140 A2987 MAX WIND 15KT 1ST005 S-NE=,
20180117_023000.001,1,RJFN,,,,0,20180117020000,-1,-1,-1,-1,220,-1,11,-1,-1,-1,-1,,9999,0,0,2,FEW 5   SCT 140,1,17,1,16,1011,RJFN 170200Z 22011KT 9999 FEW005 SCT140 17/16 Q1011 RMK     1ST005 4AC140 A2987 MAX WIND 15KT 1ST005 S-NW=,
20180117_030000.004,0,RJFN,,,,0,20180117030000,-1,-1,-1,-1,210,-1,12,-1,-1,-1,-1,,9999,0,0,2,FEW 8   SCT 50,1,18,1,15,1011,RJFN 170300Z 21012KT 9999 FEW008 SCT050 18/15 Q1011 RMK 1ST008     4SC050 A2986 1ST008 NW=,
20180117_040000.004,0,RJFN,,,,0,20180117040000,-1,-1,-1,-1,230,-1,13,-1,-1,-1,-1,,9999,0,0,2,FEW 15   SCT 50,1,20,1,12,1010,RJFN 170400Z 23013KT 9999 FEW015 SCT050 20/12 Q1010 RMK 1CU015     4SC050 A2983 MAX WIND 21KT=,
20180117_050000.004,0,RJFN,,,,0,20180117050000,-1,-1,-1,-1,250,-1,15,-1,-1,-1,-1,,9999,0,0,2,FEW 15   BKN 50,1,20,1,11,1010,RJFN 170500Z 25015KT 9999 FEW015 BKN050 20/11 Q1010 RMK 1CU015     6SC050 A2983 MAX WIND 23KT=,
20180117_060000.003,0,RJFN,,,,0,20180117060000,-1,-1,-1,-1,250,-1,18,-1,-1,-1,-1,,9999,0,0,2,FEW 15   BKN 50,1,18,1,10,1010,RJFN 170600Z 25018KT 9999 FEW015 BKN050 18/10 Q1010 RMK 1CU015     5SC050 A2984=,
20180117_070000.004,0,RJFN,,,,0,20180117070000,-1,-1,-1,-1,250,-1,17,-1,-1,-1,-1,,9999,0,0,2,FEW 15   SCT 50,1,19,1,10,1011,RJFN 170700Z 25017KT 9999 FEW015 SCT050 19/10 Q1011 RMK 1CU015     4SC050 A2986=,
20180117_080000.003,0,RJFN,,,,0,20180117080000,-1,-1,-1,-1,280,-1,20,-1,31,-1,-1,,9999,0,0,1,FEW 15,1,17,1,8,1011,RJFN 170800Z 28020G31KT 9999 FEW015 17/08 Q1011 RMK 1CU015     A2988=,
20180117_090000.004,0,RJFN,,,,0,20180117090000,-1,-1,-1,-1,280,-1,14,-1,-1,-1,-1,,9999,0,0,1,FEW 30,1,16,1,7,1012,RJFN 170900Z 28014KT 9999 FEW030 16/07 Q1012 RMK 1CU030 A2989=,
20180117_100000.003,0,RJFN,,,,0,20180117100000,-1,-1,-1,-1,270,-1,10,-1,-1,-1,-1,,9999,0,0,1,FEW 30,1,14,1,7,1013,RJFN 171000Z 27010KT 9999 FEW030 14/07 Q1013 RMK 1CU030 A2994=,
20180117_110000.004,0,RJFN,,,,0,20180117110000,-1,-1,-1,-1,270,-1,9,-1,-1,-1,-1,,9999,0,0,1,FEW 30,1,13,1,7,1014,RJFN 171100Z 27009KT 9999 FEW030 13/07 Q1014 RMK 1CU030 A2997=,
20180117_120000.004,0,RJFN,,,,0,20180117120000,-1,-1,-1,-1,220,-1,5,-1,-1,-1,-1,,9999,0,0,1,FEW 30,1,10,1,8,1016,RJFN 171200Z 22005KT 9999 FEW030 10/08 Q1016 RMK 1CU030 A3000=,
20180117_130000.003,0,RJFN,,,,0,20180117130000,-1,-1,-1,-1,260,-1,5,-1,-1,-1,-1,,9999,0,0,1,FEW 30,1,10,1,8,1016,RJFN 171300Z 26005KT 9999 FEW030 10/08 Q1016 RMK 1CU030 A3003=,
20180117_140000.003,0,RJFN,,,,0,20180117140000,-1,-1,-1,-1,260,-1,7,-1,-1,-1,-1,,9999,0,0,1,FEW 30,1,7,1,6,1017,RJFN 171400Z 26007KT 9999 FEW030 07/06 Q1017 RMK 1CU030 A3004=,
20180117_150000.003,0,RJFN,,,,0,20180117150000,-1,-1,-1,-1,280,-1,5,-1,-1,-1,-1,,9999,0,0,1,FEW 30,1,8,1,7,1017,RJFN 171500Z 28005KT 9999 FEW030 08/07 Q1017 RMK 1CU030 A3004=,
20180117_160000.003,0,RJFN,,,,0,20180117160000,-1,-1,-1,-1,280,-1,7,-1,-1,-1,-1,,9999,0,0,1,FEW 30,1,7,1,6,1017,RJFN 171600Z 28007KT 9999 FEW030 07/06 Q1017 RMK 1CU030 A3004=,
20180117_170000.003,0,RJFN,,,,0,20180117170000,-1,-1,-1,-1,250,-1,6,-1,-1,-1,-1,,9999,0,0,1,FEW 30,1,7,1,6,1017,RJFN 171700Z 25006KT 9999 FEW030 07/06 Q1017 RMK 1CU030 A3004=,
20180117_180000.003,0,RJFN,,,,0,20180117180000,-1,-1,-1,-1,270,-1,6,-1,-1,-1,-1,,9999,0,0,1,FEW 30,1,6,1,6,1016,RJFN 171800Z 27006KT 9999 FEW030 06/06 Q1016 RMK 1CU030 A3003=,
20180117_190000.004,0,RJFN,,,,0,20180117190000,-1,-1,-1,-1,280,-1,6,-1,-1,-1,-1,,9999,0,0,1,FEW 30,1,6,1,5,1016,RJFN 171900Z 28006KT 9999 FEW030 06/05 Q1016 RMK 1CU030 A3003=,
20180117_200000.003,0,RJFN,,,,0,20180117200000,-1,-1,-1,-1,260,-1,8,-1,-1,-1,-1,,9999,0,0,1,FEW 30,1,6,1,5,1017,RJFN 172000Z 26008KT 9999 FEW030 06/05 Q1017 RMK 1CU030 A3004=,
20180117_210000.003,0,RJFN,,,,0,20180117210000,-1,-1,-1,-1,240,-1,7,-1,-1,-1,-1,,9999,0,0,1,FEW 30,1,6,1,5,1018,RJFN 172100Z 24007KT 9999 FEW030 06/05 Q1018 RMK 1CU030 A3007     27031KT/0750 21/05 R005=,
20180117_220000.004,0,RJFN,,,,0,20180117220000,-1,-1,-1,-1,240,-1,8,-1,-1,-1,-1,,9999,0,0,1,FEW 30,1,5,1,5,1018,RJFN 172200Z 24008KT 9999 FEW030 05/05 Q1018 RMK 1CU030 A3007=,
20180117_230000.003,0,RJFN,,,,0,20180117230000,-1,-1,-1,-1,250,-1,10,-1,-1,-1,-1,,9999,0,0,1,FEW 30,1,6,1,6,1018,RJFN 172300Z 25010KT 9999 FEW030 06/06 Q1018 RMK 1CU030 A3007=,
20180118_000000.003,0,RJFN,,,,0,20180118000000,-1,-1,-1,-1,260,-1,4,-1,-1,-1,-1,,9999,0,0,1,FEW 30,1,8,1,6,1018,RJFN 180000Z 26004KT 9999 FEW030 08/06 Q1018 RMK 1CU030 A3008=,
20180118_010000.003,0,RJFN,,,,0,20180118010000,-1,-1,-1,-1,999,-1,2,-1,-1,-1,-1,,9999,0,0,1,FEW 15,1,11,1,8,1019,RJFN 180100Z VRB02KT 9999 FEW015 11/08 Q1019 RMK 1CU015 A3010=,
20180118_020000.003,0,RJFN,,,,0,20180118020000,-1,-1,-1,-1,70,-1,5,-1,-1,40,100,,9999,0,0,1,FEW 25,1,13,1,7,1019,RJFN 180200Z 07005KT 040V100 9999 FEW025 13/07 Q1019 RMK     1CU025 A3011=,
20180118_030000.004,0,RJFN,,,,0,20180118030000,-1,-1,-1,-1,70,-1,3,-1,-1,320,130,,9999,0,0,1,FEW 25,1,14,1,7,1019,RJFN 180300Z 07003KT 320V130 9999 FEW025 14/07 Q1019 RMK     1CU025 A3009 VOLCANIC ASH CLOUD S=,
20180118_040000.003,0,RJFN,,,,0,20180118040000,-1,-1,-1,-1,150,-1,5,-1,-1,100,210,,9999,0,0,1,FEW 25,1,15,1,7,1017,RJFN 180400Z 15005KT 100V210 9999 FEW025 15/07 Q1017 RMK     1CU025 A3006 VOLCANIC ASH CLOUD SE=,
20180118_050000.003,0,RJFN,,,,0,20180118050000,-1,-1,-1,-1,110,-1,7,-1,-1,80,140,,9999,0,0,1,FEW 25,1,15,1,8,1017,RJFN 180500Z 11007KT 080V140 9999 FEW025 15/08 Q1017 RMK     1CU025 A3005 VOLCANIC ASH CLOUD E=,
20180118_060000.003,0,RJFN,,,,0,20180118060000,-1,-1,-1,-1,90,-1,7,-1,-1,-1,-1,,9999,0,0,1,FEW 25,1,15,1,8,1017,RJFN 180600Z 09007KT 9999 FEW025 15/08 Q1017 RMK 1CU025 A3004     VOLCANIC ASH CLOUD E=,
20180118_070000.003,0,RJFN,,,,0,20180118070000,-1,-1,-1,-1,90,-1,6,-1,-1,60,120,,9999,0,0,1,FEW 25,1,14,1,7,1017,RJFN 180700Z 09006KT 060V120 9999 FEW025 14/07 Q1017 RMK     1CU025 A3004=,
20180118_080000.003,0,RJFN,,,,0,20180118080000,-1,-1,-1,-1,60,-1,4,-1,-1,20,100,,9999,0,0,1,FEW 25,1,14,1,7,1017,RJFN 180800Z 06004KT 020V100 9999 FEW025 14/07 Q1017 RMK     1CU025 A3006=,
20180118_090000.003,0,RJFN,,,,0,20180118090000,-1,-1,-1,-1,50,-1,1,-1,-1,-1,-1,,9999,0,0,1,FEW 50,1,13,1,8,1018,RJFN 180900Z 05001KT 9999 FEW050 13/08 Q1018 RMK 1SC050 A3009=,
20180118_100000.003,0,RJFN,,,,0,20180118100000,-1,-1,-1,-1,280,-1,2,-1,-1,-1,-1,,9999,0,0,1,FEW 50,1,11,1,7,1019,RJFN 181000Z 28002KT 9999 FEW050 11/07 Q1019 RMK 1SC050 A3010=,
20180118_110000.003,0,RJFN,,,,0,20180118110000,-1,-1,-1,-1,300,-1,3,-1,-1,-1,-1,,9999,0,0,1,SCT 25,1,11,1,8,1019,RJFN 181100Z 30003KT 9999 SCT025 11/08 Q1019 RMK 3CU025 A3012=,
20180118_120000.003,0,RJFN,,,,0,20180118120000,-1,-1,-1,-1,280,-1,3,-1,-1,-1,-1,,9999,0,0,2,FEW 15   SCT 25,1,11,1,8,1019,RJFN 181200Z 28003KT 9999 FEW015 SCT025 11/08 Q1019 RMK 1CU015     4CU025 A3012=,
20180118_130000.003,0,RJFN,,,,0,20180118130000,-1,-1,-1,-1,290,-1,3,-1,-1,-1,-1,,9999,0,0,2,FEW 20   BKN 40,1,11,1,8,1020,RJFN 181300Z 29003KT 9999 FEW020 BKN040 11/08 Q1020 RMK 1CU020     5CU040 A3013=,
20180118_140000.003,0,RJFN,,,,0,20180118140000,-1,-1,-1,-1,240,-1,5,-1,-1,-1,-1,,9999,0,0,2,FEW 20   SCT 40,1,10,1,8,1020,RJFN 181400Z 24005KT 9999 FEW020 SCT040 10/08 Q1020 RMK 1CU020     4CU040 A3013=,
20180118_150000.003,0,RJFN,,,,0,20180118150000,-1,-1,-1,-1,230,-1,3,-1,-1,-1,-1,,9999,0,0,2,FEW 20   BKN 30,1,10,1,8,1020,RJFN 181500Z 23003KT 9999 FEW020 BKN030 10/08 Q1020 RMK 1CU020     5CU030 A3013=,
20180118_160000.003,0,RJFN,,,,0,20180118160000,-1,-1,-1,-1,250,-1,3,-1,-1,-1,-1,,9999,0,0,2,FEW 20   BKN 30,1,9,1,8,1019,RJFN 181600Z 25003KT 9999 FEW020 BKN030 09/08 Q1019 RMK 1CU020     6CU030 A3011=,
20180118_170000.003,0,RJFN,,,,0,20180118170000,-1,-1,-1,-1,250,-1,3,-1,-1,-1,-1,,9999,0,0,2,FEW 20   BKN 30,1,8,1,7,1019,RJFN 181700Z 25003KT 9999 FEW020 BKN030 08/07 Q1019 RMK 1CU020     5CU030 A3010=,
20180118_180000.003,0,RJFN,,,,0,20180118180000,-1,-1,-1,-1,290,-1,5,-1,-1,-1,-1,,9999,0,0,2,FEW 20   SCT 30,1,7,1,7,1019,RJFN 181800Z 29005KT 9999 FEW020 SCT030 07/07 Q1019 RMK 1CU020     3CU030 A3010=,
20180118_190000.003,0,RJFN,,,,0,20180118190000,-1,-1,-1,-1,260,-1,4,-1,-1,-1,-1,,9999,0,0,2,FEW 20   BKN 30,1,8,1,8,1019,RJFN 181900Z 26004KT 9999 FEW020 BKN030 08/08 Q1019 RMK 1CU020     6CU030 A3011=,
20180118_200000.003,0,RJFN,,,,0,20180118200000,-1,-1,-1,-1,250,-1,4,-1,-1,-1,-1,,9999,0,0,2,FEW 20   BKN 35,1,8,1,8,1019,RJFN 182000Z 25004KT 9999 FEW020 BKN035 08/08 Q1019 RMK 1CU020     6CU035 A3011=,
20180118_210000.004,0,RJFN,,,,0,20180118210000,-1,-1,-1,-1,280,-1,3,-1,-1,-1,-1,,9999,0,0,2,FEW 20   BKN 40,1,7,1,7,1019,RJFN 182100Z 28003KT 9999 FEW020 BKN040 07/07 Q1019 RMK 1CU020     5CU040 A3010 16/06=,
20180118_220000.003,0,RJFN,,,,0,20180118220000,-1,-1,-1,-1,260,-1,4,-1,-1,-1,-1,,9999,0,0,2,FEW 20   BKN 35,1,7,1,7,1019,RJFN 182200Z 26004KT 9999 FEW020 BKN035 07/07 Q1019 RMK 1CU020     7CU035 A3010=,
20180118_230000.004,0,RJFN,,,,0,20180118230000,-1,-1,-1,-1,270,-1,4,-1,-1,260,320,,9999,0,0,2,FEW 25   BKN 35,1,7,1,7,1019,RJFN 182300Z 27004KT 260V320 9999 FEW025 BKN035 07/07 Q1019     RMK 1CU025 7CU035 A3012=,
20180119_000000.003,0,RJFN,,,,0,20180119000000,-1,-1,-1,-1,999,-1,2,-1,-1,-1,-1,,9999,0,0,2,SCT 15   BKN 35,1,9,1,8,1020,RJFN 190000Z VRB02KT 9999 SCT015 BKN035 09/08 Q1020 RMK 3CU015     7CU035 A3013=,
20180119_010000.004,0,RJFN,,,,0,20180119010000,-1,-1,-1,-1,270,-1,5,-1,-1,-1,-1,,9999,0,0,2,FEW 15   BKN 35,1,9,1,8,1021,RJFN 190100Z 27005KT 9999 FEW015 BKN035 09/08 Q1021 RMK 1CU015     7CU035 A3016=,
20180119_020000.003,0,RJFN,,,,0,20180119020000,-1,-1,-1,-1,230,-1,6,-1,-1,-1,-1,,9999,0,0,3,FEW 15   BKN 25   BKN 35,1,11,1,8,1020,RJFN 190200Z 23006KT 9999 FEW015 BKN025 BKN035 11/08 Q1020 RMK     1CU015 5CU025 7CU035 A3015=,
20180119_030000.003,0,RJFN,,,,0,20180119030000,-1,-1,-1,-1,190,-1,5,-1,-1,160,250,,9999,0,0,2,FEW 15   BKN 35,1,12,1,6,1019,RJFN 190300Z 19005KT 160V250 9999 FEW015 BKN035 12/06 Q1019     RMK 1CU015 5CU035 A3010=,
20180119_040000.003,0,RJFN,,,,0,20180119040000,-1,-1,-1,-1,160,-1,6,-1,-1,130,190,,9999,0,0,2,FEW 20   SCT 35,1,13,1,7,1018,RJFN 190400Z 16006KT 130V190 9999 FEW020 SCT035 13/07 Q1018     RMK 1CU020 4CU035 A3007=,
20180119_050000.004,0,RJFN,,,,0,20180119050000,-1,-1,-1,-1,160,-1,6,-1,-1,130,190,,9999,0,0,1,FEW 30,1,14,1,7,1017,RJFN 190500Z 16006KT 130V190 9999 FEW030 14/07 Q1017 RMK     1CU030 A3003=,
20180119_060000.003,0,RJFN,,,,0,20180119060000,-1,-1,-1,-1,110,-1,7,-1,-1,-1,-1,,9999,0,0,2,FEW 30   BKN 40,1,13,1,8,1016,RJFN 190600Z 11007KT 9999 FEW030 BKN040 13/08 Q1016 RMK 1CU030     5SC040 A3003=,
20180119_070000.003,0,RJFN,,,,0,20180119070000,-1,-1,-1,-1,100,-1,7,-1,-1,70,130,,9999,0,0,1,FEW 30,1,13,1,9,1017,RJFN 190700Z 10007KT 070V130 9999 FEW030 13/09 Q1017 RMK     1CU030 A3004=,
20180119_080000.003,0,RJFN,,,,0,20180119080000,-1,-1,-1,-1,100,-1,4,-1,-1,-1,-1,,9999,0,0,1,FEW 30,1,12,1,8,1017,RJFN 190800Z 10004KT 9999 FEW030 12/08 Q1017 RMK 1CU030 A3004=,
20180119_090000.004,0,RJFN,,,,0,20180119090000,-1,-1,-1,-1,10,-1,3,-1,-1,340,40,,8000,0,0,2,FEW 15   SCT 25,1,12,1,8,1018,RJFN 190900Z 01003KT 340V040 8000 FEW015 SCT025 12/08 Q1018     RMK 1CU015 4CU025 A3007=,
20180119_100000.003,0,RJFN,,,,0,20180119100000,-1,-1,-1,-1,360,-1,4,-1,-1,-1,-1,,8000,0,0,2,FEW 15   SCT 25,1,11,1,8,1017,RJFN 191000Z 36004KT 8000 FEW015 SCT025 11/08 Q1017 RMK 1CU015     3CU025 A3006=,
20180119_110000.003,0,RJFN,,,,0,20180119110000,-1,-1,-1,-1,320,-1,4,-1,-1,-1,-1,,8000,0,0,2,FEW 25   SCT 40,1,9,1,7,1018,RJFN 191100Z 32004KT 8000 FEW025 SCT040 09/07 Q1018 RMK 1CU025     3SC040 A3007=,
20180119_120000.004,0,RJFN,,,,0,20180119120000,-1,-1,-1,-1,300,-1,4,-1,-1,-1,-1,,8000,0,0,1,FEW 25,1,9,1,7,1018,RJFN 191200Z 30004KT 8000 FEW025 09/07 Q1018 RMK 1CU025 A3007=,
20180119_130000.003,0,RJFN,,,,0,20180119130000,-1,-1,-1,-1,270,-1,9,-1,-1,-1,-1,,8000,0,0,1,SCT 25,1,7,1,7,1018,RJFN 191300Z 27009KT 8000 SCT025 07/07 Q1018 RMK 3CU025 A3007=,
20180119_140000.003,0,RJFN,,,,0,20180119140000,-1,-1,-1,-1,270,-1,9,-1,-1,-1,-1,,8000,0,0,2,FEW 20   SCT 25,1,8,1,6,1018,RJFN 191400Z 27009KT 8000 FEW020 SCT025 08/06 Q1018 RMK 1CU020     4CU025 A3007=,
20180119_150000.003,0,RJFN,,,,0,20180119150000,-1,-1,-1,-1,260,-1,5,-1,-1,-1,-1,,8000,0,0,2,FEW 20   SCT 25,1,6,1,5,1018,RJFN 191500Z 26005KT 8000 FEW020 SCT025 06/05 Q1018 RMK 1CU020     4CU025 A3007=,
20180119_160000.003,0,RJFN,,,,0,20180119160000,-1,-1,-1,-1,250,-1,6,-1,-1,-1,-1,,8000,0,0,2,FEW 20   BKN 25,1,6,1,5,1018,RJFN 191600Z 25006KT 8000 FEW020 BKN025 06/05 Q1018 RMK 1CU020     5CU025 A3008=,
20180119_170000.003,0,RJFN,,,,0,20180119170000,-1,-1,-1,-1,250,-1,5,-1,-1,-1,-1,,8000,0,0,2,FEW 20   BKN 25,1,6,1,5,1018,RJFN 191700Z 25005KT 8000 FEW020 BKN025 06/05 Q1018 RMK 1CU020     7CU025 A3007=,
20180119_180000.004,0,RJFN,,,,0,20180119180000,-1,-1,-1,-1,270,-1,7,-1,-1,-1,-1,,8000,0,0,2,FEW 20   SCT 25,1,6,1,4,1018,RJFN 191800Z 27007KT 8000 FEW020 SCT025 06/04 Q1018 RMK 1CU020     4CU025 A3007=,
20180119_190000.004,0,RJFN,,,,0,20180119190000,-1,-1,-1,-1,290,-1,5,-1,-1,-1,-1,,8000,0,0,2,FEW 20   SCT 110,1,5,1,4,1017,RJFN 191900Z 29005KT 8000 FEW020 SCT110 05/04 Q1017 RMK 1CU020     3AC110 A3006=,
20180119_200000.003,0,RJFN,,,,0,20180119200000,-1,-1,-1,-1,270,-1,8,-1,-1,-1,-1,,9000,0,0,2,FEW 25   BKN 110,1,6,1,3,1017,RJFN 192000Z 27008KT 9000 FEW025 BKN110 06/03 Q1017 RMK 1CU025     5AC110 A3006=,
20180119_210000.003,0,RJFN,,,,0,20180119210000,-1,-1,-1,-1,280,-1,5,-1,-1,-1,-1,,9000,0,0,1,FEW 20,1,4,1,2,1018,RJFN 192100Z 28005KT 9000 FEW020 04/02 Q1018 RMK 1CU020 A3007     15/04=,
20180119_220000.003,0,RJFN,,,,0,20180119220000,-1,-1,-1,-1,270,-1,6,-1,-1,-1,-1,,9999,0,0,1,FEW 20,1,4,1,3,1018,RJFN 192200Z 27006KT 9999 FEW020 04/03 Q1018 RMK 1CU020 A3008=,
20180119_230000.003,0,RJFN,,,,0,20180119230000,-1,-1,-1,-1,280,-1,6,-1,-1,-1,-1,,9999,0,0,1,FEW 40,1,5,1,3,1018,RJFN 192300Z 28006KT 9999 FEW040 05/03 Q1018 RMK 1SC040 A3009=,
20180120_000000.003,0,RJFN,,,,0,20180120000000,-1,-1,-1,-1,280,-1,5,-1,-1,-1,-1,,9999,0,0,1,FEW 30,1,7,1,3,1019,RJFN 200000Z 28005KT 9999 FEW030 07/03 Q1019 RMK 1CU030 A3011=,
20180120_010000.003,0,RJFN,,,,0,20180120010000,-1,-1,-1,-1,280,-1,5,-1,-1,-1,-1,,9999,0,0,1,FEW 30,1,9,1,3,1019,RJFN 200100Z 28005KT 9999 FEW030 09/03 Q1019 RMK 1CU030 A3011=,
20180120_020000.004,0,RJFN,,,,0,20180120020000,-1,-1,-1,-1,999,-1,2,-1,-1,-1,-1,,9999,0,0,1,FEW 30,1,12,1,4,1019,RJFN 200200Z VRB02KT 9999 FEW030 12/04 Q1019 RMK 1CU030 A3010=,
20180120_030000.003,0,RJFN,,,,0,20180120030000,-1,-1,-1,-1,999,-1,2,-1,-1,-1,-1,,9999,0,0,1,FEW 30,1,13,1,4,1018,RJFN 200300Z VRB02KT 9999 FEW030 13/04 Q1018 RMK 1CU030 A3008=,
20180120_040000.003,0,RJFN,,,,0,20180120040000,-1,-1,-1,-1,100,-1,4,-1,-1,40,120,,9999,0,0,1,FEW 30,1,14,1,5,1017,RJFN 200400Z 10004KT 040V120 9999 FEW030 14/05 Q1017 RMK     1CU030 A3005=,
20180120_050000.003,0,RJFN,,,,0,20180120050000,-1,-1,-1,-1,130,-1,7,-1,-1,90,150,,9999,0,0,1,FEW 30,1,13,1,5,1017,RJFN 200500Z 13007KT 090V150 9999 FEW030 13/05 Q1017 RMK     1CU030 A3003=,
20180120_060000.003,0,RJFN,,,,0,20180120060000,-1,-1,-1,-1,120,-1,5,-1,-1,80,150,,9999,0,0,1,FEW 30,1,14,1,5,1016,RJFN 200600Z 12005KT 080V150 9999 FEW030 14/05 Q1016 RMK     1CU030 A3003=,
20180120_070000.003,0,RJFN,,,,0,20180120070000,-1,-1,-1,-1,110,-1,7,-1,-1,-1,-1,,9999,0,0,1,FEW 30,1,13,1,5,1016,RJFN 200700Z 11007KT 9999 FEW030 13/05 Q1016 RMK 1CU030 A3003=,
20180120_080000.003,0,RJFN,,,,0,20180120080000,-1,-1,-1,-1,80,-1,3,-1,-1,-1,-1,,9999,0,0,1,FEW 30,1,12,1,6,1017,RJFN 200800Z 08003KT 9999 FEW030 12/06 Q1017 RMK 1CU030 A3004=,
20180120_090000.003,0,RJFN,,,,0,20180120090000,-1,-1,-1,-1,30,-1,3,-1,-1,-1,-1,,9000,0,0,1,FEW 30,1,12,1,6,1017,RJFN 200900Z 03003KT 9000 FEW030 12/06 Q1017 RMK 1CU030 A3006=,
20180120_100000.003,0,RJFN,,,,0,20180120100000,-1,-1,-1,-1,340,-1,4,-1,-1,-1,-1,,8000,0,0,2,FEW 25   BKN 35,1,11,1,6,1018,RJFN 201000Z 34004KT 8000 FEW025 BKN035 11/06 Q1018 RMK 1CU025     5SC035 A3007=,
20180120_110000.003,0,RJFN,,,,0,20180120110000,-1,-1,-1,-1,330,-1,4,-1,-1,-1,-1,,8000,0,0,2,FEW 25   BKN 40,1,10,1,6,1019,RJFN 201100Z 33004KT 8000 FEW025 BKN040 10/06 Q1019 RMK 1CU025     7SC040 A3010=,
20180120_120000.003,0,RJFN,,,,0,20180120120000,-1,-1,-1,-1,310,-1,3,-1,-1,-1,-1,,8000,0,0,2,FEW 25   BKN 40,1,9,1,6,1019,RJFN 201200Z 31003KT 8000 FEW025 BKN040 09/06 Q1019 RMK 1CU025     7SC040 A3010=,
20180120_130000.003,0,RJFN,,,,0,20180120130000,-1,-1,-1,-1,10,-1,4,-1,-1,340,60,,8000,0,0,2,FEW 30   BKN 40,1,8,1,6,1018,RJFN 201300Z 01004KT 340V060 8000 FEW030 BKN040 08/06 Q1018     RMK 1CU030 7SC040 A3009=,
20180120_140000.003,0,RJFN,,,,0,20180120140000,-1,-1,-1,-1,350,-1,3,-1,-1,-1,-1,,7000,0,0,2,FEW 30   BKN 40,1,9,1,6,1019,RJFN 201400Z 35003KT 7000 FEW030 BKN040 09/06 Q1019 RMK 1CU030     6SC040 A3009=,
20180120_150000.003,0,RJFN,,,,0,20180120150000,-1,-1,-1,-1,300,-1,3,-1,-1,-1,-1,,7000,0,0,2,FEW 30   SCT 40,1,8,1,5,1019,RJFN 201500Z 30003KT 7000 FEW030 SCT040 08/05 Q1019 RMK 1CU030     4SC040 A3010=,
20180120_160000.003,0,RJFN,,,,0,20180120160000,-1,-1,-1,-1,280,-1,5,-1,-1,-1,-1,,7000,0,0,2,FEW 30   BKN 40,1,7,1,5,1018,RJFN 201600Z 28005KT 7000 FEW030 BKN040 07/05 Q1018 RMK 1CU030     5SC040 A3008=,
20180120_170000.003,0,RJFN,,,,0,20180120170000,-1,-1,-1,-1,300,-1,5,-1,-1,-1,-1,,8000,0,0,2,FEW 30   SCT 40,1,8,1,5,1018,RJFN 201700Z 30005KT 8000 FEW030 SCT040 08/05 Q1018 RMK 1CU030     4SC040 A3007=,
20180120_180000.003,0,RJFN,,,,0,20180120180000,-1,-1,-1,-1,300,-1,7,-1,-1,-1,-1,,6000,0,0,2,FEW 30   BKN 40,1,8,1,5,1018,RJFN 201800Z 30007KT 6000 FEW030 BKN040 08/05 Q1018 RMK 1CU030     5SC040 A3007=,
20180120_190000.004,0,RJFN,,,,0,20180120190000,-1,-1,-1,-1,280,-1,4,-1,-1,-1,-1,,8000,0,0,2,FEW 30   BKN 45,1,7,1,5,1018,RJFN 201900Z 28004KT 8000 FEW030 BKN045 07/05 Q1018 RMK 1CU030     6SC045 A3007=,
20180120_200000.003,0,RJFN,,,,0,20180120200000,-1,-1,-1,-1,340,-1,2,-1,-1,-1,-1,,8000,0,0,2,FEW 30   BKN 40,1,7,1,5,1018,RJFN 202000Z 34002KT 8000 FEW030 BKN040 07/05 Q1018 RMK 1CU030     5SC040 A3006=,
20180120_210000.003,0,RJFN,,,,0,20180120210000,-1,-1,-1,-1,280,-1,4,-1,-1,-1,-1,,6000,0,0,3,FEW 20   BKN 35   BKN -9999,1,7,1,5,1018,RJFN 202100Z 28004KT 6000 FEW020 BKN035 BKN/// 07/05 Q1018 RMK     1CU020 5SC035 A3007 14/07=,
20180120_220000.003,0,RJFN,,,,0,20180120220000,-1,-1,-1,-1,310,-1,3,-1,-1,280,350,,7000,0,0,3,FEW 35   BKN 170   BKN 200,1,6,1,5,1018,RJFN 202200Z 31003KT 280V350 7000 FEW035 BKN170 BKN200 06/05     Q1018 RMK 2SC035 6AC170 A3008=,
20180120_230000.003,0,RJFN,,,,0,20180120230000,-1,-1,-1,-1,310,-1,2,-1,-1,-1,-1,,7000,0,0,3,FEW 35   SCT 180   BKN 200,1,6,1,5,1019,RJFN 202300Z 31002KT 7000 FEW035 SCT180 BKN200 06/05 Q1019 RMK     1SC035 3AC180 A3011=,
20180121_000000.003,0,RJFN,,,,0,20180121000000,-1,-1,-1,-1,270,-1,3,-1,-1,-1,-1,,7000,0,0,2,FEW 35   SCT 200,1,8,1,5,1020,RJFN 210000Z 27003KT 7000 FEW035 SCT200 08/05 Q1020 RMK 1SC035     A3013=,
20180121_010000.003,0,RJFN,,,,0,20180121010000,-1,-1,-1,-1,999,-1,2,-1,-1,-1,-1,,8000,0,0,2,FEW 35   SCT 200,1,9,1,6,1020,RJFN 210100Z VRB02KT 8000 FEW035 SCT200 09/06 Q1020 RMK 1SC035     A3013=,
20180121_020000.003,0,RJFN,,,,0,20180121020000,-1,-1,-1,-1,90,-1,3,-1,-1,-1,-1,,7000,0,0,1,FEW 35,1,12,1,5,1019,RJFN 210200Z 09003KT 7000 FEW035 12/05 Q1019 RMK 1SC035 A3011=,
20180121_030000.003,0,RJFN,,,,0,20180121030000,-1,-1,-1,-1,999,-1,2,-1,-1,-1,-1,,8000,0,0,1,FEW 30,1,12,1,4,1018,RJFN 210300Z VRB02KT 8000 FEW030 12/04 Q1018 RMK 1CU030 A3009=,
20180121_040000.004,0,RJFN,,,,0,20180121040000,-1,-1,-1,-1,100,-1,6,-1,-1,50,130,,8000,0,0,1,FEW 30,1,13,1,4,1018,RJFN 210400Z 10006KT 050V130 8000 FEW030 13/04 Q1018 RMK     1CU030 A3007=,
20180121_050000.003,0,RJFN,,,,0,20180121050000,-1,-1,-1,-1,70,-1,8,-1,-1,30,100,,9000,0,0,1,FEW 30,1,13,1,3,1017,RJFN 210500Z 07008KT 030V100 9000 FEW030 13/03 Q1017 RMK     1CU030 A3004=,
20180121_060000.003,0,RJFN,,,,0,20180121060000,-1,-1,-1,-1,70,-1,8,-1,-1,40,110,,9000,0,0,1,FEW 30,1,13,1,2,1017,RJFN 210600Z 07008KT 040V110 9000 FEW030 13/02 Q1017 RMK     1CU030 A3004=,
20180121_070000.003,0,RJFN,,,,0,20180121070000,-1,-1,-1,-1,80,-1,6,-1,-1,40,120,,9999,0,0,1,FEW 30,1,13,1,1,1017,RJFN 210700Z 08006KT 040V120 9999 FEW030 13/01 Q1017 RMK     1CU030 A3005=,
20180121_080000.003,0,RJFN,,,,0,20180121080000,-1,-1,-1,-1,60,-1,7,-1,-1,30,90,,9999,0,0,2,FEW 30   SCT 180,1,12,1,3,1017,RJFN 210800Z 06007KT 030V090 9999 FEW030 SCT180 12/03 Q1017     RMK 1CU030 3AC180 A3006=,
20180121_090000.003,0,RJFN,,,,0,20180121090000,-1,-1,-1,-1,50,-1,5,-1,-1,20,100,,9000,0,0,3,FEW 30   SCT 45   BKN 200,1,11,1,4,1018,RJFN 210900Z 05005KT 020V100 9000 FEW030 SCT045 BKN200 11/04     Q1018 RMK 1CU030 3SC045 A3008=,
20180121_100000.003,0,RJFN,,,,0,20180121100000,-1,-1,-1,-1,40,-1,9,-1,-1,-1,-1,,9999,0,0,3,FEW 30   SCT 45   BKN -9999,1,11,1,3,1019,RJFN 211000Z 04009KT 9999 FEW030 SCT045 BKN/// 11/03 Q1019 RMK     1CU030 3SC045 A3010=,
20180121_110000.003,0,RJFN,,,,0,20180121110000,-1,-1,-1,-1,20,-1,8,-1,-1,-1,-1,,9000,0,0,3,FEW 30   SCT 45   BKN 180,1,10,1,1,1019,RJFN 211100Z 02008KT 9000 FEW030 SCT045 BKN180 10/01 Q1019 RMK     1CU030 4SC045 6AC180 A3010=,
20180121_120000.003,0,RJFN,,,,0,20180121120000,-1,-1,-1,-1,10,-1,8,-1,-1,-1,-1,,9000,0,0,3,FEW 30   SCT 45   BKN 180,1,9,-1,0,1019,RJFN 211200Z 01008KT 9000 FEW030 SCT045 BKN180 09/M00 Q1019     RMK 1CU030 3SC045 6AC180 A3009=,
20180121_130000.004,0,RJFN,,,,0,20180121130000,-1,-1,-1,-1,20,-1,4,-1,-1,340,50,,9000,0,0,3,FEW 30   SCT 45   BKN 160,1,8,-1,0,1018,RJFN 211300Z 02004KT 340V050 9000 FEW030 SCT045 BKN160 08/M00     Q1018 RMK 1CU030 3SC045 6AC160 A3007=,
20180121_140000.003,0,RJFN,,,,0,20180121140000,-1,-1,-1,-1,340,-1,3,-1,-1,320,20,,9000,0,0,2,FEW 30   BKN 150,1,8,-1,0,1017,RJFN 211400Z 34003KT 320V020 9000 FEW030 BKN150 08/M00 Q1017     RMK 1CU030 7AC150 A3006=,
20180121_150000.003,0,RJFN,,,,0,20180121150000,-1,-1,-1,-1,260,-1,4,-1,-1,-1,-1,,9000,0,0,2,FEW 30   BKN 130,1,7,1,2,1017,RJFN 211500Z 26004KT 9000 FEW030 BKN130 07/02 Q1017 RMK 1CU030     7AC130 A3005=,
20180121_160000.003,0,RJFN,,,,0,20180121160000,-1,-1,-1,-1,310,-1,4,-1,-1,-1,-1,,9000,0,0,2,FEW 30   BKN 110,1,7,1,3,1017,RJFN 211600Z 31004KT 9000 FEW030 BKN110 07/03 Q1017 RMK 1CU030     7AS110 A3004=,
20180121_170000.003,0,RJFN,,,,0,20180121170000,-1,-1,-1,-1,300,-1,7,-1,-1,-1,-1,,9000,0,0,2,FEW 30   BKN 110,1,7,1,4,1016,RJFN 211700Z 30007KT 9000 FEW030 BKN110 07/04 Q1016 RMK 1CU030     7AS110 A3002=,
20180121_180000.003,0,RJFN,,,,0,20180121180000,-1,-1,-1,-1,320,-1,5,-1,-1,-1,-1,,9000,0,0,2,FEW 30   BKN 90,1,8,1,1,1015,RJFN 211800Z 32005KT 9000 FEW030 BKN090 08/01 Q1015 RMK 1CU030     7AS090 A2998=,
20180121_190000.003,0,RJFN,,,,0,20180121190000,-1,-1,-1,-1,320,-1,4,-1,-1,280,350,,8000,0,1,3,FEW 30   SCT 50   OVC 80,1,8,1,1,1014,RJFN 211900Z 32004KT 280V350 8000 -RA FEW030 SCT050 OVC080     08/01 Q1014 RMK 1CU030 3SC050 8AS080 A2994=,- RA
20180121_200000.003,0,RJFN,,,,0,20180121200000,-1,-1,-1,-1,300,-1,5,-1,-1,-1,-1,,7000,0,1,3,FEW 30   BKN 45   OVC 70,1,7,1,5,1013,RJFN 212000Z 30005KT 7000 -RA FEW030 BKN045 OVC070 07/05 Q1013     RMK 1CU030 5SC045 8AS070 A2991=,- RA
20180121_210000.003,0,RJFN,,,,0,20180121210000,-1,-1,-1,-1,310,-1,2,-1,-1,-1,-1,,5000,0,2,3,FEW 30   BKN 40   OVC 60,1,7,1,6,1011,RJFN 212100Z 31002KT 5000 -RA BR FEW030 BKN040 OVC060 07/06     Q1011 RMK 1CU030 6SC040 8SC060 A2987 14/06 R001=,- RA; BR
20180121_220000.003,0,RJFN,,,,0,20180121220000,-1,-1,-1,-1,10,-1,9,-1,-1,340,40,,4000,0,2,3,FEW 25   BKN 30   OVC 45,1,8,1,7,1011,RJFN 212200Z 01009KT 340V040 4000 -RA BR FEW025 BKN030     OVC045 08/07 Q1011 RMK 2CU025 6SC030 8SC045 A2987 MAX           WIND 14KT=,- RA; BR
20180121_230000.003,0,RJFN,,,,0,20180121230000,-1,-1,-1,-1,350,-1,5,-1,-1,320,20,,3000,0,2,3,FEW 8   BKN 30   OVC 40,1,7,1,7,1011,RJFN 212300Z 35005KT 320V020 3000 RA BR FEW008 BKN030 OVC040     07/07 Q1011 RMK 1ST008 6SC030 8NS040 A2986 1ST008 AAL=,RA; BR
20180122_000000.003,0,RJFN,,,,0,20180122000000,-1,-1,-1,-1,290,-1,4,-1,-1,270,330,,2500,0,2,3,FEW 5   SCT 15   BKN 25,1,7,1,7,1011,RJFN 220000Z 29004KT 270V330 2500 RA BR FEW005 SCT015 BKN025     07/07 Q1011 RMK 1ST005 3SC015 7SC025 A2987 1ST005 AAL=,RA; BR
20180122_010000.003,0,RJFN,,,,0,20180122010000,-1,-1,-1,-1,360,-1,6,-1,-1,310,40,,3000,0,2,3,FEW 7   SCT 25   OVC 40,1,7,1,7,1011,RJFN 220100Z 36006KT 310V040 3000 RA BR FEW007 SCT025 OVC040     07/07 Q1011 RMK 1ST007 4SC025 8NS040 A2987 1ST007 AAL=,RA; BR
20180122_020000.003,0,RJFN,,,,0,20180122020000,-1,-1,-1,-1,340,-1,6,-1,-1,-1,-1,,2500,0,2,3,FEW 5   BKN 15   BKN 30,1,7,1,7,1011,RJFN 220200Z 34006KT 2500 RA BR FEW005 BKN015 BKN030 07/07     Q1011 RMK 1ST005 5SC015 6SC030 A2985 1ST005 OVER AD=,RA; BR
20180122_030000.003,0,RJFN,,,,0,20180122030000,-1,-1,-1,-1,340,-1,4,-1,-1,290,40,,4500,0,2,3,FEW 8   SCT 20   BKN 30,1,7,1,7,1010,RJFN 220300Z 34004KT 290V040 4500 -SHRA BR FEW008 SCT020     BKN030 07/07 Q1010 RMK 1ST008 3CU020 7CU030 A2983 1ST008           S=,- RA SH; BR
20180122_040000.003,0,RJFN,,,,0,20180122040000,-1,-1,-1,-1,330,-1,3,-1,-1,290,350,,7000,0,1,3,FEW 2   BKN 30   BKN 40,1,7,1,7,1009,RJFN 220400Z 33003KT 290V350 7000 -SHRA FEW002 BKN030 BKN040     07/07 Q1009 RMK 1ST002 6CU030 7SC040 A2981 1ST002 S           1ST008 E=,- RA SH
20180122_050000.003,0,RJFN,,,,0,20180122050000,-1,-1,-1,-1,120,-1,6,-1,-1,-1,-1,,9999,0,0,3,FEW 2   SCT 6   BKN 70,1,9,1,8,1008,RJFN 220500Z 12006KT 9999 FEW002 SCT006 BKN070 09/08 Q1008 RMK     1ST002 3ST006 7AC070 A2978 1ST002 S 3ST006 AAL=,
20180122_060000.004,0,RJFN,,,,0,20180122060000,-1,-1,-1,-1,270,-1,4,-1,-1,230,290,,9999,0,0,3,FEW 2   SCT 8   BKN 50,1,9,1,8,1009,RJFN 220600Z 27004KT 230V290 9999 FEW002 SCT008 BKN050 09/08     Q1009 RMK 1ST002 3ST008 7SC050 A2981 1ST002 SW 3ST008           AAL=,
20180122_070000.003,0,RJFN,,,,0,20180122070000,-1,-1,-1,-1,60,-1,3,-1,-1,20,110,,9999,0,0,2,FEW 3   BKN 10,1,9,1,8,1010,RJFN 220700Z 06003KT 020V110 9999 FEW003 BKN010 09/08 Q1010     RMK 1ST003 7ST010 A2983 1ST003 S 2ST008 AAL=,
20180122_080000.004,0,RJFN,,,,0,20180122080000,-1,-1,-1,-1,60,-1,4,-1,-1,30,90,,9999,0,0,2,FEW 5   BKN 12,1,8,1,8,1010,RJFN 220800Z 06004KT 030V090 9999 FEW005 BKN012 08/08 Q1010     RMK 1ST005 7ST012 A2985 1ST005 S 1ST008 AAL=,
20180122_090000.003,0,RJFN,,,,0,20180122090000,-1,-1,-1,-1,30,-1,3,-1,-1,360,60,,9999,0,0,2,FEW 5   BKN 25,1,8,1,7,1011,RJFN 220900Z 03003KT 360V060 9999 FEW005 BKN025 08/07 Q1011     RMK 1ST005 7CU025 A2988 1ST005 S=,
20180122_100000.003,0,RJFN,,,,0,20180122100000,-1,-1,-1,-1,10,-1,3,-1,-1,-1,-1,,9999,0,0,3,FEW 5   SCT 15   BKN 25,1,8,1,7,1012,RJFN 221000Z 01003KT 9999 FEW005 SCT015 BKN025 08/07 Q1012 RMK     1ST005 3CU015 7CU025 A2991 1ST005 S=,
20180122_110000.004,0,RJFN,,,,0,20180122110000,-1,-1,-1,-1,260,-1,3,-1,-1,210,270,,9999,0,0,2,FEW 5   BKN 15,1,7,1,7,1013,RJFN 221100Z 26003KT 210V270 9999 FEW005 BKN015 07/07 Q1013     RMK 1ST005 5CU015 A2994=,
20180122_120000.003,0,RJFN,,,,0,20180122120000,-1,-1,-1,-1,240,-1,5,-1,-1,-1,-1,,9999,0,0,2,FEW 8   SCT 15,1,5,1,5,1014,RJFN 221200Z 24005KT 9999 FEW008 SCT015 05/05 Q1014 RMK 1ST008     3CU015 A2995=,
20180122_130000.004,0,RJFN,,,,0,20180122130000,-1,-1,-1,-1,270,-1,7,-1,-1,-1,-1,,2000,1,1,2,FEW 1   SCT 8,1,4,1,4,1014,RJFN 221300Z 27007KT 2000 R28/1800U BR FEW001 SCT008 04/04     Q1014 RMK 1ST001 3ST008 A2996 VIS W-N 800M=,BR
20180122_140000.004,0,RJFN,,,,0,20180122140000,-1,-1,-1,-1,250,-1,6,-1,-1,-1,-1,,2500,0,1,1,FEW 2,1,3,1,3,1013,RJFN 221400Z 25006KT 2500 BR FEW002 03/03 Q1013 RMK 1ST002     A2994 VIS W-N 800M=,BR
20180122_150000.003,0,RJFN,,,,0,20180122150000,-1,-1,-1,-1,260,-1,8,-1,-1,-1,-1,,5000,0,1,1,FEW 8,1,4,1,4,1014,RJFN 221500Z 26008KT 5000 BR FEW008 04/04 Q1014 RMK 1ST008     A2996=,BR
20180122_160000.003,0,RJFN,,,,0,20180122160000,-1,-1,-1,-1,260,-1,9,-1,-1,-1,-1,,8000,0,0,1,FEW 20,1,4,1,3,1014,RJFN 221600Z 26009KT 8000 FEW020 04/03 Q1014 RMK 1CU020 A2995=,
20180122_170000.003,0,RJFN,,,,0,20180122170000,-1,-1,-1,-1,250,-1,6,-1,-1,-1,-1,,9999,0,0,1,FEW 20,1,3,1,3,1014,RJFN 221700Z 25006KT 9999 FEW020 03/03 Q1014 RMK 1CU020 A2994=,
20180122_180000.003,0,RJFN,,,,0,20180122180000,-1,-1,-1,-1,270,-1,10,-1,-1,-1,-1,,9999,0,0,1,FEW 30,1,3,1,3,1014,RJFN 221800Z 27010KT 9999 FEW030 03/03 Q1014 RMK 1CU030 A2996=,
20180122_190000.003,0,RJFN,,,,0,20180122190000,-1,-1,-1,-1,260,-1,6,-1,-1,230,290,,9999,0,0,1,FEW 30,1,3,1,3,1014,RJFN 221900Z 26006KT 230V290 9999 FEW030 03/03 Q1014 RMK     1CU030 A2995=,
20180122_200000.003,0,RJFN,,,,0,20180122200000,-1,-1,-1,-1,260,-1,4,-1,-1,220,310,,9999,0,0,2,FEW 30   SCT 45,1,4,1,3,1013,RJFN 222000Z 26004KT 220V310 9999 FEW030 SCT045 04/03 Q1013     RMK 1CU030 3SC045 A2993=,
20180122_210000.004,0,RJFN,,,,0,20180122210000,-1,-1,-1,-1,240,-1,4,-1,-1,220,300,,9999,0,0,2,FEW 30   SCT 45,1,5,1,4,1014,RJFN 222100Z 24004KT 220V300 9999 FEW030 SCT045 05/04 Q1014     RMK 1CU030 4SC045 A2994 10/02 R018=,
20180122_220000.003,0,RJFN,,,,0,20180122220000,-1,-1,-1,-1,210,-1,5,-1,-1,-1,-1,,9999,0,0,2,FEW 30   SCT 45,1,5,1,5,1014,RJFN 222200Z 21005KT 9999 FEW030 SCT045 05/05 Q1014 RMK 1CU030     3SC045 A2997=,
20180122_230000.004,0,RJFN,,,,0,20180122230000,-1,-1,-1,-1,270,-1,6,-1,-1,-1,-1,,9000,0,0,2,FEW 30   SCT 45,1,6,1,4,1015,RJFN 222300Z 27006KT 9000 FEW030 SCT045 06/04 Q1015 RMK 1CU030     3SC045 A2998=,
20180123_000000.003,0,RJFN,,,,0,20180123000000,-1,-1,-1,-1,280,-1,6,-1,-1,-1,-1,,9000,0,0,1,FEW 30,1,9,1,5,1014,RJFN 230000Z 28006KT 9000 FEW030 09/05 Q1014 RMK 1CU030 A2997=,
20180123_010000.003,0,RJFN,,,,0,20180123010000,-1,-1,-1,-1,300,-1,13,-1,-1,-1,-1,,9999,0,0,1,FEW 30,1,11,1,1,1015,RJFN 230100Z 30013KT 9999 FEW030 11/01 Q1015 RMK 1CU030 A2999     MAX WIND 19KT=,
20180123_020000.003,0,RJFN,,,,0,20180123020000,-1,-1,-1,-1,290,-1,18,-1,-1,-1,-1,,9999,0,0,1,FEW 35,1,12,-1,1,1015,RJFN 230200Z 29018KT 9999 FEW035 12/M01 Q1015 RMK 1CU035 A2999     MAX WIND 23KT=,
20180123_030000.004,0,RJFN,,,,0,20180123030000,-1,-1,-1,-1,290,-1,14,-1,-1,-1,-1,,9999,0,0,1,FEW 35,1,12,-1,3,1014,RJFN 230300Z 29014KT 9999 FEW035 12/M03 Q1014 RMK 1CU035 A2996     MAX WIND 22KT=,
20180123_040000.004,0,RJFN,,,,0,20180123040000,-1,-1,-1,-1,270,-1,20,-1,-1,-1,-1,,9999,0,0,1,FEW 35,1,12,-1,2,1014,RJFN 230400Z 27020KT 9999 FEW035 12/M02 Q1014 RMK 1CU035 A2995     MAX WIND 28KT=,
20180123_050000.003,0,RJFN,,,,0,20180123050000,-1,-1,-1,-1,280,-1,21,-1,31,-1,-1,,9999,0,0,1,FEW 35,1,12,-1,1,1014,RJFN 230500Z 28021G31KT 9999 FEW035 12/M01 Q1014 RMK 1CU035     A2995=,
20180123_060000.004,0,RJFN,,,,0,20180123060000,-1,-1,-1,-1,270,-1,19,-1,-1,-1,-1,,9999,0,0,1,FEW 35,1,12,-1,2,1014,RJFN 230600Z 27019KT 9999 FEW035 12/M02 Q1014 RMK 1CU035 A2996     MAX WIND 24KT=,
20180123_070000.003,0,RJFN,,,,0,20180123070000,-1,-1,-1,-1,270,-1,19,-1,-1,-1,-1,,9999,0,0,1,FEW 35,1,10,-1,3,1014,RJFN 230700Z 27019KT 9999 FEW035 10/M03 Q1014 RMK 1CU035 A2997     MAX WIND 25KT=,
20180123_080000.003,0,RJFN,,,,0,20180123080000,-1,-1,-1,-1,270,-1,18,-1,-1,-1,-1,,9999,0,0,1,FEW 35,1,9,-1,3,1015,RJFN 230800Z 27018KT 9999 FEW035 09/M03 Q1015 RMK 1CU035 A2998     MAX WIND 25KT=,
20180123_090000.003,0,RJFN,,,,0,20180123090000,-1,-1,-1,-1,260,-1,17,-1,-1,-1,-1,,9999,0,0,1,FEW 35,1,7,-1,3,1016,RJFN 230900Z 26017KT 9999 FEW035 07/M03 Q1016 RMK 1CU035     A3001=,
20180123_100000.003,0,RJFN,,,,0,20180123100000,-1,-1,-1,-1,260,-1,17,-1,-1,-1,-1,,9999,0,0,1,FEW 35,1,6,-1,4,1017,RJFN 231000Z 26017KT 9999 FEW035 06/M04 Q1017 RMK 1CU035     A3004=,
20180123_110000.003,0,RJFN,,,,0,20180123110000,-1,-1,-1,-1,250,-1,11,-1,-1,-1,-1,,9999,0,0,1,FEW 35,1,5,-1,3,1017,RJFN 231100Z 25011KT 9999 FEW035 05/M03 Q1017 RMK 1CU035     A3005=,
20180123_120000.003,0,RJFN,,,,0,20180123120000,-1,-1,-1,-1,210,-1,7,-1,-1,-1,-1,,9999,0,0,1,FEW 35,1,3,-1,3,1018,RJFN 231200Z 21007KT 9999 FEW035 03/M03 Q1018 RMK 1CU035     A3006=,
20180123_130000.003,0,RJFN,,,,0,20180123130000,-1,-1,-1,-1,240,-1,10,-1,-1,-1,-1,,9999,0,0,1,FEW 35,1,3,-1,3,1018,RJFN 231300Z 24010KT 9999 FEW035 03/M03 Q1018 RMK 1CU035     A3007=,
20180123_140000.003,0,RJFN,,,,0,20180123140000,-1,-1,-1,-1,260,-1,9,-1,-1,-1,-1,,9999,0,0,1,FEW 35,1,3,-1,4,1018,RJFN 231400Z 26009KT 9999 FEW035 03/M04 Q1018 RMK 1CU035     A3007=,
20180123_150000.003,0,RJFN,,,,0,20180123150000,-1,-1,-1,-1,260,-1,15,-1,-1,-1,-1,,9999,0,0,1,FEW 35,1,4,-1,5,1018,RJFN 231500Z 26015KT 9999 FEW035 04/M05 Q1018 RMK 1CU035     A3006=,
20180123_160000.003,0,RJFN,,,,0,20180123160000,-1,-1,-1,-1,260,-1,17,-1,-1,-1,-1,,9999,0,0,1,FEW 35,1,3,-1,7,1017,RJFN 231600Z 26017KT 9999 FEW035 03/M07 Q1017 RMK 1CU035     A3005=,
20180123_170000.003,0,RJFN,,,,0,20180123170000,-1,-1,-1,-1,270,-1,10,-1,-1,-1,-1,,9999,0,0,1,FEW 35,1,3,-1,7,1017,RJFN 231700Z 27010KT 9999 FEW035 03/M07 Q1017 RMK 1CU035     A3005=,
20180123_180000.003,0,RJFN,,,,0,20180123180000,-1,-1,-1,-1,270,-1,12,-1,-1,-1,-1,,9999,0,0,1,FEW 35,1,3,-1,7,1017,RJFN 231800Z 27012KT 9999 FEW035 03/M07 Q1017 RMK 1CU035 A3005     MAX WIND 18KT=,
20180123_190000.003,0,RJFN,,,,0,20180123190000,-1,-1,-1,-1,280,-1,12,-1,-1,-1,-1,,9999,0,0,1,FEW 35,1,3,-1,7,1017,RJFN 231900Z 28012KT 9999 FEW035 03/M07 Q1017 RMK 1CU035     A3006=,
20180123_200000.003,0,RJFN,,,,0,20180123200000,-1,-1,-1,-1,290,-1,13,-1,-1,-1,-1,,9999,0,0,1,FEW 35,1,3,-1,8,1017,RJFN 232000Z 29013KT 9999 FEW035 03/M08 Q1017 RMK 1CU035 A3004     MAX WIND 20KT=,
20180123_210000.003,0,RJFN,,,,0,20180123210000,-1,-1,-1,-1,280,-1,14,-1,-1,-1,-1,,9999,0,0,1,FEW 35,1,3,-1,8,1018,RJFN 232100Z 28014KT 9999 FEW035 03/M08 Q1018 RMK 1CU035 A3007     27031KT/0420 13/02=,
20180123_220000.003,0,RJFN,,,,0,20180123220000,-1,-1,-1,-1,250,-1,10,-1,20,220,280,,9999,0,0,1,FEW 30,1,2,-1,8,1018,RJFN 232200Z 25010G20KT 220V280 9999 FEW030 02/M08 Q1018 RMK     1CU030 A3008=,
20180123_230000.003,0,RJFN,,,,0,20180123230000,-1,-1,-1,-1,270,-1,15,-1,-1,-1,-1,,9999,0,0,1,FEW 30,1,3,-1,8,1019,RJFN 232300Z 27015KT 9999 FEW030 03/M08 Q1019 RMK 1CU030 A3010     MAX WIND 23KT=,
20180124_000000.003,0,RJFN,,,,0,20180124000000,-1,-1,-1,-1,280,-1,16,-1,-1,-1,-1,,9999,0,0,1,FEW 30,1,5,-1,7,1019,RJFN 240000Z 28016KT 9999 FEW030 05/M07 Q1019 RMK 1CU030 A3010     MAX WIND 24KT=,
20180124_010000.004,0,RJFN,,,,0,20180124010000,-1,-1,-1,-1,280,-1,16,-1,-1,-1,-1,,9999,0,0,1,FEW 40,1,6,-1,8,1019,RJFN 240100Z 28016KT 9999 FEW040 06/M08 Q1019 RMK 1CU040 A3010     MAX WIND 24KT=,
20180124_020000.003,0,RJFN,,,,0,20180124020000,-1,-1,-1,-1,280,-1,20,-1,-1,-1,-1,,9999,0,0,1,FEW 40,1,6,-1,9,1018,RJFN 240200Z 28020KT 9999 FEW040 06/M09 Q1018 RMK 1CU040 A3008     MAX WIND 26KT=,
20180124_030000.003,0,RJFN,,,,0,20180124030000,-1,-1,-1,-1,280,-1,21,-1,-1,-1,-1,,9999,0,0,1,FEW 40,1,7,-1,10,1017,RJFN 240300Z 28021KT 9999 FEW040 07/M10 Q1017 RMK 1CU040 A3006     MAX WIND 28KT=,
20180124_040000.003,0,RJFN,,,,0,20180124040000,-1,-1,-1,-1,280,-1,18,-1,-1,-1,-1,,9999,0,0,1,FEW 40,1,7,-1,10,1017,RJFN 240400Z 28018KT 9999 FEW040 07/M10 Q1017 RMK 1CU040 A3004     MAX WIND 24KT=,
20180124_050000.003,0,RJFN,,,,0,20180124050000,-1,-1,-1,-1,280,-1,18,-1,-1,-1,-1,,9999,0,0,1,FEW 40,1,7,-1,11,1016,RJFN 240500Z 28018KT 9999 FEW040 07/M11 Q1016 RMK 1CU040 A3003     MAX WIND 24KT=,
20180124_060000.003,0,RJFN,,,,0,20180124060000,-1,-1,-1,-1,260,-1,16,-1,-1,-1,-1,,9999,0,0,1,FEW 40,1,7,-1,11,1016,RJFN 240600Z 26016KT 9999 FEW040 07/M11 Q1016 RMK 1CU040 A3002     MAX WIND 22KT=,
20180124_070000.003,0,RJFN,,,,0,20180124070000,-1,-1,-1,-1,270,-1,15,-1,-1,-1,-1,,9999,0,0,1,FEW 40,1,7,-1,12,1017,RJFN 240700Z 27015KT 9999 FEW040 07/M12 Q1017 RMK 1CU040 A3003     MAX WIND 20KT=,
20180124_080000.003,0,RJFN,,,,0,20180124080000,-1,-1,-1,-1,260,-1,16,-1,-1,-1,-1,,9999,0,0,1,FEW 40,1,5,-1,12,1017,RJFN 240800Z 26016KT 9999 FEW040 05/M12 Q1017 RMK 1CU040 A3004     MAX WIND 19KT=,
20180124_090000.004,0,RJFN,,,,0,20180124090000,-1,-1,-1,-1,270,-1,10,-1,-1,-1,-1,,9999,0,0,1,FEW 40,1,3,-1,12,1018,RJFN 240900Z 27010KT 9999 FEW040 03/M12 Q1018 RMK 1CU040     A3007=,
20180124_100000.003,0,RJFN,,,,0,20180124100000,-1,-1,-1,-1,280,-1,3,-1,-1,250,310,,9999,0,0,1,FEW 40,1,1,-1,12,1018,RJFN 241000Z 28003KT 250V310 9999 FEW040 01/M12 Q1018 RMK     1CU040 A3009=,
20180124_110000.003,0,RJFN,,,,0,20180124110000,-1,-1,-1,-1,999,-1,2,-1,-1,-1,-1,,9999,0,0,1,FEW 40,-1,1,-1,10,1019,RJFN 241100Z VRB02KT 9999 FEW040 M01/M10 Q1019 RMK 1CU040     A3009=,
20180124_120000.003,0,RJFN,,,,0,20180124120000,-1,-1,-1,-1,999,-1,2,-1,-1,-1,-1,,9999,0,0,1,FEW 40,-1,0,-1,10,1019,RJFN 241200Z VRB02KT 9999 FEW040 M00/M10 Q1019 RMK 1CU040     A3011=,
20180124_130000.003,0,RJFN,,,,0,20180124130000,-1,-1,-1,-1,190,-1,4,-1,-1,-1,-1,,9999,0,0,1,FEW 40,-1,2,-1,9,1020,RJFN 241300Z 19004KT 9999 FEW040 M02/M09 Q1020 RMK 1CU040     A3013=,
20180124_140000.004,0,RJFN,,,,0,20180124140000,-1,-1,-1,-1,260,-1,4,-1,-1,-1,-1,,9999,0,0,1,FEW 40,-1,2,-1,9,1020,RJFN 241400Z 26004KT 9999 FEW040 M02/M09 Q1020 RMK 1CU040     A3012=,
20180124_150000.003,0,RJFN,,,,0,20180124150000,-1,-1,-1,-1,240,-1,6,-1,-1,-1,-1,,9999,0,0,1,FEW 40,-1,2,-1,8,1020,RJFN 241500Z 24006KT 9999 FEW040 M02/M08 Q1020 RMK 1CU040     A3013=,
20180124_160000.003,0,RJFN,,,,0,20180124160000,-1,-1,-1,-1,260,-1,5,-1,-1,-1,-1,,9999,0,0,1,FEW 40,-1,2,-1,8,1020,RJFN 241600Z 26005KT 9999 FEW040 M02/M08 Q1020 RMK 1CU040     A3013=,
20180124_170000.003,0,RJFN,,,,0,20180124170000,-1,-1,-1,-1,280,-1,6,-1,-1,-1,-1,,9999,0,0,1,FEW 40,-1,3,-1,9,1020,RJFN 241700Z 28006KT 9999 FEW040 M03/M09 Q1020 RMK 1CU040     A3014=,
20180124_180000.003,0,RJFN,,,,0,20180124180000,-1,-1,-1,-1,270,-1,6,-1,-1,-1,-1,,9999,0,0,1,FEW 40,-1,3,-1,8,1021,RJFN 241800Z 27006KT 9999 FEW040 M03/M08 Q1021 RMK 1CU040     A3015=,
20180124_190000.004,0,RJFN,,,,0,20180124190000,-1,-1,-1,-1,320,-1,5,-1,-1,-1,-1,,9999,0,0,1,FEW 40,-1,1,-1,10,1020,RJFN 241900Z 32005KT 9999 FEW040 M01/M10 Q1020 RMK 1CU040     A3014=,
20180124_200000.003,0,RJFN,,,,0,20180124200000,-1,-1,-1,-1,250,-1,4,-1,-1,-1,-1,,9999,0,0,1,FEW 40,-1,3,-1,8,1020,RJFN 242000Z 25004KT 9999 FEW040 M03/M08 Q1020 RMK 1CU040     A3015=,
20180124_210000.004,0,RJFN,,,,0,20180124210000,-1,-1,-1,-1,280,-1,6,-1,-1,-1,-1,,9999,0,0,1,FEW 30,-1,3,-1,8,1021,RJFN 242100Z 28006KT 9999 FEW030 M03/M08 Q1021 RMK 1CU030     A3017 25034KT/0120 08/M04=,
20180124_220000.003,0,RJFN,,,,0,20180124220000,-1,-1,-1,-1,270,-1,6,-1,-1,-1,-1,,9999,0,0,3,FEW 30   BKN 160   BKN 200,-1,2,-1,8,1021,RJFN 242200Z 27006KT 9999 FEW030 BKN160 BKN200 M02/M08 Q1021     RMK 1CU030 5AC160 A3017=,
20180124_230000.003,0,RJFN,,,,0,20180124230000,-1,-1,-1,-1,260,-1,4,-1,-1,230,310,,9999,0,0,2,FEW 30   BKN 150,-1,2,-1,7,1021,RJFN 242300Z 26004KT 230V310 9999 FEW030 BKN150 M02/M07 Q1021     RMK 1CU030 6AC150 A3016=,
20180125_000000.003,0,RJFN,,,,0,20180125000000,-1,-1,-1,-1,260,-1,5,-1,-1,-1,-1,,9999,0,0,2,FEW 30   BKN 150,-1,0,-1,9,1021,RJFN 250000Z 26005KT 9999 FEW030 BKN150 M00/M09 Q1021 RMK     1CU030 6AC150 A3017=,
20180125_010000.003,0,RJFN,,,,0,20180125010000,-1,-1,-1,-1,270,-1,6,-1,-1,230,290,,9999,0,0,1,FEW 30,1,2,-1,9,1022,RJFN 250100Z 27006KT 230V290 9999 FEW030 02/M09 Q1022 RMK     1CU030 A3018=,
20180125_020000.004,0,RJFN,,,,0,20180125020000,-1,-1,-1,-1,210,-1,5,-1,-1,130,300,,9999,0,0,1,FEW 30,1,3,-1,10,1021,RJFN 250200Z 21005KT 130V300 9999 FEW030 03/M10 Q1021 RMK     1CU030 A3017=,
20180125_030000.003,0,RJFN,,,,0,20180125030000,-1,-1,-1,-1,999,-1,4,-1,-1,-1,-1,,9999,0,0,1,FEW 30,1,5,-1,11,1020,RJFN 250300Z VRB04KT 9999 FEW030 05/M11 Q1020 RMK 1CU030     A3013=,
20180125_040000.003,0,RJFN,,,,0,20180125040000,-1,-1,-1,-1,130,-1,8,-1,-1,100,160,,9999,0,0,1,FEW 30,1,5,-1,9,1018,RJFN 250400Z 13008KT 100V160 9999 FEW030 05/M09 Q1018 RMK     1CU030 A3009=,
20180125_050000.003,0,RJFN,,,,0,20180125050000,-1,-1,-1,-1,110,-1,6,-1,-1,70,150,,9999,0,0,1,FEW 30,1,6,-1,7,1018,RJFN 250500Z 11006KT 070V150 9999 FEW030 06/M07 Q1018 RMK     1CU030 A3007=,
20180125_060000.003,0,RJFN,,,,0,20180125060000,-1,-1,-1,-1,100,-1,6,-1,-1,50,140,,9999,0,0,1,FEW 30,1,6,-1,7,1017,RJFN 250600Z 10006KT 050V140 9999 FEW030 06/M07 Q1017 RMK     1CU030 A3005=,
20180125_070000.003,0,RJFN,,,,0,20180125070000,-1,-1,-1,-1,110,-1,7,-1,-1,70,130,,9999,0,0,1,FEW 30,1,6,-1,7,1017,RJFN 250700Z 11007KT 070V130 9999 FEW030 06/M07 Q1017 RMK     1CU030 A3005=,
20180125_080000.003,0,RJFN,,,,0,20180125080000,-1,-1,-1,-1,100,-1,4,-1,-1,70,130,,9999,0,0,1,FEW 30,1,5,-1,6,1017,RJFN 250800Z 10004KT 070V130 9999 FEW030 05/M06 Q1017 RMK     1CU030 A3005=,
20180125_090000.003,0,RJFN,,,,0,20180125090000,-1,-1,-1,-1,40,-1,3,-1,-1,-1,-1,,9999,0,0,1,FEW 30,1,4,-1,6,1017,RJFN 250900Z 04003KT 9999 FEW030 04/M06 Q1017 RMK 1CU030     A3006=,
20180125_100000.004,0,RJFN,,,,0,20180125100000,-1,-1,-1,-1,350,-1,3,-1,-1,-1,-1,,9999,0,0,1,FEW 30,1,3,-1,6,1018,RJFN 251000Z 35003KT 9999 FEW030 03/M06 Q1018 RMK 1CU030     A3007=,
20180125_110000.004,0,RJFN,,,,0,20180125110000,-1,-1,-1,-1,320,-1,4,-1,-1,-1,-1,,9999,0,0,2,FEW 30   BKN 150,1,3,-1,5,1018,RJFN 251100Z 32004KT 9999 FEW030 BKN150 03/M05 Q1018 RMK     1CU030 5AC150 A3007=,
20180125_120000.003,0,RJFN,,,,0,20180125120000,-1,-1,-1,-1,260,-1,6,-1,-1,-1,-1,,9999,0,0,2,FEW 30   BKN 150,1,2,-1,4,1018,RJFN 251200Z 26006KT 9999 FEW030 BKN150 02/M04 Q1018 RMK     1CU030 5AC150 A3008=,
20180125_130000.003,0,RJFN,,,,0,20180125130000,-1,-1,-1,-1,240,-1,7,-1,-1,-1,-1,,9999,0,0,3,FEW 30   SCT 120   BKN 150,1,2,-1,5,1018,RJFN 251300Z 24007KT 9999 FEW030 SCT120 BKN150 02/M05 Q1018     RMK 1CU030 3AC120 5AC150 A3007=,
20180125_140000.003,0,RJFN,,,,0,20180125140000,-1,-1,-1,-1,250,-1,7,-1,-1,-1,-1,,9999,0,0,3,FEW 30   SCT 120   BKN 150,1,2,-1,6,1017,RJFN 251400Z 25007KT 9999 FEW030 SCT120 BKN150 02/M06 Q1017     RMK 1CU030 3AC120 5AC150 A3006=,
20180125_150000.003,0,RJFN,,,,0,20180125150000,-1,-1,-1,-1,250,-1,6,-1,-1,-1,-1,,9999,0,0,3,FEW 30   SCT 100   BKN 130,1,2,-1,5,1017,RJFN 251500Z 25006KT 9999 FEW030 SCT100 BKN130 02/M05 Q1017     RMK 1CU030 3AC100 7AC130 A3005=,
20180125_160000.003,0,RJFN,,,,0,20180125160000,-1,-1,-1,-1,260,-1,8,-1,-1,-1,-1,,9999,0,0,3,FEW 30   SCT 100   BKN 140,1,2,-1,6,1017,RJFN 251600Z 26008KT 9999 FEW030 SCT100 BKN140 02/M06 Q1017     RMK 1CU030 3AC100 7AC140 A3005=,
20180125_170000.003,0,RJFN,,,,0,20180125170000,-1,-1,-1,-1,250,-1,8,-1,-1,-1,-1,,9999,0,0,2,FEW 30   BKN 160,1,2,-1,6,1017,RJFN 251700Z 25008KT 9999 FEW030 BKN160 02/M06 Q1017 RMK     1CU030 7AC160 A3005=,
20180125_180000.003,0,RJFN,,,,0,20180125180000,-1,-1,-1,-1,270,-1,9,-1,-1,-1,-1,,9999,0,0,2,FEW 30   BKN 170,1,1,-1,8,1017,RJFN 251800Z 27009KT 9999 FEW030 BKN170 01/M08 Q1017 RMK     1CU030 5AC170 A3004=,
20180125_190000.003,0,RJFN,,,,0,20180125190000,-1,-1,-1,-1,270,-1,8,-1,-1,-1,-1,,9999,0,0,2,FEW 30   BKN 170,1,0,-1,10,1016,RJFN 251900Z 27008KT 9999 FEW030 BKN170 00/M10 Q1016 RMK     1CU030 5AC170 A3003=,
20180125_200000.004,0,RJFN,,,,0,20180125200000,-1,-1,-1,-1,260,-1,11,-1,-1,-1,-1,,9999,0,0,2,FEW 30   BKN -9999,-1,0,-1,10,1016,RJFN 252000Z 26011KT 9999 FEW030 BKN/// M00/M10 Q1016 RMK     1CU030 A3002=,
20180125_210000.003,0,RJFN,,,,0,20180125210000,-1,-1,-1,-1,270,-1,6,-1,-1,-1,-1,,9999,0,0,2,FEW 30   SCT -9999,-1,1,-1,9,1016,RJFN 252100Z 27006KT 9999 FEW030 SCT/// M01/M09 Q1016 RMK     1CU030 A3003 06/M02=,
20180125_220000.003,0,RJFN,,,,0,20180125220000,-1,-1,-1,-1,270,-1,4,-1,-1,-1,-1,,9999,0,0,1,FEW 30,-1,1,-1,9,1017,RJFN 252200Z 27004KT 9999 FEW030 M01/M09 Q1017 RMK 1CU030     A3004=,
20180125_230000.003,0,RJFN,,,,0,20180125230000,-1,-1,-1,-1,260,-1,4,-1,-1,-1,-1,,9999,0,0,1,FEW 30,1,1,-1,7,1017,RJFN 252300Z 26004KT 9999 FEW030 01/M07 Q1017 RMK 1CU030     A3005=,
20180126_000000.003,0,RJFN,,,,0,20180126000000,-1,-1,-1,-1,270,-1,5,-1,-1,-1,-1,,9999,0,0,1,FEW 30,1,3,-1,8,1017,RJFN 260000Z 27005KT 9999 FEW030 03/M08 Q1017 RMK 1CU030     A3006=,
20180126_010000.003,0,RJFN,,,,0,20180126010000,-1,-1,-1,-1,999,-1,2,-1,-1,-1,-1,,9999,0,0,1,FEW 30,1,5,-1,10,1018,RJFN 260100Z VRB02KT 9999 FEW030 05/M10 Q1018 RMK 1CU030     A3007=,
20180126_020000.003,0,RJFN,,,,0,20180126020000,-1,-1,-1,-1,240,-1,4,-1,-1,200,280,,9999,0,0,1,FEW 30,1,6,-1,10,1017,RJFN 260200Z 24004KT 200V280 9999 FEW030 06/M10 Q1017 RMK     1CU030 A3005=,
20180126_030000.003,0,RJFN,,,,0,20180126030000,-1,-1,-1,-1,280,-1,3,-1,-1,220,340,,9999,0,0,1,FEW 30,1,7,-1,10,1016,RJFN 260300Z 28003KT 220V340 9999 FEW030 07/M10 Q1016 RMK     1CU030 A3002=,
20180126_040000.003,0,RJFN,,,,0,20180126040000,-1,-1,-1,-1,110,-1,8,-1,-1,-1,-1,,9999,0,0,1,FEW 30,1,8,-1,7,1015,RJFN 260400Z 11008KT 9999 FEW030 08/M07 Q1015 RMK 1CU030     A2999=,
20180126_050000.003,0,RJFN,,,,0,20180126050000,-1,-1,-1,-1,110,-1,6,-1,-1,70,190,,9999,0,0,1,FEW 30,1,8,-1,7,1015,RJFN 260500Z 11006KT 070V190 9999 FEW030 08/M07 Q1015 RMK     1CU030 A2998=,
20180126_060000.003,0,RJFN,,,,0,20180126060000,-1,-1,-1,-1,100,-1,8,-1,-1,60,120,,9999,0,0,1,FEW 30,1,8,-1,6,1015,RJFN 260600Z 10008KT 060V120 9999 FEW030 08/M06 Q1015 RMK     1CU030 A2998=,
20180126_070000.003,0,RJFN,,,,0,20180126070000,-1,-1,-1,-1,110,-1,6,-1,-1,-1,-1,,9999,0,0,1,FEW 30,1,8,-1,6,1015,RJFN 260700Z 11006KT 9999 FEW030 08/M06 Q1015 RMK 1CU030     A2999=,
20180126_080000.004,0,RJFN,,,,0,20180126080000,-1,-1,-1,-1,100,-1,5,-1,-1,70,130,,9999,0,0,1,FEW 30,1,7,-1,6,1015,RJFN 260800Z 10005KT 070V130 9999 FEW030 07/M06 Q1015 RMK     1CU030 A3000=,
20180126_090000.003,0,RJFN,,,,0,20180126090000,-1,-1,-1,-1,80,-1,4,-1,-1,-1,-1,,9999,0,0,1,FEW 30,1,5,-1,6,1016,RJFN 260900Z 08004KT 9999 FEW030 05/M06 Q1016 RMK 1CU030     A3002=,
20180126_100000.003,0,RJFN,,,,0,20180126100000,-1,-1,-1,-1,270,-1,7,-1,-1,-1,-1,,9999,0,0,1,FEW 30,1,3,-1,7,1017,RJFN 261000Z 27007KT 9999 FEW030 03/M07 Q1017 RMK 1CU030     A3005=,
20180126_110000.003,0,RJFN,,,,0,20180126110000,-1,-1,-1,-1,270,-1,9,-1,-1,-1,-1,,9999,0,0,1,FEW 30,1,3,-1,10,1018,RJFN 261100Z 27009KT 9999 FEW030 03/M10 Q1018 RMK 1CU030     A3007=,
20180126_120000.003,0,RJFN,,,,0,20180126120000,-1,-1,-1,-1,250,-1,4,-1,-1,-1,-1,,9999,0,0,1,FEW 30,1,2,-1,10,1018,RJFN 261200Z 25004KT 9999 FEW030 02/M10 Q1018 RMK 1CU030     A3009=,
20180126_130000.003,0,RJFN,,,,0,20180126130000,-1,-1,-1,-1,280,-1,6,-1,-1,-1,-1,,9999,0,0,1,FEW 30,1,0,-1,10,1019,RJFN 261300Z 28006KT 9999 FEW030 00/M10 Q1019 RMK 1CU030     A3010=,
20180126_140000.003,0,RJFN,,,,0,20180126140000,-1,-1,-1,-1,200,-1,6,-1,-1,-1,-1,,9999,0,0,1,NSC -1,-1,3,-1,10,1020,RJFN 261400Z 20006KT 9999 NSC M03/M10 Q1020 RMK A3013=,
20180126_150000.003,0,RJFN,,,,0,20180126150000,-1,-1,-1,-1,240,-1,5,-1,-1,-1,-1,,9999,0,0,1,NSC -1,-1,3,-1,11,1020,RJFN 261500Z 24005KT 9999 NSC M03/M11 Q1020 RMK A3014=,
20180126_160000.003,0,RJFN,,,,0,20180126160000,-1,-1,-1,-1,250,-1,6,-1,-1,-1,-1,,9999,0,0,1,NSC -1,-1,3,-1,10,1021,RJFN 261600Z 25006KT 9999 NSC M03/M10 Q1021 RMK A3015=,
20180126_170000.003,0,RJFN,,,,0,20180126170000,-1,-1,-1,-1,260,-1,7,-1,-1,-1,-1,,9999,0,0,1,NSC -1,-1,4,-1,10,1022,RJFN 261700Z 26007KT 9999 NSC M04/M10 Q1022 RMK A3018=,
20180126_180000.003,0,RJFN,,,,0,20180126180000,-1,-1,-1,-1,20,-1,3,-1,-1,340,40,,9999,0,0,1,NSC -1,-1,2,-1,10,1022,RJFN 261800Z 02003KT 340V040 9999 NSC M02/M10 Q1022 RMK A3018=,
20180126_190000.003,0,RJFN,,,,0,20180126190000,-1,-1,-1,-1,340,-1,3,-1,-1,-1,-1,,9999,0,0,1,FEW 30,-1,3,-1,10,1022,RJFN 261900Z 34003KT 9999 FEW030 M03/M10 Q1022 RMK 1CU030     A3018=,
20180126_200000.004,0,RJFN,,,,0,20180126200000,-1,-1,-1,-1,310,-1,5,-1,-1,-1,-1,,9999,0,0,1,FEW 30,-1,1,-1,11,1022,RJFN 262000Z 31005KT 9999 FEW030 M01/M11 Q1022 RMK 1CU030     A3018=,
20180126_210000.003,0,RJFN,,,,0,20180126210000,-1,-1,-1,-1,270,-1,9,-1,-1,-1,-1,,9999,0,0,1,FEW 30,-1,4,-1,9,1023,RJFN 262100Z 27009KT 9999 FEW030 M04/M09 Q1023 RMK 1CU030     A3021 09/M04=,
20180126_220000.003,0,RJFN,,,,0,20180126220000,-1,-1,-1,-1,260,-1,8,-1,-1,-1,-1,,9999,0,0,1,FEW 30,-1,5,-1,9,1023,RJFN 262200Z 26008KT 9999 FEW030 M05/M09 Q1023 RMK 1CU030     A3023=,
20180126_230000.003,0,RJFN,,,,0,20180126230000,-1,-1,-1,-1,300,-1,4,-1,-1,280,340,,9999,0,0,1,FEW 30,-1,3,-1,8,1024,RJFN 262300Z 30004KT 280V340 9999 FEW030 M03/M08 Q1024 RMK     1CU030 A3024=,
20180127_000000.003,0,RJFN,,,,0,20180127000000,-1,-1,-1,-1,270,-1,7,-1,-1,-1,-1,,9999,0,0,1,FEW 30,-1,0,-1,8,1024,RJFN 270000Z 27007KT 9999 FEW030 M00/M08 Q1024 RMK 1CU030     A3026=,
20180127_010000.003,0,RJFN,,,,0,20180127010000,-1,-1,-1,-1,270,-1,4,-1,-1,-1,-1,,9999,0,0,1,FEW 30,1,3,-1,10,1024,RJFN 270100Z 27004KT 9999 FEW030 03/M10 Q1024 RMK 1CU030     A3027=,
20180127_020000.003,0,RJFN,,,,0,20180127020000,-1,-1,-1,-1,20,-1,4,-1,-1,300,100,,9999,0,0,1,FEW 30,1,5,-1,8,1024,RJFN 270200Z 02004KT 300V100 9999 FEW030 05/M08 Q1024 RMK     1CU030 A3025=,
20180127_030000.003,0,RJFN,,,,0,20180127030000,-1,-1,-1,-1,999,-1,2,-1,-1,-1,-1,,9999,0,0,1,FEW 30,1,6,-1,9,1023,RJFN 270300Z VRB02KT 9999 FEW030 06/M09 Q1023 RMK 1CU030     A3023=,
20180127_040000.003,0,RJFN,,,,0,20180127040000,-1,-1,-1,-1,300,-1,3,-1,-1,220,340,,9999,0,0,1,FEW 30,1,6,-1,10,1022,RJFN 270400Z 30003KT 220V340 9999 FEW030 06/M10 Q1022 RMK     1CU030 A3019=,
20180127_050000.003,0,RJFN,,,,0,20180127050000,-1,-1,-1,-1,50,-1,7,-1,-1,10,100,,9999,0,0,1,FEW 30,1,7,-1,6,1021,RJFN 270500Z 05007KT 010V100 9999 FEW030 07/M06 Q1021 RMK     1CU030 A3018=,
20180127_060000.003,0,RJFN,,,,0,20180127060000,-1,-1,-1,-1,90,-1,8,-1,-1,50,120,,9999,0,0,1,FEW 30,1,7,-1,5,1021,RJFN 270600Z 09008KT 050V120 9999 FEW030 07/M05 Q1021 RMK     1CU030 A3016=,
20180127_070000.003,0,RJFN,,,,0,20180127070000,-1,-1,-1,-1,60,-1,4,-1,-1,10,110,,9999,0,0,1,FEW 30,1,7,-1,4,1021,RJFN 270700Z 06004KT 010V110 9999 FEW030 07/M04 Q1021 RMK     1CU030 A3017=,
20180127_080000.003,0,RJFN,,,,0,20180127080000,-1,-1,-1,-1,110,-1,3,-1,-1,80,150,,9999,0,0,1,FEW 30,1,7,-1,4,1021,RJFN 270800Z 11003KT 080V150 9999 FEW030 07/M04 Q1021 RMK     1CU030 A3018=,
20180127_090000.004,0,RJFN,,,,0,20180127090000,-1,-1,-1,-1,999,-1,1,-1,-1,-1,-1,,9999,0,0,1,FEW 30,1,6,-1,3,1022,RJFN 270900Z VRB01KT 9999 FEW030 06/M03 Q1022 RMK 1CU030     A3018=,
20180127_100000.003,0,RJFN,,,,0,20180127100000,-1,-1,-1,-1,250,-1,4,-1,-1,-1,-1,,9999,0,0,1,FEW 30,1,3,-1,3,1022,RJFN 271000Z 25004KT 9999 FEW030 03/M03 Q1022 RMK 1CU030     A3019=,
20180127_110000.003,0,RJFN,,,,0,20180127110000,-1,-1,-1,-1,290,-1,6,-1,-1,-1,-1,,9999,0,0,1,FEW 30,1,3,-1,3,1022,RJFN 271100Z 29006KT 9999 FEW030 03/M03 Q1022 RMK 1CU030     A3019=,
20180127_120000.003,0,RJFN,,,,0,20180127120000,-1,-1,-1,-1,300,-1,4,-1,-1,-1,-1,,9999,0,0,1,FEW 30,1,3,-1,3,1022,RJFN 271200Z 30004KT 9999 FEW030 03/M03 Q1022 RMK 1CU030     A3019=,
20180127_130000.003,0,RJFN,,,,0,20180127130000,-1,-1,-1,-1,290,-1,7,-1,-1,-1,-1,,9999,0,0,2,FEW 30   SCT 150,1,2,-1,3,1022,RJFN 271300Z 29007KT 9999 FEW030 SCT150 02/M03 Q1022 RMK     1CU030 4AC150 A3018=,
20180127_140000.004,0,RJFN,,,,0,20180127140000,-1,-1,-1,-1,300,-1,5,-1,-1,-1,-1,,9999,0,0,2,FEW 30   BKN 150,1,3,-1,3,1021,RJFN 271400Z 30005KT 9999 FEW030 BKN150 03/M03 Q1021 RMK     1CU030 7AC150 A3018=,
20180127_150000.003,0,RJFN,,,,0,20180127150000,-1,-1,-1,-1,330,-1,4,-1,-1,290,10,,9999,0,0,2,FEW 30   BKN 150,1,3,-1,2,1021,RJFN 271500Z 33004KT 290V010 9999 FEW030 BKN150 03/M02 Q1021     RMK 1CU030 7AC150 A3016=,
20180127_160000.003,0,RJFN,,,,0,20180127160000,-1,-1,-1,-1,290,-1,4,-1,-1,-1,-1,,9999,0,0,2,FEW 30   BKN 130,1,4,-1,2,1020,RJFN 271600Z 29004KT 9999 FEW030 BKN130 04/M02 Q1020 RMK     1CU030 7AS130 A3015=,
20180127_170000.003,0,RJFN,,,,0,20180127170000,-1,-1,-1,-1,300,-1,5,-1,-1,-1,-1,,9999,0,0,2,FEW 30   BKN 110,1,4,-1,3,1020,RJFN 271700Z 30005KT 9999 FEW030 BKN110 04/M03 Q1020 RMK     1CU030 7AS110 A3013=,
20180127_180000.003,0,RJFN,,,,0,20180127180000,-1,-1,-1,-1,290,-1,4,-1,-1,-1,-1,,9999,0,0,2,FEW 30   BKN 100,1,4,-1,2,1020,RJFN 271800Z 29004KT 9999 FEW030 BKN100 04/M02 Q1020 RMK     1CU030 7AS100 A3013=,
20180127_190000.003,0,RJFN,,,,0,20180127190000,-1,-1,-1,-1,290,-1,4,-1,-1,-1,-1,,9999,0,0,3,FEW 30   SCT 45   BKN 100,1,4,-1,2,1019,RJFN 271900Z 29004KT 9999 FEW030 SCT045 BKN100 04/M02 Q1019     RMK 1CU030 3SC045 7AS100 A3011=,
20180127_200000.003,0,RJFN,,,,0,20180127200000,-1,-1,-1,-1,290,-1,4,-1,-1,-1,-1,,9999,0,0,3,FEW 30   SCT 45   BKN 90,1,4,-1,2,1018,RJFN 272000Z 29004KT 9999 FEW030 SCT045 BKN090 04/M02 Q1018     RMK 1CU030 3SC045 7AS090 A3009=,
20180127_210000.003,0,RJFN,,,,0,20180127210000,-1,-1,-1,-1,290,-1,3,-1,-1,-1,-1,,9999,0,1,3,FEW 30   BKN 50   BKN 70,1,4,-1,0,1018,RJFN 272100Z 29003KT 9999 -RA FEW030 BKN050 BKN070 04/M00     Q1018 RMK 1CU030 6SC050 7AS070 A3008 08/02 R000=,- RA
20180127_220000.003,0,RJFN,,,,0,20180127220000,-1,-1,-1,-1,290,-1,5,-1,-1,-1,-1,,9999,0,1,3,FEW 20   BKN 30   BKN 50,1,3,1,2,1019,RJFN 272200Z 29005KT 9999 -RA FEW020 BKN030 BKN050 03/02 Q1019     RMK 1CU020 6SC030 7SC050 A3010=,- RA
20180127_230000.003,0,RJFN,,,,0,20180127230000,-1,-1,-1,-1,270,-1,3,-1,-1,-1,-1,,9999,0,1,3,FEW 20   SCT 30   BKN 50,1,3,1,3,1018,RJFN 272300Z 27003KT 9999 -RA FEW020 SCT030 BKN050 03/03 Q1018     RMK 1CU020 4SC030 5SC050 A3008=,- RA
20180128_000000.004,0,RJFN,,,,0,20180128000000,-1,-1,-1,-1,290,-1,5,-1,-1,-1,-1,,9999,0,1,3,FEW 25   SCT 35   BKN 50,1,4,1,4,1018,RJFN 280000Z 29005KT 9999 -RA FEW025 SCT035 BKN050 04/04 Q1018     RMK 1CU025 3SC035 5SC050 A3008=,- RA
20180128_010000.003,0,RJFN,,,,0,20180128010000,-1,-1,-1,-1,290,-1,4,-1,-1,-1,-1,,9999,0,1,3,FEW 25   SCT 50   BKN 70,1,6,1,5,1017,RJFN 280100Z 29004KT 9999 -RA FEW025 SCT050 BKN070 06/05 Q1017     RMK 1CU025 3SC050 7AS070 A3006=,- RA
20180128_020000.003,0,RJFN,,,,0,20180128020000,-1,-1,-1,-1,290,-1,3,-1,-1,250,320,,9999,0,0,3,FEW 25   SCT 40   BKN 70,1,8,1,5,1017,RJFN 280200Z 29003KT 250V320 9999 FEW025 SCT040 BKN070 08/05     Q1017 RMK 1CU025 3SC040 6AC070 A3004=,
20180128_030000.003,0,RJFN,,,,0,20180128030000,-1,-1,-1,-1,300,-1,4,-1,-1,260,320,,9999,0,1,3,FEW 25   SCT 50   BKN 70,1,9,1,5,1015,RJFN 280300Z 30004KT 260V320 9999 -SHRA FEW025 SCT050 BKN070     09/05 Q1015 RMK 1CU025 3SC050 7AC070 A3000=,- RA SH
20180128_040000.003,0,RJFN,,,,0,20180128040000,-1,-1,-1,-1,280,-1,6,-1,-1,-1,-1,,9999,0,1,3,FEW 25   BKN 50   BKN 70,1,9,1,6,1015,RJFN 280400Z 28006KT 9999 -SHRA FEW025 BKN050 BKN070 09/06     Q1015 RMK 1CU025 5SC050 7AC070 A2999=,- RA SH
20180128_050000.003,0,RJFN,,,,0,20180128050000,-1,-1,-1,-1,270,-1,5,-1,-1,-1,-1,,9999,0,1,3,FEW 25   BKN 50   BKN 70,1,9,1,7,1015,RJFN 280500Z 27005KT 9999 -SHRA FEW025 BKN050 BKN070 09/07     Q1015 RMK 1CU025 6SC050 7AC070 A2998=,- RA SH
20180128_060000.003,0,RJFN,,,,0,20180128060000,-1,-1,-1,-1,260,-1,5,-1,-1,-1,-1,,5000,0,2,3,FEW 20   BKN 50   BKN 70,1,8,1,7,1014,RJFN 280600Z 26005KT 5000 -SHRA BR FEW020 BKN050 BKN070 08/07     Q1014 RMK 1CU020 5SC050 7AC070 A2997=,- RA SH; BR
20180128_070000.004,0,RJFN,,,,0,20180128070000,-1,-1,-1,-1,250,-1,5,-1,-1,-1,-1,,5000,0,2,3,FEW 15   BKN 50   BKN 70,1,8,1,8,1014,RJFN 280700Z 25005KT 5000 -SHRA BR FEW015 BKN050 BKN070 08/08     Q1014 RMK 1CU015 6SC050 7AC070 A2996=,- RA SH; BR
20180128_080000.003,0,RJFN,,,,0,20180128080000,-1,-1,-1,-1,260,-1,6,-1,-1,-1,-1,,9999,0,1,3,FEW 15   BKN 80   BKN 110,1,8,1,8,1014,RJFN 280800Z 26006KT 9999 -SHRA FEW015 BKN080 BKN110 08/08     Q1014 RMK 1CU015 6AC080 7AC110 A2996=,- RA SH
20180128_090000.003,0,RJFN,,,,0,20180128090000,-1,-1,-1,-1,310,-1,5,-1,-1,-1,-1,,9999,0,1,2,FEW 15   BKN 80,1,7,1,6,1014,RJFN 280900Z 31005KT 9999 -SHRA FEW015 BKN080 07/06 Q1014 RMK     1CU015 7AC080 A2996=,- RA SH
20180128_100000.003,0,RJFN,,,,0,20180128100000,-1,-1,-1,-1,320,-1,6,-1,-1,-1,-1,,9999,0,1,3,FEW 15   SCT 50   OVC 80,1,7,1,6,1014,RJFN 281000Z 32006KT 9999 -RA FEW015 SCT050 OVC080 07/06 Q1014     RMK 1SC015 3SC050 8AS080 A2997=,- RA
20180128_110000.003,0,RJFN,,,,0,20180128110000,-1,-1,-1,-1,250,-1,4,-1,-1,-1,-1,,9999,0,1,3,FEW 15   SCT 50   OVC 70,1,7,1,7,1015,RJFN 281100Z 25004KT 9999 -RA FEW015 SCT050 OVC070 07/07 Q1015     RMK 1SC015 3SC050 8AS070 A2997=,- RA
20180128_120000.003,0,RJFN,,,,0,20180128120000,-1,-1,-1,-1,0,-1,0,-1,-1,-1,-1,,9999,0,1,3,FEW 15   SCT 50   OVC 70,1,7,1,7,1014,RJFN 281200Z 00000KT 9999 -RA FEW015 SCT050 OVC070 07/07 Q1014     RMK 1SC015 3SC050 8AS070 A2996=,- RA
20180128_130000.003,0,RJFN,,,,0,20180128130000,-1,-1,-1,-1,250,-1,7,-1,-1,-1,-1,,7000,0,1,3,FEW 15   SCT 50   OVC 70,1,6,1,6,1015,RJFN 281300Z 25007KT 7000 -RA FEW015 SCT050 OVC070 06/06 Q1015     RMK 1SC015 3SC050 8AS070 A2997 VIS SW-W 5KM=,- RA
20180128_140000.003,0,RJFN,,,,0,20180128140000,-1,-1,-1,-1,270,-1,6,-1,-1,-1,-1,,8000,0,1,3,FEW 20   SCT 50   OVC 70,1,6,1,6,1015,RJFN 281400Z 27006KT 8000 -RA FEW020 SCT050 OVC070 06/06 Q1015     RMK 1SC020 3SC050 8AS070 A2998=,- RA
20180128_150000.003,0,RJFN,,,,0,20180128150000,-1,-1,-1,-1,240,-1,6,-1,-1,-1,-1,,9999,0,1,3,FEW 20   SCT 50   OVC 70,1,5,1,5,1014,RJFN 281500Z 24006KT 9999 -RA FEW020 SCT050 OVC070 05/05 Q1014     RMK 1SC020 3SC050 8AS070 A2995=,- RA
20180128_160000.003,0,RJFN,,,,0,20180128160000,-1,-1,-1,-1,240,-1,4,-1,-1,-1,-1,,9999,0,1,3,FEW 8   BKN 20   OVC 70,1,5,1,5,1013,RJFN 281600Z 24004KT 9999 -RA FEW008 BKN020 OVC070 05/05 Q1013     RMK 1ST008 5SC020 8AS070 A2993=,- RA
20180128_170000.003,0,RJFN,,,,0,20180128170000,-1,-1,-1,-1,250,-1,4,-1,-1,-1,-1,,9999,0,0,3,FEW 10   BKN 20   BKN 70,1,5,1,5,1013,RJFN 281700Z 25004KT 9999 FEW010 BKN020 BKN070 05/05 Q1013 RMK     1ST010 5SC020 7AS070 A2993=,
20180128_180000.003,0,RJFN,,,,0,20180128180000,-1,-1,-1,-1,280,-1,8,-1,-1,-1,-1,,9999,0,0,3,FEW 10   BKN 25   BKN 80,1,5,1,5,1013,RJFN 281800Z 28008KT 9999 FEW010 BKN025 BKN080 05/05 Q1013 RMK     1ST010 6SC025 7AS080 A2994=,
20180128_190000.003,0,RJFN,,,,0,20180128190000,-1,-1,-1,-1,250,-1,7,-1,-1,-1,-1,,9999,0,0,3,FEW 20   BKN 30   BKN 80,1,5,1,5,1013,RJFN 281900Z 25007KT 9999 FEW020 BKN030 BKN080 05/05 Q1013 RMK     1SC020 5SC030 6AC080 A2992=,
20180128_200000.003,0,RJFN,,,,0,20180128200000,-1,-1,-1,-1,250,-1,7,-1,-1,-1,-1,,9999,0,0,3,FEW 20   BKN 30   BKN 110,1,4,1,4,1012,RJFN 282000Z 25007KT 9999 FEW020 BKN030 BKN110 04/04 Q1012 RMK     1SC020 5SC030 6AC110 A2991=,
20180128_210000.003,0,RJFN,,,,0,20180128210000,-1,-1,-1,-1,270,-1,8,-1,-1,-1,-1,,9999,0,0,3,FEW 20   BKN 30   BKN 110,1,5,1,3,1013,RJFN 282100Z 27008KT 9999 FEW020 BKN030 BKN110 05/03 Q1013 RMK     1SC020 5SC030 5AC110 A2992 09/04 R004=,
20180128_220000.004,0,RJFN,,,,0,20180128220000,-1,-1,-1,-1,270,-1,8,-1,-1,-1,-1,,9999,0,0,3,FEW 20   BKN 30   BKN 210,1,4,1,2,1014,RJFN 282200Z 27008KT 9999 FEW020 BKN030 BKN210 04/02 Q1014 RMK     1SC020 6SC030 A2994=,
20180128_230000.003,0,RJFN,,,,0,20180128230000,-1,-1,-1,-1,270,-1,10,-1,-1,-1,-1,,9999,0,0,2,FEW 20   BKN 30,1,5,1,1,1014,RJFN 282300Z 27010KT 9999 FEW020 BKN030 05/01 Q1014 RMK 1CU020     7SC030 A2996=,
20180129_000000.004,0,RJFN,,,,0,20180129000000,-1,-1,-1,-1,240,-1,7,-1,-1,-1,-1,,9999,0,0,2,FEW 20   BKN 30,1,5,1,3,1015,RJFN 290000Z 24007KT 9999 FEW020 BKN030 05/03 Q1015 RMK 1CU020     7SC030 A2997=,
20180129_010000.003,0,RJFN,,,,0,20180129010000,-1,-1,-1,-1,260,-1,8,-1,-1,-1,-1,,9999,0,0,2,FEW 20   BKN 35,1,6,1,2,1015,RJFN 290100Z 26008KT 9999 FEW020 BKN035 06/02 Q1015 RMK 1CU020     7SC035 A2999=,
20180129_020000.003,0,RJFN,,,,0,20180129020000,-1,-1,-1,-1,250,-1,8,-1,-1,-1,-1,,9999,0,0,2,FEW 20   BKN 35,1,7,1,0,1015,RJFN 290200Z 25008KT 9999 FEW020 BKN035 07/00 Q1015 RMK 1CU020     7SC035 A2998=,
20180129_030000.003,0,RJFN,,,,0,20180129030000,-1,-1,-1,-1,260,-1,5,-1,-1,190,330,,9999,0,0,2,FEW 20   BKN 35,1,9,-1,1,1014,RJFN 290300Z 26005KT 190V330 9999 FEW020 BKN035 09/M01 Q1014     RMK 1CU020 7SC035 A2996=,
20180129_040000.003,0,RJFN,,,,0,20180129040000,-1,-1,-1,-1,260,-1,6,-1,-1,210,310,,9999,0,0,2,FEW 20   SCT 35,1,10,-1,1,1013,RJFN 290400Z 26006KT 210V310 9999 FEW020 SCT035 10/M01 Q1013     RMK 1CU020 3SC035 A2993=,
20180129_050000.003,0,RJFN,,,,0,20180129050000,-1,-1,-1,-1,260,-1,5,-1,-1,200,310,,9999,0,0,2,FEW 25   SCT 40,1,10,-1,2,1013,RJFN 290500Z 26005KT 200V310 9999 FEW025 SCT040 10/M02 Q1013     RMK 1CU025 3SC040 A2992=,
20180129_060000.003,0,RJFN,,,,0,20180129060000,-1,-1,-1,-1,60,-1,7,-1,-1,20,110,,9999,0,0,1,FEW 25,1,10,-1,0,1013,RJFN 290600Z 06007KT 020V110 9999 FEW025 10/M00 Q1013 RMK     1CU025 A2991=,
20180129_070000.003,0,RJFN,,,,0,20180129070000,-1,-1,-1,-1,60,-1,5,-1,-1,20,100,,9999,0,0,2,FEW 25   SCT 35,1,9,1,2,1013,RJFN 290700Z 06005KT 020V100 9999 FEW025 SCT035 09/02 Q1013     RMK 1CU025 4SC035 A2993=,
20180129_080000.003,0,RJFN,,,,0,20180129080000,-1,-1,-1,-1,270,-1,12,-1,-1,-1,-1,,9999,0,0,1,FEW 25,1,8,-1,5,1014,RJFN 290800Z 27012KT 9999 FEW025 08/M05 Q1014 RMK 1CU025     A2997=,
20180129_090000.003,0,RJFN,,,,0,20180129090000,-1,-1,-1,-1,240,-1,11,-1,-1,-1,-1,,9999,0,0,1,FEW 30,1,5,-1,5,1015,RJFN 290900Z 24011KT 9999 FEW030 05/M05 Q1015 RMK 1CU030     A3000=,
20180129_100000.003,0,RJFN,,,,0,20180129100000,-1,-1,-1,-1,270,-1,14,-1,-1,-1,-1,,9999,0,0,1,FEW 30,1,4,-1,6,1016,RJFN 291000Z 27014KT 9999 FEW030 04/M06 Q1016 RMK 1CU030     A3002=,
20180129_110000.003,0,RJFN,,,,0,20180129110000,-1,-1,-1,-1,260,-1,10,-1,-1,-1,-1,,9999,0,0,1,FEW 30,1,3,-1,7,1017,RJFN 291100Z 26010KT 9999 FEW030 03/M07 Q1017 RMK 1CU030     A3005=,
20180129_120000.003,0,RJFN,,,,0,20180129120000,-1,-1,-1,-1,280,-1,6,-1,-1,-1,-1,,9999,0,0,1,FEW 30,1,2,-1,6,1017,RJFN 291200Z 28006KT 9999 FEW030 02/M06 Q1017 RMK 1CU030     A3003=,
20180129_130000.003,0,RJFN,,,,0,20180129130000,-1,-1,-1,-1,220,-1,6,-1,-1,-1,-1,,9999,0,0,1,FEW 30,1,1,-1,5,1017,RJFN 291300Z 22006KT 9999 FEW030 01/M05 Q1017 RMK 1CU030     A3006=,
20180129_140000.003,0,RJFN,,,,0,20180129140000,-1,-1,-1,-1,240,-1,6,-1,-1,-1,-1,,9999,0,0,1,FEW 30,1,0,-1,6,1018,RJFN 291400Z 24006KT 9999 FEW030 00/M06 Q1018 RMK 1CU030     A3008=,
20180129_150000.003,0,RJFN,,,,0,20180129150000,-1,-1,-1,-1,270,-1,7,-1,-1,-1,-1,,9999,0,0,1,FEW 30,-1,1,-1,6,1018,RJFN 291500Z 27007KT 9999 FEW030 M01/M06 Q1018 RMK 1CU030     A3009=,
20180129_160000.003,0,RJFN,,,,0,20180129160000,-1,-1,-1,-1,270,-1,7,-1,-1,-1,-1,,9999,0,0,1,FEW 30,-1,1,-1,5,1018,RJFN 291600Z 27007KT 9999 FEW030 M01/M05 Q1018 RMK 1CU030     A3008=,
20180129_170000.003,0,RJFN,,,,0,20180129170000,-1,-1,-1,-1,280,-1,11,-1,-1,-1,-1,,9999,0,0,1,FEW 30,-1,1,-1,5,1019,RJFN 291700Z 28011KT 9999 FEW030 M01/M05 Q1019 RMK 1CU030     A3010=,
20180129_180000.003,0,RJFN,,,,0,20180129180000,-1,-1,-1,-1,290,-1,6,-1,-1,-1,-1,,9999,0,0,1,FEW 30,-1,2,-1,7,1019,RJFN 291800Z 29006KT 9999 FEW030 M02/M07 Q1019 RMK 1CU030     A3010=,
20180129_190000.003,0,RJFN,,,,0,20180129190000,-1,-1,-1,-1,280,-1,5,-1,-1,-1,-1,,9999,0,0,1,FEW 30,-1,2,-1,5,1020,RJFN 291900Z 28005KT 9999 FEW030 M02/M05 Q1020 RMK 1CU030     A3013=,
20180129_200000.003,0,RJFN,,,,0,20180129200000,-1,-1,-1,-1,280,-1,5,-1,-1,-1,-1,,9999,0,0,1,FEW 30,-1,3,-1,6,1020,RJFN 292000Z 28005KT 9999 FEW030 M03/M06 Q1020 RMK 1CU030     A3013=,
20180129_210000.003,0,RJFN,,,,0,20180129210000,-1,-1,-1,-1,280,-1,7,-1,-1,-1,-1,,9999,0,0,1,FEW 30,-1,3,-1,5,1020,RJFN 292100Z 28007KT 9999 FEW030 M03/M05 Q1020 RMK 1CU030     A3014 11/M03=,
20180129_220000.003,0,RJFN,,,,0,20180129220000,-1,-1,-1,-1,270,-1,8,-1,-1,-1,-1,,9999,0,0,1,FEW 30,-1,2,-1,4,1021,RJFN 292200Z 27008KT 9999 FEW030 M02/M04 Q1021 RMK 1CU030     A3016=,
20180129_230000.003,0,RJFN,,,,0,20180129230000,-1,-1,-1,-1,280,-1,8,-1,-1,-1,-1,,9999,0,0,1,FEW 30,-1,1,-1,5,1021,RJFN 292300Z 28008KT 9999 FEW030 M01/M05 Q1021 RMK 1CU030     A3018=,
20180130_000000.003,0,RJFN,,,,0,20180130000000,-1,-1,-1,-1,290,-1,7,-1,-1,-1,-1,,9999,0,0,1,FEW 30,1,2,-1,6,1022,RJFN 300000Z 29007KT 9999 FEW030 02/M06 Q1022 RMK 1CU030     A3019=,
20180130_010000.003,0,RJFN,,,,0,20180130010000,-1,-1,-1,-1,280,-1,8,-1,-1,-1,-1,,9999,0,0,1,FEW 35,1,5,-1,7,1022,RJFN 300100Z 28008KT 9999 FEW035 05/M07 Q1022 RMK 1CU035     A3019=,
20180130_020000.003,0,RJFN,,,,0,20180130020000,-1,-1,-1,-1,270,-1,6,-1,-1,230,330,,9999,0,0,2,FEW 35   SCT 220,1,5,-1,7,1022,RJFN 300200Z 27006KT 230V330 9999 FEW035 SCT220 05/M07 Q1022     RMK 1CU035 A3018=,
20180130_030000.003,0,RJFN,,,,0,20180130030000,-1,-1,-1,-1,999,-1,4,-1,-1,-1,-1,,9999,0,0,2,FEW 35   BKN 220,1,6,-1,7,1021,RJFN 300300Z VRB04KT 9999 FEW035 BKN220 06/M07 Q1021 RMK     1CU035 A3016=,
20180130_040000.003,0,RJFN,,,,0,20180130040000,-1,-1,-1,-1,160,-1,6,-1,-1,100,210,,9999,0,0,2,FEW 35   BKN 220,1,7,-1,7,1020,RJFN 300400Z 16006KT 100V210 9999 FEW035 BKN220 07/M07 Q1020     RMK 1CU035 A3013=,
20180130_050000.003,0,RJFN,,,,0,20180130050000,-1,-1,-1,-1,100,-1,7,-1,-1,40,140,,9999,0,0,2,FEW 35   BKN 220,1,8,-1,5,1019,RJFN 300500Z 10007KT 040V140 9999 FEW035 BKN220 08/M05 Q1019     RMK 1CU035 A3012=,
20180130_060000.004,0,RJFN,,,,0,20180130060000,-1,-1,-1,-1,60,-1,10,-1,-1,20,80,,9999,0,0,2,FEW 35   BKN 230,1,7,-1,4,1019,RJFN 300600Z 06010KT 020V080 9999 FEW035 BKN230 07/M04 Q1019     RMK 1CU035 A3012=,
20180130_070000.003,0,RJFN,,,,0,20180130070000,-1,-1,-1,-1,50,-1,6,-1,-1,10,90,,9999,0,0,2,FEW 30   SCT 230,1,7,-1,4,1020,RJFN 300700Z 05006KT 010V090 9999 FEW030 SCT230 07/M04 Q1020     RMK 1CU030 A3015=,
20180130_080000.003,0,RJFN,,,,0,20180130080000,-1,-1,-1,-1,40,-1,5,-1,-1,10,80,,9999,0,0,1,FEW 30,1,7,-1,3,1021,RJFN 300800Z 04005KT 010V080 9999 FEW030 07/M03 Q1021 RMK     1CU030 A3016=,
20180130_090000.003,0,RJFN,,,,0,20180130090000,-1,-1,-1,-1,10,-1,3,-1,-1,-1,-1,,9999,0,0,1,FEW 30,1,5,-1,3,1022,RJFN 300900Z 01003KT 9999 FEW030 05/M03 Q1022 RMK 1CU030     A3019=,
20180130_100000.003,0,RJFN,,,,0,20180130100000,-1,-1,-1,-1,360,-1,4,-1,-1,-1,-1,,9999,0,0,1,FEW 30,1,4,-1,4,1022,RJFN 301000Z 36004KT 9999 FEW030 04/M04 Q1022 RMK 1CU030     A3020=,
20180130_110000.003,0,RJFN,,,,0,20180130110000,-1,-1,-1,-1,250,-1,6,-1,-1,-1,-1,,9999,0,0,1,FEW 30,1,2,-1,3,1023,RJFN 301100Z 25006KT 9999 FEW030 02/M03 Q1023 RMK 1CU030     A3022=,
20180130_120000.003,0,RJFN,,,,0,20180130120000,-1,-1,-1,-1,250,-1,6,-1,-1,-1,-1,,9999,0,0,1,FEW 30,1,1,-1,4,1024,RJFN 301200Z 25006KT 9999 FEW030 01/M04 Q1024 RMK 1CU030     A3024=,
20180130_130000.003,0,RJFN,,,,0,20180130130000,-1,-1,-1,-1,260,-1,7,-1,-1,-1,-1,,9999,0,0,1,FEW 30,1,1,-1,5,1024,RJFN 301300Z 26007KT 9999 FEW030 01/M05 Q1024 RMK 1CU030     A3025=,
20180130_140000.003,0,RJFN,,,,0,20180130140000,-1,-1,-1,-1,250,-1,6,-1,-1,-1,-1,,9999,0,0,1,FEW 30,-1,1,-1,4,1024,RJFN 301400Z 25006KT 9999 FEW030 M01/M04 Q1024 RMK 1CU030     A3025=,
20180130_150000.003,0,RJFN,,,,0,20180130150000,-1,-1,-1,-1,290,-1,8,-1,-1,-1,-1,,9999,0,0,1,FEW 30,1,0,-1,5,1024,RJFN 301500Z 29008KT 9999 FEW030 00/M05 Q1024 RMK 1CU030     A3024=,
20180130_160000.003,0,RJFN,,,,0,20180130160000,-1,-1,-1,-1,300,-1,9,-1,-1,-1,-1,,9999,0,0,1,FEW 30,1,1,-1,5,1023,RJFN 301600Z 30009KT 9999 FEW030 01/M05 Q1023 RMK 1CU030     A3023=,
20180130_170000.003,0,RJFN,,,,0,20180130170000,-1,-1,-1,-1,280,-1,8,-1,-1,-1,-1,,9999,0,0,2,FEW 30   SCT -9999,1,1,-1,5,1024,RJFN 301700Z 28008KT 9999 FEW030 SCT/// 01/M05 Q1024 RMK     1CU030 A3025=,
20180130_180000.003,0,RJFN,,,,0,20180130180000,-1,-1,-1,-1,300,-1,6,-1,-1,-1,-1,,9999,0,0,1,FEW 30,1,0,-1,5,1024,RJFN 301800Z 30006KT 9999 FEW030 00/M05 Q1024 RMK 1CU030     A3026=,
20180130_190000.003,0,RJFN,,,,0,20180130190000,-1,-1,-1,-1,270,-1,8,-1,-1,-1,-1,,9999,0,0,1,FEW 30,-1,1,-1,4,1025,RJFN 301900Z 27008KT 9999 FEW030 M01/M04 Q1025 RMK 1CU030     A3027=,
20180130_200000.003,0,RJFN,,,,0,20180130200000,-1,-1,-1,-1,260,-1,7,-1,-1,-1,-1,,9999,0,0,1,FEW 30,-1,2,-1,4,1025,RJFN 302000Z 26007KT 9999 FEW030 M02/M04 Q1025 RMK 1CU030     A3029=,
20180130_210000.003,0,RJFN,,,,0,20180130210000,-1,-1,-1,-1,250,-1,7,-1,-1,-1,-1,,9999,0,0,2,FEW 25   SCT 35,-1,1,-1,4,1025,RJFN 302100Z 25007KT 9999 FEW025 SCT035 M01/M04 Q1025 RMK     1CU025 3SC035 A3028 08/M02=,
20180130_220000.003,0,RJFN,,,,0,20180130220000,-1,-1,-1,-1,270,-1,6,-1,-1,-1,-1,,9999,0,0,2,FEW 25   BKN 35,-1,1,-1,3,1025,RJFN 302200Z 27006KT 9999 FEW025 BKN035 M01/M03 Q1025 RMK     1CU025 6SC035 A3029=,
20180130_230000.003,0,RJFN,,,,0,20180130230000,-1,-1,-1,-1,300,-1,4,-1,-1,-1,-1,,9999,0,0,3,FEW 25   BKN 30   BKN 250,1,1,-1,3,1025,RJFN 302300Z 30004KT 9999 FEW025 BKN030 BKN250 01/M03 Q1025     RMK 1CU025 6SC030 A3029=,
20180131_000000.003,0,RJFN,,,,0,20180131000000,-1,-1,-1,-1,280,-1,3,-1,-1,-1,-1,,9999,0,0,2,FEW 25   BKN 35,1,2,-1,2,1025,RJFN 310000Z 28003KT 9999 FEW025 BKN035 02/M02 Q1025 RMK     1CU025 7SC035 A3029=,
20180131_010000.003,0,RJFN,,,,0,20180131010000,-1,-1,-1,-1,30,-1,5,-1,-1,360,60,,9999,0,0,3,FEW 25   SCT 35   BKN 45,1,5,-1,4,1025,RJFN 310100Z 03005KT 360V060 9999 FEW025 SCT035 BKN045 05/M04     Q1025 RMK 1CU025 3SC035 5SC045 A3029=,
20180131_020000.003,0,RJFN,,,,0,20180131020000,-1,-1,-1,-1,30,-1,5,-1,-1,350,70,,9999,0,0,3,FEW 25   SCT 35   BKN 230,1,7,-1,3,1025,RJFN 310200Z 03005KT 350V070 9999 FEW025 SCT035 BKN230 07/M03     Q1025 RMK 1CU025 4SC035 A3027=,
20180131_030000.003,0,RJFN,,,,0,20180131030000,-1,-1,-1,-1,50,-1,4,-1,-1,10,120,,9999,0,0,3,FEW 25   BKN 35   BKN 230,1,7,-1,5,1025,RJFN 310300Z 05004KT 010V120 9999 FEW025 BKN035 BKN230 07/M05     Q1025 RMK 1CU025 6SC035 A3028=,
20180131_040000.003,0,RJFN,,,,0,20180131040000,-1,-1,-1,-1,999,-1,2,-1,-1,-1,-1,,9999,0,0,3,FEW 25   BKN 50   BKN 230,1,8,-1,4,1024,RJFN 310400Z VRB02KT 9999 FEW025 BKN050 BKN230 08/M04 Q1024     RMK 1CU025 5SC050 A3024=,
20180131_050000.003,0,RJFN,,,,0,20180131050000,-1,-1,-1,-1,999,-1,3,-1,-1,-1,-1,,9999,0,0,3,FEW 35   BKN 50   BKN 220,1,9,-1,3,1023,RJFN 310500Z VRB03KT 9999 FEW035 BKN050 BKN220 09/M03 Q1023     RMK 2SC035 6SC050 A3021=,
20180131_060000.003,0,RJFN,,,,0,20180131060000,-1,-1,-1,-1,20,-1,4,-1,-1,320,90,,9999,0,0,3,FEW 35   SCT 50   BKN 210,1,9,-1,3,1022,RJFN 310600Z 02004KT 320V090 9999 FEW035 SCT050 BKN210 09/M03     Q1022 RMK 2SC035 3SC050 A3020=,
20180131_070000.004,0,RJFN,,,,0,20180131070000,-1,-1,-1,-1,130,-1,3,-1,-1,110,170,,9999,0,0,3,SCT 35   BKN 45   BKN 130,1,8,-1,2,1022,RJFN 310700Z 13003KT 110V170 9999 SCT035 BKN045 BKN130 08/M02     Q1022 RMK 3SC035 6SC045 7AC130 A3020=,
20180131_080000.004,0,RJFN,,,,0,20180131080000,-1,-1,-1,-1,999,-1,2,-1,-1,-1,-1,,9999,0,0,3,FEW 30   BKN 40   BKN 130,1,8,-1,1,1022,RJFN 310800Z VRB02KT 9999 FEW030 BKN040 BKN130 08/M01 Q1022     RMK 1SC030 6SC040 7AC130 A3020=,
20180131_090000.003,0,RJFN,,,,0,20180131090000,-1,-1,-1,-1,230,-1,3,-1,-1,-1,-1,,9999,0,0,3,FEW 30   BKN 40   BKN 130,1,8,1,0,1023,RJFN 310900Z 23003KT 9999 FEW030 BKN040 BKN130 08/00 Q1023 RMK     1SC030 6SC040 7AC130 A3022=,
20180131_100000.003,0,RJFN,,,,0,20180131100000,-1,-1,-1,-1,310,-1,4,-1,-1,-1,-1,,9999,0,0,2,FEW 20   BKN 35,1,8,1,0,1023,RJFN 311000Z 31004KT 9999 FEW020 BKN035 08/00 Q1023 RMK 1CU020     7SC035 A3021=,
20180131_110000.003,0,RJFN,,,,0,20180131110000,-1,-1,-1,-1,330,-1,4,-1,-1,-1,-1,,9999,0,0,2,FEW 20   BKN 35,1,7,1,0,1022,RJFN 311100Z 33004KT 9999 FEW020 BKN035 07/00 Q1022 RMK 1CU020     7SC035 A3018=,
20180131_120000.003,0,RJFN,,,,0,20180131120000,-1,-1,-1,-1,330,-1,4,-1,-1,-1,-1,,9999,0,0,2,FEW 20   BKN 35,1,7,-1,0,1022,RJFN 311200Z 33004KT 9999 FEW020 BKN035 07/M00 Q1022 RMK     1CU020 7SC035 A3018=,
20180131_130000.004,0,RJFN,,,,0,20180131130000,-1,-1,-1,-1,310,-1,5,-1,-1,-1,-1,,9999,0,1,2,FEW 20   BKN 35,1,7,1,1,1022,RJFN 311300Z 31005KT 9999 -RA FEW020 BKN035 07/01 Q1022 RMK     1CU020 7SC035 A3019=,- RA
20180131_140000.003,0,RJFN,,,,0,20180131140000,-1,-1,-1,-1,360,-1,6,-1,-1,340,40,,9999,0,1,2,FEW 20   BKN 30,1,7,1,3,1022,RJFN 311400Z 36006KT 340V040 9999 -RA FEW020 BKN030 07/03     Q1022 RMK 1CU020 7SC030 A3019=,- RA
20180131_150000.003,0,RJFN,,,,0,20180131150000,-1,-1,-1,-1,320,-1,4,-1,-1,-1,-1,,8000,0,1,2,FEW 20   OVC 30,1,6,1,3,1022,RJFN 311500Z 32004KT 8000 -RA FEW020 OVC030 06/03 Q1022 RMK     1CU020 8SC030 A3019=,- RA
20180131_160000.003,0,RJFN,,,,0,20180131160000,-1,-1,-1,-1,320,-1,5,-1,-1,-1,-1,,8000,0,1,2,FEW 20   OVC 30,1,6,1,4,1021,RJFN 311600Z 32005KT 8000 -RA FEW020 OVC030 06/04 Q1021 RMK     1CU020 8SC030 A3018=,- RA
20180131_170000.003,0,RJFN,,,,0,20180131170000,-1,-1,-1,-1,360,-1,3,-1,-1,-1,-1,,7000,0,1,2,FEW 20   OVC 30,1,5,1,4,1022,RJFN 311700Z 36003KT 7000 -RA FEW020 OVC030 05/04 Q1022 RMK     1CU020 8SC030 A3018=,- RA
20180131_180000.003,0,RJFN,,,,0,20180131180000,-1,-1,-1,-1,20,-1,6,-1,-1,350,50,,7000,0,1,2,FEW 20   OVC 30,1,5,1,4,1021,RJFN 311800Z 02006KT 350V050 7000 -RA FEW020 OVC030 05/04     Q1021 RMK 1CU020 8SC030 A3017=,- RA
20180131_190000.004,0,RJFN,,,,0,20180131190000,-1,-1,-1,-1,10,-1,6,-1,-1,340,40,,5000,0,2,2,FEW 10   OVC 30,1,4,1,4,1021,RJFN 311900Z 01006KT 340V040 5000 -RA BR FEW010 OVC030 04/04     Q1021 RMK 1ST010 8SC030 A3016=,- RA; BR
20180131_200000.004,0,RJFN,,,,0,20180131200000,-1,-1,-1,-1,20,-1,5,-1,-1,-1,-1,,5000,0,2,2,FEW 10   OVC 30,1,4,1,4,1021,RJFN 312000Z 02005KT 5000 -RA BR FEW010 OVC030 04/04 Q1021 RMK     1ST010 8SC030 A3016=,- RA; BR
20180131_210000.003,0,RJFN,,,,0,20180131210000,-1,-1,-1,-1,20,-1,7,-1,-1,350,50,,4500,0,2,2,FEW 6   OVC 30,1,3,1,3,1022,RJFN 312100Z 02007KT 350V050 4500 RA BR FEW006 OVC030 03/03     Q1022 RMK 1ST006 8SC030 A3018 09/03 R007=,RA; BR
20180131_220000.003,0,RJFN,,,,0,20180131220000,-1,-1,-1,-1,20,-1,8,-1,-1,-1,-1,,5000,0,2,3,FEW 6   BKN 30   OVC 45,1,3,1,3,1022,RJFN 312200Z 02008KT 5000 RA BR FEW006 BKN030 OVC045 03/03     Q1022 RMK 2ST006 5SC030 8SC045 A3019 2ST006 E-SE=,RA; BR
20180131_230000.003,0,RJFN,,,,0,20180131230000,-1,-1,-1,-1,30,-1,8,-1,-1,-1,-1,,8000,0,1,3,FEW 5   SCT 25   OVC 45,1,3,1,3,1022,RJFN 312300Z 03008KT 8000 -RA FEW005 SCT025 OVC045 03/03 Q1022     RMK 1ST005 4SC025 8SC045 A3019 1ST005 E-SE=,- RA
20180131_230000.005,1,RJFN,,,,0,20180131230000,-1,-1,-1,-1,30,-1,8,-1,-1,-1,-1,,8000,0,1,3,FEW 5   SCT 25   OVC 45,1,3,1,3,1022,RJFN 312300Z 03008KT 8000 -RA FEW005 SCT025 OVC045 03/03     Q1022 RMK 1ST005 4SC025 8SC045 A3019 1ST005 E-SE=,- RA
20180201_000000.004,0,RJFN,,,,0,20180201000000,-1,-1,-1,-1,20,-1,8,-1,-1,350,60,,8000,0,1,3,FEW 6   BKN 25   OVC 40,1,3,1,3,1023,RJFN 010000Z 02008KT 350V060 8000 -RA FEW006 BKN025 OVC040     03/03 Q1023 RMK 1ST006 5SC025 8SC040 A3021 1ST006 AAL=,- RA
20180201_010000.003,0,RJFN,,,,0,20180201010000,-1,-1,-1,-1,20,-1,8,-1,-1,350,50,,9000,0,1,3,FEW 8   BKN 30   OVC 45,1,3,1,3,1022,RJFN 010100Z 02008KT 350V050 9000 -RA FEW008 BKN030 OVC045     03/03 Q1022 RMK 1ST008 5SC030 8SC045 A3020 1ST008 E-SE=,- RA
20180201_020000.003,0,RJFN,,,,0,20180201020000,-1,-1,-1,-1,10,-1,5,-1,-1,320,50,,7000,0,1,3,FEW 3   BKN 30   OVC 45,1,4,1,4,1022,RJFN 010200Z 01005KT 320V050 7000 -RA FEW003 BKN030 OVC045     04/04 Q1022 RMK 1ST003 5SC030 8SC045 A3019 1ST003 SE           1ST008 E-SE=,- RA
20180201_030000.004,0,RJFN,,,,0,20180201030000,-1,-1,-1,-1,20,-1,7,-1,-1,350,50,,7000,0,1,3,FEW 3   BKN 30   OVC 45,1,4,1,4,1021,RJFN 010300Z 02007KT 350V050 7000 -RA FEW003 BKN030 OVC045     04/04 Q1021 RMK 1ST003 6SC030 8SC045 A3018 1ST003 NW=,- RA
20180201_040000.004,0,RJFN,,,,0,20180201040000,-1,-1,-1,-1,20,-1,5,-1,-1,350,50,,8000,0,1,3,FEW 2   BKN 5   BKN 30,1,4,1,4,1020,RJFN 010400Z 02005KT 350V050 8000 -RA FEW002 BKN005 BKN030     04/04 Q1020 RMK 1ST002 5ST005 7SC030 A3014 1ST002 W=,- RA
20180201_050000.003,0,RJFN,,,,0,20180201050000,-1,-1,-1,-1,20,-1,5,-1,-1,340,50,,8000,0,1,3,FEW 3   BKN 7   BKN 40,1,5,1,5,1020,RJFN 010500Z 02005KT 340V050 8000 -RA FEW003 BKN007 BKN040     05/05 Q1020 RMK 1ST003 5ST007 7SC040 A3012 1ST003 W=,- RA
20180201_050000.005,1,RJFN,,,,0,20180201050000,-1,-1,-1,-1,20,-1,5,-1,-1,340,50,,8000,0,1,3,FEW 3   BKN 7   BKN 40,1,5,1,5,1020,RJFN 010500Z 02005KT 340V050 8000 -RA FEW003 BKN007 BKN040     05/05 Q1020 RMK 1ST003 5ST007 7SC040 A3012 1ST003 W=,- RA
20180201_060000.003,0,RJFN,,,,0,20180201060000,-1,-1,-1,-1,10,-1,3,-1,-1,-1,-1,,8000,0,1,3,FEW 3   SCT 7   BKN 30,1,5,1,5,1020,RJFN 010600Z 01003KT 8000 -RA FEW003 SCT007 BKN030 05/05 Q1020     RMK 1ST003 3ST007 6SC030 A3013 1ST003 W=,- RA
20180201_070000.003,0,RJFN,,,,0,20180201070000,-1,-1,-1,-1,80,-1,2,-1,-1,-1,-1,,7000,0,1,3,FEW 2   BKN 7   BKN 35,1,5,1,5,1020,RJFN 010700Z 08002KT 7000 -RA FEW002 BKN007 BKN035 05/05 Q1020     RMK 1ST002 5ST007 7SC035 A3013 1ST002 NW=,- RA
20180201_080000.003,0,RJFN,,,,0,20180201080000,-1,-1,-1,-1,999,-1,2,-1,-1,-1,-1,,7000,0,1,3,FEW 2   BKN 9   BKN 35,1,5,1,5,1020,RJFN 010800Z VRB02KT 7000 -RA FEW002 BKN009 BKN035 05/05 Q1020     RMK 1ST002 5ST009 7SC035 A3015 1ST002 NW=,- RA
20180201_090000.003,0,RJFN,,,,0,20180201090000,-1,-1,-1,-1,80,-1,2,-1,-1,-1,-1,,7000,0,1,3,FEW 2   SCT 35   BKN 50,1,5,1,5,1021,RJFN 010900Z 08002KT 7000 -RA FEW002 SCT035 BKN050 05/05 Q1021     RMK 1ST002 4SC035 6SC050 A3017 1ST002 NW=,- RA
20180201_100000.003,0,RJFN,,,,0,20180201100000,-1,-1,-1,-1,350,-1,4,-1,-1,-1,-1,,7000,0,0,3,FEW 5   SCT 35   BKN 50,1,5,1,5,1022,RJFN 011000Z 35004KT 7000 FEW005 SCT035 BKN050 05/05 Q1022 RMK     1ST005 3SC035 6SC050 A3018=,
20180201_110000.003,0,RJFN,,,,0,20180201110000,-1,-1,-1,-1,350,-1,2,-1,-1,-1,-1,,8000,0,0,2,FEW 5   BKN 50,1,5,1,5,1022,RJFN 011100Z 35002KT 8000 FEW005 BKN050 05/05 Q1022 RMK 1ST005     7SC050 A3020=,
20180201_120000.003,0,RJFN,,,,0,20180201120000,-1,-1,-1,-1,30,-1,3,-1,-1,350,50,,8000,0,0,2,FEW 5   BKN 50,1,5,1,5,1022,RJFN 011200Z 03003KT 350V050 8000 FEW005 BKN050 05/05 Q1022     RMK 1ST005 7SC050 A3018 VIS SW-W 5KM BR=,
20180201_130000.003,0,RJFN,,,,0,20180201130000,-1,-1,-1,-1,300,-1,5,-1,-1,-1,-1,,7000,0,0,2,FEW 3   BKN 50,1,4,1,4,1023,RJFN 011300Z 30005KT 7000 FEW003 BKN050 04/04 Q1023 RMK 1ST003     7SC050 A3022 VIS SW-W 4000M BR=,
20180201_140000.003,0,RJFN,,,,0,20180201140000,-1,-1,-1,-1,290,-1,5,-1,-1,-1,-1,,8000,0,0,1,FEW 50,1,2,1,2,1023,RJFN 011400Z 29005KT 8000 FEW050 02/02 Q1023 RMK 1SC050 A3022=,
20180201_150000.003,0,RJFN,,,,0,20180201150000,-1,-1,-1,-1,290,-1,5,-1,-1,-1,-1,,9999,0,0,1,FEW 50,1,2,1,2,1022,RJFN 011500Z 29005KT 9999 FEW050 02/02 Q1022 RMK 1SC050 A3020=,
20180201_160000.003,0,RJFN,,,,0,20180201160000,-1,-1,-1,-1,20,-1,4,-1,-1,-1,-1,,9999,0,0,1,FEW 50,1,2,1,2,1022,RJFN 011600Z 02004KT 9999 FEW050 02/02 Q1022 RMK 1SC050 A3020=,
20180201_170000.003,0,RJFN,,,,0,20180201170000,-1,-1,-1,-1,270,-1,6,-1,-1,-1,-1,,9999,0,0,1,FEW 20,1,1,1,1,1023,RJFN 011700Z 27006KT 9999 FEW020 01/01 Q1023 RMK 1CU020 A3023=,
20180201_180000.003,0,RJFN,,,,0,20180201180000,-1,-1,-1,-1,280,-1,4,-1,-1,-1,-1,,9999,0,0,1,FEW 20,1,1,1,1,1022,RJFN 011800Z 28004KT 9999 FEW020 01/01 Q1022 RMK 1CU020 A3018=,
20180201_190000.004,0,RJFN,,,,0,20180201190000,-1,-1,-1,-1,300,-1,6,-1,-1,-1,-1,,9999,0,0,1,FEW 20,1,1,1,1,1021,RJFN 011900Z 30006KT 9999 FEW020 01/01 Q1021 RMK 1CU020 A3017=,
20180201_200000.004,0,RJFN,,,,0,20180201200000,-1,-1,-1,-1,280,-1,5,-1,-1,-1,-1,,9999,0,0,1,FEW 20,-1,0,-1,0,1021,RJFN 012000Z 28005KT 9999 FEW020 M00/M00 Q1021 RMK 1CU020     A3016=,
20180201_210000.003,0,RJFN,,,,0,20180201210000,-1,-1,-1,-1,260,-1,6,-1,-1,-1,-1,,9999,0,0,1,FEW 20,-1,0,-1,0,1021,RJFN 012100Z 26006KT 9999 FEW020 M00/M00 Q1021 RMK 1CU020     A3017 09/M01 R010=,
20180201_210000.006,1,RJFN,,,,0,20180201210000,-1,-1,-1,-1,260,-1,6,-1,-1,-1,-1,,9999,0,0,1,FEW 20,-1,0,-1,0,1021,RJFN 012100Z 26006KT 9999 FEW020 M00/M00 Q1021 RMK 1CU020     A3017 06/M01 R010=,
20180201_220000.003,0,RJFN,,,,0,20180201220000,-1,-1,-1,-1,280,-1,8,-1,-1,-1,-1,,9999,0,0,1,FEW 20,-1,0,-1,0,1022,RJFN 012200Z 28008KT 9999 FEW020 M00/M00 Q1022 RMK 1CU020     A3018=,
20180201_230000.004,0,RJFN,,,,0,20180201230000,-1,-1,-1,-1,290,-1,8,-1,-1,-1,-1,,9999,0,0,2,FEW 20   BKN 230,1,2,1,1,1023,RJFN 012300Z 29008KT 9999 FEW020 BKN230 02/01 Q1023 RMK 1CU020     A3022=,
20180202_000000.003,0,RJFN,,,,0,20180202000000,-1,-1,-1,-1,310,-1,5,-1,-1,-1,-1,,9999,0,0,2,FEW 20   BKN 230,1,4,1,1,1023,RJFN 020000Z 31005KT 9999 FEW020 BKN230 04/01 Q1023 RMK 1CU020     A3022=,
20180202_010000.003,0,RJFN,,,,0,20180202010000,-1,-1,-1,-1,320,-1,3,-1,-1,280,350,,9999,0,0,2,FEW 20   BKN 230,1,6,1,0,1023,RJFN 020100Z 32003KT 280V350 9999 FEW020 BKN230 06/00 Q1023     RMK 1CU020 A3023=,
20180202_020000.003,0,RJFN,,,,0,20180202020000,-1,-1,-1,-1,999,-1,2,-1,-1,-1,-1,,9999,0,0,2,FEW 20   BKN 230,1,8,1,1,1023,RJFN 020200Z VRB02KT 9999 FEW020 BKN230 08/01 Q1023 RMK 1CU020     A3024=,
20180202_030000.003,0,RJFN,,,,0,20180202030000,-1,-1,-1,-1,999,-1,2,-1,-1,-1,-1,,9999,0,0,2,FEW 25   BKN 250,1,9,1,1,1022,RJFN 020300Z VRB02KT 9999 FEW025 BKN250 09/01 Q1022 RMK 1CU025     A3020=,
20180202_040000.003,0,RJFN,,,,0,20180202040000,-1,-1,-1,-1,240,-1,3,-1,-1,160,290,,9999,0,0,2,FEW 25   BKN 250,1,10,-1,0,1021,RJFN 020400Z 24003KT 160V290 9999 FEW025 BKN250 10/M00 Q1021     RMK 1CU025 A3017=,
20180202_050000.002,0,RJFN,,,,0,20180202050000,-1,-1,-1,-1,999,-1,5,-1,-1,-1,-1,,9999,0,0,2,FEW 30   BKN 250,1,10,-1,1,1021,RJFN 020500Z VRB05KT 9999 FEW030 BKN250 10/M01 Q1021 RMK     1CU030 A3016=,
20180202_060000.003,0,RJFN,,,,0,20180202060000,-1,-1,-1,-1,80,-1,5,-1,-1,40,110,,9999,0,0,2,FEW 30   BKN 250,1,10,-1,0,1021,RJFN 020600Z 08005KT 040V110 9999 FEW030 BKN250 10/M00 Q1021     RMK 1CU030 A3015=,
20180202_070000.003,0,RJFN,,,,0,20180202070000,-1,-1,-1,-1,50,-1,4,-1,-1,10,90,,9999,0,0,2,FEW 30   BKN 250,1,10,1,0,1020,RJFN 020700Z 05004KT 010V090 9999 FEW030 BKN250 10/00 Q1020     RMK 1CU030 A3014=,
20180202_080000.003,0,RJFN,,,,0,20180202080000,-1,-1,-1,-1,50,-1,4,-1,-1,360,80,,9999,0,0,2,FEW 30   BKN 250,1,9,1,0,1020,RJFN 020800Z 05004KT 360V080 9999 FEW030 BKN250 09/00 Q1020     RMK 1CU030 A3013=,
20180202_090000.003,0,RJFN,,,,0,20180202090000,-1,-1,-1,-1,320,-1,2,-1,-1,-1,-1,,9999,0,0,2,FEW 30   BKN 250,1,8,1,0,1020,RJFN 020900Z 32002KT 9999 FEW030 BKN250 08/00 Q1020 RMK 1CU030     A3014=,
20180202_100000.004,0,RJFN,,,,0,20180202100000,-1,-1,-1,-1,310,-1,3,-1,-1,-1,-1,,9999,0,0,2,FEW 30   BKN -9999,1,7,1,1,1020,RJFN 021000Z 31003KT 9999 FEW030 BKN/// 07/01 Q1020 RMK 1CU030     A3014=,
20180202_110000.003,0,RJFN,,,,0,20180202110000,-1,-1,-1,-1,300,-1,6,-1,-1,-1,-1,,9999,0,0,3,FEW 30   SCT 45   BKN -9999,1,6,1,3,1021,RJFN 021100Z 30006KT 9999 FEW030 SCT045 BKN/// 06/03 Q1021 RMK     1CU030 4SC045 A3015=,
20180202_120000.003,0,RJFN,,,,0,20180202120000,-1,-1,-1,-1,300,-1,7,-1,-1,-1,-1,,9999,0,0,3,FEW 30   BKN 45   BKN -9999,1,5,1,3,1021,RJFN 021200Z 30007KT 9999 FEW030 BKN045 BKN/// 05/03 Q1021 RMK     1CU030 5SC045 A3016=,
20180202_130000.004,0,RJFN,,,,0,20180202130000,-1,-1,-1,-1,300,-1,8,-1,-1,-1,-1,,9999,0,0,3,FEW 30   SCT 45   BKN -9999,1,5,1,3,1021,RJFN 021300Z 30008KT 9999 FEW030 SCT045 BKN/// 05/03 Q1021 RMK     1CU030 3SC045 A3015=,
20180202_140000.003,0,RJFN,,,,0,20180202140000,-1,-1,-1,-1,280,-1,8,-1,-1,-1,-1,,9999,0,0,2,FEW 30   SCT -9999,1,5,1,2,1021,RJFN 021400Z 28008KT 9999 FEW030 SCT/// 05/02 Q1021 RMK 1CU030     A3015=,
20180202_150000.003,0,RJFN,,,,0,20180202150000,-1,-1,-1,-1,290,-1,9,-1,-1,-1,-1,,9999,0,0,2,FEW 30   SCT -9999,1,5,1,2,1021,RJFN 021500Z 29009KT 9999 FEW030 SCT/// 05/02 Q1021 RMK 1CU030     A3015=,
20180202_160000.003,0,RJFN,,,,0,20180202160000,-1,-1,-1,-1,290,-1,8,-1,-1,-1,-1,,9999,0,0,1,FEW 30,1,4,1,1,1020,RJFN 021600Z 29008KT 9999 FEW030 04/01 Q1020 RMK 1CU030 A3014=,
20180202_170000.003,0,RJFN,,,,0,20180202170000,-1,-1,-1,-1,290,-1,11,-1,-1,-1,-1,,9999,0,0,1,FEW 30,1,4,1,1,1020,RJFN 021700Z 29011KT 9999 FEW030 04/01 Q1020 RMK 1CU030 A3013=,
20180202_180000.004,0,RJFN,,,,0,20180202180000,-1,-1,-1,-1,300,-1,12,-1,-1,-1,-1,,9999,0,0,1,FEW 30,1,4,1,1,1020,RJFN 021800Z 30012KT 9999 FEW030 04/01 Q1020 RMK 1CU030 A3012=,
20180202_190000.004,0,RJFN,,,,0,20180202190000,-1,-1,-1,-1,290,-1,13,-1,-1,-1,-1,,9999,0,0,1,FEW 30,1,4,1,1,1019,RJFN 021900Z 29013KT 9999 FEW030 04/01 Q1019 RMK 1CU030 A3011=,
20180202_200000.004,0,RJFN,,,,0,20180202200000,-1,-1,-1,-1,290,-1,12,-1,-1,-1,-1,,9999,0,0,1,FEW 20,1,4,-1,0,1019,RJFN 022000Z 29012KT 9999 FEW020 04/M00 Q1019 RMK 1CU020     A3011=,
20180202_210000.003,0,RJFN,,,,0,20180202210000,-1,-1,-1,-1,290,-1,10,-1,-1,-1,-1,,9999,0,0,1,FEW 30,1,4,-1,0,1019,RJFN 022100Z 29010KT 9999 FEW030 04/M00 Q1019 RMK 1CU030 A3011     11/03=,
20180202_220000.003,0,RJFN,,,,0,20180202220000,-1,-1,-1,-1,270,-1,10,-1,-1,-1,-1,,9999,0,0,2,FEW 20   BKN 210,1,3,-1,0,1020,RJFN 022200Z 27010KT 9999 FEW020 BKN210 03/M00 Q1020 RMK     1CU020 A3012=,
20180202_230000.004,0,RJFN,,,,0,20180202230000,-1,-1,-1,-1,260,-1,8,-1,-1,-1,-1,,9999,0,0,2,FEW 20   BKN 210,1,4,1,0,1020,RJFN 022300Z 26008KT 9999 FEW020 BKN210 04/00 Q1020 RMK 1CU020     A3013=,
20180203_000000.003,0,RJFN,,,,0,20180203000000,-1,-1,-1,-1,270,-1,10,-1,-1,-1,-1,,9999,0,0,2,FEW 30   BKN 210,1,5,-1,0,1020,RJFN 030000Z 27010KT 9999 FEW030 BKN210 05/M00 Q1020 RMK     1CU030 A3014=,
20180203_010000.004,0,RJFN,,,,0,20180203010000,-1,-1,-1,-1,280,-1,10,-1,-1,-1,-1,,9999,0,0,2,FEW 30   BKN 210,1,8,-1,2,1020,RJFN 030100Z 28010KT 9999 FEW030 BKN210 08/M02 Q1020 RMK     1CU030 A3013=,
20180203_020000.003,0,RJFN,,,,0,20180203020000,-1,-1,-1,-1,280,-1,11,-1,-1,250,310,,9999,0,0,2,FEW 30   BKN 230,1,9,-1,6,1020,RJFN 030200Z 28011KT 250V310 9999 FEW030 BKN230 09/M06 Q1020     RMK 1CU030 A3013=,
20180203_030000.003,0,RJFN,,,,0,20180203030000,-1,-1,-1,-1,260,-1,10,-1,-1,240,310,,9999,0,0,2,FEW 30   BKN 230,1,10,-1,7,1019,RJFN 030300Z 26010KT 240V310 9999 FEW030 BKN230 10/M07 Q1019     RMK 1CU030 A3012=,
20180203_040000.003,0,RJFN,,,,0,20180203040000,-1,-1,-1,-1,310,-1,9,-1,-1,-1,-1,,9999,0,0,2,FEW 30   BKN 230,1,10,-1,7,1019,RJFN 030400Z 31009KT 9999 FEW030 BKN230 10/M07 Q1019 RMK     1CU030 A3009=,
20180203_050000.003,0,RJFN,,,,0,20180203050000,-1,-1,-1,-1,280,-1,15,-1,25,-1,-1,,9999,0,0,2,FEW 30   BKN 230,1,11,-1,6,1018,RJFN 030500Z 28015G25KT 9999 FEW030 BKN230 11/M06 Q1018 RMK     1CU030 A3007=,
20180203_060000.003,0,RJFN,,,,0,20180203060000,-1,-1,-1,-1,280,-1,15,-1,-1,-1,-1,,9999,0,0,1,FEW 30,1,11,-1,8,1018,RJFN 030600Z 28015KT 9999 FEW030 11/M08 Q1018 RMK 1CU030     A3007=,
20180203_070000.004,0,RJFN,,,,0,20180203070000,-1,-1,-1,-1,270,-1,18,-1,-1,-1,-1,,9999,0,0,1,FEW 30,1,10,-1,7,1018,RJFN 030700Z 27018KT 9999 FEW030 10/M07 Q1018 RMK 1CU030 A3007     MAX WIND 22KT=,
20180203_080000.003,0,RJFN,,,,0,20180203080000,-1,-1,-1,-1,280,-1,18,-1,-1,-1,-1,,9999,0,0,1,FEW 30,1,8,-1,5,1018,RJFN 030800Z 28018KT 9999 FEW030 08/M05 Q1018 RMK 1CU030 A3008     MAX WIND 24KT=,
20180203_090000.003,0,RJFN,,,,0,20180203090000,-1,-1,-1,-1,280,-1,16,-1,-1,-1,-1,,9999,0,0,1,FEW 30,1,6,-1,4,1019,RJFN 030900Z 28016KT 9999 FEW030 06/M04 Q1019 RMK 1CU030 A3010     MAX WIND 21KT=,
20180203_100000.003,0,RJFN,,,,0,20180203100000,-1,-1,-1,-1,270,-1,14,-1,-1,-1,-1,,9999,0,0,1,FEW 40,1,5,-1,5,1019,RJFN 031000Z 27014KT 9999 FEW040 05/M05 Q1019 RMK 1SC040     A3011 MAX WIND 21KT=,
20180203_110000.003,0,RJFN,,,,0,20180203110000,-1,-1,-1,-1,270,-1,14,-1,-1,-1,-1,,9999,0,0,1,FEW 40,1,4,-1,5,1019,RJFN 031100Z 27014KT 9999 FEW040 04/M05 Q1019 RMK 1SC040     A3011=,
20180203_120000.003,0,RJFN,,,,0,20180203120000,-1,-1,-1,-1,260,-1,9,-1,-1,-1,-1,,9999,0,0,1,FEW 30,1,3,-1,5,1020,RJFN 031200Z 26009KT 9999 FEW030 03/M05 Q1020 RMK 1CU030     A3013=,
20180203_130000.003,0,RJFN,,,,0,20180203130000,-1,-1,-1,-1,270,-1,13,-1,-1,-1,-1,,9999,0,0,2,FEW 30   SCT -9999,1,2,-1,6,1020,RJFN 031300Z 27013KT 9999 FEW030 SCT/// 02/M06 Q1020 RMK     1CU030 A3014=,
20180203_140000.003,0,RJFN,,,,0,20180203140000,-1,-1,-1,-1,270,-1,12,-1,-1,-1,-1,,9999,0,0,2,FEW 30   BKN -9999,1,2,-1,6,1020,RJFN 031400Z 27012KT 9999 FEW030 BKN/// 02/M06 Q1020 RMK     1CU030 A3014=,
20180203_150000.003,0,RJFN,,,,0,20180203150000,-1,-1,-1,-1,270,-1,10,-1,-1,-1,-1,,9999,0,0,2,FEW 30   BKN -9999,1,2,-1,7,1020,RJFN 031500Z 27010KT 9999 FEW030 BKN/// 02/M07 Q1020 RMK     1CU030 A3013=,
20180203_160000.003,0,RJFN,,,,0,20180203160000,-1,-1,-1,-1,270,-1,9,-1,-1,-1,-1,,9999,0,0,2,FEW 30   BKN -9999,1,2,-1,7,1020,RJFN 031600Z 27009KT 9999 FEW030 BKN/// 02/M07 Q1020 RMK     1CU030 A3014=,
20180203_170000.003,0,RJFN,,,,0,20180203170000,-1,-1,-1,-1,260,-1,8,-1,-1,-1,-1,,9999,0,0,3,FEW 30   SCT 180   BKN -9999,1,1,-1,7,1020,RJFN 031700Z 26008KT 9999 FEW030 SCT180 BKN/// 01/M07 Q1020     RMK 1CU030 4AC180 A3014=,
20180203_180000.004,0,RJFN,,,,0,20180203180000,-1,-1,-1,-1,270,-1,9,-1,-1,-1,-1,,9999,0,0,2,FEW 30   BKN -9999,1,1,-1,7,1020,RJFN 031800Z 27009KT 9999 FEW030 BKN/// 01/M07 Q1020 RMK     1CU030 A3013=,
20180203_190000.003,0,RJFN,,,,0,20180203190000,-1,-1,-1,-1,280,-1,9,-1,-1,-1,-1,,9999,0,0,3,FEW 30   SCT 180   BKN -9999,1,1,-1,8,1020,RJFN 031900Z 28009KT 9999 FEW030 SCT180 BKN/// 01/M08 Q1020     RMK 1CU030 3AC180 A3013=,
20180203_200000.003,0,RJFN,,,,0,20180203200000,-1,-1,-1,-1,260,-1,10,-1,-1,-1,-1,,9999,0,0,3,FEW 30   SCT 180   BKN -9999,1,1,-1,7,1020,RJFN 032000Z 26010KT 9999 FEW030 SCT180 BKN/// 01/M07 Q1020     RMK 1CU030 3AC180 A3014=,
20180203_210000.003,0,RJFN,,,,0,20180203210000,-1,-1,-1,-1,270,-1,10,-1,-1,-1,-1,,9999,0,0,2,FEW 30   BKN -9999,1,0,-1,8,1021,RJFN 032100Z 27010KT 9999 FEW030 BKN/// 00/M08 Q1021 RMK     1CU030 A3015 11/00=,
20180203_220000.003,0,RJFN,,,,0,20180203220000,-1,-1,-1,-1,270,-1,11,-1,-1,-1,-1,,9999,0,0,2,FEW 30   SCT 200,-1,0,-1,8,1021,RJFN 032200Z 27011KT 9999 FEW030 SCT200 M00/M08 Q1021 RMK     1CU030 A3016=,
20180203_230000.003,0,RJFN,,,,0,20180203230000,-1,-1,-1,-1,270,-1,13,-1,-1,-1,-1,,9999,0,0,1,FEW 30,1,1,-1,8,1021,RJFN 032300Z 27013KT 9999 FEW030 01/M08 Q1021 RMK 2CU030     A3017=,
20180204_000000.003,0,RJFN,,,,0,20180204000000,-1,-1,-1,-1,270,-1,14,-1,-1,-1,-1,,9999,0,0,1,FEW 30,1,2,-1,9,1021,RJFN 040000Z 27014KT 9999 FEW030 02/M09 Q1021 RMK 2CU030     A3017=,
20180204_010000.003,0,RJFN,,,,0,20180204010000,-1,-1,-1,-1,320,-1,11,-1,22,-1,-1,,9999,0,0,2,FEW 30   SCT 230,1,4,-1,11,1021,RJFN 040100Z 32011G22KT 9999 FEW030 SCT230 04/M11 Q1021 RMK     2CU030 A3016=,
20180204_020000.003,0,RJFN,,,,0,20180204020000,-1,-1,-1,-1,270,-1,18,-1,-1,-1,-1,,9999,0,0,1,FEW 30,1,5,-1,10,1020,RJFN 040200Z 27018KT 9999 FEW030 05/M10 Q1020 RMK 2CU030 A3014     MAX WIND 22KT=,
20180204_030000.003,0,RJFN,,,,0,20180204030000,-1,-1,-1,-1,280,-1,19,-1,32,-1,-1,,9999,0,0,1,FEW 30,1,6,-1,10,1020,RJFN 040300Z 28019G32KT 9999 FEW030 06/M10 Q1020 RMK 1CU030     A3013=,
20180204_040000.003,0,RJFN,,,,0,20180204040000,-1,-1,-1,-1,280,-1,24,-1,35,-1,-1,,9999,0,0,1,FEW 35,1,6,-1,12,1019,RJFN 040400Z 28024G35KT 9999 FEW035 06/M12 Q1019 RMK 1CU035     A3010=,
20180204_050000.003,0,RJFN,,,,0,20180204050000,-1,-1,-1,-1,280,-1,22,-1,32,-1,-1,,9999,0,0,1,FEW 35,1,7,-1,10,1019,RJFN 040500Z 28022G32KT 9999 FEW035 07/M10 Q1019 RMK 1CU035     A3009=,
20180204_060000.003,0,RJFN,,,,0,20180204060000,-1,-1,-1,-1,280,-1,21,-1,-1,-1,-1,,9999,0,0,1,FEW 35,1,6,-1,10,1018,RJFN 040600Z 28021KT 9999 FEW035 06/M10 Q1018 RMK 1CU035 A3008     MAX WIND 27KT=,
20180204_070000.003,0,RJFN,,,,0,20180204070000,-1,-1,-1,-1,270,-1,22,-1,-1,-1,-1,,9999,0,0,1,FEW 35,1,5,-1,9,1019,RJFN 040700Z 27022KT 9999 FEW035 05/M09 Q1019 RMK 1CU035 A3010     MAX WIND 30KT=,
20180204_080000.003,0,RJFN,,,,0,20180204080000,-1,-1,-1,-1,270,-1,17,-1,-1,-1,-1,,9999,0,0,1,FEW 35,1,4,-1,10,1019,RJFN 040800Z 27017KT 9999 FEW035 04/M10 Q1019 RMK 1CU035     A3011=,
20180204_090000.003,0,RJFN,,,,0,20180204090000,-1,-1,-1,-1,270,-1,16,-1,-1,-1,-1,,9999,0,0,1,FEW 35,1,2,-1,11,1020,RJFN 040900Z 27016KT 9999 FEW035 02/M11 Q1020 RMK 1CU035     A3014=,
20180204_100000.003,0,RJFN,,,,0,20180204100000,-1,-1,-1,-1,260,-1,11,-1,-1,-1,-1,,9999,0,0,1,FEW 35,1,1,-1,10,1021,RJFN 041000Z 26011KT 9999 FEW035 01/M10 Q1021 RMK 1CU035     A3016=,
20180204_110000.004,0,RJFN,,,,0,20180204110000,-1,-1,-1,-1,250,-1,7,-1,-1,-1,-1,,9999,0,0,1,FEW 35,-1,1,-1,10,1021,RJFN 041100Z 25007KT 9999 FEW035 M01/M10 Q1021 RMK 1CU035     A3018=,
20180204_120000.003,0,RJFN,,,,0,20180204120000,-1,-1,-1,-1,270,-1,8,-1,-1,-1,-1,,9999,0,0,1,FEW 35,-1,0,-1,10,1021,RJFN 041200Z 27008KT 9999 FEW035 M00/M10 Q1021 RMK 1CU035     A3018=,
20180204_130000.003,0,RJFN,,,,0,20180204130000,-1,-1,-1,-1,250,-1,6,-1,-1,-1,-1,,9999,0,0,1,FEW 30,-1,2,-1,9,1021,RJFN 041300Z 25006KT 9999 FEW030 M02/M09 Q1021 RMK 1CU030     A3018=,
20180204_140000.003,0,RJFN,,,,0,20180204140000,-1,-1,-1,-1,270,-1,6,-1,-1,-1,-1,,9999,0,0,1,FEW 30,-1,2,-1,10,1022,RJFN 041400Z 27006KT 9999 FEW030 M02/M10 Q1022 RMK 1CU030     A3018=,
20180204_150000.003,0,RJFN,,,,0,20180204150000,-1,-1,-1,-1,270,-1,10,-1,-1,-1,-1,,9999,0,0,2,FEW 30   SCT -9999,-1,1,-1,11,1021,RJFN 041500Z 27010KT 9999 FEW030 SCT/// M01/M11 Q1021 RMK     1CU030 A3017=,
20180204_160000.003,0,RJFN,,,,0,20180204160000,-1,-1,-1,-1,270,-1,11,-1,-1,-1,-1,,9999,0,0,2,FEW 30   BKN -9999,-1,2,-1,11,1021,RJFN 041600Z 27011KT 9999 FEW030 BKN/// M02/M11 Q1021 RMK     1CU030 A3016=,
20180204_170000.003,0,RJFN,,,,0,20180204170000,-1,-1,-1,-1,280,-1,11,-1,-1,-1,-1,,9999,0,0,2,FEW 30   BKN -9999,-1,1,-1,10,1021,RJFN 041700Z 28011KT 9999 FEW030 BKN/// M01/M10 Q1021 RMK     1CU030 A3017=,
20180204_180000.004,0,RJFN,,,,0,20180204180000,-1,-1,-1,-1,290,-1,15,-1,-1,-1,-1,,9999,0,0,2,FEW 30   BKN -9999,-1,1,-1,11,1021,RJFN 041800Z 29015KT 9999 FEW030 BKN/// M01/M11 Q1021 RMK     1CU030 A3015 MAX WIND 19KT=,
20180204_190000.003,0,RJFN,,,,0,20180204190000,-1,-1,-1,-1,280,-1,10,-1,-1,-1,-1,,9999,0,0,2,FEW 30   SCT -9999,-1,2,-1,10,1021,RJFN 041900Z 28010KT 9999 FEW030 SCT/// M02/M10 Q1021 RMK     1CU030 A3016=,
20180204_200000.003,0,RJFN,,,,0,20180204200000,-1,-1,-1,-1,260,-1,9,-1,-1,-1,-1,,9999,0,0,1,FEW 30,-1,2,-1,10,1021,RJFN 042000Z 26009KT 9999 FEW030 M02/M10 Q1021 RMK 1CU030     A3016=,
20180204_210000.003,0,RJFN,,,,0,20180204210000,-1,-1,-1,-1,250,-1,7,-1,-1,-1,-1,,9999,0,0,2,FEW 30   BKN -9999,-1,2,-1,9,1021,RJFN 042100Z 25007KT 9999 FEW030 BKN/// M02/M09 Q1021 RMK     1CU030 A3016 28038KT/0510 07/M03=,
20180204_220000.003,0,RJFN,,,,0,20180204220000,-1,-1,-1,-1,250,-1,6,-1,-1,-1,-1,,9999,0,0,3,FEW 30   SCT 180   BKN 220,-1,3,-1,9,1022,RJFN 042200Z 25006KT 9999 FEW030 SCT180 BKN220 M03/M09 Q1022     RMK 1CU030 3AC180 A3018=,
20180204_230000.003,0,RJFN,,,,0,20180204230000,-1,-1,-1,-1,270,-1,8,-1,-1,-1,-1,,9999,0,0,2,FEW 30   BKN 230,-1,3,-1,8,1022,RJFN 042300Z 27008KT 9999 FEW030 BKN230 M03/M08 Q1022 RMK     1CU030 A3019=,
20180205_000000.004,0,RJFN,,,,0,20180205000000,-1,-1,-1,-1,280,-1,7,-1,-1,-1,-1,,9999,0,0,2,FEW 30   BKN 220,-1,0,-1,9,1022,RJFN 050000Z 28007KT 9999 FEW030 BKN220 M00/M09 Q1022 RMK     1CU030 A3020=,
20180205_010000.003,0,RJFN,,,,0,20180205010000,-1,-1,-1,-1,280,-1,5,-1,-1,-1,-1,,9999,0,0,2,FEW 30   BKN 220,1,2,-1,10,1022,RJFN 050100Z 28005KT 9999 FEW030 BKN220 02/M10 Q1022 RMK     1CU030 A3020=,
20180205_020000.003,0,RJFN,,,,0,20180205020000,-1,-1,-1,-1,999,-1,2,-1,-1,-1,-1,,9999,0,0,2,FEW 30   BKN 220,1,3,-1,10,1022,RJFN 050200Z VRB02KT 9999 FEW030 BKN220 03/M10 Q1022 RMK     1CU030 A3018=,
