20180101_000000.002,0,RJFO,,,,0,20180101000000,-1,-1,-1,-1,310,-1,9,-1,-1,290,360,,9999,0,0,3,FEW 25   SCT 45   BKN 50,1,7,-1,3,1023,RJFO 010000Z 31009KT 290V360 9999 FEW025 SCT045 BKN050 07/M03     Q1023 RMK 1CU025 4CU045 5SC050 A3021=,
20180101_010000.002,0,RJFO,,,,0,20180101010000,-1,-1,-1,-1,330,-1,8,-1,-1,290,10,,9999,0,0,3,FEW 30   SCT 40   BKN 50,1,7,-1,2,1024,RJFO 010100Z 33008KT 290V010 9999 FEW030 SCT040 BKN050 07/M02     Q1024 RMK 1CU030 4CU040 6SC050 A3024=,
20180101_020000.002,0,RJFO,,,,0,20180101020000,-1,-1,-1,-1,300,-1,14,-1,24,270,340,,9999,0,0,2,FEW 30   BKN 40,1,7,-1,3,1024,RJFO 010200Z 30014G24KT 270V340 9999 FEW030 BKN040 07/M03     Q1024 RMK 1CU030 6CU040 A3024=,
20180101_030000.002,0,RJFO,,,,0,20180101030000,-1,-1,-1,-1,300,-1,13,-1,-1,260,330,,9999,0,0,2,FEW 30   BKN 40,1,7,-1,2,1023,RJFO 010300Z 30013KT 260V330 9999 FEW030 BKN040 07/M02 Q1023     RMK 1CU030 6CU040 A3022=,
20180101_040000.002,0,RJFO,,,,0,20180101040000,-1,-1,-1,-1,320,-1,11,-1,-1,280,350,,9999,0,0,3,FEW 30   BKN 40   BKN 50,1,7,-1,2,1022,RJFO 010400Z 32011KT 280V350 9999 FEW030 BKN040 BKN050 07/M02     Q1022 RMK 1CU030 5CU040 7SC050 A3021=,
20180101_050000.002,0,RJFO,,,,0,20180101050000,-1,-1,-1,-1,300,-1,11,-1,-1,250,350,,9999,0,0,2,FEW 30   BKN 45,1,9,-1,4,1022,RJFO 010500Z 30011KT 250V350 9999 FEW030 BKN045 09/M04 Q1022     RMK 1CU030 6CU045 A3020=,
20180101_060000.002,0,RJFO,,,,0,20180101060000,-1,-1,-1,-1,320,-1,12,-1,-1,290,350,,9999,0,0,2,FEW 30   BKN 45,1,7,-1,4,1022,RJFO 010600Z 32012KT 290V350 9999 FEW030 BKN045 07/M04 Q1022     RMK 1CU030 5CU045 A3021=,
20180101_070000.002,0,RJFO,,,,0,20180101070000,-1,-1,-1,-1,300,-1,13,-1,-1,270,330,,9999,0,0,2,FEW 30   SCT 45,1,7,-1,3,1023,RJFO 010700Z 30013KT 270V330 9999 FEW030 SCT045 07/M03 Q1023     RMK 1CU030 3CU045 A3022=,
20180101_080000.002,0,RJFO,,,,0,20180101080000,-1,-1,-1,-1,320,-1,9,-1,-1,290,350,,9999,0,0,2,FEW 30   SCT 45,1,6,-1,3,1024,RJFO 010800Z 32009KT 290V350 9999 FEW030 SCT045 06/M03 Q1024     RMK 1CU030 3CU045 A3024=,
20180101_090000.002,0,RJFO,,,,0,20180101090000,-1,-1,-1,-1,320,-1,7,-1,-1,-1,-1,,9999,0,0,2,FEW 25   BKN 50,1,6,-1,3,1024,RJFO 010900Z 32007KT 9999 FEW025 BKN050 06/M03 Q1024 RMK     1CU025 6SC050 A3025=,
20180101_100000.002,0,RJFO,,,,0,20180101100000,-1,-1,-1,-1,330,-1,5,-1,-1,-1,-1,,9999,0,0,2,FEW 30   SCT 50,1,4,-1,3,1025,RJFO 011000Z 33005KT 9999 FEW030 SCT050 04/M03 Q1025 RMK     1CU030 3SC050 A3027=,
20180101_110000.002,0,RJFO,,,,0,20180101110000,-1,-1,-1,-1,310,-1,5,-1,-1,-1,-1,,9999,0,0,1,FEW 30,1,4,-1,2,1025,RJFO 011100Z 31005KT 9999 FEW030 04/M02 Q1025 RMK 1CU030     A3027=,
20180101_120000.002,0,RJFO,,,,0,20180101120000,-1,-1,-1,-1,310,-1,5,-1,-1,-1,-1,,9999,0,0,1,FEW 40,1,4,-1,3,1025,RJFO 011200Z 31005KT 9999 FEW040 04/M03 Q1025 RMK 1CU040     A3027=,
20180101_130000.002,0,RJFO,,,,0,20180101130000,-1,-1,-1,-1,280,-1,4,-1,-1,-1,-1,,9999,0,0,1,FEW 30,1,3,-1,3,1025,RJFO 011300Z 28004KT 9999 FEW030 03/M03 Q1025 RMK 1CU030     A3027=,
20180101_220000.002,0,RJFO,,,,0,20180101220000,-1,-1,-1,-1,270,-1,6,-1,-1,-1,-1,,9999,0,0,2,FEW 30   SCT 45,1,3,-1,3,1026,RJFO 012200Z 27006KT 9999 FEW030 SCT045 03/M03 Q1026 RMK     1CU030 4CU045 A3031=,
20180101_230000.002,0,RJFO,,,,0,20180101230000,-1,-1,-1,-1,270,-1,5,-1,-1,-1,-1,,9999,0,0,2,FEW 40   SCT -9999,1,4,-1,2,1026,RJFO 012300Z 27005KT 9999 FEW040 SCT/// 04/M02 Q1026 RMK     1CU040 A3032=,
20180102_000000.003,0,RJFO,,,,0,20180102000000,-1,-1,-1,-1,270,-1,6,-1,-1,-1,-1,,9999,0,0,1,FEW 35,1,7,-1,1,1026,RJFO 020000Z 27006KT 9999 FEW035 07/M01 Q1026 RMK 1CU035     A3032=,
20180102_010000.003,0,RJFO,,,,0,20180102010000,-1,-1,-1,-1,320,-1,7,-1,-1,280,360,,9999,0,0,2,FEW 35   SCT -9999,1,8,-1,1,1026,RJFO 020100Z 32007KT 280V360 9999 FEW035 SCT/// 08/M01 Q1026     RMK 1CU035 A3032=,
20180102_020000.002,0,RJFO,,,,0,20180102020000,-1,-1,-1,-1,310,-1,9,-1,-1,280,340,,9999,0,0,1,FEW 35,1,9,-1,2,1026,RJFO 020200Z 31009KT 280V340 9999 FEW035 09/M02 Q1026 RMK     1CU035 A3031=,
20180102_030000.002,0,RJFO,,,,0,20180102030000,-1,-1,-1,-1,300,-1,13,-1,-1,-1,-1,,9999,0,0,2,FEW 30   BKN -9999,1,10,-1,2,1025,RJFO 020300Z 30013KT 9999 FEW030 BKN/// 10/M02 Q1025 RMK     1CU030 A3028=,
20180102_040000.002,0,RJFO,,,,0,20180102040000,-1,-1,-1,-1,290,-1,12,-1,-1,270,330,,9999,0,0,2,FEW 45   SCT -9999,1,10,-1,2,1024,RJFO 020400Z 29012KT 270V330 9999 FEW045 SCT/// 10/M02 Q1024     RMK 1CU045 A3024=,
20180102_050000.002,0,RJFO,,,,0,20180102050000,-1,-1,-1,-1,310,-1,13,-1,-1,280,360,,9999,0,0,2,FEW 40   BKN -9999,1,10,-1,3,1023,RJFO 020500Z 31013KT 280V360 9999 FEW040 BKN/// 10/M03 Q1023     RMK 1CU040 A3023=,
20180102_060000.002,0,RJFO,,,,0,20180102060000,-1,-1,-1,-1,300,-1,12,-1,-1,270,330,,9999,0,0,2,FEW 40   BKN -9999,1,10,-1,3,1024,RJFO 020600Z 30012KT 270V330 9999 FEW040 BKN/// 10/M03 Q1024     RMK 1CU040 A3024=,
20180102_070000.002,0,RJFO,,,,0,20180102070000,-1,-1,-1,-1,300,-1,11,-1,-1,-1,-1,,9999,0,0,2,FEW 40   BKN -9999,1,9,-1,2,1024,RJFO 020700Z 30011KT 9999 FEW040 BKN/// 09/M02 Q1024 RMK     1CU040 A3024=,
20180102_080000.002,0,RJFO,,,,0,20180102080000,-1,-1,-1,-1,300,-1,6,-1,-1,-1,-1,,9999,0,0,1,FEW 40,1,8,-1,2,1024,RJFO 020800Z 30006KT 9999 FEW040 08/M02 Q1024 RMK 1CU040     A3025=,
20180102_090000.002,0,RJFO,,,,0,20180102090000,-1,-1,-1,-1,330,-1,4,-1,-1,280,360,,9999,0,0,2,FEW 40   BKN -9999,1,7,-1,2,1024,RJFO 020900Z 33004KT 280V360 9999 FEW040 BKN/// 07/M02 Q1024     RMK 1CU040 A3025=,
20180102_100000.002,0,RJFO,,,,0,20180102100000,-1,-1,-1,-1,270,-1,3,-1,-1,-1,-1,,9999,0,0,1,FEW 35,1,6,-1,1,1024,RJFO 021000Z 27003KT 9999 FEW035 06/M01 Q1024 RMK 1CU035     A3026=,
20180102_110000.002,0,RJFO,,,,0,20180102110000,-1,-1,-1,-1,260,-1,4,-1,-1,-1,-1,,9999,0,0,1,FEW 35,1,6,-1,0,1025,RJFO 021100Z 26004KT 9999 FEW035 06/M00 Q1025 RMK 1CU035     A3027=,
20180102_120000.002,0,RJFO,,,,0,20180102120000,-1,-1,-1,-1,260,-1,7,-1,-1,-1,-1,,9999,0,0,1,FEW 35,1,5,-1,1,1024,RJFO 021200Z 26007KT 9999 FEW035 05/M01 Q1024 RMK 1CU035     A3026=,
20180102_130000.003,0,RJFO,,,,0,20180102130000,-1,-1,-1,-1,270,-1,6,-1,-1,-1,-1,,9999,0,0,1,FEW 50,1,4,-1,2,1024,RJFO 021300Z 27006KT 9999 FEW050 04/M02 Q1024 RMK 1SC050     A3024=,
20180102_220000.002,0,RJFO,,,,0,20180102220000,-1,-1,-1,-1,340,-1,12,-1,-1,-1,-1,,9999,0,0,2,FEW 30   BKN 50,1,7,-1,2,1024,RJFO 022200Z 34012KT 9999 FEW030 BKN050 07/M02 Q1024 RMK     1CU030 5SC050 A3024=,
20180102_230000.002,0,RJFO,,,,0,20180102230000,-1,-1,-1,-1,340,-1,10,-1,-1,-1,-1,,9999,0,0,3,FEW 30   SCT 50   BKN -9999,1,7,-1,4,1024,RJFO 022300Z 34010KT 9999 FEW030 SCT050 BKN/// 07/M04 Q1024     RMK 1CU030 3SC050 A3025=,
20180103_000000.002,0,RJFO,,,,0,20180103000000,-1,-1,-1,-1,330,-1,10,-1,-1,290,360,,9999,0,0,2,FEW 30   SCT -9999,1,8,-1,4,1024,RJFO 030000Z 33010KT 290V360 9999 FEW030 SCT/// 08/M04 Q1024     RMK 1CU030 A3026=,
20180103_010000.002,0,RJFO,,,,0,20180103010000,-1,-1,-1,-1,300,-1,11,-1,-1,270,340,,9999,0,0,1,FEW 30,1,9,-1,4,1025,RJFO 030100Z 30011KT 270V340 9999 FEW030 09/M04 Q1025 RMK     1CU030 A3027=,
20180103_020000.002,0,RJFO,,,,0,20180103020000,-1,-1,-1,-1,320,-1,12,-1,-1,280,350,,9999,0,0,1,FEW 35,1,9,-1,4,1024,RJFO 030200Z 32012KT 280V350 9999 FEW035 09/M04 Q1024 RMK     2CU035 A3026=,
20180103_030000.003,0,RJFO,,,,0,20180103030000,-1,-1,-1,-1,310,-1,12,-1,25,-1,-1,,9999,0,0,2,FEW 30   BKN 50,1,9,-1,4,1023,RJFO 030300Z 31012G25KT 9999 FEW030 BKN050 09/M04 Q1023 RMK     1CU030 6SC050 A3023=,
20180103_040000.002,0,RJFO,,,,0,20180103040000,-1,-1,-1,-1,320,-1,14,-1,-1,290,350,,9999,0,0,3,FEW 30   SCT 50   BKN 60,1,9,-1,4,1023,RJFO 030400Z 32014KT 290V350 9999 FEW030 SCT050 BKN060 09/M04     Q1023 RMK 1CU030 3SC050 6SC060 A3022=,
20180103_050000.002,0,RJFO,,,,0,20180103050000,-1,-1,-1,-1,350,-1,14,-1,-1,-1,-1,,9999,0,0,2,FEW 30   BKN 60,1,9,-1,2,1022,RJFO 030500Z 35014KT 9999 FEW030 BKN060 09/M02 Q1022 RMK     1CU030 6SC060 A3020=,
20180103_060000.002,0,RJFO,,,,0,20180103060000,-1,-1,-1,-1,340,-1,13,-1,-1,-1,-1,,9999,0,0,2,FEW 30   SCT 50,1,9,-1,3,1022,RJFO 030600Z 34013KT 9999 FEW030 SCT050 09/M03 Q1022 RMK     1CU030 4SC050 A3020=,
20180103_070000.002,0,RJFO,,,,0,20180103070000,-1,-1,-1,-1,340,-1,11,-1,-1,310,10,,9999,0,0,3,FEW 30   SCT 50   BKN -9999,1,9,-1,1,1022,RJFO 030700Z 34011KT 310V010 9999 FEW030 SCT050 BKN/// 09/M01     Q1022 RMK 1CU030 3SC050 A3021=,
20180103_080000.002,0,RJFO,,,,0,20180103080000,-1,-1,-1,-1,320,-1,7,-1,-1,270,360,,9999,0,0,2,FEW 30   BKN 50,1,8,-1,2,1023,RJFO 030800Z 32007KT 270V360 9999 FEW030 BKN050 08/M02 Q1023     RMK 1CU030 6SC050 A3022=,
20180103_090000.002,0,RJFO,,,,0,20180103090000,-1,-1,-1,-1,330,-1,7,-1,-1,-1,-1,,9999,0,0,2,FEW 30   SCT 50,1,7,-1,2,1023,RJFO 030900Z 33007KT 9999 FEW030 SCT050 07/M02 Q1023 RMK     1CU030 3SC050 A3023=,
20180103_100000.002,0,RJFO,,,,0,20180103100000,-1,-1,-1,-1,320,-1,5,-1,-1,-1,-1,,9999,0,0,2,FEW 30   SCT -9999,1,6,-1,2,1024,RJFO 031000Z 32005KT 9999 FEW030 SCT/// 06/M02 Q1024 RMK     1CU030 A3025=,
20180103_110000.002,0,RJFO,,,,0,20180103110000,-1,-1,-1,-1,320,-1,4,-1,-1,260,360,,9999,0,0,1,FEW 35,1,5,-1,3,1024,RJFO 031100Z 32004KT 260V360 9999 FEW035 05/M03 Q1024 RMK     1CU035 A3025=,
20180103_120000.002,0,RJFO,,,,0,20180103120000,-1,-1,-1,-1,280,-1,3,-1,-1,-1,-1,,9999,0,0,1,FEW 35,1,4,-1,2,1024,RJFO 031200Z 28003KT 9999 FEW035 04/M02 Q1024 RMK 2CU035     A3026=,
20180103_130000.003,0,RJFO,,,,0,20180103130000,-1,-1,-1,-1,280,-1,4,-1,-1,-1,-1,,9999,0,0,1,FEW 35,1,4,-1,1,1025,RJFO 031300Z 28004KT 9999 FEW035 04/M01 Q1025 RMK 1CU035     A3027=,
20180103_220000.002,0,RJFO,,,,0,20180103220000,-1,-1,-1,-1,270,-1,4,-1,-1,-1,-1,,9999,0,0,2,FEW 25   BKN 140,1,4,-1,2,1024,RJFO 032200Z 27004KT 9999 FEW025 BKN140 04/M02 Q1024 RMK     1CU025 6AC140 A3026=,
20180103_230000.002,0,RJFO,,,,0,20180103230000,-1,-1,-1,-1,280,-1,7,-1,-1,-1,-1,,9999,0,0,3,FEW 30   SCT 50   BKN 180,1,5,-1,2,1024,RJFO 032300Z 28007KT 9999 FEW030 SCT050 BKN180 05/M02 Q1024     RMK 1CU030 3SC050 6AC180 A3024=,
20180104_000000.002,0,RJFO,,,,0,20180104000000,-1,-1,-1,-1,280,-1,6,-1,-1,-1,-1,,9999,0,0,2,FEW 25   SCT 50,1,7,-1,1,1024,RJFO 040000Z 28006KT 9999 FEW025 SCT050 07/M01 Q1024 RMK     1CU025 3SC050 A3026=,
20180104_010000.002,0,RJFO,,,,0,20180104010000,-1,-1,-1,-1,280,-1,3,-1,-1,210,320,,9999,0,0,3,FEW 30   BKN 50   BKN -9999,1,8,-1,2,1024,RJFO 040100Z 28003KT 210V320 9999 FEW030 BKN050 BKN/// 08/M02     Q1024 RMK 1CU030 5SC050 A3026=,
20180104_020000.002,0,RJFO,,,,0,20180104020000,-1,-1,-1,-1,350,-1,7,-1,-1,320,20,,9999,0,0,2,FEW 15   BKN -9999,1,8,-1,3,1023,RJFO 040200Z 35007KT 320V020 9999 FEW015 BKN/// 08/M03 Q1023     RMK 1CU015 A3023=,
20180104_030000.002,0,RJFO,,,,0,20180104030000,-1,-1,-1,-1,999,-1,5,-1,-1,-1,-1,,9999,0,0,3,FEW 30   BKN 140   BKN 160,1,9,-1,2,1023,RJFO 040300Z VRB05KT 9999 FEW030 BKN140 BKN160 09/M02 Q1023     RMK 1CU030 5AC140 7AC160 A3021=,
20180104_040000.002,0,RJFO,,,,0,20180104040000,-1,-1,-1,-1,30,-1,12,-1,-1,-1,-1,,9999,0,0,3,FEW 30   SCT 50   BKN 140,1,9,-1,2,1021,RJFO 040400Z 03012KT 9999 FEW030 SCT050 BKN140 09/M02 Q1021     RMK 1CU030 4SC050 6AC140 A3017=,
20180104_050000.002,0,RJFO,,,,0,20180104050000,-1,-1,-1,-1,20,-1,12,-1,-1,-1,-1,,9999,0,0,3,FEW 30   BKN 120   BKN -9999,1,9,-1,1,1021,RJFO 040500Z 02012KT 9999 FEW030 BKN120 BKN/// 09/M01 Q1021     RMK 1CU030 5AC120 A3015=,
20180104_060000.003,0,RJFO,,,,0,20180104060000,-1,-1,-1,-1,30,-1,11,-1,-1,-1,-1,,9999,0,0,3,FEW 25   SCT 130   BKN 150,1,9,-1,2,1020,RJFO 040600Z 03011KT 9999 FEW025 SCT130 BKN150 09/M02 Q1020     RMK 1CU025 4AC130 7AC150 A3014=,
20180104_070000.002,0,RJFO,,,,0,20180104070000,-1,-1,-1,-1,20,-1,10,-1,-1,-1,-1,,9999,0,0,3,FEW 25   SCT 130   BKN -9999,1,9,-1,1,1021,RJFO 040700Z 02010KT 9999 FEW025 SCT130 BKN/// 09/M01 Q1021     RMK 1CU025 4AC130 A3016=,
20180104_080000.002,0,RJFO,,,,0,20180104080000,-1,-1,-1,-1,30,-1,10,-1,-1,-1,-1,,9999,0,0,3,FEW 30   SCT 100   BKN -9999,1,8,-1,2,1021,RJFO 040800Z 03010KT 9999 FEW030 SCT100 BKN/// 08/M02 Q1021     RMK 1CU030 3AC100 A3016=,
20180104_090000.002,0,RJFO,,,,0,20180104090000,-1,-1,-1,-1,310,-1,4,-1,-1,240,360,,9999,0,0,3,FEW 35   SCT 100   BKN 140,1,7,-1,1,1021,RJFO 040900Z 31004KT 240V360 9999 FEW035 SCT100 BKN140 07/M01     Q1021 RMK 1CU035 3AC100 5AC140 A3017=,
20180104_100000.002,0,RJFO,,,,0,20180104100000,-1,-1,-1,-1,280,-1,3,-1,-1,-1,-1,,9999,0,0,3,FEW 40   SCT 120   BKN -9999,1,6,-1,1,1021,RJFO 041000Z 28003KT 9999 FEW040 SCT120 BKN/// 06/M01 Q1021     RMK 1CU040 4AC120 A3017=,
20180104_110000.002,0,RJFO,,,,0,20180104110000,-1,-1,-1,-1,250,-1,3,-1,-1,220,280,,9999,0,0,3,FEW 40   SCT 110   BKN 130,1,5,-1,1,1021,RJFO 041100Z 25003KT 220V280 9999 FEW040 SCT110 BKN130 05/M01     Q1021 RMK 1CU040 4AC110 7AC130 A3017=,
20180104_120000.003,0,RJFO,,,,0,20180104120000,-1,-1,-1,-1,250,-1,3,-1,-1,-1,-1,,9999,0,0,3,FEW 35   BKN 100   BKN 120,1,6,-1,1,1021,RJFO 041200Z 25003KT 9999 FEW035 BKN100 BKN120 06/M01 Q1021     RMK 1CU035 5AC100 7AC120 A3017=,
20180104_130000.002,0,RJFO,,,,0,20180104130000,-1,-1,-1,-1,250,-1,3,-1,-1,-1,-1,,9999,0,0,3,FEW 35   SCT 90   BKN 100,1,5,-1,1,1021,RJFO 041300Z 25003KT 9999 FEW035 SCT090 BKN100 05/M01 Q1021     RMK 1CU035 3AC090 7AC100 A3015=,
20180104_220000.002,0,RJFO,,,,0,20180104220000,-1,-1,-1,-1,290,-1,5,-1,-1,-1,-1,,9999,0,0,3,FEW 15   BKN 25   BKN 35,1,4,1,3,1017,RJFO 042200Z 29005KT 9999 FEW015 BKN025 BKN035 04/03 Q1017 RMK     2CU015 6CU025 7CU035 A3005=,
20180104_220000.002,2,RJFO,,,,0,20180104220000,-1,-1,-1,-1,290,-1,5,-1,-1,-1,-1,,9999,0,1,3,FEW 15   BKN 25   BKN 35,1,4,1,3,1017,RJFO 042200Z 29005KT 9999 -SHRA FEW015 BKN025 BKN035 04/03     Q1017 RMK 2CU015 6CU025 7CU035 A3005=,- RA SH
20180104_230000.002,0,RJFO,,,,0,20180104230000,-1,-1,-1,-1,290,-1,5,-1,-1,-1,-1,,9999,0,1,3,FEW 15   BKN 25   BKN 35,1,4,1,3,1018,RJFO 042300Z 29005KT 9999 -SHRA FEW015 BKN025 BKN035 04/03     Q1018 RMK 1CU015 6CU025 7CU035 A3006=,- RA SH
20180105_000000.002,0,RJFO,,,,0,20180105000000,-1,-1,-1,-1,270,-1,4,-1,-1,-1,-1,,9999,0,1,3,FEW 15   BKN 25   BKN 45,1,4,1,3,1018,RJFO 050000Z 27004KT 9999 -SHRA FEW015 BKN025 BKN045 04/03     Q1018 RMK 1CU015 6CU025 7CU045 A3006=,- RA SH
20180105_010000.003,0,RJFO,,,,0,20180105010000,-1,-1,-1,-1,280,-1,4,-1,-1,-1,-1,,9999,0,1,3,FEW 10   SCT 20   BKN 35,1,4,1,3,1018,RJFO 050100Z 28004KT 9999 -SHRA FEW010 SCT020 BKN035 04/03     Q1018 RMK 1CU010 4CU020 7CU035 A3007=,- RA SH
20180105_020000.002,0,RJFO,,,,0,20180105020000,-1,-1,-1,-1,270,-1,4,-1,-1,-1,-1,,9999,0,1,3,FEW 6   SCT 25   BKN 35,1,5,1,4,1017,RJFO 050200Z 27004KT 9999 -SHRA FEW006 SCT025 BKN035 05/04     Q1017 RMK 1ST006 4CU025 7CU035 A3005=,- RA SH
20180105_030000.002,0,RJFO,,,,0,20180105030000,-1,-1,-1,-1,260,-1,4,-1,-1,-1,-1,,9999,0,1,3,FEW 6   SCT 20   BKN 30,1,6,1,5,1016,RJFO 050300Z 26004KT 9999 -SHRA FEW006 SCT020 BKN030 06/05     Q1016 RMK 1ST006 4CU020 7CU030 A3003=,- RA SH
20180105_040000.002,0,RJFO,,,,0,20180105040000,-1,-1,-1,-1,260,-1,3,-1,-1,220,280,,9999,0,0,3,FEW 6   SCT 10   BKN 30,1,6,1,4,1015,RJFO 050400Z 26003KT 220V280 9999 FEW006 SCT010 BKN030 06/04     Q1015 RMK 1ST006 4ST010 7CU030 A3000=,
20180105_050000.002,0,RJFO,,,,0,20180105050000,-1,-1,-1,-1,999,-1,1,-1,-1,-1,-1,,9999,0,0,3,FEW 10   SCT 15   BKN 25,1,7,1,4,1015,RJFO 050500Z VRB01KT 9999 FEW010 SCT015 BKN025 07/04 Q1015 RMK     1ST010 3CU015 6CU025 A2997=,
20180105_060000.002,0,RJFO,,,,0,20180105060000,-1,-1,-1,-1,130,-1,3,-1,-1,90,210,,9999,0,0,3,FEW 15   SCT 25   BKN 35,1,7,1,4,1014,RJFO 050600Z 13003KT 090V210 9999 FEW015 SCT025 BKN035 07/04     Q1014 RMK 1CU015 3CU025 5CU035 A2997=,
20180105_070000.002,0,RJFO,,,,0,20180105070000,-1,-1,-1,-1,999,-1,2,-1,-1,-1,-1,,9999,0,0,3,FEW 15   SCT 25   BKN 30,1,7,1,4,1014,RJFO 050700Z VRB02KT 9999 FEW015 SCT025 BKN030 07/04 Q1014 RMK     1CU015 4CU025 7CU030 A2997=,
20180105_080000.002,0,RJFO,,,,0,20180105080000,-1,-1,-1,-1,320,-1,1,-1,-1,-1,-1,,9999,0,1,3,FEW 7   SCT 15   BKN 20,1,7,1,5,1015,RJFO 050800Z 32001KT 9999 -SHRA FEW007 SCT015 BKN020 07/05     Q1015 RMK 1ST007 3CU015 6CU020 A2997=,- RA SH
20180105_090000.002,0,RJFO,,,,0,20180105090000,-1,-1,-1,-1,310,-1,3,-1,-1,-1,-1,,9999,0,0,3,FEW 15   BKN 20   BKN 25,1,6,1,5,1015,RJFO 050900Z 31003KT 9999 FEW015 BKN020 BKN025 06/05 Q1015 RMK     1CU015 5CU020 7CU025 A2998=,
20180105_100000.002,0,RJFO,,,,0,20180105100000,-1,-1,-1,-1,280,-1,3,-1,-1,-1,-1,,9999,0,0,3,FEW 20   SCT 40   BKN 60,1,6,1,5,1015,RJFO 051000Z 28003KT 9999 FEW020 SCT040 BKN060 06/05 Q1015 RMK     2CU020 4CU040 6SC060 A2998=,
20180105_110000.002,0,RJFO,,,,0,20180105110000,-1,-1,-1,-1,999,-1,2,-1,-1,-1,-1,,9999,0,0,3,FEW 15   SCT 25   BKN 35,1,6,1,5,1015,RJFO 051100Z VRB02KT 9999 FEW015 SCT025 BKN035 06/05 Q1015 RMK     1CU015 4CU025 6CU035 A2998=,
20180105_120000.002,0,RJFO,,,,0,20180105120000,-1,-1,-1,-1,290,-1,2,-1,-1,-1,-1,,9999,0,0,3,FEW 20   BKN 40   BKN 60,1,6,1,5,1015,RJFO 051200Z 29002KT 9999 FEW020 BKN040 BKN060 06/05 Q1015 RMK     1CU020 5CU040 6SC060 A2997=,
20180105_130000.002,0,RJFO,,,,0,20180105130000,-1,-1,-1,-1,280,-1,6,-1,-1,-1,-1,,9999,0,1,3,FEW 20   SCT 35   BKN 45,1,7,1,5,1015,RJFO 051300Z 28006KT 9999 -SHRA FEW020 SCT035 BKN045 07/05     Q1015 RMK 1CU020 4CU035 6CU045 A2997=,- RA SH
20180105_220000.002,0,RJFO,,,,0,20180105220000,-1,-1,-1,-1,270,-1,5,-1,-1,-1,-1,,9999,0,0,1,FEW 30,1,4,1,0,1017,RJFO 052200Z 27005KT 9999 FEW030 04/00 Q1017 RMK 1CU030 A3004=,
20180105_230000.002,0,RJFO,,,,0,20180105230000,-1,-1,-1,-1,280,-1,6,-1,-1,-1,-1,,9999,0,0,2,FEW 30   SCT 50,1,5,-1,0,1017,RJFO 052300Z 28006KT 9999 FEW030 SCT050 05/M00 Q1017 RMK     1CU030 3SC050 A3005=,
20180106_000000.002,0,RJFO,,,,0,20180106000000,-1,-1,-1,-1,290,-1,11,-1,-1,-1,-1,,9999,0,0,2,FEW 30   SCT 45,1,7,-1,1,1018,RJFO 060000Z 29011KT 9999 FEW030 SCT045 07/M01 Q1018 RMK     1CU030 4CU045 A3008=,
20180106_010000.002,0,RJFO,,,,0,20180106010000,-1,-1,-1,-1,290,-1,14,-1,-1,-1,-1,,9999,0,0,2,FEW 30   SCT 40,1,8,-1,1,1019,RJFO 060100Z 29014KT 9999 FEW030 SCT040 08/M01 Q1019 RMK     1CU030 3CU040 A3009=,
20180106_020000.002,0,RJFO,,,,0,20180106020000,-1,-1,-1,-1,310,-1,14,-1,-1,270,340,,9999,0,0,2,FEW 30   SCT 40,1,9,-1,1,1018,RJFO 060200Z 31014KT 270V340 9999 FEW030 SCT040 09/M01 Q1018     RMK 1CU030 4CU040 A3008=,
20180106_030000.002,0,RJFO,,,,0,20180106030000,-1,-1,-1,-1,290,-1,11,-1,-1,250,330,,9999,0,0,2,FEW 30   SCT 40,1,10,-1,0,1018,RJFO 060300Z 29011KT 250V330 9999 FEW030 SCT040 10/M00 Q1018     RMK 1CU030 3CU040 A3006=,
20180106_040000.002,0,RJFO,,,,0,20180106040000,-1,-1,-1,-1,310,-1,11,-1,-1,270,330,,9999,0,0,2,FEW 30   BKN 40,1,10,-1,1,1017,RJFO 060400Z 31011KT 270V330 9999 FEW030 BKN040 10/M01 Q1017     RMK 1CU030 5CU040 A3005=,
20180106_050000.002,0,RJFO,,,,0,20180106050000,-1,-1,-1,-1,320,-1,15,-1,-1,-1,-1,,9999,0,0,2,FEW 35   SCT 45,1,10,-1,2,1017,RJFO 060500Z 32015KT 9999 FEW035 SCT045 10/M02 Q1017 RMK     1CU035 4SC045 A3004=,
20180106_060000.002,0,RJFO,,,,0,20180106060000,-1,-1,-1,-1,320,-1,9,-1,-1,260,20,,9999,0,0,2,FEW 35   SCT 45,1,10,-1,3,1017,RJFO 060600Z 32009KT 260V020 9999 FEW035 SCT045 10/M03 Q1017     RMK 1CU035 3SC045 A3005=,
20180106_070000.002,0,RJFO,,,,0,20180106070000,-1,-1,-1,-1,330,-1,10,-1,-1,-1,-1,,9999,0,0,1,FEW 40,1,9,-1,2,1018,RJFO 060700Z 33010KT 9999 FEW040 09/M02 Q1018 RMK 2CU040     A3007=,
20180106_080000.002,0,RJFO,,,,0,20180106080000,-1,-1,-1,-1,320,-1,9,-1,-1,-1,-1,,9999,0,0,1,FEW 35,1,7,-1,2,1018,RJFO 060800Z 32009KT 9999 FEW035 07/M02 Q1018 RMK 1CU035     A3008=,
20180106_090000.002,0,RJFO,,,,0,20180106090000,-1,-1,-1,-1,260,-1,6,-1,-1,-1,-1,,9999,0,0,2,FEW 35   SCT 45,1,6,-1,1,1020,RJFO 060900Z 26006KT 9999 FEW035 SCT045 06/M01 Q1020 RMK     1CU035 4CU045 A3013 P/RR=,
20180106_100000.002,0,RJFO,,,,0,20180106100000,-1,-1,-1,-1,280,-1,5,-1,-1,-1,-1,,9999,0,0,1,FEW 40,1,7,-1,1,1020,RJFO 061000Z 28005KT 9999 FEW040 07/M01 Q1020 RMK 1CU040     A3015=,
20180106_110000.002,0,RJFO,,,,0,20180106110000,-1,-1,-1,-1,300,-1,8,-1,-1,-1,-1,,9999,0,0,1,FEW 40,1,6,-1,1,1020,RJFO 061100Z 30008KT 9999 FEW040 06/M01 Q1020 RMK 1CU040     A3015=,
20180106_120000.002,0,RJFO,,,,0,20180106120000,-1,-1,-1,-1,310,-1,7,-1,-1,-1,-1,,9999,0,0,2,FEW 40   SCT -9999,1,5,-1,0,1021,RJFO 061200Z 31007KT 9999 FEW040 SCT/// 05/M00 Q1021 RMK     1CU040 A3015=,
20180106_130000.002,0,RJFO,,,,0,20180106130000,-1,-1,-1,-1,280,-1,5,-1,-1,-1,-1,,9999,0,0,2,FEW 40   SCT -9999,1,5,-1,1,1021,RJFO 061300Z 28005KT 9999 FEW040 SCT/// 05/M01 Q1021 RMK     1CU040 A3016=,
20180106_220000.002,0,RJFO,,,,0,20180106220000,-1,-1,-1,-1,260,-1,3,-1,-1,200,300,,9999,0,0,2,FEW 30   BKN -9999,1,3,-1,0,1022,RJFO 062200Z 26003KT 200V300 9999 FEW030 BKN/// 03/M00 Q1022     RMK 1CU030 A3018=,
20180106_230000.002,0,RJFO,,,,0,20180106230000,-1,-1,-1,-1,260,-1,4,-1,-1,190,290,,9999,0,0,2,FEW 25   BKN -9999,1,3,1,0,1023,RJFO 062300Z 26004KT 190V290 9999 FEW025 BKN/// 03/00 Q1023     RMK 1CU025 A3021=,
20180107_000000.002,0,RJFO,,,,0,20180107000000,-1,-1,-1,-1,260,-1,3,-1,-1,-1,-1,,9999,0,0,2,FEW 25   BKN -9999,1,5,1,2,1023,RJFO 070000Z 26003KT 9999 FEW025 BKN/// 05/02 Q1023 RMK 1CU025     A3021=,
20180107_010000.003,0,RJFO,,,,0,20180107010000,-1,-1,-1,-1,250,-1,4,-1,-1,-1,-1,,9999,0,0,3,FEW 30   SCT 180   BKN -9999,1,8,1,1,1023,RJFO 070100Z 25004KT 9999 FEW030 SCT180 BKN/// 08/01 Q1023 RMK     1CU030 3AC180 A3022=,
20180107_020000.002,0,RJFO,,,,0,20180107020000,-1,-1,-1,-1,220,-1,2,-1,-1,-1,-1,,9999,0,0,3,FEW 25   BKN 35   BKN 180,1,9,1,3,1022,RJFO 070200Z 22002KT 9999 FEW025 BKN035 BKN180 09/03 Q1022 RMK     1CU025 5CU035 7AC180 A3020=,
20180107_030000.002,0,RJFO,,,,0,20180107030000,-1,-1,-1,-1,200,-1,5,-1,-1,-1,-1,,9999,0,0,3,FEW 35   SCT 45   BKN 160,1,9,1,3,1022,RJFO 070300Z 20005KT 9999 FEW035 SCT045 BKN160 09/03 Q1022 RMK     1CU035 3CU045 7AC160 A3018=,
20180107_040000.002,0,RJFO,,,,0,20180107040000,-1,-1,-1,-1,190,-1,3,-1,-1,130,240,,9999,0,0,3,FEW 30   BKN 120   BKN 140,1,9,1,2,1021,RJFO 070400Z 19003KT 130V240 9999 FEW030 BKN120 BKN140 09/02     Q1021 RMK 1CU030 5AC120 7AC140 A3016=,
20180107_050000.002,0,RJFO,,,,0,20180107050000,-1,-1,-1,-1,110,-1,3,-1,-1,70,150,,9999,0,0,3,FEW 30   SCT 100   BKN 120,1,9,1,2,1021,RJFO 070500Z 11003KT 070V150 9999 FEW030 SCT100 BKN120 09/02     Q1021 RMK 1CU030 4AC100 7AC120 A3016=,
20180107_060000.002,0,RJFO,,,,0,20180107060000,-1,-1,-1,-1,90,-1,3,-1,-1,-1,-1,,9999,0,0,2,FEW 35   BKN 120,1,9,1,3,1021,RJFO 070600Z 09003KT 9999 FEW035 BKN120 09/03 Q1021 RMK 1CU035     7AC120 A3015=,
20180107_070000.002,0,RJFO,,,,0,20180107070000,-1,-1,-1,-1,120,-1,5,-1,-1,-1,-1,,9999,0,0,3,FEW 30   BKN 120   BKN 150,1,9,1,4,1021,RJFO 070700Z 12005KT 9999 FEW030 BKN120 BKN150 09/04 Q1021 RMK     1CU030 5AC120 7AC150 A3015=,
20180107_080000.002,0,RJFO,,,,0,20180107080000,-1,-1,-1,-1,150,-1,4,-1,-1,-1,-1,,9999,0,0,3,FEW 30   BKN 110   BKN 140,1,9,1,3,1021,RJFO 070800Z 15004KT 9999 FEW030 BKN110 BKN140 09/03 Q1021 RMK     1CU030 5AC110 7AC140 A3015=,
20180107_090000.002,0,RJFO,,,,0,20180107090000,-1,-1,-1,-1,140,-1,6,-1,-1,-1,-1,,9999,0,1,3,FEW 30   BKN 100   BKN 120,1,9,1,2,1020,RJFO 070900Z 14006KT 9999 -RA FEW030 BKN100 BKN120 09/02 Q1020     RMK 1CU030 5AC100 7AC120 A3014=,- RA
20180107_100000.002,0,RJFO,,,,0,20180107100000,-1,-1,-1,-1,210,-1,3,-1,-1,170,240,,9999,0,0,3,FEW 30   SCT 80   BKN 100,1,9,1,3,1020,RJFO 071000Z 21003KT 170V240 9999 FEW030 SCT080 BKN100 09/03     Q1020 RMK 1CU030 4AC080 7AC100 A3015=,
20180107_110000.002,0,RJFO,,,,0,20180107110000,-1,-1,-1,-1,190,-1,7,-1,-1,-1,-1,,9999,0,0,3,FEW 30   SCT 60   BKN 90,1,9,1,4,1020,RJFO 071100Z 19007KT 9999 FEW030 SCT060 BKN090 09/04 Q1020 RMK     1CU030 3SC060 7AC090 A3014=,
20180107_120000.003,0,RJFO,,,,0,20180107120000,-1,-1,-1,-1,190,-1,6,-1,-1,-1,-1,,9999,0,1,3,FEW 30   SCT 50   BKN 60,1,8,1,4,1020,RJFO 071200Z 19006KT 9999 -RA FEW030 SCT050 BKN060 08/04 Q1020     RMK 2CU030 3SC050 7SC060 A3012=,- RA
20180107_130000.003,0,RJFO,,,,0,20180107130000,-1,-1,-1,-1,250,-1,3,-1,-1,-1,-1,,9999,0,1,3,FEW 25   SCT 35   BKN 45,1,9,1,5,1019,RJFO 071300Z 25003KT 9999 -RA FEW025 SCT035 BKN045 09/05 Q1019     RMK 2CU025 4CU035 7SC045 A3010=,- RA
20180107_220000.002,0,RJFO,,,,0,20180107220000,-1,-1,-1,-1,80,-1,16,-1,-1,-1,-1,,7000,0,1,3,FEW 3   BKN 12   BKN 20,1,9,1,9,1012,RJFO 072200Z 08016KT 7000 -SHRA FEW003 BKN012 BKN020 09/09     Q1012 RMK 1ST003 6ST012 7CU020 A2989=,- RA SH
20180107_230000.002,0,RJFO,,,,0,20180107230000,-1,-1,-1,-1,80,-1,15,-1,-1,-1,-1,,8000,0,1,3,FEW 3   SCT 5   BKN 12,1,10,1,9,1011,RJFO 072300Z 08015KT 8000 -SHRA FEW003 SCT005 BKN012 10/09     Q1011 RMK 1ST003 3ST005 6ST012 A2986=,- RA SH
20180108_000000.002,0,RJFO,,,,0,20180108000000,-1,-1,-1,-1,70,-1,10,-1,-1,-1,-1,,8000,0,1,3,FEW 3   SCT 7   BKN 9,1,10,1,9,1011,RJFO 080000Z 07010KT 8000 -SHRA FEW003 SCT007 BKN009 10/09     Q1011 RMK 1ST003 3ST007 6ST009 A2986=,- RA SH
20180108_010000.002,0,RJFO,,,,0,20180108010000,-1,-1,-1,-1,70,-1,8,-1,-1,-1,-1,,9000,0,1,3,FEW 3   SCT 5   BKN 7,1,10,1,10,1010,RJFO 080100Z 07008KT 9000 -SHRA FEW003 SCT005 BKN007 10/10     Q1010 RMK 1ST003 3ST005 6ST007 A2984=,- RA SH
20180108_020000.002,0,RJFO,,,,0,20180108020000,-1,-1,-1,-1,80,-1,9,-1,-1,-1,-1,,8000,0,1,3,FEW 2   BKN 5   BKN 6,1,10,1,10,1009,RJFO 080200Z 08009KT 8000 -SHRA FEW002 BKN005 BKN006 10/10     Q1009 RMK 1ST002 5ST005 6ST006 A2981=,- RA SH
20180108_030000.002,0,RJFO,,,,0,20180108030000,-1,-1,-1,-1,70,-1,6,-1,-1,-1,-1,,8000,0,1,3,FEW 2   SCT 4   BKN 5,1,10,1,10,1008,RJFO 080300Z 07006KT 8000 -SHRA FEW002 SCT004 BKN005 10/10     Q1008 RMK 1ST002 3ST004 5ST005 A2979=,- RA SH
20180108_040000.002,0,RJFO,,,,0,20180108040000,-1,-1,-1,-1,70,-1,7,-1,18,20,90,,7000,0,0,3,FEW 3   SCT 4   BKN 5,1,10,1,10,1007,RJFO 080400Z 07007G18KT 020V090 7000 FEW003 SCT004 BKN005     10/10 Q1007 RMK 1ST003 3ST004 6ST005 A2975=,
20180108_050000.002,0,RJFO,,,,0,20180108050000,-1,-1,-1,-1,80,-1,5,-1,-1,-1,-1,,8000,0,0,3,FEW 2   BKN 3   BKN 4,1,11,1,11,1005,RJFO 080500Z 08005KT 8000 FEW002 BKN003 BKN004 11/11 Q1005 RMK     1ST002 5ST003 6ST004 A2969=,
20180108_060000.003,0,RJFO,,,,0,20180108060000,-1,-1,-1,-1,80,-1,4,-1,-1,-1,-1,,9999,0,0,3,FEW 2   SCT 4   BKN 6,1,11,1,11,1005,RJFO 080600Z 08004KT 9999 FEW002 SCT004 BKN006 11/11 Q1005 RMK     1ST002 3ST004 6ST006 A2970=,
20180108_070000.002,0,RJFO,,,,0,20180108070000,-1,-1,-1,-1,20,-1,6,-1,-1,-1,-1,,9999,0,0,3,FEW 3   SCT 5   BKN 6,1,11,1,11,1004,RJFO 080700Z 02006KT 9999 FEW003 SCT005 BKN006 11/11 Q1004 RMK     1ST003 3ST005 6ST006 A2967=,
20180108_080000.002,0,RJFO,,,,0,20180108080000,-1,-1,-1,-1,999,-1,1,-1,-1,-1,-1,,8000,0,0,3,SCT 4   BKN 5   BKN 6,1,11,1,11,1004,RJFO 080800Z VRB01KT 8000 SCT004 BKN005 BKN006 11/11 Q1004 RMK     3ST004 6ST005 7ST006 A2967=,
20180108_090000.002,0,RJFO,,,,0,20180108090000,-1,-1,-1,-1,330,-1,3,-1,-1,290,30,,4500,0,2,3,FEW 3   BKN 4   BKN 5,1,11,1,11,1004,RJFO 080900Z 33003KT 290V030 4500 -SHRA BR FEW003 BKN004     BKN005 11/11 Q1004 RMK 1ST003 6ST004 7ST005 A2966=,- RA SH; BR
20180108_100000.002,0,RJFO,,,,0,20180108100000,-1,-1,-1,-1,250,-1,4,-1,-1,210,270,,3000,0,1,3,SCT 1   BKN 2   BKN 3,1,12,1,12,1005,RJFO 081000Z 25004KT 210V270 3000 BR SCT001 BKN002 BKN003     12/12 Q1005 RMK 3ST001 5ST002 6ST003 A2968=,BR
20180108_110000.002,0,RJFO,,,,0,20180108110000,-1,-1,-1,-1,160,-1,5,-1,-1,-1,-1,,7000,0,0,3,FEW 5   SCT 80   BKN 100,1,11,1,11,1004,RJFO 081100Z 16005KT 7000 FEW005 SCT080 BKN100 11/11 Q1004 RMK     1ST005 3AC080 7AC100 A2967=,
20180108_120000.002,0,RJFO,,,,0,20180108120000,-1,-1,-1,-1,300,-1,9,-1,-1,-1,-1,,9999,0,0,3,FEW 20   SCT 35   BKN 50,1,13,1,11,1005,RJFO 081200Z 30009KT 9999 FEW020 SCT035 BKN050 13/11 Q1005 RMK     1CU020 3CU035 7SC050 A2968=,
20180108_130000.003,0,RJFO,,,,0,20180108130000,-1,-1,-1,-1,300,-1,14,-1,-1,-1,-1,,9999,0,1,3,FEW 30   BKN 50   BKN 70,1,12,1,9,1005,RJFO 081300Z 30014KT 9999 -RA FEW030 BKN050 BKN070 12/09 Q1005     RMK 1CU030 5SC050 7AC070 A2969=,- RA
20180108_220000.002,0,RJFO,,,,0,20180108220000,-1,-1,-1,-1,300,-1,11,-1,-1,250,330,,9999,0,1,3,FEW 20   SCT 35   BKN 45,1,6,1,1,1009,RJFO 082200Z 30011KT 250V330 9999 -SHRA FEW020 SCT035 BKN045     06/01 Q1009 RMK 1CU020 3CU035 6CU045 A2980=,- RA SH
20180108_230000.003,0,RJFO,,,,0,20180108230000,-1,-1,-1,-1,290,-1,12,-1,-1,240,310,,9999,0,1,3,FEW 30   SCT 40   BKN 50,1,6,1,1,1010,RJFO 082300Z 29012KT 240V310 9999 -SHRA FEW030 SCT040 BKN050     06/01 Q1010 RMK 1CU030 4CU040 6SC050 A2983=,- RA SH
20180109_000000.002,0,RJFO,,,,0,20180109000000,-1,-1,-1,-1,300,-1,8,-1,-1,260,330,,9999,0,1,3,FEW 20   BKN 40   BKN 50,1,6,1,1,1010,RJFO 090000Z 30008KT 260V330 9999 -SHRA FEW020 BKN040 BKN050     06/01 Q1010 RMK 1CU020 5CU040 6SC050 A2985=,- RA SH
20180109_010000.002,0,RJFO,,,,0,20180109010000,-1,-1,-1,-1,290,-1,22,-1,33,-1,-1,,9999,0,1,3,FEW 20   SCT 35   BKN 45,1,6,-1,0,1011,RJFO 090100Z 29022G33KT 9999 -SHRASN FEW020 SCT035 BKN045     06/M00 Q1011 RMK 1CU020 3CU035 6CU045 A2986=,- RA SN SH
20180109_020000.002,0,RJFO,,,,0,20180109020000,-1,-1,-1,-1,290,-1,16,-1,27,-1,-1,,9999,0,0,1,FEW 35,1,6,-1,2,1011,RJFO 090200Z 29016G27KT 9999 FEW035 06/M02 Q1011 RMK 2CU035     A2986=,
20180109_030000.002,0,RJFO,,,,0,20180109030000,-1,-1,-1,-1,290,-1,19,-1,38,260,320,,9999,0,0,2,FEW 30   SCT 45,1,7,-1,3,1010,RJFO 090300Z 29019G38KT 260V320 9999 FEW030 SCT045 07/M03     Q1010 RMK 1CU030 3CU045 A2984=,
20180109_040000.002,0,RJFO,,,,0,20180109040000,-1,-1,-1,-1,290,-1,20,-1,34,-1,-1,,9999,0,0,2,FEW 30   SCT 40,1,7,-1,2,1010,RJFO 090400Z 29020G34KT 9999 FEW030 SCT040 07/M02 Q1010 RMK     1CU030 3CU040 A2984=,
20180109_050000.002,0,RJFO,,,,0,20180109050000,-1,-1,-1,-1,290,-1,16,-1,-1,250,320,,9999,0,0,2,FEW 30   SCT 40,1,7,-1,4,1010,RJFO 090500Z 29016KT 250V320 9999 FEW030 SCT040 07/M04 Q1010     RMK 1CU030 3CU040 A2985=,
20180109_060000.002,0,RJFO,,,,0,20180109060000,-1,-1,-1,-1,310,-1,13,-1,-1,270,340,,9999,0,0,2,FEW 30   SCT 45,1,6,-1,3,1011,RJFO 090600Z 31013KT 270V340 9999 FEW030 SCT045 06/M03 Q1011     RMK 1CU030 3CU045 A2987=,
20180109_070000.002,0,RJFO,,,,0,20180109070000,-1,-1,-1,-1,300,-1,11,-1,-1,-1,-1,,9999,0,1,2,FEW 25   BKN 45,1,6,-1,3,1012,RJFO 090700Z 30011KT 9999 VCSH FEW025 BKN045 06/M03 Q1012 RMK     1CU025 5CU045 A2989=,VC SH
20180109_080000.002,0,RJFO,,,,0,20180109080000,-1,-1,-1,-1,300,-1,8,-1,-1,260,330,,9999,0,1,3,FEW 15   BKN 40   BKN 60,1,5,-1,2,1013,RJFO 090800Z 30008KT 260V330 9999 VCSH FEW015 BKN040 BKN060     05/M02 Q1013 RMK 2CU015 5CU040 7SC060 A2992=,VC SH
20180109_090000.002,0,RJFO,,,,0,20180109090000,-1,-1,-1,-1,310,-1,4,-1,-1,-1,-1,,9999,0,0,3,FEW 25   SCT 40   BKN 50,1,5,-1,2,1013,RJFO 090900Z 31004KT 9999 FEW025 SCT040 BKN050 05/M02 Q1013     RMK 1CU025 3CU040 5SC050 A2994=,
20180109_100000.002,0,RJFO,,,,0,20180109100000,-1,-1,-1,-1,260,-1,4,-1,-1,210,310,,9999,0,0,2,FEW 25   BKN 50,1,4,-1,2,1014,RJFO 091000Z 26004KT 210V310 9999 FEW025 BKN050 04/M02 Q1014     RMK 1CU025 7SC050 A2997=,
20180109_110000.002,0,RJFO,,,,0,20180109110000,-1,-1,-1,-1,260,-1,5,-1,-1,-1,-1,,9999,0,0,2,FEW 30   SCT 45,1,4,-1,3,1015,RJFO 091100Z 26005KT 9999 FEW030 SCT045 04/M03 Q1015 RMK     1CU030 4CU045 A2997=,
20180109_120000.002,0,RJFO,,,,0,20180109120000,-1,-1,-1,-1,260,-1,3,-1,-1,220,310,,9999,0,0,1,FEW 50,1,3,-1,2,1015,RJFO 091200Z 26003KT 220V310 9999 FEW050 03/M02 Q1015 RMK     2SC050 A2999=,
20180109_130000.002,0,RJFO,,,,0,20180109130000,-1,-1,-1,-1,260,-1,4,-1,-1,-1,-1,,9999,0,0,1,FEW 50,1,3,-1,2,1015,RJFO 091300Z 26004KT 9999 FEW050 03/M02 Q1015 RMK 1SC050     A3000=,
20180109_220000.002,0,RJFO,,,,0,20180109220000,-1,-1,-1,-1,280,-1,4,-1,-1,-1,-1,,9999,0,0,3,FEW 20   SCT 40   BKN 50,1,3,-1,0,1014,RJFO 092200Z 28004KT 9999 FEW020 SCT040 BKN050 03/M00 Q1014     RMK 1CU020 3CU040 5SC050 A2996=,
20180109_230000.002,0,RJFO,,,,0,20180109230000,-1,-1,-1,-1,330,-1,7,-1,-1,-1,-1,,9999,0,0,2,FEW 15   SCT 35,1,4,1,1,1013,RJFO 092300Z 33007KT 9999 FEW015 SCT035 04/01 Q1013 RMK 1CU015     4CU035 A2994=,
20180110_000000.002,0,RJFO,,,,0,20180110000000,-1,-1,-1,-1,999,-1,2,-1,-1,-1,-1,,9999,0,1,3,FEW 20   SCT 30   BKN 40,1,4,1,2,1014,RJFO 100000Z VRB02KT 9999 -SHRA FEW020 SCT030 BKN040 04/02     Q1014 RMK 1CU020 3CU030 6CU040 A2996=,- RA SH
20180110_010000.002,0,RJFO,,,,0,20180110010000,-1,-1,-1,-1,280,-1,12,-1,-1,-1,-1,,9999,0,0,2,FEW 20   SCT 40,1,7,1,2,1014,RJFO 100100Z 28012KT 9999 FEW020 SCT040 07/02 Q1014 RMK 2CU020     3CU040 A2994=,
20180110_020000.002,0,RJFO,,,,0,20180110020000,-1,-1,-1,-1,280,-1,12,-1,-1,240,310,,9999,0,1,3,FEW 10   SCT 20   BKN 35,1,7,1,2,1013,RJFO 100200Z 28012KT 240V310 9999 -SHRA FEW010 SCT020 BKN035     07/02 Q1013 RMK 1CU010 4CU020 6CU035 A2994=,- RA SH
20180110_030000.002,0,RJFO,,,,0,20180110030000,-1,-1,-1,-1,290,-1,9,-1,-1,-1,-1,,9999,0,1,3,FEW 10   BKN 20   BKN 30,1,5,1,3,1013,RJFO 100300Z 29009KT 9999 -SHRA FEW010 BKN020 BKN030 05/03     Q1013 RMK 1CU010 5CU020 6CU030 A2994=,- RA SH
20180110_040000.003,0,RJFO,,,,0,20180110040000,-1,-1,-1,-1,300,-1,11,-1,-1,260,330,,9999,0,0,3,FEW 15   SCT 35   BKN 45,1,6,1,2,1013,RJFO 100400Z 30011KT 260V330 9999 FEW015 SCT035 BKN045 06/02     Q1013 RMK 1CU015 3CU035 5CU045 A2992=,
20180110_050000.002,0,RJFO,,,,0,20180110050000,-1,-1,-1,-1,290,-1,9,-1,-1,260,320,,9999,0,1,3,FEW 15   SCT 25   BKN 40,1,6,1,2,1013,RJFO 100500Z 29009KT 260V320 9999 -SHRA FEW015 SCT025 BKN040     06/02 Q1013 RMK 1CU015 3CU025 6CU040 A2993=,- RA SH
20180110_060000.002,0,RJFO,,,,0,20180110060000,-1,-1,-1,-1,300,-1,9,-1,-1,250,320,,9999,0,0,3,FEW 15   SCT 25   BKN 40,1,5,1,1,1013,RJFO 100600Z 30009KT 250V320 9999 FEW015 SCT025 BKN040 05/01     Q1013 RMK 1CU015 4CU025 6CU040 A2993=,
20180110_070000.002,0,RJFO,,,,0,20180110070000,-1,-1,-1,-1,300,-1,14,-1,-1,-1,-1,,9999,0,1,2,FEW 15   SCT 40,1,5,1,0,1013,RJFO 100700Z 30014KT 9999 -SHRA FEW015 SCT040 05/00 Q1013 RMK     1CU015 3CU040 A2994=,- RA SH
20180110_080000.002,0,RJFO,,,,0,20180110080000,-1,-1,-1,-1,290,-1,14,-1,26,260,320,,9999,0,0,3,FEW 15   SCT 35   BKN 60,1,4,-1,2,1014,RJFO 100800Z 29014G26KT 260V320 9999 FEW015 SCT035 BKN060     04/M02 Q1014 RMK 1CU015 3CU035 5SC060 A2997=,
20180110_090000.002,0,RJFO,,,,0,20180110090000,-1,-1,-1,-1,300,-1,10,-1,-1,-1,-1,,9999,0,1,3,FEW 15   SCT 25   BKN 45,1,3,-1,0,1015,RJFO 100900Z 30010KT 9999 -SHRA FEW015 SCT025 BKN045 03/M00     Q1015 RMK 1CU015 4CU025 5CU045 A2998=,- RA SH
20180110_100000.002,0,RJFO,,,,0,20180110100000,-1,-1,-1,-1,290,-1,7,-1,-1,-1,-1,,9999,0,0,2,FEW 20   SCT 45,1,3,-1,0,1016,RJFO 101000Z 29007KT 9999 FEW020 SCT045 03/M00 Q1016 RMK     1CU020 3CU045 A3001=,
20180110_110000.002,0,RJFO,,,,0,20180110110000,-1,-1,-1,-1,280,-1,12,-1,-1,-1,-1,,9999,0,0,2,FEW 20   SCT 45,1,3,-1,1,1016,RJFO 101100Z 28012KT 9999 FEW020 SCT045 03/M01 Q1016 RMK     1CU020 3CU045 A3003=,
20180110_120000.002,0,RJFO,,,,0,20180110120000,-1,-1,-1,-1,300,-1,12,-1,-1,-1,-1,,9999,0,1,3,FEW 15   SCT 25   BKN 45,1,2,-1,1,1017,RJFO 101200Z 30012KT 9999 -SHSN FEW015 SCT025 BKN045 02/M01     Q1017 RMK 1CU015 3CU025 5CU045 A3004=,- SN SH
20180110_130000.002,0,RJFO,,,,0,20180110130000,-1,-1,-1,-1,310,-1,4,-1,-1,270,350,,9999,0,0,2,FEW 25   SCT 45,1,2,-1,1,1018,RJFO 101300Z 31004KT 270V350 9999 FEW025 SCT045 02/M01 Q1018     RMK 1CU025 3CU045 A3007=,
20180110_220000.002,0,RJFO,,,,0,20180110220000,-1,-1,-1,-1,280,-1,4,-1,-1,230,300,,9999,0,1,1,FEW 10,-1,1,-1,5,1020,RJFO 102200Z 28004KT 230V300 9999 VCSH FEW010 M01/M05 Q1020     RMK 2CU010 A3015=,VC SH
20180110_230000.003,0,RJFO,,,,0,20180110230000,-1,-1,-1,-1,290,-1,4,-1,-1,240,320,,9999,0,1,2,FEW 10   SCT 45,-1,0,-1,4,1021,RJFO 102300Z 29004KT 240V320 9999 VCSH FEW010 SCT045 M00/M04     Q1021 RMK 1CU010 3CU045 A3017=,VC SH
20180111_000000.002,0,RJFO,,,,0,20180111000000,-1,-1,-1,-1,250,-1,5,-1,-1,200,330,,9999,0,1,2,FEW 10   SCT 30,1,1,-1,4,1021,RJFO 110000Z 25005KT 200V330 9999 VCSH FEW010 SCT030 01/M04     Q1021 RMK 1CU010 3CU030 A3018=,VC SH
20180111_010000.002,0,RJFO,,,,0,20180111010000,-1,-1,-1,-1,310,-1,8,-1,-1,-1,-1,,9999,0,1,2,FEW 10   SCT 30,1,3,-1,5,1022,RJFO 110100Z 31008KT 9999 VCSH FEW010 SCT030 03/M05 Q1022 RMK     1CU010 3CU030 A3018=,VC SH
20180111_020000.002,0,RJFO,,,,0,20180111020000,-1,-1,-1,-1,290,-1,13,-1,-1,-1,-1,,9999,0,1,2,FEW 10   SCT 25,1,3,-1,5,1021,RJFO 110200Z 29013KT 9999 VCSH FEW010 SCT025 03/M05 Q1021 RMK     1CU010 3CU025 A3017=,VC SH
20180111_030000.001,0,RJFO,,,,0,20180111030000,-1,-1,-1,-1,290,-1,11,-1,22,260,320,,9999,0,1,3,FEW 10   SCT 30   BKN 70,1,3,-1,6,1021,RJFO 110300Z 29011G22KT 260V320 9999 VCSH FEW010 SCT030 BKN070     03/M06 Q1021 RMK 1CU010 3CU030 5AC070 A3016=,VC SH
20180111_040000.002,0,RJFO,,,,0,20180111040000,-1,-1,-1,-1,310,-1,12,-1,-1,280,350,,9999,0,1,3,FEW 10   SCT 30   BKN 70,1,2,-1,3,1021,RJFO 110400Z 31012KT 280V350 9999 -SHSN FEW010 SCT030 BKN070     02/M03 Q1021 RMK 1CU010 4CU030 5AC070 A3017 4000N-NE=,- SN SH
20180111_050000.002,0,RJFO,,,,0,20180111050000,-1,-1,-1,-1,310,-1,12,-1,-1,280,350,,9999,0,1,3,FEW 10   SCT 20   BKN 40,1,2,-1,5,1021,RJFO 110500Z 31012KT 280V350 9999 -SHSN FEW010 SCT020 BKN040     02/M05 Q1021 RMK 1CU010 3CU020 5CU040 A3017=,- SN SH
20180111_060000.002,0,RJFO,,,,0,20180111060000,-1,-1,-1,-1,300,-1,15,-1,-1,270,330,,9999,0,1,3,FEW 10   SCT 20   BKN 30,1,2,-1,4,1022,RJFO 110600Z 30015KT 270V330 9999 -SHSN FEW010 SCT020 BKN030     02/M04 Q1022 RMK 2CU010 4CU020 6CU030 A3018 2000NW-NE=,- SN SH
20180111_070000.002,0,RJFO,,,,0,20180111070000,-1,-1,-1,-1,300,-1,13,-1,25,270,330,,9999,0,1,3,FEW 15   SCT 30   BKN 50,1,1,-1,7,1022,RJFO 110700Z 30013G25KT 270V330 9999 -SHSN FEW015 SCT030     BKN050 01/M07 Q1022 RMK 1CU015 4CU030 6SC050 A3018=,- SN SH
20180111_080000.002,0,RJFO,,,,0,20180111080000,-1,-1,-1,-1,290,-1,9,-1,-1,260,330,,9999,0,1,3,FEW 15   SCT 40   BKN 50,1,1,-1,7,1022,RJFO 110800Z 29009KT 260V330 9999 -SHSN FEW015 SCT040 BKN050     01/M07 Q1022 RMK 1CU015 4CU040 5SC050 A3020=,- SN SH
20180111_090000.002,0,RJFO,,,,0,20180111090000,-1,-1,-1,-1,290,-1,10,-1,-1,-1,-1,,9999,0,0,2,FEW 20   SCT 45,1,0,-1,8,1023,RJFO 110900Z 29010KT 9999 FEW020 SCT045 00/M08 Q1023 RMK     1CU020 3CU045 A3021=,
20180111_100000.002,0,RJFO,,,,0,20180111100000,-1,-1,-1,-1,300,-1,7,-1,-1,-1,-1,,9999,0,0,2,FEW 20   SCT 35,-1,0,-1,8,1023,RJFO 111000Z 30007KT 9999 FEW020 SCT035 M00/M08 Q1023 RMK     1CU020 3CU035 A3021=,
20180111_110000.002,0,RJFO,,,,0,20180111110000,-1,-1,-1,-1,280,-1,6,-1,-1,-1,-1,,9999,0,0,2,FEW 20   SCT 40,-1,0,-1,8,1023,RJFO 111100Z 28006KT 9999 FEW020 SCT040 M00/M08 Q1023 RMK     1CU020 3CU040 A3023=,
20180111_120000.002,0,RJFO,,,,0,20180111120000,-1,-1,-1,-1,270,-1,6,-1,-1,-1,-1,,9999,0,0,2,FEW 20   SCT 45,-1,1,-1,8,1023,RJFO 111200Z 27006KT 9999 FEW020 SCT045 M01/M08 Q1023 RMK     1CU020 3CU045 A3023=,
20180111_130000.002,0,RJFO,,,,0,20180111130000,-1,-1,-1,-1,260,-1,5,-1,-1,-1,-1,,9999,0,0,1,FEW 45,-1,1,-1,8,1024,RJFO 111300Z 26005KT 9999 FEW045 M01/M08 Q1024 RMK 1CU045     A3025=,
20180111_220000.002,0,RJFO,,,,0,20180111220000,-1,-1,-1,-1,260,-1,5,-1,-1,200,310,,9999,0,0,1,FEW 20,-1,2,-1,6,1026,RJFO 112200Z 26005KT 200V310 9999 FEW020 M02/M06 Q1026 RMK     1CU020 A3030=,
20180111_230000.002,0,RJFO,,,,0,20180111230000,-1,-1,-1,-1,230,-1,7,-1,-1,-1,-1,,9999,0,0,2,FEW 25   SCT 50,-1,2,-1,5,1026,RJFO 112300Z 23007KT 9999 FEW025 SCT050 M02/M05 Q1026 RMK     1CU025 3SC050 A3032=,
20180112_000000.002,0,RJFO,,,,0,20180112000000,-1,-1,-1,-1,280,-1,7,-1,-1,240,310,,9999,0,1,3,FEW 10   SCT 20   BKN 40,-1,0,-1,5,1027,RJFO 120000Z 28007KT 240V310 9999 -SHSN FEW010 SCT020 BKN040     M00/M05 Q1027 RMK 1CU010 3CU020 5CU040 A3034=,- SN SH
20180112_010000.003,0,RJFO,,,,0,20180112010000,-1,-1,-1,-1,290,-1,10,-1,-1,240,320,,7000,0,1,3,FEW 10   SCT 20   BKN 30,1,0,-1,4,1027,RJFO 120100Z 29010KT 240V320 7000 -SHSN FEW010 SCT020 BKN030     00/M04 Q1027 RMK 1CU010 3CU020 5CU030 A3035=,- SN SH
20180112_020000.002,0,RJFO,,,,0,20180112020000,-1,-1,-1,-1,310,-1,9,-1,-1,-1,-1,,9999,0,0,3,FEW 5   SCT 20   BKN 30,1,1,-1,5,1027,RJFO 120200Z 31009KT 9999 FEW005 SCT020 BKN030 01/M05 Q1027     RMK 1ST005 3CU020 5CU030 A3033=,
20180112_030000.002,0,RJFO,,,,0,20180112030000,-1,-1,-1,-1,300,-1,9,-1,-1,220,340,,9999,0,0,3,FEW 4   SCT 20   BKN 35,1,3,-1,6,1026,RJFO 120300Z 30009KT 220V340 9999 FEW004 SCT020 BKN035 03/M06     Q1026 RMK 1ST004 3CU020 5CU035 A3030=,
20180112_040000.002,0,RJFO,,,,0,20180112040000,-1,-1,-1,-1,340,-1,9,-1,-1,-1,-1,,9999,0,0,3,FEW 3   SCT 35   BKN 45,1,3,-1,6,1025,RJFO 120400Z 34009KT 9999 FEW003 SCT035 BKN045 03/M06 Q1025     RMK 1ST003 3CU035 5CU045 A3028=,
20180112_050000.003,0,RJFO,,,,0,20180112050000,-1,-1,-1,-1,280,-1,9,-1,-1,230,320,,9999,0,0,3,FEW 3   SCT 35   BKN 45,1,4,-1,5,1025,RJFO 120500Z 28009KT 230V320 9999 FEW003 SCT035 BKN045 04/M05     Q1025 RMK 1ST003 4CU035 5CU045 A3028=,
20180112_060000.002,0,RJFO,,,,0,20180112060000,-1,-1,-1,-1,290,-1,10,-1,-1,250,310,,9999,0,1,3,FEW 4   SCT 35   BKN 50,1,2,-1,8,1025,RJFO 120600Z 29010KT 250V310 9999 VCSH FEW004 SCT035 BKN050     02/M08 Q1025 RMK 1ST004 3CU035 5SC050 A3029=,VC SH
20180112_070000.003,0,RJFO,,,,0,20180112070000,-1,-1,-1,-1,260,-1,6,-1,-1,230,300,,9999,0,1,3,FEW 5   SCT 40   BKN 50,1,3,-1,6,1026,RJFO 120700Z 26006KT 230V300 9999 VCSH FEW005 SCT040 BKN050     03/M06 Q1026 RMK 1ST005 3CU040 5SC050 A3030=,VC SH
20180112_080000.002,0,RJFO,,,,0,20180112080000,-1,-1,-1,-1,310,-1,7,-1,-1,280,340,,9999,0,1,2,FEW 30   BKN 40,1,2,-1,4,1026,RJFO 120800Z 31007KT 280V340 9999 VCSH FEW030 BKN040 02/M04     Q1026 RMK 1CU030 5CU040 A3031=,VC SH
20180112_090000.002,0,RJFO,,,,0,20180112090000,-1,-1,-1,-1,280,-1,4,-1,-1,250,310,,9999,0,1,2,FEW 30   SCT 45,1,1,-1,5,1027,RJFO 120900Z 28004KT 250V310 9999 VCSH FEW030 SCT045 01/M05     Q1027 RMK 1CU030 3CU045 A3034=,VC SH
20180112_100000.002,0,RJFO,,,,0,20180112100000,-1,-1,-1,-1,290,-1,3,-1,-1,-1,-1,,9999,0,0,2,FEW 30   BKN 50,1,0,-1,7,1028,RJFO 121000Z 29003KT 9999 FEW030 BKN050 00/M07 Q1028 RMK     1CU030 5SC050 A3036=,
20180112_110000.002,0,RJFO,,,,0,20180112110000,-1,-1,-1,-1,270,-1,6,-1,-1,-1,-1,,9999,0,0,2,FEW 30   SCT 50,-1,1,-1,7,1028,RJFO 121100Z 27006KT 9999 FEW030 SCT050 M01/M07 Q1028 RMK     1CU030 3SC050 A3036=,
20180112_120000.002,0,RJFO,,,,0,20180112120000,-1,-1,-1,-1,260,-1,4,-1,-1,-1,-1,,9999,0,0,2,FEW 30   SCT 50,-1,1,-1,7,1028,RJFO 121200Z 26004KT 9999 FEW030 SCT050 M01/M07 Q1028 RMK     1CU030 3SC050 A3037=,
20180112_130000.002,0,RJFO,,,,0,20180112130000,-1,-1,-1,-1,260,-1,6,-1,-1,-1,-1,,9999,0,0,1,FEW 40,-1,2,-1,6,1028,RJFO 121300Z 26006KT 9999 FEW040 M02/M06 Q1028 RMK 1CU040     A3037=,
20180112_220000.002,0,RJFO,,,,0,20180112220000,-1,-1,-1,-1,250,-1,4,-1,-1,-1,-1,,9999,0,1,3,FEW 30   SCT 40   BKN 50,1,1,-1,6,1028,RJFO 122200Z 25004KT 9999 VCSH FEW030 SCT040 BKN050 01/M06     Q1028 RMK 1CU030 4CU040 6SC050 A3037=,VC SH
20180112_230000.002,0,RJFO,,,,0,20180112230000,-1,-1,-1,-1,280,-1,8,-1,-1,210,310,,9999,0,1,3,FEW 25   SCT 35   BKN 50,1,2,-1,5,1028,RJFO 122300Z 28008KT 210V310 9999 VCSH FEW025 SCT035 BKN050     02/M05 Q1028 RMK 1CU025 4CU035 7SC050 A3038=,VC SH
20180113_000000.002,0,RJFO,,,,0,20180113000000,-1,-1,-1,-1,260,-1,5,-1,-1,220,300,,9999,0,1,3,FEW 20   SCT 30   BKN 50,1,2,-1,4,1030,RJFO 130000Z 26005KT 220V300 9999 -SHSN FEW020 SCT030 BKN050     02/M04 Q1030 RMK 1CU020 4CU030 5SC050 A3041=,- SN SH
20180113_010000.003,0,RJFO,,,,0,20180113010000,-1,-1,-1,-1,290,-1,9,-1,-1,-1,-1,,9999,0,1,2,FEW 20   SCT 30,1,3,-1,3,1030,RJFO 130100Z 29009KT 9999 -SHSN FEW020 SCT030 03/M03 Q1030 RMK     1CU020 3CU030 A3042=,- SN SH
20180113_020000.002,0,RJFO,,,,0,20180113020000,-1,-1,-1,-1,290,-1,9,-1,-1,250,330,,9999,0,0,2,FEW 15   SCT 30,1,4,-1,3,1030,RJFO 130200Z 29009KT 250V330 9999 FEW015 SCT030 04/M03 Q1030     RMK 1CU015 3CU030 A3042=,
20180113_030000.002,0,RJFO,,,,0,20180113030000,-1,-1,-1,-1,300,-1,11,-1,-1,260,330,,9999,0,0,2,FEW 20   SCT 35,1,5,-1,3,1029,RJFO 130300Z 30011KT 260V330 9999 FEW020 SCT035 05/M03 Q1029     RMK 1CU020 4CU035 A3040=,
20180113_040000.002,0,RJFO,,,,0,20180113040000,-1,-1,-1,-1,290,-1,12,-1,-1,250,340,,9999,0,0,3,FEW 20   SCT 35   BKN 50,1,6,-1,3,1028,RJFO 130400Z 29012KT 250V340 9999 FEW020 SCT035 BKN050 06/M03     Q1028 RMK 1CU020 4CU035 5SC050 A3038=,
20180113_050000.002,0,RJFO,,,,0,20180113050000,-1,-1,-1,-1,290,-1,12,-1,-1,-1,-1,,9999,0,0,3,FEW 15   SCT 35   BKN 50,1,5,-1,2,1028,RJFO 130500Z 29012KT 9999 FEW015 SCT035 BKN050 05/M02 Q1028     RMK 1CU015 4CU035 5SC050 A3036=,
20180113_060000.002,0,RJFO,,,,0,20180113060000,-1,-1,-1,-1,300,-1,11,-1,-1,260,330,,9999,0,1,3,FEW 15   SCT 30   BKN 50,1,5,-1,1,1028,RJFO 130600Z 30011KT 260V330 9999 -SHRA FEW015 SCT030 BKN050     05/M01 Q1028 RMK 1CU015 3CU030 6SC050 A3038=,- RA SH
20180113_070000.002,0,RJFO,,,,0,20180113070000,-1,-1,-1,-1,290,-1,10,-1,-1,-1,-1,,9999,0,0,3,FEW 25   SCT 35   BKN 50,1,4,-1,1,1029,RJFO 130700Z 29010KT 9999 FEW025 SCT035 BKN050 04/M01 Q1029     RMK 1CU025 3CU035 5SC050 A3041=,
20180113_080000.002,0,RJFO,,,,0,20180113080000,-1,-1,-1,-1,270,-1,7,-1,-1,-1,-1,,9999,0,1,3,FEW 20   SCT 30   BKN 45,1,3,1,1,1029,RJFO 130800Z 27007KT 9999 -SHRA FEW020 SCT030 BKN045 03/01     Q1029 RMK 1CU020 3CU030 5CU045 A3041=,- RA SH
20180113_090000.002,0,RJFO,,,,0,20180113090000,-1,-1,-1,-1,280,-1,7,-1,-1,-1,-1,,9999,0,1,3,FEW 20   SCT 30   BKN 45,1,2,1,0,1030,RJFO 130900Z 28007KT 9999 -SHRA FEW020 SCT030 BKN045 02/00     Q1030 RMK 1CU020 3CU030 5CU045 A3042=,- RA SH
20180113_100000.002,0,RJFO,,,,0,20180113100000,-1,-1,-1,-1,270,-1,7,-1,-1,-1,-1,,9999,0,1,3,FEW 25   SCT 35   BKN 45,1,3,1,0,1030,RJFO 131000Z 27007KT 9999 -SHRA FEW025 SCT035 BKN045 03/00     Q1030 RMK 1CU025 3CU035 6CU045 A3044=,- RA SH
20180113_110000.002,0,RJFO,,,,0,20180113110000,-1,-1,-1,-1,260,-1,6,-1,-1,-1,-1,,9999,0,0,3,FEW 30   SCT 40   BKN 60,1,3,1,0,1031,RJFO 131100Z 26006KT 9999 FEW030 SCT040 BKN060 03/00 Q1031 RMK     1CU030 3CU040 6SC060 A3046=,
20180113_120000.002,0,RJFO,,,,0,20180113120000,-1,-1,-1,-1,250,-1,4,-1,-1,-1,-1,,9999,0,0,2,FEW 40   BKN 60,1,3,1,0,1031,RJFO 131200Z 25004KT 9999 FEW040 BKN060 03/00 Q1031 RMK 1CU040     7SC060 A3046=,
20180113_130000.002,0,RJFO,,,,0,20180113130000,-1,-1,-1,-1,280,-1,5,-1,-1,-1,-1,,9999,0,1,3,FEW 30   SCT 40   BKN 60,1,3,1,0,1031,RJFO 131300Z 28005KT 9999 -SHRA FEW030 SCT040 BKN060 03/00     Q1031 RMK 1CU030 4CU040 7SC060 A3045=,- RA SH
20180113_220000.002,0,RJFO,,,,0,20180113220000,-1,-1,-1,-1,270,-1,5,-1,-1,-1,-1,,9999,0,0,2,FEW 30   BKN 50,1,4,-1,1,1031,RJFO 132200Z 27005KT 9999 FEW030 BKN050 04/M01 Q1031 RMK     1CU030 6SC050 A3046=,
20180113_230000.002,0,RJFO,,,,0,20180113230000,-1,-1,-1,-1,280,-1,5,-1,-1,-1,-1,,9999,0,0,3,FEW 30   SCT 50   BKN -9999,1,3,-1,1,1031,RJFO 132300Z 28005KT 9999 FEW030 SCT050 BKN/// 03/M01 Q1031     RMK 1CU030 4SC050 A3047=,
20180114_000000.003,0,RJFO,,,,0,20180114000000,-1,-1,-1,-1,280,-1,5,-1,-1,-1,-1,,9999,0,0,2,FEW 25   BKN 45,1,4,-1,0,1033,RJFO 140000Z 28005KT 9999 FEW025 BKN045 04/M00 Q1033 RMK     1CU025 6CU045 A3051=,
20180114_010000.002,0,RJFO,,,,0,20180114010000,-1,-1,-1,-1,350,-1,4,-1,-1,-1,-1,,9999,0,0,2,FEW 20   BKN 45,1,5,-1,0,1033,RJFO 140100Z 35004KT 9999 FEW020 BKN045 05/M00 Q1033 RMK     1CU020 6CU045 A3051=,
20180114_020000.002,0,RJFO,,,,0,20180114020000,-1,-1,-1,-1,20,-1,6,-1,-1,-1,-1,,9999,0,0,2,FEW 25   BKN 45,1,7,-1,2,1032,RJFO 140200Z 02006KT 9999 FEW025 BKN045 07/M02 Q1032 RMK     1CU025 6CU045 A3049=,
20180114_030000.002,0,RJFO,,,,0,20180114030000,-1,-1,-1,-1,40,-1,6,-1,-1,-1,-1,,9999,0,0,3,FEW 25   BKN 40   BKN -9999,1,7,-1,3,1030,RJFO 140300Z 04006KT 9999 FEW025 BKN040 BKN/// 07/M03 Q1030     RMK 1CU025 5CU040 A3043 P/FR=,
20180114_040000.002,0,RJFO,,,,0,20180114040000,-1,-1,-1,-1,60,-1,5,-1,-1,-1,-1,,9999,0,0,3,FEW 30   SCT 40   BKN -9999,1,7,-1,0,1029,RJFO 140400Z 06005KT 9999 FEW030 SCT040 BKN/// 07/M00 Q1029     RMK 1CU030 3CU040 A3041=,
20180114_050000.002,0,RJFO,,,,0,20180114050000,-1,-1,-1,-1,60,-1,6,-1,-1,-1,-1,,9999,0,0,3,FEW 30   BKN 35   BKN -9999,1,7,-1,1,1029,RJFO 140500Z 06006KT 9999 FEW030 BKN035 BKN/// 07/M01 Q1029     RMK 1CU030 6CU035 A3039=,
20180114_060000.003,0,RJFO,,,,0,20180114060000,-1,-1,-1,-1,40,-1,4,-1,-1,10,70,,9999,0,0,3,FEW 30   BKN 40   BKN -9999,1,7,-1,1,1028,RJFO 140600Z 04004KT 010V070 9999 FEW030 BKN040 BKN/// 07/M01     Q1028 RMK 1CU030 6CU040 A3038=,
20180114_070000.002,0,RJFO,,,,0,20180114070000,-1,-1,-1,-1,70,-1,3,-1,-1,30,100,,9999,0,0,3,FEW 30   SCT 40   BKN -9999,1,6,-1,2,1028,RJFO 140700Z 07003KT 030V100 9999 FEW030 SCT040 BKN/// 06/M02     Q1028 RMK 1CU030 4CU040 A3037=,
20180114_080000.002,0,RJFO,,,,0,20180114080000,-1,-1,-1,-1,20,-1,4,-1,-1,-1,-1,,9999,0,0,2,FEW 40   BKN -9999,1,6,-1,1,1028,RJFO 140800Z 02004KT 9999 FEW040 BKN/// 06/M01 Q1028 RMK     1CU040 A3038=,
20180114_090000.002,0,RJFO,,,,0,20180114090000,-1,-1,-1,-1,350,-1,3,-1,-1,-1,-1,,9999,0,0,2,FEW 40   BKN -9999,1,5,-1,1,1029,RJFO 140900Z 35003KT 9999 FEW040 BKN/// 05/M01 Q1029 RMK     1CU040 A3039=,
20180114_100000.002,0,RJFO,,,,0,20180114100000,-1,-1,-1,-1,270,-1,3,-1,-1,-1,-1,,9999,0,0,2,FEW 30   BKN -9999,1,4,-1,1,1029,RJFO 141000Z 27003KT 9999 FEW030 BKN/// 04/M01 Q1029 RMK     1CU030 A3039=,
20180114_110000.002,0,RJFO,,,,0,20180114110000,-1,-1,-1,-1,260,-1,4,-1,-1,-1,-1,CAVOK,-1,0,0,0,,1,2,-1,1,1029,RJFO 141100Z 26004KT CAVOK 02/M01 Q1029 RMK A3041=,
20180114_120000.002,0,RJFO,,,,0,20180114120000,-1,-1,-1,-1,250,-1,3,-1,-1,-1,-1,CAVOK,-1,0,0,0,,1,2,-1,1,1029,RJFO 141200Z 25003KT CAVOK 02/M01 Q1029 RMK A3041=,
20180114_130000.003,0,RJFO,,,,0,20180114130000,-1,-1,-1,-1,260,-1,4,-1,-1,-1,-1,CAVOK,-1,0,0,0,,1,1,-1,1,1029,RJFO 141300Z 26004KT CAVOK 01/M01 Q1029 RMK A3040=,
20180114_220000.002,0,RJFO,,,,0,20180114220000,-1,-1,-1,-1,250,-1,3,-1,-1,220,290,,9999,0,0,1,FEW 30,-1,0,-1,0,1026,RJFO 142200Z 25003KT 220V290 9999 FEW030 M00/M00 Q1026 RMK     1CU030 A3032=,
20180114_230000.002,0,RJFO,,,,0,20180114230000,-1,-1,-1,-1,250,-1,4,-1,-1,-1,-1,,9999,0,0,3,FEW 30   SCT 50   BKN 70,1,1,-1,0,1027,RJFO 142300Z 25004KT 9999 FEW030 SCT050 BKN070 01/M00 Q1027     RMK 1CU030 3SC050 5AC070 A3033=,
20180115_000000.002,0,RJFO,,,,0,20180115000000,-1,-1,-1,-1,250,-1,3,-1,-1,-1,-1,,9999,0,0,2,FEW 30   BKN 70,1,6,1,2,1027,RJFO 150000Z 25003KT 9999 FEW030 BKN070 06/02 Q1027 RMK 1CU030     6AC070 A3033=,
20180115_010000.002,0,RJFO,,,,0,20180115010000,-1,-1,-1,-1,240,-1,4,-1,-1,-1,-1,,9999,0,0,2,FEW 25   BKN 80,1,7,1,3,1027,RJFO 150100Z 24004KT 9999 FEW025 BKN080 07/03 Q1027 RMK 1CU025     6AC080 A3034=,
20180115_020000.002,0,RJFO,,,,0,20180115020000,-1,-1,-1,-1,250,-1,2,-1,-1,-1,-1,,9999,0,0,3,FEW 25   SCT 60   BKN 90,1,8,1,4,1026,RJFO 150200Z 25002KT 9999 FEW025 SCT060 BKN090 08/04 Q1026 RMK     1CU025 4SC060 6AC090 A3032=,
20180115_030000.002,0,RJFO,,,,0,20180115030000,-1,-1,-1,-1,999,-1,2,-1,-1,-1,-1,,9999,0,0,3,FEW 25   SCT 50   BKN 70,1,9,1,6,1025,RJFO 150300Z VRB02KT 9999 FEW025 SCT050 BKN070 09/06 Q1025 RMK     1CU025 4SC050 5AC070 A3029=,
20180115_040000.002,0,RJFO,,,,0,20180115040000,-1,-1,-1,-1,250,-1,2,-1,-1,-1,-1,,9999,0,0,2,FEW 30   BKN 50,1,10,1,7,1024,RJFO 150400Z 25002KT 9999 FEW030 BKN050 10/07 Q1024 RMK 1CU030     7SC050 A3024=,
20180115_050000.002,0,RJFO,,,,0,20180115050000,-1,-1,-1,-1,999,-1,1,-1,-1,-1,-1,,9999,0,0,2,FEW 20   BKN 50,1,10,1,7,1023,RJFO 150500Z VRB01KT 9999 FEW020 BKN050 10/07 Q1023 RMK 1CU020     7SC050 A3022=,
20180115_060000.002,0,RJFO,,,,0,20180115060000,-1,-1,-1,-1,999,-1,1,-1,-1,-1,-1,,9999,0,0,3,FEW 20   SCT 40   BKN 50,1,11,1,8,1023,RJFO 150600Z VRB01KT 9999 FEW020 SCT040 BKN050 11/08 Q1023 RMK     1CU020 3CU040 6SC050 A3022=,
20180115_070000.003,0,RJFO,,,,0,20180115070000,-1,-1,-1,-1,20,-1,7,-1,-1,-1,-1,,9999,0,0,3,FEW 20   SCT 40   BKN 60,1,10,1,8,1023,RJFO 150700Z 02007KT 9999 FEW020 SCT040 BKN060 10/08 Q1023 RMK     1CU020 3CU040 6SC060 A3023=,
20180115_080000.002,0,RJFO,,,,0,20180115080000,-1,-1,-1,-1,350,-1,4,-1,-1,-1,-1,,9999,0,0,3,FEW 20   SCT 40   BKN 50,1,9,1,8,1024,RJFO 150800Z 35004KT 9999 FEW020 SCT040 BKN050 09/08 Q1024 RMK     1CU020 3CU040 7SC050 A3026=,
20180115_090000.002,0,RJFO,,,,0,20180115090000,-1,-1,-1,-1,360,-1,4,-1,-1,-1,-1,,9999,0,0,2,FEW 20   BKN 40,1,9,1,8,1024,RJFO 150900Z 36004KT 9999 FEW020 BKN040 09/08 Q1024 RMK 1CU020     7CU040 A3026=,
20180115_100000.002,0,RJFO,,,,0,20180115100000,-1,-1,-1,-1,250,-1,3,-1,-1,-1,-1,,9999,0,0,3,FEW 30   SCT 40   BKN 50,1,8,1,7,1024,RJFO 151000Z 25003KT 9999 FEW030 SCT040 BKN050 08/07 Q1024 RMK     1CU030 3CU040 6SC050 A3026=,
20180115_110000.002,0,RJFO,,,,0,20180115110000,-1,-1,-1,-1,999,-1,2,-1,-1,-1,-1,,9999,0,0,1,FEW 50,1,8,1,7,1024,RJFO 151100Z VRB02KT 9999 FEW050 08/07 Q1024 RMK 2SC050 A3024=,
20180115_120000.002,0,RJFO,,,,0,20180115120000,-1,-1,-1,-1,260,-1,3,-1,-1,210,300,,9999,0,0,1,FEW 10,1,7,1,7,1024,RJFO 151200Z 26003KT 210V300 9999 FEW010 07/07 Q1024 RMK     2CU010 A3026=,
20180115_130000.002,0,RJFO,,,,0,20180115130000,-1,-1,-1,-1,260,-1,3,-1,-1,240,310,CAVOK,-1,0,0,0,,1,6,1,6,1024,RJFO 151300Z 26003KT 240V310 CAVOK 06/06 Q1024 RMK A3026=,
20180115_220000.002,0,RJFO,,,,0,20180115220000,-1,-1,-1,-1,250,-1,5,-1,-1,-1,-1,,9999,0,0,1,FEW 30,1,4,1,4,1022,RJFO 152200Z 25005KT 9999 FEW030 04/04 Q1022 RMK 1CU030 A3019=,
20180115_230000.002,0,RJFO,,,,0,20180115230000,-1,-1,-1,-1,240,-1,3,-1,-1,-1,-1,,9999,0,0,1,FEW 60,1,5,1,5,1022,RJFO 152300Z 24003KT 9999 FEW060 05/05 Q1022 RMK 2SC060 A3019=,
20180116_000000.002,0,RJFO,,,,0,20180116000000,-1,-1,-1,-1,250,-1,4,-1,-1,-1,-1,,9999,0,0,1,FEW 60,1,8,1,7,1022,RJFO 160000Z 25004KT 9999 FEW060 08/07 Q1022 RMK 1SC060 A3019=,
20180116_010000.002,0,RJFO,,,,0,20180116010000,-1,-1,-1,-1,220,-1,4,-1,-1,-1,-1,,9999,0,0,1,FEW 35,1,12,1,9,1021,RJFO 160100Z 22004KT 9999 FEW035 12/09 Q1021 RMK 1CU035 A3017=,
20180116_020000.002,0,RJFO,,,,0,20180116020000,-1,-1,-1,-1,220,-1,3,-1,-1,170,260,,9999,0,0,2,FEW 25   BKN 110,1,12,1,9,1021,RJFO 160200Z 22003KT 170V260 9999 FEW025 BKN110 12/09 Q1021     RMK 1CU025 6AC110 A3016=,
20180116_030000.002,0,RJFO,,,,0,20180116030000,-1,-1,-1,-1,30,-1,4,-1,-1,360,70,,9999,0,0,2,FEW 25   BKN 110,1,13,1,10,1020,RJFO 160300Z 03004KT 360V070 9999 FEW025 BKN110 13/10 Q1020     RMK 1CU025 6AC110 A3012=,
20180116_040000.002,0,RJFO,,,,0,20180116040000,-1,-1,-1,-1,20,-1,8,-1,-1,-1,-1,,9999,0,0,2,FEW 30   SCT -9999,1,13,1,10,1018,RJFO 160400Z 02008KT 9999 FEW030 SCT/// 13/10 Q1018 RMK 1CU030     A3008=,
20180116_050000.002,0,RJFO,,,,0,20180116050000,-1,-1,-1,-1,360,-1,11,-1,-1,-1,-1,,9999,0,0,2,FEW 30   SCT -9999,1,13,1,11,1017,RJFO 160500Z 36011KT 9999 FEW030 SCT/// 13/11 Q1017 RMK 1CU030     A3003=,
20180116_060000.002,0,RJFO,,,,0,20180116060000,-1,-1,-1,-1,360,-1,8,-1,-1,-1,-1,,9999,0,0,2,FEW 30   BKN 60,1,14,1,11,1016,RJFO 160600Z 36008KT 9999 FEW030 BKN060 14/11 Q1016 RMK 1CU030     6SC060 A3001=,
20180116_070000.002,0,RJFO,,,,0,20180116070000,-1,-1,-1,-1,180,-1,4,-1,-1,140,220,,9999,0,0,2,FEW 25   SCT 60,1,16,1,11,1015,RJFO 160700Z 18004KT 140V220 9999 FEW025 SCT060 16/11 Q1015     RMK 1CU025 3SC060 A2999=,
20180116_080000.002,0,RJFO,,,,0,20180116080000,-1,-1,-1,-1,200,-1,6,-1,-1,-1,-1,,9999,0,0,2,FEW 25   SCT 70,1,15,1,10,1015,RJFO 160800Z 20006KT 9999 FEW025 SCT070 15/10 Q1015 RMK 1CU025     3AC070 A2997=,
20180116_090000.002,0,RJFO,,,,0,20180116090000,-1,-1,-1,-1,150,-1,3,-1,-1,100,240,,9999,0,0,3,FEW 25   SCT 60   BKN 120,1,13,1,11,1014,RJFO 160900Z 15003KT 100V240 9999 FEW025 SCT060 BKN120 13/11     Q1014 RMK 1CU025 3SC060 7AC120 A2996=,
20180116_100000.002,0,RJFO,,,,0,20180116100000,-1,-1,-1,-1,200,-1,3,-1,-1,170,230,,9999,0,0,3,FEW 25   BKN 90   BKN 120,1,14,1,10,1014,RJFO 161000Z 20003KT 170V230 9999 FEW025 BKN090 BKN120 14/10     Q1014 RMK 1CU025 5AC090 7AC120 A2997=,
20180116_110000.004,0,RJFO,,,,0,20180116110000,-1,-1,-1,-1,190,-1,7,-1,-1,-1,-1,,9999,0,1,3,FEW 25   BKN 60   BKN 90,1,13,1,11,1015,RJFO 161100Z 19007KT 9999 -RA FEW025 BKN060 BKN090 13/11 Q1015     RMK 1CU025 6SC060 7AC090 A2998=,- RA
20180116_120000.002,0,RJFO,,,,0,20180116120000,-1,-1,-1,-1,250,-1,3,-1,-1,200,280,,9999,0,0,3,FEW 25   SCT 70   BKN 100,1,14,1,11,1014,RJFO 161200Z 25003KT 200V280 9999 FEW025 SCT070 BKN100 14/11     Q1014 RMK 1CU025 4AC070 7AC100 A2996=,
20180116_130000.002,0,RJFO,,,,0,20180116130000,-1,-1,-1,-1,220,-1,3,-1,-1,-1,-1,,9999,0,1,3,FEW 30   SCT 60   BKN 80,1,13,1,11,1014,RJFO 161300Z 22003KT 9999 -RA FEW030 SCT060 BKN080 13/11 Q1014     RMK 1CU030 3SC060 7AC080 A2995=,- RA
20180116_220000.002,0,RJFO,,,,0,20180116220000,-1,-1,-1,-1,999,-1,1,-1,-1,-1,-1,,4000,0,2,3,FEW 30   SCT 45   BKN 50,1,11,1,11,1011,RJFO 162200Z VRB01KT 4000 -RA BR FEW030 SCT045 BKN050 11/11     Q1011 RMK 1CU030 3CU045 6SC050 A2986=,- RA; BR
20180116_230000.002,0,RJFO,,,,0,20180116230000,-1,-1,-1,-1,220,-1,2,-1,-1,-1,-1,,9999,0,1,3,FEW 30   SCT 50   BKN 80,1,11,1,11,1010,RJFO 162300Z 22002KT 9999 -RA FEW030 SCT050 BKN080 11/11 Q1010     RMK 1CU030 3SC050 6AC080 A2984=,- RA
20180117_000000.002,0,RJFO,,,,0,20180117000000,-1,-1,-1,-1,240,-1,3,-1,-1,190,270,,9999,0,0,3,FEW 8   SCT 50   BKN 80,1,12,1,12,1011,RJFO 170000Z 24003KT 190V270 9999 FEW008 SCT050 BKN080 12/12     Q1011 RMK 1ST008 3SC050 6AC080 A2986=,
20180117_010000.002,0,RJFO,,,,0,20180117010000,-1,-1,-1,-1,220,-1,2,-1,-1,-1,-1,,9999,0,0,3,FEW 10   SCT 40   BKN 80,1,14,1,13,1011,RJFO 170100Z 22002KT 9999 FEW010 SCT040 BKN080 14/13 Q1011 RMK     1ST010 4CU040 6AC080 A2986=,
20180117_020000.004,0,RJFO,,,,0,20180117020000,-1,-1,-1,-1,999,-1,1,-1,-1,-1,-1,,9999,0,0,3,FEW 15   SCT 40   BKN 80,1,14,1,13,1011,RJFO 170200Z VRB01KT 9999 FEW015 SCT040 BKN080 14/13 Q1011 RMK     1CU015 3CU040 6AC080 A2985=,
20180117_030000.002,0,RJFO,,,,0,20180117030000,-1,-1,-1,-1,999,-1,2,-1,-1,-1,-1,,9999,0,0,3,FEW 5   SCT 25   BKN 80,1,15,1,13,1010,RJFO 170300Z VRB02KT 9999 FEW005 SCT025 BKN080 15/13 Q1010 RMK     1ST005 3CU025 6AC080 A2984=,
20180117_040000.003,0,RJFO,,,,0,20180117040000,-1,-1,-1,-1,60,-1,5,-1,-1,10,90,,9999,0,0,3,FEW 3   SCT 35   BKN 70,1,14,1,12,1009,RJFO 170400Z 06005KT 010V090 9999 FEW003 SCT035 BKN070 14/12     Q1009 RMK 1ST003 3CU035 6AC070 A2982=,
20180117_050000.003,0,RJFO,,,,0,20180117050000,-1,-1,-1,-1,30,-1,6,-1,-1,-1,-1,,9999,0,1,3,FEW 3   SCT 35   BKN 45,1,13,1,12,1009,RJFO 170500Z 03006KT 9999 VCSH FEW003 SCT035 BKN045 13/12     Q1009 RMK 1ST003 4CU035 7CU045 A2982=,VC SH
20180117_060000.002,0,RJFO,,,,0,20180117060000,-1,-1,-1,-1,310,-1,12,-1,-1,-1,-1,,9999,0,1,3,FEW 5   SCT 20   BKN 60,1,13,1,12,1011,RJFO 170600Z 31012KT 9999 -SHRA FEW005 SCT020 BKN060 13/12     Q1011 RMK 1ST005 4CU020 7SC060 A2986=,- RA SH
20180117_070000.002,0,RJFO,,,,0,20180117070000,-1,-1,-1,-1,320,-1,12,-1,-1,280,350,,9999,0,0,2,FEW 9   SCT 60,1,13,1,11,1012,RJFO 170700Z 32012KT 280V350 9999 FEW009 SCT060 13/11 Q1012     RMK 1ST009 3SC060 A2990=,
20180117_080000.002,0,RJFO,,,,0,20180117080000,-1,-1,-1,-1,310,-1,8,-1,-1,-1,-1,,9999,0,0,3,FEW 10   SCT 20   BKN 40,1,12,1,9,1013,RJFO 170800Z 31008KT 9999 FEW010 SCT020 BKN040 12/09 Q1013 RMK     1CU010 4CU020 6CU040 A2993=,
20180117_090000.003,0,RJFO,,,,0,20180117090000,-1,-1,-1,-1,310,-1,5,-1,-1,280,350,,9999,0,0,3,FEW 10   BKN 20   BKN 30,1,12,1,9,1015,RJFO 170900Z 31005KT 280V350 9999 FEW010 BKN020 BKN030 12/09     Q1015 RMK 1CU010 5CU020 7CU030 A2997=,
20180117_100000.002,0,RJFO,,,,0,20180117100000,-1,-1,-1,-1,280,-1,4,-1,-1,240,310,,9999,0,0,3,FEW 15   SCT 25   BKN 50,1,12,1,8,1016,RJFO 171000Z 28004KT 240V310 9999 FEW015 SCT025 BKN050 12/08     Q1016 RMK 1CU015 4CU025 6SC050 A3001=,
20180117_110000.003,0,RJFO,,,,0,20180117110000,-1,-1,-1,-1,250,-1,6,-1,-1,200,300,,9999,0,0,2,FEW 25   BKN 50,1,11,1,8,1017,RJFO 171100Z 25006KT 200V300 9999 FEW025 BKN050 11/08 Q1017     RMK 1CU025 5SC050 A3003=,
20180117_120000.003,0,RJFO,,,,0,20180117120000,-1,-1,-1,-1,280,-1,7,-1,-1,-1,-1,,9999,0,0,1,FEW 30,1,10,1,8,1017,RJFO 171200Z 28007KT 9999 FEW030 10/08 Q1017 RMK 1CU030 A3005=,
20180117_130000.002,0,RJFO,,,,0,20180117130000,-1,-1,-1,-1,270,-1,5,-1,-1,-1,-1,,9999,0,0,1,FEW 30,1,10,1,7,1019,RJFO 171300Z 27005KT 9999 FEW030 10/07 Q1019 RMK 1CU030 A3009=,
20180117_220000.003,0,RJFO,,,,0,20180117220000,-1,-1,-1,-1,250,-1,6,-1,-1,-1,-1,,9999,0,0,2,FEW 20   SCT 40,1,6,1,6,1019,RJFO 172200Z 25006KT 9999 FEW020 SCT040 06/06 Q1019 RMK 1CU020     3CU040 A3010=,
20180117_230000.002,0,RJFO,,,,0,20180117230000,-1,-1,-1,-1,250,-1,7,-1,-1,-1,-1,,9999,0,0,2,FEW 15   BKN 45,1,7,1,6,1019,RJFO 172300Z 25007KT 9999 FEW015 BKN045 07/06 Q1019 RMK 1CU015     6CU045 A3011=,
20180118_000000.002,0,RJFO,,,,0,20180118000000,-1,-1,-1,-1,250,-1,5,-1,-1,-1,-1,,9999,0,0,2,FEW 9   BKN 45,1,9,1,7,1020,RJFO 180000Z 25005KT 9999 FEW009 BKN045 09/07 Q1020 RMK 1ST009     7CU045 A3013=,
20180118_010000.002,0,RJFO,,,,0,20180118010000,-1,-1,-1,-1,240,-1,4,-1,-1,200,260,,9999,0,0,2,FEW 9   BKN 50,1,10,1,7,1020,RJFO 180100Z 24004KT 200V260 9999 FEW009 BKN050 10/07 Q1020     RMK 1ST009 7SC050 A3014=,
20180118_020000.002,0,RJFO,,,,0,20180118020000,-1,-1,-1,-1,60,-1,4,-1,-1,20,100,,9999,0,0,2,FEW 15   BKN 45,1,11,1,8,1020,RJFO 180200Z 06004KT 020V100 9999 FEW015 BKN045 11/08 Q1020     RMK 1CU015 6CU045 A3013=,
20180118_030000.003,0,RJFO,,,,0,20180118030000,-1,-1,-1,-1,10,-1,10,-1,-1,-1,-1,,9999,0,0,3,FEW 15   BKN 25   BKN 45,1,10,1,8,1020,RJFO 180300Z 01010KT 9999 FEW015 BKN025 BKN045 10/08 Q1020 RMK     1CU015 5CU025 7CU045 A3013=,
20180118_040000.002,0,RJFO,,,,0,20180118040000,-1,-1,-1,-1,300,-1,8,-1,-1,270,340,,9999,0,0,3,FEW 15   SCT 30   BKN 50,1,13,1,7,1019,RJFO 180400Z 30008KT 270V340 9999 FEW015 SCT030 BKN050 13/07     Q1019 RMK 1CU015 3CU030 6SC050 A3010=,
20180118_050000.002,0,RJFO,,,,0,20180118050000,-1,-1,-1,-1,300,-1,10,-1,-1,260,350,,9999,0,0,2,FEW 30   BKN 40,1,14,1,6,1018,RJFO 180500Z 30010KT 260V350 9999 FEW030 BKN040 14/06 Q1018     RMK 1CU030 5CU040 A3009=,
20180118_060000.002,0,RJFO,,,,0,20180118060000,-1,-1,-1,-1,290,-1,8,-1,-1,-1,-1,,9999,0,0,2,FEW 30   SCT 40,1,14,1,6,1018,RJFO 180600Z 29008KT 9999 FEW030 SCT040 14/06 Q1018 RMK 1CU030     3CU040 A3008=,
20180118_070000.002,0,RJFO,,,,0,20180118070000,-1,-1,-1,-1,310,-1,10,-1,-1,280,340,,9999,0,0,1,FEW 40,1,13,1,5,1019,RJFO 180700Z 31010KT 280V340 9999 FEW040 13/05 Q1019 RMK     1CU040 A3009=,
20180118_080000.002,0,RJFO,,,,0,20180118080000,-1,-1,-1,-1,310,-1,6,-1,-1,280,350,,9999,0,0,1,FEW 40,1,11,1,4,1019,RJFO 180800Z 31006KT 280V350 9999 FEW040 11/04 Q1019 RMK     1CU040 A3011=,
20180118_090000.002,0,RJFO,,,,0,20180118090000,-1,-1,-1,-1,280,-1,7,-1,-1,-1,-1,,9999,0,0,1,FEW 50,1,10,1,5,1020,RJFO 180900Z 28007KT 9999 FEW050 10/05 Q1020 RMK 1SC050 A3012=,
20180118_100000.002,0,RJFO,,,,0,20180118100000,-1,-1,-1,-1,320,-1,8,-1,-1,-1,-1,,9999,0,0,1,FEW 50,1,9,1,4,1020,RJFO 181000Z 32008KT 9999 FEW050 09/04 Q1020 RMK 1SC050 A3014=,
20180118_110000.002,0,RJFO,,,,0,20180118110000,-1,-1,-1,-1,320,-1,6,-1,-1,-1,-1,,9999,0,0,2,FEW 30   SCT 50,1,8,1,4,1021,RJFO 181100Z 32006KT 9999 FEW030 SCT050 08/04 Q1021 RMK 1CU030     3SC050 A3015=,
20180118_120000.002,0,RJFO,,,,0,20180118120000,-1,-1,-1,-1,300,-1,4,-1,-1,270,330,,9999,0,0,2,FEW 30   SCT 50,1,9,1,4,1021,RJFO 181200Z 30004KT 270V330 9999 FEW030 SCT050 09/04 Q1021     RMK 1CU030 3SC050 A3016=,
20180118_130000.002,0,RJFO,,,,0,20180118130000,-1,-1,-1,-1,300,-1,5,-1,-1,-1,-1,,9999,0,0,2,FEW 30   SCT 40,1,8,1,4,1021,RJFO 181300Z 30005KT 9999 FEW030 SCT040 08/04 Q1021 RMK 1CU030     3CU040 A3016=,
20180118_220000.002,0,RJFO,,,,0,20180118220000,-1,-1,-1,-1,270,-1,5,-1,-1,-1,-1,,4000,0,1,1,FEW 40,1,4,1,3,1021,RJFO 182200Z 27005KT 4000 BR FEW040 04/03 Q1021 RMK 1CU040     A3016=,BR
20180118_230000.003,0,RJFO,,,,0,20180118230000,-1,-1,-1,-1,250,-1,3,-1,-1,220,290,,4000,0,1,1,FEW 40,1,4,1,3,1021,RJFO 182300Z 25003KT 220V290 4000 BR FEW040 04/03 Q1021 RMK     1CU040 A3017=,BR
20180119_000000.002,0,RJFO,,,,0,20180119000000,-1,-1,-1,-1,999,-1,2,-1,-1,-1,-1,,5000,0,1,1,FEW 40,1,8,1,5,1021,RJFO 190000Z VRB02KT 5000 BR FEW040 08/05 Q1021 RMK 1CU040     A3017=,BR
20180119_010000.003,0,RJFO,,,,0,20180119010000,-1,-1,-1,-1,999,-1,2,-1,-1,-1,-1,,8000,0,0,1,FEW 35,1,10,1,4,1021,RJFO 190100Z VRB02KT 8000 FEW035 10/04 Q1021 RMK 1CU035 A3016=,
20180119_020000.002,0,RJFO,,,,0,20180119020000,-1,-1,-1,-1,40,-1,6,-1,-1,-1,-1,,9000,0,0,1,FEW 35,1,11,1,5,1021,RJFO 190200Z 04006KT 9000 FEW035 11/05 Q1021 RMK 1CU035 A3016=,
20180119_030000.002,0,RJFO,,,,0,20180119030000,-1,-1,-1,-1,20,-1,13,-1,-1,-1,-1,,8000,0,0,2,FEW 35   SCT 45,1,11,1,5,1020,RJFO 190300Z 02013KT 8000 FEW035 SCT045 11/05 Q1020 RMK 1CU035     3CU045 A3014=,
20180119_040000.002,0,RJFO,,,,0,20180119040000,-1,-1,-1,-1,30,-1,10,-1,-1,-1,-1,,9000,0,0,2,FEW 35   SCT 45,1,11,1,5,1019,RJFO 190400Z 03010KT 9000 FEW035 SCT045 11/05 Q1019 RMK 1CU035     3CU045 A3010=,
20180119_050000.003,0,RJFO,,,,0,20180119050000,-1,-1,-1,-1,50,-1,8,-1,-1,-1,-1,,8000,0,0,1,FEW 50,1,11,1,5,1018,RJFO 190500Z 05008KT 8000 FEW050 11/05 Q1018 RMK 2SC050 A3007=,
20180119_060000.002,0,RJFO,,,,0,20180119060000,-1,-1,-1,-1,30,-1,6,-1,-1,-1,-1,,9000,0,0,2,FEW 35   BKN 50,1,11,1,3,1018,RJFO 190600Z 03006KT 9000 FEW035 BKN050 11/03 Q1018 RMK 1CU035     5SC050 A3008=,
20180119_070000.002,0,RJFO,,,,0,20180119070000,-1,-1,-1,-1,350,-1,5,-1,-1,290,30,,8000,0,0,2,FEW 40   SCT 50,1,13,1,2,1018,RJFO 190700Z 35005KT 290V030 8000 FEW040 SCT050 13/02 Q1018     RMK 1CU040 4SC050 A3007=,
20180119_080000.002,0,RJFO,,,,0,20180119080000,-1,-1,-1,-1,350,-1,9,-1,-1,-1,-1,,9000,0,0,2,FEW 40   SCT 50,1,11,1,2,1018,RJFO 190800Z 35009KT 9000 FEW040 SCT050 11/02 Q1018 RMK 1CU040     4SC050 A3007=,
20180119_090000.003,0,RJFO,,,,0,20180119090000,-1,-1,-1,-1,290,-1,5,-1,-1,230,330,,8000,0,0,2,FEW 40   SCT 60,1,9,1,2,1018,RJFO 190900Z 29005KT 230V330 8000 FEW040 SCT060 09/02 Q1018     RMK 1CU040 4SC060 A3008=,
20180119_100000.002,0,RJFO,,,,0,20180119100000,-1,-1,-1,-1,270,-1,4,-1,-1,-1,-1,,8000,0,0,1,FEW 50,1,8,1,2,1018,RJFO 191000Z 27004KT 8000 FEW050 08/02 Q1018 RMK 2SC050 A3008=,
20180119_110000.002,0,RJFO,,,,0,20180119110000,-1,-1,-1,-1,270,-1,4,-1,-1,-1,-1,,7000,0,0,1,FEW 50,1,7,1,3,1018,RJFO 191100Z 27004KT 7000 FEW050 07/03 Q1018 RMK 2SC050 A3008=,
20180119_120000.003,0,RJFO,,,,0,20180119120000,-1,-1,-1,-1,250,-1,3,-1,-1,-1,-1,,7000,0,0,1,FEW 45,1,7,1,3,1018,RJFO 191200Z 25003KT 7000 FEW045 07/03 Q1018 RMK 1SC045 A3009=,
20180119_130000.002,0,RJFO,,,,0,20180119130000,-1,-1,-1,-1,240,-1,4,-1,-1,-1,-1,,8000,0,0,1,FEW 45,1,6,1,2,1018,RJFO 191300Z 24004KT 8000 FEW045 06/02 Q1018 RMK 1SC045 A3009=,
20180119_220000.002,0,RJFO,,,,0,20180119220000,-1,-1,-1,-1,280,-1,4,-1,-1,-1,-1,,6000,0,0,2,FEW 30   SCT 45,1,7,1,4,1019,RJFO 192200Z 28004KT 6000 FEW030 SCT045 07/04 Q1019 RMK 1CU030     3CU045 A3010=,
20180119_230000.002,0,RJFO,,,,0,20180119230000,-1,-1,-1,-1,280,-1,5,-1,-1,-1,-1,,6000,0,0,2,FEW 30   SCT 45,1,7,1,4,1019,RJFO 192300Z 28005KT 6000 FEW030 SCT045 07/04 Q1019 RMK 1CU030     4CU045 A3011=,
20180120_000000.002,0,RJFO,,,,0,20180120000000,-1,-1,-1,-1,260,-1,3,-1,-1,230,290,,6000,0,0,1,SCT 45,1,9,1,5,1019,RJFO 200000Z 26003KT 230V290 6000 SCT045 09/05 Q1019 RMK     3CU045 A3011=,
20180120_010000.002,0,RJFO,,,,0,20180120010000,-1,-1,-1,-1,270,-1,4,-1,-1,240,300,,7000,0,0,1,FEW 35,1,10,1,6,1020,RJFO 200100Z 27004KT 240V300 7000 FEW035 10/06 Q1020 RMK     1CU035 A3013=,
20180120_020000.003,0,RJFO,,,,0,20180120020000,-1,-1,-1,-1,40,-1,5,-1,-1,-1,-1,,7000,0,0,2,FEW 30   BKN 40,1,10,1,6,1020,RJFO 200200Z 04005KT 7000 FEW030 BKN040 10/06 Q1020 RMK 1CU030     5CU040 A3013=,
20180120_030000.002,0,RJFO,,,,0,20180120030000,-1,-1,-1,-1,40,-1,9,-1,-1,-1,-1,,8000,0,0,2,FEW 30   BKN 45,1,11,1,4,1020,RJFO 200300Z 04009KT 8000 FEW030 BKN045 11/04 Q1020 RMK 1CU030     5CU045 A3012=,
20180120_040000.002,0,RJFO,,,,0,20180120040000,-1,-1,-1,-1,20,-1,15,-1,-1,-1,-1,,9999,0,0,2,FEW 35   SCT 45,1,11,1,4,1018,RJFO 200400Z 02015KT 9999 FEW035 SCT045 11/04 Q1018 RMK 1CU035     4CU045 A3008=,
20180120_050000.002,0,RJFO,,,,0,20180120050000,-1,-1,-1,-1,20,-1,11,-1,-1,350,50,,9999,0,0,2,FEW 35   BKN -9999,1,11,1,3,1018,RJFO 200500Z 02011KT 350V050 9999 FEW035 BKN/// 11/03 Q1018     RMK 1CU035 A3006=,
20180120_060000.002,0,RJFO,,,,0,20180120060000,-1,-1,-1,-1,330,-1,11,-1,-1,-1,-1,,9999,0,0,2,FEW 30   BKN -9999,1,12,-1,1,1018,RJFO 200600Z 33011KT 9999 FEW030 BKN/// 12/M01 Q1018 RMK     1CU030 A3008=,
20180120_070000.002,0,RJFO,,,,0,20180120070000,-1,-1,-1,-1,350,-1,15,-1,-1,-1,-1,,9999,0,0,2,FEW 35   BKN -9999,1,12,-1,2,1018,RJFO 200700Z 35015KT 9999 FEW035 BKN/// 12/M02 Q1018 RMK     1CU035 A3007=,
20180120_080000.002,0,RJFO,,,,0,20180120080000,-1,-1,-1,-1,350,-1,10,-1,-1,-1,-1,,9999,0,0,2,FEW 35   BKN -9999,1,11,-1,0,1018,RJFO 200800Z 35010KT 9999 FEW035 BKN/// 11/M00 Q1018 RMK     1CU035 A3008=,
20180120_090000.002,0,RJFO,,,,0,20180120090000,-1,-1,-1,-1,320,-1,8,-1,-1,-1,-1,,9999,0,0,2,FEW 30   BKN -9999,1,10,-1,0,1019,RJFO 200900Z 32008KT 9999 FEW030 BKN/// 10/M00 Q1019 RMK     1CU030 A3009=,
20180120_100000.002,0,RJFO,,,,0,20180120100000,-1,-1,-1,-1,300,-1,6,-1,-1,270,340,,9999,0,0,2,FEW 30   BKN -9999,1,9,-1,0,1019,RJFO 201000Z 30006KT 270V340 9999 FEW030 BKN/// 09/M00 Q1019     RMK 1CU030 A3010=,
20180120_110000.002,0,RJFO,,,,0,20180120110000,-1,-1,-1,-1,270,-1,10,-1,-1,-1,-1,,9999,0,0,2,FEW 30   BKN -9999,1,9,1,2,1019,RJFO 201100Z 27010KT 9999 FEW030 BKN/// 09/02 Q1019 RMK 1CU030     A3011=,
20180120_120000.002,0,RJFO,,,,0,20180120120000,-1,-1,-1,-1,280,-1,5,-1,-1,-1,-1,CAVOK,-1,0,0,0,,1,7,1,2,1020,RJFO 201200Z 28005KT CAVOK 07/02 Q1020 RMK A3013=,
20180120_130000.002,0,RJFO,,,,0,20180120130000,-1,-1,-1,-1,250,-1,6,-1,-1,-1,-1,CAVOK,-1,0,0,0,,1,6,1,2,1020,RJFO 201300Z 25006KT CAVOK 06/02 Q1020 RMK A3013=,
20180120_220000.002,0,RJFO,,,,0,20180120220000,-1,-1,-1,-1,280,-1,5,-1,-1,-1,-1,,9999,0,0,2,FEW 15   SCT -9999,1,4,1,1,1020,RJFO 202200Z 28005KT 9999 FEW015 SCT/// 04/01 Q1020 RMK 1CU015     A3014=,
20180120_230000.002,0,RJFO,,,,0,20180120230000,-1,-1,-1,-1,250,-1,4,-1,-1,220,280,CAVOK,-1,0,0,0,,1,5,1,1,1021,RJFO 202300Z 25004KT 220V280 CAVOK 05/01 Q1021 RMK A3016=,
20180121_000000.002,0,RJFO,,,,0,20180121000000,-1,-1,-1,-1,280,-1,6,-1,-1,-1,-1,CAVOK,-1,0,0,0,,1,8,1,1,1022,RJFO 210000Z 28006KT CAVOK 08/01 Q1022 RMK A3018=,
20180121_010000.002,0,RJFO,,,,0,20180121010000,-1,-1,-1,-1,240,-1,3,-1,-1,210,270,CAVOK,-1,0,0,0,,1,9,1,0,1021,RJFO 210100Z 24003KT 210V270 CAVOK 09/00 Q1021 RMK A3017=,
20180121_020000.002,0,RJFO,,,,0,20180121020000,-1,-1,-1,-1,80,-1,4,-1,-1,-1,-1,,9999,0,0,2,FEW 35   SCT 45,1,10,1,2,1021,RJFO 210200Z 08004KT 9999 FEW035 SCT045 10/02 Q1021 RMK 1CU035     4CU045 A3016=,
20180121_030000.002,0,RJFO,,,,0,20180121030000,-1,-1,-1,-1,20,-1,15,-1,-1,-1,-1,,9000,0,0,2,FEW 30   BKN 45,1,11,1,1,1021,RJFO 210300Z 02015KT 9000 FEW030 BKN045 11/01 Q1021 RMK 1CU030     5CU045 A3015=,
20180121_040000.003,0,RJFO,,,,0,20180121040000,-1,-1,-1,-1,360,-1,12,-1,-1,-1,-1,,9999,0,0,2,FEW 30   BKN 40,1,11,1,1,1020,RJFO 210400Z 36012KT 9999 FEW030 BKN040 11/01 Q1020 RMK 1CU030     5CU040 A3013=,
20180121_050000.002,0,RJFO,,,,0,20180121050000,-1,-1,-1,-1,360,-1,12,-1,-1,-1,-1,,9999,0,0,2,FEW 30   BKN 45,1,12,1,2,1019,RJFO 210500Z 36012KT 9999 FEW030 BKN045 12/02 Q1019 RMK 1CU030     5CU045 A3011=,
20180121_060000.002,0,RJFO,,,,0,20180121060000,-1,-1,-1,-1,20,-1,12,-1,-1,-1,-1,,9000,0,0,3,FEW 35   SCT 45   BKN -9999,1,12,-1,0,1019,RJFO 210600Z 02012KT 9000 FEW035 SCT045 BKN/// 12/M00 Q1019     RMK 1CU035 3CU045 A3010=,
20180121_070000.002,0,RJFO,,,,0,20180121070000,-1,-1,-1,-1,350,-1,7,-1,-1,-1,-1,,9999,0,0,2,FEW 45   BKN -9999,1,11,-1,0,1019,RJFO 210700Z 35007KT 9999 FEW045 BKN/// 11/M00 Q1019 RMK     1CU045 A3010=,
20180121_080000.002,0,RJFO,,,,0,20180121080000,-1,-1,-1,-1,330,-1,4,-1,-1,-1,-1,,9999,0,0,2,FEW 40   BKN -9999,1,10,-1,1,1019,RJFO 210800Z 33004KT 9999 FEW040 BKN/// 10/M01 Q1019 RMK     1CU040 A3011=,
20180121_090000.002,0,RJFO,,,,0,20180121090000,-1,-1,-1,-1,310,-1,3,-1,-1,-1,-1,,9999,0,0,2,FEW 40   BKN -9999,1,8,1,0,1020,RJFO 210900Z 31003KT 9999 FEW040 BKN/// 08/00 Q1020 RMK 1CU040     A3013=,
20180121_100000.002,0,RJFO,,,,0,20180121100000,-1,-1,-1,-1,270,-1,3,-1,-1,-1,-1,CAVOK,-1,0,0,0,,1,6,1,0,1020,RJFO 211000Z 27003KT CAVOK 06/00 Q1020 RMK A3013=,
20180121_110000.002,0,RJFO,,,,0,20180121110000,-1,-1,-1,-1,260,-1,3,-1,-1,210,290,CAVOK,-1,0,0,0,,1,6,1,1,1020,RJFO 211100Z 26003KT 210V290 CAVOK 06/01 Q1020 RMK A3013=,
20180121_120000.002,0,RJFO,,,,0,20180121120000,-1,-1,-1,-1,260,-1,4,-1,-1,-1,-1,CAVOK,-1,0,0,0,,1,4,1,0,1020,RJFO 211200Z 26004KT CAVOK 04/00 Q1020 RMK A3013=,
20180121_130000.003,0,RJFO,,,,0,20180121130000,-1,-1,-1,-1,260,-1,3,-1,-1,-1,-1,,9999,0,0,3,FEW 40   SCT 50   BKN -9999,1,5,1,1,1019,RJFO 211300Z 26003KT 9999 FEW040 SCT050 BKN/// 05/01 Q1019 RMK     1CU040 4SC050 A3012=,
20180121_220000.002,0,RJFO,,,,0,20180121220000,-1,-1,-1,-1,340,-1,7,-1,-1,-1,-1,,7000,0,1,3,FEW 25   BKN 35   BKN 45,1,6,1,5,1014,RJFO 212200Z 34007KT 7000 -SHRA FEW025 BKN035 BKN045 06/05     Q1014 RMK 1CU025 5CU035 7CU045 A2997=,- RA SH
20180121_230000.002,0,RJFO,,,,0,20180121230000,-1,-1,-1,-1,330,-1,5,-1,-1,260,10,,3000,0,2,3,FEW 20   BKN 25   BKN 35,1,6,1,5,1015,RJFO 212300Z 33005KT 260V010 3000 -SHRA BR FEW020 BKN025     BKN035 06/05 Q1015 RMK 2CU020 5CU025 7CU035 A2997=,- RA SH; BR
20180122_000000.002,0,RJFO,,,,0,20180122000000,-1,-1,-1,-1,340,-1,9,-1,-1,-1,-1,,3000,0,2,3,FEW 8   BKN 15   BKN 25,1,6,1,5,1015,RJFO 220000Z 34009KT 3000 -SHRA BR FEW008 BKN015 BKN025 06/05     Q1015 RMK 1ST008 5CU015 7CU025 A2998=,- RA SH; BR
20180122_010000.002,0,RJFO,,,,0,20180122010000,-1,-1,-1,-1,360,-1,13,-1,-1,-1,-1,,4000,0,2,3,FEW 6   SCT 10   BKN 20,1,5,1,4,1015,RJFO 220100Z 36013KT 4000 SHRA BR FEW006 SCT010 BKN020 05/04     Q1015 RMK 1ST006 4ST010 7CU020 A3000=,RA SH; BR
20180122_020000.002,0,RJFO,,,,0,20180122020000,-1,-1,-1,-1,360,-1,10,-1,-1,-1,-1,,5000,0,2,3,FEW 8   SCT 15   BKN 20,1,5,1,3,1014,RJFO 220200Z 36010KT 5000 -SHRA BR FEW008 SCT015 BKN020 05/03     Q1014 RMK 1ST008 4CU015 7CU020 A2996=,- RA SH; BR
20180122_030000.002,0,RJFO,,,,0,20180122030000,-1,-1,-1,-1,320,-1,6,-1,-1,-1,-1,,5000,0,2,3,FEW 7   SCT 10   BKN 15,1,3,1,2,1013,RJFO 220300Z 32006KT 5000 SHRA BR FEW007 SCT010 BKN015 03/02     Q1013 RMK 1ST007 4ST010 6CU015 A2992 P/FR=,RA SH; BR
20180122_040000.002,0,RJFO,,,,0,20180122040000,-1,-1,-1,-1,320,-1,9,-1,-1,-1,-1,,8000,0,1,3,FEW 6   BKN 10   BKN 15,1,2,1,2,1012,RJFO 220400Z 32009KT 8000 -SHRASN FEW006 BKN010 BKN015 02/02     Q1012 RMK 1ST006 5ST010 7CU015 A2989=,- RA SN SH
20180122_050000.002,0,RJFO,,,,0,20180122050000,-1,-1,-1,-1,340,-1,10,-1,-1,-1,-1,,9999,0,1,3,FEW 6   SCT 20   BKN 30,1,4,1,3,1012,RJFO 220500Z 34010KT 9999 -SHRA FEW006 SCT020 BKN030 04/03     Q1012 RMK 1ST006 3CU020 5CU030 A2989=,- RA SH
20180122_060000.003,0,RJFO,,,,0,20180122060000,-1,-1,-1,-1,310,-1,5,-1,-1,230,340,,9999,0,0,3,FEW 5   SCT 40   BKN 50,1,5,1,3,1012,RJFO 220600Z 31005KT 230V340 9999 FEW005 SCT040 BKN050 05/03     Q1012 RMK 1ST005 3CU040 7SC050 A2990=,
20180122_070000.002,0,RJFO,,,,0,20180122070000,-1,-1,-1,-1,270,-1,5,-1,-1,250,310,,9999,0,0,3,FEW 6   SCT 60   BKN -9999,1,5,1,3,1012,RJFO 220700Z 27005KT 250V310 9999 FEW006 SCT060 BKN/// 05/03     Q1012 RMK 1ST006 3SC060 A2991=,
20180122_080000.003,0,RJFO,,,,0,20180122080000,-1,-1,-1,-1,270,-1,4,-1,-1,240,300,,9999,0,0,3,FEW 6   SCT 9   BKN 15,1,4,1,3,1013,RJFO 220800Z 27004KT 240V300 9999 FEW006 SCT009 BKN015 04/03     Q1013 RMK 1ST006 4ST009 6CU015 A2993=,
20180122_090000.002,0,RJFO,,,,0,20180122090000,-1,-1,-1,-1,270,-1,7,-1,-1,-1,-1,,9999,0,0,3,FEW 6   SCT 10   BKN -9999,1,3,1,2,1014,RJFO 220900Z 27007KT 9999 FEW006 SCT010 BKN/// 03/02 Q1014 RMK     1ST006 3CU010 A2995=,
20180122_100000.002,0,RJFO,,,,0,20180122100000,-1,-1,-1,-1,260,-1,7,-1,-1,-1,-1,,9999,0,0,2,FEW 15   SCT -9999,1,4,1,2,1014,RJFO 221000Z 26007KT 9999 FEW015 SCT/// 04/02 Q1014 RMK 1CU015     A2995=,
20180122_110000.003,0,RJFO,,,,0,20180122110000,-1,-1,-1,-1,260,-1,7,-1,-1,-1,-1,,9999,0,0,2,FEW 15   SCT -9999,1,3,1,2,1014,RJFO 221100Z 26007KT 9999 FEW015 SCT/// 03/02 Q1014 RMK 1CU015     A2996=,
20180122_120000.002,0,RJFO,,,,0,20180122120000,-1,-1,-1,-1,280,-1,7,-1,-1,-1,-1,,9999,0,0,1,FEW 20,1,3,1,2,1014,RJFO 221200Z 28007KT 9999 FEW020 03/02 Q1014 RMK 1CU020 A2994=,
20180122_130000.003,0,RJFO,,,,0,20180122130000,-1,-1,-1,-1,290,-1,6,-1,-1,-1,-1,,9999,0,0,1,FEW 20,1,4,1,2,1014,RJFO 221300Z 29006KT 9999 FEW020 04/02 Q1014 RMK 1CU020 A2995=,
20180122_220000.002,0,RJFO,,,,0,20180122220000,-1,-1,-1,-1,240,-1,3,-1,-1,-1,-1,,7000,0,0,1,FEW 35,1,5,1,3,1014,RJFO 222200Z 24003KT 7000 FEW035 05/03 Q1014 RMK 2CU035 A2997=,
20180122_230000.003,0,RJFO,,,,0,20180122230000,-1,-1,-1,-1,999,-1,2,-1,-1,-1,-1,,8000,0,0,1,FEW 30,1,5,1,3,1015,RJFO 222300Z VRB02KT 8000 FEW030 05/03 Q1015 RMK 1CU030 A2998=,
20180123_000000.002,0,RJFO,,,,0,20180123000000,-1,-1,-1,-1,230,-1,4,-1,-1,200,280,,9999,0,0,1,FEW 30,1,8,1,1,1016,RJFO 230000Z 23004KT 200V280 9999 FEW030 08/01 Q1016 RMK     1CU030 A3000=,
20180123_010000.002,0,RJFO,,,,0,20180123010000,-1,-1,-1,-1,290,-1,18,-1,-1,250,320,,9999,0,0,1,FEW 35,1,8,-1,1,1016,RJFO 230100Z 29018KT 250V320 9999 FEW035 08/M01 Q1016 RMK     2CU035 A3003=,
20180123_020000.002,0,RJFO,,,,0,20180123020000,-1,-1,-1,-1,290,-1,16,-1,-1,-1,-1,,9999,0,0,2,FEW 35   SCT 40,1,9,-1,1,1017,RJFO 230200Z 29016KT 9999 FEW035 SCT040 09/M01 Q1017 RMK     1CU035 3CU040 A3003=,
20180123_030000.003,0,RJFO,,,,0,20180123030000,-1,-1,-1,-1,300,-1,13,-1,23,260,330,,9999,0,1,3,FEW 10   SCT 20   BKN 30,1,6,1,2,1017,RJFO 230300Z 30013G23KT 260V330 9999 -SHRA FEW010 SCT020     BKN030 06/02 Q1017 RMK 1CU010 3CU020 5CU030 A3003=,- RA SH
20180123_040000.003,0,RJFO,,,,0,20180123040000,-1,-1,-1,-1,290,-1,16,-1,-1,-1,-1,,9999,0,1,3,FEW 15   SCT 20   BKN 30,1,6,1,1,1016,RJFO 230400Z 29016KT 9999 -SHRA FEW015 SCT020 BKN030 06/01     Q1016 RMK 1CU015 3CU020 5CU030 A3002=,- RA SH
20180123_050000.002,0,RJFO,,,,0,20180123050000,-1,-1,-1,-1,280,-1,17,-1,-1,240,320,,9999,0,0,2,FEW 30   SCT -9999,1,7,-1,1,1016,RJFO 230500Z 28017KT 240V320 9999 FEW030 SCT/// 07/M01 Q1016     RMK 2CU030 A3001=,
20180123_060000.003,0,RJFO,,,,0,20180123060000,-1,-1,-1,-1,280,-1,18,-1,29,-1,-1,,9999,0,0,2,FEW 35   SCT -9999,1,7,-1,3,1016,RJFO 230600Z 28018G29KT 9999 FEW035 SCT/// 07/M03 Q1016 RMK     2CU035 A3001=,
20180123_070000.002,0,RJFO,,,,0,20180123070000,-1,-1,-1,-1,290,-1,15,-1,-1,240,330,,9999,0,0,1,FEW 35,1,6,-1,7,1016,RJFO 230700Z 29015KT 240V330 9999 FEW035 06/M07 Q1016 RMK     1CU035 A3003=,
20180123_080000.002,0,RJFO,,,,0,20180123080000,-1,-1,-1,-1,280,-1,11,-1,-1,250,320,,9999,0,0,2,FEW 9   SCT 25,1,5,-1,7,1017,RJFO 230800Z 28011KT 250V320 9999 FEW009 SCT025 05/M07 Q1017     RMK 1ST009 3CU025 A3004=,
20180123_090000.002,0,RJFO,,,,0,20180123090000,-1,-1,-1,-1,280,-1,8,-1,-1,250,330,,9999,0,0,2,FEW 15   SCT 40,1,4,-1,6,1017,RJFO 230900Z 28008KT 250V330 9999 FEW015 SCT040 04/M06 Q1017     RMK 1CU015 3CU040 A3005=,
20180123_100000.002,0,RJFO,,,,0,20180123100000,-1,-1,-1,-1,300,-1,4,-1,-1,270,330,,9999,0,0,2,FEW 20   SCT -9999,1,3,-1,5,1018,RJFO 231000Z 30004KT 270V330 9999 FEW020 SCT/// 03/M05 Q1018     RMK 1CU020 A3008=,
20180123_110000.002,0,RJFO,,,,0,20180123110000,-1,-1,-1,-1,240,-1,4,-1,-1,-1,-1,,9999,0,0,2,FEW 30   BKN 50,1,2,-1,6,1018,RJFO 231100Z 24004KT 9999 FEW030 BKN050 02/M06 Q1018 RMK     1CU030 6SC050 A3008=,
20180123_120000.002,0,RJFO,,,,0,20180123120000,-1,-1,-1,-1,240,-1,11,-1,-1,-1,-1,,9999,0,0,2,FEW 30   SCT 50,1,1,-1,7,1018,RJFO 231200Z 24011KT 9999 FEW030 SCT050 01/M07 Q1018 RMK     1CU030 3SC050 A3009=,
20180123_130000.002,0,RJFO,,,,0,20180123130000,-1,-1,-1,-1,230,-1,11,-1,-1,-1,-1,,9999,0,0,2,FEW 30   SCT 50,1,1,-1,7,1019,RJFO 231300Z 23011KT 9999 FEW030 SCT050 01/M07 Q1019 RMK     1CU030 3SC050 A3009=,
20180123_220000.002,0,RJFO,,,,0,20180123220000,-1,-1,-1,-1,260,-1,4,-1,-1,210,360,,9999,0,1,2,FEW 30   BKN 50,1,1,-1,7,1020,RJFO 232200Z 26004KT 210V360 9999 VCSH FEW030 BKN050 01/M07     Q1020 RMK 1CU030 5SC050 A3013=,VC SH
20180123_230000.002,0,RJFO,,,,0,20180123230000,-1,-1,-1,-1,290,-1,13,-1,-1,250,320,,4000,0,1,3,FEW 6   SCT 15   BKN 20,-1,0,-1,4,1021,RJFO 232300Z 29013KT 250V320 4000 -SHSN FEW006 SCT015 BKN020     M00/M04 Q1021 RMK 1ST006 3CU015 6CU020 A3016=,- SN SH
20180124_000000.002,0,RJFO,,,,0,20180124000000,-1,-1,-1,-1,999,-1,2,-1,-1,-1,-1,,2500,0,1,3,FEW 5   SCT 10   BKN 15,-1,1,-1,3,1021,RJFO 240000Z VRB02KT 2500 -SHSN FEW005 SCT010 BKN015 M01/M03     Q1021 RMK 1ST005 3CU010 5CU015 A3017=,- SN SH
20180124_010000.003,0,RJFO,,,,0,20180124010000,-1,-1,-1,-1,330,-1,10,-1,-1,290,10,,700,1,1,3,FEW 3   SCT 10   BKN 15,-1,1,-1,3,1021,RJFO 240100Z 33010KT 290V010 0700 R01///// SHSN FEW003 SCT010     BKN015 M01/M03 Q1021 RMK 1ST003 3CU010 6CU015 A3017=,SN SH
20180124_020000.002,0,RJFO,,,,0,20180124020000,-1,-1,-1,-1,30,-1,7,-1,-1,350,50,,4500,0,1,3,FEW 2   SCT 5   BKN 13,-1,1,-1,2,1021,RJFO 240200Z 03007KT 350V050 4500 -SHSN FEW002 SCT005 BKN013     M01/M02 Q1021 RMK 1ST002 3ST005 6CU013 A3016=,- SN SH
20180124_030000.002,0,RJFO,,,,0,20180124030000,-1,-1,-1,-1,330,-1,9,-1,-1,280,360,,2500,0,1,3,FEW 3   BKN 10   BKN 20,-1,0,-1,3,1021,RJFO 240300Z 33009KT 280V360 2500 -SHSN FEW003 BKN010 BKN020     M00/M03 Q1021 RMK 2ST003 5CU010 7CU020 A3015=,- SN SH
20180124_040000.002,0,RJFO,,,,0,20180124040000,-1,-1,-1,-1,330,-1,8,-1,-1,290,20,,1500,1,1,3,FEW 3   BKN 9   BKN 20,-1,1,-1,4,1020,RJFO 240400Z 33008KT 290V020 1500 R01///// -SHSN FEW003 BKN009     BKN020 M01/M04 Q1020 RMK 1ST003 5ST009 7CU020 A3014=,- SN SH
20180124_050000.002,0,RJFO,,,,0,20180124050000,-1,-1,-1,-1,320,-1,9,-1,-1,270,10,,9999,0,1,3,FEW 9   SCT 20   BKN 35,-1,1,-1,6,1020,RJFO 240500Z 32009KT 270V010 9999 -SHSN FEW009 SCT020 BKN035     M01/M06 Q1020 RMK 1ST009 3CU020 6CU035 A3014=,- SN SH
20180124_060000.002,0,RJFO,,,,0,20180124060000,-1,-1,-1,-1,330,-1,16,-1,-1,280,350,,9999,0,1,3,FEW 9   SCT 20   BKN 35,-1,1,-1,7,1020,RJFO 240600Z 33016KT 280V350 9999 -SHSN FEW009 SCT020 BKN035     M01/M07 Q1020 RMK 1ST009 3CU020 6CU035 A3015=,- SN SH
20180124_070000.002,0,RJFO,,,,0,20180124070000,-1,-1,-1,-1,310,-1,11,-1,21,260,340,,2000,0,1,3,FEW 5   BKN 20   BKN 30,-1,1,-1,6,1021,RJFO 240700Z 31011G21KT 260V340 2000 -SHSN FEW005 BKN020     BKN030 M01/M06 Q1021 RMK 2ST005 5CU020 7CU030 A3016=,- SN SH
20180124_080000.002,0,RJFO,,,,0,20180124080000,-1,-1,-1,-1,330,-1,5,-1,-1,280,360,,1000,1,1,3,FEW 5   BKN 10   BKN 15,-1,2,-1,4,1021,RJFO 240800Z 33005KT 280V360 1000 R01///// -SHSN FEW005 BKN010     BKN015 M02/M04 Q1021 RMK 2ST005 5CU010 6CU015 A3018=,- SN SH
20180124_090000.003,0,RJFO,,,,0,20180124090000,-1,-1,-1,-1,310,-1,5,-1,-1,280,350,,5000,0,1,3,FEW 7   SCT 10   BKN 25,-1,2,-1,5,1022,RJFO 240900Z 31005KT 280V350 5000 -SHSN FEW007 SCT010 BKN025     M02/M05 Q1022 RMK 1ST007 3CU010 6CU025 A3019=,- SN SH
20180124_100000.002,0,RJFO,,,,0,20180124100000,-1,-1,-1,-1,270,-1,5,-1,-1,240,310,,9999,0,0,3,FEW 10   SCT 30   BKN 50,-1,2,-1,6,1021,RJFO 241000Z 27005KT 240V310 9999 FEW010 SCT030 BKN050 M02/M06     Q1021 RMK 1CU010 3CU030 5SC050 A3017=,
20180124_110000.002,0,RJFO,,,,0,20180124110000,-1,-1,-1,-1,260,-1,8,-1,-1,240,300,,9999,0,0,2,FEW 15   SCT 40,-1,3,-1,5,1021,RJFO 241100Z 26008KT 240V300 9999 FEW015 SCT040 M03/M05 Q1021     RMK 1CU015 4CU040 A3017=,
20180124_120000.002,0,RJFO,,,,0,20180124120000,-1,-1,-1,-1,260,-1,5,-1,-1,-1,-1,,9999,0,0,3,FEW 30   SCT 40   BKN 50,-1,3,-1,6,1021,RJFO 241200Z 26005KT 9999 FEW030 SCT040 BKN050 M03/M06 Q1021     RMK 1CU030 3CU040 5SC050 A3017=,
20180124_130000.002,0,RJFO,,,,0,20180124130000,-1,-1,-1,-1,260,-1,4,-1,-1,230,300,,9999,0,0,3,FEW 30   BKN 40   BKN 50,-1,2,-1,6,1021,RJFO 241300Z 26004KT 230V300 9999 FEW030 BKN040 BKN050 M02/M06     Q1021 RMK 1CU030 5CU040 7SC050 A3017=,
20180124_220000.002,0,RJFO,,,,0,20180124220000,-1,-1,-1,-1,250,-1,8,-1,-1,-1,-1,,8000,0,1,2,FEW 15   SCT 40,-1,3,-1,5,1022,RJFO 242200Z 25008KT 8000 -SHSN FEW015 SCT040 M03/M05 Q1022     RMK 1CU015 4CU040 A3020=,- SN SH
20180124_230000.002,0,RJFO,,,,0,20180124230000,-1,-1,-1,-1,270,-1,6,-1,-1,-1,-1,,9999,0,1,2,FEW 10   SCT 30,-1,2,-1,5,1022,RJFO 242300Z 27006KT 9999 -SHSN FEW010 SCT030 M02/M05 Q1022     RMK 1CU010 3CU030 A3020=,- SN SH
20180125_000000.002,0,RJFO,,,,0,20180125000000,-1,-1,-1,-1,280,-1,9,-1,-1,-1,-1,,9999,0,1,3,FEW 8   SCT 25   BKN 40,-1,1,-1,4,1023,RJFO 250000Z 28009KT 9999 -SHSN FEW008 SCT025 BKN040 M01/M04     Q1023 RMK 1ST008 3CU025 6CU040 A3021 3500S-SW=,- SN SH
20180125_010000.002,0,RJFO,,,,0,20180125010000,-1,-1,-1,-1,280,-1,9,-1,-1,-1,-1,,2500,0,1,3,FEW 6   BKN 10   BKN 20,-1,1,-1,3,1023,RJFO 250100Z 28009KT 2500 -SHSN FEW006 BKN010 BKN020 M01/M03     Q1023 RMK 2ST006 6ST010 7CU020 A3022=,- SN SH
20180125_020000.003,0,RJFO,,,,0,20180125020000,-1,-1,-1,-1,290,-1,12,-1,-1,250,330,,8000,0,1,3,FEW 6   BKN 15   BKN 25,1,1,-1,3,1022,RJFO 250200Z 29012KT 250V330 8000 -SHSN FEW006 BKN015 BKN025     01/M03 Q1022 RMK 1ST006 5CU015 6CU025 A3021=,- SN SH
20180125_030000.002,0,RJFO,,,,0,20180125030000,-1,-1,-1,-1,300,-1,12,-1,-1,-1,-1,,7000,0,1,3,FEW 7   SCT 10   BKN 25,1,1,-1,3,1021,RJFO 250300Z 30012KT 7000 -SHSN FEW007 SCT010 BKN025 01/M03     Q1021 RMK 1ST007 3ST010 6CU025 A3017 3000NW=,- SN SH
20180125_040000.002,0,RJFO,,,,0,20180125040000,-1,-1,-1,-1,300,-1,13,-1,24,270,330,,9999,0,1,2,FEW 10   BKN 30,1,3,-1,4,1020,RJFO 250400Z 30013G24KT 270V330 9999 -SHSN FEW010 BKN030     03/M04 Q1020 RMK 1ST010 5CU030 A3013=,- SN SH
20180125_050000.002,0,RJFO,,,,0,20180125050000,-1,-1,-1,-1,300,-1,14,-1,-1,-1,-1,,9999,0,0,2,FEW 15   BKN 40,1,3,-1,5,1020,RJFO 250500Z 30014KT 9999 FEW015 BKN040 03/M05 Q1020 RMK     1CU015 6CU040 A3013=,
20180125_060000.002,0,RJFO,,,,0,20180125060000,-1,-1,-1,-1,300,-1,13,-1,24,270,340,,8000,0,1,3,FEW 15   SCT 25   BKN 35,1,1,-1,4,1020,RJFO 250600Z 30013G24KT 270V340 8000 -SHSN FEW015 SCT025     BKN035 01/M04 Q1020 RMK 1CU015 4CU025 6CU035 A3013=,- SN SH
20180125_070000.002,0,RJFO,,,,0,20180125070000,-1,-1,-1,-1,340,-1,11,-1,-1,-1,-1,,9999,0,1,2,FEW 15   SCT 25,1,2,-1,3,1019,RJFO 250700Z 34011KT 9999 VCSH FEW015 SCT025 02/M03 Q1019 RMK     1CU015 3CU025 A3012=,VC SH
20180125_080000.002,0,RJFO,,,,0,20180125080000,-1,-1,-1,-1,320,-1,8,-1,-1,260,350,,9999,0,0,3,FEW 20   SCT 30   BKN 40,1,2,-1,6,1020,RJFO 250800Z 32008KT 260V350 9999 FEW020 SCT030 BKN040 02/M06     Q1020 RMK 1CU020 3CU030 5CU040 A3013=,
20180125_090000.002,0,RJFO,,,,0,20180125090000,-1,-1,-1,-1,310,-1,6,-1,-1,280,340,,9999,0,0,2,FEW 35   BKN 45,1,1,-1,6,1020,RJFO 250900Z 31006KT 280V340 9999 FEW035 BKN045 01/M06 Q1020     RMK 1CU035 6CU045 A3013=,
20180125_100000.003,0,RJFO,,,,0,20180125100000,-1,-1,-1,-1,260,-1,3,-1,-1,-1,-1,,9999,0,0,2,FEW 40   BKN 50,1,1,-1,6,1020,RJFO 251000Z 26003KT 9999 FEW040 BKN050 01/M06 Q1020 RMK     1CU040 6SC050 A3013=,
20180125_110000.003,0,RJFO,,,,0,20180125110000,-1,-1,-1,-1,280,-1,4,-1,-1,-1,-1,,9999,0,0,3,FEW 30   SCT 40   BKN 50,1,1,-1,6,1020,RJFO 251100Z 28004KT 9999 FEW030 SCT040 BKN050 01/M06 Q1020     RMK 1CU030 3CU040 6SC050 A3013=,
20180125_120000.002,0,RJFO,,,,0,20180125120000,-1,-1,-1,-1,999,-1,2,-1,-1,-1,-1,,9999,0,0,3,FEW 35   SCT 45   BKN 120,1,1,-1,8,1020,RJFO 251200Z VRB02KT 9999 FEW035 SCT045 BKN120 01/M08 Q1020     RMK 1CU035 3CU045 6AC120 A3012=,
20180125_130000.002,0,RJFO,,,,0,20180125130000,-1,-1,-1,-1,270,-1,4,-1,-1,-1,-1,,9999,0,0,2,FEW 40   BKN 140,1,1,-1,8,1019,RJFO 251300Z 27004KT 9999 FEW040 BKN140 01/M08 Q1019 RMK     1CU040 6AC140 A3011=,
20180125_220000.002,0,RJFO,,,,0,20180125220000,-1,-1,-1,-1,310,-1,13,-1,23,280,340,,6000,0,1,2,FEW 5   BKN 35,1,1,-1,6,1019,RJFO 252200Z 31013G23KT 280V340 6000 -SHSN FEW005 BKN035     01/M06 Q1019 RMK 1ST005 7CU035 A3009=,- SN SH
20180125_230000.002,0,RJFO,,,,0,20180125230000,-1,-1,-1,-1,310,-1,12,-1,-1,-1,-1,,9999,0,1,3,FEW 10   BKN 25   BKN 35,1,1,-1,6,1019,RJFO 252300Z 31012KT 9999 -SHSN FEW010 BKN025 BKN035 01/M06     Q1019 RMK 1ST010 5CU025 7CU035 A3010=,- SN SH
20180126_000000.002,0,RJFO,,,,0,20180126000000,-1,-1,-1,-1,310,-1,7,-1,-1,260,360,,9999,0,1,3,FEW 5   SCT 15   BKN 35,1,1,-1,6,1019,RJFO 260000Z 31007KT 260V360 9999 -SHSN FEW005 SCT015 BKN035     01/M06 Q1019 RMK 1ST005 3CU015 6CU035 A3012=,- SN SH
20180126_010000.002,0,RJFO,,,,0,20180126010000,-1,-1,-1,-1,320,-1,8,-1,18,270,360,,8000,0,1,3,FEW 5   SCT 15   BKN 30,1,0,-1,3,1020,RJFO 260100Z 32008G18KT 270V360 8000 -SHSN FEW005 SCT015     BKN030 00/M03 Q1020 RMK 2ST005 4CU015 7CU030 A3013=,- SN SH
20180126_020000.002,0,RJFO,,,,0,20180126020000,-1,-1,-1,-1,320,-1,12,-1,24,270,20,,9999,0,1,3,FEW 10   SCT 20   BKN 30,1,2,-1,5,1020,RJFO 260200Z 32012G24KT 270V020 9999 -SHSN FEW010 SCT020     BKN030 02/M05 Q1020 RMK 1ST010 3CU020 5CU030 A3012=,- SN SH
20180126_030000.002,0,RJFO,,,,0,20180126030000,-1,-1,-1,-1,300,-1,16,-1,-1,270,340,,9999,0,1,3,FEW 20   SCT 30   BKN 40,1,2,-1,6,1019,RJFO 260300Z 30016KT 270V340 9999 -SHSN FEW020 SCT030 BKN040     02/M06 Q1019 RMK 1CU020 3CU030 6CU040 A3010=,- SN SH
20180126_040000.002,0,RJFO,,,,0,20180126040000,-1,-1,-1,-1,280,-1,16,-1,26,230,320,,9999,0,0,2,FEW 25   BKN 35,1,2,-1,7,1018,RJFO 260400Z 28016G26KT 230V320 9999 FEW025 BKN035 02/M07     Q1018 RMK 1CU025 5CU035 A3007=,
20180126_050000.002,0,RJFO,,,,0,20180126050000,-1,-1,-1,-1,310,-1,16,-1,30,260,350,,9999,0,0,2,FEW 30   SCT 40,1,3,-1,7,1018,RJFO 260500Z 31016G30KT 260V350 9999 FEW030 SCT040 03/M07     Q1018 RMK 1CU030 4CU040 A3007=,
20180126_060000.002,0,RJFO,,,,0,20180126060000,-1,-1,-1,-1,310,-1,19,-1,32,-1,-1,,9999,0,0,2,FEW 30   SCT 40,1,3,-1,7,1018,RJFO 260600Z 31019G32KT 9999 FEW030 SCT040 03/M07 Q1018 RMK     1CU030 3CU040 A3007=,
20180126_070000.002,0,RJFO,,,,0,20180126070000,-1,-1,-1,-1,320,-1,15,-1,-1,280,360,,9999,0,0,2,FEW 25   BKN 35,1,2,-1,6,1018,RJFO 260700Z 32015KT 280V360 9999 FEW025 BKN035 02/M06 Q1018     RMK 1CU025 5CU035 A3008=,
20180126_080000.003,0,RJFO,,,,0,20180126080000,-1,-1,-1,-1,310,-1,15,-1,-1,-1,-1,,9999,0,1,2,FEW 30   BKN 40,1,1,-1,5,1019,RJFO 260800Z 31015KT 9999 -SHSN FEW030 BKN040 01/M05 Q1019 RMK     1CU030 5CU040 A3010=,- SN SH
20180126_090000.002,0,RJFO,,,,0,20180126090000,-1,-1,-1,-1,320,-1,17,-1,-1,-1,-1,,9999,0,0,2,FEW 30   SCT 45,1,1,-1,7,1019,RJFO 260900Z 32017KT 9999 FEW030 SCT045 01/M07 Q1019 RMK     1CU030 4CU045 A3011=,
20180126_100000.002,0,RJFO,,,,0,20180126100000,-1,-1,-1,-1,330,-1,11,-1,-1,290,360,,9999,0,0,2,FEW 30   SCT 40,1,0,-1,7,1020,RJFO 261000Z 33011KT 290V360 9999 FEW030 SCT040 00/M07 Q1020     RMK 1CU030 4CU040 A3013=,
20180126_110000.002,0,RJFO,,,,0,20180126110000,-1,-1,-1,-1,330,-1,11,-1,-1,300,360,,9999,0,0,2,FEW 35   SCT 45,-1,0,-1,8,1021,RJFO 261100Z 33011KT 300V360 9999 FEW035 SCT045 M00/M08 Q1021     RMK 1CU035 3CU045 A3017=,
20180126_120000.002,0,RJFO,,,,0,20180126120000,-1,-1,-1,-1,330,-1,9,-1,-1,290,20,,9999,0,0,2,FEW 30   SCT 40,-1,0,-1,9,1022,RJFO 261200Z 33009KT 290V020 9999 FEW030 SCT040 M00/M09 Q1022     RMK 1CU030 3CU040 A3019=,
20180126_130000.002,0,RJFO,,,,0,20180126130000,-1,-1,-1,-1,320,-1,4,-1,-1,250,10,,9999,0,0,2,FEW 35   BKN 45,-1,0,-1,8,1022,RJFO 261300Z 32004KT 250V010 9999 FEW035 BKN045 M00/M08 Q1022     RMK 1CU035 5CU045 A3020=,
20180126_220000.002,0,RJFO,,,,0,20180126220000,-1,-1,-1,-1,280,-1,7,-1,-1,-1,-1,,9999,0,0,3,FEW 25   SCT 45   BKN 50,1,0,-1,4,1024,RJFO 262200Z 28007KT 9999 FEW025 SCT045 BKN050 00/M04 Q1024     RMK 1CU025 3CU045 7SC050 A3026=,
20180126_230000.002,0,RJFO,,,,0,20180126230000,-1,-1,-1,-1,290,-1,6,-1,-1,260,330,,9999,0,0,2,FEW 20   BKN 50,1,1,-1,4,1025,RJFO 262300Z 29006KT 260V330 9999 FEW020 BKN050 01/M04 Q1025     RMK 1CU020 7SC050 A3027=,
20180127_000000.002,0,RJFO,,,,0,20180127000000,-1,-1,-1,-1,260,-1,5,-1,-1,230,300,,9999,0,0,2,FEW 25   BKN 50,1,2,-1,3,1025,RJFO 270000Z 26005KT 230V300 9999 FEW025 BKN050 02/M03 Q1025     RMK 1CU025 7SC050 A3027=,
20180127_010000.002,0,RJFO,,,,0,20180127010000,-1,-1,-1,-1,360,-1,5,-1,-1,310,50,,9999,0,0,2,FEW 25   BKN 50,1,4,-1,3,1025,RJFO 270100Z 36005KT 310V050 9999 FEW025 BKN050 04/M03 Q1025     RMK 1CU025 6SC050 A3028=,
20180127_020000.002,0,RJFO,,,,0,20180127020000,-1,-1,-1,-1,20,-1,5,-1,-1,340,60,,9999,0,0,2,FEW 30   SCT 50,1,5,-1,5,1025,RJFO 270200Z 02005KT 340V060 9999 FEW030 SCT050 05/M05 Q1025     RMK 1CU030 3SC050 A3027=,
20180127_030000.002,0,RJFO,,,,0,20180127030000,-1,-1,-1,-1,20,-1,11,-1,-1,-1,-1,,9999,0,0,2,FEW 30   SCT 45,1,6,-1,4,1024,RJFO 270300Z 02011KT 9999 FEW030 SCT045 06/M04 Q1024 RMK     1CU030 3CU045 A3025=,
20180127_040000.002,0,RJFO,,,,0,20180127040000,-1,-1,-1,-1,360,-1,9,-1,-1,310,30,,9999,0,0,2,FEW 40   SCT 50,1,7,-1,5,1023,RJFO 270400Z 36009KT 310V030 9999 FEW040 SCT050 07/M05 Q1023     RMK 1CU040 3SC050 A3023=,
20180127_050000.002,0,RJFO,,,,0,20180127050000,-1,-1,-1,-1,30,-1,11,-1,-1,-1,-1,,9999,0,0,2,FEW 35   BKN 50,1,6,-1,5,1023,RJFO 270500Z 03011KT 9999 FEW035 BKN050 06/M05 Q1023 RMK     1CU035 5SC050 A3022=,
20180127_060000.002,0,RJFO,,,,0,20180127060000,-1,-1,-1,-1,20,-1,6,-1,-1,340,60,,9999,0,0,2,FEW 35   SCT 50,1,6,-1,5,1022,RJFO 270600Z 02006KT 340V060 9999 FEW035 SCT050 06/M05 Q1022     RMK 1CU035 3SC050 A3020=,
20180127_070000.002,0,RJFO,,,,0,20180127070000,-1,-1,-1,-1,30,-1,10,-1,-1,-1,-1,,9999,0,0,2,FEW 35   SCT 45,1,6,-1,3,1022,RJFO 270700Z 03010KT 9999 FEW035 SCT045 06/M03 Q1022 RMK     1CU035 3SC045 A3020=,
20180127_080000.002,0,RJFO,,,,0,20180127080000,-1,-1,-1,-1,360,-1,5,-1,-1,-1,-1,,9999,0,0,2,FEW 35   SCT 50,1,5,-1,4,1023,RJFO 270800Z 36005KT 9999 FEW035 SCT050 05/M04 Q1023 RMK     1CU035 3SC050 A3021=,
20180127_090000.003,0,RJFO,,,,0,20180127090000,-1,-1,-1,-1,330,-1,4,-1,-1,-1,-1,,9999,0,0,1,FEW 30,1,3,-1,4,1023,RJFO 270900Z 33004KT 9999 FEW030 03/M04 Q1023 RMK 1CU030     A3022=,
20180127_100000.002,0,RJFO,,,,0,20180127100000,-1,-1,-1,-1,270,-1,4,-1,-1,-1,-1,,9999,0,0,1,FEW 30,1,0,-1,4,1023,RJFO 271000Z 27004KT 9999 FEW030 00/M04 Q1023 RMK 1CU030     A3021=,
20180127_110000.002,0,RJFO,,,,0,20180127110000,-1,-1,-1,-1,999,-1,2,-1,-1,-1,-1,,9999,0,0,2,FEW 30   SCT -9999,-1,0,-1,5,1023,RJFO 271100Z VRB02KT 9999 FEW030 SCT/// M00/M05 Q1023 RMK     1CU030 A3022=,
20180127_120000.002,0,RJFO,,,,0,20180127120000,-1,-1,-1,-1,260,-1,3,-1,-1,230,290,,9999,0,0,2,FEW 35   SCT -9999,-1,0,-1,4,1022,RJFO 271200Z 26003KT 230V290 9999 FEW035 SCT/// M00/M04 Q1022     RMK 1CU035 A3020=,
20180127_130000.002,0,RJFO,,,,0,20180127130000,-1,-1,-1,-1,999,-1,2,-1,-1,-1,-1,,9999,0,0,3,FEW 35   SCT 130   BKN -9999,-1,1,-1,4,1023,RJFO 271300Z VRB02KT 9999 FEW035 SCT130 BKN/// M01/M04 Q1023     RMK 1CU035 4AC130 A3021=,
20180127_220000.002,0,RJFO,,,,0,20180127220000,-1,-1,-1,-1,270,-1,5,-1,-1,-1,-1,,8000,0,1,3,FEW 15   BKN 25   BKN 50,1,3,1,1,1020,RJFO 272200Z 27005KT 8000 -SHRA FEW015 BKN025 BKN050 03/01     Q1020 RMK 1CU015 5CU025 6SC050 A3013=,- RA SH
20180127_230000.002,0,RJFO,,,,0,20180127230000,-1,-1,-1,-1,280,-1,5,-1,-1,-1,-1,,9999,0,1,2,FEW 15   BKN 40,1,2,1,1,1019,RJFO 272300Z 28005KT 9999 -SHRA FEW015 BKN040 02/01 Q1019 RMK     1CU015 7CU040 A3011=,- RA SH
20180128_000000.003,0,RJFO,,,,0,20180128000000,-1,-1,-1,-1,250,-1,3,-1,-1,230,290,,9999,0,1,3,FEW 20   SCT 40   BKN 50,1,3,1,2,1019,RJFO 280000Z 25003KT 230V290 9999 -SHRA FEW020 SCT040 BKN050     03/02 Q1019 RMK 1CU020 4CU040 6SC050 A3010=,- RA SH
20180128_010000.002,0,RJFO,,,,0,20180128010000,-1,-1,-1,-1,300,-1,3,-1,-1,260,330,,9999,0,1,3,FEW 5   SCT 25   BKN 40,1,4,1,2,1019,RJFO 280100Z 30003KT 260V330 9999 -SHRA FEW005 SCT025 BKN040     04/02 Q1019 RMK 1ST005 4CU025 6CU040 A3010=,- RA SH
20180128_020000.002,0,RJFO,,,,0,20180128020000,-1,-1,-1,-1,230,-1,3,-1,-1,180,250,,9999,0,1,3,FEW 8   BKN 30   BKN 40,1,4,1,3,1018,RJFO 280200Z 23003KT 180V250 9999 -SHRA FEW008 BKN030 BKN040     04/03 Q1018 RMK 1ST008 5CU030 6CU040 A3008=,- RA SH
20180128_030000.002,0,RJFO,,,,0,20180128030000,-1,-1,-1,-1,230,-1,4,-1,-1,200,260,,9999,0,0,3,FEW 15   SCT 35   BKN 50,1,5,1,3,1017,RJFO 280300Z 23004KT 200V260 9999 FEW015 SCT035 BKN050 05/03     Q1017 RMK 1CU015 4CU035 7SC050 A3005=,
20180128_040000.002,0,RJFO,,,,0,20180128040000,-1,-1,-1,-1,210,-1,3,-1,-1,170,240,,9999,0,1,3,FEW 15   SCT 35   BKN 45,1,5,1,3,1016,RJFO 280400Z 21003KT 170V240 9999 -SHRA FEW015 SCT035 BKN045     05/03 Q1016 RMK 1CU015 4CU035 7CU045 A3002=,- RA SH
20180128_050000.002,0,RJFO,,,,0,20180128050000,-1,-1,-1,-1,999,-1,2,-1,-1,-1,-1,,9999,0,1,3,FEW 15   SCT 30   BKN 45,1,6,1,3,1015,RJFO 280500Z VRB02KT 9999 -SHRA FEW015 SCT030 BKN045 06/03     Q1015 RMK 1CU015 4CU030 7CU045 A3000=,- RA SH
20180128_060000.002,0,RJFO,,,,0,20180128060000,-1,-1,-1,-1,120,-1,4,-1,-1,-1,-1,,9999,0,0,3,FEW 20   SCT 30   BKN 40,1,6,1,3,1016,RJFO 280600Z 12004KT 9999 FEW020 SCT030 BKN040 06/03 Q1016 RMK     1CU020 4CU030 7CU040 A3000=,
20180128_070000.003,0,RJFO,,,,0,20180128070000,-1,-1,-1,-1,999,-1,3,-1,-1,-1,-1,,9999,0,1,3,FEW 15   BKN 25   BKN 35,1,7,1,4,1015,RJFO 280700Z VRB03KT 9999 -SHRA FEW015 BKN025 BKN035 07/04     Q1015 RMK 1CU015 5CU025 7CU035 A2999=,- RA SH
20180128_080000.002,0,RJFO,,,,0,20180128080000,-1,-1,-1,-1,10,-1,3,-1,-1,300,40,,9999,0,0,3,FEW 15   SCT 25   BKN 40,1,7,1,3,1015,RJFO 280800Z 01003KT 300V040 9999 FEW015 SCT025 BKN040 07/03     Q1015 RMK 1CU015 3CU025 6CU040 A3000=,
20180128_090000.002,0,RJFO,,,,0,20180128090000,-1,-1,-1,-1,300,-1,3,-1,-1,250,320,,9999,0,0,3,FEW 20   SCT 30   BKN 50,1,6,1,3,1016,RJFO 280900Z 30003KT 250V320 9999 FEW020 SCT030 BKN050 06/03     Q1016 RMK 1CU020 3CU030 6SC050 A3000=,
20180128_100000.002,0,RJFO,,,,0,20180128100000,-1,-1,-1,-1,999,-1,2,-1,-1,-1,-1,,9999,0,0,3,FEW 30   SCT 50   BKN -9999,1,5,1,3,1016,RJFO 281000Z VRB02KT 9999 FEW030 SCT050 BKN/// 05/03 Q1016 RMK     1CU030 3SC050 A3002=,
20180128_110000.002,0,RJFO,,,,0,20180128110000,-1,-1,-1,-1,999,-1,1,-1,-1,-1,-1,,9999,0,0,3,FEW 25   SCT 35   BKN -9999,1,6,1,2,1016,RJFO 281100Z VRB01KT 9999 FEW025 SCT035 BKN/// 06/02 Q1016 RMK     1CU025 3CU035 A3002=,
20180128_120000.002,0,RJFO,,,,0,20180128120000,-1,-1,-1,-1,310,-1,7,-1,-1,-1,-1,,9999,0,0,2,FEW 40   BKN -9999,1,6,1,1,1016,RJFO 281200Z 31007KT 9999 FEW040 BKN/// 06/01 Q1016 RMK 1CU040     A3000=,
20180128_130000.002,0,RJFO,,,,0,20180128130000,-1,-1,-1,-1,280,-1,6,-1,-1,240,320,,9999,0,0,2,FEW 35   BKN -9999,1,6,1,0,1016,RJFO 281300Z 28006KT 240V320 9999 FEW035 BKN/// 06/00 Q1016     RMK 1CU035 A3001=,
20180128_220000.003,0,RJFO,,,,0,20180128220000,-1,-1,-1,-1,999,-1,2,-1,-1,-1,-1,,8000,0,1,3,FEW 15   BKN 25   BKN 40,1,5,1,1,1015,RJFO 282200Z VRB02KT 8000 -SHRA FEW015 BKN025 BKN040 05/01     Q1015 RMK 1CU015 6CU025 7CU040 A2999=,- RA SH
20180128_230000.002,0,RJFO,,,,0,20180128230000,-1,-1,-1,-1,330,-1,8,-1,-1,-1,-1,,6000,0,1,3,FEW 10   BKN 25   BKN 30,1,3,1,0,1016,RJFO 282300Z 33008KT 6000 -SHRA FEW010 BKN025 BKN030 03/00     Q1016 RMK 1CU010 5CU025 6CU030 A3003=,- RA SH
20180129_000000.003,0,RJFO,,,,0,20180129000000,-1,-1,-1,-1,330,-1,9,-1,-1,300,360,,6000,0,1,3,FEW 9   SCT 15   BKN 25,1,2,-1,1,1017,RJFO 290000Z 33009KT 300V360 6000 -SHSN FEW009 SCT015 BKN025     02/M01 Q1017 RMK 1ST009 3CU015 6CU025 A3005=,- SN SH
20180129_010000.002,0,RJFO,,,,0,20180129010000,-1,-1,-1,-1,330,-1,9,-1,-1,-1,-1,,9999,0,0,3,FEW 20   BKN 30   BKN 40,1,3,-1,2,1018,RJFO 290100Z 33009KT 9999 FEW020 BKN030 BKN040 03/M02 Q1018     RMK 1CU020 5CU030 6CU040 A3006=,
20180129_020000.002,0,RJFO,,,,0,20180129020000,-1,-1,-1,-1,340,-1,13,-1,-1,-1,-1,,9999,0,0,3,FEW 20   SCT 30   BKN 40,1,4,-1,3,1018,RJFO 290200Z 34013KT 9999 FEW020 SCT030 BKN040 04/M03 Q1018     RMK 1CU020 4CU030 5CU040 A3007=,
20180129_030000.002,0,RJFO,,,,0,20180129030000,-1,-1,-1,-1,330,-1,11,-1,-1,-1,-1,,9999,0,1,3,FEW 20   SCT 35   BKN 45,1,3,-1,1,1017,RJFO 290300Z 33011KT 9999 -SHSN FEW020 SCT035 BKN045 03/M01     Q1017 RMK 1CU020 4CU035 5CU045 A3005=,- SN SH
20180129_040000.002,0,RJFO,,,,0,20180129040000,-1,-1,-1,-1,300,-1,12,-1,-1,-1,-1,,9999,0,1,3,FEW 15   SCT 25   BKN 35,1,3,-1,2,1017,RJFO 290400Z 30012KT 9999 -SHSN FEW015 SCT025 BKN035 03/M02     Q1017 RMK 1CU015 4CU025 5CU035 A3004 4000NW-NE=,- SN SH
20180129_050000.002,0,RJFO,,,,0,20180129050000,-1,-1,-1,-1,290,-1,13,-1,-1,-1,-1,,9999,0,1,3,FEW 15   SCT 35   BKN 45,1,4,-1,4,1017,RJFO 290500Z 29013KT 9999 VCSH FEW015 SCT035 BKN045 04/M04     Q1017 RMK 1CU015 3CU035 5CU045 A3003=,VC SH
20180129_060000.002,0,RJFO,,,,0,20180129060000,-1,-1,-1,-1,310,-1,12,-1,-1,-1,-1,,9999,0,1,3,FEW 15   SCT 35   BKN 45,1,3,-1,5,1017,RJFO 290600Z 31012KT 9999 -SHSN FEW015 SCT035 BKN045 03/M05     Q1017 RMK 1CU015 4CU035 6CU045 A3004=,- SN SH
20180129_070000.002,0,RJFO,,,,0,20180129070000,-1,-1,-1,-1,310,-1,12,-1,-1,-1,-1,,9999,0,0,3,FEW 15   BKN 35   BKN 45,1,3,-1,5,1017,RJFO 290700Z 31012KT 9999 FEW015 BKN035 BKN045 03/M05 Q1017     RMK 1CU015 5CU035 6CU045 A3005=,
20180129_080000.002,0,RJFO,,,,0,20180129080000,-1,-1,-1,-1,310,-1,8,-1,-1,270,350,,9999,0,1,3,FEW 15   SCT 30   BKN 40,1,2,-1,4,1018,RJFO 290800Z 31008KT 270V350 9999 -SHSN FEW015 SCT030 BKN040     02/M04 Q1018 RMK 1CU015 3CU030 6CU040 A3007=,- SN SH
20180129_090000.002,0,RJFO,,,,0,20180129090000,-1,-1,-1,-1,340,-1,5,-1,-1,260,360,,9999,0,1,3,FEW 15   SCT 30   BKN 40,1,2,-1,3,1018,RJFO 290900Z 34005KT 260V360 9999 -SHSN FEW015 SCT030 BKN040     02/M03 Q1018 RMK 1CU015 3CU030 5CU040 A3009=,- SN SH
20180129_100000.002,0,RJFO,,,,0,20180129100000,-1,-1,-1,-1,10,-1,7,-1,-1,-1,-1,,9999,0,1,3,FEW 7   SCT 20   BKN 25,1,1,-1,1,1019,RJFO 291000Z 01007KT 9999 -SHSN FEW007 SCT020 BKN025 01/M01     Q1019 RMK 1ST007 3CU020 5CU025 A3010=,- SN SH
20180129_110000.002,0,RJFO,,,,0,20180129110000,-1,-1,-1,-1,350,-1,7,-1,-1,320,20,,4500,0,1,3,FEW 10   SCT 15   BKN 25,1,1,-1,1,1019,RJFO 291100Z 35007KT 320V020 4500 -SHSN FEW010 SCT015 BKN025     01/M01 Q1019 RMK 1CU010 3CU015 6CU025 A3012=,- SN SH
20180129_120000.002,0,RJFO,,,,0,20180129120000,-1,-1,-1,-1,340,-1,4,-1,-1,-1,-1,,9999,0,1,3,FEW 5   SCT 15   BKN 25,1,1,-1,1,1019,RJFO 291200Z 34004KT 9999 -SHSN FEW005 SCT015 BKN025 01/M01     Q1019 RMK 1ST005 3CU015 6CU025 A3011=,- SN SH
20180129_130000.002,0,RJFO,,,,0,20180129130000,-1,-1,-1,-1,350,-1,7,-1,-1,-1,-1,,2500,0,1,3,FEW 3   SCT 8   BKN 20,1,0,-1,0,1019,RJFO 291300Z 35007KT 2500 -SHSN FEW003 SCT008 BKN020 00/M00     Q1019 RMK 1ST003 3ST008 6CU020 A3011=,- SN SH
20180129_220000.002,0,RJFO,,,,0,20180129220000,-1,-1,-1,-1,300,-1,3,-1,-1,-1,-1,,9999,0,1,3,FEW 25   SCT 35   BKN 45,1,0,-1,2,1022,RJFO 292200Z 30003KT 9999 -SHSN FEW025 SCT035 BKN045 00/M02     Q1022 RMK 1CU025 4CU035 6CU045 A3018=,- SN SH
20180129_230000.002,0,RJFO,,,,0,20180129230000,-1,-1,-1,-1,290,-1,7,-1,-1,260,340,,9999,0,1,3,FEW 20   SCT 35   BKN 45,1,1,-1,4,1023,RJFO 292300Z 29007KT 260V340 9999 -SHSN FEW020 SCT035 BKN045     01/M04 Q1023 RMK 1CU020 4CU035 6CU045 A3021=,- SN SH
20180130_000000.002,0,RJFO,,,,0,20180130000000,-1,-1,-1,-1,290,-1,7,-1,-1,250,350,,9999,0,1,3,FEW 10   SCT 35   BKN 45,1,1,-1,5,1023,RJFO 300000Z 29007KT 250V350 9999 VCSH FEW010 SCT035 BKN045     01/M05 Q1023 RMK 1ST010 3CU035 5CU045 A3022=,VC SH
20180130_010000.002,0,RJFO,,,,0,20180130010000,-1,-1,-1,-1,320,-1,10,-1,-1,280,340,,9999,0,1,2,FEW 30   SCT 45,1,2,-1,4,1023,RJFO 300100Z 32010KT 280V340 9999 VCSH FEW030 SCT045 02/M04     Q1023 RMK 1CU030 4CU045 A3023=,VC SH
20180130_020000.002,0,RJFO,,,,0,20180130020000,-1,-1,-1,-1,330,-1,6,-1,-1,260,10,,9999,0,1,2,FEW 15   BKN 45,1,3,-1,3,1023,RJFO 300200Z 33006KT 260V010 9999 VCSH FEW015 BKN045 03/M03     Q1023 RMK 1CU015 5CU045 A3022=,VC SH
20180130_030000.002,0,RJFO,,,,0,20180130030000,-1,-1,-1,-1,330,-1,9,-1,-1,-1,-1,,9999,0,1,3,FEW 20   SCT 35   BKN 45,1,3,-1,4,1023,RJFO 300300Z 33009KT 9999 -SHSN FEW020 SCT035 BKN045 03/M04     Q1023 RMK 1CU020 3CU035 6CU045 A3021=,- SN SH
20180130_040000.002,0,RJFO,,,,0,20180130040000,-1,-1,-1,-1,280,-1,11,-1,-1,250,310,,9999,0,0,2,FEW 25   BKN 40,1,5,-1,5,1022,RJFO 300400Z 28011KT 250V310 9999 FEW025 BKN040 05/M05 Q1022     RMK 1CU025 6CU040 A3018=,
20180130_050000.002,0,RJFO,,,,0,20180130050000,-1,-1,-1,-1,300,-1,10,-1,20,260,340,,9999,0,0,2,FEW 25   SCT 45,1,4,-1,6,1021,RJFO 300500Z 30010G20KT 260V340 9999 FEW025 SCT045 04/M06     Q1021 RMK 1CU025 4CU045 A3017=,
20180130_060000.003,0,RJFO,,,,0,20180130060000,-1,-1,-1,-1,290,-1,13,-1,-1,250,320,,9999,0,0,2,FEW 30   SCT 45,1,5,-1,6,1022,RJFO 300600Z 29013KT 250V320 9999 FEW030 SCT045 05/M06 Q1022     RMK 1CU030 4CU045 A3018=,
20180130_070000.002,0,RJFO,,,,0,20180130070000,-1,-1,-1,-1,280,-1,10,-1,-1,250,360,,9999,0,0,2,FEW 30   BKN 45,1,5,-1,6,1022,RJFO 300700Z 28010KT 250V360 9999 FEW030 BKN045 05/M06 Q1022     RMK 1CU030 5CU045 A3020=,
20180130_080000.002,0,RJFO,,,,0,20180130080000,-1,-1,-1,-1,310,-1,9,-1,-1,270,340,,9999,0,0,2,FEW 25   BKN 45,1,4,-1,5,1023,RJFO 300800Z 31009KT 270V340 9999 FEW025 BKN045 04/M05 Q1023     RMK 1CU025 6CU045 A3023=,
20180130_090000.002,0,RJFO,,,,0,20180130090000,-1,-1,-1,-1,320,-1,6,-1,-1,-1,-1,,9999,0,0,1,FEW 30,1,3,-1,4,1024,RJFO 300900Z 32006KT 9999 FEW030 03/M04 Q1024 RMK 1CU030     A3026=,
20180130_100000.002,0,RJFO,,,,0,20180130100000,-1,-1,-1,-1,330,-1,3,-1,-1,-1,-1,,9999,0,0,1,FEW 30,1,1,-1,5,1024,RJFO 301000Z 33003KT 9999 FEW030 01/M05 Q1024 RMK 1CU030     A3026=,
20180130_110000.002,0,RJFO,,,,0,20180130110000,-1,-1,-1,-1,270,-1,4,-1,-1,-1,-1,,9999,0,0,1,FEW 30,1,0,-1,4,1025,RJFO 301100Z 27004KT 9999 FEW030 00/M04 Q1025 RMK 1CU030     A3027=,
20180130_120000.002,0,RJFO,,,,0,20180130120000,-1,-1,-1,-1,280,-1,5,-1,-1,-1,-1,,9999,0,0,1,FEW 30,1,1,-1,5,1025,RJFO 301200Z 28005KT 9999 FEW030 01/M05 Q1025 RMK 1CU030     A3028=,
20180130_130000.002,0,RJFO,,,,0,20180130130000,-1,-1,-1,-1,280,-1,4,-1,-1,-1,-1,,9999,0,0,1,FEW 30,1,2,-1,6,1026,RJFO 301300Z 28004KT 9999 FEW030 02/M06 Q1026 RMK 1CU030     A3030=,
20180130_220000.002,0,RJFO,,,,0,20180130220000,-1,-1,-1,-1,270,-1,5,-1,-1,-1,-1,,9999,0,0,2,FEW 30   SCT -9999,1,0,-1,5,1027,RJFO 302200Z 27005KT 9999 FEW030 SCT/// 00/M05 Q1027 RMK     1CU030 A3034=,
20180130_230000.002,0,RJFO,,,,0,20180130230000,-1,-1,-1,-1,250,-1,4,-1,-1,200,300,,9999,0,0,2,FEW 20   BKN -9999,1,1,-1,4,1027,RJFO 302300Z 25004KT 200V300 9999 FEW020 BKN/// 01/M04 Q1027     RMK 1CU020 A3034=,
20180131_000000.002,0,RJFO,,,,0,20180131000000,-1,-1,-1,-1,280,-1,4,-1,-1,-1,-1,,9999,0,0,2,FEW 20   BKN -9999,1,3,-1,3,1027,RJFO 310000Z 28004KT 9999 FEW020 BKN/// 03/M03 Q1027 RMK     1CU020 A3034=,
20180131_010000.002,0,RJFO,,,,0,20180131010000,-1,-1,-1,-1,200,-1,3,-1,-1,170,230,,9999,0,0,2,FEW 20   BKN -9999,1,4,-1,4,1027,RJFO 310100Z 20003KT 170V230 9999 FEW020 BKN/// 04/M04 Q1027     RMK 1CU020 A3035=,
20180131_020000.002,0,RJFO,,,,0,20180131020000,-1,-1,-1,-1,50,-1,5,-1,-1,20,90,,9999,0,0,2,FEW 20   BKN -9999,1,5,-1,3,1027,RJFO 310200Z 05005KT 020V090 9999 FEW020 BKN/// 05/M03 Q1027     RMK 1CU020 A3034=,
20180131_030000.002,0,RJFO,,,,0,20180131030000,-1,-1,-1,-1,50,-1,7,-1,-1,-1,-1,,9999,0,0,2,FEW 30   BKN -9999,1,6,-1,2,1026,RJFO 310300Z 05007KT 9999 FEW030 BKN/// 06/M02 Q1026 RMK     1CU030 A3031=,
20180131_040000.002,0,RJFO,,,,0,20180131040000,-1,-1,-1,-1,50,-1,7,-1,-1,-1,-1,,9999,0,0,2,FEW 30   BKN -9999,1,7,-1,2,1025,RJFO 310400Z 05007KT 9999 FEW030 BKN/// 07/M02 Q1025 RMK     1CU030 A3027=,
20180131_050000.002,0,RJFO,,,,0,20180131050000,-1,-1,-1,-1,70,-1,6,-1,-1,-1,-1,,9999,0,0,2,FEW 30   BKN -9999,1,6,-1,2,1024,RJFO 310500Z 07006KT 9999 FEW030 BKN/// 06/M02 Q1024 RMK     1CU030 A3025=,
20180131_060000.002,0,RJFO,,,,0,20180131060000,-1,-1,-1,-1,60,-1,6,-1,-1,350,80,,9999,0,0,3,FEW 20   SCT 130   BKN -9999,1,6,-1,1,1024,RJFO 310600Z 06006KT 350V080 9999 FEW020 SCT130 BKN/// 06/M01     Q1024 RMK 1CU020 3AC130 A3025=,
20180131_070000.003,0,RJFO,,,,0,20180131070000,-1,-1,-1,-1,40,-1,6,-1,-1,-1,-1,,9999,0,0,1,FEW 25,1,6,-1,2,1024,RJFO 310700Z 04006KT 9999 FEW025 06/M02 Q1024 RMK 1CU025     A3025=,
20180131_080000.003,0,RJFO,,,,0,20180131080000,-1,-1,-1,-1,20,-1,7,-1,-1,-1,-1,,9999,0,0,2,FEW 20   BKN 120,1,6,-1,1,1024,RJFO 310800Z 02007KT 9999 FEW020 BKN120 06/M01 Q1024 RMK     1CU020 5AC120 A3024=,
20180131_090000.002,0,RJFO,,,,0,20180131090000,-1,-1,-1,-1,340,-1,4,-1,-1,-1,-1,,9999,0,0,3,FEW 20   SCT 120   BKN -9999,1,5,-1,2,1024,RJFO 310900Z 34004KT 9999 FEW020 SCT120 BKN/// 05/M02 Q1024     RMK 1CU020 3AC120 A3026=,
20180131_100000.002,0,RJFO,,,,0,20180131100000,-1,-1,-1,-1,270,-1,3,-1,-1,240,310,,9999,0,0,3,FEW 30   SCT 140   BKN 160,1,3,-1,1,1024,RJFO 311000Z 27003KT 240V310 9999 FEW030 SCT140 BKN160 03/M01     Q1024 RMK 1CU030 3AC140 7AC160 A3025=,
20180131_110000.002,0,RJFO,,,,0,20180131110000,-1,-1,-1,-1,250,-1,3,-1,-1,220,280,,9999,0,0,3,FEW 30   BKN 140   BKN -9999,1,3,-1,1,1024,RJFO 311100Z 25003KT 220V280 9999 FEW030 BKN140 BKN/// 03/M01     Q1024 RMK 1CU030 5AC140 A3024=,
20180131_120000.002,0,RJFO,,,,0,20180131120000,-1,-1,-1,-1,260,-1,3,-1,-1,240,300,,9999,0,0,3,FEW 30   BKN 100   BKN -9999,1,3,-1,1,1024,RJFO 311200Z 26003KT 240V300 9999 FEW030 BKN100 BKN/// 03/M01     Q1024 RMK 1CU030 5AC100 A3025=,
20180131_130000.003,0,RJFO,,,,0,20180131130000,-1,-1,-1,-1,250,-1,3,-1,-1,-1,-1,,9999,0,0,3,FEW 30   BKN 90   BKN 120,1,4,-1,0,1024,RJFO 311300Z 25003KT 9999 FEW030 BKN090 BKN120 04/M00 Q1024     RMK 1CU030 6AC090 7AC120 A3024=,
20180131_220000.002,0,RJFO,,,,0,20180131220000,-1,-1,-1,-1,310,-1,4,-1,-1,-1,-1,,8000,0,1,3,FEW 7   SCT 10   BKN 15,1,3,1,2,1024,RJFO 312200Z 31004KT 8000 -SHRA FEW007 SCT010 BKN015 03/02     Q1024 RMK 1ST007 4CU010 6CU015 A3026=,- RA SH
20180131_230000.002,0,RJFO,,,,0,20180131230000,-1,-1,-1,-1,310,-1,4,-1,-1,-1,-1,,8000,0,1,3,FEW 7   BKN 10   BKN 15,1,3,1,2,1024,RJFO 312300Z 31004KT 8000 -SHRA FEW007 BKN010 BKN015 03/02     Q1024 RMK 1ST007 5CU010 6CU015 A3026=,- RA SH
20180201_000000.003,0,RJFO,,,,0,20180201000000,-1,-1,-1,-1,320,-1,5,-1,-1,-1,-1,,9999,0,1,3,FEW 7   SCT 15   BKN 20,1,3,1,2,1024,RJFO 010000Z 32005KT 9999 -SHRA FEW007 SCT015 BKN020 03/02     Q1024 RMK 1ST007 3CU015 5CU020 A3026=,- RA SH
20180201_010000.002,0,RJFO,,,,0,20180201010000,-1,-1,-1,-1,330,-1,6,-1,-1,-1,-1,,9999,0,1,3,FEW 7   SCT 15   BKN 20,1,4,1,3,1024,RJFO 010100Z 33006KT 9999 -SHRA FEW007 SCT015 BKN020 04/03     Q1024 RMK 1ST007 4CU015 6CU020 A3026=,- RA SH
20180201_020000.002,0,RJFO,,,,0,20180201020000,-1,-1,-1,-1,350,-1,6,-1,-1,-1,-1,,9999,0,1,3,FEW 6   SCT 15   BKN 20,1,4,1,2,1024,RJFO 010200Z 35006KT 9999 -SHRA FEW006 SCT015 BKN020 04/02     Q1024 RMK 1ST006 3CU015 6CU020 A3025=,- RA SH
20180201_030000.003,0,RJFO,,,,0,20180201030000,-1,-1,-1,-1,350,-1,9,-1,-1,-1,-1,,9999,0,1,3,FEW 6   SCT 10   BKN 15,1,5,1,2,1023,RJFO 010300Z 35009KT 9999 -SHRA FEW006 SCT010 BKN015 05/02     Q1023 RMK 1ST006 3CU010 6CU015 A3022=,- RA SH
20180201_040000.003,0,RJFO,,,,0,20180201040000,-1,-1,-1,-1,350,-1,9,-1,-1,-1,-1,,9999,0,0,3,FEW 9   SCT 15   BKN 25,1,5,1,3,1023,RJFO 010400Z 35009KT 9999 FEW009 SCT015 BKN025 05/03 Q1023 RMK     1ST009 3CU015 6CU025 A3021=,
20180201_050000.002,0,RJFO,,,,0,20180201050000,-1,-1,-1,-1,10,-1,10,-1,-1,-1,-1,,9999,0,0,3,FEW 10   SCT 15   BKN 25,1,5,1,2,1022,RJFO 010500Z 01010KT 9999 FEW010 SCT015 BKN025 05/02 Q1022 RMK     1CU010 4CU015 6CU025 A3020=,
20180201_060000.002,0,RJFO,,,,0,20180201060000,-1,-1,-1,-1,360,-1,10,-1,-1,-1,-1,,9999,0,0,3,FEW 15   SCT 20   BKN 80,1,6,1,2,1022,RJFO 010600Z 36010KT 9999 FEW015 SCT020 BKN080 06/02 Q1022 RMK     1CU015 4CU020 5AC080 A3020=,
20180201_070000.002,0,RJFO,,,,0,20180201070000,-1,-1,-1,-1,10,-1,9,-1,-1,-1,-1,,9999,0,0,2,FEW 20   SCT 30,1,6,1,0,1022,RJFO 010700Z 01009KT 9999 FEW020 SCT030 06/00 Q1022 RMK 1CU020     3CU030 A3021=,
20180201_080000.002,0,RJFO,,,,0,20180201080000,-1,-1,-1,-1,350,-1,6,-1,-1,-1,-1,,9999,0,0,2,FEW 20   SCT -9999,1,6,1,1,1023,RJFO 010800Z 35006KT 9999 FEW020 SCT/// 06/01 Q1023 RMK 1CU020     A3022=,
20180201_090000.002,0,RJFO,,,,0,20180201090000,-1,-1,-1,-1,340,-1,3,-1,-1,-1,-1,,9999,0,0,2,FEW 25   BKN -9999,1,4,1,1,1023,RJFO 010900Z 34003KT 9999 FEW025 BKN/// 04/01 Q1023 RMK 1CU025     A3023=,
20180201_100000.002,0,RJFO,,,,0,20180201100000,-1,-1,-1,-1,280,-1,3,-1,-1,-1,-1,,9999,0,0,2,FEW 30   SCT -9999,1,3,1,1,1024,RJFO 011000Z 28003KT 9999 FEW030 SCT/// 03/01 Q1024 RMK 1CU030     A3025=,
20180201_110000.002,0,RJFO,,,,0,20180201110000,-1,-1,-1,-1,270,-1,5,-1,-1,-1,-1,,9999,0,0,2,FEW 30   BKN 40,1,4,1,1,1024,RJFO 011100Z 27005KT 9999 FEW030 BKN040 04/01 Q1024 RMK 1CU030     6CU040 A3025=,
20180201_120000.002,0,RJFO,,,,0,20180201120000,-1,-1,-1,-1,250,-1,4,-1,-1,-1,-1,,9999,0,0,2,FEW 20   SCT -9999,1,1,-1,1,1024,RJFO 011200Z 25004KT 9999 FEW020 SCT/// 01/M01 Q1024 RMK     1CU020 A3025=,
20180201_130000.002,0,RJFO,,,,0,20180201130000,-1,-1,-1,-1,250,-1,4,-1,-1,-1,-1,,9999,0,0,2,FEW 20   SCT -9999,1,0,-1,0,1024,RJFO 011300Z 25004KT 9999 FEW020 SCT/// 00/M00 Q1024 RMK     1CU020 A3026=,
20180201_220000.002,0,RJFO,,,,0,20180201220000,-1,-1,-1,-1,270,-1,5,-1,-1,-1,-1,,9999,0,0,1,FEW 30,1,3,1,0,1023,RJFO 012200Z 27005KT 9999 FEW030 03/00 Q1023 RMK 1CU030 A3023=,
20180201_230000.003,0,RJFO,,,,0,20180201230000,-1,-1,-1,-1,280,-1,6,-1,-1,-1,-1,,9999,0,0,2,FEW 30   BKN -9999,1,3,1,1,1024,RJFO 012300Z 28006KT 9999 FEW030 BKN/// 03/01 Q1024 RMK 1CU030     A3024=,
20180202_000000.002,0,RJFO,,,,0,20180202000000,-1,-1,-1,-1,280,-1,5,-1,-1,-1,-1,,9999,0,0,2,FEW 25   BKN -9999,1,5,1,2,1024,RJFO 020000Z 28005KT 9999 FEW025 BKN/// 05/02 Q1024 RMK 1CU025     A3025=,
20180202_010000.002,0,RJFO,,,,0,20180202010000,-1,-1,-1,-1,240,-1,6,-1,-1,-1,-1,,9999,0,0,2,FEW 25   BKN -9999,1,7,1,2,1025,RJFO 020100Z 24006KT 9999 FEW025 BKN/// 07/02 Q1025 RMK 1CU025     A3027=,
20180202_020000.002,0,RJFO,,,,0,20180202020000,-1,-1,-1,-1,250,-1,5,-1,-1,190,10,,9999,0,0,2,FEW 25   BKN -9999,1,7,1,2,1024,RJFO 020200Z 25005KT 190V010 9999 FEW025 BKN/// 07/02 Q1024     RMK 1CU025 A3026=,
20180202_030000.002,0,RJFO,,,,0,20180202030000,-1,-1,-1,-1,80,-1,4,-1,-1,-1,-1,,9999,0,0,3,FEW 20   SCT 30   BKN -9999,1,7,1,2,1023,RJFO 020300Z 08004KT 9999 FEW020 SCT030 BKN/// 07/02 Q1023 RMK     1CU020 4CU030 A3023=,
20180202_040000.002,0,RJFO,,,,0,20180202040000,-1,-1,-1,-1,90,-1,4,-1,-1,50,120,,9999,0,0,3,FEW 30   BKN 40   BKN -9999,1,8,1,2,1022,RJFO 020400Z 09004KT 050V120 9999 FEW030 BKN040 BKN/// 08/02     Q1022 RMK 1CU030 5CU040 A3020=,
20180202_050000.001,0,RJFO,,,,0,20180202050000,-1,-1,-1,-1,60,-1,7,-1,-1,-1,-1,,9999,0,0,3,FEW 30   SCT 50   BKN -9999,1,8,1,2,1022,RJFO 020500Z 06007KT 9999 FEW030 SCT050 BKN/// 08/02 Q1022 RMK     1CU030 3SC050 A3019=,
20180202_060000.002,0,RJFO,,,,0,20180202060000,-1,-1,-1,-1,60,-1,6,-1,-1,-1,-1,,9999,0,0,2,FEW 35   BKN -9999,1,8,1,3,1022,RJFO 020600Z 06006KT 9999 FEW035 BKN/// 08/03 Q1022 RMK 1CU035     A3018=,
20180202_070000.002,0,RJFO,,,,0,20180202070000,-1,-1,-1,-1,70,-1,4,-1,-1,-1,-1,,9999,0,0,3,FEW 40   SCT 50   BKN -9999,1,8,1,3,1021,RJFO 020700Z 07004KT 9999 FEW040 SCT050 BKN/// 08/03 Q1021 RMK     1CU040 4SC050 A3017=,
20180202_080000.002,0,RJFO,,,,0,20180202080000,-1,-1,-1,-1,110,-1,5,-1,-1,-1,-1,,9999,0,0,3,FEW 25   BKN 45   BKN -9999,1,8,1,3,1021,RJFO 020800Z 11005KT 9999 FEW025 BKN045 BKN/// 08/03 Q1021 RMK     1CU025 5CU045 A3017=,
20180202_090000.002,0,RJFO,,,,0,20180202090000,-1,-1,-1,-1,310,-1,3,-1,-1,270,340,,9999,0,0,3,FEW 25   SCT 50   BKN -9999,1,7,1,3,1021,RJFO 020900Z 31003KT 270V340 9999 FEW025 SCT050 BKN/// 07/03     Q1021 RMK 1CU025 3SC050 A3017=,
20180202_100000.003,0,RJFO,,,,0,20180202100000,-1,-1,-1,-1,290,-1,4,-1,-1,250,330,,9999,0,0,3,FEW 30   SCT 50   BKN 170,1,6,1,2,1021,RJFO 021000Z 29004KT 250V330 9999 FEW030 SCT050 BKN170 06/02     Q1021 RMK 1CU030 3SC050 6AC170 A3018=,
20180202_110000.002,0,RJFO,,,,0,20180202110000,-1,-1,-1,-1,310,-1,6,-1,-1,290,350,,9999,0,0,2,FEW 50   SCT -9999,1,6,1,3,1021,RJFO 021100Z 31006KT 290V350 9999 FEW050 SCT/// 06/03 Q1021     RMK 1SC050 A3017=,
20180202_120000.002,0,RJFO,,,,0,20180202120000,-1,-1,-1,-1,290,-1,7,-1,-1,-1,-1,,9999,0,0,2,FEW 25   BKN 45,1,6,1,4,1021,RJFO 021200Z 29007KT 9999 FEW025 BKN045 06/04 Q1021 RMK 1CU025     5CU045 A3018=,
20180202_130000.003,0,RJFO,,,,0,20180202130000,-1,-1,-1,-1,270,-1,5,-1,-1,250,320,,9999,0,0,3,FEW 15   SCT 25   BKN 35,1,6,1,4,1022,RJFO 021300Z 27005KT 250V320 9999 FEW015 SCT025 BKN035 06/04     Q1022 RMK 1CU015 3CU025 6CU035 A3018=,
20180202_220000.002,0,RJFO,,,,0,20180202220000,-1,-1,-1,-1,300,-1,8,-1,-1,-1,-1,,9999,0,0,3,FEW 15   SCT 30   BKN 50,1,4,1,1,1021,RJFO 022200Z 30008KT 9999 FEW015 SCT030 BKN050 04/01 Q1021 RMK     1CU015 3CU030 5SC050 A3016=,
20180202_230000.003,0,RJFO,,,,0,20180202230000,-1,-1,-1,-1,310,-1,8,-1,-1,280,350,,9999,0,0,3,FEW 20   SCT 30   BKN -9999,1,5,1,1,1021,RJFO 022300Z 31008KT 280V350 9999 FEW020 SCT030 BKN/// 05/01     Q1021 RMK 1CU020 4CU030 A3016=,
20180203_000000.002,0,RJFO,,,,0,20180203000000,-1,-1,-1,-1,310,-1,6,-1,-1,-1,-1,,9999,0,0,2,FEW 30   BKN -9999,1,5,1,2,1021,RJFO 030000Z 31006KT 9999 FEW030 BKN/// 05/02 Q1021 RMK 2CU030     A3017=,
20180203_010000.003,0,RJFO,,,,0,20180203010000,-1,-1,-1,-1,310,-1,10,-1,-1,-1,-1,,9999,0,0,2,FEW 20   BKN -9999,1,7,1,0,1021,RJFO 030100Z 31010KT 9999 FEW020 BKN/// 07/00 Q1021 RMK 2CU020     A3016=,
20180203_020000.002,0,RJFO,,,,0,20180203020000,-1,-1,-1,-1,310,-1,9,-1,-1,270,360,,9999,0,0,2,FEW 25   BKN -9999,1,8,-1,2,1020,RJFO 030200Z 31009KT 270V360 9999 FEW025 BKN/// 08/M02 Q1020     RMK 1CU025 A3015=,
20180203_030000.002,0,RJFO,,,,0,20180203030000,-1,-1,-1,-1,330,-1,11,-1,-1,290,360,,9999,0,0,3,FEW 25   SCT 50   BKN 60,1,8,-1,3,1020,RJFO 030300Z 33011KT 290V360 9999 FEW025 SCT050 BKN060 08/M03     Q1020 RMK 1CU025 4SC050 6SC060 A3013=,
20180203_040000.002,0,RJFO,,,,0,20180203040000,-1,-1,-1,-1,280,-1,10,-1,-1,220,330,,9999,0,0,3,FEW 30   SCT 50   BKN -9999,1,9,-1,3,1019,RJFO 030400Z 28010KT 220V330 9999 FEW030 SCT050 BKN/// 09/M03     Q1019 RMK 1CU030 4SC050 A3011=,
20180203_050000.002,0,RJFO,,,,0,20180203050000,-1,-1,-1,-1,330,-1,11,-1,-1,290,360,,9999,0,1,3,FEW 15   SCT 30   BKN 40,1,8,-1,3,1019,RJFO 030500Z 33011KT 290V360 9999 VCSH FEW015 SCT030 BKN040     08/M03 Q1019 RMK 1CU015 4CU030 6CU040 A3011=,VC SH
20180203_060000.002,0,RJFO,,,,0,20180203060000,-1,-1,-1,-1,300,-1,12,-1,-1,270,330,,9999,0,0,3,FEW 30   SCT 50   BKN 60,1,8,-1,4,1019,RJFO 030600Z 30012KT 270V330 9999 FEW030 SCT050 BKN060 08/M04     Q1019 RMK 1CU030 4SC050 6SC060 A3011=,
20180203_070000.003,0,RJFO,,,,0,20180203070000,-1,-1,-1,-1,310,-1,10,-1,-1,270,340,,9999,0,1,3,FEW 30   SCT 40   BKN 70,1,7,-1,3,1019,RJFO 030700Z 31010KT 270V340 9999 VCSH FEW030 SCT040 BKN070     07/M03 Q1019 RMK 1CU030 3CU040 5AC070 A3011=,VC SH
20180203_080000.002,0,RJFO,,,,0,20180203080000,-1,-1,-1,-1,310,-1,12,-1,23,270,330,,9999,0,1,3,FEW 15   SCT 35   BKN 45,1,5,-1,2,1019,RJFO 030800Z 31012G23KT 270V330 9999 VCSH FEW015 SCT035 BKN045     05/M02 Q1019 RMK 1CU015 3CU035 5CU045 A3012=,VC SH
20180203_090000.002,0,RJFO,,,,0,20180203090000,-1,-1,-1,-1,300,-1,9,-1,-1,-1,-1,,9999,0,0,2,FEW 20   SCT 60,1,4,-1,3,1020,RJFO 030900Z 30009KT 9999 FEW020 SCT060 04/M03 Q1020 RMK     1CU020 4SC060 A3013=,
20180203_100000.002,0,RJFO,,,,0,20180203100000,-1,-1,-1,-1,290,-1,8,-1,-1,-1,-1,,9999,0,0,2,FEW 30   SCT 60,1,3,-1,6,1020,RJFO 031000Z 29008KT 9999 FEW030 SCT060 03/M06 Q1020 RMK     1CU030 3SC060 A3014=,
20180203_110000.002,0,RJFO,,,,0,20180203110000,-1,-1,-1,-1,280,-1,10,-1,-1,-1,-1,,9999,0,0,2,FEW 30   SCT 50,1,3,-1,6,1020,RJFO 031100Z 28010KT 9999 FEW030 SCT050 03/M06 Q1020 RMK     1CU030 3SC050 A3013=,
20180203_120000.002,0,RJFO,,,,0,20180203120000,-1,-1,-1,-1,270,-1,6,-1,-1,-1,-1,,9999,0,0,2,FEW 30   SCT 50,1,3,-1,7,1021,RJFO 031200Z 27006KT 9999 FEW030 SCT050 03/M07 Q1021 RMK     1CU030 3SC050 A3016=,
20180203_130000.002,0,RJFO,,,,0,20180203130000,-1,-1,-1,-1,240,-1,4,-1,-1,220,280,,9999,0,0,2,FEW 35   SCT 50,1,2,-1,6,1021,RJFO 031300Z 24004KT 220V280 9999 FEW035 SCT050 02/M06 Q1021     RMK 1CU035 4SC050 A3016=,
20180203_220000.002,0,RJFO,,,,0,20180203220000,-1,-1,-1,-1,280,-1,12,-1,-1,240,310,,9999,0,1,3,FEW 10   SCT 20   BKN 35,1,0,-1,7,1022,RJFO 032200Z 28012KT 240V310 9999 -SHSN FEW010 SCT020 BKN035     00/M07 Q1022 RMK 1CU010 4CU020 6CU035 A3018=,- SN SH
20180203_230000.002,0,RJFO,,,,0,20180203230000,-1,-1,-1,-1,290,-1,11,-1,21,250,320,,9999,0,1,3,FEW 15   SCT 20   BKN 50,1,0,-1,8,1022,RJFO 032300Z 29011G21KT 250V320 9999 VCSH FEW015 SCT020 BKN050     00/M08 Q1022 RMK 1CU015 3CU020 5SC050 A3019=,VC SH
20180204_000000.002,0,RJFO,,,,0,20180204000000,-1,-1,-1,-1,300,-1,14,-1,24,270,330,,9999,0,1,2,FEW 10   SCT 30,1,1,-1,8,1022,RJFO 040000Z 30014G24KT 270V330 9999 VCSH FEW010 SCT030 01/M08     Q1022 RMK 1CU010 3CU030 A3019=,VC SH
20180204_010000.002,0,RJFO,,,,0,20180204010000,-1,-1,-1,-1,310,-1,14,-1,-1,270,330,,2000,0,1,3,FEW 10   SCT 30   BKN 40,1,1,-1,5,1022,RJFO 040100Z 31014KT 270V330 2000 -SHSN FEW010 SCT030 BKN040     01/M05 Q1022 RMK 1CU010 4CU030 5CU040 A3019 9999SE-SW=,- SN SH
20180204_020000.002,0,RJFO,,,,0,20180204020000,-1,-1,-1,-1,300,-1,13,-1,-1,-1,-1,,9999,0,1,3,FEW 10   SCT 20   BKN 30,1,2,-1,6,1022,RJFO 040200Z 30013KT 9999 -SHSN FEW010 SCT020 BKN030 02/M06     Q1022 RMK 1CU010 3CU020 5CU030 A3018=,- SN SH
20180204_030000.002,0,RJFO,,,,0,20180204030000,-1,-1,-1,-1,290,-1,13,-1,23,250,330,,9999,0,1,3,FEW 10   BKN 30   BKN 40,1,2,-1,7,1021,RJFO 040300Z 29013G23KT 250V330 9999 -SHSN FEW010 BKN030     BKN040 02/M07 Q1021 RMK 1CU010 5CU030 6CU040 A3016=,- SN SH
20180204_040000.002,0,RJFO,,,,0,20180204040000,-1,-1,-1,-1,280,-1,14,-1,25,-1,-1,,9999,0,1,3,FEW 15   SCT 30   BKN 40,1,2,-1,8,1021,RJFO 040400Z 28014G25KT 9999 -SHSN FEW015 SCT030 BKN040 02/M08     Q1021 RMK 1CU015 4CU030 6CU040 A3015=,- SN SH
20180204_050000.002,0,RJFO,,,,0,20180204050000,-1,-1,-1,-1,320,-1,14,-1,-1,270,350,,9999,0,1,3,FEW 7   SCT 20   BKN 30,1,1,-1,5,1021,RJFO 040500Z 32014KT 270V350 9999 -SHSN FEW007 SCT020 BKN030     01/M05 Q1021 RMK 1ST007 4CU020 6CU030 A3015 3000N=,- SN SH
20180204_060000.002,0,RJFO,,,,0,20180204060000,-1,-1,-1,-1,300,-1,16,-1,-1,260,330,,9999,0,1,3,FEW 10   SCT 35   BKN 45,1,2,-1,7,1021,RJFO 040600Z 30016KT 260V330 9999 VCSH FEW010 SCT035 BKN045     02/M07 Q1021 RMK 1CU010 3CU035 5CU045 A3015=,VC SH
20180204_070000.002,0,RJFO,,,,0,20180204070000,-1,-1,-1,-1,310,-1,14,-1,-1,-1,-1,,9999,0,1,3,FEW 8   SCT 30   BKN 40,1,1,-1,6,1021,RJFO 040700Z 31014KT 9999 VCSH FEW008 SCT030 BKN040 01/M06     Q1021 RMK 1ST008 3CU030 5CU040 A3015=,VC SH
20180204_080000.002,0,RJFO,,,,0,20180204080000,-1,-1,-1,-1,300,-1,15,-1,-1,260,320,,9999,0,1,3,FEW 20   SCT 35   BKN 45,1,0,-1,5,1021,RJFO 040800Z 30015KT 260V320 9999 -SHSN FEW020 SCT035 BKN045     00/M05 Q1021 RMK 1CU020 4CU035 5CU045 A3016=,- SN SH
20180204_090000.002,0,RJFO,,,,0,20180204090000,-1,-1,-1,-1,280,-1,10,-1,-1,-1,-1,,9999,0,0,3,FEW 15   SCT 35   BKN 45,-1,0,-1,6,1022,RJFO 040900Z 28010KT 9999 FEW015 SCT035 BKN045 M00/M06 Q1022     RMK 1CU015 3CU035 5CU045 A3018=,
20180204_100000.002,0,RJFO,,,,0,20180204100000,-1,-1,-1,-1,300,-1,9,-1,-1,-1,-1,,9999,0,1,2,FEW 20   SCT 35,-1,1,-1,7,1022,RJFO 041000Z 30009KT 9999 VCSH FEW020 SCT035 M01/M07 Q1022 RMK     1CU020 3CU035 A3018=,VC SH
20180204_110000.003,0,RJFO,,,,0,20180204110000,-1,-1,-1,-1,280,-1,4,-1,-1,230,320,,9999,0,1,2,FEW 35   SCT 45,-1,1,-1,8,1022,RJFO 041100Z 28004KT 230V320 9999 VCSH FEW035 SCT045 M01/M08     Q1022 RMK 1CU035 4CU045 A3021=,VC SH
20180204_120000.002,0,RJFO,,,,0,20180204120000,-1,-1,-1,-1,999,-1,2,-1,-1,-1,-1,,9999,0,1,2,FEW 30   SCT 45,-1,1,-1,8,1022,RJFO 041200Z VRB02KT 9999 VCSH FEW030 SCT045 M01/M08 Q1022 RMK     1CU030 3CU045 A3020=,VC SH
20180204_130000.002,0,RJFO,,,,0,20180204130000,-1,-1,-1,-1,250,-1,5,-1,-1,210,280,,9999,0,1,2,FEW 35   SCT 45,-1,1,-1,8,1022,RJFO 041300Z 25005KT 210V280 9999 VCSH FEW035 SCT045 M01/M08     Q1022 RMK 1CU035 3CU045 A3019=,VC SH
20180204_220000.002,0,RJFO,,,,0,20180204220000,-1,-1,-1,-1,290,-1,10,-1,-1,-1,-1,,9999,0,0,3,FEW 7   SCT 20   BKN 40,-1,1,-1,8,1023,RJFO 042200Z 29010KT 9999 FEW007 SCT020 BKN040 M01/M08 Q1023     RMK 1ST007 3CU020 6CU040 A3021=,
20180204_230000.002,0,RJFO,,,,0,20180204230000,-1,-1,-1,-1,290,-1,9,-1,-1,250,310,,9999,0,1,3,FEW 5   SCT 20   BKN 25,-1,1,-1,8,1023,RJFO 042300Z 29009KT 250V310 9999 -SHSN FEW005 SCT020 BKN025     M01/M08 Q1023 RMK 1ST005 4CU020 6CU025 A3021=,- SN SH
20180205_000000.003,0,RJFO,,,,0,20180205000000,-1,-1,-1,-1,290,-1,12,-1,-1,250,310,,9999,0,1,2,FEW 5   BKN 35,-1,0,-1,8,1023,RJFO 050000Z 29012KT 250V310 9999 -SHSN FEW005 BKN035 M00/M08     Q1023 RMK 1ST005 5CU035 A3021 4000SW=,- SN SH
20180205_010000.002,0,RJFO,,,,0,20180205010000,-1,-1,-1,-1,270,-1,16,-1,26,-1,-1,,9999,0,1,3,FEW 5   SCT 20   BKN 40,1,1,-1,8,1022,RJFO 050100Z 27016G26KT 9999 -SHSN FEW005 SCT020 BKN040 01/M08     Q1022 RMK 1ST005 3CU020 6CU040 A3021 4000SW=,- SN SH
20180205_020000.002,0,RJFO,,,,0,20180205020000,-1,-1,-1,-1,290,-1,15,-1,-1,250,330,,9999,0,1,3,FEW 5   SCT 25   BKN 40,1,2,-1,9,1022,RJFO 050200Z 29015KT 250V330 9999 -SHSN FEW005 SCT025 BKN040     02/M09 Q1022 RMK 1ST005 3CU025 6CU040 A3020=,- SN SH
