20180101_000000.003,0,RJFY,,,,0,20180101000000,-1,-1,-1,-1,170,-1,4,-1,-1,-1,-1,,9999,0,0,2,FEW 30   BKN 50,1,6,-1,0,1023,RJFY 010000Z 17004KT 9999 FEW030 BKN050 06/M00 Q1023 RMK     1CU030 5SC050 A3024=,
20180101_010000.003,0,RJFY,,,,0,20180101010000,-1,-1,-1,-1,310,-1,8,-1,-1,-1,-1,,9999,0,0,2,FEW 20   BKN 45,1,8,-1,1,1024,RJFY 010100Z 31008KT 9999 FEW020 BKN045 08/M01 Q1024 RMK     1CU020 6SC045 A3025=,
20180101_020000.003,0,RJFY,,,,0,20180101020000,-1,-1,-1,-1,320,-1,12,-1,-1,-1,-1,,9999,0,0,2,FEW 20   BKN 45,1,9,-1,1,1024,RJFY 010200Z 32012KT 9999 FEW020 BKN045 09/M01 Q1024 RMK     1CU020 5SC045 A3024=,
20180101_030000.003,0,RJFY,,,,0,20180101030000,-1,-1,-1,-1,300,-1,17,-1,-1,-1,-1,,9999,0,0,2,FEW 30   SCT 45,1,10,-1,1,1023,RJFY 010300Z 30017KT 9999 FEW030 SCT045 10/M01 Q1023 RMK     1CU030 3SC045 A3022=,
20180101_040000.003,0,RJFY,,,,0,20180101040000,-1,-1,-1,-1,290,-1,13,-1,23,-1,-1,,9999,0,0,2,FEW 30   SCT 45,1,11,-1,1,1022,RJFY 010400Z 29013G23KT 9999 FEW030 SCT045 11/M01 Q1022 RMK     1CU030 4SC045 A3019=,
20180101_050000.003,0,RJFY,,,,0,20180101050000,-1,-1,-1,-1,290,-1,15,-1,25,-1,-1,,9999,0,0,1,FEW 30,1,11,-1,1,1022,RJFY 010500Z 29015G25KT 9999 FEW030 11/M01 Q1022 RMK 1CU030     A3019=,
20180101_060000.003,0,RJFY,,,,0,20180101060000,-1,-1,-1,-1,290,-1,14,-1,-1,-1,-1,,9999,0,0,1,FEW 30,1,10,-1,1,1022,RJFY 010600Z 29014KT 9999 FEW030 10/M01 Q1022 RMK 1CU030     A3019=,
20180101_070000.003,0,RJFY,,,,0,20180101070000,-1,-1,-1,-1,290,-1,14,-1,-1,-1,-1,,9999,0,0,1,FEW 30,1,10,-1,1,1022,RJFY 010700Z 29014KT 9999 FEW030 10/M01 Q1022 RMK 1CU030     A3019=,
20180101_080000.003,0,RJFY,,,,0,20180101080000,-1,-1,-1,-1,280,-1,11,-1,-1,-1,-1,,9999,0,0,1,FEW 30,1,9,-1,2,1022,RJFY 010800Z 28011KT 9999 FEW030 09/M02 Q1022 RMK 1CU030     A3020=,
20180101_090000.003,0,RJFY,,,,0,20180101090000,-1,-1,-1,-1,280,-1,12,-1,-1,-1,-1,,9999,0,1,1,FEW 30,1,8,-1,2,1023,RJFY 010900Z 28012KT 9999 VA FEW030 08/M02 Q1023 RMK 1CU030     A3022 VOLCANIC ASH OHD MOV SE=,VA
20180101_100000.003,0,RJFY,,,,0,20180101100000,-1,-1,-1,-1,290,-1,7,-1,-1,-1,-1,,9999,0,0,1,FEW 30,1,7,-1,2,1023,RJFY 011000Z 29007KT 9999 FEW030 07/M02 Q1023 RMK 1CU030     A3022=,
20180101_110000.003,0,RJFY,,,,0,20180101110000,-1,-1,-1,-1,10,-1,1,-1,-1,-1,-1,,9999,0,0,1,FEW 30,1,6,-1,2,1023,RJFY 011100Z 01001KT 9999 FEW030 06/M02 Q1023 RMK 1CU030     A3024=,
20180101_120000.003,0,RJFY,,,,0,20180101120000,-1,-1,-1,-1,80,-1,2,-1,-1,-1,-1,,9999,0,0,1,FEW 30,1,3,-1,1,1024,RJFY 011200Z 08002KT 9999 FEW030 03/M01 Q1024 RMK 1CU030     A3025=,
20180101_130000.003,0,RJFY,,,,0,20180101130000,-1,-1,-1,-1,30,-1,2,-1,-1,-1,-1,,9999,0,0,1,FEW 30,1,0,-1,3,1024,RJFY 011300Z 03002KT 9999 FEW030 00/M03 Q1024 RMK 1CU030     A3025=,
20180101_140000.003,0,RJFY,,,,0,20180101140000,-1,-1,-1,-1,340,-1,2,-1,-1,-1,-1,,9999,0,0,1,FEW 30,1,1,-1,2,1024,RJFY 011400Z 34002KT 9999 FEW030 01/M02 Q1024 RMK 1CU030     A3025=,
20180101_150000.003,0,RJFY,,,,0,20180101150000,-1,-1,-1,-1,280,-1,3,-1,-1,-1,-1,,9999,0,0,1,FEW 30,1,1,-1,2,1025,RJFY 011500Z 28003KT 9999 FEW030 01/M02 Q1025 RMK 1CU030     A3027=,
20180101_160000.003,0,RJFY,,,,0,20180101160000,-1,-1,-1,-1,230,-1,1,-1,-1,-1,-1,,9999,0,0,1,FEW 30,1,0,-1,2,1024,RJFY 011600Z 23001KT 9999 FEW030 00/M02 Q1024 RMK 1CU030     A3027=,
20180101_170000.003,0,RJFY,,,,0,20180101170000,-1,-1,-1,-1,290,-1,2,-1,-1,-1,-1,,9999,0,0,1,FEW 30,-1,2,-1,3,1025,RJFY 011700Z 29002KT 9999 FEW030 M02/M03 Q1025 RMK 1CU030     A3029=,
20180101_180000.004,0,RJFY,,,,0,20180101180000,-1,-1,-1,-1,310,-1,1,-1,-1,-1,-1,,9999,0,0,1,FEW 30,-1,1,-1,3,1025,RJFY 011800Z 31001KT 9999 FEW030 M01/M03 Q1025 RMK 1CU030     A3029=,
20180101_190000.004,0,RJFY,,,,0,20180101190000,-1,-1,-1,-1,360,-1,1,-1,-1,-1,-1,,9999,0,0,1,FEW 30,-1,3,-1,4,1025,RJFY 011900Z 36001KT 9999 FEW030 M03/M04 Q1025 RMK 1CU030     A3029=,
20180101_200000.004,0,RJFY,,,,0,20180101200000,-1,-1,-1,-1,290,-1,3,-1,-1,-1,-1,,9999,0,0,1,FEW 30,-1,3,-1,4,1025,RJFY 012000Z 29003KT 9999 FEW030 M03/M04 Q1025 RMK 1CU030     A3028=,
20180101_210000.003,0,RJFY,,,,0,20180101210000,-1,-1,-1,-1,280,-1,2,-1,-1,-1,-1,,9999,0,0,1,FEW 30,-1,4,-1,6,1026,RJFY 012100Z 28002KT 9999 FEW030 M04/M06 Q1026 RMK 1CU030     A3030=,
20180101_220000.003,0,RJFY,,,,0,20180101220000,-1,-1,-1,-1,310,-1,2,-1,-1,-1,-1,,9999,0,0,1,FEW 30,-1,2,-1,4,1026,RJFY 012200Z 31002KT 9999 FEW030 M02/M04 Q1026 RMK 1CU030     A3031=,
20180101_230000.003,0,RJFY,,,,0,20180101230000,-1,-1,-1,-1,330,-1,3,-1,-1,-1,-1,,9999,0,0,1,FEW 30,-1,2,-1,4,1026,RJFY 012300Z 33003KT 9999 FEW030 M02/M04 Q1026 RMK 1CU030     A3032=,
20180102_000000.004,0,RJFY,,,,0,20180102000000,-1,-1,-1,-1,999,-1,1,-1,-1,-1,-1,,9999,0,0,1,FEW 230,1,2,-1,1,1027,RJFY 020000Z VRB01KT 9999 FEW230 02/M01 Q1027 RMK A3034=,
20180102_010000.004,0,RJFY,,,,0,20180102010000,-1,-1,-1,-1,80,-1,2,-1,-1,-1,-1,,9999,0,0,1,FEW 230,1,5,-1,0,1027,RJFY 020100Z 08002KT 9999 FEW230 05/M00 Q1027 RMK A3034=,
20180102_020000.003,0,RJFY,,,,0,20180102020000,-1,-1,-1,-1,110,-1,2,-1,-1,-1,-1,,9999,0,0,1,FEW 230,1,8,-1,3,1026,RJFY 020200Z 11002KT 9999 FEW230 08/M03 Q1026 RMK A3031=,
20180102_030000.003,0,RJFY,,,,0,20180102030000,-1,-1,-1,-1,260,-1,4,-1,-1,-1,-1,,9999,0,0,1,NSC -1,1,10,-1,2,1025,RJFY 020300Z 26004KT 9999 NSC 10/M02 Q1025 RMK A3028=,
20180102_040000.003,0,RJFY,,,,0,20180102040000,-1,-1,-1,-1,260,-1,9,-1,-1,-1,-1,,9999,0,0,1,NSC -1,1,11,-1,1,1024,RJFY 020400Z 26009KT 9999 NSC 11/M01 Q1024 RMK A3025=,
20180102_050000.003,0,RJFY,,,,0,20180102050000,-1,-1,-1,-1,250,-1,11,-1,-1,-1,-1,,9999,0,0,1,NSC -1,1,11,-1,2,1023,RJFY 020500Z 25011KT 9999 NSC 11/M02 Q1023 RMK A3023=,
20180102_060000.003,0,RJFY,,,,0,20180102060000,-1,-1,-1,-1,270,-1,11,-1,-1,-1,-1,,9999,0,0,1,NSC -1,1,12,-1,4,1023,RJFY 020600Z 27011KT 9999 NSC 12/M04 Q1023 RMK A3021=,
20180102_070000.003,0,RJFY,,,,0,20180102070000,-1,-1,-1,-1,270,-1,12,-1,-1,-1,-1,,9999,0,0,1,FEW 30,1,12,-1,4,1023,RJFY 020700Z 27012KT 9999 FEW030 12/M04 Q1023 RMK 1CU030     A3021=,
20180102_080000.003,0,RJFY,,,,0,20180102080000,-1,-1,-1,-1,270,-1,8,-1,-1,-1,-1,,9999,0,0,1,NSC -1,1,11,-1,2,1023,RJFY 020800Z 27008KT 9999 NSC 11/M02 Q1023 RMK A3021=,
20180102_090000.003,0,RJFY,,,,0,20180102090000,-1,-1,-1,-1,260,-1,8,-1,-1,-1,-1,,9999,0,0,1,FEW 30,1,10,-1,1,1023,RJFY 020900Z 26008KT 9999 FEW030 10/M01 Q1023 RMK 1CU030     A3023=,
20180102_100000.003,0,RJFY,,,,0,20180102100000,-1,-1,-1,-1,270,-1,9,-1,-1,-1,-1,,9999,0,0,2,FEW 30   BKN 130,1,9,-1,3,1023,RJFY 021000Z 27009KT 9999 FEW030 BKN130 09/M03 Q1023 RMK     1CU030 5AC130 A3024=,
20180102_110000.003,0,RJFY,,,,0,20180102110000,-1,-1,-1,-1,40,-1,4,-1,-1,-1,-1,,9999,0,0,2,FEW 30   BKN 130,1,6,-1,1,1024,RJFY 021100Z 04004KT 9999 FEW030 BKN130 06/M01 Q1024 RMK     1CU030 5AC130 A3025=,
20180102_120000.003,0,RJFY,,,,0,20180102120000,-1,-1,-1,-1,10,-1,3,-1,-1,-1,-1,,9999,0,0,2,FEW 30   SCT 130,1,4,-1,1,1024,RJFY 021200Z 01003KT 9999 FEW030 SCT130 04/M01 Q1024 RMK     1CU030 3AC130 A3026=,
20180102_130000.004,0,RJFY,,,,0,20180102130000,-1,-1,-1,-1,260,-1,2,-1,-1,-1,-1,,9999,0,0,1,FEW 30,1,4,-1,1,1024,RJFY 021300Z 26002KT 9999 FEW030 04/M01 Q1024 RMK 1CU030     A3025=,
20180102_140000.004,0,RJFY,,,,0,20180102140000,-1,-1,-1,-1,270,-1,1,-1,-1,-1,-1,,9999,0,0,2,FEW 30   BKN 120,1,4,-1,1,1024,RJFY 021400Z 27001KT 9999 FEW030 BKN120 04/M01 Q1024 RMK     1CU030 6AC120 A3026=,
20180102_150000.003,0,RJFY,,,,0,20180102150000,-1,-1,-1,-1,250,-1,2,-1,-1,-1,-1,,9999,0,0,2,FEW 30   BKN 120,1,4,-1,1,1024,RJFY 021500Z 25002KT 9999 FEW030 BKN120 04/M01 Q1024 RMK     1CU030 6AC120 A3024=,
20180102_160000.003,0,RJFY,,,,0,20180102160000,-1,-1,-1,-1,10,-1,2,-1,-1,-1,-1,,9999,0,0,2,FEW 30   BKN 100,1,3,-1,0,1023,RJFY 021600Z 01002KT 9999 FEW030 BKN100 03/M00 Q1023 RMK     1CU030 7AC100 A3023=,
20180102_170000.003,0,RJFY,,,,0,20180102170000,-1,-1,-1,-1,999,-1,1,-1,-1,-1,-1,,9999,0,0,2,FEW 30   BKN 100,1,5,-1,1,1024,RJFY 021700Z VRB01KT 9999 FEW030 BKN100 05/M01 Q1024 RMK     1CU030 7AC100 A3024=,
20180102_180000.004,0,RJFY,,,,0,20180102180000,-1,-1,-1,-1,200,-1,2,-1,-1,-1,-1,,9999,0,0,2,FEW 30   BKN 130,1,6,-1,2,1024,RJFY 021800Z 20002KT 9999 FEW030 BKN130 06/M02 Q1024 RMK     1CU030 7AC130 A3024=,
20180102_190000.003,0,RJFY,,,,0,20180102190000,-1,-1,-1,-1,999,-1,2,-1,-1,-1,-1,,9999,0,0,2,FEW 30   BKN 110,1,6,-1,0,1024,RJFY 021900Z VRB02KT 9999 FEW030 BKN110 06/M00 Q1024 RMK     1CU030 7AC110 A3026=,
20180102_200000.004,0,RJFY,,,,0,20180102200000,-1,-1,-1,-1,270,-1,3,-1,-1,-1,-1,,9999,0,0,2,FEW 30   BKN 110,1,9,1,1,1024,RJFY 022000Z 27003KT 9999 FEW030 BKN110 09/01 Q1024 RMK 1CU030     7AC110 A3025=,
20180102_210000.003,0,RJFY,,,,0,20180102210000,-1,-1,-1,-1,999,-1,1,-1,-1,-1,-1,,9999,0,0,2,FEW 30   BKN 100,1,5,1,0,1024,RJFY 022100Z VRB01KT 9999 FEW030 BKN100 05/00 Q1024 RMK 1CU030     7AC100 A3026=,
20180102_220000.003,0,RJFY,,,,0,20180102220000,-1,-1,-1,-1,999,-1,2,-1,-1,-1,-1,,9999,0,0,2,FEW 30   BKN 100,1,8,1,1,1025,RJFY 022200Z VRB02KT 9999 FEW030 BKN100 08/01 Q1025 RMK 1CU030     5AC100 A3027=,
20180102_230000.003,0,RJFY,,,,0,20180102230000,-1,-1,-1,-1,260,-1,3,-1,-1,-1,-1,,9999,0,0,2,FEW 30   BKN 100,1,7,1,1,1025,RJFY 022300Z 26003KT 9999 FEW030 BKN100 07/01 Q1025 RMK 1CU030     5AC100 A3028=,
20180103_000000.003,0,RJFY,,,,0,20180103000000,-1,-1,-1,-1,260,-1,7,-1,-1,-1,-1,,9999,0,0,2,FEW 30   BKN 100,1,9,1,1,1025,RJFY 030000Z 26007KT 9999 FEW030 BKN100 09/01 Q1025 RMK 1CU030     7AC100 A3027=,
20180103_010000.003,0,RJFY,,,,0,20180103010000,-1,-1,-1,-1,300,-1,5,-1,-1,-1,-1,,9999,0,0,2,FEW 30   BKN 100,1,11,-1,1,1025,RJFY 030100Z 30005KT 9999 FEW030 BKN100 11/M01 Q1025 RMK     1CU030 6AC100 A3028=,
20180103_020000.003,0,RJFY,,,,0,20180103020000,-1,-1,-1,-1,270,-1,12,-1,-1,-1,-1,,9999,0,0,2,FEW 30   SCT 120,1,11,1,0,1024,RJFY 030200Z 27012KT 9999 FEW030 SCT120 11/00 Q1024 RMK 1CU030     3AC120 A3026=,
20180103_030000.004,0,RJFY,,,,0,20180103030000,-1,-1,-1,-1,270,-1,13,-1,-1,-1,-1,,9999,0,0,1,FEW 30,1,12,1,1,1023,RJFY 030300Z 27013KT 9999 FEW030 12/01 Q1023 RMK 1CU030 A3023=,
20180103_040000.003,0,RJFY,,,,0,20180103040000,-1,-1,-1,-1,280,-1,12,-1,-1,250,320,,9999,0,0,1,FEW 30,1,12,-1,1,1022,RJFY 030400Z 28012KT 250V320 9999 FEW030 12/M01 Q1022 RMK     1CU030 A3019=,
20180103_050000.003,0,RJFY,,,,0,20180103050000,-1,-1,-1,-1,280,-1,15,-1,-1,-1,-1,,9999,0,0,1,FEW 30,1,13,-1,1,1022,RJFY 030500Z 28015KT 9999 FEW030 13/M01 Q1022 RMK 1CU030     A3018=,
20180103_060000.003,0,RJFY,,,,0,20180103060000,-1,-1,-1,-1,280,-1,15,-1,25,-1,-1,,9999,0,0,2,FEW 30   SCT 180,1,13,-1,1,1021,RJFY 030600Z 28015G25KT 9999 FEW030 SCT180 13/M01 Q1021 RMK     1CU030 3AC180 A3018=,
20180103_070000.003,0,RJFY,,,,0,20180103070000,-1,-1,-1,-1,280,-1,12,-1,-1,-1,-1,,9999,0,0,2,FEW 30   SCT 180,1,12,-1,2,1021,RJFY 030700Z 28012KT 9999 FEW030 SCT180 12/M02 Q1021 RMK     1CU030 3AC180 A3017=,
20180103_080000.003,0,RJFY,,,,0,20180103080000,-1,-1,-1,-1,280,-1,9,-1,-1,-1,-1,,9999,0,0,2,FEW 30   SCT 180,1,11,-1,2,1021,RJFY 030800Z 28009KT 9999 FEW030 SCT180 11/M02 Q1021 RMK     1CU030 3AC180 A3018=,
20180103_090000.003,0,RJFY,,,,0,20180103090000,-1,-1,-1,-1,280,-1,8,-1,-1,-1,-1,,9999,0,0,1,FEW 30,1,10,-1,0,1022,RJFY 030900Z 28008KT 9999 FEW030 10/M00 Q1022 RMK 1CU030     A3020=,
20180103_100000.003,0,RJFY,,,,0,20180103100000,-1,-1,-1,-1,270,-1,13,-1,-1,-1,-1,,9999,0,0,1,FEW 30,1,9,-1,2,1023,RJFY 031000Z 27013KT 9999 FEW030 09/M02 Q1023 RMK 1CU030     A3021=,
20180103_110000.003,0,RJFY,,,,0,20180103110000,-1,-1,-1,-1,270,-1,7,-1,-1,-1,-1,,9999,0,0,2,FEW 30   SCT 180,1,9,-1,4,1023,RJFY 031100Z 27007KT 9999 FEW030 SCT180 09/M04 Q1023 RMK     1CU030 3AC180 A3021=,
20180103_120000.003,0,RJFY,,,,0,20180103120000,-1,-1,-1,-1,150,-1,4,-1,-1,-1,-1,,9999,0,0,1,FEW 30,1,6,-1,3,1024,RJFY 031200Z 15004KT 9999 FEW030 06/M03 Q1024 RMK 1CU030     A3024=,
20180103_130000.004,0,RJFY,,,,0,20180103130000,-1,-1,-1,-1,999,-1,2,-1,-1,-1,-1,,9999,0,0,1,FEW 30,1,4,-1,2,1024,RJFY 031300Z VRB02KT 9999 FEW030 04/M02 Q1024 RMK 1CU030     A3026=,
20180103_140000.003,0,RJFY,,,,0,20180103140000,-1,-1,-1,-1,310,-1,2,-1,-1,-1,-1,,9999,0,0,1,FEW 30,1,3,-1,2,1024,RJFY 031400Z 31002KT 9999 FEW030 03/M02 Q1024 RMK 1CU030     A3026=,
20180103_150000.003,0,RJFY,,,,0,20180103150000,-1,-1,-1,-1,280,-1,2,-1,-1,-1,-1,,9999,0,0,1,FEW 30,1,2,-1,3,1024,RJFY 031500Z 28002KT 9999 FEW030 02/M03 Q1024 RMK 1CU030     A3024=,
20180103_160000.003,0,RJFY,,,,0,20180103160000,-1,-1,-1,-1,999,-1,1,-1,-1,-1,-1,,9999,0,0,2,FEW 30   SCT 120,1,1,-1,3,1023,RJFY 031600Z VRB01KT 9999 FEW030 SCT120 01/M03 Q1023 RMK     1CU030 4AC120 A3023=,
20180103_170000.003,0,RJFY,,,,0,20180103170000,-1,-1,-1,-1,10,-1,1,-1,-1,-1,-1,,9999,0,0,2,FEW 30   BKN 120,1,2,-1,2,1023,RJFY 031700Z 01001KT 9999 FEW030 BKN120 02/M02 Q1023 RMK     1CU030 6AC120 A3023=,
20180103_180000.003,0,RJFY,,,,0,20180103180000,-1,-1,-1,-1,0,-1,0,-1,-1,-1,-1,,9999,0,0,2,FEW 30   BKN 130,1,4,-1,2,1023,RJFY 031800Z 00000KT 9999 FEW030 BKN130 04/M02 Q1023 RMK     1CU030 7AC130 A3022=,
20180103_190000.003,0,RJFY,,,,0,20180103190000,-1,-1,-1,-1,999,-1,1,-1,-1,-1,-1,,9999,0,0,2,FEW 30   BKN 120,1,2,-1,1,1023,RJFY 031900Z VRB01KT 9999 FEW030 BKN120 02/M01 Q1023 RMK     1CU030 7AC120 A3022=,
20180103_200000.003,0,RJFY,,,,0,20180103200000,-1,-1,-1,-1,0,-1,0,-1,-1,-1,-1,,9999,0,0,2,FEW 30   BKN 110,1,4,-1,2,1023,RJFY 032000Z 00000KT 9999 FEW030 BKN110 04/M02 Q1023 RMK     1CU030 7AC110 A3023=,
20180103_210000.004,0,RJFY,,,,0,20180103210000,-1,-1,-1,-1,0,-1,0,-1,-1,-1,-1,,9999,0,0,2,FEW 30   BKN 100,1,4,-1,1,1024,RJFY 032100Z 00000KT 9999 FEW030 BKN100 04/M01 Q1024 RMK     1CU030 7AC100 A3024=,
20180103_220000.003,0,RJFY,,,,0,20180103220000,-1,-1,-1,-1,230,-1,1,-1,-1,-1,-1,,9999,0,0,2,FEW 30   BKN 110,1,4,-1,1,1024,RJFY 032200Z 23001KT 9999 FEW030 BKN110 04/M01 Q1024 RMK     1CU030 7AC110 A3024=,
20180103_230000.003,0,RJFY,,,,0,20180103230000,-1,-1,-1,-1,999,-1,1,-1,-1,-1,-1,,9999,0,0,2,FEW 30   BKN 110,1,4,-1,0,1024,RJFY 032300Z VRB01KT 9999 FEW030 BKN110 04/M00 Q1024 RMK     1CU030 6AC110 A3024=,
20180104_000000.003,0,RJFY,,,,0,20180104000000,-1,-1,-1,-1,350,-1,2,-1,-1,-1,-1,,9999,0,0,2,FEW 30   BKN 100,1,5,-1,0,1024,RJFY 040000Z 35002KT 9999 FEW030 BKN100 05/M00 Q1024 RMK     1CU030 6AC100 A3024=,
20180104_010000.003,0,RJFY,,,,0,20180104010000,-1,-1,-1,-1,70,-1,2,-1,-1,-1,-1,,9999,0,0,3,FEW 30   SCT 100   BKN 150,1,9,-1,3,1023,RJFY 040100Z 07002KT 9999 FEW030 SCT100 BKN150 09/M03 Q1023     RMK 1CU030 3AC100 6AC150 A3024=,
20180104_020000.005,0,RJFY,,,,0,20180104020000,-1,-1,-1,-1,250,-1,2,-1,-1,-1,-1,,9999,0,0,3,FEW 30   SCT 100   BKN 150,1,9,-1,3,1023,RJFY 040200Z 25002KT 9999 FEW030 SCT100 BKN150 09/M03 Q1023     RMK 1CU030 4AC100 7AC150 A3023=,
20180104_030000.004,0,RJFY,,,,0,20180104030000,-1,-1,-1,-1,250,-1,4,-1,-1,-1,-1,,9999,0,0,3,FEW 30   SCT 90   BKN 150,1,10,-1,4,1022,RJFY 040300Z 25004KT 9999 FEW030 SCT090 BKN150 10/M04 Q1022     RMK 1CU030 4AC090 7AC150 A3020=,
20180104_040000.003,0,RJFY,,,,0,20180104040000,-1,-1,-1,-1,260,-1,7,-1,-1,230,290,,9999,0,0,3,FEW 30   BKN 90   BKN 150,1,10,-1,3,1021,RJFY 040400Z 26007KT 230V290 9999 FEW030 BKN090 BKN150 10/M03     Q1021 RMK 1CU030 5AC090 7AC150 A3017=,
20180104_050000.003,0,RJFY,,,,0,20180104050000,-1,-1,-1,-1,250,-1,7,-1,-1,210,290,,9999,0,0,3,FEW 30   BKN 90   BKN 150,1,10,-1,3,1020,RJFY 040500Z 25007KT 210V290 9999 FEW030 BKN090 BKN150 10/M03     Q1020 RMK 1CU030 5AC090 7AC150 A3014=,
20180104_060000.004,0,RJFY,,,,0,20180104060000,-1,-1,-1,-1,270,-1,8,-1,-1,-1,-1,,9999,0,0,2,FEW 40   BKN 90,1,9,-1,2,1020,RJFY 040600Z 27008KT 9999 FEW040 BKN090 09/M02 Q1020 RMK     2SC040 7AC090 A3014=,
20180104_070000.003,0,RJFY,,,,0,20180104070000,-1,-1,-1,-1,250,-1,5,-1,-1,-1,-1,,9999,0,0,2,FEW 40   BKN 80,1,9,-1,2,1020,RJFY 040700Z 25005KT 9999 FEW040 BKN080 09/M02 Q1020 RMK     2SC040 7AC080 A3013=,
20180104_080000.003,0,RJFY,,,,0,20180104080000,-1,-1,-1,-1,270,-1,4,-1,-1,-1,-1,,9999,0,1,2,FEW 30   OVC 80,1,9,-1,2,1020,RJFY 040800Z 27004KT 9999 -RA FEW030 OVC080 09/M02 Q1020 RMK     1CU030 8AS080 A3014=,- RA
20180104_090000.003,0,RJFY,,,,0,20180104090000,-1,-1,-1,-1,280,-1,6,-1,-1,-1,-1,,9999,0,0,2,FEW 30   OVC 80,1,8,-1,2,1021,RJFY 040900Z 28006KT 9999 FEW030 OVC080 08/M02 Q1021 RMK     1CU030 8AS080 A3016=,
20180104_100000.003,0,RJFY,,,,0,20180104100000,-1,-1,-1,-1,280,-1,4,-1,-1,-1,-1,,9999,0,1,2,FEW 30   OVC 70,1,9,-1,3,1021,RJFY 041000Z 28004KT 9999 -RA FEW030 OVC070 09/M03 Q1021 RMK     1CU030 8AS070 A3016=,- RA
20180104_110000.003,0,RJFY,,,,0,20180104110000,-1,-1,-1,-1,90,-1,3,-1,-1,-1,-1,,9999,0,1,2,FEW 30   OVC 70,1,8,-1,1,1021,RJFY 041100Z 09003KT 9999 -RA FEW030 OVC070 08/M01 Q1021 RMK     1CU030 8AS070 A3016=,- RA
20180104_120000.004,0,RJFY,,,,0,20180104120000,-1,-1,-1,-1,60,-1,1,-1,-1,-1,-1,,9999,0,1,2,FEW 30   OVC 70,1,7,1,0,1020,RJFY 041200Z 06001KT 9999 -RA FEW030 OVC070 07/00 Q1020 RMK     1CU030 8AS070 A3015=,- RA
20180104_130000.003,0,RJFY,,,,0,20180104130000,-1,-1,-1,-1,30,-1,2,-1,-1,-1,-1,,9999,0,1,3,FEW 20   BKN 40   OVC 70,1,6,1,3,1020,RJFY 041300Z 03002KT 9999 -RA FEW020 BKN040 OVC070 06/03 Q1020     RMK 1CU020 5SC040 8AS070 A3014=,- RA
20180104_140000.003,0,RJFY,,,,0,20180104140000,-1,-1,-1,-1,20,-1,2,-1,-1,-1,-1,,9999,0,1,3,FEW 20   SCT 40   OVC 70,1,6,1,4,1020,RJFY 041400Z 02002KT 9999 -RA FEW020 SCT040 OVC070 06/04 Q1020     RMK 1CU020 4SC040 8AS070 A3013=,- RA
20180104_150000.004,0,RJFY,,,,0,20180104150000,-1,-1,-1,-1,130,-1,4,-1,-1,-1,-1,,9999,0,1,3,FEW 20   BKN 50   OVC 70,1,6,1,4,1019,RJFY 041500Z 13004KT 9999 -RA FEW020 BKN050 OVC070 06/04 Q1019     RMK 1CU020 5SC050 8AS070 A3011=,- RA
20180104_160000.004,0,RJFY,,,,0,20180104160000,-1,-1,-1,-1,120,-1,2,-1,-1,-1,-1,,9999,0,1,3,FEW 10   SCT 20   OVC 35,1,6,1,3,1019,RJFY 041600Z 12002KT 9999 -RA FEW010 SCT020 OVC035 06/03 Q1019     RMK 1ST010 3CU020 8SC035 A3010=,- RA
20180104_170000.004,0,RJFY,,,,0,20180104170000,-1,-1,-1,-1,90,-1,2,-1,-1,-1,-1,,9999,0,1,3,FEW 10   SCT 20   OVC 30,1,5,1,4,1018,RJFY 041700Z 09002KT 9999 -RA FEW010 SCT020 OVC030 05/04 Q1018     RMK 1ST010 3CU020 8SC030 A3009=,- RA
20180104_180000.003,0,RJFY,,,,0,20180104180000,-1,-1,-1,-1,150,-1,2,-1,-1,-1,-1,,8000,0,1,3,FEW 10   SCT 20   OVC 30,1,5,1,4,1018,RJFY 041800Z 15002KT 8000 -RA FEW010 SCT020 OVC030 05/04 Q1018     RMK 1ST010 3CU020 8SC030 A3008=,- RA
20180104_190000.004,0,RJFY,,,,0,20180104190000,-1,-1,-1,-1,120,-1,4,-1,-1,-1,-1,,7000,0,1,3,FEW 5   SCT 20   OVC 35,1,5,1,4,1017,RJFY 041900Z 12004KT 7000 -RA FEW005 SCT020 OVC035 05/04 Q1017     RMK 2ST005 3CU020 8SC035 A3004=,- RA
20180104_200000.003,0,RJFY,,,,0,20180104200000,-1,-1,-1,-1,120,-1,4,-1,-1,-1,-1,,7000,0,1,3,FEW 5   SCT 20   OVC 40,1,4,1,4,1016,RJFY 042000Z 12004KT 7000 -RA FEW005 SCT020 OVC040 04/04 Q1016     RMK 2ST005 3SC020 8SC040 A3001=,- RA
20180104_210000.003,0,RJFY,,,,0,20180104210000,-1,-1,-1,-1,110,-1,5,-1,-1,-1,-1,,5000,0,2,3,FEW 5   SCT 20   OVC 40,1,5,1,4,1015,RJFY 042100Z 11005KT 5000 -RA BR FEW005 SCT020 OVC040 05/04     Q1015 RMK 1ST005 3CU020 8SC040 A2999=,- RA; BR
20180104_220000.003,0,RJFY,,,,0,20180104220000,-1,-1,-1,-1,110,-1,4,-1,-1,-1,-1,,5000,0,2,3,FEW 5   SCT 20   OVC 40,1,5,1,5,1015,RJFY 042200Z 11004KT 5000 -RA BR FEW005 SCT020 OVC040 05/05     Q1015 RMK 1ST005 3CU020 8SC040 A2998=,- RA; BR
20180104_230000.003,0,RJFY,,,,0,20180104230000,-1,-1,-1,-1,130,-1,4,-1,-1,-1,-1,,3500,0,2,3,FEW 5   SCT 10   OVC 20,1,6,1,5,1016,RJFY 042300Z 13004KT 3500 -RA BR FEW005 SCT010 OVC020 06/05     Q1016 RMK 2ST005 3ST010 8SC020 A3001=,- RA; BR
20180105_000000.004,0,RJFY,,,,0,20180105000000,-1,-1,-1,-1,140,-1,4,-1,-1,110,170,,3000,0,2,3,FEW 5   SCT 10   OVC 20,1,6,1,5,1016,RJFY 050000Z 14004KT 110V170 3000 -RA BR FEW005 SCT010 OVC020     06/05 Q1016 RMK 2ST005 4ST010 8SC020 A3001=,- RA; BR
20180105_010000.004,0,RJFY,,,,0,20180105010000,-1,-1,-1,-1,120,-1,5,-1,-1,80,150,,3000,0,2,3,FEW 3   SCT 8   OVC 35,1,6,1,6,1016,RJFY 050100Z 12005KT 080V150 3000 -RA BR FEW003 SCT008 OVC035     06/06 Q1016 RMK 2ST003 3ST008 8SC035 A3003=,- RA; BR
20180105_020000.003,0,RJFY,,,,0,20180105020000,-1,-1,-1,-1,150,-1,3,-1,-1,120,180,,3500,0,2,3,FEW 3   SCT 25   OVC 35,1,6,1,6,1017,RJFY 050200Z 15003KT 120V180 3500 -RA BR FEW003 SCT025 OVC035     06/06 Q1017 RMK 1ST003 3SC025 8SC035 A3003=,- RA; BR
20180105_030000.003,0,RJFY,,,,0,20180105030000,-1,-1,-1,-1,140,-1,3,-1,-1,-1,-1,,4500,0,2,3,SCT 3   SCT 25   OVC 35,1,7,1,6,1015,RJFY 050300Z 14003KT 4500 -RA BR SCT003 SCT025 OVC035 07/06     Q1015 RMK 3ST003 4SC025 8SC035 A3000=,- RA; BR
20180105_040000.003,0,RJFY,,,,0,20180105040000,-1,-1,-1,-1,999,-1,1,-1,-1,-1,-1,,7000,0,1,2,FEW 3   OVC 35,1,8,1,7,1015,RJFY 050400Z VRB01KT 7000 -RA FEW003 OVC035 08/07 Q1015 RMK     1ST003 8SC035 A2997=,- RA
20180105_050000.003,0,RJFY,,,,0,20180105050000,-1,-1,-1,-1,210,-1,4,-1,-1,-1,-1,,9999,0,0,3,FEW 5   SCT 35   BKN 70,1,10,1,7,1014,RJFY 050500Z 21004KT 9999 FEW005 SCT035 BKN070 10/07 Q1014 RMK     1ST005 4SC035 7AC070 A2995=,
20180105_060000.003,0,RJFY,,,,0,20180105060000,-1,-1,-1,-1,280,-1,13,-1,23,250,310,,9999,0,0,3,FEW 25   SCT 35   BKN 70,1,10,1,5,1014,RJFY 050600Z 28013G23KT 250V310 9999 FEW025 SCT035 BKN070     10/05 Q1014 RMK 2CU025 3SC035 6AC070 A2995=,
20180105_070000.003,0,RJFY,,,,0,20180105070000,-1,-1,-1,-1,250,-1,5,-1,-1,220,320,,9999,0,0,2,FEW 20   SCT 70,1,11,1,4,1014,RJFY 050700Z 25005KT 220V320 9999 FEW020 SCT070 11/04 Q1014     RMK 1CU020 3AC070 A2995=,
20180105_080000.003,0,RJFY,,,,0,20180105080000,-1,-1,-1,-1,280,-1,11,-1,-1,-1,-1,,9999,0,0,2,FEW 20   BKN 50,1,9,1,3,1015,RJFY 050800Z 28011KT 9999 FEW020 BKN050 09/03 Q1015 RMK 1CU020     6SC050 A2997=,
20180105_090000.003,0,RJFY,,,,0,20180105090000,-1,-1,-1,-1,240,-1,3,-1,-1,-1,-1,,9999,0,0,2,FEW 20   BKN 50,1,9,1,4,1015,RJFY 050900Z 24003KT 9999 FEW020 BKN050 09/04 Q1015 RMK 1CU020     6SC050 A2998=,
20180105_100000.003,0,RJFY,,,,0,20180105100000,-1,-1,-1,-1,300,-1,4,-1,-1,-1,-1,,9999,0,0,2,FEW 30   BKN 50,1,8,1,4,1015,RJFY 051000Z 30004KT 9999 FEW030 BKN050 08/04 Q1015 RMK 2CU030     6SC050 A2999=,
20180105_110000.003,0,RJFY,,,,0,20180105110000,-1,-1,-1,-1,160,-1,3,-1,-1,120,190,,9999,0,0,2,FEW 30   BKN 45,1,8,1,4,1016,RJFY 051100Z 16003KT 120V190 9999 FEW030 BKN045 08/04 Q1016     RMK 2CU030 6SC045 A3000=,
20180105_120000.003,0,RJFY,,,,0,20180105120000,-1,-1,-1,-1,210,-1,1,-1,-1,-1,-1,,9999,0,0,2,FEW 30   BKN 45,1,8,1,5,1016,RJFY 051200Z 21001KT 9999 FEW030 BKN045 08/05 Q1016 RMK 2CU030     6SC045 A3001=,
20180105_130000.003,0,RJFY,,,,0,20180105130000,-1,-1,-1,-1,280,-1,4,-1,-1,-1,-1,,9999,0,0,2,FEW 30   BKN 40,1,9,1,3,1016,RJFY 051300Z 28004KT 9999 FEW030 BKN040 09/03 Q1016 RMK 2CU030     7SC040 A3002=,
20180105_140000.003,0,RJFY,,,,0,20180105140000,-1,-1,-1,-1,280,-1,9,-1,-1,-1,-1,,9999,0,1,2,FEW 25   BKN 35,1,9,1,3,1016,RJFY 051400Z 28009KT 9999 -RA FEW025 BKN035 09/03 Q1016 RMK     2CU025 7SC035 A3002=,- RA
20180105_150000.003,0,RJFY,,,,0,20180105150000,-1,-1,-1,-1,280,-1,6,-1,-1,-1,-1,,9999,0,0,2,FEW 25   BKN 40,1,9,1,3,1016,RJFY 051500Z 28006KT 9999 FEW025 BKN040 09/03 Q1016 RMK 1CU025     7SC040 A3002=,
20180105_160000.004,0,RJFY,,,,0,20180105160000,-1,-1,-1,-1,290,-1,10,-1,-1,-1,-1,,9999,0,1,2,FEW 25   BKN 40,1,8,1,4,1016,RJFY 051600Z 29010KT 9999 -RA FEW025 BKN040 08/04 Q1016 RMK     1CU025 7SC040 A3002=,- RA
20180105_170000.003,0,RJFY,,,,0,20180105170000,-1,-1,-1,-1,290,-1,9,-1,-1,-1,-1,,9999,0,0,2,FEW 25   BKN 45,1,9,1,3,1017,RJFY 051700Z 29009KT 9999 FEW025 BKN045 09/03 Q1017 RMK 1CU025     6SC045 A3003=,
20180105_180000.004,0,RJFY,,,,0,20180105180000,-1,-1,-1,-1,300,-1,9,-1,-1,270,330,,9999,0,0,2,FEW 25   BKN 45,1,9,1,3,1017,RJFY 051800Z 30009KT 270V330 9999 FEW025 BKN045 09/03 Q1017     RMK 1CU025 6SC045 A3003=,
20180105_190000.003,0,RJFY,,,,0,20180105190000,-1,-1,-1,-1,270,-1,7,-1,-1,-1,-1,,9999,0,0,2,FEW 25   BKN 45,1,9,1,2,1016,RJFY 051900Z 27007KT 9999 FEW025 BKN045 09/02 Q1016 RMK 1CU025     6SC045 A3003=,
20180105_200000.003,0,RJFY,,,,0,20180105200000,-1,-1,-1,-1,270,-1,7,-1,-1,220,340,,9999,0,0,2,FEW 25   BKN 45,1,9,1,1,1017,RJFY 052000Z 27007KT 220V340 9999 FEW025 BKN045 09/01 Q1017     RMK 1CU025 6SC045 A3003=,
20180105_210000.004,0,RJFY,,,,0,20180105210000,-1,-1,-1,-1,290,-1,12,-1,-1,-1,-1,,9999,0,0,2,FEW 25   SCT 45,1,8,-1,1,1017,RJFY 052100Z 29012KT 9999 FEW025 SCT045 08/M01 Q1017 RMK     1CU025 3SC045 A3004=,
20180105_220000.003,0,RJFY,,,,0,20180105220000,-1,-1,-1,-1,280,-1,11,-1,-1,-1,-1,,9999,0,0,1,FEW 25,1,7,-1,1,1018,RJFY 052200Z 28011KT 9999 FEW025 07/M01 Q1018 RMK 1CU025     A3007=,
20180105_230000.003,0,RJFY,,,,0,20180105230000,-1,-1,-1,-1,260,-1,9,-1,-1,-1,-1,,9999,0,0,1,FEW 25,1,7,-1,1,1018,RJFY 052300Z 26009KT 9999 FEW025 07/M01 Q1018 RMK 1CU025     A3009=,
20180106_000000.003,0,RJFY,,,,0,20180106000000,-1,-1,-1,-1,280,-1,10,-1,-1,-1,-1,,9999,0,0,1,FEW 20,1,8,-1,1,1019,RJFY 060000Z 28010KT 9999 FEW020 08/M01 Q1019 RMK 1CU020     A3009=,
20180106_010000.003,0,RJFY,,,,0,20180106010000,-1,-1,-1,-1,280,-1,11,-1,-1,-1,-1,,9999,0,0,1,FEW 25,1,9,-1,0,1019,RJFY 060100Z 28011KT 9999 FEW025 09/M00 Q1019 RMK 1CU025     A3011=,
20180106_020000.003,0,RJFY,,,,0,20180106020000,-1,-1,-1,-1,280,-1,13,-1,-1,-1,-1,,9999,0,0,1,FEW 25,1,10,-1,0,1019,RJFY 060200Z 28013KT 9999 FEW025 10/M00 Q1019 RMK 1CU025     A3010=,
20180106_030000.003,0,RJFY,,,,0,20180106030000,-1,-1,-1,-1,270,-1,12,-1,-1,240,300,,9999,0,0,1,FEW 30,1,11,1,0,1018,RJFY 060300Z 27012KT 240V300 9999 FEW030 11/00 Q1018 RMK     1CU030 A3008=,
20180106_040000.003,0,RJFY,,,,0,20180106040000,-1,-1,-1,-1,280,-1,14,-1,-1,-1,-1,,9999,0,0,1,FEW 30,1,11,-1,1,1017,RJFY 060400Z 28014KT 9999 FEW030 11/M01 Q1017 RMK 1CU030     A3006=,
20180106_050000.003,0,RJFY,,,,0,20180106050000,-1,-1,-1,-1,280,-1,11,-1,-1,240,310,,9999,0,0,1,FEW 30,1,12,-1,1,1017,RJFY 060500Z 28011KT 240V310 9999 FEW030 12/M01 Q1017 RMK     1CU030 A3003=,
20180106_060000.003,0,RJFY,,,,0,20180106060000,-1,-1,-1,-1,270,-1,13,-1,-1,240,300,,9999,0,0,1,FEW 30,1,12,-1,1,1017,RJFY 060600Z 27013KT 240V300 9999 FEW030 12/M01 Q1017 RMK     1CU030 A3004=,
20180106_070000.003,0,RJFY,,,,0,20180106070000,-1,-1,-1,-1,280,-1,13,-1,-1,-1,-1,,9999,0,0,1,FEW 30,1,12,-1,1,1017,RJFY 060700Z 28013KT 9999 FEW030 12/M01 Q1017 RMK 1CU030     A3004=,
20180106_080000.003,0,RJFY,,,,0,20180106080000,-1,-1,-1,-1,290,-1,16,-1,-1,-1,-1,,9999,0,0,2,FEW 30   BKN 230,1,11,-1,1,1017,RJFY 060800Z 29016KT 9999 FEW030 BKN230 11/M01 Q1017 RMK     1CU030 A3004=,
20180106_090000.003,0,RJFY,,,,0,20180106090000,-1,-1,-1,-1,290,-1,7,-1,-1,260,320,,9999,0,0,2,FEW 30   BKN 230,1,10,-1,1,1018,RJFY 060900Z 29007KT 260V320 9999 FEW030 BKN230 10/M01 Q1018     RMK 1CU030 A3006=,
20180106_100000.003,0,RJFY,,,,0,20180106100000,-1,-1,-1,-1,300,-1,13,-1,-1,-1,-1,,9999,0,0,2,FEW 30   BKN 230,1,9,-1,1,1019,RJFY 061000Z 30013KT 9999 FEW030 BKN230 09/M01 Q1019 RMK     1CU030 A3010=,
20180106_110000.003,0,RJFY,,,,0,20180106110000,-1,-1,-1,-1,350,-1,3,-1,-1,300,40,,9999,0,0,2,FEW 30   BKN 230,1,7,-1,1,1019,RJFY 061100Z 35003KT 300V040 9999 FEW030 BKN230 07/M01 Q1019     RMK 1CU030 A3009=,
20180106_120000.003,0,RJFY,,,,0,20180106120000,-1,-1,-1,-1,40,-1,3,-1,-1,-1,-1,,9999,0,0,2,FEW 30   BKN 230,1,6,-1,0,1020,RJFY 061200Z 04003KT 9999 FEW030 BKN230 06/M00 Q1020 RMK     1CU030 A3013=,
20180106_130000.005,0,RJFY,,,,0,20180106130000,-1,-1,-1,-1,80,-1,2,-1,-1,-1,-1,,9999,0,0,2,FEW 30   BKN 230,1,7,-1,0,1021,RJFY 061300Z 08002KT 9999 FEW030 BKN230 07/M00 Q1021 RMK     1CU030 A3015=,
20180106_140000.004,0,RJFY,,,,0,20180106140000,-1,-1,-1,-1,80,-1,2,-1,-1,-1,-1,,9999,0,0,2,FEW 30   BKN 230,1,5,1,1,1020,RJFY 061400Z 08002KT 9999 FEW030 BKN230 05/01 Q1020 RMK 1CU030     A3015=,
20180106_150000.003,0,RJFY,,,,0,20180106150000,-1,-1,-1,-1,40,-1,2,-1,-1,-1,-1,,9999,0,0,2,FEW 30   BKN 230,1,4,1,0,1020,RJFY 061500Z 04002KT 9999 FEW030 BKN230 04/00 Q1020 RMK 1CU030     A3014=,
20180106_160000.003,0,RJFY,,,,0,20180106160000,-1,-1,-1,-1,60,-1,2,-1,-1,-1,-1,,9999,0,0,2,FEW 30   BKN 230,1,3,1,0,1020,RJFY 061600Z 06002KT 9999 FEW030 BKN230 03/00 Q1020 RMK 1CU030     A3012=,
20180106_170000.003,0,RJFY,,,,0,20180106170000,-1,-1,-1,-1,80,-1,4,-1,-1,-1,-1,,9999,0,0,2,FEW 30   BKN 230,1,3,1,1,1020,RJFY 061700Z 08004KT 9999 FEW030 BKN230 03/01 Q1020 RMK 1CU030     A3013=,
20180106_180000.004,0,RJFY,,,,0,20180106180000,-1,-1,-1,-1,130,-1,6,-1,-1,-1,-1,,9999,0,0,2,FEW 30   BKN 230,1,3,1,1,1020,RJFY 061800Z 13006KT 9999 FEW030 BKN230 03/01 Q1020 RMK 1CU030     A3014=,
20180106_190000.003,0,RJFY,,,,0,20180106190000,-1,-1,-1,-1,120,-1,5,-1,-1,-1,-1,,9999,0,0,2,FEW 30   BKN 230,1,4,-1,0,1020,RJFY 061900Z 12005KT 9999 FEW030 BKN230 04/M00 Q1020 RMK     1CU030 A3014=,
20180106_200000.003,0,RJFY,,,,0,20180106200000,-1,-1,-1,-1,120,-1,5,-1,-1,-1,-1,,9999,0,0,2,FEW 30   BKN 230,1,4,-1,1,1020,RJFY 062000Z 12005KT 9999 FEW030 BKN230 04/M01 Q1020 RMK     1CU030 A3013=,
20180106_210000.003,0,RJFY,,,,0,20180106210000,-1,-1,-1,-1,100,-1,5,-1,-1,-1,-1,,9999,0,0,3,FEW 30   SCT 170   BKN 230,1,5,1,0,1020,RJFY 062100Z 10005KT 9999 FEW030 SCT170 BKN230 05/00 Q1020 RMK     1CU030 3AC170 A3014=,
20180106_220000.003,0,RJFY,,,,0,20180106220000,-1,-1,-1,-1,60,-1,7,-1,-1,-1,-1,,9999,0,0,3,FEW 30   SCT 150   BKN 230,1,7,1,1,1021,RJFY 062200Z 06007KT 9999 FEW030 SCT150 BKN230 07/01 Q1021 RMK     1CU030 3AC150 A3017=,
20180106_230000.003,0,RJFY,,,,0,20180106230000,-1,-1,-1,-1,50,-1,9,-1,-1,-1,-1,,9999,0,0,3,FEW 30   SCT 150   BKN 230,1,7,1,1,1021,RJFY 062300Z 05009KT 9999 FEW030 SCT150 BKN230 07/01 Q1021 RMK     1CU030 4AC150 A3017=,
20180107_000000.003,0,RJFY,,,,0,20180107000000,-1,-1,-1,-1,60,-1,9,-1,-1,-1,-1,,9999,0,0,3,FEW 30   SCT 150   BKN 230,1,8,1,1,1021,RJFY 070000Z 06009KT 9999 FEW030 SCT150 BKN230 08/01 Q1021 RMK     1CU030 3AC150 A3018=,
20180107_010000.004,0,RJFY,,,,0,20180107010000,-1,-1,-1,-1,50,-1,9,-1,-1,-1,-1,,9999,0,0,3,FEW 30   SCT 130   BKN 230,1,9,1,2,1022,RJFY 070100Z 05009KT 9999 FEW030 SCT130 BKN230 09/02 Q1022 RMK     1CU030 3AC130 A3020=,
20180107_020000.003,0,RJFY,,,,0,20180107020000,-1,-1,-1,-1,50,-1,13,-1,-1,-1,-1,,9999,0,0,3,FEW 30   BKN 130   BKN 230,1,10,1,2,1022,RJFY 070200Z 05013KT 9999 FEW030 BKN130 BKN230 10/02 Q1022 RMK     1CU030 5AC130 A3019=,
20180107_030000.003,0,RJFY,,,,0,20180107030000,-1,-1,-1,-1,50,-1,9,-1,-1,-1,-1,,9999,0,0,3,FEW 30   BKN 130   BKN 230,1,11,1,3,1021,RJFY 070300Z 05009KT 9999 FEW030 BKN130 BKN230 11/03 Q1021 RMK     1CU030 5AC130 A3015=,
20180107_040000.003,0,RJFY,,,,0,20180107040000,-1,-1,-1,-1,50,-1,12,-1,-1,-1,-1,,9999,0,0,3,FEW 30   BKN 100   BKN 230,1,11,1,3,1019,RJFY 070400Z 05012KT 9999 FEW030 BKN100 BKN230 11/03 Q1019 RMK     2CU030 5AC100 A3011=,
20180107_050000.003,0,RJFY,,,,0,20180107050000,-1,-1,-1,-1,60,-1,9,-1,-1,-1,-1,,9999,0,0,3,FEW 30   SCT 60   BKN 100,1,11,1,4,1020,RJFY 070500Z 06009KT 9999 FEW030 SCT060 BKN100 11/04 Q1020 RMK     2CU030 4SC060 7AC100 A3012=,
20180107_060000.003,0,RJFY,,,,0,20180107060000,-1,-1,-1,-1,70,-1,8,-1,-1,40,100,,9999,0,0,3,FEW 30   SCT 60   BKN 100,1,11,1,4,1019,RJFY 070600Z 07008KT 040V100 9999 FEW030 SCT060 BKN100 11/04     Q1019 RMK 1CU030 3SC060 7AC100 A3009=,
20180107_070000.003,0,RJFY,,,,0,20180107070000,-1,-1,-1,-1,50,-1,9,-1,-1,-1,-1,,9999,0,0,3,FEW 30   BKN 50   BKN 80,1,10,1,4,1019,RJFY 070700Z 05009KT 9999 FEW030 BKN050 BKN080 10/04 Q1019 RMK     1CU030 6SC050 7AC080 A3010=,
20180107_080000.003,0,RJFY,,,,0,20180107080000,-1,-1,-1,-1,60,-1,9,-1,-1,30,90,,9999,0,0,3,FEW 30   BKN 50   BKN 80,1,10,1,4,1019,RJFY 070800Z 06009KT 030V090 9999 FEW030 BKN050 BKN080 10/04     Q1019 RMK 1CU030 6SC050 7AC080 A3011=,
20180107_090000.003,0,RJFY,,,,0,20180107090000,-1,-1,-1,-1,40,-1,11,-1,-1,-1,-1,,9999,0,0,3,FEW 30   BKN 50   BKN 80,1,11,1,5,1019,RJFY 070900Z 04011KT 9999 FEW030 BKN050 BKN080 11/05 Q1019 RMK     1CU030 6SC050 7AC080 A3011=,
20180107_100000.003,0,RJFY,,,,0,20180107100000,-1,-1,-1,-1,50,-1,11,-1,-1,-1,-1,,9999,0,0,3,FEW 30   BKN 50   BKN 80,1,11,1,5,1019,RJFY 071000Z 05011KT 9999 FEW030 BKN050 BKN080 11/05 Q1019 RMK     1CU030 6SC050 7AC080 A3011=,
20180107_110000.003,0,RJFY,,,,0,20180107110000,-1,-1,-1,-1,50,-1,11,-1,-1,10,90,,9999,0,1,3,FEW 20   SCT 30   BKN 50,1,11,1,6,1019,RJFY 071100Z 05011KT 010V090 9999 -RA FEW020 SCT030 BKN050     11/06 Q1019 RMK 1CU020 4CU030 6SC050 A3010=,- RA
20180107_120000.004,0,RJFY,,,,0,20180107120000,-1,-1,-1,-1,50,-1,13,-1,-1,20,80,,9999,0,0,3,FEW 20   BKN 30   BKN 50,1,11,1,7,1018,RJFY 071200Z 05013KT 020V080 9999 FEW020 BKN030 BKN050 11/07     Q1018 RMK 1CU020 5CU030 7SC050 A3009=,
20180107_130000.004,0,RJFY,,,,0,20180107130000,-1,-1,-1,-1,40,-1,12,-1,-1,10,80,,9999,0,0,3,FEW 15   BKN 30   BKN 50,1,10,1,7,1018,RJFY 071300Z 04012KT 010V080 9999 FEW015 BKN030 BKN050 10/07     Q1018 RMK 2CU015 6CU030 7SC050 A3007=,
20180107_140000.004,0,RJFY,,,,0,20180107140000,-1,-1,-1,-1,50,-1,11,-1,-1,10,80,,9999,0,1,2,SCT 10   BKN 20,1,11,1,9,1017,RJFY 071400Z 05011KT 010V080 9999 -SHRA SCT010 BKN020 11/09     Q1017 RMK 3CU010 7CU020 A3005=,- RA SH
20180107_150000.003,0,RJFY,,,,0,20180107150000,-1,-1,-1,-1,50,-1,10,-1,-1,20,80,,9999,0,1,3,SCT 8   BKN 10   BKN 20,1,11,1,10,1017,RJFY 071500Z 05010KT 020V080 9999 -SHRA SCT008 BKN010 BKN020     11/10 Q1017 RMK 3ST008 5CU010 7CU020 A3003=,- RA SH
20180107_160000.003,0,RJFY,,,,0,20180107160000,-1,-1,-1,-1,80,-1,6,-1,-1,50,120,,9999,0,1,3,SCT 8   BKN 10   BKN 20,1,11,1,10,1016,RJFY 071600Z 08006KT 050V120 9999 -SHRA SCT008 BKN010 BKN020     11/10 Q1016 RMK 4ST008 6CU010 7CU020 A3000=,- RA SH
20180107_170000.003,0,RJFY,,,,0,20180107170000,-1,-1,-1,-1,130,-1,7,-1,-1,-1,-1,,8000,0,1,3,FEW 5   BKN 8   BKN 10,1,10,1,9,1014,RJFY 071700Z 13007KT 8000 -SHRA FEW005 BKN008 BKN010 10/09     Q1014 RMK 2ST005 6ST008 7CU010 A2997=,- RA SH
20180107_180000.003,0,RJFY,,,,0,20180107180000,-1,-1,-1,-1,120,-1,5,-1,-1,90,160,,5000,0,2,3,FEW 5   BKN 8   BKN 10,1,9,1,9,1013,RJFY 071800Z 12005KT 090V160 5000 -SHRA BR FEW005 BKN008     BKN010 09/09 Q1013 RMK 2ST005 6ST008 7CU010 A2994=,- RA SH; BR
20180107_190000.004,0,RJFY,,,,0,20180107190000,-1,-1,-1,-1,130,-1,6,-1,-1,90,160,,4000,0,2,3,FEW 5   SCT 10   BKN 30,1,9,1,9,1012,RJFY 071900Z 13006KT 090V160 4000 -SHRA BR FEW005 SCT010     BKN030 09/09 Q1012 RMK 1ST005 3CU010 7CU030 A2991=,- RA SH; BR
20180107_200000.003,0,RJFY,,,,0,20180107200000,-1,-1,-1,-1,110,-1,4,-1,-1,80,160,,3500,0,2,3,FEW 3   SCT 5   BKN 15,1,10,1,9,1011,RJFY 072000Z 11004KT 080V160 3500 -SHRA BR FEW003 SCT005     BKN015 10/09 Q1011 RMK 1ST003 4ST005 7CU015 A2987=,- RA SH; BR
20180107_210000.004,0,RJFY,,,,0,20180107210000,-1,-1,-1,-1,150,-1,3,-1,-1,110,180,,8000,0,1,2,FEW 3   BKN 15,1,10,1,10,1011,RJFY 072100Z 15003KT 110V180 8000 -SHRA FEW003 BKN015 10/10     Q1011 RMK 1ST003 7CU015 A2987=,- RA SH
20180107_220000.003,0,RJFY,,,,0,20180107220000,-1,-1,-1,-1,140,-1,2,-1,-1,-1,-1,,9999,0,1,3,FEW 3   SCT 8   BKN 30,1,10,1,10,1011,RJFY 072200Z 14002KT 9999 -SHRA FEW003 SCT008 BKN030 10/10     Q1011 RMK 1ST003 3ST008 7CU030 A2988=,- RA SH
20180107_230000.003,0,RJFY,,,,0,20180107230000,-1,-1,-1,-1,20,-1,2,-1,-1,-1,-1,,4000,0,2,3,FEW 2   SCT 5   BKN 10,1,10,1,10,1011,RJFY 072300Z 02002KT 4000 -SHRA BR FEW002 SCT005 BKN010 10/10     Q1011 RMK 1ST002 3ST005 5ST010 A2987=,- RA SH; BR
20180108_000000.003,0,RJFY,,,,0,20180108000000,-1,-1,-1,-1,0,-1,0,-1,-1,-1,-1,,8000,0,0,3,FEW 2   BKN 25   BKN 150,1,11,1,11,1011,RJFY 080000Z 00000KT 8000 FEW002 BKN025 BKN150 11/11 Q1011 RMK     1ST002 5CU025 7AC150 A2986=,
20180108_010000.003,0,RJFY,,,,0,20180108010000,-1,-1,-1,-1,240,-1,4,-1,-1,210,270,,4500,0,2,3,FEW 2   BKN 10   BKN 20,1,13,1,13,1012,RJFY 080100Z 24004KT 210V270 4500 -SHRA BR FEW002 BKN010     BKN020 13/13 Q1012 RMK 1ST002 5ST010 7CU020 A2989=,- RA SH; BR
20180108_020000.004,0,RJFY,,,,0,20180108020000,-1,-1,-1,-1,250,-1,9,-1,-1,-1,-1,,4500,0,2,3,FEW 2   BKN 10   BKN 20,1,15,1,15,1011,RJFY 080200Z 25009KT 4500 -SHRA BR FEW002 BKN010 BKN020 15/15     Q1011 RMK 1ST002 5ST010 7CU020 A2987=,- RA SH; BR
20180108_030000.003,0,RJFY,,,,0,20180108030000,-1,-1,-1,-1,260,-1,7,-1,-1,-1,-1,,9999,0,0,3,FEW 2   SCT 10   BKN 20,1,17,1,16,1009,RJFY 080300Z 26007KT 9999 FEW002 SCT010 BKN020 17/16 Q1009 RMK     1ST002 4ST010 5CU020 A2981=,
20180108_040000.003,0,RJFY,,,,0,20180108040000,-1,-1,-1,-1,250,-1,5,-1,-1,210,280,,9999,0,1,3,FEW 2   SCT 10   BKN 20,1,17,1,16,1008,RJFY 080400Z 25005KT 210V280 9999 -SHRA FEW002 SCT010 BKN020     17/16 Q1008 RMK 1ST002 4ST010 5CU020 A2978=,- RA SH
20180108_050000.003,0,RJFY,,,,0,20180108050000,-1,-1,-1,-1,250,-1,5,-1,-1,-1,-1,,9999,0,1,3,FEW 2   SCT 10   BKN 20,1,17,1,16,1007,RJFY 080500Z 25005KT 9999 -SHRA FEW002 SCT010 BKN020 17/16     Q1007 RMK 1ST002 4ST010 5CU020 A2975=,- RA SH
20180108_060000.004,0,RJFY,,,,0,20180108060000,-1,-1,-1,-1,250,-1,7,-1,-1,-1,-1,,8000,0,1,3,FEW 2   SCT 10   BKN 20,1,17,1,15,1007,RJFY 080600Z 25007KT 8000 -SHRA FEW002 SCT010 BKN020 17/15     Q1007 RMK 1ST002 4ST010 6CU020 A2976=,- RA SH
20180108_070000.003,0,RJFY,,,,0,20180108070000,-1,-1,-1,-1,260,-1,14,-1,-1,230,290,,5000,0,2,3,FEW 2   BKN 10   BKN 20,1,16,1,15,1007,RJFY 080700Z 26014KT 230V290 5000 -SHRA BR FEW002 BKN010     BKN020 16/15 Q1007 RMK 1ST002 5ST010 7CU020 A2976=,- RA SH; BR
20180108_080000.003,0,RJFY,,,,0,20180108080000,-1,-1,-1,-1,240,-1,6,-1,-1,210,270,,8000,0,1,3,FEW 5   SCT 10   BKN 20,1,15,1,14,1008,RJFY 080800Z 24006KT 210V270 8000 -SHRA FEW005 SCT010 BKN020     15/14 Q1008 RMK 1ST005 4ST010 5CU020 A2977=,- RA SH
20180108_090000.003,0,RJFY,,,,0,20180108090000,-1,-1,-1,-1,240,-1,7,-1,-1,-1,-1,,9999,0,1,3,FEW 5   SCT 10   BKN 20,1,15,1,14,1007,RJFY 080900Z 24007KT 9999 -SHRA FEW005 SCT010 BKN020 15/14     Q1007 RMK 1ST005 4ST010 6CU020 A2974=,- RA SH
20180108_100000.003,0,RJFY,,,,0,20180108100000,-1,-1,-1,-1,270,-1,15,-1,-1,-1,-1,,8000,0,1,3,FEW 5   SCT 10   BKN 20,1,15,1,13,1008,RJFY 081000Z 27015KT 8000 -SHRA FEW005 SCT010 BKN020 15/13     Q1008 RMK 1ST005 4ST010 7CU020 A2977=,- RA SH
20180108_110000.003,0,RJFY,,,,0,20180108110000,-1,-1,-1,-1,260,-1,8,-1,-1,220,280,,8000,0,1,3,FEW 2   BKN 10   BKN 20,1,15,1,13,1007,RJFY 081100Z 26008KT 220V280 8000 -SHRA FEW002 BKN010 BKN020     15/13 Q1007 RMK 1ST002 5ST010 7CU020 A2976=,- RA SH
20180108_120000.003,0,RJFY,,,,0,20180108120000,-1,-1,-1,-1,270,-1,11,-1,-1,-1,-1,,8000,0,1,3,FEW 2   BKN 10   BKN 20,1,14,1,12,1007,RJFY 081200Z 27011KT 8000 -SHRA FEW002 BKN010 BKN020 14/12     Q1007 RMK 1ST002 5ST010 7CU020 A2975=,- RA SH
20180108_130000.004,0,RJFY,,,,0,20180108130000,-1,-1,-1,-1,280,-1,21,-1,35,-1,-1,,8000,0,1,3,FEW 2   BKN 10   BKN 20,1,14,1,12,1009,RJFY 081300Z 28021G35KT 8000 -SHRA FEW002 BKN010 BKN020 14/12     Q1009 RMK 1ST002 5ST010 7CU020 A2980=,- RA SH
20180108_140000.003,0,RJFY,,,,0,20180108140000,-1,-1,-1,-1,300,-1,14,-1,-1,-1,-1,,9999,0,1,3,FEW 5   BKN 20   BKN 40,1,13,1,11,1007,RJFY 081400Z 30014KT 9999 -SHRA FEW005 BKN020 BKN040 13/11     Q1007 RMK 1ST005 6CU020 7SC040 A2975=,- RA SH
20180108_150000.003,0,RJFY,,,,0,20180108150000,-1,-1,-1,-1,300,-1,21,-1,32,-1,-1,,9999,0,1,3,FEW 10   BKN 20   BKN 40,1,12,1,9,1007,RJFY 081500Z 30021G32KT 9999 -SHRA FEW010 BKN020 BKN040 12/09     Q1007 RMK 2ST010 5CU020 7SC040 A2976 P/FR=,- RA SH
20180108_160000.003,0,RJFY,,,,0,20180108160000,-1,-1,-1,-1,290,-1,17,-1,-1,-1,-1,,9999,0,0,3,FEW 10   SCT 20   BKN 40,1,11,1,7,1009,RJFY 081600Z 29017KT 9999 FEW010 SCT020 BKN040 11/07 Q1009 RMK     2ST010 4CU020 5SC040 A2981=,
20180108_170000.003,0,RJFY,,,,0,20180108170000,-1,-1,-1,-1,300,-1,17,-1,-1,-1,-1,,9999,0,0,3,FEW 10   SCT 20   BKN 40,1,11,1,6,1009,RJFY 081700Z 30017KT 9999 FEW010 SCT020 BKN040 11/06 Q1009 RMK     1ST010 3CU020 5SC040 A2980 P/RR=,
20180108_180000.003,0,RJFY,,,,0,20180108180000,-1,-1,-1,-1,290,-1,15,-1,-1,-1,-1,,9999,0,0,3,FEW 10   BKN 40   BKN 70,1,10,1,6,1009,RJFY 081800Z 29015KT 9999 FEW010 BKN040 BKN070 10/06 Q1009 RMK     1ST010 5SC040 7AC070 A2980=,
20180108_190000.003,0,RJFY,,,,0,20180108190000,-1,-1,-1,-1,290,-1,17,-1,27,-1,-1,,9999,0,1,3,FEW 10   SCT 20   BKN 40,1,10,1,7,1009,RJFY 081900Z 29017G27KT 9999 -SHRA FEW010 SCT020 BKN040 10/07     Q1009 RMK 1ST010 4CU020 7SC040 A2981=,- RA SH
20180108_200000.003,0,RJFY,,,,0,20180108200000,-1,-1,-1,-1,300,-1,20,-1,30,-1,-1,,9000,0,1,3,FEW 10   BKN 20   BKN 40,1,10,1,7,1009,RJFY 082000Z 30020G30KT 9000 -SHRA FEW010 BKN020 BKN040 10/07     Q1009 RMK 2ST010 5CU020 7SC040 A2981=,- RA SH
20180108_210000.004,0,RJFY,,,,0,20180108210000,-1,-1,-1,-1,310,-1,18,-1,-1,-1,-1,,9999,0,1,3,FEW 10   BKN 20   BKN 40,1,9,1,6,1010,RJFY 082100Z 31018KT 9999 -SHRA FEW010 BKN020 BKN040 09/06     Q1010 RMK 2CU010 5CU020 7SC040 A2984=,- RA SH
20180108_220000.003,0,RJFY,,,,0,20180108220000,-1,-1,-1,-1,300,-1,15,-1,-1,-1,-1,,9999,0,1,3,FEW 10   BKN 20   BKN 40,1,9,1,5,1011,RJFY 082200Z 30015KT 9999 -SHRA FEW010 BKN020 BKN040 09/05     Q1011 RMK 2ST010 5CU020 7SC040 A2986=,- RA SH
20180108_230000.004,0,RJFY,,,,0,20180108230000,-1,-1,-1,-1,290,-1,26,-1,39,-1,-1,,9999,0,1,3,FEW 10   BKN 20   BKN 40,1,10,1,5,1012,RJFY 082300Z 29026G39KT 9999 -SHRA FEW010 BKN020 BKN040 10/05     Q1012 RMK 2ST010 6CU020 7SC040 A2990=,- RA SH
20180109_000000.003,0,RJFY,,,,0,20180109000000,-1,-1,-1,-1,300,-1,17,-1,33,250,320,,9999,0,1,3,FEW 10   BKN 20   BKN 40,1,9,1,4,1012,RJFY 090000Z 30017G33KT 250V320 9999 -SHRA FEW010 BKN020     BKN040 09/04 Q1012 RMK 1ST010 6CU020 7SC040 A2991=,- RA SH
20180109_010000.003,0,RJFY,,,,0,20180109010000,-1,-1,-1,-1,290,-1,19,-1,29,-1,-1,,9999,0,1,3,FEW 10   BKN 20   BKN 40,1,9,1,4,1013,RJFY 090100Z 29019G29KT 9999 -SHRA FEW010 BKN020 BKN040 09/04     Q1013 RMK 1ST010 5CU020 6SC040 A2993=,- RA SH
20180109_020000.003,0,RJFY,,,,0,20180109020000,-1,-1,-1,-1,300,-1,17,-1,27,-1,-1,,9999,0,0,3,SCT 20   BKN 40   BKN 80,1,9,1,4,1012,RJFY 090200Z 30017G27KT 9999 SCT020 BKN040 BKN080 09/04 Q1012     RMK 4CU020 6SC040 7AC080 A2991=,
20180109_030000.003,0,RJFY,,,,0,20180109030000,-1,-1,-1,-1,300,-1,15,-1,26,-1,-1,,9999,0,0,3,FEW 15   BKN 25   BKN 40,1,8,1,3,1012,RJFY 090300Z 30015G26KT 9999 FEW015 BKN025 BKN040 08/03 Q1012     RMK 1CU015 5CU025 6SC040 A2990=,
20180109_040000.003,0,RJFY,,,,0,20180109040000,-1,-1,-1,-1,300,-1,19,-1,32,-1,-1,,9999,0,1,3,FEW 15   BKN 25   BKN 40,1,7,1,2,1012,RJFY 090400Z 30019G32KT 9999 -SHRA FEW015 BKN025 BKN040 07/02     Q1012 RMK 1CU015 6CU025 7SC040 A2990=,- RA SH
20180109_050000.003,0,RJFY,,,,0,20180109050000,-1,-1,-1,-1,310,-1,17,-1,30,280,340,,9999,0,1,3,FEW 15   BKN 30   BKN 40,1,7,1,1,1012,RJFY 090500Z 31017G30KT 280V340 9999 -SHRA FEW015 BKN030     BKN040 07/01 Q1012 RMK 1CU015 5CU030 7SC040 A2989=,- RA SH
20180109_060000.003,0,RJFY,,,,0,20180109060000,-1,-1,-1,-1,300,-1,16,-1,27,-1,-1,,9999,0,1,3,FEW 15   BKN 30   BKN 40,1,8,1,1,1013,RJFY 090600Z 30016G27KT 9999 -SHRA FEW015 BKN030 BKN040 08/01     Q1013 RMK 1CU015 5CU030 7SC040 A2992=,- RA SH
20180109_070000.003,0,RJFY,,,,0,20180109070000,-1,-1,-1,-1,300,-1,15,-1,-1,-1,-1,,9999,0,0,2,BKN 30   BKN 40,1,8,1,1,1013,RJFY 090700Z 30015KT 9999 BKN030 BKN040 08/01 Q1013 RMK 5CU030     6SC040 A2992=,
20180109_080000.003,0,RJFY,,,,0,20180109080000,-1,-1,-1,-1,300,-1,15,-1,25,-1,-1,,9999,0,0,3,FEW 30   SCT 40   BKN 70,1,7,1,0,1014,RJFY 090800Z 30015G25KT 9999 FEW030 SCT040 BKN070 07/00 Q1014     RMK 1CU030 3SC040 5AC070 A2995=,
20180109_090000.003,0,RJFY,,,,0,20180109090000,-1,-1,-1,-1,300,-1,14,-1,-1,-1,-1,,9999,0,0,3,FEW 30   SCT 40   BKN 70,1,7,-1,1,1014,RJFY 090900Z 30014KT 9999 FEW030 SCT040 BKN070 07/M01 Q1014     RMK 1CU030 3SC040 5AC070 A2997=,
20180109_100000.003,0,RJFY,,,,0,20180109100000,-1,-1,-1,-1,290,-1,13,-1,-1,-1,-1,,9999,0,0,3,FEW 30   SCT 70   BKN 230,1,7,-1,1,1015,RJFY 091000Z 29013KT 9999 FEW030 SCT070 BKN230 07/M01 Q1015     RMK 1CU030 3AC070 A2998=,
20180109_110000.003,0,RJFY,,,,0,20180109110000,-1,-1,-1,-1,280,-1,12,-1,-1,-1,-1,,9999,0,0,2,FEW 30   BKN 230,1,7,-1,1,1016,RJFY 091100Z 28012KT 9999 FEW030 BKN230 07/M01 Q1016 RMK     1CU030 A3001=,
20180109_120000.003,0,RJFY,,,,0,20180109120000,-1,-1,-1,-1,270,-1,6,-1,-1,250,320,,9999,0,0,2,FEW 30   BKN 60,1,6,-1,1,1016,RJFY 091200Z 27006KT 250V320 9999 FEW030 BKN060 06/M01 Q1016     RMK 1CU030 5SC060 A3003=,
20180109_130000.003,0,RJFY,,,,0,20180109130000,-1,-1,-1,-1,280,-1,8,-1,-1,-1,-1,,9999,0,1,2,FEW 30   BKN 60,1,6,-1,0,1017,RJFY 091300Z 28008KT 9999 VA FEW030 BKN060 06/M00 Q1017 RMK     1CU030 5SC060 A3004 VOLCANIC ASH OHD MOV SE=,VA
20180109_140000.003,0,RJFY,,,,0,20180109140000,-1,-1,-1,-1,280,-1,7,-1,-1,-1,-1,,9999,0,0,2,FEW 30   BKN 50,1,6,-1,0,1017,RJFY 091400Z 28007KT 9999 FEW030 BKN050 06/M00 Q1017 RMK     1CU030 5SC050 A3004=,
20180109_150000.003,0,RJFY,,,,0,20180109150000,-1,-1,-1,-1,230,-1,3,-1,-1,160,260,,9999,0,0,2,FEW 30   BKN 50,1,4,-1,1,1017,RJFY 091500Z 23003KT 160V260 9999 FEW030 BKN050 04/M01 Q1017     RMK 1CU030 5SC050 A3004=,
20180109_160000.003,0,RJFY,,,,0,20180109160000,-1,-1,-1,-1,90,-1,4,-1,-1,60,120,,9999,0,0,2,FEW 30   BKN 50,1,3,1,0,1016,RJFY 091600Z 09004KT 060V120 9999 FEW030 BKN050 03/00 Q1016     RMK 1CU030 5SC050 A3003=,
20180109_170000.003,0,RJFY,,,,0,20180109170000,-1,-1,-1,-1,330,-1,2,-1,-1,-1,-1,,9999,0,0,2,FEW 30   BKN 50,1,3,1,0,1017,RJFY 091700Z 33002KT 9999 FEW030 BKN050 03/00 Q1017 RMK 1CU030     5SC050 A3004=,
20180109_180000.003,0,RJFY,,,,0,20180109180000,-1,-1,-1,-1,270,-1,7,-1,-1,-1,-1,,9999,0,1,3,FEW 15   BKN 25   BKN 50,1,6,1,3,1017,RJFY 091800Z 27007KT 9999 -SHRA FEW015 BKN025 BKN050 06/03     Q1017 RMK 1CU015 5CU025 7SC050 A3004=,- RA SH
20180109_190000.004,0,RJFY,,,,0,20180109190000,-1,-1,-1,-1,260,-1,7,-1,-1,-1,-1,,9999,0,0,3,FEW 15   SCT 25   BKN 100,1,5,1,3,1017,RJFY 091900Z 26007KT 9999 FEW015 SCT025 BKN100 05/03 Q1017 RMK     1CU015 3CU025 6AC100 A3003=,
20180109_200000.003,0,RJFY,,,,0,20180109200000,-1,-1,-1,-1,290,-1,7,-1,-1,260,330,,5000,0,2,4,FEW 8   SCT 15   BKN 25   FEW 25 TCU,1,6,1,3,1016,RJFY 092000Z 29007KT 260V330 5000 SHRA BR FEW008 SCT015 BKN025     FEW025TCU 06/03 Q1016 RMK 2ST008 3CU015 7CU025 1TCU025           A3001 TCU 5KM NE MOV E=,RA SH; BR
20180109_210000.003,0,RJFY,,,,0,20180109210000,-1,-1,-1,-1,260,-1,4,-1,-1,210,300,,9999,0,1,3,FEW 15   BKN 25   BKN 50,1,6,1,4,1016,RJFY 092100Z 26004KT 210V300 9999 -SHRA FEW015 BKN025 BKN050     06/04 Q1016 RMK 1CU015 5CU025 7SC050 A3001=,- RA SH
20180109_220000.003,0,RJFY,,,,0,20180109220000,-1,-1,-1,-1,270,-1,20,-1,31,240,300,,9999,0,0,3,FEW 15   BKN 25   BKN 70,1,9,1,2,1016,RJFY 092200Z 27020G31KT 240V300 9999 FEW015 BKN025 BKN070     09/02 Q1016 RMK 1CU015 5CU025 6AC070 A3002=,
20180109_230000.003,0,RJFY,,,,0,20180109230000,-1,-1,-1,-1,280,-1,15,-1,-1,-1,-1,,9999,0,0,3,FEW 15   BKN 25   BKN 70,1,8,1,2,1016,RJFY 092300Z 28015KT 9999 FEW015 BKN025 BKN070 08/02 Q1016 RMK     1CU015 5CU025 5AC070 A3001=,
20180110_000000.003,0,RJFY,,,,0,20180110000000,-1,-1,-1,-1,280,-1,18,-1,28,-1,-1,,9999,0,0,3,FEW 25   SCT 50   BKN 70,1,8,1,2,1016,RJFY 100000Z 28018G28KT 9999 FEW025 SCT050 BKN070 08/02 Q1016     RMK 2CU025 3SC050 6AC070 A3003=,
20180110_010000.003,0,RJFY,,,,0,20180110010000,-1,-1,-1,-1,270,-1,21,-1,32,-1,-1,,9999,0,0,2,FEW 15   BKN 25,1,9,1,3,1016,RJFY 100100Z 27021G32KT 9999 FEW015 BKN025 09/03 Q1016 RMK     1CU015 5CU025 A3002=,
20180110_020000.003,0,RJFY,,,,0,20180110020000,-1,-1,-1,-1,270,-1,21,-1,32,-1,-1,,9999,0,0,3,FEW 15   SCT 25   BKN 80,1,10,1,1,1016,RJFY 100200Z 27021G32KT 9999 FEW015 SCT025 BKN080 10/01 Q1016     RMK 1CU015 4CU025 5AC080 A3001=,
20180110_030000.003,0,RJFY,,,,0,20180110030000,-1,-1,-1,-1,280,-1,23,-1,33,250,310,,9999,0,1,3,FEW 15   SCT 25   BKN 90,1,8,1,4,1015,RJFY 100300Z 28023G33KT 250V310 9999 -SHRA FEW015 SCT025     BKN090 08/04 Q1015 RMK 1CU015 4CU025 6AC090 A3000=,- RA SH
20180110_040000.004,0,RJFY,,,,0,20180110040000,-1,-1,-1,-1,270,-1,25,-1,38,-1,-1,,9999,0,1,3,FEW 15   SCT 25   BKN 80,1,8,1,4,1014,RJFY 100400Z 27025G38KT 9999 -SHRA FEW015 SCT025 BKN080 08/04     Q1014 RMK 2CU015 4CU025 7AC080 A2997=,- RA SH
20180110_050000.003,0,RJFY,,,,0,20180110050000,-1,-1,-1,-1,290,-1,20,-1,32,-1,-1,,9999,0,1,3,FEW 15   BKN 25   BKN 80,1,8,1,4,1014,RJFY 100500Z 29020G32KT 9999 -SHRA FEW015 BKN025 BKN080 08/04     Q1014 RMK 2CU015 6CU025 7AC080 A2997=,- RA SH
20180110_060000.003,0,RJFY,,,,0,20180110060000,-1,-1,-1,-1,300,-1,16,-1,27,-1,-1,,9999,0,1,3,FEW 10   BKN 25   BKN 80,1,7,1,4,1015,RJFY 100600Z 30016G27KT 9999 -SHRA FEW010 BKN025 BKN080 07/04     Q1015 RMK 1CU010 6CU025 7AC080 A2998=,- RA SH
20180110_070000.003,0,RJFY,,,,0,20180110070000,-1,-1,-1,-1,310,-1,17,-1,27,-1,-1,,9999,0,1,3,FEW 10   BKN 25   BKN 80,1,7,1,3,1015,RJFY 100700Z 31017G27KT 9999 -SHRA FEW010 BKN025 BKN080 07/03     Q1015 RMK 1CU010 6CU025 7AC080 A2999=,- RA SH
20180110_080000.003,0,RJFY,,,,0,20180110080000,-1,-1,-1,-1,310,-1,18,-1,29,-1,-1,,9999,0,1,3,FEW 10   BKN 25   BKN 80,1,6,1,2,1016,RJFY 100800Z 31018G29KT 9999 -SHRA FEW010 BKN025 BKN080 06/02     Q1016 RMK 1CU010 6CU025 7AC080 A3001=,- RA SH
20180110_090000.003,0,RJFY,,,,0,20180110090000,-1,-1,-1,-1,310,-1,20,-1,35,-1,-1,,9999,0,1,3,SCT 10   BKN 25   BKN 80,1,5,1,2,1017,RJFY 100900Z 31020G35KT 9999 -SHRA SCT010 BKN025 BKN080 05/02     Q1017 RMK 3CU010 6CU025 7AC080 A3004=,- RA SH
20180110_100000.003,0,RJFY,,,,0,20180110100000,-1,-1,-1,-1,310,-1,15,-1,25,-1,-1,,9999,0,1,3,FEW 10   BKN 25   BKN 80,1,5,1,2,1017,RJFY 101000Z 31015G25KT 9999 -SHRA FEW010 BKN025 BKN080 05/02     Q1017 RMK 2CU010 6CU025 7AC080 A3006=,- RA SH
20180110_110000.003,0,RJFY,,,,0,20180110110000,-1,-1,-1,-1,290,-1,17,-1,35,-1,-1,,9999,0,1,3,FEW 10   BKN 25   BKN 80,1,5,1,2,1018,RJFY 101100Z 29017G35KT 9999 -SHRA FEW010 BKN025 BKN080 05/02     Q1018 RMK 1CU010 5CU025 6AC080 A3008=,- RA SH
20180110_120000.003,0,RJFY,,,,0,20180110120000,-1,-1,-1,-1,290,-1,16,-1,26,-1,-1,,9999,0,1,3,FEW 10   BKN 25   BKN 80,1,5,1,1,1019,RJFY 101200Z 29016G26KT 9999 -SHRA FEW010 BKN025 BKN080 05/01     Q1019 RMK 1CU010 5CU025 6AC080 A3009=,- RA SH
20180110_130000.003,0,RJFY,,,,0,20180110130000,-1,-1,-1,-1,300,-1,14,-1,24,-1,-1,,9999,0,1,3,FEW 10   BKN 25   BKN 80,1,4,1,0,1019,RJFY 101300Z 30014G24KT 9999 -SHRA FEW010 BKN025 BKN080 04/00     Q1019 RMK 1CU010 5CU025 7AC080 A3011=,- RA SH
20180110_140000.003,0,RJFY,,,,0,20180110140000,-1,-1,-1,-1,300,-1,11,-1,21,260,330,,9999,0,1,3,FEW 10   BKN 25   BKN 80,1,5,-1,0,1019,RJFY 101400Z 30011G21KT 260V330 9999 -SHRA FEW010 BKN025     BKN080 05/M00 Q1019 RMK 1CU010 5CU025 6AC080 A3012=,- RA SH
20180110_150000.003,0,RJFY,,,,0,20180110150000,-1,-1,-1,-1,300,-1,16,-1,27,-1,-1,,9999,0,1,3,FEW 10   BKN 25   BKN 80,1,5,-1,1,1020,RJFY 101500Z 30016G27KT 9999 -SHRA FEW010 BKN025 BKN080 05/M01     Q1020 RMK 1CU010 5CU025 7AC080 A3012=,- RA SH
20180110_160000.003,0,RJFY,,,,0,20180110160000,-1,-1,-1,-1,300,-1,15,-1,25,-1,-1,,9999,0,1,3,FEW 10   BKN 25   BKN 80,1,5,-1,2,1020,RJFY 101600Z 30015G25KT 9999 -SHRA FEW010 BKN025 BKN080 05/M02     Q1020 RMK 1CU010 5CU025 6AC080 A3012=,- RA SH
20180110_170000.003,0,RJFY,,,,0,20180110170000,-1,-1,-1,-1,300,-1,16,-1,26,270,330,,9999,0,1,3,FEW 10   BKN 25   BKN 80,1,4,-1,2,1020,RJFY 101700Z 30016G26KT 270V330 9999 -SHRA FEW010 BKN025     BKN080 04/M02 Q1020 RMK 1CU010 5CU025 6AC080 A3013=,- RA SH
20180110_180000.003,0,RJFY,,,,0,20180110180000,-1,-1,-1,-1,300,-1,14,-1,-1,-1,-1,,9999,0,0,3,FEW 10   SCT 25   BKN 80,1,4,-1,2,1020,RJFY 101800Z 30014KT 9999 FEW010 SCT025 BKN080 04/M02 Q1020     RMK 1CU010 4CU025 6AC080 A3013=,
20180110_190000.003,0,RJFY,,,,0,20180110190000,-1,-1,-1,-1,300,-1,14,-1,-1,-1,-1,,9999,0,0,3,FEW 10   SCT 25   BKN 80,1,4,-1,2,1020,RJFY 101900Z 30014KT 9999 FEW010 SCT025 BKN080 04/M02 Q1020     RMK 1CU010 3CU025 5AC080 A3013=,
20180110_200000.003,0,RJFY,,,,0,20180110200000,-1,-1,-1,-1,290,-1,14,-1,24,-1,-1,,9999,0,0,2,FEW 25   SCT 80,1,3,-1,2,1020,RJFY 102000Z 29014G24KT 9999 FEW025 SCT080 03/M02 Q1020 RMK     2CU025 4AC080 A3015=,
20180110_210000.003,0,RJFY,,,,0,20180110210000,-1,-1,-1,-1,300,-1,15,-1,25,-1,-1,,9999,0,1,2,SCT 25   BKN 70,1,3,-1,2,1020,RJFY 102100Z 30015G25KT 9999 -SHRA SCT025 BKN070 03/M02 Q1020     RMK 4CU025 5AC070 A3014=,- RA SH
20180110_220000.003,0,RJFY,,,,0,20180110220000,-1,-1,-1,-1,300,-1,15,-1,25,-1,-1,,9999,0,1,2,SCT 25   BKN 70,1,3,-1,2,1021,RJFY 102200Z 30015G25KT 9999 -SHRA SCT025 BKN070 03/M02 Q1021     RMK 4CU025 6AC070 A3016=,- RA SH
20180110_230000.004,0,RJFY,,,,0,20180110230000,-1,-1,-1,-1,290,-1,10,-1,20,-1,-1,,9999,0,0,2,FEW 15   SCT 25,1,3,-1,3,1021,RJFY 102300Z 29010G20KT 9999 FEW015 SCT025 03/M03 Q1021 RMK     1CU015 3CU025 A3017=,
20180111_000000.003,0,RJFY,,,,0,20180111000000,-1,-1,-1,-1,300,-1,12,-1,-1,270,330,,9999,0,0,2,FEW 15   SCT 25,1,4,-1,2,1021,RJFY 110000Z 30012KT 270V330 9999 FEW015 SCT025 04/M02 Q1021     RMK 1CU015 3CU025 A3017=,
20180111_010000.003,0,RJFY,,,,0,20180111010000,-1,-1,-1,-1,270,-1,11,-1,-1,-1,-1,,9999,0,0,2,FEW 15   SCT 25,1,5,-1,1,1022,RJFY 110100Z 27011KT 9999 FEW015 SCT025 05/M01 Q1022 RMK     1CU015 4CU025 A3019=,
20180111_020000.003,0,RJFY,,,,0,20180111020000,-1,-1,-1,-1,290,-1,15,-1,25,-1,-1,,9999,0,1,2,FEW 15   SCT 25,1,5,-1,1,1022,RJFY 110200Z 29015G25KT 9999 -SHRA FEW015 SCT025 05/M01 Q1022     RMK 1CU015 4CU025 A3018=,- RA SH
20180111_030000.002,0,RJFY,,,,0,20180111030000,-1,-1,-1,-1,290,-1,18,-1,-1,-1,-1,,9999,0,0,2,FEW 15   SCT 25,1,6,-1,2,1021,RJFY 110300Z 29018KT 9999 FEW015 SCT025 06/M02 Q1021 RMK     1CU015 4CU025 A3017 VOLCANIC ASH 20KM N-NE MOV E=,
20180111_040000.003,0,RJFY,,,,0,20180111040000,-1,-1,-1,-1,290,-1,17,-1,27,-1,-1,,9999,0,0,2,FEW 15   BKN 25,1,5,-1,2,1021,RJFY 110400Z 29017G27KT 9999 FEW015 BKN025 05/M02 Q1021 RMK     1CU015 5CU025 A3016=,
20180111_050000.003,0,RJFY,,,,0,20180111050000,-1,-1,-1,-1,300,-1,17,-1,-1,-1,-1,,9999,0,0,2,FEW 15   SCT 25,1,6,-1,2,1020,RJFY 110500Z 30017KT 9999 FEW015 SCT025 06/M02 Q1020 RMK     1CU015 4CU025 A3014=,
20180111_060000.003,0,RJFY,,,,0,20180111060000,-1,-1,-1,-1,270,-1,13,-1,-1,-1,-1,,9999,0,0,2,FEW 15   SCT 25,1,6,-1,1,1020,RJFY 110600Z 27013KT 9999 FEW015 SCT025 06/M01 Q1020 RMK     1CU015 4CU025 A3013=,
20180111_070000.003,0,RJFY,,,,0,20180111070000,-1,-1,-1,-1,290,-1,13,-1,-1,270,330,,9999,0,0,2,FEW 15   SCT 25,1,5,-1,4,1020,RJFY 110700Z 29013KT 270V330 9999 FEW015 SCT025 05/M04 Q1020     RMK 1CU015 3CU025 A3014=,
20180111_080000.003,0,RJFY,,,,0,20180111080000,-1,-1,-1,-1,300,-1,12,-1,-1,-1,-1,,9999,0,0,2,FEW 15   SCT 25,1,4,-1,4,1021,RJFY 110800Z 30012KT 9999 FEW015 SCT025 04/M04 Q1021 RMK     1CU015 3CU025 A3016=,
20180111_090000.003,0,RJFY,,,,0,20180111090000,-1,-1,-1,-1,250,-1,6,-1,-1,-1,-1,,9999,0,0,2,FEW 15   SCT 25,1,3,-1,4,1022,RJFY 110900Z 25006KT 9999 FEW015 SCT025 03/M04 Q1022 RMK     1CU015 3CU025 A3018=,
20180111_100000.003,0,RJFY,,,,0,20180111100000,-1,-1,-1,-1,230,-1,4,-1,-1,-1,-1,,9999,0,0,2,FEW 15   SCT 25,1,2,-1,4,1022,RJFY 111000Z 23004KT 9999 FEW015 SCT025 02/M04 Q1022 RMK     1CU015 3CU025 A3020=,
20180111_110000.003,0,RJFY,,,,0,20180111110000,-1,-1,-1,-1,110,-1,4,-1,-1,-1,-1,,9999,0,0,2,FEW 15   SCT 25,1,2,-1,4,1023,RJFY 111100Z 11004KT 9999 FEW015 SCT025 02/M04 Q1023 RMK     1CU015 3CU025 A3023=,
20180111_120000.003,0,RJFY,,,,0,20180111120000,-1,-1,-1,-1,160,-1,3,-1,-1,130,190,,9999,0,0,1,FEW 20,1,0,-1,4,1024,RJFY 111200Z 16003KT 130V190 9999 FEW020 00/M04 Q1024 RMK     2CU020 A3025=,
20180111_130000.003,0,RJFY,,,,0,20180111130000,-1,-1,-1,-1,150,-1,4,-1,-1,-1,-1,,9999,0,0,1,FEW 20,-1,0,-1,4,1025,RJFY 111300Z 15004KT 9999 FEW020 M00/M04 Q1025 RMK 2CU020     A3028=,
20180111_140000.003,0,RJFY,,,,0,20180111140000,-1,-1,-1,-1,999,-1,1,-1,-1,-1,-1,,9999,0,0,2,FEW 15   SCT 20,-1,1,-1,4,1025,RJFY 111400Z VRB01KT 9999 FEW015 SCT020 M01/M04 Q1025 RMK     1CU015 3CU020 A3028=,
20180111_150000.003,0,RJFY,,,,0,20180111150000,-1,-1,-1,-1,80,-1,1,-1,-1,-1,-1,,9999,0,0,3,FEW 15   SCT 20   BKN 45,-1,1,-1,4,1025,RJFY 111500Z 08001KT 9999 FEW015 SCT020 BKN045 M01/M04 Q1025     RMK 1CU015 3CU020 6SC045 A3028=,
20180111_160000.003,0,RJFY,,,,0,20180111160000,-1,-1,-1,-1,999,-1,1,-1,-1,-1,-1,,9999,0,0,2,FEW 15   SCT 20,-1,1,-1,4,1025,RJFY 111600Z VRB01KT 9999 FEW015 SCT020 M01/M04 Q1025 RMK     1CU015 3CU020 A3027=,
20180111_170000.003,0,RJFY,,,,0,20180111170000,-1,-1,-1,-1,999,-1,2,-1,-1,-1,-1,,9999,0,0,2,FEW 15   BKN 45,-1,1,-1,4,1025,RJFY 111700Z VRB02KT 9999 FEW015 BKN045 M01/M04 Q1025 RMK     1CU015 5SC045 A3028=,
20180111_180000.003,0,RJFY,,,,0,20180111180000,-1,-1,-1,-1,999,-1,1,-1,-1,-1,-1,,9999,0,0,1,FEW 20,-1,1,-1,4,1025,RJFY 111800Z VRB01KT 9999 FEW020 M01/M04 Q1025 RMK 1CU020     A3028=,
20180111_190000.003,0,RJFY,,,,0,20180111190000,-1,-1,-1,-1,150,-1,2,-1,-1,-1,-1,,9999,0,0,1,FEW 20,-1,1,-1,4,1025,RJFY 111900Z 15002KT 9999 FEW020 M01/M04 Q1025 RMK 1CU020     A3028=,
20180111_200000.003,0,RJFY,,,,0,20180111200000,-1,-1,-1,-1,210,-1,3,-1,-1,150,290,,9999,0,0,1,FEW 20,-1,2,-1,5,1025,RJFY 112000Z 21003KT 150V290 9999 FEW020 M02/M05 Q1025 RMK     1CU020 A3028=,
20180111_210000.003,0,RJFY,,,,0,20180111210000,-1,-1,-1,-1,170,-1,1,-1,-1,-1,-1,,9999,0,0,2,FEW 20   SCT 50,-1,2,-1,5,1026,RJFY 112100Z 17001KT 9999 FEW020 SCT050 M02/M05 Q1026 RMK     1CU020 3SC050 A3031=,
20180111_220000.004,0,RJFY,,,,0,20180111220000,-1,-1,-1,-1,170,-1,2,-1,-1,-1,-1,,9999,0,0,1,FEW 20,-1,2,-1,6,1026,RJFY 112200Z 17002KT 9999 FEW020 M02/M06 Q1026 RMK 1CU020     A3031=,
20180111_230000.003,0,RJFY,,,,0,20180111230000,-1,-1,-1,-1,80,-1,1,-1,-1,-1,-1,,9999,0,0,1,FEW 20,-1,3,-1,6,1026,RJFY 112300Z 08001KT 9999 FEW020 M03/M06 Q1026 RMK 2CU020     A3032=,
20180112_000000.003,0,RJFY,,,,0,20180112000000,-1,-1,-1,-1,120,-1,2,-1,-1,-1,-1,,9999,0,0,2,FEW 30   SCT 45,-1,0,-1,5,1026,RJFY 120000Z 12002KT 9999 FEW030 SCT045 M00/M05 Q1026 RMK     1CU030 3SC045 A3032=,
20180112_010000.004,0,RJFY,,,,0,20180112010000,-1,-1,-1,-1,160,-1,5,-1,-1,100,210,,9999,0,0,2,FEW 30   SCT 45,1,2,-1,4,1026,RJFY 120100Z 16005KT 100V210 9999 FEW030 SCT045 02/M04 Q1026     RMK 1CU030 3SC045 A3033=,
20180112_020000.003,0,RJFY,,,,0,20180112020000,-1,-1,-1,-1,170,-1,4,-1,-1,110,240,,9999,0,0,2,FEW 30   SCT 45,1,4,-1,6,1026,RJFY 120200Z 17004KT 110V240 9999 FEW030 SCT045 04/M06 Q1026     RMK 1CU030 3SC045 A3032=,
20180112_030000.003,0,RJFY,,,,0,20180112030000,-1,-1,-1,-1,70,-1,7,-1,-1,40,100,,9999,0,0,2,FEW 30   BKN 45,1,3,-1,5,1026,RJFY 120300Z 07007KT 040V100 9999 FEW030 BKN045 03/M05 Q1026     RMK 1CU030 5SC045 A3031=,
20180112_040000.003,0,RJFY,,,,0,20180112040000,-1,-1,-1,-1,340,-1,5,-1,-1,-1,-1,,9999,0,0,2,FEW 30   BKN 45,1,4,-1,6,1025,RJFY 120400Z 34005KT 9999 FEW030 BKN045 04/M06 Q1025 RMK     1CU030 5SC045 A3029=,
20180112_050000.004,0,RJFY,,,,0,20180112050000,-1,-1,-1,-1,310,-1,7,-1,-1,260,50,,9999,0,0,1,FEW 30,1,6,-1,6,1024,RJFY 120500Z 31007KT 260V050 9999 FEW030 06/M06 Q1024 RMK     2CU030 A3027=,
20180112_060000.003,0,RJFY,,,,0,20180112060000,-1,-1,-1,-1,300,-1,11,-1,21,280,340,,9999,0,0,2,FEW 30   SCT 45,1,5,-1,6,1025,RJFY 120600Z 30011G21KT 280V340 9999 FEW030 SCT045 05/M06     Q1025 RMK 1CU030 4SC045 A3028=,
20180112_070000.004,0,RJFY,,,,0,20180112070000,-1,-1,-1,-1,300,-1,10,-1,-1,260,340,,9999,0,0,2,FEW 30   SCT 45,1,5,-1,6,1025,RJFY 120700Z 30010KT 260V340 9999 FEW030 SCT045 05/M06 Q1025     RMK 1CU030 3SC045 A3029=,
20180112_080000.003,0,RJFY,,,,0,20180112080000,-1,-1,-1,-1,320,-1,12,-1,-1,290,350,,9999,0,0,1,FEW 30,1,4,-1,7,1026,RJFY 120800Z 32012KT 290V350 9999 FEW030 04/M07 Q1026 RMK     2CU030 A3031=,
20180112_090000.003,0,RJFY,,,,0,20180112090000,-1,-1,-1,-1,999,-1,2,-1,-1,-1,-1,,9999,0,0,2,FEW 30   SCT 50,1,2,-1,7,1027,RJFY 120900Z VRB02KT 9999 FEW030 SCT050 02/M07 Q1027 RMK     1CU030 3SC050 A3035=,
20180112_100000.003,0,RJFY,,,,0,20180112100000,-1,-1,-1,-1,0,-1,0,-1,-1,-1,-1,,9999,0,0,2,FEW 30   SCT 50,1,0,-1,6,1027,RJFY 121000Z 00000KT 9999 FEW030 SCT050 00/M06 Q1027 RMK     1CU030 3SC050 A3036=,
20180112_110000.003,0,RJFY,,,,0,20180112110000,-1,-1,-1,-1,999,-1,2,-1,-1,-1,-1,,9999,0,0,1,FEW 30,1,0,-1,5,1028,RJFY 121100Z VRB02KT 9999 FEW030 00/M05 Q1028 RMK 1CU030     A3036=,
20180112_120000.003,0,RJFY,,,,0,20180112120000,-1,-1,-1,-1,150,-1,5,-1,-1,-1,-1,,9999,0,0,1,FEW 30,-1,1,-1,5,1028,RJFY 121200Z 15005KT 9999 FEW030 M01/M05 Q1028 RMK 1CU030     A3037=,
20180112_130000.003,0,RJFY,,,,0,20180112130000,-1,-1,-1,-1,160,-1,7,-1,-1,-1,-1,,9999,0,0,1,FEW 30,-1,1,-1,5,1029,RJFY 121300Z 16007KT 9999 FEW030 M01/M05 Q1029 RMK 1CU030     A3039=,
20180112_140000.003,0,RJFY,,,,0,20180112140000,-1,-1,-1,-1,160,-1,4,-1,-1,-1,-1,,9999,0,0,1,FEW 30,1,0,-1,6,1029,RJFY 121400Z 16004KT 9999 FEW030 00/M06 Q1029 RMK 1CU030     A3040=,
20180112_150000.003,0,RJFY,,,,0,20180112150000,-1,-1,-1,-1,999,-1,2,-1,-1,-1,-1,,9999,0,0,1,FEW 30,-1,2,-1,5,1029,RJFY 121500Z VRB02KT 9999 FEW030 M02/M05 Q1029 RMK 1CU030     A3040=,
20180112_160000.003,0,RJFY,,,,0,20180112160000,-1,-1,-1,-1,999,-1,1,-1,-1,-1,-1,,9999,0,0,1,FEW 30,-1,4,-1,7,1029,RJFY 121600Z VRB01KT 9999 FEW030 M04/M07 Q1029 RMK 1CU030     A3039=,
20180112_170000.003,0,RJFY,,,,0,20180112170000,-1,-1,-1,-1,999,-1,1,-1,-1,-1,-1,,9999,0,0,1,FEW 30,-1,3,-1,6,1029,RJFY 121700Z VRB01KT 9999 FEW030 M03/M06 Q1029 RMK 1CU030     A3039=,
20180112_180000.003,0,RJFY,,,,0,20180112180000,-1,-1,-1,-1,999,-1,2,-1,-1,-1,-1,,9999,0,0,1,FEW 30,-1,2,-1,5,1028,RJFY 121800Z VRB02KT 9999 FEW030 M02/M05 Q1028 RMK 1CU030     A3038=,
20180112_190000.003,0,RJFY,,,,0,20180112190000,-1,-1,-1,-1,999,-1,2,-1,-1,-1,-1,,9999,0,0,1,FEW 30,-1,3,-1,6,1028,RJFY 121900Z VRB02KT 9999 FEW030 M03/M06 Q1028 RMK 1CU030     A3037=,
20180112_200000.004,0,RJFY,,,,0,20180112200000,-1,-1,-1,-1,999,-1,2,-1,-1,-1,-1,,9999,0,0,1,FEW 30,-1,3,-1,6,1028,RJFY 122000Z VRB02KT 9999 FEW030 M03/M06 Q1028 RMK 1CU030     A3038=,
20180112_210000.003,0,RJFY,,,,0,20180112210000,-1,-1,-1,-1,100,-1,3,-1,-1,-1,-1,,9999,0,0,1,FEW 30,-1,4,-1,6,1029,RJFY 122100Z 10003KT 9999 FEW030 M04/M06 Q1029 RMK 1CU030     A3039=,
20180112_220000.003,0,RJFY,,,,0,20180112220000,-1,-1,-1,-1,999,-1,2,-1,-1,-1,-1,,9999,0,0,2,FEW 30   SCT 50,-1,4,-1,7,1029,RJFY 122200Z VRB02KT 9999 FEW030 SCT050 M04/M07 Q1029 RMK     1CU030 3SC050 A3041=,
20180112_230000.003,0,RJFY,,,,0,20180112230000,-1,-1,-1,-1,130,-1,2,-1,-1,-1,-1,,9999,0,0,2,FEW 30   BKN 50,-1,2,-1,6,1030,RJFY 122300Z 13002KT 9999 FEW030 BKN050 M02/M06 Q1030 RMK     1CU030 6SC050 A3043=,
20180113_000000.003,0,RJFY,,,,0,20180113000000,-1,-1,-1,-1,130,-1,3,-1,-1,70,170,,9999,0,0,2,FEW 30   BKN 50,1,1,-1,6,1031,RJFY 130000Z 13003KT 070V170 9999 FEW030 BKN050 01/M06 Q1031     RMK 1CU030 5SC050 A3045=,
20180113_010000.004,0,RJFY,,,,0,20180113010000,-1,-1,-1,-1,150,-1,4,-1,-1,100,190,,9999,0,0,2,FEW 30   BKN 50,1,2,-1,6,1031,RJFY 130100Z 15004KT 100V190 9999 FEW030 BKN050 02/M06 Q1031     RMK 1CU030 6SC050 A3045=,
20180113_020000.003,0,RJFY,,,,0,20180113020000,-1,-1,-1,-1,160,-1,4,-1,-1,110,220,,9999,0,0,2,FEW 30   BKN 50,1,4,-1,5,1030,RJFY 130200Z 16004KT 110V220 9999 FEW030 BKN050 04/M05 Q1030     RMK 1CU030 5SC050 A3044=,
20180113_030000.003,0,RJFY,,,,0,20180113030000,-1,-1,-1,-1,280,-1,14,-1,24,240,310,,9999,0,0,2,FEW 30   BKN 50,1,6,-1,4,1029,RJFY 130300Z 28014G24KT 240V310 9999 FEW030 BKN050 06/M04     Q1029 RMK 1CU030 5SC050 A3040=,
20180113_040000.003,0,RJFY,,,,0,20180113040000,-1,-1,-1,-1,300,-1,14,-1,24,-1,-1,,9999,0,1,2,FEW 30   SCT 50,1,8,-1,3,1028,RJFY 130400Z 30014G24KT 9999 VCVA FEW030 SCT050 08/M03 Q1028     RMK 1CU030 4SC050 A3038 VOLCANIC ASH 10KM N MOV E=,VC VA
20180113_050000.003,0,RJFY,,,,0,20180113050000,-1,-1,-1,-1,310,-1,17,-1,27,270,330,,9999,0,1,2,FEW 30   SCT 50,1,8,-1,4,1028,RJFY 130500Z 31017G27KT 270V330 9999 VCVA FEW030 SCT050 08/M04     Q1028 RMK 1CU030 3SC050 A3037 VOLCANIC ASH 10KM N MOV E=,VC VA
20180113_060000.003,0,RJFY,,,,0,20180113060000,-1,-1,-1,-1,290,-1,17,-1,27,-1,-1,,9999,0,0,2,FEW 30   SCT 50,1,8,-1,3,1028,RJFY 130600Z 29017G27KT 9999 FEW030 SCT050 08/M03 Q1028 RMK     1CU030 3SC050 A3037=,
20180113_070000.003,0,RJFY,,,,0,20180113070000,-1,-1,-1,-1,300,-1,13,-1,-1,-1,-1,,9999,0,0,1,FEW 30,1,7,-1,3,1028,RJFY 130700Z 30013KT 9999 FEW030 07/M03 Q1028 RMK 1CU030     A3036=,
20180113_080000.003,0,RJFY,,,,0,20180113080000,-1,-1,-1,-1,300,-1,10,-1,-1,270,330,,9999,0,0,1,FEW 30,1,6,-1,3,1028,RJFY 130800Z 30010KT 270V330 9999 FEW030 06/M03 Q1028 RMK     1CU030 A3038=,
20180113_090000.003,0,RJFY,,,,0,20180113090000,-1,-1,-1,-1,310,-1,10,-1,-1,280,340,,9999,0,0,2,FEW 30   SCT 50,1,5,-1,4,1029,RJFY 130900Z 31010KT 280V340 9999 FEW030 SCT050 05/M04 Q1029     RMK 1CU030 3SC050 A3041=,
20180113_100000.003,0,RJFY,,,,0,20180113100000,-1,-1,-1,-1,290,-1,11,-1,-1,-1,-1,,9999,0,0,1,FEW 30,1,5,-1,3,1031,RJFY 131000Z 29011KT 9999 FEW030 05/M03 Q1031 RMK 1CU030     A3046=,
20180113_110000.003,0,RJFY,,,,0,20180113110000,-1,-1,-1,-1,90,-1,3,-1,-1,-1,-1,,9999,0,0,1,FEW 30,1,4,-1,3,1031,RJFY 131100Z 09003KT 9999 FEW030 04/M03 Q1031 RMK 1CU030     A3046=,
20180113_120000.003,0,RJFY,,,,0,20180113120000,-1,-1,-1,-1,290,-1,4,-1,-1,270,330,,9999,0,0,1,FEW 30,1,3,-1,3,1030,RJFY 131200Z 29004KT 270V330 9999 FEW030 03/M03 Q1030 RMK     1CU030 A3044=,
20180113_130000.003,0,RJFY,,,,0,20180113130000,-1,-1,-1,-1,999,-1,2,-1,-1,-1,-1,,9999,0,0,1,FEW 30,1,1,-1,4,1031,RJFY 131300Z VRB02KT 9999 FEW030 01/M04 Q1031 RMK 1CU030     A3045=,
20180113_140000.004,0,RJFY,,,,0,20180113140000,-1,-1,-1,-1,140,-1,3,-1,-1,80,170,,9999,0,0,1,FEW 30,1,0,-1,4,1030,RJFY 131400Z 14003KT 080V170 9999 FEW030 00/M04 Q1030 RMK     1CU030 A3044=,
20180113_150000.003,0,RJFY,,,,0,20180113150000,-1,-1,-1,-1,250,-1,3,-1,-1,210,280,,9999,0,0,1,FEW 30,1,0,-1,4,1030,RJFY 131500Z 25003KT 210V280 9999 FEW030 00/M04 Q1030 RMK     1CU030 A3043=,
20180113_160000.003,0,RJFY,,,,0,20180113160000,-1,-1,-1,-1,999,-1,1,-1,-1,-1,-1,,9999,0,0,2,FEW 30   SCT 230,-1,1,-1,4,1030,RJFY 131600Z VRB01KT 9999 FEW030 SCT230 M01/M04 Q1030 RMK     1CU030 A3042=,
20180113_170000.003,0,RJFY,,,,0,20180113170000,-1,-1,-1,-1,40,-1,3,-1,-1,-1,-1,,9999,0,0,2,FEW 30   SCT 230,-1,1,-1,3,1030,RJFY 131700Z 04003KT 9999 FEW030 SCT230 M01/M03 Q1030 RMK     1CU030 A3043=,
20180113_180000.003,0,RJFY,,,,0,20180113180000,-1,-1,-1,-1,130,-1,1,-1,-1,-1,-1,,9999,0,0,2,FEW 30   SCT 230,-1,1,-1,4,1030,RJFY 131800Z 13001KT 9999 FEW030 SCT230 M01/M04 Q1030 RMK     1CU030 A3043=,
20180113_190000.004,0,RJFY,,,,0,20180113190000,-1,-1,-1,-1,60,-1,2,-1,-1,-1,-1,,9999,0,0,2,FEW 30   SCT 230,-1,2,-1,4,1030,RJFY 131900Z 06002KT 9999 FEW030 SCT230 M02/M04 Q1030 RMK     1CU030 A3043=,
20180113_200000.004,0,RJFY,,,,0,20180113200000,-1,-1,-1,-1,50,-1,3,-1,-1,-1,-1,,9999,0,0,2,FEW 30   BKN 230,-1,2,-1,4,1029,RJFY 132000Z 05003KT 9999 FEW030 BKN230 M02/M04 Q1029 RMK     1CU030 A3041=,
20180113_210000.003,0,RJFY,,,,0,20180113210000,-1,-1,-1,-1,130,-1,5,-1,-1,-1,-1,,9999,0,0,2,FEW 30   BKN 230,-1,0,-1,4,1030,RJFY 132100Z 13005KT 9999 FEW030 BKN230 M00/M04 Q1030 RMK     1CU030 A3043=,
20180113_220000.003,0,RJFY,,,,0,20180113220000,-1,-1,-1,-1,140,-1,3,-1,-1,-1,-1,,9999,0,0,2,FEW 30   BKN 230,1,1,-1,5,1032,RJFY 132200Z 14003KT 9999 FEW030 BKN230 01/M05 Q1032 RMK     1CU030 A3048=,
20180113_230000.003,0,RJFY,,,,0,20180113230000,-1,-1,-1,-1,40,-1,2,-1,-1,-1,-1,,9999,0,0,2,FEW 30   BKN 230,-1,1,-1,4,1032,RJFY 132300Z 04002KT 9999 FEW030 BKN230 M01/M04 Q1032 RMK     1CU030 A3048=,
20180114_000000.004,0,RJFY,,,,0,20180114000000,-1,-1,-1,-1,130,-1,4,-1,-1,90,160,,9999,0,0,2,FEW 30   BKN 230,1,1,-1,3,1031,RJFY 140000Z 13004KT 090V160 9999 FEW030 BKN230 01/M03 Q1031     RMK 1CU030 A3047=,
20180114_010000.003,0,RJFY,,,,0,20180114010000,-1,-1,-1,-1,110,-1,4,-1,-1,80,150,,9999,0,0,3,FEW 30   SCT 180   BKN 230,1,4,-1,3,1031,RJFY 140100Z 11004KT 080V150 9999 FEW030 SCT180 BKN230 04/M03     Q1031 RMK 1CU030 3AC180 A3047=,
20180114_020000.003,0,RJFY,,,,0,20180114020000,-1,-1,-1,-1,90,-1,5,-1,-1,-1,-1,,9999,0,0,2,FEW 30   BKN 200,1,8,-1,3,1031,RJFY 140200Z 09005KT 9999 FEW030 BKN200 08/M03 Q1031 RMK     1CU030 A3045=,
20180114_030000.003,0,RJFY,,,,0,20180114030000,-1,-1,-1,-1,80,-1,7,-1,-1,-1,-1,,9999,0,0,2,FEW 30   BKN 200,1,9,-1,3,1030,RJFY 140300Z 08007KT 9999 FEW030 BKN200 09/M03 Q1030 RMK     1CU030 A3042=,
20180114_040000.003,0,RJFY,,,,0,20180114040000,-1,-1,-1,-1,50,-1,7,-1,-1,-1,-1,,9999,0,0,2,FEW 30   BKN 200,1,9,-1,3,1028,RJFY 140400Z 05007KT 9999 FEW030 BKN200 09/M03 Q1028 RMK     1CU030 A3038=,
20180114_050000.003,0,RJFY,,,,0,20180114050000,-1,-1,-1,-1,100,-1,3,-1,-1,-1,-1,,9999,0,0,2,FEW 30   BKN 200,1,10,-1,1,1027,RJFY 140500Z 10003KT 9999 FEW030 BKN200 10/M01 Q1027 RMK     1CU030 A3035=,
20180114_060000.004,0,RJFY,,,,0,20180114060000,-1,-1,-1,-1,150,-1,4,-1,-1,110,220,,9999,0,0,2,FEW 30   SCT 200,1,11,1,0,1027,RJFY 140600Z 15004KT 110V220 9999 FEW030 SCT200 11/00 Q1027     RMK 1CU030 A3035=,
20180114_070000.003,0,RJFY,,,,0,20180114070000,-1,-1,-1,-1,999,-1,2,-1,-1,-1,-1,,9999,0,0,2,FEW 30   BKN 200,1,11,1,0,1027,RJFY 140700Z VRB02KT 9999 FEW030 BKN200 11/00 Q1027 RMK 1CU030     A3035=,
20180114_080000.003,0,RJFY,,,,0,20180114080000,-1,-1,-1,-1,90,-1,5,-1,-1,-1,-1,,9999,0,0,2,FEW 30   SCT 200,1,11,1,0,1027,RJFY 140800Z 09005KT 9999 FEW030 SCT200 11/00 Q1027 RMK 1CU030     A3033=,
20180114_090000.003,0,RJFY,,,,0,20180114090000,-1,-1,-1,-1,90,-1,4,-1,-1,-1,-1,,9999,0,0,1,FEW 30,1,8,-1,0,1027,RJFY 140900Z 09004KT 9999 FEW030 08/M00 Q1027 RMK 1CU030     A3034=,
20180114_100000.003,0,RJFY,,,,0,20180114100000,-1,-1,-1,-1,60,-1,3,-1,-1,-1,-1,,9999,0,0,1,FEW 30,1,7,1,1,1027,RJFY 141000Z 06003KT 9999 FEW030 07/01 Q1027 RMK 1CU030 A3035=,
20180114_110000.003,0,RJFY,,,,0,20180114110000,-1,-1,-1,-1,10,-1,7,-1,-1,-1,-1,,9999,0,0,1,FEW 30,1,7,1,1,1028,RJFY 141100Z 01007KT 9999 FEW030 07/01 Q1028 RMK 1CU030 A3036=,
20180114_120000.003,0,RJFY,,,,0,20180114120000,-1,-1,-1,-1,90,-1,3,-1,-1,40,130,,9999,0,0,1,FEW 30,1,6,1,1,1028,RJFY 141200Z 09003KT 040V130 9999 FEW030 06/01 Q1028 RMK     1CU030 A3038=,
20180114_130000.004,0,RJFY,,,,0,20180114130000,-1,-1,-1,-1,130,-1,5,-1,-1,-1,-1,,9999,0,0,2,FEW 30   BKN 50,1,5,1,1,1028,RJFY 141300Z 13005KT 9999 FEW030 BKN050 05/01 Q1028 RMK 1CU030     5SC050 A3038=,
20180114_140000.003,0,RJFY,,,,0,20180114140000,-1,-1,-1,-1,130,-1,6,-1,-1,-1,-1,,9999,0,0,1,FEW 30,1,4,1,1,1028,RJFY 141400Z 13006KT 9999 FEW030 04/01 Q1028 RMK 1CU030 A3037=,
20180114_150000.003,0,RJFY,,,,0,20180114150000,-1,-1,-1,-1,130,-1,6,-1,-1,-1,-1,,9999,0,0,1,FEW 30,1,4,1,0,1028,RJFY 141500Z 13006KT 9999 FEW030 04/00 Q1028 RMK 1CU030 A3036=,
20180114_160000.003,0,RJFY,,,,0,20180114160000,-1,-1,-1,-1,120,-1,5,-1,-1,-1,-1,,9999,0,0,1,FEW 30,1,3,-1,0,1027,RJFY 141600Z 12005KT 9999 FEW030 03/M00 Q1027 RMK 1CU030     A3036=,
20180114_170000.003,0,RJFY,,,,0,20180114170000,-1,-1,-1,-1,130,-1,6,-1,-1,-1,-1,,9999,0,0,1,FEW 30,1,1,-1,0,1027,RJFY 141700Z 13006KT 9999 FEW030 01/M00 Q1027 RMK 1CU030     A3035=,
20180114_180000.004,0,RJFY,,,,0,20180114180000,-1,-1,-1,-1,80,-1,3,-1,-1,30,120,,9999,0,0,1,FEW 30,1,1,-1,1,1027,RJFY 141800Z 08003KT 030V120 9999 FEW030 01/M01 Q1027 RMK     1CU030 A3033=,
20180114_190000.003,0,RJFY,,,,0,20180114190000,-1,-1,-1,-1,999,-1,2,-1,-1,-1,-1,,9999,0,0,1,FEW 30,1,2,1,0,1026,RJFY 141900Z VRB02KT 9999 FEW030 02/00 Q1026 RMK 1CU030 A3032=,
20180114_200000.004,0,RJFY,,,,0,20180114200000,-1,-1,-1,-1,999,-1,2,-1,-1,-1,-1,,9999,0,0,1,FEW 30,1,1,-1,1,1026,RJFY 142000Z VRB02KT 9999 FEW030 01/M01 Q1026 RMK 1CU030     A3032=,
20180114_210000.003,0,RJFY,,,,0,20180114210000,-1,-1,-1,-1,30,-1,1,-1,-1,-1,-1,,9999,0,0,1,FEW 30,-1,0,-1,2,1026,RJFY 142100Z 03001KT 9999 FEW030 M00/M02 Q1026 RMK 1CU030     A3032=,
20180114_220000.003,0,RJFY,,,,0,20180114220000,-1,-1,-1,-1,90,-1,2,-1,-1,-1,-1,,9999,0,0,1,FEW 30,-1,0,-1,2,1027,RJFY 142200Z 09002KT 9999 FEW030 M00/M02 Q1027 RMK 1CU030     A3033 VOLCANIC ASH 20KM NW MOV E=,
20180114_230000.003,0,RJFY,,,,0,20180114230000,-1,-1,-1,-1,350,-1,2,-1,-1,-1,-1,,9999,0,1,1,FEW 30,1,1,-1,1,1027,RJFY 142300Z 35002KT 9999 VCVA FEW030 01/M01 Q1027 RMK 1CU030     A3034 VOLCANIC ASH 15KM NE AND NW MOV E=,VC VA
20180115_000000.003,0,RJFY,,,,0,20180115000000,-1,-1,-1,-1,999,-1,1,-1,-1,-1,-1,,9999,0,1,1,FEW 30,1,4,1,1,1027,RJFY 150000Z VRB01KT 9999 VCVA FEW030 04/01 Q1027 RMK 1CU030     A3034 VOLCANIC ASH 15KM NE MOV E=,VC VA
20180115_010000.003,0,RJFY,,,,0,20180115010000,-1,-1,-1,-1,80,-1,3,-1,-1,50,140,,9999,0,1,1,FEW 30,1,8,1,3,1027,RJFY 150100Z 08003KT 050V140 9999 VCVA FEW030 08/03 Q1027 RMK     1CU030 A3034 VOLCANIC ASH 15KM NE MOV E=,VC VA
20180115_020000.003,0,RJFY,,,,0,20180115020000,-1,-1,-1,-1,90,-1,3,-1,-1,30,150,,9999,0,1,1,FEW 30,1,12,1,5,1026,RJFY 150200Z 09003KT 030V150 9999 VCVA FEW030 12/05 Q1026 RMK     1CU030 A3032 VOLCANIC ASH 15KM NE MOV E=,VC VA
20180115_030000.003,0,RJFY,,,,0,20180115030000,-1,-1,-1,-1,110,-1,4,-1,-1,40,170,,9999,0,1,1,FEW 30,1,15,1,7,1025,RJFY 150300Z 11004KT 040V170 9999 VCVA FEW030 15/07 Q1025 RMK     1CU030 A3028 VOLCANIC ASH 15KM NW MOV E=,VC VA
20180115_040000.003,0,RJFY,,,,0,20180115040000,-1,-1,-1,-1,150,-1,4,-1,-1,-1,-1,,9999,0,1,1,FEW 30,1,16,1,7,1024,RJFY 150400Z 15004KT 9999 VCVA FEW030 16/07 Q1024 RMK 2CU030     A3024 VOLCANIC ASH 15KM N MOV E=,VC VA
20180115_050000.003,0,RJFY,,,,0,20180115050000,-1,-1,-1,-1,999,-1,2,-1,-1,-1,-1,,9999,0,1,1,SCT 30,1,17,1,6,1023,RJFY 150500Z VRB02KT 9999 VCVA SCT030 17/06 Q1023 RMK 3CU030     A3022 VOLCANIC ASH 15KM N MOV E=,VC VA
20180115_060000.003,0,RJFY,,,,0,20180115060000,-1,-1,-1,-1,240,-1,5,-1,-1,160,300,,9999,0,1,1,SCT 30,1,17,1,5,1022,RJFY 150600Z 24005KT 160V300 9999 VCVA SCT030 17/05 Q1022 RMK     3CU030 A3021 VOLCANIC ASH 15KM N MOV E=,VC VA
20180115_070000.005,0,RJFY,,,,0,20180115070000,-1,-1,-1,-1,270,-1,6,-1,-1,-1,-1,,9999,0,1,2,FEW 30   SCT 60,1,16,1,5,1023,RJFY 150700Z 27006KT 9999 VCVA FEW030 SCT060 16/05 Q1023 RMK     1CU030 3SC060 A3021 VOLCANIC ASH 15KM N MOV E=,VC VA
20180115_080000.003,0,RJFY,,,,0,20180115080000,-1,-1,-1,-1,260,-1,3,-1,-1,250,310,,9999,0,1,2,FEW 30   BKN 60,1,16,1,6,1023,RJFY 150800Z 26003KT 250V310 9999 VCVA FEW030 BKN060 16/06     Q1023 RMK 1CU030 5SC060 A3022 VOLCANIC ASH 15KM NW-N MOV           E=,VC VA
20180115_090000.003,0,RJFY,,,,0,20180115090000,-1,-1,-1,-1,30,-1,4,-1,-1,-1,-1,,9999,0,1,2,FEW 30   BKN 60,1,14,1,8,1024,RJFY 150900Z 03004KT 9999 VCVA FEW030 BKN060 14/08 Q1024 RMK     1CU030 5SC060 A3024 VOLCANIC ASH 15KM NE MOV E=,VC VA
20180115_100000.003,0,RJFY,,,,0,20180115100000,-1,-1,-1,-1,20,-1,1,-1,-1,-1,-1,,9999,0,0,1,FEW 30,1,10,1,6,1024,RJFY 151000Z 02001KT 9999 FEW030 10/06 Q1024 RMK 1CU030 A3025=,
20180115_110000.003,0,RJFY,,,,0,20180115110000,-1,-1,-1,-1,0,-1,0,-1,-1,-1,-1,,9999,0,0,2,FEW 30   SCT 90,1,9,1,6,1024,RJFY 151100Z 00000KT 9999 FEW030 SCT090 09/06 Q1024 RMK 1CU030     3AC090 A3026=,
20180115_120000.003,0,RJFY,,,,0,20180115120000,-1,-1,-1,-1,0,-1,0,-1,-1,-1,-1,,9999,0,0,1,FEW 30,1,9,1,7,1024,RJFY 151200Z 00000KT 9999 FEW030 09/07 Q1024 RMK 1CU030 A3026=,
20180115_130000.003,0,RJFY,,,,0,20180115130000,-1,-1,-1,-1,140,-1,2,-1,-1,-1,-1,,9999,0,0,1,FEW 30,1,7,1,5,1024,RJFY 151300Z 14002KT 9999 FEW030 07/05 Q1024 RMK 1CU030 A3026=,
20180115_140000.003,0,RJFY,,,,0,20180115140000,-1,-1,-1,-1,20,-1,1,-1,-1,-1,-1,,9999,0,0,1,FEW 30,1,6,1,6,1024,RJFY 151400Z 02001KT 9999 FEW030 06/06 Q1024 RMK 1CU030 A3026=,
20180115_150000.003,0,RJFY,,,,0,20180115150000,-1,-1,-1,-1,50,-1,1,-1,-1,-1,-1,,9999,0,0,1,FEW 30,1,4,1,3,1024,RJFY 151500Z 05001KT 9999 FEW030 04/03 Q1024 RMK 1CU030 A3025=,
20180115_160000.003,0,RJFY,,,,0,20180115160000,-1,-1,-1,-1,20,-1,1,-1,-1,-1,-1,,9999,0,0,2,FEW 30   SCT 80,1,5,1,5,1024,RJFY 151600Z 02001KT 9999 FEW030 SCT080 05/05 Q1024 RMK 1CU030     4AC080 A3024=,
20180115_170000.003,0,RJFY,,,,0,20180115170000,-1,-1,-1,-1,80,-1,2,-1,-1,-1,-1,,9999,0,0,2,FEW 30   BKN 80,1,6,1,5,1024,RJFY 151700Z 08002KT 9999 FEW030 BKN080 06/05 Q1024 RMK 1CU030     6AC080 A3024=,
20180115_180000.003,0,RJFY,,,,0,20180115180000,-1,-1,-1,-1,0,-1,0,-1,-1,-1,-1,,9999,0,0,2,FEW 30   BKN 80,1,6,1,5,1023,RJFY 151800Z 00000KT 9999 FEW030 BKN080 06/05 Q1023 RMK 1CU030     6AC080 A3022=,
20180115_190000.003,0,RJFY,,,,0,20180115190000,-1,-1,-1,-1,999,-1,2,-1,-1,-1,-1,,9999,0,0,2,FEW 30   SCT 80,1,6,1,5,1023,RJFY 151900Z VRB02KT 9999 FEW030 SCT080 06/05 Q1023 RMK 1CU030     3AC080 A3021=,
20180115_200000.003,0,RJFY,,,,0,20180115200000,-1,-1,-1,-1,999,-1,2,-1,-1,-1,-1,,9999,0,0,2,FEW 30   BKN 70,1,5,1,4,1022,RJFY 152000Z VRB02KT 9999 FEW030 BKN070 05/04 Q1022 RMK 1CU030     5AC070 A3021=,
20180115_210000.003,0,RJFY,,,,0,20180115210000,-1,-1,-1,-1,360,-1,1,-1,-1,-1,-1,,9999,0,0,2,FEW 30   SCT 70,1,5,1,4,1023,RJFY 152100Z 36001KT 9999 FEW030 SCT070 05/04 Q1023 RMK 1CU030     3AC070 A3021=,
20180115_220000.003,0,RJFY,,,,0,20180115220000,-1,-1,-1,-1,80,-1,1,-1,-1,-1,-1,,9999,0,1,1,FEW 20,1,3,1,3,1023,RJFY 152200Z 08001KT 9999 MIFG FEW020 03/03 Q1023 RMK 1CU020     A3022 FG E-S=,MI FG
20180115_230000.003,0,RJFY,,,,0,20180115230000,-1,-1,-1,-1,350,-1,1,-1,-1,-1,-1,,9999,0,1,1,FEW 20,1,3,1,3,1023,RJFY 152300Z 35001KT 9999 MIFG FEW020 03/03 Q1023 RMK 1CU020     A3021 FG E-S=,MI FG
20180116_000000.003,0,RJFY,,,,0,20180116000000,-1,-1,-1,-1,120,-1,3,-1,-1,70,160,,9999,0,0,1,FEW 20,1,8,1,7,1022,RJFY 160000Z 12003KT 070V160 9999 FEW020 08/07 Q1022 RMK     1CU020 A3021=,
20180116_010000.003,0,RJFY,,,,0,20180116010000,-1,-1,-1,-1,80,-1,1,-1,-1,-1,-1,,9999,0,0,1,FEW 20,1,12,1,8,1022,RJFY 160100Z 08001KT 9999 FEW020 12/08 Q1022 RMK 1CU020 A3020=,
20180116_020000.003,0,RJFY,,,,0,20180116020000,-1,-1,-1,-1,50,-1,4,-1,-1,-1,-1,,9999,0,0,1,FEW 30,1,17,1,9,1021,RJFY 160200Z 05004KT 9999 FEW030 17/09 Q1021 RMK 1CU030 A3018=,
20180116_030000.003,0,RJFY,,,,0,20180116030000,-1,-1,-1,-1,999,-1,2,-1,-1,-1,-1,,9999,0,0,1,FEW 30,1,18,1,9,1020,RJFY 160300Z VRB02KT 9999 FEW030 18/09 Q1020 RMK 2CU030 A3014=,
20180116_040000.003,0,RJFY,,,,0,20180116040000,-1,-1,-1,-1,120,-1,6,-1,-1,60,150,,9999,0,0,2,FEW 30   SCT 40,1,18,1,8,1019,RJFY 160400Z 12006KT 060V150 9999 FEW030 SCT040 18/08 Q1019     RMK 1CU030 3SC040 A3009 P/FR=,
20180116_050000.003,0,RJFY,,,,0,20180116050000,-1,-1,-1,-1,130,-1,6,-1,-1,90,160,,9999,0,0,1,FEW 30,1,19,1,8,1017,RJFY 160500Z 13006KT 090V160 9999 FEW030 19/08 Q1017 RMK     1CU030 A3006=,
20180116_060000.003,0,RJFY,,,,0,20180116060000,-1,-1,-1,-1,140,-1,6,-1,-1,-1,-1,,9999,0,0,1,FEW 30,1,19,1,8,1017,RJFY 160600Z 14006KT 9999 FEW030 19/08 Q1017 RMK 1CU030 A3005=,
20180116_070000.003,0,RJFY,,,,0,20180116070000,-1,-1,-1,-1,170,-1,6,-1,-1,100,230,,9999,0,0,2,FEW 30   SCT 70,1,18,1,8,1017,RJFY 160700Z 17006KT 100V230 9999 FEW030 SCT070 18/08 Q1017     RMK 1CU030 3AC070 A3004=,
20180116_080000.003,0,RJFY,,,,0,20180116080000,-1,-1,-1,-1,130,-1,5,-1,-1,70,180,,9999,0,0,2,FEW 30   SCT 150,1,17,1,8,1017,RJFY 160800Z 13005KT 070V180 9999 FEW030 SCT150 17/08 Q1017     RMK 1CU030 4AC150 A3003=,
20180116_090000.003,0,RJFY,,,,0,20180116090000,-1,-1,-1,-1,999,-1,2,-1,-1,-1,-1,,9999,0,0,2,FEW 30   BKN 170,1,16,1,8,1017,RJFY 160900Z VRB02KT 9999 FEW030 BKN170 16/08 Q1017 RMK 1CU030     6AC170 A3003=,
20180116_100000.003,0,RJFY,,,,0,20180116100000,-1,-1,-1,-1,999,-1,2,-1,-1,-1,-1,,9999,0,0,2,FEW 30   BKN 150,1,15,1,8,1017,RJFY 161000Z VRB02KT 9999 FEW030 BKN150 15/08 Q1017 RMK 1CU030     7AC150 A3003=,
20180116_110000.005,0,RJFY,,,,0,20180116110000,-1,-1,-1,-1,140,-1,3,-1,-1,90,190,,9999,0,0,2,FEW 30   BKN 150,1,14,1,9,1016,RJFY 161100Z 14003KT 090V190 9999 FEW030 BKN150 14/09 Q1016     RMK 1CU030 7AC150 A3002=,
20180116_120000.003,0,RJFY,,,,0,20180116120000,-1,-1,-1,-1,170,-1,4,-1,-1,110,220,,9999,0,0,3,FEW 30   BKN 50   BKN 150,1,17,1,10,1016,RJFY 161200Z 17004KT 110V220 9999 FEW030 BKN050 BKN150 17/10     Q1016 RMK 1CU030 5SC050 7AC150 A3002=,
20180116_130000.003,0,RJFY,,,,0,20180116130000,-1,-1,-1,-1,160,-1,6,-1,-1,110,220,,9999,0,0,3,FEW 30   SCT 50   BKN 150,1,17,1,11,1015,RJFY 161300Z 16006KT 110V220 9999 FEW030 SCT050 BKN150 17/11     Q1015 RMK 1CU030 3SC050 7AC150 A2999=,
20180116_140000.003,0,RJFY,,,,0,20180116140000,-1,-1,-1,-1,999,-1,1,-1,-1,-1,-1,,9999,0,0,3,FEW 30   SCT 50   BKN 120,1,17,1,11,1015,RJFY 161400Z VRB01KT 9999 FEW030 SCT050 BKN120 17/11 Q1015 RMK     1CU030 3SC050 7AC120 A2998=,
20180116_150000.003,0,RJFY,,,,0,20180116150000,-1,-1,-1,-1,190,-1,3,-1,-1,-1,-1,,9999,0,0,2,FEW 30   BKN 90,1,17,1,11,1014,RJFY 161500Z 19003KT 9999 FEW030 BKN090 17/11 Q1014 RMK 1CU030     7AC090 A2995=,
20180116_160000.003,0,RJFY,,,,0,20180116160000,-1,-1,-1,-1,200,-1,5,-1,-1,130,250,,9999,0,0,3,FEW 30   SCT 40   BKN 90,1,18,1,12,1013,RJFY 161600Z 20005KT 130V250 9999 FEW030 SCT040 BKN090 18/12     Q1013 RMK 1CU030 4SC040 7AC090 A2993=,
20180116_170000.003,0,RJFY,,,,0,20180116170000,-1,-1,-1,-1,230,-1,6,-1,-1,190,260,,9999,0,0,3,FEW 30   BKN 40   BKN 90,1,18,1,13,1012,RJFY 161700Z 23006KT 190V260 9999 FEW030 BKN040 BKN090 18/13     Q1012 RMK 1CU030 5SC040 7AC090 A2991=,
20180116_180000.003,0,RJFY,,,,0,20180116180000,-1,-1,-1,-1,220,-1,7,-1,-1,170,260,,9999,0,0,3,FEW 30   BKN 40   BKN 90,1,18,1,12,1012,RJFY 161800Z 22007KT 170V260 9999 FEW030 BKN040 BKN090 18/12     Q1012 RMK 1CU030 5SC040 7AC090 A2990=,
20180116_190000.003,0,RJFY,,,,0,20180116190000,-1,-1,-1,-1,190,-1,7,-1,-1,130,270,,9999,0,0,3,FEW 30   BKN 50   BKN 90,1,18,1,13,1011,RJFY 161900Z 19007KT 130V270 9999 FEW030 BKN050 BKN090 18/13     Q1011 RMK 2CU030 5SC050 7AC090 A2987=,
20180116_200000.003,0,RJFY,,,,0,20180116200000,-1,-1,-1,-1,210,-1,5,-1,-1,140,250,,9999,0,1,3,FEW 20   BKN 30   BKN 50,1,17,1,13,1011,RJFY 162000Z 21005KT 140V250 9999 -SHRA FEW020 BKN030 BKN050     17/13 Q1011 RMK 1CU020 5CU030 7SC050 A2986=,- RA SH
20180116_210000.003,0,RJFY,,,,0,20180116210000,-1,-1,-1,-1,280,-1,14,-1,-1,-1,-1,,4000,0,2,4,FEW 5   SCT 15   BKN 25   FEW 25 CB,1,15,1,14,1012,RJFY 162100Z 28014KT 4000 -SHRA BR FEW005 SCT015 BKN025     FEW025CB 15/14 Q1012 RMK 1ST005 3CU015 7CU025 1CB025           A2990 CB 10KM NE MOV NE=,- RA SH; BR
20180116_220000.003,0,RJFY,,,,0,20180116220000,-1,-1,-1,-1,220,-1,6,-1,-1,190,250,,4000,0,2,4,FEW 5   SCT 15   BKN 25   FEW 25 TCU,1,15,1,14,1013,RJFY 162200Z 22006KT 190V250 4000 SHRA BR FEW005 SCT015 BKN025     FEW025TCU 15/14 Q1013 RMK 1ST005 3CU015 7CU025 1TCU025           A2993 TCU OHD MOV NE=,RA SH; BR
20180116_230000.003,0,RJFY,,,,0,20180116230000,-1,-1,-1,-1,999,-1,3,-1,-1,-1,-1,,9999,0,1,3,FEW 8   SCT 25   BKN 80,1,14,1,14,1012,RJFY 162300Z VRB03KT 9999 -SHRA FEW008 SCT025 BKN080 14/14     Q1012 RMK 1ST008 4CU025 7AC080 A2989 P/FR=,- RA SH
20180117_000000.004,0,RJFY,,,,0,20180117000000,-1,-1,-1,-1,240,-1,7,-1,-1,-1,-1,,9999,0,0,3,FEW 2   SCT 25   BKN 130,1,15,1,14,1013,RJFY 170000Z 24007KT 9999 FEW002 SCT025 BKN130 15/14 Q1013 RMK     1ST002 3CU025 6AC130 A2993=,
20180117_010000.003,0,RJFY,,,,0,20180117010000,-1,-1,-1,-1,240,-1,9,-1,-1,-1,-1,,9999,0,0,3,FEW 6   SCT 15   BKN 130,1,16,1,15,1013,RJFY 170100Z 24009KT 9999 FEW006 SCT015 BKN130 16/15 Q1013 RMK     2ST006 3CU015 6AC130 A2994=,
20180117_020000.006,0,RJFY,,,,0,20180117020000,-1,-1,-1,-1,250,-1,11,-1,-1,-1,-1,,9999,0,0,3,FEW 8   SCT 15   BKN 130,1,18,1,16,1013,RJFY 170200Z 25011KT 9999 FEW008 SCT015 BKN130 18/16 Q1013 RMK     1ST008 3CU015 6AC130 A2993=,
20180117_030000.004,0,RJFY,,,,0,20180117030000,-1,-1,-1,-1,280,-1,14,-1,-1,-1,-1,,9999,0,0,2,FEW 10   SCT 20,1,19,1,14,1013,RJFY 170300Z 28014KT 9999 FEW010 SCT020 19/14 Q1013 RMK 1CU010     3CU020 A2992=,
20180117_040000.004,0,RJFY,,,,0,20180117040000,-1,-1,-1,-1,280,-1,15,-1,-1,-1,-1,,9999,0,0,2,FEW 25   SCT 150,1,19,1,14,1012,RJFY 170400Z 28015KT 9999 FEW025 SCT150 19/14 Q1012 RMK 2CU025     3AC150 A2990=,
20180117_050000.004,0,RJFY,,,,0,20180117050000,-1,-1,-1,-1,280,-1,19,-1,-1,-1,-1,,9999,0,0,2,FEW 30   SCT 50,1,19,1,11,1012,RJFY 170500Z 28019KT 9999 FEW030 SCT050 19/11 Q1012 RMK 1CU030     4SC050 A2991=,
20180117_060000.003,0,RJFY,,,,0,20180117060000,-1,-1,-1,-1,270,-1,17,-1,-1,-1,-1,,9999,0,0,2,FEW 30   BKN 50,1,19,1,11,1013,RJFY 170600Z 27017KT 9999 FEW030 BKN050 19/11 Q1013 RMK 1CU030     5SC050 A2992=,
20180117_070000.004,0,RJFY,,,,0,20180117070000,-1,-1,-1,-1,290,-1,19,-1,-1,-1,-1,,9999,0,1,3,FEW 15   BKN 30   BKN 50,1,15,1,12,1014,RJFY 170700Z 29019KT 9999 -SHRA FEW015 BKN030 BKN050 15/12     Q1014 RMK 1CU015 5CU030 7SC050 A2994=,- RA SH
20180117_080000.003,0,RJFY,,,,0,20180117080000,-1,-1,-1,-1,280,-1,16,-1,-1,-1,-1,,9999,0,0,2,FEW 15   SCT 30,1,15,1,11,1014,RJFY 170800Z 28016KT 9999 FEW015 SCT030 15/11 Q1014 RMK 1CU015     3CU030 A2997=,
20180117_090000.004,0,RJFY,,,,0,20180117090000,-1,-1,-1,-1,290,-1,17,-1,-1,-1,-1,,9999,0,0,2,FEW 15   SCT 30,1,14,1,9,1015,RJFY 170900Z 29017KT 9999 FEW015 SCT030 14/09 Q1015 RMK 1CU015     3CU030 A2998=,
20180117_100000.003,0,RJFY,,,,0,20180117100000,-1,-1,-1,-1,270,-1,8,-1,18,240,300,,9999,0,0,2,FEW 15   SCT 30,1,13,1,8,1016,RJFY 171000Z 27008G18KT 240V300 9999 FEW015 SCT030 13/08 Q1016     RMK 1CU015 3CU030 A3001=,
20180117_110000.004,0,RJFY,,,,0,20180117110000,-1,-1,-1,-1,280,-1,13,-1,-1,-1,-1,,9999,0,0,1,FEW 15,1,13,1,8,1016,RJFY 171100Z 28013KT 9999 FEW015 13/08 Q1016 RMK 1CU015 A3003=,
20180117_120000.004,0,RJFY,,,,0,20180117120000,-1,-1,-1,-1,270,-1,11,-1,-1,-1,-1,,9999,0,0,1,FEW 30,1,12,1,7,1017,RJFY 171200Z 27011KT 9999 FEW030 12/07 Q1017 RMK 1CU030 A3005=,
20180117_130000.003,0,RJFY,,,,0,20180117130000,-1,-1,-1,-1,290,-1,8,-1,-1,-1,-1,,9999,0,0,1,FEW 30,1,11,1,7,1018,RJFY 171300Z 29008KT 9999 FEW030 11/07 Q1018 RMK 1CU030 A3006=,
20180117_140000.003,0,RJFY,,,,0,20180117140000,-1,-1,-1,-1,360,-1,3,-1,-1,290,60,,9999,0,0,1,FEW 30,1,9,1,6,1018,RJFY 171400Z 36003KT 290V060 9999 FEW030 09/06 Q1018 RMK     1CU030 A3007=,
20180117_150000.003,0,RJFY,,,,0,20180117150000,-1,-1,-1,-1,350,-1,3,-1,-1,-1,-1,,9999,0,0,1,FEW 30,1,8,1,6,1018,RJFY 171500Z 35003KT 9999 FEW030 08/06 Q1018 RMK 1CU030 A3008=,
20180117_160000.003,0,RJFY,,,,0,20180117160000,-1,-1,-1,-1,270,-1,4,-1,-1,-1,-1,,9999,0,0,1,FEW 30,1,8,1,6,1018,RJFY 171600Z 27004KT 9999 FEW030 08/06 Q1018 RMK 1CU030 A3009=,
20180117_170000.003,0,RJFY,,,,0,20180117170000,-1,-1,-1,-1,280,-1,3,-1,-1,-1,-1,,9999,0,0,1,FEW 30,1,6,1,5,1018,RJFY 171700Z 28003KT 9999 FEW030 06/05 Q1018 RMK 1CU030 A3007=,
20180117_180000.003,0,RJFY,,,,0,20180117180000,-1,-1,-1,-1,320,-1,3,-1,-1,-1,-1,,9999,0,0,1,FEW 30,1,6,1,5,1017,RJFY 171800Z 32003KT 9999 FEW030 06/05 Q1017 RMK 1CU030 A3005=,
20180117_190000.004,0,RJFY,,,,0,20180117190000,-1,-1,-1,-1,250,-1,4,-1,-1,-1,-1,,9999,0,0,1,FEW 30,1,6,1,5,1018,RJFY 171900Z 25004KT 9999 FEW030 06/05 Q1018 RMK 1CU030 A3006=,
20180117_200000.003,0,RJFY,,,,0,20180117200000,-1,-1,-1,-1,220,-1,7,-1,-1,-1,-1,,9999,0,0,1,FEW 30,1,8,1,7,1019,RJFY 172000Z 22007KT 9999 FEW030 08/07 Q1019 RMK 1CU030 A3010=,
20180117_210000.003,0,RJFY,,,,0,20180117210000,-1,-1,-1,-1,999,-1,2,-1,-1,-1,-1,,9999,0,0,1,FEW 30,1,6,1,5,1019,RJFY 172100Z VRB02KT 9999 FEW030 06/05 Q1019 RMK 1CU030 A3011=,
20180117_220000.004,0,RJFY,,,,0,20180117220000,-1,-1,-1,-1,999,-1,1,-1,-1,-1,-1,,9999,0,0,1,FEW 30,1,5,1,4,1020,RJFY 172200Z VRB01KT 9999 FEW030 05/04 Q1020 RMK 1CU030 A3012=,
20180117_230000.003,0,RJFY,,,,0,20180117230000,-1,-1,-1,-1,80,-1,2,-1,-1,-1,-1,,9999,0,0,1,FEW 30,1,4,1,3,1019,RJFY 172300Z 08002KT 9999 FEW030 04/03 Q1019 RMK 1CU030 A3011     VOLCANIC ASH 20KM N MOV E=,
20180118_000000.003,0,RJFY,,,,0,20180118000000,-1,-1,-1,-1,290,-1,5,-1,-1,-1,-1,,9999,0,1,1,FEW 20,1,8,1,6,1019,RJFY 180000Z 29005KT 9999 VCVA FEW020 08/06 Q1019 RMK 1CU020     A3011 VOLCANIC ASH 10KM N MOV E=,VC VA
20180118_010000.003,0,RJFY,,,,0,20180118010000,-1,-1,-1,-1,260,-1,13,-1,-1,-1,-1,,9999,0,1,1,FEW 20,1,13,1,6,1020,RJFY 180100Z 26013KT 9999 VCVA FEW020 13/06 Q1020 RMK 1CU020     A3012 VOLCANIC ASH 15KM NE MOV E=,VC VA
20180118_020000.003,0,RJFY,,,,0,20180118020000,-1,-1,-1,-1,270,-1,13,-1,-1,-1,-1,,9999,0,1,1,FEW 20,1,14,1,6,1020,RJFY 180200Z 27013KT 9999 VCVA FEW020 14/06 Q1020 RMK 1CU020     A3012 VOLCANIC ASH 15KM N MOV E=,VC VA
20180118_030000.004,0,RJFY,,,,0,20180118030000,-1,-1,-1,-1,290,-1,11,-1,21,220,330,,9999,0,1,1,FEW 20,1,15,1,6,1019,RJFY 180300Z 29011G21KT 220V330 9999 VA FEW020 15/06 Q1019 RMK     1CU020 A3010 VOLCANIC ASH OHD MOV SE=,VA
20180118_040000.003,0,RJFY,,,,0,20180118040000,-1,-1,-1,-1,280,-1,14,-1,-1,-1,-1,,9999,0,1,1,FEW 20,1,16,1,7,1018,RJFY 180400Z 28014KT 9999 VCVA FEW020 16/07 Q1018 RMK 1CU020     A3009 VOLCANIC ASH 10KM SE MOV SE=,VC VA
20180118_050000.003,0,RJFY,,,,0,20180118050000,-1,-1,-1,-1,270,-1,12,-1,-1,-1,-1,,9999,0,0,1,FEW 20,1,16,1,7,1017,RJFY 180500Z 27012KT 9999 FEW020 16/07 Q1017 RMK 1CU020 A3006=,
20180118_060000.003,0,RJFY,,,,0,20180118060000,-1,-1,-1,-1,270,-1,10,-1,-1,240,300,,9999,0,0,1,FEW 20,1,16,1,7,1017,RJFY 180600Z 27010KT 240V300 9999 FEW020 16/07 Q1017 RMK     1CU020 A3004=,
20180118_070000.003,0,RJFY,,,,0,20180118070000,-1,-1,-1,-1,270,-1,10,-1,-1,-1,-1,,9999,0,0,1,FEW 20,1,16,1,7,1017,RJFY 180700Z 27010KT 9999 FEW020 16/07 Q1017 RMK 1CU020 A3005     VOLCANIC ASH 20KM N MOV E=,
20180118_080000.003,0,RJFY,,,,0,20180118080000,-1,-1,-1,-1,260,-1,8,-1,-1,-1,-1,,9999,0,0,1,FEW 30,1,15,1,7,1018,RJFY 180800Z 26008KT 9999 FEW030 15/07 Q1018 RMK 1CU030 A3006     VOLCANIC ASH 20KM E MOV E=,
20180118_090000.003,0,RJFY,,,,0,20180118090000,-1,-1,-1,-1,270,-1,10,-1,-1,-1,-1,,9999,0,0,1,FEW 30,1,14,1,7,1019,RJFY 180900Z 27010KT 9999 FEW030 14/07 Q1019 RMK 1CU030 A3009=,
20180118_100000.003,0,RJFY,,,,0,20180118100000,-1,-1,-1,-1,280,-1,11,-1,-1,-1,-1,,9999,0,0,1,FEW 30,1,12,1,7,1019,RJFY 181000Z 28011KT 9999 FEW030 12/07 Q1019 RMK 1CU030 A3011=,
20180118_110000.003,0,RJFY,,,,0,20180118110000,-1,-1,-1,-1,280,-1,9,-1,-1,-1,-1,,9999,0,0,1,FEW 30,1,11,1,6,1020,RJFY 181100Z 28009KT 9999 FEW030 11/06 Q1020 RMK 1CU030 A3014=,
20180118_120000.003,0,RJFY,,,,0,20180118120000,-1,-1,-1,-1,310,-1,5,-1,-1,-1,-1,,9999,0,0,1,FEW 30,1,10,1,6,1020,RJFY 181200Z 31005KT 9999 FEW030 10/06 Q1020 RMK 1CU030 A3014=,
20180118_130000.003,0,RJFY,,,,0,20180118130000,-1,-1,-1,-1,260,-1,6,-1,-1,-1,-1,,9999,0,0,1,FEW 30,1,9,1,6,1021,RJFY 181300Z 26006KT 9999 FEW030 09/06 Q1021 RMK 1CU030 A3016=,
20180118_140000.003,0,RJFY,,,,0,20180118140000,-1,-1,-1,-1,999,-1,1,-1,-1,-1,-1,,9999,0,0,1,FEW 30,1,8,1,6,1021,RJFY 181400Z VRB01KT 9999 FEW030 08/06 Q1021 RMK 1CU030 A3017=,
20180118_150000.003,0,RJFY,,,,0,20180118150000,-1,-1,-1,-1,350,-1,2,-1,-1,-1,-1,,9999,0,0,1,FEW 30,1,6,1,5,1021,RJFY 181500Z 35002KT 9999 FEW030 06/05 Q1021 RMK 1CU030 A3016=,
20180118_160000.003,0,RJFY,,,,0,20180118160000,-1,-1,-1,-1,270,-1,2,-1,-1,-1,-1,,9999,0,0,1,FEW 30,1,6,1,4,1020,RJFY 181600Z 27002KT 9999 FEW030 06/04 Q1020 RMK 1CU030 A3014=,
20180118_170000.003,0,RJFY,,,,0,20180118170000,-1,-1,-1,-1,250,-1,3,-1,-1,-1,-1,,9999,0,0,1,FEW 30,1,5,1,4,1020,RJFY 181700Z 25003KT 9999 FEW030 05/04 Q1020 RMK 1CU030 A3013=,
20180118_180000.003,0,RJFY,,,,0,20180118180000,-1,-1,-1,-1,270,-1,7,-1,-1,-1,-1,,9999,0,0,1,FEW 30,1,6,1,5,1020,RJFY 181800Z 27007KT 9999 FEW030 06/05 Q1020 RMK 1CU030 A3014=,
20180118_190000.003,0,RJFY,,,,0,20180118190000,-1,-1,-1,-1,250,-1,5,-1,-1,-1,-1,,9999,0,0,1,FEW 30,1,8,1,6,1020,RJFY 181900Z 25005KT 9999 FEW030 08/06 Q1020 RMK 1CU030 A3014=,
20180118_200000.003,0,RJFY,,,,0,20180118200000,-1,-1,-1,-1,250,-1,6,-1,-1,-1,-1,,9999,0,0,1,FEW 30,1,7,1,5,1020,RJFY 182000Z 25006KT 9999 FEW030 07/05 Q1020 RMK 1CU030 A3014=,
20180118_210000.004,0,RJFY,,,,0,20180118210000,-1,-1,-1,-1,60,-1,1,-1,-1,-1,-1,,9999,0,0,1,FEW 30,1,5,1,4,1020,RJFY 182100Z 06001KT 9999 FEW030 05/04 Q1020 RMK 1CU030 A3014=,
20180118_220000.003,0,RJFY,,,,0,20180118220000,-1,-1,-1,-1,230,-1,2,-1,-1,-1,-1,,9999,0,0,1,FEW 30,1,4,1,3,1020,RJFY 182200Z 23002KT 9999 FEW030 04/03 Q1020 RMK 1CU030 A3014=,
20180118_230000.004,0,RJFY,,,,0,20180118230000,-1,-1,-1,-1,270,-1,4,-1,-1,-1,-1,,9999,0,0,1,FEW 30,1,5,1,4,1021,RJFY 182300Z 27004KT 9999 FEW030 05/04 Q1021 RMK 1CU030 A3015=,
20180119_000000.003,0,RJFY,,,,0,20180119000000,-1,-1,-1,-1,240,-1,7,-1,-1,-1,-1,,9999,0,0,1,FEW 30,1,9,1,6,1021,RJFY 190000Z 24007KT 9999 FEW030 09/06 Q1021 RMK 1CU030 A3016=,
20180119_010000.004,0,RJFY,,,,0,20180119010000,-1,-1,-1,-1,250,-1,11,-1,-1,-1,-1,,9999,0,0,2,FEW 30   BKN 120,1,11,1,5,1021,RJFY 190100Z 25011KT 9999 FEW030 BKN120 11/05 Q1021 RMK 1CU030     6AC120 A3018=,
20180119_020000.003,0,RJFY,,,,0,20180119020000,-1,-1,-1,-1,290,-1,10,-1,-1,250,340,,9999,0,0,2,FEW 30   SCT 120,1,12,1,6,1021,RJFY 190200Z 29010KT 250V340 9999 FEW030 SCT120 12/06 Q1021     RMK 1CU030 3AC120 A3017=,
20180119_030000.003,0,RJFY,,,,0,20180119030000,-1,-1,-1,-1,270,-1,14,-1,-1,-1,-1,,9999,0,0,2,FEW 30   SCT 120,1,13,1,4,1020,RJFY 190300Z 27014KT 9999 FEW030 SCT120 13/04 Q1020 RMK 1CU030     3AC120 A3014=,
20180119_040000.003,0,RJFY,,,,0,20180119040000,-1,-1,-1,-1,260,-1,16,-1,-1,-1,-1,,9999,0,0,1,FEW 30,1,14,1,5,1019,RJFY 190400Z 26016KT 9999 FEW030 14/05 Q1019 RMK 1CU030 A3011=,
20180119_050000.004,0,RJFY,,,,0,20180119050000,-1,-1,-1,-1,260,-1,14,-1,-1,-1,-1,,9999,0,0,1,FEW 30,1,14,1,5,1018,RJFY 190500Z 26014KT 9999 FEW030 14/05 Q1018 RMK 1CU030 A3008=,
20180119_060000.003,0,RJFY,,,,0,20180119060000,-1,-1,-1,-1,270,-1,16,-1,-1,-1,-1,,9999,0,0,1,FEW 30,1,14,1,4,1017,RJFY 190600Z 27016KT 9999 FEW030 14/04 Q1017 RMK 1CU030 A3006=,
20180119_070000.003,0,RJFY,,,,0,20180119070000,-1,-1,-1,-1,260,-1,13,-1,-1,-1,-1,,9999,0,0,1,FEW 30,1,14,1,4,1018,RJFY 190700Z 26013KT 9999 FEW030 14/04 Q1018 RMK 1CU030 A3006=,
20180119_080000.003,0,RJFY,,,,0,20180119080000,-1,-1,-1,-1,280,-1,14,-1,-1,-1,-1,,9999,0,0,1,FEW 30,1,13,1,3,1018,RJFY 190800Z 28014KT 9999 FEW030 13/03 Q1018 RMK 1CU030 A3007=,
20180119_090000.004,0,RJFY,,,,0,20180119090000,-1,-1,-1,-1,270,-1,8,-1,-1,-1,-1,,9999,0,0,1,FEW 30,1,12,1,4,1018,RJFY 190900Z 27008KT 9999 FEW030 12/04 Q1018 RMK 1CU030 A3007=,
20180119_100000.003,0,RJFY,,,,0,20180119100000,-1,-1,-1,-1,270,-1,9,-1,-1,-1,-1,,9999,0,0,1,FEW 30,1,11,1,3,1019,RJFY 191000Z 27009KT 9999 FEW030 11/03 Q1019 RMK 1CU030 A3009=,
20180119_110000.003,0,RJFY,,,,0,20180119110000,-1,-1,-1,-1,270,-1,11,-1,-1,-1,-1,,9999,0,0,1,FEW 30,1,10,1,3,1018,RJFY 191100Z 27011KT 9999 FEW030 10/03 Q1018 RMK 1CU030 A3009=,
20180119_120000.004,0,RJFY,,,,0,20180119120000,-1,-1,-1,-1,260,-1,7,-1,-1,-1,-1,,9999,0,0,1,FEW 30,1,9,1,1,1019,RJFY 191200Z 26007KT 9999 FEW030 09/01 Q1019 RMK 1CU030 A3010=,
20180119_130000.003,0,RJFY,,,,0,20180119130000,-1,-1,-1,-1,60,-1,1,-1,-1,-1,-1,,9999,0,0,1,FEW 30,1,6,1,2,1019,RJFY 191300Z 06001KT 9999 FEW030 06/02 Q1019 RMK 1CU030 A3010=,
20180119_140000.003,0,RJFY,,,,0,20180119140000,-1,-1,-1,-1,10,-1,1,-1,-1,-1,-1,,9999,0,0,1,FEW 30,1,6,1,2,1019,RJFY 191400Z 01001KT 9999 FEW030 06/02 Q1019 RMK 1CU030 A3010=,
20180119_150000.003,0,RJFY,,,,0,20180119150000,-1,-1,-1,-1,310,-1,2,-1,-1,-1,-1,,9999,0,0,1,FEW 30,1,4,1,2,1019,RJFY 191500Z 31002KT 9999 FEW030 04/02 Q1019 RMK 1CU030 A3010=,
20180119_160000.003,0,RJFY,,,,0,20180119160000,-1,-1,-1,-1,240,-1,5,-1,-1,-1,-1,,9999,0,1,1,FEW 30,1,6,1,2,1019,RJFY 191600Z 24005KT 9999 VA FEW030 06/02 Q1019 RMK 1CU030     A3011 VOLCANIC ASH OHD MOV SE=,VA
20180119_170000.003,0,RJFY,,,,0,20180119170000,-1,-1,-1,-1,999,-1,1,-1,-1,-1,-1,,9999,0,1,1,FEW 30,1,4,1,1,1019,RJFY 191700Z VRB01KT 9999 VA FEW030 04/01 Q1019 RMK 1CU030     A3010 VOLCANIC ASH OHD MOV SE=,VA
20180119_180000.004,0,RJFY,,,,0,20180119180000,-1,-1,-1,-1,999,-1,1,-1,-1,-1,-1,,9999,0,0,1,FEW 30,1,5,1,1,1018,RJFY 191800Z VRB01KT 9999 FEW030 05/01 Q1018 RMK 1CU030 A3009=,
20180119_190000.004,0,RJFY,,,,0,20180119190000,-1,-1,-1,-1,999,-1,1,-1,-1,-1,-1,,9999,0,0,1,FEW 30,1,3,1,1,1018,RJFY 191900Z VRB01KT 9999 FEW030 03/01 Q1018 RMK 1CU030 A3008=,
20180119_200000.003,0,RJFY,,,,0,20180119200000,-1,-1,-1,-1,999,-1,1,-1,-1,-1,-1,,9999,0,0,1,FEW 30,1,4,1,1,1018,RJFY 192000Z VRB01KT 9999 FEW030 04/01 Q1018 RMK 1CU030 A3008=,
20180119_210000.003,0,RJFY,,,,0,20180119210000,-1,-1,-1,-1,999,-1,2,-1,-1,-1,-1,,9999,0,0,1,FEW 30,1,5,1,2,1018,RJFY 192100Z VRB02KT 9999 FEW030 05/02 Q1018 RMK 1CU030 A3009=,
20180119_220000.003,0,RJFY,,,,0,20180119220000,-1,-1,-1,-1,999,-1,1,-1,-1,-1,-1,,9000,0,0,1,FEW 30,1,4,1,2,1019,RJFY 192200Z VRB01KT 9000 FEW030 04/02 Q1019 RMK 1CU030 A3010=,
20180119_230000.003,0,RJFY,,,,0,20180119230000,-1,-1,-1,-1,999,-1,2,-1,-1,-1,-1,,9999,0,0,1,FEW 30,1,3,1,1,1019,RJFY 192300Z VRB02KT 9999 FEW030 03/01 Q1019 RMK 1CU030 A3011=,
20180120_000000.003,0,RJFY,,,,0,20180120000000,-1,-1,-1,-1,50,-1,1,-1,-1,-1,-1,,9999,0,0,1,FEW 30,1,6,1,4,1020,RJFY 200000Z 05001KT 9999 FEW030 06/04 Q1020 RMK 1CU030 A3012=,
20180120_010000.003,0,RJFY,,,,0,20180120010000,-1,-1,-1,-1,999,-1,2,-1,-1,-1,-1,,9999,0,0,1,FEW 30,1,9,1,5,1020,RJFY 200100Z VRB02KT 9999 FEW030 09/05 Q1020 RMK 1CU030 A3012=,
20180120_020000.004,0,RJFY,,,,0,20180120020000,-1,-1,-1,-1,999,-1,2,-1,-1,-1,-1,,9000,0,0,1,FEW 30,1,12,1,5,1019,RJFY 200200Z VRB02KT 9000 FEW030 12/05 Q1019 RMK 1CU030 A3011=,
20180120_030000.003,0,RJFY,,,,0,20180120030000,-1,-1,-1,-1,260,-1,8,-1,-1,210,290,,9000,0,0,1,FEW 30,1,13,1,5,1019,RJFY 200300Z 26008KT 210V290 9000 FEW030 13/05 Q1019 RMK     1CU030 A3009=,
20180120_040000.003,0,RJFY,,,,0,20180120040000,-1,-1,-1,-1,270,-1,9,-1,-1,240,310,,9999,0,0,1,FEW 30,1,14,1,4,1018,RJFY 200400Z 27009KT 240V310 9999 FEW030 14/04 Q1018 RMK     1CU030 A3007=,
20180120_050000.003,0,RJFY,,,,0,20180120050000,-1,-1,-1,-1,260,-1,10,-1,-1,-1,-1,,9999,0,0,1,FEW 30,1,15,-1,1,1017,RJFY 200500Z 26010KT 9999 FEW030 15/M01 Q1017 RMK 1CU030     A3004=,
20180120_060000.003,0,RJFY,,,,0,20180120060000,-1,-1,-1,-1,260,-1,10,-1,-1,-1,-1,,9999,0,0,1,FEW 30,1,14,-1,0,1017,RJFY 200600Z 26010KT 9999 FEW030 14/M00 Q1017 RMK 1CU030     A3004=,
20180120_070000.003,0,RJFY,,,,0,20180120070000,-1,-1,-1,-1,270,-1,10,-1,-1,-1,-1,,9999,0,0,2,FEW 30   BKN 140,1,15,-1,0,1017,RJFY 200700Z 27010KT 9999 FEW030 BKN140 15/M00 Q1017 RMK     1CU030 5AC140 A3004=,
20180120_080000.003,0,RJFY,,,,0,20180120080000,-1,-1,-1,-1,260,-1,8,-1,-1,-1,-1,,9999,0,0,3,FEW 30   SCT 120   BKN 140,1,13,1,2,1017,RJFY 200800Z 26008KT 9999 FEW030 SCT120 BKN140 13/02 Q1017 RMK     1CU030 3AC120 6AC140 A3005=,
20180120_090000.003,0,RJFY,,,,0,20180120090000,-1,-1,-1,-1,260,-1,6,-1,-1,-1,-1,,9999,0,0,3,FEW 30   BKN 110   BKN 140,1,13,1,3,1017,RJFY 200900Z 26006KT 9999 FEW030 BKN110 BKN140 13/03 Q1017 RMK     1CU030 5AC110 7AC140 A3006=,
20180120_100000.003,0,RJFY,,,,0,20180120100000,-1,-1,-1,-1,290,-1,10,-1,-1,-1,-1,,9999,0,0,3,FEW 30   SCT 110   BKN 130,1,12,1,3,1018,RJFY 201000Z 29010KT 9999 FEW030 SCT110 BKN130 12/03 Q1018 RMK     1CU030 3AC110 7AC130 A3008=,
20180120_110000.003,0,RJFY,,,,0,20180120110000,-1,-1,-1,-1,340,-1,4,-1,-1,-1,-1,,9999,0,0,2,FEW 30   BKN 130,1,12,1,3,1019,RJFY 201100Z 34004KT 9999 FEW030 BKN130 12/03 Q1019 RMK 1CU030     7AC130 A3010=,
20180120_120000.003,0,RJFY,,,,0,20180120120000,-1,-1,-1,-1,50,-1,1,-1,-1,-1,-1,,9999,0,0,2,FEW 30   BKN 140,1,8,1,3,1019,RJFY 201200Z 05001KT 9999 FEW030 BKN140 08/03 Q1019 RMK 1CU030     5AC140 A3009=,
20180120_130000.003,0,RJFY,,,,0,20180120130000,-1,-1,-1,-1,330,-1,4,-1,-1,-1,-1,,9999,0,0,2,FEW 30   SCT 140,1,7,1,3,1019,RJFY 201300Z 33004KT 9999 FEW030 SCT140 07/03 Q1019 RMK 1CU030     4AC140 A3010=,
20180120_140000.003,0,RJFY,,,,0,20180120140000,-1,-1,-1,-1,260,-1,2,-1,-1,-1,-1,,9999,0,0,2,FEW 30   SCT 140,1,6,1,2,1019,RJFY 201400Z 26002KT 9999 FEW030 SCT140 06/02 Q1019 RMK 1CU030     4AC140 A3011=,
20180120_150000.003,0,RJFY,,,,0,20180120150000,-1,-1,-1,-1,270,-1,3,-1,-1,-1,-1,,9999,0,0,1,FEW 30,1,6,1,3,1019,RJFY 201500Z 27003KT 9999 FEW030 06/03 Q1019 RMK 1CU030 A3011=,
20180120_160000.003,0,RJFY,,,,0,20180120160000,-1,-1,-1,-1,330,-1,3,-1,-1,-1,-1,,9999,0,0,1,FEW 30,1,5,1,3,1019,RJFY 201600Z 33003KT 9999 FEW030 05/03 Q1019 RMK 1CU030 A3009=,
20180120_170000.003,0,RJFY,,,,0,20180120170000,-1,-1,-1,-1,260,-1,3,-1,-1,-1,-1,,9999,0,0,1,FEW 30,1,4,1,2,1019,RJFY 201700Z 26003KT 9999 FEW030 04/02 Q1019 RMK 1CU030 A3010=,
20180120_180000.003,0,RJFY,,,,0,20180120180000,-1,-1,-1,-1,290,-1,2,-1,-1,-1,-1,,9999,0,0,2,FEW 30   BKN 150,1,5,1,2,1019,RJFY 201800Z 29002KT 9999 FEW030 BKN150 05/02 Q1019 RMK 1CU030     5AC150 A3009=,
20180120_190000.004,0,RJFY,,,,0,20180120190000,-1,-1,-1,-1,999,-1,1,-1,-1,-1,-1,,9999,0,0,3,FEW 30   SCT 100   BKN 150,1,4,1,2,1019,RJFY 201900Z VRB01KT 9999 FEW030 SCT100 BKN150 04/02 Q1019 RMK     1CU030 3AC100 5AC150 A3009=,
20180120_200000.003,0,RJFY,,,,0,20180120200000,-1,-1,-1,-1,30,-1,3,-1,-1,-1,-1,,9999,0,0,2,FEW 30   BKN 100,1,5,1,3,1018,RJFY 202000Z 03003KT 9999 FEW030 BKN100 05/03 Q1018 RMK 1CU030     7AC100 A3009=,
20180120_210000.003,0,RJFY,,,,0,20180120210000,-1,-1,-1,-1,300,-1,1,-1,-1,-1,-1,,9999,0,1,3,FEW 30   SCT 80   OVC 100,1,6,1,3,1019,RJFY 202100Z 30001KT 9999 -RA FEW030 SCT080 OVC100 06/03 Q1019     RMK 1CU030 4AC080 8AS100 A3009=,- RA
20180120_220000.003,0,RJFY,,,,0,20180120220000,-1,-1,-1,-1,260,-1,3,-1,-1,-1,-1,,9999,0,0,3,FEW 30   BKN 80   BKN 100,1,7,1,3,1019,RJFY 202200Z 26003KT 9999 FEW030 BKN080 BKN100 07/03 Q1019 RMK     1CU030 5AC080 7AC100 A3011=,
20180120_230000.003,0,RJFY,,,,0,20180120230000,-1,-1,-1,-1,180,-1,3,-1,-1,150,210,,9999,0,0,3,FEW 30   BKN 80   BKN 100,1,7,1,4,1019,RJFY 202300Z 18003KT 150V210 9999 FEW030 BKN080 BKN100 07/04     Q1019 RMK 1CU030 5AC080 6AC100 A3011=,
20180121_000000.003,0,RJFY,,,,0,20180121000000,-1,-1,-1,-1,90,-1,1,-1,-1,-1,-1,,9999,0,0,3,FEW 30   SCT 80   BKN 200,1,8,1,5,1020,RJFY 210000Z 09001KT 9999 FEW030 SCT080 BKN200 08/05 Q1020 RMK     1CU030 4AC080 A3015=,
20180121_010000.003,0,RJFY,,,,0,20180121010000,-1,-1,-1,-1,140,-1,2,-1,-1,-1,-1,,9999,0,0,2,FEW 30   SCT 200,1,11,1,5,1020,RJFY 210100Z 14002KT 9999 FEW030 SCT200 11/05 Q1020 RMK 1CU030     A3014 VOLCANIC ASH 20KM N MOV E=,
20180121_020000.003,0,RJFY,,,,0,20180121020000,-1,-1,-1,-1,300,-1,2,-1,-1,-1,-1,,9999,0,0,2,FEW 30   SCT 200,1,12,1,1,1019,RJFY 210200Z 30002KT 9999 FEW030 SCT200 12/01 Q1019 RMK 1CU030     A3011=,
20180121_030000.003,0,RJFY,,,,0,20180121030000,-1,-1,-1,-1,250,-1,7,-1,-1,210,280,,9999,0,0,1,FEW 30,1,13,1,3,1019,RJFY 210300Z 25007KT 210V280 9999 FEW030 13/03 Q1019 RMK     1CU030 A3009=,
20180121_040000.004,0,RJFY,,,,0,20180121040000,-1,-1,-1,-1,250,-1,7,-1,-1,200,280,,9999,0,0,1,FEW 30,1,14,1,1,1017,RJFY 210400Z 25007KT 200V280 9999 FEW030 14/01 Q1017 RMK     1CU030 A3006=,
20180121_050000.003,0,RJFY,,,,0,20180121050000,-1,-1,-1,-1,240,-1,7,-1,-1,210,270,,9999,0,0,2,FEW 30   SCT 200,1,14,-1,3,1017,RJFY 210500Z 24007KT 210V270 9999 FEW030 SCT200 14/M03 Q1017     RMK 1CU030 A3003=,
20180121_060000.003,0,RJFY,,,,0,20180121060000,-1,-1,-1,-1,240,-1,6,-1,-1,-1,-1,,9999,0,0,2,FEW 30   BKN 200,1,15,-1,1,1016,RJFY 210600Z 24006KT 9999 FEW030 BKN200 15/M01 Q1016 RMK     1CU030 A3003 VOLCANIC ASH 20KM N MOV E=,
20180121_070000.003,0,RJFY,,,,0,20180121070000,-1,-1,-1,-1,240,-1,5,-1,-1,-1,-1,,9999,0,1,2,FEW 30   BKN 200,1,14,-1,2,1017,RJFY 210700Z 24005KT 9999 VA FEW030 BKN200 14/M02 Q1017 RMK     1CU030 A3003 VOLCANIC ASH OHD MOV SE=,VA
20180121_080000.003,0,RJFY,,,,0,20180121080000,-1,-1,-1,-1,190,-1,3,-1,-1,-1,-1,,9999,0,0,3,FEW 30   BKN 180   BKN 200,1,13,-1,1,1017,RJFY 210800Z 19003KT 9999 FEW030 BKN180 BKN200 13/M01 Q1017     RMK 1CU030 5AC180 A3003 VOLCANIC ASH 20KM SE MOV SE=,
20180121_090000.003,0,RJFY,,,,0,20180121090000,-1,-1,-1,-1,150,-1,1,-1,-1,-1,-1,,9999,0,0,3,FEW 30   BKN 180   BKN 200,1,11,1,1,1018,RJFY 210900Z 15001KT 9999 FEW030 BKN180 BKN200 11/01 Q1018 RMK     1CU030 5AC180 A3006=,
20180121_100000.003,0,RJFY,,,,0,20180121100000,-1,-1,-1,-1,50,-1,6,-1,-1,-1,-1,,9999,0,0,2,FEW 30   BKN 180,1,10,1,6,1018,RJFY 211000Z 05006KT 9999 FEW030 BKN180 10/06 Q1018 RMK 1CU030     7AC180 A3008=,
20180121_110000.003,0,RJFY,,,,0,20180121110000,-1,-1,-1,-1,50,-1,6,-1,-1,10,70,,9999,0,0,2,FEW 30   BKN 180,1,11,1,5,1018,RJFY 211100Z 05006KT 010V070 9999 FEW030 BKN180 11/05 Q1018     RMK 1CU030 7AC180 A3007=,
20180121_120000.003,0,RJFY,,,,0,20180121120000,-1,-1,-1,-1,60,-1,9,-1,-1,-1,-1,,9999,0,0,2,FEW 30   BKN 150,1,10,1,5,1018,RJFY 211200Z 06009KT 9999 FEW030 BKN150 10/05 Q1018 RMK 1CU030     7AC150 A3007=,
20180121_130000.004,0,RJFY,,,,0,20180121130000,-1,-1,-1,-1,40,-1,7,-1,-1,-1,-1,,9999,0,0,2,FEW 30   BKN 150,1,10,1,5,1017,RJFY 211300Z 04007KT 9999 FEW030 BKN150 10/05 Q1017 RMK 1CU030     6AC150 A3006=,
20180121_140000.003,0,RJFY,,,,0,20180121140000,-1,-1,-1,-1,40,-1,8,-1,-1,-1,-1,,9999,0,0,2,FEW 30   BKN 150,1,9,1,4,1017,RJFY 211400Z 04008KT 9999 FEW030 BKN150 09/04 Q1017 RMK 1CU030     5AC150 A3005=,
20180121_150000.003,0,RJFY,,,,0,20180121150000,-1,-1,-1,-1,50,-1,10,-1,-1,-1,-1,,9999,0,0,2,FEW 30   BKN 150,1,10,1,4,1016,RJFY 211500Z 05010KT 9999 FEW030 BKN150 10/04 Q1016 RMK 1CU030     6AC150 A3003=,
20180121_160000.003,0,RJFY,,,,0,20180121160000,-1,-1,-1,-1,50,-1,9,-1,-1,-1,-1,,9999,0,0,3,FEW 15   SCT 30   BKN 100,1,10,1,3,1016,RJFY 211600Z 05009KT 9999 FEW015 SCT030 BKN100 10/03 Q1016 RMK     1CU015 3CU030 7AC100 A3001=,
20180121_170000.003,0,RJFY,,,,0,20180121170000,-1,-1,-1,-1,60,-1,9,-1,-1,-1,-1,,9999,0,1,3,FEW 15   SCT 30   OVC 100,1,9,1,4,1015,RJFY 211700Z 06009KT 9999 -SHRA FEW015 SCT030 OVC100 09/04     Q1015 RMK 1CU015 3CU030 8AS100 A2998=,- RA SH
20180121_180000.003,0,RJFY,,,,0,20180121180000,-1,-1,-1,-1,50,-1,11,-1,-1,-1,-1,,9999,0,1,3,FEW 15   BKN 30   OVC 45,1,8,1,3,1014,RJFY 211800Z 05011KT 9999 -SHRA FEW015 BKN030 OVC045 08/03     Q1014 RMK 1CU015 5CU030 8SC045 A2995=,- RA SH
20180121_190000.003,0,RJFY,,,,0,20180121190000,-1,-1,-1,-1,50,-1,12,-1,-1,-1,-1,,9999,0,1,3,FEW 15   BKN 30   OVC 45,1,8,1,6,1013,RJFY 211900Z 05012KT 9999 -SHRA FEW015 BKN030 OVC045 08/06     Q1013 RMK 1CU015 5CU030 8SC045 A2992=,- RA SH
20180121_200000.003,0,RJFY,,,,0,20180121200000,-1,-1,-1,-1,60,-1,11,-1,-1,-1,-1,,9999,0,1,3,FEW 15   BKN 30   OVC 45,1,8,1,6,1011,RJFY 212000Z 06011KT 9999 -SHRA FEW015 BKN030 OVC045 08/06     Q1011 RMK 1CU015 5CU030 8SC045 A2988 P/FR=,- RA SH
20180121_210000.003,0,RJFY,,,,0,20180121210000,-1,-1,-1,-1,70,-1,12,-1,-1,40,100,,9999,0,1,3,FEW 15   BKN 30   OVC 45,1,8,1,7,1010,RJFY 212100Z 07012KT 040V100 9999 -SHRA FEW015 BKN030 OVC045     08/07 Q1010 RMK 1CU015 5CU030 8SC045 A2984=,- RA SH
20180121_220000.003,0,RJFY,,,,0,20180121220000,-1,-1,-1,-1,60,-1,10,-1,-1,20,80,,7000,0,1,3,FEW 15   BKN 30   OVC 45,1,9,1,7,1010,RJFY 212200Z 06010KT 020V080 7000 -SHRA FEW015 BKN030 OVC045     09/07 Q1010 RMK 1CU015 5CU030 8SC045 A2984=,- RA SH
20180121_230000.003,0,RJFY,,,,0,20180121230000,-1,-1,-1,-1,50,-1,12,-1,-1,10,70,,5000,0,2,3,FEW 15   BKN 30   OVC 45,1,8,1,6,1010,RJFY 212300Z 05012KT 010V070 5000 -SHRA BR FEW015 BKN030     OVC045 08/06 Q1010 RMK 2CU015 5CU030 8SC045 A2984=,- RA SH; BR
20180122_000000.003,0,RJFY,,,,0,20180122000000,-1,-1,-1,-1,50,-1,12,-1,-1,20,80,,5000,0,2,3,FEW 8   SCT 15   BKN 20,1,9,1,7,1009,RJFY 220000Z 05012KT 020V080 5000 SHRA BR FEW008 SCT015 BKN020     09/07 Q1009 RMK 2ST008 3CU015 7CU020 A2981=,RA SH; BR
20180122_010000.003,0,RJFY,,,,0,20180122010000,-1,-1,-1,-1,60,-1,11,-1,23,360,90,,7000,0,0,3,FEW 8   SCT 15   BKN 20,1,9,1,7,1009,RJFY 220100Z 06011G23KT 360V090 7000 FEW008 SCT015 BKN020     09/07 Q1009 RMK 2ST008 3CU015 7CU020 A2982=,
20180122_020000.003,0,RJFY,,,,0,20180122020000,-1,-1,-1,-1,30,-1,9,-1,20,350,80,,9999,0,0,3,FEW 5   SCT 10   BKN 20,1,10,1,7,1009,RJFY 220200Z 03009G20KT 350V080 9999 FEW005 SCT010 BKN020     10/07 Q1009 RMK 2ST005 3ST010 7CU020 A2981=,
20180122_030000.003,0,RJFY,,,,0,20180122030000,-1,-1,-1,-1,30,-1,11,-1,-1,350,70,,9999,0,0,3,FEW 10   SCT 15   BKN 20,1,11,1,7,1009,RJFY 220300Z 03011KT 350V070 9999 FEW010 SCT015 BKN020 11/07     Q1009 RMK 1ST010 3CU015 7CU020 A2980=,
20180122_040000.003,0,RJFY,,,,0,20180122040000,-1,-1,-1,-1,300,-1,5,-1,-1,260,10,,9999,0,0,3,FEW 10   SCT 15   BKN 20,1,10,1,8,1009,RJFY 220400Z 30005KT 260V010 9999 FEW010 SCT015 BKN020 10/08     Q1009 RMK 1ST010 3CU015 7CU020 A2981=,
20180122_050000.003,0,RJFY,,,,0,20180122050000,-1,-1,-1,-1,360,-1,3,-1,-1,320,40,,9999,0,0,3,FEW 10   BKN 15   BKN 20,1,11,1,7,1009,RJFY 220500Z 36003KT 320V040 9999 FEW010 BKN015 BKN020 11/07     Q1009 RMK 1ST010 5CU015 7CU020 A2981=,
20180122_060000.004,0,RJFY,,,,0,20180122060000,-1,-1,-1,-1,280,-1,12,-1,-1,-1,-1,,9999,0,0,3,FEW 10   SCT 15   BKN 30,1,12,1,8,1009,RJFY 220600Z 28012KT 9999 FEW010 SCT015 BKN030 12/08 Q1009 RMK     1ST010 4CU015 7CU030 A2982=,
20180122_070000.003,0,RJFY,,,,0,20180122070000,-1,-1,-1,-1,280,-1,20,-1,-1,-1,-1,,9999,0,0,2,FEW 15   SCT 30,1,11,1,5,1010,RJFY 220700Z 28020KT 9999 FEW015 SCT030 11/05 Q1010 RMK 2CU015     4CU030 A2984=,
20180122_080000.004,0,RJFY,,,,0,20180122080000,-1,-1,-1,-1,260,-1,9,-1,-1,-1,-1,,9999,0,0,2,FEW 15   SCT 30,1,10,1,5,1011,RJFY 220800Z 26009KT 9999 FEW015 SCT030 10/05 Q1011 RMK 1CU015     3CU030 A2988=,
20180122_090000.003,0,RJFY,,,,0,20180122090000,-1,-1,-1,-1,340,-1,4,-1,-1,300,70,,9999,0,0,1,FEW 15,1,9,1,3,1012,RJFY 220900Z 34004KT 300V070 9999 FEW015 09/03 Q1012 RMK     1CU015 A2991=,
20180122_100000.003,0,RJFY,,,,0,20180122100000,-1,-1,-1,-1,250,-1,6,-1,-1,-1,-1,,9999,0,0,1,FEW 30,1,7,1,3,1014,RJFY 221000Z 25006KT 9999 FEW030 07/03 Q1014 RMK 2CU030 A2996     P/RR=,
20180122_110000.004,0,RJFY,,,,0,20180122110000,-1,-1,-1,-1,270,-1,13,-1,-1,-1,-1,,9999,0,0,1,FEW 30,1,8,1,3,1015,RJFY 221100Z 27013KT 9999 FEW030 08/03 Q1015 RMK 1CU030 A2998=,
20180122_120000.003,0,RJFY,,,,0,20180122120000,-1,-1,-1,-1,300,-1,6,-1,-1,-1,-1,,9999,0,0,1,FEW 30,1,7,1,2,1015,RJFY 221200Z 30006KT 9999 FEW030 07/02 Q1015 RMK 1CU030 A2998=,
20180122_130000.004,0,RJFY,,,,0,20180122130000,-1,-1,-1,-1,160,-1,3,-1,-1,-1,-1,,9999,0,0,1,FEW 30,1,6,1,2,1016,RJFY 221300Z 16003KT 9999 FEW030 06/02 Q1016 RMK 1CU030 A3001=,
20180122_140000.004,0,RJFY,,,,0,20180122140000,-1,-1,-1,-1,240,-1,7,-1,-1,-1,-1,,9999,0,0,1,FEW 30,1,6,1,1,1016,RJFY 221400Z 24007KT 9999 FEW030 06/01 Q1016 RMK 1CU030 A3001=,
20180122_150000.003,0,RJFY,,,,0,20180122150000,-1,-1,-1,-1,250,-1,8,-1,-1,-1,-1,,9999,0,0,1,FEW 30,1,7,1,2,1016,RJFY 221500Z 25008KT 9999 FEW030 07/02 Q1016 RMK 1CU030 A3001=,
20180122_160000.003,0,RJFY,,,,0,20180122160000,-1,-1,-1,-1,240,-1,6,-1,-1,-1,-1,,9999,0,0,1,FEW 20,1,7,1,2,1016,RJFY 221600Z 24006KT 9999 FEW020 07/02 Q1016 RMK 1CU020 A3001=,
20180122_170000.003,0,RJFY,,,,0,20180122170000,-1,-1,-1,-1,230,-1,4,-1,-1,-1,-1,,9999,0,0,1,FEW 20,1,6,1,3,1015,RJFY 221700Z 23004KT 9999 FEW020 06/03 Q1015 RMK 1CU020 A3000=,
20180122_180000.003,0,RJFY,,,,0,20180122180000,-1,-1,-1,-1,270,-1,6,-1,-1,-1,-1,,9999,0,0,2,FEW 20   SCT 50,1,7,1,4,1016,RJFY 221800Z 27006KT 9999 FEW020 SCT050 07/04 Q1016 RMK 1CU020     3SC050 A3001=,
20180122_190000.003,0,RJFY,,,,0,20180122190000,-1,-1,-1,-1,200,-1,3,-1,-1,-1,-1,,9999,0,0,1,FEW 30,1,5,1,2,1015,RJFY 221900Z 20003KT 9999 FEW030 05/02 Q1015 RMK 1CU030 A2999=,
20180122_200000.003,0,RJFY,,,,0,20180122200000,-1,-1,-1,-1,270,-1,6,-1,-1,-1,-1,,9999,0,0,1,FEW 30,1,7,1,4,1015,RJFY 222000Z 27006KT 9999 FEW030 07/04 Q1015 RMK 1CU030 A2998=,
20180122_210000.004,0,RJFY,,,,0,20180122210000,-1,-1,-1,-1,260,-1,5,-1,-1,230,290,,9999,0,0,1,FEW 30,1,8,1,5,1016,RJFY 222100Z 26005KT 230V290 9999 FEW030 08/05 Q1016 RMK     1CU030 A3001=,
20180122_220000.003,0,RJFY,,,,0,20180122220000,-1,-1,-1,-1,260,-1,5,-1,-1,-1,-1,,9999,0,0,2,FEW 15   SCT 50,1,8,1,5,1016,RJFY 222200Z 26005KT 9999 FEW015 SCT050 08/05 Q1016 RMK 1CU015     3SC050 A3002=,
20180122_230000.004,0,RJFY,,,,0,20180122230000,-1,-1,-1,-1,270,-1,8,-1,-1,-1,-1,,9000,0,0,2,FEW 20   SCT 50,1,10,1,5,1016,RJFY 222300Z 27008KT 9000 FEW020 SCT050 10/05 Q1016 RMK 1CU020     4SC050 A3003=,
20180123_000000.003,0,RJFY,,,,0,20180123000000,-1,-1,-1,-1,290,-1,11,-1,-1,-1,-1,,8000,0,0,1,FEW 20,1,10,1,4,1016,RJFY 230000Z 29011KT 8000 FEW020 10/04 Q1016 RMK 1CU020 A3002=,
20180123_010000.003,0,RJFY,,,,0,20180123010000,-1,-1,-1,-1,290,-1,15,-1,-1,-1,-1,,9999,0,0,1,FEW 30,1,11,1,4,1017,RJFY 230100Z 29015KT 9999 FEW030 11/04 Q1017 RMK 1CU030 A3004=,
20180123_020000.003,0,RJFY,,,,0,20180123020000,-1,-1,-1,-1,300,-1,16,-1,-1,-1,-1,,9999,0,0,2,FEW 30   SCT 50,1,12,1,3,1018,RJFY 230200Z 30016KT 9999 FEW030 SCT050 12/03 Q1018 RMK 2CU030     3SC050 A3007=,
20180123_030000.004,0,RJFY,,,,0,20180123030000,-1,-1,-1,-1,290,-1,20,-1,30,-1,-1,,9999,0,0,1,FEW 30,1,12,1,2,1017,RJFY 230300Z 29020G30KT 9999 FEW030 12/02 Q1017 RMK 1CU030     A3003=,
20180123_040000.004,0,RJFY,,,,0,20180123040000,-1,-1,-1,-1,290,-1,22,-1,32,-1,-1,,9999,0,0,1,SCT 30,1,12,1,1,1016,RJFY 230400Z 29022G32KT 9999 SCT030 12/01 Q1016 RMK 3CU030     A3003=,
20180123_050000.003,0,RJFY,,,,0,20180123050000,-1,-1,-1,-1,290,-1,19,-1,29,-1,-1,,9999,0,0,1,SCT 30,1,11,1,1,1016,RJFY 230500Z 29019G29KT 9999 SCT030 11/01 Q1016 RMK 3CU030     A3000=,
20180123_060000.004,0,RJFY,,,,0,20180123060000,-1,-1,-1,-1,290,-1,17,-1,-1,-1,-1,,9999,0,0,2,SCT 30   BKN 45,1,10,1,1,1016,RJFY 230600Z 29017KT 9999 SCT030 BKN045 10/01 Q1016 RMK 3CU030     7SC045 A3001=,
20180123_070000.003,0,RJFY,,,,0,20180123070000,-1,-1,-1,-1,300,-1,10,-1,-1,-1,-1,,9999,0,0,2,SCT 30   BKN 45,1,9,1,1,1016,RJFY 230700Z 30010KT 9999 SCT030 BKN045 09/01 Q1016 RMK 3CU030     7SC045 A3003=,
20180123_080000.003,0,RJFY,,,,0,20180123080000,-1,-1,-1,-1,280,-1,12,-1,-1,-1,-1,,9999,0,0,2,FEW 30   BKN 45,1,8,1,0,1017,RJFY 230800Z 28012KT 9999 FEW030 BKN045 08/00 Q1017 RMK 2CU030     7SC045 A3004=,
20180123_090000.003,0,RJFY,,,,0,20180123090000,-1,-1,-1,-1,290,-1,10,-1,-1,-1,-1,,9999,0,0,2,FEW 30   BKN 45,1,8,-1,1,1018,RJFY 230900Z 29010KT 9999 FEW030 BKN045 08/M01 Q1018 RMK     2CU030 7SC045 A3007=,
20180123_100000.003,0,RJFY,,,,0,20180123100000,-1,-1,-1,-1,290,-1,11,-1,-1,260,340,,9999,0,0,2,FEW 30   BKN 50,1,7,-1,1,1019,RJFY 231000Z 29011KT 260V340 9999 FEW030 BKN050 07/M01 Q1019     RMK 2CU030 6SC050 A3009=,
20180123_110000.003,0,RJFY,,,,0,20180123110000,-1,-1,-1,-1,270,-1,10,-1,-1,250,310,,9999,0,0,2,FEW 30   SCT 40,1,6,-1,1,1019,RJFY 231100Z 27010KT 250V310 9999 FEW030 SCT040 06/M01 Q1019     RMK 1CU030 3SC040 A3009=,
20180123_120000.003,0,RJFY,,,,0,20180123120000,-1,-1,-1,-1,260,-1,11,-1,-1,-1,-1,,9999,0,1,2,FEW 30   SCT 40,1,6,-1,2,1019,RJFY 231200Z 26011KT 9999 VA FEW030 SCT040 06/M02 Q1019 RMK     1CU030 3SC040 A3011 VOLCANIC ASH OHD MOV SE=,VA
20180123_130000.003,0,RJFY,,,,0,20180123130000,-1,-1,-1,-1,290,-1,12,-1,-1,-1,-1,,9999,0,1,2,FEW 30   BKN 40,1,6,-1,2,1020,RJFY 231300Z 29012KT 9999 VA FEW030 BKN040 06/M02 Q1020 RMK     2CU030 7SC040 A3013 VOLCANIC ASH OHD MOV SE=,VA
20180123_140000.003,0,RJFY,,,,0,20180123140000,-1,-1,-1,-1,290,-1,12,-1,-1,-1,-1,,9999,0,1,2,FEW 30   BKN 40,1,6,-1,2,1020,RJFY 231400Z 29012KT 9999 VA FEW030 BKN040 06/M02 Q1020 RMK     2CU030 7SC040 A3013 VOLCANIC ASH OHD MOV SE=,VA
20180123_150000.003,0,RJFY,,,,0,20180123150000,-1,-1,-1,-1,280,-1,12,-1,-1,-1,-1,,9999,0,1,2,FEW 30   BKN 40,1,5,-1,2,1020,RJFY 231500Z 28012KT 9999 VA FEW030 BKN040 05/M02 Q1020 RMK     1CU030 7SC040 A3012 VOLCANIC ASH OHD MOV SE=,VA
20180123_160000.003,0,RJFY,,,,0,20180123160000,-1,-1,-1,-1,280,-1,13,-1,-1,-1,-1,,9999,0,1,2,FEW 30   BKN 40,1,5,-1,2,1019,RJFY 231600Z 28013KT 9999 VA FEW030 BKN040 05/M02 Q1019 RMK     1CU030 7SC040 A3011 VOLCANIC ASH OHD MOV SE=,VA
20180123_170000.003,0,RJFY,,,,0,20180123170000,-1,-1,-1,-1,290,-1,13,-1,-1,240,320,,9999,0,1,2,FEW 30   BKN 40,1,5,-1,3,1019,RJFY 231700Z 29013KT 240V320 9999 VA FEW030 BKN040 05/M03     Q1019 RMK 1CU030 7SC040 A3011 VOLCANIC ASH OHD MOV SE=,VA
20180123_180000.003,0,RJFY,,,,0,20180123180000,-1,-1,-1,-1,290,-1,14,-1,-1,-1,-1,,9999,0,1,2,FEW 30   BKN 40,1,5,-1,3,1019,RJFY 231800Z 29014KT 9999 VA FEW030 BKN040 05/M03 Q1019 RMK     1CU030 6SC040 A3010 VOLCANIC ASH OHD MOV SE=,VA
20180123_190000.003,0,RJFY,,,,0,20180123190000,-1,-1,-1,-1,290,-1,14,-1,-1,-1,-1,,9999,0,1,2,FEW 30   BKN 40,1,5,-1,3,1019,RJFY 231900Z 29014KT 9999 VA FEW030 BKN040 05/M03 Q1019 RMK     1CU030 5SC040 A3009 VOLCANIC ASH OHD MOV SE=,VA
20180123_200000.003,0,RJFY,,,,0,20180123200000,-1,-1,-1,-1,290,-1,15,-1,-1,-1,-1,,9999,0,0,2,FEW 30   BKN 45,1,5,-1,3,1019,RJFY 232000Z 29015KT 9999 FEW030 BKN045 05/M03 Q1019 RMK     1CU030 5SC045 A3009=,
20180123_210000.003,0,RJFY,,,,0,20180123210000,-1,-1,-1,-1,300,-1,17,-1,-1,260,320,,9999,0,0,2,FEW 30   BKN 40,1,5,-1,3,1019,RJFY 232100Z 30017KT 260V320 9999 FEW030 BKN040 05/M03 Q1019     RMK 1CU030 7SC040 A3011=,
20180123_220000.003,0,RJFY,,,,0,20180123220000,-1,-1,-1,-1,290,-1,14,-1,24,-1,-1,,9999,0,0,2,FEW 30   BKN 40,1,5,-1,3,1020,RJFY 232200Z 29014G24KT 9999 FEW030 BKN040 05/M03 Q1020 RMK     1CU030 5SC040 A3013=,
20180123_230000.003,0,RJFY,,,,0,20180123230000,-1,-1,-1,-1,290,-1,12,-1,-1,-1,-1,,9999,0,0,2,FEW 30   BKN 40,1,5,-1,3,1020,RJFY 232300Z 29012KT 9999 FEW030 BKN040 05/M03 Q1020 RMK     1CU030 6SC040 A3013=,
20180124_000000.003,0,RJFY,,,,0,20180124000000,-1,-1,-1,-1,280,-1,14,-1,-1,-1,-1,,9999,0,0,2,FEW 25   BKN 45,1,5,-1,3,1020,RJFY 240000Z 28014KT 9999 FEW025 BKN045 05/M03 Q1020 RMK     1CU025 6SC045 A3013=,
20180124_010000.004,0,RJFY,,,,0,20180124010000,-1,-1,-1,-1,290,-1,13,-1,23,-1,-1,,9999,0,0,2,FEW 25   BKN 45,1,5,-1,4,1020,RJFY 240100Z 29013G23KT 9999 FEW025 BKN045 05/M04 Q1020 RMK     1CU025 6SC045 A3014=,
20180124_020000.003,0,RJFY,,,,0,20180124020000,-1,-1,-1,-1,280,-1,15,-1,25,-1,-1,,9999,0,0,2,FEW 15   BKN 45,1,5,-1,4,1020,RJFY 240200Z 28015G25KT 9999 FEW015 BKN045 05/M04 Q1020 RMK     1CU015 5SC045 A3014=,
20180124_030000.003,0,RJFY,,,,0,20180124030000,-1,-1,-1,-1,290,-1,20,-1,30,-1,-1,,9999,0,0,2,FEW 25   BKN 50,1,6,-1,4,1019,RJFY 240300Z 29020G30KT 9999 FEW025 BKN050 06/M04 Q1019 RMK     1CU025 5SC050 A3011=,
20180124_040000.003,0,RJFY,,,,0,20180124040000,-1,-1,-1,-1,300,-1,16,-1,27,-1,-1,,9999,0,0,2,FEW 30   BKN 50,1,6,-1,4,1019,RJFY 240400Z 30016G27KT 9999 FEW030 BKN050 06/M04 Q1019 RMK     1CU030 5SC050 A3010=,
20180124_050000.003,0,RJFY,,,,0,20180124050000,-1,-1,-1,-1,300,-1,17,-1,31,-1,-1,,9999,0,0,2,FEW 30   SCT 50,1,6,-1,5,1018,RJFY 240500Z 30017G31KT 9999 FEW030 SCT050 06/M05 Q1018 RMK     1CU030 4SC050 A3009=,
20180124_060000.003,0,RJFY,,,,0,20180124060000,-1,-1,-1,-1,310,-1,15,-1,29,280,340,,9999,0,0,2,FEW 30   SCT 50,1,5,-1,6,1018,RJFY 240600Z 31015G29KT 280V340 9999 FEW030 SCT050 05/M06     Q1018 RMK 1CU030 3SC050 A3009=,
20180124_070000.003,0,RJFY,,,,0,20180124070000,-1,-1,-1,-1,290,-1,17,-1,27,260,330,,9999,0,0,2,FEW 30   SCT 50,1,5,-1,6,1019,RJFY 240700Z 29017G27KT 260V330 9999 FEW030 SCT050 05/M06     Q1019 RMK 1CU030 3SC050 A3010=,
20180124_080000.003,0,RJFY,,,,0,20180124080000,-1,-1,-1,-1,310,-1,13,-1,-1,-1,-1,,9999,0,0,1,FEW 30,1,4,-1,8,1019,RJFY 240800Z 31013KT 9999 FEW030 04/M08 Q1019 RMK 1CU030     A3011=,
20180124_090000.004,0,RJFY,,,,0,20180124090000,-1,-1,-1,-1,300,-1,9,-1,-1,270,340,,9999,0,0,1,FEW 20,1,3,-1,8,1020,RJFY 240900Z 30009KT 270V340 9999 FEW020 03/M08 Q1020 RMK     1CU020 A3013=,
20180124_100000.003,0,RJFY,,,,0,20180124100000,-1,-1,-1,-1,300,-1,14,-1,-1,-1,-1,,9999,0,0,1,FEW 20,1,2,-1,9,1020,RJFY 241000Z 30014KT 9999 FEW020 02/M09 Q1020 RMK 1CU020     A3014=,
20180124_110000.003,0,RJFY,,,,0,20180124110000,-1,-1,-1,-1,280,-1,11,-1,-1,-1,-1,,9999,0,0,1,FEW 20,1,1,-1,11,1021,RJFY 241100Z 28011KT 9999 FEW020 01/M11 Q1021 RMK 1CU020     A3015=,
20180124_120000.003,0,RJFY,,,,0,20180124120000,-1,-1,-1,-1,300,-1,10,-1,-1,-1,-1,,9999,0,0,1,FEW 30,1,1,-1,10,1021,RJFY 241200Z 30010KT 9999 FEW030 01/M10 Q1021 RMK 1CU030     A3017=,
20180124_130000.003,0,RJFY,,,,0,20180124130000,-1,-1,-1,-1,300,-1,9,-1,-1,-1,-1,,9999,0,0,1,FEW 20,1,1,-1,8,1022,RJFY 241300Z 30009KT 9999 FEW020 01/M08 Q1022 RMK 1CU020     A3019=,
20180124_140000.004,0,RJFY,,,,0,20180124140000,-1,-1,-1,-1,280,-1,8,-1,-1,-1,-1,,9999,0,0,1,FEW 30,1,0,-1,8,1022,RJFY 241400Z 28008KT 9999 FEW030 00/M08 Q1022 RMK 1CU030     A3018=,
20180124_150000.003,0,RJFY,,,,0,20180124150000,-1,-1,-1,-1,999,-1,1,-1,-1,-1,-1,,9999,0,0,1,FEW 30,-1,1,-1,8,1021,RJFY 241500Z VRB01KT 9999 FEW030 M01/M08 Q1021 RMK 1CU030     A3017=,
20180124_160000.003,0,RJFY,,,,0,20180124160000,-1,-1,-1,-1,999,-1,1,-1,-1,-1,-1,,9999,0,0,1,FEW 30,-1,1,-1,8,1021,RJFY 241600Z VRB01KT 9999 FEW030 M01/M08 Q1021 RMK 1CU030     A3017=,
20180124_170000.003,0,RJFY,,,,0,20180124170000,-1,-1,-1,-1,120,-1,1,-1,-1,-1,-1,,9999,0,0,1,FEW 30,-1,2,-1,7,1022,RJFY 241700Z 12001KT 9999 FEW030 M02/M07 Q1022 RMK 1CU030     A3018=,
20180124_180000.003,0,RJFY,,,,0,20180124180000,-1,-1,-1,-1,999,-1,1,-1,-1,-1,-1,,9999,0,0,1,FEW 30,-1,1,-1,7,1022,RJFY 241800Z VRB01KT 9999 FEW030 M01/M07 Q1022 RMK 1CU030     A3019=,
20180124_190000.004,0,RJFY,,,,0,20180124190000,-1,-1,-1,-1,160,-1,3,-1,-1,-1,-1,,9999,0,0,1,FEW 30,-1,2,-1,7,1022,RJFY 241900Z 16003KT 9999 FEW030 M02/M07 Q1022 RMK 1CU030     A3019=,
20180124_200000.003,0,RJFY,,,,0,20180124200000,-1,-1,-1,-1,160,-1,4,-1,-1,-1,-1,,9999,0,0,2,FEW 30   SCT 150,-1,2,-1,7,1022,RJFY 242000Z 16004KT 9999 FEW030 SCT150 M02/M07 Q1022 RMK     1CU030 4AC150 A3019=,
20180124_210000.004,0,RJFY,,,,0,20180124210000,-1,-1,-1,-1,140,-1,3,-1,-1,100,180,,9999,0,0,2,FEW 30   BKN 150,-1,1,-1,7,1022,RJFY 242100Z 14003KT 100V180 9999 FEW030 BKN150 M01/M07 Q1022     RMK 1CU030 7AC150 A3019=,
20180124_220000.003,0,RJFY,,,,0,20180124220000,-1,-1,-1,-1,160,-1,3,-1,-1,-1,-1,,9999,0,0,2,FEW 30   BKN 150,-1,0,-1,7,1022,RJFY 242200Z 16003KT 9999 FEW030 BKN150 M00/M07 Q1022 RMK     1CU030 7AC150 A3020=,
20180124_230000.003,0,RJFY,,,,0,20180124230000,-1,-1,-1,-1,170,-1,3,-1,-1,110,250,,9999,0,0,2,FEW 30   BKN 120,1,0,-1,7,1022,RJFY 242300Z 17003KT 110V250 9999 FEW030 BKN120 00/M07 Q1022     RMK 1CU030 7AC120 A3019=,
20180125_000000.003,0,RJFY,,,,0,20180125000000,-1,-1,-1,-1,150,-1,3,-1,-1,-1,-1,,9999,0,0,2,FEW 30   BKN 120,1,1,-1,8,1022,RJFY 250000Z 15003KT 9999 FEW030 BKN120 01/M08 Q1022 RMK     1CU030 7AC120 A3020=,
20180125_010000.003,0,RJFY,,,,0,20180125010000,-1,-1,-1,-1,70,-1,5,-1,-1,30,100,,9999,0,0,2,FEW 30   BKN 120,1,1,-1,7,1022,RJFY 250100Z 07005KT 030V100 9999 FEW030 BKN120 01/M07 Q1022     RMK 1CU030 6AC120 A3020=,
20180125_020000.004,0,RJFY,,,,0,20180125020000,-1,-1,-1,-1,330,-1,5,-1,15,-1,-1,,9999,0,0,3,FEW 30   SCT 120   BKN 140,1,4,-1,8,1022,RJFY 250200Z 33005G15KT 9999 FEW030 SCT120 BKN140 04/M08 Q1022     RMK 1CU030 3AC120 5AC140 A3020=,
20180125_030000.003,0,RJFY,,,,0,20180125030000,-1,-1,-1,-1,280,-1,13,-1,-1,250,320,,9999,0,0,2,FEW 30   BKN 150,1,5,-1,8,1021,RJFY 250300Z 28013KT 250V320 9999 FEW030 BKN150 05/M08 Q1021     RMK 2CU030 5AC150 A3016=,
20180125_040000.003,0,RJFY,,,,0,20180125040000,-1,-1,-1,-1,280,-1,15,-1,-1,-1,-1,,9999,0,0,2,FEW 30   BKN 160,1,5,-1,8,1020,RJFY 250400Z 28015KT 9999 FEW030 BKN160 05/M08 Q1020 RMK     1CU030 5AC160 A3013=,
20180125_050000.003,0,RJFY,,,,0,20180125050000,-1,-1,-1,-1,280,-1,14,-1,-1,-1,-1,,9999,0,0,2,FEW 30   SCT 160,1,5,-1,8,1019,RJFY 250500Z 28014KT 9999 FEW030 SCT160 05/M08 Q1019 RMK     1CU030 3AC160 A3010=,
20180125_060000.003,0,RJFY,,,,0,20180125060000,-1,-1,-1,-1,290,-1,14,-1,-1,-1,-1,,9999,0,0,1,FEW 30,1,6,-1,8,1019,RJFY 250600Z 29014KT 9999 FEW030 06/M08 Q1019 RMK 1CU030     A3009=,
20180125_070000.003,0,RJFY,,,,0,20180125070000,-1,-1,-1,-1,270,-1,12,-1,-1,240,300,,9999,0,0,2,FEW 30   SCT 160,1,6,-1,6,1018,RJFY 250700Z 27012KT 240V300 9999 FEW030 SCT160 06/M06 Q1018     RMK 1CU030 4AC160 A3009=,
20180125_080000.003,0,RJFY,,,,0,20180125080000,-1,-1,-1,-1,290,-1,13,-1,-1,-1,-1,,9999,0,0,2,FEW 30   BKN 150,1,5,-1,7,1019,RJFY 250800Z 29013KT 9999 FEW030 BKN150 05/M07 Q1019 RMK     1CU030 6AC150 A3009=,
20180125_090000.003,0,RJFY,,,,0,20180125090000,-1,-1,-1,-1,290,-1,16,-1,-1,-1,-1,,9999,0,0,2,FEW 30   BKN 150,1,4,-1,7,1019,RJFY 250900Z 29016KT 9999 FEW030 BKN150 04/M07 Q1019 RMK     1CU030 5AC150 A3010=,
20180125_100000.004,0,RJFY,,,,0,20180125100000,-1,-1,-1,-1,290,-1,12,-1,-1,-1,-1,,9999,0,0,2,FEW 30   SCT 150,1,3,-1,7,1019,RJFY 251000Z 29012KT 9999 FEW030 SCT150 03/M07 Q1019 RMK     1CU030 4AC150 A3009=,
20180125_110000.004,0,RJFY,,,,0,20180125110000,-1,-1,-1,-1,310,-1,14,-1,-1,-1,-1,,9999,0,0,2,FEW 30   BKN 120,1,3,-1,6,1019,RJFY 251100Z 31014KT 9999 FEW030 BKN120 03/M06 Q1019 RMK     1CU030 7AC120 A3010=,
20180125_120000.003,0,RJFY,,,,0,20180125120000,-1,-1,-1,-1,310,-1,13,-1,-1,-1,-1,,9999,0,0,2,FEW 30   BKN 120,1,3,-1,7,1019,RJFY 251200Z 31013KT 9999 FEW030 BKN120 03/M07 Q1019 RMK     1CU030 5AC120 A3011=,
20180125_130000.003,0,RJFY,,,,0,20180125130000,-1,-1,-1,-1,320,-1,8,-1,-1,-1,-1,,9999,0,0,2,FEW 30   BKN 110,1,4,-1,6,1019,RJFY 251300Z 32008KT 9999 FEW030 BKN110 04/M06 Q1019 RMK     1CU030 7AC110 A3011=,
20180125_140000.003,0,RJFY,,,,0,20180125140000,-1,-1,-1,-1,280,-1,12,-1,-1,-1,-1,,9999,0,0,2,FEW 30   BKN 120,1,4,-1,6,1019,RJFY 251400Z 28012KT 9999 FEW030 BKN120 04/M06 Q1019 RMK     1CU030 7AC120 A3012=,
20180125_150000.003,0,RJFY,,,,0,20180125150000,-1,-1,-1,-1,270,-1,8,-1,-1,-1,-1,,9999,0,0,2,FEW 30   BKN 130,1,4,-1,5,1019,RJFY 251500Z 27008KT 9999 FEW030 BKN130 04/M05 Q1019 RMK     1CU030 7AC130 A3011=,
20180125_160000.003,0,RJFY,,,,0,20180125160000,-1,-1,-1,-1,270,-1,8,-1,-1,-1,-1,,9999,0,0,2,FEW 30   BKN 130,1,3,-1,5,1019,RJFY 251600Z 27008KT 9999 FEW030 BKN130 03/M05 Q1019 RMK     1CU030 7AC130 A3010=,
20180125_170000.003,0,RJFY,,,,0,20180125170000,-1,-1,-1,-1,280,-1,10,-1,-1,-1,-1,,9999,0,0,2,FEW 30   BKN 130,1,3,-1,5,1019,RJFY 251700Z 28010KT 9999 FEW030 BKN130 03/M05 Q1019 RMK     2CU030 7AC130 A3011=,
20180125_180000.003,0,RJFY,,,,0,20180125180000,-1,-1,-1,-1,280,-1,10,-1,-1,-1,-1,,9999,0,0,2,FEW 30   BKN 150,1,3,-1,5,1019,RJFY 251800Z 28010KT 9999 FEW030 BKN150 03/M05 Q1019 RMK     1CU030 7AC150 A3010=,
20180125_190000.003,0,RJFY,,,,0,20180125190000,-1,-1,-1,-1,270,-1,8,-1,-1,-1,-1,,9999,0,0,2,FEW 30   BKN 150,1,4,-1,5,1018,RJFY 251900Z 27008KT 9999 FEW030 BKN150 04/M05 Q1018 RMK     1CU030 7AC150 A3007=,
20180125_200000.004,0,RJFY,,,,0,20180125200000,-1,-1,-1,-1,290,-1,10,-1,-1,-1,-1,,9999,0,0,2,FEW 30   BKN 150,1,4,-1,5,1018,RJFY 252000Z 29010KT 9999 FEW030 BKN150 04/M05 Q1018 RMK     2CU030 6AC150 A3007=,
20180125_210000.003,0,RJFY,,,,0,20180125210000,-1,-1,-1,-1,290,-1,11,-1,-1,-1,-1,,9999,0,0,2,FEW 30   SCT 40,1,3,-1,5,1018,RJFY 252100Z 29011KT 9999 FEW030 SCT040 03/M05 Q1018 RMK     1CU030 3SC040 A3007=,
20180125_220000.003,0,RJFY,,,,0,20180125220000,-1,-1,-1,-1,300,-1,12,-1,-1,270,340,,9999,0,0,2,FEW 30   BKN 40,1,4,-1,5,1018,RJFY 252200Z 30012KT 270V340 9999 FEW030 BKN040 04/M05 Q1018     RMK 2CU030 5SC040 A3009=,
20180125_230000.003,0,RJFY,,,,0,20180125230000,-1,-1,-1,-1,280,-1,15,-1,-1,-1,-1,,9999,0,0,2,FEW 30   BKN 40,1,4,-1,5,1019,RJFY 252300Z 28015KT 9999 FEW030 BKN040 04/M05 Q1019 RMK     2CU030 5SC040 A3009=,
20180126_000000.003,0,RJFY,,,,0,20180126000000,-1,-1,-1,-1,280,-1,13,-1,23,250,310,,9999,0,0,2,FEW 30   BKN 40,1,4,-1,5,1019,RJFY 260000Z 28013G23KT 250V310 9999 FEW030 BKN040 04/M05     Q1019 RMK 1CU030 6SC040 A3011=,
20180126_010000.003,0,RJFY,,,,0,20180126010000,-1,-1,-1,-1,300,-1,12,-1,-1,270,330,,9999,0,0,2,FEW 30   SCT 40,1,5,-1,5,1020,RJFY 260100Z 30012KT 270V330 9999 FEW030 SCT040 05/M05 Q1020     RMK 1CU030 4SC040 A3012=,
20180126_020000.003,0,RJFY,,,,0,20180126020000,-1,-1,-1,-1,290,-1,22,-1,32,-1,-1,,9999,0,0,2,FEW 30   SCT 40,1,6,-1,5,1019,RJFY 260200Z 29022G32KT 9999 FEW030 SCT040 06/M05 Q1019 RMK     1CU030 3SC040 A3010=,
20180126_030000.003,0,RJFY,,,,0,20180126030000,-1,-1,-1,-1,300,-1,15,-1,25,270,340,,9999,0,0,2,FEW 30   SCT 40,1,6,-1,4,1018,RJFY 260300Z 30015G25KT 270V340 9999 FEW030 SCT040 06/M04     Q1018 RMK 1CU030 3SC040 A3007=,
20180126_040000.003,0,RJFY,,,,0,20180126040000,-1,-1,-1,-1,290,-1,17,-1,-1,260,320,,9999,0,0,2,FEW 30   SCT 40,1,6,-1,4,1017,RJFY 260400Z 29017KT 260V320 9999 FEW030 SCT040 06/M04 Q1017     RMK 1CU030 3SC040 A3005=,
20180126_050000.003,0,RJFY,,,,0,20180126050000,-1,-1,-1,-1,280,-1,19,-1,30,-1,-1,,9999,0,0,2,FEW 30   SCT 40,1,6,-1,4,1017,RJFY 260500Z 28019G30KT 9999 FEW030 SCT040 06/M04 Q1017 RMK     1CU030 3SC040 A3004=,
20180126_060000.003,0,RJFY,,,,0,20180126060000,-1,-1,-1,-1,280,-1,18,-1,-1,-1,-1,,9999,0,0,1,FEW 30,1,6,-1,4,1017,RJFY 260600Z 28018KT 9999 FEW030 06/M04 Q1017 RMK 1CU030     A3004=,
20180126_070000.003,0,RJFY,,,,0,20180126070000,-1,-1,-1,-1,290,-1,15,-1,-1,260,320,,9999,0,0,1,FEW 30,1,7,-1,7,1017,RJFY 260700Z 29015KT 260V320 9999 FEW030 07/M07 Q1017 RMK     1CU030 A3005=,
20180126_080000.004,0,RJFY,,,,0,20180126080000,-1,-1,-1,-1,300,-1,16,-1,-1,-1,-1,,9999,0,0,1,FEW 30,1,6,-1,9,1018,RJFY 260800Z 30016KT 9999 FEW030 06/M09 Q1018 RMK 1CU030     A3007=,
20180126_090000.003,0,RJFY,,,,0,20180126090000,-1,-1,-1,-1,290,-1,12,-1,-1,-1,-1,,9999,0,0,1,FEW 30,1,4,-1,8,1019,RJFY 260900Z 29012KT 9999 FEW030 04/M08 Q1019 RMK 1CU030     A3009=,
20180126_100000.003,0,RJFY,,,,0,20180126100000,-1,-1,-1,-1,280,-1,16,-1,-1,-1,-1,,9999,0,0,1,FEW 30,1,3,-1,7,1020,RJFY 261000Z 28016KT 9999 FEW030 03/M07 Q1020 RMK 1CU030     A3012=,
20180126_110000.003,0,RJFY,,,,0,20180126110000,-1,-1,-1,-1,280,-1,17,-1,-1,-1,-1,,9999,0,0,1,FEW 30,1,3,-1,7,1020,RJFY 261100Z 28017KT 9999 FEW030 03/M07 Q1020 RMK 1CU030     A3014=,
20180126_120000.003,0,RJFY,,,,0,20180126120000,-1,-1,-1,-1,280,-1,17,-1,-1,-1,-1,,9999,0,0,1,FEW 30,1,2,-1,8,1020,RJFY 261200Z 28017KT 9999 FEW030 02/M08 Q1020 RMK 1CU030     A3014=,
20180126_130000.003,0,RJFY,,,,0,20180126130000,-1,-1,-1,-1,270,-1,18,-1,-1,-1,-1,,9999,0,0,1,FEW 30,1,2,-1,8,1021,RJFY 261300Z 27018KT 9999 FEW030 02/M08 Q1021 RMK 1CU030     A3017=,
20180126_140000.003,0,RJFY,,,,0,20180126140000,-1,-1,-1,-1,350,-1,4,-1,-1,300,80,,9999,0,0,1,FEW 30,1,1,-1,8,1021,RJFY 261400Z 35004KT 300V080 9999 FEW030 01/M08 Q1021 RMK     1CU030 A3017=,
20180126_150000.003,0,RJFY,,,,0,20180126150000,-1,-1,-1,-1,999,-1,2,-1,-1,-1,-1,,9999,0,0,1,FEW 30,1,1,-1,9,1021,RJFY 261500Z VRB02KT 9999 FEW030 01/M09 Q1021 RMK 1CU030     A3017=,
20180126_160000.003,0,RJFY,,,,0,20180126160000,-1,-1,-1,-1,40,-1,2,-1,-1,-1,-1,,9999,0,0,1,FEW 30,-1,3,-1,8,1021,RJFY 261600Z 04002KT 9999 FEW030 M03/M08 Q1021 RMK 1CU030     A3018=,
20180126_170000.003,0,RJFY,,,,0,20180126170000,-1,-1,-1,-1,70,-1,2,-1,-1,-1,-1,,9999,0,0,1,FEW 30,-1,3,-1,7,1022,RJFY 261700Z 07002KT 9999 FEW030 M03/M07 Q1022 RMK 1CU030     A3019=,
20180126_180000.003,0,RJFY,,,,0,20180126180000,-1,-1,-1,-1,50,-1,3,-1,-1,-1,-1,,9999,0,0,1,FEW 30,-1,3,-1,7,1022,RJFY 261800Z 05003KT 9999 FEW030 M03/M07 Q1022 RMK 1CU030     A3019=,
20180126_190000.003,0,RJFY,,,,0,20180126190000,-1,-1,-1,-1,20,-1,3,-1,-1,-1,-1,,9999,0,0,1,FEW 30,-1,4,-1,8,1022,RJFY 261900Z 02003KT 9999 FEW030 M04/M08 Q1022 RMK 1CU030     A3020=,
20180126_200000.004,0,RJFY,,,,0,20180126200000,-1,-1,-1,-1,260,-1,5,-1,-1,-1,-1,,9999,0,0,1,FEW 30,-1,3,-1,7,1022,RJFY 262000Z 26005KT 9999 FEW030 M03/M07 Q1022 RMK 1CU030     A3021=,
20180126_210000.003,0,RJFY,,,,0,20180126210000,-1,-1,-1,-1,30,-1,2,-1,-1,-1,-1,,9999,0,0,1,FEW 30,-1,5,-1,8,1023,RJFY 262100Z 03002KT 9999 FEW030 M05/M08 Q1023 RMK 1CU030     A3022=,
20180126_220000.003,0,RJFY,,,,0,20180126220000,-1,-1,-1,-1,100,-1,2,-1,-1,-1,-1,,9999,0,0,1,FEW 30,-1,5,-1,8,1024,RJFY 262200Z 10002KT 9999 FEW030 M05/M08 Q1024 RMK 1CU030     A3024=,
20180126_230000.003,0,RJFY,,,,0,20180126230000,-1,-1,-1,-1,0,-1,0,-1,-1,-1,-1,,9999,0,0,1,FEW 30,-1,5,-1,8,1024,RJFY 262300Z 00000KT 9999 FEW030 M05/M08 Q1024 RMK 1CU030     A3026=,
20180127_000000.003,0,RJFY,,,,0,20180127000000,-1,-1,-1,-1,999,-1,1,-1,-1,-1,-1,,9999,0,0,1,FEW 30,-1,2,-1,6,1025,RJFY 270000Z VRB01KT 9999 FEW030 M02/M06 Q1025 RMK 1CU030     A3027=,
20180127_010000.003,0,RJFY,,,,0,20180127010000,-1,-1,-1,-1,70,-1,3,-1,-1,-1,-1,,9999,0,0,1,FEW 30,1,1,-1,5,1025,RJFY 270100Z 07003KT 9999 FEW030 01/M05 Q1025 RMK 1CU030     A3027=,
20180127_020000.003,0,RJFY,,,,0,20180127020000,-1,-1,-1,-1,70,-1,4,-1,-1,360,120,,9999,0,0,1,FEW 30,1,4,-1,9,1024,RJFY 270200Z 07004KT 360V120 9999 FEW030 04/M09 Q1024 RMK     1CU030 A3025=,
20180127_030000.003,0,RJFY,,,,0,20180127030000,-1,-1,-1,-1,10,-1,3,-1,-1,320,50,,9999,0,0,1,FEW 30,1,5,-1,8,1023,RJFY 270300Z 01003KT 320V050 9999 FEW030 05/M08 Q1023 RMK     1CU030 A3023=,
20180127_040000.003,0,RJFY,,,,0,20180127040000,-1,-1,-1,-1,120,-1,4,-1,-1,-1,-1,,9999,0,0,1,FEW 30,1,7,-1,7,1022,RJFY 270400Z 12004KT 9999 FEW030 07/M07 Q1022 RMK 1CU030 A3019     P/FR=,
20180127_050000.003,0,RJFY,,,,0,20180127050000,-1,-1,-1,-1,260,-1,9,-1,-1,230,290,,9999,0,0,1,FEW 30,1,8,-1,4,1022,RJFY 270500Z 26009KT 230V290 9999 FEW030 08/M04 Q1022 RMK     1CU030 A3019=,
20180127_060000.003,0,RJFY,,,,0,20180127060000,-1,-1,-1,-1,250,-1,5,-1,-1,170,300,,9999,0,0,1,FEW 30,1,8,-1,4,1021,RJFY 270600Z 25005KT 170V300 9999 FEW030 08/M04 Q1021 RMK     1CU030 A3017=,
20180127_070000.003,0,RJFY,,,,0,20180127070000,-1,-1,-1,-1,250,-1,6,-1,-1,210,290,,9999,0,0,1,FEW 30,1,8,-1,4,1021,RJFY 270700Z 25006KT 210V290 9999 FEW030 08/M04 Q1021 RMK     1CU030 A3017=,
20180127_080000.003,0,RJFY,,,,0,20180127080000,-1,-1,-1,-1,250,-1,5,-1,-1,-1,-1,,9999,0,0,1,FEW 30,1,8,-1,3,1022,RJFY 270800Z 25005KT 9999 FEW030 08/M03 Q1022 RMK 1CU030     A3018=,
20180127_090000.004,0,RJFY,,,,0,20180127090000,-1,-1,-1,-1,290,-1,1,-1,-1,-1,-1,,9999,0,0,1,FEW 30,1,5,-1,3,1022,RJFY 270900Z 29001KT 9999 FEW030 05/M03 Q1022 RMK 2CU030     A3018=,
20180127_100000.003,0,RJFY,,,,0,20180127100000,-1,-1,-1,-1,130,-1,3,-1,-1,-1,-1,,9999,0,0,1,SCT 30,1,3,-1,2,1022,RJFY 271000Z 13003KT 9999 SCT030 03/M02 Q1022 RMK 3CU030     A3019=,
20180127_110000.003,0,RJFY,,,,0,20180127110000,-1,-1,-1,-1,360,-1,3,-1,-1,320,60,,9999,0,0,1,FEW 30,1,3,-1,3,1022,RJFY 271100Z 36003KT 320V060 9999 FEW030 03/M03 Q1022 RMK     2CU030 A3019=,
20180127_120000.003,0,RJFY,,,,0,20180127120000,-1,-1,-1,-1,999,-1,2,-1,-1,-1,-1,,9999,0,0,1,FEW 30,1,2,-1,2,1022,RJFY 271200Z VRB02KT 9999 FEW030 02/M02 Q1022 RMK 1CU030     A3020=,
20180127_130000.003,0,RJFY,,,,0,20180127130000,-1,-1,-1,-1,999,-1,1,-1,-1,-1,-1,,9999,0,0,2,FEW 30   BKN 180,1,1,-1,2,1022,RJFY 271300Z VRB01KT 9999 FEW030 BKN180 01/M02 Q1022 RMK     1CU030 5AC180 A3019=,
20180127_140000.004,0,RJFY,,,,0,20180127140000,-1,-1,-1,-1,999,-1,1,-1,-1,-1,-1,,9999,0,0,2,FEW 30   BKN 130,1,1,-1,2,1022,RJFY 271400Z VRB01KT 9999 FEW030 BKN130 01/M02 Q1022 RMK     1CU030 6AC130 A3020=,
20180127_150000.003,0,RJFY,,,,0,20180127150000,-1,-1,-1,-1,30,-1,1,-1,-1,-1,-1,,9999,0,0,2,FEW 30   BKN 120,1,2,-1,1,1022,RJFY 271500Z 03001KT 9999 FEW030 BKN120 02/M01 Q1022 RMK     1CU030 7AC120 A3018=,
20180127_160000.003,0,RJFY,,,,0,20180127160000,-1,-1,-1,-1,140,-1,2,-1,-1,-1,-1,,9999,0,0,3,FEW 30   SCT 50   BKN 100,1,2,-1,1,1021,RJFY 271600Z 14002KT 9999 FEW030 SCT050 BKN100 02/M01 Q1021     RMK 1CU030 3SC050 7AC100 A3016=,
20180127_170000.003,0,RJFY,,,,0,20180127170000,-1,-1,-1,-1,100,-1,2,-1,-1,-1,-1,,9999,0,0,3,FEW 30   BKN 50   BKN 100,1,2,-1,1,1021,RJFY 271700Z 10002KT 9999 FEW030 BKN050 BKN100 02/M01 Q1021     RMK 1CU030 6SC050 7AC100 A3016=,
20180127_180000.003,0,RJFY,,,,0,20180127180000,-1,-1,-1,-1,350,-1,2,-1,-1,-1,-1,,9999,0,0,3,FEW 30   SCT 50   BKN 80,1,3,-1,1,1020,RJFY 271800Z 35002KT 9999 FEW030 SCT050 BKN080 03/M01 Q1020     RMK 1CU030 3SC050 7AC080 A3014=,
20180127_190000.003,0,RJFY,,,,0,20180127190000,-1,-1,-1,-1,999,-1,1,-1,-1,-1,-1,,9999,0,0,3,FEW 30   SCT 50   BKN 80,1,3,-1,1,1020,RJFY 271900Z VRB01KT 9999 FEW030 SCT050 BKN080 03/M01 Q1020     RMK 1CU030 3SC050 7AC080 A3013=,
20180127_200000.003,0,RJFY,,,,0,20180127200000,-1,-1,-1,-1,999,-1,2,-1,-1,-1,-1,,8000,0,1,3,FEW 20   SCT 35   BKN 50,1,3,-1,1,1019,RJFY 272000Z VRB02KT 8000 -SHRA FEW020 SCT035 BKN050 03/M01     Q1019 RMK 1CU020 3CU035 7SC050 A3011=,- RA SH
20180127_210000.003,0,RJFY,,,,0,20180127210000,-1,-1,-1,-1,999,-1,1,-1,-1,-1,-1,,8000,0,1,3,FEW 20   SCT 35   BKN 50,1,4,1,0,1019,RJFY 272100Z VRB01KT 8000 -SHRA FEW020 SCT035 BKN050 04/00     Q1019 RMK 1CU020 4CU035 7SC050 A3011=,- RA SH
20180127_220000.003,0,RJFY,,,,0,20180127220000,-1,-1,-1,-1,110,-1,1,-1,-1,-1,-1,,9999,0,1,3,FEW 20   SCT 35   BKN 50,1,3,1,1,1020,RJFY 272200Z 11001KT 9999 -SHRA FEW020 SCT035 BKN050 03/01     Q1020 RMK 1CU020 4CU035 7SC050 A3012=,- RA SH
20180127_230000.003,0,RJFY,,,,0,20180127230000,-1,-1,-1,-1,350,-1,4,-1,-1,-1,-1,,9999,0,0,3,FEW 20   SCT 35   BKN 50,1,3,1,1,1019,RJFY 272300Z 35004KT 9999 FEW020 SCT035 BKN050 03/01 Q1019 RMK     1CU020 4CU035 6SC050 A3011=,
20180128_000000.004,0,RJFY,,,,0,20180128000000,-1,-1,-1,-1,90,-1,3,-1,-1,20,130,,9999,0,0,2,FEW 5   BKN 50,1,4,1,2,1018,RJFY 280000Z 09003KT 020V130 9999 FEW005 BKN050 04/02 Q1018     RMK 1ST005 7SC050 A3008=,
20180128_010000.003,0,RJFY,,,,0,20180128010000,-1,-1,-1,-1,130,-1,2,-1,-1,-1,-1,,9999,0,0,2,FEW 5   BKN 50,1,5,1,3,1019,RJFY 280100Z 13002KT 9999 FEW005 BKN050 05/03 Q1019 RMK 1ST005     7SC050 A3009=,
20180128_020000.003,0,RJFY,,,,0,20180128020000,-1,-1,-1,-1,80,-1,3,-1,-1,20,150,,9999,0,0,3,FEW 5   SCT 35   BKN 50,1,7,1,5,1017,RJFY 280200Z 08003KT 020V150 9999 FEW005 SCT035 BKN050 07/05     Q1017 RMK 1ST005 3CU035 7SC050 A3005 P/FR=,
20180128_030000.003,0,RJFY,,,,0,20180128030000,-1,-1,-1,-1,280,-1,1,-1,-1,-1,-1,,9999,0,1,2,FEW 5   OVC 40,1,8,1,4,1017,RJFY 280300Z 28001KT 9999 -RA FEW005 OVC040 08/04 Q1017 RMK     2ST005 8SC040 A3004=,- RA
20180128_040000.003,0,RJFY,,,,0,20180128040000,-1,-1,-1,-1,170,-1,2,-1,-1,-1,-1,,9999,0,1,2,FEW 8   OVC 40,1,8,1,5,1016,RJFY 280400Z 17002KT 9999 -RA FEW008 OVC040 08/05 Q1016 RMK     1ST008 8SC040 A3001=,- RA
20180128_050000.003,0,RJFY,,,,0,20180128050000,-1,-1,-1,-1,100,-1,3,-1,-1,70,130,,9999,0,1,2,FEW 8   OVC 30,1,8,1,6,1015,RJFY 280500Z 10003KT 070V130 9999 -RA FEW008 OVC030 08/06     Q1015 RMK 1ST008 8SC030 A2999=,- RA
20180128_060000.003,0,RJFY,,,,0,20180128060000,-1,-1,-1,-1,60,-1,2,-1,-1,-1,-1,,5000,0,2,3,FEW 5   SCT 12   OVC 30,1,7,1,6,1015,RJFY 280600Z 06002KT 5000 -RA BR FEW005 SCT012 OVC030 07/06     Q1015 RMK 1ST005 3SC012 8SC030 A2999=,- RA; BR
20180128_070000.004,0,RJFY,,,,0,20180128070000,-1,-1,-1,-1,350,-1,1,-1,-1,-1,-1,,5000,0,2,2,FEW 5   OVC 30,1,7,1,6,1015,RJFY 280700Z 35001KT 5000 -RA BR FEW005 OVC030 07/06 Q1015 RMK     1ST005 8SC030 A2998=,- RA; BR
20180128_080000.003,0,RJFY,,,,0,20180128080000,-1,-1,-1,-1,10,-1,1,-1,-1,-1,-1,,6000,0,1,2,FEW 5   OVC 30,1,8,1,7,1015,RJFY 280800Z 01001KT 6000 -RA FEW005 OVC030 08/07 Q1015 RMK     1ST005 8SC030 A2998=,- RA
20180128_090000.003,0,RJFY,,,,0,20180128090000,-1,-1,-1,-1,40,-1,2,-1,-1,-1,-1,,6000,0,1,3,FEW 5   SCT 30   OVC 60,1,7,1,7,1015,RJFY 280900Z 04002KT 6000 -RA FEW005 SCT030 OVC060 07/07 Q1015     RMK 1ST005 4SC030 8SC060 A2997=,- RA
20180128_100000.003,0,RJFY,,,,0,20180128100000,-1,-1,-1,-1,999,-1,1,-1,-1,-1,-1,,5000,0,2,3,FEW 5   SCT 30   OVC 60,1,7,1,7,1015,RJFY 281000Z VRB01KT 5000 -RA BR FEW005 SCT030 OVC060 07/07     Q1015 RMK 2ST005 4SC030 8SC060 A2999=,- RA; BR
20180128_110000.003,0,RJFY,,,,0,20180128110000,-1,-1,-1,-1,130,-1,2,-1,-1,-1,-1,,5000,0,2,3,FEW 5   SCT 10   BKN 40,1,7,1,6,1016,RJFY 281100Z 13002KT 5000 -RA BR FEW005 SCT010 BKN040 07/06     Q1016 RMK 1ST005 3ST010 5SC040 A3000=,- RA; BR
20180128_120000.003,0,RJFY,,,,0,20180128120000,-1,-1,-1,-1,270,-1,4,-1,-1,-1,-1,,6000,0,1,3,FEW 3   SCT 40   OVC 70,1,7,1,6,1015,RJFY 281200Z 27004KT 6000 -RA FEW003 SCT040 OVC070 07/06 Q1015     RMK 2ST003 3SC040 8AS070 A3000=,- RA
20180128_130000.003,0,RJFY,,,,0,20180128130000,-1,-1,-1,-1,260,-1,12,-1,-1,-1,-1,,7000,0,1,3,FEW 3   SCT 50   OVC 70,1,7,1,4,1016,RJFY 281300Z 26012KT 7000 -RA FEW003 SCT050 OVC070 07/04 Q1016     RMK 2ST003 4SC050 8AS070 A3002=,- RA
20180128_140000.003,0,RJFY,,,,0,20180128140000,-1,-1,-1,-1,260,-1,6,-1,-1,-1,-1,,6000,0,1,3,FEW 5   SCT 50   OVC 70,1,6,1,4,1016,RJFY 281400Z 26006KT 6000 -RA FEW005 SCT050 OVC070 06/04 Q1016     RMK 1ST005 3SC050 8AS070 A3001=,- RA
20180128_150000.003,0,RJFY,,,,0,20180128150000,-1,-1,-1,-1,150,-1,3,-1,-1,120,180,,7000,0,1,3,FEW 10   SCT 50   OVC 70,1,6,1,4,1015,RJFY 281500Z 15003KT 120V180 7000 -RA FEW010 SCT050 OVC070     06/04 Q1015 RMK 2ST010 3SC050 8AS070 A3000=,- RA
20180128_160000.003,0,RJFY,,,,0,20180128160000,-1,-1,-1,-1,160,-1,2,-1,-1,-1,-1,,9999,0,1,3,FEW 10   SCT 50   OVC 70,1,5,1,4,1015,RJFY 281600Z 16002KT 9999 -RA FEW010 SCT050 OVC070 05/04 Q1015     RMK 2ST010 3SC050 8AS070 A2998=,- RA
20180128_170000.003,0,RJFY,,,,0,20180128170000,-1,-1,-1,-1,290,-1,6,-1,-1,-1,-1,,9999,0,1,3,FEW 10   SCT 50   OVC 80,1,5,1,4,1015,RJFY 281700Z 29006KT 9999 -RA FEW010 SCT050 OVC080 05/04 Q1015     RMK 1ST010 3SC050 8AS080 A2998=,- RA
20180128_180000.003,0,RJFY,,,,0,20180128180000,-1,-1,-1,-1,280,-1,5,-1,-1,-1,-1,,9999,0,0,2,FEW 10   BKN 100,1,5,1,1,1015,RJFY 281800Z 28005KT 9999 FEW010 BKN100 05/01 Q1015 RMK 1ST010     7AC100 A2998=,
20180128_190000.003,0,RJFY,,,,0,20180128190000,-1,-1,-1,-1,330,-1,4,-1,-1,-1,-1,,9999,0,0,2,FEW 20   BKN 100,1,6,-1,0,1014,RJFY 281900Z 33004KT 9999 FEW020 BKN100 06/M00 Q1014 RMK     1CU020 7AC100 A2997=,
20180128_200000.003,0,RJFY,,,,0,20180128200000,-1,-1,-1,-1,270,-1,10,-1,-1,-1,-1,,9999,0,0,2,FEW 20   BKN 100,1,6,-1,0,1014,RJFY 282000Z 27010KT 9999 FEW020 BKN100 06/M00 Q1014 RMK     1CU020 7AC100 A2996=,
20180128_210000.003,0,RJFY,,,,0,20180128210000,-1,-1,-1,-1,270,-1,2,-1,-1,-1,-1,,9999,0,0,2,FEW 20   BKN 120,1,6,-1,0,1015,RJFY 282100Z 27002KT 9999 FEW020 BKN120 06/M00 Q1015 RMK     1CU020 7AC120 A2997=,
20180128_220000.004,0,RJFY,,,,0,20180128220000,-1,-1,-1,-1,290,-1,9,-1,-1,260,320,,9999,0,0,2,FEW 20   BKN 120,1,6,-1,1,1015,RJFY 282200Z 29009KT 260V320 9999 FEW020 BKN120 06/M01 Q1015     RMK 2CU020 7AC120 A2999=,
20180128_230000.003,0,RJFY,,,,0,20180128230000,-1,-1,-1,-1,290,-1,13,-1,-1,260,320,,9999,0,0,3,FEW 20   SCT 40   BKN 120,1,6,-1,1,1016,RJFY 282300Z 29013KT 260V320 9999 FEW020 SCT040 BKN120 06/M01     Q1016 RMK 2CU020 3SC040 7AC120 A3001=,
20180129_000000.004,0,RJFY,,,,0,20180129000000,-1,-1,-1,-1,290,-1,15,-1,-1,-1,-1,,9999,0,0,3,FEW 20   BKN 35   BKN 120,1,6,-1,1,1017,RJFY 290000Z 29015KT 9999 FEW020 BKN035 BKN120 06/M01 Q1017     RMK 1CU020 5SC035 7AC120 A3004=,
20180129_010000.003,0,RJFY,,,,0,20180129010000,-1,-1,-1,-1,280,-1,14,-1,-1,-1,-1,,9999,0,0,3,FEW 20   BKN 35   BKN 120,1,6,-1,1,1018,RJFY 290100Z 28014KT 9999 FEW020 BKN035 BKN120 06/M01 Q1018     RMK 1CU020 5SC035 7AC120 A3006=,
20180129_020000.003,0,RJFY,,,,0,20180129020000,-1,-1,-1,-1,300,-1,17,-1,-1,-1,-1,,9999,0,0,2,FEW 25   BKN 35,1,6,-1,2,1017,RJFY 290200Z 30017KT 9999 FEW025 BKN035 06/M02 Q1017 RMK     1CU025 5SC035 A3005=,
20180129_030000.003,0,RJFY,,,,0,20180129030000,-1,-1,-1,-1,290,-1,19,-1,-1,-1,-1,,9999,0,0,2,FEW 25   BKN 35,1,7,-1,3,1017,RJFY 290300Z 29019KT 9999 FEW025 BKN035 07/M03 Q1017 RMK     1CU025 5SC035 A3003=,
20180129_040000.003,0,RJFY,,,,0,20180129040000,-1,-1,-1,-1,290,-1,16,-1,-1,-1,-1,,9999,0,0,2,FEW 25   BKN 40,1,6,-1,3,1016,RJFY 290400Z 29016KT 9999 FEW025 BKN040 06/M03 Q1016 RMK     1CU025 5SC040 A3002=,
20180129_050000.003,0,RJFY,,,,0,20180129050000,-1,-1,-1,-1,290,-1,14,-1,24,-1,-1,,9999,0,0,1,FEW 25,1,8,-1,3,1015,RJFY 290500Z 29014G24KT 9999 FEW025 08/M03 Q1015 RMK 1CU025     A2999=,
20180129_060000.003,0,RJFY,,,,0,20180129060000,-1,-1,-1,-1,310,-1,14,-1,-1,280,340,,9999,0,0,1,FEW 25,1,7,-1,4,1015,RJFY 290600Z 31014KT 280V340 9999 FEW025 07/M04 Q1015 RMK     1CU025 A2999=,
20180129_070000.003,0,RJFY,,,,0,20180129070000,-1,-1,-1,-1,290,-1,17,-1,-1,-1,-1,,9999,0,0,1,FEW 25,1,7,-1,4,1016,RJFY 290700Z 29017KT 9999 FEW025 07/M04 Q1016 RMK 1CU025     A3002=,
20180129_080000.003,0,RJFY,,,,0,20180129080000,-1,-1,-1,-1,290,-1,15,-1,25,-1,-1,,9999,0,0,1,FEW 25,1,6,-1,4,1017,RJFY 290800Z 29015G25KT 9999 FEW025 06/M04 Q1017 RMK 1CU025     A3005=,
20180129_090000.003,0,RJFY,,,,0,20180129090000,-1,-1,-1,-1,270,-1,9,-1,-1,220,310,,9999,0,0,1,FEW 25,1,5,-1,6,1018,RJFY 290900Z 27009KT 220V310 9999 FEW025 05/M06 Q1018 RMK     1CU025 A3007=,
20180129_100000.003,0,RJFY,,,,0,20180129100000,-1,-1,-1,-1,290,-1,11,-1,-1,-1,-1,,9999,0,0,1,FEW 25,1,4,-1,5,1019,RJFY 291000Z 29011KT 9999 FEW025 04/M05 Q1019 RMK 1CU025     A3010=,
20180129_110000.003,0,RJFY,,,,0,20180129110000,-1,-1,-1,-1,300,-1,8,-1,-1,260,350,,9999,0,0,1,FEW 25,1,4,-1,5,1019,RJFY 291100Z 30008KT 260V350 9999 FEW025 04/M05 Q1019 RMK     1CU025 A3009=,
20180129_120000.003,0,RJFY,,,,0,20180129120000,-1,-1,-1,-1,10,-1,4,-1,-1,320,60,,9999,0,0,2,FEW 25   SCT 40,1,4,-1,6,1019,RJFY 291200Z 01004KT 320V060 9999 FEW025 SCT040 04/M06 Q1019     RMK 1CU025 3SC040 A3010=,
20180129_130000.003,0,RJFY,,,,0,20180129130000,-1,-1,-1,-1,260,-1,5,-1,-1,220,300,,9999,0,0,2,FEW 25   SCT 45,1,4,-1,5,1020,RJFY 291300Z 26005KT 220V300 9999 FEW025 SCT045 04/M05 Q1020     RMK 1CU025 4SC045 A3013=,
20180129_140000.003,0,RJFY,,,,0,20180129140000,-1,-1,-1,-1,260,-1,7,-1,-1,-1,-1,,9999,0,0,2,FEW 25   BKN 50,1,4,-1,4,1020,RJFY 291400Z 26007KT 9999 FEW025 BKN050 04/M04 Q1020 RMK     1CU025 7SC050 A3014=,
20180129_150000.003,0,RJFY,,,,0,20180129150000,-1,-1,-1,-1,270,-1,10,-1,-1,-1,-1,,9999,0,0,2,FEW 25   BKN 50,1,4,-1,4,1020,RJFY 291500Z 27010KT 9999 FEW025 BKN050 04/M04 Q1020 RMK     2CU025 7SC050 A3013=,
20180129_160000.003,0,RJFY,,,,0,20180129160000,-1,-1,-1,-1,280,-1,10,-1,-1,-1,-1,,9999,0,0,2,FEW 25   BKN 50,1,4,-1,4,1020,RJFY 291600Z 28010KT 9999 FEW025 BKN050 04/M04 Q1020 RMK     1CU025 7SC050 A3014=,
20180129_170000.003,0,RJFY,,,,0,20180129170000,-1,-1,-1,-1,290,-1,9,-1,-1,-1,-1,,9999,0,0,2,FEW 25   BKN 50,1,4,-1,4,1020,RJFY 291700Z 29009KT 9999 FEW025 BKN050 04/M04 Q1020 RMK     1CU025 6SC050 A3012=,
20180129_180000.003,0,RJFY,,,,0,20180129180000,-1,-1,-1,-1,290,-1,10,-1,-1,260,320,,9999,0,0,2,FEW 25   BKN 50,1,4,-1,5,1020,RJFY 291800Z 29010KT 260V320 9999 FEW025 BKN050 04/M05 Q1020     RMK 1CU025 7SC050 A3014=,
20180129_190000.003,0,RJFY,,,,0,20180129190000,-1,-1,-1,-1,300,-1,13,-1,-1,-1,-1,,9999,0,0,2,FEW 25   BKN 50,1,4,-1,6,1020,RJFY 291900Z 30013KT 9999 FEW025 BKN050 04/M06 Q1020 RMK     1CU025 7SC050 A3015=,
20180129_200000.003,0,RJFY,,,,0,20180129200000,-1,-1,-1,-1,320,-1,5,-1,-1,290,30,,9999,0,0,2,FEW 25   BKN 50,1,4,-1,5,1021,RJFY 292000Z 32005KT 290V030 9999 FEW025 BKN050 04/M05 Q1021     RMK 1CU025 7SC050 A3016=,
20180129_210000.003,0,RJFY,,,,0,20180129210000,-1,-1,-1,-1,300,-1,8,-1,-1,270,340,,9999,0,0,2,FEW 25   SCT 50,1,3,-1,5,1021,RJFY 292100Z 30008KT 270V340 9999 FEW025 SCT050 03/M05 Q1021     RMK 1CU025 3SC050 A3017=,
20180129_220000.003,0,RJFY,,,,0,20180129220000,-1,-1,-1,-1,250,-1,7,-1,-1,-1,-1,,9999,0,0,2,FEW 25   SCT 50,1,3,-1,5,1022,RJFY 292200Z 25007KT 9999 FEW025 SCT050 03/M05 Q1022 RMK     1CU025 4SC050 A3020=,
20180129_230000.003,0,RJFY,,,,0,20180129230000,-1,-1,-1,-1,290,-1,8,-1,-1,-1,-1,,9999,0,0,2,FEW 25   BKN 50,1,3,-1,5,1023,RJFY 292300Z 29008KT 9999 FEW025 BKN050 03/M05 Q1023 RMK     1CU025 6SC050 A3021=,
20180130_000000.003,0,RJFY,,,,0,20180130000000,-1,-1,-1,-1,290,-1,11,-1,-1,260,320,,9999,0,0,2,FEW 25   SCT 50,1,4,-1,5,1023,RJFY 300000Z 29011KT 260V320 9999 FEW025 SCT050 04/M05 Q1023     RMK 1CU025 4SC050 A3021=,
20180130_010000.003,0,RJFY,,,,0,20180130010000,-1,-1,-1,-1,300,-1,9,-1,-1,-1,-1,,9999,0,0,2,FEW 25   SCT 50,1,5,-1,5,1023,RJFY 300100Z 30009KT 9999 FEW025 SCT050 05/M05 Q1023 RMK     1CU025 3SC050 A3022=,
20180130_020000.003,0,RJFY,,,,0,20180130020000,-1,-1,-1,-1,290,-1,16,-1,-1,-1,-1,,9999,0,0,3,FEW 25   SCT 50   BKN 230,1,6,-1,5,1023,RJFY 300200Z 29016KT 9999 FEW025 SCT050 BKN230 06/M05 Q1023     RMK 1CU025 3SC050 A3021=,
20180130_030000.003,0,RJFY,,,,0,20180130030000,-1,-1,-1,-1,300,-1,14,-1,-1,260,330,,9999,0,0,3,FEW 25   SCT 50   BKN 230,1,7,-1,5,1022,RJFY 300300Z 30014KT 260V330 9999 FEW025 SCT050 BKN230 07/M05     Q1022 RMK 1CU025 3SC050 A3019=,
20180130_040000.003,0,RJFY,,,,0,20180130040000,-1,-1,-1,-1,280,-1,22,-1,-1,-1,-1,,9999,0,0,3,FEW 25   SCT 50   BKN 230,1,7,-1,4,1021,RJFY 300400Z 28022KT 9999 FEW025 SCT050 BKN230 07/M04 Q1021     RMK 1CU025 3SC050 A3017=,
20180130_050000.003,0,RJFY,,,,0,20180130050000,-1,-1,-1,-1,290,-1,17,-1,-1,-1,-1,,9999,0,0,2,FEW 25   SCT 230,1,7,-1,4,1020,RJFY 300500Z 29017KT 9999 FEW025 SCT230 07/M04 Q1020 RMK     1CU025 A3015=,
20180130_060000.004,0,RJFY,,,,0,20180130060000,-1,-1,-1,-1,290,-1,18,-1,-1,-1,-1,,9999,0,0,2,FEW 25   SCT 50,1,7,-1,5,1021,RJFY 300600Z 29018KT 9999 FEW025 SCT050 07/M05 Q1021 RMK     1CU025 3SC050 A3018 P/RR=,
20180130_070000.003,0,RJFY,,,,0,20180130070000,-1,-1,-1,-1,290,-1,14,-1,-1,-1,-1,,9999,0,0,3,FEW 25   SCT 50   BKN 230,1,6,-1,5,1022,RJFY 300700Z 29014KT 9999 FEW025 SCT050 BKN230 06/M05 Q1022     RMK 1CU025 3SC050 A3019=,
20180130_080000.003,0,RJFY,,,,0,20180130080000,-1,-1,-1,-1,280,-1,11,-1,-1,-1,-1,,9999,0,0,2,FEW 30   BKN 200,1,6,-1,5,1022,RJFY 300800Z 28011KT 9999 FEW030 BKN200 06/M05 Q1022 RMK     1CU030 A3021=,
20180130_090000.003,0,RJFY,,,,0,20180130090000,-1,-1,-1,-1,300,-1,11,-1,-1,-1,-1,,9999,0,0,2,FEW 30   SCT 50,1,5,-1,5,1023,RJFY 300900Z 30011KT 9999 FEW030 SCT050 05/M05 Q1023 RMK     1CU030 3SC050 A3024=,
20180130_100000.003,0,RJFY,,,,0,20180130100000,-1,-1,-1,-1,290,-1,13,-1,-1,-1,-1,,9999,0,0,1,FEW 30,1,4,-1,5,1024,RJFY 301000Z 29013KT 9999 FEW030 04/M05 Q1024 RMK 1CU030     A3025=,
20180130_110000.003,0,RJFY,,,,0,20180130110000,-1,-1,-1,-1,180,-1,3,-1,-1,130,260,,9999,0,0,1,FEW 30,1,4,-1,5,1024,RJFY 301100Z 18003KT 130V260 9999 FEW030 04/M05 Q1024 RMK     1CU030 A3026=,
20180130_120000.003,0,RJFY,,,,0,20180130120000,-1,-1,-1,-1,180,-1,2,-1,-1,-1,-1,,9999,0,0,1,FEW 30,1,3,-1,5,1025,RJFY 301200Z 18002KT 9999 FEW030 03/M05 Q1025 RMK 1CU030     A3028=,
20180130_130000.003,0,RJFY,,,,0,20180130130000,-1,-1,-1,-1,50,-1,4,-1,-1,-1,-1,,9999,0,0,1,FEW 30,-1,0,-1,5,1025,RJFY 301300Z 05004KT 9999 FEW030 M00/M05 Q1025 RMK 1CU030     A3028=,
20180130_140000.003,0,RJFY,,,,0,20180130140000,-1,-1,-1,-1,30,-1,1,-1,-1,-1,-1,,9999,0,0,1,FEW 30,-1,1,-1,5,1024,RJFY 301400Z 03001KT 9999 FEW030 M01/M05 Q1024 RMK 1CU030     A3027=,
20180130_150000.003,0,RJFY,,,,0,20180130150000,-1,-1,-1,-1,290,-1,4,-1,-1,-1,-1,,9999,0,0,1,FEW 30,-1,0,-1,5,1025,RJFY 301500Z 29004KT 9999 FEW030 M00/M05 Q1025 RMK 1CU030     A3027=,
20180130_160000.003,0,RJFY,,,,0,20180130160000,-1,-1,-1,-1,999,-1,1,-1,-1,-1,-1,,9999,0,0,1,FEW 30,-1,3,-1,6,1024,RJFY 301600Z VRB01KT 9999 FEW030 M03/M06 Q1024 RMK 1CU030     A3026=,
20180130_170000.003,0,RJFY,,,,0,20180130170000,-1,-1,-1,-1,0,-1,0,-1,-1,-1,-1,,9999,0,0,1,FEW 30,-1,2,-1,5,1025,RJFY 301700Z 00000KT 9999 FEW030 M02/M05 Q1025 RMK 1CU030     A3028=,
20180130_180000.003,0,RJFY,,,,0,20180130180000,-1,-1,-1,-1,999,-1,1,-1,-1,-1,-1,,9999,0,0,2,FEW 30   SCT 230,-1,3,-1,6,1026,RJFY 301800Z VRB01KT 9999 FEW030 SCT230 M03/M06 Q1026 RMK     1CU030 A3030=,
20180130_190000.003,0,RJFY,,,,0,20180130190000,-1,-1,-1,-1,0,-1,0,-1,-1,-1,-1,,9999,0,0,2,FEW 20   BKN 80,-1,1,-1,4,1026,RJFY 301900Z 00000KT 9999 FEW020 BKN080 M01/M04 Q1026 RMK     1CU020 5AC080 A3030=,
20180130_200000.003,0,RJFY,,,,0,20180130200000,-1,-1,-1,-1,999,-1,1,-1,-1,-1,-1,,9999,0,0,2,FEW 20   SCT 230,-1,2,-1,5,1026,RJFY 302000Z VRB01KT 9999 FEW020 SCT230 M02/M05 Q1026 RMK     1CU020 A3032=,
20180130_210000.003,0,RJFY,,,,0,20180130210000,-1,-1,-1,-1,350,-1,4,-1,-1,320,20,,9999,0,0,2,FEW 20   SCT 230,-1,2,-1,4,1026,RJFY 302100Z 35004KT 320V020 9999 FEW020 SCT230 M02/M04 Q1026     RMK 1CU020 A3031=,
20180130_220000.003,0,RJFY,,,,0,20180130220000,-1,-1,-1,-1,310,-1,2,-1,-1,-1,-1,,9999,0,0,2,FEW 30   SCT 230,-1,2,-1,4,1026,RJFY 302200Z 31002KT 9999 FEW030 SCT230 M02/M04 Q1026 RMK     1CU030 A3032=,
20180130_230000.003,0,RJFY,,,,0,20180130230000,-1,-1,-1,-1,999,-1,1,-1,-1,-1,-1,,9999,0,0,2,FEW 30   BKN 230,-1,2,-1,5,1026,RJFY 302300Z VRB01KT 9999 FEW030 BKN230 M02/M05 Q1026 RMK     1CU030 A3032=,
20180131_000000.003,0,RJFY,,,,0,20180131000000,-1,-1,-1,-1,50,-1,5,-1,-1,30,90,,9999,0,0,2,FEW 30   BKN 230,1,1,-1,3,1025,RJFY 310000Z 05005KT 030V090 9999 FEW030 BKN230 01/M03 Q1025     RMK 1CU030 A3028 P/FR=,
20180131_010000.003,0,RJFY,,,,0,20180131010000,-1,-1,-1,-1,140,-1,4,-1,-1,90,180,,9999,0,0,2,FEW 30   BKN 230,1,4,-1,2,1025,RJFY 310100Z 14004KT 090V180 9999 FEW030 BKN230 04/M02 Q1025     RMK 1CU030 A3030=,
20180131_020000.003,0,RJFY,,,,0,20180131020000,-1,-1,-1,-1,70,-1,2,-1,-1,-1,-1,,9999,0,0,2,FEW 30   BKN 230,1,7,-1,3,1025,RJFY 310200Z 07002KT 9999 FEW030 BKN230 07/M03 Q1025 RMK     1CU030 A3028=,
20180131_030000.003,0,RJFY,,,,0,20180131030000,-1,-1,-1,-1,220,-1,5,-1,-1,160,280,,9999,0,0,3,FEW 30   SCT 140   BKN 230,1,8,-1,4,1025,RJFY 310300Z 22005KT 160V280 9999 FEW030 SCT140 BKN230 08/M04     Q1025 RMK 1CU030 3AC140 A3028=,
20180131_040000.003,0,RJFY,,,,0,20180131040000,-1,-1,-1,-1,280,-1,4,-1,-1,-1,-1,,9999,0,0,3,FEW 20   SCT 120   BKN 230,1,9,-1,4,1023,RJFY 310400Z 28004KT 9999 FEW020 SCT120 BKN230 09/M04 Q1023     RMK 1CU020 3AC120 A3023=,
20180131_050000.003,0,RJFY,,,,0,20180131050000,-1,-1,-1,-1,300,-1,3,-1,-1,230,360,,9999,0,0,3,FEW 20   BKN 120   BKN 230,1,10,-1,3,1023,RJFY 310500Z 30003KT 230V360 9999 FEW020 BKN120 BKN230 10/M03     Q1023 RMK 1CU020 5AC120 A3021=,
20180131_060000.003,0,RJFY,,,,0,20180131060000,-1,-1,-1,-1,270,-1,5,-1,-1,240,300,,9999,0,0,3,FEW 20   SCT 120   BKN 230,1,9,-1,3,1022,RJFY 310600Z 27005KT 240V300 9999 FEW020 SCT120 BKN230 09/M03     Q1022 RMK 1CU020 4AC120 A3019=,
20180131_070000.004,0,RJFY,,,,0,20180131070000,-1,-1,-1,-1,250,-1,5,-1,-1,210,280,,9999,0,0,3,FEW 20   BKN 120   BKN 230,1,10,-1,3,1022,RJFY 310700Z 25005KT 210V280 9999 FEW020 BKN120 BKN230 10/M03     Q1022 RMK 1CU020 5AC120 A3020=,
20180131_080000.004,0,RJFY,,,,0,20180131080000,-1,-1,-1,-1,999,-1,1,-1,-1,-1,-1,,9999,0,0,3,FEW 20   BKN 150   BKN 230,1,10,-1,2,1022,RJFY 310800Z VRB01KT 9999 FEW020 BKN150 BKN230 10/M02 Q1022     RMK 1CU020 5AC150 A3020=,
20180131_090000.003,0,RJFY,,,,0,20180131090000,-1,-1,-1,-1,999,-1,1,-1,-1,-1,-1,,9999,0,0,3,FEW 20   BKN 90   BKN 150,1,9,-1,2,1022,RJFY 310900Z VRB01KT 9999 FEW020 BKN090 BKN150 09/M02 Q1022     RMK 1CU020 5AC090 7AC150 A3020=,
20180131_100000.003,0,RJFY,,,,0,20180131100000,-1,-1,-1,-1,30,-1,3,-1,-1,-1,-1,,9999,0,0,2,FEW 20   BKN 80,1,8,1,1,1022,RJFY 311000Z 03003KT 9999 FEW020 BKN080 08/01 Q1022 RMK 1CU020     7AC080 A3018=,
20180131_110000.003,0,RJFY,,,,0,20180131110000,-1,-1,-1,-1,20,-1,5,-1,-1,-1,-1,,9999,0,0,2,FEW 20   BKN 80,1,8,1,2,1021,RJFY 311100Z 02005KT 9999 FEW020 BKN080 08/02 Q1021 RMK 1CU020     7AC080 A3017=,
20180131_120000.003,0,RJFY,,,,0,20180131120000,-1,-1,-1,-1,120,-1,3,-1,-1,360,170,,9999,0,0,2,FEW 20   BKN 80,1,8,1,3,1022,RJFY 311200Z 12003KT 360V170 9999 FEW020 BKN080 08/03 Q1022     RMK 1CU020 7AC080 A3019=,
20180131_130000.004,0,RJFY,,,,0,20180131130000,-1,-1,-1,-1,160,-1,3,-1,-1,-1,-1,,9999,0,0,2,FEW 20   BKN 80,1,7,1,3,1022,RJFY 311300Z 16003KT 9999 FEW020 BKN080 07/03 Q1022 RMK 1CU020     7AC080 A3018=,
20180131_140000.003,0,RJFY,,,,0,20180131140000,-1,-1,-1,-1,120,-1,4,-1,-1,-1,-1,,9999,0,0,2,FEW 20   BKN 80,1,7,1,3,1022,RJFY 311400Z 12004KT 9999 FEW020 BKN080 07/03 Q1022 RMK 1CU020     7AC080 A3020=,
20180131_150000.003,0,RJFY,,,,0,20180131150000,-1,-1,-1,-1,160,-1,2,-1,-1,-1,-1,,9999,0,1,3,FEW 20   BKN 50   OVC 80,1,7,1,3,1021,RJFY 311500Z 16002KT 9999 -RA FEW020 BKN050 OVC080 07/03 Q1021     RMK 1CU020 5SC050 8AS080 A3018=,- RA
20180131_160000.003,0,RJFY,,,,0,20180131160000,-1,-1,-1,-1,140,-1,4,-1,-1,110,170,,9999,0,1,3,FEW 20   BKN 50   OVC 80,1,6,1,3,1021,RJFY 311600Z 14004KT 110V170 9999 -RA FEW020 BKN050 OVC080     06/03 Q1021 RMK 1CU020 5SC050 8AS080 A3017=,- RA
20180131_170000.003,0,RJFY,,,,0,20180131170000,-1,-1,-1,-1,160,-1,3,-1,-1,130,200,,8000,0,1,3,FEW 20   BKN 50   OVC 80,1,6,1,4,1021,RJFY 311700Z 16003KT 130V200 8000 -RA FEW020 BKN050 OVC080     06/04 Q1021 RMK 1CU020 6SC050 8AS080 A3017=,- RA
20180131_180000.003,0,RJFY,,,,0,20180131180000,-1,-1,-1,-1,140,-1,5,-1,-1,110,170,,5000,0,2,2,FEW 20   OVC 40,1,6,1,4,1021,RJFY 311800Z 14005KT 110V170 5000 -RA BR FEW020 OVC040 06/04     Q1021 RMK 1CU020 8SC040 A3016=,- RA; BR
20180131_190000.004,0,RJFY,,,,0,20180131190000,-1,-1,-1,-1,130,-1,4,-1,-1,90,160,,5000,0,2,3,FEW 20   BKN 40   OVC 60,1,6,1,4,1021,RJFY 311900Z 13004KT 090V160 5000 -RA BR FEW020 BKN040 OVC060     06/04 Q1021 RMK 1CU020 6SC040 8SC060 A3016=,- RA; BR
20180131_200000.004,0,RJFY,,,,0,20180131200000,-1,-1,-1,-1,110,-1,5,-1,-1,80,140,,4500,0,2,2,FEW 20   OVC 40,1,6,1,4,1021,RJFY 312000Z 11005KT 080V140 4500 RA BR FEW020 OVC040 06/04     Q1021 RMK 1CU020 8SC040 A3016=,RA; BR
20180131_210000.003,0,RJFY,,,,0,20180131210000,-1,-1,-1,-1,100,-1,5,-1,-1,70,140,,3500,0,2,3,FEW 20   BKN 30   OVC 60,1,5,1,4,1021,RJFY 312100Z 10005KT 070V140 3500 -RA BR FEW020 BKN030 OVC060     05/04 Q1021 RMK 1CU020 6CU030 8SC060 A3016=,- RA; BR
20180131_220000.003,0,RJFY,,,,0,20180131220000,-1,-1,-1,-1,100,-1,5,-1,-1,70,130,,4500,0,2,3,FEW 20   BKN 50   OVC 80,1,5,1,4,1021,RJFY 312200Z 10005KT 070V130 4500 -RA BR FEW020 BKN050 OVC080     05/04 Q1021 RMK 1CU020 6SC050 8AS080 A3015=,- RA; BR
20180131_230000.003,0,RJFY,,,,0,20180131230000,-1,-1,-1,-1,100,-1,6,-1,-1,-1,-1,,4500,0,2,3,FEW 5   BKN 40   OVC 60,1,5,1,4,1021,RJFY 312300Z 10006KT 4500 -RA BR FEW005 BKN040 OVC060 05/04     Q1021 RMK 1ST005 6SC040 8SC060 A3017=,- RA; BR
20180201_000000.004,0,RJFY,,,,0,20180201000000,-1,-1,-1,-1,70,-1,8,-1,-1,20,90,,4500,0,2,3,FEW 5   BKN 40   OVC 60,1,5,1,4,1021,RJFY 010000Z 07008KT 020V090 4500 -RA BR FEW005 BKN040 OVC060     05/04 Q1021 RMK 1ST005 6SC040 8SC060 A3017=,- RA; BR
20180201_010000.003,0,RJFY,,,,0,20180201010000,-1,-1,-1,-1,30,-1,8,-1,-1,360,60,,6000,0,1,3,FEW 2   BKN 45   OVC 60,1,5,1,4,1021,RJFY 010100Z 03008KT 360V060 6000 -RA FEW002 BKN045 OVC060     05/04 Q1021 RMK 1ST002 5SC045 8SC060 A3017=,- RA
20180201_020000.003,0,RJFY,,,,0,20180201020000,-1,-1,-1,-1,40,-1,7,-1,-1,10,70,,7000,0,1,3,FEW 2   BKN 45   OVC 60,1,6,1,4,1022,RJFY 010200Z 04007KT 010V070 7000 -RA FEW002 BKN045 OVC060     06/04 Q1022 RMK 1ST002 5SC045 8SC060 A3018=,- RA
20180201_030000.004,0,RJFY,,,,0,20180201030000,-1,-1,-1,-1,60,-1,8,-1,-1,-1,-1,,7000,0,1,3,FEW 5   SCT 45   OVC 60,1,6,1,5,1021,RJFY 010300Z 06008KT 7000 -RA FEW005 SCT045 OVC060 06/05 Q1021     RMK 1ST005 4SC045 8SC060 A3015=,- RA
20180201_040000.004,0,RJFY,,,,0,20180201040000,-1,-1,-1,-1,60,-1,7,-1,-1,30,90,,8000,0,1,3,FEW 2   SCT 45   OVC 60,1,6,1,4,1019,RJFY 010400Z 06007KT 030V090 8000 -RA FEW002 SCT045 OVC060     06/04 Q1019 RMK 1ST002 4SC045 8SC060 A3012=,- RA
20180201_050000.003,0,RJFY,,,,0,20180201050000,-1,-1,-1,-1,80,-1,5,-1,-1,60,120,,6000,0,1,3,FEW 2   SCT 10   OVC 60,1,6,1,4,1019,RJFY 010500Z 08005KT 060V120 6000 -RA FEW002 SCT010 OVC060     06/04 Q1019 RMK 1ST002 4ST010 8SC060 A3012=,- RA
20180201_060000.003,0,RJFY,,,,0,20180201060000,-1,-1,-1,-1,160,-1,3,-1,-1,120,190,,5000,0,2,3,FEW 2   BKN 10   OVC 45,1,6,1,5,1020,RJFY 010600Z 16003KT 120V190 5000 -RA BR FEW002 BKN010 OVC045     06/05 Q1020 RMK 1ST002 5ST010 8SC045 A3012=,- RA; BR
20180201_070000.003,0,RJFY,,,,0,20180201070000,-1,-1,-1,-1,120,-1,6,-1,-1,80,140,,9999,0,0,2,FEW 2   BKN 50,1,6,1,5,1020,RJFY 010700Z 12006KT 080V140 9999 FEW002 BKN050 06/05 Q1020     RMK 1ST002 7SC050 A3012=,
20180201_080000.003,0,RJFY,,,,0,20180201080000,-1,-1,-1,-1,130,-1,4,-1,-1,90,180,,9999,0,0,2,FEW 10   BKN 50,1,6,1,5,1020,RJFY 010800Z 13004KT 090V180 9999 FEW010 BKN050 06/05 Q1020     RMK 1ST010 5SC050 A3014=,
20180201_090000.003,0,RJFY,,,,0,20180201090000,-1,-1,-1,-1,160,-1,3,-1,-1,130,190,,9999,0,0,2,FEW 3   BKN 15,1,6,1,4,1021,RJFY 010900Z 16003KT 130V190 9999 FEW003 BKN015 06/04 Q1021     RMK 1ST003 5CU015 A3016=,
20180201_100000.003,0,RJFY,,,,0,20180201100000,-1,-1,-1,-1,999,-1,2,-1,-1,-1,-1,,9999,0,0,2,FEW 3   BKN 15,1,4,1,3,1022,RJFY 011000Z VRB02KT 9999 FEW003 BKN015 04/03 Q1022 RMK 1ST003     5CU015 A3018=,
20180201_110000.003,0,RJFY,,,,0,20180201110000,-1,-1,-1,-1,70,-1,3,-1,-1,-1,-1,,9999,0,0,3,FEW 3   SCT 15   BKN 35,1,4,1,4,1022,RJFY 011100Z 07003KT 9999 FEW003 SCT015 BKN035 04/04 Q1022 RMK     1ST003 4CU015 5CU035 A3019=,
20180201_120000.003,0,RJFY,,,,0,20180201120000,-1,-1,-1,-1,70,-1,2,-1,-1,-1,-1,,9999,0,0,2,FEW 3   BKN 35,1,4,1,4,1022,RJFY 011200Z 07002KT 9999 FEW003 BKN035 04/04 Q1022 RMK 1ST003     5CU035 A3020=,
20180201_130000.003,0,RJFY,,,,0,20180201130000,-1,-1,-1,-1,130,-1,4,-1,-1,-1,-1,,5000,0,1,1,FEW 4,1,3,1,2,1023,RJFY 011300Z 13004KT 5000 BR FEW004 03/02 Q1023 RMK 2ST004     A3021=,BR
20180201_140000.003,0,RJFY,,,,0,20180201140000,-1,-1,-1,-1,190,-1,1,-1,-1,-1,-1,,800,1,1,2,FEW 4   SCT 8,1,3,1,3,1023,RJFY 011400Z 19001KT 0800 R26/0550V1100U FG FEW004 SCT008     03/03 Q1023 RMK 1ST004 3ST008 A3022 R0700=,FG
20180201_150000.003,0,RJFY,,,,0,20180201150000,-1,-1,-1,-1,240,-1,2,-1,-1,-1,-1,,1600,1,2,1,FEW 8,1,3,1,2,1023,RJFY 011500Z 24002KT 1600 R26/1800U BR BCFG FEW008 03/02 Q1023     RMK 1ST008 A3021 FG SE-SW=,BR; BC FG
20180201_160000.003,0,RJFY,,,,0,20180201160000,-1,-1,-1,-1,999,-1,1,-1,-1,-1,-1,,2500,0,1,1,FEW 3,1,1,1,0,1023,RJFY 011600Z VRB01KT 2500 BR FEW003 01/00 Q1023 RMK 1ST003     A3021=,BR
20180201_170000.003,0,RJFY,,,,0,20180201170000,-1,-1,-1,-1,80,-1,2,-1,-1,-1,-1,,5000,0,1,1,FEW 5,1,1,1,0,1023,RJFY 011700Z 08002KT 5000 BR FEW005 01/00 Q1023 RMK 1ST005     A3023=,BR
20180201_180000.003,0,RJFY,,,,0,20180201180000,-1,-1,-1,-1,50,-1,1,-1,-1,-1,-1,,6000,0,0,1,FEW 3,1,1,1,1,1022,RJFY 011800Z 05001KT 6000 FEW003 01/01 Q1022 RMK 1ST003 A3019=,
20180201_190000.004,0,RJFY,,,,0,20180201190000,-1,-1,-1,-1,130,-1,4,-1,-1,-1,-1,,1800,1,2,1,FEW 3,1,1,1,0,1021,RJFY 011900Z 13004KT 1800 R26/0700V1800D PRFG BR FEW003 01/00     Q1021 RMK 1ST003 A3017 R0800 FG BANK E-SW-NW=,PR FG; BR
20180201_200000.004,0,RJFY,,,,0,20180201200000,-1,-1,-1,-1,999,-1,1,-1,-1,-1,-1,,800,1,1,2,FEW 1   SCT 5,-1,0,-1,1,1022,RJFY 012000Z VRB01KT 0800 R26/0650N FG FEW001 SCT005 M00/M01     Q1022 RMK 1ST001 3ST005 A3018=,FG
20180201_210000.003,0,RJFY,,,,0,20180201210000,-1,-1,-1,-1,110,-1,2,-1,-1,-1,-1,,700,1,1,1,FEW 1,-1,1,-1,1,1021,RJFY 012100Z 11002KT 0700 R26/0650V1100U FG FEW001 M01/M01     Q1021 RMK 1ST001 A3018 R0800=,FG
20180201_220000.003,0,RJFY,,,,0,20180201220000,-1,-1,-1,-1,330,-1,2,-1,-1,-1,-1,,9999,0,0,2,FEW 5   SCT 40,-1,0,-1,1,1023,RJFY 012200Z 33002KT 9999 FEW005 SCT040 M00/M01 Q1023 RMK     1ST005 4SC040 A3021=,
20180201_230000.004,0,RJFY,,,,0,20180201230000,-1,-1,-1,-1,90,-1,2,-1,-1,-1,-1,,1500,1,2,2,FEW 1   SCT 40,-1,0,-1,1,1023,RJFY 012300Z 09002KT 1500 R26/0650V1400D PRFG BR FEW001 SCT040     M00/M01 Q1023 RMK 1ST001 3SC040 A3022 R0900 FG W-SE VIS           VRB=,PR FG; BR
20180202_000000.003,0,RJFY,,,,0,20180202000000,-1,-1,-1,-1,290,-1,1,-1,-1,-1,-1,,9999,0,0,2,FEW 1   BKN 230,1,2,1,1,1024,RJFY 020000Z 29001KT 9999 FEW001 BKN230 02/01 Q1024 RMK 2ST001     A3025=,
20180202_010000.003,0,RJFY,,,,0,20180202010000,-1,-1,-1,-1,130,-1,4,-1,-1,90,170,,9999,0,0,2,FEW 1   SCT 230,1,4,1,3,1024,RJFY 020100Z 13004KT 090V170 9999 FEW001 SCT230 04/03 Q1024     RMK 2ST001 A3025=,
20180202_020000.003,0,RJFY,,,,0,20180202020000,-1,-1,-1,-1,999,-1,1,-1,-1,-1,-1,,9999,0,0,2,FEW 35   SCT 230,1,8,1,4,1024,RJFY 020200Z VRB01KT 9999 FEW035 SCT230 08/04 Q1024 RMK 2CU035     A3024=,
20180202_030000.003,0,RJFY,,,,0,20180202030000,-1,-1,-1,-1,240,-1,6,-1,-1,190,290,,9999,0,0,3,FEW 20   SCT 30   BKN 230,1,9,1,0,1023,RJFY 020300Z 24006KT 190V290 9999 FEW020 SCT030 BKN230 09/00     Q1023 RMK 1CU020 3CU030 A3021=,
20180202_040000.003,0,RJFY,,,,0,20180202040000,-1,-1,-1,-1,20,-1,6,-1,-1,-1,-1,,9999,0,0,2,SCT 30   BKN 230,1,11,1,0,1021,RJFY 020400Z 02006KT 9999 SCT030 BKN230 11/00 Q1021 RMK 3CU030     A3018=,
20180202_050000.002,0,RJFY,,,,0,20180202050000,-1,-1,-1,-1,290,-1,15,-1,-1,250,310,,9999,0,0,2,FEW 30   BKN 230,1,11,-1,1,1021,RJFY 020500Z 29015KT 250V310 9999 FEW030 BKN230 11/M01 Q1021     RMK 1CU030 A3016=,
20180202_060000.003,0,RJFY,,,,0,20180202060000,-1,-1,-1,-1,290,-1,13,-1,-1,-1,-1,,9999,0,0,2,FEW 30   BKN 230,1,12,-1,1,1021,RJFY 020600Z 29013KT 9999 FEW030 BKN230 12/M01 Q1021 RMK     1CU030 A3015=,
20180202_070000.003,0,RJFY,,,,0,20180202070000,-1,-1,-1,-1,290,-1,12,-1,-1,-1,-1,,9999,0,0,2,FEW 30   BKN 230,1,11,-1,2,1020,RJFY 020700Z 29012KT 9999 FEW030 BKN230 11/M02 Q1020 RMK     1CU030 A3014=,
20180202_080000.003,0,RJFY,,,,0,20180202080000,-1,-1,-1,-1,300,-1,7,-1,-1,-1,-1,,9999,0,0,2,FEW 30   BKN 230,1,10,-1,3,1020,RJFY 020800Z 30007KT 9999 FEW030 BKN230 10/M03 Q1020 RMK     1CU030 A3014=,
20180202_090000.003,0,RJFY,,,,0,20180202090000,-1,-1,-1,-1,290,-1,4,-1,-1,-1,-1,,9999,0,0,2,FEW 30   BKN 230,1,9,-1,4,1021,RJFY 020900Z 29004KT 9999 FEW030 BKN230 09/M04 Q1021 RMK     1CU030 A3016=,
20180202_100000.004,0,RJFY,,,,0,20180202100000,-1,-1,-1,-1,999,-1,2,-1,-1,-1,-1,,9999,0,0,2,FEW 30   SCT 230,1,6,-1,2,1021,RJFY 021000Z VRB02KT 9999 FEW030 SCT230 06/M02 Q1021 RMK     1CU030 A3016=,
20180202_110000.003,0,RJFY,,,,0,20180202110000,-1,-1,-1,-1,999,-1,1,-1,-1,-1,-1,,9999,0,0,1,FEW 30,1,7,-1,1,1021,RJFY 021100Z VRB01KT 9999 FEW030 07/M01 Q1021 RMK 1CU030     A3017=,
20180202_120000.003,0,RJFY,,,,0,20180202120000,-1,-1,-1,-1,300,-1,2,-1,-1,-1,-1,,9999,0,0,2,FEW 30   BKN 230,1,5,-1,0,1022,RJFY 021200Z 30002KT 9999 FEW030 BKN230 05/M00 Q1022 RMK     1CU030 A3018=,
20180202_130000.004,0,RJFY,,,,0,20180202130000,-1,-1,-1,-1,999,-1,2,-1,-1,-1,-1,,9999,0,0,2,FEW 30   BKN 230,1,4,1,0,1022,RJFY 021300Z VRB02KT 9999 FEW030 BKN230 04/00 Q1022 RMK 1CU030     A3019=,
20180202_140000.003,0,RJFY,,,,0,20180202140000,-1,-1,-1,-1,999,-1,2,-1,-1,-1,-1,,9999,0,0,2,FEW 30   SCT 230,1,4,1,0,1022,RJFY 021400Z VRB02KT 9999 FEW030 SCT230 04/00 Q1022 RMK 1CU030     A3019=,
20180202_150000.003,0,RJFY,,,,0,20180202150000,-1,-1,-1,-1,270,-1,3,-1,-1,-1,-1,,9999,0,0,1,FEW 30,1,2,-1,0,1022,RJFY 021500Z 27003KT 9999 FEW030 02/M00 Q1022 RMK 1CU030     A3019=,
20180202_160000.003,0,RJFY,,,,0,20180202160000,-1,-1,-1,-1,10,-1,3,-1,-1,300,60,,9999,0,0,1,FEW 30,1,2,-1,0,1021,RJFY 021600Z 01003KT 300V060 9999 FEW030 02/M00 Q1021 RMK     1CU030 A3017=,
20180202_170000.003,0,RJFY,,,,0,20180202170000,-1,-1,-1,-1,300,-1,3,-1,-1,-1,-1,,9999,0,0,1,FEW 30,1,1,-1,1,1021,RJFY 021700Z 30003KT 9999 FEW030 01/M01 Q1021 RMK 1CU030     A3017=,
20180202_180000.004,0,RJFY,,,,0,20180202180000,-1,-1,-1,-1,999,-1,1,-1,-1,-1,-1,,9999,0,0,1,FEW 30,-1,0,-1,2,1021,RJFY 021800Z VRB01KT 9999 FEW030 M00/M02 Q1021 RMK 1CU030     A3016=,
20180202_190000.004,0,RJFY,,,,0,20180202190000,-1,-1,-1,-1,270,-1,2,-1,-1,-1,-1,,9999,0,0,2,FEW 30   SCT 60,1,1,-1,1,1021,RJFY 021900Z 27002KT 9999 FEW030 SCT060 01/M01 Q1021 RMK     1CU030 3SC060 A3015=,
20180202_200000.004,0,RJFY,,,,0,20180202200000,-1,-1,-1,-1,999,-1,1,-1,-1,-1,-1,,9999,0,0,1,FEW 20,1,0,-1,2,1020,RJFY 022000Z VRB01KT 9999 FEW020 00/M02 Q1020 RMK 1CU020     A3015=,
20180202_210000.003,0,RJFY,,,,0,20180202210000,-1,-1,-1,-1,0,-1,0,-1,-1,-1,-1,,9999,0,0,2,FEW 30   SCT 60,-1,1,-1,3,1021,RJFY 022100Z 00000KT 9999 FEW030 SCT060 M01/M03 Q1021 RMK     1CU030 4SC060 A3016=,
20180202_220000.003,0,RJFY,,,,0,20180202220000,-1,-1,-1,-1,300,-1,5,-1,-1,260,330,,9999,0,0,3,FEW 30   BKN 60   BKN 230,1,6,-1,2,1021,RJFY 022200Z 30005KT 260V330 9999 FEW030 BKN060 BKN230 06/M02     Q1021 RMK 1CU030 5SC060 A3017=,
20180202_230000.004,0,RJFY,,,,0,20180202230000,-1,-1,-1,-1,290,-1,8,-1,-1,-1,-1,,9999,0,0,3,FEW 30   SCT 60   BKN 230,1,6,-1,3,1022,RJFY 022300Z 29008KT 9999 FEW030 SCT060 BKN230 06/M03 Q1022     RMK 1CU030 3SC060 A3018=,
20180203_000000.003,0,RJFY,,,,0,20180203000000,-1,-1,-1,-1,290,-1,7,-1,-1,-1,-1,,9999,0,0,2,FEW 30   BKN 230,1,6,-1,4,1022,RJFY 030000Z 29007KT 9999 FEW030 BKN230 06/M04 Q1022 RMK     1CU030 A3018=,
20180203_010000.004,0,RJFY,,,,0,20180203010000,-1,-1,-1,-1,330,-1,5,-1,-1,-1,-1,,9999,0,0,2,FEW 30   BKN 230,1,8,-1,5,1022,RJFY 030100Z 33005KT 9999 FEW030 BKN230 08/M05 Q1022 RMK     1CU030 A3018=,
20180203_020000.003,0,RJFY,,,,0,20180203020000,-1,-1,-1,-1,310,-1,14,-1,-1,280,360,,9999,0,0,2,FEW 30   BKN 230,1,9,-1,9,1022,RJFY 030200Z 31014KT 280V360 9999 FEW030 BKN230 09/M09 Q1022     RMK 1CU030 A3018=,
20180203_030000.003,0,RJFY,,,,0,20180203030000,-1,-1,-1,-1,310,-1,13,-1,-1,270,350,,9999,0,0,2,FEW 30   BKN 230,1,9,-1,6,1021,RJFY 030300Z 31013KT 270V350 9999 FEW030 BKN230 09/M06 Q1021     RMK 1CU030 A3016=,
20180203_040000.003,0,RJFY,,,,0,20180203040000,-1,-1,-1,-1,300,-1,20,-1,30,-1,-1,,9999,0,0,2,FEW 30   SCT 230,1,10,-1,5,1020,RJFY 030400Z 30020G30KT 9999 FEW030 SCT230 10/M05 Q1020 RMK     1CU030 A3013=,
20180203_050000.003,0,RJFY,,,,0,20180203050000,-1,-1,-1,-1,300,-1,20,-1,30,-1,-1,,9999,0,0,2,FEW 20   SCT 30,1,9,-1,4,1019,RJFY 030500Z 30020G30KT 9999 FEW020 SCT030 09/M04 Q1019 RMK     1CU020 3CU030 A3011=,
20180203_060000.003,0,RJFY,,,,0,20180203060000,-1,-1,-1,-1,290,-1,16,-1,-1,-1,-1,,9999,0,0,1,FEW 30,1,10,-1,4,1019,RJFY 030600Z 29016KT 9999 FEW030 10/M04 Q1019 RMK 2CU030     A3011=,
20180203_070000.004,0,RJFY,,,,0,20180203070000,-1,-1,-1,-1,300,-1,14,-1,-1,-1,-1,,9999,0,0,2,FEW 30   SCT 45,1,9,-1,3,1019,RJFY 030700Z 30014KT 9999 FEW030 SCT045 09/M03 Q1019 RMK     1CU030 3SC045 A3012=,
20180203_080000.003,0,RJFY,,,,0,20180203080000,-1,-1,-1,-1,310,-1,11,-1,-1,-1,-1,,9999,0,0,2,FEW 30   SCT 45,1,7,-1,3,1020,RJFY 030800Z 31011KT 9999 FEW030 SCT045 07/M03 Q1020 RMK     1CU030 4SC045 A3013=,
20180203_090000.003,0,RJFY,,,,0,20180203090000,-1,-1,-1,-1,300,-1,12,-1,-1,270,330,,9999,0,0,2,FEW 30   BKN 50,1,6,-1,2,1020,RJFY 030900Z 30012KT 270V330 9999 FEW030 BKN050 06/M02 Q1020     RMK 2CU030 5SC050 A3015=,
20180203_100000.003,0,RJFY,,,,0,20180203100000,-1,-1,-1,-1,300,-1,10,-1,-1,270,330,,9999,0,0,2,FEW 30   BKN 50,1,5,-1,3,1021,RJFY 031000Z 30010KT 270V330 9999 FEW030 BKN050 05/M03 Q1021     RMK 1CU030 5SC050 A3016=,
20180203_110000.003,0,RJFY,,,,0,20180203110000,-1,-1,-1,-1,300,-1,12,-1,22,270,330,,9999,0,0,2,FEW 30   BKN 50,1,5,-1,4,1021,RJFY 031100Z 30012G22KT 270V330 9999 FEW030 BKN050 05/M04     Q1021 RMK 1CU030 6SC050 A3017=,
20180203_120000.003,0,RJFY,,,,0,20180203120000,-1,-1,-1,-1,300,-1,7,-1,-1,220,320,,9999,0,0,2,FEW 30   BKN 50,1,4,-1,5,1022,RJFY 031200Z 30007KT 220V320 9999 FEW030 BKN050 04/M05 Q1022     RMK 1CU030 6SC050 A3020=,
20180203_130000.003,0,RJFY,,,,0,20180203130000,-1,-1,-1,-1,310,-1,10,-1,-1,-1,-1,,9999,0,0,2,FEW 30   BKN 45,1,4,-1,6,1022,RJFY 031300Z 31010KT 9999 FEW030 BKN045 04/M06 Q1022 RMK     1CU030 6SC045 A3020=,
20180203_140000.003,0,RJFY,,,,0,20180203140000,-1,-1,-1,-1,290,-1,9,-1,-1,-1,-1,,9999,0,0,2,FEW 30   BKN 45,1,4,-1,5,1022,RJFY 031400Z 29009KT 9999 FEW030 BKN045 04/M05 Q1022 RMK     1CU030 6SC045 A3019=,
20180203_150000.003,0,RJFY,,,,0,20180203150000,-1,-1,-1,-1,310,-1,7,-1,-1,260,340,,9999,0,0,2,FEW 30   BKN 50,1,4,-1,5,1022,RJFY 031500Z 31007KT 260V340 9999 FEW030 BKN050 04/M05 Q1022     RMK 1CU030 6SC050 A3019=,
20180203_160000.003,0,RJFY,,,,0,20180203160000,-1,-1,-1,-1,290,-1,9,-1,-1,-1,-1,,9999,0,0,2,FEW 30   BKN 50,1,4,-1,5,1022,RJFY 031600Z 29009KT 9999 FEW030 BKN050 04/M05 Q1022 RMK     1CU030 6SC050 A3018=,
20180203_170000.003,0,RJFY,,,,0,20180203170000,-1,-1,-1,-1,290,-1,10,-1,-1,-1,-1,,9999,0,0,2,FEW 30   BKN 50,1,4,-1,5,1022,RJFY 031700Z 29010KT 9999 FEW030 BKN050 04/M05 Q1022 RMK     1CU030 6SC050 A3019=,
20180203_180000.004,0,RJFY,,,,0,20180203180000,-1,-1,-1,-1,290,-1,9,-1,-1,-1,-1,,9999,0,0,2,FEW 30   BKN 60,1,3,-1,6,1022,RJFY 031800Z 29009KT 9999 FEW030 BKN060 03/M06 Q1022 RMK     1CU030 6SC060 A3018=,
20180203_190000.003,0,RJFY,,,,0,20180203190000,-1,-1,-1,-1,300,-1,10,-1,-1,-1,-1,,9999,0,0,2,FEW 30   BKN 60,1,3,-1,5,1022,RJFY 031900Z 30010KT 9999 FEW030 BKN060 03/M05 Q1022 RMK     1CU030 7SC060 A3019=,
20180203_200000.003,0,RJFY,,,,0,20180203200000,-1,-1,-1,-1,310,-1,9,-1,-1,-1,-1,,9999,0,0,2,FEW 30   BKN 60,1,3,-1,5,1022,RJFY 032000Z 31009KT 9999 FEW030 BKN060 03/M05 Q1022 RMK     1CU030 7SC060 A3019=,
20180203_210000.003,0,RJFY,,,,0,20180203210000,-1,-1,-1,-1,310,-1,10,-1,-1,-1,-1,,9999,0,0,2,FEW 30   BKN 60,1,2,-1,5,1022,RJFY 032100Z 31010KT 9999 FEW030 BKN060 02/M05 Q1022 RMK     1CU030 7SC060 A3021=,
20180203_220000.003,0,RJFY,,,,0,20180203220000,-1,-1,-1,-1,300,-1,11,-1,-1,270,330,,9999,0,0,2,FEW 30   BKN 60,1,2,-1,6,1023,RJFY 032200Z 30011KT 270V330 9999 FEW030 BKN060 02/M06 Q1023     RMK 1CU030 6SC060 A3021=,
20180203_230000.003,0,RJFY,,,,0,20180203230000,-1,-1,-1,-1,290,-1,10,-1,-1,-1,-1,,9999,0,0,2,FEW 30   SCT 60,1,2,-1,6,1023,RJFY 032300Z 29010KT 9999 FEW030 SCT060 02/M06 Q1023 RMK     2CU030 3SC060 A3022=,
20180204_000000.003,0,RJFY,,,,0,20180204000000,-1,-1,-1,-1,300,-1,12,-1,22,-1,-1,,9999,0,0,2,FEW 30   SCT 50,1,3,-1,6,1023,RJFY 040000Z 30012G22KT 9999 FEW030 SCT050 03/M06 Q1023 RMK     2CU030 3SC050 A3021=,
20180204_010000.003,0,RJFY,,,,0,20180204010000,-1,-1,-1,-1,290,-1,13,-1,-1,260,320,,9999,0,0,2,FEW 25   BKN 35,1,4,-1,5,1023,RJFY 040100Z 29013KT 260V320 9999 FEW025 BKN035 04/M05 Q1023     RMK 1CU025 5CU035 A3021=,
20180204_020000.003,0,RJFY,,,,0,20180204020000,-1,-1,-1,-1,300,-1,16,-1,26,-1,-1,,9999,0,0,2,FEW 25   BKN 35,1,4,-1,6,1022,RJFY 040200Z 30016G26KT 9999 FEW025 BKN035 04/M06 Q1022 RMK     1CU025 5CU035 A3020=,
20180204_030000.003,0,RJFY,,,,0,20180204030000,-1,-1,-1,-1,300,-1,12,-1,26,-1,-1,,9999,0,0,3,FEW 25   SCT 35   BKN 50,1,5,-1,5,1022,RJFY 040300Z 30012G26KT 9999 FEW025 SCT035 BKN050 05/M05 Q1022     RMK 1CU025 4CU035 5SC050 A3018=,
20180204_040000.003,0,RJFY,,,,0,20180204040000,-1,-1,-1,-1,290,-1,15,-1,25,-1,-1,,9999,0,1,2,FEW 25   BKN 35,1,5,-1,5,1020,RJFY 040400Z 29015G25KT 9999 VCSH FEW025 BKN035 05/M05 Q1020     RMK 1CU025 5CU035 A3014=,VC SH
20180204_050000.003,0,RJFY,,,,0,20180204050000,-1,-1,-1,-1,300,-1,15,-1,25,-1,-1,,9999,0,1,2,FEW 25   BKN 35,1,4,-1,5,1020,RJFY 040500Z 30015G25KT 9999 -SHSN FEW025 BKN035 04/M05 Q1020     RMK 1CU025 5CU035 A3015=,- SN SH
20180204_060000.003,0,RJFY,,,,0,20180204060000,-1,-1,-1,-1,300,-1,16,-1,26,-1,-1,,9999,0,0,2,FEW 25   BKN 35,1,5,-1,4,1020,RJFY 040600Z 30016G26KT 9999 FEW025 BKN035 05/M04 Q1020 RMK     1CU025 5CU035 A3013=,
20180204_070000.003,0,RJFY,,,,0,20180204070000,-1,-1,-1,-1,310,-1,15,-1,25,-1,-1,,9999,0,1,3,FEW 25   SCT 35   BKN 50,1,4,-1,5,1020,RJFY 040700Z 31015G25KT 9999 -SHSN FEW025 SCT035 BKN050 04/M05     Q1020 RMK 1CU025 4CU035 5SC050 A3015=,- SN SH
20180204_080000.003,0,RJFY,,,,0,20180204080000,-1,-1,-1,-1,310,-1,13,-1,-1,280,340,,9999,0,0,3,FEW 25   SCT 35   BKN 50,1,3,-1,5,1021,RJFY 040800Z 31013KT 280V340 9999 FEW025 SCT035 BKN050 03/M05     Q1021 RMK 1CU025 3CU035 6SC050 A3017=,
20180204_090000.003,0,RJFY,,,,0,20180204090000,-1,-1,-1,-1,300,-1,14,-1,-1,-1,-1,,9999,0,0,2,FEW 25   SCT 50,1,2,-1,7,1021,RJFY 040900Z 30014KT 9999 FEW025 SCT050 02/M07 Q1021 RMK     1CU025 4SC050 A3018=,
20180204_100000.003,0,RJFY,,,,0,20180204100000,-1,-1,-1,-1,300,-1,9,-1,-1,270,330,,9999,0,0,2,FEW 30   SCT 50,1,2,-1,8,1023,RJFY 041000Z 30009KT 270V330 9999 FEW030 SCT050 02/M08 Q1023     RMK 1CU030 4SC050 A3021=,
20180204_110000.004,0,RJFY,,,,0,20180204110000,-1,-1,-1,-1,320,-1,10,-1,-1,280,20,,9999,0,0,1,FEW 30,1,2,-1,9,1023,RJFY 041100Z 32010KT 280V020 9999 FEW030 02/M09 Q1023 RMK     1CU030 A3022=,
20180204_120000.003,0,RJFY,,,,0,20180204120000,-1,-1,-1,-1,310,-1,12,-1,-1,270,340,,9999,0,0,1,FEW 30,1,2,-1,9,1022,RJFY 041200Z 31012KT 270V340 9999 FEW030 02/M09 Q1022 RMK     1CU030 A3021=,
20180204_130000.003,0,RJFY,,,,0,20180204130000,-1,-1,-1,-1,320,-1,13,-1,25,290,360,,9999,0,0,2,FEW 30   SCT 50,1,2,-1,8,1022,RJFY 041300Z 32013G25KT 290V360 9999 FEW030 SCT050 02/M08     Q1022 RMK 1CU030 3SC050 A3021=,
20180204_140000.003,0,RJFY,,,,0,20180204140000,-1,-1,-1,-1,320,-1,7,-1,-1,-1,-1,,9999,0,0,2,FEW 30   SCT 50,1,1,-1,7,1023,RJFY 041400Z 32007KT 9999 FEW030 SCT050 01/M07 Q1023 RMK     1CU030 3SC050 A3022=,
20180204_150000.003,0,RJFY,,,,0,20180204150000,-1,-1,-1,-1,290,-1,11,-1,-1,-1,-1,,9999,0,0,2,FEW 30   BKN 50,1,2,-1,6,1023,RJFY 041500Z 29011KT 9999 FEW030 BKN050 02/M06 Q1023 RMK     1CU030 6SC050 A3022=,
20180204_160000.003,0,RJFY,,,,0,20180204160000,-1,-1,-1,-1,290,-1,8,-1,-1,-1,-1,,9999,0,0,2,FEW 30   BKN 45,1,2,-1,6,1023,RJFY 041600Z 29008KT 9999 FEW030 BKN045 02/M06 Q1023 RMK     1CU030 6SC045 A3022=,
20180204_170000.003,0,RJFY,,,,0,20180204170000,-1,-1,-1,-1,290,-1,9,-1,-1,250,320,,9999,0,0,2,FEW 30   BKN 45,1,2,-1,7,1023,RJFY 041700Z 29009KT 250V320 9999 FEW030 BKN045 02/M07 Q1023     RMK 2CU030 6SC045 A3021=,
20180204_180000.004,0,RJFY,,,,0,20180204180000,-1,-1,-1,-1,310,-1,6,-1,-1,260,20,,9999,0,0,2,FEW 30   BKN 50,1,2,-1,8,1022,RJFY 041800Z 31006KT 260V020 9999 FEW030 BKN050 02/M08 Q1022     RMK 1CU030 6SC050 A3020=,
20180204_190000.003,0,RJFY,,,,0,20180204190000,-1,-1,-1,-1,300,-1,10,-1,-1,280,340,,9999,0,0,2,FEW 30   BKN 50,1,2,-1,8,1022,RJFY 041900Z 30010KT 280V340 9999 FEW030 BKN050 02/M08 Q1022     RMK 1CU030 6SC050 A3020=,
20180204_200000.003,0,RJFY,,,,0,20180204200000,-1,-1,-1,-1,310,-1,9,-1,-1,280,350,,9999,0,0,2,FEW 30   BKN 50,1,2,-1,9,1022,RJFY 042000Z 31009KT 280V350 9999 FEW030 BKN050 02/M09 Q1022     RMK 1CU030 6SC050 A3020=,
20180204_210000.003,0,RJFY,,,,0,20180204210000,-1,-1,-1,-1,300,-1,14,-1,-1,-1,-1,,9999,0,0,2,FEW 30   BKN 50,1,2,-1,8,1023,RJFY 042100Z 30014KT 9999 FEW030 BKN050 02/M08 Q1023 RMK     1CU030 6SC050 A3021=,
20180204_220000.003,0,RJFY,,,,0,20180204220000,-1,-1,-1,-1,300,-1,10,-1,-1,-1,-1,,9999,0,0,2,FEW 30   BKN 60,1,1,-1,7,1023,RJFY 042200Z 30010KT 9999 FEW030 BKN060 01/M07 Q1023 RMK     1CU030 6SC060 A3022=,
20180204_230000.003,0,RJFY,,,,0,20180204230000,-1,-1,-1,-1,290,-1,11,-1,-1,-1,-1,,9999,0,0,2,FEW 30   BKN 60,1,1,-1,7,1023,RJFY 042300Z 29011KT 9999 FEW030 BKN060 01/M07 Q1023 RMK     2CU030 6SC060 A3022=,
20180205_000000.004,0,RJFY,,,,0,20180205000000,-1,-1,-1,-1,310,-1,11,-1,-1,-1,-1,,9999,0,0,2,FEW 30   BKN 60,1,2,-1,8,1023,RJFY 050000Z 31011KT 9999 FEW030 BKN060 02/M08 Q1023 RMK     1CU030 5SC060 A3023=,
20180205_010000.003,0,RJFY,,,,0,20180205010000,-1,-1,-1,-1,310,-1,10,-1,20,260,50,,9999,0,0,3,FEW 30   SCT 60   BKN 230,1,3,-1,8,1023,RJFY 050100Z 31010G20KT 260V050 9999 FEW030 SCT060 BKN230     03/M08 Q1023 RMK 2CU030 3SC060 A3023=,
20180205_020000.003,0,RJFY,,,,0,20180205020000,-1,-1,-1,-1,290,-1,13,-1,-1,-1,-1,,9999,0,0,2,FEW 30   SCT 230,1,4,-1,8,1023,RJFY 050200Z 29013KT 9999 FEW030 SCT230 04/M08 Q1023 RMK     2CU030 A3021=,
