20180101_000000.003,0,RJFZ,,,,0,20180101000000,-1,-1,-1,-1,300,-1,11,-1,-1,-1,-1,,9999,0,0,3,FEW 20   SCT 40   BKN 50,1,6,-1,4,1024,RJFZ 010000Z 30011KT 9999 FEW020 SCT040 BKN050 06/M04 Q1024     RMK 1CU020 3CU040 5SC050 A3024=,
20180101_010000.003,0,RJFZ,,,,0,20180101010000,-1,-1,-1,-1,290,-1,16,-1,-1,-1,-1,,9999,0,0,2,FEW 30   BKN 50,1,6,-1,5,1025,RJFZ 010100Z 29016KT 9999 FEW030 BKN050 06/M05 Q1025 RMK     1CU030 5SC050 A3027 MAX WIND 23KT=,
20180101_020000.003,0,RJFZ,,,,0,20180101020000,-1,-1,-1,-1,300,-1,15,-1,-1,-1,-1,,9999,0,0,2,FEW 30   BKN 45,1,8,-1,5,1025,RJFZ 010200Z 30015KT 9999 FEW030 BKN045 08/M05 Q1025 RMK     1CU030 6SC045 A3027=,
20180101_030000.003,0,RJFZ,,,,0,20180101030000,-1,-1,-1,-1,290,-1,13,-1,-1,250,320,,9999,0,0,2,FEW 30   BKN 45,1,9,-1,4,1024,RJFZ 010300Z 29013KT 250V320 9999 FEW030 BKN045 09/M04 Q1024     RMK 1CU030 6SC045 A3025=,
20180101_040000.003,0,RJFZ,,,,0,20180101040000,-1,-1,-1,-1,310,-1,14,-1,-1,-1,-1,,9999,0,0,2,FEW 30   BKN 50,1,8,-1,4,1024,RJFZ 010400Z 31014KT 9999 FEW030 BKN050 08/M04 Q1024 RMK     1CU030 6SC050 A3024=,
20180101_050000.003,0,RJFZ,,,,0,20180101050000,-1,-1,-1,-1,310,-1,12,-1,-1,-1,-1,,9999,0,0,2,FEW 30   BKN 50,1,8,-1,5,1023,RJFZ 010500Z 31012KT 9999 FEW030 BKN050 08/M05 Q1023 RMK     1CU030 5SC050 A3023=,
20180101_060000.003,0,RJFZ,,,,0,20180101060000,-1,-1,-1,-1,320,-1,12,-1,-1,-1,-1,,9999,0,0,2,FEW 30   BKN 50,1,8,-1,5,1023,RJFZ 010600Z 32012KT 9999 FEW030 BKN050 08/M05 Q1023 RMK     1CU030 6SC050 A3024=,
20180101_070000.003,0,RJFZ,,,,0,20180101070000,-1,-1,-1,-1,320,-1,11,-1,-1,-1,-1,,9999,0,0,2,FEW 30   BKN 50,1,8,-1,5,1024,RJFZ 010700Z 32011KT 9999 FEW030 BKN050 08/M05 Q1024 RMK     1CU030 6SC050 A3025=,
20180101_080000.003,0,RJFZ,,,,0,20180101080000,-1,-1,-1,-1,320,-1,7,-1,-1,-1,-1,,9999,0,0,2,FEW 25   BKN 45,1,7,-1,4,1024,RJFZ 010800Z 32007KT 9999 FEW025 BKN045 07/M04 Q1024 RMK     1CU025 6SC045 A3026=,
20180101_090000.003,0,RJFZ,,,,0,20180101090000,-1,-1,-1,-1,280,-1,7,-1,-1,-1,-1,,9999,0,0,2,FEW 25   BKN 50,1,5,-1,5,1025,RJFZ 010900Z 28007KT 9999 FEW025 BKN050 05/M05 Q1025 RMK     1CU025 5SC050 A3027=,
20180101_100000.003,0,RJFZ,,,,0,20180101100000,-1,-1,-1,-1,250,-1,6,-1,-1,-1,-1,,9999,0,0,2,FEW 25   SCT 50,1,4,-1,5,1025,RJFZ 011000Z 25006KT 9999 FEW025 SCT050 04/M05 Q1025 RMK     1CU025 3SC050 A3029=,
20180101_110000.003,0,RJFZ,,,,0,20180101110000,-1,-1,-1,-1,240,-1,6,-1,-1,-1,-1,,9999,0,0,2,FEW 30   BKN 50,1,3,-1,4,1025,RJFZ 011100Z 24006KT 9999 FEW030 BKN050 03/M04 Q1025 RMK     1CU030 5SC050 A3029=,
20180101_120000.003,0,RJFZ,,,,0,20180101120000,-1,-1,-1,-1,220,-1,6,-1,-1,-1,-1,,9999,0,0,2,FEW 30   SCT 50,1,2,-1,4,1025,RJFZ 011200Z 22006KT 9999 FEW030 SCT050 02/M04 Q1025 RMK     1CU030 3SC050 A3028=,
20180101_130000.003,0,RJFZ,,,,0,20180101130000,-1,-1,-1,-1,250,-1,6,-1,-1,-1,-1,,9999,0,0,2,FEW 30   SCT 50,1,0,-1,4,1025,RJFZ 011300Z 25006KT 9999 FEW030 SCT050 00/M04 Q1025 RMK     1CU030 3SC050 A3028=,
20180101_140000.003,0,RJFZ,,,,0,20180101140000,-1,-1,-1,-1,250,-1,7,-1,-1,-1,-1,,9999,0,0,1,FEW 30,1,0,-1,5,1025,RJFZ 011400Z 25007KT 9999 FEW030 00/M05 Q1025 RMK 1CU030     A3029=,
20180101_150000.003,0,RJFZ,,,,0,20180101150000,-1,-1,-1,-1,240,-1,6,-1,-1,-1,-1,,9999,0,0,1,FEW 30,1,0,-1,5,1025,RJFZ 011500Z 24006KT 9999 FEW030 00/M05 Q1025 RMK 1CU030     A3029=,
20180101_160000.003,0,RJFZ,,,,0,20180101160000,-1,-1,-1,-1,240,-1,7,-1,-1,-1,-1,,9999,0,0,2,FEW 30   SCT 50,1,0,-1,4,1025,RJFZ 011600Z 24007KT 9999 FEW030 SCT050 00/M04 Q1025 RMK     1CU030 3SC050 A3029=,
20180101_170000.003,0,RJFZ,,,,0,20180101170000,-1,-1,-1,-1,240,-1,8,-1,-1,-1,-1,,9999,0,0,1,FEW 30,-1,1,-1,5,1025,RJFZ 011700Z 24008KT 9999 FEW030 M01/M05 Q1025 RMK 1CU030     A3029=,
20180101_180000.004,0,RJFZ,,,,0,20180101180000,-1,-1,-1,-1,250,-1,8,-1,-1,-1,-1,,9999,0,0,1,FEW 30,-1,0,-1,4,1026,RJFZ 011800Z 25008KT 9999 FEW030 M00/M04 Q1026 RMK 1CU030     A3030=,
20180101_190000.004,0,RJFZ,,,,0,20180101190000,-1,-1,-1,-1,250,-1,7,-1,-1,-1,-1,,9999,0,0,2,FEW 30   SCT 50,1,0,-1,5,1025,RJFZ 011900Z 25007KT 9999 FEW030 SCT050 00/M05 Q1025 RMK     1CU030 3SC050 A3029=,
20180101_200000.004,0,RJFZ,,,,0,20180101200000,-1,-1,-1,-1,250,-1,9,-1,-1,-1,-1,,9999,0,0,2,FEW 30   SCT 50,1,2,-1,4,1025,RJFZ 012000Z 25009KT 9999 FEW030 SCT050 02/M04 Q1025 RMK     1CU030 4SC050 A3029=,
20180101_210000.003,0,RJFZ,,,,0,20180101210000,-1,-1,-1,-1,240,-1,8,-1,-1,-1,-1,,9999,0,0,2,FEW 30   SCT 45,1,2,-1,4,1026,RJFZ 012100Z 24008KT 9999 FEW030 SCT045 02/M04 Q1026 RMK     1CU030 3SC045 A3031 10/M02=,
20180101_220000.003,0,RJFZ,,,,0,20180101220000,-1,-1,-1,-1,250,-1,7,-1,-1,-1,-1,,9999,0,0,1,SCT 40,1,2,-1,4,1026,RJFZ 012200Z 25007KT 9999 SCT040 02/M04 Q1026 RMK 3CU040     A3032=,
20180101_230000.003,0,RJFZ,,,,0,20180101230000,-1,-1,-1,-1,250,-1,9,-1,-1,-1,-1,,9999,0,0,1,FEW 40,1,3,-1,3,1026,RJFZ 012300Z 25009KT 9999 FEW040 03/M03 Q1026 RMK 2CU040     A3032=,
20180102_000000.004,0,RJFZ,,,,0,20180102000000,-1,-1,-1,-1,260,-1,7,-1,-1,-1,-1,,9999,0,0,1,FEW 40,1,6,-1,2,1027,RJFZ 020000Z 26007KT 9999 FEW040 06/M02 Q1027 RMK 1CU040     A3033=,
20180102_010000.004,0,RJFZ,,,,0,20180102010000,-1,-1,-1,-1,240,-1,7,-1,-1,-1,-1,,9999,0,0,1,SCT 40,1,9,-1,2,1027,RJFZ 020100Z 24007KT 9999 SCT040 09/M02 Q1027 RMK 3CU040     A3033=,
20180102_020000.003,0,RJFZ,,,,0,20180102020000,-1,-1,-1,-1,310,-1,12,-1,-1,-1,-1,,9999,0,0,1,SCT 40,1,10,-1,3,1026,RJFZ 020200Z 31012KT 9999 SCT040 10/M03 Q1026 RMK 3CU040     A3032=,
20180102_030000.003,0,RJFZ,,,,0,20180102030000,-1,-1,-1,-1,320,-1,11,-1,-1,-1,-1,,9999,0,0,1,SCT 40,1,11,-1,4,1026,RJFZ 020300Z 32011KT 9999 SCT040 11/M04 Q1026 RMK 3CU040     A3030=,
20180102_040000.003,0,RJFZ,,,,0,20180102040000,-1,-1,-1,-1,310,-1,9,-1,-1,260,350,,9999,0,0,1,FEW 40,1,11,-1,4,1025,RJFZ 020400Z 31009KT 260V350 9999 FEW040 11/M04 Q1025 RMK     2CU040 A3027=,
20180102_050000.003,0,RJFZ,,,,0,20180102050000,-1,-1,-1,-1,330,-1,11,-1,-1,-1,-1,,9999,0,0,1,FEW 40,1,11,-1,4,1024,RJFZ 020500Z 33011KT 9999 FEW040 11/M04 Q1024 RMK 1CU040     A3026=,
20180102_060000.003,0,RJFZ,,,,0,20180102060000,-1,-1,-1,-1,330,-1,12,-1,-1,-1,-1,,9999,0,0,1,FEW 40,1,10,-1,4,1024,RJFZ 020600Z 33012KT 9999 FEW040 10/M04 Q1024 RMK 1CU040     A3026=,
20180102_070000.003,0,RJFZ,,,,0,20180102070000,-1,-1,-1,-1,340,-1,8,-1,-1,-1,-1,,9999,0,0,1,FEW 40,1,10,-1,6,1024,RJFZ 020700Z 34008KT 9999 FEW040 10/M06 Q1024 RMK 1CU040     A3026=,
20180102_080000.003,0,RJFZ,,,,0,20180102080000,-1,-1,-1,-1,300,-1,7,-1,-1,-1,-1,,9999,0,0,1,FEW 40,1,9,-1,5,1024,RJFZ 020800Z 30007KT 9999 FEW040 09/M05 Q1024 RMK 1CU040     A3026=,
20180102_090000.003,0,RJFZ,,,,0,20180102090000,-1,-1,-1,-1,270,-1,5,-1,-1,-1,-1,,9999,0,0,1,FEW 40,1,5,-1,5,1024,RJFZ 020900Z 27005KT 9999 FEW040 05/M05 Q1024 RMK 1CU040     A3027=,
20180102_100000.003,0,RJFZ,,,,0,20180102100000,-1,-1,-1,-1,250,-1,7,-1,-1,-1,-1,,9999,0,0,1,FEW 40,1,3,-1,4,1025,RJFZ 021000Z 25007KT 9999 FEW040 03/M04 Q1025 RMK 1CU040     A3028=,
20180102_110000.003,0,RJFZ,,,,0,20180102110000,-1,-1,-1,-1,250,-1,5,-1,-1,-1,-1,,9999,0,0,1,FEW 40,1,3,-1,2,1025,RJFZ 021100Z 25005KT 9999 FEW040 03/M02 Q1025 RMK 1CU040     A3028=,
20180102_120000.003,0,RJFZ,,,,0,20180102120000,-1,-1,-1,-1,240,-1,8,-1,-1,-1,-1,,9999,0,0,1,FEW 40,1,4,-1,2,1024,RJFZ 021200Z 24008KT 9999 FEW040 04/M02 Q1024 RMK 1CU040     A3027=,
20180102_130000.004,0,RJFZ,,,,0,20180102130000,-1,-1,-1,-1,250,-1,7,-1,-1,-1,-1,,9999,0,0,1,FEW 40,1,1,-1,3,1023,RJFZ 021300Z 25007KT 9999 FEW040 01/M03 Q1023 RMK 1CU040     A3024=,
20180102_140000.004,0,RJFZ,,,,0,20180102140000,-1,-1,-1,-1,260,-1,6,-1,-1,-1,-1,,9999,0,0,2,FEW 20   SCT 40,1,1,-1,3,1023,RJFZ 021400Z 26006KT 9999 FEW020 SCT040 01/M03 Q1023 RMK     1CU020 3CU040 A3023=,
20180102_150000.003,0,RJFZ,,,,0,20180102150000,-1,-1,-1,-1,270,-1,8,-1,-1,-1,-1,,9999,0,0,2,FEW 20   BKN 40,1,3,-1,2,1023,RJFZ 021500Z 27008KT 9999 FEW020 BKN040 03/M02 Q1023 RMK     1CU020 5CU040 A3022=,
20180102_160000.003,0,RJFZ,,,,0,20180102160000,-1,-1,-1,-1,260,-1,10,-1,-1,-1,-1,,9999,0,0,2,FEW 20   SCT 40,1,5,-1,2,1023,RJFZ 021600Z 26010KT 9999 FEW020 SCT040 05/M02 Q1023 RMK     1CU020 3CU040 A3022=,
20180102_170000.003,0,RJFZ,,,,0,20180102170000,-1,-1,-1,-1,260,-1,10,-1,-1,-1,-1,,9999,0,0,2,FEW 20   SCT 50,1,4,-1,2,1023,RJFZ 021700Z 26010KT 9999 FEW020 SCT050 04/M02 Q1023 RMK     1CU020 3SC050 A3022=,
20180102_180000.004,0,RJFZ,,,,0,20180102180000,-1,-1,-1,-1,260,-1,10,-1,-1,-1,-1,,9999,0,0,3,FEW 20   BKN 45   BKN 100,1,6,-1,1,1023,RJFZ 021800Z 26010KT 9999 FEW020 BKN045 BKN100 06/M01 Q1023     RMK 1CU020 6SC045 5AC100 A3023=,
20180102_190000.003,0,RJFZ,,,,0,20180102190000,-1,-1,-1,-1,250,-1,9,-1,-1,-1,-1,,9999,0,0,3,FEW 20   BKN 45   BKN 100,1,7,-1,1,1024,RJFZ 021900Z 25009KT 9999 FEW020 BKN045 BKN100 07/M01 Q1024     RMK 1CU020 6SC045 7AC100 A3024=,
20180102_200000.004,0,RJFZ,,,,0,20180102200000,-1,-1,-1,-1,250,-1,8,-1,-1,-1,-1,,9999,0,0,3,FEW 20   BKN 40   BKN 100,1,6,-1,1,1023,RJFZ 022000Z 25008KT 9999 FEW020 BKN040 BKN100 06/M01 Q1023     RMK 1CU020 6CU040 7AC100 A3023=,
20180102_210000.003,0,RJFZ,,,,0,20180102210000,-1,-1,-1,-1,280,-1,8,-1,-1,-1,-1,,9999,0,0,1,SCT 40,1,4,-1,2,1024,RJFZ 022100Z 28008KT 9999 SCT040 04/M02 Q1024 RMK 3CU040 A3024     12/01=,
20180102_220000.003,0,RJFZ,,,,0,20180102220000,-1,-1,-1,-1,290,-1,9,-1,-1,-1,-1,,9999,0,0,2,FEW 25   SCT 40,1,6,-1,3,1024,RJFZ 022200Z 29009KT 9999 FEW025 SCT040 06/M03 Q1024 RMK     1CU025 3CU040 A3027=,
20180102_230000.003,0,RJFZ,,,,0,20180102230000,-1,-1,-1,-1,300,-1,10,-1,-1,-1,-1,,9999,0,0,2,FEW 30   SCT 50,1,6,-1,4,1025,RJFZ 022300Z 30010KT 9999 FEW030 SCT050 06/M04 Q1025 RMK     1CU030 3SC050 A3027=,
20180103_000000.003,0,RJFZ,,,,0,20180103000000,-1,-1,-1,-1,300,-1,10,-1,-1,-1,-1,,9999,0,0,1,FEW 40,1,8,-1,5,1025,RJFZ 030000Z 30010KT 9999 FEW040 08/M05 Q1025 RMK 1CU040     A3028=,
20180103_010000.003,0,RJFZ,,,,0,20180103010000,-1,-1,-1,-1,300,-1,10,-1,-1,-1,-1,,9999,0,0,1,FEW 40,1,9,-1,5,1025,RJFZ 030100Z 30010KT 9999 FEW040 09/M05 Q1025 RMK 1CU040     A3029=,
20180103_020000.003,0,RJFZ,,,,0,20180103020000,-1,-1,-1,-1,300,-1,12,-1,-1,-1,-1,,9999,0,0,1,FEW 40,1,10,-1,5,1025,RJFZ 030200Z 30012KT 9999 FEW040 10/M05 Q1025 RMK 2CU040     A3028=,
20180103_030000.004,0,RJFZ,,,,0,20180103030000,-1,-1,-1,-1,340,-1,11,-1,-1,-1,-1,,9999,0,0,2,FEW 30   SCT 40,1,10,-1,5,1024,RJFZ 030300Z 34011KT 9999 FEW030 SCT040 10/M05 Q1024 RMK     1CU030 4CU040 A3026=,
20180103_040000.003,0,RJFZ,,,,0,20180103040000,-1,-1,-1,-1,330,-1,12,-1,-1,-1,-1,,9999,0,0,2,FEW 30   BKN 40,1,9,-1,5,1023,RJFZ 030400Z 33012KT 9999 FEW030 BKN040 09/M05 Q1023 RMK     1CU030 5CU040 A3024=,
20180103_050000.003,0,RJFZ,,,,0,20180103050000,-1,-1,-1,-1,340,-1,14,-1,-1,-1,-1,,9999,0,0,2,FEW 30   SCT 40,1,11,-1,5,1023,RJFZ 030500Z 34014KT 9999 FEW030 SCT040 11/M05 Q1023 RMK     1CU030 4CU040 A3022=,
20180103_060000.003,0,RJFZ,,,,0,20180103060000,-1,-1,-1,-1,340,-1,13,-1,-1,-1,-1,,9999,0,0,2,FEW 30   SCT 40,1,9,-1,4,1023,RJFZ 030600Z 34013KT 9999 FEW030 SCT040 09/M04 Q1023 RMK     1CU030 4CU040 A3022=,
20180103_070000.003,0,RJFZ,,,,0,20180103070000,-1,-1,-1,-1,340,-1,11,-1,-1,-1,-1,,9999,0,0,3,FEW 30   SCT 40   BKN 250,1,8,-1,4,1023,RJFZ 030700Z 34011KT 9999 FEW030 SCT040 BKN250 08/M04 Q1023     RMK 1CU030 3CU040 A3022=,
20180103_080000.003,0,RJFZ,,,,0,20180103080000,-1,-1,-1,-1,340,-1,9,-1,-1,-1,-1,,9999,0,0,2,FEW 30   SCT 40,1,7,-1,4,1024,RJFZ 030800Z 34009KT 9999 FEW030 SCT040 07/M04 Q1024 RMK     1CU030 3CU040 A3024=,
20180103_090000.003,0,RJFZ,,,,0,20180103090000,-1,-1,-1,-1,320,-1,8,-1,-1,-1,-1,,9999,0,0,2,FEW 30   BKN 40,1,6,-1,3,1024,RJFZ 030900Z 32008KT 9999 FEW030 BKN040 06/M03 Q1024 RMK     1CU030 5CU040 A3025=,
20180103_100000.003,0,RJFZ,,,,0,20180103100000,-1,-1,-1,-1,270,-1,5,-1,-1,-1,-1,,9999,0,0,2,FEW 30   BKN 40,1,5,-1,4,1024,RJFZ 031000Z 27005KT 9999 FEW030 BKN040 05/M04 Q1024 RMK     1CU030 6CU040 A3027=,
20180103_110000.003,0,RJFZ,,,,0,20180103110000,-1,-1,-1,-1,250,-1,5,-1,-1,220,290,,9999,0,0,2,FEW 30   BKN 40,1,3,-1,3,1024,RJFZ 031100Z 25005KT 220V290 9999 FEW030 BKN040 03/M03 Q1024     RMK 1CU030 5CU040 A3027=,
20180103_120000.003,0,RJFZ,,,,0,20180103120000,-1,-1,-1,-1,240,-1,6,-1,-1,-1,-1,,9999,0,0,2,FEW 25   SCT 40,1,3,-1,2,1024,RJFZ 031200Z 24006KT 9999 FEW025 SCT040 03/M02 Q1024 RMK     1CU025 3CU040 A3026=,
20180103_130000.004,0,RJFZ,,,,0,20180103130000,-1,-1,-1,-1,250,-1,6,-1,-1,-1,-1,,9999,0,0,1,FEW 40,1,2,-1,3,1025,RJFZ 031300Z 25006KT 9999 FEW040 02/M03 Q1025 RMK 2CU040     A3027=,
20180103_140000.003,0,RJFZ,,,,0,20180103140000,-1,-1,-1,-1,250,-1,7,-1,-1,-1,-1,,9999,0,0,1,FEW 40,-1,0,-1,4,1025,RJFZ 031400Z 25007KT 9999 FEW040 M00/M04 Q1025 RMK 2CU040     A3027=,
20180103_150000.003,0,RJFZ,,,,0,20180103150000,-1,-1,-1,-1,240,-1,6,-1,-1,-1,-1,,9999,0,0,1,FEW 40,-1,0,-1,3,1024,RJFZ 031500Z 24006KT 9999 FEW040 M00/M03 Q1024 RMK 2CU040     A3027=,
20180103_160000.003,0,RJFZ,,,,0,20180103160000,-1,-1,-1,-1,250,-1,8,-1,-1,-1,-1,,9999,0,0,2,FEW 25   SCT 45,1,0,-1,3,1025,RJFZ 031600Z 25008KT 9999 FEW025 SCT045 00/M03 Q1025 RMK     1CU025 4SC045 A3027=,
20180103_170000.003,0,RJFZ,,,,0,20180103170000,-1,-1,-1,-1,240,-1,6,-1,-1,-1,-1,,9999,0,0,2,FEW 25   SCT 45,1,0,-1,3,1024,RJFZ 031700Z 24006KT 9999 FEW025 SCT045 00/M03 Q1024 RMK     1CU025 3SC045 A3026=,
20180103_180000.003,0,RJFZ,,,,0,20180103180000,-1,-1,-1,-1,240,-1,6,-1,-1,-1,-1,,9999,0,0,2,FEW 40   SCT 150,1,0,-1,3,1024,RJFZ 031800Z 24006KT 9999 FEW040 SCT150 00/M03 Q1024 RMK     1CU040 4AC150 A3025=,
20180103_190000.003,0,RJFZ,,,,0,20180103190000,-1,-1,-1,-1,250,-1,5,-1,-1,-1,-1,,9999,0,0,2,FEW 40   SCT 150,-1,1,-1,4,1024,RJFZ 031900Z 25005KT 9999 FEW040 SCT150 M01/M04 Q1024 RMK     1CU040 3AC150 A3025=,
20180103_200000.003,0,RJFZ,,,,0,20180103200000,-1,-1,-1,-1,230,-1,6,-1,-1,-1,-1,,9999,0,0,3,FEW 30   SCT 50   BKN 150,1,1,-1,2,1024,RJFZ 032000Z 23006KT 9999 FEW030 SCT050 BKN150 01/M02 Q1024     RMK 1CU030 3SC050 7AC150 A3024=,
20180103_210000.004,0,RJFZ,,,,0,20180103210000,-1,-1,-1,-1,240,-1,6,-1,-1,-1,-1,,9999,0,0,3,FEW 30   SCT 45   BKN 140,1,2,-1,2,1024,RJFZ 032100Z 24006KT 9999 FEW030 SCT045 BKN140 02/M02 Q1024     RMK 1CU030 3SC045 7AC140 A3025 12/M02=,
20180103_220000.003,0,RJFZ,,,,0,20180103220000,-1,-1,-1,-1,250,-1,5,-1,-1,-1,-1,,9999,0,0,3,FEW 20   BKN 45   BKN 100,1,1,-1,2,1024,RJFZ 032200Z 25005KT 9999 FEW020 BKN045 BKN100 01/M02 Q1024     RMK 1CU020 7SC045 5AC100 A3026=,
20180103_230000.003,0,RJFZ,,,,0,20180103230000,-1,-1,-1,-1,240,-1,5,-1,-1,-1,-1,,9999,0,0,2,FEW 30   SCT 45,1,1,-1,3,1024,RJFZ 032300Z 24005KT 9999 FEW030 SCT045 01/M03 Q1024 RMK     1CU030 3SC045 A3024=,
20180104_000000.003,0,RJFZ,,,,0,20180104000000,-1,-1,-1,-1,250,-1,4,-1,-1,-1,-1,,9999,0,0,1,SCT 45,1,4,-1,1,1024,RJFZ 040000Z 25004KT 9999 SCT045 04/M01 Q1024 RMK 3SC045     A3026=,
20180104_010000.003,0,RJFZ,,,,0,20180104010000,-1,-1,-1,-1,999,-1,2,-1,-1,-1,-1,,9999,0,0,2,FEW 45   BKN 230,1,7,-1,2,1024,RJFZ 040100Z VRB02KT 9999 FEW045 BKN230 07/M02 Q1024 RMK     2SC045 A3026=,
20180104_020000.005,0,RJFZ,,,,0,20180104020000,-1,-1,-1,-1,110,-1,4,-1,-1,-1,-1,,9999,0,0,3,FEW 40   SCT 150   BKN 200,1,7,-1,2,1023,RJFZ 040200Z 11004KT 9999 FEW040 SCT150 BKN200 07/M02 Q1023     RMK 1CU040 3AC150 A3024=,
20180104_030000.004,0,RJFZ,,,,0,20180104030000,-1,-1,-1,-1,60,-1,3,-1,-1,30,100,,9999,0,0,2,FEW 40   BKN 200,1,8,-1,3,1023,RJFZ 040300Z 06003KT 030V100 9999 FEW040 BKN200 08/M03 Q1023     RMK 2CU040 A3022=,
20180104_040000.003,0,RJFZ,,,,0,20180104040000,-1,-1,-1,-1,70,-1,6,-1,-1,-1,-1,,9999,0,0,3,FEW 40   SCT 150   BKN 200,1,9,-1,4,1021,RJFZ 040400Z 07006KT 9999 FEW040 SCT150 BKN200 09/M04 Q1021     RMK 2CU040 3AC150 A3018=,
20180104_050000.003,0,RJFZ,,,,0,20180104050000,-1,-1,-1,-1,60,-1,5,-1,-1,30,90,,9999,0,0,3,FEW 40   BKN 120   BKN 200,1,8,-1,4,1021,RJFZ 040500Z 06005KT 030V090 9999 FEW040 BKN120 BKN200 08/M04     Q1021 RMK 1CU040 5AC120 A3016=,
20180104_060000.004,0,RJFZ,,,,0,20180104060000,-1,-1,-1,-1,999,-1,2,-1,-1,-1,-1,,9999,0,0,3,FEW 45   BKN 120   BKN 200,1,8,-1,3,1021,RJFZ 040600Z VRB02KT 9999 FEW045 BKN120 BKN200 08/M03 Q1021     RMK 1SC045 5AC120 A3016=,
20180104_070000.003,0,RJFZ,,,,0,20180104070000,-1,-1,-1,-1,999,-1,2,-1,-1,-1,-1,,9999,0,0,3,FEW 45   BKN 120   BKN 200,1,8,-1,3,1021,RJFZ 040700Z VRB02KT 9999 FEW045 BKN120 BKN200 08/M03 Q1021     RMK 1SC045 5AC120 A3017=,
20180104_080000.003,0,RJFZ,,,,0,20180104080000,-1,-1,-1,-1,999,-1,1,-1,-1,-1,-1,,9999,0,0,3,FEW 45   SCT 120   BKN 200,1,8,-1,3,1021,RJFZ 040800Z VRB01KT 9999 FEW045 SCT120 BKN200 08/M03 Q1021     RMK 1SC045 4AC120 A3015=,
20180104_090000.003,0,RJFZ,,,,0,20180104090000,-1,-1,-1,-1,0,-1,0,-1,-1,-1,-1,,9999,0,0,3,FEW 40   SCT 120   BKN -9999,1,6,-1,2,1021,RJFZ 040900Z 00000KT 9999 FEW040 SCT120 BKN/// 06/M02 Q1021     RMK 1CU040 4AC120 A3016=,
20180104_100000.003,0,RJFZ,,,,0,20180104100000,-1,-1,-1,-1,230,-1,5,-1,-1,-1,-1,,9999,0,0,3,FEW 40   BKN 120   BKN -9999,1,5,-1,1,1021,RJFZ 041000Z 23005KT 9999 FEW040 BKN120 BKN/// 05/M01 Q1021     RMK 1CU040 5AC120 A3017=,
20180104_110000.003,0,RJFZ,,,,0,20180104110000,-1,-1,-1,-1,230,-1,4,-1,-1,-1,-1,,9999,0,0,3,FEW 40   BKN 120   BKN -9999,1,5,-1,0,1021,RJFZ 041100Z 23004KT 9999 FEW040 BKN120 BKN/// 05/M00 Q1021     RMK 1CU040 7AC120 A3016=,
20180104_120000.004,0,RJFZ,,,,0,20180104120000,-1,-1,-1,-1,240,-1,4,-1,-1,-1,-1,,9999,0,0,3,FEW 40   BKN 100   BKN -9999,1,5,-1,0,1021,RJFZ 041200Z 24004KT 9999 FEW040 BKN100 BKN/// 05/M00 Q1021     RMK 1CU040 7AC100 A3016=,
20180104_130000.003,0,RJFZ,,,,0,20180104130000,-1,-1,-1,-1,240,-1,5,-1,-1,-1,-1,,9999,0,0,2,FEW 40   BKN 100,1,5,-1,0,1020,RJFZ 041300Z 24005KT 9999 FEW040 BKN100 05/M00 Q1020 RMK     1CU040 7AC100 A3014=,
20180104_140000.003,0,RJFZ,,,,0,20180104140000,-1,-1,-1,-1,250,-1,4,-1,-1,-1,-1,,9999,0,0,2,FEW 40   BKN 100,1,5,-1,0,1020,RJFZ 041400Z 25004KT 9999 FEW040 BKN100 05/M00 Q1020 RMK     1CU040 7AC100 A3014=,
20180104_150000.004,0,RJFZ,,,,0,20180104150000,-1,-1,-1,-1,250,-1,4,-1,-1,-1,-1,,9999,0,0,2,FEW 40   BKN 100,1,5,-1,0,1019,RJFZ 041500Z 25004KT 9999 FEW040 BKN100 05/M00 Q1019 RMK     1CU040 7AC100 A3012=,
20180104_160000.004,0,RJFZ,,,,0,20180104160000,-1,-1,-1,-1,250,-1,4,-1,-1,-1,-1,,9999,0,0,2,FEW 30   BKN 80,1,4,-1,0,1019,RJFZ 041600Z 25004KT 9999 FEW030 BKN080 04/M00 Q1019 RMK     1CU030 7AC080 A3011=,
20180104_170000.004,0,RJFZ,,,,0,20180104170000,-1,-1,-1,-1,240,-1,5,-1,-1,-1,-1,,9999,0,0,3,FEW 30   SCT 60   BKN 80,1,5,-1,0,1019,RJFZ 041700Z 24005KT 9999 FEW030 SCT060 BKN080 05/M00 Q1019     RMK 1CU030 3SC060 7AC080 A3009=,
20180104_180000.003,0,RJFZ,,,,0,20180104180000,-1,-1,-1,-1,260,-1,3,-1,-1,-1,-1,,9999,0,0,3,FEW 30   SCT 60   BKN 80,1,4,1,0,1019,RJFZ 041800Z 26003KT 9999 FEW030 SCT060 BKN080 04/00 Q1019     RMK 1CU030 3SC060 7AC080 A3009=,
20180104_190000.004,0,RJFZ,,,,0,20180104190000,-1,-1,-1,-1,230,-1,4,-1,-1,-1,-1,,9999,0,1,3,FEW 20   BKN 30   OVC 50,1,5,1,1,1018,RJFZ 041900Z 23004KT 9999 -RA FEW020 BKN030 OVC050 05/01 Q1018     RMK 1CU020 5CU030 8SC050 A3008=,- RA
20180104_200000.003,0,RJFZ,,,,0,20180104200000,-1,-1,-1,-1,999,-1,1,-1,-1,-1,-1,,9999,0,1,3,FEW 15   BKN 30   OVC 50,1,4,1,2,1018,RJFZ 042000Z VRB01KT 9999 -RA FEW015 BKN030 OVC050 04/02 Q1018     RMK 1CU015 6CU030 8SC050 A3007=,- RA
20180104_210000.003,0,RJFZ,,,,0,20180104210000,-1,-1,-1,-1,200,-1,3,-1,-1,170,230,,9999,0,1,3,FEW 15   BKN 30   BKN 50,1,4,1,2,1017,RJFZ 042100Z 20003KT 170V230 9999 -RA FEW015 BKN030 BKN050     04/02 Q1017 RMK 1CU015 6CU030 7SC050 A3005 09/04 R001=,- RA
20180104_220000.003,0,RJFZ,,,,0,20180104220000,-1,-1,-1,-1,270,-1,3,-1,-1,-1,-1,,9999,0,1,3,FEW 15   SCT 30   OVC 50,1,4,1,2,1018,RJFZ 042200Z 27003KT 9999 -RA FEW015 SCT030 OVC050 04/02 Q1018     RMK 1CU015 3CU030 8SC050 A3006=,- RA
20180104_230000.003,0,RJFZ,,,,0,20180104230000,-1,-1,-1,-1,250,-1,3,-1,-1,-1,-1,,9999,0,1,3,FEW 10   BKN 30   OVC 50,1,4,1,2,1018,RJFZ 042300Z 25003KT 9999 -RA FEW010 BKN030 OVC050 04/02 Q1018     RMK 1ST010 5CU030 8SC050 A3006=,- RA
20180105_000000.004,0,RJFZ,,,,0,20180105000000,-1,-1,-1,-1,260,-1,4,-1,-1,-1,-1,,9999,0,1,3,FEW 10   BKN 35   OVC 50,1,4,1,2,1018,RJFZ 050000Z 26004KT 9999 -RA FEW010 BKN035 OVC050 04/02 Q1018     RMK 1ST010 5CU035 8SC050 A3007=,- RA
20180105_010000.004,0,RJFZ,,,,0,20180105010000,-1,-1,-1,-1,200,-1,3,-1,-1,180,250,,9999,0,1,3,FEW 10   SCT 35   OVC 60,1,4,1,2,1018,RJFZ 050100Z 20003KT 180V250 9999 -RA FEW010 SCT035 OVC060     04/02 Q1018 RMK 1ST010 3CU035 8SC060 A3007=,- RA
20180105_020000.003,0,RJFZ,,,,0,20180105020000,-1,-1,-1,-1,999,-1,1,-1,-1,-1,-1,,9999,0,1,3,FEW 4   SCT 30   OVC 45,1,5,1,2,1018,RJFZ 050200Z VRB01KT 9999 -RA FEW004 SCT030 OVC045 05/02 Q1018     RMK 1ST004 3CU030 8SC045 A3006 1ST004 NW=,- RA
20180105_030000.003,0,RJFZ,,,,0,20180105030000,-1,-1,-1,-1,999,-1,2,-1,-1,-1,-1,,9999,0,0,3,FEW 5   SCT 40   BKN 100,1,6,1,2,1017,RJFZ 050300Z VRB02KT 9999 FEW005 SCT040 BKN100 06/02 Q1017 RMK     1ST005 3CU040 7AC100 A3003 1ST005 W-NW=,
20180105_040000.003,0,RJFZ,,,,0,20180105040000,-1,-1,-1,-1,110,-1,4,-1,-1,-1,-1,,9999,0,0,3,FEW 10   SCT 40   BKN 60,1,7,1,3,1015,RJFZ 050400Z 11004KT 9999 FEW010 SCT040 BKN060 07/03 Q1015 RMK     1CU010 3CU040 6SC060 A2999=,
20180105_050000.003,0,RJFZ,,,,0,20180105050000,-1,-1,-1,-1,110,-1,4,-1,-1,80,140,,9999,0,1,3,FEW 10   SCT 25   BKN 40,1,7,1,3,1015,RJFZ 050500Z 11004KT 080V140 9999 -SHRA FEW010 SCT025 BKN040     07/03 Q1015 RMK 1CU010 4CU025 5CU040 A2998=,- RA SH
20180105_060000.003,0,RJFZ,,,,0,20180105060000,-1,-1,-1,-1,150,-1,2,-1,-1,-1,-1,,9999,0,1,3,FEW 10   BKN 20   BKN 40,1,6,1,3,1015,RJFZ 050600Z 15002KT 9999 -SHRA FEW010 BKN020 BKN040 06/03     Q1015 RMK 1CU010 6CU020 7CU040 A2998=,- RA SH
20180105_070000.003,0,RJFZ,,,,0,20180105070000,-1,-1,-1,-1,250,-1,7,-1,-1,-1,-1,,9999,0,1,3,FEW 5   BKN 25   BKN 40,1,7,1,4,1014,RJFZ 050700Z 25007KT 9999 -SHRA FEW005 BKN025 BKN040 07/04     Q1014 RMK 1ST005 6CU025 7CU040 A2997 1ST005 NW=,- RA SH
20180105_080000.003,0,RJFZ,,,,0,20180105080000,-1,-1,-1,-1,250,-1,5,-1,-1,-1,-1,,9999,0,1,3,FEW 5   SCT 25   BKN 35,1,7,1,4,1015,RJFZ 050800Z 25005KT 9999 -SHRA FEW005 SCT025 BKN035 07/04     Q1015 RMK 1ST005 3CU025 7CU035 A2997=,- RA SH
20180105_090000.003,0,RJFZ,,,,0,20180105090000,-1,-1,-1,-1,250,-1,4,-1,-1,-1,-1,,9999,0,1,3,FEW 8   SCT 25   BKN 35,1,6,1,4,1015,RJFZ 050900Z 25004KT 9999 -SHRA FEW008 SCT025 BKN035 06/04     Q1015 RMK 1ST008 4CU025 7CU035 A2997=,- RA SH
20180105_100000.003,0,RJFZ,,,,0,20180105100000,-1,-1,-1,-1,250,-1,6,-1,-1,-1,-1,,9999,0,1,3,FEW 8   SCT 25   BKN 35,1,6,1,4,1015,RJFZ 051000Z 25006KT 9999 -SHRA FEW008 SCT025 BKN035 06/04     Q1015 RMK 1ST008 4CU025 7CU035 A2998=,- RA SH
20180105_110000.003,0,RJFZ,,,,0,20180105110000,-1,-1,-1,-1,250,-1,5,-1,-1,-1,-1,,9999,0,0,3,FEW 8   SCT 25   BKN 35,1,6,1,4,1015,RJFZ 051100Z 25005KT 9999 FEW008 SCT025 BKN035 06/04 Q1015 RMK     1ST008 4CU025 7CU035 A2998=,
20180105_120000.003,0,RJFZ,,,,0,20180105120000,-1,-1,-1,-1,260,-1,8,-1,-1,-1,-1,,9999,0,0,3,FEW 8   SCT 25   BKN 40,1,6,1,4,1015,RJFZ 051200Z 26008KT 9999 FEW008 SCT025 BKN040 06/04 Q1015 RMK     1ST008 4CU025 7CU040 A2997=,
20180105_130000.003,0,RJFZ,,,,0,20180105130000,-1,-1,-1,-1,260,-1,11,-1,-1,-1,-1,,9999,0,0,3,FEW 8   SCT 25   BKN 40,1,6,1,3,1015,RJFZ 051300Z 26011KT 9999 FEW008 SCT025 BKN040 06/03 Q1015 RMK     1ST008 3CU025 6CU040 A2998=,
20180105_140000.003,0,RJFZ,,,,0,20180105140000,-1,-1,-1,-1,260,-1,11,-1,-1,-1,-1,,9999,0,0,3,FEW 8   SCT 40   BKN 50,1,6,1,3,1015,RJFZ 051400Z 26011KT 9999 FEW008 SCT040 BKN050 06/03 Q1015 RMK     1ST008 3CU040 7SC050 A2999=,
20180105_150000.003,0,RJFZ,,,,0,20180105150000,-1,-1,-1,-1,250,-1,6,-1,-1,200,270,,9999,0,0,3,FEW 8   SCT 35   BKN 50,1,6,1,2,1015,RJFZ 051500Z 25006KT 200V270 9999 FEW008 SCT035 BKN050 06/02     Q1015 RMK 1ST008 3CU035 7SC050 A3000=,
20180105_160000.004,0,RJFZ,,,,0,20180105160000,-1,-1,-1,-1,270,-1,3,-1,-1,230,290,,9999,0,0,2,FEW 8   SCT 50,1,5,1,1,1015,RJFZ 051600Z 27003KT 230V290 9999 FEW008 SCT050 05/01 Q1015     RMK 1ST008 3SC050 A3000=,
20180105_170000.003,0,RJFZ,,,,0,20180105170000,-1,-1,-1,-1,270,-1,9,-1,-1,-1,-1,,9999,0,0,2,FEW 30   SCT 50,1,4,1,1,1016,RJFZ 051700Z 27009KT 9999 FEW030 SCT050 04/01 Q1016 RMK 1CU030     3SC050 A3000=,
20180105_180000.004,0,RJFZ,,,,0,20180105180000,-1,-1,-1,-1,260,-1,8,-1,-1,-1,-1,,9999,0,0,2,FEW 30   BKN 50,1,5,1,1,1016,RJFZ 051800Z 26008KT 9999 FEW030 BKN050 05/01 Q1016 RMK 1CU030     6SC050 A3001=,
20180105_190000.003,0,RJFZ,,,,0,20180105190000,-1,-1,-1,-1,270,-1,9,-1,-1,-1,-1,,9999,0,0,2,FEW 30   SCT 45,1,5,1,0,1016,RJFZ 051900Z 27009KT 9999 FEW030 SCT045 05/00 Q1016 RMK 1CU030     4SC045 A3001=,
20180105_200000.003,0,RJFZ,,,,0,20180105200000,-1,-1,-1,-1,270,-1,11,-1,-1,-1,-1,,9999,0,0,1,FEW 30,1,4,-1,0,1016,RJFZ 052000Z 27011KT 9999 FEW030 04/M00 Q1016 RMK 1CU030     A3003=,
20180105_210000.004,0,RJFZ,,,,0,20180105210000,-1,-1,-1,-1,260,-1,9,-1,-1,-1,-1,,9999,0,0,1,FEW 30,1,4,-1,1,1017,RJFZ 052100Z 26009KT 9999 FEW030 04/M01 Q1017 RMK 1CU030 A3004     07/04 R002=,
20180105_220000.003,0,RJFZ,,,,0,20180105220000,-1,-1,-1,-1,270,-1,9,-1,-1,-1,-1,,9999,0,0,1,FEW 30,1,3,-1,2,1017,RJFZ 052200Z 27009KT 9999 FEW030 03/M02 Q1017 RMK 1CU030     A3006=,
20180105_230000.003,0,RJFZ,,,,0,20180105230000,-1,-1,-1,-1,280,-1,9,-1,-1,-1,-1,,9999,0,0,1,FEW 40,1,3,-1,2,1018,RJFZ 052300Z 28009KT 9999 FEW040 03/M02 Q1018 RMK 2SC040     A3008=,
20180106_000000.003,0,RJFZ,,,,0,20180106000000,-1,-1,-1,-1,260,-1,10,-1,-1,-1,-1,,9999,0,0,2,FEW 30   BKN 40,1,6,-1,1,1019,RJFZ 060000Z 26010KT 9999 FEW030 BKN040 06/M01 Q1019 RMK     1CU030 5SC040 A3010=,
20180106_010000.003,0,RJFZ,,,,0,20180106010000,-1,-1,-1,-1,260,-1,11,-1,-1,-1,-1,,9999,0,0,1,FEW 40,1,8,-1,0,1019,RJFZ 060100Z 26011KT 9999 FEW040 08/M00 Q1019 RMK 2SC040     A3012=,
20180106_020000.003,0,RJFZ,,,,0,20180106020000,-1,-1,-1,-1,280,-1,9,-1,-1,-1,-1,,9999,0,0,2,FEW 30   SCT 40,1,8,-1,2,1019,RJFZ 060200Z 28009KT 9999 FEW030 SCT040 08/M02 Q1019 RMK     1CU030 3SC040 A3012=,
20180106_030000.003,0,RJFZ,,,,0,20180106030000,-1,-1,-1,-1,270,-1,7,-1,-1,230,320,,9999,0,0,2,FEW 35   BKN 45,1,9,-1,2,1019,RJFZ 060300Z 27007KT 230V320 9999 FEW035 BKN045 09/M02 Q1019     RMK 1CU035 5SC045 A3009=,
20180106_040000.003,0,RJFZ,,,,0,20180106040000,-1,-1,-1,-1,340,-1,14,-1,-1,-1,-1,,9999,0,0,2,FEW 35   BKN 45,1,10,-1,3,1018,RJFZ 060400Z 34014KT 9999 FEW035 BKN045 10/M03 Q1018 RMK     1CU035 5SC045 A3008=,
20180106_050000.003,0,RJFZ,,,,0,20180106050000,-1,-1,-1,-1,330,-1,13,-1,-1,-1,-1,,9999,0,0,2,FEW 30   BKN 45,1,10,-1,2,1018,RJFZ 060500Z 33013KT 9999 FEW030 BKN045 10/M02 Q1018 RMK     1CU030 5SC045 A3007=,
20180106_060000.003,0,RJFZ,,,,0,20180106060000,-1,-1,-1,-1,340,-1,15,-1,-1,-1,-1,,9999,0,0,2,FEW 35   SCT 45,1,9,-1,3,1018,RJFZ 060600Z 34015KT 9999 FEW035 SCT045 09/M03 Q1018 RMK     1CU035 3SC045 A3008=,
20180106_070000.003,0,RJFZ,,,,0,20180106070000,-1,-1,-1,-1,310,-1,11,-1,-1,290,360,,9999,0,0,2,FEW 35   SCT 45,1,9,-1,4,1019,RJFZ 060700Z 31011KT 290V360 9999 FEW035 SCT045 09/M04 Q1019     RMK 1CU035 3SC045 A3009=,
20180106_080000.003,0,RJFZ,,,,0,20180106080000,-1,-1,-1,-1,300,-1,11,-1,-1,-1,-1,,9999,0,0,2,FEW 35   SCT 45,1,8,-1,4,1019,RJFZ 060800Z 30011KT 9999 FEW035 SCT045 08/M04 Q1019 RMK     1CU035 3SC045 A3010=,
20180106_090000.003,0,RJFZ,,,,0,20180106090000,-1,-1,-1,-1,270,-1,6,-1,-1,-1,-1,,9999,0,0,2,FEW 35   SCT 45,1,5,-1,3,1020,RJFZ 060900Z 27006KT 9999 FEW035 SCT045 05/M03 Q1020 RMK     1CU035 3SC045 A3014=,
20180106_100000.003,0,RJFZ,,,,0,20180106100000,-1,-1,-1,-1,240,-1,6,-1,-1,-1,-1,,9999,0,0,2,FEW 35   BKN 45,1,4,-1,2,1021,RJFZ 061000Z 24006KT 9999 FEW035 BKN045 04/M02 Q1021 RMK     1CU035 5SC045 A3016=,
20180106_110000.003,0,RJFZ,,,,0,20180106110000,-1,-1,-1,-1,250,-1,4,-1,-1,230,300,,9999,0,0,2,FEW 35   SCT 45,1,3,-1,2,1021,RJFZ 061100Z 25004KT 230V300 9999 FEW035 SCT045 03/M02 Q1021     RMK 1CU035 3SC045 A3017=,
20180106_120000.003,0,RJFZ,,,,0,20180106120000,-1,-1,-1,-1,230,-1,7,-1,-1,-1,-1,,9999,0,0,2,SCT 45   BKN -9999,1,3,-1,2,1021,RJFZ 061200Z 23007KT 9999 SCT045 BKN/// 03/M02 Q1021 RMK     3SC045 A3017=,
20180106_130000.005,0,RJFZ,,,,0,20180106130000,-1,-1,-1,-1,240,-1,6,-1,-1,-1,-1,,9999,0,0,2,SCT 45   BKN -9999,1,2,-1,2,1022,RJFZ 061300Z 24006KT 9999 SCT045 BKN/// 02/M02 Q1022 RMK     3SC045 A3018=,
20180106_140000.004,0,RJFZ,,,,0,20180106140000,-1,-1,-1,-1,250,-1,7,-1,-1,-1,-1,,9999,0,0,2,SCT 40   BKN -9999,1,2,-1,2,1022,RJFZ 061400Z 25007KT 9999 SCT040 BKN/// 02/M02 Q1022 RMK     4SC040 A3018=,
20180106_150000.003,0,RJFZ,,,,0,20180106150000,-1,-1,-1,-1,250,-1,6,-1,-1,-1,-1,,9999,0,0,2,SCT 40   BKN -9999,1,0,-1,3,1021,RJFZ 061500Z 25006KT 9999 SCT040 BKN/// 00/M03 Q1021 RMK     3SC040 A3018=,
20180106_160000.003,0,RJFZ,,,,0,20180106160000,-1,-1,-1,-1,250,-1,7,-1,-1,-1,-1,,9999,0,0,2,FEW 40   BKN -9999,1,0,-1,2,1022,RJFZ 061600Z 25007KT 9999 FEW040 BKN/// 00/M02 Q1022 RMK     2SC040 A3018=,
20180106_170000.003,0,RJFZ,,,,0,20180106170000,-1,-1,-1,-1,250,-1,7,-1,-1,-1,-1,,9999,0,0,2,FEW 40   SCT -9999,1,0,-1,2,1022,RJFZ 061700Z 25007KT 9999 FEW040 SCT/// 00/M02 Q1022 RMK     1SC040 A3019=,
20180106_180000.004,0,RJFZ,,,,0,20180106180000,-1,-1,-1,-1,250,-1,8,-1,-1,-1,-1,,9999,0,0,2,FEW 40   SCT -9999,-1,1,-1,3,1022,RJFZ 061800Z 25008KT 9999 FEW040 SCT/// M01/M03 Q1022 RMK     1SC040 A3019=,
20180106_190000.003,0,RJFZ,,,,0,20180106190000,-1,-1,-1,-1,250,-1,7,-1,-1,-1,-1,,9999,0,0,2,FEW 40   BKN -9999,-1,1,-1,3,1022,RJFZ 061900Z 25007KT 9999 FEW040 BKN/// M01/M03 Q1022 RMK     1SC040 A3019=,
20180106_200000.003,0,RJFZ,,,,0,20180106200000,-1,-1,-1,-1,240,-1,7,-1,-1,-1,-1,,9999,0,0,2,FEW 40   BKN -9999,1,1,-1,2,1022,RJFZ 062000Z 24007KT 9999 FEW040 BKN/// 01/M02 Q1022 RMK     1SC040 A3018=,
20180106_210000.003,0,RJFZ,,,,0,20180106210000,-1,-1,-1,-1,240,-1,5,-1,-1,-1,-1,,9999,0,0,2,FEW 40   BKN -9999,-1,0,-1,3,1022,RJFZ 062100Z 24005KT 9999 FEW040 BKN/// M00/M03 Q1022 RMK     1SC040 A3018 10/M01=,
20180106_220000.003,0,RJFZ,,,,0,20180106220000,-1,-1,-1,-1,240,-1,4,-1,-1,-1,-1,,9999,0,0,2,FEW 40   BKN -9999,-1,0,-1,3,1022,RJFZ 062200Z 24004KT 9999 FEW040 BKN/// M00/M03 Q1022 RMK     1SC040 A3018=,
20180106_230000.003,0,RJFZ,,,,0,20180106230000,-1,-1,-1,-1,250,-1,5,-1,-1,-1,-1,,9999,0,0,3,FEW 40   BKN 200   BKN 250,-1,0,-1,2,1022,RJFZ 062300Z 25005KT 9999 FEW040 BKN200 BKN250 M00/M02 Q1022     RMK 1SC040 A3020=,
20180107_000000.003,0,RJFZ,,,,0,20180107000000,-1,-1,-1,-1,200,-1,2,-1,-1,-1,-1,,9999,0,0,3,FEW 40   SCT 180   BKN 200,1,3,-1,0,1022,RJFZ 070000Z 20002KT 9999 FEW040 SCT180 BKN200 03/M00 Q1022     RMK 1SC040 3AC180 A3018=,
20180107_010000.004,0,RJFZ,,,,0,20180107010000,-1,-1,-1,-1,999,-1,2,-1,-1,-1,-1,,9999,0,0,3,FEW 40   SCT 180   BKN 230,1,5,1,1,1022,RJFZ 070100Z VRB02KT 9999 FEW040 SCT180 BKN230 05/01 Q1022 RMK     1SC040 3AC180 A3021=,
20180107_020000.003,0,RJFZ,,,,0,20180107020000,-1,-1,-1,-1,100,-1,4,-1,-1,60,130,,9999,0,0,3,FEW 20   SCT 160   BKN 230,1,8,-1,0,1022,RJFZ 070200Z 10004KT 060V130 9999 FEW020 SCT160 BKN230 08/M00     Q1022 RMK 1CU020 3AC160 A3018=,
20180107_030000.003,0,RJFZ,,,,0,20180107030000,-1,-1,-1,-1,90,-1,7,-1,-1,-1,-1,,9999,0,0,3,FEW 20   BKN 160   BKN 230,1,8,-1,1,1022,RJFZ 070300Z 09007KT 9999 FEW020 BKN160 BKN230 08/M01 Q1022     RMK 1CU020 5AC160 A3018=,
20180107_040000.003,0,RJFZ,,,,0,20180107040000,-1,-1,-1,-1,70,-1,10,-1,-1,-1,-1,,9999,0,0,3,FEW 20   SCT 80   BKN 140,1,8,1,1,1021,RJFZ 070400Z 07010KT 9999 FEW020 SCT080 BKN140 08/01 Q1021 RMK     1CU020 4AC080 6AC140 A3016=,
20180107_050000.003,0,RJFZ,,,,0,20180107050000,-1,-1,-1,-1,80,-1,8,-1,-1,-1,-1,,9999,0,0,3,FEW 20   SCT 100   BKN 130,1,8,1,2,1020,RJFZ 070500Z 08008KT 9999 FEW020 SCT100 BKN130 08/02 Q1020 RMK     1CU020 4AC100 7AC130 A3013=,
20180107_060000.003,0,RJFZ,,,,0,20180107060000,-1,-1,-1,-1,100,-1,9,-1,-1,-1,-1,,9999,0,0,3,FEW 20   SCT 100   BKN 130,1,9,1,2,1019,RJFZ 070600Z 10009KT 9999 FEW020 SCT100 BKN130 09/02 Q1019 RMK     1CU020 3AC100 7AC130 A3011=,
20180107_070000.003,0,RJFZ,,,,0,20180107070000,-1,-1,-1,-1,100,-1,7,-1,-1,-1,-1,,9999,0,0,3,FEW 20   SCT 50   BKN 100,1,9,1,2,1020,RJFZ 070700Z 10007KT 9999 FEW020 SCT050 BKN100 09/02 Q1020 RMK     1CU020 4SC050 7AC100 A3012=,
20180107_080000.003,0,RJFZ,,,,0,20180107080000,-1,-1,-1,-1,100,-1,8,-1,-1,-1,-1,,9999,0,0,3,FEW 20   SCT 35   BKN 50,1,9,1,2,1020,RJFZ 070800Z 10008KT 9999 FEW020 SCT035 BKN050 09/02 Q1020 RMK     1CU020 3CU035 7SC050 A3012=,
20180107_090000.003,0,RJFZ,,,,0,20180107090000,-1,-1,-1,-1,110,-1,9,-1,-1,-1,-1,,9999,0,0,3,FEW 20   SCT 50   BKN 90,1,8,1,3,1019,RJFZ 070900Z 11009KT 9999 FEW020 SCT050 BKN090 08/03 Q1019 RMK     1CU020 3SC050 7AC090 A3011=,
20180107_100000.003,0,RJFZ,,,,0,20180107100000,-1,-1,-1,-1,100,-1,9,-1,-1,-1,-1,,9999,0,0,3,FEW 20   SCT 50   BKN 90,1,8,1,3,1019,RJFZ 071000Z 10009KT 9999 FEW020 SCT050 BKN090 08/03 Q1019 RMK     1CU020 3SC050 7AC090 A3012=,
20180107_110000.003,0,RJFZ,,,,0,20180107110000,-1,-1,-1,-1,90,-1,8,-1,-1,-1,-1,,9999,0,0,3,FEW 20   BKN 45   BKN 80,1,8,1,3,1019,RJFZ 071100Z 09008KT 9999 FEW020 BKN045 BKN080 08/03 Q1019 RMK     1CU020 5SC045 7AC080 A3011=,
20180107_120000.004,0,RJFZ,,,,0,20180107120000,-1,-1,-1,-1,110,-1,5,-1,-1,-1,-1,,9999,0,1,3,FEW 20   BKN 40   OVC 80,1,8,1,4,1019,RJFZ 071200Z 11005KT 9999 -RA FEW020 BKN040 OVC080 08/04 Q1019     RMK 1CU020 7SC040 8AS080 A3009=,- RA
20180107_130000.004,0,RJFZ,,,,0,20180107130000,-1,-1,-1,-1,0,-1,0,-1,-1,-1,-1,,9999,0,1,3,FEW 20   BKN 40   OVC 80,1,7,1,4,1018,RJFZ 071300Z 00000KT 9999 -RA FEW020 BKN040 OVC080 07/04 Q1018     RMK 1CU020 7SC040 8AS080 A3007=,- RA
20180107_140000.004,0,RJFZ,,,,0,20180107140000,-1,-1,-1,-1,0,-1,0,-1,-1,-1,-1,,9999,0,1,3,FEW 20   BKN 40   OVC 80,1,7,1,4,1017,RJFZ 071400Z 00000KT 9999 -RA FEW020 BKN040 OVC080 07/04 Q1017     RMK 1CU020 6SC040 8AS080 A3005=,- RA
20180107_150000.003,0,RJFZ,,,,0,20180107150000,-1,-1,-1,-1,999,-1,2,-1,-1,-1,-1,,9999,0,1,3,FEW 20   BKN 40   OVC 80,1,6,1,5,1016,RJFZ 071500Z VRB02KT 9999 -RA FEW020 BKN040 OVC080 06/05 Q1016     RMK 1CU020 6SC040 8AS080 A3001=,- RA
20180107_160000.003,0,RJFZ,,,,0,20180107160000,-1,-1,-1,-1,190,-1,2,-1,-1,-1,-1,,9999,0,1,3,FEW 20   BKN 45   OVC 80,1,6,1,5,1015,RJFZ 071600Z 19002KT 9999 -RA FEW020 BKN045 OVC080 06/05 Q1015     RMK 1CU020 6SC045 8AS080 A2998=,- RA
20180107_170000.003,0,RJFZ,,,,0,20180107170000,-1,-1,-1,-1,290,-1,3,-1,-1,-1,-1,,7000,0,1,3,FEW 20   BKN 35   BKN 50,1,6,1,5,1015,RJFZ 071700Z 29003KT 7000 -RA FEW020 BKN035 BKN050 06/05 Q1015     RMK 1CU020 5CU035 7SC050 A2998=,- RA
20180107_180000.003,0,RJFZ,,,,0,20180107180000,-1,-1,-1,-1,290,-1,4,-1,-1,220,310,,3500,0,2,3,FEW 3   BKN 5   BKN 25,1,6,1,5,1014,RJFZ 071800Z 29004KT 220V310 3500 RA BR FEW003 BKN005 BKN025     06/05 Q1014 RMK 1ST003 5ST005 7CU025 A2995 VIS SW-NW           3000M=,RA; BR
20180107_190000.004,0,RJFZ,,,,0,20180107190000,-1,-1,-1,-1,240,-1,7,-1,-1,150,280,,3000,0,2,3,FEW 3   BKN 5   BKN 20,1,7,1,6,1013,RJFZ 071900Z 24007KT 150V280 3000 -SHRA BR FEW003 BKN005     BKN020 07/06 Q1013 RMK 1ST003 5ST005 7CU020 A2992 VIS           W-NW 2500M=,- RA SH; BR
20180107_200000.003,0,RJFZ,,,,0,20180107200000,-1,-1,-1,-1,140,-1,5,-1,-1,100,180,,3000,0,2,3,FEW 2   BKN 4   BKN 15,1,7,1,6,1012,RJFZ 072000Z 14005KT 100V180 3000 -SHRA BR FEW002 BKN004     BKN015 07/06 Q1012 RMK 1ST002 6ST004 7CU015 A2990 VIS           SW-NW 2500M=,- RA SH; BR
20180107_210000.004,0,RJFZ,,,,0,20180107210000,-1,-1,-1,-1,110,-1,11,-1,-1,-1,-1,,4000,0,2,3,SCT 2   BKN 4   BKN 15,1,8,1,7,1012,RJFZ 072100Z 11011KT 4000 -SHRA BR SCT002 BKN004 BKN015 08/07     Q1012 RMK 3ST002 6ST004 7CU015 A2988 VIS N 6KM 09/06           R020=,- RA SH; BR
20180107_220000.003,0,RJFZ,,,,0,20180107220000,-1,-1,-1,-1,80,-1,14,-1,-1,-1,-1,,5000,0,2,3,SCT 2   BKN 4   BKN 15,1,9,1,7,1010,RJFZ 072200Z 08014KT 5000 -SHRA BR SCT002 BKN004 BKN015 09/07     Q1010 RMK 3ST002 6ST004 7CU015 A2984 VIS N 8KM=,- RA SH; BR
20180107_230000.003,0,RJFZ,,,,0,20180107230000,-1,-1,-1,-1,80,-1,9,-1,-1,-1,-1,,6000,0,0,3,SCT 2   BKN 4   BKN 15,1,9,1,8,1010,RJFZ 072300Z 08009KT 6000 SCT002 BKN004 BKN015 09/08 Q1010 RMK     4ST002 7ST004 7CU015 A2985=,
20180108_000000.003,0,RJFZ,,,,0,20180108000000,-1,-1,-1,-1,999,-1,1,-1,-1,-1,-1,,9999,0,1,3,FEW 3   BKN 6   BKN 20,1,9,1,7,1010,RJFZ 080000Z VRB01KT 9999 -SHRA FEW003 BKN006 BKN020 09/07     Q1010 RMK 1ST003 6ST006 7CU020 A2983 1ST003 NW=,- RA SH
20180108_010000.003,0,RJFZ,,,,0,20180108010000,-1,-1,-1,-1,260,-1,3,-1,-1,220,320,,9999,0,1,3,FEW 3   BKN 8   BKN 15,1,9,1,7,1010,RJFZ 080100Z 26003KT 220V320 9999 -SHRA FEW003 BKN008 BKN015     09/07 Q1010 RMK 1ST003 6ST008 7CU015 A2983 1ST003 NW=,- RA SH
20180108_020000.004,0,RJFZ,,,,0,20180108020000,-1,-1,-1,-1,300,-1,2,-1,-1,-1,-1,,9999,0,1,3,FEW 3   BKN 8   BKN 10,1,10,1,8,1008,RJFZ 080200Z 30002KT 9999 -DZ FEW003 BKN008 BKN010 10/08 Q1008     RMK 2ST003 6ST008 7ST010 A2977 2ST003 W-NW=,- DZ
20180108_030000.003,0,RJFZ,,,,0,20180108030000,-1,-1,-1,-1,340,-1,3,-1,-1,300,360,,9999,0,1,3,FEW 3   SCT 5   BKN 7,1,10,1,8,1007,RJFZ 080300Z 34003KT 300V360 9999 -SHRA FEW003 SCT005 BKN007     10/08 Q1007 RMK 1ST003 3ST005 7ST007 A2976=,- RA SH
20180108_040000.003,0,RJFZ,,,,0,20180108040000,-1,-1,-1,-1,360,-1,3,-1,-1,-1,-1,,8000,0,1,3,FEW 3   SCT 5   BKN 7,1,10,1,8,1005,RJFZ 080400Z 36003KT 8000 -SHRA FEW003 SCT005 BKN007 10/08     Q1005 RMK 1ST003 3ST005 7ST007 A2970=,- RA SH
20180108_050000.003,0,RJFZ,,,,0,20180108050000,-1,-1,-1,-1,330,-1,5,-1,-1,-1,-1,,8000,0,1,3,FEW 3   SCT 7   BKN 10,1,10,1,9,1005,RJFZ 080500Z 33005KT 8000 -SHRA FEW003 SCT007 BKN010 10/09     Q1005 RMK 2ST003 3ST007 7ST010 A2968=,- RA SH
20180108_060000.004,0,RJFZ,,,,0,20180108060000,-1,-1,-1,-1,999,-1,1,-1,-1,-1,-1,,8000,0,1,3,FEW 3   SCT 7   BKN 10,1,10,1,9,1004,RJFZ 080600Z VRB01KT 8000 -SHRA FEW003 SCT007 BKN010 10/09     Q1004 RMK 2ST003 4ST007 7ST010 A2967=,- RA SH
20180108_070000.003,0,RJFZ,,,,0,20180108070000,-1,-1,-1,-1,999,-1,1,-1,-1,-1,-1,,5000,0,2,3,FEW 2   SCT 3   BKN 7,1,10,1,9,1003,RJFZ 080700Z VRB01KT 5000 -SHRA BR FEW002 SCT003 BKN007 10/09     Q1003 RMK 1ST002 4ST003 7ST007 A2964=,- RA SH; BR
20180108_080000.003,0,RJFZ,,,,0,20180108080000,-1,-1,-1,-1,320,-1,5,-1,-1,-1,-1,,4000,0,2,3,FEW 3   SCT 7   BKN 10,1,10,1,9,1004,RJFZ 080800Z 32005KT 4000 -SHRA BR FEW003 SCT007 BKN010 10/09     Q1004 RMK 2ST003 4ST007 5ST010 A2965=,- RA SH; BR
20180108_090000.003,0,RJFZ,,,,0,20180108090000,-1,-1,-1,-1,360,-1,9,-1,-1,-1,-1,,4000,0,2,3,SCT 6   BKN 20   OVC 40,1,10,1,9,1004,RJFZ 080900Z 36009KT 4000 -SHRA BR SCT006 BKN020 OVC040 10/09     Q1004 RMK 3ST006 7CU020 8SC040 A2965=,- RA SH; BR
20180108_100000.003,0,RJFZ,,,,0,20180108100000,-1,-1,-1,-1,999,-1,1,-1,-1,-1,-1,,5000,0,2,3,SCT 6   BKN 20   OVC 40,1,10,1,9,1005,RJFZ 081000Z VRB01KT 5000 -SHRA BR SCT006 BKN020 OVC040 10/09     Q1005 RMK 3ST006 7CU020 8SC040 A2968=,- RA SH; BR
20180108_110000.003,0,RJFZ,,,,0,20180108110000,-1,-1,-1,-1,270,-1,12,-1,-1,-1,-1,,6000,0,1,3,FEW 6   BKN 20   OVC 40,1,12,1,9,1005,RJFZ 081100Z 27012KT 6000 -SHRA FEW006 BKN020 OVC040 12/09     Q1005 RMK 2ST006 7CU020 8SC040 A2969=,- RA SH
20180108_120000.003,0,RJFZ,,,,0,20180108120000,-1,-1,-1,-1,270,-1,10,-1,-1,-1,-1,,9999,0,1,3,FEW 6   BKN 25   BKN 40,1,11,1,8,1005,RJFZ 081200Z 27010KT 9999 -SHRA FEW006 BKN025 BKN040 11/08     Q1005 RMK 2ST006 7CU025 7CU040 A2969=,- RA SH
20180108_130000.004,0,RJFZ,,,,0,20180108130000,-1,-1,-1,-1,280,-1,12,-1,-1,240,300,,9999,0,1,3,FEW 6   BKN 25   BKN 40,1,10,1,7,1006,RJFZ 081300Z 28012KT 240V300 9999 -SHRA FEW006 BKN025 BKN040     10/07 Q1006 RMK 1ST006 6CU025 7CU040 A2972=,- RA SH
20180108_140000.003,0,RJFZ,,,,0,20180108140000,-1,-1,-1,-1,280,-1,10,-1,-1,-1,-1,,9999,0,0,3,FEW 8   SCT 30   BKN 45,1,9,1,5,1006,RJFZ 081400Z 28010KT 9999 FEW008 SCT030 BKN045 09/05 Q1006 RMK     1ST008 3CU030 7CU045 A2972=,
20180108_150000.003,0,RJFZ,,,,0,20180108150000,-1,-1,-1,-1,270,-1,10,-1,-1,-1,-1,,9999,0,0,3,FEW 15   BKN 50   BKN 100,1,9,1,4,1007,RJFZ 081500Z 27010KT 9999 FEW015 BKN050 BKN100 09/04 Q1007 RMK     1CU015 5SC050 5AC100 A2974=,
20180108_160000.003,0,RJFZ,,,,0,20180108160000,-1,-1,-1,-1,290,-1,15,-1,26,-1,-1,,9999,0,0,3,FEW 15   BKN 40   BKN 50,1,9,1,3,1007,RJFZ 081600Z 29015G26KT 9999 FEW015 BKN040 BKN050 09/03 Q1007     RMK 1CU015 5CU040 7SC050 A2974=,
20180108_170000.003,0,RJFZ,,,,0,20180108170000,-1,-1,-1,-1,290,-1,15,-1,-1,-1,-1,,9999,0,1,3,FEW 15   BKN 30   BKN 45,1,7,1,3,1007,RJFZ 081700Z 29015KT 9999 -SHRA FEW015 BKN030 BKN045 07/03     Q1007 RMK 1CU015 7CU030 7SC045 A2975=,- RA SH
20180108_180000.003,0,RJFZ,,,,0,20180108180000,-1,-1,-1,-1,270,-1,12,-1,-1,-1,-1,,9999,0,1,3,FEW 15   BKN 25   BKN 40,1,7,1,3,1007,RJFZ 081800Z 27012KT 9999 -SHRA FEW015 BKN025 BKN040 07/03     Q1007 RMK 2CU015 7CU025 7CU040 A2975=,- RA SH
20180108_190000.003,0,RJFZ,,,,0,20180108190000,-1,-1,-1,-1,280,-1,16,-1,26,250,310,,9999,0,0,3,FEW 15   SCT 30   BKN 40,1,6,1,1,1007,RJFZ 081900Z 28016G26KT 250V310 9999 FEW015 SCT030 BKN040     06/01 Q1007 RMK 1CU015 4CU030 7CU040 A2976=,
20180108_200000.003,0,RJFZ,,,,0,20180108200000,-1,-1,-1,-1,270,-1,15,-1,25,-1,-1,,9999,0,0,2,FEW 20   BKN 40,1,6,-1,1,1007,RJFZ 082000Z 27015G25KT 9999 FEW020 BKN040 06/M01 Q1007 RMK     1CU020 5CU040 A2976=,
20180108_210000.004,0,RJFZ,,,,0,20180108210000,-1,-1,-1,-1,280,-1,15,-1,29,-1,-1,,9999,0,1,3,FEW 20   SCT 30   BKN 40,1,6,1,1,1008,RJFZ 082100Z 28015G29KT 9999 -SHRA FEW020 SCT030 BKN040 06/01     Q1008 RMK 1CU020 3CU030 7CU040 A2977 29032KT/1930 13/06           R014=,- RA SH
20180108_220000.003,0,RJFZ,,,,0,20180108220000,-1,-1,-1,-1,270,-1,19,-1,33,-1,-1,,9999,0,1,3,SCT 15   BKN 35   BKN 50,1,6,-1,1,1008,RJFZ 082200Z 27019G33KT 9999 -SHRA SCT015 BKN035 BKN050 06/M01     Q1008 RMK 3CU015 7CU035 7SC050 A2979=,- RA SH
20180108_230000.004,0,RJFZ,,,,0,20180108230000,-1,-1,-1,-1,270,-1,18,-1,28,-1,-1,,9999,0,0,3,SCT 20   BKN 35   BKN 50,1,6,-1,2,1009,RJFZ 082300Z 27018G28KT 9999 SCT020 BKN035 BKN050 06/M02 Q1009     RMK 3CU020 7CU035 5SC050 A2982=,
20180109_000000.003,0,RJFZ,,,,0,20180109000000,-1,-1,-1,-1,270,-1,20,-1,31,-1,-1,,9999,0,0,3,FEW 15   BKN 40   BKN 50,1,6,-1,3,1011,RJFZ 090000Z 27020G31KT 9999 FEW015 BKN040 BKN050 06/M03 Q1011     RMK 2CU015 6CU040 6SC050 A2986=,
20180109_010000.003,0,RJFZ,,,,0,20180109010000,-1,-1,-1,-1,250,-1,17,-1,-1,-1,-1,,9999,0,1,3,SCT 15   BKN 30   BKN 50,1,4,-1,0,1012,RJFZ 090100Z 25017KT 9999 -SHRASN SCT015 BKN030 BKN050 04/M00     Q1012 RMK 3CU015 6CU030 7SC050 A2988 MAX WIND 26KT=,- RA SN SH
20180109_020000.003,0,RJFZ,,,,0,20180109020000,-1,-1,-1,-1,280,-1,21,-1,31,-1,-1,,9999,0,0,2,FEW 15   SCT 40,1,7,-1,3,1011,RJFZ 090200Z 28021G31KT 9999 FEW015 SCT040 07/M03 Q1011 RMK     2CU015 4CU040 A2987=,
20180109_030000.003,0,RJFZ,,,,0,20180109030000,-1,-1,-1,-1,280,-1,23,-1,35,-1,-1,,9999,0,1,3,FEW 10   BKN 20   BKN 40,1,2,-1,1,1011,RJFZ 090300Z 28023G35KT 9999 -SHRASN FEW010 BKN020 BKN040     02/M01 Q1011 RMK 2CU010 5CU020 7CU040 A2988=,- RA SN SH
20180109_040000.003,0,RJFZ,,,,0,20180109040000,-1,-1,-1,-1,260,-1,18,-1,28,-1,-1,,9999,0,0,3,FEW 10   SCT 20   BKN 40,1,5,-1,2,1010,RJFZ 090400Z 26018G28KT 9999 FEW010 SCT020 BKN040 05/M02 Q1010     RMK 1CU010 3CU020 6CU040 A2985=,
20180109_050000.003,0,RJFZ,,,,0,20180109050000,-1,-1,-1,-1,270,-1,17,-1,27,-1,-1,,9999,0,1,3,FEW 10   SCT 20   BKN 40,1,3,1,0,1011,RJFZ 090500Z 27017G27KT 9999 -SHRASN FEW010 SCT020 BKN040     03/00 Q1011 RMK 1CU010 3CU020 6CU040 A2986=,- RA SN SH
20180109_060000.003,0,RJFZ,,,,0,20180109060000,-1,-1,-1,-1,270,-1,15,-1,-1,-1,-1,,9999,0,1,3,FEW 10   BKN 20   BKN 40,1,5,-1,1,1011,RJFZ 090600Z 27015KT 9999 -SHRASN FEW010 BKN020 BKN040 05/M01     Q1011 RMK 1CU010 5CU020 7CU040 A2986=,- RA SN SH
20180109_070000.003,0,RJFZ,,,,0,20180109070000,-1,-1,-1,-1,260,-1,13,-1,-1,-1,-1,,9999,0,1,3,FEW 10   SCT 20   BKN 40,1,5,-1,2,1011,RJFZ 090700Z 26013KT 9999 -SHRA FEW010 SCT020 BKN040 05/M02     Q1011 RMK 1CU010 4CU020 7CU040 A2988=,- RA SH
20180109_080000.003,0,RJFZ,,,,0,20180109080000,-1,-1,-1,-1,260,-1,15,-1,25,-1,-1,,9999,0,1,3,FEW 15   SCT 20   BKN 40,1,4,-1,2,1012,RJFZ 090800Z 26015G25KT 9999 -SHRA FEW015 SCT020 BKN040 04/M02     Q1012 RMK 1CU015 3CU020 7CU040 A2990=,- RA SH
20180109_090000.003,0,RJFZ,,,,0,20180109090000,-1,-1,-1,-1,250,-1,14,-1,-1,-1,-1,,9999,0,0,2,FEW 20   BKN 40,1,4,-1,2,1013,RJFZ 090900Z 25014KT 9999 FEW020 BKN040 04/M02 Q1013 RMK     2CU020 6CU040 A2993 MAX WIND 22KT=,
20180109_100000.003,0,RJFZ,,,,0,20180109100000,-1,-1,-1,-1,250,-1,14,-1,-1,-1,-1,,9999,0,0,2,FEW 20   BKN 40,1,4,-1,2,1014,RJFZ 091000Z 25014KT 9999 FEW020 BKN040 04/M02 Q1014 RMK     2CU020 6CU040 A2995 MAX WIND 23KT=,
20180109_110000.003,0,RJFZ,,,,0,20180109110000,-1,-1,-1,-1,250,-1,12,-1,-1,-1,-1,,9999,0,0,2,FEW 20   BKN 40,1,3,-1,2,1014,RJFZ 091100Z 25012KT 9999 FEW020 BKN040 03/M02 Q1014 RMK     1CU020 5CU040 A2996 MAX WIND 20KT=,
20180109_120000.003,0,RJFZ,,,,0,20180109120000,-1,-1,-1,-1,280,-1,9,-1,-1,-1,-1,,9999,0,0,2,FEW 20   BKN 40,1,3,-1,1,1015,RJFZ 091200Z 28009KT 9999 FEW020 BKN040 03/M01 Q1015 RMK     2CU020 6CU040 A2998=,
20180109_130000.003,0,RJFZ,,,,0,20180109130000,-1,-1,-1,-1,260,-1,7,-1,-1,230,290,,9999,0,0,2,FEW 20   BKN 40,1,4,-1,2,1015,RJFZ 091300Z 26007KT 230V290 9999 FEW020 BKN040 04/M02 Q1015     RMK 2CU020 6CU040 A2999=,
20180109_140000.003,0,RJFZ,,,,0,20180109140000,-1,-1,-1,-1,250,-1,12,-1,-1,-1,-1,,9999,0,1,2,FEW 15   BKN 35,1,3,-1,1,1015,RJFZ 091400Z 25012KT 9999 -SHRASN FEW015 BKN035 03/M01 Q1015     RMK 2CU015 7CU035 A2998=,- RA SN SH
20180109_150000.003,0,RJFZ,,,,0,20180109150000,-1,-1,-1,-1,260,-1,2,-1,-1,-1,-1,,9999,0,0,2,FEW 20   BKN 35,1,2,-1,2,1015,RJFZ 091500Z 26002KT 9999 FEW020 BKN035 02/M02 Q1015 RMK     2CU020 6CU035 A2998=,
20180109_160000.003,0,RJFZ,,,,0,20180109160000,-1,-1,-1,-1,260,-1,8,-1,-1,-1,-1,,9999,0,0,2,FEW 20   BKN 40,1,3,-1,1,1014,RJFZ 091600Z 26008KT 9999 FEW020 BKN040 03/M01 Q1014 RMK     2CU020 6CU040 A2996=,
20180109_170000.003,0,RJFZ,,,,0,20180109170000,-1,-1,-1,-1,260,-1,6,-1,-1,-1,-1,,9999,0,0,2,FEW 20   BKN 40,1,3,-1,1,1014,RJFZ 091700Z 26006KT 9999 FEW020 BKN040 03/M01 Q1014 RMK     2CU020 6CU040 A2996=,
20180109_180000.003,0,RJFZ,,,,0,20180109180000,-1,-1,-1,-1,260,-1,13,-1,-1,-1,-1,,9999,0,1,3,FEW 10   BKN 25   BKN 40,1,2,1,0,1015,RJFZ 091800Z 26013KT 9999 -SHRASN FEW010 BKN025 BKN040 02/00     Q1015 RMK 2CU010 6CU025 7CU040 A2999=,- RA SN SH
20180109_190000.004,0,RJFZ,,,,0,20180109190000,-1,-1,-1,-1,270,-1,4,-1,-1,-1,-1,,9999,0,1,3,FEW 10   BKN 25   BKN 40,1,2,1,0,1014,RJFZ 091900Z 27004KT 9999 -SHRASN FEW010 BKN025 BKN040 02/00     Q1014 RMK 2CU010 6CU025 7CU040 A2995=,- RA SN SH
20180109_200000.003,0,RJFZ,,,,0,20180109200000,-1,-1,-1,-1,260,-1,7,-1,-1,-1,-1,,8000,0,1,3,SCT 10   BKN 20   BKN 40,1,2,1,0,1014,RJFZ 092000Z 26007KT 8000 -SHRASN SCT010 BKN020 BKN040 02/00     Q1014 RMK 3CU010 6CU020 7CU040 A2995=,- RA SN SH
20180109_210000.003,0,RJFZ,,,,0,20180109210000,-1,-1,-1,-1,270,-1,6,-1,-1,-1,-1,,4000,0,1,3,FEW 10   BKN 25   BKN 35,1,1,-1,0,1014,RJFZ 092100Z 27006KT 4000 -SHRASN FEW010 BKN025 BKN035 01/M00     Q1014 RMK 1CU010 5CU025 7CU035 A2995 29038KT/0240 09/01           R007 S000=,- RA SN SH
20180109_220000.003,0,RJFZ,,,,0,20180109220000,-1,-1,-1,-1,250,-1,6,-1,-1,-1,-1,,8000,0,1,3,FEW 10   BKN 25   BKN 35,1,1,-1,0,1014,RJFZ 092200Z 25006KT 8000 -SHRASN FEW010 BKN025 BKN035     01/M00 Q1014 RMK 1CU010 5CU025 7CU035 A2994=,- RA SN SH
20180109_230000.003,0,RJFZ,,,,0,20180109230000,-1,-1,-1,-1,260,-1,6,-1,-1,-1,-1,,9999,0,1,4,FEW 10   BKN 25   FEW 25 TCU  BKN 40,1,2,1,0,1014,RJFZ 092300Z 26006KT 9999 -SHRASN FEW010 BKN025 FEW025TCU     BKN040 02/00 Q1014 RMK 1CU010 5CU025 1TCU025 7CU040 A2995           TCU SE MOV E=,- RA SN SH
20180110_000000.003,0,RJFZ,,,,0,20180110000000,-1,-1,-1,-1,260,-1,7,-1,-1,-1,-1,,9999,0,1,4,FEW 10   BKN 25   FEW 25 TCU  BKN 40,1,3,1,1,1014,RJFZ 100000Z 26007KT 9999 -SHRA FEW010 BKN025 FEW025TCU BKN040     03/01 Q1014 RMK 1CU010 6CU025 1TCU025 7CU040 A2996 VIS SW           8KM TCU SW MOV E=,- RA SH
20180110_010000.003,0,RJFZ,,,,0,20180110010000,-1,-1,-1,-1,270,-1,7,-1,-1,-1,-1,,9999,0,1,3,FEW 10   SCT 15   BKN 25,1,3,1,1,1014,RJFZ 100100Z 27007KT 9999 -SHRA FEW010 SCT015 BKN025 03/01     Q1014 RMK 1CU010 3CU015 6CU025 A2996=,- RA SH
20180110_020000.003,0,RJFZ,,,,0,20180110020000,-1,-1,-1,-1,280,-1,8,-1,-1,-1,-1,,8000,0,1,3,FEW 10   SCT 15   BKN 25,1,3,1,1,1014,RJFZ 100200Z 28008KT 8000 -SHRA FEW010 SCT015 BKN025 03/01     Q1014 RMK 1CU010 4CU015 6CU025 A2997 VIS SW-NW 6KM=,- RA SH
20180110_030000.003,0,RJFZ,,,,0,20180110030000,-1,-1,-1,-1,260,-1,11,-1,-1,-1,-1,,9999,0,1,3,FEW 10   SCT 20   BKN 30,1,4,1,2,1014,RJFZ 100300Z 26011KT 9999 -SHRA FEW010 SCT020 BKN030 04/02     Q1014 RMK 1ST010 4CU020 7CU030 A2996=,- RA SH
20180110_040000.004,0,RJFZ,,,,0,20180110040000,-1,-1,-1,-1,260,-1,11,-1,-1,-1,-1,,9999,0,1,3,FEW 10   BKN 15   BKN 25,1,3,1,1,1014,RJFZ 100400Z 26011KT 9999 -SHRA FEW010 BKN015 BKN025 03/01     Q1014 RMK 2CU010 6CU015 7CU025 A2995=,- RA SH
20180110_050000.003,0,RJFZ,,,,0,20180110050000,-1,-1,-1,-1,270,-1,9,-1,-1,-1,-1,,9999,0,1,4,FEW 10   SCT 15   BKN 25   FEW 25 TCU,1,4,1,2,1013,RJFZ 100500Z 27009KT 9999 -SHRA FEW010 SCT015 BKN025 FEW025TCU     04/02 Q1013 RMK 2CU010 3CU015 5CU025 2TCU025 A2994 TCU           10KM SW MOV E=,- RA SH
20180110_060000.003,0,RJFZ,,,,0,20180110060000,-1,-1,-1,-1,270,-1,15,-1,25,-1,-1,,9999,0,1,3,FEW 10   SCT 15   BKN 25,1,3,1,0,1014,RJFZ 100600Z 27015G25KT 9999 -SHRA FEW010 SCT015 BKN025 03/00     Q1014 RMK 1CU010 4CU015 6CU025 A2996=,- RA SH
20180110_070000.003,0,RJFZ,,,,0,20180110070000,-1,-1,-1,-1,250,-1,12,-1,-1,-1,-1,,9999,0,1,3,FEW 10   SCT 15   BKN 25,1,3,1,0,1014,RJFZ 100700Z 25012KT 9999 -SHRASN FEW010 SCT015 BKN025 03/00     Q1014 RMK 1CU010 4CU015 7CU025 A2997 MAX WIND 19KT=,- RA SN SH
20180110_080000.003,0,RJFZ,,,,0,20180110080000,-1,-1,-1,-1,250,-1,8,-1,-1,-1,-1,,8000,0,1,3,FEW 5   SCT 10   BKN 15,1,1,-1,1,1015,RJFZ 100800Z 25008KT 8000 -SHSN FEW005 SCT010 BKN015 01/M01     Q1015 RMK 1CU005 3CU010 5CU015 A2999 1CU005 AAL=,- SN SH
20180110_090000.003,0,RJFZ,,,,0,20180110090000,-1,-1,-1,-1,250,-1,7,-1,-1,-1,-1,,9999,0,1,3,FEW 5   SCT 10   BKN 20,1,1,-1,1,1015,RJFZ 100900Z 25007KT 9999 -SHSN FEW005 SCT010 BKN020 01/M01     Q1015 RMK 1CU005 4CU010 7CU020 A3000 1CU005 AAL=,- SN SH
20180110_100000.003,0,RJFZ,,,,0,20180110100000,-1,-1,-1,-1,240,-1,8,-1,-1,-1,-1,,9999,0,1,3,FEW 10   BKN 25   BKN 40,1,1,-1,1,1016,RJFZ 101000Z 24008KT 9999 -SHSN FEW010 BKN025 BKN040 01/M01     Q1016 RMK 1CU010 5CU025 7CU040 A3002=,- SN SH
20180110_110000.003,0,RJFZ,,,,0,20180110110000,-1,-1,-1,-1,270,-1,14,-1,24,-1,-1,,2000,0,1,3,FEW 5   SCT 8   BKN 10,1,1,-1,1,1017,RJFZ 101100Z 27014G24KT 2000 -SHSN FEW005 SCT008 BKN010 01/M01     Q1017 RMK 1CU005 3CU008 6CU010 A3005=,- SN SH
20180110_120000.003,0,RJFZ,,,,0,20180110120000,-1,-1,-1,-1,270,-1,4,-1,-1,-1,-1,,9999,0,1,3,FEW 10   BKN 25   BKN 40,1,1,-1,1,1017,RJFZ 101200Z 27004KT 9999 -SHSN FEW010 BKN025 BKN040 01/M01     Q1017 RMK 1CU010 5CU025 7CU040 A3006=,- SN SH
20180110_130000.003,0,RJFZ,,,,0,20180110130000,-1,-1,-1,-1,300,-1,4,-1,-1,250,340,,9999,0,1,3,FEW 10   SCT 25   BKN 40,1,1,-1,2,1018,RJFZ 101300Z 30004KT 250V340 9999 -SHSN FEW010 SCT025 BKN040     01/M02 Q1018 RMK 1CU010 4CU025 7CU040 A3009=,- SN SH
20180110_140000.003,0,RJFZ,,,,0,20180110140000,-1,-1,-1,-1,250,-1,11,-1,-1,-1,-1,,9999,0,1,3,FEW 10   BKN 25   BKN 40,1,0,-1,2,1019,RJFZ 101400Z 25011KT 9999 -SHSN FEW010 BKN025 BKN040 00/M02     Q1019 RMK 1CU010 5CU025 7CU040 A3010=,- SN SH
20180110_150000.003,0,RJFZ,,,,0,20180110150000,-1,-1,-1,-1,260,-1,11,-1,-1,-1,-1,,9999,0,1,3,FEW 10   SCT 25   BKN 40,1,1,-1,2,1019,RJFZ 101500Z 26011KT 9999 -SHSN FEW010 SCT025 BKN040 01/M02     Q1019 RMK 1CU010 3CU025 7CU040 A3010=,- SN SH
20180110_160000.003,0,RJFZ,,,,0,20180110160000,-1,-1,-1,-1,280,-1,12,-1,-1,-1,-1,,9999,0,1,3,FEW 10   SCT 25   BKN 40,1,0,-1,4,1019,RJFZ 101600Z 28012KT 9999 -SHSN FEW010 SCT025 BKN040 00/M04     Q1019 RMK 1CU010 3CU025 7CU040 A3011=,- SN SH
20180110_170000.003,0,RJFZ,,,,0,20180110170000,-1,-1,-1,-1,250,-1,8,-1,-1,-1,-1,,9999,0,0,3,FEW 10   SCT 25   BKN 40,-1,0,-1,3,1020,RJFZ 101700Z 25008KT 9999 FEW010 SCT025 BKN040 M00/M03 Q1020     RMK 1CU010 3CU025 7CU040 A3012=,
20180110_180000.003,0,RJFZ,,,,0,20180110180000,-1,-1,-1,-1,260,-1,9,-1,-1,-1,-1,,9999,0,1,3,FEW 10   SCT 25   BKN 40,-1,1,-1,3,1020,RJFZ 101800Z 26009KT 9999 -SHSN FEW010 SCT025 BKN040 M01/M03     Q1020 RMK 1CU010 3CU025 7CU040 A3014=,- SN SH
20180110_190000.003,0,RJFZ,,,,0,20180110190000,-1,-1,-1,-1,250,-1,9,-1,-1,-1,-1,,9999,0,0,3,FEW 10   SCT 25   BKN 40,-1,1,-1,4,1020,RJFZ 101900Z 25009KT 9999 FEW010 SCT025 BKN040 M01/M04 Q1020     RMK 1CU010 3CU025 5CU040 A3014=,
20180110_200000.003,0,RJFZ,,,,0,20180110200000,-1,-1,-1,-1,250,-1,9,-1,-1,-1,-1,,9999,0,1,3,FEW 10   SCT 25   BKN 35,-1,1,-1,3,1020,RJFZ 102000Z 25009KT 9999 -SHSN FEW010 SCT025 BKN035 M01/M03     Q1020 RMK 2CU010 4CU025 7CU035 A3014=,- SN SH
20180110_210000.003,0,RJFZ,,,,0,20180110210000,-1,-1,-1,-1,260,-1,6,-1,-1,-1,-1,,9999,0,1,3,FEW 10   SCT 25   BKN 35,-1,1,-1,3,1020,RJFZ 102100Z 26006KT 9999 -SHSN FEW010 SCT025 BKN035 M01/M03     Q1020 RMK 1CU010 4CU025 7CU035 A3014 04/M02 R012 S003           SD001=,- SN SH
20180110_220000.003,0,RJFZ,,,,0,20180110220000,-1,-1,-1,-1,240,-1,6,-1,-1,-1,-1,,8000,0,1,3,SCT 15   BKN 25   BKN 35,-1,1,-1,3,1021,RJFZ 102200Z 24006KT 8000 -SHSN SCT015 BKN025 BKN035 M01/M03     Q1021 RMK 3CU015 5CU025 7CU035 A3015=,- SN SH
20180110_230000.004,0,RJFZ,,,,0,20180110230000,-1,-1,-1,-1,240,-1,7,-1,-1,-1,-1,,9999,0,1,3,FEW 20   BKN 30   BKN 40,-1,0,-1,3,1021,RJFZ 102300Z 24007KT 9999 -SHSN FEW020 BKN030 BKN040 M00/M03     Q1021 RMK 1CU020 5CU030 7CU040 A3016=,- SN SH
20180111_000000.003,0,RJFZ,,,,0,20180111000000,-1,-1,-1,-1,250,-1,10,-1,-1,-1,-1,,9999,0,1,3,FEW 15   BKN 30   BKN 40,1,0,-1,4,1021,RJFZ 110000Z 25010KT 9999 -SHSN FEW015 BKN030 BKN040 00/M04     Q1021 RMK 1CU015 5CU030 7CU040 A3018=,- SN SH
20180111_010000.003,0,RJFZ,,,,0,20180111010000,-1,-1,-1,-1,260,-1,12,-1,-1,-1,-1,,9999,0,1,3,FEW 10   BKN 30   BKN 40,1,1,-1,4,1022,RJFZ 110100Z 26012KT 9999 -SHSN FEW010 BKN030 BKN040 01/M04     Q1022 RMK 1CU010 5CU030 7CU040 A3019=,- SN SH
20180111_020000.003,0,RJFZ,,,,0,20180111020000,-1,-1,-1,-1,240,-1,11,-1,-1,-1,-1,,9999,0,1,3,FEW 10   BKN 30   BKN 40,1,1,-1,3,1022,RJFZ 110200Z 24011KT 9999 -SHSN FEW010 BKN030 BKN040 01/M03     Q1022 RMK 1CU010 5CU030 7CU040 A3019=,- SN SH
20180111_030000.002,0,RJFZ,,,,0,20180111030000,-1,-1,-1,-1,280,-1,14,-1,-1,-1,-1,,2000,0,1,3,FEW 10   BKN 15   BKN 25,1,0,-1,3,1022,RJFZ 110300Z 28014KT 2000 -SHSN FEW010 BKN015 BKN025 00/M03     Q1022 RMK 2CU010 7CU015 7CU025 A3019 VIS S-SW 1500M=,- SN SH
20180111_040000.003,0,RJFZ,,,,0,20180111040000,-1,-1,-1,-1,270,-1,10,-1,-1,-1,-1,,1000,1,1,3,FEW 8   BKN 10   OVC 20,1,0,-1,2,1022,RJFZ 110400Z 27010KT 1000 R25/1200VP1800D -SHSN FEW008 BKN010     OVC020 00/M02 Q1022 RMK 1CU008 5CU010 8CU020 A3019 R1600           VIS SW-W 3000M 1CU008 AAL=,- SN SH
20180111_050000.003,0,RJFZ,,,,0,20180111050000,-1,-1,-1,-1,290,-1,17,-1,27,-1,-1,,9999,0,1,3,FEW 10   SCT 25   BKN 35,1,1,-1,5,1022,RJFZ 110500Z 29017G27KT 9999 -SHSN FEW010 SCT025 BKN035 01/M05     Q1022 RMK 1CU010 4CU025 7CU035 A3018=,- SN SH
20180111_060000.003,0,RJFZ,,,,0,20180111060000,-1,-1,-1,-1,280,-1,10,-1,-1,-1,-1,,9999,0,1,3,FEW 10   BKN 25   BKN 35,1,1,-1,6,1022,RJFZ 110600Z 28010KT 9999 -SHSN FEW010 BKN025 BKN035 01/M06     Q1022 RMK 1CU010 5CU025 7CU035 A3019=,- SN SH
20180111_070000.003,0,RJFZ,,,,0,20180111070000,-1,-1,-1,-1,280,-1,14,-1,-1,-1,-1,,9999,0,1,3,FEW 10   SCT 25   BKN 35,1,1,-1,7,1022,RJFZ 110700Z 28014KT 9999 -SHSN FEW010 SCT025 BKN035 01/M07     Q1022 RMK 1CU010 4CU025 7CU035 A3019=,- SN SH
20180111_080000.003,0,RJFZ,,,,0,20180111080000,-1,-1,-1,-1,290,-1,23,-1,34,-1,-1,,9999,0,1,3,FEW 10   BKN 25   BKN 35,-1,0,-1,7,1023,RJFZ 110800Z 29023G34KT 9999 -SHSN FEW010 BKN025 BKN035     M00/M07 Q1023 RMK 2CU010 5CU025 7CU035 A3021=,- SN SH
20180111_090000.003,0,RJFZ,,,,0,20180111090000,-1,-1,-1,-1,270,-1,11,-1,-1,-1,-1,,9999,0,0,3,FEW 10   SCT 25   BKN 35,1,0,-1,8,1023,RJFZ 110900Z 27011KT 9999 FEW010 SCT025 BKN035 00/M08 Q1023     RMK 1CU010 3CU025 6CU035 A3021=,
20180111_100000.003,0,RJFZ,,,,0,20180111100000,-1,-1,-1,-1,260,-1,6,-1,-1,-1,-1,,9999,0,0,3,FEW 10   SCT 25   BKN 35,-1,0,-1,8,1023,RJFZ 111000Z 26006KT 9999 FEW010 SCT025 BKN035 M00/M08 Q1023     RMK 1CU010 3CU025 6CU035 A3022=,
20180111_110000.003,0,RJFZ,,,,0,20180111110000,-1,-1,-1,-1,250,-1,10,-1,-1,-1,-1,,9999,0,0,3,FEW 10   SCT 25   BKN 35,-1,1,-1,7,1023,RJFZ 111100Z 25010KT 9999 FEW010 SCT025 BKN035 M01/M07 Q1023     RMK 1CU010 3CU025 5CU035 A3023=,
20180111_120000.003,0,RJFZ,,,,0,20180111120000,-1,-1,-1,-1,250,-1,9,-1,-1,-1,-1,,9999,0,0,3,FEW 10   SCT 25   BKN 35,-1,0,-1,7,1023,RJFZ 111200Z 25009KT 9999 FEW010 SCT025 BKN035 M00/M07 Q1023     RMK 1CU010 3CU025 6CU035 A3023=,
20180111_130000.003,0,RJFZ,,,,0,20180111130000,-1,-1,-1,-1,250,-1,5,-1,-1,-1,-1,,9999,0,0,3,FEW 25   SCT 35   BKN 60,-1,1,-1,7,1024,RJFZ 111300Z 25005KT 9999 FEW025 SCT035 BKN060 M01/M07 Q1024     RMK 1CU025 4CU035 5SC060 A3024=,
20180111_140000.003,0,RJFZ,,,,0,20180111140000,-1,-1,-1,-1,250,-1,5,-1,-1,-1,-1,,9999,0,0,3,FEW 25   SCT 35   BKN 60,-1,0,-1,9,1024,RJFZ 111400Z 25005KT 9999 FEW025 SCT035 BKN060 M00/M09 Q1024     RMK 1CU025 3CU035 5SC060 A3025=,
20180111_150000.003,0,RJFZ,,,,0,20180111150000,-1,-1,-1,-1,310,-1,12,-1,-1,-1,-1,,9999,0,1,3,FEW 25   BKN 35   BKN 60,1,0,-1,8,1024,RJFZ 111500Z 31012KT 9999 -SHSN FEW025 BKN035 BKN060 00/M08     Q1024 RMK 1CU025 5CU035 7SC060 A3026=,- SN SH
20180111_160000.003,0,RJFZ,,,,0,20180111160000,-1,-1,-1,-1,270,-1,7,-1,-1,-1,-1,,6000,0,1,3,FEW 8   BKN 15   BKN 20,-1,2,-1,4,1025,RJFZ 111600Z 27007KT 6000 -SHSN FEW008 BKN015 BKN020 M02/M04     Q1025 RMK 1CU008 5CU015 7CU020 A3028=,- SN SH
20180111_170000.003,0,RJFZ,,,,0,20180111170000,-1,-1,-1,-1,270,-1,8,-1,-1,-1,-1,,9999,0,1,3,FEW 15   SCT 25   BKN 35,-1,2,-1,6,1025,RJFZ 111700Z 27008KT 9999 -SHSN FEW015 SCT025 BKN035 M02/M06     Q1025 RMK 1CU015 3CU025 7CU035 A3028=,- SN SH
20180111_180000.003,0,RJFZ,,,,0,20180111180000,-1,-1,-1,-1,260,-1,8,-1,-1,-1,-1,,5000,0,1,3,FEW 8   BKN 15   BKN 25,-1,2,-1,4,1025,RJFZ 111800Z 26008KT 5000 -SHSN FEW008 BKN015 BKN025 M02/M04     Q1025 RMK 1CU008 5CU015 7CU025 A3029 VIS W-N 8KM=,- SN SH
20180111_190000.003,0,RJFZ,,,,0,20180111190000,-1,-1,-1,-1,260,-1,10,-1,-1,-1,-1,,9999,0,1,3,FEW 15   BKN 25   BKN 35,-1,2,-1,5,1025,RJFZ 111900Z 26010KT 9999 -SHSN FEW015 BKN025 BKN035 M02/M05     Q1025 RMK 1CU015 5CU025 7CU035 A3027=,- SN SH
20180111_200000.003,0,RJFZ,,,,0,20180111200000,-1,-1,-1,-1,240,-1,13,-1,-1,-1,-1,,6000,0,1,3,SCT 10   BKN 15   OVC 25,-1,2,-1,5,1025,RJFZ 112000Z 24013KT 6000 -SHSN SCT010 BKN015 OVC025 M02/M05     Q1025 RMK 3CU010 5CU015 8CU025 A3029 VIS SE-SW 5KM=,- SN SH
20180111_210000.003,0,RJFZ,,,,0,20180111210000,-1,-1,-1,-1,240,-1,8,-1,-1,-1,-1,,9999,0,1,3,FEW 15   BKN 25   BKN 35,-1,3,-1,5,1025,RJFZ 112100Z 24008KT 9999 -SHSN FEW015 BKN025 BKN035 M03/M05     Q1025 RMK 2CU015 5CU025 7CU035 A3029 29035KT/0740 03/M03           R000 S002 SD001=,- SN SH
20180111_220000.004,0,RJFZ,,,,0,20180111220000,-1,-1,-1,-1,240,-1,7,-1,-1,-1,-1,,9999,0,1,3,FEW 15   BKN 25   BKN 35,-1,3,-1,5,1026,RJFZ 112200Z 24007KT 9999 -SHSN FEW015 BKN025 BKN035 M03/M05     Q1026 RMK 1CU015 5CU025 5CU035 A3031=,- SN SH
20180111_230000.003,0,RJFZ,,,,0,20180111230000,-1,-1,-1,-1,250,-1,6,-1,-1,-1,-1,,500,1,1,3,FEW 5   BKN 8   OVC 15,-1,2,-1,4,1027,RJFZ 112300Z 25006KT 0500 R25/1100VP1800D SHSN FEW005 BKN008     OVC015 M02/M04 Q1027 RMK 1CU005 6CU008 8CU015 A3033 R1500           VIS NW-NE 6KM=,SN SH
20180112_000000.003,0,RJFZ,,,,0,20180112000000,-1,-1,-1,-1,220,-1,5,-1,-1,-1,-1,,6000,0,1,3,FEW 5   BKN 15   BKN 25,-1,2,-1,4,1027,RJFZ 120000Z 22005KT 6000 -SHSN FEW005 BKN015 BKN025 M02/M04     Q1027 RMK 1CU005 5CU015 7CU025 A3034=,- SN SH
20180112_010000.004,0,RJFZ,,,,0,20180112010000,-1,-1,-1,-1,230,-1,9,-1,-1,-1,-1,,9999,0,1,2,FEW 10   BKN 40,-1,1,-1,4,1028,RJFZ 120100Z 23009KT 9999 -SHSN FEW010 BKN040 M01/M04 Q1028     RMK 1CU010 5CU040 A3036=,- SN SH
20180112_020000.003,0,RJFZ,,,,0,20180112020000,-1,-1,-1,-1,240,-1,11,-1,-1,-1,-1,,9999,0,1,2,FEW 10   BKN 40,-1,0,-1,4,1027,RJFZ 120200Z 24011KT 9999 -SHSN FEW010 BKN040 M00/M04 Q1027     RMK 1CU010 6CU040 A3035=,- SN SH
20180112_030000.003,0,RJFZ,,,,0,20180112030000,-1,-1,-1,-1,270,-1,8,-1,-1,-1,-1,,9999,0,0,2,FEW 15   SCT 40,1,2,-1,4,1026,RJFZ 120300Z 27008KT 9999 FEW015 SCT040 02/M04 Q1026 RMK     1CU015 3CU040 A3032=,
20180112_040000.003,0,RJFZ,,,,0,20180112040000,-1,-1,-1,-1,230,-1,11,-1,-1,200,260,,9999,0,0,2,FEW 15   BKN 40,1,2,-1,4,1026,RJFZ 120400Z 23011KT 200V260 9999 FEW015 BKN040 02/M04 Q1026     RMK 1CU015 6CU040 A3030=,
20180112_050000.004,0,RJFZ,,,,0,20180112050000,-1,-1,-1,-1,230,-1,12,-1,-1,-1,-1,,9999,0,1,3,FEW 15   SCT 30   BKN 40,1,2,-1,4,1025,RJFZ 120500Z 23012KT 9999 -SHSN FEW015 SCT030 BKN040 02/M04     Q1025 RMK 1CU015 3CU030 6CU040 A3029=,- SN SH
20180112_060000.003,0,RJFZ,,,,0,20180112060000,-1,-1,-1,-1,240,-1,12,-1,-1,-1,-1,,9999,0,0,2,FEW 15   SCT 30,1,2,-1,5,1026,RJFZ 120600Z 24012KT 9999 FEW015 SCT030 02/M05 Q1026 RMK     1CU015 3CU030 A3030=,
20180112_070000.004,0,RJFZ,,,,0,20180112070000,-1,-1,-1,-1,240,-1,8,-1,-1,-1,-1,,9999,0,1,3,FEW 15   SCT 30   BKN 40,1,2,-1,5,1026,RJFZ 120700Z 24008KT 9999 -SHSN FEW015 SCT030 BKN040 02/M05     Q1026 RMK 1CU015 3CU030 5CU040 A3031=,- SN SH
20180112_080000.003,0,RJFZ,,,,0,20180112080000,-1,-1,-1,-1,250,-1,9,-1,-1,-1,-1,,9999,0,1,3,FEW 15   SCT 30   BKN 40,1,1,-1,5,1026,RJFZ 120800Z 25009KT 9999 -SHSN FEW015 SCT030 BKN040 01/M05     Q1026 RMK 1CU015 3CU030 6CU040 A3032=,- SN SH
20180112_090000.003,0,RJFZ,,,,0,20180112090000,-1,-1,-1,-1,260,-1,5,-1,-1,-1,-1,,9999,0,0,2,FEW 30   SCT 40,-1,1,-1,6,1027,RJFZ 120900Z 26005KT 9999 FEW030 SCT040 M01/M06 Q1027 RMK     1CU030 4CU040 A3035=,
20180112_100000.003,0,RJFZ,,,,0,20180112100000,-1,-1,-1,-1,230,-1,6,-1,-1,-1,-1,,9999,0,0,2,FEW 30   SCT 40,-1,1,-1,5,1028,RJFZ 121000Z 23006KT 9999 FEW030 SCT040 M01/M05 Q1028 RMK     1CU030 4CU040 A3036=,
20180112_110000.003,0,RJFZ,,,,0,20180112110000,-1,-1,-1,-1,250,-1,7,-1,-1,-1,-1,,9999,0,0,3,FEW 30   SCT 45   BKN 60,-1,0,-1,5,1028,RJFZ 121100Z 25007KT 9999 FEW030 SCT045 BKN060 M00/M05 Q1028     RMK 1CU030 4CU045 6SC060 A3037=,
20180112_120000.003,0,RJFZ,,,,0,20180112120000,-1,-1,-1,-1,240,-1,8,-1,-1,-1,-1,,9999,0,0,2,FEW 30   BKN 45,-1,1,-1,6,1028,RJFZ 121200Z 24008KT 9999 FEW030 BKN045 M01/M06 Q1028 RMK     1CU030 5CU045 A3037=,
20180112_130000.003,0,RJFZ,,,,0,20180112130000,-1,-1,-1,-1,250,-1,10,-1,-1,-1,-1,,9999,0,0,2,FEW 30   BKN 45,-1,1,-1,6,1028,RJFZ 121300Z 25010KT 9999 FEW030 BKN045 M01/M06 Q1028 RMK     1CU030 6CU045 A3038=,
20180112_140000.003,0,RJFZ,,,,0,20180112140000,-1,-1,-1,-1,270,-1,5,-1,-1,-1,-1,,9999,0,0,2,FEW 30   BKN 45,-1,1,-1,6,1029,RJFZ 121400Z 27005KT 9999 FEW030 BKN045 M01/M06 Q1029 RMK     1CU030 5CU045 A3039=,
20180112_150000.003,0,RJFZ,,,,0,20180112150000,-1,-1,-1,-1,240,-1,7,-1,-1,-1,-1,,9999,0,0,2,FEW 30   BKN 45,-1,1,-1,5,1029,RJFZ 121500Z 24007KT 9999 FEW030 BKN045 M01/M05 Q1029 RMK     1CU030 5CU045 A3039=,
20180112_160000.003,0,RJFZ,,,,0,20180112160000,-1,-1,-1,-1,250,-1,7,-1,-1,-1,-1,,9999,0,0,2,FEW 30   BKN 45,-1,1,-1,6,1029,RJFZ 121600Z 25007KT 9999 FEW030 BKN045 M01/M06 Q1029 RMK     1CU030 5CU045 A3039=,
20180112_170000.003,0,RJFZ,,,,0,20180112170000,-1,-1,-1,-1,240,-1,8,-1,-1,-1,-1,,9999,0,0,2,FEW 30   SCT 45,-1,2,-1,6,1028,RJFZ 121700Z 24008KT 9999 FEW030 SCT045 M02/M06 Q1028 RMK     1CU030 3CU045 A3038=,
20180112_180000.003,0,RJFZ,,,,0,20180112180000,-1,-1,-1,-1,250,-1,11,-1,-1,-1,-1,,9999,0,0,2,FEW 30   SCT 40,-1,1,-1,6,1028,RJFZ 121800Z 25011KT 9999 FEW030 SCT040 M01/M06 Q1028 RMK     1CU030 3CU040 A3038=,
20180112_190000.003,0,RJFZ,,,,0,20180112190000,-1,-1,-1,-1,250,-1,8,-1,-1,-1,-1,,9999,0,0,2,FEW 30   SCT 40,-1,2,-1,7,1028,RJFZ 121900Z 25008KT 9999 FEW030 SCT040 M02/M07 Q1028 RMK     1CU030 4CU040 A3038=,
20180112_200000.004,0,RJFZ,,,,0,20180112200000,-1,-1,-1,-1,230,-1,10,-1,-1,-1,-1,,9999,0,0,2,FEW 30   BKN 40,-1,1,-1,6,1028,RJFZ 122000Z 23010KT 9999 FEW030 BKN040 M01/M06 Q1028 RMK     1CU030 6CU040 A3037=,
20180112_210000.003,0,RJFZ,,,,0,20180112210000,-1,-1,-1,-1,250,-1,6,-1,-1,-1,-1,,9999,0,0,2,FEW 30   BKN 40,-1,0,-1,6,1029,RJFZ 122100Z 25006KT 9999 FEW030 BKN040 M00/M06 Q1029 RMK     1CU030 6CU040 A3039 04/M02 R001 S002=,
20180112_220000.003,0,RJFZ,,,,0,20180112220000,-1,-1,-1,-1,240,-1,9,-1,-1,-1,-1,,9999,0,0,2,FEW 30   BKN 40,1,1,-1,5,1028,RJFZ 122200Z 24009KT 9999 FEW030 BKN040 01/M05 Q1028 RMK     1CU030 7CU040 A3038=,
20180112_230000.003,0,RJFZ,,,,0,20180112230000,-1,-1,-1,-1,240,-1,10,-1,-1,-1,-1,,9999,0,0,2,FEW 30   BKN 40,1,1,-1,5,1029,RJFZ 122300Z 24010KT 9999 FEW030 BKN040 01/M05 Q1029 RMK     1CU030 7CU040 A3039=,
20180113_000000.003,0,RJFZ,,,,0,20180113000000,-1,-1,-1,-1,250,-1,6,-1,-1,-1,-1,,9999,0,0,2,FEW 30   BKN 40,1,1,-1,5,1030,RJFZ 130000Z 25006KT 9999 FEW030 BKN040 01/M05 Q1030 RMK     1CU030 7CU040 A3042=,
20180113_010000.004,0,RJFZ,,,,0,20180113010000,-1,-1,-1,-1,270,-1,9,-1,-1,-1,-1,,9999,0,1,2,FEW 20   BKN 35,1,2,-1,4,1030,RJFZ 130100Z 27009KT 9999 -SHSN FEW020 BKN035 02/M04 Q1030 RMK     1CU020 7CU035 A3044=,- SN SH
20180113_020000.003,0,RJFZ,,,,0,20180113020000,-1,-1,-1,-1,240,-1,13,-1,-1,-1,-1,,9999,0,1,2,FEW 20   SCT 35,1,2,-1,3,1030,RJFZ 130200Z 24013KT 9999 -SHSN FEW020 SCT035 02/M03 Q1030 RMK     1CU020 4CU035 A3044=,- SN SH
20180113_030000.003,0,RJFZ,,,,0,20180113030000,-1,-1,-1,-1,230,-1,13,-1,-1,-1,-1,,9999,0,0,3,FEW 20   SCT 35   BKN 50,1,3,-1,1,1030,RJFZ 130300Z 23013KT 9999 FEW020 SCT035 BKN050 03/M01 Q1030     RMK 1CU020 4CU035 6SC050 A3043=,
20180113_040000.003,0,RJFZ,,,,0,20180113040000,-1,-1,-1,-1,220,-1,11,-1,-1,-1,-1,,9999,0,1,3,FEW 15   SCT 20   BKN 30,1,3,-1,1,1029,RJFZ 130400Z 22011KT 9999 -SHRA FEW015 SCT020 BKN030 03/M01     Q1029 RMK 1CU015 3CU020 6CU030 A3041=,- RA SH
20180113_050000.003,0,RJFZ,,,,0,20180113050000,-1,-1,-1,-1,250,-1,12,-1,-1,-1,-1,,9999,0,1,3,FEW 15   SCT 20   BKN 30,1,3,-1,0,1029,RJFZ 130500Z 25012KT 9999 -SHRA FEW015 SCT020 BKN030 03/M00     Q1029 RMK 1CU015 3CU020 7CU030 A3040=,- RA SH
20180113_060000.003,0,RJFZ,,,,0,20180113060000,-1,-1,-1,-1,290,-1,13,-1,-1,-1,-1,,9999,0,1,3,FEW 15   SCT 20   BKN 30,1,3,-1,1,1029,RJFZ 130600Z 29013KT 9999 -SHRA FEW015 SCT020 BKN030 03/M01     Q1029 RMK 1CU015 3CU020 7CU030 A3040=,- RA SH
20180113_070000.003,0,RJFZ,,,,0,20180113070000,-1,-1,-1,-1,280,-1,12,-1,-1,-1,-1,,9999,0,1,2,FEW 20   BKN 30,1,3,-1,1,1030,RJFZ 130700Z 28012KT 9999 -SHRA FEW020 BKN030 03/M01 Q1030 RMK     2CU020 7CU030 A3042=,- RA SH
20180113_080000.003,0,RJFZ,,,,0,20180113080000,-1,-1,-1,-1,280,-1,9,-1,-1,-1,-1,,9999,0,1,3,FEW 20   BKN 30   BKN 40,1,3,-1,0,1030,RJFZ 130800Z 28009KT 9999 -SHRA FEW020 BKN030 BKN040 03/M00     Q1030 RMK 1CU020 6CU030 7CU040 A3043=,- RA SH
20180113_090000.003,0,RJFZ,,,,0,20180113090000,-1,-1,-1,-1,230,-1,9,-1,-1,-1,-1,,9999,0,0,3,FEW 20   SCT 30   BKN 40,1,2,-1,0,1030,RJFZ 130900Z 23009KT 9999 FEW020 SCT030 BKN040 02/M00 Q1030     RMK 1CU020 3CU030 7CU040 A3043=,
20180113_100000.003,0,RJFZ,,,,0,20180113100000,-1,-1,-1,-1,230,-1,6,-1,-1,-1,-1,,9999,0,0,2,FEW 30   BKN 40,1,2,-1,1,1031,RJFZ 131000Z 23006KT 9999 FEW030 BKN040 02/M01 Q1031 RMK     1CU030 7CU040 A3045=,
20180113_110000.003,0,RJFZ,,,,0,20180113110000,-1,-1,-1,-1,230,-1,6,-1,-1,-1,-1,,9999,0,0,3,FEW 20   SCT 30   BKN 40,1,2,-1,1,1031,RJFZ 131100Z 23006KT 9999 FEW020 SCT030 BKN040 02/M01 Q1031     RMK 1CU020 3CU030 7CU040 A3047=,
20180113_120000.003,0,RJFZ,,,,0,20180113120000,-1,-1,-1,-1,260,-1,4,-1,-1,-1,-1,,9999,0,0,2,FEW 30   BKN 40,1,2,-1,1,1031,RJFZ 131200Z 26004KT 9999 FEW030 BKN040 02/M01 Q1031 RMK     2CU030 7CU040 A3046=,
20180113_130000.003,0,RJFZ,,,,0,20180113130000,-1,-1,-1,-1,270,-1,4,-1,-1,-1,-1,,9999,0,0,2,FEW 30   BKN 40,1,2,-1,1,1031,RJFZ 131300Z 27004KT 9999 FEW030 BKN040 02/M01 Q1031 RMK     1CU030 7CU040 A3046=,
20180113_140000.004,0,RJFZ,,,,0,20180113140000,-1,-1,-1,-1,250,-1,6,-1,-1,-1,-1,,9999,0,0,2,FEW 30   BKN 40,1,2,-1,1,1031,RJFZ 131400Z 25006KT 9999 FEW030 BKN040 02/M01 Q1031 RMK     1CU030 7CU040 A3046=,
20180113_150000.003,0,RJFZ,,,,0,20180113150000,-1,-1,-1,-1,240,-1,6,-1,-1,-1,-1,,9999,0,0,2,FEW 30   BKN 40,1,2,-1,1,1030,RJFZ 131500Z 24006KT 9999 FEW030 BKN040 02/M01 Q1030 RMK     1CU030 7CU040 A3044=,
20180113_160000.003,0,RJFZ,,,,0,20180113160000,-1,-1,-1,-1,250,-1,6,-1,-1,-1,-1,,9999,0,0,2,FEW 30   BKN 40,1,2,-1,1,1030,RJFZ 131600Z 25006KT 9999 FEW030 BKN040 02/M01 Q1030 RMK     1CU030 6CU040 A3044=,
20180113_170000.003,0,RJFZ,,,,0,20180113170000,-1,-1,-1,-1,240,-1,6,-1,-1,-1,-1,,9999,0,0,2,FEW 30   BKN 40,1,2,-1,0,1030,RJFZ 131700Z 24006KT 9999 FEW030 BKN040 02/M00 Q1030 RMK     1CU030 6CU040 A3044=,
20180113_180000.003,0,RJFZ,,,,0,20180113180000,-1,-1,-1,-1,250,-1,5,-1,-1,-1,-1,,9999,0,0,2,FEW 30   BKN 40,1,2,-1,1,1030,RJFZ 131800Z 25005KT 9999 FEW030 BKN040 02/M01 Q1030 RMK     1CU030 7CU040 A3044=,
20180113_190000.004,0,RJFZ,,,,0,20180113190000,-1,-1,-1,-1,230,-1,6,-1,-1,-1,-1,,9999,0,0,2,FEW 30   BKN 40,1,2,-1,1,1030,RJFZ 131900Z 23006KT 9999 FEW030 BKN040 02/M01 Q1030 RMK     1CU030 6CU040 A3043=,
20180113_200000.004,0,RJFZ,,,,0,20180113200000,-1,-1,-1,-1,220,-1,4,-1,-1,-1,-1,,9999,0,0,2,FEW 30   BKN 45,1,2,-1,1,1030,RJFZ 132000Z 22004KT 9999 FEW030 BKN045 02/M01 Q1030 RMK     1CU030 7SC045 A3043=,
20180113_210000.003,0,RJFZ,,,,0,20180113210000,-1,-1,-1,-1,240,-1,3,-1,-1,-1,-1,,9999,0,0,2,FEW 30   BKN 45,1,1,-1,1,1030,RJFZ 132100Z 24003KT 9999 FEW030 BKN045 01/M01 Q1030 RMK     1CU030 7SC045 A3042 04/01 R000 S000=,
20180113_220000.003,0,RJFZ,,,,0,20180113220000,-1,-1,-1,-1,260,-1,6,-1,-1,-1,-1,,9999,0,0,2,FEW 30   BKN 45,1,1,-1,1,1031,RJFZ 132200Z 26006KT 9999 FEW030 BKN045 01/M01 Q1031 RMK     1CU030 7SC045 A3047=,
20180113_230000.003,0,RJFZ,,,,0,20180113230000,-1,-1,-1,-1,250,-1,5,-1,-1,-1,-1,,9999,0,0,2,FEW 30   BKN 45,1,1,-1,1,1032,RJFZ 132300Z 25005KT 9999 FEW030 BKN045 01/M01 Q1032 RMK     1CU030 7SC045 A3048=,
20180114_000000.004,0,RJFZ,,,,0,20180114000000,-1,-1,-1,-1,240,-1,5,-1,-1,-1,-1,,9999,0,0,2,FEW 30   BKN 45,1,4,1,0,1033,RJFZ 140000Z 24005KT 9999 FEW030 BKN045 04/00 Q1033 RMK 1CU030     7SC045 A3051=,
20180114_010000.003,0,RJFZ,,,,0,20180114010000,-1,-1,-1,-1,300,-1,3,-1,-1,-1,-1,,9999,0,0,3,FEW 30   BKN 45   BKN 250,1,5,-1,1,1032,RJFZ 140100Z 30003KT 9999 FEW030 BKN045 BKN250 05/M01 Q1032     RMK 1CU030 6SC045 A3050=,
20180114_020000.003,0,RJFZ,,,,0,20180114020000,-1,-1,-1,-1,120,-1,5,-1,-1,80,160,,9999,0,0,3,FEW 30   SCT 45   BKN 250,1,7,-1,3,1032,RJFZ 140200Z 12005KT 080V160 9999 FEW030 SCT045 BKN250 07/M03     Q1032 RMK 1CU030 3SC045 A3048=,
20180114_030000.003,0,RJFZ,,,,0,20180114030000,-1,-1,-1,-1,100,-1,7,-1,-1,-1,-1,,9999,0,0,2,FEW 45   BKN 200,1,7,-1,3,1031,RJFZ 140300Z 10007KT 9999 FEW045 BKN200 07/M03 Q1031 RMK     2SC045 A3045=,
20180114_040000.003,0,RJFZ,,,,0,20180114040000,-1,-1,-1,-1,90,-1,6,-1,-1,-1,-1,,9999,0,0,3,FEW 45   SCT 180   BKN 210,1,7,-1,3,1030,RJFZ 140400Z 09006KT 9999 FEW045 SCT180 BKN210 07/M03 Q1030     RMK 1SC045 3AC180 A3042=,
20180114_050000.003,0,RJFZ,,,,0,20180114050000,-1,-1,-1,-1,80,-1,6,-1,-1,-1,-1,,9999,0,0,3,FEW 45   SCT 180   BKN 210,1,7,-1,1,1029,RJFZ 140500Z 08006KT 9999 FEW045 SCT180 BKN210 07/M01 Q1029     RMK 1SC045 3AC180 A3039=,
20180114_060000.004,0,RJFZ,,,,0,20180114060000,-1,-1,-1,-1,90,-1,5,-1,-1,-1,-1,,9999,0,0,3,FEW 45   SCT 180   BKN 210,1,7,-1,2,1029,RJFZ 140600Z 09005KT 9999 FEW045 SCT180 BKN210 07/M02 Q1029     RMK 1SC045 3AC180 A3039=,
20180114_070000.003,0,RJFZ,,,,0,20180114070000,-1,-1,-1,-1,80,-1,4,-1,-1,-1,-1,,9999,0,0,3,FEW 45   SCT 160   BKN 210,1,7,-1,2,1028,RJFZ 140700Z 08004KT 9999 FEW045 SCT160 BKN210 07/M02 Q1028     RMK 1SC045 3AC160 A3038=,
20180114_080000.003,0,RJFZ,,,,0,20180114080000,-1,-1,-1,-1,60,-1,4,-1,-1,30,90,,9999,0,0,3,FEW 45   SCT 150   BKN 210,1,6,-1,2,1028,RJFZ 140800Z 06004KT 030V090 9999 FEW045 SCT150 BKN210 06/M02     Q1028 RMK 1SC045 4AC150 A3038=,
20180114_090000.003,0,RJFZ,,,,0,20180114090000,-1,-1,-1,-1,60,-1,5,-1,-1,360,90,,9999,0,0,3,FEW 45   SCT 150   BKN -9999,1,5,-1,2,1028,RJFZ 140900Z 06005KT 360V090 9999 FEW045 SCT150 BKN/// 05/M02     Q1028 RMK 1SC045 3AC150 A3038=,
20180114_100000.003,0,RJFZ,,,,0,20180114100000,-1,-1,-1,-1,210,-1,3,-1,-1,180,240,,9999,0,0,2,FEW 45   SCT -9999,1,2,-1,1,1029,RJFZ 141000Z 21003KT 180V240 9999 FEW045 SCT/// 02/M01 Q1029     RMK 1SC045 A3039=,
20180114_110000.003,0,RJFZ,,,,0,20180114110000,-1,-1,-1,-1,240,-1,6,-1,-1,-1,-1,,9999,0,0,1,FEW 45,1,1,-1,2,1029,RJFZ 141100Z 24006KT 9999 FEW045 01/M02 Q1029 RMK 1SC045     A3040=,
20180114_120000.003,0,RJFZ,,,,0,20180114120000,-1,-1,-1,-1,240,-1,6,-1,-1,-1,-1,,9999,0,0,1,FEW 45,1,0,-1,2,1029,RJFZ 141200Z 24006KT 9999 FEW045 00/M02 Q1029 RMK 1SC045     A3040=,
20180114_130000.004,0,RJFZ,,,,0,20180114130000,-1,-1,-1,-1,230,-1,5,-1,-1,-1,-1,,9999,0,0,1,FEW 40,-1,1,-1,3,1029,RJFZ 141300Z 23005KT 9999 FEW040 M01/M03 Q1029 RMK 1SC040     A3039=,
20180114_140000.003,0,RJFZ,,,,0,20180114140000,-1,-1,-1,-1,240,-1,4,-1,-1,-1,-1,,9999,0,0,1,FEW 40,-1,1,-1,3,1028,RJFZ 141400Z 24004KT 9999 FEW040 M01/M03 Q1028 RMK 1SC040     A3037=,
20180114_150000.003,0,RJFZ,,,,0,20180114150000,-1,-1,-1,-1,240,-1,5,-1,-1,-1,-1,,9999,0,0,1,FEW 40,-1,2,-1,4,1028,RJFZ 141500Z 24005KT 9999 FEW040 M02/M04 Q1028 RMK 1SC040     A3036=,
20180114_160000.003,0,RJFZ,,,,0,20180114160000,-1,-1,-1,-1,250,-1,5,-1,-1,-1,-1,,9999,0,0,1,FEW 40,-1,2,-1,4,1027,RJFZ 141600Z 25005KT 9999 FEW040 M02/M04 Q1027 RMK 1SC040     A3035=,
20180114_170000.003,0,RJFZ,,,,0,20180114170000,-1,-1,-1,-1,240,-1,5,-1,-1,-1,-1,,9999,0,0,1,FEW 40,-1,2,-1,4,1027,RJFZ 141700Z 24005KT 9999 FEW040 M02/M04 Q1027 RMK 1SC040     A3035=,
20180114_180000.004,0,RJFZ,,,,0,20180114180000,-1,-1,-1,-1,190,-1,4,-1,-1,-1,-1,,9999,0,0,1,FEW 40,-1,1,-1,3,1027,RJFZ 141800Z 19004KT 9999 FEW040 M01/M03 Q1027 RMK 1SC040     A3034=,
20180114_190000.003,0,RJFZ,,,,0,20180114190000,-1,-1,-1,-1,230,-1,4,-1,-1,-1,-1,,9999,0,0,1,FEW 40,-1,2,-1,3,1027,RJFZ 141900Z 23004KT 9999 FEW040 M02/M03 Q1027 RMK 1SC040     A3033=,
20180114_200000.004,0,RJFZ,,,,0,20180114200000,-1,-1,-1,-1,250,-1,4,-1,-1,-1,-1,,9999,0,0,1,FEW 40,-1,3,-1,4,1026,RJFZ 142000Z 25004KT 9999 FEW040 M03/M04 Q1026 RMK 1SC040     A3031=,
20180114_210000.003,0,RJFZ,,,,0,20180114210000,-1,-1,-1,-1,260,-1,5,-1,-1,-1,-1,,9999,0,0,1,FEW 45,-1,3,-1,4,1026,RJFZ 142100Z 26005KT 9999 FEW045 M03/M04 Q1026 RMK 2SC045     A3031 08/M04=,
20180114_220000.003,0,RJFZ,,,,0,20180114220000,-1,-1,-1,-1,240,-1,6,-1,-1,-1,-1,,9999,0,0,2,FEW 35   BKN 50,-1,0,-1,2,1026,RJFZ 142200Z 24006KT 9999 FEW035 BKN050 M00/M02 Q1026 RMK     1CU035 7SC050 A3032=,
20180114_230000.003,0,RJFZ,,,,0,20180114230000,-1,-1,-1,-1,240,-1,5,-1,-1,-1,-1,,9999,0,0,2,FEW 35   BKN 60,1,0,-1,1,1026,RJFZ 142300Z 24005KT 9999 FEW035 BKN060 00/M01 Q1026 RMK     1CU035 7SC060 A3032=,
20180115_000000.003,0,RJFZ,,,,0,20180115000000,-1,-1,-1,-1,250,-1,4,-1,-1,-1,-1,,9999,0,0,3,FEW 35   BKN 60   BKN 80,1,2,-1,0,1027,RJFZ 150000Z 25004KT 9999 FEW035 BKN060 BKN080 02/M00 Q1027     RMK 1CU035 6SC060 7AC080 A3034=,
20180115_010000.003,0,RJFZ,,,,0,20180115010000,-1,-1,-1,-1,260,-1,4,-1,-1,-1,-1,,9999,0,1,3,FEW 35   BKN 50   BKN 70,1,3,1,1,1027,RJFZ 150100Z 26004KT 9999 -SHRA FEW035 BKN050 BKN070 03/01     Q1027 RMK 1CU035 6SC050 7AC070 A3034=,- RA SH
20180115_020000.003,0,RJFZ,,,,0,20180115020000,-1,-1,-1,-1,250,-1,3,-1,-1,-1,-1,,9999,0,1,2,FEW 35   BKN 45,1,4,1,2,1027,RJFZ 150200Z 25003KT 9999 -SHRA FEW035 BKN045 04/02 Q1027 RMK     1CU035 7CU045 A3033=,- RA SH
20180115_030000.003,0,RJFZ,,,,0,20180115030000,-1,-1,-1,-1,260,-1,3,-1,-1,230,290,,9999,0,1,3,FEW 15   BKN 40   BKN 70,1,5,1,3,1026,RJFZ 150300Z 26003KT 230V290 9999 -SHRA FEW015 BKN040 BKN070     05/03 Q1026 RMK 1CU015 6CU040 7AC070 A3030=,- RA SH
20180115_040000.003,0,RJFZ,,,,0,20180115040000,-1,-1,-1,-1,220,-1,5,-1,-1,190,300,,9999,0,0,3,FEW 1   BKN 30   BKN 70,1,6,1,3,1024,RJFZ 150400Z 22005KT 190V300 9999 FEW001 BKN030 BKN070 06/03     Q1024 RMK 1ST001 5CU030 6AC070 A3025 1ST001 SW=,
20180115_050000.003,0,RJFZ,,,,0,20180115050000,-1,-1,-1,-1,280,-1,4,-1,-1,250,320,,9999,0,0,2,FEW 10   BKN 35,1,8,1,4,1023,RJFZ 150500Z 28004KT 250V320 9999 FEW010 BKN035 08/04 Q1023     RMK 1CU010 6CU035 A3022=,
20180115_060000.003,0,RJFZ,,,,0,20180115060000,-1,-1,-1,-1,999,-1,1,-1,-1,-1,-1,,9999,0,0,2,FEW 10   BKN 35,1,9,1,4,1023,RJFZ 150600Z VRB01KT 9999 FEW010 BKN035 09/04 Q1023 RMK 1CU010     6CU035 A3022=,
20180115_070000.005,0,RJFZ,,,,0,20180115070000,-1,-1,-1,-1,100,-1,5,-1,-1,60,120,,9999,0,0,2,FEW 10   BKN 30,1,7,1,3,1024,RJFZ 150700Z 10005KT 060V120 9999 FEW010 BKN030 07/03 Q1024     RMK 1CU010 7CU030 A3024=,
20180115_080000.003,0,RJFZ,,,,0,20180115080000,-1,-1,-1,-1,150,-1,3,-1,-1,120,180,,9999,0,0,3,FEW 20   BKN 30   BKN 70,1,7,1,3,1024,RJFZ 150800Z 15003KT 120V180 9999 FEW020 BKN030 BKN070 07/03     Q1024 RMK 1CU020 6CU030 6AC070 A3026=,
20180115_090000.003,0,RJFZ,,,,0,20180115090000,-1,-1,-1,-1,180,-1,4,-1,-1,-1,-1,,9999,0,0,2,FEW 20   SCT 30,1,5,1,2,1024,RJFZ 150900Z 18004KT 9999 FEW020 SCT030 05/02 Q1024 RMK 1CU020     3CU030 A3026=,
20180115_100000.003,0,RJFZ,,,,0,20180115100000,-1,-1,-1,-1,240,-1,5,-1,-1,-1,-1,,9999,0,0,1,FEW 20,1,5,1,3,1023,RJFZ 151000Z 24005KT 9999 FEW020 05/03 Q1023 RMK 1CU020 A3024=,
20180115_110000.003,0,RJFZ,,,,0,20180115110000,-1,-1,-1,-1,300,-1,4,-1,-1,-1,-1,,9999,0,0,1,FEW 20,1,4,1,2,1024,RJFZ 151100Z 30004KT 9999 FEW020 04/02 Q1024 RMK 1CU020 A3024=,
20180115_120000.003,0,RJFZ,,,,0,20180115120000,-1,-1,-1,-1,999,-1,2,-1,-1,-1,-1,,9999,0,0,1,FEW 20,1,2,1,1,1024,RJFZ 151200Z VRB02KT 9999 FEW020 02/01 Q1024 RMK 1CU020 A3026     VIS W-NW 8KM=,
20180115_130000.003,0,RJFZ,,,,0,20180115130000,-1,-1,-1,-1,230,-1,5,-1,-1,-1,-1,,9999,0,0,1,FEW 20,1,3,1,1,1024,RJFZ 151300Z 23005KT 9999 FEW020 03/01 Q1024 RMK 1CU020 A3025     VIS W-NW 8KM=,
20180115_140000.003,0,RJFZ,,,,0,20180115140000,-1,-1,-1,-1,250,-1,5,-1,-1,-1,-1,,9999,0,0,1,FEW 20,1,1,-1,1,1024,RJFZ 151400Z 25005KT 9999 FEW020 01/M01 Q1024 RMK 1CU020 A3025     VIS W-NW 8KM=,
20180115_150000.003,0,RJFZ,,,,0,20180115150000,-1,-1,-1,-1,220,-1,5,-1,-1,-1,-1,,9999,0,0,1,FEW 20,1,1,-1,1,1023,RJFZ 151500Z 22005KT 9999 FEW020 01/M01 Q1023 RMK 1CU020 A3024     VIS W-NW 8KM=,
20180115_160000.003,0,RJFZ,,,,0,20180115160000,-1,-1,-1,-1,250,-1,5,-1,-1,-1,-1,,8000,0,0,1,FEW 20,1,1,-1,0,1023,RJFZ 151600Z 25005KT 8000 FEW020 01/M00 Q1023 RMK 1CU020 A3023     VIS W-NW 6KM=,
20180115_170000.003,0,RJFZ,,,,0,20180115170000,-1,-1,-1,-1,220,-1,5,-1,-1,-1,-1,,8000,0,0,1,FEW 20,1,1,1,0,1023,RJFZ 151700Z 22005KT 8000 FEW020 01/00 Q1023 RMK 1CU020 A3022     VIS W-NW 6KM=,
20180115_180000.003,0,RJFZ,,,,0,20180115180000,-1,-1,-1,-1,250,-1,5,-1,-1,-1,-1,,8000,0,0,1,FEW 4,1,1,-1,0,1023,RJFZ 151800Z 25005KT 8000 FEW004 01/M00 Q1023 RMK 1ST004 A3021     VIS W-NW 6KM=,
20180115_190000.003,0,RJFZ,,,,0,20180115190000,-1,-1,-1,-1,270,-1,5,-1,-1,230,320,,7000,0,0,1,FEW 2,1,0,-1,1,1022,RJFZ 151900Z 27005KT 230V320 7000 FEW002 00/M01 Q1022 RMK     1ST002 A3019 VIS W-N 4000M=,
20180115_200000.003,0,RJFZ,,,,0,20180115200000,-1,-1,-1,-1,290,-1,3,-1,-1,260,320,,7000,0,0,1,FEW 3,-1,0,-1,1,1021,RJFZ 152000Z 29003KT 260V320 7000 FEW003 M00/M01 Q1021 RMK     1ST003 A3018 VIS W-N 5KM=,
20180115_210000.003,0,RJFZ,,,,0,20180115210000,-1,-1,-1,-1,999,-1,2,-1,-1,-1,-1,,300,1,1,1,VV 3,1,0,-1,1,1022,RJFZ 152100Z VRB02KT 0300 R25/0300V0450N FG VV003 00/M01 Q1022     RMK A3018 R0350 10/M01 R000=,FG
20180115_220000.003,0,RJFZ,,,,0,20180115220000,-1,-1,-1,-1,210,-1,4,-1,-1,-1,-1,,100,1,1,1,VV 1,1,2,1,1,1022,RJFZ 152200Z 21004KT 0100 R25/0250V0300D FG VV001 02/01 Q1022     RMK A3020 R0250=,FG
20180115_230000.003,0,RJFZ,,,,0,20180115230000,-1,-1,-1,-1,250,-1,3,-1,-1,-1,-1,,100,1,1,3,SCT 0   BKN 1   BKN 4,1,3,1,2,1022,RJFZ 152300Z 25003KT 0100 R25/0150V0250D FG SCT000 BKN001     BKN004 03/02 Q1022 RMK 4ST000 6ST001 7ST004 A3019 R0200=,FG
20180116_000000.003,0,RJFZ,,,,0,20180116000000,-1,-1,-1,-1,300,-1,5,-1,-1,230,340,,100,1,1,3,SCT 0   BKN 1   BKN 4,1,4,1,3,1022,RJFZ 160000Z 30005KT 230V340 0100 R25/0200V0250N FG SCT000     BKN001 BKN004 04/03 Q1022 RMK 4ST000 6ST001 7ST004 A3019           R0200=,FG
20180116_010000.003,0,RJFZ,,,,0,20180116010000,-1,-1,-1,-1,290,-1,3,-1,-1,260,320,,300,1,1,3,SCT 0   BKN 1   BKN 4,1,6,1,5,1022,RJFZ 160100Z 29003KT 260V320 0300 R25/0600V0800N FG SCT000     BKN001 BKN004 06/05 Q1022 RMK 4ST000 7ST001 7ST004 A3019           R0600=,FG
20180116_020000.003,0,RJFZ,,,,0,20180116020000,-1,-1,-1,-1,270,-1,3,-1,-1,220,320,,300,1,1,3,SCT 0   BKN 1   BKN 4,1,7,1,6,1021,RJFZ 160200Z 27003KT 220V320 0300 R25/0250V0400N FG SCT000     BKN001 BKN004 07/06 Q1021 RMK 4ST000 7ST001 7ST004 A3017           R0300 VIS W-N 200M=,FG
20180116_030000.003,0,RJFZ,,,,0,20180116030000,-1,-1,-1,-1,999,-1,2,-1,-1,-1,-1,,800,1,1,3,FEW 1   BKN 4   BKN 7,1,8,1,6,1020,RJFZ 160300Z VRB02KT 0800 R25/0450V0750N FG FEW001 BKN004     BKN007 08/06 Q1020 RMK 2ST001 5ST004 7ST007 A3012 R0500           VIS W 1000M=,FG
20180116_040000.003,0,RJFZ,,,,0,20180116040000,-1,-1,-1,-1,20,-1,3,-1,-1,340,40,,5000,0,1,2,FEW 1   SCT 4,1,9,1,7,1018,RJFZ 160400Z 02003KT 340V040 5000 BR FEW001 SCT004 09/07 Q1018     RMK 1ST001 3ST004 A3007 VIS S 3000M 1ST001 E 3ST004 OVER           AD=,BR
20180116_050000.003,0,RJFZ,,,,0,20180116050000,-1,-1,-1,-1,20,-1,3,-1,-1,340,90,,6000,0,1,3,FEW 1   SCT 3   BKN 50,1,9,1,7,1017,RJFZ 160500Z 02003KT 340V090 6000 PRFG FEW001 SCT003 BKN050     09/07 Q1017 RMK 2ST001 3ST003 5SC050 A3003 VIS E 3000M FG           BANK 1000M NW-NE 2ST001 TKOF AREA 3ST003 OVER AD=,PR FG
20180116_060000.003,0,RJFZ,,,,0,20180116060000,-1,-1,-1,-1,360,-1,4,-1,-1,-1,-1,,9999,0,1,2,FEW 1   SCT 3,1,9,1,6,1016,RJFZ 160600Z 36004KT 9999 PRFG FEW001 SCT003 09/06 Q1016 RMK     2ST001 4ST003 A3000 FG BANK 600M NW-E 2ST001 TKOF AREA           4ST003 OVER AD=,PR FG
20180116_070000.003,0,RJFZ,,,,0,20180116070000,-1,-1,-1,-1,999,-1,2,-1,-1,-1,-1,,700,1,1,2,SCT 1   BKN 7,1,8,1,7,1015,RJFZ 160700Z VRB02KT 0700 R07/1100VP1800D FG SCT001 BKN007     08/07 Q1015 RMK 3ST001 6ST007 A2999 R1700 VIS SE-SW 25KM=,FG
20180116_070000.005,1,RJFZ,,,,0,20180116070000,-1,-1,-1,-1,999,-1,2,-1,-1,-1,-1,,700,1,1,2,SCT 1   BKN 3,1,8,1,7,1015,RJFZ 160700Z VRB02KT 0700 R07/1100VP1800D FG SCT001 BKN003     08/07 Q1015 RMK 3ST001 6ST003 A2999 R1700 VIS SE-SW 25KM=,FG
20180116_080000.003,0,RJFZ,,,,0,20180116080000,-1,-1,-1,-1,340,-1,3,-1,-1,310,20,,9999,0,0,3,SCT 3   BKN 50   BKN 80,1,9,1,7,1015,RJFZ 160800Z 34003KT 310V020 9999 SCT003 BKN050 BKN080 09/07     Q1015 RMK 3ST003 5SC050 7AC080 A2997 VIS N-NE 5KM BR=,
20180116_090000.003,0,RJFZ,,,,0,20180116090000,-1,-1,-1,-1,270,-1,3,-1,-1,-1,-1,,9999,0,0,3,FEW 6   SCT 30   BKN 50,1,9,1,7,1014,RJFZ 160900Z 27003KT 9999 FEW006 SCT030 BKN050 09/07 Q1014 RMK     1ST006 3CU030 7SC050 A2997=,
20180116_100000.003,0,RJFZ,,,,0,20180116100000,-1,-1,-1,-1,260,-1,3,-1,-1,-1,-1,,8000,0,1,3,FEW 6   SCT 30   BKN 50,1,9,1,7,1015,RJFZ 161000Z 26003KT 8000 -RA FEW006 SCT030 BKN050 09/07 Q1015     RMK 1ST006 4CU030 7SC050 A2997=,- RA
20180116_110000.005,0,RJFZ,,,,0,20180116110000,-1,-1,-1,-1,999,-1,1,-1,-1,-1,-1,,5000,0,2,3,FEW 6   SCT 30   BKN 50,1,9,1,7,1014,RJFZ 161100Z VRB01KT 5000 -RA BR FEW006 SCT030 BKN050 09/07     Q1014 RMK 2ST006 4CU030 7SC050 A2996=,- RA; BR
20180116_120000.003,0,RJFZ,,,,0,20180116120000,-1,-1,-1,-1,999,-1,2,-1,-1,-1,-1,,5000,0,1,3,FEW 3   BKN 50   BKN 80,1,9,1,8,1014,RJFZ 161200Z VRB02KT 5000 BR FEW003 BKN050 BKN080 09/08 Q1014     RMK 1ST003 6SC050 7AC080 A2994=,BR
20180116_130000.003,0,RJFZ,,,,0,20180116130000,-1,-1,-1,-1,999,-1,1,-1,-1,-1,-1,,5000,0,2,3,FEW 3   SCT 35   BKN 50,1,9,1,7,1013,RJFZ 161300Z VRB01KT 5000 -RA BR FEW003 SCT035 BKN050 09/07     Q1013 RMK 1ST003 3CU035 6SC050 A2992=,- RA; BR
20180116_140000.003,0,RJFZ,,,,0,20180116140000,-1,-1,-1,-1,999,-1,2,-1,-1,-1,-1,,5000,0,2,3,FEW 4   SCT 35   BKN 45,1,9,1,7,1012,RJFZ 161400Z VRB02KT 5000 -RA BR FEW004 SCT035 BKN045 09/07     Q1012 RMK 1ST004 3CU035 7SC045 A2990=,- RA; BR
20180116_150000.003,0,RJFZ,,,,0,20180116150000,-1,-1,-1,-1,330,-1,2,-1,-1,-1,-1,,4500,0,2,3,FEW 3   SCT 35   BKN 45,1,9,1,8,1011,RJFZ 161500Z 33002KT 4500 -RA BR FEW003 SCT035 BKN045 09/08     Q1011 RMK 2ST003 4CU035 7SC045 A2988 VIS SW-W 4000M=,- RA; BR
20180116_160000.003,0,RJFZ,,,,0,20180116160000,-1,-1,-1,-1,170,-1,6,-1,-1,130,260,,4500,0,2,3,FEW 3   SCT 25   BKN 35,1,9,1,8,1011,RJFZ 161600Z 17006KT 130V260 4500 -SHRA BR FEW003 SCT025     BKN035 09/08 Q1011 RMK 2ST003 3CU025 6CU035 A2987 VIS           S-SW 4000M=,- RA SH; BR
20180116_170000.003,0,RJFZ,,,,0,20180116170000,-1,-1,-1,-1,50,-1,3,-1,-1,20,90,,4000,0,2,3,FEW 3   BKN 40   BKN 60,1,9,1,8,1011,RJFZ 161700Z 05003KT 020V090 4000 -SHRA BR FEW003 BKN040     BKN060 09/08 Q1011 RMK 2ST003 6CU040 7SC060 A2987 VIS           W-NW 3000M=,- RA SH; BR
20180116_180000.003,0,RJFZ,,,,0,20180116180000,-1,-1,-1,-1,230,-1,3,-1,-1,-1,-1,,4000,0,2,3,FEW 2   SCT 25   BKN 35,1,9,1,8,1011,RJFZ 161800Z 23003KT 4000 -SHRA BR FEW002 SCT025 BKN035 09/08     Q1011 RMK 2ST002 3CU025 6CU035 A2987 VIS W-N 3000M=,- RA SH; BR
20180116_190000.003,0,RJFZ,,,,0,20180116190000,-1,-1,-1,-1,250,-1,3,-1,-1,-1,-1,,3500,0,2,3,FEW 2   BKN 3   BKN 20,1,9,1,8,1011,RJFZ 161900Z 25003KT 3500 -SHRA BR FEW002 BKN003 BKN020 09/08     Q1011 RMK 1ST002 5ST003 6CU020 A2986 VIS W-N 3000M=,- RA SH; BR
20180116_200000.003,0,RJFZ,,,,0,20180116200000,-1,-1,-1,-1,999,-1,1,-1,-1,-1,-1,,5000,0,2,3,FEW 5   SCT 35   BKN 50,1,9,1,8,1010,RJFZ 162000Z VRB01KT 5000 -SHRA BR FEW005 SCT035 BKN050 09/08     Q1010 RMK 1ST005 4CU035 7SC050 A2984=,- RA SH; BR
20180116_210000.003,0,RJFZ,,,,0,20180116210000,-1,-1,-1,-1,999,-1,2,-1,-1,-1,-1,,5000,0,2,3,FEW 8   SCT 35   BKN 50,1,9,1,8,1010,RJFZ 162100Z VRB02KT 5000 -SHRA BR FEW008 SCT035 BKN050 09/08     Q1010 RMK 1ST008 4CU035 7SC050 A2984 11/08 R011=,- RA SH; BR
20180116_220000.003,0,RJFZ,,,,0,20180116220000,-1,-1,-1,-1,999,-1,2,-1,-1,-1,-1,,3000,1,2,3,FEW 3   SCT 15   BKN 35,1,8,1,7,1010,RJFZ 162200Z VRB02KT 3000 R07/1200VP1800D -SHRA BR FEW003     SCT015 BKN035 08/07 Q1010 RMK 2ST003 4CU015 7CU035 A2984           R1400 VIS SW-N 2000M 2ST003 N=,- RA SH; BR
20180116_230000.003,0,RJFZ,,,,0,20180116230000,-1,-1,-1,-1,320,-1,5,-1,-1,-1,-1,,900,1,1,3,SCT 0   SCT 2   BKN 5,1,9,1,8,1010,RJFZ 162300Z 32005KT 0900 R07/1600N FG SCT000 SCT002 BKN005     09/08 Q1010 RMK 3ST000 4ST002 6ST005 A2985 VIS S 1500M=,FG
20180116_233000.001,1,RJFZ,,,,0,20180116230000,-1,-1,-1,-1,320,-1,5,-1,-1,-1,-1,,900,1,1,3,SCT 0   SCT 2   BKN 5,1,9,1,8,1010,RJFZ 162300Z 32005KT 0900 R07/1600N FG SCT000 SCT002     BKN005 09/08 Q1010 RMK 3ST000 4ST002 6ST005 A2985 VIS S           1500M=,FG
20180117_000000.004,0,RJFZ,,,,0,20180117000000,-1,-1,-1,-1,240,-1,3,-1,-1,-1,-1,,800,1,1,3,FEW 0   BKN 2   BKN 5,1,10,1,9,1011,RJFZ 170000Z 24003KT 0800 R07/0550V1700U FG FEW000 BKN002     BKN005 10/09 Q1011 RMK 2ST000 5ST002 7ST005 A2986 R0800           VIS S-W 1000M=,FG
20180117_010000.003,0,RJFZ,,,,0,20180117010000,-1,-1,-1,-1,320,-1,5,-1,-1,-1,-1,,8000,0,2,3,FEW 1   BKN 25   BKN 80,1,11,1,10,1011,RJFZ 170100Z 32005KT 8000 -SHRA BCFG FEW001 BKN025 BKN080     11/10 Q1011 RMK 1ST001 5CU025 7AC080 A2987 FG BANK 4000M           S 2500M W-NW=,- RA SH; BC FG
20180117_020000.006,0,RJFZ,,,,0,20180117020000,-1,-1,-1,-1,20,-1,3,-1,-1,340,60,,9999,0,1,3,FEW 2   BKN 25   BKN 70,1,15,1,12,1011,RJFZ 170200Z 02003KT 340V060 9999 -SHRA FEW002 BKN025 BKN070     15/12 Q1011 RMK 1ST002 6CU025 7AC070 A2986=,- RA SH
20180117_030000.004,0,RJFZ,,,,0,20180117030000,-1,-1,-1,-1,270,-1,11,-1,-1,-1,-1,,9999,0,1,3,FEW 8   BKN 10   BKN 25,1,16,1,13,1010,RJFZ 170300Z 27011KT 9999 -SHRA FEW008 BKN010 BKN025 16/13     Q1010 RMK 1ST008 5ST010 6CU025 A2983 1ST008 OVER AD           5ST010 COV AD=,- RA SH
20180117_040000.004,0,RJFZ,,,,0,20180117040000,-1,-1,-1,-1,340,-1,12,-1,-1,-1,-1,,3000,1,2,3,FEW 6   BKN 10   BKN 20,1,14,1,12,1010,RJFZ 170400Z 34012KT 3000 R25/1500D SHRA BR FEW006 BKN010     BKN020 14/12 Q1010 RMK 2ST006 6ST010 7CU020 A2983 VIS W-N           1500M 2ST006 OVER AD 6ST010 COV AD=,RA SH; BR
20180117_040000.007,1,RJFZ,,,,0,20180117040000,-1,-1,-1,-1,340,-1,12,-1,-1,-1,-1,,3000,1,2,3,FEW 6   BKN 10   BKN 20,1,14,1,12,1010,RJFZ 170400Z 34012KT 3000 R25/1500D SHRA BR FEW006 BKN010     BKN020 14/12 Q1010 RMK 2ST006 6ST010 7CU020 A2983 VIS W-N           1500M 2ST006 OVER AD 6ST010 COV AD=,RA SH; BR
20180117_050000.004,0,RJFZ,,,,0,20180117050000,-1,-1,-1,-1,330,-1,16,-1,-1,-1,-1,,9999,0,1,3,FEW 6   BKN 10   BKN 20,1,12,1,10,1011,RJFZ 170500Z 33016KT 9999 -SHRA FEW006 BKN010 BKN020 12/10     Q1011 RMK 2ST006 5ST010 6CU020 A2987 2ST006 OVER AD           5ST010 COV AD=,- RA SH
20180117_060000.003,0,RJFZ,,,,0,20180117060000,-1,-1,-1,-1,310,-1,9,-1,-1,-1,-1,,9999,0,1,3,FEW 8   BKN 10   BKN 25,1,12,1,9,1012,RJFZ 170600Z 31009KT 9999 -SHRA FEW008 BKN010 BKN025 12/09     Q1012 RMK 1ST008 5ST010 6CU025 A2990 1ST005 OVER AD           5ST010 COV AD=,- RA SH
20180117_070000.004,0,RJFZ,,,,0,20180117070000,-1,-1,-1,-1,310,-1,11,-1,-1,-1,-1,,9999,0,1,3,FEW 8   BKN 10   BKN 20,1,11,1,9,1013,RJFZ 170700Z 31011KT 9999 -SHRA FEW008 BKN010 BKN020 11/09     Q1013 RMK 2ST008 5ST010 6CU020 A2994 2ST008 OVER AD           5ST010 COV AD=,- RA SH
20180117_080000.003,0,RJFZ,,,,0,20180117080000,-1,-1,-1,-1,320,-1,6,-1,-1,-1,-1,,9999,0,1,3,FEW 10   BKN 15   BKN 25,1,11,1,8,1015,RJFZ 170800Z 32006KT 9999 -SHRA FEW010 BKN015 BKN025 11/08     Q1015 RMK 2ST010 5CU015 7CU025 A2997 2ST010 OVER AD=,- RA SH
20180117_090000.004,0,RJFZ,,,,0,20180117090000,-1,-1,-1,-1,290,-1,6,-1,-1,-1,-1,,9999,0,0,3,FEW 10   BKN 15   BKN 30,1,10,1,8,1016,RJFZ 170900Z 29006KT 9999 FEW010 BKN015 BKN030 10/08 Q1016 RMK     1ST010 5CU015 7CU030 A3000 1ST010 OVER AD=,
20180117_100000.003,0,RJFZ,,,,0,20180117100000,-1,-1,-1,-1,999,-1,1,-1,-1,-1,-1,,9999,0,1,3,FEW 15   BKN 20   BKN 30,1,10,1,8,1017,RJFZ 171000Z VRB01KT 9999 -SHRA FEW015 BKN020 BKN030 10/08     Q1017 RMK 1CU015 5CU020 7CU030 A3003=,- RA SH
20180117_110000.004,0,RJFZ,,,,0,20180117110000,-1,-1,-1,-1,240,-1,4,-1,-1,-1,-1,,9999,0,0,3,FEW 15   SCT 25   BKN 50,1,10,1,7,1017,RJFZ 171100Z 24004KT 9999 FEW015 SCT025 BKN050 10/07 Q1017 RMK     1CU015 4CU025 7SC050 A3004=,
20180117_120000.004,0,RJFZ,,,,0,20180117120000,-1,-1,-1,-1,270,-1,7,-1,-1,-1,-1,,9999,0,0,2,FEW 30   SCT 50,1,8,1,6,1018,RJFZ 171200Z 27007KT 9999 FEW030 SCT050 08/06 Q1018 RMK 1CU030     3SC050 A3007=,
20180117_130000.003,0,RJFZ,,,,0,20180117130000,-1,-1,-1,-1,250,-1,5,-1,-1,-1,-1,,9999,0,0,2,FEW 30   SCT 50,1,7,1,5,1019,RJFZ 171300Z 25005KT 9999 FEW030 SCT050 07/05 Q1019 RMK 1CU030     4SC050 A3009=,
20180117_140000.003,0,RJFZ,,,,0,20180117140000,-1,-1,-1,-1,240,-1,6,-1,-1,-1,-1,,9999,0,0,2,FEW 30   SCT 50,1,6,1,4,1019,RJFZ 171400Z 24006KT 9999 FEW030 SCT050 06/04 Q1019 RMK 1CU030     4SC050 A3010=,
20180117_150000.003,0,RJFZ,,,,0,20180117150000,-1,-1,-1,-1,250,-1,6,-1,-1,-1,-1,,9999,0,0,2,FEW 30   SCT 50,1,6,1,4,1018,RJFZ 171500Z 25006KT 9999 FEW030 SCT050 06/04 Q1018 RMK 1CU030     3SC050 A3009=,
20180117_160000.003,0,RJFZ,,,,0,20180117160000,-1,-1,-1,-1,250,-1,5,-1,-1,-1,-1,,9999,0,0,2,FEW 30   SCT 50,1,5,1,3,1018,RJFZ 171600Z 25005KT 9999 FEW030 SCT050 05/03 Q1018 RMK 1CU030     4SC050 A3007=,
20180117_170000.003,0,RJFZ,,,,0,20180117170000,-1,-1,-1,-1,210,-1,4,-1,-1,190,250,,9999,0,0,2,FEW 30   SCT 50,1,5,1,3,1018,RJFZ 171700Z 21004KT 190V250 9999 FEW030 SCT050 05/03 Q1018     RMK 1CU030 3SC050 A3006=,
20180117_180000.003,0,RJFZ,,,,0,20180117180000,-1,-1,-1,-1,260,-1,4,-1,-1,-1,-1,,9999,0,0,2,FEW 30   SCT 50,1,3,1,2,1017,RJFZ 171800Z 26004KT 9999 FEW030 SCT050 03/02 Q1017 RMK 1CU030     3SC050 A3006=,
20180117_190000.004,0,RJFZ,,,,0,20180117190000,-1,-1,-1,-1,230,-1,7,-1,-1,-1,-1,,9999,0,0,1,FEW 30,1,4,1,3,1017,RJFZ 171900Z 23007KT 9999 FEW030 04/03 Q1017 RMK 1CU030 A3006=,
20180117_200000.003,0,RJFZ,,,,0,20180117200000,-1,-1,-1,-1,250,-1,6,-1,-1,-1,-1,,9999,0,0,1,FEW 30,1,4,1,2,1018,RJFZ 172000Z 25006KT 9999 FEW030 04/02 Q1018 RMK 1CU030 A3006=,
20180117_210000.003,0,RJFZ,,,,0,20180117210000,-1,-1,-1,-1,250,-1,7,-1,-1,-1,-1,,9999,0,0,2,FEW 20   SCT 35,1,4,1,3,1019,RJFZ 172100Z 25007KT 9999 FEW020 SCT035 04/03 Q1019 RMK 1CU020     4CU035 A3009 17/03 R012=,
20180117_220000.004,0,RJFZ,,,,0,20180117220000,-1,-1,-1,-1,240,-1,8,-1,-1,-1,-1,,9999,0,0,2,FEW 25   BKN 35,1,7,1,5,1019,RJFZ 172200Z 24008KT 9999 FEW025 BKN035 07/05 Q1019 RMK 1CU025     7CU035 A3009=,
20180117_230000.003,0,RJFZ,,,,0,20180117230000,-1,-1,-1,-1,260,-1,7,-1,-1,-1,-1,,9999,0,0,2,FEW 15   BKN 35,1,7,1,5,1019,RJFZ 172300Z 26007KT 9999 FEW015 BKN035 07/05 Q1019 RMK 1CU015     7CU035 A3009=,
20180118_000000.003,0,RJFZ,,,,0,20180118000000,-1,-1,-1,-1,260,-1,8,-1,-1,-1,-1,,9999,0,0,2,FEW 15   BKN 40,1,9,1,6,1020,RJFZ 180000Z 26008KT 9999 FEW015 BKN040 09/06 Q1020 RMK 1CU015     7CU040 A3013=,
20180118_010000.003,0,RJFZ,,,,0,20180118010000,-1,-1,-1,-1,250,-1,7,-1,-1,-1,-1,,9999,0,0,2,FEW 15   BKN 35,1,10,1,7,1020,RJFZ 180100Z 25007KT 9999 FEW015 BKN035 10/07 Q1020 RMK 1CU015     7CU035 A3014=,
20180118_020000.003,0,RJFZ,,,,0,20180118020000,-1,-1,-1,-1,250,-1,6,-1,-1,-1,-1,,9999,0,0,2,FEW 15   BKN 35,1,11,1,7,1020,RJFZ 180200Z 25006KT 9999 FEW015 BKN035 11/07 Q1020 RMK 1CU015     7CU035 A3014=,
20180118_030000.004,0,RJFZ,,,,0,20180118030000,-1,-1,-1,-1,260,-1,6,-1,-1,-1,-1,,9999,0,0,3,FEW 15   BKN 30   BKN 40,1,11,1,7,1020,RJFZ 180300Z 26006KT 9999 FEW015 BKN030 BKN040 11/07 Q1020 RMK     1CU015 6CU030 7SC040 A3015=,
20180118_040000.003,0,RJFZ,,,,0,20180118040000,-1,-1,-1,-1,270,-1,9,-1,-1,-1,-1,,9999,0,0,2,FEW 15   BKN 35,1,11,1,6,1020,RJFZ 180400Z 27009KT 9999 FEW015 BKN035 11/06 Q1020 RMK 1CU015     7CU035 A3013=,
20180118_050000.003,0,RJFZ,,,,0,20180118050000,-1,-1,-1,-1,270,-1,8,-1,-1,-1,-1,,9999,0,0,2,FEW 15   BKN 35,1,12,1,6,1019,RJFZ 180500Z 27008KT 9999 FEW015 BKN035 12/06 Q1019 RMK 1CU015     7CU035 A3011=,
20180118_060000.003,0,RJFZ,,,,0,20180118060000,-1,-1,-1,-1,280,-1,10,-1,-1,-1,-1,,9999,0,0,2,FEW 15   BKN 35,1,12,1,5,1019,RJFZ 180600Z 28010KT 9999 FEW015 BKN035 12/05 Q1019 RMK     1CU015 7CU035 A3011=,
20180118_070000.003,0,RJFZ,,,,0,20180118070000,-1,-1,-1,-1,270,-1,7,-1,-1,-1,-1,,9999,0,0,2,FEW 20   BKN 35,1,11,1,5,1019,RJFZ 180700Z 27007KT 9999 FEW020 BKN035 11/05 Q1019 RMK 1CU020     7CU035 A3011=,
20180118_080000.003,0,RJFZ,,,,0,20180118080000,-1,-1,-1,-1,310,-1,7,-1,-1,-1,-1,,9999,0,0,2,FEW 20   BKN 35,1,11,1,4,1020,RJFZ 180800Z 31007KT 9999 FEW020 BKN035 11/04 Q1020 RMK 1CU020     7CU035 A3013=,
20180118_090000.003,0,RJFZ,,,,0,20180118090000,-1,-1,-1,-1,260,-1,5,-1,-1,-1,-1,,9999,0,0,2,FEW 20   BKN 35,1,10,1,4,1020,RJFZ 180900Z 26005KT 9999 FEW020 BKN035 10/04 Q1020 RMK 1CU020     7CU035 A3014=,
20180118_100000.003,0,RJFZ,,,,0,20180118100000,-1,-1,-1,-1,260,-1,4,-1,-1,-1,-1,,9999,0,0,2,FEW 20   BKN 35,1,9,1,3,1021,RJFZ 181000Z 26004KT 9999 FEW020 BKN035 09/03 Q1021 RMK 1CU020     7CU035 A3015=,
20180118_110000.003,0,RJFZ,,,,0,20180118110000,-1,-1,-1,-1,250,-1,3,-1,-1,-1,-1,,9999,0,0,2,FEW 20   BKN 40,1,9,1,4,1021,RJFZ 181100Z 25003KT 9999 FEW020 BKN040 09/04 Q1021 RMK 1CU020     7CU040 A3016=,
20180118_120000.003,0,RJFZ,,,,0,20180118120000,-1,-1,-1,-1,230,-1,5,-1,-1,-1,-1,,9999,0,0,2,FEW 20   BKN 40,1,8,1,4,1021,RJFZ 181200Z 23005KT 9999 FEW020 BKN040 08/04 Q1021 RMK 1CU020     5CU040 A3016=,
20180118_130000.003,0,RJFZ,,,,0,20180118130000,-1,-1,-1,-1,240,-1,6,-1,-1,-1,-1,,9999,0,0,2,FEW 30   BKN 40,1,7,1,4,1021,RJFZ 181300Z 24006KT 9999 FEW030 BKN040 07/04 Q1021 RMK 1CU030     5CU040 A3016=,
20180118_140000.003,0,RJFZ,,,,0,20180118140000,-1,-1,-1,-1,280,-1,2,-1,-1,-1,-1,,9999,0,0,2,FEW 30   BKN 40,1,6,1,4,1021,RJFZ 181400Z 28002KT 9999 FEW030 BKN040 06/04 Q1021 RMK 1CU030     7CU040 A3017=,
20180118_150000.003,0,RJFZ,,,,0,20180118150000,-1,-1,-1,-1,240,-1,4,-1,-1,-1,-1,,9999,0,0,2,FEW 25   BKN 40,1,6,1,4,1021,RJFZ 181500Z 24004KT 9999 FEW025 BKN040 06/04 Q1021 RMK 1CU025     7CU040 A3016=,
20180118_160000.003,0,RJFZ,,,,0,20180118160000,-1,-1,-1,-1,250,-1,5,-1,-1,-1,-1,,9999,0,0,2,FEW 30   BKN 40,1,6,1,4,1021,RJFZ 181600Z 25005KT 9999 FEW030 BKN040 06/04 Q1021 RMK 1CU030     7CU040 A3016=,
20180118_170000.003,0,RJFZ,,,,0,20180118170000,-1,-1,-1,-1,230,-1,4,-1,-1,-1,-1,,9999,0,0,2,FEW 30   BKN 40,1,7,1,4,1021,RJFZ 181700Z 23004KT 9999 FEW030 BKN040 07/04 Q1021 RMK 1CU030     7CU040 A3016=,
20180118_180000.003,0,RJFZ,,,,0,20180118180000,-1,-1,-1,-1,250,-1,4,-1,-1,-1,-1,,9999,0,0,2,FEW 30   BKN 40,1,6,1,4,1021,RJFZ 181800Z 25004KT 9999 FEW030 BKN040 06/04 Q1021 RMK 1CU030     7CU040 A3016=,
20180118_190000.003,0,RJFZ,,,,0,20180118190000,-1,-1,-1,-1,250,-1,4,-1,-1,-1,-1,,9999,0,0,2,FEW 30   BKN 40,1,6,1,4,1021,RJFZ 181900Z 25004KT 9999 FEW030 BKN040 06/04 Q1021 RMK 1CU030     7CU040 A3016=,
20180118_200000.003,0,RJFZ,,,,0,20180118200000,-1,-1,-1,-1,230,-1,6,-1,-1,-1,-1,,9000,0,0,2,FEW 30   BKN 40,1,6,1,4,1020,RJFZ 182000Z 23006KT 9000 FEW030 BKN040 06/04 Q1020 RMK 1CU030     7CU040 A3015=,
20180118_210000.004,0,RJFZ,,,,0,20180118210000,-1,-1,-1,-1,250,-1,5,-1,-1,-1,-1,,8000,0,0,2,FEW 30   BKN 40,1,6,1,3,1021,RJFZ 182100Z 25005KT 8000 FEW030 BKN040 06/03 Q1021 RMK 1CU030     7CU040 A3016 14/05=,
20180118_220000.003,0,RJFZ,,,,0,20180118220000,-1,-1,-1,-1,240,-1,5,-1,-1,-1,-1,,8000,0,0,2,FEW 30   BKN 40,1,6,1,3,1021,RJFZ 182200Z 24005KT 8000 FEW030 BKN040 06/03 Q1021 RMK 1CU030     7CU040 A3016=,
20180118_230000.004,0,RJFZ,,,,0,20180118230000,-1,-1,-1,-1,240,-1,3,-1,-1,-1,-1,,8000,0,0,2,FEW 30   SCT 45,1,5,1,3,1021,RJFZ 182300Z 24003KT 8000 FEW030 SCT045 05/03 Q1021 RMK 1CU030     4SC045 A3016=,
20180119_000000.003,0,RJFZ,,,,0,20180119000000,-1,-1,-1,-1,240,-1,3,-1,-1,-1,-1,,7000,0,0,1,FEW 45,1,7,1,3,1022,RJFZ 190000Z 24003KT 7000 FEW045 07/03 Q1022 RMK 1SC045 A3018=,
20180119_010000.004,0,RJFZ,,,,0,20180119010000,-1,-1,-1,-1,300,-1,3,-1,-1,-1,-1,,7000,0,0,1,FEW 45,1,10,1,4,1022,RJFZ 190100Z 30003KT 7000 FEW045 10/04 Q1022 RMK 1SC045 A3018=,
20180119_020000.003,0,RJFZ,,,,0,20180119020000,-1,-1,-1,-1,340,-1,3,-1,-1,310,10,,8000,0,0,2,FEW 35   BKN 50,1,11,1,0,1022,RJFZ 190200Z 34003KT 310V010 8000 FEW035 BKN050 11/00 Q1022     RMK 1CU035 7SC050 A3019=,
20180119_030000.003,0,RJFZ,,,,0,20180119030000,-1,-1,-1,-1,70,-1,3,-1,-1,10,110,,8000,0,0,1,FEW 30,1,12,-1,0,1020,RJFZ 190300Z 07003KT 010V110 8000 FEW030 12/M00 Q1020 RMK     1CU030 A3015=,
20180119_040000.003,0,RJFZ,,,,0,20180119040000,-1,-1,-1,-1,100,-1,5,-1,-1,-1,-1,,8000,0,0,2,FEW 30   SCT 50,1,12,1,0,1019,RJFZ 190400Z 10005KT 8000 FEW030 SCT050 12/00 Q1019 RMK 1CU030     3SC050 A3011=,
20180119_050000.004,0,RJFZ,,,,0,20180119050000,-1,-1,-1,-1,90,-1,6,-1,-1,-1,-1,,8000,0,0,2,FEW 30   BKN 50,1,12,1,1,1018,RJFZ 190500Z 09006KT 8000 FEW030 BKN050 12/01 Q1018 RMK 1CU030     7SC050 A3008=,
20180119_060000.003,0,RJFZ,,,,0,20180119060000,-1,-1,-1,-1,999,-1,2,-1,-1,-1,-1,,8000,0,0,2,FEW 30   BKN 50,1,11,1,1,1018,RJFZ 190600Z VRB02KT 8000 FEW030 BKN050 11/01 Q1018 RMK 1CU030     6SC050 A3009 VIS SW-W 10KM=,
20180119_070000.003,0,RJFZ,,,,0,20180119070000,-1,-1,-1,-1,360,-1,3,-1,-1,-1,-1,,8000,0,0,2,FEW 30   SCT 50,1,10,1,2,1018,RJFZ 190700Z 36003KT 8000 FEW030 SCT050 10/02 Q1018 RMK 1CU030     3SC050 A3008 VIS S-W 10KM=,
20180119_080000.003,0,RJFZ,,,,0,20180119080000,-1,-1,-1,-1,140,-1,2,-1,-1,-1,-1,,9999,0,0,1,FEW 50,1,10,1,2,1018,RJFZ 190800Z 14002KT 9999 FEW050 10/02 Q1018 RMK 2SC050 A3008=,
20180119_090000.004,0,RJFZ,,,,0,20180119090000,-1,-1,-1,-1,190,-1,2,-1,-1,-1,-1,,9999,0,0,1,FEW 50,1,8,1,1,1018,RJFZ 190900Z 19002KT 9999 FEW050 08/01 Q1018 RMK 1SC050 A3008=,
20180119_100000.003,0,RJFZ,,,,0,20180119100000,-1,-1,-1,-1,250,-1,5,-1,-1,-1,-1,,9999,0,0,1,FEW 45,1,6,1,2,1019,RJFZ 191000Z 25005KT 9999 FEW045 06/02 Q1019 RMK 2SC045 A3009=,
20180119_110000.003,0,RJFZ,,,,0,20180119110000,-1,-1,-1,-1,230,-1,4,-1,-1,-1,-1,,9999,0,0,1,FEW 40,1,5,1,3,1018,RJFZ 191100Z 23004KT 9999 FEW040 05/03 Q1018 RMK 1SC040 A3009=,
20180119_120000.004,0,RJFZ,,,,0,20180119120000,-1,-1,-1,-1,240,-1,6,-1,-1,-1,-1,,9999,0,0,1,FEW 40,1,4,1,2,1019,RJFZ 191200Z 24006KT 9999 FEW040 04/02 Q1019 RMK 1SC040 A3010=,
20180119_130000.003,0,RJFZ,,,,0,20180119130000,-1,-1,-1,-1,250,-1,7,-1,-1,-1,-1,,9999,0,0,1,FEW 40,1,5,1,3,1019,RJFZ 191300Z 25007KT 9999 FEW040 05/03 Q1019 RMK 1SC040 A3009=,
20180119_140000.003,0,RJFZ,,,,0,20180119140000,-1,-1,-1,-1,240,-1,7,-1,-1,-1,-1,,9999,0,0,1,FEW 40,1,5,1,3,1019,RJFZ 191400Z 24007KT 9999 FEW040 05/03 Q1019 RMK 1SC040 A3010=,
20180119_150000.003,0,RJFZ,,,,0,20180119150000,-1,-1,-1,-1,250,-1,6,-1,-1,-1,-1,,9999,0,0,1,FEW 40,1,4,1,2,1019,RJFZ 191500Z 25006KT 9999 FEW040 04/02 Q1019 RMK 1SC040 A3010=,
20180119_160000.003,0,RJFZ,,,,0,20180119160000,-1,-1,-1,-1,250,-1,7,-1,-1,-1,-1,,9999,0,0,2,FEW 30   SCT 40,1,4,1,2,1019,RJFZ 191600Z 25007KT 9999 FEW030 SCT040 04/02 Q1019 RMK 1CU030     3SC040 A3010=,
20180119_170000.003,0,RJFZ,,,,0,20180119170000,-1,-1,-1,-1,260,-1,5,-1,-1,-1,-1,,9999,0,0,2,FEW 30   BKN 45,1,4,1,2,1019,RJFZ 191700Z 26005KT 9999 FEW030 BKN045 04/02 Q1019 RMK 1CU030     6SC045 A3010=,
20180119_180000.004,0,RJFZ,,,,0,20180119180000,-1,-1,-1,-1,250,-1,7,-1,-1,-1,-1,,8000,0,0,2,FEW 30   SCT 45,1,3,1,1,1019,RJFZ 191800Z 25007KT 8000 FEW030 SCT045 03/01 Q1019 RMK 1CU030     4SC045 A3011=,
20180119_190000.004,0,RJFZ,,,,0,20180119190000,-1,-1,-1,-1,250,-1,7,-1,-1,-1,-1,,8000,0,0,2,FEW 30   BKN 45,1,5,1,2,1019,RJFZ 191900Z 25007KT 8000 FEW030 BKN045 05/02 Q1019 RMK 1CU030     7SC045 A3010=,
20180119_200000.003,0,RJFZ,,,,0,20180119200000,-1,-1,-1,-1,250,-1,5,-1,-1,-1,-1,,8000,0,0,3,FEW 20   SCT 30   BKN 45,1,5,1,2,1018,RJFZ 192000Z 25005KT 8000 FEW020 SCT030 BKN045 05/02 Q1018 RMK     1CU020 4CU030 5SC045 A3009=,
20180119_210000.003,0,RJFZ,,,,0,20180119210000,-1,-1,-1,-1,240,-1,6,-1,-1,-1,-1,,8000,0,0,1,FEW 45,1,3,1,1,1019,RJFZ 192100Z 24006KT 8000 FEW045 03/01 Q1019 RMK 1SC045 A3009     13/03=,
20180119_220000.003,0,RJFZ,,,,0,20180119220000,-1,-1,-1,-1,230,-1,8,-1,-1,-1,-1,,7000,0,0,1,FEW 45,1,4,1,1,1019,RJFZ 192200Z 23008KT 7000 FEW045 04/01 Q1019 RMK 1SC045 A3010=,
20180119_230000.003,0,RJFZ,,,,0,20180119230000,-1,-1,-1,-1,250,-1,7,-1,-1,-1,-1,,9999,0,0,1,FEW 20,1,4,1,1,1019,RJFZ 192300Z 25007KT 9999 FEW020 04/01 Q1019 RMK 1CU020 A3011=,
20180120_000000.003,0,RJFZ,,,,0,20180120000000,-1,-1,-1,-1,260,-1,3,-1,-1,-1,-1,,9999,0,0,2,FEW 15   SCT 45,1,7,1,4,1020,RJFZ 200000Z 26003KT 9999 FEW015 SCT045 07/04 Q1020 RMK 2CU015     3SC045 A3012=,
20180120_010000.003,0,RJFZ,,,,0,20180120010000,-1,-1,-1,-1,320,-1,3,-1,-1,280,360,,9999,0,0,2,FEW 15   SCT 45,1,10,1,4,1020,RJFZ 200100Z 32003KT 280V360 9999 FEW015 SCT045 10/04 Q1020     RMK 2CU015 3SC045 A3014=,
20180120_020000.004,0,RJFZ,,,,0,20180120020000,-1,-1,-1,-1,30,-1,3,-1,-1,350,60,,9999,0,0,2,FEW 15   SCT 45,1,11,1,2,1021,RJFZ 200200Z 03003KT 350V060 9999 FEW015 SCT045 11/02 Q1021     RMK 2CU015 3SC045 A3016=,
20180120_030000.003,0,RJFZ,,,,0,20180120030000,-1,-1,-1,-1,50,-1,4,-1,-1,20,90,,9999,0,0,2,FEW 20   SCT 40,1,10,1,1,1020,RJFZ 200300Z 05004KT 020V090 9999 FEW020 SCT040 10/01 Q1020     RMK 1CU020 4SC040 A3014=,
20180120_040000.003,0,RJFZ,,,,0,20180120040000,-1,-1,-1,-1,60,-1,5,-1,-1,-1,-1,,9999,0,0,1,FEW 20,1,11,1,1,1019,RJFZ 200400Z 06005KT 9999 FEW020 11/01 Q1019 RMK 1CU020 A3010=,
20180120_050000.003,0,RJFZ,,,,0,20180120050000,-1,-1,-1,-1,50,-1,4,-1,-1,360,110,,9999,0,0,2,FEW 20   SCT 230,1,12,1,0,1018,RJFZ 200500Z 05004KT 360V110 9999 FEW020 SCT230 12/00 Q1018     RMK 1CU020 A3008=,
20180120_060000.003,0,RJFZ,,,,0,20180120060000,-1,-1,-1,-1,40,-1,3,-1,-1,10,80,,9999,0,0,3,FEW 30   SCT 50   BKN 230,1,11,1,1,1019,RJFZ 200600Z 04003KT 010V080 9999 FEW030 SCT050 BKN230 11/01     Q1019 RMK 1CU030 3SC050 A3009=,
20180120_070000.003,0,RJFZ,,,,0,20180120070000,-1,-1,-1,-1,350,-1,9,-1,-1,-1,-1,,9999,0,0,2,FEW 30   BKN 230,1,12,-1,2,1018,RJFZ 200700Z 35009KT 9999 FEW030 BKN230 12/M02 Q1018 RMK     1CU030 A3009=,
20180120_080000.003,0,RJFZ,,,,0,20180120080000,-1,-1,-1,-1,340,-1,7,-1,-1,-1,-1,,9999,0,0,2,FEW 30   BKN 230,1,10,-1,1,1019,RJFZ 200800Z 34007KT 9999 FEW030 BKN230 10/M01 Q1019 RMK     1CU030 A3010=,
20180120_090000.003,0,RJFZ,,,,0,20180120090000,-1,-1,-1,-1,310,-1,6,-1,-1,-1,-1,,9999,0,0,2,FEW 30   BKN 230,1,9,-1,1,1019,RJFZ 200900Z 31006KT 9999 FEW030 BKN230 09/M01 Q1019 RMK     1CU030 A3011=,
20180120_100000.003,0,RJFZ,,,,0,20180120100000,-1,-1,-1,-1,240,-1,4,-1,-1,-1,-1,,9999,0,0,2,FEW 30   BKN 230,1,7,1,1,1020,RJFZ 201000Z 24004KT 9999 FEW030 BKN230 07/01 Q1020 RMK 1CU030     A3012=,
20180120_110000.003,0,RJFZ,,,,0,20180120110000,-1,-1,-1,-1,230,-1,5,-1,-1,-1,-1,,9999,0,0,2,FEW 30   BKN -9999,1,5,1,1,1020,RJFZ 201100Z 23005KT 9999 FEW030 BKN/// 05/01 Q1020 RMK 1CU030     A3013=,
20180120_120000.003,0,RJFZ,,,,0,20180120120000,-1,-1,-1,-1,240,-1,6,-1,-1,-1,-1,,9999,0,0,2,FEW 30   BKN -9999,1,4,1,0,1020,RJFZ 201200Z 24006KT 9999 FEW030 BKN/// 04/00 Q1020 RMK 1CU030     A3014=,
20180120_130000.003,0,RJFZ,,,,0,20180120130000,-1,-1,-1,-1,250,-1,7,-1,-1,-1,-1,,9999,0,0,2,FEW 30   BKN -9999,1,3,-1,0,1020,RJFZ 201300Z 25007KT 9999 FEW030 BKN/// 03/M00 Q1020 RMK     1CU030 A3014=,
20180120_140000.003,0,RJFZ,,,,0,20180120140000,-1,-1,-1,-1,250,-1,7,-1,-1,-1,-1,,9999,0,0,2,FEW 30   SCT -9999,1,2,-1,1,1020,RJFZ 201400Z 25007KT 9999 FEW030 SCT/// 02/M01 Q1020 RMK     1CU030 A3014=,
20180120_150000.003,0,RJFZ,,,,0,20180120150000,-1,-1,-1,-1,250,-1,8,-1,-1,-1,-1,,9999,0,0,2,FEW 30   SCT -9999,1,2,-1,1,1020,RJFZ 201500Z 25008KT 9999 FEW030 SCT/// 02/M01 Q1020 RMK     1CU030 A3014=,
20180120_160000.003,0,RJFZ,,,,0,20180120160000,-1,-1,-1,-1,240,-1,7,-1,-1,-1,-1,,9999,0,0,1,FEW 30,1,1,-1,1,1020,RJFZ 201600Z 24007KT 9999 FEW030 01/M01 Q1020 RMK 1CU030     A3013=,
20180120_170000.003,0,RJFZ,,,,0,20180120170000,-1,-1,-1,-1,240,-1,7,-1,-1,-1,-1,,9999,0,0,1,FEW 30,1,2,-1,1,1020,RJFZ 201700Z 24007KT 9999 FEW030 02/M01 Q1020 RMK 2CU030     A3013=,
20180120_180000.003,0,RJFZ,,,,0,20180120180000,-1,-1,-1,-1,240,-1,7,-1,-1,-1,-1,,9999,0,0,1,FEW 30,1,3,-1,0,1020,RJFZ 201800Z 24007KT 9999 FEW030 03/M00 Q1020 RMK 2CU030     A3013=,
20180120_190000.004,0,RJFZ,,,,0,20180120190000,-1,-1,-1,-1,250,-1,8,-1,-1,-1,-1,,9999,0,0,2,FEW 30   SCT -9999,1,1,-1,1,1020,RJFZ 201900Z 25008KT 9999 FEW030 SCT/// 01/M01 Q1020 RMK     1CU030 A3013=,
20180120_200000.003,0,RJFZ,,,,0,20180120200000,-1,-1,-1,-1,240,-1,8,-1,-1,-1,-1,,9999,0,0,1,FEW 30,1,1,-1,2,1020,RJFZ 202000Z 24008KT 9999 FEW030 01/M02 Q1020 RMK 1CU030     A3013=,
20180120_210000.003,0,RJFZ,,,,0,20180120210000,-1,-1,-1,-1,240,-1,8,-1,-1,-1,-1,,9999,0,0,1,FEW 30,1,1,-1,2,1020,RJFZ 202100Z 24008KT 9999 FEW030 01/M02 Q1020 RMK 1CU030 A3014     12/00=,
20180120_220000.003,0,RJFZ,,,,0,20180120220000,-1,-1,-1,-1,240,-1,8,-1,-1,-1,-1,,9999,0,0,1,FEW 30,-1,1,-1,3,1021,RJFZ 202200Z 24008KT 9999 FEW030 M01/M03 Q1021 RMK 1CU030     A3015=,
20180120_230000.003,0,RJFZ,,,,0,20180120230000,-1,-1,-1,-1,250,-1,7,-1,-1,-1,-1,,9999,0,0,1,FEW 200,1,1,-1,1,1021,RJFZ 202300Z 25007KT 9999 FEW200 01/M01 Q1021 RMK A3016=,
20180121_000000.003,0,RJFZ,,,,0,20180121000000,-1,-1,-1,-1,250,-1,7,-1,-1,-1,-1,,9999,0,0,1,FEW 200,1,5,1,1,1021,RJFZ 210000Z 25007KT 9999 FEW200 05/01 Q1021 RMK A3017=,
20180121_010000.003,0,RJFZ,,,,0,20180121010000,-1,-1,-1,-1,230,-1,5,-1,-1,-1,-1,,9999,0,0,1,FEW 200,1,10,1,2,1021,RJFZ 210100Z 23005KT 9999 FEW200 10/02 Q1021 RMK A3017=,
20180121_020000.003,0,RJFZ,,,,0,20180121020000,-1,-1,-1,-1,30,-1,3,-1,-1,350,70,,9999,0,0,2,FEW 30   SCT 45,1,11,-1,1,1021,RJFZ 210200Z 03003KT 350V070 9999 FEW030 SCT045 11/M01 Q1021     RMK 1CU030 3SC045 A3017=,
20180121_030000.003,0,RJFZ,,,,0,20180121030000,-1,-1,-1,-1,40,-1,3,-1,-1,350,90,,9999,0,0,2,FEW 30   BKN 45,1,10,1,1,1021,RJFZ 210300Z 04003KT 350V090 9999 FEW030 BKN045 10/01 Q1021     RMK 1CU030 5SC045 A3016=,
20180121_040000.004,0,RJFZ,,,,0,20180121040000,-1,-1,-1,-1,999,-1,2,-1,-1,-1,-1,,9999,0,0,2,FEW 30   SCT 45,1,10,1,1,1020,RJFZ 210400Z VRB02KT 9999 FEW030 SCT045 10/01 Q1020 RMK 1CU030     3SC045 A3014=,
20180121_050000.003,0,RJFZ,,,,0,20180121050000,-1,-1,-1,-1,20,-1,3,-1,-1,350,50,,9999,0,0,2,FEW 30   SCT 45,1,11,1,1,1020,RJFZ 210500Z 02003KT 350V050 9999 FEW030 SCT045 11/01 Q1020     RMK 1CU030 3SC045 A3012=,
20180121_060000.003,0,RJFZ,,,,0,20180121060000,-1,-1,-1,-1,350,-1,3,-1,-1,-1,-1,,9999,0,0,2,FEW 35   BKN 230,1,11,-1,3,1019,RJFZ 210600Z 35003KT 9999 FEW035 BKN230 11/M03 Q1019 RMK     1CU035 A3011=,
20180121_070000.003,0,RJFZ,,,,0,20180121070000,-1,-1,-1,-1,999,-1,2,-1,-1,-1,-1,,9999,0,0,2,FEW 35   BKN 220,1,11,-1,2,1019,RJFZ 210700Z VRB02KT 9999 FEW035 BKN220 11/M02 Q1019 RMK     1CU035 A3011=,
20180121_080000.003,0,RJFZ,,,,0,20180121080000,-1,-1,-1,-1,999,-1,1,-1,-1,-1,-1,,9999,0,0,2,FEW 35   BKN 200,1,10,-1,1,1019,RJFZ 210800Z VRB01KT 9999 FEW035 BKN200 10/M01 Q1019 RMK     1CU035 A3011=,
20180121_090000.003,0,RJFZ,,,,0,20180121090000,-1,-1,-1,-1,20,-1,11,-1,-1,-1,-1,,9999,0,0,3,FEW 30   SCT 180   BKN 200,1,9,1,0,1020,RJFZ 210900Z 02011KT 9999 FEW030 SCT180 BKN200 09/00 Q1020 RMK     1CU030 3AC180 A3012=,
20180121_100000.003,0,RJFZ,,,,0,20180121100000,-1,-1,-1,-1,20,-1,10,-1,-1,-1,-1,,9999,0,0,3,FEW 30   BKN 180   BKN -9999,1,9,1,0,1019,RJFZ 211000Z 02010KT 9999 FEW030 BKN180 BKN/// 09/00 Q1019 RMK     1CU030 5AC180 A3011=,
20180121_110000.003,0,RJFZ,,,,0,20180121110000,-1,-1,-1,-1,50,-1,5,-1,-1,10,100,,9999,0,0,3,FEW 30   BKN 180   BKN -9999,1,7,1,1,1019,RJFZ 211100Z 05005KT 010V100 9999 FEW030 BKN180 BKN/// 07/01     Q1019 RMK 1CU030 6AC180 A3012=,
20180121_120000.003,0,RJFZ,,,,0,20180121120000,-1,-1,-1,-1,60,-1,8,-1,-1,30,90,,9999,0,0,2,FEW 35   SCT 180,1,5,1,0,1019,RJFZ 211200Z 06008KT 030V090 9999 FEW035 SCT180 05/00 Q1019     RMK 1CU035 4AC180 A3012=,
20180121_130000.004,0,RJFZ,,,,0,20180121130000,-1,-1,-1,-1,220,-1,3,-1,-1,190,250,,9999,0,0,3,FEW 35   SCT 170   BKN -9999,1,4,1,1,1019,RJFZ 211300Z 22003KT 190V250 9999 FEW035 SCT170 BKN/// 04/01     Q1019 RMK 1CU035 3AC170 A3010=,
20180121_140000.003,0,RJFZ,,,,0,20180121140000,-1,-1,-1,-1,230,-1,3,-1,-1,-1,-1,,9999,0,0,3,FEW 35   BKN 180   BKN -9999,1,3,1,0,1018,RJFZ 211400Z 23003KT 9999 FEW035 BKN180 BKN/// 03/00 Q1018 RMK     1CU035 7AC180 A3009=,
20180121_150000.003,0,RJFZ,,,,0,20180121150000,-1,-1,-1,-1,999,-1,1,-1,-1,-1,-1,,9999,0,0,3,FEW 35   BKN 150   BKN 170,1,3,1,0,1018,RJFZ 211500Z VRB01KT 9999 FEW035 BKN150 BKN170 03/00 Q1018 RMK     1CU035 6AC150 7AC170 A3007=,
20180121_160000.003,0,RJFZ,,,,0,20180121160000,-1,-1,-1,-1,230,-1,3,-1,-1,200,290,,9999,0,0,3,FEW 35   BKN 150   BKN 170,1,3,1,0,1017,RJFZ 211600Z 23003KT 200V290 9999 FEW035 BKN150 BKN170 03/00     Q1017 RMK 1CU035 6AC150 7AC170 A3005=,
20180121_170000.003,0,RJFZ,,,,0,20180121170000,-1,-1,-1,-1,220,-1,3,-1,-1,-1,-1,,9999,0,0,3,FEW 30   SCT 120   BKN 140,1,3,1,1,1017,RJFZ 211700Z 22003KT 9999 FEW030 SCT120 BKN140 03/01 Q1017 RMK     1CU030 3AC120 7AC140 A3004=,
20180121_180000.003,0,RJFZ,,,,0,20180121180000,-1,-1,-1,-1,200,-1,4,-1,-1,-1,-1,,9999,0,0,3,FEW 30   BKN 120   BKN 140,1,3,1,1,1016,RJFZ 211800Z 20004KT 9999 FEW030 BKN120 BKN140 03/01 Q1016 RMK     1CU030 6AC120 7AC140 A3003=,
20180121_190000.003,0,RJFZ,,,,0,20180121190000,-1,-1,-1,-1,999,-1,1,-1,-1,-1,-1,,9999,0,0,3,FEW 25   SCT 80   BKN 100,1,5,1,1,1015,RJFZ 211900Z VRB01KT 9999 FEW025 SCT080 BKN100 05/01 Q1015 RMK     1CU025 3AC080 6AC100 A3000=,
20180121_200000.003,0,RJFZ,,,,0,20180121200000,-1,-1,-1,-1,999,-1,2,-1,-1,-1,-1,,9999,0,0,3,FEW 25   BKN 70   BKN 100,1,5,1,1,1015,RJFZ 212000Z VRB02KT 9999 FEW025 BKN070 BKN100 05/01 Q1015 RMK     1CU025 6AC070 7AC100 A2998=,
20180121_210000.003,0,RJFZ,,,,0,20180121210000,-1,-1,-1,-1,250,-1,3,-1,-1,160,270,,9999,0,1,3,FEW 25   BKN 45   OVC 80,1,5,1,2,1015,RJFZ 212100Z 25003KT 160V270 9999 -RA FEW025 BKN045 OVC080     05/02 Q1015 RMK 1CU025 6SC045 8AS080 A2998 12/02 R000=,- RA
20180121_220000.003,0,RJFZ,,,,0,20180121220000,-1,-1,-1,-1,250,-1,3,-1,-1,-1,-1,,9999,0,1,3,FEW 20   BKN 30   BKN 45,1,5,1,3,1015,RJFZ 212200Z 25003KT 9999 -RA FEW020 BKN030 BKN045 05/03 Q1015     RMK 1CU020 5CU030 7SC045 A2998=,- RA
20180121_230000.003,0,RJFZ,,,,0,20180121230000,-1,-1,-1,-1,250,-1,6,-1,-1,-1,-1,,6000,0,1,3,FEW 10   BKN 20   OVC 45,1,5,1,3,1015,RJFZ 212300Z 25006KT 6000 -RA FEW010 BKN020 OVC045 05/03 Q1015     RMK 2ST010 6CU020 8SC045 A2999=,- RA
20180122_000000.003,0,RJFZ,,,,0,20180122000000,-1,-1,-1,-1,90,-1,5,-1,-1,20,170,,8000,0,1,3,FEW 5   SCT 8   BKN 15,1,5,1,3,1016,RJFZ 220000Z 09005KT 020V170 8000 -RA FEW005 SCT008 BKN015     05/03 Q1016 RMK 2ST005 3ST008 6CU015 A3000=,- RA
20180122_010000.003,0,RJFZ,,,,0,20180122010000,-1,-1,-1,-1,80,-1,7,-1,-1,-1,-1,,8000,0,1,3,FEW 5   BKN 15   OVC 40,1,4,1,1,1016,RJFZ 220100Z 08007KT 8000 RA FEW005 BKN015 OVC040 04/01 Q1016     RMK 1ST005 7CU015 8SC040 A3001 1ST005 OVER AD 2ST008           NW-N=,RA
20180122_020000.003,0,RJFZ,,,,0,20180122020000,-1,-1,-1,-1,100,-1,7,-1,-1,-1,-1,,9999,0,1,3,FEW 6   BKN 10   BKN 15,1,3,1,1,1015,RJFZ 220200Z 10007KT 9999 -RA FEW006 BKN010 BKN015 03/01 Q1015     RMK 1ST006 5ST010 7CU015 A2999=,- RA
20180122_030000.003,0,RJFZ,,,,0,20180122030000,-1,-1,-1,-1,70,-1,3,-1,-1,-1,-1,,9999,0,1,3,FEW 6   BKN 10   BKN 15,1,2,1,0,1015,RJFZ 220300Z 07003KT 9999 -SHRASN FEW006 BKN010 BKN015 02/00     Q1015 RMK 2ST006 6ST010 7CU015 A2997 2ST006 W-NE=,- RA SN SH
20180122_040000.003,0,RJFZ,,,,0,20180122040000,-1,-1,-1,-1,200,-1,3,-1,-1,170,240,,9999,0,1,3,FEW 3   SCT 6   BKN 10,1,2,1,0,1013,RJFZ 220400Z 20003KT 170V240 9999 -SHRASN FEW003 SCT006 BKN010     02/00 Q1013 RMK 1ST003 3ST006 6ST010 A2994 1ST003 W           3ST006 OVER AD=,- RA SN SH
20180122_050000.003,0,RJFZ,,,,0,20180122050000,-1,-1,-1,-1,230,-1,4,-1,-1,190,250,,9999,0,1,3,FEW 6   SCT 10   BKN 15,1,3,1,1,1013,RJFZ 220500Z 23004KT 190V250 9999 -SHRA FEW006 SCT010 BKN015     03/01 Q1013 RMK 2ST006 3ST010 5CU015 A2993 2ST006 NW-NE=,- RA SH
20180122_060000.004,0,RJFZ,,,,0,20180122060000,-1,-1,-1,-1,250,-1,4,-1,-1,230,290,,9999,0,0,2,FEW 8   BKN 60,1,5,1,2,1012,RJFZ 220600Z 25004KT 230V290 9999 FEW008 BKN060 05/02 Q1012     RMK 1ST008 5SC060 A2991 1ST008 N-NE=,
20180122_070000.003,0,RJFZ,,,,0,20180122070000,-1,-1,-1,-1,260,-1,4,-1,-1,230,300,,9999,0,0,1,FEW 8,1,6,1,2,1013,RJFZ 220700Z 26004KT 230V300 9999 FEW008 06/02 Q1013 RMK     1ST008 A2992 1ST008 N=,
20180122_080000.004,0,RJFZ,,,,0,20180122080000,-1,-1,-1,-1,999,-1,1,-1,-1,-1,-1,,9999,0,0,2,FEW 8   BKN 15,1,7,1,3,1013,RJFZ 220800Z VRB01KT 9999 FEW008 BKN015 07/03 Q1013 RMK 1ST008     6CU015 A2994 1ST008 N=,
20180122_090000.003,0,RJFZ,,,,0,20180122090000,-1,-1,-1,-1,220,-1,8,-1,-1,-1,-1,,9999,0,0,3,FEW 10   SCT 20   BKN 80,1,5,1,2,1014,RJFZ 220900Z 22008KT 9999 FEW010 SCT020 BKN080 05/02 Q1014 RMK     1CU010 3CU020 6AC080 A2995=,
20180122_100000.003,0,RJFZ,,,,0,20180122100000,-1,-1,-1,-1,210,-1,4,-1,-1,170,230,,9999,0,0,1,FEW 10,1,4,1,1,1014,RJFZ 221000Z 21004KT 170V230 9999 FEW010 04/01 Q1014 RMK     1CU010 A2996=,
20180122_110000.004,0,RJFZ,,,,0,20180122110000,-1,-1,-1,-1,230,-1,5,-1,-1,-1,-1,,9999,0,0,1,FEW 20,1,3,1,1,1014,RJFZ 221100Z 23005KT 9999 FEW020 03/01 Q1014 RMK 1CU020 A2995=,
20180122_120000.003,0,RJFZ,,,,0,20180122120000,-1,-1,-1,-1,250,-1,5,-1,-1,-1,-1,,9999,0,0,1,FEW 30,1,1,-1,0,1014,RJFZ 221200Z 25005KT 9999 FEW030 01/M00 Q1014 RMK 1CU030     A2995=,
20180122_130000.004,0,RJFZ,,,,0,20180122130000,-1,-1,-1,-1,260,-1,6,-1,-1,-1,-1,,9999,0,0,1,FEW 30,1,2,1,0,1014,RJFZ 221300Z 26006KT 9999 FEW030 02/00 Q1014 RMK 1CU030 A2995=,
20180122_140000.004,0,RJFZ,,,,0,20180122140000,-1,-1,-1,-1,240,-1,5,-1,-1,-1,-1,,9999,0,0,2,FEW 30   SCT 50,1,3,1,1,1013,RJFZ 221400Z 24005KT 9999 FEW030 SCT050 03/01 Q1013 RMK 2CU030     3SC050 A2994=,
20180122_150000.003,0,RJFZ,,,,0,20180122150000,-1,-1,-1,-1,250,-1,4,-1,-1,-1,-1,,9999,0,0,3,FEW 15   BKN 35   BKN 50,1,3,1,1,1013,RJFZ 221500Z 25004KT 9999 FEW015 BKN035 BKN050 03/01 Q1013 RMK     1CU015 5CU035 6SC050 A2992=,
20180122_160000.003,0,RJFZ,,,,0,20180122160000,-1,-1,-1,-1,300,-1,3,-1,-1,270,330,,9999,0,0,2,FEW 15   SCT 35,1,4,1,2,1012,RJFZ 221600Z 30003KT 270V330 9999 FEW015 SCT035 04/02 Q1012     RMK 1CU015 3CU035 A2991=,
20180122_170000.003,0,RJFZ,,,,0,20180122170000,-1,-1,-1,-1,240,-1,3,-1,-1,-1,-1,,9999,0,0,3,FEW 15   BKN 35   BKN 60,1,5,1,2,1012,RJFZ 221700Z 24003KT 9999 FEW015 BKN035 BKN060 05/02 Q1012 RMK     1CU015 5CU035 5SC060 A2990=,
20180122_180000.003,0,RJFZ,,,,0,20180122180000,-1,-1,-1,-1,260,-1,7,-1,-1,-1,-1,,9999,0,0,3,FEW 15   BKN 30   BKN 50,1,7,1,3,1012,RJFZ 221800Z 26007KT 9999 FEW015 BKN030 BKN050 07/03 Q1012 RMK     1CU015 5CU030 7SC050 A2990=,
20180122_190000.003,0,RJFZ,,,,0,20180122190000,-1,-1,-1,-1,270,-1,10,-1,-1,-1,-1,,9999,0,0,3,FEW 15   BKN 30   BKN 50,1,7,1,3,1012,RJFZ 221900Z 27010KT 9999 FEW015 BKN030 BKN050 07/03 Q1012 RMK     1CU015 6CU030 6SC050 A2991=,
20180122_200000.003,0,RJFZ,,,,0,20180122200000,-1,-1,-1,-1,270,-1,10,-1,-1,-1,-1,,9999,0,0,3,FEW 15   BKN 30   BKN 50,1,7,1,3,1013,RJFZ 222000Z 27010KT 9999 FEW015 BKN030 BKN050 07/03 Q1013 RMK     1CU015 6CU030 6SC050 A2992=,
20180122_210000.004,0,RJFZ,,,,0,20180122210000,-1,-1,-1,-1,270,-1,16,-1,-1,-1,-1,,9999,0,0,2,FEW 15   BKN 30,1,7,1,1,1013,RJFZ 222100Z 27016KT 9999 FEW015 BKN030 07/01 Q1013 RMK 1CU015     5CU030 A2994 08/01 R017 S000=,
20180122_220000.003,0,RJFZ,,,,0,20180122220000,-1,-1,-1,-1,270,-1,10,-1,-1,-1,-1,,9999,0,0,1,FEW 30,1,6,1,0,1014,RJFZ 222200Z 27010KT 9999 FEW030 06/00 Q1014 RMK 1CU030 A2997=,
20180122_230000.004,0,RJFZ,,,,0,20180122230000,-1,-1,-1,-1,260,-1,12,-1,-1,-1,-1,,9999,0,0,2,FEW 20   SCT 30,1,6,1,0,1015,RJFZ 222300Z 26012KT 9999 FEW020 SCT030 06/00 Q1015 RMK 1CU020     3CU030 A3000 MAX WIND 19KT=,
20180123_000000.003,0,RJFZ,,,,0,20180123000000,-1,-1,-1,-1,280,-1,15,-1,25,-1,-1,,9999,0,0,2,FEW 20   SCT 30,1,7,-1,0,1016,RJFZ 230000Z 28015G25KT 9999 FEW020 SCT030 07/M00 Q1016 RMK     1CU020 3CU030 A3002=,
20180123_010000.003,0,RJFZ,,,,0,20180123010000,-1,-1,-1,-1,280,-1,18,-1,-1,-1,-1,,9999,0,0,2,FEW 25   SCT 35,1,7,-1,2,1017,RJFZ 230100Z 28018KT 9999 FEW025 SCT035 07/M02 Q1017 RMK     1CU025 3CU035 A3005 MAX WIND 24KT=,
20180123_020000.003,0,RJFZ,,,,0,20180123020000,-1,-1,-1,-1,280,-1,17,-1,-1,-1,-1,,9000,0,1,3,FEW 10   SCT 15   BKN 20,1,4,1,1,1018,RJFZ 230200Z 28017KT 9000 -SHRA FEW010 SCT015 BKN020 04/01     Q1018 RMK 1CU010 3CU015 6CU020 A3008 MAX WIND 24KT VIS           SW-NW 5KM=,- RA SH
20180123_030000.004,0,RJFZ,,,,0,20180123030000,-1,-1,-1,-1,270,-1,14,-1,-1,-1,-1,,9999,0,1,3,FEW 10   SCT 15   BKN 20,1,5,1,2,1018,RJFZ 230300Z 27014KT 9999 -SHRA FEW010 SCT015 BKN020 05/02     Q1018 RMK 1CU010 3CU015 5CU020 A3008=,- RA SH
20180123_040000.004,0,RJFZ,,,,0,20180123040000,-1,-1,-1,-1,270,-1,16,-1,-1,-1,-1,,9999,0,1,3,FEW 15   SCT 20   BKN 35,1,6,1,0,1017,RJFZ 230400Z 27016KT 9999 -SHRA FEW015 SCT020 BKN035 06/00     Q1017 RMK 2CU015 4CU020 7CU035 A3006 MAX WIND 25KT=,- RA SH
20180123_050000.003,0,RJFZ,,,,0,20180123050000,-1,-1,-1,-1,280,-1,20,-1,31,-1,-1,,9999,0,0,3,FEW 20   SCT 35   BKN 90,1,6,-1,4,1017,RJFZ 230500Z 28020G31KT 9999 FEW020 SCT035 BKN090 06/M04 Q1017     RMK 1CU020 4CU035 6AC090 A3005=,
20180123_060000.004,0,RJFZ,,,,0,20180123060000,-1,-1,-1,-1,280,-1,18,-1,-1,-1,-1,,9999,0,0,3,FEW 20   SCT 35   BKN 90,1,6,-1,6,1017,RJFZ 230600Z 28018KT 9999 FEW020 SCT035 BKN090 06/M06 Q1017     RMK 1CU020 3CU035 5AC090 A3005 MAX WIND 27KT=,
20180123_070000.003,0,RJFZ,,,,0,20180123070000,-1,-1,-1,-1,280,-1,16,-1,-1,-1,-1,,9999,0,0,2,FEW 20   BKN 35,1,5,-1,5,1017,RJFZ 230700Z 28016KT 9999 FEW020 BKN035 05/M05 Q1017 RMK     1CU020 5CU035 A3006 MAX WIND 24KT=,
20180123_080000.003,0,RJFZ,,,,0,20180123080000,-1,-1,-1,-1,270,-1,15,-1,-1,-1,-1,,9999,0,0,2,FEW 20   BKN 35,1,4,-1,5,1018,RJFZ 230800Z 27015KT 9999 FEW020 BKN035 04/M05 Q1018 RMK     1CU020 7CU035 A3007 MAX WIND 24KT=,
20180123_090000.003,0,RJFZ,,,,0,20180123090000,-1,-1,-1,-1,260,-1,13,-1,-1,-1,-1,,9999,0,0,2,FEW 20   BKN 40,1,3,-1,6,1018,RJFZ 230900Z 26013KT 9999 FEW020 BKN040 03/M06 Q1018 RMK     1CU020 7CU040 A3008=,
20180123_100000.003,0,RJFZ,,,,0,20180123100000,-1,-1,-1,-1,260,-1,13,-1,-1,-1,-1,,9999,0,1,2,FEW 20   BKN 40,1,3,-1,6,1019,RJFZ 231000Z 26013KT 9999 VCSH FEW020 BKN040 03/M06 Q1019 RMK     1CU020 7CU040 A3009 MAX WIND 20KT=,VC SH
20180123_110000.003,0,RJFZ,,,,0,20180123110000,-1,-1,-1,-1,260,-1,13,-1,-1,-1,-1,,9999,0,0,2,FEW 20   BKN 45,1,2,-1,7,1019,RJFZ 231100Z 26013KT 9999 FEW020 BKN045 02/M07 Q1019 RMK     1CU020 6CU045 A3010=,
20180123_120000.003,0,RJFZ,,,,0,20180123120000,-1,-1,-1,-1,260,-1,13,-1,-1,-1,-1,,9999,0,0,2,FEW 20   BKN 40,1,2,-1,8,1019,RJFZ 231200Z 26013KT 9999 FEW020 BKN040 02/M08 Q1019 RMK     1CU020 6CU040 A3011=,
20180123_130000.003,0,RJFZ,,,,0,20180123130000,-1,-1,-1,-1,270,-1,13,-1,-1,-1,-1,,9999,0,0,2,FEW 20   BKN 40,1,2,-1,8,1019,RJFZ 231300Z 27013KT 9999 FEW020 BKN040 02/M08 Q1019 RMK     1CU020 7CU040 A3011=,
20180123_140000.003,0,RJFZ,,,,0,20180123140000,-1,-1,-1,-1,270,-1,18,-1,-1,-1,-1,,9999,0,0,2,FEW 20   BKN 40,1,2,-1,8,1019,RJFZ 231400Z 27018KT 9999 FEW020 BKN040 02/M08 Q1019 RMK     1CU020 7CU040 A3011 MAX WIND 24KT=,
20180123_150000.003,0,RJFZ,,,,0,20180123150000,-1,-1,-1,-1,270,-1,17,-1,-1,-1,-1,,9999,0,0,2,FEW 20   BKN 40,1,1,-1,9,1019,RJFZ 231500Z 27017KT 9999 FEW020 BKN040 01/M09 Q1019 RMK     1CU020 6CU040 A3011=,
20180123_160000.003,0,RJFZ,,,,0,20180123160000,-1,-1,-1,-1,270,-1,12,-1,-1,-1,-1,,9999,0,0,2,FEW 20   BKN 40,1,1,-1,8,1020,RJFZ 231600Z 27012KT 9999 FEW020 BKN040 01/M08 Q1020 RMK     1CU020 7CU040 A3013 MAX WIND 19KT=,
20180123_170000.003,0,RJFZ,,,,0,20180123170000,-1,-1,-1,-1,270,-1,12,-1,-1,-1,-1,,9999,0,0,2,FEW 20   BKN 40,1,1,-1,8,1020,RJFZ 231700Z 27012KT 9999 FEW020 BKN040 01/M08 Q1020 RMK     1CU020 7CU040 A3013=,
20180123_180000.003,0,RJFZ,,,,0,20180123180000,-1,-1,-1,-1,310,-1,8,-1,-1,-1,-1,,9999,0,1,2,FEW 20   BKN 40,1,1,-1,8,1020,RJFZ 231800Z 31008KT 9999 VCSH FEW020 BKN040 01/M08 Q1020 RMK     1CU020 7CU040 A3013 VCSH N=,VC SH
20180123_190000.003,0,RJFZ,,,,0,20180123190000,-1,-1,-1,-1,280,-1,13,-1,-1,-1,-1,,9999,0,1,2,FEW 20   BKN 40,1,1,-1,8,1020,RJFZ 231900Z 28013KT 9999 -SHSN FEW020 BKN040 01/M08 Q1020 RMK     1CU020 7CU040 A3012=,- SN SH
20180123_200000.003,0,RJFZ,,,,0,20180123200000,-1,-1,-1,-1,290,-1,13,-1,-1,-1,-1,,9999,0,0,2,FEW 30   BKN 40,1,1,-1,9,1020,RJFZ 232000Z 29013KT 9999 FEW030 BKN040 01/M09 Q1020 RMK     1CU030 7CU040 A3013=,
20180123_210000.003,0,RJFZ,,,,0,20180123210000,-1,-1,-1,-1,280,-1,16,-1,-1,-1,-1,,9999,0,1,2,FEW 30   BKN 40,1,1,-1,8,1020,RJFZ 232100Z 28016KT 9999 -SHSN FEW030 BKN040 01/M08 Q1020 RMK     1CU030 7CU040 A3013 29033KT/0440 08/00 R001 S000=,- SN SH
20180123_220000.003,0,RJFZ,,,,0,20180123220000,-1,-1,-1,-1,280,-1,15,-1,-1,-1,-1,,9999,0,0,2,FEW 30   BKN 40,1,1,-1,8,1021,RJFZ 232200Z 28015KT 9999 FEW030 BKN040 01/M08 Q1021 RMK     1CU030 7CU040 A3015 MAX WIND 24KT=,
20180123_230000.003,0,RJFZ,,,,0,20180123230000,-1,-1,-1,-1,290,-1,12,-1,-1,260,320,,9999,0,1,3,FEW 20   BKN 30   BKN 40,1,1,-1,8,1021,RJFZ 232300Z 29012KT 260V320 9999 -SHSN FEW020 BKN030 BKN040     01/M08 Q1021 RMK 2CU020 5CU030 7CU040 A3017 MAX WIND 21KT           VIS W-NW 5KM=,- SN SH
20180124_000000.003,0,RJFZ,,,,0,20180124000000,-1,-1,-1,-1,280,-1,11,-1,-1,-1,-1,,9999,0,1,3,FEW 20   SCT 30   BKN 40,1,2,-1,7,1022,RJFZ 240000Z 28011KT 9999 VCSH FEW020 SCT030 BKN040 02/M07     Q1022 RMK 1CU020 3CU030 6CU040 A3019 MAX WIND 18KT=,VC SH
20180124_010000.004,0,RJFZ,,,,0,20180124010000,-1,-1,-1,-1,300,-1,18,-1,-1,-1,-1,,9999,0,1,2,FEW 30   BKN 40,1,3,-1,10,1022,RJFZ 240100Z 30018KT 9999 VCSH FEW030 BKN040 03/M10 Q1022 RMK     1CU030 5CU040 A3019 MAX WIND 27KT=,VC SH
20180124_020000.003,0,RJFZ,,,,0,20180124020000,-1,-1,-1,-1,310,-1,12,-1,-1,-1,-1,,5000,1,1,3,FEW 5   BKN 8   BKN 10,-1,1,-1,4,1022,RJFZ 240200Z 31012KT 5000 R25/0900VP1800D -SHSN FEW005 BKN008     BKN010 M01/M04 Q1022 RMK 1CU005 5CU008 6CU010 A3020 R1200           VIS W-N 2500M=,- SN SH
20180124_030000.003,0,RJFZ,,,,0,20180124030000,-1,-1,-1,-1,300,-1,13,-1,-1,-1,-1,,1000,1,1,3,SCT 5   BKN 8   OVC 15,-1,1,-1,4,1022,RJFZ 240300Z 30013KT 1000 R25/0800V1500D -SHSN SCT005 BKN008     OVC015 M01/M04 Q1022 RMK 3CU005 7CU008 8CU015 A3021 R1000           VIS SW-N 800M=,- SN SH
20180124_040000.003,0,RJFZ,,,,0,20180124040000,-1,-1,-1,-1,310,-1,15,-1,-1,-1,-1,,2500,0,1,3,FEW 8   BKN 10   BKN 15,-1,1,-1,5,1022,RJFZ 240400Z 31015KT 2500 -SHSN FEW008 BKN010 BKN015 M01/M05     Q1022 RMK 1CU008 5CU010 7CU015 A3019 MAX WIND 24KT VIS           SW-W 2000M NW 3000M=,- SN SH
20180124_050000.003,0,RJFZ,,,,0,20180124050000,-1,-1,-1,-1,310,-1,17,-1,-1,-1,-1,,3000,0,1,3,FEW 10   SCT 15   BKN 25,-1,0,-1,5,1022,RJFZ 240500Z 31017KT 3000 -SHSN FEW010 SCT015 BKN025 M00/M05     Q1022 RMK 1CU010 4CU015 7CU025 A3018 MAX WIND 26KT VIS           W-N 2000M=,- SN SH
20180124_060000.003,0,RJFZ,,,,0,20180124060000,-1,-1,-1,-1,290,-1,17,-1,-1,-1,-1,,9999,0,1,3,FEW 15   SCT 25   BKN 35,-1,1,-1,8,1022,RJFZ 240600Z 29017KT 9999 -SHSN FEW015 SCT025 BKN035 M01/M08     Q1022 RMK 1CU015 3CU025 6CU035 A3019 MAX WIND 24KT VIS NW           8KM=,- SN SH
20180124_070000.003,0,RJFZ,,,,0,20180124070000,-1,-1,-1,-1,290,-1,16,-1,-1,-1,-1,,9999,0,1,2,FEW 15   BKN 35,-1,0,-1,9,1022,RJFZ 240700Z 29016KT 9999 -SHSN FEW015 BKN035 M00/M09 Q1022     RMK 1CU015 5CU035 A3019 MAX WIND 25KT=,- SN SH
20180124_080000.003,0,RJFZ,,,,0,20180124080000,-1,-1,-1,-1,310,-1,17,-1,-1,-1,-1,,9999,0,1,3,FEW 10   SCT 15   BKN 35,-1,1,-1,10,1022,RJFZ 240800Z 31017KT 9999 -SHSN FEW010 SCT015 BKN035 M01/M10     Q1022 RMK 1CU010 3CU015 6CU035 A3020=,- SN SH
20180124_090000.004,0,RJFZ,,,,0,20180124090000,-1,-1,-1,-1,310,-1,11,-1,-1,-1,-1,,9999,0,0,3,FEW 10   SCT 15   BKN 35,-1,1,-1,9,1023,RJFZ 240900Z 31011KT 9999 FEW010 SCT015 BKN035 M01/M09 Q1023     RMK 1CU010 3CU015 6CU035 A3021=,
20180124_100000.003,0,RJFZ,,,,0,20180124100000,-1,-1,-1,-1,290,-1,9,-1,-1,-1,-1,,9999,0,0,3,FEW 10   SCT 15   BKN 35,-1,2,-1,9,1022,RJFZ 241000Z 29009KT 9999 FEW010 SCT015 BKN035 M02/M09 Q1022     RMK 1CU010 3CU015 5CU035 A3019=,
20180124_110000.003,0,RJFZ,,,,0,20180124110000,-1,-1,-1,-1,290,-1,9,-1,-1,-1,-1,,9999,0,0,3,FEW 15   SCT 35   BKN 50,-1,2,-1,8,1022,RJFZ 241100Z 29009KT 9999 FEW015 SCT035 BKN050 M02/M08 Q1022     RMK 2CU015 4CU035 7SC050 A3019=,
20180124_120000.003,0,RJFZ,,,,0,20180124120000,-1,-1,-1,-1,260,-1,10,-1,-1,-1,-1,,9999,0,0,3,FEW 15   SCT 35   BKN 50,-1,2,-1,8,1022,RJFZ 241200Z 26010KT 9999 FEW015 SCT035 BKN050 M02/M08 Q1022     RMK 1CU015 3CU035 5SC050 A3019=,
20180124_130000.003,0,RJFZ,,,,0,20180124130000,-1,-1,-1,-1,250,-1,10,-1,-1,-1,-1,,9999,0,0,3,FEW 15   SCT 35   BKN 50,-1,2,-1,8,1022,RJFZ 241300Z 25010KT 9999 FEW015 SCT035 BKN050 M02/M08 Q1022     RMK 1CU015 3CU035 5SC050 A3019=,
20180124_140000.004,0,RJFZ,,,,0,20180124140000,-1,-1,-1,-1,250,-1,10,-1,-1,-1,-1,,9999,0,0,3,FEW 15   SCT 35   BKN 50,-1,2,-1,8,1021,RJFZ 241400Z 25010KT 9999 FEW015 SCT035 BKN050 M02/M08 Q1021     RMK 1CU015 3CU035 5SC050 A3018=,
20180124_150000.003,0,RJFZ,,,,0,20180124150000,-1,-1,-1,-1,280,-1,10,-1,-1,-1,-1,,9999,0,0,3,FEW 15   SCT 35   BKN 45,-1,1,-1,9,1021,RJFZ 241500Z 28010KT 9999 FEW015 SCT035 BKN045 M01/M09 Q1021     RMK 1CU015 3CU035 5CU045 A3016=,
20180124_160000.003,0,RJFZ,,,,0,20180124160000,-1,-1,-1,-1,270,-1,7,-1,-1,-1,-1,,9999,0,0,3,FEW 15   SCT 35   BKN 45,-1,1,-1,9,1021,RJFZ 241600Z 27007KT 9999 FEW015 SCT035 BKN045 M01/M09 Q1021     RMK 1CU015 3CU035 5CU045 A3017=,
20180124_170000.003,0,RJFZ,,,,0,20180124170000,-1,-1,-1,-1,260,-1,6,-1,-1,230,290,,9999,0,0,3,FEW 15   SCT 35   BKN 45,-1,2,-1,9,1022,RJFZ 241700Z 26006KT 230V290 9999 FEW015 SCT035 BKN045 M02/M09     Q1022 RMK 1CU015 3CU035 5CU045 A3020=,
20180124_180000.003,0,RJFZ,,,,0,20180124180000,-1,-1,-1,-1,270,-1,6,-1,-1,-1,-1,,9999,0,0,3,FEW 15   SCT 35   BKN 45,-1,1,-1,8,1022,RJFZ 241800Z 27006KT 9999 FEW015 SCT035 BKN045 M01/M08 Q1022     RMK 1CU015 3CU035 5CU045 A3020=,
20180124_190000.004,0,RJFZ,,,,0,20180124190000,-1,-1,-1,-1,260,-1,6,-1,-1,-1,-1,,9999,0,0,3,FEW 15   SCT 35   BKN 45,-1,1,-1,8,1022,RJFZ 241900Z 26006KT 9999 FEW015 SCT035 BKN045 M01/M08 Q1022     RMK 1CU015 3CU035 6CU045 A3020=,
20180124_200000.003,0,RJFZ,,,,0,20180124200000,-1,-1,-1,-1,250,-1,5,-1,-1,-1,-1,,9999,0,1,3,FEW 15   SCT 30   BKN 40,-1,1,-1,8,1022,RJFZ 242000Z 25005KT 9999 -SHSN FEW015 SCT030 BKN040 M01/M08     Q1022 RMK 1CU015 3CU030 7CU040 A3020=,- SN SH
20180124_210000.004,0,RJFZ,,,,0,20180124210000,-1,-1,-1,-1,250,-1,5,-1,-1,-1,-1,,9999,0,1,3,FEW 15   BKN 30   BKN 40,-1,1,-1,7,1023,RJFZ 242100Z 25005KT 9999 -SHSN FEW015 BKN030 BKN040 M01/M07     Q1023 RMK 1CU015 5CU030 7CU040 A3021 04/M02 R000 S002=,- SN SH
20180124_220000.003,0,RJFZ,,,,0,20180124220000,-1,-1,-1,-1,240,-1,8,-1,-1,-1,-1,,9999,0,1,3,FEW 15   SCT 30   BKN 40,-1,2,-1,6,1023,RJFZ 242200Z 24008KT 9999 -SHSN FEW015 SCT030 BKN040 M02/M06     Q1023 RMK 1CU015 3CU030 6CU040 A3021 VIS W 8KM=,- SN SH
20180124_230000.003,0,RJFZ,,,,0,20180124230000,-1,-1,-1,-1,240,-1,10,-1,-1,-1,-1,,9999,0,1,2,FEW 20   BKN 40,-1,2,-1,6,1023,RJFZ 242300Z 24010KT 9999 -SHSN FEW020 BKN040 M02/M06 Q1023     RMK 1CU020 6CU040 A3022=,- SN SH
20180125_000000.003,0,RJFZ,,,,0,20180125000000,-1,-1,-1,-1,250,-1,9,-1,-1,-1,-1,,9999,0,1,2,FEW 20   BKN 40,-1,0,-1,6,1023,RJFZ 250000Z 25009KT 9999 -SHSN FEW020 BKN040 M00/M06 Q1023     RMK 1CU020 5CU040 A3022=,- SN SH
20180125_010000.003,0,RJFZ,,,,0,20180125010000,-1,-1,-1,-1,270,-1,11,-1,-1,-1,-1,,9999,0,1,2,FEW 10   SCT 40,1,2,-1,5,1023,RJFZ 250100Z 27011KT 9999 -SHSN FEW010 SCT040 02/M05 Q1023 RMK     1CU010 4CU040 A3023=,- SN SH
20180125_020000.004,0,RJFZ,,,,0,20180125020000,-1,-1,-1,-1,280,-1,12,-1,-1,230,300,,9999,0,1,3,FEW 10   SCT 30   BKN 40,1,2,-1,7,1024,RJFZ 250200Z 28012KT 230V300 9999 -SHSN FEW010 SCT030 BKN040     02/M07 Q1024 RMK 1CU010 3CU030 6CU040 A3024 VIS N 6KM=,- SN SH
20180125_030000.003,0,RJFZ,,,,0,20180125030000,-1,-1,-1,-1,300,-1,10,-1,-1,270,350,,9999,0,1,3,FEW 10   SCT 30   BKN 40,1,4,-1,7,1022,RJFZ 250300Z 30010KT 270V350 9999 -SHSN FEW010 SCT030 BKN040     04/M07 Q1022 RMK 1CU010 4CU030 6CU040 A3020 MAX WIND           17KT=,- SN SH
20180125_040000.003,0,RJFZ,,,,0,20180125040000,-1,-1,-1,-1,300,-1,12,-1,-1,250,340,,9999,0,1,3,FEW 10   SCT 30   BKN 40,1,2,-1,7,1021,RJFZ 250400Z 30012KT 250V340 9999 -SHSN FEW010 SCT030 BKN040     02/M07 Q1021 RMK 1CU010 4CU030 6CU040 A3017 MAX WIND           18KT=,- SN SH
20180125_050000.003,0,RJFZ,,,,0,20180125050000,-1,-1,-1,-1,300,-1,7,-1,-1,250,10,,9999,0,1,3,FEW 10   SCT 30   BKN 40,1,3,-1,9,1021,RJFZ 250500Z 30007KT 250V010 9999 -SHSN FEW010 SCT030 BKN040     03/M09 Q1021 RMK 1CU010 4CU030 6CU040 A3016 MAX WIND           16KT=,- SN SH
20180125_060000.003,0,RJFZ,,,,0,20180125060000,-1,-1,-1,-1,310,-1,13,-1,-1,290,350,,9999,0,0,3,FEW 10   SCT 30   BKN 40,1,3,-1,8,1021,RJFZ 250600Z 31013KT 290V350 9999 FEW010 SCT030 BKN040 03/M08     Q1021 RMK 1CU010 3CU030 5CU040 A3016 MAX WIND 17KT=,
20180125_070000.003,0,RJFZ,,,,0,20180125070000,-1,-1,-1,-1,330,-1,11,-1,-1,290,350,,9999,0,0,2,FEW 10   BKN 40,1,2,-1,9,1021,RJFZ 250700Z 33011KT 290V350 9999 FEW010 BKN040 02/M09 Q1021     RMK 1CU010 6CU040 A3015 VIRGA N=,
20180125_080000.003,0,RJFZ,,,,0,20180125080000,-1,-1,-1,-1,310,-1,12,-1,-1,-1,-1,,9999,0,0,2,FEW 30   BKN 40,1,2,-1,8,1021,RJFZ 250800Z 31012KT 9999 FEW030 BKN040 02/M08 Q1021 RMK     2CU030 6CU040 A3015 VIRGA NE=,
20180125_090000.003,0,RJFZ,,,,0,20180125090000,-1,-1,-1,-1,280,-1,7,-1,-1,-1,-1,,9999,0,0,2,SCT 35   SCT -9999,1,0,-1,8,1021,RJFZ 250900Z 28007KT 9999 SCT035 SCT/// 00/M08 Q1021 RMK     3CU035 A3016=,
20180125_100000.004,0,RJFZ,,,,0,20180125100000,-1,-1,-1,-1,260,-1,6,-1,-1,-1,-1,,9999,0,0,2,FEW 35   SCT -9999,-1,1,-1,9,1021,RJFZ 251000Z 26006KT 9999 FEW035 SCT/// M01/M09 Q1021 RMK     2CU035 A3016=,
20180125_110000.004,0,RJFZ,,,,0,20180125110000,-1,-1,-1,-1,220,-1,7,-1,-1,-1,-1,,9999,0,0,2,FEW 35   BKN -9999,-1,0,-1,8,1020,RJFZ 251100Z 22007KT 9999 FEW035 BKN/// M00/M08 Q1020 RMK     2CU035 A3015=,
20180125_120000.003,0,RJFZ,,,,0,20180125120000,-1,-1,-1,-1,240,-1,6,-1,-1,-1,-1,,9999,0,0,3,FEW 30   BKN 150   BKN -9999,-1,0,-1,7,1020,RJFZ 251200Z 24006KT 9999 FEW030 BKN150 BKN/// M00/M07 Q1020     RMK 1CU030 5AC150 A3014=,
20180125_130000.003,0,RJFZ,,,,0,20180125130000,-1,-1,-1,-1,250,-1,7,-1,-1,-1,-1,,9999,0,0,2,FEW 30   BKN 140,-1,1,-1,8,1020,RJFZ 251300Z 25007KT 9999 FEW030 BKN140 M01/M08 Q1020 RMK     1CU030 6AC140 A3013=,
20180125_140000.003,0,RJFZ,,,,0,20180125140000,-1,-1,-1,-1,240,-1,5,-1,-1,-1,-1,,9999,0,0,2,FEW 30   SCT -9999,-1,2,-1,8,1019,RJFZ 251400Z 24005KT 9999 FEW030 SCT/// M02/M08 Q1019 RMK     1CU030 A3011=,
20180125_150000.003,0,RJFZ,,,,0,20180125150000,-1,-1,-1,-1,250,-1,8,-1,-1,-1,-1,,9999,0,0,2,FEW 30   BKN -9999,-1,2,-1,7,1019,RJFZ 251500Z 25008KT 9999 FEW030 BKN/// M02/M07 Q1019 RMK     1CU030 A3010=,
20180125_160000.003,0,RJFZ,,,,0,20180125160000,-1,-1,-1,-1,260,-1,7,-1,-1,-1,-1,,9999,0,0,3,FEW 30   SCT 45   BKN -9999,-1,1,-1,7,1019,RJFZ 251600Z 26007KT 9999 FEW030 SCT045 BKN/// M01/M07 Q1019     RMK 1CU030 3SC045 A3010=,
20180125_170000.003,0,RJFZ,,,,0,20180125170000,-1,-1,-1,-1,250,-1,8,-1,-1,-1,-1,,9999,0,0,2,FEW 30   SCT 40,-1,1,-1,7,1019,RJFZ 251700Z 25008KT 9999 FEW030 SCT040 M01/M07 Q1019 RMK     1CU030 3CU040 A3011=,
20180125_180000.003,0,RJFZ,,,,0,20180125180000,-1,-1,-1,-1,240,-1,7,-1,-1,-1,-1,,9999,0,0,2,FEW 25   SCT 40,-1,1,-1,7,1019,RJFZ 251800Z 24007KT 9999 FEW025 SCT040 M01/M07 Q1019 RMK     1CU025 4CU040 A3011=,
20180125_190000.003,0,RJFZ,,,,0,20180125190000,-1,-1,-1,-1,240,-1,6,-1,-1,-1,-1,,9999,0,0,2,FEW 25   SCT 40,-1,1,-1,7,1019,RJFZ 251900Z 24006KT 9999 FEW025 SCT040 M01/M07 Q1019 RMK     1CU025 3CU040 A3010=,
20180125_200000.004,0,RJFZ,,,,0,20180125200000,-1,-1,-1,-1,260,-1,6,-1,-1,-1,-1,,9999,0,0,2,FEW 25   BKN 40,-1,0,-1,7,1019,RJFZ 252000Z 26006KT 9999 FEW025 BKN040 M00/M07 Q1019 RMK     1CU025 5CU040 A3010=,
20180125_210000.003,0,RJFZ,,,,0,20180125210000,-1,-1,-1,-1,260,-1,8,-1,-1,-1,-1,,9999,0,0,2,FEW 20   BKN 40,-1,0,-1,7,1019,RJFZ 252100Z 26008KT 9999 FEW020 BKN040 M00/M07 Q1019 RMK     1CU020 6CU040 A3011 05/M03 R000 S000=,
20180125_220000.003,0,RJFZ,,,,0,20180125220000,-1,-1,-1,-1,260,-1,7,-1,-1,-1,-1,,9999,0,0,2,FEW 20   BKN 40,-1,0,-1,7,1020,RJFZ 252200Z 26007KT 9999 FEW020 BKN040 M00/M07 Q1020 RMK     1CU020 6CU040 A3013=,
20180125_230000.003,0,RJFZ,,,,0,20180125230000,-1,-1,-1,-1,270,-1,7,-1,-1,-1,-1,,9999,0,0,2,FEW 20   BKN 40,1,1,-1,8,1020,RJFZ 252300Z 27007KT 9999 FEW020 BKN040 01/M08 Q1020 RMK     1CU020 6CU040 A3015=,
20180126_000000.003,0,RJFZ,,,,0,20180126000000,-1,-1,-1,-1,280,-1,10,-1,-1,-1,-1,,9999,0,0,2,FEW 20   BKN 40,1,1,-1,8,1021,RJFZ 260000Z 28010KT 9999 FEW020 BKN040 01/M08 Q1021 RMK     1CU020 7CU040 A3016 VIRGA N=,
20180126_010000.003,0,RJFZ,,,,0,20180126010000,-1,-1,-1,-1,290,-1,15,-1,-1,-1,-1,,9999,0,1,3,FEW 20   BKN 35   BKN 45,1,2,-1,8,1021,RJFZ 260100Z 29015KT 9999 -SHSN FEW020 BKN035 BKN045 02/M08     Q1021 RMK 1CU020 6CU035 6CU045 A3018 MAX WIND 21KT=,- SN SH
20180126_020000.003,0,RJFZ,,,,0,20180126020000,-1,-1,-1,-1,280,-1,11,-1,-1,250,310,,9999,0,1,3,FEW 20   BKN 35   BKN 45,1,2,-1,8,1021,RJFZ 260200Z 28011KT 250V310 9999 -SHSN FEW020 BKN035 BKN045     02/M08 Q1021 RMK 2CU020 6CU035 7CU045 A3018=,- SN SH
20180126_030000.003,0,RJFZ,,,,0,20180126030000,-1,-1,-1,-1,290,-1,14,-1,-1,-1,-1,,9999,0,1,2,SCT 25   BKN 40,1,2,-1,9,1021,RJFZ 260300Z 29014KT 9999 -SHSN SCT025 BKN040 02/M09 Q1021 RMK     3CU025 7CU040 A3016 MAX WIND 20KT=,- SN SH
20180126_040000.003,0,RJFZ,,,,0,20180126040000,-1,-1,-1,-1,280,-1,14,-1,-1,-1,-1,,9999,0,0,2,FEW 20   BKN 40,1,3,-1,9,1020,RJFZ 260400Z 28014KT 9999 FEW020 BKN040 03/M09 Q1020 RMK     1CU020 5CU040 A3014=,
20180126_050000.003,0,RJFZ,,,,0,20180126050000,-1,-1,-1,-1,300,-1,16,-1,-1,-1,-1,,9999,0,0,2,FEW 20   BKN 40,1,3,-1,9,1020,RJFZ 260500Z 30016KT 9999 FEW020 BKN040 03/M09 Q1020 RMK     1CU020 6CU040 A3012=,
20180126_060000.003,0,RJFZ,,,,0,20180126060000,-1,-1,-1,-1,280,-1,15,-1,-1,250,320,,9999,0,0,2,FEW 20   BKN 40,1,2,-1,7,1020,RJFZ 260600Z 28015KT 250V320 9999 FEW020 BKN040 02/M07 Q1020     RMK 1CU020 6CU040 A3014 VIRGA N-NE=,
20180126_070000.003,0,RJFZ,,,,0,20180126070000,-1,-1,-1,-1,290,-1,18,-1,-1,-1,-1,,9999,0,0,2,FEW 20   BKN 40,1,2,-1,8,1020,RJFZ 260700Z 29018KT 9999 FEW020 BKN040 02/M08 Q1020 RMK     1CU020 5CU040 A3014=,
20180126_080000.004,0,RJFZ,,,,0,20180126080000,-1,-1,-1,-1,290,-1,16,-1,-1,-1,-1,,9999,0,0,2,FEW 20   BKN 40,1,1,-1,8,1020,RJFZ 260800Z 29016KT 9999 FEW020 BKN040 01/M08 Q1020 RMK     1CU020 5CU040 A3015 MAX WIND 24KT=,
20180126_090000.003,0,RJFZ,,,,0,20180126090000,-1,-1,-1,-1,300,-1,9,-1,-1,-1,-1,,9999,0,0,2,FEW 20   BKN 40,1,0,-1,9,1021,RJFZ 260900Z 30009KT 9999 FEW020 BKN040 00/M09 Q1021 RMK     1CU020 6CU040 A3016=,
20180126_100000.003,0,RJFZ,,,,0,20180126100000,-1,-1,-1,-1,300,-1,10,-1,-1,-1,-1,,9999,0,0,2,FEW 20   BKN 40,1,0,-1,9,1022,RJFZ 261000Z 30010KT 9999 FEW020 BKN040 00/M09 Q1022 RMK     1CU020 7CU040 A3019=,
20180126_110000.003,0,RJFZ,,,,0,20180126110000,-1,-1,-1,-1,300,-1,11,-1,-1,-1,-1,,9999,0,0,2,FEW 30   BKN 40,1,0,-1,10,1023,RJFZ 261100Z 30011KT 9999 FEW030 BKN040 00/M10 Q1023 RMK     1CU030 6CU040 A3021=,
20180126_120000.003,0,RJFZ,,,,0,20180126120000,-1,-1,-1,-1,280,-1,8,-1,-1,-1,-1,,9999,0,1,2,FEW 20   BKN 40,-1,1,-1,9,1023,RJFZ 261200Z 28008KT 9999 -SHSN FEW020 BKN040 M01/M09 Q1023     RMK 1CU020 6CU040 A3022=,- SN SH
20180126_130000.003,0,RJFZ,,,,0,20180126130000,-1,-1,-1,-1,270,-1,6,-1,-1,-1,-1,,9999,0,1,2,FEW 30   BKN 40,-1,1,-1,8,1023,RJFZ 261300Z 27006KT 9999 -SHSN FEW030 BKN040 M01/M08 Q1023     RMK 1CU030 6CU040 A3023=,- SN SH
20180126_140000.003,0,RJFZ,,,,0,20180126140000,-1,-1,-1,-1,270,-1,7,-1,-1,-1,-1,,9999,0,1,2,FEW 30   BKN 40,1,0,-1,9,1023,RJFZ 261400Z 27007KT 9999 -SHSN FEW030 BKN040 00/M09 Q1023 RMK     1CU030 7CU040 A3023=,- SN SH
20180126_150000.003,0,RJFZ,,,,0,20180126150000,-1,-1,-1,-1,270,-1,4,-1,-1,-1,-1,,9999,0,1,2,FEW 30   BKN 40,-1,0,-1,8,1023,RJFZ 261500Z 27004KT 9999 -SHSN FEW030 BKN040 M00/M08 Q1023     RMK 1CU030 7CU040 A3024=,- SN SH
20180126_160000.003,0,RJFZ,,,,0,20180126160000,-1,-1,-1,-1,260,-1,7,-1,-1,-1,-1,,9999,0,1,2,FEW 30   BKN 40,-1,1,-1,7,1024,RJFZ 261600Z 26007KT 9999 -SHSN FEW030 BKN040 M01/M07 Q1024     RMK 1CU030 7CU040 A3024=,- SN SH
20180126_170000.003,0,RJFZ,,,,0,20180126170000,-1,-1,-1,-1,250,-1,6,-1,-1,-1,-1,,9999,0,0,2,FEW 30   BKN 40,1,0,-1,7,1024,RJFZ 261700Z 25006KT 9999 FEW030 BKN040 00/M07 Q1024 RMK     1CU030 7CU040 A3025=,
20180126_180000.003,0,RJFZ,,,,0,20180126180000,-1,-1,-1,-1,250,-1,7,-1,-1,-1,-1,,9999,0,0,2,FEW 30   BKN 40,-1,1,-1,7,1024,RJFZ 261800Z 25007KT 9999 FEW030 BKN040 M01/M07 Q1024 RMK     1CU030 6CU040 A3024=,
20180126_190000.003,0,RJFZ,,,,0,20180126190000,-1,-1,-1,-1,260,-1,7,-1,-1,-1,-1,,9999,0,0,2,FEW 30   SCT 40,-1,2,-1,7,1024,RJFZ 261900Z 26007KT 9999 FEW030 SCT040 M02/M07 Q1024 RMK     1CU030 4CU040 A3024=,
20180126_200000.004,0,RJFZ,,,,0,20180126200000,-1,-1,-1,-1,250,-1,6,-1,-1,-1,-1,,9999,0,0,2,FEW 30   SCT 40,-1,3,-1,8,1023,RJFZ 262000Z 25006KT 9999 FEW030 SCT040 M03/M08 Q1023 RMK     1CU030 4CU040 A3023=,
20180126_210000.003,0,RJFZ,,,,0,20180126210000,-1,-1,-1,-1,230,-1,8,-1,-1,-1,-1,,9999,0,0,2,FEW 20   BKN 40,-1,2,-1,6,1024,RJFZ 262100Z 23008KT 9999 FEW020 BKN040 M02/M06 Q1024 RMK     1CU020 5CU040 A3025 04/M03 R000 S000=,
20180126_220000.003,0,RJFZ,,,,0,20180126220000,-1,-1,-1,-1,240,-1,6,-1,-1,-1,-1,,9999,0,0,2,FEW 20   BKN 40,-1,0,-1,6,1025,RJFZ 262200Z 24006KT 9999 FEW020 BKN040 M00/M06 Q1025 RMK     1CU020 7CU040 A3027=,
20180126_230000.003,0,RJFZ,,,,0,20180126230000,-1,-1,-1,-1,250,-1,5,-1,-1,-1,-1,,9999,0,0,2,FEW 20   BKN 40,1,0,-1,6,1025,RJFZ 262300Z 25005KT 9999 FEW020 BKN040 00/M06 Q1025 RMK     1CU020 7CU040 A3027=,
20180127_000000.003,0,RJFZ,,,,0,20180127000000,-1,-1,-1,-1,240,-1,7,-1,-1,-1,-1,,9999,0,0,2,FEW 20   BKN 40,1,1,-1,5,1025,RJFZ 270000Z 24007KT 9999 FEW020 BKN040 01/M05 Q1025 RMK     1CU020 7CU040 A3028=,
20180127_010000.003,0,RJFZ,,,,0,20180127010000,-1,-1,-1,-1,240,-1,8,-1,-1,-1,-1,,9999,0,0,2,FEW 20   BKN 40,1,3,-1,5,1025,RJFZ 270100Z 24008KT 9999 FEW020 BKN040 03/M05 Q1025 RMK     1CU020 7CU040 A3029=,
20180127_020000.003,0,RJFZ,,,,0,20180127020000,-1,-1,-1,-1,250,-1,8,-1,-1,-1,-1,,9999,0,0,2,FEW 20   BKN 40,1,3,-1,4,1025,RJFZ 270200Z 25008KT 9999 FEW020 BKN040 03/M04 Q1025 RMK     1CU020 7CU040 A3029=,
20180127_030000.003,0,RJFZ,,,,0,20180127030000,-1,-1,-1,-1,260,-1,5,-1,-1,220,290,,9999,0,0,2,FEW 20   BKN 40,1,5,-1,4,1025,RJFZ 270300Z 26005KT 220V290 9999 FEW020 BKN040 05/M04 Q1025     RMK 1CU020 7CU040 A3028=,
20180127_040000.003,0,RJFZ,,,,0,20180127040000,-1,-1,-1,-1,999,-1,2,-1,-1,-1,-1,,9999,0,0,3,FEW 20   SCT 40   BKN 50,1,6,-1,5,1024,RJFZ 270400Z VRB02KT 9999 FEW020 SCT040 BKN050 06/M05 Q1024     RMK 1CU020 4CU040 5SC050 A3027 VIRGA NW=,
20180127_050000.003,0,RJFZ,,,,0,20180127050000,-1,-1,-1,-1,90,-1,4,-1,-1,40,120,,9999,0,0,2,SCT 40   BKN 50,1,6,-1,5,1024,RJFZ 270500Z 09004KT 040V120 9999 SCT040 BKN050 06/M05 Q1024     RMK 3CU040 6SC050 A3024=,
20180127_060000.003,0,RJFZ,,,,0,20180127060000,-1,-1,-1,-1,90,-1,6,-1,-1,-1,-1,,9999,0,0,2,FEW 35   SCT 50,1,5,-1,5,1023,RJFZ 270600Z 09006KT 9999 FEW035 SCT050 05/M05 Q1023 RMK     1CU035 3SC050 A3022=,
20180127_070000.003,0,RJFZ,,,,0,20180127070000,-1,-1,-1,-1,70,-1,7,-1,-1,-1,-1,,9999,0,0,1,FEW 35,1,5,-1,4,1023,RJFZ 270700Z 07007KT 9999 FEW035 05/M04 Q1023 RMK 1CU035     A3023=,
20180127_080000.003,0,RJFZ,,,,0,20180127080000,-1,-1,-1,-1,60,-1,4,-1,-1,30,150,,9999,0,0,3,FEW 35   SCT 50   BKN 230,1,5,-1,4,1023,RJFZ 270800Z 06004KT 030V150 9999 FEW035 SCT050 BKN230 05/M04     Q1023 RMK 1CU035 3SC050 A3024=,
20180127_090000.004,0,RJFZ,,,,0,20180127090000,-1,-1,-1,-1,80,-1,5,-1,-1,-1,-1,,9999,0,0,1,FEW 35,1,3,-1,4,1023,RJFZ 270900Z 08005KT 9999 FEW035 03/M04 Q1023 RMK 1CU035     A3022=,
20180127_100000.003,0,RJFZ,,,,0,20180127100000,-1,-1,-1,-1,180,-1,4,-1,-1,150,210,,9999,0,0,1,FEW 35,1,1,-1,4,1023,RJFZ 271000Z 18004KT 150V210 9999 FEW035 01/M04 Q1023 RMK     1CU035 A3022=,
20180127_110000.003,0,RJFZ,,,,0,20180127110000,-1,-1,-1,-1,260,-1,6,-1,-1,-1,-1,,9999,0,0,1,FEW 35,-1,1,-1,4,1023,RJFZ 271100Z 26006KT 9999 FEW035 M01/M04 Q1023 RMK 1CU035     A3021=,
20180127_120000.003,0,RJFZ,,,,0,20180127120000,-1,-1,-1,-1,240,-1,4,-1,-1,-1,-1,,9999,0,0,2,FEW 35   SCT 150,-1,2,-1,4,1023,RJFZ 271200Z 24004KT 9999 FEW035 SCT150 M02/M04 Q1023 RMK     1CU035 3AC150 A3021=,
20180127_130000.003,0,RJFZ,,,,0,20180127130000,-1,-1,-1,-1,240,-1,6,-1,-1,-1,-1,,9999,0,0,2,FEW 30   BKN 150,-1,2,-1,5,1023,RJFZ 271300Z 24006KT 9999 FEW030 BKN150 M02/M05 Q1023 RMK     1CU030 5AC150 A3021=,
20180127_140000.004,0,RJFZ,,,,0,20180127140000,-1,-1,-1,-1,230,-1,4,-1,-1,-1,-1,,9999,0,0,2,FEW 30   BKN 150,-1,1,-1,4,1022,RJFZ 271400Z 23004KT 9999 FEW030 BKN150 M01/M04 Q1022 RMK     1CU030 7AC150 A3019=,
20180127_150000.003,0,RJFZ,,,,0,20180127150000,-1,-1,-1,-1,230,-1,3,-1,-1,-1,-1,,9999,0,0,2,FEW 30   BKN 120,-1,0,-1,4,1022,RJFZ 271500Z 23003KT 9999 FEW030 BKN120 M00/M04 Q1022 RMK     1CU030 7AC120 A3019=,
20180127_160000.003,0,RJFZ,,,,0,20180127160000,-1,-1,-1,-1,240,-1,3,-1,-1,-1,-1,,9999,0,0,2,FEW 30   BKN 120,-1,1,-1,4,1021,RJFZ 271600Z 24003KT 9999 FEW030 BKN120 M01/M04 Q1021 RMK     1CU030 7AC120 A3016=,
20180127_170000.003,0,RJFZ,,,,0,20180127170000,-1,-1,-1,-1,240,-1,3,-1,-1,-1,-1,,9999,0,0,2,FEW 30   BKN 120,-1,0,-1,3,1021,RJFZ 271700Z 24003KT 9999 FEW030 BKN120 M00/M03 Q1021 RMK     1CU030 7AC120 A3017=,
20180127_180000.003,0,RJFZ,,,,0,20180127180000,-1,-1,-1,-1,250,-1,4,-1,-1,-1,-1,,9999,0,0,2,FEW 20   BKN 100,-1,0,-1,3,1021,RJFZ 271800Z 25004KT 9999 FEW020 BKN100 M00/M03 Q1021 RMK     1CU020 7AC100 A3016=,
20180127_190000.003,0,RJFZ,,,,0,20180127190000,-1,-1,-1,-1,250,-1,4,-1,-1,-1,-1,,9999,0,0,2,FEW 30   BKN 100,1,0,-1,3,1020,RJFZ 271900Z 25004KT 9999 FEW030 BKN100 00/M03 Q1020 RMK     1CU030 7AC100 A3014=,
20180127_200000.003,0,RJFZ,,,,0,20180127200000,-1,-1,-1,-1,230,-1,3,-1,-1,-1,-1,,9999,0,0,2,FEW 30   BKN 80,1,1,-1,3,1020,RJFZ 272000Z 23003KT 9999 FEW030 BKN080 01/M03 Q1020 RMK     1CU030 7AC080 A3013=,
20180127_210000.003,0,RJFZ,,,,0,20180127210000,-1,-1,-1,-1,999,-1,1,-1,-1,-1,-1,,9999,0,0,2,FEW 30   BKN 80,1,1,-1,3,1019,RJFZ 272100Z VRB01KT 9999 FEW030 BKN080 01/M03 Q1019 RMK     1CU030 7AC080 A3011 07/M03=,
20180127_220000.003,0,RJFZ,,,,0,20180127220000,-1,-1,-1,-1,180,-1,4,-1,-1,-1,-1,,9999,0,0,2,FEW 30   BKN 60,1,2,-1,3,1019,RJFZ 272200Z 18004KT 9999 FEW030 BKN060 02/M03 Q1019 RMK     1CU030 7SC060 A3011=,
20180127_230000.003,0,RJFZ,,,,0,20180127230000,-1,-1,-1,-1,230,-1,3,-1,-1,-1,-1,,9999,0,1,3,FEW 40   BKN 60   BKN 80,1,2,-1,1,1020,RJFZ 272300Z 23003KT 9999 -RA FEW040 BKN060 BKN080 02/M01     Q1020 RMK 2SC040 5SC060 7AS080 A3012=,- RA
20180128_000000.004,0,RJFZ,,,,0,20180128000000,-1,-1,-1,-1,999,-1,2,-1,-1,-1,-1,,9999,0,1,3,FEW 40   BKN 60   BKN 80,1,3,1,0,1020,RJFZ 280000Z VRB02KT 9999 -RA FEW040 BKN060 BKN080 03/00 Q1020     RMK 1SC040 5SC060 7AS080 A3012=,- RA
20180128_010000.003,0,RJFZ,,,,0,20180128010000,-1,-1,-1,-1,999,-1,1,-1,-1,-1,-1,,9999,0,0,3,FEW 20   SCT 50   BKN 80,1,4,-1,0,1018,RJFZ 280100Z VRB01KT 9999 FEW020 SCT050 BKN080 04/M00 Q1018     RMK 1CU020 3SC050 7AC080 A3007=,
20180128_020000.003,0,RJFZ,,,,0,20180128020000,-1,-1,-1,-1,999,-1,2,-1,-1,-1,-1,,9999,0,0,3,FEW 20   SCT 50   BKN 90,1,5,1,0,1018,RJFZ 280200Z VRB02KT 9999 FEW020 SCT050 BKN090 05/00 Q1018 RMK     1CU020 3SC050 7AC090 A3007=,
20180128_030000.003,0,RJFZ,,,,0,20180128030000,-1,-1,-1,-1,999,-1,2,-1,-1,-1,-1,,9999,0,1,3,FEW 20   BKN 50   OVC 80,1,6,1,1,1017,RJFZ 280300Z VRB02KT 9999 -RA FEW020 BKN050 OVC080 06/01 Q1017     RMK 1CU020 6SC050 8AS080 A3004=,- RA
20180128_040000.003,0,RJFZ,,,,0,20180128040000,-1,-1,-1,-1,250,-1,13,-1,-1,-1,-1,,9999,0,1,3,FEW 20   BKN 50   OVC 80,1,7,1,1,1016,RJFZ 280400Z 25013KT 9999 -RA FEW020 BKN050 OVC080 07/01 Q1016     RMK 1CU020 5SC050 8AS080 A3001 MAX WIND 20KT=,- RA
20180128_050000.003,0,RJFZ,,,,0,20180128050000,-1,-1,-1,-1,270,-1,13,-1,-1,-1,-1,,9999,0,0,3,FEW 20   SCT 50   BKN 90,1,8,1,1,1015,RJFZ 280500Z 27013KT 9999 FEW020 SCT050 BKN090 08/01 Q1015 RMK     1CU020 4SC050 7AC090 A3000=,
20180128_060000.003,0,RJFZ,,,,0,20180128060000,-1,-1,-1,-1,270,-1,10,-1,-1,-1,-1,,9999,0,1,3,FEW 20   BKN 40   BKN 80,1,7,1,2,1016,RJFZ 280600Z 27010KT 9999 -SHRA FEW020 BKN040 BKN080 07/02     Q1016 RMK 1CU020 5CU040 7AC080 A3000=,- RA SH
20180128_070000.004,0,RJFZ,,,,0,20180128070000,-1,-1,-1,-1,270,-1,7,-1,-1,-1,-1,,9999,0,1,3,FEW 10   BKN 20   BKN 40,1,6,1,2,1015,RJFZ 280700Z 27007KT 9999 -SHRA FEW010 BKN020 BKN040 06/02     Q1015 RMK 1CU010 6CU020 7CU040 A3000=,- RA SH
20180128_080000.003,0,RJFZ,,,,0,20180128080000,-1,-1,-1,-1,260,-1,7,-1,-1,-1,-1,,9999,0,1,3,FEW 10   BKN 20   BKN 40,1,6,1,1,1016,RJFZ 280800Z 26007KT 9999 -SHRA FEW010 BKN020 BKN040 06/01     Q1016 RMK 1CU010 6CU020 7CU040 A3000=,- RA SH
20180128_090000.003,0,RJFZ,,,,0,20180128090000,-1,-1,-1,-1,250,-1,7,-1,-1,-1,-1,,9999,0,0,3,FEW 10   SCT 20   BKN 40,1,5,1,1,1016,RJFZ 280900Z 25007KT 9999 FEW010 SCT020 BKN040 05/01 Q1016 RMK     1CU010 3CU020 6CU040 A3002=,
20180128_100000.003,0,RJFZ,,,,0,20180128100000,-1,-1,-1,-1,240,-1,4,-1,-1,-1,-1,,9999,0,0,3,FEW 20   SCT 40   BKN -9999,1,5,1,1,1016,RJFZ 281000Z 24004KT 9999 FEW020 SCT040 BKN/// 05/01 Q1016 RMK     1CU020 3CU040 A3003=,
20180128_110000.003,0,RJFZ,,,,0,20180128110000,-1,-1,-1,-1,260,-1,5,-1,-1,-1,-1,,9999,0,0,3,FEW 20   BKN 35   BKN -9999,1,5,1,1,1017,RJFZ 281100Z 26005KT 9999 FEW020 BKN035 BKN/// 05/01 Q1017 RMK     1CU020 6CU035 A3003=,
20180128_120000.003,0,RJFZ,,,,0,20180128120000,-1,-1,-1,-1,260,-1,5,-1,-1,-1,-1,,9999,0,0,3,FEW 30   SCT 40   BKN -9999,1,4,-1,0,1016,RJFZ 281200Z 26005KT 9999 FEW030 SCT040 BKN/// 04/M00 Q1016     RMK 1CU030 4CU040 A3003=,
20180128_130000.003,0,RJFZ,,,,0,20180128130000,-1,-1,-1,-1,260,-1,6,-1,-1,-1,-1,,9999,0,0,2,FEW 40   SCT -9999,1,3,-1,1,1017,RJFZ 281300Z 26006KT 9999 FEW040 SCT/// 03/M01 Q1017 RMK     2CU040 A3004=,
20180128_140000.003,0,RJFZ,,,,0,20180128140000,-1,-1,-1,-1,260,-1,4,-1,-1,-1,-1,,9999,0,0,2,FEW 40   SCT 160,1,2,-1,2,1017,RJFZ 281400Z 26004KT 9999 FEW040 SCT160 02/M02 Q1017 RMK     1CU040 3AC160 A3003=,
20180128_150000.003,0,RJFZ,,,,0,20180128150000,-1,-1,-1,-1,270,-1,6,-1,-1,-1,-1,,9999,0,0,2,FEW 40   SCT -9999,1,2,-1,1,1016,RJFZ 281500Z 27006KT 9999 FEW040 SCT/// 02/M01 Q1016 RMK     1CU040 A3000=,
20180128_160000.003,0,RJFZ,,,,0,20180128160000,-1,-1,-1,-1,240,-1,7,-1,-1,-1,-1,,9999,0,0,2,FEW 30   SCT 40,1,2,-1,1,1016,RJFZ 281600Z 24007KT 9999 FEW030 SCT040 02/M01 Q1016 RMK     1CU030 4CU040 A3000=,
20180128_170000.003,0,RJFZ,,,,0,20180128170000,-1,-1,-1,-1,270,-1,6,-1,-1,-1,-1,,9999,0,0,2,FEW 30   BKN 40,1,3,-1,1,1015,RJFZ 281700Z 27006KT 9999 FEW030 BKN040 03/M01 Q1015 RMK     1CU030 7CU040 A3000=,
20180128_180000.003,0,RJFZ,,,,0,20180128180000,-1,-1,-1,-1,250,-1,7,-1,-1,-1,-1,,9999,0,0,2,FEW 30   BKN 40,1,4,-1,1,1015,RJFZ 281800Z 25007KT 9999 FEW030 BKN040 04/M01 Q1015 RMK     1CU030 7CU040 A3000=,
20180128_190000.003,0,RJFZ,,,,0,20180128190000,-1,-1,-1,-1,270,-1,7,-1,-1,-1,-1,,9999,0,0,2,FEW 30   BKN 40,1,4,-1,1,1015,RJFZ 281900Z 27007KT 9999 FEW030 BKN040 04/M01 Q1015 RMK     1CU030 7CU040 A3000=,
20180128_200000.003,0,RJFZ,,,,0,20180128200000,-1,-1,-1,-1,260,-1,7,-1,-1,-1,-1,,9999,0,0,2,FEW 30   BKN 40,1,4,-1,1,1015,RJFZ 282000Z 26007KT 9999 FEW030 BKN040 04/M01 Q1015 RMK     1CU030 7CU040 A2999=,
20180128_210000.003,0,RJFZ,,,,0,20180128210000,-1,-1,-1,-1,270,-1,8,-1,-1,-1,-1,,9999,0,0,2,FEW 30   BKN 40,1,4,-1,1,1015,RJFZ 282100Z 27008KT 9999 FEW030 BKN040 04/M01 Q1015 RMK     1CU030 7CU040 A2999 08/00 R000=,
20180128_220000.004,0,RJFZ,,,,0,20180128220000,-1,-1,-1,-1,300,-1,12,-1,-1,-1,-1,,9999,0,0,2,FEW 30   BKN 40,1,4,-1,4,1016,RJFZ 282200Z 30012KT 9999 FEW030 BKN040 04/M04 Q1016 RMK     1CU030 7CU040 A3002 MAX WIND 17KT=,
20180128_230000.003,0,RJFZ,,,,0,20180128230000,-1,-1,-1,-1,310,-1,10,-1,-1,-1,-1,,9999,0,0,2,FEW 30   BKN 40,1,4,-1,5,1017,RJFZ 282300Z 31010KT 9999 FEW030 BKN040 04/M05 Q1017 RMK     1CU030 7CU040 A3005 MAX WIND 19KT=,
20180129_000000.004,0,RJFZ,,,,0,20180129000000,-1,-1,-1,-1,290,-1,12,-1,-1,-1,-1,,9999,0,0,2,FEW 30   BKN 40,1,4,-1,6,1018,RJFZ 290000Z 29012KT 9999 FEW030 BKN040 04/M06 Q1018 RMK     1CU030 6CU040 A3008 MAX WIND 18KT=,
20180129_010000.003,0,RJFZ,,,,0,20180129010000,-1,-1,-1,-1,290,-1,14,-1,-1,-1,-1,,9999,0,0,2,FEW 20   BKN 40,1,4,-1,8,1018,RJFZ 290100Z 29014KT 9999 FEW020 BKN040 04/M08 Q1018 RMK     1CU020 6CU040 A3008 MAX WIND 23KT=,
20180129_020000.003,0,RJFZ,,,,0,20180129020000,-1,-1,-1,-1,270,-1,14,-1,-1,-1,-1,,9999,0,0,2,FEW 15   BKN 40,1,5,-1,6,1019,RJFZ 290200Z 27014KT 9999 FEW015 BKN040 05/M06 Q1019 RMK     1CU015 6CU040 A3011 MAX WIND 21KT=,
20180129_030000.003,0,RJFZ,,,,0,20180129030000,-1,-1,-1,-1,300,-1,15,-1,25,-1,-1,,9999,0,1,3,FEW 10   BKN 30   BKN 45,1,3,-1,6,1019,RJFZ 290300Z 30015G25KT 9999 -SHSN FEW010 BKN030 BKN045 03/M06     Q1019 RMK 1CU010 5CU030 7CU045 A3009=,- SN SH
20180129_040000.003,0,RJFZ,,,,0,20180129040000,-1,-1,-1,-1,300,-1,16,-1,-1,-1,-1,,9999,0,1,3,FEW 10   BKN 30   BKN 45,1,4,-1,5,1018,RJFZ 290400Z 30016KT 9999 -SHSN FEW010 BKN030 BKN045 04/M05     Q1018 RMK 1CU010 5CU030 6CU045 A3007 MAX WIND 22KT=,- SN SH
20180129_050000.003,0,RJFZ,,,,0,20180129050000,-1,-1,-1,-1,290,-1,15,-1,-1,-1,-1,,9999,0,1,3,FEW 10   BKN 30   BKN 45,1,3,-1,7,1018,RJFZ 290500Z 29015KT 9999 -SHSN FEW010 BKN030 BKN045 03/M07     Q1018 RMK 1CU010 6CU030 7CU045 A3007 MAX WIND 23KT=,- SN SH
20180129_060000.003,0,RJFZ,,,,0,20180129060000,-1,-1,-1,-1,300,-1,13,-1,-1,-1,-1,,9999,0,0,3,FEW 10   SCT 30   BKN 45,1,3,-1,7,1018,RJFZ 290600Z 30013KT 9999 FEW010 SCT030 BKN045 03/M07 Q1018     RMK 1CU010 4CU030 7CU045 A3006=,
20180129_070000.003,0,RJFZ,,,,0,20180129070000,-1,-1,-1,-1,260,-1,10,-1,-1,230,290,,9999,0,0,3,FEW 10   SCT 30   BKN 45,1,3,-1,5,1018,RJFZ 290700Z 26010KT 230V290 9999 FEW010 SCT030 BKN045 03/M05     Q1018 RMK 1CU010 4CU030 7CU045 A3007 MAX WIND 17KT=,
20180129_080000.003,0,RJFZ,,,,0,20180129080000,-1,-1,-1,-1,260,-1,8,-1,-1,-1,-1,,9999,0,1,3,FEW 10   SCT 30   BKN 40,1,3,-1,5,1018,RJFZ 290800Z 26008KT 9999 -SHSN FEW010 SCT030 BKN040 03/M05     Q1018 RMK 1CU010 3CU030 6CU040 A3008=,- SN SH
20180129_090000.003,0,RJFZ,,,,0,20180129090000,-1,-1,-1,-1,270,-1,10,-1,-1,-1,-1,,9999,0,1,3,FEW 10   SCT 30   BKN 40,1,2,-1,5,1019,RJFZ 290900Z 27010KT 9999 -SHSN FEW010 SCT030 BKN040 02/M05     Q1019 RMK 1CU010 3CU030 6CU040 A3010 VIS SW 5KM=,- SN SH
20180129_100000.003,0,RJFZ,,,,0,20180129100000,-1,-1,-1,-1,250,-1,7,-1,-1,-1,-1,,9999,0,0,2,FEW 15   BKN 40,-1,0,-1,4,1019,RJFZ 291000Z 25007KT 9999 FEW015 BKN040 M00/M04 Q1019 RMK     1CU015 5CU040 A3011=,
20180129_110000.003,0,RJFZ,,,,0,20180129110000,-1,-1,-1,-1,250,-1,6,-1,-1,-1,-1,,9999,0,0,2,FEW 15   BKN 40,1,1,-1,4,1019,RJFZ 291100Z 25006KT 9999 FEW015 BKN040 01/M04 Q1019 RMK     1CU015 6CU040 A3011=,
20180129_120000.003,0,RJFZ,,,,0,20180129120000,-1,-1,-1,-1,240,-1,8,-1,-1,-1,-1,,9999,0,0,2,FEW 15   BKN 40,1,0,-1,3,1019,RJFZ 291200Z 24008KT 9999 FEW015 BKN040 00/M03 Q1019 RMK     1CU015 5CU040 A3011=,
20180129_130000.003,0,RJFZ,,,,0,20180129130000,-1,-1,-1,-1,250,-1,7,-1,-1,-1,-1,,9999,0,1,3,FEW 15   SCT 30   BKN 40,1,1,-1,3,1019,RJFZ 291300Z 25007KT 9999 -SHSN FEW015 SCT030 BKN040 01/M03     Q1019 RMK 1CU015 3CU030 7CU040 A3011=,- SN SH
20180129_140000.003,0,RJFZ,,,,0,20180129140000,-1,-1,-1,-1,250,-1,8,-1,-1,-1,-1,,9999,0,0,2,FEW 15   BKN 40,1,0,-1,3,1019,RJFZ 291400Z 25008KT 9999 FEW015 BKN040 00/M03 Q1019 RMK     1CU015 7CU040 A3011=,
20180129_150000.003,0,RJFZ,,,,0,20180129150000,-1,-1,-1,-1,240,-1,8,-1,-1,-1,-1,,9999,0,0,2,FEW 15   SCT 40,-1,1,-1,4,1019,RJFZ 291500Z 24008KT 9999 FEW015 SCT040 M01/M04 Q1019 RMK     1CU015 3CU040 A3009=,
20180129_160000.003,0,RJFZ,,,,0,20180129160000,-1,-1,-1,-1,240,-1,6,-1,-1,-1,-1,,9999,0,0,2,FEW 15   BKN 40,-1,0,-1,3,1020,RJFZ 291600Z 24006KT 9999 FEW015 BKN040 M00/M03 Q1020 RMK     1CU015 7CU040 A3012=,
20180129_170000.003,0,RJFZ,,,,0,20180129170000,-1,-1,-1,-1,280,-1,7,-1,-1,-1,-1,,9999,0,0,2,FEW 15   BKN 40,1,1,-1,3,1020,RJFZ 291700Z 28007KT 9999 FEW015 BKN040 01/M03 Q1020 RMK     1CU015 7CU040 A3014=,
20180129_180000.003,0,RJFZ,,,,0,20180129180000,-1,-1,-1,-1,280,-1,5,-1,-1,-1,-1,,9999,0,0,2,FEW 15   BKN 40,1,1,-1,4,1020,RJFZ 291800Z 28005KT 9999 FEW015 BKN040 01/M04 Q1020 RMK     1CU015 6CU040 A3015=,
20180129_190000.003,0,RJFZ,,,,0,20180129190000,-1,-1,-1,-1,250,-1,6,-1,-1,-1,-1,,9999,0,0,2,FEW 20   BKN 40,1,0,-1,4,1021,RJFZ 291900Z 25006KT 9999 FEW020 BKN040 00/M04 Q1021 RMK     1CU020 7CU040 A3016=,
20180129_200000.003,0,RJFZ,,,,0,20180129200000,-1,-1,-1,-1,300,-1,12,-1,-1,-1,-1,,9999,0,0,2,FEW 15   SCT 40,1,1,-1,7,1021,RJFZ 292000Z 30012KT 9999 FEW015 SCT040 01/M07 Q1021 RMK     1CU015 4CU040 A3016=,
20180129_210000.003,0,RJFZ,,,,0,20180129210000,-1,-1,-1,-1,310,-1,14,-1,-1,-1,-1,,9999,0,0,2,FEW 15   BKN 40,1,1,-1,7,1021,RJFZ 292100Z 31014KT 9999 FEW015 BKN040 01/M07 Q1021 RMK     1CU015 5CU040 A3017 06/M02 R000 S000=,
20180129_220000.003,0,RJFZ,,,,0,20180129220000,-1,-1,-1,-1,270,-1,7,-1,-1,-1,-1,,9999,0,0,2,FEW 20   BKN 40,-1,1,-1,8,1022,RJFZ 292200Z 27007KT 9999 FEW020 BKN040 M01/M08 Q1022 RMK     1CU020 5CU040 A3020=,
20180129_230000.003,0,RJFZ,,,,0,20180129230000,-1,-1,-1,-1,260,-1,7,-1,-1,-1,-1,,9999,0,0,2,FEW 20   BKN 40,1,0,-1,7,1023,RJFZ 292300Z 26007KT 9999 FEW020 BKN040 00/M07 Q1023 RMK     1CU020 6CU040 A3021 VIRGA N=,
20180130_000000.003,0,RJFZ,,,,0,20180130000000,-1,-1,-1,-1,250,-1,10,-1,-1,-1,-1,,9999,0,1,2,FEW 15   BKN 40,1,2,-1,8,1023,RJFZ 300000Z 25010KT 9999 -SHSN FEW015 BKN040 02/M08 Q1023 RMK     1CU015 6CU040 A3022=,- SN SH
20180130_010000.003,0,RJFZ,,,,0,20180130010000,-1,-1,-1,-1,270,-1,10,-1,-1,240,300,,9999,0,1,2,FEW 15   BKN 40,1,3,-1,8,1023,RJFZ 300100Z 27010KT 240V300 9999 VCSH FEW015 BKN040 03/M08     Q1023 RMK 1CU015 5CU040 A3023=,VC SH
20180130_020000.003,0,RJFZ,,,,0,20180130020000,-1,-1,-1,-1,280,-1,9,-1,-1,240,320,,9999,0,0,2,FEW 15   BKN 40,1,5,-1,8,1023,RJFZ 300200Z 28009KT 240V320 9999 FEW015 BKN040 05/M08 Q1023     RMK 1CU015 6CU040 A3023=,
20180130_030000.003,0,RJFZ,,,,0,20180130030000,-1,-1,-1,-1,320,-1,11,-1,-1,-1,-1,,9999,0,0,2,FEW 15   BKN 40,1,5,-1,7,1023,RJFZ 300300Z 32011KT 9999 FEW015 BKN040 05/M07 Q1023 RMK     1CU015 6CU040 A3022=,
20180130_040000.003,0,RJFZ,,,,0,20180130040000,-1,-1,-1,-1,300,-1,11,-1,-1,-1,-1,,9999,0,0,2,FEW 15   BKN 40,1,6,-1,7,1022,RJFZ 300400Z 30011KT 9999 FEW015 BKN040 06/M07 Q1022 RMK     1CU015 6CU040 A3020 MAX WIND 18KT=,
20180130_050000.003,0,RJFZ,,,,0,20180130050000,-1,-1,-1,-1,270,-1,14,-1,-1,-1,-1,,9999,0,0,2,FEW 15   BKN 40,1,6,-1,8,1022,RJFZ 300500Z 27014KT 9999 FEW015 BKN040 06/M08 Q1022 RMK     1CU015 6CU040 A3019 MAX WIND 20KT=,
20180130_060000.004,0,RJFZ,,,,0,20180130060000,-1,-1,-1,-1,270,-1,16,-1,-1,240,300,,9999,0,0,2,FEW 15   BKN 45,1,5,-1,9,1022,RJFZ 300600Z 27016KT 240V300 9999 FEW015 BKN045 05/M09 Q1022     RMK 1CU015 6SC045 A3019 MAX WIND 24KT=,
20180130_070000.003,0,RJFZ,,,,0,20180130070000,-1,-1,-1,-1,280,-1,12,-1,-1,250,310,,9999,0,0,2,FEW 15   BKN 45,1,4,-1,8,1023,RJFZ 300700Z 28012KT 250V310 9999 FEW015 BKN045 04/M08 Q1023     RMK 1CU015 5SC045 A3022=,
20180130_080000.003,0,RJFZ,,,,0,20180130080000,-1,-1,-1,-1,280,-1,11,-1,-1,-1,-1,,9999,0,0,2,FEW 15   SCT 40,1,4,-1,8,1024,RJFZ 300800Z 28011KT 9999 FEW015 SCT040 04/M08 Q1024 RMK     1CU015 3CU040 A3024 MAX WIND 16KT VIRGA N=,
20180130_090000.003,0,RJFZ,,,,0,20180130090000,-1,-1,-1,-1,290,-1,8,-1,-1,-1,-1,,9999,0,0,1,FEW 40,1,2,-1,8,1024,RJFZ 300900Z 29008KT 9999 FEW040 02/M08 Q1024 RMK 1CU040     A3025=,
20180130_100000.003,0,RJFZ,,,,0,20180130100000,-1,-1,-1,-1,250,-1,4,-1,-1,220,290,,9999,0,0,1,FEW 40,1,1,-1,7,1024,RJFZ 301000Z 25004KT 220V290 9999 FEW040 01/M07 Q1024 RMK     1CU040 A3026=,
20180130_110000.003,0,RJFZ,,,,0,20180130110000,-1,-1,-1,-1,210,-1,5,-1,-1,-1,-1,,9999,0,0,1,FEW 40,-1,1,-1,6,1025,RJFZ 301100Z 21005KT 9999 FEW040 M01/M06 Q1025 RMK 2CU040     A3027=,
20180130_120000.003,0,RJFZ,,,,0,20180130120000,-1,-1,-1,-1,240,-1,5,-1,-1,-1,-1,,9999,0,0,1,FEW 40,-1,2,-1,6,1025,RJFZ 301200Z 24005KT 9999 FEW040 M02/M06 Q1025 RMK 2CU040     A3029=,
20180130_130000.003,0,RJFZ,,,,0,20180130130000,-1,-1,-1,-1,240,-1,6,-1,-1,-1,-1,,9999,0,0,1,FEW 40,-1,1,-1,6,1025,RJFZ 301300Z 24006KT 9999 FEW040 M01/M06 Q1025 RMK 2CU040     A3029=,
20180130_140000.003,0,RJFZ,,,,0,20180130140000,-1,-1,-1,-1,230,-1,8,-1,-1,-1,-1,,9999,0,0,1,FEW 40,-1,1,-1,6,1025,RJFZ 301400Z 23008KT 9999 FEW040 M01/M06 Q1025 RMK 2CU040     A3029=,
20180130_150000.003,0,RJFZ,,,,0,20180130150000,-1,-1,-1,-1,240,-1,8,-1,-1,-1,-1,,9999,0,0,1,FEW 40,-1,1,-1,6,1025,RJFZ 301500Z 24008KT 9999 FEW040 M01/M06 Q1025 RMK 2CU040     A3029=,
20180130_160000.003,0,RJFZ,,,,0,20180130160000,-1,-1,-1,-1,250,-1,7,-1,-1,-1,-1,,9999,0,0,1,FEW 40,-1,3,-1,7,1025,RJFZ 301600Z 25007KT 9999 FEW040 M03/M07 Q1025 RMK 1CU040     A3028=,
20180130_170000.003,0,RJFZ,,,,0,20180130170000,-1,-1,-1,-1,250,-1,7,-1,-1,-1,-1,,9999,0,0,1,FEW 40,-1,3,-1,6,1025,RJFZ 301700Z 25007KT 9999 FEW040 M03/M06 Q1025 RMK 1CU040     A3029=,
20180130_180000.003,0,RJFZ,,,,0,20180130180000,-1,-1,-1,-1,310,-1,1,-1,-1,-1,-1,,9999,0,0,2,FEW 20   SCT 40,-1,2,-1,6,1026,RJFZ 301800Z 31001KT 9999 FEW020 SCT040 M02/M06 Q1026 RMK     1CU020 3CU040 A3030=,
20180130_190000.003,0,RJFZ,,,,0,20180130190000,-1,-1,-1,-1,250,-1,6,-1,-1,-1,-1,,9999,0,0,1,FEW 40,-1,3,-1,7,1025,RJFZ 301900Z 25006KT 9999 FEW040 M03/M07 Q1025 RMK 2CU040     A3029=,
20180130_200000.003,0,RJFZ,,,,0,20180130200000,-1,-1,-1,-1,220,-1,4,-1,-1,-1,-1,,9999,0,0,1,FEW 40,-1,3,-1,7,1026,RJFZ 302000Z 22004KT 9999 FEW040 M03/M07 Q1026 RMK 1CU040     A3030=,
20180130_210000.003,0,RJFZ,,,,0,20180130210000,-1,-1,-1,-1,250,-1,4,-1,-1,-1,-1,,9999,0,0,1,FEW 40,-1,3,-1,7,1026,RJFZ 302100Z 25004KT 9999 FEW040 M03/M07 Q1026 RMK 1CU040     A3032 06/M04 R000 S000=,
20180130_220000.003,0,RJFZ,,,,0,20180130220000,-1,-1,-1,-1,260,-1,5,-1,-1,-1,-1,,9999,0,0,2,FEW 25   SCT 200,-1,3,-1,6,1027,RJFZ 302200Z 26005KT 9999 FEW025 SCT200 M03/M06 Q1027 RMK     1CU025 A3033=,
20180130_230000.003,0,RJFZ,,,,0,20180130230000,-1,-1,-1,-1,200,-1,4,-1,-1,-1,-1,,9999,0,0,2,FEW 25   BKN 200,-1,1,-1,5,1027,RJFZ 302300Z 20004KT 9999 FEW025 BKN200 M01/M05 Q1027 RMK     1CU025 A3034=,
20180131_000000.003,0,RJFZ,,,,0,20180131000000,-1,-1,-1,-1,999,-1,1,-1,-1,-1,-1,,9999,0,0,2,FEW 25   BKN 200,1,1,-1,3,1027,RJFZ 310000Z VRB01KT 9999 FEW025 BKN200 01/M03 Q1027 RMK     1CU025 A3035=,
20180131_010000.003,0,RJFZ,,,,0,20180131010000,-1,-1,-1,-1,999,-1,2,-1,-1,-1,-1,,9999,0,0,2,FEW 25   BKN 200,1,3,-1,3,1027,RJFZ 310100Z VRB02KT 9999 FEW025 BKN200 03/M03 Q1027 RMK     1CU025 A3035=,
20180131_020000.003,0,RJFZ,,,,0,20180131020000,-1,-1,-1,-1,90,-1,4,-1,-1,60,120,,9999,0,0,3,FEW 30   SCT 180   BKN 200,1,5,-1,3,1027,RJFZ 310200Z 09004KT 060V120 9999 FEW030 SCT180 BKN200 05/M03     Q1027 RMK 1CU030 3AC180 A3035=,
20180131_030000.003,0,RJFZ,,,,0,20180131030000,-1,-1,-1,-1,90,-1,3,-1,-1,-1,-1,,9999,0,0,3,FEW 30   SCT 180   BKN 230,1,6,-1,3,1026,RJFZ 310300Z 09003KT 9999 FEW030 SCT180 BKN230 06/M03 Q1026     RMK 1CU030 3AC180 A3032=,
20180131_040000.003,0,RJFZ,,,,0,20180131040000,-1,-1,-1,-1,110,-1,6,-1,-1,-1,-1,,9999,0,0,3,FEW 30   SCT 180   BKN 200,1,6,-1,2,1025,RJFZ 310400Z 11006KT 9999 FEW030 SCT180 BKN200 06/M02 Q1025     RMK 1CU030 3AC180 A3028=,
20180131_050000.003,0,RJFZ,,,,0,20180131050000,-1,-1,-1,-1,80,-1,7,-1,-1,-1,-1,,9999,0,0,3,FEW 30   SCT 180   BKN 200,1,7,-1,3,1024,RJFZ 310500Z 08007KT 9999 FEW030 SCT180 BKN200 07/M03 Q1024     RMK 1CU030 3AC180 A3025=,
20180131_060000.003,0,RJFZ,,,,0,20180131060000,-1,-1,-1,-1,60,-1,6,-1,-1,-1,-1,,9999,0,0,3,FEW 30   SCT 150   BKN 200,1,7,-1,3,1024,RJFZ 310600Z 06006KT 9999 FEW030 SCT150 BKN200 07/M03 Q1024     RMK 1CU030 3AC150 A3025=,
20180131_070000.004,0,RJFZ,,,,0,20180131070000,-1,-1,-1,-1,80,-1,5,-1,-1,-1,-1,,9999,0,0,3,FEW 30   SCT 120   BKN 200,1,6,-1,3,1024,RJFZ 310700Z 08005KT 9999 FEW030 SCT120 BKN200 06/M03 Q1024     RMK 1CU030 3AC120 A3026=,
20180131_080000.004,0,RJFZ,,,,0,20180131080000,-1,-1,-1,-1,80,-1,3,-1,-1,60,140,,9999,0,0,2,FEW 30   SCT 120,1,6,-1,2,1024,RJFZ 310800Z 08003KT 060V140 9999 FEW030 SCT120 06/M02 Q1024     RMK 1CU030 3AC120 A3026=,
20180131_090000.003,0,RJFZ,,,,0,20180131090000,-1,-1,-1,-1,180,-1,2,-1,-1,-1,-1,,9999,0,0,3,FEW 30   BKN 60   BKN 130,1,5,-1,3,1025,RJFZ 310900Z 18002KT 9999 FEW030 BKN060 BKN130 05/M03 Q1025     RMK 1CU030 5SC060 5AC130 A3028=,
20180131_100000.003,0,RJFZ,,,,0,20180131100000,-1,-1,-1,-1,180,-1,4,-1,-1,-1,-1,,9999,0,0,3,FEW 60   SCT 130   BKN -9999,1,4,-1,2,1024,RJFZ 311000Z 18004KT 9999 FEW060 SCT130 BKN/// 04/M02 Q1024     RMK 1SC060 4AC130 A3025=,
20180131_110000.003,0,RJFZ,,,,0,20180131110000,-1,-1,-1,-1,250,-1,4,-1,-1,-1,-1,,9999,0,0,3,FEW 60   SCT 130   BKN -9999,1,1,-1,3,1024,RJFZ 311100Z 25004KT 9999 FEW060 SCT130 BKN/// 01/M03 Q1024     RMK 1SC060 3AC130 A3024=,
20180131_120000.003,0,RJFZ,,,,0,20180131120000,-1,-1,-1,-1,240,-1,3,-1,-1,-1,-1,,9999,0,0,3,FEW 40   SCT 120   BKN -9999,1,3,-1,2,1024,RJFZ 311200Z 24003KT 9999 FEW040 SCT120 BKN/// 03/M02 Q1024     RMK 1SC040 3AC120 A3025=,
20180131_130000.004,0,RJFZ,,,,0,20180131130000,-1,-1,-1,-1,240,-1,4,-1,-1,-1,-1,,9999,0,0,3,FEW 40   SCT 80   BKN 110,1,2,-1,2,1024,RJFZ 311300Z 24004KT 9999 FEW040 SCT080 BKN110 02/M02 Q1024     RMK 1SC040 3AC080 6AC110 A3026=,
20180131_140000.003,0,RJFZ,,,,0,20180131140000,-1,-1,-1,-1,240,-1,4,-1,-1,-1,-1,,9999,0,0,3,FEW 35   BKN 70   BKN 110,1,2,-1,2,1024,RJFZ 311400Z 24004KT 9999 FEW035 BKN070 BKN110 02/M02 Q1024     RMK 1CU035 6AC070 7AC110 A3027=,
20180131_150000.003,0,RJFZ,,,,0,20180131150000,-1,-1,-1,-1,250,-1,4,-1,-1,-1,-1,,9999,0,0,3,FEW 30   BKN 50   BKN 70,1,3,-1,3,1025,RJFZ 311500Z 25004KT 9999 FEW030 BKN050 BKN070 03/M03 Q1025     RMK 1CU030 5SC050 7AC070 A3027=,
20180131_160000.003,0,RJFZ,,,,0,20180131160000,-1,-1,-1,-1,170,-1,4,-1,-1,-1,-1,,9999,0,1,3,FEW 25   BKN 45   BKN 60,1,4,-1,2,1024,RJFZ 311600Z 17004KT 9999 -RA FEW025 BKN045 BKN060 04/M02     Q1024 RMK 1CU025 6SC045 7SC060 A3026=,- RA
20180131_170000.003,0,RJFZ,,,,0,20180131170000,-1,-1,-1,-1,200,-1,5,-1,-1,-1,-1,,9999,0,1,3,FEW 25   BKN 40   BKN 60,1,3,-1,1,1024,RJFZ 311700Z 20005KT 9999 -SHRA FEW025 BKN040 BKN060 03/M01     Q1024 RMK 1CU025 6CU040 7SC060 A3026=,- RA SH
20180131_180000.003,0,RJFZ,,,,0,20180131180000,-1,-1,-1,-1,190,-1,4,-1,-1,-1,-1,,9999,0,1,3,FEW 25   BKN 40   BKN 60,1,3,1,0,1024,RJFZ 311800Z 19004KT 9999 -SHRA FEW025 BKN040 BKN060 03/00     Q1024 RMK 1CU025 6CU040 7SC060 A3025=,- RA SH
20180131_190000.004,0,RJFZ,,,,0,20180131190000,-1,-1,-1,-1,999,-1,2,-1,-1,-1,-1,,9999,0,1,3,FEW 25   BKN 40   BKN 60,1,3,1,0,1023,RJFZ 311900Z VRB02KT 9999 -SHRA FEW025 BKN040 BKN060 03/00     Q1023 RMK 1CU025 6CU040 7SC060 A3024=,- RA SH
20180131_200000.004,0,RJFZ,,,,0,20180131200000,-1,-1,-1,-1,240,-1,3,-1,-1,-1,-1,,9999,0,0,3,FEW 25   BKN 50   BKN 70,1,2,1,0,1023,RJFZ 312000Z 24003KT 9999 FEW025 BKN050 BKN070 02/00 Q1023 RMK     1CU025 6SC050 7AC070 A3024=,
20180131_210000.003,0,RJFZ,,,,0,20180131210000,-1,-1,-1,-1,240,-1,3,-1,-1,-1,-1,,9999,0,0,3,FEW 25   BKN 45   BKN 60,1,2,-1,0,1023,RJFZ 312100Z 24003KT 9999 FEW025 BKN045 BKN060 02/M00 Q1023     RMK 1CU025 5SC045 7SC060 A3024 08/01 R000 S000=,
20180131_220000.003,0,RJFZ,,,,0,20180131220000,-1,-1,-1,-1,240,-1,3,-1,-1,-1,-1,,9999,0,0,3,FEW 25   BKN 60   BKN 90,1,2,-1,0,1024,RJFZ 312200Z 24003KT 9999 FEW025 BKN060 BKN090 02/M00 Q1024     RMK 1CU025 5SC060 7AC090 A3025=,
20180131_230000.003,0,RJFZ,,,,0,20180131230000,-1,-1,-1,-1,190,-1,2,-1,-1,-1,-1,,9999,0,1,3,FEW 15   BKN 25   BKN 50,1,2,1,1,1025,RJFZ 312300Z 19002KT 9999 -RA FEW015 BKN025 BKN050 02/01 Q1025     RMK 1CU015 6CU025 7SC050 A3027=,- RA
20180201_000000.004,0,RJFZ,,,,0,20180201000000,-1,-1,-1,-1,150,-1,4,-1,-1,120,190,,9999,0,0,3,FEW 15   SCT 25   BKN 60,1,3,1,1,1025,RJFZ 010000Z 15004KT 120V190 9999 FEW015 SCT025 BKN060 03/01     Q1025 RMK 1CU015 3CU025 7SC060 A3027=,
20180201_010000.003,0,RJFZ,,,,0,20180201010000,-1,-1,-1,-1,150,-1,6,-1,-1,-1,-1,,9999,0,0,3,FEW 15   BKN 25   BKN 80,1,4,1,0,1025,RJFZ 010100Z 15006KT 9999 FEW015 BKN025 BKN080 04/00 Q1025 RMK     1CU015 5CU025 7AC080 A3027=,
20180201_020000.003,0,RJFZ,,,,0,20180201020000,-1,-1,-1,-1,130,-1,8,-1,-1,-1,-1,,9999,0,0,3,FEW 15   BKN 25   BKN 80,1,5,1,1,1024,RJFZ 010200Z 13008KT 9999 FEW015 BKN025 BKN080 05/01 Q1024 RMK     1CU015 6CU025 5AC080 A3027=,
20180201_030000.004,0,RJFZ,,,,0,20180201030000,-1,-1,-1,-1,120,-1,7,-1,-1,-1,-1,,9999,0,0,3,FEW 15   BKN 25   BKN 100,1,6,1,0,1024,RJFZ 010300Z 12007KT 9999 FEW015 BKN025 BKN100 06/00 Q1024 RMK     1CU015 5CU025 6AC100 A3025=,
20180201_040000.004,0,RJFZ,,,,0,20180201040000,-1,-1,-1,-1,110,-1,5,-1,-1,-1,-1,,9999,0,0,3,FEW 15   BKN 25   BKN 100,1,6,-1,1,1023,RJFZ 010400Z 11005KT 9999 FEW015 BKN025 BKN100 06/M01 Q1023     RMK 1CU015 6CU025 5AC100 A3023=,
20180201_050000.003,0,RJFZ,,,,0,20180201050000,-1,-1,-1,-1,120,-1,5,-1,-1,-1,-1,,9999,0,0,2,FEW 15   SCT 30,1,7,-1,1,1023,RJFZ 010500Z 12005KT 9999 FEW015 SCT030 07/M01 Q1023 RMK     1CU015 3CU030 A3021=,
20180201_060000.003,0,RJFZ,,,,0,20180201060000,-1,-1,-1,-1,100,-1,5,-1,-1,-1,-1,,9999,0,0,1,FEW 30,1,7,-1,1,1023,RJFZ 010600Z 10005KT 9999 FEW030 07/M01 Q1023 RMK 1CU030     A3021=,
20180201_070000.003,0,RJFZ,,,,0,20180201070000,-1,-1,-1,-1,110,-1,5,-1,-1,-1,-1,,9999,0,0,1,FEW 30,1,7,-1,2,1023,RJFZ 010700Z 11005KT 9999 FEW030 07/M02 Q1023 RMK 1CU030     A3021=,
20180201_080000.003,0,RJFZ,,,,0,20180201080000,-1,-1,-1,-1,90,-1,3,-1,-1,-1,-1,,9999,0,0,1,FEW 30,1,6,-1,2,1023,RJFZ 010800Z 09003KT 9999 FEW030 06/M02 Q1023 RMK 1CU030     A3022=,
20180201_090000.003,0,RJFZ,,,,0,20180201090000,-1,-1,-1,-1,0,-1,0,-1,-1,-1,-1,,9999,0,0,1,FEW 30,1,5,-1,1,1024,RJFZ 010900Z 00000KT 9999 FEW030 05/M01 Q1024 RMK 1CU030     A3025=,
20180201_100000.003,0,RJFZ,,,,0,20180201100000,-1,-1,-1,-1,180,-1,3,-1,-1,-1,-1,,9999,0,0,1,SCT 35,1,3,-1,1,1024,RJFZ 011000Z 18003KT 9999 SCT035 03/M01 Q1024 RMK 3CU035     A3026=,
20180201_110000.003,0,RJFZ,,,,0,20180201110000,-1,-1,-1,-1,260,-1,4,-1,-1,-1,-1,,9999,0,0,1,FEW 35,1,1,-1,2,1025,RJFZ 011100Z 26004KT 9999 FEW035 01/M02 Q1025 RMK 1CU035     A3027=,
20180201_120000.003,0,RJFZ,,,,0,20180201120000,-1,-1,-1,-1,230,-1,5,-1,-1,-1,-1,,9999,0,0,1,FEW 30,1,0,-1,3,1024,RJFZ 011200Z 23005KT 9999 FEW030 00/M03 Q1024 RMK 1CU030     A3025=,
20180201_130000.003,0,RJFZ,,,,0,20180201130000,-1,-1,-1,-1,250,-1,8,-1,-1,-1,-1,,9999,0,0,1,FEW 30,1,0,-1,2,1025,RJFZ 011300Z 25008KT 9999 FEW030 00/M02 Q1025 RMK 1CU030     A3029=,
20180201_140000.003,0,RJFZ,,,,0,20180201140000,-1,-1,-1,-1,240,-1,7,-1,-1,-1,-1,,9999,0,0,1,FEW 30,1,1,-1,2,1025,RJFZ 011400Z 24007KT 9999 FEW030 01/M02 Q1025 RMK 1CU030     A3029=,
20180201_150000.003,0,RJFZ,,,,0,20180201150000,-1,-1,-1,-1,250,-1,8,-1,-1,-1,-1,,9999,0,0,1,FEW 30,-1,0,-1,2,1025,RJFZ 011500Z 25008KT 9999 FEW030 M00/M02 Q1025 RMK 1CU030     A3028=,
20180201_160000.003,0,RJFZ,,,,0,20180201160000,-1,-1,-1,-1,240,-1,6,-1,-1,-1,-1,,9999,0,0,1,FEW 30,1,0,-1,2,1024,RJFZ 011600Z 24006KT 9999 FEW030 00/M02 Q1024 RMK 1CU030     A3025=,
20180201_170000.003,0,RJFZ,,,,0,20180201170000,-1,-1,-1,-1,230,-1,6,-1,-1,-1,-1,,9999,0,0,1,FEW 30,-1,0,-1,2,1025,RJFZ 011700Z 23006KT 9999 FEW030 M00/M02 Q1025 RMK 1CU030     A3027=,
20180201_180000.003,0,RJFZ,,,,0,20180201180000,-1,-1,-1,-1,240,-1,7,-1,-1,-1,-1,,9999,0,0,1,FEW 30,-1,1,-1,3,1024,RJFZ 011800Z 24007KT 9999 FEW030 M01/M03 Q1024 RMK 1CU030     A3025=,
20180201_190000.004,0,RJFZ,,,,0,20180201190000,-1,-1,-1,-1,250,-1,8,-1,-1,-1,-1,,9999,0,0,1,FEW 30,-1,2,-1,4,1024,RJFZ 011900Z 25008KT 9999 FEW030 M02/M04 Q1024 RMK 1CU030     A3024=,
20180201_200000.004,0,RJFZ,,,,0,20180201200000,-1,-1,-1,-1,250,-1,8,-1,-1,-1,-1,,9999,0,0,1,FEW 30,-1,1,-1,3,1023,RJFZ 012000Z 25008KT 9999 FEW030 M01/M03 Q1023 RMK 1CU030     A3022=,
20180201_210000.003,0,RJFZ,,,,0,20180201210000,-1,-1,-1,-1,240,-1,6,-1,-1,-1,-1,,9999,0,0,2,FEW 25   BKN 35,-1,1,-1,2,1023,RJFZ 012100Z 24006KT 9999 FEW025 BKN035 M01/M02 Q1023 RMK     1CU025 5CU035 A3023 08/M03 R000=,
20180201_220000.003,0,RJFZ,,,,0,20180201220000,-1,-1,-1,-1,250,-1,7,-1,-1,-1,-1,,9999,0,0,2,FEW 25   BKN 35,-1,1,-1,3,1024,RJFZ 012200Z 25007KT 9999 FEW025 BKN035 M01/M03 Q1024 RMK     1CU025 5CU035 A3025=,
20180201_230000.004,0,RJFZ,,,,0,20180201230000,-1,-1,-1,-1,240,-1,7,-1,-1,-1,-1,,9999,0,0,2,FEW 25   BKN 220,1,1,-1,1,1024,RJFZ 012300Z 24007KT 9999 FEW025 BKN220 01/M01 Q1024 RMK     1CU025 A3025=,
20180202_000000.003,0,RJFZ,,,,0,20180202000000,-1,-1,-1,-1,240,-1,5,-1,-1,-1,-1,,9999,0,0,2,FEW 25   BKN 220,1,5,1,1,1024,RJFZ 020000Z 24005KT 9999 FEW025 BKN220 05/01 Q1024 RMK 1CU025     A3027=,
20180202_010000.003,0,RJFZ,,,,0,20180202010000,-1,-1,-1,-1,250,-1,7,-1,-1,-1,-1,,9999,0,0,3,FEW 25   SCT 170   BKN 200,1,7,1,1,1025,RJFZ 020100Z 25007KT 9999 FEW025 SCT170 BKN200 07/01 Q1025 RMK     1CU025 4AC170 A3027=,
20180202_020000.003,0,RJFZ,,,,0,20180202020000,-1,-1,-1,-1,250,-1,5,-1,-1,-1,-1,,9999,0,0,3,FEW 30   SCT 50   BKN 170,1,8,-1,1,1024,RJFZ 020200Z 25005KT 9999 FEW030 SCT050 BKN170 08/M01 Q1024     RMK 1CU030 3SC050 5AC170 A3027=,
20180202_030000.003,0,RJFZ,,,,0,20180202030000,-1,-1,-1,-1,260,-1,7,-1,-1,-1,-1,,9999,0,0,3,FEW 30   SCT 60   BKN 170,1,9,-1,1,1024,RJFZ 020300Z 26007KT 9999 FEW030 SCT060 BKN170 09/M01 Q1024     RMK 1CU030 3SC060 5AC170 A3024=,
20180202_040000.003,0,RJFZ,,,,0,20180202040000,-1,-1,-1,-1,270,-1,7,-1,-1,230,300,,9999,0,0,3,FEW 30   SCT 60   BKN 170,1,10,-1,1,1023,RJFZ 020400Z 27007KT 230V300 9999 FEW030 SCT060 BKN170 10/M01     Q1023 RMK 1CU030 3SC060 5AC170 A3021=,
20180202_050000.002,0,RJFZ,,,,0,20180202050000,-1,-1,-1,-1,280,-1,5,-1,-1,230,350,,9999,0,0,3,FEW 30   BKN 45   BKN 150,1,9,-1,1,1022,RJFZ 020500Z 28005KT 230V350 9999 FEW030 BKN045 BKN150 09/M01     Q1022 RMK 2CU030 6SC045 6AC150 A3020=,
20180202_060000.003,0,RJFZ,,,,0,20180202060000,-1,-1,-1,-1,340,-1,4,-1,-1,-1,-1,,9999,0,0,3,FEW 30   BKN 40   BKN 150,1,9,1,0,1022,RJFZ 020600Z 34004KT 9999 FEW030 BKN040 BKN150 09/00 Q1022 RMK     2CU030 6SC040 6AC150 A3020=,
20180202_070000.003,0,RJFZ,,,,0,20180202070000,-1,-1,-1,-1,310,-1,3,-1,-1,240,20,,9999,0,0,3,FEW 20   SCT 30   BKN 40,1,9,1,0,1022,RJFZ 020700Z 31003KT 240V020 9999 FEW020 SCT030 BKN040 09/00     Q1022 RMK 1CU020 3CU030 6CU040 A3019=,
20180202_080000.003,0,RJFZ,,,,0,20180202080000,-1,-1,-1,-1,280,-1,7,-1,-1,260,320,,9999,0,0,3,FEW 20   SCT 30   BKN 40,1,8,1,1,1022,RJFZ 020800Z 28007KT 260V320 9999 FEW020 SCT030 BKN040 08/01     Q1022 RMK 1CU020 4CU030 7CU040 A3019=,
20180202_090000.003,0,RJFZ,,,,0,20180202090000,-1,-1,-1,-1,250,-1,6,-1,-1,-1,-1,,9999,0,0,3,FEW 15   BKN 30   BKN 40,1,6,1,2,1022,RJFZ 020900Z 25006KT 9999 FEW015 BKN030 BKN040 06/02 Q1022 RMK     2CU015 6CU030 7CU040 A3020=,
20180202_100000.004,0,RJFZ,,,,0,20180202100000,-1,-1,-1,-1,280,-1,5,-1,-1,-1,-1,,9999,0,1,3,FEW 10   BKN 25   BKN 40,1,6,1,3,1022,RJFZ 021000Z 28005KT 9999 -SHRA FEW010 BKN025 BKN040 06/03     Q1022 RMK 2CU010 6CU025 7CU040 A3020=,- RA SH
20180202_110000.003,0,RJFZ,,,,0,20180202110000,-1,-1,-1,-1,300,-1,8,-1,-1,-1,-1,,9999,0,1,3,FEW 10   BKN 25   BKN 40,1,5,1,3,1023,RJFZ 021100Z 30008KT 9999 -SHRA FEW010 BKN025 BKN040 05/03     Q1023 RMK 2CU010 6CU025 7CU040 A3021=,- RA SH
20180202_120000.003,0,RJFZ,,,,0,20180202120000,-1,-1,-1,-1,260,-1,6,-1,-1,-1,-1,,9999,0,1,3,FEW 10   BKN 25   BKN 40,1,5,1,3,1023,RJFZ 021200Z 26006KT 9999 -SHRA FEW010 BKN025 BKN040 05/03     Q1023 RMK 1CU010 5CU025 7CU040 A3021=,- RA SH
20180202_130000.004,0,RJFZ,,,,0,20180202130000,-1,-1,-1,-1,230,-1,4,-1,-1,-1,-1,,9999,0,1,3,FEW 15   BKN 30   BKN 40,1,5,1,3,1023,RJFZ 021300Z 23004KT 9999 -SHRA FEW015 BKN030 BKN040 05/03     Q1023 RMK 1CU015 5CU030 7CU040 A3021=,- RA SH
20180202_140000.003,0,RJFZ,,,,0,20180202140000,-1,-1,-1,-1,999,-1,2,-1,-1,-1,-1,,9999,0,0,3,FEW 30   SCT 40   BKN 60,1,4,1,2,1022,RJFZ 021400Z VRB02KT 9999 FEW030 SCT040 BKN060 04/02 Q1022 RMK     1CU030 4CU040 7SC060 A3019=,
20180202_150000.003,0,RJFZ,,,,0,20180202150000,-1,-1,-1,-1,240,-1,4,-1,-1,-1,-1,,9999,0,0,3,FEW 30   SCT 40   BKN 60,1,3,1,1,1022,RJFZ 021500Z 24004KT 9999 FEW030 SCT040 BKN060 03/01 Q1022 RMK     1CU030 4CU040 7SC060 A3019=,
20180202_160000.003,0,RJFZ,,,,0,20180202160000,-1,-1,-1,-1,230,-1,7,-1,-1,-1,-1,,9999,0,0,3,FEW 30   SCT 40   BKN 60,1,3,1,1,1022,RJFZ 021600Z 23007KT 9999 FEW030 SCT040 BKN060 03/01 Q1022 RMK     1CU030 4CU040 7SC060 A3018=,
20180202_170000.003,0,RJFZ,,,,0,20180202170000,-1,-1,-1,-1,260,-1,8,-1,-1,-1,-1,,9999,0,1,3,FEW 15   SCT 25   BKN 35,1,4,1,2,1022,RJFZ 021700Z 26008KT 9999 -SHRA FEW015 SCT025 BKN035 04/02     Q1022 RMK 1CU015 3CU025 7CU035 A3019=,- RA SH
20180202_180000.004,0,RJFZ,,,,0,20180202180000,-1,-1,-1,-1,220,-1,8,-1,-1,-1,-1,,9999,0,0,3,FEW 25   SCT 35   BKN 60,1,4,1,2,1022,RJFZ 021800Z 22008KT 9999 FEW025 SCT035 BKN060 04/02 Q1022 RMK     1CU025 4CU035 7SC060 A3018=,
20180202_190000.004,0,RJFZ,,,,0,20180202190000,-1,-1,-1,-1,240,-1,8,-1,-1,-1,-1,,9999,0,0,2,FEW 35   SCT 60,1,2,-1,0,1021,RJFZ 021900Z 24008KT 9999 FEW035 SCT060 02/M00 Q1021 RMK     1CU035 4SC060 A3016=,
20180202_200000.004,0,RJFZ,,,,0,20180202200000,-1,-1,-1,-1,280,-1,8,-1,-1,-1,-1,,9999,0,0,3,FEW 25   SCT 35   BKN 50,1,2,1,0,1021,RJFZ 022000Z 28008KT 9999 FEW025 SCT035 BKN050 02/00 Q1021 RMK     1CU025 4CU035 7SC050 A3017=,
20180202_210000.003,0,RJFZ,,,,0,20180202210000,-1,-1,-1,-1,300,-1,5,-1,-1,-1,-1,,9999,0,1,3,FEW 10   BKN 20   BKN 35,1,3,1,1,1022,RJFZ 022100Z 30005KT 9999 -SHRA FEW010 BKN020 BKN035 03/01     Q1022 RMK 1CU010 5CU020 7CU035 A3019 11/02 R003=,- RA SH
20180202_220000.003,0,RJFZ,,,,0,20180202220000,-1,-1,-1,-1,200,-1,4,-1,-1,-1,-1,,9999,0,0,2,FEW 20   SCT 35,1,2,-1,0,1022,RJFZ 022200Z 20004KT 9999 FEW020 SCT035 02/M00 Q1022 RMK     1CU020 4CU035 A3019=,
20180202_230000.004,0,RJFZ,,,,0,20180202230000,-1,-1,-1,-1,220,-1,4,-1,-1,-1,-1,,9999,0,0,3,FEW 15   SCT 35   BKN 230,1,2,1,0,1022,RJFZ 022300Z 22004KT 9999 FEW015 SCT035 BKN230 02/00 Q1022 RMK     1CU015 4CU035 A3019=,
20180203_000000.003,0,RJFZ,,,,0,20180203000000,-1,-1,-1,-1,250,-1,4,-1,-1,-1,-1,,9999,0,0,3,FEW 15   SCT 40   BKN 230,1,4,1,2,1022,RJFZ 030000Z 25004KT 9999 FEW015 SCT040 BKN230 04/02 Q1022 RMK     1CU015 4CU040 A3019=,
20180203_010000.004,0,RJFZ,,,,0,20180203010000,-1,-1,-1,-1,250,-1,6,-1,-1,-1,-1,,9999,0,0,2,FEW 25   SCT 40,1,7,1,1,1021,RJFZ 030100Z 25006KT 9999 FEW025 SCT040 07/01 Q1021 RMK 1CU025     3CU040 A3017=,
20180203_020000.003,0,RJFZ,,,,0,20180203020000,-1,-1,-1,-1,30,-1,5,-1,-1,320,90,,9999,0,0,2,FEW 25   BKN 40,1,6,-1,1,1021,RJFZ 030200Z 03005KT 320V090 9999 FEW025 BKN040 06/M01 Q1021     RMK 1CU025 5CU040 A3016=,
20180203_030000.003,0,RJFZ,,,,0,20180203030000,-1,-1,-1,-1,280,-1,8,-1,-1,-1,-1,,9999,0,1,3,FEW 15   SCT 30   BKN 40,1,7,-1,3,1021,RJFZ 030300Z 28008KT 9999 -SHRA FEW015 SCT030 BKN040 07/M03     Q1021 RMK 1CU015 3CU030 6CU040 A3016=,- RA SH
20180203_040000.003,0,RJFZ,,,,0,20180203040000,-1,-1,-1,-1,330,-1,11,-1,-1,-1,-1,,9999,0,0,3,FEW 15   SCT 30   BKN 40,1,8,-1,4,1020,RJFZ 030400Z 33011KT 9999 FEW015 SCT030 BKN040 08/M04 Q1020     RMK 1CU015 3CU030 6CU040 A3013=,
20180203_050000.003,0,RJFZ,,,,0,20180203050000,-1,-1,-1,-1,290,-1,15,-1,-1,-1,-1,,9999,0,0,3,FEW 15   SCT 30   BKN 45,1,6,-1,5,1020,RJFZ 030500Z 29015KT 9999 FEW015 SCT030 BKN045 06/M05 Q1020     RMK 1CU015 3CU030 7SC045 A3013 MAX WIND 20KT=,
20180203_060000.003,0,RJFZ,,,,0,20180203060000,-1,-1,-1,-1,270,-1,13,-1,-1,-1,-1,,9999,0,0,3,FEW 20   SCT 30   BKN 45,1,7,-1,2,1020,RJFZ 030600Z 27013KT 9999 FEW020 SCT030 BKN045 07/M02 Q1020     RMK 1CU020 3CU030 6SC045 A3014=,
20180203_070000.004,0,RJFZ,,,,0,20180203070000,-1,-1,-1,-1,260,-1,12,-1,-1,-1,-1,,9999,0,0,3,FEW 20   SCT 30   BKN 45,1,4,-1,1,1020,RJFZ 030700Z 26012KT 9999 FEW020 SCT030 BKN045 04/M01 Q1020     RMK 1CU020 3CU030 5SC045 A3014=,
20180203_080000.003,0,RJFZ,,,,0,20180203080000,-1,-1,-1,-1,270,-1,15,-1,-1,-1,-1,,9999,0,0,3,FEW 15   SCT 30   BKN 45,1,4,-1,5,1020,RJFZ 030800Z 27015KT 9999 FEW015 SCT030 BKN045 04/M05 Q1020     RMK 1CU015 3CU030 5SC045 A3014 MAX WIND 21KT=,
20180203_090000.003,0,RJFZ,,,,0,20180203090000,-1,-1,-1,-1,260,-1,9,-1,-1,230,290,,9999,0,0,2,FEW 20   BKN 45,1,3,-1,5,1020,RJFZ 030900Z 26009KT 230V290 9999 FEW020 BKN045 03/M05 Q1020     RMK 1CU020 5CU045 A3015=,
20180203_100000.003,0,RJFZ,,,,0,20180203100000,-1,-1,-1,-1,260,-1,7,-1,-1,230,290,,9999,0,0,2,FEW 20   SCT 45,1,2,-1,6,1021,RJFZ 031000Z 26007KT 230V290 9999 FEW020 SCT045 02/M06 Q1021     RMK 1CU020 4CU045 A3017=,
20180203_110000.003,0,RJFZ,,,,0,20180203110000,-1,-1,-1,-1,240,-1,3,-1,-1,-1,-1,,9999,0,0,2,FEW 20   SCT 45,1,0,-1,6,1021,RJFZ 031100Z 24003KT 9999 FEW020 SCT045 00/M06 Q1021 RMK     1CU020 3CU045 A3016=,
20180203_120000.003,0,RJFZ,,,,0,20180203120000,-1,-1,-1,-1,250,-1,5,-1,-1,210,280,,9999,0,0,2,FEW 25   BKN 45,1,1,-1,5,1021,RJFZ 031200Z 25005KT 210V280 9999 FEW025 BKN045 01/M05 Q1021     RMK 1CU025 5CU045 A3017=,
20180203_130000.003,0,RJFZ,,,,0,20180203130000,-1,-1,-1,-1,250,-1,10,-1,-1,-1,-1,,9999,0,1,2,FEW 20   BKN 40,1,2,-1,5,1022,RJFZ 031300Z 25010KT 9999 -SHSN FEW020 BKN040 02/M05 Q1022 RMK     1CU020 6CU040 A3018=,- SN SH
20180203_140000.003,0,RJFZ,,,,0,20180203140000,-1,-1,-1,-1,240,-1,9,-1,-1,-1,-1,,9999,0,0,2,FEW 20   BKN 45,1,2,-1,5,1021,RJFZ 031400Z 24009KT 9999 FEW020 BKN045 02/M05 Q1021 RMK     1CU020 6CU045 A3017=,
20180203_150000.003,0,RJFZ,,,,0,20180203150000,-1,-1,-1,-1,260,-1,7,-1,-1,-1,-1,,9999,0,0,2,FEW 20   BKN 45,1,2,-1,6,1021,RJFZ 031500Z 26007KT 9999 FEW020 BKN045 02/M06 Q1021 RMK     1CU020 7CU045 A3016=,
20180203_160000.003,0,RJFZ,,,,0,20180203160000,-1,-1,-1,-1,280,-1,14,-1,-1,-1,-1,,9999,0,0,2,FEW 20   SCT 45,1,2,-1,9,1021,RJFZ 031600Z 28014KT 9999 FEW020 SCT045 02/M09 Q1021 RMK     1CU020 4CU045 A3016=,
20180203_170000.003,0,RJFZ,,,,0,20180203170000,-1,-1,-1,-1,300,-1,14,-1,-1,-1,-1,,9999,0,0,2,FEW 25   SCT 45,1,2,-1,9,1021,RJFZ 031700Z 30014KT 9999 FEW025 SCT045 02/M09 Q1021 RMK     1CU025 4CU045 A3016=,
20180203_180000.004,0,RJFZ,,,,0,20180203180000,-1,-1,-1,-1,310,-1,14,-1,-1,-1,-1,,9999,0,0,2,FEW 25   SCT 45,1,1,-1,9,1021,RJFZ 031800Z 31014KT 9999 FEW025 SCT045 01/M09 Q1021 RMK     1CU025 4CU045 A3017=,
20180203_190000.003,0,RJFZ,,,,0,20180203190000,-1,-1,-1,-1,290,-1,17,-1,27,-1,-1,,9999,0,0,2,FEW 25   SCT 40,1,0,-1,9,1021,RJFZ 031900Z 29017G27KT 9999 FEW025 SCT040 00/M09 Q1021 RMK     1CU025 4CU040 A3017=,
20180203_200000.003,0,RJFZ,,,,0,20180203200000,-1,-1,-1,-1,300,-1,15,-1,-1,-1,-1,,9999,0,0,2,FEW 25   BKN 40,-1,0,-1,9,1021,RJFZ 032000Z 30015KT 9999 FEW025 BKN040 M00/M09 Q1021 RMK     1CU025 5CU040 A3017 MAX WIND 22KT=,
20180203_210000.003,0,RJFZ,,,,0,20180203210000,-1,-1,-1,-1,290,-1,18,-1,-1,-1,-1,,9999,0,0,2,FEW 25   SCT 40,-1,1,-1,10,1021,RJFZ 032100Z 29018KT 9999 FEW025 SCT040 M01/M10 Q1021 RMK     1CU025 4CU040 A3018 MAX WIND 27KT 09/M01 R001 S000=,
20180203_220000.003,0,RJFZ,,,,0,20180203220000,-1,-1,-1,-1,300,-1,17,-1,-1,-1,-1,,9999,0,1,2,FEW 15   BKN 40,-1,1,-1,9,1022,RJFZ 032200Z 30017KT 9999 -SHSN FEW015 BKN040 M01/M09 Q1022     RMK 1CU015 5CU040 A3020 MAX WIND 23KT=,- SN SH
20180203_230000.003,0,RJFZ,,,,0,20180203230000,-1,-1,-1,-1,290,-1,13,-1,-1,-1,-1,,9999,0,1,3,FEW 8   SCT 25   BKN 40,-1,1,-1,7,1023,RJFZ 032300Z 29013KT 9999 -SHSN FEW008 SCT025 BKN040 M01/M07     Q1023 RMK 1CU008 3CU025 6CU040 A3021 MAX WIND 22KT VIS SW           6KM=,- SN SH
20180204_000000.003,0,RJFZ,,,,0,20180204000000,-1,-1,-1,-1,280,-1,9,-1,-1,-1,-1,,9999,0,0,2,FEW 10   BKN 40,1,1,-1,9,1022,RJFZ 040000Z 28009KT 9999 FEW010 BKN040 01/M09 Q1022 RMK     1CU010 5CU040 A3020 MAX WIND 17KT=,
20180204_010000.003,0,RJFZ,,,,0,20180204010000,-1,-1,-1,-1,250,-1,14,-1,-1,-1,-1,,9999,0,1,3,FEW 10   SCT 25   BKN 40,1,0,-1,6,1022,RJFZ 040100Z 25014KT 9999 -SHSN FEW010 SCT025 BKN040 00/M06     Q1022 RMK 1CU010 3CU025 6CU040 A3021 MAX WIND 22KT=,- SN SH
20180204_020000.003,0,RJFZ,,,,0,20180204020000,-1,-1,-1,-1,250,-1,15,-1,-1,-1,-1,,9999,0,1,2,FEW 10   BKN 40,1,1,-1,5,1022,RJFZ 040200Z 25015KT 9999 -SHSN FEW010 BKN040 01/M05 Q1022 RMK     1CU010 6CU040 A3021 MAX WIND 22KT=,- SN SH
20180204_030000.003,0,RJFZ,,,,0,20180204030000,-1,-1,-1,-1,240,-1,16,-1,-1,-1,-1,,9999,0,1,3,FEW 10   SCT 25   BKN 40,1,1,-1,3,1022,RJFZ 040300Z 24016KT 9999 -SHSN FEW010 SCT025 BKN040 01/M03     Q1022 RMK 1CU010 3CU025 7CU040 A3019 MAX WIND 23KT VIS           S-SW 5KM=,- SN SH
20180204_040000.003,0,RJFZ,,,,0,20180204040000,-1,-1,-1,-1,260,-1,16,-1,-1,-1,-1,,1000,1,1,3,SCT 6   BKN 15   OVC 40,-1,2,-1,4,1021,RJFZ 040400Z 26016KT 1000 R25/1000D -SHSN SCT006 BKN015 OVC040     M02/M04 Q1021 RMK 3CU006 7CU015 8CU040 A3018 MAX WIND           23KT VIS W 1500M=,- SN SH
20180204_050000.003,0,RJFZ,,,,0,20180204050000,-1,-1,-1,-1,270,-1,10,-1,-1,230,290,,3500,0,1,3,FEW 10   BKN 25   OVC 40,-1,0,-1,4,1021,RJFZ 040500Z 27010KT 230V290 3500 -SHSN FEW010 BKN025 OVC040     M00/M04 Q1021 RMK 1CU010 6CU025 8CU040 A3016 VIS SE 5KM           SW-W 3000M=,- SN SH
20180204_060000.003,0,RJFZ,,,,0,20180204060000,-1,-1,-1,-1,270,-1,10,-1,-1,-1,-1,,4000,0,1,3,FEW 10   BKN 25   BKN 40,-1,1,-1,3,1021,RJFZ 040600Z 27010KT 4000 -SHSN FEW010 BKN025 BKN040 M01/M03     Q1021 RMK 1CU010 5CU025 6CU040 A3017 VIS W 3000M=,- SN SH
20180204_070000.003,0,RJFZ,,,,0,20180204070000,-1,-1,-1,-1,270,-1,8,-1,-1,-1,-1,,3000,0,1,3,FEW 10   BKN 20   OVC 40,-1,1,-1,3,1021,RJFZ 040700Z 27008KT 3000 -SHSN FEW010 BKN020 OVC040 M01/M03     Q1021 RMK 1CU010 7CU020 8CU040 A3017=,- SN SH
20180204_080000.003,0,RJFZ,,,,0,20180204080000,-1,-1,-1,-1,260,-1,11,-1,-1,-1,-1,,9999,0,1,2,FEW 20   SCT 35,-1,1,-1,5,1021,RJFZ 040800Z 26011KT 9999 -SHSN FEW020 SCT035 M01/M05 Q1021     RMK 1CU020 4CU035 A3017=,- SN SH
20180204_090000.003,0,RJFZ,,,,0,20180204090000,-1,-1,-1,-1,250,-1,13,-1,-1,-1,-1,,9999,0,0,2,FEW 20   SCT 35,-1,2,-1,5,1022,RJFZ 040900Z 25013KT 9999 FEW020 SCT035 M02/M05 Q1022 RMK     1CU020 4CU035 A3019=,
20180204_100000.003,0,RJFZ,,,,0,20180204100000,-1,-1,-1,-1,250,-1,11,-1,-1,-1,-1,,9999,0,1,3,FEW 20   SCT 40   BKN 50,-1,2,-1,5,1022,RJFZ 041000Z 25011KT 9999 -SHSN FEW020 SCT040 BKN050 M02/M05     Q1022 RMK 1CU020 4CU040 5SC050 A3019=,- SN SH
20180204_110000.004,0,RJFZ,,,,0,20180204110000,-1,-1,-1,-1,260,-1,8,-1,-1,-1,-1,,9999,0,0,3,FEW 20   SCT 40   BKN 50,-1,2,-1,6,1023,RJFZ 041100Z 26008KT 9999 FEW020 SCT040 BKN050 M02/M06 Q1023     RMK 1CU020 3CU040 5SC050 A3021=,
20180204_120000.003,0,RJFZ,,,,0,20180204120000,-1,-1,-1,-1,260,-1,8,-1,-1,-1,-1,,9999,0,1,3,FEW 20   SCT 40   BKN 50,-1,2,-1,6,1023,RJFZ 041200Z 26008KT 9999 -SHSN FEW020 SCT040 BKN050 M02/M06     Q1023 RMK 1CU020 3CU040 5SC050 A3021=,- SN SH
20180204_130000.003,0,RJFZ,,,,0,20180204130000,-1,-1,-1,-1,260,-1,9,-1,-1,-1,-1,,9999,0,1,3,FEW 20   SCT 40   BKN 50,-1,2,-1,7,1022,RJFZ 041300Z 26009KT 9999 -SHSN FEW020 SCT040 BKN050 M02/M07     Q1022 RMK 1CU020 3CU040 5SC050 A3020=,- SN SH
20180204_140000.003,0,RJFZ,,,,0,20180204140000,-1,-1,-1,-1,260,-1,9,-1,-1,-1,-1,,9999,0,1,3,FEW 20   SCT 40   BKN 50,-1,2,-1,7,1022,RJFZ 041400Z 26009KT 9999 -SHSN FEW020 SCT040 BKN050 M02/M07     Q1022 RMK 1CU020 3CU040 5SC050 A3020=,- SN SH
20180204_150000.003,0,RJFZ,,,,0,20180204150000,-1,-1,-1,-1,260,-1,8,-1,-1,-1,-1,,9999,0,1,3,FEW 20   SCT 40   BKN 50,-1,3,-1,7,1022,RJFZ 041500Z 26008KT 9999 -SHSN FEW020 SCT040 BKN050 M03/M07     Q1022 RMK 1CU020 3CU040 5SC050 A3021=,- SN SH
20180204_160000.003,0,RJFZ,,,,0,20180204160000,-1,-1,-1,-1,260,-1,6,-1,-1,-1,-1,,9999,0,1,3,FEW 20   SCT 40   BKN 50,-1,3,-1,6,1022,RJFZ 041600Z 26006KT 9999 -SHSN FEW020 SCT040 BKN050 M03/M06     Q1022 RMK 1CU020 3CU040 5SC050 A3018=,- SN SH
20180204_170000.003,0,RJFZ,,,,0,20180204170000,-1,-1,-1,-1,260,-1,8,-1,-1,-1,-1,,9999,0,1,3,FEW 20   SCT 40   BKN 50,-1,2,-1,6,1022,RJFZ 041700Z 26008KT 9999 -SHSN FEW020 SCT040 BKN050 M02/M06     Q1022 RMK 1CU020 4CU040 6SC050 A3018=,- SN SH
20180204_180000.004,0,RJFZ,,,,0,20180204180000,-1,-1,-1,-1,280,-1,5,-1,-1,-1,-1,,9999,0,1,3,FEW 20   SCT 40   BKN 50,-1,1,-1,6,1022,RJFZ 041800Z 28005KT 9999 -SHSN FEW020 SCT040 BKN050 M01/M06     Q1022 RMK 1CU020 3CU040 7SC050 A3019=,- SN SH
20180204_190000.003,0,RJFZ,,,,0,20180204190000,-1,-1,-1,-1,280,-1,8,-1,-1,-1,-1,,9999,0,1,3,FEW 20   BKN 40   BKN 50,-1,0,-1,7,1022,RJFZ 041900Z 28008KT 9999 -SHSN FEW020 BKN040 BKN050 M00/M07     Q1022 RMK 1CU020 5CU040 7SC050 A3019=,- SN SH
20180204_200000.003,0,RJFZ,,,,0,20180204200000,-1,-1,-1,-1,300,-1,11,-1,-1,-1,-1,,9999,0,1,3,FEW 20   BKN 40   BKN 60,-1,1,-1,9,1022,RJFZ 042000Z 30011KT 9999 -SHSN FEW020 BKN040 BKN060 M01/M09     Q1022 RMK 1CU020 5CU040 5SC060 A3019=,- SN SH
20180204_210000.003,0,RJFZ,,,,0,20180204210000,-1,-1,-1,-1,270,-1,8,-1,-1,-1,-1,,9999,0,1,3,FEW 20   BKN 40   BKN 60,-1,1,-1,8,1023,RJFZ 042100Z 27008KT 9999 -SHSN FEW020 BKN040 BKN060 M01/M08     Q1023 RMK 1CU020 5CU040 5SC060 A3021 03/M03 R001 S003=,- SN SH
20180204_220000.003,0,RJFZ,,,,0,20180204220000,-1,-1,-1,-1,270,-1,8,-1,-1,-1,-1,,9999,0,1,2,FEW 15   BKN 40,-1,2,-1,8,1023,RJFZ 042200Z 27008KT 9999 -SHSN FEW015 BKN040 M02/M08 Q1023     RMK 1CU015 6CU040 A3022=,- SN SH
20180204_220000.005,1,RJFZ,,,,0,20180204220000,-1,-1,-1,-1,270,-1,8,-1,-1,-1,-1,,9999,0,1,2,FEW 15   BKN 40,-1,2,-1,8,1023,RJFZ 042200Z 27008KT 9999 -SHSN FEW015 BKN040 M02/M08     Q1023 RMK 1CU015 6CU040 A3022=,- SN SH
20180204_230000.003,0,RJFZ,,,,0,20180204230000,-1,-1,-1,-1,300,-1,17,-1,-1,-1,-1,,9999,0,1,3,FEW 10   SCT 30   BKN 40,-1,1,-1,10,1023,RJFZ 042300Z 30017KT 9999 -SHSN FEW010 SCT030 BKN040 M01/M10     Q1023 RMK 1CU010 3CU030 6CU040 A3022 MAX WIND 25KT=,- SN SH
20180205_000000.004,0,RJFZ,,,,0,20180205000000,-1,-1,-1,-1,270,-1,14,-1,-1,230,290,,9999,0,1,3,FEW 10   SCT 20   BKN 30,-1,1,-1,8,1023,RJFZ 050000Z 27014KT 230V290 9999 -SHSN FEW010 SCT020 BKN030     M01/M08 Q1023 RMK 1CU010 3CU020 6CU030 A3024 MAX WIND           23KT VIS S-W 4500M=,- SN SH
20180205_010000.003,0,RJFZ,,,,0,20180205010000,-1,-1,-1,-1,280,-1,17,-1,-1,230,320,,9999,0,1,2,FEW 15   BKN 40,1,0,-1,10,1023,RJFZ 050100Z 28017KT 230V320 9999 -SHSN FEW015 BKN040 00/M10     Q1023 RMK 1CU015 6CU040 A3022 MAX WIND 26KT=,- SN SH
20180205_020000.003,0,RJFZ,,,,0,20180205020000,-1,-1,-1,-1,280,-1,16,-1,-1,-1,-1,,9999,0,1,3,FEW 15   SCT 30   BKN 40,1,0,-1,7,1023,RJFZ 050200Z 28016KT 9999 -SHSN FEW015 SCT030 BKN040 00/M07     Q1023 RMK 1CU015 3CU030 6CU040 A3022 MAX WIND 25KT=,- SN SH
