20180101_000000.002,0,RJKA,,,,0,20180101000000,-1,-1,-1,-1,330,-1,9,-1,-1,-1,-1,CAVOK,-1,0,0,0,,1,16,1,6,1023,RJKA 010000Z 33009KT CAVOK 16/06 Q1023 RMK A3022=,
20180101_010000.002,0,RJKA,,,,0,20180101010000,-1,-1,-1,-1,310,-1,8,-1,-1,280,360,,9999,0,0,1,FEW 45,1,17,1,6,1023,RJKA 010100Z 31008KT 280V360 9999 FEW045 17/06 Q1023 RMK     1CU045 A3023=,
20180101_020000.002,0,RJKA,,,,0,20180101020000,-1,-1,-1,-1,350,-1,10,-1,-1,-1,-1,CAVOK,-1,0,0,0,,1,18,1,5,1023,RJKA 010200Z 35010KT CAVOK 18/05 Q1023 RMK A3022=,
20180101_030000.002,0,RJKA,,,,0,20180101030000,-1,-1,-1,-1,320,-1,9,-1,-1,280,10,,9999,0,0,2,FEW 40   SCT 50,1,17,1,7,1022,RJKA 010300Z 32009KT 280V010 9999 FEW040 SCT050 17/07 Q1022     RMK 1CU040 4SC050 A3020=,
20180101_040000.002,0,RJKA,,,,0,20180101040000,-1,-1,-1,-1,340,-1,13,-1,-1,300,360,,9999,0,0,2,FEW 40   SCT 50,1,18,1,6,1022,RJKA 010400Z 34013KT 300V360 9999 FEW040 SCT050 18/06 Q1022     RMK 1CU040 4SC050 A3018=,
20180101_050000.002,0,RJKA,,,,0,20180101050000,-1,-1,-1,-1,340,-1,11,-1,-1,300,10,,9999,0,0,2,FEW 40   SCT 50,1,17,1,7,1021,RJKA 010500Z 34011KT 300V010 9999 FEW040 SCT050 17/07 Q1021     RMK 1CU040 4SC050 A3017=,
20180101_060000.002,0,RJKA,,,,0,20180101060000,-1,-1,-1,-1,340,-1,13,-1,-1,290,20,,9999,0,0,2,FEW 40   SCT 50,1,16,1,7,1021,RJKA 010600Z 34013KT 290V020 9999 FEW040 SCT050 16/07 Q1021     RMK 1CU040 4SC050 A3017=,
20180101_070000.002,0,RJKA,,,,0,20180101070000,-1,-1,-1,-1,350,-1,13,-1,-1,310,20,,9999,0,0,1,FEW 40,1,16,1,5,1022,RJKA 010700Z 35013KT 310V020 9999 FEW040 16/05 Q1022 RMK     1CU040 A3018=,
20180101_080000.002,0,RJKA,,,,0,20180101080000,-1,-1,-1,-1,350,-1,11,-1,-1,-1,-1,,9999,0,0,2,FEW 35   BKN 50,1,16,1,7,1022,RJKA 010800Z 35011KT 9999 FEW035 BKN050 16/07 Q1022 RMK 1CU035     5SC050 A3018=,
20180101_090000.002,0,RJKA,,,,0,20180101090000,-1,-1,-1,-1,350,-1,12,-1,-1,-1,-1,,9999,0,0,2,FEW 35   BKN 50,1,15,1,7,1022,RJKA 010900Z 35012KT 9999 FEW035 BKN050 15/07 Q1022 RMK 1CU035     5SC050 A3019=,
20180101_100000.002,0,RJKA,,,,0,20180101100000,-1,-1,-1,-1,350,-1,15,-1,-1,-1,-1,,9999,0,0,2,FEW 45   BKN 50,1,15,1,5,1022,RJKA 011000Z 35015KT 9999 FEW045 BKN050 15/05 Q1022 RMK 1CU045     5SC050 A3020=,
20180101_213000.001,0,RJKA,,,,0,20180101210000,-1,-1,-1,-1,340,-1,7,-1,-1,-1,-1,,9999,0,0,2,FEW 40   SCT 50,1,13,1,5,1024,RJKA 012130Z 34007KT 9999 FEW040 SCT050 13/05 Q1024 RMK 1CU040     3SC050 A3026=,
20180101_220000.002,0,RJKA,,,,0,20180101220000,-1,-1,-1,-1,340,-1,6,-1,-1,-1,-1,,9999,0,0,2,FEW 35   BKN 45,1,14,1,7,1024,RJKA 012200Z 34006KT 9999 FEW035 BKN045 14/07 Q1024 RMK 1CU035     6SC045 A3026=,
20180101_230000.002,0,RJKA,,,,0,20180101230000,-1,-1,-1,-1,10,-1,8,-1,-1,-1,-1,,9999,0,0,2,FEW 35   SCT 40,1,14,1,6,1024,RJKA 012300Z 01008KT 9999 FEW035 SCT040 14/06 Q1024 RMK 1CU035     3CU040 A3026=,
20180102_000000.003,0,RJKA,,,,0,20180102000000,-1,-1,-1,-1,30,-1,13,-1,-1,-1,-1,,9999,0,0,3,FEW 30   SCT 35   BKN 45,1,17,1,9,1025,RJKA 020000Z 03013KT 9999 FEW030 SCT035 BKN045 17/09 Q1025 RMK     1CU030 3CU035 7SC045 A3027=,
20180102_010000.003,0,RJKA,,,,0,20180102010000,-1,-1,-1,-1,30,-1,14,-1,-1,-1,-1,,9999,0,0,2,FEW 35   BKN 45,1,17,1,8,1025,RJKA 020100Z 03014KT 9999 FEW035 BKN045 17/08 Q1025 RMK 1CU035     5SC045 A3028=,
20180102_020000.002,0,RJKA,,,,0,20180102020000,-1,-1,-1,-1,30,-1,10,-1,-1,-1,-1,,9999,0,0,2,FEW 35   SCT 40,1,17,1,6,1025,RJKA 020200Z 03010KT 9999 FEW035 SCT040 17/06 Q1025 RMK 1CU035     3SC040 A3028=,
20180102_030000.002,0,RJKA,,,,0,20180102030000,-1,-1,-1,-1,20,-1,11,-1,-1,-1,-1,,9999,0,0,2,FEW 35   SCT 40,1,18,1,7,1024,RJKA 020300Z 02011KT 9999 FEW035 SCT040 18/07 Q1024 RMK 1CU035     4SC040 A3026=,
20180102_040000.002,0,RJKA,,,,0,20180102040000,-1,-1,-1,-1,20,-1,10,-1,-1,-1,-1,,9999,0,0,2,FEW 35   SCT 40,1,18,1,7,1023,RJKA 020400Z 02010KT 9999 FEW035 SCT040 18/07 Q1023 RMK 1CU035     4SC040 A3023=,
20180102_050000.002,0,RJKA,,,,0,20180102050000,-1,-1,-1,-1,20,-1,9,-1,-1,-1,-1,,9999,0,0,2,FEW 35   BKN 40,1,17,1,7,1023,RJKA 020500Z 02009KT 9999 FEW035 BKN040 17/07 Q1023 RMK 1CU035     5SC040 A3022=,
20180102_060000.002,0,RJKA,,,,0,20180102060000,-1,-1,-1,-1,20,-1,9,-1,-1,350,50,,9999,0,0,2,FEW 35   SCT 40,1,17,1,6,1022,RJKA 020600Z 02009KT 350V050 9999 FEW035 SCT040 17/06 Q1022     RMK 1CU035 3SC040 A3020=,
20180102_070000.002,0,RJKA,,,,0,20180102070000,-1,-1,-1,-1,10,-1,9,-1,-1,-1,-1,,9999,0,0,2,FEW 35   BKN 40,1,16,1,8,1022,RJKA 020700Z 01009KT 9999 FEW035 BKN040 16/08 Q1022 RMK 1CU035     5SC040 A3020=,
20180102_080000.002,0,RJKA,,,,0,20180102080000,-1,-1,-1,-1,10,-1,6,-1,-1,-1,-1,,9999,0,0,3,FEW 35   SCT 40   BKN 45,1,15,1,8,1023,RJKA 020800Z 01006KT 9999 FEW035 SCT040 BKN045 15/08 Q1023 RMK     1CU035 3CU040 7SC045 A3021=,
20180102_090000.002,0,RJKA,,,,0,20180102090000,-1,-1,-1,-1,360,-1,4,-1,-1,-1,-1,,9999,0,0,3,FEW 35   SCT 40   BKN 45,1,15,1,8,1023,RJKA 020900Z 36004KT 9999 FEW035 SCT040 BKN045 15/08 Q1023 RMK     1CU035 3CU040 7SC045 A3022=,
20180102_100000.002,0,RJKA,,,,0,20180102100000,-1,-1,-1,-1,350,-1,7,-1,-1,-1,-1,,9999,0,0,3,FEW 35   SCT 40   BKN 45,1,15,1,8,1023,RJKA 021000Z 35007KT 9999 FEW035 SCT040 BKN045 15/08 Q1023 RMK     1CU035 3CU040 7SC045 A3023=,
20180102_213000.001,0,RJKA,,,,0,20180102210000,-1,-1,-1,-1,350,-1,4,-1,-1,-1,-1,,9999,0,0,3,FEW 35   SCT 40   BKN 50,1,14,1,8,1023,RJKA 022130Z 35004KT 9999 FEW035 SCT040 BKN050 14/08 Q1023 RMK     1CU035 3CU040 5SC050 A3022=,
20180102_220000.002,0,RJKA,,,,0,20180102220000,-1,-1,-1,-1,360,-1,5,-1,-1,-1,-1,,9999,0,0,2,FEW 30   BKN -9999,1,14,1,8,1023,RJKA 022200Z 36005KT 9999 FEW030 BKN/// 14/08 Q1023 RMK 1CU030     A3022=,
20180102_230000.002,0,RJKA,,,,0,20180102230000,-1,-1,-1,-1,350,-1,6,-1,-1,310,20,,9999,0,0,3,FEW 40   SCT 45   BKN -9999,1,16,1,7,1024,RJKA 022300Z 35006KT 310V020 9999 FEW040 SCT045 BKN/// 16/07     Q1024 RMK 1CU040 3CU045 A3024=,
20180103_000000.002,0,RJKA,,,,0,20180103000000,-1,-1,-1,-1,350,-1,7,-1,-1,-1,-1,,9999,0,0,3,FEW 40   SCT 45   BKN 170,1,16,1,7,1024,RJKA 030000Z 35007KT 9999 FEW040 SCT045 BKN170 16/07 Q1024 RMK     1CU040 4CU045 6AC170 A3026=,
20180103_010000.002,0,RJKA,,,,0,20180103010000,-1,-1,-1,-1,10,-1,11,-1,-1,-1,-1,,9999,0,0,3,FEW 40   BKN 50   BKN 170,1,17,1,7,1024,RJKA 030100Z 01011KT 9999 FEW040 BKN050 BKN170 17/07 Q1024 RMK     1CU040 5SC050 7AC170 A3026=,
20180103_020000.002,0,RJKA,,,,0,20180103020000,-1,-1,-1,-1,360,-1,12,-1,-1,-1,-1,,9999,0,0,3,FEW 40   SCT 50   BKN 170,1,18,1,7,1024,RJKA 030200Z 36012KT 9999 FEW040 SCT050 BKN170 18/07 Q1024 RMK     1CU040 3SC050 7AC170 A3026=,
20180103_030000.003,0,RJKA,,,,0,20180103030000,-1,-1,-1,-1,10,-1,10,-1,-1,-1,-1,,9999,0,0,2,FEW 45   BKN -9999,1,19,1,7,1023,RJKA 030300Z 01010KT 9999 FEW045 BKN/// 19/07 Q1023 RMK 1CU045     A3021=,
20180103_040000.002,0,RJKA,,,,0,20180103040000,-1,-1,-1,-1,350,-1,9,-1,-1,-1,-1,,9999,0,0,3,FEW 40   BKN 50   BKN -9999,1,17,1,8,1022,RJKA 030400Z 35009KT 9999 FEW040 BKN050 BKN/// 17/08 Q1022 RMK     1CU040 5SC050 A3020=,
20180103_050000.002,0,RJKA,,,,0,20180103050000,-1,-1,-1,-1,10,-1,11,-1,-1,340,40,,9999,0,0,3,FEW 40   BKN 50   BKN -9999,1,17,1,8,1022,RJKA 030500Z 01011KT 340V040 9999 FEW040 BKN050 BKN/// 17/08     Q1022 RMK 1CU040 5SC050 A3018=,
20180103_060000.002,0,RJKA,,,,0,20180103060000,-1,-1,-1,-1,10,-1,11,-1,-1,-1,-1,,9999,0,0,3,FEW 35   BKN 45   BKN -9999,1,17,1,9,1022,RJKA 030600Z 01011KT 9999 FEW035 BKN045 BKN/// 17/09 Q1022 RMK     1CU035 5SC045 A3018=,
20180103_070000.002,0,RJKA,,,,0,20180103070000,-1,-1,-1,-1,10,-1,12,-1,-1,-1,-1,,9999,0,0,3,FEW 35   BKN 40   BKN 50,1,17,1,9,1022,RJKA 030700Z 01012KT 9999 FEW035 BKN040 BKN050 17/09 Q1022 RMK     1CU035 5CU040 6SC050 A3018=,
20180103_080000.002,0,RJKA,,,,0,20180103080000,-1,-1,-1,-1,360,-1,11,-1,-1,-1,-1,,9999,0,0,3,FEW 30   BKN 40   BKN 60,1,17,1,9,1022,RJKA 030800Z 36011KT 9999 FEW030 BKN040 BKN060 17/09 Q1022 RMK     1CU030 5CU040 6SC060 A3018=,
20180103_090000.002,0,RJKA,,,,0,20180103090000,-1,-1,-1,-1,360,-1,13,-1,-1,-1,-1,,9999,0,0,3,FEW 35   BKN 40   BKN 50,1,16,1,9,1022,RJKA 030900Z 36013KT 9999 FEW035 BKN040 BKN050 16/09 Q1022 RMK     1CU035 5CU040 7SC050 A3019=,
20180103_100000.002,0,RJKA,,,,0,20180103100000,-1,-1,-1,-1,360,-1,13,-1,-1,-1,-1,,9999,0,0,3,FEW 35   BKN 40   BKN 50,1,16,1,9,1022,RJKA 031000Z 36013KT 9999 FEW035 BKN040 BKN050 16/09 Q1022 RMK     1CU035 5CU040 7SC050 A3020=,
20180103_213000.001,0,RJKA,,,,0,20180103210000,-1,-1,-1,-1,350,-1,5,-1,-1,-1,-1,,9999,0,0,2,FEW 40   BKN 60,1,15,1,8,1022,RJKA 032130Z 35005KT 9999 FEW040 BKN060 15/08 Q1022 RMK 1CU040     7SC060 A3018=,
20180103_220000.002,0,RJKA,,,,0,20180103220000,-1,-1,-1,-1,350,-1,6,-1,-1,-1,-1,,9999,0,0,2,FEW 35   BKN 60,1,15,1,8,1022,RJKA 032200Z 35006KT 9999 FEW035 BKN060 15/08 Q1022 RMK 1CU035     7SC060 A3019=,
20180103_230000.002,0,RJKA,,,,0,20180103230000,-1,-1,-1,-1,10,-1,10,-1,-1,-1,-1,,9999,0,0,3,FEW 30   BKN 40   BKN 50,1,16,1,8,1022,RJKA 032300Z 01010KT 9999 FEW030 BKN040 BKN050 16/08 Q1022 RMK     1CU030 6CU040 7SC050 A3020=,
20180104_000000.002,0,RJKA,,,,0,20180104000000,-1,-1,-1,-1,10,-1,9,-1,-1,-1,-1,,9999,0,0,2,FEW 30   BKN 60,1,17,1,8,1022,RJKA 040000Z 01009KT 9999 FEW030 BKN060 17/08 Q1022 RMK 1CU030     7SC060 A3019=,
20180104_010000.002,0,RJKA,,,,0,20180104010000,-1,-1,-1,-1,10,-1,9,-1,-1,-1,-1,,9999,0,0,2,FEW 35   BKN 60,1,17,1,8,1022,RJKA 040100Z 01009KT 9999 FEW035 BKN060 17/08 Q1022 RMK 1CU035     7SC060 A3019=,
20180104_020000.002,0,RJKA,,,,0,20180104020000,-1,-1,-1,-1,20,-1,9,-1,-1,350,50,,9999,0,0,3,FEW 35   SCT 70   BKN 90,1,18,1,9,1022,RJKA 040200Z 02009KT 350V050 9999 FEW035 SCT070 BKN090 18/09     Q1022 RMK 1CU035 3AC070 7AC090 A3019=,
20180104_030000.002,0,RJKA,,,,0,20180104030000,-1,-1,-1,-1,40,-1,8,-1,-1,-1,-1,,9999,0,0,2,FEW 35   BKN 120,1,17,1,9,1021,RJKA 040300Z 04008KT 9999 FEW035 BKN120 17/09 Q1021 RMK 1CU035     7AC120 A3015=,
20180104_040000.002,0,RJKA,,,,0,20180104040000,-1,-1,-1,-1,40,-1,7,-1,-1,-1,-1,,9999,0,0,3,FEW 35   BKN 50   BKN 90,1,17,1,8,1020,RJKA 040400Z 04007KT 9999 FEW035 BKN050 BKN090 17/08 Q1020 RMK     1CU035 6SC050 7AC090 A3012=,
20180104_050000.002,0,RJKA,,,,0,20180104050000,-1,-1,-1,-1,30,-1,8,-1,-1,-1,-1,,9999,0,0,2,FEW 35   BKN 50,1,17,1,9,1019,RJKA 040500Z 03008KT 9999 FEW035 BKN050 17/09 Q1019 RMK 1CU035     7SC050 A3010=,
20180104_060000.003,0,RJKA,,,,0,20180104060000,-1,-1,-1,-1,40,-1,6,-1,-1,-1,-1,,9999,0,0,2,FEW 35   BKN 50,1,17,1,9,1018,RJKA 040600Z 04006KT 9999 FEW035 BKN050 17/09 Q1018 RMK 2CU035     7SC050 A3008=,
20180104_070000.002,0,RJKA,,,,0,20180104070000,-1,-1,-1,-1,20,-1,6,-1,-1,-1,-1,,9999,0,0,3,FEW 30   SCT 35   BKN 47,1,17,1,10,1019,RJKA 040700Z 02006KT 9999 FEW030 SCT035 BKN047 17/10 Q1019 RMK     1CU030 3CU035 7SC047 A3010=,
20180104_080000.002,0,RJKA,,,,0,20180104080000,-1,-1,-1,-1,40,-1,6,-1,-1,10,80,,9999,0,0,3,FEW 30   BKN 35   BKN 45,1,16,1,10,1019,RJKA 040800Z 04006KT 010V080 9999 FEW030 BKN035 BKN045 16/10     Q1019 RMK 1CU030 5CU035 7SC045 A3010=,
20180104_090000.002,0,RJKA,,,,0,20180104090000,-1,-1,-1,-1,50,-1,6,-1,-1,-1,-1,,9999,0,0,3,FEW 30   BKN 35   BKN 45,1,16,1,10,1019,RJKA 040900Z 05006KT 9999 FEW030 BKN035 BKN045 16/10 Q1019 RMK     1CU030 5CU035 6SC045 A3010=,
20180104_100000.002,0,RJKA,,,,0,20180104100000,-1,-1,-1,-1,60,-1,5,-1,-1,-1,-1,,9999,0,0,3,FEW 25   BKN 35   BKN 40,1,16,1,10,1018,RJKA 041000Z 06005KT 9999 FEW025 BKN035 BKN040 16/10 Q1018 RMK     1CU025 6CU035 7SC040 A3008=,
20180104_213000.001,0,RJKA,,,,0,20180104210000,-1,-1,-1,-1,200,-1,20,-1,-1,-1,-1,,9999,0,1,3,FEW 15   BKN 25   BKN 40,1,20,1,17,1010,RJKA 042130Z 20020KT 9999 -SHRA FEW015 BKN025 BKN040 20/17     Q1010 RMK 1CU015 5CU025 7SC040 A2984=,- RA SH
20180104_220000.002,0,RJKA,,,,0,20180104220000,-1,-1,-1,-1,200,-1,22,-1,-1,-1,-1,,9999,0,1,3,FEW 20   BKN 30   BKN 40,1,20,1,17,1010,RJKA 042200Z 20022KT 9999 -SHRA FEW020 BKN030 BKN040 20/17     Q1010 RMK 1CU020 5CU030 7SC040 A2984=,- RA SH
20180104_230000.002,0,RJKA,,,,0,20180104230000,-1,-1,-1,-1,210,-1,21,-1,-1,-1,-1,,2500,0,1,3,FEW 9   BKN 20   BKN 30,1,20,1,18,1010,RJKA 042300Z 21021KT 2500 SHRA FEW009 BKN020 BKN030 20/18     Q1010 RMK 1ST009 5CU020 7CU030 A2985=,RA SH
20180105_000000.002,0,RJKA,,,,0,20180105000000,-1,-1,-1,-1,230,-1,16,-1,-1,-1,-1,,9999,0,1,3,FEW 15   BKN 50   BKN 120,1,19,1,17,1011,RJKA 050000Z 23016KT 9999 -RA FEW015 BKN050 BKN120 19/17 Q1011     RMK 1CU015 5SC050 7AC120 A2985=,- RA
20180105_010000.003,0,RJKA,,,,0,20180105010000,-1,-1,-1,-1,230,-1,17,-1,-1,-1,-1,,8000,0,1,3,FEW 30   SCT 40   BKN 60,1,20,1,18,1011,RJKA 050100Z 23017KT 8000 -RA FEW030 SCT040 BKN060 20/18 Q1011     RMK 1CU030 3CU040 7SC060 A2988=,- RA
20180105_020000.002,0,RJKA,,,,0,20180105020000,-1,-1,-1,-1,250,-1,7,-1,-1,-1,-1,,9000,0,1,3,FEW 20   BKN 25   BKN 50,1,19,1,18,1011,RJKA 050200Z 25007KT 9000 -SHRA FEW020 BKN025 BKN050 19/18     Q1011 RMK 1CU020 5CU025 7SC050 A2988=,- RA SH
20180105_030000.002,0,RJKA,,,,0,20180105030000,-1,-1,-1,-1,340,-1,10,-1,-1,300,20,,9999,0,1,3,FEW 10   BKN 15   BKN 30,1,19,1,18,1011,RJKA 050300Z 34010KT 300V020 9999 -SHRA FEW010 BKN015 BKN030     19/18 Q1011 RMK 1CU010 6CU015 7CU030 A2987=,- RA SH
20180105_040000.002,0,RJKA,,,,0,20180105040000,-1,-1,-1,-1,350,-1,16,-1,-1,-1,-1,,9999,0,1,3,FEW 10   BKN 15   BKN 25,1,18,1,16,1011,RJKA 050400Z 35016KT 9999 -SHRA FEW010 BKN015 BKN025 18/16     Q1011 RMK 1CU010 6CU015 7CU025 A2987=,- RA SH
20180105_050000.002,0,RJKA,,,,0,20180105050000,-1,-1,-1,-1,360,-1,19,-1,-1,-1,-1,,9999,0,1,3,FEW 9   BKN 15   BKN 20,1,16,1,15,1012,RJKA 050500Z 36019KT 9999 -SHRA FEW009 BKN015 BKN020 16/15     Q1012 RMK 1ST009 6CU015 7CU020 A2989=,- RA SH
20180105_060000.002,0,RJKA,,,,0,20180105060000,-1,-1,-1,-1,360,-1,18,-1,28,-1,-1,,9999,0,0,3,FEW 10   BKN 15   BKN 25,1,16,1,14,1012,RJKA 050600Z 36018G28KT 9999 FEW010 BKN015 BKN025 16/14 Q1012     RMK 1CU010 6CU015 7CU025 A2990=,
20180105_070000.002,0,RJKA,,,,0,20180105070000,-1,-1,-1,-1,360,-1,18,-1,-1,-1,-1,,9999,0,0,3,FEW 15   BKN 25   BKN 35,1,16,1,13,1013,RJKA 050700Z 36018KT 9999 FEW015 BKN025 BKN035 16/13 Q1013 RMK     1CU015 6CU025 7CU035 A2992=,
20180105_080000.002,0,RJKA,,,,0,20180105080000,-1,-1,-1,-1,360,-1,16,-1,-1,-1,-1,,9999,0,1,3,FEW 15   BKN 30   BKN 50,1,15,1,13,1014,RJKA 050800Z 36016KT 9999 -SHRA FEW015 BKN030 BKN050 15/13     Q1014 RMK 1CU015 5CU030 7SC050 A2994=,- RA SH
20180105_090000.002,0,RJKA,,,,0,20180105090000,-1,-1,-1,-1,360,-1,15,-1,-1,-1,-1,,9999,0,1,3,FEW 15   BKN 25   BKN 40,1,16,1,12,1014,RJKA 050900Z 36015KT 9999 -SHRA FEW015 BKN025 BKN040 16/12     Q1014 RMK 1CU015 6CU025 7CU040 A2996=,- RA SH
20180105_100000.002,0,RJKA,,,,0,20180105100000,-1,-1,-1,-1,350,-1,10,-1,-1,-1,-1,,9999,0,1,3,FEW 15   BKN 30   BKN 50,1,16,1,11,1015,RJKA 051000Z 35010KT 9999 -SHRA FEW015 BKN030 BKN050 16/11     Q1015 RMK 1CU015 5CU030 7SC050 A2999=,- RA SH
20180105_213000.001,0,RJKA,,,,0,20180105210000,-1,-1,-1,-1,350,-1,9,-1,-1,300,10,,9999,0,0,2,FEW 30   BKN 50,1,15,1,7,1018,RJKA 052130Z 35009KT 300V010 9999 FEW030 BKN050 15/07 Q1018     RMK 1CU030 5SC050 A3006=,
20180105_220000.002,0,RJKA,,,,0,20180105220000,-1,-1,-1,-1,340,-1,8,-1,-1,-1,-1,,9999,0,0,2,FEW 35   BKN 50,1,15,1,7,1018,RJKA 052200Z 34008KT 9999 FEW035 BKN050 15/07 Q1018 RMK 1CU035     7SC050 A3007=,
20180105_230000.002,0,RJKA,,,,0,20180105230000,-1,-1,-1,-1,340,-1,9,-1,-1,300,10,,9999,0,0,2,FEW 35   BKN 50,1,15,1,7,1018,RJKA 052300Z 34009KT 300V010 9999 FEW035 BKN050 15/07 Q1018     RMK 1CU035 7SC050 A3008=,
20180106_000000.002,0,RJKA,,,,0,20180106000000,-1,-1,-1,-1,340,-1,8,-1,-1,-1,-1,,9999,0,0,2,FEW 35   BKN 50,1,16,1,7,1019,RJKA 060000Z 34008KT 9999 FEW035 BKN050 16/07 Q1019 RMK 1CU035     7SC050 A3010=,
20180106_010000.002,0,RJKA,,,,0,20180106010000,-1,-1,-1,-1,360,-1,9,-1,-1,310,30,,9999,0,0,2,FEW 40   BKN 50,1,17,1,6,1019,RJKA 060100Z 36009KT 310V030 9999 FEW040 BKN050 17/06 Q1019     RMK 1CU040 5SC050 A3010=,
20180106_020000.002,0,RJKA,,,,0,20180106020000,-1,-1,-1,-1,320,-1,8,-1,-1,290,360,,9999,0,0,2,FEW 35   BKN 45,1,16,1,7,1020,RJKA 060200Z 32008KT 290V360 9999 FEW035 BKN045 16/07 Q1020     RMK 1CU035 7SC045 A3013=,
20180106_030000.002,0,RJKA,,,,0,20180106030000,-1,-1,-1,-1,350,-1,9,-1,-1,-1,-1,,9999,0,0,3,FEW 35   SCT 40   BKN 50,1,17,1,6,1018,RJKA 060300Z 35009KT 9999 FEW035 SCT040 BKN050 17/06 Q1018 RMK     1CU035 4CU040 7SC050 A3008=,
20180106_040000.002,0,RJKA,,,,0,20180106040000,-1,-1,-1,-1,350,-1,10,-1,-1,310,20,,9999,0,0,2,FEW 40   BKN 50,1,17,1,6,1017,RJKA 060400Z 35010KT 310V020 9999 FEW040 BKN050 17/06 Q1017     RMK 1CU040 6SC050 A3006=,
20180106_050000.002,0,RJKA,,,,0,20180106050000,-1,-1,-1,-1,350,-1,10,-1,-1,320,20,,9999,0,0,3,FEW 35   BKN 40   BKN 50,1,16,1,8,1017,RJKA 060500Z 35010KT 320V020 9999 FEW035 BKN040 BKN050 16/08     Q1017 RMK 1CU035 5CU040 7SC050 A3005=,
20180106_060000.002,0,RJKA,,,,0,20180106060000,-1,-1,-1,-1,350,-1,8,-1,-1,-1,-1,,9999,0,0,3,FEW 30   BKN 40   BKN 45,1,16,1,9,1018,RJKA 060600Z 35008KT 9999 FEW030 BKN040 BKN045 16/09 Q1018 RMK     1CU030 6CU040 7SC045 A3006=,
20180106_070000.002,0,RJKA,,,,0,20180106070000,-1,-1,-1,-1,350,-1,10,-1,-1,-1,-1,,9999,0,0,3,FEW 30   BKN 40   BKN 45,1,16,1,8,1017,RJKA 060700Z 35010KT 9999 FEW030 BKN040 BKN045 16/08 Q1017 RMK     1CU030 5CU040 7SC045 A3005=,
20180106_080000.002,0,RJKA,,,,0,20180106080000,-1,-1,-1,-1,350,-1,9,-1,-1,-1,-1,,9999,0,0,3,FEW 30   BKN 40   BKN 50,1,15,1,8,1018,RJKA 060800Z 35009KT 9999 FEW030 BKN040 BKN050 15/08 Q1018 RMK     1CU030 6CU040 7SC050 A3006=,
20180106_090000.002,0,RJKA,,,,0,20180106090000,-1,-1,-1,-1,340,-1,7,-1,-1,310,10,,9999,0,0,3,FEW 35   BKN 40   BKN 50,1,15,1,8,1018,RJKA 060900Z 34007KT 310V010 9999 FEW035 BKN040 BKN050 15/08     Q1018 RMK 1CU035 5CU040 7SC050 A3008=,
20180106_100000.002,0,RJKA,,,,0,20180106100000,-1,-1,-1,-1,350,-1,6,-1,-1,-1,-1,,9999,0,0,3,FEW 30   SCT 40   BKN 50,1,15,1,8,1019,RJKA 061000Z 35006KT 9999 FEW030 SCT040 BKN050 15/08 Q1019 RMK     1CU030 4CU040 6SC050 A3009=,
20180106_213000.001,0,RJKA,,,,0,20180106210000,-1,-1,-1,-1,30,-1,3,-1,-1,290,80,,9999,0,1,3,FEW 30   BKN 50   BKN 110,1,16,1,10,1018,RJKA 062130Z 03003KT 290V080 9999 -RA FEW030 BKN050 BKN110     16/10 Q1018 RMK 1CU030 5SC050 7AC110 A3009=,- RA
20180106_220000.002,0,RJKA,,,,0,20180106220000,-1,-1,-1,-1,90,-1,5,-1,-1,60,130,,9999,0,0,3,FEW 30   SCT 60   BKN 100,1,16,1,9,1019,RJKA 062200Z 09005KT 060V130 9999 FEW030 SCT060 BKN100 16/09     Q1019 RMK 1CU030 3SC060 7AC100 A3010=,
20180106_230000.002,0,RJKA,,,,0,20180106230000,-1,-1,-1,-1,360,-1,3,-1,-1,320,90,,9999,0,1,3,FEW 30   SCT 70   BKN 100,1,14,1,11,1020,RJKA 062300Z 36003KT 320V090 9999 -RA FEW030 SCT070 BKN100     14/11 Q1020 RMK 1CU030 4AC070 7AS100 A3012=,- RA
20180107_000000.002,0,RJKA,,,,0,20180107000000,-1,-1,-1,-1,100,-1,5,-1,-1,60,140,,9999,0,1,3,FEW 30   SCT 60   OVC 100,1,16,1,11,1020,RJKA 070000Z 10005KT 060V140 9999 -RA FEW030 SCT060 OVC100     16/11 Q1020 RMK 1CU030 4SC060 8AS100 A3013=,- RA
20180107_010000.003,0,RJKA,,,,0,20180107010000,-1,-1,-1,-1,130,-1,6,-1,-1,-1,-1,,9999,0,1,3,FEW 25   SCT 35   BKN 60,1,16,1,12,1020,RJKA 070100Z 13006KT 9999 -RA FEW025 SCT035 BKN060 16/12 Q1020     RMK 1CU025 3CU035 7SC060 A3013=,- RA
20180107_020000.002,0,RJKA,,,,0,20180107020000,-1,-1,-1,-1,140,-1,7,-1,-1,-1,-1,,9999,0,1,3,FEW 25   SCT 30   BKN 50,1,16,1,12,1019,RJKA 070200Z 14007KT 9999 -RA FEW025 SCT030 BKN050 16/12 Q1019     RMK 1CU025 3CU030 7SC050 A3011=,- RA
20180107_030000.002,0,RJKA,,,,0,20180107030000,-1,-1,-1,-1,160,-1,7,-1,-1,-1,-1,,9999,0,1,3,FEW 20   BKN 30   BKN 50,1,16,1,12,1019,RJKA 070300Z 16007KT 9999 -SHRA FEW020 BKN030 BKN050 16/12     Q1019 RMK 1CU020 5CU030 7SC050 A3009=,- RA SH
20180107_040000.002,0,RJKA,,,,0,20180107040000,-1,-1,-1,-1,160,-1,9,-1,-1,-1,-1,,9999,0,1,3,FEW 20   BKN 30   BKN 50,1,17,1,13,1017,RJKA 070400Z 16009KT 9999 -SHRA FEW020 BKN030 BKN050 17/13     Q1017 RMK 1CU020 5CU030 7SC050 A3005=,- RA SH
20180107_050000.002,0,RJKA,,,,0,20180107050000,-1,-1,-1,-1,170,-1,10,-1,-1,-1,-1,,8000,0,1,3,FEW 15   BKN 25   BKN 40,1,16,1,14,1017,RJKA 070500Z 17010KT 8000 -SHRA FEW015 BKN025 BKN040 16/14     Q1017 RMK 1CU015 5CU025 7SC040 A3005=,- RA SH
20180107_060000.002,0,RJKA,,,,0,20180107060000,-1,-1,-1,-1,180,-1,11,-1,-1,-1,-1,,9999,0,1,3,FEW 12   BKN 25   BKN 40,1,16,1,14,1017,RJKA 070600Z 18011KT 9999 -SHRA FEW012 BKN025 BKN040 16/14     Q1017 RMK 1CU012 6CU025 7SC040 A3005=,- RA SH
20180107_070000.002,0,RJKA,,,,0,20180107070000,-1,-1,-1,-1,190,-1,11,-1,-1,-1,-1,,8000,0,1,3,FEW 12   BKN 25   BKN 40,1,16,1,14,1017,RJKA 070700Z 19011KT 8000 -SHRA FEW012 BKN025 BKN040 16/14     Q1017 RMK 1CU012 5CU025 7SC040 A3005=,- RA SH
20180107_080000.002,0,RJKA,,,,0,20180107080000,-1,-1,-1,-1,160,-1,15,-1,-1,-1,-1,,7000,0,1,3,FEW 9   BKN 15   BKN 20,1,17,1,15,1016,RJKA 070800Z 16015KT 7000 -SHRA FEW009 BKN015 BKN020 17/15     Q1016 RMK 1ST009 5CU015 7CU020 A3003=,- RA SH
20180107_090000.002,0,RJKA,,,,0,20180107090000,-1,-1,-1,-1,170,-1,18,-1,-1,-1,-1,,9999,0,1,3,FEW 9   BKN 15   BKN 20,1,17,1,16,1016,RJKA 070900Z 17018KT 9999 -SHRA FEW009 BKN015 BKN020 17/16     Q1016 RMK 1ST009 5CU015 7CU020 A3000=,- RA SH
20180107_100000.002,0,RJKA,,,,0,20180107100000,-1,-1,-1,-1,180,-1,21,-1,-1,-1,-1,,6000,0,1,3,FEW 9   BKN 15   BKN 20,1,18,1,16,1016,RJKA 071000Z 18021KT 6000 -SHRA FEW009 BKN015 BKN020 18/16     Q1016 RMK 1ST009 5CU015 7CU020 A3002=,- RA SH
20180107_213000.001,0,RJKA,,,,0,20180107210000,-1,-1,-1,-1,200,-1,16,-1,-1,-1,-1,,9999,0,0,3,FEW 15   SCT 30   BKN 150,1,21,1,19,1012,RJKA 072130Z 20016KT 9999 FEW015 SCT030 BKN150 21/19 Q1012 RMK     1CU015 3CU030 7AC150 A2989=,
20180107_220000.002,0,RJKA,,,,0,20180107220000,-1,-1,-1,-1,210,-1,17,-1,-1,-1,-1,,9999,0,1,3,FEW 15   SCT 70   BKN 110,1,21,1,19,1012,RJKA 072200Z 21017KT 9999 -RA FEW015 SCT070 BKN110 21/19 Q1012     RMK 1CU015 4AC070 7AC110 A2989=,- RA
20180107_230000.002,0,RJKA,,,,0,20180107230000,-1,-1,-1,-1,220,-1,13,-1,-1,-1,-1,,9999,0,1,3,FEW 15   SCT 20   BKN 110,1,21,1,20,1013,RJKA 072300Z 22013KT 9999 -RA FEW015 SCT020 BKN110 21/20 Q1013     RMK 1CU015 4CU020 7AC110 A2992=,- RA
20180108_000000.002,0,RJKA,,,,0,20180108000000,-1,-1,-1,-1,220,-1,13,-1,-1,-1,-1,,6000,0,1,3,FEW 15   SCT 30   BKN 40,1,21,1,20,1013,RJKA 080000Z 22013KT 6000 -SHRA FEW015 SCT030 BKN040 21/20     Q1013 RMK 1CU015 4CU030 7SC040 A2993=,- RA SH
20180108_010000.002,0,RJKA,,,,0,20180108010000,-1,-1,-1,-1,220,-1,16,-1,-1,-1,-1,,9999,0,1,3,FEW 15   SCT 35   BKN 45,1,21,1,19,1013,RJKA 080100Z 22016KT 9999 -SHRA FEW015 SCT035 BKN045 21/19     Q1013 RMK 1CU015 4CU035 7SC045 A2993=,- RA SH
20180108_020000.002,0,RJKA,,,,0,20180108020000,-1,-1,-1,-1,220,-1,16,-1,-1,-1,-1,,9999,0,1,3,FEW 20   SCT 30   BKN 80,1,21,1,19,1012,RJKA 080200Z 22016KT 9999 -RA FEW020 SCT030 BKN080 21/19 Q1012     RMK 1CU020 4CU030 7AC080 A2990=,- RA
20180108_030000.002,0,RJKA,,,,0,20180108030000,-1,-1,-1,-1,220,-1,10,-1,-1,-1,-1,,9999,0,1,3,FEW 20   BKN 50   BKN 90,1,21,1,19,1011,RJKA 080300Z 22010KT 9999 -RA FEW020 BKN050 BKN090 21/19 Q1011     RMK 1CU020 5SC050 7AC090 A2986=,- RA
20180108_040000.002,0,RJKA,,,,0,20180108040000,-1,-1,-1,-1,220,-1,16,-1,-1,-1,-1,,2500,1,1,3,FEW 7   BKN 15   BKN 25,1,20,1,19,1010,RJKA 080400Z 22016KT 2500 R03/1800D -SHRA FEW007 BKN015 BKN025     20/19 Q1010 RMK 1ST007 5CU015 7CU025 A2983=,- RA SH
20180108_050000.002,0,RJKA,,,,0,20180108050000,-1,-1,-1,-1,210,-1,12,-1,-1,-1,-1,,3000,0,1,3,FEW 4   BKN 10   BKN 20,1,20,1,19,1009,RJKA 080500Z 21012KT 3000 -SHRA FEW004 BKN010 BKN020 20/19     Q1009 RMK 1ST004 5CU010 7CU020 A2979=,- RA SH
20180108_060000.003,0,RJKA,,,,0,20180108060000,-1,-1,-1,-1,210,-1,11,-1,-1,-1,-1,,2000,1,1,3,FEW 6   BKN 15   BKN 20,1,20,1,19,1008,RJKA 080600Z 21011KT 2000 R03/1800D SHRA FEW006 BKN015 BKN020     20/19 Q1008 RMK 1ST006 5CU015 7CU020 A2977=,RA SH
20180108_070000.002,0,RJKA,,,,0,20180108070000,-1,-1,-1,-1,230,-1,7,-1,-1,-1,-1,,1500,1,1,3,FEW 4   BKN 12   BKN 20,1,19,1,18,1008,RJKA 080700Z 23007KT 1500 R03/1400VP1800U SHRA FEW004 BKN012     BKN020 19/18 Q1008 RMK 1ST004 5CU012 7CU020 A2977=,RA SH
20180108_080000.002,0,RJKA,,,,0,20180108080000,-1,-1,-1,-1,999,-1,2,-1,-1,-1,-1,,2000,0,1,3,FEW 3   BKN 11   BKN 20,1,19,1,18,1008,RJKA 080800Z VRB02KT 2000 -SHRA FEW003 BKN011 BKN020 19/18     Q1008 RMK 1ST003 5CU011 7CU020 A2978=,- RA SH
20180108_090000.002,0,RJKA,,,,0,20180108090000,-1,-1,-1,-1,330,-1,11,-1,-1,290,360,,2500,0,1,3,FEW 5   BKN 15   BKN 30,1,18,1,17,1009,RJKA 080900Z 33011KT 290V360 2500 -SHRA FEW005 BKN015 BKN030     18/17 Q1009 RMK 1ST005 5CU015 7CU030 A2980=,- RA SH
20180108_100000.002,0,RJKA,,,,0,20180108100000,-1,-1,-1,-1,340,-1,9,-1,-1,-1,-1,,3500,0,1,3,FEW 8   BKN 20   BKN 45,1,18,1,17,1009,RJKA 081000Z 34009KT 3500 -SHRA FEW008 BKN020 BKN045 18/17     Q1009 RMK 1ST008 5CU020 7SC045 A2982=,- RA SH
20180108_213000.001,0,RJKA,,,,0,20180108210000,-1,-1,-1,-1,310,-1,15,-1,-1,270,330,,6000,0,1,3,FEW 20   SCT 25   BKN 30,1,13,1,10,1015,RJKA 082130Z 31015KT 270V330 6000 SHRA FEW020 SCT025 BKN030     13/10 Q1015 RMK 1CU020 3CU025 5CU030 A2999=,RA SH
20180108_220000.002,0,RJKA,,,,0,20180108220000,-1,-1,-1,-1,300,-1,16,-1,26,260,350,,7000,0,1,3,FEW 15   SCT 20   BKN 25,1,12,1,9,1016,RJKA 082200Z 30016G26KT 260V350 7000 -SHRA FEW015 SCT020     BKN025 12/09 Q1016 RMK 1CU015 3CU020 5CU025 A3002=,- RA SH
20180108_230000.003,0,RJKA,,,,0,20180108230000,-1,-1,-1,-1,300,-1,13,-1,-1,260,340,,9999,0,1,3,FEW 20   BKN 30   BKN 40,1,13,1,7,1016,RJKA 082300Z 30013KT 260V340 9999 -SHRA FEW020 BKN030 BKN040     13/07 Q1016 RMK 1CU020 5CU030 7CU040 A3003=,- RA SH
20180109_000000.002,0,RJKA,,,,0,20180109000000,-1,-1,-1,-1,300,-1,14,-1,-1,270,330,,8000,0,0,3,FEW 25   BKN 30   BKN 40,1,13,1,6,1018,RJKA 090000Z 30014KT 270V330 8000 FEW025 BKN030 BKN040 13/06     Q1018 RMK 1CU025 5CU030 7CU040 A3006=,
20180109_010000.002,0,RJKA,,,,0,20180109010000,-1,-1,-1,-1,300,-1,14,-1,-1,270,340,,8000,0,0,3,FEW 30   BKN 40   BKN 50,1,13,1,6,1017,RJKA 090100Z 30014KT 270V340 8000 FEW030 BKN040 BKN050 13/06     Q1017 RMK 1CU030 5CU040 7SC050 A3006=,
20180109_020000.002,0,RJKA,,,,0,20180109020000,-1,-1,-1,-1,300,-1,12,-1,23,-1,-1,,9000,0,0,3,FEW 35   SCT 40   BKN 50,1,13,1,6,1017,RJKA 090200Z 30012G23KT 9000 FEW035 SCT040 BKN050 13/06 Q1017     RMK 1CU035 4CU040 7SC050 A3004=,
20180109_030000.002,0,RJKA,,,,0,20180109030000,-1,-1,-1,-1,300,-1,16,-1,27,270,340,,9999,0,0,3,FEW 35   SCT 40   BKN 45,1,13,1,4,1016,RJKA 090300Z 30016G27KT 270V340 9999 FEW035 SCT040 BKN045     13/04 Q1016 RMK 1CU035 3CU040 7SC045 A3002=,
20180109_040000.002,0,RJKA,,,,0,20180109040000,-1,-1,-1,-1,300,-1,14,-1,24,250,340,,9999,0,0,3,FEW 35   SCT 40   BKN 50,1,13,1,4,1016,RJKA 090400Z 30014G24KT 250V340 9999 FEW035 SCT040 BKN050     13/04 Q1016 RMK 1CU035 4CU040 7SC050 A3001=,
20180109_050000.002,0,RJKA,,,,0,20180109050000,-1,-1,-1,-1,300,-1,12,-1,-1,260,330,,9999,0,0,3,FEW 35   BKN 45   BKN 50,1,13,1,3,1015,RJKA 090500Z 30012KT 260V330 9999 FEW035 BKN045 BKN050 13/03     Q1015 RMK 1CU035 5CU045 7SC050 A3000=,
20180109_060000.002,0,RJKA,,,,0,20180109060000,-1,-1,-1,-1,300,-1,13,-1,-1,250,330,,9999,0,0,3,FEW 40   BKN 45   BKN 60,1,13,1,4,1015,RJKA 090600Z 30013KT 250V330 9999 FEW040 BKN045 BKN060 13/04     Q1015 RMK 1CU040 5CU045 6SC060 A2999=,
20180109_070000.002,0,RJKA,,,,0,20180109070000,-1,-1,-1,-1,310,-1,12,-1,-1,270,340,,9999,0,0,3,FEW 40   BKN 45   BKN 50,1,12,1,4,1016,RJKA 090700Z 31012KT 270V340 9999 FEW040 BKN045 BKN050 12/04     Q1016 RMK 1CU040 5CU045 7SC050 A3001=,
20180109_080000.002,0,RJKA,,,,0,20180109080000,-1,-1,-1,-1,310,-1,15,-1,-1,290,350,,9999,0,0,3,FEW 40   BKN 45   BKN 60,1,12,1,5,1016,RJKA 090800Z 31015KT 290V350 9999 FEW040 BKN045 BKN060 12/05     Q1016 RMK 1CU040 6CU045 7SC060 A3001=,
20180109_090000.002,0,RJKA,,,,0,20180109090000,-1,-1,-1,-1,310,-1,14,-1,-1,-1,-1,,9999,0,0,3,FEW 35   BKN 40   BKN 50,1,13,1,5,1017,RJKA 090900Z 31014KT 9999 FEW035 BKN040 BKN050 13/05 Q1017 RMK     1CU035 6CU040 7SC050 A3005=,
20180109_100000.002,0,RJKA,,,,0,20180109100000,-1,-1,-1,-1,310,-1,13,-1,-1,-1,-1,,9999,0,0,3,FEW 35   BKN 40   BKN 50,1,13,1,3,1018,RJKA 091000Z 31013KT 9999 FEW035 BKN040 BKN050 13/03 Q1018 RMK     1CU035 6CU040 7SC050 A3007=,
20180109_213000.001,0,RJKA,,,,0,20180109210000,-1,-1,-1,-1,290,-1,11,-1,22,270,330,,9999,0,0,3,FEW 40   SCT 50   BKN 70,1,13,1,4,1020,RJKA 092130Z 29011G22KT 270V330 9999 FEW040 SCT050 BKN070     13/04 Q1020 RMK 1CU040 4SC050 7AC070 A3012=,
20180109_220000.002,0,RJKA,,,,0,20180109220000,-1,-1,-1,-1,290,-1,8,-1,-1,250,330,,9999,0,0,3,FEW 40   SCT 50   BKN 70,1,13,1,4,1020,RJKA 092200Z 29008KT 250V330 9999 FEW040 SCT050 BKN070 13/04     Q1020 RMK 1CU040 3SC050 5AC070 A3013=,
20180109_230000.002,0,RJKA,,,,0,20180109230000,-1,-1,-1,-1,290,-1,10,-1,-1,240,330,,9999,0,0,2,FEW 40   BKN 60,1,13,1,3,1020,RJKA 092300Z 29010KT 240V330 9999 FEW040 BKN060 13/03 Q1020     RMK 1CU040 6SC060 A3014=,
20180110_000000.002,0,RJKA,,,,0,20180110000000,-1,-1,-1,-1,300,-1,13,-1,-1,260,340,,9999,0,0,2,FEW 40   BKN 60,1,13,1,3,1020,RJKA 100000Z 30013KT 260V340 9999 FEW040 BKN060 13/03 Q1020     RMK 1CU040 5SC060 A3014=,
20180110_010000.002,0,RJKA,,,,0,20180110010000,-1,-1,-1,-1,270,-1,9,-1,-1,230,300,,9999,0,0,3,FEW 40   BKN 45   BKN 60,1,14,1,4,1021,RJKA 100100Z 27009KT 230V300 9999 FEW040 BKN045 BKN060 14/04     Q1021 RMK 1CU040 5CU045 7SC060 A3016=,
20180110_020000.002,0,RJKA,,,,0,20180110020000,-1,-1,-1,-1,300,-1,12,-1,-1,260,350,,9999,0,0,3,FEW 40   BKN 45   BKN 60,1,14,1,4,1020,RJKA 100200Z 30012KT 260V350 9999 FEW040 BKN045 BKN060 14/04     Q1020 RMK 1CU040 5CU045 7SC060 A3014=,
20180110_030000.002,0,RJKA,,,,0,20180110030000,-1,-1,-1,-1,290,-1,12,-1,24,250,320,,9999,0,0,3,FEW 40   BKN 45   BKN 60,1,14,1,5,1020,RJKA 100300Z 29012G24KT 250V320 9999 FEW040 BKN045 BKN060     14/05 Q1020 RMK 1CU040 5CU045 7SC060 A3013=,
20180110_040000.003,0,RJKA,,,,0,20180110040000,-1,-1,-1,-1,270,-1,11,-1,23,-1,-1,,9999,0,0,3,FEW 40   BKN 50   BKN 70,1,13,1,4,1019,RJKA 100400Z 27011G23KT 9999 FEW040 BKN050 BKN070 13/04 Q1019     RMK 1CU040 5SC050 7AC070 A3010=,
20180110_050000.002,0,RJKA,,,,0,20180110050000,-1,-1,-1,-1,300,-1,15,-1,26,260,330,,9999,0,1,3,FEW 35   BKN 45   BKN 60,1,13,1,4,1019,RJKA 100500Z 30015G26KT 260V330 9999 -SHRA FEW035 BKN045     BKN060 13/04 Q1019 RMK 1CU035 5CU045 6SC060 A3009=,- RA SH
20180110_060000.002,0,RJKA,,,,0,20180110060000,-1,-1,-1,-1,310,-1,13,-1,23,270,340,,9999,0,0,3,FEW 35   BKN 45   BKN 60,1,13,1,4,1019,RJKA 100600Z 31013G23KT 270V340 9999 FEW035 BKN045 BKN060     13/04 Q1019 RMK 1CU035 5CU045 6SC060 A3009=,
20180110_070000.002,0,RJKA,,,,0,20180110070000,-1,-1,-1,-1,300,-1,12,-1,-1,250,340,,9999,0,0,2,FEW 40   BKN 50,1,13,1,2,1019,RJKA 100700Z 30012KT 250V340 9999 FEW040 BKN050 13/02 Q1019     RMK 1CU040 5SC050 A3011=,
20180110_080000.002,0,RJKA,,,,0,20180110080000,-1,-1,-1,-1,300,-1,15,-1,-1,260,330,,9999,0,0,3,FEW 35   BKN 40   BKN 70,1,13,1,2,1020,RJKA 100800Z 30015KT 260V330 9999 FEW035 BKN040 BKN070 13/02     Q1020 RMK 1CU035 5CU040 6AC070 A3013=,
20180110_090000.002,0,RJKA,,,,0,20180110090000,-1,-1,-1,-1,310,-1,15,-1,25,280,340,,9999,0,1,3,FEW 35   BKN 40   BKN 60,1,12,1,3,1020,RJKA 100900Z 31015G25KT 280V340 9999 -SHRA FEW035 BKN040     BKN060 12/03 Q1020 RMK 1CU035 5CU040 7SC060 A3015=,- RA SH
20180110_100000.002,0,RJKA,,,,0,20180110100000,-1,-1,-1,-1,310,-1,16,-1,-1,280,340,,9999,0,0,3,FEW 35   SCT 50   BKN 80,1,12,1,1,1021,RJKA 101000Z 31016KT 280V340 9999 FEW035 SCT050 BKN080 12/01     Q1021 RMK 1CU035 4SC050 7AC080 A3015=,
20180110_213000.001,0,RJKA,,,,0,20180110210000,-1,-1,-1,-1,320,-1,15,-1,-1,280,350,,9999,0,0,3,FEW 35   SCT 50   BKN 80,1,10,1,3,1022,RJKA 102130Z 32015KT 280V350 9999 FEW035 SCT050 BKN080 10/03     Q1022 RMK 1CU035 3SC050 7AC080 A3019=,
20180110_220000.002,0,RJKA,,,,0,20180110220000,-1,-1,-1,-1,310,-1,11,-1,-1,270,350,,9999,0,0,3,FEW 30   BKN 40   BKN 80,1,11,1,3,1023,RJKA 102200Z 31011KT 270V350 9999 FEW030 BKN040 BKN080 11/03     Q1023 RMK 1CU030 5CU040 7AC080 A3021=,
20180110_230000.003,0,RJKA,,,,0,20180110230000,-1,-1,-1,-1,310,-1,11,-1,-1,270,340,,9999,0,0,3,FEW 30   SCT 40   BKN 50,1,11,1,1,1023,RJKA 102300Z 31011KT 270V340 9999 FEW030 SCT040 BKN050 11/01     Q1023 RMK 1CU030 3CU040 6SC050 A3021=,
20180111_000000.002,0,RJKA,,,,0,20180111000000,-1,-1,-1,-1,300,-1,12,-1,-1,270,340,,9999,0,1,3,FEW 30   SCT 40   BKN 50,1,11,1,1,1023,RJKA 110000Z 30012KT 270V340 9999 -SHRA FEW030 SCT040 BKN050     11/01 Q1023 RMK 1CU030 3CU040 7SC050 A3023=,- RA SH
20180111_010000.002,0,RJKA,,,,0,20180111010000,-1,-1,-1,-1,310,-1,15,-1,26,280,360,,9999,0,0,2,FEW 40   BKN 50,1,13,1,3,1023,RJKA 110100Z 31015G26KT 280V360 9999 FEW040 BKN050 13/03 Q1023     RMK 1CU040 6SC050 A3023=,
20180111_020000.002,0,RJKA,,,,0,20180111020000,-1,-1,-1,-1,320,-1,14,-1,-1,280,350,,9999,0,0,2,FEW 35   BKN 50,1,12,1,2,1024,RJKA 110200Z 32014KT 280V350 9999 FEW035 BKN050 12/02 Q1024     RMK 1CU035 6SC050 A3025=,
20180111_030000.001,0,RJKA,,,,0,20180111030000,-1,-1,-1,-1,300,-1,6,-1,-1,250,340,,9999,0,1,3,FEW 10   BKN 35   BKN 50,1,11,1,5,1023,RJKA 110300Z 30006KT 250V340 9999 -SHRA FEW010 BKN035 BKN050     11/05 Q1023 RMK 1CU010 5CU035 7SC050 A3022=,- RA SH
20180111_040000.002,0,RJKA,,,,0,20180111040000,-1,-1,-1,-1,320,-1,17,-1,27,290,360,,9999,0,0,3,FEW 30   SCT 40   BKN 50,1,11,1,4,1022,RJKA 110400Z 32017G27KT 290V360 9999 FEW030 SCT040 BKN050     11/04 Q1022 RMK 1CU030 3CU040 6SC050 A3020=,
20180111_050000.002,0,RJKA,,,,0,20180111050000,-1,-1,-1,-1,310,-1,17,-1,34,270,340,,9999,0,0,3,FEW 30   SCT 40   BKN 70,1,12,1,2,1022,RJKA 110500Z 31017G34KT 270V340 9999 FEW030 SCT040 BKN070     12/02 Q1022 RMK 1CU030 3CU040 6AC070 A3019=,
20180111_060000.002,0,RJKA,,,,0,20180111060000,-1,-1,-1,-1,310,-1,17,-1,-1,270,330,,9999,0,0,3,FEW 25   SCT 35   BKN 50,1,11,1,3,1022,RJKA 110600Z 31017KT 270V330 9999 FEW025 SCT035 BKN050 11/03     Q1022 RMK 1CU025 4CU035 6SC050 A3018=,
20180111_070000.002,0,RJKA,,,,0,20180111070000,-1,-1,-1,-1,320,-1,19,-1,29,280,350,,9999,0,1,3,FEW 30   BKN 40   BKN 60,1,11,1,4,1022,RJKA 110700Z 32019G29KT 280V350 9999 -SHRA FEW030 BKN040     BKN060 11/04 Q1022 RMK 1CU030 5CU040 6SC060 A3018=,- RA SH
20180111_080000.002,0,RJKA,,,,0,20180111080000,-1,-1,-1,-1,330,-1,10,-1,-1,270,20,,9999,0,0,3,FEW 20   SCT 40   BKN 50,1,11,1,3,1022,RJKA 110800Z 33010KT 270V020 9999 FEW020 SCT040 BKN050 11/03     Q1022 RMK 1CU020 4CU040 6SC050 A3021=,
20180111_090000.002,0,RJKA,,,,0,20180111090000,-1,-1,-1,-1,320,-1,14,-1,25,290,360,,9999,0,0,3,FEW 35   SCT 50   BKN 70,1,11,1,1,1023,RJKA 110900Z 32014G25KT 290V360 9999 FEW035 SCT050 BKN070     11/01 Q1023 RMK 1CU035 4SC050 6AC070 A3022=,
20180111_100000.002,0,RJKA,,,,0,20180111100000,-1,-1,-1,-1,330,-1,10,-1,-1,290,20,,9999,0,1,3,FEW 15   SCT 35   BKN 45,1,9,1,4,1024,RJKA 111000Z 33010KT 290V020 9999 -SHRA FEW015 SCT035 BKN045     09/04 Q1024 RMK 1CU015 4CU035 6SC045 A3024=,- RA SH
20180111_213000.001,0,RJKA,,,,0,20180111210000,-1,-1,-1,-1,320,-1,17,-1,27,290,10,,9999,0,0,3,FEW 40   BKN 50   BKN 70,1,10,1,1,1024,RJKA 112130Z 32017G27KT 290V010 9999 FEW040 BKN050 BKN070     10/01 Q1024 RMK 1CU040 5SC050 7AC070 A3026=,
20180111_220000.002,0,RJKA,,,,0,20180111220000,-1,-1,-1,-1,320,-1,16,-1,30,290,350,,9999,0,0,3,FEW 35   SCT 40   BKN 50,1,10,1,1,1024,RJKA 112200Z 32016G30KT 290V350 9999 FEW035 SCT040 BKN050     10/01 Q1024 RMK 1CU035 3CU040 7SC050 A3026=,
20180111_230000.002,0,RJKA,,,,0,20180111230000,-1,-1,-1,-1,310,-1,17,-1,28,-1,-1,,9999,0,0,3,FEW 35   SCT 40   BKN 60,1,10,-1,1,1025,RJKA 112300Z 31017G28KT 9999 FEW035 SCT040 BKN060 10/M01 Q1025     RMK 1CU035 3CU040 7SC060 A3028=,
20180112_000000.002,0,RJKA,,,,0,20180112000000,-1,-1,-1,-1,310,-1,13,-1,25,270,340,,9999,0,1,3,FEW 25   BKN 40   BKN 50,1,9,1,3,1026,RJKA 120000Z 31013G25KT 270V340 9999 -SHRA FEW025 BKN040     BKN050 09/03 Q1026 RMK 1CU025 5CU040 7SC050 A3030=,- RA SH
20180112_010000.003,0,RJKA,,,,0,20180112010000,-1,-1,-1,-1,310,-1,15,-1,26,-1,-1,,9999,0,1,3,FEW 20   SCT 30   BKN 45,1,9,1,4,1026,RJKA 120100Z 31015G26KT 9999 -SHRA FEW020 SCT030 BKN045 09/04     Q1026 RMK 1CU020 4CU030 7SC045 A3031=,- RA SH
20180112_020000.002,0,RJKA,,,,0,20180112020000,-1,-1,-1,-1,260,-1,7,-1,-1,220,300,,9999,0,1,2,FEW 30   BKN 35,1,11,1,5,1025,RJKA 120200Z 26007KT 220V300 9999 -SHRA FEW030 BKN035 11/05     Q1025 RMK 1CU030 6CU035 A3029=,- RA SH
20180112_030000.002,0,RJKA,,,,0,20180112030000,-1,-1,-1,-1,320,-1,11,-1,-1,280,360,,9999,0,0,2,FEW 35   SCT 40,1,12,1,4,1024,RJKA 120300Z 32011KT 280V360 9999 FEW035 SCT040 12/04 Q1024     RMK 1CU035 4CU040 A3026=,
20180112_040000.002,0,RJKA,,,,0,20180112040000,-1,-1,-1,-1,310,-1,13,-1,24,-1,-1,,9999,0,0,2,FEW 25   SCT 35,1,13,1,5,1024,RJKA 120400Z 31013G24KT 9999 FEW025 SCT035 13/05 Q1024 RMK     1CU025 4CU035 A3024=,
20180112_050000.003,0,RJKA,,,,0,20180112050000,-1,-1,-1,-1,320,-1,13,-1,-1,300,360,,9999,0,0,3,FEW 25   SCT 30   BKN 40,1,10,1,5,1023,RJKA 120500Z 32013KT 300V360 9999 FEW025 SCT030 BKN040 10/05     Q1023 RMK 1CU025 3CU030 5CU040 A3023=,
20180112_060000.002,0,RJKA,,,,0,20180112060000,-1,-1,-1,-1,340,-1,11,-1,-1,-1,-1,,9999,0,0,3,FEW 30   SCT 40   BKN 50,1,11,1,6,1023,RJKA 120600Z 34011KT 9999 FEW030 SCT040 BKN050 11/06 Q1023 RMK     1CU030 3CU040 6SC050 A3023=,
20180112_070000.003,0,RJKA,,,,0,20180112070000,-1,-1,-1,-1,360,-1,14,-1,-1,-1,-1,,9999,0,0,3,FEW 15   BKN 25   BKN 40,1,10,1,6,1024,RJKA 120700Z 36014KT 9999 FEW015 BKN025 BKN040 10/06 Q1024 RMK     1CU015 5CU025 7CU040 A3024=,
20180112_080000.002,0,RJKA,,,,0,20180112080000,-1,-1,-1,-1,330,-1,10,-1,-1,-1,-1,,9999,0,1,2,FEW 15   SCT 40,1,10,1,4,1024,RJKA 120800Z 33010KT 9999 -SHRA FEW015 SCT040 10/04 Q1024 RMK     1CU015 4CU040 A3026=,- RA SH
20180112_090000.002,0,RJKA,,,,0,20180112090000,-1,-1,-1,-1,340,-1,8,-1,-1,-1,-1,,9999,0,1,2,FEW 20   SCT 40,1,10,1,3,1024,RJKA 120900Z 34008KT 9999 -SHRA FEW020 SCT040 10/03 Q1024 RMK     1CU020 4CU040 A3026=,- RA SH
20180112_100000.002,0,RJKA,,,,0,20180112100000,-1,-1,-1,-1,340,-1,12,-1,-1,-1,-1,,9999,0,1,3,FEW 30   SCT 40   BKN 50,1,10,1,4,1025,RJKA 121000Z 34012KT 9999 -SHRA FEW030 SCT040 BKN050 10/04     Q1025 RMK 1CU030 4CU040 7SC050 A3027=,- RA SH
20180112_213000.001,0,RJKA,,,,0,20180112210000,-1,-1,-1,-1,360,-1,10,-1,-1,-1,-1,,9999,0,0,2,FEW 25   SCT 50,1,10,1,5,1027,RJKA 122130Z 36010KT 9999 FEW025 SCT050 10/05 Q1027 RMK 1CU025     4SC050 A3034=,
20180112_220000.002,0,RJKA,,,,0,20180112220000,-1,-1,-1,-1,350,-1,7,-1,-1,310,20,,9999,0,1,2,FEW 25   BKN 35,1,10,1,5,1027,RJKA 122200Z 35007KT 310V020 9999 VCSH FEW025 BKN035 10/05     Q1027 RMK 1CU025 6CU035 A3034=,VC SH
20180112_230000.002,0,RJKA,,,,0,20180112230000,-1,-1,-1,-1,320,-1,5,-1,-1,290,360,,9999,0,1,2,FEW 25   BKN 40,1,10,1,4,1028,RJKA 122300Z 32005KT 290V360 9999 -SHRA FEW025 BKN040 10/04     Q1028 RMK 1CU025 5CU040 A3036=,- RA SH
20180113_000000.002,0,RJKA,,,,0,20180113000000,-1,-1,-1,-1,360,-1,11,-1,-1,310,20,,9999,0,0,2,FEW 30   SCT 45,1,12,1,5,1028,RJKA 130000Z 36011KT 310V020 9999 FEW030 SCT045 12/05 Q1028     RMK 1CU030 4CU045 A3037=,
20180113_010000.003,0,RJKA,,,,0,20180113010000,-1,-1,-1,-1,300,-1,9,-1,-1,-1,-1,,9999,0,1,2,FEW 30   SCT 45,1,12,1,5,1028,RJKA 130100Z 30009KT 9999 -SHRA FEW030 SCT045 12/05 Q1028 RMK     1CU030 4CU045 A3038=,- RA SH
20180113_020000.002,0,RJKA,,,,0,20180113020000,-1,-1,-1,-1,340,-1,8,-1,-1,-1,-1,,9999,0,1,2,FEW 25   BKN 40,1,11,1,5,1029,RJKA 130200Z 34008KT 9999 -SHRA FEW025 BKN040 11/05 Q1029 RMK     1CU025 5CU040 A3039=,- RA SH
20180113_030000.002,0,RJKA,,,,0,20180113030000,-1,-1,-1,-1,350,-1,13,-1,-1,-1,-1,,9999,0,0,2,FEW 30   BKN 40,1,13,1,4,1028,RJKA 130300Z 35013KT 9999 FEW030 BKN040 13/04 Q1028 RMK 1CU030     5CU040 A3037=,
20180113_040000.002,0,RJKA,,,,0,20180113040000,-1,-1,-1,-1,10,-1,14,-1,-1,-1,-1,,9999,0,0,2,FEW 30   BKN 50,1,13,1,4,1027,RJKA 130400Z 01014KT 9999 FEW030 BKN050 13/04 Q1027 RMK 1CU030     6SC050 A3035=,
20180113_050000.002,0,RJKA,,,,0,20180113050000,-1,-1,-1,-1,10,-1,16,-1,-1,-1,-1,,9999,0,0,2,FEW 30   BKN 40,1,13,1,5,1027,RJKA 130500Z 01016KT 9999 FEW030 BKN040 13/05 Q1027 RMK 1CU030     6SC040 A3034=,
20180113_060000.002,0,RJKA,,,,0,20180113060000,-1,-1,-1,-1,10,-1,12,-1,-1,-1,-1,,9999,0,0,2,FEW 35   SCT 40,1,13,1,4,1028,RJKA 130600Z 01012KT 9999 FEW035 SCT040 13/04 Q1028 RMK 1CU035     3SC040 A3036=,
20180113_070000.002,0,RJKA,,,,0,20180113070000,-1,-1,-1,-1,10,-1,8,-1,-1,-1,-1,,9999,0,0,2,FEW 35   BKN -9999,1,13,1,4,1028,RJKA 130700Z 01008KT 9999 FEW035 BKN/// 13/04 Q1028 RMK 1CU035     A3036=,
20180113_080000.002,0,RJKA,,,,0,20180113080000,-1,-1,-1,-1,360,-1,10,-1,-1,-1,-1,,9999,0,0,3,FEW 30   SCT 40   BKN -9999,1,12,1,4,1028,RJKA 130800Z 36010KT 9999 FEW030 SCT040 BKN/// 12/04 Q1028 RMK     1CU030 3SC040 A3038=,
20180113_090000.002,0,RJKA,,,,0,20180113090000,-1,-1,-1,-1,10,-1,14,-1,-1,-1,-1,,9999,0,0,3,FEW 30   BKN 40   BKN -9999,1,12,1,5,1028,RJKA 130900Z 01014KT 9999 FEW030 BKN040 BKN/// 12/05 Q1028 RMK     1CU030 5SC040 A3037=,
20180113_100000.002,0,RJKA,,,,0,20180113100000,-1,-1,-1,-1,360,-1,8,-1,-1,-1,-1,,9999,0,0,3,FEW 30   BKN 40   BKN 60,1,13,1,5,1028,RJKA 131000Z 36008KT 9999 FEW030 BKN040 BKN060 13/05 Q1028 RMK     1CU030 5SC040 7SC060 A3036=,
20180113_213000.001,0,RJKA,,,,0,20180113210000,-1,-1,-1,-1,40,-1,12,-1,-1,-1,-1,,9999,0,0,2,FEW 30   BKN 60,1,14,1,7,1027,RJKA 132130Z 04012KT 9999 FEW030 BKN060 14/07 Q1027 RMK 1CU030     5SC060 A3035=,
20180113_220000.002,0,RJKA,,,,0,20180113220000,-1,-1,-1,-1,50,-1,15,-1,-1,-1,-1,,9999,0,0,2,FEW 30   BKN 60,1,13,1,7,1027,RJKA 132200Z 05015KT 9999 FEW030 BKN060 13/07 Q1027 RMK 1CU030     5SC060 A3035=,
20180113_230000.002,0,RJKA,,,,0,20180113230000,-1,-1,-1,-1,50,-1,13,-1,-1,-1,-1,,9999,0,0,2,FEW 30   BKN 40,1,13,1,7,1028,RJKA 132300Z 05013KT 9999 FEW030 BKN040 13/07 Q1028 RMK 1CU030     6CU040 A3036=,
20180114_000000.003,0,RJKA,,,,0,20180114000000,-1,-1,-1,-1,60,-1,14,-1,-1,-1,-1,,9999,0,0,2,FEW 30   BKN 40,1,14,1,7,1027,RJKA 140000Z 06014KT 9999 FEW030 BKN040 14/07 Q1027 RMK 1CU030     5CU040 A3035=,
20180114_010000.002,0,RJKA,,,,0,20180114010000,-1,-1,-1,-1,70,-1,8,-1,-1,-1,-1,,9999,0,0,2,FEW 35   SCT 50,1,16,1,5,1029,RJKA 140100Z 07008KT 9999 FEW035 SCT050 16/05 Q1029 RMK 1CU035     4SC050 A3039=,
20180114_020000.002,0,RJKA,,,,0,20180114020000,-1,-1,-1,-1,90,-1,6,-1,-1,50,120,,9999,0,0,2,FEW 40   SCT 45,1,16,1,3,1028,RJKA 140200Z 09006KT 050V120 9999 FEW040 SCT045 16/03 Q1028     RMK 1CU040 3SC045 A3038=,
20180114_030000.002,0,RJKA,,,,0,20180114030000,-1,-1,-1,-1,80,-1,8,-1,-1,-1,-1,,9999,0,0,1,FEW 40,1,17,1,5,1027,RJKA 140300Z 08008KT 9999 FEW040 17/05 Q1027 RMK 1CU040 A3034=,
20180114_040000.002,0,RJKA,,,,0,20180114040000,-1,-1,-1,-1,60,-1,6,-1,-1,30,120,,9999,0,0,2,FEW 40   SCT 100,1,16,1,5,1026,RJKA 140400Z 06006KT 030V120 9999 FEW040 SCT100 16/05 Q1026     RMK 1CU040 3AC100 A3030=,
20180114_050000.002,0,RJKA,,,,0,20180114050000,-1,-1,-1,-1,80,-1,7,-1,-1,-1,-1,,9999,0,0,3,FEW 40   SCT 70   BKN 170,1,16,1,3,1025,RJKA 140500Z 08007KT 9999 FEW040 SCT070 BKN170 16/03 Q1025 RMK     1CU040 3AC070 7AC170 A3027=,
20180114_060000.003,0,RJKA,,,,0,20180114060000,-1,-1,-1,-1,70,-1,9,-1,-1,-1,-1,,9999,0,0,2,FEW 35   BKN 70,1,17,1,4,1024,RJKA 140600Z 07009KT 9999 FEW035 BKN070 17/04 Q1024 RMK 1CU035     7AC070 A3026=,
20180114_070000.002,0,RJKA,,,,0,20180114070000,-1,-1,-1,-1,70,-1,16,-1,-1,-1,-1,,9999,0,0,3,FEW 35   BKN 50   BKN 70,1,15,1,9,1024,RJKA 140700Z 07016KT 9999 FEW035 BKN050 BKN070 15/09 Q1024 RMK     1CU035 5SC050 7AC070 A3026=,
20180114_080000.002,0,RJKA,,,,0,20180114080000,-1,-1,-1,-1,60,-1,11,-1,-1,-1,-1,,9999,0,0,1,FEW 30,1,15,1,8,1024,RJKA 140800Z 06011KT 9999 FEW030 15/08 Q1024 RMK 1CU030 A3026=,
20180114_090000.002,0,RJKA,,,,0,20180114090000,-1,-1,-1,-1,70,-1,13,-1,-1,-1,-1,,9999,0,0,1,FEW 30,1,15,1,8,1024,RJKA 140900Z 07013KT 9999 FEW030 15/08 Q1024 RMK 1CU030 A3026=,
20180114_100000.002,0,RJKA,,,,0,20180114100000,-1,-1,-1,-1,90,-1,11,-1,-1,60,130,,9999,0,0,1,FEW 30,1,16,1,7,1024,RJKA 141000Z 09011KT 060V130 9999 FEW030 16/07 Q1024 RMK     1CU030 A3026=,
20180114_213000.001,0,RJKA,,,,0,20180114210000,-1,-1,-1,-1,120,-1,11,-1,-1,-1,-1,,9999,0,0,3,FEW 30   SCT 40   BKN 60,1,17,1,10,1023,RJKA 142130Z 12011KT 9999 FEW030 SCT040 BKN060 17/10 Q1023 RMK     1CU030 3CU040 7SC060 A3023=,
20180114_220000.002,0,RJKA,,,,0,20180114220000,-1,-1,-1,-1,120,-1,12,-1,-1,-1,-1,,9999,0,0,2,FEW 30   SCT 60,1,17,1,10,1023,RJKA 142200Z 12012KT 9999 FEW030 SCT060 17/10 Q1023 RMK 1CU030     3SC060 A3023=,
20180114_230000.002,0,RJKA,,,,0,20180114230000,-1,-1,-1,-1,110,-1,12,-1,-1,-1,-1,,9999,0,0,1,FEW 30,1,17,1,10,1024,RJKA 142300Z 11012KT 9999 FEW030 17/10 Q1024 RMK 1CU030 A3025=,
20180115_000000.002,0,RJKA,,,,0,20180115000000,-1,-1,-1,-1,120,-1,11,-1,-1,-1,-1,,9999,0,0,2,FEW 30   SCT 35,1,18,1,10,1024,RJKA 150000Z 12011KT 9999 FEW030 SCT035 18/10 Q1024 RMK 1CU030     3CU035 A3026=,
20180115_010000.002,0,RJKA,,,,0,20180115010000,-1,-1,-1,-1,110,-1,11,-1,-1,-1,-1,,9999,0,0,1,FEW 30,1,19,1,11,1025,RJKA 150100Z 11011KT 9999 FEW030 19/11 Q1025 RMK 1CU030 A3028=,
20180115_020000.002,0,RJKA,,,,0,20180115020000,-1,-1,-1,-1,110,-1,10,-1,-1,-1,-1,,9999,0,0,1,FEW 30,1,19,1,10,1024,RJKA 150200Z 11010KT 9999 FEW030 19/10 Q1024 RMK 1CU030 A3026=,
20180115_030000.002,0,RJKA,,,,0,20180115030000,-1,-1,-1,-1,120,-1,10,-1,-1,-1,-1,,9999,0,0,1,FEW 35,1,20,1,11,1023,RJKA 150300Z 12010KT 9999 FEW035 20/11 Q1023 RMK 1CU035 A3022=,
20180115_040000.002,0,RJKA,,,,0,20180115040000,-1,-1,-1,-1,110,-1,11,-1,-1,-1,-1,,9999,0,0,2,FEW 30   SCT 40,1,20,1,10,1022,RJKA 150400Z 11011KT 9999 FEW030 SCT040 20/10 Q1022 RMK 1CU030     3CU040 A3019=,
20180115_050000.002,0,RJKA,,,,0,20180115050000,-1,-1,-1,-1,90,-1,11,-1,-1,-1,-1,,9999,0,0,2,FEW 40   BKN 50,1,19,1,9,1021,RJKA 150500Z 09011KT 9999 FEW040 BKN050 19/09 Q1021 RMK 1CU040     5SC050 A3017=,
20180115_060000.002,0,RJKA,,,,0,20180115060000,-1,-1,-1,-1,100,-1,11,-1,-1,-1,-1,,9999,0,0,2,FEW 45   BKN 50,1,19,1,9,1021,RJKA 150600Z 10011KT 9999 FEW045 BKN050 19/09 Q1021 RMK 1CU045     5SC050 A3016=,
20180115_070000.003,0,RJKA,,,,0,20180115070000,-1,-1,-1,-1,110,-1,11,-1,-1,-1,-1,,9999,0,0,2,FEW 40   BKN 50,1,19,1,10,1021,RJKA 150700Z 11011KT 9999 FEW040 BKN050 19/10 Q1021 RMK 1CU040     6SC050 A3016=,
20180115_080000.002,0,RJKA,,,,0,20180115080000,-1,-1,-1,-1,100,-1,12,-1,-1,-1,-1,,9999,0,0,2,FEW 40   BKN 50,1,18,1,9,1021,RJKA 150800Z 10012KT 9999 FEW040 BKN050 18/09 Q1021 RMK 1CU040     6SC050 A3017=,
20180115_090000.002,0,RJKA,,,,0,20180115090000,-1,-1,-1,-1,100,-1,12,-1,-1,-1,-1,,9999,0,0,2,FEW 40   BKN 50,1,18,1,10,1022,RJKA 150900Z 10012KT 9999 FEW040 BKN050 18/10 Q1022 RMK 1CU040     6SC050 A3018=,
20180115_100000.002,0,RJKA,,,,0,20180115100000,-1,-1,-1,-1,100,-1,11,-1,-1,-1,-1,,9999,0,0,2,FEW 40   SCT 50,1,18,1,10,1022,RJKA 151000Z 10011KT 9999 FEW040 SCT050 18/10 Q1022 RMK 1CU040     4SC050 A3019=,
20180115_213000.001,0,RJKA,,,,0,20180115210000,-1,-1,-1,-1,110,-1,15,-1,-1,-1,-1,,9999,0,0,2,FEW 40   SCT 50,1,18,1,10,1021,RJKA 152130Z 11015KT 9999 FEW040 SCT050 18/10 Q1021 RMK 1CU040     4SC050 A3016=,
20180115_220000.002,0,RJKA,,,,0,20180115220000,-1,-1,-1,-1,110,-1,15,-1,-1,-1,-1,,9999,0,0,2,FEW 40   SCT 50,1,18,1,10,1021,RJKA 152200Z 11015KT 9999 FEW040 SCT050 18/10 Q1021 RMK 1CU040     4SC050 A3016=,
20180115_230000.002,0,RJKA,,,,0,20180115230000,-1,-1,-1,-1,120,-1,13,-1,-1,-1,-1,,9999,0,0,1,FEW 40,1,19,1,9,1021,RJKA 152300Z 12013KT 9999 FEW040 19/09 Q1021 RMK 1CU040 A3017=,
20180116_000000.002,0,RJKA,,,,0,20180116000000,-1,-1,-1,-1,120,-1,13,-1,-1,-1,-1,,9999,0,0,2,FEW 40   SCT 50,1,20,1,12,1021,RJKA 160000Z 12013KT 9999 FEW040 SCT050 20/12 Q1021 RMK 1CU040     3SC050 A3017=,
20180116_010000.002,0,RJKA,,,,0,20180116010000,-1,-1,-1,-1,140,-1,16,-1,-1,-1,-1,,9999,0,0,1,FEW 35,1,20,1,12,1021,RJKA 160100Z 14016KT 9999 FEW035 20/12 Q1021 RMK 1CU035 A3016=,
20180116_020000.002,0,RJKA,,,,0,20180116020000,-1,-1,-1,-1,130,-1,16,-1,-1,-1,-1,,9999,0,0,1,FEW 35,1,20,1,12,1020,RJKA 160200Z 13016KT 9999 FEW035 20/12 Q1020 RMK 1CU035 A3014=,
20180116_030000.002,0,RJKA,,,,0,20180116030000,-1,-1,-1,-1,150,-1,18,-1,-1,-1,-1,,9999,0,0,1,FEW 35,1,21,1,12,1019,RJKA 160300Z 15018KT 9999 FEW035 21/12 Q1019 RMK 1CU035 A3010=,
20180116_040000.002,0,RJKA,,,,0,20180116040000,-1,-1,-1,-1,150,-1,16,-1,-1,-1,-1,,9999,0,0,2,FEW 35   SCT 40,1,21,1,13,1018,RJKA 160400Z 15016KT 9999 FEW035 SCT040 21/13 Q1018 RMK 1CU035     3CU040 A3006=,
20180116_050000.002,0,RJKA,,,,0,20180116050000,-1,-1,-1,-1,150,-1,17,-1,-1,-1,-1,,9999,0,0,1,FEW 35,1,21,1,12,1017,RJKA 160500Z 15017KT 9999 FEW035 21/12 Q1017 RMK 1CU035 A3003=,
20180116_060000.002,0,RJKA,,,,0,20180116060000,-1,-1,-1,-1,160,-1,17,-1,-1,-1,-1,,9999,0,0,2,FEW 35   SCT 40,1,21,1,13,1016,RJKA 160600Z 16017KT 9999 FEW035 SCT040 21/13 Q1016 RMK 1CU035     3CU040 A3002=,
20180116_070000.002,0,RJKA,,,,0,20180116070000,-1,-1,-1,-1,170,-1,19,-1,-1,-1,-1,,9999,0,0,2,FEW 35   SCT 40,1,21,1,12,1016,RJKA 160700Z 17019KT 9999 FEW035 SCT040 21/12 Q1016 RMK 1CU035     3CU040 A3001=,
20180116_080000.002,0,RJKA,,,,0,20180116080000,-1,-1,-1,-1,170,-1,19,-1,-1,-1,-1,,9999,0,0,1,FEW 35,1,20,1,12,1016,RJKA 160800Z 17019KT 9999 FEW035 20/12 Q1016 RMK 1CU035 A3001=,
20180116_090000.002,0,RJKA,,,,0,20180116090000,-1,-1,-1,-1,170,-1,19,-1,-1,-1,-1,,9999,0,0,2,FEW 30   SCT 35,1,20,1,13,1016,RJKA 160900Z 17019KT 9999 FEW030 SCT035 20/13 Q1016 RMK 1CU030     3CU035 A3002=,
20180116_100000.002,0,RJKA,,,,0,20180116100000,-1,-1,-1,-1,180,-1,17,-1,-1,-1,-1,,9999,0,0,2,FEW 30   SCT 150,1,20,1,14,1016,RJKA 161000Z 18017KT 9999 FEW030 SCT150 20/14 Q1016 RMK 1CU030     4AC150 A3002=,
20180116_213000.001,0,RJKA,,,,0,20180116210000,-1,-1,-1,-1,190,-1,19,-1,-1,-1,-1,,9999,0,0,3,FEW 20   SCT 45   BKN 100,1,19,1,17,1013,RJKA 162130Z 19019KT 9999 FEW020 SCT045 BKN100 19/17 Q1013 RMK     1CU020 3SC045 6AC100 A2993=,
20180116_220000.002,0,RJKA,,,,0,20180116220000,-1,-1,-1,-1,190,-1,19,-1,-1,-1,-1,,9999,0,0,3,FEW 20   SCT 50   BKN 130,1,20,1,18,1013,RJKA 162200Z 19019KT 9999 FEW020 SCT050 BKN130 20/18 Q1013 RMK     1CU020 3SC050 6AC130 A2993=,
20180116_230000.002,0,RJKA,,,,0,20180116230000,-1,-1,-1,-1,190,-1,15,-1,-1,-1,-1,,9999,0,0,3,FEW 20   SCT 30   BKN 100,1,20,1,18,1014,RJKA 162300Z 19015KT 9999 FEW020 SCT030 BKN100 20/18 Q1014 RMK     1CU020 3CU030 7AC100 A2995=,
20180117_000000.002,0,RJKA,,,,0,20180117000000,-1,-1,-1,-1,220,-1,13,-1,23,-1,-1,,9999,0,1,3,FEW 13   SCT 20   BKN 40,1,21,1,19,1014,RJKA 170000Z 22013G23KT 9999 -SHRA FEW013 SCT020 BKN040 21/19     Q1014 RMK 1CU013 3CU020 7SC040 A2997=,- RA SH
20180117_010000.002,0,RJKA,,,,0,20180117010000,-1,-1,-1,-1,230,-1,11,-1,-1,-1,-1,,7000,0,1,3,FEW 20   BKN 50   BKN 70,1,20,1,17,1015,RJKA 170100Z 23011KT 7000 -RA FEW020 BKN050 BKN070 20/17 Q1015     RMK 1CU020 5SC050 7AC070 A2999=,- RA
20180117_020000.004,0,RJKA,,,,0,20180117020000,-1,-1,-1,-1,270,-1,8,-1,-1,-1,-1,,6000,0,1,3,FEW 15   BKN 40   BKN 60,1,21,1,18,1016,RJKA 170200Z 27008KT 6000 -RA FEW015 BKN040 BKN060 21/18 Q1016     RMK 1CU015 5SC040 7SC060 A3000=,- RA
20180117_030000.002,0,RJKA,,,,0,20180117030000,-1,-1,-1,-1,290,-1,5,-1,-1,250,320,,4000,0,1,3,FEW 20   BKN 25   BKN 40,1,20,1,18,1016,RJKA 170300Z 29005KT 250V320 4000 -SHRA FEW020 BKN025 BKN040     20/18 Q1016 RMK 1CU020 6CU025 7SC040 A3000=,- RA SH
20180117_040000.003,0,RJKA,,,,0,20180117040000,-1,-1,-1,-1,320,-1,10,-1,-1,-1,-1,,4500,0,1,3,FEW 6   BKN 20   BKN 30,1,18,1,17,1015,RJKA 170400Z 32010KT 4500 -SHRA FEW006 BKN020 BKN030 18/17     Q1015 RMK 1ST006 6CU020 7CU030 A2999=,- RA SH
20180117_050000.003,0,RJKA,,,,0,20180117050000,-1,-1,-1,-1,320,-1,6,-1,-1,290,20,,9999,0,0,3,FEW 10   BKN 50   BKN 60,1,19,1,16,1015,RJKA 170500Z 32006KT 290V020 9999 FEW010 BKN050 BKN060 19/16     Q1015 RMK 1CU010 5SC050 7SC060 A2997=,
20180117_060000.002,0,RJKA,,,,0,20180117060000,-1,-1,-1,-1,310,-1,7,-1,-1,290,350,,9999,0,0,2,FEW 15   BKN 80,1,20,1,16,1014,RJKA 170600Z 31007KT 290V350 9999 FEW015 BKN080 20/16 Q1014     RMK 1CU015 6AC080 A2997=,
20180117_070000.002,0,RJKA,,,,0,20180117070000,-1,-1,-1,-1,340,-1,6,-1,-1,280,30,,9999,0,0,3,FEW 13   SCT 20   BKN 30,1,19,1,16,1015,RJKA 170700Z 34006KT 280V030 9999 FEW013 SCT020 BKN030 19/16     Q1015 RMK 1CU013 3CU020 5CU030 A2998=,
20180117_080000.002,0,RJKA,,,,0,20180117080000,-1,-1,-1,-1,340,-1,9,-1,-1,310,10,,9999,0,0,1,FEW 25,1,19,1,13,1016,RJKA 170800Z 34009KT 310V010 9999 FEW025 19/13 Q1016 RMK     1CU025 A3000=,
20180117_090000.003,0,RJKA,,,,0,20180117090000,-1,-1,-1,-1,340,-1,7,-1,-1,-1,-1,,9999,0,0,1,FEW 25,1,18,1,13,1016,RJKA 170900Z 34007KT 9999 FEW025 18/13 Q1016 RMK 1CU025 A3002=,
20180117_100000.002,0,RJKA,,,,0,20180117100000,-1,-1,-1,-1,350,-1,6,-1,-1,-1,-1,,9999,0,0,1,FEW 20,1,17,1,13,1017,RJKA 171000Z 35006KT 9999 FEW020 17/13 Q1017 RMK 1CU020 A3004=,
20180117_213000.001,0,RJKA,,,,0,20180117210000,-1,-1,-1,-1,310,-1,3,-1,-1,290,360,,9999,0,0,1,FEW 40,1,14,1,11,1018,RJKA 172130Z 31003KT 290V360 9999 FEW040 14/11 Q1018 RMK     1SC040 A3008=,
20180117_220000.003,0,RJKA,,,,0,20180117220000,-1,-1,-1,-1,320,-1,4,-1,-1,-1,-1,,9999,0,0,1,FEW 40,1,14,1,11,1019,RJKA 172200Z 32004KT 9999 FEW040 14/11 Q1019 RMK 1SC040 A3009=,
20180117_230000.002,0,RJKA,,,,0,20180117230000,-1,-1,-1,-1,340,-1,4,-1,-1,-1,-1,,9999,0,0,1,FEW 40,1,15,1,12,1019,RJKA 172300Z 34004KT 9999 FEW040 15/12 Q1019 RMK 1SC040 A3010=,
20180118_000000.002,0,RJKA,,,,0,20180118000000,-1,-1,-1,-1,350,-1,4,-1,-1,-1,-1,,9999,0,0,2,FEW 25   BKN 30,1,17,1,13,1020,RJKA 180000Z 35004KT 9999 FEW025 BKN030 17/13 Q1020 RMK 1CU025     5CU030 A3012=,
20180118_010000.002,0,RJKA,,,,0,20180118010000,-1,-1,-1,-1,360,-1,8,-1,-1,330,30,,9999,0,0,2,FEW 25   SCT 30,1,19,1,13,1020,RJKA 180100Z 36008KT 330V030 9999 FEW025 SCT030 19/13 Q1020     RMK 1CU025 3CU030 A3013=,
20180118_020000.002,0,RJKA,,,,0,20180118020000,-1,-1,-1,-1,360,-1,4,-1,-1,290,50,,9999,0,0,2,FEW 30   BKN 35,1,19,1,13,1020,RJKA 180200Z 36004KT 290V050 9999 FEW030 BKN035 19/13 Q1020     RMK 1CU030 7SC035 A3013=,
20180118_030000.003,0,RJKA,,,,0,20180118030000,-1,-1,-1,-1,10,-1,5,-1,-1,330,50,,9999,0,0,2,FEW 30   BKN 35,1,20,1,13,1019,RJKA 180300Z 01005KT 330V050 9999 FEW030 BKN035 20/13 Q1019     RMK 1CU030 6SC035 A3010=,
20180118_040000.002,0,RJKA,,,,0,20180118040000,-1,-1,-1,-1,320,-1,8,-1,-1,-1,-1,,9999,0,0,2,FEW 30   BKN 35,1,21,1,12,1018,RJKA 180400Z 32008KT 9999 FEW030 BKN035 21/12 Q1018 RMK 1CU030     6SC035 A3008=,
20180118_050000.002,0,RJKA,,,,0,20180118050000,-1,-1,-1,-1,310,-1,8,-1,-1,270,350,,9999,0,0,2,FEW 30   BKN 35,1,20,1,11,1018,RJKA 180500Z 31008KT 270V350 9999 FEW030 BKN035 20/11 Q1018     RMK 1CU030 6SC035 A3007=,
20180118_060000.002,0,RJKA,,,,0,20180118060000,-1,-1,-1,-1,310,-1,7,-1,-1,270,360,,9999,0,0,2,FEW 30   BKN 35,1,21,1,13,1018,RJKA 180600Z 31007KT 270V360 9999 FEW030 BKN035 21/13 Q1018     RMK 1CU030 5SC035 A3007=,
20180118_070000.002,0,RJKA,,,,0,20180118070000,-1,-1,-1,-1,350,-1,7,-1,-1,-1,-1,,9999,0,0,2,FEW 25   SCT 35,1,19,1,12,1018,RJKA 180700Z 35007KT 9999 FEW025 SCT035 19/12 Q1018 RMK 1CU025     4SC035 A3008=,
20180118_080000.002,0,RJKA,,,,0,20180118080000,-1,-1,-1,-1,340,-1,6,-1,-1,310,20,,9999,0,0,3,FEW 30   SCT 35   BKN -9999,1,18,1,12,1019,RJKA 180800Z 34006KT 310V020 9999 FEW030 SCT035 BKN/// 18/12     Q1019 RMK 1CU030 4SC035 A3009=,
20180118_090000.002,0,RJKA,,,,0,20180118090000,-1,-1,-1,-1,360,-1,8,-1,-1,-1,-1,,9999,0,0,2,FEW 25   SCT 90,1,17,1,12,1019,RJKA 180900Z 36008KT 9999 FEW025 SCT090 17/12 Q1019 RMK 1CU025     3AC090 A3011=,
20180118_100000.002,0,RJKA,,,,0,20180118100000,-1,-1,-1,-1,350,-1,4,-1,-1,-1,-1,,9999,0,0,2,FEW 25   SCT 90,1,16,1,11,1020,RJKA 181000Z 35004KT 9999 FEW025 SCT090 16/11 Q1020 RMK 1CU025     3AC090 A3012=,
20180118_213000.001,0,RJKA,,,,0,20180118210000,-1,-1,-1,-1,310,-1,2,-1,-1,-1,-1,,9999,0,0,2,FEW 20   BKN 70,1,15,1,12,1019,RJKA 182130Z 31002KT 9999 FEW020 BKN070 15/12 Q1019 RMK 1CU020     7AC070 A3011=,
20180118_220000.002,0,RJKA,,,,0,20180118220000,-1,-1,-1,-1,280,-1,2,-1,-1,-1,-1,,9999,0,0,3,FEW 20   BKN 70   BKN 100,1,15,1,12,1019,RJKA 182200Z 28002KT 9999 FEW020 BKN070 BKN100 15/12 Q1019 RMK     1CU020 5AC070 7AC100 A3012=,
20180118_230000.003,0,RJKA,,,,0,20180118230000,-1,-1,-1,-1,290,-1,2,-1,-1,-1,-1,,9999,0,0,3,FEW 30   BKN 70   BKN 90,1,16,1,13,1020,RJKA 182300Z 29002KT 9999 FEW030 BKN070 BKN090 16/13 Q1020 RMK     1CU030 5AC070 7AC090 A3014=,
20180119_000000.002,0,RJKA,,,,0,20180119000000,-1,-1,-1,-1,280,-1,1,-1,-1,-1,-1,CAVOK,-1,0,0,0,,1,18,1,13,1020,RJKA 190000Z 28001KT CAVOK 18/13 Q1020 RMK 5AC070 A3013=,
20180119_010000.003,0,RJKA,,,,0,20180119010000,-1,-1,-1,-1,999,-1,2,-1,-1,-1,-1,,9999,0,0,3,FEW 35   SCT 70   BKN 90,1,19,1,12,1020,RJKA 190100Z VRB02KT 9999 FEW035 SCT070 BKN090 19/12 Q1020 RMK     1CU035 4AC070 6AC090 A3014=,
20180119_020000.002,0,RJKA,,,,0,20180119020000,-1,-1,-1,-1,80,-1,4,-1,-1,20,120,,9999,0,0,2,FEW 30   BKN 80,1,20,1,12,1020,RJKA 190200Z 08004KT 020V120 9999 FEW030 BKN080 20/12 Q1020     RMK 1CU030 6AC080 A3013=,
20180119_030000.002,0,RJKA,,,,0,20180119030000,-1,-1,-1,-1,10,-1,6,-1,-1,330,30,,9999,0,0,3,FEW 30   BKN 40   BKN 80,1,19,1,12,1019,RJKA 190300Z 01006KT 330V030 9999 FEW030 BKN040 BKN080 19/12     Q1019 RMK 1CU030 5CU040 7AC080 A3011=,
20180119_040000.002,0,RJKA,,,,0,20180119040000,-1,-1,-1,-1,10,-1,7,-1,-1,340,40,,9999,0,0,3,FEW 25   SCT 40   BKN 80,1,20,1,13,1018,RJKA 190400Z 01007KT 340V040 9999 FEW025 SCT040 BKN080 20/13     Q1018 RMK 1CU025 4CU040 7AC080 A3008=,
20180119_050000.003,0,RJKA,,,,0,20180119050000,-1,-1,-1,-1,350,-1,8,-1,-1,-1,-1,,9999,0,0,3,FEW 25   BKN 40   BKN 80,1,19,1,13,1018,RJKA 190500Z 35008KT 9999 FEW025 BKN040 BKN080 19/13 Q1018 RMK     1CU025 5CU040 7AC080 A3008=,
20180119_060000.002,0,RJKA,,,,0,20180119060000,-1,-1,-1,-1,360,-1,4,-1,-1,330,30,,9999,0,1,3,FEW 25   BKN 40   BKN 50,1,18,1,13,1018,RJKA 190600Z 36004KT 330V030 9999 -SHRA FEW025 BKN040 BKN050     18/13 Q1018 RMK 1CU025 6CU040 7SC050 A3006=,- RA SH
20180119_070000.002,0,RJKA,,,,0,20180119070000,-1,-1,-1,-1,10,-1,6,-1,-1,-1,-1,,9999,0,0,3,FEW 25   BKN 35   BKN 45,1,18,1,13,1018,RJKA 190700Z 01006KT 9999 FEW025 BKN035 BKN045 18/13 Q1018 RMK     1CU025 6CU035 7SC045 A3007=,
20180119_080000.002,0,RJKA,,,,0,20180119080000,-1,-1,-1,-1,340,-1,3,-1,-1,-1,-1,,9999,0,1,3,FEW 20   SCT 30   OVC 90,1,17,1,15,1018,RJKA 190800Z 34003KT 9999 -RA FEW020 SCT030 OVC090 17/15 Q1018     RMK 1CU020 3CU030 8AS090 A3008=,- RA
20180119_090000.003,0,RJKA,,,,0,20180119090000,-1,-1,-1,-1,310,-1,4,-1,-1,-1,-1,,9999,0,0,3,FEW 25   BKN 80   OVC 100,1,16,1,14,1019,RJKA 190900Z 31004KT 9999 FEW025 BKN080 OVC100 16/14 Q1019 RMK     1CU025 5AC080 8AS100 A3010=,
20180119_100000.002,0,RJKA,,,,0,20180119100000,-1,-1,-1,-1,320,-1,4,-1,-1,-1,-1,,9999,0,0,3,FEW 25   BKN 80   OVC 100,1,15,1,14,1018,RJKA 191000Z 32004KT 9999 FEW025 BKN080 OVC100 15/14 Q1018 RMK     1CU025 6AC080 8AS100 A3008=,
20180119_213000.001,0,RJKA,,,,0,20180119210000,-1,-1,-1,-1,320,-1,2,-1,-1,-1,-1,,9999,0,0,3,FEW 20   BKN 40   BKN 50,1,15,1,14,1018,RJKA 192130Z 32002KT 9999 FEW020 BKN040 BKN050 15/14 Q1018 RMK     1CU020 5CU040 7SC050 A3006=,
20180119_220000.002,0,RJKA,,,,0,20180119220000,-1,-1,-1,-1,290,-1,3,-1,-1,-1,-1,,9999,0,0,3,FEW 20   BKN 45   BKN 60,1,15,1,14,1018,RJKA 192200Z 29003KT 9999 FEW020 BKN045 BKN060 15/14 Q1018 RMK     1CU020 5CU045 7SC060 A3007=,
20180119_230000.002,0,RJKA,,,,0,20180119230000,-1,-1,-1,-1,290,-1,2,-1,-1,-1,-1,,8000,0,0,3,FEW 20   SCT 50   BKN 100,1,15,1,14,1018,RJKA 192300Z 29002KT 8000 FEW020 SCT050 BKN100 15/14 Q1018 RMK     1CU020 4SC050 6AC100 A3008=,
20180120_000000.002,0,RJKA,,,,0,20180120000000,-1,-1,-1,-1,300,-1,3,-1,-1,270,330,,9999,0,0,3,FEW 20   BKN 30   BKN 50,1,17,1,14,1019,RJKA 200000Z 30003KT 270V330 9999 FEW020 BKN030 BKN050 17/14     Q1019 RMK 1CU020 5CU030 6SC050 A3010=,
20180120_010000.002,0,RJKA,,,,0,20180120010000,-1,-1,-1,-1,10,-1,7,-1,-1,-1,-1,,9999,0,0,2,FEW 30   SCT 35,1,19,1,14,1019,RJKA 200100Z 01007KT 9999 FEW030 SCT035 19/14 Q1019 RMK 1CU030     4CU035 A3010=,
20180120_020000.003,0,RJKA,,,,0,20180120020000,-1,-1,-1,-1,20,-1,8,-1,-1,-1,-1,,9999,0,0,2,FEW 25   SCT 40,1,20,1,14,1018,RJKA 200200Z 02008KT 9999 FEW025 SCT040 20/14 Q1018 RMK 1CU025     4CU040 A3008=,
20180120_030000.002,0,RJKA,,,,0,20180120030000,-1,-1,-1,-1,350,-1,8,-1,-1,310,20,,9999,0,0,3,FEW 25   SCT 30   BKN 45,1,20,1,13,1018,RJKA 200300Z 35008KT 310V020 9999 FEW025 SCT030 BKN045 20/13     Q1018 RMK 1CU025 3CU030 6SC045 A3006=,
20180120_040000.002,0,RJKA,,,,0,20180120040000,-1,-1,-1,-1,310,-1,6,-1,-1,270,350,,9999,0,0,2,FEW 30   BKN 45,1,20,1,12,1017,RJKA 200400Z 31006KT 270V350 9999 FEW030 BKN045 20/12 Q1017     RMK 1CU030 5SC045 A3004=,
20180120_050000.002,0,RJKA,,,,0,20180120050000,-1,-1,-1,-1,310,-1,9,-1,-1,-1,-1,,9999,0,0,1,FEW 30,1,21,1,12,1016,RJKA 200500Z 31009KT 9999 FEW030 21/12 Q1016 RMK 1CU030 A3002=,
20180120_060000.002,0,RJKA,,,,0,20180120060000,-1,-1,-1,-1,320,-1,8,-1,-1,-1,-1,,9999,0,0,1,FEW 35,1,20,1,12,1016,RJKA 200600Z 32008KT 9999 FEW035 20/12 Q1016 RMK 1CU035 A3001=,
20180120_070000.002,0,RJKA,,,,0,20180120070000,-1,-1,-1,-1,340,-1,7,-1,-1,300,10,,9999,0,0,2,FEW 30   SCT 40,1,19,1,13,1016,RJKA 200700Z 34007KT 300V010 9999 FEW030 SCT040 19/13 Q1016     RMK 1CU030 4CU040 A3001=,
20180120_080000.002,0,RJKA,,,,0,20180120080000,-1,-1,-1,-1,360,-1,8,-1,-1,-1,-1,,9999,0,0,2,FEW 25   BKN 45,1,19,1,13,1017,RJKA 200800Z 36008KT 9999 FEW025 BKN045 19/13 Q1017 RMK 1CU025     6CU045 A3003=,
20180120_090000.002,0,RJKA,,,,0,20180120090000,-1,-1,-1,-1,10,-1,9,-1,-1,-1,-1,,9999,0,0,3,FEW 25   BKN 30   BKN 50,1,18,1,13,1017,RJKA 200900Z 01009KT 9999 FEW025 BKN030 BKN050 18/13 Q1017 RMK     1CU025 5CU030 7SC050 A3005=,
20180120_100000.002,0,RJKA,,,,0,20180120100000,-1,-1,-1,-1,20,-1,10,-1,-1,-1,-1,,9999,0,0,2,FEW 25   SCT 50,1,18,1,13,1017,RJKA 201000Z 02010KT 9999 FEW025 SCT050 18/13 Q1017 RMK 1CU025     4SC050 A3006=,
20180120_213000.001,0,RJKA,,,,0,20180120210000,-1,-1,-1,-1,340,-1,5,-1,-1,-1,-1,,9999,0,0,1,FEW 25,1,13,1,11,1018,RJKA 202130Z 34005KT 9999 FEW025 13/11 Q1018 RMK 1CU025 A3006=,
20180120_220000.002,0,RJKA,,,,0,20180120220000,-1,-1,-1,-1,340,-1,5,-1,-1,-1,-1,,9999,0,0,2,FEW 25   SCT 30,1,13,1,11,1018,RJKA 202200Z 34005KT 9999 FEW025 SCT030 13/11 Q1018 RMK 1CU025     3CU030 A3007=,
20180120_230000.002,0,RJKA,,,,0,20180120230000,-1,-1,-1,-1,350,-1,5,-1,-1,-1,-1,,9999,0,0,1,FEW 30,1,16,1,11,1018,RJKA 202300Z 35005KT 9999 FEW030 16/11 Q1018 RMK 1CU030 A3008=,
20180121_000000.002,0,RJKA,,,,0,20180121000000,-1,-1,-1,-1,20,-1,9,-1,-1,-1,-1,,9999,0,0,1,FEW 30,1,17,1,11,1019,RJKA 210000Z 02009KT 9999 FEW030 17/11 Q1019 RMK 1CU030 A3010=,
20180121_010000.002,0,RJKA,,,,0,20180121010000,-1,-1,-1,-1,30,-1,10,-1,-1,-1,-1,,9999,0,0,1,FEW 30,1,20,1,11,1019,RJKA 210100Z 03010KT 9999 FEW030 20/11 Q1019 RMK 1CU030 A3011=,
20180121_020000.002,0,RJKA,,,,0,20180121020000,-1,-1,-1,-1,10,-1,9,-1,-1,-1,-1,,9999,0,0,1,FEW 35,1,20,1,10,1019,RJKA 210200Z 01009KT 9999 FEW035 20/10 Q1019 RMK 1CU035 A3010=,
20180121_030000.002,0,RJKA,,,,0,20180121030000,-1,-1,-1,-1,20,-1,9,-1,-1,-1,-1,,9999,0,0,1,FEW 35,1,20,1,11,1017,RJKA 210300Z 02009KT 9999 FEW035 20/11 Q1017 RMK 1CU035 A3006=,
20180121_040000.003,0,RJKA,,,,0,20180121040000,-1,-1,-1,-1,40,-1,9,-1,-1,-1,-1,,9999,0,0,2,FEW 30   SCT 35,1,19,1,11,1016,RJKA 210400Z 04009KT 9999 FEW030 SCT035 19/11 Q1016 RMK 1CU030     3CU035 A3003=,
20180121_050000.002,0,RJKA,,,,0,20180121050000,-1,-1,-1,-1,50,-1,9,-1,-1,-1,-1,,9999,0,0,2,FEW 30   SCT 35,1,19,1,11,1015,RJKA 210500Z 05009KT 9999 FEW030 SCT035 19/11 Q1015 RMK 1CU030     3CU035 A2999=,
20180121_060000.002,0,RJKA,,,,0,20180121060000,-1,-1,-1,-1,40,-1,9,-1,-1,-1,-1,,9999,0,0,2,FEW 30   SCT 35,1,18,1,11,1015,RJKA 210600Z 04009KT 9999 FEW030 SCT035 18/11 Q1015 RMK 1CU030     4CU035 A2998=,
20180121_070000.002,0,RJKA,,,,0,20180121070000,-1,-1,-1,-1,20,-1,7,-1,-1,-1,-1,,9999,0,0,2,FEW 30   BKN 35,1,18,1,11,1016,RJKA 210700Z 02007KT 9999 FEW030 BKN035 18/11 Q1016 RMK 1CU030     5CU035 A3001=,
20180121_080000.002,0,RJKA,,,,0,20180121080000,-1,-1,-1,-1,20,-1,9,-1,-1,-1,-1,,9999,0,0,2,FEW 40   BKN 170,1,17,1,11,1016,RJKA 210800Z 02009KT 9999 FEW040 BKN170 17/11 Q1016 RMK 1CU040     5AC170 A3001=,
20180121_090000.002,0,RJKA,,,,0,20180121090000,-1,-1,-1,-1,20,-1,10,-1,-1,-1,-1,,9999,0,0,3,FEW 25   SCT 35   BKN 170,1,17,1,12,1016,RJKA 210900Z 02010KT 9999 FEW025 SCT035 BKN170 17/12 Q1016 RMK     1CU025 4CU035 6AC170 A3003=,
20180121_100000.002,0,RJKA,,,,0,20180121100000,-1,-1,-1,-1,30,-1,10,-1,-1,-1,-1,,9999,0,0,3,FEW 25   SCT 35   BKN 40,1,17,1,12,1017,RJKA 211000Z 03010KT 9999 FEW025 SCT035 BKN040 17/12 Q1017 RMK     1CU025 4CU035 6SC040 A3003=,
20180121_213000.001,0,RJKA,,,,0,20180121210000,-1,-1,-1,-1,180,-1,20,-1,-1,-1,-1,,9999,0,0,3,FEW 15   SCT 20   BKN 30,1,20,1,17,1009,RJKA 212130Z 18020KT 9999 FEW015 SCT020 BKN030 20/17 Q1009 RMK     1CU015 4CU020 7CU030 A2980=,
20180121_220000.002,0,RJKA,,,,0,20180121220000,-1,-1,-1,-1,190,-1,21,-1,-1,-1,-1,,9999,0,1,3,FEW 13   SCT 15   BKN 30,1,20,1,17,1009,RJKA 212200Z 19021KT 9999 -SHRA FEW013 SCT015 BKN030 20/17     Q1009 RMK 1CU013 4CU015 7CU030 A2979=,- RA SH
20180121_230000.002,0,RJKA,,,,0,20180121230000,-1,-1,-1,-1,190,-1,19,-1,-1,-1,-1,,9999,0,0,3,FEW 10   BKN 15   BKN 30,1,20,1,18,1008,RJKA 212300Z 19019KT 9999 FEW010 BKN015 BKN030 20/18 Q1008 RMK     1CU010 5CU015 7CU030 A2979=,
20180122_000000.002,0,RJKA,,,,0,20180122000000,-1,-1,-1,-1,210,-1,18,-1,-1,-1,-1,,8000,0,1,3,FEW 10   SCT 15   BKN 25,1,21,1,19,1008,RJKA 220000Z 21018KT 8000 -SHRA FEW010 SCT015 BKN025 21/19     Q1008 RMK 1CU010 3CU015 5CU025 A2978=,- RA SH
20180122_010000.002,0,RJKA,,,,0,20180122010000,-1,-1,-1,-1,230,-1,18,-1,-1,-1,-1,,2500,0,1,3,FEW 10   BKN 25   BKN 30,1,21,1,19,1009,RJKA 220100Z 23018KT 2500 SHRA FEW010 BKN025 BKN030 21/19     Q1009 RMK 1CU010 5CU025 7CU030 A2980=,RA SH
20180122_020000.002,0,RJKA,,,,0,20180122020000,-1,-1,-1,-1,310,-1,13,-1,-1,280,350,,9999,0,0,3,FEW 15   SCT 25   BKN 50,1,20,1,16,1009,RJKA 220200Z 31013KT 280V350 9999 FEW015 SCT025 BKN050 20/16     Q1009 RMK 1CU015 3CU025 7SC050 A2981=,
20180122_030000.002,0,RJKA,,,,0,20180122030000,-1,-1,-1,-1,320,-1,14,-1,25,290,350,,9999,0,0,3,FEW 20   BKN 30   BKN 50,1,19,1,14,1009,RJKA 220300Z 32014G25KT 290V350 9999 FEW020 BKN030 BKN050     19/14 Q1009 RMK 1CU020 5CU030 7SC050 A2980=,
20180122_040000.002,0,RJKA,,,,0,20180122040000,-1,-1,-1,-1,340,-1,13,-1,-1,310,10,,9999,0,1,3,FEW 20   BKN 30   BKN 35,1,19,1,14,1008,RJKA 220400Z 34013KT 310V010 9999 -SHRA FEW020 BKN030 BKN035     19/14 Q1008 RMK 1CU020 5CU030 7CU035 A2979=,- RA SH
20180122_050000.002,0,RJKA,,,,0,20180122050000,-1,-1,-1,-1,340,-1,13,-1,24,290,20,,9999,0,0,3,FEW 20   BKN 30   BKN 40,1,19,1,13,1009,RJKA 220500Z 34013G24KT 290V020 9999 FEW020 BKN030 BKN040     19/13 Q1009 RMK 1CU020 5CU030 6CU040 A2980=,
20180122_060000.003,0,RJKA,,,,0,20180122060000,-1,-1,-1,-1,340,-1,15,-1,25,300,20,,9999,0,0,2,FEW 25   BKN 30,1,18,1,11,1010,RJKA 220600Z 34015G25KT 300V020 9999 FEW025 BKN030 18/11 Q1010     RMK 1CU025 6CU030 A2983=,
20180122_070000.002,0,RJKA,,,,0,20180122070000,-1,-1,-1,-1,340,-1,11,-1,-1,310,10,,9999,0,0,2,FEW 30   BKN 40,1,17,1,10,1011,RJKA 220700Z 34011KT 310V010 9999 FEW030 BKN040 17/10 Q1011     RMK 1CU030 6CU040 A2985=,
20180122_080000.003,0,RJKA,,,,0,20180122080000,-1,-1,-1,-1,350,-1,14,-1,-1,-1,-1,,9999,0,0,2,FEW 30   BKN 45,1,17,1,10,1011,RJKA 220800Z 35014KT 9999 FEW030 BKN045 17/10 Q1011 RMK 1CU030     5SC045 A2987=,
20180122_090000.002,0,RJKA,,,,0,20180122090000,-1,-1,-1,-1,350,-1,14,-1,-1,-1,-1,,9999,0,0,2,FEW 30   BKN 45,1,16,1,9,1013,RJKA 220900Z 35014KT 9999 FEW030 BKN045 16/09 Q1013 RMK 1CU030     5SC045 A2992=,
20180122_100000.002,0,RJKA,,,,0,20180122100000,-1,-1,-1,-1,350,-1,12,-1,22,-1,-1,,9999,0,0,2,FEW 30   BKN 45,1,16,1,9,1014,RJKA 221000Z 35012G22KT 9999 FEW030 BKN045 16/09 Q1014 RMK     1CU030 5SC045 A2995=,
20180122_213000.001,0,RJKA,,,,0,20180122210000,-1,-1,-1,-1,350,-1,4,-1,-1,-1,-1,,9999,0,0,1,FEW 35,1,14,1,8,1016,RJKA 222130Z 35004KT 9999 FEW035 14/08 Q1016 RMK 1CU035 A3003=,
20180122_220000.002,0,RJKA,,,,0,20180122220000,-1,-1,-1,-1,330,-1,4,-1,-1,-1,-1,,9999,0,0,1,FEW 40,1,13,1,7,1017,RJKA 222200Z 33004KT 9999 FEW040 13/07 Q1017 RMK 1CU040 A3004=,
20180122_230000.003,0,RJKA,,,,0,20180122230000,-1,-1,-1,-1,330,-1,4,-1,-1,-1,-1,,9999,0,0,2,FEW 40   BKN 50,1,14,1,8,1017,RJKA 222300Z 33004KT 9999 FEW040 BKN050 14/08 Q1017 RMK 1CU040     5SC050 A3006=,
20180123_000000.002,0,RJKA,,,,0,20180123000000,-1,-1,-1,-1,999,-1,1,-1,-1,-1,-1,,9999,0,0,2,FEW 45   BKN 50,1,16,1,10,1018,RJKA 230000Z VRB01KT 9999 FEW045 BKN050 16/10 Q1018 RMK 1CU045     6SC050 A3008=,
20180123_010000.002,0,RJKA,,,,0,20180123010000,-1,-1,-1,-1,350,-1,3,-1,-1,-1,-1,,9999,0,0,2,FEW 45   SCT 50,1,18,1,8,1017,RJKA 230100Z 35003KT 9999 FEW045 SCT050 18/08 Q1017 RMK 1CU045     3SC050 A3006=,
20180123_020000.002,0,RJKA,,,,0,20180123020000,-1,-1,-1,-1,340,-1,5,-1,-1,310,10,,9999,0,0,1,FEW 45,1,18,1,7,1017,RJKA 230200Z 34005KT 310V010 9999 FEW045 18/07 Q1017 RMK     1CU045 A3003=,
20180123_030000.003,0,RJKA,,,,0,20180123030000,-1,-1,-1,-1,350,-1,3,-1,-1,300,50,,9999,0,0,2,FEW 45   BKN 50,1,18,1,7,1016,RJKA 230300Z 35003KT 300V050 9999 FEW045 BKN050 18/07 Q1016     RMK 1CU045 5SC050 A3003=,
20180123_040000.003,0,RJKA,,,,0,20180123040000,-1,-1,-1,-1,300,-1,6,-1,-1,270,340,,9999,0,0,3,FEW 45   SCT 50   BKN 120,1,20,1,8,1016,RJKA 230400Z 30006KT 270V340 9999 FEW045 SCT050 BKN120 20/08     Q1016 RMK 1CU045 3SC050 6AC120 A3000=,
20180123_050000.002,0,RJKA,,,,0,20180123050000,-1,-1,-1,-1,320,-1,10,-1,-1,-1,-1,,9999,0,0,2,FEW 40   BKN 50,1,18,1,8,1015,RJKA 230500Z 32010KT 9999 FEW040 BKN050 18/08 Q1015 RMK 1CU040     7SC050 A2999=,
20180123_060000.003,0,RJKA,,,,0,20180123060000,-1,-1,-1,-1,350,-1,11,-1,-1,-1,-1,,9999,0,0,2,FEW 40   SCT 50,1,18,1,8,1015,RJKA 230600Z 35011KT 9999 FEW040 SCT050 18/08 Q1015 RMK 1CU040     3SC050 A2999=,
20180123_070000.002,0,RJKA,,,,0,20180123070000,-1,-1,-1,-1,340,-1,10,-1,-1,-1,-1,,9999,0,0,3,FEW 40   SCT 50   BKN 70,1,17,1,10,1016,RJKA 230700Z 34010KT 9999 FEW040 SCT050 BKN070 17/10 Q1016 RMK     1CU040 3SC050 7AC070 A3000=,
20180123_080000.002,0,RJKA,,,,0,20180123080000,-1,-1,-1,-1,360,-1,12,-1,-1,-1,-1,,9999,0,0,3,FEW 30   SCT 45   BKN 50,1,16,1,9,1016,RJKA 230800Z 36012KT 9999 FEW030 SCT045 BKN050 16/09 Q1016 RMK     1CU030 4CU045 7SC050 A3001=,
20180123_090000.002,0,RJKA,,,,0,20180123090000,-1,-1,-1,-1,350,-1,11,-1,-1,-1,-1,,9999,0,0,3,FEW 35   BKN 40   BKN 50,1,16,1,8,1017,RJKA 230900Z 35011KT 9999 FEW035 BKN040 BKN050 16/08 Q1017 RMK     1CU035 5CU040 7SC050 A3004=,
20180123_100000.002,0,RJKA,,,,0,20180123100000,-1,-1,-1,-1,10,-1,12,-1,-1,-1,-1,,9999,0,0,2,FEW 35   SCT 40,1,16,1,9,1017,RJKA 231000Z 01012KT 9999 FEW035 SCT040 16/09 Q1017 RMK 1CU035     4CU040 A3004=,
20180123_213000.001,0,RJKA,,,,0,20180123210000,-1,-1,-1,-1,350,-1,10,-1,-1,320,20,,9999,0,1,3,FEW 20   SCT 25   BKN 45,1,13,1,10,1019,RJKA 232130Z 35010KT 320V020 9999 -SHRA FEW020 SCT025 BKN045     13/10 Q1019 RMK 1CU020 3CU025 7SC045 A3011=,- RA SH
20180123_220000.002,0,RJKA,,,,0,20180123220000,-1,-1,-1,-1,350,-1,11,-1,-1,-1,-1,,9999,0,1,3,FEW 20   SCT 25   BKN 45,1,12,1,11,1020,RJKA 232200Z 35011KT 9999 -SHRA FEW020 SCT025 BKN045 12/11     Q1020 RMK 1CU020 4CU025 7SC045 A3012=,- RA SH
20180123_230000.002,0,RJKA,,,,0,20180123230000,-1,-1,-1,-1,350,-1,11,-1,-1,-1,-1,,9999,0,1,3,FEW 20   BKN 30   BKN 45,1,12,1,10,1020,RJKA 232300Z 35011KT 9999 -SHRA FEW020 BKN030 BKN045 12/10     Q1020 RMK 1CU020 5CU030 7SC045 A3013=,- RA SH
20180124_000000.002,0,RJKA,,,,0,20180124000000,-1,-1,-1,-1,350,-1,14,-1,-1,-1,-1,,8000,0,1,3,FEW 20   BKN 30   BKN 40,1,12,1,10,1020,RJKA 240000Z 35014KT 8000 -SHRA FEW020 BKN030 BKN040 12/10     Q1020 RMK 1CU020 5CU030 7SC040 A3013=,- RA SH
20180124_010000.003,0,RJKA,,,,0,20180124010000,-1,-1,-1,-1,350,-1,8,-1,-1,-1,-1,,9999,0,1,3,FEW 25   BKN 30   BKN 40,1,12,1,10,1020,RJKA 240100Z 35008KT 9999 -SHRA FEW025 BKN030 BKN040 12/10     Q1020 RMK 1CU025 6CU030 7SC040 A3014=,- RA SH
20180124_020000.002,0,RJKA,,,,0,20180124020000,-1,-1,-1,-1,350,-1,8,-1,-1,310,20,,9999,0,1,3,FEW 25   BKN 30   BKN 40,1,13,1,9,1020,RJKA 240200Z 35008KT 310V020 9999 -SHRA FEW025 BKN030 BKN040     13/09 Q1020 RMK 1CU025 6CU030 7SC040 A3013=,- RA SH
20180124_030000.002,0,RJKA,,,,0,20180124030000,-1,-1,-1,-1,340,-1,12,-1,-1,300,10,,9999,0,1,3,FEW 30   SCT 35   BKN 45,1,14,1,8,1019,RJKA 240300Z 34012KT 300V010 9999 -SHRA FEW030 SCT035 BKN045     14/08 Q1019 RMK 1CU030 3CU035 7SC045 A3010=,- RA SH
20180124_040000.002,0,RJKA,,,,0,20180124040000,-1,-1,-1,-1,350,-1,17,-1,27,-1,-1,,9999,0,0,3,FEW 30   SCT 35   BKN 45,1,15,1,8,1017,RJKA 240400Z 35017G27KT 9999 FEW030 SCT035 BKN045 15/08 Q1017     RMK 1CU030 3CU035 6SC045 A3004 P/FR=,
20180124_050000.002,0,RJKA,,,,0,20180124050000,-1,-1,-1,-1,350,-1,11,-1,21,300,30,,9999,0,0,2,FEW 35   SCT 50,1,15,1,7,1017,RJKA 240500Z 35011G21KT 300V030 9999 FEW035 SCT050 15/07 Q1017     RMK 1CU035 4SC050 A3004=,
20180124_060000.002,0,RJKA,,,,0,20180124060000,-1,-1,-1,-1,340,-1,6,-1,16,300,40,,9999,0,0,3,FEW 35   SCT 40   BKN 50,1,15,1,6,1017,RJKA 240600Z 34006G16KT 300V040 9999 FEW035 SCT040 BKN050     15/06 Q1017 RMK 1CU035 3CU040 6SC050 A3004=,
20180124_070000.002,0,RJKA,,,,0,20180124070000,-1,-1,-1,-1,350,-1,14,-1,-1,320,20,,9999,0,0,2,FEW 35   BKN 50,1,14,1,6,1017,RJKA 240700Z 35014KT 320V020 9999 FEW035 BKN050 14/06 Q1017     RMK 1CU035 6SC050 A3005=,
20180124_080000.002,0,RJKA,,,,0,20180124080000,-1,-1,-1,-1,350,-1,14,-1,-1,310,20,,9999,0,0,3,FEW 35   SCT 40   BKN 50,1,13,1,6,1018,RJKA 240800Z 35014KT 310V020 9999 FEW035 SCT040 BKN050 13/06     Q1018 RMK 1CU035 4CU040 6SC050 A3006=,
20180124_090000.003,0,RJKA,,,,0,20180124090000,-1,-1,-1,-1,350,-1,13,-1,-1,-1,-1,,9999,0,0,2,FEW 35   BKN 50,1,13,1,6,1018,RJKA 240900Z 35013KT 9999 FEW035 BKN050 13/06 Q1018 RMK 1CU035     5SC050 A3007=,
20180124_100000.002,0,RJKA,,,,0,20180124100000,-1,-1,-1,-1,350,-1,12,-1,24,300,10,,9999,0,0,3,FEW 30   SCT 40   BKN 45,1,13,1,6,1018,RJKA 241000Z 35012G24KT 300V010 9999 FEW030 SCT040 BKN045     13/06 Q1018 RMK 1CU030 4CU040 6SC045 A3008=,
20180124_213000.001,0,RJKA,,,,0,20180124210000,-1,-1,-1,-1,350,-1,11,-1,-1,-1,-1,,9999,0,0,3,FEW 30   BKN 40   BKN 60,1,12,1,5,1020,RJKA 242130Z 35011KT 9999 FEW030 BKN040 BKN060 12/05 Q1020 RMK     1CU030 5CU040 7SC060 A3013=,
20180124_220000.002,0,RJKA,,,,0,20180124220000,-1,-1,-1,-1,350,-1,10,-1,-1,-1,-1,,9999,0,0,3,FEW 30   BKN 40   BKN 60,1,12,1,5,1020,RJKA 242200Z 35010KT 9999 FEW030 BKN040 BKN060 12/05 Q1020 RMK     1CU030 6CU040 7SC060 A3014=,
20180124_230000.002,0,RJKA,,,,0,20180124230000,-1,-1,-1,-1,350,-1,8,-1,-1,-1,-1,,9999,0,0,3,FEW 30   BKN 40   BKN 60,1,12,1,6,1020,RJKA 242300Z 35008KT 9999 FEW030 BKN040 BKN060 12/06 Q1020 RMK     1CU030 6CU040 7SC060 A3015=,
20180125_000000.002,0,RJKA,,,,0,20180125000000,-1,-1,-1,-1,350,-1,11,-1,-1,-1,-1,,9999,0,1,3,FEW 30   BKN 40   BKN 60,1,12,1,5,1021,RJKA 250000Z 35011KT 9999 -SHRA FEW030 BKN040 BKN060 12/05     Q1021 RMK 1CU030 6CU040 7SC060 A3016=,- RA SH
20180125_010000.002,0,RJKA,,,,0,20180125010000,-1,-1,-1,-1,350,-1,10,-1,-1,-1,-1,,9999,0,1,3,FEW 30   BKN 35   BKN 40,1,12,1,6,1021,RJKA 250100Z 35010KT 9999 -SHRA FEW030 BKN035 BKN040 12/06     Q1021 RMK 1CU030 5CU035 7SC040 A3017=,- RA SH
20180125_020000.003,0,RJKA,,,,0,20180125020000,-1,-1,-1,-1,350,-1,8,-1,-1,-1,-1,,9999,0,1,3,FEW 25   BKN 30   BKN 40,1,11,1,6,1021,RJKA 250200Z 35008KT 9999 -SHRA FEW025 BKN030 BKN040 11/06     Q1021 RMK 1CU025 6CU030 7SC040 A3016=,- RA SH
20180125_030000.002,0,RJKA,,,,0,20180125030000,-1,-1,-1,-1,350,-1,11,-1,-1,-1,-1,,9999,0,1,3,FEW 30   BKN 35   BKN 40,1,11,1,6,1020,RJKA 250300Z 35011KT 9999 -SHRA FEW030 BKN035 BKN040 11/06     Q1020 RMK 1CU030 6CU035 7SC040 A3014=,- RA SH
20180125_040000.002,0,RJKA,,,,0,20180125040000,-1,-1,-1,-1,350,-1,9,-1,-1,-1,-1,,9999,0,0,3,FEW 30   BKN 35   BKN 40,1,12,1,5,1019,RJKA 250400Z 35009KT 9999 FEW030 BKN035 BKN040 12/05 Q1019 RMK     1CU030 6CU035 7SC040 A3011=,
20180125_050000.002,0,RJKA,,,,0,20180125050000,-1,-1,-1,-1,350,-1,12,-1,-1,-1,-1,,9999,0,0,3,FEW 25   BKN 30   BKN 35,1,13,1,6,1018,RJKA 250500Z 35012KT 9999 FEW025 BKN030 BKN035 13/06 Q1018 RMK     1CU025 5CU030 7CU035 A3008=,
20180125_060000.002,0,RJKA,,,,0,20180125060000,-1,-1,-1,-1,350,-1,11,-1,-1,-1,-1,,9999,0,0,3,FEW 25   BKN 35   BKN 40,1,12,1,6,1018,RJKA 250600Z 35011KT 9999 FEW025 BKN035 BKN040 12/06 Q1018 RMK     1CU025 6CU035 7SC040 A3007=,
20180125_070000.002,0,RJKA,,,,0,20180125070000,-1,-1,-1,-1,350,-1,11,-1,-1,-1,-1,,9999,0,1,3,FEW 30   BKN 35   BKN 40,1,12,1,6,1018,RJKA 250700Z 35011KT 9999 -SHRA FEW030 BKN035 BKN040 12/06     Q1018 RMK 1CU030 6CU035 7SC040 A3006=,- RA SH
20180125_080000.002,0,RJKA,,,,0,20180125080000,-1,-1,-1,-1,350,-1,7,-1,-1,-1,-1,,9999,0,0,3,FEW 25   BKN 30   BKN 35,1,12,1,7,1018,RJKA 250800Z 35007KT 9999 FEW025 BKN030 BKN035 12/07 Q1018 RMK     1CU025 5CU030 7CU035 A3007=,
20180125_090000.002,0,RJKA,,,,0,20180125090000,-1,-1,-1,-1,350,-1,8,-1,-1,310,10,,9999,0,0,3,FEW 25   BKN 35   BKN 40,1,12,1,7,1018,RJKA 250900Z 35008KT 310V010 9999 FEW025 BKN035 BKN040 12/07     Q1018 RMK 1CU025 5CU035 7SC040 A3008=,
20180125_100000.003,0,RJKA,,,,0,20180125100000,-1,-1,-1,-1,350,-1,10,-1,-1,-1,-1,,9999,0,1,3,FEW 25   SCT 30   BKN 40,1,12,1,7,1018,RJKA 251000Z 35010KT 9999 -SHRA FEW025 SCT030 BKN040 12/07     Q1018 RMK 1CU025 3CU030 7SC040 A3009=,- RA SH
20180125_213000.001,0,RJKA,,,,0,20180125210000,-1,-1,-1,-1,350,-1,11,-1,-1,-1,-1,,7000,0,1,3,FEW 15   SCT 25   BKN 30,1,11,1,9,1018,RJKA 252130Z 35011KT 7000 -SHRA FEW015 SCT025 BKN030 11/09     Q1018 RMK 1CU015 3CU025 7CU030 A3009=,- RA SH
20180125_220000.002,0,RJKA,,,,0,20180125220000,-1,-1,-1,-1,340,-1,10,-1,-1,-1,-1,,9999,0,1,3,FEW 20   BKN 30   BKN 40,1,11,1,9,1019,RJKA 252200Z 34010KT 9999 -SHRA FEW020 BKN030 BKN040 11/09     Q1019 RMK 1CU020 5CU030 7SC040 A3010=,- RA SH
20180125_230000.002,0,RJKA,,,,0,20180125230000,-1,-1,-1,-1,350,-1,13,-1,23,-1,-1,,6000,0,1,3,FEW 15   BKN 25   BKN 40,1,10,1,9,1019,RJKA 252300Z 35013G23KT 6000 -SHRA FEW015 BKN025 BKN040 10/09     Q1019 RMK 1CU015 6CU025 7SC040 A3011=,- RA SH
20180126_000000.002,0,RJKA,,,,0,20180126000000,-1,-1,-1,-1,340,-1,11,-1,-1,-1,-1,,9999,0,1,3,FEW 15   BKN 30   BKN 50,1,11,1,8,1020,RJKA 260000Z 34011KT 9999 -SHRA FEW015 BKN030 BKN050 11/08     Q1020 RMK 1CU015 5CU030 7SC050 A3012=,- RA SH
20180126_010000.002,0,RJKA,,,,0,20180126010000,-1,-1,-1,-1,330,-1,11,-1,-1,300,360,,8000,0,1,3,FEW 15   SCT 20   BKN 45,1,11,1,9,1020,RJKA 260100Z 33011KT 300V360 8000 -SHRA FEW015 SCT020 BKN045     11/09 Q1020 RMK 1CU015 3CU020 7SC045 A3013=,- RA SH
20180126_020000.002,0,RJKA,,,,0,20180126020000,-1,-1,-1,-1,340,-1,10,-1,-1,-1,-1,,9999,0,1,3,FEW 20   BKN 30   BKN 45,1,11,1,9,1020,RJKA 260200Z 34010KT 9999 -SHRA FEW020 BKN030 BKN045 11/09     Q1020 RMK 1CU020 6CU030 7SC045 A3013=,- RA SH
20180126_030000.002,0,RJKA,,,,0,20180126030000,-1,-1,-1,-1,340,-1,10,-1,-1,300,10,,6000,0,1,3,FEW 20   BKN 30   BKN 45,1,11,1,9,1019,RJKA 260300Z 34010KT 300V010 6000 -SHRA FEW020 BKN030 BKN045     11/09 Q1019 RMK 1CU020 5CU030 7SC045 A3010=,- RA SH
20180126_040000.002,0,RJKA,,,,0,20180126040000,-1,-1,-1,-1,340,-1,11,-1,-1,300,360,,9999,0,1,3,FEW 20   BKN 30   BKN 50,1,11,1,8,1018,RJKA 260400Z 34011KT 300V360 9999 -SHRA FEW020 BKN030 BKN050     11/08 Q1018 RMK 1CU020 5CU030 7SC050 A3008=,- RA SH
20180126_050000.002,0,RJKA,,,,0,20180126050000,-1,-1,-1,-1,340,-1,10,-1,-1,-1,-1,,8000,0,1,3,FEW 20   BKN 25   BKN 40,1,11,1,9,1018,RJKA 260500Z 34010KT 8000 -SHRA FEW020 BKN025 BKN040 11/09     Q1018 RMK 1CU020 5CU025 7SC040 A3007=,- RA SH
20180126_060000.002,0,RJKA,,,,0,20180126060000,-1,-1,-1,-1,350,-1,11,-1,-1,-1,-1,,9999,0,1,3,FEW 20   BKN 30   BKN 50,1,11,1,8,1018,RJKA 260600Z 35011KT 9999 VCSH FEW020 BKN030 BKN050 11/08     Q1018 RMK 1CU020 5CU030 7SC050 A3006=,VC SH
20180126_070000.002,0,RJKA,,,,0,20180126070000,-1,-1,-1,-1,350,-1,13,-1,-1,310,10,,9999,0,1,3,FEW 20   BKN 30   BKN 40,1,11,1,8,1018,RJKA 260700Z 35013KT 310V010 9999 -SHRA FEW020 BKN030 BKN040     11/08 Q1018 RMK 1CU020 5CU030 7SC040 A3007=,- RA SH
20180126_080000.003,0,RJKA,,,,0,20180126080000,-1,-1,-1,-1,350,-1,15,-1,-1,-1,-1,,9999,0,1,3,FEW 20   BKN 30   BKN 45,1,10,1,7,1018,RJKA 260800Z 35015KT 9999 -SHRA FEW020 BKN030 BKN045 10/07     Q1018 RMK 1CU020 5CU030 6SC045 A3008=,- RA SH
20180126_090000.002,0,RJKA,,,,0,20180126090000,-1,-1,-1,-1,350,-1,17,-1,27,-1,-1,,9999,0,0,3,FEW 20   BKN 30   BKN 40,1,11,1,6,1019,RJKA 260900Z 35017G27KT 9999 FEW020 BKN030 BKN040 11/06 Q1019     RMK 1CU020 5CU030 7SC040 A3010=,
20180126_100000.002,0,RJKA,,,,0,20180126100000,-1,-1,-1,-1,340,-1,12,-1,-1,-1,-1,,9999,0,0,3,FEW 30   BKN 35   BKN 50,1,11,1,4,1020,RJKA 261000Z 34012KT 9999 FEW030 BKN035 BKN050 11/04 Q1020 RMK     1CU030 5CU035 6SC050 A3012=,
20180126_213000.001,0,RJKA,,,,0,20180126210000,-1,-1,-1,-1,330,-1,8,-1,-1,-1,-1,,9999,0,0,2,FEW 35   BKN 40,1,12,1,4,1021,RJKA 262130Z 33008KT 9999 FEW035 BKN040 12/04 Q1021 RMK 1CU035     7CU040 A3016=,
20180126_220000.002,0,RJKA,,,,0,20180126220000,-1,-1,-1,-1,340,-1,9,-1,-1,310,10,,9999,0,0,2,FEW 35   BKN 40,1,12,1,4,1021,RJKA 262200Z 34009KT 310V010 9999 FEW035 BKN040 12/04 Q1021     RMK 1CU035 7CU040 A3017=,
20180126_230000.002,0,RJKA,,,,0,20180126230000,-1,-1,-1,-1,360,-1,11,-1,-1,-1,-1,,9999,0,0,3,FEW 35   SCT 40   BKN 45,1,12,1,4,1022,RJKA 262300Z 36011KT 9999 FEW035 SCT040 BKN045 12/04 Q1022 RMK     1CU035 4CU040 7CU045 A3018=,
20180127_000000.002,0,RJKA,,,,0,20180127000000,-1,-1,-1,-1,340,-1,6,-1,-1,-1,-1,,9999,0,0,2,FEW 40   BKN 50,1,12,1,3,1022,RJKA 270000Z 34006KT 9999 FEW040 BKN050 12/03 Q1022 RMK 1CU040     7SC050 A3021=,
20180127_010000.002,0,RJKA,,,,0,20180127010000,-1,-1,-1,-1,350,-1,7,-1,-1,-1,-1,,9999,0,0,3,FEW 35   SCT 40   BKN 50,1,12,1,4,1023,RJKA 270100Z 35007KT 9999 FEW035 SCT040 BKN050 12/04 Q1023 RMK     1CU035 3CU040 7SC050 A3022=,
20180127_020000.002,0,RJKA,,,,0,20180127020000,-1,-1,-1,-1,10,-1,10,-1,-1,-1,-1,,9999,0,0,3,FEW 35   BKN 40   BKN 50,1,13,1,4,1022,RJKA 270200Z 01010KT 9999 FEW035 BKN040 BKN050 13/04 Q1022 RMK     1CU035 5CU040 7SC050 A3020=,
20180127_030000.002,0,RJKA,,,,0,20180127030000,-1,-1,-1,-1,10,-1,11,-1,-1,-1,-1,,9999,0,0,3,FEW 35   SCT 45   BKN 50,1,14,1,5,1021,RJKA 270300Z 01011KT 9999 FEW035 SCT045 BKN050 14/05 Q1021 RMK     1CU035 3CU045 7SC050 A3017=,
20180127_040000.002,0,RJKA,,,,0,20180127040000,-1,-1,-1,-1,20,-1,8,-1,-1,340,50,,9999,0,0,3,FEW 35   SCT 40   BKN 50,1,14,1,6,1021,RJKA 270400Z 02008KT 340V050 9999 FEW035 SCT040 BKN050 14/06     Q1021 RMK 1CU035 4CU040 6SC050 A3015=,
20180127_050000.002,0,RJKA,,,,0,20180127050000,-1,-1,-1,-1,10,-1,10,-1,-1,-1,-1,,9999,0,0,3,FEW 25   BKN 30   BKN 45,1,12,1,6,1020,RJKA 270500Z 01010KT 9999 FEW025 BKN030 BKN045 12/06 Q1020 RMK     1CU025 5CU030 7SC045 A3014=,
20180127_060000.002,0,RJKA,,,,0,20180127060000,-1,-1,-1,-1,10,-1,10,-1,-1,-1,-1,,9999,0,0,3,FEW 25   BKN 30   BKN 40,1,12,1,6,1020,RJKA 270600Z 01010KT 9999 FEW025 BKN030 BKN040 12/06 Q1020 RMK     1CU025 5CU030 7SC040 A3013=,
20180127_070000.002,0,RJKA,,,,0,20180127070000,-1,-1,-1,-1,20,-1,12,-1,-1,340,50,,9999,0,0,3,FEW 25   BKN 30   BKN 40,1,12,1,5,1020,RJKA 270700Z 02012KT 340V050 9999 FEW025 BKN030 BKN040 12/05     Q1020 RMK 1CU025 5CU030 6SC040 A3012=,
20180127_080000.002,0,RJKA,,,,0,20180127080000,-1,-1,-1,-1,30,-1,11,-1,-1,-1,-1,,9999,0,0,3,FEW 30   SCT 40   BKN 45,1,12,1,5,1020,RJKA 270800Z 03011KT 9999 FEW030 SCT040 BKN045 12/05 Q1020 RMK     1CU030 4CU040 5SC045 A3012=,
20180127_090000.003,0,RJKA,,,,0,20180127090000,-1,-1,-1,-1,30,-1,8,-1,-1,-1,-1,,9999,0,0,2,FEW 35   BKN 40,1,12,1,5,1020,RJKA 270900Z 03008KT 9999 FEW035 BKN040 12/05 Q1020 RMK 1CU035     5CU040 A3014=,
20180127_100000.002,0,RJKA,,,,0,20180127100000,-1,-1,-1,-1,30,-1,8,-1,-1,-1,-1,,9999,0,0,2,FEW 35   BKN 40,1,12,1,5,1020,RJKA 271000Z 03008KT 9999 FEW035 BKN040 12/05 Q1020 RMK 1CU035     5CU040 A3015=,
20180127_213000.001,0,RJKA,,,,0,20180127210000,-1,-1,-1,-1,150,-1,5,-1,-1,-1,-1,,9999,0,0,2,FEW 35   BKN 40,1,15,1,9,1017,RJKA 272130Z 15005KT 9999 FEW035 BKN040 15/09 Q1017 RMK 1CU035     7CU040 A3004=,
20180127_220000.002,0,RJKA,,,,0,20180127220000,-1,-1,-1,-1,170,-1,4,-1,-1,-1,-1,,9999,0,0,2,FEW 35   BKN 40,1,15,1,9,1017,RJKA 272200Z 17004KT 9999 FEW035 BKN040 15/09 Q1017 RMK 1CU035     7CU040 A3005=,
20180127_230000.002,0,RJKA,,,,0,20180127230000,-1,-1,-1,-1,140,-1,7,-1,-1,-1,-1,,9999,0,0,3,FEW 30   BKN 35   BKN 40,1,16,1,10,1017,RJKA 272300Z 14007KT 9999 FEW030 BKN035 BKN040 16/10 Q1017 RMK     1CU030 5CU035 7CU040 A3004=,
20180128_000000.003,0,RJKA,,,,0,20180128000000,-1,-1,-1,-1,130,-1,10,-1,-1,-1,-1,,9999,0,0,3,FEW 35   SCT 40   BKN 50,1,16,1,10,1016,RJKA 280000Z 13010KT 9999 FEW035 SCT040 BKN050 16/10 Q1016 RMK     1CU035 3CU040 6SC050 A3002=,
20180128_010000.002,0,RJKA,,,,0,20180128010000,-1,-1,-1,-1,130,-1,10,-1,-1,-1,-1,,9999,0,0,3,FEW 25   BKN 30   BKN 45,1,17,1,11,1016,RJKA 280100Z 13010KT 9999 FEW025 BKN030 BKN045 17/11 Q1016 RMK     1CU025 6CU030 7SC045 A3003=,
20180128_020000.002,0,RJKA,,,,0,20180128020000,-1,-1,-1,-1,140,-1,12,-1,-1,-1,-1,,9999,0,0,3,FEW 25   BKN 30   BKN 40,1,17,1,12,1015,RJKA 280200Z 14012KT 9999 FEW025 BKN030 BKN040 17/12 Q1015 RMK     1CU025 6CU030 7CU040 A3000=,
20180128_030000.002,0,RJKA,,,,0,20180128030000,-1,-1,-1,-1,160,-1,12,-1,-1,-1,-1,,9999,0,0,3,FEW 25   BKN 30   BKN 40,1,17,1,12,1015,RJKA 280300Z 16012KT 9999 FEW025 BKN030 BKN040 17/12 Q1015 RMK     1CU025 5CU030 7CU040 A2998=,
20180128_040000.002,0,RJKA,,,,0,20180128040000,-1,-1,-1,-1,200,-1,9,-1,-1,-1,-1,,9999,0,1,3,FEW 20   BKN 25   BKN 30,1,16,1,13,1014,RJKA 280400Z 20009KT 9999 -SHRA FEW020 BKN025 BKN030 16/13     Q1014 RMK 1CU020 6CU025 7CU030 A2995=,- RA SH
20180128_050000.002,0,RJKA,,,,0,20180128050000,-1,-1,-1,-1,220,-1,7,-1,-1,-1,-1,,8000,0,1,3,FEW 10   BKN 25   BKN 30,1,16,1,15,1013,RJKA 280500Z 22007KT 8000 -SHRA FEW010 BKN025 BKN030 16/15     Q1013 RMK 1CU010 5CU025 7CU030 A2993=,- RA SH
20180128_060000.002,0,RJKA,,,,0,20180128060000,-1,-1,-1,-1,200,-1,7,-1,-1,-1,-1,,9999,0,1,3,FEW 20   SCT 35   BKN 70,1,17,1,15,1012,RJKA 280600Z 20007KT 9999 -SHRA FEW020 SCT035 BKN070 17/15     Q1012 RMK 1CU020 4CU035 7AC070 A2991=,- RA SH
20180128_070000.003,0,RJKA,,,,0,20180128070000,-1,-1,-1,-1,220,-1,7,-1,-1,-1,-1,,9999,0,1,3,FEW 10   BKN 20   BKN 30,1,16,1,15,1012,RJKA 280700Z 22007KT 9999 -SHRA FEW010 BKN020 BKN030 16/15     Q1012 RMK 1CU010 5CU020 7CU030 A2990=,- RA SH
20180128_080000.002,0,RJKA,,,,0,20180128080000,-1,-1,-1,-1,210,-1,5,-1,-1,-1,-1,,9999,0,1,3,FEW 12   BKN 30   BKN 50,1,17,1,15,1012,RJKA 280800Z 21005KT 9999 -SHRA FEW012 BKN030 BKN050 17/15     Q1012 RMK 1CU012 5CU030 7SC050 A2988=,- RA SH
20180128_090000.002,0,RJKA,,,,0,20180128090000,-1,-1,-1,-1,320,-1,3,-1,-1,-1,-1,,5000,0,2,3,FEW 5   BKN 20   BKN 45,1,16,1,15,1012,RJKA 280900Z 32003KT 5000 -SHRA BR FEW005 BKN020 BKN045 16/15     Q1012 RMK 1ST005 5CU020 7SC045 A2989=,- RA SH; BR
20180128_100000.002,0,RJKA,,,,0,20180128100000,-1,-1,-1,-1,300,-1,3,-1,-1,-1,-1,,5000,0,2,3,FEW 7   BKN 12   BKN 35,1,16,1,15,1012,RJKA 281000Z 30003KT 5000 -SHRA BR FEW007 BKN012 BKN035 16/15     Q1012 RMK 1ST007 5CU012 7CU035 A2991=,- RA SH; BR
20180128_213000.001,0,RJKA,,,,0,20180128210000,-1,-1,-1,-1,350,-1,14,-1,-1,-1,-1,,9999,0,1,3,FEW 20   BKN 25   BKN 35,1,14,1,9,1014,RJKA 282130Z 35014KT 9999 -SHRA FEW020 BKN025 BKN035 14/09     Q1014 RMK 1CU020 6CU025 7CU035 A2995=,- RA SH
20180128_220000.003,0,RJKA,,,,0,20180128220000,-1,-1,-1,-1,350,-1,13,-1,-1,-1,-1,,9999,0,1,3,FEW 20   BKN 30   BKN 40,1,13,1,10,1014,RJKA 282200Z 35013KT 9999 -SHRA FEW020 BKN030 BKN040 13/10     Q1014 RMK 1CU020 5CU030 6CU040 A2997=,- RA SH
20180128_230000.002,0,RJKA,,,,0,20180128230000,-1,-1,-1,-1,340,-1,12,-1,-1,-1,-1,,9999,0,0,3,FEW 20   BKN 30   BKN 35,1,14,1,9,1015,RJKA 282300Z 34012KT 9999 FEW020 BKN030 BKN035 14/09 Q1015 RMK     1CU020 5CU030 7CU035 A2998=,
20180129_000000.003,0,RJKA,,,,0,20180129000000,-1,-1,-1,-1,350,-1,13,-1,-1,-1,-1,,9999,0,1,3,FEW 20   SCT 25   BKN 30,1,14,1,9,1016,RJKA 290000Z 35013KT 9999 -SHRA FEW020 SCT025 BKN030 14/09     Q1016 RMK 1CU020 4CU025 7CU030 A3002=,- RA SH
20180129_010000.002,0,RJKA,,,,0,20180129010000,-1,-1,-1,-1,350,-1,15,-1,-1,-1,-1,,9999,0,1,3,FEW 20   BKN 25   BKN 30,1,13,1,9,1016,RJKA 290100Z 35015KT 9999 -SHRA FEW020 BKN025 BKN030 13/09     Q1016 RMK 1CU020 5CU025 7CU030 A3003=,- RA SH
20180129_020000.002,0,RJKA,,,,0,20180129020000,-1,-1,-1,-1,360,-1,18,-1,-1,-1,-1,,9999,0,1,3,FEW 25   BKN 30   BKN 35,1,13,1,9,1016,RJKA 290200Z 36018KT 9999 -SHRA FEW025 BKN030 BKN035 13/09     Q1016 RMK 1CU025 5CU030 7CU035 A3002=,- RA SH
20180129_030000.002,0,RJKA,,,,0,20180129030000,-1,-1,-1,-1,350,-1,13,-1,-1,310,10,,9999,0,1,3,FEW 25   BKN 30   BKN 35,1,13,1,9,1016,RJKA 290300Z 35013KT 310V010 9999 -SHRA FEW025 BKN030 BKN035     13/09 Q1016 RMK 1CU025 5CU030 7CU035 A3002=,- RA SH
20180129_040000.002,0,RJKA,,,,0,20180129040000,-1,-1,-1,-1,350,-1,13,-1,-1,-1,-1,,9999,0,1,3,FEW 20   SCT 30   BKN 35,1,13,1,9,1015,RJKA 290400Z 35013KT 9999 -SHRA FEW020 SCT030 BKN035 13/09     Q1015 RMK 1CU020 4CU030 7CU035 A2999=,- RA SH
20180129_050000.002,0,RJKA,,,,0,20180129050000,-1,-1,-1,-1,340,-1,9,-1,-1,-1,-1,,9999,0,1,3,FEW 20   BKN 25   BKN 35,1,12,1,10,1015,RJKA 290500Z 34009KT 9999 -SHRA FEW020 BKN025 BKN035 12/10     Q1015 RMK 1CU020 5CU025 7CU035 A2998=,- RA SH
20180129_060000.002,0,RJKA,,,,0,20180129060000,-1,-1,-1,-1,340,-1,9,-1,-1,300,10,,9999,0,1,3,FEW 25   BKN 30   BKN 40,1,13,1,9,1015,RJKA 290600Z 34009KT 300V010 9999 -SHRA FEW025 BKN030 BKN040     13/09 Q1015 RMK 1CU025 5CU030 7CU040 A2999=,- RA SH
20180129_070000.002,0,RJKA,,,,0,20180129070000,-1,-1,-1,-1,340,-1,11,-1,-1,300,360,,9999,0,1,3,FEW 30   SCT 35   BKN 45,1,13,1,7,1016,RJKA 290700Z 34011KT 300V360 9999 -SHRA FEW030 SCT035 BKN045     13/07 Q1016 RMK 1CU030 4CU035 7SC045 A3001=,- RA SH
20180129_080000.002,0,RJKA,,,,0,20180129080000,-1,-1,-1,-1,350,-1,13,-1,-1,-1,-1,,9999,0,0,3,FEW 30   BKN 35   BKN 50,1,13,1,7,1016,RJKA 290800Z 35013KT 9999 FEW030 BKN035 BKN050 13/07 Q1016 RMK     1CU030 5CU035 7SC050 A3003=,
20180129_090000.002,0,RJKA,,,,0,20180129090000,-1,-1,-1,-1,350,-1,12,-1,-1,-1,-1,,9999,0,0,3,FEW 30   BKN 40   BKN 60,1,13,1,6,1017,RJKA 290900Z 35012KT 9999 FEW030 BKN040 BKN060 13/06 Q1017 RMK     1CU030 6CU040 7SC060 A3005=,
20180129_100000.002,0,RJKA,,,,0,20180129100000,-1,-1,-1,-1,350,-1,11,-1,-1,-1,-1,,9999,0,0,3,FEW 30   BKN 40   BKN 60,1,13,1,7,1018,RJKA 291000Z 35011KT 9999 FEW030 BKN040 BKN060 13/07 Q1018 RMK     1CU030 5CU040 7SC060 A3007=,
20180129_213000.001,0,RJKA,,,,0,20180129210000,-1,-1,-1,-1,330,-1,10,-1,-1,-1,-1,,9999,0,0,3,FEW 40   BKN 50   BKN 170,1,12,1,4,1021,RJKA 292130Z 33010KT 9999 FEW040 BKN050 BKN170 12/04 Q1021 RMK     1CU040 5SC050 7AC170 A3015=,
20180129_220000.002,0,RJKA,,,,0,20180129220000,-1,-1,-1,-1,330,-1,8,-1,18,300,10,,9999,0,0,3,FEW 40   BKN 50   BKN 170,1,12,1,3,1021,RJKA 292200Z 33008G18KT 300V010 9999 FEW040 BKN050 BKN170     12/03 Q1021 RMK 1CU040 6SC050 7AC170 A3016=,
20180129_230000.002,0,RJKA,,,,0,20180129230000,-1,-1,-1,-1,330,-1,8,-1,-1,300,10,,9999,0,0,3,FEW 35   SCT 40   BKN 50,1,13,1,4,1021,RJKA 292300Z 33008KT 300V010 9999 FEW035 SCT040 BKN050 13/04     Q1021 RMK 1CU035 3CU040 7SC050 A3017=,
20180130_000000.002,0,RJKA,,,,0,20180130000000,-1,-1,-1,-1,340,-1,7,-1,-1,-1,-1,,9999,0,0,3,FEW 35   SCT 45   BKN 50,1,13,1,4,1022,RJKA 300000Z 34007KT 9999 FEW035 SCT045 BKN050 13/04 Q1022 RMK     1CU035 4CU045 7SC050 A3019=,
20180130_010000.002,0,RJKA,,,,0,20180130010000,-1,-1,-1,-1,340,-1,7,-1,-1,310,20,,9999,0,0,3,FEW 35   SCT 45   BKN 50,1,13,1,3,1022,RJKA 300100Z 34007KT 310V020 9999 FEW035 SCT045 BKN050 13/03     Q1022 RMK 1CU035 3CU045 7SC050 A3020=,
20180130_020000.002,0,RJKA,,,,0,20180130020000,-1,-1,-1,-1,340,-1,7,-1,-1,280,20,,9999,0,0,3,FEW 35   BKN 45   BKN 50,1,13,1,5,1022,RJKA 300200Z 34007KT 280V020 9999 FEW035 BKN045 BKN050 13/05     Q1022 RMK 1CU035 5CU045 7SC050 A3020=,
20180130_030000.002,0,RJKA,,,,0,20180130030000,-1,-1,-1,-1,340,-1,8,-1,-1,300,10,,9999,0,0,2,FEW 40   BKN 50,1,14,1,4,1021,RJKA 300300Z 34008KT 300V010 9999 FEW040 BKN050 14/04 Q1021     RMK 1CU040 7SC050 A3016=,
20180130_040000.002,0,RJKA,,,,0,20180130040000,-1,-1,-1,-1,330,-1,7,-1,-1,300,20,,9999,0,0,3,FEW 40   SCT 45   BKN 50,1,14,1,5,1020,RJKA 300400Z 33007KT 300V020 9999 FEW040 SCT045 BKN050 14/05     Q1020 RMK 1CU040 4CU045 7SC050 A3013=,
20180130_050000.002,0,RJKA,,,,0,20180130050000,-1,-1,-1,-1,350,-1,7,-1,-1,-1,-1,,9999,0,0,3,FEW 25   SCT 30   BKN 40,1,13,1,7,1019,RJKA 300500Z 35007KT 9999 FEW025 SCT030 BKN040 13/07 Q1019 RMK     1CU025 3CU030 7CU040 A3011=,
20180130_060000.003,0,RJKA,,,,0,20180130060000,-1,-1,-1,-1,330,-1,7,-1,-1,300,20,,9999,0,0,3,FEW 30   BKN 40   BKN 60,1,13,1,6,1020,RJKA 300600Z 33007KT 300V020 9999 FEW030 BKN040 BKN060 13/06     Q1020 RMK 1CU030 5CU040 7SC060 A3014=,
20180130_070000.002,0,RJKA,,,,0,20180130070000,-1,-1,-1,-1,360,-1,11,-1,-1,-1,-1,,9999,0,1,3,FEW 25   BKN 30   BKN 50,1,12,1,8,1021,RJKA 300700Z 36011KT 9999 -SHRA FEW025 BKN030 BKN050 12/08     Q1021 RMK 1CU025 5CU030 7SC050 A3015=,- RA SH
20180130_080000.002,0,RJKA,,,,0,20180130080000,-1,-1,-1,-1,340,-1,9,-1,-1,-1,-1,,9999,0,0,2,FEW 35   BKN 60,1,13,1,5,1021,RJKA 300800Z 34009KT 9999 FEW035 BKN060 13/05 Q1021 RMK 1CU035     7SC060 A3017=,
20180130_090000.002,0,RJKA,,,,0,20180130090000,-1,-1,-1,-1,360,-1,15,-1,-1,-1,-1,,9999,0,0,3,FEW 25   SCT 35   BKN 60,1,12,1,7,1021,RJKA 300900Z 36015KT 9999 FEW025 SCT035 BKN060 12/07 Q1021 RMK     1CU025 3CU035 6SC060 A3017=,
20180130_100000.002,0,RJKA,,,,0,20180130100000,-1,-1,-1,-1,360,-1,12,-1,-1,-1,-1,,9999,0,0,3,FEW 25   BKN 35   BKN 60,1,12,1,7,1022,RJKA 301000Z 36012KT 9999 FEW025 BKN035 BKN060 12/07 Q1022 RMK     1CU025 5CU035 7SC060 A3020=,
20180130_213000.001,0,RJKA,,,,0,20180130210000,-1,-1,-1,-1,10,-1,8,-1,-1,-1,-1,,9999,0,0,2,FEW 35   SCT 40,1,13,1,6,1023,RJKA 302130Z 01008KT 9999 FEW035 SCT040 13/06 Q1023 RMK 1CU035     4CU040 A3022=,
20180130_220000.002,0,RJKA,,,,0,20180130220000,-1,-1,-1,-1,30,-1,9,-1,-1,-1,-1,,9999,0,0,2,FEW 30   BKN 35,1,13,1,7,1023,RJKA 302200Z 03009KT 9999 FEW030 BKN035 13/07 Q1023 RMK 1CU030     6CU035 A3023=,
20180130_230000.002,0,RJKA,,,,0,20180130230000,-1,-1,-1,-1,40,-1,8,-1,-1,-1,-1,,9999,0,0,3,FEW 30   BKN 40   BKN 50,1,13,1,6,1024,RJKA 302300Z 04008KT 9999 FEW030 BKN040 BKN050 13/06 Q1024 RMK     1CU030 5CU040 6SC050 A3024=,
20180131_000000.002,0,RJKA,,,,0,20180131000000,-1,-1,-1,-1,50,-1,10,-1,-1,20,80,,9999,0,0,3,FEW 35   SCT 40   BKN 150,1,14,1,6,1024,RJKA 310000Z 05010KT 020V080 9999 FEW035 SCT040 BKN150 14/06     Q1024 RMK 1CU035 3CU040 6AC150 A3024=,
20180131_010000.002,0,RJKA,,,,0,20180131010000,-1,-1,-1,-1,50,-1,9,-1,-1,-1,-1,,9999,0,0,3,FEW 35   SCT 40   BKN 110,1,14,1,7,1024,RJKA 310100Z 05009KT 9999 FEW035 SCT040 BKN110 14/07 Q1024 RMK     1CU035 3CU040 7AC110 A3024=,
20180131_020000.002,0,RJKA,,,,0,20180131020000,-1,-1,-1,-1,40,-1,6,-1,-1,-1,-1,,9999,0,0,3,FEW 35   SCT 40   BKN 100,1,14,1,6,1023,RJKA 310200Z 04006KT 9999 FEW035 SCT040 BKN100 14/06 Q1023 RMK     1CU035 3CU040 7AC100 A3023=,
20180131_030000.002,0,RJKA,,,,0,20180131030000,-1,-1,-1,-1,70,-1,7,-1,-1,40,110,,9999,0,0,3,FEW 35   SCT 40   BKN 140,1,15,1,7,1022,RJKA 310300Z 07007KT 040V110 9999 FEW035 SCT040 BKN140 15/07     Q1022 RMK 1CU035 3CU040 7AC140 A3020=,
20180131_040000.002,0,RJKA,,,,0,20180131040000,-1,-1,-1,-1,70,-1,5,-1,-1,-1,-1,,9999,0,0,3,FEW 30   SCT 40   BKN 120,1,15,1,8,1022,RJKA 310400Z 07005KT 9999 FEW030 SCT040 BKN120 15/08 Q1022 RMK     1CU030 3CU040 7AC120 A3018=,
20180131_050000.002,0,RJKA,,,,0,20180131050000,-1,-1,-1,-1,60,-1,7,-1,-1,-1,-1,,9999,0,1,3,FEW 25   SCT 35   BKN 90,1,15,1,9,1021,RJKA 310500Z 06007KT 9999 -SHRA FEW025 SCT035 BKN090 15/09     Q1021 RMK 1CU025 3CU035 7AC090 A3015=,- RA SH
20180131_060000.002,0,RJKA,,,,0,20180131060000,-1,-1,-1,-1,70,-1,7,-1,-1,-1,-1,,9999,0,0,3,FEW 25   BKN 80   BKN 100,1,15,1,8,1020,RJKA 310600Z 07007KT 9999 FEW025 BKN080 BKN100 15/08 Q1020 RMK     1CU025 5AC080 7AC100 A3013=,
20180131_070000.003,0,RJKA,,,,0,20180131070000,-1,-1,-1,-1,70,-1,7,-1,-1,-1,-1,,9999,0,0,3,FEW 25   SCT 30   BKN 120,1,15,1,9,1019,RJKA 310700Z 07007KT 9999 FEW025 SCT030 BKN120 15/09 Q1019 RMK     1CU025 3CU030 7AC120 A3010=,
20180131_080000.003,0,RJKA,,,,0,20180131080000,-1,-1,-1,-1,70,-1,10,-1,-1,-1,-1,,9999,0,0,3,FEW 25   BKN 30   BKN 50,1,15,1,10,1019,RJKA 310800Z 07010KT 9999 FEW025 BKN030 BKN050 15/10 Q1019 RMK     1CU025 6CU030 7SC050 A3010=,
20180131_090000.002,0,RJKA,,,,0,20180131090000,-1,-1,-1,-1,70,-1,11,-1,-1,-1,-1,,9999,0,0,3,FEW 25   BKN 30   BKN 50,1,15,1,10,1019,RJKA 310900Z 07011KT 9999 FEW025 BKN030 BKN050 15/10 Q1019 RMK     1CU025 6CU030 7SC050 A3010=,
20180131_100000.002,0,RJKA,,,,0,20180131100000,-1,-1,-1,-1,80,-1,12,-1,-1,-1,-1,,9999,0,1,3,FEW 25   BKN 30   BKN 35,1,15,1,11,1019,RJKA 311000Z 08012KT 9999 -SHRA FEW025 BKN030 BKN035 15/11     Q1019 RMK 1CU025 6CU030 7CU035 A3009=,- RA SH
20180131_213000.001,0,RJKA,,,,0,20180131210000,-1,-1,-1,-1,360,-1,19,-1,30,-1,-1,,1500,1,2,3,FEW 7   BKN 9   BKN 13,1,15,1,14,1014,RJKA 312130Z 36019G30KT 1500 R03/P1800N SHRA BR FEW007 BKN009     BKN013 15/14 Q1014 RMK 1ST007 6ST009 7CU013 A2996=,RA SH; BR
20180131_220000.002,0,RJKA,,,,0,20180131220000,-1,-1,-1,-1,360,-1,22,-1,32,-1,-1,,3500,0,2,3,FEW 5   BKN 9   BKN 15,1,14,1,14,1015,RJKA 312200Z 36022G32KT 3500 -SHRA BR FEW005 BKN009 BKN015     14/14 Q1015 RMK 1ST005 6ST009 7CU015 A2997=,- RA SH; BR
20180131_230000.002,0,RJKA,,,,0,20180131230000,-1,-1,-1,-1,360,-1,20,-1,30,-1,-1,,9999,0,1,3,FEW 8   BKN 10   BKN 16,1,14,1,13,1015,RJKA 312300Z 36020G30KT 9999 -SHRA FEW008 BKN010 BKN016 14/13     Q1015 RMK 1ST008 6CU010 7CU016 A2999=,- RA SH
20180201_000000.003,0,RJKA,,,,0,20180201000000,-1,-1,-1,-1,10,-1,19,-1,-1,-1,-1,,6000,0,1,3,FEW 8   BKN 13   BKN 17,1,14,1,13,1016,RJKA 010000Z 01019KT 6000 -SHRA FEW008 BKN013 BKN017 14/13     Q1016 RMK 1ST008 6CU013 7CU017 A3000=,- RA SH
20180201_010000.002,0,RJKA,,,,0,20180201010000,-1,-1,-1,-1,10,-1,19,-1,-1,-1,-1,,9999,0,1,3,FEW 10   BKN 15   BKN 25,1,14,1,12,1017,RJKA 010100Z 01019KT 9999 -SHRA FEW010 BKN015 BKN025 14/12     Q1017 RMK 1CU010 6CU015 7CU025 A3004=,- RA SH
20180201_020000.002,0,RJKA,,,,0,20180201020000,-1,-1,-1,-1,10,-1,20,-1,-1,-1,-1,,9999,0,1,3,FEW 10   BKN 15   BKN 20,1,14,1,12,1016,RJKA 010200Z 01020KT 9999 -SHRA FEW010 BKN015 BKN020 14/12     Q1016 RMK 1CU010 6CU015 7CU020 A3002=,- RA SH
20180201_030000.003,0,RJKA,,,,0,20180201030000,-1,-1,-1,-1,10,-1,16,-1,-1,-1,-1,,9999,0,1,3,FEW 13   BKN 20   BKN 25,1,14,1,12,1016,RJKA 010300Z 01016KT 9999 -SHRA FEW013 BKN020 BKN025 14/12     Q1016 RMK 1CU013 6CU020 7CU025 A3002=,- RA SH
20180201_040000.003,0,RJKA,,,,0,20180201040000,-1,-1,-1,-1,10,-1,19,-1,-1,-1,-1,,9999,0,1,3,FEW 13   BKN 20   BKN 25,1,14,1,12,1015,RJKA 010400Z 01019KT 9999 -SHRA FEW013 BKN020 BKN025 14/12     Q1015 RMK 1CU013 6CU020 7CU025 A2999=,- RA SH
20180201_050000.002,0,RJKA,,,,0,20180201050000,-1,-1,-1,-1,360,-1,17,-1,-1,-1,-1,,9999,0,1,3,FEW 15   SCT 20   BKN 25,1,14,1,11,1016,RJKA 010500Z 36017KT 9999 -SHRA FEW015 SCT020 BKN025 14/11     Q1016 RMK 1CU015 4CU020 7CU025 A3001=,- RA SH
20180201_060000.002,0,RJKA,,,,0,20180201060000,-1,-1,-1,-1,360,-1,13,-1,-1,-1,-1,,9999,0,1,3,FEW 15   BKN 25   BKN 35,1,14,1,11,1016,RJKA 010600Z 36013KT 9999 -SHRA FEW015 BKN025 BKN035 14/11     Q1016 RMK 1CU015 5CU025 7CU035 A3002=,- RA SH
20180201_070000.002,0,RJKA,,,,0,20180201070000,-1,-1,-1,-1,350,-1,13,-1,-1,-1,-1,,9999,0,1,3,FEW 15   BKN 20   BKN 30,1,14,1,12,1017,RJKA 010700Z 35013KT 9999 -SHRA FEW015 BKN020 BKN030 14/12     Q1017 RMK 1CU015 5CU020 7CU030 A3004=,- RA SH
20180201_080000.002,0,RJKA,,,,0,20180201080000,-1,-1,-1,-1,350,-1,17,-1,27,-1,-1,,9999,0,1,3,FEW 15   BKN 20   BKN 30,1,14,1,11,1018,RJKA 010800Z 35017G27KT 9999 -SHRA FEW015 BKN020 BKN030 14/11     Q1018 RMK 1CU015 5CU020 7CU030 A3006=,- RA SH
20180201_090000.002,0,RJKA,,,,0,20180201090000,-1,-1,-1,-1,360,-1,18,-1,-1,-1,-1,,9999,0,0,3,FEW 20   BKN 25   BKN 30,1,14,1,10,1018,RJKA 010900Z 36018KT 9999 FEW020 BKN025 BKN030 14/10 Q1018 RMK     1CU020 5CU025 7CU030 A3008=,
20180201_100000.002,0,RJKA,,,,0,20180201100000,-1,-1,-1,-1,360,-1,17,-1,-1,-1,-1,,9999,0,0,3,FEW 25   BKN 30   BKN 50,1,14,1,8,1019,RJKA 011000Z 36017KT 9999 FEW025 BKN030 BKN050 14/08 Q1019 RMK     1CU025 5CU030 7SC050 A3011=,
20180201_213000.001,0,RJKA,,,,0,20180201210000,-1,-1,-1,-1,350,-1,7,-1,-1,-1,-1,,9999,0,0,2,FEW 45   BKN 50,1,13,1,4,1021,RJKA 012130Z 35007KT 9999 FEW045 BKN050 13/04 Q1021 RMK 1CU045     7SC050 A3016=,
20180201_220000.002,0,RJKA,,,,0,20180201220000,-1,-1,-1,-1,350,-1,5,-1,-1,-1,-1,,9999,0,0,2,FEW 45   BKN 50,1,13,1,5,1021,RJKA 012200Z 35005KT 9999 FEW045 BKN050 13/05 Q1021 RMK 1CU045     7SC050 A3017=,
20180201_230000.003,0,RJKA,,,,0,20180201230000,-1,-1,-1,-1,340,-1,9,-1,-1,-1,-1,,9999,0,0,3,FEW 35   SCT 45   BKN 50,1,13,1,6,1022,RJKA 012300Z 34009KT 9999 FEW035 SCT045 BKN050 13/06 Q1022 RMK     1CU035 4CU045 7SC050 A3018=,
20180202_000000.002,0,RJKA,,,,0,20180202000000,-1,-1,-1,-1,340,-1,9,-1,-1,-1,-1,,9999,0,0,2,FEW 40   BKN 60,1,14,1,6,1022,RJKA 020000Z 34009KT 9999 FEW040 BKN060 14/06 Q1022 RMK 1CU040     7SC060 A3021=,
20180202_010000.002,0,RJKA,,,,0,20180202010000,-1,-1,-1,-1,340,-1,10,-1,-1,-1,-1,,9999,0,0,2,FEW 35   BKN 60,1,14,1,5,1022,RJKA 020100Z 34010KT 9999 FEW035 BKN060 14/05 Q1022 RMK 1CU035     6SC060 A3020=,
20180202_020000.002,0,RJKA,,,,0,20180202020000,-1,-1,-1,-1,350,-1,11,-1,-1,-1,-1,,9999,0,0,2,FEW 40   BKN 70,1,15,1,5,1022,RJKA 020200Z 35011KT 9999 FEW040 BKN070 15/05 Q1022 RMK 1CU040     6AC070 A3018=,
20180202_030000.002,0,RJKA,,,,0,20180202030000,-1,-1,-1,-1,360,-1,14,-1,-1,-1,-1,,9999,0,0,1,FEW 40,1,16,1,6,1021,RJKA 020300Z 36014KT 9999 FEW040 16/06 Q1021 RMK 1CU040 A3016=,
20180202_040000.002,0,RJKA,,,,0,20180202040000,-1,-1,-1,-1,360,-1,11,-1,-1,-1,-1,,9999,0,0,2,FEW 40   BKN 70,1,16,1,6,1020,RJKA 020400Z 36011KT 9999 FEW040 BKN070 16/06 Q1020 RMK 1CU040     6AC070 A3013=,
20180202_050000.001,0,RJKA,,,,0,20180202050000,-1,-1,-1,-1,350,-1,15,-1,-1,-1,-1,,9999,0,0,2,FEW 40   SCT 70,1,16,1,6,1019,RJKA 020500Z 35015KT 9999 FEW040 SCT070 16/06 Q1019 RMK 1CU040     3AC070 A3011=,
20180202_060000.002,0,RJKA,,,,0,20180202060000,-1,-1,-1,-1,330,-1,14,-1,-1,-1,-1,,9999,0,0,2,FEW 40   SCT 70,1,15,1,6,1020,RJKA 020600Z 33014KT 9999 FEW040 SCT070 15/06 Q1020 RMK 1CU040     3AC070 A3013=,
20180202_070000.002,0,RJKA,,,,0,20180202070000,-1,-1,-1,-1,10,-1,17,-1,-1,-1,-1,,9999,0,0,1,FEW 30,1,15,1,8,1019,RJKA 020700Z 01017KT 9999 FEW030 15/08 Q1019 RMK 1CU030 A3010=,
20180202_080000.002,0,RJKA,,,,0,20180202080000,-1,-1,-1,-1,10,-1,12,-1,-1,-1,-1,,9999,0,0,3,FEW 30   SCT 40   BKN 70,1,14,1,7,1020,RJKA 020800Z 01012KT 9999 FEW030 SCT040 BKN070 14/07 Q1020 RMK     1CU030 3CU040 7AC070 A3013=,
20180202_090000.002,0,RJKA,,,,0,20180202090000,-1,-1,-1,-1,10,-1,11,-1,-1,-1,-1,,9999,0,0,3,FEW 30   SCT 45   BKN 70,1,14,1,8,1020,RJKA 020900Z 01011KT 9999 FEW030 SCT045 BKN070 14/08 Q1020 RMK     1CU030 3SC045 7AC070 A3013=,
20180202_100000.003,0,RJKA,,,,0,20180202100000,-1,-1,-1,-1,360,-1,9,-1,-1,-1,-1,,9999,0,1,3,FEW 30   BKN 40   BKN 50,1,13,1,10,1020,RJKA 021000Z 36009KT 9999 -SHRA FEW030 BKN040 BKN050 13/10     Q1020 RMK 1CU030 5CU040 7SC050 A3015=,- RA SH
20180202_213000.001,0,RJKA,,,,0,20180202210000,-1,-1,-1,-1,340,-1,11,-1,-1,-1,-1,,9999,0,1,3,FEW 30   SCT 40   BKN 50,1,11,1,9,1021,RJKA 022130Z 34011KT 9999 -SHRA FEW030 SCT040 BKN050 11/09     Q1021 RMK 1CU030 4CU040 7SC050 A3016=,- RA SH
20180202_220000.002,0,RJKA,,,,0,20180202220000,-1,-1,-1,-1,340,-1,7,-1,-1,310,10,,9999,0,1,3,FEW 35   BKN 40   BKN 50,1,11,1,8,1021,RJKA 022200Z 34007KT 310V010 9999 -SHRA FEW035 BKN040 BKN050     11/08 Q1021 RMK 1CU035 5CU040 7SC050 A3016=,- RA SH
20180202_230000.003,0,RJKA,,,,0,20180202230000,-1,-1,-1,-1,340,-1,9,-1,-1,-1,-1,,9999,0,1,3,FEW 20   BKN 30   BKN 45,1,12,1,7,1021,RJKA 022300Z 34009KT 9999 -SHRA FEW020 BKN030 BKN045 12/07     Q1021 RMK 1CU020 5CU030 7SC045 A3016=,- RA SH
20180203_000000.002,0,RJKA,,,,0,20180203000000,-1,-1,-1,-1,340,-1,9,-1,-1,300,10,,9999,0,0,3,FEW 30   SCT 40   BKN 70,1,13,1,6,1021,RJKA 030000Z 34009KT 300V010 9999 FEW030 SCT040 BKN070 13/06     Q1021 RMK 1CU030 3CU040 7AC070 A3017=,
20180203_010000.003,0,RJKA,,,,0,20180203010000,-1,-1,-1,-1,350,-1,13,-1,-1,310,20,,9999,0,1,3,FEW 30   BKN 40   BKN 60,1,13,1,7,1021,RJKA 030100Z 35013KT 310V020 9999 -SHRA FEW030 BKN040 BKN060     13/07 Q1021 RMK 1CU030 5CU040 7SC060 A3017=,- RA SH
20180203_020000.002,0,RJKA,,,,0,20180203020000,-1,-1,-1,-1,340,-1,10,-1,-1,290,10,,9999,0,0,3,FEW 35   SCT 40   BKN 70,1,14,1,5,1021,RJKA 030200Z 34010KT 290V010 9999 FEW035 SCT040 BKN070 14/05     Q1021 RMK 1CU035 3CU040 7AC070 A3018=,
20180203_030000.002,0,RJKA,,,,0,20180203030000,-1,-1,-1,-1,330,-1,10,-1,-1,300,20,,9999,0,1,3,FEW 35   BKN 40   BKN 60,1,13,1,7,1021,RJKA 030300Z 33010KT 300V020 9999 -SHRA FEW035 BKN040 BKN060     13/07 Q1021 RMK 1CU035 5CU040 7SC060 A3016=,- RA SH
20180203_040000.002,0,RJKA,,,,0,20180203040000,-1,-1,-1,-1,340,-1,11,-1,-1,-1,-1,,9999,0,0,3,FEW 30   BKN 40   BKN 50,1,13,1,5,1020,RJKA 030400Z 34011KT 9999 FEW030 BKN040 BKN050 13/05 Q1020 RMK     1CU030 5CU040 7SC050 A3014=,
20180203_050000.002,0,RJKA,,,,0,20180203050000,-1,-1,-1,-1,350,-1,10,-1,-1,310,10,,9999,0,0,3,FEW 35   BKN 50   BKN 70,1,13,1,5,1020,RJKA 030500Z 35010KT 310V010 9999 FEW035 BKN050 BKN070 13/05     Q1020 RMK 1CU035 5SC050 6AC070 A3013=,
20180203_060000.002,0,RJKA,,,,0,20180203060000,-1,-1,-1,-1,350,-1,11,-1,-1,-1,-1,,9999,0,0,2,FEW 40   BKN 50,1,13,1,5,1020,RJKA 030600Z 35011KT 9999 FEW040 BKN050 13/05 Q1020 RMK 1CU040     6SC050 A3012=,
20180203_070000.003,0,RJKA,,,,0,20180203070000,-1,-1,-1,-1,340,-1,8,-1,-1,310,10,,9999,0,0,3,FEW 40   SCT 45   BKN 70,1,13,1,4,1020,RJKA 030700Z 34008KT 310V010 9999 FEW040 SCT045 BKN070 13/04     Q1020 RMK 1CU040 4SC045 6AC070 A3012=,
20180203_080000.002,0,RJKA,,,,0,20180203080000,-1,-1,-1,-1,340,-1,9,-1,-1,310,10,,9999,0,1,3,FEW 35   SCT 40   BKN 50,1,12,1,6,1020,RJKA 030800Z 34009KT 310V010 9999 -SHRA FEW035 SCT040 BKN050     12/06 Q1020 RMK 1CU035 4CU040 7SC050 A3013=,- RA SH
20180203_090000.002,0,RJKA,,,,0,20180203090000,-1,-1,-1,-1,350,-1,9,-1,-1,310,10,,9999,0,0,2,FEW 35   SCT 45,1,12,1,6,1020,RJKA 030900Z 35009KT 310V010 9999 FEW035 SCT045 12/06 Q1020     RMK 1CU035 4SC045 A3012=,
20180203_100000.002,0,RJKA,,,,0,20180203100000,-1,-1,-1,-1,340,-1,9,-1,-1,-1,-1,,9999,0,0,3,FEW 30   BKN 40   BKN 50,1,12,1,6,1020,RJKA 031000Z 34009KT 9999 FEW030 BKN040 BKN050 12/06 Q1020 RMK     1CU030 5CU040 7SC050 A3013=,
20180203_213000.001,0,RJKA,,,,0,20180203210000,-1,-1,-1,-1,350,-1,11,-1,-1,-1,-1,,9999,0,0,3,FEW 20   SCT 30   BKN 40,1,9,1,5,1021,RJKA 032130Z 35011KT 9999 FEW020 SCT030 BKN040 09/05 Q1021 RMK     1CU020 4CU030 7CU040 A3017=,
20180203_220000.002,0,RJKA,,,,0,20180203220000,-1,-1,-1,-1,340,-1,10,-1,-1,300,10,,9999,0,0,3,FEW 30   SCT 50   BKN 170,1,9,1,4,1022,RJKA 032200Z 34010KT 300V010 9999 FEW030 SCT050 BKN170 09/04     Q1022 RMK 1CU030 4SC050 7AC170 A3018=,
20180203_230000.002,0,RJKA,,,,0,20180203230000,-1,-1,-1,-1,350,-1,10,-1,-1,-1,-1,,9999,0,1,3,FEW 20   BKN 40   BKN 170,1,9,1,5,1022,RJKA 032300Z 35010KT 9999 -SHRA FEW020 BKN040 BKN170 09/05     Q1022 RMK 1CU020 5CU040 7AC170 A3019=,- RA SH
20180204_000000.002,0,RJKA,,,,0,20180204000000,-1,-1,-1,-1,340,-1,9,-1,-1,310,10,,9999,0,0,2,FEW 35   SCT 170,1,10,1,4,1022,RJKA 040000Z 34009KT 310V010 9999 FEW035 SCT170 10/04 Q1022     RMK 1CU035 3AC170 A3018=,
20180204_010000.002,0,RJKA,,,,0,20180204010000,-1,-1,-1,-1,340,-1,13,-1,-1,300,10,,9999,0,1,3,FEW 13   SCT 25   BKN 40,1,9,1,6,1022,RJKA 040100Z 34013KT 300V010 9999 -SHRA FEW013 SCT025 BKN040     09/06 Q1022 RMK 1CU013 4CU025 6CU040 A3021=,- RA SH
20180204_020000.002,0,RJKA,,,,0,20180204020000,-1,-1,-1,-1,340,-1,10,-1,-1,310,10,,9999,0,0,3,FEW 25   SCT 40   BKN 110,1,11,1,6,1022,RJKA 040200Z 34010KT 310V010 9999 FEW025 SCT040 BKN110 11/06     Q1022 RMK 1CU025 4CU040 7AC110 A3020=,
20180204_030000.002,0,RJKA,,,,0,20180204030000,-1,-1,-1,-1,360,-1,7,-1,-1,300,20,,9999,0,0,3,FEW 25   SCT 30   BKN 50,1,11,1,7,1021,RJKA 040300Z 36007KT 300V020 9999 FEW025 SCT030 BKN050 11/07     Q1021 RMK 1CU025 4CU030 6SC050 A3017=,
20180204_040000.002,0,RJKA,,,,0,20180204040000,-1,-1,-1,-1,340,-1,13,-1,-1,-1,-1,,9999,0,0,3,FEW 20   SCT 35   BKN 130,1,12,1,6,1021,RJKA 040400Z 34013KT 9999 FEW020 SCT035 BKN130 12/06 Q1021 RMK     1CU020 3CU035 6AC130 A3016=,
20180204_050000.002,0,RJKA,,,,0,20180204050000,-1,-1,-1,-1,340,-1,11,-1,-1,300,10,,9999,0,0,3,FEW 15   SCT 35   BKN 60,1,12,1,5,1021,RJKA 040500Z 34011KT 300V010 9999 FEW015 SCT035 BKN060 12/05     Q1021 RMK 1CU015 3CU035 5SC060 A3015=,
20180204_060000.002,0,RJKA,,,,0,20180204060000,-1,-1,-1,-1,350,-1,10,-1,-1,300,20,,9999,0,1,3,FEW 25   SCT 35   BKN 50,1,11,1,5,1020,RJKA 040600Z 35010KT 300V020 9999 -SHRA FEW025 SCT035 BKN050     11/05 Q1020 RMK 1CU025 3CU035 5SC050 A3015=,- RA SH
20180204_070000.002,0,RJKA,,,,0,20180204070000,-1,-1,-1,-1,340,-1,10,-1,-1,-1,-1,,9999,0,1,3,FEW 15   SCT 35   BKN 50,1,10,1,5,1021,RJKA 040700Z 34010KT 9999 -SHRA FEW015 SCT035 BKN050 10/05     Q1021 RMK 1CU015 3CU035 6SC050 A3016=,- RA SH
20180204_080000.002,0,RJKA,,,,0,20180204080000,-1,-1,-1,-1,340,-1,12,-1,-1,290,10,,9999,0,0,2,FEW 20   SCT 50,1,9,1,5,1021,RJKA 040800Z 34012KT 290V010 9999 FEW020 SCT050 09/05 Q1021     RMK 1CU020 3SC050 A3017=,
20180204_090000.002,0,RJKA,,,,0,20180204090000,-1,-1,-1,-1,340,-1,10,-1,-1,-1,-1,,9999,0,0,2,FEW 20   SCT 40,1,10,1,4,1021,RJKA 040900Z 34010KT 9999 FEW020 SCT040 10/04 Q1021 RMK 1CU020     3CU040 A3018=,
20180204_100000.002,0,RJKA,,,,0,20180204100000,-1,-1,-1,-1,330,-1,11,-1,-1,290,10,,9999,0,0,3,FEW 20   SCT 35   BKN 50,1,9,1,5,1022,RJKA 041000Z 33011KT 290V010 9999 FEW020 SCT035 BKN050 09/05     Q1022 RMK 1CU020 3CU035 6SC050 A3019=,
20180204_213000.001,0,RJKA,,,,0,20180204210000,-1,-1,-1,-1,310,-1,6,-1,-1,270,340,,9999,0,1,3,FEW 20   SCT 35   BKN 45,1,8,1,4,1021,RJKA 042130Z 31006KT 270V340 9999 -SHRA FEW020 SCT035 BKN045     08/04 Q1021 RMK 1CU020 4CU035 6SC045 A3017=,- RA SH
20180204_220000.002,0,RJKA,,,,0,20180204220000,-1,-1,-1,-1,250,-1,9,-1,19,230,310,,9999,0,1,3,FEW 20   BKN 25   BKN 30,1,8,1,6,1021,RJKA 042200Z 25009G19KT 230V310 9999 -SHRA FEW020 BKN025     BKN030 08/06 Q1021 RMK 1CU020 6CU025 7CU030 A3017=,- RA SH
20180204_230000.002,0,RJKA,,,,0,20180204230000,-1,-1,-1,-1,350,-1,11,-1,23,-1,-1,,9999,0,1,3,FEW 20   BKN 25   BKN 45,1,9,1,5,1022,RJKA 042300Z 35011G23KT 9999 -SHRA FEW020 BKN025 BKN045 09/05     Q1022 RMK 1CU020 5CU025 6SC045 A3018=,- RA SH
20180205_000000.003,0,RJKA,,,,0,20180205000000,-1,-1,-1,-1,360,-1,14,-1,-1,-1,-1,,9999,0,1,3,FEW 15   BKN 30   BKN 40,1,8,1,6,1022,RJKA 050000Z 36014KT 9999 -SHRA FEW015 BKN030 BKN040 08/06     Q1022 RMK 1CU015 5CU030 6CU040 A3020=,- RA SH
20180205_010000.002,0,RJKA,,,,0,20180205010000,-1,-1,-1,-1,360,-1,7,-1,-1,300,50,,9999,0,1,3,FEW 12   BKN 30   BKN 40,1,9,1,6,1022,RJKA 050100Z 36007KT 300V050 9999 -SHRA FEW012 BKN030 BKN040     09/06 Q1022 RMK 1CU012 5CU030 7CU040 A3019=,- RA SH
20180205_020000.002,0,RJKA,,,,0,20180205020000,-1,-1,-1,-1,330,-1,10,-1,-1,290,360,,9999,0,0,3,FEW 20   SCT 45   BKN 70,1,11,1,6,1022,RJKA 050200Z 33010KT 290V360 9999 FEW020 SCT045 BKN070 11/06     Q1022 RMK 1CU020 4SC045 5AC070 A3018=,
