20180101_000000.000,0,RJNA,,,,0,20180101000000,-1,-1,-1,-1,340,-1,5,-1,-1,-1,-1,,9999,0,0,2,FEW 15   SCT 50,1,4,1,3,1017,RJNA 010000Z 34005KT 9999 FEW015 SCT050 04/03 Q1017 RMK 1CU015     3SC050 A3005=,
20180101_000000.002,0,RJNA,,,,0,20180101000000,-1,-1,-1,-1,340,-1,5,-1,-1,-1,-1,,9999,0,0,2,FEW 15   SCT 50,1,4,1,3,1017,RJNA 010000Z 34005KT 9999 FEW015 SCT050 04/03 Q1017 RMK 1CU015     3SC050 A3005=,
20180101_010000.000,0,RJNA,,,,0,20180101010000,-1,-1,-1,-1,300,-1,10,-1,-1,-1,-1,,9999,0,0,1,FEW 25,1,7,1,3,1018,RJNA 010100Z 30010KT 9999 FEW025 07/03 Q1018 RMK 1CU025 A3006=,
20180101_010000.002,0,RJNA,,,,0,20180101010000,-1,-1,-1,-1,300,-1,10,-1,-1,-1,-1,,9999,0,0,1,FEW 25,1,7,1,3,1018,RJNA 010100Z 30010KT 9999 FEW025 07/03 Q1018 RMK 1CU025 A3006=,
20180101_020000.000,0,RJNA,,,,0,20180101020000,-1,-1,-1,-1,290,-1,10,-1,-1,-1,-1,,9999,0,0,1,FEW 20,1,8,1,3,1017,RJNA 010200Z 29010KT 9999 FEW020 08/03 Q1017 RMK 1CU020 A3005=,
20180101_020000.002,0,RJNA,,,,0,20180101020000,-1,-1,-1,-1,290,-1,10,-1,-1,-1,-1,,9999,0,0,1,FEW 20,1,8,1,3,1017,RJNA 010200Z 29010KT 9999 FEW020 08/03 Q1017 RMK 1CU020 A3005=,
20180101_030000.000,0,RJNA,,,,0,20180101030000,-1,-1,-1,-1,290,-1,9,-1,-1,250,310,,9999,0,0,1,FEW 20,1,8,1,2,1016,RJNA 010300Z 29009KT 250V310 9999 FEW020 08/02 Q1016 RMK 1CU020     A3003=,
20180101_030000.002,0,RJNA,,,,0,20180101030000,-1,-1,-1,-1,290,-1,9,-1,-1,250,310,,9999,0,0,1,FEW 20,1,8,1,2,1016,RJNA 010300Z 29009KT 250V310 9999 FEW020 08/02 Q1016 RMK     1CU020 A3003=,
20180101_040000.000,0,RJNA,,,,0,20180101040000,-1,-1,-1,-1,280,-1,9,-1,-1,240,300,,9999,0,0,1,FEW 15,1,8,1,1,1016,RJNA 010400Z 28009KT 240V300 9999 FEW015 08/01 Q1016 RMK 1CU015     A3001=,
20180101_040000.002,0,RJNA,,,,0,20180101040000,-1,-1,-1,-1,280,-1,9,-1,-1,240,300,,9999,0,0,1,FEW 15,1,8,1,1,1016,RJNA 010400Z 28009KT 240V300 9999 FEW015 08/01 Q1016 RMK     1CU015 A3001=,
20180101_050000.000,0,RJNA,,,,0,20180101050000,-1,-1,-1,-1,300,-1,14,-1,-1,-1,-1,,9999,0,0,2,FEW 15   SCT 50,1,9,1,2,1016,RJNA 010500Z 30014KT 9999 FEW015 SCT050 09/02 Q1016 RMK 1CU015     4SC050 A3001 MAX WIND 22KT=,
20180101_050000.002,0,RJNA,,,,0,20180101050000,-1,-1,-1,-1,300,-1,14,-1,-1,-1,-1,,9999,0,0,2,FEW 15   SCT 50,1,9,1,2,1016,RJNA 010500Z 30014KT 9999 FEW015 SCT050 09/02 Q1016 RMK 1CU015     4SC050 A3001 MAX WIND 22KT=,
20180101_060000.000,0,RJNA,,,,0,20180101060000,-1,-1,-1,-1,290,-1,11,-1,-1,260,320,,9999,0,0,2,FEW 20   SCT 50,1,8,1,1,1016,RJNA 010600Z 29011KT 260V320 9999 FEW020 SCT050 08/01 Q1016 RMK     1CU020 3SC050 A3002=,
20180101_060000.002,0,RJNA,,,,0,20180101060000,-1,-1,-1,-1,290,-1,11,-1,-1,260,320,,9999,0,0,2,FEW 20   SCT 50,1,8,1,1,1016,RJNA 010600Z 29011KT 260V320 9999 FEW020 SCT050 08/01 Q1016     RMK 1CU020 3SC050 A3002=,
20180101_070000.000,0,RJNA,,,,0,20180101070000,-1,-1,-1,-1,300,-1,11,-1,-1,-1,-1,,9999,0,0,2,FEW 15   SCT 50,1,7,1,2,1017,RJNA 010700Z 30011KT 9999 FEW015 SCT050 07/02 Q1017 RMK 1CU015     4SC050 A3004=,
20180101_070000.002,0,RJNA,,,,0,20180101070000,-1,-1,-1,-1,300,-1,11,-1,-1,-1,-1,,9999,0,0,2,FEW 15   SCT 50,1,7,1,2,1017,RJNA 010700Z 30011KT 9999 FEW015 SCT050 07/02 Q1017 RMK 1CU015     4SC050 A3004=,
20180101_080000.000,0,RJNA,,,,0,20180101080000,-1,-1,-1,-1,290,-1,11,-1,-1,-1,-1,,9999,0,0,2,FEW 20   SCT 50,1,6,1,1,1017,RJNA 010800Z 29011KT 9999 FEW020 SCT050 06/01 Q1017 RMK 1CU020     3SC050 A3005=,
20180101_080000.002,0,RJNA,,,,0,20180101080000,-1,-1,-1,-1,290,-1,11,-1,-1,-1,-1,,9999,0,0,2,FEW 20   SCT 50,1,6,1,1,1017,RJNA 010800Z 29011KT 9999 FEW020 SCT050 06/01 Q1017 RMK 1CU020     3SC050 A3005=,
20180101_090000.000,0,RJNA,,,,0,20180101090000,-1,-1,-1,-1,290,-1,6,-1,-1,-1,-1,,9999,0,0,2,FEW 20   SCT 50,1,5,1,2,1018,RJNA 010900Z 29006KT 9999 FEW020 SCT050 05/02 Q1018 RMK 1CU020     3SC050 A3007=,
20180101_090000.002,0,RJNA,,,,0,20180101090000,-1,-1,-1,-1,290,-1,6,-1,-1,-1,-1,,9999,0,0,2,FEW 20   SCT 50,1,5,1,2,1018,RJNA 010900Z 29006KT 9999 FEW020 SCT050 05/02 Q1018 RMK 1CU020     3SC050 A3007=,
20180101_100000.000,0,RJNA,,,,0,20180101100000,-1,-1,-1,-1,260,-1,4,-1,-1,200,300,,9999,0,0,1,FEW 20,1,4,1,2,1018,RJNA 011000Z 26004KT 200V300 9999 FEW020 04/02 Q1018 RMK 1CU020     A3007=,
20180101_100000.002,0,RJNA,,,,0,20180101100000,-1,-1,-1,-1,260,-1,4,-1,-1,200,300,,9999,0,0,1,FEW 20,1,4,1,2,1018,RJNA 011000Z 26004KT 200V300 9999 FEW020 04/02 Q1018 RMK     1CU020 A3007=,
20180101_110000.000,0,RJNA,,,,0,20180101110000,-1,-1,-1,-1,280,-1,4,-1,-1,-1,-1,,9999,0,0,1,FEW 20,1,4,1,1,1018,RJNA 011100Z 28004KT 9999 FEW020 04/01 Q1018 RMK 1CU020 A3008=,
20180101_110000.002,0,RJNA,,,,0,20180101110000,-1,-1,-1,-1,280,-1,4,-1,-1,-1,-1,,9999,0,0,1,FEW 20,1,4,1,1,1018,RJNA 011100Z 28004KT 9999 FEW020 04/01 Q1018 RMK 1CU020 A3008=,
20180101_120000.000,0,RJNA,,,,0,20180101120000,-1,-1,-1,-1,320,-1,6,-1,-1,-1,-1,,9999,0,0,1,FEW 20,1,4,1,2,1018,RJNA 011200Z 32006KT 9999 FEW020 04/02 Q1018 RMK 1CU020 A3008=,
20180101_120000.002,0,RJNA,,,,0,20180101120000,-1,-1,-1,-1,320,-1,6,-1,-1,-1,-1,,9999,0,0,1,FEW 20,1,4,1,2,1018,RJNA 011200Z 32006KT 9999 FEW020 04/02 Q1018 RMK 1CU020 A3008=,
20180101_130000.000,0,RJNA,,,,0,20180101130000,-1,-1,-1,-1,999,-1,2,-1,-1,-1,-1,,9999,0,0,2,FEW 20   SCT 70,1,2,1,1,1019,RJNA 011300Z VRB02KT 9999 FEW020 SCT070 02/01 Q1019 RMK 1CU020     3AC070 A3009=,
20180101_130000.002,0,RJNA,,,,0,20180101130000,-1,-1,-1,-1,999,-1,2,-1,-1,-1,-1,,9999,0,0,2,FEW 20   SCT 70,1,2,1,1,1019,RJNA 011300Z VRB02KT 9999 FEW020 SCT070 02/01 Q1019 RMK 1CU020     3AC070 A3009=,
20180101_140000.000,0,RJNA,,,,0,20180101140000,-1,-1,-1,-1,310,-1,6,-1,-1,270,330,,9999,0,0,2,FEW 20   BKN 70,1,4,1,1,1019,RJNA 011400Z 31006KT 270V330 9999 FEW020 BKN070 04/01 Q1019 RMK     1CU020 5AC070 A3009=,
20180101_140000.002,0,RJNA,,,,0,20180101140000,-1,-1,-1,-1,310,-1,6,-1,-1,270,330,,9999,0,0,2,FEW 20   BKN 70,1,4,1,1,1019,RJNA 011400Z 31006KT 270V330 9999 FEW020 BKN070 04/01 Q1019     RMK 1CU020 5AC070 A3009=,
20180101_150000.000,0,RJNA,,,,0,20180101150000,-1,-1,-1,-1,300,-1,4,-1,-1,-1,-1,,9999,0,0,1,FEW 20,1,4,1,1,1019,RJNA 011500Z 30004KT 9999 FEW020 04/01 Q1019 RMK 1CU020 A3009=,
20180101_150000.002,0,RJNA,,,,0,20180101150000,-1,-1,-1,-1,300,-1,4,-1,-1,-1,-1,,9999,0,0,1,FEW 20,1,4,1,1,1019,RJNA 011500Z 30004KT 9999 FEW020 04/01 Q1019 RMK 1CU020 A3009=,
20180101_160000.000,0,RJNA,,,,0,20180101160000,-1,-1,-1,-1,280,-1,3,-1,-1,-1,-1,,9999,0,0,2,FEW 20   SCT 50,1,4,1,1,1019,RJNA 011600Z 28003KT 9999 FEW020 SCT050 04/01 Q1019 RMK 1CU020     3SC050 A3010=,
20180101_160000.002,0,RJNA,,,,0,20180101160000,-1,-1,-1,-1,280,-1,3,-1,-1,-1,-1,,9999,0,0,2,FEW 20   SCT 50,1,4,1,1,1019,RJNA 011600Z 28003KT 9999 FEW020 SCT050 04/01 Q1019 RMK 1CU020     3SC050 A3010=,
20180101_170000.000,0,RJNA,,,,0,20180101170000,-1,-1,-1,-1,250,-1,3,-1,-1,220,290,,9999,0,0,1,FEW 20,1,3,1,1,1019,RJNA 011700Z 25003KT 220V290 9999 FEW020 03/01 Q1019 RMK 1CU020     A3011=,
20180101_170000.002,0,RJNA,,,,0,20180101170000,-1,-1,-1,-1,250,-1,3,-1,-1,220,290,,9999,0,0,1,FEW 20,1,3,1,1,1019,RJNA 011700Z 25003KT 220V290 9999 FEW020 03/01 Q1019 RMK     1CU020 A3011=,
20180101_180000.000,0,RJNA,,,,0,20180101180000,-1,-1,-1,-1,999,-1,2,-1,-1,-1,-1,,9999,0,0,1,FEW 20,1,2,-1,0,1019,RJNA 011800Z VRB02KT 9999 FEW020 02/M00 Q1019 RMK 1CU020 A3010=,
20180101_180000.003,0,RJNA,,,,0,20180101180000,-1,-1,-1,-1,999,-1,2,-1,-1,-1,-1,,9999,0,0,1,FEW 20,1,2,-1,0,1019,RJNA 011800Z VRB02KT 9999 FEW020 02/M00 Q1019 RMK 1CU020     A3010=,
20180101_190000.000,0,RJNA,,,,0,20180101190000,-1,-1,-1,-1,310,-1,3,-1,-1,-1,-1,,9999,0,0,2,FEW 20   SCT 70,1,3,1,0,1018,RJNA 011900Z 31003KT 9999 FEW020 SCT070 03/00 Q1018 RMK 1CU020     3AC070 A3009=,
20180101_190000.003,0,RJNA,,,,0,20180101190000,-1,-1,-1,-1,310,-1,3,-1,-1,-1,-1,,9999,0,0,2,FEW 20   SCT 70,1,3,1,0,1018,RJNA 011900Z 31003KT 9999 FEW020 SCT070 03/00 Q1018 RMK 1CU020     3AC070 A3009=,
20180101_200000.000,0,RJNA,,,,0,20180101200000,-1,-1,-1,-1,999,-1,2,-1,-1,-1,-1,,9999,0,0,1,FEW 20,1,1,-1,0,1019,RJNA 012000Z VRB02KT 9999 FEW020 01/M00 Q1019 RMK 1CU020 A3010=,
20180101_200000.003,0,RJNA,,,,0,20180101200000,-1,-1,-1,-1,999,-1,2,-1,-1,-1,-1,,9999,0,0,1,FEW 20,1,1,-1,0,1019,RJNA 012000Z VRB02KT 9999 FEW020 01/M00 Q1019 RMK 1CU020     A3010=,
20180101_210000.000,0,RJNA,,,,0,20180101210000,-1,-1,-1,-1,330,-1,3,-1,-1,-1,-1,,9999,0,0,1,FEW 20,1,1,-1,1,1019,RJNA 012100Z 33003KT 9999 FEW020 01/M01 Q1019 RMK 1CU020 A3012     09/M00=,
20180101_210000.002,0,RJNA,,,,0,20180101210000,-1,-1,-1,-1,330,-1,3,-1,-1,-1,-1,,9999,0,0,1,FEW 20,1,1,-1,1,1019,RJNA 012100Z 33003KT 9999 FEW020 01/M01 Q1019 RMK 1CU020 A3012     09/M00=,
20180101_220000.000,0,RJNA,,,,0,20180101220000,-1,-1,-1,-1,360,-1,5,-1,-1,-1,-1,,9999,0,0,3,FEW 20   SCT 45   BKN 60,1,1,-1,0,1020,RJNA 012200Z 36005KT 9999 FEW020 SCT045 BKN060 01/M00 Q1020 RMK     1CU020 3SC045 5SC060 A3015=,
20180101_220000.002,0,RJNA,,,,0,20180101220000,-1,-1,-1,-1,360,-1,5,-1,-1,-1,-1,,9999,0,0,3,FEW 20   SCT 45   BKN 60,1,1,-1,0,1020,RJNA 012200Z 36005KT 9999 FEW020 SCT045 BKN060 01/M00 Q1020     RMK 1CU020 3SC045 5SC060 A3015=,
20180101_230000.000,0,RJNA,,,,0,20180101230000,-1,-1,-1,-1,350,-1,7,-1,-1,-1,-1,,9999,0,0,2,FEW 20   SCT 50,1,3,1,1,1020,RJNA 012300Z 35007KT 9999 FEW020 SCT050 03/01 Q1020 RMK 1CU020     4SC050 A3015=,
20180101_230000.002,0,RJNA,,,,0,20180101230000,-1,-1,-1,-1,350,-1,7,-1,-1,-1,-1,,9999,0,0,2,FEW 20   SCT 50,1,3,1,1,1020,RJNA 012300Z 35007KT 9999 FEW020 SCT050 03/01 Q1020 RMK 1CU020     4SC050 A3015=,
20180102_000000.000,0,RJNA,,,,0,20180102000000,-1,-1,-1,-1,310,-1,8,-1,-1,-1,-1,,9999,0,0,2,FEW 20   SCT 50,1,4,1,1,1021,RJNA 020000Z 31008KT 9999 FEW020 SCT050 04/01 Q1021 RMK 1CU020     3SC050 A3016=,
20180102_000000.003,0,RJNA,,,,0,20180102000000,-1,-1,-1,-1,310,-1,8,-1,-1,-1,-1,,9999,0,0,2,FEW 20   SCT 50,1,4,1,1,1021,RJNA 020000Z 31008KT 9999 FEW020 SCT050 04/01 Q1021 RMK 1CU020     3SC050 A3016=,
20180102_010000.000,0,RJNA,,,,0,20180102010000,-1,-1,-1,-1,300,-1,7,-1,-1,270,330,,9999,0,0,2,FEW 20   SCT 50,1,5,1,1,1021,RJNA 020100Z 30007KT 270V330 9999 FEW020 SCT050 05/01 Q1021 RMK     1CU020 3SC050 A3018=,
20180102_010000.003,0,RJNA,,,,0,20180102010000,-1,-1,-1,-1,300,-1,7,-1,-1,270,330,,9999,0,0,2,FEW 20   SCT 50,1,5,1,1,1021,RJNA 020100Z 30007KT 270V330 9999 FEW020 SCT050 05/01 Q1021     RMK 1CU020 3SC050 A3018=,
20180102_020000.000,0,RJNA,,,,0,20180102020000,-1,-1,-1,-1,330,-1,7,-1,-1,280,10,,9999,0,0,2,FEW 15   SCT 50,1,7,1,1,1021,RJNA 020200Z 33007KT 280V010 9999 FEW015 SCT050 07/01 Q1021 RMK     1CU015 3SC050 A3016=,
20180102_020000.002,0,RJNA,,,,0,20180102020000,-1,-1,-1,-1,330,-1,7,-1,-1,280,10,,9999,0,0,2,FEW 15   SCT 50,1,7,1,1,1021,RJNA 020200Z 33007KT 280V010 9999 FEW015 SCT050 07/01 Q1021     RMK 1CU015 3SC050 A3016=,
20180102_030000.000,0,RJNA,,,,0,20180102030000,-1,-1,-1,-1,330,-1,11,-1,-1,290,360,,9999,0,0,2,FEW 15   SCT 40,1,9,-1,1,1019,RJNA 020300Z 33011KT 290V360 9999 FEW015 SCT040 09/M01 Q1019     RMK 1CU015 3CU040 A3012=,
20180102_030000.002,0,RJNA,,,,0,20180102030000,-1,-1,-1,-1,330,-1,11,-1,-1,290,360,,9999,0,0,2,FEW 15   SCT 40,1,9,-1,1,1019,RJNA 020300Z 33011KT 290V360 9999 FEW015 SCT040 09/M01 Q1019     RMK 1CU015 3CU040 A3012=,
20180102_040000.000,0,RJNA,,,,0,20180102040000,-1,-1,-1,-1,290,-1,9,-1,-1,240,330,,9999,0,0,2,FEW 15   SCT 40,1,9,-1,0,1018,RJNA 020400Z 29009KT 240V330 9999 FEW015 SCT040 09/M00 Q1018     RMK 1CU015 3CU040 A3008=,
20180102_040000.002,0,RJNA,,,,0,20180102040000,-1,-1,-1,-1,290,-1,9,-1,-1,240,330,,9999,0,0,2,FEW 15   SCT 40,1,9,-1,0,1018,RJNA 020400Z 29009KT 240V330 9999 FEW015 SCT040 09/M00 Q1018     RMK 1CU015 3CU040 A3008=,
20180102_050000.000,0,RJNA,,,,0,20180102050000,-1,-1,-1,-1,280,-1,13,-1,-1,250,310,,9999,0,0,2,FEW 20   BKN 50,1,7,1,1,1018,RJNA 020500Z 28013KT 250V310 9999 FEW020 BKN050 07/01 Q1018 RMK     1CU020 6SC050 A3008=,
20180102_050000.002,0,RJNA,,,,0,20180102050000,-1,-1,-1,-1,280,-1,13,-1,-1,250,310,,9999,0,0,2,FEW 20   BKN 50,1,7,1,1,1018,RJNA 020500Z 28013KT 250V310 9999 FEW020 BKN050 07/01 Q1018     RMK 1CU020 6SC050 A3008=,
20180102_060000.000,0,RJNA,,,,0,20180102060000,-1,-1,-1,-1,280,-1,11,-1,-1,250,310,,9999,0,0,2,FEW 30   BKN 50,1,7,1,1,1018,RJNA 020600Z 28011KT 250V310 9999 FEW030 BKN050 07/01 Q1018 RMK     1CU030 7SC050 A3009=,
20180102_060000.002,0,RJNA,,,,0,20180102060000,-1,-1,-1,-1,280,-1,11,-1,-1,250,310,,9999,0,0,2,FEW 30   BKN 50,1,7,1,1,1018,RJNA 020600Z 28011KT 250V310 9999 FEW030 BKN050 07/01 Q1018     RMK 1CU030 7SC050 A3009=,
20180102_070000.000,0,RJNA,,,,0,20180102070000,-1,-1,-1,-1,290,-1,13,-1,-1,-1,-1,,9999,0,0,3,FEW 30   SCT 40   BKN 50,1,7,1,2,1018,RJNA 020700Z 29013KT 9999 FEW030 SCT040 BKN050 07/02 Q1018 RMK     1CU030 3SC040 7SC050 A3009 MAX WIND 20KT=,
20180102_070000.002,0,RJNA,,,,0,20180102070000,-1,-1,-1,-1,290,-1,13,-1,-1,-1,-1,,9999,0,0,3,FEW 30   SCT 40   BKN 50,1,7,1,2,1018,RJNA 020700Z 29013KT 9999 FEW030 SCT040 BKN050 07/02 Q1018 RMK     1CU030 3SC040 7SC050 A3009 MAX WIND 20KT=,
20180102_080000.000,0,RJNA,,,,0,20180102080000,-1,-1,-1,-1,310,-1,7,-1,-1,290,350,,9999,0,0,2,FEW 25   BKN 50,1,6,1,2,1018,RJNA 020800Z 31007KT 290V350 9999 FEW025 BKN050 06/02 Q1018 RMK     1CU025 6SC050 A3008=,
20180102_080000.002,0,RJNA,,,,0,20180102080000,-1,-1,-1,-1,310,-1,7,-1,-1,290,350,,9999,0,0,2,FEW 25   BKN 50,1,6,1,2,1018,RJNA 020800Z 31007KT 290V350 9999 FEW025 BKN050 06/02 Q1018     RMK 1CU025 6SC050 A3008=,
20180102_090000.000,0,RJNA,,,,0,20180102090000,-1,-1,-1,-1,300,-1,9,-1,-1,270,340,,9999,0,0,3,FEW 20   SCT 30   BKN 45,1,6,1,2,1018,RJNA 020900Z 30009KT 270V340 9999 FEW020 SCT030 BKN045 06/02     Q1018 RMK 1CU020 3CU030 5SC045 A3007=,
20180102_090000.002,0,RJNA,,,,0,20180102090000,-1,-1,-1,-1,300,-1,9,-1,-1,270,340,,9999,0,0,3,FEW 20   SCT 30   BKN 45,1,6,1,2,1018,RJNA 020900Z 30009KT 270V340 9999 FEW020 SCT030 BKN045 06/02     Q1018 RMK 1CU020 3CU030 5SC045 A3007=,
20180102_100000.000,0,RJNA,,,,0,20180102100000,-1,-1,-1,-1,300,-1,7,-1,-1,250,350,,9999,0,0,3,FEW 30   BKN 45   BKN 60,1,6,1,2,1018,RJNA 021000Z 30007KT 250V350 9999 FEW030 BKN045 BKN060 06/02     Q1018 RMK 2CU030 5SC045 6SC060 A3007=,
20180102_100000.002,0,RJNA,,,,0,20180102100000,-1,-1,-1,-1,300,-1,7,-1,-1,250,350,,9999,0,0,3,FEW 30   BKN 45   BKN 60,1,6,1,2,1018,RJNA 021000Z 30007KT 250V350 9999 FEW030 BKN045 BKN060 06/02     Q1018 RMK 2CU030 5SC045 6SC060 A3007=,
20180102_110000.000,0,RJNA,,,,0,20180102110000,-1,-1,-1,-1,320,-1,14,-1,-1,-1,-1,,9999,0,0,2,FEW 25   SCT 40,1,5,1,2,1017,RJNA 021100Z 32014KT 9999 FEW025 SCT040 05/02 Q1017 RMK 1CU025     3SC040 A3005=,
20180102_110000.002,0,RJNA,,,,0,20180102110000,-1,-1,-1,-1,320,-1,14,-1,-1,-1,-1,,9999,0,0,2,FEW 25   SCT 40,1,5,1,2,1017,RJNA 021100Z 32014KT 9999 FEW025 SCT040 05/02 Q1017 RMK 1CU025     3SC040 A3005=,
20180102_120000.000,0,RJNA,,,,0,20180102120000,-1,-1,-1,-1,290,-1,15,-1,25,270,330,,9999,0,0,3,FEW 20   SCT 30   BKN 45,1,5,1,2,1017,RJNA 021200Z 29015G25KT 270V330 9999 FEW020 SCT030 BKN045 05/02     Q1017 RMK 1CU020 3CU030 6SC045 A3006=,
20180102_120000.002,0,RJNA,,,,0,20180102120000,-1,-1,-1,-1,290,-1,15,-1,25,270,330,,9999,0,0,3,FEW 20   SCT 30   BKN 45,1,5,1,2,1017,RJNA 021200Z 29015G25KT 270V330 9999 FEW020 SCT030 BKN045     05/02 Q1017 RMK 1CU020 3CU030 6SC045 A3006=,
20180102_130000.000,0,RJNA,,,,0,20180102130000,-1,-1,-1,-1,310,-1,6,-1,-1,260,340,,9999,0,0,2,FEW 20   BKN 50,1,5,1,2,1016,RJNA 021300Z 31006KT 260V340 9999 FEW020 BKN050 05/02 Q1016 RMK     1CU020 5SC050 A3002=,
20180102_130000.003,0,RJNA,,,,0,20180102130000,-1,-1,-1,-1,310,-1,6,-1,-1,260,340,,9999,0,0,2,FEW 20   BKN 50,1,5,1,2,1016,RJNA 021300Z 31006KT 260V340 9999 FEW020 BKN050 05/02 Q1016     RMK 1CU020 5SC050 A3002=,
20180102_140000.000,0,RJNA,,,,0,20180102140000,-1,-1,-1,-1,20,-1,6,-1,-1,350,60,,9999,0,1,3,FEW 15   BKN 30   BKN 50,1,5,1,2,1016,RJNA 021400Z 02006KT 350V060 9999 -SHRA FEW015 BKN030 BKN050     05/02 Q1016 RMK 1CU015 5CU030 7SC050 A3001=,- RA SH
20180102_140000.003,0,RJNA,,,,0,20180102140000,-1,-1,-1,-1,20,-1,6,-1,-1,350,60,,9999,0,1,3,FEW 15   BKN 30   BKN 50,1,5,1,2,1016,RJNA 021400Z 02006KT 350V060 9999 -SHRA FEW015 BKN030 BKN050     05/02 Q1016 RMK 1CU015 5CU030 7SC050 A3001=,- RA SH
20180102_150000.000,0,RJNA,,,,0,20180102150000,-1,-1,-1,-1,320,-1,7,-1,-1,-1,-1,,9999,0,0,2,FEW 15   BKN 25,1,5,1,2,1016,RJNA 021500Z 32007KT 9999 FEW015 BKN025 05/02 Q1016 RMK 1CU015     7CU025 A3001=,
20180102_150000.002,0,RJNA,,,,0,20180102150000,-1,-1,-1,-1,320,-1,7,-1,-1,-1,-1,,9999,0,0,2,FEW 15   BKN 25,1,5,1,2,1016,RJNA 021500Z 32007KT 9999 FEW015 BKN025 05/02 Q1016 RMK 1CU015     7CU025 A3001=,
20180102_160000.000,0,RJNA,,,,0,20180102160000,-1,-1,-1,-1,320,-1,10,-1,-1,-1,-1,,9999,0,0,3,FEW 15   BKN 25   BKN 40,1,4,1,2,1015,RJNA 021600Z 32010KT 9999 FEW015 BKN025 BKN040 04/02 Q1015 RMK     1CU015 5CU025 7SC040 A2999=,
20180102_160000.002,0,RJNA,,,,0,20180102160000,-1,-1,-1,-1,320,-1,10,-1,-1,-1,-1,,9999,0,0,3,FEW 15   BKN 25   BKN 40,1,4,1,2,1015,RJNA 021600Z 32010KT 9999 FEW015 BKN025 BKN040 04/02 Q1015 RMK     1CU015 5CU025 7SC040 A2999=,
20180102_170000.000,0,RJNA,,,,0,20180102170000,-1,-1,-1,-1,310,-1,5,-1,-1,270,330,,9999,0,0,2,FEW 15   BKN 50,1,4,1,2,1016,RJNA 021700Z 31005KT 270V330 9999 FEW015 BKN050 04/02 Q1016 RMK     1CU015 7SC050 A3001=,
20180102_170000.002,0,RJNA,,,,0,20180102170000,-1,-1,-1,-1,310,-1,5,-1,-1,270,330,,9999,0,0,2,FEW 15   BKN 50,1,4,1,2,1016,RJNA 021700Z 31005KT 270V330 9999 FEW015 BKN050 04/02 Q1016     RMK 1CU015 7SC050 A3001=,
20180102_180000.000,0,RJNA,,,,0,20180102180000,-1,-1,-1,-1,320,-1,8,-1,-1,-1,-1,,9999,0,1,3,FEW 15   SCT 25   BKN 50,1,4,1,1,1016,RJNA 021800Z 32008KT 9999 -SHRA FEW015 SCT025 BKN050 04/01     Q1016 RMK 1CU015 3CU025 5SC050 A3001=,- RA SH
20180102_180000.003,0,RJNA,,,,0,20180102180000,-1,-1,-1,-1,320,-1,8,-1,-1,-1,-1,,9999,0,1,3,FEW 15   SCT 25   BKN 50,1,4,1,1,1016,RJNA 021800Z 32008KT 9999 -SHRA FEW015 SCT025 BKN050 04/01     Q1016 RMK 1CU015 3CU025 5SC050 A3001=,- RA SH
20180102_190000.000,0,RJNA,,,,0,20180102190000,-1,-1,-1,-1,330,-1,7,-1,-1,-1,-1,,9999,0,1,3,FEW 15   BKN 50   BKN 70,1,4,1,1,1015,RJNA 021900Z 33007KT 9999 -SHRA FEW015 BKN050 BKN070 04/01     Q1015 RMK 1CU015 5SC050 7AC070 A3000=,- RA SH
20180102_190000.002,0,RJNA,,,,0,20180102190000,-1,-1,-1,-1,330,-1,7,-1,-1,-1,-1,,9999,0,1,3,FEW 15   BKN 50   BKN 70,1,4,1,1,1015,RJNA 021900Z 33007KT 9999 -SHRA FEW015 BKN050 BKN070 04/01     Q1015 RMK 1CU015 5SC050 7AC070 A3000=,- RA SH
20180102_200000.000,0,RJNA,,,,0,20180102200000,-1,-1,-1,-1,330,-1,5,-1,-1,-1,-1,,9999,0,1,3,FEW 15   BKN 50   BKN 70,1,4,1,1,1016,RJNA 022000Z 33005KT 9999 -SHRA FEW015 BKN050 BKN070 04/01     Q1016 RMK 1CU015 6SC050 6AC070 A3001=,- RA SH
20180102_200000.003,0,RJNA,,,,0,20180102200000,-1,-1,-1,-1,330,-1,5,-1,-1,-1,-1,,9999,0,1,3,FEW 15   BKN 50   BKN 70,1,4,1,1,1016,RJNA 022000Z 33005KT 9999 -SHRA FEW015 BKN050 BKN070 04/01     Q1016 RMK 1CU015 6SC050 6AC070 A3001=,- RA SH
20180102_210000.000,0,RJNA,,,,0,20180102210000,-1,-1,-1,-1,350,-1,10,-1,-1,-1,-1,,9999,0,0,2,FEW 15   BKN 50,1,3,1,0,1016,RJNA 022100Z 35010KT 9999 FEW015 BKN050 03/00 Q1016 RMK 1CU015     5SC050 A3002 10/03 R001=,
20180102_210000.002,0,RJNA,,,,0,20180102210000,-1,-1,-1,-1,350,-1,10,-1,-1,-1,-1,,9999,0,0,2,FEW 15   BKN 50,1,3,1,0,1016,RJNA 022100Z 35010KT 9999 FEW015 BKN050 03/00 Q1016 RMK 1CU015     5SC050 A3002 10/03 R001=,
20180102_220000.000,0,RJNA,,,,0,20180102220000,-1,-1,-1,-1,330,-1,12,-1,-1,-1,-1,,9999,0,0,1,FEW 20,1,2,-1,1,1017,RJNA 022200Z 33012KT 9999 FEW020 02/M01 Q1017 RMK 1CU020 A3004=,
20180102_220000.002,0,RJNA,,,,0,20180102220000,-1,-1,-1,-1,330,-1,12,-1,-1,-1,-1,,9999,0,0,1,FEW 20,1,2,-1,1,1017,RJNA 022200Z 33012KT 9999 FEW020 02/M01 Q1017 RMK 1CU020     A3004=,
20180102_230000.000,0,RJNA,,,,0,20180102230000,-1,-1,-1,-1,330,-1,14,-1,-1,-1,-1,,9999,0,0,1,FEW 20,1,3,-1,1,1018,RJNA 022300Z 33014KT 9999 FEW020 03/M01 Q1018 RMK 1CU020 A3007=,
20180102_230000.002,0,RJNA,,,,0,20180102230000,-1,-1,-1,-1,330,-1,14,-1,-1,-1,-1,,9999,0,0,1,FEW 20,1,3,-1,1,1018,RJNA 022300Z 33014KT 9999 FEW020 03/M01 Q1018 RMK 1CU020     A3007=,
20180103_000000.000,0,RJNA,,,,0,20180103000000,-1,-1,-1,-1,330,-1,15,-1,-1,-1,-1,,9999,0,0,1,FEW 30,1,4,-1,1,1018,RJNA 030000Z 33015KT 9999 FEW030 04/M01 Q1018 RMK 1CU030 A3009     MAX WIND 22KT=,
20180103_000000.002,0,RJNA,,,,0,20180103000000,-1,-1,-1,-1,330,-1,15,-1,-1,-1,-1,,9999,0,0,1,FEW 30,1,4,-1,1,1018,RJNA 030000Z 33015KT 9999 FEW030 04/M01 Q1018 RMK 1CU030 A3009     MAX WIND 22KT=,
20180103_010000.000,0,RJNA,,,,0,20180103010000,-1,-1,-1,-1,330,-1,18,-1,-1,-1,-1,,9999,0,0,1,FEW 25,1,5,-1,1,1018,RJNA 030100Z 33018KT 9999 FEW025 05/M01 Q1018 RMK 2CU025 A3009     MAX WIND 24KT=,
20180103_010000.002,0,RJNA,,,,0,20180103010000,-1,-1,-1,-1,330,-1,18,-1,-1,-1,-1,,9999,0,0,1,FEW 25,1,5,-1,1,1018,RJNA 030100Z 33018KT 9999 FEW025 05/M01 Q1018 RMK 2CU025 A3009     MAX WIND 24KT=,
20180103_020000.000,0,RJNA,,,,0,20180103020000,-1,-1,-1,-1,330,-1,19,-1,-1,-1,-1,,9999,0,0,1,FEW 30,1,5,-1,4,1018,RJNA 030200Z 33019KT 9999 FEW030 05/M04 Q1018 RMK 2CU030 A3007     MAX WIND 25KT=,
20180103_020000.002,0,RJNA,,,,0,20180103020000,-1,-1,-1,-1,330,-1,19,-1,-1,-1,-1,,9999,0,0,1,FEW 30,1,5,-1,4,1018,RJNA 030200Z 33019KT 9999 FEW030 05/M04 Q1018 RMK 2CU030 A3007     MAX WIND 25KT=,
20180103_030000.000,0,RJNA,,,,0,20180103030000,-1,-1,-1,-1,320,-1,19,-1,-1,-1,-1,,9999,0,0,1,FEW 30,1,6,-1,4,1018,RJNA 030300Z 32019KT 9999 FEW030 06/M04 Q1018 RMK 1CU030 A3007     MAX WIND 25KT=,
20180103_030000.003,0,RJNA,,,,0,20180103030000,-1,-1,-1,-1,320,-1,19,-1,-1,-1,-1,,9999,0,0,1,FEW 30,1,6,-1,4,1018,RJNA 030300Z 32019KT 9999 FEW030 06/M04 Q1018 RMK 1CU030 A3007     MAX WIND 25KT=,
20180103_040000.000,0,RJNA,,,,0,20180103040000,-1,-1,-1,-1,320,-1,18,-1,28,-1,-1,,9999,0,0,1,FEW 30,1,6,-1,4,1017,RJNA 030400Z 32018G28KT 9999 FEW030 06/M04 Q1017 RMK 1CU030     A3006=,
20180103_040000.002,0,RJNA,,,,0,20180103040000,-1,-1,-1,-1,320,-1,18,-1,28,-1,-1,,9999,0,0,1,FEW 30,1,6,-1,4,1017,RJNA 030400Z 32018G28KT 9999 FEW030 06/M04 Q1017 RMK 1CU030     A3006=,
20180103_050000.000,0,RJNA,,,,0,20180103050000,-1,-1,-1,-1,310,-1,16,-1,-1,-1,-1,,9999,0,0,1,FEW 30,1,6,-1,4,1017,RJNA 030500Z 31016KT 9999 FEW030 06/M04 Q1017 RMK 1CU030 A3005     MAX WIND 24KT=,
20180103_050000.002,0,RJNA,,,,0,20180103050000,-1,-1,-1,-1,310,-1,16,-1,-1,-1,-1,,9999,0,0,1,FEW 30,1,6,-1,4,1017,RJNA 030500Z 31016KT 9999 FEW030 06/M04 Q1017 RMK 1CU030 A3005     MAX WIND 24KT=,
20180103_060000.000,0,RJNA,,,,0,20180103060000,-1,-1,-1,-1,330,-1,19,-1,-1,-1,-1,,9999,0,0,1,FEW 30,1,6,-1,5,1018,RJNA 030600Z 33019KT 9999 FEW030 06/M05 Q1018 RMK 1CU030 A3007     MAX WIND 25KT=,
20180103_060000.002,0,RJNA,,,,0,20180103060000,-1,-1,-1,-1,330,-1,19,-1,-1,-1,-1,,9999,0,0,1,FEW 30,1,6,-1,5,1018,RJNA 030600Z 33019KT 9999 FEW030 06/M05 Q1018 RMK 1CU030 A3007     MAX WIND 25KT=,
20180103_070000.000,0,RJNA,,,,0,20180103070000,-1,-1,-1,-1,330,-1,15,-1,-1,-1,-1,,9999,0,0,1,FEW 30,1,6,-1,4,1018,RJNA 030700Z 33015KT 9999 FEW030 06/M04 Q1018 RMK 1CU030 A3008     MAX WIND 22KT=,
20180103_070000.002,0,RJNA,,,,0,20180103070000,-1,-1,-1,-1,330,-1,15,-1,-1,-1,-1,,9999,0,0,1,FEW 30,1,6,-1,4,1018,RJNA 030700Z 33015KT 9999 FEW030 06/M04 Q1018 RMK 1CU030 A3008     MAX WIND 22KT=,
20180103_080000.000,0,RJNA,,,,0,20180103080000,-1,-1,-1,-1,310,-1,13,-1,-1,-1,-1,,9999,0,0,1,FEW 30,1,4,-1,3,1019,RJNA 030800Z 31013KT 9999 FEW030 04/M03 Q1019 RMK 1CU030 A3010=,
20180103_080000.002,0,RJNA,,,,0,20180103080000,-1,-1,-1,-1,310,-1,13,-1,-1,-1,-1,,9999,0,0,1,FEW 30,1,4,-1,3,1019,RJNA 030800Z 31013KT 9999 FEW030 04/M03 Q1019 RMK 1CU030     A3010=,
20180103_090000.000,0,RJNA,,,,0,20180103090000,-1,-1,-1,-1,310,-1,11,-1,-1,-1,-1,,9999,0,0,1,FEW 30,1,3,-1,2,1019,RJNA 030900Z 31011KT 9999 FEW030 03/M02 Q1019 RMK 1CU030 A3011=,
20180103_090000.002,0,RJNA,,,,0,20180103090000,-1,-1,-1,-1,310,-1,11,-1,-1,-1,-1,,9999,0,0,1,FEW 30,1,3,-1,2,1019,RJNA 030900Z 31011KT 9999 FEW030 03/M02 Q1019 RMK 1CU030     A3011=,
20180103_100000.000,0,RJNA,,,,0,20180103100000,-1,-1,-1,-1,290,-1,7,-1,-1,-1,-1,,9999,0,0,1,FEW 30,1,3,-1,2,1020,RJNA 031000Z 29007KT 9999 FEW030 03/M02 Q1020 RMK 1CU030 A3012=,
20180103_100000.002,0,RJNA,,,,0,20180103100000,-1,-1,-1,-1,290,-1,7,-1,-1,-1,-1,,9999,0,0,1,FEW 30,1,3,-1,2,1020,RJNA 031000Z 29007KT 9999 FEW030 03/M02 Q1020 RMK 1CU030     A3012=,
20180103_110000.000,0,RJNA,,,,0,20180103110000,-1,-1,-1,-1,270,-1,4,-1,-1,240,300,,9999,0,0,1,FEW 30,1,2,-1,2,1020,RJNA 031100Z 27004KT 240V300 9999 FEW030 02/M02 Q1020 RMK     1CU030 A3013=,
20180103_110000.002,0,RJNA,,,,0,20180103110000,-1,-1,-1,-1,270,-1,4,-1,-1,240,300,,9999,0,0,1,FEW 30,1,2,-1,2,1020,RJNA 031100Z 27004KT 240V300 9999 FEW030 02/M02 Q1020 RMK     1CU030 A3013=,
20180103_120000.000,0,RJNA,,,,0,20180103120000,-1,-1,-1,-1,300,-1,4,-1,-1,-1,-1,,9999,0,0,1,FEW 30,1,2,-1,2,1020,RJNA 031200Z 30004KT 9999 FEW030 02/M02 Q1020 RMK 1CU030 A3014=,
20180103_120000.002,0,RJNA,,,,0,20180103120000,-1,-1,-1,-1,300,-1,4,-1,-1,-1,-1,,9999,0,0,1,FEW 30,1,2,-1,2,1020,RJNA 031200Z 30004KT 9999 FEW030 02/M02 Q1020 RMK 1CU030     A3014=,
20180103_130000.000,0,RJNA,,,,0,20180103130000,-1,-1,-1,-1,330,-1,5,-1,-1,-1,-1,,9999,0,0,1,FEW 30,1,1,-1,2,1021,RJNA 031300Z 33005KT 9999 FEW030 01/M02 Q1021 RMK 1CU030 A3016=,
20180103_130000.003,0,RJNA,,,,0,20180103130000,-1,-1,-1,-1,330,-1,5,-1,-1,-1,-1,,9999,0,0,1,FEW 30,1,1,-1,2,1021,RJNA 031300Z 33005KT 9999 FEW030 01/M02 Q1021 RMK 1CU030     A3016=,
20180103_140000.000,0,RJNA,,,,0,20180103140000,-1,-1,-1,-1,330,-1,6,-1,-1,-1,-1,,9999,0,0,1,FEW 30,1,0,-1,2,1021,RJNA 031400Z 33006KT 9999 FEW030 00/M02 Q1021 RMK 1CU030 A3016=,
20180103_140000.002,0,RJNA,,,,0,20180103140000,-1,-1,-1,-1,330,-1,6,-1,-1,-1,-1,,9999,0,0,1,FEW 30,1,0,-1,2,1021,RJNA 031400Z 33006KT 9999 FEW030 00/M02 Q1021 RMK 1CU030     A3016=,
20180103_150000.000,0,RJNA,,,,0,20180103150000,-1,-1,-1,-1,350,-1,3,-1,-1,310,10,,9999,0,0,1,FEW 50,1,0,-1,2,1020,RJNA 031500Z 35003KT 310V010 9999 FEW050 00/M02 Q1020 RMK     1SC050 A3014=,
20180103_150000.002,0,RJNA,,,,0,20180103150000,-1,-1,-1,-1,350,-1,3,-1,-1,310,10,,9999,0,0,1,FEW 50,1,0,-1,2,1020,RJNA 031500Z 35003KT 310V010 9999 FEW050 00/M02 Q1020 RMK     1SC050 A3014=,
20180103_160000.000,0,RJNA,,,,0,20180103160000,-1,-1,-1,-1,360,-1,4,-1,-1,-1,-1,,9999,0,0,1,FEW 50,-1,0,-1,3,1020,RJNA 031600Z 36004KT 9999 FEW050 M00/M03 Q1020 RMK 1SC050     A3014=,
20180103_160000.002,0,RJNA,,,,0,20180103160000,-1,-1,-1,-1,360,-1,4,-1,-1,-1,-1,,9999,0,0,1,FEW 50,-1,0,-1,3,1020,RJNA 031600Z 36004KT 9999 FEW050 M00/M03 Q1020 RMK 1SC050     A3014=,
20180103_170000.000,0,RJNA,,,,0,20180103170000,-1,-1,-1,-1,320,-1,4,-1,-1,-1,-1,,9999,0,0,1,FEW 50,1,1,-1,3,1020,RJNA 031700Z 32004KT 9999 FEW050 01/M03 Q1020 RMK 1SC050 A3014=,
20180103_170000.002,0,RJNA,,,,0,20180103170000,-1,-1,-1,-1,320,-1,4,-1,-1,-1,-1,,9999,0,0,1,FEW 50,1,1,-1,3,1020,RJNA 031700Z 32004KT 9999 FEW050 01/M03 Q1020 RMK 1SC050     A3014=,
20180103_180000.000,0,RJNA,,,,0,20180103180000,-1,-1,-1,-1,330,-1,4,-1,-1,-1,-1,,9999,0,0,1,FEW 50,-1,1,-1,4,1020,RJNA 031800Z 33004KT 9999 FEW050 M01/M04 Q1020 RMK 1SC050     A3015=,
20180103_180000.002,0,RJNA,,,,0,20180103180000,-1,-1,-1,-1,330,-1,4,-1,-1,-1,-1,,9999,0,0,1,FEW 50,-1,1,-1,4,1020,RJNA 031800Z 33004KT 9999 FEW050 M01/M04 Q1020 RMK 1SC050     A3015=,
20180103_190000.000,0,RJNA,,,,0,20180103190000,-1,-1,-1,-1,340,-1,5,-1,-1,-1,-1,,9999,0,0,1,FEW 50,-1,2,-1,4,1021,RJNA 031900Z 34005KT 9999 FEW050 M02/M04 Q1021 RMK 1SC050     A3015=,
20180103_190000.002,0,RJNA,,,,0,20180103190000,-1,-1,-1,-1,340,-1,5,-1,-1,-1,-1,,9999,0,0,1,FEW 50,-1,2,-1,4,1021,RJNA 031900Z 34005KT 9999 FEW050 M02/M04 Q1021 RMK 1SC050     A3015=,
20180103_200000.000,0,RJNA,,,,0,20180103200000,-1,-1,-1,-1,999,-1,1,-1,-1,-1,-1,,9999,0,0,1,FEW 50,-1,1,-1,4,1020,RJNA 032000Z VRB01KT 9999 FEW050 M01/M04 Q1020 RMK 1SC050     A3015=,
20180103_200000.002,0,RJNA,,,,0,20180103200000,-1,-1,-1,-1,999,-1,1,-1,-1,-1,-1,,9999,0,0,1,FEW 50,-1,1,-1,4,1020,RJNA 032000Z VRB01KT 9999 FEW050 M01/M04 Q1020 RMK 1SC050     A3015=,
20180103_210000.000,0,RJNA,,,,0,20180103210000,-1,-1,-1,-1,320,-1,4,-1,-1,-1,-1,,9999,0,0,1,FEW 50,-1,1,-1,4,1021,RJNA 032100Z 32004KT 9999 FEW050 M01/M04 Q1021 RMK 1SC050 A3017     35031KT/0210 07/M02=,
20180103_210000.003,0,RJNA,,,,0,20180103210000,-1,-1,-1,-1,320,-1,4,-1,-1,-1,-1,,9999,0,0,1,FEW 50,-1,1,-1,4,1021,RJNA 032100Z 32004KT 9999 FEW050 M01/M04 Q1021 RMK 1SC050     A3017 35031KT/0210 07/M02=,
20180103_220000.000,0,RJNA,,,,0,20180103220000,-1,-1,-1,-1,340,-1,7,-1,-1,-1,-1,,9999,0,0,1,FEW 25,-1,2,-1,4,1021,RJNA 032200Z 34007KT 9999 FEW025 M02/M04 Q1021 RMK 1CU025     A3017=,
20180103_220000.002,0,RJNA,,,,0,20180103220000,-1,-1,-1,-1,340,-1,7,-1,-1,-1,-1,,9999,0,0,1,FEW 25,-1,2,-1,4,1021,RJNA 032200Z 34007KT 9999 FEW025 M02/M04 Q1021 RMK 1CU025     A3017=,
20180103_230000.000,0,RJNA,,,,0,20180103230000,-1,-1,-1,-1,340,-1,7,-1,-1,-1,-1,,9999,0,0,1,FEW 25,-1,1,-1,3,1022,RJNA 032300Z 34007KT 9999 FEW025 M01/M03 Q1022 RMK 1CU025     A3019=,
20180103_230000.002,0,RJNA,,,,0,20180103230000,-1,-1,-1,-1,340,-1,7,-1,-1,-1,-1,,9999,0,0,1,FEW 25,-1,1,-1,3,1022,RJNA 032300Z 34007KT 9999 FEW025 M01/M03 Q1022 RMK 1CU025     A3019=,
20180104_000000.000,0,RJNA,,,,0,20180104000000,-1,-1,-1,-1,360,-1,4,-1,-1,-1,-1,,9999,0,0,1,FEW 25,1,2,-1,2,1022,RJNA 040000Z 36004KT 9999 FEW025 02/M02 Q1022 RMK 1CU025 A3019=,
20180104_000000.002,0,RJNA,,,,0,20180104000000,-1,-1,-1,-1,360,-1,4,-1,-1,-1,-1,,9999,0,0,1,FEW 25,1,2,-1,2,1022,RJNA 040000Z 36004KT 9999 FEW025 02/M02 Q1022 RMK 1CU025     A3019=,
20180104_010000.000,0,RJNA,,,,0,20180104010000,-1,-1,-1,-1,350,-1,4,-1,-1,310,30,,9999,0,0,1,FEW 25,1,4,-1,2,1021,RJNA 040100Z 35004KT 310V030 9999 FEW025 04/M02 Q1021 RMK     1CU025 A3017=,
20180104_010000.002,0,RJNA,,,,0,20180104010000,-1,-1,-1,-1,350,-1,4,-1,-1,310,30,,9999,0,0,1,FEW 25,1,4,-1,2,1021,RJNA 040100Z 35004KT 310V030 9999 FEW025 04/M02 Q1021 RMK     1CU025 A3017=,
20180104_020000.000,0,RJNA,,,,0,20180104020000,-1,-1,-1,-1,10,-1,4,-1,-1,320,70,,9999,0,0,1,FEW 30,1,6,-1,2,1020,RJNA 040200Z 01004KT 320V070 9999 FEW030 06/M02 Q1020 RMK     1CU030 A3014=,
20180104_020000.002,0,RJNA,,,,0,20180104020000,-1,-1,-1,-1,10,-1,4,-1,-1,320,70,,9999,0,0,1,FEW 30,1,6,-1,2,1020,RJNA 040200Z 01004KT 320V070 9999 FEW030 06/M02 Q1020 RMK     1CU030 A3014=,
20180104_030000.000,0,RJNA,,,,0,20180104030000,-1,-1,-1,-1,340,-1,7,-1,-1,300,20,,9999,0,0,1,FEW 30,1,7,-1,4,1019,RJNA 040300Z 34007KT 300V020 9999 FEW030 07/M04 Q1019 RMK     1CU030 A3012=,
20180104_030000.002,0,RJNA,,,,0,20180104030000,-1,-1,-1,-1,340,-1,7,-1,-1,300,20,,9999,0,0,1,FEW 30,1,7,-1,4,1019,RJNA 040300Z 34007KT 300V020 9999 FEW030 07/M04 Q1019 RMK     1CU030 A3012=,
20180104_040000.000,0,RJNA,,,,0,20180104040000,-1,-1,-1,-1,320,-1,16,-1,-1,-1,-1,,9999,0,0,1,FEW 30,1,8,-1,6,1018,RJNA 040400Z 32016KT 9999 FEW030 08/M06 Q1018 RMK 1CU030 A3009     MAX WIND 23KT=,
20180104_040000.002,0,RJNA,,,,0,20180104040000,-1,-1,-1,-1,320,-1,16,-1,-1,-1,-1,,9999,0,0,1,FEW 30,1,8,-1,6,1018,RJNA 040400Z 32016KT 9999 FEW030 08/M06 Q1018 RMK 1CU030 A3009     MAX WIND 23KT=,
20180104_050000.000,0,RJNA,,,,0,20180104050000,-1,-1,-1,-1,310,-1,13,-1,-1,-1,-1,,9999,0,0,1,FEW 30,1,9,-1,6,1018,RJNA 040500Z 31013KT 9999 FEW030 09/M06 Q1018 RMK 1CU030 A3007     MAX WIND 22KT=,
20180104_050000.002,0,RJNA,,,,0,20180104050000,-1,-1,-1,-1,310,-1,13,-1,-1,-1,-1,,9999,0,0,1,FEW 30,1,9,-1,6,1018,RJNA 040500Z 31013KT 9999 FEW030 09/M06 Q1018 RMK 1CU030 A3007     MAX WIND 22KT=,
20180104_060000.000,0,RJNA,,,,0,20180104060000,-1,-1,-1,-1,320,-1,17,-1,-1,290,360,,9999,0,0,1,FEW 30,1,8,-1,6,1018,RJNA 040600Z 32017KT 290V360 9999 FEW030 08/M06 Q1018 RMK     1CU030 A3008 MAX WIND 23KT=,
20180104_060000.003,0,RJNA,,,,0,20180104060000,-1,-1,-1,-1,320,-1,17,-1,-1,290,360,,9999,0,0,1,FEW 30,1,8,-1,6,1018,RJNA 040600Z 32017KT 290V360 9999 FEW030 08/M06 Q1018 RMK     1CU030 A3008 MAX WIND 23KT=,
20180104_070000.000,0,RJNA,,,,0,20180104070000,-1,-1,-1,-1,310,-1,14,-1,-1,-1,-1,,9999,0,0,1,FEW 30,1,7,-1,6,1018,RJNA 040700Z 31014KT 9999 FEW030 07/M06 Q1018 RMK 1CU030 A3008=,
20180104_070000.002,0,RJNA,,,,0,20180104070000,-1,-1,-1,-1,310,-1,14,-1,-1,-1,-1,,9999,0,0,1,FEW 30,1,7,-1,6,1018,RJNA 040700Z 31014KT 9999 FEW030 07/M06 Q1018 RMK 1CU030     A3008=,
20180104_080000.000,0,RJNA,,,,0,20180104080000,-1,-1,-1,-1,320,-1,14,-1,-1,-1,-1,,9999,0,0,1,FEW 30,1,6,-1,6,1019,RJNA 040800Z 32014KT 9999 FEW030 06/M06 Q1019 RMK 1CU030 A3010=,
20180104_080000.002,0,RJNA,,,,0,20180104080000,-1,-1,-1,-1,320,-1,14,-1,-1,-1,-1,,9999,0,0,1,FEW 30,1,6,-1,6,1019,RJNA 040800Z 32014KT 9999 FEW030 06/M06 Q1019 RMK 1CU030     A3010=,
20180104_090000.000,0,RJNA,,,,0,20180104090000,-1,-1,-1,-1,320,-1,11,-1,-1,-1,-1,,9999,0,0,1,FEW 30,1,5,-1,6,1019,RJNA 040900Z 32011KT 9999 FEW030 05/M06 Q1019 RMK 1CU030 A3010=,
20180104_090000.002,0,RJNA,,,,0,20180104090000,-1,-1,-1,-1,320,-1,11,-1,-1,-1,-1,,9999,0,0,1,FEW 30,1,5,-1,6,1019,RJNA 040900Z 32011KT 9999 FEW030 05/M06 Q1019 RMK 1CU030     A3010=,
20180104_100000.000,0,RJNA,,,,0,20180104100000,-1,-1,-1,-1,340,-1,5,-1,-1,-1,-1,,9999,0,0,1,FEW 30,1,4,-1,5,1019,RJNA 041000Z 34005KT 9999 FEW030 04/M05 Q1019 RMK 1CU030 A3012=,
20180104_100000.002,0,RJNA,,,,0,20180104100000,-1,-1,-1,-1,340,-1,5,-1,-1,-1,-1,,9999,0,0,1,FEW 30,1,4,-1,5,1019,RJNA 041000Z 34005KT 9999 FEW030 04/M05 Q1019 RMK 1CU030     A3012=,
20180104_110000.000,0,RJNA,,,,0,20180104110000,-1,-1,-1,-1,300,-1,4,-1,-1,-1,-1,,9999,0,0,2,FEW 30   SCT -9999,1,4,-1,4,1020,RJNA 041100Z 30004KT 9999 FEW030 SCT/// 04/M04 Q1020 RMK 1CU030     A3013=,
20180104_110000.002,0,RJNA,,,,0,20180104110000,-1,-1,-1,-1,300,-1,4,-1,-1,-1,-1,,9999,0,0,2,FEW 30   SCT -9999,1,4,-1,4,1020,RJNA 041100Z 30004KT 9999 FEW030 SCT/// 04/M04 Q1020 RMK     1CU030 A3013=,
20180104_120000.000,0,RJNA,,,,0,20180104120000,-1,-1,-1,-1,350,-1,3,-1,-1,-1,-1,,9999,0,0,2,FEW 30   SCT -9999,1,1,-1,4,1020,RJNA 041200Z 35003KT 9999 FEW030 SCT/// 01/M04 Q1020 RMK 1CU030     A3013=,
20180104_120000.003,0,RJNA,,,,0,20180104120000,-1,-1,-1,-1,350,-1,3,-1,-1,-1,-1,,9999,0,0,2,FEW 30   SCT -9999,1,1,-1,4,1020,RJNA 041200Z 35003KT 9999 FEW030 SCT/// 01/M04 Q1020 RMK     1CU030 A3013=,
20180104_130000.000,0,RJNA,,,,0,20180104130000,-1,-1,-1,-1,350,-1,4,-1,-1,-1,-1,,9999,0,0,2,FEW 30   SCT -9999,1,2,-1,2,1020,RJNA 041300Z 35004KT 9999 FEW030 SCT/// 02/M02 Q1020 RMK 1CU030     A3013=,
20180104_130000.002,0,RJNA,,,,0,20180104130000,-1,-1,-1,-1,350,-1,4,-1,-1,-1,-1,,9999,0,0,2,FEW 30   SCT -9999,1,2,-1,2,1020,RJNA 041300Z 35004KT 9999 FEW030 SCT/// 02/M02 Q1020 RMK     1CU030 A3013=,
20180104_140000.000,0,RJNA,,,,0,20180104140000,-1,-1,-1,-1,340,-1,5,-1,-1,-1,-1,,9999,0,0,1,FEW 30,1,1,-1,4,1020,RJNA 041400Z 34005KT 9999 FEW030 01/M04 Q1020 RMK 1CU030 A3013=,
20180104_140000.002,0,RJNA,,,,0,20180104140000,-1,-1,-1,-1,340,-1,5,-1,-1,-1,-1,,9999,0,0,1,FEW 30,1,1,-1,4,1020,RJNA 041400Z 34005KT 9999 FEW030 01/M04 Q1020 RMK 1CU030     A3013=,
20180104_150000.000,0,RJNA,,,,0,20180104150000,-1,-1,-1,-1,999,-1,2,-1,-1,-1,-1,,9999,0,0,3,FEW 30   BKN 150   BKN -9999,1,1,-1,4,1019,RJNA 041500Z VRB02KT 9999 FEW030 BKN150 BKN/// 01/M04 Q1019 RMK     1CU030 5AC150 A3010=,
20180104_150000.003,0,RJNA,,,,0,20180104150000,-1,-1,-1,-1,999,-1,2,-1,-1,-1,-1,,9999,0,0,3,FEW 30   BKN 150   BKN -9999,1,1,-1,4,1019,RJNA 041500Z VRB02KT 9999 FEW030 BKN150 BKN/// 01/M04 Q1019     RMK 1CU030 5AC150 A3010=,
20180104_160000.000,0,RJNA,,,,0,20180104160000,-1,-1,-1,-1,320,-1,6,-1,-1,-1,-1,,9999,0,0,3,FEW 30   SCT 50   BKN 100,1,2,-1,4,1019,RJNA 041600Z 32006KT 9999 FEW030 SCT050 BKN100 02/M04 Q1019 RMK     1CU030 4SC050 7AC100 A3011=,
20180104_160000.003,0,RJNA,,,,0,20180104160000,-1,-1,-1,-1,320,-1,6,-1,-1,-1,-1,,9999,0,0,3,FEW 30   SCT 50   BKN 100,1,2,-1,4,1019,RJNA 041600Z 32006KT 9999 FEW030 SCT050 BKN100 02/M04 Q1019     RMK 1CU030 4SC050 7AC100 A3011=,
20180104_170000.001,0,RJNA,,,,0,20180104170000,-1,-1,-1,-1,320,-1,6,-1,-1,-1,-1,,9999,0,0,3,FEW 30   SCT 50   BKN 100,1,2,-1,4,1019,RJNA 041700Z 32006KT 9999 FEW030 SCT050 BKN100 02/M04 Q1019 RMK     1CU030 4SC050 7AC100 A3010=,
20180104_170000.003,0,RJNA,,,,0,20180104170000,-1,-1,-1,-1,320,-1,6,-1,-1,-1,-1,,9999,0,0,3,FEW 30   SCT 50   BKN 100,1,2,-1,4,1019,RJNA 041700Z 32006KT 9999 FEW030 SCT050 BKN100 02/M04 Q1019     RMK 1CU030 4SC050 7AC100 A3010=,
20180104_180000.000,0,RJNA,,,,0,20180104180000,-1,-1,-1,-1,340,-1,5,-1,-1,-1,-1,,9999,0,0,3,FEW 30   SCT 50   BKN 150,1,1,-1,3,1019,RJNA 041800Z 34005KT 9999 FEW030 SCT050 BKN150 01/M03 Q1019 RMK     1CU030 3SC050 7AC150 A3009=,
20180104_180000.002,0,RJNA,,,,0,20180104180000,-1,-1,-1,-1,340,-1,5,-1,-1,-1,-1,,9999,0,0,3,FEW 30   SCT 50   BKN 150,1,1,-1,3,1019,RJNA 041800Z 34005KT 9999 FEW030 SCT050 BKN150 01/M03 Q1019     RMK 1CU030 3SC050 7AC150 A3009=,
20180104_190000.000,0,RJNA,,,,0,20180104190000,-1,-1,-1,-1,999,-1,1,-1,-1,-1,-1,,9999,0,0,2,FEW 30   BKN 150,1,2,-1,4,1018,RJNA 041900Z VRB01KT 9999 FEW030 BKN150 02/M04 Q1018 RMK 1CU030     7AC150 A3007=,
20180104_190000.003,0,RJNA,,,,0,20180104190000,-1,-1,-1,-1,999,-1,1,-1,-1,-1,-1,,9999,0,0,2,FEW 30   BKN 150,1,2,-1,4,1018,RJNA 041900Z VRB01KT 9999 FEW030 BKN150 02/M04 Q1018 RMK     1CU030 7AC150 A3007=,
20180104_200000.000,0,RJNA,,,,0,20180104200000,-1,-1,-1,-1,320,-1,3,-1,-1,-1,-1,,9999,0,0,2,FEW 30   BKN 150,1,2,-1,3,1018,RJNA 042000Z 32003KT 9999 FEW030 BKN150 02/M03 Q1018 RMK 1CU030     7AC150 A3007=,
20180104_200000.002,0,RJNA,,,,0,20180104200000,-1,-1,-1,-1,320,-1,3,-1,-1,-1,-1,,9999,0,0,2,FEW 30   BKN 150,1,2,-1,3,1018,RJNA 042000Z 32003KT 9999 FEW030 BKN150 02/M03 Q1018 RMK     1CU030 7AC150 A3007=,
20180104_210000.000,0,RJNA,,,,0,20180104210000,-1,-1,-1,-1,320,-1,3,-1,-1,-1,-1,,9999,0,0,3,FEW 30   SCT 120   BKN 150,1,2,-1,4,1017,RJNA 042100Z 32003KT 9999 FEW030 SCT120 BKN150 02/M04 Q1017 RMK     1CU030 3AC120 7AC150 A3006 09/M00=,
20180104_210000.002,0,RJNA,,,,0,20180104210000,-1,-1,-1,-1,320,-1,3,-1,-1,-1,-1,,9999,0,0,3,FEW 30   SCT 120   BKN 150,1,2,-1,4,1017,RJNA 042100Z 32003KT 9999 FEW030 SCT120 BKN150 02/M04 Q1017     RMK 1CU030 3AC120 7AC150 A3006 09/M00=,
20180104_220000.000,0,RJNA,,,,0,20180104220000,-1,-1,-1,-1,360,-1,3,-1,-1,-1,-1,,9999,0,0,2,FEW 30   BKN 120,1,2,-1,4,1017,RJNA 042200Z 36003KT 9999 FEW030 BKN120 02/M04 Q1017 RMK 1CU030     7AC120 A3005=,
20180104_220000.002,0,RJNA,,,,0,20180104220000,-1,-1,-1,-1,360,-1,3,-1,-1,-1,-1,,9999,0,0,2,FEW 30   BKN 120,1,2,-1,4,1017,RJNA 042200Z 36003KT 9999 FEW030 BKN120 02/M04 Q1017 RMK     1CU030 7AC120 A3005=,
20180104_230000.000,0,RJNA,,,,0,20180104230000,-1,-1,-1,-1,999,-1,1,-1,-1,-1,-1,,9999,0,0,2,FEW 20   BKN 120,1,2,-1,4,1017,RJNA 042300Z VRB01KT 9999 FEW020 BKN120 02/M04 Q1017 RMK 1CU020     7AC120 A3006=,
20180104_230000.002,0,RJNA,,,,0,20180104230000,-1,-1,-1,-1,999,-1,1,-1,-1,-1,-1,,9999,0,0,2,FEW 20   BKN 120,1,2,-1,4,1017,RJNA 042300Z VRB01KT 9999 FEW020 BKN120 02/M04 Q1017 RMK     1CU020 7AC120 A3006=,
20180105_000000.000,0,RJNA,,,,0,20180105000000,-1,-1,-1,-1,999,-1,2,-1,-1,-1,-1,,9999,0,0,3,FEW 20   SCT 100   BKN 140,1,3,-1,4,1017,RJNA 050000Z VRB02KT 9999 FEW020 SCT100 BKN140 03/M04 Q1017 RMK     1CU020 3AC100 7AC140 A3005=,
20180105_000000.002,0,RJNA,,,,0,20180105000000,-1,-1,-1,-1,999,-1,2,-1,-1,-1,-1,,9999,0,0,3,FEW 20   SCT 100   BKN 140,1,3,-1,4,1017,RJNA 050000Z VRB02KT 9999 FEW020 SCT100 BKN140 03/M04 Q1017     RMK 1CU020 3AC100 7AC140 A3005=,
20180105_010000.000,0,RJNA,,,,0,20180105010000,-1,-1,-1,-1,20,-1,3,-1,-1,330,60,,9999,0,0,3,FEW 20   BKN 100   BKN 130,1,4,-1,4,1017,RJNA 050100Z 02003KT 330V060 9999 FEW020 BKN100 BKN130 04/M04     Q1017 RMK 1CU020 5AC100 7AC130 A3005=,
20180105_010000.003,0,RJNA,,,,0,20180105010000,-1,-1,-1,-1,20,-1,3,-1,-1,330,60,,9999,0,0,3,FEW 20   BKN 100   BKN 130,1,4,-1,4,1017,RJNA 050100Z 02003KT 330V060 9999 FEW020 BKN100 BKN130 04/M04     Q1017 RMK 1CU020 5AC100 7AC130 A3005=,
20180105_020000.000,0,RJNA,,,,0,20180105020000,-1,-1,-1,-1,360,-1,4,-1,-1,330,60,,9999,0,0,3,FEW 20   BKN 100   BKN 130,1,5,-1,5,1017,RJNA 050200Z 36004KT 330V060 9999 FEW020 BKN100 BKN130 05/M05     Q1017 RMK 1CU020 5AC100 7AC130 A3003=,
20180105_020000.002,0,RJNA,,,,0,20180105020000,-1,-1,-1,-1,360,-1,4,-1,-1,330,60,,9999,0,0,3,FEW 20   BKN 100   BKN 130,1,5,-1,5,1017,RJNA 050200Z 36004KT 330V060 9999 FEW020 BKN100 BKN130 05/M05     Q1017 RMK 1CU020 5AC100 7AC130 A3003=,
20180105_030000.000,0,RJNA,,,,0,20180105030000,-1,-1,-1,-1,280,-1,4,-1,-1,230,330,,9999,0,0,3,FEW 40   SCT 130   BKN 230,1,6,-1,3,1015,RJNA 050300Z 28004KT 230V330 9999 FEW040 SCT130 BKN230 06/M03     Q1015 RMK 1SC040 3AC130 A3000=,
20180105_030000.002,0,RJNA,,,,0,20180105030000,-1,-1,-1,-1,280,-1,4,-1,-1,230,330,,9999,0,0,3,FEW 40   SCT 130   BKN 230,1,6,-1,3,1015,RJNA 050300Z 28004KT 230V330 9999 FEW040 SCT130 BKN230 06/M03     Q1015 RMK 1SC040 3AC130 A3000=,
20180105_040000.000,0,RJNA,,,,0,20180105040000,-1,-1,-1,-1,290,-1,5,-1,-1,230,340,,9999,0,0,3,FEW 40   BKN 100   BKN 130,1,6,-1,2,1014,RJNA 050400Z 29005KT 230V340 9999 FEW040 BKN100 BKN130 06/M02     Q1014 RMK 1SC040 5AC100 5AC130 A2996=,
20180105_040000.002,0,RJNA,,,,0,20180105040000,-1,-1,-1,-1,290,-1,5,-1,-1,230,340,,9999,0,0,3,FEW 40   BKN 100   BKN 130,1,6,-1,2,1014,RJNA 050400Z 29005KT 230V340 9999 FEW040 BKN100 BKN130 06/M02     Q1014 RMK 1SC040 5AC100 5AC130 A2996=,
20180105_050000.000,0,RJNA,,,,0,20180105050000,-1,-1,-1,-1,310,-1,7,-1,-1,280,340,,9999,0,0,3,FEW 30   BKN 100   BKN 120,1,7,-1,2,1013,RJNA 050500Z 31007KT 280V340 9999 FEW030 BKN100 BKN120 07/M02     Q1013 RMK 1CU030 5AC100 5AC120 A2993=,
20180105_050000.002,0,RJNA,,,,0,20180105050000,-1,-1,-1,-1,310,-1,7,-1,-1,280,340,,9999,0,0,3,FEW 30   BKN 100   BKN 120,1,7,-1,2,1013,RJNA 050500Z 31007KT 280V340 9999 FEW030 BKN100 BKN120 07/M02     Q1013 RMK 1CU030 5AC100 5AC120 A2993=,
20180105_060000.000,0,RJNA,,,,0,20180105060000,-1,-1,-1,-1,300,-1,5,-1,-1,240,350,,9999,0,0,3,FEW 30   SCT 80   BKN 120,1,7,-1,2,1013,RJNA 050600Z 30005KT 240V350 9999 FEW030 SCT080 BKN120 07/M02     Q1013 RMK 1CU030 3AC080 5AC120 A2994=,
20180105_060000.002,0,RJNA,,,,0,20180105060000,-1,-1,-1,-1,300,-1,5,-1,-1,240,350,,9999,0,0,3,FEW 30   SCT 80   BKN 120,1,7,-1,2,1013,RJNA 050600Z 30005KT 240V350 9999 FEW030 SCT080 BKN120 07/M02     Q1013 RMK 1CU030 3AC080 5AC120 A2994=,
20180105_070000.000,0,RJNA,,,,0,20180105070000,-1,-1,-1,-1,280,-1,6,-1,-1,240,320,,9999,0,0,3,FEW 30   SCT 80   BKN 120,1,7,-1,2,1013,RJNA 050700Z 28006KT 240V320 9999 FEW030 SCT080 BKN120 07/M02     Q1013 RMK 1CU030 3AC080 5AC120 A2994=,
20180105_070000.002,0,RJNA,,,,0,20180105070000,-1,-1,-1,-1,280,-1,6,-1,-1,240,320,,9999,0,0,3,FEW 30   SCT 80   BKN 120,1,7,-1,2,1013,RJNA 050700Z 28006KT 240V320 9999 FEW030 SCT080 BKN120 07/M02     Q1013 RMK 1CU030 3AC080 5AC120 A2994=,
20180105_080000.000,0,RJNA,,,,0,20180105080000,-1,-1,-1,-1,290,-1,5,-1,-1,-1,-1,,9999,0,0,1,FEW 30,1,6,-1,1,1013,RJNA 050800Z 29005KT 9999 FEW030 06/M01 Q1013 RMK 1CU030 A2993=,
20180105_080000.002,0,RJNA,,,,0,20180105080000,-1,-1,-1,-1,290,-1,5,-1,-1,-1,-1,,9999,0,0,1,FEW 30,1,6,-1,1,1013,RJNA 050800Z 29005KT 9999 FEW030 06/M01 Q1013 RMK 1CU030     A2993=,
20180105_090000.000,0,RJNA,,,,0,20180105090000,-1,-1,-1,-1,300,-1,6,-1,-1,-1,-1,,9999,0,0,1,FEW 30,1,5,-1,0,1013,RJNA 050900Z 30006KT 9999 FEW030 05/M00 Q1013 RMK 1CU030 A2992=,
20180105_090000.002,0,RJNA,,,,0,20180105090000,-1,-1,-1,-1,300,-1,6,-1,-1,-1,-1,,9999,0,0,1,FEW 30,1,5,-1,0,1013,RJNA 050900Z 30006KT 9999 FEW030 05/M00 Q1013 RMK 1CU030     A2992=,
20180105_100000.000,0,RJNA,,,,0,20180105100000,-1,-1,-1,-1,320,-1,3,-1,-1,280,350,,9999,0,0,1,FEW 30,1,4,-1,0,1013,RJNA 051000Z 32003KT 280V350 9999 FEW030 04/M00 Q1013 RMK     1CU030 A2992=,
20180105_100000.002,0,RJNA,,,,0,20180105100000,-1,-1,-1,-1,320,-1,3,-1,-1,280,350,,9999,0,0,1,FEW 30,1,4,-1,0,1013,RJNA 051000Z 32003KT 280V350 9999 FEW030 04/M00 Q1013 RMK     1CU030 A2992=,
20180105_110000.000,0,RJNA,,,,0,20180105110000,-1,-1,-1,-1,340,-1,5,-1,-1,-1,-1,,9999,0,0,1,FEW 30,1,3,-1,1,1013,RJNA 051100Z 34005KT 9999 FEW030 03/M01 Q1013 RMK 1CU030 A2992=,
20180105_110000.002,0,RJNA,,,,0,20180105110000,-1,-1,-1,-1,340,-1,5,-1,-1,-1,-1,,9999,0,0,1,FEW 30,1,3,-1,1,1013,RJNA 051100Z 34005KT 9999 FEW030 03/M01 Q1013 RMK 1CU030     A2992=,
20180105_120000.000,0,RJNA,,,,0,20180105120000,-1,-1,-1,-1,10,-1,3,-1,-1,330,50,,9999,0,0,1,FEW 30,1,2,-1,1,1013,RJNA 051200Z 01003KT 330V050 9999 FEW030 02/M01 Q1013 RMK     1CU030 A2992=,
20180105_120000.002,0,RJNA,,,,0,20180105120000,-1,-1,-1,-1,10,-1,3,-1,-1,330,50,,9999,0,0,1,FEW 30,1,2,-1,1,1013,RJNA 051200Z 01003KT 330V050 9999 FEW030 02/M01 Q1013 RMK     1CU030 A2992=,
20180105_130000.000,0,RJNA,,,,0,20180105130000,-1,-1,-1,-1,50,-1,4,-1,-1,-1,-1,,9999,0,0,1,FEW 30,1,2,-1,1,1012,RJNA 051300Z 05004KT 9999 FEW030 02/M01 Q1012 RMK 1CU030 A2990=,
20180105_130000.002,0,RJNA,,,,0,20180105130000,-1,-1,-1,-1,50,-1,4,-1,-1,-1,-1,,9999,0,0,1,FEW 30,1,2,-1,1,1012,RJNA 051300Z 05004KT 9999 FEW030 02/M01 Q1012 RMK 1CU030     A2990=,
20180105_140000.000,0,RJNA,,,,0,20180105140000,-1,-1,-1,-1,999,-1,2,-1,-1,-1,-1,,9999,0,0,1,FEW 30,1,2,-1,0,1012,RJNA 051400Z VRB02KT 9999 FEW030 02/M00 Q1012 RMK 1CU030 A2990=,
20180105_140000.002,0,RJNA,,,,0,20180105140000,-1,-1,-1,-1,999,-1,2,-1,-1,-1,-1,,9999,0,0,1,FEW 30,1,2,-1,0,1012,RJNA 051400Z VRB02KT 9999 FEW030 02/M00 Q1012 RMK 1CU030     A2990=,
20180105_150000.000,0,RJNA,,,,0,20180105150000,-1,-1,-1,-1,330,-1,4,-1,-1,-1,-1,,9999,0,0,1,FEW 30,1,1,-1,1,1012,RJNA 051500Z 33004KT 9999 FEW030 01/M01 Q1012 RMK 1CU030 A2990=,
20180105_150000.002,0,RJNA,,,,0,20180105150000,-1,-1,-1,-1,330,-1,4,-1,-1,-1,-1,,9999,0,0,1,FEW 30,1,1,-1,1,1012,RJNA 051500Z 33004KT 9999 FEW030 01/M01 Q1012 RMK 1CU030     A2990=,
20180105_160000.000,0,RJNA,,,,0,20180105160000,-1,-1,-1,-1,360,-1,3,-1,-1,-1,-1,,9999,0,0,1,FEW 30,-1,1,-1,3,1012,RJNA 051600Z 36003KT 9999 FEW030 M01/M03 Q1012 RMK 1CU030     A2990=,
20180105_160000.003,0,RJNA,,,,0,20180105160000,-1,-1,-1,-1,360,-1,3,-1,-1,-1,-1,,9999,0,0,1,FEW 30,-1,1,-1,3,1012,RJNA 051600Z 36003KT 9999 FEW030 M01/M03 Q1012 RMK 1CU030     A2990=,
20180105_170000.000,0,RJNA,,,,0,20180105170000,-1,-1,-1,-1,340,-1,3,-1,-1,-1,-1,,9999,0,0,1,FEW 30,-1,0,-1,3,1012,RJNA 051700Z 34003KT 9999 FEW030 M00/M03 Q1012 RMK 1CU030     A2990=,
20180105_170000.002,0,RJNA,,,,0,20180105170000,-1,-1,-1,-1,340,-1,3,-1,-1,-1,-1,,9999,0,0,1,FEW 30,-1,0,-1,3,1012,RJNA 051700Z 34003KT 9999 FEW030 M00/M03 Q1012 RMK 1CU030     A2990=,
20180105_180000.000,0,RJNA,,,,0,20180105180000,-1,-1,-1,-1,330,-1,4,-1,-1,-1,-1,,9999,0,0,3,FEW 30   BKN 90   BKN -9999,-1,1,-1,3,1012,RJNA 051800Z 33004KT 9999 FEW030 BKN090 BKN/// M01/M03 Q1012     RMK 1CU030 5AC090 A2991=,
20180105_180000.003,0,RJNA,,,,0,20180105180000,-1,-1,-1,-1,330,-1,4,-1,-1,-1,-1,,9999,0,0,3,FEW 30   BKN 90   BKN -9999,-1,1,-1,3,1012,RJNA 051800Z 33004KT 9999 FEW030 BKN090 BKN/// M01/M03 Q1012     RMK 1CU030 5AC090 A2991=,
20180105_190000.000,0,RJNA,,,,0,20180105190000,-1,-1,-1,-1,999,-1,1,-1,-1,-1,-1,,9999,0,0,3,FEW 30   BKN 90   BKN -9999,-1,1,-1,4,1012,RJNA 051900Z VRB01KT 9999 FEW030 BKN090 BKN/// M01/M04 Q1012     RMK 1CU030 5AC090 A2990=,
20180105_190000.002,0,RJNA,,,,0,20180105190000,-1,-1,-1,-1,999,-1,1,-1,-1,-1,-1,,9999,0,0,3,FEW 30   BKN 90   BKN -9999,-1,1,-1,4,1012,RJNA 051900Z VRB01KT 9999 FEW030 BKN090 BKN/// M01/M04 Q1012     RMK 1CU030 5AC090 A2990=,
20180105_200000.000,0,RJNA,,,,0,20180105200000,-1,-1,-1,-1,999,-1,1,-1,-1,-1,-1,,9999,0,0,2,FEW 30   BKN 90,-1,0,-1,3,1012,RJNA 052000Z VRB01KT 9999 FEW030 BKN090 M00/M03 Q1012 RMK     1CU030 7AC090 A2990=,
20180105_200000.002,0,RJNA,,,,0,20180105200000,-1,-1,-1,-1,999,-1,1,-1,-1,-1,-1,,9999,0,0,2,FEW 30   BKN 90,-1,0,-1,3,1012,RJNA 052000Z VRB01KT 9999 FEW030 BKN090 M00/M03 Q1012 RMK     1CU030 7AC090 A2990=,
20180105_210000.000,0,RJNA,,,,0,20180105210000,-1,-1,-1,-1,999,-1,1,-1,-1,-1,-1,,9999,0,0,3,FEW 30   SCT 50   BKN 70,1,0,-1,3,1012,RJNA 052100Z VRB01KT 9999 FEW030 SCT050 BKN070 00/M03 Q1012 RMK     1CU030 3SC050 7AC070 A2991 07/M01=,
20180105_210000.003,0,RJNA,,,,0,20180105210000,-1,-1,-1,-1,999,-1,1,-1,-1,-1,-1,,9999,0,0,3,FEW 30   SCT 50   BKN 70,1,0,-1,3,1012,RJNA 052100Z VRB01KT 9999 FEW030 SCT050 BKN070 00/M03 Q1012     RMK 1CU030 3SC050 7AC070 A2991 07/M01=,
20180105_220000.000,0,RJNA,,,,0,20180105220000,-1,-1,-1,-1,999,-1,2,-1,-1,-1,-1,,9999,0,0,3,FEW 30   BKN 50   BKN 70,1,1,-1,2,1012,RJNA 052200Z VRB02KT 9999 FEW030 BKN050 BKN070 01/M02 Q1012 RMK     1CU030 5SC050 7AC070 A2991=,
20180105_220000.002,0,RJNA,,,,0,20180105220000,-1,-1,-1,-1,999,-1,2,-1,-1,-1,-1,,9999,0,0,3,FEW 30   BKN 50   BKN 70,1,1,-1,2,1012,RJNA 052200Z VRB02KT 9999 FEW030 BKN050 BKN070 01/M02 Q1012     RMK 1CU030 5SC050 7AC070 A2991=,
20180105_230000.000,0,RJNA,,,,0,20180105230000,-1,-1,-1,-1,999,-1,1,-1,-1,-1,-1,,9999,0,0,3,FEW 30   BKN 60   BKN 80,1,1,-1,3,1013,RJNA 052300Z VRB01KT 9999 FEW030 BKN060 BKN080 01/M03 Q1013 RMK     1CU030 6SC060 5AC080 A2992=,
20180105_230000.002,0,RJNA,,,,0,20180105230000,-1,-1,-1,-1,999,-1,1,-1,-1,-1,-1,,9999,0,0,3,FEW 30   BKN 60   BKN 80,1,1,-1,3,1013,RJNA 052300Z VRB01KT 9999 FEW030 BKN060 BKN080 01/M03 Q1013     RMK 1CU030 6SC060 5AC080 A2992=,
20180106_000000.000,0,RJNA,,,,0,20180106000000,-1,-1,-1,-1,999,-1,2,-1,-1,-1,-1,,9999,0,0,3,FEW 30   BKN 60   BKN 80,1,2,-1,2,1014,RJNA 060000Z VRB02KT 9999 FEW030 BKN060 BKN080 02/M02 Q1014 RMK     1CU030 6SC060 5AC080 A2995=,
20180106_000000.002,0,RJNA,,,,0,20180106000000,-1,-1,-1,-1,999,-1,2,-1,-1,-1,-1,,9999,0,0,3,FEW 30   BKN 60   BKN 80,1,2,-1,2,1014,RJNA 060000Z VRB02KT 9999 FEW030 BKN060 BKN080 02/M02 Q1014     RMK 1CU030 6SC060 5AC080 A2995=,
20180106_010000.000,0,RJNA,,,,0,20180106010000,-1,-1,-1,-1,999,-1,1,-1,-1,-1,-1,,9999,0,0,3,FEW 30   BKN 60   BKN 80,1,3,-1,3,1014,RJNA 060100Z VRB01KT 9999 FEW030 BKN060 BKN080 03/M03 Q1014 RMK     1CU030 6SC060 5AC080 A2996=,
20180106_010000.002,0,RJNA,,,,0,20180106010000,-1,-1,-1,-1,999,-1,1,-1,-1,-1,-1,,9999,0,0,3,FEW 30   BKN 60   BKN 80,1,3,-1,3,1014,RJNA 060100Z VRB01KT 9999 FEW030 BKN060 BKN080 03/M03 Q1014     RMK 1CU030 6SC060 5AC080 A2996=,
20180106_020000.000,0,RJNA,,,,0,20180106020000,-1,-1,-1,-1,999,-1,1,-1,-1,-1,-1,,9999,0,0,3,FEW 30   BKN 60   BKN 80,1,4,-1,2,1014,RJNA 060200Z VRB01KT 9999 FEW030 BKN060 BKN080 04/M02 Q1014 RMK     1CU030 5SC060 6AC080 A2995=,
20180106_020000.002,0,RJNA,,,,0,20180106020000,-1,-1,-1,-1,999,-1,1,-1,-1,-1,-1,,9999,0,0,3,FEW 30   BKN 60   BKN 80,1,4,-1,2,1014,RJNA 060200Z VRB01KT 9999 FEW030 BKN060 BKN080 04/M02 Q1014     RMK 1CU030 5SC060 6AC080 A2995=,
20180106_030000.000,0,RJNA,,,,0,20180106030000,-1,-1,-1,-1,999,-1,3,-1,-1,-1,-1,,9999,0,0,1,FEW 30,1,6,-1,1,1012,RJNA 060300Z VRB03KT 9999 FEW030 06/M01 Q1012 RMK 1CU030 A2991=,
20180106_030000.002,0,RJNA,,,,0,20180106030000,-1,-1,-1,-1,999,-1,3,-1,-1,-1,-1,,9999,0,0,1,FEW 30,1,6,-1,1,1012,RJNA 060300Z VRB03KT 9999 FEW030 06/M01 Q1012 RMK 1CU030     A2991=,
20180106_040000.000,0,RJNA,,,,0,20180106040000,-1,-1,-1,-1,290,-1,4,-1,-1,240,330,,9999,0,0,1,FEW 30,1,8,1,1,1012,RJNA 060400Z 29004KT 240V330 9999 FEW030 08/01 Q1012 RMK 1CU030     A2989=,
20180106_040000.002,0,RJNA,,,,0,20180106040000,-1,-1,-1,-1,290,-1,4,-1,-1,240,330,,9999,0,0,1,FEW 30,1,8,1,1,1012,RJNA 060400Z 29004KT 240V330 9999 FEW030 08/01 Q1012 RMK     1CU030 A2989=,
20180106_050000.000,0,RJNA,,,,0,20180106050000,-1,-1,-1,-1,290,-1,6,-1,-1,250,340,,9999,0,0,1,FEW 30,1,9,1,0,1011,RJNA 060500Z 29006KT 250V340 9999 FEW030 09/00 Q1011 RMK 1CU030     A2988=,
20180106_050000.002,0,RJNA,,,,0,20180106050000,-1,-1,-1,-1,290,-1,6,-1,-1,250,340,,9999,0,0,1,FEW 30,1,9,1,0,1011,RJNA 060500Z 29006KT 250V340 9999 FEW030 09/00 Q1011 RMK     1CU030 A2988=,
20180106_060000.000,0,RJNA,,,,0,20180106060000,-1,-1,-1,-1,290,-1,11,-1,-1,260,320,,9999,0,0,1,FEW 30,1,9,1,1,1012,RJNA 060600Z 29011KT 260V320 9999 FEW030 09/01 Q1012 RMK 1CU030     A2989=,
20180106_060000.002,0,RJNA,,,,0,20180106060000,-1,-1,-1,-1,290,-1,11,-1,-1,260,320,,9999,0,0,1,FEW 30,1,9,1,1,1012,RJNA 060600Z 29011KT 260V320 9999 FEW030 09/01 Q1012 RMK     1CU030 A2989=,
20180106_070000.000,0,RJNA,,,,0,20180106070000,-1,-1,-1,-1,290,-1,10,-1,-1,250,310,,9999,0,0,1,FEW 25,1,8,1,2,1012,RJNA 060700Z 29010KT 250V310 9999 FEW025 08/02 Q1012 RMK 1CU025     A2989=,
20180106_070000.002,0,RJNA,,,,0,20180106070000,-1,-1,-1,-1,290,-1,10,-1,-1,250,310,,9999,0,0,1,FEW 25,1,8,1,2,1012,RJNA 060700Z 29010KT 250V310 9999 FEW025 08/02 Q1012 RMK     1CU025 A2989=,
20180106_080000.000,0,RJNA,,,,0,20180106080000,-1,-1,-1,-1,290,-1,10,-1,-1,-1,-1,,9999,0,0,1,FEW 30,1,7,1,1,1013,RJNA 060800Z 29010KT 9999 FEW030 07/01 Q1013 RMK 1CU030 A2992=,
20180106_080000.002,0,RJNA,,,,0,20180106080000,-1,-1,-1,-1,290,-1,10,-1,-1,-1,-1,,9999,0,0,1,FEW 30,1,7,1,1,1013,RJNA 060800Z 29010KT 9999 FEW030 07/01 Q1013 RMK 1CU030 A2992=,
20180106_090000.000,0,RJNA,,,,0,20180106090000,-1,-1,-1,-1,290,-1,8,-1,-1,-1,-1,,9999,0,0,1,FEW 30,1,6,1,1,1014,RJNA 060900Z 29008KT 9999 FEW030 06/01 Q1014 RMK 1CU030 A2995=,
20180106_090000.002,0,RJNA,,,,0,20180106090000,-1,-1,-1,-1,290,-1,8,-1,-1,-1,-1,,9999,0,0,1,FEW 30,1,6,1,1,1014,RJNA 060900Z 29008KT 9999 FEW030 06/01 Q1014 RMK 1CU030 A2995=,
20180106_100000.000,0,RJNA,,,,0,20180106100000,-1,-1,-1,-1,310,-1,10,-1,-1,-1,-1,,9999,0,0,1,FEW 30,1,6,-1,2,1014,RJNA 061000Z 31010KT 9999 FEW030 06/M02 Q1014 RMK 1CU030 A2997=,
20180106_100000.002,0,RJNA,,,,0,20180106100000,-1,-1,-1,-1,310,-1,10,-1,-1,-1,-1,,9999,0,0,1,FEW 30,1,6,-1,2,1014,RJNA 061000Z 31010KT 9999 FEW030 06/M02 Q1014 RMK 1CU030     A2997=,
20180106_110000.000,0,RJNA,,,,0,20180106110000,-1,-1,-1,-1,310,-1,12,-1,-1,-1,-1,,9999,0,0,1,FEW 30,1,6,-1,2,1015,RJNA 061100Z 31012KT 9999 FEW030 06/M02 Q1015 RMK 1CU030 A2999=,
20180106_110000.002,0,RJNA,,,,0,20180106110000,-1,-1,-1,-1,310,-1,12,-1,-1,-1,-1,,9999,0,0,1,FEW 30,1,6,-1,2,1015,RJNA 061100Z 31012KT 9999 FEW030 06/M02 Q1015 RMK 1CU030     A2999=,
20180106_120000.000,0,RJNA,,,,0,20180106120000,-1,-1,-1,-1,300,-1,9,-1,-1,-1,-1,,9999,0,0,1,FEW 30,1,5,-1,2,1016,RJNA 061200Z 30009KT 9999 FEW030 05/M02 Q1016 RMK 1CU030 A3003=,
20180106_120000.002,0,RJNA,,,,0,20180106120000,-1,-1,-1,-1,300,-1,9,-1,-1,-1,-1,,9999,0,0,1,FEW 30,1,5,-1,2,1016,RJNA 061200Z 30009KT 9999 FEW030 05/M02 Q1016 RMK 1CU030     A3003=,
20180106_130000.000,0,RJNA,,,,0,20180106130000,-1,-1,-1,-1,320,-1,10,-1,-1,-1,-1,,9999,0,0,1,FEW 30,1,5,-1,3,1018,RJNA 061300Z 32010KT 9999 FEW030 05/M03 Q1018 RMK 1CU030 A3006=,
20180106_130000.002,0,RJNA,,,,0,20180106130000,-1,-1,-1,-1,320,-1,10,-1,-1,-1,-1,,9999,0,0,1,FEW 30,1,5,-1,3,1018,RJNA 061300Z 32010KT 9999 FEW030 05/M03 Q1018 RMK 1CU030     A3006=,
20180106_140000.000,0,RJNA,,,,0,20180106140000,-1,-1,-1,-1,320,-1,10,-1,-1,-1,-1,,9999,0,0,1,FEW 30,1,5,-1,3,1018,RJNA 061400Z 32010KT 9999 FEW030 05/M03 Q1018 RMK 1CU030 A3007=,
20180106_140000.003,0,RJNA,,,,0,20180106140000,-1,-1,-1,-1,320,-1,10,-1,-1,-1,-1,,9999,0,0,1,FEW 30,1,5,-1,3,1018,RJNA 061400Z 32010KT 9999 FEW030 05/M03 Q1018 RMK 1CU030     A3007=,
20180106_150000.000,0,RJNA,,,,0,20180106150000,-1,-1,-1,-1,310,-1,11,-1,-1,-1,-1,,9999,0,0,1,FEW 30,1,4,-1,4,1018,RJNA 061500Z 31011KT 9999 FEW030 04/M04 Q1018 RMK 1CU030 A3008=,
20180106_150000.002,0,RJNA,,,,0,20180106150000,-1,-1,-1,-1,310,-1,11,-1,-1,-1,-1,,9999,0,0,1,FEW 30,1,4,-1,4,1018,RJNA 061500Z 31011KT 9999 FEW030 04/M04 Q1018 RMK 1CU030     A3008=,
20180106_160000.000,0,RJNA,,,,0,20180106160000,-1,-1,-1,-1,340,-1,6,-1,-1,-1,-1,,9999,0,0,1,FEW 30,1,2,-1,5,1019,RJNA 061600Z 34006KT 9999 FEW030 02/M05 Q1019 RMK 1CU030 A3009=,
20180106_160000.002,0,RJNA,,,,0,20180106160000,-1,-1,-1,-1,340,-1,6,-1,-1,-1,-1,,9999,0,0,1,FEW 30,1,2,-1,5,1019,RJNA 061600Z 34006KT 9999 FEW030 02/M05 Q1019 RMK 1CU030     A3009=,
20180106_170000.000,0,RJNA,,,,0,20180106170000,-1,-1,-1,-1,320,-1,10,-1,-1,-1,-1,,9999,0,0,1,FEW 30,1,4,-1,6,1019,RJNA 061700Z 32010KT 9999 FEW030 04/M06 Q1019 RMK 1CU030 A3011=,
20180106_170000.002,0,RJNA,,,,0,20180106170000,-1,-1,-1,-1,320,-1,10,-1,-1,-1,-1,,9999,0,0,1,FEW 30,1,4,-1,6,1019,RJNA 061700Z 32010KT 9999 FEW030 04/M06 Q1019 RMK 1CU030     A3011=,
20180106_180000.000,0,RJNA,,,,0,20180106180000,-1,-1,-1,-1,360,-1,8,-1,-1,-1,-1,,9999,0,0,1,FEW 30,1,2,-1,5,1019,RJNA 061800Z 36008KT 9999 FEW030 02/M05 Q1019 RMK 1CU030 A3012=,
20180106_180000.003,0,RJNA,,,,0,20180106180000,-1,-1,-1,-1,360,-1,8,-1,-1,-1,-1,,9999,0,0,1,FEW 30,1,2,-1,5,1019,RJNA 061800Z 36008KT 9999 FEW030 02/M05 Q1019 RMK 1CU030     A3012=,
20180106_190000.000,0,RJNA,,,,0,20180106190000,-1,-1,-1,-1,10,-1,7,-1,-1,-1,-1,,9999,0,0,2,FEW 30   SCT -9999,1,2,-1,4,1019,RJNA 061900Z 01007KT 9999 FEW030 SCT/// 02/M04 Q1019 RMK 1CU030     A3011=,
20180106_190000.002,0,RJNA,,,,0,20180106190000,-1,-1,-1,-1,10,-1,7,-1,-1,-1,-1,,9999,0,0,2,FEW 30   SCT -9999,1,2,-1,4,1019,RJNA 061900Z 01007KT 9999 FEW030 SCT/// 02/M04 Q1019 RMK     1CU030 A3011=,
20180106_200000.000,0,RJNA,,,,0,20180106200000,-1,-1,-1,-1,360,-1,8,-1,-1,-1,-1,,9999,0,0,2,FEW 30   BKN -9999,1,2,-1,4,1019,RJNA 062000Z 36008KT 9999 FEW030 BKN/// 02/M04 Q1019 RMK 1CU030     A3012=,
20180106_200000.002,0,RJNA,,,,0,20180106200000,-1,-1,-1,-1,360,-1,8,-1,-1,-1,-1,,9999,0,0,2,FEW 30   BKN -9999,1,2,-1,4,1019,RJNA 062000Z 36008KT 9999 FEW030 BKN/// 02/M04 Q1019 RMK     1CU030 A3012=,
20180106_210000.000,0,RJNA,,,,0,20180106210000,-1,-1,-1,-1,340,-1,4,-1,-1,-1,-1,,9999,0,0,2,FEW 30   SCT -9999,1,1,-1,4,1020,RJNA 062100Z 34004KT 9999 FEW030 SCT/// 01/M04 Q1020 RMK 1CU030     A3013 09/00=,
20180106_210000.002,0,RJNA,,,,0,20180106210000,-1,-1,-1,-1,340,-1,4,-1,-1,-1,-1,,9999,0,0,2,FEW 30   SCT -9999,1,1,-1,4,1020,RJNA 062100Z 34004KT 9999 FEW030 SCT/// 01/M04 Q1020 RMK     1CU030 A3013 09/00=,
20180106_220000.000,0,RJNA,,,,0,20180106220000,-1,-1,-1,-1,330,-1,6,-1,-1,-1,-1,,9999,0,0,1,FEW 30,-1,0,-1,5,1021,RJNA 062200Z 33006KT 9999 FEW030 M00/M05 Q1021 RMK 1CU030     A3015=,
20180106_220000.002,0,RJNA,,,,0,20180106220000,-1,-1,-1,-1,330,-1,6,-1,-1,-1,-1,,9999,0,0,1,FEW 30,-1,0,-1,5,1021,RJNA 062200Z 33006KT 9999 FEW030 M00/M05 Q1021 RMK 1CU030     A3015=,
20180106_230000.000,0,RJNA,,,,0,20180106230000,-1,-1,-1,-1,340,-1,4,-1,-1,-1,-1,,9999,0,0,2,FEW 50   SCT 250,1,2,-1,4,1021,RJNA 062300Z 34004KT 9999 FEW050 SCT250 02/M04 Q1021 RMK 1SC050     A3016=,
20180106_230000.002,0,RJNA,,,,0,20180106230000,-1,-1,-1,-1,340,-1,4,-1,-1,-1,-1,,9999,0,0,2,FEW 50   SCT 250,1,2,-1,4,1021,RJNA 062300Z 34004KT 9999 FEW050 SCT250 02/M04 Q1021 RMK     1SC050 A3016=,
20180107_000000.000,0,RJNA,,,,0,20180107000000,-1,-1,-1,-1,340,-1,7,-1,-1,-1,-1,,9999,0,0,2,FEW 50   BKN 250,1,5,-1,4,1021,RJNA 070000Z 34007KT 9999 FEW050 BKN250 05/M04 Q1021 RMK 1SC050     A3017=,
20180107_000000.002,0,RJNA,,,,0,20180107000000,-1,-1,-1,-1,340,-1,7,-1,-1,-1,-1,,9999,0,0,2,FEW 50   BKN 250,1,5,-1,4,1021,RJNA 070000Z 34007KT 9999 FEW050 BKN250 05/M04 Q1021 RMK     1SC050 A3017=,
20180107_010000.000,0,RJNA,,,,0,20180107010000,-1,-1,-1,-1,330,-1,12,-1,-1,310,10,,9999,0,0,2,FEW 50   BKN 250,1,7,-1,5,1022,RJNA 070100Z 33012KT 310V010 9999 FEW050 BKN250 07/M05 Q1022     RMK 1SC050 A3018=,
20180107_010000.003,0,RJNA,,,,0,20180107010000,-1,-1,-1,-1,330,-1,12,-1,-1,310,10,,9999,0,0,2,FEW 50   BKN 250,1,7,-1,5,1022,RJNA 070100Z 33012KT 310V010 9999 FEW050 BKN250 07/M05 Q1022     RMK 1SC050 A3018=,
20180107_020000.000,0,RJNA,,,,0,20180107020000,-1,-1,-1,-1,340,-1,13,-1,-1,-1,-1,,9999,0,0,2,FEW 50   BKN 250,1,7,-1,5,1021,RJNA 070200Z 34013KT 9999 FEW050 BKN250 07/M05 Q1021 RMK 1SC050     A3016=,
20180107_020000.002,0,RJNA,,,,0,20180107020000,-1,-1,-1,-1,340,-1,13,-1,-1,-1,-1,,9999,0,0,2,FEW 50   BKN 250,1,7,-1,5,1021,RJNA 070200Z 34013KT 9999 FEW050 BKN250 07/M05 Q1021 RMK     1SC050 A3016=,
20180107_030000.000,0,RJNA,,,,0,20180107030000,-1,-1,-1,-1,310,-1,10,-1,-1,280,340,,9999,0,0,2,FEW 40   BKN 250,1,9,-1,5,1020,RJNA 070300Z 31010KT 280V340 9999 FEW040 BKN250 09/M05 Q1020     RMK 1SC040 A3014=,
20180107_030000.002,0,RJNA,,,,0,20180107030000,-1,-1,-1,-1,310,-1,10,-1,-1,280,340,,9999,0,0,2,FEW 40   BKN 250,1,9,-1,5,1020,RJNA 070300Z 31010KT 280V340 9999 FEW040 BKN250 09/M05 Q1020     RMK 1SC040 A3014=,
20180107_040000.000,0,RJNA,,,,0,20180107040000,-1,-1,-1,-1,290,-1,11,-1,-1,-1,-1,,9999,0,0,2,FEW 30   BKN 250,1,9,-1,6,1020,RJNA 070400Z 29011KT 9999 FEW030 BKN250 09/M06 Q1020 RMK 1CU030     A3013=,
20180107_040000.002,0,RJNA,,,,0,20180107040000,-1,-1,-1,-1,290,-1,11,-1,-1,-1,-1,,9999,0,0,2,FEW 30   BKN 250,1,9,-1,6,1020,RJNA 070400Z 29011KT 9999 FEW030 BKN250 09/M06 Q1020 RMK     1CU030 A3013=,
20180107_050000.000,0,RJNA,,,,0,20180107050000,-1,-1,-1,-1,300,-1,8,-1,-1,270,350,,9999,0,0,2,FEW 30   BKN 250,1,10,-1,6,1019,RJNA 070500Z 30008KT 270V350 9999 FEW030 BKN250 10/M06 Q1019     RMK 1CU030 A3010=,
20180107_050000.002,0,RJNA,,,,0,20180107050000,-1,-1,-1,-1,300,-1,8,-1,-1,270,350,,9999,0,0,2,FEW 30   BKN 250,1,10,-1,6,1019,RJNA 070500Z 30008KT 270V350 9999 FEW030 BKN250 10/M06 Q1019     RMK 1CU030 A3010=,
20180107_060000.000,0,RJNA,,,,0,20180107060000,-1,-1,-1,-1,290,-1,10,-1,-1,250,310,,9999,0,0,2,FEW 30   BKN 250,1,10,-1,5,1019,RJNA 070600Z 29010KT 250V310 9999 FEW030 BKN250 10/M05 Q1019     RMK 1CU030 A3012=,
20180107_060000.002,0,RJNA,,,,0,20180107060000,-1,-1,-1,-1,290,-1,10,-1,-1,250,310,,9999,0,0,2,FEW 30   BKN 250,1,10,-1,5,1019,RJNA 070600Z 29010KT 250V310 9999 FEW030 BKN250 10/M05 Q1019     RMK 1CU030 A3012=,
20180107_070000.000,0,RJNA,,,,0,20180107070000,-1,-1,-1,-1,290,-1,10,-1,-1,270,330,,9999,0,0,3,FEW 30   SCT 100   BKN 250,1,9,-1,4,1020,RJNA 070700Z 29010KT 270V330 9999 FEW030 SCT100 BKN250 09/M04     Q1020 RMK 1CU030 3AC100 A3013=,
20180107_070000.002,0,RJNA,,,,0,20180107070000,-1,-1,-1,-1,290,-1,10,-1,-1,270,330,,9999,0,0,3,FEW 30   SCT 100   BKN 250,1,9,-1,4,1020,RJNA 070700Z 29010KT 270V330 9999 FEW030 SCT100 BKN250 09/M04     Q1020 RMK 1CU030 3AC100 A3013=,
20180107_080000.000,0,RJNA,,,,0,20180107080000,-1,-1,-1,-1,300,-1,7,-1,-1,280,350,,9999,0,0,3,FEW 30   SCT 180   BKN 230,1,8,-1,4,1020,RJNA 070800Z 30007KT 280V350 9999 FEW030 SCT180 BKN230 08/M04     Q1020 RMK 1CU030 3AC180 A3014=,
20180107_080000.002,0,RJNA,,,,0,20180107080000,-1,-1,-1,-1,300,-1,7,-1,-1,280,350,,9999,0,0,3,FEW 30   SCT 180   BKN 230,1,8,-1,4,1020,RJNA 070800Z 30007KT 280V350 9999 FEW030 SCT180 BKN230 08/M04     Q1020 RMK 1CU030 3AC180 A3014=,
20180107_090000.000,0,RJNA,,,,0,20180107090000,-1,-1,-1,-1,300,-1,5,-1,-1,270,330,,9999,0,0,3,FEW 30   SCT 180   BKN -9999,1,7,-1,4,1021,RJNA 070900Z 30005KT 270V330 9999 FEW030 SCT180 BKN/// 07/M04     Q1021 RMK 1CU030 4AC180 A3018=,
20180107_090000.002,0,RJNA,,,,0,20180107090000,-1,-1,-1,-1,300,-1,5,-1,-1,270,330,,9999,0,0,3,FEW 30   SCT 180   BKN -9999,1,7,-1,4,1021,RJNA 070900Z 30005KT 270V330 9999 FEW030 SCT180 BKN/// 07/M04     Q1021 RMK 1CU030 4AC180 A3018=,
20180107_100000.000,0,RJNA,,,,0,20180107100000,-1,-1,-1,-1,300,-1,5,-1,-1,-1,-1,,9999,0,0,3,FEW 30   BKN 180   BKN -9999,1,7,-1,4,1022,RJNA 071000Z 30005KT 9999 FEW030 BKN180 BKN/// 07/M04 Q1022 RMK     1CU030 6AC180 A3019=,
20180107_100000.002,0,RJNA,,,,0,20180107100000,-1,-1,-1,-1,300,-1,5,-1,-1,-1,-1,,9999,0,0,3,FEW 30   BKN 180   BKN -9999,1,7,-1,4,1022,RJNA 071000Z 30005KT 9999 FEW030 BKN180 BKN/// 07/M04 Q1022     RMK 1CU030 6AC180 A3019=,
20180107_110000.000,0,RJNA,,,,0,20180107110000,-1,-1,-1,-1,320,-1,3,-1,-1,290,360,,9999,0,0,2,FEW 30   BKN 170,1,6,-1,3,1022,RJNA 071100Z 32003KT 290V360 9999 FEW030 BKN170 06/M03 Q1022     RMK 1CU030 7AC170 A3019=,
20180107_110000.002,0,RJNA,,,,0,20180107110000,-1,-1,-1,-1,320,-1,3,-1,-1,290,360,,9999,0,0,2,FEW 30   BKN 170,1,6,-1,3,1022,RJNA 071100Z 32003KT 290V360 9999 FEW030 BKN170 06/M03 Q1022     RMK 1CU030 7AC170 A3019=,
20180107_120000.000,0,RJNA,,,,0,20180107120000,-1,-1,-1,-1,330,-1,5,-1,-1,-1,-1,,9999,0,0,2,FEW 30   BKN 150,1,6,-1,3,1022,RJNA 071200Z 33005KT 9999 FEW030 BKN150 06/M03 Q1022 RMK 1CU030     7AC150 A3019=,
20180107_120000.003,0,RJNA,,,,0,20180107120000,-1,-1,-1,-1,330,-1,5,-1,-1,-1,-1,,9999,0,0,2,FEW 30   BKN 150,1,6,-1,3,1022,RJNA 071200Z 33005KT 9999 FEW030 BKN150 06/M03 Q1022 RMK     1CU030 7AC150 A3019=,
20180107_130000.000,0,RJNA,,,,0,20180107130000,-1,-1,-1,-1,350,-1,3,-1,-1,-1,-1,,9999,0,0,2,FEW 30   BKN 130,1,5,-1,2,1022,RJNA 071300Z 35003KT 9999 FEW030 BKN130 05/M02 Q1022 RMK 1CU030     7AC130 A3020=,
20180107_130000.003,0,RJNA,,,,0,20180107130000,-1,-1,-1,-1,350,-1,3,-1,-1,-1,-1,,9999,0,0,2,FEW 30   BKN 130,1,5,-1,2,1022,RJNA 071300Z 35003KT 9999 FEW030 BKN130 05/M02 Q1022 RMK     1CU030 7AC130 A3020=,
20180107_140000.000,0,RJNA,,,,0,20180107140000,-1,-1,-1,-1,0,-1,0,-1,-1,-1,-1,,9999,0,0,3,FEW 30   BKN 130   BKN 170,1,4,-1,2,1022,RJNA 071400Z 00000KT 9999 FEW030 BKN130 BKN170 04/M02 Q1022 RMK     1CU030 5AC130 7AC170 A3019=,
20180107_140000.003,0,RJNA,,,,0,20180107140000,-1,-1,-1,-1,0,-1,0,-1,-1,-1,-1,,9999,0,0,3,FEW 30   BKN 130   BKN 170,1,4,-1,2,1022,RJNA 071400Z 00000KT 9999 FEW030 BKN130 BKN170 04/M02 Q1022     RMK 1CU030 5AC130 7AC170 A3019=,
20180107_150000.000,0,RJNA,,,,0,20180107150000,-1,-1,-1,-1,0,-1,0,-1,-1,-1,-1,,9999,0,0,2,FEW 30   BKN 120,1,4,-1,2,1021,RJNA 071500Z 00000KT 9999 FEW030 BKN120 04/M02 Q1021 RMK 1CU030     7AC120 A3018=,
20180107_150000.002,0,RJNA,,,,0,20180107150000,-1,-1,-1,-1,0,-1,0,-1,-1,-1,-1,,9999,0,0,2,FEW 30   BKN 120,1,4,-1,2,1021,RJNA 071500Z 00000KT 9999 FEW030 BKN120 04/M02 Q1021 RMK     1CU030 7AC120 A3018=,
20180107_160000.000,0,RJNA,,,,0,20180107160000,-1,-1,-1,-1,999,-1,1,-1,-1,-1,-1,,9999,0,0,2,FEW 30   BKN 110,1,4,-1,1,1021,RJNA 071600Z VRB01KT 9999 FEW030 BKN110 04/M01 Q1021 RMK 1CU030     7AC110 A3016=,
20180107_160000.002,0,RJNA,,,,0,20180107160000,-1,-1,-1,-1,999,-1,1,-1,-1,-1,-1,,9999,0,0,2,FEW 30   BKN 110,1,4,-1,1,1021,RJNA 071600Z VRB01KT 9999 FEW030 BKN110 04/M01 Q1021 RMK     1CU030 7AC110 A3016=,
20180107_170000.000,0,RJNA,,,,0,20180107170000,-1,-1,-1,-1,0,-1,0,-1,-1,-1,-1,,9999,0,0,2,FEW 30   BKN 110,1,4,-1,1,1021,RJNA 071700Z 00000KT 9999 FEW030 BKN110 04/M01 Q1021 RMK 1CU030     7AC110 A3016=,
20180107_170000.002,0,RJNA,,,,0,20180107170000,-1,-1,-1,-1,0,-1,0,-1,-1,-1,-1,,9999,0,0,2,FEW 30   BKN 110,1,4,-1,1,1021,RJNA 071700Z 00000KT 9999 FEW030 BKN110 04/M01 Q1021 RMK     1CU030 7AC110 A3016=,
20180107_180000.000,0,RJNA,,,,0,20180107180000,-1,-1,-1,-1,310,-1,3,-1,-1,280,340,,9999,0,0,3,FEW 30   BKN 40   BKN 110,1,5,-1,2,1021,RJNA 071800Z 31003KT 280V340 9999 FEW030 BKN040 BKN110 05/M02     Q1021 RMK 1CU030 5SC040 7AC110 A3016=,
20180107_180000.002,0,RJNA,,,,0,20180107180000,-1,-1,-1,-1,310,-1,3,-1,-1,280,340,,9999,0,0,3,FEW 30   BKN 40   BKN 110,1,5,-1,2,1021,RJNA 071800Z 31003KT 280V340 9999 FEW030 BKN040 BKN110 05/M02     Q1021 RMK 1CU030 5SC040 7AC110 A3016=,
20180107_190000.000,0,RJNA,,,,0,20180107190000,-1,-1,-1,-1,999,-1,1,-1,-1,-1,-1,,9999,0,0,2,FEW 30   BKN 40,1,4,-1,2,1020,RJNA 071900Z VRB01KT 9999 FEW030 BKN040 04/M02 Q1020 RMK 1CU030     7SC040 A3014=,
20180107_190000.003,0,RJNA,,,,0,20180107190000,-1,-1,-1,-1,999,-1,1,-1,-1,-1,-1,,9999,0,0,2,FEW 30   BKN 40,1,4,-1,2,1020,RJNA 071900Z VRB01KT 9999 FEW030 BKN040 04/M02 Q1020 RMK     1CU030 7SC040 A3014=,
20180107_200000.000,0,RJNA,,,,0,20180107200000,-1,-1,-1,-1,340,-1,4,-1,-1,-1,-1,,9999,0,0,3,FEW 30   BKN 40   BKN 100,1,4,-1,1,1019,RJNA 072000Z 34004KT 9999 FEW030 BKN040 BKN100 04/M01 Q1019 RMK     1CU030 5SC040 7AC100 A3010=,
20180107_200000.002,0,RJNA,,,,0,20180107200000,-1,-1,-1,-1,340,-1,4,-1,-1,-1,-1,,9999,0,0,3,FEW 30   BKN 40   BKN 100,1,4,-1,1,1019,RJNA 072000Z 34004KT 9999 FEW030 BKN040 BKN100 04/M01 Q1019     RMK 1CU030 5SC040 7AC100 A3010=,
20180107_210000.000,0,RJNA,,,,0,20180107210000,-1,-1,-1,-1,300,-1,5,-1,-1,-1,-1,,9999,0,0,3,FEW 25   BKN 35   BKN 100,1,5,-1,2,1019,RJNA 072100Z 30005KT 9999 FEW025 BKN035 BKN100 05/M02 Q1019 RMK     1CU025 6SC035 7AC100 A3012 10/03=,
20180107_210000.003,0,RJNA,,,,0,20180107210000,-1,-1,-1,-1,300,-1,5,-1,-1,-1,-1,,9999,0,0,3,FEW 25   BKN 35   BKN 100,1,5,-1,2,1019,RJNA 072100Z 30005KT 9999 FEW025 BKN035 BKN100 05/M02 Q1019     RMK 1CU025 6SC035 7AC100 A3012 10/03=,
20180107_220000.000,0,RJNA,,,,0,20180107220000,-1,-1,-1,-1,360,-1,3,-1,-1,-1,-1,,9999,0,0,3,FEW 30   BKN 40   BKN 80,1,5,-1,1,1020,RJNA 072200Z 36003KT 9999 FEW030 BKN040 BKN080 05/M01 Q1020 RMK     1CU030 5SC040 7AC080 A3012=,
20180107_220000.002,0,RJNA,,,,0,20180107220000,-1,-1,-1,-1,360,-1,3,-1,-1,-1,-1,,9999,0,0,3,FEW 30   BKN 40   BKN 80,1,5,-1,1,1020,RJNA 072200Z 36003KT 9999 FEW030 BKN040 BKN080 05/M01 Q1020     RMK 1CU030 5SC040 7AC080 A3012=,
20180107_230000.000,0,RJNA,,,,0,20180107230000,-1,-1,-1,-1,330,-1,3,-1,-1,-1,-1,,9999,0,1,3,FEW 15   BKN 40   BKN 100,1,5,1,0,1020,RJNA 072300Z 33003KT 9999 -RA FEW015 BKN040 BKN100 05/00 Q1020     RMK 1CU015 5SC040 7AS100 A3012=,- RA
20180107_230000.002,0,RJNA,,,,0,20180107230000,-1,-1,-1,-1,330,-1,3,-1,-1,-1,-1,,9999,0,1,3,FEW 15   BKN 40   BKN 100,1,5,1,0,1020,RJNA 072300Z 33003KT 9999 -RA FEW015 BKN040 BKN100 05/00 Q1020     RMK 1CU015 5SC040 7AS100 A3012=,- RA
20180108_000000.000,0,RJNA,,,,0,20180108000000,-1,-1,-1,-1,999,-1,2,-1,-1,-1,-1,,9999,0,1,2,FEW 15   BKN 40,1,4,1,2,1019,RJNA 080000Z VRB02KT 9999 -RA FEW015 BKN040 04/02 Q1019 RMK     1CU015 7SC040 A3011=,- RA
20180108_000000.002,0,RJNA,,,,0,20180108000000,-1,-1,-1,-1,999,-1,2,-1,-1,-1,-1,,9999,0,1,2,FEW 15   BKN 40,1,4,1,2,1019,RJNA 080000Z VRB02KT 9999 -RA FEW015 BKN040 04/02 Q1019 RMK     1CU015 7SC040 A3011=,- RA
20180108_010000.000,0,RJNA,,,,0,20180108010000,-1,-1,-1,-1,999,-1,1,-1,-1,-1,-1,,9999,0,1,2,FEW 15   BKN 40,1,5,1,3,1018,RJNA 080100Z VRB01KT 9999 -RA FEW015 BKN040 05/03 Q1018 RMK     1CU015 7SC040 A3008=,- RA
20180108_010000.002,0,RJNA,,,,0,20180108010000,-1,-1,-1,-1,999,-1,1,-1,-1,-1,-1,,9999,0,1,2,FEW 15   BKN 40,1,5,1,3,1018,RJNA 080100Z VRB01KT 9999 -RA FEW015 BKN040 05/03 Q1018 RMK     1CU015 7SC040 A3008=,- RA
20180108_020000.000,0,RJNA,,,,0,20180108020000,-1,-1,-1,-1,330,-1,5,-1,-1,-1,-1,,9999,0,1,3,FEW 15   SCT 30   BKN 40,1,5,1,4,1017,RJNA 080200Z 33005KT 9999 -RA FEW015 SCT030 BKN040 05/04 Q1017     RMK 1CU015 4CU030 7SC040 A3005=,- RA
20180108_020000.002,0,RJNA,,,,0,20180108020000,-1,-1,-1,-1,330,-1,5,-1,-1,-1,-1,,9999,0,1,3,FEW 15   SCT 30   BKN 40,1,5,1,4,1017,RJNA 080200Z 33005KT 9999 -RA FEW015 SCT030 BKN040 05/04 Q1017     RMK 1CU015 4CU030 7SC040 A3005=,- RA
20180108_030000.000,0,RJNA,,,,0,20180108030000,-1,-1,-1,-1,310,-1,6,-1,-1,-1,-1,,5000,0,2,3,FEW 15   BKN 30   BKN 40,1,5,1,4,1015,RJNA 080300Z 31006KT 5000 -RA BR FEW015 BKN030 BKN040 05/04     Q1015 RMK 1CU015 5CU030 7SC040 A3000=,- RA; BR
20180108_030000.002,0,RJNA,,,,0,20180108030000,-1,-1,-1,-1,310,-1,6,-1,-1,-1,-1,,5000,0,2,3,FEW 15   BKN 30   BKN 40,1,5,1,4,1015,RJNA 080300Z 31006KT 5000 -RA BR FEW015 BKN030 BKN040 05/04     Q1015 RMK 1CU015 5CU030 7SC040 A3000=,- RA; BR
20180108_040000.000,0,RJNA,,,,0,20180108040000,-1,-1,-1,-1,999,-1,2,-1,-1,-1,-1,,4000,0,2,3,FEW 15   BKN 30   BKN 40,1,6,1,5,1013,RJNA 080400Z VRB02KT 4000 -RA BR FEW015 BKN030 BKN040 06/05     Q1013 RMK 1CU015 5SC030 7SC040 A2992=,- RA; BR
20180108_040000.002,0,RJNA,,,,0,20180108040000,-1,-1,-1,-1,999,-1,2,-1,-1,-1,-1,,4000,0,2,3,FEW 15   BKN 30   BKN 40,1,6,1,5,1013,RJNA 080400Z VRB02KT 4000 -RA BR FEW015 BKN030 BKN040 06/05     Q1013 RMK 1CU015 5SC030 7SC040 A2992=,- RA; BR
20180108_050000.000,0,RJNA,,,,0,20180108050000,-1,-1,-1,-1,290,-1,3,-1,-1,250,310,,4000,0,2,3,FEW 15   BKN 25   BKN 40,1,6,1,6,1012,RJNA 080500Z 29003KT 250V310 4000 -RA BR FEW015 BKN025 BKN040     06/06 Q1012 RMK 1CU015 5SC025 7SC040 A2989 VIS S-SW 3500M=,- RA; BR
20180108_050000.002,0,RJNA,,,,0,20180108050000,-1,-1,-1,-1,290,-1,3,-1,-1,250,310,,4000,0,2,3,FEW 15   BKN 25   BKN 40,1,6,1,6,1012,RJNA 080500Z 29003KT 250V310 4000 -RA BR FEW015 BKN025 BKN040     06/06 Q1012 RMK 1CU015 5SC025 7SC040 A2989 VIS S-SW           3500M=,- RA; BR
20180108_060000.000,0,RJNA,,,,0,20180108060000,-1,-1,-1,-1,310,-1,4,-1,-1,280,350,,4000,0,2,3,FEW 10   BKN 25   BKN 40,1,6,1,6,1010,RJNA 080600Z 31004KT 280V350 4000 -RA BR FEW010 BKN025 BKN040     06/06 Q1010 RMK 1ST010 5SC025 7SC040 A2984 VIS S-SW 3500M=,- RA; BR
20180108_060000.003,0,RJNA,,,,0,20180108060000,-1,-1,-1,-1,310,-1,4,-1,-1,280,350,,4000,0,2,3,FEW 10   BKN 25   BKN 40,1,6,1,6,1010,RJNA 080600Z 31004KT 280V350 4000 -RA BR FEW010 BKN025 BKN040     06/06 Q1010 RMK 1ST010 5SC025 7SC040 A2984 VIS S-SW           3500M=,- RA; BR
20180108_070000.000,0,RJNA,,,,0,20180108070000,-1,-1,-1,-1,310,-1,5,-1,-1,-1,-1,,3500,0,2,3,FEW 4   BKN 20   BKN 35,1,7,1,6,1009,RJNA 080700Z 31005KT 3500 RA BR FEW004 BKN020 BKN035 07/06     Q1009 RMK 2ST004 5SC020 7SC035 A2982=,RA; BR
20180108_070000.002,0,RJNA,,,,0,20180108070000,-1,-1,-1,-1,310,-1,5,-1,-1,-1,-1,,3500,0,2,3,FEW 4   BKN 20   BKN 35,1,7,1,6,1009,RJNA 080700Z 31005KT 3500 RA BR FEW004 BKN020 BKN035 07/06     Q1009 RMK 2ST004 5SC020 7SC035 A2982=,RA; BR
20180108_080000.000,0,RJNA,,,,0,20180108080000,-1,-1,-1,-1,320,-1,7,-1,-1,-1,-1,,4000,0,2,3,FEW 4   SCT 10   BKN 15,1,7,1,6,1009,RJNA 080800Z 32007KT 4000 -RA BR FEW004 SCT010 BKN015 07/06     Q1009 RMK 2ST004 3ST010 5SC015 A2982 VIS S-SW 3500M=,- RA; BR
20180108_080000.002,0,RJNA,,,,0,20180108080000,-1,-1,-1,-1,320,-1,7,-1,-1,-1,-1,,4000,0,2,3,FEW 4   SCT 10   BKN 15,1,7,1,6,1009,RJNA 080800Z 32007KT 4000 -RA BR FEW004 SCT010 BKN015 07/06     Q1009 RMK 2ST004 3ST010 5SC015 A2982 VIS S-SW 3500M=,- RA; BR
20180108_090000.000,0,RJNA,,,,0,20180108090000,-1,-1,-1,-1,350,-1,4,-1,-1,-1,-1,,4500,0,2,3,FEW 4   BKN 15   BKN 25,1,7,1,6,1008,RJNA 080900Z 35004KT 4500 -RA BR FEW004 BKN015 BKN025 07/06     Q1008 RMK 1ST004 5SC015 7SC025 A2977=,- RA; BR
20180108_090000.002,0,RJNA,,,,0,20180108090000,-1,-1,-1,-1,350,-1,4,-1,-1,-1,-1,,4500,0,2,3,FEW 4   BKN 15   BKN 25,1,7,1,6,1008,RJNA 080900Z 35004KT 4500 -RA BR FEW004 BKN015 BKN025 07/06     Q1008 RMK 1ST004 5SC015 7SC025 A2977=,- RA; BR
20180108_100000.000,0,RJNA,,,,0,20180108100000,-1,-1,-1,-1,330,-1,6,-1,-1,-1,-1,,4500,0,2,3,FEW 4   BKN 15   BKN 25,1,7,1,6,1007,RJNA 081000Z 33006KT 4500 -RA BR FEW004 BKN015 BKN025 07/06     Q1007 RMK 1ST004 5SC015 7SC025 A2974=,- RA; BR
20180108_100000.002,0,RJNA,,,,0,20180108100000,-1,-1,-1,-1,330,-1,6,-1,-1,-1,-1,,4500,0,2,3,FEW 4   BKN 15   BKN 25,1,7,1,6,1007,RJNA 081000Z 33006KT 4500 -RA BR FEW004 BKN015 BKN025 07/06     Q1007 RMK 1ST004 5SC015 7SC025 A2974=,- RA; BR
20180108_110000.000,0,RJNA,,,,0,20180108110000,-1,-1,-1,-1,340,-1,4,-1,-1,-1,-1,,4500,0,2,3,FEW 4   SCT 10   BKN 15,1,7,1,6,1005,RJNA 081100Z 34004KT 4500 -RA BR FEW004 SCT010 BKN015 07/06     Q1005 RMK 1ST004 3ST010 7SC015 A2970=,- RA; BR
20180108_110000.002,0,RJNA,,,,0,20180108110000,-1,-1,-1,-1,340,-1,4,-1,-1,-1,-1,,4500,0,2,3,FEW 4   SCT 10   BKN 15,1,7,1,6,1005,RJNA 081100Z 34004KT 4500 -RA BR FEW004 SCT010 BKN015 07/06     Q1005 RMK 1ST004 3ST010 7SC015 A2970=,- RA; BR
20180108_120000.000,0,RJNA,,,,0,20180108120000,-1,-1,-1,-1,300,-1,5,-1,-1,-1,-1,,8000,0,1,2,FEW 4   BKN 15,1,7,1,6,1005,RJNA 081200Z 30005KT 8000 -RA FEW004 BKN015 07/06 Q1005 RMK     1ST004 7SC015 A2969=,- RA
20180108_120000.002,0,RJNA,,,,0,20180108120000,-1,-1,-1,-1,300,-1,5,-1,-1,-1,-1,,8000,0,1,2,FEW 4   BKN 15,1,7,1,6,1005,RJNA 081200Z 30005KT 8000 -RA FEW004 BKN015 07/06 Q1005 RMK     1ST004 7SC015 A2969=,- RA
20180108_130000.000,0,RJNA,,,,0,20180108130000,-1,-1,-1,-1,350,-1,3,-1,-1,-1,-1,,8000,0,1,3,FEW 4   BKN 15   BKN 30,1,7,1,6,1004,RJNA 081300Z 35003KT 8000 -RA FEW004 BKN015 BKN030 07/06 Q1004     RMK 1ST004 5SC015 7SC030 A2966=,- RA
20180108_130000.003,0,RJNA,,,,0,20180108130000,-1,-1,-1,-1,350,-1,3,-1,-1,-1,-1,,8000,0,1,3,FEW 4   BKN 15   BKN 30,1,7,1,6,1004,RJNA 081300Z 35003KT 8000 -RA FEW004 BKN015 BKN030 07/06 Q1004     RMK 1ST004 5SC015 7SC030 A2966=,- RA
20180108_140000.000,0,RJNA,,,,0,20180108140000,-1,-1,-1,-1,330,-1,3,-1,-1,300,360,,8000,0,1,3,FEW 5   BKN 15   BKN 30,1,7,1,7,1002,RJNA 081400Z 33003KT 300V360 8000 -RA FEW005 BKN015 BKN030     07/07 Q1002 RMK 1ST005 5SC015 7SC030 A2961=,- RA
20180108_140000.002,0,RJNA,,,,0,20180108140000,-1,-1,-1,-1,330,-1,3,-1,-1,300,360,,8000,0,1,3,FEW 5   BKN 15   BKN 30,1,7,1,7,1002,RJNA 081400Z 33003KT 300V360 8000 -RA FEW005 BKN015 BKN030     07/07 Q1002 RMK 1ST005 5SC015 7SC030 A2961=,- RA
20180108_150000.000,0,RJNA,,,,0,20180108150000,-1,-1,-1,-1,999,-1,1,-1,-1,-1,-1,,6000,0,1,3,FEW 5   BKN 15   BKN 30,1,7,1,7,1001,RJNA 081500Z VRB01KT 6000 -RA FEW005 BKN015 BKN030 07/07 Q1001     RMK 1ST005 5SC015 7SC030 A2957=,- RA
20180108_150000.002,0,RJNA,,,,0,20180108150000,-1,-1,-1,-1,999,-1,1,-1,-1,-1,-1,,6000,0,1,3,FEW 5   BKN 15   BKN 30,1,7,1,7,1001,RJNA 081500Z VRB01KT 6000 -RA FEW005 BKN015 BKN030 07/07 Q1001     RMK 1ST005 5SC015 7SC030 A2957=,- RA
20180108_160000.000,0,RJNA,,,,0,20180108160000,-1,-1,-1,-1,999,-1,2,-1,-1,-1,-1,,4500,0,2,3,FEW 3   SCT 5   BKN 15,1,7,1,7,1000,RJNA 081600Z VRB02KT 4500 -RA BR FEW003 SCT005 BKN015 07/07     Q1000 RMK 1ST003 3ST005 7SC015 A2954=,- RA; BR
20180108_160000.002,0,RJNA,,,,0,20180108160000,-1,-1,-1,-1,999,-1,2,-1,-1,-1,-1,,4500,0,2,3,FEW 3   SCT 5   BKN 15,1,7,1,7,1000,RJNA 081600Z VRB02KT 4500 -RA BR FEW003 SCT005 BKN015 07/07     Q1000 RMK 1ST003 3ST005 7SC015 A2954=,- RA; BR
20180108_170000.000,0,RJNA,,,,0,20180108170000,-1,-1,-1,-1,360,-1,3,-1,-1,320,40,,2500,0,2,3,FEW 1   BKN 2   BKN 5,1,7,1,7,1000,RJNA 081700Z 36003KT 320V040 2500 -RA BR FEW001 BKN002 BKN005     07/07 Q1000 RMK 1ST001 5ST002 6ST005 A2953=,- RA; BR
20180108_170000.002,0,RJNA,,,,0,20180108170000,-1,-1,-1,-1,360,-1,3,-1,-1,320,40,,2500,0,2,3,FEW 1   BKN 2   BKN 5,1,7,1,7,1000,RJNA 081700Z 36003KT 320V040 2500 -RA BR FEW001 BKN002 BKN005     07/07 Q1000 RMK 1ST001 5ST002 6ST005 A2953=,- RA; BR
20180108_180000.000,0,RJNA,,,,0,20180108180000,-1,-1,-1,-1,999,-1,2,-1,-1,-1,-1,,3500,0,2,3,FEW 3   SCT 6   BKN 25,1,7,1,7,999,RJNA 081800Z VRB02KT 3500 -RA BR FEW003 SCT006 BKN025 07/07     Q0999 RMK 2ST003 4ST006 5SC025 A2952=,- RA; BR
20180108_180000.002,0,RJNA,,,,0,20180108180000,-1,-1,-1,-1,999,-1,2,-1,-1,-1,-1,,3500,0,2,3,FEW 3   SCT 6   BKN 25,1,7,1,7,999,RJNA 081800Z VRB02KT 3500 -RA BR FEW003 SCT006 BKN025 07/07     Q0999 RMK 2ST003 4ST006 5SC025 A2952=,- RA; BR
20180108_190000.000,0,RJNA,,,,0,20180108190000,-1,-1,-1,-1,999,-1,1,-1,-1,-1,-1,,3500,0,1,3,FEW 2   SCT 6   BKN 15,1,7,1,7,998,RJNA 081900Z VRB01KT 3500 BR FEW002 SCT006 BKN015 07/07 Q0998     RMK 1ST002 3ST006 6SC015 A2948=,BR
20180108_190000.002,0,RJNA,,,,0,20180108190000,-1,-1,-1,-1,999,-1,1,-1,-1,-1,-1,,3500,0,1,3,FEW 2   SCT 6   BKN 15,1,7,1,7,998,RJNA 081900Z VRB01KT 3500 BR FEW002 SCT006 BKN015 07/07 Q0998     RMK 1ST002 3ST006 6SC015 A2948=,BR
20180108_200000.000,0,RJNA,,,,0,20180108200000,-1,-1,-1,-1,300,-1,5,-1,-1,-1,-1,,3500,0,2,3,FEW 3   BKN 6   BKN 15,1,7,1,7,999,RJNA 082000Z 30005KT 3500 -RA BR FEW003 BKN006 BKN015 07/07     Q0999 RMK 1ST003 6ST006 7SC015 A2951=,- RA; BR
20180108_200000.002,0,RJNA,,,,0,20180108200000,-1,-1,-1,-1,300,-1,5,-1,-1,-1,-1,,3500,0,2,3,FEW 3   BKN 6   BKN 15,1,7,1,7,999,RJNA 082000Z 30005KT 3500 -RA BR FEW003 BKN006 BKN015 07/07     Q0999 RMK 1ST003 6ST006 7SC015 A2951=,- RA; BR
20180108_210000.000,0,RJNA,,,,0,20180108210000,-1,-1,-1,-1,999,-1,1,-1,-1,-1,-1,,4500,0,1,3,FEW 3   SCT 5   BKN 10,1,7,1,7,999,RJNA 082100Z VRB01KT 4500 BR FEW003 SCT005 BKN010 07/07 Q0999     RMK 1ST003 3ST005 5ST010 A2951 07/07 R020=,BR
20180108_210000.003,0,RJNA,,,,0,20180108210000,-1,-1,-1,-1,999,-1,1,-1,-1,-1,-1,,4500,0,1,3,FEW 3   SCT 5   BKN 10,1,7,1,7,999,RJNA 082100Z VRB01KT 4500 BR FEW003 SCT005 BKN010 07/07 Q0999     RMK 1ST003 3ST005 5ST010 A2951 07/07 R020=,BR
20180108_220000.000,0,RJNA,,,,0,20180108220000,-1,-1,-1,-1,320,-1,7,-1,-1,-1,-1,,9999,0,1,3,FEW 5   BKN 10   BKN 30,1,8,1,8,1000,RJNA 082200Z 32007KT 9999 -RA FEW005 BKN010 BKN030 08/08 Q1000     RMK 1ST005 5ST010 7SC030 A2954=,- RA
20180108_220000.002,0,RJNA,,,,0,20180108220000,-1,-1,-1,-1,320,-1,7,-1,-1,-1,-1,,9999,0,1,3,FEW 5   BKN 10   BKN 30,1,8,1,8,1000,RJNA 082200Z 32007KT 9999 -RA FEW005 BKN010 BKN030 08/08 Q1000     RMK 1ST005 5ST010 7SC030 A2954=,- RA
20180108_230000.000,0,RJNA,,,,0,20180108230000,-1,-1,-1,-1,999,-1,1,-1,-1,-1,-1,,9999,0,1,3,FEW 5   SCT 25   BKN 50,1,8,1,7,1001,RJNA 082300Z VRB01KT 9999 -RA FEW005 SCT025 BKN050 08/07 Q1001     RMK 1ST005 4SC025 7SC050 A2957=,- RA
20180108_230000.003,0,RJNA,,,,0,20180108230000,-1,-1,-1,-1,999,-1,1,-1,-1,-1,-1,,9999,0,1,3,FEW 5   SCT 25   BKN 50,1,8,1,7,1001,RJNA 082300Z VRB01KT 9999 -RA FEW005 SCT025 BKN050 08/07 Q1001     RMK 1ST005 4SC025 7SC050 A2957=,- RA
20180109_000000.000,0,RJNA,,,,0,20180109000000,-1,-1,-1,-1,290,-1,4,-1,-1,210,330,,9999,0,0,3,FEW 5   SCT 25   BKN 60,1,9,1,6,1001,RJNA 090000Z 29004KT 210V330 9999 FEW005 SCT025 BKN060 09/06     Q1001 RMK 1ST005 3SC025 7SC060 A2957=,
20180109_000000.002,0,RJNA,,,,0,20180109000000,-1,-1,-1,-1,290,-1,4,-1,-1,210,330,,9999,0,0,3,FEW 5   SCT 25   BKN 60,1,9,1,6,1001,RJNA 090000Z 29004KT 210V330 9999 FEW005 SCT025 BKN060 09/06     Q1001 RMK 1ST005 3SC025 7SC060 A2957=,
20180109_010000.000,0,RJNA,,,,0,20180109010000,-1,-1,-1,-1,280,-1,6,-1,-1,200,320,,9999,0,0,3,FEW 10   SCT 30   BKN 60,1,10,1,5,1001,RJNA 090100Z 28006KT 200V320 9999 FEW010 SCT030 BKN060 10/05     Q1001 RMK 1ST010 3SC030 7SC060 A2958=,
20180109_010000.002,0,RJNA,,,,0,20180109010000,-1,-1,-1,-1,280,-1,6,-1,-1,200,320,,9999,0,0,3,FEW 10   SCT 30   BKN 60,1,10,1,5,1001,RJNA 090100Z 28006KT 200V320 9999 FEW010 SCT030 BKN060 10/05     Q1001 RMK 1ST010 3SC030 7SC060 A2958=,
20180109_020000.000,0,RJNA,,,,0,20180109020000,-1,-1,-1,-1,310,-1,15,-1,-1,-1,-1,,9999,0,1,3,FEW 8   SCT 15   BKN 20,1,8,1,5,1001,RJNA 090200Z 31015KT 9999 -SHRA FEW008 SCT015 BKN020 08/05     Q1001 RMK 1CU008 3CU015 5CU020 A2958=,- RA SH
20180109_020000.002,0,RJNA,,,,0,20180109020000,-1,-1,-1,-1,310,-1,15,-1,-1,-1,-1,,9999,0,1,3,FEW 8   SCT 15   BKN 20,1,8,1,5,1001,RJNA 090200Z 31015KT 9999 -SHRA FEW008 SCT015 BKN020 08/05     Q1001 RMK 1CU008 3CU015 5CU020 A2958=,- RA SH
20180109_030000.000,0,RJNA,,,,0,20180109030000,-1,-1,-1,-1,320,-1,14,-1,-1,-1,-1,,9999,0,1,3,FEW 5   SCT 15   BKN 25,1,7,1,4,1001,RJNA 090300Z 32014KT 9999 -SHRA FEW005 SCT015 BKN025 07/04     Q1001 RMK 1ST005 3CU015 5CU025 A2958=,- RA SH
20180109_030000.002,0,RJNA,,,,0,20180109030000,-1,-1,-1,-1,320,-1,14,-1,-1,-1,-1,,9999,0,1,3,FEW 5   SCT 15   BKN 25,1,7,1,4,1001,RJNA 090300Z 32014KT 9999 -SHRA FEW005 SCT015 BKN025 07/04     Q1001 RMK 1ST005 3CU015 5CU025 A2958=,- RA SH
20180109_040000.000,0,RJNA,,,,0,20180109040000,-1,-1,-1,-1,310,-1,9,-1,-1,-1,-1,,9999,0,1,3,FEW 5   SCT 15   BKN 25,1,8,1,4,1000,RJNA 090400Z 31009KT 9999 -SHRA FEW005 SCT015 BKN025 08/04     Q1000 RMK 1ST005 3CU015 5CU025 A2956=,- RA SH
20180109_040000.002,0,RJNA,,,,0,20180109040000,-1,-1,-1,-1,310,-1,9,-1,-1,-1,-1,,9999,0,1,3,FEW 5   SCT 15   BKN 25,1,8,1,4,1000,RJNA 090400Z 31009KT 9999 -SHRA FEW005 SCT015 BKN025 08/04     Q1000 RMK 1ST005 3CU015 5CU025 A2956=,- RA SH
20180109_050000.000,0,RJNA,,,,0,20180109050000,-1,-1,-1,-1,300,-1,13,-1,-1,270,330,,9999,0,0,3,FEW 5   SCT 25   BKN 45,1,9,1,3,1001,RJNA 090500Z 30013KT 270V330 9999 FEW005 SCT025 BKN045 09/03     Q1001 RMK 1ST005 3CU025 5SC045 A2958 MAX WIND 22KT=,
20180109_050000.002,0,RJNA,,,,0,20180109050000,-1,-1,-1,-1,300,-1,13,-1,-1,270,330,,9999,0,0,3,FEW 5   SCT 25   BKN 45,1,9,1,3,1001,RJNA 090500Z 30013KT 270V330 9999 FEW005 SCT025 BKN045 09/03     Q1001 RMK 1ST005 3CU025 5SC045 A2958 MAX WIND 22KT=,
20180109_060000.000,0,RJNA,,,,0,20180109060000,-1,-1,-1,-1,290,-1,12,-1,-1,250,320,,9999,0,0,3,FEW 15   SCT 25   BKN 70,1,8,1,2,1003,RJNA 090600Z 29012KT 250V320 9999 FEW015 SCT025 BKN070 08/02     Q1003 RMK 1CU015 3CU025 6AC070 A2962 MAX WIND 21KT=,
20180109_060000.002,0,RJNA,,,,0,20180109060000,-1,-1,-1,-1,290,-1,12,-1,-1,250,320,,9999,0,0,3,FEW 15   SCT 25   BKN 70,1,8,1,2,1003,RJNA 090600Z 29012KT 250V320 9999 FEW015 SCT025 BKN070 08/02     Q1003 RMK 1CU015 3CU025 6AC070 A2962 MAX WIND 21KT=,
20180109_070000.000,0,RJNA,,,,0,20180109070000,-1,-1,-1,-1,310,-1,13,-1,-1,270,330,,9999,0,0,3,FEW 15   BKN 45   BKN 70,1,6,1,1,1004,RJNA 090700Z 31013KT 270V330 9999 FEW015 BKN045 BKN070 06/01     Q1004 RMK 1CU015 5SC045 5AC070 A2966 MAX WIND 21KT=,
20180109_070000.002,0,RJNA,,,,0,20180109070000,-1,-1,-1,-1,310,-1,13,-1,-1,270,330,,9999,0,0,3,FEW 15   BKN 45   BKN 70,1,6,1,1,1004,RJNA 090700Z 31013KT 270V330 9999 FEW015 BKN045 BKN070 06/01     Q1004 RMK 1CU015 5SC045 5AC070 A2966 MAX WIND 21KT=,
20180109_080000.000,0,RJNA,,,,0,20180109080000,-1,-1,-1,-1,310,-1,13,-1,-1,-1,-1,,9999,0,0,2,FEW 20   SCT 70,1,5,1,1,1005,RJNA 090800Z 31013KT 9999 FEW020 SCT070 05/01 Q1005 RMK 1CU020     3AC070 A2969=,
20180109_080000.002,0,RJNA,,,,0,20180109080000,-1,-1,-1,-1,310,-1,13,-1,-1,-1,-1,,9999,0,0,2,FEW 20   SCT 70,1,5,1,1,1005,RJNA 090800Z 31013KT 9999 FEW020 SCT070 05/01 Q1005 RMK 1CU020     3AC070 A2969=,
20180109_090000.000,0,RJNA,,,,0,20180109090000,-1,-1,-1,-1,300,-1,14,-1,-1,-1,-1,,9999,0,0,1,FEW 20,1,5,-1,2,1006,RJNA 090900Z 30014KT 9999 FEW020 05/M02 Q1006 RMK 1CU020 A2973     MAX WIND 22KT=,
20180109_090000.002,0,RJNA,,,,0,20180109090000,-1,-1,-1,-1,300,-1,14,-1,-1,-1,-1,,9999,0,0,1,FEW 20,1,5,-1,2,1006,RJNA 090900Z 30014KT 9999 FEW020 05/M02 Q1006 RMK 1CU020 A2973     MAX WIND 22KT=,
20180109_100000.000,0,RJNA,,,,0,20180109100000,-1,-1,-1,-1,310,-1,12,-1,-1,280,340,,9999,0,0,2,FEW 20   BKN 50,1,5,-1,2,1008,RJNA 091000Z 31012KT 280V340 9999 FEW020 BKN050 05/M02 Q1008     RMK 1CU020 5SC050 A2978=,
20180109_100000.002,0,RJNA,,,,0,20180109100000,-1,-1,-1,-1,310,-1,12,-1,-1,280,340,,9999,0,0,2,FEW 20   BKN 50,1,5,-1,2,1008,RJNA 091000Z 31012KT 280V340 9999 FEW020 BKN050 05/M02 Q1008     RMK 1CU020 5SC050 A2978=,
20180109_110000.000,0,RJNA,,,,0,20180109110000,-1,-1,-1,-1,320,-1,8,-1,-1,-1,-1,,9999,0,0,2,FEW 20   BKN 50,1,4,-1,1,1009,RJNA 091100Z 32008KT 9999 FEW020 BKN050 04/M01 Q1009 RMK 1CU020     7SC050 A2981=,
20180109_110000.002,0,RJNA,,,,0,20180109110000,-1,-1,-1,-1,320,-1,8,-1,-1,-1,-1,,9999,0,0,2,FEW 20   BKN 50,1,4,-1,1,1009,RJNA 091100Z 32008KT 9999 FEW020 BKN050 04/M01 Q1009 RMK     1CU020 7SC050 A2981=,
20180109_120000.000,0,RJNA,,,,0,20180109120000,-1,-1,-1,-1,310,-1,10,-1,-1,-1,-1,,9999,0,0,2,FEW 20   BKN 50,1,4,-1,1,1009,RJNA 091200Z 31010KT 9999 FEW020 BKN050 04/M01 Q1009 RMK 1CU020     7SC050 A2982=,
20180109_120000.002,0,RJNA,,,,0,20180109120000,-1,-1,-1,-1,310,-1,10,-1,-1,-1,-1,,9999,0,0,2,FEW 20   BKN 50,1,4,-1,1,1009,RJNA 091200Z 31010KT 9999 FEW020 BKN050 04/M01 Q1009 RMK     1CU020 7SC050 A2982=,
20180109_130000.000,0,RJNA,,,,0,20180109130000,-1,-1,-1,-1,310,-1,11,-1,-1,-1,-1,,9999,0,0,2,FEW 20   SCT 50,1,4,-1,2,1009,RJNA 091300Z 31011KT 9999 FEW020 SCT050 04/M02 Q1009 RMK 1CU020     4SC050 A2981=,
20180109_130000.002,0,RJNA,,,,0,20180109130000,-1,-1,-1,-1,310,-1,11,-1,-1,-1,-1,,9999,0,0,2,FEW 20   SCT 50,1,4,-1,2,1009,RJNA 091300Z 31011KT 9999 FEW020 SCT050 04/M02 Q1009 RMK     1CU020 4SC050 A2981=,
20180109_140000.000,0,RJNA,,,,0,20180109140000,-1,-1,-1,-1,999,-1,1,-1,-1,-1,-1,,9999,0,0,2,FEW 20   BKN 50,1,4,-1,2,1010,RJNA 091400Z VRB01KT 9999 FEW020 BKN050 04/M02 Q1010 RMK 1CU020     5SC050 A2984=,
20180109_140000.002,0,RJNA,,,,0,20180109140000,-1,-1,-1,-1,999,-1,1,-1,-1,-1,-1,,9999,0,0,2,FEW 20   BKN 50,1,4,-1,2,1010,RJNA 091400Z VRB01KT 9999 FEW020 BKN050 04/M02 Q1010 RMK     1CU020 5SC050 A2984=,
20180109_150000.000,0,RJNA,,,,0,20180109150000,-1,-1,-1,-1,999,-1,2,-1,-1,-1,-1,,9999,0,0,1,FEW 25,1,3,-1,2,1010,RJNA 091500Z VRB02KT 9999 FEW025 03/M02 Q1010 RMK 1CU025 A2984=,
20180109_150000.002,0,RJNA,,,,0,20180109150000,-1,-1,-1,-1,999,-1,2,-1,-1,-1,-1,,9999,0,0,1,FEW 25,1,3,-1,2,1010,RJNA 091500Z VRB02KT 9999 FEW025 03/M02 Q1010 RMK 1CU025     A2984=,
20180109_160000.000,0,RJNA,,,,0,20180109160000,-1,-1,-1,-1,260,-1,5,-1,-1,210,300,,9999,0,0,1,FEW 25,1,4,-1,4,1010,RJNA 091600Z 26005KT 210V300 9999 FEW025 04/M04 Q1010 RMK     1CU025 A2984=,
20180109_160000.002,0,RJNA,,,,0,20180109160000,-1,-1,-1,-1,260,-1,5,-1,-1,210,300,,9999,0,0,1,FEW 25,1,4,-1,4,1010,RJNA 091600Z 26005KT 210V300 9999 FEW025 04/M04 Q1010 RMK     1CU025 A2984=,
20180109_170000.000,0,RJNA,,,,0,20180109170000,-1,-1,-1,-1,280,-1,3,-1,-1,240,310,,9999,0,0,1,FEW 25,1,4,-1,5,1010,RJNA 091700Z 28003KT 240V310 9999 FEW025 04/M05 Q1010 RMK     1CU025 A2985=,
20180109_170000.002,0,RJNA,,,,0,20180109170000,-1,-1,-1,-1,280,-1,3,-1,-1,240,310,,9999,0,0,1,FEW 25,1,4,-1,5,1010,RJNA 091700Z 28003KT 240V310 9999 FEW025 04/M05 Q1010 RMK     1CU025 A2985=,
20180109_180000.000,0,RJNA,,,,0,20180109180000,-1,-1,-1,-1,999,-1,1,-1,-1,-1,-1,,9999,0,0,1,FEW 25,1,1,-1,4,1011,RJNA 091800Z VRB01KT 9999 FEW025 01/M04 Q1011 RMK 1CU025 A2986=,
20180109_180000.002,0,RJNA,,,,0,20180109180000,-1,-1,-1,-1,999,-1,1,-1,-1,-1,-1,,9999,0,0,1,FEW 25,1,1,-1,4,1011,RJNA 091800Z VRB01KT 9999 FEW025 01/M04 Q1011 RMK 1CU025     A2986=,
20180109_190000.000,0,RJNA,,,,0,20180109190000,-1,-1,-1,-1,999,-1,2,-1,-1,-1,-1,,9999,0,0,1,FEW 30,-1,0,-1,3,1011,RJNA 091900Z VRB02KT 9999 FEW030 M00/M03 Q1011 RMK 1CU030     A2986=,
20180109_190000.003,0,RJNA,,,,0,20180109190000,-1,-1,-1,-1,999,-1,2,-1,-1,-1,-1,,9999,0,0,1,FEW 30,-1,0,-1,3,1011,RJNA 091900Z VRB02KT 9999 FEW030 M00/M03 Q1011 RMK 1CU030     A2986=,
20180109_200000.000,0,RJNA,,,,0,20180109200000,-1,-1,-1,-1,999,-1,1,-1,-1,-1,-1,,9999,0,0,1,FEW 30,-1,0,-1,2,1011,RJNA 092000Z VRB01KT 9999 FEW030 M00/M02 Q1011 RMK 1CU030     A2987=,
20180109_200000.002,0,RJNA,,,,0,20180109200000,-1,-1,-1,-1,999,-1,1,-1,-1,-1,-1,,9999,0,0,1,FEW 30,-1,0,-1,2,1011,RJNA 092000Z VRB01KT 9999 FEW030 M00/M02 Q1011 RMK 1CU030     A2987=,
20180109_210000.000,0,RJNA,,,,0,20180109210000,-1,-1,-1,-1,999,-1,1,-1,-1,-1,-1,,9999,0,0,1,FEW 30,-1,1,-1,3,1011,RJNA 092100Z VRB01KT 9999 FEW030 M01/M03 Q1011 RMK 1CU030 A2988     29034KT/0500 10/M01 R001=,
20180109_210000.002,0,RJNA,,,,0,20180109210000,-1,-1,-1,-1,999,-1,1,-1,-1,-1,-1,,9999,0,0,1,FEW 30,-1,1,-1,3,1011,RJNA 092100Z VRB01KT 9999 FEW030 M01/M03 Q1011 RMK 1CU030     A2988 29034KT/0500 10/M01 R001=,
20180109_220000.000,0,RJNA,,,,0,20180109220000,-1,-1,-1,-1,110,-1,3,-1,-1,-1,-1,,9999,0,0,1,FEW 20,-1,0,-1,3,1012,RJNA 092200Z 11003KT 9999 FEW020 M00/M03 Q1012 RMK 1CU020     A2989=,
20180109_220000.002,0,RJNA,,,,0,20180109220000,-1,-1,-1,-1,110,-1,3,-1,-1,-1,-1,,9999,0,0,1,FEW 20,-1,0,-1,3,1012,RJNA 092200Z 11003KT 9999 FEW020 M00/M03 Q1012 RMK 1CU020     A2989=,
20180109_230000.000,0,RJNA,,,,0,20180109230000,-1,-1,-1,-1,999,-1,1,-1,-1,-1,-1,,9999,0,0,1,FEW 30,1,0,-1,2,1012,RJNA 092300Z VRB01KT 9999 FEW030 00/M02 Q1012 RMK 1CU030 A2990=,
20180109_230000.002,0,RJNA,,,,0,20180109230000,-1,-1,-1,-1,999,-1,1,-1,-1,-1,-1,,9999,0,0,1,FEW 30,1,0,-1,2,1012,RJNA 092300Z VRB01KT 9999 FEW030 00/M02 Q1012 RMK 1CU030     A2990=,
20180110_000000.000,0,RJNA,,,,0,20180110000000,-1,-1,-1,-1,100,-1,3,-1,-1,-1,-1,,9999,0,0,1,FEW 30,1,3,-1,1,1012,RJNA 100000Z 10003KT 9999 FEW030 03/M01 Q1012 RMK 1CU030 A2990=,
20180110_000000.002,0,RJNA,,,,0,20180110000000,-1,-1,-1,-1,100,-1,3,-1,-1,-1,-1,,9999,0,0,1,FEW 30,1,3,-1,1,1012,RJNA 100000Z 10003KT 9999 FEW030 03/M01 Q1012 RMK 1CU030     A2990=,
20180110_010000.000,0,RJNA,,,,0,20180110010000,-1,-1,-1,-1,290,-1,4,-1,-1,230,350,,9999,0,0,2,FEW 30   SCT 60,1,6,-1,3,1012,RJNA 100100Z 29004KT 230V350 9999 FEW030 SCT060 06/M03 Q1012     RMK 1CU030 3SC060 A2990=,
20180110_010000.002,0,RJNA,,,,0,20180110010000,-1,-1,-1,-1,290,-1,4,-1,-1,230,350,,9999,0,0,2,FEW 30   SCT 60,1,6,-1,3,1012,RJNA 100100Z 29004KT 230V350 9999 FEW030 SCT060 06/M03 Q1012     RMK 1CU030 3SC060 A2990=,
20180110_020000.000,0,RJNA,,,,0,20180110020000,-1,-1,-1,-1,270,-1,7,-1,-1,220,300,,9999,0,0,1,FEW 30,1,7,-1,3,1011,RJNA 100200Z 27007KT 220V300 9999 FEW030 07/M03 Q1011 RMK     1CU030 A2987=,
20180110_020000.002,0,RJNA,,,,0,20180110020000,-1,-1,-1,-1,270,-1,7,-1,-1,220,300,,9999,0,0,1,FEW 30,1,7,-1,3,1011,RJNA 100200Z 27007KT 220V300 9999 FEW030 07/M03 Q1011 RMK     1CU030 A2987=,
20180110_030000.000,0,RJNA,,,,0,20180110030000,-1,-1,-1,-1,999,-1,5,-1,-1,-1,-1,,9999,0,0,1,FEW 30,1,8,-1,3,1010,RJNA 100300Z VRB05KT 9999 FEW030 08/M03 Q1010 RMK 1CU030 A2984=,
20180110_030000.002,0,RJNA,,,,0,20180110030000,-1,-1,-1,-1,999,-1,5,-1,-1,-1,-1,,9999,0,0,1,FEW 30,1,8,-1,3,1010,RJNA 100300Z VRB05KT 9999 FEW030 08/M03 Q1010 RMK 1CU030     A2984=,
20180110_040000.000,0,RJNA,,,,0,20180110040000,-1,-1,-1,-1,200,-1,7,-1,-1,-1,-1,,9999,0,0,1,FEW 30,1,9,-1,4,1009,RJNA 100400Z 20007KT 9999 FEW030 09/M04 Q1009 RMK 1CU030 A2980=,
20180110_040000.003,0,RJNA,,,,0,20180110040000,-1,-1,-1,-1,200,-1,7,-1,-1,-1,-1,,9999,0,0,1,FEW 30,1,9,-1,4,1009,RJNA 100400Z 20007KT 9999 FEW030 09/M04 Q1009 RMK 1CU030     A2980=,
20180110_050000.000,0,RJNA,,,,0,20180110050000,-1,-1,-1,-1,290,-1,8,-1,-1,230,330,,9999,0,0,1,FEW 30,1,9,-1,5,1008,RJNA 100500Z 29008KT 230V330 9999 FEW030 09/M05 Q1008 RMK     1CU030 A2979=,
20180110_050000.002,0,RJNA,,,,0,20180110050000,-1,-1,-1,-1,290,-1,8,-1,-1,230,330,,9999,0,0,1,FEW 30,1,9,-1,5,1008,RJNA 100500Z 29008KT 230V330 9999 FEW030 09/M05 Q1008 RMK     1CU030 A2979=,
20180110_060000.000,0,RJNA,,,,0,20180110060000,-1,-1,-1,-1,280,-1,8,-1,-1,250,310,,9999,0,0,3,FEW 30   SCT 50   BKN 90,1,9,-1,5,1009,RJNA 100600Z 28008KT 250V310 9999 FEW030 SCT050 BKN090 09/M05     Q1009 RMK 1CU030 3SC050 5AC090 A2980=,
20180110_060000.002,0,RJNA,,,,0,20180110060000,-1,-1,-1,-1,280,-1,8,-1,-1,250,310,,9999,0,0,3,FEW 30   SCT 50   BKN 90,1,9,-1,5,1009,RJNA 100600Z 28008KT 250V310 9999 FEW030 SCT050 BKN090 09/M05     Q1009 RMK 1CU030 3SC050 5AC090 A2980=,
20180110_070000.000,0,RJNA,,,,0,20180110070000,-1,-1,-1,-1,280,-1,10,-1,-1,240,310,,9999,0,0,2,FEW 30   BKN 60,1,8,-1,4,1009,RJNA 100700Z 28010KT 240V310 9999 FEW030 BKN060 08/M04 Q1009     RMK 1CU030 5SC060 A2980=,
20180110_070000.002,0,RJNA,,,,0,20180110070000,-1,-1,-1,-1,280,-1,10,-1,-1,240,310,,9999,0,0,2,FEW 30   BKN 60,1,8,-1,4,1009,RJNA 100700Z 28010KT 240V310 9999 FEW030 BKN060 08/M04 Q1009     RMK 1CU030 5SC060 A2980=,
20180110_080000.000,0,RJNA,,,,0,20180110080000,-1,-1,-1,-1,250,-1,6,-1,-1,200,280,,9999,0,0,3,FEW 30   SCT 50   BKN 90,1,8,-1,2,1009,RJNA 100800Z 25006KT 200V280 9999 FEW030 SCT050 BKN090 08/M02     Q1009 RMK 1CU030 4SC050 5AC090 A2981=,
20180110_080000.002,0,RJNA,,,,0,20180110080000,-1,-1,-1,-1,250,-1,6,-1,-1,200,280,,9999,0,0,3,FEW 30   SCT 50   BKN 90,1,8,-1,2,1009,RJNA 100800Z 25006KT 200V280 9999 FEW030 SCT050 BKN090 08/M02     Q1009 RMK 1CU030 4SC050 5AC090 A2981=,
20180110_090000.000,0,RJNA,,,,0,20180110090000,-1,-1,-1,-1,260,-1,4,-1,-1,200,310,,9999,0,0,2,FEW 30   SCT 60,1,7,-1,1,1009,RJNA 100900Z 26004KT 200V310 9999 FEW030 SCT060 07/M01 Q1009     RMK 1CU030 3SC060 A2982=,
20180110_090000.002,0,RJNA,,,,0,20180110090000,-1,-1,-1,-1,260,-1,4,-1,-1,200,310,,9999,0,0,2,FEW 30   SCT 60,1,7,-1,1,1009,RJNA 100900Z 26004KT 200V310 9999 FEW030 SCT060 07/M01 Q1009     RMK 1CU030 3SC060 A2982=,
20180110_100000.000,0,RJNA,,,,0,20180110100000,-1,-1,-1,-1,230,-1,6,-1,-1,190,270,,9999,0,0,3,FEW 30   SCT 50   BKN 80,1,6,-1,2,1009,RJNA 101000Z 23006KT 190V270 9999 FEW030 SCT050 BKN080 06/M02     Q1009 RMK 1CU030 3SC050 5AC080 A2982=,
20180110_100000.002,0,RJNA,,,,0,20180110100000,-1,-1,-1,-1,230,-1,6,-1,-1,190,270,,9999,0,0,3,FEW 30   SCT 50   BKN 80,1,6,-1,2,1009,RJNA 101000Z 23006KT 190V270 9999 FEW030 SCT050 BKN080 06/M02     Q1009 RMK 1CU030 3SC050 5AC080 A2982=,
20180110_110000.000,0,RJNA,,,,0,20180110110000,-1,-1,-1,-1,280,-1,10,-1,-1,250,310,,9999,0,1,3,FEW 30   BKN 50   BKN 80,1,5,-1,0,1010,RJNA 101100Z 28010KT 250V310 9999 -SHRA FEW030 BKN050 BKN080     05/M00 Q1010 RMK 2CU030 5SC050 7AC080 A2985=,- RA SH
20180110_110000.002,0,RJNA,,,,0,20180110110000,-1,-1,-1,-1,280,-1,10,-1,-1,250,310,,9999,0,1,3,FEW 30   BKN 50   BKN 80,1,5,-1,0,1010,RJNA 101100Z 28010KT 250V310 9999 -SHRA FEW030 BKN050 BKN080     05/M00 Q1010 RMK 2CU030 5SC050 7AC080 A2985=,- RA SH
20180110_120000.000,0,RJNA,,,,0,20180110120000,-1,-1,-1,-1,280,-1,8,-1,-1,250,310,,9999,0,0,1,FEW 30,1,4,1,0,1011,RJNA 101200Z 28008KT 250V310 9999 FEW030 04/00 Q1011 RMK 1CU030     A2987=,
20180110_120000.002,0,RJNA,,,,0,20180110120000,-1,-1,-1,-1,280,-1,8,-1,-1,250,310,,9999,0,0,1,FEW 30,1,4,1,0,1011,RJNA 101200Z 28008KT 250V310 9999 FEW030 04/00 Q1011 RMK     1CU030 A2987=,
20180110_130000.000,0,RJNA,,,,0,20180110130000,-1,-1,-1,-1,290,-1,6,-1,-1,-1,-1,,9999,0,0,1,FEW 30,1,4,-1,1,1012,RJNA 101300Z 29006KT 9999 FEW030 04/M01 Q1012 RMK 1CU030 A2989=,
20180110_130000.002,0,RJNA,,,,0,20180110130000,-1,-1,-1,-1,290,-1,6,-1,-1,-1,-1,,9999,0,0,1,FEW 30,1,4,-1,1,1012,RJNA 101300Z 29006KT 9999 FEW030 04/M01 Q1012 RMK 1CU030     A2989=,
20180110_140000.000,0,RJNA,,,,0,20180110140000,-1,-1,-1,-1,270,-1,6,-1,-1,230,310,,9999,0,0,1,FEW 30,1,3,-1,1,1012,RJNA 101400Z 27006KT 230V310 9999 FEW030 03/M01 Q1012 RMK     1CU030 A2991=,
20180110_140000.002,0,RJNA,,,,0,20180110140000,-1,-1,-1,-1,270,-1,6,-1,-1,230,310,,9999,0,0,1,FEW 30,1,3,-1,1,1012,RJNA 101400Z 27006KT 230V310 9999 FEW030 03/M01 Q1012 RMK     1CU030 A2991=,
20180110_150000.000,0,RJNA,,,,0,20180110150000,-1,-1,-1,-1,310,-1,7,-1,-1,-1,-1,,9999,0,0,2,FEW 30   BKN 40,1,3,-1,1,1012,RJNA 101500Z 31007KT 9999 FEW030 BKN040 03/M01 Q1012 RMK 1CU030     5SC040 A2990=,
20180110_150000.002,0,RJNA,,,,0,20180110150000,-1,-1,-1,-1,310,-1,7,-1,-1,-1,-1,,9999,0,0,2,FEW 30   BKN 40,1,3,-1,1,1012,RJNA 101500Z 31007KT 9999 FEW030 BKN040 03/M01 Q1012 RMK     1CU030 5SC040 A2990=,
20180110_160000.000,0,RJNA,,,,0,20180110160000,-1,-1,-1,-1,290,-1,9,-1,-1,-1,-1,,9999,0,0,2,FEW 30   SCT 40,1,3,-1,1,1012,RJNA 101600Z 29009KT 9999 FEW030 SCT040 03/M01 Q1012 RMK 1CU030     3SC040 A2990=,
20180110_160000.002,0,RJNA,,,,0,20180110160000,-1,-1,-1,-1,290,-1,9,-1,-1,-1,-1,,9999,0,0,2,FEW 30   SCT 40,1,3,-1,1,1012,RJNA 101600Z 29009KT 9999 FEW030 SCT040 03/M01 Q1012 RMK     1CU030 3SC040 A2990=,
20180110_170000.000,0,RJNA,,,,0,20180110170000,-1,-1,-1,-1,300,-1,5,-1,-1,-1,-1,,9999,0,0,1,FEW 30,1,2,-1,2,1013,RJNA 101700Z 30005KT 9999 FEW030 02/M02 Q1013 RMK 1CU030 A2992=,
20180110_170000.002,0,RJNA,,,,0,20180110170000,-1,-1,-1,-1,300,-1,5,-1,-1,-1,-1,,9999,0,0,1,FEW 30,1,2,-1,2,1013,RJNA 101700Z 30005KT 9999 FEW030 02/M02 Q1013 RMK 1CU030     A2992=,
20180110_180000.000,0,RJNA,,,,0,20180110180000,-1,-1,-1,-1,300,-1,4,-1,-1,-1,-1,,9999,0,0,1,FEW 30,1,2,-1,3,1013,RJNA 101800Z 30004KT 9999 FEW030 02/M03 Q1013 RMK 1CU030 A2993=,
20180110_180000.002,0,RJNA,,,,0,20180110180000,-1,-1,-1,-1,300,-1,4,-1,-1,-1,-1,,9999,0,0,1,FEW 30,1,2,-1,3,1013,RJNA 101800Z 30004KT 9999 FEW030 02/M03 Q1013 RMK 1CU030     A2993=,
20180110_190000.000,0,RJNA,,,,0,20180110190000,-1,-1,-1,-1,300,-1,9,-1,-1,-1,-1,,9999,0,0,1,FEW 30,1,2,-1,4,1013,RJNA 101900Z 30009KT 9999 FEW030 02/M04 Q1013 RMK 1CU030 A2993=,
20180110_190000.002,0,RJNA,,,,0,20180110190000,-1,-1,-1,-1,300,-1,9,-1,-1,-1,-1,,9999,0,0,1,FEW 30,1,2,-1,4,1013,RJNA 101900Z 30009KT 9999 FEW030 02/M04 Q1013 RMK 1CU030     A2993=,
20180110_200000.000,0,RJNA,,,,0,20180110200000,-1,-1,-1,-1,300,-1,11,-1,-1,-1,-1,,9999,0,0,1,FEW 30,1,2,-1,4,1014,RJNA 102000Z 30011KT 9999 FEW030 02/M04 Q1014 RMK 1CU030 A2995=,
20180110_200000.002,0,RJNA,,,,0,20180110200000,-1,-1,-1,-1,300,-1,11,-1,-1,-1,-1,,9999,0,0,1,FEW 30,1,2,-1,4,1014,RJNA 102000Z 30011KT 9999 FEW030 02/M04 Q1014 RMK 1CU030     A2995=,
20180110_210000.000,0,RJNA,,,,0,20180110210000,-1,-1,-1,-1,310,-1,14,-1,-1,-1,-1,,9999,0,0,1,FEW 30,1,2,-1,5,1014,RJNA 102100Z 31014KT 9999 FEW030 02/M05 Q1014 RMK 1CU030 A2996     10/01 R000=,
20180110_210000.002,0,RJNA,,,,0,20180110210000,-1,-1,-1,-1,310,-1,14,-1,-1,-1,-1,,9999,0,0,1,FEW 30,1,2,-1,5,1014,RJNA 102100Z 31014KT 9999 FEW030 02/M05 Q1014 RMK 1CU030 A2996     10/01 R000=,
20180110_220000.000,0,RJNA,,,,0,20180110220000,-1,-1,-1,-1,290,-1,10,-1,-1,-1,-1,,9999,0,0,1,FEW 30,1,2,-1,6,1015,RJNA 102200Z 29010KT 9999 FEW030 02/M06 Q1015 RMK 1CU030 A3000=,
20180110_220000.002,0,RJNA,,,,0,20180110220000,-1,-1,-1,-1,290,-1,10,-1,-1,-1,-1,,9999,0,0,1,FEW 30,1,2,-1,6,1015,RJNA 102200Z 29010KT 9999 FEW030 02/M06 Q1015 RMK 1CU030     A3000=,
20180110_230000.000,0,RJNA,,,,0,20180110230000,-1,-1,-1,-1,290,-1,9,-1,-1,-1,-1,,9999,0,0,1,FEW 30,1,2,-1,6,1016,RJNA 102300Z 29009KT 9999 FEW030 02/M06 Q1016 RMK 1CU030 A3002=,
20180110_230000.003,0,RJNA,,,,0,20180110230000,-1,-1,-1,-1,290,-1,9,-1,-1,-1,-1,,9999,0,0,1,FEW 30,1,2,-1,6,1016,RJNA 102300Z 29009KT 9999 FEW030 02/M06 Q1016 RMK 1CU030     A3002=,
20180111_000000.000,0,RJNA,,,,0,20180111000000,-1,-1,-1,-1,290,-1,7,-1,-1,230,320,,9999,0,0,1,FEW 30,1,3,-1,7,1017,RJNA 110000Z 29007KT 230V320 9999 FEW030 03/M07 Q1017 RMK     1CU030 A3004=,
20180111_000000.002,0,RJNA,,,,0,20180111000000,-1,-1,-1,-1,290,-1,7,-1,-1,230,320,,9999,0,0,1,FEW 30,1,3,-1,7,1017,RJNA 110000Z 29007KT 230V320 9999 FEW030 03/M07 Q1017 RMK     1CU030 A3004=,
20180111_010000.000,0,RJNA,,,,0,20180111010000,-1,-1,-1,-1,320,-1,4,-1,-1,280,20,,9999,0,0,1,FEW 30,1,3,-1,9,1017,RJNA 110100Z 32004KT 280V020 9999 FEW030 03/M09 Q1017 RMK     1CU030 A3006=,
20180111_010000.002,0,RJNA,,,,0,20180111010000,-1,-1,-1,-1,320,-1,4,-1,-1,280,20,,9999,0,0,1,FEW 30,1,3,-1,9,1017,RJNA 110100Z 32004KT 280V020 9999 FEW030 03/M09 Q1017 RMK     1CU030 A3006=,
20180111_020000.000,0,RJNA,,,,0,20180111020000,-1,-1,-1,-1,250,-1,10,-1,20,200,320,,9999,0,0,1,FEW 30,1,5,-1,10,1017,RJNA 110200Z 25010G20KT 200V320 9999 FEW030 05/M10 Q1017 RMK     1CU030 A3005=,
20180111_020000.002,0,RJNA,,,,0,20180111020000,-1,-1,-1,-1,250,-1,10,-1,20,200,320,,9999,0,0,1,FEW 30,1,5,-1,10,1017,RJNA 110200Z 25010G20KT 200V320 9999 FEW030 05/M10 Q1017 RMK     1CU030 A3005=,
20180111_030000.000,0,RJNA,,,,0,20180111030000,-1,-1,-1,-1,270,-1,12,-1,22,230,310,,9999,0,0,2,FEW 30   SCT 50,1,5,-1,14,1016,RJNA 110300Z 27012G22KT 230V310 9999 FEW030 SCT050 05/M14 Q1016     RMK 1CU030 3SC050 A3003=,
20180111_030000.001,0,RJNA,,,,0,20180111030000,-1,-1,-1,-1,270,-1,12,-1,22,230,310,,9999,0,0,2,FEW 30   SCT 50,1,5,-1,14,1016,RJNA 110300Z 27012G22KT 230V310 9999 FEW030 SCT050 05/M14     Q1016 RMK 1CU030 3SC050 A3003=,
20180111_040000.000,0,RJNA,,,,0,20180111040000,-1,-1,-1,-1,280,-1,9,-1,-1,240,310,,9999,0,0,2,FEW 30   SCT 50,1,5,-1,12,1016,RJNA 110400Z 28009KT 240V310 9999 FEW030 SCT050 05/M12 Q1016     RMK 1CU030 4SC050 A3002=,
20180111_040000.002,0,RJNA,,,,0,20180111040000,-1,-1,-1,-1,280,-1,9,-1,-1,240,310,,9999,0,0,2,FEW 30   SCT 50,1,5,-1,12,1016,RJNA 110400Z 28009KT 240V310 9999 FEW030 SCT050 05/M12 Q1016     RMK 1CU030 4SC050 A3002=,
20180111_050000.000,0,RJNA,,,,0,20180111050000,-1,-1,-1,-1,290,-1,9,-1,-1,250,340,,9999,0,0,2,FEW 30   SCT 70,1,5,-1,12,1016,RJNA 110500Z 29009KT 250V340 9999 FEW030 SCT070 05/M12 Q1016     RMK 1CU030 3AC070 A3002=,
20180111_050000.002,0,RJNA,,,,0,20180111050000,-1,-1,-1,-1,290,-1,9,-1,-1,250,340,,9999,0,0,2,FEW 30   SCT 70,1,5,-1,12,1016,RJNA 110500Z 29009KT 250V340 9999 FEW030 SCT070 05/M12 Q1016     RMK 1CU030 3AC070 A3002=,
20180111_060000.000,0,RJNA,,,,0,20180111060000,-1,-1,-1,-1,260,-1,9,-1,-1,230,310,,9999,0,0,2,FEW 30   SCT 50,1,5,-1,12,1016,RJNA 110600Z 26009KT 230V310 9999 FEW030 SCT050 05/M12 Q1016     RMK 1CU030 3SC050 A3003=,
20180111_060000.002,0,RJNA,,,,0,20180111060000,-1,-1,-1,-1,260,-1,9,-1,-1,230,310,,9999,0,0,2,FEW 30   SCT 50,1,5,-1,12,1016,RJNA 110600Z 26009KT 230V310 9999 FEW030 SCT050 05/M12 Q1016     RMK 1CU030 3SC050 A3003=,
20180111_070000.000,0,RJNA,,,,0,20180111070000,-1,-1,-1,-1,270,-1,8,-1,-1,210,310,,9999,0,0,2,FEW 30   SCT 60,1,5,-1,13,1017,RJNA 110700Z 27008KT 210V310 9999 FEW030 SCT060 05/M13 Q1017     RMK 1CU030 3SC060 A3004=,
20180111_070000.002,0,RJNA,,,,0,20180111070000,-1,-1,-1,-1,270,-1,8,-1,-1,210,310,,9999,0,0,2,FEW 30   SCT 60,1,5,-1,13,1017,RJNA 110700Z 27008KT 210V310 9999 FEW030 SCT060 05/M13 Q1017     RMK 1CU030 3SC060 A3004=,
20180111_080000.000,0,RJNA,,,,0,20180111080000,-1,-1,-1,-1,290,-1,10,-1,-1,240,320,,9999,0,0,2,FEW 30   SCT 50,1,4,-1,13,1017,RJNA 110800Z 29010KT 240V320 9999 FEW030 SCT050 04/M13 Q1017     RMK 1CU030 3SC050 A3004=,
20180111_080000.002,0,RJNA,,,,0,20180111080000,-1,-1,-1,-1,290,-1,10,-1,-1,240,320,,9999,0,0,2,FEW 30   SCT 50,1,4,-1,13,1017,RJNA 110800Z 29010KT 240V320 9999 FEW030 SCT050 04/M13 Q1017     RMK 1CU030 3SC050 A3004=,
20180111_090000.000,0,RJNA,,,,0,20180111090000,-1,-1,-1,-1,270,-1,5,-1,-1,230,310,,9999,0,0,1,FEW 30,1,3,-1,12,1017,RJNA 110900Z 27005KT 230V310 9999 FEW030 03/M12 Q1017 RMK     1CU030 A3006=,
20180111_090000.002,0,RJNA,,,,0,20180111090000,-1,-1,-1,-1,270,-1,5,-1,-1,230,310,,9999,0,0,1,FEW 30,1,3,-1,12,1017,RJNA 110900Z 27005KT 230V310 9999 FEW030 03/M12 Q1017 RMK     1CU030 A3006=,
20180111_100000.000,0,RJNA,,,,0,20180111100000,-1,-1,-1,-1,240,-1,4,-1,-1,170,300,,9999,0,0,1,FEW 30,1,3,-1,11,1018,RJNA 111000Z 24004KT 170V300 9999 FEW030 03/M11 Q1018 RMK     1CU030 A3008=,
20180111_100000.002,0,RJNA,,,,0,20180111100000,-1,-1,-1,-1,240,-1,4,-1,-1,170,300,,9999,0,0,1,FEW 30,1,3,-1,11,1018,RJNA 111000Z 24004KT 170V300 9999 FEW030 03/M11 Q1018 RMK     1CU030 A3008=,
20180111_110000.000,0,RJNA,,,,0,20180111110000,-1,-1,-1,-1,240,-1,4,-1,-1,180,300,,9999,0,0,1,FEW 30,1,2,-1,11,1019,RJNA 111100Z 24004KT 180V300 9999 FEW030 02/M11 Q1019 RMK     1CU030 A3010=,
20180111_110000.002,0,RJNA,,,,0,20180111110000,-1,-1,-1,-1,240,-1,4,-1,-1,180,300,,9999,0,0,1,FEW 30,1,2,-1,11,1019,RJNA 111100Z 24004KT 180V300 9999 FEW030 02/M11 Q1019 RMK     1CU030 A3010=,
20180111_120000.000,0,RJNA,,,,0,20180111120000,-1,-1,-1,-1,999,-1,2,-1,-1,-1,-1,,9999,0,0,1,FEW 30,1,1,-1,11,1019,RJNA 111200Z VRB02KT 9999 FEW030 01/M11 Q1019 RMK 1CU030 A3012=,
20180111_120000.002,0,RJNA,,,,0,20180111120000,-1,-1,-1,-1,999,-1,2,-1,-1,-1,-1,,9999,0,0,1,FEW 30,1,1,-1,11,1019,RJNA 111200Z VRB02KT 9999 FEW030 01/M11 Q1019 RMK 1CU030     A3012=,
20180111_130000.000,0,RJNA,,,,0,20180111130000,-1,-1,-1,-1,999,-1,2,-1,-1,-1,-1,,9999,0,0,1,FEW 30,1,1,-1,12,1020,RJNA 111300Z VRB02KT 9999 FEW030 01/M12 Q1020 RMK 1CU030 A3013=,
20180111_130000.002,0,RJNA,,,,0,20180111130000,-1,-1,-1,-1,999,-1,2,-1,-1,-1,-1,,9999,0,0,1,FEW 30,1,1,-1,12,1020,RJNA 111300Z VRB02KT 9999 FEW030 01/M12 Q1020 RMK 1CU030     A3013=,
20180111_140000.000,0,RJNA,,,,0,20180111140000,-1,-1,-1,-1,230,-1,3,-1,-1,180,280,,9999,0,0,1,FEW 30,1,1,-1,12,1020,RJNA 111400Z 23003KT 180V280 9999 FEW030 01/M12 Q1020 RMK     1CU030 A3013=,
20180111_140000.002,0,RJNA,,,,0,20180111140000,-1,-1,-1,-1,230,-1,3,-1,-1,180,280,,9999,0,0,1,FEW 30,1,1,-1,12,1020,RJNA 111400Z 23003KT 180V280 9999 FEW030 01/M12 Q1020 RMK     1CU030 A3013=,
20180111_150000.000,0,RJNA,,,,0,20180111150000,-1,-1,-1,-1,999,-1,1,-1,-1,-1,-1,,9999,0,0,1,FEW 30,-1,1,-1,13,1020,RJNA 111500Z VRB01KT 9999 FEW030 M01/M13 Q1020 RMK 1CU030     A3013=,
20180111_150000.002,0,RJNA,,,,0,20180111150000,-1,-1,-1,-1,999,-1,1,-1,-1,-1,-1,,9999,0,0,1,FEW 30,-1,1,-1,13,1020,RJNA 111500Z VRB01KT 9999 FEW030 M01/M13 Q1020 RMK 1CU030     A3013=,
20180111_160000.000,0,RJNA,,,,0,20180111160000,-1,-1,-1,-1,999,-1,2,-1,-1,-1,-1,,9999,0,0,1,FEW 30,-1,1,-1,11,1020,RJNA 111600Z VRB02KT 9999 FEW030 M01/M11 Q1020 RMK 1CU030     A3013=,
20180111_160000.002,0,RJNA,,,,0,20180111160000,-1,-1,-1,-1,999,-1,2,-1,-1,-1,-1,,9999,0,0,1,FEW 30,-1,1,-1,11,1020,RJNA 111600Z VRB02KT 9999 FEW030 M01/M11 Q1020 RMK 1CU030     A3013=,
20180111_170000.000,0,RJNA,,,,0,20180111170000,-1,-1,-1,-1,0,-1,0,-1,-1,-1,-1,,9999,0,0,1,FEW 30,-1,2,-1,10,1020,RJNA 111700Z 00000KT 9999 FEW030 M02/M10 Q1020 RMK 1CU030     A3014=,
20180111_170000.002,0,RJNA,,,,0,20180111170000,-1,-1,-1,-1,0,-1,0,-1,-1,-1,-1,,9999,0,0,1,FEW 30,-1,2,-1,10,1020,RJNA 111700Z 00000KT 9999 FEW030 M02/M10 Q1020 RMK 1CU030     A3014=,
20180111_180000.000,0,RJNA,,,,0,20180111180000,-1,-1,-1,-1,999,-1,2,-1,-1,-1,-1,,9999,0,0,1,FEW 30,-1,3,-1,9,1020,RJNA 111800Z VRB02KT 9999 FEW030 M03/M09 Q1020 RMK 1CU030     A3014=,
20180111_180000.002,0,RJNA,,,,0,20180111180000,-1,-1,-1,-1,999,-1,2,-1,-1,-1,-1,,9999,0,0,1,FEW 30,-1,3,-1,9,1020,RJNA 111800Z VRB02KT 9999 FEW030 M03/M09 Q1020 RMK 1CU030     A3014=,
20180111_190000.000,0,RJNA,,,,0,20180111190000,-1,-1,-1,-1,999,-1,1,-1,-1,-1,-1,,9999,0,0,1,FEW 30,-1,3,-1,9,1020,RJNA 111900Z VRB01KT 9999 FEW030 M03/M09 Q1020 RMK 1CU030     A3013=,
20180111_190000.002,0,RJNA,,,,0,20180111190000,-1,-1,-1,-1,999,-1,1,-1,-1,-1,-1,,9999,0,0,1,FEW 30,-1,3,-1,9,1020,RJNA 111900Z VRB01KT 9999 FEW030 M03/M09 Q1020 RMK 1CU030     A3013=,
20180111_200000.000,0,RJNA,,,,0,20180111200000,-1,-1,-1,-1,999,-1,2,-1,-1,-1,-1,,9999,0,0,1,FEW 30,-1,4,-1,9,1020,RJNA 112000Z VRB02KT 9999 FEW030 M04/M09 Q1020 RMK 1CU030     A3013=,
20180111_200000.002,0,RJNA,,,,0,20180111200000,-1,-1,-1,-1,999,-1,2,-1,-1,-1,-1,,9999,0,0,1,FEW 30,-1,4,-1,9,1020,RJNA 112000Z VRB02KT 9999 FEW030 M04/M09 Q1020 RMK 1CU030     A3013=,
20180111_210000.000,0,RJNA,,,,0,20180111210000,-1,-1,-1,-1,999,-1,1,-1,-1,-1,-1,,9999,0,0,1,FEW 30,-1,3,-1,9,1020,RJNA 112100Z VRB01KT 9999 FEW030 M03/M09 Q1020 RMK 1CU030 A3015     06/M04=,
20180111_210000.002,0,RJNA,,,,0,20180111210000,-1,-1,-1,-1,999,-1,1,-1,-1,-1,-1,,9999,0,0,1,FEW 30,-1,3,-1,9,1020,RJNA 112100Z VRB01KT 9999 FEW030 M03/M09 Q1020 RMK 1CU030     A3015 06/M04=,
20180111_220000.000,0,RJNA,,,,0,20180111220000,-1,-1,-1,-1,130,-1,3,-1,-1,100,160,,9999,0,0,1,FEW 30,-1,4,-1,9,1021,RJNA 112200Z 13003KT 100V160 9999 FEW030 M04/M09 Q1021 RMK     1CU030 A3016=,
20180111_220000.002,0,RJNA,,,,0,20180111220000,-1,-1,-1,-1,130,-1,3,-1,-1,100,160,,9999,0,0,1,FEW 30,-1,4,-1,9,1021,RJNA 112200Z 13003KT 100V160 9999 FEW030 M04/M09 Q1021 RMK     1CU030 A3016=,
20180111_230000.000,0,RJNA,,,,0,20180111230000,-1,-1,-1,-1,999,-1,2,-1,-1,-1,-1,,9999,0,0,1,FEW 30,-1,3,-1,8,1022,RJNA 112300Z VRB02KT 9999 FEW030 M03/M08 Q1022 RMK 1CU030     A3018=,
20180111_230000.002,0,RJNA,,,,0,20180111230000,-1,-1,-1,-1,999,-1,2,-1,-1,-1,-1,,9999,0,0,1,FEW 30,-1,3,-1,8,1022,RJNA 112300Z VRB02KT 9999 FEW030 M03/M08 Q1022 RMK 1CU030     A3018=,
20180112_000000.000,0,RJNA,,,,0,20180112000000,-1,-1,-1,-1,999,-1,1,-1,-1,-1,-1,,9999,0,0,1,FEW 30,-1,1,-1,7,1022,RJNA 120000Z VRB01KT 9999 FEW030 M01/M07 Q1022 RMK 1CU030     A3020=,
20180112_000000.002,0,RJNA,,,,0,20180112000000,-1,-1,-1,-1,999,-1,1,-1,-1,-1,-1,,9999,0,0,1,FEW 30,-1,1,-1,7,1022,RJNA 120000Z VRB01KT 9999 FEW030 M01/M07 Q1022 RMK 1CU030     A3020=,
20180112_010000.000,0,RJNA,,,,0,20180112010000,-1,-1,-1,-1,999,-1,1,-1,-1,-1,-1,,9999,0,0,2,FEW 30   SCT 250,1,1,-1,10,1022,RJNA 120100Z VRB01KT 9999 FEW030 SCT250 01/M10 Q1022 RMK 1CU030     A3020=,
20180112_010000.003,0,RJNA,,,,0,20180112010000,-1,-1,-1,-1,999,-1,1,-1,-1,-1,-1,,9999,0,0,2,FEW 30   SCT 250,1,1,-1,10,1022,RJNA 120100Z VRB01KT 9999 FEW030 SCT250 01/M10 Q1022 RMK     1CU030 A3020=,
20180112_020000.000,0,RJNA,,,,0,20180112020000,-1,-1,-1,-1,290,-1,3,-1,-1,-1,-1,,9999,0,0,1,FEW 30,1,3,-1,10,1022,RJNA 120200Z 29003KT 9999 FEW030 03/M10 Q1022 RMK 1CU030 A3019=,
20180112_020000.002,0,RJNA,,,,0,20180112020000,-1,-1,-1,-1,290,-1,3,-1,-1,-1,-1,,9999,0,0,1,FEW 30,1,3,-1,10,1022,RJNA 120200Z 29003KT 9999 FEW030 03/M10 Q1022 RMK 1CU030     A3019=,
20180112_030000.000,0,RJNA,,,,0,20180112030000,-1,-1,-1,-1,340,-1,6,-1,-1,290,30,,9999,0,0,1,FEW 30,1,4,-1,9,1021,RJNA 120300Z 34006KT 290V030 9999 FEW030 04/M09 Q1021 RMK     1CU030 A3015=,
20180112_030000.002,0,RJNA,,,,0,20180112030000,-1,-1,-1,-1,340,-1,6,-1,-1,290,30,,9999,0,0,1,FEW 30,1,4,-1,9,1021,RJNA 120300Z 34006KT 290V030 9999 FEW030 04/M09 Q1021 RMK     1CU030 A3015=,
20180112_040000.000,0,RJNA,,,,0,20180112040000,-1,-1,-1,-1,330,-1,7,-1,-1,-1,-1,,9999,0,0,1,FEW 30,1,5,-1,11,1020,RJNA 120400Z 33007KT 9999 FEW030 05/M11 Q1020 RMK 1CU030 A3014=,
20180112_040000.002,0,RJNA,,,,0,20180112040000,-1,-1,-1,-1,330,-1,7,-1,-1,-1,-1,,9999,0,0,1,FEW 30,1,5,-1,11,1020,RJNA 120400Z 33007KT 9999 FEW030 05/M11 Q1020 RMK 1CU030     A3014=,
20180112_050000.000,0,RJNA,,,,0,20180112050000,-1,-1,-1,-1,300,-1,9,-1,-1,-1,-1,,9999,0,0,1,FEW 30,1,5,-1,10,1020,RJNA 120500Z 30009KT 9999 FEW030 05/M10 Q1020 RMK 1CU030 A3013=,
20180112_050000.003,0,RJNA,,,,0,20180112050000,-1,-1,-1,-1,300,-1,9,-1,-1,-1,-1,,9999,0,0,1,FEW 30,1,5,-1,10,1020,RJNA 120500Z 30009KT 9999 FEW030 05/M10 Q1020 RMK 1CU030     A3013=,
20180112_060000.000,0,RJNA,,,,0,20180112060000,-1,-1,-1,-1,280,-1,7,-1,-1,220,320,,9999,0,0,2,FEW 15   BKN 50,1,5,-1,9,1020,RJNA 120600Z 28007KT 220V320 9999 FEW015 BKN050 05/M09 Q1020     RMK 1CU015 5SC050 A3013 VIRGA NW=,
20180112_060000.002,0,RJNA,,,,0,20180112060000,-1,-1,-1,-1,280,-1,7,-1,-1,220,320,,9999,0,0,2,FEW 15   BKN 50,1,5,-1,9,1020,RJNA 120600Z 28007KT 220V320 9999 FEW015 BKN050 05/M09 Q1020     RMK 1CU015 5SC050 A3013 VIRGA NW=,
20180112_070000.000,0,RJNA,,,,0,20180112070000,-1,-1,-1,-1,290,-1,11,-1,-1,-1,-1,,9999,0,1,3,FEW 3   SCT 8   BKN 15,1,4,-1,7,1021,RJNA 120700Z 29011KT 9999 -SHSN FEW003 SCT008 BKN015 04/M07     Q1021 RMK 1CU003 4CU008 5CU015 A3017 VIS NW 4500M=,- SN SH
20180112_070000.003,0,RJNA,,,,0,20180112070000,-1,-1,-1,-1,290,-1,11,-1,-1,-1,-1,,9999,0,1,3,FEW 3   SCT 8   BKN 15,1,4,-1,7,1021,RJNA 120700Z 29011KT 9999 -SHSN FEW003 SCT008 BKN015 04/M07     Q1021 RMK 1CU003 4CU008 5CU015 A3017 VIS NW 4500M=,- SN SH
20180112_080000.000,0,RJNA,,,,0,20180112080000,-1,-1,-1,-1,20,-1,11,-1,-1,-1,-1,,9999,0,1,3,FEW 8   SCT 25   BKN 50,1,1,-1,2,1022,RJNA 120800Z 02011KT 9999 -SHSN FEW008 SCT025 BKN050 01/M02     Q1022 RMK 1CU008 3CU025 7SC050 A3018=,- SN SH
20180112_080000.002,0,RJNA,,,,0,20180112080000,-1,-1,-1,-1,20,-1,11,-1,-1,-1,-1,,9999,0,1,3,FEW 8   SCT 25   BKN 50,1,1,-1,2,1022,RJNA 120800Z 02011KT 9999 -SHSN FEW008 SCT025 BKN050 01/M02     Q1022 RMK 1CU008 3CU025 7SC050 A3018=,- SN SH
20180112_090000.000,0,RJNA,,,,0,20180112090000,-1,-1,-1,-1,300,-1,7,-1,-1,270,330,,3000,0,1,3,FEW 3   SCT 8   BKN 15,1,1,-1,1,1023,RJNA 120900Z 30007KT 270V330 3000 -SHSN FEW003 SCT008 BKN015     01/M01 Q1023 RMK 1CU003 3CU008 5CU015 A3021 VIS SW 2500M=,- SN SH
20180112_090000.002,0,RJNA,,,,0,20180112090000,-1,-1,-1,-1,300,-1,7,-1,-1,270,330,,3000,0,1,3,FEW 3   SCT 8   BKN 15,1,1,-1,1,1023,RJNA 120900Z 30007KT 270V330 3000 -SHSN FEW003 SCT008 BKN015     01/M01 Q1023 RMK 1CU003 3CU008 5CU015 A3021 VIS SW 2500M=,- SN SH
20180112_100000.000,0,RJNA,,,,0,20180112100000,-1,-1,-1,-1,300,-1,10,-1,-1,-1,-1,,3500,0,1,3,FEW 3   BKN 15   BKN 25,1,1,-1,0,1023,RJNA 121000Z 30010KT 3500 -SHSN FEW003 BKN015 BKN025 01/M00     Q1023 RMK 1CU003 5CU015 7CU025 A3024 VIS SW-W 2500M=,- SN SH
20180112_100000.002,0,RJNA,,,,0,20180112100000,-1,-1,-1,-1,300,-1,10,-1,-1,-1,-1,,3500,0,1,3,FEW 3   BKN 15   BKN 25,1,1,-1,0,1023,RJNA 121000Z 30010KT 3500 -SHSN FEW003 BKN015 BKN025 01/M00     Q1023 RMK 1CU003 5CU015 7CU025 A3024 VIS SW-W 2500M=,- SN SH
20180112_110000.000,0,RJNA,,,,0,20180112110000,-1,-1,-1,-1,340,-1,7,-1,-1,-1,-1,,8000,0,1,2,FEW 8   SCT 15,1,1,-1,0,1023,RJNA 121100Z 34007KT 8000 -SHSN FEW008 SCT015 01/M00 Q1023 RMK     1CU008 3CU015 A3024=,- SN SH
20180112_110000.002,0,RJNA,,,,0,20180112110000,-1,-1,-1,-1,340,-1,7,-1,-1,-1,-1,,8000,0,1,2,FEW 8   SCT 15,1,1,-1,0,1023,RJNA 121100Z 34007KT 8000 -SHSN FEW008 SCT015 01/M00 Q1023 RMK     1CU008 3CU015 A3024=,- SN SH
20180112_120000.000,0,RJNA,,,,0,20180112120000,-1,-1,-1,-1,10,-1,5,-1,-1,340,40,,9999,0,0,2,FEW 8   BKN 15,1,1,-1,0,1023,RJNA 121200Z 01005KT 340V040 9999 FEW008 BKN015 01/M00 Q1023     RMK 2CU008 6CU015 A3024=,
20180112_120000.002,0,RJNA,,,,0,20180112120000,-1,-1,-1,-1,10,-1,5,-1,-1,340,40,,9999,0,0,2,FEW 8   BKN 15,1,1,-1,0,1023,RJNA 121200Z 01005KT 340V040 9999 FEW008 BKN015 01/M00 Q1023     RMK 2CU008 6CU015 A3024=,
20180112_130000.000,0,RJNA,,,,0,20180112130000,-1,-1,-1,-1,340,-1,8,-1,-1,-1,-1,,9999,0,0,2,FEW 8   SCT 15,1,0,-1,2,1023,RJNA 121300Z 34008KT 9999 FEW008 SCT015 00/M02 Q1023 RMK 1CU008     3CU015 A3023=,
20180112_130000.002,0,RJNA,,,,0,20180112130000,-1,-1,-1,-1,340,-1,8,-1,-1,-1,-1,,9999,0,0,2,FEW 8   SCT 15,1,0,-1,2,1023,RJNA 121300Z 34008KT 9999 FEW008 SCT015 00/M02 Q1023 RMK     1CU008 3CU015 A3023=,
20180112_140000.000,0,RJNA,,,,0,20180112140000,-1,-1,-1,-1,350,-1,6,-1,-1,-1,-1,,9999,0,0,1,FEW 15,-1,1,-1,2,1023,RJNA 121400Z 35006KT 9999 FEW015 M01/M02 Q1023 RMK 1CU015     A3024=,
20180112_140000.002,0,RJNA,,,,0,20180112140000,-1,-1,-1,-1,350,-1,6,-1,-1,-1,-1,,9999,0,0,1,FEW 15,-1,1,-1,2,1023,RJNA 121400Z 35006KT 9999 FEW015 M01/M02 Q1023 RMK 1CU015     A3024=,
20180112_150000.000,0,RJNA,,,,0,20180112150000,-1,-1,-1,-1,999,-1,2,-1,-1,-1,-1,,9999,0,0,1,FEW 15,-1,1,-1,2,1023,RJNA 121500Z VRB02KT 9999 FEW015 M01/M02 Q1023 RMK 1CU015     A3023=,
20180112_150000.002,0,RJNA,,,,0,20180112150000,-1,-1,-1,-1,999,-1,2,-1,-1,-1,-1,,9999,0,0,1,FEW 15,-1,1,-1,2,1023,RJNA 121500Z VRB02KT 9999 FEW015 M01/M02 Q1023 RMK 1CU015     A3023=,
20180112_160000.000,0,RJNA,,,,0,20180112160000,-1,-1,-1,-1,999,-1,2,-1,-1,-1,-1,,9999,0,0,1,FEW 30,-1,1,-1,2,1024,RJNA 121600Z VRB02KT 9999 FEW030 M01/M02 Q1024 RMK 1CU030     A3026=,
20180112_160000.002,0,RJNA,,,,0,20180112160000,-1,-1,-1,-1,999,-1,2,-1,-1,-1,-1,,9999,0,0,1,FEW 30,-1,1,-1,2,1024,RJNA 121600Z VRB02KT 9999 FEW030 M01/M02 Q1024 RMK 1CU030     A3026=,
20180112_170000.000,0,RJNA,,,,0,20180112170000,-1,-1,-1,-1,360,-1,2,-1,-1,-1,-1,,9999,0,0,1,FEW 40,-1,2,-1,3,1024,RJNA 121700Z 36002KT 9999 FEW040 M02/M03 Q1024 RMK 1SC040     A3026=,
20180112_170000.002,0,RJNA,,,,0,20180112170000,-1,-1,-1,-1,360,-1,2,-1,-1,-1,-1,,9999,0,0,1,FEW 40,-1,2,-1,3,1024,RJNA 121700Z 36002KT 9999 FEW040 M02/M03 Q1024 RMK 1SC040     A3026=,
20180112_180000.000,0,RJNA,,,,0,20180112180000,-1,-1,-1,-1,50,-1,2,-1,-1,-1,-1,,9999,0,0,1,FEW 40,-1,3,-1,4,1024,RJNA 121800Z 05002KT 9999 FEW040 M03/M04 Q1024 RMK 1SC040     A3025=,
20180112_180000.002,0,RJNA,,,,0,20180112180000,-1,-1,-1,-1,50,-1,2,-1,-1,-1,-1,,9999,0,0,1,FEW 40,-1,3,-1,4,1024,RJNA 121800Z 05002KT 9999 FEW040 M03/M04 Q1024 RMK 1SC040     A3025=,
20180112_190000.000,0,RJNA,,,,0,20180112190000,-1,-1,-1,-1,330,-1,3,-1,-1,-1,-1,,9999,0,0,1,FEW 40,-1,2,-1,3,1024,RJNA 121900Z 33003KT 9999 FEW040 M02/M03 Q1024 RMK 1SC040     A3025=,
20180112_190000.002,0,RJNA,,,,0,20180112190000,-1,-1,-1,-1,330,-1,3,-1,-1,-1,-1,,9999,0,0,1,FEW 40,-1,2,-1,3,1024,RJNA 121900Z 33003KT 9999 FEW040 M02/M03 Q1024 RMK 1SC040     A3025=,
20180112_200000.000,0,RJNA,,,,0,20180112200000,-1,-1,-1,-1,999,-1,1,-1,-1,-1,-1,,9999,0,0,1,FEW 40,-1,3,-1,4,1024,RJNA 122000Z VRB01KT 9999 FEW040 M03/M04 Q1024 RMK 1SC040     A3025=,
20180112_200000.003,0,RJNA,,,,0,20180112200000,-1,-1,-1,-1,999,-1,1,-1,-1,-1,-1,,9999,0,0,1,FEW 40,-1,3,-1,4,1024,RJNA 122000Z VRB01KT 9999 FEW040 M03/M04 Q1024 RMK 1SC040     A3025=,
20180112_210000.000,0,RJNA,,,,0,20180112210000,-1,-1,-1,-1,999,-1,1,-1,-1,-1,-1,,9999,0,0,1,FEW 30,-1,3,-1,4,1024,RJNA 122100Z VRB01KT 9999 FEW030 M03/M04 Q1024 RMK 1CU030 A3026     06/M04 R000 S000=,
20180112_210000.002,0,RJNA,,,,0,20180112210000,-1,-1,-1,-1,999,-1,1,-1,-1,-1,-1,,9999,0,0,1,FEW 30,-1,3,-1,4,1024,RJNA 122100Z VRB01KT 9999 FEW030 M03/M04 Q1024 RMK 1CU030     A3026 06/M04 R000 S000=,
20180112_220000.000,0,RJNA,,,,0,20180112220000,-1,-1,-1,-1,999,-1,2,-1,-1,-1,-1,,9999,0,0,1,FEW 30,-1,3,-1,4,1024,RJNA 122200Z VRB02KT 9999 FEW030 M03/M04 Q1024 RMK 1CU030     A3026=,
20180112_220000.002,0,RJNA,,,,0,20180112220000,-1,-1,-1,-1,999,-1,2,-1,-1,-1,-1,,9999,0,0,1,FEW 30,-1,3,-1,4,1024,RJNA 122200Z VRB02KT 9999 FEW030 M03/M04 Q1024 RMK 1CU030     A3026=,
20180112_230000.000,0,RJNA,,,,0,20180112230000,-1,-1,-1,-1,999,-1,2,-1,-1,-1,-1,,9999,0,0,1,FEW 10,-1,2,-1,4,1025,RJNA 122300Z VRB02KT 9999 FEW010 M02/M04 Q1025 RMK 1CU010     A3027=,
20180112_230000.002,0,RJNA,,,,0,20180112230000,-1,-1,-1,-1,999,-1,2,-1,-1,-1,-1,,9999,0,0,1,FEW 10,-1,2,-1,4,1025,RJNA 122300Z VRB02KT 9999 FEW010 M02/M04 Q1025 RMK 1CU010     A3027=,
20180113_000000.000,0,RJNA,,,,0,20180113000000,-1,-1,-1,-1,999,-1,1,-1,-1,-1,-1,,9999,0,0,1,FEW 10,-1,1,-1,4,1025,RJNA 130000Z VRB01KT 9999 FEW010 M01/M04 Q1025 RMK 1CU010     A3028=,
20180113_000000.002,0,RJNA,,,,0,20180113000000,-1,-1,-1,-1,999,-1,1,-1,-1,-1,-1,,9999,0,0,1,FEW 10,-1,1,-1,4,1025,RJNA 130000Z VRB01KT 9999 FEW010 M01/M04 Q1025 RMK 1CU010     A3028=,
20180113_010000.000,0,RJNA,,,,0,20180113010000,-1,-1,-1,-1,999,-1,2,-1,-1,-1,-1,,9999,0,0,1,FEW 20,1,1,-1,2,1025,RJNA 130100Z VRB02KT 9999 FEW020 01/M02 Q1025 RMK 1CU020 A3029=,
20180113_010000.003,0,RJNA,,,,0,20180113010000,-1,-1,-1,-1,999,-1,2,-1,-1,-1,-1,,9999,0,0,1,FEW 20,1,1,-1,2,1025,RJNA 130100Z VRB02KT 9999 FEW020 01/M02 Q1025 RMK 1CU020     A3029=,
20180113_020000.000,0,RJNA,,,,0,20180113020000,-1,-1,-1,-1,330,-1,6,-1,-1,310,10,,9999,0,0,1,FEW 20,1,2,-1,4,1025,RJNA 130200Z 33006KT 310V010 9999 FEW020 02/M04 Q1025 RMK     1CU020 A3028=,
20180113_020000.002,0,RJNA,,,,0,20180113020000,-1,-1,-1,-1,330,-1,6,-1,-1,310,10,,9999,0,0,1,FEW 20,1,2,-1,4,1025,RJNA 130200Z 33006KT 310V010 9999 FEW020 02/M04 Q1025 RMK     1CU020 A3028=,
20180113_030000.000,0,RJNA,,,,0,20180113030000,-1,-1,-1,-1,330,-1,5,-1,-1,250,10,,9999,0,0,1,FEW 15,1,3,-1,5,1024,RJNA 130300Z 33005KT 250V010 9999 FEW015 03/M05 Q1024 RMK     1CU015 A3025=,
20180113_030000.002,0,RJNA,,,,0,20180113030000,-1,-1,-1,-1,330,-1,5,-1,-1,250,10,,9999,0,0,1,FEW 15,1,3,-1,5,1024,RJNA 130300Z 33005KT 250V010 9999 FEW015 03/M05 Q1024 RMK     1CU015 A3025=,
20180113_040000.000,0,RJNA,,,,0,20180113040000,-1,-1,-1,-1,320,-1,7,-1,-1,270,360,,9999,0,0,1,FEW 15,1,5,-1,6,1023,RJNA 130400Z 32007KT 270V360 9999 FEW015 05/M06 Q1023 RMK     1CU015 A3023=,
20180113_040000.002,0,RJNA,,,,0,20180113040000,-1,-1,-1,-1,320,-1,7,-1,-1,270,360,,9999,0,0,1,FEW 15,1,5,-1,6,1023,RJNA 130400Z 32007KT 270V360 9999 FEW015 05/M06 Q1023 RMK     1CU015 A3023=,
20180113_050000.000,0,RJNA,,,,0,20180113050000,-1,-1,-1,-1,320,-1,8,-1,-1,290,350,,9999,0,0,2,FEW 20   BKN 50,1,5,-1,5,1023,RJNA 130500Z 32008KT 290V350 9999 FEW020 BKN050 05/M05 Q1023     RMK 1CU020 5SC050 A3022=,
20180113_050000.002,0,RJNA,,,,0,20180113050000,-1,-1,-1,-1,320,-1,8,-1,-1,290,350,,9999,0,0,2,FEW 20   BKN 50,1,5,-1,5,1023,RJNA 130500Z 32008KT 290V350 9999 FEW020 BKN050 05/M05 Q1023     RMK 1CU020 5SC050 A3022=,
20180113_060000.000,0,RJNA,,,,0,20180113060000,-1,-1,-1,-1,999,-1,4,-1,-1,-1,-1,,9999,0,0,2,FEW 40   BKN 50,1,5,-1,5,1023,RJNA 130600Z VRB04KT 9999 FEW040 BKN050 05/M05 Q1023 RMK 1SC040     5SC050 A3022=,
20180113_060000.002,0,RJNA,,,,0,20180113060000,-1,-1,-1,-1,999,-1,4,-1,-1,-1,-1,,9999,0,0,2,FEW 40   BKN 50,1,5,-1,5,1023,RJNA 130600Z VRB04KT 9999 FEW040 BKN050 05/M05 Q1023 RMK     1SC040 5SC050 A3022=,
20180113_070000.000,0,RJNA,,,,0,20180113070000,-1,-1,-1,-1,320,-1,12,-1,-1,-1,-1,,9999,0,0,2,FEW 30   BKN 50,1,5,-1,5,1023,RJNA 130700Z 32012KT 9999 FEW030 BKN050 05/M05 Q1023 RMK 1CU030     5SC050 A3022=,
20180113_070000.002,0,RJNA,,,,0,20180113070000,-1,-1,-1,-1,320,-1,12,-1,-1,-1,-1,,9999,0,0,2,FEW 30   BKN 50,1,5,-1,5,1023,RJNA 130700Z 32012KT 9999 FEW030 BKN050 05/M05 Q1023 RMK     1CU030 5SC050 A3022=,
20180113_080000.000,0,RJNA,,,,0,20180113080000,-1,-1,-1,-1,310,-1,14,-1,-1,-1,-1,,9999,0,0,2,FEW 30   SCT 50,1,4,-1,3,1023,RJNA 130800Z 31014KT 9999 FEW030 SCT050 04/M03 Q1023 RMK 1CU030     4SC050 A3023=,
20180113_080000.002,0,RJNA,,,,0,20180113080000,-1,-1,-1,-1,310,-1,14,-1,-1,-1,-1,,9999,0,0,2,FEW 30   SCT 50,1,4,-1,3,1023,RJNA 130800Z 31014KT 9999 FEW030 SCT050 04/M03 Q1023 RMK     1CU030 4SC050 A3023=,
20180113_090000.000,0,RJNA,,,,0,20180113090000,-1,-1,-1,-1,310,-1,7,-1,-1,270,360,,9999,0,0,2,FEW 25   SCT 50,1,3,-1,3,1023,RJNA 130900Z 31007KT 270V360 9999 FEW025 SCT050 03/M03 Q1023     RMK 1CU025 3SC050 A3023=,
20180113_090000.002,0,RJNA,,,,0,20180113090000,-1,-1,-1,-1,310,-1,7,-1,-1,270,360,,9999,0,0,2,FEW 25   SCT 50,1,3,-1,3,1023,RJNA 130900Z 31007KT 270V360 9999 FEW025 SCT050 03/M03 Q1023     RMK 1CU025 3SC050 A3023=,
20180113_100000.000,0,RJNA,,,,0,20180113100000,-1,-1,-1,-1,320,-1,9,-1,-1,-1,-1,,7000,0,1,3,FEW 15   BKN 25   BKN 50,1,3,-1,1,1024,RJNA 131000Z 32009KT 7000 -SHSN FEW015 BKN025 BKN050 03/M01     Q1024 RMK 1CU015 5CU025 7SC050 A3024=,- SN SH
20180113_100000.002,0,RJNA,,,,0,20180113100000,-1,-1,-1,-1,320,-1,9,-1,-1,-1,-1,,7000,0,1,3,FEW 15   BKN 25   BKN 50,1,3,-1,1,1024,RJNA 131000Z 32009KT 7000 -SHSN FEW015 BKN025 BKN050 03/M01     Q1024 RMK 1CU015 5CU025 7SC050 A3024=,- SN SH
20180113_110000.000,0,RJNA,,,,0,20180113110000,-1,-1,-1,-1,999,-1,2,-1,-1,-1,-1,,5000,0,1,3,FEW 8   SCT 15   BKN 25,1,2,-1,0,1024,RJNA 131100Z VRB02KT 5000 -SHSN FEW008 SCT015 BKN025 02/M00     Q1024 RMK 1ST008 3CU015 5CU025 A3025=,- SN SH
20180113_110000.002,0,RJNA,,,,0,20180113110000,-1,-1,-1,-1,999,-1,2,-1,-1,-1,-1,,5000,0,1,3,FEW 8   SCT 15   BKN 25,1,2,-1,0,1024,RJNA 131100Z VRB02KT 5000 -SHSN FEW008 SCT015 BKN025 02/M00     Q1024 RMK 1ST008 3CU015 5CU025 A3025=,- SN SH
20180113_120000.000,0,RJNA,,,,0,20180113120000,-1,-1,-1,-1,350,-1,5,-1,-1,-1,-1,,5000,0,1,3,FEW 4   BKN 8   BKN 15,1,1,1,1,1024,RJNA 131200Z 35005KT 5000 -SHRASN FEW004 BKN008 BKN015 01/01     Q1024 RMK 1ST004 5ST008 7CU015 A3027 VIS SW 4000M=,- RA SN SH
20180113_120000.002,0,RJNA,,,,0,20180113120000,-1,-1,-1,-1,350,-1,5,-1,-1,-1,-1,,5000,0,1,3,FEW 4   BKN 8   BKN 15,1,1,1,1,1024,RJNA 131200Z 35005KT 5000 -SHRASN FEW004 BKN008 BKN015 01/01     Q1024 RMK 1ST004 5ST008 7CU015 A3027 VIS SW 4000M=,- RA SN SH
20180113_130000.000,0,RJNA,,,,0,20180113130000,-1,-1,-1,-1,340,-1,8,-1,-1,-1,-1,,7000,0,1,3,FEW 8   BKN 25   BKN 50,1,1,1,1,1026,RJNA 131300Z 34008KT 7000 -SHSN FEW008 BKN025 BKN050 01/01     Q1026 RMK 1ST008 5CU025 7SC050 A3030=,- SN SH
20180113_130000.002,0,RJNA,,,,0,20180113130000,-1,-1,-1,-1,340,-1,8,-1,-1,-1,-1,,7000,0,1,3,FEW 8   BKN 25   BKN 50,1,1,1,1,1026,RJNA 131300Z 34008KT 7000 -SHSN FEW008 BKN025 BKN050 01/01     Q1026 RMK 1ST008 5CU025 7SC050 A3030=,- SN SH
20180113_140000.000,0,RJNA,,,,0,20180113140000,-1,-1,-1,-1,330,-1,3,-1,-1,290,360,,9999,0,0,3,FEW 8   SCT 50   BKN 80,1,2,1,0,1026,RJNA 131400Z 33003KT 290V360 9999 FEW008 SCT050 BKN080 02/00     Q1026 RMK 1ST008 4SC050 7AC080 A3031=,
20180113_140000.003,0,RJNA,,,,0,20180113140000,-1,-1,-1,-1,330,-1,3,-1,-1,290,360,,9999,0,0,3,FEW 8   SCT 50   BKN 80,1,2,1,0,1026,RJNA 131400Z 33003KT 290V360 9999 FEW008 SCT050 BKN080 02/00     Q1026 RMK 1ST008 4SC050 7AC080 A3031=,
20180113_150000.000,0,RJNA,,,,0,20180113150000,-1,-1,-1,-1,320,-1,5,-1,-1,-1,-1,,9999,0,0,1,FEW 25,1,1,1,0,1026,RJNA 131500Z 32005KT 9999 FEW025 01/00 Q1026 RMK 1CU025 A3032=,
20180113_150000.002,0,RJNA,,,,0,20180113150000,-1,-1,-1,-1,320,-1,5,-1,-1,-1,-1,,9999,0,0,1,FEW 25,1,1,1,0,1026,RJNA 131500Z 32005KT 9999 FEW025 01/00 Q1026 RMK 1CU025 A3032=,
20180113_160000.000,0,RJNA,,,,0,20180113160000,-1,-1,-1,-1,330,-1,7,-1,-1,-1,-1,,9999,0,0,1,FEW 25,1,1,-1,1,1027,RJNA 131600Z 33007KT 9999 FEW025 01/M01 Q1027 RMK 1CU025 A3033=,
20180113_160000.002,0,RJNA,,,,0,20180113160000,-1,-1,-1,-1,330,-1,7,-1,-1,-1,-1,,9999,0,0,1,FEW 25,1,1,-1,1,1027,RJNA 131600Z 33007KT 9999 FEW025 01/M01 Q1027 RMK 1CU025     A3033=,
20180113_170000.000,0,RJNA,,,,0,20180113170000,-1,-1,-1,-1,340,-1,5,-1,-1,-1,-1,,9999,0,0,1,FEW 25,-1,0,-1,1,1027,RJNA 131700Z 34005KT 9999 FEW025 M00/M01 Q1027 RMK 1CU025     A3035=,
20180113_170000.002,0,RJNA,,,,0,20180113170000,-1,-1,-1,-1,340,-1,5,-1,-1,-1,-1,,9999,0,0,1,FEW 25,-1,0,-1,1,1027,RJNA 131700Z 34005KT 9999 FEW025 M00/M01 Q1027 RMK 1CU025     A3035=,
20180113_180000.000,0,RJNA,,,,0,20180113180000,-1,-1,-1,-1,330,-1,4,-1,-1,-1,-1,,9999,0,0,1,FEW 25,-1,0,-1,1,1028,RJNA 131800Z 33004KT 9999 FEW025 M00/M01 Q1028 RMK 1CU025     A3036=,
20180113_180000.002,0,RJNA,,,,0,20180113180000,-1,-1,-1,-1,330,-1,4,-1,-1,-1,-1,,9999,0,0,1,FEW 25,-1,0,-1,1,1028,RJNA 131800Z 33004KT 9999 FEW025 M00/M01 Q1028 RMK 1CU025     A3036=,
20180113_190000.000,0,RJNA,,,,0,20180113190000,-1,-1,-1,-1,350,-1,7,-1,-1,-1,-1,,9999,0,0,1,FEW 30,-1,2,-1,3,1027,RJNA 131900Z 35007KT 9999 FEW030 M02/M03 Q1027 RMK 1CU030     A3035=,
20180113_190000.003,0,RJNA,,,,0,20180113190000,-1,-1,-1,-1,350,-1,7,-1,-1,-1,-1,,9999,0,0,1,FEW 30,-1,2,-1,3,1027,RJNA 131900Z 35007KT 9999 FEW030 M02/M03 Q1027 RMK 1CU030     A3035=,
20180113_200000.000,0,RJNA,,,,0,20180113200000,-1,-1,-1,-1,360,-1,6,-1,-1,-1,-1,,9999,0,0,1,FEW 30,-1,2,-1,4,1028,RJNA 132000Z 36006KT 9999 FEW030 M02/M04 Q1028 RMK 1CU030     A3036=,
20180113_200000.003,0,RJNA,,,,0,20180113200000,-1,-1,-1,-1,360,-1,6,-1,-1,-1,-1,,9999,0,0,1,FEW 30,-1,2,-1,4,1028,RJNA 132000Z 36006KT 9999 FEW030 M02/M04 Q1028 RMK 1CU030     A3036=,
20180113_210000.000,0,RJNA,,,,0,20180113210000,-1,-1,-1,-1,340,-1,7,-1,-1,-1,-1,,9999,0,0,1,FEW 30,-1,2,-1,4,1028,RJNA 132100Z 34007KT 9999 FEW030 M02/M04 Q1028 RMK 1CU030 A3037     06/M03 R001 S000=,
20180113_210000.002,0,RJNA,,,,0,20180113210000,-1,-1,-1,-1,340,-1,7,-1,-1,-1,-1,,9999,0,0,1,FEW 30,-1,2,-1,4,1028,RJNA 132100Z 34007KT 9999 FEW030 M02/M04 Q1028 RMK 1CU030     A3037 06/M03 R001 S000=,
20180113_220000.000,0,RJNA,,,,0,20180113220000,-1,-1,-1,-1,350,-1,6,-1,-1,330,30,,9999,0,0,1,FEW 50,-1,2,-1,5,1029,RJNA 132200Z 35006KT 330V030 9999 FEW050 M02/M05 Q1029 RMK     1SC050 A3039=,
20180113_220000.002,0,RJNA,,,,0,20180113220000,-1,-1,-1,-1,350,-1,6,-1,-1,330,30,,9999,0,0,1,FEW 50,-1,2,-1,5,1029,RJNA 132200Z 35006KT 330V030 9999 FEW050 M02/M05 Q1029 RMK     1SC050 A3039=,
20180113_230000.000,0,RJNA,,,,0,20180113230000,-1,-1,-1,-1,350,-1,4,-1,-1,-1,-1,,9999,0,0,1,FEW 50,-1,1,-1,4,1029,RJNA 132300Z 35004KT 9999 FEW050 M01/M04 Q1029 RMK 1SC050     A3041=,
20180113_230000.002,0,RJNA,,,,0,20180113230000,-1,-1,-1,-1,350,-1,4,-1,-1,-1,-1,,9999,0,0,1,FEW 50,-1,1,-1,4,1029,RJNA 132300Z 35004KT 9999 FEW050 M01/M04 Q1029 RMK 1SC050     A3041=,
20180114_000000.000,0,RJNA,,,,0,20180114000000,-1,-1,-1,-1,350,-1,3,-1,-1,-1,-1,,9999,0,0,1,FEW 50,1,1,-1,3,1030,RJNA 140000Z 35003KT 9999 FEW050 01/M03 Q1030 RMK 1SC050 A3044=,
20180114_000000.003,0,RJNA,,,,0,20180114000000,-1,-1,-1,-1,350,-1,3,-1,-1,-1,-1,,9999,0,0,1,FEW 50,1,1,-1,3,1030,RJNA 140000Z 35003KT 9999 FEW050 01/M03 Q1030 RMK 1SC050     A3044=,
20180114_010000.000,0,RJNA,,,,0,20180114010000,-1,-1,-1,-1,330,-1,9,-1,-1,280,360,,9999,0,0,1,FEW 50,1,4,-1,3,1031,RJNA 140100Z 33009KT 280V360 9999 FEW050 04/M03 Q1031 RMK     1SC050 A3045=,
20180114_010000.002,0,RJNA,,,,0,20180114010000,-1,-1,-1,-1,330,-1,9,-1,-1,280,360,,9999,0,0,1,FEW 50,1,4,-1,3,1031,RJNA 140100Z 33009KT 280V360 9999 FEW050 04/M03 Q1031 RMK     1SC050 A3045=,
20180114_020000.000,0,RJNA,,,,0,20180114020000,-1,-1,-1,-1,340,-1,10,-1,-1,-1,-1,,9999,0,0,1,FEW 50,1,5,-1,4,1030,RJNA 140200Z 34010KT 9999 FEW050 05/M04 Q1030 RMK 1SC050 A3043=,
20180114_020000.002,0,RJNA,,,,0,20180114020000,-1,-1,-1,-1,340,-1,10,-1,-1,-1,-1,,9999,0,0,1,FEW 50,1,5,-1,4,1030,RJNA 140200Z 34010KT 9999 FEW050 05/M04 Q1030 RMK 1SC050     A3043=,
20180114_030000.000,0,RJNA,,,,0,20180114030000,-1,-1,-1,-1,320,-1,8,-1,-1,-1,-1,,9999,0,0,1,FEW 50,1,6,-1,6,1030,RJNA 140300Z 32008KT 9999 FEW050 06/M06 Q1030 RMK 1SC050 A3043=,
20180114_030000.002,0,RJNA,,,,0,20180114030000,-1,-1,-1,-1,320,-1,8,-1,-1,-1,-1,,9999,0,0,1,FEW 50,1,6,-1,6,1030,RJNA 140300Z 32008KT 9999 FEW050 06/M06 Q1030 RMK 1SC050     A3043=,
20180114_040000.000,0,RJNA,,,,0,20180114040000,-1,-1,-1,-1,330,-1,7,-1,-1,-1,-1,,9999,0,0,1,FEW 50,1,7,-1,7,1029,RJNA 140400Z 33007KT 9999 FEW050 07/M07 Q1029 RMK 1SC050 A3040=,
20180114_040000.002,0,RJNA,,,,0,20180114040000,-1,-1,-1,-1,330,-1,7,-1,-1,-1,-1,,9999,0,0,1,FEW 50,1,7,-1,7,1029,RJNA 140400Z 33007KT 9999 FEW050 07/M07 Q1029 RMK 1SC050     A3040=,
20180114_050000.000,0,RJNA,,,,0,20180114050000,-1,-1,-1,-1,330,-1,9,-1,-1,280,360,,9999,0,0,1,FEW 50,1,7,-1,6,1028,RJNA 140500Z 33009KT 280V360 9999 FEW050 07/M06 Q1028 RMK     1SC050 A3038=,
20180114_050000.002,0,RJNA,,,,0,20180114050000,-1,-1,-1,-1,330,-1,9,-1,-1,280,360,,9999,0,0,1,FEW 50,1,7,-1,6,1028,RJNA 140500Z 33009KT 280V360 9999 FEW050 07/M06 Q1028 RMK     1SC050 A3038=,
20180114_060000.000,0,RJNA,,,,0,20180114060000,-1,-1,-1,-1,320,-1,6,-1,-1,270,20,,9999,0,0,2,FEW 50   SCT 250,1,7,-1,5,1028,RJNA 140600Z 32006KT 270V020 9999 FEW050 SCT250 07/M05 Q1028     RMK 1SC050 A3037=,
20180114_060000.003,0,RJNA,,,,0,20180114060000,-1,-1,-1,-1,320,-1,6,-1,-1,270,20,,9999,0,0,2,FEW 50   SCT 250,1,7,-1,5,1028,RJNA 140600Z 32006KT 270V020 9999 FEW050 SCT250 07/M05 Q1028     RMK 1SC050 A3037=,
20180114_070000.000,0,RJNA,,,,0,20180114070000,-1,-1,-1,-1,340,-1,5,-1,-1,300,40,,9999,0,0,2,FEW 50   SCT 250,1,7,-1,6,1028,RJNA 140700Z 34005KT 300V040 9999 FEW050 SCT250 07/M06 Q1028     RMK 1SC050 A3036=,
20180114_070000.002,0,RJNA,,,,0,20180114070000,-1,-1,-1,-1,340,-1,5,-1,-1,300,40,,9999,0,0,2,FEW 50   SCT 250,1,7,-1,6,1028,RJNA 140700Z 34005KT 300V040 9999 FEW050 SCT250 07/M06 Q1028     RMK 1SC050 A3036=,
20180114_080000.000,0,RJNA,,,,0,20180114080000,-1,-1,-1,-1,300,-1,5,-1,-1,270,330,,9999,0,0,2,FEW 30   BKN 250,1,7,-1,5,1027,RJNA 140800Z 30005KT 270V330 9999 FEW030 BKN250 07/M05 Q1027     RMK 1CU030 A3036=,
20180114_080000.002,0,RJNA,,,,0,20180114080000,-1,-1,-1,-1,300,-1,5,-1,-1,270,330,,9999,0,0,2,FEW 30   BKN 250,1,7,-1,5,1027,RJNA 140800Z 30005KT 270V330 9999 FEW030 BKN250 07/M05 Q1027     RMK 1CU030 A3036=,
20180114_090000.000,0,RJNA,,,,0,20180114090000,-1,-1,-1,-1,290,-1,5,-1,-1,-1,-1,,9999,0,0,2,FEW 30   SCT -9999,1,5,-1,3,1028,RJNA 140900Z 29005KT 9999 FEW030 SCT/// 05/M03 Q1028 RMK 1CU030     A3036=,
20180114_090000.002,0,RJNA,,,,0,20180114090000,-1,-1,-1,-1,290,-1,5,-1,-1,-1,-1,,9999,0,0,2,FEW 30   SCT -9999,1,5,-1,3,1028,RJNA 140900Z 29005KT 9999 FEW030 SCT/// 05/M03 Q1028 RMK     1CU030 A3036=,
20180114_100000.000,0,RJNA,,,,0,20180114100000,-1,-1,-1,-1,300,-1,4,-1,-1,270,330,,9999,0,0,1,FEW 30,1,4,-1,4,1028,RJNA 141000Z 30004KT 270V330 9999 FEW030 04/M04 Q1028 RMK     1CU030 A3038=,
20180114_100000.002,0,RJNA,,,,0,20180114100000,-1,-1,-1,-1,300,-1,4,-1,-1,270,330,,9999,0,0,1,FEW 30,1,4,-1,4,1028,RJNA 141000Z 30004KT 270V330 9999 FEW030 04/M04 Q1028 RMK     1CU030 A3038=,
20180114_110000.000,0,RJNA,,,,0,20180114110000,-1,-1,-1,-1,40,-1,3,-1,-1,-1,-1,,9999,0,0,1,FEW 30,1,3,-1,3,1029,RJNA 141100Z 04003KT 9999 FEW030 03/M03 Q1029 RMK 1CU030 A3039=,
20180114_110000.002,0,RJNA,,,,0,20180114110000,-1,-1,-1,-1,40,-1,3,-1,-1,-1,-1,,9999,0,0,1,FEW 30,1,3,-1,3,1029,RJNA 141100Z 04003KT 9999 FEW030 03/M03 Q1029 RMK 1CU030     A3039=,
20180114_120000.000,0,RJNA,,,,0,20180114120000,-1,-1,-1,-1,0,-1,0,-1,-1,-1,-1,,9999,0,0,1,FEW 30,1,2,-1,4,1029,RJNA 141200Z 00000KT 9999 FEW030 02/M04 Q1029 RMK 1CU030 A3041=,
20180114_120000.002,0,RJNA,,,,0,20180114120000,-1,-1,-1,-1,0,-1,0,-1,-1,-1,-1,,9999,0,0,1,FEW 30,1,2,-1,4,1029,RJNA 141200Z 00000KT 9999 FEW030 02/M04 Q1029 RMK 1CU030     A3041=,
20180114_130000.000,0,RJNA,,,,0,20180114130000,-1,-1,-1,-1,999,-1,1,-1,-1,-1,-1,,9999,0,0,1,FEW 30,1,1,-1,4,1030,RJNA 141300Z VRB01KT 9999 FEW030 01/M04 Q1030 RMK 1CU030 A3042=,
20180114_130000.003,0,RJNA,,,,0,20180114130000,-1,-1,-1,-1,999,-1,1,-1,-1,-1,-1,,9999,0,0,1,FEW 30,1,1,-1,4,1030,RJNA 141300Z VRB01KT 9999 FEW030 01/M04 Q1030 RMK 1CU030     A3042=,
20180114_140000.000,0,RJNA,,,,0,20180114140000,-1,-1,-1,-1,0,-1,0,-1,-1,-1,-1,,9999,0,0,2,FEW 30   SCT 45,1,0,-1,3,1030,RJNA 141400Z 00000KT 9999 FEW030 SCT045 00/M03 Q1030 RMK 1CU030     3SC045 A3043=,
20180114_140000.002,0,RJNA,,,,0,20180114140000,-1,-1,-1,-1,0,-1,0,-1,-1,-1,-1,,9999,0,0,2,FEW 30   SCT 45,1,0,-1,3,1030,RJNA 141400Z 00000KT 9999 FEW030 SCT045 00/M03 Q1030 RMK     1CU030 3SC045 A3043=,
20180114_150000.000,0,RJNA,,,,0,20180114150000,-1,-1,-1,-1,999,-1,1,-1,-1,-1,-1,,9999,0,0,2,FEW 30   BKN 45,1,1,-1,3,1030,RJNA 141500Z VRB01KT 9999 FEW030 BKN045 01/M03 Q1030 RMK 1CU030     7SC045 A3043=,
20180114_150000.002,0,RJNA,,,,0,20180114150000,-1,-1,-1,-1,999,-1,1,-1,-1,-1,-1,,9999,0,0,2,FEW 30   BKN 45,1,1,-1,3,1030,RJNA 141500Z VRB01KT 9999 FEW030 BKN045 01/M03 Q1030 RMK     1CU030 7SC045 A3043=,
20180114_160000.000,0,RJNA,,,,0,20180114160000,-1,-1,-1,-1,10,-1,3,-1,-1,-1,-1,,9999,0,0,2,FEW 30   BKN 50,1,0,-1,3,1030,RJNA 141600Z 01003KT 9999 FEW030 BKN050 00/M03 Q1030 RMK 1CU030     6SC050 A3042=,
20180114_160000.002,0,RJNA,,,,0,20180114160000,-1,-1,-1,-1,10,-1,3,-1,-1,-1,-1,,9999,0,0,2,FEW 30   BKN 50,1,0,-1,3,1030,RJNA 141600Z 01003KT 9999 FEW030 BKN050 00/M03 Q1030 RMK     1CU030 6SC050 A3042=,
20180114_170000.000,0,RJNA,,,,0,20180114170000,-1,-1,-1,-1,30,-1,1,-1,-1,-1,-1,,9999,0,0,2,FEW 30   BKN 50,1,0,-1,3,1029,RJNA 141700Z 03001KT 9999 FEW030 BKN050 00/M03 Q1029 RMK 1CU030     6SC050 A3040=,
20180114_170000.002,0,RJNA,,,,0,20180114170000,-1,-1,-1,-1,30,-1,1,-1,-1,-1,-1,,9999,0,0,2,FEW 30   BKN 50,1,0,-1,3,1029,RJNA 141700Z 03001KT 9999 FEW030 BKN050 00/M03 Q1029 RMK     1CU030 6SC050 A3040=,
20180114_180000.000,0,RJNA,,,,0,20180114180000,-1,-1,-1,-1,270,-1,3,-1,-1,-1,-1,,9999,0,0,2,FEW 30   BKN 50,1,1,-1,3,1028,RJNA 141800Z 27003KT 9999 FEW030 BKN050 01/M03 Q1028 RMK 1CU030     5SC050 A3038=,
20180114_180000.003,0,RJNA,,,,0,20180114180000,-1,-1,-1,-1,270,-1,3,-1,-1,-1,-1,,9999,0,0,2,FEW 30   BKN 50,1,1,-1,3,1028,RJNA 141800Z 27003KT 9999 FEW030 BKN050 01/M03 Q1028 RMK     1CU030 5SC050 A3038=,
20180114_190000.000,0,RJNA,,,,0,20180114190000,-1,-1,-1,-1,310,-1,4,-1,-1,280,340,,9999,0,0,2,FEW 30   SCT 50,-1,0,-1,4,1028,RJNA 141900Z 31004KT 280V340 9999 FEW030 SCT050 M00/M04 Q1028     RMK 1CU030 4SC050 A3038=,
20180114_190000.002,0,RJNA,,,,0,20180114190000,-1,-1,-1,-1,310,-1,4,-1,-1,280,340,,9999,0,0,2,FEW 30   SCT 50,-1,0,-1,4,1028,RJNA 141900Z 31004KT 280V340 9999 FEW030 SCT050 M00/M04 Q1028     RMK 1CU030 4SC050 A3038=,
20180114_200000.000,0,RJNA,,,,0,20180114200000,-1,-1,-1,-1,330,-1,4,-1,-1,-1,-1,,9999,0,0,2,FEW 30   BKN 45,-1,0,-1,3,1028,RJNA 142000Z 33004KT 9999 FEW030 BKN045 M00/M03 Q1028 RMK     1CU030 7SC045 A3037=,
20180114_200000.003,0,RJNA,,,,0,20180114200000,-1,-1,-1,-1,330,-1,4,-1,-1,-1,-1,,9999,0,0,2,FEW 30   BKN 45,-1,0,-1,3,1028,RJNA 142000Z 33004KT 9999 FEW030 BKN045 M00/M03 Q1028 RMK     1CU030 7SC045 A3037=,
20180114_210000.000,0,RJNA,,,,0,20180114210000,-1,-1,-1,-1,280,-1,5,-1,-1,240,320,,9999,0,0,1,FEW 30,-1,0,-1,3,1028,RJNA 142100Z 28005KT 240V320 9999 FEW030 M00/M03 Q1028 RMK     1CU030 A3038 08/M01=,
20180114_210000.002,0,RJNA,,,,0,20180114210000,-1,-1,-1,-1,280,-1,5,-1,-1,240,320,,9999,0,0,1,FEW 30,-1,0,-1,3,1028,RJNA 142100Z 28005KT 240V320 9999 FEW030 M00/M03 Q1028 RMK     1CU030 A3038 08/M01=,
20180114_220000.000,0,RJNA,,,,0,20180114220000,-1,-1,-1,-1,340,-1,3,-1,-1,-1,-1,,9999,0,0,1,FEW 30,-1,2,-1,5,1028,RJNA 142200Z 34003KT 9999 FEW030 M02/M05 Q1028 RMK 1CU030     A3038=,
20180114_220000.002,0,RJNA,,,,0,20180114220000,-1,-1,-1,-1,340,-1,3,-1,-1,-1,-1,,9999,0,0,1,FEW 30,-1,2,-1,5,1028,RJNA 142200Z 34003KT 9999 FEW030 M02/M05 Q1028 RMK 1CU030     A3038=,
20180114_230000.000,0,RJNA,,,,0,20180114230000,-1,-1,-1,-1,0,-1,0,-1,-1,-1,-1,,9999,0,0,1,FEW 30,1,0,-1,3,1028,RJNA 142300Z 00000KT 9999 FEW030 00/M03 Q1028 RMK 1CU030 A3038=,
20180114_230000.002,0,RJNA,,,,0,20180114230000,-1,-1,-1,-1,0,-1,0,-1,-1,-1,-1,,9999,0,0,1,FEW 30,1,0,-1,3,1028,RJNA 142300Z 00000KT 9999 FEW030 00/M03 Q1028 RMK 1CU030     A3038=,
20180115_000000.000,0,RJNA,,,,0,20180115000000,-1,-1,-1,-1,999,-1,1,-1,-1,-1,-1,,9999,0,0,1,FEW 30,1,3,-1,2,1029,RJNA 150000Z VRB01KT 9999 FEW030 03/M02 Q1029 RMK 1CU030 A3039=,
20180115_000000.002,0,RJNA,,,,0,20180115000000,-1,-1,-1,-1,999,-1,1,-1,-1,-1,-1,,9999,0,0,1,FEW 30,1,3,-1,2,1029,RJNA 150000Z VRB01KT 9999 FEW030 03/M02 Q1029 RMK 1CU030     A3039=,
20180115_010000.000,0,RJNA,,,,0,20180115010000,-1,-1,-1,-1,70,-1,3,-1,-1,10,130,,9999,0,0,2,FEW 30   BKN 230,1,6,-1,2,1028,RJNA 150100Z 07003KT 010V130 9999 FEW030 BKN230 06/M02 Q1028     RMK 1CU030 A3038=,
20180115_010000.002,0,RJNA,,,,0,20180115010000,-1,-1,-1,-1,70,-1,3,-1,-1,10,130,,9999,0,0,2,FEW 30   BKN 230,1,6,-1,2,1028,RJNA 150100Z 07003KT 010V130 9999 FEW030 BKN230 06/M02 Q1028     RMK 1CU030 A3038=,
20180115_020000.000,0,RJNA,,,,0,20180115020000,-1,-1,-1,-1,280,-1,3,-1,-1,240,320,,9999,0,0,2,FEW 30   BKN 200,1,7,-1,2,1027,RJNA 150200Z 28003KT 240V320 9999 FEW030 BKN200 07/M02 Q1027     RMK 1CU030 A3034=,
20180115_020000.002,0,RJNA,,,,0,20180115020000,-1,-1,-1,-1,280,-1,3,-1,-1,240,320,,9999,0,0,2,FEW 30   BKN 200,1,7,-1,2,1027,RJNA 150200Z 28003KT 240V320 9999 FEW030 BKN200 07/M02 Q1027     RMK 1CU030 A3034=,
20180115_030000.000,0,RJNA,,,,0,20180115030000,-1,-1,-1,-1,310,-1,3,-1,-1,240,350,,9999,0,0,2,FEW 50   BKN 200,1,8,-1,2,1026,RJNA 150300Z 31003KT 240V350 9999 FEW050 BKN200 08/M02 Q1026     RMK 1SC050 A3030=,
20180115_030000.002,0,RJNA,,,,0,20180115030000,-1,-1,-1,-1,310,-1,3,-1,-1,240,350,,9999,0,0,2,FEW 50   BKN 200,1,8,-1,2,1026,RJNA 150300Z 31003KT 240V350 9999 FEW050 BKN200 08/M02 Q1026     RMK 1SC050 A3030=,
20180115_040000.000,0,RJNA,,,,0,20180115040000,-1,-1,-1,-1,999,-1,1,-1,-1,-1,-1,,9999,0,0,2,FEW 30   BKN 200,1,10,-1,1,1024,RJNA 150400Z VRB01KT 9999 FEW030 BKN200 10/M01 Q1024 RMK 1CU030     A3025=,
20180115_040000.002,0,RJNA,,,,0,20180115040000,-1,-1,-1,-1,999,-1,1,-1,-1,-1,-1,,9999,0,0,2,FEW 30   BKN 200,1,10,-1,1,1024,RJNA 150400Z VRB01KT 9999 FEW030 BKN200 10/M01 Q1024 RMK     1CU030 A3025=,
20180115_050000.000,0,RJNA,,,,0,20180115050000,-1,-1,-1,-1,999,-1,3,-1,-1,-1,-1,,9999,0,0,2,FEW 30   SCT 50,1,10,-1,1,1023,RJNA 150500Z VRB03KT 9999 FEW030 SCT050 10/M01 Q1023 RMK 1CU030     4SC050 A3022=,
20180115_050000.002,0,RJNA,,,,0,20180115050000,-1,-1,-1,-1,999,-1,3,-1,-1,-1,-1,,9999,0,0,2,FEW 30   SCT 50,1,10,-1,1,1023,RJNA 150500Z VRB03KT 9999 FEW030 SCT050 10/M01 Q1023 RMK     1CU030 4SC050 A3022=,
20180115_060000.000,0,RJNA,,,,0,20180115060000,-1,-1,-1,-1,999,-1,2,-1,-1,-1,-1,,9999,0,0,2,FEW 30   SCT 50,1,11,1,0,1022,RJNA 150600Z VRB02KT 9999 FEW030 SCT050 11/00 Q1022 RMK 1CU030     3SC050 A3021=,
20180115_060000.002,0,RJNA,,,,0,20180115060000,-1,-1,-1,-1,999,-1,2,-1,-1,-1,-1,,9999,0,0,2,FEW 30   SCT 50,1,11,1,0,1022,RJNA 150600Z VRB02KT 9999 FEW030 SCT050 11/00 Q1022 RMK 1CU030     3SC050 A3021=,
20180115_070000.000,0,RJNA,,,,0,20180115070000,-1,-1,-1,-1,340,-1,6,-1,-1,-1,-1,,9999,0,0,1,FEW 30,1,10,-1,0,1023,RJNA 150700Z 34006KT 9999 FEW030 10/M00 Q1023 RMK 1CU030 A3022=,
20180115_070000.003,0,RJNA,,,,0,20180115070000,-1,-1,-1,-1,340,-1,6,-1,-1,-1,-1,,9999,0,0,1,FEW 30,1,10,-1,0,1023,RJNA 150700Z 34006KT 9999 FEW030 10/M00 Q1023 RMK 1CU030     A3022=,
20180115_080000.000,0,RJNA,,,,0,20180115080000,-1,-1,-1,-1,330,-1,6,-1,-1,-1,-1,,9999,0,0,3,FEW 30   SCT 60   BKN 90,1,9,1,0,1023,RJNA 150800Z 33006KT 9999 FEW030 SCT060 BKN090 09/00 Q1023 RMK     1CU030 4SC060 5AC090 A3023=,
20180115_080000.002,0,RJNA,,,,0,20180115080000,-1,-1,-1,-1,330,-1,6,-1,-1,-1,-1,,9999,0,0,3,FEW 30   SCT 60   BKN 90,1,9,1,0,1023,RJNA 150800Z 33006KT 9999 FEW030 SCT060 BKN090 09/00 Q1023 RMK     1CU030 4SC060 5AC090 A3023=,
20180115_090000.000,0,RJNA,,,,0,20180115090000,-1,-1,-1,-1,340,-1,6,-1,-1,-1,-1,,9999,0,0,3,FEW 30   SCT 60   BKN 90,1,7,1,0,1023,RJNA 150900Z 34006KT 9999 FEW030 SCT060 BKN090 07/00 Q1023 RMK     1CU030 3SC060 5AC090 A3024=,
20180115_090000.002,0,RJNA,,,,0,20180115090000,-1,-1,-1,-1,340,-1,6,-1,-1,-1,-1,,9999,0,0,3,FEW 30   SCT 60   BKN 90,1,7,1,0,1023,RJNA 150900Z 34006KT 9999 FEW030 SCT060 BKN090 07/00 Q1023 RMK     1CU030 3SC060 5AC090 A3024=,
20180115_100000.000,0,RJNA,,,,0,20180115100000,-1,-1,-1,-1,350,-1,6,-1,-1,-1,-1,,9999,0,0,2,FEW 30   BKN 60,1,8,1,1,1024,RJNA 151000Z 35006KT 9999 FEW030 BKN060 08/01 Q1024 RMK 1CU030     5SC060 A3025=,
20180115_100000.002,0,RJNA,,,,0,20180115100000,-1,-1,-1,-1,350,-1,6,-1,-1,-1,-1,,9999,0,0,2,FEW 30   BKN 60,1,8,1,1,1024,RJNA 151000Z 35006KT 9999 FEW030 BKN060 08/01 Q1024 RMK 1CU030     5SC060 A3025=,
20180115_110000.000,0,RJNA,,,,0,20180115110000,-1,-1,-1,-1,330,-1,3,-1,-1,-1,-1,,9999,0,0,1,FEW 30,1,6,-1,0,1024,RJNA 151100Z 33003KT 9999 FEW030 06/M00 Q1024 RMK 1CU030 A3024=,
20180115_110000.002,0,RJNA,,,,0,20180115110000,-1,-1,-1,-1,330,-1,3,-1,-1,-1,-1,,9999,0,0,1,FEW 30,1,6,-1,0,1024,RJNA 151100Z 33003KT 9999 FEW030 06/M00 Q1024 RMK 1CU030     A3024=,
20180115_120000.000,0,RJNA,,,,0,20180115120000,-1,-1,-1,-1,999,-1,2,-1,-1,-1,-1,,9999,0,0,1,FEW 30,1,5,1,0,1023,RJNA 151200Z VRB02KT 9999 FEW030 05/00 Q1023 RMK 1CU030 A3023=,
20180115_120000.002,0,RJNA,,,,0,20180115120000,-1,-1,-1,-1,999,-1,2,-1,-1,-1,-1,,9999,0,0,1,FEW 30,1,5,1,0,1023,RJNA 151200Z VRB02KT 9999 FEW030 05/00 Q1023 RMK 1CU030 A3023=,
20180115_130000.000,0,RJNA,,,,0,20180115130000,-1,-1,-1,-1,320,-1,3,-1,-1,290,350,,9999,0,0,2,FEW 30   BKN 50,1,5,1,1,1024,RJNA 151300Z 32003KT 290V350 9999 FEW030 BKN050 05/01 Q1024 RMK     1CU030 6SC050 A3024=,
20180115_130000.002,0,RJNA,,,,0,20180115130000,-1,-1,-1,-1,320,-1,3,-1,-1,290,350,,9999,0,0,2,FEW 30   BKN 50,1,5,1,1,1024,RJNA 151300Z 32003KT 290V350 9999 FEW030 BKN050 05/01 Q1024     RMK 1CU030 6SC050 A3024=,
20180115_140000.000,0,RJNA,,,,0,20180115140000,-1,-1,-1,-1,350,-1,3,-1,-1,-1,-1,,9999,0,0,2,FEW 30   BKN 50,1,5,1,2,1023,RJNA 151400Z 35003KT 9999 FEW030 BKN050 05/02 Q1023 RMK 1CU030     6SC050 A3023=,
20180115_140000.002,0,RJNA,,,,0,20180115140000,-1,-1,-1,-1,350,-1,3,-1,-1,-1,-1,,9999,0,0,2,FEW 30   BKN 50,1,5,1,2,1023,RJNA 151400Z 35003KT 9999 FEW030 BKN050 05/02 Q1023 RMK 1CU030     6SC050 A3023=,
20180115_150000.000,0,RJNA,,,,0,20180115150000,-1,-1,-1,-1,350,-1,4,-1,-1,-1,-1,,9999,0,0,2,FEW 30   BKN 50,1,5,1,1,1023,RJNA 151500Z 35004KT 9999 FEW030 BKN050 05/01 Q1023 RMK 1CU030     7SC050 A3022=,
20180115_150000.002,0,RJNA,,,,0,20180115150000,-1,-1,-1,-1,350,-1,4,-1,-1,-1,-1,,9999,0,0,2,FEW 30   BKN 50,1,5,1,1,1023,RJNA 151500Z 35004KT 9999 FEW030 BKN050 05/01 Q1023 RMK 1CU030     7SC050 A3022=,
20180115_160000.000,0,RJNA,,,,0,20180115160000,-1,-1,-1,-1,300,-1,5,-1,-1,-1,-1,,9999,0,0,1,FEW 30,1,6,1,1,1023,RJNA 151600Z 30005KT 9999 FEW030 06/01 Q1023 RMK 1CU030 A3022=,
20180115_160000.002,0,RJNA,,,,0,20180115160000,-1,-1,-1,-1,300,-1,5,-1,-1,-1,-1,,9999,0,0,1,FEW 30,1,6,1,1,1023,RJNA 151600Z 30005KT 9999 FEW030 06/01 Q1023 RMK 1CU030 A3022=,
20180115_170000.000,0,RJNA,,,,0,20180115170000,-1,-1,-1,-1,280,-1,4,-1,-1,-1,-1,,9999,0,0,1,FEW 30,1,4,1,1,1023,RJNA 151700Z 28004KT 9999 FEW030 04/01 Q1023 RMK 1CU030 A3023=,
20180115_170000.002,0,RJNA,,,,0,20180115170000,-1,-1,-1,-1,280,-1,4,-1,-1,-1,-1,,9999,0,0,1,FEW 30,1,4,1,1,1023,RJNA 151700Z 28004KT 9999 FEW030 04/01 Q1023 RMK 1CU030 A3023=,
20180115_180000.000,0,RJNA,,,,0,20180115180000,-1,-1,-1,-1,999,-1,2,-1,-1,-1,-1,,9999,0,0,1,FEW 30,1,3,1,1,1023,RJNA 151800Z VRB02KT 9999 FEW030 03/01 Q1023 RMK 1CU030 A3021=,
20180115_180000.002,0,RJNA,,,,0,20180115180000,-1,-1,-1,-1,999,-1,2,-1,-1,-1,-1,,9999,0,0,1,FEW 30,1,3,1,1,1023,RJNA 151800Z VRB02KT 9999 FEW030 03/01 Q1023 RMK 1CU030 A3021=,
20180115_190000.000,0,RJNA,,,,0,20180115190000,-1,-1,-1,-1,999,-1,1,-1,-1,-1,-1,,9999,0,0,1,FEW 30,1,2,1,0,1022,RJNA 151900Z VRB01KT 9999 FEW030 02/00 Q1022 RMK 1CU030 A3019=,
20180115_190000.002,0,RJNA,,,,0,20180115190000,-1,-1,-1,-1,999,-1,1,-1,-1,-1,-1,,9999,0,0,1,FEW 30,1,2,1,0,1022,RJNA 151900Z VRB01KT 9999 FEW030 02/00 Q1022 RMK 1CU030 A3019=,
20180115_200000.000,0,RJNA,,,,0,20180115200000,-1,-1,-1,-1,999,-1,2,-1,-1,-1,-1,,9999,0,0,1,FEW 30,1,1,-1,1,1022,RJNA 152000Z VRB02KT 9999 FEW030 01/M01 Q1022 RMK 1CU030 A3020=,
20180115_200000.002,0,RJNA,,,,0,20180115200000,-1,-1,-1,-1,999,-1,2,-1,-1,-1,-1,,9999,0,0,1,FEW 30,1,1,-1,1,1022,RJNA 152000Z VRB02KT 9999 FEW030 01/M01 Q1022 RMK 1CU030     A3020=,
20180115_210000.000,0,RJNA,,,,0,20180115210000,-1,-1,-1,-1,999,-1,1,-1,-1,-1,-1,,9999,0,0,1,FEW 30,1,2,-1,0,1022,RJNA 152100Z VRB01KT 9999 FEW030 02/M00 Q1022 RMK 1CU030 A3020     11/01=,
20180115_210000.002,0,RJNA,,,,0,20180115210000,-1,-1,-1,-1,999,-1,1,-1,-1,-1,-1,,9999,0,0,1,FEW 30,1,2,-1,0,1022,RJNA 152100Z VRB01KT 9999 FEW030 02/M00 Q1022 RMK 1CU030 A3020     11/01=,
20180115_220000.000,0,RJNA,,,,0,20180115220000,-1,-1,-1,-1,999,-1,1,-1,-1,-1,-1,,9999,0,0,1,FEW 30,1,1,-1,1,1023,RJNA 152200Z VRB01KT 9999 FEW030 01/M01 Q1023 RMK 1CU030 A3023=,
20180115_220000.002,0,RJNA,,,,0,20180115220000,-1,-1,-1,-1,999,-1,1,-1,-1,-1,-1,,9999,0,0,1,FEW 30,1,1,-1,1,1023,RJNA 152200Z VRB01KT 9999 FEW030 01/M01 Q1023 RMK 1CU030     A3023=,
20180115_230000.000,0,RJNA,,,,0,20180115230000,-1,-1,-1,-1,999,-1,1,-1,-1,-1,-1,,9999,0,0,3,FEW 30   BKN 50   BKN 250,1,3,1,0,1024,RJNA 152300Z VRB01KT 9999 FEW030 BKN050 BKN250 03/00 Q1024 RMK     1CU030 5SC050 A3026=,
20180115_230000.002,0,RJNA,,,,0,20180115230000,-1,-1,-1,-1,999,-1,1,-1,-1,-1,-1,,9999,0,0,3,FEW 30   BKN 50   BKN 250,1,3,1,0,1024,RJNA 152300Z VRB01KT 9999 FEW030 BKN050 BKN250 03/00 Q1024 RMK     1CU030 5SC050 A3026=,
20180116_000000.000,0,RJNA,,,,0,20180116000000,-1,-1,-1,-1,999,-1,2,-1,-1,-1,-1,,9999,0,0,1,FEW 30,1,4,1,1,1024,RJNA 160000Z VRB02KT 9999 FEW030 04/01 Q1024 RMK 1CU030 A3025=,
20180116_000000.002,0,RJNA,,,,0,20180116000000,-1,-1,-1,-1,999,-1,2,-1,-1,-1,-1,,9999,0,0,1,FEW 30,1,4,1,1,1024,RJNA 160000Z VRB02KT 9999 FEW030 04/01 Q1024 RMK 1CU030 A3025=,
20180116_010000.000,0,RJNA,,,,0,20180116010000,-1,-1,-1,-1,999,-1,2,-1,-1,-1,-1,,9999,0,0,2,FEW 30   SCT 50,1,7,1,1,1024,RJNA 160100Z VRB02KT 9999 FEW030 SCT050 07/01 Q1024 RMK 1CU030     3SC050 A3025=,
20180116_010000.002,0,RJNA,,,,0,20180116010000,-1,-1,-1,-1,999,-1,2,-1,-1,-1,-1,,9999,0,0,2,FEW 30   SCT 50,1,7,1,1,1024,RJNA 160100Z VRB02KT 9999 FEW030 SCT050 07/01 Q1024 RMK 1CU030     3SC050 A3025=,
20180116_020000.000,0,RJNA,,,,0,20180116020000,-1,-1,-1,-1,310,-1,3,-1,-1,260,350,,9999,0,0,2,FEW 30   SCT 50,1,8,1,2,1023,RJNA 160200Z 31003KT 260V350 9999 FEW030 SCT050 08/02 Q1023 RMK     1CU030 4SC050 A3023=,
20180116_020000.002,0,RJNA,,,,0,20180116020000,-1,-1,-1,-1,310,-1,3,-1,-1,260,350,,9999,0,0,2,FEW 30   SCT 50,1,8,1,2,1023,RJNA 160200Z 31003KT 260V350 9999 FEW030 SCT050 08/02 Q1023     RMK 1CU030 4SC050 A3023=,
20180116_030000.000,0,RJNA,,,,0,20180116030000,-1,-1,-1,-1,320,-1,5,-1,-1,290,10,,9999,0,0,2,FEW 30   SCT 250,1,11,1,2,1022,RJNA 160300Z 32005KT 290V010 9999 FEW030 SCT250 11/02 Q1022 RMK     1CU030 A3020=,
20180116_030000.002,0,RJNA,,,,0,20180116030000,-1,-1,-1,-1,320,-1,5,-1,-1,290,10,,9999,0,0,2,FEW 30   SCT 250,1,11,1,2,1022,RJNA 160300Z 32005KT 290V010 9999 FEW030 SCT250 11/02 Q1022     RMK 1CU030 A3020=,
20180116_040000.000,0,RJNA,,,,0,20180116040000,-1,-1,-1,-1,999,-1,2,-1,-1,-1,-1,,9999,0,0,2,FEW 30   BKN 250,1,12,1,2,1021,RJNA 160400Z VRB02KT 9999 FEW030 BKN250 12/02 Q1021 RMK 1CU030     A3015=,
20180116_040000.002,0,RJNA,,,,0,20180116040000,-1,-1,-1,-1,999,-1,2,-1,-1,-1,-1,,9999,0,0,2,FEW 30   BKN 250,1,12,1,2,1021,RJNA 160400Z VRB02KT 9999 FEW030 BKN250 12/02 Q1021 RMK 1CU030     A3015=,
20180116_050000.000,0,RJNA,,,,0,20180116050000,-1,-1,-1,-1,320,-1,7,-1,-1,280,350,,9999,0,0,2,FEW 30   BKN 250,1,14,1,3,1020,RJNA 160500Z 32007KT 280V350 9999 FEW030 BKN250 14/03 Q1020 RMK     1CU030 A3013=,
20180116_050000.002,0,RJNA,,,,0,20180116050000,-1,-1,-1,-1,320,-1,7,-1,-1,280,350,,9999,0,0,2,FEW 30   BKN 250,1,14,1,3,1020,RJNA 160500Z 32007KT 280V350 9999 FEW030 BKN250 14/03 Q1020     RMK 1CU030 A3013=,
20180116_060000.000,0,RJNA,,,,0,20180116060000,-1,-1,-1,-1,360,-1,6,-1,-1,320,30,,9999,0,0,2,FEW 30   BKN 250,1,14,1,3,1019,RJNA 160600Z 36006KT 320V030 9999 FEW030 BKN250 14/03 Q1019 RMK     1CU030 A3010=,
20180116_060000.002,0,RJNA,,,,0,20180116060000,-1,-1,-1,-1,360,-1,6,-1,-1,320,30,,9999,0,0,2,FEW 30   BKN 250,1,14,1,3,1019,RJNA 160600Z 36006KT 320V030 9999 FEW030 BKN250 14/03 Q1019     RMK 1CU030 A3010=,
20180116_070000.000,0,RJNA,,,,0,20180116070000,-1,-1,-1,-1,330,-1,4,-1,-1,290,350,,9999,0,0,2,FEW 30   BKN 250,1,14,1,4,1019,RJNA 160700Z 33004KT 290V350 9999 FEW030 BKN250 14/04 Q1019 RMK     1CU030 A3010=,
20180116_070000.002,0,RJNA,,,,0,20180116070000,-1,-1,-1,-1,330,-1,4,-1,-1,290,350,,9999,0,0,2,FEW 30   BKN 250,1,14,1,4,1019,RJNA 160700Z 33004KT 290V350 9999 FEW030 BKN250 14/04 Q1019     RMK 1CU030 A3010=,
20180116_080000.000,0,RJNA,,,,0,20180116080000,-1,-1,-1,-1,250,-1,3,-1,-1,210,300,,9999,0,0,2,FEW 30   BKN 250,1,13,1,4,1018,RJNA 160800Z 25003KT 210V300 9999 FEW030 BKN250 13/04 Q1018 RMK     1CU030 A3008=,
20180116_080000.002,0,RJNA,,,,0,20180116080000,-1,-1,-1,-1,250,-1,3,-1,-1,210,300,,9999,0,0,2,FEW 30   BKN 250,1,13,1,4,1018,RJNA 160800Z 25003KT 210V300 9999 FEW030 BKN250 13/04 Q1018     RMK 1CU030 A3008=,
20180116_090000.000,0,RJNA,,,,0,20180116090000,-1,-1,-1,-1,290,-1,4,-1,-1,-1,-1,,9999,0,0,3,FEW 30   SCT 70   BKN -9999,1,12,1,4,1018,RJNA 160900Z 29004KT 9999 FEW030 SCT070 BKN/// 12/04 Q1018 RMK     1CU030 3AC070 A3009=,
20180116_090000.002,0,RJNA,,,,0,20180116090000,-1,-1,-1,-1,290,-1,4,-1,-1,-1,-1,,9999,0,0,3,FEW 30   SCT 70   BKN -9999,1,12,1,4,1018,RJNA 160900Z 29004KT 9999 FEW030 SCT070 BKN/// 12/04 Q1018 RMK     1CU030 3AC070 A3009=,
20180116_100000.000,0,RJNA,,,,0,20180116100000,-1,-1,-1,-1,999,-1,2,-1,-1,-1,-1,,9999,0,0,2,FEW 30   BKN -9999,1,11,1,5,1019,RJNA 161000Z VRB02KT 9999 FEW030 BKN/// 11/05 Q1019 RMK 1CU030     A3009=,
20180116_100000.002,0,RJNA,,,,0,20180116100000,-1,-1,-1,-1,999,-1,2,-1,-1,-1,-1,,9999,0,0,2,FEW 30   BKN -9999,1,11,1,5,1019,RJNA 161000Z VRB02KT 9999 FEW030 BKN/// 11/05 Q1019 RMK 1CU030     A3009=,
20180116_110000.000,0,RJNA,,,,0,20180116110000,-1,-1,-1,-1,999,-1,1,-1,-1,-1,-1,,9999,0,0,2,FEW 30   BKN -9999,1,8,1,5,1018,RJNA 161100Z VRB01KT 9999 FEW030 BKN/// 08/05 Q1018 RMK 1CU030     A3008=,
20180116_110000.004,0,RJNA,,,,0,20180116110000,-1,-1,-1,-1,999,-1,1,-1,-1,-1,-1,,9999,0,0,2,FEW 30   BKN -9999,1,8,1,5,1018,RJNA 161100Z VRB01KT 9999 FEW030 BKN/// 08/05 Q1018 RMK 1CU030     A3008=,
20180116_120000.000,0,RJNA,,,,0,20180116120000,-1,-1,-1,-1,999,-1,1,-1,-1,-1,-1,,9999,0,0,2,FEW 30   BKN -9999,1,9,1,5,1018,RJNA 161200Z VRB01KT 9999 FEW030 BKN/// 09/05 Q1018 RMK 1CU030     A3008=,
20180116_120000.002,0,RJNA,,,,0,20180116120000,-1,-1,-1,-1,999,-1,1,-1,-1,-1,-1,,9999,0,0,2,FEW 30   BKN -9999,1,9,1,5,1018,RJNA 161200Z VRB01KT 9999 FEW030 BKN/// 09/05 Q1018 RMK 1CU030     A3008=,
20180116_130000.000,0,RJNA,,,,0,20180116130000,-1,-1,-1,-1,70,-1,3,-1,-1,40,100,,9999,0,0,3,FEW 20   SCT 30   BKN 60,1,8,1,5,1018,RJNA 161300Z 07003KT 040V100 9999 FEW020 SCT030 BKN060 08/05     Q1018 RMK 1CU020 3CU030 6SC060 A3008=,
20180116_130000.002,0,RJNA,,,,0,20180116130000,-1,-1,-1,-1,70,-1,3,-1,-1,40,100,,9999,0,0,3,FEW 20   SCT 30   BKN 60,1,8,1,5,1018,RJNA 161300Z 07003KT 040V100 9999 FEW020 SCT030 BKN060 08/05     Q1018 RMK 1CU020 3CU030 6SC060 A3008=,
20180116_140000.000,0,RJNA,,,,0,20180116140000,-1,-1,-1,-1,0,-1,0,-1,-1,-1,-1,,9999,0,0,3,FEW 20   BKN 30   BKN 60,1,9,1,5,1018,RJNA 161400Z 00000KT 9999 FEW020 BKN030 BKN060 09/05 Q1018 RMK     1CU020 5CU030 7SC060 A3008=,
20180116_140000.002,0,RJNA,,,,0,20180116140000,-1,-1,-1,-1,0,-1,0,-1,-1,-1,-1,,9999,0,0,3,FEW 20   BKN 30   BKN 60,1,9,1,5,1018,RJNA 161400Z 00000KT 9999 FEW020 BKN030 BKN060 09/05 Q1018 RMK     1CU020 5CU030 7SC060 A3008=,
20180116_150000.000,0,RJNA,,,,0,20180116150000,-1,-1,-1,-1,350,-1,3,-1,-1,-1,-1,,9999,0,0,3,FEW 20   BKN 30   BKN 60,1,8,1,5,1017,RJNA 161500Z 35003KT 9999 FEW020 BKN030 BKN060 08/05 Q1017 RMK     1CU020 5CU030 7SC060 A3006=,
20180116_150000.002,0,RJNA,,,,0,20180116150000,-1,-1,-1,-1,350,-1,3,-1,-1,-1,-1,,9999,0,0,3,FEW 20   BKN 30   BKN 60,1,8,1,5,1017,RJNA 161500Z 35003KT 9999 FEW020 BKN030 BKN060 08/05 Q1017 RMK     1CU020 5CU030 7SC060 A3006=,
20180116_160000.000,0,RJNA,,,,0,20180116160000,-1,-1,-1,-1,330,-1,4,-1,-1,-1,-1,,9999,0,0,3,FEW 20   SCT 30   BKN 60,1,8,1,5,1017,RJNA 161600Z 33004KT 9999 FEW020 SCT030 BKN060 08/05 Q1017 RMK     1CU020 4CU030 5SC060 A3003=,
20180116_160000.002,0,RJNA,,,,0,20180116160000,-1,-1,-1,-1,330,-1,4,-1,-1,-1,-1,,9999,0,0,3,FEW 20   SCT 30   BKN 60,1,8,1,5,1017,RJNA 161600Z 33004KT 9999 FEW020 SCT030 BKN060 08/05 Q1017 RMK     1CU020 4CU030 5SC060 A3003=,
20180116_170000.000,0,RJNA,,,,0,20180116170000,-1,-1,-1,-1,310,-1,3,-1,-1,260,350,,9999,0,1,3,FEW 15   BKN 30   BKN 60,1,8,1,5,1017,RJNA 161700Z 31003KT 260V350 9999 -SHRA FEW015 BKN030 BKN060     08/05 Q1017 RMK 1CU015 5CU030 7SC060 A3004=,- RA SH
20180116_170000.002,0,RJNA,,,,0,20180116170000,-1,-1,-1,-1,310,-1,3,-1,-1,260,350,,9999,0,1,3,FEW 15   BKN 30   BKN 60,1,8,1,5,1017,RJNA 161700Z 31003KT 260V350 9999 -SHRA FEW015 BKN030 BKN060     08/05 Q1017 RMK 1CU015 5CU030 7SC060 A3004=,- RA SH
20180116_180000.000,0,RJNA,,,,0,20180116180000,-1,-1,-1,-1,999,-1,1,-1,-1,-1,-1,,9999,0,1,3,FEW 15   SCT 30   BKN 60,1,7,1,6,1016,RJNA 161800Z VRB01KT 9999 -SHRA FEW015 SCT030 BKN060 07/06     Q1016 RMK 1CU015 4CU030 7SC060 A3003=,- RA SH
20180116_180000.002,0,RJNA,,,,0,20180116180000,-1,-1,-1,-1,999,-1,1,-1,-1,-1,-1,,9999,0,1,3,FEW 15   SCT 30   BKN 60,1,7,1,6,1016,RJNA 161800Z VRB01KT 9999 -SHRA FEW015 SCT030 BKN060 07/06     Q1016 RMK 1CU015 4CU030 7SC060 A3003=,- RA SH
20180116_190000.000,0,RJNA,,,,0,20180116190000,-1,-1,-1,-1,330,-1,3,-1,-1,-1,-1,,9999,0,1,3,FEW 15   SCT 30   BKN 60,1,7,1,6,1016,RJNA 161900Z 33003KT 9999 -SHRA FEW015 SCT030 BKN060 07/06     Q1016 RMK 1CU015 3CU030 7SC060 A3002=,- RA SH
20180116_190000.002,0,RJNA,,,,0,20180116190000,-1,-1,-1,-1,330,-1,3,-1,-1,-1,-1,,9999,0,1,3,FEW 15   SCT 30   BKN 60,1,7,1,6,1016,RJNA 161900Z 33003KT 9999 -SHRA FEW015 SCT030 BKN060 07/06     Q1016 RMK 1CU015 3CU030 7SC060 A3002=,- RA SH
20180116_200000.000,0,RJNA,,,,0,20180116200000,-1,-1,-1,-1,300,-1,3,-1,-1,-1,-1,,8000,0,1,3,FEW 15   SCT 30   BKN 60,1,7,1,7,1015,RJNA 162000Z 30003KT 8000 -SHRA FEW015 SCT030 BKN060 07/07     Q1015 RMK 1CU015 3CU030 7SC060 A3000=,- RA SH
20180116_200000.002,0,RJNA,,,,0,20180116200000,-1,-1,-1,-1,300,-1,3,-1,-1,-1,-1,,8000,0,1,3,FEW 15   SCT 30   BKN 60,1,7,1,7,1015,RJNA 162000Z 30003KT 8000 -SHRA FEW015 SCT030 BKN060 07/07     Q1015 RMK 1CU015 3CU030 7SC060 A3000=,- RA SH
20180116_210000.000,0,RJNA,,,,0,20180116210000,-1,-1,-1,-1,340,-1,4,-1,-1,-1,-1,,5000,0,2,3,FEW 15   SCT 30   BKN 60,1,7,1,7,1015,RJNA 162100Z 34004KT 5000 -SHRA BR FEW015 SCT030 BKN060 07/07     Q1015 RMK 1CU015 4CU030 7SC060 A2999 15/07 R003=,- RA SH; BR
20180116_210000.002,0,RJNA,,,,0,20180116210000,-1,-1,-1,-1,340,-1,4,-1,-1,-1,-1,,5000,0,2,3,FEW 15   SCT 30   BKN 60,1,7,1,7,1015,RJNA 162100Z 34004KT 5000 -SHRA BR FEW015 SCT030 BKN060 07/07     Q1015 RMK 1CU015 4CU030 7SC060 A2999 15/07 R003=,- RA SH; BR
20180116_220000.000,0,RJNA,,,,0,20180116220000,-1,-1,-1,-1,300,-1,5,-1,-1,-1,-1,,5000,0,2,3,FEW 8   SCT 15   BKN 30,1,7,1,7,1015,RJNA 162200Z 30005KT 5000 -SHRA BR FEW008 SCT015 BKN030 07/07     Q1015 RMK 1ST008 3CU015 6CU030 A2999=,- RA SH; BR
20180116_220000.002,0,RJNA,,,,0,20180116220000,-1,-1,-1,-1,300,-1,5,-1,-1,-1,-1,,5000,0,2,3,FEW 8   SCT 15   BKN 30,1,7,1,7,1015,RJNA 162200Z 30005KT 5000 -SHRA BR FEW008 SCT015 BKN030 07/07     Q1015 RMK 1ST008 3CU015 6CU030 A2999=,- RA SH; BR
20180116_230000.000,0,RJNA,,,,0,20180116230000,-1,-1,-1,-1,999,-1,1,-1,-1,-1,-1,,5000,0,2,3,FEW 8   BKN 10   BKN 25,1,8,1,7,1014,RJNA 162300Z VRB01KT 5000 -SHRA BR FEW008 BKN010 BKN025 08/07     Q1014 RMK 1ST008 5CU010 6CU025 A2997=,- RA SH; BR
20180116_230000.002,0,RJNA,,,,0,20180116230000,-1,-1,-1,-1,999,-1,1,-1,-1,-1,-1,,5000,0,2,3,FEW 8   BKN 10   BKN 25,1,8,1,7,1014,RJNA 162300Z VRB01KT 5000 -SHRA BR FEW008 BKN010 BKN025 08/07     Q1014 RMK 1ST008 5CU010 6CU025 A2997=,- RA SH; BR
20180117_000000.000,0,RJNA,,,,0,20180117000000,-1,-1,-1,-1,999,-1,1,-1,-1,-1,-1,,4500,0,2,3,FEW 6   SCT 8   BKN 12,1,8,1,7,1014,RJNA 170000Z VRB01KT 4500 -SHRA BR FEW006 SCT008 BKN012 08/07     Q1014 RMK 1ST006 3ST008 5CU012 A2997=,- RA SH; BR
20180117_000000.002,0,RJNA,,,,0,20180117000000,-1,-1,-1,-1,999,-1,1,-1,-1,-1,-1,,4500,0,2,3,FEW 6   SCT 8   BKN 12,1,8,1,7,1014,RJNA 170000Z VRB01KT 4500 -SHRA BR FEW006 SCT008 BKN012 08/07     Q1014 RMK 1ST006 3ST008 5CU012 A2997=,- RA SH; BR
20180117_010000.000,0,RJNA,,,,0,20180117010000,-1,-1,-1,-1,0,-1,0,-1,-1,-1,-1,,4000,0,2,3,FEW 2   BKN 6   BKN 15,1,8,1,7,1014,RJNA 170100Z 00000KT 4000 -SHRA BR FEW002 BKN006 BKN015 08/07     Q1014 RMK 1ST002 5ST006 7CU015 A2997 1ST002 OVER RWY           5ST006 COV AD=,- RA SH; BR
20180117_010000.002,0,RJNA,,,,0,20180117010000,-1,-1,-1,-1,0,-1,0,-1,-1,-1,-1,,4000,0,2,3,FEW 2   BKN 6   BKN 15,1,8,1,7,1014,RJNA 170100Z 00000KT 4000 -SHRA BR FEW002 BKN006 BKN015 08/07     Q1014 RMK 1ST002 5ST006 7CU015 A2997 1ST002 OVER RWY           5ST006 COV AD=,- RA SH; BR
20180117_020000.000,0,RJNA,,,,0,20180117020000,-1,-1,-1,-1,999,-1,2,-1,-1,-1,-1,,4000,0,2,3,FEW 2   BKN 4   BKN 10,1,9,1,8,1013,RJNA 170200Z VRB02KT 4000 -SHRA BR FEW002 BKN004 BKN010 09/08     Q1013 RMK 1ST002 5ST004 7ST010 A2994 VIS S-SW 3500M 1ST002           OVER RWY=,- RA SH; BR
20180117_020000.004,0,RJNA,,,,0,20180117020000,-1,-1,-1,-1,999,-1,2,-1,-1,-1,-1,,4000,0,2,3,FEW 2   BKN 4   BKN 10,1,9,1,8,1013,RJNA 170200Z VRB02KT 4000 -SHRA BR FEW002 BKN004 BKN010 09/08     Q1013 RMK 1ST002 5ST004 7ST010 A2994 VIS S-SW 3500M           1ST002 OVER RWY=,- RA SH; BR
20180117_030000.000,0,RJNA,,,,0,20180117030000,-1,-1,-1,-1,300,-1,3,-1,-1,260,320,,3500,0,2,3,FEW 3   BKN 5   BKN 10,1,9,1,8,1011,RJNA 170300Z 30003KT 260V320 3500 -SHRA BR FEW003 BKN005 BKN010     09/08 Q1011 RMK 1ST003 5ST005 7ST010 A2988 1ST003 OVER           RWY=,- RA SH; BR
20180117_030000.002,0,RJNA,,,,0,20180117030000,-1,-1,-1,-1,300,-1,3,-1,-1,260,320,,3500,0,2,3,FEW 3   BKN 5   BKN 10,1,9,1,8,1011,RJNA 170300Z 30003KT 260V320 3500 -SHRA BR FEW003 BKN005     BKN010 09/08 Q1011 RMK 1ST003 5ST005 7ST010 A2988 1ST003           OVER RWY=,- RA SH; BR
20180117_040000.000,0,RJNA,,,,0,20180117040000,-1,-1,-1,-1,0,-1,0,-1,-1,-1,-1,,3000,0,2,3,FEW 3   BKN 5   BKN 10,1,9,1,8,1010,RJNA 170400Z 00000KT 3000 -SHRA BR FEW003 BKN005 BKN010 09/08     Q1010 RMK 2ST003 5ST005 7ST010 A2984 2ST003 OVER RWY=,- RA SH; BR
20180117_040000.003,0,RJNA,,,,0,20180117040000,-1,-1,-1,-1,0,-1,0,-1,-1,-1,-1,,3000,0,2,3,FEW 3   BKN 5   BKN 10,1,9,1,8,1010,RJNA 170400Z 00000KT 3000 -SHRA BR FEW003 BKN005 BKN010 09/08     Q1010 RMK 2ST003 5ST005 7ST010 A2984 2ST003 OVER RWY=,- RA SH; BR
20180117_050000.000,0,RJNA,,,,0,20180117050000,-1,-1,-1,-1,350,-1,5,-1,-1,-1,-1,,3000,0,2,3,FEW 2   BKN 4   BKN 10,1,9,1,9,1008,RJNA 170500Z 35005KT 3000 -SHRA BR FEW002 BKN004 BKN010 09/09     Q1008 RMK 1ST002 5ST004 7ST010 A2978 VIS S 2000M 1ST002           OVER RWY=,- RA SH; BR
20180117_050000.003,0,RJNA,,,,0,20180117050000,-1,-1,-1,-1,350,-1,5,-1,-1,-1,-1,,3000,0,2,3,FEW 2   BKN 4   BKN 10,1,9,1,9,1008,RJNA 170500Z 35005KT 3000 -SHRA BR FEW002 BKN004 BKN010 09/09     Q1008 RMK 1ST002 5ST004 7ST010 A2978 VIS S 2000M 1ST002           OVER RWY=,- RA SH; BR
20180117_060000.000,0,RJNA,,,,0,20180117060000,-1,-1,-1,-1,330,-1,5,-1,-1,-1,-1,,4500,0,2,3,FEW 5   BKN 8   BKN 15,1,10,1,10,1008,RJNA 170600Z 33005KT 4500 -SHRA BR FEW005 BKN008 BKN015 10/10     Q1008 RMK 1ST005 5ST008 7CU015 A2979=,- RA SH; BR
20180117_060000.002,0,RJNA,,,,0,20180117060000,-1,-1,-1,-1,330,-1,5,-1,-1,-1,-1,,4500,0,2,3,FEW 5   BKN 8   BKN 15,1,10,1,10,1008,RJNA 170600Z 33005KT 4500 -SHRA BR FEW005 BKN008 BKN015 10/10     Q1008 RMK 1ST005 5ST008 7CU015 A2979=,- RA SH; BR
20180117_070000.000,0,RJNA,,,,0,20180117070000,-1,-1,-1,-1,330,-1,3,-1,-1,-1,-1,,5000,0,2,3,FEW 5   BKN 8   BKN 15,1,11,1,10,1008,RJNA 170700Z 33003KT 5000 -SHRA BR FEW005 BKN008 BKN015 11/10     Q1008 RMK 1ST005 5ST008 7CU015 A2977=,- RA SH; BR
20180117_070000.002,0,RJNA,,,,0,20180117070000,-1,-1,-1,-1,330,-1,3,-1,-1,-1,-1,,5000,0,2,3,FEW 5   BKN 8   BKN 15,1,11,1,10,1008,RJNA 170700Z 33003KT 5000 -SHRA BR FEW005 BKN008 BKN015 11/10     Q1008 RMK 1ST005 5ST008 7CU015 A2977=,- RA SH; BR
20180117_080000.000,0,RJNA,,,,0,20180117080000,-1,-1,-1,-1,270,-1,3,-1,-1,-1,-1,,5000,0,1,3,FEW 5   BKN 8   BKN 15,1,11,1,10,1008,RJNA 170800Z 27003KT 5000 BR FEW005 BKN008 BKN015 11/10 Q1008     RMK 1ST005 5ST008 7CU015 A2978=,BR
20180117_080000.002,0,RJNA,,,,0,20180117080000,-1,-1,-1,-1,270,-1,3,-1,-1,-1,-1,,5000,0,1,3,FEW 5   BKN 8   BKN 15,1,11,1,10,1008,RJNA 170800Z 27003KT 5000 BR FEW005 BKN008 BKN015 11/10 Q1008     RMK 1ST005 5ST008 7CU015 A2978=,BR
20180117_090000.000,0,RJNA,,,,0,20180117090000,-1,-1,-1,-1,999,-1,2,-1,-1,-1,-1,,5000,0,2,3,SCT 5   BKN 8   BKN 15,1,11,1,10,1008,RJNA 170900Z VRB02KT 5000 -SHRA BR SCT005 BKN008 BKN015 11/10     Q1008 RMK 3ST005 5ST008 7CU015 A2978=,- RA SH; BR
20180117_090000.003,0,RJNA,,,,0,20180117090000,-1,-1,-1,-1,999,-1,2,-1,-1,-1,-1,,5000,0,2,3,SCT 5   BKN 8   BKN 15,1,11,1,10,1008,RJNA 170900Z VRB02KT 5000 -SHRA BR SCT005 BKN008 BKN015 11/10     Q1008 RMK 3ST005 5ST008 7CU015 A2978=,- RA SH; BR
20180117_100000.000,0,RJNA,,,,0,20180117100000,-1,-1,-1,-1,999,-1,2,-1,-1,-1,-1,,5000,0,1,3,FEW 4   BKN 8   BKN 20,1,10,1,9,1007,RJNA 171000Z VRB02KT 5000 BR FEW004 BKN008 BKN020 10/09 Q1007     RMK 2ST004 5ST008 6CU020 A2976=,BR
20180117_100000.002,0,RJNA,,,,0,20180117100000,-1,-1,-1,-1,999,-1,2,-1,-1,-1,-1,,5000,0,1,3,FEW 4   BKN 8   BKN 20,1,10,1,9,1007,RJNA 171000Z VRB02KT 5000 BR FEW004 BKN008 BKN020 10/09 Q1007     RMK 2ST004 5ST008 6CU020 A2976=,BR
20180117_110000.000,0,RJNA,,,,0,20180117110000,-1,-1,-1,-1,350,-1,3,-1,-1,-1,-1,,4000,0,1,3,FEW 3   SCT 5   BKN 8,1,10,1,10,1008,RJNA 171100Z 35003KT 4000 BR FEW003 SCT005 BKN008 10/10 Q1008     RMK 1ST003 3ST005 5ST008 A2978=,BR
20180117_110000.003,0,RJNA,,,,0,20180117110000,-1,-1,-1,-1,350,-1,3,-1,-1,-1,-1,,4000,0,1,3,FEW 3   SCT 5   BKN 8,1,10,1,10,1008,RJNA 171100Z 35003KT 4000 BR FEW003 SCT005 BKN008 10/10 Q1008     RMK 1ST003 3ST005 5ST008 A2978=,BR
20180117_120000.000,0,RJNA,,,,0,20180117120000,-1,-1,-1,-1,250,-1,3,-1,-1,220,280,,4000,0,2,3,FEW 3   BKN 20   BKN 40,1,10,1,10,1009,RJNA 171200Z 25003KT 220V280 4000 -SHRA BR FEW003 BKN020 BKN040     10/10 Q1009 RMK 1ST003 5CU020 7SC040 A2980=,- RA SH; BR
20180117_120000.003,0,RJNA,,,,0,20180117120000,-1,-1,-1,-1,250,-1,3,-1,-1,220,280,,4000,0,2,3,FEW 3   BKN 20   BKN 40,1,10,1,10,1009,RJNA 171200Z 25003KT 220V280 4000 -SHRA BR FEW003 BKN020     BKN040 10/10 Q1009 RMK 1ST003 5CU020 7SC040 A2980=,- RA SH; BR
20180117_130000.000,0,RJNA,,,,0,20180117130000,-1,-1,-1,-1,290,-1,6,-1,-1,250,350,,9999,0,0,2,FEW 8   SCT 100,1,12,1,11,1009,RJNA 171300Z 29006KT 250V350 9999 FEW008 SCT100 12/11 Q1009 RMK     1ST008 3AC100 A2981=,
20180117_130000.002,0,RJNA,,,,0,20180117130000,-1,-1,-1,-1,290,-1,6,-1,-1,250,350,,9999,0,0,2,FEW 8   SCT 100,1,12,1,11,1009,RJNA 171300Z 29006KT 250V350 9999 FEW008 SCT100 12/11 Q1009     RMK 1ST008 3AC100 A2981=,
20180117_140000.000,0,RJNA,,,,0,20180117140000,-1,-1,-1,-1,310,-1,4,-1,-1,280,350,,9999,0,0,1,FEW 20,1,10,1,9,1010,RJNA 171400Z 31004KT 280V350 9999 FEW020 10/09 Q1010 RMK 1CU020     A2984=,
20180117_140000.002,0,RJNA,,,,0,20180117140000,-1,-1,-1,-1,310,-1,4,-1,-1,280,350,,9999,0,0,1,FEW 20,1,10,1,9,1010,RJNA 171400Z 31004KT 280V350 9999 FEW020 10/09 Q1010 RMK     1CU020 A2984=,
20180117_150000.000,0,RJNA,,,,0,20180117150000,-1,-1,-1,-1,310,-1,11,-1,-1,-1,-1,,9999,0,0,1,FEW 20,1,11,1,7,1011,RJNA 171500Z 31011KT 9999 FEW020 11/07 Q1011 RMK 1CU020 A2986=,
20180117_150000.002,0,RJNA,,,,0,20180117150000,-1,-1,-1,-1,310,-1,11,-1,-1,-1,-1,,9999,0,0,1,FEW 20,1,11,1,7,1011,RJNA 171500Z 31011KT 9999 FEW020 11/07 Q1011 RMK 1CU020 A2986=,
20180117_160000.000,0,RJNA,,,,0,20180117160000,-1,-1,-1,-1,290,-1,8,-1,-1,260,320,,9999,0,0,1,FEW 20,1,10,1,6,1012,RJNA 171600Z 29008KT 260V320 9999 FEW020 10/06 Q1012 RMK 1CU020     A2989=,
20180117_160000.002,0,RJNA,,,,0,20180117160000,-1,-1,-1,-1,290,-1,8,-1,-1,260,320,,9999,0,0,1,FEW 20,1,10,1,6,1012,RJNA 171600Z 29008KT 260V320 9999 FEW020 10/06 Q1012 RMK     1CU020 A2989=,
20180117_170000.000,0,RJNA,,,,0,20180117170000,-1,-1,-1,-1,260,-1,6,-1,-1,-1,-1,,9999,0,0,1,FEW 20,1,10,1,6,1012,RJNA 171700Z 26006KT 9999 FEW020 10/06 Q1012 RMK 1CU020 A2991=,
20180117_170000.002,0,RJNA,,,,0,20180117170000,-1,-1,-1,-1,260,-1,6,-1,-1,-1,-1,,9999,0,0,1,FEW 20,1,10,1,6,1012,RJNA 171700Z 26006KT 9999 FEW020 10/06 Q1012 RMK 1CU020 A2991=,
20180117_180000.000,0,RJNA,,,,0,20180117180000,-1,-1,-1,-1,290,-1,9,-1,-1,250,310,,9999,0,0,1,FEW 30,1,9,1,6,1013,RJNA 171800Z 29009KT 250V310 9999 FEW030 09/06 Q1013 RMK 1CU030     A2994=,
20180117_180000.002,0,RJNA,,,,0,20180117180000,-1,-1,-1,-1,290,-1,9,-1,-1,250,310,,9999,0,0,1,FEW 30,1,9,1,6,1013,RJNA 171800Z 29009KT 250V310 9999 FEW030 09/06 Q1013 RMK     1CU030 A2994=,
20180117_190000.000,0,RJNA,,,,0,20180117190000,-1,-1,-1,-1,300,-1,6,-1,-1,-1,-1,,9999,0,0,1,FEW 30,1,9,1,5,1013,RJNA 171900Z 30006KT 9999 FEW030 09/05 Q1013 RMK 1CU030 A2994=,
20180117_190000.003,0,RJNA,,,,0,20180117190000,-1,-1,-1,-1,300,-1,6,-1,-1,-1,-1,,9999,0,0,1,FEW 30,1,9,1,5,1013,RJNA 171900Z 30006KT 9999 FEW030 09/05 Q1013 RMK 1CU030 A2994=,
20180117_200000.000,0,RJNA,,,,0,20180117200000,-1,-1,-1,-1,300,-1,6,-1,-1,-1,-1,,9999,0,0,1,FEW 30,1,8,1,5,1015,RJNA 172000Z 30006KT 9999 FEW030 08/05 Q1015 RMK 1CU030 A2997=,
20180117_200000.002,0,RJNA,,,,0,20180117200000,-1,-1,-1,-1,300,-1,6,-1,-1,-1,-1,,9999,0,0,1,FEW 30,1,8,1,5,1015,RJNA 172000Z 30006KT 9999 FEW030 08/05 Q1015 RMK 1CU030 A2997=,
20180117_210000.000,0,RJNA,,,,0,20180117210000,-1,-1,-1,-1,290,-1,6,-1,-1,-1,-1,,9999,0,0,1,FEW 30,1,8,1,5,1015,RJNA 172100Z 29006KT 9999 FEW030 08/05 Q1015 RMK 2CU030 A2998     12/06 R008=,
20180117_210000.002,0,RJNA,,,,0,20180117210000,-1,-1,-1,-1,290,-1,6,-1,-1,-1,-1,,9999,0,0,1,FEW 30,1,8,1,5,1015,RJNA 172100Z 29006KT 9999 FEW030 08/05 Q1015 RMK 2CU030 A2998     12/06 R008=,
20180117_220000.000,0,RJNA,,,,0,20180117220000,-1,-1,-1,-1,10,-1,6,-1,-1,320,60,,9999,0,0,1,FEW 8,1,6,1,4,1015,RJNA 172200Z 01006KT 320V060 9999 FEW008 06/04 Q1015 RMK 1ST008     A2999=,
20180117_220000.003,0,RJNA,,,,0,20180117220000,-1,-1,-1,-1,10,-1,6,-1,-1,320,60,,9999,0,0,1,FEW 8,1,6,1,4,1015,RJNA 172200Z 01006KT 320V060 9999 FEW008 06/04 Q1015 RMK     1ST008 A2999=,
20180117_230000.000,0,RJNA,,,,0,20180117230000,-1,-1,-1,-1,320,-1,3,-1,-1,290,10,,9999,0,0,1,FEW 10,1,6,1,5,1015,RJNA 172300Z 32003KT 290V010 9999 FEW010 06/05 Q1015 RMK 1ST010     A2999=,
20180117_230000.002,0,RJNA,,,,0,20180117230000,-1,-1,-1,-1,320,-1,3,-1,-1,290,10,,9999,0,0,1,FEW 10,1,6,1,5,1015,RJNA 172300Z 32003KT 290V010 9999 FEW010 06/05 Q1015 RMK     1ST010 A2999=,
20180118_000000.000,0,RJNA,,,,0,20180118000000,-1,-1,-1,-1,999,-1,2,-1,-1,-1,-1,,9999,0,0,1,FEW 10,1,8,1,5,1015,RJNA 180000Z VRB02KT 9999 FEW010 08/05 Q1015 RMK 1ST010 A3000=,
20180118_000000.002,0,RJNA,,,,0,20180118000000,-1,-1,-1,-1,999,-1,2,-1,-1,-1,-1,,9999,0,0,1,FEW 10,1,8,1,5,1015,RJNA 180000Z VRB02KT 9999 FEW010 08/05 Q1015 RMK 1ST010 A3000=,
20180118_010000.000,0,RJNA,,,,0,20180118010000,-1,-1,-1,-1,340,-1,7,-1,-1,-1,-1,,9999,0,0,1,FEW 30,1,10,1,6,1017,RJNA 180100Z 34007KT 9999 FEW030 10/06 Q1017 RMK 1CU030 A3003=,
20180118_010000.002,0,RJNA,,,,0,20180118010000,-1,-1,-1,-1,340,-1,7,-1,-1,-1,-1,,9999,0,0,1,FEW 30,1,10,1,6,1017,RJNA 180100Z 34007KT 9999 FEW030 10/06 Q1017 RMK 1CU030 A3003=,
20180118_020000.000,0,RJNA,,,,0,20180118020000,-1,-1,-1,-1,330,-1,8,-1,-1,290,360,,9999,0,0,1,FEW 30,1,13,1,6,1016,RJNA 180200Z 33008KT 290V360 9999 FEW030 13/06 Q1016 RMK 1CU030     A3001=,
20180118_020000.002,0,RJNA,,,,0,20180118020000,-1,-1,-1,-1,330,-1,8,-1,-1,290,360,,9999,0,0,1,FEW 30,1,13,1,6,1016,RJNA 180200Z 33008KT 290V360 9999 FEW030 13/06 Q1016 RMK     1CU030 A3001=,
20180118_030000.000,0,RJNA,,,,0,20180118030000,-1,-1,-1,-1,320,-1,8,-1,-1,280,350,,9999,0,0,2,FEW 30   BKN 250,1,14,1,4,1015,RJNA 180300Z 32008KT 280V350 9999 FEW030 BKN250 14/04 Q1015 RMK     2CU030 A2999=,
20180118_030000.001,2,RJNA,,,,0,20180118030000,-1,-1,-1,-1,320,-1,8,-1,-1,280,350,,9999,0,0,2,FEW 30   BKN 250,1,14,1,4,1015,RJNA 180300Z 32008KT 280V350 9999 FEW030 BKN250 14/04 Q1015     RMK 2CU030 A2999=,
20180118_030000.003,0,RJNA,,,,0,20180118030000,-1,-1,-1,-1,320,-1,8,-1,-1,280,350,,9999,0,0,2,FEW 30   BKN 250,1,14,1,4,1015,RJNA 180300Z 32008KT 280V350 9999 FEW030 BKN250 14/04     Q1015 RMK 2CU030 A2999=,
20180118_040000.000,0,RJNA,,,,0,20180118040000,-1,-1,-1,-1,280,-1,13,-1,-1,240,320,,9999,0,0,3,FEW 30   SCT 50   BKN 250,1,14,1,6,1015,RJNA 180400Z 28013KT 240V320 9999 FEW030 SCT050 BKN250 14/06     Q1015 RMK 2CU030 3SC050 A2999 MAX WIND 20KT=,
20180118_040000.002,0,RJNA,,,,0,20180118040000,-1,-1,-1,-1,280,-1,13,-1,-1,240,320,,9999,0,0,3,FEW 30   SCT 50   BKN 250,1,14,1,6,1015,RJNA 180400Z 28013KT 240V320 9999 FEW030 SCT050 BKN250 14/06     Q1015 RMK 2CU030 3SC050 A2999 MAX WIND 20KT=,
20180118_050000.000,0,RJNA,,,,0,20180118050000,-1,-1,-1,-1,300,-1,14,-1,-1,-1,-1,,9999,0,0,3,FEW 30   SCT 50   BKN 250,1,14,1,6,1015,RJNA 180500Z 30014KT 9999 FEW030 SCT050 BKN250 14/06 Q1015 RMK     1CU030 3SC050 A2999 MAX WIND 21KT=,
20180118_050000.002,0,RJNA,,,,0,20180118050000,-1,-1,-1,-1,300,-1,14,-1,-1,-1,-1,,9999,0,0,3,FEW 30   SCT 50   BKN 250,1,14,1,6,1015,RJNA 180500Z 30014KT 9999 FEW030 SCT050 BKN250 14/06 Q1015 RMK     1CU030 3SC050 A2999 MAX WIND 21KT=,
20180118_060000.000,0,RJNA,,,,0,20180118060000,-1,-1,-1,-1,310,-1,13,-1,-1,-1,-1,,9999,0,0,2,FEW 30   BKN 230,1,14,1,4,1015,RJNA 180600Z 31013KT 9999 FEW030 BKN230 14/04 Q1015 RMK 1CU030     A3000=,
20180118_060000.002,0,RJNA,,,,0,20180118060000,-1,-1,-1,-1,310,-1,13,-1,-1,-1,-1,,9999,0,0,2,FEW 30   BKN 230,1,14,1,4,1015,RJNA 180600Z 31013KT 9999 FEW030 BKN230 14/04 Q1015 RMK 1CU030     A3000=,
20180118_070000.000,0,RJNA,,,,0,20180118070000,-1,-1,-1,-1,310,-1,12,-1,-1,-1,-1,,9999,0,0,2,FEW 30   BKN 230,1,14,1,5,1016,RJNA 180700Z 31012KT 9999 FEW030 BKN230 14/05 Q1016 RMK 1CU030     A3001=,
20180118_070000.002,0,RJNA,,,,0,20180118070000,-1,-1,-1,-1,310,-1,12,-1,-1,-1,-1,,9999,0,0,2,FEW 30   BKN 230,1,14,1,5,1016,RJNA 180700Z 31012KT 9999 FEW030 BKN230 14/05 Q1016 RMK 1CU030     A3001=,
20180118_080000.000,0,RJNA,,,,0,20180118080000,-1,-1,-1,-1,310,-1,13,-1,-1,-1,-1,,9999,0,0,2,FEW 30   BKN 230,1,13,1,5,1016,RJNA 180800Z 31013KT 9999 FEW030 BKN230 13/05 Q1016 RMK 1CU030     A3003=,
20180118_080000.002,0,RJNA,,,,0,20180118080000,-1,-1,-1,-1,310,-1,13,-1,-1,-1,-1,,9999,0,0,2,FEW 30   BKN 230,1,13,1,5,1016,RJNA 180800Z 31013KT 9999 FEW030 BKN230 13/05 Q1016 RMK 1CU030     A3003=,
20180118_090000.000,0,RJNA,,,,0,20180118090000,-1,-1,-1,-1,320,-1,12,-1,-1,-1,-1,,9999,0,0,3,FEW 30   SCT 50   BKN -9999,1,11,1,4,1017,RJNA 180900Z 32012KT 9999 FEW030 SCT050 BKN/// 11/04 Q1017 RMK     1CU030 3SC050 A3006=,
20180118_090000.002,0,RJNA,,,,0,20180118090000,-1,-1,-1,-1,320,-1,12,-1,-1,-1,-1,,9999,0,0,3,FEW 30   SCT 50   BKN -9999,1,11,1,4,1017,RJNA 180900Z 32012KT 9999 FEW030 SCT050 BKN/// 11/04 Q1017 RMK     1CU030 3SC050 A3006=,
20180118_100000.000,0,RJNA,,,,0,20180118100000,-1,-1,-1,-1,320,-1,9,-1,-1,-1,-1,,9999,0,0,2,FEW 30   BKN -9999,1,11,1,4,1017,RJNA 181000Z 32009KT 9999 FEW030 BKN/// 11/04 Q1017 RMK 1CU030     A3006=,
20180118_100000.002,0,RJNA,,,,0,20180118100000,-1,-1,-1,-1,320,-1,9,-1,-1,-1,-1,,9999,0,0,2,FEW 30   BKN -9999,1,11,1,4,1017,RJNA 181000Z 32009KT 9999 FEW030 BKN/// 11/04 Q1017 RMK 1CU030     A3006=,
20180118_110000.000,0,RJNA,,,,0,20180118110000,-1,-1,-1,-1,340,-1,6,-1,-1,-1,-1,,9999,0,0,2,FEW 30   BKN -9999,1,9,1,3,1018,RJNA 181100Z 34006KT 9999 FEW030 BKN/// 09/03 Q1018 RMK 1CU030     A3007=,
20180118_110000.002,0,RJNA,,,,0,20180118110000,-1,-1,-1,-1,340,-1,6,-1,-1,-1,-1,,9999,0,0,2,FEW 30   BKN -9999,1,9,1,3,1018,RJNA 181100Z 34006KT 9999 FEW030 BKN/// 09/03 Q1018 RMK 1CU030     A3007=,
20180118_120000.000,0,RJNA,,,,0,20180118120000,-1,-1,-1,-1,330,-1,11,-1,-1,-1,-1,,9999,0,0,2,FEW 30   BKN -9999,1,10,1,2,1018,RJNA 181200Z 33011KT 9999 FEW030 BKN/// 10/02 Q1018 RMK 1CU030     A3007=,
20180118_120000.002,0,RJNA,,,,0,20180118120000,-1,-1,-1,-1,330,-1,11,-1,-1,-1,-1,,9999,0,0,2,FEW 30   BKN -9999,1,10,1,2,1018,RJNA 181200Z 33011KT 9999 FEW030 BKN/// 10/02 Q1018 RMK 1CU030     A3007=,
20180118_130000.000,0,RJNA,,,,0,20180118130000,-1,-1,-1,-1,300,-1,8,-1,-1,-1,-1,,9999,0,0,2,FEW 30   SCT -9999,1,10,1,1,1019,RJNA 181300Z 30008KT 9999 FEW030 SCT/// 10/01 Q1019 RMK 1CU030     A3009=,
20180118_130000.002,0,RJNA,,,,0,20180118130000,-1,-1,-1,-1,300,-1,8,-1,-1,-1,-1,,9999,0,0,2,FEW 30   SCT -9999,1,10,1,1,1019,RJNA 181300Z 30008KT 9999 FEW030 SCT/// 10/01 Q1019 RMK 1CU030     A3009=,
20180118_140000.000,0,RJNA,,,,0,20180118140000,-1,-1,-1,-1,310,-1,12,-1,-1,-1,-1,,9999,0,0,2,FEW 30   SCT -9999,1,9,1,2,1019,RJNA 181400Z 31012KT 9999 FEW030 SCT/// 09/02 Q1019 RMK 1CU030     A3010=,
20180118_140000.002,0,RJNA,,,,0,20180118140000,-1,-1,-1,-1,310,-1,12,-1,-1,-1,-1,,9999,0,0,2,FEW 30   SCT -9999,1,9,1,2,1019,RJNA 181400Z 31012KT 9999 FEW030 SCT/// 09/02 Q1019 RMK 1CU030     A3010=,
20180118_150000.000,0,RJNA,,,,0,20180118150000,-1,-1,-1,-1,330,-1,6,-1,-1,-1,-1,,9999,0,0,2,FEW 30   SCT 50,1,7,1,2,1019,RJNA 181500Z 33006KT 9999 FEW030 SCT050 07/02 Q1019 RMK 1CU030     3SC050 A3011=,
20180118_150000.002,0,RJNA,,,,0,20180118150000,-1,-1,-1,-1,330,-1,6,-1,-1,-1,-1,,9999,0,0,2,FEW 30   SCT 50,1,7,1,2,1019,RJNA 181500Z 33006KT 9999 FEW030 SCT050 07/02 Q1019 RMK 1CU030     3SC050 A3011=,
20180118_160000.000,0,RJNA,,,,0,20180118160000,-1,-1,-1,-1,340,-1,9,-1,-1,-1,-1,,9999,0,0,1,FEW 30,1,6,1,1,1019,RJNA 181600Z 34009KT 9999 FEW030 06/01 Q1019 RMK 1CU030 A3009=,
20180118_160000.002,0,RJNA,,,,0,20180118160000,-1,-1,-1,-1,340,-1,9,-1,-1,-1,-1,,9999,0,0,1,FEW 30,1,6,1,1,1019,RJNA 181600Z 34009KT 9999 FEW030 06/01 Q1019 RMK 1CU030 A3009=,
20180118_170000.000,0,RJNA,,,,0,20180118170000,-1,-1,-1,-1,320,-1,11,-1,-1,-1,-1,,9999,0,0,1,FEW 30,1,8,1,0,1018,RJNA 181700Z 32011KT 9999 FEW030 08/00 Q1018 RMK 1CU030 A3008=,
20180118_170000.002,0,RJNA,,,,0,20180118170000,-1,-1,-1,-1,320,-1,11,-1,-1,-1,-1,,9999,0,0,1,FEW 30,1,8,1,0,1018,RJNA 181700Z 32011KT 9999 FEW030 08/00 Q1018 RMK 1CU030 A3008=,
20180118_180000.000,0,RJNA,,,,0,20180118180000,-1,-1,-1,-1,310,-1,8,-1,-1,-1,-1,,9999,0,0,1,FEW -9999,1,7,-1,0,1018,RJNA 181800Z 31008KT 9999 FEW/// 07/M00 Q1018 RMK A3008=,
20180118_180000.002,0,RJNA,,,,0,20180118180000,-1,-1,-1,-1,310,-1,8,-1,-1,-1,-1,,9999,0,0,1,FEW -9999,1,7,-1,0,1018,RJNA 181800Z 31008KT 9999 FEW/// 07/M00 Q1018 RMK A3008=,
20180118_190000.000,0,RJNA,,,,0,20180118190000,-1,-1,-1,-1,290,-1,4,-1,-1,-1,-1,,9999,0,0,1,SCT -9999,1,6,1,0,1018,RJNA 181900Z 29004KT 9999 SCT/// 06/00 Q1018 RMK A3008=,
20180118_190000.002,0,RJNA,,,,0,20180118190000,-1,-1,-1,-1,290,-1,4,-1,-1,-1,-1,,9999,0,0,1,SCT -9999,1,6,1,0,1018,RJNA 181900Z 29004KT 9999 SCT/// 06/00 Q1018 RMK A3008=,
20180118_200000.000,0,RJNA,,,,0,20180118200000,-1,-1,-1,-1,290,-1,4,-1,-1,-1,-1,,9999,0,0,1,FEW 30,1,7,1,1,1018,RJNA 182000Z 29004KT 9999 FEW030 07/01 Q1018 RMK 1CU030 A3008=,
20180118_200000.002,0,RJNA,,,,0,20180118200000,-1,-1,-1,-1,290,-1,4,-1,-1,-1,-1,,9999,0,0,1,FEW 30,1,7,1,1,1018,RJNA 182000Z 29004KT 9999 FEW030 07/01 Q1018 RMK 1CU030 A3008=,
20180118_210000.000,0,RJNA,,,,0,20180118210000,-1,-1,-1,-1,330,-1,3,-1,-1,290,10,,9999,0,0,1,NSC -1,1,5,1,1,1019,RJNA 182100Z 33003KT 290V010 9999 NSC 05/01 Q1019 RMK A3010     15/04=,
20180118_210000.003,0,RJNA,,,,0,20180118210000,-1,-1,-1,-1,330,-1,3,-1,-1,290,10,,9999,0,0,1,NSC -1,1,5,1,1,1019,RJNA 182100Z 33003KT 290V010 9999 NSC 05/01 Q1019 RMK A3010     15/04=,
20180118_220000.000,0,RJNA,,,,0,20180118220000,-1,-1,-1,-1,310,-1,4,-1,-1,290,360,,9999,0,0,1,NSC -1,1,5,1,1,1019,RJNA 182200Z 31004KT 290V360 9999 NSC 05/01 Q1019 RMK A3012=,
20180118_220000.002,0,RJNA,,,,0,20180118220000,-1,-1,-1,-1,310,-1,4,-1,-1,290,360,,9999,0,0,1,NSC -1,1,5,1,1,1019,RJNA 182200Z 31004KT 290V360 9999 NSC 05/01 Q1019 RMK A3012=,
20180118_230000.000,0,RJNA,,,,0,20180118230000,-1,-1,-1,-1,340,-1,4,-1,-1,-1,-1,,9999,0,0,1,NSC -1,1,5,1,1,1020,RJNA 182300Z 34004KT 9999 NSC 05/01 Q1020 RMK A3013=,
20180118_230000.003,0,RJNA,,,,0,20180118230000,-1,-1,-1,-1,340,-1,4,-1,-1,-1,-1,,9999,0,0,1,NSC -1,1,5,1,1,1020,RJNA 182300Z 34004KT 9999 NSC 05/01 Q1020 RMK A3013=,
20180119_000000.000,0,RJNA,,,,0,20180119000000,-1,-1,-1,-1,340,-1,8,-1,-1,-1,-1,,9999,0,0,1,FEW 230,1,7,1,0,1020,RJNA 190000Z 34008KT 9999 FEW230 07/00 Q1020 RMK A3013=,
20180119_000000.002,0,RJNA,,,,0,20180119000000,-1,-1,-1,-1,340,-1,8,-1,-1,-1,-1,,9999,0,0,1,FEW 230,1,7,1,0,1020,RJNA 190000Z 34008KT 9999 FEW230 07/00 Q1020 RMK A3013=,
20180119_010000.000,0,RJNA,,,,0,20180119010000,-1,-1,-1,-1,330,-1,7,-1,-1,-1,-1,,9999,0,0,1,FEW 230,1,9,-1,1,1020,RJNA 190100Z 33007KT 9999 FEW230 09/M01 Q1020 RMK A3013=,
20180119_010000.003,0,RJNA,,,,0,20180119010000,-1,-1,-1,-1,330,-1,7,-1,-1,-1,-1,,9999,0,0,1,FEW 230,1,9,-1,1,1020,RJNA 190100Z 33007KT 9999 FEW230 09/M01 Q1020 RMK A3013=,
20180119_020000.000,0,RJNA,,,,0,20180119020000,-1,-1,-1,-1,320,-1,6,-1,-1,290,350,,9999,0,0,1,FEW 50,1,10,-1,1,1019,RJNA 190200Z 32006KT 290V350 9999 FEW050 10/M01 Q1019 RMK     1SC050 A3012=,
20180119_020000.002,0,RJNA,,,,0,20180119020000,-1,-1,-1,-1,320,-1,6,-1,-1,290,350,,9999,0,0,1,FEW 50,1,10,-1,1,1019,RJNA 190200Z 32006KT 290V350 9999 FEW050 10/M01 Q1019 RMK     1SC050 A3012=,
20180119_030000.000,0,RJNA,,,,0,20180119030000,-1,-1,-1,-1,320,-1,7,-1,-1,270,360,,9999,0,0,1,FEW 50,1,12,-1,3,1018,RJNA 190300Z 32007KT 270V360 9999 FEW050 12/M03 Q1018 RMK     1SC050 A3008=,
20180119_030000.002,0,RJNA,,,,0,20180119030000,-1,-1,-1,-1,320,-1,7,-1,-1,270,360,,9999,0,0,1,FEW 50,1,12,-1,3,1018,RJNA 190300Z 32007KT 270V360 9999 FEW050 12/M03 Q1018 RMK     1SC050 A3008=,
20180119_040000.000,0,RJNA,,,,0,20180119040000,-1,-1,-1,-1,310,-1,9,-1,-1,260,340,,9999,0,0,1,FEW 30,1,12,-1,3,1018,RJNA 190400Z 31009KT 260V340 9999 FEW030 12/M03 Q1018 RMK     1CU030 A3006=,
20180119_040000.002,0,RJNA,,,,0,20180119040000,-1,-1,-1,-1,310,-1,9,-1,-1,260,340,,9999,0,0,1,FEW 30,1,12,-1,3,1018,RJNA 190400Z 31009KT 260V340 9999 FEW030 12/M03 Q1018 RMK     1CU030 A3006=,
20180119_050000.000,0,RJNA,,,,0,20180119050000,-1,-1,-1,-1,280,-1,9,-1,-1,260,320,,9999,0,0,1,FEW 50,1,12,-1,4,1017,RJNA 190500Z 28009KT 260V320 9999 FEW050 12/M04 Q1017 RMK     1SC050 A3003=,
20180119_050000.003,0,RJNA,,,,0,20180119050000,-1,-1,-1,-1,280,-1,9,-1,-1,260,320,,9999,0,0,1,FEW 50,1,12,-1,4,1017,RJNA 190500Z 28009KT 260V320 9999 FEW050 12/M04 Q1017 RMK     1SC050 A3003=,
20180119_060000.000,0,RJNA,,,,0,20180119060000,-1,-1,-1,-1,290,-1,10,-1,-1,-1,-1,,9999,0,0,1,FEW 30,1,12,-1,4,1016,RJNA 190600Z 29010KT 9999 FEW030 12/M04 Q1016 RMK 1CU030 A3001=,
20180119_060000.002,0,RJNA,,,,0,20180119060000,-1,-1,-1,-1,290,-1,10,-1,-1,-1,-1,,9999,0,0,1,FEW 30,1,12,-1,4,1016,RJNA 190600Z 29010KT 9999 FEW030 12/M04 Q1016 RMK 1CU030     A3001=,
20180119_070000.000,0,RJNA,,,,0,20180119070000,-1,-1,-1,-1,300,-1,10,-1,-1,260,320,,9999,0,0,2,FEW 30   SCT 230,1,12,-1,5,1015,RJNA 190700Z 30010KT 260V320 9999 FEW030 SCT230 12/M05 Q1015     RMK 1CU030 A3000=,
20180119_070000.002,0,RJNA,,,,0,20180119070000,-1,-1,-1,-1,300,-1,10,-1,-1,260,320,,9999,0,0,2,FEW 30   SCT 230,1,12,-1,5,1015,RJNA 190700Z 30010KT 260V320 9999 FEW030 SCT230 12/M05 Q1015     RMK 1CU030 A3000=,
20180119_080000.000,0,RJNA,,,,0,20180119080000,-1,-1,-1,-1,290,-1,8,-1,-1,-1,-1,,9999,0,0,1,FEW 30,1,10,-1,4,1016,RJNA 190800Z 29008KT 9999 FEW030 10/M04 Q1016 RMK 1CU030 A3002=,
20180119_080000.002,0,RJNA,,,,0,20180119080000,-1,-1,-1,-1,290,-1,8,-1,-1,-1,-1,,9999,0,0,1,FEW 30,1,10,-1,4,1016,RJNA 190800Z 29008KT 9999 FEW030 10/M04 Q1016 RMK 1CU030     A3002=,
20180119_090000.000,0,RJNA,,,,0,20180119090000,-1,-1,-1,-1,290,-1,6,-1,-1,-1,-1,,9999,0,0,1,FEW 30,1,9,-1,5,1016,RJNA 190900Z 29006KT 9999 FEW030 09/M05 Q1016 RMK 1CU030 A3003=,
20180119_090000.001,2,RJNA,,,,0,20180119090000,-1,-1,-1,-1,290,-1,6,-1,-1,-1,-1,,9999,0,0,1,FEW 30,1,9,-1,5,1016,RJNA 190900Z 29006KT 9999 FEW030 09/M05 Q1016 RMK 1CU030     A3003=,
20180119_090000.003,0,RJNA,,,,0,20180119090000,-1,-1,-1,-1,290,-1,6,-1,-1,-1,-1,,9999,0,0,1,FEW 30,1,9,-1,5,1016,RJNA 190900Z 29006KT 9999 FEW030 09/M05 Q1016 RMK 1CU030     A3003=,
20180119_100000.000,0,RJNA,,,,0,20180119100000,-1,-1,-1,-1,300,-1,6,-1,-1,-1,-1,,9999,0,0,1,FEW 30,1,8,-1,7,1017,RJNA 191000Z 30006KT 9999 FEW030 08/M07 Q1017 RMK 1CU030 A3005=,
20180119_100000.002,0,RJNA,,,,0,20180119100000,-1,-1,-1,-1,300,-1,6,-1,-1,-1,-1,,9999,0,0,1,FEW 30,1,8,-1,7,1017,RJNA 191000Z 30006KT 9999 FEW030 08/M07 Q1017 RMK 1CU030     A3005=,
20180119_110000.000,0,RJNA,,,,0,20180119110000,-1,-1,-1,-1,300,-1,3,-1,-1,-1,-1,,9999,0,0,1,FEW 30,1,8,-1,5,1017,RJNA 191100Z 30003KT 9999 FEW030 08/M05 Q1017 RMK 1CU030 A3006=,
20180119_110000.002,0,RJNA,,,,0,20180119110000,-1,-1,-1,-1,300,-1,3,-1,-1,-1,-1,,9999,0,0,1,FEW 30,1,8,-1,5,1017,RJNA 191100Z 30003KT 9999 FEW030 08/M05 Q1017 RMK 1CU030     A3006=,
20180119_120000.000,0,RJNA,,,,0,20180119120000,-1,-1,-1,-1,340,-1,6,-1,-1,-1,-1,,9999,0,0,2,FEW 30   SCT 50,1,6,-1,3,1018,RJNA 191200Z 34006KT 9999 FEW030 SCT050 06/M03 Q1018 RMK 1CU030     3SC050 A3007=,
20180119_120000.003,0,RJNA,,,,0,20180119120000,-1,-1,-1,-1,340,-1,6,-1,-1,-1,-1,,9999,0,0,2,FEW 30   SCT 50,1,6,-1,3,1018,RJNA 191200Z 34006KT 9999 FEW030 SCT050 06/M03 Q1018 RMK     1CU030 3SC050 A3007=,
20180119_130000.000,0,RJNA,,,,0,20180119130000,-1,-1,-1,-1,350,-1,5,-1,-1,-1,-1,,9999,0,0,1,FEW 30,1,5,-1,4,1018,RJNA 191300Z 35005KT 9999 FEW030 05/M04 Q1018 RMK 1CU030 A3007=,
20180119_130000.002,0,RJNA,,,,0,20180119130000,-1,-1,-1,-1,350,-1,5,-1,-1,-1,-1,,9999,0,0,1,FEW 30,1,5,-1,4,1018,RJNA 191300Z 35005KT 9999 FEW030 05/M04 Q1018 RMK 1CU030     A3007=,
20180119_140000.000,0,RJNA,,,,0,20180119140000,-1,-1,-1,-1,340,-1,3,-1,-1,-1,-1,,9999,0,0,1,FEW 30,1,5,-1,3,1018,RJNA 191400Z 34003KT 9999 FEW030 05/M03 Q1018 RMK 1CU030 A3007=,
20180119_140000.002,0,RJNA,,,,0,20180119140000,-1,-1,-1,-1,340,-1,3,-1,-1,-1,-1,,9999,0,0,1,FEW 30,1,5,-1,3,1018,RJNA 191400Z 34003KT 9999 FEW030 05/M03 Q1018 RMK 1CU030     A3007=,
20180119_150000.000,0,RJNA,,,,0,20180119150000,-1,-1,-1,-1,999,-1,2,-1,-1,-1,-1,,9999,0,0,1,FEW 30,1,4,-1,2,1017,RJNA 191500Z VRB02KT 9999 FEW030 04/M02 Q1017 RMK 1CU030 A3004=,
20180119_150000.002,0,RJNA,,,,0,20180119150000,-1,-1,-1,-1,999,-1,2,-1,-1,-1,-1,,9999,0,0,1,FEW 30,1,4,-1,2,1017,RJNA 191500Z VRB02KT 9999 FEW030 04/M02 Q1017 RMK 1CU030     A3004=,
20180119_160000.000,0,RJNA,,,,0,20180119160000,-1,-1,-1,-1,330,-1,6,-1,-1,-1,-1,,9999,0,0,1,FEW 30,1,3,-1,1,1017,RJNA 191600Z 33006KT 9999 FEW030 03/M01 Q1017 RMK 1CU030 A3004=,
20180119_160000.002,0,RJNA,,,,0,20180119160000,-1,-1,-1,-1,330,-1,6,-1,-1,-1,-1,,9999,0,0,1,FEW 30,1,3,-1,1,1017,RJNA 191600Z 33006KT 9999 FEW030 03/M01 Q1017 RMK 1CU030     A3004=,
20180119_170000.000,0,RJNA,,,,0,20180119170000,-1,-1,-1,-1,330,-1,5,-1,-1,-1,-1,,9999,0,0,1,FEW 30,1,3,1,0,1017,RJNA 191700Z 33005KT 9999 FEW030 03/00 Q1017 RMK 1CU030 A3005=,
20180119_170000.002,0,RJNA,,,,0,20180119170000,-1,-1,-1,-1,330,-1,5,-1,-1,-1,-1,,9999,0,0,1,FEW 30,1,3,1,0,1017,RJNA 191700Z 33005KT 9999 FEW030 03/00 Q1017 RMK 1CU030 A3005=,
20180119_180000.000,0,RJNA,,,,0,20180119180000,-1,-1,-1,-1,280,-1,3,-1,-1,-1,-1,,9999,0,0,1,FEW 30,1,3,-1,0,1017,RJNA 191800Z 28003KT 9999 FEW030 03/M00 Q1017 RMK 1CU030 A3005=,
20180119_180000.003,0,RJNA,,,,0,20180119180000,-1,-1,-1,-1,280,-1,3,-1,-1,-1,-1,,9999,0,0,1,FEW 30,1,3,-1,0,1017,RJNA 191800Z 28003KT 9999 FEW030 03/M00 Q1017 RMK 1CU030     A3005=,
20180119_190000.000,0,RJNA,,,,0,20180119190000,-1,-1,-1,-1,999,-1,2,-1,-1,-1,-1,,9999,0,0,1,FEW 30,1,2,-1,1,1017,RJNA 191900Z VRB02KT 9999 FEW030 02/M01 Q1017 RMK 1CU030 A3004=,
20180119_190000.003,0,RJNA,,,,0,20180119190000,-1,-1,-1,-1,999,-1,2,-1,-1,-1,-1,,9999,0,0,1,FEW 30,1,2,-1,1,1017,RJNA 191900Z VRB02KT 9999 FEW030 02/M01 Q1017 RMK 1CU030     A3004=,
20180119_200000.000,0,RJNA,,,,0,20180119200000,-1,-1,-1,-1,999,-1,1,-1,-1,-1,-1,,9999,0,0,1,FEW 30,1,1,-1,1,1017,RJNA 192000Z VRB01KT 9999 FEW030 01/M01 Q1017 RMK 1CU030 A3005=,
20180119_200000.002,0,RJNA,,,,0,20180119200000,-1,-1,-1,-1,999,-1,1,-1,-1,-1,-1,,9999,0,0,1,FEW 30,1,1,-1,1,1017,RJNA 192000Z VRB01KT 9999 FEW030 01/M01 Q1017 RMK 1CU030     A3005=,
20180119_210000.000,0,RJNA,,,,0,20180119210000,-1,-1,-1,-1,999,-1,1,-1,-1,-1,-1,,9999,0,0,1,FEW 30,1,0,-1,2,1017,RJNA 192100Z VRB01KT 9999 FEW030 00/M02 Q1017 RMK 1CU030 A3005     13/M00=,
20180119_210000.002,0,RJNA,,,,0,20180119210000,-1,-1,-1,-1,999,-1,1,-1,-1,-1,-1,,9999,0,0,1,FEW 30,1,0,-1,2,1017,RJNA 192100Z VRB01KT 9999 FEW030 00/M02 Q1017 RMK 1CU030 A3005     13/M00=,
20180119_220000.000,0,RJNA,,,,0,20180119220000,-1,-1,-1,-1,999,-1,1,-1,-1,-1,-1,,9999,0,0,1,FEW 50,1,1,-1,1,1018,RJNA 192200Z VRB01KT 9999 FEW050 01/M01 Q1018 RMK 1SC050 A3007=,
20180119_220000.002,0,RJNA,,,,0,20180119220000,-1,-1,-1,-1,999,-1,1,-1,-1,-1,-1,,9999,0,0,1,FEW 50,1,1,-1,1,1018,RJNA 192200Z VRB01KT 9999 FEW050 01/M01 Q1018 RMK 1SC050     A3007=,
20180119_230000.000,0,RJNA,,,,0,20180119230000,-1,-1,-1,-1,0,-1,0,-1,-1,-1,-1,,9999,0,0,1,FEW 30,1,1,-1,1,1018,RJNA 192300Z 00000KT 9999 FEW030 01/M01 Q1018 RMK 1CU030 A3006=,
20180119_230000.002,0,RJNA,,,,0,20180119230000,-1,-1,-1,-1,0,-1,0,-1,-1,-1,-1,,9999,0,0,1,FEW 30,1,1,-1,1,1018,RJNA 192300Z 00000KT 9999 FEW030 01/M01 Q1018 RMK 1CU030     A3006=,
20180120_000000.000,0,RJNA,,,,0,20180120000000,-1,-1,-1,-1,999,-1,2,-1,-1,-1,-1,,9999,0,0,2,FEW 30   SCT 50,1,3,1,0,1018,RJNA 200000Z VRB02KT 9999 FEW030 SCT050 03/00 Q1018 RMK 1CU030     3SC050 A3007=,
20180120_000000.002,0,RJNA,,,,0,20180120000000,-1,-1,-1,-1,999,-1,2,-1,-1,-1,-1,,9999,0,0,2,FEW 30   SCT 50,1,3,1,0,1018,RJNA 200000Z VRB02KT 9999 FEW030 SCT050 03/00 Q1018 RMK 1CU030     3SC050 A3007=,
20180120_010000.000,0,RJNA,,,,0,20180120010000,-1,-1,-1,-1,340,-1,3,-1,-1,290,10,,9999,0,0,2,FEW 30   SCT 50,1,7,1,1,1018,RJNA 200100Z 34003KT 290V010 9999 FEW030 SCT050 07/01 Q1018 RMK     1CU030 3SC050 A3008=,
20180120_010000.002,0,RJNA,,,,0,20180120010000,-1,-1,-1,-1,340,-1,3,-1,-1,290,10,,9999,0,0,2,FEW 30   SCT 50,1,7,1,1,1018,RJNA 200100Z 34003KT 290V010 9999 FEW030 SCT050 07/01 Q1018     RMK 1CU030 3SC050 A3008=,
20180120_020000.000,0,RJNA,,,,0,20180120020000,-1,-1,-1,-1,360,-1,3,-1,-1,310,40,,9999,0,0,1,FEW 30,1,9,-1,0,1017,RJNA 200200Z 36003KT 310V040 9999 FEW030 09/M00 Q1017 RMK     1CU030 A3006=,
20180120_020000.003,0,RJNA,,,,0,20180120020000,-1,-1,-1,-1,360,-1,3,-1,-1,310,40,,9999,0,0,1,FEW 30,1,9,-1,0,1017,RJNA 200200Z 36003KT 310V040 9999 FEW030 09/M00 Q1017 RMK     1CU030 A3006=,
20180120_030000.000,0,RJNA,,,,0,20180120030000,-1,-1,-1,-1,320,-1,8,-1,-1,-1,-1,,9999,0,0,1,FEW 30,1,10,-1,0,1016,RJNA 200300Z 32008KT 9999 FEW030 10/M00 Q1016 RMK 1CU030 A3003=,
20180120_030000.002,0,RJNA,,,,0,20180120030000,-1,-1,-1,-1,320,-1,8,-1,-1,-1,-1,,9999,0,0,1,FEW 30,1,10,-1,0,1016,RJNA 200300Z 32008KT 9999 FEW030 10/M00 Q1016 RMK 1CU030     A3003=,
20180120_040000.000,0,RJNA,,,,0,20180120040000,-1,-1,-1,-1,300,-1,13,-1,-1,270,330,,9999,0,0,2,FEW 30   BKN 60,1,11,1,1,1016,RJNA 200400Z 30013KT 270V330 9999 FEW030 BKN060 11/01 Q1016 RMK     2CU030 6SC060 A3002 MAX WIND 20KT=,
20180120_040000.002,0,RJNA,,,,0,20180120040000,-1,-1,-1,-1,300,-1,13,-1,-1,270,330,,9999,0,0,2,FEW 30   BKN 60,1,11,1,1,1016,RJNA 200400Z 30013KT 270V330 9999 FEW030 BKN060 11/01 Q1016     RMK 2CU030 6SC060 A3002 MAX WIND 20KT=,
20180120_050000.000,0,RJNA,,,,0,20180120050000,-1,-1,-1,-1,300,-1,11,-1,-1,270,330,,9999,0,0,1,FEW 30,1,11,1,2,1016,RJNA 200500Z 30011KT 270V330 9999 FEW030 11/02 Q1016 RMK 1CU030     A3002=,
20180120_050000.002,0,RJNA,,,,0,20180120050000,-1,-1,-1,-1,300,-1,11,-1,-1,270,330,,9999,0,0,1,FEW 30,1,11,1,2,1016,RJNA 200500Z 30011KT 270V330 9999 FEW030 11/02 Q1016 RMK     1CU030 A3002=,
20180120_060000.000,0,RJNA,,,,0,20180120060000,-1,-1,-1,-1,290,-1,13,-1,-1,-1,-1,,9999,0,0,1,FEW 30,1,11,1,3,1016,RJNA 200600Z 29013KT 9999 FEW030 11/03 Q1016 RMK 1CU030 A3003=,
20180120_060000.002,0,RJNA,,,,0,20180120060000,-1,-1,-1,-1,290,-1,13,-1,-1,-1,-1,,9999,0,0,1,FEW 30,1,11,1,3,1016,RJNA 200600Z 29013KT 9999 FEW030 11/03 Q1016 RMK 1CU030 A3003=,
20180120_070000.000,0,RJNA,,,,0,20180120070000,-1,-1,-1,-1,330,-1,16,-1,-1,-1,-1,,9999,0,0,1,FEW 30,1,11,1,1,1016,RJNA 200700Z 33016KT 9999 FEW030 11/01 Q1016 RMK 1CU030 A3003     MAX WIND 23KT=,
20180120_070000.002,0,RJNA,,,,0,20180120070000,-1,-1,-1,-1,330,-1,16,-1,-1,-1,-1,,9999,0,0,1,FEW 30,1,11,1,1,1016,RJNA 200700Z 33016KT 9999 FEW030 11/01 Q1016 RMK 1CU030 A3003     MAX WIND 23KT=,
20180120_080000.000,0,RJNA,,,,0,20180120080000,-1,-1,-1,-1,330,-1,14,-1,-1,-1,-1,,9999,0,0,1,FEW 30,1,10,1,0,1017,RJNA 200800Z 33014KT 9999 FEW030 10/00 Q1017 RMK 1CU030 A3003=,
20180120_080000.002,0,RJNA,,,,0,20180120080000,-1,-1,-1,-1,330,-1,14,-1,-1,-1,-1,,9999,0,0,1,FEW 30,1,10,1,0,1017,RJNA 200800Z 33014KT 9999 FEW030 10/00 Q1017 RMK 1CU030 A3003=,
20180120_090000.000,0,RJNA,,,,0,20180120090000,-1,-1,-1,-1,320,-1,10,-1,-1,-1,-1,,9999,0,0,1,FEW 30,1,9,-1,1,1017,RJNA 200900Z 32010KT 9999 FEW030 09/M01 Q1017 RMK 1CU030 A3004=,
20180120_090000.002,0,RJNA,,,,0,20180120090000,-1,-1,-1,-1,320,-1,10,-1,-1,-1,-1,,9999,0,0,1,FEW 30,1,9,-1,1,1017,RJNA 200900Z 32010KT 9999 FEW030 09/M01 Q1017 RMK 1CU030     A3004=,
20180120_100000.000,0,RJNA,,,,0,20180120100000,-1,-1,-1,-1,300,-1,8,-1,-1,-1,-1,,9999,0,0,1,FEW 30,1,8,-1,0,1017,RJNA 201000Z 30008KT 9999 FEW030 08/M00 Q1017 RMK 1CU030 A3006=,
20180120_100000.002,0,RJNA,,,,0,20180120100000,-1,-1,-1,-1,300,-1,8,-1,-1,-1,-1,,9999,0,0,1,FEW 30,1,8,-1,0,1017,RJNA 201000Z 30008KT 9999 FEW030 08/M00 Q1017 RMK 1CU030     A3006=,
20180120_110000.000,0,RJNA,,,,0,20180120110000,-1,-1,-1,-1,300,-1,7,-1,-1,-1,-1,,9999,0,0,1,FEW 30,1,7,1,1,1018,RJNA 201100Z 30007KT 9999 FEW030 07/01 Q1018 RMK 1CU030 A3008=,
20180120_110000.002,0,RJNA,,,,0,20180120110000,-1,-1,-1,-1,300,-1,7,-1,-1,-1,-1,,9999,0,0,1,FEW 30,1,7,1,1,1018,RJNA 201100Z 30007KT 9999 FEW030 07/01 Q1018 RMK 1CU030 A3008=,
20180120_120000.000,0,RJNA,,,,0,20180120120000,-1,-1,-1,-1,320,-1,5,-1,-1,-1,-1,,9999,0,0,1,FEW 30,1,7,-1,1,1018,RJNA 201200Z 32005KT 9999 FEW030 07/M01 Q1018 RMK 1CU030 A3008=,
20180120_120000.002,0,RJNA,,,,0,20180120120000,-1,-1,-1,-1,320,-1,5,-1,-1,-1,-1,,9999,0,0,1,FEW 30,1,7,-1,1,1018,RJNA 201200Z 32005KT 9999 FEW030 07/M01 Q1018 RMK 1CU030     A3008=,
20180120_130000.000,0,RJNA,,,,0,20180120130000,-1,-1,-1,-1,330,-1,7,-1,-1,-1,-1,,9999,0,0,2,FEW 30   SCT -9999,1,5,-1,2,1018,RJNA 201300Z 33007KT 9999 FEW030 SCT/// 05/M02 Q1018 RMK 1CU030     A3009=,
20180120_130000.002,0,RJNA,,,,0,20180120130000,-1,-1,-1,-1,330,-1,7,-1,-1,-1,-1,,9999,0,0,2,FEW 30   SCT -9999,1,5,-1,2,1018,RJNA 201300Z 33007KT 9999 FEW030 SCT/// 05/M02 Q1018 RMK     1CU030 A3009=,
20180120_140000.000,0,RJNA,,,,0,20180120140000,-1,-1,-1,-1,310,-1,9,-1,-1,-1,-1,,9999,0,0,2,FEW 30   BKN -9999,1,8,-1,2,1018,RJNA 201400Z 31009KT 9999 FEW030 BKN/// 08/M02 Q1018 RMK 1CU030     A3007=,
20180120_140000.002,0,RJNA,,,,0,20180120140000,-1,-1,-1,-1,310,-1,9,-1,-1,-1,-1,,9999,0,0,2,FEW 30   BKN -9999,1,8,-1,2,1018,RJNA 201400Z 31009KT 9999 FEW030 BKN/// 08/M02 Q1018 RMK     1CU030 A3007=,
20180120_150000.000,0,RJNA,,,,0,20180120150000,-1,-1,-1,-1,320,-1,6,-1,-1,-1,-1,,9999,0,0,1,FEW 30,1,6,-1,2,1018,RJNA 201500Z 32006KT 9999 FEW030 06/M02 Q1018 RMK 1CU030 A3006=,
20180120_150000.002,0,RJNA,,,,0,20180120150000,-1,-1,-1,-1,320,-1,6,-1,-1,-1,-1,,9999,0,0,1,FEW 30,1,6,-1,2,1018,RJNA 201500Z 32006KT 9999 FEW030 06/M02 Q1018 RMK 1CU030     A3006=,
20180120_160000.000,0,RJNA,,,,0,20180120160000,-1,-1,-1,-1,310,-1,7,-1,-1,-1,-1,,9999,0,0,1,FEW 30,1,5,-1,2,1018,RJNA 201600Z 31007KT 9999 FEW030 05/M02 Q1018 RMK 1CU030 A3007=,
20180120_160000.002,0,RJNA,,,,0,20180120160000,-1,-1,-1,-1,310,-1,7,-1,-1,-1,-1,,9999,0,0,1,FEW 30,1,5,-1,2,1018,RJNA 201600Z 31007KT 9999 FEW030 05/M02 Q1018 RMK 1CU030     A3007=,
20180120_170000.000,0,RJNA,,,,0,20180120170000,-1,-1,-1,-1,20,-1,6,-1,-1,-1,-1,,9999,0,0,1,FEW 30,1,4,-1,1,1017,RJNA 201700Z 02006KT 9999 FEW030 04/M01 Q1017 RMK 1CU030 A3006=,
20180120_170000.002,0,RJNA,,,,0,20180120170000,-1,-1,-1,-1,20,-1,6,-1,-1,-1,-1,,9999,0,0,1,FEW 30,1,4,-1,1,1017,RJNA 201700Z 02006KT 9999 FEW030 04/M01 Q1017 RMK 1CU030     A3006=,
20180120_180000.000,0,RJNA,,,,0,20180120180000,-1,-1,-1,-1,320,-1,3,-1,-1,-1,-1,,9999,0,0,1,FEW 30,1,4,-1,1,1017,RJNA 201800Z 32003KT 9999 FEW030 04/M01 Q1017 RMK 1CU030 A3005=,
20180120_180000.002,0,RJNA,,,,0,20180120180000,-1,-1,-1,-1,320,-1,3,-1,-1,-1,-1,,9999,0,0,1,FEW 30,1,4,-1,1,1017,RJNA 201800Z 32003KT 9999 FEW030 04/M01 Q1017 RMK 1CU030     A3005=,
20180120_190000.000,0,RJNA,,,,0,20180120190000,-1,-1,-1,-1,999,-1,2,-1,-1,-1,-1,,9999,0,0,2,FEW 30   BKN 60,1,2,-1,2,1017,RJNA 201900Z VRB02KT 9999 FEW030 BKN060 02/M02 Q1017 RMK 1CU030     5SC060 A3005=,
20180120_190000.003,0,RJNA,,,,0,20180120190000,-1,-1,-1,-1,999,-1,2,-1,-1,-1,-1,,9999,0,0,2,FEW 30   BKN 60,1,2,-1,2,1017,RJNA 201900Z VRB02KT 9999 FEW030 BKN060 02/M02 Q1017 RMK     1CU030 5SC060 A3005=,
20180120_200000.000,0,RJNA,,,,0,20180120200000,-1,-1,-1,-1,999,-1,2,-1,-1,-1,-1,,9999,0,0,2,FEW 30   SCT 60,1,2,-1,2,1017,RJNA 202000Z VRB02KT 9999 FEW030 SCT060 02/M02 Q1017 RMK 1CU030     3SC060 A3005=,
20180120_200000.002,0,RJNA,,,,0,20180120200000,-1,-1,-1,-1,999,-1,2,-1,-1,-1,-1,,9999,0,0,2,FEW 30   SCT 60,1,2,-1,2,1017,RJNA 202000Z VRB02KT 9999 FEW030 SCT060 02/M02 Q1017 RMK     1CU030 3SC060 A3005=,
20180120_210000.000,0,RJNA,,,,0,20180120210000,-1,-1,-1,-1,999,-1,2,-1,-1,-1,-1,,9999,0,0,2,FEW 30   SCT 60,1,1,-1,2,1018,RJNA 202100Z VRB02KT 9999 FEW030 SCT060 01/M02 Q1018 RMK 1CU030     3SC060 A3006 12/01=,
20180120_210000.002,0,RJNA,,,,0,20180120210000,-1,-1,-1,-1,999,-1,2,-1,-1,-1,-1,,9999,0,0,2,FEW 30   SCT 60,1,1,-1,2,1018,RJNA 202100Z VRB02KT 9999 FEW030 SCT060 01/M02 Q1018 RMK     1CU030 3SC060 A3006 12/01=,
20180120_220000.000,0,RJNA,,,,0,20180120220000,-1,-1,-1,-1,130,-1,3,-1,-1,90,150,,9999,0,0,1,FEW 30,1,1,-1,2,1017,RJNA 202200Z 13003KT 090V150 9999 FEW030 01/M02 Q1017 RMK     1CU030 A3006=,
20180120_220000.002,0,RJNA,,,,0,20180120220000,-1,-1,-1,-1,130,-1,3,-1,-1,90,150,,9999,0,0,1,FEW 30,1,1,-1,2,1017,RJNA 202200Z 13003KT 090V150 9999 FEW030 01/M02 Q1017 RMK     1CU030 A3006=,
20180120_230000.000,0,RJNA,,,,0,20180120230000,-1,-1,-1,-1,999,-1,2,-1,-1,-1,-1,,9999,0,0,2,FEW 30   BKN 50,1,2,-1,1,1018,RJNA 202300Z VRB02KT 9999 FEW030 BKN050 02/M01 Q1018 RMK 1CU030     6SC050 A3007=,
20180120_230000.002,0,RJNA,,,,0,20180120230000,-1,-1,-1,-1,999,-1,2,-1,-1,-1,-1,,9999,0,0,2,FEW 30   BKN 50,1,2,-1,1,1018,RJNA 202300Z VRB02KT 9999 FEW030 BKN050 02/M01 Q1018 RMK     1CU030 6SC050 A3007=,
20180121_000000.000,0,RJNA,,,,0,20180121000000,-1,-1,-1,-1,999,-1,1,-1,-1,-1,-1,,9999,0,0,1,FEW 30,1,5,-1,1,1018,RJNA 210000Z VRB01KT 9999 FEW030 05/M01 Q1018 RMK 1CU030 A3009=,
20180121_000000.002,0,RJNA,,,,0,20180121000000,-1,-1,-1,-1,999,-1,1,-1,-1,-1,-1,,9999,0,0,1,FEW 30,1,5,-1,1,1018,RJNA 210000Z VRB01KT 9999 FEW030 05/M01 Q1018 RMK 1CU030     A3009=,
20180121_010000.000,0,RJNA,,,,0,20180121010000,-1,-1,-1,-1,350,-1,3,-1,-1,300,50,,9999,0,0,2,FEW 30   SCT 250,1,7,-1,1,1019,RJNA 210100Z 35003KT 300V050 9999 FEW030 SCT250 07/M01 Q1019     RMK 1CU030 A3010=,
20180121_010000.002,0,RJNA,,,,0,20180121010000,-1,-1,-1,-1,350,-1,3,-1,-1,300,50,,9999,0,0,2,FEW 30   SCT 250,1,7,-1,1,1019,RJNA 210100Z 35003KT 300V050 9999 FEW030 SCT250 07/M01 Q1019     RMK 1CU030 A3010=,
20180121_020000.000,0,RJNA,,,,0,20180121020000,-1,-1,-1,-1,300,-1,4,-1,-1,270,350,,9999,0,0,2,FEW 30   BKN 250,1,9,1,1,1018,RJNA 210200Z 30004KT 270V350 9999 FEW030 BKN250 09/01 Q1018 RMK     1CU030 A3008=,
20180121_020000.002,0,RJNA,,,,0,20180121020000,-1,-1,-1,-1,300,-1,4,-1,-1,270,350,,9999,0,0,2,FEW 30   BKN 250,1,9,1,1,1018,RJNA 210200Z 30004KT 270V350 9999 FEW030 BKN250 09/01 Q1018     RMK 1CU030 A3008=,
20180121_030000.000,0,RJNA,,,,0,20180121030000,-1,-1,-1,-1,999,-1,3,-1,-1,-1,-1,,9999,0,0,2,FEW 30   BKN 250,1,11,1,1,1017,RJNA 210300Z VRB03KT 9999 FEW030 BKN250 11/01 Q1017 RMK 1CU030     A3004=,
20180121_030000.002,0,RJNA,,,,0,20180121030000,-1,-1,-1,-1,999,-1,3,-1,-1,-1,-1,,9999,0,0,2,FEW 30   BKN 250,1,11,1,1,1017,RJNA 210300Z VRB03KT 9999 FEW030 BKN250 11/01 Q1017 RMK 1CU030     A3004=,
20180121_040000.000,0,RJNA,,,,0,20180121040000,-1,-1,-1,-1,290,-1,7,-1,-1,250,320,,9999,0,0,2,FEW 30   BKN 60,1,11,1,1,1016,RJNA 210400Z 29007KT 250V320 9999 FEW030 BKN060 11/01 Q1016 RMK     2CU030 5SC060 A3003=,
20180121_040000.003,0,RJNA,,,,0,20180121040000,-1,-1,-1,-1,290,-1,7,-1,-1,250,320,,9999,0,0,2,FEW 30   BKN 60,1,11,1,1,1016,RJNA 210400Z 29007KT 250V320 9999 FEW030 BKN060 11/01 Q1016     RMK 2CU030 5SC060 A3003=,
20180121_050000.000,0,RJNA,,,,0,20180121050000,-1,-1,-1,-1,290,-1,14,-1,-1,250,310,,9999,0,0,2,FEW 30   BKN 50,1,11,1,1,1017,RJNA 210500Z 29014KT 250V310 9999 FEW030 BKN050 11/01 Q1017 RMK     1CU030 5SC050 A3003=,
20180121_050000.002,0,RJNA,,,,0,20180121050000,-1,-1,-1,-1,290,-1,14,-1,-1,250,310,,9999,0,0,2,FEW 30   BKN 50,1,11,1,1,1017,RJNA 210500Z 29014KT 250V310 9999 FEW030 BKN050 11/01 Q1017     RMK 1CU030 5SC050 A3003=,
20180121_060000.000,0,RJNA,,,,0,20180121060000,-1,-1,-1,-1,310,-1,11,-1,-1,-1,-1,,9999,0,0,1,FEW 30,1,11,1,1,1017,RJNA 210600Z 31011KT 9999 FEW030 11/01 Q1017 RMK 1CU030 A3003=,
20180121_060000.002,0,RJNA,,,,0,20180121060000,-1,-1,-1,-1,310,-1,11,-1,-1,-1,-1,,9999,0,0,1,FEW 30,1,11,1,1,1017,RJNA 210600Z 31011KT 9999 FEW030 11/01 Q1017 RMK 1CU030 A3003=,
20180121_070000.000,0,RJNA,,,,0,20180121070000,-1,-1,-1,-1,290,-1,12,-1,-1,-1,-1,,9999,0,0,2,FEW 30   BKN 50,1,10,1,2,1017,RJNA 210700Z 29012KT 9999 FEW030 BKN050 10/02 Q1017 RMK 1CU030     5SC050 A3004=,
20180121_070000.002,0,RJNA,,,,0,20180121070000,-1,-1,-1,-1,290,-1,12,-1,-1,-1,-1,,9999,0,0,2,FEW 30   BKN 50,1,10,1,2,1017,RJNA 210700Z 29012KT 9999 FEW030 BKN050 10/02 Q1017 RMK 1CU030     5SC050 A3004=,
20180121_080000.000,0,RJNA,,,,0,20180121080000,-1,-1,-1,-1,310,-1,15,-1,-1,-1,-1,,9999,0,0,1,FEW 30,1,9,1,1,1018,RJNA 210800Z 31015KT 9999 FEW030 09/01 Q1018 RMK 1CU030 A3006=,
20180121_080000.002,0,RJNA,,,,0,20180121080000,-1,-1,-1,-1,310,-1,15,-1,-1,-1,-1,,9999,0,0,1,FEW 30,1,9,1,1,1018,RJNA 210800Z 31015KT 9999 FEW030 09/01 Q1018 RMK 1CU030 A3006=,
20180121_090000.000,0,RJNA,,,,0,20180121090000,-1,-1,-1,-1,310,-1,9,-1,-1,-1,-1,,9999,0,0,2,FEW 30   SCT -9999,1,8,1,2,1018,RJNA 210900Z 31009KT 9999 FEW030 SCT/// 08/02 Q1018 RMK 1CU030     A3009=,
20180121_090000.002,0,RJNA,,,,0,20180121090000,-1,-1,-1,-1,310,-1,9,-1,-1,-1,-1,,9999,0,0,2,FEW 30   SCT -9999,1,8,1,2,1018,RJNA 210900Z 31009KT 9999 FEW030 SCT/// 08/02 Q1018 RMK 1CU030     A3009=,
20180121_100000.000,0,RJNA,,,,0,20180121100000,-1,-1,-1,-1,330,-1,11,-1,-1,-1,-1,,9999,0,0,1,FEW 30,1,7,1,1,1019,RJNA 211000Z 33011KT 9999 FEW030 07/01 Q1019 RMK 1CU030 A3009=,
20180121_100000.002,0,RJNA,,,,0,20180121100000,-1,-1,-1,-1,330,-1,11,-1,-1,-1,-1,,9999,0,0,1,FEW 30,1,7,1,1,1019,RJNA 211000Z 33011KT 9999 FEW030 07/01 Q1019 RMK 1CU030 A3009=,
20180121_110000.000,0,RJNA,,,,0,20180121110000,-1,-1,-1,-1,320,-1,9,-1,-1,-1,-1,,9999,0,0,1,FEW 30,1,7,1,1,1019,RJNA 211100Z 32009KT 9999 FEW030 07/01 Q1019 RMK 1CU030 A3010=,
20180121_110000.002,0,RJNA,,,,0,20180121110000,-1,-1,-1,-1,320,-1,9,-1,-1,-1,-1,,9999,0,0,1,FEW 30,1,7,1,1,1019,RJNA 211100Z 32009KT 9999 FEW030 07/01 Q1019 RMK 1CU030 A3010=,
20180121_120000.000,0,RJNA,,,,0,20180121120000,-1,-1,-1,-1,300,-1,7,-1,-1,-1,-1,,9999,0,0,2,FEW 30   SCT -9999,1,7,-1,1,1019,RJNA 211200Z 30007KT 9999 FEW030 SCT/// 07/M01 Q1019 RMK 1CU030     A3010=,
20180121_120000.002,0,RJNA,,,,0,20180121120000,-1,-1,-1,-1,300,-1,7,-1,-1,-1,-1,,9999,0,0,2,FEW 30   SCT -9999,1,7,-1,1,1019,RJNA 211200Z 30007KT 9999 FEW030 SCT/// 07/M01 Q1019 RMK     1CU030 A3010=,
20180121_130000.000,0,RJNA,,,,0,20180121130000,-1,-1,-1,-1,999,-1,2,-1,-1,-1,-1,,9999,0,0,2,FEW 30   BKN -9999,1,6,-1,0,1019,RJNA 211300Z VRB02KT 9999 FEW030 BKN/// 06/M00 Q1019 RMK 1CU030     A3010=,
20180121_130000.003,0,RJNA,,,,0,20180121130000,-1,-1,-1,-1,999,-1,2,-1,-1,-1,-1,,9999,0,0,2,FEW 30   BKN -9999,1,6,-1,0,1019,RJNA 211300Z VRB02KT 9999 FEW030 BKN/// 06/M00 Q1019 RMK     1CU030 A3010=,
20180121_140000.000,0,RJNA,,,,0,20180121140000,-1,-1,-1,-1,320,-1,5,-1,-1,-1,-1,,9999,0,0,2,FEW 30   BKN -9999,1,6,-1,0,1019,RJNA 211400Z 32005KT 9999 FEW030 BKN/// 06/M00 Q1019 RMK 1CU030     A3010=,
20180121_140000.002,0,RJNA,,,,0,20180121140000,-1,-1,-1,-1,320,-1,5,-1,-1,-1,-1,,9999,0,0,2,FEW 30   BKN -9999,1,6,-1,0,1019,RJNA 211400Z 32005KT 9999 FEW030 BKN/// 06/M00 Q1019 RMK     1CU030 A3010=,
20180121_150000.000,0,RJNA,,,,0,20180121150000,-1,-1,-1,-1,320,-1,8,-1,-1,-1,-1,,9999,0,0,2,FEW 30   BKN -9999,1,5,-1,2,1018,RJNA 211500Z 32008KT 9999 FEW030 BKN/// 05/M02 Q1018 RMK 1CU030     A3007=,
20180121_150000.002,0,RJNA,,,,0,20180121150000,-1,-1,-1,-1,320,-1,8,-1,-1,-1,-1,,9999,0,0,2,FEW 30   BKN -9999,1,5,-1,2,1018,RJNA 211500Z 32008KT 9999 FEW030 BKN/// 05/M02 Q1018 RMK     1CU030 A3007=,
20180121_160000.000,0,RJNA,,,,0,20180121160000,-1,-1,-1,-1,340,-1,4,-1,-1,-1,-1,,9999,0,0,2,FEW 30   BKN -9999,1,4,-1,2,1018,RJNA 211600Z 34004KT 9999 FEW030 BKN/// 04/M02 Q1018 RMK 1CU030     A3008=,
20180121_160000.002,0,RJNA,,,,0,20180121160000,-1,-1,-1,-1,340,-1,4,-1,-1,-1,-1,,9999,0,0,2,FEW 30   BKN -9999,1,4,-1,2,1018,RJNA 211600Z 34004KT 9999 FEW030 BKN/// 04/M02 Q1018 RMK     1CU030 A3008=,
20180121_170000.000,0,RJNA,,,,0,20180121170000,-1,-1,-1,-1,999,-1,2,-1,-1,-1,-1,,9999,0,0,2,FEW 30   SCT -9999,1,3,-1,2,1018,RJNA 211700Z VRB02KT 9999 FEW030 SCT/// 03/M02 Q1018 RMK 1CU030     A3008=,
20180121_170000.002,0,RJNA,,,,0,20180121170000,-1,-1,-1,-1,999,-1,2,-1,-1,-1,-1,,9999,0,0,2,FEW 30   SCT -9999,1,3,-1,2,1018,RJNA 211700Z VRB02KT 9999 FEW030 SCT/// 03/M02 Q1018 RMK     1CU030 A3008=,
20180121_180000.000,0,RJNA,,,,0,20180121180000,-1,-1,-1,-1,330,-1,3,-1,-1,-1,-1,,9999,0,0,2,FEW 30   BKN -9999,1,3,-1,1,1018,RJNA 211800Z 33003KT 9999 FEW030 BKN/// 03/M01 Q1018 RMK 1CU030     A3008=,
20180121_180000.002,0,RJNA,,,,0,20180121180000,-1,-1,-1,-1,330,-1,3,-1,-1,-1,-1,,9999,0,0,2,FEW 30   BKN -9999,1,3,-1,1,1018,RJNA 211800Z 33003KT 9999 FEW030 BKN/// 03/M01 Q1018 RMK     1CU030 A3008=,
20180121_190000.000,0,RJNA,,,,0,20180121190000,-1,-1,-1,-1,999,-1,2,-1,-1,-1,-1,,9999,0,0,2,FEW 30   BKN -9999,1,2,-1,1,1018,RJNA 211900Z VRB02KT 9999 FEW030 BKN/// 02/M01 Q1018 RMK 1CU030     A3007=,
20180121_190000.002,0,RJNA,,,,0,20180121190000,-1,-1,-1,-1,999,-1,2,-1,-1,-1,-1,,9999,0,0,2,FEW 30   BKN -9999,1,2,-1,1,1018,RJNA 211900Z VRB02KT 9999 FEW030 BKN/// 02/M01 Q1018 RMK     1CU030 A3007=,
20180121_200000.000,0,RJNA,,,,0,20180121200000,-1,-1,-1,-1,70,-1,4,-1,-1,40,100,,9999,0,0,2,FEW 30   BKN -9999,1,1,-1,2,1018,RJNA 212000Z 07004KT 040V100 9999 FEW030 BKN/// 01/M02 Q1018     RMK 1CU030 A3007=,
20180121_200000.002,0,RJNA,,,,0,20180121200000,-1,-1,-1,-1,70,-1,4,-1,-1,40,100,,9999,0,0,2,FEW 30   BKN -9999,1,1,-1,2,1018,RJNA 212000Z 07004KT 040V100 9999 FEW030 BKN/// 01/M02 Q1018     RMK 1CU030 A3007=,
20180121_210000.000,0,RJNA,,,,0,20180121210000,-1,-1,-1,-1,999,-1,2,-1,-1,-1,-1,,9999,0,0,3,FEW 30   BKN 180   BKN -9999,1,2,-1,3,1018,RJNA 212100Z VRB02KT 9999 FEW030 BKN180 BKN/// 02/M03 Q1018 RMK     1CU030 5AC180 A3009 12/00=,
20180121_210000.002,0,RJNA,,,,0,20180121210000,-1,-1,-1,-1,999,-1,2,-1,-1,-1,-1,,9999,0,0,3,FEW 30   BKN 180   BKN -9999,1,2,-1,3,1018,RJNA 212100Z VRB02KT 9999 FEW030 BKN180 BKN/// 02/M03 Q1018     RMK 1CU030 5AC180 A3009 12/00=,
20180121_220000.000,0,RJNA,,,,0,20180121220000,-1,-1,-1,-1,999,-1,1,-1,-1,-1,-1,,9999,0,0,3,FEW 20   SCT 60   BKN 150,1,1,-1,3,1018,RJNA 212200Z VRB01KT 9999 FEW020 SCT060 BKN150 01/M03 Q1018 RMK     1CU020 3SC060 7AC150 A3008=,
20180121_220000.002,0,RJNA,,,,0,20180121220000,-1,-1,-1,-1,999,-1,1,-1,-1,-1,-1,,9999,0,0,3,FEW 20   SCT 60   BKN 150,1,1,-1,3,1018,RJNA 212200Z VRB01KT 9999 FEW020 SCT060 BKN150 01/M03 Q1018     RMK 1CU020 3SC060 7AC150 A3008=,
20180121_220000.003,2,RJNA,,,,0,20180121220000,-1,-1,-1,-1,999,-1,1,-1,-1,-1,-1,,9999,0,0,3,FEW 20   SCT 60   BKN 150,1,1,-1,3,1018,RJNA 212200Z VRB01KT 9999 FEW020 SCT060 BKN150 01/M03 Q1018     RMK 1CU020 3SC060 7AC150 A3008=,
20180121_220000.004,1,RJNA,,,,0,20180121220000,-1,-1,-1,-1,999,-1,1,-1,-1,-1,-1,,9999,0,0,3,FEW 20   SCT 60   BKN 150,1,1,-1,3,1018,RJNA 212200Z VRB01KT 9999 FEW020 SCT060 BKN150 01/M03     Q1018 RMK 1CU020 3SC060 7AC150 A3008=,
20180121_230000.000,0,RJNA,,,,0,20180121230000,-1,-1,-1,-1,10,-1,5,-1,-1,-1,-1,,9999,0,0,3,FEW 20   SCT 50   BKN 150,1,2,-1,1,1018,RJNA 212300Z 01005KT 9999 FEW020 SCT050 BKN150 02/M01 Q1018 RMK     1CU020 3SC050 6AC150 A3007=,
20180121_230000.002,0,RJNA,,,,0,20180121230000,-1,-1,-1,-1,10,-1,5,-1,-1,-1,-1,,9999,0,0,3,FEW 20   SCT 50   BKN 150,1,2,-1,1,1018,RJNA 212300Z 01005KT 9999 FEW020 SCT050 BKN150 02/M01 Q1018     RMK 1CU020 3SC050 6AC150 A3007=,
20180122_000000.000,0,RJNA,,,,0,20180122000000,-1,-1,-1,-1,350,-1,6,-1,-1,-1,-1,,9999,0,0,3,FEW 20   SCT 50   BKN 130,1,4,-1,1,1016,RJNA 220000Z 35006KT 9999 FEW020 SCT050 BKN130 04/M01 Q1016 RMK     1CU020 3SC050 6AC130 A3003=,
20180122_000000.002,0,RJNA,,,,0,20180122000000,-1,-1,-1,-1,350,-1,6,-1,-1,-1,-1,,9999,0,0,3,FEW 20   SCT 50   BKN 130,1,4,-1,1,1016,RJNA 220000Z 35006KT 9999 FEW020 SCT050 BKN130 04/M01 Q1016     RMK 1CU020 3SC050 6AC130 A3003=,
20180122_010000.000,0,RJNA,,,,0,20180122010000,-1,-1,-1,-1,350,-1,8,-1,-1,-1,-1,,9999,0,0,3,FEW 20   SCT 50   BKN 100,1,5,-1,1,1016,RJNA 220100Z 35008KT 9999 FEW020 SCT050 BKN100 05/M01 Q1016 RMK     1CU020 3SC050 5AC100 A3001=,
20180122_010000.002,0,RJNA,,,,0,20180122010000,-1,-1,-1,-1,350,-1,8,-1,-1,-1,-1,,9999,0,0,3,FEW 20   SCT 50   BKN 100,1,5,-1,1,1016,RJNA 220100Z 35008KT 9999 FEW020 SCT050 BKN100 05/M01 Q1016     RMK 1CU020 3SC050 5AC100 A3001=,
20180122_020000.000,0,RJNA,,,,0,20180122020000,-1,-1,-1,-1,340,-1,7,-1,-1,-1,-1,,9999,0,0,3,FEW 20   SCT 45   BKN 100,1,5,-1,2,1015,RJNA 220200Z 34007KT 9999 FEW020 SCT045 BKN100 05/M02 Q1015 RMK     1CU020 3SC045 7AC100 A2998=,
20180122_020000.002,0,RJNA,,,,0,20180122020000,-1,-1,-1,-1,340,-1,7,-1,-1,-1,-1,,9999,0,0,3,FEW 20   SCT 45   BKN 100,1,5,-1,2,1015,RJNA 220200Z 34007KT 9999 FEW020 SCT045 BKN100 05/M02 Q1015     RMK 1CU020 3SC045 7AC100 A2998=,
20180122_030000.000,0,RJNA,,,,0,20180122030000,-1,-1,-1,-1,340,-1,7,-1,-1,300,360,,9999,0,0,3,FEW 8   BKN 40   BKN 80,1,6,-1,2,1013,RJNA 220300Z 34007KT 300V360 9999 FEW008 BKN040 BKN080 06/M02     Q1013 RMK 1ST008 5SC040 7AC080 A2993=,
20180122_030000.002,0,RJNA,,,,0,20180122030000,-1,-1,-1,-1,340,-1,7,-1,-1,300,360,,9999,0,0,3,FEW 8   BKN 40   BKN 80,1,6,-1,2,1013,RJNA 220300Z 34007KT 300V360 9999 FEW008 BKN040 BKN080 06/M02     Q1013 RMK 1ST008 5SC040 7AC080 A2993=,
20180122_040000.000,0,RJNA,,,,0,20180122040000,-1,-1,-1,-1,280,-1,7,-1,-1,240,310,,9999,0,1,3,FEW 8   SCT 20   BKN 35,1,6,-1,1,1011,RJNA 220400Z 28007KT 240V310 9999 -RA FEW008 SCT020 BKN035     06/M01 Q1011 RMK 1ST008 3SC020 6SC035 A2988 VIS W 8KM=,- RA
20180122_040000.002,0,RJNA,,,,0,20180122040000,-1,-1,-1,-1,280,-1,7,-1,-1,240,310,,9999,0,1,3,FEW 8   SCT 20   BKN 35,1,6,-1,1,1011,RJNA 220400Z 28007KT 240V310 9999 -RA FEW008 SCT020 BKN035     06/M01 Q1011 RMK 1ST008 3SC020 6SC035 A2988 VIS W 8KM=,- RA
20180122_050000.000,0,RJNA,,,,0,20180122050000,-1,-1,-1,-1,310,-1,7,-1,-1,290,350,,9999,0,1,3,FEW 8   SCT 20   BKN 30,1,6,1,3,1010,RJNA 220500Z 31007KT 290V350 9999 -RA FEW008 SCT020 BKN030     06/03 Q1010 RMK 1ST008 3SC020 7SC030 A2984 VIS W-N 8KM=,- RA
20180122_050000.002,0,RJNA,,,,0,20180122050000,-1,-1,-1,-1,310,-1,7,-1,-1,290,350,,9999,0,1,3,FEW 8   SCT 20   BKN 30,1,6,1,3,1010,RJNA 220500Z 31007KT 290V350 9999 -RA FEW008 SCT020 BKN030     06/03 Q1010 RMK 1ST008 3SC020 7SC030 A2984 VIS W-N 8KM=,- RA
20180122_060000.000,0,RJNA,,,,0,20180122060000,-1,-1,-1,-1,90,-1,4,-1,-1,50,130,,8000,0,1,3,FEW 8   SCT 15   BKN 20,1,6,1,3,1010,RJNA 220600Z 09004KT 050V130 8000 -RA FEW008 SCT015 BKN020     06/03 Q1010 RMK 1ST008 3SC015 6SC020 A2983=,- RA
20180122_060000.003,0,RJNA,,,,0,20180122060000,-1,-1,-1,-1,90,-1,4,-1,-1,50,130,,8000,0,1,3,FEW 8   SCT 15   BKN 20,1,6,1,3,1010,RJNA 220600Z 09004KT 050V130 8000 -RA FEW008 SCT015 BKN020     06/03 Q1010 RMK 1ST008 3SC015 6SC020 A2983=,- RA
20180122_070000.000,0,RJNA,,,,0,20180122070000,-1,-1,-1,-1,330,-1,6,-1,-1,-1,-1,,7000,0,1,3,FEW 8   BKN 15   BKN 20,1,4,1,3,1009,RJNA 220700Z 33006KT 7000 -RA FEW008 BKN015 BKN020 04/03 Q1009     RMK 1ST008 5SC015 7SC020 A2982=,- RA
20180122_070000.002,0,RJNA,,,,0,20180122070000,-1,-1,-1,-1,330,-1,6,-1,-1,-1,-1,,7000,0,1,3,FEW 8   BKN 15   BKN 20,1,4,1,3,1009,RJNA 220700Z 33006KT 7000 -RA FEW008 BKN015 BKN020 04/03 Q1009     RMK 1ST008 5SC015 7SC020 A2982=,- RA
20180122_080000.000,0,RJNA,,,,0,20180122080000,-1,-1,-1,-1,330,-1,5,-1,-1,-1,-1,,5000,0,2,3,FEW 5   BKN 8   BKN 15,1,4,1,3,1009,RJNA 220800Z 33005KT 5000 -RA BR FEW005 BKN008 BKN015 04/03     Q1009 RMK 1ST005 5ST008 7SC015 A2981=,- RA; BR
20180122_080000.003,0,RJNA,,,,0,20180122080000,-1,-1,-1,-1,330,-1,5,-1,-1,-1,-1,,5000,0,2,3,FEW 5   BKN 8   BKN 15,1,4,1,3,1009,RJNA 220800Z 33005KT 5000 -RA BR FEW005 BKN008 BKN015 04/03     Q1009 RMK 1ST005 5ST008 7SC015 A2981=,- RA; BR
20180122_090000.000,0,RJNA,,,,0,20180122090000,-1,-1,-1,-1,300,-1,5,-1,-1,-1,-1,,4500,0,2,3,FEW 5   BKN 8   BKN 15,1,4,1,3,1009,RJNA 220900Z 30005KT 4500 -RA BR FEW005 BKN008 BKN015 04/03     Q1009 RMK 2ST005 5ST008 7SC015 A2982=,- RA; BR
20180122_090000.002,0,RJNA,,,,0,20180122090000,-1,-1,-1,-1,300,-1,5,-1,-1,-1,-1,,4500,0,2,3,FEW 5   BKN 8   BKN 15,1,4,1,3,1009,RJNA 220900Z 30005KT 4500 -RA BR FEW005 BKN008 BKN015 04/03     Q1009 RMK 2ST005 5ST008 7SC015 A2982=,- RA; BR
20180122_100000.000,0,RJNA,,,,0,20180122100000,-1,-1,-1,-1,310,-1,9,-1,-1,-1,-1,,5000,0,2,3,FEW 4   SCT 5   BKN 8,1,3,1,2,1010,RJNA 221000Z 31009KT 5000 -RA BR FEW004 SCT005 BKN008 03/02     Q1010 RMK 1ST004 3ST005 5ST008 A2983=,- RA; BR
20180122_100000.002,0,RJNA,,,,0,20180122100000,-1,-1,-1,-1,310,-1,9,-1,-1,-1,-1,,5000,0,2,3,FEW 4   SCT 5   BKN 8,1,3,1,2,1010,RJNA 221000Z 31009KT 5000 -RA BR FEW004 SCT005 BKN008 03/02     Q1010 RMK 1ST004 3ST005 5ST008 A2983=,- RA; BR
20180122_110000.000,0,RJNA,,,,0,20180122110000,-1,-1,-1,-1,340,-1,5,-1,-1,-1,-1,,9999,0,1,3,FEW 5   SCT 15   BKN 20,1,3,1,2,1009,RJNA 221100Z 34005KT 9999 -RA FEW005 SCT015 BKN020 03/02 Q1009     RMK 1ST005 4SC015 7SC020 A2982=,- RA
20180122_110000.003,0,RJNA,,,,0,20180122110000,-1,-1,-1,-1,340,-1,5,-1,-1,-1,-1,,9999,0,1,3,FEW 5   SCT 15   BKN 20,1,3,1,2,1009,RJNA 221100Z 34005KT 9999 -RA FEW005 SCT015 BKN020 03/02 Q1009     RMK 1ST005 4SC015 7SC020 A2982=,- RA
20180122_120000.000,0,RJNA,,,,0,20180122120000,-1,-1,-1,-1,340,-1,3,-1,-1,320,20,,9999,0,1,3,FEW 5   SCT 15   BKN 25,1,3,1,2,1009,RJNA 221200Z 34003KT 320V020 9999 -RA FEW005 SCT015 BKN025     03/02 Q1009 RMK 1ST005 3SC015 7SC025 A2982=,- RA
20180122_120000.002,0,RJNA,,,,0,20180122120000,-1,-1,-1,-1,340,-1,3,-1,-1,320,20,,9999,0,1,3,FEW 5   SCT 15   BKN 25,1,3,1,2,1009,RJNA 221200Z 34003KT 320V020 9999 -RA FEW005 SCT015 BKN025     03/02 Q1009 RMK 1ST005 3SC015 7SC025 A2982=,- RA
20180122_130000.000,0,RJNA,,,,0,20180122130000,-1,-1,-1,-1,30,-1,3,-1,-1,350,50,,9999,0,0,3,FEW 5   SCT 30   BKN 50,1,3,1,2,1009,RJNA 221300Z 03003KT 350V050 9999 FEW005 SCT030 BKN050 03/02     Q1009 RMK 1ST005 4SC030 5SC050 A2981=,
20180122_130000.003,0,RJNA,,,,0,20180122130000,-1,-1,-1,-1,30,-1,3,-1,-1,350,50,,9999,0,0,3,FEW 5   SCT 30   BKN 50,1,3,1,2,1009,RJNA 221300Z 03003KT 350V050 9999 FEW005 SCT030 BKN050 03/02     Q1009 RMK 1ST005 4SC030 5SC050 A2981=,
20180122_140000.000,0,RJNA,,,,0,20180122140000,-1,-1,-1,-1,340,-1,6,-1,-1,-1,-1,,9999,0,0,1,FEW 8,1,2,1,1,1009,RJNA 221400Z 34006KT 9999 FEW008 02/01 Q1009 RMK 1ST008 A2981=,
20180122_140000.003,0,RJNA,,,,0,20180122140000,-1,-1,-1,-1,340,-1,6,-1,-1,-1,-1,,9999,0,0,1,FEW 8,1,2,1,1,1009,RJNA 221400Z 34006KT 9999 FEW008 02/01 Q1009 RMK 1ST008 A2981=,
20180122_150000.000,0,RJNA,,,,0,20180122150000,-1,-1,-1,-1,350,-1,4,-1,-1,-1,-1,,9999,0,0,1,FEW 20,1,2,1,1,1009,RJNA 221500Z 35004KT 9999 FEW020 02/01 Q1009 RMK 1CU020 A2980=,
20180122_150000.002,0,RJNA,,,,0,20180122150000,-1,-1,-1,-1,350,-1,4,-1,-1,-1,-1,,9999,0,0,1,FEW 20,1,2,1,1,1009,RJNA 221500Z 35004KT 9999 FEW020 02/01 Q1009 RMK 1CU020 A2980=,
20180122_160000.000,0,RJNA,,,,0,20180122160000,-1,-1,-1,-1,360,-1,3,-1,-1,-1,-1,,9999,0,0,1,FEW 15,1,2,1,1,1009,RJNA 221600Z 36003KT 9999 FEW015 02/01 Q1009 RMK 1CU015 A2980=,
20180122_160000.002,0,RJNA,,,,0,20180122160000,-1,-1,-1,-1,360,-1,3,-1,-1,-1,-1,,9999,0,0,1,FEW 15,1,2,1,1,1009,RJNA 221600Z 36003KT 9999 FEW015 02/01 Q1009 RMK 1CU015 A2980=,
20180122_170000.000,0,RJNA,,,,0,20180122170000,-1,-1,-1,-1,100,-1,3,-1,-1,-1,-1,,9999,0,0,2,FEW 15   BKN 45,1,1,1,1,1009,RJNA 221700Z 10003KT 9999 FEW015 BKN045 01/01 Q1009 RMK 1CU015     5SC045 A2982=,
20180122_170000.002,0,RJNA,,,,0,20180122170000,-1,-1,-1,-1,100,-1,3,-1,-1,-1,-1,,9999,0,0,2,FEW 15   BKN 45,1,1,1,1,1009,RJNA 221700Z 10003KT 9999 FEW015 BKN045 01/01 Q1009 RMK 1CU015     5SC045 A2982=,
20180122_180000.000,0,RJNA,,,,0,20180122180000,-1,-1,-1,-1,90,-1,3,-1,-1,60,180,,9999,0,0,2,FEW 20   SCT 45,1,1,1,0,1009,RJNA 221800Z 09003KT 060V180 9999 FEW020 SCT045 01/00 Q1009 RMK     1CU020 3SC045 A2982=,
20180122_180000.002,0,RJNA,,,,0,20180122180000,-1,-1,-1,-1,90,-1,3,-1,-1,60,180,,9999,0,0,2,FEW 20   SCT 45,1,1,1,0,1009,RJNA 221800Z 09003KT 060V180 9999 FEW020 SCT045 01/00 Q1009     RMK 1CU020 3SC045 A2982=,
20180122_190000.000,0,RJNA,,,,0,20180122190000,-1,-1,-1,-1,160,-1,4,-1,-1,110,230,,9999,0,0,2,FEW 15   BKN 50,1,2,1,2,1009,RJNA 221900Z 16004KT 110V230 9999 FEW015 BKN050 02/02 Q1009 RMK     2CU015 5SC050 A2982=,
20180122_190000.002,0,RJNA,,,,0,20180122190000,-1,-1,-1,-1,160,-1,4,-1,-1,110,230,,9999,0,0,2,FEW 15   BKN 50,1,2,1,2,1009,RJNA 221900Z 16004KT 110V230 9999 FEW015 BKN050 02/02 Q1009     RMK 2CU015 5SC050 A2982=,
20180122_200000.000,0,RJNA,,,,0,20180122200000,-1,-1,-1,-1,999,-1,1,-1,-1,-1,-1,,9999,0,0,1,FEW 15,1,1,1,0,1009,RJNA 222000Z VRB01KT 9999 FEW015 01/00 Q1009 RMK 1CU015 A2981=,
20180122_200000.002,0,RJNA,,,,0,20180122200000,-1,-1,-1,-1,999,-1,1,-1,-1,-1,-1,,9999,0,0,1,FEW 15,1,1,1,0,1009,RJNA 222000Z VRB01KT 9999 FEW015 01/00 Q1009 RMK 1CU015 A2981=,
20180122_210000.000,0,RJNA,,,,0,20180122210000,-1,-1,-1,-1,999,-1,1,-1,-1,-1,-1,,9999,0,0,2,FEW 15   BKN 35,1,1,1,0,1010,RJNA 222100Z VRB01KT 9999 FEW015 BKN035 01/00 Q1010 RMK 1CU015     5SC035 A2983 06/M00 R009=,
20180122_210000.003,0,RJNA,,,,0,20180122210000,-1,-1,-1,-1,999,-1,1,-1,-1,-1,-1,,9999,0,0,2,FEW 15   BKN 35,1,1,1,0,1010,RJNA 222100Z VRB01KT 9999 FEW015 BKN035 01/00 Q1010 RMK 1CU015     5SC035 A2983 06/M00 R009=,
20180122_220000.000,0,RJNA,,,,0,20180122220000,-1,-1,-1,-1,150,-1,5,-1,-1,-1,-1,,9999,0,0,3,FEW 15   BKN 30   BKN 45,1,2,1,1,1009,RJNA 222200Z 15005KT 9999 FEW015 BKN030 BKN045 02/01 Q1009 RMK     1CU015 5CU030 5SC045 A2982 VIS NW-N 7KM=,
20180122_220000.002,0,RJNA,,,,0,20180122220000,-1,-1,-1,-1,150,-1,5,-1,-1,-1,-1,,9999,0,0,3,FEW 15   BKN 30   BKN 45,1,2,1,1,1009,RJNA 222200Z 15005KT 9999 FEW015 BKN030 BKN045 02/01 Q1009 RMK     1CU015 5CU030 5SC045 A2982 VIS NW-N 7KM=,
20180122_230000.000,0,RJNA,,,,0,20180122230000,-1,-1,-1,-1,999,-1,2,-1,-1,-1,-1,,9999,0,1,3,FEW 15   BKN 30   BKN 45,1,3,1,2,1009,RJNA 222300Z VRB02KT 9999 -SHRA FEW015 BKN030 BKN045 03/02     Q1009 RMK 1CU015 5CU030 5SC045 A2982=,- RA SH
20180122_230000.003,0,RJNA,,,,0,20180122230000,-1,-1,-1,-1,999,-1,2,-1,-1,-1,-1,,9999,0,1,3,FEW 15   BKN 30   BKN 45,1,3,1,2,1009,RJNA 222300Z VRB02KT 9999 -SHRA FEW015 BKN030 BKN045 03/02     Q1009 RMK 1CU015 5CU030 5SC045 A2982=,- RA SH
20180123_000000.000,0,RJNA,,,,0,20180123000000,-1,-1,-1,-1,120,-1,3,-1,-1,-1,-1,,9999,0,0,3,FEW 15   SCT 30   BKN 50,1,5,1,3,1009,RJNA 230000Z 12003KT 9999 FEW015 SCT030 BKN050 05/03 Q1009 RMK     1CU015 4CU030 5SC050 A2982=,
20180123_000000.002,0,RJNA,,,,0,20180123000000,-1,-1,-1,-1,120,-1,3,-1,-1,-1,-1,,9999,0,0,3,FEW 15   SCT 30   BKN 50,1,5,1,3,1009,RJNA 230000Z 12003KT 9999 FEW015 SCT030 BKN050 05/03 Q1009 RMK     1CU015 4CU030 5SC050 A2982=,
20180123_010000.000,0,RJNA,,,,0,20180123010000,-1,-1,-1,-1,140,-1,6,-1,-1,-1,-1,,9999,0,0,1,FEW 30,1,7,1,4,1009,RJNA 230100Z 14006KT 9999 FEW030 07/04 Q1009 RMK 1CU030 A2981=,
20180123_010000.002,0,RJNA,,,,0,20180123010000,-1,-1,-1,-1,140,-1,6,-1,-1,-1,-1,,9999,0,0,1,FEW 30,1,7,1,4,1009,RJNA 230100Z 14006KT 9999 FEW030 07/04 Q1009 RMK 1CU030 A2981=,
20180123_020000.000,0,RJNA,,,,0,20180123020000,-1,-1,-1,-1,280,-1,3,-1,-1,220,330,,9999,0,0,1,FEW 25,1,8,1,4,1009,RJNA 230200Z 28003KT 220V330 9999 FEW025 08/04 Q1009 RMK 1CU025     A2980=,
20180123_020000.002,0,RJNA,,,,0,20180123020000,-1,-1,-1,-1,280,-1,3,-1,-1,220,330,,9999,0,0,1,FEW 25,1,8,1,4,1009,RJNA 230200Z 28003KT 220V330 9999 FEW025 08/04 Q1009 RMK     1CU025 A2980=,
20180123_030000.000,0,RJNA,,,,0,20180123030000,-1,-1,-1,-1,280,-1,11,-1,21,200,310,,9999,0,0,1,FEW 25,1,10,-1,0,1008,RJNA 230300Z 28011G21KT 200V310 9999 FEW025 10/M00 Q1008 RMK     1CU025 A2977=,
20180123_030000.003,0,RJNA,,,,0,20180123030000,-1,-1,-1,-1,280,-1,11,-1,21,200,310,,9999,0,0,1,FEW 25,1,10,-1,0,1008,RJNA 230300Z 28011G21KT 200V310 9999 FEW025 10/M00 Q1008 RMK     1CU025 A2977=,
20180123_040000.000,0,RJNA,,,,0,20180123040000,-1,-1,-1,-1,320,-1,10,-1,-1,-1,-1,,9999,0,0,2,FEW 25   SCT 40,1,10,1,2,1008,RJNA 230400Z 32010KT 9999 FEW025 SCT040 10/02 Q1008 RMK 1CU025     3SC040 A2977=,
20180123_040000.003,0,RJNA,,,,0,20180123040000,-1,-1,-1,-1,320,-1,10,-1,-1,-1,-1,,9999,0,0,2,FEW 25   SCT 40,1,10,1,2,1008,RJNA 230400Z 32010KT 9999 FEW025 SCT040 10/02 Q1008 RMK 1CU025     3SC040 A2977=,
20180123_050000.000,0,RJNA,,,,0,20180123050000,-1,-1,-1,-1,310,-1,23,-1,38,-1,-1,,9999,0,1,3,FEW 15   BKN 25   BKN 40,1,7,1,1,1009,RJNA 230500Z 31023G38KT 9999 -SHRA FEW015 BKN025 BKN040 07/01     Q1009 RMK 1CU015 5CU025 6SC040 A2980=,- RA SH
20180123_050000.002,0,RJNA,,,,0,20180123050000,-1,-1,-1,-1,310,-1,23,-1,38,-1,-1,,9999,0,1,3,FEW 15   BKN 25   BKN 40,1,7,1,1,1009,RJNA 230500Z 31023G38KT 9999 -SHRA FEW015 BKN025 BKN040 07/01     Q1009 RMK 1CU015 5CU025 6SC040 A2980=,- RA SH
20180123_060000.000,0,RJNA,,,,0,20180123060000,-1,-1,-1,-1,300,-1,14,-1,-1,260,320,,9999,0,0,2,FEW 25   SCT 40,1,9,-1,2,1009,RJNA 230600Z 30014KT 260V320 9999 FEW025 SCT040 09/M02 Q1009     RMK 1CU025 3SC040 A2981 MAX WIND 23KT=,
20180123_060000.003,0,RJNA,,,,0,20180123060000,-1,-1,-1,-1,300,-1,14,-1,-1,260,320,,9999,0,0,2,FEW 25   SCT 40,1,9,-1,2,1009,RJNA 230600Z 30014KT 260V320 9999 FEW025 SCT040 09/M02 Q1009     RMK 1CU025 3SC040 A2981 MAX WIND 23KT=,
20180123_070000.000,0,RJNA,,,,0,20180123070000,-1,-1,-1,-1,300,-1,18,-1,-1,-1,-1,,9999,0,0,2,FEW 15   BKN 40,1,7,-1,4,1010,RJNA 230700Z 30018KT 9999 FEW015 BKN040 07/M04 Q1010 RMK 1CU015     5SC040 A2983 MAX WIND 26KT=,
20180123_070000.002,0,RJNA,,,,0,20180123070000,-1,-1,-1,-1,300,-1,18,-1,-1,-1,-1,,9999,0,0,2,FEW 15   BKN 40,1,7,-1,4,1010,RJNA 230700Z 30018KT 9999 FEW015 BKN040 07/M04 Q1010 RMK     1CU015 5SC040 A2983 MAX WIND 26KT=,
20180123_080000.000,0,RJNA,,,,0,20180123080000,-1,-1,-1,-1,320,-1,14,-1,-1,-1,-1,,9999,0,0,1,FEW 20,1,5,-1,3,1010,RJNA 230800Z 32014KT 9999 FEW020 05/M03 Q1010 RMK 1CU020 A2985     MAX WIND 20KT=,
20180123_080000.002,0,RJNA,,,,0,20180123080000,-1,-1,-1,-1,320,-1,14,-1,-1,-1,-1,,9999,0,0,1,FEW 20,1,5,-1,3,1010,RJNA 230800Z 32014KT 9999 FEW020 05/M03 Q1010 RMK 1CU020 A2985     MAX WIND 20KT=,
20180123_090000.000,0,RJNA,,,,0,20180123090000,-1,-1,-1,-1,310,-1,14,-1,-1,270,330,,9999,0,0,1,FEW 20,1,4,-1,6,1011,RJNA 230900Z 31014KT 270V330 9999 FEW020 04/M06 Q1011 RMK     1CU020 A2986 MAX WIND 20KT=,
20180123_090000.002,0,RJNA,,,,0,20180123090000,-1,-1,-1,-1,310,-1,14,-1,-1,270,330,,9999,0,0,1,FEW 20,1,4,-1,6,1011,RJNA 230900Z 31014KT 270V330 9999 FEW020 04/M06 Q1011 RMK     1CU020 A2986 MAX WIND 20KT=,
20180123_100000.000,0,RJNA,,,,0,20180123100000,-1,-1,-1,-1,310,-1,12,-1,-1,-1,-1,,9999,0,0,1,FEW 20,1,2,-1,2,1012,RJNA 231000Z 31012KT 9999 FEW020 02/M02 Q1012 RMK 1CU020 A2990=,
20180123_100000.002,0,RJNA,,,,0,20180123100000,-1,-1,-1,-1,310,-1,12,-1,-1,-1,-1,,9999,0,0,1,FEW 20,1,2,-1,2,1012,RJNA 231000Z 31012KT 9999 FEW020 02/M02 Q1012 RMK 1CU020     A2990=,
20180123_110000.000,0,RJNA,,,,0,20180123110000,-1,-1,-1,-1,330,-1,10,-1,-1,-1,-1,,9999,0,0,1,FEW 20,1,0,-1,3,1012,RJNA 231100Z 33010KT 9999 FEW020 00/M03 Q1012 RMK 1CU020 A2991=,
20180123_110000.002,0,RJNA,,,,0,20180123110000,-1,-1,-1,-1,330,-1,10,-1,-1,-1,-1,,9999,0,0,1,FEW 20,1,0,-1,3,1012,RJNA 231100Z 33010KT 9999 FEW020 00/M03 Q1012 RMK 1CU020     A2991=,
20180123_120000.000,0,RJNA,,,,0,20180123120000,-1,-1,-1,-1,350,-1,6,-1,-1,300,30,,9999,0,0,1,FEW 20,1,0,-1,3,1013,RJNA 231200Z 35006KT 300V030 9999 FEW020 00/M03 Q1013 RMK     1CU020 A2992=,
20180123_120000.002,0,RJNA,,,,0,20180123120000,-1,-1,-1,-1,350,-1,6,-1,-1,300,30,,9999,0,0,1,FEW 20,1,0,-1,3,1013,RJNA 231200Z 35006KT 300V030 9999 FEW020 00/M03 Q1013 RMK     1CU020 A2992=,
20180123_130000.000,0,RJNA,,,,0,20180123130000,-1,-1,-1,-1,320,-1,6,-1,-1,270,360,,9999,0,0,1,FEW 30,1,1,-1,6,1013,RJNA 231300Z 32006KT 270V360 9999 FEW030 01/M06 Q1013 RMK     1CU030 A2992=,
20180123_130000.002,0,RJNA,,,,0,20180123130000,-1,-1,-1,-1,320,-1,6,-1,-1,270,360,,9999,0,0,1,FEW 30,1,1,-1,6,1013,RJNA 231300Z 32006KT 270V360 9999 FEW030 01/M06 Q1013 RMK     1CU030 A2992=,
20180123_140000.000,0,RJNA,,,,0,20180123140000,-1,-1,-1,-1,300,-1,7,-1,-1,260,330,,9999,0,0,2,FEW 30   SCT -9999,1,2,-1,6,1013,RJNA 231400Z 30007KT 260V330 9999 FEW030 SCT/// 02/M06 Q1013     RMK 1CU030 A2992=,
20180123_140000.002,0,RJNA,,,,0,20180123140000,-1,-1,-1,-1,300,-1,7,-1,-1,260,330,,9999,0,0,2,FEW 30   SCT -9999,1,2,-1,6,1013,RJNA 231400Z 30007KT 260V330 9999 FEW030 SCT/// 02/M06 Q1013     RMK 1CU030 A2992=,
20180123_150000.000,0,RJNA,,,,0,20180123150000,-1,-1,-1,-1,110,-1,3,-1,-1,-1,-1,,9999,0,0,2,FEW 30   BKN -9999,1,1,-1,6,1012,RJNA 231500Z 11003KT 9999 FEW030 BKN/// 01/M06 Q1012 RMK 1CU030     A2990=,
20180123_150000.002,0,RJNA,,,,0,20180123150000,-1,-1,-1,-1,110,-1,3,-1,-1,-1,-1,,9999,0,0,2,FEW 30   BKN -9999,1,1,-1,6,1012,RJNA 231500Z 11003KT 9999 FEW030 BKN/// 01/M06 Q1012 RMK     1CU030 A2990=,
20180123_160000.000,0,RJNA,,,,0,20180123160000,-1,-1,-1,-1,999,-1,2,-1,-1,-1,-1,,9999,0,0,2,FEW 30   SCT -9999,1,1,-1,6,1013,RJNA 231600Z VRB02KT 9999 FEW030 SCT/// 01/M06 Q1013 RMK 1CU030     A2992=,
20180123_160000.002,0,RJNA,,,,0,20180123160000,-1,-1,-1,-1,999,-1,2,-1,-1,-1,-1,,9999,0,0,2,FEW 30   SCT -9999,1,1,-1,6,1013,RJNA 231600Z VRB02KT 9999 FEW030 SCT/// 01/M06 Q1013 RMK     1CU030 A2992=,
20180123_170000.000,0,RJNA,,,,0,20180123170000,-1,-1,-1,-1,250,-1,4,-1,-1,190,310,,9999,0,0,2,FEW 30   SCT -9999,1,1,-1,8,1013,RJNA 231700Z 25004KT 190V310 9999 FEW030 SCT/// 01/M08 Q1013     RMK 1CU030 A2992=,
20180123_170000.002,0,RJNA,,,,0,20180123170000,-1,-1,-1,-1,250,-1,4,-1,-1,190,310,,9999,0,0,2,FEW 30   SCT -9999,1,1,-1,8,1013,RJNA 231700Z 25004KT 190V310 9999 FEW030 SCT/// 01/M08 Q1013     RMK 1CU030 A2992=,
20180123_180000.000,0,RJNA,,,,0,20180123180000,-1,-1,-1,-1,250,-1,4,-1,-1,170,300,,9999,0,0,2,FEW 30   SCT -9999,1,1,-1,9,1012,RJNA 231800Z 25004KT 170V300 9999 FEW030 SCT/// 01/M09 Q1012     RMK 1CU030 A2991=,
20180123_180000.002,0,RJNA,,,,0,20180123180000,-1,-1,-1,-1,250,-1,4,-1,-1,170,300,,9999,0,0,2,FEW 30   SCT -9999,1,1,-1,9,1012,RJNA 231800Z 25004KT 170V300 9999 FEW030 SCT/// 01/M09 Q1012     RMK 1CU030 A2991=,
20180123_190000.000,0,RJNA,,,,0,20180123190000,-1,-1,-1,-1,999,-1,3,-1,-1,-1,-1,,9999,0,0,2,FEW 30   SCT -9999,1,0,-1,8,1012,RJNA 231900Z VRB03KT 9999 FEW030 SCT/// 00/M08 Q1012 RMK 1CU030     A2989=,
20180123_190000.002,0,RJNA,,,,0,20180123190000,-1,-1,-1,-1,999,-1,3,-1,-1,-1,-1,,9999,0,0,2,FEW 30   SCT -9999,1,0,-1,8,1012,RJNA 231900Z VRB03KT 9999 FEW030 SCT/// 00/M08 Q1012 RMK     1CU030 A2989=,
20180123_200000.000,0,RJNA,,,,0,20180123200000,-1,-1,-1,-1,290,-1,9,-1,-1,250,310,,9999,0,0,1,FEW 30,1,1,-1,9,1011,RJNA 232000Z 29009KT 250V310 9999 FEW030 01/M09 Q1011 RMK     1CU030 A2987=,
20180123_200000.002,0,RJNA,,,,0,20180123200000,-1,-1,-1,-1,290,-1,9,-1,-1,250,310,,9999,0,0,1,FEW 30,1,1,-1,9,1011,RJNA 232000Z 29009KT 250V310 9999 FEW030 01/M09 Q1011 RMK     1CU030 A2987=,
20180123_210000.000,0,RJNA,,,,0,20180123210000,-1,-1,-1,-1,290,-1,7,-1,-1,-1,-1,,9999,0,0,1,FEW 30,1,1,-1,8,1012,RJNA 232100Z 29007KT 9999 FEW030 01/M08 Q1012 RMK 1CU030 A2989     31038KT/0440 11/M01 R000=,
20180123_210000.002,0,RJNA,,,,0,20180123210000,-1,-1,-1,-1,290,-1,7,-1,-1,-1,-1,,9999,0,0,1,FEW 30,1,1,-1,8,1012,RJNA 232100Z 29007KT 9999 FEW030 01/M08 Q1012 RMK 1CU030 A2989     31038KT/0440 11/M01 R000=,
20180123_220000.000,0,RJNA,,,,0,20180123220000,-1,-1,-1,-1,260,-1,5,-1,-1,220,300,,9999,0,0,1,FEW 25,1,0,-1,8,1012,RJNA 232200Z 26005KT 220V300 9999 FEW025 00/M08 Q1012 RMK     1CU025 A2990=,
20180123_220000.002,0,RJNA,,,,0,20180123220000,-1,-1,-1,-1,260,-1,5,-1,-1,220,300,,9999,0,0,1,FEW 25,1,0,-1,8,1012,RJNA 232200Z 26005KT 220V300 9999 FEW025 00/M08 Q1012 RMK     1CU025 A2990=,
20180123_230000.000,0,RJNA,,,,0,20180123230000,-1,-1,-1,-1,270,-1,6,-1,-1,220,300,,9999,0,0,1,FEW 20,1,1,-1,8,1012,RJNA 232300Z 27006KT 220V300 9999 FEW020 01/M08 Q1012 RMK     1CU020 A2991=,
20180123_230000.002,0,RJNA,,,,0,20180123230000,-1,-1,-1,-1,270,-1,6,-1,-1,220,300,,9999,0,0,1,FEW 20,1,1,-1,8,1012,RJNA 232300Z 27006KT 220V300 9999 FEW020 01/M08 Q1012 RMK     1CU020 A2991=,
20180124_000000.000,0,RJNA,,,,0,20180124000000,-1,-1,-1,-1,280,-1,9,-1,-1,240,310,,9999,0,0,2,FEW 20   SCT 50,1,2,-1,7,1012,RJNA 240000Z 28009KT 240V310 9999 FEW020 SCT050 02/M07 Q1012     RMK 1CU020 3SC050 A2991=,
20180124_000000.002,0,RJNA,,,,0,20180124000000,-1,-1,-1,-1,280,-1,9,-1,-1,240,310,,9999,0,0,2,FEW 20   SCT 50,1,2,-1,7,1012,RJNA 240000Z 28009KT 240V310 9999 FEW020 SCT050 02/M07 Q1012     RMK 1CU020 3SC050 A2991=,
20180124_010000.000,0,RJNA,,,,0,20180124010000,-1,-1,-1,-1,270,-1,10,-1,-1,240,310,,9999,0,0,2,FEW 20   BKN 45,1,1,-1,9,1012,RJNA 240100Z 27010KT 240V310 9999 FEW020 BKN045 01/M09 Q1012     RMK 1CU020 5SC045 A2991=,
20180124_010000.003,0,RJNA,,,,0,20180124010000,-1,-1,-1,-1,270,-1,10,-1,-1,240,310,,9999,0,0,2,FEW 20   BKN 45,1,1,-1,9,1012,RJNA 240100Z 27010KT 240V310 9999 FEW020 BKN045 01/M09 Q1012     RMK 1CU020 5SC045 A2991=,
20180124_020000.000,0,RJNA,,,,0,20180124020000,-1,-1,-1,-1,280,-1,13,-1,-1,240,310,,9999,0,0,2,FEW 20   SCT 45,1,3,-1,9,1011,RJNA 240200Z 28013KT 240V310 9999 FEW020 SCT045 03/M09 Q1011     RMK 1CU020 3SC045 A2988 MAX WIND 20KT=,
20180124_020000.002,0,RJNA,,,,0,20180124020000,-1,-1,-1,-1,280,-1,13,-1,-1,240,310,,9999,0,0,2,FEW 20   SCT 45,1,3,-1,9,1011,RJNA 240200Z 28013KT 240V310 9999 FEW020 SCT045 03/M09 Q1011     RMK 1CU020 3SC045 A2988 MAX WIND 20KT=,
20180124_030000.000,0,RJNA,,,,0,20180124030000,-1,-1,-1,-1,290,-1,20,-1,35,260,320,,9999,0,0,1,FEW 10,1,3,-1,10,1010,RJNA 240300Z 29020G35KT 260V320 9999 FEW010 03/M10 Q1010 RMK     1CU010 A2983=,
20180124_030000.002,0,RJNA,,,,0,20180124030000,-1,-1,-1,-1,290,-1,20,-1,35,260,320,,9999,0,0,1,FEW 10,1,3,-1,10,1010,RJNA 240300Z 29020G35KT 260V320 9999 FEW010 03/M10 Q1010 RMK     1CU010 A2983=,
20180124_030000.004,2,RJNA,,,,0,20180124030000,-1,-1,-1,-1,290,-1,20,-1,35,260,320,,9999,0,0,1,FEW 10,1,3,-1,10,1010,RJNA 240300Z 29020G35KT 260V320 9999 FEW010 03/M10 Q1010     RMK 1CU010 A2983=,
20180124_030000.005,1,RJNA,,,,0,20180124030000,-1,-1,-1,-1,290,-1,20,-1,35,260,320,,9999,0,0,1,FEW 10,1,3,-1,10,1010,RJNA 240300Z 29020G35KT 260V320 9999 FEW010 03/M10 Q1010     RMK 1CU010 A2983=,
20180124_040000.000,0,RJNA,,,,0,20180124040000,-1,-1,-1,-1,260,-1,14,-1,25,210,290,,9999,0,0,1,FEW 10,1,3,-1,9,1009,RJNA 240400Z 26014G25KT 210V290 9999 FEW010 03/M09 Q1009 RMK     1CU010 A2981=,
20180124_040000.002,0,RJNA,,,,0,20180124040000,-1,-1,-1,-1,260,-1,14,-1,25,210,290,,9999,0,0,1,FEW 10,1,3,-1,9,1009,RJNA 240400Z 26014G25KT 210V290 9999 FEW010 03/M09 Q1009 RMK     1CU010 A2981=,
20180124_050000.000,0,RJNA,,,,0,20180124050000,-1,-1,-1,-1,290,-1,16,-1,26,-1,-1,,9999,0,1,2,FEW 10   SCT 25,1,2,-1,7,1009,RJNA 240500Z 29016G26KT 9999 VCSH FEW010 SCT025 02/M07 Q1009     RMK 1CU010 3CU025 A2981=,VC SH
20180124_050000.002,0,RJNA,,,,0,20180124050000,-1,-1,-1,-1,290,-1,16,-1,26,-1,-1,,9999,0,1,2,FEW 10   SCT 25,1,2,-1,7,1009,RJNA 240500Z 29016G26KT 9999 VCSH FEW010 SCT025 02/M07 Q1009     RMK 1CU010 3CU025 A2981=,VC SH
20180124_060000.000,0,RJNA,,,,0,20180124060000,-1,-1,-1,-1,290,-1,17,-1,29,-1,-1,,9999,0,0,2,FEW 10   SCT 45,1,3,-1,7,1010,RJNA 240600Z 29017G29KT 9999 FEW010 SCT045 03/M07 Q1010 RMK     1CU010 3SC045 A2983=,
20180124_060000.002,0,RJNA,,,,0,20180124060000,-1,-1,-1,-1,290,-1,17,-1,29,-1,-1,,9999,0,0,2,FEW 10   SCT 45,1,3,-1,7,1010,RJNA 240600Z 29017G29KT 9999 FEW010 SCT045 03/M07 Q1010     RMK 1CU010 3SC045 A2983=,
20180124_060000.002,2,RJNA,,,,0,20180124060000,-1,-1,-1,-1,290,-1,17,-1,29,-1,-1,,9999,0,0,2,FEW 10   SCT 45,1,3,-1,7,1010,RJNA 240600Z 29017G29KT 9999 FEW010 SCT045 03/M07 Q1010 RMK     1CU010 3SC045 A2983=,
20180124_070000.000,0,RJNA,,,,0,20180124070000,-1,-1,-1,-1,310,-1,20,-1,32,-1,-1,,9999,0,1,2,FEW 10   BKN 45,1,2,-1,7,1010,RJNA 240700Z 31020G32KT 9999 -SHSN FEW010 BKN045 02/M07 Q1010     RMK 1CU010 5SC045 A2985 WS R34=,- SN SH
20180124_070000.002,0,RJNA,,,,0,20180124070000,-1,-1,-1,-1,310,-1,20,-1,32,-1,-1,,9999,0,1,2,FEW 10   BKN 45,1,2,-1,7,1010,RJNA 240700Z 31020G32KT 9999 -SHSN FEW010 BKN045 02/M07 Q1010     RMK 1CU010 5SC045 A2985 WS R34=,- SN SH
20180124_080000.000,0,RJNA,,,,0,20180124080000,-1,-1,-1,-1,300,-1,21,-1,32,-1,-1,,800,1,1,1,VV 5,-1,1,-1,5,1011,RJNA 240800Z 30021G32KT 0800 R34/1300VP1800D SHSN VV005 M01/M05     Q1011 RMK A2988 R1800=,SN SH
20180124_080000.002,0,RJNA,,,,0,20180124080000,-1,-1,-1,-1,300,-1,21,-1,32,-1,-1,,800,1,1,1,VV 5,-1,1,-1,5,1011,RJNA 240800Z 30021G32KT 0800 R34/1300VP1800D SHSN VV005     M01/M05 Q1011 RMK A2988 R1800=,SN SH
20180124_090000.000,0,RJNA,,,,0,20180124090000,-1,-1,-1,-1,290,-1,11,-1,-1,-1,-1,,3500,0,1,3,FEW 4   BKN 6   BKN 10,-1,2,-1,3,1012,RJNA 240900Z 29011KT 3500 -SHSN FEW004 BKN006 BKN010 M02/M03     Q1012 RMK 1CU004 5CU006 7CU010 A2990=,- SN SH
20180124_090000.001,2,RJNA,,,,0,20180124090000,-1,-1,-1,-1,290,-1,11,-1,-1,-1,-1,,3500,0,1,3,FEW 4   BKN 6   BKN 10,-1,2,-1,3,1012,RJNA 240900Z 29011KT 3500 -SHSN FEW004 BKN006 BKN010     M02/M03 Q1012 RMK 1CU004 5CU006 7CU010 A2990=,- SN SH
20180124_090000.003,0,RJNA,,,,0,20180124090000,-1,-1,-1,-1,290,-1,11,-1,-1,-1,-1,,3500,0,1,3,FEW 4   BKN 6   BKN 10,-1,2,-1,3,1012,RJNA 240900Z 29011KT 3500 -SHSN FEW004 BKN006 BKN010     M02/M03 Q1012 RMK 1CU004 5CU006 7CU010 A2990=,- SN SH
20180124_100000.000,0,RJNA,,,,0,20180124100000,-1,-1,-1,-1,300,-1,7,-1,-1,270,330,,4000,0,1,3,FEW 4   BKN 6   BKN 10,-1,2,-1,3,1013,RJNA 241000Z 30007KT 270V330 4000 -SHSN FEW004 BKN006 BKN010     M02/M03 Q1013 RMK 1CU004 5CU006 5CU010 A2992=,- SN SH
20180124_100000.002,0,RJNA,,,,0,20180124100000,-1,-1,-1,-1,300,-1,7,-1,-1,270,330,,4000,0,1,3,FEW 4   BKN 6   BKN 10,-1,2,-1,3,1013,RJNA 241000Z 30007KT 270V330 4000 -SHSN FEW004 BKN006 BKN010     M02/M03 Q1013 RMK 1CU004 5CU006 5CU010 A2992=,- SN SH
20180124_110000.000,0,RJNA,,,,0,20180124110000,-1,-1,-1,-1,300,-1,9,-1,-1,-1,-1,,8000,0,1,3,FEW 6   BKN 10   BKN 25,-1,2,-1,4,1013,RJNA 241100Z 30009KT 8000 -SHSN FEW006 BKN010 BKN025 M02/M04     Q1013 RMK 1CU006 5CU010 5CU025 A2992=,- SN SH
20180124_110000.002,0,RJNA,,,,0,20180124110000,-1,-1,-1,-1,300,-1,9,-1,-1,-1,-1,,8000,0,1,3,FEW 6   BKN 10   BKN 25,-1,2,-1,4,1013,RJNA 241100Z 30009KT 8000 -SHSN FEW006 BKN010 BKN025 M02/M04     Q1013 RMK 1CU006 5CU010 5CU025 A2992=,- SN SH
20180124_120000.000,0,RJNA,,,,0,20180124120000,-1,-1,-1,-1,310,-1,10,-1,-1,-1,-1,,5000,0,1,3,FEW 10   BKN 25   BKN 50,-1,2,-1,5,1013,RJNA 241200Z 31010KT 5000 -SHSN FEW010 BKN025 BKN050 M02/M05     Q1013 RMK 2CU010 5CU025 7SC050 A2993=,- SN SH
20180124_120000.002,0,RJNA,,,,0,20180124120000,-1,-1,-1,-1,310,-1,10,-1,-1,-1,-1,,5000,0,1,3,FEW 10   BKN 25   BKN 50,-1,2,-1,5,1013,RJNA 241200Z 31010KT 5000 -SHSN FEW010 BKN025 BKN050 M02/M05     Q1013 RMK 2CU010 5CU025 7SC050 A2993=,- SN SH
20180124_130000.000,0,RJNA,,,,0,20180124130000,-1,-1,-1,-1,300,-1,8,-1,-1,-1,-1,,5000,0,1,3,FEW 8   SCT 15   BKN 25,-1,3,-1,4,1013,RJNA 241300Z 30008KT 5000 -SHSN FEW008 SCT015 BKN025 M03/M04     Q1013 RMK 1ST008 3CU015 5CU025 A2992=,- SN SH
20180124_130000.002,0,RJNA,,,,0,20180124130000,-1,-1,-1,-1,300,-1,8,-1,-1,-1,-1,,5000,0,1,3,FEW 8   SCT 15   BKN 25,-1,3,-1,4,1013,RJNA 241300Z 30008KT 5000 -SHSN FEW008 SCT015 BKN025 M03/M04     Q1013 RMK 1ST008 3CU015 5CU025 A2992=,- SN SH
20180124_140000.000,0,RJNA,,,,0,20180124140000,-1,-1,-1,-1,280,-1,5,-1,-1,-1,-1,,9999,0,0,3,FEW 8   SCT 25   BKN 50,-1,3,-1,4,1013,RJNA 241400Z 28005KT 9999 FEW008 SCT025 BKN050 M03/M04 Q1013     RMK 1CU008 3CU025 5SC050 A2992=,
20180124_140000.003,0,RJNA,,,,0,20180124140000,-1,-1,-1,-1,280,-1,5,-1,-1,-1,-1,,9999,0,0,3,FEW 8   SCT 25   BKN 50,-1,3,-1,4,1013,RJNA 241400Z 28005KT 9999 FEW008 SCT025 BKN050 M03/M04 Q1013     RMK 1CU008 3CU025 5SC050 A2992=,
20180124_150000.000,0,RJNA,,,,0,20180124150000,-1,-1,-1,-1,290,-1,5,-1,-1,-1,-1,,8000,0,1,3,FEW 8   SCT 20   BKN 50,-1,3,-1,4,1013,RJNA 241500Z 29005KT 8000 -SHSN FEW008 SCT020 BKN050 M03/M04     Q1013 RMK 1CU008 3CU020 5SC050 A2992=,- SN SH
20180124_150000.002,0,RJNA,,,,0,20180124150000,-1,-1,-1,-1,290,-1,5,-1,-1,-1,-1,,8000,0,1,3,FEW 8   SCT 20   BKN 50,-1,3,-1,4,1013,RJNA 241500Z 29005KT 8000 -SHSN FEW008 SCT020 BKN050 M03/M04     Q1013 RMK 1CU008 3CU020 5SC050 A2992=,- SN SH
20180124_160000.000,0,RJNA,,,,0,20180124160000,-1,-1,-1,-1,320,-1,3,-1,-1,-1,-1,,9999,0,0,2,FEW 10   SCT 50,-1,4,-1,6,1013,RJNA 241600Z 32003KT 9999 FEW010 SCT050 M04/M06 Q1013 RMK     1CU010 3SC050 A2992=,
20180124_160000.002,0,RJNA,,,,0,20180124160000,-1,-1,-1,-1,320,-1,3,-1,-1,-1,-1,,9999,0,0,2,FEW 10   SCT 50,-1,4,-1,6,1013,RJNA 241600Z 32003KT 9999 FEW010 SCT050 M04/M06 Q1013 RMK     1CU010 3SC050 A2992=,
20180124_170000.000,0,RJNA,,,,0,20180124170000,-1,-1,-1,-1,290,-1,5,-1,-1,-1,-1,,9999,0,0,2,FEW 15   BKN 70,-1,3,-1,6,1013,RJNA 241700Z 29005KT 9999 FEW015 BKN070 M03/M06 Q1013 RMK     1CU015 5AC070 A2994=,
20180124_170000.002,0,RJNA,,,,0,20180124170000,-1,-1,-1,-1,290,-1,5,-1,-1,-1,-1,,9999,0,0,2,FEW 15   BKN 70,-1,3,-1,6,1013,RJNA 241700Z 29005KT 9999 FEW015 BKN070 M03/M06 Q1013 RMK     1CU015 5AC070 A2994=,
20180124_180000.000,0,RJNA,,,,0,20180124180000,-1,-1,-1,-1,310,-1,5,-1,-1,-1,-1,,9999,0,0,2,FEW 15   SCT 50,-1,3,-1,6,1013,RJNA 241800Z 31005KT 9999 FEW015 SCT050 M03/M06 Q1013 RMK     1CU015 3SC050 A2994=,
20180124_180000.002,0,RJNA,,,,0,20180124180000,-1,-1,-1,-1,310,-1,5,-1,-1,-1,-1,,9999,0,0,2,FEW 15   SCT 50,-1,3,-1,6,1013,RJNA 241800Z 31005KT 9999 FEW015 SCT050 M03/M06 Q1013 RMK     1CU015 3SC050 A2994=,
20180124_190000.000,0,RJNA,,,,0,20180124190000,-1,-1,-1,-1,330,-1,3,-1,-1,270,360,,9999,0,0,2,FEW 20   SCT 50,-1,4,-1,7,1014,RJNA 241900Z 33003KT 270V360 9999 FEW020 SCT050 M04/M07 Q1014     RMK 1CU020 3SC050 A2994=,
20180124_190000.003,0,RJNA,,,,0,20180124190000,-1,-1,-1,-1,330,-1,3,-1,-1,270,360,,9999,0,0,2,FEW 20   SCT 50,-1,4,-1,7,1014,RJNA 241900Z 33003KT 270V360 9999 FEW020 SCT050 M04/M07 Q1014     RMK 1CU020 3SC050 A2994=,
20180124_200000.000,0,RJNA,,,,0,20180124200000,-1,-1,-1,-1,300,-1,3,-1,-1,270,330,,9999,0,0,1,FEW 15,-1,3,-1,7,1013,RJNA 242000Z 30003KT 270V330 9999 FEW015 M03/M07 Q1013 RMK     1CU015 A2994=,
20180124_200000.002,0,RJNA,,,,0,20180124200000,-1,-1,-1,-1,300,-1,3,-1,-1,270,330,,9999,0,0,1,FEW 15,-1,3,-1,7,1013,RJNA 242000Z 30003KT 270V330 9999 FEW015 M03/M07 Q1013 RMK     1CU015 A2994=,
20180124_210000.000,0,RJNA,,,,0,20180124210000,-1,-1,-1,-1,999,-1,2,-1,-1,-1,-1,,9999,0,0,1,FEW 15,-1,3,-1,7,1014,RJNA 242100Z VRB02KT 9999 FEW015 M03/M07 Q1014 RMK 1CU015 A2996     31038KT/0600 04/M05 R001 S005 SD004=,
20180124_210000.002,0,RJNA,,,,0,20180124210000,-1,-1,-1,-1,999,-1,2,-1,-1,-1,-1,,9999,0,0,1,FEW 15,-1,3,-1,7,1014,RJNA 242100Z VRB02KT 9999 FEW015 M03/M07 Q1014 RMK 1CU015     A2996 31038KT/0600 04/M05 R001 S005 SD004=,
20180124_220000.000,0,RJNA,,,,0,20180124220000,-1,-1,-1,-1,280,-1,3,-1,-1,250,320,,9999,0,0,1,FEW 15,-1,3,-1,6,1015,RJNA 242200Z 28003KT 250V320 9999 FEW015 M03/M06 Q1015 RMK     1CU015 A2999=,
20180124_220000.002,0,RJNA,,,,0,20180124220000,-1,-1,-1,-1,280,-1,3,-1,-1,250,320,,9999,0,0,1,FEW 15,-1,3,-1,6,1015,RJNA 242200Z 28003KT 250V320 9999 FEW015 M03/M06 Q1015 RMK     1CU015 A2999=,
20180124_230000.000,0,RJNA,,,,0,20180124230000,-1,-1,-1,-1,290,-1,4,-1,-1,250,330,,9999,0,0,1,FEW 8,-1,3,-1,7,1015,RJNA 242300Z 29004KT 250V330 9999 FEW008 M03/M07 Q1015 RMK     1CU008 A2999=,
20180124_230000.002,0,RJNA,,,,0,20180124230000,-1,-1,-1,-1,290,-1,4,-1,-1,250,330,,9999,0,0,1,FEW 8,-1,3,-1,7,1015,RJNA 242300Z 29004KT 250V330 9999 FEW008 M03/M07 Q1015 RMK     1CU008 A2999=,
20180125_000000.000,0,RJNA,,,,0,20180125000000,-1,-1,-1,-1,310,-1,8,-1,-1,260,350,,9999,0,0,1,FEW 10,-1,2,-1,6,1016,RJNA 250000Z 31008KT 260V350 9999 FEW010 M02/M06 Q1016 RMK     1CU010 A3001=,
20180125_000000.002,0,RJNA,,,,0,20180125000000,-1,-1,-1,-1,310,-1,8,-1,-1,260,350,,9999,0,0,1,FEW 10,-1,2,-1,6,1016,RJNA 250000Z 31008KT 260V350 9999 FEW010 M02/M06 Q1016 RMK     1CU010 A3001=,
20180125_010000.000,0,RJNA,,,,0,20180125010000,-1,-1,-1,-1,320,-1,9,-1,-1,-1,-1,,9999,0,0,1,FEW 10,-1,1,-1,7,1016,RJNA 250100Z 32009KT 9999 FEW010 M01/M07 Q1016 RMK 1CU010     A3001=,
20180125_010000.002,0,RJNA,,,,0,20180125010000,-1,-1,-1,-1,320,-1,9,-1,-1,-1,-1,,9999,0,0,1,FEW 10,-1,1,-1,7,1016,RJNA 250100Z 32009KT 9999 FEW010 M01/M07 Q1016 RMK 1CU010     A3001=,
20180125_020000.000,0,RJNA,,,,0,20180125020000,-1,-1,-1,-1,320,-1,13,-1,-1,290,350,,9999,0,0,1,FEW 10,1,1,-1,6,1016,RJNA 250200Z 32013KT 290V350 9999 FEW010 01/M06 Q1016 RMK     1CU010 A3001=,
20180125_020000.003,0,RJNA,,,,0,20180125020000,-1,-1,-1,-1,320,-1,13,-1,-1,290,350,,9999,0,0,1,FEW 10,1,1,-1,6,1016,RJNA 250200Z 32013KT 290V350 9999 FEW010 01/M06 Q1016 RMK     1CU010 A3001=,
20180125_030000.000,0,RJNA,,,,0,20180125030000,-1,-1,-1,-1,320,-1,14,-1,-1,290,350,,9999,0,0,1,FEW 10,1,1,-1,8,1015,RJNA 250300Z 32014KT 290V350 9999 FEW010 01/M08 Q1015 RMK     1CU010 A2997 MAX WIND 20KT=,
20180125_030000.002,0,RJNA,,,,0,20180125030000,-1,-1,-1,-1,320,-1,14,-1,-1,290,350,,9999,0,0,1,FEW 10,1,1,-1,8,1015,RJNA 250300Z 32014KT 290V350 9999 FEW010 01/M08 Q1015 RMK     1CU010 A2997 MAX WIND 20KT=,
20180125_040000.000,0,RJNA,,,,0,20180125040000,-1,-1,-1,-1,330,-1,21,-1,31,-1,-1,,9999,0,0,1,FEW 20,1,2,-1,8,1014,RJNA 250400Z 33021G31KT 9999 FEW020 02/M08 Q1014 RMK 1CU020     A2996=,
20180125_040000.002,0,RJNA,,,,0,20180125040000,-1,-1,-1,-1,330,-1,21,-1,31,-1,-1,,9999,0,0,1,FEW 20,1,2,-1,8,1014,RJNA 250400Z 33021G31KT 9999 FEW020 02/M08 Q1014 RMK 1CU020     A2996=,
20180125_050000.000,0,RJNA,,,,0,20180125050000,-1,-1,-1,-1,320,-1,19,-1,-1,-1,-1,,9999,0,0,2,FEW 20   SCT 50,1,2,-1,8,1014,RJNA 250500Z 32019KT 9999 FEW020 SCT050 02/M08 Q1014 RMK 1CU020     3SC050 A2995 MAX WIND 25KT=,
20180125_050000.002,0,RJNA,,,,0,20180125050000,-1,-1,-1,-1,320,-1,19,-1,-1,-1,-1,,9999,0,0,2,FEW 20   SCT 50,1,2,-1,8,1014,RJNA 250500Z 32019KT 9999 FEW020 SCT050 02/M08 Q1014 RMK     1CU020 3SC050 A2995 MAX WIND 25KT=,
20180125_060000.000,0,RJNA,,,,0,20180125060000,-1,-1,-1,-1,340,-1,19,-1,-1,-1,-1,,9999,0,0,2,FEW 20   SCT 50,1,2,-1,7,1014,RJNA 250600Z 34019KT 9999 FEW020 SCT050 02/M07 Q1014 RMK 1CU020     3SC050 A2996 MAX WIND 26KT=,
20180125_060000.002,0,RJNA,,,,0,20180125060000,-1,-1,-1,-1,340,-1,19,-1,-1,-1,-1,,9999,0,0,2,FEW 20   SCT 50,1,2,-1,7,1014,RJNA 250600Z 34019KT 9999 FEW020 SCT050 02/M07 Q1014 RMK     1CU020 3SC050 A2996 MAX WIND 26KT=,
20180125_070000.000,0,RJNA,,,,0,20180125070000,-1,-1,-1,-1,340,-1,17,-1,-1,-1,-1,,9999,0,0,1,FEW 20,1,1,-1,7,1014,RJNA 250700Z 34017KT 9999 FEW020 01/M07 Q1014 RMK 1CU020 A2997     MAX WIND 21KT=,
20180125_070000.002,0,RJNA,,,,0,20180125070000,-1,-1,-1,-1,340,-1,17,-1,-1,-1,-1,,9999,0,0,1,FEW 20,1,1,-1,7,1014,RJNA 250700Z 34017KT 9999 FEW020 01/M07 Q1014 RMK 1CU020 A2997     MAX WIND 21KT=,
20180125_080000.000,0,RJNA,,,,0,20180125080000,-1,-1,-1,-1,10,-1,11,-1,-1,-1,-1,,9999,0,0,1,FEW 20,1,0,-1,7,1014,RJNA 250800Z 01011KT 9999 FEW020 00/M07 Q1014 RMK 1CU020 A2997=,
20180125_080000.002,0,RJNA,,,,0,20180125080000,-1,-1,-1,-1,10,-1,11,-1,-1,-1,-1,,9999,0,0,1,FEW 20,1,0,-1,7,1014,RJNA 250800Z 01011KT 9999 FEW020 00/M07 Q1014 RMK 1CU020     A2997=,
20180125_090000.000,0,RJNA,,,,0,20180125090000,-1,-1,-1,-1,360,-1,13,-1,-1,-1,-1,,9999,0,0,1,SCT 50,-1,0,-1,8,1014,RJNA 250900Z 36013KT 9999 SCT050 M00/M08 Q1014 RMK 3SC050     A2997=,
20180125_090000.002,0,RJNA,,,,0,20180125090000,-1,-1,-1,-1,360,-1,13,-1,-1,-1,-1,,9999,0,0,1,SCT 50,-1,0,-1,8,1014,RJNA 250900Z 36013KT 9999 SCT050 M00/M08 Q1014 RMK 3SC050     A2997=,
20180125_100000.000,0,RJNA,,,,0,20180125100000,-1,-1,-1,-1,330,-1,7,-1,-1,-1,-1,,9999,0,0,1,FEW 50,-1,1,-1,8,1014,RJNA 251000Z 33007KT 9999 FEW050 M01/M08 Q1014 RMK 1SC050     A2997=,
20180125_100000.003,0,RJNA,,,,0,20180125100000,-1,-1,-1,-1,330,-1,7,-1,-1,-1,-1,,9999,0,0,1,FEW 50,-1,1,-1,8,1014,RJNA 251000Z 33007KT 9999 FEW050 M01/M08 Q1014 RMK 1SC050     A2997=,
20180125_110000.000,0,RJNA,,,,0,20180125110000,-1,-1,-1,-1,340,-1,5,-1,-1,-1,-1,,9999,0,0,2,FEW 30   SCT 50,-1,2,-1,7,1014,RJNA 251100Z 34005KT 9999 FEW030 SCT050 M02/M07 Q1014 RMK     1CU030 3SC050 A2996=,
20180125_110000.003,0,RJNA,,,,0,20180125110000,-1,-1,-1,-1,340,-1,5,-1,-1,-1,-1,,9999,0,0,2,FEW 30   SCT 50,-1,2,-1,7,1014,RJNA 251100Z 34005KT 9999 FEW030 SCT050 M02/M07 Q1014 RMK     1CU030 3SC050 A2996=,
20180125_120000.000,0,RJNA,,,,0,20180125120000,-1,-1,-1,-1,40,-1,3,-1,-1,-1,-1,,9999,0,0,2,FEW 50   SCT 70,-1,1,-1,7,1013,RJNA 251200Z 04003KT 9999 FEW050 SCT070 M01/M07 Q1013 RMK     1SC050 3AC070 A2993=,
20180125_120000.002,0,RJNA,,,,0,20180125120000,-1,-1,-1,-1,40,-1,3,-1,-1,-1,-1,,9999,0,0,2,FEW 50   SCT 70,-1,1,-1,7,1013,RJNA 251200Z 04003KT 9999 FEW050 SCT070 M01/M07 Q1013 RMK     1SC050 3AC070 A2993=,
20180125_130000.000,0,RJNA,,,,0,20180125130000,-1,-1,-1,-1,260,-1,3,-1,-1,230,290,,9999,0,0,2,FEW 20   BKN 50,-1,1,-1,7,1013,RJNA 251300Z 26003KT 230V290 9999 FEW020 BKN050 M01/M07 Q1013     RMK 1CU020 6SC050 A2993=,
20180125_130000.002,0,RJNA,,,,0,20180125130000,-1,-1,-1,-1,260,-1,3,-1,-1,230,290,,9999,0,0,2,FEW 20   BKN 50,-1,1,-1,7,1013,RJNA 251300Z 26003KT 230V290 9999 FEW020 BKN050 M01/M07 Q1013     RMK 1CU020 6SC050 A2993=,
20180125_140000.000,0,RJNA,,,,0,20180125140000,-1,-1,-1,-1,999,-1,1,-1,-1,-1,-1,,9999,0,0,2,FEW 20   BKN 50,-1,1,-1,7,1012,RJNA 251400Z VRB01KT 9999 FEW020 BKN050 M01/M07 Q1012 RMK     1CU020 6SC050 A2991=,
20180125_140000.002,0,RJNA,,,,0,20180125140000,-1,-1,-1,-1,999,-1,1,-1,-1,-1,-1,,9999,0,0,2,FEW 20   BKN 50,-1,1,-1,7,1012,RJNA 251400Z VRB01KT 9999 FEW020 BKN050 M01/M07 Q1012 RMK     1CU020 6SC050 A2991=,
20180125_150000.000,0,RJNA,,,,0,20180125150000,-1,-1,-1,-1,300,-1,3,-1,-1,270,330,,3000,1,1,3,FEW 10   SCT 15   BKN 20,-1,1,-1,5,1012,RJNA 251500Z 30003KT 270V330 3000 R34/P1800N -SHSN FEW010     SCT015 BKN020 M01/M05 Q1012 RMK 1CU010 3CU015 7CU020 A2989           VIS E 8KM=,- SN SH
20180125_150000.002,0,RJNA,,,,0,20180125150000,-1,-1,-1,-1,300,-1,3,-1,-1,270,330,,3000,1,1,3,FEW 10   SCT 15   BKN 20,-1,1,-1,5,1012,RJNA 251500Z 30003KT 270V330 3000 R34/P1800N -SHSN FEW010     SCT015 BKN020 M01/M05 Q1012 RMK 1CU010 3CU015 7CU020           A2989 VIS E 8KM=,- SN SH
20180125_150000.004,2,RJNA,,,,0,20180125150000,-1,-1,-1,-1,300,-1,3,-1,-1,270,330,,3000,0,1,3,FEW 10   SCT 15   BKN 20,-1,1,-1,5,1012,RJNA 251500Z 30003KT 270V330 3000 -SHSN FEW010 SCT015     BKN020 M01/M05 Q1012 RMK 1CU010 3CU015 7CU020 A2989 VIS E           8KM=,- SN SH
20180125_150000.005,1,RJNA,,,,0,20180125150000,-1,-1,-1,-1,300,-1,3,-1,-1,270,330,,3000,0,1,3,FEW 10   SCT 15   BKN 20,-1,1,-1,5,1012,RJNA 251500Z 30003KT 270V330 3000 -SHSN FEW010 SCT015     BKN020 M01/M05 Q1012 RMK 1CU010 3CU015 7CU020 A2989 VIS E           8KM=,- SN SH
20180125_160000.000,0,RJNA,,,,0,20180125160000,-1,-1,-1,-1,190,-1,3,-1,-1,-1,-1,,3000,0,1,3,FEW 8   SCT 15   BKN 25,-1,2,-1,3,1011,RJNA 251600Z 19003KT 3000 -SHSN FEW008 SCT015 BKN025 M02/M03     Q1011 RMK 1ST008 3CU015 5CU025 A2987=,- SN SH
20180125_160000.002,0,RJNA,,,,0,20180125160000,-1,-1,-1,-1,190,-1,3,-1,-1,-1,-1,,3000,0,1,3,FEW 8   SCT 15   BKN 25,-1,2,-1,3,1011,RJNA 251600Z 19003KT 3000 -SHSN FEW008 SCT015 BKN025 M02/M03     Q1011 RMK 1ST008 3CU015 5CU025 A2987=,- SN SH
20180125_170000.000,0,RJNA,,,,0,20180125170000,-1,-1,-1,-1,999,-1,1,-1,-1,-1,-1,,2500,0,1,3,FEW 10   BKN 15   BKN 25,-1,2,-1,3,1011,RJNA 251700Z VRB01KT 2500 -SHSN FEW010 BKN015 BKN025 M02/M03     Q1011 RMK 2CU010 5CU015 7CU025 A2987=,- SN SH
20180125_170000.002,0,RJNA,,,,0,20180125170000,-1,-1,-1,-1,999,-1,1,-1,-1,-1,-1,,2500,0,1,3,FEW 10   BKN 15   BKN 25,-1,2,-1,3,1011,RJNA 251700Z VRB01KT 2500 -SHSN FEW010 BKN015 BKN025 M02/M03     Q1011 RMK 2CU010 5CU015 7CU025 A2987=,- SN SH
20180125_180000.000,0,RJNA,,,,0,20180125180000,-1,-1,-1,-1,130,-1,3,-1,-1,-1,-1,,2000,0,1,3,FEW 10   BKN 15   BKN 20,-1,2,-1,3,1011,RJNA 251800Z 13003KT 2000 -SHSN FEW010 BKN015 BKN020 M02/M03     Q1011 RMK 1CU010 5CU015 7CU020 A2986 VIS NW-N 2500M=,- SN SH
20180125_180000.002,0,RJNA,,,,0,20180125180000,-1,-1,-1,-1,130,-1,3,-1,-1,-1,-1,,2000,0,1,3,FEW 10   BKN 15   BKN 20,-1,2,-1,3,1011,RJNA 251800Z 13003KT 2000 -SHSN FEW010 BKN015 BKN020 M02/M03     Q1011 RMK 1CU010 5CU015 7CU020 A2986 VIS NW-N 2500M=,- SN SH
20180125_190000.000,0,RJNA,,,,0,20180125190000,-1,-1,-1,-1,40,-1,3,-1,-1,20,80,,2500,0,1,3,FEW 6   SCT 10   BKN 15,-1,3,-1,3,1010,RJNA 251900Z 04003KT 020V080 2500 -SHSN FEW006 SCT010 BKN015     M03/M03 Q1010 RMK 1ST006 3CU010 5CU015 A2985 VIS S-SW           3000M=,- SN SH
20180125_190000.002,0,RJNA,,,,0,20180125190000,-1,-1,-1,-1,40,-1,3,-1,-1,20,80,,2500,0,1,3,FEW 6   SCT 10   BKN 15,-1,3,-1,3,1010,RJNA 251900Z 04003KT 020V080 2500 -SHSN FEW006 SCT010 BKN015     M03/M03 Q1010 RMK 1ST006 3CU010 5CU015 A2985 VIS S-SW           3000M=,- SN SH
20180125_200000.000,0,RJNA,,,,0,20180125200000,-1,-1,-1,-1,80,-1,3,-1,-1,-1,-1,,3500,0,1,3,SCT 5   SCT 10   BKN 15,-1,3,-1,3,1010,RJNA 252000Z 08003KT 3500 -SHSN SCT005 SCT010 BKN015 M03/M03     Q1010 RMK 3ST005 3CU010 5CU015 A2984=,- SN SH
20180125_200000.003,0,RJNA,,,,0,20180125200000,-1,-1,-1,-1,80,-1,3,-1,-1,-1,-1,,3500,0,1,3,SCT 5   SCT 10   BKN 15,-1,3,-1,3,1010,RJNA 252000Z 08003KT 3500 -SHSN SCT005 SCT010 BKN015 M03/M03     Q1010 RMK 3ST005 3CU010 5CU015 A2984=,- SN SH
20180125_210000.000,0,RJNA,,,,0,20180125210000,-1,-1,-1,-1,340,-1,3,-1,-1,-1,-1,,4500,0,1,3,FEW 5   SCT 10   BKN 15,-1,3,-1,3,1010,RJNA 252100Z 34003KT 4500 -SHSN FEW005 SCT010 BKN015 M03/M03     Q1010 RMK 1ST005 3CU010 5CU015 A2984 VIS E 5KM           33031KT/0400 02/M03 R002 S003 SD004=,- SN SH
20180125_210000.002,0,RJNA,,,,0,20180125210000,-1,-1,-1,-1,340,-1,3,-1,-1,-1,-1,,4500,0,1,3,FEW 5   SCT 10   BKN 15,-1,3,-1,3,1010,RJNA 252100Z 34003KT 4500 -SHSN FEW005 SCT010 BKN015     M03/M03 Q1010 RMK 1ST005 3CU010 5CU015 A2984 VIS E 5KM           33031KT/0400 02/M03 R002 S003 SD004=,- SN SH
20180125_210000.002,2,RJNA,,,,0,20180125210000,-1,-1,-1,-1,340,-1,3,-1,-1,-1,-1,,4500,0,1,3,FEW 5   SCT 10   BKN 15,-1,3,-1,3,1010,RJNA 252100Z 34003KT 4500 -SHSN FEW005 SCT010 BKN015     M03/M03 Q1010 RMK 1ST005 3CU010 5CU015 A2984 VIS E 5KM           33031KT/0400 02/M03 R002 S003 SD004=,- SN SH
20180125_220000.000,0,RJNA,,,,0,20180125220000,-1,-1,-1,-1,999,-1,2,-1,-1,-1,-1,,9999,0,1,3,FEW 10   BKN 20   BKN 40,-1,2,-1,3,1010,RJNA 252200Z VRB02KT 9999 -SHSN FEW010 BKN020 BKN040 M02/M03     Q1010 RMK 1CU010 5CU020 7SC040 A2985 VIS S-SW 5KM=,- SN SH
20180125_220000.002,0,RJNA,,,,0,20180125220000,-1,-1,-1,-1,999,-1,2,-1,-1,-1,-1,,9999,0,1,3,FEW 10   BKN 20   BKN 40,-1,2,-1,3,1010,RJNA 252200Z VRB02KT 9999 -SHSN FEW010 BKN020 BKN040 M02/M03     Q1010 RMK 1CU010 5CU020 7SC040 A2985 VIS S-SW 5KM=,- SN SH
20180125_230000.000,0,RJNA,,,,0,20180125230000,-1,-1,-1,-1,0,-1,0,-1,-1,-1,-1,,9999,0,0,3,FEW 6   SCT 15   BKN 20,-1,2,-1,3,1011,RJNA 252300Z 00000KT 9999 FEW006 SCT015 BKN020 M02/M03 Q1011     RMK 1ST006 3CU015 5CU020 A2986 VIS S-SW 7KM=,
20180125_230000.002,0,RJNA,,,,0,20180125230000,-1,-1,-1,-1,0,-1,0,-1,-1,-1,-1,,9999,0,0,3,FEW 6   SCT 15   BKN 20,-1,2,-1,3,1011,RJNA 252300Z 00000KT 9999 FEW006 SCT015 BKN020 M02/M03 Q1011     RMK 1ST006 3CU015 5CU020 A2986 VIS S-SW 7KM=,
20180126_000000.000,0,RJNA,,,,0,20180126000000,-1,-1,-1,-1,320,-1,5,-1,-1,-1,-1,,9999,0,0,1,FEW 15,-1,2,-1,5,1011,RJNA 260000Z 32005KT 9999 FEW015 M02/M05 Q1011 RMK 1CU015     A2987=,
20180126_000000.002,0,RJNA,,,,0,20180126000000,-1,-1,-1,-1,320,-1,5,-1,-1,-1,-1,,9999,0,0,1,FEW 15,-1,2,-1,5,1011,RJNA 260000Z 32005KT 9999 FEW015 M02/M05 Q1011 RMK 1CU015     A2987=,
20180126_010000.000,0,RJNA,,,,0,20180126010000,-1,-1,-1,-1,330,-1,5,-1,-1,290,360,,9999,0,0,1,FEW 15,-1,0,-1,4,1011,RJNA 260100Z 33005KT 290V360 9999 FEW015 M00/M04 Q1011 RMK     1CU015 A2987=,
20180126_010000.002,0,RJNA,,,,0,20180126010000,-1,-1,-1,-1,330,-1,5,-1,-1,290,360,,9999,0,0,1,FEW 15,-1,0,-1,4,1011,RJNA 260100Z 33005KT 290V360 9999 FEW015 M00/M04 Q1011 RMK     1CU015 A2987=,
20180126_020000.000,0,RJNA,,,,0,20180126020000,-1,-1,-1,-1,300,-1,9,-1,-1,270,330,,9999,0,0,1,FEW 15,1,2,-1,4,1011,RJNA 260200Z 30009KT 270V330 9999 FEW015 02/M04 Q1011 RMK     1CU015 A2987=,
20180126_020000.002,0,RJNA,,,,0,20180126020000,-1,-1,-1,-1,300,-1,9,-1,-1,270,330,,9999,0,0,1,FEW 15,1,2,-1,4,1011,RJNA 260200Z 30009KT 270V330 9999 FEW015 02/M04 Q1011 RMK     1CU015 A2987=,
20180126_030000.000,0,RJNA,,,,0,20180126030000,-1,-1,-1,-1,320,-1,15,-1,-1,-1,-1,,9999,0,0,2,FEW 15   SCT 40,1,3,-1,5,1010,RJNA 260300Z 32015KT 9999 FEW015 SCT040 03/M05 Q1010 RMK 1CU015     3CU040 A2984 MAX WIND 22KT=,
20180126_030000.002,0,RJNA,,,,0,20180126030000,-1,-1,-1,-1,320,-1,15,-1,-1,-1,-1,,9999,0,0,2,FEW 15   SCT 40,1,3,-1,5,1010,RJNA 260300Z 32015KT 9999 FEW015 SCT040 03/M05 Q1010 RMK     1CU015 3CU040 A2984 MAX WIND 22KT=,
20180126_040000.000,0,RJNA,,,,0,20180126040000,-1,-1,-1,-1,320,-1,18,-1,-1,-1,-1,,9999,0,0,2,FEW 30   SCT 40,1,3,-1,7,1009,RJNA 260400Z 32018KT 9999 FEW030 SCT040 03/M07 Q1009 RMK 1CU030     3CU040 A2982 MAX WIND 25KT=,
20180126_040000.002,0,RJNA,,,,0,20180126040000,-1,-1,-1,-1,320,-1,18,-1,-1,-1,-1,,9999,0,0,2,FEW 30   SCT 40,1,3,-1,7,1009,RJNA 260400Z 32018KT 9999 FEW030 SCT040 03/M07 Q1009 RMK     1CU030 3CU040 A2982 MAX WIND 25KT=,
20180126_050000.000,0,RJNA,,,,0,20180126050000,-1,-1,-1,-1,320,-1,17,-1,-1,280,340,,9999,0,0,2,FEW 15   BKN 40,1,3,-1,7,1009,RJNA 260500Z 32017KT 280V340 9999 FEW015 BKN040 03/M07 Q1009     RMK 1CU015 5CU040 A2982 MAX WIND 24KT=,
20180126_050000.002,0,RJNA,,,,0,20180126050000,-1,-1,-1,-1,320,-1,17,-1,-1,280,340,,9999,0,0,2,FEW 15   BKN 40,1,3,-1,7,1009,RJNA 260500Z 32017KT 280V340 9999 FEW015 BKN040 03/M07 Q1009     RMK 1CU015 5CU040 A2982 MAX WIND 24KT=,
20180126_060000.000,0,RJNA,,,,0,20180126060000,-1,-1,-1,-1,330,-1,19,-1,-1,-1,-1,,9999,0,0,2,FEW 15   SCT 40,1,2,-1,9,1010,RJNA 260600Z 33019KT 9999 FEW015 SCT040 02/M09 Q1010 RMK 1CU015     4CU040 A2984 MAX WIND 28KT=,
20180126_060000.002,0,RJNA,,,,0,20180126060000,-1,-1,-1,-1,330,-1,19,-1,-1,-1,-1,,9999,0,0,2,FEW 15   SCT 40,1,2,-1,9,1010,RJNA 260600Z 33019KT 9999 FEW015 SCT040 02/M09 Q1010 RMK     1CU015 4CU040 A2984 MAX WIND 28KT=,
20180126_070000.000,0,RJNA,,,,0,20180126070000,-1,-1,-1,-1,330,-1,18,-1,-1,-1,-1,,9999,0,0,2,FEW 25   SCT 45,1,2,-1,8,1010,RJNA 260700Z 33018KT 9999 FEW025 SCT045 02/M08 Q1010 RMK 1CU025     4SC045 A2985 MAX WIND 25KT=,
20180126_070000.002,0,RJNA,,,,0,20180126070000,-1,-1,-1,-1,330,-1,18,-1,-1,-1,-1,,9999,0,0,2,FEW 25   SCT 45,1,2,-1,8,1010,RJNA 260700Z 33018KT 9999 FEW025 SCT045 02/M08 Q1010 RMK     1CU025 4SC045 A2985 MAX WIND 25KT=,
20180126_080000.000,0,RJNA,,,,0,20180126080000,-1,-1,-1,-1,330,-1,17,-1,-1,-1,-1,,9999,0,0,1,FEW 25,1,1,-1,8,1011,RJNA 260800Z 33017KT 9999 FEW025 01/M08 Q1011 RMK 1CU025 A2987=,
20180126_080000.003,0,RJNA,,,,0,20180126080000,-1,-1,-1,-1,330,-1,17,-1,-1,-1,-1,,9999,0,0,1,FEW 25,1,1,-1,8,1011,RJNA 260800Z 33017KT 9999 FEW025 01/M08 Q1011 RMK 1CU025     A2987=,
20180126_090000.000,0,RJNA,,,,0,20180126090000,-1,-1,-1,-1,320,-1,14,-1,-1,-1,-1,,9999,0,0,1,FEW 25,1,0,-1,7,1012,RJNA 260900Z 32014KT 9999 FEW025 00/M07 Q1012 RMK 1CU025 A2991     MAX WIND 20KT=,
20180126_090000.002,0,RJNA,,,,0,20180126090000,-1,-1,-1,-1,320,-1,14,-1,-1,-1,-1,,9999,0,0,1,FEW 25,1,0,-1,7,1012,RJNA 260900Z 32014KT 9999 FEW025 00/M07 Q1012 RMK 1CU025 A2991     MAX WIND 20KT=,
20180126_100000.000,0,RJNA,,,,0,20180126100000,-1,-1,-1,-1,320,-1,10,-1,-1,-1,-1,,9999,0,0,1,FEW 20,-1,0,-1,7,1013,RJNA 261000Z 32010KT 9999 FEW020 M00/M07 Q1013 RMK 1CU020     A2994=,
20180126_100000.002,0,RJNA,,,,0,20180126100000,-1,-1,-1,-1,320,-1,10,-1,-1,-1,-1,,9999,0,0,1,FEW 20,-1,0,-1,7,1013,RJNA 261000Z 32010KT 9999 FEW020 M00/M07 Q1013 RMK 1CU020     A2994=,
20180126_110000.000,0,RJNA,,,,0,20180126110000,-1,-1,-1,-1,320,-1,11,-1,-1,-1,-1,,9999,0,0,1,FEW 20,-1,1,-1,7,1014,RJNA 261100Z 32011KT 9999 FEW020 M01/M07 Q1014 RMK 1CU020     A2995=,
20180126_110000.002,0,RJNA,,,,0,20180126110000,-1,-1,-1,-1,320,-1,11,-1,-1,-1,-1,,9999,0,0,1,FEW 20,-1,1,-1,7,1014,RJNA 261100Z 32011KT 9999 FEW020 M01/M07 Q1014 RMK 1CU020     A2995=,
20180126_120000.000,0,RJNA,,,,0,20180126120000,-1,-1,-1,-1,340,-1,8,-1,-1,-1,-1,,9999,0,0,1,FEW 25,-1,2,-1,8,1014,RJNA 261200Z 34008KT 9999 FEW025 M02/M08 Q1014 RMK 1CU025     A2997=,
20180126_120000.002,0,RJNA,,,,0,20180126120000,-1,-1,-1,-1,340,-1,8,-1,-1,-1,-1,,9999,0,0,1,FEW 25,-1,2,-1,8,1014,RJNA 261200Z 34008KT 9999 FEW025 M02/M08 Q1014 RMK 1CU025     A2997=,
20180126_130000.000,0,RJNA,,,,0,20180126130000,-1,-1,-1,-1,350,-1,8,-1,-1,-1,-1,,9999,0,0,1,FEW 25,-1,2,-1,8,1015,RJNA 261300Z 35008KT 9999 FEW025 M02/M08 Q1015 RMK 1CU025     A2998=,
20180126_130000.002,0,RJNA,,,,0,20180126130000,-1,-1,-1,-1,350,-1,8,-1,-1,-1,-1,,9999,0,0,1,FEW 25,-1,2,-1,8,1015,RJNA 261300Z 35008KT 9999 FEW025 M02/M08 Q1015 RMK 1CU025     A2998=,
20180126_140000.000,0,RJNA,,,,0,20180126140000,-1,-1,-1,-1,350,-1,9,-1,-1,-1,-1,,9999,0,0,1,FEW 30,-1,2,-1,7,1015,RJNA 261400Z 35009KT 9999 FEW030 M02/M07 Q1015 RMK 1CU030     A2999=,
20180126_140000.002,0,RJNA,,,,0,20180126140000,-1,-1,-1,-1,350,-1,9,-1,-1,-1,-1,,9999,0,0,1,FEW 30,-1,2,-1,7,1015,RJNA 261400Z 35009KT 9999 FEW030 M02/M07 Q1015 RMK 1CU030     A2999=,
20180126_150000.000,0,RJNA,,,,0,20180126150000,-1,-1,-1,-1,330,-1,7,-1,-1,-1,-1,,9999,0,0,1,FEW 30,-1,2,-1,7,1015,RJNA 261500Z 33007KT 9999 FEW030 M02/M07 Q1015 RMK 1CU030     A2999=,
20180126_150000.002,0,RJNA,,,,0,20180126150000,-1,-1,-1,-1,330,-1,7,-1,-1,-1,-1,,9999,0,0,1,FEW 30,-1,2,-1,7,1015,RJNA 261500Z 33007KT 9999 FEW030 M02/M07 Q1015 RMK 1CU030     A2999=,
20180126_160000.000,0,RJNA,,,,0,20180126160000,-1,-1,-1,-1,280,-1,4,-1,-1,-1,-1,,9999,0,0,1,FEW 30,-1,2,-1,6,1016,RJNA 261600Z 28004KT 9999 FEW030 M02/M06 Q1016 RMK 1CU030     A3001=,
20180126_160000.002,0,RJNA,,,,0,20180126160000,-1,-1,-1,-1,280,-1,4,-1,-1,-1,-1,,9999,0,0,1,FEW 30,-1,2,-1,6,1016,RJNA 261600Z 28004KT 9999 FEW030 M02/M06 Q1016 RMK 1CU030     A3001=,
20180126_170000.000,0,RJNA,,,,0,20180126170000,-1,-1,-1,-1,20,-1,4,-1,-1,340,70,,9999,0,0,1,FEW 30,-1,4,-1,7,1016,RJNA 261700Z 02004KT 340V070 9999 FEW030 M04/M07 Q1016 RMK     1CU030 A3002=,
20180126_170000.002,0,RJNA,,,,0,20180126170000,-1,-1,-1,-1,20,-1,4,-1,-1,340,70,,9999,0,0,1,FEW 30,-1,4,-1,7,1016,RJNA 261700Z 02004KT 340V070 9999 FEW030 M04/M07 Q1016 RMK     1CU030 A3002=,
20180126_180000.000,0,RJNA,,,,0,20180126180000,-1,-1,-1,-1,10,-1,4,-1,-1,-1,-1,,9999,0,0,1,FEW 30,-1,4,-1,6,1016,RJNA 261800Z 01004KT 9999 FEW030 M04/M06 Q1016 RMK 1CU030     A3003=,
20180126_180000.002,0,RJNA,,,,0,20180126180000,-1,-1,-1,-1,10,-1,4,-1,-1,-1,-1,,9999,0,0,1,FEW 30,-1,4,-1,6,1016,RJNA 261800Z 01004KT 9999 FEW030 M04/M06 Q1016 RMK 1CU030     A3003=,
20180126_190000.000,0,RJNA,,,,0,20180126190000,-1,-1,-1,-1,330,-1,5,-1,-1,-1,-1,,9999,0,0,1,FEW 30,-1,4,-1,7,1016,RJNA 261900Z 33005KT 9999 FEW030 M04/M07 Q1016 RMK 1CU030     A3003=,
20180126_190000.002,0,RJNA,,,,0,20180126190000,-1,-1,-1,-1,330,-1,5,-1,-1,-1,-1,,9999,0,0,1,FEW 30,-1,4,-1,7,1016,RJNA 261900Z 33005KT 9999 FEW030 M04/M07 Q1016 RMK 1CU030     A3003=,
20180126_200000.000,0,RJNA,,,,0,20180126200000,-1,-1,-1,-1,350,-1,6,-1,-1,-1,-1,,9999,0,0,1,FEW 30,-1,4,-1,7,1017,RJNA 262000Z 35006KT 9999 FEW030 M04/M07 Q1017 RMK 1CU030     A3005=,
20180126_200000.003,0,RJNA,,,,0,20180126200000,-1,-1,-1,-1,350,-1,6,-1,-1,-1,-1,,9999,0,0,1,FEW 30,-1,4,-1,7,1017,RJNA 262000Z 35006KT 9999 FEW030 M04/M07 Q1017 RMK 1CU030     A3005=,
20180126_210000.000,0,RJNA,,,,0,20180126210000,-1,-1,-1,-1,250,-1,4,-1,-1,220,280,,9999,0,0,1,FEW 30,-1,3,-1,6,1018,RJNA 262100Z 25004KT 220V280 9999 FEW030 M03/M06 Q1018 RMK     1CU030 A3006 33030KT/0550 04/M05 R001 S000=,
20180126_210000.002,0,RJNA,,,,0,20180126210000,-1,-1,-1,-1,250,-1,4,-1,-1,220,280,,9999,0,0,1,FEW 30,-1,3,-1,6,1018,RJNA 262100Z 25004KT 220V280 9999 FEW030 M03/M06 Q1018 RMK     1CU030 A3006 33030KT/0550 04/M05 R001 S000=,
20180126_220000.000,0,RJNA,,,,0,20180126220000,-1,-1,-1,-1,330,-1,5,-1,-1,-1,-1,,9999,0,0,1,FEW 20,-1,4,-1,7,1018,RJNA 262200Z 33005KT 9999 FEW020 M04/M07 Q1018 RMK 1CU020     A3008=,
20180126_220000.002,0,RJNA,,,,0,20180126220000,-1,-1,-1,-1,330,-1,5,-1,-1,-1,-1,,9999,0,0,1,FEW 20,-1,4,-1,7,1018,RJNA 262200Z 33005KT 9999 FEW020 M04/M07 Q1018 RMK 1CU020     A3008=,
20180126_230000.000,0,RJNA,,,,0,20180126230000,-1,-1,-1,-1,20,-1,3,-1,-1,-1,-1,,9999,0,0,1,FEW 20,-1,3,-1,6,1019,RJNA 262300Z 02003KT 9999 FEW020 M03/M06 Q1019 RMK 1CU020     A3010=,
20180126_230000.002,0,RJNA,,,,0,20180126230000,-1,-1,-1,-1,20,-1,3,-1,-1,-1,-1,,9999,0,0,1,FEW 20,-1,3,-1,6,1019,RJNA 262300Z 02003KT 9999 FEW020 M03/M06 Q1019 RMK 1CU020     A3010=,
20180127_000000.000,0,RJNA,,,,0,20180127000000,-1,-1,-1,-1,350,-1,3,-1,-1,310,40,,9999,0,0,1,FEW 20,-1,1,-1,6,1019,RJNA 270000Z 35003KT 310V040 9999 FEW020 M01/M06 Q1019 RMK     1CU020 A3011=,
20180127_000000.002,0,RJNA,,,,0,20180127000000,-1,-1,-1,-1,350,-1,3,-1,-1,310,40,,9999,0,0,1,FEW 20,-1,1,-1,6,1019,RJNA 270000Z 35003KT 310V040 9999 FEW020 M01/M06 Q1019 RMK     1CU020 A3011=,
20180127_010000.000,0,RJNA,,,,0,20180127010000,-1,-1,-1,-1,999,-1,2,-1,-1,-1,-1,,9999,0,0,1,FEW 20,1,0,-1,6,1019,RJNA 270100Z VRB02KT 9999 FEW020 00/M06 Q1019 RMK 1CU020 A3012=,
20180127_010000.002,0,RJNA,,,,0,20180127010000,-1,-1,-1,-1,999,-1,2,-1,-1,-1,-1,,9999,0,0,1,FEW 20,1,0,-1,6,1019,RJNA 270100Z VRB02KT 9999 FEW020 00/M06 Q1019 RMK 1CU020     A3012=,
20180127_020000.000,0,RJNA,,,,0,20180127020000,-1,-1,-1,-1,310,-1,8,-1,-1,260,350,,9999,0,0,1,FEW 20,1,3,-1,4,1019,RJNA 270200Z 31008KT 260V350 9999 FEW020 03/M04 Q1019 RMK     1CU020 A3011=,
20180127_020000.002,0,RJNA,,,,0,20180127020000,-1,-1,-1,-1,310,-1,8,-1,-1,260,350,,9999,0,0,1,FEW 20,1,3,-1,4,1019,RJNA 270200Z 31008KT 260V350 9999 FEW020 03/M04 Q1019 RMK     1CU020 A3011=,
20180127_030000.000,0,RJNA,,,,0,20180127030000,-1,-1,-1,-1,340,-1,22,-1,-1,-1,-1,,9999,0,0,2,FEW 20   SCT 50,1,6,-1,5,1019,RJNA 270300Z 34022KT 9999 FEW020 SCT050 06/M05 Q1019 RMK 1CU020     4SC050 A3009 MAX WIND 27KT=,
20180127_030000.002,0,RJNA,,,,0,20180127030000,-1,-1,-1,-1,340,-1,22,-1,-1,-1,-1,,9999,0,0,2,FEW 20   SCT 50,1,6,-1,5,1019,RJNA 270300Z 34022KT 9999 FEW020 SCT050 06/M05 Q1019 RMK     1CU020 4SC050 A3009 MAX WIND 27KT=,
20180127_040000.000,0,RJNA,,,,0,20180127040000,-1,-1,-1,-1,330,-1,16,-1,27,300,360,,9999,0,0,2,FEW 20   SCT 50,1,6,-1,6,1018,RJNA 270400Z 33016G27KT 300V360 9999 FEW020 SCT050 06/M06 Q1018     RMK 1CU020 3SC050 A3008=,
20180127_040000.002,0,RJNA,,,,0,20180127040000,-1,-1,-1,-1,330,-1,16,-1,27,300,360,,9999,0,0,2,FEW 20   SCT 50,1,6,-1,6,1018,RJNA 270400Z 33016G27KT 300V360 9999 FEW020 SCT050 06/M06     Q1018 RMK 1CU020 3SC050 A3008=,
20180127_050000.000,0,RJNA,,,,0,20180127050000,-1,-1,-1,-1,320,-1,19,-1,30,-1,-1,,9999,0,0,2,FEW 20   SCT 50,1,6,-1,8,1018,RJNA 270500Z 32019G30KT 9999 FEW020 SCT050 06/M08 Q1018 RMK     1CU020 3SC050 A3008=,
20180127_050000.002,0,RJNA,,,,0,20180127050000,-1,-1,-1,-1,320,-1,19,-1,30,-1,-1,,9999,0,0,2,FEW 20   SCT 50,1,6,-1,8,1018,RJNA 270500Z 32019G30KT 9999 FEW020 SCT050 06/M08 Q1018 RMK     1CU020 3SC050 A3008=,
20180127_060000.000,0,RJNA,,,,0,20180127060000,-1,-1,-1,-1,330,-1,21,-1,-1,-1,-1,,9999,0,0,2,FEW 20   SCT 50,1,5,-1,7,1018,RJNA 270600Z 33021KT 9999 FEW020 SCT050 05/M07 Q1018 RMK 1CU020     3SC050 A3008 MAX WIND 29KT=,
20180127_060000.002,0,RJNA,,,,0,20180127060000,-1,-1,-1,-1,330,-1,21,-1,-1,-1,-1,,9999,0,0,2,FEW 20   SCT 50,1,5,-1,7,1018,RJNA 270600Z 33021KT 9999 FEW020 SCT050 05/M07 Q1018 RMK     1CU020 3SC050 A3008 MAX WIND 29KT=,
20180127_070000.000,0,RJNA,,,,0,20180127070000,-1,-1,-1,-1,320,-1,19,-1,-1,-1,-1,,9999,0,0,1,FEW 30,1,4,-1,7,1019,RJNA 270700Z 32019KT 9999 FEW030 04/M07 Q1019 RMK 1CU030 A3010     MAX WIND 25KT=,
20180127_070000.002,0,RJNA,,,,0,20180127070000,-1,-1,-1,-1,320,-1,19,-1,-1,-1,-1,,9999,0,0,1,FEW 30,1,4,-1,7,1019,RJNA 270700Z 32019KT 9999 FEW030 04/M07 Q1019 RMK 1CU030 A3010     MAX WIND 25KT=,
20180127_080000.000,0,RJNA,,,,0,20180127080000,-1,-1,-1,-1,310,-1,18,-1,-1,-1,-1,,9999,0,0,1,FEW 30,1,3,-1,6,1019,RJNA 270800Z 31018KT 9999 FEW030 03/M06 Q1019 RMK 1CU030 A3011     MAX WIND 24KT=,
20180127_080000.002,0,RJNA,,,,0,20180127080000,-1,-1,-1,-1,310,-1,18,-1,-1,-1,-1,,9999,0,0,1,FEW 30,1,3,-1,6,1019,RJNA 270800Z 31018KT 9999 FEW030 03/M06 Q1019 RMK 1CU030 A3011     MAX WIND 24KT=,
20180127_090000.000,0,RJNA,,,,0,20180127090000,-1,-1,-1,-1,320,-1,16,-1,-1,-1,-1,,9999,0,0,1,FEW 30,1,2,-1,7,1020,RJNA 270900Z 32016KT 9999 FEW030 02/M07 Q1020 RMK 1CU030 A3015     MAX WIND 22KT=,
20180127_090000.003,0,RJNA,,,,0,20180127090000,-1,-1,-1,-1,320,-1,16,-1,-1,-1,-1,,9999,0,0,1,FEW 30,1,2,-1,7,1020,RJNA 270900Z 32016KT 9999 FEW030 02/M07 Q1020 RMK 1CU030 A3015     MAX WIND 22KT=,
20180127_100000.000,0,RJNA,,,,0,20180127100000,-1,-1,-1,-1,320,-1,14,-1,-1,-1,-1,,9999,0,0,1,FEW 30,1,2,-1,7,1021,RJNA 271000Z 32014KT 9999 FEW030 02/M07 Q1021 RMK 1CU030 A3016     MAX WIND 19KT=,
20180127_100000.002,0,RJNA,,,,0,20180127100000,-1,-1,-1,-1,320,-1,14,-1,-1,-1,-1,,9999,0,0,1,FEW 30,1,2,-1,7,1021,RJNA 271000Z 32014KT 9999 FEW030 02/M07 Q1021 RMK 1CU030 A3016     MAX WIND 19KT=,
20180127_110000.000,0,RJNA,,,,0,20180127110000,-1,-1,-1,-1,330,-1,12,-1,-1,-1,-1,,9999,0,0,1,FEW 30,1,1,-1,7,1021,RJNA 271100Z 33012KT 9999 FEW030 01/M07 Q1021 RMK 1CU030 A3016=,
20180127_110000.002,0,RJNA,,,,0,20180127110000,-1,-1,-1,-1,330,-1,12,-1,-1,-1,-1,,9999,0,0,1,FEW 30,1,1,-1,7,1021,RJNA 271100Z 33012KT 9999 FEW030 01/M07 Q1021 RMK 1CU030     A3016=,
20180127_120000.000,0,RJNA,,,,0,20180127120000,-1,-1,-1,-1,340,-1,8,-1,-1,-1,-1,,9999,0,0,1,FEW 30,-1,1,-1,7,1021,RJNA 271200Z 34008KT 9999 FEW030 M01/M07 Q1021 RMK 1CU030     A3016=,
20180127_120000.002,0,RJNA,,,,0,20180127120000,-1,-1,-1,-1,340,-1,8,-1,-1,-1,-1,,9999,0,0,1,FEW 30,-1,1,-1,7,1021,RJNA 271200Z 34008KT 9999 FEW030 M01/M07 Q1021 RMK 1CU030     A3016=,
20180127_130000.000,0,RJNA,,,,0,20180127130000,-1,-1,-1,-1,360,-1,3,-1,-1,-1,-1,,9999,0,0,1,FEW 30,-1,1,-1,7,1021,RJNA 271300Z 36003KT 9999 FEW030 M01/M07 Q1021 RMK 1CU030     A3017=,
20180127_130000.002,0,RJNA,,,,0,20180127130000,-1,-1,-1,-1,360,-1,3,-1,-1,-1,-1,,9999,0,0,1,FEW 30,-1,1,-1,7,1021,RJNA 271300Z 36003KT 9999 FEW030 M01/M07 Q1021 RMK 1CU030     A3017=,
20180127_140000.000,0,RJNA,,,,0,20180127140000,-1,-1,-1,-1,290,-1,4,-1,-1,-1,-1,,9999,0,0,1,FEW 30,-1,0,-1,6,1021,RJNA 271400Z 29004KT 9999 FEW030 M00/M06 Q1021 RMK 1CU030     A3018=,
20180127_140000.003,0,RJNA,,,,0,20180127140000,-1,-1,-1,-1,290,-1,4,-1,-1,-1,-1,,9999,0,0,1,FEW 30,-1,0,-1,6,1021,RJNA 271400Z 29004KT 9999 FEW030 M00/M06 Q1021 RMK 1CU030     A3018=,
20180127_150000.000,0,RJNA,,,,0,20180127150000,-1,-1,-1,-1,20,-1,3,-1,-1,320,40,,9999,0,0,1,FEW 30,-1,2,-1,7,1022,RJNA 271500Z 02003KT 320V040 9999 FEW030 M02/M07 Q1022 RMK     1CU030 A3018=,
20180127_150000.002,0,RJNA,,,,0,20180127150000,-1,-1,-1,-1,20,-1,3,-1,-1,320,40,,9999,0,0,1,FEW 30,-1,2,-1,7,1022,RJNA 271500Z 02003KT 320V040 9999 FEW030 M02/M07 Q1022 RMK     1CU030 A3018=,
20180127_160000.000,0,RJNA,,,,0,20180127160000,-1,-1,-1,-1,10,-1,5,-1,-1,-1,-1,,9999,0,0,2,FEW 30   SCT -9999,-1,2,-1,6,1021,RJNA 271600Z 01005KT 9999 FEW030 SCT/// M02/M06 Q1021 RMK     1CU030 A3015=,
20180127_160000.002,0,RJNA,,,,0,20180127160000,-1,-1,-1,-1,10,-1,5,-1,-1,-1,-1,,9999,0,0,2,FEW 30   SCT -9999,-1,2,-1,6,1021,RJNA 271600Z 01005KT 9999 FEW030 SCT/// M02/M06 Q1021 RMK     1CU030 A3015=,
20180127_170000.000,0,RJNA,,,,0,20180127170000,-1,-1,-1,-1,320,-1,4,-1,-1,-1,-1,,9999,0,0,1,FEW 30,-1,2,-1,6,1020,RJNA 271700Z 32004KT 9999 FEW030 M02/M06 Q1020 RMK 1CU030     A3014=,
20180127_170000.002,0,RJNA,,,,0,20180127170000,-1,-1,-1,-1,320,-1,4,-1,-1,-1,-1,,9999,0,0,1,FEW 30,-1,2,-1,6,1020,RJNA 271700Z 32004KT 9999 FEW030 M02/M06 Q1020 RMK 1CU030     A3014=,
20180127_180000.000,0,RJNA,,,,0,20180127180000,-1,-1,-1,-1,300,-1,5,-1,-1,-1,-1,,9999,0,0,2,FEW 30   SCT -9999,-1,1,-1,6,1020,RJNA 271800Z 30005KT 9999 FEW030 SCT/// M01/M06 Q1020 RMK     1CU030 A3014=,
20180127_180000.002,0,RJNA,,,,0,20180127180000,-1,-1,-1,-1,300,-1,5,-1,-1,-1,-1,,9999,0,0,2,FEW 30   SCT -9999,-1,1,-1,6,1020,RJNA 271800Z 30005KT 9999 FEW030 SCT/// M01/M06 Q1020 RMK     1CU030 A3014=,
20180127_190000.000,0,RJNA,,,,0,20180127190000,-1,-1,-1,-1,999,-1,2,-1,-1,-1,-1,,9999,0,0,2,FEW 30   SCT -9999,-1,2,-1,6,1020,RJNA 271900Z VRB02KT 9999 FEW030 SCT/// M02/M06 Q1020 RMK     1CU030 A3013=,
20180127_190000.002,0,RJNA,,,,0,20180127190000,-1,-1,-1,-1,999,-1,2,-1,-1,-1,-1,,9999,0,0,2,FEW 30   SCT -9999,-1,2,-1,6,1020,RJNA 271900Z VRB02KT 9999 FEW030 SCT/// M02/M06 Q1020 RMK     1CU030 A3013=,
20180127_200000.000,0,RJNA,,,,0,20180127200000,-1,-1,-1,-1,999,-1,1,-1,-1,-1,-1,,9999,0,0,3,FEW 30   SCT 150   BKN -9999,-1,3,-1,6,1019,RJNA 272000Z VRB01KT 9999 FEW030 SCT150 BKN/// M03/M06 Q1019     RMK 1CU030 4AC150 A3011=,
20180127_200000.002,0,RJNA,,,,0,20180127200000,-1,-1,-1,-1,999,-1,1,-1,-1,-1,-1,,9999,0,0,3,FEW 30   SCT 150   BKN -9999,-1,3,-1,6,1019,RJNA 272000Z VRB01KT 9999 FEW030 SCT150 BKN/// M03/M06 Q1019     RMK 1CU030 4AC150 A3011=,
20180127_210000.000,0,RJNA,,,,0,20180127210000,-1,-1,-1,-1,999,-1,2,-1,-1,-1,-1,,9999,0,0,3,FEW 30   BKN 150   BKN -9999,-1,3,-1,6,1020,RJNA 272100Z VRB02KT 9999 FEW030 BKN150 BKN/// M03/M06 Q1020     RMK 1CU030 5AC150 A3013 33031KT/0410 06/M03=,
20180127_210000.002,0,RJNA,,,,0,20180127210000,-1,-1,-1,-1,999,-1,2,-1,-1,-1,-1,,9999,0,0,3,FEW 30   BKN 150   BKN -9999,-1,3,-1,6,1020,RJNA 272100Z VRB02KT 9999 FEW030 BKN150 BKN/// M03/M06 Q1020     RMK 1CU030 5AC150 A3013 33031KT/0410 06/M03=,
20180127_220000.000,0,RJNA,,,,0,20180127220000,-1,-1,-1,-1,999,-1,1,-1,-1,-1,-1,,9999,0,0,2,FEW 30   SCT 150,-1,3,-1,7,1019,RJNA 272200Z VRB01KT 9999 FEW030 SCT150 M03/M07 Q1019 RMK     1CU030 3AC150 A3011=,
20180127_220000.002,0,RJNA,,,,0,20180127220000,-1,-1,-1,-1,999,-1,1,-1,-1,-1,-1,,9999,0,0,2,FEW 30   SCT 150,-1,3,-1,7,1019,RJNA 272200Z VRB01KT 9999 FEW030 SCT150 M03/M07 Q1019 RMK     1CU030 3AC150 A3011=,
20180127_230000.000,0,RJNA,,,,0,20180127230000,-1,-1,-1,-1,999,-1,1,-1,-1,-1,-1,,9999,0,0,3,FEW 30   BKN 140   BKN 230,-1,2,-1,6,1020,RJNA 272300Z VRB01KT 9999 FEW030 BKN140 BKN230 M02/M06 Q1020     RMK 1CU030 5AC140 A3012=,
20180127_230000.002,0,RJNA,,,,0,20180127230000,-1,-1,-1,-1,999,-1,1,-1,-1,-1,-1,,9999,0,0,3,FEW 30   BKN 140   BKN 230,-1,2,-1,6,1020,RJNA 272300Z VRB01KT 9999 FEW030 BKN140 BKN230 M02/M06 Q1020     RMK 1CU030 5AC140 A3012=,
20180128_000000.000,0,RJNA,,,,0,20180128000000,-1,-1,-1,-1,270,-1,3,-1,-1,230,310,,9999,0,0,3,FEW 30   BKN 120   BKN 230,-1,1,-1,6,1019,RJNA 280000Z 27003KT 230V310 9999 FEW030 BKN120 BKN230 M01/M06     Q1019 RMK 1CU030 5AC120 A3012=,
20180128_000000.003,0,RJNA,,,,0,20180128000000,-1,-1,-1,-1,270,-1,3,-1,-1,230,310,,9999,0,0,3,FEW 30   BKN 120   BKN 230,-1,1,-1,6,1019,RJNA 280000Z 27003KT 230V310 9999 FEW030 BKN120 BKN230 M01/M06     Q1019 RMK 1CU030 5AC120 A3012=,
20180128_010000.000,0,RJNA,,,,0,20180128010000,-1,-1,-1,-1,20,-1,6,-1,-1,-1,-1,,9999,0,0,3,FEW 30   BKN 100   BKN 230,1,1,-1,7,1019,RJNA 280100Z 02006KT 9999 FEW030 BKN100 BKN230 01/M07 Q1019 RMK     1CU030 5AC100 A3010=,
20180128_010000.002,0,RJNA,,,,0,20180128010000,-1,-1,-1,-1,20,-1,6,-1,-1,-1,-1,,9999,0,0,3,FEW 30   BKN 100   BKN 230,1,1,-1,7,1019,RJNA 280100Z 02006KT 9999 FEW030 BKN100 BKN230 01/M07 Q1019     RMK 1CU030 5AC100 A3010=,
20180128_020000.000,0,RJNA,,,,0,20180128020000,-1,-1,-1,-1,320,-1,4,-1,-1,-1,-1,,9999,0,0,3,FEW 30   BKN 100   BKN 230,1,2,-1,7,1019,RJNA 280200Z 32004KT 9999 FEW030 BKN100 BKN230 02/M07 Q1019 RMK     1CU030 5AC100 A3009=,
20180128_020000.002,0,RJNA,,,,0,20180128020000,-1,-1,-1,-1,320,-1,4,-1,-1,-1,-1,,9999,0,0,3,FEW 30   BKN 100   BKN 230,1,2,-1,7,1019,RJNA 280200Z 32004KT 9999 FEW030 BKN100 BKN230 02/M07 Q1019     RMK 1CU030 5AC100 A3009=,
20180128_030000.000,0,RJNA,,,,0,20180128030000,-1,-1,-1,-1,999,-1,2,-1,-1,-1,-1,,9999,0,0,3,FEW 30   SCT 60   BKN 100,1,2,-1,6,1018,RJNA 280300Z VRB02KT 9999 FEW030 SCT060 BKN100 02/M06 Q1018 RMK     1CU030 3SC060 5AC100 A3007=,
20180128_030000.002,0,RJNA,,,,0,20180128030000,-1,-1,-1,-1,999,-1,2,-1,-1,-1,-1,,9999,0,0,3,FEW 30   SCT 60   BKN 100,1,2,-1,6,1018,RJNA 280300Z VRB02KT 9999 FEW030 SCT060 BKN100 02/M06 Q1018     RMK 1CU030 3SC060 5AC100 A3007=,
20180128_040000.000,0,RJNA,,,,0,20180128040000,-1,-1,-1,-1,360,-1,3,-1,-1,300,50,,9999,0,0,3,FEW 30   SCT 50   BKN 80,1,3,-1,5,1016,RJNA 280400Z 36003KT 300V050 9999 FEW030 SCT050 BKN080 03/M05     Q1016 RMK 1CU030 4SC050 7AC080 A3002=,
20180128_040000.002,0,RJNA,,,,0,20180128040000,-1,-1,-1,-1,360,-1,3,-1,-1,300,50,,9999,0,0,3,FEW 30   SCT 50   BKN 80,1,3,-1,5,1016,RJNA 280400Z 36003KT 300V050 9999 FEW030 SCT050 BKN080 03/M05     Q1016 RMK 1CU030 4SC050 7AC080 A3002=,
20180128_050000.000,0,RJNA,,,,0,20180128050000,-1,-1,-1,-1,10,-1,5,-1,-1,-1,-1,,9999,0,0,3,FEW 30   BKN 50   BKN 80,1,4,-1,6,1015,RJNA 280500Z 01005KT 9999 FEW030 BKN050 BKN080 04/M06 Q1015 RMK     1CU030 5SC050 7AC080 A2999=,
20180128_050000.002,0,RJNA,,,,0,20180128050000,-1,-1,-1,-1,10,-1,5,-1,-1,-1,-1,,9999,0,0,3,FEW 30   BKN 50   BKN 80,1,4,-1,6,1015,RJNA 280500Z 01005KT 9999 FEW030 BKN050 BKN080 04/M06 Q1015     RMK 1CU030 5SC050 7AC080 A2999=,
20180128_060000.000,0,RJNA,,,,0,20180128060000,-1,-1,-1,-1,999,-1,3,-1,-1,-1,-1,,8000,0,1,3,FEW 15   BKN 25   BKN 50,1,2,-1,4,1016,RJNA 280600Z VRB03KT 8000 -SN FEW015 BKN025 BKN050 02/M04 Q1016     RMK 1CU015 5CU025 7SC050 A3001=,- SN
20180128_060000.002,0,RJNA,,,,0,20180128060000,-1,-1,-1,-1,999,-1,3,-1,-1,-1,-1,,8000,0,1,3,FEW 15   BKN 25   BKN 50,1,2,-1,4,1016,RJNA 280600Z VRB03KT 8000 -SN FEW015 BKN025 BKN050 02/M04     Q1016 RMK 1CU015 5CU025 7SC050 A3001=,- SN
20180128_070000.000,0,RJNA,,,,0,20180128070000,-1,-1,-1,-1,999,-1,1,-1,-1,-1,-1,,5000,0,1,3,FEW 15   SCT 25   BKN 45,1,1,-1,2,1016,RJNA 280700Z VRB01KT 5000 -SN FEW015 SCT025 BKN045 01/M02 Q1016     RMK 1CU015 4CU025 7SC045 A3000=,- SN
20180128_070000.003,0,RJNA,,,,0,20180128070000,-1,-1,-1,-1,999,-1,1,-1,-1,-1,-1,,5000,0,1,3,FEW 15   SCT 25   BKN 45,1,1,-1,2,1016,RJNA 280700Z VRB01KT 5000 -SN FEW015 SCT025 BKN045 01/M02     Q1016 RMK 1CU015 4CU025 7SC045 A3000=,- SN
20180128_080000.000,0,RJNA,,,,0,20180128080000,-1,-1,-1,-1,340,-1,4,-1,-1,-1,-1,,2000,0,1,3,FEW 10   SCT 15   BKN 25,1,0,-1,1,1016,RJNA 280800Z 34004KT 2000 -SN FEW010 SCT015 BKN025 00/M01 Q1016     RMK 1CU010 3CU015 7SC025 A3002 VIS NW-N 1500M=,- SN
20180128_080000.002,0,RJNA,,,,0,20180128080000,-1,-1,-1,-1,340,-1,4,-1,-1,-1,-1,,2000,0,1,3,FEW 10   SCT 15   BKN 25,1,0,-1,1,1016,RJNA 280800Z 34004KT 2000 -SN FEW010 SCT015 BKN025 00/M01     Q1016 RMK 1CU010 3CU015 7SC025 A3002 VIS NW-N 1500M=,- SN
20180128_090000.000,0,RJNA,,,,0,20180128090000,-1,-1,-1,-1,50,-1,3,-1,-1,-1,-1,,4500,0,1,3,FEW 5   SCT 10   OVC 25,1,0,-1,0,1016,RJNA 280900Z 05003KT 4500 -SN FEW005 SCT010 OVC025 00/M00 Q1016     RMK 2ST005 4CU010 8SC025 A3001=,- SN
20180128_090000.002,0,RJNA,,,,0,20180128090000,-1,-1,-1,-1,50,-1,3,-1,-1,-1,-1,,4500,0,1,3,FEW 5   SCT 10   OVC 25,1,0,-1,0,1016,RJNA 280900Z 05003KT 4500 -SN FEW005 SCT010 OVC025 00/M00     Q1016 RMK 2ST005 4CU010 8SC025 A3001=,- SN
20180128_100000.000,0,RJNA,,,,0,20180128100000,-1,-1,-1,-1,340,-1,4,-1,-1,-1,-1,,8000,0,0,3,FEW 5   BKN 50   BKN 90,1,1,-1,1,1015,RJNA 281000Z 34004KT 8000 FEW005 BKN050 BKN090 01/M01 Q1015 RMK     1ST005 5SC050 7AC090 A3000=,
20180128_100000.002,0,RJNA,,,,0,20180128100000,-1,-1,-1,-1,340,-1,4,-1,-1,-1,-1,,8000,0,0,3,FEW 5   BKN 50   BKN 90,1,1,-1,1,1015,RJNA 281000Z 34004KT 8000 FEW005 BKN050 BKN090 01/M01 Q1015     RMK 1ST005 5SC050 7AC090 A3000=,
20180128_110000.000,0,RJNA,,,,0,20180128110000,-1,-1,-1,-1,340,-1,5,-1,-1,-1,-1,,9000,0,0,3,FEW 30   SCT 60   BKN 90,-1,0,-1,1,1015,RJNA 281100Z 34005KT 9000 FEW030 SCT060 BKN090 M00/M01 Q1015     RMK 1SC030 3SC060 6AC090 A2999=,
20180128_110000.002,0,RJNA,,,,0,20180128110000,-1,-1,-1,-1,340,-1,5,-1,-1,-1,-1,,9000,0,0,3,FEW 30   SCT 60   BKN 90,-1,0,-1,1,1015,RJNA 281100Z 34005KT 9000 FEW030 SCT060 BKN090 M00/M01 Q1015     RMK 1SC030 3SC060 6AC090 A2999=,
20180128_120000.000,0,RJNA,,,,0,20180128120000,-1,-1,-1,-1,340,-1,5,-1,-1,-1,-1,,9999,0,0,1,FEW 30,-1,1,-1,2,1015,RJNA 281200Z 34005KT 9999 FEW030 M01/M02 Q1015 RMK 1CU030     A2998=,
20180128_120000.002,0,RJNA,,,,0,20180128120000,-1,-1,-1,-1,340,-1,5,-1,-1,-1,-1,,9999,0,0,1,FEW 30,-1,1,-1,2,1015,RJNA 281200Z 34005KT 9999 FEW030 M01/M02 Q1015 RMK 1CU030     A2998=,
20180128_130000.000,0,RJNA,,,,0,20180128130000,-1,-1,-1,-1,280,-1,3,-1,-1,-1,-1,,9999,0,0,2,FEW 30   SCT -9999,1,0,-1,1,1015,RJNA 281300Z 28003KT 9999 FEW030 SCT/// 00/M01 Q1015 RMK 1CU030     A2998=,
20180128_130000.002,0,RJNA,,,,0,20180128130000,-1,-1,-1,-1,280,-1,3,-1,-1,-1,-1,,9999,0,0,2,FEW 30   SCT -9999,1,0,-1,1,1015,RJNA 281300Z 28003KT 9999 FEW030 SCT/// 00/M01 Q1015 RMK     1CU030 A2998=,
20180128_140000.000,0,RJNA,,,,0,20180128140000,-1,-1,-1,-1,330,-1,4,-1,-1,-1,-1,,9999,0,0,3,FEW 20   SCT 30   BKN -9999,-1,0,-1,1,1014,RJNA 281400Z 33004KT 9999 FEW020 SCT030 BKN/// M00/M01 Q1014     RMK 1CU020 3CU030 A2996=,
20180128_140000.002,0,RJNA,,,,0,20180128140000,-1,-1,-1,-1,330,-1,4,-1,-1,-1,-1,,9999,0,0,3,FEW 20   SCT 30   BKN -9999,-1,0,-1,1,1014,RJNA 281400Z 33004KT 9999 FEW020 SCT030 BKN/// M00/M01 Q1014     RMK 1CU020 3CU030 A2996=,
20180128_150000.000,0,RJNA,,,,0,20180128150000,-1,-1,-1,-1,340,-1,5,-1,-1,-1,-1,,9999,0,0,3,FEW 20   SCT 30   BKN 50,-1,0,-1,1,1013,RJNA 281500Z 34005KT 9999 FEW020 SCT030 BKN050 M00/M01 Q1013     RMK 1CU020 3CU030 5SC050 A2994=,
20180128_150000.002,0,RJNA,,,,0,20180128150000,-1,-1,-1,-1,340,-1,5,-1,-1,-1,-1,,9999,0,0,3,FEW 20   SCT 30   BKN 50,-1,0,-1,1,1013,RJNA 281500Z 34005KT 9999 FEW020 SCT030 BKN050 M00/M01 Q1013     RMK 1CU020 3CU030 5SC050 A2994=,
20180128_160000.000,0,RJNA,,,,0,20180128160000,-1,-1,-1,-1,350,-1,2,-1,-1,-1,-1,,9999,0,0,3,FEW 30   BKN 40   BKN -9999,1,0,-1,1,1012,RJNA 281600Z 35002KT 9999 FEW030 BKN040 BKN/// 00/M01 Q1012 RMK     1CU030 5SC040 A2991=,
20180128_160000.002,0,RJNA,,,,0,20180128160000,-1,-1,-1,-1,350,-1,2,-1,-1,-1,-1,,9999,0,0,3,FEW 30   BKN 40   BKN -9999,1,0,-1,1,1012,RJNA 281600Z 35002KT 9999 FEW030 BKN040 BKN/// 00/M01 Q1012     RMK 1CU030 5SC040 A2991=,
20180128_170000.000,0,RJNA,,,,0,20180128170000,-1,-1,-1,-1,30,-1,1,-1,-1,-1,-1,,9999,0,0,3,FEW 30   SCT 40   BKN -9999,1,0,-1,1,1012,RJNA 281700Z 03001KT 9999 FEW030 SCT040 BKN/// 00/M01 Q1012 RMK     1CU030 3SC040 A2990=,
20180128_170000.002,0,RJNA,,,,0,20180128170000,-1,-1,-1,-1,30,-1,1,-1,-1,-1,-1,,9999,0,0,3,FEW 30   SCT 40   BKN -9999,1,0,-1,1,1012,RJNA 281700Z 03001KT 9999 FEW030 SCT040 BKN/// 00/M01 Q1012     RMK 1CU030 3SC040 A2990=,
20180128_180000.000,0,RJNA,,,,0,20180128180000,-1,-1,-1,-1,140,-1,1,-1,-1,-1,-1,,9999,0,0,3,FEW 30   SCT 70   BKN -9999,-1,1,-1,2,1011,RJNA 281800Z 14001KT 9999 FEW030 SCT070 BKN/// M01/M02 Q1011     RMK 1CU030 3AC070 A2988=,
20180128_180000.002,0,RJNA,,,,0,20180128180000,-1,-1,-1,-1,140,-1,1,-1,-1,-1,-1,,9999,0,0,3,FEW 30   SCT 70   BKN -9999,-1,1,-1,2,1011,RJNA 281800Z 14001KT 9999 FEW030 SCT070 BKN/// M01/M02 Q1011     RMK 1CU030 3AC070 A2988=,
20180128_190000.000,0,RJNA,,,,0,20180128190000,-1,-1,-1,-1,350,-1,3,-1,-1,-1,-1,,8000,0,0,2,FEW 30   BKN 40,-1,1,-1,1,1011,RJNA 281900Z 35003KT 8000 FEW030 BKN040 M01/M01 Q1011 RMK     1CU030 7SC040 A2987=,
20180128_190000.002,0,RJNA,,,,0,20180128190000,-1,-1,-1,-1,350,-1,3,-1,-1,-1,-1,,8000,0,0,2,FEW 30   BKN 40,-1,1,-1,1,1011,RJNA 281900Z 35003KT 8000 FEW030 BKN040 M01/M01 Q1011 RMK     1CU030 7SC040 A2987=,
20180128_200000.000,0,RJNA,,,,0,20180128200000,-1,-1,-1,-1,20,-1,3,-1,-1,-1,-1,,8000,0,0,2,FEW 30   BKN 45,-1,0,-1,1,1011,RJNA 282000Z 02003KT 8000 FEW030 BKN045 M00/M01 Q1011 RMK     1CU030 7SC045 A2986=,
20180128_200000.002,0,RJNA,,,,0,20180128200000,-1,-1,-1,-1,20,-1,3,-1,-1,-1,-1,,8000,0,0,2,FEW 30   BKN 45,-1,0,-1,1,1011,RJNA 282000Z 02003KT 8000 FEW030 BKN045 M00/M01 Q1011 RMK     1CU030 7SC045 A2986=,
20180128_210000.000,0,RJNA,,,,0,20180128210000,-1,-1,-1,-1,0,-1,0,-1,-1,-1,-1,,8000,0,0,2,FEW 30   BKN 45,1,0,-1,0,1010,RJNA 282100Z 00000KT 8000 FEW030 BKN045 00/M00 Q1010 RMK 1CU030     7SC045 A2985 04/M02 R000 S000 SD000=,
20180128_210000.002,0,RJNA,,,,0,20180128210000,-1,-1,-1,-1,0,-1,0,-1,-1,-1,-1,,8000,0,0,2,FEW 30   BKN 45,1,0,-1,0,1010,RJNA 282100Z 00000KT 8000 FEW030 BKN045 00/M00 Q1010 RMK     1CU030 7SC045 A2985 04/M02 R000 S000 SD000=,
20180128_220000.000,0,RJNA,,,,0,20180128220000,-1,-1,-1,-1,0,-1,0,-1,-1,-1,-1,,5000,0,1,2,FEW 30   BKN 45,-1,0,-1,1,1010,RJNA 282200Z 00000KT 5000 BR FEW030 BKN045 M00/M01 Q1010 RMK     1CU030 6SC045 A2985=,BR
20180128_220000.003,0,RJNA,,,,0,20180128220000,-1,-1,-1,-1,0,-1,0,-1,-1,-1,-1,,5000,0,1,2,FEW 30   BKN 45,-1,0,-1,1,1010,RJNA 282200Z 00000KT 5000 BR FEW030 BKN045 M00/M01 Q1010 RMK     1CU030 6SC045 A2985=,BR
20180128_230000.000,0,RJNA,,,,0,20180128230000,-1,-1,-1,-1,320,-1,4,-1,-1,230,350,,9000,0,0,2,FEW 30   BKN 45,1,1,1,0,1010,RJNA 282300Z 32004KT 230V350 9000 FEW030 BKN045 01/00 Q1010 RMK     1CU030 6SC045 A2985=,
20180128_230000.002,0,RJNA,,,,0,20180128230000,-1,-1,-1,-1,320,-1,4,-1,-1,230,350,,9000,0,0,2,FEW 30   BKN 45,1,1,1,0,1010,RJNA 282300Z 32004KT 230V350 9000 FEW030 BKN045 01/00 Q1010     RMK 1CU030 6SC045 A2985=,
20180129_000000.000,0,RJNA,,,,0,20180129000000,-1,-1,-1,-1,320,-1,6,-1,-1,-1,-1,,9999,0,0,3,FEW 30   SCT 45   BKN 60,1,3,1,1,1011,RJNA 290000Z 32006KT 9999 FEW030 SCT045 BKN060 03/01 Q1011 RMK     1CU030 3SC045 6SC060 A2987=,
20180129_000000.003,0,RJNA,,,,0,20180129000000,-1,-1,-1,-1,320,-1,6,-1,-1,-1,-1,,9999,0,0,3,FEW 30   SCT 45   BKN 60,1,3,1,1,1011,RJNA 290000Z 32006KT 9999 FEW030 SCT045 BKN060 03/01 Q1011 RMK     1CU030 3SC045 6SC060 A2987=,
20180129_010000.000,0,RJNA,,,,0,20180129010000,-1,-1,-1,-1,310,-1,8,-1,-1,250,330,,9999,0,0,2,FEW 30   BKN 60,1,4,1,1,1011,RJNA 290100Z 31008KT 250V330 9999 FEW030 BKN060 04/01 Q1011 RMK     1CU030 6SC060 A2988=,
20180129_010000.002,0,RJNA,,,,0,20180129010000,-1,-1,-1,-1,310,-1,8,-1,-1,250,330,,9999,0,0,2,FEW 30   BKN 60,1,4,1,1,1011,RJNA 290100Z 31008KT 250V330 9999 FEW030 BKN060 04/01 Q1011     RMK 1CU030 6SC060 A2988=,
20180129_020000.000,0,RJNA,,,,0,20180129020000,-1,-1,-1,-1,290,-1,11,-1,-1,250,310,,9999,0,1,2,FEW 15   BKN 60,1,5,1,2,1011,RJNA 290200Z 29011KT 250V310 9999 -SHRA FEW015 BKN060 05/02     Q1011 RMK 1CU015 6SC060 A2986=,- RA SH
20180129_020000.002,0,RJNA,,,,0,20180129020000,-1,-1,-1,-1,290,-1,11,-1,-1,250,310,,9999,0,1,2,FEW 15   BKN 60,1,5,1,2,1011,RJNA 290200Z 29011KT 250V310 9999 -SHRA FEW015 BKN060 05/02     Q1011 RMK 1CU015 6SC060 A2986=,- RA SH
20180129_030000.000,0,RJNA,,,,0,20180129030000,-1,-1,-1,-1,300,-1,12,-1,-1,-1,-1,,9999,0,1,3,FEW 15   SCT 30   BKN 50,1,6,1,1,1010,RJNA 290300Z 30012KT 9999 -SHRA FEW015 SCT030 BKN050 06/01     Q1010 RMK 1CU015 3CU030 5SC050 A2985=,- RA SH
20180129_030000.002,0,RJNA,,,,0,20180129030000,-1,-1,-1,-1,300,-1,12,-1,-1,-1,-1,,9999,0,1,3,FEW 15   SCT 30   BKN 50,1,6,1,1,1010,RJNA 290300Z 30012KT 9999 -SHRA FEW015 SCT030 BKN050 06/01     Q1010 RMK 1CU015 3CU030 5SC050 A2985=,- RA SH
20180129_040000.000,0,RJNA,,,,0,20180129040000,-1,-1,-1,-1,300,-1,12,-1,-1,270,330,,9999,0,1,3,FEW 15   BKN 30   BKN 50,1,5,1,0,1010,RJNA 290400Z 30012KT 270V330 9999 -SHRA FEW015 BKN030 BKN050     05/00 Q1010 RMK 1CU015 5CU030 6SC050 A2983=,- RA SH
20180129_040000.002,0,RJNA,,,,0,20180129040000,-1,-1,-1,-1,300,-1,12,-1,-1,270,330,,9999,0,1,3,FEW 15   BKN 30   BKN 50,1,5,1,0,1010,RJNA 290400Z 30012KT 270V330 9999 -SHRA FEW015 BKN030 BKN050     05/00 Q1010 RMK 1CU015 5CU030 6SC050 A2983=,- RA SH
20180129_050000.000,0,RJNA,,,,0,20180129050000,-1,-1,-1,-1,300,-1,15,-1,-1,-1,-1,,9999,0,0,3,FEW 15   SCT 30   BKN 50,1,7,-1,0,1009,RJNA 290500Z 30015KT 9999 FEW015 SCT030 BKN050 07/M00 Q1009 RMK     1CU015 3CU030 6SC050 A2981 MAX WIND 23KT=,
20180129_050000.002,0,RJNA,,,,0,20180129050000,-1,-1,-1,-1,300,-1,15,-1,-1,-1,-1,,9999,0,0,3,FEW 15   SCT 30   BKN 50,1,7,-1,0,1009,RJNA 290500Z 30015KT 9999 FEW015 SCT030 BKN050 07/M00 Q1009     RMK 1CU015 3CU030 6SC050 A2981 MAX WIND 23KT=,
20180129_060000.000,0,RJNA,,,,0,20180129060000,-1,-1,-1,-1,290,-1,15,-1,-1,-1,-1,,9999,0,0,2,FEW 20   SCT 50,1,7,-1,1,1009,RJNA 290600Z 29015KT 9999 FEW020 SCT050 07/M01 Q1009 RMK 1CU020     4SC050 A2980 MAX WIND 22KT=,
20180129_060000.002,0,RJNA,,,,0,20180129060000,-1,-1,-1,-1,290,-1,15,-1,-1,-1,-1,,9999,0,0,2,FEW 20   SCT 50,1,7,-1,1,1009,RJNA 290600Z 29015KT 9999 FEW020 SCT050 07/M01 Q1009 RMK     1CU020 4SC050 A2980 MAX WIND 22KT=,
20180129_070000.000,0,RJNA,,,,0,20180129070000,-1,-1,-1,-1,290,-1,12,-1,-1,250,310,,9999,0,0,2,FEW 20   SCT 30,1,6,-1,1,1009,RJNA 290700Z 29012KT 250V310 9999 FEW020 SCT030 06/M01 Q1009     RMK 1CU020 3CU030 A2981=,
20180129_070000.002,0,RJNA,,,,0,20180129070000,-1,-1,-1,-1,290,-1,12,-1,-1,250,310,,9999,0,0,2,FEW 20   SCT 30,1,6,-1,1,1009,RJNA 290700Z 29012KT 250V310 9999 FEW020 SCT030 06/M01 Q1009     RMK 1CU020 3CU030 A2981=,
20180129_080000.000,0,RJNA,,,,0,20180129080000,-1,-1,-1,-1,320,-1,15,-1,-1,-1,-1,,9999,0,0,2,FEW 20   SCT 50,1,6,-1,3,1010,RJNA 290800Z 32015KT 9999 FEW020 SCT050 06/M03 Q1010 RMK 1CU020     4SC050 A2983=,
20180129_080000.002,0,RJNA,,,,0,20180129080000,-1,-1,-1,-1,320,-1,15,-1,-1,-1,-1,,9999,0,0,2,FEW 20   SCT 50,1,6,-1,3,1010,RJNA 290800Z 32015KT 9999 FEW020 SCT050 06/M03 Q1010 RMK     1CU020 4SC050 A2983=,
20180129_090000.000,0,RJNA,,,,0,20180129090000,-1,-1,-1,-1,310,-1,10,-1,-1,-1,-1,,9999,0,0,2,FEW 20   SCT 50,1,5,-1,4,1011,RJNA 290900Z 31010KT 9999 FEW020 SCT050 05/M04 Q1011 RMK 1CU020     3SC050 A2986=,
20180129_090000.002,0,RJNA,,,,0,20180129090000,-1,-1,-1,-1,310,-1,10,-1,-1,-1,-1,,9999,0,0,2,FEW 20   SCT 50,1,5,-1,4,1011,RJNA 290900Z 31010KT 9999 FEW020 SCT050 05/M04 Q1011 RMK     1CU020 3SC050 A2986=,
20180129_100000.000,0,RJNA,,,,0,20180129100000,-1,-1,-1,-1,310,-1,10,-1,-1,270,340,,9999,0,0,2,FEW 20   SCT 50,1,4,-1,4,1012,RJNA 291000Z 31010KT 270V340 9999 FEW020 SCT050 04/M04 Q1012     RMK 1CU020 4SC050 A2989=,
20180129_100000.002,0,RJNA,,,,0,20180129100000,-1,-1,-1,-1,310,-1,10,-1,-1,270,340,,9999,0,0,2,FEW 20   SCT 50,1,4,-1,4,1012,RJNA 291000Z 31010KT 270V340 9999 FEW020 SCT050 04/M04 Q1012     RMK 1CU020 4SC050 A2989=,
20180129_110000.000,0,RJNA,,,,0,20180129110000,-1,-1,-1,-1,300,-1,8,-1,-1,-1,-1,,9999,0,0,2,FEW 30   SCT 50,1,4,-1,4,1012,RJNA 291100Z 30008KT 9999 FEW030 SCT050 04/M04 Q1012 RMK 1CU030     3SC050 A2991=,
20180129_110000.002,0,RJNA,,,,0,20180129110000,-1,-1,-1,-1,300,-1,8,-1,-1,-1,-1,,9999,0,0,2,FEW 30   SCT 50,1,4,-1,4,1012,RJNA 291100Z 30008KT 9999 FEW030 SCT050 04/M04 Q1012 RMK     1CU030 3SC050 A2991=,
20180129_120000.000,0,RJNA,,,,0,20180129120000,-1,-1,-1,-1,300,-1,12,-1,-1,-1,-1,,9999,0,1,3,FEW 15   BKN 30   BKN 50,1,2,-1,2,1013,RJNA 291200Z 30012KT 9999 -SHSN FEW015 BKN030 BKN050 02/M02     Q1013 RMK 1CU015 5CU030 7SC050 A2992=,- SN SH
20180129_120000.002,0,RJNA,,,,0,20180129120000,-1,-1,-1,-1,300,-1,12,-1,-1,-1,-1,,9999,0,1,3,FEW 15   BKN 30   BKN 50,1,2,-1,2,1013,RJNA 291200Z 30012KT 9999 -SHSN FEW015 BKN030 BKN050 02/M02     Q1013 RMK 1CU015 5CU030 7SC050 A2992=,- SN SH
20180129_130000.000,0,RJNA,,,,0,20180129130000,-1,-1,-1,-1,260,-1,4,-1,-1,210,300,,5000,0,1,3,FEW 8   SCT 15   BKN 30,1,1,-1,0,1013,RJNA 291300Z 26004KT 210V300 5000 -SHSN FEW008 SCT015 BKN030     01/M00 Q1013 RMK 1CU008 3CU015 5CU030 A2994=,- SN SH
20180129_130000.002,0,RJNA,,,,0,20180129130000,-1,-1,-1,-1,260,-1,4,-1,-1,210,300,,5000,0,1,3,FEW 8   SCT 15   BKN 30,1,1,-1,0,1013,RJNA 291300Z 26004KT 210V300 5000 -SHSN FEW008 SCT015 BKN030     01/M00 Q1013 RMK 1CU008 3CU015 5CU030 A2994=,- SN SH
20180129_140000.000,0,RJNA,,,,0,20180129140000,-1,-1,-1,-1,290,-1,7,-1,-1,240,320,,9999,0,0,3,FEW 8   BKN 15   BKN 50,1,1,-1,1,1013,RJNA 291400Z 29007KT 240V320 9999 FEW008 BKN015 BKN050 01/M01     Q1013 RMK 2CU008 5CU015 5SC050 A2994=,
20180129_140000.002,0,RJNA,,,,0,20180129140000,-1,-1,-1,-1,290,-1,7,-1,-1,240,320,,9999,0,0,3,FEW 8   BKN 15   BKN 50,1,1,-1,1,1013,RJNA 291400Z 29007KT 240V320 9999 FEW008 BKN015 BKN050 01/M01     Q1013 RMK 2CU008 5CU015 5SC050 A2994=,
20180129_150000.000,0,RJNA,,,,0,20180129150000,-1,-1,-1,-1,290,-1,9,-1,-1,-1,-1,,9999,0,0,2,FEW 15   SCT 50,1,1,-1,2,1013,RJNA 291500Z 29009KT 9999 FEW015 SCT050 01/M02 Q1013 RMK 1CU015     3SC050 A2993=,
20180129_150000.002,0,RJNA,,,,0,20180129150000,-1,-1,-1,-1,290,-1,9,-1,-1,-1,-1,,9999,0,0,2,FEW 15   SCT 50,1,1,-1,2,1013,RJNA 291500Z 29009KT 9999 FEW015 SCT050 01/M02 Q1013 RMK     1CU015 3SC050 A2993=,
20180129_160000.000,0,RJNA,,,,0,20180129160000,-1,-1,-1,-1,280,-1,6,-1,-1,-1,-1,,9999,0,0,1,FEW 15,1,0,-1,2,1013,RJNA 291600Z 28006KT 9999 FEW015 00/M02 Q1013 RMK 1CU015 A2993=,
20180129_160000.002,0,RJNA,,,,0,20180129160000,-1,-1,-1,-1,280,-1,6,-1,-1,-1,-1,,9999,0,0,1,FEW 15,1,0,-1,2,1013,RJNA 291600Z 28006KT 9999 FEW015 00/M02 Q1013 RMK 1CU015     A2993=,
20180129_170000.000,0,RJNA,,,,0,20180129170000,-1,-1,-1,-1,270,-1,5,-1,-1,230,290,,9999,0,1,2,FEW 15   SCT 50,1,0,-1,2,1013,RJNA 291700Z 27005KT 230V290 9999 -SHSN FEW015 SCT050 00/M02     Q1013 RMK 1CU015 4SC050 A2994=,- SN SH
20180129_170000.002,0,RJNA,,,,0,20180129170000,-1,-1,-1,-1,270,-1,5,-1,-1,230,290,,9999,0,1,2,FEW 15   SCT 50,1,0,-1,2,1013,RJNA 291700Z 27005KT 230V290 9999 -SHSN FEW015 SCT050 00/M02     Q1013 RMK 1CU015 4SC050 A2994=,- SN SH
20180129_180000.000,0,RJNA,,,,0,20180129180000,-1,-1,-1,-1,280,-1,5,-1,-1,-1,-1,,9999,0,0,2,FEW 15   BKN 50,1,0,-1,2,1014,RJNA 291800Z 28005KT 9999 FEW015 BKN050 00/M02 Q1014 RMK 1CU015     6SC050 A2995=,
20180129_180000.002,0,RJNA,,,,0,20180129180000,-1,-1,-1,-1,280,-1,5,-1,-1,-1,-1,,9999,0,0,2,FEW 15   BKN 50,1,0,-1,2,1014,RJNA 291800Z 28005KT 9999 FEW015 BKN050 00/M02 Q1014 RMK     1CU015 6SC050 A2995=,
20180129_190000.000,0,RJNA,,,,0,20180129190000,-1,-1,-1,-1,310,-1,7,-1,-1,-1,-1,,9999,0,1,2,FEW 15   BKN 50,1,0,-1,2,1014,RJNA 291900Z 31007KT 9999 -SHSN FEW015 BKN050 00/M02 Q1014 RMK     1CU015 7SC050 A2997 VIS NW-N 8KM=,- SN SH
20180129_190000.002,0,RJNA,,,,0,20180129190000,-1,-1,-1,-1,310,-1,7,-1,-1,-1,-1,,9999,0,1,2,FEW 15   BKN 50,1,0,-1,2,1014,RJNA 291900Z 31007KT 9999 -SHSN FEW015 BKN050 00/M02 Q1014 RMK     1CU015 7SC050 A2997 VIS NW-N 8KM=,- SN SH
20180129_200000.000,0,RJNA,,,,0,20180129200000,-1,-1,-1,-1,290,-1,9,-1,-1,-1,-1,,9999,0,0,3,FEW 15   SCT 30   BKN 50,1,0,-1,2,1015,RJNA 292000Z 29009KT 9999 FEW015 SCT030 BKN050 00/M02 Q1015 RMK     1CU015 3CU030 6SC050 A2999=,
20180129_200000.002,0,RJNA,,,,0,20180129200000,-1,-1,-1,-1,290,-1,9,-1,-1,-1,-1,,9999,0,0,3,FEW 15   SCT 30   BKN 50,1,0,-1,2,1015,RJNA 292000Z 29009KT 9999 FEW015 SCT030 BKN050 00/M02 Q1015     RMK 1CU015 3CU030 6SC050 A2999=,
20180129_210000.000,0,RJNA,,,,0,20180129210000,-1,-1,-1,-1,300,-1,6,-1,-1,-1,-1,,9999,0,0,2,FEW 15   SCT 50,1,0,-1,3,1016,RJNA 292100Z 30006KT 9999 FEW015 SCT050 00/M03 Q1016 RMK 1CU015     3SC050 A3001 07/M00 R000 S000 SD000=,
20180129_210000.002,0,RJNA,,,,0,20180129210000,-1,-1,-1,-1,300,-1,6,-1,-1,-1,-1,,9999,0,0,2,FEW 15   SCT 50,1,0,-1,3,1016,RJNA 292100Z 30006KT 9999 FEW015 SCT050 00/M03 Q1016 RMK     1CU015 3SC050 A3001 07/M00 R000 S000 SD000=,
20180129_220000.000,0,RJNA,,,,0,20180129220000,-1,-1,-1,-1,340,-1,5,-1,-1,-1,-1,,9999,0,0,2,FEW 20   SCT 70,-1,1,-1,3,1016,RJNA 292200Z 34005KT 9999 FEW020 SCT070 M01/M03 Q1016 RMK     1CU020 4AC070 A3003=,
20180129_220000.002,0,RJNA,,,,0,20180129220000,-1,-1,-1,-1,340,-1,5,-1,-1,-1,-1,,9999,0,0,2,FEW 20   SCT 70,-1,1,-1,3,1016,RJNA 292200Z 34005KT 9999 FEW020 SCT070 M01/M03 Q1016 RMK     1CU020 4AC070 A3003=,
20180129_230000.000,0,RJNA,,,,0,20180129230000,-1,-1,-1,-1,340,-1,7,-1,-1,-1,-1,,9999,0,0,2,FEW 10   SCT 50,1,0,-1,2,1017,RJNA 292300Z 34007KT 9999 FEW010 SCT050 00/M02 Q1017 RMK 1CU010     4SC050 A3005=,
20180129_230000.002,0,RJNA,,,,0,20180129230000,-1,-1,-1,-1,340,-1,7,-1,-1,-1,-1,,9999,0,0,2,FEW 10   SCT 50,1,0,-1,2,1017,RJNA 292300Z 34007KT 9999 FEW010 SCT050 00/M02 Q1017 RMK     1CU010 4SC050 A3005=,
20180130_000000.000,0,RJNA,,,,0,20180130000000,-1,-1,-1,-1,330,-1,7,-1,-1,-1,-1,,9999,0,0,2,FEW 20   SCT 50,1,2,-1,2,1018,RJNA 300000Z 33007KT 9999 FEW020 SCT050 02/M02 Q1018 RMK 1CU020     4SC050 A3007=,
20180130_000000.002,0,RJNA,,,,0,20180130000000,-1,-1,-1,-1,330,-1,7,-1,-1,-1,-1,,9999,0,0,2,FEW 20   SCT 50,1,2,-1,2,1018,RJNA 300000Z 33007KT 9999 FEW020 SCT050 02/M02 Q1018 RMK     1CU020 4SC050 A3007=,
20180130_010000.000,0,RJNA,,,,0,20180130010000,-1,-1,-1,-1,320,-1,8,-1,-1,270,350,,9999,0,0,2,FEW 15   SCT 50,1,3,-1,1,1018,RJNA 300100Z 32008KT 270V350 9999 FEW015 SCT050 03/M01 Q1018     RMK 1CU015 3SC050 A3007=,
20180130_010000.002,0,RJNA,,,,0,20180130010000,-1,-1,-1,-1,320,-1,8,-1,-1,270,350,,9999,0,0,2,FEW 15   SCT 50,1,3,-1,1,1018,RJNA 300100Z 32008KT 270V350 9999 FEW015 SCT050 03/M01 Q1018     RMK 1CU015 3SC050 A3007=,
20180130_020000.000,0,RJNA,,,,0,20180130020000,-1,-1,-1,-1,330,-1,11,-1,-1,300,360,,9999,0,0,2,FEW 15   SCT 25,1,4,-1,3,1017,RJNA 300200Z 33011KT 300V360 9999 FEW015 SCT025 04/M03 Q1017     RMK 1CU015 3CU025 A3006=,
20180130_020000.002,0,RJNA,,,,0,20180130020000,-1,-1,-1,-1,330,-1,11,-1,-1,300,360,,9999,0,0,2,FEW 15   SCT 25,1,4,-1,3,1017,RJNA 300200Z 33011KT 300V360 9999 FEW015 SCT025 04/M03 Q1017     RMK 1CU015 3CU025 A3006=,
20180130_030000.000,0,RJNA,,,,0,20180130030000,-1,-1,-1,-1,310,-1,8,-1,-1,270,350,,9999,0,0,1,FEW 15,1,4,-1,3,1017,RJNA 300300Z 31008KT 270V350 9999 FEW015 04/M03 Q1017 RMK     1CU015 A3004=,
20180130_030000.002,0,RJNA,,,,0,20180130030000,-1,-1,-1,-1,310,-1,8,-1,-1,270,350,,9999,0,0,1,FEW 15,1,4,-1,3,1017,RJNA 300300Z 31008KT 270V350 9999 FEW015 04/M03 Q1017 RMK     1CU015 A3004=,
20180130_040000.000,0,RJNA,,,,0,20180130040000,-1,-1,-1,-1,270,-1,10,-1,-1,230,300,,9999,0,0,3,FEW 15   SCT 30   BKN 50,1,5,-1,4,1017,RJNA 300400Z 27010KT 230V300 9999 FEW015 SCT030 BKN050 05/M04     Q1017 RMK 1CU015 3CU030 5SC050 A3004=,
20180130_040000.002,0,RJNA,,,,0,20180130040000,-1,-1,-1,-1,270,-1,10,-1,-1,230,300,,9999,0,0,3,FEW 15   SCT 30   BKN 50,1,5,-1,4,1017,RJNA 300400Z 27010KT 230V300 9999 FEW015 SCT030 BKN050 05/M04     Q1017 RMK 1CU015 3CU030 5SC050 A3004=,
20180130_050000.000,0,RJNA,,,,0,20180130050000,-1,-1,-1,-1,270,-1,12,-1,-1,240,300,,9999,0,0,2,FEW 15   BKN 50,1,4,-1,3,1017,RJNA 300500Z 27012KT 240V300 9999 FEW015 BKN050 04/M03 Q1017     RMK 1CU015 5SC050 A3004=,
20180130_050000.002,0,RJNA,,,,0,20180130050000,-1,-1,-1,-1,270,-1,12,-1,-1,240,300,,9999,0,0,2,FEW 15   BKN 50,1,4,-1,3,1017,RJNA 300500Z 27012KT 240V300 9999 FEW015 BKN050 04/M03 Q1017     RMK 1CU015 5SC050 A3004=,
20180130_060000.000,0,RJNA,,,,0,20180130060000,-1,-1,-1,-1,270,-1,9,-1,-1,230,310,,9999,0,0,2,FEW 15   SCT 50,1,4,-1,3,1017,RJNA 300600Z 27009KT 230V310 9999 FEW015 SCT050 04/M03 Q1017     RMK 1CU015 3SC050 A3005=,
20180130_060000.003,0,RJNA,,,,0,20180130060000,-1,-1,-1,-1,270,-1,9,-1,-1,230,310,,9999,0,0,2,FEW 15   SCT 50,1,4,-1,3,1017,RJNA 300600Z 27009KT 230V310 9999 FEW015 SCT050 04/M03 Q1017     RMK 1CU015 3SC050 A3005=,
20180130_070000.000,0,RJNA,,,,0,20180130070000,-1,-1,-1,-1,290,-1,11,-1,-1,-1,-1,,9999,0,0,3,FEW 15   BKN 50   BKN 70,1,4,-1,3,1018,RJNA 300700Z 29011KT 9999 FEW015 BKN050 BKN070 04/M03 Q1018 RMK     1CU015 5SC050 7AC070 A3009=,
20180130_070000.002,0,RJNA,,,,0,20180130070000,-1,-1,-1,-1,290,-1,11,-1,-1,-1,-1,,9999,0,0,3,FEW 15   BKN 50   BKN 70,1,4,-1,3,1018,RJNA 300700Z 29011KT 9999 FEW015 BKN050 BKN070 04/M03 Q1018     RMK 1CU015 5SC050 7AC070 A3009=,
20180130_080000.000,0,RJNA,,,,0,20180130080000,-1,-1,-1,-1,290,-1,6,-1,-1,260,320,,9999,0,0,3,FEW 15   BKN 50   BKN 70,1,3,-1,2,1019,RJNA 300800Z 29006KT 260V320 9999 FEW015 BKN050 BKN070 03/M02     Q1019 RMK 1CU015 5SC050 7AC070 A3011=,
20180130_080000.002,0,RJNA,,,,0,20180130080000,-1,-1,-1,-1,290,-1,6,-1,-1,260,320,,9999,0,0,3,FEW 15   BKN 50   BKN 70,1,3,-1,2,1019,RJNA 300800Z 29006KT 260V320 9999 FEW015 BKN050 BKN070 03/M02     Q1019 RMK 1CU015 5SC050 7AC070 A3011=,
20180130_090000.000,0,RJNA,,,,0,20180130090000,-1,-1,-1,-1,270,-1,6,-1,-1,240,300,,9999,0,0,3,FEW 15   BKN 50   BKN 70,1,3,-1,2,1020,RJNA 300900Z 27006KT 240V300 9999 FEW015 BKN050 BKN070 03/M02     Q1020 RMK 1CU015 5SC050 7AC070 A3012=,
20180130_090000.002,0,RJNA,,,,0,20180130090000,-1,-1,-1,-1,270,-1,6,-1,-1,240,300,,9999,0,0,3,FEW 15   BKN 50   BKN 70,1,3,-1,2,1020,RJNA 300900Z 27006KT 240V300 9999 FEW015 BKN050 BKN070 03/M02     Q1020 RMK 1CU015 5SC050 7AC070 A3012=,
20180130_100000.000,0,RJNA,,,,0,20180130100000,-1,-1,-1,-1,280,-1,6,-1,-1,250,310,,9999,0,0,3,FEW 15   SCT 30   BKN 50,1,3,-1,1,1020,RJNA 301000Z 28006KT 250V310 9999 FEW015 SCT030 BKN050 03/M01     Q1020 RMK 1CU015 3CU030 6SC050 A3015=,
20180130_100000.002,0,RJNA,,,,0,20180130100000,-1,-1,-1,-1,280,-1,6,-1,-1,250,310,,9999,0,0,3,FEW 15   SCT 30   BKN 50,1,3,-1,1,1020,RJNA 301000Z 28006KT 250V310 9999 FEW015 SCT030 BKN050 03/M01     Q1020 RMK 1CU015 3CU030 6SC050 A3015=,
20180130_110000.000,0,RJNA,,,,0,20180130110000,-1,-1,-1,-1,230,-1,4,-1,-1,190,280,,9999,0,0,3,FEW 15   SCT 50   BKN 70,1,3,-1,2,1021,RJNA 301100Z 23004KT 190V280 9999 FEW015 SCT050 BKN070 03/M02     Q1021 RMK 1CU015 4SC050 6AC070 A3017=,
20180130_110000.002,0,RJNA,,,,0,20180130110000,-1,-1,-1,-1,230,-1,4,-1,-1,190,280,,9999,0,0,3,FEW 15   SCT 50   BKN 70,1,3,-1,2,1021,RJNA 301100Z 23004KT 190V280 9999 FEW015 SCT050 BKN070 03/M02     Q1021 RMK 1CU015 4SC050 6AC070 A3017=,
20180130_120000.000,0,RJNA,,,,0,20180130120000,-1,-1,-1,-1,360,-1,4,-1,-1,-1,-1,,9999,0,0,2,FEW 15   BKN 50,1,2,-1,2,1022,RJNA 301200Z 36004KT 9999 FEW015 BKN050 02/M02 Q1022 RMK 1CU015     7SC050 A3019=,
20180130_120000.002,0,RJNA,,,,0,20180130120000,-1,-1,-1,-1,360,-1,4,-1,-1,-1,-1,,9999,0,0,2,FEW 15   BKN 50,1,2,-1,2,1022,RJNA 301200Z 36004KT 9999 FEW015 BKN050 02/M02 Q1022 RMK     1CU015 7SC050 A3019=,
20180130_130000.000,0,RJNA,,,,0,20180130130000,-1,-1,-1,-1,30,-1,2,-1,-1,-1,-1,,9999,0,0,2,FEW 15   SCT 50,1,2,-1,2,1022,RJNA 301300Z 03002KT 9999 FEW015 SCT050 02/M02 Q1022 RMK 1CU015     4SC050 A3019=,
20180130_130000.002,0,RJNA,,,,0,20180130130000,-1,-1,-1,-1,30,-1,2,-1,-1,-1,-1,,9999,0,0,2,FEW 15   SCT 50,1,2,-1,2,1022,RJNA 301300Z 03002KT 9999 FEW015 SCT050 02/M02 Q1022 RMK     1CU015 4SC050 A3019=,
20180130_140000.000,0,RJNA,,,,0,20180130140000,-1,-1,-1,-1,999,-1,2,-1,-1,-1,-1,,9999,0,0,2,FEW 15   SCT 50,1,2,-1,1,1022,RJNA 301400Z VRB02KT 9999 FEW015 SCT050 02/M01 Q1022 RMK 1CU015     4SC050 A3020=,
20180130_140000.002,0,RJNA,,,,0,20180130140000,-1,-1,-1,-1,999,-1,2,-1,-1,-1,-1,,9999,0,0,2,FEW 15   SCT 50,1,2,-1,1,1022,RJNA 301400Z VRB02KT 9999 FEW015 SCT050 02/M01 Q1022 RMK     1CU015 4SC050 A3020=,
20180130_150000.000,0,RJNA,,,,0,20180130150000,-1,-1,-1,-1,999,-1,1,-1,-1,-1,-1,,9999,0,0,2,FEW 20   SCT 50,1,2,-1,1,1022,RJNA 301500Z VRB01KT 9999 FEW020 SCT050 02/M01 Q1022 RMK 1CU020     3SC050 A3021=,
20180130_150000.002,0,RJNA,,,,0,20180130150000,-1,-1,-1,-1,999,-1,1,-1,-1,-1,-1,,9999,0,0,2,FEW 20   SCT 50,1,2,-1,1,1022,RJNA 301500Z VRB01KT 9999 FEW020 SCT050 02/M01 Q1022 RMK     1CU020 3SC050 A3021=,
20180130_160000.000,0,RJNA,,,,0,20180130160000,-1,-1,-1,-1,999,-1,1,-1,-1,-1,-1,,9999,0,0,1,FEW 30,1,1,-1,2,1022,RJNA 301600Z VRB01KT 9999 FEW030 01/M02 Q1022 RMK 1CU030 A3021=,
20180130_160000.002,0,RJNA,,,,0,20180130160000,-1,-1,-1,-1,999,-1,1,-1,-1,-1,-1,,9999,0,0,1,FEW 30,1,1,-1,2,1022,RJNA 301600Z VRB01KT 9999 FEW030 01/M02 Q1022 RMK 1CU030     A3021=,
20180130_170000.000,0,RJNA,,,,0,20180130170000,-1,-1,-1,-1,330,-1,3,-1,-1,260,60,,9999,0,0,1,FEW 30,1,0,-1,2,1023,RJNA 301700Z 33003KT 260V060 9999 FEW030 00/M02 Q1023 RMK     1CU030 A3022=,
20180130_170000.002,0,RJNA,,,,0,20180130170000,-1,-1,-1,-1,330,-1,3,-1,-1,260,60,,9999,0,0,1,FEW 30,1,0,-1,2,1023,RJNA 301700Z 33003KT 260V060 9999 FEW030 00/M02 Q1023 RMK     1CU030 A3022=,
20180130_180000.000,0,RJNA,,,,0,20180130180000,-1,-1,-1,-1,999,-1,1,-1,-1,-1,-1,,9999,0,0,2,FEW 30   SCT 50,-1,1,-1,3,1022,RJNA 301800Z VRB01KT 9999 FEW030 SCT050 M01/M03 Q1022 RMK     1CU030 3SC050 A3021=,
20180130_180000.002,0,RJNA,,,,0,20180130180000,-1,-1,-1,-1,999,-1,1,-1,-1,-1,-1,,9999,0,0,2,FEW 30   SCT 50,-1,1,-1,3,1022,RJNA 301800Z VRB01KT 9999 FEW030 SCT050 M01/M03 Q1022 RMK     1CU030 3SC050 A3021=,
20180130_190000.000,0,RJNA,,,,0,20180130190000,-1,-1,-1,-1,360,-1,4,-1,-1,320,40,,9999,0,0,1,FEW 30,-1,1,-1,3,1022,RJNA 301900Z 36004KT 320V040 9999 FEW030 M01/M03 Q1022 RMK     1CU030 A3021=,
20180130_190000.002,0,RJNA,,,,0,20180130190000,-1,-1,-1,-1,360,-1,4,-1,-1,320,40,,9999,0,0,1,FEW 30,-1,1,-1,3,1022,RJNA 301900Z 36004KT 320V040 9999 FEW030 M01/M03 Q1022 RMK     1CU030 A3021=,
20180130_200000.000,0,RJNA,,,,0,20180130200000,-1,-1,-1,-1,999,-1,2,-1,-1,-1,-1,,9999,0,0,1,FEW 30,-1,0,-1,2,1023,RJNA 302000Z VRB02KT 9999 FEW030 M00/M02 Q1023 RMK 1CU030     A3021=,
20180130_200000.002,0,RJNA,,,,0,20180130200000,-1,-1,-1,-1,999,-1,2,-1,-1,-1,-1,,9999,0,0,1,FEW 30,-1,0,-1,2,1023,RJNA 302000Z VRB02KT 9999 FEW030 M00/M02 Q1023 RMK 1CU030     A3021=,
20180130_210000.000,0,RJNA,,,,0,20180130210000,-1,-1,-1,-1,999,-1,1,-1,-1,-1,-1,,9999,0,0,1,FEW 30,-1,1,-1,2,1023,RJNA 302100Z VRB01KT 9999 FEW030 M01/M02 Q1023 RMK 1CU030 A3022     06/M02 R000 S000=,
20180130_210000.002,0,RJNA,,,,0,20180130210000,-1,-1,-1,-1,999,-1,1,-1,-1,-1,-1,,9999,0,0,1,FEW 30,-1,1,-1,2,1023,RJNA 302100Z VRB01KT 9999 FEW030 M01/M02 Q1023 RMK 1CU030     A3022 06/M02 R000 S000=,
20180130_220000.000,0,RJNA,,,,0,20180130220000,-1,-1,-1,-1,999,-1,2,-1,-1,-1,-1,,9999,0,0,1,FEW 30,-1,2,-1,3,1024,RJNA 302200Z VRB02KT 9999 FEW030 M02/M03 Q1024 RMK 1CU030     A3024=,
20180130_220000.002,0,RJNA,,,,0,20180130220000,-1,-1,-1,-1,999,-1,2,-1,-1,-1,-1,,9999,0,0,1,FEW 30,-1,2,-1,3,1024,RJNA 302200Z VRB02KT 9999 FEW030 M02/M03 Q1024 RMK 1CU030     A3024=,
20180130_230000.000,0,RJNA,,,,0,20180130230000,-1,-1,-1,-1,999,-1,1,-1,-1,-1,-1,,9999,0,0,1,FEW 30,-1,1,-1,3,1025,RJNA 302300Z VRB01KT 9999 FEW030 M01/M03 Q1025 RMK 1CU030     A3027=,
20180130_230000.002,0,RJNA,,,,0,20180130230000,-1,-1,-1,-1,999,-1,1,-1,-1,-1,-1,,9999,0,0,1,FEW 30,-1,1,-1,3,1025,RJNA 302300Z VRB01KT 9999 FEW030 M01/M03 Q1025 RMK 1CU030     A3027=,
20180131_000000.000,0,RJNA,,,,0,20180131000000,-1,-1,-1,-1,999,-1,2,-1,-1,-1,-1,,9999,0,0,1,FEW 30,1,2,-1,2,1026,RJNA 310000Z VRB02KT 9999 FEW030 02/M02 Q1026 RMK 1CU030 A3031=,
20180131_000000.002,0,RJNA,,,,0,20180131000000,-1,-1,-1,-1,999,-1,2,-1,-1,-1,-1,,9999,0,0,1,FEW 30,1,2,-1,2,1026,RJNA 310000Z VRB02KT 9999 FEW030 02/M02 Q1026 RMK 1CU030     A3031=,
20180131_010000.000,0,RJNA,,,,0,20180131010000,-1,-1,-1,-1,340,-1,3,-1,-1,260,30,,9999,0,0,2,FEW 30   SCT 230,1,4,-1,1,1026,RJNA 310100Z 34003KT 260V030 9999 FEW030 SCT230 04/M01 Q1026     RMK 1CU030 A3030=,
20180131_010000.002,0,RJNA,,,,0,20180131010000,-1,-1,-1,-1,340,-1,3,-1,-1,260,30,,9999,0,0,2,FEW 30   SCT 230,1,4,-1,1,1026,RJNA 310100Z 34003KT 260V030 9999 FEW030 SCT230 04/M01 Q1026     RMK 1CU030 A3030=,
20180131_020000.000,0,RJNA,,,,0,20180131020000,-1,-1,-1,-1,320,-1,7,-1,-1,290,360,,9999,0,0,2,FEW 30   SCT 230,1,5,-1,3,1025,RJNA 310200Z 32007KT 290V360 9999 FEW030 SCT230 05/M03 Q1025     RMK 1CU030 A3028=,
20180131_020000.002,0,RJNA,,,,0,20180131020000,-1,-1,-1,-1,320,-1,7,-1,-1,290,360,,9999,0,0,2,FEW 30   SCT 230,1,5,-1,3,1025,RJNA 310200Z 32007KT 290V360 9999 FEW030 SCT230 05/M03 Q1025     RMK 1CU030 A3028=,
20180131_030000.000,0,RJNA,,,,0,20180131030000,-1,-1,-1,-1,350,-1,6,-1,-1,280,40,,9999,0,0,2,FEW 30   BKN 230,1,6,-1,4,1024,RJNA 310300Z 35006KT 280V040 9999 FEW030 BKN230 06/M04 Q1024     RMK 1CU030 A3025=,
20180131_030000.002,0,RJNA,,,,0,20180131030000,-1,-1,-1,-1,350,-1,6,-1,-1,280,40,,9999,0,0,2,FEW 30   BKN 230,1,6,-1,4,1024,RJNA 310300Z 35006KT 280V040 9999 FEW030 BKN230 06/M04 Q1024     RMK 1CU030 A3025=,
20180131_040000.000,0,RJNA,,,,0,20180131040000,-1,-1,-1,-1,320,-1,9,-1,-1,-1,-1,,9999,0,0,2,FEW 30   BKN 230,1,7,-1,4,1023,RJNA 310400Z 32009KT 9999 FEW030 BKN230 07/M04 Q1023 RMK 1CU030     A3022=,
20180131_040000.002,0,RJNA,,,,0,20180131040000,-1,-1,-1,-1,320,-1,9,-1,-1,-1,-1,,9999,0,0,2,FEW 30   BKN 230,1,7,-1,4,1023,RJNA 310400Z 32009KT 9999 FEW030 BKN230 07/M04 Q1023 RMK     1CU030 A3022=,
20180131_050000.000,0,RJNA,,,,0,20180131050000,-1,-1,-1,-1,310,-1,9,-1,-1,270,340,,9999,0,0,3,FEW 30   SCT 50   BKN 230,1,7,-1,5,1023,RJNA 310500Z 31009KT 270V340 9999 FEW030 SCT050 BKN230 07/M05     Q1023 RMK 1CU030 3SC050 A3023=,
20180131_050000.002,0,RJNA,,,,0,20180131050000,-1,-1,-1,-1,310,-1,9,-1,-1,270,340,,9999,0,0,3,FEW 30   SCT 50   BKN 230,1,7,-1,5,1023,RJNA 310500Z 31009KT 270V340 9999 FEW030 SCT050 BKN230 07/M05     Q1023 RMK 1CU030 3SC050 A3023=,
20180131_060000.000,0,RJNA,,,,0,20180131060000,-1,-1,-1,-1,290,-1,10,-1,-1,260,320,,9999,0,0,3,FEW 30   SCT 180   BKN 230,1,7,-1,4,1023,RJNA 310600Z 29010KT 260V320 9999 FEW030 SCT180 BKN230 07/M04     Q1023 RMK 1CU030 3AC180 A3022=,
20180131_060000.002,0,RJNA,,,,0,20180131060000,-1,-1,-1,-1,290,-1,10,-1,-1,260,320,,9999,0,0,3,FEW 30   SCT 180   BKN 230,1,7,-1,4,1023,RJNA 310600Z 29010KT 260V320 9999 FEW030 SCT180 BKN230 07/M04     Q1023 RMK 1CU030 3AC180 A3022=,
20180131_070000.000,0,RJNA,,,,0,20180131070000,-1,-1,-1,-1,320,-1,9,-1,-1,260,350,,9999,0,0,3,FEW 30   SCT 180   BKN 230,1,7,-1,4,1022,RJNA 310700Z 32009KT 260V350 9999 FEW030 SCT180 BKN230 07/M04     Q1022 RMK 1CU030 4AC180 A3020=,
20180131_070000.003,0,RJNA,,,,0,20180131070000,-1,-1,-1,-1,320,-1,9,-1,-1,260,350,,9999,0,0,3,FEW 30   SCT 180   BKN 230,1,7,-1,4,1022,RJNA 310700Z 32009KT 260V350 9999 FEW030 SCT180 BKN230 07/M04     Q1022 RMK 1CU030 4AC180 A3020=,
20180131_080000.000,0,RJNA,,,,0,20180131080000,-1,-1,-1,-1,320,-1,9,-1,-1,-1,-1,,9999,0,0,2,FEW 30   BKN 230,1,6,-1,3,1022,RJNA 310800Z 32009KT 9999 FEW030 BKN230 06/M03 Q1022 RMK 1CU030     A3021=,
20180131_080000.003,0,RJNA,,,,0,20180131080000,-1,-1,-1,-1,320,-1,9,-1,-1,-1,-1,,9999,0,0,2,FEW 30   BKN 230,1,6,-1,3,1022,RJNA 310800Z 32009KT 9999 FEW030 BKN230 06/M03 Q1022 RMK     1CU030 A3021=,
20180131_090000.000,0,RJNA,,,,0,20180131090000,-1,-1,-1,-1,310,-1,9,-1,-1,-1,-1,,9999,0,0,2,FEW 30   BKN -9999,1,6,-1,3,1023,RJNA 310900Z 31009KT 9999 FEW030 BKN/// 06/M03 Q1023 RMK 1CU030     A3023=,
20180131_090000.002,0,RJNA,,,,0,20180131090000,-1,-1,-1,-1,310,-1,9,-1,-1,-1,-1,,9999,0,0,2,FEW 30   BKN -9999,1,6,-1,3,1023,RJNA 310900Z 31009KT 9999 FEW030 BKN/// 06/M03 Q1023 RMK     1CU030 A3023=,
20180131_100000.000,0,RJNA,,,,0,20180131100000,-1,-1,-1,-1,300,-1,4,-1,-1,-1,-1,,9999,0,0,2,FEW 30   BKN -9999,1,5,-1,2,1024,RJNA 311000Z 30004KT 9999 FEW030 BKN/// 05/M02 Q1024 RMK 1CU030     A3024=,
20180131_100000.002,0,RJNA,,,,0,20180131100000,-1,-1,-1,-1,300,-1,4,-1,-1,-1,-1,,9999,0,0,2,FEW 30   BKN -9999,1,5,-1,2,1024,RJNA 311000Z 30004KT 9999 FEW030 BKN/// 05/M02 Q1024 RMK     1CU030 A3024=,
20180131_110000.000,0,RJNA,,,,0,20180131110000,-1,-1,-1,-1,999,-1,2,-1,-1,-1,-1,,9999,0,0,3,FEW 30   SCT 150   BKN -9999,1,4,-1,2,1024,RJNA 311100Z VRB02KT 9999 FEW030 SCT150 BKN/// 04/M02 Q1024 RMK     1CU030 3AC150 A3024=,
20180131_110000.002,0,RJNA,,,,0,20180131110000,-1,-1,-1,-1,999,-1,2,-1,-1,-1,-1,,9999,0,0,3,FEW 30   SCT 150   BKN -9999,1,4,-1,2,1024,RJNA 311100Z VRB02KT 9999 FEW030 SCT150 BKN/// 04/M02 Q1024     RMK 1CU030 3AC150 A3024=,
20180131_120000.000,0,RJNA,,,,0,20180131120000,-1,-1,-1,-1,60,-1,3,-1,-1,-1,-1,,9999,0,0,3,FEW 30   SCT 150   BKN -9999,1,4,-1,1,1024,RJNA 311200Z 06003KT 9999 FEW030 SCT150 BKN/// 04/M01 Q1024 RMK     1CU030 3AC150 A3024=,
20180131_120000.002,0,RJNA,,,,0,20180131120000,-1,-1,-1,-1,60,-1,3,-1,-1,-1,-1,,9999,0,0,3,FEW 30   SCT 150   BKN -9999,1,4,-1,1,1024,RJNA 311200Z 06003KT 9999 FEW030 SCT150 BKN/// 04/M01 Q1024     RMK 1CU030 3AC150 A3024=,
20180131_130000.000,0,RJNA,,,,0,20180131130000,-1,-1,-1,-1,999,-1,2,-1,-1,-1,-1,,9999,0,0,3,FEW 30   SCT 50   BKN -9999,1,2,-1,2,1022,RJNA 311300Z VRB02KT 9999 FEW030 SCT050 BKN/// 02/M02 Q1022 RMK     1CU030 4SC050 A3020=,
20180131_130000.003,0,RJNA,,,,0,20180131130000,-1,-1,-1,-1,999,-1,2,-1,-1,-1,-1,,9999,0,0,3,FEW 30   SCT 50   BKN -9999,1,2,-1,2,1022,RJNA 311300Z VRB02KT 9999 FEW030 SCT050 BKN/// 02/M02 Q1022     RMK 1CU030 4SC050 A3020=,
20180131_140000.000,0,RJNA,,,,0,20180131140000,-1,-1,-1,-1,310,-1,3,-1,-1,270,350,,9999,0,0,3,FEW 30   BKN 130   BKN -9999,1,4,-1,1,1023,RJNA 311400Z 31003KT 270V350 9999 FEW030 BKN130 BKN/// 04/M01     Q1023 RMK 1CU030 6AC130 A3023=,
20180131_140000.002,0,RJNA,,,,0,20180131140000,-1,-1,-1,-1,310,-1,3,-1,-1,270,350,,9999,0,0,3,FEW 30   BKN 130   BKN -9999,1,4,-1,1,1023,RJNA 311400Z 31003KT 270V350 9999 FEW030 BKN130 BKN/// 04/M01     Q1023 RMK 1CU030 6AC130 A3023=,
20180131_150000.000,0,RJNA,,,,0,20180131150000,-1,-1,-1,-1,340,-1,4,-1,-1,-1,-1,,9999,0,0,3,FEW 30   SCT 50   BKN 120,1,3,-1,1,1024,RJNA 311500Z 34004KT 9999 FEW030 SCT050 BKN120 03/M01 Q1024 RMK     1CU030 4SC050 6AC120 A3025=,
20180131_150000.002,0,RJNA,,,,0,20180131150000,-1,-1,-1,-1,340,-1,4,-1,-1,-1,-1,,9999,0,0,3,FEW 30   SCT 50   BKN 120,1,3,-1,1,1024,RJNA 311500Z 34004KT 9999 FEW030 SCT050 BKN120 03/M01 Q1024     RMK 1CU030 4SC050 6AC120 A3025=,
20180131_160000.000,0,RJNA,,,,0,20180131160000,-1,-1,-1,-1,50,-1,2,-1,-1,-1,-1,,9999,0,0,3,FEW 30   BKN 120   BKN -9999,1,3,-1,1,1023,RJNA 311600Z 05002KT 9999 FEW030 BKN120 BKN/// 03/M01 Q1023 RMK     1CU030 5AC120 A3021=,
20180131_160000.002,0,RJNA,,,,0,20180131160000,-1,-1,-1,-1,50,-1,2,-1,-1,-1,-1,,9999,0,0,3,FEW 30   BKN 120   BKN -9999,1,3,-1,1,1023,RJNA 311600Z 05002KT 9999 FEW030 BKN120 BKN/// 03/M01 Q1023     RMK 1CU030 5AC120 A3021=,
20180131_170000.000,0,RJNA,,,,0,20180131170000,-1,-1,-1,-1,999,-1,1,-1,-1,-1,-1,,9999,0,0,2,FEW 30   BKN 100,1,3,-1,1,1023,RJNA 311700Z VRB01KT 9999 FEW030 BKN100 03/M01 Q1023 RMK 1CU030     7AC100 A3023=,
20180131_170000.002,0,RJNA,,,,0,20180131170000,-1,-1,-1,-1,999,-1,1,-1,-1,-1,-1,,9999,0,0,2,FEW 30   BKN 100,1,3,-1,1,1023,RJNA 311700Z VRB01KT 9999 FEW030 BKN100 03/M01 Q1023 RMK     1CU030 7AC100 A3023=,
20180131_180000.000,0,RJNA,,,,0,20180131180000,-1,-1,-1,-1,190,-1,3,-1,-1,-1,-1,,9999,0,0,2,FEW 30   BKN 80,1,3,-1,1,1023,RJNA 311800Z 19003KT 9999 FEW030 BKN080 03/M01 Q1023 RMK 1CU030     7AC080 A3022=,
20180131_180000.002,0,RJNA,,,,0,20180131180000,-1,-1,-1,-1,190,-1,3,-1,-1,-1,-1,,9999,0,0,2,FEW 30   BKN 80,1,3,-1,1,1023,RJNA 311800Z 19003KT 9999 FEW030 BKN080 03/M01 Q1023 RMK     1CU030 7AC080 A3022=,
20180131_190000.000,0,RJNA,,,,0,20180131190000,-1,-1,-1,-1,20,-1,1,-1,-1,-1,-1,,9999,0,0,3,FEW 30   BKN 80   BKN 100,1,3,-1,1,1023,RJNA 311900Z 02001KT 9999 FEW030 BKN080 BKN100 03/M01 Q1023 RMK     1CU030 5AC080 6AC100 A3022=,
20180131_190000.003,0,RJNA,,,,0,20180131190000,-1,-1,-1,-1,20,-1,1,-1,-1,-1,-1,,9999,0,0,3,FEW 30   BKN 80   BKN 100,1,3,-1,1,1023,RJNA 311900Z 02001KT 9999 FEW030 BKN080 BKN100 03/M01 Q1023     RMK 1CU030 5AC080 6AC100 A3022=,
20180131_200000.000,0,RJNA,,,,0,20180131200000,-1,-1,-1,-1,50,-1,2,-1,-1,-1,-1,,9999,0,0,3,FEW 30   SCT 60   BKN 100,1,3,-1,1,1022,RJNA 312000Z 05002KT 9999 FEW030 SCT060 BKN100 03/M01 Q1022 RMK     1CU030 4SC060 7AC100 A3021=,
20180131_200000.003,0,RJNA,,,,0,20180131200000,-1,-1,-1,-1,50,-1,2,-1,-1,-1,-1,,9999,0,0,3,FEW 30   SCT 60   BKN 100,1,3,-1,1,1022,RJNA 312000Z 05002KT 9999 FEW030 SCT060 BKN100 03/M01 Q1022     RMK 1CU030 4SC060 7AC100 A3021=,
20180131_210000.000,0,RJNA,,,,0,20180131210000,-1,-1,-1,-1,999,-1,1,-1,-1,-1,-1,,9999,0,0,2,FEW 30   BKN 70,1,2,-1,1,1022,RJNA 312100Z VRB01KT 9999 FEW030 BKN070 02/M01 Q1022 RMK 1CU030     7AC070 A3021 08/01=,
20180131_210000.002,0,RJNA,,,,0,20180131210000,-1,-1,-1,-1,999,-1,1,-1,-1,-1,-1,,9999,0,0,2,FEW 30   BKN 70,1,2,-1,1,1022,RJNA 312100Z VRB01KT 9999 FEW030 BKN070 02/M01 Q1022 RMK     1CU030 7AC070 A3021 08/01=,
20180131_220000.000,0,RJNA,,,,0,20180131220000,-1,-1,-1,-1,70,-1,2,-1,-1,-1,-1,,9999,0,0,3,FEW 30   SCT 50   BKN 70,1,3,-1,1,1023,RJNA 312200Z 07002KT 9999 FEW030 SCT050 BKN070 03/M01 Q1023 RMK     1CU030 3SC050 7AC070 A3023=,
20180131_220000.002,0,RJNA,,,,0,20180131220000,-1,-1,-1,-1,70,-1,2,-1,-1,-1,-1,,9999,0,0,3,FEW 30   SCT 50   BKN 70,1,3,-1,1,1023,RJNA 312200Z 07002KT 9999 FEW030 SCT050 BKN070 03/M01 Q1023     RMK 1CU030 3SC050 7AC070 A3023=,
20180131_230000.000,0,RJNA,,,,0,20180131230000,-1,-1,-1,-1,0,-1,0,-1,-1,-1,-1,,9999,0,0,3,FEW 30   SCT 50   BKN 70,1,3,-1,0,1024,RJNA 312300Z 00000KT 9999 FEW030 SCT050 BKN070 03/M00 Q1024 RMK     1CU030 3SC050 7AC070 A3025=,
20180131_230000.002,0,RJNA,,,,0,20180131230000,-1,-1,-1,-1,0,-1,0,-1,-1,-1,-1,,9999,0,0,3,FEW 30   SCT 50   BKN 70,1,3,-1,0,1024,RJNA 312300Z 00000KT 9999 FEW030 SCT050 BKN070 03/M00 Q1024     RMK 1CU030 3SC050 7AC070 A3025=,
20180201_000000.000,0,RJNA,,,,0,20180201000000,-1,-1,-1,-1,360,-1,3,-1,-1,300,80,,9999,0,0,3,FEW 30   SCT 50   BKN 80,1,4,1,0,1024,RJNA 010000Z 36003KT 300V080 9999 FEW030 SCT050 BKN080 04/00     Q1024 RMK 1CU030 3SC050 7AC080 A3026=,
20180201_000000.003,0,RJNA,,,,0,20180201000000,-1,-1,-1,-1,360,-1,3,-1,-1,300,80,,9999,0,0,3,FEW 30   SCT 50   BKN 80,1,4,1,0,1024,RJNA 010000Z 36003KT 300V080 9999 FEW030 SCT050 BKN080 04/00     Q1024 RMK 1CU030 3SC050 7AC080 A3026=,
20180201_010000.000,0,RJNA,,,,0,20180201010000,-1,-1,-1,-1,360,-1,6,-1,-1,-1,-1,,9999,0,0,2,FEW 30   BKN 80,1,5,1,0,1024,RJNA 010100Z 36006KT 9999 FEW030 BKN080 05/00 Q1024 RMK 1CU030     7AC080 A3025=,
20180201_010000.002,0,RJNA,,,,0,20180201010000,-1,-1,-1,-1,360,-1,6,-1,-1,-1,-1,,9999,0,0,2,FEW 30   BKN 80,1,5,1,0,1024,RJNA 010100Z 36006KT 9999 FEW030 BKN080 05/00 Q1024 RMK 1CU030     7AC080 A3025=,
20180201_020000.000,0,RJNA,,,,0,20180201020000,-1,-1,-1,-1,340,-1,6,-1,-1,300,360,,9999,0,0,2,FEW 30   BKN 70,1,5,1,0,1024,RJNA 010200Z 34006KT 300V360 9999 FEW030 BKN070 05/00 Q1024 RMK     1CU030 7AC070 A3024=,
20180201_020000.002,0,RJNA,,,,0,20180201020000,-1,-1,-1,-1,340,-1,6,-1,-1,300,360,,9999,0,0,2,FEW 30   BKN 70,1,5,1,0,1024,RJNA 010200Z 34006KT 300V360 9999 FEW030 BKN070 05/00 Q1024     RMK 1CU030 7AC070 A3024=,
20180201_030000.000,0,RJNA,,,,0,20180201030000,-1,-1,-1,-1,999,-1,1,-1,-1,-1,-1,,9999,0,0,3,FEW 30   BKN 100   BKN 200,1,6,-1,0,1022,RJNA 010300Z VRB01KT 9999 FEW030 BKN100 BKN200 06/M00 Q1022 RMK     1CU030 6AC100 A3021=,
20180201_030000.003,0,RJNA,,,,0,20180201030000,-1,-1,-1,-1,999,-1,1,-1,-1,-1,-1,,9999,0,0,3,FEW 30   BKN 100   BKN 200,1,6,-1,0,1022,RJNA 010300Z VRB01KT 9999 FEW030 BKN100 BKN200 06/M00 Q1022     RMK 1CU030 6AC100 A3021=,
20180201_040000.000,0,RJNA,,,,0,20180201040000,-1,-1,-1,-1,340,-1,3,-1,-1,290,20,,9999,0,0,2,FEW 30   BKN 100,1,6,-1,1,1022,RJNA 010400Z 34003KT 290V020 9999 FEW030 BKN100 06/M01 Q1022     RMK 1CU030 7AS100 A3019=,
20180201_040000.001,2,RJNA,,,,0,20180201040000,-1,-1,-1,-1,340,-1,3,-1,-1,290,20,,9999,0,0,2,FEW 30   BKN 100,1,6,-1,1,1022,RJNA 010400Z 34003KT 290V020 9999 FEW030 BKN100 06/M01     Q1022 RMK 1CU030 7AS100 A3019=,
20180201_040000.003,0,RJNA,,,,0,20180201040000,-1,-1,-1,-1,340,-1,3,-1,-1,290,20,,9999,0,0,2,FEW 30   BKN 100,1,6,-1,1,1022,RJNA 010400Z 34003KT 290V020 9999 FEW030 BKN100 06/M01     Q1022 RMK 1CU030 7AS100 A3019=,
20180201_050000.000,0,RJNA,,,,0,20180201050000,-1,-1,-1,-1,330,-1,4,-1,-1,280,30,,9999,0,0,3,FEW 30   BKN 80   BKN 120,1,6,-1,0,1021,RJNA 010500Z 33004KT 280V030 9999 FEW030 BKN080 BKN120 06/M00     Q1021 RMK 1CU030 6AC080 7AS120 A3018=,
20180201_050000.002,0,RJNA,,,,0,20180201050000,-1,-1,-1,-1,330,-1,4,-1,-1,280,30,,9999,0,0,3,FEW 30   BKN 80   BKN 120,1,6,-1,0,1021,RJNA 010500Z 33004KT 280V030 9999 FEW030 BKN080 BKN120 06/M00     Q1021 RMK 1CU030 6AC080 7AS120 A3018=,
20180201_060000.000,0,RJNA,,,,0,20180201060000,-1,-1,-1,-1,999,-1,2,-1,-1,-1,-1,,9999,0,0,3,FEW 30   BKN 50   BKN 80,1,7,-1,0,1021,RJNA 010600Z VRB02KT 9999 FEW030 BKN050 BKN080 07/M00 Q1021 RMK     1CU030 6SC050 7AS080 A3017=,
20180201_060000.002,0,RJNA,,,,0,20180201060000,-1,-1,-1,-1,999,-1,2,-1,-1,-1,-1,,9999,0,0,3,FEW 30   BKN 50   BKN 80,1,7,-1,0,1021,RJNA 010600Z VRB02KT 9999 FEW030 BKN050 BKN080 07/M00 Q1021     RMK 1CU030 6SC050 7AS080 A3017=,
20180201_070000.000,0,RJNA,,,,0,20180201070000,-1,-1,-1,-1,310,-1,4,-1,-1,280,360,,9999,0,1,3,FEW 30   BKN 45   BKN 80,1,6,-1,0,1022,RJNA 010700Z 31004KT 280V360 9999 -RA FEW030 BKN045 BKN080     06/M00 Q1022 RMK 1CU030 6SC045 7AS080 A3018=,- RA
20180201_070000.002,0,RJNA,,,,0,20180201070000,-1,-1,-1,-1,310,-1,4,-1,-1,280,360,,9999,0,1,3,FEW 30   BKN 45   BKN 80,1,6,-1,0,1022,RJNA 010700Z 31004KT 280V360 9999 -RA FEW030 BKN045 BKN080     06/M00 Q1022 RMK 1CU030 6SC045 7AS080 A3018=,- RA
20180201_080000.000,0,RJNA,,,,0,20180201080000,-1,-1,-1,-1,999,-1,2,-1,-1,-1,-1,,9999,0,1,2,FEW 30   BKN 50,1,6,1,0,1022,RJNA 010800Z VRB02KT 9999 -RA FEW030 BKN050 06/00 Q1022 RMK     1CU030 7SC050 A3019=,- RA
20180201_080000.002,0,RJNA,,,,0,20180201080000,-1,-1,-1,-1,999,-1,2,-1,-1,-1,-1,,9999,0,1,2,FEW 30   BKN 50,1,6,1,0,1022,RJNA 010800Z VRB02KT 9999 -RA FEW030 BKN050 06/00 Q1022 RMK     1CU030 7SC050 A3019=,- RA
20180201_090000.000,0,RJNA,,,,0,20180201090000,-1,-1,-1,-1,100,-1,3,-1,-1,60,120,,9999,0,1,3,FEW 25   BKN 30   BKN 40,1,5,1,1,1022,RJNA 010900Z 10003KT 060V120 9999 -RA FEW025 BKN030 BKN040     05/01 Q1022 RMK 2SC025 5SC030 7SC040 A3021=,- RA
20180201_090000.002,0,RJNA,,,,0,20180201090000,-1,-1,-1,-1,100,-1,3,-1,-1,60,120,,9999,0,1,3,FEW 25   BKN 30   BKN 40,1,5,1,1,1022,RJNA 010900Z 10003KT 060V120 9999 -RA FEW025 BKN030 BKN040     05/01 Q1022 RMK 2SC025 5SC030 7SC040 A3021=,- RA
20180201_100000.000,0,RJNA,,,,0,20180201100000,-1,-1,-1,-1,999,-1,2,-1,-1,-1,-1,,9999,0,1,3,FEW 15   BKN 20   BKN 30,1,4,1,1,1023,RJNA 011000Z VRB02KT 9999 -RA FEW015 BKN020 BKN030 04/01 Q1023     RMK 1SC015 5SC020 7SC030 A3022=,- RA
20180201_100000.002,0,RJNA,,,,0,20180201100000,-1,-1,-1,-1,999,-1,2,-1,-1,-1,-1,,9999,0,1,3,FEW 15   BKN 20   BKN 30,1,4,1,1,1023,RJNA 011000Z VRB02KT 9999 -RA FEW015 BKN020 BKN030 04/01 Q1023     RMK 1SC015 5SC020 7SC030 A3022=,- RA
20180201_100000.005,2,RJNA,,,,0,20180201100000,-1,-1,-1,-1,999,-1,2,-1,-1,-1,-1,,9999,0,1,3,FEW 15   BKN 20   BKN 30,1,4,1,1,1023,RJNA 011000Z VRB02KT 9999 -RA FEW015 BKN020 BKN030 04/01     Q1023 RMK 1SC015 5SC020 7SC030 A3022=,- RA
20180201_100000.007,1,RJNA,,,,0,20180201100000,-1,-1,-1,-1,999,-1,2,-1,-1,-1,-1,,9999,0,1,3,FEW 15   BKN 20   BKN 30,1,4,1,1,1023,RJNA 011000Z VRB02KT 9999 -RA FEW015 BKN020 BKN030 04/01     Q1023 RMK 1SC015 5SC020 7SC030 A3022=,- RA
20180201_110000.000,0,RJNA,,,,0,20180201110000,-1,-1,-1,-1,40,-1,4,-1,-1,-1,-1,,9999,0,1,3,FEW 15   SCT 30   BKN 40,1,4,1,2,1023,RJNA 011100Z 04004KT 9999 -RA FEW015 SCT030 BKN040 04/02 Q1023     RMK 1SC015 4SC030 7SC040 A3023=,- RA
20180201_110000.002,0,RJNA,,,,0,20180201110000,-1,-1,-1,-1,40,-1,4,-1,-1,-1,-1,,9999,0,1,3,FEW 15   SCT 30   BKN 40,1,4,1,2,1023,RJNA 011100Z 04004KT 9999 -RA FEW015 SCT030 BKN040 04/02 Q1023     RMK 1SC015 4SC030 7SC040 A3023=,- RA
20180201_120000.000,0,RJNA,,,,0,20180201120000,-1,-1,-1,-1,999,-1,2,-1,-1,-1,-1,,9999,0,1,3,FEW 10   BKN 30   BKN 40,1,4,1,2,1024,RJNA 011200Z VRB02KT 9999 -RA FEW010 BKN030 BKN040 04/02 Q1024     RMK 1ST010 5SC030 7SC040 A3024=,- RA
20180201_120000.002,0,RJNA,,,,0,20180201120000,-1,-1,-1,-1,999,-1,2,-1,-1,-1,-1,,9999,0,1,3,FEW 10   BKN 30   BKN 40,1,4,1,2,1024,RJNA 011200Z VRB02KT 9999 -RA FEW010 BKN030 BKN040 04/02 Q1024     RMK 1ST010 5SC030 7SC040 A3024=,- RA
20180201_130000.000,0,RJNA,,,,0,20180201130000,-1,-1,-1,-1,360,-1,4,-1,-1,-1,-1,,9999,0,1,3,FEW 8   SCT 15   BKN 30,1,3,1,2,1023,RJNA 011300Z 36004KT 9999 -RA FEW008 SCT015 BKN030 03/02 Q1023     RMK 1ST008 3SC015 7SC030 A3024=,- RA
20180201_130000.002,0,RJNA,,,,0,20180201130000,-1,-1,-1,-1,360,-1,4,-1,-1,-1,-1,,9999,0,1,3,FEW 8   SCT 15   BKN 30,1,3,1,2,1023,RJNA 011300Z 36004KT 9999 -RA FEW008 SCT015 BKN030 03/02 Q1023     RMK 1ST008 3SC015 7SC030 A3024=,- RA
20180201_140000.000,0,RJNA,,,,0,20180201140000,-1,-1,-1,-1,340,-1,4,-1,-1,-1,-1,,9999,0,1,3,FEW 8   SCT 15   BKN 35,1,3,1,2,1023,RJNA 011400Z 34004KT 9999 -RA FEW008 SCT015 BKN035 03/02 Q1023     RMK 1ST008 3SC015 7SC035 A3022=,- RA
20180201_140000.002,0,RJNA,,,,0,20180201140000,-1,-1,-1,-1,340,-1,4,-1,-1,-1,-1,,9999,0,1,3,FEW 8   SCT 15   BKN 35,1,3,1,2,1023,RJNA 011400Z 34004KT 9999 -RA FEW008 SCT015 BKN035 03/02 Q1023     RMK 1ST008 3SC015 7SC035 A3022=,- RA
20180201_150000.000,0,RJNA,,,,0,20180201150000,-1,-1,-1,-1,360,-1,3,-1,-1,-1,-1,,9999,0,1,3,FEW 8   BKN 35   BKN 60,1,3,1,2,1022,RJNA 011500Z 36003KT 9999 -RA FEW008 BKN035 BKN060 03/02 Q1022     RMK 1ST008 5SC035 7SC060 A3020=,- RA
20180201_150000.002,0,RJNA,,,,0,20180201150000,-1,-1,-1,-1,360,-1,3,-1,-1,-1,-1,,9999,0,1,3,FEW 8   BKN 35   BKN 60,1,3,1,2,1022,RJNA 011500Z 36003KT 9999 -RA FEW008 BKN035 BKN060 03/02 Q1022     RMK 1ST008 5SC035 7SC060 A3020=,- RA
20180201_160000.000,0,RJNA,,,,0,20180201160000,-1,-1,-1,-1,350,-1,6,-1,-1,-1,-1,,9999,0,1,3,FEW 8   BKN 40   BKN 60,1,3,1,2,1022,RJNA 011600Z 35006KT 9999 -RA FEW008 BKN040 BKN060 03/02 Q1022     RMK 1ST008 5SC040 7SC060 A3019=,- RA
20180201_160000.002,0,RJNA,,,,0,20180201160000,-1,-1,-1,-1,350,-1,6,-1,-1,-1,-1,,9999,0,1,3,FEW 8   BKN 40   BKN 60,1,3,1,2,1022,RJNA 011600Z 35006KT 9999 -RA FEW008 BKN040 BKN060 03/02 Q1022     RMK 1ST008 5SC040 7SC060 A3019=,- RA
20180201_170000.000,0,RJNA,,,,0,20180201170000,-1,-1,-1,-1,320,-1,7,-1,-1,-1,-1,,9999,0,1,3,FEW 8   BKN 40   BKN 60,1,4,1,2,1023,RJNA 011700Z 32007KT 9999 -RA FEW008 BKN040 BKN060 04/02 Q1023     RMK 1ST008 5SC040 7SC060 A3021=,- RA
20180201_170000.002,0,RJNA,,,,0,20180201170000,-1,-1,-1,-1,320,-1,7,-1,-1,-1,-1,,9999,0,1,3,FEW 8   BKN 40   BKN 60,1,4,1,2,1023,RJNA 011700Z 32007KT 9999 -RA FEW008 BKN040 BKN060 04/02 Q1023     RMK 1ST008 5SC040 7SC060 A3021=,- RA
20180201_180000.000,0,RJNA,,,,0,20180201180000,-1,-1,-1,-1,360,-1,5,-1,-1,-1,-1,,9999,0,0,3,FEW 8   SCT 40   BKN 60,1,3,1,2,1022,RJNA 011800Z 36005KT 9999 FEW008 SCT040 BKN060 03/02 Q1022 RMK     1ST008 4SC040 7SC060 A3019=,
20180201_180000.002,0,RJNA,,,,0,20180201180000,-1,-1,-1,-1,360,-1,5,-1,-1,-1,-1,,9999,0,0,3,FEW 8   SCT 40   BKN 60,1,3,1,2,1022,RJNA 011800Z 36005KT 9999 FEW008 SCT040 BKN060 03/02 Q1022 RMK     1ST008 4SC040 7SC060 A3019=,
20180201_190000.000,0,RJNA,,,,0,20180201190000,-1,-1,-1,-1,350,-1,4,-1,-1,-1,-1,,9999,0,0,3,FEW 8   SCT 40   BKN 60,1,3,1,2,1021,RJNA 011900Z 35004KT 9999 FEW008 SCT040 BKN060 03/02 Q1021 RMK     1ST008 3SC040 7SC060 A3018=,
20180201_190000.003,0,RJNA,,,,0,20180201190000,-1,-1,-1,-1,350,-1,4,-1,-1,-1,-1,,9999,0,0,3,FEW 8   SCT 40   BKN 60,1,3,1,2,1021,RJNA 011900Z 35004KT 9999 FEW008 SCT040 BKN060 03/02 Q1021 RMK     1ST008 3SC040 7SC060 A3018=,
20180201_200000.000,0,RJNA,,,,0,20180201200000,-1,-1,-1,-1,330,-1,4,-1,-1,-1,-1,,9999,0,1,3,FEW 10   SCT 40   BKN 60,1,3,1,2,1022,RJNA 012000Z 33004KT 9999 -RA FEW010 SCT040 BKN060 03/02 Q1022     RMK 1ST010 4SC040 6SC060 A3018=,- RA
20180201_200000.003,0,RJNA,,,,0,20180201200000,-1,-1,-1,-1,330,-1,4,-1,-1,-1,-1,,9999,0,1,3,FEW 10   SCT 40   BKN 60,1,3,1,2,1022,RJNA 012000Z 33004KT 9999 -RA FEW010 SCT040 BKN060 03/02 Q1022     RMK 1ST010 4SC040 6SC060 A3018=,- RA
20180201_210000.000,0,RJNA,,,,0,20180201210000,-1,-1,-1,-1,320,-1,5,-1,-1,-1,-1,,9999,0,0,2,FEW 20   SCT 60,1,3,1,1,1021,RJNA 012100Z 32005KT 9999 FEW020 SCT060 03/01 Q1021 RMK 1CU020     3SC060 A3018 07/02 R003=,
20180201_210000.002,0,RJNA,,,,0,20180201210000,-1,-1,-1,-1,320,-1,5,-1,-1,-1,-1,,9999,0,0,2,FEW 20   SCT 60,1,3,1,1,1021,RJNA 012100Z 32005KT 9999 FEW020 SCT060 03/01 Q1021 RMK 1CU020     3SC060 A3018 07/02 R003=,
20180201_220000.000,0,RJNA,,,,0,20180201220000,-1,-1,-1,-1,330,-1,4,-1,-1,-1,-1,,9999,0,0,2,FEW 20   SCT 60,1,2,1,1,1022,RJNA 012200Z 33004KT 9999 FEW020 SCT060 02/01 Q1022 RMK 1CU020     3SC060 A3018 VIS W-NW 7KM=,
20180201_220000.002,0,RJNA,,,,0,20180201220000,-1,-1,-1,-1,330,-1,4,-1,-1,-1,-1,,9999,0,0,2,FEW 20   SCT 60,1,2,1,1,1022,RJNA 012200Z 33004KT 9999 FEW020 SCT060 02/01 Q1022 RMK 1CU020     3SC060 A3018 VIS W-NW 7KM=,
20180201_230000.000,0,RJNA,,,,0,20180201230000,-1,-1,-1,-1,340,-1,4,-1,-1,300,10,,9999,0,0,2,FEW 20   SCT 60,1,2,1,1,1022,RJNA 012300Z 34004KT 300V010 9999 FEW020 SCT060 02/01 Q1022 RMK     1CU020 3SC060 A3020 VIS SW 8KM=,
20180201_230000.003,0,RJNA,,,,0,20180201230000,-1,-1,-1,-1,340,-1,4,-1,-1,300,10,,9999,0,0,2,FEW 20   SCT 60,1,2,1,1,1022,RJNA 012300Z 34004KT 300V010 9999 FEW020 SCT060 02/01 Q1022     RMK 1CU020 3SC060 A3020 VIS SW 8KM=,
20180202_000000.000,0,RJNA,,,,0,20180202000000,-1,-1,-1,-1,360,-1,5,-1,-1,330,30,,9999,0,0,1,FEW 20,1,4,1,2,1022,RJNA 020000Z 36005KT 330V030 9999 FEW020 04/02 Q1022 RMK 1CU020     A3019=,
20180202_000000.002,0,RJNA,,,,0,20180202000000,-1,-1,-1,-1,360,-1,5,-1,-1,330,30,,9999,0,0,1,FEW 20,1,4,1,2,1022,RJNA 020000Z 36005KT 330V030 9999 FEW020 04/02 Q1022 RMK     1CU020 A3019=,
20180202_010000.000,0,RJNA,,,,0,20180202010000,-1,-1,-1,-1,340,-1,4,-1,-1,310,10,,9999,0,0,2,FEW 20   BKN 220,1,5,1,1,1022,RJNA 020100Z 34004KT 310V010 9999 FEW020 BKN220 05/01 Q1022 RMK     1CU020 A3019=,
20180202_010000.002,0,RJNA,,,,0,20180202010000,-1,-1,-1,-1,340,-1,4,-1,-1,310,10,,9999,0,0,2,FEW 20   BKN 220,1,5,1,1,1022,RJNA 020100Z 34004KT 310V010 9999 FEW020 BKN220 05/01 Q1022     RMK 1CU020 A3019=,
20180202_020000.000,0,RJNA,,,,0,20180202020000,-1,-1,-1,-1,999,-1,3,-1,-1,-1,-1,,9999,0,0,2,FEW 20   SCT 230,1,6,-1,0,1022,RJNA 020200Z VRB03KT 9999 FEW020 SCT230 06/M00 Q1022 RMK 1CU020     A3019=,
20180202_020000.002,0,RJNA,,,,0,20180202020000,-1,-1,-1,-1,999,-1,3,-1,-1,-1,-1,,9999,0,0,2,FEW 20   SCT 230,1,6,-1,0,1022,RJNA 020200Z VRB03KT 9999 FEW020 SCT230 06/M00 Q1022 RMK     1CU020 A3019=,
20180202_030000.000,0,RJNA,,,,0,20180202030000,-1,-1,-1,-1,999,-1,2,-1,-1,-1,-1,,9999,0,0,2,FEW 30   SCT 230,1,7,-1,0,1021,RJNA 020300Z VRB02KT 9999 FEW030 SCT230 07/M00 Q1021 RMK 1CU030     A3016=,
20180202_030000.002,0,RJNA,,,,0,20180202030000,-1,-1,-1,-1,999,-1,2,-1,-1,-1,-1,,9999,0,0,2,FEW 30   SCT 230,1,7,-1,0,1021,RJNA 020300Z VRB02KT 9999 FEW030 SCT230 07/M00 Q1021 RMK     1CU030 A3016=,
20180202_040000.000,0,RJNA,,,,0,20180202040000,-1,-1,-1,-1,310,-1,3,-1,-1,260,360,,9999,0,0,2,FEW 30   BKN 230,1,8,1,0,1021,RJNA 020400Z 31003KT 260V360 9999 FEW030 BKN230 08/00 Q1021 RMK     1CU030 A3015=,
20180202_040000.002,0,RJNA,,,,0,20180202040000,-1,-1,-1,-1,310,-1,3,-1,-1,260,360,,9999,0,0,2,FEW 30   BKN 230,1,8,1,0,1021,RJNA 020400Z 31003KT 260V360 9999 FEW030 BKN230 08/00 Q1021     RMK 1CU030 A3015=,
20180202_050000.001,0,RJNA,,,,0,20180202050000,-1,-1,-1,-1,999,-1,3,-1,-1,-1,-1,,9999,0,0,3,FEW 30   SCT 150   BKN 230,1,9,1,0,1020,RJNA 020500Z VRB03KT 9999 FEW030 SCT150 BKN230 09/00 Q1020 RMK     1CU030 3AC150 A3014=,
20180202_060000.000,0,RJNA,,,,0,20180202060000,-1,-1,-1,-1,200,-1,3,-1,-1,140,230,,9999,0,0,3,FEW 30   SCT 150   BKN 230,1,9,1,1,1020,RJNA 020600Z 20003KT 140V230 9999 FEW030 SCT150 BKN230 09/01     Q1020 RMK 1CU030 3AC150 A3014=,
20180202_060000.002,0,RJNA,,,,0,20180202060000,-1,-1,-1,-1,200,-1,3,-1,-1,140,230,,9999,0,0,3,FEW 30   SCT 150   BKN 230,1,9,1,1,1020,RJNA 020600Z 20003KT 140V230 9999 FEW030 SCT150 BKN230 09/01     Q1020 RMK 1CU030 3AC150 A3014=,
20180202_070000.000,0,RJNA,,,,0,20180202070000,-1,-1,-1,-1,150,-1,3,-1,-1,110,200,,9999,0,0,3,FEW 30   BKN 150   BKN 230,1,9,1,1,1020,RJNA 020700Z 15003KT 110V200 9999 FEW030 BKN150 BKN230 09/01     Q1020 RMK 1CU030 5AC150 A3013=,
20180202_070000.002,0,RJNA,,,,0,20180202070000,-1,-1,-1,-1,150,-1,3,-1,-1,110,200,,9999,0,0,3,FEW 30   BKN 150   BKN 230,1,9,1,1,1020,RJNA 020700Z 15003KT 110V200 9999 FEW030 BKN150 BKN230 09/01     Q1020 RMK 1CU030 5AC150 A3013=,
20180202_080000.000,0,RJNA,,,,0,20180202080000,-1,-1,-1,-1,999,-1,2,-1,-1,-1,-1,,9999,0,0,3,FEW 30   BKN 180   BKN 230,1,8,-1,0,1020,RJNA 020800Z VRB02KT 9999 FEW030 BKN180 BKN230 08/M00 Q1020 RMK     1CU030 5AC180 A3013=,
20180202_080000.002,0,RJNA,,,,0,20180202080000,-1,-1,-1,-1,999,-1,2,-1,-1,-1,-1,,9999,0,0,3,FEW 30   BKN 180   BKN 230,1,8,-1,0,1020,RJNA 020800Z VRB02KT 9999 FEW030 BKN180 BKN230 08/M00 Q1020     RMK 1CU030 5AC180 A3013=,
20180202_090000.000,0,RJNA,,,,0,20180202090000,-1,-1,-1,-1,140,-1,4,-1,-1,-1,-1,,9999,0,0,3,FEW 30   SCT 170   BKN -9999,1,7,1,3,1020,RJNA 020900Z 14004KT 9999 FEW030 SCT170 BKN/// 07/03 Q1020 RMK     1CU030 4AC170 A3013=,
20180202_090000.002,0,RJNA,,,,0,20180202090000,-1,-1,-1,-1,140,-1,4,-1,-1,-1,-1,,9999,0,0,3,FEW 30   SCT 170   BKN -9999,1,7,1,3,1020,RJNA 020900Z 14004KT 9999 FEW030 SCT170 BKN/// 07/03 Q1020 RMK     1CU030 4AC170 A3013=,
20180202_100000.000,0,RJNA,,,,0,20180202100000,-1,-1,-1,-1,999,-1,2,-1,-1,-1,-1,,9999,0,0,3,FEW 30   BKN 140   BKN -9999,1,8,1,3,1020,RJNA 021000Z VRB02KT 9999 FEW030 BKN140 BKN/// 08/03 Q1020 RMK     1CU030 5AC140 A3014=,
20180202_100000.001,2,RJNA,,,,0,20180202100000,-1,-1,-1,-1,999,-1,2,-1,-1,-1,-1,,9999,0,0,3,FEW 30   BKN 140   BKN -9999,1,8,1,3,1020,RJNA 021000Z VRB02KT 9999 FEW030 BKN140 BKN/// 08/03 Q1020     RMK 1CU030 5AC140 A3014=,
20180202_100000.003,0,RJNA,,,,0,20180202100000,-1,-1,-1,-1,999,-1,2,-1,-1,-1,-1,,9999,0,0,3,FEW 30   BKN 140   BKN -9999,1,8,1,3,1020,RJNA 021000Z VRB02KT 9999 FEW030 BKN140 BKN/// 08/03 Q1020     RMK 1CU030 5AC140 A3014=,
20180202_110000.000,0,RJNA,,,,0,20180202110000,-1,-1,-1,-1,999,-1,1,-1,-1,-1,-1,,9999,0,0,3,FEW 15   BKN 130   BKN -9999,1,6,1,2,1020,RJNA 021100Z VRB01KT 9999 FEW015 BKN130 BKN/// 06/02 Q1020 RMK     1CU015 5AC130 A3014=,
20180202_110000.002,0,RJNA,,,,0,20180202110000,-1,-1,-1,-1,999,-1,1,-1,-1,-1,-1,,9999,0,0,3,FEW 15   BKN 130   BKN -9999,1,6,1,2,1020,RJNA 021100Z VRB01KT 9999 FEW015 BKN130 BKN/// 06/02 Q1020 RMK     1CU015 5AC130 A3014=,
20180202_120000.000,0,RJNA,,,,0,20180202120000,-1,-1,-1,-1,20,-1,3,-1,-1,340,100,,9999,0,0,3,FEW 40   BKN 130   BKN -9999,1,5,1,3,1020,RJNA 021200Z 02003KT 340V100 9999 FEW040 BKN130 BKN/// 05/03     Q1020 RMK 1SC040 5AC130 A3014=,
20180202_120000.002,0,RJNA,,,,0,20180202120000,-1,-1,-1,-1,20,-1,3,-1,-1,340,100,,9999,0,0,3,FEW 40   BKN 130   BKN -9999,1,5,1,3,1020,RJNA 021200Z 02003KT 340V100 9999 FEW040 BKN130 BKN/// 05/03     Q1020 RMK 1SC040 5AC130 A3014=,
20180202_130000.000,0,RJNA,,,,0,20180202130000,-1,-1,-1,-1,999,-1,2,-1,-1,-1,-1,,9999,0,0,3,FEW 30   BKN 130   BKN -9999,1,5,1,3,1019,RJNA 021300Z VRB02KT 9999 FEW030 BKN130 BKN/// 05/03 Q1019 RMK     1CU030 5AC130 A3012=,
20180202_130000.003,0,RJNA,,,,0,20180202130000,-1,-1,-1,-1,999,-1,2,-1,-1,-1,-1,,9999,0,0,3,FEW 30   BKN 130   BKN -9999,1,5,1,3,1019,RJNA 021300Z VRB02KT 9999 FEW030 BKN130 BKN/// 05/03 Q1019 RMK     1CU030 5AC130 A3012=,
20180202_140000.000,0,RJNA,,,,0,20180202140000,-1,-1,-1,-1,999,-1,2,-1,-1,-1,-1,,9999,0,0,3,FEW 30   BKN 130   BKN -9999,1,4,1,2,1019,RJNA 021400Z VRB02KT 9999 FEW030 BKN130 BKN/// 04/02 Q1019 RMK     1CU030 5AC130 A3011=,
20180202_140000.002,0,RJNA,,,,0,20180202140000,-1,-1,-1,-1,999,-1,2,-1,-1,-1,-1,,9999,0,0,3,FEW 30   BKN 130   BKN -9999,1,4,1,2,1019,RJNA 021400Z VRB02KT 9999 FEW030 BKN130 BKN/// 04/02 Q1019 RMK     1CU030 5AC130 A3011=,
20180202_150000.000,0,RJNA,,,,0,20180202150000,-1,-1,-1,-1,999,-1,2,-1,-1,-1,-1,,9999,0,0,3,FEW 30   SCT 70   BKN 130,1,4,1,3,1018,RJNA 021500Z VRB02KT 9999 FEW030 SCT070 BKN130 04/03 Q1018 RMK     1CU030 3AC070 5AC130 A3009=,
20180202_150000.002,0,RJNA,,,,0,20180202150000,-1,-1,-1,-1,999,-1,2,-1,-1,-1,-1,,9999,0,0,3,FEW 30   SCT 70   BKN 130,1,4,1,3,1018,RJNA 021500Z VRB02KT 9999 FEW030 SCT070 BKN130 04/03 Q1018 RMK     1CU030 3AC070 5AC130 A3009=,
20180202_160000.000,0,RJNA,,,,0,20180202160000,-1,-1,-1,-1,999,-1,2,-1,-1,-1,-1,,9999,0,0,3,FEW 30   SCT 70   BKN 130,1,4,1,3,1019,RJNA 021600Z VRB02KT 9999 FEW030 SCT070 BKN130 04/03 Q1019 RMK     1CU030 4AC070 7AC130 A3010=,
20180202_160000.002,0,RJNA,,,,0,20180202160000,-1,-1,-1,-1,999,-1,2,-1,-1,-1,-1,,9999,0,0,3,FEW 30   SCT 70   BKN 130,1,4,1,3,1019,RJNA 021600Z VRB02KT 9999 FEW030 SCT070 BKN130 04/03 Q1019 RMK     1CU030 4AC070 7AC130 A3010=,
20180202_170000.000,0,RJNA,,,,0,20180202170000,-1,-1,-1,-1,999,-1,2,-1,-1,-1,-1,,9999,0,0,3,FEW 30   SCT 70   BKN 130,1,5,1,3,1019,RJNA 021700Z VRB02KT 9999 FEW030 SCT070 BKN130 05/03 Q1019 RMK     1CU030 3AC070 5AC130 A3009=,
20180202_170000.002,0,RJNA,,,,0,20180202170000,-1,-1,-1,-1,999,-1,2,-1,-1,-1,-1,,9999,0,0,3,FEW 30   SCT 70   BKN 130,1,5,1,3,1019,RJNA 021700Z VRB02KT 9999 FEW030 SCT070 BKN130 05/03 Q1019 RMK     1CU030 3AC070 5AC130 A3009=,
20180202_180000.000,0,RJNA,,,,0,20180202180000,-1,-1,-1,-1,340,-1,3,-1,-1,-1,-1,,9999,0,0,3,FEW 20   SCT 130   BKN -9999,1,3,1,2,1018,RJNA 021800Z 34003KT 9999 FEW020 SCT130 BKN/// 03/02 Q1018 RMK     1CU020 4AC130 A3007=,
20180202_180000.003,0,RJNA,,,,0,20180202180000,-1,-1,-1,-1,340,-1,3,-1,-1,-1,-1,,9999,0,0,3,FEW 20   SCT 130   BKN -9999,1,3,1,2,1018,RJNA 021800Z 34003KT 9999 FEW020 SCT130 BKN/// 03/02 Q1018 RMK     1CU020 4AC130 A3007=,
20180202_190000.000,0,RJNA,,,,0,20180202190000,-1,-1,-1,-1,330,-1,5,-1,-1,-1,-1,,8000,0,0,3,FEW 30   SCT 130   BKN -9999,1,3,1,1,1017,RJNA 021900Z 33005KT 8000 FEW030 SCT130 BKN/// 03/01 Q1017 RMK     1CU030 3AC130 A3006=,
20180202_190000.003,0,RJNA,,,,0,20180202190000,-1,-1,-1,-1,330,-1,5,-1,-1,-1,-1,,8000,0,0,3,FEW 30   SCT 130   BKN -9999,1,3,1,1,1017,RJNA 021900Z 33005KT 8000 FEW030 SCT130 BKN/// 03/01 Q1017 RMK     1CU030 3AC130 A3006=,
20180202_200000.000,0,RJNA,,,,0,20180202200000,-1,-1,-1,-1,310,-1,7,-1,-1,-1,-1,,9999,0,0,3,FEW 30   SCT 50   BKN -9999,1,3,1,2,1017,RJNA 022000Z 31007KT 9999 FEW030 SCT050 BKN/// 03/02 Q1017 RMK     1CU030 3SC050 A3005=,
20180202_200000.003,0,RJNA,,,,0,20180202200000,-1,-1,-1,-1,310,-1,7,-1,-1,-1,-1,,9999,0,0,3,FEW 30   SCT 50   BKN -9999,1,3,1,2,1017,RJNA 022000Z 31007KT 9999 FEW030 SCT050 BKN/// 03/02 Q1017 RMK     1CU030 3SC050 A3005=,
20180202_210000.000,0,RJNA,,,,0,20180202210000,-1,-1,-1,-1,340,-1,3,-1,-1,-1,-1,,9999,0,0,2,FEW 30   SCT -9999,1,2,1,0,1017,RJNA 022100Z 34003KT 9999 FEW030 SCT/// 02/00 Q1017 RMK 1CU030     A3005 09/02=,
20180202_210000.002,0,RJNA,,,,0,20180202210000,-1,-1,-1,-1,340,-1,3,-1,-1,-1,-1,,9999,0,0,2,FEW 30   SCT -9999,1,2,1,0,1017,RJNA 022100Z 34003KT 9999 FEW030 SCT/// 02/00 Q1017 RMK 1CU030     A3005 09/02=,
20180202_220000.000,0,RJNA,,,,0,20180202220000,-1,-1,-1,-1,999,-1,1,-1,-1,-1,-1,,9999,0,0,2,FEW 30   SCT 230,1,2,1,1,1017,RJNA 022200Z VRB01KT 9999 FEW030 SCT230 02/01 Q1017 RMK 1CU030     A3005=,
20180202_220000.002,0,RJNA,,,,0,20180202220000,-1,-1,-1,-1,999,-1,1,-1,-1,-1,-1,,9999,0,0,2,FEW 30   SCT 230,1,2,1,1,1017,RJNA 022200Z VRB01KT 9999 FEW030 SCT230 02/01 Q1017 RMK 1CU030     A3005=,
20180202_230000.000,0,RJNA,,,,0,20180202230000,-1,-1,-1,-1,350,-1,2,-1,-1,-1,-1,,9999,0,0,2,FEW 30   BKN 230,1,3,1,1,1017,RJNA 022300Z 35002KT 9999 FEW030 BKN230 03/01 Q1017 RMK 1CU030     A3005=,
20180202_230000.003,0,RJNA,,,,0,20180202230000,-1,-1,-1,-1,350,-1,2,-1,-1,-1,-1,,9999,0,0,2,FEW 30   BKN 230,1,3,1,1,1017,RJNA 022300Z 35002KT 9999 FEW030 BKN230 03/01 Q1017 RMK 1CU030     A3005=,
20180203_000000.000,0,RJNA,,,,0,20180203000000,-1,-1,-1,-1,340,-1,6,-1,-1,310,10,,9999,0,0,2,FEW 30   BKN 230,1,5,1,2,1017,RJNA 030000Z 34006KT 310V010 9999 FEW030 BKN230 05/02 Q1017 RMK     1CU030 A3005=,
20180203_000000.002,0,RJNA,,,,0,20180203000000,-1,-1,-1,-1,340,-1,6,-1,-1,310,10,,9999,0,0,2,FEW 30   BKN 230,1,5,1,2,1017,RJNA 030000Z 34006KT 310V010 9999 FEW030 BKN230 05/02 Q1017     RMK 1CU030 A3005=,
20180203_010000.000,0,RJNA,,,,0,20180203010000,-1,-1,-1,-1,330,-1,5,-1,-1,300,360,,9999,0,0,2,FEW 30   BKN 250,1,6,1,1,1017,RJNA 030100Z 33005KT 300V360 9999 FEW030 BKN250 06/01 Q1017 RMK     1CU030 A3005=,
20180203_010000.003,0,RJNA,,,,0,20180203010000,-1,-1,-1,-1,330,-1,5,-1,-1,300,360,,9999,0,0,2,FEW 30   BKN 250,1,6,1,1,1017,RJNA 030100Z 33005KT 300V360 9999 FEW030 BKN250 06/01 Q1017     RMK 1CU030 A3005=,
20180203_020000.000,0,RJNA,,,,0,20180203020000,-1,-1,-1,-1,320,-1,5,-1,-1,260,10,,9999,0,0,2,FEW 30   BKN 230,1,8,1,1,1016,RJNA 030200Z 32005KT 260V010 9999 FEW030 BKN230 08/01 Q1016 RMK     1CU030 A3003=,
20180203_020000.002,0,RJNA,,,,0,20180203020000,-1,-1,-1,-1,320,-1,5,-1,-1,260,10,,9999,0,0,2,FEW 30   BKN 230,1,8,1,1,1016,RJNA 030200Z 32005KT 260V010 9999 FEW030 BKN230 08/01 Q1016     RMK 1CU030 A3003=,
20180203_030000.000,0,RJNA,,,,0,20180203030000,-1,-1,-1,-1,330,-1,8,-1,-1,300,10,,9999,0,0,2,FEW 30   BKN 230,1,9,1,0,1015,RJNA 030300Z 33008KT 300V010 9999 FEW030 BKN230 09/00 Q1015 RMK     1CU030 A2999=,
20180203_030000.002,0,RJNA,,,,0,20180203030000,-1,-1,-1,-1,330,-1,8,-1,-1,300,10,,9999,0,0,2,FEW 30   BKN 230,1,9,1,0,1015,RJNA 030300Z 33008KT 300V010 9999 FEW030 BKN230 09/00 Q1015     RMK 1CU030 A2999=,
20180203_040000.000,0,RJNA,,,,0,20180203040000,-1,-1,-1,-1,300,-1,13,-1,-1,-1,-1,,9999,0,0,3,FEW 30   SCT 40   BKN 230,1,10,1,1,1014,RJNA 030400Z 30013KT 9999 FEW030 SCT040 BKN230 10/01 Q1014 RMK     1CU030 4SC040 A2996=,
20180203_040000.002,0,RJNA,,,,0,20180203040000,-1,-1,-1,-1,300,-1,13,-1,-1,-1,-1,,9999,0,0,3,FEW 30   SCT 40   BKN 230,1,10,1,1,1014,RJNA 030400Z 30013KT 9999 FEW030 SCT040 BKN230 10/01 Q1014 RMK     1CU030 4SC040 A2996=,
20180203_050000.000,0,RJNA,,,,0,20180203050000,-1,-1,-1,-1,310,-1,14,-1,-1,-1,-1,,9999,0,0,3,FEW 30   SCT 50   BKN 230,1,10,-1,2,1014,RJNA 030500Z 31014KT 9999 FEW030 SCT050 BKN230 10/M02 Q1014 RMK     1CU030 3SC050 A2995 MAX WIND 22KT=,
20180203_050000.002,0,RJNA,,,,0,20180203050000,-1,-1,-1,-1,310,-1,14,-1,-1,-1,-1,,9999,0,0,3,FEW 30   SCT 50   BKN 230,1,10,-1,2,1014,RJNA 030500Z 31014KT 9999 FEW030 SCT050 BKN230 10/M02 Q1014     RMK 1CU030 3SC050 A2995 MAX WIND 22KT=,
20180203_060000.000,0,RJNA,,,,0,20180203060000,-1,-1,-1,-1,310,-1,16,-1,-1,-1,-1,,9999,0,0,2,FEW 30   SCT 230,1,10,-1,3,1014,RJNA 030600Z 31016KT 9999 FEW030 SCT230 10/M03 Q1014 RMK 1CU030     A2996 MAX WIND 24KT=,
20180203_060000.002,0,RJNA,,,,0,20180203060000,-1,-1,-1,-1,310,-1,16,-1,-1,-1,-1,,9999,0,0,2,FEW 30   SCT 230,1,10,-1,3,1014,RJNA 030600Z 31016KT 9999 FEW030 SCT230 10/M03 Q1014 RMK     1CU030 A2996 MAX WIND 24KT=,
20180203_070000.000,0,RJNA,,,,0,20180203070000,-1,-1,-1,-1,300,-1,15,-1,-1,-1,-1,,9999,0,0,1,FEW 30,1,8,-1,3,1014,RJNA 030700Z 30015KT 9999 FEW030 08/M03 Q1014 RMK 1CU030 A2996     MAX WIND 24KT=,
20180203_070000.003,0,RJNA,,,,0,20180203070000,-1,-1,-1,-1,300,-1,15,-1,-1,-1,-1,,9999,0,0,1,FEW 30,1,8,-1,3,1014,RJNA 030700Z 30015KT 9999 FEW030 08/M03 Q1014 RMK 1CU030 A2996     MAX WIND 24KT=,
20180203_080000.000,0,RJNA,,,,0,20180203080000,-1,-1,-1,-1,320,-1,16,-1,-1,-1,-1,,9999,0,0,1,FEW 30,1,7,-1,4,1015,RJNA 030800Z 32016KT 9999 FEW030 07/M04 Q1015 RMK 1CU030 A2998     MAX WIND 21KT=,
20180203_080000.002,0,RJNA,,,,0,20180203080000,-1,-1,-1,-1,320,-1,16,-1,-1,-1,-1,,9999,0,0,1,FEW 30,1,7,-1,4,1015,RJNA 030800Z 32016KT 9999 FEW030 07/M04 Q1015 RMK 1CU030 A2998     MAX WIND 21KT=,
20180203_090000.000,0,RJNA,,,,0,20180203090000,-1,-1,-1,-1,310,-1,10,-1,-1,-1,-1,,9999,0,0,1,FEW 30,1,6,-1,3,1015,RJNA 030900Z 31010KT 9999 FEW030 06/M03 Q1015 RMK 1CU030 A2998=,
20180203_090000.002,0,RJNA,,,,0,20180203090000,-1,-1,-1,-1,310,-1,10,-1,-1,-1,-1,,9999,0,0,1,FEW 30,1,6,-1,3,1015,RJNA 030900Z 31010KT 9999 FEW030 06/M03 Q1015 RMK 1CU030     A2998=,
20180203_100000.000,0,RJNA,,,,0,20180203100000,-1,-1,-1,-1,290,-1,9,-1,-1,-1,-1,,9999,0,0,1,FEW 30,1,4,-1,1,1015,RJNA 031000Z 29009KT 9999 FEW030 04/M01 Q1015 RMK 1CU030 A2999=,
20180203_100000.002,0,RJNA,,,,0,20180203100000,-1,-1,-1,-1,290,-1,9,-1,-1,-1,-1,,9999,0,0,1,FEW 30,1,4,-1,1,1015,RJNA 031000Z 29009KT 9999 FEW030 04/M01 Q1015 RMK 1CU030     A2999=,
20180203_110000.000,0,RJNA,,,,0,20180203110000,-1,-1,-1,-1,300,-1,5,-1,-1,-1,-1,,9999,0,0,1,FEW 30,1,4,-1,1,1015,RJNA 031100Z 30005KT 9999 FEW030 04/M01 Q1015 RMK 1CU030 A2998=,
20180203_110000.002,0,RJNA,,,,0,20180203110000,-1,-1,-1,-1,300,-1,5,-1,-1,-1,-1,,9999,0,0,1,FEW 30,1,4,-1,1,1015,RJNA 031100Z 30005KT 9999 FEW030 04/M01 Q1015 RMK 1CU030     A2998=,
20180203_120000.000,0,RJNA,,,,0,20180203120000,-1,-1,-1,-1,290,-1,9,-1,-1,-1,-1,,9999,0,0,1,FEW 30,1,4,-1,1,1015,RJNA 031200Z 29009KT 9999 FEW030 04/M01 Q1015 RMK 1CU030 A2999=,
20180203_120000.002,0,RJNA,,,,0,20180203120000,-1,-1,-1,-1,290,-1,9,-1,-1,-1,-1,,9999,0,0,1,FEW 30,1,4,-1,1,1015,RJNA 031200Z 29009KT 9999 FEW030 04/M01 Q1015 RMK 1CU030     A2999=,
20180203_130000.000,0,RJNA,,,,0,20180203130000,-1,-1,-1,-1,300,-1,7,-1,-1,-1,-1,,9999,0,0,1,FEW 30,1,3,-1,2,1015,RJNA 031300Z 30007KT 9999 FEW030 03/M02 Q1015 RMK 1CU030 A2999=,
20180203_130000.002,0,RJNA,,,,0,20180203130000,-1,-1,-1,-1,300,-1,7,-1,-1,-1,-1,,9999,0,0,1,FEW 30,1,3,-1,2,1015,RJNA 031300Z 30007KT 9999 FEW030 03/M02 Q1015 RMK 1CU030     A2999=,
20180203_140000.000,0,RJNA,,,,0,20180203140000,-1,-1,-1,-1,290,-1,5,-1,-1,-1,-1,,9999,0,0,1,FEW 30,1,3,-1,1,1015,RJNA 031400Z 29005KT 9999 FEW030 03/M01 Q1015 RMK 1CU030 A2998=,
20180203_140000.002,0,RJNA,,,,0,20180203140000,-1,-1,-1,-1,290,-1,5,-1,-1,-1,-1,,9999,0,0,1,FEW 30,1,3,-1,1,1015,RJNA 031400Z 29005KT 9999 FEW030 03/M01 Q1015 RMK 1CU030     A2998=,
20180203_150000.000,0,RJNA,,,,0,20180203150000,-1,-1,-1,-1,290,-1,6,-1,-1,-1,-1,,9999,0,0,1,FEW 30,1,3,-1,2,1015,RJNA 031500Z 29006KT 9999 FEW030 03/M02 Q1015 RMK 1CU030 A2998=,
20180203_150000.002,0,RJNA,,,,0,20180203150000,-1,-1,-1,-1,290,-1,6,-1,-1,-1,-1,,9999,0,0,1,FEW 30,1,3,-1,2,1015,RJNA 031500Z 29006KT 9999 FEW030 03/M02 Q1015 RMK 1CU030     A2998=,
20180203_160000.000,0,RJNA,,,,0,20180203160000,-1,-1,-1,-1,290,-1,5,-1,-1,260,320,,9999,0,0,2,FEW 30   SCT 60,1,3,-1,2,1015,RJNA 031600Z 29005KT 260V320 9999 FEW030 SCT060 03/M02 Q1015     RMK 1CU030 3SC060 A2998=,
20180203_160000.002,0,RJNA,,,,0,20180203160000,-1,-1,-1,-1,290,-1,5,-1,-1,260,320,,9999,0,0,2,FEW 30   SCT 60,1,3,-1,2,1015,RJNA 031600Z 29005KT 260V320 9999 FEW030 SCT060 03/M02 Q1015     RMK 1CU030 3SC060 A2998=,
20180203_170000.000,0,RJNA,,,,0,20180203170000,-1,-1,-1,-1,300,-1,6,-1,-1,-1,-1,,9999,0,0,2,FEW 30   SCT 60,1,3,-1,1,1015,RJNA 031700Z 30006KT 9999 FEW030 SCT060 03/M01 Q1015 RMK 1CU030     4SC060 A2997=,
20180203_170000.002,0,RJNA,,,,0,20180203170000,-1,-1,-1,-1,300,-1,6,-1,-1,-1,-1,,9999,0,0,2,FEW 30   SCT 60,1,3,-1,1,1015,RJNA 031700Z 30006KT 9999 FEW030 SCT060 03/M01 Q1015 RMK     1CU030 4SC060 A2997=,
20180203_180000.000,0,RJNA,,,,0,20180203180000,-1,-1,-1,-1,320,-1,7,-1,-1,-1,-1,,9999,0,0,2,FEW 30   BKN 70,1,3,-1,1,1015,RJNA 031800Z 32007KT 9999 FEW030 BKN070 03/M01 Q1015 RMK 1CU030     6AC070 A2997=,
20180203_180000.003,0,RJNA,,,,0,20180203180000,-1,-1,-1,-1,320,-1,7,-1,-1,-1,-1,,9999,0,0,2,FEW 30   BKN 70,1,3,-1,1,1015,RJNA 031800Z 32007KT 9999 FEW030 BKN070 03/M01 Q1015 RMK     1CU030 6AC070 A2997=,
20180203_190000.000,0,RJNA,,,,0,20180203190000,-1,-1,-1,-1,290,-1,3,-1,-1,260,320,,9999,0,0,2,FEW 30   SCT 70,1,2,-1,1,1014,RJNA 031900Z 29003KT 260V320 9999 FEW030 SCT070 02/M01 Q1014     RMK 1CU030 3AC070 A2996=,
20180203_190000.002,0,RJNA,,,,0,20180203190000,-1,-1,-1,-1,290,-1,3,-1,-1,260,320,,9999,0,0,2,FEW 30   SCT 70,1,2,-1,1,1014,RJNA 031900Z 29003KT 260V320 9999 FEW030 SCT070 02/M01 Q1014     RMK 1CU030 3AC070 A2996=,
20180203_200000.000,0,RJNA,,,,0,20180203200000,-1,-1,-1,-1,160,-1,1,-1,-1,-1,-1,,9999,0,0,1,FEW 30,1,1,-1,1,1014,RJNA 032000Z 16001KT 9999 FEW030 01/M01 Q1014 RMK 1CU030 A2995=,
20180203_200000.002,0,RJNA,,,,0,20180203200000,-1,-1,-1,-1,160,-1,1,-1,-1,-1,-1,,9999,0,0,1,FEW 30,1,1,-1,1,1014,RJNA 032000Z 16001KT 9999 FEW030 01/M01 Q1014 RMK 1CU030     A2995=,
20180203_210000.000,0,RJNA,,,,0,20180203210000,-1,-1,-1,-1,290,-1,3,-1,-1,-1,-1,,9999,0,0,1,FEW 30,1,2,-1,4,1014,RJNA 032100Z 29003KT 9999 FEW030 02/M04 Q1014 RMK 1CU030 A2996     11/M01=,
20180203_210000.002,0,RJNA,,,,0,20180203210000,-1,-1,-1,-1,290,-1,3,-1,-1,-1,-1,,9999,0,0,1,FEW 30,1,2,-1,4,1014,RJNA 032100Z 29003KT 9999 FEW030 02/M04 Q1014 RMK 1CU030 A2996     11/M01=,
20180203_220000.000,0,RJNA,,,,0,20180203220000,-1,-1,-1,-1,999,-1,2,-1,-1,-1,-1,,9999,0,0,1,FEW 30,1,1,-1,3,1014,RJNA 032200Z VRB02KT 9999 FEW030 01/M03 Q1014 RMK 1CU030 A2997=,
20180203_220000.002,0,RJNA,,,,0,20180203220000,-1,-1,-1,-1,999,-1,2,-1,-1,-1,-1,,9999,0,0,1,FEW 30,1,1,-1,3,1014,RJNA 032200Z VRB02KT 9999 FEW030 01/M03 Q1014 RMK 1CU030     A2997=,
20180203_230000.000,0,RJNA,,,,0,20180203230000,-1,-1,-1,-1,130,-1,3,-1,-1,90,150,,9999,0,0,1,FEW 30,1,1,-1,2,1015,RJNA 032300Z 13003KT 090V150 9999 FEW030 01/M02 Q1015 RMK     1CU030 A2997=,
20180203_230000.002,0,RJNA,,,,0,20180203230000,-1,-1,-1,-1,130,-1,3,-1,-1,90,150,,9999,0,0,1,FEW 30,1,1,-1,2,1015,RJNA 032300Z 13003KT 090V150 9999 FEW030 01/M02 Q1015 RMK     1CU030 A2997=,
20180204_000000.000,0,RJNA,,,,0,20180204000000,-1,-1,-1,-1,270,-1,10,-1,-1,240,310,,9999,0,0,1,FEW 30,1,4,-1,6,1015,RJNA 040000Z 27010KT 240V310 9999 FEW030 04/M06 Q1015 RMK     1CU030 A2997=,
20180204_000000.002,0,RJNA,,,,0,20180204000000,-1,-1,-1,-1,270,-1,10,-1,-1,240,310,,9999,0,0,1,FEW 30,1,4,-1,6,1015,RJNA 040000Z 27010KT 240V310 9999 FEW030 04/M06 Q1015 RMK     1CU030 A2997=,
20180204_010000.000,0,RJNA,,,,0,20180204010000,-1,-1,-1,-1,290,-1,9,-1,-1,-1,-1,,9999,0,0,2,FEW 30   SCT 45,1,5,-1,6,1014,RJNA 040100Z 29009KT 9999 FEW030 SCT045 05/M06 Q1014 RMK 1CU030     3SC045 A2997=,
20180204_010000.002,0,RJNA,,,,0,20180204010000,-1,-1,-1,-1,290,-1,9,-1,-1,-1,-1,,9999,0,0,2,FEW 30   SCT 45,1,5,-1,6,1014,RJNA 040100Z 29009KT 9999 FEW030 SCT045 05/M06 Q1014 RMK     1CU030 3SC045 A2997=,
20180204_020000.000,0,RJNA,,,,0,20180204020000,-1,-1,-1,-1,270,-1,8,-1,-1,230,310,,9999,0,0,2,FEW 30   SCT 45,1,5,-1,10,1014,RJNA 040200Z 27008KT 230V310 9999 FEW030 SCT045 05/M10 Q1014     RMK 1CU030 3SC045 A2995=,
20180204_020000.002,0,RJNA,,,,0,20180204020000,-1,-1,-1,-1,270,-1,8,-1,-1,230,310,,9999,0,0,2,FEW 30   SCT 45,1,5,-1,10,1014,RJNA 040200Z 27008KT 230V310 9999 FEW030 SCT045 05/M10 Q1014     RMK 1CU030 3SC045 A2995=,
20180204_030000.000,0,RJNA,,,,0,20180204030000,-1,-1,-1,-1,310,-1,14,-1,-1,270,330,,9999,0,0,2,FEW 30   SCT 50,1,6,-1,10,1013,RJNA 040300Z 31014KT 270V330 9999 FEW030 SCT050 06/M10 Q1013     RMK 1CU030 4SC050 A2993 MAX WIND 20KT=,
20180204_030000.002,0,RJNA,,,,0,20180204030000,-1,-1,-1,-1,310,-1,14,-1,-1,270,330,,9999,0,0,2,FEW 30   SCT 50,1,6,-1,10,1013,RJNA 040300Z 31014KT 270V330 9999 FEW030 SCT050 06/M10 Q1013     RMK 1CU030 4SC050 A2993 MAX WIND 20KT=,
20180204_040000.000,0,RJNA,,,,0,20180204040000,-1,-1,-1,-1,310,-1,15,-1,-1,-1,-1,,9999,0,0,2,FEW 30   SCT 50,1,6,-1,11,1012,RJNA 040400Z 31015KT 9999 FEW030 SCT050 06/M11 Q1012 RMK 1CU030     3SC050 A2989 MAX WIND 21KT=,
20180204_040000.002,0,RJNA,,,,0,20180204040000,-1,-1,-1,-1,310,-1,15,-1,-1,-1,-1,,9999,0,0,2,FEW 30   SCT 50,1,6,-1,11,1012,RJNA 040400Z 31015KT 9999 FEW030 SCT050 06/M11 Q1012 RMK     1CU030 3SC050 A2989 MAX WIND 21KT=,
20180204_050000.000,0,RJNA,,,,0,20180204050000,-1,-1,-1,-1,300,-1,13,-1,-1,-1,-1,,9999,0,0,2,FEW 30   SCT 50,1,7,-1,11,1012,RJNA 040500Z 30013KT 9999 FEW030 SCT050 07/M11 Q1012 RMK 1CU030     3SC050 A2989 MAX WIND 19KT=,
20180204_050000.002,0,RJNA,,,,0,20180204050000,-1,-1,-1,-1,300,-1,13,-1,-1,-1,-1,,9999,0,0,2,FEW 30   SCT 50,1,7,-1,11,1012,RJNA 040500Z 30013KT 9999 FEW030 SCT050 07/M11 Q1012 RMK     1CU030 3SC050 A2989 MAX WIND 19KT=,
20180204_060000.000,0,RJNA,,,,0,20180204060000,-1,-1,-1,-1,300,-1,14,-1,-1,250,330,,9999,0,0,2,FEW 30   SCT 50,1,7,-1,12,1011,RJNA 040600Z 30014KT 250V330 9999 FEW030 SCT050 07/M12 Q1011     RMK 1CU030 3SC050 A2988 MAX WIND 22KT=,
20180204_060000.002,0,RJNA,,,,0,20180204060000,-1,-1,-1,-1,300,-1,14,-1,-1,250,330,,9999,0,0,2,FEW 30   SCT 50,1,7,-1,12,1011,RJNA 040600Z 30014KT 250V330 9999 FEW030 SCT050 07/M12 Q1011     RMK 1CU030 3SC050 A2988 MAX WIND 22KT=,
20180204_070000.000,0,RJNA,,,,0,20180204070000,-1,-1,-1,-1,310,-1,13,-1,-1,-1,-1,,9999,0,0,2,FEW 30   SCT 50,1,6,-1,12,1012,RJNA 040700Z 31013KT 9999 FEW030 SCT050 06/M12 Q1012 RMK 1CU030     3SC050 A2989 MAX WIND 19KT=,
20180204_070000.002,0,RJNA,,,,0,20180204070000,-1,-1,-1,-1,310,-1,13,-1,-1,-1,-1,,9999,0,0,2,FEW 30   SCT 50,1,6,-1,12,1012,RJNA 040700Z 31013KT 9999 FEW030 SCT050 06/M12 Q1012 RMK     1CU030 3SC050 A2989 MAX WIND 19KT=,
20180204_080000.000,0,RJNA,,,,0,20180204080000,-1,-1,-1,-1,300,-1,14,-1,-1,-1,-1,,9999,0,0,2,FEW 30   SCT 70,1,5,-1,11,1012,RJNA 040800Z 30014KT 9999 FEW030 SCT070 05/M11 Q1012 RMK 1CU030     4AC070 A2989 MAX WIND 21KT=,
20180204_080000.002,0,RJNA,,,,0,20180204080000,-1,-1,-1,-1,300,-1,14,-1,-1,-1,-1,,9999,0,0,2,FEW 30   SCT 70,1,5,-1,11,1012,RJNA 040800Z 30014KT 9999 FEW030 SCT070 05/M11 Q1012 RMK     1CU030 4AC070 A2989 MAX WIND 21KT=,
20180204_090000.000,0,RJNA,,,,0,20180204090000,-1,-1,-1,-1,310,-1,14,-1,-1,-1,-1,,9999,0,0,2,FEW 30   BKN 70,1,4,-1,9,1012,RJNA 040900Z 31014KT 9999 FEW030 BKN070 04/M09 Q1012 RMK 1CU030     5AC070 A2991=,
20180204_090000.002,0,RJNA,,,,0,20180204090000,-1,-1,-1,-1,310,-1,14,-1,-1,-1,-1,,9999,0,0,2,FEW 30   BKN 70,1,4,-1,9,1012,RJNA 040900Z 31014KT 9999 FEW030 BKN070 04/M09 Q1012 RMK     1CU030 5AC070 A2991=,
20180204_100000.000,0,RJNA,,,,0,20180204100000,-1,-1,-1,-1,310,-1,15,-1,-1,-1,-1,,9999,0,0,2,FEW 20   BKN 70,1,3,-1,6,1013,RJNA 041000Z 31015KT 9999 FEW020 BKN070 03/M06 Q1013 RMK 1CU020     6AC070 A2992 MAX WIND 22KT=,
20180204_100000.002,0,RJNA,,,,0,20180204100000,-1,-1,-1,-1,310,-1,15,-1,-1,-1,-1,,9999,0,0,2,FEW 20   BKN 70,1,3,-1,6,1013,RJNA 041000Z 31015KT 9999 FEW020 BKN070 03/M06 Q1013 RMK     1CU020 6AC070 A2992 MAX WIND 22KT=,
20180204_110000.000,0,RJNA,,,,0,20180204110000,-1,-1,-1,-1,300,-1,15,-1,-1,-1,-1,,9999,0,0,3,FEW 15   BKN 50   BKN 70,1,2,-1,4,1013,RJNA 041100Z 30015KT 9999 FEW015 BKN050 BKN070 02/M04 Q1013 RMK     1CU015 5SC050 5AC070 A2992 MAX WIND 23KT=,
20180204_110000.003,0,RJNA,,,,0,20180204110000,-1,-1,-1,-1,300,-1,15,-1,-1,-1,-1,,9999,0,0,3,FEW 15   BKN 50   BKN 70,1,2,-1,4,1013,RJNA 041100Z 30015KT 9999 FEW015 BKN050 BKN070 02/M04 Q1013     RMK 1CU015 5SC050 5AC070 A2992 MAX WIND 23KT=,
20180204_120000.000,0,RJNA,,,,0,20180204120000,-1,-1,-1,-1,290,-1,12,-1,-1,250,320,,9999,0,0,1,FEW 15,1,2,-1,2,1013,RJNA 041200Z 29012KT 250V320 9999 FEW015 02/M02 Q1013 RMK     1CU015 A2993 MAX WIND 19KT=,
20180204_120000.002,0,RJNA,,,,0,20180204120000,-1,-1,-1,-1,290,-1,12,-1,-1,250,320,,9999,0,0,1,FEW 15,1,2,-1,2,1013,RJNA 041200Z 29012KT 250V320 9999 FEW015 02/M02 Q1013 RMK     1CU015 A2993 MAX WIND 19KT=,
20180204_130000.000,0,RJNA,,,,0,20180204130000,-1,-1,-1,-1,280,-1,6,-1,-1,230,310,,9999,0,0,2,FEW 15   SCT 50,1,1,-1,2,1014,RJNA 041300Z 28006KT 230V310 9999 FEW015 SCT050 01/M02 Q1014     RMK 1CU015 3SC050 A2994=,
20180204_130000.002,0,RJNA,,,,0,20180204130000,-1,-1,-1,-1,280,-1,6,-1,-1,230,310,,9999,0,0,2,FEW 15   SCT 50,1,1,-1,2,1014,RJNA 041300Z 28006KT 230V310 9999 FEW015 SCT050 01/M02 Q1014     RMK 1CU015 3SC050 A2994=,
20180204_140000.000,0,RJNA,,,,0,20180204140000,-1,-1,-1,-1,280,-1,5,-1,-1,240,310,,9999,0,0,2,FEW 15   BKN 50,1,1,-1,2,1014,RJNA 041400Z 28005KT 240V310 9999 FEW015 BKN050 01/M02 Q1014     RMK 1CU015 5SC050 A2995=,
20180204_140000.002,0,RJNA,,,,0,20180204140000,-1,-1,-1,-1,280,-1,5,-1,-1,240,310,,9999,0,0,2,FEW 15   BKN 50,1,1,-1,2,1014,RJNA 041400Z 28005KT 240V310 9999 FEW015 BKN050 01/M02 Q1014     RMK 1CU015 5SC050 A2995=,
20180204_150000.000,0,RJNA,,,,0,20180204150000,-1,-1,-1,-1,280,-1,6,-1,-1,250,310,,9999,0,0,2,FEW 15   SCT 50,1,1,-1,2,1014,RJNA 041500Z 28006KT 250V310 9999 FEW015 SCT050 01/M02 Q1014     RMK 1CU015 3SC050 A2995=,
20180204_150000.002,0,RJNA,,,,0,20180204150000,-1,-1,-1,-1,280,-1,6,-1,-1,250,310,,9999,0,0,2,FEW 15   SCT 50,1,1,-1,2,1014,RJNA 041500Z 28006KT 250V310 9999 FEW015 SCT050 01/M02 Q1014     RMK 1CU015 3SC050 A2995=,
20180204_160000.000,0,RJNA,,,,0,20180204160000,-1,-1,-1,-1,280,-1,6,-1,-1,-1,-1,,9999,0,0,2,FEW 15   SCT 50,1,1,-1,1,1014,RJNA 041600Z 28006KT 9999 FEW015 SCT050 01/M01 Q1014 RMK 1CU015     4SC050 A2995=,
20180204_160000.002,0,RJNA,,,,0,20180204160000,-1,-1,-1,-1,280,-1,6,-1,-1,-1,-1,,9999,0,0,2,FEW 15   SCT 50,1,1,-1,1,1014,RJNA 041600Z 28006KT 9999 FEW015 SCT050 01/M01 Q1014 RMK     1CU015 4SC050 A2995=,
20180204_170000.000,0,RJNA,,,,0,20180204170000,-1,-1,-1,-1,290,-1,6,-1,-1,-1,-1,,9999,0,0,2,FEW 30   BKN 80,1,2,-1,2,1014,RJNA 041700Z 29006KT 9999 FEW030 BKN080 02/M02 Q1014 RMK 1CU030     5AC080 A2996=,
20180204_170000.002,0,RJNA,,,,0,20180204170000,-1,-1,-1,-1,290,-1,6,-1,-1,-1,-1,,9999,0,0,2,FEW 30   BKN 80,1,2,-1,2,1014,RJNA 041700Z 29006KT 9999 FEW030 BKN080 02/M02 Q1014 RMK     1CU030 5AC080 A2996=,
20180204_180000.000,0,RJNA,,,,0,20180204180000,-1,-1,-1,-1,310,-1,4,-1,-1,-1,-1,,9999,0,0,2,FEW 30   BKN 80,1,1,-1,3,1014,RJNA 041800Z 31004KT 9999 FEW030 BKN080 01/M03 Q1014 RMK 1CU030     5AC080 A2995=,
20180204_180000.003,0,RJNA,,,,0,20180204180000,-1,-1,-1,-1,310,-1,4,-1,-1,-1,-1,,9999,0,0,2,FEW 30   BKN 80,1,1,-1,3,1014,RJNA 041800Z 31004KT 9999 FEW030 BKN080 01/M03 Q1014 RMK     1CU030 5AC080 A2995=,
20180204_190000.000,0,RJNA,,,,0,20180204190000,-1,-1,-1,-1,320,-1,4,-1,-1,-1,-1,,9999,0,0,2,FEW 30   BKN 80,1,1,-1,3,1014,RJNA 041900Z 32004KT 9999 FEW030 BKN080 01/M03 Q1014 RMK 1CU030     7AC080 A2995=,
20180204_190000.002,0,RJNA,,,,0,20180204190000,-1,-1,-1,-1,320,-1,4,-1,-1,-1,-1,,9999,0,0,2,FEW 30   BKN 80,1,1,-1,3,1014,RJNA 041900Z 32004KT 9999 FEW030 BKN080 01/M03 Q1014 RMK     1CU030 7AC080 A2995=,
20180204_200000.000,0,RJNA,,,,0,20180204200000,-1,-1,-1,-1,310,-1,3,-1,-1,260,340,,9999,0,0,2,FEW 30   BKN 70,1,1,-1,2,1014,RJNA 042000Z 31003KT 260V340 9999 FEW030 BKN070 01/M02 Q1014     RMK 1CU030 7AC070 A2996=,
20180204_200000.002,0,RJNA,,,,0,20180204200000,-1,-1,-1,-1,310,-1,3,-1,-1,260,340,,9999,0,0,2,FEW 30   BKN 70,1,1,-1,2,1014,RJNA 042000Z 31003KT 260V340 9999 FEW030 BKN070 01/M02 Q1014     RMK 1CU030 7AC070 A2996=,
20180204_210000.000,0,RJNA,,,,0,20180204210000,-1,-1,-1,-1,999,-1,2,-1,-1,-1,-1,,9999,0,0,2,FEW 30   BKN 70,1,0,-1,2,1015,RJNA 042100Z VRB02KT 9999 FEW030 BKN070 00/M02 Q1015 RMK 1CU030     6AC070 A2998 07/00 R000 S000=,
20180204_210000.002,0,RJNA,,,,0,20180204210000,-1,-1,-1,-1,999,-1,2,-1,-1,-1,-1,,9999,0,0,2,FEW 30   BKN 70,1,0,-1,2,1015,RJNA 042100Z VRB02KT 9999 FEW030 BKN070 00/M02 Q1015 RMK     1CU030 6AC070 A2998 07/00 R000 S000=,
20180204_220000.000,0,RJNA,,,,0,20180204220000,-1,-1,-1,-1,999,-1,1,-1,-1,-1,-1,,9999,0,0,2,FEW 30   BKN 50,1,0,-1,3,1015,RJNA 042200Z VRB01KT 9999 FEW030 BKN050 00/M03 Q1015 RMK 1CU030     6SC050 A2998=,
20180204_220000.002,0,RJNA,,,,0,20180204220000,-1,-1,-1,-1,999,-1,1,-1,-1,-1,-1,,9999,0,0,2,FEW 30   BKN 50,1,0,-1,3,1015,RJNA 042200Z VRB01KT 9999 FEW030 BKN050 00/M03 Q1015 RMK     1CU030 6SC050 A2998=,
20180204_230000.000,0,RJNA,,,,0,20180204230000,-1,-1,-1,-1,0,-1,0,-1,-1,-1,-1,,5000,0,1,3,FEW 15   BKN 30   BKN 45,1,1,-1,2,1015,RJNA 042300Z 00000KT 5000 -SHSN FEW015 BKN030 BKN045 01/M02     Q1015 RMK 1CU015 5CU030 7SC045 A2999 VIS SW 4000M W-NW           2500M=,- SN SH
20180204_230000.002,0,RJNA,,,,0,20180204230000,-1,-1,-1,-1,0,-1,0,-1,-1,-1,-1,,5000,0,1,3,FEW 15   BKN 30   BKN 45,1,1,-1,2,1015,RJNA 042300Z 00000KT 5000 -SHSN FEW015 BKN030 BKN045 01/M02     Q1015 RMK 1CU015 5CU030 7SC045 A2999 VIS SW 4000M W-NW           2500M=,- SN SH
20180205_000000.000,0,RJNA,,,,0,20180205000000,-1,-1,-1,-1,330,-1,6,-1,-1,-1,-1,,8000,0,1,3,FEW 10   SCT 15   BKN 30,1,1,-1,1,1015,RJNA 050000Z 33006KT 8000 -SHSN FEW010 SCT015 BKN030 01/M01     Q1015 RMK 1CU010 3CU015 6CU030 A3000=,- SN SH
20180205_000000.003,0,RJNA,,,,0,20180205000000,-1,-1,-1,-1,330,-1,6,-1,-1,-1,-1,,8000,0,1,3,FEW 10   SCT 15   BKN 30,1,1,-1,1,1015,RJNA 050000Z 33006KT 8000 -SHSN FEW010 SCT015 BKN030 01/M01     Q1015 RMK 1CU010 3CU015 6CU030 A3000=,- SN SH
20180205_010000.000,0,RJNA,,,,0,20180205010000,-1,-1,-1,-1,270,-1,6,-1,-1,240,300,,9999,0,1,3,FEW 15   SCT 30   BKN 45,1,2,-1,3,1015,RJNA 050100Z 27006KT 240V300 9999 -SHSN FEW015 SCT030 BKN045     02/M03 Q1015 RMK 1CU015 4CU030 7SC045 A2999=,- SN SH
20180205_010000.002,0,RJNA,,,,0,20180205010000,-1,-1,-1,-1,270,-1,6,-1,-1,240,300,,9999,0,1,3,FEW 15   SCT 30   BKN 45,1,2,-1,3,1015,RJNA 050100Z 27006KT 240V300 9999 -SHSN FEW015 SCT030 BKN045     02/M03 Q1015 RMK 1CU015 4CU030 7SC045 A2999=,- SN SH
20180205_020000.000,0,RJNA,,,,0,20180205020000,-1,-1,-1,-1,999,-1,5,-1,-1,-1,-1,,9999,0,0,2,FEW 20   SCT 45,1,4,-1,6,1014,RJNA 050200Z VRB05KT 9999 FEW020 SCT045 04/M06 Q1014 RMK 1CU020     4SC045 A2996=,
20180205_020000.002,0,RJNA,,,,0,20180205020000,-1,-1,-1,-1,999,-1,5,-1,-1,-1,-1,,9999,0,0,2,FEW 20   SCT 45,1,4,-1,6,1014,RJNA 050200Z VRB05KT 9999 FEW020 SCT045 04/M06 Q1014 RMK     1CU020 4SC045 A2996=,
