20180101_000000.000,0,RJNK,,,,0,20180101000000,-1,-1,-1,-1,999,-1,7,-1,-1,-1,-1,,9999,0,1,4,FEW 8   SCT 10   BKN 15   FEW 15 CB,1,4,1,0,1018,RJNK 010000Z VRB07KT 9999 -SHRA FEW008 SCT010 BKN015 FEW015CB     04/00 Q1018 RMK 1CU008 3CU010 7CU015 2CB015 A3007 CB W-NW=,- RA SH
20180101_000000.002,0,RJNK,,,,0,20180101000000,-1,-1,-1,-1,999,-1,7,-1,-1,-1,-1,,9999,0,1,4,FEW 8   SCT 10   BKN 15   FEW 15 CB,1,4,1,0,1018,RJNK 010000Z VRB07KT 9999 -SHRA FEW008 SCT010 BKN015 FEW015CB     04/00 Q1018 RMK 1CU008 3CU010 7CU015 2CB015 A3007 CB           W-NW=,- RA SH
20180101_010000.000,0,RJNK,,,,0,20180101010000,-1,-1,-1,-1,120,-1,6,-1,-1,80,140,,9999,0,0,2,FEW 8   BKN 15,1,3,1,1,1018,RJNK 010100Z 12006KT 080V140 9999 FEW008 BKN015 03/01 Q1018 RMK     1CU008 7CU015 A3008=,
20180101_010000.002,0,RJNK,,,,0,20180101010000,-1,-1,-1,-1,120,-1,6,-1,-1,80,140,,9999,0,0,2,FEW 8   BKN 15,1,3,1,1,1018,RJNK 010100Z 12006KT 080V140 9999 FEW008 BKN015 03/01 Q1018     RMK 1CU008 7CU015 A3008=,
20180101_020000.000,0,RJNK,,,,0,20180101020000,-1,-1,-1,-1,310,-1,8,-1,-1,270,340,,9999,0,0,3,FEW 10   SCT 15   BKN 20,1,6,1,1,1018,RJNK 010200Z 31008KT 270V340 9999 FEW010 SCT015 BKN020 06/01     Q1018 RMK 1CU010 3CU015 7CU020 A3008=,
20180101_020000.002,0,RJNK,,,,0,20180101020000,-1,-1,-1,-1,310,-1,8,-1,-1,270,340,,9999,0,0,3,FEW 10   SCT 15   BKN 20,1,6,1,1,1018,RJNK 010200Z 31008KT 270V340 9999 FEW010 SCT015 BKN020 06/01     Q1018 RMK 1CU010 3CU015 7CU020 A3008=,
20180101_030000.000,0,RJNK,,,,0,20180101030000,-1,-1,-1,-1,320,-1,12,-1,-1,-1,-1,,9999,0,0,3,FEW 10   SCT 15   BKN 20,1,7,1,1,1018,RJNK 010300Z 32012KT 9999 FEW010 SCT015 BKN020 07/01 Q1018 RMK     1CU010 3CU015 7CU020 A3006=,
20180101_030000.002,0,RJNK,,,,0,20180101030000,-1,-1,-1,-1,320,-1,12,-1,-1,-1,-1,,9999,0,0,3,FEW 10   SCT 15   BKN 20,1,7,1,1,1018,RJNK 010300Z 32012KT 9999 FEW010 SCT015 BKN020 07/01 Q1018 RMK     1CU010 3CU015 7CU020 A3006=,
20180101_040000.000,0,RJNK,,,,0,20180101040000,-1,-1,-1,-1,320,-1,9,-1,-1,290,350,,9999,0,0,2,FEW 15   BKN 20,1,7,1,1,1017,RJNK 010400Z 32009KT 290V350 9999 FEW015 BKN020 07/01 Q1017 RMK     2CU015 6CU020 A3005=,
20180101_040000.002,0,RJNK,,,,0,20180101040000,-1,-1,-1,-1,320,-1,9,-1,-1,290,350,,9999,0,0,2,FEW 15   BKN 20,1,7,1,1,1017,RJNK 010400Z 32009KT 290V350 9999 FEW015 BKN020 07/01 Q1017     RMK 2CU015 6CU020 A3005=,
20180101_050000.000,0,RJNK,,,,0,20180101050000,-1,-1,-1,-1,310,-1,9,-1,-1,-1,-1,,9999,0,0,3,FEW 15   BKN 20   FEW 20 TCU,1,7,-1,0,1017,RJNK 010500Z 31009KT 9999 FEW015 BKN020 FEW020TCU 07/M00 Q1017     RMK 2CU015 7CU020 1TCU020 A3006 TCU NW=,
20180101_050000.002,0,RJNK,,,,0,20180101050000,-1,-1,-1,-1,310,-1,9,-1,-1,-1,-1,,9999,0,0,3,FEW 15   BKN 20   FEW 20 TCU,1,7,-1,0,1017,RJNK 010500Z 31009KT 9999 FEW015 BKN020 FEW020TCU 07/M00 Q1017     RMK 2CU015 7CU020 1TCU020 A3006 TCU NW=,
20180101_060000.000,0,RJNK,,,,0,20180101060000,-1,-1,-1,-1,330,-1,7,-1,-1,-1,-1,,9999,0,0,2,FEW 15   BKN 20,1,5,1,1,1018,RJNK 010600Z 33007KT 9999 FEW015 BKN020 05/01 Q1018 RMK 2CU015     7CU020 A3008=,
20180101_060000.002,0,RJNK,,,,0,20180101060000,-1,-1,-1,-1,330,-1,7,-1,-1,-1,-1,,9999,0,0,2,FEW 15   BKN 20,1,5,1,1,1018,RJNK 010600Z 33007KT 9999 FEW015 BKN020 05/01 Q1018 RMK 2CU015     7CU020 A3008=,
20180101_070000.000,0,RJNK,,,,0,20180101070000,-1,-1,-1,-1,350,-1,7,-1,-1,-1,-1,,6000,0,1,3,FEW 10   SCT 15   BKN 20,1,5,1,0,1018,RJNK 010700Z 35007KT 6000 -SHRA FEW010 SCT015 BKN020 05/00     Q1018 RMK 1CU010 3CU015 7CU020 A3009=,- RA SH
20180101_070000.002,0,RJNK,,,,0,20180101070000,-1,-1,-1,-1,350,-1,7,-1,-1,-1,-1,,6000,0,1,3,FEW 10   SCT 15   BKN 20,1,5,1,0,1018,RJNK 010700Z 35007KT 6000 -SHRA FEW010 SCT015 BKN020 05/00     Q1018 RMK 1CU010 3CU015 7CU020 A3009=,- RA SH
20180101_080000.000,0,RJNK,,,,0,20180101080000,-1,-1,-1,-1,999,-1,4,-1,-1,-1,-1,,9999,0,1,4,FEW 10   SCT 15   FEW 15 TCU  BKN 20,1,4,1,1,1019,RJNK 010800Z VRB04KT 9999 -SHRA FEW010 SCT015 FEW015TCU BKN020     04/01 Q1019 RMK 1CU010 3CU015 1TCU015 7CU020 A3010 TCU SE=,- RA SH
20180101_080000.002,0,RJNK,,,,0,20180101080000,-1,-1,-1,-1,999,-1,4,-1,-1,-1,-1,,9999,0,1,4,FEW 10   SCT 15   FEW 15 TCU  BKN 20,1,4,1,1,1019,RJNK 010800Z VRB04KT 9999 -SHRA FEW010 SCT015 FEW015TCU BKN020     04/01 Q1019 RMK 1CU010 3CU015 1TCU015 7CU020 A3010 TCU           SE=,- RA SH
20180101_090000.000,0,RJNK,,,,0,20180101090000,-1,-1,-1,-1,170,-1,4,-1,-1,140,200,,9999,0,1,3,FEW 15   BKN 20   BKN 30,1,3,1,1,1019,RJNK 010900Z 17004KT 140V200 9999 -SHRA FEW015 BKN020 BKN030     03/01 Q1019 RMK 1CU015 5CU020 7CU030 A3011=,- RA SH
20180101_090000.002,0,RJNK,,,,0,20180101090000,-1,-1,-1,-1,170,-1,4,-1,-1,140,200,,9999,0,1,3,FEW 15   BKN 20   BKN 30,1,3,1,1,1019,RJNK 010900Z 17004KT 140V200 9999 -SHRA FEW015 BKN020 BKN030     03/01 Q1019 RMK 1CU015 5CU020 7CU030 A3011=,- RA SH
20180101_100000.000,0,RJNK,,,,0,20180101100000,-1,-1,-1,-1,999,-1,2,-1,-1,-1,-1,,9999,0,0,2,FEW 20   BKN 30,1,3,1,1,1020,RJNK 011000Z VRB02KT 9999 FEW020 BKN030 03/01 Q1020 RMK 2CU020     7CU030 A3012=,
20180101_100000.002,0,RJNK,,,,0,20180101100000,-1,-1,-1,-1,999,-1,2,-1,-1,-1,-1,,9999,0,0,2,FEW 20   BKN 30,1,3,1,1,1020,RJNK 011000Z VRB02KT 9999 FEW020 BKN030 03/01 Q1020 RMK 2CU020     7CU030 A3012=,
20180101_110000.000,0,RJNK,,,,0,20180101110000,-1,-1,-1,-1,320,-1,14,-1,-1,-1,-1,,8000,0,1,3,FEW 10   BKN 20   BKN 30,1,4,1,1,1020,RJNK 011100Z 32014KT 8000 -SHRA FEW010 BKN020 BKN030 04/01     Q1020 RMK 2CU010 5CU020 7CU030 A3014=,- RA SH
20180101_110000.002,0,RJNK,,,,0,20180101110000,-1,-1,-1,-1,320,-1,14,-1,-1,-1,-1,,8000,0,1,3,FEW 10   BKN 20   BKN 30,1,4,1,1,1020,RJNK 011100Z 32014KT 8000 -SHRA FEW010 BKN020 BKN030 04/01     Q1020 RMK 2CU010 5CU020 7CU030 A3014=,- RA SH
20180101_120000.000,0,RJNK,,,,0,20180101120000,-1,-1,-1,-1,120,-1,5,-1,-1,70,160,,9999,0,1,3,FEW 10   BKN 20   BKN 30,1,4,1,1,1020,RJNK 011200Z 12005KT 070V160 9999 -SHRA FEW010 BKN020 BKN030     04/01 Q1020 RMK 1CU010 6CU020 7CU030 A3013=,- RA SH
20180101_120000.002,0,RJNK,,,,0,20180101120000,-1,-1,-1,-1,120,-1,5,-1,-1,70,160,,9999,0,1,3,FEW 10   BKN 20   BKN 30,1,4,1,1,1020,RJNK 011200Z 12005KT 070V160 9999 -SHRA FEW010 BKN020 BKN030     04/01 Q1020 RMK 1CU010 6CU020 7CU030 A3013=,- RA SH
20180101_130000.000,0,RJNK,,,,0,20180101130000,-1,-1,-1,-1,120,-1,5,-1,-1,-1,-1,,9999,0,1,3,FEW 10   BKN 20   BKN 30,1,4,1,1,1020,RJNK 011300Z 12005KT 9999 -SHRA FEW010 BKN020 BKN030 04/01     Q1020 RMK 1CU010 6CU020 7CU030 A3015=,- RA SH
20180101_130000.002,0,RJNK,,,,0,20180101130000,-1,-1,-1,-1,120,-1,5,-1,-1,-1,-1,,9999,0,1,3,FEW 10   BKN 20   BKN 30,1,4,1,1,1020,RJNK 011300Z 12005KT 9999 -SHRA FEW010 BKN020 BKN030 04/01     Q1020 RMK 1CU010 6CU020 7CU030 A3015=,- RA SH
20180101_140000.000,0,RJNK,,,,0,20180101140000,-1,-1,-1,-1,180,-1,6,-1,-1,150,230,,9999,0,1,4,FEW 10   SCT 15   BKN 20   SCT 20 CB,1,2,1,1,1021,RJNK 011400Z 18006KT 150V230 9999 -SHRA FEW010 SCT015 BKN020     SCT020CB 02/01 Q1021 RMK 1CU010 3CU015 7CU020 3CB020 A3016           CB SW-W=,- RA SH
20180101_140000.002,0,RJNK,,,,0,20180101140000,-1,-1,-1,-1,180,-1,6,-1,-1,150,230,,9999,0,1,4,FEW 10   SCT 15   BKN 20   SCT 20 CB,1,2,1,1,1021,RJNK 011400Z 18006KT 150V230 9999 -SHRA FEW010 SCT015 BKN020     SCT020CB 02/01 Q1021 RMK 1CU010 3CU015 7CU020 3CB020           A3016 CB SW-W=,- RA SH
20180101_150000.000,0,RJNK,,,,0,20180101150000,-1,-1,-1,-1,180,-1,5,-1,-1,-1,-1,,8000,0,1,3,FEW 10   SCT 15   BKN 20,1,1,1,0,1021,RJNK 011500Z 18005KT 8000 -SHRASN FEW010 SCT015 BKN020 01/00     Q1021 REGS RMK 1CU010 3CU015 7CU020 A3016=,- RA SN SH
20180101_150000.000,0,RJNK,,,,0,20180101150000,-1,-1,-1,-1,180,-1,5,-1,-1,-1,-1,,8000,0,1,3,FEW 10   SCT 15   BKN 20,1,1,1,0,1021,RJNK 011500Z 18005KT 8000 -SHRASN FEW010 SCT015 BKN020 01/00     Q1021 REGS RMK 1CU010 3CU015 7CU020 A3016=,- RA SN SH
20180101_150000.002,0,RJNK,,,,0,20180101150000,-1,-1,-1,-1,180,-1,5,-1,-1,-1,-1,,8000,0,1,3,FEW 10   SCT 15   BKN 20,1,1,1,0,1021,RJNK 011500Z 18005KT 8000 -SHRASN FEW010 SCT015 BKN020 01/00     Q1021 REGS RMK 1CU010 3CU015 7CU020 A3016=,- RA SN SH
20180101_160000.000,0,RJNK,,,,0,20180101160000,-1,-1,-1,-1,999,-1,2,-1,-1,-1,-1,,9999,0,1,3,FEW 10   SCT 15   BKN 20,1,1,-1,0,1021,RJNK 011600Z VRB02KT 9999 -SHRASN FEW010 SCT015 BKN020 01/M00     Q1021 RMK 1CU010 3CU015 7CU020 A3017=,- RA SN SH
20180101_160000.002,0,RJNK,,,,0,20180101160000,-1,-1,-1,-1,999,-1,2,-1,-1,-1,-1,,9999,0,1,3,FEW 10   SCT 15   BKN 20,1,1,-1,0,1021,RJNK 011600Z VRB02KT 9999 -SHRASN FEW010 SCT015 BKN020 01/M00     Q1021 RMK 1CU010 3CU015 7CU020 A3017=,- RA SN SH
20180101_170000.000,0,RJNK,,,,0,20180101170000,-1,-1,-1,-1,130,-1,9,-1,-1,-1,-1,,9999,0,1,3,FEW 10   SCT 15   BKN 20,1,1,-1,0,1021,RJNK 011700Z 13009KT 9999 -SHRASN FEW010 SCT015 BKN020 01/M00     Q1021 RMK 1CU010 3CU015 7CU020 A3016=,- RA SN SH
20180101_170000.002,0,RJNK,,,,0,20180101170000,-1,-1,-1,-1,130,-1,9,-1,-1,-1,-1,,9999,0,1,3,FEW 10   SCT 15   BKN 20,1,1,-1,0,1021,RJNK 011700Z 13009KT 9999 -SHRASN FEW010 SCT015 BKN020 01/M00     Q1021 RMK 1CU010 3CU015 7CU020 A3016=,- RA SN SH
20180101_180000.000,0,RJNK,,,,0,20180101180000,-1,-1,-1,-1,90,-1,3,-1,-1,50,130,,9999,0,1,3,FEW 10   SCT 15   BKN 20,1,1,1,0,1021,RJNK 011800Z 09003KT 050V130 9999 -SHRASN FEW010 SCT015 BKN020     01/00 Q1021 RMK 1CU010 3CU015 7CU020 A3016=,- RA SN SH
20180101_180000.003,0,RJNK,,,,0,20180101180000,-1,-1,-1,-1,90,-1,3,-1,-1,50,130,,9999,0,1,3,FEW 10   SCT 15   BKN 20,1,1,1,0,1021,RJNK 011800Z 09003KT 050V130 9999 -SHRASN FEW010 SCT015 BKN020     01/00 Q1021 RMK 1CU010 3CU015 7CU020 A3016=,- RA SN SH
20180101_190000.000,0,RJNK,,,,0,20180101190000,-1,-1,-1,-1,180,-1,8,-1,-1,-1,-1,,9999,0,1,3,FEW 10   SCT 15   BKN 20,1,1,1,0,1021,RJNK 011900Z 18008KT 9999 -SHSNRA FEW010 SCT015 BKN020 01/00     Q1021 RMK 1CU010 3CU015 7CU020 A3016=,- SN RA SH
20180101_190000.003,0,RJNK,,,,0,20180101190000,-1,-1,-1,-1,180,-1,8,-1,-1,-1,-1,,9999,0,1,3,FEW 10   SCT 15   BKN 20,1,1,1,0,1021,RJNK 011900Z 18008KT 9999 -SHSNRA FEW010 SCT015 BKN020 01/00     Q1021 RMK 1CU010 3CU015 7CU020 A3016=,- SN RA SH
20180101_200000.000,0,RJNK,,,,0,20180101200000,-1,-1,-1,-1,150,-1,7,-1,-1,-1,-1,,9999,0,1,3,FEW 15   SCT 20   BKN 30,1,1,1,0,1021,RJNK 012000Z 15007KT 9999 -SHRASN FEW015 SCT020 BKN030 01/00     Q1021 RMK 1CU015 3CU020 7CU030 A3017=,- RA SN SH
20180101_200000.003,0,RJNK,,,,0,20180101200000,-1,-1,-1,-1,150,-1,7,-1,-1,-1,-1,,9999,0,1,3,FEW 15   SCT 20   BKN 30,1,1,1,0,1021,RJNK 012000Z 15007KT 9999 -SHRASN FEW015 SCT020 BKN030 01/00     Q1021 RMK 1CU015 3CU020 7CU030 A3017=,- RA SN SH
20180101_210000.000,0,RJNK,,,,0,20180101210000,-1,-1,-1,-1,190,-1,6,-1,-1,140,220,,9999,0,1,3,FEW 15   SCT 20   BKN 30,1,1,1,0,1021,RJNK 012100Z 19006KT 140V220 9999 -SHRASN FEW015 SCT020 BKN030     01/00 Q1021 RMK 1CU015 3CU020 7CU030 A3018 08/01 R018 S001           SD001=,- RA SN SH
20180101_210000.002,0,RJNK,,,,0,20180101210000,-1,-1,-1,-1,190,-1,6,-1,-1,140,220,,9999,0,1,3,FEW 15   SCT 20   BKN 30,1,1,1,0,1021,RJNK 012100Z 19006KT 140V220 9999 -SHRASN FEW015 SCT020 BKN030     01/00 Q1021 RMK 1CU015 3CU020 7CU030 A3018 08/01 R018           S001 SD001=,- RA SN SH
20180101_220000.000,0,RJNK,,,,0,20180101220000,-1,-1,-1,-1,130,-1,5,-1,-1,-1,-1,,9999,0,1,4,FEW 15   BKN 20   FEW 20 TCU  BKN 30,1,1,-1,0,1022,RJNK 012200Z 13005KT 9999 -SHRASN FEW015 BKN020 FEW020TCU     BKN030 01/M00 Q1022 RMK 1CU015 5CU020 1TCU020 7CU030 A3018           TCU W-NW=,- RA SN SH
20180101_220000.002,0,RJNK,,,,0,20180101220000,-1,-1,-1,-1,130,-1,5,-1,-1,-1,-1,,9999,0,1,4,FEW 15   BKN 20   FEW 20 TCU  BKN 30,1,1,-1,0,1022,RJNK 012200Z 13005KT 9999 -SHRASN FEW015 BKN020 FEW020TCU     BKN030 01/M00 Q1022 RMK 1CU015 5CU020 1TCU020 7CU030           A3018 TCU W-NW=,- RA SN SH
20180101_230000.000,0,RJNK,,,,0,20180101230000,-1,-1,-1,-1,140,-1,6,-1,-1,-1,-1,,9000,0,1,4,FEW 15   SCT 20   FEW 20 TCU  BKN 30,1,1,-1,0,1022,RJNK 012300Z 14006KT 9000 -SHRASN FEW015 SCT020 FEW020TCU     BKN030 01/M00 Q1022 RMK 2CU015 4CU020 1TCU020 7CU030 A3020           TCU W AND E=,- RA SN SH
20180101_230000.002,0,RJNK,,,,0,20180101230000,-1,-1,-1,-1,140,-1,6,-1,-1,-1,-1,,9000,0,1,4,FEW 15   SCT 20   FEW 20 TCU  BKN 30,1,1,-1,0,1022,RJNK 012300Z 14006KT 9000 -SHRASN FEW015 SCT020 FEW020TCU     BKN030 01/M00 Q1022 RMK 2CU015 4CU020 1TCU020 7CU030           A3020 TCU W AND E=,- RA SN SH
20180102_000000.000,0,RJNK,,,,0,20180102000000,-1,-1,-1,-1,160,-1,6,-1,-1,-1,-1,,3500,0,1,4,FEW 8   SCT 15   FEW 15 TCU  BKN 30,1,1,1,0,1022,RJNK 020000Z 16006KT 3500 -SHRASN FEW008 SCT015 FEW015TCU     BKN030 01/00 Q1022 RMK 1CU008 3CU015 1TCU015 7CU030 A3021           VIS W 3000M TCU NW=,- RA SN SH
20180102_000000.003,0,RJNK,,,,0,20180102000000,-1,-1,-1,-1,160,-1,6,-1,-1,-1,-1,,3500,0,1,4,FEW 8   SCT 15   FEW 15 TCU  BKN 30,1,1,1,0,1022,RJNK 020000Z 16006KT 3500 -SHRASN FEW008 SCT015 FEW015TCU     BKN030 01/00 Q1022 RMK 1CU008 3CU015 1TCU015 7CU030 A3021           VIS W 3000M TCU NW=,- RA SN SH
20180102_010000.000,0,RJNK,,,,0,20180102010000,-1,-1,-1,-1,170,-1,6,-1,-1,-1,-1,,9999,0,0,2,FEW 15   BKN 30,1,2,1,1,1023,RJNK 020100Z 17006KT 9999 FEW015 BKN030 02/01 Q1023 RMK 2CU015     5CU030 A3021=,
20180102_010000.003,0,RJNK,,,,0,20180102010000,-1,-1,-1,-1,170,-1,6,-1,-1,-1,-1,,9999,0,0,2,FEW 15   BKN 30,1,2,1,1,1023,RJNK 020100Z 17006KT 9999 FEW015 BKN030 02/01 Q1023 RMK 2CU015     5CU030 A3021=,
20180102_020000.000,0,RJNK,,,,0,20180102020000,-1,-1,-1,-1,150,-1,4,-1,-1,110,180,,9999,0,1,3,FEW 15   BKN 30   FEW 30 TCU,1,4,1,1,1022,RJNK 020200Z 15004KT 110V180 9999 -SHRASN FEW015 BKN030     FEW030TCU 04/01 Q1022 RMK 2CU015 6CU030 1TCU030 A3018 TCU           W=,- RA SN SH
20180102_020000.002,0,RJNK,,,,0,20180102020000,-1,-1,-1,-1,150,-1,4,-1,-1,110,180,,9999,0,1,3,FEW 15   BKN 30   FEW 30 TCU,1,4,1,1,1022,RJNK 020200Z 15004KT 110V180 9999 -SHRASN FEW015 BKN030     FEW030TCU 04/01 Q1022 RMK 2CU015 6CU030 1TCU030 A3018 TCU           W=,- RA SN SH
20180102_030000.000,0,RJNK,,,,0,20180102030000,-1,-1,-1,-1,150,-1,6,-1,-1,-1,-1,,9999,0,1,3,FEW 8   SCT 15   BKN 30,1,4,1,1,1020,RJNK 020300Z 15006KT 9999 -SHRA FEW008 SCT015 BKN030 04/01     Q1020 RMK 1CU008 3CU015 7CU030 A3014=,- RA SH
20180102_030000.002,0,RJNK,,,,0,20180102030000,-1,-1,-1,-1,150,-1,6,-1,-1,-1,-1,,9999,0,1,3,FEW 8   SCT 15   BKN 30,1,4,1,1,1020,RJNK 020300Z 15006KT 9999 -SHRA FEW008 SCT015 BKN030 04/01     Q1020 RMK 1CU008 3CU015 7CU030 A3014=,- RA SH
20180102_040000.000,0,RJNK,,,,0,20180102040000,-1,-1,-1,-1,170,-1,6,-1,-1,120,200,,8000,0,1,3,FEW 8   BKN 15   BKN 30,1,4,1,1,1019,RJNK 020400Z 17006KT 120V200 8000 -SHRA FEW008 BKN015 BKN030     04/01 Q1019 RMK 1CU008 5CU015 7CU030 A3012=,- RA SH
20180102_040000.002,0,RJNK,,,,0,20180102040000,-1,-1,-1,-1,170,-1,6,-1,-1,120,200,,8000,0,1,3,FEW 8   BKN 15   BKN 30,1,4,1,1,1019,RJNK 020400Z 17006KT 120V200 8000 -SHRA FEW008 BKN015 BKN030     04/01 Q1019 RMK 1CU008 5CU015 7CU030 A3012=,- RA SH
20180102_050000.000,0,RJNK,,,,0,20180102050000,-1,-1,-1,-1,170,-1,6,-1,-1,-1,-1,,8000,0,1,3,FEW 8   BKN 15   BKN 30,1,5,1,2,1019,RJNK 020500Z 17006KT 8000 -SHRA FEW008 BKN015 BKN030 05/02     Q1019 RMK 1CU008 5CU015 7CU030 A3011 VIS NW-N 4000M=,- RA SH
20180102_050000.002,0,RJNK,,,,0,20180102050000,-1,-1,-1,-1,170,-1,6,-1,-1,-1,-1,,8000,0,1,3,FEW 8   BKN 15   BKN 30,1,5,1,2,1019,RJNK 020500Z 17006KT 8000 -SHRA FEW008 BKN015 BKN030 05/02     Q1019 RMK 1CU008 5CU015 7CU030 A3011 VIS NW-N 4000M=,- RA SH
20180102_060000.000,0,RJNK,,,,0,20180102060000,-1,-1,-1,-1,190,-1,11,-1,-1,-1,-1,,9999,0,0,4,FEW 5   SCT 15   FEW 15 TCU  BKN 30,1,5,1,2,1019,RJNK 020600Z 19011KT 9999 FEW005 SCT015 FEW015TCU BKN030 05/02     Q1019 RMK 1ST005 3CU015 1TCU015 7CU030 A3010 TCU NE 1ST005           OVER AD=,
20180102_060000.002,0,RJNK,,,,0,20180102060000,-1,-1,-1,-1,190,-1,11,-1,-1,-1,-1,,9999,0,0,4,FEW 5   SCT 15   FEW 15 TCU  BKN 30,1,5,1,2,1019,RJNK 020600Z 19011KT 9999 FEW005 SCT015 FEW015TCU BKN030 05/02     Q1019 RMK 1ST005 3CU015 1TCU015 7CU030 A3010 TCU NE           1ST005 OVER AD=,
20180102_070000.000,0,RJNK,,,,0,20180102070000,-1,-1,-1,-1,210,-1,9,-1,-1,170,230,,9999,0,1,3,FEW 8   SCT 15   BKN 30,1,6,1,2,1018,RJNK 020700Z 21009KT 170V230 9999 -SHRA FEW008 SCT015 BKN030     06/02 Q1018 RMK 1CU008 3CU015 7CU030 A3008=,- RA SH
20180102_070000.002,0,RJNK,,,,0,20180102070000,-1,-1,-1,-1,210,-1,9,-1,-1,170,230,,9999,0,1,3,FEW 8   SCT 15   BKN 30,1,6,1,2,1018,RJNK 020700Z 21009KT 170V230 9999 -SHRA FEW008 SCT015 BKN030     06/02 Q1018 RMK 1CU008 3CU015 7CU030 A3008=,- RA SH
20180102_080000.000,0,RJNK,,,,0,20180102080000,-1,-1,-1,-1,280,-1,16,-1,30,-1,-1,,8000,0,1,3,FEW 8   BKN 15   BKN 30,1,6,1,2,1018,RJNK 020800Z 28016G30KT 8000 -SHRA FEW008 BKN015 BKN030 06/02     Q1018 RMK 1CU008 5CU015 7CU030 A3007=,- RA SH
20180102_080000.002,0,RJNK,,,,0,20180102080000,-1,-1,-1,-1,280,-1,16,-1,30,-1,-1,,8000,0,1,3,FEW 8   BKN 15   BKN 30,1,6,1,2,1018,RJNK 020800Z 28016G30KT 8000 -SHRA FEW008 BKN015 BKN030 06/02     Q1018 RMK 1CU008 5CU015 7CU030 A3007=,- RA SH
20180102_090000.000,0,RJNK,,,,0,20180102090000,-1,-1,-1,-1,270,-1,24,-1,-1,-1,-1,,9999,0,0,2,FEW 8   BKN 30,1,8,-1,2,1017,RJNK 020900Z 27024KT 9999 FEW008 BKN030 08/M02 Q1017 RMK 1CU008     6CU030 A3005 MAX WIND 32KT=,
20180102_090000.002,0,RJNK,,,,0,20180102090000,-1,-1,-1,-1,270,-1,24,-1,-1,-1,-1,,9999,0,0,2,FEW 8   BKN 30,1,8,-1,2,1017,RJNK 020900Z 27024KT 9999 FEW008 BKN030 08/M02 Q1017 RMK     1CU008 6CU030 A3005 MAX WIND 32KT=,
20180102_100000.000,0,RJNK,,,,0,20180102100000,-1,-1,-1,-1,280,-1,21,-1,32,-1,-1,,9999,0,1,3,FEW 8   SCT 15   BKN 30,1,8,-1,3,1017,RJNK 021000Z 28021G32KT 9999 -SHRA FEW008 SCT015 BKN030 08/M03     Q1017 RMK 1CU008 3CU015 7CU030 A3005=,- RA SH
20180102_100000.002,0,RJNK,,,,0,20180102100000,-1,-1,-1,-1,280,-1,21,-1,32,-1,-1,,9999,0,1,3,FEW 8   SCT 15   BKN 30,1,8,-1,3,1017,RJNK 021000Z 28021G32KT 9999 -SHRA FEW008 SCT015 BKN030 08/M03     Q1017 RMK 1CU008 3CU015 7CU030 A3005=,- RA SH
20180102_110000.000,0,RJNK,,,,0,20180102110000,-1,-1,-1,-1,250,-1,28,-1,-1,-1,-1,,3000,0,1,3,SCT 8   BKN 15   OVC 30,1,5,1,1,1018,RJNK 021100Z 25028KT 3000 -SHRASNGS SCT008 BKN015 OVC030 05/01     Q1018 RMK 3CU008 6CU015 8CU030 A3009 MAX WIND 35KT SMALL           HAIL=,- RA, SN GS SH
20180102_110000.002,0,RJNK,,,,0,20180102110000,-1,-1,-1,-1,250,-1,28,-1,-1,-1,-1,,3000,0,1,3,SCT 8   BKN 15   OVC 30,1,5,1,1,1018,RJNK 021100Z 25028KT 3000 -SHRASNGS SCT008 BKN015 OVC030 05/01     Q1018 RMK 3CU008 6CU015 8CU030 A3009 MAX WIND 35KT SMALL           HAIL=,- RA, SN GS SH
20180102_120000.000,0,RJNK,,,,0,20180102120000,-1,-1,-1,-1,310,-1,24,-1,36,-1,-1,,9999,0,0,3,FEW 15   BKN 30   FEW 30 CB,1,7,-1,0,1018,RJNK 021200Z 31024G36KT 9999 FEW015 BKN030 FEW030CB 07/M00     Q1018 RMK 1CU015 7CU030 1CB030 A3007 CB N AND SE=,
20180102_120000.002,0,RJNK,,,,0,20180102120000,-1,-1,-1,-1,310,-1,24,-1,36,-1,-1,,9999,0,0,3,FEW 15   BKN 30   FEW 30 CB,1,7,-1,0,1018,RJNK 021200Z 31024G36KT 9999 FEW015 BKN030 FEW030CB 07/M00     Q1018 RMK 1CU015 7CU030 1CB030 A3007 CB N AND SE=,
20180102_130000.000,0,RJNK,,,,0,20180102130000,-1,-1,-1,-1,290,-1,23,-1,33,-1,-1,,9999,0,0,3,FEW 15   BKN 30   FEW 30 CB,1,6,-1,3,1018,RJNK 021300Z 29023G33KT 9999 FEW015 BKN030 FEW030CB 06/M03     Q1018 RMK 2CU015 7CU030 1CB030 A3007 CB SE=,
20180102_130000.003,0,RJNK,,,,0,20180102130000,-1,-1,-1,-1,290,-1,23,-1,33,-1,-1,,9999,0,0,3,FEW 15   BKN 30   FEW 30 CB,1,6,-1,3,1018,RJNK 021300Z 29023G33KT 9999 FEW015 BKN030 FEW030CB 06/M03     Q1018 RMK 2CU015 7CU030 1CB030 A3007 CB SE=,
20180102_140000.000,0,RJNK,,,,0,20180102140000,-1,-1,-1,-1,310,-1,15,-1,-1,270,330,,9999,0,0,2,FEW 15   BKN 30,1,6,-1,2,1017,RJNK 021400Z 31015KT 270V330 9999 FEW015 BKN030 06/M02 Q1017     RMK 1CU015 5CU030 A3005=,
20180102_140000.003,0,RJNK,,,,0,20180102140000,-1,-1,-1,-1,310,-1,15,-1,-1,270,330,,9999,0,0,2,FEW 15   BKN 30,1,6,-1,2,1017,RJNK 021400Z 31015KT 270V330 9999 FEW015 BKN030 06/M02 Q1017     RMK 1CU015 5CU030 A3005=,
20180102_150000.000,0,RJNK,,,,0,20180102150000,-1,-1,-1,-1,330,-1,16,-1,26,300,360,,9999,0,0,2,SCT 20   BKN 30,1,5,-1,2,1017,RJNK 021500Z 33016G26KT 300V360 9999 SCT020 BKN030 05/M02 Q1017     RMK 3CU020 5CU030 A3005=,
20180102_150000.002,0,RJNK,,,,0,20180102150000,-1,-1,-1,-1,330,-1,16,-1,26,300,360,,9999,0,0,2,SCT 20   BKN 30,1,5,-1,2,1017,RJNK 021500Z 33016G26KT 300V360 9999 SCT020 BKN030 05/M02     Q1017 RMK 3CU020 5CU030 A3005=,
20180102_160000.000,0,RJNK,,,,0,20180102160000,-1,-1,-1,-1,290,-1,13,-1,-1,270,330,,9999,0,0,2,FEW 15   BKN 30,1,5,-1,4,1017,RJNK 021600Z 29013KT 270V330 9999 FEW015 BKN030 05/M04 Q1017     RMK 2CU015 7CU030 A3005=,
20180102_160000.002,0,RJNK,,,,0,20180102160000,-1,-1,-1,-1,290,-1,13,-1,-1,270,330,,9999,0,0,2,FEW 15   BKN 30,1,5,-1,4,1017,RJNK 021600Z 29013KT 270V330 9999 FEW015 BKN030 05/M04 Q1017     RMK 2CU015 7CU030 A3005=,
20180102_170000.000,0,RJNK,,,,0,20180102170000,-1,-1,-1,-1,300,-1,19,-1,-1,270,340,,9999,0,0,2,FEW 20   BKN 30,1,5,-1,6,1018,RJNK 021700Z 30019KT 270V340 9999 FEW020 BKN030 05/M06 Q1018     RMK 2CU020 6CU030 A3006 MAX WIND 26KT=,
20180102_170000.002,0,RJNK,,,,0,20180102170000,-1,-1,-1,-1,300,-1,19,-1,-1,270,340,,9999,0,0,2,FEW 20   BKN 30,1,5,-1,6,1018,RJNK 021700Z 30019KT 270V340 9999 FEW020 BKN030 05/M06 Q1018     RMK 2CU020 6CU030 A3006 MAX WIND 26KT=,
20180102_180000.000,0,RJNK,,,,0,20180102180000,-1,-1,-1,-1,310,-1,17,-1,-1,-1,-1,,9999,0,1,4,FEW 8   BKN 15   FEW 15 TCU  BKN 30,1,4,-1,4,1018,RJNK 021800Z 31017KT 9999 -SHSN FEW008 BKN015 FEW015TCU BKN030     04/M04 Q1018 RMK 1CU008 5CU015 1TCU015 6CU030 A3008 MAX           WIND 24KT TCU W=,- SN SH
20180102_180000.001,2,RJNK,,,,0,20180102180000,-1,-1,-1,-1,310,-1,17,-1,-1,-1,-1,,9999,0,1,4,FEW 8   BKN 15   FEW 15 TCU  BKN 30,1,4,-1,4,1018,RJNK 021800Z 31017KT 9999 -SHSN FEW008 BKN015 FEW015TCU     BKN030 04/M04 Q1018 RMK 1CU008 5CU015 1TCU015 6CU030 A3008           MAX WIND 24KT TCU W=,- SN SH
20180102_180000.003,0,RJNK,,,,0,20180102180000,-1,-1,-1,-1,310,-1,17,-1,-1,-1,-1,,9999,0,1,4,FEW 8   BKN 15   FEW 15 TCU  BKN 30,1,4,-1,4,1018,RJNK 021800Z 31017KT 9999 -SHSN FEW008 BKN015 FEW015TCU     BKN030 04/M04 Q1018 RMK 1CU008 5CU015 1TCU015 6CU030           A3008 MAX WIND 24KT TCU W=,- SN SH
20180102_190000.000,0,RJNK,,,,0,20180102190000,-1,-1,-1,-1,330,-1,17,-1,-1,-1,-1,,9999,0,1,3,FEW 8   BKN 15   FEW 15 CB,1,3,-1,2,1018,RJNK 021900Z 33017KT 9999 -SHSN FEW008 BKN015 FEW015CB 03/M02     Q1018 RMK 2CU008 5CU015 1CB015 A3008 MAX WIND 24KT CB           S-SW=,- SN SH
20180102_190000.002,0,RJNK,,,,0,20180102190000,-1,-1,-1,-1,330,-1,17,-1,-1,-1,-1,,9999,0,1,3,FEW 8   BKN 15   FEW 15 CB,1,3,-1,2,1018,RJNK 021900Z 33017KT 9999 -SHSN FEW008 BKN015 FEW015CB 03/M02     Q1018 RMK 2CU008 5CU015 1CB015 A3008 MAX WIND 24KT CB           S-SW=,- SN SH
20180102_200000.000,0,RJNK,,,,0,20180102200000,-1,-1,-1,-1,330,-1,22,-1,32,-1,-1,,9999,0,1,4,FEW 8   SCT 15   FEW 15 CB  BKN 30,1,3,-1,4,1018,RJNK 022000Z 33022G32KT 9999 -SHSN FEW008 SCT015 FEW015CB     BKN030 03/M04 Q1018 RMK 2CU008 4CU015 1CB015 7CU030 A3009           CB NE=,- SN SH
20180102_200000.003,0,RJNK,,,,0,20180102200000,-1,-1,-1,-1,330,-1,22,-1,32,-1,-1,,9999,0,1,4,FEW 8   SCT 15   FEW 15 CB  BKN 30,1,3,-1,4,1018,RJNK 022000Z 33022G32KT 9999 -SHSN FEW008 SCT015 FEW015CB     BKN030 03/M04 Q1018 RMK 2CU008 4CU015 1CB015 7CU030 A3009           CB NE=,- SN SH
20180102_210000.000,0,RJNK,,,,0,20180102210000,-1,-1,-1,-1,330,-1,16,-1,27,300,360,,9999,0,1,4,FEW 5   SCT 15   FEW 15 TCU  BKN 30,1,3,-1,4,1020,RJNK 022100Z 33016G27KT 300V360 9999 -SHSN FEW005 SCT015     FEW015TCU BKN030 03/M04 Q1020 RMK 1ST005 3CU015 1TCU015           6CU030 A3012 TCU NE 1ST005 N 28041KT/1020 08/02 R011 S000=,- SN SH
20180102_210000.002,0,RJNK,,,,0,20180102210000,-1,-1,-1,-1,330,-1,16,-1,27,300,360,,9999,0,1,4,FEW 5   SCT 15   FEW 15 TCU  BKN 30,1,3,-1,4,1020,RJNK 022100Z 33016G27KT 300V360 9999 -SHSN FEW005 SCT015     FEW015TCU BKN030 03/M04 Q1020 RMK 1ST005 3CU015 1TCU015           6CU030 A3012 TCU NE 1ST005 N 28041KT/1020 08/02 R011           S000=,- SN SH
20180102_220000.000,0,RJNK,,,,0,20180102220000,-1,-1,-1,-1,320,-1,20,-1,-1,-1,-1,,9999,0,1,3,FEW 8   SCT 15   BKN 30,1,3,-1,5,1020,RJNK 022200Z 32020KT 9999 -SHSN FEW008 SCT015 BKN030 03/M05     Q1020 RMK 1CU008 3CU015 7CU030 A3013=,- SN SH
20180102_220000.002,0,RJNK,,,,0,20180102220000,-1,-1,-1,-1,320,-1,20,-1,-1,-1,-1,,9999,0,1,3,FEW 8   SCT 15   BKN 30,1,3,-1,5,1020,RJNK 022200Z 32020KT 9999 -SHSN FEW008 SCT015 BKN030 03/M05     Q1020 RMK 1CU008 3CU015 7CU030 A3013=,- SN SH
20180102_230000.000,0,RJNK,,,,0,20180102230000,-1,-1,-1,-1,310,-1,18,-1,-1,-1,-1,,9999,0,1,4,FEW 8   BKN 15   FEW 15 TCU  BKN 30,1,2,-1,4,1021,RJNK 022300Z 31018KT 9999 -SHSN FEW008 BKN015 FEW015TCU BKN030     02/M04 Q1021 RMK 1CU008 5CU015 1TCU015 7CU030 A3016 TCU           NE=,- SN SH
20180102_230000.002,0,RJNK,,,,0,20180102230000,-1,-1,-1,-1,310,-1,18,-1,-1,-1,-1,,9999,0,1,4,FEW 8   BKN 15   FEW 15 TCU  BKN 30,1,2,-1,4,1021,RJNK 022300Z 31018KT 9999 -SHSN FEW008 BKN015 FEW015TCU BKN030     02/M04 Q1021 RMK 1CU008 5CU015 1TCU015 7CU030 A3016 TCU           NE=,- SN SH
20180103_000000.000,0,RJNK,,,,0,20180103000000,-1,-1,-1,-1,350,-1,16,-1,26,-1,-1,,9999,0,1,4,FEW 8   BKN 15   FEW 15 TCU  BKN 30,1,3,-1,5,1021,RJNK 030000Z 35016G26KT 9999 -SHGS FEW008 BKN015 FEW015TCU     BKN030 03/M05 Q1021 RMK 1CU008 5CU015 1TCU015 7CU030 A3018           VIS W-NW 4000M SMALL HAIL TCU NW=,- GS SH
20180103_000000.002,0,RJNK,,,,0,20180103000000,-1,-1,-1,-1,350,-1,16,-1,26,-1,-1,,9999,0,1,4,FEW 8   BKN 15   FEW 15 TCU  BKN 30,1,3,-1,5,1021,RJNK 030000Z 35016G26KT 9999 -SHGS FEW008 BKN015 FEW015TCU     BKN030 03/M05 Q1021 RMK 1CU008 5CU015 1TCU015 7CU030           A3018 VIS W-NW 4000M SMALL HAIL TCU NW=,- GS SH
20180103_010000.000,0,RJNK,,,,0,20180103010000,-1,-1,-1,-1,320,-1,15,-1,-1,-1,-1,,9999,0,0,3,FEW 8   SCT 15   BKN 30,1,3,-1,5,1021,RJNK 030100Z 32015KT 9999 FEW008 SCT015 BKN030 03/M05 Q1021 RMK     1CU008 3CU015 7CU030 A3017=,
20180103_010000.002,0,RJNK,,,,0,20180103010000,-1,-1,-1,-1,320,-1,15,-1,-1,-1,-1,,9999,0,0,3,FEW 8   SCT 15   BKN 30,1,3,-1,5,1021,RJNK 030100Z 32015KT 9999 FEW008 SCT015 BKN030 03/M05 Q1021     RMK 1CU008 3CU015 7CU030 A3017=,
20180103_020000.000,0,RJNK,,,,0,20180103020000,-1,-1,-1,-1,350,-1,12,-1,-1,310,10,,9999,0,1,3,FEW 8   SCT 15   BKN 30,1,4,-1,6,1020,RJNK 030200Z 35012KT 310V010 9999 -SHSN FEW008 SCT015 BKN030     04/M06 Q1020 RMK 1CU008 3CU015 7CU030 A3015=,- SN SH
20180103_020000.002,0,RJNK,,,,0,20180103020000,-1,-1,-1,-1,350,-1,12,-1,-1,310,10,,9999,0,1,3,FEW 8   SCT 15   BKN 30,1,4,-1,6,1020,RJNK 030200Z 35012KT 310V010 9999 -SHSN FEW008 SCT015 BKN030     04/M06 Q1020 RMK 1CU008 3CU015 7CU030 A3015=,- SN SH
20180103_030000.000,0,RJNK,,,,0,20180103030000,-1,-1,-1,-1,330,-1,13,-1,-1,300,360,,9999,0,1,3,FEW 8   SCT 15   BKN 30,1,5,-1,6,1020,RJNK 030300Z 33013KT 300V360 9999 -SHSN FEW008 SCT015 BKN030     05/M06 Q1020 RMK 1CU008 4CU015 7CU030 A3014=,- SN SH
20180103_030000.003,0,RJNK,,,,0,20180103030000,-1,-1,-1,-1,330,-1,13,-1,-1,300,360,,9999,0,1,3,FEW 8   SCT 15   BKN 30,1,5,-1,6,1020,RJNK 030300Z 33013KT 300V360 9999 -SHSN FEW008 SCT015 BKN030     05/M06 Q1020 RMK 1CU008 4CU015 7CU030 A3014=,- SN SH
20180103_040000.000,0,RJNK,,,,0,20180103040000,-1,-1,-1,-1,340,-1,17,-1,27,310,10,,9999,0,1,3,SCT 8   BKN 15   BKN 30,1,2,-1,5,1020,RJNK 030400Z 34017G27KT 310V010 9999 -SHSN SCT008 BKN015 BKN030     02/M05 Q1020 RMK 3CU008 5CU015 7CU030 A3014 VIS E-S 3000M=,- SN SH
20180103_040000.002,0,RJNK,,,,0,20180103040000,-1,-1,-1,-1,340,-1,17,-1,27,310,10,,9999,0,1,3,SCT 8   BKN 15   BKN 30,1,2,-1,5,1020,RJNK 030400Z 34017G27KT 310V010 9999 -SHSN SCT008 BKN015     BKN030 02/M05 Q1020 RMK 3CU008 5CU015 7CU030 A3014 VIS           E-S 3000M=,- SN SH
20180103_050000.000,0,RJNK,,,,0,20180103050000,-1,-1,-1,-1,330,-1,14,-1,-1,290,360,,9999,0,1,4,FEW 8   BKN 15   FEW 15 CB  BKN 30,1,5,-1,3,1020,RJNK 030500Z 33014KT 290V360 9999 -SHSN FEW008 BKN015 FEW015CB     BKN030 05/M03 Q1020 RMK 2CU008 5CU015 2CB015 7CU030 A3013           VIS W 3000M CB W-N=,- SN SH
20180103_050000.002,0,RJNK,,,,0,20180103050000,-1,-1,-1,-1,330,-1,14,-1,-1,290,360,,9999,0,1,4,FEW 8   BKN 15   FEW 15 CB  BKN 30,1,5,-1,3,1020,RJNK 030500Z 33014KT 290V360 9999 -SHSN FEW008 BKN015 FEW015CB     BKN030 05/M03 Q1020 RMK 2CU008 5CU015 2CB015 7CU030 A3013           VIS W 3000M CB W-N=,- SN SH
20180103_060000.000,0,RJNK,,,,0,20180103060000,-1,-1,-1,-1,330,-1,15,-1,-1,-1,-1,,9999,0,1,3,FEW 8   SCT 15   BKN 30,1,4,-1,5,1020,RJNK 030600Z 33015KT 9999 -SHSN FEW008 SCT015 BKN030 04/M05     Q1020 RMK 2CU008 4CU015 7CU030 A3013=,- SN SH
20180103_060000.002,0,RJNK,,,,0,20180103060000,-1,-1,-1,-1,330,-1,15,-1,-1,-1,-1,,9999,0,1,3,FEW 8   SCT 15   BKN 30,1,4,-1,5,1020,RJNK 030600Z 33015KT 9999 -SHSN FEW008 SCT015 BKN030 04/M05     Q1020 RMK 2CU008 4CU015 7CU030 A3013=,- SN SH
20180103_070000.000,0,RJNK,,,,0,20180103070000,-1,-1,-1,-1,10,-1,4,-1,-1,320,60,,9999,0,1,3,FEW 5   SCT 8   BKN 15,1,2,-1,1,1021,RJNK 030700Z 01004KT 320V060 9999 -SHSN FEW005 SCT008 BKN015     02/M01 Q1021 RMK 1ST005 3CU008 5CU015 A3017=,- SN SH
20180103_070000.002,0,RJNK,,,,0,20180103070000,-1,-1,-1,-1,10,-1,4,-1,-1,320,60,,9999,0,1,3,FEW 5   SCT 8   BKN 15,1,2,-1,1,1021,RJNK 030700Z 01004KT 320V060 9999 -SHSN FEW005 SCT008 BKN015     02/M01 Q1021 RMK 1ST005 3CU008 5CU015 A3017=,- SN SH
20180103_080000.000,0,RJNK,,,,0,20180103080000,-1,-1,-1,-1,190,-1,4,-1,-1,140,240,,9999,0,0,3,FEW 8   SCT 15   BKN 30,1,1,-1,1,1021,RJNK 030800Z 19004KT 140V240 9999 FEW008 SCT015 BKN030 01/M01     Q1021 RMK 1CU008 3CU015 5CU030 A3016=,
20180103_080000.002,0,RJNK,,,,0,20180103080000,-1,-1,-1,-1,190,-1,4,-1,-1,140,240,,9999,0,0,3,FEW 8   SCT 15   BKN 30,1,1,-1,1,1021,RJNK 030800Z 19004KT 140V240 9999 FEW008 SCT015 BKN030 01/M01     Q1021 RMK 1CU008 3CU015 5CU030 A3016=,
20180103_090000.000,0,RJNK,,,,0,20180103090000,-1,-1,-1,-1,140,-1,6,-1,-1,-1,-1,,9999,0,0,3,FEW 8   SCT 15   BKN 30,1,2,-1,1,1021,RJNK 030900Z 14006KT 9999 FEW008 SCT015 BKN030 02/M01 Q1021 RMK     1CU008 3CU015 5CU030 A3017=,
20180103_090000.002,0,RJNK,,,,0,20180103090000,-1,-1,-1,-1,140,-1,6,-1,-1,-1,-1,,9999,0,0,3,FEW 8   SCT 15   BKN 30,1,2,-1,1,1021,RJNK 030900Z 14006KT 9999 FEW008 SCT015 BKN030 02/M01 Q1021     RMK 1CU008 3CU015 5CU030 A3017=,
20180103_100000.000,0,RJNK,,,,0,20180103100000,-1,-1,-1,-1,200,-1,4,-1,-1,150,280,,9999,0,0,3,FEW 8   SCT 15   BKN 30,1,2,-1,1,1021,RJNK 031000Z 20004KT 150V280 9999 FEW008 SCT015 BKN030 02/M01     Q1021 RMK 1CU008 3CU015 7CU030 A3018=,
20180103_100000.002,0,RJNK,,,,0,20180103100000,-1,-1,-1,-1,200,-1,4,-1,-1,150,280,,9999,0,0,3,FEW 8   SCT 15   BKN 30,1,2,-1,1,1021,RJNK 031000Z 20004KT 150V280 9999 FEW008 SCT015 BKN030 02/M01     Q1021 RMK 1CU008 3CU015 7CU030 A3018=,
20180103_110000.000,0,RJNK,,,,0,20180103110000,-1,-1,-1,-1,270,-1,11,-1,-1,-1,-1,,9999,0,1,3,FEW 5   SCT 8   BKN 15,1,1,-1,1,1021,RJNK 031100Z 27011KT 9999 -SHRASN FEW005 SCT008 BKN015 01/M01     Q1021 RMK 1ST005 3CU008 5CU015 A3017=,- RA SN SH
20180103_110000.002,0,RJNK,,,,0,20180103110000,-1,-1,-1,-1,270,-1,11,-1,-1,-1,-1,,9999,0,1,3,FEW 5   SCT 8   BKN 15,1,1,-1,1,1021,RJNK 031100Z 27011KT 9999 -SHRASN FEW005 SCT008 BKN015 01/M01     Q1021 RMK 1ST005 3CU008 5CU015 A3017=,- RA SN SH
20180103_120000.000,0,RJNK,,,,0,20180103120000,-1,-1,-1,-1,300,-1,7,-1,-1,-1,-1,,2500,0,1,3,FEW 3   SCT 5   BKN 8,1,1,-1,1,1022,RJNK 031200Z 30007KT 2500 -SHSN FEW003 SCT005 BKN008 01/M01     Q1022 RETS RMK 1ST003 4ST005 7CU008 A3020 1ST003 OVER RWY=,- SN SH
20180103_120000.002,0,RJNK,,,,0,20180103120000,-1,-1,-1,-1,300,-1,7,-1,-1,-1,-1,,2500,0,1,3,FEW 3   SCT 5   BKN 8,1,1,-1,1,1022,RJNK 031200Z 30007KT 2500 -SHSN FEW003 SCT005 BKN008 01/M01     Q1022 RETS RMK 1ST003 4ST005 7CU008 A3020 1ST003 OVER           RWY=,- SN SH
20180103_130000.000,0,RJNK,,,,0,20180103130000,-1,-1,-1,-1,100,-1,7,-1,-1,-1,-1,,3000,0,1,3,FEW 3   SCT 5   BKN 8,1,1,-1,1,1023,RJNK 031300Z 10007KT 3000 -SHSN FEW003 SCT005 BKN008 01/M01     Q1023 RMK 1ST003 4ST005 7CU008 A3022 1ST003 OVER RWY=,- SN SH
20180103_130000.003,0,RJNK,,,,0,20180103130000,-1,-1,-1,-1,100,-1,7,-1,-1,-1,-1,,3000,0,1,3,FEW 3   SCT 5   BKN 8,1,1,-1,1,1023,RJNK 031300Z 10007KT 3000 -SHSN FEW003 SCT005 BKN008 01/M01     Q1023 RMK 1ST003 4ST005 7CU008 A3022 1ST003 OVER RWY=,- SN SH
20180103_140000.000,0,RJNK,,,,0,20180103140000,-1,-1,-1,-1,60,-1,2,-1,-1,-1,-1,,1000,1,1,1,VV 5,1,0,-1,0,1023,RJNK 031400Z 06002KT 1000 R24/P1800N -SHSN VV005 00/M00 Q1023     RMK A3021=,- SN SH
20180103_140000.002,0,RJNK,,,,0,20180103140000,-1,-1,-1,-1,60,-1,2,-1,-1,-1,-1,,1000,1,1,1,VV 5,1,0,-1,0,1023,RJNK 031400Z 06002KT 1000 R24/P1800N -SHSN VV005 00/M00 Q1023     RMK A3021=,- SN SH
20180103_150000.000,0,RJNK,,,,0,20180103150000,-1,-1,-1,-1,100,-1,6,-1,-1,-1,-1,,9999,0,1,3,FEW 5   SCT 15   BKN 30,1,0,-1,0,1022,RJNK 031500Z 10006KT 9999 -SHSN FEW005 SCT015 BKN030 00/M00     Q1022 RMK 1ST005 4CU015 7CU030 A3020 1ST005 NW-E=,- SN SH
20180103_150000.002,0,RJNK,,,,0,20180103150000,-1,-1,-1,-1,100,-1,6,-1,-1,-1,-1,,9999,0,1,3,FEW 5   SCT 15   BKN 30,1,0,-1,0,1022,RJNK 031500Z 10006KT 9999 -SHSN FEW005 SCT015 BKN030 00/M00     Q1022 RMK 1ST005 4CU015 7CU030 A3020 1ST005 NW-E=,- SN SH
20180103_160000.000,0,RJNK,,,,0,20180103160000,-1,-1,-1,-1,230,-1,5,-1,-1,180,260,,4000,0,1,3,FEW 5   BKN 8   OVC 15,1,1,-1,0,1022,RJNK 031600Z 23005KT 180V260 4000 -SHSN FEW005 BKN008 OVC015     01/M00 Q1022 RMK 2ST005 5CU008 8CU015 A3020 2ST005 OVER           RWY=,- SN SH
20180103_160000.002,0,RJNK,,,,0,20180103160000,-1,-1,-1,-1,230,-1,5,-1,-1,180,260,,4000,0,1,3,FEW 5   BKN 8   OVC 15,1,1,-1,0,1022,RJNK 031600Z 23005KT 180V260 4000 -SHSN FEW005 BKN008 OVC015     01/M00 Q1022 RMK 2ST005 5CU008 8CU015 A3020 2ST005 OVER           RWY=,- SN SH
20180103_170000.000,0,RJNK,,,,0,20180103170000,-1,-1,-1,-1,110,-1,6,-1,-1,-1,-1,,8000,0,1,3,FEW 5   SCT 8   BKN 15,1,0,-1,0,1023,RJNK 031700Z 11006KT 8000 -SHSN FEW005 SCT008 BKN015 00/M00     Q1023 RMK 1ST005 3CU008 7CU015 A3021 1ST005 NW-SE=,- SN SH
20180103_170000.002,0,RJNK,,,,0,20180103170000,-1,-1,-1,-1,110,-1,6,-1,-1,-1,-1,,8000,0,1,3,FEW 5   SCT 8   BKN 15,1,0,-1,0,1023,RJNK 031700Z 11006KT 8000 -SHSN FEW005 SCT008 BKN015 00/M00     Q1023 RMK 1ST005 3CU008 7CU015 A3021 1ST005 NW-SE=,- SN SH
20180103_180000.000,0,RJNK,,,,0,20180103180000,-1,-1,-1,-1,90,-1,5,-1,-1,-1,-1,,9999,0,1,3,FEW 3   SCT 8   BKN 15,1,0,-1,0,1023,RJNK 031800Z 09005KT 9999 -SHSN FEW003 SCT008 BKN015 00/M00     Q1023 RMK 1ST003 3CU008 6CU015 A3022 1ST003 S-NW=,- SN SH
20180103_180000.002,0,RJNK,,,,0,20180103180000,-1,-1,-1,-1,90,-1,5,-1,-1,-1,-1,,9999,0,1,3,FEW 3   SCT 8   BKN 15,1,0,-1,0,1023,RJNK 031800Z 09005KT 9999 -SHSN FEW003 SCT008 BKN015 00/M00     Q1023 RMK 1ST003 3CU008 6CU015 A3022 1ST003 S-NW=,- SN SH
20180103_190000.000,0,RJNK,,,,0,20180103190000,-1,-1,-1,-1,150,-1,5,-1,-1,120,180,,4000,0,1,3,FEW 3   BKN 8   BKN 15,1,0,-1,0,1023,RJNK 031900Z 15005KT 120V180 4000 -SHSN FEW003 BKN008 BKN015     00/M00 Q1023 RMK 1ST003 5CU008 7CU015 A3021 1ST003 NE-SW=,- SN SH
20180103_190000.002,0,RJNK,,,,0,20180103190000,-1,-1,-1,-1,150,-1,5,-1,-1,120,180,,4000,0,1,3,FEW 3   BKN 8   BKN 15,1,0,-1,0,1023,RJNK 031900Z 15005KT 120V180 4000 -SHSN FEW003 BKN008 BKN015     00/M00 Q1023 RMK 1ST003 5CU008 7CU015 A3021 1ST003 NE-SW=,- SN SH
20180103_200000.000,0,RJNK,,,,0,20180103200000,-1,-1,-1,-1,90,-1,5,-1,-1,-1,-1,,9999,0,1,3,FEW 8   SCT 15   BKN 30,1,0,-1,0,1023,RJNK 032000Z 09005KT 9999 -SHSN FEW008 SCT015 BKN030 00/M00     Q1023 RMK 1CU008 3CU015 7CU030 A3021=,- SN SH
20180103_200000.002,0,RJNK,,,,0,20180103200000,-1,-1,-1,-1,90,-1,5,-1,-1,-1,-1,,9999,0,1,3,FEW 8   SCT 15   BKN 30,1,0,-1,0,1023,RJNK 032000Z 09005KT 9999 -SHSN FEW008 SCT015 BKN030 00/M00     Q1023 RMK 1CU008 3CU015 7CU030 A3021=,- SN SH
20180103_210000.000,0,RJNK,,,,0,20180103210000,-1,-1,-1,-1,170,-1,4,-1,-1,140,200,,9999,0,1,3,FEW 8   SCT 15   BKN 30,1,1,-1,0,1023,RJNK 032100Z 17004KT 140V200 9999 -SHSN FEW008 SCT015 BKN030     01/M00 Q1023 RMK 1CU008 3CU015 7CU030 A3023 33031KT/2110           05/00 R014 S009 SD004=,- SN SH
20180103_210000.003,0,RJNK,,,,0,20180103210000,-1,-1,-1,-1,170,-1,4,-1,-1,140,200,,9999,0,1,3,FEW 8   SCT 15   BKN 30,1,1,-1,0,1023,RJNK 032100Z 17004KT 140V200 9999 -SHSN FEW008 SCT015 BKN030     01/M00 Q1023 RMK 1CU008 3CU015 7CU030 A3023 33031KT/2110           05/00 R014 S009 SD004=,- SN SH
20180103_220000.000,0,RJNK,,,,0,20180103220000,-1,-1,-1,-1,140,-1,6,-1,-1,-1,-1,,9999,0,0,3,FEW 5   SCT 8   BKN 15,1,1,-1,0,1023,RJNK 032200Z 14006KT 9999 FEW005 SCT008 BKN015 01/M00 Q1023 RMK     2ST005 3CU008 5CU015 A3022=,
20180103_220000.002,0,RJNK,,,,0,20180103220000,-1,-1,-1,-1,140,-1,6,-1,-1,-1,-1,,9999,0,0,3,FEW 5   SCT 8   BKN 15,1,1,-1,0,1023,RJNK 032200Z 14006KT 9999 FEW005 SCT008 BKN015 01/M00 Q1023     RMK 2ST005 3CU008 5CU015 A3022=,
20180103_230000.000,0,RJNK,,,,0,20180103230000,-1,-1,-1,-1,180,-1,3,-1,-1,150,210,,4500,0,1,3,FEW 3   SCT 8   BKN 15,1,1,-1,0,1023,RJNK 032300Z 18003KT 150V210 4500 -SHGSSN FEW003 SCT008 BKN015     01/M00 Q1023 RMK 1ST003 3CU008 7CU015 A3022 VIS N-E 5KM           SNOW PELLETS CUMED OHD=,- GS SN SH
20180103_230000.002,0,RJNK,,,,0,20180103230000,-1,-1,-1,-1,180,-1,3,-1,-1,150,210,,4500,0,1,3,FEW 3   SCT 8   BKN 15,1,1,-1,0,1023,RJNK 032300Z 18003KT 150V210 4500 -SHGSSN FEW003 SCT008 BKN015     01/M00 Q1023 RMK 1ST003 3CU008 7CU015 A3022 VIS N-E 5KM           SNOW PELLETS CUMED OHD=,- GS SN SH
20180104_000000.000,0,RJNK,,,,0,20180104000000,-1,-1,-1,-1,210,-1,3,-1,-1,180,240,,2000,0,1,3,SCT 3   SCT 5   BKN 8,1,1,-1,1,1023,RJNK 040000Z 21003KT 180V240 2000 -SHSN SCT003 SCT005 BKN008     01/M01 Q1023 RMK 3ST003 4ST005 5CU008 A3023 VIS N-NE           2500M=,- SN SH
20180104_000000.002,0,RJNK,,,,0,20180104000000,-1,-1,-1,-1,210,-1,3,-1,-1,180,240,,2000,0,1,3,SCT 3   SCT 5   BKN 8,1,1,-1,1,1023,RJNK 040000Z 21003KT 180V240 2000 -SHSN SCT003 SCT005 BKN008     01/M01 Q1023 RMK 3ST003 4ST005 5CU008 A3023 VIS N-NE           2500M=,- SN SH
20180104_010000.000,0,RJNK,,,,0,20180104010000,-1,-1,-1,-1,170,-1,6,-1,-1,-1,-1,,9999,0,1,3,FEW 3   SCT 8   BKN 15,1,1,-1,0,1023,RJNK 040100Z 17006KT 9999 -SHSN FEW003 SCT008 BKN015 01/M00     Q1023 RMK 1ST003 3CU008 5CU015 A3022=,- SN SH
20180104_010000.002,0,RJNK,,,,0,20180104010000,-1,-1,-1,-1,170,-1,6,-1,-1,-1,-1,,9999,0,1,3,FEW 3   SCT 8   BKN 15,1,1,-1,0,1023,RJNK 040100Z 17006KT 9999 -SHSN FEW003 SCT008 BKN015 01/M00     Q1023 RMK 1ST003 3CU008 5CU015 A3022=,- SN SH
20180104_020000.000,0,RJNK,,,,0,20180104020000,-1,-1,-1,-1,110,-1,3,-1,-1,-1,-1,,7000,0,1,3,FEW 3   SCT 8   BKN 15,1,2,-1,1,1022,RJNK 040200Z 11003KT 7000 -SHSN FEW003 SCT008 BKN015 02/M01     Q1022 RMK 1ST003 3CU008 7CU015 A3021=,- SN SH
20180104_020000.002,0,RJNK,,,,0,20180104020000,-1,-1,-1,-1,110,-1,3,-1,-1,-1,-1,,7000,0,1,3,FEW 3   SCT 8   BKN 15,1,2,-1,1,1022,RJNK 040200Z 11003KT 7000 -SHSN FEW003 SCT008 BKN015 02/M01     Q1022 RMK 1ST003 3CU008 7CU015 A3021=,- SN SH
20180104_030000.000,0,RJNK,,,,0,20180104030000,-1,-1,-1,-1,130,-1,5,-1,-1,-1,-1,,9999,0,1,3,FEW 5   SCT 10   BKN 15,1,2,-1,0,1022,RJNK 040300Z 13005KT 9999 -SHSN FEW005 SCT010 BKN015 02/M00     Q1022 RMK 1ST005 3CU010 7CU015 A3018=,- SN SH
20180104_030000.002,0,RJNK,,,,0,20180104030000,-1,-1,-1,-1,130,-1,5,-1,-1,-1,-1,,9999,0,1,3,FEW 5   SCT 10   BKN 15,1,2,-1,0,1022,RJNK 040300Z 13005KT 9999 -SHSN FEW005 SCT010 BKN015 02/M00     Q1022 RMK 1ST005 3CU010 7CU015 A3018=,- SN SH
20180104_040000.000,0,RJNK,,,,0,20180104040000,-1,-1,-1,-1,60,-1,7,-1,-1,-1,-1,,3000,0,1,3,FEW 6   SCT 10   BKN 15,1,1,-1,1,1021,RJNK 040400Z 06007KT 3000 -SHSN FEW006 SCT010 BKN015 01/M01     Q1021 RMK 1CU006 3CU010 7CU015 A3018 VIS NW-NE 2500M=,- SN SH
20180104_040000.002,0,RJNK,,,,0,20180104040000,-1,-1,-1,-1,60,-1,7,-1,-1,-1,-1,,3000,0,1,3,FEW 6   SCT 10   BKN 15,1,1,-1,1,1021,RJNK 040400Z 06007KT 3000 -SHSN FEW006 SCT010 BKN015 01/M01     Q1021 RMK 1CU006 3CU010 7CU015 A3018 VIS NW-NE 2500M=,- SN SH
20180104_050000.000,0,RJNK,,,,0,20180104050000,-1,-1,-1,-1,140,-1,4,-1,-1,-1,-1,,9999,0,1,3,FEW 10   SCT 15   BKN 25,1,1,1,0,1021,RJNK 040500Z 14004KT 9999 -SHSN FEW010 SCT015 BKN025 01/00     Q1021 RMK 1CU010 3CU015 7CU025 A3016=,- SN SH
20180104_050000.002,0,RJNK,,,,0,20180104050000,-1,-1,-1,-1,140,-1,4,-1,-1,-1,-1,,9999,0,1,3,FEW 10   SCT 15   BKN 25,1,1,1,0,1021,RJNK 040500Z 14004KT 9999 -SHSN FEW010 SCT015 BKN025 01/00     Q1021 RMK 1CU010 3CU015 7CU025 A3016=,- SN SH
20180104_060000.000,0,RJNK,,,,0,20180104060000,-1,-1,-1,-1,110,-1,6,-1,-1,-1,-1,,9999,0,1,3,FEW 8   SCT 15   BKN 25,1,1,-1,0,1021,RJNK 040600Z 11006KT 9999 -SHSN FEW008 SCT015 BKN025 01/M00     Q1021 RMK 1CU008 3CU015 7CU025 A3016=,- SN SH
20180104_060000.003,0,RJNK,,,,0,20180104060000,-1,-1,-1,-1,110,-1,6,-1,-1,-1,-1,,9999,0,1,3,FEW 8   SCT 15   BKN 25,1,1,-1,0,1021,RJNK 040600Z 11006KT 9999 -SHSN FEW008 SCT015 BKN025 01/M00     Q1021 RMK 1CU008 3CU015 7CU025 A3016=,- SN SH
20180104_070000.000,0,RJNK,,,,0,20180104070000,-1,-1,-1,-1,120,-1,5,-1,-1,-1,-1,,3000,0,1,3,FEW 8   BKN 10   BKN 15,1,1,-1,0,1021,RJNK 040700Z 12005KT 3000 -SHSN FEW008 BKN010 BKN015 01/M00     Q1021 RMK 1CU008 6CU010 7CU015 A3018 VIS SW 2500M NW           4500M=,- SN SH
20180104_070000.002,0,RJNK,,,,0,20180104070000,-1,-1,-1,-1,120,-1,5,-1,-1,-1,-1,,3000,0,1,3,FEW 8   BKN 10   BKN 15,1,1,-1,0,1021,RJNK 040700Z 12005KT 3000 -SHSN FEW008 BKN010 BKN015 01/M00     Q1021 RMK 1CU008 6CU010 7CU015 A3018 VIS SW 2500M NW           4500M=,- SN SH
20180104_080000.000,0,RJNK,,,,0,20180104080000,-1,-1,-1,-1,210,-1,5,-1,-1,170,260,,9999,0,1,3,FEW 8   SCT 10   BKN 15,1,1,1,0,1022,RJNK 040800Z 21005KT 170V260 9999 -SHSN FEW008 SCT010 BKN015     01/00 Q1022 RMK 1CU008 3CU010 7CU015 A3019=,- SN SH
20180104_080000.002,0,RJNK,,,,0,20180104080000,-1,-1,-1,-1,210,-1,5,-1,-1,170,260,,9999,0,1,3,FEW 8   SCT 10   BKN 15,1,1,1,0,1022,RJNK 040800Z 21005KT 170V260 9999 -SHSN FEW008 SCT010 BKN015     01/00 Q1022 RMK 1CU008 3CU010 7CU015 A3019=,- SN SH
20180104_090000.000,0,RJNK,,,,0,20180104090000,-1,-1,-1,-1,140,-1,3,-1,-1,-1,-1,,9999,0,1,3,FEW 8   SCT 10   BKN 15,1,2,-1,0,1022,RJNK 040900Z 14003KT 9999 -SHSN FEW008 SCT010 BKN015 02/M00     Q1022 RMK 1CU008 3CU010 7CU015 A3018=,- SN SH
20180104_090000.000,0,RJNK,,,,0,20180104090000,-1,-1,-1,-1,140,-1,3,-1,-1,-1,-1,,9999,0,1,3,FEW 8   SCT 10   BKN 15,1,2,-1,0,1022,RJNK 040900Z 14003KT 9999 -SHSN FEW008 SCT010 BKN015 02/M00     Q1022 RMK 1CU008 3CU010 7CU015 A3018=,- SN SH
20180104_090000.002,0,RJNK,,,,0,20180104090000,-1,-1,-1,-1,140,-1,3,-1,-1,-1,-1,,9999,0,1,3,FEW 8   SCT 10   BKN 15,1,2,-1,0,1022,RJNK 040900Z 14003KT 9999 -SHSN FEW008 SCT010 BKN015 02/M00     Q1022 RMK 1CU008 3CU010 7CU015 A3018=,- SN SH
20180104_100000.000,0,RJNK,,,,0,20180104100000,-1,-1,-1,-1,140,-1,5,-1,-1,100,160,,9999,0,1,3,FEW 8   SCT 15   BKN 25,1,2,-1,0,1022,RJNK 041000Z 14005KT 100V160 9999 -SHSN FEW008 SCT015 BKN025     02/M00 Q1022 RMK 1CU008 3CU015 7CU025 A3018=,- SN SH
20180104_100000.002,0,RJNK,,,,0,20180104100000,-1,-1,-1,-1,140,-1,5,-1,-1,100,160,,9999,0,1,3,FEW 8   SCT 15   BKN 25,1,2,-1,0,1022,RJNK 041000Z 14005KT 100V160 9999 -SHSN FEW008 SCT015 BKN025     02/M00 Q1022 RMK 1CU008 3CU015 7CU025 A3018=,- SN SH
20180104_110000.000,0,RJNK,,,,0,20180104110000,-1,-1,-1,-1,999,-1,2,-1,-1,-1,-1,,9999,0,0,3,FEW 15   SCT 25   BKN 30,1,1,-1,1,1022,RJNK 041100Z VRB02KT 9999 FEW015 SCT025 BKN030 01/M01 Q1022 RMK     1CU015 3CU025 7CU030 A3018=,
20180104_110000.002,0,RJNK,,,,0,20180104110000,-1,-1,-1,-1,999,-1,2,-1,-1,-1,-1,,9999,0,0,3,FEW 15   SCT 25   BKN 30,1,1,-1,1,1022,RJNK 041100Z VRB02KT 9999 FEW015 SCT025 BKN030 01/M01 Q1022     RMK 1CU015 3CU025 7CU030 A3018=,
20180104_120000.000,0,RJNK,,,,0,20180104120000,-1,-1,-1,-1,999,-1,2,-1,-1,-1,-1,,9999,0,0,3,FEW 15   BKN 30   BKN 40,1,1,-1,1,1022,RJNK 041200Z VRB02KT 9999 FEW015 BKN030 BKN040 01/M01 Q1022 RMK     1CU015 5CU030 6SC040 A3018=,
20180104_120000.003,0,RJNK,,,,0,20180104120000,-1,-1,-1,-1,999,-1,2,-1,-1,-1,-1,,9999,0,0,3,FEW 15   BKN 30   BKN 40,1,1,-1,1,1022,RJNK 041200Z VRB02KT 9999 FEW015 BKN030 BKN040 01/M01 Q1022     RMK 1CU015 5CU030 6SC040 A3018=,
20180104_130000.000,0,RJNK,,,,0,20180104130000,-1,-1,-1,-1,160,-1,3,-1,-1,-1,-1,,9999,0,0,3,FEW 20   SCT 30   BKN 50,1,1,-1,1,1021,RJNK 041300Z 16003KT 9999 FEW020 SCT030 BKN050 01/M01 Q1021 RMK     1CU020 3CU030 6SC050 A3016=,
20180104_130000.002,0,RJNK,,,,0,20180104130000,-1,-1,-1,-1,160,-1,3,-1,-1,-1,-1,,9999,0,0,3,FEW 20   SCT 30   BKN 50,1,1,-1,1,1021,RJNK 041300Z 16003KT 9999 FEW020 SCT030 BKN050 01/M01 Q1021     RMK 1CU020 3CU030 6SC050 A3016=,
20180104_140000.000,0,RJNK,,,,0,20180104140000,-1,-1,-1,-1,110,-1,3,-1,-1,-1,-1,,9999,0,1,3,FEW 20   SCT 30   BKN 50,1,1,-1,1,1021,RJNK 041400Z 11003KT 9999 -SHSN FEW020 SCT030 BKN050 01/M01     Q1021 RMK 1CU020 3CU030 7SC050 A3016=,- SN SH
20180104_140000.002,0,RJNK,,,,0,20180104140000,-1,-1,-1,-1,110,-1,3,-1,-1,-1,-1,,9999,0,1,3,FEW 20   SCT 30   BKN 50,1,1,-1,1,1021,RJNK 041400Z 11003KT 9999 -SHSN FEW020 SCT030 BKN050 01/M01     Q1021 RMK 1CU020 3CU030 7SC050 A3016=,- SN SH
20180104_150000.000,0,RJNK,,,,0,20180104150000,-1,-1,-1,-1,100,-1,3,-1,-1,-1,-1,,9999,0,0,3,FEW 20   SCT 30   BKN 50,1,1,-1,1,1020,RJNK 041500Z 10003KT 9999 FEW020 SCT030 BKN050 01/M01 Q1020 RMK     1CU020 3CU030 7SC050 A3014=,
20180104_150000.003,0,RJNK,,,,0,20180104150000,-1,-1,-1,-1,100,-1,3,-1,-1,-1,-1,,9999,0,0,3,FEW 20   SCT 30   BKN 50,1,1,-1,1,1020,RJNK 041500Z 10003KT 9999 FEW020 SCT030 BKN050 01/M01 Q1020     RMK 1CU020 3CU030 7SC050 A3014=,
20180104_160000.000,0,RJNK,,,,0,20180104160000,-1,-1,-1,-1,120,-1,3,-1,-1,-1,-1,,9999,0,0,3,FEW 20   SCT 30   BKN 50,1,1,-1,1,1020,RJNK 041600Z 12003KT 9999 FEW020 SCT030 BKN050 01/M01 Q1020 RMK     1CU020 3CU030 7SC050 A3014=,
20180104_160000.003,0,RJNK,,,,0,20180104160000,-1,-1,-1,-1,120,-1,3,-1,-1,-1,-1,,9999,0,0,3,FEW 20   SCT 30   BKN 50,1,1,-1,1,1020,RJNK 041600Z 12003KT 9999 FEW020 SCT030 BKN050 01/M01 Q1020     RMK 1CU020 3CU030 7SC050 A3014=,
20180104_170000.001,0,RJNK,,,,0,20180104170000,-1,-1,-1,-1,150,-1,4,-1,-1,120,180,,9999,0,0,3,FEW 20   SCT 30   BKN 50,1,1,-1,1,1019,RJNK 041700Z 15004KT 120V180 9999 FEW020 SCT030 BKN050 01/M01     Q1019 RMK 1CU020 3CU030 7SC050 A3012=,
20180104_170000.003,0,RJNK,,,,0,20180104170000,-1,-1,-1,-1,150,-1,4,-1,-1,120,180,,9999,0,0,3,FEW 20   SCT 30   BKN 50,1,1,-1,1,1019,RJNK 041700Z 15004KT 120V180 9999 FEW020 SCT030 BKN050 01/M01     Q1019 RMK 1CU020 3CU030 7SC050 A3012=,
20180104_180000.000,0,RJNK,,,,0,20180104180000,-1,-1,-1,-1,150,-1,2,-1,-1,-1,-1,,9999,0,0,2,FEW 20   BKN 50,1,1,-1,1,1020,RJNK 041800Z 15002KT 9999 FEW020 BKN050 01/M01 Q1020 RMK 1CU020     5SC050 A3012=,
20180104_180000.002,0,RJNK,,,,0,20180104180000,-1,-1,-1,-1,150,-1,2,-1,-1,-1,-1,,9999,0,0,2,FEW 20   BKN 50,1,1,-1,1,1020,RJNK 041800Z 15002KT 9999 FEW020 BKN050 01/M01 Q1020 RMK     1CU020 5SC050 A3012=,
20180104_190000.000,0,RJNK,,,,0,20180104190000,-1,-1,-1,-1,130,-1,3,-1,-1,-1,-1,,9999,0,0,3,FEW 30   BKN 50   BKN 70,1,0,-1,2,1019,RJNK 041900Z 13003KT 9999 FEW030 BKN050 BKN070 00/M02 Q1019 RMK     1CU030 5SC050 7AC070 A3010=,
20180104_190000.003,0,RJNK,,,,0,20180104190000,-1,-1,-1,-1,130,-1,3,-1,-1,-1,-1,,9999,0,0,3,FEW 30   BKN 50   BKN 70,1,0,-1,2,1019,RJNK 041900Z 13003KT 9999 FEW030 BKN050 BKN070 00/M02 Q1019     RMK 1CU030 5SC050 7AC070 A3010=,
20180104_200000.000,0,RJNK,,,,0,20180104200000,-1,-1,-1,-1,999,-1,2,-1,-1,-1,-1,,9999,0,0,2,FEW 30   BKN 50,1,0,-1,1,1019,RJNK 042000Z VRB02KT 9999 FEW030 BKN050 00/M01 Q1019 RMK 1CU030     6SC050 A3010=,
20180104_200000.002,0,RJNK,,,,0,20180104200000,-1,-1,-1,-1,999,-1,2,-1,-1,-1,-1,,9999,0,0,2,FEW 30   BKN 50,1,0,-1,1,1019,RJNK 042000Z VRB02KT 9999 FEW030 BKN050 00/M01 Q1019 RMK     1CU030 6SC050 A3010=,
20180104_210000.000,0,RJNK,,,,0,20180104210000,-1,-1,-1,-1,999,-1,2,-1,-1,-1,-1,,9999,0,0,2,FEW 15   BKN 60,1,0,-1,1,1018,RJNK 042100Z VRB02KT 9999 FEW015 BKN060 00/M01 Q1018 RMK 1CU015     7SC060 A3008 03/00 R004 S002 SD004=,
20180104_210000.002,0,RJNK,,,,0,20180104210000,-1,-1,-1,-1,999,-1,2,-1,-1,-1,-1,,9999,0,0,2,FEW 15   BKN 60,1,0,-1,1,1018,RJNK 042100Z VRB02KT 9999 FEW015 BKN060 00/M01 Q1018 RMK     1CU015 7SC060 A3008 03/00 R004 S002 SD004=,
20180104_220000.000,0,RJNK,,,,0,20180104220000,-1,-1,-1,-1,999,-1,1,-1,-1,-1,-1,,9999,0,0,3,FEW 30   BKN 150   BKN 240,1,0,-1,2,1018,RJNK 042200Z VRB01KT 9999 FEW030 BKN150 BKN240 00/M02 Q1018 RMK     1CU030 7AC150 A3008=,
20180104_220000.002,0,RJNK,,,,0,20180104220000,-1,-1,-1,-1,999,-1,1,-1,-1,-1,-1,,9999,0,0,3,FEW 30   BKN 150   BKN 240,1,0,-1,2,1018,RJNK 042200Z VRB01KT 9999 FEW030 BKN150 BKN240 00/M02 Q1018     RMK 1CU030 7AC150 A3008=,
20180104_230000.000,0,RJNK,,,,0,20180104230000,-1,-1,-1,-1,80,-1,4,-1,-1,-1,-1,,9999,0,0,3,FEW 30   BKN 150   BKN 240,1,0,-1,2,1018,RJNK 042300Z 08004KT 9999 FEW030 BKN150 BKN240 00/M02 Q1018 RMK     1CU030 7AC150 A3006=,
20180104_230000.002,0,RJNK,,,,0,20180104230000,-1,-1,-1,-1,80,-1,4,-1,-1,-1,-1,,9999,0,0,3,FEW 30   BKN 150   BKN 240,1,0,-1,2,1018,RJNK 042300Z 08004KT 9999 FEW030 BKN150 BKN240 00/M02 Q1018     RMK 1CU030 7AC150 A3006=,
20180105_000000.000,0,RJNK,,,,0,20180105000000,-1,-1,-1,-1,170,-1,2,-1,-1,-1,-1,,9999,0,0,3,FEW 30   SCT 120   BKN 150,1,1,-1,1,1017,RJNK 050000Z 17002KT 9999 FEW030 SCT120 BKN150 01/M01 Q1017 RMK     2CU030 4AC120 7AC150 A3006=,
20180105_000000.002,0,RJNK,,,,0,20180105000000,-1,-1,-1,-1,170,-1,2,-1,-1,-1,-1,,9999,0,0,3,FEW 30   SCT 120   BKN 150,1,1,-1,1,1017,RJNK 050000Z 17002KT 9999 FEW030 SCT120 BKN150 01/M01 Q1017     RMK 2CU030 4AC120 7AC150 A3006=,
20180105_010000.000,0,RJNK,,,,0,20180105010000,-1,-1,-1,-1,170,-1,2,-1,-1,-1,-1,,9999,0,0,3,FEW 30   BKN 120   BKN 150,1,2,-1,1,1018,RJNK 050100Z 17002KT 9999 FEW030 BKN120 BKN150 02/M01 Q1018 RMK     2CU030 6AC120 7AC150 A3006=,
20180105_010000.003,0,RJNK,,,,0,20180105010000,-1,-1,-1,-1,170,-1,2,-1,-1,-1,-1,,9999,0,0,3,FEW 30   BKN 120   BKN 150,1,2,-1,1,1018,RJNK 050100Z 17002KT 9999 FEW030 BKN120 BKN150 02/M01 Q1018     RMK 2CU030 6AC120 7AC150 A3006=,
20180105_020000.000,0,RJNK,,,,0,20180105020000,-1,-1,-1,-1,180,-1,4,-1,-1,-1,-1,,9999,0,0,3,FEW 30   SCT 50   BKN 120,1,3,-1,1,1017,RJNK 050200Z 18004KT 9999 FEW030 SCT050 BKN120 03/M01 Q1017 RMK     2CU030 3SC050 7AC120 A3003=,
20180105_020000.002,0,RJNK,,,,0,20180105020000,-1,-1,-1,-1,180,-1,4,-1,-1,-1,-1,,9999,0,0,3,FEW 30   SCT 50   BKN 120,1,3,-1,1,1017,RJNK 050200Z 18004KT 9999 FEW030 SCT050 BKN120 03/M01 Q1017     RMK 2CU030 3SC050 7AC120 A3003=,
20180105_030000.000,0,RJNK,,,,0,20180105030000,-1,-1,-1,-1,200,-1,5,-1,-1,-1,-1,,9999,0,0,3,FEW 30   BKN 50   BKN 120,1,4,-1,0,1016,RJNK 050300Z 20005KT 9999 FEW030 BKN050 BKN120 04/M00 Q1016 RMK     1CU030 6SC050 7AC120 A3001=,
20180105_030000.002,0,RJNK,,,,0,20180105030000,-1,-1,-1,-1,200,-1,5,-1,-1,-1,-1,,9999,0,0,3,FEW 30   BKN 50   BKN 120,1,4,-1,0,1016,RJNK 050300Z 20005KT 9999 FEW030 BKN050 BKN120 04/M00 Q1016     RMK 1CU030 6SC050 7AC120 A3001=,
20180105_040000.000,0,RJNK,,,,0,20180105040000,-1,-1,-1,-1,180,-1,5,-1,-1,-1,-1,,9999,0,0,3,FEW 30   BKN 50   BKN 120,1,5,-1,2,1015,RJNK 050400Z 18005KT 9999 FEW030 BKN050 BKN120 05/M02 Q1015 RMK     1CU030 5SC050 7AC120 A2998=,
20180105_040000.002,0,RJNK,,,,0,20180105040000,-1,-1,-1,-1,180,-1,5,-1,-1,-1,-1,,9999,0,0,3,FEW 30   BKN 50   BKN 120,1,5,-1,2,1015,RJNK 050400Z 18005KT 9999 FEW030 BKN050 BKN120 05/M02 Q1015     RMK 1CU030 5SC050 7AC120 A2998=,
20180105_050000.000,0,RJNK,,,,0,20180105050000,-1,-1,-1,-1,190,-1,6,-1,-1,-1,-1,,9999,0,0,3,FEW 30   BKN 50   BKN 120,1,6,-1,3,1014,RJNK 050500Z 19006KT 9999 FEW030 BKN050 BKN120 06/M03 Q1014 RMK     1CU030 5SC050 5AC120 A2997=,
20180105_050000.002,0,RJNK,,,,0,20180105050000,-1,-1,-1,-1,190,-1,6,-1,-1,-1,-1,,9999,0,0,3,FEW 30   BKN 50   BKN 120,1,6,-1,3,1014,RJNK 050500Z 19006KT 9999 FEW030 BKN050 BKN120 06/M03 Q1014     RMK 1CU030 5SC050 5AC120 A2997=,
20180105_060000.000,0,RJNK,,,,0,20180105060000,-1,-1,-1,-1,190,-1,7,-1,-1,-1,-1,,9999,0,0,3,FEW 30   BKN 50   BKN 240,1,6,-1,3,1014,RJNK 050600Z 19007KT 9999 FEW030 BKN050 BKN240 06/M03 Q1014 RMK     1CU030 5SC050 A2997=,
20180105_060000.002,0,RJNK,,,,0,20180105060000,-1,-1,-1,-1,190,-1,7,-1,-1,-1,-1,,9999,0,0,3,FEW 30   BKN 50   BKN 240,1,6,-1,3,1014,RJNK 050600Z 19007KT 9999 FEW030 BKN050 BKN240 06/M03 Q1014     RMK 1CU030 5SC050 A2997=,
20180105_070000.000,0,RJNK,,,,0,20180105070000,-1,-1,-1,-1,190,-1,5,-1,-1,-1,-1,,9999,0,0,2,FEW 30   BKN 50,1,5,-1,2,1014,RJNK 050700Z 19005KT 9999 FEW030 BKN050 05/M02 Q1014 RMK 1CU030     6SC050 A2997=,
20180105_070000.002,0,RJNK,,,,0,20180105070000,-1,-1,-1,-1,190,-1,5,-1,-1,-1,-1,,9999,0,0,2,FEW 30   BKN 50,1,5,-1,2,1014,RJNK 050700Z 19005KT 9999 FEW030 BKN050 05/M02 Q1014 RMK     1CU030 6SC050 A2997=,
20180105_080000.000,0,RJNK,,,,0,20180105080000,-1,-1,-1,-1,160,-1,5,-1,-1,-1,-1,,9999,0,0,2,FEW 35   BKN 50,1,5,-1,2,1014,RJNK 050800Z 16005KT 9999 FEW035 BKN050 05/M02 Q1014 RMK 2CU035     6SC050 A2997=,
20180105_080000.002,0,RJNK,,,,0,20180105080000,-1,-1,-1,-1,160,-1,5,-1,-1,-1,-1,,9999,0,0,2,FEW 35   BKN 50,1,5,-1,2,1014,RJNK 050800Z 16005KT 9999 FEW035 BKN050 05/M02 Q1014 RMK     2CU035 6SC050 A2997=,
20180105_090000.000,0,RJNK,,,,0,20180105090000,-1,-1,-1,-1,180,-1,5,-1,-1,-1,-1,,9999,0,0,2,FEW 35   BKN 50,1,4,1,0,1014,RJNK 050900Z 18005KT 9999 FEW035 BKN050 04/00 Q1014 RMK 1CU035     6SC050 A2996=,
20180105_090000.002,0,RJNK,,,,0,20180105090000,-1,-1,-1,-1,180,-1,5,-1,-1,-1,-1,,9999,0,0,2,FEW 35   BKN 50,1,4,1,0,1014,RJNK 050900Z 18005KT 9999 FEW035 BKN050 04/00 Q1014 RMK 1CU035     6SC050 A2996=,
20180105_100000.000,0,RJNK,,,,0,20180105100000,-1,-1,-1,-1,190,-1,5,-1,-1,-1,-1,,9999,0,0,2,FEW 35   BKN 50,1,3,1,1,1014,RJNK 051000Z 19005KT 9999 FEW035 BKN050 03/01 Q1014 RMK 1CU035     6SC050 A2996=,
20180105_100000.002,0,RJNK,,,,0,20180105100000,-1,-1,-1,-1,190,-1,5,-1,-1,-1,-1,,9999,0,0,2,FEW 35   BKN 50,1,3,1,1,1014,RJNK 051000Z 19005KT 9999 FEW035 BKN050 03/01 Q1014 RMK 1CU035     6SC050 A2996=,
20180105_110000.000,0,RJNK,,,,0,20180105110000,-1,-1,-1,-1,170,-1,7,-1,-1,-1,-1,,9999,0,0,2,FEW 35   BKN 50,1,2,-1,0,1014,RJNK 051100Z 17007KT 9999 FEW035 BKN050 02/M00 Q1014 RMK 1CU035     6SC050 A2996=,
20180105_110000.002,0,RJNK,,,,0,20180105110000,-1,-1,-1,-1,170,-1,7,-1,-1,-1,-1,,9999,0,0,2,FEW 35   BKN 50,1,2,-1,0,1014,RJNK 051100Z 17007KT 9999 FEW035 BKN050 02/M00 Q1014 RMK     1CU035 6SC050 A2996=,
20180105_120000.000,0,RJNK,,,,0,20180105120000,-1,-1,-1,-1,170,-1,3,-1,-1,-1,-1,,9999,0,0,2,FEW 30   BKN 50,1,1,-1,0,1014,RJNK 051200Z 17003KT 9999 FEW030 BKN050 01/M00 Q1014 RMK 1CU030     6SC050 A2995=,
20180105_120000.002,0,RJNK,,,,0,20180105120000,-1,-1,-1,-1,170,-1,3,-1,-1,-1,-1,,9999,0,0,2,FEW 30   BKN 50,1,1,-1,0,1014,RJNK 051200Z 17003KT 9999 FEW030 BKN050 01/M00 Q1014 RMK     1CU030 6SC050 A2995=,
20180105_130000.000,0,RJNK,,,,0,20180105130000,-1,-1,-1,-1,190,-1,3,-1,-1,-1,-1,,9999,0,0,2,FEW 50   SCT 80,1,1,-1,1,1013,RJNK 051300Z 19003KT 9999 FEW050 SCT080 01/M01 Q1013 RMK 1SC050     3AC080 A2994=,
20180105_130000.002,0,RJNK,,,,0,20180105130000,-1,-1,-1,-1,190,-1,3,-1,-1,-1,-1,,9999,0,0,2,FEW 50   SCT 80,1,1,-1,1,1013,RJNK 051300Z 19003KT 9999 FEW050 SCT080 01/M01 Q1013 RMK     1SC050 3AC080 A2994=,
20180105_140000.000,0,RJNK,,,,0,20180105140000,-1,-1,-1,-1,210,-1,3,-1,-1,180,260,,9999,0,0,2,FEW 50   BKN 70,1,0,-1,1,1013,RJNK 051400Z 21003KT 180V260 9999 FEW050 BKN070 00/M01 Q1013     RMK 2SC050 7AC070 A2994=,
20180105_140000.002,0,RJNK,,,,0,20180105140000,-1,-1,-1,-1,210,-1,3,-1,-1,180,260,,9999,0,0,2,FEW 50   BKN 70,1,0,-1,1,1013,RJNK 051400Z 21003KT 180V260 9999 FEW050 BKN070 00/M01 Q1013     RMK 2SC050 7AC070 A2994=,
20180105_150000.000,0,RJNK,,,,0,20180105150000,-1,-1,-1,-1,180,-1,4,-1,-1,-1,-1,,9999,0,1,3,FEW 15   BKN 30   BKN 50,1,1,-1,0,1013,RJNK 051500Z 18004KT 9999 -SHRASN FEW015 BKN030 BKN050 01/M00     Q1013 RMK 1CU015 5CU030 7SC050 A2993=,- RA SN SH
20180105_150000.002,0,RJNK,,,,0,20180105150000,-1,-1,-1,-1,180,-1,4,-1,-1,-1,-1,,9999,0,1,3,FEW 15   BKN 30   BKN 50,1,1,-1,0,1013,RJNK 051500Z 18004KT 9999 -SHRASN FEW015 BKN030 BKN050 01/M00     Q1013 RMK 1CU015 5CU030 7SC050 A2993=,- RA SN SH
20180105_160000.000,0,RJNK,,,,0,20180105160000,-1,-1,-1,-1,120,-1,4,-1,-1,-1,-1,,9999,0,0,3,FEW 30   BKN 50   BKN 70,1,1,-1,1,1012,RJNK 051600Z 12004KT 9999 FEW030 BKN050 BKN070 01/M01 Q1012 RMK     2CU030 5SC050 6AC070 A2991=,
20180105_160000.003,0,RJNK,,,,0,20180105160000,-1,-1,-1,-1,120,-1,4,-1,-1,-1,-1,,9999,0,0,3,FEW 30   BKN 50   BKN 70,1,1,-1,1,1012,RJNK 051600Z 12004KT 9999 FEW030 BKN050 BKN070 01/M01 Q1012     RMK 2CU030 5SC050 6AC070 A2991=,
20180105_170000.000,0,RJNK,,,,0,20180105170000,-1,-1,-1,-1,170,-1,5,-1,-1,-1,-1,,9999,0,1,3,FEW 15   BKN 30   BKN 50,1,2,-1,0,1013,RJNK 051700Z 17005KT 9999 -SHRASN FEW015 BKN030 BKN050 02/M00     Q1013 RMK 1CU015 6CU030 7SC050 A2993=,- RA SN SH
20180105_170000.002,0,RJNK,,,,0,20180105170000,-1,-1,-1,-1,170,-1,5,-1,-1,-1,-1,,9999,0,1,3,FEW 15   BKN 30   BKN 50,1,2,-1,0,1013,RJNK 051700Z 17005KT 9999 -SHRASN FEW015 BKN030 BKN050 02/M00     Q1013 RMK 1CU015 6CU030 7SC050 A2993=,- RA SN SH
20180105_180000.000,0,RJNK,,,,0,20180105180000,-1,-1,-1,-1,150,-1,6,-1,-1,-1,-1,,9999,0,1,3,FEW 10   SCT 20   BKN 30,1,2,-1,1,1013,RJNK 051800Z 15006KT 9999 -SHRASN FEW010 SCT020 BKN030 02/M01     Q1013 RMK 1CU010 3CU020 7CU030 A2992=,- RA SN SH
20180105_180000.003,0,RJNK,,,,0,20180105180000,-1,-1,-1,-1,150,-1,6,-1,-1,-1,-1,,9999,0,1,3,FEW 10   SCT 20   BKN 30,1,2,-1,1,1013,RJNK 051800Z 15006KT 9999 -SHRASN FEW010 SCT020 BKN030 02/M01     Q1013 RMK 1CU010 3CU020 7CU030 A2992=,- RA SN SH
20180105_190000.000,0,RJNK,,,,0,20180105190000,-1,-1,-1,-1,150,-1,3,-1,-1,-1,-1,,9999,0,1,3,FEW 10   SCT 20   BKN 30,1,2,-1,0,1013,RJNK 051900Z 15003KT 9999 -SHRASN FEW010 SCT020 BKN030 02/M00     Q1013 RMK 1CU010 3CU020 7CU030 A2992=,- RA SN SH
20180105_190000.002,0,RJNK,,,,0,20180105190000,-1,-1,-1,-1,150,-1,3,-1,-1,-1,-1,,9999,0,1,3,FEW 10   SCT 20   BKN 30,1,2,-1,0,1013,RJNK 051900Z 15003KT 9999 -SHRASN FEW010 SCT020 BKN030 02/M00     Q1013 RMK 1CU010 3CU020 7CU030 A2992=,- RA SN SH
20180105_200000.000,0,RJNK,,,,0,20180105200000,-1,-1,-1,-1,180,-1,5,-1,-1,-1,-1,,9999,0,1,3,FEW 20   BKN 30   BKN 50,1,2,-1,1,1013,RJNK 052000Z 18005KT 9999 -SHRASN FEW020 BKN030 BKN050 02/M01     Q1013 RMK 2CU020 6CU030 7SC050 A2992=,- RA SN SH
20180105_200000.002,0,RJNK,,,,0,20180105200000,-1,-1,-1,-1,180,-1,5,-1,-1,-1,-1,,9999,0,1,3,FEW 20   BKN 30   BKN 50,1,2,-1,1,1013,RJNK 052000Z 18005KT 9999 -SHRASN FEW020 BKN030 BKN050 02/M01     Q1013 RMK 2CU020 6CU030 7SC050 A2992=,- RA SN SH
20180105_210000.000,0,RJNK,,,,0,20180105210000,-1,-1,-1,-1,170,-1,5,-1,-1,-1,-1,,9999,0,1,3,FEW 20   BKN 30   BKN 50,1,2,-1,0,1013,RJNK 052100Z 17005KT 9999 -SHRASN FEW020 BKN030 BKN050 02/M00     Q1013 RMK 2CU020 6CU030 7SC050 A2993 06/00 R000 S000           SD000=,- RA SN SH
20180105_210000.001,2,RJNK,,,,0,20180105210000,-1,-1,-1,-1,170,-1,5,-1,-1,-1,-1,,9999,0,1,3,FEW 20   BKN 30   BKN 50,1,2,-1,0,1013,RJNK 052100Z 17005KT 9999 -SHRASN FEW020 BKN030 BKN050     02/M00 Q1013 RMK 2CU020 6CU030 7SC050 A2993 06/00 R000           S000 SD000=,- RA SN SH
20180105_210000.003,0,RJNK,,,,0,20180105210000,-1,-1,-1,-1,170,-1,5,-1,-1,-1,-1,,9999,0,1,3,FEW 20   BKN 30   BKN 50,1,2,-1,0,1013,RJNK 052100Z 17005KT 9999 -SHRASN FEW020 BKN030 BKN050     02/M00 Q1013 RMK 2CU020 6CU030 7SC050 A2993 06/00 R000           S000 SD000=,- RA SN SH
20180105_220000.000,0,RJNK,,,,0,20180105220000,-1,-1,-1,-1,150,-1,4,-1,-1,-1,-1,,9999,0,0,3,FEW 20   SCT 30   BKN 50,1,2,-1,0,1013,RJNK 052200Z 15004KT 9999 FEW020 SCT030 BKN050 02/M00 Q1013 RMK     1CU020 3CU030 5SC050 A2993=,
20180105_220000.002,0,RJNK,,,,0,20180105220000,-1,-1,-1,-1,150,-1,4,-1,-1,-1,-1,,9999,0,0,3,FEW 20   SCT 30   BKN 50,1,2,-1,0,1013,RJNK 052200Z 15004KT 9999 FEW020 SCT030 BKN050 02/M00 Q1013     RMK 1CU020 3CU030 5SC050 A2993=,
20180105_230000.000,0,RJNK,,,,0,20180105230000,-1,-1,-1,-1,170,-1,4,-1,-1,-1,-1,,9999,0,0,2,FEW 20   BKN 80,1,2,1,0,1013,RJNK 052300Z 17004KT 9999 FEW020 BKN080 02/00 Q1013 RMK 1CU020     7AC080 A2993=,
20180105_230000.002,0,RJNK,,,,0,20180105230000,-1,-1,-1,-1,170,-1,4,-1,-1,-1,-1,,9999,0,0,2,FEW 20   BKN 80,1,2,1,0,1013,RJNK 052300Z 17004KT 9999 FEW020 BKN080 02/00 Q1013 RMK 1CU020     7AC080 A2993=,
20180106_000000.000,0,RJNK,,,,0,20180106000000,-1,-1,-1,-1,180,-1,3,-1,-1,150,220,,9999,0,0,3,FEW 20   SCT 50   BKN 80,1,3,1,1,1014,RJNK 060000Z 18003KT 150V220 9999 FEW020 SCT050 BKN080 03/01     Q1014 RMK 1CU020 3SC050 6AC080 A2995=,
20180106_000000.002,0,RJNK,,,,0,20180106000000,-1,-1,-1,-1,180,-1,3,-1,-1,150,220,,9999,0,0,3,FEW 20   SCT 50   BKN 80,1,3,1,1,1014,RJNK 060000Z 18003KT 150V220 9999 FEW020 SCT050 BKN080 03/01     Q1014 RMK 1CU020 3SC050 6AC080 A2995=,
20180106_010000.000,0,RJNK,,,,0,20180106010000,-1,-1,-1,-1,190,-1,6,-1,-1,-1,-1,,9999,0,0,3,FEW 20   SCT 50   BKN 80,1,4,1,2,1014,RJNK 060100Z 19006KT 9999 FEW020 SCT050 BKN080 04/02 Q1014 RMK     1CU020 4SC050 6AC080 A2996=,
20180106_010000.002,0,RJNK,,,,0,20180106010000,-1,-1,-1,-1,190,-1,6,-1,-1,-1,-1,,9999,0,0,3,FEW 20   SCT 50   BKN 80,1,4,1,2,1014,RJNK 060100Z 19006KT 9999 FEW020 SCT050 BKN080 04/02 Q1014 RMK     1CU020 4SC050 6AC080 A2996=,
20180106_020000.000,0,RJNK,,,,0,20180106020000,-1,-1,-1,-1,220,-1,8,-1,-1,-1,-1,,9999,0,0,3,FEW 20 CB  BKN 50   BKN 80,1,6,1,1,1014,RJNK 060200Z 22008KT 9999 FEW020CB BKN050 BKN080 06/01 Q1014     RMK 1CB020 5SC050 6AC080 A2995 CB W=,
20180106_020000.002,0,RJNK,,,,0,20180106020000,-1,-1,-1,-1,220,-1,8,-1,-1,-1,-1,,9999,0,0,3,FEW 20 CB  BKN 50   BKN 80,1,6,1,1,1014,RJNK 060200Z 22008KT 9999 FEW020CB BKN050 BKN080 06/01 Q1014     RMK 1CB020 5SC050 6AC080 A2995 CB W=,
20180106_030000.000,0,RJNK,,,,0,20180106030000,-1,-1,-1,-1,280,-1,7,-1,-1,230,320,,9999,0,1,3,SCT 20 TCU  BKN 30   BKN 50,1,5,1,0,1014,RJNK 060300Z 28007KT 230V320 9999 -SHRA SCT020TCU BKN030 BKN050     05/00 Q1014 RMK 3TCU020 6CU030 6SC050 A2995 TCU NW=,- RA SH
20180106_030000.002,0,RJNK,,,,0,20180106030000,-1,-1,-1,-1,280,-1,7,-1,-1,230,320,,9999,0,1,3,SCT 20 TCU  BKN 30   BKN 50,1,5,1,0,1014,RJNK 060300Z 28007KT 230V320 9999 -SHRA SCT020TCU BKN030     BKN050 05/00 Q1014 RMK 3TCU020 6CU030 6SC050 A2995 TCU           NW=,- RA SH
20180106_040000.000,0,RJNK,,,,0,20180106040000,-1,-1,-1,-1,170,-1,6,-1,-1,-1,-1,,9999,0,1,4,FEW 10   BKN 20   FEW 20 TCU  BKN 30,1,5,1,2,1012,RJNK 060400Z 17006KT 9999 -SHRA FEW010 BKN020 FEW020TCU BKN030     05/02 Q1012 RMK 2CU010 5CU020 1TCU020 6CU030 A2991 TCU NW=,- RA SH
20180106_040000.002,0,RJNK,,,,0,20180106040000,-1,-1,-1,-1,170,-1,6,-1,-1,-1,-1,,9999,0,1,4,FEW 10   BKN 20   FEW 20 TCU  BKN 30,1,5,1,2,1012,RJNK 060400Z 17006KT 9999 -SHRA FEW010 BKN020 FEW020TCU BKN030     05/02 Q1012 RMK 2CU010 5CU020 1TCU020 6CU030 A2991 TCU           NW=,- RA SH
20180106_040000.004,2,RJNK,,,,0,20180106040000,-1,-1,-1,-1,170,-1,6,-1,-1,-1,-1,,9999,0,1,4,FEW 10   BKN 20   FEW 20 TCU  BKN 30,1,5,1,2,1012,RJNK 060400Z 17006KT 9999 -SHRA FEW010 BKN020 FEW020TCU     BKN030 05/02 Q1012 RMK 2CU010 5CU020 1TCU020 6CU030 A2991           TCU NW=,- RA SH
20180106_050000.000,0,RJNK,,,,0,20180106050000,-1,-1,-1,-1,150,-1,5,-1,-1,120,180,,8000,0,1,4,FEW 8   BKN 10   BKN 20   FEW 20 TCU,1,3,1,2,1014,RJNK 060500Z 15005KT 120V180 8000 -SHRA FEW008 BKN010 BKN020     FEW020TCU 03/02 Q1014 RMK 2CU008 5CU010 6CU020 2TCU020           A2995 VIS W-S 4000M TCU OHD 2CU008 OVER AD=,- RA SH
20180106_050000.002,0,RJNK,,,,0,20180106050000,-1,-1,-1,-1,150,-1,5,-1,-1,120,180,,8000,0,1,4,FEW 8   BKN 10   BKN 20   FEW 20 TCU,1,3,1,2,1014,RJNK 060500Z 15005KT 120V180 8000 -SHRA FEW008 BKN010 BKN020     FEW020TCU 03/02 Q1014 RMK 2CU008 5CU010 6CU020 2TCU020           A2995 VIS W-S 4000M TCU OHD 2CU008 OVER AD=,- RA SH
20180106_060000.000,0,RJNK,,,,0,20180106060000,-1,-1,-1,-1,190,-1,9,-1,-1,160,220,,9999,0,0,3,FEW 8   BKN 15   BKN 25,1,3,1,1,1014,RJNK 060600Z 19009KT 160V220 9999 FEW008 BKN015 BKN025 03/01     Q1014 RMK 2CU008 5CU015 7CU025 A2997 2CU008 OVER AD=,
20180106_060000.002,0,RJNK,,,,0,20180106060000,-1,-1,-1,-1,190,-1,9,-1,-1,160,220,,9999,0,0,3,FEW 8   BKN 15   BKN 25,1,3,1,1,1014,RJNK 060600Z 19009KT 160V220 9999 FEW008 BKN015 BKN025 03/01     Q1014 RMK 2CU008 5CU015 7CU025 A2997 2CU008 OVER AD=,
20180106_070000.000,0,RJNK,,,,0,20180106070000,-1,-1,-1,-1,330,-1,15,-1,-1,-1,-1,,9999,0,0,2,FEW 15   BKN 25,1,6,-1,3,1016,RJNK 060700Z 33015KT 9999 FEW015 BKN025 06/M03 Q1016 RMK 1CU015     5CU025 A3000 MAX WIND 23KT=,
20180106_070000.002,0,RJNK,,,,0,20180106070000,-1,-1,-1,-1,330,-1,15,-1,-1,-1,-1,,9999,0,0,2,FEW 15   BKN 25,1,6,-1,3,1016,RJNK 060700Z 33015KT 9999 FEW015 BKN025 06/M03 Q1016 RMK     1CU015 5CU025 A3000 MAX WIND 23KT=,
20180106_080000.000,0,RJNK,,,,0,20180106080000,-1,-1,-1,-1,340,-1,13,-1,-1,-1,-1,,9999,0,0,2,FEW 15   BKN 25,1,6,-1,3,1017,RJNK 060800Z 34013KT 9999 FEW015 BKN025 06/M03 Q1017 RMK 1CU015     7CU025 A3004=,
20180106_080000.002,0,RJNK,,,,0,20180106080000,-1,-1,-1,-1,340,-1,13,-1,-1,-1,-1,,9999,0,0,2,FEW 15   BKN 25,1,6,-1,3,1017,RJNK 060800Z 34013KT 9999 FEW015 BKN025 06/M03 Q1017 RMK     1CU015 7CU025 A3004=,
20180106_090000.000,0,RJNK,,,,0,20180106090000,-1,-1,-1,-1,360,-1,11,-1,-1,-1,-1,,9999,0,1,4,FEW 8   SCT 15   BKN 25   SCT 25 TCU,1,5,-1,4,1018,RJNK 060900Z 36011KT 9999 -SHRA FEW008 SCT015 BKN025 SCT025TCU     05/M04 Q1018 RMK 1CU008 3CU015 7CU025 3TCU025 A3006 TCU SE           1CU008 OVER AD=,- RA SH
20180106_090000.002,0,RJNK,,,,0,20180106090000,-1,-1,-1,-1,360,-1,11,-1,-1,-1,-1,,9999,0,1,4,FEW 8   SCT 15   BKN 25   SCT 25 TCU,1,5,-1,4,1018,RJNK 060900Z 36011KT 9999 -SHRA FEW008 SCT015 BKN025 SCT025TCU     05/M04 Q1018 RMK 1CU008 3CU015 7CU025 3TCU025 A3006 TCU           SE 1CU008 OVER AD=,- RA SH
20180106_100000.000,0,RJNK,,,,0,20180106100000,-1,-1,-1,-1,330,-1,4,-1,-1,270,20,,9999,0,1,4,FEW 8   SCT 15   BKN 25   FEW 25 TCU,1,4,-1,2,1018,RJNK 061000Z 33004KT 270V020 9999 -SHRA FEW008 SCT015 BKN025     FEW025TCU 04/M02 Q1018 RMK 1CU008 3CU015 7CU025 2TCU025           A3008 TCU NW 1CU008 OVER AD=,- RA SH
20180106_100000.002,0,RJNK,,,,0,20180106100000,-1,-1,-1,-1,330,-1,4,-1,-1,270,20,,9999,0,1,4,FEW 8   SCT 15   BKN 25   FEW 25 TCU,1,4,-1,2,1018,RJNK 061000Z 33004KT 270V020 9999 -SHRA FEW008 SCT015 BKN025     FEW025TCU 04/M02 Q1018 RMK 1CU008 3CU015 7CU025 2TCU025           A3008 TCU NW 1CU008 OVER AD=,- RA SH
20180106_110000.000,0,RJNK,,,,0,20180106110000,-1,-1,-1,-1,20,-1,6,-1,-1,-1,-1,,9999,0,0,3,FEW 15   SCT 25   BKN 50,1,5,-1,3,1019,RJNK 061100Z 02006KT 9999 FEW015 SCT025 BKN050 05/M03 Q1019 RMK     1CU015 4CU025 5SC050 A3009=,
20180106_110000.002,0,RJNK,,,,0,20180106110000,-1,-1,-1,-1,20,-1,6,-1,-1,-1,-1,,9999,0,0,3,FEW 15   SCT 25   BKN 50,1,5,-1,3,1019,RJNK 061100Z 02006KT 9999 FEW015 SCT025 BKN050 05/M03 Q1019     RMK 1CU015 4CU025 5SC050 A3009=,
20180106_120000.000,0,RJNK,,,,0,20180106120000,-1,-1,-1,-1,350,-1,10,-1,-1,-1,-1,,9999,0,0,3,FEW 15   SCT 30   BKN 50,1,5,-1,3,1019,RJNK 061200Z 35010KT 9999 FEW015 SCT030 BKN050 05/M03 Q1019 RMK     1CU015 3CU030 6SC050 A3010=,
20180106_120000.002,0,RJNK,,,,0,20180106120000,-1,-1,-1,-1,350,-1,10,-1,-1,-1,-1,,9999,0,0,3,FEW 15   SCT 30   BKN 50,1,5,-1,3,1019,RJNK 061200Z 35010KT 9999 FEW015 SCT030 BKN050 05/M03 Q1019     RMK 1CU015 3CU030 6SC050 A3010=,
20180106_130000.000,0,RJNK,,,,0,20180106130000,-1,-1,-1,-1,350,-1,12,-1,-1,-1,-1,,9999,0,1,3,FEW 15   BKN 30   BKN 50,1,4,-1,4,1020,RJNK 061300Z 35012KT 9999 -SHRASN FEW015 BKN030 BKN050 04/M04     Q1020 RMK 1CU015 5CU030 7SC050 A3014=,- RA SN SH
20180106_130000.002,0,RJNK,,,,0,20180106130000,-1,-1,-1,-1,350,-1,12,-1,-1,-1,-1,,9999,0,1,3,FEW 15   BKN 30   BKN 50,1,4,-1,4,1020,RJNK 061300Z 35012KT 9999 -SHRASN FEW015 BKN030 BKN050 04/M04     Q1020 RMK 1CU015 5CU030 7SC050 A3014=,- RA SN SH
20180106_140000.000,0,RJNK,,,,0,20180106140000,-1,-1,-1,-1,80,-1,3,-1,-1,-1,-1,,9999,0,0,3,FEW 20   SCT 30   BKN 50,1,4,-1,3,1021,RJNK 061400Z 08003KT 9999 FEW020 SCT030 BKN050 04/M03 Q1021 RMK     1CU020 4CU030 7SC050 A3016=,
20180106_140000.003,0,RJNK,,,,0,20180106140000,-1,-1,-1,-1,80,-1,3,-1,-1,-1,-1,,9999,0,0,3,FEW 20   SCT 30   BKN 50,1,4,-1,3,1021,RJNK 061400Z 08003KT 9999 FEW020 SCT030 BKN050 04/M03 Q1021     RMK 1CU020 4CU030 7SC050 A3016=,
20180106_150000.000,0,RJNK,,,,0,20180106150000,-1,-1,-1,-1,190,-1,5,-1,-1,160,220,,9999,0,0,3,FEW 20   BKN 30   BKN 50,1,3,-1,2,1022,RJNK 061500Z 19005KT 160V220 9999 FEW020 BKN030 BKN050 03/M02     Q1022 RMK 1CU020 5CU030 7SC050 A3018=,
20180106_150000.002,0,RJNK,,,,0,20180106150000,-1,-1,-1,-1,190,-1,5,-1,-1,160,220,,9999,0,0,3,FEW 20   BKN 30   BKN 50,1,3,-1,2,1022,RJNK 061500Z 19005KT 160V220 9999 FEW020 BKN030 BKN050 03/M02     Q1022 RMK 1CU020 5CU030 7SC050 A3018=,
20180106_160000.000,0,RJNK,,,,0,20180106160000,-1,-1,-1,-1,999,-1,2,-1,-1,-1,-1,,9999,0,0,3,FEW 20   SCT 30   BKN 50,1,2,-1,1,1022,RJNK 061600Z VRB02KT 9999 FEW020 SCT030 BKN050 02/M01 Q1022 RMK     1CU020 4CU030 7SC050 A3018=,
20180106_160000.002,0,RJNK,,,,0,20180106160000,-1,-1,-1,-1,999,-1,2,-1,-1,-1,-1,,9999,0,0,3,FEW 20   SCT 30   BKN 50,1,2,-1,1,1022,RJNK 061600Z VRB02KT 9999 FEW020 SCT030 BKN050 02/M01 Q1022     RMK 1CU020 4CU030 7SC050 A3018=,
20180106_170000.000,0,RJNK,,,,0,20180106170000,-1,-1,-1,-1,999,-1,2,-1,-1,-1,-1,,9999,0,0,3,FEW 20   SCT 30   BKN 50,1,2,-1,1,1022,RJNK 061700Z VRB02KT 9999 FEW020 SCT030 BKN050 02/M01 Q1022 RMK     1CU020 3CU030 7SC050 A3020=,
20180106_170000.002,0,RJNK,,,,0,20180106170000,-1,-1,-1,-1,999,-1,2,-1,-1,-1,-1,,9999,0,0,3,FEW 20   SCT 30   BKN 50,1,2,-1,1,1022,RJNK 061700Z VRB02KT 9999 FEW020 SCT030 BKN050 02/M01 Q1022     RMK 1CU020 3CU030 7SC050 A3020=,
20180106_180000.000,0,RJNK,,,,0,20180106180000,-1,-1,-1,-1,320,-1,6,-1,-1,230,20,,9999,0,0,3,FEW 20   SCT 30   BKN 50,1,3,-1,3,1023,RJNK 061800Z 32006KT 230V020 9999 FEW020 SCT030 BKN050 03/M03     Q1023 RMK 1CU020 4CU030 7SC050 A3021=,
20180106_180000.003,0,RJNK,,,,0,20180106180000,-1,-1,-1,-1,320,-1,6,-1,-1,230,20,,9999,0,0,3,FEW 20   SCT 30   BKN 50,1,3,-1,3,1023,RJNK 061800Z 32006KT 230V020 9999 FEW020 SCT030 BKN050 03/M03     Q1023 RMK 1CU020 4CU030 7SC050 A3021=,
20180106_190000.000,0,RJNK,,,,0,20180106190000,-1,-1,-1,-1,130,-1,4,-1,-1,-1,-1,,9999,0,1,3,FEW 20   SCT 30   BKN 50,1,2,-1,1,1022,RJNK 061900Z 13004KT 9999 -SHSNRA FEW020 SCT030 BKN050 02/M01     Q1022 RMK 1CU020 3CU030 7SC050 A3020=,- SN RA SH
20180106_190000.002,0,RJNK,,,,0,20180106190000,-1,-1,-1,-1,130,-1,4,-1,-1,-1,-1,,9999,0,1,3,FEW 20   SCT 30   BKN 50,1,2,-1,1,1022,RJNK 061900Z 13004KT 9999 -SHSNRA FEW020 SCT030 BKN050 02/M01     Q1022 RMK 1CU020 3CU030 7SC050 A3020=,- SN RA SH
20180106_200000.000,0,RJNK,,,,0,20180106200000,-1,-1,-1,-1,110,-1,4,-1,-1,-1,-1,,9999,0,0,3,FEW 20   SCT 30   BKN 50,1,2,-1,2,1022,RJNK 062000Z 11004KT 9999 FEW020 SCT030 BKN050 02/M02 Q1022 RMK     1CU020 4CU030 7SC050 A3020=,
20180106_200000.002,0,RJNK,,,,0,20180106200000,-1,-1,-1,-1,110,-1,4,-1,-1,-1,-1,,9999,0,0,3,FEW 20   SCT 30   BKN 50,1,2,-1,2,1022,RJNK 062000Z 11004KT 9999 FEW020 SCT030 BKN050 02/M02 Q1022     RMK 1CU020 4CU030 7SC050 A3020=,
20180106_210000.000,0,RJNK,,,,0,20180106210000,-1,-1,-1,-1,110,-1,3,-1,-1,-1,-1,,9999,0,0,2,FEW 30   BKN 50,1,2,-1,2,1023,RJNK 062100Z 11003KT 9999 FEW030 BKN050 02/M02 Q1023 RMK 1CU030     7SC050 A3021 07/02 R004 S000=,
20180106_210000.002,0,RJNK,,,,0,20180106210000,-1,-1,-1,-1,110,-1,3,-1,-1,-1,-1,,9999,0,0,2,FEW 30   BKN 50,1,2,-1,2,1023,RJNK 062100Z 11003KT 9999 FEW030 BKN050 02/M02 Q1023 RMK     1CU030 7SC050 A3021 07/02 R004 S000=,
20180106_220000.000,0,RJNK,,,,0,20180106220000,-1,-1,-1,-1,999,-1,2,-1,-1,-1,-1,,9999,0,0,2,FEW 30   BKN 50,1,2,-1,2,1023,RJNK 062200Z VRB02KT 9999 FEW030 BKN050 02/M02 Q1023 RMK 1CU030     7SC050 A3022=,
20180106_220000.002,0,RJNK,,,,0,20180106220000,-1,-1,-1,-1,999,-1,2,-1,-1,-1,-1,,9999,0,0,2,FEW 30   BKN 50,1,2,-1,2,1023,RJNK 062200Z VRB02KT 9999 FEW030 BKN050 02/M02 Q1023 RMK     1CU030 7SC050 A3022=,
20180106_230000.000,0,RJNK,,,,0,20180106230000,-1,-1,-1,-1,999,-1,2,-1,-1,-1,-1,,9999,0,0,2,SCT 30   BKN 50,1,2,-1,2,1023,RJNK 062300Z VRB02KT 9999 SCT030 BKN050 02/M02 Q1023 RMK 3CU030     7SC050 A3023=,
20180106_230000.002,0,RJNK,,,,0,20180106230000,-1,-1,-1,-1,999,-1,2,-1,-1,-1,-1,,9999,0,0,2,SCT 30   BKN 50,1,2,-1,2,1023,RJNK 062300Z VRB02KT 9999 SCT030 BKN050 02/M02 Q1023 RMK     3CU030 7SC050 A3023=,
20180107_000000.000,0,RJNK,,,,0,20180107000000,-1,-1,-1,-1,90,-1,2,-1,-1,-1,-1,,9999,0,0,2,SCT 30   BKN 50,1,3,-1,2,1024,RJNK 070000Z 09002KT 9999 SCT030 BKN050 03/M02 Q1024 RMK 3CU030     7SC050 A3024=,
20180107_000000.002,0,RJNK,,,,0,20180107000000,-1,-1,-1,-1,90,-1,2,-1,-1,-1,-1,,9999,0,0,2,SCT 30   BKN 50,1,3,-1,2,1024,RJNK 070000Z 09002KT 9999 SCT030 BKN050 03/M02 Q1024 RMK     3CU030 7SC050 A3024=,
20180107_010000.000,0,RJNK,,,,0,20180107010000,-1,-1,-1,-1,90,-1,4,-1,-1,-1,-1,,9999,0,0,2,FEW 30   BKN 50,1,4,-1,3,1024,RJNK 070100Z 09004KT 9999 FEW030 BKN050 04/M03 Q1024 RMK 2CU030     7SC050 A3026=,
20180107_010000.003,0,RJNK,,,,0,20180107010000,-1,-1,-1,-1,90,-1,4,-1,-1,-1,-1,,9999,0,0,2,FEW 30   BKN 50,1,4,-1,3,1024,RJNK 070100Z 09004KT 9999 FEW030 BKN050 04/M03 Q1024 RMK     2CU030 7SC050 A3026=,
20180107_020000.000,0,RJNK,,,,0,20180107020000,-1,-1,-1,-1,90,-1,6,-1,-1,-1,-1,,9999,0,0,2,FEW 30   BKN 50,1,5,-1,3,1024,RJNK 070200Z 09006KT 9999 FEW030 BKN050 05/M03 Q1024 RMK 2CU030     7SC050 A3025=,
20180107_020000.002,0,RJNK,,,,0,20180107020000,-1,-1,-1,-1,90,-1,6,-1,-1,-1,-1,,9999,0,0,2,FEW 30   BKN 50,1,5,-1,3,1024,RJNK 070200Z 09006KT 9999 FEW030 BKN050 05/M03 Q1024 RMK     2CU030 7SC050 A3025=,
20180107_030000.000,0,RJNK,,,,0,20180107030000,-1,-1,-1,-1,60,-1,10,-1,-1,-1,-1,,9999,0,0,2,FEW 30   BKN 50,1,6,-1,5,1023,RJNK 070300Z 06010KT 9999 FEW030 BKN050 06/M05 Q1023 RMK 2CU030     7SC050 A3023=,
20180107_030000.002,0,RJNK,,,,0,20180107030000,-1,-1,-1,-1,60,-1,10,-1,-1,-1,-1,,9999,0,0,2,FEW 30   BKN 50,1,6,-1,5,1023,RJNK 070300Z 06010KT 9999 FEW030 BKN050 06/M05 Q1023 RMK     2CU030 7SC050 A3023=,
20180107_040000.000,0,RJNK,,,,0,20180107040000,-1,-1,-1,-1,50,-1,8,-1,-1,-1,-1,,9999,0,0,2,FEW 30   BKN 50,1,6,-1,6,1023,RJNK 070400Z 05008KT 9999 FEW030 BKN050 06/M06 Q1023 RMK 1CU030     7SC050 A3022=,
20180107_040000.002,0,RJNK,,,,0,20180107040000,-1,-1,-1,-1,50,-1,8,-1,-1,-1,-1,,9999,0,0,2,FEW 30   BKN 50,1,6,-1,6,1023,RJNK 070400Z 05008KT 9999 FEW030 BKN050 06/M06 Q1023 RMK     1CU030 7SC050 A3022=,
20180107_050000.000,0,RJNK,,,,0,20180107050000,-1,-1,-1,-1,80,-1,5,-1,-1,50,130,,9999,0,0,2,FEW 30   BKN 50,1,6,-1,6,1022,RJNK 070500Z 08005KT 050V130 9999 FEW030 BKN050 06/M06 Q1022     RMK 1CU030 6SC050 A3021=,
20180107_050000.002,0,RJNK,,,,0,20180107050000,-1,-1,-1,-1,80,-1,5,-1,-1,50,130,,9999,0,0,2,FEW 30   BKN 50,1,6,-1,6,1022,RJNK 070500Z 08005KT 050V130 9999 FEW030 BKN050 06/M06 Q1022     RMK 1CU030 6SC050 A3021=,
20180107_060000.000,0,RJNK,,,,0,20180107060000,-1,-1,-1,-1,70,-1,6,-1,-1,40,110,,9999,0,0,3,FEW 30   SCT 50   BKN 230,1,7,-1,7,1023,RJNK 070600Z 07006KT 040V110 9999 FEW030 SCT050 BKN230 07/M07     Q1023 RMK 1CU030 3SC050 A3021=,
20180107_060000.002,0,RJNK,,,,0,20180107060000,-1,-1,-1,-1,70,-1,6,-1,-1,40,110,,9999,0,0,3,FEW 30   SCT 50   BKN 230,1,7,-1,7,1023,RJNK 070600Z 07006KT 040V110 9999 FEW030 SCT050 BKN230 07/M07     Q1023 RMK 1CU030 3SC050 A3021=,
20180107_070000.000,0,RJNK,,,,0,20180107070000,-1,-1,-1,-1,30,-1,7,-1,-1,-1,-1,,9999,0,0,2,FEW 50   BKN 230,1,6,-1,6,1023,RJNK 070700Z 03007KT 9999 FEW050 BKN230 06/M06 Q1023 RMK 2SC050     A3022=,
20180107_070000.002,0,RJNK,,,,0,20180107070000,-1,-1,-1,-1,30,-1,7,-1,-1,-1,-1,,9999,0,0,2,FEW 50   BKN 230,1,6,-1,6,1023,RJNK 070700Z 03007KT 9999 FEW050 BKN230 06/M06 Q1023 RMK     2SC050 A3022=,
20180107_080000.000,0,RJNK,,,,0,20180107080000,-1,-1,-1,-1,60,-1,3,-1,-1,-1,-1,,9999,0,0,2,FEW 50   BKN 230,1,5,-1,6,1023,RJNK 070800Z 06003KT 9999 FEW050 BKN230 05/M06 Q1023 RMK 2SC050     A3023=,
20180107_080000.002,0,RJNK,,,,0,20180107080000,-1,-1,-1,-1,60,-1,3,-1,-1,-1,-1,,9999,0,0,2,FEW 50   BKN 230,1,5,-1,6,1023,RJNK 070800Z 06003KT 9999 FEW050 BKN230 05/M06 Q1023 RMK     2SC050 A3023=,
20180107_090000.000,0,RJNK,,,,0,20180107090000,-1,-1,-1,-1,80,-1,4,-1,-1,-1,-1,,9999,0,0,3,FEW 50   SCT 180   BKN -9999,1,4,-1,5,1024,RJNK 070900Z 08004KT 9999 FEW050 SCT180 BKN/// 04/M05 Q1024 RMK     2SC050 3AC180 A3025=,
20180107_090000.002,0,RJNK,,,,0,20180107090000,-1,-1,-1,-1,80,-1,4,-1,-1,-1,-1,,9999,0,0,3,FEW 50   SCT 180   BKN -9999,1,4,-1,5,1024,RJNK 070900Z 08004KT 9999 FEW050 SCT180 BKN/// 04/M05 Q1024     RMK 2SC050 3AC180 A3025=,
20180107_100000.000,0,RJNK,,,,0,20180107100000,-1,-1,-1,-1,100,-1,4,-1,-1,-1,-1,,9999,0,0,3,FEW 50   BKN 180   BKN -9999,1,3,-1,3,1024,RJNK 071000Z 10004KT 9999 FEW050 BKN180 BKN/// 03/M03 Q1024 RMK     2SC050 6AC180 A3024=,
20180107_100000.002,0,RJNK,,,,0,20180107100000,-1,-1,-1,-1,100,-1,4,-1,-1,-1,-1,,9999,0,0,3,FEW 50   BKN 180   BKN -9999,1,3,-1,3,1024,RJNK 071000Z 10004KT 9999 FEW050 BKN180 BKN/// 03/M03 Q1024     RMK 2SC050 6AC180 A3024=,
20180107_110000.000,0,RJNK,,,,0,20180107110000,-1,-1,-1,-1,110,-1,3,-1,-1,-1,-1,,9999,0,0,3,FEW 50   BKN 180   BKN 230,1,3,-1,3,1022,RJNK 071100Z 11003KT 9999 FEW050 BKN180 BKN230 03/M03 Q1022 RMK     2SC050 7AC180 A3019=,
20180107_110000.000,0,RJNK,,,,0,20180107110000,-1,-1,-1,-1,110,-1,3,-1,-1,-1,-1,,9999,0,0,3,FEW 50   BKN 180   BKN 230,1,3,-1,3,1022,RJNK 071100Z 11003KT 9999 FEW050 BKN180 BKN230 03/M03 Q1022 RMK     2SC050 7AC180 A3022=,
20180107_110000.002,0,RJNK,,,,0,20180107110000,-1,-1,-1,-1,110,-1,3,-1,-1,-1,-1,,9999,0,0,3,FEW 50   BKN 180   BKN 230,1,3,-1,3,1022,RJNK 071100Z 11003KT 9999 FEW050 BKN180 BKN230 03/M03 Q1022     RMK 2SC050 7AC180 A3019=,
20180107_120000.000,0,RJNK,,,,0,20180107120000,-1,-1,-1,-1,240,-1,5,-1,-1,-1,-1,,9999,0,0,3,FEW 50   BKN 180   BKN -9999,1,2,-1,2,1022,RJNK 071200Z 24005KT 9999 FEW050 BKN180 BKN/// 02/M02 Q1022 RMK     1SC050 6AC180 A3020=,
20180107_120000.003,0,RJNK,,,,0,20180107120000,-1,-1,-1,-1,240,-1,5,-1,-1,-1,-1,,9999,0,0,3,FEW 50   BKN 180   BKN -9999,1,2,-1,2,1022,RJNK 071200Z 24005KT 9999 FEW050 BKN180 BKN/// 02/M02 Q1022     RMK 1SC050 6AC180 A3020=,
20180107_130000.000,0,RJNK,,,,0,20180107130000,-1,-1,-1,-1,170,-1,5,-1,-1,-1,-1,,9999,0,0,3,FEW 50   BKN 180   BKN -9999,1,2,-1,1,1022,RJNK 071300Z 17005KT 9999 FEW050 BKN180 BKN/// 02/M01 Q1022 RMK     1SC050 5AC180 A3019=,
20180107_130000.003,0,RJNK,,,,0,20180107130000,-1,-1,-1,-1,170,-1,5,-1,-1,-1,-1,,9999,0,0,3,FEW 50   BKN 180   BKN -9999,1,2,-1,1,1022,RJNK 071300Z 17005KT 9999 FEW050 BKN180 BKN/// 02/M01 Q1022     RMK 1SC050 5AC180 A3019=,
20180107_140000.000,0,RJNK,,,,0,20180107140000,-1,-1,-1,-1,140,-1,4,-1,-1,-1,-1,,9999,0,0,3,FEW 50   BKN 180   BKN -9999,1,2,-1,3,1021,RJNK 071400Z 14004KT 9999 FEW050 BKN180 BKN/// 02/M03 Q1021 RMK     1SC050 5AC180 A3017=,
20180107_140000.003,0,RJNK,,,,0,20180107140000,-1,-1,-1,-1,140,-1,4,-1,-1,-1,-1,,9999,0,0,3,FEW 50   BKN 180   BKN -9999,1,2,-1,3,1021,RJNK 071400Z 14004KT 9999 FEW050 BKN180 BKN/// 02/M03 Q1021     RMK 1SC050 5AC180 A3017=,
20180107_150000.000,0,RJNK,,,,0,20180107150000,-1,-1,-1,-1,150,-1,3,-1,-1,-1,-1,,9999,0,0,3,FEW 50   SCT 130   BKN 180,1,2,-1,3,1020,RJNK 071500Z 15003KT 9999 FEW050 SCT130 BKN180 02/M03 Q1020 RMK     1SC050 3AC130 5AC180 A3014=,
20180107_150000.002,0,RJNK,,,,0,20180107150000,-1,-1,-1,-1,150,-1,3,-1,-1,-1,-1,,9999,0,0,3,FEW 50   SCT 130   BKN 180,1,2,-1,3,1020,RJNK 071500Z 15003KT 9999 FEW050 SCT130 BKN180 02/M03 Q1020     RMK 1SC050 3AC130 5AC180 A3014=,
20180107_160000.000,0,RJNK,,,,0,20180107160000,-1,-1,-1,-1,999,-1,2,-1,-1,-1,-1,,9999,0,0,3,FEW 50   BKN 130   BKN 180,1,1,-1,2,1020,RJNK 071600Z VRB02KT 9999 FEW050 BKN130 BKN180 01/M02 Q1020 RMK     1SC050 5AC130 6AC180 A3013=,
20180107_160000.002,0,RJNK,,,,0,20180107160000,-1,-1,-1,-1,999,-1,2,-1,-1,-1,-1,,9999,0,0,3,FEW 50   BKN 130   BKN 180,1,1,-1,2,1020,RJNK 071600Z VRB02KT 9999 FEW050 BKN130 BKN180 01/M02 Q1020     RMK 1SC050 5AC130 6AC180 A3013=,
20180107_170000.000,0,RJNK,,,,0,20180107170000,-1,-1,-1,-1,120,-1,4,-1,-1,-1,-1,,9999,0,0,3,FEW 50   BKN 130   BKN 180,1,1,-1,2,1019,RJNK 071700Z 12004KT 9999 FEW050 BKN130 BKN180 01/M02 Q1019 RMK     1SC050 5AC130 6AC180 A3011=,
20180107_170000.002,0,RJNK,,,,0,20180107170000,-1,-1,-1,-1,120,-1,4,-1,-1,-1,-1,,9999,0,0,3,FEW 50   BKN 130   BKN 180,1,1,-1,2,1019,RJNK 071700Z 12004KT 9999 FEW050 BKN130 BKN180 01/M02 Q1019     RMK 1SC050 5AC130 6AC180 A3011=,
20180107_180000.000,0,RJNK,,,,0,20180107180000,-1,-1,-1,-1,999,-1,2,-1,-1,-1,-1,,9999,0,0,3,FEW 50   SCT 100   BKN 130,1,1,-1,2,1018,RJNK 071800Z VRB02KT 9999 FEW050 SCT100 BKN130 01/M02 Q1018 RMK     1SC050 3AC100 5AC130 A3009=,
20180107_180000.002,0,RJNK,,,,0,20180107180000,-1,-1,-1,-1,999,-1,2,-1,-1,-1,-1,,9999,0,0,3,FEW 50   SCT 100   BKN 130,1,1,-1,2,1018,RJNK 071800Z VRB02KT 9999 FEW050 SCT100 BKN130 01/M02 Q1018     RMK 1SC050 3AC100 5AC130 A3009=,
20180107_190000.000,0,RJNK,,,,0,20180107190000,-1,-1,-1,-1,999,-1,2,-1,-1,-1,-1,,9999,0,0,3,FEW 50   BKN 100   BKN 130,1,1,-1,2,1017,RJNK 071900Z VRB02KT 9999 FEW050 BKN100 BKN130 01/M02 Q1017 RMK     1SC050 5AC100 6AC130 A3004=,
20180107_190000.003,0,RJNK,,,,0,20180107190000,-1,-1,-1,-1,999,-1,2,-1,-1,-1,-1,,9999,0,0,3,FEW 50   BKN 100   BKN 130,1,1,-1,2,1017,RJNK 071900Z VRB02KT 9999 FEW050 BKN100 BKN130 01/M02 Q1017     RMK 1SC050 5AC100 6AC130 A3004=,
20180107_200000.000,0,RJNK,,,,0,20180107200000,-1,-1,-1,-1,230,-1,3,-1,-1,-1,-1,,9999,0,0,3,FEW 50   BKN 100   BKN 130,1,1,-1,2,1017,RJNK 072000Z 23003KT 9999 FEW050 BKN100 BKN130 01/M02 Q1017 RMK     1SC050 6AC100 7AC130 A3004=,
20180107_200000.002,0,RJNK,,,,0,20180107200000,-1,-1,-1,-1,230,-1,3,-1,-1,-1,-1,,9999,0,0,3,FEW 50   BKN 100   BKN 130,1,1,-1,2,1017,RJNK 072000Z 23003KT 9999 FEW050 BKN100 BKN130 01/M02 Q1017     RMK 1SC050 6AC100 7AC130 A3004=,
20180107_210000.000,0,RJNK,,,,0,20180107210000,-1,-1,-1,-1,160,-1,3,-1,-1,120,190,,9999,0,0,3,SCT 50   BKN 100   OVC 130,1,2,-1,2,1017,RJNK 072100Z 16003KT 120V190 9999 SCT050 BKN100 OVC130 02/M02     Q1017 RMK 3SC050 6AC100 8AS130 A3005 07/01=,
20180107_210000.003,0,RJNK,,,,0,20180107210000,-1,-1,-1,-1,160,-1,3,-1,-1,120,190,,9999,0,0,3,SCT 50   BKN 100   OVC 130,1,2,-1,2,1017,RJNK 072100Z 16003KT 120V190 9999 SCT050 BKN100 OVC130 02/M02     Q1017 RMK 3SC050 6AC100 8AS130 A3005 07/01=,
20180107_220000.000,0,RJNK,,,,0,20180107220000,-1,-1,-1,-1,160,-1,4,-1,-1,130,200,,9999,0,0,3,SCT 50   BKN 100   OVC 130,1,2,-1,2,1017,RJNK 072200Z 16004KT 130V200 9999 SCT050 BKN100 OVC130 02/M02     Q1017 RMK 3SC050 7AC100 8AS130 A3005=,
20180107_220000.002,0,RJNK,,,,0,20180107220000,-1,-1,-1,-1,160,-1,4,-1,-1,130,200,,9999,0,0,3,SCT 50   BKN 100   OVC 130,1,2,-1,2,1017,RJNK 072200Z 16004KT 130V200 9999 SCT050 BKN100 OVC130 02/M02     Q1017 RMK 3SC050 7AC100 8AS130 A3005=,
20180107_230000.000,0,RJNK,,,,0,20180107230000,-1,-1,-1,-1,100,-1,3,-1,-1,-1,-1,,9999,0,1,3,SCT 50   BKN 90   OVC 130,1,3,-1,1,1016,RJNK 072300Z 10003KT 9999 -RA SCT050 BKN090 OVC130 03/M01 Q1016     RMK 3SC050 7AC090 8AS130 A3003=,- RA
20180107_230000.002,0,RJNK,,,,0,20180107230000,-1,-1,-1,-1,100,-1,3,-1,-1,-1,-1,,9999,0,1,3,SCT 50   BKN 90   OVC 130,1,3,-1,1,1016,RJNK 072300Z 10003KT 9999 -RA SCT050 BKN090 OVC130 03/M01     Q1016 RMK 3SC050 7AC090 8AS130 A3003=,- RA
20180108_000000.000,0,RJNK,,,,0,20180108000000,-1,-1,-1,-1,100,-1,6,-1,-1,-1,-1,,9999,0,1,2,BKN 50   OVC 90,1,3,-1,0,1015,RJNK 080000Z 10006KT 9999 -RA BKN050 OVC090 03/M00 Q1015 RMK     5SC050 8AS090 A2999=,- RA
20180108_000000.000,0,RJNK,,,,0,20180108000000,-1,-1,-1,-1,100,-1,6,-1,-1,-1,-1,,9999,0,1,2,BKN 50   OVC 90,1,3,-1,0,1015,RJNK 080000Z 10006KT 9999 -RA BKN050 OVC090 03/M00 Q1015 RMK     5SC050 8AS090 A2999=,- RA
20180108_000000.002,0,RJNK,,,,0,20180108000000,-1,-1,-1,-1,100,-1,6,-1,-1,-1,-1,,9999,0,1,2,BKN 50   OVC 90,1,3,-1,0,1015,RJNK 080000Z 10006KT 9999 -RA BKN050 OVC090 03/M00 Q1015 RMK     5SC050 8AS090 A2999=,- RA
20180108_010000.000,0,RJNK,,,,0,20180108010000,-1,-1,-1,-1,50,-1,5,-1,-1,-1,-1,,9999,0,1,2,SCT 50   OVC 90,1,4,1,2,1013,RJNK 080100Z 05005KT 9999 -RA SCT050 OVC090 04/02 Q1013 RMK     4SC050 8AS090 A2994=,- RA
20180108_010000.002,0,RJNK,,,,0,20180108010000,-1,-1,-1,-1,50,-1,5,-1,-1,-1,-1,,9999,0,1,2,SCT 50   OVC 90,1,4,1,2,1013,RJNK 080100Z 05005KT 9999 -RA SCT050 OVC090 04/02 Q1013 RMK     4SC050 8AS090 A2994=,- RA
20180108_020000.000,0,RJNK,,,,0,20180108020000,-1,-1,-1,-1,60,-1,4,-1,-1,-1,-1,,9999,0,1,2,SCT 50   OVC 90,1,6,1,4,1011,RJNK 080200Z 06004KT 9999 -RA SCT050 OVC090 06/04 Q1011 RMK     4SC050 8AS090 A2987=,- RA
20180108_020000.002,0,RJNK,,,,0,20180108020000,-1,-1,-1,-1,60,-1,4,-1,-1,-1,-1,,9999,0,1,2,SCT 50   OVC 90,1,6,1,4,1011,RJNK 080200Z 06004KT 9999 -RA SCT050 OVC090 06/04 Q1011 RMK     4SC050 8AS090 A2987=,- RA
20180108_030000.000,0,RJNK,,,,0,20180108030000,-1,-1,-1,-1,70,-1,3,-1,-1,-1,-1,,9999,0,1,2,SCT 50   OVC 90,1,8,1,5,1008,RJNK 080300Z 07003KT 9999 -RA SCT050 OVC090 08/05 Q1008 RMK     4SC050 8AS090 A2979=,- RA
20180108_030000.002,0,RJNK,,,,0,20180108030000,-1,-1,-1,-1,70,-1,3,-1,-1,-1,-1,,9999,0,1,2,SCT 50   OVC 90,1,8,1,5,1008,RJNK 080300Z 07003KT 9999 -RA SCT050 OVC090 08/05 Q1008 RMK     4SC050 8AS090 A2979=,- RA
20180108_040000.000,0,RJNK,,,,0,20180108040000,-1,-1,-1,-1,340,-1,3,-1,-1,270,50,,7000,0,1,3,FEW 20   BKN 50   OVC 90,1,9,1,6,1007,RJNK 080400Z 34003KT 270V050 7000 -RA FEW020 BKN050 OVC090     09/06 Q1007 RMK 1CU020 6SC050 8AS090 A2975=,- RA
20180108_040000.002,0,RJNK,,,,0,20180108040000,-1,-1,-1,-1,340,-1,3,-1,-1,270,50,,7000,0,1,3,FEW 20   BKN 50   OVC 90,1,9,1,6,1007,RJNK 080400Z 34003KT 270V050 7000 -RA FEW020 BKN050 OVC090     09/06 Q1007 RMK 1CU020 6SC050 8AS090 A2975=,- RA
20180108_050000.000,0,RJNK,,,,0,20180108050000,-1,-1,-1,-1,40,-1,8,-1,-1,-1,-1,,9999,0,1,3,FEW 20   BKN 50   OVC 90,1,8,1,7,1004,RJNK 080500Z 04008KT 9999 -RA FEW020 BKN050 OVC090 08/07 Q1004     RMK 1CU020 7SC050 8AS090 A2967=,- RA
20180108_050000.002,0,RJNK,,,,0,20180108050000,-1,-1,-1,-1,40,-1,8,-1,-1,-1,-1,,9999,0,1,3,FEW 20   BKN 50   OVC 90,1,8,1,7,1004,RJNK 080500Z 04008KT 9999 -RA FEW020 BKN050 OVC090 08/07 Q1004     RMK 1CU020 7SC050 8AS090 A2967=,- RA
20180108_060000.000,0,RJNK,,,,0,20180108060000,-1,-1,-1,-1,10,-1,12,-1,-1,-1,-1,,9999,0,1,3,FEW 15   BKN 50   OVC 90,1,9,1,6,1004,RJNK 080600Z 01012KT 9999 -RA FEW015 BKN050 OVC090 09/06 Q1004     RMK 1CU015 7SC050 8AS090 A2967=,- RA
20180108_060000.003,0,RJNK,,,,0,20180108060000,-1,-1,-1,-1,10,-1,12,-1,-1,-1,-1,,9999,0,1,3,FEW 15   BKN 50   OVC 90,1,9,1,6,1004,RJNK 080600Z 01012KT 9999 -RA FEW015 BKN050 OVC090 09/06 Q1004     RMK 1CU015 7SC050 8AS090 A2967=,- RA
20180108_070000.000,0,RJNK,,,,0,20180108070000,-1,-1,-1,-1,20,-1,13,-1,-1,-1,-1,,7000,0,1,3,FEW 15   BKN 40   BKN 50,1,9,1,7,1004,RJNK 080700Z 02013KT 7000 -RA FEW015 BKN040 BKN050 09/07 Q1004     RMK 1CU015 6SC040 7SC050 A2968=,- RA
20180108_070000.002,0,RJNK,,,,0,20180108070000,-1,-1,-1,-1,20,-1,13,-1,-1,-1,-1,,7000,0,1,3,FEW 15   BKN 40   BKN 50,1,9,1,7,1004,RJNK 080700Z 02013KT 7000 -RA FEW015 BKN040 BKN050 09/07 Q1004     RMK 1CU015 6SC040 7SC050 A2968=,- RA
20180108_080000.000,0,RJNK,,,,0,20180108080000,-1,-1,-1,-1,40,-1,5,-1,-1,360,70,,7000,0,1,3,FEW 10   BKN 40   BKN 50,1,8,1,6,1005,RJNK 080800Z 04005KT 360V070 7000 -RA FEW010 BKN040 BKN050     08/06 Q1005 RMK 1CU010 5SC040 7SC050 A2968=,- RA
20180108_080000.002,0,RJNK,,,,0,20180108080000,-1,-1,-1,-1,40,-1,5,-1,-1,360,70,,7000,0,1,3,FEW 10   BKN 40   BKN 50,1,8,1,6,1005,RJNK 080800Z 04005KT 360V070 7000 -RA FEW010 BKN040 BKN050     08/06 Q1005 RMK 1CU010 5SC040 7SC050 A2968=,- RA
20180108_090000.000,0,RJNK,,,,0,20180108090000,-1,-1,-1,-1,30,-1,3,-1,-1,-1,-1,,7000,0,1,3,FEW 15   BKN 40   OVC 50,1,8,1,6,1004,RJNK 080900Z 03003KT 7000 -RA FEW015 BKN040 OVC050 08/06 Q1004     RMK 1CU015 6SC040 8SC050 A2966=,- RA
20180108_090000.002,0,RJNK,,,,0,20180108090000,-1,-1,-1,-1,30,-1,3,-1,-1,-1,-1,,7000,0,1,3,FEW 15   BKN 40   OVC 50,1,8,1,6,1004,RJNK 080900Z 03003KT 7000 -RA FEW015 BKN040 OVC050 08/06 Q1004     RMK 1CU015 6SC040 8SC050 A2966=,- RA
20180108_100000.000,0,RJNK,,,,0,20180108100000,-1,-1,-1,-1,20,-1,3,-1,-1,350,60,,9999,0,1,3,FEW 25   BKN 50   OVC 90,1,7,1,6,1002,RJNK 081000Z 02003KT 350V060 9999 -RA FEW025 BKN050 OVC090     07/06 Q1002 RMK 1CU025 5SC050 8AS090 A2962=,- RA
20180108_100000.002,0,RJNK,,,,0,20180108100000,-1,-1,-1,-1,20,-1,3,-1,-1,350,60,,9999,0,1,3,FEW 25   BKN 50   OVC 90,1,7,1,6,1002,RJNK 081000Z 02003KT 350V060 9999 -RA FEW025 BKN050 OVC090     07/06 Q1002 RMK 1CU025 5SC050 8AS090 A2962=,- RA
20180108_110000.000,0,RJNK,,,,0,20180108110000,-1,-1,-1,-1,999,-1,1,-1,-1,-1,-1,,9999,0,1,3,FEW 25   BKN 50   BKN 70,1,8,1,6,1002,RJNK 081100Z VRB01KT 9999 -RA FEW025 BKN050 BKN070 08/06 Q1002     RMK 1CU025 6SC050 7AC070 A2960=,- RA
20180108_110000.002,0,RJNK,,,,0,20180108110000,-1,-1,-1,-1,999,-1,1,-1,-1,-1,-1,,9999,0,1,3,FEW 25   BKN 50   BKN 70,1,8,1,6,1002,RJNK 081100Z VRB01KT 9999 -RA FEW025 BKN050 BKN070 08/06 Q1002     RMK 1CU025 6SC050 7AC070 A2960=,- RA
20180108_120000.000,0,RJNK,,,,0,20180108120000,-1,-1,-1,-1,0,-1,0,-1,-1,-1,-1,,9999,0,1,3,FEW 25   BKN 50   BKN 70,1,8,1,7,1002,RJNK 081200Z 00000KT 9999 -RA FEW025 BKN050 BKN070 08/07 Q1002     RMK 1CU025 5SC050 6AC070 A2959=,- RA
20180108_120000.002,0,RJNK,,,,0,20180108120000,-1,-1,-1,-1,0,-1,0,-1,-1,-1,-1,,9999,0,1,3,FEW 25   BKN 50   BKN 70,1,8,1,7,1002,RJNK 081200Z 00000KT 9999 -RA FEW025 BKN050 BKN070 08/07 Q1002     RMK 1CU025 5SC050 6AC070 A2959=,- RA
20180108_130000.000,0,RJNK,,,,0,20180108130000,-1,-1,-1,-1,150,-1,3,-1,-1,-1,-1,,9999,0,1,3,FEW 25   BKN 50   BKN 70,1,9,1,8,999,RJNK 081300Z 15003KT 9999 -RA FEW025 BKN050 BKN070 09/08 Q0999     RMK 1CU025 5SC050 7AC070 A2952=,- RA
20180108_130000.003,0,RJNK,,,,0,20180108130000,-1,-1,-1,-1,150,-1,3,-1,-1,-1,-1,,9999,0,1,3,FEW 25   BKN 50   BKN 70,1,9,1,8,999,RJNK 081300Z 15003KT 9999 -RA FEW025 BKN050 BKN070 09/08 Q0999     RMK 1CU025 5SC050 7AC070 A2952=,- RA
20180108_140000.000,0,RJNK,,,,0,20180108140000,-1,-1,-1,-1,180,-1,9,-1,-1,-1,-1,,9999,0,1,3,FEW 25   SCT 50   BKN 70,1,13,1,10,999,RJNK 081400Z 18009KT 9999 -RA FEW025 SCT050 BKN070 13/10 Q0999     RMK 1CU025 3SC050 7AC070 A2951=,- RA
20180108_140000.002,0,RJNK,,,,0,20180108140000,-1,-1,-1,-1,180,-1,9,-1,-1,-1,-1,,9999,0,1,3,FEW 25   SCT 50   BKN 70,1,13,1,10,999,RJNK 081400Z 18009KT 9999 -RA FEW025 SCT050 BKN070 13/10 Q0999     RMK 1CU025 3SC050 7AC070 A2951=,- RA
20180108_150000.000,0,RJNK,,,,0,20180108150000,-1,-1,-1,-1,200,-1,10,-1,-1,-1,-1,,9999,0,1,3,FEW 30   BKN 50   BKN 70,1,13,1,11,998,RJNK 081500Z 20010KT 9999 -RA FEW030 BKN050 BKN070 13/11 Q0998     RMK 1CU030 5SC050 7AC070 A2947=,- RA
20180108_150000.002,0,RJNK,,,,0,20180108150000,-1,-1,-1,-1,200,-1,10,-1,-1,-1,-1,,9999,0,1,3,FEW 30   BKN 50   BKN 70,1,13,1,11,998,RJNK 081500Z 20010KT 9999 -RA FEW030 BKN050 BKN070 13/11 Q0998     RMK 1CU030 5SC050 7AC070 A2947=,- RA
20180108_160000.000,0,RJNK,,,,0,20180108160000,-1,-1,-1,-1,210,-1,14,-1,-1,-1,-1,,9999,0,1,3,FEW 30   BKN 50   BKN 70,1,13,1,11,997,RJNK 081600Z 21014KT 9999 -RA FEW030 BKN050 BKN070 13/11 Q0997     RMK 1CU030 5SC050 7AC070 A2946=,- RA
20180108_160000.002,0,RJNK,,,,0,20180108160000,-1,-1,-1,-1,210,-1,14,-1,-1,-1,-1,,9999,0,1,3,FEW 30   BKN 50   BKN 70,1,13,1,11,997,RJNK 081600Z 21014KT 9999 -RA FEW030 BKN050 BKN070 13/11 Q0997     RMK 1CU030 5SC050 7AC070 A2946=,- RA
20180108_170000.000,0,RJNK,,,,0,20180108170000,-1,-1,-1,-1,210,-1,15,-1,-1,-1,-1,,9999,0,1,3,FEW 30   BKN 50   BKN 70,1,13,1,10,997,RJNK 081700Z 21015KT 9999 -RA FEW030 BKN050 BKN070 13/10 Q0997     RMK 1CU030 5SC050 7AC070 A2946=,- RA
20180108_170000.002,0,RJNK,,,,0,20180108170000,-1,-1,-1,-1,210,-1,15,-1,-1,-1,-1,,9999,0,1,3,FEW 30   BKN 50   BKN 70,1,13,1,10,997,RJNK 081700Z 21015KT 9999 -RA FEW030 BKN050 BKN070 13/10 Q0997     RMK 1CU030 5SC050 7AC070 A2946=,- RA
20180108_180000.000,0,RJNK,,,,0,20180108180000,-1,-1,-1,-1,240,-1,25,-1,36,-1,-1,,4000,0,1,3,FEW 5   SCT 6   BKN 8,1,12,1,10,998,RJNK 081800Z 24025G36KT 4000 -SHRA FEW005 SCT006 BKN008 12/10     Q0998 RMK 1ST005 3ST006 5CU008 A2950 VSI W-NW 4500M=,- RA SH
20180108_180000.002,0,RJNK,,,,0,20180108180000,-1,-1,-1,-1,240,-1,25,-1,36,-1,-1,,4000,0,1,3,FEW 5   SCT 6   BKN 8,1,12,1,10,998,RJNK 081800Z 24025G36KT 4000 -SHRA FEW005 SCT006 BKN008 12/10     Q0998 RMK 1ST005 3ST006 5CU008 A2950 VSI W-NW 4500M=,- RA SH
20180108_190000.000,0,RJNK,,,,0,20180108190000,-1,-1,-1,-1,250,-1,24,-1,36,-1,-1,,9999,0,1,3,FEW 8   BKN 15   BKN 25,1,10,1,8,999,RJNK 081900Z 25024G36KT 9999 -SHRA FEW008 BKN015 BKN025 10/08     Q0999 RMK 2CU008 5CU015 7CU025 A2952=,- RA SH
20180108_190000.002,0,RJNK,,,,0,20180108190000,-1,-1,-1,-1,250,-1,24,-1,36,-1,-1,,9999,0,1,3,FEW 8   BKN 15   BKN 25,1,10,1,8,999,RJNK 081900Z 25024G36KT 9999 -SHRA FEW008 BKN015 BKN025 10/08     Q0999 RMK 2CU008 5CU015 7CU025 A2952=,- RA SH
20180108_200000.000,0,RJNK,,,,0,20180108200000,-1,-1,-1,-1,260,-1,20,-1,-1,-1,-1,,4000,0,1,3,FEW 6   SCT 8   BKN 15,1,10,1,7,1000,RJNK 082000Z 26020KT 4000 -SHRA FEW006 SCT008 BKN015 10/07     Q1000 RMK 1ST006 3CU008 5CU015 A2954=,- RA SH
20180108_200000.002,0,RJNK,,,,0,20180108200000,-1,-1,-1,-1,260,-1,20,-1,-1,-1,-1,,4000,0,1,3,FEW 6   SCT 8   BKN 15,1,10,1,7,1000,RJNK 082000Z 26020KT 4000 -SHRA FEW006 SCT008 BKN015 10/07     Q1000 RMK 1ST006 3CU008 5CU015 A2954=,- RA SH
20180108_210000.000,0,RJNK,,,,0,20180108210000,-1,-1,-1,-1,260,-1,20,-1,-1,-1,-1,,7000,0,1,3,FEW 6   SCT 8   BKN 15,1,9,1,5,1000,RJNK 082100Z 26020KT 7000 -SHRA FEW006 SCT008 BKN015 09/05     Q1000 RMK 1ST006 3CU008 6CU015 A2956 27038KT/1830 13/07           R021=,- RA SH
20180108_210000.003,0,RJNK,,,,0,20180108210000,-1,-1,-1,-1,260,-1,20,-1,-1,-1,-1,,7000,0,1,3,FEW 6   SCT 8   BKN 15,1,9,1,5,1000,RJNK 082100Z 26020KT 7000 -SHRA FEW006 SCT008 BKN015 09/05     Q1000 RMK 1ST006 3CU008 6CU015 A2956 27038KT/1830 13/07           R021=,- RA SH
20180108_220000.000,0,RJNK,,,,0,20180108220000,-1,-1,-1,-1,200,-1,11,-1,-1,-1,-1,,9999,0,1,3,FEW 8   BKN 25   OVC 50,1,7,1,5,1001,RJNK 082200Z 20011KT 9999 -SHRA FEW008 BKN025 OVC050 07/05     Q1001 RMK 1CU008 7CU025 8SC050 A2957=,- RA SH
20180108_220000.002,0,RJNK,,,,0,20180108220000,-1,-1,-1,-1,200,-1,11,-1,-1,-1,-1,,9999,0,1,3,FEW 8   BKN 25   OVC 50,1,7,1,5,1001,RJNK 082200Z 20011KT 9999 -SHRA FEW008 BKN025 OVC050 07/05     Q1001 RMK 1CU008 7CU025 8SC050 A2957=,- RA SH
20180108_230000.000,0,RJNK,,,,0,20180108230000,-1,-1,-1,-1,270,-1,22,-1,34,-1,-1,,3500,0,1,3,FEW 8   SCT 15   BKN 25,1,8,1,4,1001,RJNK 082300Z 27022G34KT 3500 -SHRA FEW008 SCT015 BKN025 08/04     Q1001 RMK 1CU008 3CU015 7CU025 A2956=,- RA SH
20180108_230000.003,0,RJNK,,,,0,20180108230000,-1,-1,-1,-1,270,-1,22,-1,34,-1,-1,,3500,0,1,3,FEW 8   SCT 15   BKN 25,1,8,1,4,1001,RJNK 082300Z 27022G34KT 3500 -SHRA FEW008 SCT015 BKN025 08/04     Q1001 RMK 1CU008 3CU015 7CU025 A2956=,- RA SH
20180109_000000.000,0,RJNK,,,,0,20180109000000,-1,-1,-1,-1,270,-1,26,-1,37,-1,-1,,9999,0,1,3,FEW 8   BKN 25   OVC 50,1,7,1,3,1001,RJNK 090000Z 27026G37KT 9999 -SHRA FEW008 BKN025 OVC050 07/03     Q1001 RMK 1CU008 7CU025 8SC050 A2958=,- RA SH
20180109_000000.002,0,RJNK,,,,0,20180109000000,-1,-1,-1,-1,270,-1,26,-1,37,-1,-1,,9999,0,1,3,FEW 8   BKN 25   OVC 50,1,7,1,3,1001,RJNK 090000Z 27026G37KT 9999 -SHRA FEW008 BKN025 OVC050 07/03     Q1001 RMK 1CU008 7CU025 8SC050 A2958=,- RA SH
20180109_010000.000,0,RJNK,,,,0,20180109010000,-1,-1,-1,-1,260,-1,25,-1,37,-1,-1,,9999,0,1,3,FEW 8   BKN 25   OVC 50,1,8,1,1,1002,RJNK 090100Z 26025G37KT 9999 -SHRA FEW008 BKN025 OVC050 08/01     Q1002 RMK 1CU008 6CU025 8SC050 A2960=,- RA SH
20180109_010000.002,0,RJNK,,,,0,20180109010000,-1,-1,-1,-1,260,-1,25,-1,37,-1,-1,,9999,0,1,3,FEW 8   BKN 25   OVC 50,1,8,1,1,1002,RJNK 090100Z 26025G37KT 9999 -SHRA FEW008 BKN025 OVC050 08/01     Q1002 RMK 1CU008 6CU025 8SC050 A2960=,- RA SH
20180109_020000.000,0,RJNK,,,,0,20180109020000,-1,-1,-1,-1,260,-1,33,-1,44,230,290,,9999,0,1,3,FEW 8   BKN 25   BKN 50,1,6,1,2,1002,RJNK 090200Z 26033G44KT 230V290 9999 -SHRA FEW008 BKN025 BKN050     06/02 Q1002 RMK 1CU008 5CU025 7SC050 A2960=,- RA SH
20180109_020000.002,0,RJNK,,,,0,20180109020000,-1,-1,-1,-1,260,-1,33,-1,44,230,290,,9999,0,1,3,FEW 8   BKN 25   BKN 50,1,6,1,2,1002,RJNK 090200Z 26033G44KT 230V290 9999 -SHRA FEW008 BKN025     BKN050 06/02 Q1002 RMK 1CU008 5CU025 7SC050 A2960=,- RA SH
20180109_030000.000,0,RJNK,,,,0,20180109030000,-1,-1,-1,-1,260,-1,25,-1,39,-1,-1,,9999,0,1,4,FEW 8   BKN 15   FEW 15 CB  BKN 25,1,6,1,3,1002,RJNK 090300Z 26025G39KT 9999 -SHRA FEW008 BKN015 FEW015CB     BKN025 06/03 Q1002 RMK 2CU008 5CU015 1CB015 7CU025 A2959           CB NE AND SW=,- RA SH
20180109_030000.002,0,RJNK,,,,0,20180109030000,-1,-1,-1,-1,260,-1,25,-1,39,-1,-1,,9999,0,1,4,FEW 8   BKN 15   FEW 15 CB  BKN 25,1,6,1,3,1002,RJNK 090300Z 26025G39KT 9999 -SHRA FEW008 BKN015 FEW015CB     BKN025 06/03 Q1002 RMK 2CU008 5CU015 1CB015 7CU025 A2959           CB NE AND SW=,- RA SH
20180109_040000.000,0,RJNK,,,,0,20180109040000,-1,-1,-1,-1,260,-1,30,-1,44,-1,-1,,9999,0,1,4,FEW 8   BKN 15   FEW 15 CB  BKN 25,1,6,-1,0,1002,RJNK 090400Z 26030G44KT 9999 -SHRA FEW008 BKN015 FEW015CB     BKN025 06/M00 Q1002 RMK 1CU008 5CU015 1CB015 7CU025 A2960           CB E=,- RA SH
20180109_040000.002,0,RJNK,,,,0,20180109040000,-1,-1,-1,-1,260,-1,30,-1,44,-1,-1,,9999,0,1,4,FEW 8   BKN 15   FEW 15 CB  BKN 25,1,6,-1,0,1002,RJNK 090400Z 26030G44KT 9999 -SHRA FEW008 BKN015 FEW015CB     BKN025 06/M00 Q1002 RMK 1CU008 5CU015 1CB015 7CU025 A2960           CB E=,- RA SH
20180109_050000.000,0,RJNK,,,,0,20180109050000,-1,-1,-1,-1,260,-1,30,-1,46,-1,-1,,9999,0,0,3,FEW 8   SCT 15   BKN 30,1,6,-1,3,1003,RJNK 090500Z 26030G46KT 9999 FEW008 SCT015 BKN030 06/M03 Q1003     RMK 1CU008 3CU015 6CU030 A2962=,
20180109_050000.002,0,RJNK,,,,0,20180109050000,-1,-1,-1,-1,260,-1,30,-1,46,-1,-1,,9999,0,0,3,FEW 8   SCT 15   BKN 30,1,6,-1,3,1003,RJNK 090500Z 26030G46KT 9999 FEW008 SCT015 BKN030 06/M03 Q1003     RMK 1CU008 3CU015 6CU030 A2962=,
20180109_060000.000,0,RJNK,,,,0,20180109060000,-1,-1,-1,-1,250,-1,28,-1,39,-1,-1,,9999,0,0,3,FEW 15   BKN 30   BKN 50,1,6,-1,6,1004,RJNK 090600Z 25028G39KT 9999 FEW015 BKN030 BKN050 06/M06 Q1004     RMK 1CU015 6CU030 5SC050 A2967=,
20180109_060000.002,0,RJNK,,,,0,20180109060000,-1,-1,-1,-1,250,-1,28,-1,39,-1,-1,,9999,0,0,3,FEW 15   BKN 30   BKN 50,1,6,-1,6,1004,RJNK 090600Z 25028G39KT 9999 FEW015 BKN030 BKN050 06/M06 Q1004     RMK 1CU015 6CU030 5SC050 A2967=,
20180109_070000.000,0,RJNK,,,,0,20180109070000,-1,-1,-1,-1,250,-1,24,-1,40,-1,-1,,9999,0,1,4,FEW 8   BKN 15   FEW 15 TCU  BKN 30,1,5,-1,4,1006,RJNK 090700Z 25024G40KT 9999 -SHRA FEW008 BKN015 FEW015TCU     BKN030 05/M04 Q1006 RMK 1CU008 5CU015 1TCU015 7CU030 A2971           TCU E-S=,- RA SH
20180109_070000.002,0,RJNK,,,,0,20180109070000,-1,-1,-1,-1,250,-1,24,-1,40,-1,-1,,9999,0,1,4,FEW 8   BKN 15   FEW 15 TCU  BKN 30,1,5,-1,4,1006,RJNK 090700Z 25024G40KT 9999 -SHRA FEW008 BKN015 FEW015TCU     BKN030 05/M04 Q1006 RMK 1CU008 5CU015 1TCU015 7CU030           A2971 TCU E-S=,- RA SH
20180109_080000.000,0,RJNK,,,,0,20180109080000,-1,-1,-1,-1,280,-1,26,-1,40,-1,-1,,9000,0,1,3,FEW 6   SCT 8   BKN 15,1,4,-1,2,1007,RJNK 090800Z 28026G40KT 9000 -SHRA FEW006 SCT008 BKN015 04/M02     Q1007 RMK 1ST006 3CU008 5CU015 A2974 1ST006 N-E=,- RA SH
20180109_080000.002,0,RJNK,,,,0,20180109080000,-1,-1,-1,-1,280,-1,26,-1,40,-1,-1,,9000,0,1,3,FEW 6   SCT 8   BKN 15,1,4,-1,2,1007,RJNK 090800Z 28026G40KT 9000 -SHRA FEW006 SCT008 BKN015 04/M02     Q1007 RMK 1ST006 3CU008 5CU015 A2974 1ST006 N-E=,- RA SH
20180109_090000.000,0,RJNK,,,,0,20180109090000,-1,-1,-1,-1,270,-1,19,-1,-1,-1,-1,,9999,0,0,2,FEW 15   BKN 30,1,6,-1,7,1007,RJNK 090900Z 27019KT 9999 FEW015 BKN030 06/M07 Q1007 RMK 2CU015     7CU030 A2975 MAX WIND 28KT=,
20180109_090000.002,0,RJNK,,,,0,20180109090000,-1,-1,-1,-1,270,-1,19,-1,-1,-1,-1,,9999,0,0,2,FEW 15   BKN 30,1,6,-1,7,1007,RJNK 090900Z 27019KT 9999 FEW015 BKN030 06/M07 Q1007 RMK     2CU015 7CU030 A2975 MAX WIND 28KT=,
20180109_100000.000,0,RJNK,,,,0,20180109100000,-1,-1,-1,-1,260,-1,19,-1,-1,-1,-1,,9999,0,0,3,FEW 15   SCT 30   BKN 60,1,5,-1,7,1008,RJNK 091000Z 26019KT 9999 FEW015 SCT030 BKN060 05/M07 Q1008 RMK     1CU015 4CU030 7SC060 A2977 MAX WIND 25KT=,
20180109_100000.002,0,RJNK,,,,0,20180109100000,-1,-1,-1,-1,260,-1,19,-1,-1,-1,-1,,9999,0,0,3,FEW 15   SCT 30   BKN 60,1,5,-1,7,1008,RJNK 091000Z 26019KT 9999 FEW015 SCT030 BKN060 05/M07 Q1008     RMK 1CU015 4CU030 7SC060 A2977 MAX WIND 25KT=,
20180109_110000.000,0,RJNK,,,,0,20180109110000,-1,-1,-1,-1,250,-1,20,-1,-1,-1,-1,,9999,0,0,3,FEW 15   SCT 30   BKN 60,1,6,-1,6,1008,RJNK 091100Z 25020KT 9999 FEW015 SCT030 BKN060 06/M06 Q1008 RMK     1CU015 4CU030 7SC060 A2979 MAX WIND 27KT=,
20180109_110000.002,0,RJNK,,,,0,20180109110000,-1,-1,-1,-1,250,-1,20,-1,-1,-1,-1,,9999,0,0,3,FEW 15   SCT 30   BKN 60,1,6,-1,6,1008,RJNK 091100Z 25020KT 9999 FEW015 SCT030 BKN060 06/M06 Q1008     RMK 1CU015 4CU030 7SC060 A2979 MAX WIND 27KT=,
20180109_120000.000,0,RJNK,,,,0,20180109120000,-1,-1,-1,-1,220,-1,17,-1,-1,-1,-1,,9999,0,0,3,FEW 15   SCT 30   BKN 60,1,5,-1,5,1008,RJNK 091200Z 22017KT 9999 FEW015 SCT030 BKN060 05/M05 Q1008 RMK     1CU015 4CU030 7SC060 A2979=,
20180109_120000.002,0,RJNK,,,,0,20180109120000,-1,-1,-1,-1,220,-1,17,-1,-1,-1,-1,,9999,0,0,3,FEW 15   SCT 30   BKN 60,1,5,-1,5,1008,RJNK 091200Z 22017KT 9999 FEW015 SCT030 BKN060 05/M05 Q1008     RMK 1CU015 4CU030 7SC060 A2979=,
20180109_130000.000,0,RJNK,,,,0,20180109130000,-1,-1,-1,-1,230,-1,12,-1,-1,-1,-1,,9999,0,0,4,FEW 10   SCT 15   FEW 15 CB  BKN 30,1,3,-1,1,1009,RJNK 091300Z 23012KT 9999 FEW010 SCT015 FEW015CB BKN030 03/M01     Q1009 RMK 1CU010 3CU015 1CB015 7CU030 A2980 CB N=,
20180109_130000.002,0,RJNK,,,,0,20180109130000,-1,-1,-1,-1,230,-1,12,-1,-1,-1,-1,,9999,0,0,4,FEW 10   SCT 15   FEW 15 CB  BKN 30,1,3,-1,1,1009,RJNK 091300Z 23012KT 9999 FEW010 SCT015 FEW015CB BKN030 03/M01     Q1009 RMK 1CU010 3CU015 1CB015 7CU030 A2980 CB N=,
20180109_140000.000,0,RJNK,,,,0,20180109140000,-1,-1,-1,-1,240,-1,16,-1,-1,200,260,,9999,0,1,4,FEW 10   SCT 15   FEW 15 CB  BKN 30,1,4,-1,2,1009,RJNK 091400Z 24016KT 200V260 9999 -SHRASN FEW010 SCT015     FEW015CB BKN030 04/M02 Q1009 RMK 1CU010 3CU015 1CB015           7CU030 A2980 CB SW=,- RA SN SH
20180109_140000.002,0,RJNK,,,,0,20180109140000,-1,-1,-1,-1,240,-1,16,-1,-1,200,260,,9999,0,1,4,FEW 10   SCT 15   FEW 15 CB  BKN 30,1,4,-1,2,1009,RJNK 091400Z 24016KT 200V260 9999 -SHRASN FEW010 SCT015     FEW015CB BKN030 04/M02 Q1009 RMK 1CU010 3CU015 1CB015           7CU030 A2980 CB SW=,- RA SN SH
20180109_150000.000,0,RJNK,,,,0,20180109150000,-1,-1,-1,-1,260,-1,13,-1,-1,-1,-1,,3000,0,1,3,FEW 6   BKN 10   OVC 15 CB,1,2,1,0,1009,RJNK 091500Z 26013KT 3000 -TSSNRAGS FEW006 BKN010 OVC015CB     02/00 Q1009 RMK 1ST006 6CU010 8CB015 A2981 MOD TS W CB OHD           1ST006 OVER AD=,- TS   SN, RA GS
20180109_150000.002,0,RJNK,,,,0,20180109150000,-1,-1,-1,-1,260,-1,13,-1,-1,-1,-1,,3000,0,1,3,FEW 6   BKN 10   OVC 15 CB,1,2,1,0,1009,RJNK 091500Z 26013KT 3000 -TSSNRAGS FEW006 BKN010 OVC015CB     02/00 Q1009 RMK 1ST006 6CU010 8CB015 A2981 MOD TS W CB           OHD 1ST006 OVER AD=,- TS   SN, RA GS
20180109_160000.000,0,RJNK,,,,0,20180109160000,-1,-1,-1,-1,220,-1,12,-1,22,-1,-1,,4000,0,1,4,FEW 6   BKN 10   BKN 15   FEW 15 CB,1,2,-1,0,1009,RJNK 091600Z 22012G22KT 4000 -SHSNRAGS FEW006 BKN010 BKN015     FEW015CB 02/M00 Q1009 RETS RMK 1ST006 6CU010 7CU015 2CB015           A2981 CB NE 1ST006 W-NE=,- SN, RA GS SH
20180109_160000.002,0,RJNK,,,,0,20180109160000,-1,-1,-1,-1,220,-1,12,-1,22,-1,-1,,4000,0,1,4,FEW 6   BKN 10   BKN 15   FEW 15 CB,1,2,-1,0,1009,RJNK 091600Z 22012G22KT 4000 -SHSNRAGS FEW006 BKN010 BKN015     FEW015CB 02/M00 Q1009 RETS RMK 1ST006 6CU010 7CU015           2CB015 A2981 CB NE 1ST006 W-NE=,- SN, RA GS SH
20180109_170000.000,0,RJNK,,,,0,20180109170000,-1,-1,-1,-1,200,-1,17,-1,-1,-1,-1,,9999,0,1,4,FEW 6   SCT 10   SCT 15 CB  BKN 30,1,2,-1,0,1009,RJNK 091700Z 20017KT 9999 -SHSNRA FEW006 SCT010 SCT015CB BKN030     02/M00 Q1009 RETS RMK 1ST006 3CU010 4CB015 6CU030 A2980 CB           NW-N 1ST006 W-NE=,- SN RA SH
20180109_170000.002,0,RJNK,,,,0,20180109170000,-1,-1,-1,-1,200,-1,17,-1,-1,-1,-1,,9999,0,1,4,FEW 6   SCT 10   SCT 15 CB  BKN 30,1,2,-1,0,1009,RJNK 091700Z 20017KT 9999 -SHSNRA FEW006 SCT010 SCT015CB     BKN030 02/M00 Q1009 RETS RMK 1ST006 3CU010 4CB015 6CU030           A2980 CB NW-N 1ST006 W-NE=,- SN RA SH
20180109_180000.000,0,RJNK,,,,0,20180109180000,-1,-1,-1,-1,200,-1,17,-1,-1,-1,-1,,9999,0,0,4,FEW 10   FEW 15 CB  BKN 30   BKN 60,1,2,-1,0,1009,RJNK 091800Z 20017KT 9999 FEW010 FEW015CB BKN030 BKN060 02/M00     Q1009 RETS RMK 1CU010 1CB015 5CU030 7SC060 A2982 CB NE AND           W=,
20180109_180000.002,0,RJNK,,,,0,20180109180000,-1,-1,-1,-1,200,-1,17,-1,-1,-1,-1,,9999,0,0,4,FEW 10   FEW 15 CB  BKN 30   BKN 60,1,2,-1,0,1009,RJNK 091800Z 20017KT 9999 FEW010 FEW015CB BKN030 BKN060 02/M00     Q1009 RETS RMK 1CU010 1CB015 5CU030 7SC060 A2982 CB NE           AND W=,
20180109_190000.000,0,RJNK,,,,0,20180109190000,-1,-1,-1,-1,220,-1,17,-1,28,-1,-1,,5000,0,1,3,FEW 6   BKN 10   OVC 15 CB,1,2,1,0,1009,RJNK 091900Z 22017G28KT 5000 -TSSNRAGS FEW006 BKN010 OVC015CB     02/00 Q1009 RMK 1ST006 6CU010 8CB015 A2982 FBL TS SW CB S           1ST006 NW=,- TS   SN, RA GS
20180109_190000.003,0,RJNK,,,,0,20180109190000,-1,-1,-1,-1,220,-1,17,-1,28,-1,-1,,5000,0,1,3,FEW 6   BKN 10   OVC 15 CB,1,2,1,0,1009,RJNK 091900Z 22017G28KT 5000 -TSSNRAGS FEW006 BKN010 OVC015CB     02/00 Q1009 RMK 1ST006 6CU010 8CB015 A2982 FBL TS SW CB S           1ST006 NW=,- TS   SN, RA GS
20180109_200000.000,0,RJNK,,,,0,20180109200000,-1,-1,-1,-1,210,-1,18,-1,30,-1,-1,,8000,0,1,4,FEW 10   BKN 15   FEW 15 CB  BKN 30,1,3,-1,1,1009,RJNK 092000Z 21018G30KT 8000 -SHSNRA FEW010 BKN015 FEW015CB     BKN030 03/M01 Q1009 RETS RMK 2CU010 5CU015 2CB015 7CU030           A2982 CB NE=,- SN RA SH
20180109_200000.002,0,RJNK,,,,0,20180109200000,-1,-1,-1,-1,210,-1,18,-1,30,-1,-1,,8000,0,1,4,FEW 10   BKN 15   FEW 15 CB  BKN 30,1,3,-1,1,1009,RJNK 092000Z 21018G30KT 8000 -SHSNRA FEW010 BKN015 FEW015CB     BKN030 03/M01 Q1009 RETS RMK 2CU010 5CU015 2CB015 7CU030           A2982 CB NE=,- SN RA SH
20180109_210000.000,0,RJNK,,,,0,20180109210000,-1,-1,-1,-1,250,-1,22,-1,-1,-1,-1,,9999,0,0,2,FEW 10   BKN 30,1,5,-1,4,1010,RJNK 092100Z 25022KT 9999 FEW010 BKN030 05/M04 Q1010 RMK 1CU010     7CU030 A2984 MAX WIND 31KT 27046KT/0440 09/01 R019 S005           SD002=,
20180109_210000.002,0,RJNK,,,,0,20180109210000,-1,-1,-1,-1,250,-1,22,-1,-1,-1,-1,,9999,0,0,2,FEW 10   BKN 30,1,5,-1,4,1010,RJNK 092100Z 25022KT 9999 FEW010 BKN030 05/M04 Q1010 RMK     1CU010 7CU030 A2984 MAX WIND 31KT 27046KT/0440 09/01 R019           S005 SD002=,
20180109_220000.000,0,RJNK,,,,0,20180109220000,-1,-1,-1,-1,250,-1,12,-1,-1,-1,-1,,9000,0,1,4,FEW 10   BKN 15   FEW 15 CB  BKN 30,1,3,-1,2,1010,RJNK 092200Z 25012KT 9000 -SHSN FEW010 BKN015 FEW015CB BKN030     03/M02 Q1010 RMK 2CU010 5CU015 2CB015 7CU030 A2985 CB NE           AND SW=,- SN SH
20180109_220000.002,0,RJNK,,,,0,20180109220000,-1,-1,-1,-1,250,-1,12,-1,-1,-1,-1,,9000,0,1,4,FEW 10   BKN 15   FEW 15 CB  BKN 30,1,3,-1,2,1010,RJNK 092200Z 25012KT 9000 -SHSN FEW010 BKN015 FEW015CB BKN030     03/M02 Q1010 RMK 2CU010 5CU015 2CB015 7CU030 A2985 CB NE           AND SW=,- SN SH
20180109_230000.000,0,RJNK,,,,0,20180109230000,-1,-1,-1,-1,200,-1,14,-1,-1,-1,-1,,1000,1,1,1,VV 7,1,1,-1,0,1011,RJNK 092300Z 20014KT 1000 R24/P1800N -SHGSSN VV007 01/M00 Q1011     RMK A2988 VIS W 2000M SMALL HAIL=,- GS SN SH
20180109_230000.002,0,RJNK,,,,0,20180109230000,-1,-1,-1,-1,200,-1,14,-1,-1,-1,-1,,1000,1,1,1,VV 7,1,1,-1,0,1011,RJNK 092300Z 20014KT 1000 R24/P1800N -SHGSSN VV007 01/M00     Q1011 RMK A2988 VIS W 2000M SMALL HAIL=,- GS SN SH
20180110_000000.000,0,RJNK,,,,0,20180110000000,-1,-1,-1,-1,190,-1,10,-1,-1,-1,-1,,800,1,1,1,VV 7,1,0,-1,0,1011,RJNK 100000Z 19010KT 0800 R24/1200VP1800D SHSN VV007 00/M00     Q1011 RMK A2988 R1600=,SN SH
20180110_000000.002,0,RJNK,,,,0,20180110000000,-1,-1,-1,-1,190,-1,10,-1,-1,-1,-1,,800,1,1,1,VV 7,1,0,-1,0,1011,RJNK 100000Z 19010KT 0800 R24/1200VP1800D SHSN VV007 00/M00     Q1011 RMK A2988 R1600=,SN SH
20180110_010000.000,0,RJNK,,,,0,20180110010000,-1,-1,-1,-1,180,-1,8,-1,-1,-1,-1,,9999,0,0,3,FEW 5   SCT 15   BKN 30,1,1,1,0,1011,RJNK 100100Z 18008KT 9999 FEW005 SCT015 BKN030 01/00 Q1011 RESN     RMK 1ST005 4CU015 5CU030 A2986 1ST005 W-NE=,
20180110_010000.002,0,RJNK,,,,0,20180110010000,-1,-1,-1,-1,180,-1,8,-1,-1,-1,-1,,9999,0,0,3,FEW 5   SCT 15   BKN 30,1,1,1,0,1011,RJNK 100100Z 18008KT 9999 FEW005 SCT015 BKN030 01/00 Q1011     RESN RMK 1ST005 4CU015 5CU030 A2986 1ST005 W-NE=,
20180110_020000.000,0,RJNK,,,,0,20180110020000,-1,-1,-1,-1,200,-1,14,-1,-1,-1,-1,,2000,0,1,4,SCT 5   BKN 8   OVC 15   SCT 15 CB,1,1,-1,0,1010,RJNK 100200Z 20014KT 2000 -SHSN SCT005 BKN008 OVC015 SCT015CB     01/M00 Q1010 RMK 3ST005 5CU008 8CU015 3CB015 A2985 VIS W           1500M CB W-NE=,- SN SH
20180110_020000.002,0,RJNK,,,,0,20180110020000,-1,-1,-1,-1,200,-1,14,-1,-1,-1,-1,,2000,0,1,4,SCT 5   BKN 8   OVC 15   SCT 15 CB,1,1,-1,0,1010,RJNK 100200Z 20014KT 2000 -SHSN SCT005 BKN008 OVC015 SCT015CB     01/M00 Q1010 RMK 3ST005 5CU008 8CU015 3CB015 A2985 VIS W           1500M CB W-NE=,- SN SH
20180110_030000.000,0,RJNK,,,,0,20180110030000,-1,-1,-1,-1,200,-1,17,-1,-1,-1,-1,,8000,0,1,4,FEW 5   SCT 8   SCT 15 CB  OVC 30,1,1,1,0,1009,RJNK 100300Z 20017KT 8000 -TSSNRA FEW005 SCT008 SCT015CB OVC030     01/00 Q1009 RMK 2ST005 3CU008 4CB015 8CU030 A2982 FBL TS W           CB W-NE 2ST005 OVER AD=,- TS   SN RA
20180110_030000.002,0,RJNK,,,,0,20180110030000,-1,-1,-1,-1,200,-1,17,-1,-1,-1,-1,,8000,0,1,4,FEW 5   SCT 8   SCT 15 CB  OVC 30,1,1,1,0,1009,RJNK 100300Z 20017KT 8000 -TSSNRA FEW005 SCT008 SCT015CB     OVC030 01/00 Q1009 RMK 2ST005 3CU008 4CB015 8CU030 A2982           FBL TS W CB W-NE 2ST005 OVER AD=,- TS   SN RA
20180110_040000.000,0,RJNK,,,,0,20180110040000,-1,-1,-1,-1,210,-1,12,-1,-1,-1,-1,,6000,0,1,4,FEW 3   BKN 8   BKN 15   FEW 15 CB,1,2,1,0,1009,RJNK 100400Z 21012KT 6000 -SHRASN FEW003 BKN008 BKN015 FEW015CB     02/00 Q1009 RETS RMK 1ST003 5CU008 7CU015 2CB015 A2981 VIS           SW-N 3000M CB W-N 1ST003 OVER AD=,- RA SN SH
20180110_040000.003,0,RJNK,,,,0,20180110040000,-1,-1,-1,-1,210,-1,12,-1,-1,-1,-1,,6000,0,1,4,FEW 3   BKN 8   BKN 15   FEW 15 CB,1,2,1,0,1009,RJNK 100400Z 21012KT 6000 -SHRASN FEW003 BKN008 BKN015     FEW015CB 02/00 Q1009 RETS RMK 1ST003 5CU008 7CU015 2CB015           A2981 VIS SW-N 3000M CB W-N 1ST003 OVER AD=,- RA SN SH
20180110_050000.000,0,RJNK,,,,0,20180110050000,-1,-1,-1,-1,210,-1,9,-1,-1,170,240,,8000,0,1,4,FEW 3   BKN 5   BKN 8   FEW 15 CB,1,1,-1,0,1009,RJNK 100500Z 21009KT 170V240 8000 -SHSN FEW003 BKN005 BKN008     FEW015CB 01/M00 Q1009 RETS RMK 2ST003 5ST005 7CU008 2CB015           A2981 CB N-E 2ST003 OVER AD=,- SN SH
20180110_050000.002,0,RJNK,,,,0,20180110050000,-1,-1,-1,-1,210,-1,9,-1,-1,170,240,,8000,0,1,4,FEW 3   BKN 5   BKN 8   FEW 15 CB,1,1,-1,0,1009,RJNK 100500Z 21009KT 170V240 8000 -SHSN FEW003 BKN005 BKN008     FEW015CB 01/M00 Q1009 RETS RMK 2ST003 5ST005 7CU008           2CB015 A2981 CB N-E 2ST003 OVER AD=,- SN SH
20180110_060000.000,0,RJNK,,,,0,20180110060000,-1,-1,-1,-1,190,-1,15,-1,28,-1,-1,,3000,0,1,4,FEW 3   BKN 8   BKN 15   FEW 15 CB,1,1,-1,0,1009,RJNK 100600Z 19015G28KT 3000 -SHSNRA FEW003 BKN008 BKN015     FEW015CB 01/M00 Q1009 RMK 1ST003 6CU008 7CU015 2CB015           A2982 VIS SW-NW 5KM CB ALL QUAD 1ST003 OVER AD=,- SN RA SH
20180110_060000.002,0,RJNK,,,,0,20180110060000,-1,-1,-1,-1,190,-1,15,-1,28,-1,-1,,3000,0,1,4,FEW 3   BKN 8   BKN 15   FEW 15 CB,1,1,-1,0,1009,RJNK 100600Z 19015G28KT 3000 -SHSNRA FEW003 BKN008 BKN015     FEW015CB 01/M00 Q1009 RMK 1ST003 6CU008 7CU015 2CB015           A2982 VIS SW-NW 5KM CB ALL QUAD 1ST003 OVER AD=,- SN RA SH
20180110_070000.000,0,RJNK,,,,0,20180110070000,-1,-1,-1,-1,250,-1,19,-1,-1,-1,-1,,7000,0,1,4,FEW 3   BKN 8   BKN 15   FEW 15 CB,1,2,1,1,1010,RJNK 100700Z 25019KT 7000 -SHRASN FEW003 BKN008 BKN015 FEW015CB     02/01 Q1010 RMK 1ST003 5CU008 7CU015 2CB015 A2983 VIS W-N           4500M CB ALL QUAD 1ST003 OVER AD=,- RA SN SH
20180110_070000.002,0,RJNK,,,,0,20180110070000,-1,-1,-1,-1,250,-1,19,-1,-1,-1,-1,,7000,0,1,4,FEW 3   BKN 8   BKN 15   FEW 15 CB,1,2,1,1,1010,RJNK 100700Z 25019KT 7000 -SHRASN FEW003 BKN008 BKN015     FEW015CB 02/01 Q1010 RMK 1ST003 5CU008 7CU015 2CB015           A2983 VIS W-N 4500M CB ALL QUAD 1ST003 OVER AD=,- RA SN SH
20180110_080000.000,0,RJNK,,,,0,20180110080000,-1,-1,-1,-1,290,-1,16,-1,27,260,320,,3000,0,1,3,FEW 3   SCT 5   BKN 8,1,2,1,1,1010,RJNK 100800Z 29016G27KT 260V320 3000 -SHSNRA FEW003 SCT005     BKN008 02/01 Q1010 RMK 1ST003 3ST005 5CU008 A2984 VIS E           2000M 1ST003 OVER AD=,- SN RA SH
20180110_080000.002,0,RJNK,,,,0,20180110080000,-1,-1,-1,-1,290,-1,16,-1,27,260,320,,3000,0,1,3,FEW 3   SCT 5   BKN 8,1,2,1,1,1010,RJNK 100800Z 29016G27KT 260V320 3000 -SHSNRA FEW003 SCT005     BKN008 02/01 Q1010 RMK 1ST003 3ST005 5CU008 A2984 VIS E           2000M 1ST003 OVER AD=,- SN RA SH
20180110_090000.000,0,RJNK,,,,0,20180110090000,-1,-1,-1,-1,270,-1,18,-1,29,-1,-1,,5000,0,1,3,FEW 3   SCT 5   BKN 8,1,2,-1,1,1011,RJNK 100900Z 27018G29KT 5000 -SHSNRA FEW003 SCT005 BKN008     02/M01 Q1011 RMK 1ST003 3ST005 5CU008 A2986 1ST003 OVER           AD=,- SN RA SH
20180110_090000.002,0,RJNK,,,,0,20180110090000,-1,-1,-1,-1,270,-1,18,-1,29,-1,-1,,5000,0,1,3,FEW 3   SCT 5   BKN 8,1,2,-1,1,1011,RJNK 100900Z 27018G29KT 5000 -SHSNRA FEW003 SCT005 BKN008     02/M01 Q1011 RMK 1ST003 3ST005 5CU008 A2986 1ST003 OVER           AD=,- SN RA SH
20180110_100000.000,0,RJNK,,,,0,20180110100000,-1,-1,-1,-1,270,-1,17,-1,-1,240,310,,9999,0,1,3,FEW 5   SCT 15   BKN 30,1,4,-1,5,1011,RJNK 101000Z 27017KT 240V310 9999 -SHSNRA FEW005 SCT015 BKN030     04/M05 Q1011 RMK 1ST005 3CU015 7CU030 A2988=,- SN RA SH
20180110_100000.002,0,RJNK,,,,0,20180110100000,-1,-1,-1,-1,270,-1,17,-1,-1,240,310,,9999,0,1,3,FEW 5   SCT 15   BKN 30,1,4,-1,5,1011,RJNK 101000Z 27017KT 240V310 9999 -SHSNRA FEW005 SCT015 BKN030     04/M05 Q1011 RMK 1ST005 3CU015 7CU030 A2988=,- SN RA SH
20180110_110000.000,0,RJNK,,,,0,20180110110000,-1,-1,-1,-1,280,-1,18,-1,29,-1,-1,,8000,0,1,3,FEW 5   SCT 15   BKN 30,1,3,-1,4,1012,RJNK 101100Z 28018G29KT 8000 -SHSNRA FEW005 SCT015 BKN030     03/M04 Q1012 RMK 1ST005 4CU015 7CU030 A2989=,- SN RA SH
20180110_110000.002,0,RJNK,,,,0,20180110110000,-1,-1,-1,-1,280,-1,18,-1,29,-1,-1,,8000,0,1,3,FEW 5   SCT 15   BKN 30,1,3,-1,4,1012,RJNK 101100Z 28018G29KT 8000 -SHSNRA FEW005 SCT015 BKN030     03/M04 Q1012 RMK 1ST005 4CU015 7CU030 A2989=,- SN RA SH
20180110_120000.000,0,RJNK,,,,0,20180110120000,-1,-1,-1,-1,270,-1,21,-1,-1,-1,-1,,3000,0,1,3,FEW 5   SCT 8   BKN 15,1,1,-1,1,1012,RJNK 101200Z 27021KT 3000 -SHSN FEW005 SCT008 BKN015 01/M01     Q1012 RMK 1ST005 4CU008 6CU015 A2990 MAX WIND 30KT VIS W           4000M 1ST005 OVER AD=,- SN SH
20180110_120000.002,0,RJNK,,,,0,20180110120000,-1,-1,-1,-1,270,-1,21,-1,-1,-1,-1,,3000,0,1,3,FEW 5   SCT 8   BKN 15,1,1,-1,1,1012,RJNK 101200Z 27021KT 3000 -SHSN FEW005 SCT008 BKN015 01/M01     Q1012 RMK 1ST005 4CU008 6CU015 A2990 MAX WIND 30KT VIS W           4000M 1ST005 OVER AD=,- SN SH
20180110_130000.000,0,RJNK,,,,0,20180110130000,-1,-1,-1,-1,260,-1,16,-1,28,-1,-1,,9999,0,1,3,FEW 8   SCT 15   BKN 30,1,2,-1,2,1012,RJNK 101300Z 26016G28KT 9999 -SHRASN FEW008 SCT015 BKN030     02/M02 Q1012 RETS RMK 2CU008 4CU015 7CU030 A2991=,- RA SN SH
20180110_130000.002,0,RJNK,,,,0,20180110130000,-1,-1,-1,-1,260,-1,16,-1,28,-1,-1,,9999,0,1,3,FEW 8   SCT 15   BKN 30,1,2,-1,2,1012,RJNK 101300Z 26016G28KT 9999 -SHRASN FEW008 SCT015 BKN030     02/M02 Q1012 RETS RMK 2CU008 4CU015 7CU030 A2991=,- RA SN SH
20180110_140000.000,0,RJNK,,,,0,20180110140000,-1,-1,-1,-1,280,-1,20,-1,-1,-1,-1,,9999,0,1,3,FEW 8   SCT 15   BKN 30,1,3,-1,5,1012,RJNK 101400Z 28020KT 9999 -SHRASN FEW008 SCT015 BKN030 03/M05     Q1012 RMK 2CU008 4CU015 7CU030 A2990 MAX WIND 27KT=,- RA SN SH
20180110_140000.002,0,RJNK,,,,0,20180110140000,-1,-1,-1,-1,280,-1,20,-1,-1,-1,-1,,9999,0,1,3,FEW 8   SCT 15   BKN 30,1,3,-1,5,1012,RJNK 101400Z 28020KT 9999 -SHRASN FEW008 SCT015 BKN030 03/M05     Q1012 RMK 2CU008 4CU015 7CU030 A2990 MAX WIND 27KT=,- RA SN SH
20180110_150000.000,0,RJNK,,,,0,20180110150000,-1,-1,-1,-1,290,-1,24,-1,35,260,320,,9999,0,1,3,FEW 8   BKN 15   BKN 30,1,2,-1,4,1012,RJNK 101500Z 29024G35KT 260V320 9999 -SHRASN FEW008 BKN015     BKN030 02/M04 Q1012 RMK 2CU008 5CU015 7CU030 A2990=,- RA SN SH
20180110_150000.002,0,RJNK,,,,0,20180110150000,-1,-1,-1,-1,290,-1,24,-1,35,260,320,,9999,0,1,3,FEW 8   BKN 15   BKN 30,1,2,-1,4,1012,RJNK 101500Z 29024G35KT 260V320 9999 -SHRASN FEW008 BKN015     BKN030 02/M04 Q1012 RMK 2CU008 5CU015 7CU030 A2990=,- RA SN SH
20180110_160000.000,0,RJNK,,,,0,20180110160000,-1,-1,-1,-1,250,-1,20,-1,34,220,280,,8000,0,1,3,FEW 8   BKN 15   BKN 30,1,3,-1,6,1012,RJNK 101600Z 25020G34KT 220V280 8000 -SHSNRA FEW008 BKN015     BKN030 03/M06 Q1012 RMK 2CU008 5CU015 7CU030 A2991=,- SN RA SH
20180110_160000.002,0,RJNK,,,,0,20180110160000,-1,-1,-1,-1,250,-1,20,-1,34,220,280,,8000,0,1,3,FEW 8   BKN 15   BKN 30,1,3,-1,6,1012,RJNK 101600Z 25020G34KT 220V280 8000 -SHSNRA FEW008 BKN015     BKN030 03/M06 Q1012 RMK 2CU008 5CU015 7CU030 A2991=,- SN RA SH
20180110_170000.000,0,RJNK,,,,0,20180110170000,-1,-1,-1,-1,260,-1,23,-1,33,-1,-1,,9999,0,1,3,FEW 8   SCT 15   BKN 30,1,3,-1,6,1013,RJNK 101700Z 26023G33KT 9999 -SHRASN FEW008 SCT015 BKN030     03/M06 Q1013 RMK 1CU008 3CU015 7CU030 A2992=,- RA SN SH
20180110_170000.002,0,RJNK,,,,0,20180110170000,-1,-1,-1,-1,260,-1,23,-1,33,-1,-1,,9999,0,1,3,FEW 8   SCT 15   BKN 30,1,3,-1,6,1013,RJNK 101700Z 26023G33KT 9999 -SHRASN FEW008 SCT015 BKN030     03/M06 Q1013 RMK 1CU008 3CU015 7CU030 A2992=,- RA SN SH
20180110_180000.000,0,RJNK,,,,0,20180110180000,-1,-1,-1,-1,250,-1,24,-1,-1,-1,-1,,9999,0,1,3,FEW 8   SCT 15   BKN 30,1,3,-1,5,1013,RJNK 101800Z 25024KT 9999 -SHSN FEW008 SCT015 BKN030 03/M05     Q1013 RMK 1CU008 3CU015 7CU030 A2993 MAX WIND 32KT=,- SN SH
20180110_180000.002,0,RJNK,,,,0,20180110180000,-1,-1,-1,-1,250,-1,24,-1,-1,-1,-1,,9999,0,1,3,FEW 8   SCT 15   BKN 30,1,3,-1,5,1013,RJNK 101800Z 25024KT 9999 -SHSN FEW008 SCT015 BKN030 03/M05     Q1013 RMK 1CU008 3CU015 7CU030 A2993 MAX WIND 32KT=,- SN SH
20180110_190000.000,0,RJNK,,,,0,20180110190000,-1,-1,-1,-1,240,-1,20,-1,33,210,270,,9000,0,1,4,FEW 8   BKN 15   FEW 15 CB  BKN 30,1,1,-1,4,1013,RJNK 101900Z 24020G33KT 210V270 9000 -SHSN FEW008 BKN015     FEW015CB BKN030 01/M04 Q1013 RMK 2CU008 5CU015 1CB015           7CU030 A2993 VIS W 4000M CB S-SW=,- SN SH
20180110_190000.002,0,RJNK,,,,0,20180110190000,-1,-1,-1,-1,240,-1,20,-1,33,210,270,,9000,0,1,4,FEW 8   BKN 15   FEW 15 CB  BKN 30,1,1,-1,4,1013,RJNK 101900Z 24020G33KT 210V270 9000 -SHSN FEW008 BKN015     FEW015CB BKN030 01/M04 Q1013 RMK 2CU008 5CU015 1CB015           7CU030 A2993 VIS W 4000M CB S-SW=,- SN SH
20180110_200000.000,0,RJNK,,,,0,20180110200000,-1,-1,-1,-1,210,-1,14,-1,-1,-1,-1,,2000,0,1,4,FEW 5   SCT 8   BKN 15   FEW 15 CB,1,0,-1,2,1014,RJNK 102000Z 21014KT 2000 -SHSN FEW005 SCT008 BKN015 FEW015CB     00/M02 Q1014 RMK 1ST005 3CU008 7CU015 2CB015 A2995 VIS W           1500M CB E-S 1ST005 NW-NE=,- SN SH
20180110_200000.002,0,RJNK,,,,0,20180110200000,-1,-1,-1,-1,210,-1,14,-1,-1,-1,-1,,2000,0,1,4,FEW 5   SCT 8   BKN 15   FEW 15 CB,1,0,-1,2,1014,RJNK 102000Z 21014KT 2000 -SHSN FEW005 SCT008 BKN015 FEW015CB     00/M02 Q1014 RMK 1ST005 3CU008 7CU015 2CB015 A2995 VIS W           1500M CB E-S 1ST005 NW-NE=,- SN SH
20180110_210000.000,0,RJNK,,,,0,20180110210000,-1,-1,-1,-1,250,-1,20,-1,31,-1,-1,,9999,0,1,4,FEW 5   SCT 8   BKN 15   FEW 15 CB,1,1,-1,2,1014,RJNK 102100Z 25020G31KT 9999 -SHSN FEW005 SCT008 BKN015     FEW015CB 01/M02 Q1014 RMK 1ST005 3CU008 7CU015 2CB015           A2995 CB SW-W 1ST005 OVER AD 26044KT/2030 04/M00 R018 S008           SD005=,- SN SH
20180110_210000.002,0,RJNK,,,,0,20180110210000,-1,-1,-1,-1,250,-1,20,-1,31,-1,-1,,9999,0,1,4,FEW 5   SCT 8   BKN 15   FEW 15 CB,1,1,-1,2,1014,RJNK 102100Z 25020G31KT 9999 -SHSN FEW005 SCT008 BKN015     FEW015CB 01/M02 Q1014 RMK 1ST005 3CU008 7CU015 2CB015           A2995 CB SW-W 1ST005 OVER AD 26044KT/2030 04/M00 R018           S008 SD005=,- SN SH
20180110_210000.004,2,RJNK,,,,0,20180110210000,-1,-1,-1,-1,250,-1,20,-1,31,-1,-1,,9999,0,1,4,FEW 5   SCT 8   BKN 15   FEW 15 CB,1,1,-1,2,1014,RJNK 102100Z 25020G31KT 9999 -SHSN FEW005 SCT008 BKN015     FEW015CB 01/M02 Q1014 RMK 1ST005 3CU008 7CU015 2CB015           A2995 CB SW-W 1ST005 OVER AD 26044KT/2030 04/M00 R018 S008           SD006=,- SN SH
20180110_220000.000,0,RJNK,,,,0,20180110220000,-1,-1,-1,-1,220,-1,16,-1,-1,-1,-1,,1500,1,1,3,SCT 3   BKN 5   OVC 8,-1,0,-1,2,1014,RJNK 102200Z 22016KT 1500 R24/P1800N -SHSN SCT003 BKN005 OVC008     M00/M02 Q1014 RMK 3ST003 5ST005 8CU008 A2996 MAX WIND 25KT           VIS W-N 5KM 3ST003 OVER AD=,- SN SH
20180110_220000.002,0,RJNK,,,,0,20180110220000,-1,-1,-1,-1,220,-1,16,-1,-1,-1,-1,,1500,1,1,3,SCT 3   BKN 5   OVC 8,-1,0,-1,2,1014,RJNK 102200Z 22016KT 1500 R24/P1800N -SHSN SCT003 BKN005     OVC008 M00/M02 Q1014 RMK 3ST003 5ST005 8CU008 A2996 MAX           WIND 25KT VIS W-N 5KM 3ST003 OVER AD=,- SN SH
20180110_230000.000,0,RJNK,,,,0,20180110230000,-1,-1,-1,-1,220,-1,20,-1,-1,-1,-1,,500,1,1,1,VV 3,-1,0,-1,3,1015,RJNK 102300Z 22020KT 0500 R24/P1800N SHSN VV003 M00/M03 Q1015     RMK A2999 MAX WIND 29KT VIS W 1200M=,SN SH
20180110_230000.003,0,RJNK,,,,0,20180110230000,-1,-1,-1,-1,220,-1,20,-1,-1,-1,-1,,500,1,1,1,VV 3,-1,0,-1,3,1015,RJNK 102300Z 22020KT 0500 R24/P1800N SHSN VV003 M00/M03 Q1015     RMK A2999 MAX WIND 29KT VIS W 1200M=,SN SH
20180111_000000.000,0,RJNK,,,,0,20180111000000,-1,-1,-1,-1,220,-1,21,-1,32,-1,-1,,1200,1,1,1,VV 5,-1,0,-1,3,1016,RJNK 110000Z 22021G32KT 1200 R24/P1800N -SHSN VV005 M00/M03     Q1016 REGS RMK A3001 VIS W-N 3500M=,- SN SH
20180111_000000.002,0,RJNK,,,,0,20180111000000,-1,-1,-1,-1,220,-1,21,-1,32,-1,-1,,1200,1,1,1,VV 5,-1,0,-1,3,1016,RJNK 110000Z 22021G32KT 1200 R24/P1800N -SHSN VV005 M00/M03     Q1016 REGS RMK A3001 VIS W-N 3500M=,- SN SH
20180111_010000.000,0,RJNK,,,,0,20180111010000,-1,-1,-1,-1,210,-1,22,-1,-1,-1,-1,,1200,1,1,4,FEW 3   SCT 5   BKN 8   SCT 15 CB,-1,0,-1,3,1016,RJNK 110100Z 21022KT 1200 R24/P1800N -SHSN FEW003 SCT005 BKN008     SCT015CB M00/M03 Q1016 REFC RMK 2ST003 3ST005 5CU008           3CB015 A3002 MAX WIND 31KT CB OHD 2ST003 OVER AD=,- SN SH
20180111_010000.002,0,RJNK,,,,0,20180111010000,-1,-1,-1,-1,210,-1,22,-1,-1,-1,-1,,1200,1,1,4,FEW 3   SCT 5   BKN 8   SCT 15 CB,-1,0,-1,3,1016,RJNK 110100Z 21022KT 1200 R24/P1800N -SHSN FEW003 SCT005     BKN008 SCT015CB M00/M03 Q1016 REFC RMK 2ST003 3ST005           5CU008 3CB015 A3002 MAX WIND 31KT CB OHD 2ST003 OVER AD=,- SN SH
20180111_020000.000,0,RJNK,,,,0,20180111020000,-1,-1,-1,-1,200,-1,18,-1,-1,-1,-1,,700,1,1,1,VV 3,-1,1,-1,2,1016,RJNK 110200Z 20018KT 0700 R24/1000VP1800N SHSN VV003 M01/M02     Q1016 RMK A3003 R1300 MAX WIND 25KT=,SN SH
20180111_020000.002,0,RJNK,,,,0,20180111020000,-1,-1,-1,-1,200,-1,18,-1,-1,-1,-1,,700,1,1,1,VV 3,-1,1,-1,2,1016,RJNK 110200Z 20018KT 0700 R24/1000VP1800N SHSN VV003 M01/M02     Q1016 RMK A3003 R1300 MAX WIND 25KT=,SN SH
20180111_030000.000,0,RJNK,,,,0,20180111030000,-1,-1,-1,-1,200,-1,16,-1,-1,-1,-1,,1500,1,1,3,FEW 2   SCT 3   BKN 5,-1,1,-1,2,1016,RJNK 110300Z 20016KT 1500 R24/P1800N -SHSN FEW002 SCT003 BKN005     M01/M02 Q1016 REGS RMK 1ST002 4ST003 5ST005 A3001 VIS W-N           5KM=,- SN SH
20180111_030000.001,0,RJNK,,,,0,20180111030000,-1,-1,-1,-1,200,-1,16,-1,-1,-1,-1,,1500,1,1,3,FEW 2   SCT 3   BKN 5,-1,1,-1,2,1016,RJNK 110300Z 20016KT 1500 R24/P1800N -SHSN FEW002 SCT003     BKN005 M01/M02 Q1016 REGS RMK 1ST002 4ST003 5ST005 A3001           VIS W-N 5KM=,- SN SH
20180111_040000.000,0,RJNK,,,,0,20180111040000,-1,-1,-1,-1,210,-1,13,-1,24,-1,-1,,900,1,1,1,VV 5,-1,1,-1,2,1016,RJNK 110400Z 21013G24KT 0900 R24/P1800N SHSN VV005 M01/M02     Q1016 RMK A3002 VIS W-N 1000M=,SN SH
20180111_040000.002,0,RJNK,,,,0,20180111040000,-1,-1,-1,-1,210,-1,13,-1,24,-1,-1,,900,1,1,1,VV 5,-1,1,-1,2,1016,RJNK 110400Z 21013G24KT 0900 R24/P1800N SHSN VV005 M01/M02     Q1016 RMK A3002 VIS W-N 1000M=,SN SH
20180111_050000.000,0,RJNK,,,,0,20180111050000,-1,-1,-1,-1,220,-1,21,-1,31,-1,-1,,1500,1,1,3,SCT 2   SCT 3   BKN 5,-1,1,-1,3,1016,RJNK 110500Z 22021G31KT 1500 R24/1300VP1800N -SHSN SCT002     SCT003 BKN005 M01/M03 Q1016 RMK 3ST002 4ST003 6ST005 A3002           R1700 VIS W-N 5KM=,- SN SH
20180111_050000.002,0,RJNK,,,,0,20180111050000,-1,-1,-1,-1,220,-1,21,-1,31,-1,-1,,1500,1,1,3,SCT 2   SCT 3   BKN 5,-1,1,-1,3,1016,RJNK 110500Z 22021G31KT 1500 R24/1300VP1800N -SHSN SCT002     SCT003 BKN005 M01/M03 Q1016 RMK 3ST002 4ST003 6ST005           A3002 R1700 VIS W-N 5KM=,- SN SH
20180111_060000.000,0,RJNK,,,,0,20180111060000,-1,-1,-1,-1,210,-1,18,-1,30,-1,-1,,700,1,2,1,VV 3,-1,1,-1,2,1017,RJNK 110600Z 21018G30KT 0700 R24/1400VP1800N SHSN BLSN VV003     M01/M02 Q1017 RMK A3004 RP1800 VIS W 600M=,SN SH; BL SN
20180111_060000.002,0,RJNK,,,,0,20180111060000,-1,-1,-1,-1,210,-1,18,-1,30,-1,-1,,700,1,2,1,VV 3,-1,1,-1,2,1017,RJNK 110600Z 21018G30KT 0700 R24/1400VP1800N SHSN BLSN VV003     M01/M02 Q1017 RMK A3004 RP1800 VIS W 600M=,SN SH; BL SN
20180111_070000.000,0,RJNK,,,,0,20180111070000,-1,-1,-1,-1,210,-1,20,-1,-1,-1,-1,,5000,0,1,3,SCT 2   BKN 3   OVC 5,-1,1,-1,3,1017,RJNK 110700Z 21020KT 5000 -SHSN SCT002 BKN003 OVC005 M01/M03     Q1017 REBLSN RMK 3ST002 5ST003 8ST005 A3004 VIS NE 800M=,- SN SH
20180111_070000.000,0,RJNK,,,,0,20180111070000,-1,-1,-1,-1,210,-1,20,-1,-1,-1,-1,,5000,0,1,3,SCT 2   BKN 3   OVC 5,-1,1,-1,3,1017,RJNK 110700Z 21020KT 5000 -SHSN SCT002 BKN003 OVC005 M01/M03     Q1017 REBLSN RMK 3ST002 5ST003 8ST005 A3004 VIS NE 800M=,- SN SH
20180111_070000.002,0,RJNK,,,,0,20180111070000,-1,-1,-1,-1,210,-1,20,-1,-1,-1,-1,,5000,0,1,3,SCT 2   BKN 3   OVC 5,-1,1,-1,3,1017,RJNK 110700Z 21020KT 5000 -SHSN SCT002 BKN003 OVC005 M01/M03     Q1017 REBLSN RMK 3ST002 5ST003 8ST005 A3004 VIS NE 800M=,- SN SH
20180111_080000.000,0,RJNK,,,,0,20180111080000,-1,-1,-1,-1,230,-1,20,-1,30,-1,-1,,5000,0,1,3,FEW 2   SCT 3   BKN 5,-1,1,-1,2,1017,RJNK 110800Z 23020G30KT 5000 -SHSN FEW002 SCT003 BKN005 M01/M02     Q1017 REBLSN RMK 2ST002 3ST003 6ST005 A3005 VIS SW-W           3500M=,- SN SH
20180111_080000.002,0,RJNK,,,,0,20180111080000,-1,-1,-1,-1,230,-1,20,-1,30,-1,-1,,5000,0,1,3,FEW 2   SCT 3   BKN 5,-1,1,-1,2,1017,RJNK 110800Z 23020G30KT 5000 -SHSN FEW002 SCT003 BKN005     M01/M02 Q1017 REBLSN RMK 2ST002 3ST003 6ST005 A3005 VIS           SW-W 3500M=,- SN SH
20180111_090000.000,0,RJNK,,,,0,20180111090000,-1,-1,-1,-1,210,-1,18,-1,-1,-1,-1,,9999,0,1,3,FEW 2   BKN 5   OVC 8,1,0,-1,3,1017,RJNK 110900Z 21018KT 9999 -SHSN FEW002 BKN005 OVC008 00/M03     Q1017 RMK 1ST002 5ST005 8CU008 A3005=,- SN SH
20180111_090000.002,0,RJNK,,,,0,20180111090000,-1,-1,-1,-1,210,-1,18,-1,-1,-1,-1,,9999,0,1,3,FEW 2   BKN 5   OVC 8,1,0,-1,3,1017,RJNK 110900Z 21018KT 9999 -SHSN FEW002 BKN005 OVC008 00/M03     Q1017 RMK 1ST002 5ST005 8CU008 A3005=,- SN SH
20180111_100000.000,0,RJNK,,,,0,20180111100000,-1,-1,-1,-1,210,-1,18,-1,-1,-1,-1,,9999,0,0,3,FEW 3   SCT 5   BKN 8,-1,1,-1,5,1017,RJNK 111000Z 21018KT 9999 FEW003 SCT005 BKN008 M01/M05 Q1017     RESN RMK 1ST003 3ST005 6CU008 A3004=,
20180111_100000.002,0,RJNK,,,,0,20180111100000,-1,-1,-1,-1,210,-1,18,-1,-1,-1,-1,,9999,0,0,3,FEW 3   SCT 5   BKN 8,-1,1,-1,5,1017,RJNK 111000Z 21018KT 9999 FEW003 SCT005 BKN008 M01/M05 Q1017     RESN RMK 1ST003 3ST005 6CU008 A3004=,
20180111_110000.000,0,RJNK,,,,0,20180111110000,-1,-1,-1,-1,210,-1,26,-1,-1,-1,-1,,500,1,1,1,VV 2,-1,0,-1,5,1017,RJNK 111100Z 21026KT 0500 R24/P1800D SHSN VV002 M00/M05 Q1017     RETS RMK A3004 VIS W 600M=,SN SH
20180111_110000.002,0,RJNK,,,,0,20180111110000,-1,-1,-1,-1,210,-1,26,-1,-1,-1,-1,,500,1,1,1,VV 2,-1,0,-1,5,1017,RJNK 111100Z 21026KT 0500 R24/P1800D SHSN VV002 M00/M05 Q1017     RETS RMK A3004 VIS W 600M=,SN SH
20180111_120000.000,0,RJNK,,,,0,20180111120000,-1,-1,-1,-1,210,-1,13,-1,24,-1,-1,,900,1,1,1,VV 4,-1,1,-1,3,1018,RJNK 111200Z 21013G24KT 0900 R24/P1800N SHSN VV004 M01/M03     Q1018 RETS RMK A3008=,SN SH
20180111_120000.002,0,RJNK,,,,0,20180111120000,-1,-1,-1,-1,210,-1,13,-1,24,-1,-1,,900,1,1,1,VV 4,-1,1,-1,3,1018,RJNK 111200Z 21013G24KT 0900 R24/P1800N SHSN VV004 M01/M03     Q1018 RETS RMK A3008=,SN SH
20180111_130000.000,0,RJNK,,,,0,20180111130000,-1,-1,-1,-1,230,-1,17,-1,-1,-1,-1,,6000,0,1,4,FEW 3   SCT 8   BKN 15   SCT 15 CB,-1,0,-1,4,1019,RJNK 111300Z 23017KT 6000 -SHSN FEW003 SCT008 BKN015 SCT015CB     M00/M04 Q1019 RETS RMK 2ST003 4CU008 7CU015 3CB015 A3009           MAX WIND 25KT CB NW-NE 2ST003 OVER AD=,- SN SH
20180111_130000.002,0,RJNK,,,,0,20180111130000,-1,-1,-1,-1,230,-1,17,-1,-1,-1,-1,,6000,0,1,4,FEW 3   SCT 8   BKN 15   SCT 15 CB,-1,0,-1,4,1019,RJNK 111300Z 23017KT 6000 -SHSN FEW003 SCT008 BKN015 SCT015CB     M00/M04 Q1019 RETS RMK 2ST003 4CU008 7CU015 3CB015 A3009           MAX WIND 25KT CB NW-NE 2ST003 OVER AD=,- SN SH
20180111_140000.000,0,RJNK,,,,0,20180111140000,-1,-1,-1,-1,200,-1,16,-1,-1,-1,-1,,800,1,1,1,VV 4,-1,1,-1,3,1019,RJNK 111400Z 20016KT 0800 R24/P1800N SHSN VV004 M01/M03 Q1019     RMK A3009 MAX WIND 24KT=,SN SH
20180111_140000.002,0,RJNK,,,,0,20180111140000,-1,-1,-1,-1,200,-1,16,-1,-1,-1,-1,,800,1,1,1,VV 4,-1,1,-1,3,1019,RJNK 111400Z 20016KT 0800 R24/P1800N SHSN VV004 M01/M03 Q1019     RMK A3009 MAX WIND 24KT=,SN SH
20180111_150000.000,0,RJNK,,,,0,20180111150000,-1,-1,-1,-1,210,-1,10,-1,-1,-1,-1,,800,1,1,1,VV 4,-1,1,-1,2,1019,RJNK 111500Z 21010KT 0800 R24/P1800N SHSN VV004 M01/M02 Q1019     RMK A3010=,SN SH
20180111_150000.002,0,RJNK,,,,0,20180111150000,-1,-1,-1,-1,210,-1,10,-1,-1,-1,-1,,800,1,1,1,VV 4,-1,1,-1,2,1019,RJNK 111500Z 21010KT 0800 R24/P1800N SHSN VV004 M01/M02 Q1019     RMK A3010=,SN SH
20180111_160000.000,0,RJNK,,,,0,20180111160000,-1,-1,-1,-1,210,-1,15,-1,-1,-1,-1,,400,1,1,1,VV 2,-1,2,-1,3,1019,RJNK 111600Z 21015KT 0400 R24/1300D SHSN VV002 M02/M03 Q1019     RETS RMK A3010 MAX WIND 22KT=,SN SH
20180111_160000.002,0,RJNK,,,,0,20180111160000,-1,-1,-1,-1,210,-1,15,-1,-1,-1,-1,,400,1,1,1,VV 2,-1,2,-1,3,1019,RJNK 111600Z 21015KT 0400 R24/1300D SHSN VV002 M02/M03 Q1019     RETS RMK A3010 MAX WIND 22KT=,SN SH
20180111_170000.000,0,RJNK,,,,0,20180111170000,-1,-1,-1,-1,170,-1,7,-1,-1,-1,-1,,600,1,1,1,VV 3,-1,2,-1,3,1019,RJNK 111700Z 17007KT 0600 R24/P1800N SHSN VV003 M02/M03 Q1019     RMK A3009=,SN SH
20180111_170000.002,0,RJNK,,,,0,20180111170000,-1,-1,-1,-1,170,-1,7,-1,-1,-1,-1,,600,1,1,1,VV 3,-1,2,-1,3,1019,RJNK 111700Z 17007KT 0600 R24/P1800N SHSN VV003 M02/M03 Q1019     RMK A3009=,SN SH
20180111_180000.000,0,RJNK,,,,0,20180111180000,-1,-1,-1,-1,200,-1,16,-1,-1,-1,-1,,500,1,1,1,VV 2,-1,2,-1,4,1019,RJNK 111800Z 20016KT 0500 R24/1800U SHSN VV002 M02/M04 Q1019     RMK A3009 MAX WIND 22KT=,SN SH
20180111_180000.002,0,RJNK,,,,0,20180111180000,-1,-1,-1,-1,200,-1,16,-1,-1,-1,-1,,500,1,1,1,VV 2,-1,2,-1,4,1019,RJNK 111800Z 20016KT 0500 R24/1800U SHSN VV002 M02/M04 Q1019     RMK A3009 MAX WIND 22KT=,SN SH
20180111_190000.000,0,RJNK,,,,0,20180111190000,-1,-1,-1,-1,190,-1,18,-1,-1,-1,-1,,300,1,1,1,VV 2,-1,2,-1,3,1018,RJNK 111900Z 19018KT 0300 R24/0900V1200D SHSN VV002 M02/M03     Q1018 RMK A3008 R0900 MAX WIND 26KT=,SN SH
20180111_190000.002,0,RJNK,,,,0,20180111190000,-1,-1,-1,-1,190,-1,18,-1,-1,-1,-1,,300,1,1,1,VV 2,-1,2,-1,3,1018,RJNK 111900Z 19018KT 0300 R24/0900V1200D SHSN VV002 M02/M03     Q1018 RMK A3008 R0900 MAX WIND 26KT=,SN SH
20180111_200000.000,0,RJNK,,,,0,20180111200000,-1,-1,-1,-1,190,-1,19,-1,-1,-1,-1,,300,1,1,1,VV 2,-1,2,-1,3,1017,RJNK 112000Z 19019KT 0300 R24/0800V1100D SHSN VV002 M02/M03     Q1017 RMK A3006 R0900 MAX WIND 27KT=,SN SH
20180111_200000.002,0,RJNK,,,,0,20180111200000,-1,-1,-1,-1,190,-1,19,-1,-1,-1,-1,,300,1,1,1,VV 2,-1,2,-1,3,1017,RJNK 112000Z 19019KT 0300 R24/0800V1100D SHSN VV002 M02/M03     Q1017 RMK A3006 R0900 MAX WIND 27KT=,SN SH
20180111_210000.000,0,RJNK,,,,0,20180111210000,-1,-1,-1,-1,180,-1,22,-1,33,-1,-1,,300,1,1,1,VV 2,-1,2,-1,3,1017,RJNK 112100Z 18022G33KT 0300 R24/0600V0900U SHSN VV002 M02/M03     Q1017 RMK A3004 R0700 22038KT/0630 01/M03 R007 S052 SD049=,SN SH
20180111_210000.000,0,RJNK,,,,0,20180111210000,-1,-1,-1,-1,180,-1,22,-1,33,-1,-1,,300,1,1,1,VV 2,-1,2,-1,3,1017,RJNK 112100Z 18022G33KT 0300 R24/0600V0900U SHSN VV002 M02/M03     Q1017 RMK A3004 R0700 22038KT/0630 01/M03 R007 S052 SD049=,SN SH
20180111_210000.002,0,RJNK,,,,0,20180111210000,-1,-1,-1,-1,180,-1,22,-1,33,-1,-1,,300,1,1,1,VV 2,-1,2,-1,3,1017,RJNK 112100Z 18022G33KT 0300 R24/0600V0900U SHSN VV002 M02/M03     Q1017 RMK A3004 R0700 22038KT/0630 01/M03 R007 S052           SD049=,SN SH
20180111_220000.000,0,RJNK,,,,0,20180111220000,-1,-1,-1,-1,310,-1,16,-1,26,280,340,,4000,0,1,3,FEW 3   BKN 5   BKN 8,1,1,-1,1,1018,RJNK 112200Z 31016G26KT 280V340 4000 -SHSN FEW003 BKN005 BKN008     01/M01 Q1018 RMK 1ST003 5ST005 7CU008 A3009 1ST003 OVER           AD=,- SN SH
20180111_220000.002,0,RJNK,,,,0,20180111220000,-1,-1,-1,-1,310,-1,16,-1,26,280,340,,4000,0,1,3,FEW 3   BKN 5   BKN 8,1,1,-1,1,1018,RJNK 112200Z 31016G26KT 280V340 4000 -SHSN FEW003 BKN005     BKN008 01/M01 Q1018 RMK 1ST003 5ST005 7CU008 A3009 1ST003           OVER AD=,- SN SH
20180111_230000.000,0,RJNK,,,,0,20180111230000,-1,-1,-1,-1,60,-1,16,-1,-1,-1,-1,,800,1,1,1,VV 5,-1,2,-1,3,1020,RJNK 112300Z 06016KT 0800 R24/P1800N SHSN VV005 M02/M03 Q1020     RMK A3013=,SN SH
20180111_230000.002,0,RJNK,,,,0,20180111230000,-1,-1,-1,-1,60,-1,16,-1,-1,-1,-1,,800,1,1,1,VV 5,-1,2,-1,3,1020,RJNK 112300Z 06016KT 0800 R24/P1800N SHSN VV005 M02/M03 Q1020     RMK A3013=,SN SH
20180112_000000.000,0,RJNK,,,,0,20180112000000,-1,-1,-1,-1,40,-1,7,-1,-1,-1,-1,,8000,0,1,3,FEW 5   SCT 8   BKN 15,-1,2,-1,3,1021,RJNK 120000Z 04007KT 8000 -SHSN FEW005 SCT008 BKN015 M02/M03     Q1021 RMK 2ST005 3CU008 7CU015 A3017 VIS SW-NW 1500M           2ST005 OVER AD=,- SN SH
20180112_000000.002,0,RJNK,,,,0,20180112000000,-1,-1,-1,-1,40,-1,7,-1,-1,-1,-1,,8000,0,1,3,FEW 5   SCT 8   BKN 15,-1,2,-1,3,1021,RJNK 120000Z 04007KT 8000 -SHSN FEW005 SCT008 BKN015 M02/M03     Q1021 RMK 2ST005 3CU008 7CU015 A3017 VIS SW-NW 1500M           2ST005 OVER AD=,- SN SH
20180112_010000.000,0,RJNK,,,,0,20180112010000,-1,-1,-1,-1,230,-1,5,-1,-1,-1,-1,,9999,0,1,3,FEW 3   BKN 15   BKN 40,-1,1,-1,3,1022,RJNK 120100Z 23005KT 9999 -SHSN FEW003 BKN015 BKN040 M01/M03     Q1022 RMK 1ST003 6CU015 7SC040 A3020 1ST003 W-N=,- SN SH
20180112_010000.003,0,RJNK,,,,0,20180112010000,-1,-1,-1,-1,230,-1,5,-1,-1,-1,-1,,9999,0,1,3,FEW 3   BKN 15   BKN 40,-1,1,-1,3,1022,RJNK 120100Z 23005KT 9999 -SHSN FEW003 BKN015 BKN040 M01/M03     Q1022 RMK 1ST003 6CU015 7SC040 A3020 1ST003 W-N=,- SN SH
20180112_020000.000,0,RJNK,,,,0,20180112020000,-1,-1,-1,-1,230,-1,7,-1,-1,-1,-1,,3000,1,1,3,FEW 3   BKN 5   BKN 8,-1,1,-1,2,1022,RJNK 120200Z 23007KT 3000 R06/1300VP1800U -SHSN FEW003 BKN005     BKN008 M01/M02 Q1022 RMK 1ST003 5ST005 7CU008 A3020 R1800           1ST003 OVER AD=,- SN SH
20180112_020000.002,0,RJNK,,,,0,20180112020000,-1,-1,-1,-1,230,-1,7,-1,-1,-1,-1,,3000,1,1,3,FEW 3   BKN 5   BKN 8,-1,1,-1,2,1022,RJNK 120200Z 23007KT 3000 R06/1300VP1800U -SHSN FEW003 BKN005     BKN008 M01/M02 Q1022 RMK 1ST003 5ST005 7CU008 A3020 R1800           1ST003 OVER AD=,- SN SH
20180112_030000.000,0,RJNK,,,,0,20180112030000,-1,-1,-1,-1,180,-1,6,-1,-1,-1,-1,,9999,0,1,3,FEW 3   BKN 15   OVC 40,-1,1,-1,2,1022,RJNK 120300Z 18006KT 9999 -SHSN FEW003 BKN015 OVC040 M01/M02     Q1022 RMK 1ST003 5CU015 8SC040 A3019 1ST003 OVER AD=,- SN SH
20180112_030000.002,0,RJNK,,,,0,20180112030000,-1,-1,-1,-1,180,-1,6,-1,-1,-1,-1,,9999,0,1,3,FEW 3   BKN 15   OVC 40,-1,1,-1,2,1022,RJNK 120300Z 18006KT 9999 -SHSN FEW003 BKN015 OVC040 M01/M02     Q1022 RMK 1ST003 5CU015 8SC040 A3019 1ST003 OVER AD=,- SN SH
20180112_040000.000,0,RJNK,,,,0,20180112040000,-1,-1,-1,-1,999,-1,2,-1,-1,-1,-1,,9999,0,0,3,FEW 3   SCT 15   BKN 40,-1,0,-1,3,1021,RJNK 120400Z VRB02KT 9999 FEW003 SCT015 BKN040 M00/M03 Q1021     RMK 1ST003 3CU015 7SC040 A3016 1ST003 OVER AD=,
20180112_040000.002,0,RJNK,,,,0,20180112040000,-1,-1,-1,-1,999,-1,2,-1,-1,-1,-1,,9999,0,0,3,FEW 3   SCT 15   BKN 40,-1,0,-1,3,1021,RJNK 120400Z VRB02KT 9999 FEW003 SCT015 BKN040 M00/M03 Q1021     RMK 1ST003 3CU015 7SC040 A3016 1ST003 OVER AD=,
20180112_050000.000,0,RJNK,,,,0,20180112050000,-1,-1,-1,-1,50,-1,3,-1,-1,-1,-1,,9999,0,0,2,FEW 3   BKN 70,1,0,-1,3,1021,RJNK 120500Z 05003KT 9999 FEW003 BKN070 00/M03 Q1021 RMK 1ST003     5AC070 A3016 1ST003 SW=,
20180112_050000.003,0,RJNK,,,,0,20180112050000,-1,-1,-1,-1,50,-1,3,-1,-1,-1,-1,,9999,0,0,2,FEW 3   BKN 70,1,0,-1,3,1021,RJNK 120500Z 05003KT 9999 FEW003 BKN070 00/M03 Q1021 RMK     1ST003 5AC070 A3016 1ST003 SW=,
20180112_060000.000,0,RJNK,,,,0,20180112060000,-1,-1,-1,-1,40,-1,8,-1,-1,-1,-1,,9999,0,0,2,FEW 3   SCT 70,1,1,-1,5,1021,RJNK 120600Z 04008KT 9999 FEW003 SCT070 01/M05 Q1021 RMK 1ST003     3AC070 A3018 1ST003 SW=,
20180112_060000.002,0,RJNK,,,,0,20180112060000,-1,-1,-1,-1,40,-1,8,-1,-1,-1,-1,,9999,0,0,2,FEW 3   SCT 70,1,1,-1,5,1021,RJNK 120600Z 04008KT 9999 FEW003 SCT070 01/M05 Q1021 RMK     1ST003 3AC070 A3018 1ST003 SW=,
20180112_070000.000,0,RJNK,,,,0,20180112070000,-1,-1,-1,-1,30,-1,7,-1,-1,-1,-1,,9999,0,0,2,FEW 3   SCT 70,1,1,-1,4,1022,RJNK 120700Z 03007KT 9999 FEW003 SCT070 01/M04 Q1022 RMK 1ST003     3AC070 A3018 1ST003 SW=,
20180112_070000.003,0,RJNK,,,,0,20180112070000,-1,-1,-1,-1,30,-1,7,-1,-1,-1,-1,,9999,0,0,2,FEW 3   SCT 70,1,1,-1,4,1022,RJNK 120700Z 03007KT 9999 FEW003 SCT070 01/M04 Q1022 RMK     1ST003 3AC070 A3018 1ST003 SW=,
20180112_080000.000,0,RJNK,,,,0,20180112080000,-1,-1,-1,-1,50,-1,6,-1,-1,-1,-1,,9999,0,0,2,FEW 3   SCT 70,-1,0,-1,5,1022,RJNK 120800Z 05006KT 9999 FEW003 SCT070 M00/M05 Q1022 RMK     1ST003 4AC070 A3019 1ST003 SW=,
20180112_080000.002,0,RJNK,,,,0,20180112080000,-1,-1,-1,-1,50,-1,6,-1,-1,-1,-1,,9999,0,0,2,FEW 3   SCT 70,-1,0,-1,5,1022,RJNK 120800Z 05006KT 9999 FEW003 SCT070 M00/M05 Q1022 RMK     1ST003 4AC070 A3019 1ST003 SW=,
20180112_090000.000,0,RJNK,,,,0,20180112090000,-1,-1,-1,-1,70,-1,3,-1,-1,40,150,,9999,0,0,2,FEW 3   SCT 70,-1,1,-1,4,1023,RJNK 120900Z 07003KT 040V150 9999 FEW003 SCT070 M01/M04 Q1023     RMK 1ST003 3AC070 A3021 1ST003 SW=,
20180112_090000.002,0,RJNK,,,,0,20180112090000,-1,-1,-1,-1,70,-1,3,-1,-1,40,150,,9999,0,0,2,FEW 3   SCT 70,-1,1,-1,4,1023,RJNK 120900Z 07003KT 040V150 9999 FEW003 SCT070 M01/M04 Q1023     RMK 1ST003 3AC070 A3021 1ST003 SW=,
20180112_100000.000,0,RJNK,,,,0,20180112100000,-1,-1,-1,-1,999,-1,1,-1,-1,-1,-1,,9999,0,0,2,FEW 3   SCT 70,-1,2,-1,4,1024,RJNK 121000Z VRB01KT 9999 FEW003 SCT070 M02/M04 Q1024 RMK     1ST003 3AC070 A3024 1ST003 SW=,
20180112_100000.002,0,RJNK,,,,0,20180112100000,-1,-1,-1,-1,999,-1,1,-1,-1,-1,-1,,9999,0,0,2,FEW 3   SCT 70,-1,2,-1,4,1024,RJNK 121000Z VRB01KT 9999 FEW003 SCT070 M02/M04 Q1024 RMK     1ST003 3AC070 A3024 1ST003 SW=,
20180112_110000.000,0,RJNK,,,,0,20180112110000,-1,-1,-1,-1,180,-1,4,-1,-1,-1,-1,,9999,0,0,2,FEW 15   SCT 70,-1,3,-1,4,1024,RJNK 121100Z 18004KT 9999 FEW015 SCT070 M03/M04 Q1024 RMK     2CU015 3AC070 A3025=,
20180112_110000.002,0,RJNK,,,,0,20180112110000,-1,-1,-1,-1,180,-1,4,-1,-1,-1,-1,,9999,0,0,2,FEW 15   SCT 70,-1,3,-1,4,1024,RJNK 121100Z 18004KT 9999 FEW015 SCT070 M03/M04 Q1024 RMK     2CU015 3AC070 A3025=,
20180112_120000.000,0,RJNK,,,,0,20180112120000,-1,-1,-1,-1,999,-1,2,-1,-1,-1,-1,,900,1,1,2,FEW 3   BKN -9999,-1,4,-1,5,1024,RJNK 121200Z VRB02KT 0900 R24/P1800N FZFG FEW003 BKN/// M04/M05     Q1024 RMK 1ST003 A3026 1ST003 OVER AD=,FZ FG
20180112_120000.002,0,RJNK,,,,0,20180112120000,-1,-1,-1,-1,999,-1,2,-1,-1,-1,-1,,900,1,1,2,FEW 3   BKN -9999,-1,4,-1,5,1024,RJNK 121200Z VRB02KT 0900 R24/P1800N FZFG FEW003 BKN///     M04/M05 Q1024 RMK 1ST003 A3026 1ST003 OVER AD=,FZ FG
20180112_130000.000,0,RJNK,,,,0,20180112130000,-1,-1,-1,-1,999,-1,2,-1,-1,-1,-1,,900,1,1,2,FEW 3   BKN -9999,-1,5,-1,6,1024,RJNK 121300Z VRB02KT 0900 R24/0900VP1800D FZFG FEW003 BKN///     M05/M06 Q1024 RMK 1ST003 A3025 R1300 1ST003 OVER AD=,FZ FG
20180112_130000.002,0,RJNK,,,,0,20180112130000,-1,-1,-1,-1,999,-1,2,-1,-1,-1,-1,,900,1,1,2,FEW 3   BKN -9999,-1,5,-1,6,1024,RJNK 121300Z VRB02KT 0900 R24/0900VP1800D FZFG FEW003 BKN///     M05/M06 Q1024 RMK 1ST003 A3025 R1300 1ST003 OVER AD=,FZ FG
20180112_140000.000,0,RJNK,,,,0,20180112140000,-1,-1,-1,-1,180,-1,3,-1,-1,-1,-1,,900,1,1,2,FEW 3   SCT -9999,-1,6,-1,7,1024,RJNK 121400Z 18003KT 0900 R24/1300VP1800U FZFG FEW003 SCT///     M06/M07 Q1024 RMK 1ST003 A3025 R1800 1ST003 OVER AD=,FZ FG
20180112_140000.002,0,RJNK,,,,0,20180112140000,-1,-1,-1,-1,180,-1,3,-1,-1,-1,-1,,900,1,1,2,FEW 3   SCT -9999,-1,6,-1,7,1024,RJNK 121400Z 18003KT 0900 R24/1300VP1800U FZFG FEW003 SCT///     M06/M07 Q1024 RMK 1ST003 A3025 R1800 1ST003 OVER AD=,FZ FG
20180112_150000.000,0,RJNK,,,,0,20180112150000,-1,-1,-1,-1,999,-1,2,-1,-1,-1,-1,,9999,0,1,2,FEW 3   SCT 70,-1,6,-1,6,1024,RJNK 121500Z VRB02KT 9999 PRFG FEW003 SCT070 M06/M06 Q1024 RMK     1ST003 3AC070 A3024 FG BANK 1500M N-E 1ST003 SW-NW=,PR FG
20180112_150000.002,0,RJNK,,,,0,20180112150000,-1,-1,-1,-1,999,-1,2,-1,-1,-1,-1,,9999,0,1,2,FEW 3   SCT 70,-1,6,-1,6,1024,RJNK 121500Z VRB02KT 9999 PRFG FEW003 SCT070 M06/M06 Q1024 RMK     1ST003 3AC070 A3024 FG BANK 1500M N-E 1ST003 SW-NW=,PR FG
20180112_160000.000,0,RJNK,,,,0,20180112160000,-1,-1,-1,-1,140,-1,4,-1,-1,-1,-1,,9999,0,1,3,FEW 5   SCT 15   BKN 30,-1,5,-1,5,1023,RJNK 121600Z 14004KT 9999 -SHSN FEW005 SCT015 BKN030 M05/M05     Q1023 RMK 1ST005 3CU015 5CU030 A3023 1ST005 SW-N=,- SN SH
20180112_160000.002,0,RJNK,,,,0,20180112160000,-1,-1,-1,-1,140,-1,4,-1,-1,-1,-1,,9999,0,1,3,FEW 5   SCT 15   BKN 30,-1,5,-1,5,1023,RJNK 121600Z 14004KT 9999 -SHSN FEW005 SCT015 BKN030 M05/M05     Q1023 RMK 1ST005 3CU015 5CU030 A3023 1ST005 SW-N=,- SN SH
20180112_170000.000,0,RJNK,,,,0,20180112170000,-1,-1,-1,-1,140,-1,8,-1,-1,-1,-1,,6000,0,1,3,FEW 3   BKN 15   BKN 30,-1,2,-1,3,1023,RJNK 121700Z 14008KT 6000 -SHSN FEW003 BKN015 BKN030 M02/M03     Q1023 RMK 1ST003 5CU015 7CU030 A3023 1ST003 OVER AD=,- SN SH
20180112_170000.002,0,RJNK,,,,0,20180112170000,-1,-1,-1,-1,140,-1,8,-1,-1,-1,-1,,6000,0,1,3,FEW 3   BKN 15   BKN 30,-1,2,-1,3,1023,RJNK 121700Z 14008KT 6000 -SHSN FEW003 BKN015 BKN030 M02/M03     Q1023 RMK 1ST003 5CU015 7CU030 A3023 1ST003 OVER AD=,- SN SH
20180112_180000.000,0,RJNK,,,,0,20180112180000,-1,-1,-1,-1,190,-1,7,-1,-1,-1,-1,,300,1,1,1,VV 2,-1,1,-1,1,1023,RJNK 121800Z 19007KT 0300 R24/1700D SHSN VV002 M01/M01 Q1023     RMK A3023=,SN SH
20180112_180000.002,0,RJNK,,,,0,20180112180000,-1,-1,-1,-1,190,-1,7,-1,-1,-1,-1,,300,1,1,1,VV 2,-1,1,-1,1,1023,RJNK 121800Z 19007KT 0300 R24/1700D SHSN VV002 M01/M01 Q1023     RMK A3023=,SN SH
20180112_190000.000,0,RJNK,,,,0,20180112190000,-1,-1,-1,-1,170,-1,5,-1,-1,-1,-1,,6000,0,1,4,FEW 3   SCT 5   BKN 8   FEW 8 CB,-1,0,-1,1,1023,RJNK 121900Z 17005KT 6000 -TSSN FEW003 SCT005 BKN008 FEW008CB     M00/M01 Q1023 RMK 1ST003 3ST005 6CU008 1CB008 A3021 FBL TS           W 1ST003 SW-NW 3ST005 OVER AD=,- TS   SN
20180112_190000.002,0,RJNK,,,,0,20180112190000,-1,-1,-1,-1,170,-1,5,-1,-1,-1,-1,,6000,0,1,4,FEW 3   SCT 5   BKN 8   FEW 8 CB,-1,0,-1,1,1023,RJNK 121900Z 17005KT 6000 -TSSN FEW003 SCT005 BKN008 FEW008CB     M00/M01 Q1023 RMK 1ST003 3ST005 6CU008 1CB008 A3021 FBL           TS W 1ST003 SW-NW 3ST005 OVER AD=,- TS   SN
20180112_200000.000,0,RJNK,,,,0,20180112200000,-1,-1,-1,-1,210,-1,9,-1,-1,170,230,,600,1,1,1,VV 3,1,0,-1,0,1023,RJNK 122000Z 21009KT 170V230 0600 R24/P1800N SHSN VV003 00/M00     Q1023 RETS RMK A3021=,SN SH
20180112_200000.003,0,RJNK,,,,0,20180112200000,-1,-1,-1,-1,210,-1,9,-1,-1,170,230,,600,1,1,1,VV 3,1,0,-1,0,1023,RJNK 122000Z 21009KT 170V230 0600 R24/P1800N SHSN VV003 00/M00     Q1023 RETS RMK A3021=,SN SH
20180112_210000.000,0,RJNK,,,,0,20180112210000,-1,-1,-1,-1,190,-1,11,-1,-1,-1,-1,,8000,0,1,3,FEW 3   BKN 15   BKN 30,-1,0,-1,1,1022,RJNK 122100Z 19011KT 8000 -SHSN FEW003 BKN015 BKN030 M00/M01     Q1022 RETS RMK 1ST003 5CU015 7CU030 A3021 1ST003 NW-NE           01/M08 R005 S019 SD050=,- SN SH
20180112_210000.002,0,RJNK,,,,0,20180112210000,-1,-1,-1,-1,190,-1,11,-1,-1,-1,-1,,8000,0,1,3,FEW 3   BKN 15   BKN 30,-1,0,-1,1,1022,RJNK 122100Z 19011KT 8000 -SHSN FEW003 BKN015 BKN030 M00/M01     Q1022 RETS RMK 1ST003 5CU015 7CU030 A3021 1ST003 NW-NE           01/M08 R005 S019 SD050=,- SN SH
20180112_220000.000,0,RJNK,,,,0,20180112220000,-1,-1,-1,-1,200,-1,12,-1,-1,-1,-1,,800,1,1,1,VV 5,-1,0,-1,1,1023,RJNK 122200Z 20012KT 0800 R24/P1800N SHSN VV005 M00/M01 Q1023     RMK A3021=,SN SH
20180112_220000.002,0,RJNK,,,,0,20180112220000,-1,-1,-1,-1,200,-1,12,-1,-1,-1,-1,,800,1,1,1,VV 5,-1,0,-1,1,1023,RJNK 122200Z 20012KT 0800 R24/P1800N SHSN VV005 M00/M01 Q1023     RMK A3021=,SN SH
20180112_230000.000,0,RJNK,,,,0,20180112230000,-1,-1,-1,-1,200,-1,13,-1,-1,-1,-1,,1000,1,1,3,FEW 4   BKN 8   OVC 15,-1,1,-1,1,1023,RJNK 122300Z 20013KT 1000 R24/P1800D -SHSN FEW004 BKN008 OVC015     M01/M01 Q1023 RMK 2ST004 7CU008 8CU015 A3023 VIS SW-N 400M           2ST004 OVER AD=,- SN SH
20180112_230000.002,0,RJNK,,,,0,20180112230000,-1,-1,-1,-1,200,-1,13,-1,-1,-1,-1,,1000,1,1,3,FEW 4   BKN 8   OVC 15,-1,1,-1,1,1023,RJNK 122300Z 20013KT 1000 R24/P1800D -SHSN FEW004 BKN008     OVC015 M01/M01 Q1023 RMK 2ST004 7CU008 8CU015 A3023 VIS           SW-N 400M 2ST004 OVER AD=,- SN SH
20180113_000000.000,0,RJNK,,,,0,20180113000000,-1,-1,-1,-1,180,-1,13,-1,-1,-1,-1,,800,1,1,1,VV 4,-1,0,-1,1,1023,RJNK 130000Z 18013KT 0800 R24/1200VP1800U SHSN VV004 M00/M01     Q1023 RMK A3023 R1700 VIS W-N 1500M=,SN SH
20180113_000000.000,0,RJNK,,,,0,20180113000000,-1,-1,-1,-1,180,-1,13,-1,-1,-1,-1,,800,1,1,1,VV 4,-1,0,-1,1,1023,RJNK 130000Z 18013KT 0800 R24/1200VP1800U SHSN VV004 M00/M01     Q1023 RMK A3023 R1700 VIS W-N 1500M=,SN SH
20180113_000000.002,0,RJNK,,,,0,20180113000000,-1,-1,-1,-1,180,-1,13,-1,-1,-1,-1,,800,1,1,1,VV 4,-1,0,-1,1,1023,RJNK 130000Z 18013KT 0800 R24/1200VP1800U SHSN VV004 M00/M01     Q1023 RMK A3023 R1700 VIS W-N 1500M=,SN SH
20180113_010000.000,0,RJNK,,,,0,20180113010000,-1,-1,-1,-1,200,-1,12,-1,-1,-1,-1,,8000,0,1,3,FEW 5   SCT 8   OVC 15,-1,0,-1,1,1024,RJNK 130100Z 20012KT 8000 -SHSN FEW005 SCT008 OVC015 M00/M01     Q1024 RETS RMK 2ST005 3CU008 8CU015 A3024=,- SN SH
20180113_010000.003,0,RJNK,,,,0,20180113010000,-1,-1,-1,-1,200,-1,12,-1,-1,-1,-1,,8000,0,1,3,FEW 5   SCT 8   OVC 15,-1,0,-1,1,1024,RJNK 130100Z 20012KT 8000 -SHSN FEW005 SCT008 OVC015 M00/M01     Q1024 RETS RMK 2ST005 3CU008 8CU015 A3024=,- SN SH
20180113_020000.000,0,RJNK,,,,0,20180113020000,-1,-1,-1,-1,190,-1,11,-1,-1,-1,-1,,9999,0,1,3,FEW 3   SCT 15   BKN 30,1,0,-1,2,1024,RJNK 130200Z 19011KT 9999 -SHSN FEW003 SCT015 BKN030 00/M02     Q1024 RMK 1ST003 3CU015 6CU030 A3024 1ST003 OVER AD=,- SN SH
20180113_020000.002,0,RJNK,,,,0,20180113020000,-1,-1,-1,-1,190,-1,11,-1,-1,-1,-1,,9999,0,1,3,FEW 3   SCT 15   BKN 30,1,0,-1,2,1024,RJNK 130200Z 19011KT 9999 -SHSN FEW003 SCT015 BKN030 00/M02     Q1024 RMK 1ST003 3CU015 6CU030 A3024 1ST003 OVER AD=,- SN SH
20180113_030000.000,0,RJNK,,,,0,20180113030000,-1,-1,-1,-1,190,-1,12,-1,-1,-1,-1,,5000,0,1,3,FEW 3   SCT 8   BKN 15,1,1,-1,2,1023,RJNK 130300Z 19012KT 5000 -SHSN FEW003 SCT008 BKN015 01/M02     Q1023 RMK 1ST003 3CU008 6CU015 A3023 1ST003 OVER AD=,- SN SH
20180113_030000.002,0,RJNK,,,,0,20180113030000,-1,-1,-1,-1,190,-1,12,-1,-1,-1,-1,,5000,0,1,3,FEW 3   SCT 8   BKN 15,1,1,-1,2,1023,RJNK 130300Z 19012KT 5000 -SHSN FEW003 SCT008 BKN015 01/M02     Q1023 RMK 1ST003 3CU008 6CU015 A3023 1ST003 OVER AD=,- SN SH
20180113_040000.000,0,RJNK,,,,0,20180113040000,-1,-1,-1,-1,200,-1,13,-1,-1,-1,-1,,9999,0,1,3,FEW 3   SCT 8   BKN 15,1,1,-1,1,1023,RJNK 130400Z 20013KT 9999 -SHSN FEW003 SCT008 BKN015 01/M01     Q1023 RMK 1ST003 3CU008 5CU015 A3021 1ST003 OVER AD=,- SN SH
20180113_040000.002,0,RJNK,,,,0,20180113040000,-1,-1,-1,-1,200,-1,13,-1,-1,-1,-1,,9999,0,1,3,FEW 3   SCT 8   BKN 15,1,1,-1,1,1023,RJNK 130400Z 20013KT 9999 -SHSN FEW003 SCT008 BKN015 01/M01     Q1023 RMK 1ST003 3CU008 5CU015 A3021 1ST003 OVER AD=,- SN SH
20180113_050000.000,0,RJNK,,,,0,20180113050000,-1,-1,-1,-1,200,-1,12,-1,-1,-1,-1,,5000,1,1,3,FEW 3   BKN 8   BKN 15 CB,1,1,-1,1,1023,RJNK 130500Z 20012KT 5000 R24/1700U -SHSN FEW003 BKN008     BKN015CB 01/M01 Q1023 RMK 1ST003 5CU008 7CB015 A3021 VIS E           1500M CB N AND S-SW 1ST003 OVER AD=,- SN SH
20180113_050000.002,0,RJNK,,,,0,20180113050000,-1,-1,-1,-1,200,-1,12,-1,-1,-1,-1,,5000,1,1,3,FEW 3   BKN 8   BKN 15 CB,1,1,-1,1,1023,RJNK 130500Z 20012KT 5000 R24/1700U -SHSN FEW003 BKN008     BKN015CB 01/M01 Q1023 RMK 1ST003 5CU008 7CB015 A3021 VIS           E 1500M CB N AND S-SW 1ST003 OVER AD=,- SN SH
20180113_060000.000,0,RJNK,,,,0,20180113060000,-1,-1,-1,-1,210,-1,7,-1,-1,-1,-1,,5000,0,1,4,FEW 3   SCT 8   BKN 15   SCT 15 CB,1,1,-1,1,1023,RJNK 130600Z 21007KT 5000 -SHSN FEW003 SCT008 BKN015 SCT015CB     01/M01 Q1023 RMK 1ST003 4CU008 7CU015 3CB015 A3022 VIS W           4000M CB NE AND W 1ST003 OVER AD=,- SN SH
20180113_060000.002,0,RJNK,,,,0,20180113060000,-1,-1,-1,-1,210,-1,7,-1,-1,-1,-1,,5000,0,1,4,FEW 3   SCT 8   BKN 15   SCT 15 CB,1,1,-1,1,1023,RJNK 130600Z 21007KT 5000 -SHSN FEW003 SCT008 BKN015 SCT015CB     01/M01 Q1023 RMK 1ST003 4CU008 7CU015 3CB015 A3022 VIS W           4000M CB NE AND W 1ST003 OVER AD=,- SN SH
20180113_070000.000,0,RJNK,,,,0,20180113070000,-1,-1,-1,-1,140,-1,6,-1,-1,-1,-1,,2000,0,1,3,FEW 4   BKN 8   OVC 15 CB,1,1,-1,0,1023,RJNK 130700Z 14006KT 2000 -SHGSSN FEW004 BKN008 OVC015CB 01/M00     Q1023 RMK 1ST004 6CU008 8CB015 A3023 VIS SW-NW 1500M SNOW           PELLETS CB OHD 1ST004 OVER AD=,- GS SN SH
20180113_070000.002,0,RJNK,,,,0,20180113070000,-1,-1,-1,-1,140,-1,6,-1,-1,-1,-1,,2000,0,1,3,FEW 4   BKN 8   OVC 15 CB,1,1,-1,0,1023,RJNK 130700Z 14006KT 2000 -SHGSSN FEW004 BKN008 OVC015CB     01/M00 Q1023 RMK 1ST004 6CU008 8CB015 A3023 VIS SW-NW           1500M SNOW PELLETS CB OHD 1ST004 OVER AD=,- GS SN SH
20180113_080000.000,0,RJNK,,,,0,20180113080000,-1,-1,-1,-1,50,-1,11,-1,-1,-1,-1,,400,1,1,1,VV 2,1,0,-1,0,1024,RJNK 130800Z 05011KT 0400 R06/P1800N SHSN VV002 00/M00 Q1024     REGS RMK A3025=,SN SH
20180113_080000.002,0,RJNK,,,,0,20180113080000,-1,-1,-1,-1,50,-1,11,-1,-1,-1,-1,,400,1,1,1,VV 2,1,0,-1,0,1024,RJNK 130800Z 05011KT 0400 R06/P1800N SHSN VV002 00/M00 Q1024     REGS RMK A3025=,SN SH
20180113_090000.000,0,RJNK,,,,0,20180113090000,-1,-1,-1,-1,40,-1,10,-1,-1,-1,-1,,1500,1,1,1,VV 5,1,0,-1,0,1025,RJNK 130900Z 04010KT 1500 R06/P1800N -SHSN VV005 00/M00 Q1025     RMK A3029=,- SN SH
20180113_090000.002,0,RJNK,,,,0,20180113090000,-1,-1,-1,-1,40,-1,10,-1,-1,-1,-1,,1500,1,1,1,VV 5,1,0,-1,0,1025,RJNK 130900Z 04010KT 1500 R06/P1800N -SHSN VV005 00/M00 Q1025     RMK A3029=,- SN SH
20180113_100000.000,0,RJNK,,,,0,20180113100000,-1,-1,-1,-1,50,-1,12,-1,-1,-1,-1,,400,1,1,1,VV 2,1,0,-1,0,1026,RJNK 131000Z 05012KT 0400 R06/1700D SHSN VV002 00/M00 Q1026 RMK     A3031=,SN SH
20180113_100000.002,0,RJNK,,,,0,20180113100000,-1,-1,-1,-1,50,-1,12,-1,-1,-1,-1,,400,1,1,1,VV 2,1,0,-1,0,1026,RJNK 131000Z 05012KT 0400 R06/1700D SHSN VV002 00/M00 Q1026     RMK A3031=,SN SH
20180113_110000.000,0,RJNK,,,,0,20180113110000,-1,-1,-1,-1,60,-1,11,-1,-1,20,90,,1200,1,1,1,VV 4,1,0,-1,0,1027,RJNK 131100Z 06011KT 020V090 1200 R06/P1800N -SHSN VV004 00/M00     Q1027 RMK A3034=,- SN SH
20180113_110000.002,0,RJNK,,,,0,20180113110000,-1,-1,-1,-1,60,-1,11,-1,-1,20,90,,1200,1,1,1,VV 4,1,0,-1,0,1027,RJNK 131100Z 06011KT 020V090 1200 R06/P1800N -SHSN VV004     00/M00 Q1027 RMK A3034=,- SN SH
20180113_120000.000,0,RJNK,,,,0,20180113120000,-1,-1,-1,-1,120,-1,7,-1,-1,100,180,,8000,0,1,3,FEW 1   SCT 3   OVC 8,1,0,-1,0,1028,RJNK 131200Z 12007KT 100V180 8000 -SHSN FEW001 SCT003 OVC008     00/M00 Q1028 RMK 1ST001 4ST003 8CU008 A3036 VIS E-S 4500M           1ST001 OVER RWY=,- SN SH
20180113_120000.002,0,RJNK,,,,0,20180113120000,-1,-1,-1,-1,120,-1,7,-1,-1,100,180,,8000,0,1,3,FEW 1   SCT 3   OVC 8,1,0,-1,0,1028,RJNK 131200Z 12007KT 100V180 8000 -SHSN FEW001 SCT003 OVC008     00/M00 Q1028 RMK 1ST001 4ST003 8CU008 A3036 VIS E-S 4500M           1ST001 OVER RWY=,- SN SH
20180113_130000.000,0,RJNK,,,,0,20180113130000,-1,-1,-1,-1,90,-1,8,-1,-1,-1,-1,,3000,0,1,3,FEW 1   SCT 3   OVC 8,1,0,-1,1,1028,RJNK 131300Z 09008KT 3000 -SHSN FEW001 SCT003 OVC008 00/M01     Q1028 RMK 1ST001 4ST003 8CU008 A3038 1ST001 OVER RWY=,- SN SH
20180113_130000.002,0,RJNK,,,,0,20180113130000,-1,-1,-1,-1,90,-1,8,-1,-1,-1,-1,,3000,0,1,3,FEW 1   SCT 3   OVC 8,1,0,-1,1,1028,RJNK 131300Z 09008KT 3000 -SHSN FEW001 SCT003 OVC008 00/M01     Q1028 RMK 1ST001 4ST003 8CU008 A3038 1ST001 OVER RWY=,- SN SH
20180113_140000.000,0,RJNK,,,,0,20180113140000,-1,-1,-1,-1,40,-1,3,-1,-1,350,110,,9999,0,1,3,FEW 1   SCT 3   BKN 8,1,0,-1,1,1029,RJNK 131400Z 04003KT 350V110 9999 -SHSN FEW001 SCT003 BKN008     00/M01 Q1029 RMK 1ST001 4ST003 6CU008 A3040 1ST001 OVER           RWY=,- SN SH
20180113_140000.003,0,RJNK,,,,0,20180113140000,-1,-1,-1,-1,40,-1,3,-1,-1,350,110,,9999,0,1,3,FEW 1   SCT 3   BKN 8,1,0,-1,1,1029,RJNK 131400Z 04003KT 350V110 9999 -SHSN FEW001 SCT003 BKN008     00/M01 Q1029 RMK 1ST001 4ST003 6CU008 A3040 1ST001 OVER           RWY=,- SN SH
20180113_150000.000,0,RJNK,,,,0,20180113150000,-1,-1,-1,-1,60,-1,8,-1,18,-1,-1,,9999,0,1,3,FEW 3   BKN 15   BKN 30,1,2,-1,5,1029,RJNK 131500Z 06008G18KT 9999 -SHSN FEW003 BKN015 BKN030 02/M05     Q1029 RMK 1ST003 6CU015 7CU030 A3040 1ST003 OVER AD=,- SN SH
20180113_150000.002,0,RJNK,,,,0,20180113150000,-1,-1,-1,-1,60,-1,8,-1,18,-1,-1,,9999,0,1,3,FEW 3   BKN 15   BKN 30,1,2,-1,5,1029,RJNK 131500Z 06008G18KT 9999 -SHSN FEW003 BKN015 BKN030 02/M05     Q1029 RMK 1ST003 6CU015 7CU030 A3040 1ST003 OVER AD=,- SN SH
20180113_160000.000,0,RJNK,,,,0,20180113160000,-1,-1,-1,-1,999,-1,3,-1,-1,-1,-1,,9999,0,1,3,FEW 3   SCT 15   BKN 30,1,1,-1,2,1029,RJNK 131600Z VRB03KT 9999 -SHSN FEW003 SCT015 BKN030 01/M02     Q1029 RMK 1ST003 3CU015 7CU030 A3040 1ST003 OVER AD=,- SN SH
20180113_160000.002,0,RJNK,,,,0,20180113160000,-1,-1,-1,-1,999,-1,3,-1,-1,-1,-1,,9999,0,1,3,FEW 3   SCT 15   BKN 30,1,1,-1,2,1029,RJNK 131600Z VRB03KT 9999 -SHSN FEW003 SCT015 BKN030 01/M02     Q1029 RMK 1ST003 3CU015 7CU030 A3040 1ST003 OVER AD=,- SN SH
20180113_170000.000,0,RJNK,,,,0,20180113170000,-1,-1,-1,-1,160,-1,4,-1,-1,120,200,,9999,0,1,3,FEW 3   SCT 15   BKN 30,1,0,-1,3,1030,RJNK 131700Z 16004KT 120V200 9999 -SHSN FEW003 SCT015 BKN030     00/M03 Q1030 RMK 1ST003 3CU015 7CU030 A3042 1ST003 OVER           AD=,- SN SH
20180113_170000.002,0,RJNK,,,,0,20180113170000,-1,-1,-1,-1,160,-1,4,-1,-1,120,200,,9999,0,1,3,FEW 3   SCT 15   BKN 30,1,0,-1,3,1030,RJNK 131700Z 16004KT 120V200 9999 -SHSN FEW003 SCT015 BKN030     00/M03 Q1030 RMK 1ST003 3CU015 7CU030 A3042 1ST003 OVER           AD=,- SN SH
20180113_180000.000,0,RJNK,,,,0,20180113180000,-1,-1,-1,-1,999,-1,2,-1,-1,-1,-1,,9999,0,1,3,FEW 3   SCT 15   BKN 30,-1,0,-1,2,1030,RJNK 131800Z VRB02KT 9999 -SHSN FEW003 SCT015 BKN030 M00/M02     Q1030 RMK 1ST003 3CU015 7CU030 A3043 1ST003 OVER AD=,- SN SH
20180113_180000.002,0,RJNK,,,,0,20180113180000,-1,-1,-1,-1,999,-1,2,-1,-1,-1,-1,,9999,0,1,3,FEW 3   SCT 15   BKN 30,-1,0,-1,2,1030,RJNK 131800Z VRB02KT 9999 -SHSN FEW003 SCT015 BKN030 M00/M02     Q1030 RMK 1ST003 3CU015 7CU030 A3043 1ST003 OVER AD=,- SN SH
20180113_190000.000,0,RJNK,,,,0,20180113190000,-1,-1,-1,-1,130,-1,4,-1,-1,-1,-1,,9999,0,1,3,FEW 3   SCT 15   BKN 30,-1,1,-1,2,1030,RJNK 131900Z 13004KT 9999 -SHSN FEW003 SCT015 BKN030 M01/M02     Q1030 RMK 1ST003 3CU015 7CU030 A3042 1ST003 OVER AD=,- SN SH
20180113_190000.003,0,RJNK,,,,0,20180113190000,-1,-1,-1,-1,130,-1,4,-1,-1,-1,-1,,9999,0,1,3,FEW 3   SCT 15   BKN 30,-1,1,-1,2,1030,RJNK 131900Z 13004KT 9999 -SHSN FEW003 SCT015 BKN030 M01/M02     Q1030 RMK 1ST003 3CU015 7CU030 A3042 1ST003 OVER AD=,- SN SH
20180113_200000.000,0,RJNK,,,,0,20180113200000,-1,-1,-1,-1,150,-1,7,-1,-1,-1,-1,,9999,0,1,3,FEW 3   SCT 15   BKN 30,-1,0,-1,2,1030,RJNK 132000Z 15007KT 9999 -SHSN FEW003 SCT015 BKN030 M00/M02     Q1030 RMK 1ST003 3CU015 7CU030 A3042 1ST003 OVER AD=,- SN SH
20180113_200000.003,0,RJNK,,,,0,20180113200000,-1,-1,-1,-1,150,-1,7,-1,-1,-1,-1,,9999,0,1,3,FEW 3   SCT 15   BKN 30,-1,0,-1,2,1030,RJNK 132000Z 15007KT 9999 -SHSN FEW003 SCT015 BKN030 M00/M02     Q1030 RMK 1ST003 3CU015 7CU030 A3042 1ST003 OVER AD=,- SN SH
20180113_210000.000,0,RJNK,,,,0,20180113210000,-1,-1,-1,-1,110,-1,3,-1,-1,-1,-1,,9999,0,1,3,FEW 3   BKN 30   BKN 60,-1,0,-1,2,1030,RJNK 132100Z 11003KT 9999 -SHSN FEW003 BKN030 BKN060 M00/M02     Q1030 RMK 1ST003 5CU030 7SC060 A3044 1ST003 OVER AD 02/M01           R015 S031 SD059=,- SN SH
20180113_210000.002,0,RJNK,,,,0,20180113210000,-1,-1,-1,-1,110,-1,3,-1,-1,-1,-1,,9999,0,1,3,FEW 3   BKN 30   BKN 60,-1,0,-1,2,1030,RJNK 132100Z 11003KT 9999 -SHSN FEW003 BKN030 BKN060 M00/M02     Q1030 RMK 1ST003 5CU030 7SC060 A3044 1ST003 OVER AD           02/M01 R015 S031 SD059=,- SN SH
20180113_220000.000,0,RJNK,,,,0,20180113220000,-1,-1,-1,-1,110,-1,2,-1,-1,-1,-1,,9999,0,1,3,FEW 3   SCT 30   BKN 60,-1,1,-1,3,1031,RJNK 132200Z 11002KT 9999 -SHSN FEW003 SCT030 BKN060 M01/M03     Q1031 RMK 1ST003 3CU030 7SC060 A3045 1ST003 OVER AD=,- SN SH
20180113_220000.002,0,RJNK,,,,0,20180113220000,-1,-1,-1,-1,110,-1,2,-1,-1,-1,-1,,9999,0,1,3,FEW 3   SCT 30   BKN 60,-1,1,-1,3,1031,RJNK 132200Z 11002KT 9999 -SHSN FEW003 SCT030 BKN060 M01/M03     Q1031 RMK 1ST003 3CU030 7SC060 A3045 1ST003 OVER AD=,- SN SH
20180113_230000.000,0,RJNK,,,,0,20180113230000,-1,-1,-1,-1,999,-1,1,-1,-1,-1,-1,,9999,0,0,3,FEW 3   SCT 30   BKN 50,-1,1,-1,3,1031,RJNK 132300Z VRB01KT 9999 FEW003 SCT030 BKN050 M01/M03 Q1031     RMK 1ST003 3CU030 5SC050 A3046 1ST003 OVER AD=,
20180113_230000.002,0,RJNK,,,,0,20180113230000,-1,-1,-1,-1,999,-1,1,-1,-1,-1,-1,,9999,0,0,3,FEW 3   SCT 30   BKN 50,-1,1,-1,3,1031,RJNK 132300Z VRB01KT 9999 FEW003 SCT030 BKN050 M01/M03 Q1031     RMK 1ST003 3CU030 5SC050 A3046 1ST003 OVER AD=,
20180113_230000.003,2,RJNK,,,,0,20180113230000,-1,-1,-1,-1,999,-1,1,-1,-1,-1,-1,,9999,0,0,3,FEW 3   SCT 30   BKN 50,-1,1,-1,3,1031,RJNK 132300Z VRB01KT 9999 FEW003 SCT030 BKN050 M01/M03     Q1031 RMK 1ST003 3CU030 5SC050 A3046 1ST003 OVER AD=,
20180114_000000.000,0,RJNK,,,,0,20180114000000,-1,-1,-1,-1,130,-1,4,-1,-1,-1,-1,,9999,0,0,2,FEW 3   BKN 50,1,1,-1,3,1031,RJNK 140000Z 13004KT 9999 FEW003 BKN050 01/M03 Q1031 RMK 1ST003     5SC050 A3047 1ST003 OVER AD=,
20180114_000000.003,0,RJNK,,,,0,20180114000000,-1,-1,-1,-1,130,-1,4,-1,-1,-1,-1,,9999,0,0,2,FEW 3   BKN 50,1,1,-1,3,1031,RJNK 140000Z 13004KT 9999 FEW003 BKN050 01/M03 Q1031 RMK     1ST003 5SC050 A3047 1ST003 OVER AD=,
20180114_010000.000,0,RJNK,,,,0,20180114010000,-1,-1,-1,-1,120,-1,3,-1,-1,-1,-1,,9999,0,0,2,FEW 30   SCT 50,1,2,-1,3,1032,RJNK 140100Z 12003KT 9999 FEW030 SCT050 02/M03 Q1032 RMK 2CU030     4SC050 A3049=,
20180114_010000.002,0,RJNK,,,,0,20180114010000,-1,-1,-1,-1,120,-1,3,-1,-1,-1,-1,,9999,0,0,2,FEW 30   SCT 50,1,2,-1,3,1032,RJNK 140100Z 12003KT 9999 FEW030 SCT050 02/M03 Q1032 RMK     2CU030 4SC050 A3049=,
20180114_020000.000,0,RJNK,,,,0,20180114020000,-1,-1,-1,-1,999,-1,2,-1,-1,-1,-1,,9999,0,0,2,FEW 30   SCT 50,1,3,-1,4,1032,RJNK 140200Z VRB02KT 9999 FEW030 SCT050 03/M04 Q1032 RMK 1CU030     4SC050 A3048=,
20180114_020000.002,0,RJNK,,,,0,20180114020000,-1,-1,-1,-1,999,-1,2,-1,-1,-1,-1,,9999,0,0,2,FEW 30   SCT 50,1,3,-1,4,1032,RJNK 140200Z VRB02KT 9999 FEW030 SCT050 03/M04 Q1032 RMK     1CU030 4SC050 A3048=,
20180114_030000.000,0,RJNK,,,,0,20180114030000,-1,-1,-1,-1,999,-1,1,-1,-1,-1,-1,,9999,0,0,1,SCT 50,1,3,-1,4,1031,RJNK 140300Z VRB01KT 9999 SCT050 03/M04 Q1031 RMK 4SC050 A3047=,
20180114_030000.002,0,RJNK,,,,0,20180114030000,-1,-1,-1,-1,999,-1,1,-1,-1,-1,-1,,9999,0,0,1,SCT 50,1,3,-1,4,1031,RJNK 140300Z VRB01KT 9999 SCT050 03/M04 Q1031 RMK 4SC050     A3047=,
20180114_040000.000,0,RJNK,,,,0,20180114040000,-1,-1,-1,-1,230,-1,2,-1,-1,-1,-1,,9999,0,0,2,FEW 30   BKN 50,1,3,-1,4,1031,RJNK 140400Z 23002KT 9999 FEW030 BKN050 03/M04 Q1031 RMK 1CU030     6SC050 A3046=,
20180114_040000.002,0,RJNK,,,,0,20180114040000,-1,-1,-1,-1,230,-1,2,-1,-1,-1,-1,,9999,0,0,2,FEW 30   BKN 50,1,3,-1,4,1031,RJNK 140400Z 23002KT 9999 FEW030 BKN050 03/M04 Q1031 RMK     1CU030 6SC050 A3046=,
20180114_050000.000,0,RJNK,,,,0,20180114050000,-1,-1,-1,-1,100,-1,4,-1,-1,-1,-1,,9999,0,0,2,FEW 30   BKN 50,1,3,-1,5,1030,RJNK 140500Z 10004KT 9999 FEW030 BKN050 03/M05 Q1030 RMK 1CU030     6SC050 A3044=,
20180114_050000.002,0,RJNK,,,,0,20180114050000,-1,-1,-1,-1,100,-1,4,-1,-1,-1,-1,,9999,0,0,2,FEW 30   BKN 50,1,3,-1,5,1030,RJNK 140500Z 10004KT 9999 FEW030 BKN050 03/M05 Q1030 RMK     1CU030 6SC050 A3044=,
20180114_060000.000,0,RJNK,,,,0,20180114060000,-1,-1,-1,-1,30,-1,4,-1,-1,-1,-1,,9999,0,0,2,FEW 30   SCT 50,1,4,-1,6,1030,RJNK 140600Z 03004KT 9999 FEW030 SCT050 04/M06 Q1030 RMK 1CU030     3SC050 A3043=,
20180114_060000.003,0,RJNK,,,,0,20180114060000,-1,-1,-1,-1,30,-1,4,-1,-1,-1,-1,,9999,0,0,2,FEW 30   SCT 50,1,4,-1,6,1030,RJNK 140600Z 03004KT 9999 FEW030 SCT050 04/M06 Q1030 RMK     1CU030 3SC050 A3043=,
20180114_070000.000,0,RJNK,,,,0,20180114070000,-1,-1,-1,-1,30,-1,3,-1,-1,-1,-1,,9999,0,0,1,FEW 30,1,4,-1,7,1030,RJNK 140700Z 03003KT 9999 FEW030 04/M07 Q1030 RMK 1CU030 A3042=,
20180114_070000.002,0,RJNK,,,,0,20180114070000,-1,-1,-1,-1,30,-1,3,-1,-1,-1,-1,,9999,0,0,1,FEW 30,1,4,-1,7,1030,RJNK 140700Z 03003KT 9999 FEW030 04/M07 Q1030 RMK 1CU030     A3042=,
20180114_080000.000,0,RJNK,,,,0,20180114080000,-1,-1,-1,-1,0,-1,0,-1,-1,-1,-1,,9999,0,0,1,FEW 30,1,2,-1,4,1030,RJNK 140800Z 00000KT 9999 FEW030 02/M04 Q1030 RMK 1CU030 A3042=,
20180114_080000.002,0,RJNK,,,,0,20180114080000,-1,-1,-1,-1,0,-1,0,-1,-1,-1,-1,,9999,0,0,1,FEW 30,1,2,-1,4,1030,RJNK 140800Z 00000KT 9999 FEW030 02/M04 Q1030 RMK 1CU030     A3042=,
20180114_090000.000,0,RJNK,,,,0,20180114090000,-1,-1,-1,-1,190,-1,4,-1,-1,-1,-1,,9999,0,0,1,FEW 50,1,0,-1,2,1029,RJNK 140900Z 19004KT 9999 FEW050 00/M02 Q1029 RMK 1SC050 A3041=,
20180114_090000.002,0,RJNK,,,,0,20180114090000,-1,-1,-1,-1,190,-1,4,-1,-1,-1,-1,,9999,0,0,1,FEW 50,1,0,-1,2,1029,RJNK 140900Z 19004KT 9999 FEW050 00/M02 Q1029 RMK 1SC050     A3041=,
20180114_100000.000,0,RJNK,,,,0,20180114100000,-1,-1,-1,-1,999,-1,2,-1,-1,-1,-1,,9999,0,0,1,FEW 50,-1,1,-1,2,1029,RJNK 141000Z VRB02KT 9999 FEW050 M01/M02 Q1029 RMK 1SC050     A3041=,
20180114_100000.002,0,RJNK,,,,0,20180114100000,-1,-1,-1,-1,999,-1,2,-1,-1,-1,-1,,9999,0,0,1,FEW 50,-1,1,-1,2,1029,RJNK 141000Z VRB02KT 9999 FEW050 M01/M02 Q1029 RMK 1SC050     A3041=,
20180114_110000.000,0,RJNK,,,,0,20180114110000,-1,-1,-1,-1,180,-1,5,-1,-1,-1,-1,,9000,0,1,1,FEW 1,-1,2,-1,3,1030,RJNK 141100Z 18005KT 9000 PRFG FEW001 M02/M03 Q1030 RMK 1ST001     A3042 FG BANK 300M E-S 1ST001 N=,PR FG
20180114_110000.002,0,RJNK,,,,0,20180114110000,-1,-1,-1,-1,180,-1,5,-1,-1,-1,-1,,9000,0,1,1,FEW 1,-1,2,-1,3,1030,RJNK 141100Z 18005KT 9000 PRFG FEW001 M02/M03 Q1030 RMK 1ST001     A3042 FG BANK 300M E-S 1ST001 N=,PR FG
20180114_120000.000,0,RJNK,,,,0,20180114120000,-1,-1,-1,-1,999,-1,2,-1,-1,-1,-1,,9000,0,1,1,FEW 1,-1,3,-1,3,1029,RJNK 141200Z VRB02KT 9000 MIFG FEW001 M03/M03 Q1029 RMK 1ST001     A3041 1ST001 W=,MI FG
20180114_120000.002,0,RJNK,,,,0,20180114120000,-1,-1,-1,-1,999,-1,2,-1,-1,-1,-1,,9000,0,1,1,FEW 1,-1,3,-1,3,1029,RJNK 141200Z VRB02KT 9000 MIFG FEW001 M03/M03 Q1029 RMK 1ST001     A3041 1ST001 W=,MI FG
20180114_130000.000,0,RJNK,,,,0,20180114130000,-1,-1,-1,-1,999,-1,2,-1,-1,-1,-1,,6000,0,2,1,FEW 1,-1,4,-1,4,1029,RJNK 141300Z VRB02KT 6000 PRFG MIFG FEW001 M04/M04 Q1029 RMK     1ST001 A3040 FG BANK 800M S-W 1ST001 W=,PR FG; MI FG
20180114_130000.003,0,RJNK,,,,0,20180114130000,-1,-1,-1,-1,999,-1,2,-1,-1,-1,-1,,6000,0,2,1,FEW 1,-1,4,-1,4,1029,RJNK 141300Z VRB02KT 6000 PRFG MIFG FEW001 M04/M04 Q1029 RMK     1ST001 A3040 FG BANK 800M S-W 1ST001 W=,PR FG; MI FG
20180114_140000.000,0,RJNK,,,,0,20180114140000,-1,-1,-1,-1,999,-1,1,-1,-1,-1,-1,,9999,0,1,1,FEW 1,-1,4,-1,4,1028,RJNK 141400Z VRB01KT 9999 MIFG FEW001 M04/M04 Q1028 RMK 1ST001     A3038 1ST001 W=,MI FG
20180114_140000.002,0,RJNK,,,,0,20180114140000,-1,-1,-1,-1,999,-1,1,-1,-1,-1,-1,,9999,0,1,1,FEW 1,-1,4,-1,4,1028,RJNK 141400Z VRB01KT 9999 MIFG FEW001 M04/M04 Q1028 RMK 1ST001     A3038 1ST001 W=,MI FG
20180114_150000.000,0,RJNK,,,,0,20180114150000,-1,-1,-1,-1,999,-1,1,-1,-1,-1,-1,,9999,0,1,1,NSC -1,-1,4,-1,4,1028,RJNK 141500Z VRB01KT 9999 MIFG NSC M04/M04 Q1028 RMK A3036=,MI FG
20180114_150000.002,0,RJNK,,,,0,20180114150000,-1,-1,-1,-1,999,-1,1,-1,-1,-1,-1,,9999,0,1,1,NSC -1,-1,4,-1,4,1028,RJNK 141500Z VRB01KT 9999 MIFG NSC M04/M04 Q1028 RMK A3036=,MI FG
20180114_160000.000,0,RJNK,,,,0,20180114160000,-1,-1,-1,-1,280,-1,3,-1,-1,240,310,,9999,0,0,1,FEW 1,-1,7,-1,7,1028,RJNK 141600Z 28003KT 240V310 9999 FEW001 M07/M07 Q1028 RMK     1ST001 A3036 1ST001 E=,
20180114_160000.002,0,RJNK,,,,0,20180114160000,-1,-1,-1,-1,280,-1,3,-1,-1,240,310,,9999,0,0,1,FEW 1,-1,7,-1,7,1028,RJNK 141600Z 28003KT 240V310 9999 FEW001 M07/M07 Q1028 RMK     1ST001 A3036 1ST001 E=,
20180114_170000.000,0,RJNK,,,,0,20180114170000,-1,-1,-1,-1,210,-1,7,-1,-1,-1,-1,,9999,0,0,1,NSC -1,-1,4,-1,5,1027,RJNK 141700Z 21007KT 9999 NSC M04/M05 Q1027 RMK A3035=,
20180114_170000.002,0,RJNK,,,,0,20180114170000,-1,-1,-1,-1,210,-1,7,-1,-1,-1,-1,,9999,0,0,1,NSC -1,-1,4,-1,5,1027,RJNK 141700Z 21007KT 9999 NSC M04/M05 Q1027 RMK A3035=,
20180114_180000.000,0,RJNK,,,,0,20180114180000,-1,-1,-1,-1,140,-1,3,-1,-1,120,180,,9999,0,0,1,NSC -1,-1,5,-1,6,1026,RJNK 141800Z 14003KT 120V180 9999 NSC M05/M06 Q1026 RMK A3032=,
20180114_180000.003,0,RJNK,,,,0,20180114180000,-1,-1,-1,-1,140,-1,3,-1,-1,120,180,,9999,0,0,1,NSC -1,-1,5,-1,6,1026,RJNK 141800Z 14003KT 120V180 9999 NSC M05/M06 Q1026 RMK A3032=,
20180114_190000.000,0,RJNK,,,,0,20180114190000,-1,-1,-1,-1,330,-1,4,-1,-1,290,20,,9999,0,0,1,NSC -1,-1,4,-1,5,1026,RJNK 141900Z 33004KT 290V020 9999 NSC M04/M05 Q1026 RMK A3031=,
20180114_190000.002,0,RJNK,,,,0,20180114190000,-1,-1,-1,-1,330,-1,4,-1,-1,290,20,,9999,0,0,1,NSC -1,-1,4,-1,5,1026,RJNK 141900Z 33004KT 290V020 9999 NSC M04/M05 Q1026 RMK A3031=,
20180114_200000.000,0,RJNK,,,,0,20180114200000,-1,-1,-1,-1,999,-1,2,-1,-1,-1,-1,,9999,0,0,1,FEW 150,-1,4,-1,5,1026,RJNK 142000Z VRB02KT 9999 FEW150 M04/M05 Q1026 RMK 1AC150     A3031=,
20180114_200000.003,0,RJNK,,,,0,20180114200000,-1,-1,-1,-1,999,-1,2,-1,-1,-1,-1,,9999,0,0,1,FEW 150,-1,4,-1,5,1026,RJNK 142000Z VRB02KT 9999 FEW150 M04/M05 Q1026 RMK 1AC150     A3031=,
20180114_210000.000,0,RJNK,,,,0,20180114210000,-1,-1,-1,-1,150,-1,5,-1,-1,140,200,,9999,0,0,1,FEW 150,-1,4,-1,6,1026,RJNK 142100Z 15005KT 140V200 9999 FEW150 M04/M06 Q1026 RMK     1AC150 A3031 O4/M07 R000 S000 SD053=,
20180114_210000.002,0,RJNK,,,,0,20180114210000,-1,-1,-1,-1,150,-1,5,-1,-1,140,200,,9999,0,0,1,FEW 150,-1,4,-1,6,1026,RJNK 142100Z 15005KT 140V200 9999 FEW150 M04/M06 Q1026 RMK     1AC150 A3031 O4/M07 R000 S000 SD053=,
20180114_220000.000,0,RJNK,,,,0,20180114220000,-1,-1,-1,-1,150,-1,3,-1,-1,120,280,,9999,0,0,2,FEW 50   SCT 200,-1,4,-1,6,1026,RJNK 142200Z 15003KT 120V280 9999 FEW050 SCT200 M04/M06 Q1026     RMK 1SC050 A3032=,
20180114_220000.002,0,RJNK,,,,0,20180114220000,-1,-1,-1,-1,150,-1,3,-1,-1,120,280,,9999,0,0,2,FEW 50   SCT 200,-1,4,-1,6,1026,RJNK 142200Z 15003KT 120V280 9999 FEW050 SCT200 M04/M06 Q1026     RMK 1SC050 A3032=,
20180114_230000.000,0,RJNK,,,,0,20180114230000,-1,-1,-1,-1,200,-1,5,-1,-1,-1,-1,,9999,0,0,3,FEW 30   SCT 120   BKN 200,-1,0,-1,5,1026,RJNK 142300Z 20005KT 9999 FEW030 SCT120 BKN200 M00/M05 Q1026     RMK 1CU030 3AC120 A3032=,
20180114_230000.002,0,RJNK,,,,0,20180114230000,-1,-1,-1,-1,200,-1,5,-1,-1,-1,-1,,9999,0,0,3,FEW 30   SCT 120   BKN 200,-1,0,-1,5,1026,RJNK 142300Z 20005KT 9999 FEW030 SCT120 BKN200 M00/M05 Q1026     RMK 1CU030 3AC120 A3032=,
20180115_000000.000,0,RJNK,,,,0,20180115000000,-1,-1,-1,-1,190,-1,7,-1,-1,-1,-1,,9999,0,0,3,FEW 30   SCT 150   BKN 200,1,3,-1,5,1026,RJNK 150000Z 19007KT 9999 FEW030 SCT150 BKN200 03/M05 Q1026 RMK     1CU030 3AC150 A3031=,
20180115_000000.002,0,RJNK,,,,0,20180115000000,-1,-1,-1,-1,190,-1,7,-1,-1,-1,-1,,9999,0,0,3,FEW 30   SCT 150   BKN 200,1,3,-1,5,1026,RJNK 150000Z 19007KT 9999 FEW030 SCT150 BKN200 03/M05 Q1026     RMK 1CU030 3AC150 A3031=,
20180115_010000.000,0,RJNK,,,,0,20180115010000,-1,-1,-1,-1,210,-1,9,-1,-1,-1,-1,,9999,0,0,3,FEW 30   SCT 120   BKN 200,1,5,-1,4,1026,RJNK 150100Z 21009KT 9999 FEW030 SCT120 BKN200 05/M04 Q1026 RMK     1CU030 3AC120 A3030=,
20180115_010000.002,0,RJNK,,,,0,20180115010000,-1,-1,-1,-1,210,-1,9,-1,-1,-1,-1,,9999,0,0,3,FEW 30   SCT 120   BKN 200,1,5,-1,4,1026,RJNK 150100Z 21009KT 9999 FEW030 SCT120 BKN200 05/M04 Q1026     RMK 1CU030 3AC120 A3030=,
20180115_020000.000,0,RJNK,,,,0,20180115020000,-1,-1,-1,-1,210,-1,10,-1,-1,-1,-1,,9999,0,0,2,FEW 50   BKN 200,1,6,-1,4,1024,RJNK 150200Z 21010KT 9999 FEW050 BKN200 06/M04 Q1024 RMK 1SC050     A3026=,
20180115_020000.002,0,RJNK,,,,0,20180115020000,-1,-1,-1,-1,210,-1,10,-1,-1,-1,-1,,9999,0,0,2,FEW 50   BKN 200,1,6,-1,4,1024,RJNK 150200Z 21010KT 9999 FEW050 BKN200 06/M04 Q1024 RMK     1SC050 A3026=,
20180115_030000.000,0,RJNK,,,,0,20180115030000,-1,-1,-1,-1,210,-1,9,-1,-1,-1,-1,,9999,0,0,1,FEW 50,1,7,-1,4,1022,RJNK 150300Z 21009KT 9999 FEW050 07/M04 Q1022 RMK 1SC050 A3021=,
20180115_030000.002,0,RJNK,,,,0,20180115030000,-1,-1,-1,-1,210,-1,9,-1,-1,-1,-1,,9999,0,0,1,FEW 50,1,7,-1,4,1022,RJNK 150300Z 21009KT 9999 FEW050 07/M04 Q1022 RMK 1SC050     A3021=,
20180115_040000.000,0,RJNK,,,,0,20180115040000,-1,-1,-1,-1,200,-1,12,-1,-1,-1,-1,,9999,0,0,1,FEW 30,1,7,-1,5,1021,RJNK 150400Z 20012KT 9999 FEW030 07/M05 Q1021 RMK 1CU030 A3016=,
20180115_040000.002,0,RJNK,,,,0,20180115040000,-1,-1,-1,-1,200,-1,12,-1,-1,-1,-1,,9999,0,0,1,FEW 30,1,7,-1,5,1021,RJNK 150400Z 20012KT 9999 FEW030 07/M05 Q1021 RMK 1CU030     A3016=,
20180115_050000.000,0,RJNK,,,,0,20180115050000,-1,-1,-1,-1,210,-1,13,-1,-1,-1,-1,,9999,0,0,2,FEW 30   SCT 100,1,7,-1,3,1021,RJNK 150500Z 21013KT 9999 FEW030 SCT100 07/M03 Q1021 RMK 1CU030     3AC100 A3016=,
20180115_050000.002,0,RJNK,,,,0,20180115050000,-1,-1,-1,-1,210,-1,13,-1,-1,-1,-1,,9999,0,0,2,FEW 30   SCT 100,1,7,-1,3,1021,RJNK 150500Z 21013KT 9999 FEW030 SCT100 07/M03 Q1021 RMK     1CU030 3AC100 A3016=,
20180115_060000.000,0,RJNK,,,,0,20180115060000,-1,-1,-1,-1,200,-1,11,-1,-1,-1,-1,,9999,0,0,2,FEW 30   BKN 100,1,7,-1,3,1021,RJNK 150600Z 20011KT 9999 FEW030 BKN100 07/M03 Q1021 RMK 1CU030     7AC100 A3016=,
20180115_060000.002,0,RJNK,,,,0,20180115060000,-1,-1,-1,-1,200,-1,11,-1,-1,-1,-1,,9999,0,0,2,FEW 30   BKN 100,1,7,-1,3,1021,RJNK 150600Z 20011KT 9999 FEW030 BKN100 07/M03 Q1021 RMK     1CU030 7AC100 A3016=,
20180115_070000.000,0,RJNK,,,,0,20180115070000,-1,-1,-1,-1,190,-1,8,-1,-1,-1,-1,,9999,0,0,3,FEW 30   SCT 50   BKN 100,1,7,-1,3,1021,RJNK 150700Z 19008KT 9999 FEW030 SCT050 BKN100 07/M03 Q1021 RMK     1CU030 4SC050 6AC100 A3016=,
20180115_070000.003,0,RJNK,,,,0,20180115070000,-1,-1,-1,-1,190,-1,8,-1,-1,-1,-1,,9999,0,0,3,FEW 30   SCT 50   BKN 100,1,7,-1,3,1021,RJNK 150700Z 19008KT 9999 FEW030 SCT050 BKN100 07/M03 Q1021     RMK 1CU030 4SC050 6AC100 A3016=,
20180115_080000.000,0,RJNK,,,,0,20180115080000,-1,-1,-1,-1,200,-1,8,-1,-1,-1,-1,,9999,0,0,3,FEW 30   SCT 50   BKN 100,1,7,-1,3,1021,RJNK 150800Z 20008KT 9999 FEW030 SCT050 BKN100 07/M03 Q1021 RMK     1CU030 4SC050 5AC100 A3017=,
20180115_080000.002,0,RJNK,,,,0,20180115080000,-1,-1,-1,-1,200,-1,8,-1,-1,-1,-1,,9999,0,0,3,FEW 30   SCT 50   BKN 100,1,7,-1,3,1021,RJNK 150800Z 20008KT 9999 FEW030 SCT050 BKN100 07/M03 Q1021     RMK 1CU030 4SC050 5AC100 A3017=,
20180115_090000.000,0,RJNK,,,,0,20180115090000,-1,-1,-1,-1,200,-1,7,-1,-1,-1,-1,,9999,0,0,3,FEW 30   BKN 50   BKN 100,1,7,-1,2,1022,RJNK 150900Z 20007KT 9999 FEW030 BKN050 BKN100 07/M02 Q1022 RMK     1CU030 5SC050 6AC100 A3018=,
20180115_090000.002,0,RJNK,,,,0,20180115090000,-1,-1,-1,-1,200,-1,7,-1,-1,-1,-1,,9999,0,0,3,FEW 30   BKN 50   BKN 100,1,7,-1,2,1022,RJNK 150900Z 20007KT 9999 FEW030 BKN050 BKN100 07/M02 Q1022     RMK 1CU030 5SC050 6AC100 A3018=,
20180115_100000.000,0,RJNK,,,,0,20180115100000,-1,-1,-1,-1,200,-1,11,-1,-1,-1,-1,,9999,0,1,3,FEW 20   SCT 30   BKN 50,1,7,-1,2,1022,RJNK 151000Z 20011KT 9999 -SHRA FEW020 SCT030 BKN050 07/M02     Q1022 RMK 1CU020 4CU030 7SC050 A3019=,- RA SH
20180115_100000.002,0,RJNK,,,,0,20180115100000,-1,-1,-1,-1,200,-1,11,-1,-1,-1,-1,,9999,0,1,3,FEW 20   SCT 30   BKN 50,1,7,-1,2,1022,RJNK 151000Z 20011KT 9999 -SHRA FEW020 SCT030 BKN050 07/M02     Q1022 RMK 1CU020 4CU030 7SC050 A3019=,- RA SH
20180115_110000.000,0,RJNK,,,,0,20180115110000,-1,-1,-1,-1,230,-1,7,-1,-1,-1,-1,,9999,0,1,3,FEW 20   BKN 30   BKN 50,1,5,1,1,1023,RJNK 151100Z 23007KT 9999 -SHRA FEW020 BKN030 BKN050 05/01     Q1023 RMK 2CU020 6CU030 7SC050 A3022=,- RA SH
20180115_110000.002,0,RJNK,,,,0,20180115110000,-1,-1,-1,-1,230,-1,7,-1,-1,-1,-1,,9999,0,1,3,FEW 20   BKN 30   BKN 50,1,5,1,1,1023,RJNK 151100Z 23007KT 9999 -SHRA FEW020 BKN030 BKN050 05/01     Q1023 RMK 2CU020 6CU030 7SC050 A3022=,- RA SH
20180115_120000.000,0,RJNK,,,,0,20180115120000,-1,-1,-1,-1,210,-1,7,-1,-1,-1,-1,,9999,0,1,3,FEW 15   BKN 20   BKN 30,1,5,1,2,1024,RJNK 151200Z 21007KT 9999 -SHRA FEW015 BKN020 BKN030 05/02     Q1024 RMK 1CU015 5CU020 7CU030 A3024=,- RA SH
20180115_120000.002,0,RJNK,,,,0,20180115120000,-1,-1,-1,-1,210,-1,7,-1,-1,-1,-1,,9999,0,1,3,FEW 15   BKN 20   BKN 30,1,5,1,2,1024,RJNK 151200Z 21007KT 9999 -SHRA FEW015 BKN020 BKN030 05/02     Q1024 RMK 1CU015 5CU020 7CU030 A3024=,- RA SH
20180115_130000.000,0,RJNK,,,,0,20180115130000,-1,-1,-1,-1,170,-1,6,-1,-1,-1,-1,,9999,0,0,2,FEW 20   BKN 30,1,4,1,3,1023,RJNK 151300Z 17006KT 9999 FEW020 BKN030 04/03 Q1023 RMK 2CU020     6CU030 A3023=,
20180115_130000.002,0,RJNK,,,,0,20180115130000,-1,-1,-1,-1,170,-1,6,-1,-1,-1,-1,,9999,0,0,2,FEW 20   BKN 30,1,4,1,3,1023,RJNK 151300Z 17006KT 9999 FEW020 BKN030 04/03 Q1023 RMK 2CU020     6CU030 A3023=,
20180115_140000.000,0,RJNK,,,,0,20180115140000,-1,-1,-1,-1,190,-1,5,-1,-1,-1,-1,,9999,0,0,2,SCT 20   BKN 50,1,4,1,2,1023,RJNK 151400Z 19005KT 9999 SCT020 BKN050 04/02 Q1023 RMK 3CU020     5SC050 A3023=,
20180115_140000.002,0,RJNK,,,,0,20180115140000,-1,-1,-1,-1,190,-1,5,-1,-1,-1,-1,,9999,0,0,2,SCT 20   BKN 50,1,4,1,2,1023,RJNK 151400Z 19005KT 9999 SCT020 BKN050 04/02 Q1023 RMK 3CU020     5SC050 A3023=,
20180115_150000.000,0,RJNK,,,,0,20180115150000,-1,-1,-1,-1,190,-1,3,-1,-1,-1,-1,,9999,0,0,2,FEW 30   BKN 50,1,3,1,2,1023,RJNK 151500Z 19003KT 9999 FEW030 BKN050 03/02 Q1023 RMK 1CU030     5SC050 A3022=,
20180115_150000.002,0,RJNK,,,,0,20180115150000,-1,-1,-1,-1,190,-1,3,-1,-1,-1,-1,,9999,0,0,2,FEW 30   BKN 50,1,3,1,2,1023,RJNK 151500Z 19003KT 9999 FEW030 BKN050 03/02 Q1023 RMK 1CU030     5SC050 A3022=,
20180115_160000.000,0,RJNK,,,,0,20180115160000,-1,-1,-1,-1,999,-1,2,-1,-1,-1,-1,,9999,0,0,2,FEW 30   SCT 50,1,2,1,1,1023,RJNK 151600Z VRB02KT 9999 FEW030 SCT050 02/01 Q1023 RMK 1CU030     4SC050 A3022=,
20180115_160000.002,0,RJNK,,,,0,20180115160000,-1,-1,-1,-1,999,-1,2,-1,-1,-1,-1,,9999,0,0,2,FEW 30   SCT 50,1,2,1,1,1023,RJNK 151600Z VRB02KT 9999 FEW030 SCT050 02/01 Q1023 RMK 1CU030     4SC050 A3022=,
20180115_170000.000,0,RJNK,,,,0,20180115170000,-1,-1,-1,-1,180,-1,4,-1,-1,-1,-1,,9999,0,0,2,FEW 30   BKN 50,1,3,1,1,1023,RJNK 151700Z 18004KT 9999 FEW030 BKN050 03/01 Q1023 RMK 1CU030     5SC050 A3021=,
20180115_170000.002,0,RJNK,,,,0,20180115170000,-1,-1,-1,-1,180,-1,4,-1,-1,-1,-1,,9999,0,0,2,FEW 30   BKN 50,1,3,1,1,1023,RJNK 151700Z 18004KT 9999 FEW030 BKN050 03/01 Q1023 RMK 1CU030     5SC050 A3021=,
20180115_180000.000,0,RJNK,,,,0,20180115180000,-1,-1,-1,-1,170,-1,2,-1,-1,-1,-1,,9999,0,0,2,FEW 50   BKN -9999,1,2,1,1,1022,RJNK 151800Z 17002KT 9999 FEW050 BKN/// 02/01 Q1022 RMK 1SC050     A3019=,
20180115_180000.002,0,RJNK,,,,0,20180115180000,-1,-1,-1,-1,170,-1,2,-1,-1,-1,-1,,9999,0,0,2,FEW 50   BKN -9999,1,2,1,1,1022,RJNK 151800Z 17002KT 9999 FEW050 BKN/// 02/01 Q1022 RMK 1SC050     A3019=,
20180115_190000.000,0,RJNK,,,,0,20180115190000,-1,-1,-1,-1,40,-1,3,-1,-1,-1,-1,,8000,0,1,1,BKN -9999,1,1,1,0,1022,RJNK 151900Z 04003KT 8000 MIFG BKN/// 01/00 Q1022 RMK A3019=,MI FG
20180115_190000.002,0,RJNK,,,,0,20180115190000,-1,-1,-1,-1,40,-1,3,-1,-1,-1,-1,,8000,0,1,1,BKN -9999,1,1,1,0,1022,RJNK 151900Z 04003KT 8000 MIFG BKN/// 01/00 Q1022 RMK A3019=,MI FG
20180115_200000.000,0,RJNK,,,,0,20180115200000,-1,-1,-1,-1,90,-1,2,-1,-1,-1,-1,,9999,0,0,2,FEW 50   SCT -9999,1,1,-1,0,1022,RJNK 152000Z 09002KT 9999 FEW050 SCT/// 01/M00 Q1022 RMK 1SC050     A3018=,
20180115_200000.002,0,RJNK,,,,0,20180115200000,-1,-1,-1,-1,90,-1,2,-1,-1,-1,-1,,9999,0,0,2,FEW 50   SCT -9999,1,1,-1,0,1022,RJNK 152000Z 09002KT 9999 FEW050 SCT/// 01/M00 Q1022 RMK     1SC050 A3018=,
20180115_210000.000,0,RJNK,,,,0,20180115210000,-1,-1,-1,-1,130,-1,2,-1,-1,-1,-1,,9999,0,2,2,SCT 50   SCT -9999,-1,0,-1,1,1023,RJNK 152100Z 13002KT 9999 PRFG MIFG SCT050 SCT/// M00/M01 Q1023     RMK 3SC050 A3021 FG BANK 800M N 08/M01 R001 SD045=,PR FG; MI FG
20180115_210000.002,0,RJNK,,,,0,20180115210000,-1,-1,-1,-1,130,-1,2,-1,-1,-1,-1,,9999,0,2,2,SCT 50   SCT -9999,-1,0,-1,1,1023,RJNK 152100Z 13002KT 9999 PRFG MIFG SCT050 SCT/// M00/M01     Q1023 RMK 3SC050 A3021 FG BANK 800M N 08/M01 R001 SD045=,PR FG; MI FG
20180115_220000.000,0,RJNK,,,,0,20180115220000,-1,-1,-1,-1,170,-1,3,-1,-1,-1,-1,,9999,0,1,2,FEW 30   BKN 50,1,0,-1,0,1023,RJNK 152200Z 17003KT 9999 MIFG FEW030 BKN050 00/M00 Q1023 RMK     1CU030 5SC050 A3022 MIFG W-NE=,MI FG
20180115_220000.002,0,RJNK,,,,0,20180115220000,-1,-1,-1,-1,170,-1,3,-1,-1,-1,-1,,9999,0,1,2,FEW 30   BKN 50,1,0,-1,0,1023,RJNK 152200Z 17003KT 9999 MIFG FEW030 BKN050 00/M00 Q1023 RMK     1CU030 5SC050 A3022 MIFG W-NE=,MI FG
20180115_230000.000,0,RJNK,,,,0,20180115230000,-1,-1,-1,-1,190,-1,3,-1,-1,150,220,,9999,0,0,2,FEW 30   BKN 50,1,1,1,0,1023,RJNK 152300Z 19003KT 150V220 9999 FEW030 BKN050 01/00 Q1023 RMK     1CU030 7SC050 A3021=,
20180115_230000.002,0,RJNK,,,,0,20180115230000,-1,-1,-1,-1,190,-1,3,-1,-1,150,220,,9999,0,0,2,FEW 30   BKN 50,1,1,1,0,1023,RJNK 152300Z 19003KT 150V220 9999 FEW030 BKN050 01/00 Q1023     RMK 1CU030 7SC050 A3021=,
20180116_000000.000,0,RJNK,,,,0,20180116000000,-1,-1,-1,-1,999,-1,1,-1,-1,-1,-1,,9999,0,0,1,FEW 30,1,3,1,1,1022,RJNK 160000Z VRB01KT 9999 FEW030 03/01 Q1022 RMK 1CU030 A3020=,
20180116_000000.002,0,RJNK,,,,0,20180116000000,-1,-1,-1,-1,999,-1,1,-1,-1,-1,-1,,9999,0,0,1,FEW 30,1,3,1,1,1022,RJNK 160000Z VRB01KT 9999 FEW030 03/01 Q1022 RMK 1CU030 A3020=,
20180116_010000.000,0,RJNK,,,,0,20180116010000,-1,-1,-1,-1,200,-1,4,-1,-1,-1,-1,,9999,0,0,2,FEW 30   SCT 50,1,6,1,1,1021,RJNK 160100Z 20004KT 9999 FEW030 SCT050 06/01 Q1021 RMK 1CU030     3SC050 A3017=,
20180116_010000.002,0,RJNK,,,,0,20180116010000,-1,-1,-1,-1,200,-1,4,-1,-1,-1,-1,,9999,0,0,2,FEW 30   SCT 50,1,6,1,1,1021,RJNK 160100Z 20004KT 9999 FEW030 SCT050 06/01 Q1021 RMK 1CU030     3SC050 A3017=,
20180116_020000.000,0,RJNK,,,,0,20180116020000,-1,-1,-1,-1,200,-1,6,-1,-1,-1,-1,,9999,0,0,2,FEW 30   BKN 200,1,9,-1,0,1021,RJNK 160200Z 20006KT 9999 FEW030 BKN200 09/M00 Q1021 RMK 1CU030     A3015=,
20180116_020000.002,0,RJNK,,,,0,20180116020000,-1,-1,-1,-1,200,-1,6,-1,-1,-1,-1,,9999,0,0,2,FEW 30   BKN 200,1,9,-1,0,1021,RJNK 160200Z 20006KT 9999 FEW030 BKN200 09/M00 Q1021 RMK     1CU030 A3015=,
20180116_030000.000,0,RJNK,,,,0,20180116030000,-1,-1,-1,-1,220,-1,8,-1,-1,-1,-1,,9999,0,0,2,FEW 30   BKN 200,1,10,-1,1,1020,RJNK 160300Z 22008KT 9999 FEW030 BKN200 10/M01 Q1020 RMK 1CU030     A3012=,
20180116_030000.002,0,RJNK,,,,0,20180116030000,-1,-1,-1,-1,220,-1,8,-1,-1,-1,-1,,9999,0,0,2,FEW 30   BKN 200,1,10,-1,1,1020,RJNK 160300Z 22008KT 9999 FEW030 BKN200 10/M01 Q1020 RMK     1CU030 A3012=,
20180116_040000.000,0,RJNK,,,,0,20180116040000,-1,-1,-1,-1,190,-1,11,-1,-1,-1,-1,,9999,0,0,2,FEW 30   BKN 50,1,11,-1,2,1019,RJNK 160400Z 19011KT 9999 FEW030 BKN050 11/M02 Q1019 RMK 1CU030     7SC050 A3009=,
20180116_040000.002,0,RJNK,,,,0,20180116040000,-1,-1,-1,-1,190,-1,11,-1,-1,-1,-1,,9999,0,0,2,FEW 30   BKN 50,1,11,-1,2,1019,RJNK 160400Z 19011KT 9999 FEW030 BKN050 11/M02 Q1019 RMK     1CU030 7SC050 A3009=,
20180116_050000.000,0,RJNK,,,,0,20180116050000,-1,-1,-1,-1,190,-1,9,-1,-1,-1,-1,,9999,0,0,3,FEW 30   BKN 50   BKN 90,1,9,-1,2,1018,RJNK 160500Z 19009KT 9999 FEW030 BKN050 BKN090 09/M02 Q1018 RMK     1CU030 5SC050 7AC090 A3007=,
20180116_050000.002,0,RJNK,,,,0,20180116050000,-1,-1,-1,-1,190,-1,9,-1,-1,-1,-1,,9999,0,0,3,FEW 30   BKN 50   BKN 90,1,9,-1,2,1018,RJNK 160500Z 19009KT 9999 FEW030 BKN050 BKN090 09/M02 Q1018     RMK 1CU030 5SC050 7AC090 A3007=,
20180116_060000.000,0,RJNK,,,,0,20180116060000,-1,-1,-1,-1,190,-1,10,-1,-1,-1,-1,,9999,0,0,3,FEW 30   BKN 50   BKN 90,1,10,-1,1,1017,RJNK 160600Z 19010KT 9999 FEW030 BKN050 BKN090 10/M01 Q1017 RMK     1CU030 5SC050 7AC090 A3005=,
20180116_060000.002,0,RJNK,,,,0,20180116060000,-1,-1,-1,-1,190,-1,10,-1,-1,-1,-1,,9999,0,0,3,FEW 30   BKN 50   BKN 90,1,10,-1,1,1017,RJNK 160600Z 19010KT 9999 FEW030 BKN050 BKN090 10/M01 Q1017     RMK 1CU030 5SC050 7AC090 A3005=,
20180116_070000.000,0,RJNK,,,,0,20180116070000,-1,-1,-1,-1,210,-1,6,-1,-1,180,240,,9999,0,0,2,FEW 30   BKN 200,1,9,-1,1,1016,RJNK 160700Z 21006KT 180V240 9999 FEW030 BKN200 09/M01 Q1016     RMK 1CU030 A3003=,
20180116_070000.002,0,RJNK,,,,0,20180116070000,-1,-1,-1,-1,210,-1,6,-1,-1,180,240,,9999,0,0,2,FEW 30   BKN 200,1,9,-1,1,1016,RJNK 160700Z 21006KT 180V240 9999 FEW030 BKN200 09/M01 Q1016     RMK 1CU030 A3003=,
20180116_080000.000,0,RJNK,,,,0,20180116080000,-1,-1,-1,-1,200,-1,5,-1,-1,140,230,,9999,0,0,2,SCT 50   BKN 90,1,10,-1,1,1016,RJNK 160800Z 20005KT 140V230 9999 SCT050 BKN090 10/M01 Q1016     RMK 4SC050 7AC090 A3003=,
20180116_080000.002,0,RJNK,,,,0,20180116080000,-1,-1,-1,-1,200,-1,5,-1,-1,140,230,,9999,0,0,2,SCT 50   BKN 90,1,10,-1,1,1016,RJNK 160800Z 20005KT 140V230 9999 SCT050 BKN090 10/M01 Q1016     RMK 4SC050 7AC090 A3003=,
20180116_090000.000,0,RJNK,,,,0,20180116090000,-1,-1,-1,-1,200,-1,5,-1,-1,-1,-1,,9999,0,0,2,SCT 50   BKN 90,1,9,-1,0,1016,RJNK 160900Z 20005KT 9999 SCT050 BKN090 09/M00 Q1016 RMK 4SC050     7AC090 A3002=,
20180116_090000.002,0,RJNK,,,,0,20180116090000,-1,-1,-1,-1,200,-1,5,-1,-1,-1,-1,,9999,0,0,2,SCT 50   BKN 90,1,9,-1,0,1016,RJNK 160900Z 20005KT 9999 SCT050 BKN090 09/M00 Q1016 RMK     4SC050 7AC090 A3002=,
20180116_100000.000,0,RJNK,,,,0,20180116100000,-1,-1,-1,-1,190,-1,5,-1,-1,-1,-1,,9999,0,0,3,FEW 30   BKN 50   BKN 90,1,7,-1,1,1016,RJNK 161000Z 19005KT 9999 FEW030 BKN050 BKN090 07/M01 Q1016 RMK     1CU030 6SC050 7AC090 A3001=,
20180116_100000.002,0,RJNK,,,,0,20180116100000,-1,-1,-1,-1,190,-1,5,-1,-1,-1,-1,,9999,0,0,3,FEW 30   BKN 50   BKN 90,1,7,-1,1,1016,RJNK 161000Z 19005KT 9999 FEW030 BKN050 BKN090 07/M01 Q1016     RMK 1CU030 6SC050 7AC090 A3001=,
20180116_110000.000,0,RJNK,,,,0,20180116110000,-1,-1,-1,-1,200,-1,6,-1,-1,-1,-1,,9999,0,1,3,FEW 20   SCT 30   BKN 50,1,8,-1,0,1016,RJNK 161100Z 20006KT 9999 -SHRA FEW020 SCT030 BKN050 08/M00     Q1016 RMK 1CU020 3CU030 7SC050 A3002=,- RA SH
20180116_110000.004,0,RJNK,,,,0,20180116110000,-1,-1,-1,-1,200,-1,6,-1,-1,-1,-1,,9999,0,1,3,FEW 20   SCT 30   BKN 50,1,8,-1,0,1016,RJNK 161100Z 20006KT 9999 -SHRA FEW020 SCT030 BKN050 08/M00     Q1016 RMK 1CU020 3CU030 7SC050 A3002=,- RA SH
20180116_120000.000,0,RJNK,,,,0,20180116120000,-1,-1,-1,-1,190,-1,3,-1,-1,-1,-1,,9999,0,1,3,FEW 20   SCT 30   BKN 50,1,7,1,2,1016,RJNK 161200Z 19003KT 9999 -SHRA FEW020 SCT030 BKN050 07/02     Q1016 RMK 1CU020 3CU030 7SC050 A3002=,- RA SH
20180116_120000.002,0,RJNK,,,,0,20180116120000,-1,-1,-1,-1,190,-1,3,-1,-1,-1,-1,,9999,0,1,3,FEW 20   SCT 30   BKN 50,1,7,1,2,1016,RJNK 161200Z 19003KT 9999 -SHRA FEW020 SCT030 BKN050 07/02     Q1016 RMK 1CU020 3CU030 7SC050 A3002=,- RA SH
20180116_130000.000,0,RJNK,,,,0,20180116130000,-1,-1,-1,-1,350,-1,5,-1,-1,-1,-1,,9999,0,1,3,FEW 20   SCT 30   BKN 50,1,7,1,4,1017,RJNK 161300Z 35005KT 9999 -SHRA FEW020 SCT030 BKN050 07/04     Q1017 RMK 1CU020 3CU030 7SC050 A3003=,- RA SH
20180116_130000.002,0,RJNK,,,,0,20180116130000,-1,-1,-1,-1,350,-1,5,-1,-1,-1,-1,,9999,0,1,3,FEW 20   SCT 30   BKN 50,1,7,1,4,1017,RJNK 161300Z 35005KT 9999 -SHRA FEW020 SCT030 BKN050 07/04     Q1017 RMK 1CU020 3CU030 7SC050 A3003=,- RA SH
20180116_140000.000,0,RJNK,,,,0,20180116140000,-1,-1,-1,-1,90,-1,4,-1,-1,-1,-1,,8000,0,1,3,FEW 10   SCT 15   BKN 30,1,5,1,3,1017,RJNK 161400Z 09004KT 8000 -SHRA FEW010 SCT015 BKN030 05/03     Q1017 RMK 1CU010 3CU015 5CU030 A3004=,- RA SH
20180116_140000.002,0,RJNK,,,,0,20180116140000,-1,-1,-1,-1,90,-1,4,-1,-1,-1,-1,,8000,0,1,3,FEW 10   SCT 15   BKN 30,1,5,1,3,1017,RJNK 161400Z 09004KT 8000 -SHRA FEW010 SCT015 BKN030 05/03     Q1017 RMK 1CU010 3CU015 5CU030 A3004=,- RA SH
20180116_150000.000,0,RJNK,,,,0,20180116150000,-1,-1,-1,-1,180,-1,3,-1,-1,-1,-1,,6000,0,1,3,FEW 10   BKN 15   BKN 30,1,4,1,3,1017,RJNK 161500Z 18003KT 6000 -SHRA FEW010 BKN015 BKN030 04/03     Q1017 RMK 2CU010 6CU015 7CU030 A3004=,- RA SH
20180116_150000.002,0,RJNK,,,,0,20180116150000,-1,-1,-1,-1,180,-1,3,-1,-1,-1,-1,,6000,0,1,3,FEW 10   BKN 15   BKN 30,1,4,1,3,1017,RJNK 161500Z 18003KT 6000 -SHRA FEW010 BKN015 BKN030 04/03     Q1017 RMK 2CU010 6CU015 7CU030 A3004=,- RA SH
20180116_160000.000,0,RJNK,,,,0,20180116160000,-1,-1,-1,-1,100,-1,3,-1,-1,40,190,,3000,1,3,3,SCT 5   BKN 8   OVC 15,1,4,1,4,1017,RJNK 161600Z 10003KT 040V190 3000 R24/0900VP1800N -SHRA PRFG BR     SCT005 BKN008 OVC015 04/04 Q1017 RMK 3ST005 5CU008 8CU015           A3004 R1600 FG BANK 1000M NE AND S AND W-NW 3ST005 OVER           AD=,- RA SH; PR FG; BR
20180116_160000.002,0,RJNK,,,,0,20180116160000,-1,-1,-1,-1,100,-1,3,-1,-1,40,190,,3000,1,3,3,SCT 5   BKN 8   OVC 15,1,4,1,4,1017,RJNK 161600Z 10003KT 040V190 3000 R24/0900VP1800N -SHRA PRFG     BR SCT005 BKN008 OVC015 04/04 Q1017 RMK 3ST005 5CU008           8CU015 A3004 R1600 FG BANK 1000M NE AND S AND W-NW 3ST005           OVER AD=,- RA SH; PR FG; BR
20180116_170000.000,0,RJNK,,,,0,20180116170000,-1,-1,-1,-1,999,-1,1,-1,-1,-1,-1,,2000,1,3,3,FEW 3   BKN 6   OVC 8,1,5,1,4,1016,RJNK 161700Z VRB01KT 2000 R24/1000VP1800U -SHRA PRFG BR FEW003     BKN006 OVC008 05/04 Q1016 RMK 2ST003 5ST006 8ST008 A3003           R1600 VIS E-S 3000M FG BANK SW-N 800M=,- RA SH; PR FG; BR
20180116_170000.002,0,RJNK,,,,0,20180116170000,-1,-1,-1,-1,999,-1,1,-1,-1,-1,-1,,2000,1,3,3,FEW 3   BKN 6   OVC 8,1,5,1,4,1016,RJNK 161700Z VRB01KT 2000 R24/1000VP1800U -SHRA PRFG BR FEW003     BKN006 OVC008 05/04 Q1016 RMK 2ST003 5ST006 8ST008 A3003           R1600 VIS E-S 3000M FG BANK SW-N 800M=,- RA SH; PR FG; BR
20180116_180000.000,0,RJNK,,,,0,20180116180000,-1,-1,-1,-1,150,-1,3,-1,-1,100,190,,900,1,2,3,FEW 0   BKN 3   OVC 6,1,4,1,3,1016,RJNK 161800Z 15003KT 100V190 0900 R24/1000V1700D -SHRA FG     FEW000 BKN003 OVC006 04/03 Q1016 RMK 1ST000 5ST003 8ST006           A3002 R1200=,- RA SH; FG
20180116_180000.002,0,RJNK,,,,0,20180116180000,-1,-1,-1,-1,150,-1,3,-1,-1,100,190,,900,1,2,3,FEW 0   BKN 3   OVC 6,1,4,1,3,1016,RJNK 161800Z 15003KT 100V190 0900 R24/1000V1700D -SHRA FG     FEW000 BKN003 OVC006 04/03 Q1016 RMK 1ST000 5ST003 8ST006           A3002 R1200=,- RA SH; FG
20180116_190000.000,0,RJNK,,,,0,20180116190000,-1,-1,-1,-1,999,-1,1,-1,-1,-1,-1,,700,1,2,3,FEW 0   BKN 3   OVC 6,1,4,1,3,1015,RJNK 161900Z VRB01KT 0700 R24/0800V1300U -RA FG FEW000 BKN003     OVC006 04/03 Q1015 RMK 2ST000 5ST003 8ST006 A2999 R0900=,- RA; FG
20180116_190000.002,0,RJNK,,,,0,20180116190000,-1,-1,-1,-1,999,-1,1,-1,-1,-1,-1,,700,1,2,3,FEW 0   BKN 3   OVC 6,1,4,1,3,1015,RJNK 161900Z VRB01KT 0700 R24/0800V1300U -RA FG FEW000 BKN003     OVC006 04/03 Q1015 RMK 2ST000 5ST003 8ST006 A2999 R0900=,- RA; FG
20180116_200000.000,0,RJNK,,,,0,20180116200000,-1,-1,-1,-1,60,-1,5,-1,-1,-1,-1,,1500,1,3,3,FEW 0   SCT 2   BKN 3,1,3,1,3,1015,RJNK 162000Z 06005KT 1500 R24/P1800N -RA PRFG BR FEW000 SCT002     BKN003 03/03 Q1015 RMK 2ST000 3ST002 5ST003 A2998 FG BANK           800M NW-E=,- RA; PR FG; BR
20180116_200000.002,0,RJNK,,,,0,20180116200000,-1,-1,-1,-1,60,-1,5,-1,-1,-1,-1,,1500,1,3,3,FEW 0   SCT 2   BKN 3,1,3,1,3,1015,RJNK 162000Z 06005KT 1500 R24/P1800N -RA PRFG BR FEW000 SCT002     BKN003 03/03 Q1015 RMK 2ST000 3ST002 5ST003 A2998 FG BANK           800M NW-E=,- RA; PR FG; BR
20180116_210000.000,0,RJNK,,,,0,20180116210000,-1,-1,-1,-1,999,-1,1,-1,-1,-1,-1,,2500,1,3,3,FEW 0   SCT 5   BKN 8,1,4,1,3,1014,RJNK 162100Z VRB01KT 2500 R24/1300VP1800U -RA PRFG BR FEW000     SCT005 BKN008 04/03 Q1014 RMK 1ST000 3ST005 5ST008 A2996           R1800 FG BANK 1000M SW-N 11/03 R013 SD029=,- RA; PR FG; BR
20180116_210000.002,0,RJNK,,,,0,20180116210000,-1,-1,-1,-1,999,-1,1,-1,-1,-1,-1,,2500,1,3,3,FEW 0   SCT 5   BKN 8,1,4,1,3,1014,RJNK 162100Z VRB01KT 2500 R24/1300VP1800U -RA PRFG BR FEW000     SCT005 BKN008 04/03 Q1014 RMK 1ST000 3ST005 5ST008 A2996           R1800 FG BANK 1000M SW-N 11/03 R013 SD029=,- RA; PR FG; BR
20180116_220000.000,0,RJNK,,,,0,20180116220000,-1,-1,-1,-1,999,-1,2,-1,-1,-1,-1,,2000,1,3,3,SCT 3   SCT 5   BKN 8,1,3,1,3,1014,RJNK 162200Z VRB02KT 2000 R24/1800U -RA PRFG BR SCT003 SCT005     BKN008 03/03 Q1014 RMK 3ST003 3ST005 6ST008 A2995 FG BANK           1000M N AND SW 3ST003 OVER RWY=,- RA; PR FG; BR
20180116_220000.002,0,RJNK,,,,0,20180116220000,-1,-1,-1,-1,999,-1,2,-1,-1,-1,-1,,2000,1,3,3,SCT 3   SCT 5   BKN 8,1,3,1,3,1014,RJNK 162200Z VRB02KT 2000 R24/1800U -RA PRFG BR SCT003 SCT005     BKN008 03/03 Q1014 RMK 3ST003 3ST005 6ST008 A2995 FG BANK           1000M N AND SW 3ST003 OVER RWY=,- RA; PR FG; BR
20180116_230000.000,0,RJNK,,,,0,20180116230000,-1,-1,-1,-1,70,-1,7,-1,-1,-1,-1,,2500,0,2,3,SCT 2   SCT 3   BKN 40,1,4,1,3,1013,RJNK 162300Z 07007KT 2500 -RA BR SCT002 SCT003 BKN040 04/03     Q1013 RMK 3ST002 3ST003 7SC040 A2993 3ST002 OVER AD=,- RA; BR
20180116_230000.002,0,RJNK,,,,0,20180116230000,-1,-1,-1,-1,70,-1,7,-1,-1,-1,-1,,2500,0,2,3,SCT 2   SCT 3   BKN 40,1,4,1,3,1013,RJNK 162300Z 07007KT 2500 -RA BR SCT002 SCT003 BKN040 04/03     Q1013 RMK 3ST002 3ST003 7SC040 A2993 3ST002 OVER AD=,- RA; BR
20180117_000000.000,0,RJNK,,,,0,20180117000000,-1,-1,-1,-1,999,-1,2,-1,-1,-1,-1,,3500,0,3,3,FEW 1   SCT 2   BKN 8,1,3,1,3,1012,RJNK 170000Z VRB02KT 3500 -RA BR MIFG FEW001 SCT002 BKN008     03/03 Q1012 RMK 2ST001 3ST002 5ST008 A2991 MIFG SW-N VIS           S-W 2000M 2ST001 SW-W=,- RA; BR; MI FG
20180117_000000.002,0,RJNK,,,,0,20180117000000,-1,-1,-1,-1,999,-1,2,-1,-1,-1,-1,,3500,0,3,3,FEW 1   SCT 2   BKN 8,1,3,1,3,1012,RJNK 170000Z VRB02KT 3500 -RA BR MIFG FEW001 SCT002 BKN008     03/03 Q1012 RMK 2ST001 3ST002 5ST008 A2991 MIFG SW-N VIS           S-W 2000M 2ST001 SW-W=,- RA; BR; MI FG
20180117_010000.000,0,RJNK,,,,0,20180117010000,-1,-1,-1,-1,999,-1,2,-1,-1,-1,-1,,800,1,2,3,FEW 1   SCT 3   BKN 8,1,3,1,3,1012,RJNK 170100Z VRB02KT 0800 R24/0650VP1800D -RA FG FEW001 SCT003     BKN008 03/03 Q1012 RMK 2ST001 3ST003 5ST008 A2990 R0800           VIS SW-NW 600M 2ST001 OVER RWY=,- RA; FG
20180117_010000.002,0,RJNK,,,,0,20180117010000,-1,-1,-1,-1,999,-1,2,-1,-1,-1,-1,,800,1,2,3,FEW 1   SCT 3   BKN 8,1,3,1,3,1012,RJNK 170100Z VRB02KT 0800 R24/0650VP1800D -RA FG FEW001 SCT003     BKN008 03/03 Q1012 RMK 2ST001 3ST003 5ST008 A2990 R0800           VIS SW-NW 600M 2ST001 OVER RWY=,- RA; FG
20180117_020000.000,0,RJNK,,,,0,20180117020000,-1,-1,-1,-1,999,-1,1,-1,-1,-1,-1,,800,1,2,3,FEW 1   SCT 3   BKN 8,1,4,1,3,1011,RJNK 170200Z VRB01KT 0800 R24/0900VP1800U -RA FG FEW001 SCT003     BKN008 04/03 Q1011 RMK 2ST001 3ST003 5ST008 A2987 R1700           VIS W-NW 600M 2ST001 OVER RWY=,- RA; FG
20180117_020000.004,0,RJNK,,,,0,20180117020000,-1,-1,-1,-1,999,-1,1,-1,-1,-1,-1,,800,1,2,3,FEW 1   SCT 3   BKN 8,1,4,1,3,1011,RJNK 170200Z VRB01KT 0800 R24/0900VP1800U -RA FG FEW001 SCT003     BKN008 04/03 Q1011 RMK 2ST001 3ST003 5ST008 A2987 R1700           VIS W-NW 600M 2ST001 OVER RWY=,- RA; FG
20180117_030000.000,0,RJNK,,,,0,20180117030000,-1,-1,-1,-1,999,-1,1,-1,-1,-1,-1,,400,1,2,3,SCT 1   BKN 5   OVC 8,1,4,1,4,1009,RJNK 170300Z VRB01KT 0400 R24/0400V1100N -RA FG SCT001 BKN005     OVC008 04/04 Q1009 RMK 3ST001 7ST005 8ST008 A2982 R0600           3ST001 OVER RWY=,- RA; FG
20180117_030000.002,0,RJNK,,,,0,20180117030000,-1,-1,-1,-1,999,-1,1,-1,-1,-1,-1,,400,1,2,3,SCT 1   BKN 5   OVC 8,1,4,1,4,1009,RJNK 170300Z VRB01KT 0400 R24/0400V1100N -RA FG SCT001 BKN005     OVC008 04/04 Q1009 RMK 3ST001 7ST005 8ST008 A2982 R0600           3ST001 OVER RWY=,- RA; FG
20180117_040000.000,0,RJNK,,,,0,20180117040000,-1,-1,-1,-1,120,-1,5,-1,-1,-1,-1,,200,1,2,1,VV 1,1,4,1,4,1008,RJNK 170400Z 12005KT 0200 R06/0400V0550N -RA FG VV001 04/04     Q1008 RMK A2979 R0400=,- RA; FG
20180117_040000.003,0,RJNK,,,,0,20180117040000,-1,-1,-1,-1,120,-1,5,-1,-1,-1,-1,,200,1,2,1,VV 1,1,4,1,4,1008,RJNK 170400Z 12005KT 0200 R06/0400V0550N -RA FG VV001 04/04     Q1008 RMK A2979 R0400=,- RA; FG
20180117_050000.000,0,RJNK,,,,0,20180117050000,-1,-1,-1,-1,330,-1,3,-1,-1,-1,-1,,100,1,2,1,VV 1,1,5,1,4,1007,RJNK 170500Z 33003KT 0100 R06/0400VP1800U -RA FG VV001 05/04     Q1007 RMK A2976 R0800=,- RA; FG
20180117_050000.003,0,RJNK,,,,0,20180117050000,-1,-1,-1,-1,330,-1,3,-1,-1,-1,-1,,100,1,2,1,VV 1,1,5,1,4,1007,RJNK 170500Z 33003KT 0100 R06/0400VP1800U -RA FG VV001 05/04     Q1007 RMK A2976 R0800=,- RA; FG
20180117_060000.000,0,RJNK,,,,0,20180117060000,-1,-1,-1,-1,90,-1,3,-1,-1,50,120,,800,1,2,3,SCT 5   BKN 8   BKN 15,1,5,1,5,1007,RJNK 170600Z 09003KT 050V120 0800 R06/0700VP1800D -RA FG SCT005     BKN008 BKN015 05/05 Q1007 RMK 3ST005 5ST008 7SC015 A2976           R1200 3ST005 OVER AD=,- RA; FG
20180117_060000.002,0,RJNK,,,,0,20180117060000,-1,-1,-1,-1,90,-1,3,-1,-1,50,120,,800,1,2,3,SCT 5   BKN 8   BKN 15,1,5,1,5,1007,RJNK 170600Z 09003KT 050V120 0800 R06/0700VP1800D -RA FG     SCT005 BKN008 BKN015 05/05 Q1007 RMK 3ST005 5ST008 7SC015           A2976 R1200 3ST005 OVER AD=,- RA; FG
20180117_070000.000,0,RJNK,,,,0,20180117070000,-1,-1,-1,-1,0,-1,0,-1,-1,-1,-1,,100,1,2,1,VV 1,1,5,1,4,1007,RJNK 170700Z 00000KT 0100 R24/0450V0750U -RA FG VV001 05/04     Q1007 RMK A2975 R0550=,- RA; FG
20180117_070000.000,0,RJNK,,,,0,20180117070000,-1,-1,-1,-1,0,-1,0,-1,-1,-1,-1,,100,1,2,1,VV 1,1,5,1,4,1007,RJNK 170700Z 00000KT 0100 R24/0450V0750U -RA FG VV001 05/04     Q1007 RMK A2975 R0550=,- RA; FG
20180117_070000.002,0,RJNK,,,,0,20180117070000,-1,-1,-1,-1,0,-1,0,-1,-1,-1,-1,,100,1,2,1,VV 1,1,5,1,4,1007,RJNK 170700Z 00000KT 0100 R24/0450V0750U -RA FG VV001 05/04     Q1007 RMK A2975 R0550=,- RA; FG
20180117_080000.000,0,RJNK,,,,0,20180117080000,-1,-1,-1,-1,320,-1,4,-1,-1,-1,-1,,800,1,2,1,VV 1,1,5,1,5,1007,RJNK 170800Z 32004KT 0800 R24/P1800N -RA FG VV001 05/05 Q1007     RMK A2976 VIS NW-N 3000M=,- RA; FG
20180117_080000.002,0,RJNK,,,,0,20180117080000,-1,-1,-1,-1,320,-1,4,-1,-1,-1,-1,,800,1,2,1,VV 1,1,5,1,5,1007,RJNK 170800Z 32004KT 0800 R24/P1800N -RA FG VV001 05/05 Q1007     RMK A2976 VIS NW-N 3000M=,- RA; FG
20180117_090000.000,0,RJNK,,,,0,20180117090000,-1,-1,-1,-1,60,-1,7,-1,-1,-1,-1,,6000,0,2,3,FEW 5   SCT 8   BKN 15,1,5,1,4,1008,RJNK 170900Z 06007KT 6000 -RA PRFG FEW005 SCT008 BKN015 05/04     Q1008 RMK 1ST005 3ST008 6SC015 A2979 FG BANK E-S 1ST005           NW-E=,- RA; PR FG
20180117_090000.003,0,RJNK,,,,0,20180117090000,-1,-1,-1,-1,60,-1,7,-1,-1,-1,-1,,6000,0,2,3,FEW 5   SCT 8   BKN 15,1,5,1,4,1008,RJNK 170900Z 06007KT 6000 -RA PRFG FEW005 SCT008 BKN015 05/04     Q1008 RMK 1ST005 3ST008 6SC015 A2979 FG BANK E-S 1ST005           NW-E=,- RA; PR FG
20180117_100000.000,0,RJNK,,,,0,20180117100000,-1,-1,-1,-1,999,-1,3,-1,-1,-1,-1,,800,1,2,1,VV 3,1,5,1,4,1009,RJNK 171000Z VRB03KT 0800 R06/1000VP1800U -RA FG VV003 05/04     Q1009 RMK A2982 R1400=,- RA; FG
20180117_100000.002,0,RJNK,,,,0,20180117100000,-1,-1,-1,-1,999,-1,3,-1,-1,-1,-1,,800,1,2,1,VV 3,1,5,1,4,1009,RJNK 171000Z VRB03KT 0800 R06/1000VP1800U -RA FG VV003 05/04     Q1009 RMK A2982 R1400=,- RA; FG
20180117_110000.000,0,RJNK,,,,0,20180117110000,-1,-1,-1,-1,80,-1,3,-1,-1,20,120,,4000,0,3,3,FEW 3   SCT 5   BKN 8,1,6,1,5,1011,RJNK 171100Z 08003KT 020V120 4000 -RA PRFG BR FEW003 SCT005     BKN008 06/05 Q1011 RMK 1ST003 3ST005 7ST008 A2987 FG BANK           1500M E-SW 1ST003 OVER AD=,- RA; PR FG; BR
20180117_110000.003,0,RJNK,,,,0,20180117110000,-1,-1,-1,-1,80,-1,3,-1,-1,20,120,,4000,0,3,3,FEW 3   SCT 5   BKN 8,1,6,1,5,1011,RJNK 171100Z 08003KT 020V120 4000 -RA PRFG BR FEW003 SCT005     BKN008 06/05 Q1011 RMK 1ST003 3ST005 7ST008 A2987 FG BANK           1500M E-SW 1ST003 OVER AD=,- RA; PR FG; BR
20180117_120000.000,0,RJNK,,,,0,20180117120000,-1,-1,-1,-1,150,-1,4,-1,-1,110,170,,800,1,2,3,SCT 1   BKN 3   BKN 5,1,5,1,5,1012,RJNK 171200Z 15004KT 110V170 0800 R06/P1800N -RA FG SCT001     BKN003 BKN005 05/05 Q1012 RMK 3ST001 5ST003 7ST005 A2991           3ST001 OVER RWY=,- RA; FG
20180117_120000.001,2,RJNK,,,,0,20180117120000,-1,-1,-1,-1,150,-1,4,-1,-1,110,170,,800,1,2,3,SCT 1   BKN 3   BKN 5,1,5,1,5,1012,RJNK 171200Z 15004KT 110V170 0800 R06/P1800N -RA FG SCT001     BKN003 BKN005 05/05 Q1012 RMK 3ST001 5ST003 7ST005 A2991           3ST001 OVER RWY=,- RA; FG
20180117_120000.003,0,RJNK,,,,0,20180117120000,-1,-1,-1,-1,150,-1,4,-1,-1,110,170,,800,1,2,3,SCT 1   BKN 3   BKN 5,1,5,1,5,1012,RJNK 171200Z 15004KT 110V170 0800 R06/P1800N -RA FG SCT001     BKN003 BKN005 05/05 Q1012 RMK 3ST001 5ST003 7ST005 A2991           3ST001 OVER RWY=,- RA; FG
20180117_130000.000,0,RJNK,,,,0,20180117130000,-1,-1,-1,-1,120,-1,3,-1,-1,60,150,,3000,0,3,3,SCT 1   BKN 3   BKN 5,1,6,1,6,1013,RJNK 171300Z 12003KT 060V150 3000 -RA BR MIFG SCT001 BKN003     BKN005 06/06 Q1013 RMK 3ST001 5ST003 6ST005 A2994 VIS           NE-SE 1500M MIFG W-N 3ST001 OVER RWY=,- RA; BR; MI FG
20180117_130000.002,0,RJNK,,,,0,20180117130000,-1,-1,-1,-1,120,-1,3,-1,-1,60,150,,3000,0,3,3,SCT 1   BKN 3   BKN 5,1,6,1,6,1013,RJNK 171300Z 12003KT 060V150 3000 -RA BR MIFG SCT001 BKN003     BKN005 06/06 Q1013 RMK 3ST001 5ST003 6ST005 A2994 VIS           NE-SE 1500M MIFG W-N 3ST001 OVER RWY=,- RA; BR; MI FG
20180117_140000.000,0,RJNK,,,,0,20180117140000,-1,-1,-1,-1,10,-1,8,-1,-1,340,40,,3000,0,3,3,SCT 3   BKN 5   BKN 15,1,6,1,6,1015,RJNK 171400Z 01008KT 340V040 3000 -RA PRFG BR SCT003 BKN005     BKN015 06/06 Q1015 RMK 4ST003 6ST005 7SC015 A2999 FG BANK           2000M SE 4ST003 OVER RWY=,- RA; PR FG; BR
20180117_140000.000,0,RJNK,,,,0,20180117140000,-1,-1,-1,-1,10,-1,8,-1,-1,340,40,,3000,1,3,3,SCT 3   BKN 5   BKN 15,1,6,1,6,1015,RJNK 171400Z 01008KT 340V040 3000 R06/P1800N -RA PRFG BR SCT003     BKN005 BKN015 06/06 Q1015 RMK 4ST003 6ST005 7SC015 A2999           FG BANK 2000M SE 4ST003 OVER RWY=,- RA; PR FG; BR
20180117_140000.002,0,RJNK,,,,0,20180117140000,-1,-1,-1,-1,10,-1,8,-1,-1,340,40,,3000,0,3,3,SCT 3   BKN 5   BKN 15,1,6,1,6,1015,RJNK 171400Z 01008KT 340V040 3000 -RA PRFG BR SCT003 BKN005     BKN015 06/06 Q1015 RMK 4ST003 6ST005 7SC015 A2999 FG BANK           2000M SE 4ST003 OVER RWY=,- RA; PR FG; BR
20180117_150000.000,0,RJNK,,,,0,20180117150000,-1,-1,-1,-1,130,-1,5,-1,-1,-1,-1,,9000,0,2,3,FEW 3   SCT 5   BKN 15,1,5,1,5,1015,RJNK 171500Z 13005KT 9000 -RA MIFG FEW003 SCT005 BKN015 05/05     Q1015 RMK 1ST003 3ST005 6SC015 A2998 MIFG NW 1ST003 S=,- RA; MI FG
20180117_150000.002,0,RJNK,,,,0,20180117150000,-1,-1,-1,-1,130,-1,5,-1,-1,-1,-1,,9000,0,2,3,FEW 3   SCT 5   BKN 15,1,5,1,5,1015,RJNK 171500Z 13005KT 9000 -RA MIFG FEW003 SCT005 BKN015 05/05     Q1015 RMK 1ST003 3ST005 6SC015 A2998 MIFG NW 1ST003 S=,- RA; MI FG
20180117_160000.000,0,RJNK,,,,0,20180117160000,-1,-1,-1,-1,130,-1,3,-1,-1,-1,-1,,9000,0,1,3,FEW 3   BKN 15   BKN 35,1,4,1,4,1015,RJNK 171600Z 13003KT 9000 MIFG FEW003 BKN015 BKN035 04/04 Q1015     RMK 1ST003 5SC015 7SC035 A2998 MIFG NW 1ST003 OVER AD=,MI FG
20180117_160000.002,0,RJNK,,,,0,20180117160000,-1,-1,-1,-1,130,-1,3,-1,-1,-1,-1,,9000,0,1,3,FEW 3   BKN 15   BKN 35,1,4,1,4,1015,RJNK 171600Z 13003KT 9000 MIFG FEW003 BKN015 BKN035 04/04     Q1015 RMK 1ST003 5SC015 7SC035 A2998 MIFG NW 1ST003 OVER           AD=,MI FG
20180117_170000.000,0,RJNK,,,,0,20180117170000,-1,-1,-1,-1,140,-1,4,-1,-1,-1,-1,,9999,0,1,3,FEW 3   BKN 15   BKN 35,1,4,1,4,1015,RJNK 171700Z 14004KT 9999 MIFG FEW003 BKN015 BKN035 04/04 Q1015     RMK 1ST003 6SC015 7SC035 A2998 MIFG NW 1ST003 OVER AD=,MI FG
20180117_170000.002,0,RJNK,,,,0,20180117170000,-1,-1,-1,-1,140,-1,4,-1,-1,-1,-1,,9999,0,1,3,FEW 3   BKN 15   BKN 35,1,4,1,4,1015,RJNK 171700Z 14004KT 9999 MIFG FEW003 BKN015 BKN035 04/04     Q1015 RMK 1ST003 6SC015 7SC035 A2998 MIFG NW 1ST003 OVER           AD=,MI FG
20180117_180000.000,0,RJNK,,,,0,20180117180000,-1,-1,-1,-1,230,-1,3,-1,-1,-1,-1,,9999,0,1,3,FEW 5   SCT 15   BKN 40,1,3,1,3,1016,RJNK 171800Z 23003KT 9999 MIFG FEW005 SCT015 BKN040 03/03 Q1016     RMK 1ST005 3SC015 7SC040 A3001 MIFG NW 1ST005 OVER AD=,MI FG
20180117_180000.002,0,RJNK,,,,0,20180117180000,-1,-1,-1,-1,230,-1,3,-1,-1,-1,-1,,9999,0,1,3,FEW 5   SCT 15   BKN 40,1,3,1,3,1016,RJNK 171800Z 23003KT 9999 MIFG FEW005 SCT015 BKN040 03/03     Q1016 RMK 1ST005 3SC015 7SC040 A3001 MIFG NW 1ST005 OVER           AD=,MI FG
20180117_190000.000,0,RJNK,,,,0,20180117190000,-1,-1,-1,-1,190,-1,7,-1,-1,-1,-1,,9999,0,1,2,FEW 3   SCT 40,1,3,1,3,1016,RJNK 171900Z 19007KT 9999 MIFG FEW003 SCT040 03/03 Q1016 RMK     1ST003 3SC040 A3002 MIFG NW 1ST003 W=,MI FG
20180117_190000.003,0,RJNK,,,,0,20180117190000,-1,-1,-1,-1,190,-1,7,-1,-1,-1,-1,,9999,0,1,2,FEW 3   SCT 40,1,3,1,3,1016,RJNK 171900Z 19007KT 9999 MIFG FEW003 SCT040 03/03 Q1016 RMK     1ST003 3SC040 A3002 MIFG NW 1ST003 W=,MI FG
20180117_200000.000,0,RJNK,,,,0,20180117200000,-1,-1,-1,-1,999,-1,1,-1,-1,-1,-1,,9999,0,1,3,FEW 10   SCT 50   BKN -9999,1,3,1,2,1016,RJNK 172000Z VRB01KT 9999 MIFG FEW010 SCT050 BKN/// 03/02 Q1016     RMK 1CU010 3SC050 A3003 MIFG NW=,MI FG
20180117_200000.002,0,RJNK,,,,0,20180117200000,-1,-1,-1,-1,999,-1,1,-1,-1,-1,-1,,9999,0,1,3,FEW 10   SCT 50   BKN -9999,1,3,1,2,1016,RJNK 172000Z VRB01KT 9999 MIFG FEW010 SCT050 BKN/// 03/02     Q1016 RMK 1CU010 3SC050 A3003 MIFG NW=,MI FG
20180117_210000.000,0,RJNK,,,,0,20180117210000,-1,-1,-1,-1,999,-1,2,-1,-1,-1,-1,,9999,0,0,3,FEW 30   BKN 50   BKN -9999,1,3,1,2,1017,RJNK 172100Z VRB02KT 9999 FEW030 BKN050 BKN/// 03/02 Q1017 RMK     1CU030 6SC050 A3005 07/02 R019 SD018=,
20180117_210000.002,0,RJNK,,,,0,20180117210000,-1,-1,-1,-1,999,-1,2,-1,-1,-1,-1,,9999,0,0,3,FEW 30   BKN 50   BKN -9999,1,3,1,2,1017,RJNK 172100Z VRB02KT 9999 FEW030 BKN050 BKN/// 03/02 Q1017 RMK     1CU030 6SC050 A3005 07/02 R019 SD018=,
20180117_220000.000,0,RJNK,,,,0,20180117220000,-1,-1,-1,-1,180,-1,5,-1,-1,-1,-1,,9999,0,0,3,FEW 20   SCT 30   BKN 50,1,3,1,3,1017,RJNK 172200Z 18005KT 9999 FEW020 SCT030 BKN050 03/03 Q1017 RMK     1CU020 4CU030 7SC050 A3005=,
20180117_220000.003,0,RJNK,,,,0,20180117220000,-1,-1,-1,-1,180,-1,5,-1,-1,-1,-1,,9999,0,0,3,FEW 20   SCT 30   BKN 50,1,3,1,3,1017,RJNK 172200Z 18005KT 9999 FEW020 SCT030 BKN050 03/03 Q1017 RMK     1CU020 4CU030 7SC050 A3005=,
20180117_230000.000,0,RJNK,,,,0,20180117230000,-1,-1,-1,-1,140,-1,3,-1,-1,360,170,,9999,0,1,3,FEW 20   SCT 30   BKN 40,1,3,1,2,1017,RJNK 172300Z 14003KT 360V170 9999 -SHRA FEW020 SCT030 BKN040     03/02 Q1017 RMK 1CU020 3CU030 5SC040 A3004=,- RA SH
20180117_230000.002,0,RJNK,,,,0,20180117230000,-1,-1,-1,-1,140,-1,3,-1,-1,360,170,,9999,0,1,3,FEW 20   SCT 30   BKN 40,1,3,1,2,1017,RJNK 172300Z 14003KT 360V170 9999 -SHRA FEW020 SCT030 BKN040     03/02 Q1017 RMK 1CU020 3CU030 5SC040 A3004=,- RA SH
20180118_000000.000,0,RJNK,,,,0,20180118000000,-1,-1,-1,-1,170,-1,3,-1,-1,-1,-1,,9999,0,1,3,FEW 20   BKN 30   BKN 40,1,4,1,3,1017,RJNK 180000Z 17003KT 9999 -SHRA FEW020 BKN030 BKN040 04/03     Q1017 RMK 1CU020 5CU030 7SC040 A3005=,- RA SH
20180118_000000.002,0,RJNK,,,,0,20180118000000,-1,-1,-1,-1,170,-1,3,-1,-1,-1,-1,,9999,0,1,3,FEW 20   BKN 30   BKN 40,1,4,1,3,1017,RJNK 180000Z 17003KT 9999 -SHRA FEW020 BKN030 BKN040 04/03     Q1017 RMK 1CU020 5CU030 7SC040 A3005=,- RA SH
20180118_010000.000,0,RJNK,,,,0,20180118010000,-1,-1,-1,-1,180,-1,7,-1,-1,-1,-1,,9999,0,0,3,FEW 10   SCT 40   BKN 50,1,4,1,3,1018,RJNK 180100Z 18007KT 9999 FEW010 SCT040 BKN050 04/03 Q1018 RMK     1CU010 4SC040 7SC050 A3007=,
20180118_010000.002,0,RJNK,,,,0,20180118010000,-1,-1,-1,-1,180,-1,7,-1,-1,-1,-1,,9999,0,0,3,FEW 10   SCT 40   BKN 50,1,4,1,3,1018,RJNK 180100Z 18007KT 9999 FEW010 SCT040 BKN050 04/03 Q1018 RMK     1CU010 4SC040 7SC050 A3007=,
20180118_020000.000,0,RJNK,,,,0,20180118020000,-1,-1,-1,-1,190,-1,3,-1,-1,-1,-1,,9999,0,0,3,FEW 10   SCT 50   BKN 70,1,7,1,5,1017,RJNK 180200Z 19003KT 9999 FEW010 SCT050 BKN070 07/05 Q1017 RMK     1CU010 3SC050 5AC070 A3004=,
20180118_020000.002,0,RJNK,,,,0,20180118020000,-1,-1,-1,-1,190,-1,3,-1,-1,-1,-1,,9999,0,0,3,FEW 10   SCT 50   BKN 70,1,7,1,5,1017,RJNK 180200Z 19003KT 9999 FEW010 SCT050 BKN070 07/05 Q1017 RMK     1CU010 3SC050 5AC070 A3004=,
20180118_030000.000,0,RJNK,,,,0,20180118030000,-1,-1,-1,-1,200,-1,6,-1,-1,-1,-1,,9999,0,0,3,FEW 10   SCT 50   BKN 70,1,8,1,4,1017,RJNK 180300Z 20006KT 9999 FEW010 SCT050 BKN070 08/04 Q1017 RMK     1CU010 4SC050 7AC070 A3003=,
20180118_030000.003,0,RJNK,,,,0,20180118030000,-1,-1,-1,-1,200,-1,6,-1,-1,-1,-1,,9999,0,0,3,FEW 10   SCT 50   BKN 70,1,8,1,4,1017,RJNK 180300Z 20006KT 9999 FEW010 SCT050 BKN070 08/04 Q1017 RMK     1CU010 4SC050 7AC070 A3003=,
20180118_040000.000,0,RJNK,,,,0,20180118040000,-1,-1,-1,-1,210,-1,8,-1,-1,-1,-1,,9999,0,0,3,FEW 10   BKN 50   BKN 70,1,9,1,3,1016,RJNK 180400Z 21008KT 9999 FEW010 BKN050 BKN070 09/03 Q1016 RMK     1CU010 5SC050 7AC070 A3002=,
20180118_040000.002,0,RJNK,,,,0,20180118040000,-1,-1,-1,-1,210,-1,8,-1,-1,-1,-1,,9999,0,0,3,FEW 10   BKN 50   BKN 70,1,9,1,3,1016,RJNK 180400Z 21008KT 9999 FEW010 BKN050 BKN070 09/03 Q1016 RMK     1CU010 5SC050 7AC070 A3002=,
20180118_050000.000,0,RJNK,,,,0,20180118050000,-1,-1,-1,-1,240,-1,15,-1,-1,220,290,,7000,0,1,3,FEW 10   BKN 20   BKN 30,1,7,1,4,1017,RJNK 180500Z 24015KT 220V290 7000 -SHRA FEW010 BKN020 BKN030     07/04 Q1017 RMK 1CU010 5CU020 7CU030 A3004=,- RA SH
20180118_050000.002,0,RJNK,,,,0,20180118050000,-1,-1,-1,-1,240,-1,15,-1,-1,220,290,,7000,0,1,3,FEW 10   BKN 20   BKN 30,1,7,1,4,1017,RJNK 180500Z 24015KT 220V290 7000 -SHRA FEW010 BKN020 BKN030     07/04 Q1017 RMK 1CU010 5CU020 7CU030 A3004=,- RA SH
20180118_060000.000,0,RJNK,,,,0,20180118060000,-1,-1,-1,-1,300,-1,13,-1,-1,-1,-1,,9999,0,0,3,FEW 10   SCT 30   BKN 50,1,9,1,4,1017,RJNK 180600Z 30013KT 9999 FEW010 SCT030 BKN050 09/04 Q1017 RMK     1CU010 3CU030 7SC050 A3006=,
20180118_060000.002,0,RJNK,,,,0,20180118060000,-1,-1,-1,-1,300,-1,13,-1,-1,-1,-1,,9999,0,0,3,FEW 10   SCT 30   BKN 50,1,9,1,4,1017,RJNK 180600Z 30013KT 9999 FEW010 SCT030 BKN050 09/04 Q1017 RMK     1CU010 3CU030 7SC050 A3006=,
20180118_070000.000,0,RJNK,,,,0,20180118070000,-1,-1,-1,-1,300,-1,7,-1,-1,-1,-1,,8000,0,0,3,FEW 10   BKN 30   BKN 50,1,9,1,3,1019,RJNK 180700Z 30007KT 8000 FEW010 BKN030 BKN050 09/03 Q1019 RMK     1CU010 5CU030 7SC050 A3009=,
20180118_070000.002,0,RJNK,,,,0,20180118070000,-1,-1,-1,-1,300,-1,7,-1,-1,-1,-1,,8000,0,0,3,FEW 10   BKN 30   BKN 50,1,9,1,3,1019,RJNK 180700Z 30007KT 8000 FEW010 BKN030 BKN050 09/03 Q1019 RMK     1CU010 5CU030 7SC050 A3009=,
20180118_080000.000,0,RJNK,,,,0,20180118080000,-1,-1,-1,-1,999,-1,1,-1,-1,-1,-1,,8000,0,0,3,FEW 10   SCT 15   BKN 30,1,8,1,4,1019,RJNK 180800Z VRB01KT 8000 FEW010 SCT015 BKN030 08/04 Q1019 RMK     1ST010 4SC015 6SC030 A3010=,
20180118_080000.002,0,RJNK,,,,0,20180118080000,-1,-1,-1,-1,999,-1,1,-1,-1,-1,-1,,8000,0,0,3,FEW 10   SCT 15   BKN 30,1,8,1,4,1019,RJNK 180800Z VRB01KT 8000 FEW010 SCT015 BKN030 08/04 Q1019 RMK     1ST010 4SC015 6SC030 A3010=,
20180118_090000.000,0,RJNK,,,,0,20180118090000,-1,-1,-1,-1,180,-1,3,-1,-1,150,260,,4500,0,1,3,FEW 15   BKN 30   BKN 50,1,6,1,4,1020,RJNK 180900Z 18003KT 150V260 4500 BR FEW015 BKN030 BKN050 06/04     Q1020 RMK 1SC015 6SC030 7SC050 A3013=,BR
20180118_090000.002,0,RJNK,,,,0,20180118090000,-1,-1,-1,-1,180,-1,3,-1,-1,150,260,,4500,0,1,3,FEW 15   BKN 30   BKN 50,1,6,1,4,1020,RJNK 180900Z 18003KT 150V260 4500 BR FEW015 BKN030 BKN050     06/04 Q1020 RMK 1SC015 6SC030 7SC050 A3013=,BR
20180118_100000.000,0,RJNK,,,,0,20180118100000,-1,-1,-1,-1,170,-1,6,-1,-1,-1,-1,,4500,0,1,2,FEW 15   BKN 50,1,4,1,4,1020,RJNK 181000Z 17006KT 4500 BR FEW015 BKN050 04/04 Q1020 RMK     1SC015 7SC050 A3013=,BR
20180118_100000.002,0,RJNK,,,,0,20180118100000,-1,-1,-1,-1,170,-1,6,-1,-1,-1,-1,,4500,0,1,2,FEW 15   BKN 50,1,4,1,4,1020,RJNK 181000Z 17006KT 4500 BR FEW015 BKN050 04/04 Q1020 RMK     1SC015 7SC050 A3013=,BR
20180118_110000.000,0,RJNK,,,,0,20180118110000,-1,-1,-1,-1,150,-1,3,-1,-1,110,200,,4000,0,1,3,FEW 15   BKN 30   BKN 50,1,5,1,4,1020,RJNK 181100Z 15003KT 110V200 4000 BR FEW015 BKN030 BKN050 05/04     Q1020 RMK 1SC015 5SC030 7SC050 A3014=,BR
20180118_110000.002,0,RJNK,,,,0,20180118110000,-1,-1,-1,-1,150,-1,3,-1,-1,110,200,,4000,0,1,3,FEW 15   BKN 30   BKN 50,1,5,1,4,1020,RJNK 181100Z 15003KT 110V200 4000 BR FEW015 BKN030 BKN050     05/04 Q1020 RMK 1SC015 5SC030 7SC050 A3014=,BR
20180118_120000.000,0,RJNK,,,,0,20180118120000,-1,-1,-1,-1,180,-1,5,-1,-1,-1,-1,,3000,0,1,3,FEW 15   BKN 30   BKN 50,1,4,1,3,1020,RJNK 181200Z 18005KT 3000 BR FEW015 BKN030 BKN050 04/03 Q1020     RMK 1CU015 6SC030 7SC050 A3014=,BR
20180118_120000.002,0,RJNK,,,,0,20180118120000,-1,-1,-1,-1,180,-1,5,-1,-1,-1,-1,,3000,0,1,3,FEW 15   BKN 30   BKN 50,1,4,1,3,1020,RJNK 181200Z 18005KT 3000 BR FEW015 BKN030 BKN050 04/03 Q1020     RMK 1CU015 6SC030 7SC050 A3014=,BR
20180118_130000.000,0,RJNK,,,,0,20180118130000,-1,-1,-1,-1,180,-1,5,-1,-1,-1,-1,,5000,0,1,3,FEW 15   BKN 30   BKN 50,1,4,1,3,1021,RJNK 181300Z 18005KT 5000 BR FEW015 BKN030 BKN050 04/03 Q1021     RMK 1SC015 6SC030 7SC050 A3015=,BR
20180118_130000.002,0,RJNK,,,,0,20180118130000,-1,-1,-1,-1,180,-1,5,-1,-1,-1,-1,,5000,0,1,3,FEW 15   BKN 30   BKN 50,1,4,1,3,1021,RJNK 181300Z 18005KT 5000 BR FEW015 BKN030 BKN050 04/03 Q1021     RMK 1SC015 6SC030 7SC050 A3015=,BR
20180118_140000.000,0,RJNK,,,,0,20180118140000,-1,-1,-1,-1,999,-1,2,-1,-1,-1,-1,,5000,0,2,2,FEW 15   BKN 30,1,4,1,4,1021,RJNK 181400Z VRB02KT 5000 BR MIFG FEW015 BKN030 04/04 Q1021 RMK     1SC015 7SC030 A3017=,BR; MI FG
20180118_140000.002,0,RJNK,,,,0,20180118140000,-1,-1,-1,-1,999,-1,2,-1,-1,-1,-1,,5000,0,2,2,FEW 15   BKN 30,1,4,1,4,1021,RJNK 181400Z VRB02KT 5000 BR MIFG FEW015 BKN030 04/04 Q1021     RMK 1SC015 7SC030 A3017=,BR; MI FG
20180118_150000.000,0,RJNK,,,,0,20180118150000,-1,-1,-1,-1,999,-1,4,-1,-1,-1,-1,,5000,0,1,2,FEW 15   OVC 30,1,4,1,3,1022,RJNK 181500Z VRB04KT 5000 BR FEW015 OVC030 04/03 Q1022 RMK     1SC015 8SC030 A3019=,BR
20180118_150000.002,0,RJNK,,,,0,20180118150000,-1,-1,-1,-1,999,-1,4,-1,-1,-1,-1,,5000,0,1,2,FEW 15   OVC 30,1,4,1,3,1022,RJNK 181500Z VRB04KT 5000 BR FEW015 OVC030 04/03 Q1022 RMK     1SC015 8SC030 A3019=,BR
20180118_160000.000,0,RJNK,,,,0,20180118160000,-1,-1,-1,-1,230,-1,3,-1,-1,180,260,,8000,0,0,2,FEW 15   OVC 30,1,4,1,2,1022,RJNK 181600Z 23003KT 180V260 8000 FEW015 OVC030 04/02 Q1022 RMK     1SC015 8SC030 A3019=,
20180118_160000.002,0,RJNK,,,,0,20180118160000,-1,-1,-1,-1,230,-1,3,-1,-1,180,260,,8000,0,0,2,FEW 15   OVC 30,1,4,1,2,1022,RJNK 181600Z 23003KT 180V260 8000 FEW015 OVC030 04/02 Q1022     RMK 1SC015 8SC030 A3019=,
20180118_170000.000,0,RJNK,,,,0,20180118170000,-1,-1,-1,-1,999,-1,1,-1,-1,-1,-1,,8000,0,0,2,FEW 15   OVC 30,1,4,1,3,1022,RJNK 181700Z VRB01KT 8000 FEW015 OVC030 04/03 Q1022 RMK 1CU015     8CU030 A3018=,
20180118_170000.002,0,RJNK,,,,0,20180118170000,-1,-1,-1,-1,999,-1,1,-1,-1,-1,-1,,8000,0,0,2,FEW 15   OVC 30,1,4,1,3,1022,RJNK 181700Z VRB01KT 8000 FEW015 OVC030 04/03 Q1022 RMK 1CU015     8CU030 A3018=,
20180118_180000.000,0,RJNK,,,,0,20180118180000,-1,-1,-1,-1,60,-1,3,-1,-1,-1,-1,,5000,0,2,2,FEW 15   OVC 30,1,3,1,2,1022,RJNK 181800Z 06003KT 5000 BR MIFG FEW015 OVC030 03/02 Q1022 RMK     1CU015 8CU030 A3018=,BR; MI FG
20180118_180000.002,0,RJNK,,,,0,20180118180000,-1,-1,-1,-1,60,-1,3,-1,-1,-1,-1,,5000,0,2,2,FEW 15   OVC 30,1,3,1,2,1022,RJNK 181800Z 06003KT 5000 BR MIFG FEW015 OVC030 03/02 Q1022     RMK 1CU015 8CU030 A3018=,BR; MI FG
20180118_190000.000,0,RJNK,,,,0,20180118190000,-1,-1,-1,-1,60,-1,4,-1,-1,-1,-1,,9999,0,0,2,FEW 15   BKN 30,1,3,1,2,1021,RJNK 181900Z 06004KT 9999 FEW015 BKN030 03/02 Q1021 RMK 1CU015     7CU030 A3016=,
20180118_190000.002,0,RJNK,,,,0,20180118190000,-1,-1,-1,-1,60,-1,4,-1,-1,-1,-1,,9999,0,0,2,FEW 15   BKN 30,1,3,1,2,1021,RJNK 181900Z 06004KT 9999 FEW015 BKN030 03/02 Q1021 RMK 1CU015     7CU030 A3016=,
20180118_200000.000,0,RJNK,,,,0,20180118200000,-1,-1,-1,-1,50,-1,8,-1,-1,-1,-1,,9999,0,1,3,FEW 15   BKN 30   BKN 50,1,4,1,0,1021,RJNK 182000Z 05008KT 9999 -SHRA FEW015 BKN030 BKN050 04/00     Q1021 RMK 1CU015 5CU030 7SC050 A3017=,- RA SH
20180118_200000.002,0,RJNK,,,,0,20180118200000,-1,-1,-1,-1,50,-1,8,-1,-1,-1,-1,,9999,0,1,3,FEW 15   BKN 30   BKN 50,1,4,1,0,1021,RJNK 182000Z 05008KT 9999 -SHRA FEW015 BKN030 BKN050 04/00     Q1021 RMK 1CU015 5CU030 7SC050 A3017=,- RA SH
20180118_210000.000,0,RJNK,,,,0,20180118210000,-1,-1,-1,-1,60,-1,6,-1,-1,-1,-1,,9999,0,0,3,FEW 15   BKN 50   BKN -9999,1,3,-1,1,1022,RJNK 182100Z 06006KT 9999 FEW015 BKN050 BKN/// 03/M01 Q1022 RMK     1CU015 6SC050 A3018 10/02 R002 SD013=,
20180118_210000.003,0,RJNK,,,,0,20180118210000,-1,-1,-1,-1,60,-1,6,-1,-1,-1,-1,,9999,0,0,3,FEW 15   BKN 50   BKN -9999,1,3,-1,1,1022,RJNK 182100Z 06006KT 9999 FEW015 BKN050 BKN/// 03/M01 Q1022     RMK 1CU015 6SC050 A3018 10/02 R002 SD013=,
20180118_220000.000,0,RJNK,,,,0,20180118220000,-1,-1,-1,-1,40,-1,8,-1,-1,-1,-1,,9999,0,0,2,FEW 15   BKN 50,1,3,-1,1,1022,RJNK 182200Z 04008KT 9999 FEW015 BKN050 03/M01 Q1022 RMK 1CU015     6SC050 A3020=,
20180118_220000.002,0,RJNK,,,,0,20180118220000,-1,-1,-1,-1,40,-1,8,-1,-1,-1,-1,,9999,0,0,2,FEW 15   BKN 50,1,3,-1,1,1022,RJNK 182200Z 04008KT 9999 FEW015 BKN050 03/M01 Q1022 RMK     1CU015 6SC050 A3020=,
20180118_230000.000,0,RJNK,,,,0,20180118230000,-1,-1,-1,-1,40,-1,10,-1,-1,-1,-1,,9999,0,0,3,FEW 15   SCT 50   BKN 210,1,3,-1,3,1022,RJNK 182300Z 04010KT 9999 FEW015 SCT050 BKN210 03/M03 Q1022 RMK     1CU015 4SC050 A3020=,
20180118_230000.001,2,RJNK,,,,0,20180118230000,-1,-1,-1,-1,40,-1,10,-1,-1,-1,-1,,9999,0,0,3,FEW 15   SCT 50   BKN 210,1,3,-1,3,1022,RJNK 182300Z 04010KT 9999 FEW015 SCT050 BKN210 03/M03 Q1022     RMK 1CU015 4SC050 A3020=,
20180118_230000.003,0,RJNK,,,,0,20180118230000,-1,-1,-1,-1,40,-1,10,-1,-1,-1,-1,,9999,0,0,3,FEW 15   SCT 50   BKN 210,1,3,-1,3,1022,RJNK 182300Z 04010KT 9999 FEW015 SCT050 BKN210 03/M03     Q1022 RMK 1CU015 4SC050 A3020=,
20180119_000000.000,0,RJNK,,,,0,20180119000000,-1,-1,-1,-1,40,-1,12,-1,-1,-1,-1,,9999,0,0,2,FEW 15   SCT 210,1,4,-1,3,1022,RJNK 190000Z 04012KT 9999 FEW015 SCT210 04/M03 Q1022 RMK 1CU015     A3020=,
20180119_000000.002,0,RJNK,,,,0,20180119000000,-1,-1,-1,-1,40,-1,12,-1,-1,-1,-1,,9999,0,0,2,FEW 15   SCT 210,1,4,-1,3,1022,RJNK 190000Z 04012KT 9999 FEW015 SCT210 04/M03 Q1022 RMK     1CU015 A3020=,
20180119_010000.000,0,RJNK,,,,0,20180119010000,-1,-1,-1,-1,40,-1,12,-1,-1,-1,-1,,9999,0,0,1,FEW 20,1,4,-1,4,1022,RJNK 190100Z 04012KT 9999 FEW020 04/M04 Q1022 RMK 1CU020 A3020=,
20180119_010000.003,0,RJNK,,,,0,20180119010000,-1,-1,-1,-1,40,-1,12,-1,-1,-1,-1,,9999,0,0,1,FEW 20,1,4,-1,4,1022,RJNK 190100Z 04012KT 9999 FEW020 04/M04 Q1022 RMK 1CU020     A3020=,
20180119_020000.000,0,RJNK,,,,0,20180119020000,-1,-1,-1,-1,30,-1,13,-1,-1,-1,-1,,9999,0,0,1,FEW 20,1,5,-1,4,1023,RJNK 190200Z 03013KT 9999 FEW020 05/M04 Q1023 RMK 1CU020 A3021=,
20180119_020000.002,0,RJNK,,,,0,20180119020000,-1,-1,-1,-1,30,-1,13,-1,-1,-1,-1,,9999,0,0,1,FEW 20,1,5,-1,4,1023,RJNK 190200Z 03013KT 9999 FEW020 05/M04 Q1023 RMK 1CU020     A3021=,
20180119_030000.000,0,RJNK,,,,0,20180119030000,-1,-1,-1,-1,20,-1,11,-1,-1,360,60,,9999,0,0,1,FEW 30,1,6,-1,3,1022,RJNK 190300Z 02011KT 360V060 9999 FEW030 06/M03 Q1022 RMK     1CU030 A3018=,
20180119_030000.002,0,RJNK,,,,0,20180119030000,-1,-1,-1,-1,20,-1,11,-1,-1,360,60,,9999,0,0,1,FEW 30,1,6,-1,3,1022,RJNK 190300Z 02011KT 360V060 9999 FEW030 06/M03 Q1022 RMK     1CU030 A3018=,
20180119_040000.000,0,RJNK,,,,0,20180119040000,-1,-1,-1,-1,30,-1,11,-1,-1,-1,-1,,9999,0,0,2,FEW 30   SCT 210,1,6,-1,3,1021,RJNK 190400Z 03011KT 9999 FEW030 SCT210 06/M03 Q1021 RMK 1CU030     A3016=,
20180119_040000.002,0,RJNK,,,,0,20180119040000,-1,-1,-1,-1,30,-1,11,-1,-1,-1,-1,,9999,0,0,2,FEW 30   SCT 210,1,6,-1,3,1021,RJNK 190400Z 03011KT 9999 FEW030 SCT210 06/M03 Q1021 RMK     1CU030 A3016=,
20180119_050000.000,0,RJNK,,,,0,20180119050000,-1,-1,-1,-1,10,-1,10,-1,-1,340,40,,9999,0,0,1,FEW 30,1,6,-1,3,1021,RJNK 190500Z 01010KT 340V040 9999 FEW030 06/M03 Q1021 RMK     1CU030 A3015=,
20180119_050000.003,0,RJNK,,,,0,20180119050000,-1,-1,-1,-1,10,-1,10,-1,-1,340,40,,9999,0,0,1,FEW 30,1,6,-1,3,1021,RJNK 190500Z 01010KT 340V040 9999 FEW030 06/M03 Q1021 RMK     1CU030 A3015=,
20180119_060000.000,0,RJNK,,,,0,20180119060000,-1,-1,-1,-1,20,-1,10,-1,-1,-1,-1,,9999,0,0,2,FEW 30   BKN 200,1,6,-1,3,1020,RJNK 190600Z 02010KT 9999 FEW030 BKN200 06/M03 Q1020 RMK 1CU030     A3013=,
20180119_060000.002,0,RJNK,,,,0,20180119060000,-1,-1,-1,-1,20,-1,10,-1,-1,-1,-1,,9999,0,0,2,FEW 30   BKN 200,1,6,-1,3,1020,RJNK 190600Z 02010KT 9999 FEW030 BKN200 06/M03 Q1020 RMK     1CU030 A3013=,
20180119_070000.000,0,RJNK,,,,0,20180119070000,-1,-1,-1,-1,50,-1,10,-1,-1,-1,-1,,9999,0,0,2,FEW 30   BKN 200,1,5,-1,3,1019,RJNK 190700Z 05010KT 9999 FEW030 BKN200 05/M03 Q1019 RMK 1CU030     A3011=,
20180119_070000.002,0,RJNK,,,,0,20180119070000,-1,-1,-1,-1,50,-1,10,-1,-1,-1,-1,,9999,0,0,2,FEW 30   BKN 200,1,5,-1,3,1019,RJNK 190700Z 05010KT 9999 FEW030 BKN200 05/M03 Q1019 RMK     1CU030 A3011=,
20180119_080000.000,0,RJNK,,,,0,20180119080000,-1,-1,-1,-1,40,-1,10,-1,-1,-1,-1,,9999,0,0,2,FEW 30   BKN 200,1,5,-1,3,1020,RJNK 190800Z 04010KT 9999 FEW030 BKN200 05/M03 Q1020 RMK 1CU030     A3013=,
20180119_080000.002,0,RJNK,,,,0,20180119080000,-1,-1,-1,-1,40,-1,10,-1,-1,-1,-1,,9999,0,0,2,FEW 30   BKN 200,1,5,-1,3,1020,RJNK 190800Z 04010KT 9999 FEW030 BKN200 05/M03 Q1020 RMK     1CU030 A3013=,
20180119_090000.000,0,RJNK,,,,0,20180119090000,-1,-1,-1,-1,50,-1,9,-1,-1,-1,-1,,9999,0,0,2,FEW 30   BKN -9999,1,4,-1,3,1019,RJNK 190900Z 05009KT 9999 FEW030 BKN/// 04/M03 Q1019 RMK 1CU030     A3011=,
20180119_090000.003,0,RJNK,,,,0,20180119090000,-1,-1,-1,-1,50,-1,9,-1,-1,-1,-1,,9999,0,0,2,FEW 30   BKN -9999,1,4,-1,3,1019,RJNK 190900Z 05009KT 9999 FEW030 BKN/// 04/M03 Q1019 RMK     1CU030 A3011=,
20180119_100000.000,0,RJNK,,,,0,20180119100000,-1,-1,-1,-1,60,-1,4,-1,-1,-1,-1,,9999,0,0,2,FEW 30   BKN -9999,1,3,-1,3,1019,RJNK 191000Z 06004KT 9999 FEW030 BKN/// 03/M03 Q1019 RMK 1CU030     A3010=,
20180119_100000.002,0,RJNK,,,,0,20180119100000,-1,-1,-1,-1,60,-1,4,-1,-1,-1,-1,,9999,0,0,2,FEW 30   BKN -9999,1,3,-1,3,1019,RJNK 191000Z 06004KT 9999 FEW030 BKN/// 03/M03 Q1019 RMK     1CU030 A3010=,
20180119_110000.000,0,RJNK,,,,0,20180119110000,-1,-1,-1,-1,120,-1,2,-1,-1,-1,-1,,9999,0,0,2,FEW 30   BKN -9999,1,2,-1,1,1019,RJNK 191100Z 12002KT 9999 FEW030 BKN/// 02/M01 Q1019 RMK 1CU030     A3011=,
20180119_110000.002,0,RJNK,,,,0,20180119110000,-1,-1,-1,-1,120,-1,2,-1,-1,-1,-1,,9999,0,0,2,FEW 30   BKN -9999,1,2,-1,1,1019,RJNK 191100Z 12002KT 9999 FEW030 BKN/// 02/M01 Q1019 RMK     1CU030 A3011=,
20180119_120000.000,0,RJNK,,,,0,20180119120000,-1,-1,-1,-1,170,-1,3,-1,-1,-1,-1,,9999,0,0,1,BKN -9999,1,2,-1,1,1020,RJNK 191200Z 17003KT 9999 BKN/// 02/M01 Q1020 RMK A3012=,
20180119_120000.003,0,RJNK,,,,0,20180119120000,-1,-1,-1,-1,170,-1,3,-1,-1,-1,-1,,9999,0,0,1,BKN -9999,1,2,-1,1,1020,RJNK 191200Z 17003KT 9999 BKN/// 02/M01 Q1020 RMK A3012=,
20180119_130000.000,0,RJNK,,,,0,20180119130000,-1,-1,-1,-1,160,-1,3,-1,-1,-1,-1,,9999,0,0,1,BKN -9999,1,1,-1,1,1020,RJNK 191300Z 16003KT 9999 BKN/// 01/M01 Q1020 RMK A3012=,
20180119_130000.002,0,RJNK,,,,0,20180119130000,-1,-1,-1,-1,160,-1,3,-1,-1,-1,-1,,9999,0,0,1,BKN -9999,1,1,-1,1,1020,RJNK 191300Z 16003KT 9999 BKN/// 01/M01 Q1020 RMK A3012=,
20180119_140000.000,0,RJNK,,,,0,20180119140000,-1,-1,-1,-1,160,-1,4,-1,-1,-1,-1,,9999,0,0,1,BKN -9999,1,0,-1,1,1019,RJNK 191400Z 16004KT 9999 BKN/// 00/M01 Q1019 RMK A3011=,
20180119_140000.002,0,RJNK,,,,0,20180119140000,-1,-1,-1,-1,160,-1,4,-1,-1,-1,-1,,9999,0,0,1,BKN -9999,1,0,-1,1,1019,RJNK 191400Z 16004KT 9999 BKN/// 00/M01 Q1019 RMK A3011=,
20180119_150000.000,0,RJNK,,,,0,20180119150000,-1,-1,-1,-1,120,-1,4,-1,-1,-1,-1,,9999,0,0,1,NSC -1,1,0,-1,3,1018,RJNK 191500Z 12004KT 9999 NSC 00/M03 Q1018 RMK A3009=,
20180119_150000.002,0,RJNK,,,,0,20180119150000,-1,-1,-1,-1,120,-1,4,-1,-1,-1,-1,,9999,0,0,1,NSC -1,1,0,-1,3,1018,RJNK 191500Z 12004KT 9999 NSC 00/M03 Q1018 RMK A3009=,
20180119_160000.000,0,RJNK,,,,0,20180119160000,-1,-1,-1,-1,999,-1,2,-1,-1,-1,-1,,9999,0,0,1,NSC -1,-1,0,-1,2,1018,RJNK 191600Z VRB02KT 9999 NSC M00/M02 Q1018 RMK A3008=,
20180119_160000.002,0,RJNK,,,,0,20180119160000,-1,-1,-1,-1,999,-1,2,-1,-1,-1,-1,,9999,0,0,1,NSC -1,-1,0,-1,2,1018,RJNK 191600Z VRB02KT 9999 NSC M00/M02 Q1018 RMK A3008=,
20180119_170000.000,0,RJNK,,,,0,20180119170000,-1,-1,-1,-1,130,-1,8,-1,-1,-1,-1,,9999,0,0,1,NSC -1,1,1,-1,4,1017,RJNK 191700Z 13008KT 9999 NSC 01/M04 Q1017 RMK A3005=,
20180119_170000.002,0,RJNK,,,,0,20180119170000,-1,-1,-1,-1,130,-1,8,-1,-1,-1,-1,,9999,0,0,1,NSC -1,1,1,-1,4,1017,RJNK 191700Z 13008KT 9999 NSC 01/M04 Q1017 RMK A3005=,
20180119_180000.000,0,RJNK,,,,0,20180119180000,-1,-1,-1,-1,180,-1,2,-1,-1,-1,-1,,9999,0,0,1,NSC -1,-1,0,-1,3,1017,RJNK 191800Z 18002KT 9999 NSC M00/M03 Q1017 RMK A3006=,
20180119_180000.003,0,RJNK,,,,0,20180119180000,-1,-1,-1,-1,180,-1,2,-1,-1,-1,-1,,9999,0,0,1,NSC -1,-1,0,-1,3,1017,RJNK 191800Z 18002KT 9999 NSC M00/M03 Q1017 RMK A3006=,
20180119_190000.000,0,RJNK,,,,0,20180119190000,-1,-1,-1,-1,999,-1,2,-1,-1,-1,-1,,9999,0,0,1,FEW 70,1,0,-1,4,1017,RJNK 191900Z VRB02KT 9999 FEW070 00/M04 Q1017 RMK 2AC070 A3003=,
20180119_190000.003,0,RJNK,,,,0,20180119190000,-1,-1,-1,-1,999,-1,2,-1,-1,-1,-1,,9999,0,0,1,FEW 70,1,0,-1,4,1017,RJNK 191900Z VRB02KT 9999 FEW070 00/M04 Q1017 RMK 2AC070     A3003=,
20180119_200000.000,0,RJNK,,,,0,20180119200000,-1,-1,-1,-1,0,-1,0,-1,-1,-1,-1,,9999,0,0,1,FEW 70,-1,1,-1,5,1017,RJNK 192000Z 00000KT 9999 FEW070 M01/M05 Q1017 RMK 2AC070     A3004=,
20180119_200000.002,0,RJNK,,,,0,20180119200000,-1,-1,-1,-1,0,-1,0,-1,-1,-1,-1,,9999,0,0,1,FEW 70,-1,1,-1,5,1017,RJNK 192000Z 00000KT 9999 FEW070 M01/M05 Q1017 RMK 2AC070     A3004=,
20180119_210000.000,0,RJNK,,,,0,20180119210000,-1,-1,-1,-1,120,-1,3,-1,-1,-1,-1,,9999,0,0,1,BKN 70,1,0,-1,4,1017,RJNK 192100Z 12003KT 9999 BKN070 00/M04 Q1017 RMK 6AC070 A3004     07/M03 SD009=,
20180119_210000.002,0,RJNK,,,,0,20180119210000,-1,-1,-1,-1,120,-1,3,-1,-1,-1,-1,,9999,0,0,1,BKN 70,1,0,-1,4,1017,RJNK 192100Z 12003KT 9999 BKN070 00/M04 Q1017 RMK 6AC070 A3004     07/M03 SD009=,
20180119_220000.000,0,RJNK,,,,0,20180119220000,-1,-1,-1,-1,170,-1,5,-1,-1,-1,-1,,9999,0,0,2,FEW 30   BKN 60,1,1,-1,4,1017,RJNK 192200Z 17005KT 9999 FEW030 BKN060 01/M04 Q1017 RMK 1CU030     6SC060 A3004=,
20180119_220000.002,0,RJNK,,,,0,20180119220000,-1,-1,-1,-1,170,-1,5,-1,-1,-1,-1,,9999,0,0,2,FEW 30   BKN 60,1,1,-1,4,1017,RJNK 192200Z 17005KT 9999 FEW030 BKN060 01/M04 Q1017 RMK     1CU030 6SC060 A3004=,
20180119_230000.000,0,RJNK,,,,0,20180119230000,-1,-1,-1,-1,180,-1,6,-1,-1,-1,-1,,9999,0,0,2,FEW 30   SCT 50,1,2,-1,3,1017,RJNK 192300Z 18006KT 9999 FEW030 SCT050 02/M03 Q1017 RMK 1CU030     3SC050 A3004=,
20180119_230000.002,0,RJNK,,,,0,20180119230000,-1,-1,-1,-1,180,-1,6,-1,-1,-1,-1,,9999,0,0,2,FEW 30   SCT 50,1,2,-1,3,1017,RJNK 192300Z 18006KT 9999 FEW030 SCT050 02/M03 Q1017 RMK     1CU030 3SC050 A3004=,
20180120_000000.000,0,RJNK,,,,0,20180120000000,-1,-1,-1,-1,200,-1,7,-1,-1,-1,-1,,9999,0,1,3,FEW 20   BKN 30   BKN 50,1,6,-1,3,1017,RJNK 200000Z 20007KT 9999 -SHRA FEW020 BKN030 BKN050 06/M03     Q1017 RMK 1CU020 5CU030 6SC050 A3005=,- RA SH
20180120_000000.002,0,RJNK,,,,0,20180120000000,-1,-1,-1,-1,200,-1,7,-1,-1,-1,-1,,9999,0,1,3,FEW 20   BKN 30   BKN 50,1,6,-1,3,1017,RJNK 200000Z 20007KT 9999 -SHRA FEW020 BKN030 BKN050 06/M03     Q1017 RMK 1CU020 5CU030 6SC050 A3005=,- RA SH
20180120_010000.000,0,RJNK,,,,0,20180120010000,-1,-1,-1,-1,230,-1,8,-1,-1,-1,-1,,5000,0,1,3,FEW 20   BKN 30   BKN 50,1,5,1,3,1018,RJNK 200100Z 23008KT 5000 -SHRA FEW020 BKN030 BKN050 05/03     Q1018 RMK 1CU020 5CU030 7SC050 A3009=,- RA SH
20180120_010000.002,0,RJNK,,,,0,20180120010000,-1,-1,-1,-1,230,-1,8,-1,-1,-1,-1,,5000,0,1,3,FEW 20   BKN 30   BKN 50,1,5,1,3,1018,RJNK 200100Z 23008KT 5000 -SHRA FEW020 BKN030 BKN050 05/03     Q1018 RMK 1CU020 5CU030 7SC050 A3009=,- RA SH
20180120_020000.000,0,RJNK,,,,0,20180120020000,-1,-1,-1,-1,160,-1,6,-1,-1,-1,-1,,9999,0,1,2,FEW 20   BKN 30,1,5,1,3,1018,RJNK 200200Z 16006KT 9999 -SHRA FEW020 BKN030 05/03 Q1018 RMK     1CU020 6CU030 A3009=,- RA SH
20180120_020000.003,0,RJNK,,,,0,20180120020000,-1,-1,-1,-1,160,-1,6,-1,-1,-1,-1,,9999,0,1,2,FEW 20   BKN 30,1,5,1,3,1018,RJNK 200200Z 16006KT 9999 -SHRA FEW020 BKN030 05/03 Q1018 RMK     1CU020 6CU030 A3009=,- RA SH
20180120_030000.000,0,RJNK,,,,0,20180120030000,-1,-1,-1,-1,180,-1,6,-1,-1,-1,-1,,9999,0,0,2,FEW 20   BKN 30,1,6,1,4,1018,RJNK 200300Z 18006KT 9999 FEW020 BKN030 06/04 Q1018 RMK 1CU020     5CU030 A3006=,
20180120_030000.002,0,RJNK,,,,0,20180120030000,-1,-1,-1,-1,180,-1,6,-1,-1,-1,-1,,9999,0,0,2,FEW 20   BKN 30,1,6,1,4,1018,RJNK 200300Z 18006KT 9999 FEW020 BKN030 06/04 Q1018 RMK 1CU020     5CU030 A3006=,
20180120_040000.000,0,RJNK,,,,0,20180120040000,-1,-1,-1,-1,200,-1,7,-1,-1,-1,-1,,9999,0,0,3,FEW 20   SCT 30   BKN 50,1,8,1,3,1018,RJNK 200400Z 20007KT 9999 FEW020 SCT030 BKN050 08/03 Q1018 RMK     1CU020 4CU030 5SC050 A3008=,
20180120_040000.002,0,RJNK,,,,0,20180120040000,-1,-1,-1,-1,200,-1,7,-1,-1,-1,-1,,9999,0,0,3,FEW 20   SCT 30   BKN 50,1,8,1,3,1018,RJNK 200400Z 20007KT 9999 FEW020 SCT030 BKN050 08/03 Q1018 RMK     1CU020 4CU030 5SC050 A3008=,
20180120_050000.000,0,RJNK,,,,0,20180120050000,-1,-1,-1,-1,250,-1,9,-1,-1,-1,-1,,9999,0,0,3,FEW 20   SCT 30   BKN 50,1,8,1,0,1018,RJNK 200500Z 25009KT 9999 FEW020 SCT030 BKN050 08/00 Q1018 RMK     1CU020 3CU030 5SC050 A3008=,
20180120_050000.002,0,RJNK,,,,0,20180120050000,-1,-1,-1,-1,250,-1,9,-1,-1,-1,-1,,9999,0,0,3,FEW 20   SCT 30   BKN 50,1,8,1,0,1018,RJNK 200500Z 25009KT 9999 FEW020 SCT030 BKN050 08/00 Q1018 RMK     1CU020 3CU030 5SC050 A3008=,
20180120_060000.000,0,RJNK,,,,0,20180120060000,-1,-1,-1,-1,250,-1,9,-1,-1,-1,-1,,9999,0,0,2,FEW 30   BKN 60,1,7,-1,2,1019,RJNK 200600Z 25009KT 9999 FEW030 BKN060 07/M02 Q1019 RMK 1CU030     6SC060 A3010=,
20180120_060000.002,0,RJNK,,,,0,20180120060000,-1,-1,-1,-1,250,-1,9,-1,-1,-1,-1,,9999,0,0,2,FEW 30   BKN 60,1,7,-1,2,1019,RJNK 200600Z 25009KT 9999 FEW030 BKN060 07/M02 Q1019 RMK     1CU030 6SC060 A3010=,
20180120_070000.000,0,RJNK,,,,0,20180120070000,-1,-1,-1,-1,240,-1,3,-1,-1,190,270,,9999,0,1,3,FEW 20   SCT 30   BKN 60,1,8,-1,2,1018,RJNK 200700Z 24003KT 190V270 9999 -SHRA FEW020 SCT030 BKN060     08/M02 Q1018 RMK 1CU020 3CU030 6SC060 A3009=,- RA SH
20180120_070000.002,0,RJNK,,,,0,20180120070000,-1,-1,-1,-1,240,-1,3,-1,-1,190,270,,9999,0,1,3,FEW 20   SCT 30   BKN 60,1,8,-1,2,1018,RJNK 200700Z 24003KT 190V270 9999 -SHRA FEW020 SCT030 BKN060     08/M02 Q1018 RMK 1CU020 3CU030 6SC060 A3009=,- RA SH
20180120_080000.000,0,RJNK,,,,0,20180120080000,-1,-1,-1,-1,270,-1,6,-1,-1,-1,-1,,9999,0,0,3,FEW 20   SCT 30   BKN 60,1,8,-1,2,1019,RJNK 200800Z 27006KT 9999 FEW020 SCT030 BKN060 08/M02 Q1019 RMK     1CU020 3CU030 6SC060 A3009=,
20180120_080000.002,0,RJNK,,,,0,20180120080000,-1,-1,-1,-1,270,-1,6,-1,-1,-1,-1,,9999,0,0,3,FEW 20   SCT 30   BKN 60,1,8,-1,2,1019,RJNK 200800Z 27006KT 9999 FEW020 SCT030 BKN060 08/M02 Q1019     RMK 1CU020 3CU030 6SC060 A3009=,
20180120_090000.000,0,RJNK,,,,0,20180120090000,-1,-1,-1,-1,270,-1,5,-1,-1,190,300,,9999,0,0,3,FEW 20   SCT 30   BKN 60,1,7,-1,3,1019,RJNK 200900Z 27005KT 190V300 9999 FEW020 SCT030 BKN060 07/M03     Q1019 RMK 1CU020 3CU030 6SC060 A3009=,
20180120_090000.002,0,RJNK,,,,0,20180120090000,-1,-1,-1,-1,270,-1,5,-1,-1,190,300,,9999,0,0,3,FEW 20   SCT 30   BKN 60,1,7,-1,3,1019,RJNK 200900Z 27005KT 190V300 9999 FEW020 SCT030 BKN060 07/M03     Q1019 RMK 1CU020 3CU030 6SC060 A3009=,
20180120_100000.000,0,RJNK,,,,0,20180120100000,-1,-1,-1,-1,180,-1,5,-1,-1,-1,-1,,9999,0,0,2,FEW 20   BKN 60,1,4,1,1,1019,RJNK 201000Z 18005KT 9999 FEW020 BKN060 04/01 Q1019 RMK 1CU020     6SC060 A3012=,
20180120_100000.002,0,RJNK,,,,0,20180120100000,-1,-1,-1,-1,180,-1,5,-1,-1,-1,-1,,9999,0,0,2,FEW 20   BKN 60,1,4,1,1,1019,RJNK 201000Z 18005KT 9999 FEW020 BKN060 04/01 Q1019 RMK 1CU020     6SC060 A3012=,
20180120_110000.000,0,RJNK,,,,0,20180120110000,-1,-1,-1,-1,170,-1,4,-1,-1,-1,-1,,9999,0,0,2,FEW 20   BKN 60,1,4,1,1,1020,RJNK 201100Z 17004KT 9999 FEW020 BKN060 04/01 Q1020 RMK 1CU020     6SC060 A3013=,
20180120_110000.002,0,RJNK,,,,0,20180120110000,-1,-1,-1,-1,170,-1,4,-1,-1,-1,-1,,9999,0,0,2,FEW 20   BKN 60,1,4,1,1,1020,RJNK 201100Z 17004KT 9999 FEW020 BKN060 04/01 Q1020 RMK 1CU020     6SC060 A3013=,
20180120_120000.000,0,RJNK,,,,0,20180120120000,-1,-1,-1,-1,180,-1,6,-1,-1,-1,-1,,9999,0,0,2,FEW 20   BKN 60,1,4,-1,0,1020,RJNK 201200Z 18006KT 9999 FEW020 BKN060 04/M00 Q1020 RMK 1CU020     6SC060 A3012=,
20180120_120000.002,0,RJNK,,,,0,20180120120000,-1,-1,-1,-1,180,-1,6,-1,-1,-1,-1,,9999,0,0,2,FEW 20   BKN 60,1,4,-1,0,1020,RJNK 201200Z 18006KT 9999 FEW020 BKN060 04/M00 Q1020 RMK     1CU020 6SC060 A3012=,
20180120_130000.000,0,RJNK,,,,0,20180120130000,-1,-1,-1,-1,190,-1,5,-1,-1,-1,-1,,9999,0,0,2,FEW 30   BKN 50,1,3,-1,0,1019,RJNK 201300Z 19005KT 9999 FEW030 BKN050 03/M00 Q1019 RMK 1CU030     6SC050 A3011=,
20180120_130000.002,0,RJNK,,,,0,20180120130000,-1,-1,-1,-1,190,-1,5,-1,-1,-1,-1,,9999,0,0,2,FEW 30   BKN 50,1,3,-1,0,1019,RJNK 201300Z 19005KT 9999 FEW030 BKN050 03/M00 Q1019 RMK     1CU030 6SC050 A3011=,
20180120_140000.000,0,RJNK,,,,0,20180120140000,-1,-1,-1,-1,999,-1,1,-1,-1,-1,-1,,9999,0,1,3,FEW 20   SCT 30   BKN 50,1,3,-1,0,1019,RJNK 201400Z VRB01KT 9999 -SHRA FEW020 SCT030 BKN050 03/M00     Q1019 RMK 1CU020 3CU030 7SC050 A3010=,- RA SH
20180120_140000.002,0,RJNK,,,,0,20180120140000,-1,-1,-1,-1,999,-1,1,-1,-1,-1,-1,,9999,0,1,3,FEW 20   SCT 30   BKN 50,1,3,-1,0,1019,RJNK 201400Z VRB01KT 9999 -SHRA FEW020 SCT030 BKN050 03/M00     Q1019 RMK 1CU020 3CU030 7SC050 A3010=,- RA SH
20180120_150000.000,0,RJNK,,,,0,20180120150000,-1,-1,-1,-1,999,-1,2,-1,-1,-1,-1,,9999,0,0,3,FEW 20   SCT 30   BKN 50,1,3,1,0,1019,RJNK 201500Z VRB02KT 9999 FEW020 SCT030 BKN050 03/00 Q1019 RMK     1CU020 4CU030 7SC050 A3010=,
20180120_150000.002,0,RJNK,,,,0,20180120150000,-1,-1,-1,-1,999,-1,2,-1,-1,-1,-1,,9999,0,0,3,FEW 20   SCT 30   BKN 50,1,3,1,0,1019,RJNK 201500Z VRB02KT 9999 FEW020 SCT030 BKN050 03/00 Q1019 RMK     1CU020 4CU030 7SC050 A3010=,
20180120_160000.000,0,RJNK,,,,0,20180120160000,-1,-1,-1,-1,999,-1,2,-1,-1,-1,-1,,9999,0,0,3,FEW 20   SCT 30   BKN 50,1,3,1,1,1019,RJNK 201600Z VRB02KT 9999 FEW020 SCT030 BKN050 03/01 Q1019 RMK     1CU020 4CU030 7SC050 A3010=,
20180120_160000.002,0,RJNK,,,,0,20180120160000,-1,-1,-1,-1,999,-1,2,-1,-1,-1,-1,,9999,0,0,3,FEW 20   SCT 30   BKN 50,1,3,1,1,1019,RJNK 201600Z VRB02KT 9999 FEW020 SCT030 BKN050 03/01 Q1019 RMK     1CU020 4CU030 7SC050 A3010=,
20180120_170000.000,0,RJNK,,,,0,20180120170000,-1,-1,-1,-1,999,-1,2,-1,-1,-1,-1,,9999,0,0,2,FEW 30   BKN 50,1,3,1,1,1019,RJNK 201700Z VRB02KT 9999 FEW030 BKN050 03/01 Q1019 RMK 2CU030     6SC050 A3010=,
20180120_170000.002,0,RJNK,,,,0,20180120170000,-1,-1,-1,-1,999,-1,2,-1,-1,-1,-1,,9999,0,0,2,FEW 30   BKN 50,1,3,1,1,1019,RJNK 201700Z VRB02KT 9999 FEW030 BKN050 03/01 Q1019 RMK 2CU030     6SC050 A3010=,
20180120_180000.000,0,RJNK,,,,0,20180120180000,-1,-1,-1,-1,999,-1,2,-1,-1,-1,-1,,9999,0,0,3,FEW 30   SCT 50   BKN 70,1,2,1,1,1018,RJNK 201800Z VRB02KT 9999 FEW030 SCT050 BKN070 02/01 Q1018 RMK     1CU030 3SC050 6AC070 A3009=,
20180120_180000.002,0,RJNK,,,,0,20180120180000,-1,-1,-1,-1,999,-1,2,-1,-1,-1,-1,,9999,0,0,3,FEW 30   SCT 50   BKN 70,1,2,1,1,1018,RJNK 201800Z VRB02KT 9999 FEW030 SCT050 BKN070 02/01 Q1018 RMK     1CU030 3SC050 6AC070 A3009=,
20180120_190000.000,0,RJNK,,,,0,20180120190000,-1,-1,-1,-1,999,-1,1,-1,-1,-1,-1,,9999,0,0,3,FEW 30   SCT 50   BKN 70,1,2,1,1,1018,RJNK 201900Z VRB01KT 9999 FEW030 SCT050 BKN070 02/01 Q1018 RMK     1CU030 3SC050 7AC070 A3008=,
20180120_190000.003,0,RJNK,,,,0,20180120190000,-1,-1,-1,-1,999,-1,1,-1,-1,-1,-1,,9999,0,0,3,FEW 30   SCT 50   BKN 70,1,2,1,1,1018,RJNK 201900Z VRB01KT 9999 FEW030 SCT050 BKN070 02/01 Q1018 RMK     1CU030 3SC050 7AC070 A3008=,
20180120_200000.000,0,RJNK,,,,0,20180120200000,-1,-1,-1,-1,200,-1,4,-1,-1,-1,-1,,9999,0,1,3,SCT 30   BKN 50   BKN 70,1,3,1,1,1018,RJNK 202000Z 20004KT 9999 -SHRA SCT030 BKN050 BKN070 03/01     Q1018 RMK 3CU030 5SC050 7AC070 A3008=,- RA SH
20180120_200000.002,0,RJNK,,,,0,20180120200000,-1,-1,-1,-1,200,-1,4,-1,-1,-1,-1,,9999,0,1,3,SCT 30   BKN 50   BKN 70,1,3,1,1,1018,RJNK 202000Z 20004KT 9999 -SHRA SCT030 BKN050 BKN070 03/01     Q1018 RMK 3CU030 5SC050 7AC070 A3008=,- RA SH
20180120_210000.000,0,RJNK,,,,0,20180120210000,-1,-1,-1,-1,999,-1,2,-1,-1,-1,-1,,9999,0,1,3,FEW 20   BKN 30   BKN 50,1,3,1,1,1018,RJNK 202100Z VRB02KT 9999 -SHRA FEW020 BKN030 BKN050 03/01     Q1018 RMK 1CU020 5CU030 7SC050 A3008 09/02 R002 SD007=,- RA SH
20180120_210000.002,0,RJNK,,,,0,20180120210000,-1,-1,-1,-1,999,-1,2,-1,-1,-1,-1,,9999,0,1,3,FEW 20   BKN 30   BKN 50,1,3,1,1,1018,RJNK 202100Z VRB02KT 9999 -SHRA FEW020 BKN030 BKN050 03/01     Q1018 RMK 1CU020 5CU030 7SC050 A3008 09/02 R002 SD007=,- RA SH
20180120_220000.000,0,RJNK,,,,0,20180120220000,-1,-1,-1,-1,220,-1,8,-1,-1,-1,-1,,9999,0,1,3,FEW 10   BKN 30   BKN 50,1,3,1,1,1018,RJNK 202200Z 22008KT 9999 -SHRA FEW010 BKN030 BKN050 03/01     Q1018 RMK 2CU010 5CU030 7SC050 A3008=,- RA SH
20180120_220000.002,0,RJNK,,,,0,20180120220000,-1,-1,-1,-1,220,-1,8,-1,-1,-1,-1,,9999,0,1,3,FEW 10   BKN 30   BKN 50,1,3,1,1,1018,RJNK 202200Z 22008KT 9999 -SHRA FEW010 BKN030 BKN050 03/01     Q1018 RMK 2CU010 5CU030 7SC050 A3008=,- RA SH
20180120_230000.000,0,RJNK,,,,0,20180120230000,-1,-1,-1,-1,190,-1,3,-1,-1,150,230,,9999,0,0,3,SCT 30   BKN 50   BKN 80,1,3,1,1,1018,RJNK 202300Z 19003KT 150V230 9999 SCT030 BKN050 BKN080 03/01     Q1018 RMK 3CU030 5SC050 7AC080 A3009=,
20180120_230000.002,0,RJNK,,,,0,20180120230000,-1,-1,-1,-1,190,-1,3,-1,-1,150,230,,9999,0,0,3,SCT 30   BKN 50   BKN 80,1,3,1,1,1018,RJNK 202300Z 19003KT 150V230 9999 SCT030 BKN050 BKN080 03/01     Q1018 RMK 3CU030 5SC050 7AC080 A3009=,
20180121_000000.000,0,RJNK,,,,0,20180121000000,-1,-1,-1,-1,180,-1,4,-1,-1,-1,-1,,9999,0,0,3,FEW 30   SCT 80   BKN 240,1,4,1,1,1019,RJNK 210000Z 18004KT 9999 FEW030 SCT080 BKN240 04/01 Q1019 RMK     1CU030 3AC080 A3009=,
20180121_000000.002,0,RJNK,,,,0,20180121000000,-1,-1,-1,-1,180,-1,4,-1,-1,-1,-1,,9999,0,0,3,FEW 30   SCT 80   BKN 240,1,4,1,1,1019,RJNK 210000Z 18004KT 9999 FEW030 SCT080 BKN240 04/01 Q1019 RMK     1CU030 3AC080 A3009=,
20180121_010000.000,0,RJNK,,,,0,20180121010000,-1,-1,-1,-1,200,-1,6,-1,-1,-1,-1,,9999,0,0,3,FEW 30   SCT 50   BKN 80,1,6,1,1,1019,RJNK 210100Z 20006KT 9999 FEW030 SCT050 BKN080 06/01 Q1019 RMK     1CU030 3SC050 6AC080 A3010=,
20180121_010000.002,0,RJNK,,,,0,20180121010000,-1,-1,-1,-1,200,-1,6,-1,-1,-1,-1,,9999,0,0,3,FEW 30   SCT 50   BKN 80,1,6,1,1,1019,RJNK 210100Z 20006KT 9999 FEW030 SCT050 BKN080 06/01 Q1019 RMK     1CU030 3SC050 6AC080 A3010=,
20180121_020000.000,0,RJNK,,,,0,20180121020000,-1,-1,-1,-1,200,-1,6,-1,-1,-1,-1,,9999,0,0,2,FEW 30   BKN 80,1,8,1,1,1018,RJNK 210200Z 20006KT 9999 FEW030 BKN080 08/01 Q1018 RMK 1CU030     7AC080 A3008=,
20180121_020000.002,0,RJNK,,,,0,20180121020000,-1,-1,-1,-1,200,-1,6,-1,-1,-1,-1,,9999,0,0,2,FEW 30   BKN 80,1,8,1,1,1018,RJNK 210200Z 20006KT 9999 FEW030 BKN080 08/01 Q1018 RMK 1CU030     7AC080 A3008=,
20180121_030000.000,0,RJNK,,,,0,20180121030000,-1,-1,-1,-1,220,-1,6,-1,-1,180,250,,9999,0,1,3,FEW 30   BKN 50   BKN 80,1,9,-1,0,1018,RJNK 210300Z 22006KT 180V250 9999 -SHRA FEW030 BKN050 BKN080     09/M00 Q1018 RMK 2CU030 6SC050 7AC080 A3007=,- RA SH
20180121_030000.002,0,RJNK,,,,0,20180121030000,-1,-1,-1,-1,220,-1,6,-1,-1,180,250,,9999,0,1,3,FEW 30   BKN 50   BKN 80,1,9,-1,0,1018,RJNK 210300Z 22006KT 180V250 9999 -SHRA FEW030 BKN050 BKN080     09/M00 Q1018 RMK 2CU030 6SC050 7AC080 A3007=,- RA SH
20180121_040000.000,0,RJNK,,,,0,20180121040000,-1,-1,-1,-1,220,-1,6,-1,-1,-1,-1,,9999,0,1,4,FEW 10   SCT 15   FEW 15 TCU  BKN 30,1,7,1,2,1018,RJNK 210400Z 22006KT 9999 -SHRA FEW010 SCT015 FEW015TCU BKN030     07/02 Q1018 RMK 1CU010 4CU015 1TCU015 6CU030 A3008 TCU E           AND NW=,- RA SH
20180121_040000.003,0,RJNK,,,,0,20180121040000,-1,-1,-1,-1,220,-1,6,-1,-1,-1,-1,,9999,0,1,4,FEW 10   SCT 15   FEW 15 TCU  BKN 30,1,7,1,2,1018,RJNK 210400Z 22006KT 9999 -SHRA FEW010 SCT015 FEW015TCU BKN030     07/02 Q1018 RMK 1CU010 4CU015 1TCU015 6CU030 A3008 TCU E           AND NW=,- RA SH
20180121_050000.000,0,RJNK,,,,0,20180121050000,-1,-1,-1,-1,270,-1,10,-1,-1,-1,-1,,9999,0,1,3,FEW 10   SCT 15 TCU  BKN 30,1,7,1,1,1018,RJNK 210500Z 27010KT 9999 -SHRA FEW010 SCT015TCU BKN030 07/01     Q1018 RMK 1CU010 4TCU015 6CU030 A3008 VIS W-NW 4000M TCU           W-N=,- RA SH
20180121_050000.002,0,RJNK,,,,0,20180121050000,-1,-1,-1,-1,270,-1,10,-1,-1,-1,-1,,9999,0,1,3,FEW 10   SCT 15 TCU  BKN 30,1,7,1,1,1018,RJNK 210500Z 27010KT 9999 -SHRA FEW010 SCT015TCU BKN030 07/01     Q1018 RMK 1CU010 4TCU015 6CU030 A3008 VIS W-NW 4000M TCU           W-N=,- RA SH
20180121_060000.000,0,RJNK,,,,0,20180121060000,-1,-1,-1,-1,170,-1,4,-1,-1,120,230,,9999,0,1,4,FEW 10   SCT 15   FEW 15 CB  BKN 30,1,6,1,4,1019,RJNK 210600Z 17004KT 120V230 9999 TS FEW010 SCT015 FEW015CB     BKN030 06/04 Q1019 RERA RMK 1CU010 3CU015 1CB015 6CU030           A3009 FBL TS NW=,TS
20180121_060000.002,0,RJNK,,,,0,20180121060000,-1,-1,-1,-1,170,-1,4,-1,-1,120,230,,9999,0,1,4,FEW 10   SCT 15   FEW 15 CB  BKN 30,1,6,1,4,1019,RJNK 210600Z 17004KT 120V230 9999 TS FEW010 SCT015 FEW015CB     BKN030 06/04 Q1019 RERA RMK 1CU010 3CU015 1CB015 6CU030           A3009 FBL TS NW=,TS
20180121_070000.000,0,RJNK,,,,0,20180121070000,-1,-1,-1,-1,20,-1,17,-1,-1,-1,-1,,9999,0,0,2,FEW 8   SCT 15,1,5,1,2,1020,RJNK 210700Z 02017KT 9999 FEW008 SCT015 05/02 Q1020 RETS RMK     2CU008 3CU015 A3013 MAX WIND 25KT 2CU008 OVER AD=,
20180121_070000.002,0,RJNK,,,,0,20180121070000,-1,-1,-1,-1,20,-1,17,-1,-1,-1,-1,,9999,0,0,2,FEW 8   SCT 15,1,5,1,2,1020,RJNK 210700Z 02017KT 9999 FEW008 SCT015 05/02 Q1020 RETS RMK     2CU008 3CU015 A3013 MAX WIND 25KT 2CU008 OVER AD=,
20180121_080000.000,0,RJNK,,,,0,20180121080000,-1,-1,-1,-1,40,-1,13,-1,-1,-1,-1,,9999,0,0,2,FEW 8   BKN 15,1,5,1,1,1020,RJNK 210800Z 04013KT 9999 FEW008 BKN015 05/01 Q1020 RMK 2CU008     6CU015 A3013 2CU008 OVER AD=,
20180121_080000.002,0,RJNK,,,,0,20180121080000,-1,-1,-1,-1,40,-1,13,-1,-1,-1,-1,,9999,0,0,2,FEW 8   BKN 15,1,5,1,1,1020,RJNK 210800Z 04013KT 9999 FEW008 BKN015 05/01 Q1020 RMK 2CU008     6CU015 A3013 2CU008 OVER AD=,
20180121_090000.000,0,RJNK,,,,0,20180121090000,-1,-1,-1,-1,50,-1,13,-1,-1,-1,-1,,9999,0,1,3,FEW 8   BKN 15   BKN 40,1,3,1,1,1021,RJNK 210900Z 05013KT 9999 -SHRA FEW008 BKN015 BKN040 03/01     Q1021 RMK 2CU008 6CU015 7SC040 A3016 2CU008 OVER AD=,- RA SH
20180121_090000.002,0,RJNK,,,,0,20180121090000,-1,-1,-1,-1,50,-1,13,-1,-1,-1,-1,,9999,0,1,3,FEW 8   BKN 15   BKN 40,1,3,1,1,1021,RJNK 210900Z 05013KT 9999 -SHRA FEW008 BKN015 BKN040 03/01     Q1021 RMK 2CU008 6CU015 7SC040 A3016 2CU008 OVER AD=,- RA SH
20180121_100000.000,0,RJNK,,,,0,20180121100000,-1,-1,-1,-1,50,-1,15,-1,-1,-1,-1,,9999,0,1,3,FEW 8   BKN 15   BKN 40,1,3,-1,0,1022,RJNK 211000Z 05015KT 9999 -SHRA FEW008 BKN015 BKN040 03/M00     Q1022 RMK 1CU008 5CU015 7SC040 A3020 1CU008 OVER AD=,- RA SH
20180121_100000.002,0,RJNK,,,,0,20180121100000,-1,-1,-1,-1,50,-1,15,-1,-1,-1,-1,,9999,0,1,3,FEW 8   BKN 15   BKN 40,1,3,-1,0,1022,RJNK 211000Z 05015KT 9999 -SHRA FEW008 BKN015 BKN040 03/M00     Q1022 RMK 1CU008 5CU015 7SC040 A3020 1CU008 OVER AD=,- RA SH
20180121_110000.000,0,RJNK,,,,0,20180121110000,-1,-1,-1,-1,50,-1,16,-1,-1,-1,-1,,9999,0,1,3,FEW 8   SCT 15   BKN 40,1,3,-1,1,1022,RJNK 211100Z 05016KT 9999 -SHRA FEW008 SCT015 BKN040 03/M01     Q1022 RMK 1CU008 3CU015 7SC040 A3020 MAX WIND 23KT 1CU008           OVER AD=,- RA SH
20180121_110000.002,0,RJNK,,,,0,20180121110000,-1,-1,-1,-1,50,-1,16,-1,-1,-1,-1,,9999,0,1,3,FEW 8   SCT 15   BKN 40,1,3,-1,1,1022,RJNK 211100Z 05016KT 9999 -SHRA FEW008 SCT015 BKN040 03/M01     Q1022 RMK 1CU008 3CU015 7SC040 A3020 MAX WIND 23KT 1CU008           OVER AD=,- RA SH
20180121_120000.000,0,RJNK,,,,0,20180121120000,-1,-1,-1,-1,50,-1,15,-1,-1,-1,-1,,9999,0,0,2,FEW 15   BKN 40,1,2,-1,1,1022,RJNK 211200Z 05015KT 9999 FEW015 BKN040 02/M01 Q1022 RMK 1CU015     7SC040 A3020=,
20180121_120000.002,0,RJNK,,,,0,20180121120000,-1,-1,-1,-1,50,-1,15,-1,-1,-1,-1,,9999,0,0,2,FEW 15   BKN 40,1,2,-1,1,1022,RJNK 211200Z 05015KT 9999 FEW015 BKN040 02/M01 Q1022 RMK     1CU015 7SC040 A3020=,
20180121_130000.000,0,RJNK,,,,0,20180121130000,-1,-1,-1,-1,40,-1,13,-1,-1,-1,-1,,9999,0,0,2,FEW 15   BKN 40,1,2,-1,1,1022,RJNK 211300Z 04013KT 9999 FEW015 BKN040 02/M01 Q1022 RMK 1CU015     7SC040 A3020=,
20180121_130000.003,0,RJNK,,,,0,20180121130000,-1,-1,-1,-1,40,-1,13,-1,-1,-1,-1,,9999,0,0,2,FEW 15   BKN 40,1,2,-1,1,1022,RJNK 211300Z 04013KT 9999 FEW015 BKN040 02/M01 Q1022 RMK     1CU015 7SC040 A3020=,
20180121_140000.000,0,RJNK,,,,0,20180121140000,-1,-1,-1,-1,40,-1,12,-1,-1,-1,-1,,9999,0,0,2,FEW 15   BKN 40,1,2,-1,1,1022,RJNK 211400Z 04012KT 9999 FEW015 BKN040 02/M01 Q1022 RMK 1CU015     7SC040 A3018=,
20180121_140000.002,0,RJNK,,,,0,20180121140000,-1,-1,-1,-1,40,-1,12,-1,-1,-1,-1,,9999,0,0,2,FEW 15   BKN 40,1,2,-1,1,1022,RJNK 211400Z 04012KT 9999 FEW015 BKN040 02/M01 Q1022 RMK     1CU015 7SC040 A3018=,
20180121_150000.000,0,RJNK,,,,0,20180121150000,-1,-1,-1,-1,30,-1,15,-1,-1,-1,-1,,9999,0,0,2,FEW 30   SCT 40,1,1,-1,1,1021,RJNK 211500Z 03015KT 9999 FEW030 SCT040 01/M01 Q1021 RMK 1CU030     3SC040 A3016=,
20180121_150000.002,0,RJNK,,,,0,20180121150000,-1,-1,-1,-1,30,-1,15,-1,-1,-1,-1,,9999,0,0,2,FEW 30   SCT 40,1,1,-1,1,1021,RJNK 211500Z 03015KT 9999 FEW030 SCT040 01/M01 Q1021 RMK     1CU030 3SC040 A3016=,
20180121_160000.000,0,RJNK,,,,0,20180121160000,-1,-1,-1,-1,40,-1,13,-1,-1,-1,-1,,9999,0,0,1,FEW 40,1,1,-1,1,1020,RJNK 211600Z 04013KT 9999 FEW040 01/M01 Q1020 RMK 1SC040 A3013=,
20180121_160000.002,0,RJNK,,,,0,20180121160000,-1,-1,-1,-1,40,-1,13,-1,-1,-1,-1,,9999,0,0,1,FEW 40,1,1,-1,1,1020,RJNK 211600Z 04013KT 9999 FEW040 01/M01 Q1020 RMK 1SC040     A3013=,
20180121_170000.000,0,RJNK,,,,0,20180121170000,-1,-1,-1,-1,30,-1,13,-1,-1,-1,-1,,9999,0,0,1,BKN 180,1,2,-1,2,1019,RJNK 211700Z 03013KT 9999 BKN180 02/M02 Q1019 RMK 5AC180 A3012=,
20180121_170000.002,0,RJNK,,,,0,20180121170000,-1,-1,-1,-1,30,-1,13,-1,-1,-1,-1,,9999,0,0,1,BKN 180,1,2,-1,2,1019,RJNK 211700Z 03013KT 9999 BKN180 02/M02 Q1019 RMK 5AC180     A3012=,
20180121_180000.000,0,RJNK,,,,0,20180121180000,-1,-1,-1,-1,140,-1,8,-1,-1,70,160,,9999,0,0,2,FEW 40   BKN 180,1,1,-1,3,1019,RJNK 211800Z 14008KT 070V160 9999 FEW040 BKN180 01/M03 Q1019     RMK 1SC040 6AC180 A3011=,
20180121_180000.002,0,RJNK,,,,0,20180121180000,-1,-1,-1,-1,140,-1,8,-1,-1,70,160,,9999,0,0,2,FEW 40   BKN 180,1,1,-1,3,1019,RJNK 211800Z 14008KT 070V160 9999 FEW040 BKN180 01/M03 Q1019     RMK 1SC040 6AC180 A3011=,
20180121_190000.000,0,RJNK,,,,0,20180121190000,-1,-1,-1,-1,999,-1,1,-1,-1,-1,-1,,9999,0,0,2,FEW 40   BKN 180,1,1,-1,2,1019,RJNK 211900Z VRB01KT 9999 FEW040 BKN180 01/M02 Q1019 RMK 1SC040     5AC180 A3011=,
20180121_190000.002,0,RJNK,,,,0,20180121190000,-1,-1,-1,-1,999,-1,1,-1,-1,-1,-1,,9999,0,0,2,FEW 40   BKN 180,1,1,-1,2,1019,RJNK 211900Z VRB01KT 9999 FEW040 BKN180 01/M02 Q1019 RMK     1SC040 5AC180 A3011=,
20180121_200000.000,0,RJNK,,,,0,20180121200000,-1,-1,-1,-1,120,-1,3,-1,-1,-1,-1,,9999,0,0,2,FEW 40   BKN 180,1,0,-1,1,1020,RJNK 212000Z 12003KT 9999 FEW040 BKN180 00/M01 Q1020 RMK 1SC040     7AC180 A3013=,
20180121_200000.002,0,RJNK,,,,0,20180121200000,-1,-1,-1,-1,120,-1,3,-1,-1,-1,-1,,9999,0,0,2,FEW 40   BKN 180,1,0,-1,1,1020,RJNK 212000Z 12003KT 9999 FEW040 BKN180 00/M01 Q1020 RMK     1SC040 7AC180 A3013=,
20180121_210000.000,0,RJNK,,,,0,20180121210000,-1,-1,-1,-1,80,-1,2,-1,-1,-1,-1,,9999,0,0,3,FEW 40   SCT 120   BKN 180,-1,0,-1,1,1020,RJNK 212100Z 08002KT 9999 FEW040 SCT120 BKN180 M00/M01 Q1020     RMK 1SC040 4AC120 7AC180 A3013 32035KT/0610 09/M00 R002           S000 SD002=,
20180121_210000.002,0,RJNK,,,,0,20180121210000,-1,-1,-1,-1,80,-1,2,-1,-1,-1,-1,,9999,0,0,3,FEW 40   SCT 120   BKN 180,-1,0,-1,1,1020,RJNK 212100Z 08002KT 9999 FEW040 SCT120 BKN180 M00/M01 Q1020     RMK 1SC040 4AC120 7AC180 A3013 32035KT/0610 09/M00 R002           S000 SD002=,
20180121_220000.000,0,RJNK,,,,0,20180121220000,-1,-1,-1,-1,70,-1,3,-1,-1,40,120,,9999,0,0,3,FEW 30   SCT 90   BKN 120,1,0,-1,1,1020,RJNK 212200Z 07003KT 040V120 9999 FEW030 SCT090 BKN120 00/M01     Q1020 RMK 1CU030 3AC090 7AC120 A3013=,
20180121_220000.002,0,RJNK,,,,0,20180121220000,-1,-1,-1,-1,70,-1,3,-1,-1,40,120,,9999,0,0,3,FEW 30   SCT 90   BKN 120,1,0,-1,1,1020,RJNK 212200Z 07003KT 040V120 9999 FEW030 SCT090 BKN120 00/M01     Q1020 RMK 1CU030 3AC090 7AC120 A3013=,
20180121_230000.000,0,RJNK,,,,0,20180121230000,-1,-1,-1,-1,80,-1,5,-1,-1,-1,-1,,9999,0,0,3,FEW 30   BKN 90   BKN 120,1,1,-1,1,1019,RJNK 212300Z 08005KT 9999 FEW030 BKN090 BKN120 01/M01 Q1019 RMK     1CU030 5AC090 7AC120 A3010=,
20180121_230000.002,0,RJNK,,,,0,20180121230000,-1,-1,-1,-1,80,-1,5,-1,-1,-1,-1,,9999,0,0,3,FEW 30   BKN 90   BKN 120,1,1,-1,1,1019,RJNK 212300Z 08005KT 9999 FEW030 BKN090 BKN120 01/M01 Q1019     RMK 1CU030 5AC090 7AC120 A3010=,
20180122_000000.000,0,RJNK,,,,0,20180122000000,-1,-1,-1,-1,30,-1,4,-1,-1,-1,-1,,9999,0,0,3,FEW 30   BKN 50   BKN 90,1,1,-1,1,1018,RJNK 220000Z 03004KT 9999 FEW030 BKN050 BKN090 01/M01 Q1018 RMK     1CU030 5SC050 7AC090 A3006=,
20180122_000000.002,0,RJNK,,,,0,20180122000000,-1,-1,-1,-1,30,-1,4,-1,-1,-1,-1,,9999,0,0,3,FEW 30   BKN 50   BKN 90,1,1,-1,1,1018,RJNK 220000Z 03004KT 9999 FEW030 BKN050 BKN090 01/M01 Q1018     RMK 1CU030 5SC050 7AC090 A3006=,
20180122_010000.000,0,RJNK,,,,0,20180122010000,-1,-1,-1,-1,110,-1,3,-1,-1,70,160,,9999,0,0,3,FEW 30   SCT 50   BKN 90,1,2,-1,1,1017,RJNK 220100Z 11003KT 070V160 9999 FEW030 SCT050 BKN090 02/M01     Q1017 RMK 1CU030 3SC050 6AC090 A3004=,
20180122_010000.002,0,RJNK,,,,0,20180122010000,-1,-1,-1,-1,110,-1,3,-1,-1,70,160,,9999,0,0,3,FEW 30   SCT 50   BKN 90,1,2,-1,1,1017,RJNK 220100Z 11003KT 070V160 9999 FEW030 SCT050 BKN090 02/M01     Q1017 RMK 1CU030 3SC050 6AC090 A3004=,
20180122_020000.000,0,RJNK,,,,0,20180122020000,-1,-1,-1,-1,999,-1,2,-1,-1,-1,-1,,9999,0,0,3,FEW 30   SCT 50   BKN 90,1,3,-1,1,1016,RJNK 220200Z VRB02KT 9999 FEW030 SCT050 BKN090 03/M01 Q1016 RMK     1CU030 4SC050 7AC090 A3001=,
20180122_020000.002,0,RJNK,,,,0,20180122020000,-1,-1,-1,-1,999,-1,2,-1,-1,-1,-1,,9999,0,0,3,FEW 30   SCT 50   BKN 90,1,3,-1,1,1016,RJNK 220200Z VRB02KT 9999 FEW030 SCT050 BKN090 03/M01 Q1016     RMK 1CU030 4SC050 7AC090 A3001=,
20180122_030000.000,0,RJNK,,,,0,20180122030000,-1,-1,-1,-1,120,-1,5,-1,-1,80,140,,9999,0,0,3,FEW 30   SCT 60   BKN 80,1,3,-1,2,1014,RJNK 220300Z 12005KT 080V140 9999 FEW030 SCT060 BKN080 03/M02     Q1014 RMK 1CU030 4SC060 7AS080 A2996=,
20180122_030000.002,1,RJNK,,,,0,20180122030000,-1,-1,-1,-1,120,-1,5,-1,-1,80,140,,9999,0,0,3,FEW 30   SCT 60   BKN 80,1,3,-1,2,1014,RJNK 220300Z 12005KT 080V140 9999 FEW030 SCT060 BKN080 03/M02     Q1014 RMK 1CU030 4SC060 7AS080 A2996=,
20180122_040000.000,0,RJNK,,,,0,20180122040000,-1,-1,-1,-1,130,-1,4,-1,-1,-1,-1,,9999,0,0,3,FEW 30   BKN 60   OVC 80,1,3,-1,1,1013,RJNK 220400Z 13004KT 9999 FEW030 BKN060 OVC080 03/M01 Q1013 RMK     1CU030 6SC060 8AS080 A2992=,
20180122_040000.000,0,RJNK,,,,0,20180122040000,-1,-1,-1,-1,130,-1,4,-1,-1,-1,-1,,9999,0,0,3,FEW 30   BKN 60   OVC 80,1,3,-1,1,1013,RJNK 220400Z 13004KT 9999 FEW030 BKN060 OVC080 03/M01 Q1013 RMK     1CU030 6SC060 8AS080 A2992=,
20180122_040000.002,1,RJNK,,,,0,20180122040000,-1,-1,-1,-1,130,-1,4,-1,-1,-1,-1,,9999,0,0,3,FEW 30   BKN 60   OVC 80,1,3,-1,1,1013,RJNK 220400Z 13004KT 9999 FEW030 BKN060 OVC080 03/M01 Q1013     RMK 1CU030 6SC060 8AS080 A2992=,
20180122_050000.000,0,RJNK,,,,0,20180122050000,-1,-1,-1,-1,290,-1,2,-1,-1,-1,-1,,9999,0,1,3,FEW 30   SCT 40   BKN 60,1,3,-1,1,1012,RJNK 220500Z 29002KT 9999 -RA FEW030 SCT040 BKN060 03/M01 Q1012     RMK 2CU030 3SC040 6SC060 A2990=,- RA
20180122_050000.002,0,RJNK,,,,0,20180122050000,-1,-1,-1,-1,290,-1,2,-1,-1,-1,-1,,9999,0,1,3,FEW 30   SCT 40   BKN 60,1,3,-1,1,1012,RJNK 220500Z 29002KT 9999 -RA FEW030 SCT040 BKN060 03/M01     Q1012 RMK 2CU030 3SC040 6SC060 A2990=,- RA
20180122_060000.000,0,RJNK,,,,0,20180122060000,-1,-1,-1,-1,80,-1,3,-1,-1,50,110,,5000,0,1,3,BKN 10   BKN 30   OVC 40,1,1,-1,0,1012,RJNK 220600Z 08003KT 050V110 5000 -SNRA BKN010 BKN030 OVC040     01/M00 Q1012 RMK 5ST010 6SC030 8SC040 A2990 VIS S-W 4000M=,- SN RA
20180122_060000.003,0,RJNK,,,,0,20180122060000,-1,-1,-1,-1,80,-1,3,-1,-1,50,110,,5000,0,1,3,BKN 10   BKN 30   OVC 40,1,1,-1,0,1012,RJNK 220600Z 08003KT 050V110 5000 -SNRA BKN010 BKN030 OVC040     01/M00 Q1012 RMK 5ST010 6SC030 8SC040 A2990 VIS S-W           4000M=,- SN RA
20180122_070000.000,0,RJNK,,,,0,20180122070000,-1,-1,-1,-1,80,-1,2,-1,-1,-1,-1,,1800,0,1,3,SCT 4   BKN 6   BKN 8,1,0,-1,0,1012,RJNK 220700Z 08002KT 1800 -SN SCT004 BKN006 BKN008 00/M00 Q1012     RMK 3ST004 5ST006 7ST008 A2989 VIS S-NW 1500M 3ST004 OVER           AD=,- SN
20180122_070000.002,0,RJNK,,,,0,20180122070000,-1,-1,-1,-1,80,-1,2,-1,-1,-1,-1,,1800,0,1,3,SCT 4   BKN 6   BKN 8,1,0,-1,0,1012,RJNK 220700Z 08002KT 1800 -SN SCT004 BKN006 BKN008 00/M00     Q1012 RMK 3ST004 5ST006 7ST008 A2989 VIS S-NW 1500M           3ST004 OVER AD=,- SN
20180122_080000.000,0,RJNK,,,,0,20180122080000,-1,-1,-1,-1,140,-1,3,-1,-1,-1,-1,,1500,1,1,3,SCT 3   BKN 6   BKN 8,1,0,-1,0,1011,RJNK 220800Z 14003KT 1500 R06/P1800N -SN SCT003 BKN006 BKN008     00/M00 Q1011 RMK 3ST003 5ST006 7ST008 A2988 VIS E-SW 1000M           3ST003 OVER AD=,- SN
20180122_080000.003,0,RJNK,,,,0,20180122080000,-1,-1,-1,-1,140,-1,3,-1,-1,-1,-1,,1500,1,1,3,SCT 3   BKN 6   BKN 8,1,0,-1,0,1011,RJNK 220800Z 14003KT 1500 R06/P1800N -SN SCT003 BKN006 BKN008     00/M00 Q1011 RMK 3ST003 5ST006 7ST008 A2988 VIS E-SW           1000M 3ST003 OVER AD=,- SN
20180122_090000.000,0,RJNK,,,,0,20180122090000,-1,-1,-1,-1,150,-1,4,-1,-1,-1,-1,,5000,0,1,3,FEW 2   SCT 4   BKN 8,1,0,-1,0,1011,RJNK 220900Z 15004KT 5000 -SNRA FEW002 SCT004 BKN008 00/M00     Q1011 RMK 1ST002 3ST004 7ST008 A2988 1ST002 OVER RWY=,- SN RA
20180122_090000.002,0,RJNK,,,,0,20180122090000,-1,-1,-1,-1,150,-1,4,-1,-1,-1,-1,,5000,0,1,3,FEW 2   SCT 4   BKN 8,1,0,-1,0,1011,RJNK 220900Z 15004KT 5000 -SNRA FEW002 SCT004 BKN008 00/M00     Q1011 RMK 1ST002 3ST004 7ST008 A2988 1ST002 OVER RWY=,- SN RA
20180122_100000.000,0,RJNK,,,,0,20180122100000,-1,-1,-1,-1,180,-1,2,-1,-1,-1,-1,,9999,0,1,3,FEW 8   SCT 20   BKN 30,1,0,1,0,1011,RJNK 221000Z 18002KT 9999 -RASN FEW008 SCT020 BKN030 00/00     Q1011 RMK 2ST008 4SC020 7SC030 A2988=,- RA SN
20180122_100000.002,0,RJNK,,,,0,20180122100000,-1,-1,-1,-1,180,-1,2,-1,-1,-1,-1,,9999,0,1,3,FEW 8   SCT 20   BKN 30,1,0,1,0,1011,RJNK 221000Z 18002KT 9999 -RASN FEW008 SCT020 BKN030 00/00     Q1011 RMK 2ST008 4SC020 7SC030 A2988=,- RA SN
20180122_110000.000,0,RJNK,,,,0,20180122110000,-1,-1,-1,-1,210,-1,3,-1,-1,160,240,,9999,0,1,3,FEW 8   SCT 20   BKN 30,1,0,1,0,1011,RJNK 221100Z 21003KT 160V240 9999 -RASN FEW008 SCT020 BKN030     00/00 Q1011 RMK 1ST008 4SC020 7SC030 A2987=,- RA SN
20180122_110000.003,0,RJNK,,,,0,20180122110000,-1,-1,-1,-1,210,-1,3,-1,-1,160,240,,9999,0,1,3,FEW 8   SCT 20   BKN 30,1,0,1,0,1011,RJNK 221100Z 21003KT 160V240 9999 -RASN FEW008 SCT020 BKN030     00/00 Q1011 RMK 1ST008 4SC020 7SC030 A2987=,- RA SN
20180122_120000.000,0,RJNK,,,,0,20180122120000,-1,-1,-1,-1,210,-1,5,-1,-1,150,210,,9999,0,0,3,FEW 8   SCT 20   BKN 30,1,1,1,0,1010,RJNK 221200Z 21005KT 150V210 9999 FEW008 SCT020 BKN030 01/00     Q1010 RMK 1CU008 4SC020 7SC030 A2985 1CU008 NW-NE=,
20180122_120000.002,0,RJNK,,,,0,20180122120000,-1,-1,-1,-1,210,-1,5,-1,-1,150,210,,9999,0,0,3,FEW 8   SCT 20   BKN 30,1,1,1,0,1010,RJNK 221200Z 21005KT 150V210 9999 FEW008 SCT020 BKN030 01/00     Q1010 RMK 1CU008 4SC020 7SC030 A2985 1CU008 NW-NE=,
20180122_130000.000,0,RJNK,,,,0,20180122130000,-1,-1,-1,-1,190,-1,4,-1,-1,-1,-1,,9999,0,0,3,FEW 8   SCT 20   BKN 30,1,1,1,0,1010,RJNK 221300Z 19004KT 9999 FEW008 SCT020 BKN030 01/00 Q1010 RMK     1CU008 4SC020 7SC030 A2984 1CU008 NW-NE=,
20180122_130000.003,0,RJNK,,,,0,20180122130000,-1,-1,-1,-1,190,-1,4,-1,-1,-1,-1,,9999,0,0,3,FEW 8   SCT 20   BKN 30,1,1,1,0,1010,RJNK 221300Z 19004KT 9999 FEW008 SCT020 BKN030 01/00 Q1010 RMK     1CU008 4SC020 7SC030 A2984 1CU008 NW-NE=,
20180122_140000.000,0,RJNK,,,,0,20180122140000,-1,-1,-1,-1,170,-1,5,-1,-1,-1,-1,,9999,0,0,3,FEW 8   SCT 20   BKN 30,1,1,1,1,1009,RJNK 221400Z 17005KT 9999 FEW008 SCT020 BKN030 01/01 Q1009 RMK     1CU008 3SC020 7SC030 A2982 1CU008 NW-NE=,
20180122_140000.003,0,RJNK,,,,0,20180122140000,-1,-1,-1,-1,170,-1,5,-1,-1,-1,-1,,9999,0,0,3,FEW 8   SCT 20   BKN 30,1,1,1,1,1009,RJNK 221400Z 17005KT 9999 FEW008 SCT020 BKN030 01/01 Q1009 RMK     1CU008 3SC020 7SC030 A2982 1CU008 NW-NE=,
20180122_150000.000,0,RJNK,,,,0,20180122150000,-1,-1,-1,-1,180,-1,4,-1,-1,-1,-1,,9999,0,0,3,FEW 8   SCT 20   BKN 30,1,1,1,0,1009,RJNK 221500Z 18004KT 9999 FEW008 SCT020 BKN030 01/00 Q1009 RMK     1CU008 3CU020 6CU030 A2980 1CU008 NW-NE=,
20180122_150000.002,0,RJNK,,,,0,20180122150000,-1,-1,-1,-1,180,-1,4,-1,-1,-1,-1,,9999,0,0,3,FEW 8   SCT 20   BKN 30,1,1,1,0,1009,RJNK 221500Z 18004KT 9999 FEW008 SCT020 BKN030 01/00 Q1009 RMK     1CU008 3CU020 6CU030 A2980 1CU008 NW-NE=,
20180122_160000.000,0,RJNK,,,,0,20180122160000,-1,-1,-1,-1,180,-1,5,-1,-1,-1,-1,,9999,0,0,2,FEW 8   BKN 30,1,2,1,0,1008,RJNK 221600Z 18005KT 9999 FEW008 BKN030 02/00 Q1008 RMK 1CU008     5CU030 A2977 1CU008 NW-N=,
20180122_160000.002,0,RJNK,,,,0,20180122160000,-1,-1,-1,-1,180,-1,5,-1,-1,-1,-1,,9999,0,0,2,FEW 8   BKN 30,1,2,1,0,1008,RJNK 221600Z 18005KT 9999 FEW008 BKN030 02/00 Q1008 RMK 1CU008     5CU030 A2977 1CU008 NW-N=,
20180122_170000.000,0,RJNK,,,,0,20180122170000,-1,-1,-1,-1,200,-1,7,-1,-1,-1,-1,,9999,0,0,3,FEW 8   FEW 20 CB  BKN 30,1,2,1,1,1008,RJNK 221700Z 20007KT 9999 FEW008 FEW020CB BKN030 02/01 Q1008     RMK 1CU008 2CB020 6CU030 A2977 CB W 1CU008 NW-N=,
20180122_170000.002,0,RJNK,,,,0,20180122170000,-1,-1,-1,-1,200,-1,7,-1,-1,-1,-1,,9999,0,0,3,FEW 8   FEW 20 CB  BKN 30,1,2,1,1,1008,RJNK 221700Z 20007KT 9999 FEW008 FEW020CB BKN030 02/01 Q1008     RMK 1CU008 2CB020 6CU030 A2977 CB W 1CU008 NW-N=,
20180122_180000.000,0,RJNK,,,,0,20180122180000,-1,-1,-1,-1,210,-1,9,-1,-1,-1,-1,,9999,0,1,4,FEW 8   SCT 20   FEW 20 CB  BKN 30,1,3,1,1,1007,RJNK 221800Z 21009KT 9999 -SHRA FEW008 SCT020 FEW020CB BKN030     03/01 Q1007 RMK 1CU008 4CU020 1CB020 7CU030 A2976 CB NW           1CU008 OVER AD=,- RA SH
20180122_180000.002,0,RJNK,,,,0,20180122180000,-1,-1,-1,-1,210,-1,9,-1,-1,-1,-1,,9999,0,1,4,FEW 8   SCT 20   FEW 20 CB  BKN 30,1,3,1,1,1007,RJNK 221800Z 21009KT 9999 -SHRA FEW008 SCT020 FEW020CB BKN030     03/01 Q1007 RMK 1CU008 4CU020 1CB020 7CU030 A2976 CB NW           1CU008 OVER AD=,- RA SH
20180122_190000.000,0,RJNK,,,,0,20180122190000,-1,-1,-1,-1,190,-1,11,-1,-1,-1,-1,,9999,0,0,3,FEW 8   SCT 20   FEW 20 CB,1,4,1,1,1006,RJNK 221900Z 19011KT 9999 FEW008 SCT020 FEW020CB 04/01 Q1006     RMK 1CU008 3CU020 1CB020 A2973 CB W AND N 1CU008 NW-N=,
20180122_190000.002,0,RJNK,,,,0,20180122190000,-1,-1,-1,-1,190,-1,11,-1,-1,-1,-1,,9999,0,0,3,FEW 8   SCT 20   FEW 20 CB,1,4,1,1,1006,RJNK 221900Z 19011KT 9999 FEW008 SCT020 FEW020CB 04/01 Q1006     RMK 1CU008 3CU020 1CB020 A2973 CB W AND N 1CU008 NW-N=,
20180122_200000.000,0,RJNK,,,,0,20180122200000,-1,-1,-1,-1,190,-1,8,-1,-1,-1,-1,,9999,0,1,3,FEW 8   SCT 20   BKN 30,1,4,1,1,1005,RJNK 222000Z 19008KT 9999 -SHRA FEW008 SCT020 BKN030 04/01     Q1005 RMK 1CU008 4CU020 7CU030 A2971 1CU008 NW-N=,- RA SH
20180122_200000.002,0,RJNK,,,,0,20180122200000,-1,-1,-1,-1,190,-1,8,-1,-1,-1,-1,,9999,0,1,3,FEW 8   SCT 20   BKN 30,1,4,1,1,1005,RJNK 222000Z 19008KT 9999 -SHRA FEW008 SCT020 BKN030 04/01     Q1005 RMK 1CU008 4CU020 7CU030 A2971 1CU008 NW-N=,- RA SH
20180122_210000.000,0,RJNK,,,,0,20180122210000,-1,-1,-1,-1,220,-1,7,-1,-1,-1,-1,,9999,0,1,3,FEW 8   SCT 20   BKN 30,1,5,-1,0,1006,RJNK 222100Z 22007KT 9999 -SHRA FEW008 SCT020 BKN030 05/M00     Q1006 RMK 1CU008 3CU020 7CU030 A2971 1CU008 NW-N 05/00           R006 S002 SD001=,- RA SH
20180122_210000.003,0,RJNK,,,,0,20180122210000,-1,-1,-1,-1,220,-1,7,-1,-1,-1,-1,,9999,0,1,3,FEW 8   SCT 20   BKN 30,1,5,-1,0,1006,RJNK 222100Z 22007KT 9999 -SHRA FEW008 SCT020 BKN030 05/M00     Q1006 RMK 1CU008 3CU020 7CU030 A2971 1CU008 NW-N 05/00           R006 S002 SD001=,- RA SH
20180122_220000.000,0,RJNK,,,,0,20180122220000,-1,-1,-1,-1,210,-1,15,-1,-1,-1,-1,,9999,0,1,3,FEW 8   BKN 20   BKN 30,1,4,1,1,1006,RJNK 222200Z 21015KT 9999 -SHRA FEW008 BKN020 BKN030 04/01     Q1006 RMK 1CU008 5CU020 7CU030 A2973 MAX WIND 24KT=,- RA SH
20180122_220000.002,0,RJNK,,,,0,20180122220000,-1,-1,-1,-1,210,-1,15,-1,-1,-1,-1,,9999,0,1,3,FEW 8   BKN 20   BKN 30,1,4,1,1,1006,RJNK 222200Z 21015KT 9999 -SHRA FEW008 BKN020 BKN030 04/01     Q1006 RMK 1CU008 5CU020 7CU030 A2973 MAX WIND 24KT=,- RA SH
20180122_230000.000,0,RJNK,,,,0,20180122230000,-1,-1,-1,-1,210,-1,20,-1,32,-1,-1,,9999,0,1,4,FEW 8   BKN 20   FEW 20 CB  BKN 30,1,4,1,2,1006,RJNK 222300Z 21020G32KT 9999 -TSRA FEW008 BKN020 FEW020CB     BKN030 04/02 Q1006 RMK 1CU008 5CU020 2CB020 7CU030 A2972           MOD TS W-NW=,- TS   RA
20180122_230000.001,2,RJNK,,,,0,20180122230000,-1,-1,-1,-1,210,-1,20,-1,32,-1,-1,,9999,0,1,4,FEW 8   BKN 20   FEW 20 CB  BKN 30,1,4,1,2,1006,RJNK 222300Z 21020G32KT 9999 -TSRA FEW008 BKN020 FEW020CB     BKN030 04/02 Q1006 RMK 1CU008 5CU020 2CB020 7CU030 A2972           MOD TS W-NW=,- TS   RA
20180122_230000.001,2,RJNK,,,,0,20180122230000,-1,-1,-1,-1,210,-1,20,-1,32,-1,-1,,9999,0,1,4,FEW 8   BKN 20   FEW 20 CB  BKN 30,1,4,1,2,1006,RJNK 222300Z 21020G32KT 9999 -TSRA FEW008 BKN020 FEW020CB     BKN030 04/02 Q1006 RMK 1CU008 5CU020 2CB020 7CU030 A2972           MOD TS W-NW=,- TS   RA
20180122_230000.003,0,RJNK,,,,0,20180122230000,-1,-1,-1,-1,210,-1,20,-1,32,-1,-1,,9999,0,1,4,FEW 8   BKN 20   FEW 20 CB  BKN 30,1,4,1,2,1006,RJNK 222300Z 21020G32KT 9999 -TSRA FEW008 BKN020 FEW020CB     BKN030 04/02 Q1006 RMK 1CU008 5CU020 2CB020 7CU030 A2972           MOD TS W-NW=,- TS   RA
20180123_000000.000,0,RJNK,,,,0,20180123000000,-1,-1,-1,-1,210,-1,22,-1,34,-1,-1,,9999,0,0,3,FEW 6   SCT 8   BKN 20,1,5,1,2,1007,RJNK 230000Z 21022G34KT 9999 FEW006 SCT008 BKN020 05/02 Q1007     RETS RMK 1ST006 3CU008 6CU020 A2975 1ST006 OVER AD=,
20180123_000000.002,0,RJNK,,,,0,20180123000000,-1,-1,-1,-1,210,-1,22,-1,34,-1,-1,,9999,0,0,3,FEW 6   SCT 8   BKN 20,1,5,1,2,1007,RJNK 230000Z 21022G34KT 9999 FEW006 SCT008 BKN020 05/02 Q1007     RETS RMK 1ST006 3CU008 6CU020 A2975 1ST006 OVER AD=,
20180123_010000.000,0,RJNK,,,,0,20180123010000,-1,-1,-1,-1,250,-1,29,-1,40,-1,-1,,9999,0,0,3,FEW 6   SCT 8   BKN 20,1,8,-1,1,1007,RJNK 230100Z 25029G40KT 9999 FEW006 SCT008 BKN020 08/M01 Q1007     RMK 1ST006 3CU008 6CU020 A2975 1ST006 OVER AD=,
20180123_010000.002,0,RJNK,,,,0,20180123010000,-1,-1,-1,-1,250,-1,29,-1,40,-1,-1,,9999,0,0,3,FEW 6   SCT 8   BKN 20,1,8,-1,1,1007,RJNK 230100Z 25029G40KT 9999 FEW006 SCT008 BKN020 08/M01 Q1007     RMK 1ST006 3CU008 6CU020 A2975 1ST006 OVER AD=,
20180123_020000.000,0,RJNK,,,,0,20180123020000,-1,-1,-1,-1,250,-1,30,-1,41,-1,-1,,9999,0,0,2,FEW 6   SCT 20,1,8,-1,3,1007,RJNK 230200Z 25030G41KT 9999 FEW006 SCT020 08/M03 Q1007 RMK     1ST006 3CU020 A2974=,
20180123_020000.002,0,RJNK,,,,0,20180123020000,-1,-1,-1,-1,250,-1,30,-1,41,-1,-1,,9999,0,0,2,FEW 6   SCT 20,1,8,-1,3,1007,RJNK 230200Z 25030G41KT 9999 FEW006 SCT020 08/M03 Q1007 RMK     1ST006 3CU020 A2974=,
20180123_030000.000,0,RJNK,,,,0,20180123030000,-1,-1,-1,-1,260,-1,27,-1,37,-1,-1,,9999,0,1,3,FEW 6   BKN 20   BKN 30,1,7,1,0,1007,RJNK 230300Z 26027G37KT 9999 -SHRA FEW006 BKN020 BKN030 07/00     Q1007 RMK 1ST006 5CU020 7CU030 A2974=,- RA SH
20180123_030000.001,2,RJNK,,,,0,20180123030000,-1,-1,-1,-1,260,-1,27,-1,37,-1,-1,,9999,0,1,3,FEW 6   BKN 20   BKN 30,1,7,1,0,1007,RJNK 230300Z 26027G37KT 9999 -SHRA FEW006 BKN020 BKN030     07/00 Q1007 RMK 1ST006 5CU020 7CU030 A2974=,- RA SH
20180123_030000.003,0,RJNK,,,,0,20180123030000,-1,-1,-1,-1,260,-1,27,-1,37,-1,-1,,9999,0,1,3,FEW 6   BKN 20   BKN 30,1,7,1,0,1007,RJNK 230300Z 26027G37KT 9999 -SHRA FEW006 BKN020 BKN030     07/00 Q1007 RMK 1ST006 5CU020 7CU030 A2974=,- RA SH
20180123_040000.000,0,RJNK,,,,0,20180123040000,-1,-1,-1,-1,260,-1,35,-1,48,-1,-1,,9999,0,1,3,FEW 6   BKN 20   BKN 30,1,6,-1,3,1007,RJNK 230400Z 26035G48KT 9999 -SHRA FEW006 BKN020 BKN030 06/M03     Q1007 RMK 1ST006 5CU020 7CU030 A2976=,- RA SH
20180123_040000.003,0,RJNK,,,,0,20180123040000,-1,-1,-1,-1,260,-1,35,-1,48,-1,-1,,9999,0,1,3,FEW 6   BKN 20   BKN 30,1,6,-1,3,1007,RJNK 230400Z 26035G48KT 9999 -SHRA FEW006 BKN020 BKN030 06/M03     Q1007 RMK 1ST006 5CU020 7CU030 A2976=,- RA SH
20180123_050000.000,0,RJNK,,,,0,20180123050000,-1,-1,-1,-1,270,-1,26,-1,-1,-1,-1,,9999,0,1,3,FEW 6   SCT 8   BKN 20 CB,1,4,-1,1,1009,RJNK 230500Z 27026KT 9999 -SHGSRA FEW006 SCT008 BKN020CB 04/M01     Q1009 RERASN RMK 1ST006 3CU008 5CB020 A2981 SNOW PELLETS           CB OHD=,- GS RA SH
20180123_050000.002,0,RJNK,,,,0,20180123050000,-1,-1,-1,-1,270,-1,26,-1,-1,-1,-1,,9999,0,1,3,FEW 6   SCT 8   BKN 20 CB,1,4,-1,1,1009,RJNK 230500Z 27026KT 9999 -SHGSRA FEW006 SCT008 BKN020CB     04/M01 Q1009 RERASN RMK 1ST006 3CU008 5CB020 A2981 SNOW           PELLETS CB OHD=,- GS RA SH
20180123_060000.000,0,RJNK,,,,0,20180123060000,-1,-1,-1,-1,260,-1,35,-1,47,-1,-1,,2000,0,1,4,FEW 6   BKN 20   FEW 20 CB  BKN 30,1,3,-1,3,1010,RJNK 230600Z 26035G47KT 2000 -SHSNRAGS FEW006 BKN020 FEW020CB     BKN030 03/M03 Q1010 RMK 1ST006 5CU020 1CB020 7CU030 A2985           VIS E AND W 10KM SMALL HAIL CB E=,- SN, RA GS SH
20180123_060000.003,0,RJNK,,,,0,20180123060000,-1,-1,-1,-1,260,-1,35,-1,47,-1,-1,,2000,0,1,4,FEW 6   BKN 20   FEW 20 CB  BKN 30,1,3,-1,3,1010,RJNK 230600Z 26035G47KT 2000 -SHSNRAGS FEW006 BKN020 FEW020CB     BKN030 03/M03 Q1010 RMK 1ST006 5CU020 1CB020 7CU030 A2985           VIS E AND W 10KM SMALL HAIL CB E=,- SN, RA GS SH
20180123_070000.000,0,RJNK,,,,0,20180123070000,-1,-1,-1,-1,260,-1,29,-1,39,-1,-1,,9999,0,0,4,FEW 6   SCT 20   FEW 20 CB  BKN 30,1,4,-1,5,1010,RJNK 230700Z 26029G39KT 9999 FEW006 SCT020 FEW020CB BKN030     04/M05 Q1010 RMK 1ST006 4CU020 1CB020 7CU030 A2985 CB E=,
20180123_070000.002,1,RJNK,,,,0,20180123070000,-1,-1,-1,-1,260,-1,29,-1,39,-1,-1,,9999,0,0,4,FEW 6   SCT 20   FEW 20 CB  BKN 30,1,4,-1,5,1010,RJNK 230700Z 26029G39KT 9999 FEW006 SCT020 FEW020CB BKN030     04/M05 Q1010 RMK 1ST006 4CU020 1CB020 7CU030 A2985 CB E=,
20180123_070000.004,2,RJNK,,,,0,20180123070000,-1,-1,-1,-1,260,-1,29,-1,39,-1,-1,,9999,0,0,4,FEW 6   SCT 20   FEW 20 CB  BKN 30,1,4,-1,5,1010,RJNK 230700Z 26029G39KT 9999 FEW006 SCT020 FEW020CB BKN030     04/M05 Q1010 RMK 1ST006 4CU020 1CB020 7CU030 A2985 CB E=,
20180123_080000.000,0,RJNK,,,,0,20180123080000,-1,-1,-1,-1,270,-1,23,-1,33,-1,-1,,1200,1,1,1,VV 4,1,1,-1,1,1011,RJNK 230800Z 27023G33KT 1200 R24/P1800N -SHGSSN VV004 01/M01     Q1011 RMK A2988 SNOW PELLETS=,- GS SN SH
20180123_080000.002,0,RJNK,,,,0,20180123080000,-1,-1,-1,-1,270,-1,23,-1,33,-1,-1,,1200,1,1,1,VV 4,1,1,-1,1,1011,RJNK 230800Z 27023G33KT 1200 R24/P1800N -SHGSSN VV004 01/M01     Q1011 RMK A2988 SNOW PELLETS=,- GS SN SH
20180123_090000.000,0,RJNK,,,,0,20180123090000,-1,-1,-1,-1,290,-1,17,-1,-1,-1,-1,,9999,0,1,3,FEW 6   SCT 8   BKN 15,1,1,-1,1,1012,RJNK 230900Z 29017KT 9999 -SHSN FEW006 SCT008 BKN015 01/M01     Q1012 RMK 1ST006 4CU008 5CU015 A2989=,- SN SH
20180123_090000.002,1,RJNK,,,,0,20180123090000,-1,-1,-1,-1,290,-1,17,-1,-1,-1,-1,,9999,0,1,3,FEW 6   SCT 8   BKN 15,1,1,-1,1,1012,RJNK 230900Z 29017KT 9999 -SHSN FEW006 SCT008 BKN015 01/M01     Q1012 RMK 1ST006 4CU008 5CU015 A2989=,- SN SH
20180123_100000.000,0,RJNK,,,,0,20180123100000,-1,-1,-1,-1,250,-1,15,-1,-1,-1,-1,,700,1,1,1,VV 3,1,0,-1,1,1012,RJNK 231000Z 25015KT 0700 R24/P1800N TSSN VV003 00/M01 Q1012     RMK A2990 FBL TS NE=,TS   SN
20180123_100000.002,0,RJNK,,,,0,20180123100000,-1,-1,-1,-1,250,-1,15,-1,-1,-1,-1,,700,1,1,1,VV 3,1,0,-1,1,1012,RJNK 231000Z 25015KT 0700 R24/P1800N TSSN VV003 00/M01 Q1012     RMK A2990 FBL TS NE=,TS   SN
20180123_110000.000,0,RJNK,,,,0,20180123110000,-1,-1,-1,-1,190,-1,14,-1,-1,-1,-1,,9999,0,1,2,FEW 6   BKN 15,-1,0,-1,2,1012,RJNK 231100Z 19014KT 9999 -SHSN FEW006 BKN015 M00/M02 Q1012     RETS RMK 1ST006 7CU015 A2989=,- SN SH
20180123_110000.002,0,RJNK,,,,0,20180123110000,-1,-1,-1,-1,190,-1,14,-1,-1,-1,-1,,9999,0,1,2,FEW 6   BKN 15,-1,0,-1,2,1012,RJNK 231100Z 19014KT 9999 -SHSN FEW006 BKN015 M00/M02 Q1012     RETS RMK 1ST006 7CU015 A2989=,- SN SH
20180123_120000.000,0,RJNK,,,,0,20180123120000,-1,-1,-1,-1,210,-1,10,-1,-1,180,240,,9999,0,1,3,FEW 2   SCT 8   BKN 15,-1,0,-1,1,1012,RJNK 231200Z 21010KT 180V240 9999 -SHSN FEW002 SCT008 BKN015     M00/M01 Q1012 RMK 1ST002 3CU008 7CU015 A2989 1ST002 OVER           RWY=,- SN SH
20180123_120000.002,0,RJNK,,,,0,20180123120000,-1,-1,-1,-1,210,-1,10,-1,-1,180,240,,9999,0,1,3,FEW 2   SCT 8   BKN 15,-1,0,-1,1,1012,RJNK 231200Z 21010KT 180V240 9999 -SHSN FEW002 SCT008 BKN015     M00/M01 Q1012 RMK 1ST002 3CU008 7CU015 A2989 1ST002 OVER           RWY=,- SN SH
20180123_130000.000,0,RJNK,,,,0,20180123130000,-1,-1,-1,-1,210,-1,21,-1,38,-1,-1,,1500,1,1,3,SCT 6   BKN 8   BKN 15 CB,-1,0,-1,3,1012,RJNK 231300Z 21021G38KT 1500 R24/P1800N -SHGSSN SCT006 BKN008     BKN015CB M00/M03 Q1012 RMK 3ST006 5CU008 7CB015 A2990 SNOW           PELLETS CB OHD=,- GS SN SH
20180123_130000.002,0,RJNK,,,,0,20180123130000,-1,-1,-1,-1,210,-1,21,-1,38,-1,-1,,1500,1,1,3,SCT 6   BKN 8   BKN 15 CB,-1,0,-1,3,1012,RJNK 231300Z 21021G38KT 1500 R24/P1800N -SHGSSN SCT006 BKN008     BKN015CB M00/M03 Q1012 RMK 3ST006 5CU008 7CB015 A2990           SNOW PELLETS CB OHD=,- GS SN SH
20180123_140000.000,0,RJNK,,,,0,20180123140000,-1,-1,-1,-1,280,-1,20,-1,-1,-1,-1,,9999,0,1,3,FEW 6   BKN 15   BKN 30,1,1,-1,4,1012,RJNK 231400Z 28020KT 9999 -SHSN FEW006 BKN015 BKN030 01/M04     Q1012 RMK 1ST006 5CU015 7CU030 A2989=,- SN SH
20180123_140000.002,0,RJNK,,,,0,20180123140000,-1,-1,-1,-1,280,-1,20,-1,-1,-1,-1,,9999,0,1,3,FEW 6   BKN 15   BKN 30,1,1,-1,4,1012,RJNK 231400Z 28020KT 9999 -SHSN FEW006 BKN015 BKN030 01/M04     Q1012 RMK 1ST006 5CU015 7CU030 A2989=,- SN SH
20180123_150000.000,0,RJNK,,,,0,20180123150000,-1,-1,-1,-1,280,-1,21,-1,-1,-1,-1,,4000,0,1,3,FEW 8   BKN 15   BKN 30,1,1,-1,4,1011,RJNK 231500Z 28021KT 4000 -SHSN FEW008 BKN015 BKN030 01/M04     Q1011 RMK 1CU008 5CU015 7CU030 A2988 MAX WIND 29KT VIS           SW-NW 1000M=,- SN SH
20180123_150000.002,0,RJNK,,,,0,20180123150000,-1,-1,-1,-1,280,-1,21,-1,-1,-1,-1,,4000,0,1,3,FEW 8   BKN 15   BKN 30,1,1,-1,4,1011,RJNK 231500Z 28021KT 4000 -SHSN FEW008 BKN015 BKN030 01/M04     Q1011 RMK 1CU008 5CU015 7CU030 A2988 MAX WIND 29KT VIS           SW-NW 1000M=,- SN SH
20180123_160000.000,0,RJNK,,,,0,20180123160000,-1,-1,-1,-1,260,-1,22,-1,-1,-1,-1,,1200,1,1,1,VV 5,1,0,-1,2,1012,RJNK 231600Z 26022KT 1200 R24/P1800N -SHSN VV005 00/M02 Q1012     RMK A2990 MAX WIND 29KT=,- SN SH
20180123_160000.002,0,RJNK,,,,0,20180123160000,-1,-1,-1,-1,260,-1,22,-1,-1,-1,-1,,1200,1,1,1,VV 5,1,0,-1,2,1012,RJNK 231600Z 26022KT 1200 R24/P1800N -SHSN VV005 00/M02 Q1012     RMK A2990 MAX WIND 29KT=,- SN SH
20180123_170000.000,0,RJNK,,,,0,20180123170000,-1,-1,-1,-1,270,-1,16,-1,26,-1,-1,,4000,0,1,3,FEW 6   BKN 8   BKN 15 CB,1,1,-1,4,1011,RJNK 231700Z 27016G26KT 4000 -SHSN FEW006 BKN008 BKN015CB     01/M04 Q1011 RMK 2ST006 5CU008 7CB015 A2988 VIS N-E 3000M           SW-W 8KM CB NE=,- SN SH
20180123_170000.002,0,RJNK,,,,0,20180123170000,-1,-1,-1,-1,270,-1,16,-1,26,-1,-1,,4000,0,1,3,FEW 6   BKN 8   BKN 15 CB,1,1,-1,4,1011,RJNK 231700Z 27016G26KT 4000 -SHSN FEW006 BKN008 BKN015CB     01/M04 Q1011 RMK 2ST006 5CU008 7CB015 A2988 VIS N-E 3000M           SW-W 8KM CB NE=,- SN SH
20180123_180000.000,0,RJNK,,,,0,20180123180000,-1,-1,-1,-1,260,-1,20,-1,-1,-1,-1,,9999,0,1,3,FEW 6   SCT 8   BKN 15,1,1,-1,4,1011,RJNK 231800Z 26020KT 9999 -SHSN FEW006 SCT008 BKN015 01/M04     Q1011 RMK 1ST006 3CU008 6CU015 A2988=,- SN SH
20180123_180000.002,0,RJNK,,,,0,20180123180000,-1,-1,-1,-1,260,-1,20,-1,-1,-1,-1,,9999,0,1,3,FEW 6   SCT 8   BKN 15,1,1,-1,4,1011,RJNK 231800Z 26020KT 9999 -SHSN FEW006 SCT008 BKN015 01/M04     Q1011 RMK 1ST006 3CU008 6CU015 A2988=,- SN SH
20180123_190000.000,0,RJNK,,,,0,20180123190000,-1,-1,-1,-1,270,-1,24,-1,-1,-1,-1,,9999,0,1,3,FEW 6   SCT 8   BKN 15,1,1,-1,4,1011,RJNK 231900Z 27024KT 9999 -SHSN FEW006 SCT008 BKN015 01/M04     Q1011 RMK 1ST006 3CU008 6CU015 A2986 MAX WIND 32KT=,- SN SH
20180123_190000.002,0,RJNK,,,,0,20180123190000,-1,-1,-1,-1,270,-1,24,-1,-1,-1,-1,,9999,0,1,3,FEW 6   SCT 8   BKN 15,1,1,-1,4,1011,RJNK 231900Z 27024KT 9999 -SHSN FEW006 SCT008 BKN015 01/M04     Q1011 RMK 1ST006 3CU008 6CU015 A2986 MAX WIND 32KT=,- SN SH
20180123_200000.000,0,RJNK,,,,0,20180123200000,-1,-1,-1,-1,260,-1,23,-1,33,-1,-1,,4000,0,1,3,SCT 6   BKN 8   BKN 15,1,0,-1,4,1011,RJNK 232000Z 26023G33KT 4000 -SHSN SCT006 BKN008 BKN015 00/M04     Q1011 RMK 3ST006 5CU008 7CU015 A2987 VIS NE-S 2000M=,- SN SH
20180123_200000.002,0,RJNK,,,,0,20180123200000,-1,-1,-1,-1,260,-1,23,-1,33,-1,-1,,4000,0,1,3,SCT 6   BKN 8   BKN 15,1,0,-1,4,1011,RJNK 232000Z 26023G33KT 4000 -SHSN SCT006 BKN008 BKN015 00/M04     Q1011 RMK 3ST006 5CU008 7CU015 A2987 VIS NE-S 2000M=,- SN SH
20180123_210000.000,0,RJNK,,,,0,20180123210000,-1,-1,-1,-1,260,-1,25,-1,35,-1,-1,,9999,0,1,3,FEW 6   BKN 15   BKN 30,1,1,-1,6,1011,RJNK 232100Z 26025G35KT 9999 -SHSN FEW006 BKN015 BKN030 01/M06     Q1011 RMK 1ST006 5CU015 7CU030 A2987 25048KT/0340 09/M00           R006 S004 SD003=,- SN SH
20180123_210000.002,0,RJNK,,,,0,20180123210000,-1,-1,-1,-1,260,-1,25,-1,35,-1,-1,,9999,0,1,3,FEW 6   BKN 15   BKN 30,1,1,-1,6,1011,RJNK 232100Z 26025G35KT 9999 -SHSN FEW006 BKN015 BKN030 01/M06     Q1011 RMK 1ST006 5CU015 7CU030 A2987 25048KT/0340 09/M00           R006 S004 SD003=,- SN SH
20180123_220000.000,0,RJNK,,,,0,20180123220000,-1,-1,-1,-1,260,-1,26,-1,39,-1,-1,,9999,0,1,4,FEW 6   BKN 8   BKN 15   FEW 15 CB,1,1,-1,7,1012,RJNK 232200Z 26026G39KT 9999 -SHSN FEW006 BKN008 BKN015     FEW015CB 01/M07 Q1012 REBLSN RMK 1ST006 6CU008 7CU015           1CB015 A2989 CB SW=,- SN SH
20180123_220000.002,0,RJNK,,,,0,20180123220000,-1,-1,-1,-1,260,-1,26,-1,39,-1,-1,,9999,0,1,4,FEW 6   BKN 8   BKN 15   FEW 15 CB,1,1,-1,7,1012,RJNK 232200Z 26026G39KT 9999 -SHSN FEW006 BKN008 BKN015     FEW015CB 01/M07 Q1012 REBLSN RMK 1ST006 6CU008 7CU015           1CB015 A2989 CB SW=,- SN SH
20180123_230000.000,0,RJNK,,,,0,20180123230000,-1,-1,-1,-1,280,-1,22,-1,32,-1,-1,,9999,0,1,3,FEW 6   BKN 8   BKN 15,1,1,-1,6,1012,RJNK 232300Z 28022G32KT 9999 -SHSN FEW006 BKN008 BKN015 01/M06     Q1012 REBLSN RMK 1ST006 5CU008 6CU015 A2989=,- SN SH
20180123_230000.002,0,RJNK,,,,0,20180123230000,-1,-1,-1,-1,280,-1,22,-1,32,-1,-1,,9999,0,1,3,FEW 6   BKN 8   BKN 15,1,1,-1,6,1012,RJNK 232300Z 28022G32KT 9999 -SHSN FEW006 BKN008 BKN015 01/M06     Q1012 REBLSN RMK 1ST006 5CU008 6CU015 A2989=,- SN SH
20180124_000000.000,0,RJNK,,,,0,20180124000000,-1,-1,-1,-1,270,-1,23,-1,36,250,310,,9999,0,1,3,FEW 3   BKN 8   BKN 15,1,0,-1,4,1012,RJNK 240000Z 27023G36KT 250V310 9999 -SHSN FEW003 BKN008 BKN015     00/M04 Q1012 REBLSN RMK 1ST003 5CU008 7CU015 A2990 1ST003           OVER AD=,- SN SH
20180124_000000.002,0,RJNK,,,,0,20180124000000,-1,-1,-1,-1,270,-1,23,-1,36,250,310,,9999,0,1,3,FEW 3   BKN 8   BKN 15,1,0,-1,4,1012,RJNK 240000Z 27023G36KT 250V310 9999 -SHSN FEW003 BKN008     BKN015 00/M04 Q1012 REBLSN RMK 1ST003 5CU008 7CU015 A2990           1ST003 OVER AD=,- SN SH
20180124_010000.000,0,RJNK,,,,0,20180124010000,-1,-1,-1,-1,270,-1,26,-1,-1,-1,-1,,9999,0,0,4,FEW 6   SCT 8   BKN 15   FEW 15 CB,1,1,-1,7,1012,RJNK 240100Z 27026KT 9999 FEW006 SCT008 BKN015 FEW015CB 01/M07     Q1012 REBLSN RMK 1ST006 3CU008 6CU015 1CB015 A2989 CB W=,
20180124_010000.003,0,RJNK,,,,0,20180124010000,-1,-1,-1,-1,270,-1,26,-1,-1,-1,-1,,9999,0,0,4,FEW 6   SCT 8   BKN 15   FEW 15 CB,1,1,-1,7,1012,RJNK 240100Z 27026KT 9999 FEW006 SCT008 BKN015 FEW015CB 01/M07     Q1012 REBLSN RMK 1ST006 3CU008 6CU015 1CB015 A2989 CB W=,
20180124_020000.000,0,RJNK,,,,0,20180124020000,-1,-1,-1,-1,280,-1,23,-1,35,-1,-1,,8000,0,1,3,FEW 3   BKN 8   BKN 15,-1,0,-1,6,1012,RJNK 240200Z 28023G35KT 8000 -SHSN FEW003 BKN008 BKN015 M00/M06     Q1012 RMK 1ST003 5CU008 7CU015 A2989 VIS E 1500M 1ST003 E=,- SN SH
20180124_020000.002,0,RJNK,,,,0,20180124020000,-1,-1,-1,-1,280,-1,23,-1,35,-1,-1,,8000,0,1,3,FEW 3   BKN 8   BKN 15,-1,0,-1,6,1012,RJNK 240200Z 28023G35KT 8000 -SHSN FEW003 BKN008 BKN015     M00/M06 Q1012 RMK 1ST003 5CU008 7CU015 A2989 VIS E 1500M           1ST003 E=,- SN SH
20180124_030000.000,0,RJNK,,,,0,20180124030000,-1,-1,-1,-1,270,-1,22,-1,-1,-1,-1,,4000,0,2,4,FEW 3   BKN 8   BKN 15   FEW 15 CB,-1,0,-1,4,1011,RJNK 240300Z 27022KT 4000 -SHSN BLSN FEW003 BKN008 BKN015     FEW015CB M00/M04 Q1011 RMK 1ST003 5CU008 7CU015 1CB015           A2986 MAX WIND 30KT VIS W 8KM CB E AND W 1ST003 OVER AD=,- SN SH; BL SN
20180124_030000.002,0,RJNK,,,,0,20180124030000,-1,-1,-1,-1,270,-1,22,-1,-1,-1,-1,,4000,0,2,4,FEW 3   BKN 8   BKN 15   FEW 15 CB,-1,0,-1,4,1011,RJNK 240300Z 27022KT 4000 -SHSN BLSN FEW003 BKN008 BKN015     FEW015CB M00/M04 Q1011 RMK 1ST003 5CU008 7CU015 1CB015           A2986 MAX WIND 30KT VIS W 8KM CB E AND W 1ST003 OVER AD=,- SN SH; BL SN
20180124_040000.000,0,RJNK,,,,0,20180124040000,-1,-1,-1,-1,290,-1,26,-1,37,-1,-1,,600,1,2,1,VV 2,-1,1,-1,4,1010,RJNK 240400Z 29026G37KT 0600 R24/0650VP1800D SHSN BLSN VV002     M01/M04 Q1010 RMK A2985 R1100 VIS W-N 400M=,SN SH; BL SN
20180124_040000.002,0,RJNK,,,,0,20180124040000,-1,-1,-1,-1,290,-1,26,-1,37,-1,-1,,600,1,2,1,VV 2,-1,1,-1,4,1010,RJNK 240400Z 29026G37KT 0600 R24/0650VP1800D SHSN BLSN VV002     M01/M04 Q1010 RMK A2985 R1100 VIS W-N 400M=,SN SH; BL SN
20180124_050000.000,0,RJNK,,,,0,20180124050000,-1,-1,-1,-1,280,-1,27,-1,37,-1,-1,,9999,0,1,4,FEW 3   BKN 8   BKN 15   FEW 15 CB,-1,0,-1,6,1010,RJNK 240500Z 28027G37KT 9999 -SHSN FEW003 BKN008 BKN015     FEW015CB M00/M06 Q1010 REBLSN RMK 2ST003 5CU008 7CU015           1CB015 A2985 CB SE-SW 2ST003 OVER AD=,- SN SH
20180124_050000.002,0,RJNK,,,,0,20180124050000,-1,-1,-1,-1,280,-1,27,-1,37,-1,-1,,9999,0,1,4,FEW 3   BKN 8   BKN 15   FEW 15 CB,-1,0,-1,6,1010,RJNK 240500Z 28027G37KT 9999 -SHSN FEW003 BKN008 BKN015     FEW015CB M00/M06 Q1010 REBLSN RMK 2ST003 5CU008 7CU015           1CB015 A2985 CB SE-SW 2ST003 OVER AD=,- SN SH
20180124_060000.000,0,RJNK,,,,0,20180124060000,-1,-1,-1,-1,270,-1,28,-1,38,-1,-1,,0,1,2,1,VV 0,-1,2,-1,4,1011,RJNK 240600Z 27028G38KT 0000 R24/0600V1000D SHSN BLSN VV000     M02/M04 Q1011 RMK A2988 R0750=,SN SH; BL SN
20180124_060000.002,0,RJNK,,,,0,20180124060000,-1,-1,-1,-1,270,-1,28,-1,38,-1,-1,,0,1,2,1,VV 0,-1,2,-1,4,1011,RJNK 240600Z 27028G38KT 0000 R24/0600V1000D SHSN BLSN VV000     M02/M04 Q1011 RMK A2988 R0750=,SN SH; BL SN
20180124_070000.000,0,RJNK,,,,0,20180124070000,-1,-1,-1,-1,280,-1,28,-1,39,-1,-1,,600,1,2,1,VV 2,-1,1,-1,7,1012,RJNK 240700Z 28028G39KT 0600 R24/0800VP1800D SHSN BLSN VV002     M01/M07 Q1012 RMK A2990 R1400 VIS N 1000M=,SN SH; BL SN
20180124_070000.002,0,RJNK,,,,0,20180124070000,-1,-1,-1,-1,280,-1,28,-1,39,-1,-1,,600,1,2,1,VV 2,-1,1,-1,7,1012,RJNK 240700Z 28028G39KT 0600 R24/0800VP1800D SHSN BLSN VV002     M01/M07 Q1012 RMK A2990 R1400 VIS N 1000M=,SN SH; BL SN
20180124_080000.000,0,RJNK,,,,0,20180124080000,-1,-1,-1,-1,290,-1,28,-1,38,-1,-1,,9999,1,1,4,FEW 3   BKN 8   BKN 15   FEW 15 CB,-1,2,-1,10,1013,RJNK 240800Z 29028G38KT 9999 R24/0900VP1800U -SHSN FEW003     BKN008 BKN015 FEW015CB M02/M10 Q1013 REBLSN RMK 1ST003           5CU008 7CU015 1CB015 A2993 R1600 CB S 1ST003 OVER AD=,- SN SH
20180124_080000.002,0,RJNK,,,,0,20180124080000,-1,-1,-1,-1,290,-1,28,-1,38,-1,-1,,9999,1,1,4,FEW 3   BKN 8   BKN 15   FEW 15 CB,-1,2,-1,10,1013,RJNK 240800Z 29028G38KT 9999 R24/0900VP1800U -SHSN FEW003     BKN008 BKN015 FEW015CB M02/M10 Q1013 REBLSN RMK 1ST003           5CU008 7CU015 1CB015 A2993 R1600 CB S 1ST003 OVER AD=,- SN SH
20180124_090000.000,0,RJNK,,,,0,20180124090000,-1,-1,-1,-1,280,-1,21,-1,-1,-1,-1,,4000,0,2,3,FEW 3   BKN 8   BKN 15,-1,2,-1,6,1013,RJNK 240900Z 28021KT 4000 -SHSN BLSN FEW003 BKN008 BKN015     M02/M06 Q1013 RMK 1ST003 5CU008 6CU015 A2994 MAX WIND 30KT           VIS W-N 3000M 1ST003 OVER AD=,- SN SH; BL SN
20180124_090000.003,0,RJNK,,,,0,20180124090000,-1,-1,-1,-1,280,-1,21,-1,-1,-1,-1,,4000,0,2,3,FEW 3   BKN 8   BKN 15,-1,2,-1,6,1013,RJNK 240900Z 28021KT 4000 -SHSN BLSN FEW003 BKN008 BKN015     M02/M06 Q1013 RMK 1ST003 5CU008 6CU015 A2994 MAX WIND           30KT VIS W-N 3000M 1ST003 OVER AD=,- SN SH; BL SN
20180124_100000.000,0,RJNK,,,,0,20180124100000,-1,-1,-1,-1,300,-1,25,-1,36,-1,-1,,600,1,2,1,VV 5,-1,3,-1,5,1014,RJNK 241000Z 30025G36KT 0600 R24/P1800U SHSN BLSN VV005 M03/M05     Q1014 RMK A2996 VIS W 2500M=,SN SH; BL SN
20180124_100000.002,0,RJNK,,,,0,20180124100000,-1,-1,-1,-1,300,-1,25,-1,36,-1,-1,,600,1,2,1,VV 5,-1,3,-1,5,1014,RJNK 241000Z 30025G36KT 0600 R24/P1800U SHSN BLSN VV005     M03/M05 Q1014 RMK A2996 VIS W 2500M=,SN SH; BL SN
20180124_110000.000,0,RJNK,,,,0,20180124110000,-1,-1,-1,-1,310,-1,17,-1,28,-1,-1,,9999,0,1,3,FEW 3   BKN 8   BKN 15,-1,1,-1,8,1014,RJNK 241100Z 31017G28KT 9999 -SHSN FEW003 BKN008 BKN015 M01/M08     Q1014 REBLSN RMK 1ST003 5CU008 5CU015 A2996 1ST003 OVER           AD=,- SN SH
20180124_110000.002,0,RJNK,,,,0,20180124110000,-1,-1,-1,-1,310,-1,17,-1,28,-1,-1,,9999,0,1,3,FEW 3   BKN 8   BKN 15,-1,1,-1,8,1014,RJNK 241100Z 31017G28KT 9999 -SHSN FEW003 BKN008 BKN015     M01/M08 Q1014 REBLSN RMK 1ST003 5CU008 5CU015 A2996           1ST003 OVER AD=,- SN SH
20180124_120000.000,0,RJNK,,,,0,20180124120000,-1,-1,-1,-1,310,-1,17,-1,-1,260,330,,5000,0,1,2,FEW 6   BKN 8,-1,2,-1,7,1015,RJNK 241200Z 31017KT 260V330 5000 -SHSN FEW006 BKN008 M02/M07     Q1015 REBLSN RMK 1ST006 5CU008 A2998 VIS W-NW 1000M=,- SN SH
20180124_120000.002,0,RJNK,,,,0,20180124120000,-1,-1,-1,-1,310,-1,17,-1,-1,260,330,,5000,0,1,2,FEW 6   BKN 8,-1,2,-1,7,1015,RJNK 241200Z 31017KT 260V330 5000 -SHSN FEW006 BKN008 M02/M07     Q1015 REBLSN RMK 1ST006 5CU008 A2998 VIS W-NW 1000M=,- SN SH
20180124_130000.000,0,RJNK,,,,0,20180124130000,-1,-1,-1,-1,320,-1,13,-1,-1,-1,-1,,9999,0,1,3,FEW 6   BKN 8   BKN 15,-1,2,-1,8,1014,RJNK 241300Z 32013KT 9999 -SHSN FEW006 BKN008 BKN015 M02/M08     Q1014 REBLSN RMK 1ST006 6CU008 5CU015 A2997=,- SN SH
20180124_130000.002,0,RJNK,,,,0,20180124130000,-1,-1,-1,-1,320,-1,13,-1,-1,-1,-1,,9999,0,1,3,FEW 6   BKN 8   BKN 15,-1,2,-1,8,1014,RJNK 241300Z 32013KT 9999 -SHSN FEW006 BKN008 BKN015 M02/M08     Q1014 REBLSN RMK 1ST006 6CU008 5CU015 A2997=,- SN SH
20180124_140000.000,0,RJNK,,,,0,20180124140000,-1,-1,-1,-1,320,-1,20,-1,33,280,340,,9999,0,1,3,FEW 6   BKN 8   BKN 15,-1,3,-1,7,1015,RJNK 241400Z 32020G33KT 280V340 9999 -SHSN FEW006 BKN008 BKN015     M03/M07 Q1015 REBLSN RMK 1ST006 6CU008 7CU015 A2999=,- SN SH
20180124_140000.003,0,RJNK,,,,0,20180124140000,-1,-1,-1,-1,320,-1,20,-1,33,280,340,,9999,0,1,3,FEW 6   BKN 8   BKN 15,-1,3,-1,7,1015,RJNK 241400Z 32020G33KT 280V340 9999 -SHSN FEW006 BKN008     BKN015 M03/M07 Q1015 REBLSN RMK 1ST006 6CU008 7CU015           A2999=,- SN SH
20180124_150000.000,0,RJNK,,,,0,20180124150000,-1,-1,-1,-1,310,-1,16,-1,27,280,340,,9999,0,1,3,FEW 6   BKN 8   BKN 15,-1,2,-1,9,1014,RJNK 241500Z 31016G27KT 280V340 9999 -SHSN FEW006 BKN008 BKN015     M02/M09 Q1014 REBLSN RMK 1ST006 6CU008 7CU015 A2997 VIS SE           2000M=,- SN SH
20180124_150000.002,0,RJNK,,,,0,20180124150000,-1,-1,-1,-1,310,-1,16,-1,27,280,340,,9999,0,1,3,FEW 6   BKN 8   BKN 15,-1,2,-1,9,1014,RJNK 241500Z 31016G27KT 280V340 9999 -SHSN FEW006 BKN008     BKN015 M02/M09 Q1014 REBLSN RMK 1ST006 6CU008 7CU015           A2997 VIS SE 2000M=,- SN SH
20180124_160000.000,0,RJNK,,,,0,20180124160000,-1,-1,-1,-1,330,-1,16,-1,26,-1,-1,,9999,0,1,3,FEW 6   BKN 8   BKN 15,-1,3,-1,7,1015,RJNK 241600Z 33016G26KT 9999 -SHSN FEW006 BKN008 BKN015 M03/M07     Q1015 REBLSN RMK 1CU006 5CU008 7CU015 A2998=,- SN SH
20180124_160000.002,0,RJNK,,,,0,20180124160000,-1,-1,-1,-1,330,-1,16,-1,26,-1,-1,,9999,0,1,3,FEW 6   BKN 8   BKN 15,-1,3,-1,7,1015,RJNK 241600Z 33016G26KT 9999 -SHSN FEW006 BKN008 BKN015     M03/M07 Q1015 REBLSN RMK 1CU006 5CU008 7CU015 A2998=,- SN SH
20180124_170000.000,0,RJNK,,,,0,20180124170000,-1,-1,-1,-1,310,-1,19,-1,29,-1,-1,,1200,1,2,3,FEW 6   BKN 8   BKN 15,-1,2,-1,8,1015,RJNK 241700Z 31019G29KT 1200 R24/P1800N -SHSN BLSN FEW006     BKN008 BKN015 M02/M08 Q1015 RMK 1ST006 6CU008 7CU015           A2998=,- SN SH; BL SN
20180124_170000.002,0,RJNK,,,,0,20180124170000,-1,-1,-1,-1,310,-1,19,-1,29,-1,-1,,1200,1,2,3,FEW 6   BKN 8   BKN 15,-1,2,-1,8,1015,RJNK 241700Z 31019G29KT 1200 R24/P1800N -SHSN BLSN FEW006     BKN008 BKN015 M02/M08 Q1015 RMK 1ST006 6CU008 7CU015           A2998=,- SN SH; BL SN
20180124_180000.000,0,RJNK,,,,0,20180124180000,-1,-1,-1,-1,310,-1,17,-1,-1,-1,-1,,9999,0,1,3,FEW 6   BKN 8   BKN 15,-1,2,-1,10,1016,RJNK 241800Z 31017KT 9999 -SHSN FEW006 BKN008 BKN015 M02/M10     Q1016 REBLSN RMK 1ST006 5CU008 6CU015 A3000=,- SN SH
20180124_180000.002,0,RJNK,,,,0,20180124180000,-1,-1,-1,-1,310,-1,17,-1,-1,-1,-1,,9999,0,1,3,FEW 6   BKN 8   BKN 15,-1,2,-1,10,1016,RJNK 241800Z 31017KT 9999 -SHSN FEW006 BKN008 BKN015 M02/M10     Q1016 REBLSN RMK 1ST006 5CU008 6CU015 A3000=,- SN SH
20180124_190000.000,0,RJNK,,,,0,20180124190000,-1,-1,-1,-1,310,-1,23,-1,33,270,330,,600,1,2,1,VV 2,-1,2,-1,9,1016,RJNK 241900Z 31023G33KT 270V330 0600 R24/1400VP1800U SHSN BLSN     VV002 M02/M09 Q1016 REGS RMK A3000 R1800 VIS NW 10KM=,SN SH; BL SN
20180124_190000.003,0,RJNK,,,,0,20180124190000,-1,-1,-1,-1,310,-1,23,-1,33,270,330,,600,1,2,1,VV 2,-1,2,-1,9,1016,RJNK 241900Z 31023G33KT 270V330 0600 R24/1400VP1800U SHSN BLSN     VV002 M02/M09 Q1016 REGS RMK A3000 R1800 VIS NW 10KM=,SN SH; BL SN
20180124_200000.000,0,RJNK,,,,0,20180124200000,-1,-1,-1,-1,290,-1,17,-1,-1,260,330,,1200,1,2,3,FEW 6   BKN 8   BKN 30,-1,3,-1,10,1016,RJNK 242000Z 29017KT 260V330 1200 R24/P1800N -SHSN BLSN FEW006     BKN008 BKN030 M03/M10 Q1016 RMK 1ST006 6CU008 7CU030           A3001=,- SN SH; BL SN
20180124_200000.002,0,RJNK,,,,0,20180124200000,-1,-1,-1,-1,290,-1,17,-1,-1,260,330,,1200,1,2,3,FEW 6   BKN 8   BKN 30,-1,3,-1,10,1016,RJNK 242000Z 29017KT 260V330 1200 R24/P1800N -SHSN BLSN FEW006     BKN008 BKN030 M03/M10 Q1016 RMK 1ST006 6CU008 7CU030           A3001=,- SN SH; BL SN
20180124_210000.000,0,RJNK,,,,0,20180124210000,-1,-1,-1,-1,320,-1,17,-1,30,-1,-1,,9999,0,1,3,FEW 6   BKN 8   BKN 30,-1,2,-1,10,1016,RJNK 242100Z 32017G30KT 9999 -SHSN FEW006 BKN008 BKN030 M02/M10     Q1016 REBLSN RMK 1ST006 6CU008 7CU030 A3002 27044KT/0740           02/M04 R001 S009 SD007=,- SN SH
20180124_210000.002,0,RJNK,,,,0,20180124210000,-1,-1,-1,-1,320,-1,17,-1,30,-1,-1,,9999,0,1,3,FEW 6   BKN 8   BKN 30,-1,2,-1,10,1016,RJNK 242100Z 32017G30KT 9999 -SHSN FEW006 BKN008 BKN030     M02/M10 Q1016 REBLSN RMK 1ST006 6CU008 7CU030 A3002           27044KT/0740 02/M04 R001 S009 SD007=,- SN SH
20180124_220000.000,0,RJNK,,,,0,20180124220000,-1,-1,-1,-1,320,-1,16,-1,30,-1,-1,,1000,1,2,3,FEW 5   BKN 8   BKN 30,-1,2,-1,9,1017,RJNK 242200Z 32016G30KT 1000 R24/P1800N -SHSN BLSN FEW005     BKN008 BKN030 M02/M09 Q1017 RMK 1ST005 5CU008 7CU030 A3005           VIS W-N 2000M 1ST005 OVER AD=,- SN SH; BL SN
20180124_220000.002,0,RJNK,,,,0,20180124220000,-1,-1,-1,-1,320,-1,16,-1,30,-1,-1,,1000,1,2,3,FEW 5   BKN 8   BKN 30,-1,2,-1,9,1017,RJNK 242200Z 32016G30KT 1000 R24/P1800N -SHSN BLSN FEW005     BKN008 BKN030 M02/M09 Q1017 RMK 1ST005 5CU008 7CU030           A3005 VIS W-N 2000M 1ST005 OVER AD=,- SN SH; BL SN
20180124_230000.000,0,RJNK,,,,0,20180124230000,-1,-1,-1,-1,280,-1,12,-1,-1,-1,-1,,9999,0,1,3,FEW 5   BKN 8   BKN 30,-1,2,-1,10,1018,RJNK 242300Z 28012KT 9999 -SHSN FEW005 BKN008 BKN030 M02/M10     Q1018 REBLSN RMK 1ST005 5CU008 6CU030 A3006 1ST005 OVER           AD=,- SN SH
20180124_230000.002,0,RJNK,,,,0,20180124230000,-1,-1,-1,-1,280,-1,12,-1,-1,-1,-1,,9999,0,1,3,FEW 5   BKN 8   BKN 30,-1,2,-1,10,1018,RJNK 242300Z 28012KT 9999 -SHSN FEW005 BKN008 BKN030 M02/M10     Q1018 REBLSN RMK 1ST005 5CU008 6CU030 A3006 1ST005 OVER           AD=,- SN SH
20180125_000000.000,0,RJNK,,,,0,20180125000000,-1,-1,-1,-1,320,-1,17,-1,-1,-1,-1,,8000,0,1,3,FEW 3   BKN 8   BKN 25,-1,2,-1,8,1018,RJNK 250000Z 32017KT 8000 -SHSN FEW003 BKN008 BKN025 M02/M08     Q1018 RMK 1ST003 5CU008 5CU025 A3006 VIS N 4000M 1ST005           NE=,- SN SH
20180125_000000.002,0,RJNK,,,,0,20180125000000,-1,-1,-1,-1,320,-1,17,-1,-1,-1,-1,,8000,0,1,3,FEW 3   BKN 8   BKN 25,-1,2,-1,8,1018,RJNK 250000Z 32017KT 8000 -SHSN FEW003 BKN008 BKN025 M02/M08     Q1018 RMK 1ST003 5CU008 5CU025 A3006 VIS N 4000M 1ST005           NE=,- SN SH
20180125_000000.003,2,RJNK,,,,0,20180125000000,-1,-1,-1,-1,320,-1,17,-1,-1,-1,-1,,8000,0,1,3,FEW 3   BKN 8   BKN 25,-1,2,-1,8,1018,RJNK 250000Z 32017KT 8000 -SHSN FEW003 BKN008 BKN025     M02/M08 Q1018 RMK 1ST003 5CU008 5CU025 A3006 VIS N 4000M           1ST005 NE=,- SN SH
20180125_010000.000,0,RJNK,,,,0,20180125010000,-1,-1,-1,-1,330,-1,17,-1,-1,-1,-1,,9999,0,1,3,FEW 5   SCT 8   BKN 25,-1,1,-1,10,1018,RJNK 250100Z 33017KT 9999 -SHSN FEW005 SCT008 BKN025 M01/M10     Q1018 RMK 1ST005 3CU008 6CU025 A3007 MAX WIND 25KT 1ST005           NE=,- SN SH
20180125_010000.002,0,RJNK,,,,0,20180125010000,-1,-1,-1,-1,330,-1,17,-1,-1,-1,-1,,9999,0,1,3,FEW 5   SCT 8   BKN 25,-1,1,-1,10,1018,RJNK 250100Z 33017KT 9999 -SHSN FEW005 SCT008 BKN025 M01/M10     Q1018 RMK 1ST005 3CU008 6CU025 A3007 MAX WIND 25KT 1ST005           NE=,- SN SH
20180125_020000.000,0,RJNK,,,,0,20180125020000,-1,-1,-1,-1,320,-1,20,-1,-1,-1,-1,,9999,0,1,3,FEW 5   SCT 15   BKN 25,-1,2,-1,8,1018,RJNK 250200Z 32020KT 9999 -SHSN FEW005 SCT015 BKN025 M02/M08     Q1018 RMK 1ST005 4CU015 6CU025 A3007 MAX WIND 27KT 1ST005           NW-NE=,- SN SH
20180125_020000.003,0,RJNK,,,,0,20180125020000,-1,-1,-1,-1,320,-1,20,-1,-1,-1,-1,,9999,0,1,3,FEW 5   SCT 15   BKN 25,-1,2,-1,8,1018,RJNK 250200Z 32020KT 9999 -SHSN FEW005 SCT015 BKN025 M02/M08     Q1018 RMK 1ST005 4CU015 6CU025 A3007 MAX WIND 27KT 1ST005           NW-NE=,- SN SH
20180125_030000.000,0,RJNK,,,,0,20180125030000,-1,-1,-1,-1,310,-1,17,-1,-1,-1,-1,,9999,0,0,2,FEW 5   BKN 25,-1,1,-1,9,1017,RJNK 250300Z 31017KT 9999 FEW005 BKN025 M01/M09 Q1017 RMK     1ST005 7CU025 A3005 1ST005 NW-E=,
20180125_030000.002,0,RJNK,,,,0,20180125030000,-1,-1,-1,-1,310,-1,17,-1,-1,-1,-1,,9999,0,0,2,FEW 5   BKN 25,-1,1,-1,9,1017,RJNK 250300Z 31017KT 9999 FEW005 BKN025 M01/M09 Q1017 RMK     1ST005 7CU025 A3005 1ST005 NW-E=,
20180125_040000.000,0,RJNK,,,,0,20180125040000,-1,-1,-1,-1,320,-1,15,-1,-1,-1,-1,,9999,0,1,3,FEW 8   SCT 15   BKN 25,-1,1,-1,8,1017,RJNK 250400Z 32015KT 9999 -SHSN FEW008 SCT015 BKN025 M01/M08     Q1017 REBLSN RMK 1CU008 4CU015 7CU025 A3003=,- SN SH
20180125_040000.002,0,RJNK,,,,0,20180125040000,-1,-1,-1,-1,320,-1,15,-1,-1,-1,-1,,9999,0,1,3,FEW 8   SCT 15   BKN 25,-1,1,-1,8,1017,RJNK 250400Z 32015KT 9999 -SHSN FEW008 SCT015 BKN025 M01/M08     Q1017 REBLSN RMK 1CU008 4CU015 7CU025 A3003=,- SN SH
20180125_050000.000,0,RJNK,,,,0,20180125050000,-1,-1,-1,-1,280,-1,13,-1,-1,-1,-1,,9999,0,1,3,FEW 8   SCT 15   BKN 25,-1,1,-1,9,1017,RJNK 250500Z 28013KT 9999 -SHSN FEW008 SCT015 BKN025 M01/M09     Q1017 REBLSN RMK 1CU008 4CU015 7CU025 A3003=,- SN SH
20180125_050000.002,0,RJNK,,,,0,20180125050000,-1,-1,-1,-1,280,-1,13,-1,-1,-1,-1,,9999,0,1,3,FEW 8   SCT 15   BKN 25,-1,1,-1,9,1017,RJNK 250500Z 28013KT 9999 -SHSN FEW008 SCT015 BKN025 M01/M09     Q1017 REBLSN RMK 1CU008 4CU015 7CU025 A3003=,- SN SH
20180125_060000.000,0,RJNK,,,,0,20180125060000,-1,-1,-1,-1,290,-1,12,-1,-1,-1,-1,,9999,0,1,3,FEW 8   SCT 15   BKN 25,-1,1,-1,9,1017,RJNK 250600Z 29012KT 9999 -SHSN FEW008 SCT015 BKN025 M01/M09     Q1017 RMK 1CU008 3CU015 7CU025 A3004=,- SN SH
20180125_060000.002,0,RJNK,,,,0,20180125060000,-1,-1,-1,-1,290,-1,12,-1,-1,-1,-1,,9999,0,1,3,FEW 8   SCT 15   BKN 25,-1,1,-1,9,1017,RJNK 250600Z 29012KT 9999 -SHSN FEW008 SCT015 BKN025 M01/M09     Q1017 RMK 1CU008 3CU015 7CU025 A3004=,- SN SH
20180125_070000.000,0,RJNK,,,,0,20180125070000,-1,-1,-1,-1,220,-1,9,-1,-1,-1,-1,,3000,0,1,3,FEW 5   SCT 8   BKN 15,-1,3,-1,4,1017,RJNK 250700Z 22009KT 3000 -SHGSSN FEW005 SCT008 BKN015 M03/M04     Q1017 RMK 1ST005 3CU008 6CU015 A3004 VIS SW-N 8KM SNOW           PELLETS CUMED OHD 1ST005 OVER AD=,- GS SN SH
20180125_070000.002,0,RJNK,,,,0,20180125070000,-1,-1,-1,-1,220,-1,9,-1,-1,-1,-1,,3000,0,1,3,FEW 5   SCT 8   BKN 15,-1,3,-1,4,1017,RJNK 250700Z 22009KT 3000 -SHGSSN FEW005 SCT008 BKN015 M03/M04     Q1017 RMK 1ST005 3CU008 6CU015 A3004 VIS SW-N 8KM SNOW           PELLETS CUMED OHD 1ST005 OVER AD=,- GS SN SH
20180125_080000.000,0,RJNK,,,,0,20180125080000,-1,-1,-1,-1,300,-1,11,-1,-1,270,340,,9999,0,1,3,FEW 8   FEW 15 CB  BKN 25,-1,0,-1,10,1017,RJNK 250800Z 30011KT 270V340 9999 -SHSN FEW008 FEW015CB BKN025     M00/M10 Q1017 RMK 1CU008 2CB015 7CU025 A3003 CB W=,- SN SH
20180125_080000.002,0,RJNK,,,,0,20180125080000,-1,-1,-1,-1,300,-1,11,-1,-1,270,340,,9999,0,1,3,FEW 8   FEW 15 CB  BKN 25,-1,0,-1,10,1017,RJNK 250800Z 30011KT 270V340 9999 -SHSN FEW008 FEW015CB BKN025     M00/M10 Q1017 RMK 1CU008 2CB015 7CU025 A3003 CB W=,- SN SH
20180125_090000.000,0,RJNK,,,,0,20180125090000,-1,-1,-1,-1,240,-1,9,-1,-1,190,330,,9999,0,1,3,FEW 5   SCT 15 TCU  BKN 25,-1,2,-1,7,1016,RJNK 250900Z 24009KT 190V330 9999 -SHSN FEW005 SCT015TCU BKN025     M02/M07 Q1016 RMK 1ST005 3TCU015 7CU025 A3001 TCU S 1ST005           OVER AD=,- SN SH
20180125_090000.002,0,RJNK,,,,0,20180125090000,-1,-1,-1,-1,240,-1,9,-1,-1,190,330,,9999,0,1,3,FEW 5   SCT 15 TCU  BKN 25,-1,2,-1,7,1016,RJNK 250900Z 24009KT 190V330 9999 -SHSN FEW005 SCT015TCU     BKN025 M02/M07 Q1016 RMK 1ST005 3TCU015 7CU025 A3001 TCU           S 1ST005 OVER AD=,- SN SH
20180125_100000.000,0,RJNK,,,,0,20180125100000,-1,-1,-1,-1,290,-1,10,-1,-1,-1,-1,,9999,0,1,2,FEW 8   BKN 25,-1,0,-1,9,1016,RJNK 251000Z 29010KT 9999 -SHSN FEW008 BKN025 M00/M09 Q1016 RMK     1CU008 7CU025 A3001=,- SN SH
20180125_100000.003,0,RJNK,,,,0,20180125100000,-1,-1,-1,-1,290,-1,10,-1,-1,-1,-1,,9999,0,1,2,FEW 8   BKN 25,-1,0,-1,9,1016,RJNK 251000Z 29010KT 9999 -SHSN FEW008 BKN025 M00/M09 Q1016     RMK 1CU008 7CU025 A3001=,- SN SH
20180125_110000.000,0,RJNK,,,,0,20180125110000,-1,-1,-1,-1,170,-1,7,-1,-1,-1,-1,,9999,0,1,2,FEW 8   BKN 25,-1,2,-1,6,1015,RJNK 251100Z 17007KT 9999 -SHSN FEW008 BKN025 M02/M06 Q1015 RMK     1CU008 7CU025 A2999=,- SN SH
20180125_110000.003,0,RJNK,,,,0,20180125110000,-1,-1,-1,-1,170,-1,7,-1,-1,-1,-1,,9999,0,1,2,FEW 8   BKN 25,-1,2,-1,6,1015,RJNK 251100Z 17007KT 9999 -SHSN FEW008 BKN025 M02/M06 Q1015     RMK 1CU008 7CU025 A2999=,- SN SH
20180125_120000.000,0,RJNK,,,,0,20180125120000,-1,-1,-1,-1,200,-1,4,-1,-1,130,270,,8000,0,1,3,FEW 8   SCT 15   BKN 25,-1,2,-1,5,1014,RJNK 251200Z 20004KT 130V270 8000 -SHSN FEW008 SCT015 BKN025     M02/M05 Q1014 RMK 1CU008 3CU015 7CU025 A2997=,- SN SH
20180125_120000.002,0,RJNK,,,,0,20180125120000,-1,-1,-1,-1,200,-1,4,-1,-1,130,270,,8000,0,1,3,FEW 8   SCT 15   BKN 25,-1,2,-1,5,1014,RJNK 251200Z 20004KT 130V270 8000 -SHSN FEW008 SCT015 BKN025     M02/M05 Q1014 RMK 1CU008 3CU015 7CU025 A2997=,- SN SH
20180125_130000.000,0,RJNK,,,,0,20180125130000,-1,-1,-1,-1,999,-1,2,-1,-1,-1,-1,,9999,0,1,3,FEW 5   SCT 10   BKN 20,-1,2,-1,4,1014,RJNK 251300Z VRB02KT 9999 -SHSN FEW005 SCT010 BKN020 M02/M04     Q1014 RMK 1ST005 3CU010 7CU020 A2995 1ST005 OVER AD=,- SN SH
20180125_130000.002,0,RJNK,,,,0,20180125130000,-1,-1,-1,-1,999,-1,2,-1,-1,-1,-1,,9999,0,1,3,FEW 5   SCT 10   BKN 20,-1,2,-1,4,1014,RJNK 251300Z VRB02KT 9999 -SHSN FEW005 SCT010 BKN020 M02/M04     Q1014 RMK 1ST005 3CU010 7CU020 A2995 1ST005 OVER AD=,- SN SH
20180125_140000.000,0,RJNK,,,,0,20180125140000,-1,-1,-1,-1,180,-1,7,-1,-1,150,210,,9999,0,1,3,FEW 5   SCT 10   BKN 20,-1,2,-1,4,1013,RJNK 251400Z 18007KT 150V210 9999 -SHSN FEW005 SCT010 BKN020     M02/M04 Q1013 RMK 1ST005 3CU010 7CU020 A2993 1ST005 E=,- SN SH
20180125_140000.002,0,RJNK,,,,0,20180125140000,-1,-1,-1,-1,180,-1,7,-1,-1,150,210,,9999,0,1,3,FEW 5   SCT 10   BKN 20,-1,2,-1,4,1013,RJNK 251400Z 18007KT 150V210 9999 -SHSN FEW005 SCT010 BKN020     M02/M04 Q1013 RMK 1ST005 3CU010 7CU020 A2993 1ST005 E=,- SN SH
20180125_150000.000,0,RJNK,,,,0,20180125150000,-1,-1,-1,-1,210,-1,8,-1,-1,-1,-1,,8000,0,1,3,FEW 5   SCT 10   BKN 20,-1,1,-1,3,1012,RJNK 251500Z 21008KT 8000 -SHSN FEW005 SCT010 BKN020 M01/M03     Q1012 RMK 1ST005 3CU010 7CU020 A2991 VIS N 2000M=,- SN SH
20180125_150000.002,0,RJNK,,,,0,20180125150000,-1,-1,-1,-1,210,-1,8,-1,-1,-1,-1,,8000,0,1,3,FEW 5   SCT 10   BKN 20,-1,1,-1,3,1012,RJNK 251500Z 21008KT 8000 -SHSN FEW005 SCT010 BKN020 M01/M03     Q1012 RMK 1ST005 3CU010 7CU020 A2991 VIS N 2000M=,- SN SH
20180125_160000.000,0,RJNK,,,,0,20180125160000,-1,-1,-1,-1,150,-1,7,-1,-1,100,200,,9999,0,1,3,FEW 5   SCT 10   BKN 20,-1,2,-1,3,1012,RJNK 251600Z 15007KT 100V200 9999 -SHSN FEW005 SCT010 BKN020     M02/M03 Q1012 RMK 1ST005 4CU010 7CU020 A2989 1ST005 OVER           AD=,- SN SH
20180125_160000.002,0,RJNK,,,,0,20180125160000,-1,-1,-1,-1,150,-1,7,-1,-1,100,200,,9999,0,1,3,FEW 5   SCT 10   BKN 20,-1,2,-1,3,1012,RJNK 251600Z 15007KT 100V200 9999 -SHSN FEW005 SCT010 BKN020     M02/M03 Q1012 RMK 1ST005 4CU010 7CU020 A2989 1ST005 OVER           AD=,- SN SH
20180125_170000.000,0,RJNK,,,,0,20180125170000,-1,-1,-1,-1,320,-1,12,-1,-1,-1,-1,,2000,0,1,4,FEW 3   SCT 5   BKN 10   FEW 20 TCU,-1,1,-1,2,1012,RJNK 251700Z 32012KT 2000 -SHSN FEW003 SCT005 BKN010 FEW020TCU     M01/M02 Q1012 RMK 1ST003 4ST005 7CU010 1TCU020 A2989 VIS           NW 3000M E 1000M TCU NE AND SE-S 1ST003 OVER AD=,- SN SH
20180125_170000.002,0,RJNK,,,,0,20180125170000,-1,-1,-1,-1,320,-1,12,-1,-1,-1,-1,,2000,0,1,4,FEW 3   SCT 5   BKN 10   FEW 20 TCU,-1,1,-1,2,1012,RJNK 251700Z 32012KT 2000 -SHSN FEW003 SCT005 BKN010 FEW020TCU     M01/M02 Q1012 RMK 1ST003 4ST005 7CU010 1TCU020 A2989 VIS           NW 3000M E 1000M TCU NE AND SE-S 1ST003 OVER AD=,- SN SH
20180125_180000.000,0,RJNK,,,,0,20180125180000,-1,-1,-1,-1,330,-1,17,-1,-1,-1,-1,,6000,0,1,3,FEW 5   SCT 10   BKN 20,-1,0,-1,3,1011,RJNK 251800Z 33017KT 6000 -SHSN FEW005 SCT010 BKN020 M00/M03     Q1011 RMK 1ST005 4CU010 7CU020 A2988 MAX WIND 26KT VIS N           3000M 1ST005 OVER AD=,- SN SH
20180125_180000.002,0,RJNK,,,,0,20180125180000,-1,-1,-1,-1,330,-1,17,-1,-1,-1,-1,,6000,0,1,3,FEW 5   SCT 10   BKN 20,-1,0,-1,3,1011,RJNK 251800Z 33017KT 6000 -SHSN FEW005 SCT010 BKN020 M00/M03     Q1011 RMK 1ST005 4CU010 7CU020 A2988 MAX WIND 26KT VIS N           3000M 1ST005 OVER AD=,- SN SH
20180125_190000.000,0,RJNK,,,,0,20180125190000,-1,-1,-1,-1,320,-1,17,-1,-1,-1,-1,,6000,0,1,3,FEW 5   SCT 8   BKN 15,1,0,-1,5,1011,RJNK 251900Z 32017KT 6000 -SHSN FEW005 SCT008 BKN015 00/M05     Q1011 RMK 1ST005 3CU008 7CU015 A2988 VIS N 3000M 1ST005           OVER AD=,- SN SH
20180125_190000.002,0,RJNK,,,,0,20180125190000,-1,-1,-1,-1,320,-1,17,-1,-1,-1,-1,,6000,0,1,3,FEW 5   SCT 8   BKN 15,1,0,-1,5,1011,RJNK 251900Z 32017KT 6000 -SHSN FEW005 SCT008 BKN015 00/M05     Q1011 RMK 1ST005 3CU008 7CU015 A2988 VIS N 3000M 1ST005           OVER AD=,- SN SH
20180125_200000.000,0,RJNK,,,,0,20180125200000,-1,-1,-1,-1,330,-1,19,-1,-1,-1,-1,,1000,1,1,3,FEW 5   BKN 8   BKN 15,-1,1,-1,3,1012,RJNK 252000Z 33019KT 1000 R24/P1800N -SHSN FEW005 BKN008 BKN015     M01/M03 Q1012 RMK 1ST005 5CU008 7CU015 A2989 MAX WIND 25KT           VIS N 3000M=,- SN SH
20180125_200000.003,0,RJNK,,,,0,20180125200000,-1,-1,-1,-1,330,-1,19,-1,-1,-1,-1,,1000,1,1,3,FEW 5   BKN 8   BKN 15,-1,1,-1,3,1012,RJNK 252000Z 33019KT 1000 R24/P1800N -SHSN FEW005 BKN008     BKN015 M01/M03 Q1012 RMK 1ST005 5CU008 7CU015 A2989 MAX           WIND 25KT VIS N 3000M=,- SN SH
20180125_210000.000,0,RJNK,,,,0,20180125210000,-1,-1,-1,-1,330,-1,16,-1,-1,300,360,,8000,0,1,3,FEW 5   BKN 8   BKN 15,-1,1,-1,5,1012,RJNK 252100Z 33016KT 300V360 8000 -SHSN FEW005 BKN008 BKN015     M01/M05 Q1012 RMK 1ST005 5CU008 7CU015 A2991 MAX WIND 22KT           32032KT/2100 01/M03 R002 S010 SD012=,- SN SH
20180125_210000.000,0,RJNK,,,,0,20180125210000,-1,-1,-1,-1,330,-1,16,-1,-1,300,360,,8000,0,1,3,FEW 5   BKN 8   BKN 15,-1,1,-1,5,1012,RJNK 252100Z 33016KT 300V360 8000 -SHSN FEW005 BKN008 BKN015     M01/M05 Q1012 RMK 1ST005 5CU008 7CU015 A2991 MAX WIND 26KT           32032KT/2100 01/M03 R002 S010 SD012=,- SN SH
20180125_210000.002,0,RJNK,,,,0,20180125210000,-1,-1,-1,-1,330,-1,16,-1,-1,300,360,,8000,0,1,3,FEW 5   BKN 8   BKN 15,-1,1,-1,5,1012,RJNK 252100Z 33016KT 300V360 8000 -SHSN FEW005 BKN008 BKN015     M01/M05 Q1012 RMK 1ST005 5CU008 7CU015 A2991 MAX WIND           22KT 32032KT/2100 01/M03 R002 S010 SD012=,- SN SH
20180125_220000.000,0,RJNK,,,,0,20180125220000,-1,-1,-1,-1,330,-1,19,-1,-1,300,360,,4000,0,1,3,FEW 3   SCT 5   OVC 8,-1,1,-1,7,1013,RJNK 252200Z 33019KT 300V360 4000 -SHSN FEW003 SCT005 OVC008     M01/M07 Q1013 RMK 1ST003 4ST005 8CU008 A2992 MAX WIND 25KT           VIS W-N 5KM 1ST003 OVER AD=,- SN SH
20180125_220000.002,0,RJNK,,,,0,20180125220000,-1,-1,-1,-1,330,-1,19,-1,-1,300,360,,4000,0,1,3,FEW 3   SCT 5   OVC 8,-1,1,-1,7,1013,RJNK 252200Z 33019KT 300V360 4000 -SHSN FEW003 SCT005 OVC008     M01/M07 Q1013 RMK 1ST003 4ST005 8CU008 A2992 MAX WIND           25KT VIS W-N 5KM 1ST003 OVER AD=,- SN SH
20180125_230000.000,0,RJNK,,,,0,20180125230000,-1,-1,-1,-1,320,-1,15,-1,-1,-1,-1,,1200,1,2,3,FEW 3   BKN 5   OVC 8,-1,1,-1,5,1013,RJNK 252300Z 32015KT 1200 R24/P1800N -SHSN BLSN FEW003 BKN005     OVC008 M01/M05 Q1013 RMK 2ST003 5ST005 8CU008 A2994 VIS           W-N 10KM MAX WIND 24KT 2ST003 OVER AD=,- SN SH; BL SN
20180125_230000.002,0,RJNK,,,,0,20180125230000,-1,-1,-1,-1,320,-1,15,-1,-1,-1,-1,,1200,1,2,3,FEW 3   BKN 5   OVC 8,-1,1,-1,5,1013,RJNK 252300Z 32015KT 1200 R24/P1800N -SHSN BLSN FEW003 BKN005     OVC008 M01/M05 Q1013 RMK 2ST003 5ST005 8CU008 A2994 VIS           W-N 10KM MAX WIND 24KT 2ST003 OVER AD=,- SN SH; BL SN
20180126_000000.000,0,RJNK,,,,0,20180126000000,-1,-1,-1,-1,320,-1,18,-1,-1,-1,-1,,6000,0,1,3,FEW 3   SCT 5   BKN 8,-1,1,-1,8,1014,RJNK 260000Z 32018KT 6000 -SHSN FEW003 SCT005 BKN008 M01/M08     Q1014 REBLSN RMK 1ST003 3ST005 5CU008 A2995 MAX WIND 27KT           VIS E-S 4000M 1ST003 OVER AD=,- SN SH
20180126_000000.002,0,RJNK,,,,0,20180126000000,-1,-1,-1,-1,320,-1,18,-1,-1,-1,-1,,6000,0,1,3,FEW 3   SCT 5   BKN 8,-1,1,-1,8,1014,RJNK 260000Z 32018KT 6000 -SHSN FEW003 SCT005 BKN008 M01/M08     Q1014 REBLSN RMK 1ST003 3ST005 5CU008 A2995 MAX WIND 27KT           VIS E-S 4000M 1ST003 OVER AD=,- SN SH
20180126_010000.000,0,RJNK,,,,0,20180126010000,-1,-1,-1,-1,320,-1,17,-1,28,300,360,,3000,0,1,3,FEW 3   SCT 5   BKN 8,-1,1,-1,8,1014,RJNK 260100Z 32017G28KT 300V360 3000 -SHSN FEW003 SCT005 BKN008     M01/M08 Q1014 REBLSN RMK 1ST003 3ST005 5CU008 A2997 VIS           W-N 1500M 1ST003 OVER AD=,- SN SH
20180126_010000.002,0,RJNK,,,,0,20180126010000,-1,-1,-1,-1,320,-1,17,-1,28,300,360,,3000,0,1,3,FEW 3   SCT 5   BKN 8,-1,1,-1,8,1014,RJNK 260100Z 32017G28KT 300V360 3000 -SHSN FEW003 SCT005     BKN008 M01/M08 Q1014 REBLSN RMK 1ST003 3ST005 5CU008           A2997 VIS W-N 1500M 1ST003 OVER AD=,- SN SH
20180126_010000.002,2,RJNK,,,,0,20180126010000,-1,-1,-1,-1,320,-1,17,-1,28,300,360,,3000,0,1,3,FEW 3   SCT 5   BKN 8,-1,1,-1,8,1014,RJNK 260100Z 32017G28KT 300V360 3000 -SHSN FEW003 SCT005     BKN008 M01/M08 Q1014 REBLSN RMK 1ST003 3ST005 5CU008 A2997           VIS W-N 1500M 1ST003 OVER AD=,- SN SH
20180126_020000.000,0,RJNK,,,,0,20180126020000,-1,-1,-1,-1,310,-1,16,-1,-1,-1,-1,,4000,0,2,3,SCT 5   BKN 8   BKN 15,-1,0,-1,10,1014,RJNK 260200Z 31016KT 4000 -SHSN BLSN SCT005 BKN008 BKN015     M00/M10 Q1014 RMK 3ST005 5CU008 6CU015 A2997 MAX WIND 22KT           3ST005 OVER AD=,- SN SH; BL SN
20180126_020000.002,0,RJNK,,,,0,20180126020000,-1,-1,-1,-1,310,-1,16,-1,-1,-1,-1,,4000,0,2,3,SCT 5   BKN 8   BKN 15,-1,0,-1,10,1014,RJNK 260200Z 31016KT 4000 -SHSN BLSN SCT005 BKN008 BKN015     M00/M10 Q1014 RMK 3ST005 5CU008 6CU015 A2997 MAX WIND           22KT 3ST005 OVER AD=,- SN SH; BL SN
20180126_030000.000,0,RJNK,,,,0,20180126030000,-1,-1,-1,-1,320,-1,19,-1,-1,290,350,,9999,0,1,3,FEW 5   SCT 8   BKN 15,-1,0,-1,9,1013,RJNK 260300Z 32019KT 290V350 9999 -SHSN FEW005 SCT008 BKN015     M00/M09 Q1013 REBLSN RMK 2ST005 3CU008 6CU015 A2994 MAX           WIND 27KT 2ST005 OVER AD=,- SN SH
20180126_030000.002,0,RJNK,,,,0,20180126030000,-1,-1,-1,-1,320,-1,19,-1,-1,290,350,,9999,0,1,3,FEW 5   SCT 8   BKN 15,-1,0,-1,9,1013,RJNK 260300Z 32019KT 290V350 9999 -SHSN FEW005 SCT008 BKN015     M00/M09 Q1013 REBLSN RMK 2ST005 3CU008 6CU015 A2994 MAX           WIND 27KT 2ST005 OVER AD=,- SN SH
20180126_040000.000,0,RJNK,,,,0,20180126040000,-1,-1,-1,-1,320,-1,15,-1,28,-1,-1,,6000,0,1,3,FEW 5   BKN 15   BKN 25,-1,0,-1,10,1013,RJNK 260400Z 32015G28KT 6000 -SHSN FEW005 BKN015 BKN025 M00/M10     Q1013 RMK 1ST005 6CU015 7CU025 A2994 VIS SW-NW 2000M           1ST005 OVER AD=,- SN SH
20180126_040000.002,0,RJNK,,,,0,20180126040000,-1,-1,-1,-1,320,-1,15,-1,28,-1,-1,,6000,0,1,3,FEW 5   BKN 15   BKN 25,-1,0,-1,10,1013,RJNK 260400Z 32015G28KT 6000 -SHSN FEW005 BKN015 BKN025     M00/M10 Q1013 RMK 1ST005 6CU015 7CU025 A2994 VIS SW-NW           2000M 1ST005 OVER AD=,- SN SH
20180126_050000.000,0,RJNK,,,,0,20180126050000,-1,-1,-1,-1,320,-1,20,-1,-1,-1,-1,,9999,0,0,3,FEW 5   SCT 8   BKN 15,-1,0,-1,11,1013,RJNK 260500Z 32020KT 9999 FEW005 SCT008 BKN015 M00/M11 Q1013     REBLSN RMK 1ST005 3CU008 5CU015 A2993 MAX WIND 28KT 1ST005           E-S=,
20180126_050000.002,0,RJNK,,,,0,20180126050000,-1,-1,-1,-1,320,-1,20,-1,-1,-1,-1,,9999,0,0,3,FEW 5   SCT 8   BKN 15,-1,0,-1,11,1013,RJNK 260500Z 32020KT 9999 FEW005 SCT008 BKN015 M00/M11 Q1013     REBLSN RMK 1ST005 3CU008 5CU015 A2993 MAX WIND 28KT           1ST005 E-S=,
20180126_060000.000,0,RJNK,,,,0,20180126060000,-1,-1,-1,-1,310,-1,18,-1,-1,-1,-1,,9999,0,0,3,FEW 8   BKN 15   BKN 25,-1,0,-1,11,1014,RJNK 260600Z 31018KT 9999 FEW008 BKN015 BKN025 M00/M11 Q1014     RMK 2CU008 5CU015 6CU025 A2995 MAX WIND 27KT 2CU008 OVER           AD=,
20180126_060000.002,0,RJNK,,,,0,20180126060000,-1,-1,-1,-1,310,-1,18,-1,-1,-1,-1,,9999,0,0,3,FEW 8   BKN 15   BKN 25,-1,0,-1,11,1014,RJNK 260600Z 31018KT 9999 FEW008 BKN015 BKN025 M00/M11 Q1014     RMK 2CU008 5CU015 6CU025 A2995 MAX WIND 27KT 2CU008 OVER           AD=,
20180126_070000.000,0,RJNK,,,,0,20180126070000,-1,-1,-1,-1,320,-1,15,-1,-1,280,350,,9999,0,0,4,FEW 8   BKN 15   FEW 15 CB  BKN 25,-1,1,-1,8,1014,RJNK 260700Z 32015KT 280V350 9999 FEW008 BKN015 FEW015CB BKN025     M01/M08 Q1014 RMK 2CU008 5CU015 1CB015 6CU025 A2996 MAX           WIND 23KT CB N AND NW 2CU008 OVER AD=,
20180126_070000.002,0,RJNK,,,,0,20180126070000,-1,-1,-1,-1,320,-1,15,-1,-1,280,350,,9999,0,0,4,FEW 8   BKN 15   FEW 15 CB  BKN 25,-1,1,-1,8,1014,RJNK 260700Z 32015KT 280V350 9999 FEW008 BKN015 FEW015CB     BKN025 M01/M08 Q1014 RMK 2CU008 5CU015 1CB015 6CU025           A2996 MAX WIND 23KT CB N AND NW 2CU008 OVER AD=,
20180126_080000.000,0,RJNK,,,,0,20180126080000,-1,-1,-1,-1,330,-1,19,-1,29,-1,-1,,8000,0,1,4,FEW 5   BKN 8   BKN 15   SCT 15 CB,-1,2,-1,8,1015,RJNK 260800Z 33019G29KT 8000 -SHSN FEW005 BKN008 BKN015     SCT015CB M02/M08 Q1015 REBLSN RMK 1ST005 5CU008 7CU015           3CB015 A2998 CB NW AND E 1ST005 OVER AD=,- SN SH
20180126_080000.001,2,RJNK,,,,0,20180126080000,-1,-1,-1,-1,330,-1,19,-1,29,-1,-1,,8000,0,1,4,FEW 5   BKN 8   BKN 15   SCT 15 CB,-1,2,-1,8,1015,RJNK 260800Z 33019G29KT 8000 -SHSN FEW005 BKN008 BKN015     SCT015CB M02/M08 Q1015 REBLSN RMK 1ST005 5CU008 7CU015           3CB015 A2998 CB NW AND E 1ST005 OVER AD=,- SN SH
20180126_080000.003,0,RJNK,,,,0,20180126080000,-1,-1,-1,-1,330,-1,19,-1,29,-1,-1,,8000,0,1,4,FEW 5   BKN 8   BKN 15   SCT 15 CB,-1,2,-1,8,1015,RJNK 260800Z 33019G29KT 8000 -SHSN FEW005 BKN008 BKN015     SCT015CB M02/M08 Q1015 REBLSN RMK 1ST005 5CU008 7CU015           3CB015 A2998 CB NW AND E 1ST005 OVER AD=,- SN SH
20180126_090000.000,0,RJNK,,,,0,20180126090000,-1,-1,-1,-1,310,-1,17,-1,27,-1,-1,,9999,0,1,3,FEW 5   BKN 15   SCT 15 CB,-1,0,-1,9,1015,RJNK 260900Z 31017G27KT 9999 -SHSN FEW005 BKN015 SCT015CB     M00/M09 Q1015 REBLSN RMK 1ST005 7CU015 3CB015 A2999 CB           N-SE 1ST005 NW-E=,- SN SH
20180126_090000.002,0,RJNK,,,,0,20180126090000,-1,-1,-1,-1,310,-1,17,-1,27,-1,-1,,9999,0,1,3,FEW 5   BKN 15   SCT 15 CB,-1,0,-1,9,1015,RJNK 260900Z 31017G27KT 9999 -SHSN FEW005 BKN015 SCT015CB     M00/M09 Q1015 REBLSN RMK 1ST005 7CU015 3CB015 A2999 CB           N-SE 1ST005 NW-E=,- SN SH
20180126_100000.000,0,RJNK,,,,0,20180126100000,-1,-1,-1,-1,310,-1,16,-1,26,-1,-1,,8000,0,1,3,FEW 5   SCT 8   BKN 15 CB,-1,1,-1,7,1016,RJNK 261000Z 31016G26KT 8000 -SHSN FEW005 SCT008 BKN015CB     M01/M07 Q1016 RMK 1ST005 3CU008 7CB015 A3001 CB NW-SE           1ST005 N-SE=,- SN SH
20180126_100000.002,0,RJNK,,,,0,20180126100000,-1,-1,-1,-1,310,-1,16,-1,26,-1,-1,,8000,0,1,3,FEW 5   SCT 8   BKN 15 CB,-1,1,-1,7,1016,RJNK 261000Z 31016G26KT 8000 -SHSN FEW005 SCT008 BKN015CB     M01/M07 Q1016 RMK 1ST005 3CU008 7CB015 A3001 CB NW-SE           1ST005 N-SE=,- SN SH
20180126_110000.000,0,RJNK,,,,0,20180126110000,-1,-1,-1,-1,310,-1,15,-1,-1,-1,-1,,9999,0,1,3,FEW 5   BKN 15   FEW 15 CB,-1,0,-1,10,1016,RJNK 261100Z 31015KT 9999 -SHSN FEW005 BKN015 FEW015CB M00/M10     Q1016 REBLSN RMK 1ST005 7CU015 2CB015 A3000 CB W 1ST005           SW-NW=,- SN SH
20180126_110000.002,0,RJNK,,,,0,20180126110000,-1,-1,-1,-1,310,-1,15,-1,-1,-1,-1,,9999,0,1,3,FEW 5   BKN 15   FEW 15 CB,-1,0,-1,10,1016,RJNK 261100Z 31015KT 9999 -SHSN FEW005 BKN015 FEW015CB M00/M10     Q1016 REBLSN RMK 1ST005 7CU015 2CB015 A3000 CB W 1ST005           SW-NW=,- SN SH
20180126_120000.000,0,RJNK,,,,0,20180126120000,-1,-1,-1,-1,310,-1,7,-1,20,230,330,,5000,0,1,4,FEW 5   BKN 8   BKN 15   SCT 15 CB,-1,1,-1,6,1016,RJNK 261200Z 31007G20KT 230V330 5000 -SHSN FEW005 BKN008 BKN015     SCT015CB M01/M06 Q1016 REBLSN RMK 1ST005 5CU008 7CU015           3CB015 A3002 CB SE-S 1ST005 OVER AD=,- SN SH
20180126_120000.002,0,RJNK,,,,0,20180126120000,-1,-1,-1,-1,310,-1,7,-1,20,230,330,,5000,0,1,4,FEW 5   BKN 8   BKN 15   SCT 15 CB,-1,1,-1,6,1016,RJNK 261200Z 31007G20KT 230V330 5000 -SHSN FEW005 BKN008     BKN015 SCT015CB M01/M06 Q1016 REBLSN RMK 1ST005 5CU008           7CU015 3CB015 A3002 CB SE-S 1ST005 OVER AD=,- SN SH
20180126_130000.000,0,RJNK,,,,0,20180126130000,-1,-1,-1,-1,330,-1,16,-1,-1,-1,-1,,9999,0,0,2,FEW 8   BKN 15,1,0,-1,10,1016,RJNK 261300Z 33016KT 9999 FEW008 BKN015 00/M10 Q1016 RMK 1CU008     7CU015 A3003=,
20180126_130000.002,0,RJNK,,,,0,20180126130000,-1,-1,-1,-1,330,-1,16,-1,-1,-1,-1,,9999,0,0,2,FEW 8   BKN 15,1,0,-1,10,1016,RJNK 261300Z 33016KT 9999 FEW008 BKN015 00/M10 Q1016 RMK     1CU008 7CU015 A3003=,
20180126_140000.000,0,RJNK,,,,0,20180126140000,-1,-1,-1,-1,330,-1,14,-1,-1,300,360,,8000,0,1,3,FEW 5   SCT 8   BKN 15,-1,0,-1,7,1017,RJNK 261400Z 33014KT 300V360 8000 -SHSN FEW005 SCT008 BKN015     M00/M07 Q1017 REBLSN RMK 1ST005 3CU008 7CU015 A3004 1ST005           NE-S=,- SN SH
20180126_140000.002,0,RJNK,,,,0,20180126140000,-1,-1,-1,-1,330,-1,14,-1,-1,300,360,,8000,0,1,3,FEW 5   SCT 8   BKN 15,-1,0,-1,7,1017,RJNK 261400Z 33014KT 300V360 8000 -SHSN FEW005 SCT008 BKN015     M00/M07 Q1017 REBLSN RMK 1ST005 3CU008 7CU015 A3004           1ST005 NE-S=,- SN SH
20180126_150000.000,0,RJNK,,,,0,20180126150000,-1,-1,-1,-1,280,-1,16,-1,-1,-1,-1,,2000,0,2,4,FEW 3   SCT 5   BKN 8   SCT 15 TCU,-1,1,-1,5,1017,RJNK 261500Z 28016KT 2000 -SHSN BLSN FEW003 SCT005 BKN008     SCT015TCU M01/M05 Q1017 RMK 1ST003 3ST005 6CU008 3TCU015           A3005 VIS NW-N 8KM TCU E 1ST003 OVER AD=,- SN SH; BL SN
20180126_150000.002,0,RJNK,,,,0,20180126150000,-1,-1,-1,-1,280,-1,16,-1,-1,-1,-1,,2000,0,2,4,FEW 3   SCT 5   BKN 8   SCT 15 TCU,-1,1,-1,5,1017,RJNK 261500Z 28016KT 2000 -SHSN BLSN FEW003 SCT005 BKN008     SCT015TCU M01/M05 Q1017 RMK 1ST003 3ST005 6CU008 3TCU015           A3005 VIS NW-N 8KM TCU E 1ST003 OVER AD=,- SN SH; BL SN
20180126_160000.000,0,RJNK,,,,0,20180126160000,-1,-1,-1,-1,320,-1,8,-1,-1,290,360,,4000,0,1,3,FEW 3   BKN 5   BKN 8,-1,1,-1,4,1018,RJNK 261600Z 32008KT 290V360 4000 -SHSN FEW003 BKN005 BKN008     M01/M04 Q1018 REBLSN RMK 1ST003 5ST005 7CU008 A3007 VIS           W-NW 1500M 1ST003 OVER AD=,- SN SH
20180126_160000.002,0,RJNK,,,,0,20180126160000,-1,-1,-1,-1,320,-1,8,-1,-1,290,360,,4000,0,1,3,FEW 3   BKN 5   BKN 8,-1,1,-1,4,1018,RJNK 261600Z 32008KT 290V360 4000 -SHSN FEW003 BKN005 BKN008     M01/M04 Q1018 REBLSN RMK 1ST003 5ST005 7CU008 A3007 VIS           W-NW 1500M 1ST003 OVER AD=,- SN SH
20180126_170000.000,0,RJNK,,,,0,20180126170000,-1,-1,-1,-1,340,-1,17,-1,-1,-1,-1,,4000,0,1,4,FEW 3   SCT 5   BKN 8   SCT 15 CB,-1,1,-1,4,1018,RJNK 261700Z 34017KT 4000 -SHSN FEW003 SCT005 BKN008 SCT015CB     M01/M04 Q1018 REBLSN RMK 1ST003 3ST005 6CU008 3CB015 A3007           VIS W-N 8KM CB S AND NW 1ST003 OVER AD=,- SN SH
20180126_170000.002,0,RJNK,,,,0,20180126170000,-1,-1,-1,-1,340,-1,17,-1,-1,-1,-1,,4000,0,1,4,FEW 3   SCT 5   BKN 8   SCT 15 CB,-1,1,-1,4,1018,RJNK 261700Z 34017KT 4000 -SHSN FEW003 SCT005 BKN008 SCT015CB     M01/M04 Q1018 REBLSN RMK 1ST003 3ST005 6CU008 3CB015           A3007 VIS W-N 8KM CB S AND NW 1ST003 OVER AD=,- SN SH
20180126_180000.000,0,RJNK,,,,0,20180126180000,-1,-1,-1,-1,290,-1,9,-1,-1,260,350,,8000,0,1,4,FEW 5   SCT 8   BKN 15   FEW 15 CB,-1,0,-1,5,1019,RJNK 261800Z 29009KT 260V350 8000 -SHSN FEW005 SCT008 BKN015     FEW015CB M00/M05 Q1019 RMK 1ST005 3CU008 7CU015 2CB015           A3009 CB S-W 1ST005 OVER AD=,- SN SH
20180126_180000.002,0,RJNK,,,,0,20180126180000,-1,-1,-1,-1,290,-1,9,-1,-1,260,350,,8000,0,1,4,FEW 5   SCT 8   BKN 15   FEW 15 CB,-1,0,-1,5,1019,RJNK 261800Z 29009KT 260V350 8000 -SHSN FEW005 SCT008 BKN015     FEW015CB M00/M05 Q1019 RMK 1ST005 3CU008 7CU015 2CB015           A3009 CB S-W 1ST005 OVER AD=,- SN SH
20180126_190000.000,0,RJNK,,,,0,20180126190000,-1,-1,-1,-1,320,-1,15,-1,-1,-1,-1,,4000,0,1,3,FEW 5   BKN 8   BKN 15,1,0,-1,7,1019,RJNK 261900Z 32015KT 4000 -SHSN FEW005 BKN008 BKN015 00/M07     Q1019 RMK 1ST005 5CU008 7CU015 A3009 1ST005 S-NW=,- SN SH
20180126_190000.002,0,RJNK,,,,0,20180126190000,-1,-1,-1,-1,320,-1,15,-1,-1,-1,-1,,4000,0,1,3,FEW 5   BKN 8   BKN 15,1,0,-1,7,1019,RJNK 261900Z 32015KT 4000 -SHSN FEW005 BKN008 BKN015 00/M07     Q1019 RMK 1ST005 5CU008 7CU015 A3009 1ST005 S-NW=,- SN SH
20180126_200000.000,0,RJNK,,,,0,20180126200000,-1,-1,-1,-1,300,-1,13,-1,-1,-1,-1,,8000,0,1,4,FEW 5   SCT 8   BKN 15   SCT 15 CB,1,1,-1,7,1019,RJNK 262000Z 30013KT 8000 -SHSN FEW005 SCT008 BKN015 SCT015CB     01/M07 Q1019 RMK 1ST005 3CU008 7CU015 3CB015 A3011 CB E-S           1ST005 OVER AD=,- SN SH
20180126_200000.003,0,RJNK,,,,0,20180126200000,-1,-1,-1,-1,300,-1,13,-1,-1,-1,-1,,8000,0,1,4,FEW 5   SCT 8   BKN 15   SCT 15 CB,1,1,-1,7,1019,RJNK 262000Z 30013KT 8000 -SHSN FEW005 SCT008 BKN015 SCT015CB     01/M07 Q1019 RMK 1ST005 3CU008 7CU015 3CB015 A3011 CB E-S           1ST005 OVER AD=,- SN SH
20180126_210000.000,0,RJNK,,,,0,20180126210000,-1,-1,-1,-1,320,-1,14,-1,-1,270,340,,8000,0,1,3,FEW 5   SCT 8   BKN 15,1,1,-1,9,1020,RJNK 262100Z 32014KT 270V340 8000 -SHSN FEW005 SCT008 BKN015     01/M09 Q1020 RMK 1ST005 3CU008 7CU015 A3013 1ST005 SW-NW           33033KT/0000 01/M02 R000 S007 SD016=,- SN SH
20180126_210000.002,0,RJNK,,,,0,20180126210000,-1,-1,-1,-1,320,-1,14,-1,-1,270,340,,8000,0,1,3,FEW 5   SCT 8   BKN 15,1,1,-1,9,1020,RJNK 262100Z 32014KT 270V340 8000 -SHSN FEW005 SCT008 BKN015     01/M09 Q1020 RMK 1ST005 3CU008 7CU015 A3013 1ST005 SW-NW           33033KT/0000 01/M02 R000 S007 SD016=,- SN SH
20180126_220000.000,0,RJNK,,,,0,20180126220000,-1,-1,-1,-1,330,-1,15,-1,-1,290,350,,8000,0,1,3,FEW 5   SCT 8   BKN 15,1,1,-1,6,1020,RJNK 262200Z 33015KT 290V350 8000 -SHSN FEW005 SCT008 BKN015     01/M06 Q1020 RMK 1ST005 3CU008 7CU015 A3014 VIS SW-NW           4000M 1ST005 OVER AD=,- SN SH
20180126_220000.002,0,RJNK,,,,0,20180126220000,-1,-1,-1,-1,330,-1,15,-1,-1,290,350,,8000,0,1,3,FEW 5   SCT 8   BKN 15,1,1,-1,6,1020,RJNK 262200Z 33015KT 290V350 8000 -SHSN FEW005 SCT008 BKN015     01/M06 Q1020 RMK 1ST005 3CU008 7CU015 A3014 VIS SW-NW           4000M 1ST005 OVER AD=,- SN SH
20180126_230000.000,0,RJNK,,,,0,20180126230000,-1,-1,-1,-1,320,-1,15,-1,-1,-1,-1,,9999,0,1,3,FEW 5   SCT 8   BKN 15,1,2,-1,7,1021,RJNK 262300Z 32015KT 9999 -SHSN FEW005 SCT008 BKN015 02/M07     Q1021 RMK 1ST005 3CU008 7CU015 A3015 MAX WIND 22KT 1ST005           OVER AD=,- SN SH
20180126_230000.002,0,RJNK,,,,0,20180126230000,-1,-1,-1,-1,320,-1,15,-1,-1,-1,-1,,9999,0,1,3,FEW 5   SCT 8   BKN 15,1,2,-1,7,1021,RJNK 262300Z 32015KT 9999 -SHSN FEW005 SCT008 BKN015 02/M07     Q1021 RMK 1ST005 3CU008 7CU015 A3015 MAX WIND 22KT 1ST005           OVER AD=,- SN SH
20180127_000000.000,0,RJNK,,,,0,20180127000000,-1,-1,-1,-1,320,-1,17,-1,-1,-1,-1,,9999,0,1,3,FEW 5   SCT 8   BKN 15,1,1,-1,7,1021,RJNK 270000Z 32017KT 9999 -SHSN FEW005 SCT008 BKN015 01/M07     Q1021 RMK 1ST005 4CU008 7CU015 A3017 MAX WIND 24KT 1ST005           OVER AD=,- SN SH
20180127_000000.002,0,RJNK,,,,0,20180127000000,-1,-1,-1,-1,320,-1,17,-1,-1,-1,-1,,9999,0,1,3,FEW 5   SCT 8   BKN 15,1,1,-1,7,1021,RJNK 270000Z 32017KT 9999 -SHSN FEW005 SCT008 BKN015 01/M07     Q1021 RMK 1ST005 4CU008 7CU015 A3017 MAX WIND 24KT 1ST005           OVER AD=,- SN SH
20180127_010000.000,0,RJNK,,,,0,20180127010000,-1,-1,-1,-1,320,-1,14,-1,-1,-1,-1,,9999,0,1,3,FEW 5   SCT 8   BKN 15,1,1,-1,5,1022,RJNK 270100Z 32014KT 9999 -SHSN FEW005 SCT008 BKN015 01/M05     Q1022 RMK 1ST005 3CU008 7CU015 A3019 1ST005 OVER AD=,- SN SH
20180127_010000.002,0,RJNK,,,,0,20180127010000,-1,-1,-1,-1,320,-1,14,-1,-1,-1,-1,,9999,0,1,3,FEW 5   SCT 8   BKN 15,1,1,-1,5,1022,RJNK 270100Z 32014KT 9999 -SHSN FEW005 SCT008 BKN015 01/M05     Q1022 RMK 1ST005 3CU008 7CU015 A3019 1ST005 OVER AD=,- SN SH
20180127_020000.000,0,RJNK,,,,0,20180127020000,-1,-1,-1,-1,340,-1,15,-1,-1,310,10,,9999,0,1,3,FEW 5   SCT 8   BKN 15,1,2,-1,7,1022,RJNK 270200Z 34015KT 310V010 9999 -SHSN FEW005 SCT008 BKN015     02/M07 Q1022 RMK 1ST005 3CU008 7CU015 A3020 1ST005 OVER           AD=,- SN SH
20180127_020000.002,0,RJNK,,,,0,20180127020000,-1,-1,-1,-1,340,-1,15,-1,-1,310,10,,9999,0,1,3,FEW 5   SCT 8   BKN 15,1,2,-1,7,1022,RJNK 270200Z 34015KT 310V010 9999 -SHSN FEW005 SCT008 BKN015     02/M07 Q1022 RMK 1ST005 3CU008 7CU015 A3020 1ST005 OVER           AD=,- SN SH
20180127_030000.000,0,RJNK,,,,0,20180127030000,-1,-1,-1,-1,340,-1,10,-1,-1,-1,-1,,4000,0,1,4,FEW 5   BKN 8   BKN 15   FEW 15 TCU,1,1,-1,4,1022,RJNK 270300Z 34010KT 4000 -SHGSSN FEW005 BKN008 BKN015     FEW015TCU 01/M04 Q1022 RMK 1ST005 5CU008 7CU015 2TCU015           A3020 VIS E 3500M SNOW PELLETS TCU OHD=,- GS SN SH
20180127_030000.002,0,RJNK,,,,0,20180127030000,-1,-1,-1,-1,340,-1,10,-1,-1,-1,-1,,4000,0,1,4,FEW 5   BKN 8   BKN 15   FEW 15 TCU,1,1,-1,4,1022,RJNK 270300Z 34010KT 4000 -SHGSSN FEW005 BKN008 BKN015     FEW015TCU 01/M04 Q1022 RMK 1ST005 5CU008 7CU015 2TCU015           A3020 VIS E 3500M SNOW PELLETS TCU OHD=,- GS SN SH
20180127_040000.000,0,RJNK,,,,0,20180127040000,-1,-1,-1,-1,320,-1,22,-1,-1,-1,-1,,9999,0,1,3,FEW 5   SCT 8   BKN 15,1,1,-1,4,1022,RJNK 270400Z 32022KT 9999 -SHSN FEW005 SCT008 BKN015 01/M04     Q1022 RMK 1ST005 3CU008 7CU015 A3020 1ST005 OVER AD=,- SN SH
20180127_040000.002,0,RJNK,,,,0,20180127040000,-1,-1,-1,-1,320,-1,22,-1,-1,-1,-1,,9999,0,1,3,FEW 5   SCT 8   BKN 15,1,1,-1,4,1022,RJNK 270400Z 32022KT 9999 -SHSN FEW005 SCT008 BKN015 01/M04     Q1022 RMK 1ST005 3CU008 7CU015 A3020 1ST005 OVER AD=,- SN SH
20180127_050000.000,0,RJNK,,,,0,20180127050000,-1,-1,-1,-1,340,-1,14,-1,-1,-1,-1,,9999,0,1,3,FEW 3   SCT 8   BKN 60,1,1,-1,6,1022,RJNK 270500Z 34014KT 9999 -SHSN FEW003 SCT008 BKN060 01/M06     Q1022 RMK 1ST003 3CU008 7SC060 A3021 1ST003 OVER AD=,- SN SH
20180127_050000.002,0,RJNK,,,,0,20180127050000,-1,-1,-1,-1,340,-1,14,-1,-1,-1,-1,,9999,0,1,3,FEW 3   SCT 8   BKN 60,1,1,-1,6,1022,RJNK 270500Z 34014KT 9999 -SHSN FEW003 SCT008 BKN060 01/M06     Q1022 RMK 1ST003 3CU008 7SC060 A3021 1ST003 OVER AD=,- SN SH
20180127_060000.000,0,RJNK,,,,0,20180127060000,-1,-1,-1,-1,290,-1,14,-1,-1,-1,-1,,9999,0,1,3,FEW 5   SCT 8   BKN 15,1,1,-1,5,1023,RJNK 270600Z 29014KT 9999 -SHSN FEW005 SCT008 BKN015 01/M05     Q1023 RMK 1ST005 3CU008 7CU015 A3021 1ST005 OVER AD=,- SN SH
20180127_060000.002,0,RJNK,,,,0,20180127060000,-1,-1,-1,-1,290,-1,14,-1,-1,-1,-1,,9999,0,1,3,FEW 5   SCT 8   BKN 15,1,1,-1,5,1023,RJNK 270600Z 29014KT 9999 -SHSN FEW005 SCT008 BKN015 01/M05     Q1023 RMK 1ST005 3CU008 7CU015 A3021 1ST005 OVER AD=,- SN SH
20180127_070000.000,0,RJNK,,,,0,20180127070000,-1,-1,-1,-1,50,-1,7,-1,-1,330,70,,9999,0,0,3,FEW 8   SCT 15   BKN 30,1,0,-1,4,1023,RJNK 270700Z 05007KT 330V070 9999 FEW008 SCT015 BKN030 00/M04     Q1023 RMK 1CU008 3CU015 6CU030 A3022=,
20180127_070000.002,0,RJNK,,,,0,20180127070000,-1,-1,-1,-1,50,-1,7,-1,-1,330,70,,9999,0,0,3,FEW 8   SCT 15   BKN 30,1,0,-1,4,1023,RJNK 270700Z 05007KT 330V070 9999 FEW008 SCT015 BKN030 00/M04     Q1023 RMK 1CU008 3CU015 6CU030 A3022=,
20180127_080000.000,0,RJNK,,,,0,20180127080000,-1,-1,-1,-1,20,-1,5,-1,-1,350,50,,9999,0,1,3,FEW 8   SCT 15   BKN 30,1,1,-1,7,1023,RJNK 270800Z 02005KT 350V050 9999 -SHSN FEW008 SCT015 BKN030     01/M07 Q1023 RMK 1CU008 4CU015 7CU030 A3023=,- SN SH
20180127_080000.002,0,RJNK,,,,0,20180127080000,-1,-1,-1,-1,20,-1,5,-1,-1,350,50,,9999,0,1,3,FEW 8   SCT 15   BKN 30,1,1,-1,7,1023,RJNK 270800Z 02005KT 350V050 9999 -SHSN FEW008 SCT015 BKN030     01/M07 Q1023 RMK 1CU008 4CU015 7CU030 A3023=,- SN SH
20180127_090000.000,0,RJNK,,,,0,20180127090000,-1,-1,-1,-1,140,-1,6,-1,-1,90,180,,9999,0,1,3,FEW 8   SCT 15   BKN 30,-1,1,-1,3,1024,RJNK 270900Z 14006KT 090V180 9999 -SHSN FEW008 SCT015 BKN030     M01/M03 Q1024 RMK 1CU008 3CU015 7CU030 A3024=,- SN SH
20180127_090000.003,0,RJNK,,,,0,20180127090000,-1,-1,-1,-1,140,-1,6,-1,-1,90,180,,9999,0,1,3,FEW 8   SCT 15   BKN 30,-1,1,-1,3,1024,RJNK 270900Z 14006KT 090V180 9999 -SHSN FEW008 SCT015 BKN030     M01/M03 Q1024 RMK 1CU008 3CU015 7CU030 A3024=,- SN SH
20180127_100000.000,0,RJNK,,,,0,20180127100000,-1,-1,-1,-1,160,-1,6,-1,-1,-1,-1,,9999,0,1,3,FEW 5   SCT 15   BKN 30,-1,1,-1,2,1024,RJNK 271000Z 16006KT 9999 -SHSN FEW005 SCT015 BKN030 M01/M02     Q1024 RMK 1ST005 4CU015 7CU030 A3025 1ST005 OVER AD=,- SN SH
20180127_100000.002,0,RJNK,,,,0,20180127100000,-1,-1,-1,-1,160,-1,6,-1,-1,-1,-1,,9999,0,1,3,FEW 5   SCT 15   BKN 30,-1,1,-1,2,1024,RJNK 271000Z 16006KT 9999 -SHSN FEW005 SCT015 BKN030 M01/M02     Q1024 RMK 1ST005 4CU015 7CU030 A3025 1ST005 OVER AD=,- SN SH
20180127_110000.000,0,RJNK,,,,0,20180127110000,-1,-1,-1,-1,90,-1,6,-1,-1,-1,-1,,9999,0,1,3,FEW 5   SCT 15   BKN 30,-1,1,-1,3,1024,RJNK 271100Z 09006KT 9999 -SHSN FEW005 SCT015 BKN030 M01/M03     Q1024 RMK 1ST005 4CU015 7CU030 A3024 1ST005 OVER AD=,- SN SH
20180127_110000.002,0,RJNK,,,,0,20180127110000,-1,-1,-1,-1,90,-1,6,-1,-1,-1,-1,,9999,0,1,3,FEW 5   SCT 15   BKN 30,-1,1,-1,3,1024,RJNK 271100Z 09006KT 9999 -SHSN FEW005 SCT015 BKN030 M01/M03     Q1024 RMK 1ST005 4CU015 7CU030 A3024 1ST005 OVER AD=,- SN SH
20180127_120000.000,0,RJNK,,,,0,20180127120000,-1,-1,-1,-1,130,-1,6,-1,-1,-1,-1,,9999,0,1,3,FEW 5   SCT 8   BKN 15,-1,1,-1,2,1024,RJNK 271200Z 13006KT 9999 -SHSN FEW005 SCT008 BKN015 M01/M02     Q1024 RMK 2ST005 3CU008 6CU015 A3024 2ST005 OVER AD=,- SN SH
20180127_120000.002,0,RJNK,,,,0,20180127120000,-1,-1,-1,-1,130,-1,6,-1,-1,-1,-1,,9999,0,1,3,FEW 5   SCT 8   BKN 15,-1,1,-1,2,1024,RJNK 271200Z 13006KT 9999 -SHSN FEW005 SCT008 BKN015 M01/M02     Q1024 RMK 2ST005 3CU008 6CU015 A3024 2ST005 OVER AD=,- SN SH
20180127_130000.000,0,RJNK,,,,0,20180127130000,-1,-1,-1,-1,120,-1,5,-1,-1,-1,-1,,9999,0,1,3,FEW 5   SCT 8   BKN 15,-1,1,-1,2,1023,RJNK 271300Z 12005KT 9999 -SHSN FEW005 SCT008 BKN015 M01/M02     Q1023 RMK 1ST005 3CU008 6CU015 A3023 1ST005 OVER AD=,- SN SH
20180127_130000.002,0,RJNK,,,,0,20180127130000,-1,-1,-1,-1,120,-1,5,-1,-1,-1,-1,,9999,0,1,3,FEW 5   SCT 8   BKN 15,-1,1,-1,2,1023,RJNK 271300Z 12005KT 9999 -SHSN FEW005 SCT008 BKN015 M01/M02     Q1023 RMK 1ST005 3CU008 6CU015 A3023 1ST005 OVER AD=,- SN SH
20180127_140000.000,0,RJNK,,,,0,20180127140000,-1,-1,-1,-1,140,-1,4,-1,-1,-1,-1,,9999,0,1,3,FEW 8   SCT 15   BKN 30,-1,1,-1,3,1023,RJNK 271400Z 14004KT 9999 -SHSN FEW008 SCT015 BKN030 M01/M03     Q1023 RMK 2CU008 3CU015 7CU030 A3022 2CU008 OVER AD=,- SN SH
20180127_140000.003,0,RJNK,,,,0,20180127140000,-1,-1,-1,-1,140,-1,4,-1,-1,-1,-1,,9999,0,1,3,FEW 8   SCT 15   BKN 30,-1,1,-1,3,1023,RJNK 271400Z 14004KT 9999 -SHSN FEW008 SCT015 BKN030 M01/M03     Q1023 RMK 2CU008 3CU015 7CU030 A3022 2CU008 OVER AD=,- SN SH
20180127_150000.000,0,RJNK,,,,0,20180127150000,-1,-1,-1,-1,180,-1,5,-1,-1,-1,-1,,9999,0,0,2,FEW 15   BKN 30,-1,1,-1,4,1023,RJNK 271500Z 18005KT 9999 FEW015 BKN030 M01/M04 Q1023 RMK     2CU015 6CU030 A3022=,
20180127_150000.002,0,RJNK,,,,0,20180127150000,-1,-1,-1,-1,180,-1,5,-1,-1,-1,-1,,9999,0,0,2,FEW 15   BKN 30,-1,1,-1,4,1023,RJNK 271500Z 18005KT 9999 FEW015 BKN030 M01/M04 Q1023 RMK     2CU015 6CU030 A3022=,
20180127_160000.000,0,RJNK,,,,0,20180127160000,-1,-1,-1,-1,140,-1,3,-1,-1,-1,-1,,9999,0,0,2,FEW 15   BKN 30,-1,1,-1,3,1022,RJNK 271600Z 14003KT 9999 FEW015 BKN030 M01/M03 Q1022 RMK     2CU015 6CU030 A3020=,
20180127_160000.002,0,RJNK,,,,0,20180127160000,-1,-1,-1,-1,140,-1,3,-1,-1,-1,-1,,9999,0,0,2,FEW 15   BKN 30,-1,1,-1,3,1022,RJNK 271600Z 14003KT 9999 FEW015 BKN030 M01/M03 Q1022 RMK     2CU015 6CU030 A3020=,
20180127_170000.000,0,RJNK,,,,0,20180127170000,-1,-1,-1,-1,100,-1,3,-1,-1,-1,-1,,9999,0,0,2,FEW 15   BKN 30,-1,1,-1,3,1022,RJNK 271700Z 10003KT 9999 FEW015 BKN030 M01/M03 Q1022 RMK     1CU015 6CU030 A3020=,
20180127_170000.002,0,RJNK,,,,0,20180127170000,-1,-1,-1,-1,100,-1,3,-1,-1,-1,-1,,9999,0,0,2,FEW 15   BKN 30,-1,1,-1,3,1022,RJNK 271700Z 10003KT 9999 FEW015 BKN030 M01/M03 Q1022 RMK     1CU015 6CU030 A3020=,
20180127_180000.000,0,RJNK,,,,0,20180127180000,-1,-1,-1,-1,160,-1,3,-1,-1,-1,-1,,9999,0,0,2,FEW 15   BKN 30,-1,1,-1,4,1022,RJNK 271800Z 16003KT 9999 FEW015 BKN030 M01/M04 Q1022 RMK     1CU015 6CU030 A3018=,
20180127_180000.002,0,RJNK,,,,0,20180127180000,-1,-1,-1,-1,160,-1,3,-1,-1,-1,-1,,9999,0,0,2,FEW 15   BKN 30,-1,1,-1,4,1022,RJNK 271800Z 16003KT 9999 FEW015 BKN030 M01/M04 Q1022 RMK     1CU015 6CU030 A3018=,
20180127_190000.000,0,RJNK,,,,0,20180127190000,-1,-1,-1,-1,150,-1,3,-1,-1,-1,-1,,9999,0,0,3,FEW 15   SCT 30   BKN 50,-1,1,-1,4,1021,RJNK 271900Z 15003KT 9999 FEW015 SCT030 BKN050 M01/M04 Q1021     RMK 1CU015 4CU030 7SC050 A3016=,
20180127_190000.002,0,RJNK,,,,0,20180127190000,-1,-1,-1,-1,150,-1,3,-1,-1,-1,-1,,9999,0,0,3,FEW 15   SCT 30   BKN 50,-1,1,-1,4,1021,RJNK 271900Z 15003KT 9999 FEW015 SCT030 BKN050 M01/M04 Q1021     RMK 1CU015 4CU030 7SC050 A3016=,
20180127_200000.000,0,RJNK,,,,0,20180127200000,-1,-1,-1,-1,999,-1,2,-1,-1,-1,-1,,9999,0,0,3,FEW 15   SCT 30   BKN 50,-1,1,-1,4,1021,RJNK 272000Z VRB02KT 9999 FEW015 SCT030 BKN050 M01/M04 Q1021     RMK 1CU015 4CU030 7SC050 A3015=,
20180127_200000.002,0,RJNK,,,,0,20180127200000,-1,-1,-1,-1,999,-1,2,-1,-1,-1,-1,,9999,0,0,3,FEW 15   SCT 30   BKN 50,-1,1,-1,4,1021,RJNK 272000Z VRB02KT 9999 FEW015 SCT030 BKN050 M01/M04 Q1021     RMK 1CU015 4CU030 7SC050 A3015=,
20180127_210000.000,0,RJNK,,,,0,20180127210000,-1,-1,-1,-1,120,-1,5,-1,-1,-1,-1,,9999,0,0,3,FEW 15   SCT 30   BKN 50,-1,1,-1,5,1020,RJNK 272100Z 12005KT 9999 FEW015 SCT030 BKN050 M01/M05 Q1020     RMK 1CU015 4CU030 7SC050 A3013 02/M02 R001 S002 SD012=,
20180127_210000.002,0,RJNK,,,,0,20180127210000,-1,-1,-1,-1,120,-1,5,-1,-1,-1,-1,,9999,0,0,3,FEW 15   SCT 30   BKN 50,-1,1,-1,5,1020,RJNK 272100Z 12005KT 9999 FEW015 SCT030 BKN050 M01/M05 Q1020     RMK 1CU015 4CU030 7SC050 A3013 02/M02 R001 S002 SD012=,
20180127_220000.000,0,RJNK,,,,0,20180127220000,-1,-1,-1,-1,100,-1,5,-1,-1,-1,-1,,9999,0,0,3,FEW 15   BKN 50   BKN 150,-1,1,-1,6,1019,RJNK 272200Z 10005KT 9999 FEW015 BKN050 BKN150 M01/M06 Q1019     RMK 1CU015 5SC050 5AC150 A3012=,
20180127_220000.002,0,RJNK,,,,0,20180127220000,-1,-1,-1,-1,100,-1,5,-1,-1,-1,-1,,9999,0,0,3,FEW 15   BKN 50   BKN 150,-1,1,-1,6,1019,RJNK 272200Z 10005KT 9999 FEW015 BKN050 BKN150 M01/M06 Q1019     RMK 1CU015 5SC050 5AC150 A3012=,
20180127_230000.000,0,RJNK,,,,0,20180127230000,-1,-1,-1,-1,140,-1,3,-1,-1,100,170,,9999,0,0,3,FEW 15   BKN 150   BKN 230,-1,1,-1,6,1020,RJNK 272300Z 14003KT 100V170 9999 FEW015 BKN150 BKN230 M01/M06     Q1020 RMK 1CU015 6AC150 A3012=,
20180127_230000.002,0,RJNK,,,,0,20180127230000,-1,-1,-1,-1,140,-1,3,-1,-1,100,170,,9999,0,0,3,FEW 15   BKN 150   BKN 230,-1,1,-1,6,1020,RJNK 272300Z 14003KT 100V170 9999 FEW015 BKN150 BKN230 M01/M06     Q1020 RMK 1CU015 6AC150 A3012=,
20180128_000000.000,0,RJNK,,,,0,20180128000000,-1,-1,-1,-1,180,-1,5,-1,-1,-1,-1,,9999,0,0,2,FEW 15   BKN 120,-1,1,-1,6,1019,RJNK 280000Z 18005KT 9999 FEW015 BKN120 M01/M06 Q1019 RMK     1CU015 7AC120 A3010=,
20180128_000000.003,0,RJNK,,,,0,20180128000000,-1,-1,-1,-1,180,-1,5,-1,-1,-1,-1,,9999,0,0,2,FEW 15   BKN 120,-1,1,-1,6,1019,RJNK 280000Z 18005KT 9999 FEW015 BKN120 M01/M06 Q1019 RMK     1CU015 7AC120 A3010=,
20180128_010000.000,0,RJNK,,,,0,20180128010000,-1,-1,-1,-1,120,-1,3,-1,-1,-1,-1,,9999,0,0,3,FEW 15   SCT 60   BKN 100,-1,1,-1,5,1018,RJNK 280100Z 12003KT 9999 FEW015 SCT060 BKN100 M01/M05 Q1018     RMK 1CU015 3SC060 7AC100 A3008=,
20180128_010000.002,0,RJNK,,,,0,20180128010000,-1,-1,-1,-1,120,-1,3,-1,-1,-1,-1,,9999,0,0,3,FEW 15   SCT 60   BKN 100,-1,1,-1,5,1018,RJNK 280100Z 12003KT 9999 FEW015 SCT060 BKN100 M01/M05 Q1018     RMK 1CU015 3SC060 7AC100 A3008=,
20180128_020000.000,0,RJNK,,,,0,20180128020000,-1,-1,-1,-1,220,-1,3,-1,-1,-1,-1,,9999,0,0,2,FEW 15   BKN 100,1,1,-1,5,1017,RJNK 280200Z 22003KT 9999 FEW015 BKN100 01/M05 Q1017 RMK 1CU015     7AC100 A3006=,
20180128_020000.002,0,RJNK,,,,0,20180128020000,-1,-1,-1,-1,220,-1,3,-1,-1,-1,-1,,9999,0,0,2,FEW 15   BKN 100,1,1,-1,5,1017,RJNK 280200Z 22003KT 9999 FEW015 BKN100 01/M05 Q1017 RMK     1CU015 7AC100 A3006=,
20180128_030000.000,0,RJNK,,,,0,20180128030000,-1,-1,-1,-1,140,-1,3,-1,-1,120,190,,9999,0,0,3,FEW 15   SCT 50   BKN 70,1,2,-1,5,1015,RJNK 280300Z 14003KT 120V190 9999 FEW015 SCT050 BKN070 02/M05     Q1015 RMK 1CU015 3SC050 7AC070 A2997=,
20180128_030000.002,0,RJNK,,,,0,20180128030000,-1,-1,-1,-1,140,-1,3,-1,-1,120,190,,9999,0,0,3,FEW 15   SCT 50   BKN 70,1,2,-1,5,1015,RJNK 280300Z 14003KT 120V190 9999 FEW015 SCT050 BKN070 02/M05     Q1015 RMK 1CU015 3SC050 7AC070 A2997=,
20180128_040000.000,0,RJNK,,,,0,20180128040000,-1,-1,-1,-1,170,-1,4,-1,-1,-1,-1,,9999,0,0,3,FEW 15   SCT 50   OVC 80,1,3,-1,4,1013,RJNK 280400Z 17004KT 9999 FEW015 SCT050 OVC080 03/M04 Q1013 RMK     1CU015 3SC050 8AS080 A2993=,
20180128_040000.002,0,RJNK,,,,0,20180128040000,-1,-1,-1,-1,170,-1,4,-1,-1,-1,-1,,9999,0,0,3,FEW 15   SCT 50   OVC 80,1,3,-1,4,1013,RJNK 280400Z 17004KT 9999 FEW015 SCT050 OVC080 03/M04 Q1013     RMK 1CU015 3SC050 8AS080 A2993=,
20180128_050000.000,0,RJNK,,,,0,20180128050000,-1,-1,-1,-1,200,-1,9,-1,-1,-1,-1,,9999,0,0,3,FEW 15   SCT 50   OVC 70,1,5,-1,7,1012,RJNK 280500Z 20009KT 9999 FEW015 SCT050 OVC070 05/M07 Q1012 RMK     1CU015 4SC050 8AS070 A2991=,
20180128_050000.002,0,RJNK,,,,0,20180128050000,-1,-1,-1,-1,200,-1,9,-1,-1,-1,-1,,9999,0,0,3,FEW 15   SCT 50   OVC 70,1,5,-1,7,1012,RJNK 280500Z 20009KT 9999 FEW015 SCT050 OVC070 05/M07 Q1012     RMK 1CU015 4SC050 8AS070 A2991=,
20180128_060000.000,0,RJNK,,,,0,20180128060000,-1,-1,-1,-1,190,-1,12,-1,-1,-1,-1,,9999,0,0,3,FEW 20   SCT 50   BKN 70,1,4,-1,5,1012,RJNK 280600Z 19012KT 9999 FEW020 SCT050 BKN070 04/M05 Q1012 RMK     2CU020 3SC050 7AS070 A2991=,
20180128_060000.002,0,RJNK,,,,0,20180128060000,-1,-1,-1,-1,190,-1,12,-1,-1,-1,-1,,9999,0,0,3,FEW 20   SCT 50   BKN 70,1,4,-1,5,1012,RJNK 280600Z 19012KT 9999 FEW020 SCT050 BKN070 04/M05 Q1012     RMK 2CU020 3SC050 7AS070 A2991=,
20180128_070000.000,0,RJNK,,,,0,20180128070000,-1,-1,-1,-1,200,-1,10,-1,-1,-1,-1,,9999,0,0,3,FEW 20   SCT 50   BKN 70,1,4,-1,4,1012,RJNK 280700Z 20010KT 9999 FEW020 SCT050 BKN070 04/M04 Q1012 RMK     2CU020 3SC050 7AC070 A2990=,
20180128_070000.003,0,RJNK,,,,0,20180128070000,-1,-1,-1,-1,200,-1,10,-1,-1,-1,-1,,9999,0,0,3,FEW 20   SCT 50   BKN 70,1,4,-1,4,1012,RJNK 280700Z 20010KT 9999 FEW020 SCT050 BKN070 04/M04 Q1012     RMK 2CU020 3SC050 7AC070 A2990=,
20180128_080000.000,0,RJNK,,,,0,20180128080000,-1,-1,-1,-1,200,-1,11,-1,-1,-1,-1,,9999,0,0,3,FEW 20   SCT 50   BKN 70,1,4,-1,4,1012,RJNK 280800Z 20011KT 9999 FEW020 SCT050 BKN070 04/M04 Q1012 RMK     1CU020 3SC050 7AC070 A2990=,
20180128_080000.002,0,RJNK,,,,0,20180128080000,-1,-1,-1,-1,200,-1,11,-1,-1,-1,-1,,9999,0,0,3,FEW 20   SCT 50   BKN 70,1,4,-1,4,1012,RJNK 280800Z 20011KT 9999 FEW020 SCT050 BKN070 04/M04 Q1012     RMK 1CU020 3SC050 7AC070 A2990=,
20180128_090000.000,0,RJNK,,,,0,20180128090000,-1,-1,-1,-1,200,-1,9,-1,-1,-1,-1,,9999,0,1,3,BKN 20   BKN 50   BKN 70,1,4,-1,3,1012,RJNK 280900Z 20009KT 9999 -SHRA BKN020 BKN050 BKN070 04/M03     Q1012 RMK 5CU020 6SC050 7AC070 A2990=,- RA SH
20180128_090000.002,0,RJNK,,,,0,20180128090000,-1,-1,-1,-1,200,-1,9,-1,-1,-1,-1,,9999,0,1,3,BKN 20   BKN 50   BKN 70,1,4,-1,3,1012,RJNK 280900Z 20009KT 9999 -SHRA BKN020 BKN050 BKN070 04/M03     Q1012 RMK 5CU020 6SC050 7AC070 A2990=,- RA SH
20180128_100000.000,0,RJNK,,,,0,20180128100000,-1,-1,-1,-1,210,-1,10,-1,-1,-1,-1,,9999,0,1,3,BKN 20   BKN 50   BKN 70,1,4,-1,3,1012,RJNK 281000Z 21010KT 9999 -SHRA BKN020 BKN050 BKN070 04/M03     Q1012 RMK 5CU020 6SC050 7AC070 A2990=,- RA SH
20180128_100000.002,0,RJNK,,,,0,20180128100000,-1,-1,-1,-1,210,-1,10,-1,-1,-1,-1,,9999,0,1,3,BKN 20   BKN 50   BKN 70,1,4,-1,3,1012,RJNK 281000Z 21010KT 9999 -SHRA BKN020 BKN050 BKN070 04/M03     Q1012 RMK 5CU020 6SC050 7AC070 A2990=,- RA SH
20180128_110000.000,0,RJNK,,,,0,20180128110000,-1,-1,-1,-1,210,-1,11,-1,-1,-1,-1,,9999,0,1,3,BKN 20   BKN 50   OVC 70,1,4,-1,3,1012,RJNK 281100Z 21011KT 9999 -SHRA BKN020 BKN050 OVC070 04/M03     Q1012 RMK 6CU020 7SC050 8AC070 A2990=,- RA SH
20180128_110000.002,0,RJNK,,,,0,20180128110000,-1,-1,-1,-1,210,-1,11,-1,-1,-1,-1,,9999,0,1,3,BKN 20   BKN 50   OVC 70,1,4,-1,3,1012,RJNK 281100Z 21011KT 9999 -SHRA BKN020 BKN050 OVC070 04/M03     Q1012 RMK 6CU020 7SC050 8AC070 A2990=,- RA SH
20180128_120000.000,0,RJNK,,,,0,20180128120000,-1,-1,-1,-1,210,-1,12,-1,-1,-1,-1,,9999,0,1,3,FEW 15   BKN 20   BKN 50,1,4,-1,3,1012,RJNK 281200Z 21012KT 9999 -SHRASN FEW015 BKN020 BKN050 04/M03     Q1012 RMK 1CU015 6CU020 7SC050 A2990=,- RA SN SH
20180128_120000.000,0,RJNK,,,,0,20180128120000,-1,-1,-1,-1,210,-1,12,-1,-1,-1,-1,,9999,0,1,3,FEW 15   BKN 20   BKN 50,1,4,-1,3,1012,RJNK 281200Z 21012KT 9999 -SHRASN FEW015 BKN020 BKN050 04/M03     Q1012 RMK 1CU015 6CU020 7SC050 A2990=,- RA SN SH
20180128_120000.002,0,RJNK,,,,0,20180128120000,-1,-1,-1,-1,210,-1,12,-1,-1,-1,-1,,9999,0,1,3,FEW 15   BKN 20   BKN 50,1,4,-1,3,1012,RJNK 281200Z 21012KT 9999 -SHRASN FEW015 BKN020 BKN050 04/M03     Q1012 RMK 1CU015 6CU020 7SC050 A2990=,- RA SN SH
20180128_130000.000,0,RJNK,,,,0,20180128130000,-1,-1,-1,-1,230,-1,14,-1,-1,-1,-1,,7000,0,1,3,FEW 10   SCT 15   BKN 20,1,3,-1,1,1013,RJNK 281300Z 23014KT 7000 -SHRASN FEW010 SCT015 BKN020 03/M01     Q1013 RMK 1CU010 3CU015 6CU020 A2992=,- RA SN SH
20180128_130000.002,0,RJNK,,,,0,20180128130000,-1,-1,-1,-1,230,-1,14,-1,-1,-1,-1,,7000,0,1,3,FEW 10   SCT 15   BKN 20,1,3,-1,1,1013,RJNK 281300Z 23014KT 7000 -SHRASN FEW010 SCT015 BKN020 03/M01     Q1013 RMK 1CU010 3CU015 6CU020 A2992=,- RA SN SH
20180128_140000.000,0,RJNK,,,,0,20180128140000,-1,-1,-1,-1,190,-1,9,-1,-1,-1,-1,,9999,0,1,3,FEW 10   SCT 15   BKN 20,1,1,1,0,1012,RJNK 281400Z 19009KT 9999 -SHRASN FEW010 SCT015 BKN020 01/00     Q1012 RMK 1CU010 3CU015 6CU020 A2990=,- RA SN SH
20180128_140000.002,0,RJNK,,,,0,20180128140000,-1,-1,-1,-1,190,-1,9,-1,-1,-1,-1,,9999,0,1,3,FEW 10   SCT 15   BKN 20,1,1,1,0,1012,RJNK 281400Z 19009KT 9999 -SHRASN FEW010 SCT015 BKN020 01/00     Q1012 RMK 1CU010 3CU015 6CU020 A2990=,- RA SN SH
20180128_150000.000,0,RJNK,,,,0,20180128150000,-1,-1,-1,-1,210,-1,7,-1,-1,-1,-1,,8000,0,1,3,FEW 10   SCT 15   BKN 20,1,2,1,0,1012,RJNK 281500Z 21007KT 8000 -SHRASN FEW010 SCT015 BKN020 02/00     Q1012 RMK 2CU010 4CU015 7CU020 A2990=,- RA SN SH
20180128_150000.002,0,RJNK,,,,0,20180128150000,-1,-1,-1,-1,210,-1,7,-1,-1,-1,-1,,8000,0,1,3,FEW 10   SCT 15   BKN 20,1,2,1,0,1012,RJNK 281500Z 21007KT 8000 -SHRASN FEW010 SCT015 BKN020 02/00     Q1012 RMK 2CU010 4CU015 7CU020 A2990=,- RA SN SH
20180128_160000.000,0,RJNK,,,,0,20180128160000,-1,-1,-1,-1,260,-1,9,-1,-1,210,290,,7000,0,1,3,SCT 10   BKN 15   BKN 20,1,3,1,1,1012,RJNK 281600Z 26009KT 210V290 7000 -SHRASN SCT010 BKN015 BKN020     03/01 Q1012 RMK 3CU010 6CU015 7CU020 A2990=,- RA SN SH
20180128_160000.002,0,RJNK,,,,0,20180128160000,-1,-1,-1,-1,260,-1,9,-1,-1,210,290,,7000,0,1,3,SCT 10   BKN 15   BKN 20,1,3,1,1,1012,RJNK 281600Z 26009KT 210V290 7000 -SHRASN SCT010 BKN015 BKN020     03/01 Q1012 RMK 3CU010 6CU015 7CU020 A2990=,- RA SN SH
20180128_170000.000,0,RJNK,,,,0,20180128170000,-1,-1,-1,-1,190,-1,6,-1,-1,160,230,,9999,0,1,3,FEW 8   SCT 10   BKN 15,1,2,1,1,1012,RJNK 281700Z 19006KT 160V230 9999 -SHSNRA FEW008 SCT010 BKN015     02/01 Q1012 RMK 1CU008 3CU010 6CU015 A2990=,- SN RA SH
20180128_170000.002,0,RJNK,,,,0,20180128170000,-1,-1,-1,-1,190,-1,6,-1,-1,160,230,,9999,0,1,3,FEW 8   SCT 10   BKN 15,1,2,1,1,1012,RJNK 281700Z 19006KT 160V230 9999 -SHSNRA FEW008 SCT010 BKN015     02/01 Q1012 RMK 1CU008 3CU010 6CU015 A2990=,- SN RA SH
20180128_180000.000,0,RJNK,,,,0,20180128180000,-1,-1,-1,-1,999,-1,6,-1,-1,-1,-1,,9999,0,1,3,FEW 8   SCT 10   BKN 15,1,3,1,2,1012,RJNK 281800Z VRB06KT 9999 -SHRASN FEW008 SCT010 BKN015 03/02     Q1012 RMK 1CU008 3CU010 6CU015 A2990=,- RA SN SH
20180128_180000.002,0,RJNK,,,,0,20180128180000,-1,-1,-1,-1,999,-1,6,-1,-1,-1,-1,,9999,0,1,3,FEW 8   SCT 10   BKN 15,1,3,1,2,1012,RJNK 281800Z VRB06KT 9999 -SHRASN FEW008 SCT010 BKN015 03/02     Q1012 RMK 1CU008 3CU010 6CU015 A2990=,- RA SN SH
20180128_190000.000,0,RJNK,,,,0,20180128190000,-1,-1,-1,-1,180,-1,5,-1,-1,160,250,,9999,0,1,3,FEW 8   SCT 10   BKN 15,1,2,1,0,1011,RJNK 281900Z 18005KT 160V250 9999 -SHRASN FEW008 SCT010 BKN015     02/00 Q1011 RMK 1CU008 3CU010 7CU015 A2988=,- RA SN SH
20180128_190000.002,0,RJNK,,,,0,20180128190000,-1,-1,-1,-1,180,-1,5,-1,-1,160,250,,9999,0,1,3,FEW 8   SCT 10   BKN 15,1,2,1,0,1011,RJNK 281900Z 18005KT 160V250 9999 -SHRASN FEW008 SCT010 BKN015     02/00 Q1011 RMK 1CU008 3CU010 7CU015 A2988=,- RA SN SH
20180128_200000.000,0,RJNK,,,,0,20180128200000,-1,-1,-1,-1,240,-1,6,-1,-1,190,330,,4000,0,1,3,FEW 5   BKN 8   BKN 10,1,1,1,0,1011,RJNK 282000Z 24006KT 190V330 4000 -SHSNRA FEW005 BKN008 BKN010     01/00 Q1011 RMK 1ST005 5CU008 7CU010 A2988 VIS SW-N 6KM           1ST005 NW-N=,- SN RA SH
20180128_200000.002,0,RJNK,,,,0,20180128200000,-1,-1,-1,-1,240,-1,6,-1,-1,190,330,,4000,0,1,3,FEW 5   BKN 8   BKN 10,1,1,1,0,1011,RJNK 282000Z 24006KT 190V330 4000 -SHSNRA FEW005 BKN008 BKN010     01/00 Q1011 RMK 1ST005 5CU008 7CU010 A2988 VIS SW-N 6KM           1ST005 NW-N=,- SN RA SH
20180128_210000.000,0,RJNK,,,,0,20180128210000,-1,-1,-1,-1,140,-1,5,-1,-1,120,180,,9999,0,1,3,FEW 3   SCT 10   BKN 20,1,1,1,0,1011,RJNK 282100Z 14005KT 120V180 9999 -SHSNRA FEW003 SCT010 BKN020     01/00 Q1011 RMK 1ST003 4CU010 7CU020 A2987 1ST003 W-NW           05/01 R008 S000 SD005=,- SN RA SH
20180128_210000.002,0,RJNK,,,,0,20180128210000,-1,-1,-1,-1,140,-1,5,-1,-1,120,180,,9999,0,1,3,FEW 3   SCT 10   BKN 20,1,1,1,0,1011,RJNK 282100Z 14005KT 120V180 9999 -SHSNRA FEW003 SCT010 BKN020     01/00 Q1011 RMK 1ST003 4CU010 7CU020 A2987 1ST003 W-NW           05/01 R008 S000 SD005=,- SN RA SH
20180128_220000.000,0,RJNK,,,,0,20180128220000,-1,-1,-1,-1,999,-1,3,-1,-1,-1,-1,,9999,0,1,3,FEW 5   SCT 10   BKN 20,1,1,1,0,1011,RJNK 282200Z VRB03KT 9999 -SHSNRAGS FEW005 SCT010 BKN020 01/00     Q1011 RMK 1ST005 3CU010 7CU020 A2988 SNOW PELLETS CUMED           OHD=,- SN, RA GS SH
20180128_220000.001,2,RJNK,,,,0,20180128220000,-1,-1,-1,-1,999,-1,3,-1,-1,-1,-1,,9999,0,1,3,FEW 5   SCT 10   BKN 20,1,1,1,0,1011,RJNK 282200Z VRB03KT 9999 -SHSNRAGS FEW005 SCT010 BKN020     01/00 Q1011 RMK 1ST005 3CU010 7CU020 A2988 SNOW PELLETS           CUMED OHD=,- SN, RA GS SH
20180128_220000.003,0,RJNK,,,,0,20180128220000,-1,-1,-1,-1,999,-1,3,-1,-1,-1,-1,,9999,0,1,3,FEW 5   SCT 10   BKN 20,1,1,1,0,1011,RJNK 282200Z VRB03KT 9999 -SHSNRAGS FEW005 SCT010 BKN020     01/00 Q1011 RMK 1ST005 3CU010 7CU020 A2988 SNOW PELLETS           CUMED OHD=,- SN, RA GS SH
20180128_230000.000,0,RJNK,,,,0,20180128230000,-1,-1,-1,-1,170,-1,6,-1,-1,-1,-1,,9999,0,1,3,FEW 5   SCT 10   BKN 20,1,2,1,0,1012,RJNK 282300Z 17006KT 9999 -SHSNRAGS FEW005 SCT010 BKN020 02/00     Q1012 RMK 1ST005 4CU010 7CU020 A2989 VIS W-N 4500M 1ST005           OVER AD CUMED OHD=,- SN, RA GS SH
20180128_230000.000,0,RJNK,,,,0,20180128230000,-1,-1,-1,-1,170,-1,6,-1,-1,-1,-1,,9999,0,1,3,FEW 5   SCT 10   BKN 20,1,2,1,0,1012,RJNK 282300Z 17006KT 9999 -SHSNRAGS FEW005 SCT010 BKN020 02/00     Q1012 RMK 1ST005 4CU010 7CU020 A2989 VIS W-N 4500M SNOW           PELLETS 1ST005 OVER AD CUMED OHD=,- SN, RA GS SH
20180128_230000.002,0,RJNK,,,,0,20180128230000,-1,-1,-1,-1,170,-1,6,-1,-1,-1,-1,,9999,0,1,3,FEW 5   SCT 10   BKN 20,1,2,1,0,1012,RJNK 282300Z 17006KT 9999 -SHSNRAGS FEW005 SCT010 BKN020 02/00     Q1012 RMK 1ST005 4CU010 7CU020 A2989 VIS W-N 4500M SNOW           PELLETS 1ST005 OVER AD CUMED OHD=,- SN, RA GS SH
20180129_000000.000,0,RJNK,,,,0,20180129000000,-1,-1,-1,-1,300,-1,9,-1,-1,-1,-1,,9999,0,1,3,FEW 8   SCT 10 TCU  BKN 20,1,3,1,0,1012,RJNK 290000Z 30009KT 9999 -SHSNRAGS FEW008 SCT010TCU BKN020     03/00 Q1012 RMK 1CU008 3TCU010 7CU020 A2990 SNOW PELLETS           TCU OHD=,- SN, RA GS SH
20180129_000000.003,0,RJNK,,,,0,20180129000000,-1,-1,-1,-1,300,-1,9,-1,-1,-1,-1,,9999,0,1,3,FEW 8   SCT 10 TCU  BKN 20,1,3,1,0,1012,RJNK 290000Z 30009KT 9999 -SHSNRAGS FEW008 SCT010TCU BKN020     03/00 Q1012 RMK 1CU008 3TCU010 7CU020 A2990 SNOW PELLETS           TCU OHD=,- SN, RA GS SH
20180129_010000.000,0,RJNK,,,,0,20180129010000,-1,-1,-1,-1,999,-1,4,-1,-1,-1,-1,,9999,0,1,3,FEW 5   SCT 10   BKN 20,1,2,1,0,1012,RJNK 290100Z VRB04KT 9999 -SHSNRA FEW005 SCT010 BKN020 02/00     Q1012 RMK 1ST005 3CU010 7CU020 A2990 1ST005 OVER AD=,- SN RA SH
20180129_010000.002,0,RJNK,,,,0,20180129010000,-1,-1,-1,-1,999,-1,4,-1,-1,-1,-1,,9999,0,1,3,FEW 5   SCT 10   BKN 20,1,2,1,0,1012,RJNK 290100Z VRB04KT 9999 -SHSNRA FEW005 SCT010 BKN020 02/00     Q1012 RMK 1ST005 3CU010 7CU020 A2990 1ST005 OVER AD=,- SN RA SH
20180129_020000.000,0,RJNK,,,,0,20180129020000,-1,-1,-1,-1,230,-1,6,-1,-1,200,290,,9999,0,0,3,FEW 8   SCT 10   BKN 20,1,3,-1,2,1012,RJNK 290200Z 23006KT 200V290 9999 FEW008 SCT010 BKN020 03/M02     Q1012 RMK 1ST008 3CU010 6CU020 A2989=,
20180129_020000.002,0,RJNK,,,,0,20180129020000,-1,-1,-1,-1,230,-1,6,-1,-1,200,290,,9999,0,0,3,FEW 8   SCT 10   BKN 20,1,3,-1,2,1012,RJNK 290200Z 23006KT 200V290 9999 FEW008 SCT010 BKN020 03/M02     Q1012 RMK 1ST008 3CU010 6CU020 A2989=,
20180129_030000.000,0,RJNK,,,,0,20180129030000,-1,-1,-1,-1,270,-1,13,-1,-1,230,290,,9999,0,1,4,FEW 5   SCT 10   BKN 20   FEW 20 TCU,1,2,-1,1,1011,RJNK 290300Z 27013KT 230V290 9999 -SHSNRA FEW005 SCT010 BKN020     FEW020TCU 02/M01 Q1011 RMK 1ST005 4CU010 7CU020 2TCU020           A2988 MAX WIND 22KT TCU S 1ST005 OVER AD=,- SN RA SH
20180129_030000.002,0,RJNK,,,,0,20180129030000,-1,-1,-1,-1,270,-1,13,-1,-1,230,290,,9999,0,1,4,FEW 5   SCT 10   BKN 20   FEW 20 TCU,1,2,-1,1,1011,RJNK 290300Z 27013KT 230V290 9999 -SHSNRA FEW005 SCT010 BKN020     FEW020TCU 02/M01 Q1011 RMK 1ST005 4CU010 7CU020 2TCU020           A2988 MAX WIND 22KT TCU S 1ST005 OVER AD=,- SN RA SH
20180129_040000.000,0,RJNK,,,,0,20180129040000,-1,-1,-1,-1,190,-1,9,-1,-1,-1,-1,,8000,0,1,4,FEW 5   BKN 10   BKN 20   SCT 20 TCU,1,1,-1,0,1010,RJNK 290400Z 19009KT 8000 -SHSNRA FEW005 BKN010 BKN020     SCT020TCU 01/M00 Q1010 RMK 1ST005 6CU010 7CU020 3TCU020           A2985 TCU E-S 1ST005 E-SW=,- SN RA SH
20180129_040000.002,0,RJNK,,,,0,20180129040000,-1,-1,-1,-1,190,-1,9,-1,-1,-1,-1,,8000,0,1,4,FEW 5   BKN 10   BKN 20   SCT 20 TCU,1,1,-1,0,1010,RJNK 290400Z 19009KT 8000 -SHSNRA FEW005 BKN010 BKN020     SCT020TCU 01/M00 Q1010 RMK 1ST005 6CU010 7CU020 3TCU020           A2985 TCU E-S 1ST005 E-SW=,- SN RA SH
20180129_050000.000,0,RJNK,,,,0,20180129050000,-1,-1,-1,-1,260,-1,22,-1,-1,-1,-1,,9999,0,0,2,FEW 8   BKN 20,1,4,-1,2,1010,RJNK 290500Z 26022KT 9999 FEW008 BKN020 04/M02 Q1010 RMK 1ST008     7CU020 A2985 MAX WIND 28KT=,
20180129_050000.002,0,RJNK,,,,0,20180129050000,-1,-1,-1,-1,260,-1,22,-1,-1,-1,-1,,9999,0,0,2,FEW 8   BKN 20,1,4,-1,2,1010,RJNK 290500Z 26022KT 9999 FEW008 BKN020 04/M02 Q1010 RMK     1ST008 7CU020 A2985 MAX WIND 28KT=,
20180129_060000.000,0,RJNK,,,,0,20180129060000,-1,-1,-1,-1,270,-1,21,-1,31,-1,-1,,6000,0,1,4,FEW 5   SCT 10   BKN 20   FEW 20 TCU,1,3,-1,3,1011,RJNK 290600Z 27021G31KT 6000 -SHRASN FEW005 SCT010 BKN020     FEW020TCU 03/M03 Q1011 RMK 1ST005 4CU010 7CU020 2TCU020           A2986 VIS SW-NW 2500M TCU W 1ST005 SW-NW=,- RA SN SH
20180129_060000.002,0,RJNK,,,,0,20180129060000,-1,-1,-1,-1,270,-1,21,-1,31,-1,-1,,6000,0,1,4,FEW 5   SCT 10   BKN 20   FEW 20 TCU,1,3,-1,3,1011,RJNK 290600Z 27021G31KT 6000 -SHRASN FEW005 SCT010 BKN020     FEW020TCU 03/M03 Q1011 RMK 1ST005 4CU010 7CU020 2TCU020           A2986 VIS SW-NW 2500M TCU W 1ST005 SW-NW=,- RA SN SH
20180129_070000.000,0,RJNK,,,,0,20180129070000,-1,-1,-1,-1,280,-1,18,-1,-1,-1,-1,,9999,0,0,3,FEW 5   BKN 10   BKN 20,1,3,-1,3,1011,RJNK 290700Z 28018KT 9999 FEW005 BKN010 BKN020 03/M03 Q1011 RMK     1ST005 5CU010 7CU020 A2987 MAX WIND 24KT 1ST005 OVER AD=,
20180129_070000.002,0,RJNK,,,,0,20180129070000,-1,-1,-1,-1,280,-1,18,-1,-1,-1,-1,,9999,0,0,3,FEW 5   BKN 10   BKN 20,1,3,-1,3,1011,RJNK 290700Z 28018KT 9999 FEW005 BKN010 BKN020 03/M03 Q1011     RMK 1ST005 5CU010 7CU020 A2987 MAX WIND 24KT 1ST005 OVER           AD=,
20180129_080000.000,0,RJNK,,,,0,20180129080000,-1,-1,-1,-1,270,-1,23,-1,-1,-1,-1,,8000,0,1,3,FEW 5   BKN 10   BKN 30,1,2,-1,4,1011,RJNK 290800Z 27023KT 8000 -SHSN FEW005 BKN010 BKN030 02/M04     Q1011 RMK 1ST005 6CU010 7CU030 A2988 MAX WIND 31KT 1ST005           OVER AD=,- SN SH
20180129_080000.002,0,RJNK,,,,0,20180129080000,-1,-1,-1,-1,270,-1,23,-1,-1,-1,-1,,8000,0,1,3,FEW 5   BKN 10   BKN 30,1,2,-1,4,1011,RJNK 290800Z 27023KT 8000 -SHSN FEW005 BKN010 BKN030 02/M04     Q1011 RMK 1ST005 6CU010 7CU030 A2988 MAX WIND 31KT 1ST005           OVER AD=,- SN SH
20180129_090000.000,0,RJNK,,,,0,20180129090000,-1,-1,-1,-1,290,-1,22,-1,32,-1,-1,,6000,0,1,4,FEW 5   BKN 10   BKN 30   SCT 30 TCU,1,2,-1,3,1013,RJNK 290900Z 29022G32KT 6000 -SHSN FEW005 BKN010 BKN030     SCT030TCU 02/M03 Q1013 RMK 1ST005 5CU010 7CU030 3TCU030           A2992 TCU E-SW 1ST005 OVER AD=,- SN SH
20180129_090000.002,0,RJNK,,,,0,20180129090000,-1,-1,-1,-1,290,-1,22,-1,32,-1,-1,,6000,0,1,4,FEW 5   BKN 10   BKN 30   SCT 30 TCU,1,2,-1,3,1013,RJNK 290900Z 29022G32KT 6000 -SHSN FEW005 BKN010 BKN030     SCT030TCU 02/M03 Q1013 RMK 1ST005 5CU010 7CU030 3TCU030           A2992 TCU E-SW 1ST005 OVER AD=,- SN SH
20180129_100000.000,0,RJNK,,,,0,20180129100000,-1,-1,-1,-1,290,-1,20,-1,31,-1,-1,,8000,0,1,4,FEW 5   BKN 10   BKN 30   SCT 30 TCU,1,2,-1,3,1014,RJNK 291000Z 29020G31KT 8000 -SHSN FEW005 BKN010 BKN030     SCT030TCU 02/M03 Q1014 RMK 1ST005 5CU010 7CU030 3TCU030           A2995 TCU E-S 1ST005 OVER AD=,- SN SH
20180129_100000.002,0,RJNK,,,,0,20180129100000,-1,-1,-1,-1,290,-1,20,-1,31,-1,-1,,8000,0,1,4,FEW 5   BKN 10   BKN 30   SCT 30 TCU,1,2,-1,3,1014,RJNK 291000Z 29020G31KT 8000 -SHSN FEW005 BKN010 BKN030     SCT030TCU 02/M03 Q1014 RMK 1ST005 5CU010 7CU030 3TCU030           A2995 TCU E-S 1ST005 OVER AD=,- SN SH
20180129_110000.000,0,RJNK,,,,0,20180129110000,-1,-1,-1,-1,280,-1,19,-1,29,-1,-1,,9999,0,0,3,FEW 5   FEW 20 TCU  BKN 30,1,2,-1,5,1015,RJNK 291100Z 28019G29KT 9999 FEW005 FEW020TCU BKN030 02/M05     Q1015 RMK 1ST005 1TCU020 7CU030 A2997 TCU N 1ST005 NW-NE=,
20180129_110000.002,0,RJNK,,,,0,20180129110000,-1,-1,-1,-1,280,-1,19,-1,29,-1,-1,,9999,0,0,3,FEW 5   FEW 20 TCU  BKN 30,1,2,-1,5,1015,RJNK 291100Z 28019G29KT 9999 FEW005 FEW020TCU BKN030 02/M05     Q1015 RMK 1ST005 1TCU020 7CU030 A2997 TCU N 1ST005 NW-NE=,
20180129_120000.000,0,RJNK,,,,0,20180129120000,-1,-1,-1,-1,260,-1,15,-1,-1,-1,-1,,9999,0,1,3,FEW 10   SCT 20 TCU  BKN 30,1,1,-1,5,1015,RJNK 291200Z 26015KT 9999 -SHSN FEW010 SCT020TCU BKN030 01/M05     Q1015 RMK 1CU010 3TCU020 6CU030 A2999 TCU NW=,- SN SH
20180129_120000.002,0,RJNK,,,,0,20180129120000,-1,-1,-1,-1,260,-1,15,-1,-1,-1,-1,,9999,0,1,3,FEW 10   SCT 20 TCU  BKN 30,1,1,-1,5,1015,RJNK 291200Z 26015KT 9999 -SHSN FEW010 SCT020TCU BKN030 01/M05     Q1015 RMK 1CU010 3TCU020 6CU030 A2999 TCU NW=,- SN SH
20180129_130000.000,0,RJNK,,,,0,20180129130000,-1,-1,-1,-1,270,-1,20,-1,32,-1,-1,,9999,0,1,3,FEW 10   SCT 20   BKN 30,1,1,-1,7,1015,RJNK 291300Z 27020G32KT 9999 -SHSN FEW010 SCT020 BKN030 01/M07     Q1015 RMK 2CU010 4CU020 7CU030 A2998=,- SN SH
20180129_130000.002,0,RJNK,,,,0,20180129130000,-1,-1,-1,-1,270,-1,20,-1,32,-1,-1,,9999,0,1,3,FEW 10   SCT 20   BKN 30,1,1,-1,7,1015,RJNK 291300Z 27020G32KT 9999 -SHSN FEW010 SCT020 BKN030 01/M07     Q1015 RMK 2CU010 4CU020 7CU030 A2998=,- SN SH
20180129_140000.000,0,RJNK,,,,0,20180129140000,-1,-1,-1,-1,290,-1,18,-1,-1,-1,-1,,9999,0,0,3,FEW 10   SCT 20   BKN 30,1,1,-1,7,1015,RJNK 291400Z 29018KT 9999 FEW010 SCT020 BKN030 01/M07 Q1015 RMK     1CU010 3CU020 6CU030 A2997=,
20180129_140000.002,0,RJNK,,,,0,20180129140000,-1,-1,-1,-1,290,-1,18,-1,-1,-1,-1,,9999,0,0,3,FEW 10   SCT 20   BKN 30,1,1,-1,7,1015,RJNK 291400Z 29018KT 9999 FEW010 SCT020 BKN030 01/M07 Q1015     RMK 1CU010 3CU020 6CU030 A2997=,
20180129_150000.000,0,RJNK,,,,0,20180129150000,-1,-1,-1,-1,280,-1,4,-1,-1,-1,-1,,9999,0,1,3,FEW 10   SCT 20 TCU  BKN 30,-1,0,-1,4,1014,RJNK 291500Z 28004KT 9999 -SHSN FEW010 SCT020TCU BKN030 M00/M04     Q1014 RMK 1CU010 4TCU020 7CU030 A2997 TCU NE-E=,- SN SH
20180129_150000.002,0,RJNK,,,,0,20180129150000,-1,-1,-1,-1,280,-1,4,-1,-1,-1,-1,,9999,0,1,3,FEW 10   SCT 20 TCU  BKN 30,-1,0,-1,4,1014,RJNK 291500Z 28004KT 9999 -SHSN FEW010 SCT020TCU BKN030     M00/M04 Q1014 RMK 1CU010 4TCU020 7CU030 A2997 TCU NE-E=,- SN SH
20180129_160000.000,0,RJNK,,,,0,20180129160000,-1,-1,-1,-1,220,-1,9,-1,-1,-1,-1,,9999,0,1,3,FEW 10   SCT 20 TCU  BKN 30,-1,0,-1,4,1014,RJNK 291600Z 22009KT 9999 -SHSN FEW010 SCT020TCU BKN030 M00/M04     Q1014 RMK 1CU010 4TCU020 7CU030 A2996 TCU NE=,- SN SH
20180129_160000.002,0,RJNK,,,,0,20180129160000,-1,-1,-1,-1,220,-1,9,-1,-1,-1,-1,,9999,0,1,3,FEW 10   SCT 20 TCU  BKN 30,-1,0,-1,4,1014,RJNK 291600Z 22009KT 9999 -SHSN FEW010 SCT020TCU BKN030     M00/M04 Q1014 RMK 1CU010 4TCU020 7CU030 A2996 TCU NE=,- SN SH
20180129_170000.000,0,RJNK,,,,0,20180129170000,-1,-1,-1,-1,360,-1,12,-1,-1,-1,-1,,200,1,1,1,VV 0,-1,0,-1,2,1015,RJNK 291700Z 36012KT 0200 R24/0800VP1800U SHSN VV000 M00/M02     Q1015 RMK A2997 R1000=,SN SH
20180129_170000.002,0,RJNK,,,,0,20180129170000,-1,-1,-1,-1,360,-1,12,-1,-1,-1,-1,,200,1,1,1,VV 0,-1,0,-1,2,1015,RJNK 291700Z 36012KT 0200 R24/0800VP1800U SHSN VV000 M00/M02     Q1015 RMK A2997 R1000=,SN SH
20180129_180000.000,0,RJNK,,,,0,20180129180000,-1,-1,-1,-1,40,-1,9,-1,-1,-1,-1,,800,1,1,1,VV 3,1,0,-1,1,1015,RJNK 291800Z 04009KT 0800 R24/P1800U SHSN VV003 00/M01 Q1015     RMK A2999=,SN SH
20180129_180000.002,0,RJNK,,,,0,20180129180000,-1,-1,-1,-1,40,-1,9,-1,-1,-1,-1,,800,1,1,1,VV 3,1,0,-1,1,1015,RJNK 291800Z 04009KT 0800 R24/P1800U SHSN VV003 00/M01 Q1015     RMK A2999=,SN SH
20180129_190000.000,0,RJNK,,,,0,20180129190000,-1,-1,-1,-1,110,-1,4,-1,-1,70,160,,1500,1,1,1,VV 5,-1,1,-1,2,1016,RJNK 291900Z 11004KT 070V160 1500 R24/P1800N -SHSN VV005     M01/M02 Q1016 RMK A3000=,- SN SH
20180129_190000.002,0,RJNK,,,,0,20180129190000,-1,-1,-1,-1,110,-1,4,-1,-1,70,160,,1500,1,1,1,VV 5,-1,1,-1,2,1016,RJNK 291900Z 11004KT 070V160 1500 R24/P1800N -SHSN VV005     M01/M02 Q1016 RMK A3000=,- SN SH
20180129_200000.000,0,RJNK,,,,0,20180129200000,-1,-1,-1,-1,140,-1,4,-1,-1,-1,-1,,800,1,1,1,VV 3,-1,1,-1,2,1017,RJNK 292000Z 14004KT 0800 R24/P1800N SHSN VV003 M01/M02 Q1017     RMK A3003=,SN SH
20180129_200000.002,0,RJNK,,,,0,20180129200000,-1,-1,-1,-1,140,-1,4,-1,-1,-1,-1,,800,1,1,1,VV 3,-1,1,-1,2,1017,RJNK 292000Z 14004KT 0800 R24/P1800N SHSN VV003 M01/M02 Q1017     RMK A3003=,SN SH
20180129_210000.000,0,RJNK,,,,0,20180129210000,-1,-1,-1,-1,160,-1,8,-1,-1,-1,-1,,1500,1,1,1,VV 5,-1,1,-1,2,1017,RJNK 292100Z 16008KT 1500 R24/P1800N -SHSN VV005 M01/M02 Q1017     RMK A3005 26036KT/0600 04/M01 R005 S017 SD014=,- SN SH
20180129_210000.002,0,RJNK,,,,0,20180129210000,-1,-1,-1,-1,160,-1,8,-1,-1,-1,-1,,1500,1,1,1,VV 5,-1,1,-1,2,1017,RJNK 292100Z 16008KT 1500 R24/P1800N -SHSN VV005 M01/M02 Q1017     RMK A3005 26036KT/0600 04/M01 R005 S017 SD014=,- SN SH
20180129_220000.000,0,RJNK,,,,0,20180129220000,-1,-1,-1,-1,150,-1,4,-1,-1,-1,-1,,8000,0,1,3,FEW 3   SCT 10   BKN 20,-1,1,-1,2,1018,RJNK 292200Z 15004KT 8000 -SHSN FEW003 SCT010 BKN020 M01/M02     Q1018 RMK 1ST003 3CU010 7CU020 A3007 VIS SW-W 4000M 1ST003           OVER AD=,- SN SH
20180129_220000.002,0,RJNK,,,,0,20180129220000,-1,-1,-1,-1,150,-1,4,-1,-1,-1,-1,,8000,0,1,3,FEW 3   SCT 10   BKN 20,-1,1,-1,2,1018,RJNK 292200Z 15004KT 8000 -SHSN FEW003 SCT010 BKN020 M01/M02     Q1018 RMK 1ST003 3CU010 7CU020 A3007 VIS SW-W 4000M           1ST003 OVER AD=,- SN SH
20180129_230000.000,0,RJNK,,,,0,20180129230000,-1,-1,-1,-1,999,-1,2,-1,-1,-1,-1,,8000,0,1,4,FEW 3   SCT 10   BKN 20   FEW 20 TCU,-1,1,-1,2,1018,RJNK 292300Z VRB02KT 8000 -SHSN FEW003 SCT010 BKN020 FEW020TCU     M01/M02 Q1018 RMK 1ST003 3CU010 7CU020 2TCU020 A3009 TCU           E-SE 1ST003 N-SE=,- SN SH
20180129_230000.002,0,RJNK,,,,0,20180129230000,-1,-1,-1,-1,999,-1,2,-1,-1,-1,-1,,8000,0,1,4,FEW 3   SCT 10   BKN 20   FEW 20 TCU,-1,1,-1,2,1018,RJNK 292300Z VRB02KT 8000 -SHSN FEW003 SCT010 BKN020 FEW020TCU     M01/M02 Q1018 RMK 1ST003 3CU010 7CU020 2TCU020 A3009 TCU           E-SE 1ST003 N-SE=,- SN SH
20180130_000000.000,0,RJNK,,,,0,20180130000000,-1,-1,-1,-1,160,-1,6,-1,-1,-1,-1,,9999,0,0,2,FEW 10   BKN 20,-1,0,-1,2,1019,RJNK 300000Z 16006KT 9999 FEW010 BKN020 M00/M02 Q1019 RMK     1CU010 7CU020 A3010=,
20180130_000000.002,0,RJNK,,,,0,20180130000000,-1,-1,-1,-1,160,-1,6,-1,-1,-1,-1,,9999,0,0,2,FEW 10   BKN 20,-1,0,-1,2,1019,RJNK 300000Z 16006KT 9999 FEW010 BKN020 M00/M02 Q1019 RMK     1CU010 7CU020 A3010=,
20180130_010000.000,0,RJNK,,,,0,20180130010000,-1,-1,-1,-1,340,-1,5,-1,-1,300,40,,9999,0,0,2,FEW 10   BKN 20,1,1,-1,5,1019,RJNK 300100Z 34005KT 300V040 9999 FEW010 BKN020 01/M05 Q1019     RMK 1CU010 7CU020 A3011=,
20180130_010000.002,0,RJNK,,,,0,20180130010000,-1,-1,-1,-1,340,-1,5,-1,-1,300,40,,9999,0,0,2,FEW 10   BKN 20,1,1,-1,5,1019,RJNK 300100Z 34005KT 300V040 9999 FEW010 BKN020 01/M05 Q1019     RMK 1CU010 7CU020 A3011=,
20180130_020000.000,0,RJNK,,,,0,20180130020000,-1,-1,-1,-1,140,-1,5,-1,-1,-1,-1,,9999,0,0,3,FEW 10   BKN 20   BKN 30,1,1,-1,3,1019,RJNK 300200Z 14005KT 9999 FEW010 BKN020 BKN030 01/M03 Q1019 RMK     1CU010 5CU020 7CU030 A3010=,
20180130_020000.002,0,RJNK,,,,0,20180130020000,-1,-1,-1,-1,140,-1,5,-1,-1,-1,-1,,9999,0,0,3,FEW 10   BKN 20   BKN 30,1,1,-1,3,1019,RJNK 300200Z 14005KT 9999 FEW010 BKN020 BKN030 01/M03 Q1019     RMK 1CU010 5CU020 7CU030 A3010=,
20180130_030000.000,0,RJNK,,,,0,20180130030000,-1,-1,-1,-1,40,-1,6,-1,-1,-1,-1,,9999,0,0,2,FEW 10   SCT 30,1,1,-1,2,1018,RJNK 300300Z 04006KT 9999 FEW010 SCT030 01/M02 Q1018 RMK 1CU010     4CU030 A3008=,
20180130_030000.002,0,RJNK,,,,0,20180130030000,-1,-1,-1,-1,40,-1,6,-1,-1,-1,-1,,9999,0,0,2,FEW 10   SCT 30,1,1,-1,2,1018,RJNK 300300Z 04006KT 9999 FEW010 SCT030 01/M02 Q1018 RMK     1CU010 4CU030 A3008=,
20180130_040000.000,0,RJNK,,,,0,20180130040000,-1,-1,-1,-1,999,-1,2,-1,-1,-1,-1,,9999,0,0,2,FEW 10   BKN 30,1,1,-1,5,1018,RJNK 300400Z VRB02KT 9999 FEW010 BKN030 01/M05 Q1018 RMK 1CU010     5CU030 A3008=,
20180130_040000.002,0,RJNK,,,,0,20180130040000,-1,-1,-1,-1,999,-1,2,-1,-1,-1,-1,,9999,0,0,2,FEW 10   BKN 30,1,1,-1,5,1018,RJNK 300400Z VRB02KT 9999 FEW010 BKN030 01/M05 Q1018 RMK     1CU010 5CU030 A3008=,
20180130_050000.000,0,RJNK,,,,0,20180130050000,-1,-1,-1,-1,210,-1,7,-1,-1,-1,-1,,8000,0,1,4,FEW 8   SCT 10   BKN 20   FEW 20 TCU,1,0,-1,3,1018,RJNK 300500Z 21007KT 8000 -SHGSSN FEW008 SCT010 BKN020     FEW020TCU 00/M03 Q1018 RMK 1CU008 3CU010 5CU020 2TCU020           A3008 VIS S-W 3000M SNOW PELLETS TCU OHD 1CU008 OVER AD=,- GS SN SH
20180130_050000.002,0,RJNK,,,,0,20180130050000,-1,-1,-1,-1,210,-1,7,-1,-1,-1,-1,,8000,0,1,4,FEW 8   SCT 10   BKN 20   FEW 20 TCU,1,0,-1,3,1018,RJNK 300500Z 21007KT 8000 -SHGSSN FEW008 SCT010 BKN020     FEW020TCU 00/M03 Q1018 RMK 1CU008 3CU010 5CU020 2TCU020           A3008 VIS S-W 3000M SNOW PELLETS TCU OHD 1CU008 OVER AD=,- GS SN SH
20180130_060000.000,0,RJNK,,,,0,20180130060000,-1,-1,-1,-1,160,-1,7,-1,-1,-1,-1,,9999,0,0,3,FEW 8   SCT 20 CB  BKN 50,1,1,-1,4,1019,RJNK 300600Z 16007KT 9999 FEW008 SCT020CB BKN050 01/M04 Q1019     RMK 1CU008 3CB020 6SC050 A3009 CB W 1CU008 W-NW=,
20180130_060000.003,0,RJNK,,,,0,20180130060000,-1,-1,-1,-1,160,-1,7,-1,-1,-1,-1,,9999,0,0,3,FEW 8   SCT 20 CB  BKN 50,1,1,-1,4,1019,RJNK 300600Z 16007KT 9999 FEW008 SCT020CB BKN050 01/M04 Q1019     RMK 1CU008 3CB020 6SC050 A3009 CB W 1CU008 W-NW=,
20180130_070000.000,0,RJNK,,,,0,20180130070000,-1,-1,-1,-1,200,-1,6,-1,-1,-1,-1,,5000,0,1,4,FEW 8   BKN 20   FEW 20 CB  BKN 30,1,2,-1,5,1020,RJNK 300700Z 20006KT 5000 -SHSN FEW008 BKN020 FEW020CB BKN030     02/M05 Q1020 RMK 1CU008 5CU020 2CB020 7CU030 A3012 VIS           SW-N 3000M CB W 1CU008 OVER AD=,- SN SH
20180130_070000.002,0,RJNK,,,,0,20180130070000,-1,-1,-1,-1,200,-1,6,-1,-1,-1,-1,,5000,0,1,4,FEW 8   BKN 20   FEW 20 CB  BKN 30,1,2,-1,5,1020,RJNK 300700Z 20006KT 5000 -SHSN FEW008 BKN020 FEW020CB BKN030     02/M05 Q1020 RMK 1CU008 5CU020 2CB020 7CU030 A3012 VIS           SW-N 3000M CB W 1CU008 OVER AD=,- SN SH
20180130_080000.000,0,RJNK,,,,0,20180130080000,-1,-1,-1,-1,200,-1,4,-1,-1,-1,-1,,500,1,1,1,VV 3,-1,0,-1,1,1020,RJNK 300800Z 20004KT 0500 R24/0800V1700D SHSN VV003 M00/M01     Q1020 RMK A3014 R1000 VIS W-N 1500M=,SN SH
20180130_080000.002,0,RJNK,,,,0,20180130080000,-1,-1,-1,-1,200,-1,4,-1,-1,-1,-1,,500,1,1,1,VV 3,-1,0,-1,1,1020,RJNK 300800Z 20004KT 0500 R24/0800V1700D SHSN VV003 M00/M01     Q1020 RMK A3014 R1000 VIS W-N 1500M=,SN SH
20180130_090000.000,0,RJNK,,,,0,20180130090000,-1,-1,-1,-1,180,-1,5,-1,-1,-1,-1,,3000,0,1,3,FEW 3   SCT 5   BKN 8,-1,0,-1,1,1021,RJNK 300900Z 18005KT 3000 -SHSN FEW003 SCT005 BKN008 M00/M01     Q1021 RMK 2ST003 4ST005 6CU008 A3015 VIS W-N 6KM 2ST003           OVER AD=,- SN SH
20180130_090000.000,0,RJNK,,,,0,20180130090000,-1,-1,-1,-1,180,-1,5,-1,-1,-1,-1,,3000,0,1,3,FEW 3   SCT 5   BKN 8,-1,0,-1,1,1021,RJNK 300900Z 18005KT 3000 -SHSN FEW003 SCT005 BKN008 M00/M01     Q1021 RMK 2ST003 4ST005 6CU008 A3015 VIS W-N 6KM 2ST003           OVER AD=,- SN SH
20180130_090000.002,0,RJNK,,,,0,20180130090000,-1,-1,-1,-1,180,-1,5,-1,-1,-1,-1,,3000,0,1,3,FEW 3   SCT 5   BKN 8,-1,0,-1,1,1021,RJNK 300900Z 18005KT 3000 -SHSN FEW003 SCT005 BKN008 M00/M01     Q1021 RMK 2ST003 4ST005 6CU008 A3015 VIS W-N 6KM 2ST003           OVER AD=,- SN SH
20180130_100000.000,0,RJNK,,,,0,20180130100000,-1,-1,-1,-1,170,-1,5,-1,-1,-1,-1,,500,1,1,1,VV 3,-1,0,-1,1,1021,RJNK 301000Z 17005KT 0500 R24/P1800N SHSN VV003 M00/M01 Q1021     REGS RMK A3017 VIS W-N 900M=,SN SH
20180130_100000.002,0,RJNK,,,,0,20180130100000,-1,-1,-1,-1,170,-1,5,-1,-1,-1,-1,,500,1,1,1,VV 3,-1,0,-1,1,1021,RJNK 301000Z 17005KT 0500 R24/P1800N SHSN VV003 M00/M01 Q1021     REGS RMK A3017 VIS W-N 900M=,SN SH
20180130_110000.000,0,RJNK,,,,0,20180130110000,-1,-1,-1,-1,140,-1,6,-1,-1,-1,-1,,1200,1,1,4,SCT 3   BKN 5   BKN 8   SCT 20 CB,-1,0,-1,1,1021,RJNK 301100Z 14006KT 1200 R06/P1800N -SHSN SCT003 BKN005 BKN008     SCT020CB M00/M01 Q1021 RMK 3ST003 5ST005 6CU008 3CB020           A3018 VIS NW-NE 4000M CB OHD 3ST003 OVER AD=,- SN SH
20180130_110000.002,0,RJNK,,,,0,20180130110000,-1,-1,-1,-1,140,-1,6,-1,-1,-1,-1,,1200,1,1,4,SCT 3   BKN 5   BKN 8   SCT 20 CB,-1,0,-1,1,1021,RJNK 301100Z 14006KT 1200 R06/P1800N -SHSN SCT003 BKN005     BKN008 SCT020CB M00/M01 Q1021 RMK 3ST003 5ST005 6CU008           3CB020 A3018 VIS NW-NE 4000M CB OHD 3ST003 OVER AD=,- SN SH
20180130_120000.000,0,RJNK,,,,0,20180130120000,-1,-1,-1,-1,180,-1,6,-1,-1,-1,-1,,8000,0,1,3,FEW 2   SCT 8   BKN 20,-1,0,-1,1,1022,RJNK 301200Z 18006KT 8000 -SHSN FEW002 SCT008 BKN020 M00/M01     Q1022 RMK 1ST002 3ST008 7CU020 A3020 1ST002 NE-SE=,- SN SH
20180130_120000.002,0,RJNK,,,,0,20180130120000,-1,-1,-1,-1,180,-1,6,-1,-1,-1,-1,,8000,0,1,3,FEW 2   SCT 8   BKN 20,-1,0,-1,1,1022,RJNK 301200Z 18006KT 8000 -SHSN FEW002 SCT008 BKN020 M00/M01     Q1022 RMK 1ST002 3ST008 7CU020 A3020 1ST002 NE-SE=,- SN SH
20180130_130000.000,0,RJNK,,,,0,20180130130000,-1,-1,-1,-1,160,-1,7,-1,-1,-1,-1,,8000,0,1,3,FEW 2   SCT 8   BKN 20,-1,0,-1,1,1022,RJNK 301300Z 16007KT 8000 -SHSN FEW002 SCT008 BKN020 M00/M01     Q1022 RMK 1ST002 3ST008 7CU020 A3019 VIS SW-N 4000M 1ST002           NW-E=,- SN SH
20180130_130000.002,0,RJNK,,,,0,20180130130000,-1,-1,-1,-1,160,-1,7,-1,-1,-1,-1,,8000,0,1,3,FEW 2   SCT 8   BKN 20,-1,0,-1,1,1022,RJNK 301300Z 16007KT 8000 -SHSN FEW002 SCT008 BKN020 M00/M01     Q1022 RMK 1ST002 3ST008 7CU020 A3019 VIS SW-N 4000M           1ST002 NW-E=,- SN SH
20180130_140000.000,0,RJNK,,,,0,20180130140000,-1,-1,-1,-1,160,-1,6,-1,-1,-1,-1,,2000,0,1,4,FEW 5   BKN 8   BKN 20   SCT 20 TCU,1,0,-1,1,1022,RJNK 301400Z 16006KT 2000 -SHSN FEW005 BKN008 BKN020 SCT020TCU     00/M01 Q1022 RMK 1ST005 5ST008 7CU020 3TCU020 A3021 VIS           SE-S 4000M TCU E 1ST005 OVER RWY=,- SN SH
20180130_140000.002,0,RJNK,,,,0,20180130140000,-1,-1,-1,-1,160,-1,6,-1,-1,-1,-1,,2000,0,1,4,FEW 5   BKN 8   BKN 20   SCT 20 TCU,1,0,-1,1,1022,RJNK 301400Z 16006KT 2000 -SHSN FEW005 BKN008 BKN020 SCT020TCU     00/M01 Q1022 RMK 1ST005 5ST008 7CU020 3TCU020 A3021 VIS           SE-S 4000M TCU E 1ST005 OVER RWY=,- SN SH
20180130_150000.000,0,RJNK,,,,0,20180130150000,-1,-1,-1,-1,160,-1,7,-1,-1,-1,-1,,9999,0,0,2,FEW 5   BKN 20,1,0,-1,0,1022,RJNK 301500Z 16007KT 9999 FEW005 BKN020 00/M00 Q1022 RESN RMK     1ST005 7CU020 A3021 1ST005 OVER AD=,
20180130_150000.002,0,RJNK,,,,0,20180130150000,-1,-1,-1,-1,160,-1,7,-1,-1,-1,-1,,9999,0,0,2,FEW 5   BKN 20,1,0,-1,0,1022,RJNK 301500Z 16007KT 9999 FEW005 BKN020 00/M00 Q1022 RESN RMK     1ST005 7CU020 A3021 1ST005 OVER AD=,
20180130_160000.000,0,RJNK,,,,0,20180130160000,-1,-1,-1,-1,190,-1,7,-1,-1,-1,-1,,9999,0,0,2,FEW 8   BKN 20,-1,0,-1,2,1022,RJNK 301600Z 19007KT 9999 FEW008 BKN020 M00/M02 Q1022 RMK     1CU008 7CU020 A3021=,
20180130_160000.002,0,RJNK,,,,0,20180130160000,-1,-1,-1,-1,190,-1,7,-1,-1,-1,-1,,9999,0,0,2,FEW 8   BKN 20,-1,0,-1,2,1022,RJNK 301600Z 19007KT 9999 FEW008 BKN020 M00/M02 Q1022 RMK     1CU008 7CU020 A3021=,
20180130_170000.000,0,RJNK,,,,0,20180130170000,-1,-1,-1,-1,190,-1,6,-1,-1,-1,-1,,8000,0,1,3,FEW 5   SCT 8   BKN 20 TCU,1,0,-1,1,1023,RJNK 301700Z 19006KT 8000 -SHGSSN FEW005 SCT008 BKN020TCU     00/M01 Q1023 RMK 1ST005 3CU008 7TCU020 A3022 VIS SE-W 5KM           SNOW PELLETS TCU OHD 1ST005 OVER AD=,- GS SN SH
20180130_170000.002,0,RJNK,,,,0,20180130170000,-1,-1,-1,-1,190,-1,6,-1,-1,-1,-1,,8000,0,1,3,FEW 5   SCT 8   BKN 20 TCU,1,0,-1,1,1023,RJNK 301700Z 19006KT 8000 -SHGSSN FEW005 SCT008 BKN020TCU     00/M01 Q1023 RMK 1ST005 3CU008 7TCU020 A3022 VIS SE-W 5KM           SNOW PELLETS TCU OHD 1ST005 OVER AD=,- GS SN SH
20180130_180000.000,0,RJNK,,,,0,20180130180000,-1,-1,-1,-1,160,-1,7,-1,-1,-1,-1,,8000,0,1,4,FEW 5   SCT 8   BKN 20   FEW 20 TCU,1,1,-1,1,1022,RJNK 301800Z 16007KT 8000 -SHSN FEW005 SCT008 BKN020 FEW020TCU     01/M01 Q1022 RMK 1ST005 3CU008 7CU020 2TCU020 A3021 TCU NE           AND W 1ST005 OVER AD=,- SN SH
20180130_180000.002,0,RJNK,,,,0,20180130180000,-1,-1,-1,-1,160,-1,7,-1,-1,-1,-1,,8000,0,1,4,FEW 5   SCT 8   BKN 20   FEW 20 TCU,1,1,-1,1,1022,RJNK 301800Z 16007KT 8000 -SHSN FEW005 SCT008 BKN020 FEW020TCU     01/M01 Q1022 RMK 1ST005 3CU008 7CU020 2TCU020 A3021 TCU           NE AND W 1ST005 OVER AD=,- SN SH
20180130_190000.000,0,RJNK,,,,0,20180130190000,-1,-1,-1,-1,250,-1,11,-1,-1,-1,-1,,5000,0,1,4,FEW 5   SCT 8   BKN 20   FEW 20 TCU,1,1,-1,1,1023,RJNK 301900Z 25011KT 5000 -SHSN FEW005 SCT008 BKN020 FEW020TCU     01/M01 Q1023 RMK 1ST005 4CU008 7CU020 2TCU020 A3021 VIS           NE-E 2000M TCU NE-SE 1ST005 N-SE=,- SN SH
20180130_190000.002,0,RJNK,,,,0,20180130190000,-1,-1,-1,-1,250,-1,11,-1,-1,-1,-1,,5000,0,1,4,FEW 5   SCT 8   BKN 20   FEW 20 TCU,1,1,-1,1,1023,RJNK 301900Z 25011KT 5000 -SHSN FEW005 SCT008 BKN020 FEW020TCU     01/M01 Q1023 RMK 1ST005 4CU008 7CU020 2TCU020 A3021 VIS           NE-E 2000M TCU NE-SE 1ST005 N-SE=,- SN SH
20180130_200000.000,0,RJNK,,,,0,20180130200000,-1,-1,-1,-1,150,-1,6,-1,-1,-1,-1,,9999,0,1,4,FEW 5   SCT 8   BKN 20   SCT 20 TCU,1,1,-1,1,1023,RJNK 302000Z 15006KT 9999 -SHSN FEW005 SCT008 BKN020 SCT020TCU     01/M01 Q1023 RMK 1ST005 3CU008 7CU020 3TCU020 A3021 TCU           SW-W 1ST005 SW-NW=,- SN SH
20180130_200000.002,0,RJNK,,,,0,20180130200000,-1,-1,-1,-1,150,-1,6,-1,-1,-1,-1,,9999,0,1,4,FEW 5   SCT 8   BKN 20   SCT 20 TCU,1,1,-1,1,1023,RJNK 302000Z 15006KT 9999 -SHSN FEW005 SCT008 BKN020 SCT020TCU     01/M01 Q1023 RMK 1ST005 3CU008 7CU020 3TCU020 A3021 TCU           SW-W 1ST005 SW-NW=,- SN SH
20180130_210000.000,0,RJNK,,,,0,20180130210000,-1,-1,-1,-1,170,-1,7,-1,-1,-1,-1,,9999,0,1,3,FEW 5   BKN 20   FEW 20 TCU,1,0,-1,1,1023,RJNK 302100Z 17007KT 9999 -SHSN FEW005 BKN020 FEW020TCU 00/M01     Q1023 RMK 1ST005 7CU020 1TCU020 A3022 TCU SW 1ST005 SW-NW           02/M00 R008 S016 SD020=,- SN SH
20180130_210000.002,0,RJNK,,,,0,20180130210000,-1,-1,-1,-1,170,-1,7,-1,-1,-1,-1,,9999,0,1,3,FEW 5   BKN 20   FEW 20 TCU,1,0,-1,1,1023,RJNK 302100Z 17007KT 9999 -SHSN FEW005 BKN020 FEW020TCU 00/M01     Q1023 RMK 1ST005 7CU020 1TCU020 A3022 TCU SW 1ST005 SW-NW           02/M00 R008 S016 SD020=,- SN SH
20180130_220000.000,0,RJNK,,,,0,20180130220000,-1,-1,-1,-1,190,-1,8,-1,-1,-1,-1,,9999,0,1,3,FEW 5   SCT 8   BKN 20,1,0,-1,1,1023,RJNK 302200Z 19008KT 9999 -SHSN FEW005 SCT008 BKN020 00/M01     Q1023 RMK 1ST005 3CU008 6CU020 A3023 1ST005 OVER AD=,- SN SH
20180130_220000.002,0,RJNK,,,,0,20180130220000,-1,-1,-1,-1,190,-1,8,-1,-1,-1,-1,,9999,0,1,3,FEW 5   SCT 8   BKN 20,1,0,-1,1,1023,RJNK 302200Z 19008KT 9999 -SHSN FEW005 SCT008 BKN020 00/M01     Q1023 RMK 1ST005 3CU008 6CU020 A3023 1ST005 OVER AD=,- SN SH
20180130_230000.000,0,RJNK,,,,0,20180130230000,-1,-1,-1,-1,170,-1,7,-1,-1,120,200,,9999,0,0,2,FEW 5   SCT 20,1,0,-1,2,1024,RJNK 302300Z 17007KT 120V200 9999 FEW005 SCT020 00/M02 Q1024     RMK 1ST005 4CU020 A3025=,
20180130_230000.002,0,RJNK,,,,0,20180130230000,-1,-1,-1,-1,170,-1,7,-1,-1,120,200,,9999,0,0,2,FEW 5   SCT 20,1,0,-1,2,1024,RJNK 302300Z 17007KT 120V200 9999 FEW005 SCT020 00/M02 Q1024     RMK 1ST005 4CU020 A3025=,
20180131_000000.000,0,RJNK,,,,0,20180131000000,-1,-1,-1,-1,180,-1,9,-1,-1,150,210,,9999,0,1,3,FEW 5   BKN 20   BKN 90,1,1,-1,1,1024,RJNK 310000Z 18009KT 150V210 9999 -SHSN FEW005 BKN020 BKN090     01/M01 Q1024 RMK 1ST005 6CU020 6AC090 A3026=,- SN SH
20180131_000000.002,0,RJNK,,,,0,20180131000000,-1,-1,-1,-1,180,-1,9,-1,-1,150,210,,9999,0,1,3,FEW 5   BKN 20   BKN 90,1,1,-1,1,1024,RJNK 310000Z 18009KT 150V210 9999 -SHSN FEW005 BKN020 BKN090     01/M01 Q1024 RMK 1ST005 6CU020 6AC090 A3026=,- SN SH
20180131_010000.000,0,RJNK,,,,0,20180131010000,-1,-1,-1,-1,190,-1,9,-1,-1,-1,-1,,9000,0,1,4,FEW 3   SCT 8   BKN 20   FEW 20 CB,1,1,-1,0,1025,RJNK 310100Z 19009KT 9000 -SHSN FEW003 SCT008 BKN020 FEW020CB     01/M00 Q1025 RMK 1ST003 3CU008 7CU020 2CB020 A3027 CB W-N=,- SN SH
20180131_010000.002,0,RJNK,,,,0,20180131010000,-1,-1,-1,-1,190,-1,9,-1,-1,-1,-1,,9000,0,1,4,FEW 3   SCT 8   BKN 20   FEW 20 CB,1,1,-1,0,1025,RJNK 310100Z 19009KT 9000 -SHSN FEW003 SCT008 BKN020 FEW020CB     01/M00 Q1025 RMK 1ST003 3CU008 7CU020 2CB020 A3027 CB           W-N=,- SN SH
20180131_020000.000,0,RJNK,,,,0,20180131020000,-1,-1,-1,-1,210,-1,9,-1,-1,-1,-1,,1200,1,1,3,SCT 3   BKN 5   OVC 8,1,1,-1,0,1025,RJNK 310200Z 21009KT 1200 R24/P1800N -SHSN SCT003 BKN005 OVC008     01/M00 Q1025 RMK 3ST003 5ST005 8CU008 A3028 VIS SW 1500M=,- SN SH
20180131_020000.002,0,RJNK,,,,0,20180131020000,-1,-1,-1,-1,210,-1,9,-1,-1,-1,-1,,1200,1,1,3,SCT 3   BKN 5   OVC 8,1,1,-1,0,1025,RJNK 310200Z 21009KT 1200 R24/P1800N -SHSN SCT003 BKN005     OVC008 01/M00 Q1025 RMK 3ST003 5ST005 8CU008 A3028 VIS SW           1500M=,- SN SH
20180131_030000.000,0,RJNK,,,,0,20180131030000,-1,-1,-1,-1,200,-1,8,-1,-1,-1,-1,,1000,1,1,3,SCT 5   BKN 8   BKN 15 TCU,1,1,-1,0,1024,RJNK 310300Z 20008KT 1000 R24/1000VP1800D -SHSN SCT005 BKN008     BKN015TCU 01/M00 Q1024 RMK 4ST005 7CU008 7TCU015 A3025           R1500 VIS W-N 800M TCU ALL QUAD=,- SN SH
20180131_030000.002,0,RJNK,,,,0,20180131030000,-1,-1,-1,-1,200,-1,8,-1,-1,-1,-1,,1000,1,1,3,SCT 5   BKN 8   BKN 15 TCU,1,1,-1,0,1024,RJNK 310300Z 20008KT 1000 R24/1000VP1800D -SHSN SCT005 BKN008     BKN015TCU 01/M00 Q1024 RMK 4ST005 7CU008 7TCU015 A3025           R1500 VIS W-N 800M TCU ALL QUAD=,- SN SH
20180131_040000.000,0,RJNK,,,,0,20180131040000,-1,-1,-1,-1,190,-1,9,-1,-1,-1,-1,,800,1,1,3,SCT 5   BKN 8   OVC 15 TCU,1,0,-1,0,1023,RJNK 310400Z 19009KT 0800 R24/0650VP1800D SHSN SCT005 BKN008     OVC015TCU 00/M00 Q1023 RMK 4ST005 7CU008 8TCU015 A3023           R1300 VIS W-N 500M TCU ALL QUAD=,SN SH
20180131_040000.002,0,RJNK,,,,0,20180131040000,-1,-1,-1,-1,190,-1,9,-1,-1,-1,-1,,800,1,1,3,SCT 5   BKN 8   OVC 15 TCU,1,0,-1,0,1023,RJNK 310400Z 19009KT 0800 R24/0650VP1800D SHSN SCT005 BKN008     OVC015TCU 00/M00 Q1023 RMK 4ST005 7CU008 8TCU015 A3023           R1300 VIS W-N 500M TCU ALL QUAD=,SN SH
20180131_050000.000,0,RJNK,,,,0,20180131050000,-1,-1,-1,-1,170,-1,9,-1,-1,-1,-1,,1500,1,1,4,FEW 1   SCT 5   BKN 8   BKN 15 TCU,1,0,-1,0,1024,RJNK 310500Z 17009KT 1500 R24/P1800N -SHSN FEW001 SCT005 BKN008     BKN015TCU 00/M00 Q1024 RMK 1ST001 3ST005 5CU008 7TCU015           A3024 VIS W-N 1000M TCU ALL QUAD 1ST001 OVER AD=,- SN SH
20180131_050000.002,0,RJNK,,,,0,20180131050000,-1,-1,-1,-1,170,-1,9,-1,-1,-1,-1,,1500,1,1,4,FEW 1   SCT 5   BKN 8   BKN 15 TCU,1,0,-1,0,1024,RJNK 310500Z 17009KT 1500 R24/P1800N -SHSN FEW001 SCT005     BKN008 BKN015TCU 00/M00 Q1024 RMK 1ST001 3ST005 5CU008           7TCU015 A3024 VIS W-N 1000M TCU ALL QUAD 1ST001 OVER AD=,- SN SH
20180131_060000.000,0,RJNK,,,,0,20180131060000,-1,-1,-1,-1,170,-1,7,-1,-1,-1,-1,,8000,0,1,3,FEW 2   SCT 8   BKN 15 TCU,1,1,1,1,1024,RJNK 310600Z 17007KT 8000 -SHSNRA FEW002 SCT008 BKN015TCU 01/01     Q1024 RESN RMK 1ST002 3CU008 7TCU015 A3024 TCU N-S 1ST002           NW-NE=,- SN RA SH
20180131_060000.002,0,RJNK,,,,0,20180131060000,-1,-1,-1,-1,170,-1,7,-1,-1,-1,-1,,8000,0,1,3,FEW 2   SCT 8   BKN 15 TCU,1,1,1,1,1024,RJNK 310600Z 17007KT 8000 -SHSNRA FEW002 SCT008 BKN015TCU     01/01 Q1024 RESN RMK 1ST002 3CU008 7TCU015 A3024 TCU N-S           1ST002 NW-NE=,- SN RA SH
20180131_070000.000,0,RJNK,,,,0,20180131070000,-1,-1,-1,-1,180,-1,7,-1,-1,-1,-1,,9999,0,0,3,FEW 1   BKN 15   BKN 25,1,2,1,0,1023,RJNK 310700Z 18007KT 9999 FEW001 BKN015 BKN025 02/00 Q1023 RMK     1ST001 5CU015 6CU025 A3023 1ST001 NW-NE=,
20180131_070000.001,2,RJNK,,,,0,20180131070000,-1,-1,-1,-1,180,-1,7,-1,-1,-1,-1,,9999,0,0,3,FEW 1   BKN 15   BKN 25,1,2,1,0,1023,RJNK 310700Z 18007KT 9999 FEW001 BKN015 BKN025 02/00 Q1023     RMK 1ST001 5CU015 6CU025 A3023 1ST001 NW-NE=,
20180131_070000.003,0,RJNK,,,,0,20180131070000,-1,-1,-1,-1,180,-1,7,-1,-1,-1,-1,,9999,0,0,3,FEW 1   BKN 15   BKN 25,1,2,1,0,1023,RJNK 310700Z 18007KT 9999 FEW001 BKN015 BKN025 02/00 Q1023     RMK 1ST001 5CU015 6CU025 A3023 1ST001 NW-NE=,
20180131_080000.000,0,RJNK,,,,0,20180131080000,-1,-1,-1,-1,999,-1,2,-1,-1,-1,-1,,9999,0,0,3,FEW 5   SCT 15   BKN 25,1,1,1,0,1024,RJNK 310800Z VRB02KT 9999 FEW005 SCT015 BKN025 01/00 Q1024 RMK     1ST005 3CU015 7CU025 A3024 1ST005 NW-N=,
20180131_080000.003,0,RJNK,,,,0,20180131080000,-1,-1,-1,-1,999,-1,2,-1,-1,-1,-1,,9999,0,0,3,FEW 5   SCT 15   BKN 25,1,1,1,0,1024,RJNK 310800Z VRB02KT 9999 FEW005 SCT015 BKN025 01/00 Q1024 RMK     1ST005 3CU015 7CU025 A3024 1ST005 NW-N=,
20180131_090000.000,0,RJNK,,,,0,20180131090000,-1,-1,-1,-1,999,-1,1,-1,-1,-1,-1,,9999,0,1,3,FEW 5   SCT 15   BKN 25,1,1,1,0,1024,RJNK 310900Z VRB01KT 9999 -SHRA FEW005 SCT015 BKN025 01/00     Q1024 RMK 1ST005 3CU015 7CU025 A3025 1ST005 NW-N=,- RA SH
20180131_090000.002,0,RJNK,,,,0,20180131090000,-1,-1,-1,-1,999,-1,1,-1,-1,-1,-1,,9999,0,1,3,FEW 5   SCT 15   BKN 25,1,1,1,0,1024,RJNK 310900Z VRB01KT 9999 -SHRA FEW005 SCT015 BKN025 01/00     Q1024 RMK 1ST005 3CU015 7CU025 A3025 1ST005 NW-N=,- RA SH
20180131_100000.000,0,RJNK,,,,0,20180131100000,-1,-1,-1,-1,190,-1,5,-1,-1,-1,-1,,9999,0,0,3,FEW 15   SCT 25   BKN 60,1,1,1,0,1025,RJNK 311000Z 19005KT 9999 FEW015 SCT025 BKN060 01/00 Q1025 RMK     1CU015 3CU025 6SC060 A3027=,
20180131_100000.002,0,RJNK,,,,0,20180131100000,-1,-1,-1,-1,190,-1,5,-1,-1,-1,-1,,9999,0,0,3,FEW 15   SCT 25   BKN 60,1,1,1,0,1025,RJNK 311000Z 19005KT 9999 FEW015 SCT025 BKN060 01/00 Q1025 RMK     1CU015 3CU025 6SC060 A3027=,
20180131_110000.000,0,RJNK,,,,0,20180131110000,-1,-1,-1,-1,150,-1,4,-1,-1,-1,-1,,9999,0,0,3,FEW 15   SCT 30   BKN 150,1,1,1,0,1025,RJNK 311100Z 15004KT 9999 FEW015 SCT030 BKN150 01/00 Q1025 RMK     1CU015 3CU030 7AC150 A3027=,
20180131_110000.002,0,RJNK,,,,0,20180131110000,-1,-1,-1,-1,150,-1,4,-1,-1,-1,-1,,9999,0,0,3,FEW 15   SCT 30   BKN 150,1,1,1,0,1025,RJNK 311100Z 15004KT 9999 FEW015 SCT030 BKN150 01/00 Q1025 RMK     1CU015 3CU030 7AC150 A3027=,
20180131_120000.000,0,RJNK,,,,0,20180131120000,-1,-1,-1,-1,150,-1,3,-1,-1,-1,-1,,9999,0,0,3,FEW 15   SCT 30   BKN 150,1,1,-1,0,1024,RJNK 311200Z 15003KT 9999 FEW015 SCT030 BKN150 01/M00 Q1024 RMK     1CU015 4CU030 7AC150 A3026=,
20180131_120000.002,0,RJNK,,,,0,20180131120000,-1,-1,-1,-1,150,-1,3,-1,-1,-1,-1,,9999,0,0,3,FEW 15   SCT 30   BKN 150,1,1,-1,0,1024,RJNK 311200Z 15003KT 9999 FEW015 SCT030 BKN150 01/M00 Q1024     RMK 1CU015 4CU030 7AC150 A3026=,
20180131_130000.000,0,RJNK,,,,0,20180131130000,-1,-1,-1,-1,50,-1,3,-1,-1,-1,-1,,9999,0,0,3,SCT 15   BKN 30   BKN 150,1,1,-1,0,1023,RJNK 311300Z 05003KT 9999 SCT015 BKN030 BKN150 01/M00 Q1023 RMK     3CU015 6CU030 7AC150 A3023=,
20180131_130000.003,0,RJNK,,,,0,20180131130000,-1,-1,-1,-1,50,-1,3,-1,-1,-1,-1,,9999,0,0,3,SCT 15   BKN 30   BKN 150,1,1,-1,0,1023,RJNK 311300Z 05003KT 9999 SCT015 BKN030 BKN150 01/M00 Q1023     RMK 3CU015 6CU030 7AC150 A3023=,
20180131_140000.000,0,RJNK,,,,0,20180131140000,-1,-1,-1,-1,190,-1,3,-1,-1,-1,-1,,9999,0,0,3,FEW 15   SCT 30   BKN 50,1,1,-1,0,1025,RJNK 311400Z 19003KT 9999 FEW015 SCT030 BKN050 01/M00 Q1025 RMK     1CU015 3CU030 7SC050 A3027=,
20180131_140000.002,0,RJNK,,,,0,20180131140000,-1,-1,-1,-1,190,-1,3,-1,-1,-1,-1,,9999,0,0,3,FEW 15   SCT 30   BKN 50,1,1,-1,0,1025,RJNK 311400Z 19003KT 9999 FEW015 SCT030 BKN050 01/M00 Q1025     RMK 1CU015 3CU030 7SC050 A3027=,
20180131_150000.000,0,RJNK,,,,0,20180131150000,-1,-1,-1,-1,180,-1,4,-1,-1,-1,-1,,9999,0,0,2,FEW 15   BKN 50,1,1,-1,0,1024,RJNK 311500Z 18004KT 9999 FEW015 BKN050 01/M00 Q1024 RMK 1CU015     7SC050 A3026=,
20180131_150000.002,0,RJNK,,,,0,20180131150000,-1,-1,-1,-1,180,-1,4,-1,-1,-1,-1,,9999,0,0,2,FEW 15   BKN 50,1,1,-1,0,1024,RJNK 311500Z 18004KT 9999 FEW015 BKN050 01/M00 Q1024 RMK     1CU015 7SC050 A3026=,
20180131_160000.000,0,RJNK,,,,0,20180131160000,-1,-1,-1,-1,999,-1,1,-1,-1,-1,-1,,9999,0,0,3,FEW 15   SCT 30   BKN 50,1,1,-1,0,1024,RJNK 311600Z VRB01KT 9999 FEW015 SCT030 BKN050 01/M00 Q1024 RMK     2CU015 3CU030 7SC050 A3024=,
20180131_160000.002,0,RJNK,,,,0,20180131160000,-1,-1,-1,-1,999,-1,1,-1,-1,-1,-1,,9999,0,0,3,FEW 15   SCT 30   BKN 50,1,1,-1,0,1024,RJNK 311600Z VRB01KT 9999 FEW015 SCT030 BKN050 01/M00 Q1024     RMK 2CU015 3CU030 7SC050 A3024=,
20180131_170000.000,0,RJNK,,,,0,20180131170000,-1,-1,-1,-1,130,-1,5,-1,-1,-1,-1,,9999,0,0,3,FEW 15   SCT 30   BKN 50,1,2,-1,0,1024,RJNK 311700Z 13005KT 9999 FEW015 SCT030 BKN050 02/M00 Q1024 RMK     1CU015 3CU030 6SC050 A3025=,
20180131_170000.002,0,RJNK,,,,0,20180131170000,-1,-1,-1,-1,130,-1,5,-1,-1,-1,-1,,9999,0,0,3,FEW 15   SCT 30   BKN 50,1,2,-1,0,1024,RJNK 311700Z 13005KT 9999 FEW015 SCT030 BKN050 02/M00 Q1024     RMK 1CU015 3CU030 6SC050 A3025=,
20180131_180000.000,0,RJNK,,,,0,20180131180000,-1,-1,-1,-1,100,-1,4,-1,-1,-1,-1,,9999,0,0,2,FEW 15   BKN 50,1,1,-1,1,1024,RJNK 311800Z 10004KT 9999 FEW015 BKN050 01/M01 Q1024 RMK 1CU015     7SC050 A3024=,
20180131_180000.002,0,RJNK,,,,0,20180131180000,-1,-1,-1,-1,100,-1,4,-1,-1,-1,-1,,9999,0,0,2,FEW 15   BKN 50,1,1,-1,1,1024,RJNK 311800Z 10004KT 9999 FEW015 BKN050 01/M01 Q1024 RMK     1CU015 7SC050 A3024=,
20180131_190000.000,0,RJNK,,,,0,20180131190000,-1,-1,-1,-1,290,-1,7,-1,-1,-1,-1,,8000,0,1,3,FEW 8   SCT 10   BKN 15,1,2,1,0,1024,RJNK 311900Z 29007KT 8000 -SHRA FEW008 SCT010 BKN015 02/00     Q1024 RMK 2CU008 4CU010 6CU015 A3024 2CU008 OVER AD=,- RA SH
20180131_190000.003,0,RJNK,,,,0,20180131190000,-1,-1,-1,-1,290,-1,7,-1,-1,-1,-1,,8000,0,1,3,FEW 8   SCT 10   BKN 15,1,2,1,0,1024,RJNK 311900Z 29007KT 8000 -SHRA FEW008 SCT010 BKN015 02/00     Q1024 RMK 2CU008 4CU010 6CU015 A3024 2CU008 OVER AD=,- RA SH
20180131_200000.000,0,RJNK,,,,0,20180131200000,-1,-1,-1,-1,999,-1,2,-1,-1,-1,-1,,8000,0,1,3,FEW 8   SCT 10   BKN 15,1,2,1,0,1024,RJNK 312000Z VRB02KT 8000 -SHRA FEW008 SCT010 BKN015 02/00     Q1024 RMK 2CU008 3CU010 5CU015 A3024 2CU008 OVER AD=,- RA SH
20180131_200000.003,0,RJNK,,,,0,20180131200000,-1,-1,-1,-1,999,-1,2,-1,-1,-1,-1,,8000,0,1,3,FEW 8   SCT 10   BKN 15,1,2,1,0,1024,RJNK 312000Z VRB02KT 8000 -SHRA FEW008 SCT010 BKN015 02/00     Q1024 RMK 2CU008 3CU010 5CU015 A3024 2CU008 OVER AD=,- RA SH
20180131_210000.000,0,RJNK,,,,0,20180131210000,-1,-1,-1,-1,999,-1,2,-1,-1,-1,-1,,4500,0,2,3,FEW 5   BKN 8   BKN 15,1,1,1,0,1024,RJNK 312100Z VRB02KT 4500 -SHRA BR FEW005 BKN008 BKN015 01/00     Q1024 RMK 2ST005 5CU008 7CU015 A3024 2ST005 OVER AD 02/00           R008 S003 SD011=,- RA SH; BR
20180131_210000.002,0,RJNK,,,,0,20180131210000,-1,-1,-1,-1,999,-1,2,-1,-1,-1,-1,,4500,0,2,3,FEW 5   BKN 8   BKN 15,1,1,1,0,1024,RJNK 312100Z VRB02KT 4500 -SHRA BR FEW005 BKN008 BKN015 01/00     Q1024 RMK 2ST005 5CU008 7CU015 A3024 2ST005 OVER AD 02/00           R008 S003 SD011=,- RA SH; BR
20180131_220000.000,0,RJNK,,,,0,20180131220000,-1,-1,-1,-1,90,-1,3,-1,-1,-1,-1,,3000,0,2,3,FEW 5   SCT 8   BKN 15,1,1,1,0,1024,RJNK 312200Z 09003KT 3000 -SHRA BR FEW005 SCT008 BKN015 01/00     Q1024 RMK 1ST005 3CU008 6CU015 A3026 VIS W-NW 2000M 1ST005           OVER AD=,- RA SH; BR
20180131_220000.002,0,RJNK,,,,0,20180131220000,-1,-1,-1,-1,90,-1,3,-1,-1,-1,-1,,3000,0,2,3,FEW 5   SCT 8   BKN 15,1,1,1,0,1024,RJNK 312200Z 09003KT 3000 -SHRA BR FEW005 SCT008 BKN015 01/00     Q1024 RMK 1ST005 3CU008 6CU015 A3026 VIS W-NW 2000M           1ST005 OVER AD=,- RA SH; BR
20180131_230000.000,0,RJNK,,,,0,20180131230000,-1,-1,-1,-1,999,-1,1,-1,-1,-1,-1,,9999,0,0,3,FEW 5   SCT 15   BKN 40,1,1,1,1,1025,RJNK 312300Z VRB01KT 9999 FEW005 SCT015 BKN040 01/01 Q1025 RMK     1ST005 4CU015 7SC040 A3028 1ST005 NW-NE=,
20180131_230000.002,0,RJNK,,,,0,20180131230000,-1,-1,-1,-1,999,-1,1,-1,-1,-1,-1,,9999,0,0,3,FEW 5   SCT 15   BKN 40,1,1,1,1,1025,RJNK 312300Z VRB01KT 9999 FEW005 SCT015 BKN040 01/01 Q1025 RMK     1ST005 4CU015 7SC040 A3028 1ST005 NW-NE=,
20180201_000000.000,0,RJNK,,,,0,20180201000000,-1,-1,-1,-1,60,-1,3,-1,-1,-1,-1,,8000,0,0,3,FEW 5   SCT 15   BKN 40,1,1,1,1,1025,RJNK 010000Z 06003KT 8000 FEW005 SCT015 BKN040 01/01 Q1025 RMK     1ST005 4CU015 7SC040 A3029 VIS W 5KM BR 1ST005 OVER AD=,
20180201_000000.003,0,RJNK,,,,0,20180201000000,-1,-1,-1,-1,60,-1,3,-1,-1,-1,-1,,8000,0,0,3,FEW 5   SCT 15   BKN 40,1,1,1,1,1025,RJNK 010000Z 06003KT 8000 FEW005 SCT015 BKN040 01/01 Q1025 RMK     1ST005 4CU015 7SC040 A3029 VIS W 5KM BR 1ST005 OVER AD=,
20180201_010000.000,0,RJNK,,,,0,20180201010000,-1,-1,-1,-1,50,-1,5,-1,-1,-1,-1,,8000,0,0,2,FEW 5   BKN 30,1,2,1,0,1025,RJNK 010100Z 05005KT 8000 FEW005 BKN030 02/00 Q1025 RMK 1ST005     7SC030 A3029 1ST005 NW-N=,
20180201_010000.002,0,RJNK,,,,0,20180201010000,-1,-1,-1,-1,50,-1,5,-1,-1,-1,-1,,8000,0,0,2,FEW 5   BKN 30,1,2,1,0,1025,RJNK 010100Z 05005KT 8000 FEW005 BKN030 02/00 Q1025 RMK 1ST005     7SC030 A3029 1ST005 NW-N=,
20180201_020000.000,0,RJNK,,,,0,20180201020000,-1,-1,-1,-1,60,-1,6,-1,-1,-1,-1,,8000,0,0,2,FEW 5   BKN 30,1,2,1,0,1025,RJNK 010200Z 06006KT 8000 FEW005 BKN030 02/00 Q1025 RMK 1ST005     6SC030 A3028 1ST005 NE=,
20180201_020000.002,0,RJNK,,,,0,20180201020000,-1,-1,-1,-1,60,-1,6,-1,-1,-1,-1,,8000,0,0,2,FEW 5   BKN 30,1,2,1,0,1025,RJNK 010200Z 06006KT 8000 FEW005 BKN030 02/00 Q1025 RMK 1ST005     6SC030 A3028 1ST005 NE=,
20180201_030000.000,0,RJNK,,,,0,20180201030000,-1,-1,-1,-1,60,-1,4,-1,-1,-1,-1,,9999,0,0,3,FEW 10   SCT 30   BKN 45,1,3,-1,0,1024,RJNK 010300Z 06004KT 9999 FEW010 SCT030 BKN045 03/M00 Q1024 RMK     1CU010 4CU030 6SC045 A3025=,
20180201_030000.003,0,RJNK,,,,0,20180201030000,-1,-1,-1,-1,60,-1,4,-1,-1,-1,-1,,9999,0,0,3,FEW 10   SCT 30   BKN 45,1,3,-1,0,1024,RJNK 010300Z 06004KT 9999 FEW010 SCT030 BKN045 03/M00 Q1024     RMK 1CU010 4CU030 6SC045 A3025=,
20180201_040000.000,0,RJNK,,,,0,20180201040000,-1,-1,-1,-1,50,-1,7,-1,-1,-1,-1,,9999,0,0,3,FEW 20   SCT 30   BKN 45,1,4,-1,3,1024,RJNK 010400Z 05007KT 9999 FEW020 SCT030 BKN045 04/M03 Q1024 RMK     1CU020 3CU030 7SC045 A3024=,
20180201_040000.003,0,RJNK,,,,0,20180201040000,-1,-1,-1,-1,50,-1,7,-1,-1,-1,-1,,9999,0,0,3,FEW 20   SCT 30   BKN 45,1,4,-1,3,1024,RJNK 010400Z 05007KT 9999 FEW020 SCT030 BKN045 04/M03 Q1024     RMK 1CU020 3CU030 7SC045 A3024=,
20180201_050000.000,0,RJNK,,,,0,20180201050000,-1,-1,-1,-1,50,-1,12,-1,-1,-1,-1,,9999,0,0,3,FEW 20   SCT 30   BKN 45,1,4,-1,3,1023,RJNK 010500Z 05012KT 9999 FEW020 SCT030 BKN045 04/M03 Q1023 RMK     1CU020 3CU030 5SC045 A3022=,
20180201_050000.002,0,RJNK,,,,0,20180201050000,-1,-1,-1,-1,50,-1,12,-1,-1,-1,-1,,9999,0,0,3,FEW 20   SCT 30   BKN 45,1,4,-1,3,1023,RJNK 010500Z 05012KT 9999 FEW020 SCT030 BKN045 04/M03 Q1023     RMK 1CU020 3CU030 5SC045 A3022=,
20180201_060000.000,0,RJNK,,,,0,20180201060000,-1,-1,-1,-1,40,-1,12,-1,-1,-1,-1,,9999,0,0,3,FEW 20   SCT 45   BKN 60,1,4,-1,3,1023,RJNK 010600Z 04012KT 9999 FEW020 SCT045 BKN060 04/M03 Q1023 RMK     1CU020 3SC045 7SC060 A3022=,
20180201_060000.002,0,RJNK,,,,0,20180201060000,-1,-1,-1,-1,40,-1,12,-1,-1,-1,-1,,9999,0,0,3,FEW 20   SCT 45   BKN 60,1,4,-1,3,1023,RJNK 010600Z 04012KT 9999 FEW020 SCT045 BKN060 04/M03 Q1023     RMK 1CU020 3SC045 7SC060 A3022=,
20180201_070000.000,0,RJNK,,,,0,20180201070000,-1,-1,-1,-1,40,-1,14,-1,-1,-1,-1,,9999,0,0,2,FEW 20   BKN 60,1,4,-1,3,1023,RJNK 010700Z 04014KT 9999 FEW020 BKN060 04/M03 Q1023 RMK 1CU020     6SC060 A3023=,
20180201_070000.002,0,RJNK,,,,0,20180201070000,-1,-1,-1,-1,40,-1,14,-1,-1,-1,-1,,9999,0,0,2,FEW 20   BKN 60,1,4,-1,3,1023,RJNK 010700Z 04014KT 9999 FEW020 BKN060 04/M03 Q1023 RMK     1CU020 6SC060 A3023=,
20180201_080000.000,0,RJNK,,,,0,20180201080000,-1,-1,-1,-1,50,-1,15,-1,-1,-1,-1,,9999,0,0,1,FEW 15,1,3,-1,3,1024,RJNK 010800Z 05015KT 9999 FEW015 03/M03 Q1024 RMK 1CU015 A3024=,
20180201_080000.002,0,RJNK,,,,0,20180201080000,-1,-1,-1,-1,50,-1,15,-1,-1,-1,-1,,9999,0,0,1,FEW 15,1,3,-1,3,1024,RJNK 010800Z 05015KT 9999 FEW015 03/M03 Q1024 RMK 1CU015     A3024=,
20180201_090000.000,0,RJNK,,,,0,20180201090000,-1,-1,-1,-1,50,-1,10,-1,-1,-1,-1,,9999,0,0,2,FEW 15   SCT 50,1,3,-1,3,1024,RJNK 010900Z 05010KT 9999 FEW015 SCT050 03/M03 Q1024 RMK 1CU015     3SC050 A3026=,
20180201_090000.002,0,RJNK,,,,0,20180201090000,-1,-1,-1,-1,50,-1,10,-1,-1,-1,-1,,9999,0,0,2,FEW 15   SCT 50,1,3,-1,3,1024,RJNK 010900Z 05010KT 9999 FEW015 SCT050 03/M03 Q1024 RMK     1CU015 3SC050 A3026=,
20180201_100000.000,0,RJNK,,,,0,20180201100000,-1,-1,-1,-1,30,-1,9,-1,-1,-1,-1,,9999,0,0,2,FEW 15   SCT 50,1,2,-1,3,1025,RJNK 011000Z 03009KT 9999 FEW015 SCT050 02/M03 Q1025 RMK 1CU015     3SC050 A3028=,
20180201_100000.002,0,RJNK,,,,0,20180201100000,-1,-1,-1,-1,30,-1,9,-1,-1,-1,-1,,9999,0,0,2,FEW 15   SCT 50,1,2,-1,3,1025,RJNK 011000Z 03009KT 9999 FEW015 SCT050 02/M03 Q1025 RMK     1CU015 3SC050 A3028=,
20180201_110000.000,0,RJNK,,,,0,20180201110000,-1,-1,-1,-1,40,-1,9,-1,-1,-1,-1,,9999,0,0,2,FEW 15   BKN 50,1,2,-1,2,1025,RJNK 011100Z 04009KT 9999 FEW015 BKN050 02/M02 Q1025 RMK 1CU015     6SC050 A3029=,
20180201_110000.002,0,RJNK,,,,0,20180201110000,-1,-1,-1,-1,40,-1,9,-1,-1,-1,-1,,9999,0,0,2,FEW 15   BKN 50,1,2,-1,2,1025,RJNK 011100Z 04009KT 9999 FEW015 BKN050 02/M02 Q1025 RMK     1CU015 6SC050 A3029=,
20180201_120000.000,0,RJNK,,,,0,20180201120000,-1,-1,-1,-1,30,-1,10,-1,-1,-1,-1,,9999,0,0,2,FEW 15   BKN 50,1,3,-1,2,1026,RJNK 011200Z 03010KT 9999 FEW015 BKN050 03/M02 Q1026 RMK 1CU015     5SC050 A3030=,
20180201_120000.002,0,RJNK,,,,0,20180201120000,-1,-1,-1,-1,30,-1,10,-1,-1,-1,-1,,9999,0,0,2,FEW 15   BKN 50,1,3,-1,2,1026,RJNK 011200Z 03010KT 9999 FEW015 BKN050 03/M02 Q1026 RMK     1CU015 5SC050 A3030=,
20180201_130000.000,0,RJNK,,,,0,20180201130000,-1,-1,-1,-1,40,-1,10,-1,-1,-1,-1,,9999,0,0,2,FEW 20   BKN 50,1,2,-1,3,1026,RJNK 011300Z 04010KT 9999 FEW020 BKN050 02/M03 Q1026 RMK 1CU020     5SC050 A3030=,
20180201_130000.002,0,RJNK,,,,0,20180201130000,-1,-1,-1,-1,40,-1,10,-1,-1,-1,-1,,9999,0,0,2,FEW 20   BKN 50,1,2,-1,3,1026,RJNK 011300Z 04010KT 9999 FEW020 BKN050 02/M03 Q1026 RMK     1CU020 5SC050 A3030=,
20180201_140000.000,0,RJNK,,,,0,20180201140000,-1,-1,-1,-1,30,-1,10,-1,-1,-1,-1,,9999,0,0,2,FEW 20   SCT 50,1,2,-1,3,1025,RJNK 011400Z 03010KT 9999 FEW020 SCT050 02/M03 Q1025 RMK 1CU020     4SC050 A3029=,
20180201_140000.002,0,RJNK,,,,0,20180201140000,-1,-1,-1,-1,30,-1,10,-1,-1,-1,-1,,9999,0,0,2,FEW 20   SCT 50,1,2,-1,3,1025,RJNK 011400Z 03010KT 9999 FEW020 SCT050 02/M03 Q1025 RMK     1CU020 4SC050 A3029=,
20180201_150000.000,0,RJNK,,,,0,20180201150000,-1,-1,-1,-1,40,-1,11,-1,-1,-1,-1,,9999,0,0,2,FEW 20   SCT 80,1,2,-1,3,1025,RJNK 011500Z 04011KT 9999 FEW020 SCT080 02/M03 Q1025 RMK 1CU020     4AC080 A3027=,
20180201_150000.002,0,RJNK,,,,0,20180201150000,-1,-1,-1,-1,40,-1,11,-1,-1,-1,-1,,9999,0,0,2,FEW 20   SCT 80,1,2,-1,3,1025,RJNK 011500Z 04011KT 9999 FEW020 SCT080 02/M03 Q1025 RMK     1CU020 4AC080 A3027=,
20180201_160000.000,0,RJNK,,,,0,20180201160000,-1,-1,-1,-1,30,-1,10,-1,-1,-1,-1,,9999,0,0,1,FEW 50,1,2,-1,4,1024,RJNK 011600Z 03010KT 9999 FEW050 02/M04 Q1024 RMK 1SC050 A3026=,
20180201_160000.002,0,RJNK,,,,0,20180201160000,-1,-1,-1,-1,30,-1,10,-1,-1,-1,-1,,9999,0,0,1,FEW 50,1,2,-1,4,1024,RJNK 011600Z 03010KT 9999 FEW050 02/M04 Q1024 RMK 1SC050     A3026=,
20180201_170000.000,0,RJNK,,,,0,20180201170000,-1,-1,-1,-1,30,-1,10,-1,-1,-1,-1,,9999,0,0,1,FEW 50,1,1,-1,5,1025,RJNK 011700Z 03010KT 9999 FEW050 01/M05 Q1025 RMK 1SC050 A3029=,
20180201_170000.002,0,RJNK,,,,0,20180201170000,-1,-1,-1,-1,30,-1,10,-1,-1,-1,-1,,9999,0,0,1,FEW 50,1,1,-1,5,1025,RJNK 011700Z 03010KT 9999 FEW050 01/M05 Q1025 RMK 1SC050     A3029=,
20180201_180000.000,0,RJNK,,,,0,20180201180000,-1,-1,-1,-1,40,-1,9,-1,-1,-1,-1,,9999,0,0,1,FEW 50,1,1,-1,5,1024,RJNK 011800Z 04009KT 9999 FEW050 01/M05 Q1024 RMK 1SC050 A3026=,
20180201_180000.002,0,RJNK,,,,0,20180201180000,-1,-1,-1,-1,40,-1,9,-1,-1,-1,-1,,9999,0,0,1,FEW 50,1,1,-1,5,1024,RJNK 011800Z 04009KT 9999 FEW050 01/M05 Q1024 RMK 1SC050     A3026=,
20180201_190000.000,0,RJNK,,,,0,20180201190000,-1,-1,-1,-1,40,-1,11,-1,-1,-1,-1,,9999,0,0,1,FEW 50,1,1,-1,5,1024,RJNK 011900Z 04011KT 9999 FEW050 01/M05 Q1024 RMK 1SC050 A3024=,
20180201_190000.003,0,RJNK,,,,0,20180201190000,-1,-1,-1,-1,40,-1,11,-1,-1,-1,-1,,9999,0,0,1,FEW 50,1,1,-1,5,1024,RJNK 011900Z 04011KT 9999 FEW050 01/M05 Q1024 RMK 1SC050     A3024=,
20180201_200000.000,0,RJNK,,,,0,20180201200000,-1,-1,-1,-1,30,-1,12,-1,-1,-1,-1,,9999,0,0,1,FEW 50,1,2,-1,5,1024,RJNK 012000Z 03012KT 9999 FEW050 02/M05 Q1024 RMK 1SC050 A3025=,
20180201_200000.003,0,RJNK,,,,0,20180201200000,-1,-1,-1,-1,30,-1,12,-1,-1,-1,-1,,9999,0,0,1,FEW 50,1,2,-1,5,1024,RJNK 012000Z 03012KT 9999 FEW050 02/M05 Q1024 RMK 1SC050     A3025=,
20180201_210000.000,0,RJNK,,,,0,20180201210000,-1,-1,-1,-1,40,-1,13,-1,-1,-1,-1,,9999,0,0,1,FEW 50,1,1,-1,5,1023,RJNK 012100Z 04013KT 9999 FEW050 01/M05 Q1023 RMK 1SC050 A3023     04/01 R001 SD006=,
20180201_210000.002,0,RJNK,,,,0,20180201210000,-1,-1,-1,-1,40,-1,13,-1,-1,-1,-1,,9999,0,0,1,FEW 50,1,1,-1,5,1023,RJNK 012100Z 04013KT 9999 FEW050 01/M05 Q1023 RMK 1SC050 A3023     04/01 R001 SD006=,
20180201_220000.000,0,RJNK,,,,0,20180201220000,-1,-1,-1,-1,70,-1,9,-1,-1,-1,-1,,9999,0,0,1,FEW 30,-1,1,-1,6,1023,RJNK 012200Z 07009KT 9999 FEW030 M01/M06 Q1023 RMK 1CU030     A3023=,
20180201_220000.002,0,RJNK,,,,0,20180201220000,-1,-1,-1,-1,70,-1,9,-1,-1,-1,-1,,9999,0,0,1,FEW 30,-1,1,-1,6,1023,RJNK 012200Z 07009KT 9999 FEW030 M01/M06 Q1023 RMK 1CU030     A3023=,
20180201_230000.000,0,RJNK,,,,0,20180201230000,-1,-1,-1,-1,999,-1,3,-1,-1,-1,-1,,9999,0,0,1,FEW 30,-1,1,-1,6,1023,RJNK 012300Z VRB03KT 9999 FEW030 M01/M06 Q1023 RMK 1CU030     A3022=,
20180201_230000.003,0,RJNK,,,,0,20180201230000,-1,-1,-1,-1,999,-1,3,-1,-1,-1,-1,,9999,0,0,1,FEW 30,-1,1,-1,6,1023,RJNK 012300Z VRB03KT 9999 FEW030 M01/M06 Q1023 RMK 1CU030     A3022=,
20180202_000000.000,0,RJNK,,,,0,20180202000000,-1,-1,-1,-1,60,-1,5,-1,-1,20,100,,9999,0,0,1,FEW 30,1,3,-1,6,1023,RJNK 020000Z 06005KT 020V100 9999 FEW030 03/M06 Q1023 RMK     1CU030 A3022=,
20180202_000000.002,0,RJNK,,,,0,20180202000000,-1,-1,-1,-1,60,-1,5,-1,-1,20,100,,9999,0,0,1,FEW 30,1,3,-1,6,1023,RJNK 020000Z 06005KT 020V100 9999 FEW030 03/M06 Q1023 RMK     1CU030 A3022=,
20180202_010000.000,0,RJNK,,,,0,20180202010000,-1,-1,-1,-1,80,-1,3,-1,-1,40,130,,9999,0,0,1,FEW 30,1,4,-1,5,1023,RJNK 020100Z 08003KT 040V130 9999 FEW030 04/M05 Q1023 RMK     1CU030 A3022=,
20180202_010000.002,0,RJNK,,,,0,20180202010000,-1,-1,-1,-1,80,-1,3,-1,-1,40,130,,9999,0,0,1,FEW 30,1,4,-1,5,1023,RJNK 020100Z 08003KT 040V130 9999 FEW030 04/M05 Q1023 RMK     1CU030 A3022=,
20180202_020000.000,0,RJNK,,,,0,20180202020000,-1,-1,-1,-1,30,-1,11,-1,-1,-1,-1,,9999,0,0,2,FEW 20   SCT 230,1,5,-1,6,1023,RJNK 020200Z 03011KT 9999 FEW020 SCT230 05/M06 Q1023 RMK 1CU020     A3022=,
20180202_020000.002,0,RJNK,,,,0,20180202020000,-1,-1,-1,-1,30,-1,11,-1,-1,-1,-1,,9999,0,0,2,FEW 20   SCT 230,1,5,-1,6,1023,RJNK 020200Z 03011KT 9999 FEW020 SCT230 05/M06 Q1023 RMK     1CU020 A3022=,
20180202_030000.000,0,RJNK,,,,0,20180202030000,-1,-1,-1,-1,30,-1,13,-1,-1,-1,-1,,9999,0,0,2,FEW 30   BKN 230,1,5,-1,6,1023,RJNK 020300Z 03013KT 9999 FEW030 BKN230 05/M06 Q1023 RMK 1CU030     A3021=,
20180202_030000.002,0,RJNK,,,,0,20180202030000,-1,-1,-1,-1,30,-1,13,-1,-1,-1,-1,,9999,0,0,2,FEW 30   BKN 230,1,5,-1,6,1023,RJNK 020300Z 03013KT 9999 FEW030 BKN230 05/M06 Q1023 RMK     1CU030 A3021=,
20180202_040000.000,0,RJNK,,,,0,20180202040000,-1,-1,-1,-1,40,-1,14,-1,-1,-1,-1,,9999,0,0,2,FEW 30   BKN 230,1,5,-1,5,1022,RJNK 020400Z 04014KT 9999 FEW030 BKN230 05/M05 Q1022 RMK 1CU030     A3020=,
20180202_040000.002,0,RJNK,,,,0,20180202040000,-1,-1,-1,-1,40,-1,14,-1,-1,-1,-1,,9999,0,0,2,FEW 30   BKN 230,1,5,-1,5,1022,RJNK 020400Z 04014KT 9999 FEW030 BKN230 05/M05 Q1022 RMK     1CU030 A3020=,
20180202_050000.001,0,RJNK,,,,0,20180202050000,-1,-1,-1,-1,40,-1,14,-1,-1,-1,-1,,9999,0,0,2,FEW 30   BKN 230,1,5,-1,4,1022,RJNK 020500Z 04014KT 9999 FEW030 BKN230 05/M04 Q1022 RMK     1CU030 A3019=,
20180202_060000.000,0,RJNK,,,,0,20180202060000,-1,-1,-1,-1,40,-1,16,-1,-1,-1,-1,,9999,0,0,2,FEW 30   BKN 230,1,5,-1,4,1022,RJNK 020600Z 04016KT 9999 FEW030 BKN230 05/M04 Q1022 RMK 1CU030     A3019=,
20180202_060000.002,0,RJNK,,,,0,20180202060000,-1,-1,-1,-1,40,-1,16,-1,-1,-1,-1,,9999,0,0,2,FEW 30   BKN 230,1,5,-1,4,1022,RJNK 020600Z 04016KT 9999 FEW030 BKN230 05/M04 Q1022 RMK     1CU030 A3019=,
20180202_070000.000,0,RJNK,,,,0,20180202070000,-1,-1,-1,-1,40,-1,14,-1,-1,-1,-1,,9999,0,0,2,FEW 30   BKN 230,1,4,-1,3,1022,RJNK 020700Z 04014KT 9999 FEW030 BKN230 04/M03 Q1022 RMK 1CU030     A3019=,
20180202_070000.002,0,RJNK,,,,0,20180202070000,-1,-1,-1,-1,40,-1,14,-1,-1,-1,-1,,9999,0,0,2,FEW 30   BKN 230,1,4,-1,3,1022,RJNK 020700Z 04014KT 9999 FEW030 BKN230 04/M03 Q1022 RMK     1CU030 A3019=,
20180202_080000.000,0,RJNK,,,,0,20180202080000,-1,-1,-1,-1,50,-1,12,-1,-1,-1,-1,,9999,0,0,2,FEW 30   BKN 230,1,4,-1,3,1021,RJNK 020800Z 05012KT 9999 FEW030 BKN230 04/M03 Q1021 RMK 1CU030     A3017=,
20180202_080000.002,0,RJNK,,,,0,20180202080000,-1,-1,-1,-1,50,-1,12,-1,-1,-1,-1,,9999,0,0,2,FEW 30   BKN 230,1,4,-1,3,1021,RJNK 020800Z 05012KT 9999 FEW030 BKN230 04/M03 Q1021 RMK     1CU030 A3017=,
20180202_090000.000,0,RJNK,,,,0,20180202090000,-1,-1,-1,-1,40,-1,10,-1,-1,-1,-1,,9999,0,0,1,BKN -9999,1,3,-1,3,1021,RJNK 020900Z 04010KT 9999 BKN/// 03/M03 Q1021 RMK A3016=,
20180202_090000.002,0,RJNK,,,,0,20180202090000,-1,-1,-1,-1,40,-1,10,-1,-1,-1,-1,,9999,0,0,1,BKN -9999,1,3,-1,3,1021,RJNK 020900Z 04010KT 9999 BKN/// 03/M03 Q1021 RMK A3016=,
20180202_100000.000,0,RJNK,,,,0,20180202100000,-1,-1,-1,-1,60,-1,6,-1,-1,-1,-1,,9999,0,0,1,BKN -9999,1,3,-1,3,1020,RJNK 021000Z 06006KT 9999 BKN/// 03/M03 Q1020 RMK A3015=,
20180202_100000.003,0,RJNK,,,,0,20180202100000,-1,-1,-1,-1,60,-1,6,-1,-1,-1,-1,,9999,0,0,1,BKN -9999,1,3,-1,3,1020,RJNK 021000Z 06006KT 9999 BKN/// 03/M03 Q1020 RMK A3015=,
20180202_110000.000,0,RJNK,,,,0,20180202110000,-1,-1,-1,-1,180,-1,4,-1,-1,-1,-1,,9999,0,0,2,BKN 160   BKN -9999,1,2,-1,2,1020,RJNK 021100Z 18004KT 9999 BKN160 BKN/// 02/M02 Q1020 RMK 5AC160     A3013=,
20180202_110000.002,0,RJNK,,,,0,20180202110000,-1,-1,-1,-1,180,-1,4,-1,-1,-1,-1,,9999,0,0,2,BKN 160   BKN -9999,1,2,-1,2,1020,RJNK 021100Z 18004KT 9999 BKN160 BKN/// 02/M02 Q1020 RMK     5AC160 A3013=,
20180202_120000.000,0,RJNK,,,,0,20180202120000,-1,-1,-1,-1,999,-1,2,-1,-1,-1,-1,,9999,0,0,2,BKN 160   BKN 200,1,2,-1,1,1020,RJNK 021200Z VRB02KT 9999 BKN160 BKN200 02/M01 Q1020 RMK 5AC160     A3013=,
20180202_120000.002,0,RJNK,,,,0,20180202120000,-1,-1,-1,-1,999,-1,2,-1,-1,-1,-1,,9999,0,0,2,BKN 160   BKN 200,1,2,-1,1,1020,RJNK 021200Z VRB02KT 9999 BKN160 BKN200 02/M01 Q1020 RMK     5AC160 A3013=,
20180202_130000.000,0,RJNK,,,,0,20180202130000,-1,-1,-1,-1,100,-1,2,-1,-1,-1,-1,,9999,0,0,2,FEW 160   BKN -9999,1,2,-1,1,1019,RJNK 021300Z 10002KT 9999 FEW160 BKN/// 02/M01 Q1019 RMK 2AC160     A3012=,
20180202_130000.003,0,RJNK,,,,0,20180202130000,-1,-1,-1,-1,100,-1,2,-1,-1,-1,-1,,9999,0,0,2,FEW 160   BKN -9999,1,2,-1,1,1019,RJNK 021300Z 10002KT 9999 FEW160 BKN/// 02/M01 Q1019 RMK     2AC160 A3012=,
20180202_140000.000,0,RJNK,,,,0,20180202140000,-1,-1,-1,-1,140,-1,4,-1,-1,110,170,,9999,0,0,1,SCT -9999,1,1,-1,1,1019,RJNK 021400Z 14004KT 110V170 9999 SCT/// 01/M01 Q1019 RMK     A3010=,
20180202_140000.002,0,RJNK,,,,0,20180202140000,-1,-1,-1,-1,140,-1,4,-1,-1,110,170,,9999,0,0,1,SCT -9999,1,1,-1,1,1019,RJNK 021400Z 14004KT 110V170 9999 SCT/// 01/M01 Q1019 RMK     A3010=,
20180202_150000.000,0,RJNK,,,,0,20180202150000,-1,-1,-1,-1,999,-1,1,-1,-1,-1,-1,,9999,0,0,2,FEW 150   SCT -9999,1,1,-1,1,1018,RJNK 021500Z VRB01KT 9999 FEW150 SCT/// 01/M01 Q1018 RMK 2AC150     A3009=,
20180202_150000.002,0,RJNK,,,,0,20180202150000,-1,-1,-1,-1,999,-1,1,-1,-1,-1,-1,,9999,0,0,2,FEW 150   SCT -9999,1,1,-1,1,1018,RJNK 021500Z VRB01KT 9999 FEW150 SCT/// 01/M01 Q1018 RMK     2AC150 A3009=,
20180202_160000.000,0,RJNK,,,,0,20180202160000,-1,-1,-1,-1,999,-1,2,-1,-1,-1,-1,,9999,0,0,1,SCT 150,-1,0,-1,2,1018,RJNK 021600Z VRB02KT 9999 SCT150 M00/M02 Q1018 RMK 4AC150     A3008=,
20180202_160000.002,0,RJNK,,,,0,20180202160000,-1,-1,-1,-1,999,-1,2,-1,-1,-1,-1,,9999,0,0,1,SCT 150,-1,0,-1,2,1018,RJNK 021600Z VRB02KT 9999 SCT150 M00/M02 Q1018 RMK 4AC150     A3008=,
20180202_170000.000,0,RJNK,,,,0,20180202170000,-1,-1,-1,-1,999,-1,2,-1,-1,-1,-1,,9999,0,0,2,BKN 80   BKN 150,-1,0,-1,2,1019,RJNK 021700Z VRB02KT 9999 BKN080 BKN150 M00/M02 Q1019 RMK     5AC080 7AC150 A3009=,
20180202_170000.002,0,RJNK,,,,0,20180202170000,-1,-1,-1,-1,999,-1,2,-1,-1,-1,-1,,9999,0,0,2,BKN 80   BKN 150,-1,0,-1,2,1019,RJNK 021700Z VRB02KT 9999 BKN080 BKN150 M00/M02 Q1019 RMK     5AC080 7AC150 A3009=,
20180202_180000.000,0,RJNK,,,,0,20180202180000,-1,-1,-1,-1,180,-1,7,-1,-1,-1,-1,,9999,0,0,1,BKN 80,1,0,-1,1,1018,RJNK 021800Z 18007KT 9999 BKN080 00/M01 Q1018 RMK 7AC080 A3008=,
20180202_180000.003,0,RJNK,,,,0,20180202180000,-1,-1,-1,-1,180,-1,7,-1,-1,-1,-1,,9999,0,0,1,BKN 80,1,0,-1,1,1018,RJNK 021800Z 18007KT 9999 BKN080 00/M01 Q1018 RMK 7AC080     A3008=,
20180202_190000.000,0,RJNK,,,,0,20180202190000,-1,-1,-1,-1,150,-1,8,-1,-1,-1,-1,,9999,0,0,2,FEW 25   BKN 80,1,2,-1,3,1018,RJNK 021900Z 15008KT 9999 FEW025 BKN080 02/M03 Q1018 RMK 1CU025     7AC080 A3006=,
20180202_190000.003,0,RJNK,,,,0,20180202190000,-1,-1,-1,-1,150,-1,8,-1,-1,-1,-1,,9999,0,0,2,FEW 25   BKN 80,1,2,-1,3,1018,RJNK 021900Z 15008KT 9999 FEW025 BKN080 02/M03 Q1018 RMK     1CU025 7AC080 A3006=,
20180202_200000.000,0,RJNK,,,,0,20180202200000,-1,-1,-1,-1,240,-1,14,-1,-1,-1,-1,,8000,0,1,3,SCT 15   BKN 25   BKN 45,1,3,1,0,1019,RJNK 022000Z 24014KT 8000 -SHRA SCT015 BKN025 BKN045 03/00     Q1019 RMK 3CU015 6CU025 7SC045 A3009 VIS N-NE 4500M=,- RA SH
20180202_200000.003,0,RJNK,,,,0,20180202200000,-1,-1,-1,-1,240,-1,14,-1,-1,-1,-1,,8000,0,1,3,SCT 15   BKN 25   BKN 45,1,3,1,0,1019,RJNK 022000Z 24014KT 8000 -SHRA SCT015 BKN025 BKN045 03/00     Q1019 RMK 3CU015 6CU025 7SC045 A3009 VIS N-NE 4500M=,- RA SH
20180202_210000.000,0,RJNK,,,,0,20180202210000,-1,-1,-1,-1,190,-1,8,-1,-1,150,210,,9999,0,1,3,FEW 8   SCT 15   BKN 25,1,2,1,1,1018,RJNK 022100Z 19008KT 150V210 9999 -SHRA FEW008 SCT015 BKN025     02/01 Q1018 RMK 1CU008 3CU015 6CU025 A3008 05/M01 R002           SD004=,- RA SH
20180202_210000.002,0,RJNK,,,,0,20180202210000,-1,-1,-1,-1,190,-1,8,-1,-1,150,210,,9999,0,1,3,FEW 8   SCT 15   BKN 25,1,2,1,1,1018,RJNK 022100Z 19008KT 150V210 9999 -SHRA FEW008 SCT015 BKN025     02/01 Q1018 RMK 1CU008 3CU015 6CU025 A3008 05/M01 R002           SD004=,- RA SH
20180202_220000.000,0,RJNK,,,,0,20180202220000,-1,-1,-1,-1,140,-1,6,-1,-1,-1,-1,,9999,0,0,3,FEW 5   SCT 25   BKN 45,1,2,1,1,1018,RJNK 022200Z 14006KT 9999 FEW005 SCT025 BKN045 02/01 Q1018 RMK     1ST005 3CU025 6SC045 A3007 1ST005 NE=,
20180202_220000.002,0,RJNK,,,,0,20180202220000,-1,-1,-1,-1,140,-1,6,-1,-1,-1,-1,,9999,0,0,3,FEW 5   SCT 25   BKN 45,1,2,1,1,1018,RJNK 022200Z 14006KT 9999 FEW005 SCT025 BKN045 02/01 Q1018 RMK     1ST005 3CU025 6SC045 A3007 1ST005 NE=,
20180202_230000.000,0,RJNK,,,,0,20180202230000,-1,-1,-1,-1,180,-1,8,-1,-1,-1,-1,,9999,0,1,3,FEW 8   BKN 25   BKN 50,1,2,1,1,1018,RJNK 022300Z 18008KT 9999 -SHRA FEW008 BKN025 BKN050 02/01     Q1018 RMK 1CU008 5CU025 7SC050 A3006=,- RA SH
20180202_230000.003,0,RJNK,,,,0,20180202230000,-1,-1,-1,-1,180,-1,8,-1,-1,-1,-1,,9999,0,1,3,FEW 8   BKN 25   BKN 50,1,2,1,1,1018,RJNK 022300Z 18008KT 9999 -SHRA FEW008 BKN025 BKN050 02/01     Q1018 RMK 1CU008 5CU025 7SC050 A3006=,- RA SH
20180203_000000.000,0,RJNK,,,,0,20180203000000,-1,-1,-1,-1,190,-1,7,-1,-1,-1,-1,,9999,0,1,4,FEW 5   BKN 25   FEW 25 TCU  BKN 50,1,3,1,1,1018,RJNK 030000Z 19007KT 9999 -SHRA FEW005 BKN025 FEW025TCU BKN050     03/01 Q1018 RMK 1ST005 5CU025 1TCU025 7SC050 A3007 TCU W           1ST005 NW-NE=,- RA SH
20180203_000000.002,0,RJNK,,,,0,20180203000000,-1,-1,-1,-1,190,-1,7,-1,-1,-1,-1,,9999,0,1,4,FEW 5   BKN 25   FEW 25 TCU  BKN 50,1,3,1,1,1018,RJNK 030000Z 19007KT 9999 -SHRA FEW005 BKN025 FEW025TCU BKN050     03/01 Q1018 RMK 1ST005 5CU025 1TCU025 7SC050 A3007 TCU W           1ST005 NW-NE=,- RA SH
20180203_010000.000,0,RJNK,,,,0,20180203010000,-1,-1,-1,-1,180,-1,10,-1,-1,-1,-1,,9999,0,1,3,FEW 5   SCT 10   BKN 20,1,3,1,0,1018,RJNK 030100Z 18010KT 9999 -SHRA FEW005 SCT010 BKN020 03/00     Q1018 RMK 1ST005 3CU010 5CU020 A3008 1ST005 OVER AD=,- RA SH
20180203_010000.003,0,RJNK,,,,0,20180203010000,-1,-1,-1,-1,180,-1,10,-1,-1,-1,-1,,9999,0,1,3,FEW 5   SCT 10   BKN 20,1,3,1,0,1018,RJNK 030100Z 18010KT 9999 -SHRA FEW005 SCT010 BKN020 03/00     Q1018 RMK 1ST005 3CU010 5CU020 A3008 1ST005 OVER AD=,- RA SH
20180203_020000.000,0,RJNK,,,,0,20180203020000,-1,-1,-1,-1,230,-1,9,-1,-1,-1,-1,,9999,0,1,3,FEW 5   SCT 20   BKN 30,1,5,-1,3,1018,RJNK 030200Z 23009KT 9999 -SHRA FEW005 SCT020 BKN030 05/M03     Q1018 RMK 1ST005 3CU020 7CU030 A3009 1ST005 E=,- RA SH
20180203_020000.002,0,RJNK,,,,0,20180203020000,-1,-1,-1,-1,230,-1,9,-1,-1,-1,-1,,9999,0,1,3,FEW 5   SCT 20   BKN 30,1,5,-1,3,1018,RJNK 030200Z 23009KT 9999 -SHRA FEW005 SCT020 BKN030 05/M03     Q1018 RMK 1ST005 3CU020 7CU030 A3009 1ST005 E=,- RA SH
20180203_030000.000,0,RJNK,,,,0,20180203030000,-1,-1,-1,-1,270,-1,12,-1,-1,-1,-1,,9999,0,0,3,FEW 10   SCT 20   BKN 30,1,5,-1,4,1018,RJNK 030300Z 27012KT 9999 FEW010 SCT020 BKN030 05/M04 Q1018 RMK     1CU010 4CU020 7CU030 A3007=,
20180203_030000.002,0,RJNK,,,,0,20180203030000,-1,-1,-1,-1,270,-1,12,-1,-1,-1,-1,,9999,0,0,3,FEW 10   SCT 20   BKN 30,1,5,-1,4,1018,RJNK 030300Z 27012KT 9999 FEW010 SCT020 BKN030 05/M04 Q1018     RMK 1CU010 4CU020 7CU030 A3007=,
20180203_040000.000,0,RJNK,,,,0,20180203040000,-1,-1,-1,-1,290,-1,11,-1,-1,-1,-1,,9999,0,0,3,FEW 20   BKN 30   BKN 50,1,5,-1,5,1018,RJNK 030400Z 29011KT 9999 FEW020 BKN030 BKN050 05/M05 Q1018 RMK     2CU020 6CU030 7SC050 A3006=,
20180203_040000.002,0,RJNK,,,,0,20180203040000,-1,-1,-1,-1,290,-1,11,-1,-1,-1,-1,,9999,0,0,3,FEW 20   BKN 30   BKN 50,1,5,-1,5,1018,RJNK 030400Z 29011KT 9999 FEW020 BKN030 BKN050 05/M05 Q1018     RMK 2CU020 6CU030 7SC050 A3006=,
20180203_050000.000,0,RJNK,,,,0,20180203050000,-1,-1,-1,-1,290,-1,11,-1,-1,-1,-1,,9999,0,0,3,FEW 20   BKN 30   BKN 50,1,5,-1,6,1018,RJNK 030500Z 29011KT 9999 FEW020 BKN030 BKN050 05/M06 Q1018 RMK     1CU020 6CU030 5SC050 A3006=,
20180203_050000.002,0,RJNK,,,,0,20180203050000,-1,-1,-1,-1,290,-1,11,-1,-1,-1,-1,,9999,0,0,3,FEW 20   BKN 30   BKN 50,1,5,-1,6,1018,RJNK 030500Z 29011KT 9999 FEW020 BKN030 BKN050 05/M06 Q1018     RMK 1CU020 6CU030 5SC050 A3006=,
20180203_060000.000,0,RJNK,,,,0,20180203060000,-1,-1,-1,-1,280,-1,10,-1,-1,-1,-1,,9999,0,0,2,FEW 20   BKN 30,1,5,-1,6,1018,RJNK 030600Z 28010KT 9999 FEW020 BKN030 05/M06 Q1018 RMK 1CU020     6CU030 A3007=,
20180203_060000.002,0,RJNK,,,,0,20180203060000,-1,-1,-1,-1,280,-1,10,-1,-1,-1,-1,,9999,0,0,2,FEW 20   BKN 30,1,5,-1,6,1018,RJNK 030600Z 28010KT 9999 FEW020 BKN030 05/M06 Q1018 RMK     1CU020 6CU030 A3007=,
20180203_070000.000,0,RJNK,,,,0,20180203070000,-1,-1,-1,-1,300,-1,7,-1,-1,-1,-1,,9999,0,0,2,FEW 20   BKN 30,1,5,-1,6,1017,RJNK 030700Z 30007KT 9999 FEW020 BKN030 05/M06 Q1017 RMK 1CU020     6CU030 A3006=,
20180203_070000.003,0,RJNK,,,,0,20180203070000,-1,-1,-1,-1,300,-1,7,-1,-1,-1,-1,,9999,0,0,2,FEW 20   BKN 30,1,5,-1,6,1017,RJNK 030700Z 30007KT 9999 FEW020 BKN030 05/M06 Q1017 RMK     1CU020 6CU030 A3006=,
20180203_080000.000,0,RJNK,,,,0,20180203080000,-1,-1,-1,-1,320,-1,4,-1,-1,280,350,,9999,0,0,2,FEW 20   BKN 30,1,5,-1,6,1017,RJNK 030800Z 32004KT 280V350 9999 FEW020 BKN030 05/M06 Q1017     RMK 1CU020 7CU030 A3005=,
20180203_080000.002,0,RJNK,,,,0,20180203080000,-1,-1,-1,-1,320,-1,4,-1,-1,280,350,,9999,0,0,2,FEW 20   BKN 30,1,5,-1,6,1017,RJNK 030800Z 32004KT 280V350 9999 FEW020 BKN030 05/M06 Q1017     RMK 1CU020 7CU030 A3005=,
20180203_090000.000,0,RJNK,,,,0,20180203090000,-1,-1,-1,-1,130,-1,6,-1,-1,-1,-1,,9999,0,1,3,SCT 20   FEW 20 TCU  BKN 30,1,3,-1,3,1017,RJNK 030900Z 13006KT 9999 -SHRA SCT020 FEW020TCU BKN030 03/M03     Q1017 RMK 3CU020 1TCU020 7CU030 A3005 TCU S-SW=,- RA SH
20180203_090000.002,0,RJNK,,,,0,20180203090000,-1,-1,-1,-1,130,-1,6,-1,-1,-1,-1,,9999,0,1,3,SCT 20   FEW 20 TCU  BKN 30,1,3,-1,3,1017,RJNK 030900Z 13006KT 9999 -SHRA SCT020 FEW020TCU BKN030 03/M03     Q1017 RMK 3CU020 1TCU020 7CU030 A3005 TCU S-SW=,- RA SH
20180203_100000.000,0,RJNK,,,,0,20180203100000,-1,-1,-1,-1,150,-1,8,-1,-1,-1,-1,,9999,0,0,2,FEW 20   BKN 30,1,1,-1,0,1017,RJNK 031000Z 15008KT 9999 FEW020 BKN030 01/M00 Q1017 RMK 2CU020     6CU030 A3005=,
20180203_100000.002,0,RJNK,,,,0,20180203100000,-1,-1,-1,-1,150,-1,8,-1,-1,-1,-1,,9999,0,0,2,FEW 20   BKN 30,1,1,-1,0,1017,RJNK 031000Z 15008KT 9999 FEW020 BKN030 01/M00 Q1017 RMK     2CU020 6CU030 A3005=,
20180203_110000.000,0,RJNK,,,,0,20180203110000,-1,-1,-1,-1,140,-1,6,-1,-1,-1,-1,,9999,0,0,3,FEW 20 TCU  SCT 30   BKN 50,1,2,-1,1,1017,RJNK 031100Z 14006KT 9999 FEW020TCU SCT030 BKN050 02/M01 Q1017     RMK 1TCU020 3CU030 6SC050 A3003 TCU SW=,
20180203_110000.002,0,RJNK,,,,0,20180203110000,-1,-1,-1,-1,140,-1,6,-1,-1,-1,-1,,9999,0,0,3,FEW 20 TCU  SCT 30   BKN 50,1,2,-1,1,1017,RJNK 031100Z 14006KT 9999 FEW020TCU SCT030 BKN050 02/M01 Q1017     RMK 1TCU020 3CU030 6SC050 A3003 TCU SW=,
20180203_120000.000,0,RJNK,,,,0,20180203120000,-1,-1,-1,-1,190,-1,4,-1,-1,-1,-1,,9999,0,0,3,FEW 20 TCU  BKN 30   BKN 50,1,1,-1,1,1017,RJNK 031200Z 19004KT 9999 FEW020TCU BKN030 BKN050 01/M01 Q1017     RMK 1TCU020 5CU030 7SC050 A3003 TCU NW=,
20180203_120000.002,0,RJNK,,,,0,20180203120000,-1,-1,-1,-1,190,-1,4,-1,-1,-1,-1,,9999,0,0,3,FEW 20 TCU  BKN 30   BKN 50,1,1,-1,1,1017,RJNK 031200Z 19004KT 9999 FEW020TCU BKN030 BKN050 01/M01 Q1017     RMK 1TCU020 5CU030 7SC050 A3003 TCU NW=,
20180203_130000.000,0,RJNK,,,,0,20180203130000,-1,-1,-1,-1,120,-1,3,-1,-1,-1,-1,,9000,0,1,4,FEW 15   SCT 20   FEW 20 TCU  BKN 30,1,2,-1,1,1016,RJNK 031300Z 12003KT 9000 -SHSN FEW015 SCT020 FEW020TCU BKN030     02/M01 Q1016 RMK 1CU015 4CU020 1TCU020 7CU030 A3003 TCU           NW=,- SN SH
20180203_130000.002,0,RJNK,,,,0,20180203130000,-1,-1,-1,-1,120,-1,3,-1,-1,-1,-1,,9000,0,1,4,FEW 15   SCT 20   FEW 20 TCU  BKN 30,1,2,-1,1,1016,RJNK 031300Z 12003KT 9000 -SHSN FEW015 SCT020 FEW020TCU BKN030     02/M01 Q1016 RMK 1CU015 4CU020 1TCU020 7CU030 A3003 TCU           NW=,- SN SH
20180203_140000.000,0,RJNK,,,,0,20180203140000,-1,-1,-1,-1,60,-1,3,-1,-1,-1,-1,,9999,0,0,3,FEW 15   FEW 20 CB  BKN 30,1,1,-1,1,1016,RJNK 031400Z 06003KT 9999 FEW015 FEW020CB BKN030 01/M01 Q1016     RMK 1CU015 1CB020 7CU030 A3001 CB N=,
20180203_140000.002,0,RJNK,,,,0,20180203140000,-1,-1,-1,-1,60,-1,3,-1,-1,-1,-1,,9999,0,0,3,FEW 15   FEW 20 CB  BKN 30,1,1,-1,1,1016,RJNK 031400Z 06003KT 9999 FEW015 FEW020CB BKN030 01/M01 Q1016     RMK 1CU015 1CB020 7CU030 A3001 CB N=,
20180203_150000.000,0,RJNK,,,,0,20180203150000,-1,-1,-1,-1,210,-1,4,-1,-1,-1,-1,,6000,0,1,3,FEW 10   SCT 20   BKN 30,1,0,-1,0,1016,RJNK 031500Z 21004KT 6000 -SHSN FEW010 SCT020 BKN030 00/M00     Q1016 RMK 1CU010 3CU020 7CU030 A3001 VIS NW-N 4000M=,- SN SH
20180203_150000.002,0,RJNK,,,,0,20180203150000,-1,-1,-1,-1,210,-1,4,-1,-1,-1,-1,,6000,0,1,3,FEW 10   SCT 20   BKN 30,1,0,-1,0,1016,RJNK 031500Z 21004KT 6000 -SHSN FEW010 SCT020 BKN030 00/M00     Q1016 RMK 1CU010 3CU020 7CU030 A3001 VIS NW-N 4000M=,- SN SH
20180203_160000.000,0,RJNK,,,,0,20180203160000,-1,-1,-1,-1,160,-1,6,-1,-1,-1,-1,,9999,0,1,3,FEW 10   SCT 20   BKN 30,1,1,-1,0,1015,RJNK 031600Z 16006KT 9999 -SHSN FEW010 SCT020 BKN030 01/M00     Q1015 RMK 1CU010 3CU020 7CU030 A3000=,- SN SH
20180203_160000.002,0,RJNK,,,,0,20180203160000,-1,-1,-1,-1,160,-1,6,-1,-1,-1,-1,,9999,0,1,3,FEW 10   SCT 20   BKN 30,1,1,-1,0,1015,RJNK 031600Z 16006KT 9999 -SHSN FEW010 SCT020 BKN030 01/M00     Q1015 RMK 1CU010 3CU020 7CU030 A3000=,- SN SH
20180203_170000.000,0,RJNK,,,,0,20180203170000,-1,-1,-1,-1,150,-1,4,-1,-1,-1,-1,,9999,0,1,3,FEW 8   SCT 20   BKN 30,1,1,-1,0,1014,RJNK 031700Z 15004KT 9999 -SHSN FEW008 SCT020 BKN030 01/M00     Q1014 RMK 1CU008 3CU020 7CU030 A2997=,- SN SH
20180203_170000.002,0,RJNK,,,,0,20180203170000,-1,-1,-1,-1,150,-1,4,-1,-1,-1,-1,,9999,0,1,3,FEW 8   SCT 20   BKN 30,1,1,-1,0,1014,RJNK 031700Z 15004KT 9999 -SHSN FEW008 SCT020 BKN030 01/M00     Q1014 RMK 1CU008 3CU020 7CU030 A2997=,- SN SH
20180203_180000.000,0,RJNK,,,,0,20180203180000,-1,-1,-1,-1,200,-1,15,-1,-1,-1,-1,,3000,0,1,4,FEW 3   BKN 8   BKN 20   FEW 20 CB,1,0,-1,1,1014,RJNK 031800Z 20015KT 3000 -SHSN FEW003 BKN008 BKN020 FEW020CB     00/M01 Q1014 RMK 2ST003 5CU008 7CU020 1CB020 A2996 VIS W           4000M CB NW-N 2ST003 OVER AD=,- SN SH
20180203_180000.003,0,RJNK,,,,0,20180203180000,-1,-1,-1,-1,200,-1,15,-1,-1,-1,-1,,3000,0,1,4,FEW 3   BKN 8   BKN 20   FEW 20 CB,1,0,-1,1,1014,RJNK 031800Z 20015KT 3000 -SHSN FEW003 BKN008 BKN020 FEW020CB     00/M01 Q1014 RMK 2ST003 5CU008 7CU020 1CB020 A2996 VIS W           4000M CB NW-N 2ST003 OVER AD=,- SN SH
20180203_190000.000,0,RJNK,,,,0,20180203190000,-1,-1,-1,-1,200,-1,15,-1,-1,-1,-1,,9999,0,1,4,FEW 3   SCT 8   BKN 20   FEW 20 CB,1,1,-1,0,1013,RJNK 031900Z 20015KT 9999 -SHSN FEW003 SCT008 BKN020 FEW020CB     01/M00 Q1013 RMK 1ST003 3CU008 7CU020 2CB020 A2994 CB NE           AND S 1ST003 OVER AD=,- SN SH
20180203_190000.002,0,RJNK,,,,0,20180203190000,-1,-1,-1,-1,200,-1,15,-1,-1,-1,-1,,9999,0,1,4,FEW 3   SCT 8   BKN 20   FEW 20 CB,1,1,-1,0,1013,RJNK 031900Z 20015KT 9999 -SHSN FEW003 SCT008 BKN020 FEW020CB     01/M00 Q1013 RMK 1ST003 3CU008 7CU020 2CB020 A2994 CB NE           AND S 1ST003 OVER AD=,- SN SH
20180203_200000.000,0,RJNK,,,,0,20180203200000,-1,-1,-1,-1,290,-1,15,-1,-1,-1,-1,,9999,0,1,4,SCT 3   BKN 8   BKN 15   FEW 15 CB,1,2,1,1,1013,RJNK 032000Z 29015KT 9999 -SHSN SCT003 BKN008 BKN015 FEW015CB     02/01 Q1013 RMK 3ST003 5CU008 7CU015 1CB015 A2993 CB NE-E=,- SN SH
20180203_200000.002,0,RJNK,,,,0,20180203200000,-1,-1,-1,-1,290,-1,15,-1,-1,-1,-1,,9999,0,1,4,SCT 3   BKN 8   BKN 15   FEW 15 CB,1,2,1,1,1013,RJNK 032000Z 29015KT 9999 -SHSN SCT003 BKN008 BKN015 FEW015CB     02/01 Q1013 RMK 3ST003 5CU008 7CU015 1CB015 A2993 CB           NE-E=,- SN SH
20180203_210000.000,0,RJNK,,,,0,20180203210000,-1,-1,-1,-1,190,-1,11,-1,-1,-1,-1,,2000,0,1,3,SCT 3   BKN 8   BKN 15 CB,1,1,-1,0,1013,RJNK 032100Z 19011KT 2000 -SHGSSN SCT003 BKN008 BKN015CB 01/M00     Q1013 RMK 3ST003 5CU008 7CB015 A2994 VIS W 4000M SE 1000M           SMALL HAIL CB OHD 05/00 R006 S004 SD004=,- GS SN SH
20180203_210000.000,0,RJNK,,,,0,20180203210000,-1,-1,-1,-1,190,-1,11,-1,-1,-1,-1,,2000,0,1,3,SCT 3   BKN 8   BKN 15 CB,1,1,-1,0,1013,RJNK 032100Z 19011KT 2000 -SHGSSN SCT003 BKN008 BKN015CB 01/M00     Q1013 RMK 3ST003 5CU008 7CB015 A2994 VIS W 4000M SE 1000M           SMALL HAIL CB OHD 05/00 R006 S004 SD004=,- GS SN SH
20180203_210000.002,0,RJNK,,,,0,20180203210000,-1,-1,-1,-1,190,-1,11,-1,-1,-1,-1,,2000,0,1,3,SCT 3   BKN 8   BKN 15 CB,1,1,-1,0,1013,RJNK 032100Z 19011KT 2000 -SHGSSN SCT003 BKN008 BKN015CB     01/M00 Q1013 RMK 3ST003 5CU008 7CB015 A2994 VIS W 4000M           SE 1000M SMALL HAIL CB OHD 05/00 R006 S004 SD004=,- GS SN SH
20180203_220000.000,0,RJNK,,,,0,20180203220000,-1,-1,-1,-1,200,-1,11,-1,-1,-1,-1,,9999,0,1,4,FEW 3   SCT 8   BKN 15   FEW 15 CB,1,1,-1,1,1013,RJNK 032200Z 20011KT 9999 -SHSN FEW003 SCT008 BKN015 FEW015CB     01/M01 Q1013 RMK 1ST003 4CU008 7CU015 2CB015 A2994 CB W-E           1ST003 OVER AD=,- SN SH
20180203_220000.002,0,RJNK,,,,0,20180203220000,-1,-1,-1,-1,200,-1,11,-1,-1,-1,-1,,9999,0,1,4,FEW 3   SCT 8   BKN 15   FEW 15 CB,1,1,-1,1,1013,RJNK 032200Z 20011KT 9999 -SHSN FEW003 SCT008 BKN015 FEW015CB     01/M01 Q1013 RMK 1ST003 4CU008 7CU015 2CB015 A2994 CB W-E           1ST003 OVER AD=,- SN SH
20180203_230000.000,0,RJNK,,,,0,20180203230000,-1,-1,-1,-1,210,-1,16,-1,-1,-1,-1,,9999,0,1,4,FEW 3   SCT 8   BKN 15   FEW 15 CB,1,1,-1,1,1013,RJNK 032300Z 21016KT 9999 -SHGSSN FEW003 SCT008 BKN015 FEW015CB     01/M01 Q1013 RMK 1ST003 4CU008 7CU015 2CB015 A2994 MAX           WIND 23KT SNOW PELLETS CB OHD 1ST003 OVER AD=,- GS SN SH
20180203_230000.002,0,RJNK,,,,0,20180203230000,-1,-1,-1,-1,210,-1,16,-1,-1,-1,-1,,9999,0,1,4,FEW 3   SCT 8   BKN 15   FEW 15 CB,1,1,-1,1,1013,RJNK 032300Z 21016KT 9999 -SHGSSN FEW003 SCT008 BKN015     FEW015CB 01/M01 Q1013 RMK 1ST003 4CU008 7CU015 2CB015           A2994 MAX WIND 23KT SNOW PELLETS CB OHD 1ST003 OVER AD=,- GS SN SH
20180204_000000.000,0,RJNK,,,,0,20180204000000,-1,-1,-1,-1,220,-1,20,-1,31,-1,-1,,2500,0,1,4,SCT 3   BKN 5   BKN 8   BKN 15 CB,1,1,-1,1,1014,RJNK 040000Z 22020G31KT 2500 -SHSN SCT003 BKN005 BKN008     BKN015CB 01/M01 Q1014 RMK 3ST003 5ST005 6CU008 7CB015           A2995 CB NW-NE 3ST003 OVER AD=,- SN SH
20180204_000000.002,0,RJNK,,,,0,20180204000000,-1,-1,-1,-1,220,-1,20,-1,31,-1,-1,,2500,0,1,4,SCT 3   BKN 5   BKN 8   BKN 15 CB,1,1,-1,1,1014,RJNK 040000Z 22020G31KT 2500 -SHSN SCT003 BKN005 BKN008     BKN015CB 01/M01 Q1014 RMK 3ST003 5ST005 6CU008 7CB015           A2995 CB NW-NE 3ST003 OVER AD=,- SN SH
20180204_010000.000,0,RJNK,,,,0,20180204010000,-1,-1,-1,-1,220,-1,24,-1,-1,-1,-1,,500,1,1,4,FEW 1   BKN 3   BKN 5   SCT 15 CB,1,0,-1,1,1014,RJNK 040100Z 22024KT 0500 R24/1700U SHSN FEW001 BKN003 BKN005     SCT015CB 00/M01 Q1014 RMK 2ST001 5ST003 6ST005 3CB015           A2996 MAX WIND 33KT CB OHD 2ST001 OVER AD=,SN SH
20180204_010000.002,0,RJNK,,,,0,20180204010000,-1,-1,-1,-1,220,-1,24,-1,-1,-1,-1,,500,1,1,4,FEW 1   BKN 3   BKN 5   SCT 15 CB,1,0,-1,1,1014,RJNK 040100Z 22024KT 0500 R24/1700U SHSN FEW001 BKN003 BKN005     SCT015CB 00/M01 Q1014 RMK 2ST001 5ST003 6ST005 3CB015           A2996 MAX WIND 33KT CB OHD 2ST001 OVER AD=,SN SH
20180204_020000.000,0,RJNK,,,,0,20180204020000,-1,-1,-1,-1,210,-1,16,-1,-1,-1,-1,,9999,0,0,4,FEW 5   SCT 8   BKN 15   FEW 15 CB,1,2,-1,4,1014,RJNK 040200Z 21016KT 9999 FEW005 SCT008 BKN015 FEW015CB 02/M04     Q1014 RESN RMK 1ST005 3CU008 5CU015 2CB015 A2995 MAX WIND           23KT CB NW-E 1ST005 OVER AD=,
20180204_020000.002,0,RJNK,,,,0,20180204020000,-1,-1,-1,-1,210,-1,16,-1,-1,-1,-1,,9999,0,0,4,FEW 5   SCT 8   BKN 15   FEW 15 CB,1,2,-1,4,1014,RJNK 040200Z 21016KT 9999 FEW005 SCT008 BKN015 FEW015CB 02/M04     Q1014 RESN RMK 1ST005 3CU008 5CU015 2CB015 A2995 MAX WIND           23KT CB NW-E 1ST005 OVER AD=,
20180204_030000.000,0,RJNK,,,,0,20180204030000,-1,-1,-1,-1,200,-1,18,-1,-1,-1,-1,,9999,0,1,4,FEW 3   SCT 8   BKN 15   FEW 15 CB,1,2,-1,6,1012,RJNK 040300Z 20018KT 9999 -SHSN FEW003 SCT008 BKN015 FEW015CB     02/M06 Q1012 RMK 1ST003 3CU008 7CU015 2CB015 A2991 CB N=,- SN SH
20180204_030000.002,0,RJNK,,,,0,20180204030000,-1,-1,-1,-1,200,-1,18,-1,-1,-1,-1,,9999,0,1,4,FEW 3   SCT 8   BKN 15   FEW 15 CB,1,2,-1,6,1012,RJNK 040300Z 20018KT 9999 -SHSN FEW003 SCT008 BKN015 FEW015CB     02/M06 Q1012 RMK 1ST003 3CU008 7CU015 2CB015 A2991 CB N=,- SN SH
20180204_040000.000,0,RJNK,,,,0,20180204040000,-1,-1,-1,-1,210,-1,16,-1,-1,-1,-1,,9999,0,1,3,FEW 3   SCT 8   BKN 15,1,2,-1,6,1011,RJNK 040400Z 21016KT 9999 -SHSN FEW003 SCT008 BKN015 02/M06     Q1011 RMK 1ST003 3CU008 7CU015 A2988=,- SN SH
20180204_040000.002,0,RJNK,,,,0,20180204040000,-1,-1,-1,-1,210,-1,16,-1,-1,-1,-1,,9999,0,1,3,FEW 3   SCT 8   BKN 15,1,2,-1,6,1011,RJNK 040400Z 21016KT 9999 -SHSN FEW003 SCT008 BKN015 02/M06     Q1011 RMK 1ST003 3CU008 7CU015 A2988=,- SN SH
20180204_050000.000,0,RJNK,,,,0,20180204050000,-1,-1,-1,-1,220,-1,19,-1,-1,-1,-1,,600,1,1,1,VV 2,-1,0,-1,2,1011,RJNK 040500Z 22019KT 0600 R24/0900V1500D SHSN VV002 M00/M02     Q1011 RMK A2988 R1000 VIS SW-NW 400M=,SN SH
20180204_050000.000,0,RJNK,,,,0,20180204050000,-1,-1,-1,-1,220,-1,19,-1,-1,-1,-1,,600,1,1,1,VV 2,-1,0,-1,2,1011,RJNK 040500Z 22019KT 0600 R24/0900V1500D SHSN VV002 M00/M02     Q1011 RMK A2988 R1000 VIS SW-NW 400M=,SN SH
20180204_050000.002,0,RJNK,,,,0,20180204050000,-1,-1,-1,-1,220,-1,19,-1,-1,-1,-1,,600,1,1,1,VV 2,-1,0,-1,2,1011,RJNK 040500Z 22019KT 0600 R24/0900V1500D SHSN VV002 M00/M02     Q1011 RMK A2988 R1000 VIS SW-NW 400M=,SN SH
20180204_060000.000,0,RJNK,,,,0,20180204060000,-1,-1,-1,-1,200,-1,17,-1,-1,-1,-1,,500,1,1,1,VV 2,-1,1,-1,1,1011,RJNK 040600Z 20017KT 0500 R24/1000VP1800U SHSN VV002 M01/M01     Q1011 RMK A2987 R1400=,SN SH
20180204_060000.002,0,RJNK,,,,0,20180204060000,-1,-1,-1,-1,200,-1,17,-1,-1,-1,-1,,500,1,1,1,VV 2,-1,1,-1,1,1011,RJNK 040600Z 20017KT 0500 R24/1000VP1800U SHSN VV002 M01/M01     Q1011 RMK A2987 R1400=,SN SH
20180204_070000.000,0,RJNK,,,,0,20180204070000,-1,-1,-1,-1,210,-1,16,-1,-1,-1,-1,,9999,0,1,3,SCT 2   BKN 5   OVC 8,1,1,-1,1,1011,RJNK 040700Z 21016KT 9999 -SHSN SCT002 BKN005 OVC008 01/M01     Q1011 REGS RMK 3ST002 5ST005 8CU008 A2987 WS R24=,- SN SH
20180204_070000.002,0,RJNK,,,,0,20180204070000,-1,-1,-1,-1,210,-1,16,-1,-1,-1,-1,,9999,0,1,3,SCT 2   BKN 5   OVC 8,1,1,-1,1,1011,RJNK 040700Z 21016KT 9999 -SHSN SCT002 BKN005 OVC008 01/M01     Q1011 REGS RMK 3ST002 5ST005 8CU008 A2987 WS R24=,- SN SH
20180204_080000.000,0,RJNK,,,,0,20180204080000,-1,-1,-1,-1,300,-1,21,-1,-1,-1,-1,,9999,0,1,3,FEW 2   SCT 5   BKN 8,1,2,1,1,1012,RJNK 040800Z 30021KT 9999 -SHSNRA FEW002 SCT005 BKN008 02/01     Q1012 RMK 1ST002 3ST005 6CU008 A2989=,- SN RA SH
20180204_080000.002,0,RJNK,,,,0,20180204080000,-1,-1,-1,-1,300,-1,21,-1,-1,-1,-1,,9999,0,1,3,FEW 2   SCT 5   BKN 8,1,2,1,1,1012,RJNK 040800Z 30021KT 9999 -SHSNRA FEW002 SCT005 BKN008 02/01     Q1012 RMK 1ST002 3ST005 6CU008 A2989=,- SN RA SH
20180204_090000.000,0,RJNK,,,,0,20180204090000,-1,-1,-1,-1,340,-1,20,-1,-1,-1,-1,,9999,0,0,3,FEW 2   SCT 5   BKN 8,1,4,-1,2,1012,RJNK 040900Z 34020KT 9999 FEW002 SCT005 BKN008 04/M02 Q1012 RMK     2ST002 3ST005 5CU008 A2991=,
20180204_090000.002,0,RJNK,,,,0,20180204090000,-1,-1,-1,-1,340,-1,20,-1,-1,-1,-1,,9999,0,0,3,FEW 2   SCT 5   BKN 8,1,4,-1,2,1012,RJNK 040900Z 34020KT 9999 FEW002 SCT005 BKN008 04/M02 Q1012     RMK 2ST002 3ST005 5CU008 A2991=,
20180204_100000.000,0,RJNK,,,,0,20180204100000,-1,-1,-1,-1,350,-1,17,-1,-1,-1,-1,,9999,0,1,3,FEW 2   SCT 5   BKN 8,1,3,-1,3,1013,RJNK 041000Z 35017KT 9999 -SHRASN FEW002 SCT005 BKN008 03/M03     Q1013 RMK 2ST002 3ST005 5CU008 A2993=,- RA SN SH
20180204_100000.002,0,RJNK,,,,0,20180204100000,-1,-1,-1,-1,350,-1,17,-1,-1,-1,-1,,9999,0,1,3,FEW 2   SCT 5   BKN 8,1,3,-1,3,1013,RJNK 041000Z 35017KT 9999 -SHRASN FEW002 SCT005 BKN008 03/M03     Q1013 RMK 2ST002 3ST005 5CU008 A2993=,- RA SN SH
20180204_110000.000,0,RJNK,,,,0,20180204110000,-1,-1,-1,-1,330,-1,20,-1,-1,-1,-1,,9999,0,1,3,SCT 3   SCT 5   OVC 8,1,2,-1,4,1014,RJNK 041100Z 33020KT 9999 -SHSN SCT003 SCT005 OVC008 02/M04     Q1014 RMK 3ST003 3ST005 8CU008 A2995=,- SN SH
20180204_110000.003,0,RJNK,,,,0,20180204110000,-1,-1,-1,-1,330,-1,20,-1,-1,-1,-1,,9999,0,1,3,SCT 3   SCT 5   OVC 8,1,2,-1,4,1014,RJNK 041100Z 33020KT 9999 -SHSN SCT003 SCT005 OVC008 02/M04     Q1014 RMK 3ST003 3ST005 8CU008 A2995=,- SN SH
20180204_120000.000,0,RJNK,,,,0,20180204120000,-1,-1,-1,-1,330,-1,15,-1,-1,-1,-1,,9999,0,1,4,FEW 5   SCT 8   BKN 15   FEW 15 CB,1,1,-1,3,1014,RJNK 041200Z 33015KT 9999 -SHSN FEW005 SCT008 BKN015 FEW015CB     01/M03 Q1014 RMK 1ST005 4CU008 7CU015 2CB015 A2997 MAX           WIND 23KT CB N AND E-S 1ST005 OVER AD=,- SN SH
20180204_120000.002,0,RJNK,,,,0,20180204120000,-1,-1,-1,-1,330,-1,15,-1,-1,-1,-1,,9999,0,1,4,FEW 5   SCT 8   BKN 15   FEW 15 CB,1,1,-1,3,1014,RJNK 041200Z 33015KT 9999 -SHSN FEW005 SCT008 BKN015 FEW015CB     01/M03 Q1014 RMK 1ST005 4CU008 7CU015 2CB015 A2997 MAX           WIND 23KT CB N AND E-S 1ST005 OVER AD=,- SN SH
20180204_130000.000,0,RJNK,,,,0,20180204130000,-1,-1,-1,-1,340,-1,15,-1,-1,-1,-1,,9999,0,0,4,FEW 5   SCT 8   BKN 15   SCT 15 CB,1,3,-1,5,1014,RJNK 041300Z 34015KT 9999 FEW005 SCT008 BKN015 SCT015CB 03/M05     Q1014 RMK 2ST005 4CU008 7CU015 3CB015 A2997 MAX WIND 23KT           CB SE-S 2ST005 OVER AD=,
20180204_130000.002,0,RJNK,,,,0,20180204130000,-1,-1,-1,-1,340,-1,15,-1,-1,-1,-1,,9999,0,0,4,FEW 5   SCT 8   BKN 15   SCT 15 CB,1,3,-1,5,1014,RJNK 041300Z 34015KT 9999 FEW005 SCT008 BKN015 SCT015CB 03/M05     Q1014 RMK 2ST005 4CU008 7CU015 3CB015 A2997 MAX WIND 23KT           CB SE-S 2ST005 OVER AD=,
20180204_140000.000,0,RJNK,,,,0,20180204140000,-1,-1,-1,-1,330,-1,15,-1,-1,-1,-1,,9999,0,0,3,FEW 8   SCT 15   BKN 30,1,3,-1,7,1014,RJNK 041400Z 33015KT 9999 FEW008 SCT015 BKN030 03/M07 Q1014 RMK     1CU008 3CU015 7CU030 A2997 1CU008 OVER AD=,
20180204_140000.002,0,RJNK,,,,0,20180204140000,-1,-1,-1,-1,330,-1,15,-1,-1,-1,-1,,9999,0,0,3,FEW 8   SCT 15   BKN 30,1,3,-1,7,1014,RJNK 041400Z 33015KT 9999 FEW008 SCT015 BKN030 03/M07 Q1014     RMK 1CU008 3CU015 7CU030 A2997 1CU008 OVER AD=,
20180204_150000.000,0,RJNK,,,,0,20180204150000,-1,-1,-1,-1,320,-1,14,-1,-1,-1,-1,,2000,0,1,3,FEW 5   BKN 8   BKN 15 CB,1,1,-1,4,1015,RJNK 041500Z 32014KT 2000 -SHGSSN FEW005 BKN008 BKN015CB 01/M04     Q1015 RMK 2ST005 5CU008 7CB015 A2998 SNOW PELLETS CB OHD           2ST005 OVER AD=,- GS SN SH
20180204_150000.002,0,RJNK,,,,0,20180204150000,-1,-1,-1,-1,320,-1,14,-1,-1,-1,-1,,2000,0,1,3,FEW 5   BKN 8   BKN 15 CB,1,1,-1,4,1015,RJNK 041500Z 32014KT 2000 -SHGSSN FEW005 BKN008 BKN015CB     01/M04 Q1015 RMK 2ST005 5CU008 7CB015 A2998 SNOW PELLETS           CB OHD 2ST005 OVER AD=,- GS SN SH
20180204_160000.000,0,RJNK,,,,0,20180204160000,-1,-1,-1,-1,50,-1,6,-1,-1,350,140,,9999,0,0,4,FEW 5   SCT 8   BKN 15   FEW 15 CB,1,1,-1,4,1015,RJNK 041600Z 05006KT 350V140 9999 FEW005 SCT008 BKN015 FEW015CB     01/M04 Q1015 REGS RMK 1ST005 3CU008 7CU015 2CB015 A2998 CB           NW 1ST005 OVER AD=,
20180204_160000.002,0,RJNK,,,,0,20180204160000,-1,-1,-1,-1,50,-1,6,-1,-1,350,140,,9999,0,0,4,FEW 5   SCT 8   BKN 15   FEW 15 CB,1,1,-1,4,1015,RJNK 041600Z 05006KT 350V140 9999 FEW005 SCT008 BKN015     FEW015CB 01/M04 Q1015 REGS RMK 1ST005 3CU008 7CU015           2CB015 A2998 CB NW 1ST005 OVER AD=,
20180204_170000.000,0,RJNK,,,,0,20180204170000,-1,-1,-1,-1,999,-1,7,-1,-1,-1,-1,,9999,0,1,4,FEW 5   SCT 8   BKN 15   FEW 15 CB,1,0,-1,2,1015,RJNK 041700Z VRB07KT 9999 -SHSN FEW005 SCT008 BKN015 FEW015CB     00/M02 Q1015 RMK 1ST005 3CU008 7CU015 2CB015 A2998 CB N           AND S 1ST005 OVER AD=,- SN SH
20180204_170000.002,0,RJNK,,,,0,20180204170000,-1,-1,-1,-1,999,-1,7,-1,-1,-1,-1,,9999,0,1,4,FEW 5   SCT 8   BKN 15   FEW 15 CB,1,0,-1,2,1015,RJNK 041700Z VRB07KT 9999 -SHSN FEW005 SCT008 BKN015 FEW015CB     00/M02 Q1015 RMK 1ST005 3CU008 7CU015 2CB015 A2998 CB N           AND S 1ST005 OVER AD=,- SN SH
20180204_180000.000,0,RJNK,,,,0,20180204180000,-1,-1,-1,-1,140,-1,3,-1,-1,70,170,,9999,0,0,4,FEW 8   SCT 15   FEW 15 CB  BKN 30,1,0,-1,3,1014,RJNK 041800Z 14003KT 070V170 9999 FEW008 SCT015 FEW015CB BKN030     00/M03 Q1014 RMK 1CU008 3CU015 1CB015 7CU030 A2997 CB SE           1CU008 OVER AD=,
20180204_180000.003,0,RJNK,,,,0,20180204180000,-1,-1,-1,-1,140,-1,3,-1,-1,70,170,,9999,0,0,4,FEW 8   SCT 15   FEW 15 CB  BKN 30,1,0,-1,3,1014,RJNK 041800Z 14003KT 070V170 9999 FEW008 SCT015 FEW015CB     BKN030 00/M03 Q1014 RMK 1CU008 3CU015 1CB015 7CU030 A2997           CB SE 1CU008 OVER AD=,
20180204_190000.000,0,RJNK,,,,0,20180204190000,-1,-1,-1,-1,190,-1,4,-1,-1,-1,-1,,9999,0,1,3,FEW 8   BKN 15   BKN 30,-1,0,-1,2,1014,RJNK 041900Z 19004KT 9999 -SHSN FEW008 BKN015 BKN030 M00/M02     Q1014 RMK 1CU008 5CU015 7CU030 A2996 1CU008 OVER AD=,- SN SH
20180204_190000.002,0,RJNK,,,,0,20180204190000,-1,-1,-1,-1,190,-1,4,-1,-1,-1,-1,,9999,0,1,3,FEW 8   BKN 15   BKN 30,-1,0,-1,2,1014,RJNK 041900Z 19004KT 9999 -SHSN FEW008 BKN015 BKN030 M00/M02     Q1014 RMK 1CU008 5CU015 7CU030 A2996 1CU008 OVER AD=,- SN SH
20180204_200000.000,0,RJNK,,,,0,20180204200000,-1,-1,-1,-1,150,-1,8,-1,-1,-1,-1,,3000,0,1,3,FEW 5   BKN 8   BKN 15,-1,1,-1,2,1014,RJNK 042000Z 15008KT 3000 -SHSN FEW005 BKN008 BKN015 M01/M02     Q1014 RMK 2ST005 5CU008 6CU015 A2995 VIS W-NW 6KM 2ST005           OVER AD=,- SN SH
20180204_200000.002,0,RJNK,,,,0,20180204200000,-1,-1,-1,-1,150,-1,8,-1,-1,-1,-1,,3000,0,1,3,FEW 5   BKN 8   BKN 15,-1,1,-1,2,1014,RJNK 042000Z 15008KT 3000 -SHSN FEW005 BKN008 BKN015 M01/M02     Q1014 RMK 2ST005 5CU008 6CU015 A2995 VIS W-NW 6KM 2ST005           OVER AD=,- SN SH
20180204_210000.000,0,RJNK,,,,0,20180204210000,-1,-1,-1,-1,190,-1,5,-1,-1,150,220,,600,1,1,1,VV 3,-1,1,-1,2,1014,RJNK 042100Z 19005KT 150V220 0600 R06/P1800N SHGSSN VV003     M01/M02 Q1014 RMK A2996 SNOW PELLETS 25042KT/0110 04/M01           R004 S015 SD010=,GS SN SH
20180204_210000.002,0,RJNK,,,,0,20180204210000,-1,-1,-1,-1,190,-1,5,-1,-1,150,220,,600,1,1,1,VV 3,-1,1,-1,2,1014,RJNK 042100Z 19005KT 150V220 0600 R06/P1800N SHGSSN VV003     M01/M02 Q1014 RMK A2996 SNOW PELLETS 25042KT/0110 04/M01           R004 S015 SD010=,GS SN SH
20180204_220000.000,0,RJNK,,,,0,20180204220000,-1,-1,-1,-1,999,-1,2,-1,-1,-1,-1,,800,1,1,1,VV 3,-1,1,-1,2,1014,RJNK 042200Z VRB02KT 0800 R24/P1800N SHSN VV003 M01/M02 Q1014     REGS RMK A2997 VIS SW-NW 500M=,SN SH
20180204_220000.002,0,RJNK,,,,0,20180204220000,-1,-1,-1,-1,999,-1,2,-1,-1,-1,-1,,800,1,1,1,VV 3,-1,1,-1,2,1014,RJNK 042200Z VRB02KT 0800 R24/P1800N SHSN VV003 M01/M02 Q1014     REGS RMK A2997 VIS SW-NW 500M=,SN SH
20180204_230000.000,0,RJNK,,,,0,20180204230000,-1,-1,-1,-1,999,-1,2,-1,-1,-1,-1,,1200,1,1,3,FEW 2   SCT 3   BKN 5,-1,1,-1,2,1015,RJNK 042300Z VRB02KT 1200 R24/P1800N -SHSN FEW002 SCT003 BKN005     M01/M02 Q1015 RMK 2ST002 3ST003 5ST005 A2998 VIS SW-NW           900M=,- SN SH
20180204_230000.002,0,RJNK,,,,0,20180204230000,-1,-1,-1,-1,999,-1,2,-1,-1,-1,-1,,1200,1,1,3,FEW 2   SCT 3   BKN 5,-1,1,-1,2,1015,RJNK 042300Z VRB02KT 1200 R24/P1800N -SHSN FEW002 SCT003     BKN005 M01/M02 Q1015 RMK 2ST002 3ST003 5ST005 A2998 VIS           SW-NW 900M=,- SN SH
20180205_000000.000,0,RJNK,,,,0,20180205000000,-1,-1,-1,-1,170,-1,3,-1,-1,-1,-1,,600,1,1,1,VV 2,-1,1,-1,1,1014,RJNK 050000Z 17003KT 0600 R24/1100VP1800D SHSN VV002 M01/M01     Q1014 RMK A2997 R1300 VIS W 900M=,SN SH
20180205_000000.003,0,RJNK,,,,0,20180205000000,-1,-1,-1,-1,170,-1,3,-1,-1,-1,-1,,600,1,1,1,VV 2,-1,1,-1,1,1014,RJNK 050000Z 17003KT 0600 R24/1100VP1800D SHSN VV002 M01/M01     Q1014 RMK A2997 R1300 VIS W 900M=,SN SH
20180205_010000.000,0,RJNK,,,,0,20180205010000,-1,-1,-1,-1,310,-1,3,-1,-1,230,360,,400,1,1,1,VV 2,-1,1,-1,1,1015,RJNK 050100Z 31003KT 230V360 0400 R24/0900N SHSN VV002 M01/M01     Q1015 RMK A2997 VIS W 500M=,SN SH
20180205_010000.002,0,RJNK,,,,0,20180205010000,-1,-1,-1,-1,310,-1,3,-1,-1,230,360,,400,1,1,1,VV 2,-1,1,-1,1,1015,RJNK 050100Z 31003KT 230V360 0400 R24/0900N SHSN VV002 M01/M01     Q1015 RMK A2997 VIS W 500M=,SN SH
20180205_020000.000,0,RJNK,,,,0,20180205020000,-1,-1,-1,-1,230,-1,4,-1,-1,-1,-1,,400,1,1,1,VV 2,-1,1,-1,2,1014,RJNK 050200Z 23004KT 0400 R24/0600V0900N SHSN VV002 M01/M02     Q1014 RMK A2997 R0650=,SN SH
20180205_020000.002,0,RJNK,,,,0,20180205020000,-1,-1,-1,-1,230,-1,4,-1,-1,-1,-1,,400,1,1,1,VV 2,-1,1,-1,2,1014,RJNK 050200Z 23004KT 0400 R24/0600V0900N SHSN VV002 M01/M02     Q1014 RMK A2997 R0650=,SN SH
