20180101_000000.002,0,RJNT,,,,0,20180101000000,-1,-1,-1,-1,999,-1,2,-1,-1,-1,-1,,9999,0,1,3,FEW 5   SCT 10   BKN 20,1,3,1,2,1018,RJNT 010000Z VRB02KT 9999 -SHRA FEW005 SCT010 BKN020 03/02     Q1018 RMK 1CU005 3CU010 5CU020 A3007=,- RA SH
20180101_010000.002,0,RJNT,,,,0,20180101010000,-1,-1,-1,-1,160,-1,3,-1,-1,100,210,,9000,0,1,3,FEW 5   SCT 10   BKN 15,1,2,1,1,1018,RJNT 010100Z 16003KT 100V210 9000 -SHRASN FEW005 SCT010 BKN015     02/01 Q1018 RMK 1CU005 3CU010 5CU015 A3008=,- RA SN SH
20180101_020000.002,0,RJNT,,,,0,20180101020000,-1,-1,-1,-1,240,-1,3,-1,-1,200,290,,6000,0,1,3,FEW 5   SCT 10   BKN 15,1,3,1,2,1018,RJNT 010200Z 24003KT 200V290 6000 -SHRA FEW005 SCT010 BKN015     03/02 Q1018 RMK 1CU005 3CU010 5CU015 A3007=,- RA SH
20180101_030000.002,0,RJNT,,,,0,20180101030000,-1,-1,-1,-1,300,-1,5,-1,-1,240,330,,3500,0,1,3,FEW 5   SCT 7   BKN 10,1,3,1,1,1018,RJNT 010300Z 30005KT 240V330 3500 SHRASN FEW005 SCT007 BKN010     03/01 Q1018 RMK 1CU005 3CU007 5CU010 A3007=,RA SN SH
20180101_040000.002,0,RJNT,,,,0,20180101040000,-1,-1,-1,-1,170,-1,3,-1,-1,120,210,,9999,0,1,3,FEW 5   SCT 10   BKN 20,1,3,1,2,1017,RJNT 010400Z 17003KT 120V210 9999 -SHRASN FEW005 SCT010 BKN020     03/02 Q1017 RMK 1CU005 3CU010 7CU020 A3005=,- RA SN SH
20180101_050000.002,0,RJNT,,,,0,20180101050000,-1,-1,-1,-1,140,-1,3,-1,-1,80,200,,9999,0,1,3,FEW 5   BKN 10   BKN 20,1,2,1,1,1018,RJNT 010500Z 14003KT 080V200 9999 -SHRA FEW005 BKN010 BKN020     02/01 Q1018 RMK 2ST005 5CU010 7CU020 A3006=,- RA SH
20180101_060000.002,0,RJNT,,,,0,20180101060000,-1,-1,-1,-1,120,-1,4,-1,-1,80,180,,7000,0,1,3,FEW 8   BKN 10   BKN 20,1,2,1,1,1018,RJNT 010600Z 12004KT 080V180 7000 -SHRA FEW008 BKN010 BKN020     02/01 Q1018 RMK 2ST008 5CU010 7CU020 A3008=,- RA SH
20180101_070000.002,0,RJNT,,,,0,20180101070000,-1,-1,-1,-1,999,-1,1,-1,-1,-1,-1,,9999,0,1,3,FEW 8   SCT 10   BKN 20,1,2,1,2,1019,RJNT 010700Z VRB01KT 9999 -SHRA FEW008 SCT010 BKN020 02/02     Q1019 RMK 1ST008 3CU010 7CU020 A3009=,- RA SH
20180101_080000.002,0,RJNT,,,,0,20180101080000,-1,-1,-1,-1,190,-1,5,-1,-1,-1,-1,,3000,0,2,3,FEW 5   BKN 10   BKN 20,1,1,1,1,1019,RJNT 010800Z 19005KT 3000 -SHRASN BR FEW005 BKN010 BKN020     01/01 Q1019 RMK 2ST005 5CU010 7CU020 A3010=,- RA SN SH; BR
20180101_090000.002,0,RJNT,,,,0,20180101090000,-1,-1,-1,-1,190,-1,3,-1,-1,150,220,,9999,0,1,3,FEW 8   SCT 20   BKN 30,1,1,1,1,1020,RJNT 010900Z 19003KT 150V220 9999 -SHRA FEW008 SCT020 BKN030     01/01 Q1020 RMK 1CU008 3CU020 7CU030 A3012=,- RA SH
20180101_100000.002,0,RJNT,,,,0,20180101100000,-1,-1,-1,-1,160,-1,3,-1,-1,120,200,,9999,0,1,3,FEW 10   SCT 30   BKN 40,1,1,1,1,1020,RJNT 011000Z 16003KT 120V200 9999 -SHRA FEW010 SCT030 BKN040     01/01 Q1020 RMK 1CU010 3CU030 7SC040 A3013=,- RA SH
20180101_110000.002,0,RJNT,,,,0,20180101110000,-1,-1,-1,-1,210,-1,3,-1,-1,-1,-1,,6000,0,1,3,FEW 5   SCT 10   BKN 20,1,2,1,1,1020,RJNT 011100Z 21003KT 6000 -SHRASN FEW005 SCT010 BKN020 02/01     Q1020 RMK 1ST005 4CU010 7CU020 A3014=,- RA SN SH
20180101_120000.002,0,RJNT,,,,0,20180101120000,-1,-1,-1,-1,999,-1,1,-1,-1,-1,-1,,8000,0,1,3,FEW 5   SCT 20   BKN 30,1,2,1,1,1020,RJNT 011200Z VRB01KT 8000 -SHRASN FEW005 SCT020 BKN030 02/01     Q1020 RMK 1ST005 3CU020 7CU030 A3015=,- RA SN SH
20180101_220000.002,0,RJNT,,,,0,20180101220000,-1,-1,-1,-1,220,-1,7,-1,-1,-1,-1,,9999,0,1,3,FEW 10   SCT 30   BKN 50,1,1,1,0,1022,RJNT 012200Z 22007KT 9999 -SHRA FEW010 SCT030 BKN050 01/00     Q1022 RMK 1CU010 4CU030 7SC050 A3020=,- RA SH
20180101_230000.002,0,RJNT,,,,0,20180101230000,-1,-1,-1,-1,200,-1,4,-1,-1,170,230,,9999,0,1,3,FEW 8   SCT 20   BKN 40,1,1,1,0,1023,RJNT 012300Z 20004KT 170V230 9999 -SHRASN FEW008 SCT020 BKN040     01/00 Q1023 RMK 1ST008 4CU020 7CU040 A3021=,- RA SN SH
20180102_000000.003,0,RJNT,,,,0,20180102000000,-1,-1,-1,-1,170,-1,3,-1,-1,70,210,,9999,0,1,3,FEW 8   SCT 20   BKN 40,1,2,1,1,1023,RJNT 020000Z 17003KT 070V210 9999 -SHRA FEW008 SCT020 BKN040     02/01 Q1023 RMK 1ST008 3CU020 6CU040 A3022=,- RA SH
20180102_010000.003,0,RJNT,,,,0,20180102010000,-1,-1,-1,-1,210,-1,6,-1,-1,-1,-1,,9999,0,1,3,FEW 8   BKN 40   BKN 70,1,3,1,0,1022,RJNT 020100Z 21006KT 9999 -SHRA FEW008 BKN040 BKN070 03/00     Q1022 RMK 1ST008 5CU040 7AC070 A3020=,- RA SH
20180102_020000.002,0,RJNT,,,,0,20180102020000,-1,-1,-1,-1,220,-1,10,-1,-1,-1,-1,,9999,0,1,3,FEW 8   SCT 30   BKN 50,1,3,1,0,1021,RJNT 020200Z 22010KT 9999 -SHRA FEW008 SCT030 BKN050 03/00     Q1021 RMK 1ST008 4CU030 7SC050 A3016=,- RA SH
20180102_030000.002,0,RJNT,,,,0,20180102030000,-1,-1,-1,-1,270,-1,8,-1,-1,-1,-1,,9999,0,1,3,FEW 5   SCT 30   BKN 50,1,3,-1,0,1021,RJNT 020300Z 27008KT 9999 VCSH FEW005 SCT030 BKN050 03/M00     Q1021 RMK 1ST005 4CU030 7SC050 A3015=,VC SH
20180102_040000.002,0,RJNT,,,,0,20180102040000,-1,-1,-1,-1,170,-1,5,-1,-1,130,220,,9999,0,0,2,FEW 10   SCT 30,1,5,1,0,1019,RJNT 020400Z 17005KT 130V220 9999 FEW010 SCT030 05/00 Q1019     RMK 1CU010 3CU030 A3010=,
20180102_050000.002,0,RJNT,,,,0,20180102050000,-1,-1,-1,-1,210,-1,7,-1,-1,160,260,,9999,0,1,2,FEW 10   SCT 30,1,6,-1,0,1018,RJNT 020500Z 21007KT 160V260 9999 VCSH FEW010 SCT030 06/M00     Q1018 RMK 1CU010 3CU030 A3008=,VC SH
20180102_060000.002,0,RJNT,,,,0,20180102060000,-1,-1,-1,-1,210,-1,7,-1,-1,-1,-1,,9999,0,1,2,FEW 10   SCT 30,1,5,1,1,1018,RJNT 020600Z 21007KT 9999 VCSH FEW010 SCT030 05/01 Q1018 RMK     1CU010 3CU030 A3007=,VC SH
20180102_070000.002,0,RJNT,,,,0,20180102070000,-1,-1,-1,-1,220,-1,6,-1,-1,-1,-1,,8000,0,1,3,FEW 8   SCT 20   BKN 30,1,5,1,1,1017,RJNT 020700Z 22006KT 8000 -SHRA FEW008 SCT020 BKN030 05/01     Q1017 RMK 1CU008 4CU020 6CU030 A3006=,- RA SH
20180102_080000.002,0,RJNT,,,,0,20180102080000,-1,-1,-1,-1,130,-1,3,-1,-1,80,190,,9999,0,1,3,FEW 5   SCT 10   BKN 20,1,4,1,2,1017,RJNT 020800Z 13003KT 080V190 9999 -SHRASN FEW005 SCT010 BKN020     04/02 Q1017 RMK 1ST005 3CU010 5CU020 A3003=,- RA SN SH
20180102_090000.002,0,RJNT,,,,0,20180102090000,-1,-1,-1,-1,210,-1,14,-1,28,170,240,,8000,0,1,3,FEW 5   SCT 10   BKN 20,1,5,1,2,1016,RJNT 020900Z 21014G28KT 170V240 8000 -SHRASN FEW005 SCT010     BKN020 05/02 Q1016 RMK 1ST005 3CU010 5CU020 A3003=,- RA SN SH
20180102_100000.002,0,RJNT,,,,0,20180102100000,-1,-1,-1,-1,260,-1,12,-1,23,210,290,,9999,0,1,3,FEW 5   SCT 10   BKN 20,1,6,1,1,1016,RJNT 021000Z 26012G23KT 210V290 9999 -SHRA FEW005 SCT010     BKN020 06/01 Q1016 RMK 1ST005 3CU010 5CU020 A3001=,- RA SH
20180102_110000.002,0,RJNT,,,,0,20180102110000,-1,-1,-1,-1,250,-1,8,-1,-1,-1,-1,,9999,0,1,3,FEW 10   SCT 20   BKN 40,1,5,1,1,1016,RJNT 021100Z 25008KT 9999 -SHRA FEW010 SCT020 BKN040 05/01     Q1016 RMK 1CU010 3CU020 5CU040 A3003=,- RA SH
20180102_120000.002,0,RJNT,,,,0,20180102120000,-1,-1,-1,-1,280,-1,7,-1,-1,-1,-1,,9999,0,1,3,FEW 10   SCT 20   BKN 30,1,5,1,1,1017,RJNT 021200Z 28007KT 9999 -SHRA FEW010 SCT020 BKN030 05/01     Q1017 RMK 1CU010 3CU020 5CU030 A3005=,- RA SH
20180102_220000.002,0,RJNT,,,,0,20180102220000,-1,-1,-1,-1,999,-1,5,-1,-1,-1,-1,,9999,0,1,3,FEW 10   SCT 30   BKN 50,1,1,-1,1,1020,RJNT 022200Z VRB05KT 9999 -SHSN FEW010 SCT030 BKN050 01/M01     Q1020 RMK 1CU010 4CU030 7SC050 A3013=,- SN SH
20180102_230000.002,0,RJNT,,,,0,20180102230000,-1,-1,-1,-1,330,-1,4,-1,14,280,40,,7000,0,1,3,FEW 5   SCT 20   BKN 50,1,0,-1,3,1021,RJNT 022300Z 33004G14KT 280V040 7000 -SHSN FEW005 SCT020     BKN050 00/M03 Q1021 RMK 1ST005 4CU020 7SC050 A3015=,- SN SH
20180103_000000.002,0,RJNT,,,,0,20180103000000,-1,-1,-1,-1,230,-1,7,-1,-1,-1,-1,,9999,0,1,3,FEW 5   SCT 10   BKN 30,-1,1,-1,2,1021,RJNT 030000Z 23007KT 9999 -SHSN FEW005 SCT010 BKN030 M01/M02     Q1021 RMK 1ST005 4CU010 7CU030 A3017=,- SN SH
20180103_010000.002,0,RJNT,,,,0,20180103010000,-1,-1,-1,-1,200,-1,4,-1,-1,-1,-1,,9999,0,1,3,FEW 8   SCT 15   BKN 30,1,1,-1,1,1021,RJNT 030100Z 20004KT 9999 -SHSN FEW008 SCT015 BKN030 01/M01     Q1021 RMK 1CU008 3CU015 6CU030 A3017=,- SN SH
20180103_020000.002,0,RJNT,,,,0,20180103020000,-1,-1,-1,-1,240,-1,7,-1,-1,-1,-1,,9999,0,1,3,FEW 10   SCT 30   BKN 50,1,1,-1,1,1021,RJNT 030200Z 24007KT 9999 -SHSN FEW010 SCT030 BKN050 01/M01     Q1021 RMK 1CU010 3CU030 6SC050 A3015=,- SN SH
20180103_030000.003,0,RJNT,,,,0,20180103030000,-1,-1,-1,-1,210,-1,7,-1,-1,-1,-1,,9999,0,1,3,FEW 8   SCT 20   BKN 30,1,1,-1,1,1020,RJNT 030300Z 21007KT 9999 -SHSN FEW008 SCT020 BKN030 01/M01     Q1020 RMK 1CU008 3CU020 6CU030 A3013=,- SN SH
20180103_040000.002,0,RJNT,,,,0,20180103040000,-1,-1,-1,-1,260,-1,8,-1,-1,-1,-1,,2000,0,1,3,FEW 5   BKN 10   BKN 20,1,0,-1,0,1020,RJNT 030400Z 26008KT 2000 -SHSN FEW005 BKN010 BKN020 00/M00     Q1020 RMK 2ST005 5CU010 7CU020 A3013=,- SN SH
20180103_050000.002,0,RJNT,,,,0,20180103050000,-1,-1,-1,-1,220,-1,7,-1,-1,-1,-1,,1200,0,1,1,VV 6,1,0,-1,0,1020,RJNT 030500Z 22007KT 1200 -SHSN VV006 00/M00 Q1020 RMK A3013=,- SN SH
20180103_060000.002,0,RJNT,,,,0,20180103060000,-1,-1,-1,-1,210,-1,5,-1,-1,180,270,,9999,0,1,3,FEW 3   SCT 10   BKN 30,1,2,1,0,1020,RJNT 030600Z 21005KT 180V270 9999 -SHSN FEW003 SCT010 BKN030     02/00 Q1020 RMK 1ST003 3CU010 5CU030 A3013=,- SN SH
20180103_070000.002,0,RJNT,,,,0,20180103070000,-1,-1,-1,-1,280,-1,9,-1,-1,-1,-1,,9999,0,1,3,FEW 3   SCT 10   BKN 20,1,2,-1,0,1021,RJNT 030700Z 28009KT 9999 -SHSN FEW003 SCT010 BKN020 02/M00     Q1021 RMK 1ST003 3CU010 5CU020 A3016 4000SE-SW=,- SN SH
20180103_080000.002,0,RJNT,,,,0,20180103080000,-1,-1,-1,-1,270,-1,6,-1,-1,-1,-1,,9999,0,1,3,FEW 3   SCT 10   BKN 30,1,1,-1,0,1021,RJNT 030800Z 27006KT 9999 -SHSN FEW003 SCT010 BKN030 01/M00     Q1021 RMK 1ST003 3CU010 5CU030 A3017=,- SN SH
20180103_090000.002,0,RJNT,,,,0,20180103090000,-1,-1,-1,-1,180,-1,4,-1,-1,130,220,,9999,0,1,3,FEW 3   SCT 20   BKN 40,1,1,-1,0,1021,RJNT 030900Z 18004KT 130V220 9999 -SHSN FEW003 SCT020 BKN040     01/M00 Q1021 RMK 1ST003 3CU020 5CU040 A3017=,- SN SH
20180103_100000.002,0,RJNT,,,,0,20180103100000,-1,-1,-1,-1,200,-1,4,-1,-1,-1,-1,,9999,0,1,3,FEW 5   SCT 20   BKN 30,1,1,-1,1,1021,RJNT 031000Z 20004KT 9999 -SHSN FEW005 SCT020 BKN030 01/M01     Q1021 RMK 1ST005 3CU020 5CU030 A3018=,- SN SH
20180103_110000.002,0,RJNT,,,,0,20180103110000,-1,-1,-1,-1,999,-1,2,-1,-1,-1,-1,,9999,0,1,3,FEW 5   SCT 20   BKN 70,1,1,-1,1,1021,RJNT 031100Z VRB02KT 9999 -SHSN FEW005 SCT020 BKN070 01/M01     Q1021 RMK 1ST005 3CU020 6AC070 A3017=,- SN SH
20180103_120000.002,0,RJNT,,,,0,20180103120000,-1,-1,-1,-1,999,-1,2,-1,-1,-1,-1,,9999,0,0,3,FEW 10   SCT 20   BKN 70,1,0,-1,1,1022,RJNT 031200Z VRB02KT 9999 FEW010 SCT020 BKN070 00/M01 Q1022     RMK 1CU010 3CU020 6AC070 A3018=,
20180103_220000.002,0,RJNT,,,,0,20180103220000,-1,-1,-1,-1,210,-1,5,-1,-1,-1,-1,,3000,0,1,3,FEW 5   SCT 20   BKN 30,1,0,-1,0,1023,RJNT 032200Z 21005KT 3000 -SHSN FEW005 SCT020 BKN030 00/M00     Q1023 RMK 1CU005 4CU020 6CU030 A3023=,- SN SH
20180103_230000.002,0,RJNT,,,,0,20180103230000,-1,-1,-1,-1,200,-1,5,-1,-1,-1,-1,,9999,0,1,3,FEW 5   SCT 10   BKN 40,1,0,-1,0,1023,RJNT 032300Z 20005KT 9999 -SHSN FEW005 SCT010 BKN040 00/M00     Q1023 RMK 1CU005 3CU010 6CU040 A3023=,- SN SH
20180104_000000.002,0,RJNT,,,,0,20180104000000,-1,-1,-1,-1,200,-1,4,-1,-1,-1,-1,,9999,0,1,3,FEW 5   SCT 15   BKN 40,1,1,-1,0,1024,RJNT 040000Z 20004KT 9999 -SHSN FEW005 SCT015 BKN040 01/M00     Q1024 RMK 1CU005 3CU015 5CU040 A3024=,- SN SH
20180104_010000.002,0,RJNT,,,,0,20180104010000,-1,-1,-1,-1,200,-1,5,-1,-1,-1,-1,,9999,0,0,2,FEW 5   SCT 40,1,2,-1,0,1023,RJNT 040100Z 20005KT 9999 FEW005 SCT040 02/M00 Q1023 RMK     1ST005 3CU040 A3023=,
20180104_020000.002,0,RJNT,,,,0,20180104020000,-1,-1,-1,-1,200,-1,4,-1,-1,140,240,,9999,0,1,3,FEW 10   SCT 30   BKN 50,1,3,-1,1,1022,RJNT 040200Z 20004KT 140V240 9999 VCSH FEW010 SCT030 BKN050     03/M01 Q1022 RMK 1CU010 3CU030 5SC050 A3020=,VC SH
20180104_030000.002,0,RJNT,,,,0,20180104030000,-1,-1,-1,-1,230,-1,5,-1,-1,-1,-1,,8000,0,1,3,FEW 5   SCT 20   BKN 30,1,2,-1,1,1022,RJNT 040300Z 23005KT 8000 -SHSN FEW005 SCT020 BKN030 02/M01     Q1022 RMK 1CU005 3CU020 5CU030 A3018=,- SN SH
20180104_040000.002,0,RJNT,,,,0,20180104040000,-1,-1,-1,-1,200,-1,7,-1,-1,-1,-1,,9999,0,1,2,FEW 5   SCT 70,1,3,-1,1,1021,RJNT 040400Z 20007KT 9999 VCSH FEW005 SCT070 03/M01 Q1021 RMK     1CU005 4AC070 A3016=,VC SH
20180104_050000.002,0,RJNT,,,,0,20180104050000,-1,-1,-1,-1,250,-1,3,-1,-1,200,290,,8000,0,1,3,FEW 10   SCT 20   BKN 30,1,3,-1,1,1021,RJNT 040500Z 25003KT 200V290 8000 -SHSN FEW010 SCT020 BKN030     03/M01 Q1021 RMK 1CU010 3CU020 5CU030 A3016=,- SN SH
20180104_060000.003,0,RJNT,,,,0,20180104060000,-1,-1,-1,-1,260,-1,4,-1,-1,180,300,,4500,0,1,3,FEW 5   SCT 10   BKN 20,1,3,-1,1,1021,RJNT 040600Z 26004KT 180V300 4500 -SHSN FEW005 SCT010 BKN020     03/M01 Q1021 RMK 1CU005 3CU010 5CU020 A3016 9000NE-SE=,- SN SH
20180104_070000.002,0,RJNT,,,,0,20180104070000,-1,-1,-1,-1,999,-1,2,-1,-1,-1,-1,,5000,0,1,3,FEW 5   SCT 10   BKN 20,1,1,1,0,1022,RJNT 040700Z VRB02KT 5000 -SHSN FEW005 SCT010 BKN020 01/00     Q1022 RMK 1CU005 3CU010 5CU020 A3019=,- SN SH
20180104_080000.002,0,RJNT,,,,0,20180104080000,-1,-1,-1,-1,210,-1,4,-1,-1,-1,-1,,6000,0,1,3,FEW 5   SCT 20   BKN 30,1,1,1,0,1022,RJNT 040800Z 21004KT 6000 -SHSN FEW005 SCT020 BKN030 01/00     Q1022 RMK 1CU005 3CU020 5CU030 A3019=,- SN SH
20180104_090000.002,0,RJNT,,,,0,20180104090000,-1,-1,-1,-1,230,-1,4,-1,-1,-1,-1,,9999,0,1,3,FEW 5   SCT 20   BKN 30,1,1,1,0,1022,RJNT 040900Z 23004KT 9999 -SHSN FEW005 SCT020 BKN030 01/00     Q1022 RMK 1CU005 3CU020 5CU030 A3019=,- SN SH
20180104_100000.002,0,RJNT,,,,0,20180104100000,-1,-1,-1,-1,210,-1,5,-1,-1,-1,-1,,9999,0,1,3,FEW 5   SCT 30   BKN 40,1,1,1,1,1022,RJNT 041000Z 21005KT 9999 -SHSN FEW005 SCT030 BKN040 01/01     Q1022 RMK 1ST005 3CU030 5SC040 A3020=,- SN SH
20180104_110000.002,0,RJNT,,,,0,20180104110000,-1,-1,-1,-1,190,-1,3,-1,-1,160,220,,9999,0,1,3,FEW 20   SCT 60   BKN 70,1,1,1,0,1022,RJNT 041100Z 19003KT 160V220 9999 VCSH FEW020 SCT060 BKN070     01/00 Q1022 RMK 1CU020 3SC060 6AC070 A3019=,VC SH
20180104_120000.003,0,RJNT,,,,0,20180104120000,-1,-1,-1,-1,190,-1,4,-1,-1,140,220,,9999,0,1,3,FEW 20   SCT 60   BKN 70,1,1,-1,1,1022,RJNT 041200Z 19004KT 140V220 9999 VCSH FEW020 SCT060 BKN070     01/M01 Q1022 RMK 1CU020 3SC060 6AC070 A3018=,VC SH
20180104_220000.002,0,RJNT,,,,0,20180104220000,-1,-1,-1,-1,999,-1,2,-1,-1,-1,-1,,9999,0,0,3,FEW 10   SCT 50   BKN 140,1,0,-1,3,1018,RJNT 042200Z VRB02KT 9999 FEW010 SCT050 BKN140 00/M03 Q1018     RMK 1CU010 3SC050 6AC140 A3008=,
20180104_230000.002,0,RJNT,,,,0,20180104230000,-1,-1,-1,-1,999,-1,2,-1,-1,-1,-1,,9999,0,0,3,FEW 20   SCT 50   BKN 140,1,1,-1,4,1018,RJNT 042300Z VRB02KT 9999 FEW020 SCT050 BKN140 01/M04 Q1018     RMK 1CU020 3SC050 6AC140 A3007=,
20180105_000000.002,0,RJNT,,,,0,20180105000000,-1,-1,-1,-1,170,-1,4,-1,-1,120,220,,9999,0,0,2,FEW 20   BKN 140,1,1,-1,3,1018,RJNT 050000Z 17004KT 120V220 9999 FEW020 BKN140 01/M03 Q1018     RMK 1CU020 7AC140 A3006=,
20180105_010000.003,0,RJNT,,,,0,20180105010000,-1,-1,-1,-1,190,-1,4,-1,-1,140,240,,9999,0,0,2,FEW 20   BKN 140,1,2,-1,3,1017,RJNT 050100Z 19004KT 140V240 9999 FEW020 BKN140 02/M03 Q1017     RMK 1CU020 7AC140 A3005=,
20180105_020000.002,0,RJNT,,,,0,20180105020000,-1,-1,-1,-1,190,-1,5,-1,-1,-1,-1,,9999,0,0,3,FEW 20   SCT 120   BKN 150,1,4,-1,3,1017,RJNT 050200Z 19005KT 9999 FEW020 SCT120 BKN150 04/M03 Q1017     RMK 1CU020 3AC120 6AC150 A3004=,
20180105_030000.002,0,RJNT,,,,0,20180105030000,-1,-1,-1,-1,210,-1,5,-1,-1,-1,-1,,9999,0,0,3,FEW 20   BKN 60   BKN 150,1,5,-1,4,1015,RJNT 050300Z 21005KT 9999 FEW020 BKN060 BKN150 05/M04 Q1015     RMK 2CU020 5SC060 7AC150 A3000=,
20180105_040000.002,0,RJNT,,,,0,20180105040000,-1,-1,-1,-1,220,-1,3,-1,-1,180,260,,9999,0,0,3,FEW 20   SCT 50   BKN 120,1,6,-1,4,1014,RJNT 050400Z 22003KT 180V260 9999 FEW020 SCT050 BKN120 06/M04     Q1014 RMK 1CU020 4SC050 7AC120 A2997=,
20180105_050000.002,0,RJNT,,,,0,20180105050000,-1,-1,-1,-1,999,-1,2,-1,-1,-1,-1,,9999,0,0,2,FEW 40   BKN 60,1,6,-1,4,1014,RJNT 050500Z VRB02KT 9999 FEW040 BKN060 06/M04 Q1014 RMK     2SC040 7SC060 A2996=,
20180105_060000.002,0,RJNT,,,,0,20180105060000,-1,-1,-1,-1,999,-1,2,-1,-1,-1,-1,,9999,0,0,3,FEW 40   BKN 60   BKN 120,1,6,-1,3,1014,RJNT 050600Z VRB02KT 9999 FEW040 BKN060 BKN120 06/M03 Q1014     RMK 1SC040 5SC060 6AC120 A2996=,
20180105_070000.002,0,RJNT,,,,0,20180105070000,-1,-1,-1,-1,230,-1,4,-1,-1,-1,-1,,9999,0,0,3,FEW 40   SCT 70   BKN 100,1,6,-1,2,1014,RJNT 050700Z 23004KT 9999 FEW040 SCT070 BKN100 06/M02 Q1014     RMK 2SC040 3AC070 6AC100 A2996=,
20180105_080000.002,0,RJNT,,,,0,20180105080000,-1,-1,-1,-1,200,-1,3,-1,-1,170,250,,9999,0,0,3,FEW 40   SCT 60   BKN 70,1,5,-1,1,1014,RJNT 050800Z 20003KT 170V250 9999 FEW040 SCT060 BKN070 05/M01     Q1014 RMK 1SC040 3SC060 5AC070 A2996=,
20180105_090000.002,0,RJNT,,,,0,20180105090000,-1,-1,-1,-1,190,-1,4,-1,-1,-1,-1,,9999,0,0,3,FEW 40   SCT 60   BKN 70,1,3,1,1,1014,RJNT 050900Z 19004KT 9999 FEW040 SCT060 BKN070 03/01 Q1014 RMK     1SC040 3SC060 5AC070 A2996=,
20180105_100000.002,0,RJNT,,,,0,20180105100000,-1,-1,-1,-1,210,-1,3,-1,-1,-1,-1,,9999,0,0,2,FEW 40   BKN 50,1,2,1,1,1014,RJNT 051000Z 21003KT 9999 FEW040 BKN050 02/01 Q1014 RMK 1SC040     6SC050 A2996=,
20180105_110000.002,0,RJNT,,,,0,20180105110000,-1,-1,-1,-1,999,-1,2,-1,-1,-1,-1,,9999,0,0,2,FEW 40   BKN 50,1,3,-1,0,1014,RJNT 051100Z VRB02KT 9999 FEW040 BKN050 03/M00 Q1014 RMK     1SC040 6SC050 A2997=,
20180105_120000.002,0,RJNT,,,,0,20180105120000,-1,-1,-1,-1,170,-1,3,-1,-1,120,210,,9999,0,0,2,FEW 40   SCT 50,1,2,-1,0,1014,RJNT 051200Z 17003KT 120V210 9999 FEW040 SCT050 02/M00 Q1014     RMK 1SC040 4SC050 A2995=,
20180105_220000.002,0,RJNT,,,,0,20180105220000,-1,-1,-1,-1,200,-1,5,-1,-1,-1,-1,,9999,0,0,2,FEW 20   BKN 80,1,1,-1,3,1013,RJNT 052200Z 20005KT 9999 FEW020 BKN080 01/M03 Q1013 RMK     1CU020 6AC080 A2992=,
20180105_230000.002,0,RJNT,,,,0,20180105230000,-1,-1,-1,-1,170,-1,5,-1,-1,120,230,,9999,0,0,2,FEW 20   BKN 80,1,2,-1,4,1013,RJNT 052300Z 17005KT 120V230 9999 FEW020 BKN080 02/M04 Q1013     RMK 1CU020 6AC080 A2993=,
20180106_000000.002,0,RJNT,,,,0,20180106000000,-1,-1,-1,-1,170,-1,3,-1,-1,110,210,,9999,0,0,2,FEW 20   BKN 80,1,3,-1,3,1013,RJNT 060000Z 17003KT 110V210 9999 FEW020 BKN080 03/M03 Q1013     RMK 1CU020 7AC080 A2994=,
20180106_010000.002,0,RJNT,,,,0,20180106010000,-1,-1,-1,-1,180,-1,6,-1,-1,130,210,,9999,0,0,2,FEW 20   BKN 70,1,4,-1,3,1014,RJNT 060100Z 18006KT 130V210 9999 FEW020 BKN070 04/M03 Q1014     RMK 1CU020 5AC070 A2995=,
20180106_020000.002,0,RJNT,,,,0,20180106020000,-1,-1,-1,-1,180,-1,6,-1,-1,130,220,,9999,0,0,2,FEW 25   SCT 50,1,6,-1,2,1013,RJNT 060200Z 18006KT 130V220 9999 FEW025 SCT050 06/M02 Q1013     RMK 1CU025 3SC050 A2994=,
20180106_030000.002,0,RJNT,,,,0,20180106030000,-1,-1,-1,-1,180,-1,7,-1,-1,140,210,,9999,0,1,2,FEW 25   BKN 70,1,8,-1,2,1012,RJNT 060300Z 18007KT 140V210 9999 VCSH FEW025 BKN070 08/M02     Q1012 RMK 1CU025 5AC070 A2990=,VC SH
20180106_040000.002,0,RJNT,,,,0,20180106040000,-1,-1,-1,-1,190,-1,7,-1,-1,150,240,,9999,0,1,3,FEW 25   BKN 50   BKN 70,1,7,-1,2,1012,RJNT 060400Z 19007KT 150V240 9999 VCSH FEW025 BKN050 BKN070     07/M02 Q1012 RMK 2CU025 5SC050 7AC070 A2989=,VC SH
20180106_050000.002,0,RJNT,,,,0,20180106050000,-1,-1,-1,-1,240,-1,8,-1,-1,-1,-1,,7000,0,1,3,FEW 5   SCT 10   BKN 20,1,4,1,2,1013,RJNT 060500Z 24008KT 7000 -SHRA FEW005 SCT010 BKN020 04/02     Q1013 RMK 1ST005 4CU010 7CU020 A2992=,- RA SH
20180106_060000.002,0,RJNT,,,,0,20180106060000,-1,-1,-1,-1,270,-1,5,-1,-1,-1,-1,,9999,0,1,3,FEW 5   SCT 10   BKN 25,1,4,1,2,1014,RJNT 060600Z 27005KT 9999 -SHRA FEW005 SCT010 BKN025 04/02     Q1014 RMK 1ST005 4CU010 7CU025 A2996=,- RA SH
20180106_070000.002,0,RJNT,,,,0,20180106070000,-1,-1,-1,-1,230,-1,3,-1,-1,180,270,,9999,0,1,3,FEW 8   SCT 20   BKN 30,1,3,1,2,1015,RJNT 060700Z 23003KT 180V270 9999 VCSH FEW008 SCT020 BKN030     03/02 Q1015 RMK 1ST008 3CU020 6CU030 A2999=,VC SH
20180106_080000.002,0,RJNT,,,,0,20180106080000,-1,-1,-1,-1,160,-1,3,-1,-1,130,190,,9999,0,1,3,FEW 10   SCT 30   BKN 50,1,3,1,2,1017,RJNT 060800Z 16003KT 130V190 9999 VCSH FEW010 SCT030 BKN050     03/02 Q1017 RMK 1CU010 4CU030 6SC050 A3003=,VC SH
20180106_090000.002,0,RJNT,,,,0,20180106090000,-1,-1,-1,-1,170,-1,3,-1,-1,140,200,,9999,0,1,3,FEW 10   BKN 30   BKN 50,1,3,1,2,1018,RJNT 060900Z 17003KT 140V200 9999 -SHRA FEW010 BKN030 BKN050     03/02 Q1018 RMK 2CU010 5CU030 7SC050 A3006=,- RA SH
20180106_100000.002,0,RJNT,,,,0,20180106100000,-1,-1,-1,-1,160,-1,3,-1,-1,-1,-1,,9999,0,1,3,FEW 20   BKN 40   BKN 70,1,3,1,2,1018,RJNT 061000Z 16003KT 9999 -SHRA FEW020 BKN040 BKN070 03/02     Q1018 RMK 2CU020 5CU040 7AC070 A3008=,- RA SH
20180106_110000.002,0,RJNT,,,,0,20180106110000,-1,-1,-1,-1,999,-1,2,-1,-1,-1,-1,,9999,0,1,3,FEW 10   SCT 30   BKN 50,1,2,1,1,1018,RJNT 061100Z VRB02KT 9999 -SHRA FEW010 SCT030 BKN050 02/01     Q1018 RMK 1CU010 3CU030 7SC050 A3009=,- RA SH
20180106_120000.002,0,RJNT,,,,0,20180106120000,-1,-1,-1,-1,999,-1,2,-1,-1,-1,-1,,9999,0,1,3,FEW 20   BKN 50   BKN 80,1,2,1,1,1019,RJNT 061200Z VRB02KT 9999 VCSH FEW020 BKN050 BKN080 02/01     Q1019 RMK 2CU020 5SC050 7AC080 A3010=,VC SH
20180106_220000.002,0,RJNT,,,,0,20180106220000,-1,-1,-1,-1,999,-1,1,-1,-1,-1,-1,,9999,0,0,2,FEW 30   BKN 50,1,2,-1,1,1023,RJNT 062200Z VRB01KT 9999 FEW030 BKN050 02/M01 Q1023 RMK     1SC030 6SC050 A3023=,
20180106_230000.002,0,RJNT,,,,0,20180106230000,-1,-1,-1,-1,200,-1,2,-1,-1,-1,-1,,9999,0,0,2,FEW 30   BKN 60,1,2,-1,1,1023,RJNT 062300Z 20002KT 9999 FEW030 BKN060 02/M01 Q1023 RMK     1CU030 5SC060 A3023=,
20180107_000000.002,0,RJNT,,,,0,20180107000000,-1,-1,-1,-1,220,-1,3,-1,-1,180,240,,9999,0,0,2,FEW 30   BKN 60,1,3,-1,1,1024,RJNT 070000Z 22003KT 180V240 9999 FEW030 BKN060 03/M01 Q1024     RMK 1CU030 5SC060 A3026=,
20180107_010000.003,0,RJNT,,,,0,20180107010000,-1,-1,-1,-1,999,-1,1,-1,-1,-1,-1,,9999,0,0,2,FEW 30   BKN 60,1,4,-1,1,1025,RJNT 070100Z VRB01KT 9999 FEW030 BKN060 04/M01 Q1025 RMK     1CU030 5SC060 A3027=,
20180107_020000.002,0,RJNT,,,,0,20180107020000,-1,-1,-1,-1,150,-1,3,-1,-1,90,220,,9999,0,0,2,FEW 30   SCT 60,1,5,-1,4,1024,RJNT 070200Z 15003KT 090V220 9999 FEW030 SCT060 05/M04 Q1024     RMK 1CU030 3SC060 A3025=,
20180107_030000.002,0,RJNT,,,,0,20180107030000,-1,-1,-1,-1,290,-1,3,-1,-1,240,30,,9999,0,0,1,FEW 40,1,6,-1,5,1024,RJNT 070300Z 29003KT 240V030 9999 FEW040 06/M05 Q1024 RMK     2SC040 A3024=,
20180107_040000.002,0,RJNT,,,,0,20180107040000,-1,-1,-1,-1,320,-1,4,-1,-1,260,30,,9999,0,0,2,FEW 40   SCT -9999,1,7,-1,6,1023,RJNT 070400Z 32004KT 260V030 9999 FEW040 SCT/// 07/M06 Q1023     RMK 2SC040 A3021=,
20180107_050000.002,0,RJNT,,,,0,20180107050000,-1,-1,-1,-1,999,-1,1,-1,-1,-1,-1,,9999,0,0,2,FEW 20   SCT 40,1,7,-1,5,1022,RJNT 070500Z VRB01KT 9999 FEW020 SCT040 07/M05 Q1022 RMK     1CU020 3CU040 A3019=,
20180107_060000.002,0,RJNT,,,,0,20180107060000,-1,-1,-1,-1,360,-1,6,-1,-1,-1,-1,,9999,0,0,3,FEW 20   BKN 50   BKN -9999,1,7,-1,3,1022,RJNT 070600Z 36006KT 9999 FEW020 BKN050 BKN/// 07/M03 Q1022     RMK 1CU020 5SC050 A3020=,
20180107_070000.002,0,RJNT,,,,0,20180107070000,-1,-1,-1,-1,20,-1,4,-1,-1,-1,-1,,9999,0,0,2,FEW 20   BKN 50,1,6,-1,5,1023,RJNT 070700Z 02004KT 9999 FEW020 BKN050 06/M05 Q1023 RMK     1CU020 7SC050 A3021=,
20180107_080000.002,0,RJNT,,,,0,20180107080000,-1,-1,-1,-1,360,-1,3,-1,-1,-1,-1,,9999,0,0,2,FEW 20   BKN 50,1,5,-1,3,1023,RJNT 070800Z 36003KT 9999 FEW020 BKN050 05/M03 Q1023 RMK     2CU020 7SC050 A3023=,
20180107_090000.002,0,RJNT,,,,0,20180107090000,-1,-1,-1,-1,999,-1,1,-1,-1,-1,-1,,9999,0,0,2,FEW 20   BKN 50,1,4,-1,1,1024,RJNT 070900Z VRB01KT 9999 FEW020 BKN050 04/M01 Q1024 RMK     2CU020 7SC050 A3025=,
20180107_100000.002,0,RJNT,,,,0,20180107100000,-1,-1,-1,-1,190,-1,4,-1,-1,-1,-1,,9999,0,0,3,FEW 20   SCT 40   BKN -9999,1,3,-1,0,1024,RJNT 071000Z 19004KT 9999 FEW020 SCT040 BKN/// 03/M00 Q1024     RMK 1CU020 3CU040 A3026=,
20180107_110000.002,0,RJNT,,,,0,20180107110000,-1,-1,-1,-1,140,-1,3,-1,-1,80,240,,9999,0,0,3,FEW 20   SCT 150   BKN -9999,1,3,-1,1,1023,RJNT 071100Z 14003KT 080V240 9999 FEW020 SCT150 BKN/// 03/M01     Q1023 RMK 1CU020 4AC150 A3022=,
20180107_120000.003,0,RJNT,,,,0,20180107120000,-1,-1,-1,-1,110,-1,5,-1,-1,60,200,,9999,0,0,3,FEW 20   SCT 150   BKN 180,1,4,-1,3,1021,RJNT 071200Z 11005KT 060V200 9999 FEW020 SCT150 BKN180 04/M03     Q1021 RMK 1CU020 4AC150 7AC180 A3015 P/FR=,
20180107_220000.002,0,RJNT,,,,0,20180107220000,-1,-1,-1,-1,999,-1,5,-1,-1,-1,-1,,9999,0,0,3,FEW 20   SCT 40   BKN 100,1,3,-1,1,1017,RJNT 072200Z VRB05KT 9999 FEW020 SCT040 BKN100 03/M01 Q1017     RMK 1CU020 3SC040 7AC100 A3004=,
20180107_230000.002,0,RJNT,,,,0,20180107230000,-1,-1,-1,-1,180,-1,12,-1,22,140,210,,9999,0,0,3,FEW 20   SCT 40   BKN 80,1,9,-1,0,1016,RJNT 072300Z 18012G22KT 140V210 9999 FEW020 SCT040 BKN080     09/M00 Q1016 RMK 1CU020 3SC040 7AC080 A3001=,
20180108_000000.002,0,RJNT,,,,0,20180108000000,-1,-1,-1,-1,180,-1,10,-1,20,130,210,,9999,0,1,3,FEW 20   BKN 50   BKN 70,1,9,1,2,1016,RJNT 080000Z 18010G20KT 130V210 9999 -SHRA FEW020 BKN050     BKN070 09/02 Q1016 RMK 1CU020 5SC050 7AC070 A3001=,- RA SH
20180108_010000.002,0,RJNT,,,,0,20180108010000,-1,-1,-1,-1,170,-1,13,-1,23,130,210,,9999,0,1,3,FEW 20   BKN 50   BKN 70,1,7,1,3,1014,RJNT 080100Z 17013G23KT 130V210 9999 -SHRA FEW020 BKN050     BKN070 07/03 Q1014 RMK 1CU020 5SC050 7AC070 A2996=,- RA SH
20180108_020000.002,0,RJNT,,,,0,20180108020000,-1,-1,-1,-1,170,-1,11,-1,22,130,210,,9999,0,1,3,FEW 20   SCT 40   BKN 80,1,9,1,2,1012,RJNT 080200Z 17011G22KT 130V210 9999 -SHRA FEW020 SCT040     BKN080 09/02 Q1012 RMK 1CU020 4SC040 7AC080 A2988 P/FR=,- RA SH
20180108_030000.002,0,RJNT,,,,0,20180108030000,-1,-1,-1,-1,180,-1,14,-1,26,150,210,,9999,0,0,3,FEW 20   SCT 40   BKN 80,1,11,1,2,1010,RJNT 080300Z 18014G26KT 150V210 9999 FEW020 SCT040 BKN080     11/02 Q1010 RMK 1CU020 3SC040 7AC080 A2983=,
20180108_040000.002,0,RJNT,,,,0,20180108040000,-1,-1,-1,-1,170,-1,14,-1,24,130,210,,9999,0,1,3,FEW 20   BKN 40   BKN 80,1,10,1,3,1008,RJNT 080400Z 17014G24KT 130V210 9999 -SHRA FEW020 BKN040     BKN080 10/03 Q1008 RMK 1CU020 5SC040 7AC080 A2978=,- RA SH
20180108_050000.002,0,RJNT,,,,0,20180108050000,-1,-1,-1,-1,160,-1,10,-1,20,110,220,,9999,0,1,3,FEW 20   SCT 40   BKN 70,1,9,1,4,1006,RJNT 080500Z 16010G20KT 110V220 9999 -SHRA FEW020 SCT040     BKN070 09/04 Q1006 RMK 1CU020 4SC040 6AC070 A2972 P/FR=,- RA SH
20180108_060000.003,0,RJNT,,,,0,20180108060000,-1,-1,-1,-1,160,-1,14,-1,29,110,210,,9999,0,1,3,FEW 20   SCT 40   BKN 80,1,11,1,3,1004,RJNT 080600Z 16014G29KT 110V210 9999 -SHRA FEW020 SCT040     BKN080 11/03 Q1004 RMK 1CU020 4CU040 7AC080 A2966 P/FR=,- RA SH
20180108_070000.002,0,RJNT,,,,0,20180108070000,-1,-1,-1,-1,160,-1,11,-1,24,100,230,,9999,0,1,3,FEW 20   SCT 40   BKN 70,1,12,1,4,1004,RJNT 080700Z 16011G24KT 100V230 9999 -SHRA FEW020 SCT040     BKN070 12/04 Q1004 RMK 1CU020 4CU040 6AC070 A2965=,- RA SH
20180108_080000.002,0,RJNT,,,,0,20180108080000,-1,-1,-1,-1,170,-1,6,-1,-1,110,230,,9999,0,1,3,FEW 20   SCT 40   BKN 70,1,12,1,5,1004,RJNT 080800Z 17006KT 110V230 9999 -SHRA FEW020 SCT040 BKN070     12/05 Q1004 RMK 1CU020 3CU040 7AC070 A2967=,- RA SH
20180108_090000.002,0,RJNT,,,,0,20180108090000,-1,-1,-1,-1,999,-1,2,-1,-1,-1,-1,,9999,0,1,3,FEW 20   SCT 40   BKN 70,1,9,1,6,1004,RJNT 080900Z VRB02KT 9999 -SHRA FEW020 SCT040 BKN070 09/06     Q1004 RMK 1CU020 3CU040 7AC070 A2966=,- RA SH
20180108_100000.002,0,RJNT,,,,0,20180108100000,-1,-1,-1,-1,180,-1,13,-1,23,150,210,,9999,0,1,3,FEW 20   SCT 60   BKN 70,1,10,1,6,1003,RJNT 081000Z 18013G23KT 150V210 9999 -SHRA FEW020 SCT060     BKN070 10/06 Q1003 RMK 1CU020 3SC060 6AC070 A2964=,- RA SH
20180108_110000.002,0,RJNT,,,,0,20180108110000,-1,-1,-1,-1,170,-1,11,-1,21,140,210,,9999,0,1,3,FEW 20   SCT 40   BKN 60,1,11,1,6,1001,RJNT 081100Z 17011G21KT 140V210 9999 -SHRA FEW020 SCT040     BKN060 11/06 Q1001 RMK 1CU020 3CU040 5SC060 A2958=,- RA SH
20180108_120000.002,0,RJNT,,,,0,20180108120000,-1,-1,-1,-1,180,-1,12,-1,-1,150,210,,9999,0,1,3,FEW 20   SCT 40   BKN 60,1,10,1,6,1001,RJNT 081200Z 18012KT 150V210 9999 -SHRA FEW020 SCT040 BKN060     10/06 Q1001 RMK 1CU020 3CU040 5SC060 A2956=,- RA SH
20180108_220000.002,0,RJNT,,,,0,20180108220000,-1,-1,-1,-1,230,-1,13,-1,-1,-1,-1,,7000,0,1,3,FEW 8   BKN 30   BKN 40,1,7,1,5,1000,RJNT 082200Z 23013KT 7000 -SHRA FEW008 BKN030 BKN040 07/05     Q1000 RMK 2CU008 5CU030 7CU040 A2955=,- RA SH
20180108_230000.003,0,RJNT,,,,0,20180108230000,-1,-1,-1,-1,220,-1,11,-1,-1,-1,-1,,9999,0,1,3,FEW 5   BKN 30   BKN 50,1,8,1,4,1000,RJNT 082300Z 22011KT 9999 -SHRA FEW005 BKN030 BKN050 08/04     Q1000 RMK 1ST005 5CU030 7SC050 A2954=,- RA SH
20180109_000000.002,0,RJNT,,,,0,20180109000000,-1,-1,-1,-1,250,-1,14,-1,-1,-1,-1,,5000,0,2,3,FEW 5   BKN 10   BKN 20,1,6,1,4,1001,RJNT 090000Z 25014KT 5000 SHRA BR FEW005 BKN010 BKN020 06/04     Q1001 RMK 1ST005 5CU010 7CU020 A2957=,RA SH; BR
20180109_010000.002,0,RJNT,,,,0,20180109010000,-1,-1,-1,-1,230,-1,12,-1,-1,-1,-1,,5000,0,2,3,FEW 5   BKN 10   BKN 25,1,5,1,3,1001,RJNT 090100Z 23012KT 5000 -SHRA BR FEW005 BKN010 BKN025 05/03     Q1001 RMK 2ST005 5CU010 7CU025 A2958=,- RA SH; BR
20180109_020000.002,0,RJNT,,,,0,20180109020000,-1,-1,-1,-1,240,-1,16,-1,28,-1,-1,,4000,0,2,3,FEW 5   BKN 10   BKN 20,1,5,1,3,1001,RJNT 090200Z 24016G28KT 4000 -SHRA BR FEW005 BKN010 BKN020     05/03 Q1001 RMK 2ST005 5CU010 7CU020 A2956=,- RA SH; BR
20180109_030000.002,0,RJNT,,,,0,20180109030000,-1,-1,-1,-1,250,-1,13,-1,24,-1,-1,,9999,0,1,3,FEW 5   SCT 10   BKN 25,1,5,1,3,1000,RJNT 090300Z 25013G24KT 9999 -SHRA FEW005 SCT010 BKN025 05/03     Q1000 RMK 1ST005 4CU010 7CU025 A2954=,- RA SH
20180109_040000.002,0,RJNT,,,,0,20180109040000,-1,-1,-1,-1,220,-1,13,-1,24,-1,-1,,4000,0,2,3,FEW 5   BKN 10   BKN 25,1,3,1,2,1000,RJNT 090400Z 22013G24KT 4000 -SHRA BR FEW005 BKN010 BKN025     03/02 Q1000 RMK 2ST005 5CU010 7CU025 A2955=,- RA SH; BR
20180109_050000.002,0,RJNT,,,,0,20180109050000,-1,-1,-1,-1,230,-1,16,-1,-1,-1,-1,,5000,0,2,3,FEW 5   SCT 10   BKN 20,1,4,1,2,1001,RJNT 090500Z 23016KT 5000 -SHRA BR FEW005 SCT010 BKN020 04/02     Q1001 RMK 1ST005 4CU010 6CU020 A2959=,- RA SH; BR
20180109_060000.002,0,RJNT,,,,0,20180109060000,-1,-1,-1,-1,240,-1,16,-1,26,200,270,,6000,0,1,3,FEW 3   SCT 10   BKN 20,1,3,1,1,1002,RJNT 090600Z 24016G26KT 200V270 6000 -SHRASN FEW003 SCT010     BKN020 03/01 Q1002 RMK 1ST003 4CU010 6CU020 A2961=,- RA SN SH
20180109_070000.002,0,RJNT,,,,0,20180109070000,-1,-1,-1,-1,240,-1,20,-1,34,220,280,,8000,0,1,3,FEW 3   SCT 10   BKN 20,1,3,1,0,1004,RJNT 090700Z 24020G34KT 220V280 8000 -SHRASN FEW003 SCT010     BKN020 03/00 Q1004 RMK 1ST003 3CU010 6CU020 A2966 4000S=,- RA SN SH
20180109_080000.002,0,RJNT,,,,0,20180109080000,-1,-1,-1,-1,210,-1,14,-1,-1,-1,-1,,8000,0,1,3,FEW 3   SCT 10   BKN 20,1,2,1,0,1005,RJNT 090800Z 21014KT 8000 -SHSNRA FEW003 SCT010 BKN020 02/00     Q1005 RMK 1ST003 3CU010 5CU020 A2970 4000E-S=,- SN RA SH
20180109_090000.002,0,RJNT,,,,0,20180109090000,-1,-1,-1,-1,230,-1,16,-1,26,-1,-1,,8000,0,1,3,FEW 3   SCT 20   BKN 30,1,2,-1,1,1006,RJNT 090900Z 23016G26KT 8000 -SHSNRA FEW003 SCT020 BKN030     02/M01 Q1006 RMK 1ST003 4CU020 5CU030 A2972=,- SN RA SH
20180109_100000.002,0,RJNT,,,,0,20180109100000,-1,-1,-1,-1,260,-1,7,-1,-1,230,310,,8000,0,1,3,FEW 3   BKN 20   BKN 30,1,3,-1,1,1007,RJNT 091000Z 26007KT 230V310 8000 -SHSNRA FEW003 BKN020 BKN030     03/M01 Q1007 RMK 1ST003 5CU020 6CU030 A2974=,- SN RA SH
20180109_110000.002,0,RJNT,,,,0,20180109110000,-1,-1,-1,-1,190,-1,9,-1,-1,140,220,,800,0,1,1,VV 4,1,0,-1,0,1008,RJNT 091100Z 19009KT 140V220 0800 SHSN VV004 00/M00 Q1008 RMK     A2977=,SN SH
20180109_120000.002,0,RJNT,,,,0,20180109120000,-1,-1,-1,-1,150,-1,3,-1,-1,80,210,,3000,0,1,3,FEW 3   BKN 10   BKN 20,1,1,1,0,1008,RJNT 091200Z 15003KT 080V210 3000 -SHSN FEW003 BKN010 BKN020     01/00 Q1008 RMK 1ST003 5CU010 6CU020 A2977=,- SN SH
20180109_220000.002,0,RJNT,,,,0,20180109220000,-1,-1,-1,-1,160,-1,3,-1,-1,110,200,,9999,0,1,3,FEW 8   SCT 20   BKN 30,1,3,-1,1,1009,RJNT 092200Z 16003KT 110V200 9999 -SHSN FEW008 SCT020 BKN030     03/M01 Q1009 RMK 1CU008 3CU020 6CU030 A2982 4000W=,- SN SH
20180109_230000.002,0,RJNT,,,,0,20180109230000,-1,-1,-1,-1,190,-1,8,-1,-1,140,220,,8000,0,1,3,FEW 3   SCT 10   BKN 20,1,2,-1,0,1010,RJNT 092300Z 19008KT 140V220 8000 -SHSNRAGS FEW003 SCT010     BKN020 02/M00 Q1010 RMK 1ST003 3CU010 5CU020 A2984 SMALL           HAIL=,- SN, RA GS SH
20180110_000000.002,0,RJNT,,,,0,20180110000000,-1,-1,-1,-1,190,-1,7,-1,-1,150,220,,1500,0,1,1,VV 8,1,1,-1,0,1011,RJNT 100000Z 19007KT 150V220 1500 -SHSN VV008 01/M00 Q1011 RMK     A2986=,- SN SH
20180110_010000.002,0,RJNT,,,,0,20180110010000,-1,-1,-1,-1,170,-1,7,-1,-1,90,210,,9999,0,1,3,FEW 3   SCT 8   BKN 15,1,2,1,1,1010,RJNT 100100Z 17007KT 090V210 9999 -SHSNRA FEW003 SCT008 BKN015     02/01 Q1010 RMK 1ST003 3CU008 5CU015 A2983=,- SN RA SH
20180110_020000.002,0,RJNT,,,,0,20180110020000,-1,-1,-1,-1,180,-1,6,-1,-1,140,220,,9999,0,1,3,FEW 10   SCT 20   BKN 40,1,4,1,0,1009,RJNT 100200Z 18006KT 140V220 9999 VCSH FEW010 SCT020 BKN040     04/00 Q1009 RMK 1CU010 3CU020 5CU040 A2980=,VC SH
20180110_030000.002,0,RJNT,,,,0,20180110030000,-1,-1,-1,-1,210,-1,15,-1,-1,-1,-1,,9999,0,1,3,FEW 5   SCT 10   BKN 20,1,3,1,1,1008,RJNT 100300Z 21015KT 9999 -SHRASN FEW005 SCT010 BKN020 03/01     Q1008 RMK 1ST005 3CU010 5CU020 A2979=,- RA SN SH
20180110_040000.003,0,RJNT,,,,0,20180110040000,-1,-1,-1,-1,190,-1,10,-1,-1,160,220,,9999,0,1,3,FEW 5   SCT 20   BKN 30,1,3,1,1,1008,RJNT 100400Z 19010KT 160V220 9999 -SHRASN FEW005 SCT020 BKN030     03/01 Q1008 RMK 1ST005 3CU020 5CU030 A2977=,- RA SN SH
20180110_050000.002,0,RJNT,,,,0,20180110050000,-1,-1,-1,-1,280,-1,6,-1,-1,-1,-1,,9999,0,1,3,FEW 5   SCT 20   BKN 30,1,3,1,1,1008,RJNT 100500Z 28006KT 9999 -SHRASN FEW005 SCT020 BKN030 03/01     Q1008 RMK 1CU005 3CU020 5CU030 A2977=,- RA SN SH
20180110_060000.002,0,RJNT,,,,0,20180110060000,-1,-1,-1,-1,260,-1,9,-1,-1,-1,-1,,8000,0,1,3,FEW 5   SCT 10   BKN 20,1,2,1,1,1008,RJNT 100600Z 26009KT 8000 -SHRASN FEW005 SCT010 BKN020 02/01     Q1008 RMK 1CU005 3CU010 5CU020 A2979=,- RA SN SH
20180110_070000.002,0,RJNT,,,,0,20180110070000,-1,-1,-1,-1,270,-1,9,-1,-1,-1,-1,,6000,0,1,3,FEW 5   SCT 10   BKN 20,1,2,1,1,1009,RJNT 100700Z 27009KT 6000 -SHRASN FEW005 SCT010 BKN020 02/01     Q1009 RMK 1CU005 3CU010 5CU020 A2981=,- RA SN SH
20180110_080000.002,0,RJNT,,,,0,20180110080000,-1,-1,-1,-1,250,-1,7,-1,-1,-1,-1,,5000,0,1,3,FEW 5   SCT 10   BKN 15,1,1,1,1,1009,RJNT 100800Z 25007KT 5000 -SHSN FEW005 SCT010 BKN015 01/01     Q1009 RMK 1CU005 3CU010 5CU015 A2982=,- SN SH
20180110_090000.002,0,RJNT,,,,0,20180110090000,-1,-1,-1,-1,240,-1,5,-1,-1,-1,-1,,1200,0,1,1,VV 6,1,0,-1,0,1010,RJNT 100900Z 24005KT 1200 -SHSN VV006 00/M00 Q1010 RMK A2985=,- SN SH
20180110_100000.002,0,RJNT,,,,0,20180110100000,-1,-1,-1,-1,240,-1,7,-1,-1,-1,-1,,800,0,1,1,VV 5,1,0,1,0,1011,RJNT 101000Z 24007KT 0800 SHSN VV005 00/00 Q1011 RMK A2988=,SN SH
20180110_110000.002,0,RJNT,,,,0,20180110110000,-1,-1,-1,-1,260,-1,7,-1,-1,220,280,,800,0,1,1,VV 4,1,0,1,0,1011,RJNT 101100Z 26007KT 220V280 0800 SHSN VV004 00/00 Q1011 RMK     A2988=,SN SH
20180110_120000.002,0,RJNT,,,,0,20180110120000,-1,-1,-1,-1,240,-1,6,-1,-1,-1,-1,,900,0,1,1,VV 4,1,0,1,0,1012,RJNT 101200Z 24006KT 0900 SHSN VV004 00/00 Q1012 RMK A2988=,SN SH
20180110_220000.002,0,RJNT,,,,0,20180110220000,-1,-1,-1,-1,190,-1,6,-1,-1,150,220,,2000,0,1,3,FEW 3   SCT 8   BKN 12,-1,0,-1,1,1014,RJNT 102200Z 19006KT 150V220 2000 -SHSN FEW003 SCT008 BKN012     M00/M01 Q1014 RMK 1ST003 3CU008 5CU012 A2994=,- SN SH
20180110_230000.003,0,RJNT,,,,0,20180110230000,-1,-1,-1,-1,220,-1,3,-1,-1,140,270,,800,0,1,1,VV 4,-1,0,-1,1,1014,RJNT 102300Z 22003KT 140V270 0800 SHSN VV004 M00/M01 Q1014 RMK     A2996=,SN SH
20180111_000000.002,0,RJNT,,,,0,20180111000000,-1,-1,-1,-1,280,-1,3,-1,-1,240,310,,8000,0,1,3,FEW 3   SCT 10   BKN 30,1,0,-1,1,1015,RJNT 110000Z 28003KT 240V310 8000 -SHSN FEW003 SCT010 BKN030     00/M01 Q1015 RMK 1ST003 3CU010 6CU030 A2997=,- SN SH
20180111_010000.002,0,RJNT,,,,0,20180111010000,-1,-1,-1,-1,250,-1,7,-1,-1,-1,-1,,6000,0,1,3,FEW 3   SCT 10   BKN 25,1,1,-1,2,1015,RJNT 110100Z 25007KT 6000 -SHSN FEW003 SCT010 BKN025 01/M02     Q1015 RMK 1ST003 3CU010 5CU025 A2999=,- SN SH
20180111_020000.002,0,RJNT,,,,0,20180111020000,-1,-1,-1,-1,290,-1,7,-1,-1,250,320,,3000,0,1,3,FEW 3   SCT 10   BKN 20,-1,0,-1,1,1015,RJNT 110200Z 29007KT 250V320 3000 -SHSN FEW003 SCT010 BKN020     M00/M01 Q1015 RMK 1ST003 3CU010 5CU020 A2999 9999S-SW=,- SN SH
20180111_030000.001,0,RJNT,,,,0,20180111030000,-1,-1,-1,-1,280,-1,5,-1,-1,240,310,,9999,0,1,3,FEW 5   SCT 20   BKN 40,1,0,-1,2,1014,RJNT 110300Z 28005KT 240V310 9999 -SHSN FEW005 SCT020 BKN040     00/M02 Q1014 RMK 1ST005 4CU020 5CU040 A2996=,- SN SH
20180111_040000.002,0,RJNT,,,,0,20180111040000,-1,-1,-1,-1,290,-1,9,-1,-1,-1,-1,,9999,0,1,3,FEW 5   SCT 20   BKN 40,1,0,-1,3,1014,RJNT 110400Z 29009KT 9999 -SHSN FEW005 SCT020 BKN040 00/M03     Q1014 RMK 1ST005 3CU020 5CU040 A2996=,- SN SH
20180111_050000.002,0,RJNT,,,,0,20180111050000,-1,-1,-1,-1,270,-1,12,-1,-1,230,290,,9999,0,1,3,FEW 5   SCT 30   BKN 50,1,2,-1,3,1014,RJNT 110500Z 27012KT 230V290 9999 VCSH FEW005 SCT030 BKN050     02/M03 Q1014 RMK 1ST005 3CU030 6SC050 A2996=,VC SH
20180111_060000.002,0,RJNT,,,,0,20180111060000,-1,-1,-1,-1,270,-1,9,-1,-1,-1,-1,,9999,0,1,3,FEW 8   SCT 30   BKN 60,1,1,-1,3,1015,RJNT 110600Z 27009KT 9999 -SHSN FEW008 SCT030 BKN060 01/M03     Q1015 RMK 2ST008 4CU030 7SC060 A2998=,- SN SH
20180111_070000.002,0,RJNT,,,,0,20180111070000,-1,-1,-1,-1,280,-1,9,-1,-1,-1,-1,,9999,0,1,3,FEW 8   SCT 30   BKN 60,1,1,-1,4,1015,RJNT 110700Z 28009KT 9999 -SHSN FEW008 SCT030 BKN060 01/M04     Q1015 RMK 2ST008 3CU030 7SC060 A3000=,- SN SH
20180111_080000.002,0,RJNT,,,,0,20180111080000,-1,-1,-1,-1,260,-1,6,-1,-1,-1,-1,,9999,0,1,3,FEW 8   SCT 30   BKN 60,1,0,-1,4,1016,RJNT 110800Z 26006KT 9999 -SHSN FEW008 SCT030 BKN060 00/M04     Q1016 RMK 1ST008 3CU030 6SC060 A3001=,- SN SH
20180111_090000.002,0,RJNT,,,,0,20180111090000,-1,-1,-1,-1,260,-1,5,-1,-1,-1,-1,,9999,0,1,3,FEW 8   SCT 30   BKN 60,-1,1,-1,4,1016,RJNT 110900Z 26005KT 9999 VCSH FEW008 SCT030 BKN060 M01/M04     Q1016 RMK 1ST008 3CU030 6SC060 A3002=,VC SH
20180111_100000.002,0,RJNT,,,,0,20180111100000,-1,-1,-1,-1,210,-1,3,-1,-1,160,230,,9999,0,1,3,FEW 5   SCT 30   BKN 40,-1,0,-1,4,1016,RJNT 111000Z 21003KT 160V230 9999 VCSH FEW005 SCT030 BKN040     M00/M04 Q1016 RMK 1ST005 3CU030 6CU040 A3002=,VC SH
20180111_110000.002,0,RJNT,,,,0,20180111110000,-1,-1,-1,-1,160,-1,5,-1,-1,120,200,,9999,0,0,2,FEW 5   SCT 40,-1,0,-1,7,1016,RJNT 111100Z 16005KT 120V200 9999 FEW005 SCT040 M00/M07 Q1016     RMK 1ST005 3CU040 A3002=,
20180111_120000.002,0,RJNT,,,,0,20180111120000,-1,-1,-1,-1,210,-1,13,-1,-1,-1,-1,,7000,0,1,3,FEW 5   BKN 15   BKN 30,-1,0,-1,6,1016,RJNT 111200Z 21013KT 7000 -SHSN FEW005 BKN015 BKN030 M00/M06     Q1016 RMK 2ST005 5CU015 7CU030 A3001=,- SN SH
20180111_220000.002,0,RJNT,,,,0,20180111220000,-1,-1,-1,-1,70,-1,4,-1,-1,50,110,,7000,0,1,3,FEW 5   SCT 20   BKN 30,-1,2,-1,3,1019,RJNT 112200Z 07004KT 050V110 7000 -SHSN FEW005 SCT020 BKN030     M02/M03 Q1019 RMK 1CU005 3CU020 5CU030 A3011=,- SN SH
20180111_230000.002,0,RJNT,,,,0,20180111230000,-1,-1,-1,-1,999,-1,2,-1,-1,-1,-1,,9999,0,1,3,FEW 5   SCT 30   BKN 50,-1,1,-1,3,1020,RJNT 112300Z VRB02KT 9999 -SHSN FEW005 SCT030 BKN050 M01/M03     Q1020 RMK 1CU005 3CU030 5SC050 A3013=,- SN SH
20180112_000000.002,0,RJNT,,,,0,20180112000000,-1,-1,-1,-1,210,-1,7,-1,-1,150,250,,9999,0,1,2,FEW 5   SCT 50,-1,2,-1,4,1021,RJNT 120000Z 21007KT 150V250 9999 VCSH FEW005 SCT050 M02/M04     Q1021 RMK 1CU005 4SC050 A3016=,VC SH
20180112_010000.003,0,RJNT,,,,0,20180112010000,-1,-1,-1,-1,240,-1,6,-1,-1,-1,-1,,9999,0,0,1,FEW 10,-1,1,-1,4,1021,RJNT 120100Z 24006KT 9999 FEW010 M01/M04 Q1021 RMK 1SC010     A3017=,
20180112_020000.002,0,RJNT,,,,0,20180112020000,-1,-1,-1,-1,300,-1,6,-1,-1,-1,-1,,9999,0,0,2,FEW 10   BKN 130,-1,0,-1,3,1022,RJNT 120200Z 30006KT 9999 FEW010 BKN130 M00/M03 Q1022 RMK     1SC010 5AC130 A3018=,
20180112_030000.002,0,RJNT,,,,0,20180112030000,-1,-1,-1,-1,270,-1,6,-1,-1,-1,-1,,9999,0,1,3,FEW 5   SCT 30   BKN 50,1,0,-1,2,1021,RJNT 120300Z 27006KT 9999 -SHSN FEW005 SCT030 BKN050 00/M02     Q1021 RMK 1CU005 3CU030 6SC050 A3018=,- SN SH
20180112_040000.002,0,RJNT,,,,0,20180112040000,-1,-1,-1,-1,270,-1,7,-1,-1,-1,-1,,9999,0,1,3,FEW 5   SCT 30   BKN 80,1,0,-1,3,1021,RJNT 120400Z 27007KT 9999 VCSH FEW005 SCT030 BKN080 00/M03     Q1021 RMK 1CU005 3CU030 6AC080 A3017=,VC SH
20180112_050000.003,0,RJNT,,,,0,20180112050000,-1,-1,-1,-1,260,-1,4,-1,-1,-1,-1,,9999,0,1,3,FEW 10   SCT 40   BKN 90,1,1,-1,2,1021,RJNT 120500Z 26004KT 9999 VCSH FEW010 SCT040 BKN090 01/M02     Q1021 RMK 1CU010 3CU040 6AC090 A3017=,VC SH
20180112_060000.002,0,RJNT,,,,0,20180112060000,-1,-1,-1,-1,310,-1,4,-1,-1,270,340,,9999,0,1,3,FEW 8   BKN 20   BKN 30,1,0,-1,2,1022,RJNT 120600Z 31004KT 270V340 9999 -SHSN FEW008 BKN020 BKN030     00/M02 Q1022 RMK 1ST008 5CU020 7CU030 A3019 4000SW-NW=,- SN SH
20180112_070000.003,0,RJNT,,,,0,20180112070000,-1,-1,-1,-1,10,-1,5,-1,-1,330,40,,4000,0,1,3,FEW 5   BKN 10   BKN 20,1,0,-1,1,1022,RJNT 120700Z 01005KT 330V040 4000 -SHSN FEW005 BKN010 BKN020     00/M01 Q1022 RMK 2ST005 5CU010 7CU020 A3020=,- SN SH
20180112_080000.002,0,RJNT,,,,0,20180112080000,-1,-1,-1,-1,220,-1,3,-1,-1,-1,-1,,7000,0,1,3,FEW 8   SCT 20   BKN 30,-1,1,-1,2,1022,RJNT 120800Z 22003KT 7000 -SHSN FEW008 SCT020 BKN030 M01/M02     Q1022 RMK 2ST008 4CU020 6CU030 A3021=,- SN SH
20180112_090000.002,0,RJNT,,,,0,20180112090000,-1,-1,-1,-1,999,-1,1,-1,-1,-1,-1,,9999,0,0,2,FEW 8   SCT 30,-1,2,-1,2,1023,RJNT 120900Z VRB01KT 9999 FEW008 SCT030 M02/M02 Q1023 RMK     1CU008 3CU030 A3023=,
20180112_100000.002,0,RJNT,,,,0,20180112100000,-1,-1,-1,-1,999,-1,1,-1,-1,-1,-1,,700,0,1,1,SCT 1,-1,3,-1,3,1024,RJNT 121000Z VRB01KT 0700 FG SCT001 M03/M03 Q1024 RMK 4ST001     A3025=,FG
20180112_110000.002,0,RJNT,,,,0,20180112110000,-1,-1,-1,-1,999,-1,2,-1,-1,-1,-1,,800,0,1,2,FEW 2   SCT 10,-1,2,-1,2,1024,RJNT 121100Z VRB02KT 0800 FZFG FEW002 SCT010 M02/M02 Q1024 RMK     2ST002 4CU010 A3026=,FZ FG
20180112_120000.002,0,RJNT,,,,0,20180112120000,-1,-1,-1,-1,190,-1,4,-1,-1,-1,-1,,200,0,1,1,VV 1,-1,2,-1,2,1024,RJNT 121200Z 19004KT 0200 FZFG VV001 M02/M02 Q1024 RMK A3026=,FZ FG
20180112_220000.002,0,RJNT,,,,0,20180112220000,-1,-1,-1,-1,180,-1,11,-1,-1,-1,-1,,9999,0,1,3,FEW 5   SCT 20   BKN 40,-1,1,-1,7,1022,RJNT 122200Z 18011KT 9999 -SHSN FEW005 SCT020 BKN040 M01/M07     Q1022 RMK 1CU005 3CU020 5CU040 A3019=,- SN SH
20180112_230000.002,0,RJNT,,,,0,20180112230000,-1,-1,-1,-1,180,-1,12,-1,-1,140,200,,9999,0,1,3,FEW 5   SCT 20   BKN 30,-1,0,-1,7,1022,RJNT 122300Z 18012KT 140V200 9999 -SHSN FEW005 SCT020 BKN030     M00/M07 Q1022 RMK 1CU005 3CU020 5CU030 A3020=,- SN SH
20180113_000000.002,0,RJNT,,,,0,20180113000000,-1,-1,-1,-1,180,-1,4,-1,-1,130,210,,5000,0,1,3,FEW 5   SCT 10   BKN 20,1,0,-1,6,1023,RJNT 130000Z 18004KT 130V210 5000 -SHSN FEW005 SCT010 BKN020     00/M06 Q1023 RMK 1CU005 3CU010 5CU020 A3021=,- SN SH
20180113_010000.003,0,RJNT,,,,0,20180113010000,-1,-1,-1,-1,180,-1,8,-1,-1,-1,-1,,9999,0,1,3,FEW 5   SCT 20   BKN 40,1,1,-1,5,1023,RJNT 130100Z 18008KT 9999 -SHSN FEW005 SCT020 BKN040 01/M05     Q1023 RMK 1CU005 3CU020 5CU040 A3021=,- SN SH
20180113_020000.002,0,RJNT,,,,0,20180113020000,-1,-1,-1,-1,230,-1,7,-1,-1,190,260,,2000,0,1,3,FEW 4   SCT 6   BKN 8,1,1,-1,1,1023,RJNT 130200Z 23007KT 190V260 2000 -SHSN FEW004 SCT006 BKN008     01/M01 Q1023 RMK 1CU004 3CU006 5CU008 A3023=,- SN SH
20180113_030000.002,0,RJNT,,,,0,20180113030000,-1,-1,-1,-1,140,-1,3,-1,-1,100,200,,1500,0,1,1,VV 7,1,0,-1,1,1022,RJNT 130300Z 14003KT 100V200 1500 -SHSN VV007 00/M01 Q1022 RMK     A3020=,- SN SH
20180113_040000.002,0,RJNT,,,,0,20180113040000,-1,-1,-1,-1,999,-1,2,-1,-1,-1,-1,,1200,0,1,1,VV 6,1,0,-1,0,1022,RJNT 130400Z VRB02KT 1200 -SHSN VV006 00/M00 Q1022 RMK A3021=,- SN SH
20180113_050000.002,0,RJNT,,,,0,20180113050000,-1,-1,-1,-1,110,-1,4,-1,-1,80,150,,2400,0,1,3,FEW 3   BKN 10   BKN 20,1,0,1,0,1023,RJNT 130500Z 11004KT 080V150 2400 -SHSN FEW003 BKN010 BKN020     00/00 Q1023 RMK 2ST003 5CU010 7CU020 A3021=,- SN SH
20180113_060000.002,0,RJNT,,,,0,20180113060000,-1,-1,-1,-1,999,-1,1,-1,-1,-1,-1,,2000,0,1,3,FEW 2   BKN 5   BKN 10,1,0,1,0,1023,RJNT 130600Z VRB01KT 2000 -SHSN FEW002 BKN005 BKN010 00/00     Q1023 RMK 1ST002 5CU005 7CU010 A3022=,- SN SH
20180113_070000.002,0,RJNT,,,,0,20180113070000,-1,-1,-1,-1,20,-1,3,-1,-1,340,60,,1200,0,1,1,VV 6,1,0,1,0,1024,RJNT 130700Z 02003KT 340V060 1200 -SHSN VV006 00/00 Q1024 RMK     A3024=,- SN SH
20180113_080000.002,0,RJNT,,,,0,20180113080000,-1,-1,-1,-1,999,-1,1,-1,-1,-1,-1,,1000,0,1,1,VV 5,1,0,-1,0,1024,RJNT 130800Z VRB01KT 1000 -SHSN VV005 00/M00 Q1024 RMK A3026=,- SN SH
20180113_090000.002,0,RJNT,,,,0,20180113090000,-1,-1,-1,-1,20,-1,8,-1,-1,350,60,,600,0,1,1,VV 3,1,0,1,0,1025,RJNT 130900Z 02008KT 350V060 0600 SHSN VV003 00/00 Q1025 RMK     A3029=,SN SH
20180113_100000.002,0,RJNT,,,,0,20180113100000,-1,-1,-1,-1,360,-1,9,-1,-1,320,30,,3200,0,1,3,FEW 3   BKN 10   BKN 15,1,1,1,0,1026,RJNT 131000Z 36009KT 320V030 3200 -SHSN FEW003 BKN010 BKN015     01/00 Q1026 RMK 2ST003 5CU010 7CU015 A3031=,- SN SH
20180113_110000.002,0,RJNT,,,,0,20180113110000,-1,-1,-1,-1,290,-1,4,-1,-1,220,20,,5000,0,1,3,FEW 5   SCT 10   BKN 20,1,0,-1,0,1027,RJNT 131100Z 29004KT 220V020 5000 -SHSN FEW005 SCT010 BKN020     00/M00 Q1027 RMK 2ST005 4CU010 7CU020 A3034=,- SN SH
20180113_120000.002,0,RJNT,,,,0,20180113120000,-1,-1,-1,-1,220,-1,5,-1,-1,-1,-1,,8000,0,1,3,FEW 8   SCT 20   BKN 30,1,0,-1,1,1028,RJNT 131200Z 22005KT 8000 -SHSN FEW008 SCT020 BKN030 00/M01     Q1028 RMK 1ST008 4CU020 7CU030 A3037=,- SN SH
20180113_220000.002,0,RJNT,,,,0,20180113220000,-1,-1,-1,-1,999,-1,2,-1,-1,-1,-1,,9999,0,0,2,FEW 20   BKN 60,-1,3,-1,4,1031,RJNT 132200Z VRB02KT 9999 FEW020 BKN060 M03/M04 Q1031 RMK     1CU020 5SC060 A3047=,
20180113_230000.002,0,RJNT,,,,0,20180113230000,-1,-1,-1,-1,170,-1,4,-1,-1,130,200,,9999,0,0,2,FEW 20   SCT 50,-1,2,-1,3,1032,RJNT 132300Z 17004KT 130V200 9999 FEW020 SCT050 M02/M03 Q1032     RMK 1CU020 3CU050 A3048=,
20180114_000000.003,0,RJNT,,,,0,20180114000000,-1,-1,-1,-1,999,-1,2,-1,-1,-1,-1,,9999,0,0,1,FEW 30,-1,2,-1,4,1032,RJNT 140000Z VRB02KT 9999 FEW030 M02/M04 Q1032 RMK 1CU030     A3048=,
20180114_010000.002,0,RJNT,,,,0,20180114010000,-1,-1,-1,-1,999,-1,2,-1,-1,-1,-1,,9999,0,0,1,FEW 30,-1,0,-1,3,1032,RJNT 140100Z VRB02KT 9999 FEW030 M00/M03 Q1032 RMK 1CU030     A3049=,
20180114_020000.002,0,RJNT,,,,0,20180114020000,-1,-1,-1,-1,190,-1,2,-1,-1,-1,-1,,9999,0,0,1,FEW 20,1,3,-1,1,1031,RJNT 140200Z 19002KT 9999 FEW020 03/M01 Q1031 RMK 1CU020     A3047=,
20180114_030000.002,0,RJNT,,,,0,20180114030000,-1,-1,-1,-1,999,-1,1,-1,-1,-1,-1,,9999,0,0,1,FEW 20,1,2,-1,3,1031,RJNT 140300Z VRB01KT 9999 FEW020 02/M03 Q1031 RMK 1CU020     A3046=,
20180114_040000.002,0,RJNT,,,,0,20180114040000,-1,-1,-1,-1,999,-1,1,-1,-1,-1,-1,,9999,0,0,1,FEW 20,1,5,-1,1,1031,RJNT 140400Z VRB01KT 9999 FEW020 05/M01 Q1031 RMK 1CU020     A3047=,
20180114_050000.002,0,RJNT,,,,0,20180114050000,-1,-1,-1,-1,999,-1,1,-1,-1,-1,-1,,9999,0,0,1,FEW 20,1,4,-1,6,1031,RJNT 140500Z VRB01KT 9999 FEW020 04/M06 Q1031 RMK 1CU020     A3044=,
20180114_060000.003,0,RJNT,,,,0,20180114060000,-1,-1,-1,-1,200,-1,3,-1,-1,160,220,,9999,0,0,1,FEW 20,1,4,-1,8,1030,RJNT 140600Z 20003KT 160V220 9999 FEW020 04/M08 Q1030 RMK     1CU020 A3044=,
20180114_070000.002,0,RJNT,,,,0,20180114070000,-1,-1,-1,-1,220,-1,1,-1,-1,-1,-1,,9999,0,0,1,FEW 30,1,4,-1,8,1030,RJNT 140700Z 22001KT 9999 FEW030 04/M08 Q1030 RMK 1CU030     A3042=,
20180114_080000.002,0,RJNT,,,,0,20180114080000,-1,-1,-1,-1,999,-1,1,-1,-1,-1,-1,,9999,0,0,1,FEW 30,1,2,-1,5,1029,RJNT 140800Z VRB01KT 9999 FEW030 02/M05 Q1029 RMK 1CU030     A3040=,
20180114_090000.002,0,RJNT,,,,0,20180114090000,-1,-1,-1,-1,130,-1,3,-1,-1,-1,-1,,9999,0,0,1,FEW 30,-1,1,-1,3,1029,RJNT 140900Z 13003KT 9999 FEW030 M01/M03 Q1029 RMK 1CU030     A3041=,
20180114_100000.002,0,RJNT,,,,0,20180114100000,-1,-1,-1,-1,230,-1,3,-1,-1,-1,-1,,9999,0,0,1,FEW 20,-1,2,-1,3,1029,RJNT 141000Z 23003KT 9999 FEW020 M02/M03 Q1029 RMK 1CU020     A3040=,
20180114_110000.002,0,RJNT,,,,0,20180114110000,-1,-1,-1,-1,210,-1,5,-1,-1,-1,-1,,9999,0,0,2,FEW 20   SCT -9999,-1,2,-1,4,1029,RJNT 141100Z 21005KT 9999 FEW020 SCT/// M02/M04 Q1029 RMK     1CU020 A3040=,
20180114_120000.002,0,RJNT,,,,0,20180114120000,-1,-1,-1,-1,130,-1,3,-1,-1,-1,-1,,9999,0,0,2,FEW 20   BKN -9999,-1,4,-1,5,1029,RJNT 141200Z 13003KT 9999 FEW020 BKN/// M04/M05 Q1029 RMK     1CU020 A3041=,
20180114_220000.002,0,RJNT,,,,0,20180114220000,-1,-1,-1,-1,170,-1,3,-1,-1,120,260,,9999,0,0,2,FEW 20   SCT -9999,-1,4,-1,6,1026,RJNT 142200Z 17003KT 120V260 9999 FEW020 SCT/// M04/M06 Q1026     RMK 1CU020 A3030=,
20180114_230000.002,0,RJNT,,,,0,20180114230000,-1,-1,-1,-1,250,-1,5,-1,-1,-1,-1,,9999,0,0,2,FEW 30   BKN -9999,-1,3,-1,5,1026,RJNT 142300Z 25005KT 9999 FEW030 BKN/// M03/M05 Q1026 RMK     1CU030 A3030=,
20180115_000000.002,0,RJNT,,,,0,20180115000000,-1,-1,-1,-1,999,-1,2,-1,-1,-1,-1,,9999,0,0,2,FEW 30   BKN -9999,-1,1,-1,3,1026,RJNT 150000Z VRB02KT 9999 FEW030 BKN/// M01/M03 Q1026 RMK     1CU030 A3030=,
20180115_010000.002,0,RJNT,,,,0,20180115010000,-1,-1,-1,-1,190,-1,4,-1,-1,150,220,,9999,0,0,3,FEW 30   SCT 120   BKN -9999,1,4,-1,2,1025,RJNT 150100Z 19004KT 150V220 9999 FEW030 SCT120 BKN/// 04/M02     Q1025 RMK 1CU030 3AC120 A3028=,
20180115_020000.002,0,RJNT,,,,0,20180115020000,-1,-1,-1,-1,190,-1,11,-1,-1,-1,-1,,9999,0,0,3,FEW 30   SCT 130   BKN -9999,1,8,-1,2,1024,RJNT 150200Z 19011KT 9999 FEW030 SCT130 BKN/// 08/M02 Q1024     RMK 1CU030 3AC130 A3024=,
20180115_030000.002,0,RJNT,,,,0,20180115030000,-1,-1,-1,-1,180,-1,10,-1,-1,-1,-1,,9999,0,0,2,FEW 30   SCT -9999,1,8,-1,3,1022,RJNT 150300Z 18010KT 9999 FEW030 SCT/// 08/M03 Q1022 RMK     1CU030 A3019=,
20180115_040000.002,0,RJNT,,,,0,20180115040000,-1,-1,-1,-1,180,-1,9,-1,-1,-1,-1,,9999,0,0,1,FEW 30,1,9,-1,3,1020,RJNT 150400Z 18009KT 9999 FEW030 09/M03 Q1020 RMK 1CU030     A3014=,
20180115_050000.002,0,RJNT,,,,0,20180115050000,-1,-1,-1,-1,190,-1,9,-1,-1,150,210,,9999,0,0,2,FEW 30   SCT 110,1,10,-1,3,1020,RJNT 150500Z 19009KT 150V210 9999 FEW030 SCT110 10/M03 Q1020     RMK 1CU030 3AC110 A3013=,
20180115_060000.002,0,RJNT,,,,0,20180115060000,-1,-1,-1,-1,180,-1,7,-1,-1,130,200,,9999,0,0,3,FEW 30   SCT 60   BKN 100,1,9,-1,3,1020,RJNT 150600Z 18007KT 130V200 9999 FEW030 SCT060 BKN100 09/M03     Q1020 RMK 1CU030 3SC060 5AC100 A3013=,
20180115_070000.003,0,RJNT,,,,0,20180115070000,-1,-1,-1,-1,190,-1,8,-1,-1,-1,-1,,9999,0,0,3,FEW 30   SCT 60   BKN 80,1,8,-1,2,1021,RJNT 150700Z 19008KT 9999 FEW030 SCT060 BKN080 08/M02 Q1021     RMK 1CU030 3SC060 5AC080 A3015=,
20180115_080000.002,0,RJNT,,,,0,20180115080000,-1,-1,-1,-1,180,-1,6,-1,-1,120,200,,9999,0,0,3,FEW 30   SCT 50   BKN 70,1,8,-1,2,1021,RJNT 150800Z 18006KT 120V200 9999 FEW030 SCT050 BKN070 08/M02     Q1021 RMK 1CU030 4SC050 5AC070 A3016=,
20180115_090000.002,0,RJNT,,,,0,20180115090000,-1,-1,-1,-1,170,-1,7,-1,-1,130,200,,9999,0,0,3,FEW 30   BKN 50   BKN 70,1,8,-1,1,1021,RJNT 150900Z 17007KT 130V200 9999 FEW030 BKN050 BKN070 08/M01     Q1021 RMK 1CU030 5SC050 6AC070 A3016=,
20180115_100000.002,0,RJNT,,,,0,20180115100000,-1,-1,-1,-1,170,-1,9,-1,-1,130,220,,9999,0,1,3,FEW 20   SCT 40   BKN 50,1,7,-1,1,1021,RJNT 151000Z 17009KT 130V220 9999 -SHRA FEW020 SCT040 BKN050     07/M01 Q1021 RMK 1CU020 4CU040 6SC050 A3017=,- RA SH
20180115_110000.002,0,RJNT,,,,0,20180115110000,-1,-1,-1,-1,190,-1,5,-1,-1,120,270,,9999,0,1,3,FEW 20   SCT 30   BKN 40,1,6,1,1,1023,RJNT 151100Z 19005KT 120V270 9999 -SHRA FEW020 SCT030 BKN040     06/01 Q1023 RMK 1CU020 3CU030 5CU040 A3022=,- RA SH
20180115_120000.002,0,RJNT,,,,0,20180115120000,-1,-1,-1,-1,180,-1,3,-1,-1,100,230,,9999,0,1,3,FEW 15   SCT 30   BKN 40,1,6,1,1,1024,RJNT 151200Z 18003KT 100V230 9999 -SHRA FEW015 SCT030 BKN040     06/01 Q1024 RMK 1CU015 4CU030 6CU040 A3024=,- RA SH
20180115_220000.002,0,RJNT,,,,0,20180115220000,-1,-1,-1,-1,999,-1,2,-1,-1,-1,-1,,9999,0,0,2,FEW 20   SCT 180,1,2,1,0,1024,RJNT 152200Z VRB02KT 9999 FEW020 SCT180 02/00 Q1024 RMK 1CU020     4AC180 A3024=,
20180115_230000.002,0,RJNT,,,,0,20180115230000,-1,-1,-1,-1,999,-1,1,-1,-1,-1,-1,,9999,0,0,2,FEW 3   SCT -9999,1,4,1,0,1023,RJNT 152300Z VRB01KT 9999 FEW003 SCT/// 04/00 Q1023 RMK 1ST003     A3023=,
20180116_000000.002,0,RJNT,,,,0,20180116000000,-1,-1,-1,-1,999,-1,2,-1,-1,-1,-1,,9999,0,0,2,FEW 3   BKN -9999,1,6,1,1,1022,RJNT 160000Z VRB02KT 9999 FEW003 BKN/// 06/01 Q1022 RMK 1ST003     A3021=,
20180116_010000.002,0,RJNT,,,,0,20180116010000,-1,-1,-1,-1,170,-1,7,-1,-1,110,210,,9999,0,0,2,FEW 20   BKN -9999,1,7,-1,0,1021,RJNT 160100Z 17007KT 110V210 9999 FEW020 BKN/// 07/M00 Q1021     RMK 1CU020 A3017=,
20180116_020000.002,0,RJNT,,,,0,20180116020000,-1,-1,-1,-1,170,-1,9,-1,-1,130,210,,9999,0,0,2,FEW 30   BKN -9999,1,10,-1,0,1021,RJNT 160200Z 17009KT 130V210 9999 FEW030 BKN/// 10/M00 Q1021     RMK 1CU030 A3016=,
20180116_030000.002,0,RJNT,,,,0,20180116030000,-1,-1,-1,-1,170,-1,8,-1,-1,120,200,,9999,0,0,2,FEW 30   BKN -9999,1,11,-1,1,1019,RJNT 160300Z 17008KT 120V200 9999 FEW030 BKN/// 11/M01 Q1019     RMK 1CU030 A3011=,
20180116_040000.002,0,RJNT,,,,0,20180116040000,-1,-1,-1,-1,170,-1,8,-1,-1,120,200,,9999,0,0,3,FEW 30   SCT 70   BKN 100,1,11,-1,0,1018,RJNT 160400Z 17008KT 120V200 9999 FEW030 SCT070 BKN100 11/M00     Q1018 RMK 1CU030 3AC070 5AC100 A3008=,
20180116_050000.002,0,RJNT,,,,0,20180116050000,-1,-1,-1,-1,180,-1,9,-1,-1,-1,-1,,9999,0,0,3,FEW 50   SCT 60   BKN 70,1,11,1,0,1017,RJNT 160500Z 18009KT 9999 FEW050 SCT060 BKN070 11/00 Q1017 RMK     1SC050 3SC060 6AC070 A3006=,
20180116_060000.002,0,RJNT,,,,0,20180116060000,-1,-1,-1,-1,190,-1,9,-1,-1,-1,-1,,9999,0,0,2,SCT 50   BKN 60,1,11,1,0,1017,RJNT 160600Z 19009KT 9999 SCT050 BKN060 11/00 Q1017 RMK 3SC050     6SC060 A3004=,
20180116_070000.002,0,RJNT,,,,0,20180116070000,-1,-1,-1,-1,190,-1,7,-1,-1,140,210,,9999,0,0,3,FEW 50   SCT 60   BKN 80,1,11,1,1,1016,RJNT 160700Z 19007KT 140V210 9999 FEW050 SCT060 BKN080 11/01     Q1016 RMK 1SC050 3SC060 5AC080 A3003=,
20180116_080000.002,0,RJNT,,,,0,20180116080000,-1,-1,-1,-1,190,-1,6,-1,-1,-1,-1,,9999,0,0,3,FEW 50   SCT 60   BKN 70,1,10,1,1,1016,RJNT 160800Z 19006KT 9999 FEW050 SCT060 BKN070 10/01 Q1016 RMK     1SC050 3SC060 6AC070 A3003=,
20180116_090000.002,0,RJNT,,,,0,20180116090000,-1,-1,-1,-1,190,-1,10,-1,-1,-1,-1,,9999,0,0,3,FEW 50   SCT 60   BKN 70,1,11,1,1,1016,RJNT 160900Z 19010KT 9999 FEW050 SCT060 BKN070 11/01 Q1016 RMK     1SC050 3SC060 6AC070 A3001=,
20180116_100000.002,0,RJNT,,,,0,20180116100000,-1,-1,-1,-1,180,-1,7,-1,-1,-1,-1,,9999,0,0,3,FEW 40   SCT 50   BKN 60,1,10,1,1,1016,RJNT 161000Z 18007KT 9999 FEW040 SCT050 BKN060 10/01 Q1016 RMK     1SC040 3SC050 6SC060 A3001=,
20180116_110000.004,0,RJNT,,,,0,20180116110000,-1,-1,-1,-1,180,-1,10,-1,-1,-1,-1,,9999,0,0,3,FEW 40   SCT 50   BKN 60,1,11,1,1,1016,RJNT 161100Z 18010KT 9999 FEW040 SCT050 BKN060 11/01 Q1016 RMK     1SC040 3SC050 6SC060 A3002=,
20180116_120000.002,0,RJNT,,,,0,20180116120000,-1,-1,-1,-1,190,-1,8,-1,-1,-1,-1,,9999,0,1,3,FEW 30   SCT 40   BKN 50,1,9,1,2,1017,RJNT 161200Z 19008KT 9999 -SHRA FEW030 SCT040 BKN050 09/02     Q1017 RMK 1CU030 3SC040 6SC050 A3003=,- RA SH
20180116_220000.002,0,RJNT,,,,0,20180116220000,-1,-1,-1,-1,999,-1,1,-1,-1,-1,-1,,3000,0,2,3,FEW 3   SCT 20   BKN 50,1,4,1,3,1015,RJNT 162200Z VRB01KT 3000 -SHRA BR FEW003 SCT020 BKN050 04/03     Q1015 RMK 2ST003 4CU020 7SC050 A2999=,- RA SH; BR
20180116_230000.002,0,RJNT,,,,0,20180116230000,-1,-1,-1,-1,999,-1,1,-1,-1,-1,-1,,4000,0,2,3,FEW 3   SCT 15   BKN 50,1,4,1,4,1015,RJNT 162300Z VRB01KT 4000 -SHRA BR FEW003 SCT015 BKN050 04/04     Q1015 RMK 1ST003 3CU015 7SC050 A2998=,- RA SH; BR
20180117_000000.002,0,RJNT,,,,0,20180117000000,-1,-1,-1,-1,999,-1,1,-1,-1,-1,-1,,3000,0,2,3,SCT 3   BKN 8   BKN 50,1,3,1,3,1014,RJNT 170000Z VRB01KT 3000 -SHRA BR SCT003 BKN008 BKN050 03/03     Q1014 RMK 3ST003 5CU008 7SC050 A2995=,- RA SH; BR
20180117_010000.002,0,RJNT,,,,0,20180117010000,-1,-1,-1,-1,999,-1,1,-1,-1,-1,-1,,2400,0,2,3,SCT 3   BKN 10   BKN 60,1,4,1,4,1013,RJNT 170100Z VRB01KT 2400 -SHRA BR SCT003 BKN010 BKN060 04/04     Q1013 RMK 3ST003 5CU010 7SC060 A2993=,- RA SH; BR
20180117_020000.004,0,RJNT,,,,0,20180117020000,-1,-1,-1,-1,999,-1,2,-1,-1,-1,-1,,2000,0,2,3,SCT 2   BKN 8   BKN 50,1,4,1,4,1012,RJNT 170200Z VRB02KT 2000 -SHRA BR SCT002 BKN008 BKN050 04/04     Q1012 RMK 3ST002 5CU008 7SC050 A2990=,- RA SH; BR
20180117_030000.002,0,RJNT,,,,0,20180117030000,-1,-1,-1,-1,190,-1,3,-1,-1,-1,-1,,4000,0,2,3,FEW 3   BKN 10   BKN 60,1,5,1,5,1011,RJNT 170300Z 19003KT 4000 -SHRA BR FEW003 BKN010 BKN060 05/05     Q1011 RMK 1ST003 5CU010 7SC060 A2985=,- RA SH; BR
20180117_040000.003,0,RJNT,,,,0,20180117040000,-1,-1,-1,-1,220,-1,3,-1,-1,-1,-1,,2000,0,2,3,FEW 3   BKN 10   BKN 60,1,5,1,5,1010,RJNT 170400Z 22003KT 2000 -SHRA BR FEW003 BKN010 BKN060 05/05     Q1010 RMK 2ST003 5CU010 7SC060 A2983=,- RA SH; BR
20180117_050000.003,0,RJNT,,,,0,20180117050000,-1,-1,-1,-1,220,-1,3,-1,-1,-1,-1,,2500,0,2,3,SCT 3   BKN 5   BKN 60,1,5,1,5,1008,RJNT 170500Z 22003KT 2500 -SHRA BR SCT003 BKN005 BKN060 05/05     Q1008 RMK 3ST003 5ST005 6SC060 A2979=,- RA SH; BR
20180117_060000.002,0,RJNT,,,,0,20180117060000,-1,-1,-1,-1,999,-1,1,-1,-1,-1,-1,,800,0,2,3,SCT 3   BKN 5   BKN 60,1,5,1,5,1008,RJNT 170600Z VRB01KT 0800 -SHRA FG SCT003 BKN005 BKN060 05/05     Q1008 RMK 3ST003 5ST005 6SC060 A2978=,- RA SH; FG
20180117_070000.002,0,RJNT,,,,0,20180117070000,-1,-1,-1,-1,999,-1,1,-1,-1,-1,-1,,1200,0,2,3,SCT 3   BKN 6   BKN 50,1,6,1,5,1008,RJNT 170700Z VRB01KT 1200 -SHRA BR SCT003 BKN006 BKN050 06/05     Q1008 RMK 3ST003 5ST006 6SC050 A2977=,- RA SH; BR
20180117_080000.002,0,RJNT,,,,0,20180117080000,-1,-1,-1,-1,200,-1,2,-1,-1,-1,-1,,2500,0,2,3,FEW 1   SCT 5   BKN 10,1,5,1,5,1008,RJNT 170800Z 20002KT 2500 -SHRA BR FEW001 SCT005 BKN010 05/05     Q1008 RMK 1ST001 3ST005 5CU010 A2977=,- RA SH; BR
20180117_090000.003,0,RJNT,,,,0,20180117090000,-1,-1,-1,-1,999,-1,1,-1,-1,-1,-1,,2500,0,2,3,FEW 3   BKN 5   BKN 7,1,5,1,5,1008,RJNT 170900Z VRB01KT 2500 -SHRA BR FEW003 BKN005 BKN007 05/05     Q1008 RMK 2ST003 5CU005 6CU007 A2979=,- RA SH; BR
20180117_100000.002,0,RJNT,,,,0,20180117100000,-1,-1,-1,-1,200,-1,4,-1,-1,-1,-1,,3500,0,2,3,FEW 3   SCT 4   BKN 6,1,5,1,5,1009,RJNT 171000Z 20004KT 3500 -SHRA BR FEW003 SCT004 BKN006 05/05     Q1009 RMK 1ST003 3ST004 5CU006 A2980=,- RA SH; BR
20180117_110000.003,0,RJNT,,,,0,20180117110000,-1,-1,-1,-1,290,-1,3,-1,-1,270,30,,3000,0,2,3,FEW 3   SCT 5   BKN 7,1,5,1,5,1010,RJNT 171100Z 29003KT 270V030 3000 -SHRA BR FEW003 SCT005     BKN007 05/05 Q1010 RMK 1ST003 3ST005 5CU007 A2984=,- RA SH; BR
20180117_120000.003,0,RJNT,,,,0,20180117120000,-1,-1,-1,-1,260,-1,5,-1,-1,-1,-1,,4000,0,2,3,FEW 6   SCT 8   BKN 10,1,5,1,5,1012,RJNT 171200Z 26005KT 4000 -SHRA BR FEW006 SCT008 BKN010 05/05     Q1012 RMK 1ST006 3CU008 5CU010 A2989 P/RR=,- RA SH; BR
20180117_220000.003,0,RJNT,,,,0,20180117220000,-1,-1,-1,-1,170,-1,3,-1,-1,130,210,,9999,0,0,3,FEW 2   SCT 30   BKN 40,1,4,1,4,1017,RJNT 172200Z 17003KT 130V210 9999 FEW002 SCT030 BKN040 04/04     Q1017 RMK 1ST002 3SC030 6SC040 A3005=,
20180117_230000.002,0,RJNT,,,,0,20180117230000,-1,-1,-1,-1,999,-1,1,-1,-1,-1,-1,,9999,0,0,2,FEW 30   BKN 50,1,5,1,4,1017,RJNT 172300Z VRB01KT 9999 FEW030 BKN050 05/04 Q1017 RMK 1CU030     5SC050 A3003=,
20180118_000000.002,0,RJNT,,,,0,20180118000000,-1,-1,-1,-1,270,-1,4,-1,-1,-1,-1,,9999,0,0,2,SCT 60   BKN -9999,1,5,1,4,1017,RJNT 180000Z 27004KT 9999 SCT060 BKN/// 05/04 Q1017 RMK 3SC060     A3004=,
20180118_010000.002,0,RJNT,,,,0,20180118010000,-1,-1,-1,-1,230,-1,4,-1,-1,-1,-1,,9999,0,0,3,FEW 30   SCT 60   BKN -9999,1,8,1,5,1017,RJNT 180100Z 23004KT 9999 FEW030 SCT060 BKN/// 08/05 Q1017 RMK     1CU030 3SC060 A3004=,
20180118_020000.002,0,RJNT,,,,0,20180118020000,-1,-1,-1,-1,999,-1,2,-1,-1,-1,-1,,9999,0,1,3,FEW 20   SCT 30   BKN 40,1,9,1,6,1017,RJNT 180200Z VRB02KT 9999 VCSH FEW020 SCT030 BKN040 09/06     Q1017 RMK 1CU020 3CU030 6SC040 A3003=,VC SH
20180118_030000.003,0,RJNT,,,,0,20180118030000,-1,-1,-1,-1,190,-1,4,-1,-1,160,230,,9999,0,0,2,FEW 30   BKN 60,1,10,1,5,1016,RJNT 180300Z 19004KT 160V230 9999 FEW030 BKN060 10/05 Q1016     RMK 1CU030 6SC060 A3001=,
20180118_040000.002,0,RJNT,,,,0,20180118040000,-1,-1,-1,-1,999,-1,1,-1,-1,-1,-1,,9999,0,0,2,FEW 30   BKN 70,1,12,1,4,1015,RJNT 180400Z VRB01KT 9999 FEW030 BKN070 12/04 Q1015 RMK 1CU030     6AC070 A2999=,
20180118_050000.002,0,RJNT,,,,0,20180118050000,-1,-1,-1,-1,240,-1,8,-1,-1,-1,-1,,9999,0,0,3,FEW 20   SCT 40   BKN 70,1,12,1,3,1015,RJNT 180500Z 24008KT 9999 FEW020 SCT040 BKN070 12/03 Q1015 RMK     1CU020 3CU040 7AC070 A2999=,
20180118_060000.002,0,RJNT,,,,0,20180118060000,-1,-1,-1,-1,240,-1,11,-1,-1,-1,-1,,6000,0,1,3,FEW 10   SCT 20   BKN 40,1,8,1,5,1017,RJNT 180600Z 24011KT 6000 -SHRA FEW010 SCT020 BKN040 08/05     Q1017 RMK 1CU010 3CU020 7CU040 A3004=,- RA SH
20180118_070000.002,0,RJNT,,,,0,20180118070000,-1,-1,-1,-1,220,-1,7,-1,-1,-1,-1,,9999,0,1,3,FEW 10   SCT 30   BKN 50,1,8,1,6,1018,RJNT 180700Z 22007KT 9999 -SHRA FEW010 SCT030 BKN050 08/06     Q1018 RMK 1CU010 3CU030 7SC050 A3008=,- RA SH
20180118_080000.002,0,RJNT,,,,0,20180118080000,-1,-1,-1,-1,170,-1,4,-1,-1,-1,-1,,9999,0,1,3,FEW 8   SCT 20   BKN 40,1,8,1,6,1019,RJNT 180800Z 17004KT 9999 -SHRA FEW008 SCT020 BKN040 08/06     Q1019 RMK 1CU008 3CU020 7CU040 A3010=,- RA SH
20180118_090000.002,0,RJNT,,,,0,20180118090000,-1,-1,-1,-1,999,-1,2,-1,-1,-1,-1,,7000,0,1,3,FEW 10   BKN 30   BKN 60,1,7,1,6,1019,RJNT 180900Z VRB02KT 7000 -SHRA FEW010 BKN030 BKN060 07/06     Q1019 RMK 2CU010 5CU030 7SC060 A3011=,- RA SH
20180118_100000.002,0,RJNT,,,,0,20180118100000,-1,-1,-1,-1,190,-1,3,-1,-1,150,210,,7000,0,1,3,FEW 10   SCT 30   BKN 60,1,7,1,5,1020,RJNT 181000Z 19003KT 150V210 7000 -SHRA FEW010 SCT030 BKN060     07/05 Q1020 RMK 1CU010 4CU030 6SC060 A3013=,- RA SH
20180118_110000.002,0,RJNT,,,,0,20180118110000,-1,-1,-1,-1,999,-1,2,-1,-1,-1,-1,,5000,0,2,3,FEW 5   SCT 20   BKN 40,1,6,1,5,1020,RJNT 181100Z VRB02KT 5000 -SHRA BR FEW005 SCT020 BKN040 06/05     Q1020 RMK 1ST005 3CU020 7CU040 A3012=,- RA SH; BR
20180118_120000.002,0,RJNT,,,,0,20180118120000,-1,-1,-1,-1,999,-1,2,-1,-1,-1,-1,,5000,0,2,3,FEW 5   BKN 30   BKN 50,1,5,1,4,1020,RJNT 181200Z VRB02KT 5000 -SHRA BR FEW005 BKN030 BKN050 05/04     Q1020 RMK 2ST005 5CU030 7SC050 A3013=,- RA SH; BR
20180118_220000.002,0,RJNT,,,,0,20180118220000,-1,-1,-1,-1,999,-1,2,-1,-1,-1,-1,,9999,0,1,3,FEW 10   SCT 20   BKN 30,1,4,1,2,1023,RJNT 182200Z VRB02KT 9999 -SHRA FEW010 SCT020 BKN030 04/02     Q1023 RMK 1CU010 3CU020 6CU030 A3021=,- RA SH
20180118_230000.003,0,RJNT,,,,0,20180118230000,-1,-1,-1,-1,200,-1,3,-1,-1,-1,-1,,9999,0,0,2,FEW 20   BKN 35,1,4,1,2,1023,RJNT 182300Z 20003KT 9999 FEW020 BKN035 04/02 Q1023 RMK 1CU020     7SC035 A3022=,
20180119_000000.002,0,RJNT,,,,0,20180119000000,-1,-1,-1,-1,999,-1,2,-1,-1,-1,-1,,9999,0,0,3,FEW 20   SCT 30   BKN 40,1,5,1,1,1023,RJNT 190000Z VRB02KT 9999 FEW020 SCT030 BKN040 05/01 Q1023 RMK     1CU020 3SC030 6SC040 A3021=,
20180119_010000.003,0,RJNT,,,,0,20180119010000,-1,-1,-1,-1,350,-1,3,-1,-1,300,70,,9999,0,0,2,FEW 20   BKN 35,1,6,1,1,1023,RJNT 190100Z 35003KT 300V070 9999 FEW020 BKN035 06/01 Q1023     RMK 1CU020 6SC035 A3021=,
20180119_020000.002,0,RJNT,,,,0,20180119020000,-1,-1,-1,-1,40,-1,6,-1,-1,360,90,,9999,0,0,3,FEW 20   SCT 30   BKN 40,1,6,-1,1,1022,RJNT 190200Z 04006KT 360V090 9999 FEW020 SCT030 BKN040 06/M01     Q1022 RMK 1CU020 3CU030 6SC040 A3021=,
20180119_030000.002,0,RJNT,,,,0,20180119030000,-1,-1,-1,-1,30,-1,7,-1,-1,350,70,,9999,0,0,2,FEW 30   BKN 40,1,6,-1,1,1022,RJNT 190300Z 03007KT 350V070 9999 FEW030 BKN040 06/M01 Q1022     RMK 1CU030 7SC040 A3018=,
20180119_040000.002,0,RJNT,,,,0,20180119040000,-1,-1,-1,-1,10,-1,7,-1,-1,-1,-1,,9999,0,0,2,FEW 30   BKN 40,1,6,-1,1,1021,RJNT 190400Z 01007KT 9999 FEW030 BKN040 06/M01 Q1021 RMK     1CU030 7SC040 A3016=,
20180119_050000.003,0,RJNT,,,,0,20180119050000,-1,-1,-1,-1,10,-1,8,-1,-1,-1,-1,,9999,0,0,2,FEW 20   BKN 40,1,6,-1,1,1021,RJNT 190500Z 01008KT 9999 FEW020 BKN040 06/M01 Q1021 RMK     2CU020 7SC040 A3017=,
20180119_060000.002,0,RJNT,,,,0,20180119060000,-1,-1,-1,-1,20,-1,7,-1,-1,-1,-1,,9999,0,0,2,FEW 20   BKN 40,1,6,-1,1,1020,RJNT 190600Z 02007KT 9999 FEW020 BKN040 06/M01 Q1020 RMK     1CU020 7SC040 A3014=,
20180119_070000.002,0,RJNT,,,,0,20180119070000,-1,-1,-1,-1,40,-1,6,-1,-1,10,90,,9999,0,0,2,FEW 20   BKN 50,1,6,-1,1,1020,RJNT 190700Z 04006KT 010V090 9999 FEW020 BKN050 06/M01 Q1020     RMK 1CU020 7SC050 A3012=,
20180119_080000.002,0,RJNT,,,,0,20180119080000,-1,-1,-1,-1,50,-1,4,-1,-1,20,100,,9999,0,0,2,FEW 20   BKN 40,1,6,-1,2,1021,RJNT 190800Z 05004KT 020V100 9999 FEW020 BKN040 06/M02 Q1021     RMK 1CU020 7SC040 A3015=,
20180119_090000.003,0,RJNT,,,,0,20180119090000,-1,-1,-1,-1,80,-1,3,-1,-1,20,140,,9999,0,0,2,FEW 20   BKN 40,1,5,-1,1,1020,RJNT 190900Z 08003KT 020V140 9999 FEW020 BKN040 05/M01 Q1020     RMK 1CU020 7SC040 A3014=,
20180119_100000.002,0,RJNT,,,,0,20180119100000,-1,-1,-1,-1,999,-1,1,-1,-1,-1,-1,,9999,0,0,3,FEW 20   BKN 40   BKN -9999,1,5,-1,1,1020,RJNT 191000Z VRB01KT 9999 FEW020 BKN040 BKN/// 05/M01 Q1020     RMK 1CU020 5CU040 A3013=,
20180119_110000.002,0,RJNT,,,,0,20180119110000,-1,-1,-1,-1,220,-1,3,-1,-1,-1,-1,,9999,0,0,3,FEW 20   SCT 40   BKN -9999,1,3,1,0,1020,RJNT 191100Z 22003KT 9999 FEW020 SCT040 BKN/// 03/00 Q1020 RMK     1CU020 3CU040 A3013=,
20180119_120000.003,0,RJNT,,,,0,20180119120000,-1,-1,-1,-1,190,-1,3,-1,-1,-1,-1,,9999,0,0,2,FEW 20   BKN -9999,1,3,1,0,1020,RJNT 191200Z 19003KT 9999 FEW020 BKN/// 03/00 Q1020 RMK 2CU020     A3013=,
20180119_220000.002,0,RJNT,,,,0,20180119220000,-1,-1,-1,-1,260,-1,4,-1,-1,180,290,,9999,0,0,2,FEW 50   BKN 80,1,0,-1,3,1017,RJNT 192200Z 26004KT 180V290 9999 FEW050 BKN080 00/M03 Q1017     RMK 1SC050 7AC080 A3005=,
20180119_230000.002,0,RJNT,,,,0,20180119230000,-1,-1,-1,-1,170,-1,3,-1,-1,150,220,,9999,0,0,2,FEW 50   BKN 80,1,4,-1,2,1017,RJNT 192300Z 17003KT 150V220 9999 FEW050 BKN080 04/M02 Q1017     RMK 1SC050 6AC080 A3003=,
20180120_000000.002,0,RJNT,,,,0,20180120000000,-1,-1,-1,-1,180,-1,7,-1,-1,140,210,,9999,0,0,2,FEW 50   BKN 80,1,6,-1,2,1017,RJNT 200000Z 18007KT 140V210 9999 FEW050 BKN080 06/M02 Q1017     RMK 1SC050 5AC080 A3004=,
20180120_010000.002,0,RJNT,,,,0,20180120010000,-1,-1,-1,-1,170,-1,4,-1,-1,110,240,,9999,0,0,2,FEW 50   BKN 80,1,9,-1,1,1017,RJNT 200100Z 17004KT 110V240 9999 FEW050 BKN080 09/M01 Q1017     RMK 1SC050 6AC080 A3005=,
20180120_020000.003,0,RJNT,,,,0,20180120020000,-1,-1,-1,-1,280,-1,14,-1,-1,-1,-1,,9999,0,0,2,FEW 30   BKN 50,1,8,1,2,1017,RJNT 200200Z 28014KT 9999 FEW030 BKN050 08/02 Q1017 RMK 1CU030     7SC050 A3006=,
20180120_030000.002,0,RJNT,,,,0,20180120030000,-1,-1,-1,-1,250,-1,6,-1,-1,210,270,,9999,0,1,2,FEW 30   SCT 50,1,9,1,2,1017,RJNT 200300Z 25006KT 210V270 9999 VCSH FEW030 SCT050 09/02     Q1017 RMK 1CU030 4SC050 A3004=,VC SH
20180120_040000.002,0,RJNT,,,,0,20180120040000,-1,-1,-1,-1,290,-1,10,-1,-1,-1,-1,,9999,0,1,3,FEW 20   SCT 30   BKN 50,1,9,1,3,1017,RJNT 200400Z 29010KT 9999 -SHRA FEW020 SCT030 BKN050 09/03     Q1017 RMK 1CU020 3CU030 5SC050 A3005=,- RA SH
20180120_050000.002,0,RJNT,,,,0,20180120050000,-1,-1,-1,-1,260,-1,6,-1,-1,-1,-1,,9999,0,1,3,FEW 20   SCT 30   BKN 50,1,9,1,4,1018,RJNT 200500Z 26006KT 9999 -SHRA FEW020 SCT030 BKN050 09/04     Q1018 RMK 1CU020 3CU030 5SC050 A3007=,- RA SH
20180120_060000.002,0,RJNT,,,,0,20180120060000,-1,-1,-1,-1,290,-1,12,-1,-1,-1,-1,,9999,0,1,3,FEW 20   SCT 30   BKN 40,1,7,1,3,1019,RJNT 200600Z 29012KT 9999 -SHRA FEW020 SCT030 BKN040 07/03     Q1019 RMK 2CU020 4CU030 5CU040 A3009 4000SW=,- RA SH
20180120_070000.002,0,RJNT,,,,0,20180120070000,-1,-1,-1,-1,190,-1,6,-1,-1,160,220,,9999,0,1,3,FEW 10   SCT 20   BKN 70,1,7,1,2,1018,RJNT 200700Z 19006KT 160V220 9999 VCSH FEW010 SCT020 BKN070     07/02 Q1018 RMK 1CU010 3CU020 5AC070 A3009=,VC SH
20180120_080000.002,0,RJNT,,,,0,20180120080000,-1,-1,-1,-1,210,-1,6,-1,-1,-1,-1,,9999,0,1,3,FEW 10   SCT 20   BKN 50,1,7,1,2,1019,RJNT 200800Z 21006KT 9999 -SHRA FEW010 SCT020 BKN050 07/02     Q1019 RMK 1CU010 3CU020 5SC050 A3009=,- RA SH
20180120_090000.002,0,RJNT,,,,0,20180120090000,-1,-1,-1,-1,170,-1,4,-1,-1,100,190,,9999,0,0,3,FEW 10   SCT 50   BKN 70,1,5,1,2,1019,RJNT 200900Z 17004KT 100V190 9999 FEW010 SCT050 BKN070 05/02     Q1019 RMK 1CU010 3SC050 5AC070 A3009=,
20180120_100000.002,0,RJNT,,,,0,20180120100000,-1,-1,-1,-1,190,-1,4,-1,-1,-1,-1,,9999,0,0,3,FEW 10   SCT 50   BKN 150,1,4,1,2,1019,RJNT 201000Z 19004KT 9999 FEW010 SCT050 BKN150 04/02 Q1019 RMK     1CU010 3SC050 5AC150 A3010=,
20180120_110000.002,0,RJNT,,,,0,20180120110000,-1,-1,-1,-1,999,-1,2,-1,-1,-1,-1,,9999,0,0,3,FEW 10   SCT 50   BKN 70,1,4,1,2,1019,RJNT 201100Z VRB02KT 9999 FEW010 SCT050 BKN070 04/02 Q1019 RMK     1CU010 3SC050 5AC070 A3011=,
20180120_120000.002,0,RJNT,,,,0,20180120120000,-1,-1,-1,-1,999,-1,1,-1,-1,-1,-1,,9999,0,0,3,FEW 10   SCT 50   BKN 70,1,4,1,1,1019,RJNT 201200Z VRB01KT 9999 FEW010 SCT050 BKN070 04/01 Q1019 RMK     1CU010 3SC050 6AC070 A3011=,
20180120_220000.002,0,RJNT,,,,0,20180120220000,-1,-1,-1,-1,999,-1,2,-1,-1,-1,-1,,9999,0,0,2,FEW 30   BKN 70,1,4,1,1,1018,RJNT 202200Z VRB02KT 9999 FEW030 BKN070 04/01 Q1018 RMK 1CU030     7AC070 A3007=,
20180120_230000.002,0,RJNT,,,,0,20180120230000,-1,-1,-1,-1,190,-1,5,-1,-1,-1,-1,,9999,0,1,3,FEW 30   SCT 50   BKN 70,1,5,1,0,1018,RJNT 202300Z 19005KT 9999 -SHRA FEW030 SCT050 BKN070 05/00     Q1018 RMK 1CU030 3SC050 5AC070 A3008=,- RA SH
20180121_000000.002,0,RJNT,,,,0,20180121000000,-1,-1,-1,-1,170,-1,4,-1,-1,130,200,,9999,0,1,3,FEW 30   SCT 50   BKN 70,1,5,1,1,1019,RJNT 210000Z 17004KT 130V200 9999 -SHRA FEW030 SCT050 BKN070     05/01 Q1019 RMK 1CU030 3SC050 5AC070 A3009=,- RA SH
20180121_010000.002,0,RJNT,,,,0,20180121010000,-1,-1,-1,-1,320,-1,6,-1,-1,-1,-1,,9999,0,1,3,FEW 25   SCT 40   BKN 50,1,7,1,2,1019,RJNT 210100Z 32006KT 9999 -SHRA FEW025 SCT040 BKN050 07/02     Q1019 RMK 1CU025 3CU040 5SC050 A3009=,- RA SH
20180121_020000.002,0,RJNT,,,,0,20180121020000,-1,-1,-1,-1,999,-1,1,-1,-1,-1,-1,,9999,0,1,3,FEW 25   SCT 50   BKN 70,1,8,1,1,1018,RJNT 210200Z VRB01KT 9999 VCSH FEW025 SCT050 BKN070 08/01     Q1018 RMK 1CU025 3SC050 6AC070 A3007=,VC SH
20180121_030000.002,0,RJNT,,,,0,20180121030000,-1,-1,-1,-1,250,-1,4,-1,-1,200,290,,9999,0,1,3,FEW 25   BKN 40   BKN 70,1,9,1,1,1017,RJNT 210300Z 25004KT 200V290 9999 -SHRA FEW025 BKN040 BKN070     09/01 Q1017 RMK 1CU025 5CU040 7AC070 A3005=,- RA SH
20180121_040000.003,0,RJNT,,,,0,20180121040000,-1,-1,-1,-1,260,-1,7,-1,-1,230,310,,9999,0,1,2,FEW 20   BKN 50,1,9,1,1,1017,RJNT 210400Z 26007KT 230V310 9999 -SHRA FEW020 BKN050 09/01     Q1017 RMK 1CU020 7SC050 A3005=,- RA SH
20180121_050000.002,0,RJNT,,,,0,20180121050000,-1,-1,-1,-1,260,-1,5,-1,-1,220,300,,4000,0,2,4,FEW 10   SCT 20   FEW 20 CB  BKN 30,1,5,1,4,1018,RJNT 210500Z 26005KT 220V300 4000 -SHRA BR FEW010 SCT020     FEW020CB BKN030 05/04 Q1018 RMK 1CU010 4CU020 1CB020           6CU030 A3008 CB 30KM W MOV UNKNOWN=,- RA SH; BR
20180121_060000.002,0,RJNT,,,,0,20180121060000,-1,-1,-1,-1,200,-1,6,-1,-1,-1,-1,,8000,0,1,3,FEW 10   SCT 20   BKN 30,1,5,1,4,1019,RJNT 210600Z 20006KT 8000 -SHRA FEW010 SCT020 BKN030 05/04     Q1019 RMK 1CU010 3CU020 5CU030 A3009 4000E-SE=,- RA SH
20180121_070000.002,0,RJNT,,,,0,20180121070000,-1,-1,-1,-1,340,-1,7,-1,-1,-1,-1,,8000,0,1,3,FEW 5   SCT 12   BKN 20,1,5,1,3,1019,RJNT 210700Z 34007KT 8000 -SHRA FEW005 SCT012 BKN020 05/03     Q1019 RMK 1ST005 3CU012 5CU020 A3010=,- RA SH
20180121_080000.002,0,RJNT,,,,0,20180121080000,-1,-1,-1,-1,350,-1,14,-1,-1,-1,-1,,3000,0,2,3,FEW 5   BKN 8   BKN 12,1,3,1,2,1021,RJNT 210800Z 35014KT 3000 SHRASN BR FEW005 BKN008 BKN012 03/02     Q1021 RMK 1ST005 5CU008 6CU012 A3016 P/RR=,RA SN SH; BR
20180121_090000.002,0,RJNT,,,,0,20180121090000,-1,-1,-1,-1,10,-1,8,-1,-1,-1,-1,,4000,0,2,3,FEW 5   BKN 8   BKN 12,1,3,1,1,1022,RJNT 210900Z 01008KT 4000 -SHRASN BR FEW005 BKN008 BKN012     03/01 Q1022 RMK 1ST005 5CU008 6CU012 A3020=,- RA SN SH; BR
20180121_100000.002,0,RJNT,,,,0,20180121100000,-1,-1,-1,-1,40,-1,7,-1,-1,-1,-1,,5000,0,2,3,FEW 5   SCT 8   BKN 10,1,2,1,1,1023,RJNT 211000Z 04007KT 5000 -SHRASN BR FEW005 SCT008 BKN010     02/01 Q1023 RMK 1ST005 4CU008 5CU010 A3023=,- RA SN SH; BR
20180121_110000.002,0,RJNT,,,,0,20180121110000,-1,-1,-1,-1,110,-1,3,-1,-1,70,170,,3000,0,1,3,FEW 3   BKN 6   BKN 8,1,1,1,0,1023,RJNT 211100Z 11003KT 070V170 3000 -SHSN FEW003 BKN006 BKN008     01/00 Q1023 RMK 1ST003 5CU006 6CU008 A3023=,- SN SH
20180121_120000.002,0,RJNT,,,,0,20180121120000,-1,-1,-1,-1,90,-1,4,-1,-1,50,130,,8000,0,1,3,FEW 3   SCT 6   BKN 10,1,2,1,1,1023,RJNT 211200Z 09004KT 050V130 8000 -SHSN FEW003 SCT006 BKN010     02/01 Q1023 RMK 1ST003 4CU006 5CU010 A3023=,- SN SH
20180121_220000.002,0,RJNT,,,,0,20180121220000,-1,-1,-1,-1,999,-1,2,-1,-1,-1,-1,,9999,0,0,3,FEW 20   SCT 120   BKN 140,1,0,-1,1,1020,RJNT 212200Z VRB02KT 9999 FEW020 SCT120 BKN140 00/M01 Q1020     RMK 1CU020 4AC120 6AC140 A3015=,
20180121_230000.002,0,RJNT,,,,0,20180121230000,-1,-1,-1,-1,180,-1,3,-1,-1,150,210,,9999,0,0,3,FEW 20   SCT 100   BKN 120,1,1,-1,0,1020,RJNT 212300Z 18003KT 150V210 9999 FEW020 SCT100 BKN120 01/M00     Q1020 RMK 1CU020 3AC100 7AC120 A3015=,
20180122_000000.002,0,RJNT,,,,0,20180122000000,-1,-1,-1,-1,999,-1,1,-1,-1,-1,-1,,9999,0,0,3,FEW 20   SCT 100   BKN 120,1,1,-1,0,1019,RJNT 220000Z VRB01KT 9999 FEW020 SCT100 BKN120 01/M00 Q1019     RMK 1CU020 3AC100 7AS120 A3012=,
20180122_010000.002,0,RJNT,,,,0,20180122010000,-1,-1,-1,-1,999,-1,1,-1,-1,-1,-1,,9999,0,0,3,FEW 30   SCT 90   OVC 110,1,2,-1,0,1018,RJNT 220100Z VRB01KT 9999 FEW030 SCT090 OVC110 02/M00 Q1018     RMK 1SC030 3AC090 8AS110 A3009=,
20180122_020000.002,0,RJNT,,,,0,20180122020000,-1,-1,-1,-1,999,-1,1,-1,-1,-1,-1,,9999,0,0,3,FEW 3   SCT 80   BKN 100,1,2,-1,1,1017,RJNT 220200Z VRB01KT 9999 FEW003 SCT080 BKN100 02/M01 Q1017     RMK 1ST003 3AC080 7AS100 A3004=,
20180122_030000.002,0,RJNT,,,,0,20180122030000,-1,-1,-1,-1,999,-1,2,-1,-1,-1,-1,,9999,0,0,3,FEW 3   SCT 80   OVC 100,1,2,-1,1,1015,RJNT 220300Z VRB02KT 9999 FEW003 SCT080 OVC100 02/M01 Q1015     RMK 1ST003 3AC080 8AS100 A2999=,
20180122_040000.002,0,RJNT,,,,0,20180122040000,-1,-1,-1,-1,230,-1,3,-1,-1,200,270,,9999,0,1,3,FEW 5   SCT 50   BKN 80,1,2,-1,0,1014,RJNT 220400Z 23003KT 200V270 9999 -SNRA FEW005 SCT050 BKN080     02/M00 Q1014 RMK 1ST005 3SC050 7AS080 A2994=,- SN RA
20180122_050000.002,0,RJNT,,,,0,20180122050000,-1,-1,-1,-1,999,-1,1,-1,-1,-1,-1,,2000,0,1,3,FEW 5   SCT 10   BKN 15,1,1,-1,1,1013,RJNT 220500Z VRB01KT 2000 -SN FEW005 SCT010 BKN015 01/M01     Q1013 RMK 1ST005 3ST010 6SC015 A2992=,- SN
20180122_060000.003,0,RJNT,,,,0,20180122060000,-1,-1,-1,-1,200,-1,2,-1,-1,-1,-1,,800,0,1,1,VV 4,1,0,-1,0,1012,RJNT 220600Z 20002KT 0800 SN VV004 00/M00 Q1012 RMK A2990=,SN
20180122_070000.002,0,RJNT,,,,0,20180122070000,-1,-1,-1,-1,230,-1,1,-1,-1,-1,-1,,800,0,1,1,VV 4,1,0,1,0,1011,RJNT 220700Z 23001KT 0800 SN VV004 00/00 Q1011 RMK A2988=,SN
20180122_080000.003,0,RJNT,,,,0,20180122080000,-1,-1,-1,-1,230,-1,2,-1,-1,-1,-1,,900,0,1,1,VV 4,1,0,1,0,1012,RJNT 220800Z 23002KT 0900 SN VV004 00/00 Q1012 RMK A2989=,SN
20180122_090000.002,0,RJNT,,,,0,20180122090000,-1,-1,-1,-1,230,-1,2,-1,-1,-1,-1,,2000,0,1,3,FEW 5   SCT 7   BKN 10,1,0,1,0,1012,RJNT 220900Z 23002KT 2000 -SN FEW005 SCT007 BKN010 00/00 Q1012     RMK 1ST005 3ST007 6ST010 A2989=,- SN
20180122_100000.002,0,RJNT,,,,0,20180122100000,-1,-1,-1,-1,999,-1,1,-1,-1,-1,-1,,2500,0,1,3,FEW 5   SCT 8   BKN 15,1,0,1,0,1011,RJNT 221000Z VRB01KT 2500 -SN FEW005 SCT008 BKN015 00/00 Q1011     RMK 1ST005 3ST008 6SC015 A2988=,- SN
20180122_110000.003,0,RJNT,,,,0,20180122110000,-1,-1,-1,-1,0,-1,0,-1,-1,-1,-1,,5000,0,1,3,FEW 5   SCT 20   BKN 30,1,1,1,1,1010,RJNT 221100Z 00000KT 5000 -SNRA FEW005 SCT020 BKN030 01/01     Q1010 RMK 1ST005 3SC020 6SC030 A2985=,- SN RA
20180122_120000.002,0,RJNT,,,,0,20180122120000,-1,-1,-1,-1,300,-1,2,-1,-1,-1,-1,,8000,0,1,3,FEW 5   SCT 50   BKN 60,1,1,1,1,1010,RJNT 221200Z 30002KT 8000 -SNRA FEW005 SCT050 BKN060 01/01     Q1010 RMK 1ST005 3SC050 5SC060 A2983=,- SN RA
20180122_220000.002,0,RJNT,,,,0,20180122220000,-1,-1,-1,-1,180,-1,5,-1,-1,140,280,,9999,0,1,3,FEW 10   SCT 20   BKN 30,1,3,1,1,1005,RJNT 222200Z 18005KT 140V280 9999 -SHRASN FEW010 SCT020 BKN030     03/01 Q1005 RMK 1CU010 3CU020 5CU030 A2969=,- RA SN SH
20180122_230000.003,0,RJNT,,,,0,20180122230000,-1,-1,-1,-1,150,-1,3,-1,-1,110,220,,9999,0,1,4,FEW 3   SCT 20   FEW 20 CB  BKN 30,1,3,1,1,1005,RJNT 222300Z 15003KT 110V220 9999 -SHRA FEW003 SCT020 FEW020CB     BKN030 03/01 Q1005 RMK 1ST003 4CU020 1CB020 5CU030 A2969           CB 40KM W MOV NE=,- RA SH
20180123_000000.002,0,RJNT,,,,0,20180123000000,-1,-1,-1,-1,200,-1,11,-1,-1,170,230,,8000,0,1,4,FEW 3   SCT 10   BKN 20   FEW 20 CB,1,4,1,1,1006,RJNT 230000Z 20011KT 170V230 8000 -SHRA FEW003 SCT010 BKN020     FEW020CB 04/01 Q1006 RMK 1ST003 3CU010 5CU020 1CB020           A2972 CB 40KM NW MOV NE=,- RA SH
20180123_010000.002,0,RJNT,,,,0,20180123010000,-1,-1,-1,-1,190,-1,13,-1,-1,160,230,,9999,0,1,3,FEW 5   SCT 15   BKN 30,1,6,1,1,1006,RJNT 230100Z 19013KT 160V230 9999 -SHRA FEW005 SCT015 BKN030     06/01 Q1006 RMK 1ST005 3CU015 5CU030 A2972=,- RA SH
20180123_020000.002,0,RJNT,,,,0,20180123020000,-1,-1,-1,-1,230,-1,18,-1,32,-1,-1,,8000,0,1,3,FEW 5   SCT 10   BKN 20,1,5,1,1,1005,RJNT 230200Z 23018G32KT 8000 -SHRASNGS FEW005 SCT010 BKN020     05/01 Q1005 RMK 1ST005 3CU010 5CU020 A2969 4000SW-W SMALL           HAIL=,- RA, SN GS SH
20180123_030000.003,0,RJNT,,,,0,20180123030000,-1,-1,-1,-1,250,-1,14,-1,-1,-1,-1,,9999,0,1,4,FEW 5   SCT 10   BKN 20   FEW 20 CB,1,6,1,1,1005,RJNT 230300Z 25014KT 9999 -SHRAGS FEW005 SCT010 BKN020     FEW020CB 06/01 Q1005 RMK 1ST005 3CU010 5CU020 1CB020           A2969 CB 30KM NW MOV NE SMALL HAIL=,- RA GS SH
20180123_040000.003,0,RJNT,,,,0,20180123040000,-1,-1,-1,-1,240,-1,15,-1,-1,-1,-1,,8000,0,1,3,FEW 5   SCT 10   BKN 20,1,4,1,1,1006,RJNT 230400Z 24015KT 8000 -SHRASN FEW005 SCT010 BKN020 04/01     Q1006 RMK 1ST005 3CU010 6CU020 A2972=,- RA SN SH
20180123_050000.002,0,RJNT,,,,0,20180123050000,-1,-1,-1,-1,240,-1,17,-1,28,-1,-1,,7000,0,1,3,FEW 5   SCT 10   BKN 20,1,3,1,0,1007,RJNT 230500Z 24017G28KT 7000 -SHRASN FEW005 SCT010 BKN020     03/00 Q1007 RMK 1CU005 3CU010 5CU020 A2975=,- RA SN SH
20180123_060000.003,0,RJNT,,,,0,20180123060000,-1,-1,-1,-1,250,-1,21,-1,-1,-1,-1,,8000,0,1,3,FEW 5   SCT 20   BKN 30,1,2,-1,0,1008,RJNT 230600Z 25021KT 8000 -SHSN FEW005 SCT020 BKN030 02/M00     Q1008 RMK 1CU005 3CU020 5CU030 A2979=,- SN SH
20180123_070000.002,0,RJNT,,,,0,20180123070000,-1,-1,-1,-1,240,-1,21,-1,-1,-1,-1,,9999,0,1,2,FEW 5   SCT 30,1,2,-1,3,1010,RJNT 230700Z 24021KT 9999 -SHSN FEW005 SCT030 02/M03 Q1010 RMK     1CU005 4CU030 A2983=,- SN SH
20180123_080000.002,0,RJNT,,,,0,20180123080000,-1,-1,-1,-1,230,-1,17,-1,-1,-1,-1,,3000,0,1,3,FEW 5   SCT 10   BKN 20,1,2,-1,3,1010,RJNT 230800Z 23017KT 3000 -SHSN FEW005 SCT010 BKN020 02/M03     Q1010 RMK 1CU005 3CU010 5CU020 A2984=,- SN SH
20180123_090000.002,0,RJNT,,,,0,20180123090000,-1,-1,-1,-1,240,-1,10,-1,-1,210,270,,6000,0,1,3,FEW 5   SCT 10   BKN 15,1,0,-1,1,1011,RJNT 230900Z 24010KT 210V270 6000 -SHSN FEW005 SCT010 BKN015     00/M01 Q1011 RMK 1CU005 3CU010 5CU015 A2986=,- SN SH
20180123_100000.002,0,RJNT,,,,0,20180123100000,-1,-1,-1,-1,190,-1,6,-1,-1,-1,-1,,900,0,1,1,VV 5,-1,0,-1,1,1011,RJNT 231000Z 19006KT 0900 SHSN VV005 M00/M01 Q1011 RMK A2987=,SN SH
20180123_110000.002,0,RJNT,,,,0,20180123110000,-1,-1,-1,-1,240,-1,4,-1,-1,210,280,,1800,0,1,3,FEW 5   SCT 7   BKN 9,-1,0,-1,1,1011,RJNT 231100Z 24004KT 210V280 1800 -SHSN FEW005 SCT007 BKN009     M00/M01 Q1011 RMK 1CU005 3CU007 5CU009 A2987=,- SN SH
20180123_120000.002,0,RJNT,,,,0,20180123120000,-1,-1,-1,-1,200,-1,6,-1,-1,-1,-1,,8000,0,1,3,FEW 5   SCT 20   BKN 30,-1,1,-1,1,1011,RJNT 231200Z 20006KT 8000 -SHSN FEW005 SCT020 BKN030 M01/M01     Q1011 RMK 1CU005 3CU020 5CU030 A2986=,- SN SH
20180123_220000.002,0,RJNT,,,,0,20180123220000,-1,-1,-1,-1,220,-1,12,-1,-1,-1,-1,,3500,0,1,3,FEW 5   SCT 10   BKN 15,-1,1,-1,3,1011,RJNT 232200Z 22012KT 3500 -SHSN FEW005 SCT010 BKN015 M01/M03     Q1011 RMK 1CU005 3CU010 5CU015 A2985=,- SN SH
20180123_230000.002,0,RJNT,,,,0,20180123230000,-1,-1,-1,-1,270,-1,11,-1,-1,-1,-1,,3000,0,1,3,FEW 5   SCT 10   BKN 15,-1,1,-1,3,1011,RJNT 232300Z 27011KT 3000 -SHSN FEW005 SCT010 BKN015 M01/M03     Q1011 RMK 1CU005 3CU010 5CU015 A2987=,- SN SH
20180124_000000.002,0,RJNT,,,,0,20180124000000,-1,-1,-1,-1,230,-1,9,-1,-1,-1,-1,,2000,0,1,3,FEW 5   SCT 7   BKN 9,-1,1,-1,3,1011,RJNT 240000Z 23009KT 2000 -SHSN FEW005 SCT007 BKN009 M01/M03     Q1011 RMK 1CU005 3CU007 5CU009 A2987=,- SN SH
20180124_010000.003,0,RJNT,,,,0,20180124010000,-1,-1,-1,-1,270,-1,16,-1,26,-1,-1,,3500,0,1,3,FEW 5   SCT 10   BKN 15,-1,1,-1,4,1011,RJNT 240100Z 27016G26KT 3500 -SHSN FEW005 SCT010 BKN015     M01/M04 Q1011 RMK 1CU005 3CU010 5CU015 A2987=,- SN SH
20180124_020000.002,0,RJNT,,,,0,20180124020000,-1,-1,-1,-1,250,-1,11,-1,-1,-1,-1,,4500,0,1,3,FEW 5   SCT 10   BKN 15,-1,1,-1,3,1010,RJNT 240200Z 25011KT 4500 -SHSN FEW005 SCT010 BKN015 M01/M03     Q1010 RMK 1CU005 3CU010 5CU015 A2984=,- SN SH
20180124_030000.002,0,RJNT,,,,0,20180124030000,-1,-1,-1,-1,260,-1,13,-1,-1,-1,-1,,200,0,1,1,VV 1,-1,2,-1,3,1010,RJNT 240300Z 26013KT 0200 SHSN VV001 M02/M03 Q1010 RMK A2982=,SN SH
20180124_040000.002,0,RJNT,,,,0,20180124040000,-1,-1,-1,-1,250,-1,15,-1,-1,-1,-1,,300,0,1,1,VV 2,-1,2,-1,3,1009,RJNT 240400Z 25015KT 0300 SHSN VV002 M02/M03 Q1009 RMK A2981=,SN SH
20180124_050000.002,0,RJNT,,,,0,20180124050000,-1,-1,-1,-1,250,-1,18,-1,-1,-1,-1,,100,0,1,1,VV 1,-1,3,-1,4,1009,RJNT 240500Z 25018KT 0100 +SHSNGS VV001 M03/M04 Q1009 RMK     A2982 SNOW PELLETS=,+ SN GS SH
20180124_060000.002,0,RJNT,,,,0,20180124060000,-1,-1,-1,-1,260,-1,13,-1,-1,-1,-1,,2000,0,1,3,FEW 5   SCT 7   BKN 12,-1,3,-1,4,1010,RJNT 240600Z 26013KT 2000 -SHSN FEW005 SCT007 BKN012 M03/M04     Q1010 RMK 1CU005 3CU007 5CU012 A2984=,- SN SH
20180124_070000.002,0,RJNT,,,,0,20180124070000,-1,-1,-1,-1,240,-1,9,-1,-1,210,340,,8000,0,1,3,FEW 5   SCT 10   BKN 25,-1,2,-1,6,1011,RJNT 240700Z 24009KT 210V340 8000 -SHSN FEW005 SCT010 BKN025     M02/M06 Q1011 RMK 1CU005 3CU010 7CU025 A2987=,- SN SH
20180124_080000.002,0,RJNT,,,,0,20180124080000,-1,-1,-1,-1,300,-1,11,-1,-1,-1,-1,,5000,0,1,3,FEW 5   SCT 7   BKN 10,-1,3,-1,5,1012,RJNT 240800Z 30011KT 5000 -SHSN FEW005 SCT007 BKN010 M03/M05     Q1012 RMK 1CU005 3CU007 5CU010 A2989=,- SN SH
20180124_090000.003,0,RJNT,,,,0,20180124090000,-1,-1,-1,-1,270,-1,7,-1,-1,-1,-1,,800,0,1,1,VV 4,-1,4,-1,5,1013,RJNT 240900Z 27007KT 0800 SHSN VV004 M04/M05 Q1013 RMK A2992=,SN SH
20180124_100000.002,0,RJNT,,,,0,20180124100000,-1,-1,-1,-1,220,-1,4,-1,-1,190,270,,600,0,1,1,VV 3,-1,4,-1,4,1013,RJNT 241000Z 22004KT 190V270 0600 SHSN VV003 M04/M04 Q1013 RMK     A2993=,SN SH
20180124_110000.002,0,RJNT,,,,0,20180124110000,-1,-1,-1,-1,290,-1,5,-1,-1,270,330,,1500,0,1,3,FEW 5   SCT 7   BKN 10,-1,4,-1,6,1014,RJNT 241100Z 29005KT 270V330 1500 -SHSN FEW005 SCT007 BKN010     M04/M06 Q1014 RMK 1CU005 3CU007 5CU010 A2995=,- SN SH
20180124_120000.002,0,RJNT,,,,0,20180124120000,-1,-1,-1,-1,999,-1,3,-1,-1,-1,-1,,3000,0,1,3,FEW 5   SCT 7   BKN 25,-1,4,-1,5,1014,RJNT 241200Z VRB03KT 3000 -SHSN FEW005 SCT007 BKN025 M04/M05     Q1014 RMK 1CU005 3CU007 7CU025 A2997=,- SN SH
20180124_220000.002,0,RJNT,,,,0,20180124220000,-1,-1,-1,-1,160,-1,4,-1,-1,120,210,,4000,0,1,3,FEW 5   SCT 10   BKN 20,-1,4,-1,5,1016,RJNT 242200Z 16004KT 120V210 4000 -SHSN FEW005 SCT010 BKN020     M04/M05 Q1016 RMK 1CU005 3CU010 5CU020 A3003=,- SN SH
20180124_230000.002,0,RJNT,,,,0,20180124230000,-1,-1,-1,-1,200,-1,4,-1,-1,140,230,,7000,0,1,3,FEW 5   SCT 20   BKN 30,-1,4,-1,5,1017,RJNT 242300Z 20004KT 140V230 7000 -SHSN FEW005 SCT020 BKN030     M04/M05 Q1017 RMK 1CU005 3CU020 5CU030 A3005=,- SN SH
20180125_000000.002,0,RJNT,,,,0,20180125000000,-1,-1,-1,-1,210,-1,2,-1,-1,-1,-1,,4000,0,1,3,FEW 5   SCT 10   BKN 20,-1,4,-1,5,1017,RJNT 250000Z 21002KT 4000 -SHSN FEW005 SCT010 BKN020 M04/M05     Q1017 RMK 1CU005 3CU010 5CU020 A3005 8000SE-W=,- SN SH
20180125_010000.002,0,RJNT,,,,0,20180125010000,-1,-1,-1,-1,230,-1,3,-1,-1,180,300,,3500,0,1,3,FEW 5   SCT 10   BKN 20,-1,3,-1,5,1018,RJNT 250100Z 23003KT 180V300 3500 -SHSN FEW005 SCT010 BKN020     M03/M05 Q1018 RMK 1CU005 3CU010 5CU020 A3007 7000NW=,- SN SH
20180125_020000.003,0,RJNT,,,,0,20180125020000,-1,-1,-1,-1,260,-1,11,-1,-1,-1,-1,,800,0,1,1,VV 4,-1,3,-1,5,1017,RJNT 250200Z 26011KT 0800 SHSN VV004 M03/M05 Q1017 RMK A3005=,SN SH
20180125_030000.002,0,RJNT,,,,0,20180125030000,-1,-1,-1,-1,230,-1,8,-1,-1,-1,-1,,800,0,1,1,VV 4,-1,3,-1,4,1016,RJNT 250300Z 23008KT 0800 SHSN VV004 M03/M04 Q1016 RMK A3003=,SN SH
20180125_040000.002,0,RJNT,,,,0,20180125040000,-1,-1,-1,-1,250,-1,9,-1,-1,-1,-1,,5000,0,1,3,FEW 5   SCT 10   BKN 30,-1,2,-1,5,1016,RJNT 250400Z 25009KT 5000 -SHSN FEW005 SCT010 BKN030 M02/M05     Q1016 RMK 1CU005 3CU010 5CU030 A3001=,- SN SH
20180125_050000.002,0,RJNT,,,,0,20180125050000,-1,-1,-1,-1,230,-1,10,-1,-1,-1,-1,,4000,0,1,3,FEW 5   SCT 10   BKN 15,-1,3,-1,4,1016,RJNT 250500Z 23010KT 4000 -SHSN FEW005 SCT010 BKN015 M03/M04     Q1016 RMK 1CU005 3CU010 5CU015 A3000=,- SN SH
20180125_060000.002,0,RJNT,,,,0,20180125060000,-1,-1,-1,-1,260,-1,8,-1,-1,230,300,,3000,0,1,3,FEW 5   SCT 7   BKN 10,-1,2,-1,4,1016,RJNT 250600Z 26008KT 230V300 3000 -SHSN FEW005 SCT007 BKN010     M02/M04 Q1016 RMK 1CU005 3CU007 5CU010 A3001=,- SN SH
20180125_070000.002,0,RJNT,,,,0,20180125070000,-1,-1,-1,-1,250,-1,8,-1,-1,230,290,,1200,0,1,1,VV 5,-1,2,-1,5,1016,RJNT 250700Z 25008KT 230V290 1200 -SHSN VV005 M02/M05 Q1016     RMK A3002=,- SN SH
20180125_080000.002,0,RJNT,,,,0,20180125080000,-1,-1,-1,-1,250,-1,5,-1,-1,210,300,,6000,0,1,3,FEW 5   SCT 7   BKN 30,-1,3,-1,5,1016,RJNT 250800Z 25005KT 210V300 6000 -SHSN FEW005 SCT007 BKN030     M03/M05 Q1016 RMK 1CU005 3CU007 5CU030 A3002=,- SN SH
20180125_090000.002,0,RJNT,,,,0,20180125090000,-1,-1,-1,-1,999,-1,2,-1,-1,-1,-1,,800,0,1,1,VV 4,-1,3,-1,4,1016,RJNT 250900Z VRB02KT 0800 SHSN VV004 M03/M04 Q1016 RMK A3000=,SN SH
20180125_100000.003,0,RJNT,,,,0,20180125100000,-1,-1,-1,-1,160,-1,3,-1,-1,90,240,,8000,0,1,3,FEW 5   SCT 7   BKN 35,-1,4,-1,4,1015,RJNT 251000Z 16003KT 090V240 8000 -SHSN FEW005 SCT007 BKN035     M04/M04 Q1015 RMK 1CU005 3CU007 6CU035 A2999=,- SN SH
20180125_110000.003,0,RJNT,,,,0,20180125110000,-1,-1,-1,-1,160,-1,4,-1,-1,100,200,,6000,0,1,3,FEW 5   SCT 7   BKN 35,-1,3,-1,4,1015,RJNT 251100Z 16004KT 100V200 6000 -SHSN FEW005 SCT007 BKN035     M03/M04 Q1015 RMK 1CU005 4CU007 5CU035 A2998=,- SN SH
20180125_120000.002,0,RJNT,,,,0,20180125120000,-1,-1,-1,-1,160,-1,5,-1,-1,100,200,,9999,0,1,3,FEW 5   SCT 7   BKN 30,-1,3,-1,5,1014,RJNT 251200Z 16005KT 100V200 9999 -SHSN FEW005 SCT007 BKN030     M03/M05 Q1014 RMK 1CU005 3CU007 7CU030 A2995=,- SN SH
20180125_220000.002,0,RJNT,,,,0,20180125220000,-1,-1,-1,-1,999,-1,1,-1,-1,-1,-1,,1000,0,1,1,VV 5,-1,3,-1,3,1013,RJNT 252200Z VRB01KT 1000 -SHSN VV005 M03/M03 Q1013 RMK A2991=,- SN SH
20180125_230000.002,0,RJNT,,,,0,20180125230000,-1,-1,-1,-1,999,-1,2,-1,-1,-1,-1,,2000,0,1,3,FEW 5   BKN 8   BKN 15,-1,3,-1,3,1013,RJNT 252300Z VRB02KT 2000 -SHSN FEW005 BKN008 BKN015 M03/M03     Q1013 RMK 2CU005 5CU008 5CU015 A2993=,- SN SH
20180126_000000.002,0,RJNT,,,,0,20180126000000,-1,-1,-1,-1,999,-1,2,-1,-1,-1,-1,,1500,0,1,3,FEW 5   SCT 8   BKN 10,-1,3,-1,4,1013,RJNT 260000Z VRB02KT 1500 -SHSN FEW005 SCT008 BKN010 M03/M04     Q1013 RMK 1CU005 3CU008 5CU010 A2994=,- SN SH
20180126_010000.002,0,RJNT,,,,0,20180126010000,-1,-1,-1,-1,999,-1,1,-1,-1,-1,-1,,4000,0,1,3,FEW 5   SCT 10   BKN 15,-1,3,-1,4,1014,RJNT 260100Z VRB01KT 4000 -SHSN FEW005 SCT010 BKN015 M03/M04     Q1014 RMK 1CU005 3CU010 5CU015 A2994=,- SN SH
20180126_020000.002,0,RJNT,,,,0,20180126020000,-1,-1,-1,-1,999,-1,1,-1,-1,-1,-1,,8000,0,1,3,FEW 5   SCT 8   BKN 20,-1,3,-1,4,1014,RJNT 260200Z VRB01KT 8000 -SHSN FEW005 SCT008 BKN020 M03/M04     Q1014 RMK 1CU005 3CU008 6CU020 A2994=,- SN SH
20180126_030000.002,0,RJNT,,,,0,20180126030000,-1,-1,-1,-1,120,-1,6,-1,-1,50,190,,8000,0,1,3,FEW 5   SCT 8   BKN 25,-1,3,-1,4,1013,RJNT 260300Z 12006KT 050V190 8000 -SHSN FEW005 SCT008 BKN025     M03/M04 Q1013 RMK 1CU005 3CU008 6CU025 A2992=,- SN SH
20180126_040000.002,0,RJNT,,,,0,20180126040000,-1,-1,-1,-1,70,-1,4,-1,-1,10,130,,9999,0,1,3,FEW 5   SCT 15   BKN 25,-1,2,-1,6,1012,RJNT 260400Z 07004KT 010V130 9999 -SHSN FEW005 SCT015 BKN025     M02/M06 Q1012 RMK 1CU005 3CU015 6CU025 A2991=,- SN SH
20180126_050000.002,0,RJNT,,,,0,20180126050000,-1,-1,-1,-1,290,-1,7,-1,-1,230,340,,9999,0,1,3,FEW 5   SCT 15   BKN 25,-1,1,-1,6,1013,RJNT 260500Z 29007KT 230V340 9999 -SHSN FEW005 SCT015 BKN025     M01/M06 Q1013 RMK 1CU005 3CU015 6CU025 A2992=,- SN SH
20180126_060000.002,0,RJNT,,,,0,20180126060000,-1,-1,-1,-1,270,-1,3,-1,-1,220,310,,9999,0,1,3,FEW 5   SCT 15   BKN 20,-1,2,-1,5,1013,RJNT 260600Z 27003KT 220V310 9999 -SHSN FEW005 SCT015 BKN020     M02/M05 Q1013 RMK 1CU005 3CU015 5CU020 A2994=,- SN SH
20180126_070000.002,0,RJNT,,,,0,20180126070000,-1,-1,-1,-1,250,-1,11,-1,-1,-1,-1,,400,0,1,1,VV 2,-1,3,-1,4,1014,RJNT 260700Z 25011KT 0400 SHSN VV002 M03/M04 Q1014 RMK A2995=,SN SH
20180126_080000.003,0,RJNT,,,,0,20180126080000,-1,-1,-1,-1,280,-1,4,-1,-1,250,330,,600,0,1,1,VV 3,-1,3,-1,4,1014,RJNT 260800Z 28004KT 250V330 0600 SHSN VV003 M03/M04 Q1014 RMK     A2996=,SN SH
20180126_090000.002,0,RJNT,,,,0,20180126090000,-1,-1,-1,-1,130,-1,3,-1,-1,100,190,,6000,0,1,3,FEW 3   SCT 8   BKN 20,-1,4,-1,5,1014,RJNT 260900Z 13003KT 100V190 6000 -SHSN FEW003 SCT008 BKN020     M04/M05 Q1014 RMK 1ST003 3CU008 5CU020 A2997=,- SN SH
20180126_100000.002,0,RJNT,,,,0,20180126100000,-1,-1,-1,-1,999,-1,2,-1,-1,-1,-1,,4000,0,1,3,FEW 3   SCT 8   BKN 12,-1,4,-1,4,1015,RJNT 261000Z VRB02KT 4000 -SHSN FEW003 SCT008 BKN012 M04/M04     Q1015 RMK 1ST003 3CU008 5CU012 A2999=,- SN SH
20180126_110000.002,0,RJNT,,,,0,20180126110000,-1,-1,-1,-1,180,-1,5,-1,-1,-1,-1,,1000,0,1,1,VV 5,-1,4,-1,4,1015,RJNT 261100Z 18005KT 1000 -SHSN VV005 M04/M04 Q1015 RMK A3000=,- SN SH
20180126_120000.002,0,RJNT,,,,0,20180126120000,-1,-1,-1,-1,150,-1,3,-1,-1,80,220,,6000,0,1,3,FEW 3   SCT 8   BKN 15,-1,4,-1,4,1016,RJNT 261200Z 15003KT 080V220 6000 -SHSN FEW003 SCT008 BKN015     M04/M04 Q1016 RMK 1ST003 3CU008 5CU015 A3000=,- SN SH
20180126_220000.002,0,RJNT,,,,0,20180126220000,-1,-1,-1,-1,999,-1,2,-1,-1,-1,-1,,800,0,1,1,VV 4,-1,2,-1,3,1020,RJNT 262200Z VRB02KT 0800 SHSN VV004 M02/M03 Q1020 RMK A3013=,SN SH
20180126_230000.002,0,RJNT,,,,0,20180126230000,-1,-1,-1,-1,160,-1,3,-1,-1,120,210,,600,0,1,1,VV 3,-1,2,-1,2,1020,RJNT 262300Z 16003KT 120V210 0600 SHSN VV003 M02/M02 Q1020 RMK     A3014=,SN SH
20180127_000000.002,0,RJNT,,,,0,20180127000000,-1,-1,-1,-1,220,-1,3,-1,-1,-1,-1,,800,0,1,1,VV 4,-1,2,-1,2,1021,RJNT 270000Z 22003KT 0800 SHSN VV004 M02/M02 Q1021 RMK A3016=,SN SH
20180127_010000.002,0,RJNT,,,,0,20180127010000,-1,-1,-1,-1,110,-1,3,-1,-1,80,150,,2500,0,1,3,FEW 5   SCT 8   BKN 15,-1,1,-1,2,1021,RJNT 270100Z 11003KT 080V150 2500 -SHSN FEW005 SCT008 BKN015     M01/M02 Q1021 RMK 1CU005 3CU008 7CU015 A3018=,- SN SH
20180127_020000.002,0,RJNT,,,,0,20180127020000,-1,-1,-1,-1,180,-1,3,-1,-1,110,210,,2500,0,1,3,FEW 5   BKN 7   BKN 10,-1,1,-1,2,1022,RJNT 270200Z 18003KT 110V210 2500 -SHSN FEW005 BKN007 BKN010     M01/M02 Q1022 RMK 2CU005 5CU007 5CU010 A3018=,- SN SH
20180127_030000.002,0,RJNT,,,,0,20180127030000,-1,-1,-1,-1,280,-1,3,-1,-1,240,330,,1200,0,1,1,VV 5,-1,1,-1,2,1022,RJNT 270300Z 28003KT 240V330 1200 -SHSN VV005 M01/M02 Q1022     RMK A3018=,- SN SH
20180127_040000.002,0,RJNT,,,,0,20180127040000,-1,-1,-1,-1,200,-1,5,-1,-1,160,230,,800,0,1,1,VV 4,-1,0,-1,1,1022,RJNT 270400Z 20005KT 160V230 0800 SHSN VV004 M00/M01 Q1022 RMK     A3018=,SN SH
20180127_050000.002,0,RJNT,,,,0,20180127050000,-1,-1,-1,-1,999,-1,1,-1,-1,-1,-1,,6000,0,1,3,FEW 3   SCT 8   BKN 20,-1,0,-1,1,1022,RJNT 270500Z VRB01KT 6000 -SHSN FEW003 SCT008 BKN020 M00/M01     Q1022 RMK 1ST003 3CU008 5CU020 A3019=,- SN SH
20180127_060000.002,0,RJNT,,,,0,20180127060000,-1,-1,-1,-1,270,-1,5,-1,-1,210,350,,800,0,1,1,VV 4,-1,1,-1,2,1023,RJNT 270600Z 27005KT 210V350 0800 SHSN VV004 M01/M02 Q1023 RMK     A3021=,SN SH
20180127_070000.002,0,RJNT,,,,0,20180127070000,-1,-1,-1,-1,230,-1,3,-1,-1,-1,-1,,9999,0,1,3,FEW 3   SCT 10   BKN 30,-1,1,-1,3,1023,RJNT 270700Z 23003KT 9999 -SHSN FEW003 SCT010 BKN030 M01/M03     Q1023 RMK 1ST003 3CU010 5CU030 A3021=,- SN SH
20180127_080000.002,0,RJNT,,,,0,20180127080000,-1,-1,-1,-1,180,-1,4,-1,-1,-1,-1,,2000,0,1,3,FEW 3   SCT 8   BKN 12,-1,1,-1,3,1023,RJNT 270800Z 18004KT 2000 -SHSN FEW003 SCT008 BKN012 M01/M03     Q1023 RMK 1ST003 3CU008 5CU012 A3023=,- SN SH
20180127_090000.003,0,RJNT,,,,0,20180127090000,-1,-1,-1,-1,140,-1,3,-1,-1,90,210,,6000,0,1,3,FEW 3   SCT 10   BKN 30,-1,2,-1,3,1024,RJNT 270900Z 14003KT 090V210 6000 -SHSN FEW003 SCT010 BKN030     M02/M03 Q1024 RMK 1ST003 3CU010 5CU030 A3024=,- SN SH
20180127_100000.002,0,RJNT,,,,0,20180127100000,-1,-1,-1,-1,120,-1,3,-1,-1,-1,-1,,9999,0,1,3,FEW 10   SCT 20   BKN 30,-1,2,-1,4,1024,RJNT 271000Z 12003KT 9999 -SHSN FEW010 SCT020 BKN030 M02/M04     Q1024 RMK 1CU010 3CU020 5CU030 A3025=,- SN SH
20180127_110000.002,0,RJNT,,,,0,20180127110000,-1,-1,-1,-1,200,-1,4,-1,-1,-1,-1,,9999,0,1,3,FEW 5   SCT 15   BKN 30,-1,2,-1,3,1023,RJNT 271100Z 20004KT 9999 -SHSN FEW005 SCT015 BKN030 M02/M03     Q1023 RMK 1CU005 3CU015 5CU030 A3023=,- SN SH
20180127_120000.002,0,RJNT,,,,0,20180127120000,-1,-1,-1,-1,190,-1,5,-1,-1,160,230,,9999,0,1,3,FEW 5   SCT 20   BKN 40,-1,2,-1,4,1023,RJNT 271200Z 19005KT 160V230 9999 -SHSN FEW005 SCT020 BKN040     M02/M04 Q1023 RMK 1CU005 3CU020 5CU040 A3023=,- SN SH
20180127_220000.002,0,RJNT,,,,0,20180127220000,-1,-1,-1,-1,999,-1,1,-1,-1,-1,-1,,9999,0,0,3,FEW 20   SCT 150   BKN 170,-1,4,-1,8,1020,RJNT 272200Z VRB01KT 9999 FEW020 SCT150 BKN170 M04/M08 Q1020     RMK 1CU020 3AC150 7AC170 A3014=,
20180127_230000.002,0,RJNT,,,,0,20180127230000,-1,-1,-1,-1,999,-1,2,-1,-1,-1,-1,,9999,0,0,3,FEW 20   SCT 130   BKN 150,-1,3,-1,7,1020,RJNT 272300Z VRB02KT 9999 FEW020 SCT130 BKN150 M03/M07 Q1020     RMK 1CU020 3AC130 6AC150 A3014=,
20180128_000000.003,0,RJNT,,,,0,20180128000000,-1,-1,-1,-1,200,-1,4,-1,-1,150,220,,9999,0,0,3,FEW 20   SCT 130   BKN 150,-1,2,-1,7,1019,RJNT 280000Z 20004KT 150V220 9999 FEW020 SCT130 BKN150 M02/M07     Q1019 RMK 1CU020 4AC130 6AC150 A3010=,
20180128_010000.002,0,RJNT,,,,0,20180128010000,-1,-1,-1,-1,160,-1,3,-1,-1,100,210,,9999,0,0,3,FEW 20   SCT 120   BKN 150,-1,1,-1,6,1018,RJNT 280100Z 16003KT 100V210 9999 FEW020 SCT120 BKN150 M01/M06     Q1018 RMK 1CU020 3AC120 7AC150 A3007=,
20180128_020000.002,0,RJNT,,,,0,20180128020000,-1,-1,-1,-1,140,-1,3,-1,-1,80,210,,9999,0,0,3,FEW 20   BKN 110   BKN 130,1,0,-1,6,1017,RJNT 280200Z 14003KT 080V210 9999 FEW020 BKN110 BKN130 00/M06     Q1017 RMK 1CU020 5AC110 7AC130 A3005=,
20180128_030000.002,0,RJNT,,,,0,20180128030000,-1,-1,-1,-1,160,-1,6,-1,-1,110,200,,9999,0,0,3,FEW 20   SCT 80   BKN 100,1,0,-1,5,1015,RJNT 280300Z 16006KT 110V200 9999 FEW020 SCT080 BKN100 00/M05     Q1015 RMK 1CU020 3AC080 7AC100 A2999 P/FR=,
20180128_040000.002,0,RJNT,,,,0,20180128040000,-1,-1,-1,-1,180,-1,9,-1,-1,-1,-1,,9999,0,1,3,FEW 20   SCT 50   BKN 80,1,2,-1,5,1013,RJNT 280400Z 18009KT 9999 -SHSN FEW020 SCT050 BKN080 02/M05     Q1013 RMK 1CU020 3SC050 6AC080 A2993=,- SN SH
20180128_050000.002,0,RJNT,,,,0,20180128050000,-1,-1,-1,-1,170,-1,8,-1,-1,-1,-1,,9999,0,1,3,FEW 30   SCT 50   BKN 60,1,4,-1,3,1012,RJNT 280500Z 17008KT 9999 -SHSN FEW030 SCT050 BKN060 04/M03     Q1012 RMK 1CU030 3SC050 6SC060 A2990=,- SN SH
20180128_060000.002,0,RJNT,,,,0,20180128060000,-1,-1,-1,-1,170,-1,4,-1,-1,120,210,,9999,0,1,3,FEW 10   SCT 20   BKN 30,1,4,-1,2,1012,RJNT 280600Z 17004KT 120V210 9999 -SHSN FEW010 SCT020 BKN030     04/M02 Q1012 RMK 1CU010 3CU020 5CU030 A2990=,- SN SH
20180128_070000.003,0,RJNT,,,,0,20180128070000,-1,-1,-1,-1,170,-1,4,-1,-1,130,190,,9999,0,1,3,FEW 30   SCT 40   BKN 50,1,3,-1,2,1012,RJNT 280700Z 17004KT 130V190 9999 VCSH FEW030 SCT040 BKN050     03/M02 Q1012 RMK 1CU030 3SC040 6SC050 A2989=,VC SH
20180128_080000.002,0,RJNT,,,,0,20180128080000,-1,-1,-1,-1,180,-1,8,-1,-1,-1,-1,,9999,0,0,3,FEW 50   SCT 70   BKN 80,1,4,-1,2,1012,RJNT 280800Z 18008KT 9999 FEW050 SCT070 BKN080 04/M02 Q1012     RMK 1SC050 3AC070 6AC080 A2988=,
20180128_090000.002,0,RJNT,,,,0,20180128090000,-1,-1,-1,-1,190,-1,9,-1,-1,-1,-1,,9999,0,0,3,FEW 30   SCT 60   BKN 70,1,4,-1,2,1011,RJNT 280900Z 19009KT 9999 FEW030 SCT060 BKN070 04/M02 Q1011     RMK 1CU030 3SC060 6AC070 A2987=,
20180128_100000.002,0,RJNT,,,,0,20180128100000,-1,-1,-1,-1,190,-1,10,-1,-1,-1,-1,,9999,0,1,3,FEW 20   SCT 30   BKN 60,1,4,-1,2,1011,RJNT 281000Z 19010KT 9999 -SHRASN FEW020 SCT030 BKN060 04/M02     Q1011 RMK 1CU020 3CU030 6SC060 A2987=,- RA SN SH
20180128_110000.002,0,RJNT,,,,0,20180128110000,-1,-1,-1,-1,190,-1,7,-1,-1,-1,-1,,9999,0,1,3,FEW 20   SCT 30   BKN 50,1,3,-1,2,1011,RJNT 281100Z 19007KT 9999 -SHRASN FEW020 SCT030 BKN050 03/M02     Q1011 RMK 1CU020 3CU030 6SC050 A2987=,- RA SN SH
20180128_120000.002,0,RJNT,,,,0,20180128120000,-1,-1,-1,-1,190,-1,9,-1,-1,-1,-1,,9999,0,1,3,FEW 20   SCT 30   BKN 50,1,4,-1,2,1011,RJNT 281200Z 19009KT 9999 -SHRASN FEW020 SCT030 BKN050 04/M02     Q1011 RMK 1CU020 3CU030 6SC050 A2987=,- RA SN SH
20180128_220000.003,0,RJNT,,,,0,20180128220000,-1,-1,-1,-1,260,-1,2,-1,-1,-1,-1,,1500,0,1,1,VV 8,1,0,1,0,1011,RJNT 282200Z 26002KT 1500 -SHSN VV008 00/00 Q1011 RMK A2986=,- SN SH
20180128_230000.002,0,RJNT,,,,0,20180128230000,-1,-1,-1,-1,999,-1,1,-1,-1,-1,-1,,800,0,1,1,VV 4,1,0,1,0,1011,RJNT 282300Z VRB01KT 0800 SHSN VV004 00/00 Q1011 RMK A2987=,SN SH
20180129_000000.003,0,RJNT,,,,0,20180129000000,-1,-1,-1,-1,260,-1,3,-1,-1,120,280,,800,0,1,1,VV 4,1,0,1,0,1012,RJNT 290000Z 26003KT 120V280 0800 SHSN VV004 00/00 Q1012 RMK     A2989=,SN SH
20180129_010000.002,0,RJNT,,,,0,20180129010000,-1,-1,-1,-1,999,-1,1,-1,-1,-1,-1,,2000,0,1,3,FEW 3   SCT 8   BKN 12,1,1,1,1,1012,RJNT 290100Z VRB01KT 2000 -SHSN FEW003 SCT008 BKN012 01/01     Q1012 RMK 2ST003 4CU008 6CU012 A2988=,- SN SH
20180129_020000.002,0,RJNT,,,,0,20180129020000,-1,-1,-1,-1,999,-1,1,-1,-1,-1,-1,,5000,0,1,3,FEW 3   SCT 8   BKN 70,1,2,1,1,1011,RJNT 290200Z VRB01KT 5000 -SHSN FEW003 SCT008 BKN070 02/01     Q1011 RMK 1ST003 3CU008 5AC070 A2986=,- SN SH
20180129_030000.002,0,RJNT,,,,0,20180129030000,-1,-1,-1,-1,230,-1,4,-1,-1,-1,-1,,3500,0,1,3,FEW 2   SCT 5   BKN 12,1,2,1,1,1011,RJNT 290300Z 23004KT 3500 -SHSNRAGS FEW002 SCT005 BKN012 02/01     Q1011 RMK 1ST002 3CU005 5CU012 A2985 SMALL HAIL=,- SN, RA GS SH
20180129_040000.002,0,RJNT,,,,0,20180129040000,-1,-1,-1,-1,200,-1,5,-1,-1,160,220,,9999,0,1,3,FEW 3   SCT 8   BKN 20,1,2,1,1,1009,RJNT 290400Z 20005KT 160V220 9999 -SHRASN FEW003 SCT008 BKN020     02/01 Q1009 RMK 1ST003 3CU008 5CU020 A2981=,- RA SN SH
20180129_050000.002,0,RJNT,,,,0,20180129050000,-1,-1,-1,-1,250,-1,9,-1,-1,-1,-1,,5000,0,1,3,FEW 5   SCT 10   BKN 15,1,2,-1,0,1010,RJNT 290500Z 25009KT 5000 -SHRASN FEW005 SCT010 BKN015 02/M00     Q1010 RMK 1CU005 3CU010 5CU015 A2982=,- RA SN SH
20180129_060000.002,0,RJNT,,,,0,20180129060000,-1,-1,-1,-1,220,-1,8,-1,-1,-1,-1,,6000,0,1,3,FEW 5   SCT 10   BKN 15,1,2,1,0,1010,RJNT 290600Z 22008KT 6000 -SHSNRA FEW005 SCT010 BKN015 02/00     Q1010 RMK 1CU005 3CU010 5CU015 A2983=,- SN RA SH
20180129_070000.002,0,RJNT,,,,0,20180129070000,-1,-1,-1,-1,270,-1,11,-1,-1,220,340,,5000,0,1,3,FEW 5   SCT 10   BKN 15,1,2,-1,0,1010,RJNT 290700Z 27011KT 220V340 5000 -SHSNRA FEW005 SCT010 BKN015     02/M00 Q1010 RMK 1CU005 3CU010 5CU015 A2985=,- SN RA SH
20180129_080000.002,0,RJNT,,,,0,20180129080000,-1,-1,-1,-1,210,-1,10,-1,-1,-1,-1,,5000,0,1,3,FEW 5   SCT 10   BKN 15,1,1,-1,0,1011,RJNT 290800Z 21010KT 5000 -SHSN FEW005 SCT010 BKN015 01/M00     Q1011 RMK 1CU005 3CU010 5CU015 A2985=,- SN SH
20180129_090000.002,0,RJNT,,,,0,20180129090000,-1,-1,-1,-1,200,-1,7,-1,-1,170,270,,1000,0,1,1,VV 5,1,1,1,0,1012,RJNT 290900Z 20007KT 170V270 1000 -SHSN VV005 01/00 Q1012 RMK     A2989=,- SN SH
20180129_100000.002,0,RJNT,,,,0,20180129100000,-1,-1,-1,-1,260,-1,5,-1,-1,210,300,,8000,0,1,3,FEW 5   SCT 10   BKN 20,1,0,-1,0,1013,RJNT 291000Z 26005KT 210V300 8000 -SHSN FEW005 SCT010 BKN020     00/M00 Q1013 RMK 1CU005 3CU010 5CU020 A2992=,- SN SH
20180129_110000.002,0,RJNT,,,,0,20180129110000,-1,-1,-1,-1,190,-1,6,-1,-1,160,230,,4000,0,1,3,FEW 5   SCT 10   BKN 20,1,1,-1,1,1014,RJNT 291100Z 19006KT 160V230 4000 -SHSN FEW005 SCT010 BKN020     01/M01 Q1014 RMK 1CU005 3CU010 5CU020 A2995=,- SN SH
20180129_120000.002,0,RJNT,,,,0,20180129120000,-1,-1,-1,-1,220,-1,6,-1,-1,-1,-1,,7000,0,1,3,FEW 5   SCT 10   BKN 20,-1,0,-1,1,1014,RJNT 291200Z 22006KT 7000 -SHSN FEW005 SCT010 BKN020 M00/M01     Q1014 RMK 1CU005 3CU010 5CU020 A2996=,- SN SH
20180129_220000.002,0,RJNT,,,,0,20180129220000,-1,-1,-1,-1,210,-1,5,-1,-1,-1,-1,,2500,0,1,3,FEW 5   SCT 10   BKN 15,-1,1,-1,2,1018,RJNT 292200Z 21005KT 2500 -SHSN FEW005 SCT010 BKN015 M01/M02     Q1018 RMK 1CU005 3CU010 5CU015 A3007=,- SN SH
20180129_230000.002,0,RJNT,,,,0,20180129230000,-1,-1,-1,-1,210,-1,5,-1,-1,-1,-1,,3000,0,1,3,FEW 5   SCT 10   BKN 20,-1,1,-1,2,1018,RJNT 292300Z 21005KT 3000 -SHSN FEW005 SCT010 BKN020 M01/M02     Q1018 RMK 1CU005 3CU010 5CU020 A3008=,- SN SH
20180130_000000.002,0,RJNT,,,,0,20180130000000,-1,-1,-1,-1,210,-1,3,-1,-1,-1,-1,,1200,0,1,1,VV 6,-1,1,-1,2,1019,RJNT 300000Z 21003KT 1200 -SHSN VV006 M01/M02 Q1019 RMK A3010=,- SN SH
20180130_010000.002,0,RJNT,,,,0,20180130010000,-1,-1,-1,-1,200,-1,4,-1,-1,160,230,,2500,0,1,3,FEW 4   SCT 10   BKN 15,-1,1,-1,2,1019,RJNT 300100Z 20004KT 160V230 2500 -SHSN FEW004 SCT010 BKN015     M01/M02 Q1019 RMK 1CU004 3CU010 5CU015 A3011=,- SN SH
20180130_020000.002,0,RJNT,,,,0,20180130020000,-1,-1,-1,-1,999,-1,1,-1,-1,-1,-1,,3500,0,1,3,FEW 5   SCT 10   BKN 20,-1,0,-1,1,1019,RJNT 300200Z VRB01KT 3500 -SHSN FEW005 SCT010 BKN020 M00/M01     Q1019 RMK 1CU005 3CU010 5CU020 A3010=,- SN SH
20180130_030000.002,0,RJNT,,,,0,20180130030000,-1,-1,-1,-1,210,-1,3,-1,-1,-1,-1,,9999,0,1,2,FEW 5   SCT 40,1,0,-1,2,1018,RJNT 300300Z 21003KT 9999 -SHSN FEW005 SCT040 00/M02 Q1018 RMK     1CU005 3CU040 A3008=,- SN SH
20180130_040000.002,0,RJNT,,,,0,20180130040000,-1,-1,-1,-1,180,-1,4,-1,-1,140,210,,9999,0,0,1,FEW 20,1,1,-1,1,1018,RJNT 300400Z 18004KT 140V210 9999 FEW020 01/M01 Q1018 RMK     1CU020 A3006=,
20180130_050000.002,0,RJNT,,,,0,20180130050000,-1,-1,-1,-1,999,-1,2,-1,-1,-1,-1,,9999,0,0,2,FEW 20   BKN 60,1,2,-1,2,1018,RJNT 300500Z VRB02KT 9999 FEW020 BKN060 02/M02 Q1018 RMK     1CU020 5SC060 A3007=,
20180130_060000.003,0,RJNT,,,,0,20180130060000,-1,-1,-1,-1,250,-1,5,-1,-1,210,290,,9999,0,0,2,FEW 20   SCT 60,1,2,-1,4,1018,RJNT 300600Z 25005KT 210V290 9999 FEW020 SCT060 02/M04 Q1018     RMK 1CU020 3SC060 A3008=,
20180130_070000.002,0,RJNT,,,,0,20180130070000,-1,-1,-1,-1,240,-1,3,-1,-1,200,260,,9999,0,0,2,FEW 20   BKN 60,1,2,-1,3,1019,RJNT 300700Z 24003KT 200V260 9999 FEW020 BKN060 02/M03 Q1019     RMK 1CU020 5SC060 A3010=,
20180130_080000.002,0,RJNT,,,,0,20180130080000,-1,-1,-1,-1,300,-1,4,-1,-1,-1,-1,,9999,0,0,2,FEW 20   BKN 60,1,1,-1,3,1020,RJNT 300800Z 30004KT 9999 FEW020 BKN060 01/M03 Q1020 RMK     1CU020 6SC060 A3012=,
20180130_090000.002,0,RJNT,,,,0,20180130090000,-1,-1,-1,-1,280,-1,3,-1,-1,240,310,,9999,0,0,2,FEW 20   BKN 50,1,0,-1,2,1020,RJNT 300900Z 28003KT 240V310 9999 FEW020 BKN050 00/M02 Q1020     RMK 1CU020 7SC050 A3013=,
20180130_100000.002,0,RJNT,,,,0,20180130100000,-1,-1,-1,-1,200,-1,3,-1,-1,140,220,,9999,0,0,2,FEW 20   BKN 50,-1,0,-1,2,1021,RJNT 301000Z 20003KT 140V220 9999 FEW020 BKN050 M00/M02 Q1021     RMK 1CU020 6SC050 A3015=,
20180130_110000.002,0,RJNT,,,,0,20180130110000,-1,-1,-1,-1,999,-1,2,-1,-1,-1,-1,,9999,0,0,2,FEW 20   BKN 50,-1,0,-1,2,1021,RJNT 301100Z VRB02KT 9999 FEW020 BKN050 M00/M02 Q1021 RMK     1CU020 7SC050 A3018=,
20180130_120000.002,0,RJNT,,,,0,20180130120000,-1,-1,-1,-1,200,-1,4,-1,-1,-1,-1,,9999,0,0,2,FEW 20   BKN 50,-1,1,-1,3,1021,RJNT 301200Z 20004KT 9999 FEW020 BKN050 M01/M03 Q1021 RMK     1CU020 7SC050 A3018=,
20180130_220000.002,0,RJNT,,,,0,20180130220000,-1,-1,-1,-1,180,-1,5,-1,-1,130,200,,5000,0,1,3,FEW 5   SCT 10   BKN 30,-1,0,-1,2,1023,RJNT 302200Z 18005KT 130V200 5000 -SHSN FEW005 SCT010 BKN030     M00/M02 Q1023 RMK 1CU005 3CU010 5CU030 A3023=,- SN SH
20180130_230000.002,0,RJNT,,,,0,20180130230000,-1,-1,-1,-1,160,-1,5,-1,-1,100,230,,9999,0,1,2,FEW 10   BKN 40,1,0,-1,4,1024,RJNT 302300Z 16005KT 100V230 9999 -SHSN FEW010 BKN040 00/M04     Q1024 RMK 1CU010 5SC040 A3024=,- SN SH
20180131_000000.002,0,RJNT,,,,0,20180131000000,-1,-1,-1,-1,170,-1,8,-1,-1,140,200,,9999,0,1,2,FEW 10   BKN 60,1,1,-1,4,1024,RJNT 310000Z 17008KT 140V200 9999 -SHSN FEW010 BKN060 01/M04     Q1024 RMK 1CU010 5SC060 A3025=,- SN SH
20180131_010000.002,0,RJNT,,,,0,20180131010000,-1,-1,-1,-1,170,-1,9,-1,-1,100,200,,9999,0,1,2,FEW 10   BKN 80,1,3,-1,3,1023,RJNT 310100Z 17009KT 100V200 9999 VCSH FEW010 BKN080 03/M03     Q1023 RMK 1CU010 5AC080 A3023=,VC SH
20180131_020000.002,0,RJNT,,,,0,20180131020000,-1,-1,-1,-1,190,-1,5,-1,-1,140,220,,9999,0,1,3,FEW 5   SCT 10   BKN 30,1,4,-1,4,1024,RJNT 310200Z 19005KT 140V220 9999 -SHSNRA FEW005 SCT010 BKN030     04/M04 Q1024 RMK 1CU005 3CU010 5CU030 A3024=,- SN RA SH
20180131_030000.002,0,RJNT,,,,0,20180131030000,-1,-1,-1,-1,999,-1,2,-1,-1,-1,-1,,9999,0,1,3,FEW 10   SCT 20   BKN 40,1,4,-1,1,1023,RJNT 310300Z VRB02KT 9999 -SHSNRA FEW010 SCT020 BKN040 04/M01     Q1023 RMK 1CU010 3CU020 5SC040 A3021=,- SN RA SH
20180131_040000.002,0,RJNT,,,,0,20180131040000,-1,-1,-1,-1,280,-1,3,-1,-1,-1,-1,,9999,0,1,3,FEW 10   SCT 20   BKN 50,1,4,-1,1,1022,RJNT 310400Z 28003KT 9999 VCSH FEW010 SCT020 BKN050 04/M01     Q1022 RMK 1CU010 3CU020 7SC050 A3020=,VC SH
20180131_050000.002,0,RJNT,,,,0,20180131050000,-1,-1,-1,-1,240,-1,7,-1,-1,-1,-1,,9999,0,1,3,FEW 8   SCT 15   BKN 40,1,3,-1,1,1023,RJNT 310500Z 24007KT 9999 VCSH FEW008 SCT015 BKN040 03/M01     Q1023 RMK 1CU008 3CU015 7SC040 A3022=,VC SH
20180131_060000.002,0,RJNT,,,,0,20180131060000,-1,-1,-1,-1,200,-1,4,-1,-1,170,250,,9999,0,1,3,FEW 5   SCT 10   BKN 40,1,4,-1,0,1023,RJNT 310600Z 20004KT 170V250 9999 VCSH FEW005 SCT010 BKN040     04/M00 Q1023 RMK 1ST005 4CU010 7SC040 A3023=,VC SH
20180131_070000.003,0,RJNT,,,,0,20180131070000,-1,-1,-1,-1,180,-1,4,-1,-1,140,210,,9999,0,1,3,FEW 5   SCT 15   BKN 40,1,3,-1,0,1023,RJNT 310700Z 18004KT 140V210 9999 VCSH FEW005 SCT015 BKN040     03/M00 Q1023 RMK 2ST005 4CU015 7SC040 A3023=,VC SH
20180131_080000.003,0,RJNT,,,,0,20180131080000,-1,-1,-1,-1,200,-1,4,-1,-1,150,240,,9999,0,1,3,FEW 5   BKN 20   BKN 40,1,3,1,1,1024,RJNT 310800Z 20004KT 150V240 9999 -SHSNRA FEW005 BKN020 BKN040     03/01 Q1024 RMK 1ST005 5CU020 7SC040 A3024=,- SN RA SH
20180131_090000.002,0,RJNT,,,,0,20180131090000,-1,-1,-1,-1,240,-1,3,-1,-1,170,250,,9999,0,1,3,FEW 5   BKN 30   BKN 50,1,2,1,1,1024,RJNT 310900Z 24003KT 170V250 9999 -SHSNRA FEW005 BKN030 BKN050     02/01 Q1024 RMK 2ST005 5CU030 7SC050 A3026=,- SN RA SH
20180131_100000.002,0,RJNT,,,,0,20180131100000,-1,-1,-1,-1,150,-1,2,-1,-1,-1,-1,,9999,0,1,3,FEW 5   SCT 30   BKN 50,1,2,1,1,1025,RJNT 311000Z 15002KT 9999 VCSH FEW005 SCT030 BKN050 02/01     Q1025 RMK 1ST005 4CU030 6SC050 A3027=,VC SH
20180131_110000.002,0,RJNT,,,,0,20180131110000,-1,-1,-1,-1,999,-1,2,-1,-1,-1,-1,,9999,0,0,3,FEW 20   BKN 50   BKN 80,1,1,1,0,1024,RJNT 311100Z VRB02KT 9999 FEW020 BKN050 BKN080 01/00 Q1024 RMK     2CU020 5SC050 7AC080 A3026=,
20180131_120000.002,0,RJNT,,,,0,20180131120000,-1,-1,-1,-1,999,-1,1,-1,-1,-1,-1,,9999,0,0,3,FEW 20   SCT 40   BKN 70,1,2,1,0,1025,RJNT 311200Z VRB01KT 9999 FEW020 SCT040 BKN070 02/00 Q1025 RMK     1CU020 4CU040 7AC070 A3028=,
20180131_220000.002,0,RJNT,,,,0,20180131220000,-1,-1,-1,-1,0,-1,0,-1,-1,-1,-1,,9999,0,0,3,FEW 5   BKN 10   BKN 30,1,1,1,0,1024,RJNT 312200Z 00000KT 9999 FEW005 BKN010 BKN030 01/00 Q1024 RMK     2ST005 5CU010 7CU030 A3026=,
20180131_230000.002,0,RJNT,,,,0,20180131230000,-1,-1,-1,-1,999,-1,2,-1,-1,-1,-1,,9999,0,0,3,FEW 3   SCT 15   BKN 30,1,0,-1,0,1025,RJNT 312300Z VRB02KT 9999 FEW003 SCT015 BKN030 00/M00 Q1025     RMK 1ST003 4CU015 7CU030 A3028=,
20180201_000000.003,0,RJNT,,,,0,20180201000000,-1,-1,-1,-1,160,-1,3,-1,-1,130,190,,9999,0,0,3,FEW 5   SCT 15   BKN 30,1,1,-1,1,1025,RJNT 010000Z 16003KT 130V190 9999 FEW005 SCT015 BKN030 01/M01     Q1025 RMK 1ST005 4CU015 7CU030 A3029=,
20180201_010000.002,0,RJNT,,,,0,20180201010000,-1,-1,-1,-1,260,-1,1,-1,-1,-1,-1,,9999,0,0,3,FEW 10   SCT 30   BKN -9999,1,2,1,0,1026,RJNT 010100Z 26001KT 9999 FEW010 SCT030 BKN/// 02/00 Q1026 RMK     1CU010 4CU030 A3031=,
20180201_020000.002,0,RJNT,,,,0,20180201020000,-1,-1,-1,-1,0,-1,0,-1,-1,-1,-1,,9999,0,0,3,FEW 10   SCT 30   BKN 130,1,2,-1,1,1025,RJNT 010200Z 00000KT 9999 FEW010 SCT030 BKN130 02/M01 Q1025     RMK 1CU010 3CU030 6AC130 A3029=,
20180201_030000.003,0,RJNT,,,,0,20180201030000,-1,-1,-1,-1,999,-1,1,-1,-1,-1,-1,,9999,0,0,3,FEW 30   SCT 120   BKN -9999,1,3,1,0,1024,RJNT 010300Z VRB01KT 9999 FEW030 SCT120 BKN/// 03/00 Q1024 RMK     1CU030 3AC120 A3026=,
20180201_040000.003,0,RJNT,,,,0,20180201040000,-1,-1,-1,-1,0,-1,0,-1,-1,-1,-1,,9999,0,0,3,FEW 30   SCT 120   BKN -9999,1,3,1,0,1024,RJNT 010400Z 00000KT 9999 FEW030 SCT120 BKN/// 03/00 Q1024 RMK     1CU030 3AC120 A3025=,
20180201_050000.002,0,RJNT,,,,0,20180201050000,-1,-1,-1,-1,999,-1,2,-1,-1,-1,-1,,9999,0,0,2,FEW 30   BKN -9999,1,4,-1,1,1024,RJNT 010500Z VRB02KT 9999 FEW030 BKN/// 04/M01 Q1024 RMK     1CU030 A3024=,
20180201_060000.002,0,RJNT,,,,0,20180201060000,-1,-1,-1,-1,999,-1,1,-1,-1,-1,-1,,9999,0,0,2,FEW 30   SCT -9999,1,4,-1,1,1024,RJNT 010600Z VRB01KT 9999 FEW030 SCT/// 04/M01 Q1024 RMK     1CU030 A3024=,
20180201_070000.002,0,RJNT,,,,0,20180201070000,-1,-1,-1,-1,10,-1,7,-1,-1,340,50,,9999,0,0,2,FEW 20   SCT -9999,1,4,-1,1,1024,RJNT 010700Z 01007KT 340V050 9999 FEW020 SCT/// 04/M01 Q1024     RMK 1CU020 A3025=,
20180201_080000.002,0,RJNT,,,,0,20180201080000,-1,-1,-1,-1,999,-1,2,-1,-1,-1,-1,,9999,0,0,2,FEW 20   SCT -9999,1,4,-1,2,1024,RJNT 010800Z VRB02KT 9999 FEW020 SCT/// 04/M02 Q1024 RMK     1CU020 A3025=,
20180201_090000.002,0,RJNT,,,,0,20180201090000,-1,-1,-1,-1,10,-1,3,-1,-1,-1,-1,,9999,0,0,2,FEW 20   SCT -9999,1,2,-1,1,1024,RJNT 010900Z 01003KT 9999 FEW020 SCT/// 02/M01 Q1024 RMK     1CU020 A3025=,
20180201_100000.002,0,RJNT,,,,0,20180201100000,-1,-1,-1,-1,999,-1,2,-1,-1,-1,-1,,9999,0,0,3,FEW 20   SCT 150   BKN -9999,1,2,-1,2,1025,RJNT 011000Z VRB02KT 9999 FEW020 SCT150 BKN/// 02/M02 Q1025     RMK 1CU020 3AC150 A3028=,
20180201_110000.002,0,RJNT,,,,0,20180201110000,-1,-1,-1,-1,40,-1,4,-1,-1,-1,-1,,9999,0,0,3,FEW 20   SCT 80   BKN -9999,1,1,-1,2,1025,RJNT 011100Z 04004KT 9999 FEW020 SCT080 BKN/// 01/M02 Q1025     RMK 1CU020 3AC080 A3029=,
20180201_120000.002,0,RJNT,,,,0,20180201120000,-1,-1,-1,-1,250,-1,4,-1,-1,220,290,,9999,0,0,3,FEW 20   BKN 80   BKN -9999,1,1,-1,1,1025,RJNT 011200Z 25004KT 220V290 9999 FEW020 BKN080 BKN/// 01/M01     Q1025 RMK 1CU020 5AC080 A3029=,
20180201_220000.002,0,RJNT,,,,0,20180201220000,-1,-1,-1,-1,999,-1,1,-1,-1,-1,-1,,9999,0,0,2,FEW 30   SCT -9999,-1,2,-1,4,1025,RJNT 012200Z VRB01KT 9999 FEW030 SCT/// M02/M04 Q1025 RMK     1CU030 A3028=,
20180201_230000.003,0,RJNT,,,,0,20180201230000,-1,-1,-1,-1,999,-1,2,-1,-1,-1,-1,,9999,0,0,1,FEW 30,-1,1,-1,4,1025,RJNT 012300Z VRB02KT 9999 FEW030 M01/M04 Q1025 RMK 1CU030     A3027=,
20180202_000000.002,0,RJNT,,,,0,20180202000000,-1,-1,-1,-1,310,-1,2,-1,-1,-1,-1,,9999,0,0,1,FEW 30,-1,0,-1,4,1024,RJNT 020000Z 31002KT 9999 FEW030 M00/M04 Q1024 RMK 1CU030     A3026=,
20180202_010000.002,0,RJNT,,,,0,20180202010000,-1,-1,-1,-1,360,-1,3,-1,-1,-1,-1,,9999,0,0,1,FEW 30,1,2,-1,3,1024,RJNT 020100Z 36003KT 9999 FEW030 02/M03 Q1024 RMK 1CU030     A3025=,
20180202_020000.002,0,RJNT,,,,0,20180202020000,-1,-1,-1,-1,999,-1,2,-1,-1,-1,-1,,9999,0,0,1,FEW 30,1,4,-1,4,1023,RJNT 020200Z VRB02KT 9999 FEW030 04/M04 Q1023 RMK 1CU030     A3023=,
20180202_030000.002,0,RJNT,,,,0,20180202030000,-1,-1,-1,-1,290,-1,3,-1,-1,250,350,,9999,0,0,1,FEW 30,1,5,-1,3,1023,RJNT 020300Z 29003KT 250V350 9999 FEW030 05/M03 Q1023 RMK     1CU030 A3021=,
20180202_040000.002,0,RJNT,,,,0,20180202040000,-1,-1,-1,-1,350,-1,4,-1,-1,-1,-1,,9999,0,0,2,FEW 30   SCT -9999,1,5,-1,3,1022,RJNT 020400Z 35004KT 9999 FEW030 SCT/// 05/M03 Q1022 RMK     1CU030 A3020=,
20180202_050000.001,0,RJNT,,,,0,20180202050000,-1,-1,-1,-1,360,-1,6,-1,-1,-1,-1,,9999,0,0,2,FEW 30   BKN -9999,1,5,-1,3,1022,RJNT 020500Z 36006KT 9999 FEW030 BKN/// 05/M03 Q1022 RMK     1CU030 A3021=,
20180202_060000.002,0,RJNT,,,,0,20180202060000,-1,-1,-1,-1,30,-1,7,-1,-1,360,70,,9999,0,0,2,FEW 30   BKN -9999,1,5,-1,2,1023,RJNT 020600Z 03007KT 360V070 9999 FEW030 BKN/// 05/M02 Q1023     RMK 2CU030 A3021=,
20180202_070000.002,0,RJNT,,,,0,20180202070000,-1,-1,-1,-1,40,-1,5,-1,-1,10,90,,9999,0,0,3,FEW 20   BKN 30   BKN -9999,1,5,-1,1,1022,RJNT 020700Z 04005KT 010V090 9999 FEW020 BKN030 BKN/// 05/M01     Q1022 RMK 1CU020 5CU030 A3021=,
20180202_080000.002,0,RJNT,,,,0,20180202080000,-1,-1,-1,-1,50,-1,3,-1,-1,10,120,,9999,0,0,3,FEW 20   BKN 30   BKN -9999,1,4,-1,2,1023,RJNT 020800Z 05003KT 010V120 9999 FEW020 BKN030 BKN/// 04/M02     Q1023 RMK 1CU020 5SC030 A3021=,
20180202_090000.002,0,RJNT,,,,0,20180202090000,-1,-1,-1,-1,999,-1,1,-1,-1,-1,-1,,9999,0,0,3,FEW 20   SCT 30   BKN -9999,1,4,-1,2,1022,RJNT 020900Z VRB01KT 9999 FEW020 SCT030 BKN/// 04/M02 Q1022     RMK 1CU020 4SC030 A3019=,
20180202_100000.003,0,RJNT,,,,0,20180202100000,-1,-1,-1,-1,200,-1,6,-1,-1,-1,-1,,9999,0,0,3,FEW 20   SCT 30   BKN -9999,1,2,-1,0,1022,RJNT 021000Z 20006KT 9999 FEW020 SCT030 BKN/// 02/M00 Q1022     RMK 1CU020 3SC030 A3018=,
20180202_110000.002,0,RJNT,,,,0,20180202110000,-1,-1,-1,-1,120,-1,3,-1,-1,-1,-1,,9999,0,0,3,FEW 20   SCT 30   BKN -9999,1,2,-1,1,1021,RJNT 021100Z 12003KT 9999 FEW020 SCT030 BKN/// 02/M01 Q1021     RMK 1CU020 3SC030 A3016=,
20180202_120000.002,0,RJNT,,,,0,20180202120000,-1,-1,-1,-1,999,-1,1,-1,-1,-1,-1,,9999,0,0,3,FEW 20   SCT 150   BKN 180,1,2,-1,1,1020,RJNT 021200Z VRB01KT 9999 FEW020 SCT150 BKN180 02/M01 Q1020     RMK 1CU020 3AC150 5AC180 A3013=,
20180202_220000.002,0,RJNT,,,,0,20180202220000,-1,-1,-1,-1,999,-1,2,-1,-1,-1,-1,,9999,0,1,3,FEW 20   SCT 60   BKN 150,1,0,-1,2,1017,RJNT 022200Z VRB02KT 9999 VCSH FEW020 SCT060 BKN150 00/M02     Q1017 RMK 1CU020 3SC060 6AC150 A3006=,VC SH
20180202_230000.003,0,RJNT,,,,0,20180202230000,-1,-1,-1,-1,130,-1,3,-1,-1,80,180,,9999,0,1,3,FEW 20   SCT 60   BKN 80,1,2,-1,2,1017,RJNT 022300Z 13003KT 080V180 9999 VCSH FEW020 SCT060 BKN080     02/M02 Q1017 RMK 1CU020 4SC060 6AC080 A3004=,VC SH
20180203_000000.002,0,RJNT,,,,0,20180203000000,-1,-1,-1,-1,180,-1,4,-1,-1,130,220,,9999,0,1,3,FEW 10   SCT 30   BKN 50,1,3,-1,1,1017,RJNT 030000Z 18004KT 130V220 9999 -SHRASN FEW010 SCT030 BKN050     03/M01 Q1017 RMK 1CU010 3CU030 6SC050 A3005=,- RA SN SH
20180203_010000.003,0,RJNT,,,,0,20180203010000,-1,-1,-1,-1,190,-1,8,-1,-1,150,220,,9999,0,1,3,FEW 10   SCT 20   BKN 40,1,4,1,0,1017,RJNT 030100Z 19008KT 150V220 9999 -SHRA FEW010 SCT020 BKN040     04/00 Q1017 RMK 1CU010 3CU020 5CU040 A3005=,- RA SH
20180203_020000.002,0,RJNT,,,,0,20180203020000,-1,-1,-1,-1,210,-1,15,-1,-1,-1,-1,,9999,0,1,3,FEW 10   SCT 20   BKN 30,1,5,-1,1,1017,RJNT 030200Z 21015KT 9999 -SHRA FEW010 SCT020 BKN030 05/M01     Q1017 RMK 1CU010 3CU020 5CU030 A3005=,- RA SH
20180203_030000.002,0,RJNT,,,,0,20180203030000,-1,-1,-1,-1,230,-1,8,-1,-1,-1,-1,,9999,0,1,3,FEW 10   SCT 20   BKN 30,1,4,1,1,1017,RJNT 030300Z 23008KT 9999 -SHRA FEW010 SCT020 BKN030 04/01     Q1017 RMK 1CU010 3CU020 5CU030 A3004=,- RA SH
20180203_040000.002,0,RJNT,,,,0,20180203040000,-1,-1,-1,-1,250,-1,9,-1,-1,220,290,,9999,0,1,3,FEW 10   SCT 20   BKN 40,1,5,-1,1,1017,RJNT 030400Z 25009KT 220V290 9999 -SHRA FEW010 SCT020 BKN040     05/M01 Q1017 RMK 1CU010 3CU020 5CU040 A3003=,- RA SH
20180203_050000.002,0,RJNT,,,,0,20180203050000,-1,-1,-1,-1,230,-1,8,-1,-1,200,340,,9999,0,1,3,FEW 10   SCT 20   BKN 50,1,5,-1,1,1017,RJNT 030500Z 23008KT 200V340 9999 -SHRA FEW010 SCT020 BKN050     05/M01 Q1017 RMK 1CU010 3CU020 5SC050 A3003=,- RA SH
20180203_060000.002,0,RJNT,,,,0,20180203060000,-1,-1,-1,-1,220,-1,8,-1,-1,-1,-1,,9999,0,1,2,FEW 10   SCT 50,1,4,-1,2,1017,RJNT 030600Z 22008KT 9999 -SHRA FEW010 SCT050 04/M02 Q1017 RMK     1CU010 4SC050 A3005=,- RA SH
20180203_070000.003,0,RJNT,,,,0,20180203070000,-1,-1,-1,-1,230,-1,5,-1,-1,-1,-1,,9999,0,1,2,FEW 10   SCT 50,1,4,-1,2,1017,RJNT 030700Z 23005KT 9999 -SHRA FEW010 SCT050 04/M02 Q1017 RMK     1CU010 4SC050 A3005=,- RA SH
20180203_080000.002,0,RJNT,,,,0,20180203080000,-1,-1,-1,-1,220,-1,5,-1,-1,-1,-1,,9999,0,1,2,FEW 20   SCT 60,1,4,-1,3,1017,RJNT 030800Z 22005KT 9999 VCSH FEW020 SCT060 04/M03 Q1017 RMK     1CU020 3SC060 A3005=,VC SH
20180203_090000.002,0,RJNT,,,,0,20180203090000,-1,-1,-1,-1,300,-1,4,-1,-1,270,340,,9999,0,1,3,FEW 10   SCT 30   BKN 40,1,3,-1,2,1017,RJNT 030900Z 30004KT 270V340 9999 VCSH FEW010 SCT030 BKN040     03/M02 Q1017 RMK 1CU010 3CU030 5SC040 A3005=,VC SH
20180203_100000.002,0,RJNT,,,,0,20180203100000,-1,-1,-1,-1,190,-1,4,-1,-1,-1,-1,,9999,0,1,2,FEW 10   SCT 60,1,2,-1,1,1017,RJNT 031000Z 19004KT 9999 VCSH FEW010 SCT060 02/M01 Q1017 RMK     1CU010 4SC060 A3004=,VC SH
20180203_110000.002,0,RJNT,,,,0,20180203110000,-1,-1,-1,-1,160,-1,3,-1,-1,100,210,,9999,0,1,2,FEW 60   BKN -9999,1,1,-1,1,1016,RJNT 031100Z 16003KT 100V210 9999 VCSH FEW060 BKN/// 01/M01     Q1016 RMK 2SC060 A3002=,VC SH
20180203_120000.002,0,RJNT,,,,0,20180203120000,-1,-1,-1,-1,160,-1,3,-1,-1,100,190,,9999,0,0,2,SCT 60   BKN -9999,1,1,-1,2,1016,RJNT 031200Z 16003KT 100V190 9999 SCT060 BKN/// 01/M02 Q1016     RMK 3SC060 A3001=,
20180203_220000.002,0,RJNT,,,,0,20180203220000,-1,-1,-1,-1,180,-1,5,-1,-1,-1,-1,,600,0,1,1,VV 3,1,0,-1,0,1013,RJNT 032200Z 18005KT 0600 SHSN VV003 00/M00 Q1013 RMK A2992=,SN SH
20180203_230000.002,0,RJNT,,,,0,20180203230000,-1,-1,-1,-1,180,-1,4,-1,-1,140,210,,1500,0,1,1,VV 8,-1,0,-1,1,1013,RJNT 032300Z 18004KT 140V210 1500 -SHSN VV008 M00/M01 Q1013     RMK A2992=,- SN SH
20180204_000000.002,0,RJNT,,,,0,20180204000000,-1,-1,-1,-1,250,-1,6,-1,-1,210,280,,3000,0,1,4,FEW 3   SCT 8   BKN 20   FEW 20 CB,1,1,-1,0,1013,RJNT 040000Z 25006KT 210V280 3000 -SHSN FEW003 SCT008 BKN020     FEW020CB 01/M00 Q1013 RMK 1ST003 4CU008 6CU020 1CB020           A2992 6000SE-SW CB 30KM W MOV NE=,- SN SH
20180204_010000.002,0,RJNT,,,,0,20180204010000,-1,-1,-1,-1,210,-1,3,-1,-1,-1,-1,,8000,0,1,3,FEW 3   SCT 8   BKN 30,1,2,-1,1,1013,RJNT 040100Z 21003KT 8000 -SHSN FEW003 SCT008 BKN030 02/M01     Q1013 RMK 1ST003 4CU008 6CU030 A2992=,- SN SH
20180204_020000.002,0,RJNT,,,,0,20180204020000,-1,-1,-1,-1,270,-1,10,-1,-1,-1,-1,,9999,0,1,3,FEW 3   SCT 10   BKN 30,1,2,-1,1,1012,RJNT 040200Z 27010KT 9999 -SHSN FEW003 SCT010 BKN030 02/M01     Q1012 RMK 1ST003 3CU010 5CU030 A2991 4000SW-N=,- SN SH
20180204_030000.002,0,RJNT,,,,0,20180204030000,-1,-1,-1,-1,210,-1,9,-1,-1,-1,-1,,9999,0,1,2,FEW 3   SCT 15,1,3,-1,1,1011,RJNT 040300Z 21009KT 9999 VCSH FEW003 SCT015 03/M01 Q1011 RMK     1ST003 3CU015 A2987=,VC SH
20180204_040000.002,0,RJNT,,,,0,20180204040000,-1,-1,-1,-1,240,-1,11,-1,-1,-1,-1,,9999,0,0,2,FEW 20   SCT 70,1,5,-1,6,1010,RJNT 040400Z 24011KT 9999 FEW020 SCT070 05/M06 Q1010 RMK     1CU020 3AC070 A2983=,
20180204_050000.002,0,RJNT,,,,0,20180204050000,-1,-1,-1,-1,240,-1,13,-1,-1,-1,-1,,9999,0,1,3,FEW 10   SCT 60   BKN 70,1,5,-1,7,1009,RJNT 040500Z 24013KT 9999 VCSH FEW010 SCT060 BKN070 05/M07     Q1009 RMK 1CU010 3SC060 5AC070 A2982=,VC SH
20180204_060000.002,0,RJNT,,,,0,20180204060000,-1,-1,-1,-1,240,-1,12,-1,-1,200,270,,9999,0,1,3,FEW 10   SCT 30   BKN 50,1,4,-1,7,1009,RJNT 040600Z 24012KT 200V270 9999 -SHRASN FEW010 SCT030 BKN050     04/M07 Q1009 RMK 1CU010 3CU030 5SC050 A2982=,- RA SN SH
20180204_070000.002,0,RJNT,,,,0,20180204070000,-1,-1,-1,-1,210,-1,19,-1,29,160,230,,9999,0,1,3,FEW 5   SCT 20   BKN 40,1,3,-1,4,1010,RJNT 040700Z 21019G29KT 160V230 9999 -SHSNRA FEW005 SCT020     BKN040 03/M04 Q1010 RMK 1CU005 3CU020 5CU040 A2983=,- SN RA SH
20180204_080000.002,0,RJNT,,,,0,20180204080000,-1,-1,-1,-1,210,-1,17,-1,-1,-1,-1,,3000,0,1,3,FEW 5   SCT 10   BKN 20,1,2,-1,3,1010,RJNT 040800Z 21017KT 3000 -SHSN FEW005 SCT010 BKN020 02/M03     Q1010 RMK 1CU005 3CU010 5CU020 A2984=,- SN SH
20180204_090000.002,0,RJNT,,,,0,20180204090000,-1,-1,-1,-1,230,-1,10,-1,-1,-1,-1,,2500,0,1,3,FEW 5   SCT 7   BKN 9,1,1,1,0,1011,RJNT 040900Z 23010KT 2500 -SHSN FEW005 SCT007 BKN009 01/00     Q1011 RMK 1CU005 3CU007 5CU009 A2988=,- SN SH
20180204_100000.002,0,RJNT,,,,0,20180204100000,-1,-1,-1,-1,280,-1,8,-1,-1,-1,-1,,2500,0,1,3,FEW 5   SCT 7   BKN 9,1,1,1,0,1013,RJNT 041000Z 28008KT 2500 -SHSN FEW005 SCT007 BKN009 01/00     Q1013 RMK 1CU005 3CU007 5CU009 A2992=,- SN SH
20180204_110000.003,0,RJNT,,,,0,20180204110000,-1,-1,-1,-1,280,-1,5,-1,-1,240,350,,9999,0,1,3,FEW 5   SCT 20   BKN 30,1,1,-1,0,1014,RJNT 041100Z 28005KT 240V350 9999 -SHSN FEW005 SCT020 BKN030     01/M00 Q1014 RMK 1CU005 3CU020 5CU030 A2994=,- SN SH
20180204_120000.002,0,RJNT,,,,0,20180204120000,-1,-1,-1,-1,190,-1,3,-1,-1,-1,-1,,9999,0,1,3,FEW 5   SCT 20   BKN 30,1,0,-1,1,1014,RJNT 041200Z 19003KT 9999 -SHSN FEW005 SCT020 BKN030 00/M01     Q1014 RMK 1CU005 3CU020 5CU030 A2995=,- SN SH
20180204_220000.002,0,RJNT,,,,0,20180204220000,-1,-1,-1,-1,330,-1,3,-1,-1,-1,-1,,1500,0,1,1,VV 8,-1,1,-1,2,1014,RJNT 042200Z 33003KT 1500 -SHSN VV008 M01/M02 Q1014 RMK A2996=,- SN SH
20180204_230000.002,0,RJNT,,,,0,20180204230000,-1,-1,-1,-1,330,-1,3,-1,-1,-1,-1,,2500,0,1,3,FEW 3   SCT 5   BKN 20,-1,1,-1,2,1015,RJNT 042300Z 33003KT 2500 -SHSN FEW003 SCT005 BKN020 M01/M02     Q1015 RMK 1CU003 3CU005 5CU020 A2997=,- SN SH
20180205_000000.003,0,RJNT,,,,0,20180205000000,-1,-1,-1,-1,999,-1,2,-1,-1,-1,-1,,2500,0,1,3,FEW 3   SCT 5   BKN 7,-1,1,-1,1,1015,RJNT 050000Z VRB02KT 2500 -SHSN FEW003 SCT005 BKN007 M01/M01     Q1015 RMK 1CU003 3CU005 5CU007 A2997=,- SN SH
20180205_010000.002,0,RJNT,,,,0,20180205010000,-1,-1,-1,-1,340,-1,2,-1,-1,-1,-1,,2000,0,1,3,FEW 3   SCT 5   BKN 7,-1,1,-1,2,1014,RJNT 050100Z 34002KT 2000 -SHSN FEW003 SCT005 BKN007 M01/M02     Q1014 RMK 1CU003 3CU005 5CU007 A2996=,- SN SH
20180205_020000.002,0,RJNT,,,,0,20180205020000,-1,-1,-1,-1,340,-1,5,-1,-1,-1,-1,,2200,0,1,3,FEW 3   SCT 5   BKN 6,-1,1,-1,2,1014,RJNT 050200Z 34005KT 2200 -SHSN FEW003 SCT005 BKN006 M01/M02     Q1014 RMK 1CU003 3CU005 5CU006 A2995=,- SN SH
