20180101_000000.002,0,RJOA,,,,0,20180101000000,-1,-1,-1,-1,300,-1,3,-1,-1,-1,-1,,9999,0,0,2,FEW 20   SCT 40,1,3,-1,4,1021,RJOA 010000Z 30003KT 9999 FEW020 SCT040 03/M04 Q1021 RMK     1CU020 3CU040 A3015=,
20180101_010000.002,0,RJOA,,,,0,20180101010000,-1,-1,-1,-1,280,-1,8,-1,-1,240,310,,9999,0,0,2,FEW 20   SCT 40,1,4,-1,5,1021,RJOA 010100Z 28008KT 240V310 9999 FEW020 SCT040 04/M05 Q1021     RMK 1CU020 4CU040 A3016=,
20180101_020000.002,0,RJOA,,,,0,20180101020000,-1,-1,-1,-1,290,-1,15,-1,-1,-1,-1,,9999,0,0,2,FEW 20   BKN 40,1,6,-1,5,1021,RJOA 010200Z 29015KT 9999 FEW020 BKN040 06/M05 Q1021 RMK     1CU020 5CU040 A3016=,
20180101_030000.002,0,RJOA,,,,0,20180101030000,-1,-1,-1,-1,300,-1,11,-1,-1,-1,-1,,9999,0,0,2,FEW 20   BKN 40,1,5,-1,5,1020,RJOA 010300Z 30011KT 9999 FEW020 BKN040 05/M05 Q1020 RMK     1CU020 5CU040 A3015=,
20180101_040000.002,0,RJOA,,,,0,20180101040000,-1,-1,-1,-1,300,-1,15,-1,-1,-1,-1,,9999,0,1,2,FEW 20   BKN 40,1,5,-1,6,1020,RJOA 010400Z 30015KT 9999 -SHRA FEW020 BKN040 05/M06 Q1020 RMK     1CU020 6CU040 A3013=,- RA SH
20180101_050000.002,0,RJOA,,,,0,20180101050000,-1,-1,-1,-1,290,-1,13,-1,-1,-1,-1,,9999,0,0,2,FEW 20   BKN 40,1,5,-1,5,1020,RJOA 010500Z 29013KT 9999 FEW020 BKN040 05/M05 Q1020 RMK     1CU020 5CU040 A3013=,
20180101_060000.002,0,RJOA,,,,0,20180101060000,-1,-1,-1,-1,320,-1,13,-1,-1,280,350,,9999,0,0,2,FEW 20   BKN 40,1,5,-1,6,1020,RJOA 010600Z 32013KT 280V350 9999 FEW020 BKN040 05/M06 Q1020     RMK 1CU020 5CU040 A3014=,
20180101_070000.002,0,RJOA,,,,0,20180101070000,-1,-1,-1,-1,320,-1,11,-1,-1,-1,-1,,9999,0,0,2,FEW 20   SCT 40,1,5,-1,7,1021,RJOA 010700Z 32011KT 9999 FEW020 SCT040 05/M07 Q1021 RMK     1CU020 3CU040 A3015=,
20180101_080000.002,0,RJOA,,,,0,20180101080000,-1,-1,-1,-1,290,-1,12,-1,-1,-1,-1,,9999,0,0,2,FEW 20   SCT 40,1,3,-1,6,1021,RJOA 010800Z 29012KT 9999 FEW020 SCT040 03/M06 Q1021 RMK     1CU020 3CU040 A3016=,
20180101_090000.002,0,RJOA,,,,0,20180101090000,-1,-1,-1,-1,310,-1,7,-1,-1,-1,-1,,9999,0,0,1,FEW 20,1,2,-1,6,1021,RJOA 010900Z 31007KT 9999 FEW020 02/M06 Q1021 RMK 1CU020     A3018=,
20180101_100000.002,0,RJOA,,,,0,20180101100000,-1,-1,-1,-1,290,-1,5,-1,-1,-1,-1,,9999,0,0,1,FEW 20,1,1,-1,6,1022,RJOA 011000Z 29005KT 9999 FEW020 01/M06 Q1022 RMK 1CU020     A3019=,
20180101_110000.002,0,RJOA,,,,0,20180101110000,-1,-1,-1,-1,290,-1,4,-1,-1,-1,-1,,9999,0,0,2,FEW 20   BKN 50,1,1,-1,6,1022,RJOA 011100Z 29004KT 9999 FEW020 BKN050 01/M06 Q1022 RMK     1CU020 6SC050 A3021=,
20180101_120000.002,0,RJOA,,,,0,20180101120000,-1,-1,-1,-1,260,-1,2,-1,-1,-1,-1,,9999,0,0,2,FEW 20   BKN 50,1,1,-1,6,1023,RJOA 011200Z 26002KT 9999 FEW020 BKN050 01/M06 Q1023 RMK     1CU020 7SC050 A3021=,
20180101_130000.002,0,RJOA,,,,0,20180101130000,-1,-1,-1,-1,0,-1,0,-1,-1,-1,-1,,9999,0,0,2,FEW 20   BKN 50,1,2,-1,6,1023,RJOA 011300Z 00000KT 9999 FEW020 BKN050 02/M06 Q1023 RMK     1CU020 6SC050 A3021=,
20180101_220000.002,0,RJOA,,,,0,20180101220000,-1,-1,-1,-1,300,-1,5,-1,-1,-1,-1,,9999,0,0,2,FEW 20   BKN 50,1,1,-1,4,1024,RJOA 012200Z 30005KT 9999 FEW020 BKN050 01/M04 Q1024 RMK     1CU020 7SC050 A3024=,
20180101_230000.002,0,RJOA,,,,0,20180101230000,-1,-1,-1,-1,310,-1,4,-1,-1,290,20,,9999,0,0,1,FEW 45,1,1,-1,4,1024,RJOA 012300Z 31004KT 290V020 9999 FEW045 01/M04 Q1024 RMK     2SC045 A3025=,
20180102_000000.003,0,RJOA,,,,0,20180102000000,-1,-1,-1,-1,310,-1,5,-1,-1,-1,-1,,9999,0,0,1,FEW 45,1,3,-1,3,1024,RJOA 020000Z 31005KT 9999 FEW045 03/M03 Q1024 RMK 1SC045     A3025=,
20180102_010000.003,0,RJOA,,,,0,20180102010000,-1,-1,-1,-1,260,-1,4,-1,-1,230,300,,9999,0,0,1,FEW 30,1,5,-1,4,1024,RJOA 020100Z 26004KT 230V300 9999 FEW030 05/M04 Q1024 RMK     1CU030 A3026=,
20180102_020000.002,0,RJOA,,,,0,20180102020000,-1,-1,-1,-1,300,-1,6,-1,-1,260,350,,9999,0,0,2,FEW 20   SCT 35,1,7,-1,4,1024,RJOA 020200Z 30006KT 260V350 9999 FEW020 SCT035 07/M04 Q1024     RMK 1CU020 3CU035 A3024=,
20180102_030000.002,0,RJOA,,,,0,20180102030000,-1,-1,-1,-1,250,-1,8,-1,-1,-1,-1,,9999,0,0,2,FEW 20   SCT 35,1,7,-1,5,1022,RJOA 020300Z 25008KT 9999 FEW020 SCT035 07/M05 Q1022 RMK     1CU020 3CU035 A3019=,
20180102_040000.002,0,RJOA,,,,0,20180102040000,-1,-1,-1,-1,300,-1,8,-1,-1,260,330,,9999,0,0,1,SCT 30,1,8,-1,5,1021,RJOA 020400Z 30008KT 260V330 9999 SCT030 08/M05 Q1021 RMK     3CU030 A3017=,
20180102_050000.002,0,RJOA,,,,0,20180102050000,-1,-1,-1,-1,290,-1,11,-1,-1,240,310,,9999,0,0,2,FEW 35   SCT 50,1,9,-1,5,1021,RJOA 020500Z 29011KT 240V310 9999 FEW035 SCT050 09/M05 Q1021     RMK 1CU035 3SC050 A3017=,
20180102_060000.002,0,RJOA,,,,0,20180102060000,-1,-1,-1,-1,300,-1,15,-1,-1,-1,-1,,9999,0,0,1,SCT 35,1,8,-1,8,1021,RJOA 020600Z 30015KT 9999 SCT035 08/M08 Q1021 RMK 3CU035     A3017=,
20180102_070000.002,0,RJOA,,,,0,20180102070000,-1,-1,-1,-1,310,-1,16,-1,-1,-1,-1,,9999,0,0,1,FEW 25,1,8,-1,8,1021,RJOA 020700Z 31016KT 9999 FEW025 08/M08 Q1021 RMK 1CU025     A3017=,
20180102_080000.002,0,RJOA,,,,0,20180102080000,-1,-1,-1,-1,300,-1,11,-1,-1,-1,-1,,9999,0,0,1,FEW 25,1,6,-1,6,1021,RJOA 020800Z 30011KT 9999 FEW025 06/M06 Q1021 RMK 1CU025     A3016=,
20180102_090000.002,0,RJOA,,,,0,20180102090000,-1,-1,-1,-1,300,-1,14,-1,-1,-1,-1,,9999,0,0,1,FEW 20,1,5,-1,5,1022,RJOA 020900Z 30014KT 9999 FEW020 05/M05 Q1022 RMK 1CU020     A3018=,
20180102_100000.002,0,RJOA,,,,0,20180102100000,-1,-1,-1,-1,300,-1,9,-1,-1,-1,-1,,9999,0,0,1,FEW 20,1,4,-1,4,1022,RJOA 021000Z 30009KT 9999 FEW020 04/M04 Q1022 RMK 1CU020     A3020=,
20180102_110000.002,0,RJOA,,,,0,20180102110000,-1,-1,-1,-1,310,-1,3,-1,-1,260,350,,9999,0,0,2,FEW 20   BKN 40,1,3,-1,4,1022,RJOA 021100Z 31003KT 260V350 9999 FEW020 BKN040 03/M04 Q1022     RMK 1CU020 5SC040 A3020=,
20180102_120000.002,0,RJOA,,,,0,20180102120000,-1,-1,-1,-1,280,-1,3,-1,-1,-1,-1,,9999,0,0,2,FEW 20   SCT 40,1,2,-1,4,1021,RJOA 021200Z 28003KT 9999 FEW020 SCT040 02/M04 Q1021 RMK     1CU020 3SC040 A3018=,
20180102_130000.003,0,RJOA,,,,0,20180102130000,-1,-1,-1,-1,270,-1,3,-1,-1,240,300,,9999,0,0,2,FEW 20   BKN 40,1,2,-1,4,1021,RJOA 021300Z 27003KT 240V300 9999 FEW020 BKN040 02/M04 Q1021     RMK 1CU020 5SC040 A3016=,
20180102_220000.002,0,RJOA,,,,0,20180102220000,-1,-1,-1,-1,300,-1,7,-1,-1,280,350,,9999,0,1,2,FEW 15   SCT 30,1,3,-1,4,1022,RJOA 022200Z 30007KT 280V350 9999 -SHSNRA FEW015 SCT030 03/M04     Q1022 RMK 1CU015 4CU030 A3018=,- SN RA SH
20180102_230000.002,0,RJOA,,,,0,20180102230000,-1,-1,-1,-1,360,-1,10,-1,-1,310,20,,9999,0,1,2,FEW 15   BKN 30,1,2,-1,2,1022,RJOA 022300Z 36010KT 310V020 9999 -SHSN FEW015 BKN030 02/M02     Q1022 RMK 1CU015 6CU030 A3020=,- SN SH
20180103_000000.002,0,RJOA,,,,0,20180103000000,-1,-1,-1,-1,290,-1,11,-1,-1,-1,-1,,9999,0,0,1,FEW 15,1,4,-1,3,1022,RJOA 030000Z 29011KT 9999 FEW015 04/M03 Q1022 RMK 1CU015     A3020=,
20180103_010000.002,0,RJOA,,,,0,20180103010000,-1,-1,-1,-1,300,-1,9,-1,-1,-1,-1,,9999,0,0,2,FEW 15   BKN 30,1,4,-1,5,1022,RJOA 030100Z 30009KT 9999 FEW015 BKN030 04/M05 Q1022 RMK     1CU015 5CU030 A3020=,
20180103_020000.002,0,RJOA,,,,0,20180103020000,-1,-1,-1,-1,330,-1,11,-1,-1,290,360,,9999,0,1,2,FEW 15   BKN 30,1,3,-1,2,1023,RJOA 030200Z 33011KT 290V360 9999 -SHSN FEW015 BKN030 03/M02     Q1023 RMK 1CU015 5CU030 A3021=,- SN SH
20180103_030000.003,0,RJOA,,,,0,20180103030000,-1,-1,-1,-1,10,-1,11,-1,-1,-1,-1,,9999,0,1,2,FEW 15   BKN 25,1,3,-1,2,1022,RJOA 030300Z 01011KT 9999 -SHSNRA FEW015 BKN025 03/M02 Q1022     RMK 1CU015 6CU025 A3019=,- SN RA SH
20180103_040000.002,0,RJOA,,,,0,20180103040000,-1,-1,-1,-1,290,-1,10,-1,-1,260,320,,9999,0,0,1,FEW 15,1,4,-1,0,1021,RJOA 030400Z 29010KT 260V320 9999 FEW015 04/M00 Q1021 RMK     2CU015 A3016=,
20180103_050000.002,0,RJOA,,,,0,20180103050000,-1,-1,-1,-1,320,-1,12,-1,-1,-1,-1,,9999,0,1,2,FEW 15   BKN 25,1,5,-1,4,1021,RJOA 030500Z 32012KT 9999 -SHSNRA FEW015 BKN025 05/M04 Q1021     RMK 2CU015 5CU025 A3016=,- SN RA SH
20180103_060000.002,0,RJOA,,,,0,20180103060000,-1,-1,-1,-1,10,-1,11,-1,-1,-1,-1,,9999,0,1,2,FEW 10   SCT 25,1,4,-1,3,1021,RJOA 030600Z 01011KT 9999 VCSH FEW010 SCT025 04/M03 Q1021 RMK     1CU010 3CU025 A3017=,VC SH
20180103_070000.002,0,RJOA,,,,0,20180103070000,-1,-1,-1,-1,320,-1,12,-1,-1,-1,-1,,9999,0,1,3,FEW 10   SCT 25   BKN -9999,1,3,-1,4,1022,RJOA 030700Z 32012KT 9999 VCSH FEW010 SCT025 BKN/// 03/M04     Q1022 RMK 1CU010 3CU025 A3018=,VC SH
20180103_080000.002,0,RJOA,,,,0,20180103080000,-1,-1,-1,-1,330,-1,8,-1,-1,-1,-1,,9999,0,0,2,FEW 10   SCT 30,1,2,-1,3,1022,RJOA 030800Z 33008KT 9999 FEW010 SCT030 02/M03 Q1022 RMK     1CU010 3CU030 A3019=,
20180103_090000.002,0,RJOA,,,,0,20180103090000,-1,-1,-1,-1,360,-1,6,-1,17,340,70,,9999,0,0,2,FEW 10   SCT 30,1,1,-1,2,1022,RJOA 030900Z 36006G17KT 340V070 9999 FEW010 SCT030 01/M02     Q1022 RMK 1CU010 3CU030 A3020=,
20180103_100000.002,0,RJOA,,,,0,20180103100000,-1,-1,-1,-1,350,-1,4,-1,-1,-1,-1,,9999,0,0,2,FEW 10   SCT 30,1,1,-1,2,1023,RJOA 031000Z 35004KT 9999 FEW010 SCT030 01/M02 Q1023 RMK     1CU010 3CU030 A3022=,
20180103_110000.002,0,RJOA,,,,0,20180103110000,-1,-1,-1,-1,330,-1,4,-1,-1,-1,-1,,9999,0,0,1,SCT 30,1,0,-1,3,1023,RJOA 031100Z 33004KT 9999 SCT030 00/M03 Q1023 RMK 3CU030     A3023=,
20180103_120000.002,0,RJOA,,,,0,20180103120000,-1,-1,-1,-1,310,-1,3,-1,-1,280,360,,9999,0,0,1,FEW 30,-1,0,-1,3,1023,RJOA 031200Z 31003KT 280V360 9999 FEW030 M00/M03 Q1023 RMK     1CU030 A3023=,
20180103_130000.003,0,RJOA,,,,0,20180103130000,-1,-1,-1,-1,330,-1,3,-1,-1,-1,-1,CAVOK,-1,0,0,0,,1,0,-1,3,1023,RJOA 031300Z 33003KT CAVOK 00/M03 Q1023 RMK A3023=,
20180103_220000.002,0,RJOA,,,,0,20180103220000,-1,-1,-1,-1,310,-1,5,-1,-1,-1,-1,,9999,0,0,2,FEW 20   SCT 40,1,0,-1,5,1023,RJOA 032200Z 31005KT 9999 FEW020 SCT040 00/M05 Q1023 RMK     1CU020 3CU040 A3021=,
20180103_230000.002,0,RJOA,,,,0,20180103230000,-1,-1,-1,-1,310,-1,6,-1,-1,290,10,,9999,0,0,2,FEW 20   SCT 40,1,1,-1,5,1023,RJOA 032300Z 31006KT 290V010 9999 FEW020 SCT040 01/M05 Q1023     RMK 1CU020 3CU040 A3021=,
20180104_000000.002,0,RJOA,,,,0,20180104000000,-1,-1,-1,-1,290,-1,3,-1,-1,-1,-1,,9999,0,0,2,FEW 20   SCT 50,1,2,-1,3,1023,RJOA 040000Z 29003KT 9999 FEW020 SCT050 02/M03 Q1023 RMK     1CU020 3SC050 A3021=,
20180104_010000.002,0,RJOA,,,,0,20180104010000,-1,-1,-1,-1,270,-1,3,-1,-1,250,310,,9999,0,0,2,FEW 20   SCT 50,1,4,-1,4,1023,RJOA 040100Z 27003KT 250V310 9999 FEW020 SCT050 04/M04 Q1023     RMK 1CU020 3SC050 A3021=,
20180104_020000.002,0,RJOA,,,,0,20180104020000,-1,-1,-1,-1,999,-1,2,-1,-1,-1,-1,,9999,0,0,1,BKN 20,1,4,-1,4,1022,RJOA 040200Z VRB02KT 9999 BKN020 04/M04 Q1022 RMK 5CU020     A3021=,
20180104_030000.002,0,RJOA,,,,0,20180104030000,-1,-1,-1,-1,310,-1,6,-1,-1,-1,-1,,9999,0,0,2,FEW 20   SCT 30,1,5,-1,4,1021,RJOA 040300Z 31006KT 9999 FEW020 SCT030 05/M04 Q1021 RMK     1CU020 4CU030 A3016=,
20180104_040000.002,0,RJOA,,,,0,20180104040000,-1,-1,-1,-1,320,-1,6,-1,-1,-1,-1,,9999,0,0,2,FEW 25   SCT 40,1,7,-1,4,1020,RJOA 040400Z 32006KT 9999 FEW025 SCT040 07/M04 Q1020 RMK     1CU025 4CU040 A3014=,
20180104_050000.002,0,RJOA,,,,0,20180104050000,-1,-1,-1,-1,310,-1,9,-1,-1,270,340,,9999,0,0,2,FEW 25   BKN 40,1,6,-1,5,1020,RJOA 040500Z 31009KT 270V340 9999 FEW025 BKN040 06/M05 Q1020     RMK 1CU025 5CU040 A3012=,
20180104_060000.003,0,RJOA,,,,0,20180104060000,-1,-1,-1,-1,360,-1,9,-1,-1,-1,-1,,9999,0,0,2,FEW 20   BKN 40,1,6,-1,4,1020,RJOA 040600Z 36009KT 9999 FEW020 BKN040 06/M04 Q1020 RMK     1CU020 6CU040 A3012=,
20180104_070000.002,0,RJOA,,,,0,20180104070000,-1,-1,-1,-1,320,-1,3,-1,-1,270,360,,9999,0,0,3,FEW 20   SCT 50   BKN 170,1,5,-1,4,1020,RJOA 040700Z 32003KT 270V360 9999 FEW020 SCT050 BKN170 05/M04     Q1020 RMK 1CU020 3SC050 6AC170 A3013=,
20180104_080000.002,0,RJOA,,,,0,20180104080000,-1,-1,-1,-1,350,-1,7,-1,-1,-1,-1,,9999,0,0,3,FEW 20   SCT 30   BKN 50,1,5,-1,3,1020,RJOA 040800Z 35007KT 9999 FEW020 SCT030 BKN050 05/M03 Q1020     RMK 1CU020 3CU030 6SC050 A3014=,
20180104_090000.002,0,RJOA,,,,0,20180104090000,-1,-1,-1,-1,350,-1,8,-1,-1,-1,-1,,9999,0,0,3,FEW 20   SCT 50   BKN 140,1,4,-1,4,1020,RJOA 040900Z 35008KT 9999 FEW020 SCT050 BKN140 04/M04 Q1020     RMK 1CU020 3SC050 6AC140 A3014=,
20180104_100000.002,0,RJOA,,,,0,20180104100000,-1,-1,-1,-1,350,-1,9,-1,-1,-1,-1,,9999,0,0,3,FEW 20   SCT 50   BKN 120,1,3,-1,3,1021,RJOA 041000Z 35009KT 9999 FEW020 SCT050 BKN120 03/M03 Q1021     RMK 1CU020 3SC050 7AC120 A3015=,
20180104_110000.002,0,RJOA,,,,0,20180104110000,-1,-1,-1,-1,340,-1,6,-1,-1,330,40,,9999,0,0,3,FEW 20   BKN 120   BKN -9999,1,4,-1,3,1021,RJOA 041100Z 34006KT 330V040 9999 FEW020 BKN120 BKN/// 04/M03     Q1021 RMK 1CU020 6AC120 A3015=,
20180104_120000.003,0,RJOA,,,,0,20180104120000,-1,-1,-1,-1,310,-1,4,-1,-1,-1,-1,,9999,0,0,3,FEW 20   SCT 120   BKN -9999,1,2,-1,4,1020,RJOA 041200Z 31004KT 9999 FEW020 SCT120 BKN/// 02/M04 Q1020     RMK 1CU020 3AC120 A3013=,
20180104_130000.002,0,RJOA,,,,0,20180104130000,-1,-1,-1,-1,330,-1,5,-1,-1,-1,-1,,9999,0,0,3,FEW 20   BKN 120   BKN -9999,1,2,-1,4,1020,RJOA 041300Z 33005KT 9999 FEW020 BKN120 BKN/// 02/M04 Q1020     RMK 1CU020 5AC120 A3013=,
20180104_220000.002,0,RJOA,,,,0,20180104220000,-1,-1,-1,-1,999,-1,2,-1,-1,-1,-1,,9999,0,0,3,FEW 20   SCT 50   BKN 80,1,2,-1,3,1016,RJOA 042200Z VRB02KT 9999 FEW020 SCT050 BKN080 02/M03 Q1016     RMK 1CU020 3SC050 5AC080 A3001=,
20180104_230000.002,0,RJOA,,,,0,20180104230000,-1,-1,-1,-1,340,-1,3,-1,-1,320,90,,9999,0,0,3,FEW 20   SCT 60   BKN 80,1,2,-1,3,1016,RJOA 042300Z 34003KT 320V090 9999 FEW020 SCT060 BKN080 02/M03     Q1016 RMK 1CU020 3SC060 5AC080 A3003=,
20180105_000000.002,0,RJOA,,,,0,20180105000000,-1,-1,-1,-1,999,-1,1,-1,-1,-1,-1,,9999,0,0,2,SCT 15   BKN 50,1,2,-1,3,1016,RJOA 050000Z VRB01KT 9999 SCT015 BKN050 02/M03 Q1016 RMK     3CU015 7SC050 A3003=,
20180105_010000.003,0,RJOA,,,,0,20180105010000,-1,-1,-1,-1,999,-1,2,-1,-1,-1,-1,,9999,0,1,2,SCT 15   BKN 35,1,3,-1,3,1017,RJOA 050100Z VRB02KT 9999 -SNRA SCT015 BKN035 03/M03 Q1017 RMK     3CU015 7SC035 A3003=,- SN RA
20180105_020000.002,0,RJOA,,,,0,20180105020000,-1,-1,-1,-1,280,-1,3,-1,-1,190,330,,9999,0,1,3,FEW 15   SCT 35   BKN 100,1,4,-1,1,1016,RJOA 050200Z 28003KT 190V330 9999 -RASN FEW015 SCT035 BKN100     04/M01 Q1016 RMK 1CU015 3SC035 6AC100 A3002=,- RA SN
20180105_030000.002,0,RJOA,,,,0,20180105030000,-1,-1,-1,-1,999,-1,2,-1,-1,-1,-1,,9999,0,0,3,SCT 15   BKN 25   BKN 70,1,3,-1,1,1015,RJOA 050300Z VRB02KT 9999 SCT015 BKN025 BKN070 03/M01 Q1015     RMK 3CU015 5CU025 7AC070 A2997=,
20180105_040000.002,0,RJOA,,,,0,20180105040000,-1,-1,-1,-1,999,-1,2,-1,-1,-1,-1,,9999,0,0,2,FEW 15   BKN 20,1,4,-1,1,1014,RJOA 050400Z VRB02KT 9999 FEW015 BKN020 04/M01 Q1014 RMK     2CU015 7CU020 A2996=,
20180105_050000.002,0,RJOA,,,,0,20180105050000,-1,-1,-1,-1,100,-1,4,-1,-1,50,140,,9999,0,0,2,FEW 15   BKN 20,1,4,-1,1,1014,RJOA 050500Z 10004KT 050V140 9999 FEW015 BKN020 04/M01 Q1014     RMK 1CU015 6CU020 A2994=,
20180105_060000.002,0,RJOA,,,,0,20180105060000,-1,-1,-1,-1,999,-1,1,-1,-1,-1,-1,,9999,0,0,2,FEW 15   BKN 20,1,5,-1,1,1013,RJOA 050600Z VRB01KT 9999 FEW015 BKN020 05/M01 Q1013 RMK     1CU015 5CU020 A2993=,
20180105_070000.002,0,RJOA,,,,0,20180105070000,-1,-1,-1,-1,130,-1,5,-1,-1,80,210,,9999,0,0,2,FEW 15   SCT 20,1,5,-1,0,1013,RJOA 050700Z 13005KT 080V210 9999 FEW015 SCT020 05/M00 Q1013     RMK 1CU015 3CU020 A2993=,
20180105_080000.002,0,RJOA,,,,0,20180105080000,-1,-1,-1,-1,999,-1,2,-1,-1,-1,-1,,9999,0,0,3,FEW 15   SCT 20   BKN 80,1,4,-1,0,1013,RJOA 050800Z VRB02KT 9999 FEW015 SCT020 BKN080 04/M00 Q1013     RMK 2CU015 3CU020 6AC080 A2993=,
20180105_090000.002,0,RJOA,,,,0,20180105090000,-1,-1,-1,-1,999,-1,2,-1,-1,-1,-1,,9999,0,0,2,FEW 20   SCT 70,1,3,1,0,1013,RJOA 050900Z VRB02KT 9999 FEW020 SCT070 03/00 Q1013 RMK 1CU020     3AC070 A2994=,
20180105_100000.002,0,RJOA,,,,0,20180105100000,-1,-1,-1,-1,999,-1,1,-1,-1,-1,-1,,9999,0,0,2,FEW 10   BKN 25,1,3,1,1,1013,RJOA 051000Z VRB01KT 9999 FEW010 BKN025 03/01 Q1013 RMK 2CU010     6CU025 A2993=,
20180105_110000.002,0,RJOA,,,,0,20180105110000,-1,-1,-1,-1,999,-1,2,-1,-1,-1,-1,,9999,0,0,2,FEW 10   BKN 20,1,3,1,1,1013,RJOA 051100Z VRB02KT 9999 FEW010 BKN020 03/01 Q1013 RMK 2CU010     7CU020 A2993=,
20180105_120000.002,0,RJOA,,,,0,20180105120000,-1,-1,-1,-1,999,-1,2,-1,-1,-1,-1,,9999,0,0,3,FEW 10   SCT 20   BKN 35,1,3,1,1,1013,RJOA 051200Z VRB02KT 9999 FEW010 SCT020 BKN035 03/01 Q1013 RMK     2CU010 3CU020 7SC035 A2993=,
20180105_130000.002,0,RJOA,,,,0,20180105130000,-1,-1,-1,-1,999,-1,2,-1,-1,-1,-1,,9999,0,0,2,FEW 10   BKN 15,1,4,1,1,1013,RJOA 051300Z VRB02KT 9999 FEW010 BKN015 04/01 Q1013 RMK 2CU010     7CU015 A2992=,
20180105_220000.002,0,RJOA,,,,0,20180105220000,-1,-1,-1,-1,999,-1,2,-1,-1,-1,-1,,9999,0,0,2,FEW 20   BKN 30,1,2,1,2,1014,RJOA 052200Z VRB02KT 9999 FEW020 BKN030 02/02 Q1014 RMK 1CU020     6CU030 A2996=,
20180105_230000.002,0,RJOA,,,,0,20180105230000,-1,-1,-1,-1,280,-1,4,-1,-1,250,60,,9999,0,0,2,FEW 20   BKN 30,1,2,1,0,1015,RJOA 052300Z 28004KT 250V060 9999 FEW020 BKN030 02/00 Q1015     RMK 1CU020 5CU030 A2998=,
20180106_000000.002,0,RJOA,,,,0,20180106000000,-1,-1,-1,-1,260,-1,4,-1,-1,-1,-1,,9999,0,0,1,FEW 25,1,4,-1,1,1015,RJOA 060000Z 26004KT 9999 FEW025 04/M01 Q1015 RMK 1CU025     A2999=,
20180106_010000.002,0,RJOA,,,,0,20180106010000,-1,-1,-1,-1,280,-1,9,-1,-1,230,300,,9999,0,0,2,FEW 25   SCT 40,1,6,-1,2,1016,RJOA 060100Z 28009KT 230V300 9999 FEW025 SCT040 06/M02 Q1016     RMK 1CU025 4CU040 A3002=,
20180106_020000.002,0,RJOA,,,,0,20180106020000,-1,-1,-1,-1,270,-1,7,-1,-1,250,320,,9999,0,0,3,FEW 25   SCT 35   BKN 45,1,6,-1,3,1016,RJOA 060200Z 27007KT 250V320 9999 FEW025 SCT035 BKN045 06/M03     Q1016 RMK 1CU025 3CU035 6SC045 A3001=,
20180106_030000.002,0,RJOA,,,,0,20180106030000,-1,-1,-1,-1,300,-1,8,-1,-1,-1,-1,,9999,0,0,3,FEW 20   SCT 30   BKN 40,1,7,-1,2,1015,RJOA 060300Z 30008KT 9999 FEW020 SCT030 BKN040 07/M02 Q1015     RMK 1CU020 3CU030 6CU040 A2999=,
20180106_040000.002,0,RJOA,,,,0,20180106040000,-1,-1,-1,-1,340,-1,10,-1,-1,300,360,,9999,0,0,2,SCT 20   BKN 40,1,6,-1,1,1015,RJOA 060400Z 34010KT 300V360 9999 SCT020 BKN040 06/M01 Q1015     RMK 3CU020 6CU040 A2998=,
20180106_050000.002,0,RJOA,,,,0,20180106050000,-1,-1,-1,-1,350,-1,12,-1,-1,-1,-1,,9999,0,0,2,SCT 20   BKN 40,1,5,-1,1,1015,RJOA 060500Z 35012KT 9999 SCT020 BKN040 05/M01 Q1015 RMK     3CU020 6CU040 A2999=,
20180106_060000.002,0,RJOA,,,,0,20180106060000,-1,-1,-1,-1,320,-1,12,-1,-1,280,360,,9999,0,0,2,SCT 20   BKN 40,1,6,-1,2,1016,RJOA 060600Z 32012KT 280V360 9999 SCT020 BKN040 06/M02 Q1016     RMK 3CU020 6CU040 A3000=,
20180106_070000.002,0,RJOA,,,,0,20180106070000,-1,-1,-1,-1,330,-1,9,-1,-1,-1,-1,,9999,0,0,2,SCT 20   BKN 40,1,6,-1,3,1016,RJOA 060700Z 33009KT 9999 SCT020 BKN040 06/M03 Q1016 RMK     3CU020 6CU040 A3002=,
20180106_080000.002,0,RJOA,,,,0,20180106080000,-1,-1,-1,-1,310,-1,11,-1,-1,-1,-1,,9999,0,0,2,FEW 20   SCT 40,1,5,-1,4,1016,RJOA 060800Z 31011KT 9999 FEW020 SCT040 05/M04 Q1016 RMK     1CU020 3CU040 A3003=,
20180106_090000.002,0,RJOA,,,,0,20180106090000,-1,-1,-1,-1,330,-1,6,-1,-1,290,40,,9999,0,0,1,FEW 20,1,4,-1,5,1017,RJOA 060900Z 33006KT 290V040 9999 FEW020 04/M05 Q1017 RMK     2CU020 A3004=,
20180106_100000.002,0,RJOA,,,,0,20180106100000,-1,-1,-1,-1,300,-1,5,-1,-1,-1,-1,,9999,0,0,2,FEW 20   SCT 45,1,3,-1,5,1019,RJOA 061000Z 30005KT 9999 FEW020 SCT045 03/M05 Q1019 RMK     1CU020 3SC045 A3009 P/RR=,
20180106_110000.002,0,RJOA,,,,0,20180106110000,-1,-1,-1,-1,300,-1,4,-1,-1,270,360,,9999,0,0,1,FEW 20,1,2,-1,5,1019,RJOA 061100Z 30004KT 270V360 9999 FEW020 02/M05 Q1019 RMK     1CU020 A3011=,
20180106_120000.002,0,RJOA,,,,0,20180106120000,-1,-1,-1,-1,330,-1,3,-1,-1,290,10,,9999,0,0,1,FEW 20,1,3,-1,4,1019,RJOA 061200Z 33003KT 290V010 9999 FEW020 03/M04 Q1019 RMK     1CU020 A3012=,
20180106_130000.002,0,RJOA,,,,0,20180106130000,-1,-1,-1,-1,330,-1,2,-1,-1,-1,-1,,9999,0,0,1,FEW 20,1,2,-1,4,1020,RJOA 061300Z 33002KT 9999 FEW020 02/M04 Q1020 RMK 1CU020     A3013=,
20180106_220000.002,0,RJOA,,,,0,20180106220000,-1,-1,-1,-1,999,-1,1,-1,-1,-1,-1,,9999,0,0,2,FEW 20   SCT -9999,1,0,-1,1,1022,RJOA 062200Z VRB01KT 9999 FEW020 SCT/// 00/M01 Q1022 RMK     1CU020 A3018=,
20180106_230000.002,0,RJOA,,,,0,20180106230000,-1,-1,-1,-1,30,-1,3,-1,-1,360,60,,9999,0,0,2,FEW 20   BKN -9999,1,1,-1,1,1022,RJOA 062300Z 03003KT 360V060 9999 FEW020 BKN/// 01/M01 Q1022     RMK 1CU020 A3018=,
20180107_000000.002,0,RJOA,,,,0,20180107000000,-1,-1,-1,-1,70,-1,4,-1,-1,30,110,,9999,0,0,2,FEW 20   BKN -9999,1,3,-1,1,1022,RJOA 070000Z 07004KT 030V110 9999 FEW020 BKN/// 03/M01 Q1022     RMK 1CU020 A3019=,
20180107_010000.003,0,RJOA,,,,0,20180107010000,-1,-1,-1,-1,90,-1,7,-1,-1,-1,-1,,9999,0,0,2,FEW 20   BKN -9999,1,5,-1,1,1022,RJOA 070100Z 09007KT 9999 FEW020 BKN/// 05/M01 Q1022 RMK     1CU020 A3018=,
20180107_020000.002,0,RJOA,,,,0,20180107020000,-1,-1,-1,-1,100,-1,5,-1,-1,50,140,,9999,0,0,2,FEW 20   BKN -9999,1,5,-1,1,1022,RJOA 070200Z 10005KT 050V140 9999 FEW020 BKN/// 05/M01 Q1022     RMK 1CU020 A3019=,
20180107_030000.002,0,RJOA,,,,0,20180107030000,-1,-1,-1,-1,140,-1,5,-1,-1,80,210,,9999,0,0,2,FEW 25   BKN -9999,1,6,-1,1,1021,RJOA 070300Z 14005KT 080V210 9999 FEW025 BKN/// 06/M01 Q1021     RMK 1CU025 A3016=,
20180107_040000.002,0,RJOA,,,,0,20180107040000,-1,-1,-1,-1,140,-1,5,-1,-1,90,210,,9999,0,0,3,FEW 25   SCT 130   BKN -9999,1,6,-1,2,1021,RJOA 070400Z 14005KT 090V210 9999 FEW025 SCT130 BKN/// 06/M02     Q1021 RMK 2CU025 3AC130 A3015=,
20180107_050000.002,0,RJOA,,,,0,20180107050000,-1,-1,-1,-1,170,-1,4,-1,-1,140,210,,9999,0,0,3,FEW 30   BKN 130   BKN -9999,1,6,-1,2,1021,RJOA 070500Z 17004KT 140V210 9999 FEW030 BKN130 BKN/// 06/M02     Q1021 RMK 1CU030 6AC130 A3015=,
20180107_060000.002,0,RJOA,,,,0,20180107060000,-1,-1,-1,-1,120,-1,3,-1,-1,-1,-1,,9999,0,0,2,FEW 30   BKN 130,1,6,-1,2,1021,RJOA 070600Z 12003KT 9999 FEW030 BKN130 06/M02 Q1021 RMK     1CU030 7AC130 A3015=,
20180107_070000.002,0,RJOA,,,,0,20180107070000,-1,-1,-1,-1,140,-1,3,-1,-1,100,180,,9999,0,0,2,FEW 30   BKN 120,1,6,-1,2,1020,RJOA 070700Z 14003KT 100V180 9999 FEW030 BKN120 06/M02 Q1020     RMK 1CU030 7AC120 A3014=,
20180107_080000.002,0,RJOA,,,,0,20180107080000,-1,-1,-1,-1,110,-1,6,-1,-1,-1,-1,,9999,0,0,2,FEW 20   BKN 110,1,5,-1,2,1020,RJOA 070800Z 11006KT 9999 FEW020 BKN110 05/M02 Q1020 RMK     1CU020 7AC110 A3013=,
20180107_090000.002,0,RJOA,,,,0,20180107090000,-1,-1,-1,-1,999,-1,2,-1,-1,-1,-1,,9999,0,0,2,FEW 20   BKN 100,1,5,-1,2,1021,RJOA 070900Z VRB02KT 9999 FEW020 BKN100 05/M02 Q1021 RMK     1CU020 7AC100 A3016=,
20180107_100000.002,0,RJOA,,,,0,20180107100000,-1,-1,-1,-1,120,-1,3,-1,-1,70,180,,9999,0,0,2,FEW 20   BKN 100,1,4,-1,1,1021,RJOA 071000Z 12003KT 070V180 9999 FEW020 BKN100 04/M01 Q1021     RMK 1CU020 7AC100 A3016=,
20180107_110000.002,0,RJOA,,,,0,20180107110000,-1,-1,-1,-1,110,-1,5,-1,-1,80,140,,9999,0,0,3,FEW 20   SCT 40   BKN 80,1,4,-1,1,1021,RJOA 071100Z 11005KT 080V140 9999 FEW020 SCT040 BKN080 04/M01     Q1021 RMK 1CU020 3CU040 7AC080 A3015=,
20180107_120000.003,0,RJOA,,,,0,20180107120000,-1,-1,-1,-1,100,-1,3,-1,-1,-1,-1,,9999,0,0,3,FEW 20   SCT 40   BKN 80,1,4,-1,1,1020,RJOA 071200Z 10003KT 9999 FEW020 SCT040 BKN080 04/M01 Q1020     RMK 1CU020 3CU040 7AC080 A3014=,
20180107_130000.003,0,RJOA,,,,0,20180107130000,-1,-1,-1,-1,60,-1,4,-1,-1,-1,-1,,9999,0,0,3,FEW 20   SCT 40   BKN 70,1,4,-1,1,1020,RJOA 071300Z 06004KT 9999 FEW020 SCT040 BKN070 04/M01 Q1020     RMK 1CU020 3CU040 7AC070 A3013=,
20180107_220000.002,0,RJOA,,,,0,20180107220000,-1,-1,-1,-1,90,-1,9,-1,-1,-1,-1,,2000,0,3,3,FEW 0   BKN 5   BKN 10,1,3,1,2,1014,RJOA 072200Z 09009KT 2000 SHRA BCFG BR FEW000 BKN005 BKN010     03/02 Q1014 RMK 1ST000 5ST005 7CU010 A2995 FG E-SE AND           S-W=,RA SH; BC FG; BR
20180107_230000.002,0,RJOA,,,,0,20180107230000,-1,-1,-1,-1,70,-1,10,-1,-1,-1,-1,,1500,1,3,3,FEW 0   BKN 2   BKN 3,1,3,1,3,1013,RJOA 072300Z 07010KT 1500 R10/P1800N -SHRA BCFG BR FEW000     BKN002 BKN003 03/03 Q1013 RMK 1ST000 5ST002 6ST003 A2992=,- RA SH; BC FG; BR
20180108_000000.002,0,RJOA,,,,0,20180108000000,-1,-1,-1,-1,80,-1,9,-1,-1,-1,-1,,1500,1,3,3,FEW 0   BKN 2   BKN 3,1,4,1,3,1012,RJOA 080000Z 08009KT 1500 R10/P1800N -SHRA BCFG BR FEW000     BKN002 BKN003 04/03 Q1012 RMK 1ST000 5ST002 6ST003 A2990=,- RA SH; BC FG; BR
20180108_010000.002,0,RJOA,,,,0,20180108010000,-1,-1,-1,-1,100,-1,7,-1,-1,70,140,,1500,1,3,3,FEW 0   BKN 2   BKN 3,1,4,1,4,1011,RJOA 080100Z 10007KT 070V140 1500 R10/P1800N -SHRA BCFG BR     FEW000 BKN002 BKN003 04/04 Q1011 RMK 1ST000 5ST002 6ST003           A2987=,- RA SH; BC FG; BR
20180108_020000.002,0,RJOA,,,,0,20180108020000,-1,-1,-1,-1,100,-1,7,-1,-1,-1,-1,,1000,1,3,3,FEW 0   BKN 1   BKN 2,1,5,1,5,1009,RJOA 080200Z 10007KT 1000 R10/0350VP1800U -SHRA BCFG BR FEW000     BKN001 BKN002 05/05 Q1009 RMK 1ST000 5ST001 7ST002 A2982           P/FR=,- RA SH; BC FG; BR
20180108_030000.002,0,RJOA,,,,0,20180108030000,-1,-1,-1,-1,120,-1,4,-1,-1,70,150,,100,1,2,1,VV 1,1,5,1,5,1008,RJOA 080300Z 12004KT 070V150 0100 R10/0200V0300N -DZ FG VV001     05/05 Q1008 RMK A2977=,- DZ; FG
20180108_040000.002,0,RJOA,,,,0,20180108040000,-1,-1,-1,-1,130,-1,3,-1,-1,90,160,,100,1,2,1,VV 1,1,5,1,5,1008,RJOA 080400Z 13003KT 090V160 0100 R10/0250V0400N -SHRA FG     VV001 05/05 Q1008 RMK A2977 MOD TURB OBS AT 0346Z AMURO           BTN 16000FT AND 14000FT B738=,- RA SH; FG
20180108_050000.002,0,RJOA,,,,0,20180108050000,-1,-1,-1,-1,999,-1,1,-1,-1,-1,-1,,600,1,2,3,FEW 0   BKN 1   BKN 3,1,5,1,5,1006,RJOA 080500Z VRB01KT 0600 R10/P1800N -SHRA FG FEW000 BKN001     BKN003 05/05 Q1006 RMK 2ST000 5ST001 7ST003 A2972 P/FR=,- RA SH; FG
20180108_060000.003,0,RJOA,,,,0,20180108060000,-1,-1,-1,-1,999,-1,2,-1,-1,-1,-1,,300,1,2,1,VV 1,1,6,1,6,1005,RJOA 080600Z VRB02KT 0300 R10/0250V0450U -SHRA FG VV001 06/06     Q1005 RMK A2970=,- RA SH; FG
20180108_070000.002,0,RJOA,,,,0,20180108070000,-1,-1,-1,-1,100,-1,3,-1,-1,-1,-1,,800,1,2,3,FEW 0   BKN 1   BKN 2,1,6,1,6,1005,RJOA 080700Z 10003KT 0800 R10/P1800N -SHRA FG FEW000 BKN001     BKN002 06/06 Q1005 RMK 1ST000 5ST001 6ST002 A2968=,- RA SH; FG
20180108_080000.002,0,RJOA,,,,0,20180108080000,-1,-1,-1,-1,999,-1,2,-1,-1,-1,-1,,400,1,2,1,VV 1,1,6,1,6,1005,RJOA 080800Z VRB02KT 0400 R10/0500V1800D -SHRA FG VV001 06/06     Q1005 RMK A2969=,- RA SH; FG
20180108_090000.002,0,RJOA,,,,0,20180108090000,-1,-1,-1,-1,100,-1,4,-1,-1,50,120,,800,1,2,3,FEW 0   SCT 1   BKN 2,1,6,1,6,1004,RJOA 080900Z 10004KT 050V120 0800 R10/0350VP1800U -SHRA FG     FEW000 SCT001 BKN002 06/06 Q1004 RMK 1ST000 3ST001 5ST002           A2966=,- RA SH; FG
20180108_100000.002,0,RJOA,,,,0,20180108100000,-1,-1,-1,-1,300,-1,3,-1,-1,230,330,,1500,1,3,3,FEW 0   SCT 2   BKN 4,1,6,1,6,1004,RJOA 081000Z 30003KT 230V330 1500 R10/0450V0900D -SHRA BCFG BR     FEW000 SCT002 BKN004 06/06 Q1004 RMK 1ST000 3ST002 5ST004           A2966=,- RA SH; BC FG; BR
20180108_110000.002,0,RJOA,,,,0,20180108110000,-1,-1,-1,-1,999,-1,1,-1,-1,-1,-1,,900,1,2,3,FEW 0   BKN 1   BKN 2,1,6,1,6,1004,RJOA 081100Z VRB01KT 0900 R10/P1800N -SHRA FG FEW000 BKN001     BKN002 06/06 Q1004 RMK 1ST000 5ST001 6ST002 A2965=,- RA SH; FG
20180108_120000.002,0,RJOA,,,,0,20180108120000,-1,-1,-1,-1,999,-1,1,-1,-1,-1,-1,,2200,0,3,3,FEW 0   SCT 1   BKN 25,1,6,1,6,1003,RJOA 081200Z VRB01KT 2200 -SHRA BCFG BR FEW000 SCT001 BKN025     06/06 Q1003 RMK 1ST000 3ST001 5CU025 A2963 FG ALL QUAD           P/FR=,- RA SH; BC FG; BR
20180108_130000.003,0,RJOA,,,,0,20180108130000,-1,-1,-1,-1,290,-1,6,-1,-1,260,320,,4000,0,3,3,FEW 0   SCT 10   BKN 15,1,8,1,8,1003,RJOA 081300Z 29006KT 260V320 4000 -SHRA BCFG BR FEW000 SCT010     BKN015 08/08 Q1003 RMK 1ST000 3CU010 5CU015 A2963 FG BANK           SE-S AND SW=,- RA SH; BC FG; BR
20180108_220000.002,0,RJOA,,,,0,20180108220000,-1,-1,-1,-1,280,-1,14,-1,-1,-1,-1,,9999,0,0,2,FEW 15   SCT 35,1,4,-1,2,1005,RJOA 082200Z 28014KT 9999 FEW015 SCT035 04/M02 Q1005 RMK     1CU015 3CU035 A2968=,
20180108_230000.003,0,RJOA,,,,0,20180108230000,-1,-1,-1,-1,250,-1,14,-1,29,-1,-1,,9999,0,0,2,FEW 20   BKN 35,1,4,-1,4,1006,RJOA 082300Z 25014G29KT 9999 FEW020 BKN035 04/M04 Q1006 RMK     1CU020 6CU035 A2971=,
20180109_000000.002,0,RJOA,,,,0,20180109000000,-1,-1,-1,-1,250,-1,13,-1,-1,220,280,,9999,0,0,2,FEW 20   SCT 35,1,5,-1,5,1006,RJOA 090000Z 25013KT 220V280 9999 FEW020 SCT035 05/M05 Q1006     RMK 1CU020 3CU035 A2972=,
20180109_010000.002,0,RJOA,,,,0,20180109010000,-1,-1,-1,-1,250,-1,15,-1,-1,220,280,,9999,0,0,2,FEW 20   BKN 35,1,5,-1,5,1007,RJOA 090100Z 25015KT 220V280 9999 FEW020 BKN035 05/M05 Q1007     RMK 1CU020 5CU035 A2975 MOD TURB OBS AT 0030Z MOMOT BTN           18000FT AND 20000FT IN CLIMB A320=,
20180109_020000.002,0,RJOA,,,,0,20180109020000,-1,-1,-1,-1,250,-1,15,-1,25,-1,-1,,9999,0,1,2,FEW 20   BKN 35,1,4,-1,5,1007,RJOA 090200Z 25015G25KT 9999 -SHSN FEW020 BKN035 04/M05 Q1007     RMK 1CU020 6CU035 A2974=,- SN SH
20180109_030000.002,0,RJOA,,,,0,20180109030000,-1,-1,-1,-1,260,-1,14,-1,24,230,290,,9999,0,0,2,FEW 20   BKN 35,1,4,-1,3,1007,RJOA 090300Z 26014G24KT 230V290 9999 FEW020 BKN035 04/M03     Q1007 RMK 1CU020 6CU035 A2974=,
20180109_040000.002,0,RJOA,,,,0,20180109040000,-1,-1,-1,-1,270,-1,16,-1,-1,-1,-1,,9999,0,0,2,FEW 15   BKN 25,1,3,-1,4,1007,RJOA 090400Z 27016KT 9999 FEW015 BKN025 03/M04 Q1007 RMK     1CU015 5CU025 A2974=,
20180109_050000.002,0,RJOA,,,,0,20180109050000,-1,-1,-1,-1,280,-1,20,-1,32,-1,-1,,9999,0,1,2,FEW 15   BKN 25,1,4,-1,4,1007,RJOA 090500Z 28020G32KT 9999 -SHSN FEW015 BKN025 04/M04 Q1007     RMK 1CU015 5CU025 A2975=,- SN SH
20180109_060000.002,0,RJOA,,,,0,20180109060000,-1,-1,-1,-1,270,-1,14,-1,-1,-1,-1,,9999,0,1,2,FEW 15   BKN 25,1,2,-1,3,1008,RJOA 090600Z 27014KT 9999 -SHSN FEW015 BKN025 02/M03 Q1008 RMK     1CU015 5CU025 A2977=,- SN SH
20180109_070000.002,0,RJOA,,,,0,20180109070000,-1,-1,-1,-1,270,-1,12,-1,-1,-1,-1,,9999,0,1,2,FEW 15   SCT 25,1,2,-1,3,1008,RJOA 090700Z 27012KT 9999 -SHSN FEW015 SCT025 02/M03 Q1008 RMK     1CU015 3CU025 A2977=,- SN SH
20180109_080000.002,0,RJOA,,,,0,20180109080000,-1,-1,-1,-1,260,-1,8,-1,-1,220,290,,9999,0,1,2,FEW 15   BKN 25,1,1,-1,4,1010,RJOA 090800Z 26008KT 220V290 9999 -SHSN FEW015 BKN025 01/M04     Q1010 RMK 1CU015 5CU025 A2982=,- SN SH
20180109_090000.002,0,RJOA,,,,0,20180109090000,-1,-1,-1,-1,260,-1,6,-1,-1,-1,-1,,9999,0,1,2,FEW 15   BKN 25,1,2,-1,4,1011,RJOA 090900Z 26006KT 9999 -SHSN FEW015 BKN025 02/M04 Q1011 RMK     1CU015 5CU025 A2986=,- SN SH
20180109_100000.002,0,RJOA,,,,0,20180109100000,-1,-1,-1,-1,260,-1,7,-1,-1,-1,-1,,9999,0,1,2,FEW 15   BKN 25,1,1,-1,4,1011,RJOA 091000Z 26007KT 9999 -SHSN FEW015 BKN025 01/M04 Q1011 RMK     1CU015 5CU025 A2987=,- SN SH
20180109_110000.002,0,RJOA,,,,0,20180109110000,-1,-1,-1,-1,230,-1,5,-1,-1,200,270,,9999,0,0,2,FEW 15   SCT 25,1,1,-1,4,1011,RJOA 091100Z 23005KT 200V270 9999 FEW015 SCT025 01/M04 Q1011     RMK 1CU015 3CU025 A2987=,
20180109_120000.002,0,RJOA,,,,0,20180109120000,-1,-1,-1,-1,260,-1,5,-1,-1,-1,-1,,9999,0,0,2,FEW 15   SCT 25,1,1,-1,3,1012,RJOA 091200Z 26005KT 9999 FEW015 SCT025 01/M03 Q1012 RMK     1CU015 3CU025 A2989=,
20180109_130000.002,0,RJOA,,,,0,20180109130000,-1,-1,-1,-1,250,-1,2,-1,-1,-1,-1,,9999,0,0,1,FEW 15,1,0,-1,3,1012,RJOA 091300Z 25002KT 9999 FEW015 00/M03 Q1012 RMK 1CU015     A2990=,
20180109_220000.002,0,RJOA,,,,0,20180109220000,-1,-1,-1,-1,999,-1,2,-1,-1,-1,-1,,9999,0,0,2,FEW 15   SCT 80,-1,0,-1,4,1011,RJOA 092200Z VRB02KT 9999 FEW015 SCT080 M00/M04 Q1011 RMK     1CU015 3AC080 A2987=,
20180109_230000.002,0,RJOA,,,,0,20180109230000,-1,-1,-1,-1,280,-1,4,-1,-1,200,330,,9999,0,1,2,FEW 15   SCT 25,1,1,-1,3,1012,RJOA 092300Z 28004KT 200V330 9999 -SHSN FEW015 SCT025 01/M03     Q1012 RMK 1CU015 3CU025 A2988=,- SN SH
20180110_000000.002,0,RJOA,,,,0,20180110000000,-1,-1,-1,-1,270,-1,4,-1,-1,200,310,,9999,0,0,2,FEW 15   SCT 25,1,1,-1,2,1012,RJOA 100000Z 27004KT 200V310 9999 FEW015 SCT025 01/M02 Q1012     RMK 1CU015 3CU025 A2989=,
20180110_010000.002,0,RJOA,,,,0,20180110010000,-1,-1,-1,-1,260,-1,6,-1,-1,-1,-1,,9999,0,1,2,FEW 10   BKN 20,1,2,-1,1,1011,RJOA 100100Z 26006KT 9999 -SHSN FEW010 BKN020 02/M01 Q1011 RMK     1CU010 5CU020 A2988=,- SN SH
20180110_020000.002,0,RJOA,,,,0,20180110020000,-1,-1,-1,-1,260,-1,10,-1,-1,210,300,,9999,0,0,3,FEW 10   SCT 20   BKN 70,1,4,-1,1,1011,RJOA 100200Z 26010KT 210V300 9999 FEW010 SCT020 BKN070 04/M01     Q1011 RMK 1CU010 3CU020 5AC070 A2987=,
20180110_030000.002,0,RJOA,,,,0,20180110030000,-1,-1,-1,-1,250,-1,10,-1,-1,210,280,,9999,0,0,3,FEW 10   SCT 20   BKN 70,1,4,-1,2,1010,RJOA 100300Z 25010KT 210V280 9999 FEW010 SCT020 BKN070 04/M02     Q1010 RMK 1CU010 3CU020 5AC070 A2983=,
20180110_040000.003,0,RJOA,,,,0,20180110040000,-1,-1,-1,-1,250,-1,9,-1,-1,220,280,,9999,0,1,3,SCT 10   BKN 30   BKN 70,1,4,-1,2,1009,RJOA 100400Z 25009KT 220V280 9999 -SHSN SCT010 BKN030 BKN070     04/M02 Q1009 RMK 3CU010 5CU030 7AC070 A2982=,- SN SH
20180110_050000.002,0,RJOA,,,,0,20180110050000,-1,-1,-1,-1,310,-1,12,-1,-1,-1,-1,,9999,0,0,2,SCT 10   BKN 20,1,4,-1,1,1009,RJOA 100500Z 31012KT 9999 SCT010 BKN020 04/M01 Q1009 RMK     3CU010 5CU020 A2982=,
20180110_060000.002,0,RJOA,,,,0,20180110060000,-1,-1,-1,-1,280,-1,12,-1,-1,-1,-1,,9999,0,0,3,SCT 10   BKN 20   BKN 30,1,5,-1,3,1010,RJOA 100600Z 28012KT 9999 SCT010 BKN020 BKN030 05/M03 Q1010     RMK 3CU010 5CU020 7CU030 A2983=,
20180110_070000.002,0,RJOA,,,,0,20180110070000,-1,-1,-1,-1,290,-1,14,-1,-1,-1,-1,,9999,0,0,2,SCT 20   BKN 30,1,3,-1,2,1010,RJOA 100700Z 29014KT 9999 SCT020 BKN030 03/M02 Q1010 RMK     3CU020 5CU030 A2985=,
20180110_080000.002,0,RJOA,,,,0,20180110080000,-1,-1,-1,-1,290,-1,16,-1,-1,-1,-1,,9999,0,0,2,FEW 20   BKN 30,1,3,-1,5,1011,RJOA 100800Z 29016KT 9999 FEW020 BKN030 03/M05 Q1011 RMK     1CU020 5CU030 A2987=,
20180110_090000.002,0,RJOA,,,,0,20180110090000,-1,-1,-1,-1,300,-1,14,-1,-1,-1,-1,,9999,0,0,1,FEW 20,1,1,-1,5,1012,RJOA 100900Z 30014KT 9999 FEW020 01/M05 Q1012 RMK 2CU020     A2988=,
20180110_100000.002,0,RJOA,,,,0,20180110100000,-1,-1,-1,-1,270,-1,11,-1,-1,-1,-1,,9999,0,0,1,FEW 20,-1,0,-1,6,1012,RJOA 101000Z 27011KT 9999 FEW020 M00/M06 Q1012 RMK 1CU020     A2990=,
20180110_110000.002,0,RJOA,,,,0,20180110110000,-1,-1,-1,-1,300,-1,11,-1,-1,-1,-1,,9999,0,0,1,FEW 20,-1,0,-1,5,1013,RJOA 101100Z 30011KT 9999 FEW020 M00/M05 Q1013 RMK 1CU020     A2992=,
20180110_120000.002,0,RJOA,,,,0,20180110120000,-1,-1,-1,-1,280,-1,7,-1,-1,-1,-1,,9999,0,0,1,FEW 20,-1,1,-1,5,1013,RJOA 101200Z 28007KT 9999 FEW020 M01/M05 Q1013 RMK 1CU020     A2994=,
20180110_130000.002,0,RJOA,,,,0,20180110130000,-1,-1,-1,-1,280,-1,6,-1,-1,-1,-1,,9999,0,0,1,FEW 20,-1,1,-1,5,1014,RJOA 101300Z 28006KT 9999 FEW020 M01/M05 Q1014 RMK 1CU020     A2994=,
20180110_220000.002,0,RJOA,,,,0,20180110220000,-1,-1,-1,-1,300,-1,8,-1,-1,-1,-1,,9999,0,1,2,FEW 15   SCT 30,-1,5,-1,7,1017,RJOA 102200Z 30008KT 9999 -SHSN FEW015 SCT030 M05/M07 Q1017     RMK 1CU015 4CU030 A3005=,- SN SH
20180110_230000.003,0,RJOA,,,,0,20180110230000,-1,-1,-1,-1,300,-1,7,-1,-1,-1,-1,,9999,0,0,1,FEW 15,-1,5,-1,7,1018,RJOA 102300Z 30007KT 9999 FEW015 M05/M07 Q1018 RMK 1CU015     A3006=,
20180111_000000.002,0,RJOA,,,,0,20180111000000,-1,-1,-1,-1,310,-1,7,-1,-1,-1,-1,,9999,0,0,1,FEW 15,-1,3,-1,7,1018,RJOA 110000Z 31007KT 9999 FEW015 M03/M07 Q1018 RMK 1CU015     A3008=,
20180111_010000.002,0,RJOA,,,,0,20180111010000,-1,-1,-1,-1,310,-1,8,-1,-1,-1,-1,,9999,0,0,2,FEW 15   BKN 25,-1,2,-1,7,1019,RJOA 110100Z 31008KT 9999 FEW015 BKN025 M02/M07 Q1019 RMK     1CU015 5CU025 A3010=,
20180111_020000.002,0,RJOA,,,,0,20180111020000,-1,-1,-1,-1,300,-1,8,-1,-1,240,330,,9999,0,1,2,FEW 15   BKN 25,-1,1,-1,6,1018,RJOA 110200Z 30008KT 240V330 9999 -SHSN FEW015 BKN025 M01/M06     Q1018 RMK 1CU015 5CU025 A3008=,- SN SH
20180111_030000.001,0,RJOA,,,,0,20180111030000,-1,-1,-1,-1,290,-1,9,-1,-1,250,320,,9999,0,1,2,FEW 15   BKN 25,-1,2,-1,7,1018,RJOA 110300Z 29009KT 250V320 9999 -SHSN FEW015 BKN025 M02/M07     Q1018 RMK 1CU015 5CU025 A3006=,- SN SH
20180111_040000.002,0,RJOA,,,,0,20180111040000,-1,-1,-1,-1,260,-1,15,-1,-1,-1,-1,,9999,0,1,2,FEW 20   BKN 30,-1,0,-1,9,1017,RJOA 110400Z 26015KT 9999 -SHSN FEW020 BKN030 M00/M09 Q1017     RMK 1CU020 5CU030 A3005=,- SN SH
20180111_050000.002,0,RJOA,,,,0,20180111050000,-1,-1,-1,-1,280,-1,16,-1,-1,-1,-1,,9999,0,1,2,FEW 15   BKN 30,-1,1,-1,9,1018,RJOA 110500Z 28016KT 9999 -SHSN FEW015 BKN030 M01/M09 Q1018     RMK 1CU015 7CU030 A3006 5000W=,- SN SH
20180111_060000.002,0,RJOA,,,,0,20180111060000,-1,-1,-1,-1,280,-1,13,-1,-1,-1,-1,,9999,0,1,2,FEW 15   SCT 30,-1,1,-1,9,1018,RJOA 110600Z 28013KT 9999 VCSH FEW015 SCT030 M01/M09 Q1018 RMK     1CU015 3CU030 A3007=,VC SH
20180111_070000.002,0,RJOA,,,,0,20180111070000,-1,-1,-1,-1,280,-1,13,-1,-1,-1,-1,,9999,0,0,2,FEW 15   SCT 30,-1,2,-1,10,1018,RJOA 110700Z 28013KT 9999 FEW015 SCT030 M02/M10 Q1018 RMK     1CU015 3CU030 A3007=,
20180111_080000.002,0,RJOA,,,,0,20180111080000,-1,-1,-1,-1,290,-1,13,-1,-1,-1,-1,,9999,0,0,2,FEW 15   SCT 30,-1,3,-1,11,1018,RJOA 110800Z 29013KT 9999 FEW015 SCT030 M03/M11 Q1018 RMK     1CU015 3CU030 A3009=,
20180111_090000.002,0,RJOA,,,,0,20180111090000,-1,-1,-1,-1,290,-1,11,-1,-1,-1,-1,,9999,0,0,1,FEW 20,-1,3,-1,10,1019,RJOA 110900Z 29011KT 9999 FEW020 M03/M10 Q1019 RMK 2CU020     A3011=,
20180111_100000.002,0,RJOA,,,,0,20180111100000,-1,-1,-1,-1,270,-1,5,-1,-1,-1,-1,,9999,0,0,1,FEW 30,-1,4,-1,9,1020,RJOA 111000Z 27005KT 9999 FEW030 M04/M09 Q1020 RMK 1CU030     A3012=,
20180111_110000.002,0,RJOA,,,,0,20180111110000,-1,-1,-1,-1,270,-1,4,-1,-1,-1,-1,CAVOK,-1,0,0,0,,-1,5,-1,9,1020,RJOA 111100Z 27004KT CAVOK M05/M09 Q1020 RMK A3013=,
20180111_120000.002,0,RJOA,,,,0,20180111120000,-1,-1,-1,-1,320,-1,4,-1,-1,280,350,CAVOK,-1,0,0,0,,-1,5,-1,8,1020,RJOA 111200Z 32004KT 280V350 CAVOK M05/M08 Q1020 RMK A3014=,
20180111_130000.002,0,RJOA,,,,0,20180111130000,-1,-1,-1,-1,300,-1,5,-1,-1,-1,-1,CAVOK,-1,0,0,0,,-1,5,-1,9,1020,RJOA 111300Z 30005KT CAVOK M05/M09 Q1020 RMK A3015=,
20180111_220000.002,0,RJOA,,,,0,20180111220000,-1,-1,-1,-1,290,-1,7,-1,-1,-1,-1,,9999,0,0,1,FEW 20,-1,7,-1,8,1022,RJOA 112200Z 29007KT 9999 FEW020 M07/M08 Q1022 RMK 1CU020     A3019=,
20180111_230000.002,0,RJOA,,,,0,20180111230000,-1,-1,-1,-1,300,-1,6,-1,-1,-1,-1,,9999,0,0,1,FEW 20,-1,5,-1,8,1023,RJOA 112300Z 30006KT 9999 FEW020 M05/M08 Q1023 RMK 1CU020     A3021=,
20180112_000000.002,0,RJOA,,,,0,20180112000000,-1,-1,-1,-1,290,-1,7,-1,-1,-1,-1,,9999,0,0,1,FEW 20,-1,3,-1,8,1024,RJOA 120000Z 29007KT 9999 FEW020 M03/M08 Q1024 RMK 1CU020     A3024=,
20180112_010000.003,0,RJOA,,,,0,20180112010000,-1,-1,-1,-1,270,-1,7,-1,-1,-1,-1,,9999,0,0,2,FEW 20   SCT 25,-1,2,-1,8,1024,RJOA 120100Z 27007KT 9999 FEW020 SCT025 M02/M08 Q1024 RMK     1CU020 3CU025 A3025=,
20180112_020000.002,0,RJOA,,,,0,20180112020000,-1,-1,-1,-1,280,-1,6,-1,-1,220,320,,9999,0,0,2,FEW 20   SCT 25,-1,1,-1,9,1023,RJOA 120200Z 28006KT 220V320 9999 FEW020 SCT025 M01/M09 Q1023     RMK 1CU020 3CU025 A3023=,
20180112_030000.002,0,RJOA,,,,0,20180112030000,-1,-1,-1,-1,290,-1,8,-1,-1,250,350,,9999,0,0,2,FEW 15   SCT 25,1,0,-1,9,1023,RJOA 120300Z 29008KT 250V350 9999 FEW015 SCT025 00/M09 Q1023     RMK 1CU015 3CU025 A3021=,
20180112_040000.002,0,RJOA,,,,0,20180112040000,-1,-1,-1,-1,280,-1,8,-1,-1,230,310,,9999,0,0,2,FEW 15   SCT 30,1,1,-1,10,1022,RJOA 120400Z 28008KT 230V310 9999 FEW015 SCT030 01/M10 Q1022     RMK 1CU015 3CU030 A3019=,
20180112_050000.003,0,RJOA,,,,0,20180112050000,-1,-1,-1,-1,300,-1,10,-1,-1,260,330,,9999,0,1,2,FEW 15   SCT 25,1,1,-1,9,1022,RJOA 120500Z 30010KT 260V330 9999 -SHSN FEW015 SCT025 01/M09     Q1022 RMK 1CU015 3CU025 A3019=,- SN SH
20180112_060000.002,0,RJOA,,,,0,20180112060000,-1,-1,-1,-1,280,-1,7,-1,-1,250,330,,9999,0,1,2,FEW 10   SCT 25,1,0,-1,10,1022,RJOA 120600Z 28007KT 250V330 9999 VCSH FEW010 SCT025 00/M10     Q1022 RMK 1CU010 3CU025 A3020=,VC SH
20180112_070000.003,0,RJOA,,,,0,20180112070000,-1,-1,-1,-1,280,-1,7,-1,-1,-1,-1,,9999,0,1,2,FEW 10   SCT 25,1,0,-1,9,1023,RJOA 120700Z 28007KT 9999 -SHSN FEW010 SCT025 00/M09 Q1023 RMK     1CU010 3CU025 A3021=,- SN SH
20180112_080000.002,0,RJOA,,,,0,20180112080000,-1,-1,-1,-1,300,-1,7,-1,-1,-1,-1,,9999,0,1,2,FEW 15   SCT 30,-1,1,-1,8,1023,RJOA 120800Z 30007KT 9999 VCSH FEW015 SCT030 M01/M08 Q1023 RMK     1CU015 3CU030 A3023=,VC SH
20180112_090000.002,0,RJOA,,,,0,20180112090000,-1,-1,-1,-1,320,-1,5,-1,-1,-1,-1,,9999,0,0,1,FEW 30,-1,2,-1,7,1024,RJOA 120900Z 32005KT 9999 FEW030 M02/M07 Q1024 RMK 1CU030     A3024=,
20180112_100000.002,0,RJOA,,,,0,20180112100000,-1,-1,-1,-1,330,-1,5,-1,-1,-1,-1,,9999,0,0,1,FEW 30,-1,3,-1,7,1024,RJOA 121000Z 33005KT 9999 FEW030 M03/M07 Q1024 RMK 1CU030     A3026=,
20180112_110000.002,0,RJOA,,,,0,20180112110000,-1,-1,-1,-1,330,-1,6,-1,-1,-1,-1,,9999,0,0,1,FEW 30,-1,3,-1,7,1024,RJOA 121100Z 33006KT 9999 FEW030 M03/M07 Q1024 RMK 1CU030     A3026=,
20180112_120000.002,0,RJOA,,,,0,20180112120000,-1,-1,-1,-1,350,-1,3,-1,-1,-1,-1,,9999,0,0,1,FEW 30,-1,3,-1,7,1024,RJOA 121200Z 35003KT 9999 FEW030 M03/M07 Q1024 RMK 1CU030     A3026=,
20180112_130000.002,0,RJOA,,,,0,20180112130000,-1,-1,-1,-1,310,-1,8,-1,-1,-1,-1,,9999,0,0,1,FEW 30,-1,4,-1,7,1025,RJOA 121300Z 31008KT 9999 FEW030 M04/M07 Q1025 RMK 1CU030     A3027=,
20180112_220000.002,0,RJOA,,,,0,20180112220000,-1,-1,-1,-1,310,-1,4,-1,-1,-1,-1,,9999,0,1,2,FEW 15   SCT 25,-1,4,-1,7,1025,RJOA 122200Z 31004KT 9999 -SHSN FEW015 SCT025 M04/M07 Q1025     RMK 1CU015 3CU025 A3028=,- SN SH
20180112_230000.002,0,RJOA,,,,0,20180112230000,-1,-1,-1,-1,300,-1,5,-1,-1,-1,-1,,9999,0,1,2,FEW 15   SCT 40,-1,4,-1,6,1025,RJOA 122300Z 30005KT 9999 -SHSN FEW015 SCT040 M04/M06 Q1025     RMK 1CU015 4CU040 A3028=,- SN SH
20180113_000000.002,0,RJOA,,,,0,20180113000000,-1,-1,-1,-1,290,-1,5,-1,-1,-1,-1,,9999,0,1,2,FEW 15   SCT 25,-1,2,-1,5,1026,RJOA 130000Z 29005KT 9999 -SHSN FEW015 SCT025 M02/M05 Q1026     RMK 1CU015 3CU025 A3031=,- SN SH
20180113_010000.003,0,RJOA,,,,0,20180113010000,-1,-1,-1,-1,270,-1,6,-1,-1,-1,-1,,9999,0,0,2,FEW 15   SCT 25,-1,0,-1,4,1027,RJOA 130100Z 27006KT 9999 FEW015 SCT025 M00/M04 Q1027 RMK     1CU015 4CU025 A3033=,
20180113_020000.002,0,RJOA,,,,0,20180113020000,-1,-1,-1,-1,270,-1,7,-1,-1,230,300,,9999,0,0,2,FEW 15   SCT 25,1,1,-1,4,1026,RJOA 130200Z 27007KT 230V300 9999 FEW015 SCT025 01/M04 Q1026     RMK 1CU015 4CU025 A3031=,
20180113_030000.002,0,RJOA,,,,0,20180113030000,-1,-1,-1,-1,300,-1,8,-1,-1,-1,-1,,9999,0,1,2,FEW 15   BKN 25,1,0,-1,5,1026,RJOA 130300Z 30008KT 9999 -SHSN FEW015 BKN025 00/M05 Q1026 RMK     1CU015 7CU025 A3030=,- SN SH
20180113_040000.002,0,RJOA,,,,0,20180113040000,-1,-1,-1,-1,280,-1,7,-1,-1,240,300,,9999,0,1,2,FEW 15   BKN 30,1,1,-1,3,1025,RJOA 130400Z 28007KT 240V300 9999 -SHSN FEW015 BKN030 01/M03     Q1025 RMK 1CU015 6CU030 A3029=,- SN SH
20180113_050000.002,0,RJOA,,,,0,20180113050000,-1,-1,-1,-1,270,-1,8,-1,-1,240,300,,9999,0,1,2,FEW 15   BKN 30,1,1,-1,3,1025,RJOA 130500Z 27008KT 240V300 9999 -SHSN FEW015 BKN030 01/M03     Q1025 RMK 1CU015 6CU030 A3029=,- SN SH
20180113_060000.002,0,RJOA,,,,0,20180113060000,-1,-1,-1,-1,300,-1,9,-1,-1,-1,-1,,9999,0,1,2,FEW 15   BKN 30,1,1,-1,3,1026,RJOA 130600Z 30009KT 9999 -SHSN FEW015 BKN030 01/M03 Q1026 RMK     1CU015 6CU030 A3030=,- SN SH
20180113_070000.002,0,RJOA,,,,0,20180113070000,-1,-1,-1,-1,300,-1,14,-1,-1,-1,-1,,9999,0,1,2,FEW 15   SCT 25,1,1,-1,3,1026,RJOA 130700Z 30014KT 9999 -SHSN FEW015 SCT025 01/M03 Q1026 RMK     1CU015 3CU025 A3031=,- SN SH
20180113_080000.002,0,RJOA,,,,0,20180113080000,-1,-1,-1,-1,290,-1,10,-1,-1,-1,-1,,9999,0,0,1,FEW 15,1,0,-1,4,1026,RJOA 130800Z 29010KT 9999 FEW015 00/M04 Q1026 RMK 1CU015     A3032=,
20180113_090000.002,0,RJOA,,,,0,20180113090000,-1,-1,-1,-1,310,-1,8,-1,-1,-1,-1,,9999,0,1,2,FEW 15   SCT 25,1,0,-1,4,1027,RJOA 130900Z 31008KT 9999 -SHSN FEW015 SCT025 00/M04 Q1027 RMK     1CU015 4CU025 A3033=,- SN SH
20180113_100000.002,0,RJOA,,,,0,20180113100000,-1,-1,-1,-1,290,-1,8,-1,-1,-1,-1,,9999,0,1,2,FEW 15   BKN 25,-1,1,-1,4,1027,RJOA 131000Z 29008KT 9999 -SHSN FEW015 BKN025 M01/M04 Q1027     RMK 1CU015 5CU025 A3035=,- SN SH
20180113_110000.002,0,RJOA,,,,0,20180113110000,-1,-1,-1,-1,300,-1,3,-1,-1,250,340,,9999,0,0,2,FEW 15   SCT 25,-1,1,-1,4,1028,RJOA 131100Z 30003KT 250V340 9999 FEW015 SCT025 M01/M04 Q1028     RMK 1CU015 3CU025 A3037=,
20180113_120000.002,0,RJOA,,,,0,20180113120000,-1,-1,-1,-1,280,-1,2,-1,-1,-1,-1,,9999,0,0,1,FEW 15,-1,1,-1,4,1029,RJOA 131200Z 28002KT 9999 FEW015 M01/M04 Q1029 RMK 1CU015     A3039=,
20180113_130000.002,0,RJOA,,,,0,20180113130000,-1,-1,-1,-1,320,-1,4,-1,-1,-1,-1,,9999,0,0,1,FEW 15,-1,2,-1,4,1029,RJOA 131300Z 32004KT 9999 FEW015 M02/M04 Q1029 RMK 1CU015     A3039=,
20180113_220000.002,0,RJOA,,,,0,20180113220000,-1,-1,-1,-1,999,-1,1,-1,-1,-1,-1,,9999,0,0,1,FEW 15,-1,2,-1,4,1029,RJOA 132200Z VRB01KT 9999 FEW015 M02/M04 Q1029 RMK 1CU015     A3040=,
20180113_230000.002,0,RJOA,,,,0,20180113230000,-1,-1,-1,-1,999,-1,2,-1,-1,-1,-1,,9999,0,0,1,FEW 15,-1,2,-1,5,1030,RJOA 132300Z VRB02KT 9999 FEW015 M02/M05 Q1030 RMK 1CU015     A3041=,
20180114_000000.003,0,RJOA,,,,0,20180114000000,-1,-1,-1,-1,330,-1,3,-1,-1,300,90,,9999,0,0,2,FEW 15   SCT -9999,-1,0,-1,3,1031,RJOA 140000Z 33003KT 300V090 9999 FEW015 SCT/// M00/M03 Q1031     RMK 1CU015 A3047=,
20180114_010000.002,0,RJOA,,,,0,20180114010000,-1,-1,-1,-1,270,-1,3,-1,-1,240,300,,9999,0,0,2,FEW 15   SCT -9999,1,2,-1,3,1031,RJOA 140100Z 27003KT 240V300 9999 FEW015 SCT/// 02/M03 Q1031     RMK 1CU015 A3047=,
20180114_020000.002,0,RJOA,,,,0,20180114020000,-1,-1,-1,-1,270,-1,3,-1,-1,170,340,,9999,0,0,2,FEW 15   BKN -9999,1,3,-1,4,1031,RJOA 140200Z 27003KT 170V340 9999 FEW015 BKN/// 03/M04 Q1031     RMK 1CU015 A3047=,
20180114_030000.002,0,RJOA,,,,0,20180114030000,-1,-1,-1,-1,160,-1,3,-1,-1,-1,-1,,9999,0,0,2,SCT 15   BKN -9999,1,4,-1,6,1030,RJOA 140300Z 16003KT 9999 SCT015 BKN/// 04/M06 Q1030 RMK     3CU015 A3042=,
20180114_040000.002,0,RJOA,,,,0,20180114040000,-1,-1,-1,-1,140,-1,5,-1,-1,90,220,,9999,0,0,2,SCT 20   BKN -9999,1,3,-1,8,1029,RJOA 140400Z 14005KT 090V220 9999 SCT020 BKN/// 03/M08 Q1029     RMK 3CU020 A3039=,
20180114_050000.002,0,RJOA,,,,0,20180114050000,-1,-1,-1,-1,170,-1,4,-1,-1,80,250,,9999,0,0,3,FEW 20   SCT 60   BKN -9999,1,4,-1,6,1028,RJOA 140500Z 17004KT 080V250 9999 FEW020 SCT060 BKN/// 04/M06     Q1028 RMK 1CU020 3SC060 A3036=,
20180114_060000.003,0,RJOA,,,,0,20180114060000,-1,-1,-1,-1,130,-1,4,-1,-1,90,190,,9999,0,0,3,FEW 20   SCT 60   BKN -9999,1,4,-1,6,1027,RJOA 140600Z 13004KT 090V190 9999 FEW020 SCT060 BKN/// 04/M06     Q1027 RMK 1CU020 3SC060 A3035=,
20180114_070000.002,0,RJOA,,,,0,20180114070000,-1,-1,-1,-1,130,-1,4,-1,-1,80,170,,9999,0,0,3,FEW 20   SCT 60   BKN -9999,1,3,-1,6,1027,RJOA 140700Z 13004KT 080V170 9999 FEW020 SCT060 BKN/// 03/M06     Q1027 RMK 1CU020 3SC060 A3035=,
20180114_080000.002,0,RJOA,,,,0,20180114080000,-1,-1,-1,-1,100,-1,4,-1,-1,-1,-1,,9999,0,0,2,FEW 20   BKN -9999,1,2,-1,6,1027,RJOA 140800Z 10004KT 9999 FEW020 BKN/// 02/M06 Q1027 RMK     1CU020 A3035=,
20180114_090000.002,0,RJOA,,,,0,20180114090000,-1,-1,-1,-1,999,-1,1,-1,-1,-1,-1,,9999,0,0,2,FEW 20   BKN -9999,1,2,-1,4,1028,RJOA 140900Z VRB01KT 9999 FEW020 BKN/// 02/M04 Q1028 RMK     1CU020 A3036=,
20180114_100000.002,0,RJOA,,,,0,20180114100000,-1,-1,-1,-1,999,-1,2,-1,-1,-1,-1,,9999,0,0,2,FEW 20   BKN -9999,1,1,-1,4,1028,RJOA 141000Z VRB02KT 9999 FEW020 BKN/// 01/M04 Q1028 RMK     1CU020 A3036=,
20180114_110000.002,0,RJOA,,,,0,20180114110000,-1,-1,-1,-1,80,-1,2,-1,-1,-1,-1,,9999,0,0,2,FEW 20   SCT 35,1,1,-1,4,1028,RJOA 141100Z 08002KT 9999 FEW020 SCT035 01/M04 Q1028 RMK     1CU020 3CU035 A3037=,
20180114_120000.002,0,RJOA,,,,0,20180114120000,-1,-1,-1,-1,80,-1,3,-1,-1,30,120,,9999,0,0,2,FEW 20   SCT -9999,1,1,-1,5,1028,RJOA 141200Z 08003KT 030V120 9999 FEW020 SCT/// 01/M05 Q1028     RMK 1CU020 A3037=,
20180114_130000.003,0,RJOA,,,,0,20180114130000,-1,-1,-1,-1,80,-1,2,-1,-1,-1,-1,,9999,0,0,2,FEW 20   SCT -9999,1,0,-1,5,1028,RJOA 141300Z 08002KT 9999 FEW020 SCT/// 00/M05 Q1028 RMK     1CU020 A3036=,
20180114_220000.002,0,RJOA,,,,0,20180114220000,-1,-1,-1,-1,310,-1,3,-1,-1,-1,-1,,9999,0,0,1,FEW 20,-1,3,-1,4,1026,RJOA 142200Z 31003KT 9999 FEW020 M03/M04 Q1026 RMK 1CU020     A3031=,
20180114_230000.002,0,RJOA,,,,0,20180114230000,-1,-1,-1,-1,999,-1,2,-1,-1,-1,-1,,9999,0,0,1,FEW 20,-1,1,-1,3,1026,RJOA 142300Z VRB02KT 9999 FEW020 M01/M03 Q1026 RMK 2CU020     A3032=,
20180115_000000.002,0,RJOA,,,,0,20180115000000,-1,-1,-1,-1,999,-1,2,-1,-1,-1,-1,,9999,0,0,2,FEW 20   BKN 60,1,2,-1,1,1027,RJOA 150000Z VRB02KT 9999 FEW020 BKN060 02/M01 Q1027 RMK     1CU020 6SC060 A3033=,
20180115_010000.002,0,RJOA,,,,0,20180115010000,-1,-1,-1,-1,120,-1,3,-1,-1,-1,-1,,9999,0,0,2,SCT 10   BKN 60,1,2,-1,0,1027,RJOA 150100Z 12003KT 9999 SCT010 BKN060 02/M00 Q1027 RMK     3CU010 7SC060 A3034=,
20180115_020000.002,0,RJOA,,,,0,20180115020000,-1,-1,-1,-1,140,-1,4,-1,-1,100,210,,9999,0,0,2,FEW 10   SCT 60,1,4,-1,0,1026,RJOA 150200Z 14004KT 100V210 9999 FEW010 SCT060 04/M00 Q1026     RMK 1CU010 3SC060 A3030 P/FR=,
20180115_030000.002,0,RJOA,,,,0,20180115030000,-1,-1,-1,-1,999,-1,2,-1,-1,-1,-1,,9999,0,0,2,FEW 15   BKN 60,1,5,1,1,1024,RJOA 150300Z VRB02KT 9999 FEW015 BKN060 05/01 Q1024 RMK 1CU015     6SC060 A3026=,
20180115_040000.002,0,RJOA,,,,0,20180115040000,-1,-1,-1,-1,280,-1,4,-1,-1,-1,-1,,9999,0,0,2,FEW 15   BKN 50,1,6,1,1,1023,RJOA 150400Z 28004KT 9999 FEW015 BKN050 06/01 Q1023 RMK 1CU015     7SC050 A3022=,
20180115_050000.002,0,RJOA,,,,0,20180115050000,-1,-1,-1,-1,999,-1,2,-1,-1,-1,-1,,9999,0,0,3,FEW 15   SCT 30   BKN 50,1,6,1,1,1022,RJOA 150500Z VRB02KT 9999 FEW015 SCT030 BKN050 06/01 Q1022 RMK     1CU015 3CU030 6SC050 A3020=,
20180115_060000.002,0,RJOA,,,,0,20180115060000,-1,-1,-1,-1,280,-1,7,-1,-1,240,310,,9999,0,0,2,FEW 15   BKN 30,1,8,1,2,1022,RJOA 150600Z 28007KT 240V310 9999 FEW015 BKN030 08/02 Q1022     RMK 1CU015 6CU030 A3020=,
20180115_070000.003,0,RJOA,,,,0,20180115070000,-1,-1,-1,-1,270,-1,4,-1,-1,220,310,,9999,0,0,2,FEW 20   SCT 30,1,8,1,2,1023,RJOA 150700Z 27004KT 220V310 9999 FEW020 SCT030 08/02 Q1023     RMK 1CU020 3CU030 A3021=,
20180115_080000.002,0,RJOA,,,,0,20180115080000,-1,-1,-1,-1,160,-1,3,-1,-1,-1,-1,,9999,0,0,1,FEW 20,1,6,1,2,1023,RJOA 150800Z 16003KT 9999 FEW020 06/02 Q1023 RMK 1CU020 A3022=,
20180115_090000.002,0,RJOA,,,,0,20180115090000,-1,-1,-1,-1,999,-1,1,-1,-1,-1,-1,,9999,0,0,1,FEW 20,1,5,1,2,1024,RJOA 150900Z VRB01KT 9999 FEW020 05/02 Q1024 RMK 1CU020 A3025=,
20180115_100000.002,0,RJOA,,,,0,20180115100000,-1,-1,-1,-1,0,-1,0,-1,-1,-1,-1,,9999,0,0,1,FEW 20,1,6,1,3,1024,RJOA 151000Z 00000KT 9999 FEW020 06/03 Q1024 RMK 1CU020 A3024=,
20180115_110000.002,0,RJOA,,,,0,20180115110000,-1,-1,-1,-1,50,-1,2,-1,-1,-1,-1,,9999,0,0,1,FEW 20,1,4,1,2,1024,RJOA 151100Z 05002KT 9999 FEW020 04/02 Q1024 RMK 1CU020 A3024=,
20180115_120000.002,0,RJOA,,,,0,20180115120000,-1,-1,-1,-1,999,-1,2,-1,-1,-1,-1,,9999,0,0,1,FEW 20,1,3,1,1,1024,RJOA 151200Z VRB02KT 9999 FEW020 03/01 Q1024 RMK 1CU020 A3025=,
20180115_130000.002,0,RJOA,,,,0,20180115130000,-1,-1,-1,-1,290,-1,2,-1,-1,-1,-1,,9999,0,0,1,FEW 20,1,4,1,2,1024,RJOA 151300Z 29002KT 9999 FEW020 04/02 Q1024 RMK 1CU020 A3024=,
20180115_220000.002,0,RJOA,,,,0,20180115220000,-1,-1,-1,-1,300,-1,2,-1,-1,-1,-1,,5000,0,2,2,FEW 0   SCT 20,1,4,1,3,1022,RJOA 152200Z 30002KT 5000 BCFG BR FEW000 SCT020 04/03 Q1022     RMK 1ST000 3CU020 A3019 FG BANK E-SE AND S-W=,BC FG; BR
20180115_230000.002,0,RJOA,,,,0,20180115230000,-1,-1,-1,-1,0,-1,0,-1,-1,-1,-1,,1500,1,2,2,FEW 0   BKN 25,1,4,1,4,1022,RJOA 152300Z 00000KT 1500 R10/0200VP1800D BCFG BR FEW000     BKN025 04/04 Q1022 RMK 1ST000 5CU025 A3020 FG ALL QUAD=,BC FG; BR
20180116_000000.002,0,RJOA,,,,0,20180116000000,-1,-1,-1,-1,0,-1,0,-1,-1,-1,-1,,3000,1,2,3,FEW 0   SCT 5   BKN 25,1,5,1,5,1022,RJOA 160000Z 00000KT 3000 R10/P1800N BCFG BR FEW000 SCT005     BKN025 05/05 Q1022 RMK 1ST000 3ST005 7CU025 A3020 FG E-SE           AND SW-W=,BC FG; BR
20180116_010000.002,0,RJOA,,,,0,20180116010000,-1,-1,-1,-1,290,-1,3,-1,-1,-1,-1,,3500,0,2,3,FEW 0   SCT 5   BKN 30,1,7,1,6,1022,RJOA 160100Z 29003KT 3500 BCFG BR FEW000 SCT005 BKN030 07/06     Q1022 RMK 1ST000 3ST005 7CU030 A3020 FG BANK E-S AND           SW-W=,BC FG; BR
20180116_020000.002,0,RJOA,,,,0,20180116020000,-1,-1,-1,-1,260,-1,3,-1,-1,230,330,,3500,0,2,3,FEW 0   SCT 5   BKN 25,1,7,1,6,1022,RJOA 160200Z 26003KT 230V330 3500 BCFG BR FEW000 SCT005 BKN025     07/06 Q1022 RMK 1ST000 4ST005 6CU025 A3018 FG BANK E-S           AND SW-W=,BC FG; BR
20180116_030000.002,0,RJOA,,,,0,20180116030000,-1,-1,-1,-1,130,-1,4,-1,-1,100,170,,4000,1,2,3,FEW 0   BKN 4   BKN 6,1,7,1,5,1020,RJOA 160300Z 13004KT 100V170 4000 R10/P1800N BCFG BR FEW000     BKN004 BKN006 07/05 Q1020 RMK 1ST000 5ST004 6ST006 A3014           1000SE FG E-S AND W=,BC FG; BR
20180116_040000.002,0,RJOA,,,,0,20180116040000,-1,-1,-1,-1,110,-1,5,-1,-1,-1,-1,,2000,0,2,3,FEW 0   SCT 2   BKN 3,1,7,1,6,1019,RJOA 160400Z 11005KT 2000 BCFG BR FEW000 SCT002 BKN003 07/06     Q1019 RMK 1ST000 3ST002 6ST003 A3009 FG ALL QUAD=,BC FG; BR
20180116_050000.002,0,RJOA,,,,0,20180116050000,-1,-1,-1,-1,120,-1,3,-1,-1,90,180,,8000,0,1,1,FEW 0,1,10,1,6,1017,RJOA 160500Z 12003KT 090V180 8000 PRFG FEW000 10/06 Q1017 RMK     1ST000 A3006 FG BANK E-SE=,PR FG
20180116_060000.002,0,RJOA,,,,0,20180116060000,-1,-1,-1,-1,120,-1,4,-1,-1,-1,-1,,9999,0,1,2,FEW 0   BKN 50,1,11,1,6,1017,RJOA 160600Z 12004KT 9999 BCFG FEW000 BKN050 11/06 Q1017 RMK     1ST000 6SC050 A3004 FG BANK SE AND W=,BC FG
20180116_070000.002,0,RJOA,,,,0,20180116070000,-1,-1,-1,-1,130,-1,4,-1,-1,-1,-1,,9999,0,0,2,FEW 10   BKN 50,1,9,1,6,1017,RJOA 160700Z 13004KT 9999 FEW010 BKN050 09/06 Q1017 RMK 1CU010     7SC050 A3003=,
20180116_080000.002,0,RJOA,,,,0,20180116080000,-1,-1,-1,-1,130,-1,5,-1,-1,-1,-1,,9999,0,0,3,FEW 10   SCT 60   BKN 120,1,8,1,6,1016,RJOA 160800Z 13005KT 9999 FEW010 SCT060 BKN120 08/06 Q1016 RMK     1CU010 3SC060 5AC120 A3002=,
20180116_090000.002,0,RJOA,,,,0,20180116090000,-1,-1,-1,-1,100,-1,5,-1,-1,-1,-1,,8000,0,0,3,FEW 10   SCT 60   BKN 120,1,7,1,5,1016,RJOA 160900Z 10005KT 8000 FEW010 SCT060 BKN120 07/05 Q1016 RMK     1CU010 3SC060 7AC120 A3002=,
20180116_100000.002,0,RJOA,,,,0,20180116100000,-1,-1,-1,-1,90,-1,6,-1,-1,-1,-1,,8000,0,0,3,FEW 10   SCT 30   BKN 120,1,7,1,5,1015,RJOA 161000Z 09006KT 8000 FEW010 SCT030 BKN120 07/05 Q1015 RMK     1CU010 3CU030 7AC120 A2999=,
20180116_110000.004,0,RJOA,,,,0,20180116110000,-1,-1,-1,-1,999,-1,2,-1,-1,-1,-1,,8000,0,0,3,FEW 10   BKN 25   BKN 70,1,8,1,5,1016,RJOA 161100Z VRB02KT 8000 FEW010 BKN025 BKN070 08/05 Q1016 RMK     1CU010 5CU025 6AC070 A3000=,
20180116_120000.002,0,RJOA,,,,0,20180116120000,-1,-1,-1,-1,60,-1,3,-1,-1,10,80,,8000,0,1,3,FEW 10   SCT 15   BKN 25,1,8,1,6,1015,RJOA 161200Z 06003KT 010V080 8000 -SHRA FEW010 SCT015 BKN025     08/06 Q1015 RMK 1CU010 3CU015 5CU025 A3000=,- RA SH
20180116_130000.002,0,RJOA,,,,0,20180116130000,-1,-1,-1,-1,320,-1,2,-1,-1,-1,-1,,5000,0,2,3,FEW 8   SCT 15   BKN 25,1,8,1,6,1015,RJOA 161300Z 32002KT 5000 -SHRA BR FEW008 SCT015 BKN025 08/06     Q1015 RMK 1ST008 3CU015 5CU025 A2999=,- RA SH; BR
20180116_220000.002,0,RJOA,,,,0,20180116220000,-1,-1,-1,-1,999,-1,2,-1,-1,-1,-1,,300,1,2,1,VV 1,1,7,1,7,1012,RJOA 162200Z VRB02KT 0300 R28/0450V0600N -SHRA FG VV001 07/07     Q1012 RMK A2988=,- RA SH; FG
20180116_230000.002,0,RJOA,,,,0,20180116230000,-1,-1,-1,-1,100,-1,3,-1,-1,50,120,,500,1,2,3,FEW 0   SCT 1   BKN 4,1,8,1,8,1011,RJOA 162300Z 10003KT 050V120 0500 R10/P1800N -SHRA FG FEW000     SCT001 BKN004 08/08 Q1011 RMK 1ST000 4ST001 5ST004 A2987=,- RA SH; FG
20180117_000000.002,0,RJOA,,,,0,20180117000000,-1,-1,-1,-1,100,-1,4,-1,-1,-1,-1,,200,1,2,1,VV 1,1,8,1,8,1010,RJOA 170000Z 10004KT 0200 R10/0250V0450N -SHRA FG VV001 08/08     Q1010 RMK A2985=,- RA SH; FG
20180117_010000.002,0,RJOA,,,,0,20180117010000,-1,-1,-1,-1,999,-1,1,-1,-1,-1,-1,,500,1,1,3,FEW 0   SCT 1   BKN 2,1,9,1,9,1011,RJOA 170100Z VRB01KT 0500 R10/1800N FG FEW000 SCT001 BKN002     09/09 Q1011 RMK 1ST000 3ST001 5ST002 A2986=,FG
20180117_020000.004,0,RJOA,,,,0,20180117020000,-1,-1,-1,-1,999,-1,1,-1,-1,-1,-1,,800,1,1,3,FEW 0   SCT 2   BKN 10,1,10,1,9,1010,RJOA 170200Z VRB01KT 0800 R10/0450V1200U FG FEW000 SCT002     BKN010 10/09 Q1010 RMK 1ST000 3ST002 5CU010 A2984=,FG
20180117_030000.002,0,RJOA,,,,0,20180117030000,-1,-1,-1,-1,260,-1,4,-1,-1,210,300,,3000,0,2,3,FEW 0   SCT 5   BKN 8,1,11,1,11,1009,RJOA 170300Z 26004KT 210V300 3000 BCFG BR FEW000 SCT005 BKN008     11/11 Q1009 RMK 1ST000 3ST005 5ST008 A2981 FG E-SE AND           SW-W=,BC FG; BR
20180117_040000.003,0,RJOA,,,,0,20180117040000,-1,-1,-1,-1,220,-1,3,-1,-1,190,260,,600,1,2,3,FEW 0   SCT 1   BKN 2,1,11,1,11,1009,RJOA 170400Z 22003KT 190V260 0600 R10/P1800N -SHRA FG FEW000     SCT001 BKN002 11/11 Q1009 RMK 1ST000 3ST001 5ST002 A2979=,- RA SH; FG
20180117_050000.003,0,RJOA,,,,0,20180117050000,-1,-1,-1,-1,250,-1,6,-1,-1,170,270,,9999,0,2,3,FEW 0   SCT 5   BKN 12,1,12,1,11,1008,RJOA 170500Z 25006KT 170V270 9999 -SHRA PRFG FEW000 SCT005     BKN012 12/11 Q1008 RMK 1ST000 3ST005 5CU012 A2979 FG BANK           E-SE=,- RA SH; PR FG
20180117_060000.002,0,RJOA,,,,0,20180117060000,-1,-1,-1,-1,260,-1,11,-1,-1,-1,-1,,5000,0,3,3,FEW 0   SCT 12   BKN 25,1,11,1,11,1009,RJOA 170600Z 26011KT 5000 -SHRA PRFG BR FEW000 SCT012 BKN025     11/11 Q1009 RMK 1ST000 3CU012 6CU025 A2980 FG BANK E-SE=,- RA SH; PR FG; BR
20180117_070000.002,0,RJOA,,,,0,20180117070000,-1,-1,-1,-1,310,-1,12,-1,-1,-1,-1,,9999,0,1,3,FEW 8   SCT 12   BKN 25,1,11,1,9,1010,RJOA 170700Z 31012KT 9999 -SHRA FEW008 SCT012 BKN025 11/09     Q1010 RMK 1ST008 3CU012 6CU025 A2984=,- RA SH
20180117_080000.002,0,RJOA,,,,0,20180117080000,-1,-1,-1,-1,310,-1,15,-1,-1,-1,-1,,9999,0,0,3,FEW 8   SCT 20   BKN 80,1,10,1,8,1011,RJOA 170800Z 31015KT 9999 FEW008 SCT020 BKN080 10/08 Q1011 RMK     1ST008 3CU020 6AC080 A2986=,
20180117_090000.003,0,RJOA,,,,0,20180117090000,-1,-1,-1,-1,310,-1,17,-1,-1,-1,-1,,9999,0,0,2,FEW 10   SCT 20,1,9,1,6,1012,RJOA 170900Z 31017KT 9999 FEW010 SCT020 09/06 Q1012 RMK 1CU010     3CU020 A2991=,
20180117_100000.002,0,RJOA,,,,0,20180117100000,-1,-1,-1,-1,320,-1,8,-1,-1,-1,-1,,9999,0,1,3,FEW 8   SCT 20   BKN 30,1,8,1,7,1014,RJOA 171000Z 32008KT 9999 -SHRA FEW008 SCT020 BKN030 08/07     Q1014 RMK 1ST008 4CU020 6CU030 A2996=,- RA SH
20180117_110000.003,0,RJOA,,,,0,20180117110000,-1,-1,-1,-1,310,-1,9,-1,-1,-1,-1,,9999,0,1,2,FEW 15   BKN 30,1,8,1,6,1015,RJOA 171100Z 31009KT 9999 -SHRA FEW015 BKN030 08/06 Q1015 RMK     1CU015 5CU030 A2999=,- RA SH
20180117_120000.003,0,RJOA,,,,0,20180117120000,-1,-1,-1,-1,330,-1,7,-1,-1,-1,-1,,9999,0,0,2,FEW 15   BKN 35,1,7,1,5,1015,RJOA 171200Z 33007KT 9999 FEW015 BKN035 07/05 Q1015 RMK 2CU015     6CU035 A3000=,
20180117_130000.002,0,RJOA,,,,0,20180117130000,-1,-1,-1,-1,310,-1,9,-1,-1,-1,-1,,9999,0,1,2,FEW 15   BKN 25,1,7,1,5,1017,RJOA 171300Z 31009KT 9999 -SHRA FEW015 BKN025 07/05 Q1017 RMK     2CU015 7CU025 A3005=,- RA SH
20180117_220000.003,0,RJOA,,,,0,20180117220000,-1,-1,-1,-1,330,-1,3,-1,-1,-1,-1,,9999,0,0,2,FEW 15   SCT 30,1,4,1,2,1018,RJOA 172200Z 33003KT 9999 FEW015 SCT030 04/02 Q1018 RMK 1CU015     3CU030 A3006=,
20180117_230000.002,0,RJOA,,,,0,20180117230000,-1,-1,-1,-1,310,-1,3,-1,-1,-1,-1,,9999,0,1,2,FEW 0   BKN 35,1,5,1,2,1018,RJOA 172300Z 31003KT 9999 BCFG FEW000 BKN035 05/02 Q1018 RMK     1ST000 6SC035 A3009 FG BANK SE AND W=,BC FG
20180118_000000.002,0,RJOA,,,,0,20180118000000,-1,-1,-1,-1,300,-1,4,-1,-1,-1,-1,,9999,0,1,3,FEW 0   SCT 40   BKN -9999,1,6,1,4,1019,RJOA 180000Z 30004KT 9999 BCFG FEW000 SCT040 BKN/// 06/04     Q1019 RMK 1ST000 3SC040 A3012 FG BANK SE AND W P/RR=,BC FG
20180118_010000.002,0,RJOA,,,,0,20180118010000,-1,-1,-1,-1,140,-1,3,-1,-1,80,200,,9999,0,0,2,FEW 10   BKN 45,1,8,1,3,1019,RJOA 180100Z 14003KT 080V200 9999 FEW010 BKN045 08/03 Q1019     RMK 1CU010 7SC045 A3011=,
20180118_020000.002,0,RJOA,,,,0,20180118020000,-1,-1,-1,-1,250,-1,3,-1,-1,200,10,,9999,0,0,2,FEW 10   BKN 50,1,8,1,5,1019,RJOA 180200Z 25003KT 200V010 9999 FEW010 BKN050 08/05 Q1019     RMK 1CU010 7SC050 A3010=,
20180118_030000.003,0,RJOA,,,,0,20180118030000,-1,-1,-1,-1,250,-1,3,-1,-1,210,300,,9999,0,0,3,SCT 10   BKN 25   BKN 50,1,10,1,5,1019,RJOA 180300Z 25003KT 210V300 9999 SCT010 BKN025 BKN050 10/05     Q1019 RMK 3CU010 5CU025 7SC050 A3009=,
20180118_040000.002,0,RJOA,,,,0,20180118040000,-1,-1,-1,-1,270,-1,5,-1,-1,-1,-1,,9999,0,0,2,SCT 15   BKN 25,1,10,1,4,1018,RJOA 180400Z 27005KT 9999 SCT015 BKN025 10/04 Q1018 RMK 3CU015     5CU025 A3007=,
20180118_050000.002,0,RJOA,,,,0,20180118050000,-1,-1,-1,-1,210,-1,4,-1,-1,160,250,,9999,0,0,2,FEW 15   BKN 25,1,10,1,5,1018,RJOA 180500Z 21004KT 160V250 9999 FEW015 BKN025 10/05 Q1018     RMK 1CU015 5CU025 A3006=,
20180118_060000.002,0,RJOA,,,,0,20180118060000,-1,-1,-1,-1,999,-1,2,-1,-1,-1,-1,,9999,0,0,2,FEW 15   BKN 25,1,10,1,5,1018,RJOA 180600Z VRB02KT 9999 FEW015 BKN025 10/05 Q1018 RMK 1CU015     6CU025 A3006=,
20180118_070000.002,0,RJOA,,,,0,20180118070000,-1,-1,-1,-1,320,-1,6,-1,-1,-1,-1,,9999,0,0,3,FEW 15   SCT 30   BKN 45,1,10,1,3,1018,RJOA 180700Z 32006KT 9999 FEW015 SCT030 BKN045 10/03 Q1018 RMK     1CU015 3CU030 6SC045 A3007=,
20180118_080000.002,0,RJOA,,,,0,20180118080000,-1,-1,-1,-1,350,-1,5,-1,-1,-1,-1,,9999,0,0,2,FEW 25   BKN 45,1,9,1,4,1019,RJOA 180800Z 35005KT 9999 FEW025 BKN045 09/04 Q1019 RMK 1CU025     5SC045 A3009=,
20180118_090000.002,0,RJOA,,,,0,20180118090000,-1,-1,-1,-1,310,-1,3,-1,-1,230,360,,9999,0,0,2,FEW 25   BKN 45,1,8,1,4,1019,RJOA 180900Z 31003KT 230V360 9999 FEW025 BKN045 08/04 Q1019     RMK 1CU025 5SC045 A3010=,
20180118_100000.002,0,RJOA,,,,0,20180118100000,-1,-1,-1,-1,340,-1,5,-1,-1,-1,-1,,9999,0,0,2,FEW 25   SCT 40,1,7,1,3,1019,RJOA 181000Z 34005KT 9999 FEW025 SCT040 07/03 Q1019 RMK 1CU025     3SC040 A3011=,
20180118_110000.002,0,RJOA,,,,0,20180118110000,-1,-1,-1,-1,310,-1,3,-1,-1,-1,-1,,9999,0,0,2,FEW 25   SCT 40,1,7,1,3,1020,RJOA 181100Z 31003KT 9999 FEW025 SCT040 07/03 Q1020 RMK 1CU025     3SC040 A3013=,
20180118_120000.002,0,RJOA,,,,0,20180118120000,-1,-1,-1,-1,320,-1,3,-1,-1,-1,-1,,9999,0,0,1,FEW 25,1,5,1,3,1020,RJOA 181200Z 32003KT 9999 FEW025 05/03 Q1020 RMK 1CU025 A3013=,
20180118_130000.002,0,RJOA,,,,0,20180118130000,-1,-1,-1,-1,340,-1,8,-1,-1,-1,-1,,9999,0,0,1,FEW 25,1,6,1,3,1020,RJOA 181300Z 34008KT 9999 FEW025 06/03 Q1020 RMK 1CU025 A3014=,
20180118_220000.002,0,RJOA,,,,0,20180118220000,-1,-1,-1,-1,999,-1,1,-1,-1,-1,-1,,9999,0,0,2,FEW 20   SCT 40,1,3,-1,0,1020,RJOA 182200Z VRB01KT 9999 FEW020 SCT040 03/M00 Q1020 RMK     1CU020 3SC040 A3014=,
20180118_230000.003,0,RJOA,,,,0,20180118230000,-1,-1,-1,-1,320,-1,4,-1,-1,300,20,,8000,0,0,2,FEW 20   BKN 45,1,4,1,1,1021,RJOA 182300Z 32004KT 300V020 8000 FEW020 BKN045 04/01 Q1021     RMK 1CU020 7SC045 A3015=,
20180119_000000.002,0,RJOA,,,,0,20180119000000,-1,-1,-1,-1,340,-1,2,-1,-1,-1,-1,,8000,0,0,2,FEW 20   BKN 45,1,5,1,1,1021,RJOA 190000Z 34002KT 8000 FEW020 BKN045 05/01 Q1021 RMK 1CU020     7SC045 A3015=,
20180119_010000.003,0,RJOA,,,,0,20180119010000,-1,-1,-1,-1,100,-1,3,-1,-1,50,170,,8000,0,0,1,FEW 20,1,7,1,2,1021,RJOA 190100Z 10003KT 050V170 8000 FEW020 07/02 Q1021 RMK     1CU020 A3015=,
20180119_020000.002,0,RJOA,,,,0,20180119020000,-1,-1,-1,-1,120,-1,4,-1,-1,50,180,,8000,0,0,1,FEW 20,1,8,1,2,1020,RJOA 190200Z 12004KT 050V180 8000 FEW020 08/02 Q1020 RMK     2CU020 A3013=,
20180119_030000.002,0,RJOA,,,,0,20180119030000,-1,-1,-1,-1,999,-1,1,-1,-1,-1,-1,,8000,0,0,2,FEW 20   BKN 30,1,9,1,1,1019,RJOA 190300Z VRB01KT 8000 FEW020 BKN030 09/01 Q1019 RMK 1CU020     6CU030 A3012=,
20180119_040000.002,0,RJOA,,,,0,20180119040000,-1,-1,-1,-1,999,-1,2,-1,-1,-1,-1,,9000,0,0,2,FEW 20   BKN 30,1,9,1,2,1018,RJOA 190400Z VRB02KT 9000 FEW020 BKN030 09/02 Q1018 RMK 1CU020     6CU030 A3007=,
20180119_050000.003,0,RJOA,,,,0,20180119050000,-1,-1,-1,-1,150,-1,3,-1,-1,-1,-1,,9000,0,0,2,FEW 20   BKN 30,1,9,1,2,1017,RJOA 190500Z 15003KT 9000 FEW020 BKN030 09/02 Q1017 RMK 1CU020     7CU030 A3004=,
20180119_060000.002,0,RJOA,,,,0,20180119060000,-1,-1,-1,-1,220,-1,3,-1,-1,170,260,,9000,0,0,2,FEW 20   BKN 30,1,9,1,1,1017,RJOA 190600Z 22003KT 170V260 9000 FEW020 BKN030 09/01 Q1017     RMK 1CU020 7CU030 A3005=,
20180119_070000.002,0,RJOA,,,,0,20180119070000,-1,-1,-1,-1,210,-1,3,-1,-1,170,260,,9000,0,0,2,FEW 20   BKN 35,1,9,1,1,1017,RJOA 190700Z 21003KT 170V260 9000 FEW020 BKN035 09/01 Q1017     RMK 1CU020 7CU035 A3005=,
20180119_080000.002,0,RJOA,,,,0,20180119080000,-1,-1,-1,-1,999,-1,2,-1,-1,-1,-1,,8000,0,0,2,FEW 20   BKN 35,1,8,1,2,1017,RJOA 190800Z VRB02KT 8000 FEW020 BKN035 08/02 Q1017 RMK 1CU020     7CU035 A3005=,
20180119_090000.003,0,RJOA,,,,0,20180119090000,-1,-1,-1,-1,0,-1,0,-1,-1,-1,-1,,8000,0,0,2,FEW 20   BKN 40,1,7,1,1,1018,RJOA 190900Z 00000KT 8000 FEW020 BKN040 07/01 Q1018 RMK 1CU020     6SC040 A3006=,
20180119_100000.002,0,RJOA,,,,0,20180119100000,-1,-1,-1,-1,999,-1,1,-1,-1,-1,-1,,8000,0,0,2,FEW 20   BKN 30,1,7,1,2,1018,RJOA 191000Z VRB01KT 8000 FEW020 BKN030 07/02 Q1018 RMK 1CU020     7CU030 A3006=,
20180119_110000.002,0,RJOA,,,,0,20180119110000,-1,-1,-1,-1,999,-1,2,-1,-1,-1,-1,,8000,0,0,2,FEW 20   BKN 30,1,7,1,2,1018,RJOA 191100Z VRB02KT 8000 FEW020 BKN030 07/02 Q1018 RMK 1CU020     7CU030 A3007=,
20180119_120000.003,0,RJOA,,,,0,20180119120000,-1,-1,-1,-1,999,-1,2,-1,-1,-1,-1,,8000,0,0,2,FEW 20   BKN 30,1,6,1,1,1018,RJOA 191200Z VRB02KT 8000 FEW020 BKN030 06/01 Q1018 RMK 1CU020     7CU030 A3007=,
20180119_130000.002,0,RJOA,,,,0,20180119130000,-1,-1,-1,-1,360,-1,6,-1,-1,-1,-1,,8000,0,0,2,FEW 20   BKN 30,1,6,1,1,1018,RJOA 191300Z 36006KT 8000 FEW020 BKN030 06/01 Q1018 RMK 1CU020     5CU030 A3007=,
20180119_220000.002,0,RJOA,,,,0,20180119220000,-1,-1,-1,-1,320,-1,5,-1,-1,-1,-1,,8000,0,0,1,SCT 25,1,2,-1,1,1018,RJOA 192200Z 32005KT 8000 SCT025 02/M01 Q1018 RMK 3CU025     A3008=,
20180119_230000.002,0,RJOA,,,,0,20180119230000,-1,-1,-1,-1,330,-1,4,-1,-1,300,40,,9000,0,0,1,FEW 25,1,4,1,0,1018,RJOA 192300Z 33004KT 300V040 9000 FEW025 04/00 Q1018 RMK     1CU025 A3008=,
20180120_000000.002,0,RJOA,,,,0,20180120000000,-1,-1,-1,-1,310,-1,3,-1,-1,-1,-1,,9999,0,0,1,FEW 25,1,7,1,0,1018,RJOA 200000Z 31003KT 9999 FEW025 07/00 Q1018 RMK 1CU025 A3009=,
20180120_010000.002,0,RJOA,,,,0,20180120010000,-1,-1,-1,-1,290,-1,5,-1,-1,270,330,,9999,0,0,1,FEW 25,1,8,-1,2,1019,RJOA 200100Z 29005KT 270V330 9999 FEW025 08/M02 Q1019 RMK     1CU025 A3009=,
20180120_020000.003,0,RJOA,,,,0,20180120020000,-1,-1,-1,-1,300,-1,6,-1,-1,270,330,,9999,0,0,1,FEW 25,1,9,-1,1,1019,RJOA 200200Z 30006KT 270V330 9999 FEW025 09/M01 Q1019 RMK     1CU025 A3009=,
20180120_030000.002,0,RJOA,,,,0,20180120030000,-1,-1,-1,-1,300,-1,8,-1,-1,270,340,,9999,0,0,1,SCT 30,1,9,-1,1,1019,RJOA 200300Z 30008KT 270V340 9999 SCT030 09/M01 Q1019 RMK     3CU030 A3010=,
20180120_040000.002,0,RJOA,,,,0,20180120040000,-1,-1,-1,-1,300,-1,5,-1,-1,-1,-1,,9999,0,0,1,SCT 35,1,9,-1,3,1018,RJOA 200400Z 30005KT 9999 SCT035 09/M03 Q1018 RMK 3CU035     A3008=,
20180120_050000.002,0,RJOA,,,,0,20180120050000,-1,-1,-1,-1,340,-1,5,-1,-1,290,60,,9999,0,0,1,SCT 35,1,10,-1,4,1017,RJOA 200500Z 34005KT 290V060 9999 SCT035 10/M04 Q1017 RMK     3CU035 A3004=,
20180120_060000.002,0,RJOA,,,,0,20180120060000,-1,-1,-1,-1,30,-1,5,-1,-1,330,60,,9999,0,0,1,FEW 35,1,10,-1,4,1016,RJOA 200600Z 03005KT 330V060 9999 FEW035 10/M04 Q1016 RMK     2CU035 A3003=,
20180120_070000.002,0,RJOA,,,,0,20180120070000,-1,-1,-1,-1,320,-1,6,-1,-1,270,30,,9999,0,0,1,FEW 25,1,9,-1,3,1017,RJOA 200700Z 32006KT 270V030 9999 FEW025 09/M03 Q1017 RMK     1CU025 A3005=,
20180120_080000.002,0,RJOA,,,,0,20180120080000,-1,-1,-1,-1,999,-1,2,-1,-1,-1,-1,,9999,0,0,2,FEW 25   BKN -9999,1,8,-1,3,1018,RJOA 200800Z VRB02KT 9999 FEW025 BKN/// 08/M03 Q1018 RMK     1CU025 A3007=,
20180120_090000.002,0,RJOA,,,,0,20180120090000,-1,-1,-1,-1,10,-1,3,-1,-1,300,50,,9999,0,0,2,FEW 25   BKN -9999,1,8,-1,3,1018,RJOA 200900Z 01003KT 300V050 9999 FEW025 BKN/// 08/M03 Q1018     RMK 1CU025 A3008=,
20180120_100000.002,0,RJOA,,,,0,20180120100000,-1,-1,-1,-1,10,-1,7,-1,-1,-1,-1,,9999,0,0,2,FEW 20   BKN -9999,1,7,-1,1,1018,RJOA 201000Z 01007KT 9999 FEW020 BKN/// 07/M01 Q1018 RMK     1CU020 A3008=,
20180120_110000.002,0,RJOA,,,,0,20180120110000,-1,-1,-1,-1,360,-1,7,-1,-1,-1,-1,,9999,0,0,2,FEW 20   BKN -9999,1,6,-1,1,1019,RJOA 201100Z 36007KT 9999 FEW020 BKN/// 06/M01 Q1019 RMK     1CU020 A3009=,
20180120_120000.002,0,RJOA,,,,0,20180120120000,-1,-1,-1,-1,350,-1,8,-1,-1,-1,-1,,9999,0,0,2,FEW 20   SCT -9999,1,5,-1,1,1019,RJOA 201200Z 35008KT 9999 FEW020 SCT/// 05/M01 Q1019 RMK     1CU020 A3010=,
20180120_130000.002,0,RJOA,,,,0,20180120130000,-1,-1,-1,-1,310,-1,6,-1,-1,-1,-1,,9999,0,0,2,FEW 20   BKN -9999,1,5,-1,1,1019,RJOA 201300Z 31006KT 9999 FEW020 BKN/// 05/M01 Q1019 RMK     1CU020 A3010=,
20180120_220000.002,0,RJOA,,,,0,20180120220000,-1,-1,-1,-1,310,-1,4,-1,-1,-1,-1,,9999,0,0,1,FEW 15,1,1,-1,2,1019,RJOA 202200Z 31004KT 9999 FEW015 01/M02 Q1019 RMK 1CU015     A3011=,
20180120_230000.002,0,RJOA,,,,0,20180120230000,-1,-1,-1,-1,320,-1,4,-1,-1,-1,-1,,9999,0,0,2,FEW 15   SCT -9999,1,2,-1,1,1020,RJOA 202300Z 32004KT 9999 FEW015 SCT/// 02/M01 Q1020 RMK     1CU015 A3012=,
20180121_000000.002,0,RJOA,,,,0,20180121000000,-1,-1,-1,-1,290,-1,3,-1,-1,-1,-1,,9999,0,0,2,FEW 15   SCT -9999,1,5,1,0,1020,RJOA 210000Z 29003KT 9999 FEW015 SCT/// 05/00 Q1020 RMK 1CU015     A3014=,
20180121_010000.002,0,RJOA,,,,0,20180121010000,-1,-1,-1,-1,250,-1,3,-1,-1,220,290,,9999,0,0,2,FEW 20   BKN -9999,1,7,-1,0,1020,RJOA 210100Z 25003KT 220V290 9999 FEW020 BKN/// 07/M00 Q1020     RMK 1CU020 A3014=,
20180121_020000.002,0,RJOA,,,,0,20180121020000,-1,-1,-1,-1,300,-1,3,-1,-1,220,20,,9999,0,0,2,FEW 20   BKN -9999,1,7,-1,1,1020,RJOA 210200Z 30003KT 220V020 9999 FEW020 BKN/// 07/M01 Q1020     RMK 1CU020 A3013=,
20180121_030000.002,0,RJOA,,,,0,20180121030000,-1,-1,-1,-1,310,-1,9,-1,-1,270,340,,9999,0,0,2,FEW 20   BKN 40,1,8,-1,3,1020,RJOA 210300Z 31009KT 270V340 9999 FEW020 BKN040 08/M03 Q1020     RMK 1CU020 5CU040 A3013=,
20180121_040000.003,0,RJOA,,,,0,20180121040000,-1,-1,-1,-1,350,-1,10,-1,-1,320,30,,9999,0,0,2,FEW 20   SCT 35,1,8,-1,1,1019,RJOA 210400Z 35010KT 320V030 9999 FEW020 SCT035 08/M01 Q1019     RMK 1CU020 3CU035 A3011=,
20180121_050000.002,0,RJOA,,,,0,20180121050000,-1,-1,-1,-1,340,-1,8,-1,-1,-1,-1,,9999,0,0,2,FEW 20   SCT 30,1,8,-1,2,1019,RJOA 210500Z 34008KT 9999 FEW020 SCT030 08/M02 Q1019 RMK     1CU020 3CU030 A3010=,
20180121_060000.002,0,RJOA,,,,0,20180121060000,-1,-1,-1,-1,300,-1,10,-1,-1,280,350,,9999,0,0,3,FEW 20   SCT 30   BKN -9999,1,8,-1,4,1019,RJOA 210600Z 30010KT 280V350 9999 FEW020 SCT030 BKN/// 08/M04     Q1019 RMK 1CU020 3CU030 A3009=,
20180121_070000.002,0,RJOA,,,,0,20180121070000,-1,-1,-1,-1,340,-1,7,-1,-1,300,20,,9999,0,0,2,FEW 20   BKN -9999,1,7,-1,4,1019,RJOA 210700Z 34007KT 300V020 9999 FEW020 BKN/// 07/M04 Q1019     RMK 1CU020 A3009=,
20180121_080000.002,0,RJOA,,,,0,20180121080000,-1,-1,-1,-1,330,-1,6,-1,-1,290,360,,9999,0,0,2,FEW 35   BKN -9999,1,6,-1,6,1019,RJOA 210800Z 33006KT 290V360 9999 FEW035 BKN/// 06/M06 Q1019     RMK 1CU035 A3011=,
20180121_090000.002,0,RJOA,,,,0,20180121090000,-1,-1,-1,-1,360,-1,3,-1,-1,330,50,,9999,0,0,2,FEW 35   BKN -9999,1,6,-1,5,1020,RJOA 210900Z 36003KT 330V050 9999 FEW035 BKN/// 06/M05 Q1020     RMK 1CU035 A3013=,
20180121_100000.002,0,RJOA,,,,0,20180121100000,-1,-1,-1,-1,340,-1,5,-1,-1,310,10,,9999,0,0,3,FEW 30   BKN 160   BKN -9999,1,5,-1,4,1020,RJOA 211000Z 34005KT 310V010 9999 FEW030 BKN160 BKN/// 05/M04     Q1020 RMK 1CU030 6AC160 A3014=,
20180121_110000.002,0,RJOA,,,,0,20180121110000,-1,-1,-1,-1,10,-1,9,-1,-1,350,50,,9999,0,0,3,FEW 30   BKN 150   BKN -9999,1,4,-1,4,1020,RJOA 211100Z 01009KT 350V050 9999 FEW030 BKN150 BKN/// 04/M04     Q1020 RMK 1CU030 6AC150 A3013=,
20180121_120000.002,0,RJOA,,,,0,20180121120000,-1,-1,-1,-1,10,-1,9,-1,-1,-1,-1,,9999,0,0,3,FEW 30   SCT 150   BKN -9999,1,4,-1,5,1019,RJOA 211200Z 01009KT 9999 FEW030 SCT150 BKN/// 04/M05 Q1019     RMK 1CU030 4AC150 A3012=,
20180121_130000.003,0,RJOA,,,,0,20180121130000,-1,-1,-1,-1,40,-1,5,-1,-1,-1,-1,,9999,0,0,3,FEW 25   SCT 160   BKN -9999,1,4,-1,5,1020,RJOA 211300Z 04005KT 9999 FEW025 SCT160 BKN/// 04/M05 Q1020     RMK 1CU025 4AC160 A3012=,
20180121_220000.002,0,RJOA,,,,0,20180121220000,-1,-1,-1,-1,70,-1,9,-1,-1,-1,-1,,9999,0,0,2,FEW 20   BKN 45,1,3,-1,3,1015,RJOA 212200Z 07009KT 9999 FEW020 BKN045 03/M03 Q1015 RMK     1CU020 7SC045 A2998=,
20180121_230000.002,0,RJOA,,,,0,20180121230000,-1,-1,-1,-1,60,-1,8,-1,-1,-1,-1,,3000,0,2,3,FEW 5   BKN 10   BKN 15,1,3,-1,2,1015,RJOA 212300Z 06008KT 3000 -SN BR FEW005 BKN010 BKN015 03/M02     Q1015 RMK 1ST005 5CU010 6CU015 A3000=,- SN; BR
20180122_000000.002,0,RJOA,,,,0,20180122000000,-1,-1,-1,-1,60,-1,5,-1,-1,20,80,,1400,1,2,3,FEW 2   SCT 5   BKN 7,1,1,-1,0,1015,RJOA 220000Z 06005KT 020V080 1400 R10/P1800N -SN BR FEW002     SCT005 BKN007 01/M00 Q1015 RMK 1ST002 3ST005 6ST007           A3000=,- SN; BR
20180122_010000.002,0,RJOA,,,,0,20180122010000,-1,-1,-1,-1,70,-1,4,-1,-1,-1,-1,,800,1,1,3,FEW 1   SCT 3   BKN 5,1,0,-1,0,1015,RJOA 220100Z 07004KT 0800 R10/P1800N SN FEW001 SCT003 BKN005     00/M00 Q1015 RMK 1ST001 3ST003 6ST005 A2998=,SN
20180122_020000.002,0,RJOA,,,,0,20180122020000,-1,-1,-1,-1,50,-1,5,-1,-1,-1,-1,,1400,1,2,3,FEW 1   SCT 5   BKN 8,1,0,1,0,1013,RJOA 220200Z 05005KT 1400 R10/P1800N -SN BR FEW001 SCT005     BKN008 00/00 Q1013 RMK 1ST001 3ST005 6ST008 A2994=,- SN; BR
20180122_030000.002,0,RJOA,,,,0,20180122030000,-1,-1,-1,-1,999,-1,2,-1,-1,-1,-1,,500,1,1,3,FEW 1   SCT 3   BKN 6,1,0,1,0,1012,RJOA 220300Z VRB02KT 0500 R10/0600V1600U SN FEW001 SCT003     BKN006 00/00 Q1012 RMK 1ST001 3ST003 6ST006 A2989 P/FR=,SN
20180122_040000.002,0,RJOA,,,,0,20180122040000,-1,-1,-1,-1,360,-1,4,-1,-1,330,50,,1200,1,2,3,FEW 1   SCT 3   BKN 5,1,1,1,0,1011,RJOA 220400Z 36004KT 330V050 1200 R10/1400VP1800U -SN BR     FEW001 SCT003 BKN005 01/00 Q1011 RMK 1ST001 3ST003 6ST005           A2985=,- SN; BR
20180122_050000.002,0,RJOA,,,,0,20180122050000,-1,-1,-1,-1,350,-1,7,-1,-1,330,80,,1600,0,2,3,FEW 1   SCT 3   BKN 6,1,1,1,0,1010,RJOA 220500Z 35007KT 330V080 1600 -SN BR FEW001 SCT003 BKN006     01/00 Q1010 RMK 1ST001 3ST003 6ST006 A2985=,- SN; BR
20180122_060000.003,0,RJOA,,,,0,20180122060000,-1,-1,-1,-1,360,-1,3,-1,-1,320,40,,3000,0,2,3,FEW 1   SCT 6   BKN 10,1,1,1,0,1011,RJOA 220600Z 36003KT 320V040 3000 -SN BR FEW001 SCT006 BKN010     01/00 Q1011 RMK 1ST001 3ST006 5CU010 A2985=,- SN; BR
20180122_070000.002,0,RJOA,,,,0,20180122070000,-1,-1,-1,-1,999,-1,1,-1,-1,-1,-1,,9999,1,1,3,FEW 0   SCT 12   BKN 40,1,1,1,0,1011,RJOA 220700Z VRB01KT 9999 R10/P1800N BCFG FEW000 SCT012 BKN040     01/00 Q1011 RMK 1ST000 3CU012 6SC040 A2986 1500E-SE FG           E-SE AND SW-W=,BC FG
20180122_080000.003,0,RJOA,,,,0,20180122080000,-1,-1,-1,-1,300,-1,4,-1,-1,280,340,,9999,1,1,1,FEW 0,1,1,1,1,1011,RJOA 220800Z 30004KT 280V340 9999 R10/P1800N BCFG FEW000 01/01     Q1011 RMK 1ST000 A2987 FG BANK SE AND SW-W=,BC FG
20180122_090000.002,0,RJOA,,,,0,20180122090000,-1,-1,-1,-1,300,-1,5,-1,-1,-1,-1,,8000,0,1,1,FEW 0,1,0,1,0,1012,RJOA 220900Z 30005KT 8000 PRFG FEW000 00/00 Q1012 RMK 1ST000     A2989 2000W FG BANK SW-W=,PR FG
20180122_100000.002,0,RJOA,,,,0,20180122100000,-1,-1,-1,-1,280,-1,3,-1,-1,-1,-1,,6000,0,1,1,FEW 0,1,0,1,0,1012,RJOA 221000Z 28003KT 6000 PRFG FEW000 00/00 Q1012 RMK 1ST000     A2990 FG BANK SW-W=,PR FG
20180122_110000.003,0,RJOA,,,,0,20180122110000,-1,-1,-1,-1,260,-1,1,-1,-1,-1,-1,,3000,1,2,2,FEW 0   SCT 2,1,0,1,0,1011,RJOA 221100Z 26001KT 3000 R10/0600VP1800D BCFG BR FEW000     SCT002 00/00 Q1011 RMK 1ST000 3ST002 A2988 FG E-SE AND           SW-W=,BC FG; BR
20180122_120000.002,0,RJOA,,,,0,20180122120000,-1,-1,-1,-1,290,-1,3,-1,-1,-1,-1,,4000,0,2,2,FEW 0   SCT 2,-1,1,-1,1,1012,RJOA 221200Z 29003KT 4000 BCFG BR FEW000 SCT002 M01/M01 Q1012     RMK 1ST000 3ST002 A2989 FG BANK E-SE AND SW-W=,BC FG; BR
20180122_130000.003,0,RJOA,,,,0,20180122130000,-1,-1,-1,-1,290,-1,2,-1,-1,-1,-1,,2000,1,2,2,FEW 0   SCT 2,-1,2,-1,2,1011,RJOA 221300Z 29002KT 2000 R10/0250V0450N PRFG BR FEW000 SCT002     M02/M02 Q1011 RMK 1ST000 3ST002 A2988 1000SW-W FG ON           RWY10=,PR FG; BR
20180122_220000.002,0,RJOA,,,,0,20180122220000,-1,-1,-1,-1,280,-1,9,-1,-1,-1,-1,,4000,0,2,3,FEW 0   SCT 10   BKN 20,1,2,1,2,1011,RJOA 222200Z 28009KT 4000 BCFG BR FEW000 SCT010 BKN020 02/02     Q1011 RMK 1ST000 3CU010 5CU020 A2986 FG BANK E-SE AND           SW-W=,BC FG; BR
20180122_230000.003,0,RJOA,,,,0,20180122230000,-1,-1,-1,-1,290,-1,7,-1,-1,260,340,,5000,0,2,2,FEW 0   SCT 10,1,2,1,2,1011,RJOA 222300Z 29007KT 260V340 5000 BCFG BR FEW000 SCT010 02/02     Q1011 RMK 1ST000 3CU010 A2987 FG BANK E-SE AND SW-W=,BC FG; BR
20180123_000000.002,0,RJOA,,,,0,20180123000000,-1,-1,-1,-1,270,-1,9,-1,-1,-1,-1,,6000,0,1,1,FEW 0,1,3,1,2,1012,RJOA 230000Z 27009KT 6000 BCFG FEW000 03/02 Q1012 RMK 1ST000     A2989 FG BANK E-SE AND W=,BC FG
20180123_010000.002,0,RJOA,,,,0,20180123010000,-1,-1,-1,-1,270,-1,12,-1,-1,-1,-1,,9999,0,0,2,FEW 15   SCT 40,1,4,-1,0,1012,RJOA 230100Z 27012KT 9999 FEW015 SCT040 04/M00 Q1012 RMK     1CU015 3CU040 A2990=,
20180123_020000.002,0,RJOA,,,,0,20180123020000,-1,-1,-1,-1,290,-1,15,-1,-1,-1,-1,,9999,0,0,2,FEW 15   SCT 40,1,6,-1,2,1012,RJOA 230200Z 29015KT 9999 FEW015 SCT040 06/M02 Q1012 RMK     1CU015 4CU040 A2990=,
20180123_030000.003,0,RJOA,,,,0,20180123030000,-1,-1,-1,-1,290,-1,24,-1,38,-1,-1,,9999,0,0,2,FEW 20   SCT 40,1,5,-1,6,1012,RJOA 230300Z 29024G38KT 9999 FEW020 SCT040 05/M06 Q1012 RMK     1CU020 3CU040 A2990=,
20180123_040000.003,0,RJOA,,,,0,20180123040000,-1,-1,-1,-1,280,-1,21,-1,-1,-1,-1,,9999,0,0,2,FEW 20   SCT 40,1,5,-1,7,1011,RJOA 230400Z 28021KT 9999 FEW020 SCT040 05/M07 Q1011 RMK     1CU020 3CU040 A2988=,
20180123_050000.002,0,RJOA,,,,0,20180123050000,-1,-1,-1,-1,290,-1,15,-1,26,-1,-1,,9999,0,0,2,FEW 20   BKN 40,1,4,-1,7,1012,RJOA 230500Z 29015G26KT 9999 FEW020 BKN040 04/M07 Q1012 RMK     1CU020 7CU040 A2989=,
20180123_060000.003,0,RJOA,,,,0,20180123060000,-1,-1,-1,-1,320,-1,15,-1,-1,-1,-1,,1500,1,1,3,FEW 7   SCT 10   BKN 20,1,0,-1,2,1013,RJOA 230600Z 32015KT 1500 R10/P1800N -SHSN FEW007 SCT010     BKN020 00/M02 Q1013 RMK 1ST007 3CU010 7CU020 A2993=,- SN SH
20180123_070000.002,0,RJOA,,,,0,20180123070000,-1,-1,-1,-1,290,-1,12,-1,-1,-1,-1,,9999,0,1,2,FEW 10   SCT 25,1,0,-1,5,1014,RJOA 230700Z 29012KT 9999 VCSH FEW010 SCT025 00/M05 Q1014 RMK     1CU010 4CU025 A2995=,VC SH
20180123_080000.002,0,RJOA,,,,0,20180123080000,-1,-1,-1,-1,290,-1,9,-1,-1,-1,-1,,9999,0,1,2,FEW 10   SCT 25,-1,0,-1,8,1014,RJOA 230800Z 29009KT 9999 VCSH FEW010 SCT025 M00/M08 Q1014 RMK     1CU010 3CU025 A2996=,VC SH
20180123_090000.002,0,RJOA,,,,0,20180123090000,-1,-1,-1,-1,300,-1,6,-1,-1,-1,-1,,9999,0,0,2,FEW 20   SCT 35,-1,1,-1,9,1014,RJOA 230900Z 30006KT 9999 FEW020 SCT035 M01/M09 Q1014 RMK     1CU020 3CU035 A2997=,
20180123_100000.002,0,RJOA,,,,0,20180123100000,-1,-1,-1,-1,290,-1,4,-1,-1,260,320,,9999,0,1,2,FEW 20   BKN 35,-1,1,-1,9,1015,RJOA 231000Z 29004KT 260V320 9999 VCSH FEW020 BKN035 M01/M09     Q1015 RMK 1CU020 5CU035 A2997=,VC SH
20180123_110000.002,0,RJOA,,,,0,20180123110000,-1,-1,-1,-1,300,-1,11,-1,-1,-1,-1,,9999,0,1,2,FEW 20   BKN 35,-1,1,-1,10,1015,RJOA 231100Z 30011KT 9999 VCSH FEW020 BKN035 M01/M10 Q1015 RMK     1CU020 5CU035 A2998=,VC SH
20180123_120000.002,0,RJOA,,,,0,20180123120000,-1,-1,-1,-1,290,-1,7,-1,-1,-1,-1,,9999,0,0,2,FEW 20   BKN 35,-1,2,-1,9,1015,RJOA 231200Z 29007KT 9999 FEW020 BKN035 M02/M09 Q1015 RMK     1CU020 5CU035 A3000=,
20180123_130000.002,0,RJOA,,,,0,20180123130000,-1,-1,-1,-1,290,-1,7,-1,-1,-1,-1,,9999,0,1,2,FEW 15   BKN 35,-1,2,-1,8,1015,RJOA 231300Z 29007KT 9999 VCSH FEW015 BKN035 M02/M08 Q1015 RMK     1CU015 5CU035 A2999=,VC SH
20180123_220000.002,0,RJOA,,,,0,20180123220000,-1,-1,-1,-1,280,-1,6,-1,-1,-1,-1,,9999,0,1,2,FEW 15   SCT 20,-1,5,-1,7,1016,RJOA 232200Z 28006KT 9999 -SHSN FEW015 SCT020 M05/M07 Q1016     RMK 1CU015 3CU020 A3003=,- SN SH
20180123_230000.002,0,RJOA,,,,0,20180123230000,-1,-1,-1,-1,300,-1,7,-1,-1,270,330,,9999,0,1,2,FEW 10   BKN 20,-1,4,-1,6,1017,RJOA 232300Z 30007KT 270V330 9999 -SHSN FEW010 BKN020 M04/M06     Q1017 RMK 1CU010 5CU020 A3004=,- SN SH
20180124_000000.002,0,RJOA,,,,0,20180124000000,-1,-1,-1,-1,290,-1,10,-1,-1,-1,-1,,9999,0,1,2,FEW 10   SCT 20,-1,4,-1,8,1017,RJOA 240000Z 29010KT 9999 -SHSN FEW010 SCT020 M04/M08 Q1017     RMK 1CU010 4CU020 A3004=,- SN SH
20180124_010000.003,0,RJOA,,,,0,20180124010000,-1,-1,-1,-1,300,-1,17,-1,-1,-1,-1,,9999,0,1,2,FEW 15   SCT 25,-1,3,-1,11,1017,RJOA 240100Z 30017KT 9999 -SHSN FEW015 SCT025 M03/M11 Q1017     RMK 1CU015 3CU025 A3004=,- SN SH
20180124_020000.002,0,RJOA,,,,0,20180124020000,-1,-1,-1,-1,300,-1,19,-1,29,-1,-1,,9999,0,0,2,FEW 15   SCT 25,-1,3,-1,13,1016,RJOA 240200Z 30019G29KT 9999 FEW015 SCT025 M03/M13 Q1016 RMK     1CU015 3CU025 A3003=,
20180124_030000.002,0,RJOA,,,,0,20180124030000,-1,-1,-1,-1,300,-1,19,-1,-1,260,320,,9999,0,1,2,FEW 15   BKN 30,-1,2,-1,11,1016,RJOA 240300Z 30019KT 260V320 9999 -SHSN FEW015 BKN030 M02/M11     Q1016 RMK 2CU015 6CU030 A3001=,- SN SH
20180124_040000.002,0,RJOA,,,,0,20180124040000,-1,-1,-1,-1,290,-1,16,-1,28,-1,-1,,9999,0,1,2,FEW 20   SCT 30,-1,2,-1,11,1015,RJOA 240400Z 29016G28KT 9999 -SHSN FEW020 SCT030 M02/M11 Q1015     RMK 1CU020 3CU030 A3000=,- SN SH
20180124_050000.002,0,RJOA,,,,0,20180124050000,-1,-1,-1,-1,280,-1,19,-1,33,260,330,,9999,0,0,2,FEW 20   SCT 30,-1,2,-1,15,1015,RJOA 240500Z 28019G33KT 260V330 9999 FEW020 SCT030 M02/M15     Q1015 RMK 1CU020 4CU030 A3000=,
20180124_060000.002,0,RJOA,,,,0,20180124060000,-1,-1,-1,-1,300,-1,15,-1,-1,250,340,,9999,0,0,3,FEW 25   SCT 40   BKN -9999,-1,3,-1,14,1016,RJOA 240600Z 30015KT 250V340 9999 FEW025 SCT040 BKN/// M03/M14     Q1016 RMK 1CU025 3CU040 A3002=,
20180124_070000.002,0,RJOA,,,,0,20180124070000,-1,-1,-1,-1,290,-1,15,-1,-1,-1,-1,,9999,0,1,3,FEW 20   BKN 30   BKN -9999,-1,4,-1,11,1017,RJOA 240700Z 29015KT 9999 -SHSN FEW020 BKN030 BKN/// M04/M11     Q1017 RMK 1CU020 5CU030 A3004=,- SN SH
20180124_080000.002,0,RJOA,,,,0,20180124080000,-1,-1,-1,-1,300,-1,11,-1,-1,-1,-1,,9999,0,1,2,FEW 20   BKN 30,-1,4,-1,12,1017,RJOA 240800Z 30011KT 9999 -SHSN FEW020 BKN030 M04/M12 Q1017     RMK 1CU020 6CU030 A3004=,- SN SH
20180124_090000.003,0,RJOA,,,,0,20180124090000,-1,-1,-1,-1,290,-1,14,-1,-1,-1,-1,,9999,0,1,2,FEW 20   BKN 30,-1,5,-1,11,1017,RJOA 240900Z 29014KT 9999 -SHSN FEW020 BKN030 M05/M11 Q1017     RMK 1CU020 6CU030 A3005=,- SN SH
20180124_100000.002,0,RJOA,,,,0,20180124100000,-1,-1,-1,-1,270,-1,6,-1,-1,240,300,,6000,0,1,2,FEW 15   BKN 25,-1,6,-1,9,1018,RJOA 241000Z 27006KT 240V300 6000 -SHSN FEW015 BKN025 M06/M09     Q1018 RMK 2CU015 7CU025 A3007=,- SN SH
20180124_110000.002,0,RJOA,,,,0,20180124110000,-1,-1,-1,-1,280,-1,4,-1,-1,-1,-1,,9999,0,1,2,FEW 15   SCT 25,-1,7,-1,8,1017,RJOA 241100Z 28004KT 9999 -SHSN FEW015 SCT025 M07/M08 Q1017     RMK 1CU015 4CU025 A3005=,- SN SH
20180124_120000.002,0,RJOA,,,,0,20180124120000,-1,-1,-1,-1,280,-1,5,-1,-1,-1,-1,,8000,0,1,2,FEW 15   BKN 30,-1,6,-1,8,1017,RJOA 241200Z 28005KT 8000 -SHSN FEW015 BKN030 M06/M08 Q1017     RMK 1CU015 6CU030 A3005=,- SN SH
20180124_130000.002,0,RJOA,,,,0,20180124130000,-1,-1,-1,-1,280,-1,6,-1,-1,-1,-1,,9999,0,1,2,FEW 15   BKN 30,-1,7,-1,8,1017,RJOA 241300Z 28006KT 9999 -SHSN FEW015 BKN030 M07/M08 Q1017     RMK 1CU015 5CU030 A3005=,- SN SH
20180124_220000.002,0,RJOA,,,,0,20180124220000,-1,-1,-1,-1,290,-1,4,-1,-1,-1,-1,,4000,0,1,3,FEW 8   SCT 15   BKN 25,-1,6,-1,7,1018,RJOA 242200Z 29004KT 4000 -SHSN FEW008 SCT015 BKN025 M06/M07     Q1018 RMK 1ST008 3CU015 5CU025 A3009=,- SN SH
20180124_230000.002,0,RJOA,,,,0,20180124230000,-1,-1,-1,-1,300,-1,4,-1,-1,-1,-1,,9999,0,1,3,FEW 8   SCT 15   BKN 25,-1,6,-1,7,1019,RJOA 242300Z 30004KT 9999 -SHSN FEW008 SCT015 BKN025 M06/M07     Q1019 RMK 1ST008 3CU015 5CU025 A3010=,- SN SH
20180125_000000.002,0,RJOA,,,,0,20180125000000,-1,-1,-1,-1,999,-1,2,-1,-1,-1,-1,,9999,0,1,2,FEW 15   SCT 25,-1,4,-1,6,1019,RJOA 250000Z VRB02KT 9999 -SHSN FEW015 SCT025 M04/M06 Q1019     RMK 1CU015 4CU025 A3010=,- SN SH
20180125_010000.002,0,RJOA,,,,0,20180125010000,-1,-1,-1,-1,270,-1,7,-1,-1,230,310,,9999,0,1,2,FEW 15   BKN 25,-1,2,-1,6,1019,RJOA 250100Z 27007KT 230V310 9999 -SHSN FEW015 BKN025 M02/M06     Q1019 RMK 1CU015 5CU025 A3011=,- SN SH
20180125_020000.003,0,RJOA,,,,0,20180125020000,-1,-1,-1,-1,260,-1,9,-1,-1,230,290,,9999,0,1,2,FEW 15   BKN 25,-1,2,-1,6,1019,RJOA 250200Z 26009KT 230V290 9999 -SHSN FEW015 BKN025 M02/M06     Q1019 RMK 1CU015 6CU025 A3009=,- SN SH
20180125_030000.002,0,RJOA,,,,0,20180125030000,-1,-1,-1,-1,300,-1,8,-1,-1,260,330,,9999,0,1,2,FEW 10   BKN 20,-1,1,-1,5,1018,RJOA 250300Z 30008KT 260V330 9999 -SHSN FEW010 BKN020 M01/M05     Q1018 RMK 1CU010 6CU020 A3007=,- SN SH
20180125_040000.002,0,RJOA,,,,0,20180125040000,-1,-1,-1,-1,310,-1,9,-1,-1,-1,-1,,9999,0,1,2,FEW 10   BKN 20,-1,1,-1,5,1017,RJOA 250400Z 31009KT 9999 -SHSN FEW010 BKN020 M01/M05 Q1017     RMK 1CU010 6CU020 A3004=,- SN SH
20180125_050000.002,0,RJOA,,,,0,20180125050000,-1,-1,-1,-1,270,-1,8,-1,-1,240,310,,4000,0,1,3,FEW 8   SCT 10   BKN 20,-1,0,-1,3,1016,RJOA 250500Z 27008KT 240V310 4000 -SHSN FEW008 SCT010 BKN020     M00/M03 Q1016 RMK 1ST008 3CU010 6CU020 A3003=,- SN SH
20180125_060000.002,0,RJOA,,,,0,20180125060000,-1,-1,-1,-1,260,-1,9,-1,-1,-1,-1,,9999,0,1,2,FEW 6   BKN 20,1,1,-1,4,1017,RJOA 250600Z 26009KT 9999 -SHSN FEW006 BKN020 01/M04 Q1017 RMK     1ST006 5CU020 A3003 3000NE-E=,- SN SH
20180125_070000.002,0,RJOA,,,,0,20180125070000,-1,-1,-1,-1,290,-1,11,-1,-1,-1,-1,,9999,0,1,2,FEW 10   SCT 20,-1,1,-1,4,1016,RJOA 250700Z 29011KT 9999 -SHSN FEW010 SCT020 M01/M04 Q1016     RMK 1CU010 4CU020 A3003=,- SN SH
20180125_080000.002,0,RJOA,,,,0,20180125080000,-1,-1,-1,-1,290,-1,12,-1,-1,-1,-1,,9999,0,0,1,FEW 15,-1,1,-1,7,1017,RJOA 250800Z 29012KT 9999 FEW015 M01/M07 Q1017 RMK 1CU015     A3003=,
20180125_090000.002,0,RJOA,,,,0,20180125090000,-1,-1,-1,-1,290,-1,9,-1,-1,-1,-1,,9999,0,0,1,FEW 15,-1,2,-1,8,1017,RJOA 250900Z 29009KT 9999 FEW015 M02/M08 Q1017 RMK 1CU015     A3004=,
20180125_100000.003,0,RJOA,,,,0,20180125100000,-1,-1,-1,-1,310,-1,8,-1,-1,-1,-1,,9999,0,0,1,FEW 15,-1,3,-1,7,1017,RJOA 251000Z 31008KT 9999 FEW015 M03/M07 Q1017 RMK 1CU015     A3004=,
20180125_110000.003,0,RJOA,,,,0,20180125110000,-1,-1,-1,-1,280,-1,4,-1,-1,240,300,,9999,0,0,2,FEW 15   SCT -9999,-1,4,-1,7,1017,RJOA 251100Z 28004KT 240V300 9999 FEW015 SCT/// M04/M07 Q1017     RMK 1CU015 A3003=,
20180125_120000.002,0,RJOA,,,,0,20180125120000,-1,-1,-1,-1,280,-1,5,-1,-1,-1,-1,,9999,0,0,2,FEW 15   BKN -9999,-1,4,-1,6,1016,RJOA 251200Z 28005KT 9999 FEW015 BKN/// M04/M06 Q1016 RMK     1CU015 A3003=,
20180125_130000.002,0,RJOA,,,,0,20180125130000,-1,-1,-1,-1,270,-1,4,-1,-1,-1,-1,,9999,0,0,2,FEW 15   SCT -9999,-1,4,-1,7,1016,RJOA 251300Z 27004KT 9999 FEW015 SCT/// M04/M07 Q1016 RMK     1CU015 A3001=,
20180125_220000.002,0,RJOA,,,,0,20180125220000,-1,-1,-1,-1,300,-1,5,-1,-1,-1,-1,,9999,0,0,1,FEW 15,-1,5,-1,7,1015,RJOA 252200Z 30005KT 9999 FEW015 M05/M07 Q1015 RMK 1CU015     A2997=,
20180125_230000.002,0,RJOA,,,,0,20180125230000,-1,-1,-1,-1,270,-1,4,-1,-1,240,320,,8000,0,1,2,FEW 15   BKN 30,-1,3,-1,6,1015,RJOA 252300Z 27004KT 240V320 8000 -SHSN FEW015 BKN030 M03/M06     Q1015 RMK 1CU015 6CU030 A2999=,- SN SH
20180126_000000.002,0,RJOA,,,,0,20180126000000,-1,-1,-1,-1,270,-1,6,-1,-1,-1,-1,,2000,0,1,2,FEW 10   BKN 20,-1,3,-1,5,1016,RJOA 260000Z 27006KT 2000 -SHSN FEW010 BKN020 M03/M05 Q1016     RMK 1CU010 7CU020 A3000=,- SN SH
20180126_010000.002,0,RJOA,,,,0,20180126010000,-1,-1,-1,-1,270,-1,6,-1,-1,-1,-1,,4000,0,1,2,FEW 5   SCT 10,-1,2,-1,4,1016,RJOA 260100Z 27006KT 4000 -SHSN FEW005 SCT010 M02/M04 Q1016     RMK 1ST005 4CU010 A3002=,- SN SH
20180126_020000.002,0,RJOA,,,,0,20180126020000,-1,-1,-1,-1,270,-1,12,-1,-1,-1,-1,,9999,0,1,2,FEW 10   BKN 15,-1,1,-1,5,1016,RJOA 260200Z 27012KT 9999 -SHSN FEW010 BKN015 M01/M05 Q1016     RMK 1CU010 5CU015 A3001=,- SN SH
20180126_030000.002,0,RJOA,,,,0,20180126030000,-1,-1,-1,-1,260,-1,15,-1,-1,230,300,,9999,0,1,2,FEW 10   BKN 20,1,0,-1,7,1014,RJOA 260300Z 26015KT 230V300 9999 -SHSN FEW010 BKN020 00/M07     Q1014 RMK 1CU010 5CU020 A2997=,- SN SH
20180126_040000.002,0,RJOA,,,,0,20180126040000,-1,-1,-1,-1,270,-1,12,-1,-1,-1,-1,,9999,0,1,2,FEW 10   BKN 20,-1,1,-1,7,1014,RJOA 260400Z 27012KT 9999 -SHSN FEW010 BKN020 M01/M07 Q1014     RMK 1CU010 7CU020 A2996=,- SN SH
20180126_050000.002,0,RJOA,,,,0,20180126050000,-1,-1,-1,-1,300,-1,12,-1,-1,-1,-1,,9999,0,1,2,FEW 10   BKN 15,-1,1,-1,6,1014,RJOA 260500Z 30012KT 9999 -SHSN FEW010 BKN015 M01/M06 Q1014     RMK 1CU010 6CU015 A2996=,- SN SH
20180126_060000.002,0,RJOA,,,,0,20180126060000,-1,-1,-1,-1,310,-1,9,-1,-1,-1,-1,,8000,0,1,2,SCT 10   BKN 15,-1,2,-1,4,1015,RJOA 260600Z 31009KT 8000 -SHSN SCT010 BKN015 M02/M04 Q1015     RMK 3CU010 6CU015 A2997=,- SN SH
20180126_070000.002,0,RJOA,,,,0,20180126070000,-1,-1,-1,-1,270,-1,11,-1,-1,-1,-1,,5000,0,1,2,SCT 10   BKN 15,-1,1,-1,5,1015,RJOA 260700Z 27011KT 5000 -SHSN SCT010 BKN015 M01/M05 Q1015     RMK 3CU010 7CU015 A2998=,- SN SH
20180126_080000.003,0,RJOA,,,,0,20180126080000,-1,-1,-1,-1,290,-1,9,-1,-1,-1,-1,,4000,0,1,3,FEW 8   SCT 10   BKN 20,-1,2,-1,5,1016,RJOA 260800Z 29009KT 4000 -SHSN FEW008 SCT010 BKN020 M02/M05     Q1016 RMK 1ST008 3CU010 5CU020 A3000=,- SN SH
20180126_090000.002,0,RJOA,,,,0,20180126090000,-1,-1,-1,-1,300,-1,12,-1,-1,-1,-1,,8000,0,1,2,FEW 10   BKN 20,-1,3,-1,5,1016,RJOA 260900Z 30012KT 8000 -SHSN FEW010 BKN020 M03/M05 Q1016     RMK 1CU010 5CU020 A3002=,- SN SH
20180126_100000.002,0,RJOA,,,,0,20180126100000,-1,-1,-1,-1,300,-1,8,-1,-1,-1,-1,,9999,0,1,2,FEW 10   SCT 20,-1,3,-1,6,1017,RJOA 261000Z 30008KT 9999 -SHSN FEW010 SCT020 M03/M06 Q1017     RMK 1CU010 4CU020 A3004=,- SN SH
20180126_110000.002,0,RJOA,,,,0,20180126110000,-1,-1,-1,-1,300,-1,11,-1,-1,-1,-1,,9999,0,1,2,FEW 10   BKN 25,-1,3,-1,7,1018,RJOA 261100Z 30011KT 9999 -SHSN FEW010 BKN025 M03/M07 Q1018     RMK 1CU010 5CU025 A3006=,- SN SH
20180126_120000.002,0,RJOA,,,,0,20180126120000,-1,-1,-1,-1,260,-1,3,-1,-1,-1,-1,,9999,0,0,2,FEW 10   BKN 25,-1,4,-1,7,1018,RJOA 261200Z 26003KT 9999 FEW010 BKN025 M04/M07 Q1018 RMK     2CU010 6CU025 A3009=,
20180126_130000.002,0,RJOA,,,,0,20180126130000,-1,-1,-1,-1,260,-1,4,-1,-1,-1,-1,,9999,0,0,2,FEW 10   BKN 25,-1,4,-1,7,1019,RJOA 261300Z 26004KT 9999 FEW010 BKN025 M04/M07 Q1019 RMK     1CU010 7CU025 A3010=,
20180126_220000.002,0,RJOA,,,,0,20180126220000,-1,-1,-1,-1,290,-1,4,-1,-1,-1,-1,,9999,0,1,2,FEW 10   BKN 20,-1,4,-1,5,1022,RJOA 262200Z 29004KT 9999 -SHSN FEW010 BKN020 M04/M05 Q1022     RMK 1CU010 6CU020 A3018=,- SN SH
20180126_230000.002,0,RJOA,,,,0,20180126230000,-1,-1,-1,-1,290,-1,4,-1,-1,-1,-1,,7000,0,1,2,FEW 10   BKN 20,-1,4,-1,6,1022,RJOA 262300Z 29004KT 7000 -SHSN FEW010 BKN020 M04/M06 Q1022     RMK 1CU010 7CU020 A3020=,- SN SH
20180127_000000.002,0,RJOA,,,,0,20180127000000,-1,-1,-1,-1,290,-1,3,-1,-1,-1,-1,,4000,0,1,2,FEW 10   BKN 20,-1,3,-1,5,1023,RJOA 270000Z 29003KT 4000 -SHSN FEW010 BKN020 M03/M05 Q1023     RMK 1CU010 5CU020 A3021=,- SN SH
20180127_010000.002,0,RJOA,,,,0,20180127010000,-1,-1,-1,-1,280,-1,3,-1,-1,250,310,,9999,0,1,2,FEW 15   SCT 30,-1,1,-1,4,1023,RJOA 270100Z 28003KT 250V310 9999 -SHSN FEW015 SCT030 M01/M04     Q1023 RMK 1CU015 3CU030 A3021=,- SN SH
20180127_020000.002,0,RJOA,,,,0,20180127020000,-1,-1,-1,-1,999,-1,3,-1,-1,-1,-1,,9999,0,1,2,FEW 15   BKN 25,1,0,-1,4,1022,RJOA 270200Z VRB03KT 9999 -SHSN FEW015 BKN025 00/M04 Q1022 RMK     1CU015 5CU025 A3021=,- SN SH
20180127_030000.002,0,RJOA,,,,0,20180127030000,-1,-1,-1,-1,330,-1,6,-1,-1,-1,-1,,9999,0,0,2,FEW 15   BKN 25,1,2,-1,4,1022,RJOA 270300Z 33006KT 9999 FEW015 BKN025 02/M04 Q1022 RMK     1CU015 6CU025 A3018=,
20180127_040000.002,0,RJOA,,,,0,20180127040000,-1,-1,-1,-1,350,-1,7,-1,-1,-1,-1,,9999,0,1,2,FEW 20   BKN 30,1,2,-1,5,1021,RJOA 270400Z 35007KT 9999 -SHSN FEW020 BKN030 02/M05 Q1021 RMK     2CU020 6CU030 A3018=,- SN SH
20180127_050000.002,0,RJOA,,,,0,20180127050000,-1,-1,-1,-1,360,-1,5,-1,-1,310,70,,9999,0,0,2,FEW 20   BKN 30,1,2,-1,5,1021,RJOA 270500Z 36005KT 310V070 9999 FEW020 BKN030 02/M05 Q1021     RMK 1CU020 7CU030 A3017=,
20180127_060000.002,0,RJOA,,,,0,20180127060000,-1,-1,-1,-1,310,-1,4,-1,-1,250,30,,9999,0,0,3,FEW 20   SCT 30   BKN 50,1,2,-1,5,1021,RJOA 270600Z 31004KT 250V030 9999 FEW020 SCT030 BKN050 02/M05     Q1021 RMK 1CU020 4CU030 5SC050 A3016=,
20180127_070000.002,0,RJOA,,,,0,20180127070000,-1,-1,-1,-1,330,-1,5,-1,-1,290,10,,9999,0,0,3,FEW 20   SCT 25   BKN 50,1,2,-1,5,1021,RJOA 270700Z 33005KT 290V010 9999 FEW020 SCT025 BKN050 02/M05     Q1021 RMK 1CU020 4CU025 5SC050 A3016=,
20180127_080000.002,0,RJOA,,,,0,20180127080000,-1,-1,-1,-1,340,-1,5,-1,-1,-1,-1,,9999,0,0,2,FEW 20   SCT 25,1,2,-1,5,1021,RJOA 270800Z 34005KT 9999 FEW020 SCT025 02/M05 Q1021 RMK     1CU020 3CU025 A3016=,
20180127_090000.003,0,RJOA,,,,0,20180127090000,-1,-1,-1,-1,340,-1,4,-1,-1,-1,-1,,9999,0,0,2,FEW 20   SCT 25,1,1,-1,4,1022,RJOA 270900Z 34004KT 9999 FEW020 SCT025 01/M04 Q1022 RMK     1CU020 3CU025 A3018=,
20180127_100000.002,0,RJOA,,,,0,20180127100000,-1,-1,-1,-1,310,-1,3,-1,-1,280,350,,9999,0,0,2,FEW 20   BKN 45,1,1,-1,4,1022,RJOA 271000Z 31003KT 280V350 9999 FEW020 BKN045 01/M04 Q1022     RMK 1CU020 5SC045 A3018=,
20180127_110000.002,0,RJOA,,,,0,20180127110000,-1,-1,-1,-1,999,-1,2,-1,-1,-1,-1,,9999,0,0,2,FEW 20   SCT 50,-1,0,-1,4,1021,RJOA 271100Z VRB02KT 9999 FEW020 SCT050 M00/M04 Q1021 RMK     1CU020 3SC050 A3018=,
20180127_120000.002,0,RJOA,,,,0,20180127120000,-1,-1,-1,-1,30,-1,3,-1,-1,-1,-1,,9999,0,0,1,FEW 20,-1,1,-1,4,1021,RJOA 271200Z 03003KT 9999 FEW020 M01/M04 Q1021 RMK 1CU020     A3016=,
20180127_130000.002,0,RJOA,,,,0,20180127130000,-1,-1,-1,-1,320,-1,3,-1,-1,280,10,,9999,0,0,1,FEW 20,-1,1,-1,5,1021,RJOA 271300Z 32003KT 280V010 9999 FEW020 M01/M05 Q1021 RMK     1CU020 A3017=,
20180127_220000.002,0,RJOA,,,,0,20180127220000,-1,-1,-1,-1,999,-1,1,-1,-1,-1,-1,,9999,0,0,3,FEW 20   BKN 40   BKN 70,-1,1,-1,4,1018,RJOA 272200Z VRB01KT 9999 FEW020 BKN040 BKN070 M01/M04 Q1018     RMK 1CU020 5CU040 7AC070 A3007=,
20180127_230000.002,0,RJOA,,,,0,20180127230000,-1,-1,-1,-1,999,-1,2,-1,-1,-1,-1,,9999,0,1,2,FEW 15   BKN 25,-1,1,-1,3,1018,RJOA 272300Z VRB02KT 9999 -SHSN FEW015 BKN025 M01/M03 Q1018     RMK 1CU015 6CU025 A3006=,- SN SH
20180128_000000.003,0,RJOA,,,,0,20180128000000,-1,-1,-1,-1,999,-1,1,-1,-1,-1,-1,,2000,0,1,3,FEW 8   BKN 10   BKN 15,-1,1,-1,2,1017,RJOA 280000Z VRB01KT 2000 -SHSN FEW008 BKN010 BKN015 M01/M02     Q1017 RMK 1ST008 5CU010 7CU015 A3005=,- SN SH
20180128_010000.002,0,RJOA,,,,0,20180128010000,-1,-1,-1,-1,999,-1,1,-1,-1,-1,-1,,1000,1,1,3,FEW 5   BKN 8   BKN 15,-1,1,-1,1,1017,RJOA 280100Z VRB01KT 1000 R10/1300VP1800U -SHSN FEW005 BKN008     BKN015 M01/M01 Q1017 RMK 1ST005 5ST008 7CU015 A3005=,- SN SH
20180128_020000.002,0,RJOA,,,,0,20180128020000,-1,-1,-1,-1,999,-1,1,-1,-1,-1,-1,,1200,1,3,2,FEW 0   BKN 3,-1,0,-1,1,1016,RJOA 280200Z VRB01KT 1200 R10/1800D -SHSN BCFG BR FEW000     BKN003 M00/M01 Q1016 RMK 1ST000 7ST003 A3003=,- SN SH; BC FG; BR
20180128_030000.002,0,RJOA,,,,0,20180128030000,-1,-1,-1,-1,999,-1,2,-1,-1,-1,-1,,1600,1,3,3,FEW 0   BKN 3   BKN 5,1,1,1,0,1015,RJOA 280300Z VRB02KT 1600 R10/1200VP1800D -SN BCFG BR FEW000     BKN003 BKN005 01/00 Q1015 RMK 1ST000 5ST003 6ST005 A3000=,- SN; BC FG; BR
20180128_040000.002,0,RJOA,,,,0,20180128040000,-1,-1,-1,-1,260,-1,4,-1,-1,220,290,,3000,0,3,3,FEW 0   BKN 2   BKN 4,1,1,1,1,1014,RJOA 280400Z 26004KT 220V290 3000 -RASN BCFG BR FEW000 BKN002     BKN004 01/01 Q1014 RMK 1ST000 5ST002 6ST004 A2996 FG SE-S           AND SW-W=,- RA SN; BC FG; BR
20180128_050000.002,0,RJOA,,,,0,20180128050000,-1,-1,-1,-1,270,-1,7,-1,-1,-1,-1,,9999,0,1,3,FEW 0   SCT 7   BKN 10,1,2,1,2,1014,RJOA 280500Z 27007KT 9999 PRFG FEW000 SCT007 BKN010 02/02     Q1014 RMK 1ST000 3ST007 6CU010 A2995 FG BANK E-SE=,PR FG
20180128_060000.002,0,RJOA,,,,0,20180128060000,-1,-1,-1,-1,260,-1,8,-1,-1,-1,-1,,9999,0,1,3,FEW 0   SCT 10   BKN 15,1,3,1,1,1014,RJOA 280600Z 26008KT 9999 PRFG FEW000 SCT010 BKN015 03/01     Q1014 RMK 1ST000 3CU010 7CU015 A2995 FG BANK E-SE=,PR FG
20180128_070000.003,0,RJOA,,,,0,20180128070000,-1,-1,-1,-1,260,-1,6,-1,-1,230,290,,9999,0,1,3,FEW 10   BKN 15   BKN 45,1,3,1,1,1014,RJOA 280700Z 26006KT 230V290 9999 -SHRA FEW010 BKN015 BKN045     03/01 Q1014 RMK 1CU010 5CU015 7SC045 A2995=,- RA SH
20180128_080000.002,0,RJOA,,,,0,20180128080000,-1,-1,-1,-1,270,-1,5,-1,-1,-1,-1,,9999,0,1,3,FEW 15   SCT 40   BKN 50,1,2,1,1,1013,RJOA 280800Z 27005KT 9999 -SHRA FEW015 SCT040 BKN050 02/01     Q1013 RMK 2CU015 4CU040 6SC050 A2993=,- RA SH
20180128_090000.002,0,RJOA,,,,0,20180128090000,-1,-1,-1,-1,260,-1,5,-1,-1,-1,-1,,9999,0,0,2,FEW 15   SCT 60,1,2,1,0,1013,RJOA 280900Z 26005KT 9999 FEW015 SCT060 02/00 Q1013 RMK 1CU015     4SC060 A2994=,
20180128_100000.002,0,RJOA,,,,0,20180128100000,-1,-1,-1,-1,300,-1,5,-1,-1,-1,-1,,9999,0,0,2,FEW 15   BKN 50,1,2,1,1,1014,RJOA 281000Z 30005KT 9999 FEW015 BKN050 02/01 Q1014 RMK 1CU015     7SC050 A2995=,
20180128_110000.002,0,RJOA,,,,0,20180128110000,-1,-1,-1,-1,320,-1,3,-1,-1,270,360,,9999,0,0,3,FEW 15   SCT 30   BKN 50,1,2,1,1,1014,RJOA 281100Z 32003KT 270V360 9999 FEW015 SCT030 BKN050 02/01     Q1014 RMK 2CU015 4CU030 7SC050 A2995=,
20180128_120000.002,0,RJOA,,,,0,20180128120000,-1,-1,-1,-1,300,-1,4,-1,-1,-1,-1,,9999,0,1,2,SCT 15   BKN 30,1,2,1,1,1014,RJOA 281200Z 30004KT 9999 -SHRASN SCT015 BKN030 02/01 Q1014     RMK 3CU015 7CU030 A2996=,- RA SN SH
20180128_130000.002,0,RJOA,,,,0,20180128130000,-1,-1,-1,-1,290,-1,4,-1,-1,-1,-1,,9999,0,0,3,FEW 15   SCT 30   BKN -9999,1,1,1,1,1014,RJOA 281300Z 29004KT 9999 FEW015 SCT030 BKN/// 01/01 Q1014 RMK     1CU015 3CU030 A2994=,
20180128_220000.003,0,RJOA,,,,0,20180128220000,-1,-1,-1,-1,320,-1,7,-1,-1,-1,-1,,9999,0,0,3,FEW 15   BKN 40   BKN 50,1,0,-1,4,1013,RJOA 282200Z 32007KT 9999 FEW015 BKN040 BKN050 00/M04 Q1013     RMK 1CU015 5CU040 6SC050 A2992=,
20180128_230000.002,0,RJOA,,,,0,20180128230000,-1,-1,-1,-1,290,-1,4,-1,-1,-1,-1,,9999,0,0,2,FEW 15   SCT 35,-1,0,-1,4,1014,RJOA 282300Z 29004KT 9999 FEW015 SCT035 M00/M04 Q1014 RMK     1CU015 4CU035 A2995=,
20180129_000000.003,0,RJOA,,,,0,20180129000000,-1,-1,-1,-1,310,-1,9,-1,-1,-1,-1,,9999,0,0,2,FEW 15   SCT 35,1,1,-1,4,1014,RJOA 290000Z 31009KT 9999 FEW015 SCT035 01/M04 Q1014 RMK     1CU015 3CU035 A2996=,
20180129_010000.002,0,RJOA,,,,0,20180129010000,-1,-1,-1,-1,300,-1,16,-1,-1,-1,-1,,9999,0,0,2,FEW 15   BKN 25,1,1,-1,6,1014,RJOA 290100Z 30016KT 9999 FEW015 BKN025 01/M06 Q1014 RMK     1CU015 5CU025 A2996=,
20180129_020000.002,0,RJOA,,,,0,20180129020000,-1,-1,-1,-1,300,-1,12,-1,-1,-1,-1,,9999,0,1,2,FEW 15   BKN 30,1,2,-1,7,1014,RJOA 290200Z 30012KT 9999 VCSH FEW015 BKN030 02/M07 Q1014 RMK     1CU015 5CU030 A2996=,VC SH
20180129_030000.002,0,RJOA,,,,0,20180129030000,-1,-1,-1,-1,310,-1,11,-1,-1,270,350,,9999,0,0,2,FEW 15   BKN 30,1,3,-1,6,1014,RJOA 290300Z 31011KT 270V350 9999 FEW015 BKN030 03/M06 Q1014     RMK 1CU015 5CU030 A2995=,
20180129_040000.002,0,RJOA,,,,0,20180129040000,-1,-1,-1,-1,290,-1,11,-1,22,-1,-1,,9999,0,0,2,FEW 15   BKN 30,1,3,-1,7,1013,RJOA 290400Z 29011G22KT 9999 FEW015 BKN030 03/M07 Q1013 RMK     1CU015 5CU030 A2992=,
20180129_050000.002,0,RJOA,,,,0,20180129050000,-1,-1,-1,-1,300,-1,18,-1,-1,-1,-1,,9999,0,1,2,FEW 15   BKN 30,1,1,-1,8,1013,RJOA 290500Z 30018KT 9999 -SHSN FEW015 BKN030 01/M08 Q1013 RMK     1CU015 5CU030 A2993=,- SN SH
20180129_060000.002,0,RJOA,,,,0,20180129060000,-1,-1,-1,-1,290,-1,18,-1,-1,-1,-1,,9999,0,1,2,FEW 15   BKN 30,1,2,-1,9,1014,RJOA 290600Z 29018KT 9999 -SHSN FEW015 BKN030 02/M09 Q1014 RMK     1CU015 5CU030 A2995=,- SN SH
20180129_070000.002,0,RJOA,,,,0,20180129070000,-1,-1,-1,-1,280,-1,14,-1,-1,-1,-1,,9999,0,0,2,FEW 15   SCT 35,1,0,-1,10,1014,RJOA 290700Z 28014KT 9999 FEW015 SCT035 00/M10 Q1014 RMK     1CU015 3CU035 A2995=,
20180129_080000.002,0,RJOA,,,,0,20180129080000,-1,-1,-1,-1,290,-1,13,-1,-1,-1,-1,,9999,0,0,1,FEW 15,-1,1,-1,9,1014,RJOA 290800Z 29013KT 9999 FEW015 M01/M09 Q1014 RMK 1CU015     A2997=,
20180129_090000.002,0,RJOA,,,,0,20180129090000,-1,-1,-1,-1,290,-1,14,-1,-1,-1,-1,,9999,0,1,2,FEW 15   SCT 30,-1,1,-1,9,1015,RJOA 290900Z 29014KT 9999 -SHSN FEW015 SCT030 M01/M09 Q1015     RMK 1CU015 4CU030 A3000=,- SN SH
20180129_100000.002,0,RJOA,,,,0,20180129100000,-1,-1,-1,-1,290,-1,9,-1,-1,-1,-1,,9999,0,0,1,FEW 20,-1,3,-1,9,1016,RJOA 291000Z 29009KT 9999 FEW020 M03/M09 Q1016 RMK 1CU020     A3003=,
20180129_110000.002,0,RJOA,,,,0,20180129110000,-1,-1,-1,-1,280,-1,6,-1,-1,-1,-1,,9999,0,0,1,FEW 20,-1,4,-1,9,1016,RJOA 291100Z 28006KT 9999 FEW020 M04/M09 Q1016 RMK 1CU020     A3002=,
20180129_120000.002,0,RJOA,,,,0,20180129120000,-1,-1,-1,-1,300,-1,8,-1,-1,-1,-1,,9999,0,0,2,FEW 20   SCT 50,-1,3,-1,8,1017,RJOA 291200Z 30008KT 9999 FEW020 SCT050 M03/M08 Q1017 RMK     1CU020 3SC050 A3003=,
20180129_130000.002,0,RJOA,,,,0,20180129130000,-1,-1,-1,-1,270,-1,5,-1,-1,-1,-1,,9999,0,0,1,FEW 15,-1,5,-1,8,1016,RJOA 291300Z 27005KT 9999 FEW015 M05/M08 Q1016 RMK 1CU015     A3002=,
20180129_220000.002,0,RJOA,,,,0,20180129220000,-1,-1,-1,-1,999,-1,2,-1,-1,-1,-1,,9999,0,0,1,FEW 10,-1,5,-1,6,1019,RJOA 292200Z VRB02KT 9999 FEW010 M05/M06 Q1019 RMK 1CU010     A3009=,
20180129_230000.002,0,RJOA,,,,0,20180129230000,-1,-1,-1,-1,310,-1,6,-1,-1,-1,-1,,9999,0,0,1,FEW 10,-1,4,-1,6,1019,RJOA 292300Z 31006KT 9999 FEW010 M04/M06 Q1019 RMK 1CU010     A3011=,
20180130_000000.002,0,RJOA,,,,0,20180130000000,-1,-1,-1,-1,280,-1,5,-1,-1,-1,-1,,9999,0,0,1,FEW 15,-1,2,-1,5,1020,RJOA 300000Z 28005KT 9999 FEW015 M02/M05 Q1020 RMK 1CU015     A3012=,
20180130_010000.002,0,RJOA,,,,0,20180130010000,-1,-1,-1,-1,270,-1,8,-1,-1,-1,-1,,9999,0,0,1,FEW 15,-1,1,-1,6,1020,RJOA 300100Z 27008KT 9999 FEW015 M01/M06 Q1020 RMK 2CU015     A3012=,
20180130_020000.002,0,RJOA,,,,0,20180130020000,-1,-1,-1,-1,250,-1,9,-1,-1,220,290,,9999,0,0,2,FEW 15   BKN 25,1,2,-1,6,1020,RJOA 300200Z 25009KT 220V290 9999 FEW015 BKN025 02/M06 Q1020     RMK 1CU015 5CU025 A3012=,
20180130_030000.002,0,RJOA,,,,0,20180130030000,-1,-1,-1,-1,270,-1,10,-1,-1,240,300,,9999,0,0,2,FEW 15   BKN 30,1,2,-1,8,1019,RJOA 300300Z 27010KT 240V300 9999 FEW015 BKN030 02/M08 Q1019     RMK 1CU015 6CU030 A3011=,
20180130_040000.002,0,RJOA,,,,0,20180130040000,-1,-1,-1,-1,290,-1,11,-1,-1,260,330,,9999,0,0,2,FEW 15   BKN 30,1,2,-1,10,1019,RJOA 300400Z 29011KT 260V330 9999 FEW015 BKN030 02/M10 Q1019     RMK 1CU015 5CU030 A3009=,
20180130_050000.002,0,RJOA,,,,0,20180130050000,-1,-1,-1,-1,290,-1,10,-1,-1,-1,-1,,9999,0,0,2,FEW 15   BKN 30,1,3,-1,9,1019,RJOA 300500Z 29010KT 9999 FEW015 BKN030 03/M09 Q1019 RMK     1CU015 5CU030 A3009=,
20180130_060000.003,0,RJOA,,,,0,20180130060000,-1,-1,-1,-1,300,-1,11,-1,-1,-1,-1,,9999,0,0,2,FEW 15   BKN 30,1,2,-1,9,1019,RJOA 300600Z 30011KT 9999 FEW015 BKN030 02/M09 Q1019 RMK     1CU015 5CU030 A3011=,
20180130_070000.002,0,RJOA,,,,0,20180130070000,-1,-1,-1,-1,300,-1,11,-1,-1,260,330,,9999,0,0,2,FEW 15   SCT 25,1,2,-1,9,1020,RJOA 300700Z 30011KT 260V330 9999 FEW015 SCT025 02/M09 Q1020     RMK 1CU015 3CU025 A3012=,
20180130_080000.002,0,RJOA,,,,0,20180130080000,-1,-1,-1,-1,300,-1,12,-1,-1,-1,-1,,9999,0,0,1,FEW 20,1,1,-1,9,1020,RJOA 300800Z 30012KT 9999 FEW020 01/M09 Q1020 RMK 1CU020     A3014=,
20180130_090000.002,0,RJOA,,,,0,20180130090000,-1,-1,-1,-1,300,-1,8,-1,-1,-1,-1,,9999,0,0,1,FEW 20,1,0,-1,9,1021,RJOA 300900Z 30008KT 9999 FEW020 00/M09 Q1021 RMK 1CU020     A3018=,
20180130_100000.002,0,RJOA,,,,0,20180130100000,-1,-1,-1,-1,300,-1,6,-1,-1,-1,-1,,9999,0,0,2,FEW 20   BKN -9999,-1,0,-1,9,1022,RJOA 301000Z 30006KT 9999 FEW020 BKN/// M00/M09 Q1022 RMK     1CU020 A3020=,
20180130_110000.002,0,RJOA,,,,0,20180130110000,-1,-1,-1,-1,300,-1,5,-1,-1,-1,-1,,9999,0,0,2,FEW 20   SCT -9999,-1,1,-1,8,1022,RJOA 301100Z 30005KT 9999 FEW020 SCT/// M01/M08 Q1022 RMK     1CU020 A3021=,
20180130_120000.002,0,RJOA,,,,0,20180130120000,-1,-1,-1,-1,320,-1,3,-1,-1,270,350,,9999,0,0,2,FEW 20   SCT 35,-1,1,-1,8,1022,RJOA 301200Z 32003KT 270V350 9999 FEW020 SCT035 M01/M08 Q1022     RMK 1CU020 3CU035 A3021=,
20180130_130000.002,0,RJOA,,,,0,20180130130000,-1,-1,-1,-1,290,-1,3,-1,-1,-1,-1,,9999,0,0,2,FEW 20   BKN 35,-1,2,-1,8,1023,RJOA 301300Z 29003KT 9999 FEW020 BKN035 M02/M08 Q1023 RMK     1CU020 5CU035 A3023=,
20180130_220000.002,0,RJOA,,,,0,20180130220000,-1,-1,-1,-1,310,-1,3,-1,-1,-1,-1,,9999,0,0,1,FEW 15,-1,4,-1,7,1025,RJOA 302200Z 31003KT 9999 FEW015 M04/M07 Q1025 RMK 1CU015     A3027=,
20180130_230000.002,0,RJOA,,,,0,20180130230000,-1,-1,-1,-1,300,-1,3,-1,-1,-1,-1,,9999,0,0,1,FEW 15,-1,3,-1,6,1025,RJOA 302300Z 30003KT 9999 FEW015 M03/M06 Q1025 RMK 1CU015     A3028=,
20180131_000000.002,0,RJOA,,,,0,20180131000000,-1,-1,-1,-1,300,-1,5,-1,-1,-1,-1,,9999,0,0,2,FEW 15   SCT -9999,-1,1,-1,6,1025,RJOA 310000Z 30005KT 9999 FEW015 SCT/// M01/M06 Q1025 RMK     1CU015 A3029=,
20180131_010000.002,0,RJOA,,,,0,20180131010000,-1,-1,-1,-1,310,-1,4,-1,-1,-1,-1,,9999,0,0,2,FEW 15   BKN -9999,1,0,-1,5,1025,RJOA 310100Z 31004KT 9999 FEW015 BKN/// 00/M05 Q1025 RMK     1CU015 A3029=,
20180131_020000.002,0,RJOA,,,,0,20180131020000,-1,-1,-1,-1,270,-1,5,-1,-1,250,310,,9999,0,0,2,FEW 20   BKN -9999,1,2,-1,6,1026,RJOA 310200Z 27005KT 250V310 9999 FEW020 BKN/// 02/M06 Q1026     RMK 1CU020 A3030=,
20180131_030000.002,0,RJOA,,,,0,20180131030000,-1,-1,-1,-1,290,-1,5,-1,-1,-1,-1,,9999,0,0,2,FEW 25   OVC -9999,1,4,-1,5,1025,RJOA 310300Z 29005KT 9999 FEW025 OVC/// 04/M05 Q1025 RMK     1CU025 A3027=,
20180131_040000.002,0,RJOA,,,,0,20180131040000,-1,-1,-1,-1,270,-1,6,-1,-1,220,310,,9999,0,0,2,FEW 30   OVC -9999,1,4,-1,6,1023,RJOA 310400Z 27006KT 220V310 9999 FEW030 OVC/// 04/M06 Q1023     RMK 1CU030 A3023=,
20180131_050000.002,0,RJOA,,,,0,20180131050000,-1,-1,-1,-1,260,-1,5,-1,-1,210,310,,9999,0,0,2,FEW 30   BKN -9999,1,5,-1,6,1022,RJOA 310500Z 26005KT 210V310 9999 FEW030 BKN/// 05/M06 Q1022     RMK 2CU030 A3019=,
20180131_060000.002,0,RJOA,,,,0,20180131060000,-1,-1,-1,-1,240,-1,5,-1,-1,170,290,,9999,0,0,2,FEW 30   BKN -9999,1,6,-1,6,1023,RJOA 310600Z 24005KT 170V290 9999 FEW030 BKN/// 06/M06 Q1023     RMK 2CU030 A3021=,
20180131_070000.003,0,RJOA,,,,0,20180131070000,-1,-1,-1,-1,290,-1,4,-1,-1,180,350,,9999,0,0,3,FEW 30   SCT 130   BKN -9999,1,5,-1,6,1022,RJOA 310700Z 29004KT 180V350 9999 FEW030 SCT130 BKN/// 05/M06     Q1022 RMK 1CU030 3AC130 A3021=,
20180131_080000.003,0,RJOA,,,,0,20180131080000,-1,-1,-1,-1,999,-1,2,-1,-1,-1,-1,,9999,0,0,3,FEW 30   SCT 100   BKN -9999,1,4,-1,5,1023,RJOA 310800Z VRB02KT 9999 FEW030 SCT100 BKN/// 04/M05 Q1023     RMK 1CU030 3AC100 A3021=,
20180131_090000.002,0,RJOA,,,,0,20180131090000,-1,-1,-1,-1,999,-1,1,-1,-1,-1,-1,,9999,0,0,3,FEW 30   SCT 100   BKN -9999,1,3,-1,4,1023,RJOA 310900Z VRB01KT 9999 FEW030 SCT100 BKN/// 03/M04 Q1023     RMK 1CU030 3AC100 A3023=,
20180131_100000.002,0,RJOA,,,,0,20180131100000,-1,-1,-1,-1,40,-1,6,-1,-1,-1,-1,,9999,0,0,3,FEW 25   BKN 130   BKN -9999,1,2,-1,4,1023,RJOA 311000Z 04006KT 9999 FEW025 BKN130 BKN/// 02/M04 Q1023     RMK 1CU025 5AC130 A3023=,
20180131_110000.002,0,RJOA,,,,0,20180131110000,-1,-1,-1,-1,40,-1,4,-1,-1,10,80,,9999,0,0,3,FEW 25   BKN 130   BKN -9999,1,2,-1,5,1023,RJOA 311100Z 04004KT 010V080 9999 FEW025 BKN130 BKN/// 02/M05     Q1023 RMK 1CU025 5AC130 A3021=,
20180131_120000.002,0,RJOA,,,,0,20180131120000,-1,-1,-1,-1,10,-1,5,-1,-1,300,40,,9999,0,0,3,FEW 25   SCT 120   BKN -9999,1,2,-1,5,1023,RJOA 311200Z 01005KT 300V040 9999 FEW025 SCT120 BKN/// 02/M05     Q1023 RMK 1CU025 3AC120 A3022=,
20180131_130000.003,0,RJOA,,,,0,20180131130000,-1,-1,-1,-1,10,-1,6,-1,-1,-1,-1,,9999,0,0,3,FEW 25   SCT 60   BKN 100,1,2,-1,5,1023,RJOA 311300Z 01006KT 9999 FEW025 SCT060 BKN100 02/M05 Q1023     RMK 1CU025 3SC060 6AC100 A3021=,
20180131_220000.002,0,RJOA,,,,0,20180131220000,-1,-1,-1,-1,120,-1,5,-1,-1,-1,-1,,9999,0,1,2,SCT 20   BKN 30,-1,0,-1,3,1023,RJOA 312200Z 12005KT 9999 -SN SCT020 BKN030 M00/M03 Q1023 RMK     3CU020 7CU030 A3023=,- SN
20180131_230000.002,0,RJOA,,,,0,20180131230000,-1,-1,-1,-1,110,-1,4,-1,-1,-1,-1,,2000,0,2,3,FEW 5   BKN 10   BKN 15,-1,1,-1,2,1024,RJOA 312300Z 11004KT 2000 -SN BR FEW005 BKN010 BKN015 M01/M02     Q1024 RMK 1ST005 5CU010 7CU015 A3024=,- SN; BR
20180201_000000.003,0,RJOA,,,,0,20180201000000,-1,-1,-1,-1,110,-1,4,-1,-1,70,150,,1200,1,2,3,FEW 1   BKN 2   BKN 4,-1,1,-1,1,1024,RJOA 010000Z 11004KT 070V150 1200 R10/P1800N -SN BR FEW001     BKN002 BKN004 M01/M01 Q1024 RMK 1ST001 5ST002 7ST004           A3025=,- SN; BR
20180201_010000.002,0,RJOA,,,,0,20180201010000,-1,-1,-1,-1,100,-1,5,-1,-1,-1,-1,,2000,0,2,3,FEW 2   BKN 6   BKN 10,-1,0,-1,1,1023,RJOA 010100Z 10005KT 2000 -SN BR FEW002 BKN006 BKN010 M00/M01     Q1023 RMK 1ST002 5ST006 7CU010 A3023=,- SN; BR
20180201_020000.002,0,RJOA,,,,0,20180201020000,-1,-1,-1,-1,120,-1,3,-1,-1,80,140,,2500,0,2,3,FEW 2   BKN 6   BKN 10,1,0,-1,0,1023,RJOA 010200Z 12003KT 080V140 2500 -SN BR FEW002 BKN006 BKN010     00/M00 Q1023 RMK 2ST002 5ST006 7CU010 A3023=,- SN; BR
20180201_030000.003,0,RJOA,,,,0,20180201030000,-1,-1,-1,-1,999,-1,2,-1,-1,-1,-1,,2500,0,3,3,FEW 0   SCT 4   BKN 6,1,1,-1,0,1023,RJOA 010300Z VRB02KT 2500 -SN BCFG BR FEW000 SCT004 BKN006     01/M00 Q1023 RMK 1ST000 3ST004 6ST006 A3021 FG ALL QUAD=,- SN; BC FG; BR
20180201_040000.003,0,RJOA,,,,0,20180201040000,-1,-1,-1,-1,999,-1,2,-1,-1,-1,-1,,6000,0,2,3,FEW 0   SCT 6   BKN 10,1,1,-1,1,1022,RJOA 010400Z VRB02KT 6000 -SN BCFG FEW000 SCT006 BKN010 01/M01     Q1022 RMK 1ST000 3ST006 6CU010 A3018 FG BANK SE-S AND W=,- SN; BC FG
20180201_050000.002,0,RJOA,,,,0,20180201050000,-1,-1,-1,-1,70,-1,3,-1,-1,360,130,,9999,0,0,3,FEW 3   SCT 10   BKN 15,1,2,-1,1,1021,RJOA 010500Z 07003KT 360V130 9999 FEW003 SCT010 BKN015 02/M01     Q1021 RMK 1ST003 3CU010 6CU015 A3017=,
20180201_060000.002,0,RJOA,,,,0,20180201060000,-1,-1,-1,-1,999,-1,2,-1,-1,-1,-1,,9999,0,0,2,FEW 10   BKN 120,1,3,-1,1,1021,RJOA 010600Z VRB02KT 9999 FEW010 BKN120 03/M01 Q1021 RMK     1CU010 5AC120 A3017=,
20180201_070000.002,0,RJOA,,,,0,20180201070000,-1,-1,-1,-1,150,-1,4,-1,-1,100,190,,9999,0,0,1,FEW 15,1,4,-1,0,1021,RJOA 010700Z 15004KT 100V190 9999 FEW015 04/M00 Q1021 RMK     1CU015 A3017=,
20180201_080000.002,0,RJOA,,,,0,20180201080000,-1,-1,-1,-1,140,-1,4,-1,-1,-1,-1,,9999,0,0,2,FEW 15   SCT 35,1,3,-1,1,1022,RJOA 010800Z 14004KT 9999 FEW015 SCT035 03/M01 Q1022 RMK     1CU015 4CU035 A3018=,
20180201_090000.002,0,RJOA,,,,0,20180201090000,-1,-1,-1,-1,130,-1,2,-1,-1,-1,-1,,9999,0,0,2,FEW 15   SCT 35,1,1,-1,0,1022,RJOA 010900Z 13002KT 9999 FEW015 SCT035 01/M00 Q1022 RMK     1CU015 3CU035 A3020=,
20180201_100000.002,0,RJOA,,,,0,20180201100000,-1,-1,-1,-1,999,-1,2,-1,-1,-1,-1,,7000,0,0,1,FEW 15,1,1,-1,0,1023,RJOA 011000Z VRB02KT 7000 FEW015 01/M00 Q1023 RMK 1CU015     A3021=,
20180201_110000.002,0,RJOA,,,,0,20180201110000,-1,-1,-1,-1,999,-1,2,-1,-1,-1,-1,,6000,0,0,1,FEW 15,1,0,-1,1,1023,RJOA 011100Z VRB02KT 6000 FEW015 00/M01 Q1023 RMK 1CU015     A3022=,
20180201_120000.002,0,RJOA,,,,0,20180201120000,-1,-1,-1,-1,999,-1,2,-1,-1,-1,-1,,5000,0,1,1,FEW 15,1,0,-1,0,1023,RJOA 011200Z VRB02KT 5000 BR FEW015 00/M00 Q1023 RMK 1CU015     A3022=,BR
20180201_130000.002,0,RJOA,,,,0,20180201130000,-1,-1,-1,-1,999,-1,1,-1,-1,-1,-1,,4500,0,1,1,FEW 15,-1,0,-1,1,1023,RJOA 011300Z VRB01KT 4500 BR FEW015 M00/M01 Q1023 RMK 1CU015     A3022=,BR
20180201_220000.002,0,RJOA,,,,0,20180201220000,-1,-1,-1,-1,999,-1,2,-1,-1,-1,-1,,9999,0,1,3,FEW 0   SCT 35   BKN -9999,1,0,-1,1,1022,RJOA 012200Z VRB02KT 9999 PRFG FEW000 SCT035 BKN/// 00/M01     Q1022 RMK 1ST000 3CU035 A3019 FG BANK SE=,PR FG
20180201_230000.003,0,RJOA,,,,0,20180201230000,-1,-1,-1,-1,80,-1,3,-1,-1,50,130,,9999,0,0,2,FEW 15   BKN -9999,1,0,-1,2,1022,RJOA 012300Z 08003KT 050V130 9999 FEW015 BKN/// 00/M02 Q1022     RMK 1CU015 A3019=,
20180202_000000.002,0,RJOA,,,,0,20180202000000,-1,-1,-1,-1,999,-1,2,-1,-1,-1,-1,,9999,0,0,2,FEW 15   BKN -9999,1,2,-1,1,1023,RJOA 020000Z VRB02KT 9999 FEW015 BKN/// 02/M01 Q1023 RMK     1CU015 A3021=,
20180202_010000.002,0,RJOA,,,,0,20180202010000,-1,-1,-1,-1,270,-1,3,-1,-1,-1,-1,,9999,0,0,2,FEW 15   BKN -9999,1,3,-1,1,1023,RJOA 020100Z 27003KT 9999 FEW015 BKN/// 03/M01 Q1023 RMK     1CU015 A3021=,
20180202_020000.002,0,RJOA,,,,0,20180202020000,-1,-1,-1,-1,170,-1,4,-1,-1,110,250,,9999,0,0,3,FEW 15   SCT 140   BKN -9999,1,5,-1,1,1023,RJOA 020200Z 17004KT 110V250 9999 FEW015 SCT140 BKN/// 05/M01     Q1023 RMK 1CU015 3AC140 A3022=,
20180202_030000.002,0,RJOA,,,,0,20180202030000,-1,-1,-1,-1,130,-1,5,-1,-1,70,220,,9999,0,0,3,FEW 15   SCT 30   BKN -9999,1,6,-1,1,1022,RJOA 020300Z 13005KT 070V220 9999 FEW015 SCT030 BKN/// 06/M01     Q1022 RMK 1CU015 3CU030 A3020=,
20180202_040000.002,0,RJOA,,,,0,20180202040000,-1,-1,-1,-1,180,-1,3,-1,-1,90,250,,9999,0,0,3,FEW 15   BKN 30   BKN -9999,1,5,-1,2,1021,RJOA 020400Z 18003KT 090V250 9999 FEW015 BKN030 BKN/// 05/M02     Q1021 RMK 1CU015 5CU030 A3017=,
20180202_050000.001,0,RJOA,,,,0,20180202050000,-1,-1,-1,-1,170,-1,4,-1,-1,100,220,,9999,0,0,3,FEW 15   SCT 30   BKN 120,1,5,-1,2,1021,RJOA 020500Z 17004KT 100V220 9999 FEW015 SCT030 BKN120 05/M02     Q1021 RMK 1CU015 3CU030 5AC120 A3016=,
20180202_060000.002,0,RJOA,,,,0,20180202060000,-1,-1,-1,-1,999,-1,2,-1,-1,-1,-1,,9999,0,0,3,FEW 15   SCT 25   BKN 120,1,5,-1,2,1021,RJOA 020600Z VRB02KT 9999 FEW015 SCT025 BKN120 05/M02 Q1021     RMK 1CU015 3CU025 5AC120 A3015=,
20180202_070000.002,0,RJOA,,,,0,20180202070000,-1,-1,-1,-1,999,-1,2,-1,-1,-1,-1,,9999,0,0,3,FEW 15   SCT 25   BKN -9999,1,5,-1,2,1020,RJOA 020700Z VRB02KT 9999 FEW015 SCT025 BKN/// 05/M02 Q1020     RMK 1CU015 3CU025 A3015=,
20180202_080000.002,0,RJOA,,,,0,20180202080000,-1,-1,-1,-1,999,-1,2,-1,-1,-1,-1,,9999,0,0,3,FEW 15   SCT 120   BKN -9999,1,5,-1,2,1020,RJOA 020800Z VRB02KT 9999 FEW015 SCT120 BKN/// 05/M02 Q1020     RMK 1CU015 3AC120 A3013=,
20180202_090000.002,0,RJOA,,,,0,20180202090000,-1,-1,-1,-1,140,-1,2,-1,-1,-1,-1,,9999,0,0,2,FEW 10   BKN 45,1,4,-1,2,1020,RJOA 020900Z 14002KT 9999 FEW010 BKN045 04/M02 Q1020 RMK     1CU010 7SC045 A3013=,
20180202_100000.003,0,RJOA,,,,0,20180202100000,-1,-1,-1,-1,999,-1,1,-1,-1,-1,-1,,9999,0,0,2,FEW 10   SCT -9999,1,3,-1,2,1020,RJOA 021000Z VRB01KT 9999 FEW010 SCT/// 03/M02 Q1020 RMK     1CU010 A3013=,
20180202_110000.002,0,RJOA,,,,0,20180202110000,-1,-1,-1,-1,999,-1,1,-1,-1,-1,-1,,9999,0,0,2,FEW 15   SCT 120,1,3,-1,1,1020,RJOA 021100Z VRB01KT 9999 FEW015 SCT120 03/M01 Q1020 RMK     1CU015 3AC120 A3013=,
20180202_120000.002,0,RJOA,,,,0,20180202120000,-1,-1,-1,-1,330,-1,3,-1,-1,-1,-1,,9999,0,0,2,FEW 15   SCT -9999,1,3,-1,1,1020,RJOA 021200Z 33003KT 9999 FEW015 SCT/// 03/M01 Q1020 RMK     1CU015 A3013=,
20180202_130000.003,0,RJOA,,,,0,20180202130000,-1,-1,-1,-1,310,-1,2,-1,-1,-1,-1,,9999,0,0,2,FEW 15   BKN 50,1,2,-1,1,1020,RJOA 021300Z 31002KT 9999 FEW015 BKN050 02/M01 Q1020 RMK     1CU015 6SC050 A3012=,
20180202_220000.002,0,RJOA,,,,0,20180202220000,-1,-1,-1,-1,310,-1,8,-1,-1,-1,-1,,9999,0,0,2,FEW 10   SCT 70,1,1,-1,2,1019,RJOA 022200Z 31008KT 9999 FEW010 SCT070 01/M02 Q1019 RMK     1CU010 4AC070 A3009=,
20180202_230000.003,0,RJOA,,,,0,20180202230000,-1,-1,-1,-1,310,-1,8,-1,-1,260,10,,9999,0,0,2,FEW 10   SCT 70,1,1,-1,3,1019,RJOA 022300Z 31008KT 260V010 9999 FEW010 SCT070 01/M03 Q1019     RMK 1CU010 4AC070 A3010=,
20180203_000000.002,0,RJOA,,,,0,20180203000000,-1,-1,-1,-1,320,-1,5,-1,-1,290,350,,9999,0,0,3,FEW 10   SCT 80   BKN -9999,1,2,-1,3,1019,RJOA 030000Z 32005KT 290V350 9999 FEW010 SCT080 BKN/// 02/M03     Q1019 RMK 1CU010 3AC080 A3010=,
20180203_010000.003,0,RJOA,,,,0,20180203010000,-1,-1,-1,-1,350,-1,11,-1,-1,310,20,,9999,0,0,3,FEW 10   BKN 20   BKN -9999,1,4,-1,3,1019,RJOA 030100Z 35011KT 310V020 9999 FEW010 BKN020 BKN/// 04/M03     Q1019 RMK 1CU010 5CU020 A3010=,
20180203_020000.002,0,RJOA,,,,0,20180203020000,-1,-1,-1,-1,300,-1,11,-1,-1,-1,-1,,9999,0,0,2,FEW 15   BKN 25,1,4,-1,5,1018,RJOA 030200Z 30011KT 9999 FEW015 BKN025 04/M05 Q1018 RMK     1CU015 5CU025 A3008=,
20180203_030000.002,0,RJOA,,,,0,20180203030000,-1,-1,-1,-1,320,-1,8,-1,-1,-1,-1,,9999,0,1,2,SCT 10   BKN 20,1,2,-1,1,1018,RJOA 030300Z 32008KT 9999 -SHSN SCT010 BKN020 02/M01 Q1018 RMK     3CU010 6CU020 A3008=,- SN SH
20180203_040000.002,0,RJOA,,,,0,20180203040000,-1,-1,-1,-1,280,-1,9,-1,-1,-1,-1,,9999,0,1,2,SCT 10   BKN 25,1,4,-1,3,1017,RJOA 030400Z 28009KT 9999 -SHSN SCT010 BKN025 04/M03 Q1017 RMK     3CU010 6CU025 A3005=,- SN SH
20180203_050000.002,0,RJOA,,,,0,20180203050000,-1,-1,-1,-1,330,-1,13,-1,-1,-1,-1,,9999,0,1,2,SCT 15   BKN 30,1,4,-1,4,1017,RJOA 030500Z 33013KT 9999 -SHSN SCT015 BKN030 04/M04 Q1017 RMK     3CU015 6CU030 A3004=,- SN SH
20180203_060000.002,0,RJOA,,,,0,20180203060000,-1,-1,-1,-1,310,-1,12,-1,-1,-1,-1,,9999,0,0,2,FEW 15   BKN 40,1,5,-1,6,1017,RJOA 030600Z 31012KT 9999 FEW015 BKN040 05/M06 Q1017 RMK     1CU015 5CU040 A3003=,
20180203_070000.003,0,RJOA,,,,0,20180203070000,-1,-1,-1,-1,320,-1,10,-1,-1,-1,-1,,9999,0,0,2,SCT 15   BKN 30,1,4,-1,5,1017,RJOA 030700Z 32010KT 9999 SCT015 BKN030 04/M05 Q1017 RMK     3CU015 5CU030 A3003=,
20180203_080000.002,0,RJOA,,,,0,20180203080000,-1,-1,-1,-1,330,-1,10,-1,-1,-1,-1,,9999,0,0,2,FEW 15   SCT 30,1,3,-1,6,1017,RJOA 030800Z 33010KT 9999 FEW015 SCT030 03/M06 Q1017 RMK     1CU015 3CU030 A3003=,
20180203_090000.002,0,RJOA,,,,0,20180203090000,-1,-1,-1,-1,310,-1,7,-1,-1,-1,-1,,9999,0,0,2,FEW 15   SCT 70,1,2,-1,5,1017,RJOA 030900Z 31007KT 9999 FEW015 SCT070 02/M05 Q1017 RMK     1CU015 3AC070 A3004=,
20180203_100000.002,0,RJOA,,,,0,20180203100000,-1,-1,-1,-1,320,-1,8,-1,-1,-1,-1,,9999,0,1,3,FEW 15   SCT 30   BKN 50,1,2,-1,4,1017,RJOA 031000Z 32008KT 9999 -SHSN FEW015 SCT030 BKN050 02/M04     Q1017 RMK 1CU015 3CU030 5SC050 A3005=,- SN SH
20180203_110000.002,0,RJOA,,,,0,20180203110000,-1,-1,-1,-1,280,-1,7,-1,-1,-1,-1,,9999,0,0,3,FEW 15   SCT 30   BKN 50,1,0,-1,4,1017,RJOA 031100Z 28007KT 9999 FEW015 SCT030 BKN050 00/M04 Q1017     RMK 1CU015 3CU030 5SC050 A3005=,
20180203_120000.002,0,RJOA,,,,0,20180203120000,-1,-1,-1,-1,310,-1,10,-1,-1,-1,-1,,9999,0,1,3,FEW 15   SCT 30   BKN 40,1,1,-1,5,1017,RJOA 031200Z 31010KT 9999 -SHSN FEW015 SCT030 BKN040 01/M05     Q1017 RMK 1CU015 3CU030 5SC040 A3005=,- SN SH
20180203_130000.002,0,RJOA,,,,0,20180203130000,-1,-1,-1,-1,290,-1,8,-1,-1,-1,-1,,9999,0,0,3,FEW 15   SCT 30   BKN 40,-1,0,-1,4,1018,RJOA 031300Z 29008KT 9999 FEW015 SCT030 BKN040 M00/M04 Q1018     RMK 1CU015 3CU030 5SC040 A3006=,
20180203_220000.002,0,RJOA,,,,0,20180203220000,-1,-1,-1,-1,280,-1,10,-1,-1,-1,-1,,9999,0,0,2,FEW 15   SCT 30,-1,3,-1,7,1017,RJOA 032200Z 28010KT 9999 FEW015 SCT030 M03/M07 Q1017 RMK     1CU015 4CU030 A3003=,
20180203_230000.002,0,RJOA,,,,0,20180203230000,-1,-1,-1,-1,290,-1,14,-1,-1,-1,-1,,9999,0,0,2,FEW 15   SCT 30,-1,3,-1,10,1017,RJOA 032300Z 29014KT 9999 FEW015 SCT030 M03/M10 Q1017 RMK     1CU015 3CU030 A3004=,
20180204_000000.002,0,RJOA,,,,0,20180204000000,-1,-1,-1,-1,270,-1,14,-1,-1,-1,-1,,9999,0,0,2,FEW 15   SCT 30,-1,2,-1,10,1017,RJOA 040000Z 27014KT 9999 FEW015 SCT030 M02/M10 Q1017 RMK     1CU015 3CU030 A3005=,
20180204_010000.002,0,RJOA,,,,0,20180204010000,-1,-1,-1,-1,280,-1,13,-1,-1,-1,-1,,9999,0,0,2,FEW 15   BKN 30,-1,2,-1,11,1017,RJOA 040100Z 28013KT 9999 FEW015 BKN030 M02/M11 Q1017 RMK     1CU015 6CU030 A3005=,
20180204_020000.002,0,RJOA,,,,0,20180204020000,-1,-1,-1,-1,260,-1,13,-1,-1,220,300,,9999,0,1,2,FEW 15   BKN 30,-1,0,-1,10,1017,RJOA 040200Z 26013KT 220V300 9999 VCSH FEW015 BKN030 M00/M10     Q1017 RMK 1CU015 5CU030 A3005=,VC SH
20180204_030000.002,0,RJOA,,,,0,20180204030000,-1,-1,-1,-1,300,-1,13,-1,-1,-1,-1,,9999,0,1,2,FEW 20   BKN 30,-1,1,-1,11,1016,RJOA 040300Z 30013KT 9999 VCSH FEW020 BKN030 M01/M11 Q1016 RMK     1CU020 6CU030 A3003=,VC SH
20180204_040000.002,0,RJOA,,,,0,20180204040000,-1,-1,-1,-1,310,-1,12,-1,-1,-1,-1,,9999,0,1,2,FEW 20   BKN 30,-1,0,-1,9,1016,RJOA 040400Z 31012KT 9999 -SHSN FEW020 BKN030 M00/M09 Q1016     RMK 1CU020 6CU030 A3002=,- SN SH
20180204_050000.002,0,RJOA,,,,0,20180204050000,-1,-1,-1,-1,250,-1,14,-1,-1,220,290,,9999,0,1,2,FEW 20   BKN 30,1,1,-1,10,1016,RJOA 040500Z 25014KT 220V290 9999 VCSH FEW020 BKN030 01/M10     Q1016 RMK 1CU020 5CU030 A3001=,VC SH
20180204_060000.002,0,RJOA,,,,0,20180204060000,-1,-1,-1,-1,290,-1,14,-1,-1,-1,-1,,9999,0,1,2,FEW 20   SCT 30,1,0,-1,9,1017,RJOA 040600Z 29014KT 9999 VCSH FEW020 SCT030 00/M09 Q1017 RMK     1CU020 4CU030 A3003=,VC SH
20180204_070000.002,0,RJOA,,,,0,20180204070000,-1,-1,-1,-1,250,-1,15,-1,-1,-1,-1,,9999,0,0,2,FEW 20   SCT 30,1,0,-1,10,1016,RJOA 040700Z 25015KT 9999 FEW020 SCT030 00/M10 Q1016 RMK     1CU020 4CU030 A3003=,
20180204_080000.002,0,RJOA,,,,0,20180204080000,-1,-1,-1,-1,280,-1,13,-1,-1,-1,-1,,9999,0,0,2,FEW 20   SCT 30,-1,1,-1,12,1017,RJOA 040800Z 28013KT 9999 FEW020 SCT030 M01/M12 Q1017 RMK     1CU020 3CU030 A3003=,
20180204_090000.002,0,RJOA,,,,0,20180204090000,-1,-1,-1,-1,280,-1,9,-1,-1,-1,-1,,9999,0,0,2,FEW 20   SCT 30,-1,3,-1,11,1017,RJOA 040900Z 28009KT 9999 FEW020 SCT030 M03/M11 Q1017 RMK     1CU020 3CU030 A3005=,
20180204_100000.002,0,RJOA,,,,0,20180204100000,-1,-1,-1,-1,280,-1,10,-1,-1,-1,-1,,9999,0,0,1,FEW 25,-1,3,-1,11,1018,RJOA 041000Z 28010KT 9999 FEW025 M03/M11 Q1018 RMK 2CU025     A3006=,
20180204_110000.003,0,RJOA,,,,0,20180204110000,-1,-1,-1,-1,280,-1,8,-1,-1,-1,-1,,9999,0,0,1,FEW 25,-1,4,-1,11,1018,RJOA 041100Z 28008KT 9999 FEW025 M04/M11 Q1018 RMK 2CU025     A3007=,
20180204_120000.002,0,RJOA,,,,0,20180204120000,-1,-1,-1,-1,270,-1,6,-1,-1,-1,-1,,9999,0,0,1,FEW 20,-1,5,-1,11,1018,RJOA 041200Z 27006KT 9999 FEW020 M05/M11 Q1018 RMK 1CU020     A3008=,
20180204_130000.002,0,RJOA,,,,0,20180204130000,-1,-1,-1,-1,280,-1,6,-1,-1,-1,-1,,9999,0,0,1,FEW 20,-1,5,-1,11,1018,RJOA 041300Z 28006KT 9999 FEW020 M05/M11 Q1018 RMK 1CU020     A3007=,
20180204_220000.002,0,RJOA,,,,0,20180204220000,-1,-1,-1,-1,290,-1,5,-1,-1,-1,-1,,9999,0,0,1,FEW 20,-1,6,-1,9,1018,RJOA 042200Z 29005KT 9999 FEW020 M06/M09 Q1018 RMK 1CU020     A3006=,
20180204_230000.002,0,RJOA,,,,0,20180204230000,-1,-1,-1,-1,280,-1,5,-1,-1,240,310,,9999,0,0,1,FEW 20,-1,4,-1,8,1018,RJOA 042300Z 28005KT 240V310 9999 FEW020 M04/M08 Q1018 RMK     1CU020 A3007=,
20180205_000000.003,0,RJOA,,,,0,20180205000000,-1,-1,-1,-1,280,-1,6,-1,-1,240,310,,9999,0,0,1,SCT 20,-1,3,-1,8,1018,RJOA 050000Z 28006KT 240V310 9999 SCT020 M03/M08 Q1018 RMK     3CU020 A3007=,
20180205_010000.002,0,RJOA,,,,0,20180205010000,-1,-1,-1,-1,270,-1,14,-1,24,-1,-1,,9999,0,0,1,FEW 20,-1,1,-1,9,1018,RJOA 050100Z 27014G24KT 9999 FEW020 M01/M09 Q1018 RMK 2CU020     A3006=,
20180205_020000.002,0,RJOA,,,,0,20180205020000,-1,-1,-1,-1,290,-1,11,-1,21,-1,-1,,9999,0,1,2,FEW 15   BKN 20,-1,2,-1,10,1018,RJOA 050200Z 29011G21KT 9999 -SHSN FEW015 BKN020 M02/M10 Q1018     RMK 1CU015 5CU020 A3006=,- SN SH
