20180101_000000.003,0,RJOF,,,,0,20180101000000,-1,-1,-1,-1,260,-1,9,-1,-1,-1,-1,,9999,0,0,1,FEW 30,1,5,-1,3,1023,RJOF 010000Z 26009KT 9999 FEW030 05/M03 Q1023 RMK 1CU030     A3022=,
20180101_010000.003,0,RJOF,,,,0,20180101010000,-1,-1,-1,-1,270,-1,14,-1,-1,-1,-1,,9999,0,0,1,FEW 30,1,7,-1,3,1024,RJOF 010100Z 27014KT 9999 FEW030 07/M03 Q1024 RMK 1CU030     A3025=,
20180101_020000.003,0,RJOF,,,,0,20180101020000,-1,-1,-1,-1,290,-1,9,-1,-1,-1,-1,,9999,0,0,2,FEW 30   BKN 45,1,7,-1,3,1024,RJOF 010200Z 29009KT 9999 FEW030 BKN045 07/M03 Q1024 RMK     1CU030 6SC045 A3026=,
20180101_030000.003,0,RJOF,,,,0,20180101030000,-1,-1,-1,-1,280,-1,13,-1,26,260,330,,9999,0,0,2,FEW 30   BKN 45,1,8,-1,4,1023,RJOF 010300Z 28013G26KT 260V330 9999 FEW030 BKN045 08/M04     Q1023 RMK 1CU030 6SC045 A3024=,
20180101_040000.003,0,RJOF,,,,0,20180101040000,-1,-1,-1,-1,290,-1,14,-1,26,240,320,,9999,0,0,2,FEW 30   BKN 45,1,9,-1,5,1023,RJOF 010400Z 29014G26KT 240V320 9999 FEW030 BKN045 09/M05     Q1023 RMK 1CU030 5SC045 A3022=,
20180101_050000.003,0,RJOF,,,,0,20180101050000,-1,-1,-1,-1,280,-1,17,-1,-1,-1,-1,,9999,0,0,3,FEW 25   SCT 35   BKN 45,1,8,-1,5,1022,RJOF 010500Z 28017KT 9999 FEW025 SCT035 BKN045 08/M05 Q1022     RMK 1CU025 3CU035 5SC045 A3021=,
20180101_060000.003,0,RJOF,,,,0,20180101060000,-1,-1,-1,-1,320,-1,14,-1,-1,-1,-1,,9999,0,0,2,FEW 35   BKN 45,1,8,-1,5,1023,RJOF 010600Z 32014KT 9999 FEW035 BKN045 08/M05 Q1023 RMK     1CU035 5SC045 A3022=,
20180101_070000.003,0,RJOF,,,,0,20180101070000,-1,-1,-1,-1,290,-1,12,-1,-1,-1,-1,,9999,0,0,2,FEW 35   BKN 45,1,7,-1,5,1023,RJOF 010700Z 29012KT 9999 FEW035 BKN045 07/M05 Q1023 RMK     1CU035 5SC045 A3024=,
20180101_080000.003,0,RJOF,,,,0,20180101080000,-1,-1,-1,-1,290,-1,9,-1,-1,-1,-1,,9999,0,0,2,FEW 35   SCT 45,1,5,-1,5,1024,RJOF 010800Z 29009KT 9999 FEW035 SCT045 05/M05 Q1024 RMK     1CU035 4SC045 A3025=,
20180101_090000.003,0,RJOF,,,,0,20180101090000,-1,-1,-1,-1,280,-1,8,-1,-1,-1,-1,,9999,0,0,2,FEW 35   SCT 45,1,2,-1,4,1024,RJOF 010900Z 28008KT 9999 FEW035 SCT045 02/M04 Q1024 RMK     1CU035 3SC045 A3026=,
20180101_100000.003,0,RJOF,,,,0,20180101100000,-1,-1,-1,-1,270,-1,5,-1,-1,-1,-1,,9999,0,0,2,FEW 35   BKN 45,1,2,-1,4,1025,RJOF 011000Z 27005KT 9999 FEW035 BKN045 02/M04 Q1025 RMK     1CU035 5SC045 A3027=,
20180101_110000.003,0,RJOF,,,,0,20180101110000,-1,-1,-1,-1,270,-1,4,-1,-1,260,330,,9999,0,0,2,FEW 35   SCT 45,1,2,-1,4,1025,RJOF 011100Z 27004KT 260V330 9999 FEW035 SCT045 02/M04 Q1025     RMK 1CU035 4SC045 A3028=,
20180101_120000.003,0,RJOF,,,,0,20180101120000,-1,-1,-1,-1,999,-1,2,-1,-1,-1,-1,,9999,0,0,2,FEW 35   SCT 45,1,1,-1,4,1025,RJOF 011200Z VRB02KT 9999 FEW035 SCT045 01/M04 Q1025 RMK     1CU035 4SC045 A3028=,
20180101_130000.003,0,RJOF,,,,0,20180101130000,-1,-1,-1,-1,999,-1,2,-1,-1,-1,-1,,9999,0,0,2,FEW 35   SCT 45,1,1,-1,3,1025,RJOF 011300Z VRB02KT 9999 FEW035 SCT045 01/M03 Q1025 RMK     1CU035 3SC045 A3028=,
20180101_140000.003,0,RJOF,,,,0,20180101140000,-1,-1,-1,-1,310,-1,3,-1,-1,-1,-1,,9999,0,0,1,FEW 35,1,0,-1,3,1025,RJOF 011400Z 31003KT 9999 FEW035 00/M03 Q1025 RMK 1CU035     A3029=,
20180101_150000.003,0,RJOF,,,,0,20180101150000,-1,-1,-1,-1,350,-1,5,-1,-1,-1,-1,,9999,0,0,1,FEW 35,-1,1,-1,3,1025,RJOF 011500Z 35005KT 9999 FEW035 M01/M03 Q1025 RMK 1CU035     A3029=,
20180101_160000.003,0,RJOF,,,,0,20180101160000,-1,-1,-1,-1,330,-1,4,-1,-1,-1,-1,,9999,0,0,1,FEW 35,-1,1,-1,3,1025,RJOF 011600Z 33004KT 9999 FEW035 M01/M03 Q1025 RMK 1CU035     A3030=,
20180101_170000.003,0,RJOF,,,,0,20180101170000,-1,-1,-1,-1,999,-1,2,-1,-1,-1,-1,,9999,0,0,2,FEW 35   SCT 50,-1,1,-1,3,1026,RJOF 011700Z VRB02KT 9999 FEW035 SCT050 M01/M03 Q1026 RMK     1CU035 3SC050 A3030=,
20180101_180000.004,0,RJOF,,,,0,20180101180000,-1,-1,-1,-1,360,-1,5,-1,-1,-1,-1,,9999,0,0,1,FEW 35,-1,0,-1,3,1026,RJOF 011800Z 36005KT 9999 FEW035 M00/M03 Q1026 RMK 1CU035     A3030=,
20180101_190000.004,0,RJOF,,,,0,20180101190000,-1,-1,-1,-1,360,-1,5,-1,-1,-1,-1,,9999,0,0,1,FEW 35,-1,1,-1,4,1026,RJOF 011900Z 36005KT 9999 FEW035 M01/M04 Q1026 RMK 1CU035     A3030=,
20180101_200000.004,0,RJOF,,,,0,20180101200000,-1,-1,-1,-1,300,-1,3,-1,-1,-1,-1,,9999,0,0,2,FEW 35   SCT 50,-1,1,-1,3,1026,RJOF 012000Z 30003KT 9999 FEW035 SCT050 M01/M03 Q1026 RMK     1CU035 4SC050 A3030=,
20180101_210000.003,0,RJOF,,,,0,20180101210000,-1,-1,-1,-1,320,-1,3,-1,-1,280,360,,9999,0,0,2,FEW 35   SCT 50,-1,1,-1,3,1026,RJOF 012100Z 32003KT 280V360 9999 FEW035 SCT050 M01/M03 Q1026     RMK 1CU035 3SC050 A3030 09/M03=,
20180101_220000.003,0,RJOF,,,,0,20180101220000,-1,-1,-1,-1,320,-1,3,-1,-1,290,360,,9999,0,0,1,FEW 35,-1,1,-1,3,1026,RJOF 012200Z 32003KT 290V360 9999 FEW035 M01/M03 Q1026 RMK     1CU035 A3031=,
20180101_230000.003,0,RJOF,,,,0,20180101230000,-1,-1,-1,-1,310,-1,3,-1,-1,270,340,,9999,0,0,1,FEW 45,-1,1,-1,3,1026,RJOF 012300Z 31003KT 270V340 9999 FEW045 M01/M03 Q1026 RMK     1SC045 A3031=,
20180102_000000.004,0,RJOF,,,,0,20180102000000,-1,-1,-1,-1,310,-1,3,-1,-1,270,330,,9999,0,0,1,FEW 45,1,1,-1,1,1027,RJOF 020000Z 31003KT 270V330 9999 FEW045 01/M01 Q1027 RMK     1SC045 A3033=,
20180102_010000.004,0,RJOF,,,,0,20180102010000,-1,-1,-1,-1,270,-1,3,-1,-1,250,310,,9999,0,0,1,FEW 40,1,5,-1,1,1027,RJOF 020100Z 27003KT 250V310 9999 FEW040 05/M01 Q1027 RMK     1CU040 A3033=,
20180102_020000.003,0,RJOF,,,,0,20180102020000,-1,-1,-1,-1,270,-1,9,-1,-1,-1,-1,,9999,0,0,1,FEW 40,1,9,-1,1,1026,RJOF 020200Z 27009KT 9999 FEW040 09/M01 Q1026 RMK 2CU040     A3032=,
20180102_030000.003,0,RJOF,,,,0,20180102030000,-1,-1,-1,-1,290,-1,10,-1,-1,260,350,,9999,0,0,1,FEW 40,1,11,-1,3,1025,RJOF 020300Z 29010KT 260V350 9999 FEW040 11/M03 Q1025 RMK     2CU040 A3029=,
20180102_040000.003,0,RJOF,,,,0,20180102040000,-1,-1,-1,-1,270,-1,12,-1,-1,-1,-1,,9999,0,0,1,FEW 40,1,12,-1,3,1024,RJOF 020400Z 27012KT 9999 FEW040 12/M03 Q1024 RMK 2CU040     A3026=,
20180102_050000.003,0,RJOF,,,,0,20180102050000,-1,-1,-1,-1,300,-1,12,-1,-1,270,340,,9999,0,0,1,FEW 40,1,11,-1,4,1024,RJOF 020500Z 30012KT 270V340 9999 FEW040 11/M04 Q1024 RMK     2CU040 A3026=,
20180102_060000.003,0,RJOF,,,,0,20180102060000,-1,-1,-1,-1,330,-1,12,-1,-1,-1,-1,,9999,0,0,1,FEW 40,1,10,-1,4,1024,RJOF 020600Z 33012KT 9999 FEW040 10/M04 Q1024 RMK 1CU040     A3026=,
20180102_070000.003,0,RJOF,,,,0,20180102070000,-1,-1,-1,-1,310,-1,11,-1,-1,-1,-1,,9999,0,0,1,FEW 40,1,9,-1,4,1024,RJOF 020700Z 31011KT 9999 FEW040 09/M04 Q1024 RMK 1CU040     A3026=,
20180102_080000.003,0,RJOF,,,,0,20180102080000,-1,-1,-1,-1,300,-1,5,-1,-1,-1,-1,,9999,0,0,1,FEW 45,1,8,-1,4,1025,RJOF 020800Z 30005KT 9999 FEW045 08/M04 Q1025 RMK 1SC045     A3027=,
20180102_090000.003,0,RJOF,,,,0,20180102090000,-1,-1,-1,-1,260,-1,4,-1,-1,-1,-1,,9999,0,0,1,FEW 45,1,5,-1,3,1025,RJOF 020900Z 26004KT 9999 FEW045 05/M03 Q1025 RMK 1SC045     A3027=,
20180102_100000.003,0,RJOF,,,,0,20180102100000,-1,-1,-1,-1,999,-1,2,-1,-1,-1,-1,,9999,0,0,1,FEW 45,1,4,-1,3,1025,RJOF 021000Z VRB02KT 9999 FEW045 04/M03 Q1025 RMK 1SC045     A3029=,
20180102_110000.003,0,RJOF,,,,0,20180102110000,-1,-1,-1,-1,300,-1,3,-1,-1,-1,-1,,9999,0,0,1,FEW 45,1,1,-1,3,1025,RJOF 021100Z 30003KT 9999 FEW045 01/M03 Q1025 RMK 1SC045     A3029=,
20180102_120000.003,0,RJOF,,,,0,20180102120000,-1,-1,-1,-1,999,-1,1,-1,-1,-1,-1,,9999,0,0,2,FEW 30   SCT 50,1,2,-1,2,1025,RJOF 021200Z VRB01KT 9999 FEW030 SCT050 02/M02 Q1025 RMK     1CU030 3SC050 A3027=,
20180102_130000.004,0,RJOF,,,,0,20180102130000,-1,-1,-1,-1,320,-1,3,-1,-1,260,10,,9999,0,0,1,FEW 50,1,3,-1,2,1023,RJOF 021300Z 32003KT 260V010 9999 FEW050 03/M02 Q1023 RMK     2SC050 A3024=,
20180102_140000.004,0,RJOF,,,,0,20180102140000,-1,-1,-1,-1,310,-1,3,-1,-1,270,350,,9999,0,0,1,FEW 50,1,1,-1,2,1023,RJOF 021400Z 31003KT 270V350 9999 FEW050 01/M02 Q1023 RMK     1SC050 A3023=,
20180102_150000.003,0,RJOF,,,,0,20180102150000,-1,-1,-1,-1,360,-1,5,-1,-1,-1,-1,,9999,0,0,1,FEW 50,1,1,-1,2,1023,RJOF 021500Z 36005KT 9999 FEW050 01/M02 Q1023 RMK 1SC050     A3023=,
20180102_160000.003,0,RJOF,,,,0,20180102160000,-1,-1,-1,-1,340,-1,4,-1,-1,-1,-1,,9999,0,0,1,SCT 50,1,1,-1,2,1023,RJOF 021600Z 34004KT 9999 SCT050 01/M02 Q1023 RMK 3SC050     A3022=,
20180102_170000.003,0,RJOF,,,,0,20180102170000,-1,-1,-1,-1,999,-1,2,-1,-1,-1,-1,,9999,0,0,2,FEW 40   BKN 50,1,1,-1,1,1023,RJOF 021700Z VRB02KT 9999 FEW040 BKN050 01/M01 Q1023 RMK     1CU040 5SC050 A3022=,
20180102_180000.004,0,RJOF,,,,0,20180102180000,-1,-1,-1,-1,999,-1,2,-1,-1,-1,-1,,9999,0,0,2,FEW 40   BKN 50,1,5,-1,0,1023,RJOF 021800Z VRB02KT 9999 FEW040 BKN050 05/M00 Q1023 RMK     2CU040 7SC050 A3022=,
20180102_190000.003,0,RJOF,,,,0,20180102190000,-1,-1,-1,-1,280,-1,10,-1,-1,-1,-1,,9999,0,0,2,FEW 40   BKN 50,1,4,-1,1,1023,RJOF 021900Z 28010KT 9999 FEW040 BKN050 04/M01 Q1023 RMK     1CU040 5SC050 A3023=,
20180102_200000.004,0,RJOF,,,,0,20180102200000,-1,-1,-1,-1,310,-1,11,-1,-1,-1,-1,,9999,0,0,2,FEW 40   SCT 50,1,6,-1,4,1023,RJOF 022000Z 31011KT 9999 FEW040 SCT050 06/M04 Q1023 RMK     1CU040 3SC050 A3023=,
20180102_210000.003,0,RJOF,,,,0,20180102210000,-1,-1,-1,-1,300,-1,13,-1,-1,-1,-1,,9999,0,0,1,FEW 40,1,6,-1,5,1024,RJOF 022100Z 30013KT 9999 FEW040 06/M05 Q1024 RMK 1CU040 A3025     12/M01=,
20180102_220000.003,0,RJOF,,,,0,20180102220000,-1,-1,-1,-1,300,-1,9,-1,-1,-1,-1,,9999,0,0,1,FEW 40,1,5,-1,5,1025,RJOF 022200Z 30009KT 9999 FEW040 05/M05 Q1025 RMK 1CU040     A3027=,
20180102_230000.003,0,RJOF,,,,0,20180102230000,-1,-1,-1,-1,260,-1,6,-1,-1,-1,-1,,9999,0,0,1,FEW 30,1,4,-1,4,1025,RJOF 022300Z 26006KT 9999 FEW030 04/M04 Q1025 RMK 1CU030     A3027=,
20180103_000000.003,0,RJOF,,,,0,20180103000000,-1,-1,-1,-1,240,-1,6,-1,-1,-1,-1,,9999,0,0,2,FEW 30   SCT 40,1,6,-1,3,1025,RJOF 030000Z 24006KT 9999 FEW030 SCT040 06/M03 Q1025 RMK     1CU030 3CU040 A3027=,
20180103_010000.003,0,RJOF,,,,0,20180103010000,-1,-1,-1,-1,240,-1,8,-1,-1,-1,-1,,9999,0,0,2,FEW 30   SCT 40,1,8,-1,3,1025,RJOF 030100Z 24008KT 9999 FEW030 SCT040 08/M03 Q1025 RMK     1CU030 3CU040 A3028=,
20180103_020000.003,0,RJOF,,,,0,20180103020000,-1,-1,-1,-1,320,-1,16,-1,-1,-1,-1,,9999,0,0,2,FEW 30   BKN 40,1,8,-1,3,1025,RJOF 030200Z 32016KT 9999 FEW030 BKN040 08/M03 Q1025 RMK     1CU030 5CU040 A3028=,
20180103_030000.004,0,RJOF,,,,0,20180103030000,-1,-1,-1,-1,300,-1,10,-1,-1,260,360,,9999,0,0,2,FEW 30   BKN 40,1,10,-1,2,1024,RJOF 030300Z 30010KT 260V360 9999 FEW030 BKN040 10/M02 Q1024     RMK 1CU030 5CU040 A3027=,
20180103_040000.003,0,RJOF,,,,0,20180103040000,-1,-1,-1,-1,320,-1,14,-1,-1,-1,-1,,9999,0,0,2,FEW 30   SCT 40,1,9,-1,3,1024,RJOF 030400Z 32014KT 9999 FEW030 SCT040 09/M03 Q1024 RMK     1CU030 3CU040 A3025=,
20180103_050000.003,0,RJOF,,,,0,20180103050000,-1,-1,-1,-1,340,-1,12,-1,22,290,10,,9999,0,1,2,FEW 30   BKN 40,1,8,-1,2,1024,RJOF 030500Z 34012G22KT 290V010 9999 -SHRA FEW030 BKN040     08/M02 Q1024 RMK 1CU030 6CU040 A3024=,- RA SH
20180103_060000.003,0,RJOF,,,,0,20180103060000,-1,-1,-1,-1,310,-1,9,-1,-1,280,340,,9999,0,0,2,FEW 30   SCT 40,1,8,-1,3,1023,RJOF 030600Z 31009KT 280V340 9999 FEW030 SCT040 08/M03 Q1023     RMK 1CU030 4CU040 A3024=,
20180103_070000.003,0,RJOF,,,,0,20180103070000,-1,-1,-1,-1,330,-1,11,-1,-1,-1,-1,,9999,0,0,2,FEW 25   SCT 40,1,8,-1,2,1023,RJOF 030700Z 33011KT 9999 FEW025 SCT040 08/M02 Q1023 RMK     1CU025 3CU040 A3024=,
20180103_080000.003,0,RJOF,,,,0,20180103080000,-1,-1,-1,-1,320,-1,8,-1,-1,-1,-1,,9999,0,0,2,FEW 25   SCT 40,1,7,-1,2,1024,RJOF 030800Z 32008KT 9999 FEW025 SCT040 07/M02 Q1024 RMK     1CU025 4CU040 A3025 VIRGA N-NE=,
20180103_090000.003,0,RJOF,,,,0,20180103090000,-1,-1,-1,-1,300,-1,5,-1,-1,-1,-1,,9999,0,0,2,FEW 25   SCT 40,1,5,1,0,1024,RJOF 030900Z 30005KT 9999 FEW025 SCT040 05/00 Q1024 RMK 1CU025     4CU040 A3026=,
20180103_100000.003,0,RJOF,,,,0,20180103100000,-1,-1,-1,-1,320,-1,8,-1,-1,-1,-1,,9999,0,1,2,FEW 25   BKN 40,1,5,1,1,1025,RJOF 031000Z 32008KT 9999 -SHRA FEW025 BKN040 05/01 Q1025 RMK     1CU025 6CU040 A3028=,- RA SH
20180103_110000.003,0,RJOF,,,,0,20180103110000,-1,-1,-1,-1,290,-1,5,-1,-1,270,330,,9999,0,0,2,FEW 25   BKN 40,1,4,1,2,1025,RJOF 031100Z 29005KT 270V330 9999 FEW025 BKN040 04/02 Q1025     RMK 1CU025 6CU040 A3029=,
20180103_120000.003,0,RJOF,,,,0,20180103120000,-1,-1,-1,-1,999,-1,2,-1,-1,-1,-1,,9999,0,0,2,FEW 25   BKN 40,1,3,1,1,1025,RJOF 031200Z VRB02KT 9999 FEW025 BKN040 03/01 Q1025 RMK 1CU025     6CU040 A3028=,
20180103_130000.004,0,RJOF,,,,0,20180103130000,-1,-1,-1,-1,310,-1,4,-1,-1,-1,-1,,9999,0,0,2,FEW 25   BKN 40,1,4,1,1,1025,RJOF 031300Z 31004KT 9999 FEW025 BKN040 04/01 Q1025 RMK 1CU025     6CU040 A3028=,
20180103_140000.003,0,RJOF,,,,0,20180103140000,-1,-1,-1,-1,360,-1,4,-1,-1,-1,-1,,9999,0,0,2,FEW 25   SCT 40,1,3,1,1,1025,RJOF 031400Z 36004KT 9999 FEW025 SCT040 03/01 Q1025 RMK 1CU025     3CU040 A3028=,
20180103_150000.003,0,RJOF,,,,0,20180103150000,-1,-1,-1,-1,350,-1,5,-1,-1,-1,-1,,9999,0,0,2,FEW 25   BKN 40,1,3,1,0,1025,RJOF 031500Z 35005KT 9999 FEW025 BKN040 03/00 Q1025 RMK 1CU025     6CU040 A3028=,
20180103_160000.003,0,RJOF,,,,0,20180103160000,-1,-1,-1,-1,999,-1,2,-1,-1,-1,-1,,9999,0,0,2,FEW 25   BKN 40,1,1,-1,0,1025,RJOF 031600Z VRB02KT 9999 FEW025 BKN040 01/M00 Q1025 RMK     1CU025 5CU040 A3028=,
20180103_170000.003,0,RJOF,,,,0,20180103170000,-1,-1,-1,-1,340,-1,4,-1,-1,320,30,,9999,0,0,2,FEW 25   BKN 40,1,2,-1,0,1025,RJOF 031700Z 34004KT 320V030 9999 FEW025 BKN040 02/M00 Q1025     RMK 1CU025 6CU040 A3028=,
20180103_180000.003,0,RJOF,,,,0,20180103180000,-1,-1,-1,-1,340,-1,4,-1,-1,300,20,,9999,0,0,2,FEW 25   BKN 40,1,1,-1,1,1024,RJOF 031800Z 34004KT 300V020 9999 FEW025 BKN040 01/M01 Q1024     RMK 1CU025 5CU040 A3026=,
20180103_190000.003,0,RJOF,,,,0,20180103190000,-1,-1,-1,-1,360,-1,6,-1,-1,-1,-1,,9999,0,0,2,FEW 25   SCT 40,1,1,-1,1,1024,RJOF 031900Z 36006KT 9999 FEW025 SCT040 01/M01 Q1024 RMK     1CU025 4CU040 A3027=,
20180103_200000.003,0,RJOF,,,,0,20180103200000,-1,-1,-1,-1,360,-1,5,-1,-1,-1,-1,,9999,0,0,2,FEW 25   SCT 40,-1,0,-1,2,1024,RJOF 032000Z 36005KT 9999 FEW025 SCT040 M00/M02 Q1024 RMK     1CU025 3CU040 A3025=,
20180103_210000.004,0,RJOF,,,,0,20180103210000,-1,-1,-1,-1,10,-1,8,-1,-1,-1,-1,,9999,0,0,2,FEW 25   SCT 150,-1,0,-1,1,1024,RJOF 032100Z 01008KT 9999 FEW025 SCT150 M00/M01 Q1024 RMK     1CU025 4AC150 A3026 10/M01 R000=,
20180103_220000.003,0,RJOF,,,,0,20180103220000,-1,-1,-1,-1,10,-1,6,-1,-1,-1,-1,,9999,0,0,2,FEW 40   SCT 150,-1,0,-1,2,1025,RJOF 032200Z 01006KT 9999 FEW040 SCT150 M00/M02 Q1025 RMK     1CU040 3AC150 A3027=,
20180103_230000.003,0,RJOF,,,,0,20180103230000,-1,-1,-1,-1,10,-1,4,-1,-1,330,40,,9999,0,1,2,FEW 50   BKN 230,-1,0,-1,2,1025,RJOF 032300Z 01004KT 330V040 9999 VCFG FEW050 BKN230 M00/M02     Q1025 RMK 1SC050 A3027 VIS N 9KM FG BANK 9KM N=,VC FG
20180104_000000.003,0,RJOF,,,,0,20180104000000,-1,-1,-1,-1,340,-1,6,-1,-1,-1,-1,,9999,0,0,2,FEW 30   BKN 230,1,2,-1,0,1025,RJOF 040000Z 34006KT 9999 FEW030 BKN230 02/M00 Q1025 RMK     1CU030 A3027=,
20180104_010000.003,0,RJOF,,,,0,20180104010000,-1,-1,-1,-1,330,-1,3,-1,-1,300,360,,9999,0,0,2,FEW 30   BKN 230,1,5,1,1,1025,RJOF 040100Z 33003KT 300V360 9999 FEW030 BKN230 05/01 Q1025     RMK 1CU030 A3028=,
20180104_020000.005,0,RJOF,,,,0,20180104020000,-1,-1,-1,-1,999,-1,1,-1,-1,-1,-1,,9999,0,0,2,FEW 30   BKN 230,1,7,-1,1,1025,RJOF 040200Z VRB01KT 9999 FEW030 BKN230 07/M01 Q1025 RMK     1CU030 A3027=,
20180104_030000.004,0,RJOF,,,,0,20180104030000,-1,-1,-1,-1,240,-1,4,-1,-1,170,290,,9999,0,0,2,FEW 30   BKN 230,1,8,-1,2,1024,RJOF 040300Z 24004KT 170V290 9999 FEW030 BKN230 08/M02 Q1024     RMK 1CU030 A3024=,
20180104_040000.003,0,RJOF,,,,0,20180104040000,-1,-1,-1,-1,240,-1,7,-1,-1,210,270,,9999,0,0,3,FEW 30   SCT 45   BKN 230,1,10,-1,2,1022,RJOF 040400Z 24007KT 210V270 9999 FEW030 SCT045 BKN230 10/M02     Q1022 RMK 1CU030 4SC045 A3020=,
20180104_050000.003,0,RJOF,,,,0,20180104050000,-1,-1,-1,-1,999,-1,4,-1,-1,-1,-1,,9999,0,0,3,FEW 30   SCT 45   BKN 230,1,9,-1,1,1021,RJOF 040500Z VRB04KT 9999 FEW030 SCT045 BKN230 09/M01 Q1021     RMK 1CU030 3SC045 A3017=,
20180104_060000.004,0,RJOF,,,,0,20180104060000,-1,-1,-1,-1,240,-1,6,-1,-1,200,260,,9999,0,0,3,FEW 30   SCT 45   BKN 230,1,9,-1,2,1021,RJOF 040600Z 24006KT 200V260 9999 FEW030 SCT045 BKN230 09/M02     Q1021 RMK 1CU030 3SC045 A3016=,
20180104_070000.003,0,RJOF,,,,0,20180104070000,-1,-1,-1,-1,220,-1,8,-1,-1,-1,-1,,9999,0,0,3,FEW 30   BKN 150   BKN 230,1,8,-1,2,1021,RJOF 040700Z 22008KT 9999 FEW030 BKN150 BKN230 08/M02 Q1021     RMK 1CU030 5AC150 A3017=,
20180104_080000.003,0,RJOF,,,,0,20180104080000,-1,-1,-1,-1,250,-1,7,-1,-1,-1,-1,,9999,0,0,3,FEW 30   SCT 45   BKN 150,1,8,-1,2,1022,RJOF 040800Z 25007KT 9999 FEW030 SCT045 BKN150 08/M02 Q1022     RMK 1CU030 3SC045 5AC150 A3018=,
20180104_090000.003,0,RJOF,,,,0,20180104090000,-1,-1,-1,-1,280,-1,2,-1,-1,-1,-1,,9999,0,0,3,FEW 30   SCT 150   BKN -9999,1,6,-1,1,1022,RJOF 040900Z 28002KT 9999 FEW030 SCT150 BKN/// 06/M01 Q1022     RMK 1CU030 3AC150 A3019=,
20180104_100000.003,0,RJOF,,,,0,20180104100000,-1,-1,-1,-1,360,-1,4,-1,-1,-1,-1,,9999,0,0,3,FEW 30   SCT 150   BKN -9999,1,6,-1,0,1022,RJOF 041000Z 36004KT 9999 FEW030 SCT150 BKN/// 06/M00 Q1022     RMK 1CU030 3AC150 A3019=,
20180104_110000.003,0,RJOF,,,,0,20180104110000,-1,-1,-1,-1,340,-1,2,-1,-1,-1,-1,,9999,0,0,3,FEW 30   BKN 120   BKN -9999,1,6,1,0,1022,RJOF 041100Z 34002KT 9999 FEW030 BKN120 BKN/// 06/00 Q1022 RMK     1CU030 5AC120 A3018=,
20180104_120000.004,0,RJOF,,,,0,20180104120000,-1,-1,-1,-1,360,-1,5,-1,-1,-1,-1,,9999,0,0,3,FEW 30   BKN 120   BKN -9999,1,5,1,0,1022,RJOF 041200Z 36005KT 9999 FEW030 BKN120 BKN/// 05/00 Q1022 RMK     1CU030 6AC120 A3018=,
20180104_130000.003,0,RJOF,,,,0,20180104130000,-1,-1,-1,-1,350,-1,5,-1,-1,-1,-1,,9999,0,0,2,FEW 30   BKN 120,1,5,1,0,1022,RJOF 041300Z 35005KT 9999 FEW030 BKN120 05/00 Q1022 RMK 1CU030     7AC120 A3018=,
20180104_140000.003,0,RJOF,,,,0,20180104140000,-1,-1,-1,-1,360,-1,6,-1,-1,-1,-1,,9999,0,0,2,FEW 30   BKN 120,1,5,1,0,1021,RJOF 041400Z 36006KT 9999 FEW030 BKN120 05/00 Q1021 RMK 1CU030     7AC120 A3017=,
20180104_150000.004,0,RJOF,,,,0,20180104150000,-1,-1,-1,-1,20,-1,3,-1,-1,-1,-1,,9999,0,0,3,FEW 30   SCT 50   BKN 120,1,4,1,0,1021,RJOF 041500Z 02003KT 9999 FEW030 SCT050 BKN120 04/00 Q1021 RMK     1CU030 3SC050 7AC120 A3016=,
20180104_160000.004,0,RJOF,,,,0,20180104160000,-1,-1,-1,-1,360,-1,5,-1,-1,-1,-1,,9999,0,0,2,FEW 30   OVC 120,1,5,1,0,1020,RJOF 041600Z 36005KT 9999 FEW030 OVC120 05/00 Q1020 RMK 1CU030     8AS120 A3014=,
20180104_170000.004,0,RJOF,,,,0,20180104170000,-1,-1,-1,-1,360,-1,4,-1,-1,-1,-1,,9999,0,0,2,FEW 30   OVC 100,1,4,1,0,1020,RJOF 041700Z 36004KT 9999 FEW030 OVC100 04/00 Q1020 RMK 1CU030     8AS100 A3012=,
20180104_180000.003,0,RJOF,,,,0,20180104180000,-1,-1,-1,-1,360,-1,4,-1,-1,-1,-1,,9999,0,1,3,FEW 30   BKN 50   OVC 80,1,4,1,1,1020,RJOF 041800Z 36004KT 9999 -RA FEW030 BKN050 OVC080 04/01 Q1020     RMK 1CU030 5SC050 8AS080 A3012=,- RA
20180104_190000.004,0,RJOF,,,,0,20180104190000,-1,-1,-1,-1,999,-1,2,-1,-1,-1,-1,,9999,0,1,3,FEW 20   BKN 50   OVC 80,1,4,1,2,1019,RJOF 041900Z VRB02KT 9999 -RA FEW020 BKN050 OVC080 04/02 Q1019     RMK 1CU020 6SC050 8AS080 A3012=,- RA
20180104_200000.003,0,RJOF,,,,0,20180104200000,-1,-1,-1,-1,360,-1,4,-1,-1,-1,-1,,9999,0,1,3,FEW 20   BKN 50   OVC 80,1,4,1,2,1019,RJOF 042000Z 36004KT 9999 -RA FEW020 BKN050 OVC080 04/02 Q1019     RMK 1CU020 6SC050 8AS080 A3010=,- RA
20180104_210000.003,0,RJOF,,,,0,20180104210000,-1,-1,-1,-1,360,-1,3,-1,-1,-1,-1,,9999,0,1,3,FEW 20   BKN 30   BKN 50,1,3,1,2,1019,RJOF 042100Z 36003KT 9999 -RA FEW020 BKN030 BKN050 03/02 Q1019     RMK 1CU020 5CU030 7SC050 A3009 10/03 R001=,- RA
20180104_220000.003,0,RJOF,,,,0,20180104220000,-1,-1,-1,-1,350,-1,4,-1,-1,-1,-1,,9999,0,1,3,FEW 20   BKN 30   BKN 50,1,3,1,2,1018,RJOF 042200Z 35004KT 9999 -RA FEW020 BKN030 BKN050 03/02 Q1018     RMK 1CU020 5CU030 7SC050 A3008=,- RA
20180104_230000.003,0,RJOF,,,,0,20180104230000,-1,-1,-1,-1,360,-1,4,-1,-1,-1,-1,,9999,0,1,3,FEW 5   SCT 30   BKN 50,1,3,1,2,1018,RJOF 042300Z 36004KT 9999 -RA FEW005 SCT030 BKN050 03/02 Q1018     RMK 1ST005 4CU030 7SC050 A3008=,- RA
20180105_000000.004,0,RJOF,,,,0,20180105000000,-1,-1,-1,-1,10,-1,5,-1,-1,-1,-1,,9999,0,1,3,FEW 3   SCT 30   BKN 50,1,3,1,2,1018,RJOF 050000Z 01005KT 9999 -RA FEW003 SCT030 BKN050 03/02 Q1018     RMK 1ST003 3CU030 7SC050 A3007=,- RA
20180105_010000.004,0,RJOF,,,,0,20180105010000,-1,-1,-1,-1,10,-1,4,-1,-1,-1,-1,,9999,0,1,3,FEW 3   BKN 50   OVC 80,1,3,1,2,1018,RJOF 050100Z 01004KT 9999 -RA FEW003 BKN050 OVC080 03/02 Q1018     RMK 1ST003 7SC050 8AS080 A3008=,- RA
20180105_020000.003,0,RJOF,,,,0,20180105020000,-1,-1,-1,-1,20,-1,4,-1,-1,-1,-1,,9999,0,1,3,FEW 3   SCT 50   BKN 100,1,4,1,2,1018,RJOF 050200Z 02004KT 9999 -RA FEW003 SCT050 BKN100 04/02 Q1018     RMK 1ST003 4SC050 7AS100 A3008=,- RA
20180105_030000.003,0,RJOF,,,,0,20180105030000,-1,-1,-1,-1,999,-1,1,-1,-1,-1,-1,,9999,0,0,3,FEW 8   BKN 12   BKN 40,1,5,1,2,1017,RJOF 050300Z VRB01KT 9999 FEW008 BKN012 BKN040 05/02 Q1017 RMK     1ST008 5CU012 7CU040 A3004=,
20180105_040000.003,0,RJOF,,,,0,20180105040000,-1,-1,-1,-1,999,-1,2,-1,-1,-1,-1,,9999,0,1,3,FEW 8   BKN 12   BKN 40,1,5,1,3,1016,RJOF 050400Z VRB02KT 9999 -SHRA FEW008 BKN012 BKN040 05/03     Q1016 RMK 1ST008 6CU012 7CU040 A3001=,- RA SH
20180105_050000.003,0,RJOF,,,,0,20180105050000,-1,-1,-1,-1,999,-1,2,-1,-1,-1,-1,,9999,0,1,3,FEW 8   BKN 12   BKN 40,1,6,1,3,1015,RJOF 050500Z VRB02KT 9999 -SHRA FEW008 BKN012 BKN040 06/03     Q1015 RMK 1ST008 6CU012 7CU040 A3000=,- RA SH
20180105_060000.003,0,RJOF,,,,0,20180105060000,-1,-1,-1,-1,999,-1,1,-1,-1,-1,-1,,9999,0,1,3,FEW 8   BKN 15   BKN 40,1,6,1,4,1015,RJOF 050600Z VRB01KT 9999 -SHRA FEW008 BKN015 BKN040 06/04     Q1015 RMK 1ST008 5CU015 7CU040 A2999=,- RA SH
20180105_070000.003,0,RJOF,,,,0,20180105070000,-1,-1,-1,-1,999,-1,2,-1,-1,-1,-1,,9999,0,1,3,FEW 8   BKN 15   BKN 40,1,6,1,3,1015,RJOF 050700Z VRB02KT 9999 -SHRA FEW008 BKN015 BKN040 06/03     Q1015 RMK 1ST008 5CU015 7CU040 A2999=,- RA SH
20180105_080000.003,0,RJOF,,,,0,20180105080000,-1,-1,-1,-1,999,-1,2,-1,-1,-1,-1,,9999,0,0,3,FEW 8   BKN 15   BKN 40,1,6,1,4,1015,RJOF 050800Z VRB02KT 9999 FEW008 BKN015 BKN040 06/04 Q1015 RMK     1ST008 5CU015 7CU040 A2999=,
20180105_090000.003,0,RJOF,,,,0,20180105090000,-1,-1,-1,-1,999,-1,2,-1,-1,-1,-1,,9999,0,0,3,FEW 10   BKN 20   BKN 40,1,5,1,4,1015,RJOF 050900Z VRB02KT 9999 FEW010 BKN020 BKN040 05/04 Q1015 RMK     1ST010 5CU020 7CU040 A2999=,
20180105_100000.003,0,RJOF,,,,0,20180105100000,-1,-1,-1,-1,320,-1,3,-1,-1,-1,-1,,9999,0,1,3,FEW 10   BKN 20   BKN 40,1,5,1,4,1015,RJOF 051000Z 32003KT 9999 -SHRA FEW010 BKN020 BKN040 05/04     Q1015 RMK 1ST010 5CU020 7CU040 A2999=,- RA SH
20180105_110000.003,0,RJOF,,,,0,20180105110000,-1,-1,-1,-1,999,-1,1,-1,-1,-1,-1,,9999,0,0,3,FEW 10   BKN 20   BKN 40,1,5,1,4,1015,RJOF 051100Z VRB01KT 9999 FEW010 BKN020 BKN040 05/04 Q1015 RMK     1ST010 7CU020 7CU040 A2999=,
20180105_120000.003,0,RJOF,,,,0,20180105120000,-1,-1,-1,-1,999,-1,2,-1,-1,-1,-1,,9999,0,1,3,FEW 10   SCT 15   BKN 20,1,5,1,4,1015,RJOF 051200Z VRB02KT 9999 -SHRA FEW010 SCT015 BKN020 05/04     Q1015 RMK 1CU010 3CU015 7CU020 A2998=,- RA SH
20180105_130000.003,0,RJOF,,,,0,20180105130000,-1,-1,-1,-1,10,-1,3,-1,-1,-1,-1,,9999,0,1,3,FEW 10   SCT 15   BKN 20,1,5,1,4,1015,RJOF 051300Z 01003KT 9999 -SHRA FEW010 SCT015 BKN020 05/04     Q1015 RMK 1CU010 3CU015 7CU020 A2999=,- RA SH
20180105_140000.003,0,RJOF,,,,0,20180105140000,-1,-1,-1,-1,250,-1,3,-1,-1,-1,-1,,8000,0,1,3,FEW 5   SCT 10   BKN 15,1,5,1,4,1015,RJOF 051400Z 25003KT 8000 -SHRA FEW005 SCT010 BKN015 05/04     Q1015 RMK 1ST005 3ST010 5CU015 A2999=,- RA SH
20180105_150000.003,0,RJOF,,,,0,20180105150000,-1,-1,-1,-1,999,-1,1,-1,-1,-1,-1,,8000,0,0,3,FEW 5   SCT 15   BKN 20,1,5,1,4,1015,RJOF 051500Z VRB01KT 8000 FEW005 SCT015 BKN020 05/04 Q1015 RMK     1ST005 4CU015 6CU020 A2999=,
20180105_160000.004,0,RJOF,,,,0,20180105160000,-1,-1,-1,-1,270,-1,5,-1,-1,-1,-1,,9000,0,0,3,FEW 10   SCT 15   BKN 40,1,5,1,4,1015,RJOF 051600Z 27005KT 9000 FEW010 SCT015 BKN040 05/04 Q1015 RMK     1ST010 3CU015 7CU040 A2999=,
20180105_170000.003,0,RJOF,,,,0,20180105170000,-1,-1,-1,-1,230,-1,3,-1,-1,-1,-1,,9000,0,0,2,FEW 10   BKN 50,1,5,1,3,1015,RJOF 051700Z 23003KT 9000 FEW010 BKN050 05/03 Q1015 RMK 1ST010     6SC050 A2999=,
20180105_180000.004,0,RJOF,,,,0,20180105180000,-1,-1,-1,-1,300,-1,3,-1,-1,-1,-1,,9000,0,0,2,FEW 15   BKN 50,1,4,1,3,1016,RJOF 051800Z 30003KT 9000 FEW015 BKN050 04/03 Q1016 RMK 1CU015     6SC050 A3000=,
20180105_190000.003,0,RJOF,,,,0,20180105190000,-1,-1,-1,-1,180,-1,3,-1,-1,-1,-1,,8000,0,0,2,FEW 15   SCT 50,1,2,1,1,1016,RJOF 051900Z 18003KT 8000 FEW015 SCT050 02/01 Q1016 RMK 1CU015     4SC050 A3000=,
20180105_200000.003,0,RJOF,,,,0,20180105200000,-1,-1,-1,-1,270,-1,5,-1,-1,-1,-1,,9999,0,0,2,FEW 15   SCT 50,1,3,1,0,1016,RJOF 052000Z 27005KT 9999 FEW015 SCT050 03/00 Q1016 RMK 1CU015     4SC050 A3002=,
20180105_210000.004,0,RJOF,,,,0,20180105210000,-1,-1,-1,-1,270,-1,5,-1,-1,-1,-1,,9999,0,0,2,FEW 15   SCT 50,1,2,-1,0,1016,RJOF 052100Z 27005KT 9999 FEW015 SCT050 02/M00 Q1016 RMK     1CU015 3SC050 A3003 06/01 R005=,
20180105_220000.003,0,RJOF,,,,0,20180105220000,-1,-1,-1,-1,260,-1,7,-1,-1,-1,-1,,9999,0,0,2,FEW 15   SCT 50,1,2,-1,0,1017,RJOF 052200Z 26007KT 9999 FEW015 SCT050 02/M00 Q1017 RMK     2CU015 3SC050 A3005=,
20180105_230000.003,0,RJOF,,,,0,20180105230000,-1,-1,-1,-1,290,-1,4,-1,-1,-1,-1,,9999,0,1,1,FEW 30,1,2,-1,1,1018,RJOF 052300Z 29004KT 9999 PRFG FEW030 02/M01 Q1018 RMK 2CU030     A3007 FG BANK NE=,PR FG
20180106_000000.003,0,RJOF,,,,0,20180106000000,-1,-1,-1,-1,250,-1,9,-1,-1,-1,-1,,9999,0,1,1,FEW 40,1,5,1,1,1018,RJOF 060000Z 25009KT 9999 PRFG FEW040 05/01 Q1018 RMK 1CU040     A3008 FG BANK NE=,PR FG
20180106_010000.003,0,RJOF,,,,0,20180106010000,-1,-1,-1,-1,250,-1,8,-1,-1,-1,-1,,9999,0,0,1,FEW 40,1,7,1,1,1019,RJOF 060100Z 25008KT 9999 FEW040 07/01 Q1019 RMK 1CU040 A3011=,
20180106_020000.003,0,RJOF,,,,0,20180106020000,-1,-1,-1,-1,270,-1,11,-1,-1,-1,-1,,9999,0,0,1,FEW 30,1,9,1,2,1019,RJOF 060200Z 27011KT 9999 FEW030 09/02 Q1019 RMK 1CU030 A3011=,
20180106_030000.003,0,RJOF,,,,0,20180106030000,-1,-1,-1,-1,290,-1,8,-1,-1,260,340,,9999,0,0,2,FEW 30   BKN 40,1,10,-1,0,1018,RJOF 060300Z 29008KT 260V340 9999 FEW030 BKN040 10/M00 Q1018     RMK 1CU030 6CU040 A3009=,
20180106_040000.003,0,RJOF,,,,0,20180106040000,-1,-1,-1,-1,290,-1,12,-1,-1,-1,-1,,9999,0,0,2,FEW 30   SCT 40,1,10,-1,2,1018,RJOF 060400Z 29012KT 9999 FEW030 SCT040 10/M02 Q1018 RMK     1CU030 4CU040 A3007=,
20180106_050000.003,0,RJOF,,,,0,20180106050000,-1,-1,-1,-1,280,-1,10,-1,-1,-1,-1,,9999,0,0,2,FEW 30   SCT 40,1,10,-1,3,1018,RJOF 060500Z 28010KT 9999 FEW030 SCT040 10/M03 Q1018 RMK     1CU030 4CU040 A3007=,
20180106_060000.003,0,RJOF,,,,0,20180106060000,-1,-1,-1,-1,320,-1,11,-1,-1,280,350,,9999,0,0,2,FEW 30   SCT 40,1,10,-1,4,1018,RJOF 060600Z 32011KT 280V350 9999 FEW030 SCT040 10/M04 Q1018     RMK 1CU030 3CU040 A3006=,
20180106_070000.003,0,RJOF,,,,0,20180106070000,-1,-1,-1,-1,310,-1,9,-1,-1,-1,-1,,9999,0,0,1,FEW 30,1,9,-1,3,1018,RJOF 060700Z 31009KT 9999 FEW030 09/M03 Q1018 RMK 1CU030     A3008=,
20180106_080000.003,0,RJOF,,,,0,20180106080000,-1,-1,-1,-1,310,-1,8,-1,-1,-1,-1,,9999,0,0,1,FEW 30,1,8,-1,4,1019,RJOF 060800Z 31008KT 9999 FEW030 08/M04 Q1019 RMK 1CU030     A3009=,
20180106_090000.003,0,RJOF,,,,0,20180106090000,-1,-1,-1,-1,280,-1,6,-1,-1,-1,-1,,9999,0,0,1,FEW 30,1,4,-1,3,1019,RJOF 060900Z 28006KT 9999 FEW030 04/M03 Q1019 RMK 1CU030     A3012=,
20180106_100000.003,0,RJOF,,,,0,20180106100000,-1,-1,-1,-1,270,-1,6,-1,-1,-1,-1,,9999,0,0,1,FEW 30,1,4,-1,2,1021,RJOF 061000Z 27006KT 9999 FEW030 04/M02 Q1021 RMK 1CU030     A3015=,
20180106_110000.003,0,RJOF,,,,0,20180106110000,-1,-1,-1,-1,310,-1,4,-1,-1,-1,-1,,9999,0,0,1,FEW 30,1,2,-1,2,1021,RJOF 061100Z 31004KT 9999 FEW030 02/M02 Q1021 RMK 1CU030     A3018=,
20180106_120000.003,0,RJOF,,,,0,20180106120000,-1,-1,-1,-1,999,-1,1,-1,-1,-1,-1,,9999,0,0,1,FEW 30,1,3,-1,2,1021,RJOF 061200Z VRB01KT 9999 FEW030 03/M02 Q1021 RMK 1CU030     A3018=,
20180106_130000.005,0,RJOF,,,,0,20180106130000,-1,-1,-1,-1,10,-1,4,-1,-1,-1,-1,,9999,0,0,1,FEW 30,1,2,-1,1,1021,RJOF 061300Z 01004KT 9999 FEW030 02/M01 Q1021 RMK 1CU030     A3017=,
20180106_140000.004,0,RJOF,,,,0,20180106140000,-1,-1,-1,-1,340,-1,3,-1,-1,-1,-1,,9999,0,0,2,FEW 30   BKN -9999,1,1,-1,2,1022,RJOF 061400Z 34003KT 9999 FEW030 BKN/// 01/M02 Q1022 RMK     1CU030 A3019=,
20180106_150000.003,0,RJOF,,,,0,20180106150000,-1,-1,-1,-1,999,-1,2,-1,-1,-1,-1,,9999,0,0,2,FEW 30   BKN -9999,1,1,-1,1,1022,RJOF 061500Z VRB02KT 9999 FEW030 BKN/// 01/M01 Q1022 RMK     1CU030 A3018=,
20180106_160000.003,0,RJOF,,,,0,20180106160000,-1,-1,-1,-1,350,-1,4,-1,-1,-1,-1,,9999,0,0,2,FEW 30   BKN -9999,1,1,-1,1,1022,RJOF 061600Z 35004KT 9999 FEW030 BKN/// 01/M01 Q1022 RMK     1CU030 A3020=,
20180106_170000.003,0,RJOF,,,,0,20180106170000,-1,-1,-1,-1,360,-1,6,-1,-1,-1,-1,,9999,0,0,2,FEW 30   BKN -9999,1,0,-1,2,1022,RJOF 061700Z 36006KT 9999 FEW030 BKN/// 00/M02 Q1022 RMK     1CU030 A3020=,
20180106_180000.004,0,RJOF,,,,0,20180106180000,-1,-1,-1,-1,10,-1,7,-1,-1,-1,-1,,9999,0,0,2,FEW 30   BKN -9999,1,1,-1,1,1022,RJOF 061800Z 01007KT 9999 FEW030 BKN/// 01/M01 Q1022 RMK     1CU030 A3020=,
20180106_190000.003,0,RJOF,,,,0,20180106190000,-1,-1,-1,-1,360,-1,6,-1,-1,-1,-1,,9999,0,0,2,FEW 30   SCT -9999,1,0,-1,2,1022,RJOF 061900Z 36006KT 9999 FEW030 SCT/// 00/M02 Q1022 RMK     1CU030 A3020=,
20180106_200000.003,0,RJOF,,,,0,20180106200000,-1,-1,-1,-1,999,-1,2,-1,-1,-1,-1,,9999,0,0,2,FEW 30   BKN -9999,1,0,-1,2,1022,RJOF 062000Z VRB02KT 9999 FEW030 BKN/// 00/M02 Q1022 RMK     1CU030 A3019=,
20180106_210000.003,0,RJOF,,,,0,20180106210000,-1,-1,-1,-1,20,-1,5,-1,-1,-1,-1,,9999,0,0,2,FEW 30   BKN -9999,-1,0,-1,2,1022,RJOF 062100Z 02005KT 9999 FEW030 BKN/// M00/M02 Q1022 RMK     1CU030 A3020 11/M00=,
20180106_220000.003,0,RJOF,,,,0,20180106220000,-1,-1,-1,-1,360,-1,7,-1,-1,-1,-1,,9999,0,0,2,FEW 40   BKN 230,1,0,-1,2,1022,RJOF 062200Z 36007KT 9999 FEW040 BKN230 00/M02 Q1022 RMK     1SC040 A3021=,
20180106_230000.003,0,RJOF,,,,0,20180106230000,-1,-1,-1,-1,330,-1,3,-1,-1,270,20,,9999,0,0,2,FEW 40   BKN 230,1,1,-1,2,1023,RJOF 062300Z 33003KT 270V020 9999 FEW040 BKN230 01/M02 Q1023     RMK 1SC040 A3022=,
20180107_000000.003,0,RJOF,,,,0,20180107000000,-1,-1,-1,-1,20,-1,3,-1,-1,340,120,,9999,0,0,3,FEW 40   SCT 180   BKN 230,1,2,-1,1,1023,RJOF 070000Z 02003KT 340V120 9999 FEW040 SCT180 BKN230 02/M01     Q1023 RMK 1CU040 4AC180 A3022=,
20180107_010000.004,0,RJOF,,,,0,20180107010000,-1,-1,-1,-1,999,-1,2,-1,-1,-1,-1,,9999,0,0,2,FEW 40   BKN 230,1,4,1,1,1023,RJOF 070100Z VRB02KT 9999 FEW040 BKN230 04/01 Q1023 RMK 1CU040     A3023=,
20180107_020000.003,0,RJOF,,,,0,20180107020000,-1,-1,-1,-1,100,-1,4,-1,-1,70,130,,9999,0,0,3,FEW 40   SCT 180   BKN 230,1,8,1,0,1022,RJOF 070200Z 10004KT 070V130 9999 FEW040 SCT180 BKN230 08/00     Q1022 RMK 1CU040 4AC180 A3021=,
20180107_030000.003,0,RJOF,,,,0,20180107030000,-1,-1,-1,-1,110,-1,7,-1,-1,70,130,,9999,0,0,3,FEW 40   SCT 150   BKN 180,1,9,1,0,1022,RJOF 070300Z 11007KT 070V130 9999 FEW040 SCT150 BKN180 09/00     Q1022 RMK 1CU040 3AC150 6AC180 A3020=,
20180107_040000.003,0,RJOF,,,,0,20180107040000,-1,-1,-1,-1,90,-1,6,-1,-1,50,110,,9999,0,0,3,FEW 30   BKN 150   BKN 230,1,9,1,1,1022,RJOF 070400Z 09006KT 050V110 9999 FEW030 BKN150 BKN230 09/01     Q1022 RMK 1CU030 5AC150 A3019=,
20180107_050000.003,0,RJOF,,,,0,20180107050000,-1,-1,-1,-1,90,-1,6,-1,-1,-1,-1,,9999,0,0,3,FEW 30   BKN 120   BKN 150,1,8,1,1,1021,RJOF 070500Z 09006KT 9999 FEW030 BKN120 BKN150 08/01 Q1021 RMK     1CU030 5AC120 7AC150 A3017=,
20180107_060000.003,0,RJOF,,,,0,20180107060000,-1,-1,-1,-1,70,-1,6,-1,-1,-1,-1,,9999,0,0,3,FEW 30   BKN 100   BKN 120,1,9,1,1,1020,RJOF 070600Z 07006KT 9999 FEW030 BKN100 BKN120 09/01 Q1020 RMK     1CU030 5AC100 7AC120 A3015=,
20180107_070000.003,0,RJOF,,,,0,20180107070000,-1,-1,-1,-1,100,-1,7,-1,-1,-1,-1,,9999,0,0,3,FEW 30   BKN 100   BKN 120,1,9,1,1,1020,RJOF 070700Z 10007KT 9999 FEW030 BKN100 BKN120 09/01 Q1020 RMK     1CU030 5AC100 7AC120 A3014=,
20180107_080000.003,0,RJOF,,,,0,20180107080000,-1,-1,-1,-1,90,-1,9,-1,-1,-1,-1,,9999,0,0,3,FEW 30   BKN 100   BKN 120,1,9,1,1,1020,RJOF 070800Z 09009KT 9999 FEW030 BKN100 BKN120 09/01 Q1020 RMK     1CU030 5AC100 7AC120 A3013=,
20180107_090000.003,0,RJOF,,,,0,20180107090000,-1,-1,-1,-1,90,-1,7,-1,-1,-1,-1,,9999,0,0,3,FEW 30   SCT 50   BKN 100,1,8,1,2,1021,RJOF 070900Z 09007KT 9999 FEW030 SCT050 BKN100 08/02 Q1021 RMK     1CU030 3SC050 7AC100 A3015=,
20180107_100000.003,0,RJOF,,,,0,20180107100000,-1,-1,-1,-1,80,-1,6,-1,-1,-1,-1,,9999,0,0,3,FEW 30   SCT 50   BKN 100,1,8,1,1,1021,RJOF 071000Z 08006KT 9999 FEW030 SCT050 BKN100 08/01 Q1021 RMK     1CU030 3SC050 7AC100 A3016=,
20180107_110000.003,0,RJOF,,,,0,20180107110000,-1,-1,-1,-1,90,-1,8,-1,-1,-1,-1,,9999,0,0,3,FEW 30   BKN 50   BKN 100,1,8,1,1,1021,RJOF 071100Z 09008KT 9999 FEW030 BKN050 BKN100 08/01 Q1021 RMK     1CU030 5SC050 7AC100 A3015=,
20180107_120000.004,0,RJOF,,,,0,20180107120000,-1,-1,-1,-1,90,-1,8,-1,-1,-1,-1,,9999,0,1,3,FEW 30   BKN 50   OVC 100,1,8,1,1,1020,RJOF 071200Z 09008KT 9999 -RA FEW030 BKN050 OVC100 08/01 Q1020     RMK 1CU030 5SC050 8AS100 A3013=,- RA
20180107_130000.004,0,RJOF,,,,0,20180107130000,-1,-1,-1,-1,90,-1,8,-1,-1,-1,-1,,9999,0,1,3,FEW 30   BKN 45   OVC 80,1,9,1,2,1019,RJOF 071300Z 09008KT 9999 -RA FEW030 BKN045 OVC080 09/02 Q1019     RMK 1CU030 5SC045 8AS080 A3010=,- RA
20180107_140000.004,0,RJOF,,,,0,20180107140000,-1,-1,-1,-1,80,-1,6,-1,-1,40,110,,9999,0,1,3,FEW 20   SCT 30   BKN 45,1,8,1,4,1019,RJOF 071400Z 08006KT 040V110 9999 -RA FEW020 SCT030 BKN045     08/04 Q1019 RMK 1CU020 3CU030 6SC045 A3009=,- RA
20180107_150000.003,0,RJOF,,,,0,20180107150000,-1,-1,-1,-1,80,-1,7,-1,-1,40,100,,9999,0,1,3,FEW 20   SCT 30   BKN 40,1,8,1,4,1017,RJOF 071500Z 08007KT 040V100 9999 -RA FEW020 SCT030 BKN040     08/04 Q1017 RMK 1CU020 3CU030 6SC040 A3006=,- RA
20180107_160000.003,0,RJOF,,,,0,20180107160000,-1,-1,-1,-1,70,-1,7,-1,-1,-1,-1,,9999,0,1,3,FEW 20   BKN 45   OVC 80,1,8,1,5,1016,RJOF 071600Z 07007KT 9999 -RA FEW020 BKN045 OVC080 08/05 Q1016     RMK 1CU020 5SC045 8AS080 A3003=,- RA
20180107_170000.003,0,RJOF,,,,0,20180107170000,-1,-1,-1,-1,70,-1,6,-1,-1,-1,-1,,9999,0,1,3,FEW 20   BKN 30   OVC 40,1,8,1,6,1016,RJOF 071700Z 07006KT 9999 -RA FEW020 BKN030 OVC040 08/06 Q1016     RMK 1CU020 5CU030 8SC040 A3003=,- RA
20180107_180000.003,0,RJOF,,,,0,20180107180000,-1,-1,-1,-1,60,-1,6,-1,-1,-1,-1,,9999,0,1,3,FEW 20   BKN 30   OVC 40,1,8,1,7,1015,RJOF 071800Z 06006KT 9999 -RA FEW020 BKN030 OVC040 08/07 Q1015     RMK 2CU020 5CU030 8SC040 A3000=,- RA
20180107_190000.004,0,RJOF,,,,0,20180107190000,-1,-1,-1,-1,60,-1,7,-1,-1,-1,-1,,8000,0,1,3,FEW 10   BKN 20   BKN 30,1,8,1,7,1013,RJOF 071900Z 06007KT 8000 RA FEW010 BKN020 BKN030 08/07 Q1013     RMK 1CU010 6CU020 7CU030 A2994=,RA
20180107_200000.003,0,RJOF,,,,0,20180107200000,-1,-1,-1,-1,90,-1,4,-1,-1,40,120,,3500,0,2,3,FEW 10   BKN 20   OVC 30,1,8,1,8,1012,RJOF 072000Z 09004KT 040V120 3500 SHRA BR FEW010 BKN020 OVC030     08/08 Q1012 RMK 1CU010 6CU020 8CU030 A2991 VIS SW-NW           4000M=,RA SH; BR
20180107_210000.004,0,RJOF,,,,0,20180107210000,-1,-1,-1,-1,90,-1,9,-1,-1,-1,-1,,9999,0,1,3,FEW 8   BKN 30   OVC 40,1,9,1,8,1012,RJOF 072100Z 09009KT 9999 -SHRA FEW008 BKN030 OVC040 09/08     Q1012 RMK 1ST008 5CU030 8CU040 A2991 09/07 R017=,- RA SH
20180107_220000.003,0,RJOF,,,,0,20180107220000,-1,-1,-1,-1,80,-1,8,-1,-1,-1,-1,,9999,0,1,3,FEW 8   BKN 30   BKN 40,1,9,1,7,1012,RJOF 072200Z 08008KT 9999 -SHRA FEW008 BKN030 BKN040 09/07     Q1012 RMK 1ST008 5CU030 7CU040 A2988=,- RA SH
20180107_230000.003,0,RJOF,,,,0,20180107230000,-1,-1,-1,-1,70,-1,8,-1,-1,20,110,,9999,0,0,3,FEW 8   BKN 18   BKN 30,1,10,1,8,1011,RJOF 072300Z 07008KT 020V110 9999 FEW008 BKN018 BKN030 10/08     Q1011 RMK 1ST008 5CU018 6CU030 A2986=,
20180108_000000.003,0,RJOF,,,,0,20180108000000,-1,-1,-1,-1,80,-1,10,-1,-1,-1,-1,,9999,0,0,3,FEW 8   BKN 18   BKN 30,1,10,1,8,1011,RJOF 080000Z 08010KT 9999 FEW008 BKN018 BKN030 10/08 Q1011 RMK     1ST008 5CU018 6CU030 A2986=,
20180108_010000.003,0,RJOF,,,,0,20180108010000,-1,-1,-1,-1,90,-1,9,-1,-1,-1,-1,,9999,0,0,3,FEW 6   BKN 15   BKN 30,1,10,1,8,1010,RJOF 080100Z 09009KT 9999 FEW006 BKN015 BKN030 10/08 Q1010 RMK     1ST006 5CU015 6CU030 A2985=,
20180108_020000.004,0,RJOF,,,,0,20180108020000,-1,-1,-1,-1,120,-1,5,-1,-1,80,220,,9999,0,0,3,FEW 10   BKN 15   BKN 40,1,11,1,9,1009,RJOF 080200Z 12005KT 080V220 9999 FEW010 BKN015 BKN040 11/09     Q1009 RMK 1ST010 6CU015 7CU040 A2981=,
20180108_030000.003,0,RJOF,,,,0,20180108030000,-1,-1,-1,-1,120,-1,6,-1,-1,100,160,,9999,0,0,3,FEW 6   BKN 12   BKN 40,1,11,1,9,1008,RJOF 080300Z 12006KT 100V160 9999 FEW006 BKN012 BKN040 11/09     Q1008 RMK 1ST006 6CU012 7CU040 A2978=,
20180108_040000.003,0,RJOF,,,,0,20180108040000,-1,-1,-1,-1,110,-1,7,-1,-1,-1,-1,,9999,0,1,3,FEW 6   BKN 10   BKN 30,1,10,1,9,1007,RJOF 080400Z 11007KT 9999 -SHRA FEW006 BKN010 BKN030 10/09     Q1007 RMK 1ST006 6ST010 7CU030 A2976=,- RA SH
20180108_050000.003,0,RJOF,,,,0,20180108050000,-1,-1,-1,-1,100,-1,8,-1,-1,-1,-1,,9999,0,1,3,FEW 6   BKN 8   BKN 30,1,11,1,9,1006,RJOF 080500Z 10008KT 9999 -SHRA FEW006 BKN008 BKN030 11/09     Q1006 RMK 1ST006 6ST008 7CU030 A2972=,- RA SH
20180108_060000.004,0,RJOF,,,,0,20180108060000,-1,-1,-1,-1,80,-1,6,-1,-1,-1,-1,,9000,0,1,3,FEW 4   BKN 7   OVC 20,1,11,1,10,1006,RJOF 080600Z 08006KT 9000 -SHRA FEW004 BKN007 OVC020 11/10     Q1006 RMK 2ST004 7ST007 8CU020 A2971=,- RA SH
20180108_070000.003,0,RJOF,,,,0,20180108070000,-1,-1,-1,-1,90,-1,7,-1,-1,-1,-1,,9000,0,1,3,FEW 4   BKN 7   OVC 20,1,11,1,10,1004,RJOF 080700Z 09007KT 9000 -SHRA FEW004 BKN007 OVC020 11/10     Q1004 RMK 2ST004 7ST007 8CU020 A2968=,- RA SH
20180108_080000.003,0,RJOF,,,,0,20180108080000,-1,-1,-1,-1,90,-1,4,-1,-1,-1,-1,,7000,0,1,3,FEW 4   BKN 7   OVC 20,1,11,1,10,1005,RJOF 080800Z 09004KT 7000 -SHRA FEW004 BKN007 OVC020 11/10     Q1005 RMK 2ST004 7ST007 8CU020 A2969=,- RA SH
20180108_090000.003,0,RJOF,,,,0,20180108090000,-1,-1,-1,-1,999,-1,2,-1,-1,-1,-1,,4500,0,2,3,FEW 4   BKN 7   OVC 20,1,11,1,10,1005,RJOF 080900Z VRB02KT 4500 SHRA BR FEW004 BKN007 OVC020 11/10     Q1005 RMK 2ST004 7ST007 8CU020 A2969=,RA SH; BR
20180108_100000.003,0,RJOF,,,,0,20180108100000,-1,-1,-1,-1,999,-1,1,-1,-1,-1,-1,,5000,0,2,3,FEW 4   BKN 8   OVC 20,1,10,1,10,1005,RJOF 081000Z VRB01KT 5000 -SHRA BR FEW004 BKN008 OVC020 10/10     Q1005 RMK 1ST004 6ST008 8CU020 A2969=,- RA SH; BR
20180108_110000.003,0,RJOF,,,,0,20180108110000,-1,-1,-1,-1,999,-1,2,-1,-1,-1,-1,,4500,0,2,3,FEW 4   BKN 7   OVC 20,1,10,1,10,1005,RJOF 081100Z VRB02KT 4500 -SHRA BR FEW004 BKN007 OVC020 10/10     Q1005 RMK 1ST004 7ST007 8CU020 A2970=,- RA SH; BR
20180108_120000.003,0,RJOF,,,,0,20180108120000,-1,-1,-1,-1,250,-1,9,-1,-1,-1,-1,,7000,0,1,3,FEW 4   BKN 8   OVC 20,1,11,1,10,1005,RJOF 081200Z 25009KT 7000 -SHRA FEW004 BKN008 OVC020 11/10     Q1005 RMK 1ST004 6ST008 8CU020 A2969=,- RA SH
20180108_130000.004,0,RJOF,,,,0,20180108130000,-1,-1,-1,-1,270,-1,11,-1,-1,-1,-1,,9999,0,1,3,SCT 8   BKN 25   BKN 60,1,11,1,9,1006,RJOF 081300Z 27011KT 9999 -SHRA SCT008 BKN025 BKN060 11/09     Q1006 RMK 3ST008 5CU025 7SC060 A2972=,- RA SH
20180108_140000.003,0,RJOF,,,,0,20180108140000,-1,-1,-1,-1,260,-1,19,-1,30,-1,-1,,9999,0,0,3,FEW 8   SCT 25   BKN 70,1,11,1,8,1006,RJOF 081400Z 26019G30KT 9999 FEW008 SCT025 BKN070 11/08 Q1006     RMK 1ST008 3CU025 7AC070 A2972=,
20180108_150000.003,0,RJOF,,,,0,20180108150000,-1,-1,-1,-1,290,-1,14,-1,-1,-1,-1,,9999,0,1,3,FEW 8   BKN 25   BKN 70,1,9,1,7,1006,RJOF 081500Z 29014KT 9999 -SHRA FEW008 BKN025 BKN070 09/07     Q1006 RMK 1ST008 5CU025 7AC070 A2973=,- RA SH
20180108_160000.003,0,RJOF,,,,0,20180108160000,-1,-1,-1,-1,280,-1,7,-1,-1,-1,-1,,9999,0,0,3,FEW 8   BKN 30   BKN 40,1,9,1,5,1006,RJOF 081600Z 28007KT 9999 FEW008 BKN030 BKN040 09/05 Q1006 RMK     1ST008 5CU030 7CU040 A2973=,
20180108_170000.003,0,RJOF,,,,0,20180108170000,-1,-1,-1,-1,280,-1,19,-1,-1,-1,-1,,9999,0,0,3,FEW 15   BKN 30   BKN 40,1,8,1,3,1006,RJOF 081700Z 28019KT 9999 FEW015 BKN030 BKN040 08/03 Q1006 RMK     1CU015 5CU030 7CU040 A2973=,
20180108_180000.003,0,RJOF,,,,0,20180108180000,-1,-1,-1,-1,280,-1,15,-1,-1,-1,-1,,9999,0,0,3,FEW 20   SCT 30   BKN 45,1,8,1,2,1007,RJOF 081800Z 28015KT 9999 FEW020 SCT030 BKN045 08/02 Q1007 RMK     1CU020 4CU030 7SC045 A2974=,
20180108_190000.003,0,RJOF,,,,0,20180108190000,-1,-1,-1,-1,270,-1,23,-1,34,-1,-1,,9999,0,1,3,FEW 20   SCT 30   BKN 40,1,7,1,0,1007,RJOF 081900Z 27023G34KT 9999 -SHRA FEW020 SCT030 BKN040 07/00     Q1007 RMK 1CU020 3CU030 7CU040 A2976=,- RA SH
20180108_200000.003,0,RJOF,,,,0,20180108200000,-1,-1,-1,-1,270,-1,13,-1,-1,-1,-1,,9999,0,0,2,FEW 20   BKN 45,1,7,-1,2,1008,RJOF 082000Z 27013KT 9999 FEW020 BKN045 07/M02 Q1008 RMK     1CU020 7SC045 A2979=,
20180108_210000.004,0,RJOF,,,,0,20180108210000,-1,-1,-1,-1,280,-1,14,-1,-1,-1,-1,,9999,0,0,2,FEW 20   BKN 40,1,7,-1,2,1008,RJOF 082100Z 28014KT 9999 FEW020 BKN040 07/M02 Q1008 RMK     1CU020 7CU040 A2978 27034KT/1840 12/07 R008=,
20180108_220000.003,0,RJOF,,,,0,20180108220000,-1,-1,-1,-1,280,-1,16,-1,26,-1,-1,,9999,0,0,2,FEW 20   BKN 40,1,6,-1,2,1008,RJOF 082200Z 28016G26KT 9999 FEW020 BKN040 06/M02 Q1008 RMK     1CU020 7CU040 A2979=,
20180108_230000.004,0,RJOF,,,,0,20180108230000,-1,-1,-1,-1,270,-1,20,-1,30,-1,-1,,9999,0,0,2,FEW 20   BKN 40,1,6,-1,3,1009,RJOF 082300Z 27020G30KT 9999 FEW020 BKN040 06/M03 Q1009 RMK     2CU020 7CU040 A2981=,
20180109_000000.003,0,RJOF,,,,0,20180109000000,-1,-1,-1,-1,260,-1,29,-1,40,-1,-1,,9999,0,1,2,FEW 20   BKN 40,1,6,-1,4,1010,RJOF 090000Z 26029G40KT 9999 -SHRA FEW020 BKN040 06/M04 Q1010     RMK 2CU020 7CU040 A2985=,- RA SH
20180109_010000.003,0,RJOF,,,,0,20180109010000,-1,-1,-1,-1,260,-1,23,-1,-1,-1,-1,,9999,0,1,2,FEW 20   BKN 35,1,5,-1,2,1012,RJOF 090100Z 26023KT 9999 -SHRASN FEW020 BKN035 05/M02 Q1012     RMK 2CU020 7CU035 A2988 MAX WIND 31KT=,- RA SN SH
20180109_020000.003,0,RJOF,,,,0,20180109020000,-1,-1,-1,-1,280,-1,18,-1,-1,-1,-1,,9999,0,0,2,FEW 20   BKN 35,1,7,-1,2,1011,RJOF 090200Z 28018KT 9999 FEW020 BKN035 07/M02 Q1011 RMK     2CU020 7CU035 A2987 MAX WIND 26KT=,
20180109_030000.003,0,RJOF,,,,0,20180109030000,-1,-1,-1,-1,270,-1,21,-1,31,-1,-1,,9999,0,0,2,FEW 20   SCT 35,1,6,-1,3,1011,RJOF 090300Z 27021G31KT 9999 FEW020 SCT035 06/M03 Q1011 RMK     1CU020 4CU035 A2986=,
20180109_040000.003,0,RJOF,,,,0,20180109040000,-1,-1,-1,-1,300,-1,21,-1,31,-1,-1,,9999,0,1,2,FEW 18   BKN 35,1,5,-1,1,1010,RJOF 090400Z 30021G31KT 9999 -SHSN FEW018 BKN035 05/M01 Q1010     RMK 2CU018 7CU035 A2985 VIS W-NE 4000M=,- SN SH
20180109_050000.003,0,RJOF,,,,0,20180109050000,-1,-1,-1,-1,300,-1,15,-1,-1,270,330,,9999,0,1,2,FEW 18   BKN 35,1,4,-1,1,1011,RJOF 090500Z 30015KT 270V330 9999 -SHSN FEW018 BKN035 04/M01     Q1011 RMK 2CU018 6CU035 A2986 MAX WIND 24KT VIS NW-N 5KM=,- SN SH
20180109_060000.003,0,RJOF,,,,0,20180109060000,-1,-1,-1,-1,290,-1,9,-1,-1,270,330,,9999,0,1,2,FEW 18   BKN 35,1,5,-1,0,1011,RJOF 090600Z 29009KT 270V330 9999 -SHSN FEW018 BKN035 05/M00     Q1011 RMK 1CU018 6CU035 A2988 VIS NE 5KM=,- SN SH
20180109_070000.003,0,RJOF,,,,0,20180109070000,-1,-1,-1,-1,310,-1,9,-1,-1,270,340,,9999,0,1,2,FEW 20   BKN 35,1,5,-1,2,1011,RJOF 090700Z 31009KT 270V340 9999 -SHSN FEW020 BKN035 05/M02     Q1011 RMK 1CU020 7CU035 A2987=,- SN SH
20180109_080000.003,0,RJOF,,,,0,20180109080000,-1,-1,-1,-1,270,-1,12,-1,-1,-1,-1,,9999,0,1,3,FEW 20   SCT 30   BKN 35,1,5,-1,3,1012,RJOF 090800Z 27012KT 9999 -SHRASN FEW020 SCT030 BKN035 05/M03     Q1012 RMK 1CU020 3CU030 7CU035 A2989=,- RA SN SH
20180109_090000.003,0,RJOF,,,,0,20180109090000,-1,-1,-1,-1,280,-1,8,-1,-1,-1,-1,,9999,0,1,2,FEW 20   BKN 35,1,5,-1,3,1013,RJOF 090900Z 28008KT 9999 -SHRASN FEW020 BKN035 05/M03 Q1013     RMK 1CU020 7CU035 A2992=,- RA SN SH
20180109_100000.003,0,RJOF,,,,0,20180109100000,-1,-1,-1,-1,270,-1,7,-1,-1,-1,-1,,9999,0,1,2,FEW 20   BKN 35,1,5,-1,2,1014,RJOF 091000Z 27007KT 9999 -SHRASN FEW020 BKN035 05/M02 Q1014     RMK 1CU020 7CU035 A2995=,- RA SN SH
20180109_110000.003,0,RJOF,,,,0,20180109110000,-1,-1,-1,-1,260,-1,9,-1,-1,-1,-1,,9999,0,0,2,FEW 20   BKN 35,1,5,-1,3,1014,RJOF 091100Z 26009KT 9999 FEW020 BKN035 05/M03 Q1014 RMK     1CU020 7CU035 A2996=,
20180109_120000.003,0,RJOF,,,,0,20180109120000,-1,-1,-1,-1,310,-1,5,-1,-1,-1,-1,,9999,0,0,2,FEW 20   BKN 35,1,5,-1,2,1015,RJOF 091200Z 31005KT 9999 FEW020 BKN035 05/M02 Q1015 RMK     1CU020 7CU035 A2997=,
20180109_130000.003,0,RJOF,,,,0,20180109130000,-1,-1,-1,-1,250,-1,7,-1,-1,-1,-1,,9999,0,1,2,FEW 20   BKN 35,1,5,-1,2,1015,RJOF 091300Z 25007KT 9999 -SHRA FEW020 BKN035 05/M02 Q1015 RMK     1CU020 7CU035 A2998=,- RA SH
20180109_140000.003,0,RJOF,,,,0,20180109140000,-1,-1,-1,-1,280,-1,5,-1,-1,240,320,,9999,0,1,2,FEW 20   BKN 35,1,4,-1,1,1015,RJOF 091400Z 28005KT 240V320 9999 -SHRA FEW020 BKN035 04/M01     Q1015 RMK 1CU020 6CU035 A2998=,- RA SH
20180109_150000.003,0,RJOF,,,,0,20180109150000,-1,-1,-1,-1,250,-1,16,-1,26,230,290,,9999,0,1,2,FEW 20   BKN 35,1,6,-1,4,1015,RJOF 091500Z 25016G26KT 230V290 9999 -SHRA FEW020 BKN035     06/M04 Q1015 RMK 1CU020 7CU035 A2998=,- RA SH
20180109_160000.003,0,RJOF,,,,0,20180109160000,-1,-1,-1,-1,270,-1,10,-1,21,240,300,,9999,0,1,2,FEW 20   BKN 35,1,4,-1,1,1014,RJOF 091600Z 27010G21KT 240V300 9999 -SHRASN FEW020 BKN035     04/M01 Q1014 RMK 1CU020 7CU035 A2997=,- RA SN SH
20180109_170000.003,0,RJOF,,,,0,20180109170000,-1,-1,-1,-1,260,-1,14,-1,24,-1,-1,,9999,0,1,2,FEW 20   BKN 35,1,3,1,1,1015,RJOF 091700Z 26014G24KT 9999 -SHRASN FEW020 BKN035 03/01 Q1015     RMK 2CU020 7CU035 A2999=,- RA SN SH
20180109_180000.003,0,RJOF,,,,0,20180109180000,-1,-1,-1,-1,999,-1,1,-1,-1,-1,-1,,9999,0,1,2,FEW 20   BKN 35,1,2,1,0,1014,RJOF 091800Z VRB01KT 9999 -SHRASN FEW020 BKN035 02/00 Q1014     RMK 2CU020 6CU035 A2997=,- RA SN SH
20180109_190000.004,0,RJOF,,,,0,20180109190000,-1,-1,-1,-1,260,-1,11,-1,-1,240,350,,9999,0,1,3,FEW 6   BKN 12   BKN 30,1,3,1,0,1015,RJOF 091900Z 26011KT 240V350 9999 -SHRASN FEW006 BKN012 BKN030     03/00 Q1015 RMK 2ST006 5CU012 7CU030 A2998=,- RA SN SH
20180109_200000.003,0,RJOF,,,,0,20180109200000,-1,-1,-1,-1,240,-1,5,-1,-1,210,300,,9999,0,1,3,FEW 6   BKN 10   BKN 30,1,2,1,1,1014,RJOF 092000Z 24005KT 210V300 9999 -SHRASN FEW006 BKN010 BKN030     02/01 Q1014 RMK 2ST006 6CU010 7CU030 A2997=,- RA SN SH
20180109_210000.003,0,RJOF,,,,0,20180109210000,-1,-1,-1,-1,999,-1,2,-1,-1,-1,-1,,9999,0,1,3,FEW 6   BKN 10   BKN 30,1,2,1,1,1014,RJOF 092100Z VRB02KT 9999 -SHRASN FEW006 BKN010 BKN030 02/01     Q1014 RMK 1ST006 6CU010 7CU030 A2996 28040KT/2350 07/01           R001 S000=,- RA SN SH
20180109_220000.003,0,RJOF,,,,0,20180109220000,-1,-1,-1,-1,300,-1,4,-1,-1,-1,-1,,2500,0,2,3,FEW 6   BKN 10   OVC 25,1,0,-1,0,1014,RJOF 092200Z 30004KT 2500 -SHSNRA BR FEW006 BKN010 OVC025     00/M00 Q1014 RMK 1ST006 6CU010 8CU025 A2997=,- SN RA SH; BR
20180109_230000.003,0,RJOF,,,,0,20180109230000,-1,-1,-1,-1,999,-1,2,-1,-1,-1,-1,,8000,0,1,3,FEW 1   BKN 5   OVC 10,1,1,-1,0,1014,RJOF 092300Z VRB02KT 8000 -SHRA FEW001 BKN005 OVC010 01/M00     Q1014 RMK 1ST001 7ST005 8CU010 A2996=,- RA SH
20180110_000000.003,0,RJOF,,,,0,20180110000000,-1,-1,-1,-1,999,-1,1,-1,-1,-1,-1,,9999,0,1,3,FEW 1   SCT 5   BKN 8,1,1,1,0,1014,RJOF 100000Z VRB01KT 9999 -SHRA FEW001 SCT005 BKN008 01/00     Q1014 RMK 1ST001 4ST005 5CU008 A2997=,- RA SH
20180110_010000.003,0,RJOF,,,,0,20180110010000,-1,-1,-1,-1,999,-1,2,-1,-1,-1,-1,,9999,0,1,3,FEW 1   BKN 5   BKN 8,1,2,1,1,1014,RJOF 100100Z VRB02KT 9999 -SHRA FEW001 BKN005 BKN008 02/01     Q1014 RMK 1ST001 5ST005 7CU008 A2997=,- RA SH
20180110_020000.003,0,RJOF,,,,0,20180110020000,-1,-1,-1,-1,280,-1,4,-1,-1,240,330,,9999,0,1,3,FEW 1   BKN 5   BKN 10,1,3,1,1,1014,RJOF 100200Z 28004KT 240V330 9999 -SHRA FEW001 BKN005 BKN010     03/01 Q1014 RMK 1ST001 5ST005 7CU010 A2996=,- RA SH
20180110_030000.003,0,RJOF,,,,0,20180110030000,-1,-1,-1,-1,280,-1,6,-1,-1,-1,-1,,3000,0,1,3,FEW 1   BKN 5   BKN 10,1,1,1,0,1014,RJOF 100300Z 28006KT 3000 -SHSN FEW001 BKN005 BKN010 01/00     Q1014 RMK 2ST001 5ST005 7CU010 A2996 VIS W-N 5KM=,- SN SH
20180110_040000.004,0,RJOF,,,,0,20180110040000,-1,-1,-1,-1,999,-1,2,-1,-1,-1,-1,,9999,0,1,3,FEW 1   BKN 5   BKN 10,1,3,1,1,1013,RJOF 100400Z VRB02KT 9999 -SHRA FEW001 BKN005 BKN010 03/01     Q1013 RMK 2ST001 5ST005 7CU010 A2993=,- RA SH
20180110_050000.003,0,RJOF,,,,0,20180110050000,-1,-1,-1,-1,290,-1,8,-1,-1,-1,-1,,8000,0,1,3,FEW 2   BKN 5   BKN 10,1,3,1,1,1013,RJOF 100500Z 29008KT 8000 -SHRASN FEW002 BKN005 BKN010 03/01     Q1013 RMK 2ST002 5ST005 7CU010 A2994=,- RA SN SH
20180110_060000.003,0,RJOF,,,,0,20180110060000,-1,-1,-1,-1,260,-1,11,-1,-1,-1,-1,,9999,0,1,3,FEW 5   SCT 8   BKN 12,1,4,1,1,1013,RJOF 100600Z 26011KT 9999 -SHRA FEW005 SCT008 BKN012 04/01     Q1013 RMK 1ST005 3ST008 5CU012 A2993=,- RA SH
20180110_070000.003,0,RJOF,,,,0,20180110070000,-1,-1,-1,-1,290,-1,18,-1,30,-1,-1,,9999,0,1,3,FEW 10   BKN 15   BKN 30,1,4,-1,2,1014,RJOF 100700Z 29018G30KT 9999 -SHSN FEW010 BKN015 BKN030 04/M02     Q1014 RMK 1CU010 5CU015 7CU030 A2995 VIS SE-SW 3000M=,- SN SH
20180110_080000.003,0,RJOF,,,,0,20180110080000,-1,-1,-1,-1,270,-1,16,-1,-1,240,300,,9999,0,1,3,FEW 10   SCT 15   BKN 25,1,4,-1,3,1014,RJOF 100800Z 27016KT 240V300 9999 -SHSN FEW010 SCT015 BKN025     04/M03 Q1014 RMK 1CU010 3CU015 7CU025 A2996=,- SN SH
20180110_090000.003,0,RJOF,,,,0,20180110090000,-1,-1,-1,-1,300,-1,11,-1,-1,270,340,,9999,0,1,3,FEW 10   BKN 15   BKN 25,1,2,-1,2,1015,RJOF 100900Z 30011KT 270V340 9999 -SHSN FEW010 BKN015 BKN025     02/M02 Q1015 RMK 1CU010 5CU015 6CU025 A2999=,- SN SH
20180110_100000.003,0,RJOF,,,,0,20180110100000,-1,-1,-1,-1,270,-1,15,-1,27,240,300,,5000,0,1,3,FEW 10   BKN 15   BKN 25,1,2,-1,2,1015,RJOF 101000Z 27015G27KT 240V300 5000 -SHSN FEW010 BKN015     BKN025 02/M02 Q1015 RMK 1CU010 5CU015 7CU025 A3000 VIS           W-NW 8KM=,- SN SH
20180110_110000.003,0,RJOF,,,,0,20180110110000,-1,-1,-1,-1,300,-1,12,-1,-1,270,330,,9999,0,0,3,FEW 15   SCT 30   BKN 40,1,3,-1,4,1016,RJOF 101100Z 30012KT 270V330 9999 FEW015 SCT030 BKN040 03/M04     Q1016 RMK 2CU015 4CU030 6CU040 A3001=,
20180110_120000.003,0,RJOF,,,,0,20180110120000,-1,-1,-1,-1,290,-1,9,-1,-1,-1,-1,,9999,0,0,2,FEW 15   SCT 40,1,2,-1,5,1017,RJOF 101200Z 29009KT 9999 FEW015 SCT040 02/M05 Q1017 RMK     1CU015 3CU040 A3003=,
20180110_130000.003,0,RJOF,,,,0,20180110130000,-1,-1,-1,-1,300,-1,11,-1,-1,-1,-1,,9999,0,0,2,FEW 15   SCT 40,1,1,-1,4,1017,RJOF 101300Z 30011KT 9999 FEW015 SCT040 01/M04 Q1017 RMK     1CU015 3CU040 A3005=,
20180110_140000.003,0,RJOF,,,,0,20180110140000,-1,-1,-1,-1,290,-1,13,-1,-1,-1,-1,,9999,0,0,2,FEW 8   SCT 15,-1,0,-1,3,1018,RJOF 101400Z 29013KT 9999 FEW008 SCT015 M00/M03 Q1018 RESN RMK     1CU008 3CU015 A3006=,
20180110_150000.003,0,RJOF,,,,0,20180110150000,-1,-1,-1,-1,280,-1,11,-1,-1,-1,-1,,9999,0,1,3,FEW 3   SCT 8   BKN 15,-1,0,-1,3,1018,RJOF 101500Z 28011KT 9999 -SHSN FEW003 SCT008 BKN015 M00/M03     Q1018 RMK 1CU003 3CU008 5CU015 A3009 VIS NW-NE 6KM=,- SN SH
20180110_160000.003,0,RJOF,,,,0,20180110160000,-1,-1,-1,-1,280,-1,8,-1,-1,-1,-1,,9999,0,0,3,FEW 5   SCT 8   BKN 15,-1,1,-1,4,1018,RJOF 101600Z 28008KT 9999 FEW005 SCT008 BKN015 M01/M04 Q1018     RMK 1CU005 3CU008 5CU015 A3009=,
20180110_170000.003,0,RJOF,,,,0,20180110170000,-1,-1,-1,-1,290,-1,10,-1,-1,-1,-1,,9999,0,0,2,FEW 8   BKN 15,-1,0,-1,7,1019,RJOF 101700Z 29010KT 9999 FEW008 BKN015 M00/M07 Q1019 RMK     1CU008 5CU015 A3011=,
20180110_180000.003,0,RJOF,,,,0,20180110180000,-1,-1,-1,-1,290,-1,11,-1,-1,270,330,,9999,0,0,2,FEW 8   BKN 15,-1,0,-1,7,1020,RJOF 101800Z 29011KT 270V330 9999 FEW008 BKN015 M00/M07 Q1020     RMK 1CU008 5CU015 A3013=,
20180110_190000.003,0,RJOF,,,,0,20180110190000,-1,-1,-1,-1,310,-1,14,-1,-1,-1,-1,,9999,0,0,3,FEW 8   SCT 15   BKN 30,-1,0,-1,7,1020,RJOF 101900Z 31014KT 9999 FEW008 SCT015 BKN030 M00/M07 Q1020     RMK 1CU008 4CU015 5CU030 A3012=,
20180110_200000.003,0,RJOF,,,,0,20180110200000,-1,-1,-1,-1,300,-1,10,-1,25,270,330,,9999,0,1,3,FEW 5   SCT 15   BKN 30,-1,1,-1,7,1020,RJOF 102000Z 30010G25KT 270V330 9999 -SHSN FEW005 SCT015     BKN030 M01/M07 Q1020 RMK 1CU005 3CU015 6CU030 A3013=,- SN SH
20180110_210000.003,0,RJOF,,,,0,20180110210000,-1,-1,-1,-1,310,-1,8,-1,-1,280,340,,9999,0,1,3,FEW 10   SCT 15   BKN 30,-1,1,-1,6,1020,RJOF 102100Z 31008KT 280V340 9999 -SHSN FEW010 SCT015 BKN030     M01/M06 Q1020 RMK 1CU010 3CU015 5CU030 A3014 28030KT/0650           05/M02 R006 S001=,- SN SH
20180110_220000.003,0,RJOF,,,,0,20180110220000,-1,-1,-1,-1,310,-1,6,-1,-1,-1,-1,,9999,0,0,2,FEW 10   SCT 30,-1,1,-1,6,1020,RJOF 102200Z 31006KT 9999 FEW010 SCT030 M01/M06 Q1020 RMK     1CU010 3CU030 A3015=,
20180110_230000.004,0,RJOF,,,,0,20180110230000,-1,-1,-1,-1,320,-1,10,-1,-1,-1,-1,,9999,0,0,3,FEW 15   SCT 30   BKN 40,-1,1,-1,6,1021,RJOF 102300Z 32010KT 9999 FEW015 SCT030 BKN040 M01/M06 Q1021     RMK 1CU015 3CU030 5CU040 A3016=,
20180111_000000.003,0,RJOF,,,,0,20180111000000,-1,-1,-1,-1,320,-1,11,-1,-1,-1,-1,,9999,0,0,3,FEW 15   SCT 30   BKN 40,1,0,-1,7,1021,RJOF 110000Z 32011KT 9999 FEW015 SCT030 BKN040 00/M07 Q1021     RMK 1CU015 3CU030 5CU040 A3017=,
20180111_010000.003,0,RJOF,,,,0,20180111010000,-1,-1,-1,-1,290,-1,15,-1,25,250,320,,9999,0,0,3,FEW 15   SCT 30   BKN 40,1,1,-1,6,1022,RJOF 110100Z 29015G25KT 250V320 9999 FEW015 SCT030 BKN040     01/M06 Q1022 RMK 1CU015 3CU030 6CU040 A3019=,
20180111_020000.003,0,RJOF,,,,0,20180111020000,-1,-1,-1,-1,280,-1,17,-1,-1,-1,-1,,9999,0,0,2,FEW 10   BKN 40,1,2,-1,8,1022,RJOF 110200Z 28017KT 9999 FEW010 BKN040 02/M08 Q1022 RMK     1CU010 5CU040 A3019 MAX WIND 26KT=,
20180111_030000.002,0,RJOF,,,,0,20180111030000,-1,-1,-1,-1,300,-1,17,-1,-1,-1,-1,,3000,0,1,3,FEW 10   BKN 15   OVC 30,-1,1,-1,4,1022,RJOF 110300Z 30017KT 3000 -SHSN FEW010 BKN015 OVC030 M01/M04     Q1022 RMK 1CU010 5CU015 8CU030 A3019 VIS W-N 7KM=,- SN SH
20180111_040000.003,0,RJOF,,,,0,20180111040000,-1,-1,-1,-1,290,-1,15,-1,-1,250,330,,9999,0,1,3,FEW 15   BKN 30   BKN 40,1,1,-1,6,1022,RJOF 110400Z 29015KT 250V330 9999 -SHSN FEW015 BKN030 BKN040     01/M06 Q1022 RMK 2CU015 6CU030 5CU040 A3019 MAX WIND           24KT=,- SN SH
20180111_050000.003,0,RJOF,,,,0,20180111050000,-1,-1,-1,-1,290,-1,12,-1,-1,260,320,,9999,0,1,3,FEW 15   BKN 30   BKN 40,1,1,-1,5,1022,RJOF 110500Z 29012KT 260V320 9999 -SHSN FEW015 BKN030 BKN040     01/M05 Q1022 RMK 1CU015 5CU030 6CU040 A3018=,- SN SH
20180111_060000.003,0,RJOF,,,,0,20180111060000,-1,-1,-1,-1,300,-1,13,-1,-1,270,330,,9999,0,1,3,FEW 15   BKN 30   BKN 40,1,1,-1,6,1022,RJOF 110600Z 30013KT 270V330 9999 -SHSN FEW015 BKN030 BKN040     01/M06 Q1022 RMK 1CU015 5CU030 5CU040 A3018 VIS NW 7KM=,- SN SH
20180111_070000.003,0,RJOF,,,,0,20180111070000,-1,-1,-1,-1,300,-1,13,-1,-1,270,330,,9999,0,1,2,FEW 15   BKN 25,1,0,-1,7,1022,RJOF 110700Z 30013KT 270V330 9999 -SHSN FEW015 BKN025 00/M07     Q1022 RMK 1CU015 5CU025 A3019 VIS NW-N 4500M=,- SN SH
20180111_080000.003,0,RJOF,,,,0,20180111080000,-1,-1,-1,-1,310,-1,10,-1,-1,-1,-1,,9999,0,1,2,FEW 15   BKN 25,1,0,-1,8,1022,RJOF 110800Z 31010KT 9999 -SHSN FEW015 BKN025 00/M08 Q1022 RMK     1CU015 5CU025 A3020=,- SN SH
20180111_090000.003,0,RJOF,,,,0,20180111090000,-1,-1,-1,-1,310,-1,14,-1,-1,280,350,,9999,0,0,2,FEW 15   SCT 25,-1,1,-1,7,1023,RJOF 110900Z 31014KT 280V350 9999 FEW015 SCT025 M01/M07 Q1023     RMK 1CU015 4CU025 A3022=,
20180111_100000.003,0,RJOF,,,,0,20180111100000,-1,-1,-1,-1,290,-1,9,-1,-1,-1,-1,,9999,0,0,2,FEW 15   SCT 25,-1,1,-1,8,1023,RJOF 111000Z 29009KT 9999 FEW015 SCT025 M01/M08 Q1023 RMK     1CU015 3CU025 A3022=,
20180111_110000.003,0,RJOF,,,,0,20180111110000,-1,-1,-1,-1,290,-1,9,-1,-1,-1,-1,,9999,0,0,2,FEW 15   SCT 30,-1,1,-1,8,1023,RJOF 111100Z 29009KT 9999 FEW015 SCT030 M01/M08 Q1023 RMK     1CU015 3CU030 A3023=,
20180111_120000.003,0,RJOF,,,,0,20180111120000,-1,-1,-1,-1,330,-1,6,-1,-1,-1,-1,,9999,0,0,2,FEW 20   SCT 50,-1,2,-1,7,1024,RJOF 111200Z 33006KT 9999 FEW020 SCT050 M02/M07 Q1024 RMK     1CU020 4SC050 A3024=,
20180111_130000.003,0,RJOF,,,,0,20180111130000,-1,-1,-1,-1,320,-1,9,-1,-1,-1,-1,,9999,0,0,1,FEW 20,-1,2,-1,6,1024,RJOF 111300Z 32009KT 9999 FEW020 M02/M06 Q1024 RMK 1CU020     A3025=,
20180111_140000.003,0,RJOF,,,,0,20180111140000,-1,-1,-1,-1,270,-1,9,-1,-1,-1,-1,,9999,0,1,3,FEW 15   SCT 20   BKN 30,-1,2,-1,6,1024,RJOF 111400Z 27009KT 9999 -SHSN FEW015 SCT020 BKN030 M02/M06     Q1024 RMK 1CU015 3CU020 6CU030 A3026=,- SN SH
20180111_150000.003,0,RJOF,,,,0,20180111150000,-1,-1,-1,-1,250,-1,5,-1,-1,-1,-1,,9999,0,0,2,FEW 15   SCT 30,-1,2,-1,7,1024,RJOF 111500Z 25005KT 9999 FEW015 SCT030 M02/M07 Q1024 RMK     1CU015 3CU030 A3026=,
20180111_160000.003,0,RJOF,,,,0,20180111160000,-1,-1,-1,-1,999,-1,2,-1,-1,-1,-1,,9999,0,0,2,FEW 15   BKN 40,-1,2,-1,7,1024,RJOF 111600Z VRB02KT 9999 FEW015 BKN040 M02/M07 Q1024 RMK     1CU015 6CU040 A3027=,
20180111_170000.003,0,RJOF,,,,0,20180111170000,-1,-1,-1,-1,310,-1,6,-1,-1,260,340,,9999,0,0,2,FEW 15   SCT 40,-1,2,-1,8,1025,RJOF 111700Z 31006KT 260V340 9999 FEW015 SCT040 M02/M08 Q1025     RMK 1CU015 3CU040 A3027=,
20180111_180000.003,0,RJOF,,,,0,20180111180000,-1,-1,-1,-1,360,-1,2,-1,-1,-1,-1,,9999,0,0,2,FEW 20   SCT 40,-1,3,-1,9,1025,RJOF 111800Z 36002KT 9999 FEW020 SCT040 M03/M09 Q1025 RMK     1CU020 3CU040 A3027=,
20180111_190000.003,0,RJOF,,,,0,20180111190000,-1,-1,-1,-1,999,-1,1,-1,-1,-1,-1,,9999,0,0,1,FEW 20,-1,3,-1,8,1025,RJOF 111900Z VRB01KT 9999 FEW020 M03/M08 Q1025 RMK 1CU020     A3027=,
20180111_200000.003,0,RJOF,,,,0,20180111200000,-1,-1,-1,-1,999,-1,2,-1,-1,-1,-1,,9999,0,0,1,FEW 20,-1,4,-1,7,1025,RJOF 112000Z VRB02KT 9999 FEW020 M04/M07 Q1025 RMK 1CU020     A3028=,
20180111_210000.003,0,RJOF,,,,0,20180111210000,-1,-1,-1,-1,290,-1,12,-1,-1,-1,-1,,9999,0,1,2,FEW 20   SCT 35,-1,2,-1,7,1025,RJOF 112100Z 29012KT 9999 -SHSN FEW020 SCT035 M02/M07 Q1025     RMK 1CU020 3CU035 A3029 03/M05 R000 S000=,- SN SH
20180111_220000.004,0,RJOF,,,,0,20180111220000,-1,-1,-1,-1,290,-1,10,-1,-1,-1,-1,,9999,0,1,2,FEW 10   BKN 30,-1,2,-1,6,1026,RJOF 112200Z 29010KT 9999 -SHSN FEW010 BKN030 M02/M06 Q1026     RMK 1CU010 5CU030 A3032=,- SN SH
20180111_230000.003,0,RJOF,,,,0,20180111230000,-1,-1,-1,-1,270,-1,6,-1,-1,-1,-1,,9999,0,1,2,FEW 10   BKN 45,-1,2,-1,5,1027,RJOF 112300Z 27006KT 9999 -SHSN FEW010 BKN045 M02/M05 Q1027     RMK 1CU010 5CU045 A3034=,- SN SH
20180112_000000.003,0,RJOF,,,,0,20180112000000,-1,-1,-1,-1,280,-1,11,-1,-1,-1,-1,,9999,0,1,2,FEW 10   BKN 45,-1,1,-1,6,1027,RJOF 120000Z 28011KT 9999 -SHSN FEW010 BKN045 M01/M06 Q1027     RMK 1CU010 5CU045 A3033=,- SN SH
20180112_010000.004,0,RJOF,,,,0,20180112010000,-1,-1,-1,-1,280,-1,9,-1,-1,-1,-1,,9999,0,0,2,FEW 10   SCT 45,1,0,-1,7,1027,RJOF 120100Z 28009KT 9999 FEW010 SCT045 00/M07 Q1027 RMK     1CU010 4CU045 A3034=,
20180112_020000.003,0,RJOF,,,,0,20180112020000,-1,-1,-1,-1,260,-1,9,-1,-1,230,290,,9999,0,0,1,FEW 25,1,1,-1,7,1027,RJOF 120200Z 26009KT 230V290 9999 FEW025 01/M07 Q1027 RMK     1CU025 A3034=,
20180112_030000.003,0,RJOF,,,,0,20180112030000,-1,-1,-1,-1,270,-1,8,-1,-1,-1,-1,,9999,0,0,2,FEW 25   SCT 30,1,2,-1,8,1026,RJOF 120300Z 27008KT 9999 FEW025 SCT030 02/M08 Q1026 RMK     1CU025 3CU030 A3031=,
20180112_040000.003,0,RJOF,,,,0,20180112040000,-1,-1,-1,-1,250,-1,12,-1,-1,-1,-1,,9999,0,0,2,FEW 25   SCT 35,1,1,-1,8,1025,RJOF 120400Z 25012KT 9999 FEW025 SCT035 01/M08 Q1025 RMK     1CU025 4CU035 A3029 VIRGA SE=,
20180112_050000.004,0,RJOF,,,,0,20180112050000,-1,-1,-1,-1,250,-1,13,-1,-1,-1,-1,,9999,0,1,2,FEW 25   SCT 35,1,3,-1,7,1025,RJOF 120500Z 25013KT 9999 -SHSN FEW025 SCT035 03/M07 Q1025 RMK     1CU025 4CU035 A3028=,- SN SH
20180112_060000.003,0,RJOF,,,,0,20180112060000,-1,-1,-1,-1,260,-1,13,-1,-1,-1,-1,,9999,0,1,2,FEW 25   SCT 35,1,3,-1,8,1025,RJOF 120600Z 26013KT 9999 -SHSN FEW025 SCT035 03/M08 Q1025 RMK     1CU025 3CU035 A3029=,- SN SH
20180112_070000.004,0,RJOF,,,,0,20180112070000,-1,-1,-1,-1,270,-1,6,-1,-1,-1,-1,,9999,0,1,2,FEW 25   SCT 35,1,2,-1,7,1026,RJOF 120700Z 27006KT 9999 -SHSN FEW025 SCT035 02/M07 Q1026 RMK     1CU025 3CU035 A3030=,- SN SH
20180112_080000.003,0,RJOF,,,,0,20180112080000,-1,-1,-1,-1,280,-1,10,-1,-1,-1,-1,,9999,0,1,2,FEW 25   SCT 35,1,0,-1,7,1026,RJOF 120800Z 28010KT 9999 -SHSN FEW025 SCT035 00/M07 Q1026 RMK     1CU025 3CU035 A3032=,- SN SH
20180112_090000.003,0,RJOF,,,,0,20180112090000,-1,-1,-1,-1,290,-1,7,-1,-1,-1,-1,,9999,0,1,2,FEW 25   SCT 35,-1,1,-1,7,1027,RJOF 120900Z 29007KT 9999 -SHSN FEW025 SCT035 M01/M07 Q1027     RMK 1CU025 3CU035 A3034=,- SN SH
20180112_100000.003,0,RJOF,,,,0,20180112100000,-1,-1,-1,-1,250,-1,6,-1,-1,-1,-1,,9999,0,1,2,FEW 25   SCT 40,-1,1,-1,7,1027,RJOF 121000Z 25006KT 9999 -SHSN FEW025 SCT040 M01/M07 Q1027     RMK 1CU025 4CU040 A3035=,- SN SH
20180112_110000.003,0,RJOF,,,,0,20180112110000,-1,-1,-1,-1,280,-1,3,-1,-1,-1,-1,,9999,0,1,2,FEW 25   SCT 40,-1,1,-1,6,1028,RJOF 121100Z 28003KT 9999 -SHSN FEW025 SCT040 M01/M06 Q1028     RMK 1CU025 3CU040 A3036=,- SN SH
20180112_120000.003,0,RJOF,,,,0,20180112120000,-1,-1,-1,-1,10,-1,3,-1,-1,-1,-1,,9999,0,0,1,FEW 25,-1,3,-1,6,1028,RJOF 121200Z 01003KT 9999 FEW025 M03/M06 Q1028 RMK 1CU025     A3037=,
20180112_130000.003,0,RJOF,,,,0,20180112130000,-1,-1,-1,-1,0,-1,0,-1,-1,-1,-1,,9999,0,0,1,FEW 30,-1,2,-1,6,1028,RJOF 121300Z 00000KT 9999 FEW030 M02/M06 Q1028 RMK 1CU030     A3038=,
20180112_140000.003,0,RJOF,,,,0,20180112140000,-1,-1,-1,-1,999,-1,1,-1,-1,-1,-1,,9999,0,0,1,FEW 40,-1,3,-1,6,1028,RJOF 121400Z VRB01KT 9999 FEW040 M03/M06 Q1028 RMK 1CU040     A3038=,
20180112_150000.003,0,RJOF,,,,0,20180112150000,-1,-1,-1,-1,999,-1,1,-1,-1,-1,-1,,9999,0,0,1,FEW 40,-1,3,-1,6,1028,RJOF 121500Z VRB01KT 9999 FEW040 M03/M06 Q1028 RMK 1CU040     A3038=,
20180112_160000.003,0,RJOF,,,,0,20180112160000,-1,-1,-1,-1,330,-1,2,-1,-1,-1,-1,,9999,0,0,1,FEW 40,-1,4,-1,6,1028,RJOF 121600Z 33002KT 9999 FEW040 M04/M06 Q1028 RMK 1CU040     A3038=,
20180112_170000.003,0,RJOF,,,,0,20180112170000,-1,-1,-1,-1,999,-1,1,-1,-1,-1,-1,,9999,0,0,1,FEW 40,-1,6,-1,7,1028,RJOF 121700Z VRB01KT 9999 FEW040 M06/M07 Q1028 RMK 1CU040     A3037=,
20180112_180000.003,0,RJOF,,,,0,20180112180000,-1,-1,-1,-1,290,-1,3,-1,-1,260,320,,9999,0,0,1,FEW 40,-1,6,-1,9,1028,RJOF 121800Z 29003KT 260V320 9999 FEW040 M06/M09 Q1028 RMK     1CU040 A3037=,
20180112_190000.003,0,RJOF,,,,0,20180112190000,-1,-1,-1,-1,280,-1,9,-1,-1,-1,-1,,9999,0,0,1,FEW 40,-1,3,-1,7,1027,RJOF 121900Z 28009KT 9999 FEW040 M03/M07 Q1027 RMK 1CU040     A3035=,
20180112_200000.004,0,RJOF,,,,0,20180112200000,-1,-1,-1,-1,280,-1,9,-1,-1,-1,-1,,9999,0,0,1,FEW 30,-1,2,-1,6,1027,RJOF 122000Z 28009KT 9999 FEW030 M02/M06 Q1027 RMK 1CU030     A3035=,
20180112_210000.003,0,RJOF,,,,0,20180112210000,-1,-1,-1,-1,280,-1,5,-1,-1,-1,-1,,9999,0,0,1,FEW 30,-1,3,-1,6,1028,RJOF 122100Z 28005KT 9999 FEW030 M03/M06 Q1028 RMK 1CU030     A3036 03/M06 R000 S000=,
20180112_220000.003,0,RJOF,,,,0,20180112220000,-1,-1,-1,-1,250,-1,4,-1,-1,-1,-1,,9999,0,0,1,FEW 30,-1,2,-1,6,1028,RJOF 122200Z 25004KT 9999 FEW030 M02/M06 Q1028 RMK 1CU030     A3036=,
20180112_230000.003,0,RJOF,,,,0,20180112230000,-1,-1,-1,-1,999,-1,2,-1,-1,-1,-1,,9999,0,0,1,FEW 30,-1,2,-1,6,1028,RJOF 122300Z VRB02KT 9999 FEW030 M02/M06 Q1028 RMK 1CU030     A3037=,
20180113_000000.003,0,RJOF,,,,0,20180113000000,-1,-1,-1,-1,280,-1,12,-1,-1,-1,-1,,9999,0,0,1,FEW 30,1,1,-1,3,1029,RJOF 130000Z 28012KT 9999 FEW030 01/M03 Q1029 RMK 2CU030     A3040=,
20180113_010000.004,0,RJOF,,,,0,20180113010000,-1,-1,-1,-1,280,-1,14,-1,-1,-1,-1,,9999,0,0,1,FEW 20,1,3,-1,2,1029,RJOF 130100Z 28014KT 9999 FEW020 03/M02 Q1029 RMK 1CU020     A3041=,
20180113_020000.003,0,RJOF,,,,0,20180113020000,-1,-1,-1,-1,280,-1,14,-1,-1,-1,-1,,9999,0,0,2,FEW 20   SCT 45,1,5,-1,2,1030,RJOF 130200Z 28014KT 9999 FEW020 SCT045 05/M02 Q1030 RMK     1CU020 3CU045 A3042=,
20180113_030000.003,0,RJOF,,,,0,20180113030000,-1,-1,-1,-1,310,-1,10,-1,-1,-1,-1,,9999,0,0,3,FEW 20   SCT 30   BKN 45,1,4,-1,2,1029,RJOF 130300Z 31010KT 9999 FEW020 SCT030 BKN045 04/M02 Q1029     RMK 1CU020 4CU030 6SC045 A3041 VIS NE 9KM=,
20180113_040000.003,0,RJOF,,,,0,20180113040000,-1,-1,-1,-1,280,-1,10,-1,-1,250,310,,9999,0,0,2,FEW 20   SCT 30,1,5,-1,1,1029,RJOF 130400Z 28010KT 250V310 9999 FEW020 SCT030 05/M01 Q1029     RMK 1CU020 3CU030 A3039 VIS NE 9KM=,
20180113_050000.003,0,RJOF,,,,0,20180113050000,-1,-1,-1,-1,290,-1,13,-1,-1,-1,-1,,9999,0,0,3,FEW 20   SCT 30   BKN 45,1,4,-1,2,1029,RJOF 130500Z 29013KT 9999 FEW020 SCT030 BKN045 04/M02 Q1029     RMK 1CU020 3CU030 6SC045 A3039 VIS NE 9KM=,
20180113_060000.003,0,RJOF,,,,0,20180113060000,-1,-1,-1,-1,290,-1,11,-1,23,250,310,,9999,0,1,3,FEW 20   SCT 30   BKN 40,1,4,-1,1,1029,RJOF 130600Z 29011G23KT 250V310 9999 -SHRA FEW020 SCT030     BKN040 04/M01 Q1029 RMK 1CU020 4CU030 5CU040 A3039=,- RA SH
20180113_070000.003,0,RJOF,,,,0,20180113070000,-1,-1,-1,-1,290,-1,11,-1,-1,-1,-1,,9999,0,0,2,FEW 20   SCT 50,1,4,-1,2,1029,RJOF 130700Z 29011KT 9999 FEW020 SCT050 04/M02 Q1029 RMK     1CU020 4SC050 A3040=,
20180113_080000.003,0,RJOF,,,,0,20180113080000,-1,-1,-1,-1,260,-1,9,-1,-1,-1,-1,,9999,0,1,2,FEW 20   SCT 30,1,3,-1,1,1030,RJOF 130800Z 26009KT 9999 -SHSN FEW020 SCT030 03/M01 Q1030 RMK     1CU020 3CU030 A3042 VIS NE 9KM=,- SN SH
20180113_090000.003,0,RJOF,,,,0,20180113090000,-1,-1,-1,-1,310,-1,5,-1,-1,280,350,,9999,0,0,2,FEW 20   SCT 30,1,2,-1,1,1030,RJOF 130900Z 31005KT 280V350 9999 FEW020 SCT030 02/M01 Q1030     RMK 1CU020 3CU030 A3043=,
20180113_100000.003,0,RJOF,,,,0,20180113100000,-1,-1,-1,-1,260,-1,5,-1,-1,-1,-1,,9999,0,0,3,FEW 20   SCT 30   BKN 50,1,2,-1,1,1030,RJOF 131000Z 26005KT 9999 FEW020 SCT030 BKN050 02/M01 Q1030     RMK 1CU020 3CU030 5SC050 A3043=,
20180113_110000.003,0,RJOF,,,,0,20180113110000,-1,-1,-1,-1,250,-1,5,-1,-1,-1,-1,,9999,0,0,3,FEW 20   SCT 30   BKN 50,1,3,-1,1,1031,RJOF 131100Z 25005KT 9999 FEW020 SCT030 BKN050 03/M01 Q1031     RMK 1CU020 3CU030 7SC050 A3045=,
20180113_120000.003,0,RJOF,,,,0,20180113120000,-1,-1,-1,-1,340,-1,3,-1,-1,-1,-1,,9999,0,0,3,FEW 20   SCT 30   BKN 50,1,2,1,0,1031,RJOF 131200Z 34003KT 9999 FEW020 SCT030 BKN050 02/00 Q1031 RMK     1CU020 3CU030 7SC050 A3045=,
20180113_130000.003,0,RJOF,,,,0,20180113130000,-1,-1,-1,-1,230,-1,3,-1,-1,220,290,,9999,0,1,3,FEW 20   SCT 30   BKN 40,1,2,1,0,1031,RJOF 131300Z 23003KT 220V290 9999 -SHSNRA FEW020 SCT030 BKN040     02/00 Q1031 RMK 1CU020 3CU030 7CU040 A3045=,- SN RA SH
20180113_140000.004,0,RJOF,,,,0,20180113140000,-1,-1,-1,-1,340,-1,4,-1,-1,300,10,,9999,0,0,3,FEW 20   SCT 30   BKN 40,1,3,-1,1,1031,RJOF 131400Z 34004KT 300V010 9999 FEW020 SCT030 BKN040 03/M01     Q1031 RMK 1CU020 3CU030 7CU040 A3046=,
20180113_150000.003,0,RJOF,,,,0,20180113150000,-1,-1,-1,-1,20,-1,5,-1,-1,-1,-1,,9999,0,0,2,FEW 30   BKN 40,1,2,-1,0,1031,RJOF 131500Z 02005KT 9999 FEW030 BKN040 02/M00 Q1031 RMK     1CU030 7CU040 A3045=,
20180113_160000.003,0,RJOF,,,,0,20180113160000,-1,-1,-1,-1,999,-1,2,-1,-1,-1,-1,,9999,0,0,2,FEW 30   BKN 40,1,2,-1,0,1030,RJOF 131600Z VRB02KT 9999 FEW030 BKN040 02/M00 Q1030 RMK     1CU030 7CU040 A3043=,
20180113_170000.003,0,RJOF,,,,0,20180113170000,-1,-1,-1,-1,999,-1,2,-1,-1,-1,-1,,9999,0,0,2,FEW 30   BKN 40,1,2,1,0,1031,RJOF 131700Z VRB02KT 9999 FEW030 BKN040 02/00 Q1031 RMK 1CU030     7CU040 A3045=,
20180113_180000.003,0,RJOF,,,,0,20180113180000,-1,-1,-1,-1,10,-1,5,-1,-1,-1,-1,,9999,0,0,2,FEW 30   BKN 40,1,2,-1,0,1031,RJOF 131800Z 01005KT 9999 FEW030 BKN040 02/M00 Q1031 RMK     1CU030 7CU040 A3045=,
20180113_190000.004,0,RJOF,,,,0,20180113190000,-1,-1,-1,-1,10,-1,6,-1,-1,-1,-1,,9999,0,0,2,FEW 30   BKN 40,1,1,-1,0,1031,RJOF 131900Z 01006KT 9999 FEW030 BKN040 01/M00 Q1031 RMK     1CU030 7CU040 A3045=,
20180113_200000.004,0,RJOF,,,,0,20180113200000,-1,-1,-1,-1,360,-1,7,-1,-1,-1,-1,,9999,0,0,2,FEW 30   BKN 45,1,1,-1,1,1030,RJOF 132000Z 36007KT 9999 FEW030 BKN045 01/M01 Q1030 RMK     1CU030 7SC045 A3044=,
20180113_210000.003,0,RJOF,,,,0,20180113210000,-1,-1,-1,-1,20,-1,8,-1,-1,-1,-1,,9999,0,0,2,FEW 30   BKN 45,1,1,-1,1,1030,RJOF 132100Z 02008KT 9999 FEW030 BKN045 01/M01 Q1030 RMK     1CU030 7SC045 A3043 06/00 R000 S000=,
20180113_220000.003,0,RJOF,,,,0,20180113220000,-1,-1,-1,-1,360,-1,6,-1,-1,-1,-1,,9999,0,0,2,FEW 30   BKN 45,1,1,-1,2,1031,RJOF 132200Z 36006KT 9999 FEW030 BKN045 01/M02 Q1031 RMK     1CU030 7SC045 A3046=,
20180113_230000.003,0,RJOF,,,,0,20180113230000,-1,-1,-1,-1,360,-1,4,-1,-1,-1,-1,,9999,0,0,2,FEW 30   BKN 45,1,1,-1,2,1032,RJOF 132300Z 36004KT 9999 FEW030 BKN045 01/M02 Q1032 RMK     1CU030 7SC045 A3049=,
20180114_000000.004,0,RJOF,,,,0,20180114000000,-1,-1,-1,-1,10,-1,7,-1,-1,-1,-1,,9999,0,0,2,FEW 30   BKN 45,1,2,-1,1,1033,RJOF 140000Z 01007KT 9999 FEW030 BKN045 02/M01 Q1033 RMK     1CU030 7SC045 A3050=,
20180114_010000.003,0,RJOF,,,,0,20180114010000,-1,-1,-1,-1,10,-1,6,-1,-1,-1,-1,,9999,0,0,2,FEW 30   BKN 50,1,3,-1,1,1033,RJOF 140100Z 01006KT 9999 FEW030 BKN050 03/M01 Q1033 RMK     1CU030 7SC050 A3052=,
20180114_020000.003,0,RJOF,,,,0,20180114020000,-1,-1,-1,-1,100,-1,8,-1,-1,-1,-1,,9999,0,0,3,FEW 30   SCT 50   BKN 230,1,6,-1,2,1032,RJOF 140200Z 10008KT 9999 FEW030 SCT050 BKN230 06/M02 Q1032     RMK 1CU030 3SC050 A3048=,
20180114_030000.003,0,RJOF,,,,0,20180114030000,-1,-1,-1,-1,110,-1,8,-1,-1,-1,-1,,9999,0,0,2,FEW 30   BKN 230,1,7,-1,2,1031,RJOF 140300Z 11008KT 9999 FEW030 BKN230 07/M02 Q1031 RMK     1CU030 A3045=,
20180114_040000.003,0,RJOF,,,,0,20180114040000,-1,-1,-1,-1,120,-1,6,-1,-1,70,150,,9999,0,0,3,FEW 30   BKN 45   BKN 230,1,7,-1,3,1030,RJOF 140400Z 12006KT 070V150 9999 FEW030 BKN045 BKN230 07/M03     Q1030 RMK 1CU030 5SC045 A3043=,
20180114_050000.003,0,RJOF,,,,0,20180114050000,-1,-1,-1,-1,160,-1,4,-1,-1,100,210,,9999,0,0,3,FEW 30   SCT 45   BKN 200,1,7,-1,5,1029,RJOF 140500Z 16004KT 100V210 9999 FEW030 SCT045 BKN200 07/M05     Q1029 RMK 1CU030 3SC045 A3039=,
20180114_060000.004,0,RJOF,,,,0,20180114060000,-1,-1,-1,-1,160,-1,7,-1,-1,130,200,,9999,0,0,3,FEW 30   SCT 180   BKN 200,1,7,-1,5,1029,RJOF 140600Z 16007KT 130V200 9999 FEW030 SCT180 BKN200 07/M05     Q1029 RMK 1CU030 3AC180 A3039=,
20180114_070000.003,0,RJOF,,,,0,20180114070000,-1,-1,-1,-1,180,-1,5,-1,-1,150,210,,9999,0,0,3,FEW 30   BKN 180   BKN 200,1,7,-1,5,1029,RJOF 140700Z 18005KT 150V210 9999 FEW030 BKN180 BKN200 07/M05     Q1029 RMK 1CU030 5AC180 A3039=,
20180114_080000.003,0,RJOF,,,,0,20180114080000,-1,-1,-1,-1,999,-1,2,-1,-1,-1,-1,,9999,0,0,3,FEW 30   BKN 180   BKN 200,1,6,-1,4,1029,RJOF 140800Z VRB02KT 9999 FEW030 BKN180 BKN200 06/M04 Q1029     RMK 1CU030 5AC180 A3040=,
20180114_090000.003,0,RJOF,,,,0,20180114090000,-1,-1,-1,-1,999,-1,1,-1,-1,-1,-1,,9999,0,0,3,FEW 30   BKN 160   BKN 200,1,5,-1,4,1029,RJOF 140900Z VRB01KT 9999 FEW030 BKN160 BKN200 05/M04 Q1029     RMK 1CU030 5AC160 A3039=,
20180114_100000.003,0,RJOF,,,,0,20180114100000,-1,-1,-1,-1,10,-1,5,-1,-1,-1,-1,,9999,0,0,1,FEW 30,1,2,-1,1,1029,RJOF 141000Z 01005KT 9999 FEW030 02/M01 Q1029 RMK 1CU030     A3039=,
20180114_110000.003,0,RJOF,,,,0,20180114110000,-1,-1,-1,-1,10,-1,5,-1,-1,-1,-1,,9999,0,0,1,FEW 30,1,1,-1,1,1029,RJOF 141100Z 01005KT 9999 FEW030 01/M01 Q1029 RMK 1CU030     A3041=,
20180114_120000.003,0,RJOF,,,,0,20180114120000,-1,-1,-1,-1,360,-1,6,-1,-1,-1,-1,,9999,0,0,1,FEW 30,1,1,-1,1,1030,RJOF 141200Z 36006KT 9999 FEW030 01/M01 Q1030 RMK 1CU030     A3042=,
20180114_130000.004,0,RJOF,,,,0,20180114130000,-1,-1,-1,-1,10,-1,6,-1,-1,-1,-1,,9999,0,0,1,FEW 30,-1,0,-1,2,1029,RJOF 141300Z 01006KT 9999 FEW030 M00/M02 Q1029 RMK 1CU030     A3040=,
20180114_140000.003,0,RJOF,,,,0,20180114140000,-1,-1,-1,-1,350,-1,5,-1,-1,-1,-1,,9999,0,0,1,FEW 40,-1,0,-1,2,1029,RJOF 141400Z 35005KT 9999 FEW040 M00/M02 Q1029 RMK 1SC040     A3039=,
20180114_150000.003,0,RJOF,,,,0,20180114150000,-1,-1,-1,-1,10,-1,5,-1,-1,-1,-1,,9999,0,0,1,FEW 40,-1,0,-1,2,1028,RJOF 141500Z 01005KT 9999 FEW040 M00/M02 Q1028 RMK 1SC040     A3038=,
20180114_160000.003,0,RJOF,,,,0,20180114160000,-1,-1,-1,-1,360,-1,6,-1,-1,-1,-1,,9999,0,0,1,FEW 40,-1,0,-1,2,1028,RJOF 141600Z 36006KT 9999 FEW040 M00/M02 Q1028 RMK 1SC040     A3036=,
20180114_170000.003,0,RJOF,,,,0,20180114170000,-1,-1,-1,-1,360,-1,5,-1,-1,-1,-1,,9999,0,0,1,FEW 40,-1,0,-1,2,1027,RJOF 141700Z 36005KT 9999 FEW040 M00/M02 Q1027 RMK 1SC040     A3035=,
20180114_180000.004,0,RJOF,,,,0,20180114180000,-1,-1,-1,-1,999,-1,2,-1,-1,-1,-1,,9999,0,0,1,FEW 40,-1,1,-1,3,1027,RJOF 141800Z VRB02KT 9999 FEW040 M01/M03 Q1027 RMK 1SC040     A3035=,
20180114_190000.003,0,RJOF,,,,0,20180114190000,-1,-1,-1,-1,350,-1,3,-1,-1,-1,-1,,9999,0,0,1,FEW 40,-1,1,-1,3,1027,RJOF 141900Z 35003KT 9999 FEW040 M01/M03 Q1027 RMK 1SC040     A3035=,
20180114_200000.004,0,RJOF,,,,0,20180114200000,-1,-1,-1,-1,10,-1,6,-1,-1,-1,-1,,9999,0,0,1,FEW 40,-1,1,-1,2,1027,RJOF 142000Z 01006KT 9999 FEW040 M01/M02 Q1027 RMK 1SC040     A3034=,
20180114_210000.003,0,RJOF,,,,0,20180114210000,-1,-1,-1,-1,360,-1,7,-1,-1,-1,-1,,9999,0,0,1,FEW 40,-1,0,-1,2,1027,RJOF 142100Z 36007KT 9999 FEW040 M00/M02 Q1027 RMK 1SC040     A3033 09/M02=,
20180114_220000.003,0,RJOF,,,,0,20180114220000,-1,-1,-1,-1,10,-1,7,-1,-1,-1,-1,,9999,0,0,2,FEW 40   BKN 45,1,0,-1,1,1027,RJOF 142200Z 01007KT 9999 FEW040 BKN045 00/M01 Q1027 RMK     1SC040 6SC045 A3033=,
20180114_230000.003,0,RJOF,,,,0,20180114230000,-1,-1,-1,-1,340,-1,5,-1,-1,-1,-1,,9999,0,0,2,FEW 40   BKN 45,1,1,-1,1,1027,RJOF 142300Z 34005KT 9999 FEW040 BKN045 01/M01 Q1027 RMK     1SC040 6SC045 A3033=,
20180115_000000.003,0,RJOF,,,,0,20180115000000,-1,-1,-1,-1,350,-1,5,-1,-1,-1,-1,,9999,0,1,3,FEW 30   BKN 40   BKN 70,1,2,1,0,1027,RJOF 150000Z 35005KT 9999 -SHRA FEW030 BKN040 BKN070 02/00     Q1027 RMK 1CU030 6CU040 7AC070 A3034=,- RA SH
20180115_010000.003,0,RJOF,,,,0,20180115010000,-1,-1,-1,-1,330,-1,5,-1,-1,-1,-1,,9999,0,0,3,FEW 15   BKN 40   BKN 70,1,4,1,2,1027,RJOF 150100Z 33005KT 9999 FEW015 BKN040 BKN070 04/02 Q1027 RMK     1CU015 5CU040 7AC070 A3035=,
20180115_020000.003,0,RJOF,,,,0,20180115020000,-1,-1,-1,-1,350,-1,3,-1,-1,-1,-1,,9999,0,1,2,FEW 15   BKN 35,1,5,1,3,1027,RJOF 150200Z 35003KT 9999 -SHRA FEW015 BKN035 05/03 Q1027 RMK     2CU015 7CU035 A3034 VIS W 9KM=,- RA SH
20180115_030000.003,0,RJOF,,,,0,20180115030000,-1,-1,-1,-1,360,-1,4,-1,-1,-1,-1,,9999,0,1,2,FEW 15   BKN 35,1,6,1,5,1026,RJOF 150300Z 36004KT 9999 -SHRA FEW015 BKN035 06/05 Q1026 RMK     2CU015 7CU035 A3030=,- RA SH
20180115_040000.003,0,RJOF,,,,0,20180115040000,-1,-1,-1,-1,360,-1,3,-1,-1,-1,-1,,9999,0,0,3,FEW 15   BKN 35   BKN 50,1,7,1,6,1024,RJOF 150400Z 36003KT 9999 FEW015 BKN035 BKN050 07/06 Q1024 RMK     2CU015 6CU035 7SC050 A3027=,
20180115_050000.003,0,RJOF,,,,0,20180115050000,-1,-1,-1,-1,340,-1,4,-1,-1,-1,-1,,9999,0,0,2,FEW 15   BKN 40,1,9,1,7,1024,RJOF 150500Z 34004KT 9999 FEW015 BKN040 09/07 Q1024 RMK 1CU015     6CU040 A3025=,
20180115_060000.003,0,RJOF,,,,0,20180115060000,-1,-1,-1,-1,999,-1,2,-1,-1,-1,-1,,9999,0,0,2,FEW 15   SCT 40,1,11,1,7,1024,RJOF 150600Z VRB02KT 9999 FEW015 SCT040 11/07 Q1024 RMK 1CU015     3CU040 A3024=,
20180115_070000.005,0,RJOF,,,,0,20180115070000,-1,-1,-1,-1,90,-1,5,-1,-1,-1,-1,,9999,0,0,2,FEW 15   BKN 50,1,10,1,6,1024,RJOF 150700Z 09005KT 9999 FEW015 BKN050 10/06 Q1024 RMK 1CU015     5SC050 A3025=,
20180115_080000.003,0,RJOF,,,,0,20180115080000,-1,-1,-1,-1,0,-1,0,-1,-1,-1,-1,,9999,0,0,2,FEW 15   SCT 50,1,9,1,6,1025,RJOF 150800Z 00000KT 9999 FEW015 SCT050 09/06 Q1025 RMK 1CU015     3SC050 A3027=,
20180115_090000.003,0,RJOF,,,,0,20180115090000,-1,-1,-1,-1,90,-1,2,-1,-1,-1,-1,,9999,0,0,2,FEW 25   SCT 50,1,7,1,6,1025,RJOF 150900Z 09002KT 9999 FEW025 SCT050 07/06 Q1025 RMK 1CU025     3SC050 A3027=,
20180115_100000.003,0,RJOF,,,,0,20180115100000,-1,-1,-1,-1,10,-1,5,-1,-1,-1,-1,,9999,0,0,1,FEW 25,1,6,1,5,1024,RJOF 151000Z 01005KT 9999 FEW025 06/05 Q1024 RMK 1CU025 A3027=,
20180115_110000.003,0,RJOF,,,,0,20180115110000,-1,-1,-1,-1,360,-1,5,-1,-1,-1,-1,,9999,0,0,1,FEW 20,1,5,1,4,1024,RJOF 151100Z 36005KT 9999 FEW020 05/04 Q1024 RMK 1CU020 A3027=,
20180115_120000.003,0,RJOF,,,,0,20180115120000,-1,-1,-1,-1,10,-1,7,-1,-1,-1,-1,,9999,0,0,1,FEW 25,1,4,1,3,1025,RJOF 151200Z 01007KT 9999 FEW025 04/03 Q1025 RMK 1CU025 A3028=,
20180115_130000.003,0,RJOF,,,,0,20180115130000,-1,-1,-1,-1,20,-1,4,-1,-1,360,60,,9999,0,1,2,FEW 25   SCT 40,1,4,1,3,1025,RJOF 151300Z 02004KT 360V060 9999 PRFG FEW025 SCT040 04/03     Q1025 RMK 1CU025 3CU040 A3027 VIS N-NE 7KM FG BANK 7KM           N-NE=,PR FG
20180115_140000.003,0,RJOF,,,,0,20180115140000,-1,-1,-1,-1,360,-1,7,-1,-1,-1,-1,,9999,0,1,1,FEW 25,1,3,1,2,1025,RJOF 151400Z 36007KT 9999 PRFG FEW025 03/02 Q1025 RMK 1CU025     A3027 VIS N-NE 5KM FG BANK 5KM N-NE=,PR FG
20180115_150000.003,0,RJOF,,,,0,20180115150000,-1,-1,-1,-1,360,-1,6,-1,-1,-1,-1,,7000,0,1,1,FEW 25,1,2,1,1,1024,RJOF 151500Z 36006KT 7000 PRFG FEW025 02/01 Q1024 RMK 1CU025     A3027 VIS W-NE 4000M FG BANK 4000M W-NE=,PR FG
20180115_160000.003,0,RJOF,,,,0,20180115160000,-1,-1,-1,-1,10,-1,5,-1,-1,-1,-1,,7000,0,1,1,FEW 8,1,2,1,1,1024,RJOF 151600Z 01005KT 7000 PRFG FEW008 02/01 Q1024 RMK 1ST008     A3025 VIS NW-N 3000M FG BANK 3000M NW-N=,PR FG
20180115_170000.003,0,RJOF,,,,0,20180115170000,-1,-1,-1,-1,10,-1,6,-1,-1,-1,-1,,6000,0,1,1,FEW 8,1,2,1,1,1024,RJOF 151700Z 01006KT 6000 PRFG FEW008 02/01 Q1024 RMK 1ST008     A3025 VIS N-NE 4000M FG BANK 4000M N-NE=,PR FG
20180115_180000.003,0,RJOF,,,,0,20180115180000,-1,-1,-1,-1,360,-1,3,-1,-1,290,30,,6000,0,1,2,FEW 6   SCT 10,1,2,1,1,1023,RJOF 151800Z 36003KT 290V030 6000 PRFG FEW006 SCT010 02/01     Q1023 RMK 1ST006 3CU010 A3023 VIS NW-NE 4000M FG BANK           4000M NW-NE=,PR FG
20180115_190000.003,0,RJOF,,,,0,20180115190000,-1,-1,-1,-1,340,-1,3,-1,-1,270,20,,7000,0,1,2,FEW 6   BKN 9,1,2,1,1,1023,RJOF 151900Z 34003KT 270V020 7000 PRFG FEW006 BKN009 02/01     Q1023 RMK 1ST006 6ST009 A3022 VIS NW-N 5KM FG BANK 5KM           NW-N=,PR FG
20180115_200000.003,0,RJOF,,,,0,20180115200000,-1,-1,-1,-1,10,-1,5,-1,-1,-1,-1,,8000,0,1,1,FEW 6,1,1,1,1,1022,RJOF 152000Z 01005KT 8000 PRFG FEW006 01/01 Q1022 RMK 1ST006     A3021 VIS N 5KM FG BANK 5KM N=,PR FG
20180115_210000.003,0,RJOF,,,,0,20180115210000,-1,-1,-1,-1,360,-1,4,-1,-1,310,30,,9000,0,1,1,FEW 6,1,2,1,1,1023,RJOF 152100Z 36004KT 310V030 9000 PRFG FEW006 02/01 Q1023 RMK     1ST006 A3022 VIS N-NE 6KM FG BANK 6KM N-NE 11/01 R000=,PR FG
20180115_220000.003,0,RJOF,,,,0,20180115220000,-1,-1,-1,-1,10,-1,6,-1,-1,-1,-1,,8000,0,0,2,FEW 6   SCT 10,1,2,1,1,1022,RJOF 152200Z 01006KT 8000 FEW006 SCT010 02/01 Q1022 RMK 1ST006     3ST010 A3021=,
20180115_230000.003,0,RJOF,,,,0,20180115230000,-1,-1,-1,-1,360,-1,4,-1,-1,-1,-1,,8000,0,0,2,FEW 6   BKN 30,1,3,1,2,1023,RJOF 152300Z 36004KT 8000 FEW006 BKN030 03/02 Q1023 RMK 1ST006     5CU030 A3021=,
20180116_000000.003,0,RJOF,,,,0,20180116000000,-1,-1,-1,-1,360,-1,4,-1,-1,-1,-1,,9999,0,0,1,FEW 12,1,5,1,4,1022,RJOF 160000Z 36004KT 9999 FEW012 05/04 Q1022 RMK 1CU012 A3020=,
20180116_010000.003,0,RJOF,,,,0,20180116010000,-1,-1,-1,-1,10,-1,3,-1,-1,-1,-1,,9999,0,0,1,FEW 10,1,10,1,8,1022,RJOF 160100Z 01003KT 9999 FEW010 10/08 Q1022 RMK 1CU010 A3020=,
20180116_020000.003,0,RJOF,,,,0,20180116020000,-1,-1,-1,-1,90,-1,10,-1,-1,-1,-1,,9999,0,0,2,FEW 12   SCT 80,1,12,1,8,1022,RJOF 160200Z 09010KT 9999 FEW012 SCT080 12/08 Q1022 RMK 1CU012     3AC080 A3019=,
20180116_030000.003,0,RJOF,,,,0,20180116030000,-1,-1,-1,-1,90,-1,9,-1,-1,-1,-1,,9999,0,0,2,FEW 12   SCT 80,1,13,1,9,1020,RJOF 160300Z 09009KT 9999 FEW012 SCT080 13/09 Q1020 RMK 1CU012     3AC080 A3014=,
20180116_040000.003,0,RJOF,,,,0,20180116040000,-1,-1,-1,-1,110,-1,8,-1,-1,70,140,,9999,0,0,1,FEW 15,1,14,1,9,1019,RJOF 160400Z 11008KT 070V140 9999 FEW015 14/09 Q1019 RMK     1CU015 A3009=,
20180116_050000.003,0,RJOF,,,,0,20180116050000,-1,-1,-1,-1,90,-1,8,-1,-1,60,130,,9999,0,0,2,FEW 15   SCT 70,1,14,1,9,1017,RJOF 160500Z 09008KT 060V130 9999 FEW015 SCT070 14/09 Q1017     RMK 1CU015 4AC070 A3005=,
20180116_060000.003,0,RJOF,,,,0,20180116060000,-1,-1,-1,-1,90,-1,5,-1,-1,20,150,,9999,0,0,2,FEW 30   SCT 70,1,15,1,9,1017,RJOF 160600Z 09005KT 020V150 9999 FEW030 SCT070 15/09 Q1017     RMK 1CU030 3AC070 A3003=,
20180116_070000.003,0,RJOF,,,,0,20180116070000,-1,-1,-1,-1,90,-1,9,-1,-1,-1,-1,,9999,0,0,2,FEW 30   SCT 100,1,15,1,9,1016,RJOF 160700Z 09009KT 9999 FEW030 SCT100 15/09 Q1016 RMK 1CU030     3AC100 A3001=,
20180116_080000.003,0,RJOF,,,,0,20180116080000,-1,-1,-1,-1,100,-1,6,-1,-1,70,150,,9999,0,0,2,FEW 30   BKN 100,1,14,1,9,1016,RJOF 160800Z 10006KT 070V150 9999 FEW030 BKN100 14/09 Q1016     RMK 1CU030 6AC100 A3000=,
20180116_090000.003,0,RJOF,,,,0,20180116090000,-1,-1,-1,-1,80,-1,10,-1,-1,-1,-1,,9999,0,0,2,FEW 30   BKN 90,1,14,1,10,1014,RJOF 160900Z 08010KT 9999 FEW030 BKN090 14/10 Q1014 RMK 1CU030     7AC090 A2997=,
20180116_100000.003,0,RJOF,,,,0,20180116100000,-1,-1,-1,-1,999,-1,2,-1,-1,-1,-1,,9999,0,1,3,FEW 30   BKN 50   OVC 90,1,14,1,10,1015,RJOF 161000Z VRB02KT 9999 -RA FEW030 BKN050 OVC090 14/10 Q1015     RMK 1CU030 6SC050 8AS090 A2999=,- RA
20180116_110000.005,0,RJOF,,,,0,20180116110000,-1,-1,-1,-1,999,-1,1,-1,-1,-1,-1,,9999,0,1,3,FEW 30   BKN 50   OVC 90,1,12,1,11,1015,RJOF 161100Z VRB01KT 9999 -RA FEW030 BKN050 OVC090 12/11 Q1015     RMK 1CU030 6SC050 8AS090 A2999=,- RA
20180116_120000.003,0,RJOF,,,,0,20180116120000,-1,-1,-1,-1,60,-1,4,-1,-1,-1,-1,,9999,0,1,3,FEW 30   BKN 50   OVC 90,1,12,1,11,1015,RJOF 161200Z 06004KT 9999 -RA FEW030 BKN050 OVC090 12/11 Q1015     RMK 1CU030 6SC050 8AS090 A2998=,- RA
20180116_130000.003,0,RJOF,,,,0,20180116130000,-1,-1,-1,-1,90,-1,6,-1,-1,-1,-1,,9999,0,1,3,FEW 30   BKN 50   OVC 80,1,12,1,10,1014,RJOF 161300Z 09006KT 9999 -RA FEW030 BKN050 OVC080 12/10 Q1014     RMK 1CU030 6SC050 8AS080 A2997=,- RA
20180116_140000.003,0,RJOF,,,,0,20180116140000,-1,-1,-1,-1,90,-1,9,-1,-1,-1,-1,,9999,0,1,3,FEW 30   BKN 50   OVC 80,1,12,1,10,1013,RJOF 161400Z 09009KT 9999 -RA FEW030 BKN050 OVC080 12/10 Q1013     RMK 1CU030 6SC050 8AS080 A2994=,- RA
20180116_150000.003,0,RJOF,,,,0,20180116150000,-1,-1,-1,-1,100,-1,8,-1,-1,-1,-1,,9999,0,1,3,FEW 30   BKN 50   OVC 80,1,13,1,11,1013,RJOF 161500Z 10008KT 9999 -RA FEW030 BKN050 OVC080 13/11 Q1013     RMK 1CU030 6SC050 8AS080 A2993=,- RA
20180116_160000.003,0,RJOF,,,,0,20180116160000,-1,-1,-1,-1,90,-1,7,-1,-1,-1,-1,,9999,0,1,3,FEW 30   SCT 40   BKN 50,1,12,1,11,1012,RJOF 161600Z 09007KT 9999 RA FEW030 SCT040 BKN050 12/11 Q1012     RMK 1CU030 3CU040 6SC050 A2991=,RA
20180116_170000.003,0,RJOF,,,,0,20180116170000,-1,-1,-1,-1,90,-1,6,-1,-1,-1,-1,,9999,0,1,3,FEW 10   BKN 35   BKN 50,1,13,1,12,1013,RJOF 161700Z 09006KT 9999 -SHRA FEW010 BKN035 BKN050 13/12     Q1013 RMK 1CU010 5CU035 7SC050 A2992=,- RA SH
20180116_180000.003,0,RJOF,,,,0,20180116180000,-1,-1,-1,-1,110,-1,7,-1,-1,-1,-1,,9999,0,1,3,FEW 10   SCT 15   BKN 35,1,13,1,12,1012,RJOF 161800Z 11007KT 9999 -SHRA FEW010 SCT015 BKN035 13/12     Q1012 RMK 1CU010 3CU015 6CU035 A2989=,- RA SH
20180116_190000.003,0,RJOF,,,,0,20180116190000,-1,-1,-1,-1,110,-1,7,-1,-1,-1,-1,,9999,0,1,3,FEW 10   SCT 15   BKN 35,1,13,1,12,1011,RJOF 161900Z 11007KT 9999 -SHRA FEW010 SCT015 BKN035 13/12     Q1011 RMK 1CU010 3CU015 5CU035 A2988=,- RA SH
20180116_200000.003,0,RJOF,,,,0,20180116200000,-1,-1,-1,-1,999,-1,2,-1,-1,-1,-1,,9999,0,1,3,FEW 15   BKN 35   BKN 60,1,13,1,12,1011,RJOF 162000Z VRB02KT 9999 -SHRA FEW015 BKN035 BKN060 13/12     Q1011 RMK 2CU015 5CU035 7SC060 A2987=,- RA SH
20180116_210000.003,0,RJOF,,,,0,20180116210000,-1,-1,-1,-1,90,-1,4,-1,-1,60,120,,9999,0,1,3,FEW 15   BKN 35   BKN 60,1,13,1,12,1011,RJOF 162100Z 09004KT 060V120 9999 -SHRA FEW015 BKN035 BKN060     13/12 Q1011 RMK 1CU015 5CU035 7SC060 A2987 15/12 R018=,- RA SH
20180116_220000.003,0,RJOF,,,,0,20180116220000,-1,-1,-1,-1,90,-1,6,-1,-1,60,120,,9999,0,1,3,FEW 6   SCT 35   BKN 60,1,13,1,11,1011,RJOF 162200Z 09006KT 060V120 9999 -SHRA FEW006 SCT035 BKN060     13/11 Q1011 RMK 1ST006 3CU035 6SC060 A2986=,- RA SH
20180116_230000.003,0,RJOF,,,,0,20180116230000,-1,-1,-1,-1,100,-1,6,-1,-1,-1,-1,,9999,0,1,3,FEW 4   SCT 60   BKN 80,1,13,1,11,1011,RJOF 162300Z 10006KT 9999 -SHRA FEW004 SCT060 BKN080 13/11     Q1011 RMK 1ST004 3SC060 7AC080 A2987=,- RA SH
20180117_000000.004,0,RJOF,,,,0,20180117000000,-1,-1,-1,-1,80,-1,5,-1,-1,-1,-1,,9999,0,1,3,FEW 4   BKN 45   BKN 80,1,13,1,12,1011,RJOF 170000Z 08005KT 9999 -SHRA FEW004 BKN045 BKN080 13/12     Q1011 RMK 1ST004 6SC045 7AC080 A2987=,- RA SH
20180117_010000.003,0,RJOF,,,,0,20180117010000,-1,-1,-1,-1,60,-1,3,-1,-1,30,100,,9999,0,1,3,FEW 8   BKN 45   BKN 80,1,13,1,12,1011,RJOF 170100Z 06003KT 030V100 9999 -SHRA FEW008 BKN045 BKN080     13/12 Q1011 RMK 1ST008 6SC045 7AC080 A2988=,- RA SH
20180117_020000.006,0,RJOF,,,,0,20180117020000,-1,-1,-1,-1,80,-1,4,-1,-1,50,110,,9999,0,0,3,FEW 6   BKN 45   BKN 80,1,14,1,12,1011,RJOF 170200Z 08004KT 050V110 9999 FEW006 BKN045 BKN080 14/12     Q1011 RMK 1ST006 6SC045 7AC080 A2986=,
20180117_030000.004,0,RJOF,,,,0,20180117030000,-1,-1,-1,-1,999,-1,1,-1,-1,-1,-1,,9999,0,1,3,FEW 6   SCT 20   BKN 30,1,14,1,13,1010,RJOF 170300Z VRB01KT 9999 -SHRA FEW006 SCT020 BKN030 14/13     Q1010 RMK 1ST006 3CU020 6CU030 A2985=,- RA SH
20180117_040000.004,0,RJOF,,,,0,20180117040000,-1,-1,-1,-1,250,-1,7,-1,-1,-1,-1,,9999,0,1,3,FEW 8   BKN 10   BKN 35,1,14,1,13,1010,RJOF 170400Z 25007KT 9999 -SHRA FEW008 BKN010 BKN035 14/13     Q1010 RMK 1ST008 5CU010 7CU035 A2983 VIS SW-N 8KM=,- RA SH
20180117_050000.004,0,RJOF,,,,0,20180117050000,-1,-1,-1,-1,310,-1,10,-1,-1,-1,-1,,9999,0,1,3,FEW 8   SCT 20   BKN 35,1,14,1,11,1010,RJOF 170500Z 31010KT 9999 -SHRA FEW008 SCT020 BKN035 14/11     Q1010 RMK 1ST008 3CU020 5CU035 A2985=,- RA SH
20180117_060000.003,0,RJOF,,,,0,20180117060000,-1,-1,-1,-1,340,-1,6,-1,-1,-1,-1,,9999,0,1,3,FEW 10   BKN 40   BKN 50,1,13,1,10,1011,RJOF 170600Z 34006KT 9999 -SHRA FEW010 BKN040 BKN050 13/10     Q1011 RMK 2CU010 7CU040 7SC050 A2987=,- RA SH
20180117_070000.004,0,RJOF,,,,0,20180117070000,-1,-1,-1,-1,320,-1,11,-1,-1,290,350,,9999,0,0,3,FEW 15   BKN 20   BKN 50,1,13,1,9,1013,RJOF 170700Z 32011KT 290V350 9999 FEW015 BKN020 BKN050 13/09     Q1013 RMK 1CU015 6CU020 7SC050 A2991=,
20180117_080000.003,0,RJOF,,,,0,20180117080000,-1,-1,-1,-1,300,-1,9,-1,-1,-1,-1,,9999,0,0,2,FEW 15   BKN 35,1,12,1,8,1014,RJOF 170800Z 30009KT 9999 FEW015 BKN035 12/08 Q1014 RMK 1CU015     7CU035 A2996=,
20180117_090000.004,0,RJOF,,,,0,20180117090000,-1,-1,-1,-1,330,-1,6,-1,-1,-1,-1,,9999,0,0,2,FEW 15   BKN 35,1,11,1,8,1015,RJOF 170900Z 33006KT 9999 FEW015 BKN035 11/08 Q1015 RMK 1CU015     7CU035 A2998=,
20180117_100000.003,0,RJOF,,,,0,20180117100000,-1,-1,-1,-1,310,-1,5,-1,-1,-1,-1,,9999,0,0,2,FEW 20   BKN 35,1,10,1,7,1016,RJOF 171000Z 31005KT 9999 FEW020 BKN035 10/07 Q1016 RMK 1CU020     5CU035 A3002=,
20180117_110000.004,0,RJOF,,,,0,20180117110000,-1,-1,-1,-1,260,-1,4,-1,-1,240,300,,9999,0,0,2,FEW 20   BKN 40,1,9,1,7,1016,RJOF 171100Z 26004KT 240V300 9999 FEW020 BKN040 09/07 Q1016     RMK 1CU020 5CU040 A3003=,
20180117_120000.004,0,RJOF,,,,0,20180117120000,-1,-1,-1,-1,310,-1,5,-1,-1,-1,-1,,9999,0,0,2,FEW 35   BKN 45,1,8,1,7,1018,RJOF 171200Z 31005KT 9999 FEW035 BKN045 08/07 Q1018 RMK 1CU035     5SC045 A3007=,
20180117_130000.003,0,RJOF,,,,0,20180117130000,-1,-1,-1,-1,360,-1,3,-1,-1,-1,-1,,9999,0,0,3,FEW 20   SCT 30   BKN 45,1,9,1,7,1019,RJOF 171300Z 36003KT 9999 FEW020 SCT030 BKN045 09/07 Q1019 RMK     1CU020 3CU030 7SC045 A3009=,
20180117_140000.003,0,RJOF,,,,0,20180117140000,-1,-1,-1,-1,999,-1,2,-1,-1,-1,-1,,9999,0,0,1,FEW 30,1,8,1,7,1019,RJOF 171400Z VRB02KT 9999 FEW030 08/07 Q1019 RMK 1CU030 A3010=,
20180117_150000.003,0,RJOF,,,,0,20180117150000,-1,-1,-1,-1,999,-1,2,-1,-1,-1,-1,,9999,0,0,1,FEW 30,1,6,1,6,1018,RJOF 171500Z VRB02KT 9999 FEW030 06/06 Q1018 RMK 1CU030 A3009=,
20180117_160000.003,0,RJOF,,,,0,20180117160000,-1,-1,-1,-1,340,-1,3,-1,-1,-1,-1,,9999,0,0,1,FEW 30,1,5,1,5,1019,RJOF 171600Z 34003KT 9999 FEW030 05/05 Q1019 RMK 1CU030 A3009=,
20180117_170000.003,0,RJOF,,,,0,20180117170000,-1,-1,-1,-1,330,-1,4,-1,-1,-1,-1,,9999,0,0,1,FEW 45,1,5,1,4,1019,RJOF 171700Z 33004KT 9999 FEW045 05/04 Q1019 RMK 1SC045 A3009=,
20180117_180000.003,0,RJOF,,,,0,20180117180000,-1,-1,-1,-1,350,-1,6,-1,-1,-1,-1,,9999,0,1,1,FEW 2,1,5,1,4,1018,RJOF 171800Z 35006KT 9999 PRFG FEW002 05/04 Q1018 RMK 1ST002     A3008 VIS NE 5KM FG BANK 5KM NE=,PR FG
20180117_190000.004,0,RJOF,,,,0,20180117190000,-1,-1,-1,-1,50,-1,3,-1,-1,340,100,,9999,0,0,1,FEW 45,1,4,1,4,1018,RJOF 171900Z 05003KT 340V100 9999 FEW045 04/04 Q1018 RMK     1SC045 A3007=,
20180117_200000.003,0,RJOF,,,,0,20180117200000,-1,-1,-1,-1,320,-1,4,-1,-1,-1,-1,,9999,0,0,2,FEW 45   SCT -9999,1,4,1,3,1018,RJOF 172000Z 32004KT 9999 FEW045 SCT/// 04/03 Q1018 RMK 1SC045     A3008=,
20180117_210000.003,0,RJOF,,,,0,20180117210000,-1,-1,-1,-1,999,-1,1,-1,-1,-1,-1,,9999,0,0,1,SCT 45,1,4,1,4,1019,RJOF 172100Z VRB01KT 9999 SCT045 04/04 Q1019 RMK 4SC045 A3012     15/03 R003=,
20180117_220000.004,0,RJOF,,,,0,20180117220000,-1,-1,-1,-1,350,-1,3,-1,-1,310,10,,9999,0,0,2,FEW 40   BKN 45,1,5,1,4,1019,RJOF 172200Z 35003KT 310V010 9999 FEW040 BKN045 05/04 Q1019     RMK 2SC040 7SC045 A3010=,
20180117_230000.003,0,RJOF,,,,0,20180117230000,-1,-1,-1,-1,999,-1,2,-1,-1,-1,-1,,9999,0,0,2,FEW 3   BKN 45,1,5,1,4,1019,RJOF 172300Z VRB02KT 9999 FEW003 BKN045 05/04 Q1019 RMK 1ST003     7SC045 A3010 1ST003 N=,
20180118_000000.003,0,RJOF,,,,0,20180118000000,-1,-1,-1,-1,999,-1,2,-1,-1,-1,-1,,9999,0,1,2,FEW 3   BKN 35,1,6,1,5,1020,RJOF 180000Z VRB02KT 9999 -SHRA FEW003 BKN035 06/05 Q1020 RMK     1ST003 7CU035 A3014 1ST003 N=,- RA SH
20180118_010000.003,0,RJOF,,,,0,20180118010000,-1,-1,-1,-1,350,-1,3,-1,-1,300,10,,9999,0,0,2,FEW 20   BKN 45,1,7,1,6,1021,RJOF 180100Z 35003KT 300V010 9999 FEW020 BKN045 07/06 Q1021     RMK 1CU020 6SC045 A3015=,
20180118_020000.003,0,RJOF,,,,0,20180118020000,-1,-1,-1,-1,999,-1,1,-1,-1,-1,-1,,9999,0,0,2,FEW 25   SCT 50,1,10,1,8,1020,RJOF 180200Z VRB01KT 9999 FEW025 SCT050 10/08 Q1020 RMK 1CU025     3SC050 A3014=,
20180118_030000.004,0,RJOF,,,,0,20180118030000,-1,-1,-1,-1,230,-1,10,-1,-1,-1,-1,,9999,0,0,2,FEW 25   BKN 40,1,11,1,8,1020,RJOF 180300Z 23010KT 9999 FEW025 BKN040 11/08 Q1020 RMK 2CU025     6CU040 A3014=,
20180118_040000.003,0,RJOF,,,,0,20180118040000,-1,-1,-1,-1,230,-1,9,-1,-1,-1,-1,,9999,0,0,2,FEW 25   BKN 40,1,12,1,8,1020,RJOF 180400Z 23009KT 9999 FEW025 BKN040 12/08 Q1020 RMK 2CU025     5CU040 A3012=,
20180118_050000.003,0,RJOF,,,,0,20180118050000,-1,-1,-1,-1,190,-1,10,-1,-1,-1,-1,,9999,0,0,2,FEW 25   SCT 40,1,13,1,8,1019,RJOF 180500Z 19010KT 9999 FEW025 SCT040 13/08 Q1019 RMK 1CU025     4CU040 A3010=,
20180118_060000.003,0,RJOF,,,,0,20180118060000,-1,-1,-1,-1,230,-1,11,-1,-1,-1,-1,,9999,0,0,2,FEW 25   BKN 40,1,12,1,7,1019,RJOF 180600Z 23011KT 9999 FEW025 BKN040 12/07 Q1019 RMK 1CU025     6CU040 A3010=,
20180118_070000.003,0,RJOF,,,,0,20180118070000,-1,-1,-1,-1,250,-1,12,-1,-1,-1,-1,,9999,0,0,2,FEW 25   BKN 40,1,12,1,5,1019,RJOF 180700Z 25012KT 9999 FEW025 BKN040 12/05 Q1019 RMK 1CU025     7CU040 A3012=,
20180118_080000.003,0,RJOF,,,,0,20180118080000,-1,-1,-1,-1,260,-1,7,-1,-1,-1,-1,,9999,0,0,2,FEW 25   BKN 40,1,11,1,6,1020,RJOF 180800Z 26007KT 9999 FEW025 BKN040 11/06 Q1020 RMK 1CU025     7CU040 A3013=,
20180118_090000.003,0,RJOF,,,,0,20180118090000,-1,-1,-1,-1,340,-1,6,-1,-1,-1,-1,,9999,0,0,2,FEW 25   BKN 40,1,11,1,5,1020,RJOF 180900Z 34006KT 9999 FEW025 BKN040 11/05 Q1020 RMK 1CU025     7CU040 A3014=,
20180118_100000.003,0,RJOF,,,,0,20180118100000,-1,-1,-1,-1,300,-1,4,-1,-1,-1,-1,,9999,0,0,2,FEW 25   BKN 40,1,9,1,5,1021,RJOF 181000Z 30004KT 9999 FEW025 BKN040 09/05 Q1021 RMK 1CU025     7CU040 A3016=,
20180118_110000.003,0,RJOF,,,,0,20180118110000,-1,-1,-1,-1,280,-1,4,-1,-1,-1,-1,,9999,0,0,2,FEW 20   BKN 40,1,8,1,6,1021,RJOF 181100Z 28004KT 9999 FEW020 BKN040 08/06 Q1021 RMK 1CU020     7CU040 A3017=,
20180118_120000.003,0,RJOF,,,,0,20180118120000,-1,-1,-1,-1,999,-1,2,-1,-1,-1,-1,,9000,0,0,2,FEW 20   SCT 40,1,7,1,5,1022,RJOF 181200Z VRB02KT 9000 FEW020 SCT040 07/05 Q1022 RMK 1CU020     3CU040 A3018=,
20180118_130000.003,0,RJOF,,,,0,20180118130000,-1,-1,-1,-1,20,-1,3,-1,-1,330,40,,9000,0,0,1,FEW 40,1,6,1,4,1021,RJOF 181300Z 02003KT 330V040 9000 FEW040 06/04 Q1021 RMK     1CU040 A3017=,
20180118_140000.003,0,RJOF,,,,0,20180118140000,-1,-1,-1,-1,10,-1,7,-1,-1,-1,-1,,9000,0,0,1,FEW 40,1,6,1,4,1021,RJOF 181400Z 01007KT 9000 FEW040 06/04 Q1021 RMK 1CU040 A3018=,
20180118_150000.003,0,RJOF,,,,0,20180118150000,-1,-1,-1,-1,360,-1,7,-1,-1,-1,-1,,8000,0,0,1,FEW 40,1,5,1,4,1021,RJOF 181500Z 36007KT 8000 FEW040 05/04 Q1021 RMK 1CU040 A3017=,
20180118_160000.003,0,RJOF,,,,0,20180118160000,-1,-1,-1,-1,10,-1,8,-1,-1,-1,-1,,8000,0,0,1,FEW 40,1,4,1,3,1021,RJOF 181600Z 01008KT 8000 FEW040 04/03 Q1021 RMK 1CU040 A3017=,
20180118_170000.003,0,RJOF,,,,0,20180118170000,-1,-1,-1,-1,999,-1,2,-1,-1,-1,-1,,7000,0,0,1,FEW 40,1,3,1,2,1021,RJOF 181700Z VRB02KT 7000 FEW040 03/02 Q1021 RMK 1CU040 A3017=,
20180118_180000.003,0,RJOF,,,,0,20180118180000,-1,-1,-1,-1,999,-1,1,-1,-1,-1,-1,,6000,0,0,1,FEW 40,1,3,1,2,1021,RJOF 181800Z VRB01KT 6000 FEW040 03/02 Q1021 RMK 1CU040 A3017=,
20180118_190000.003,0,RJOF,,,,0,20180118190000,-1,-1,-1,-1,300,-1,3,-1,-1,-1,-1,,5000,0,1,1,FEW 40,1,3,1,2,1021,RJOF 181900Z 30003KT 5000 BR FEW040 03/02 Q1021 RMK 1CU040     A3017=,BR
20180118_200000.003,0,RJOF,,,,0,20180118200000,-1,-1,-1,-1,330,-1,4,-1,-1,300,10,,4000,0,1,1,FEW 40,1,3,1,2,1021,RJOF 182000Z 33004KT 300V010 4000 BR FEW040 03/02 Q1021 RMK     1CU040 A3016 VIS NE 2500M=,BR
20180118_210000.004,0,RJOF,,,,0,20180118210000,-1,-1,-1,-1,10,-1,4,-1,-1,-1,-1,,5000,0,1,1,FEW 40,1,2,1,1,1021,RJOF 182100Z 01004KT 5000 BR FEW040 02/01 Q1021 RMK 1CU040     A3017 14/01 R000=,BR
20180118_220000.003,0,RJOF,,,,0,20180118220000,-1,-1,-1,-1,999,-1,2,-1,-1,-1,-1,,7000,0,0,1,FEW 40,1,2,1,1,1022,RJOF 182200Z VRB02KT 7000 FEW040 02/01 Q1022 RMK 1CU040 A3019=,
20180118_230000.004,0,RJOF,,,,0,20180118230000,-1,-1,-1,-1,30,-1,7,-1,-1,-1,-1,,8000,0,1,1,FEW 40,1,2,1,1,1022,RJOF 182300Z 03007KT 8000 PRFG FEW040 02/01 Q1022 RMK 1CU040     A3019 VIS NE 5KM FG BANK 5KM NE=,PR FG
20180119_000000.003,0,RJOF,,,,0,20180119000000,-1,-1,-1,-1,20,-1,10,-1,-1,-1,-1,,9000,0,0,1,FEW 40,1,5,1,2,1022,RJOF 190000Z 02010KT 9000 FEW040 05/02 Q1022 RMK 1CU040 A3018=,
20180119_010000.004,0,RJOF,,,,0,20180119010000,-1,-1,-1,-1,20,-1,7,-1,-1,-1,-1,,9999,0,0,1,FEW 40,1,8,1,3,1022,RJOF 190100Z 02007KT 9999 FEW040 08/03 Q1022 RMK 1CU040 A3018=,
20180119_020000.003,0,RJOF,,,,0,20180119020000,-1,-1,-1,-1,999,-1,1,-1,-1,-1,-1,,9999,0,0,1,FEW 40,1,11,1,1,1022,RJOF 190200Z VRB01KT 9999 FEW040 11/01 Q1022 RMK 1CU040 A3019=,
20180119_030000.003,0,RJOF,,,,0,20180119030000,-1,-1,-1,-1,230,-1,10,-1,-1,-1,-1,,9000,0,0,2,FEW 35   SCT 50,1,11,1,4,1020,RJOF 190300Z 23010KT 9000 FEW035 SCT050 11/04 Q1020 RMK 1CU035     4SC050 A3015=,
20180119_040000.003,0,RJOF,,,,0,20180119040000,-1,-1,-1,-1,220,-1,6,-1,-1,170,260,,8000,0,0,2,FEW 35   SCT 50,1,12,1,3,1019,RJOF 190400Z 22006KT 170V260 8000 FEW035 SCT050 12/03 Q1019     RMK 1CU035 3SC050 A3011=,
20180119_050000.004,0,RJOF,,,,0,20180119050000,-1,-1,-1,-1,210,-1,8,-1,-1,180,240,,8000,0,0,2,FEW 35   BKN 50,1,11,1,2,1019,RJOF 190500Z 21008KT 180V240 8000 FEW035 BKN050 11/02 Q1019     RMK 1CU035 5SC050 A3010=,
20180119_060000.003,0,RJOF,,,,0,20180119060000,-1,-1,-1,-1,230,-1,10,-1,-1,-1,-1,,9000,0,0,2,FEW 35   BKN 50,1,11,1,2,1019,RJOF 190600Z 23010KT 9000 FEW035 BKN050 11/02 Q1019 RMK 1CU035     5SC050 A3009=,
20180119_070000.003,0,RJOF,,,,0,20180119070000,-1,-1,-1,-1,230,-1,7,-1,-1,-1,-1,,9000,0,0,2,FEW 35   BKN 50,1,11,1,2,1018,RJOF 190700Z 23007KT 9000 FEW035 BKN050 11/02 Q1018 RMK 1CU035     6SC050 A3009=,
20180119_080000.003,0,RJOF,,,,0,20180119080000,-1,-1,-1,-1,230,-1,5,-1,-1,-1,-1,,9000,0,0,1,FEW 35,1,10,1,2,1018,RJOF 190800Z 23005KT 9000 FEW035 10/02 Q1018 RMK 1CU035 A3009=,
20180119_090000.004,0,RJOF,,,,0,20180119090000,-1,-1,-1,-1,999,-1,2,-1,-1,-1,-1,,9000,0,0,2,FEW 35   BKN 50,1,9,1,3,1018,RJOF 190900Z VRB02KT 9000 FEW035 BKN050 09/03 Q1018 RMK 1CU035     5SC050 A3009=,
20180119_100000.003,0,RJOF,,,,0,20180119100000,-1,-1,-1,-1,999,-1,2,-1,-1,-1,-1,,9000,0,0,2,FEW 35   BKN 50,1,7,1,2,1019,RJOF 191000Z VRB02KT 9000 FEW035 BKN050 07/02 Q1019 RMK 1CU035     5SC050 A3009=,
20180119_110000.003,0,RJOF,,,,0,20180119110000,-1,-1,-1,-1,360,-1,5,-1,-1,-1,-1,,9000,0,0,2,FEW 35   SCT 50,1,6,1,3,1019,RJOF 191100Z 36005KT 9000 FEW035 SCT050 06/03 Q1019 RMK 1CU035     3SC050 A3010=,
20180119_120000.004,0,RJOF,,,,0,20180119120000,-1,-1,-1,-1,360,-1,7,-1,-1,-1,-1,,9000,0,0,2,FEW 35   BKN 45,1,6,1,3,1019,RJOF 191200Z 36007KT 9000 FEW035 BKN045 06/03 Q1019 RMK 1CU035     5SC045 A3010=,
20180119_130000.003,0,RJOF,,,,0,20180119130000,-1,-1,-1,-1,290,-1,3,-1,-1,240,360,,9000,0,0,2,FEW 35   BKN 45,1,5,1,2,1019,RJOF 191300Z 29003KT 240V360 9000 FEW035 BKN045 05/02 Q1019     RMK 1CU035 5SC045 A3011=,
20180119_140000.003,0,RJOF,,,,0,20180119140000,-1,-1,-1,-1,330,-1,3,-1,-1,290,360,,8000,0,0,2,FEW 35   SCT 45,1,4,1,2,1019,RJOF 191400Z 33003KT 290V360 8000 FEW035 SCT045 04/02 Q1019     RMK 1CU035 4SC045 A3011=,
20180119_150000.003,0,RJOF,,,,0,20180119150000,-1,-1,-1,-1,999,-1,2,-1,-1,-1,-1,,8000,0,0,1,FEW 35,1,4,1,2,1019,RJOF 191500Z VRB02KT 8000 FEW035 04/02 Q1019 RMK 1CU035 A3012=,
20180119_160000.003,0,RJOF,,,,0,20180119160000,-1,-1,-1,-1,360,-1,4,-1,-1,-1,-1,,9000,0,0,1,FEW 35,1,4,1,2,1019,RJOF 191600Z 36004KT 9000 FEW035 04/02 Q1019 RMK 1CU035 A3011=,
20180119_170000.003,0,RJOF,,,,0,20180119170000,-1,-1,-1,-1,360,-1,4,-1,-1,310,60,,9000,0,0,1,FEW 35,1,3,1,1,1019,RJOF 191700Z 36004KT 310V060 9000 FEW035 03/01 Q1019 RMK     1CU035 A3012=,
20180119_180000.004,0,RJOF,,,,0,20180119180000,-1,-1,-1,-1,999,-1,2,-1,-1,-1,-1,,9000,0,0,1,FEW 35,1,3,1,1,1020,RJOF 191800Z VRB02KT 9000 FEW035 03/01 Q1020 RMK 1CU035 A3012=,
20180119_190000.004,0,RJOF,,,,0,20180119190000,-1,-1,-1,-1,360,-1,5,-1,-1,-1,-1,,9000,0,0,1,FEW 35,1,2,1,1,1019,RJOF 191900Z 36005KT 9000 FEW035 02/01 Q1019 RMK 1CU035 A3012=,
20180119_200000.003,0,RJOF,,,,0,20180119200000,-1,-1,-1,-1,340,-1,3,-1,-1,-1,-1,,9000,0,0,1,FEW 35,1,2,1,0,1019,RJOF 192000Z 34003KT 9000 FEW035 02/00 Q1019 RMK 1CU035 A3011=,
20180119_210000.003,0,RJOF,,,,0,20180119210000,-1,-1,-1,-1,360,-1,3,-1,-1,330,30,,9000,0,0,1,FEW 35,1,1,1,0,1019,RJOF 192100Z 36003KT 330V030 9000 FEW035 01/00 Q1019 RMK     1CU035 A3011 13/01=,
20180119_220000.003,0,RJOF,,,,0,20180119220000,-1,-1,-1,-1,330,-1,3,-1,-1,300,360,,8000,0,0,1,FEW 35,1,1,-1,0,1020,RJOF 192200Z 33003KT 300V360 8000 FEW035 01/M00 Q1020 RMK     1CU035 A3012=,
20180119_230000.003,0,RJOF,,,,0,20180119230000,-1,-1,-1,-1,340,-1,3,-1,-1,300,30,,8000,0,0,1,FEW 35,1,2,1,0,1020,RJOF 192300Z 34003KT 300V030 8000 FEW035 02/00 Q1020 RMK     1CU035 A3013=,
20180120_000000.003,0,RJOF,,,,0,20180120000000,-1,-1,-1,-1,999,-1,2,-1,-1,-1,-1,,9000,0,0,1,FEW 35,1,4,1,2,1020,RJOF 200000Z VRB02KT 9000 FEW035 04/02 Q1020 RMK 1CU035 A3013=,
20180120_010000.003,0,RJOF,,,,0,20180120010000,-1,-1,-1,-1,999,-1,1,-1,-1,-1,-1,,9999,0,0,1,FEW 35,1,6,1,2,1020,RJOF 200100Z VRB01KT 9999 FEW035 06/02 Q1020 RMK 1CU035 A3014=,
20180120_020000.004,0,RJOF,,,,0,20180120020000,-1,-1,-1,-1,270,-1,4,-1,-1,230,290,,9999,0,0,2,FEW 35   SCT 230,1,10,1,2,1021,RJOF 200200Z 27004KT 230V290 9999 FEW035 SCT230 10/02 Q1021     RMK 1CU035 A3016=,
20180120_030000.003,0,RJOF,,,,0,20180120030000,-1,-1,-1,-1,260,-1,10,-1,-1,-1,-1,,9999,0,0,2,FEW 35   SCT 230,1,12,1,0,1020,RJOF 200300Z 26010KT 9999 FEW035 SCT230 12/00 Q1020 RMK 1CU035     A3014=,
20180120_040000.003,0,RJOF,,,,0,20180120040000,-1,-1,-1,-1,360,-1,6,-1,-1,300,70,,9999,0,0,1,FEW 30,1,12,-1,1,1019,RJOF 200400Z 36006KT 300V070 9999 FEW030 12/M01 Q1019 RMK     1CU030 A3010=,
20180120_050000.003,0,RJOF,,,,0,20180120050000,-1,-1,-1,-1,330,-1,7,-1,-1,260,20,,9999,0,0,1,FEW 30,1,13,-1,3,1018,RJOF 200500Z 33007KT 260V020 9999 FEW030 13/M03 Q1018 RMK     1CU030 A3009=,
20180120_060000.003,0,RJOF,,,,0,20180120060000,-1,-1,-1,-1,330,-1,6,-1,-1,-1,-1,,9999,0,0,2,FEW 30   SCT 230,1,13,-1,3,1018,RJOF 200600Z 33006KT 9999 FEW030 SCT230 13/M03 Q1018 RMK     1CU030 A3009=,
20180120_070000.003,0,RJOF,,,,0,20180120070000,-1,-1,-1,-1,320,-1,9,-1,-1,-1,-1,,9999,0,0,2,FEW 30   BKN 230,1,12,-1,1,1019,RJOF 200700Z 32009KT 9999 FEW030 BKN230 12/M01 Q1019 RMK     1CU030 A3010=,
20180120_080000.003,0,RJOF,,,,0,20180120080000,-1,-1,-1,-1,320,-1,8,-1,-1,-1,-1,,9999,0,0,2,FEW 30   BKN 230,1,11,-1,1,1019,RJOF 200800Z 32008KT 9999 FEW030 BKN230 11/M01 Q1019 RMK     1CU030 A3011=,
20180120_090000.003,0,RJOF,,,,0,20180120090000,-1,-1,-1,-1,310,-1,4,-1,-1,290,10,,9999,0,0,2,FEW 30   BKN -9999,1,9,-1,1,1019,RJOF 200900Z 31004KT 290V010 9999 FEW030 BKN/// 09/M01 Q1019     RMK 1CU030 A3010=,
20180120_100000.003,0,RJOF,,,,0,20180120100000,-1,-1,-1,-1,340,-1,5,-1,-1,-1,-1,,9999,0,0,2,FEW 30   BKN -9999,1,8,-1,1,1020,RJOF 201000Z 34005KT 9999 FEW030 BKN/// 08/M01 Q1020 RMK     1CU030 A3013=,
20180120_110000.003,0,RJOF,,,,0,20180120110000,-1,-1,-1,-1,320,-1,5,-1,-1,-1,-1,,9999,0,0,2,FEW 30   BKN -9999,1,6,1,0,1020,RJOF 201100Z 32005KT 9999 FEW030 BKN/// 06/00 Q1020 RMK 1CU030     A3013=,
20180120_120000.003,0,RJOF,,,,0,20180120120000,-1,-1,-1,-1,320,-1,3,-1,-1,230,360,,9999,0,0,2,FEW 30   SCT -9999,1,5,-1,0,1020,RJOF 201200Z 32003KT 230V360 9999 FEW030 SCT/// 05/M00 Q1020     RMK 1CU030 A3014=,
20180120_130000.003,0,RJOF,,,,0,20180120130000,-1,-1,-1,-1,300,-1,3,-1,-1,260,330,,9999,0,0,2,FEW 30   SCT -9999,1,3,-1,0,1020,RJOF 201300Z 30003KT 260V330 9999 FEW030 SCT/// 03/M00 Q1020     RMK 1CU030 A3015=,
20180120_140000.003,0,RJOF,,,,0,20180120140000,-1,-1,-1,-1,10,-1,9,-1,-1,-1,-1,,9999,0,0,2,FEW 30   BKN -9999,1,4,-1,0,1020,RJOF 201400Z 01009KT 9999 FEW030 BKN/// 04/M00 Q1020 RMK     1CU030 A3014=,
20180120_150000.003,0,RJOF,,,,0,20180120150000,-1,-1,-1,-1,330,-1,6,-1,-1,-1,-1,,9999,0,0,2,FEW 30   BKN -9999,1,1,-1,1,1020,RJOF 201500Z 33006KT 9999 FEW030 BKN/// 01/M01 Q1020 RMK     1CU030 A3014=,
20180120_160000.003,0,RJOF,,,,0,20180120160000,-1,-1,-1,-1,320,-1,4,-1,-1,-1,-1,,9999,0,0,2,FEW 30   SCT -9999,1,1,-1,2,1020,RJOF 201600Z 32004KT 9999 FEW030 SCT/// 01/M02 Q1020 RMK     1CU030 A3014=,
20180120_170000.003,0,RJOF,,,,0,20180120170000,-1,-1,-1,-1,10,-1,8,-1,-1,-1,-1,,9999,0,0,2,FEW 30   SCT -9999,1,2,-1,1,1020,RJOF 201700Z 01008KT 9999 FEW030 SCT/// 02/M01 Q1020 RMK     1CU030 A3013=,
20180120_180000.003,0,RJOF,,,,0,20180120180000,-1,-1,-1,-1,290,-1,4,-1,-1,-1,-1,,9999,0,0,1,FEW 30,1,1,-1,1,1020,RJOF 201800Z 29004KT 9999 FEW030 01/M01 Q1020 RMK 1CU030     A3014=,
20180120_190000.004,0,RJOF,,,,0,20180120190000,-1,-1,-1,-1,300,-1,3,-1,-1,270,340,,9999,0,0,1,FEW 30,1,0,-1,2,1020,RJOF 201900Z 30003KT 270V340 9999 FEW030 00/M02 Q1020 RMK     1CU030 A3014=,
20180120_200000.003,0,RJOF,,,,0,20180120200000,-1,-1,-1,-1,320,-1,5,-1,-1,-1,-1,,9999,0,0,1,FEW 30,1,0,-1,2,1020,RJOF 202000Z 32005KT 9999 FEW030 00/M02 Q1020 RMK 1CU030     A3014=,
20180120_210000.003,0,RJOF,,,,0,20180120210000,-1,-1,-1,-1,300,-1,3,-1,-1,-1,-1,,9999,0,0,1,FEW 30,1,0,-1,2,1021,RJOF 202100Z 30003KT 9999 FEW030 00/M02 Q1021 RMK 1CU030 A3015     13/M01=,
20180120_220000.003,0,RJOF,,,,0,20180120220000,-1,-1,-1,-1,999,-1,2,-1,-1,-1,-1,,9999,0,0,1,FEW 30,1,0,-1,1,1021,RJOF 202200Z VRB02KT 9999 FEW030 00/M01 Q1021 RMK 1CU030     A3016=,
20180120_230000.003,0,RJOF,,,,0,20180120230000,-1,-1,-1,-1,340,-1,3,-1,-1,270,20,,9999,0,0,1,FEW 50,1,1,-1,1,1022,RJOF 202300Z 34003KT 270V020 9999 FEW050 01/M01 Q1022 RMK     2SC050 A3018=,
20180121_000000.003,0,RJOF,,,,0,20180121000000,-1,-1,-1,-1,360,-1,4,-1,-1,-1,-1,,9999,0,0,3,FEW 30   SCT 35   BKN 50,1,3,1,0,1022,RJOF 210000Z 36004KT 9999 FEW030 SCT035 BKN050 03/00 Q1022 RMK     1CU030 4CU035 5SC050 A3019=,
20180121_010000.003,0,RJOF,,,,0,20180121010000,-1,-1,-1,-1,999,-1,1,-1,-1,-1,-1,,9999,0,0,1,FEW 50,1,5,1,1,1022,RJOF 210100Z VRB01KT 9999 FEW050 05/01 Q1022 RMK 1SC050 A3019=,
20180121_020000.003,0,RJOF,,,,0,20180121020000,-1,-1,-1,-1,330,-1,4,-1,-1,-1,-1,,9999,0,0,2,FEW 30   BKN 220,1,10,1,1,1022,RJOF 210200Z 33004KT 9999 FEW030 BKN220 10/01 Q1022 RMK 1CU030     A3019=,
20180121_030000.003,0,RJOF,,,,0,20180121030000,-1,-1,-1,-1,330,-1,10,-1,-1,290,360,,9999,0,0,2,FEW 30   SCT 40,1,11,-1,1,1021,RJOF 210300Z 33010KT 290V360 9999 FEW030 SCT040 11/M01 Q1021     RMK 1CU030 3CU040 A3017=,
20180121_040000.004,0,RJOF,,,,0,20180121040000,-1,-1,-1,-1,350,-1,9,-1,-1,240,30,,9999,0,0,1,FEW 30,1,12,-1,2,1020,RJOF 210400Z 35009KT 240V030 9999 FEW030 12/M02 Q1020 RMK     1CU030 A3014=,
20180121_050000.003,0,RJOF,,,,0,20180121050000,-1,-1,-1,-1,310,-1,9,-1,-1,270,340,,9999,0,0,1,FEW 30,1,12,-1,3,1020,RJOF 210500Z 31009KT 270V340 9999 FEW030 12/M03 Q1020 RMK     1CU030 A3012=,
20180121_060000.003,0,RJOF,,,,0,20180121060000,-1,-1,-1,-1,320,-1,9,-1,-1,300,360,,9999,0,0,2,FEW 30   BKN 220,1,12,-1,3,1019,RJOF 210600Z 32009KT 300V360 9999 FEW030 BKN220 12/M03 Q1019     RMK 1CU030 A3012=,
20180121_070000.003,0,RJOF,,,,0,20180121070000,-1,-1,-1,-1,360,-1,6,-1,-1,310,60,,9999,0,0,2,FEW 30   BKN 200,1,11,-1,4,1019,RJOF 210700Z 36006KT 310V060 9999 FEW030 BKN200 11/M04 Q1019     RMK 1CU030 A3012=,
20180121_080000.003,0,RJOF,,,,0,20180121080000,-1,-1,-1,-1,10,-1,10,-1,-1,-1,-1,,9999,0,0,2,FEW 45   BKN 200,1,10,-1,3,1020,RJOF 210800Z 01010KT 9999 FEW045 BKN200 10/M03 Q1020 RMK     1SC045 A3012=,
20180121_090000.003,0,RJOF,,,,0,20180121090000,-1,-1,-1,-1,360,-1,6,-1,-1,-1,-1,,9999,0,0,2,FEW 45   BKN 200,1,9,-1,4,1020,RJOF 210900Z 36006KT 9999 FEW045 BKN200 09/M04 Q1020 RMK     1SC045 A3014=,
20180121_100000.003,0,RJOF,,,,0,20180121100000,-1,-1,-1,-1,20,-1,7,-1,-1,350,60,,9999,0,0,2,FEW 45   BKN -9999,1,7,-1,2,1021,RJOF 211000Z 02007KT 350V060 9999 FEW045 BKN/// 07/M02 Q1021     RMK 1SC045 A3015=,
20180121_110000.003,0,RJOF,,,,0,20180121110000,-1,-1,-1,-1,360,-1,7,-1,-1,-1,-1,,9999,0,0,2,FEW 50   BKN -9999,1,6,-1,2,1020,RJOF 211100Z 36007KT 9999 FEW050 BKN/// 06/M02 Q1020 RMK     1SC050 A3014=,
20180121_120000.003,0,RJOF,,,,0,20180121120000,-1,-1,-1,-1,20,-1,5,-1,-1,-1,-1,,9999,0,0,2,FEW 50   BKN -9999,1,6,-1,2,1021,RJOF 211200Z 02005KT 9999 FEW050 BKN/// 06/M02 Q1021 RMK     1SC050 A3015=,
20180121_130000.004,0,RJOF,,,,0,20180121130000,-1,-1,-1,-1,20,-1,5,-1,-1,-1,-1,,9999,0,0,3,FEW 40   BKN 160   BKN -9999,1,5,-1,2,1020,RJOF 211300Z 02005KT 9999 FEW040 BKN160 BKN/// 05/M02 Q1020     RMK 1CU040 5AC160 A3013=,
20180121_140000.003,0,RJOF,,,,0,20180121140000,-1,-1,-1,-1,20,-1,5,-1,-1,-1,-1,,9999,0,0,3,FEW 40   BKN 160   BKN -9999,1,4,-1,2,1019,RJOF 211400Z 02005KT 9999 FEW040 BKN160 BKN/// 04/M02 Q1019     RMK 1CU040 5AC160 A3012=,
20180121_150000.003,0,RJOF,,,,0,20180121150000,-1,-1,-1,-1,60,-1,3,-1,-1,-1,-1,,9999,0,0,3,FEW 40   BKN 160   BKN -9999,1,5,-1,2,1019,RJOF 211500Z 06003KT 9999 FEW040 BKN160 BKN/// 05/M02 Q1019     RMK 1CU040 6AC160 A3009=,
20180121_160000.003,0,RJOF,,,,0,20180121160000,-1,-1,-1,-1,350,-1,3,-1,-1,230,30,,9999,0,0,3,FEW 40   BKN 150   BKN 180,1,5,-1,3,1018,RJOF 211600Z 35003KT 230V030 9999 FEW040 BKN150 BKN180 05/M03     Q1018 RMK 1CU040 5AC150 7AC180 A3008=,
20180121_170000.003,0,RJOF,,,,0,20180121170000,-1,-1,-1,-1,360,-1,6,-1,-1,-1,-1,,9999,0,0,3,FEW 100   BKN 140   BKN 170,1,5,-1,3,1018,RJOF 211700Z 36006KT 9999 FEW100 BKN140 BKN170 05/M03 Q1018     RMK 1AC100 6AC140 7AC170 A3006=,
20180121_180000.003,0,RJOF,,,,0,20180121180000,-1,-1,-1,-1,10,-1,3,-1,-1,-1,-1,,9999,0,0,3,FEW 100   BKN 120   OVC 140,1,6,-1,3,1017,RJOF 211800Z 01003KT 9999 FEW100 BKN120 OVC140 06/M03 Q1017     RMK 1AC100 5AC120 8AS140 A3004=,
20180121_190000.003,0,RJOF,,,,0,20180121190000,-1,-1,-1,-1,10,-1,3,-1,-1,350,50,,9999,0,0,3,FEW 50   BKN 100   OVC 120,1,5,-1,3,1016,RJOF 211900Z 01003KT 350V050 9999 FEW050 BKN100 OVC120 05/M03     Q1016 RMK 1SC050 7AC100 8AS120 A3002=,
20180121_200000.003,0,RJOF,,,,0,20180121200000,-1,-1,-1,-1,350,-1,5,-1,-1,-1,-1,,9999,0,0,3,FEW 50   SCT 60   BKN 80,1,5,-1,2,1015,RJOF 212000Z 35005KT 9999 FEW050 SCT060 BKN080 05/M02 Q1015     RMK 1SC050 3SC060 7AC080 A3000=,
20180121_210000.003,0,RJOF,,,,0,20180121210000,-1,-1,-1,-1,330,-1,5,-1,-1,300,360,,9999,0,0,3,FEW 50   BKN 60   OVC 80,1,5,-1,2,1015,RJOF 212100Z 33005KT 300V360 9999 FEW050 BKN060 OVC080 05/M02     Q1015 RMK 1SC050 7SC060 8AS080 A2998 13/03=,
20180121_220000.003,0,RJOF,,,,0,20180121220000,-1,-1,-1,-1,280,-1,4,-1,-1,-1,-1,,9999,0,1,3,FEW 50   BKN 60   OVC 80,1,5,-1,2,1015,RJOF 212200Z 28004KT 9999 -RA FEW050 BKN060 OVC080 05/M02     Q1015 RMK 1SC050 7SC060 8AS080 A3000=,- RA
20180121_220000.006,1,RJOF,,,,0,20180121220000,-1,-1,-1,-1,280,-1,4,-1,-1,-1,-1,,9999,0,1,3,FEW 50   BKN 60   OVC 80,1,5,-1,2,1015,RJOF 212200Z 28004KT 9999 -RA FEW050 BKN060 OVC080 05/M02     Q1015 RMK 1SC050 7SC060 8AS080 A3000=,- RA
20180121_230000.003,0,RJOF,,,,0,20180121230000,-1,-1,-1,-1,999,-1,1,-1,-1,-1,-1,,9999,0,1,3,FEW 25   BKN 35   BKN 50,1,5,-1,0,1016,RJOF 212300Z VRB01KT 9999 -RA FEW025 BKN035 BKN050 05/M00     Q1016 RMK 1CU025 6CU035 7SC050 A3000=,- RA
20180122_000000.003,0,RJOF,,,,0,20180122000000,-1,-1,-1,-1,10,-1,4,-1,-1,-1,-1,,9000,0,1,3,FEW 10   BKN 20   BKN 40,1,4,1,2,1016,RJOF 220000Z 01004KT 9000 -SHRA FEW010 BKN020 BKN040 04/02     Q1016 RMK 1ST010 5CU020 7CU040 A3001=,- RA SH
20180122_010000.003,0,RJOF,,,,0,20180122010000,-1,-1,-1,-1,20,-1,4,-1,-1,-1,-1,,7000,0,1,3,FEW 6   SCT 15   BKN 20,1,4,1,2,1017,RJOF 220100Z 02004KT 7000 -SHRA FEW006 SCT015 BKN020 04/02     Q1017 RMK 1ST006 3CU015 6CU020 A3003=,- RA SH
20180122_020000.003,0,RJOF,,,,0,20180122020000,-1,-1,-1,-1,110,-1,4,-1,-1,-1,-1,,3000,0,2,3,FEW 6   BKN 8   BKN 15,1,1,1,0,1016,RJOF 220200Z 11004KT 3000 -SHSNRA BR FEW006 BKN008 BKN015     01/00 Q1016 RMK 1ST006 6CU008 7CU015 A3001=,- SN RA SH; BR
20180122_030000.003,0,RJOF,,,,0,20180122030000,-1,-1,-1,-1,999,-1,2,-1,-1,-1,-1,,3000,0,2,3,FEW 3   BKN 8   BKN 15,1,0,-1,0,1015,RJOF 220300Z VRB02KT 3000 -SHSNRA BR FEW003 BKN008 BKN015     00/M00 Q1015 RMK 1ST003 6CU008 7CU015 A2997 VIS W-N 5KM=,- SN RA SH; BR
20180122_040000.003,0,RJOF,,,,0,20180122040000,-1,-1,-1,-1,999,-1,2,-1,-1,-1,-1,,6000,0,1,3,FEW 3   BKN 8   BKN 20,1,1,1,0,1014,RJOF 220400Z VRB02KT 6000 -SHRASN FEW003 BKN008 BKN020 01/00     Q1014 RMK 1ST003 5CU008 6CU020 A2995=,- RA SN SH
20180122_050000.003,0,RJOF,,,,0,20180122050000,-1,-1,-1,-1,270,-1,5,-1,-1,-1,-1,,9999,0,0,3,SCT 4   SCT 8   BKN 40,1,3,1,2,1013,RJOF 220500Z 27005KT 9999 SCT004 SCT008 BKN040 03/02 Q1013 RMK     3ST004 3CU008 7CU040 A2993=,
20180122_060000.004,0,RJOF,,,,0,20180122060000,-1,-1,-1,-1,250,-1,6,-1,-1,-1,-1,,9999,0,0,2,FEW 4   BKN 8,1,5,1,3,1013,RJOF 220600Z 25006KT 9999 FEW004 BKN008 05/03 Q1013 RMK 2ST004     6CU008 A2992=,
20180122_070000.003,0,RJOF,,,,0,20180122070000,-1,-1,-1,-1,250,-1,6,-1,-1,-1,-1,,9999,0,0,2,FEW 4   BKN 8,1,5,1,3,1013,RJOF 220700Z 25006KT 9999 FEW004 BKN008 05/03 Q1013 RMK 1ST004     5CU008 A2993=,
20180122_080000.004,0,RJOF,,,,0,20180122080000,-1,-1,-1,-1,250,-1,5,-1,-1,-1,-1,,9999,0,0,3,FEW 8   SCT 20   BKN 35,1,5,1,3,1013,RJOF 220800Z 25005KT 9999 FEW008 SCT020 BKN035 05/03 Q1013 RMK     1CU008 3CU020 7CU035 A2994=,
20180122_090000.003,0,RJOF,,,,0,20180122090000,-1,-1,-1,-1,250,-1,8,-1,-1,-1,-1,,9999,0,0,2,FEW 8   SCT 35,1,4,1,3,1014,RJOF 220900Z 25008KT 9999 FEW008 SCT035 04/03 Q1014 RMK 1CU008     4CU035 A2996=,
20180122_100000.003,0,RJOF,,,,0,20180122100000,-1,-1,-1,-1,250,-1,3,-1,-1,-1,-1,,9999,0,0,3,FEW 8   SCT 15   BKN 35,1,5,1,3,1014,RJOF 221000Z 25003KT 9999 FEW008 SCT015 BKN035 05/03 Q1014 RMK     1CU008 3CU015 6CU035 A2997=,
20180122_110000.004,0,RJOF,,,,0,20180122110000,-1,-1,-1,-1,320,-1,2,-1,-1,-1,-1,,9999,0,0,3,FEW 8   BKN 15   BKN 35,1,4,1,3,1014,RJOF 221100Z 32002KT 9999 FEW008 BKN015 BKN035 04/03 Q1014 RMK     1CU008 5CU015 6CU035 A2997=,
20180122_120000.003,0,RJOF,,,,0,20180122120000,-1,-1,-1,-1,999,-1,1,-1,-1,-1,-1,,8000,0,0,2,FEW 15   BKN 40,1,4,1,3,1014,RJOF 221200Z VRB01KT 8000 FEW015 BKN040 04/03 Q1014 RMK 1CU015     7CU040 A2996=,
20180122_130000.004,0,RJOF,,,,0,20180122130000,-1,-1,-1,-1,999,-1,1,-1,-1,-1,-1,,8000,0,0,3,FEW 8   BKN 12   BKN 40,1,4,1,3,1014,RJOF 221300Z VRB01KT 8000 FEW008 BKN012 BKN040 04/03 Q1014 RMK     1ST008 5CU012 6CU040 A2996=,
20180122_140000.004,0,RJOF,,,,0,20180122140000,-1,-1,-1,-1,999,-1,2,-1,-1,-1,-1,,8000,0,0,2,FEW 8   SCT 40,1,4,1,3,1014,RJOF 221400Z VRB02KT 8000 FEW008 SCT040 04/03 Q1014 RMK 1ST008     3CU040 A2995=,
20180122_150000.003,0,RJOF,,,,0,20180122150000,-1,-1,-1,-1,999,-1,2,-1,-1,-1,-1,,7000,0,1,2,FEW 8   BKN 40,1,4,1,3,1013,RJOF 221500Z VRB02KT 7000 -SHRA FEW008 BKN040 04/03 Q1013 RMK     1ST008 5CU040 A2993=,- RA SH
20180122_160000.003,0,RJOF,,,,0,20180122160000,-1,-1,-1,-1,999,-1,1,-1,-1,-1,-1,,8000,0,0,2,FEW 10   BKN 45,1,4,1,3,1013,RJOF 221600Z VRB01KT 8000 FEW010 BKN045 04/03 Q1013 RMK 1CU010     6SC045 A2992=,
20180122_170000.003,0,RJOF,,,,0,20180122170000,-1,-1,-1,-1,999,-1,2,-1,-1,-1,-1,,8000,0,0,2,FEW 10   BKN 45,1,4,1,3,1012,RJOF 221700Z VRB02KT 8000 FEW010 BKN045 04/03 Q1012 RMK 1CU010     6SC045 A2991=,
20180122_180000.003,0,RJOF,,,,0,20180122180000,-1,-1,-1,-1,10,-1,4,-1,-1,-1,-1,,9999,0,1,2,FEW 10   BKN 40,1,4,1,3,1012,RJOF 221800Z 01004KT 9999 -SHRA FEW010 BKN040 04/03 Q1012 RMK     1CU010 5CU040 A2991=,- RA SH
20180122_190000.003,0,RJOF,,,,0,20180122190000,-1,-1,-1,-1,350,-1,4,-1,-1,-1,-1,,9000,0,0,2,FEW 10   BKN 45,1,4,1,3,1012,RJOF 221900Z 35004KT 9000 FEW010 BKN045 04/03 Q1012 RMK 1CU010     5SC045 A2991=,
20180122_200000.003,0,RJOF,,,,0,20180122200000,-1,-1,-1,-1,350,-1,3,-1,-1,-1,-1,,8000,0,0,2,FEW 15   SCT 45,1,4,1,3,1013,RJOF 222000Z 35003KT 8000 FEW015 SCT045 04/03 Q1013 RMK 1CU015     3SC045 A2992=,
20180122_210000.004,0,RJOF,,,,0,20180122210000,-1,-1,-1,-1,250,-1,3,-1,-1,210,300,,9999,0,0,1,FEW 15,1,3,1,2,1013,RJOF 222100Z 25003KT 210V300 9999 FEW015 03/02 Q1013 RMK     1CU015 A2994 06/02 R013 S000=,
20180122_220000.003,0,RJOF,,,,0,20180122220000,-1,-1,-1,-1,260,-1,10,-1,-1,-1,-1,,9999,0,0,1,FEW 20,1,6,1,0,1014,RJOF 222200Z 26010KT 9999 FEW020 06/00 Q1014 RMK 1CU020 A2997=,
20180122_230000.004,0,RJOF,,,,0,20180122230000,-1,-1,-1,-1,260,-1,5,-1,-1,-1,-1,,9999,0,0,1,FEW 20,1,4,1,0,1015,RJOF 222300Z 26005KT 9999 FEW020 04/00 Q1015 RMK 1CU020 A2999=,
20180123_000000.003,0,RJOF,,,,0,20180123000000,-1,-1,-1,-1,300,-1,14,-1,-1,-1,-1,,9999,0,0,3,FEW 20   BKN 30   BKN 45,1,6,-1,0,1016,RJOF 230000Z 30014KT 9999 FEW020 BKN030 BKN045 06/M00 Q1016     RMK 1CU020 6CU030 6SC045 A3001 MAX WIND 20KT VIRGA NW-NE=,
20180123_010000.003,0,RJOF,,,,0,20180123010000,-1,-1,-1,-1,280,-1,11,-1,-1,-1,-1,,9999,0,0,3,FEW 20   BKN 30   BKN 40,1,6,1,1,1017,RJOF 230100Z 28011KT 9999 FEW020 BKN030 BKN040 06/01 Q1017 RMK     1CU020 6CU030 6CU040 A3004 VIRGA SE-S=,
20180123_020000.003,0,RJOF,,,,0,20180123020000,-1,-1,-1,-1,260,-1,20,-1,-1,-1,-1,,9999,0,0,3,FEW 20   BKN 30   BKN 40,1,7,-1,1,1017,RJOF 230200Z 26020KT 9999 FEW020 BKN030 BKN040 07/M01 Q1017     RMK 1CU020 6CU030 6CU040 A3005 MAX WIND 26KT VIRGA NW-E=,
20180123_030000.004,0,RJOF,,,,0,20180123030000,-1,-1,-1,-1,270,-1,19,-1,-1,-1,-1,,9999,0,1,3,FEW 20   BKN 30   BKN 40,1,6,-1,1,1017,RJOF 230300Z 27019KT 9999 -SHRA FEW020 BKN030 BKN040 06/M01     Q1017 RMK 1CU020 5CU030 6CU040 A3004 MAX WIND 27KT=,- RA SH
20180123_040000.004,0,RJOF,,,,0,20180123040000,-1,-1,-1,-1,320,-1,16,-1,-1,-1,-1,,9999,0,1,3,FEW 20   BKN 30   BKN 40,1,6,-1,1,1017,RJOF 230400Z 32016KT 9999 -SHRASN FEW020 BKN030 BKN040 06/M01     Q1017 RMK 1CU020 6CU030 7CU040 A3003 MAX WIND 22KT VIS           NW-NE 6KM=,- RA SN SH
20180123_050000.003,0,RJOF,,,,0,20180123050000,-1,-1,-1,-1,250,-1,17,-1,-1,-1,-1,,8000,0,1,3,FEW 15   BKN 20   BKN 40,1,3,-1,0,1017,RJOF 230500Z 25017KT 8000 -SHSN FEW015 BKN020 BKN040 03/M00     Q1017 RMK 2CU015 6CU020 7CU040 A3005 MAX WIND 24KT VIS           SE-W 4000M=,- SN SH
20180123_060000.004,0,RJOF,,,,0,20180123060000,-1,-1,-1,-1,260,-1,11,-1,-1,-1,-1,,9999,0,0,3,FEW 15   SCT 20   BKN 40,1,3,-1,0,1017,RJOF 230600Z 26011KT 9999 FEW015 SCT020 BKN040 03/M00 Q1017     RMK 1CU015 3CU020 6CU040 A3004 VIS SE-SW 5KM=,
20180123_070000.003,0,RJOF,,,,0,20180123070000,-1,-1,-1,-1,250,-1,14,-1,-1,-1,-1,,9999,0,0,3,FEW 10   SCT 30   BKN 210,1,3,-1,1,1017,RJOF 230700Z 25014KT 9999 FEW010 SCT030 BKN210 03/M01 Q1017     RMK 1CU010 3CU030 A3004=,
20180123_080000.003,0,RJOF,,,,0,20180123080000,-1,-1,-1,-1,290,-1,17,-1,-1,-1,-1,,9999,0,0,2,FEW 25   BKN 210,1,3,-1,7,1017,RJOF 230800Z 29017KT 9999 FEW025 BKN210 03/M07 Q1017 RMK     1CU025 A3006=,
20180123_090000.003,0,RJOF,,,,0,20180123090000,-1,-1,-1,-1,300,-1,15,-1,-1,-1,-1,,9999,0,0,3,FEW 25   SCT 40   BKN -9999,1,2,-1,9,1018,RJOF 230900Z 30015KT 9999 FEW025 SCT040 BKN/// 02/M09 Q1018     RMK 1CU025 3CU040 A3007=,
20180123_100000.003,0,RJOF,,,,0,20180123100000,-1,-1,-1,-1,290,-1,8,-1,-1,-1,-1,,9999,0,0,3,FEW 25   SCT 40   BKN -9999,1,1,-1,9,1018,RJOF 231000Z 29008KT 9999 FEW025 SCT040 BKN/// 01/M09 Q1018     RMK 1CU025 4CU040 A3009=,
20180123_110000.003,0,RJOF,,,,0,20180123110000,-1,-1,-1,-1,300,-1,9,-1,-1,270,330,,9999,0,0,2,FEW 25   BKN -9999,1,1,-1,9,1018,RJOF 231100Z 30009KT 270V330 9999 FEW025 BKN/// 01/M09 Q1018     RMK 1CU025 A3009=,
20180123_120000.003,0,RJOF,,,,0,20180123120000,-1,-1,-1,-1,250,-1,7,-1,-1,-1,-1,,9999,0,0,3,FEW 25   SCT 40   BKN -9999,1,2,-1,9,1019,RJOF 231200Z 25007KT 9999 FEW025 SCT040 BKN/// 02/M09 Q1019     RMK 1CU025 3CU040 A3009=,
20180123_130000.003,0,RJOF,,,,0,20180123130000,-1,-1,-1,-1,280,-1,10,-1,-1,-1,-1,,9999,0,1,2,FEW 15   BKN 40,1,1,-1,7,1019,RJOF 231300Z 28010KT 9999 -SHSN FEW015 BKN040 01/M07 Q1019 RMK     1CU015 7CU040 A3011 VIS NW-NE 7KM=,- SN SH
20180123_140000.003,0,RJOF,,,,0,20180123140000,-1,-1,-1,-1,260,-1,12,-1,-1,-1,-1,,8000,0,1,3,FEW 15   BKN 20   BKN 40,-1,0,-1,3,1019,RJOF 231400Z 26012KT 8000 -SHSN FEW015 BKN020 BKN040 M00/M03     Q1019 RMK 1CU015 5CU020 7CU040 A3011 VIS S 4000M=,- SN SH
20180123_150000.003,0,RJOF,,,,0,20180123150000,-1,-1,-1,-1,300,-1,12,-1,-1,-1,-1,,9999,0,0,2,FEW 15   BKN 40,1,0,-1,7,1019,RJOF 231500Z 30012KT 9999 FEW015 BKN040 00/M07 Q1019 RMK     1CU015 6CU040 A3011=,
20180123_160000.003,0,RJOF,,,,0,20180123160000,-1,-1,-1,-1,310,-1,10,-1,-1,280,340,,9999,0,1,2,FEW 15   BKN 40,1,0,-1,6,1020,RJOF 231600Z 31010KT 280V340 9999 -SHSN FEW015 BKN040 00/M06     Q1020 RMK 1CU015 7CU040 A3013=,- SN SH
20180123_170000.003,0,RJOF,,,,0,20180123170000,-1,-1,-1,-1,300,-1,10,-1,-1,-1,-1,,9999,0,0,2,FEW 20   BKN 40,1,0,-1,9,1020,RJOF 231700Z 30010KT 9999 FEW020 BKN040 00/M09 Q1020 RMK     1CU020 5CU040 A3014=,
20180123_180000.003,0,RJOF,,,,0,20180123180000,-1,-1,-1,-1,300,-1,11,-1,-1,-1,-1,,9999,0,0,2,FEW 20   BKN 40,-1,0,-1,10,1020,RJOF 231800Z 30011KT 9999 FEW020 BKN040 M00/M10 Q1020 RMK     1CU020 5CU040 A3014=,
20180123_190000.003,0,RJOF,,,,0,20180123190000,-1,-1,-1,-1,320,-1,10,-1,-1,280,340,,9999,0,0,2,FEW 20   BKN 40,-1,0,-1,9,1020,RJOF 231900Z 32010KT 280V340 9999 FEW020 BKN040 M00/M09 Q1020     RMK 1CU020 7CU040 A3013=,
20180123_200000.003,0,RJOF,,,,0,20180123200000,-1,-1,-1,-1,310,-1,12,-1,-1,-1,-1,,9999,0,1,2,FEW 20   BKN 40,-1,1,-1,6,1020,RJOF 232000Z 31012KT 9999 -SHSN FEW020 BKN040 M01/M06 Q1020     RMK 1CU020 7CU040 A3013=,- SN SH
20180123_210000.003,0,RJOF,,,,0,20180123210000,-1,-1,-1,-1,310,-1,15,-1,-1,-1,-1,,9999,0,1,3,FEW 20   SCT 30   BKN 40,-1,1,-1,6,1020,RJOF 232100Z 31015KT 9999 -SHSN FEW020 SCT030 BKN040 M01/M06     Q1020 RMK 1CU020 3CU030 6CU040 A3014 08/M01 R000 S000=,- SN SH
20180123_220000.003,0,RJOF,,,,0,20180123220000,-1,-1,-1,-1,300,-1,15,-1,-1,-1,-1,,9999,0,1,2,FEW 20   BKN 40,-1,1,-1,8,1020,RJOF 232200Z 30015KT 9999 -SHSN FEW020 BKN040 M01/M08 Q1020     RMK 1CU020 5CU040 A3014=,- SN SH
20180123_230000.003,0,RJOF,,,,0,20180123230000,-1,-1,-1,-1,300,-1,14,-1,-1,-1,-1,,9999,0,1,2,FEW 20   BKN 40,-1,1,-1,7,1020,RJOF 232300Z 30014KT 9999 -SHSN FEW020 BKN040 M01/M07 Q1020     RMK 1CU020 5CU040 A3014=,- SN SH
20180124_000000.003,0,RJOF,,,,0,20180124000000,-1,-1,-1,-1,290,-1,15,-1,26,260,320,,9999,0,1,2,FEW 15   SCT 40,1,0,-1,9,1021,RJOF 240000Z 29015G26KT 260V320 9999 -SHSN FEW015 SCT040     00/M09 Q1021 RMK 1CU015 3CU040 A3017=,- SN SH
20180124_010000.004,0,RJOF,,,,0,20180124010000,-1,-1,-1,-1,310,-1,16,-1,26,-1,-1,,9999,0,1,2,FEW 15   SCT 40,1,0,-1,9,1022,RJOF 240100Z 31016G26KT 9999 -SHSN FEW015 SCT040 00/M09 Q1022     RMK 1CU015 3CU040 A3019 VIS NW-NE 2500M=,- SN SH
20180124_020000.003,0,RJOF,,,,0,20180124020000,-1,-1,-1,-1,290,-1,17,-1,27,-1,-1,,6000,0,1,2,FEW 15   BKN 30,-1,0,-1,5,1022,RJOF 240200Z 29017G27KT 6000 -SHSN FEW015 BKN030 M00/M05 Q1022     RMK 1CU015 6CU030 A3019 VIS NW-NE 2000M=,- SN SH
20180124_030000.003,0,RJOF,,,,0,20180124030000,-1,-1,-1,-1,280,-1,20,-1,-1,-1,-1,,9999,0,1,3,FEW 15   SCT 30   BKN 230,1,1,-1,8,1021,RJOF 240300Z 28020KT 9999 -SHSN FEW015 SCT030 BKN230 01/M08     Q1021 RMK 1CU015 4CU030 A3017 MAX WIND 29KT VIS NW 5KM=,- SN SH
20180124_040000.003,0,RJOF,,,,0,20180124040000,-1,-1,-1,-1,280,-1,20,-1,31,-1,-1,,2000,0,1,3,FEW 10   BKN 20   BKN 30,-1,1,-1,7,1021,RJOF 240400Z 28020G31KT 2000 -SHSN FEW010 BKN020 BKN030     M01/M07 Q1021 RMK 1CU010 5CU020 7CU030 A3017 VIS N-NE           8KM=,- SN SH
20180124_050000.003,0,RJOF,,,,0,20180124050000,-1,-1,-1,-1,320,-1,14,-1,-1,-1,-1,,9999,0,1,3,FEW 15   SCT 20   BKN 30,-1,0,-1,8,1021,RJOF 240500Z 32014KT 9999 -SHSN FEW015 SCT020 BKN030 M00/M08     Q1021 RMK 1CU015 3CU020 6CU030 A3017 MAX WIND 22KT=,- SN SH
20180124_060000.003,0,RJOF,,,,0,20180124060000,-1,-1,-1,-1,320,-1,16,-1,26,290,350,,9999,0,1,3,FEW 15   SCT 30   BKN 230,-1,0,-1,10,1021,RJOF 240600Z 32016G26KT 290V350 9999 -SHSN FEW015 SCT030     BKN230 M00/M10 Q1021 RMK 1CU015 4CU030 A3017 VIS N 7KM=,- SN SH
20180124_070000.003,0,RJOF,,,,0,20180124070000,-1,-1,-1,-1,310,-1,15,-1,-1,-1,-1,,9999,0,1,2,FEW 15   SCT 30,-1,1,-1,9,1021,RJOF 240700Z 31015KT 9999 -SHSN FEW015 SCT030 M01/M09 Q1021     RMK 1CU015 3CU030 A3017 VIS N-NE 7KM=,- SN SH
20180124_080000.003,0,RJOF,,,,0,20180124080000,-1,-1,-1,-1,280,-1,14,-1,24,-1,-1,,9999,0,1,2,FEW 15   SCT 30,-1,1,-1,10,1022,RJOF 240800Z 28014G24KT 9999 -SHSN FEW015 SCT030 M01/M10 Q1022     RMK 1CU015 4CU030 A3018 VIS N-NE 7KM=,- SN SH
20180124_090000.004,0,RJOF,,,,0,20180124090000,-1,-1,-1,-1,290,-1,11,-1,-1,-1,-1,,5000,0,1,3,FEW 15   SCT 20   BKN 30,-1,3,-1,7,1022,RJOF 240900Z 29011KT 5000 -SHSN FEW015 SCT020 BKN030 M03/M07     Q1022 RMK 1CU015 4CU020 7CU030 A3019 VIS NW-NE 3000M=,- SN SH
20180124_100000.003,0,RJOF,,,,0,20180124100000,-1,-1,-1,-1,280,-1,9,-1,-1,-1,-1,,2000,0,1,3,FEW 15   BKN 20   BKN 30,-1,3,-1,6,1022,RJOF 241000Z 28009KT 2000 -SHSN FEW015 BKN020 BKN030 M03/M06     Q1022 RMK 1CU015 5CU020 7CU030 A3019=,- SN SH
20180124_110000.003,0,RJOF,,,,0,20180124110000,-1,-1,-1,-1,270,-1,9,-1,-1,-1,-1,,8000,0,1,3,FEW 15   SCT 20   BKN 30,-1,3,-1,6,1021,RJOF 241100Z 27009KT 8000 -SHSN FEW015 SCT020 BKN030 M03/M06     Q1021 RMK 1CU015 3CU020 7CU030 A3017=,- SN SH
20180124_120000.003,0,RJOF,,,,0,20180124120000,-1,-1,-1,-1,280,-1,5,-1,-1,-1,-1,,9999,0,1,3,FEW 15   SCT 20   BKN 30,-1,3,-1,6,1021,RJOF 241200Z 28005KT 9999 -SHSN FEW015 SCT020 BKN030 M03/M06     Q1021 RMK 1CU015 3CU020 6CU030 A3017=,- SN SH
20180124_130000.003,0,RJOF,,,,0,20180124130000,-1,-1,-1,-1,250,-1,7,-1,-1,-1,-1,,9999,0,1,2,FEW 15   BKN 30,-1,3,-1,7,1021,RJOF 241300Z 25007KT 9999 -SHSN FEW015 BKN030 M03/M07 Q1021     RMK 1CU015 5CU030 A3017=,- SN SH
20180124_140000.004,0,RJOF,,,,0,20180124140000,-1,-1,-1,-1,280,-1,9,-1,-1,-1,-1,,9999,0,1,2,FEW 15   SCT 30,-1,2,-1,8,1021,RJOF 241400Z 28009KT 9999 -SHSN FEW015 SCT030 M02/M08 Q1021     RMK 1CU015 3CU030 A3017=,- SN SH
20180124_150000.003,0,RJOF,,,,0,20180124150000,-1,-1,-1,-1,270,-1,7,-1,-1,-1,-1,,9999,0,0,2,FEW 15   SCT 30,-1,3,-1,8,1021,RJOF 241500Z 27007KT 9999 FEW015 SCT030 M03/M08 Q1021 RMK     1CU015 3CU030 A3017=,
20180124_160000.003,0,RJOF,,,,0,20180124160000,-1,-1,-1,-1,270,-1,8,-1,-1,-1,-1,,9999,0,0,1,FEW 20,-1,3,-1,8,1021,RJOF 241600Z 27008KT 9999 FEW020 M03/M08 Q1021 RMK 1CU020     A3017=,
20180124_170000.003,0,RJOF,,,,0,20180124170000,-1,-1,-1,-1,260,-1,7,-1,-1,210,280,,9999,0,0,2,FEW 20   SCT 40,-1,2,-1,8,1022,RJOF 241700Z 26007KT 210V280 9999 FEW020 SCT040 M02/M08 Q1022     RMK 1CU020 3CU040 A3019=,
20180124_180000.003,0,RJOF,,,,0,20180124180000,-1,-1,-1,-1,270,-1,6,-1,-1,240,300,,9999,0,0,1,FEW 20,-1,3,-1,7,1022,RJOF 241800Z 27006KT 240V300 9999 FEW020 M03/M07 Q1022 RMK     1CU020 A3020=,
20180124_190000.004,0,RJOF,,,,0,20180124190000,-1,-1,-1,-1,260,-1,6,-1,-1,-1,-1,,9999,0,0,1,FEW 20,-1,4,-1,7,1022,RJOF 241900Z 26006KT 9999 FEW020 M04/M07 Q1022 RMK 1CU020     A3019=,
20180124_200000.003,0,RJOF,,,,0,20180124200000,-1,-1,-1,-1,270,-1,5,-1,-1,-1,-1,,9999,0,1,2,FEW 20   BKN 40,-1,2,-1,6,1022,RJOF 242000Z 27005KT 9999 -SHSN FEW020 BKN040 M02/M06 Q1022     RMK 1CU020 5CU040 A3019 VIS NW-NE 5KM=,- SN SH
20180124_210000.004,0,RJOF,,,,0,20180124210000,-1,-1,-1,-1,260,-1,9,-1,-1,-1,-1,,5000,0,1,3,FEW 20   SCT 30   BKN 40,-1,2,-1,6,1022,RJOF 242100Z 26009KT 5000 -SHSN FEW020 SCT030 BKN040 M02/M06     Q1022 RMK 1CU020 3CU030 6CU040 A3020 VIS NW-NE 3000M           27032KT/0330 01/M04 R001 S001=,- SN SH
20180124_220000.003,0,RJOF,,,,0,20180124220000,-1,-1,-1,-1,280,-1,8,-1,-1,-1,-1,,9999,0,1,2,FEW 20   BKN 40,-1,3,-1,6,1023,RJOF 242200Z 28008KT 9999 -SHSN FEW020 BKN040 M03/M06 Q1023     RMK 1CU020 5CU040 A3021 VIS NW-NE 3000M=,- SN SH
20180124_230000.003,0,RJOF,,,,0,20180124230000,-1,-1,-1,-1,290,-1,10,-1,-1,-1,-1,,9999,0,1,2,FEW 10   BKN 30,-1,3,-1,6,1023,RJOF 242300Z 29010KT 9999 -SHSN FEW010 BKN030 M03/M06     Q1023 RMK 1CU010 5CU030 A3021 VIS NE 6KM=,- SN SH
20180125_000000.003,0,RJOF,,,,0,20180125000000,-1,-1,-1,-1,290,-1,12,-1,-1,-1,-1,,9999,0,1,2,FEW 10   BKN 30,-1,1,-1,5,1023,RJOF 250000Z 29012KT 9999 -SHSN FEW010 BKN030 M01/M05 Q1023     RMK 1CU010 5CU030 A3022 VIS N-NE 6KM=,- SN SH
20180125_010000.003,0,RJOF,,,,0,20180125010000,-1,-1,-1,-1,280,-1,12,-1,-1,-1,-1,,9999,0,1,2,FEW 10   BKN 30,-1,0,-1,4,1023,RJOF 250100Z 28012KT 9999 -SHSN FEW010 BKN030 M00/M04 Q1023     RMK 1CU010 5CU030 A3023 VIS N 5KM=,- SN SH
20180125_020000.004,0,RJOF,,,,0,20180125020000,-1,-1,-1,-1,290,-1,14,-1,-1,260,320,,9999,0,1,2,FEW 16   SCT 30,1,1,-1,5,1023,RJOF 250200Z 29014KT 260V320 9999 -SHSN FEW016 SCT030 01/M05     Q1023 RMK 2CU016 4CU030 A3022 MAX WIND 21KT VIS N 9KM=,- SN SH
20180125_030000.003,0,RJOF,,,,0,20180125030000,-1,-1,-1,-1,290,-1,9,-1,-1,-1,-1,,9999,0,1,2,FEW 15   BKN 30,1,2,-1,5,1022,RJOF 250300Z 29009KT 9999 -SHSN FEW015 BKN030 02/M05 Q1022 RMK     1CU015 5CU030 A3018 VIS NE 9KM=,- SN SH
20180125_040000.003,0,RJOF,,,,0,20180125040000,-1,-1,-1,-1,310,-1,11,-1,-1,-1,-1,,9999,0,0,2,FEW 15   SCT 30,1,3,-1,7,1020,RJOF 250400Z 31011KT 9999 FEW015 SCT030 03/M07 Q1020 RMK     1CU015 4CU030 A3014=,
20180125_050000.003,0,RJOF,,,,0,20180125050000,-1,-1,-1,-1,330,-1,14,-1,-1,-1,-1,,9999,0,1,2,FEW 15   SCT 30,1,4,-1,8,1020,RJOF 250500Z 33014KT 9999 VCSH FEW015 SCT030 04/M08 Q1020 RMK     1CU015 3CU030 A3014 VCSH 10KM N=,VC SH
20180125_060000.003,0,RJOF,,,,0,20180125060000,-1,-1,-1,-1,290,-1,11,-1,-1,-1,-1,,9999,0,0,2,FEW 15   SCT 30,1,3,-1,7,1020,RJOF 250600Z 29011KT 9999 FEW015 SCT030 03/M07 Q1020 RMK     1CU015 4CU030 A3014 VIRGA NW-N AND E=,
20180125_070000.003,0,RJOF,,,,0,20180125070000,-1,-1,-1,-1,320,-1,12,-1,-1,-1,-1,,9999,0,0,2,FEW 15   SCT 40,1,3,-1,8,1020,RJOF 250700Z 32012KT 9999 FEW015 SCT040 03/M08 Q1020 RMK     1CU015 4CU040 A3014 VIRGA NW-NE=,
20180125_080000.003,0,RJOF,,,,0,20180125080000,-1,-1,-1,-1,340,-1,11,-1,-1,-1,-1,,9999,0,0,2,FEW 15   SCT 40,1,2,-1,7,1020,RJOF 250800Z 34011KT 9999 FEW015 SCT040 02/M07 Q1020 RMK     1CU015 3CU040 A3014 VIRGA N=,
20180125_090000.003,0,RJOF,,,,0,20180125090000,-1,-1,-1,-1,300,-1,6,-1,-1,270,330,,9999,0,0,1,FEW 15,1,0,-1,9,1020,RJOF 250900Z 30006KT 270V330 9999 FEW015 00/M09 Q1020 RMK     1CU015 A3014=,
20180125_100000.004,0,RJOF,,,,0,20180125100000,-1,-1,-1,-1,260,-1,6,-1,-1,-1,-1,,9999,0,0,1,FEW 15,-1,1,-1,9,1020,RJOF 251000Z 26006KT 9999 FEW015 M01/M09 Q1020 RMK 1CU015     A3014=,
20180125_110000.004,0,RJOF,,,,0,20180125110000,-1,-1,-1,-1,250,-1,3,-1,-1,-1,-1,,9999,0,0,2,FEW 15   SCT 40,-1,1,-1,8,1020,RJOF 251100Z 25003KT 9999 FEW015 SCT040 M01/M08 Q1020 RMK     1CU015 3CU040 A3014=,
20180125_120000.003,0,RJOF,,,,0,20180125120000,-1,-1,-1,-1,250,-1,5,-1,-1,-1,-1,,9999,0,0,1,FEW 40,-1,1,-1,9,1020,RJOF 251200Z 25005KT 9999 FEW040 M01/M09 Q1020 RMK 1CU040     A3012=,
20180125_130000.003,0,RJOF,,,,0,20180125130000,-1,-1,-1,-1,260,-1,3,-1,-1,-1,-1,,9999,0,0,2,FEW 40   SCT -9999,-1,2,-1,9,1019,RJOF 251300Z 26003KT 9999 FEW040 SCT/// M02/M09 Q1019 RMK     1CU040 A3012=,
20180125_140000.003,0,RJOF,,,,0,20180125140000,-1,-1,-1,-1,280,-1,2,-1,-1,-1,-1,,9999,0,0,2,FEW 40   SCT 140,-1,2,-1,8,1019,RJOF 251400Z 28002KT 9999 FEW040 SCT140 M02/M08 Q1019 RMK     1CU040 3AC140 A3010=,
20180125_150000.003,0,RJOF,,,,0,20180125150000,-1,-1,-1,-1,300,-1,5,-1,-1,-1,-1,,9999,0,0,3,FEW 40   SCT 140   BKN -9999,-1,3,-1,7,1019,RJOF 251500Z 30005KT 9999 FEW040 SCT140 BKN/// M03/M07 Q1019     RMK 1CU040 3AC140 A3010=,
20180125_160000.003,0,RJOF,,,,0,20180125160000,-1,-1,-1,-1,280,-1,5,-1,-1,-1,-1,,9999,0,0,3,FEW 40   SCT 140   BKN -9999,-1,2,-1,7,1019,RJOF 251600Z 28005KT 9999 FEW040 SCT140 BKN/// M02/M07 Q1019     RMK 1CU040 3AC140 A3009=,
20180125_170000.003,0,RJOF,,,,0,20180125170000,-1,-1,-1,-1,270,-1,7,-1,-1,-1,-1,,9999,0,0,3,FEW 40   SCT 140   BKN -9999,-1,2,-1,7,1019,RJOF 251700Z 27007KT 9999 FEW040 SCT140 BKN/// M02/M07 Q1019     RMK 1CU040 3AC140 A3009=,
20180125_180000.003,0,RJOF,,,,0,20180125180000,-1,-1,-1,-1,280,-1,10,-1,-1,-1,-1,,9999,0,0,2,FEW 40   SCT -9999,-1,0,-1,6,1018,RJOF 251800Z 28010KT 9999 FEW040 SCT/// M00/M06 Q1018 RMK     1CU040 A3009=,
20180125_190000.003,0,RJOF,,,,0,20180125190000,-1,-1,-1,-1,270,-1,9,-1,-1,-1,-1,,9999,0,0,1,FEW 45,-1,1,-1,6,1018,RJOF 251900Z 27009KT 9999 FEW045 M01/M06 Q1018 RMK 1SC045     A3009=,
20180125_200000.004,0,RJOF,,,,0,20180125200000,-1,-1,-1,-1,280,-1,8,-1,-1,-1,-1,,9999,0,0,1,FEW 30,-1,1,-1,7,1018,RJOF 252000Z 28008KT 9999 FEW030 M01/M07 Q1018 RMK 1CU030     A3009=,
20180125_210000.003,0,RJOF,,,,0,20180125210000,-1,-1,-1,-1,280,-1,9,-1,-1,-1,-1,,9999,0,0,1,FEW 40,-1,1,-1,8,1019,RJOF 252100Z 28009KT 9999 FEW040 M01/M08 Q1019 RMK 2CU040     A3010 05/M03 R000 S001=,
20180125_220000.003,0,RJOF,,,,0,20180125220000,-1,-1,-1,-1,270,-1,11,-1,-1,-1,-1,,9999,0,1,2,FEW 30   SCT 40,-1,1,-1,6,1019,RJOF 252200Z 27011KT 9999 VCSH FEW030 SCT040 M01/M06 Q1019 RMK     1CU030 4CU040 A3011 VCSH 9KM N-NE=,VC SH
20180125_230000.003,0,RJOF,,,,0,20180125230000,-1,-1,-1,-1,280,-1,11,-1,-1,-1,-1,,9999,0,1,2,FEW 30   BKN 40,1,0,-1,8,1020,RJOF 252300Z 28011KT 9999 VCSH FEW030 BKN040 00/M08 Q1020 RMK     1CU030 5CU040 A3012 VCSH 9KM N-E=,VC SH
20180126_000000.003,0,RJOF,,,,0,20180126000000,-1,-1,-1,-1,280,-1,15,-1,-1,-1,-1,,9999,0,1,2,FEW 15   SCT 40,1,1,-1,7,1020,RJOF 260000Z 28015KT 9999 VCSH FEW015 SCT040 01/M07 Q1020 RMK     1CU015 4CU040 A3013 VCSH 9KM N-NE=,VC SH
20180126_010000.003,0,RJOF,,,,0,20180126010000,-1,-1,-1,-1,280,-1,18,-1,-1,-1,-1,,9999,0,1,2,FEW 15   BKN 40,1,1,-1,7,1021,RJOF 260100Z 28018KT 9999 -SHSN FEW015 BKN040 01/M07 Q1021 RMK     1CU015 5CU040 A3016 MAX WIND 25KT=,- SN SH
20180126_020000.003,0,RJOF,,,,0,20180126020000,-1,-1,-1,-1,280,-1,17,-1,-1,-1,-1,,9999,0,1,2,FEW 15   BKN 40,1,2,-1,8,1021,RJOF 260200Z 28017KT 9999 -SHSN FEW015 BKN040 02/M08 Q1021 RMK     1CU015 5CU040 A3015 MAX WIND 21KT VIS NE 8KM=,- SN SH
20180126_030000.003,0,RJOF,,,,0,20180126030000,-1,-1,-1,-1,280,-1,16,-1,-1,-1,-1,,9999,0,1,2,FEW 15   BKN 40,1,3,-1,7,1020,RJOF 260300Z 28016KT 9999 -SHSN FEW015 BKN040 03/M07 Q1020 RMK     1CU015 5CU040 A3014 MAX WIND 24KT=,- SN SH
20180126_040000.003,0,RJOF,,,,0,20180126040000,-1,-1,-1,-1,310,-1,12,-1,22,-1,-1,,9999,0,1,2,FEW 15   BKN 40,1,3,-1,8,1019,RJOF 260400Z 31012G22KT 9999 -SHSN FEW015 BKN040 03/M08 Q1019     RMK 1CU015 5CU040 A3012=,- SN SH
20180126_050000.003,0,RJOF,,,,0,20180126050000,-1,-1,-1,-1,290,-1,12,-1,-1,260,320,,9999,0,1,2,FEW 15   BKN 40,1,2,-1,9,1019,RJOF 260500Z 29012KT 260V320 9999 -SHSN FEW015 BKN040 02/M09     Q1019 RMK 1CU015 6CU040 A3011 MAX WIND 18KT VIS N 8KM=,- SN SH
20180126_060000.003,0,RJOF,,,,0,20180126060000,-1,-1,-1,-1,300,-1,14,-1,-1,-1,-1,,9999,0,1,3,FEW 15   SCT 25   BKN 40,1,2,-1,9,1019,RJOF 260600Z 30014KT 9999 -SHSN FEW015 SCT025 BKN040 02/M09     Q1019 RMK 1CU015 3CU025 6CU040 A3012 MAX WIND 23KT VIS N           8KM=,- SN SH
20180126_070000.003,0,RJOF,,,,0,20180126070000,-1,-1,-1,-1,300,-1,14,-1,25,-1,-1,,9999,0,1,3,FEW 15   SCT 25   BKN 40,1,1,-1,8,1020,RJOF 260700Z 30014G25KT 9999 -SHSN FEW015 SCT025 BKN040 01/M08     Q1020 RMK 1CU015 4CU025 6CU040 A3013 VIS N-NE 6KM=,- SN SH
20180126_080000.004,0,RJOF,,,,0,20180126080000,-1,-1,-1,-1,290,-1,15,-1,-1,-1,-1,,9999,0,1,3,FEW 15   SCT 25   BKN 40,1,1,-1,7,1020,RJOF 260800Z 29015KT 9999 -SHSN FEW015 SCT025 BKN040 01/M07     Q1020 RMK 1CU015 4CU025 6CU040 A3014 MAX WIND 22KT VIS           SW-NW 3500M=,- SN SH
20180126_090000.003,0,RJOF,,,,0,20180126090000,-1,-1,-1,-1,290,-1,11,-1,-1,-1,-1,,9999,0,1,3,FEW 15   SCT 25   BKN 40,-1,1,-1,6,1020,RJOF 260900Z 29011KT 9999 -SHSN FEW015 SCT025 BKN040 M01/M06     Q1020 RMK 1CU015 3CU025 5CU040 A3015 VIS NW-NE 8KM=,- SN SH
20180126_100000.003,0,RJOF,,,,0,20180126100000,-1,-1,-1,-1,280,-1,12,-1,-1,-1,-1,,4000,0,1,3,FEW 10   SCT 25   BKN 40,-1,2,-1,5,1022,RJOF 261000Z 28012KT 4000 -SHSN FEW010 SCT025 BKN040 M02/M05     Q1022 RMK 1CU010 4CU025 7CU040 A3018 VIS NW-NE 3000M=,- SN SH
20180126_110000.003,0,RJOF,,,,0,20180126110000,-1,-1,-1,-1,280,-1,11,-1,-1,-1,-1,,3000,0,1,3,FEW 10   BKN 25   BKN 40,-1,2,-1,5,1022,RJOF 261100Z 28011KT 3000 -SHSN FEW010 BKN025 BKN040 M02/M05     Q1022 RMK 1CU010 6CU025 7CU040 A3019 VIS N 2000M=,- SN SH
20180126_120000.003,0,RJOF,,,,0,20180126120000,-1,-1,-1,-1,270,-1,8,-1,-1,-1,-1,,9999,0,1,2,FEW 15   BKN 40,-1,2,-1,6,1023,RJOF 261200Z 27008KT 9999 -SHSN FEW015 BKN040 M02/M06 Q1023     RMK 1CU015 5CU040 A3021 VIS N-NE 8KM=,- SN SH
20180126_130000.003,0,RJOF,,,,0,20180126130000,-1,-1,-1,-1,270,-1,8,-1,-1,-1,-1,,9000,0,1,3,FEW 10   SCT 25   BKN 40,-1,1,-1,6,1023,RJOF 261300Z 27008KT 9000 -SHSN FEW010 SCT025 BKN040 M01/M06     Q1023 RMK 1CU010 3CU025 6CU040 A3022 VIS N-NE 4500M=,- SN SH
20180126_140000.003,0,RJOF,,,,0,20180126140000,-1,-1,-1,-1,260,-1,4,-1,-1,-1,-1,,9999,0,1,2,FEW 10   BKN 40,-1,2,-1,6,1023,RJOF 261400Z 26004KT 9999 -SHSN FEW010 BKN040 M02/M06 Q1023     RMK 1CU010 5CU040 A3022=,- SN SH
20180126_150000.003,0,RJOF,,,,0,20180126150000,-1,-1,-1,-1,270,-1,3,-1,-1,240,300,,9999,0,1,2,FEW 10   BKN 40,-1,2,-1,6,1023,RJOF 261500Z 27003KT 240V300 9999 -SHSN FEW010 BKN040 M02/M06     Q1023 RMK 1CU010 6CU040 A3022=,- SN SH
20180126_160000.003,0,RJOF,,,,0,20180126160000,-1,-1,-1,-1,270,-1,4,-1,-1,-1,-1,,1500,0,1,3,FEW 8   SCT 10   BKN 25,-1,2,-1,4,1023,RJOF 261600Z 27004KT 1500 -SHSN FEW008 SCT010 BKN025 M02/M04     Q1023 RMK 1CU008 3CU010 7CU025 A3023 VIS W-NE 5KM=,- SN SH
20180126_170000.003,0,RJOF,,,,0,20180126170000,-1,-1,-1,-1,999,-1,2,-1,-1,-1,-1,,1500,0,1,3,FEW 6   SCT 10   BKN 15,-1,2,-1,4,1024,RJOF 261700Z VRB02KT 1500 -SHSN FEW006 SCT010 BKN015 M02/M04     Q1024 RMK 1CU006 3CU010 7CU015 A3024 VIS W-N 3000M=,- SN SH
20180126_180000.003,0,RJOF,,,,0,20180126180000,-1,-1,-1,-1,260,-1,4,-1,-1,-1,-1,,9999,0,1,2,FEW 5   SCT 40,-1,3,-1,5,1023,RJOF 261800Z 26004KT 9999 -SHSN FEW005 SCT040 M03/M05 Q1023     RMK 2CU005 4CU040 A3024=,- SN SH
20180126_190000.003,0,RJOF,,,,0,20180126190000,-1,-1,-1,-1,999,-1,2,-1,-1,-1,-1,,9999,0,1,2,FEW 6   SCT 40,-1,4,-1,5,1024,RJOF 261900Z VRB02KT 9999 -SHSN FEW006 SCT040 M04/M05 Q1024     RMK 1CU006 4CU040 A3024=,- SN SH
20180126_200000.004,0,RJOF,,,,0,20180126200000,-1,-1,-1,-1,999,-1,2,-1,-1,-1,-1,,9999,0,1,2,FEW 10   BKN 40,-1,4,-1,4,1023,RJOF 262000Z VRB02KT 9999 -SHSN FEW010 BKN040 M04/M04 Q1023     RMK 1CU010 5CU040 A3024=,- SN SH
20180126_210000.003,0,RJOF,,,,0,20180126210000,-1,-1,-1,-1,999,-1,2,-1,-1,-1,-1,,9999,0,1,2,FEW 15   BKN 40,-1,3,-1,4,1024,RJOF 262100Z VRB02KT 9999 -SHSN FEW015 BKN040 M03/M04 Q1024     RMK 1CU015 7CU040 A3025 03/M04 R000 S002 SD001=,- SN SH
20180126_220000.003,0,RJOF,,,,0,20180126220000,-1,-1,-1,-1,999,-1,1,-1,-1,-1,-1,,9999,0,1,2,FEW 15   BKN 40,-1,2,-1,4,1025,RJOF 262200Z VRB01KT 9999 -SHSN FEW015 BKN040 M02/M04 Q1025     RMK 1CU015 7CU040 A3027=,- SN SH
20180126_230000.003,0,RJOF,,,,0,20180126230000,-1,-1,-1,-1,999,-1,2,-1,-1,-1,-1,,9999,0,0,2,FEW 15   BKN 40,-1,2,-1,3,1025,RJOF 262300Z VRB02KT 9999 FEW015 BKN040 M02/M03 Q1025 RMK     1CU015 7CU040 A3029=,
20180127_000000.003,0,RJOF,,,,0,20180127000000,-1,-1,-1,-1,999,-1,2,-1,-1,-1,-1,,9999,0,0,2,FEW 15   BKN 45,-1,1,-1,3,1025,RJOF 270000Z VRB02KT 9999 FEW015 BKN045 M01/M03 Q1025 RMK     1CU015 6SC045 A3028=,
20180127_010000.003,0,RJOF,,,,0,20180127010000,-1,-1,-1,-1,999,-1,2,-1,-1,-1,-1,,9999,0,0,2,FEW 20   BKN 50,1,1,-1,2,1025,RJOF 270100Z VRB02KT 9999 FEW020 BKN050 01/M02 Q1025 RMK     1CU020 5SC050 A3030=,
20180127_020000.003,0,RJOF,,,,0,20180127020000,-1,-1,-1,-1,280,-1,4,-1,-1,240,300,,9999,0,0,2,FEW 15   BKN 50,1,3,-1,2,1025,RJOF 270200Z 28004KT 240V300 9999 FEW015 BKN050 03/M02 Q1025     RMK 1CU015 6SC050 A3029=,
20180127_030000.003,0,RJOF,,,,0,20180127030000,-1,-1,-1,-1,270,-1,7,-1,-1,-1,-1,,9999,0,0,2,FEW 15   BKN 50,1,4,-1,2,1025,RJOF 270300Z 27007KT 9999 FEW015 BKN050 04/M02 Q1025 RMK     1CU015 6SC050 A3028=,
20180127_040000.003,0,RJOF,,,,0,20180127040000,-1,-1,-1,-1,260,-1,6,-1,-1,-1,-1,,9999,0,0,2,FEW 15   BKN 50,1,5,-1,3,1025,RJOF 270400Z 26006KT 9999 FEW015 BKN050 05/M03 Q1025 RMK     1CU015 7SC050 A3027=,
20180127_050000.003,0,RJOF,,,,0,20180127050000,-1,-1,-1,-1,270,-1,6,-1,-1,240,300,,9999,0,0,2,FEW 15   BKN 50,1,5,-1,2,1024,RJOF 270500Z 27006KT 240V300 9999 FEW015 BKN050 05/M02 Q1024     RMK 1CU015 7SC050 A3027=,
20180127_060000.003,0,RJOF,,,,0,20180127060000,-1,-1,-1,-1,260,-1,6,-1,-1,230,310,,9999,0,0,2,FEW 15   BKN 50,1,5,-1,2,1024,RJOF 270600Z 26006KT 230V310 9999 FEW015 BKN050 05/M02 Q1024     RMK 1CU015 5SC050 A3024=,
20180127_070000.003,0,RJOF,,,,0,20180127070000,-1,-1,-1,-1,260,-1,9,-1,-1,-1,-1,,9999,0,0,1,FEW 15,1,5,-1,2,1023,RJOF 270700Z 26009KT 9999 FEW015 05/M02 Q1023 RMK 1CU015     A3024=,
20180127_080000.003,0,RJOF,,,,0,20180127080000,-1,-1,-1,-1,260,-1,10,-1,-1,-1,-1,,9999,0,0,2,FEW 30   BKN 50,1,5,-1,2,1023,RJOF 270800Z 26010KT 9999 FEW030 BKN050 05/M02 Q1023 RMK     1CU030 6SC050 A3023=,
20180127_090000.004,0,RJOF,,,,0,20180127090000,-1,-1,-1,-1,280,-1,7,-1,-1,-1,-1,,9999,0,0,2,FEW 30   BKN 50,1,3,-1,2,1024,RJOF 270900Z 28007KT 9999 FEW030 BKN050 03/M02 Q1024 RMK     1CU030 6SC050 A3024=,
20180127_100000.003,0,RJOF,,,,0,20180127100000,-1,-1,-1,-1,270,-1,4,-1,-1,-1,-1,,9999,0,0,1,FEW 30,1,2,-1,2,1024,RJOF 271000Z 27004KT 9999 FEW030 02/M02 Q1024 RMK 1CU030     A3024=,
20180127_110000.003,0,RJOF,,,,0,20180127110000,-1,-1,-1,-1,330,-1,3,-1,-1,-1,-1,,9999,0,0,1,FEW 30,-1,1,-1,3,1023,RJOF 271100Z 33003KT 9999 FEW030 M01/M03 Q1023 RMK 1CU030     A3024=,
20180127_120000.003,0,RJOF,,,,0,20180127120000,-1,-1,-1,-1,10,-1,6,-1,-1,-1,-1,,9999,0,0,1,FEW 30,-1,0,-1,2,1023,RJOF 271200Z 01006KT 9999 FEW030 M00/M02 Q1023 RMK 1CU030     A3023=,
20180127_130000.003,0,RJOF,,,,0,20180127130000,-1,-1,-1,-1,360,-1,3,-1,-1,320,70,,9999,0,0,2,FEW 30   SCT -9999,-1,1,-1,3,1023,RJOF 271300Z 36003KT 320V070 9999 FEW030 SCT/// M01/M03 Q1023     RMK 1CU030 A3022=,
20180127_140000.004,0,RJOF,,,,0,20180127140000,-1,-1,-1,-1,20,-1,6,-1,-1,-1,-1,,9999,0,0,2,FEW 30   BKN 150,-1,0,-1,2,1023,RJOF 271400Z 02006KT 9999 FEW030 BKN150 M00/M02 Q1023 RMK     1CU030 5AC150 A3021=,
20180127_150000.003,0,RJOF,,,,0,20180127150000,-1,-1,-1,-1,10,-1,4,-1,-1,-1,-1,,9999,0,0,2,FEW 30   BKN 150,1,0,-1,2,1022,RJOF 271500Z 01004KT 9999 FEW030 BKN150 00/M02 Q1022 RMK     1CU030 6AC150 A3020=,
20180127_160000.003,0,RJOF,,,,0,20180127160000,-1,-1,-1,-1,10,-1,6,-1,-1,-1,-1,,9999,0,0,2,FEW 30   BKN 140,1,0,-1,2,1021,RJOF 271600Z 01006KT 9999 FEW030 BKN140 00/M02 Q1021 RMK     1CU030 7AC140 A3017=,
20180127_170000.003,0,RJOF,,,,0,20180127170000,-1,-1,-1,-1,360,-1,6,-1,-1,-1,-1,,9999,0,0,2,FEW 30   BKN 120,1,0,-1,2,1021,RJOF 271700Z 36006KT 9999 FEW030 BKN120 00/M02 Q1021 RMK     1CU030 7AC120 A3017=,
20180127_180000.003,0,RJOF,,,,0,20180127180000,-1,-1,-1,-1,340,-1,3,-1,-1,-1,-1,,9999,0,0,2,FEW 30   BKN 100,1,1,-1,2,1021,RJOF 271800Z 34003KT 9999 FEW030 BKN100 01/M02 Q1021 RMK     1CU030 7AC100 A3018=,
20180127_190000.003,0,RJOF,,,,0,20180127190000,-1,-1,-1,-1,10,-1,6,-1,-1,-1,-1,,9999,0,0,2,FEW 30   BKN 100,1,0,-1,2,1020,RJOF 271900Z 01006KT 9999 FEW030 BKN100 00/M02 Q1020 RMK     1CU030 7AC100 A3015=,
20180127_200000.003,0,RJOF,,,,0,20180127200000,-1,-1,-1,-1,360,-1,5,-1,-1,-1,-1,,9999,0,0,3,FEW 30   SCT 50   BKN 90,1,1,-1,2,1020,RJOF 272000Z 36005KT 9999 FEW030 SCT050 BKN090 01/M02 Q1020     RMK 1CU030 3SC050 7AC090 A3013=,
20180127_210000.003,0,RJOF,,,,0,20180127210000,-1,-1,-1,-1,10,-1,3,-1,-1,-1,-1,,9999,0,0,2,FEW 30   BKN 80,1,1,-1,2,1020,RJOF 272100Z 01003KT 9999 FEW030 BKN080 01/M02 Q1020 RMK     1CU030 7AC080 A3014 06/M01 R000 S000=,
20180127_220000.003,0,RJOF,,,,0,20180127220000,-1,-1,-1,-1,20,-1,3,-1,-1,-1,-1,,9999,0,1,2,FEW 15   OVC 80,1,1,-1,1,1020,RJOF 272200Z 02003KT 9999 -RASN FEW015 OVC080 01/M01 Q1020 RMK     1CU015 8AS080 A3013=,- RA SN
20180127_230000.003,0,RJOF,,,,0,20180127230000,-1,-1,-1,-1,999,-1,2,-1,-1,-1,-1,,9999,0,1,3,FEW 15   SCT 25   OVC 80,1,1,-1,1,1020,RJOF 272300Z VRB02KT 9999 -RA FEW015 SCT025 OVC080 01/M01     Q1020 RMK 1CU015 3CU025 8AS080 A3013=,- RA
20180128_000000.004,0,RJOF,,,,0,20180128000000,-1,-1,-1,-1,340,-1,4,-1,-1,-1,-1,,9999,0,1,3,FEW 15   BKN 25   BKN 50,1,2,-1,0,1020,RJOF 280000Z 34004KT 9999 -RA FEW015 BKN025 BKN050 02/M00     Q1020 RMK 1CU015 5CU025 7SC050 A3012=,- RA
20180128_010000.003,0,RJOF,,,,0,20180128010000,-1,-1,-1,-1,20,-1,3,-1,-1,-1,-1,,9999,0,1,3,FEW 15   BKN 25   BKN 50,1,4,1,2,1019,RJOF 280100Z 02003KT 9999 -RA FEW015 BKN025 BKN050 04/02 Q1019     RMK 1CU015 6CU025 6SC050 A3011=,- RA
20180128_020000.003,0,RJOF,,,,0,20180128020000,-1,-1,-1,-1,360,-1,3,-1,-1,-1,-1,,9999,0,1,3,FEW 15   BKN 25   BKN 50,1,4,1,1,1019,RJOF 280200Z 36003KT 9999 -RA FEW015 BKN025 BKN050 04/01 Q1019     RMK 1CU015 6CU025 7SC050 A3009=,- RA
20180128_030000.003,0,RJOF,,,,0,20180128030000,-1,-1,-1,-1,999,-1,2,-1,-1,-1,-1,,9999,0,1,3,FEW 15   BKN 25   OVC 50,1,5,1,2,1018,RJOF 280300Z VRB02KT 9999 -RA FEW015 BKN025 OVC050 05/02 Q1018     RMK 1CU015 6CU025 8SC050 A3006=,- RA
20180128_040000.003,0,RJOF,,,,0,20180128040000,-1,-1,-1,-1,250,-1,4,-1,-1,200,270,,9999,0,1,3,FEW 15   BKN 25   OVC 50,1,5,1,2,1017,RJOF 280400Z 25004KT 200V270 9999 -RA FEW015 BKN025 OVC050     05/02 Q1017 RMK 1CU015 5CU025 8SC050 A3003=,- RA
20180128_050000.003,0,RJOF,,,,0,20180128050000,-1,-1,-1,-1,260,-1,6,-1,-1,-1,-1,,9999,0,1,3,FEW 15   SCT 25   BKN 45,1,6,1,2,1016,RJOF 280500Z 26006KT 9999 -RA FEW015 SCT025 BKN045 06/02 Q1016     RMK 1CU015 3CU025 5SC045 A3002=,- RA
20180128_060000.003,0,RJOF,,,,0,20180128060000,-1,-1,-1,-1,290,-1,5,-1,-1,-1,-1,,9999,0,1,3,FEW 12   BKN 25   OVC 45,1,5,1,3,1016,RJOF 280600Z 29005KT 9999 -RA FEW012 BKN025 OVC045 05/03 Q1016     RMK 1CU012 5CU025 8SC045 A3002 VIS N-NE 8KM=,- RA
20180128_070000.004,0,RJOF,,,,0,20180128070000,-1,-1,-1,-1,300,-1,3,-1,-1,260,330,,9999,0,1,3,FEW 8   SCT 25   BKN 45,1,4,1,2,1016,RJOF 280700Z 30003KT 260V330 9999 -RA FEW008 SCT025 BKN045     04/02 Q1016 RMK 1ST008 3CU025 7SC045 A3002=,- RA
20180128_080000.003,0,RJOF,,,,0,20180128080000,-1,-1,-1,-1,999,-1,2,-1,-1,-1,-1,,9999,0,0,3,FEW 9   BKN 45   OVC 70,1,4,1,2,1016,RJOF 280800Z VRB02KT 9999 FEW009 BKN045 OVC070 04/02 Q1016 RMK     1ST009 6SC045 8AS070 A3002=,
20180128_090000.003,0,RJOF,,,,0,20180128090000,-1,-1,-1,-1,300,-1,1,-1,-1,-1,-1,,9999,0,1,3,FEW 15   BKN 20   OVC 40,1,4,1,2,1016,RJOF 280900Z 30001KT 9999 -SHRA FEW015 BKN020 OVC040 04/02     Q1016 RMK 1CU015 6CU020 8CU040 A3003=,- RA SH
20180128_100000.003,0,RJOF,,,,0,20180128100000,-1,-1,-1,-1,999,-1,2,-1,-1,-1,-1,,9999,0,1,3,FEW 15   BKN 20   OVC 40,1,4,1,2,1016,RJOF 281000Z VRB02KT 9999 -SHRA FEW015 BKN020 OVC040 04/02     Q1016 RMK 1CU015 5CU020 8CU040 A3002=,- RA SH
20180128_110000.003,0,RJOF,,,,0,20180128110000,-1,-1,-1,-1,999,-1,1,-1,-1,-1,-1,,9999,0,0,3,FEW 25   BKN 40   BKN -9999,1,3,1,2,1017,RJOF 281100Z VRB01KT 9999 FEW025 BKN040 BKN/// 03/02 Q1017 RMK     2CU025 5CU040 A3004=,
20180128_120000.003,0,RJOF,,,,0,20180128120000,-1,-1,-1,-1,310,-1,4,-1,-1,-1,-1,,9999,0,0,2,FEW 40   BKN -9999,1,2,-1,1,1017,RJOF 281200Z 31004KT 9999 FEW040 BKN/// 02/M01 Q1017 RMK     2CU040 A3003=,
20180128_130000.003,0,RJOF,,,,0,20180128130000,-1,-1,-1,-1,250,-1,4,-1,-1,-1,-1,,9999,0,0,2,FEW 40   BKN -9999,1,2,-1,1,1017,RJOF 281300Z 25004KT 9999 FEW040 BKN/// 02/M01 Q1017 RMK     1CU040 A3004=,
20180128_140000.003,0,RJOF,,,,0,20180128140000,-1,-1,-1,-1,999,-1,2,-1,-1,-1,-1,,9999,0,0,3,FEW 40   SCT 180   BKN -9999,1,1,-1,1,1017,RJOF 281400Z VRB02KT 9999 FEW040 SCT180 BKN/// 01/M01 Q1017     RMK 1CU040 3AC180 A3004=,
20180128_150000.003,0,RJOF,,,,0,20180128150000,-1,-1,-1,-1,360,-1,2,-1,-1,-1,-1,,9999,0,0,3,FEW 40   SCT 180   BKN -9999,-1,0,-1,2,1017,RJOF 281500Z 36002KT 9999 FEW040 SCT180 BKN/// M00/M02 Q1017     RMK 1CU040 3AC180 A3003=,
20180128_160000.003,0,RJOF,,,,0,20180128160000,-1,-1,-1,-1,340,-1,2,-1,-1,-1,-1,,9999,0,0,2,FEW 30   SCT 50,-1,0,-1,1,1016,RJOF 281600Z 34002KT 9999 FEW030 SCT050 M00/M01 Q1016 RMK     1CU030 3SC050 A3002=,
20180128_170000.003,0,RJOF,,,,0,20180128170000,-1,-1,-1,-1,330,-1,3,-1,-1,280,360,,9999,0,0,2,FEW 30   BKN 50,-1,0,-1,2,1016,RJOF 281700Z 33003KT 280V360 9999 FEW030 BKN050 M00/M02 Q1016     RMK 1CU030 6SC050 A3001=,
20180128_180000.003,0,RJOF,,,,0,20180128180000,-1,-1,-1,-1,320,-1,4,-1,-1,-1,-1,,9999,0,0,2,FEW 30   BKN 50,-1,0,-1,1,1016,RJOF 281800Z 32004KT 9999 FEW030 BKN050 M00/M01 Q1016 RMK     1CU030 6SC050 A3001=,
20180128_190000.003,0,RJOF,,,,0,20180128190000,-1,-1,-1,-1,360,-1,4,-1,-1,-1,-1,,9999,0,0,2,FEW 30   BKN 50,1,1,-1,1,1016,RJOF 281900Z 36004KT 9999 FEW030 BKN050 01/M01 Q1016 RMK     1CU030 7SC050 A3000=,
20180128_200000.003,0,RJOF,,,,0,20180128200000,-1,-1,-1,-1,280,-1,4,-1,-1,-1,-1,,9999,0,0,2,FEW 30   BKN 50,1,2,-1,1,1015,RJOF 282000Z 28004KT 9999 FEW030 BKN050 02/M01 Q1015 RMK     1CU030 7SC050 A3000=,
20180128_210000.003,0,RJOF,,,,0,20180128210000,-1,-1,-1,-1,330,-1,7,-1,-1,-1,-1,,9999,0,0,2,FEW 20   BKN 50,1,3,-1,1,1015,RJOF 282100Z 33007KT 9999 FEW020 BKN050 03/M01 Q1015 RMK     1CU020 7SC050 A3000 06/M01 R000 S000=,
20180128_220000.004,0,RJOF,,,,0,20180128220000,-1,-1,-1,-1,310,-1,11,-1,-1,-1,-1,,9999,0,0,2,FEW 10   BKN 45,1,2,-1,4,1016,RJOF 282200Z 31011KT 9999 FEW010 BKN045 02/M04 Q1016 RMK     1CU010 7CU045 A3002 MAX WIND 19KT=,
20180128_230000.003,0,RJOF,,,,0,20180128230000,-1,-1,-1,-1,310,-1,12,-1,-1,-1,-1,,9999,0,0,2,FEW 25   BKN 40,1,2,-1,5,1017,RJOF 282300Z 31012KT 9999 FEW025 BKN040 02/M05 Q1017 RMK     1CU025 6CU040 A3005 MAX WIND 20KT=,
20180129_000000.004,0,RJOF,,,,0,20180129000000,-1,-1,-1,-1,310,-1,13,-1,-1,-1,-1,,9999,0,0,1,FEW 25,1,2,-1,6,1018,RJOF 290000Z 31013KT 9999 FEW025 02/M06 Q1018 RMK 1CU025 A3007     MAX WIND 18KT=,
20180129_010000.003,0,RJOF,,,,0,20180129010000,-1,-1,-1,-1,310,-1,14,-1,-1,280,340,,9999,0,0,1,FEW 30,1,3,-1,7,1018,RJOF 290100Z 31014KT 280V340 9999 FEW030 03/M07 Q1018 RMK     2CU030 A3009 MAX WIND 23KT=,
20180129_020000.003,0,RJOF,,,,0,20180129020000,-1,-1,-1,-1,310,-1,15,-1,-1,290,350,,9999,0,1,1,FEW 30,1,4,-1,7,1019,RJOF 290200Z 31015KT 290V350 9999 VCSH FEW030 04/M07 Q1019 RMK     2CU030 A3009 MAX WIND 21KT VCSH NE=,VC SH
20180129_030000.003,0,RJOF,,,,0,20180129030000,-1,-1,-1,-1,320,-1,15,-1,-1,290,350,,9999,0,1,2,FEW 20   BKN 30,1,4,-1,7,1018,RJOF 290300Z 32015KT 290V350 9999 -SHSN FEW020 BKN030 04/M07     Q1018 RMK 1CU020 5CU030 A3007 MAX WIND 24KT=,- SN SH
20180129_040000.003,0,RJOF,,,,0,20180129040000,-1,-1,-1,-1,310,-1,11,-1,-1,-1,-1,,9999,0,1,2,FEW 20   BKN 30,1,3,-1,5,1018,RJOF 290400Z 31011KT 9999 -SHSN FEW020 BKN030 03/M05 Q1018 RMK     1CU020 5CU030 A3006 MAX WIND 18KT=,- SN SH
20180129_050000.003,0,RJOF,,,,0,20180129050000,-1,-1,-1,-1,320,-1,15,-1,-1,-1,-1,,9999,0,1,2,FEW 20   BKN 30,1,3,-1,6,1017,RJOF 290500Z 32015KT 9999 -SHSN FEW020 BKN030 03/M06 Q1017 RMK     1CU020 5CU030 A3006=,- SN SH
20180129_060000.003,0,RJOF,,,,0,20180129060000,-1,-1,-1,-1,300,-1,11,-1,-1,-1,-1,,9999,0,1,2,FEW 15   SCT 30,1,2,-1,4,1017,RJOF 290600Z 30011KT 9999 -SHSN FEW015 SCT030 02/M04 Q1017 RMK     1CU015 3CU030 A3006=,- SN SH
20180129_070000.003,0,RJOF,,,,0,20180129070000,-1,-1,-1,-1,300,-1,15,-1,26,270,330,,9999,0,1,2,FEW 15   BKN 30,1,2,-1,9,1018,RJOF 290700Z 30015G26KT 270V330 9999 -SHSN FEW015 BKN030     02/M09 Q1018 RMK 1CU015 5CU030 A3007=,- SN SH
20180129_080000.003,0,RJOF,,,,0,20180129080000,-1,-1,-1,-1,280,-1,12,-1,-1,-1,-1,,9999,0,1,2,FEW 15   SCT 30,1,1,-1,6,1019,RJOF 290800Z 28012KT 9999 -SHSN FEW015 SCT030 01/M06 Q1019 RMK     1CU015 3CU030 A3010=,- SN SH
20180129_090000.003,0,RJOF,,,,0,20180129090000,-1,-1,-1,-1,290,-1,11,-1,-1,-1,-1,,9999,0,0,1,FEW 30,1,0,-1,6,1019,RJOF 290900Z 29011KT 9999 FEW030 00/M06 Q1019 RMK 1CU030     A3010=,
20180129_100000.003,0,RJOF,,,,0,20180129100000,-1,-1,-1,-1,300,-1,13,-1,-1,-1,-1,,9999,0,0,1,FEW 30,1,1,-1,8,1019,RJOF 291000Z 30013KT 9999 FEW030 01/M08 Q1019 RMK 1CU030     A3012=,
20180129_110000.003,0,RJOF,,,,0,20180129110000,-1,-1,-1,-1,310,-1,10,-1,-1,-1,-1,,9999,0,0,1,FEW 30,1,1,-1,8,1020,RJOF 291100Z 31010KT 9999 FEW030 01/M08 Q1020 RMK 1CU030     A3012=,
20180129_120000.003,0,RJOF,,,,0,20180129120000,-1,-1,-1,-1,300,-1,4,-1,-1,-1,-1,,9999,0,0,1,FEW 40,-1,1,-1,8,1019,RJOF 291200Z 30004KT 9999 FEW040 M01/M08 Q1019 RMK 2CU040     A3012=,
20180129_130000.003,0,RJOF,,,,0,20180129130000,-1,-1,-1,-1,0,-1,0,-1,-1,-1,-1,,9999,0,0,1,FEW 40,-1,2,-1,8,1019,RJOF 291300Z 00000KT 9999 FEW040 M02/M08 Q1019 RMK 2CU040     A3011=,
20180129_140000.003,0,RJOF,,,,0,20180129140000,-1,-1,-1,-1,350,-1,3,-1,-1,-1,-1,,9999,0,0,1,FEW 40,-1,1,-1,5,1019,RJOF 291400Z 35003KT 9999 FEW040 M01/M05 Q1019 RMK 2CU040     A3012=,
20180129_150000.003,0,RJOF,,,,0,20180129150000,-1,-1,-1,-1,999,-1,2,-1,-1,-1,-1,,9999,0,0,2,FEW 30   BKN 40,-1,2,-1,6,1019,RJOF 291500Z VRB02KT 9999 FEW030 BKN040 M02/M06 Q1019 RMK     1CU030 5CU040 A3011=,
20180129_160000.003,0,RJOF,,,,0,20180129160000,-1,-1,-1,-1,220,-1,5,-1,-1,-1,-1,,9999,0,0,2,FEW 30   BKN 40,-1,1,-1,6,1020,RJOF 291600Z 22005KT 9999 FEW030 BKN040 M01/M06 Q1020 RMK     1CU030 5CU040 A3012=,
20180129_170000.003,0,RJOF,,,,0,20180129170000,-1,-1,-1,-1,330,-1,6,-1,-1,-1,-1,,9999,0,0,2,FEW 30   BKN 40,-1,2,-1,5,1020,RJOF 291700Z 33006KT 9999 FEW030 BKN040 M02/M05 Q1020 RMK     1CU030 6CU040 A3014=,
20180129_180000.003,0,RJOF,,,,0,20180129180000,-1,-1,-1,-1,300,-1,7,-1,-1,-1,-1,,9999,0,0,2,FEW 30   BKN 40,1,0,-1,4,1021,RJOF 291800Z 30007KT 9999 FEW030 BKN040 00/M04 Q1021 RMK     1CU030 5CU040 A3015=,
20180129_190000.003,0,RJOF,,,,0,20180129190000,-1,-1,-1,-1,310,-1,10,-1,-1,-1,-1,,9999,0,0,2,FEW 30   SCT 40,1,0,-1,6,1021,RJOF 291900Z 31010KT 9999 FEW030 SCT040 00/M06 Q1021 RMK     1CU030 4CU040 A3017=,
20180129_200000.003,0,RJOF,,,,0,20180129200000,-1,-1,-1,-1,300,-1,7,-1,-1,-1,-1,,9999,0,0,2,FEW 30   SCT 40,-1,1,-1,6,1021,RJOF 292000Z 30007KT 9999 FEW030 SCT040 M01/M06 Q1021 RMK     1CU030 3CU040 A3017=,
20180129_210000.003,0,RJOF,,,,0,20180129210000,-1,-1,-1,-1,260,-1,8,-1,-1,-1,-1,,9999,0,0,1,FEW 30,-1,2,-1,6,1022,RJOF 292100Z 26008KT 9999 FEW030 M02/M06 Q1022 RMK 1CU030     A3018 05/M03 R000 S000=,
20180129_220000.003,0,RJOF,,,,0,20180129220000,-1,-1,-1,-1,290,-1,6,-1,-1,-1,-1,,9999,0,0,1,FEW 30,-1,2,-1,7,1022,RJOF 292200Z 29006KT 9999 FEW030 M02/M07 Q1022 RMK 1CU030     A3019=,
20180129_230000.003,0,RJOF,,,,0,20180129230000,-1,-1,-1,-1,290,-1,4,-1,-1,-1,-1,,9999,0,0,1,FEW 30,-1,2,-1,6,1023,RJOF 292300Z 29004KT 9999 FEW030 M02/M06 Q1023 RMK 1CU030     A3021 VIRGA NW=,
20180130_000000.003,0,RJOF,,,,0,20180130000000,-1,-1,-1,-1,270,-1,7,-1,-1,-1,-1,,9999,0,0,1,FEW 30,1,1,-1,5,1023,RJOF 300000Z 27007KT 9999 FEW030 01/M05 Q1023 RMK 1CU030     A3022=,
20180130_010000.003,0,RJOF,,,,0,20180130010000,-1,-1,-1,-1,270,-1,11,-1,-1,-1,-1,,9999,0,0,1,FEW 30,1,2,-1,6,1023,RJOF 300100Z 27011KT 9999 FEW030 02/M06 Q1023 RMK 1CU030     A3023=,
20180130_020000.003,0,RJOF,,,,0,20180130020000,-1,-1,-1,-1,290,-1,9,-1,-1,240,330,,9999,0,0,2,FEW 30   SCT 40,1,4,-1,8,1023,RJOF 300200Z 29009KT 240V330 9999 FEW030 SCT040 04/M08 Q1023     RMK 1CU030 4CU040 A3022=,
20180130_030000.003,0,RJOF,,,,0,20180130030000,-1,-1,-1,-1,270,-1,10,-1,-1,-1,-1,,9999,0,0,2,FEW 30   BKN 40,1,3,-1,9,1023,RJOF 300300Z 27010KT 9999 FEW030 BKN040 03/M09 Q1023 RMK     1CU030 5CU040 A3022=,
20180130_040000.003,0,RJOF,,,,0,20180130040000,-1,-1,-1,-1,310,-1,9,-1,-1,270,350,,9999,0,0,2,FEW 30   BKN 40,1,6,-1,9,1022,RJOF 300400Z 31009KT 270V350 9999 FEW030 BKN040 06/M09 Q1022     RMK 1CU030 5CU040 A3019=,
20180130_050000.003,0,RJOF,,,,0,20180130050000,-1,-1,-1,-1,260,-1,12,-1,-1,-1,-1,,9999,0,0,2,FEW 30   SCT 40,1,5,-1,10,1021,RJOF 300500Z 26012KT 9999 FEW030 SCT040 05/M10 Q1021 RMK     1CU030 3CU040 A3018=,
20180130_060000.004,0,RJOF,,,,0,20180130060000,-1,-1,-1,-1,260,-1,12,-1,-1,-1,-1,,9999,0,0,2,FEW 30   SCT 40,1,6,-1,8,1022,RJOF 300600Z 26012KT 9999 FEW030 SCT040 06/M08 Q1022 RMK     1CU030 3CU040 A3018=,
20180130_070000.003,0,RJOF,,,,0,20180130070000,-1,-1,-1,-1,260,-1,12,-1,-1,-1,-1,,9999,0,0,2,FEW 30   SCT 45,1,6,-1,9,1022,RJOF 300700Z 26012KT 9999 FEW030 SCT045 06/M09 Q1022 RMK     1CU030 3SC045 A3020=,
20180130_080000.003,0,RJOF,,,,0,20180130080000,-1,-1,-1,-1,260,-1,16,-1,-1,-1,-1,,9999,0,0,2,FEW 30   SCT 40,1,4,-1,7,1023,RJOF 300800Z 26016KT 9999 FEW030 SCT040 04/M07 Q1023 RMK     1CU030 3CU040 A3024 MAX WIND 20KT=,
20180130_090000.003,0,RJOF,,,,0,20180130090000,-1,-1,-1,-1,280,-1,9,-1,-1,-1,-1,,9999,0,0,1,FEW 30,1,2,-1,7,1024,RJOF 300900Z 28009KT 9999 FEW030 02/M07 Q1024 RMK 1CU030     A3027=,
20180130_100000.003,0,RJOF,,,,0,20180130100000,-1,-1,-1,-1,310,-1,5,-1,-1,-1,-1,,9999,0,0,1,FEW 30,1,1,-1,7,1024,RJOF 301000Z 31005KT 9999 FEW030 01/M07 Q1024 RMK 1CU030     A3027=,
20180130_110000.003,0,RJOF,,,,0,20180130110000,-1,-1,-1,-1,999,-1,1,-1,-1,-1,-1,,9999,0,0,2,FEW 30   SCT 180,1,0,-1,7,1025,RJOF 301100Z VRB01KT 9999 FEW030 SCT180 00/M07 Q1025 RMK     1CU030 3AC180 A3028=,
20180130_120000.003,0,RJOF,,,,0,20180130120000,-1,-1,-1,-1,999,-1,2,-1,-1,-1,-1,,9999,0,0,2,FEW 30   BKN 180,1,0,-1,6,1025,RJOF 301200Z VRB02KT 9999 FEW030 BKN180 00/M06 Q1025 RMK     1CU030 5AC180 A3028=,
20180130_130000.003,0,RJOF,,,,0,20180130130000,-1,-1,-1,-1,999,-1,2,-1,-1,-1,-1,,9999,0,0,2,FEW 30   BKN -9999,-1,1,-1,6,1025,RJOF 301300Z VRB02KT 9999 FEW030 BKN/// M01/M06 Q1025 RMK     1CU030 A3029=,
20180130_140000.003,0,RJOF,,,,0,20180130140000,-1,-1,-1,-1,360,-1,3,-1,-1,330,60,,9999,0,0,1,FEW 30,-1,1,-1,5,1025,RJOF 301400Z 36003KT 330V060 9999 FEW030 M01/M05 Q1025 RMK     1CU030 A3030=,
20180130_150000.003,0,RJOF,,,,0,20180130150000,-1,-1,-1,-1,360,-1,3,-1,-1,320,50,,9999,0,0,1,FEW 40,-1,2,-1,5,1025,RJOF 301500Z 36003KT 320V050 9999 FEW040 M02/M05 Q1025 RMK     1CU040 A3030=,
20180130_160000.003,0,RJOF,,,,0,20180130160000,-1,-1,-1,-1,999,-1,1,-1,-1,-1,-1,,9999,0,0,1,FEW 40,-1,2,-1,5,1025,RJOF 301600Z VRB01KT 9999 FEW040 M02/M05 Q1025 RMK 1CU040     A3029=,
20180130_170000.003,0,RJOF,,,,0,20180130170000,-1,-1,-1,-1,350,-1,4,-1,-1,270,20,,9999,0,0,1,FEW 40,-1,3,-1,6,1026,RJOF 301700Z 35004KT 270V020 9999 FEW040 M03/M06 Q1026 RMK     1CU040 A3030=,
20180130_180000.003,0,RJOF,,,,0,20180130180000,-1,-1,-1,-1,360,-1,9,-1,-1,-1,-1,,9999,0,0,1,FEW 40,-1,3,-1,5,1026,RJOF 301800Z 36009KT 9999 FEW040 M03/M05 Q1026 RMK 1CU040     A3031=,
20180130_190000.003,0,RJOF,,,,0,20180130190000,-1,-1,-1,-1,350,-1,3,-1,-1,290,40,,9999,0,0,1,FEW 40,-1,3,-1,5,1026,RJOF 301900Z 35003KT 290V040 9999 FEW040 M03/M05 Q1026 RMK     1CU040 A3030=,
20180130_200000.003,0,RJOF,,,,0,20180130200000,-1,-1,-1,-1,360,-1,8,-1,-1,-1,-1,,9999,0,0,1,FEW 40,-1,3,-1,5,1026,RJOF 302000Z 36008KT 9999 FEW040 M03/M05 Q1026 RMK 1CU040     A3031=,
20180130_210000.003,0,RJOF,,,,0,20180130210000,-1,-1,-1,-1,320,-1,5,-1,-1,300,360,,9999,0,0,1,FEW 40,-1,3,-1,6,1027,RJOF 302100Z 32005KT 300V360 9999 FEW040 M03/M06 Q1027 RMK     1CU040 A3033 07/M04=,
20180130_220000.003,0,RJOF,,,,0,20180130220000,-1,-1,-1,-1,350,-1,3,-1,-1,-1,-1,,9999,0,0,1,FEW 40,-1,4,-1,6,1027,RJOF 302200Z 35003KT 9999 FEW040 M04/M06 Q1027 RMK 1CU040     A3035=,
20180130_230000.003,0,RJOF,,,,0,20180130230000,-1,-1,-1,-1,10,-1,7,-1,-1,-1,-1,,9999,0,0,2,FEW 30   BKN 200,-1,3,-1,6,1028,RJOF 302300Z 01007KT 9999 FEW030 BKN200 M03/M06 Q1028 RMK     1CU030 A3036=,
20180131_000000.003,0,RJOF,,,,0,20180131000000,-1,-1,-1,-1,20,-1,7,-1,-1,-1,-1,,9999,0,0,2,FEW 30   BKN 200,-1,1,-1,4,1027,RJOF 310000Z 02007KT 9999 FEW030 BKN200 M01/M04 Q1027 RMK     1CU030 A3035=,
20180131_010000.003,0,RJOF,,,,0,20180131010000,-1,-1,-1,-1,10,-1,5,-1,-1,-1,-1,,9999,0,0,2,FEW 30   BKN 200,1,3,-1,3,1028,RJOF 310100Z 01005KT 9999 FEW030 BKN200 03/M03 Q1028 RMK     1CU030 A3036=,
20180131_020000.003,0,RJOF,,,,0,20180131020000,-1,-1,-1,-1,220,-1,8,-1,-1,200,260,,9999,0,0,2,FEW 30   BKN 180,1,5,-1,3,1028,RJOF 310200Z 22008KT 200V260 9999 FEW030 BKN180 05/M03 Q1028     RMK 1CU030 7AC180 A3036=,
20180131_030000.003,0,RJOF,,,,0,20180131030000,-1,-1,-1,-1,170,-1,3,-1,-1,-1,-1,,9999,0,0,2,FEW 30   BKN 180,1,6,-1,2,1026,RJOF 310300Z 17003KT 9999 FEW030 BKN180 06/M02 Q1026 RMK     1CU030 7AC180 A3031=,
20180131_040000.003,0,RJOF,,,,0,20180131040000,-1,-1,-1,-1,100,-1,4,-1,-1,-1,-1,,9999,0,0,2,FEW 30   BKN 180,1,6,-1,2,1025,RJOF 310400Z 10004KT 9999 FEW030 BKN180 06/M02 Q1025 RMK     1CU030 7AC180 A3028=,
20180131_050000.003,0,RJOF,,,,0,20180131050000,-1,-1,-1,-1,190,-1,7,-1,-1,-1,-1,,9999,0,0,3,FEW 30   SCT 40   BKN 180,1,7,-1,1,1024,RJOF 310500Z 19007KT 9999 FEW030 SCT040 BKN180 07/M01 Q1024     RMK 1CU030 3CU040 5AC180 A3027=,
20180131_060000.003,0,RJOF,,,,0,20180131060000,-1,-1,-1,-1,210,-1,6,-1,-1,160,250,,9999,0,0,3,FEW 30   SCT 40   BKN 180,1,7,-1,2,1024,RJOF 310600Z 21006KT 160V250 9999 FEW030 SCT040 BKN180 07/M02     Q1024 RMK 1CU030 3CU040 5AC180 A3027=,
20180131_070000.004,0,RJOF,,,,0,20180131070000,-1,-1,-1,-1,999,-1,2,-1,-1,-1,-1,,9999,0,0,2,FEW 30   SCT 180,1,7,-1,2,1024,RJOF 310700Z VRB02KT 9999 FEW030 SCT180 07/M02 Q1024 RMK     1CU030 3AC180 A3025=,
20180131_080000.004,0,RJOF,,,,0,20180131080000,-1,-1,-1,-1,210,-1,4,-1,-1,-1,-1,,9999,0,0,3,FEW 40   SCT 180   BKN 230,1,6,-1,2,1024,RJOF 310800Z 21004KT 9999 FEW040 SCT180 BKN230 06/M02 Q1024     RMK 1CU040 3AC180 A3026=,
20180131_090000.003,0,RJOF,,,,0,20180131090000,-1,-1,-1,-1,999,-1,1,-1,-1,-1,-1,,9999,0,0,3,FEW 40   SCT 120   BKN -9999,1,4,-1,2,1025,RJOF 310900Z VRB01KT 9999 FEW040 SCT120 BKN/// 04/M02 Q1025     RMK 1CU040 3AC120 A3027=,
20180131_100000.003,0,RJOF,,,,0,20180131100000,-1,-1,-1,-1,999,-1,1,-1,-1,-1,-1,,9999,0,0,3,FEW 40   SCT 120   BKN -9999,1,4,-1,1,1024,RJOF 311000Z VRB01KT 9999 FEW040 SCT120 BKN/// 04/M01 Q1024     RMK 1CU040 4AC120 A3026=,
20180131_110000.003,0,RJOF,,,,0,20180131110000,-1,-1,-1,-1,360,-1,4,-1,-1,-1,-1,,9999,0,0,3,FEW 40   BKN 120   BKN -9999,1,3,-1,2,1024,RJOF 311100Z 36004KT 9999 FEW040 BKN120 BKN/// 03/M02 Q1024     RMK 1CU040 5AC120 A3025=,
20180131_120000.003,0,RJOF,,,,0,20180131120000,-1,-1,-1,-1,360,-1,4,-1,-1,-1,-1,,9999,0,0,3,FEW 40   BKN 100   BKN -9999,1,3,-1,1,1025,RJOF 311200Z 36004KT 9999 FEW040 BKN100 BKN/// 03/M01 Q1025     RMK 1CU040 6AC100 A3027=,
20180131_130000.004,0,RJOF,,,,0,20180131130000,-1,-1,-1,-1,350,-1,4,-1,-1,-1,-1,,9999,0,0,2,FEW 40   BKN 100,1,3,-1,1,1025,RJOF 311300Z 35004KT 9999 FEW040 BKN100 03/M01 Q1025 RMK     1CU040 7AC100 A3027=,
20180131_140000.003,0,RJOF,,,,0,20180131140000,-1,-1,-1,-1,360,-1,5,-1,-1,-1,-1,,9999,0,0,2,FEW 40   BKN 80,1,3,-1,1,1025,RJOF 311400Z 36005KT 9999 FEW040 BKN080 03/M01 Q1025 RMK     1CU040 7AC080 A3028=,
20180131_150000.003,0,RJOF,,,,0,20180131150000,-1,-1,-1,-1,360,-1,6,-1,-1,-1,-1,,9999,0,0,2,FEW 40   BKN 80,1,2,-1,1,1025,RJOF 311500Z 36006KT 9999 FEW040 BKN080 02/M01 Q1025 RMK     1CU040 7AC080 A3028=,
20180131_160000.003,0,RJOF,,,,0,20180131160000,-1,-1,-1,-1,20,-1,5,-1,-1,-1,-1,,9999,0,0,2,FEW 40   BKN 80,1,2,-1,1,1024,RJOF 311600Z 02005KT 9999 FEW040 BKN080 02/M01 Q1024 RMK     1CU040 7AC080 A3027=,
20180131_170000.003,0,RJOF,,,,0,20180131170000,-1,-1,-1,-1,360,-1,7,-1,-1,-1,-1,,9999,0,1,3,FEW 40   SCT 50   OVC 80,1,3,-1,1,1025,RJOF 311700Z 36007KT 9999 -RA FEW040 SCT050 OVC080 03/M01     Q1025 RMK 1CU040 3SC050 8AS080 A3027=,- RA
20180131_180000.003,0,RJOF,,,,0,20180131180000,-1,-1,-1,-1,330,-1,3,-1,-1,300,10,,9999,0,0,2,FEW 30   BKN 80,1,3,-1,1,1024,RJOF 311800Z 33003KT 300V010 9999 FEW030 BKN080 03/M01 Q1024     RMK 1CU030 7AC080 A3026=,
20180131_190000.004,0,RJOF,,,,0,20180131190000,-1,-1,-1,-1,999,-1,1,-1,-1,-1,-1,,9999,0,0,3,FEW 30   SCT 50   BKN 80,1,2,-1,1,1024,RJOF 311900Z VRB01KT 9999 FEW030 SCT050 BKN080 02/M01 Q1024     RMK 1CU030 3SC050 7AC080 A3025=,
20180131_200000.004,0,RJOF,,,,0,20180131200000,-1,-1,-1,-1,360,-1,3,-1,-1,-1,-1,,9999,0,0,2,FEW 30   BKN 100,1,2,-1,1,1024,RJOF 312000Z 36003KT 9999 FEW030 BKN100 02/M01 Q1024 RMK     1CU030 7AC100 A3025=,
20180131_210000.003,0,RJOF,,,,0,20180131210000,-1,-1,-1,-1,360,-1,5,-1,-1,-1,-1,,9999,0,0,2,FEW 30   BKN 100,1,2,-1,1,1024,RJOF 312100Z 36005KT 9999 FEW030 BKN100 02/M01 Q1024 RMK     1CU030 7AC100 A3025 08/02 R000=,
20180131_220000.003,0,RJOF,,,,0,20180131220000,-1,-1,-1,-1,10,-1,4,-1,-1,-1,-1,,9999,0,0,2,FEW 30   BKN 100,1,2,-1,1,1025,RJOF 312200Z 01004KT 9999 FEW030 BKN100 02/M01 Q1025 RMK     1CU030 7AC100 A3027=,
20180131_230000.003,0,RJOF,,,,0,20180131230000,-1,-1,-1,-1,999,-1,2,-1,-1,-1,-1,,9999,0,0,2,FEW 20   BKN 100,1,2,-1,1,1025,RJOF 312300Z VRB02KT 9999 FEW020 BKN100 02/M01 Q1025 RMK     1CU020 7AC100 A3028=,
20180201_000000.004,0,RJOF,,,,0,20180201000000,-1,-1,-1,-1,10,-1,3,-1,-1,-1,-1,,9999,0,0,2,FEW 20   BKN 100,1,3,-1,1,1025,RJOF 010000Z 01003KT 9999 FEW020 BKN100 03/M01 Q1025 RMK     1CU020 7AC100 A3028=,
20180201_010000.003,0,RJOF,,,,0,20180201010000,-1,-1,-1,-1,999,-1,1,-1,-1,-1,-1,,9999,0,0,2,FEW 20   BKN 100,1,5,-1,2,1024,RJOF 010100Z VRB01KT 9999 FEW020 BKN100 05/M02 Q1024 RMK     1CU020 6AC100 A3027=,
20180201_020000.003,0,RJOF,,,,0,20180201020000,-1,-1,-1,-1,100,-1,4,-1,-1,70,160,,9999,0,0,2,FEW 25   SCT 100,1,6,-1,2,1024,RJOF 010200Z 10004KT 070V160 9999 FEW025 SCT100 06/M02 Q1024     RMK 1CU025 3AC100 A3027=,
20180201_030000.004,0,RJOF,,,,0,20180201030000,-1,-1,-1,-1,999,-1,3,-1,-1,-1,-1,,9999,0,0,2,FEW 25   SCT 100,1,7,-1,3,1024,RJOF 010300Z VRB03KT 9999 FEW025 SCT100 07/M03 Q1024 RMK     1CU025 3AC100 A3026=,
20180201_040000.004,0,RJOF,,,,0,20180201040000,-1,-1,-1,-1,210,-1,7,-1,-1,-1,-1,,9999,0,0,2,FEW 25   BKN 40,1,7,-1,1,1023,RJOF 010400Z 21007KT 9999 FEW025 BKN040 07/M01 Q1023 RMK     1CU025 6CU040 A3024=,
20180201_050000.003,0,RJOF,,,,0,20180201050000,-1,-1,-1,-1,170,-1,7,-1,-1,-1,-1,,9999,0,0,2,FEW 25   BKN 40,1,7,-1,1,1023,RJOF 010500Z 17007KT 9999 FEW025 BKN040 07/M01 Q1023 RMK     1CU025 6CU040 A3022=,
20180201_060000.003,0,RJOF,,,,0,20180201060000,-1,-1,-1,-1,230,-1,6,-1,-1,190,270,,9999,0,0,2,FEW 25   BKN 40,1,7,-1,0,1023,RJOF 010600Z 23006KT 190V270 9999 FEW025 BKN040 07/M00 Q1023     RMK 1CU025 5CU040 A3022=,
20180201_070000.003,0,RJOF,,,,0,20180201070000,-1,-1,-1,-1,190,-1,8,-1,-1,-1,-1,,9999,0,0,1,FEW 25,1,7,-1,1,1023,RJOF 010700Z 19008KT 9999 FEW025 07/M01 Q1023 RMK 1CU025     A3021=,
20180201_080000.003,0,RJOF,,,,0,20180201080000,-1,-1,-1,-1,200,-1,8,-1,-1,-1,-1,,9999,0,0,2,FEW 25   BKN 40,1,6,-1,0,1023,RJOF 010800Z 20008KT 9999 FEW025 BKN040 06/M00 Q1023 RMK     1CU025 6CU040 A3022=,
20180201_090000.003,0,RJOF,,,,0,20180201090000,-1,-1,-1,-1,240,-1,5,-1,-1,-1,-1,,9999,0,0,2,FEW 25   SCT 40,1,5,1,0,1024,RJOF 010900Z 24005KT 9999 FEW025 SCT040 05/00 Q1024 RMK 1CU025     3CU040 A3024=,
20180201_100000.003,0,RJOF,,,,0,20180201100000,-1,-1,-1,-1,999,-1,1,-1,-1,-1,-1,,9999,0,0,1,FEW 25,1,3,-1,0,1024,RJOF 011000Z VRB01KT 9999 FEW025 03/M00 Q1024 RMK 1CU025     A3025=,
20180201_110000.003,0,RJOF,,,,0,20180201110000,-1,-1,-1,-1,340,-1,3,-1,-1,300,10,,9999,0,0,1,FEW 25,1,2,-1,1,1025,RJOF 011100Z 34003KT 300V010 9999 FEW025 02/M01 Q1025 RMK     1CU025 A3027=,
20180201_120000.003,0,RJOF,,,,0,20180201120000,-1,-1,-1,-1,360,-1,4,-1,-1,-1,-1,,9999,0,0,1,FEW 25,1,2,-1,1,1025,RJOF 011200Z 36004KT 9999 FEW025 02/M01 Q1025 RMK 1CU025     A3027=,
20180201_130000.003,0,RJOF,,,,0,20180201130000,-1,-1,-1,-1,320,-1,3,-1,-1,280,360,,9999,0,0,1,FEW 30,1,2,-1,1,1025,RJOF 011300Z 32003KT 280V360 9999 FEW030 02/M01 Q1025 RMK     1CU030 A3027=,
20180201_140000.003,0,RJOF,,,,0,20180201140000,-1,-1,-1,-1,310,-1,5,-1,-1,-1,-1,,9999,0,0,1,FEW 30,1,1,-1,1,1025,RJOF 011400Z 31005KT 9999 FEW030 01/M01 Q1025 RMK 1CU030     A3029=,
20180201_150000.003,0,RJOF,,,,0,20180201150000,-1,-1,-1,-1,360,-1,4,-1,-1,330,30,,9999,0,0,1,FEW 30,1,0,-1,2,1025,RJOF 011500Z 36004KT 330V030 9999 FEW030 00/M02 Q1025 RMK     1CU030 A3028=,
20180201_160000.003,0,RJOF,,,,0,20180201160000,-1,-1,-1,-1,20,-1,5,-1,-1,-1,-1,,9999,0,0,1,FEW 30,1,0,-1,2,1024,RJOF 011600Z 02005KT 9999 FEW030 00/M02 Q1024 RMK 1CU030     A3026=,
20180201_170000.003,0,RJOF,,,,0,20180201170000,-1,-1,-1,-1,360,-1,5,-1,-1,-1,-1,,9999,0,0,1,FEW 30,1,0,-1,2,1024,RJOF 011700Z 36005KT 9999 FEW030 00/M02 Q1024 RMK 1CU030     A3027=,
20180201_180000.003,0,RJOF,,,,0,20180201180000,-1,-1,-1,-1,340,-1,3,-1,-1,-1,-1,,9999,0,0,1,FEW 30,-1,2,-1,4,1024,RJOF 011800Z 34003KT 9999 FEW030 M02/M04 Q1024 RMK 1CU030     A3025=,
20180201_190000.004,0,RJOF,,,,0,20180201190000,-1,-1,-1,-1,350,-1,5,-1,-1,-1,-1,,9999,0,0,1,FEW 30,-1,1,-1,3,1024,RJOF 011900Z 35005KT 9999 FEW030 M01/M03 Q1024 RMK 1CU030     A3025=,
20180201_200000.004,0,RJOF,,,,0,20180201200000,-1,-1,-1,-1,350,-1,3,-1,-1,-1,-1,,9999,0,0,2,FEW 30   SCT 50,-1,1,-1,3,1023,RJOF 012000Z 35003KT 9999 FEW030 SCT050 M01/M03 Q1023 RMK     1CU030 3SC050 A3023=,
20180201_210000.003,0,RJOF,,,,0,20180201210000,-1,-1,-1,-1,999,-1,2,-1,-1,-1,-1,,9999,0,0,2,FEW 30   SCT 50,-1,0,-1,2,1023,RJOF 012100Z VRB02KT 9999 FEW030 SCT050 M00/M02 Q1023 RMK     1CU030 3SC050 A3024 08/M02=,
20180201_220000.003,0,RJOF,,,,0,20180201220000,-1,-1,-1,-1,999,-1,2,-1,-1,-1,-1,,9999,0,0,2,FEW 30   BKN -9999,-1,1,-1,3,1024,RJOF 012200Z VRB02KT 9999 FEW030 BKN/// M01/M03 Q1024 RMK     1CU030 A3024=,
20180201_230000.004,0,RJOF,,,,0,20180201230000,-1,-1,-1,-1,340,-1,4,-1,-1,-1,-1,,9999,0,0,2,FEW 30   BKN 210,-1,0,-1,2,1024,RJOF 012300Z 34004KT 9999 FEW030 BKN210 M00/M02 Q1024 RMK     1CU030 A3025=,
20180202_000000.003,0,RJOF,,,,0,20180202000000,-1,-1,-1,-1,340,-1,4,-1,-1,-1,-1,,9999,0,0,2,FEW 30   BKN 210,1,2,-1,0,1025,RJOF 020000Z 34004KT 9999 FEW030 BKN210 02/M00 Q1025 RMK     1CU030 A3027=,
20180202_010000.003,0,RJOF,,,,0,20180202010000,-1,-1,-1,-1,999,-1,2,-1,-1,-1,-1,,9999,0,0,2,FEW 30   BKN 210,1,4,1,0,1025,RJOF 020100Z VRB02KT 9999 FEW030 BKN210 04/00 Q1025 RMK 1CU030     A3028=,
20180202_020000.003,0,RJOF,,,,0,20180202020000,-1,-1,-1,-1,240,-1,6,-1,-1,-1,-1,,9999,0,0,2,FEW 30   BKN 210,1,7,1,1,1025,RJOF 020200Z 24006KT 9999 FEW030 BKN210 07/01 Q1025 RMK 1CU030     A3028=,
20180202_030000.003,0,RJOF,,,,0,20180202030000,-1,-1,-1,-1,210,-1,3,-1,-1,130,270,,9999,0,0,3,FEW 30   SCT 180   BKN 210,1,8,-1,0,1023,RJOF 020300Z 21003KT 130V270 9999 FEW030 SCT180 BKN210 08/M00     Q1023 RMK 2CU030 4AC180 A3024=,
20180202_040000.003,0,RJOF,,,,0,20180202040000,-1,-1,-1,-1,190,-1,8,-1,-1,-1,-1,,9999,0,0,3,FEW 20   SCT 30   BKN 150,1,8,1,1,1023,RJOF 020400Z 19008KT 9999 FEW020 SCT030 BKN150 08/01 Q1023 RMK     1CU020 4CU030 5AC150 A3022=,
20180202_050000.002,0,RJOF,,,,0,20180202050000,-1,-1,-1,-1,210,-1,5,-1,-1,180,240,,9999,0,0,3,FEW 20   BKN 30   BKN 150,1,8,1,1,1022,RJOF 020500Z 21005KT 180V240 9999 FEW020 BKN030 BKN150 08/01     Q1022 RMK 1CU020 6CU030 7AC150 A3020=,
20180202_060000.003,0,RJOF,,,,0,20180202060000,-1,-1,-1,-1,250,-1,8,-1,-1,-1,-1,,9999,0,0,3,FEW 20   BKN 30   BKN 150,1,8,1,0,1022,RJOF 020600Z 25008KT 9999 FEW020 BKN030 BKN150 08/00 Q1022 RMK     1CU020 5CU030 7AC150 A3019=,
20180202_070000.003,0,RJOF,,,,0,20180202070000,-1,-1,-1,-1,210,-1,4,-1,-1,180,240,,9999,0,0,3,FEW 20   BKN 30   BKN 150,1,8,1,1,1022,RJOF 020700Z 21004KT 180V240 9999 FEW020 BKN030 BKN150 08/01     Q1022 RMK 1CU020 6CU030 7AC150 A3019=,
20180202_080000.003,0,RJOF,,,,0,20180202080000,-1,-1,-1,-1,10,-1,5,-1,-1,-1,-1,,9999,0,0,3,FEW 20   BKN 35   BKN 150,1,8,1,1,1022,RJOF 020800Z 01005KT 9999 FEW020 BKN035 BKN150 08/01 Q1022 RMK     1CU020 6CU035 7AC150 A3018=,
20180202_090000.003,0,RJOF,,,,0,20180202090000,-1,-1,-1,-1,10,-1,6,-1,-1,-1,-1,,9999,0,1,3,FEW 20   BKN 35   BKN 150,1,7,1,3,1022,RJOF 020900Z 01006KT 9999 -SHRA FEW020 BKN035 BKN150 07/03     Q1022 RMK 1CU020 6CU035 7AC150 A3019=,- RA SH
20180202_100000.004,0,RJOF,,,,0,20180202100000,-1,-1,-1,-1,360,-1,3,-1,-1,-1,-1,,9999,0,0,2,FEW 20   BKN 35,1,5,1,3,1022,RJOF 021000Z 36003KT 9999 FEW020 BKN035 05/03 Q1022 RMK 1CU020     6CU035 A3019=,
20180202_110000.003,0,RJOF,,,,0,20180202110000,-1,-1,-1,-1,330,-1,4,-1,-1,-1,-1,,9999,0,0,2,FEW 20   BKN 35,1,6,1,2,1022,RJOF 021100Z 33004KT 9999 FEW020 BKN035 06/02 Q1022 RMK 1CU020     6CU035 A3019=,
20180202_120000.003,0,RJOF,,,,0,20180202120000,-1,-1,-1,-1,300,-1,6,-1,-1,-1,-1,,9999,0,0,2,FEW 20   BKN 40,1,5,1,2,1022,RJOF 021200Z 30006KT 9999 FEW020 BKN040 05/02 Q1022 RMK 1CU020     6CU040 A3019=,
20180202_130000.004,0,RJOF,,,,0,20180202130000,-1,-1,-1,-1,270,-1,7,-1,-1,-1,-1,,9999,0,1,2,FEW 20   BKN 40,1,5,1,3,1022,RJOF 021300Z 27007KT 9999 -SHRA FEW020 BKN040 05/03 Q1022 RMK     1CU020 7CU040 A3020=,- RA SH
20180202_140000.003,0,RJOF,,,,0,20180202140000,-1,-1,-1,-1,270,-1,7,-1,-1,-1,-1,,9999,0,1,3,FEW 20   SCT 25   BKN 40,1,4,1,2,1022,RJOF 021400Z 27007KT 9999 -SHRA FEW020 SCT025 BKN040 04/02     Q1022 RMK 1CU020 3CU025 7CU040 A3021=,- RA SH
20180202_150000.003,0,RJOF,,,,0,20180202150000,-1,-1,-1,-1,0,-1,0,-1,-1,-1,-1,,9999,0,1,3,FEW 20   BKN 40   BKN 70,1,5,1,2,1022,RJOF 021500Z 00000KT 9999 -SHRA FEW020 BKN040 BKN070 05/02     Q1022 RMK 1CU020 6CU040 7AC070 A3020=,- RA SH
20180202_160000.003,0,RJOF,,,,0,20180202160000,-1,-1,-1,-1,10,-1,3,-1,-1,-1,-1,,9999,0,0,2,FEW 25   BKN 70,1,4,1,2,1022,RJOF 021600Z 01003KT 9999 FEW025 BKN070 04/02 Q1022 RMK 1CU025     6AC070 A3019=,
20180202_170000.003,0,RJOF,,,,0,20180202170000,-1,-1,-1,-1,10,-1,7,-1,-1,-1,-1,,9999,0,0,2,FEW 40   BKN 70,1,4,1,1,1022,RJOF 021700Z 01007KT 9999 FEW040 BKN070 04/01 Q1022 RMK 1CU040     5AC070 A3018=,
20180202_180000.004,0,RJOF,,,,0,20180202180000,-1,-1,-1,-1,300,-1,4,-1,-1,-1,-1,,9999,0,0,3,FEW 40   SCT 70   BKN -9999,1,3,1,1,1022,RJOF 021800Z 30004KT 9999 FEW040 SCT070 BKN/// 03/01 Q1022 RMK     1CU040 3AC070 A3019=,
20180202_190000.004,0,RJOF,,,,0,20180202190000,-1,-1,-1,-1,999,-1,2,-1,-1,-1,-1,,9999,0,0,2,FEW 40   BKN 50,1,2,1,0,1022,RJOF 021900Z VRB02KT 9999 FEW040 BKN050 02/00 Q1022 RMK 1CU040     5SC050 A3018=,
20180202_200000.004,0,RJOF,,,,0,20180202200000,-1,-1,-1,-1,220,-1,3,-1,-1,-1,-1,,9999,0,0,2,FEW 40   SCT 50,1,2,1,1,1021,RJOF 022000Z 22003KT 9999 FEW040 SCT050 02/01 Q1021 RMK 1CU040     3SC050 A3017=,
20180202_210000.003,0,RJOF,,,,0,20180202210000,-1,-1,-1,-1,999,-1,2,-1,-1,-1,-1,,9999,0,0,2,FEW 40   SCT 50,1,2,-1,0,1021,RJOF 022100Z VRB02KT 9999 FEW040 SCT050 02/M00 Q1021 RMK     1CU040 3SC050 A3017 09/00 R000=,
20180202_220000.003,0,RJOF,,,,0,20180202220000,-1,-1,-1,-1,260,-1,5,-1,-1,-1,-1,,9999,0,0,2,FEW 25   SCT 50,1,2,-1,1,1022,RJOF 022200Z 26005KT 9999 FEW025 SCT050 02/M01 Q1022 RMK     1CU025 4SC050 A3019=,
20180202_230000.004,0,RJOF,,,,0,20180202230000,-1,-1,-1,-1,290,-1,5,-1,-1,-1,-1,,9999,0,1,3,FEW 20   BKN 30   BKN 230,1,1,-1,0,1022,RJOF 022300Z 29005KT 9999 -SHRA FEW020 BKN030 BKN230 01/M00     Q1022 RMK 1CU020 5CU030 A3018 VIS N-NE 9KM=,- RA SH
20180203_000000.003,0,RJOF,,,,0,20180203000000,-1,-1,-1,-1,310,-1,3,-1,-1,270,350,,9999,0,0,2,FEW 10   BKN 230,1,4,1,1,1022,RJOF 030000Z 31003KT 270V350 9999 FEW010 BKN230 04/01 Q1022     RMK 1ST010 A3019=,
20180203_010000.004,0,RJOF,,,,0,20180203010000,-1,-1,-1,-1,320,-1,5,-1,-1,290,350,,9999,0,0,2,FEW 15   BKN 230,1,6,1,2,1022,RJOF 030100Z 32005KT 290V350 9999 FEW015 BKN230 06/02 Q1022     RMK 1CU015 A3019=,
20180203_020000.003,0,RJOF,,,,0,20180203020000,-1,-1,-1,-1,330,-1,9,-1,-1,-1,-1,,9999,0,0,2,FEW 15   SCT 30,1,7,1,0,1022,RJOF 030200Z 33009KT 9999 FEW015 SCT030 07/00 Q1022 RMK 1CU015     3CU030 A3019=,
20180203_030000.003,0,RJOF,,,,0,20180203030000,-1,-1,-1,-1,300,-1,11,-1,-1,-1,-1,,9999,0,0,2,FEW 20   BKN 30,1,8,-1,4,1021,RJOF 030300Z 30011KT 9999 FEW020 BKN030 08/M04 Q1021 RMK     1CU020 5CU030 A3015=,
20180203_040000.003,0,RJOF,,,,0,20180203040000,-1,-1,-1,-1,300,-1,12,-1,-1,280,340,,9999,0,0,2,FEW 20   BKN 35,1,8,-1,6,1020,RJOF 030400Z 30012KT 280V340 9999 FEW020 BKN035 08/M06 Q1020     RMK 1CU020 5CU035 A3013=,
20180203_050000.003,0,RJOF,,,,0,20180203050000,-1,-1,-1,-1,310,-1,12,-1,-1,-1,-1,,9999,0,1,2,FEW 20   BKN 35,1,7,-1,5,1019,RJOF 030500Z 31012KT 9999 VCSH FEW020 BKN035 07/M05 Q1019 RMK     1CU020 5CU035 A3012 VCSH W-N=,VC SH
20180203_060000.003,0,RJOF,,,,0,20180203060000,-1,-1,-1,-1,310,-1,9,-1,-1,280,340,,9999,0,1,2,FEW 25   SCT 35,1,7,-1,3,1020,RJOF 030600Z 31009KT 280V340 9999 VCSH FEW025 SCT035 07/M03     Q1020 RMK 1CU025 3CU035 A3012 VCSH W=,VC SH
20180203_070000.004,0,RJOF,,,,0,20180203070000,-1,-1,-1,-1,280,-1,14,-1,-1,-1,-1,,9999,0,1,3,FEW 15   SCT 20   BKN 35,1,6,-1,4,1020,RJOF 030700Z 28014KT 9999 -SHRA FEW015 SCT020 BKN035 06/M04     Q1020 RMK 1CU015 3CU020 6CU035 A3013=,- RA SH
20180203_080000.003,0,RJOF,,,,0,20180203080000,-1,-1,-1,-1,250,-1,15,-1,-1,-1,-1,,9999,0,1,2,FEW 20   BKN 35,1,4,-1,1,1020,RJOF 030800Z 25015KT 9999 -SHRA FEW020 BKN035 04/M01 Q1020 RMK     1CU020 7CU035 A3014=,- RA SH
20180203_090000.003,0,RJOF,,,,0,20180203090000,-1,-1,-1,-1,260,-1,8,-1,-1,-1,-1,,8000,0,1,3,FEW 5   SCT 8   BKN 30,1,2,1,0,1020,RJOF 030900Z 26008KT 8000 -SHRA FEW005 SCT008 BKN030 02/00     Q1020 RMK 1CU005 3CU008 6CU030 A3014=,- RA SH
20180203_100000.003,0,RJOF,,,,0,20180203100000,-1,-1,-1,-1,280,-1,7,-1,-1,-1,-1,,8000,0,1,3,FEW 5   SCT 8   BKN 25,1,2,1,1,1021,RJOF 031000Z 28007KT 8000 -SHRA FEW005 SCT008 BKN025 02/01     Q1021 RMK 1CU005 3CU008 7CU025 A3016=,- RA SH
20180203_110000.003,0,RJOF,,,,0,20180203110000,-1,-1,-1,-1,280,-1,6,-1,-1,-1,-1,,9999,0,0,1,FEW 40,1,0,-1,1,1021,RJOF 031100Z 28006KT 9999 FEW040 00/M01 Q1021 RMK 1CU040     A3016=,
20180203_120000.003,0,RJOF,,,,0,20180203120000,-1,-1,-1,-1,270,-1,5,-1,-1,-1,-1,,9999,0,0,1,FEW 40,1,0,-1,3,1021,RJOF 031200Z 27005KT 9999 FEW040 00/M03 Q1021 RMK 1CU040     A3016=,
20180203_130000.003,0,RJOF,,,,0,20180203130000,-1,-1,-1,-1,270,-1,5,-1,-1,-1,-1,,9999,0,0,1,SCT 40,-1,0,-1,4,1021,RJOF 031300Z 27005KT 9999 SCT040 M00/M04 Q1021 RMK 3CU040     A3017=,
20180203_140000.003,0,RJOF,,,,0,20180203140000,-1,-1,-1,-1,240,-1,3,-1,-1,-1,-1,,9999,0,0,1,FEW 40,-1,1,-1,3,1021,RJOF 031400Z 24003KT 9999 FEW040 M01/M03 Q1021 RMK 2CU040     A3017=,
20180203_150000.003,0,RJOF,,,,0,20180203150000,-1,-1,-1,-1,260,-1,5,-1,-1,-1,-1,,9999,0,0,1,FEW 45,-1,1,-1,5,1021,RJOF 031500Z 26005KT 9999 FEW045 M01/M05 Q1021 RMK 2SC045     A3016=,
20180203_160000.003,0,RJOF,,,,0,20180203160000,-1,-1,-1,-1,250,-1,5,-1,-1,-1,-1,,9999,0,0,1,FEW 45,-1,0,-1,5,1021,RJOF 031600Z 25005KT 9999 FEW045 M00/M05 Q1021 RMK 2SC045     A3016=,
20180203_170000.003,0,RJOF,,,,0,20180203170000,-1,-1,-1,-1,240,-1,4,-1,-1,-1,-1,,9999,0,0,1,FEW 45,1,0,-1,5,1021,RJOF 031700Z 24004KT 9999 FEW045 00/M05 Q1021 RMK 1SC045     A3015=,
20180203_180000.004,0,RJOF,,,,0,20180203180000,-1,-1,-1,-1,280,-1,7,-1,-1,-1,-1,,9999,0,0,1,FEW 45,-1,1,-1,7,1021,RJOF 031800Z 28007KT 9999 FEW045 M01/M07 Q1021 RMK 2SC045     A3016=,
20180203_190000.003,0,RJOF,,,,0,20180203190000,-1,-1,-1,-1,290,-1,13,-1,-1,-1,-1,,9999,0,0,2,FEW 40   SCT -9999,-1,0,-1,7,1021,RJOF 031900Z 29013KT 9999 FEW040 SCT/// M00/M07 Q1021 RMK     2CU040 A3016 MAX WIND 20KT=,
20180203_200000.003,0,RJOF,,,,0,20180203200000,-1,-1,-1,-1,280,-1,13,-1,-1,-1,-1,,9999,0,0,3,FEW 30   BKN 40   BKN -9999,-1,1,-1,7,1021,RJOF 032000Z 28013KT 9999 FEW030 BKN040 BKN/// M01/M07 Q1021     RMK 1CU030 5CU040 A3016=,
20180203_210000.003,0,RJOF,,,,0,20180203210000,-1,-1,-1,-1,290,-1,17,-1,29,-1,-1,,9999,0,1,3,FEW 30   BKN 40   BKN -9999,-1,1,-1,7,1021,RJOF 032100Z 29017G29KT 9999 -SHSN FEW030 BKN040 BKN///     M01/M07 Q1021 RMK 1CU030 5CU040 A3017 09/M03 R001 S000=,- SN SH
20180203_220000.003,0,RJOF,,,,0,20180203220000,-1,-1,-1,-1,290,-1,15,-1,-1,-1,-1,,9999,0,0,2,FEW 25   SCT 40,-1,2,-1,9,1022,RJOF 032200Z 29015KT 9999 FEW025 SCT040 M02/M09 Q1022 RMK     1CU025 4CU040 A3019 MAX WIND 23KT=,
20180203_230000.003,0,RJOF,,,,0,20180203230000,-1,-1,-1,-1,280,-1,15,-1,-1,-1,-1,,9999,0,1,2,FEW 25   BKN 40,-1,2,-1,9,1022,RJOF 032300Z 28015KT 9999 -SHSN FEW025 BKN040 M02/M09 Q1022     RMK 1CU025 5CU040 A3019=,- SN SH
20180204_000000.003,0,RJOF,,,,0,20180204000000,-1,-1,-1,-1,280,-1,17,-1,-1,-1,-1,,9999,0,1,2,FEW 30   SCT 40,-1,1,-1,7,1022,RJOF 040000Z 28017KT 9999 -SHSN FEW030 SCT040 M01/M07 Q1022     RMK 1CU030 3CU040 A3019=,- SN SH
20180204_010000.003,0,RJOF,,,,0,20180204010000,-1,-1,-1,-1,270,-1,14,-1,-1,-1,-1,,9999,0,1,3,FEW 10   SCT 15   BKN 40,-1,1,-1,5,1022,RJOF 040100Z 27014KT 9999 -SHSN FEW010 SCT015 BKN040 M01/M05     Q1022 RMK 1CU010 3CU015 5CU040 A3020=,- SN SH
20180204_020000.003,0,RJOF,,,,0,20180204020000,-1,-1,-1,-1,290,-1,13,-1,-1,260,320,,9999,0,1,3,FEW 15   SCT 25   BKN 35,1,1,-1,6,1022,RJOF 040200Z 29013KT 260V320 9999 -SHSN FEW015 SCT025 BKN035     01/M06 Q1022 RMK 1CU015 3CU025 6CU035 A3019 VIS W-NW 7KM=,- SN SH
20180204_030000.003,0,RJOF,,,,0,20180204030000,-1,-1,-1,-1,270,-1,14,-1,-1,-1,-1,,9999,0,1,3,FEW 15   SCT 25   BKN 35,1,1,-1,6,1022,RJOF 040300Z 27014KT 9999 -SHSN FEW015 SCT025 BKN035 01/M06     Q1022 RMK 1CU015 3CU025 6CU035 A3018 VIS SW-NW 6KM=,- SN SH
20180204_040000.003,0,RJOF,,,,0,20180204040000,-1,-1,-1,-1,280,-1,17,-1,-1,-1,-1,,9999,0,1,3,FEW 15   SCT 25   BKN 35,1,1,-1,5,1021,RJOF 040400Z 28017KT 9999 -SHSN FEW015 SCT025 BKN035 01/M05     Q1021 RMK 1CU015 3CU025 6CU035 A3016 VIS W-NE 3000M=,- SN SH
20180204_050000.003,0,RJOF,,,,0,20180204050000,-1,-1,-1,-1,320,-1,14,-1,-1,-1,-1,,9999,0,1,3,FEW 15   SCT 25   BKN 35,1,0,-1,4,1021,RJOF 040500Z 32014KT 9999 -SHSN FEW015 SCT025 BKN035 00/M04     Q1021 RMK 1CU015 3CU025 7CU035 A3015 VIS W-NE 7KM=,- SN SH
20180204_060000.003,0,RJOF,,,,0,20180204060000,-1,-1,-1,-1,300,-1,13,-1,-1,-1,-1,,9999,0,1,3,FEW 15   SCT 25   BKN 35,1,1,-1,8,1021,RJOF 040600Z 30013KT 9999 -SHSN FEW015 SCT025 BKN035 01/M08     Q1021 RMK 1CU015 3CU025 6CU035 A3016=,- SN SH
20180204_070000.003,0,RJOF,,,,0,20180204070000,-1,-1,-1,-1,300,-1,14,-1,-1,-1,-1,,9999,0,1,3,FEW 15   SCT 25   BKN 35,1,0,-1,8,1021,RJOF 040700Z 30014KT 9999 -SHSN FEW015 SCT025 BKN035 00/M08     Q1021 RMK 1CU015 3CU025 6CU035 A3016=,- SN SH
20180204_080000.003,0,RJOF,,,,0,20180204080000,-1,-1,-1,-1,290,-1,14,-1,-1,-1,-1,,9999,0,1,3,FEW 15   SCT 25   BKN 35,-1,0,-1,9,1021,RJOF 040800Z 29014KT 9999 -SHSN FEW015 SCT025 BKN035 M00/M09     Q1021 RMK 1CU015 3CU025 5CU035 A3017 VIS NE 9KM=,- SN SH
20180204_090000.003,0,RJOF,,,,0,20180204090000,-1,-1,-1,-1,290,-1,12,-1,-1,-1,-1,,9999,0,1,3,FEW 15   SCT 25   BKN 35,-1,1,-1,6,1022,RJOF 040900Z 29012KT 9999 -SHSN FEW015 SCT025 BKN035 M01/M06     Q1022 RMK 1CU015 3CU025 6CU035 A3018 VIS W-N 9KM=,- SN SH
20180204_100000.003,0,RJOF,,,,0,20180204100000,-1,-1,-1,-1,270,-1,9,-1,-1,-1,-1,,9999,0,1,2,FEW 20   BKN 35,-1,2,-1,7,1022,RJOF 041000Z 27009KT 9999 -SHSN FEW020 BKN035 M02/M07 Q1022     RMK 1CU020 5CU035 A3019=,- SN SH
20180204_110000.004,0,RJOF,,,,0,20180204110000,-1,-1,-1,-1,270,-1,4,-1,-1,240,300,,9999,0,0,2,FEW 20   SCT 40,-1,2,-1,8,1022,RJOF 041100Z 27004KT 240V300 9999 FEW020 SCT040 M02/M08 Q1022     RMK 1CU020 3CU040 A3020=,
20180204_120000.003,0,RJOF,,,,0,20180204120000,-1,-1,-1,-1,260,-1,7,-1,-1,-1,-1,,9999,0,0,2,FEW 25   BKN 40,-1,1,-1,8,1022,RJOF 041200Z 26007KT 9999 FEW025 BKN040 M01/M08 Q1022 RMK     1CU025 6CU040 A3020=,
20180204_130000.003,0,RJOF,,,,0,20180204130000,-1,-1,-1,-1,260,-1,5,-1,-1,-1,-1,,9999,0,0,2,FEW 25   BKN 45,-1,1,-1,8,1022,RJOF 041300Z 26005KT 9999 FEW025 BKN045 M01/M08 Q1022 RMK     1CU025 5SC045 A3019=,
20180204_140000.003,0,RJOF,,,,0,20180204140000,-1,-1,-1,-1,290,-1,7,-1,-1,-1,-1,,9999,0,0,2,FEW 25   BKN 45,-1,2,-1,9,1022,RJOF 041400Z 29007KT 9999 FEW025 BKN045 M02/M09 Q1022 RMK     1CU025 5SC045 A3019=,
20180204_150000.003,0,RJOF,,,,0,20180204150000,-1,-1,-1,-1,290,-1,9,-1,-1,-1,-1,,9999,0,0,3,FEW 25   SCT 40   BKN 50,-1,1,-1,6,1022,RJOF 041500Z 29009KT 9999 FEW025 SCT040 BKN050 M01/M06 Q1022     RMK 1CU025 3CU040 6SC050 A3019=,
20180204_160000.003,0,RJOF,,,,0,20180204160000,-1,-1,-1,-1,310,-1,7,-1,-1,-1,-1,,9999,0,1,2,FEW 25   SCT 40,-1,1,-1,8,1021,RJOF 041600Z 31007KT 9999 -SHSN FEW025 SCT040 M01/M08 Q1021     RMK 1CU025 3CU040 A3017=,- SN SH
20180204_170000.003,0,RJOF,,,,0,20180204170000,-1,-1,-1,-1,300,-1,8,-1,-1,-1,-1,,9999,0,1,2,FEW 25   SCT 40,-1,1,-1,8,1021,RJOF 041700Z 30008KT 9999 -SHSN FEW025 SCT040 M01/M08 Q1021     RMK 1CU025 3CU040 A3018=,- SN SH
20180204_180000.004,0,RJOF,,,,0,20180204180000,-1,-1,-1,-1,300,-1,7,-1,-1,-1,-1,,9999,0,0,1,FEW 40,-1,1,-1,8,1021,RJOF 041800Z 30007KT 9999 FEW040 M01/M08 Q1021 RMK 2CU040     A3017=,
20180204_190000.003,0,RJOF,,,,0,20180204190000,-1,-1,-1,-1,300,-1,11,-1,-1,-1,-1,,9999,0,0,2,FEW 25   SCT 40,-1,1,-1,10,1021,RJOF 041900Z 30011KT 9999 FEW025 SCT040 M01/M10 Q1021 RMK     1CU025 3CU040 A3018=,
20180204_200000.003,0,RJOF,,,,0,20180204200000,-1,-1,-1,-1,270,-1,11,-1,-1,-1,-1,,9999,0,1,2,FEW 30   BKN 40,-1,1,-1,9,1021,RJOF 042000Z 27011KT 9999 -SHSN FEW030 BKN040 M01/M09 Q1021     RMK 1CU030 5CU040 A3018=,- SN SH
20180204_210000.003,0,RJOF,,,,0,20180204210000,-1,-1,-1,-1,300,-1,7,-1,-1,-1,-1,,9999,0,0,1,FEW 30,-1,2,-1,9,1022,RJOF 042100Z 30007KT 9999 FEW030 M02/M09 Q1022 RMK 1CU030     A3019 02/M03 R000 S000=,
20180204_220000.003,0,RJOF,,,,0,20180204220000,-1,-1,-1,-1,280,-1,7,-1,-1,-1,-1,,9999,0,1,1,FEW 25,-1,4,-1,9,1022,RJOF 042200Z 28007KT 9999 VCSH FEW025 M04/M09 Q1022 RMK 2CU025     A3021 VCSH 9KM NE=,VC SH
20180204_230000.003,0,RJOF,,,,0,20180204230000,-1,-1,-1,-1,290,-1,9,-1,-1,-1,-1,,9999,0,1,1,FEW 25,-1,2,-1,7,1023,RJOF 042300Z 29009KT 9999 VCSH FEW025 M02/M07 Q1023 RMK 2CU025     A3022 VCSH 9KM NE=,VC SH
20180205_000000.004,0,RJOF,,,,0,20180205000000,-1,-1,-1,-1,290,-1,10,-1,-1,-1,-1,,9999,0,1,1,FEW 25,-1,1,-1,7,1023,RJOF 050000Z 29010KT 9999 VCSH FEW025 M01/M07 Q1023 RMK 2CU025     A3023 VCSH 9KM NE=,VC SH
20180205_010000.003,0,RJOF,,,,0,20180205010000,-1,-1,-1,-1,290,-1,13,-1,-1,250,320,,9999,0,1,2,FEW 25   SCT 40,-1,0,-1,7,1023,RJOF 050100Z 29013KT 250V320 9999 -SHSN FEW025 SCT040 M00/M07     Q1023 RMK 2CU025 3CU040 A3023=,- SN SH
20180205_020000.003,0,RJOF,,,,0,20180205020000,-1,-1,-1,-1,290,-1,15,-1,-1,-1,-1,,9999,0,1,2,FEW 25   BKN 35,1,0,-1,7,1023,RJOF 050200Z 29015KT 9999 -SHSN FEW025 BKN035 00/M07 Q1023 RMK     2CU025 6CU035 A3022=,- SN SH
