20180101_000000.000,0,RJOH,,,,0,20180101000000,-1,-1,-1,-1,250,-1,12,-1,-1,-1,-1,,9999,0,1,3,FEW 20   BKN 35   BKN 60,1,5,-1,3,1021,RJOH 010000Z 25012KT 9999 -SHRA FEW020 BKN035 BKN060 05/M03     Q1021 RMK 1CU020 6CU035 7SC060 A3016=,- RA SH
20180101_000000.002,0,RJOH,,,,0,20180101000000,-1,-1,-1,-1,250,-1,12,-1,-1,-1,-1,,9999,0,1,3,FEW 20   BKN 35   BKN 60,1,5,-1,3,1021,RJOH 010000Z 25012KT 9999 -SHRA FEW020 BKN035 BKN060 05/M03     Q1021 RMK 1CU020 6CU035 7SC060 A3016=,- RA SH
20180101_010000.000,0,RJOH,,,,0,20180101010000,-1,-1,-1,-1,250,-1,12,-1,-1,-1,-1,,9999,0,1,3,FEW 20   BKN 35   BKN 50,1,6,-1,3,1021,RJOH 010100Z 25012KT 9999 -SHRA FEW020 BKN035 BKN050 06/M03     Q1021 RMK 1CU020 6CU035 7SC050 A3018=,- RA SH
20180101_010000.002,0,RJOH,,,,0,20180101010000,-1,-1,-1,-1,250,-1,12,-1,-1,-1,-1,,9999,0,1,3,FEW 20   BKN 35   BKN 50,1,6,-1,3,1021,RJOH 010100Z 25012KT 9999 -SHRA FEW020 BKN035 BKN050 06/M03     Q1021 RMK 1CU020 6CU035 7SC050 A3018=,- RA SH
20180101_020000.000,0,RJOH,,,,0,20180101020000,-1,-1,-1,-1,280,-1,10,-1,-1,-1,-1,,9999,0,0,3,FEW 20   SCT 35   BKN 60,1,7,-1,7,1021,RJOH 010200Z 28010KT 9999 FEW020 SCT035 BKN060 07/M07 Q1021 RMK     1CU020 4CU035 6SC060 A3017=,
20180101_020000.002,0,RJOH,,,,0,20180101020000,-1,-1,-1,-1,280,-1,10,-1,-1,-1,-1,,9999,0,0,3,FEW 20   SCT 35   BKN 60,1,7,-1,7,1021,RJOH 010200Z 28010KT 9999 FEW020 SCT035 BKN060 07/M07 Q1021     RMK 1CU020 4CU035 6SC060 A3017=,
20180101_030000.000,0,RJOH,,,,0,20180101030000,-1,-1,-1,-1,280,-1,13,-1,23,-1,-1,,9999,0,1,3,FEW 20   BKN 35   BKN 60,1,8,-1,6,1021,RJOH 010300Z 28013G23KT 9999 -SHRA FEW020 BKN035 BKN060 08/M06     Q1021 RMK 1CU020 5CU035 7SC060 A3016=,- RA SH
20180101_030000.002,0,RJOH,,,,0,20180101030000,-1,-1,-1,-1,280,-1,13,-1,23,-1,-1,,9999,0,1,3,FEW 20   BKN 35   BKN 60,1,8,-1,6,1021,RJOH 010300Z 28013G23KT 9999 -SHRA FEW020 BKN035 BKN060 08/M06     Q1021 RMK 1CU020 5CU035 7SC060 A3016=,- RA SH
20180101_040000.000,0,RJOH,,,,0,20180101040000,-1,-1,-1,-1,280,-1,11,-1,22,-1,-1,,9999,0,1,3,FEW 20   SCT 35   BKN 60,1,7,-1,5,1021,RJOH 010400Z 28011G22KT 9999 -SHRA FEW020 SCT035 BKN060 07/M05     Q1021 RMK 1CU020 4CU035 7SC060 A3016=,- RA SH
20180101_040000.002,0,RJOH,,,,0,20180101040000,-1,-1,-1,-1,280,-1,11,-1,22,-1,-1,,9999,0,1,3,FEW 20   SCT 35   BKN 60,1,7,-1,5,1021,RJOH 010400Z 28011G22KT 9999 -SHRA FEW020 SCT035 BKN060 07/M05     Q1021 RMK 1CU020 4CU035 7SC060 A3016=,- RA SH
20180101_050000.000,0,RJOH,,,,0,20180101050000,-1,-1,-1,-1,280,-1,12,-1,23,-1,-1,,9999,0,1,3,FEW 15   SCT 35   BKN 50,1,7,-1,4,1021,RJOH 010500Z 28012G23KT 9999 -SHRA FEW015 SCT035 BKN050 07/M04     Q1021 RMK 1CU015 4CU035 7SC050 A3016=,- RA SH
20180101_050000.002,0,RJOH,,,,0,20180101050000,-1,-1,-1,-1,280,-1,12,-1,23,-1,-1,,9999,0,1,3,FEW 15   SCT 35   BKN 50,1,7,-1,4,1021,RJOH 010500Z 28012G23KT 9999 -SHRA FEW015 SCT035 BKN050 07/M04     Q1021 RMK 1CU015 4CU035 7SC050 A3016=,- RA SH
20180101_060000.000,0,RJOH,,,,0,20180101060000,-1,-1,-1,-1,280,-1,11,-1,-1,-1,-1,,9999,0,1,3,FEW 25   SCT 35   BKN 50,1,7,-1,6,1021,RJOH 010600Z 28011KT 9999 -SHRA FEW025 SCT035 BKN050 07/M06     Q1021 RMK 1CU025 3CU035 7SC050 A3017=,- RA SH
20180101_060000.002,0,RJOH,,,,0,20180101060000,-1,-1,-1,-1,280,-1,11,-1,-1,-1,-1,,9999,0,1,3,FEW 25   SCT 35   BKN 50,1,7,-1,6,1021,RJOH 010600Z 28011KT 9999 -SHRA FEW025 SCT035 BKN050 07/M06     Q1021 RMK 1CU025 3CU035 7SC050 A3017=,- RA SH
20180101_070000.000,0,RJOH,,,,0,20180101070000,-1,-1,-1,-1,270,-1,10,-1,-1,-1,-1,,9999,0,1,3,FEW 25   SCT 35   BKN 60,1,7,-1,5,1022,RJOH 010700Z 27010KT 9999 -SHRA FEW025 SCT035 BKN060 07/M05     Q1022 RMK 1CU025 3CU035 7SC060 A3018=,- RA SH
20180101_070000.002,0,RJOH,,,,0,20180101070000,-1,-1,-1,-1,270,-1,10,-1,-1,-1,-1,,9999,0,1,3,FEW 25   SCT 35   BKN 60,1,7,-1,5,1022,RJOH 010700Z 27010KT 9999 -SHRA FEW025 SCT035 BKN060 07/M05     Q1022 RMK 1CU025 3CU035 7SC060 A3018=,- RA SH
20180101_080000.000,0,RJOH,,,,0,20180101080000,-1,-1,-1,-1,290,-1,9,-1,-1,-1,-1,,9999,0,1,3,FEW 25   SCT 35   BKN 60,1,6,-1,7,1022,RJOH 010800Z 29009KT 9999 -SHRA FEW025 SCT035 BKN060 06/M07     Q1022 RMK 1CU025 3CU035 7SC060 A3019=,- RA SH
20180101_080000.002,0,RJOH,,,,0,20180101080000,-1,-1,-1,-1,290,-1,9,-1,-1,-1,-1,,9999,0,1,3,FEW 25   SCT 35   BKN 60,1,6,-1,7,1022,RJOH 010800Z 29009KT 9999 -SHRA FEW025 SCT035 BKN060 06/M07     Q1022 RMK 1CU025 3CU035 7SC060 A3019=,- RA SH
20180101_090000.000,0,RJOH,,,,0,20180101090000,-1,-1,-1,-1,290,-1,8,-1,-1,-1,-1,,9999,0,1,3,FEW 25   SCT 35   BKN 60,1,6,-1,8,1022,RJOH 010900Z 29008KT 9999 -SHRA FEW025 SCT035 BKN060 06/M08     Q1022 RMK 1CU025 3CU035 7SC060 A3020=,- RA SH
20180101_090000.002,0,RJOH,,,,0,20180101090000,-1,-1,-1,-1,290,-1,8,-1,-1,-1,-1,,9999,0,1,3,FEW 25   SCT 35   BKN 60,1,6,-1,8,1022,RJOH 010900Z 29008KT 9999 -SHRA FEW025 SCT035 BKN060 06/M08     Q1022 RMK 1CU025 3CU035 7SC060 A3020=,- RA SH
20180101_100000.000,0,RJOH,,,,0,20180101100000,-1,-1,-1,-1,280,-1,11,-1,-1,-1,-1,,9999,0,0,2,FEW 35   BKN 60,1,6,-1,7,1023,RJOH 011000Z 28011KT 9999 FEW035 BKN060 06/M07 Q1023 RMK 2CU035     6SC060 A3021=,
20180101_100000.002,0,RJOH,,,,0,20180101100000,-1,-1,-1,-1,280,-1,11,-1,-1,-1,-1,,9999,0,0,2,FEW 35   BKN 60,1,6,-1,7,1023,RJOH 011000Z 28011KT 9999 FEW035 BKN060 06/M07 Q1023 RMK     2CU035 6SC060 A3021=,
20180101_110000.000,0,RJOH,,,,0,20180101110000,-1,-1,-1,-1,280,-1,10,-1,-1,-1,-1,,9999,0,1,3,FEW 25   SCT 35   BKN 50,1,6,-1,6,1023,RJOH 011100Z 28010KT 9999 -SHRA FEW025 SCT035 BKN050 06/M06     Q1023 RMK 1CU025 4CU035 7SC050 A3023=,- RA SH
20180101_110000.002,0,RJOH,,,,0,20180101110000,-1,-1,-1,-1,280,-1,10,-1,-1,-1,-1,,9999,0,1,3,FEW 25   SCT 35   BKN 50,1,6,-1,6,1023,RJOH 011100Z 28010KT 9999 -SHRA FEW025 SCT035 BKN050 06/M06     Q1023 RMK 1CU025 4CU035 7SC050 A3023=,- RA SH
20180101_120000.000,0,RJOH,,,,0,20180101120000,-1,-1,-1,-1,280,-1,10,-1,-1,-1,-1,,9999,0,1,3,FEW 25   SCT 35   BKN 50,1,6,-1,7,1023,RJOH 011200Z 28010KT 9999 -SHRA FEW025 SCT035 BKN050 06/M07     Q1023 RMK 1CU025 3CU035 7SC050 A3023=,- RA SH
20180101_120000.002,0,RJOH,,,,0,20180101120000,-1,-1,-1,-1,280,-1,10,-1,-1,-1,-1,,9999,0,1,3,FEW 25   SCT 35   BKN 50,1,6,-1,7,1023,RJOH 011200Z 28010KT 9999 -SHRA FEW025 SCT035 BKN050 06/M07     Q1023 RMK 1CU025 3CU035 7SC050 A3023=,- RA SH
20180101_130000.000,0,RJOH,,,,0,20180101130000,-1,-1,-1,-1,280,-1,10,-1,-1,-1,-1,,9999,0,0,2,FEW 35   BKN 50,1,6,-1,7,1023,RJOH 011300Z 28010KT 9999 FEW035 BKN050 06/M07 Q1023 RMK 2CU035     7SC050 A3024=,
20180101_130000.002,0,RJOH,,,,0,20180101130000,-1,-1,-1,-1,280,-1,10,-1,-1,-1,-1,,9999,0,0,2,FEW 35   BKN 50,1,6,-1,7,1023,RJOH 011300Z 28010KT 9999 FEW035 BKN050 06/M07 Q1023 RMK     2CU035 7SC050 A3024=,
20180101_140000.000,0,RJOH,,,,0,20180101140000,-1,-1,-1,-1,290,-1,7,-1,-1,250,330,,9999,0,1,3,FEW 25   SCT 35   BKN 50,1,6,-1,6,1024,RJOH 011400Z 29007KT 250V330 9999 -SHRA FEW025 SCT035 BKN050     06/M06 Q1024 RMK 1CU025 4CU035 7SC050 A3024=,- RA SH
20180101_140000.002,0,RJOH,,,,0,20180101140000,-1,-1,-1,-1,290,-1,7,-1,-1,250,330,,9999,0,1,3,FEW 25   SCT 35   BKN 50,1,6,-1,6,1024,RJOH 011400Z 29007KT 250V330 9999 -SHRA FEW025 SCT035 BKN050     06/M06 Q1024 RMK 1CU025 4CU035 7SC050 A3024=,- RA SH
20180101_150000.000,0,RJOH,,,,0,20180101150000,-1,-1,-1,-1,280,-1,7,-1,-1,-1,-1,,9999,0,0,2,FEW 35   BKN 60,1,6,-1,8,1024,RJOH 011500Z 28007KT 9999 FEW035 BKN060 06/M08 Q1024 RMK 2CU035     7SC060 A3024=,
20180101_150000.002,0,RJOH,,,,0,20180101150000,-1,-1,-1,-1,280,-1,7,-1,-1,-1,-1,,9999,0,0,2,FEW 35   BKN 60,1,6,-1,8,1024,RJOH 011500Z 28007KT 9999 FEW035 BKN060 06/M08 Q1024 RMK     2CU035 7SC060 A3024=,
20180101_160000.000,0,RJOH,,,,0,20180101160000,-1,-1,-1,-1,280,-1,11,-1,-1,250,320,,9999,0,0,3,FEW 25   SCT 35   BKN 60,1,6,-1,7,1023,RJOH 011600Z 28011KT 250V320 9999 FEW025 SCT035 BKN060 06/M07     Q1023 RMK 1CU025 3CU035 7SC060 A3023=,
20180101_160000.002,0,RJOH,,,,0,20180101160000,-1,-1,-1,-1,280,-1,11,-1,-1,250,320,,9999,0,0,3,FEW 25   SCT 35   BKN 60,1,6,-1,7,1023,RJOH 011600Z 28011KT 250V320 9999 FEW025 SCT035 BKN060 06/M07     Q1023 RMK 1CU025 3CU035 7SC060 A3023=,
20180101_170000.000,0,RJOH,,,,0,20180101170000,-1,-1,-1,-1,290,-1,7,-1,-1,-1,-1,,9999,0,1,3,FEW 25   BKN 35   BKN 50,1,6,-1,7,1023,RJOH 011700Z 29007KT 9999 -SHRA FEW025 BKN035 BKN050 06/M07     Q1023 RMK 1CU025 6CU035 7SC050 A3023=,- RA SH
20180101_170000.002,0,RJOH,,,,0,20180101170000,-1,-1,-1,-1,290,-1,7,-1,-1,-1,-1,,9999,0,1,3,FEW 25   BKN 35   BKN 50,1,6,-1,7,1023,RJOH 011700Z 29007KT 9999 -SHRA FEW025 BKN035 BKN050 06/M07     Q1023 RMK 1CU025 6CU035 7SC050 A3023=,- RA SH
20180101_180000.000,0,RJOH,,,,0,20180101180000,-1,-1,-1,-1,290,-1,6,-1,-1,-1,-1,,9999,0,0,2,FEW 35   BKN 50,1,7,-1,9,1023,RJOH 011800Z 29006KT 9999 FEW035 BKN050 07/M09 Q1023 RMK 2CU035     7SC050 A3024=,
20180101_180000.003,0,RJOH,,,,0,20180101180000,-1,-1,-1,-1,290,-1,6,-1,-1,-1,-1,,9999,0,0,2,FEW 35   BKN 50,1,7,-1,9,1023,RJOH 011800Z 29006KT 9999 FEW035 BKN050 07/M09 Q1023 RMK     2CU035 7SC050 A3024=,
20180101_190000.000,0,RJOH,,,,0,20180101190000,-1,-1,-1,-1,260,-1,6,-1,-1,-1,-1,,9999,0,0,2,FEW 35   BKN 50,1,6,-1,4,1023,RJOH 011900Z 26006KT 9999 FEW035 BKN050 06/M04 Q1023 RMK 2CU035     7SC050 A3023=,
20180101_190000.003,0,RJOH,,,,0,20180101190000,-1,-1,-1,-1,260,-1,6,-1,-1,-1,-1,,9999,0,0,2,FEW 35   BKN 50,1,6,-1,4,1023,RJOH 011900Z 26006KT 9999 FEW035 BKN050 06/M04 Q1023 RMK     2CU035 7SC050 A3023=,
20180101_200000.000,0,RJOH,,,,0,20180101200000,-1,-1,-1,-1,240,-1,8,-1,-1,-1,-1,,9999,0,0,2,FEW 35   BKN 50,1,5,-1,5,1024,RJOH 012000Z 24008KT 9999 FEW035 BKN050 05/M05 Q1024 RMK 1CU035     7SC050 A3024=,
20180101_200000.003,0,RJOH,,,,0,20180101200000,-1,-1,-1,-1,240,-1,8,-1,-1,-1,-1,,9999,0,0,2,FEW 35   BKN 50,1,5,-1,5,1024,RJOH 012000Z 24008KT 9999 FEW035 BKN050 05/M05 Q1024 RMK     1CU035 7SC050 A3024=,
20180101_210000.000,0,RJOH,,,,0,20180101210000,-1,-1,-1,-1,220,-1,7,-1,-1,-1,-1,,9999,0,0,2,FEW 35   BKN 50,1,5,-1,5,1024,RJOH 012100Z 22007KT 9999 FEW035 BKN050 05/M05 Q1024 RMK 1CU035     7SC050 A3024 10/04 R000=,
20180101_210000.002,0,RJOH,,,,0,20180101210000,-1,-1,-1,-1,220,-1,7,-1,-1,-1,-1,,9999,0,0,2,FEW 35   BKN 50,1,5,-1,5,1024,RJOH 012100Z 22007KT 9999 FEW035 BKN050 05/M05 Q1024 RMK     1CU035 7SC050 A3024 10/04 R000=,
20180101_220000.000,0,RJOH,,,,0,20180101220000,-1,-1,-1,-1,240,-1,8,-1,-1,-1,-1,,9999,0,0,2,FEW 35   BKN 50,1,5,-1,5,1024,RJOH 012200Z 24008KT 9999 FEW035 BKN050 05/M05 Q1024 RMK 2CU035     7SC050 A3025=,
20180101_220000.002,0,RJOH,,,,0,20180101220000,-1,-1,-1,-1,240,-1,8,-1,-1,-1,-1,,9999,0,0,2,FEW 35   BKN 50,1,5,-1,5,1024,RJOH 012200Z 24008KT 9999 FEW035 BKN050 05/M05 Q1024 RMK     2CU035 7SC050 A3025=,
20180101_230000.000,0,RJOH,,,,0,20180101230000,-1,-1,-1,-1,230,-1,9,-1,-1,-1,-1,,9999,0,1,3,FEW 25   SCT 35   BKN 50,1,5,-1,5,1024,RJOH 012300Z 23009KT 9999 -SHRA FEW025 SCT035 BKN050 05/M05     Q1024 RMK 1CU025 3CU035 7SC050 A3025=,- RA SH
20180101_230000.002,0,RJOH,,,,0,20180101230000,-1,-1,-1,-1,230,-1,9,-1,-1,-1,-1,,9999,0,1,3,FEW 25   SCT 35   BKN 50,1,5,-1,5,1024,RJOH 012300Z 23009KT 9999 -SHRA FEW025 SCT035 BKN050 05/M05     Q1024 RMK 1CU025 3CU035 7SC050 A3025=,- RA SH
20180102_000000.000,0,RJOH,,,,0,20180102000000,-1,-1,-1,-1,260,-1,7,-1,-1,-1,-1,,9999,0,0,2,FEW 35   BKN 50,1,6,-1,4,1025,RJOH 020000Z 26007KT 9999 FEW035 BKN050 06/M04 Q1025 RMK 1CU035     6SC050 A3027=,
20180102_000000.003,0,RJOH,,,,0,20180102000000,-1,-1,-1,-1,260,-1,7,-1,-1,-1,-1,,9999,0,0,2,FEW 35   BKN 50,1,6,-1,4,1025,RJOH 020000Z 26007KT 9999 FEW035 BKN050 06/M04 Q1025 RMK     1CU035 6SC050 A3027=,
20180102_010000.000,0,RJOH,,,,0,20180102010000,-1,-1,-1,-1,260,-1,8,-1,-1,230,310,,9999,0,0,2,FEW 35   BKN 50,1,8,-1,5,1024,RJOH 020100Z 26008KT 230V310 9999 FEW035 BKN050 08/M05 Q1024     RMK 1CU035 6SC050 A3026=,
20180102_010000.003,0,RJOH,,,,0,20180102010000,-1,-1,-1,-1,260,-1,8,-1,-1,230,310,,9999,0,0,2,FEW 35   BKN 50,1,8,-1,5,1024,RJOH 020100Z 26008KT 230V310 9999 FEW035 BKN050 08/M05 Q1024     RMK 1CU035 6SC050 A3026=,
20180102_020000.000,0,RJOH,,,,0,20180102020000,-1,-1,-1,-1,270,-1,15,-1,-1,-1,-1,,9999,0,0,2,FEW 35   BKN 50,1,9,-1,6,1024,RJOH 020200Z 27015KT 9999 FEW035 BKN050 09/M06 Q1024 RMK 1CU035     5SC050 A3025=,
20180102_020000.002,0,RJOH,,,,0,20180102020000,-1,-1,-1,-1,270,-1,15,-1,-1,-1,-1,,9999,0,0,2,FEW 35   BKN 50,1,9,-1,6,1024,RJOH 020200Z 27015KT 9999 FEW035 BKN050 09/M06 Q1024 RMK     1CU035 5SC050 A3025=,
20180102_030000.000,0,RJOH,,,,0,20180102030000,-1,-1,-1,-1,260,-1,14,-1,-1,-1,-1,,9999,0,0,2,FEW 40   BKN 50,1,9,-1,6,1023,RJOH 020300Z 26014KT 9999 FEW040 BKN050 09/M06 Q1023 RMK 1SC040     5SC050 A3021=,
20180102_030000.002,0,RJOH,,,,0,20180102030000,-1,-1,-1,-1,260,-1,14,-1,-1,-1,-1,,9999,0,0,2,FEW 40   BKN 50,1,9,-1,6,1023,RJOH 020300Z 26014KT 9999 FEW040 BKN050 09/M06 Q1023 RMK     1SC040 5SC050 A3021=,
20180102_040000.000,0,RJOH,,,,0,20180102040000,-1,-1,-1,-1,280,-1,16,-1,-1,-1,-1,,9999,0,0,2,FEW 40   BKN 50,1,10,-1,6,1022,RJOH 020400Z 28016KT 9999 FEW040 BKN050 10/M06 Q1022 RMK 1SC040     7SC050 A3021=,
20180102_040000.002,0,RJOH,,,,0,20180102040000,-1,-1,-1,-1,280,-1,16,-1,-1,-1,-1,,9999,0,0,2,FEW 40   BKN 50,1,10,-1,6,1022,RJOH 020400Z 28016KT 9999 FEW040 BKN050 10/M06 Q1022 RMK     1SC040 7SC050 A3021=,
20180102_050000.000,0,RJOH,,,,0,20180102050000,-1,-1,-1,-1,270,-1,17,-1,-1,-1,-1,,9999,0,0,2,FEW 40   BKN 50,1,9,-1,6,1022,RJOH 020500Z 27017KT 9999 FEW040 BKN050 09/M06 Q1022 RMK 1SC040     5SC050 A3020 MAX WIND 25KT=,
20180102_050000.002,0,RJOH,,,,0,20180102050000,-1,-1,-1,-1,270,-1,17,-1,-1,-1,-1,,9999,0,0,2,FEW 40   BKN 50,1,9,-1,6,1022,RJOH 020500Z 27017KT 9999 FEW040 BKN050 09/M06 Q1022 RMK     1SC040 5SC050 A3020 MAX WIND 25KT=,
20180102_060000.000,0,RJOH,,,,0,20180102060000,-1,-1,-1,-1,270,-1,17,-1,-1,-1,-1,,9999,0,0,2,FEW 40   BKN 50,1,10,-1,7,1022,RJOH 020600Z 27017KT 9999 FEW040 BKN050 10/M07 Q1022 RMK 1SC040     6SC050 A3020 MAX WIND 26KT=,
20180102_060000.002,0,RJOH,,,,0,20180102060000,-1,-1,-1,-1,270,-1,17,-1,-1,-1,-1,,9999,0,0,2,FEW 40   BKN 50,1,10,-1,7,1022,RJOH 020600Z 27017KT 9999 FEW040 BKN050 10/M07 Q1022 RMK     1SC040 6SC050 A3020 MAX WIND 26KT=,
20180102_070000.000,0,RJOH,,,,0,20180102070000,-1,-1,-1,-1,270,-1,15,-1,-1,-1,-1,,9999,0,0,2,FEW 40   BKN 50,1,9,-1,6,1022,RJOH 020700Z 27015KT 9999 FEW040 BKN050 09/M06 Q1022 RMK 1SC040     5SC050 A3019 MAX WIND 21KT=,
20180102_070000.002,0,RJOH,,,,0,20180102070000,-1,-1,-1,-1,270,-1,15,-1,-1,-1,-1,,9999,0,0,2,FEW 40   BKN 50,1,9,-1,6,1022,RJOH 020700Z 27015KT 9999 FEW040 BKN050 09/M06 Q1022 RMK     1SC040 5SC050 A3019 MAX WIND 21KT=,
20180102_080000.000,0,RJOH,,,,0,20180102080000,-1,-1,-1,-1,270,-1,10,-1,-1,-1,-1,,9999,0,0,2,FEW 40   BKN 50,1,8,-1,5,1022,RJOH 020800Z 27010KT 9999 FEW040 BKN050 08/M05 Q1022 RMK 1SC040     6SC050 A3019=,
20180102_080000.002,0,RJOH,,,,0,20180102080000,-1,-1,-1,-1,270,-1,10,-1,-1,-1,-1,,9999,0,0,2,FEW 40   BKN 50,1,8,-1,5,1022,RJOH 020800Z 27010KT 9999 FEW040 BKN050 08/M05 Q1022 RMK     1SC040 6SC050 A3019=,
20180102_090000.000,0,RJOH,,,,0,20180102090000,-1,-1,-1,-1,270,-1,12,-1,-1,-1,-1,,9999,0,0,2,FEW 35   SCT 50,1,7,-1,6,1022,RJOH 020900Z 27012KT 9999 FEW035 SCT050 07/M06 Q1022 RMK 1CU035     3SC050 A3019=,
20180102_090000.002,0,RJOH,,,,0,20180102090000,-1,-1,-1,-1,270,-1,12,-1,-1,-1,-1,,9999,0,0,2,FEW 35   SCT 50,1,7,-1,6,1022,RJOH 020900Z 27012KT 9999 FEW035 SCT050 07/M06 Q1022 RMK     1CU035 3SC050 A3019=,
20180102_100000.000,0,RJOH,,,,0,20180102100000,-1,-1,-1,-1,260,-1,6,-1,-1,-1,-1,,9999,0,0,2,FEW 35   BKN 50,1,7,-1,6,1022,RJOH 021000Z 26006KT 9999 FEW035 BKN050 07/M06 Q1022 RMK 1CU035     5SC050 A3019=,
20180102_100000.002,0,RJOH,,,,0,20180102100000,-1,-1,-1,-1,260,-1,6,-1,-1,-1,-1,,9999,0,0,2,FEW 35   BKN 50,1,7,-1,6,1022,RJOH 021000Z 26006KT 9999 FEW035 BKN050 07/M06 Q1022 RMK     1CU035 5SC050 A3019=,
20180102_110000.000,0,RJOH,,,,0,20180102110000,-1,-1,-1,-1,260,-1,14,-1,-1,-1,-1,,9999,0,0,2,FEW 35   BKN 50,1,7,-1,5,1022,RJOH 021100Z 26014KT 9999 FEW035 BKN050 07/M05 Q1022 RMK 1CU035     6SC050 A3020=,
20180102_110000.002,0,RJOH,,,,0,20180102110000,-1,-1,-1,-1,260,-1,14,-1,-1,-1,-1,,9999,0,0,2,FEW 35   BKN 50,1,7,-1,5,1022,RJOH 021100Z 26014KT 9999 FEW035 BKN050 07/M05 Q1022 RMK     1CU035 6SC050 A3020=,
20180102_120000.000,0,RJOH,,,,0,20180102120000,-1,-1,-1,-1,260,-1,12,-1,-1,-1,-1,,9999,0,0,3,FEW 35   BKN 50   BKN 70,1,7,-1,6,1021,RJOH 021200Z 26012KT 9999 FEW035 BKN050 BKN070 07/M06 Q1021 RMK     1CU035 5SC050 6AC070 A3017=,
20180102_120000.002,0,RJOH,,,,0,20180102120000,-1,-1,-1,-1,260,-1,12,-1,-1,-1,-1,,9999,0,0,3,FEW 35   BKN 50   BKN 70,1,7,-1,6,1021,RJOH 021200Z 26012KT 9999 FEW035 BKN050 BKN070 07/M06 Q1021     RMK 1CU035 5SC050 6AC070 A3017=,
20180102_130000.000,0,RJOH,,,,0,20180102130000,-1,-1,-1,-1,240,-1,8,-1,-1,-1,-1,,9999,0,1,3,FEW 20   SCT 30   BKN 50,1,7,-1,4,1020,RJOH 021300Z 24008KT 9999 -SHRA FEW020 SCT030 BKN050 07/M04     Q1020 RMK 1CU020 3CU030 7SC050 A3015=,- RA SH
20180102_130000.003,0,RJOH,,,,0,20180102130000,-1,-1,-1,-1,240,-1,8,-1,-1,-1,-1,,9999,0,1,3,FEW 20   SCT 30   BKN 50,1,7,-1,4,1020,RJOH 021300Z 24008KT 9999 -SHRA FEW020 SCT030 BKN050 07/M04     Q1020 RMK 1CU020 3CU030 7SC050 A3015=,- RA SH
20180102_140000.000,0,RJOH,,,,0,20180102140000,-1,-1,-1,-1,270,-1,18,-1,29,-1,-1,,9999,0,0,3,FEW 30   BKN 50   BKN 70,1,8,-1,5,1020,RJOH 021400Z 27018G29KT 9999 FEW030 BKN050 BKN070 08/M05 Q1020     RMK 1CU030 5SC050 7AC070 A3012=,
20180102_140000.003,0,RJOH,,,,0,20180102140000,-1,-1,-1,-1,270,-1,18,-1,29,-1,-1,,9999,0,0,3,FEW 30   BKN 50   BKN 70,1,8,-1,5,1020,RJOH 021400Z 27018G29KT 9999 FEW030 BKN050 BKN070 08/M05 Q1020     RMK 1CU030 5SC050 7AC070 A3012=,
20180102_150000.000,0,RJOH,,,,0,20180102150000,-1,-1,-1,-1,290,-1,12,-1,22,-1,-1,,9999,0,1,3,FEW 20   SCT 30   BKN 50,1,8,-1,5,1020,RJOH 021500Z 29012G22KT 9999 -SHRA FEW020 SCT030 BKN050 08/M05     Q1020 RMK 1CU020 3CU030 7SC050 A3013=,- RA SH
20180102_150000.002,0,RJOH,,,,0,20180102150000,-1,-1,-1,-1,290,-1,12,-1,22,-1,-1,,9999,0,1,3,FEW 20   SCT 30   BKN 50,1,8,-1,5,1020,RJOH 021500Z 29012G22KT 9999 -SHRA FEW020 SCT030 BKN050 08/M05     Q1020 RMK 1CU020 3CU030 7SC050 A3013=,- RA SH
20180102_160000.000,0,RJOH,,,,0,20180102160000,-1,-1,-1,-1,310,-1,13,-1,-1,-1,-1,,9999,0,1,3,FEW 20   BKN 30   BKN 50,1,6,-1,2,1020,RJOH 021600Z 31013KT 9999 -SHRA FEW020 BKN030 BKN050 06/M02     Q1020 RMK 1CU020 5CU030 7SC050 A3014=,- RA SH
20180102_160000.002,0,RJOH,,,,0,20180102160000,-1,-1,-1,-1,310,-1,13,-1,-1,-1,-1,,9999,0,1,3,FEW 20   BKN 30   BKN 50,1,6,-1,2,1020,RJOH 021600Z 31013KT 9999 -SHRA FEW020 BKN030 BKN050 06/M02     Q1020 RMK 1CU020 5CU030 7SC050 A3014=,- RA SH
20180102_170000.000,0,RJOH,,,,0,20180102170000,-1,-1,-1,-1,320,-1,11,-1,21,-1,-1,,9999,0,1,3,FEW 10   SCT 20   BKN 30 TCU,1,6,-1,1,1021,RJOH 021700Z 32011G21KT 9999 -SHRA FEW010 SCT020 BKN030TCU     06/M01 Q1021 RMK 1CU010 3CU020 6TCU030 A3017 TCU OHD MOV           SE=,- RA SH
20180102_170000.002,0,RJOH,,,,0,20180102170000,-1,-1,-1,-1,320,-1,11,-1,21,-1,-1,,9999,0,1,3,FEW 10   SCT 20   BKN 30 TCU,1,6,-1,1,1021,RJOH 021700Z 32011G21KT 9999 -SHRA FEW010 SCT020 BKN030TCU     06/M01 Q1021 RMK 1CU010 3CU020 6TCU030 A3017 TCU OHD MOV           SE=,- RA SH
20180102_180000.000,0,RJOH,,,,0,20180102180000,-1,-1,-1,-1,320,-1,15,-1,26,-1,-1,,9999,0,1,3,FEW 20   BKN 30   BKN 50,1,6,-1,3,1021,RJOH 021800Z 32015G26KT 9999 -SHRA FEW020 BKN030 BKN050 06/M03     Q1021 RMK 2CU020 5CU030 7SC050 A3017=,- RA SH
20180102_180000.003,0,RJOH,,,,0,20180102180000,-1,-1,-1,-1,320,-1,15,-1,26,-1,-1,,9999,0,1,3,FEW 20   BKN 30   BKN 50,1,6,-1,3,1021,RJOH 021800Z 32015G26KT 9999 -SHRA FEW020 BKN030 BKN050 06/M03     Q1021 RMK 2CU020 5CU030 7SC050 A3017=,- RA SH
20180102_190000.000,0,RJOH,,,,0,20180102190000,-1,-1,-1,-1,320,-1,14,-1,24,-1,-1,,9999,0,0,3,FEW 30   SCT 50   BKN 160,1,5,-1,3,1022,RJOH 021900Z 32014G24KT 9999 FEW030 SCT050 BKN160 05/M03 Q1022     RMK 2CU030 3SC050 7AC160 A3018=,
20180102_190000.002,0,RJOH,,,,0,20180102190000,-1,-1,-1,-1,320,-1,14,-1,24,-1,-1,,9999,0,0,3,FEW 30   SCT 50   BKN 160,1,5,-1,3,1022,RJOH 021900Z 32014G24KT 9999 FEW030 SCT050 BKN160 05/M03 Q1022     RMK 2CU030 3SC050 7AC160 A3018=,
20180102_200000.000,0,RJOH,,,,0,20180102200000,-1,-1,-1,-1,310,-1,9,-1,23,280,340,,9999,0,1,3,FEW 20   SCT 30   BKN 50,1,5,-1,4,1022,RJOH 022000Z 31009G23KT 280V340 9999 -SHRA FEW020 SCT030 BKN050     05/M04 Q1022 RMK 1CU020 4CU030 7SC050 A3020=,- RA SH
20180102_200000.003,0,RJOH,,,,0,20180102200000,-1,-1,-1,-1,310,-1,9,-1,23,280,340,,9999,0,1,3,FEW 20   SCT 30   BKN 50,1,5,-1,4,1022,RJOH 022000Z 31009G23KT 280V340 9999 -SHRA FEW020 SCT030     BKN050 05/M04 Q1022 RMK 1CU020 4CU030 7SC050 A3020=,- RA SH
20180102_210000.000,0,RJOH,,,,0,20180102210000,-1,-1,-1,-1,330,-1,16,-1,26,-1,-1,,9999,0,1,3,FEW 20   SCT 30   BKN 50,1,5,-1,4,1022,RJOH 022100Z 33016G26KT 9999 -SHRA FEW020 SCT030 BKN050 05/M04     Q1022 RMK 1CU020 4CU030 7SC050 A3020 11/04 R001 S000=,- RA SH
20180102_210000.002,0,RJOH,,,,0,20180102210000,-1,-1,-1,-1,330,-1,16,-1,26,-1,-1,,9999,0,1,3,FEW 20   SCT 30   BKN 50,1,5,-1,4,1022,RJOH 022100Z 33016G26KT 9999 -SHRA FEW020 SCT030 BKN050 05/M04     Q1022 RMK 1CU020 4CU030 7SC050 A3020 11/04 R001 S000=,- RA SH
20180102_220000.000,0,RJOH,,,,0,20180102220000,-1,-1,-1,-1,340,-1,8,-1,-1,-1,-1,,9999,0,1,3,FEW 20   SCT 30   BKN 50,1,4,-1,3,1023,RJOH 022200Z 34008KT 9999 -SHRA FEW020 SCT030 BKN050 04/M03     Q1023 RMK 1CU020 4CU030 7SC050 A3023=,- RA SH
20180102_220000.002,0,RJOH,,,,0,20180102220000,-1,-1,-1,-1,340,-1,8,-1,-1,-1,-1,,9999,0,1,3,FEW 20   SCT 30   BKN 50,1,4,-1,3,1023,RJOH 022200Z 34008KT 9999 -SHRA FEW020 SCT030 BKN050 04/M03     Q1023 RMK 1CU020 4CU030 7SC050 A3023=,- RA SH
20180102_230000.000,0,RJOH,,,,0,20180102230000,-1,-1,-1,-1,340,-1,9,-1,-1,-1,-1,,9999,0,0,3,FEW 20   SCT 30   BKN 50,1,4,-1,4,1024,RJOH 022300Z 34009KT 9999 FEW020 SCT030 BKN050 04/M04 Q1024 RMK     1CU020 3CU030 6SC050 A3024=,
20180102_230000.002,0,RJOH,,,,0,20180102230000,-1,-1,-1,-1,340,-1,9,-1,-1,-1,-1,,9999,0,0,3,FEW 20   SCT 30   BKN 50,1,4,-1,4,1024,RJOH 022300Z 34009KT 9999 FEW020 SCT030 BKN050 04/M04 Q1024     RMK 1CU020 3CU030 6SC050 A3024=,
20180103_000000.000,0,RJOH,,,,0,20180103000000,-1,-1,-1,-1,340,-1,11,-1,-1,-1,-1,,9999,0,1,3,FEW 15   BKN 30   BKN 50,1,5,-1,4,1024,RJOH 030000Z 34011KT 9999 -SHRASN FEW015 BKN030 BKN050 05/M04     Q1024 RMK 1CU015 6CU030 7SC050 A3025 MAX WIND 18KT=,- RA SN SH
20180103_000000.002,0,RJOH,,,,0,20180103000000,-1,-1,-1,-1,340,-1,11,-1,-1,-1,-1,,9999,0,1,3,FEW 15   BKN 30   BKN 50,1,5,-1,4,1024,RJOH 030000Z 34011KT 9999 -SHRASN FEW015 BKN030 BKN050 05/M04     Q1024 RMK 1CU015 6CU030 7SC050 A3025 MAX WIND 18KT=,- RA SN SH
20180103_010000.000,0,RJOH,,,,0,20180103010000,-1,-1,-1,-1,330,-1,11,-1,-1,-1,-1,,9999,0,1,3,FEW 15   BKN 30   BKN 50,1,5,-1,7,1024,RJOH 030100Z 33011KT 9999 -SHRASN FEW015 BKN030 BKN050 05/M07     Q1024 RMK 1CU015 5CU030 7SC050 A3026=,- RA SN SH
20180103_010000.002,0,RJOH,,,,0,20180103010000,-1,-1,-1,-1,330,-1,11,-1,-1,-1,-1,,9999,0,1,3,FEW 15   BKN 30   BKN 50,1,5,-1,7,1024,RJOH 030100Z 33011KT 9999 -SHRASN FEW015 BKN030 BKN050 05/M07     Q1024 RMK 1CU015 5CU030 7SC050 A3026=,- RA SN SH
20180103_020000.000,0,RJOH,,,,0,20180103020000,-1,-1,-1,-1,350,-1,15,-1,-1,-1,-1,,9999,0,1,3,FEW 15   BKN 30   BKN 50,1,6,-1,6,1024,RJOH 030200Z 35015KT 9999 -SHRASN FEW015 BKN030 BKN050 06/M06     Q1024 RMK 1CU015 5CU030 7SC050 A3026 MAX WIND 23KT=,- RA SN SH
20180103_020000.002,0,RJOH,,,,0,20180103020000,-1,-1,-1,-1,350,-1,15,-1,-1,-1,-1,,9999,0,1,3,FEW 15   BKN 30   BKN 50,1,6,-1,6,1024,RJOH 030200Z 35015KT 9999 -SHRASN FEW015 BKN030 BKN050 06/M06     Q1024 RMK 1CU015 5CU030 7SC050 A3026 MAX WIND 23KT=,- RA SN SH
20180103_030000.000,0,RJOH,,,,0,20180103030000,-1,-1,-1,-1,330,-1,15,-1,-1,-1,-1,,9999,0,0,3,FEW 20   SCT 30   BKN 60,1,6,-1,6,1024,RJOH 030300Z 33015KT 9999 FEW020 SCT030 BKN060 06/M06 Q1024 RMK     1CU020 3CU030 7SC060 A3026 MAX WIND 23KT=,
20180103_030000.003,0,RJOH,,,,0,20180103030000,-1,-1,-1,-1,330,-1,15,-1,-1,-1,-1,,9999,0,0,3,FEW 20   SCT 30   BKN 60,1,6,-1,6,1024,RJOH 030300Z 33015KT 9999 FEW020 SCT030 BKN060 06/M06 Q1024     RMK 1CU020 3CU030 7SC060 A3026 MAX WIND 23KT=,
20180103_040000.000,0,RJOH,,,,0,20180103040000,-1,-1,-1,-1,330,-1,14,-1,-1,-1,-1,,9999,0,0,2,FEW 25   BKN 50,1,7,-1,7,1024,RJOH 030400Z 33014KT 9999 FEW025 BKN050 07/M07 Q1024 RMK 1CU025     5SC050 A3024 MAX WIND 23KT=,
20180103_040000.002,0,RJOH,,,,0,20180103040000,-1,-1,-1,-1,330,-1,14,-1,-1,-1,-1,,9999,0,0,2,FEW 25   BKN 50,1,7,-1,7,1024,RJOH 030400Z 33014KT 9999 FEW025 BKN050 07/M07 Q1024 RMK     1CU025 5SC050 A3024 MAX WIND 23KT=,
20180103_050000.000,0,RJOH,,,,0,20180103050000,-1,-1,-1,-1,320,-1,12,-1,22,-1,-1,,9999,0,0,2,FEW 30   BKN 50,1,6,-1,9,1023,RJOH 030500Z 32012G22KT 9999 FEW030 BKN050 06/M09 Q1023 RMK     1CU030 5SC050 A3024=,
20180103_050000.002,0,RJOH,,,,0,20180103050000,-1,-1,-1,-1,320,-1,12,-1,22,-1,-1,,9999,0,0,2,FEW 30   BKN 50,1,6,-1,9,1023,RJOH 030500Z 32012G22KT 9999 FEW030 BKN050 06/M09 Q1023 RMK     1CU030 5SC050 A3024=,
20180103_060000.000,0,RJOH,,,,0,20180103060000,-1,-1,-1,-1,330,-1,13,-1,-1,290,350,,9999,0,0,2,FEW 40   BKN 50,1,6,-1,9,1024,RJOH 030600Z 33013KT 290V350 9999 FEW040 BKN050 06/M09 Q1024     RMK 2CU040 5SC050 A3024 MAX WIND 21KT=,
20180103_060000.002,0,RJOH,,,,0,20180103060000,-1,-1,-1,-1,330,-1,13,-1,-1,290,350,,9999,0,0,2,FEW 40   BKN 50,1,6,-1,9,1024,RJOH 030600Z 33013KT 290V350 9999 FEW040 BKN050 06/M09 Q1024     RMK 2CU040 5SC050 A3024 MAX WIND 21KT=,
20180103_070000.000,0,RJOH,,,,0,20180103070000,-1,-1,-1,-1,320,-1,11,-1,-1,-1,-1,,9999,0,0,2,FEW 40   SCT 50,1,6,-1,8,1024,RJOH 030700Z 32011KT 9999 FEW040 SCT050 06/M08 Q1024 RMK 1CU040     4SC050 A3024=,
20180103_070000.002,0,RJOH,,,,0,20180103070000,-1,-1,-1,-1,320,-1,11,-1,-1,-1,-1,,9999,0,0,2,FEW 40   SCT 50,1,6,-1,8,1024,RJOH 030700Z 32011KT 9999 FEW040 SCT050 06/M08 Q1024 RMK     1CU040 4SC050 A3024=,
20180103_080000.000,0,RJOH,,,,0,20180103080000,-1,-1,-1,-1,320,-1,8,-1,-1,-1,-1,,9999,0,0,2,FEW 40   SCT 50,1,5,-1,9,1024,RJOH 030800Z 32008KT 9999 FEW040 SCT050 05/M09 Q1024 RMK 2CU040     4SC050 A3024=,
20180103_080000.002,0,RJOH,,,,0,20180103080000,-1,-1,-1,-1,320,-1,8,-1,-1,-1,-1,,9999,0,0,2,FEW 40   SCT 50,1,5,-1,9,1024,RJOH 030800Z 32008KT 9999 FEW040 SCT050 05/M09 Q1024 RMK     2CU040 4SC050 A3024=,
20180103_090000.000,0,RJOH,,,,0,20180103090000,-1,-1,-1,-1,330,-1,8,-1,-1,-1,-1,,9999,0,0,2,FEW 30   BKN 50,1,5,-1,10,1024,RJOH 030900Z 33008KT 9999 FEW030 BKN050 05/M10 Q1024 RMK 1CU030     5SC050 A3025=,
20180103_090000.002,0,RJOH,,,,0,20180103090000,-1,-1,-1,-1,330,-1,8,-1,-1,-1,-1,,9999,0,0,2,FEW 30   BKN 50,1,5,-1,10,1024,RJOH 030900Z 33008KT 9999 FEW030 BKN050 05/M10 Q1024 RMK     1CU030 5SC050 A3025=,
20180103_100000.000,0,RJOH,,,,0,20180103100000,-1,-1,-1,-1,320,-1,7,-1,-1,-1,-1,,9999,0,0,3,FEW 30   SCT 40   BKN 50,1,5,-1,9,1024,RJOH 031000Z 32007KT 9999 FEW030 SCT040 BKN050 05/M09 Q1024 RMK     1CU030 3CU040 7SC050 A3026=,
20180103_100000.002,0,RJOH,,,,0,20180103100000,-1,-1,-1,-1,320,-1,7,-1,-1,-1,-1,,9999,0,0,3,FEW 30   SCT 40   BKN 50,1,5,-1,9,1024,RJOH 031000Z 32007KT 9999 FEW030 SCT040 BKN050 05/M09 Q1024     RMK 1CU030 3CU040 7SC050 A3026=,
20180103_110000.000,0,RJOH,,,,0,20180103110000,-1,-1,-1,-1,350,-1,6,-1,-1,320,20,,9999,0,0,3,FEW 30   SCT 40   BKN 60,1,5,-1,9,1024,RJOH 031100Z 35006KT 320V020 9999 FEW030 SCT040 BKN060 05/M09     Q1024 RMK 1CU030 3CU040 7SC060 A3025=,
20180103_110000.002,0,RJOH,,,,0,20180103110000,-1,-1,-1,-1,350,-1,6,-1,-1,320,20,,9999,0,0,3,FEW 30   SCT 40   BKN 60,1,5,-1,9,1024,RJOH 031100Z 35006KT 320V020 9999 FEW030 SCT040 BKN060 05/M09     Q1024 RMK 1CU030 3CU040 7SC060 A3025=,
20180103_120000.000,0,RJOH,,,,0,20180103120000,-1,-1,-1,-1,330,-1,6,-1,-1,300,360,,9999,0,0,3,FEW 30   SCT 40   BKN 60,1,5,-1,8,1025,RJOH 031200Z 33006KT 300V360 9999 FEW030 SCT040 BKN060 05/M08     Q1025 RMK 1CU030 3CU040 7SC060 A3027=,
20180103_120000.002,0,RJOH,,,,0,20180103120000,-1,-1,-1,-1,330,-1,6,-1,-1,300,360,,9999,0,0,3,FEW 30   SCT 40   BKN 60,1,5,-1,8,1025,RJOH 031200Z 33006KT 300V360 9999 FEW030 SCT040 BKN060 05/M08     Q1025 RMK 1CU030 3CU040 7SC060 A3027=,
20180103_130000.000,0,RJOH,,,,0,20180103130000,-1,-1,-1,-1,210,-1,4,-1,-1,-1,-1,,9999,0,0,2,FEW 40   BKN 60,1,3,-1,4,1025,RJOH 031300Z 21004KT 9999 FEW040 BKN060 03/M04 Q1025 RMK 1CU040     5SC060 A3027=,
20180103_130000.003,0,RJOH,,,,0,20180103130000,-1,-1,-1,-1,210,-1,4,-1,-1,-1,-1,,9999,0,0,2,FEW 40   BKN 60,1,3,-1,4,1025,RJOH 031300Z 21004KT 9999 FEW040 BKN060 03/M04 Q1025 RMK     1CU040 5SC060 A3027=,
20180103_140000.000,0,RJOH,,,,0,20180103140000,-1,-1,-1,-1,200,-1,5,-1,-1,-1,-1,,9999,0,0,2,FEW 40   SCT 60,1,1,-1,4,1024,RJOH 031400Z 20005KT 9999 FEW040 SCT060 01/M04 Q1024 RMK 1CU040     3SC060 A3026=,
20180103_140000.002,0,RJOH,,,,0,20180103140000,-1,-1,-1,-1,200,-1,5,-1,-1,-1,-1,,9999,0,0,2,FEW 40   SCT 60,1,1,-1,4,1024,RJOH 031400Z 20005KT 9999 FEW040 SCT060 01/M04 Q1024 RMK     1CU040 3SC060 A3026=,
20180103_150000.000,0,RJOH,,,,0,20180103150000,-1,-1,-1,-1,210,-1,8,-1,-1,-1,-1,,9999,0,0,2,FEW 40   BKN 60,1,3,-1,4,1024,RJOH 031500Z 21008KT 9999 FEW040 BKN060 03/M04 Q1024 RMK 1CU040     7SC060 A3026=,
20180103_150000.002,0,RJOH,,,,0,20180103150000,-1,-1,-1,-1,210,-1,8,-1,-1,-1,-1,,9999,0,0,2,FEW 40   BKN 60,1,3,-1,4,1024,RJOH 031500Z 21008KT 9999 FEW040 BKN060 03/M04 Q1024 RMK     1CU040 7SC060 A3026=,
20180103_160000.000,0,RJOH,,,,0,20180103160000,-1,-1,-1,-1,190,-1,6,-1,-1,-1,-1,,9999,0,0,2,FEW 35   BKN 60,1,2,-1,3,1024,RJOH 031600Z 19006KT 9999 FEW035 BKN060 02/M03 Q1024 RMK 2CU035     7SC060 A3026=,
20180103_160000.002,0,RJOH,,,,0,20180103160000,-1,-1,-1,-1,190,-1,6,-1,-1,-1,-1,,9999,0,0,2,FEW 35   BKN 60,1,2,-1,3,1024,RJOH 031600Z 19006KT 9999 FEW035 BKN060 02/M03 Q1024 RMK     2CU035 7SC060 A3026=,
20180103_170000.000,0,RJOH,,,,0,20180103170000,-1,-1,-1,-1,170,-1,5,-1,-1,-1,-1,,9999,0,1,3,FEW 30   BKN 35   BKN 60,1,2,-1,4,1024,RJOH 031700Z 17005KT 9999 -SHSNRA FEW030 BKN035 BKN060 02/M04     Q1024 RMK 1CU030 5CU035 7SC060 A3026=,- SN RA SH
20180103_170000.002,0,RJOH,,,,0,20180103170000,-1,-1,-1,-1,170,-1,5,-1,-1,-1,-1,,9999,0,1,3,FEW 30   BKN 35   BKN 60,1,2,-1,4,1024,RJOH 031700Z 17005KT 9999 -SHSNRA FEW030 BKN035 BKN060 02/M04     Q1024 RMK 1CU030 5CU035 7SC060 A3026=,- SN RA SH
20180103_180000.000,0,RJOH,,,,0,20180103180000,-1,-1,-1,-1,160,-1,4,-1,-1,-1,-1,,9999,0,1,3,FEW 20   BKN 35   BKN 60,1,1,-1,2,1025,RJOH 031800Z 16004KT 9999 -SHSNRA FEW020 BKN035 BKN060 01/M02     Q1025 RMK 2CU020 5CU035 7SC060 A3027=,- SN RA SH
20180103_180000.002,0,RJOH,,,,0,20180103180000,-1,-1,-1,-1,160,-1,4,-1,-1,-1,-1,,9999,0,1,3,FEW 20   BKN 35   BKN 60,1,1,-1,2,1025,RJOH 031800Z 16004KT 9999 -SHSNRA FEW020 BKN035 BKN060 01/M02     Q1025 RMK 2CU020 5CU035 7SC060 A3027=,- SN RA SH
20180103_190000.000,0,RJOH,,,,0,20180103190000,-1,-1,-1,-1,180,-1,5,-1,-1,-1,-1,,9999,0,1,3,FEW 30   BKN 35   BKN 60,1,1,-1,2,1024,RJOH 031900Z 18005KT 9999 -SHSNRA FEW030 BKN035 BKN060 01/M02     Q1024 RMK 1CU030 5CU035 7SC060 A3025=,- SN RA SH
20180103_190000.002,0,RJOH,,,,0,20180103190000,-1,-1,-1,-1,180,-1,5,-1,-1,-1,-1,,9999,0,1,3,FEW 30   BKN 35   BKN 60,1,1,-1,2,1024,RJOH 031900Z 18005KT 9999 -SHSNRA FEW030 BKN035 BKN060 01/M02     Q1024 RMK 1CU030 5CU035 7SC060 A3025=,- SN RA SH
20180103_200000.000,0,RJOH,,,,0,20180103200000,-1,-1,-1,-1,999,-1,2,-1,-1,-1,-1,,9999,0,1,3,FEW 30   BKN 35   BKN 60,1,1,-1,3,1024,RJOH 032000Z VRB02KT 9999 -SHSNRA FEW030 BKN035 BKN060 01/M03     Q1024 RMK 1CU030 5CU035 7SC060 A3026=,- SN RA SH
20180103_200000.002,0,RJOH,,,,0,20180103200000,-1,-1,-1,-1,999,-1,2,-1,-1,-1,-1,,9999,0,1,3,FEW 30   BKN 35   BKN 60,1,1,-1,3,1024,RJOH 032000Z VRB02KT 9999 -SHSNRA FEW030 BKN035 BKN060 01/M03     Q1024 RMK 1CU030 5CU035 7SC060 A3026=,- SN RA SH
20180103_210000.000,0,RJOH,,,,0,20180103210000,-1,-1,-1,-1,250,-1,8,-1,-1,-1,-1,,9999,0,1,3,FEW 30   BKN 35   BKN 60,1,2,-1,1,1024,RJOH 032100Z 25008KT 9999 -SHSNRA FEW030 BKN035 BKN060 02/M01     Q1024 RMK 1CU030 6CU035 7SC060 A3026 07/00 R000 S000=,- SN RA SH
20180103_210000.003,0,RJOH,,,,0,20180103210000,-1,-1,-1,-1,250,-1,8,-1,-1,-1,-1,,9999,0,1,3,FEW 30   BKN 35   BKN 60,1,2,-1,1,1024,RJOH 032100Z 25008KT 9999 -SHSNRA FEW030 BKN035 BKN060 02/M01     Q1024 RMK 1CU030 6CU035 7SC060 A3026 07/00 R000 S000=,- SN RA SH
20180103_220000.000,0,RJOH,,,,0,20180103220000,-1,-1,-1,-1,270,-1,5,-1,-1,-1,-1,,9999,0,1,4,FEW 6   SCT 20   BKN 35   FEW 35 TCU,1,2,-1,1,1024,RJOH 032200Z 27005KT 9999 -SHSNRA FEW006 SCT020 BKN035     FEW035TCU 02/M01 Q1024 RMK 1CU006 3CU020 6CU035 1TCU035           A3026 TCU 15KM N MOV SE 1CU006 AAL=,- SN RA SH
20180103_220000.002,0,RJOH,,,,0,20180103220000,-1,-1,-1,-1,270,-1,5,-1,-1,-1,-1,,9999,0,1,4,FEW 6   SCT 20   BKN 35   FEW 35 TCU,1,2,-1,1,1024,RJOH 032200Z 27005KT 9999 -SHSNRA FEW006 SCT020 BKN035     FEW035TCU 02/M01 Q1024 RMK 1CU006 3CU020 6CU035 1TCU035           A3026 TCU 15KM N MOV SE 1CU006 AAL=,- SN RA SH
20180103_230000.000,0,RJOH,,,,0,20180103230000,-1,-1,-1,-1,170,-1,5,-1,-1,-1,-1,,9999,0,1,3,FEW 3   SCT 20   BKN 35,1,2,-1,1,1024,RJOH 032300Z 17005KT 9999 -SHRASN FEW003 SCT020 BKN035 02/M01     Q1024 RMK 1CU003 3CU020 5CU035 A3026 1CU003 SW 1CU006 AAL=,- RA SN SH
20180103_230000.002,0,RJOH,,,,0,20180103230000,-1,-1,-1,-1,170,-1,5,-1,-1,-1,-1,,9999,0,1,3,FEW 3   SCT 20   BKN 35,1,2,-1,1,1024,RJOH 032300Z 17005KT 9999 -SHRASN FEW003 SCT020 BKN035 02/M01     Q1024 RMK 1CU003 3CU020 5CU035 A3026 1CU003 SW 1CU006           AAL=,- RA SN SH
20180104_000000.000,0,RJOH,,,,0,20180104000000,-1,-1,-1,-1,220,-1,7,-1,-1,-1,-1,,9999,0,1,3,FEW 6   BKN 35   BKN 60,1,3,-1,1,1024,RJOH 040000Z 22007KT 9999 -SHRASN FEW006 BKN035 BKN060 03/M01     Q1024 RMK 1CU006 5CU035 7SC060 A3026 1CU006 N=,- RA SN SH
20180104_000000.002,0,RJOH,,,,0,20180104000000,-1,-1,-1,-1,220,-1,7,-1,-1,-1,-1,,9999,0,1,3,FEW 6   BKN 35   BKN 60,1,3,-1,1,1024,RJOH 040000Z 22007KT 9999 -SHRASN FEW006 BKN035 BKN060 03/M01     Q1024 RMK 1CU006 5CU035 7SC060 A3026 1CU006 N=,- RA SN SH
20180104_010000.000,0,RJOH,,,,0,20180104010000,-1,-1,-1,-1,210,-1,6,-1,-1,-1,-1,,9999,0,1,3,FEW 3   SCT 35   BKN 60,1,3,-1,0,1024,RJOH 040100Z 21006KT 9999 -SHRA FEW003 SCT035 BKN060 03/M00     Q1024 RMK 1ST003 4CU035 6SC060 A3026 1ST003 SW 1CU006 AAL=,- RA SH
20180104_010000.002,0,RJOH,,,,0,20180104010000,-1,-1,-1,-1,210,-1,6,-1,-1,-1,-1,,9999,0,1,3,FEW 3   SCT 35   BKN 60,1,3,-1,0,1024,RJOH 040100Z 21006KT 9999 -SHRA FEW003 SCT035 BKN060 03/M00     Q1024 RMK 1ST003 4CU035 6SC060 A3026 1ST003 SW 1CU006           AAL=,- RA SH
20180104_020000.000,0,RJOH,,,,0,20180104020000,-1,-1,-1,-1,230,-1,4,-1,-1,130,280,,9999,0,1,3,FEW 6   SCT 20   BKN 35,1,3,1,0,1024,RJOH 040200Z 23004KT 130V280 9999 -SHRA FEW006 SCT020 BKN035     03/00 Q1024 RMK 1CU006 4CU020 6CU035 A3026 1CU006 AAL=,- RA SH
20180104_020000.002,0,RJOH,,,,0,20180104020000,-1,-1,-1,-1,230,-1,4,-1,-1,130,280,,9999,0,1,3,FEW 6   SCT 20   BKN 35,1,3,1,0,1024,RJOH 040200Z 23004KT 130V280 9999 -SHRA FEW006 SCT020 BKN035     03/00 Q1024 RMK 1CU006 4CU020 6CU035 A3026 1CU006 AAL=,- RA SH
20180104_030000.000,0,RJOH,,,,0,20180104030000,-1,-1,-1,-1,270,-1,9,-1,-1,220,290,,8000,0,1,3,FEW 5   SCT 15   BKN 25,1,3,1,0,1024,RJOH 040300Z 27009KT 220V290 8000 -SHRA FEW005 SCT015 BKN025     03/00 Q1024 RMK 1CU005 4CU015 5CU025 A3024 VIS E 3000M           1CU005 AAL=,- RA SH
20180104_030000.002,0,RJOH,,,,0,20180104030000,-1,-1,-1,-1,270,-1,9,-1,-1,220,290,,8000,0,1,3,FEW 5   SCT 15   BKN 25,1,3,1,0,1024,RJOH 040300Z 27009KT 220V290 8000 -SHRA FEW005 SCT015 BKN025     03/00 Q1024 RMK 1CU005 4CU015 5CU025 A3024 VIS E 3000M           1CU005 AAL=,- RA SH
20180104_040000.000,0,RJOH,,,,0,20180104040000,-1,-1,-1,-1,240,-1,7,-1,-1,-1,-1,,9999,0,1,3,FEW 6   SCT 25   BKN 35,1,4,1,1,1022,RJOH 040400Z 24007KT 9999 -SHRA FEW006 SCT025 BKN035 04/01     Q1022 RMK 1CU006 4CU025 5CU035 A3020 1CU006 AAL=,- RA SH
20180104_040000.002,0,RJOH,,,,0,20180104040000,-1,-1,-1,-1,240,-1,7,-1,-1,-1,-1,,9999,0,1,3,FEW 6   SCT 25   BKN 35,1,4,1,1,1022,RJOH 040400Z 24007KT 9999 -SHRA FEW006 SCT025 BKN035 04/01     Q1022 RMK 1CU006 4CU025 5CU035 A3020 1CU006 AAL=,- RA SH
20180104_050000.000,0,RJOH,,,,0,20180104050000,-1,-1,-1,-1,250,-1,6,-1,-1,210,290,,9999,0,1,3,FEW 6   SCT 35   BKN 60,1,5,1,2,1022,RJOH 040500Z 25006KT 210V290 9999 -SHRA FEW006 SCT035 BKN060     05/02 Q1022 RMK 1CU006 4CU035 6SC060 A3019 1CU006 AAL=,- RA SH
20180104_050000.002,0,RJOH,,,,0,20180104050000,-1,-1,-1,-1,250,-1,6,-1,-1,210,290,,9999,0,1,3,FEW 6   SCT 35   BKN 60,1,5,1,2,1022,RJOH 040500Z 25006KT 210V290 9999 -SHRA FEW006 SCT035 BKN060     05/02 Q1022 RMK 1CU006 4CU035 6SC060 A3019 1CU006 AAL=,- RA SH
20180104_060000.000,0,RJOH,,,,0,20180104060000,-1,-1,-1,-1,210,-1,5,-1,-1,-1,-1,,9999,0,1,3,FEW 15   BKN 30   BKN 60,1,6,1,1,1022,RJOH 040600Z 21005KT 9999 -SHRA FEW015 BKN030 BKN060 06/01     Q1022 RMK 1CU015 5CU030 6SC060 A3019=,- RA SH
20180104_060000.003,0,RJOH,,,,0,20180104060000,-1,-1,-1,-1,210,-1,5,-1,-1,-1,-1,,9999,0,1,3,FEW 15   BKN 30   BKN 60,1,6,1,1,1022,RJOH 040600Z 21005KT 9999 -SHRA FEW015 BKN030 BKN060 06/01     Q1022 RMK 1CU015 5CU030 6SC060 A3019=,- RA SH
20180104_070000.000,0,RJOH,,,,0,20180104070000,-1,-1,-1,-1,230,-1,8,-1,-1,-1,-1,,9999,0,1,3,FEW 7   BKN 35   BKN 60,1,5,1,1,1022,RJOH 040700Z 23008KT 9999 -SHRA FEW007 BKN035 BKN060 05/01     Q1022 RMK 1ST007 6CU035 7SC060 A3019 1ST007 W=,- RA SH
20180104_070000.002,0,RJOH,,,,0,20180104070000,-1,-1,-1,-1,230,-1,8,-1,-1,-1,-1,,9999,0,1,3,FEW 7   BKN 35   BKN 60,1,5,1,1,1022,RJOH 040700Z 23008KT 9999 -SHRA FEW007 BKN035 BKN060 05/01     Q1022 RMK 1ST007 6CU035 7SC060 A3019 1ST007 W=,- RA SH
20180104_080000.000,0,RJOH,,,,0,20180104080000,-1,-1,-1,-1,230,-1,5,-1,-1,-1,-1,,9999,0,1,3,FEW 15   BKN 35   BKN 60,1,4,1,1,1022,RJOH 040800Z 23005KT 9999 -SHRA FEW015 BKN035 BKN060 04/01     Q1022 RMK 1CU015 6CU035 7SC060 A3019=,- RA SH
20180104_080000.002,0,RJOH,,,,0,20180104080000,-1,-1,-1,-1,230,-1,5,-1,-1,-1,-1,,9999,0,1,3,FEW 15   BKN 35   BKN 60,1,4,1,1,1022,RJOH 040800Z 23005KT 9999 -SHRA FEW015 BKN035 BKN060 04/01     Q1022 RMK 1CU015 6CU035 7SC060 A3019=,- RA SH
20180104_090000.000,0,RJOH,,,,0,20180104090000,-1,-1,-1,-1,240,-1,9,-1,-1,-1,-1,,9999,0,1,4,FEW 15   BKN 35   FEW 35 TCU  BKN 60,1,4,1,0,1022,RJOH 040900Z 24009KT 9999 -SHRA FEW015 BKN035 FEW035TCU BKN060     04/00 Q1022 RMK 1CU015 5CU035 1TCU035 7SC060 A3019 TCU           15KM NE MOV SE=,- RA SH
20180104_090000.002,0,RJOH,,,,0,20180104090000,-1,-1,-1,-1,240,-1,9,-1,-1,-1,-1,,9999,0,1,4,FEW 15   BKN 35   FEW 35 TCU  BKN 60,1,4,1,0,1022,RJOH 040900Z 24009KT 9999 -SHRA FEW015 BKN035 FEW035TCU BKN060     04/00 Q1022 RMK 1CU015 5CU035 1TCU035 7SC060 A3019 TCU           15KM NE MOV SE=,- RA SH
20180104_100000.000,0,RJOH,,,,0,20180104100000,-1,-1,-1,-1,999,-1,2,-1,-1,-1,-1,,9999,0,1,3,FEW 15   SCT 20   BKN 35,1,4,1,0,1022,RJOH 041000Z VRB02KT 9999 -SHRA FEW015 SCT020 BKN035 04/00     Q1022 RMK 1CU015 3CU020 6CU035 A3020=,- RA SH
20180104_100000.002,0,RJOH,,,,0,20180104100000,-1,-1,-1,-1,999,-1,2,-1,-1,-1,-1,,9999,0,1,3,FEW 15   SCT 20   BKN 35,1,4,1,0,1022,RJOH 041000Z VRB02KT 9999 -SHRA FEW015 SCT020 BKN035 04/00     Q1022 RMK 1CU015 3CU020 6CU035 A3020=,- RA SH
20180104_110000.000,0,RJOH,,,,0,20180104110000,-1,-1,-1,-1,999,-1,2,-1,-1,-1,-1,,9999,0,1,3,FEW 10   BKN 15   BKN 25,1,4,1,1,1022,RJOH 041100Z VRB02KT 9999 -SHRA FEW010 BKN015 BKN025 04/01     Q1022 RMK 1CU010 5CU015 7CU025 A3020=,- RA SH
20180104_110000.002,0,RJOH,,,,0,20180104110000,-1,-1,-1,-1,999,-1,2,-1,-1,-1,-1,,9999,0,1,3,FEW 10   BKN 15   BKN 25,1,4,1,1,1022,RJOH 041100Z VRB02KT 9999 -SHRA FEW010 BKN015 BKN025 04/01     Q1022 RMK 1CU010 5CU015 7CU025 A3020=,- RA SH
20180104_120000.000,0,RJOH,,,,0,20180104120000,-1,-1,-1,-1,170,-1,4,-1,-1,-1,-1,,9999,0,1,3,FEW 10   BKN 20   BKN 30,1,3,1,1,1022,RJOH 041200Z 17004KT 9999 -SHRA FEW010 BKN020 BKN030 03/01     Q1022 RMK 1CU010 6CU020 7CU030 A3019=,- RA SH
20180104_120000.003,0,RJOH,,,,0,20180104120000,-1,-1,-1,-1,170,-1,4,-1,-1,-1,-1,,9999,0,1,3,FEW 10   BKN 20   BKN 30,1,3,1,1,1022,RJOH 041200Z 17004KT 9999 -SHRA FEW010 BKN020 BKN030 03/01     Q1022 RMK 1CU010 6CU020 7CU030 A3019=,- RA SH
20180104_130000.000,0,RJOH,,,,0,20180104130000,-1,-1,-1,-1,190,-1,3,-1,-1,-1,-1,,9999,0,1,3,FEW 8   BKN 20   OVC 30,1,3,1,1,1022,RJOH 041300Z 19003KT 9999 -SHRA FEW008 BKN020 OVC030 03/01     Q1022 RMK 1CU008 5CU020 8CU030 A3019=,- RA SH
20180104_130000.002,0,RJOH,,,,0,20180104130000,-1,-1,-1,-1,190,-1,3,-1,-1,-1,-1,,9999,0,1,3,FEW 8   BKN 20   OVC 30,1,3,1,1,1022,RJOH 041300Z 19003KT 9999 -SHRA FEW008 BKN020 OVC030 03/01     Q1022 RMK 1CU008 5CU020 8CU030 A3019=,- RA SH
20180104_140000.000,0,RJOH,,,,0,20180104140000,-1,-1,-1,-1,999,-1,2,-1,-1,-1,-1,,9999,0,1,3,FEW 15   BKN 20   OVC 30,1,3,1,1,1021,RJOH 041400Z VRB02KT 9999 -SHRA FEW015 BKN020 OVC030 03/01     Q1021 RMK 1CU015 5CU020 8CU030 A3017=,- RA SH
20180104_140000.002,0,RJOH,,,,0,20180104140000,-1,-1,-1,-1,999,-1,2,-1,-1,-1,-1,,9999,0,1,3,FEW 15   BKN 20   OVC 30,1,3,1,1,1021,RJOH 041400Z VRB02KT 9999 -SHRA FEW015 BKN020 OVC030 03/01     Q1021 RMK 1CU015 5CU020 8CU030 A3017=,- RA SH
20180104_150000.000,0,RJOH,,,,0,20180104150000,-1,-1,-1,-1,320,-1,2,-1,-1,-1,-1,,9999,0,0,3,FEW 15   BKN 35   BKN 50,1,3,1,0,1021,RJOH 041500Z 32002KT 9999 FEW015 BKN035 BKN050 03/00 Q1021 RMK     1CU015 5CU035 7SC050 A3017=,
20180104_150000.003,0,RJOH,,,,0,20180104150000,-1,-1,-1,-1,320,-1,2,-1,-1,-1,-1,,9999,0,0,3,FEW 15   BKN 35   BKN 50,1,3,1,0,1021,RJOH 041500Z 32002KT 9999 FEW015 BKN035 BKN050 03/00 Q1021 RMK     1CU015 5CU035 7SC050 A3017=,
20180104_160000.000,0,RJOH,,,,0,20180104160000,-1,-1,-1,-1,999,-1,1,-1,-1,-1,-1,,9999,0,1,3,FEW 15   SCT 20   OVC 30,1,3,1,0,1020,RJOH 041600Z VRB01KT 9999 -SHRA FEW015 SCT020 OVC030 03/00     Q1020 RMK 1CU015 3CU020 8CU030 A3014=,- RA SH
20180104_160000.003,0,RJOH,,,,0,20180104160000,-1,-1,-1,-1,999,-1,1,-1,-1,-1,-1,,9999,0,1,3,FEW 15   SCT 20   OVC 30,1,3,1,0,1020,RJOH 041600Z VRB01KT 9999 -SHRA FEW015 SCT020 OVC030 03/00     Q1020 RMK 1CU015 3CU020 8CU030 A3014=,- RA SH
20180104_170000.001,0,RJOH,,,,0,20180104170000,-1,-1,-1,-1,170,-1,3,-1,-1,-1,-1,,9999,0,1,3,FEW 10   BKN 20   BKN 30,1,3,1,0,1020,RJOH 041700Z 17003KT 9999 -SHRA FEW010 BKN020 BKN030 03/00     Q1020 RMK 1CU010 5CU020 6CU030 A3013=,- RA SH
20180104_170000.003,0,RJOH,,,,0,20180104170000,-1,-1,-1,-1,170,-1,3,-1,-1,-1,-1,,9999,0,1,3,FEW 10   BKN 20   BKN 30,1,3,1,0,1020,RJOH 041700Z 17003KT 9999 -SHRA FEW010 BKN020 BKN030 03/00     Q1020 RMK 1CU010 5CU020 6CU030 A3013=,- RA SH
20180104_180000.000,0,RJOH,,,,0,20180104180000,-1,-1,-1,-1,180,-1,2,-1,-1,-1,-1,,9999,0,0,3,FEW 15   BKN 25   BKN 50,1,2,1,0,1020,RJOH 041800Z 18002KT 9999 FEW015 BKN025 BKN050 02/00 Q1020 RMK     1CU015 5CU025 7SC050 A3013=,
20180104_180000.002,0,RJOH,,,,0,20180104180000,-1,-1,-1,-1,180,-1,2,-1,-1,-1,-1,,9999,0,0,3,FEW 15   BKN 25   BKN 50,1,2,1,0,1020,RJOH 041800Z 18002KT 9999 FEW015 BKN025 BKN050 02/00 Q1020 RMK     1CU015 5CU025 7SC050 A3013=,
20180104_190000.000,0,RJOH,,,,0,20180104190000,-1,-1,-1,-1,0,-1,0,-1,-1,-1,-1,,9999,0,0,2,FEW 8   BKN 60,1,2,1,0,1019,RJOH 041900Z 00000KT 9999 FEW008 BKN060 02/00 Q1019 RMK 1ST008     7SC060 A3011=,
20180104_190000.003,0,RJOH,,,,0,20180104190000,-1,-1,-1,-1,0,-1,0,-1,-1,-1,-1,,9999,0,0,2,FEW 8   BKN 60,1,2,1,0,1019,RJOH 041900Z 00000KT 9999 FEW008 BKN060 02/00 Q1019 RMK 1ST008     7SC060 A3011=,
20180104_200000.000,0,RJOH,,,,0,20180104200000,-1,-1,-1,-1,999,-1,1,-1,-1,-1,-1,,9999,0,0,2,FEW 8   BKN 60,1,2,1,0,1018,RJOH 042000Z VRB01KT 9999 FEW008 BKN060 02/00 Q1018 RMK 1ST008     7SC060 A3008=,
20180104_200000.002,0,RJOH,,,,0,20180104200000,-1,-1,-1,-1,999,-1,1,-1,-1,-1,-1,,9999,0,0,2,FEW 8   BKN 60,1,2,1,0,1018,RJOH 042000Z VRB01KT 9999 FEW008 BKN060 02/00 Q1018 RMK 1ST008     7SC060 A3008=,
20180104_210000.000,0,RJOH,,,,0,20180104210000,-1,-1,-1,-1,200,-1,3,-1,-1,-1,-1,,9999,0,0,2,FEW 8   BKN 60,1,2,-1,0,1018,RJOH 042100Z 20003KT 9999 FEW008 BKN060 02/M00 Q1018 RMK 1ST008     7SC060 A3008 1ST008 S 07/02 R003 S000=,
20180104_210000.002,0,RJOH,,,,0,20180104210000,-1,-1,-1,-1,200,-1,3,-1,-1,-1,-1,,9999,0,0,2,FEW 8   BKN 60,1,2,-1,0,1018,RJOH 042100Z 20003KT 9999 FEW008 BKN060 02/M00 Q1018 RMK     1ST008 7SC060 A3008 1ST008 S 07/02 R003 S000=,
20180104_220000.000,0,RJOH,,,,0,20180104220000,-1,-1,-1,-1,190,-1,3,-1,-1,-1,-1,,9999,0,0,3,FEW 8   SCT 30   BKN 60,1,2,-1,0,1018,RJOH 042200Z 19003KT 9999 FEW008 SCT030 BKN060 02/M00 Q1018 RMK     1ST008 3CU030 7SC060 A3007 1ST008 S=,
20180104_220000.002,0,RJOH,,,,0,20180104220000,-1,-1,-1,-1,190,-1,3,-1,-1,-1,-1,,9999,0,0,3,FEW 8   SCT 30   BKN 60,1,2,-1,0,1018,RJOH 042200Z 19003KT 9999 FEW008 SCT030 BKN060 02/M00 Q1018     RMK 1ST008 3CU030 7SC060 A3007 1ST008 S=,
20180104_230000.000,0,RJOH,,,,0,20180104230000,-1,-1,-1,-1,0,-1,0,-1,-1,-1,-1,,9999,0,0,2,FEW 5   BKN 110,1,2,-1,0,1017,RJOH 042300Z 00000KT 9999 FEW005 BKN110 02/M00 Q1017 RMK 1ST005     5AC110 A3006 RWY07 18004KT 160V220 1ST005 W=,
20180104_230000.002,0,RJOH,,,,0,20180104230000,-1,-1,-1,-1,0,-1,0,-1,-1,-1,-1,,9999,0,0,2,FEW 5   BKN 110,1,2,-1,0,1017,RJOH 042300Z 00000KT 9999 FEW005 BKN110 02/M00 Q1017 RMK     1ST005 5AC110 A3006 RWY07 18004KT 160V220 1ST005 W=,
20180105_000000.000,0,RJOH,,,,0,20180105000000,-1,-1,-1,-1,40,-1,1,-1,-1,-1,-1,,9999,0,0,2,FEW 5   BKN 110,1,3,1,0,1017,RJOH 050000Z 04001KT 9999 FEW005 BKN110 03/00 Q1017 RMK 1ST005     7AC110 A3006 1ST005 SW-W=,
20180105_000000.002,0,RJOH,,,,0,20180105000000,-1,-1,-1,-1,40,-1,1,-1,-1,-1,-1,,9999,0,0,2,FEW 5   BKN 110,1,3,1,0,1017,RJOH 050000Z 04001KT 9999 FEW005 BKN110 03/00 Q1017 RMK 1ST005     7AC110 A3006 1ST005 SW-W=,
20180105_010000.000,0,RJOH,,,,0,20180105010000,-1,-1,-1,-1,160,-1,3,-1,-1,110,210,,9999,0,0,2,FEW 5   BKN 110,1,4,-1,0,1018,RJOH 050100Z 16003KT 110V210 9999 FEW005 BKN110 04/M00 Q1018     RMK 1ST005 7AC110 A3006 1ST005 SW-W=,
20180105_010000.003,0,RJOH,,,,0,20180105010000,-1,-1,-1,-1,160,-1,3,-1,-1,110,210,,9999,0,0,2,FEW 5   BKN 110,1,4,-1,0,1018,RJOH 050100Z 16003KT 110V210 9999 FEW005 BKN110 04/M00 Q1018     RMK 1ST005 7AC110 A3006 1ST005 SW-W=,
20180105_020000.000,0,RJOH,,,,0,20180105020000,-1,-1,-1,-1,190,-1,5,-1,-1,-1,-1,,9999,0,0,2,FEW 8   BKN 100,1,5,1,1,1017,RJOH 050200Z 19005KT 9999 FEW008 BKN100 05/01 Q1017 RMK 1ST008     7AC100 A3005 1ST008 SW=,
20180105_020000.002,0,RJOH,,,,0,20180105020000,-1,-1,-1,-1,190,-1,5,-1,-1,-1,-1,,9999,0,0,2,FEW 8   BKN 100,1,5,1,1,1017,RJOH 050200Z 19005KT 9999 FEW008 BKN100 05/01 Q1017 RMK 1ST008     7AC100 A3005 1ST008 SW=,
20180105_030000.000,0,RJOH,,,,0,20180105030000,-1,-1,-1,-1,200,-1,3,-1,-1,160,270,,9999,0,0,2,FEW 10   BKN 90,1,5,-1,0,1016,RJOH 050300Z 20003KT 160V270 9999 FEW010 BKN090 05/M00 Q1016     RMK 1CU010 7AC090 A3003=,
20180105_030000.002,0,RJOH,,,,0,20180105030000,-1,-1,-1,-1,200,-1,3,-1,-1,160,270,,9999,0,0,2,FEW 10   BKN 90,1,5,-1,0,1016,RJOH 050300Z 20003KT 160V270 9999 FEW010 BKN090 05/M00 Q1016     RMK 1CU010 7AC090 A3003=,
20180105_040000.000,0,RJOH,,,,0,20180105040000,-1,-1,-1,-1,200,-1,3,-1,-1,150,240,,9999,0,0,2,FEW 10   BKN 90,1,6,-1,1,1015,RJOH 050400Z 20003KT 150V240 9999 FEW010 BKN090 06/M01 Q1015     RMK 1CU010 7AC090 A2999=,
20180105_040000.002,0,RJOH,,,,0,20180105040000,-1,-1,-1,-1,200,-1,3,-1,-1,150,240,,9999,0,0,2,FEW 10   BKN 90,1,6,-1,1,1015,RJOH 050400Z 20003KT 150V240 9999 FEW010 BKN090 06/M01 Q1015     RMK 1CU010 7AC090 A2999=,
20180105_050000.000,0,RJOH,,,,0,20180105050000,-1,-1,-1,-1,290,-1,3,-1,-1,220,330,,9999,0,0,1,FEW 30,1,8,-1,2,1015,RJOH 050500Z 29003KT 220V330 9999 FEW030 08/M02 Q1015 RMK     1CU030 A2998=,
20180105_050000.002,0,RJOH,,,,0,20180105050000,-1,-1,-1,-1,290,-1,3,-1,-1,220,330,,9999,0,0,1,FEW 30,1,8,-1,2,1015,RJOH 050500Z 29003KT 220V330 9999 FEW030 08/M02 Q1015 RMK     1CU030 A2998=,
20180105_060000.000,0,RJOH,,,,0,20180105060000,-1,-1,-1,-1,999,-1,1,-1,-1,-1,-1,,9999,0,0,2,FEW 30   BKN 80,1,7,-1,2,1014,RJOH 050600Z VRB01KT 9999 FEW030 BKN080 07/M02 Q1014 RMK 1CU030     7AC080 A2996=,
20180105_060000.002,0,RJOH,,,,0,20180105060000,-1,-1,-1,-1,999,-1,1,-1,-1,-1,-1,,9999,0,0,2,FEW 30   BKN 80,1,7,-1,2,1014,RJOH 050600Z VRB01KT 9999 FEW030 BKN080 07/M02 Q1014 RMK     1CU030 7AC080 A2996=,
20180105_070000.000,0,RJOH,,,,0,20180105070000,-1,-1,-1,-1,70,-1,3,-1,-1,40,100,,9999,0,0,3,FEW 20   SCT 35   BKN 50,1,7,-1,2,1014,RJOH 050700Z 07003KT 040V100 9999 FEW020 SCT035 BKN050 07/M02     Q1014 RMK 1CU020 4CU035 6SC050 A2996=,
20180105_070000.002,0,RJOH,,,,0,20180105070000,-1,-1,-1,-1,70,-1,3,-1,-1,40,100,,9999,0,0,3,FEW 20   SCT 35   BKN 50,1,7,-1,2,1014,RJOH 050700Z 07003KT 040V100 9999 FEW020 SCT035 BKN050 07/M02     Q1014 RMK 1CU020 4CU035 6SC050 A2996=,
20180105_080000.000,0,RJOH,,,,0,20180105080000,-1,-1,-1,-1,60,-1,3,-1,-1,-1,-1,,9999,0,1,3,FEW 20   SCT 35   BKN 50,1,6,-1,2,1014,RJOH 050800Z 06003KT 9999 -SHRA FEW020 SCT035 BKN050 06/M02     Q1014 RMK 1CU020 3CU035 6SC050 A2997=,- RA SH
20180105_080000.002,0,RJOH,,,,0,20180105080000,-1,-1,-1,-1,60,-1,3,-1,-1,-1,-1,,9999,0,1,3,FEW 20   SCT 35   BKN 50,1,6,-1,2,1014,RJOH 050800Z 06003KT 9999 -SHRA FEW020 SCT035 BKN050 06/M02     Q1014 RMK 1CU020 3CU035 6SC050 A2997=,- RA SH
20180105_090000.000,0,RJOH,,,,0,20180105090000,-1,-1,-1,-1,130,-1,2,-1,-1,-1,-1,,9999,0,1,3,FEW 20   SCT 35   BKN 50,1,6,-1,0,1014,RJOH 050900Z 13002KT 9999 -SHRA FEW020 SCT035 BKN050 06/M00     Q1014 RMK 1CU020 3CU035 7SC050 A2996=,- RA SH
20180105_090000.002,0,RJOH,,,,0,20180105090000,-1,-1,-1,-1,130,-1,2,-1,-1,-1,-1,,9999,0,1,3,FEW 20   SCT 35   BKN 50,1,6,-1,0,1014,RJOH 050900Z 13002KT 9999 -SHRA FEW020 SCT035 BKN050 06/M00     Q1014 RMK 1CU020 3CU035 7SC050 A2996=,- RA SH
20180105_100000.000,0,RJOH,,,,0,20180105100000,-1,-1,-1,-1,190,-1,5,-1,-1,-1,-1,,9999,0,1,3,FEW 20   SCT 35   BKN 50,1,5,1,2,1014,RJOH 051000Z 19005KT 9999 -SHRA FEW020 SCT035 BKN050 05/02     Q1014 RMK 1CU020 4CU035 7SC050 A2996=,- RA SH
20180105_100000.002,0,RJOH,,,,0,20180105100000,-1,-1,-1,-1,190,-1,5,-1,-1,-1,-1,,9999,0,1,3,FEW 20   SCT 35   BKN 50,1,5,1,2,1014,RJOH 051000Z 19005KT 9999 -SHRA FEW020 SCT035 BKN050 05/02     Q1014 RMK 1CU020 4CU035 7SC050 A2996=,- RA SH
20180105_110000.000,0,RJOH,,,,0,20180105110000,-1,-1,-1,-1,170,-1,4,-1,-1,-1,-1,,9999,0,1,3,FEW 20   SCT 35   BKN 50,1,5,1,2,1014,RJOH 051100Z 17004KT 9999 -SHRA FEW020 SCT035 BKN050 05/02     Q1014 RMK 1CU020 3CU035 7SC050 A2995=,- RA SH
20180105_110000.002,0,RJOH,,,,0,20180105110000,-1,-1,-1,-1,170,-1,4,-1,-1,-1,-1,,9999,0,1,3,FEW 20   SCT 35   BKN 50,1,5,1,2,1014,RJOH 051100Z 17004KT 9999 -SHRA FEW020 SCT035 BKN050 05/02     Q1014 RMK 1CU020 3CU035 7SC050 A2995=,- RA SH
20180105_120000.000,0,RJOH,,,,0,20180105120000,-1,-1,-1,-1,140,-1,3,-1,-1,-1,-1,,9999,0,1,3,FEW 25   SCT 35   BKN 45,1,5,1,1,1013,RJOH 051200Z 14003KT 9999 -SHRA FEW025 SCT035 BKN045 05/01     Q1013 RMK 1CU025 3CU035 7SC045 A2993=,- RA SH
20180105_120000.002,0,RJOH,,,,0,20180105120000,-1,-1,-1,-1,140,-1,3,-1,-1,-1,-1,,9999,0,1,3,FEW 25   SCT 35   BKN 45,1,5,1,1,1013,RJOH 051200Z 14003KT 9999 -SHRA FEW025 SCT035 BKN045 05/01     Q1013 RMK 1CU025 3CU035 7SC045 A2993=,- RA SH
20180105_130000.000,0,RJOH,,,,0,20180105130000,-1,-1,-1,-1,999,-1,1,-1,-1,-1,-1,,9999,0,1,3,FEW 25   BKN 30   BKN 50,1,5,1,1,1013,RJOH 051300Z VRB01KT 9999 -SHRA FEW025 BKN030 BKN050 05/01     Q1013 RMK 1CU025 5CU030 7SC050 A2993=,- RA SH
20180105_130000.002,0,RJOH,,,,0,20180105130000,-1,-1,-1,-1,999,-1,1,-1,-1,-1,-1,,9999,0,1,3,FEW 25   BKN 30   BKN 50,1,5,1,1,1013,RJOH 051300Z VRB01KT 9999 -SHRA FEW025 BKN030 BKN050 05/01     Q1013 RMK 1CU025 5CU030 7SC050 A2993=,- RA SH
20180105_140000.000,0,RJOH,,,,0,20180105140000,-1,-1,-1,-1,150,-1,4,-1,-1,-1,-1,,9999,0,0,3,FEW 25   BKN 30   BKN 50,1,4,1,1,1013,RJOH 051400Z 15004KT 9999 FEW025 BKN030 BKN050 04/01 Q1013 RMK     1CU025 6CU030 7SC050 A2992=,
20180105_140000.002,0,RJOH,,,,0,20180105140000,-1,-1,-1,-1,150,-1,4,-1,-1,-1,-1,,9999,0,0,3,FEW 25   BKN 30   BKN 50,1,4,1,1,1013,RJOH 051400Z 15004KT 9999 FEW025 BKN030 BKN050 04/01 Q1013 RMK     1CU025 6CU030 7SC050 A2992=,
20180105_150000.000,0,RJOH,,,,0,20180105150000,-1,-1,-1,-1,160,-1,5,-1,-1,-1,-1,,9999,0,0,3,FEW 25   SCT 30   BKN 60,1,3,1,0,1012,RJOH 051500Z 16005KT 9999 FEW025 SCT030 BKN060 03/00 Q1012 RMK     1CU025 4CU030 5SC060 A2990=,
20180105_150000.002,0,RJOH,,,,0,20180105150000,-1,-1,-1,-1,160,-1,5,-1,-1,-1,-1,,9999,0,0,3,FEW 25   SCT 30   BKN 60,1,3,1,0,1012,RJOH 051500Z 16005KT 9999 FEW025 SCT030 BKN060 03/00 Q1012 RMK     1CU025 4CU030 5SC060 A2990=,
20180105_160000.000,0,RJOH,,,,0,20180105160000,-1,-1,-1,-1,220,-1,12,-1,-1,180,240,,9999,0,1,3,FEW 15   SCT 20   BKN 30,1,6,1,1,1012,RJOH 051600Z 22012KT 180V240 9999 -SHRA FEW015 SCT020 BKN030     06/01 Q1012 RMK 1CU015 3CU020 6CU030 A2990=,- RA SH
20180105_160000.003,0,RJOH,,,,0,20180105160000,-1,-1,-1,-1,220,-1,12,-1,-1,180,240,,9999,0,1,3,FEW 15   SCT 20   BKN 30,1,6,1,1,1012,RJOH 051600Z 22012KT 180V240 9999 -SHRA FEW015 SCT020 BKN030     06/01 Q1012 RMK 1CU015 3CU020 6CU030 A2990=,- RA SH
20180105_170000.000,0,RJOH,,,,0,20180105170000,-1,-1,-1,-1,240,-1,18,-1,28,-1,-1,,9999,0,1,3,FEW 10   SCT 15   BKN 25,1,6,1,3,1012,RJOH 051700Z 24018G28KT 9999 -SHRA FEW010 SCT015 BKN025 06/03     Q1012 RMK 1CU010 3CU015 7CU025 A2989=,- RA SH
20180105_170000.002,0,RJOH,,,,0,20180105170000,-1,-1,-1,-1,240,-1,18,-1,28,-1,-1,,9999,0,1,3,FEW 10   SCT 15   BKN 25,1,6,1,3,1012,RJOH 051700Z 24018G28KT 9999 -SHRA FEW010 SCT015 BKN025 06/03     Q1012 RMK 1CU010 3CU015 7CU025 A2989=,- RA SH
20180105_180000.000,0,RJOH,,,,0,20180105180000,-1,-1,-1,-1,270,-1,21,-1,-1,-1,-1,,9999,0,1,3,FEW 15   BKN 25   BKN 45,1,6,1,2,1012,RJOH 051800Z 27021KT 9999 -SHRA FEW015 BKN025 BKN045 06/02     Q1012 RMK 1CU015 6CU025 7SC045 A2990=,- RA SH
20180105_180000.003,0,RJOH,,,,0,20180105180000,-1,-1,-1,-1,270,-1,21,-1,-1,-1,-1,,9999,0,1,3,FEW 15   BKN 25   BKN 45,1,6,1,2,1012,RJOH 051800Z 27021KT 9999 -SHRA FEW015 BKN025 BKN045 06/02     Q1012 RMK 1CU015 6CU025 7SC045 A2990=,- RA SH
20180105_190000.000,0,RJOH,,,,0,20180105190000,-1,-1,-1,-1,270,-1,17,-1,27,-1,-1,,9999,0,1,3,FEW 10   SCT 15   BKN 25,1,6,1,2,1012,RJOH 051900Z 27017G27KT 9999 -SHRA FEW010 SCT015 BKN025 06/02     Q1012 RMK 1CU010 3CU015 6CU025 A2990=,- RA SH
20180105_190000.002,0,RJOH,,,,0,20180105190000,-1,-1,-1,-1,270,-1,17,-1,27,-1,-1,,9999,0,1,3,FEW 10   SCT 15   BKN 25,1,6,1,2,1012,RJOH 051900Z 27017G27KT 9999 -SHRA FEW010 SCT015 BKN025 06/02     Q1012 RMK 1CU010 3CU015 6CU025 A2990=,- RA SH
20180105_200000.000,0,RJOH,,,,0,20180105200000,-1,-1,-1,-1,280,-1,14,-1,24,-1,-1,,9999,0,1,3,FEW 10   SCT 15   BKN 25,1,5,1,2,1013,RJOH 052000Z 28014G24KT 9999 -SHRA FEW010 SCT015 BKN025 05/02     Q1013 RMK 1CU010 3CU015 5CU025 A2991=,- RA SH
20180105_200000.002,0,RJOH,,,,0,20180105200000,-1,-1,-1,-1,280,-1,14,-1,24,-1,-1,,9999,0,1,3,FEW 10   SCT 15   BKN 25,1,5,1,2,1013,RJOH 052000Z 28014G24KT 9999 -SHRA FEW010 SCT015 BKN025 05/02     Q1013 RMK 1CU010 3CU015 5CU025 A2991=,- RA SH
20180105_210000.000,0,RJOH,,,,0,20180105210000,-1,-1,-1,-1,290,-1,11,-1,-1,260,330,,9999,0,1,3,FEW 15   SCT 25   BKN 35,1,6,1,2,1014,RJOH 052100Z 29011KT 260V330 9999 -SHRA FEW015 SCT025 BKN035     06/02 Q1014 RMK 1CU015 4CU025 7CU035 A2995 25033KT/1710           08/03 R004=,- RA SH
20180105_210000.003,0,RJOH,,,,0,20180105210000,-1,-1,-1,-1,290,-1,11,-1,-1,260,330,,9999,0,1,3,FEW 15   SCT 25   BKN 35,1,6,1,2,1014,RJOH 052100Z 29011KT 260V330 9999 -SHRA FEW015 SCT025 BKN035     06/02 Q1014 RMK 1CU015 4CU025 7CU035 A2995 25033KT/1710           08/03 R004=,- RA SH
20180105_220000.000,0,RJOH,,,,0,20180105220000,-1,-1,-1,-1,270,-1,10,-1,-1,-1,-1,,9999,0,0,3,FEW 15   SCT 40   BKN 50,1,6,1,0,1014,RJOH 052200Z 27010KT 9999 FEW015 SCT040 BKN050 06/00 Q1014 RMK     1CU015 4CU040 5SC050 A2996=,
20180105_220000.002,0,RJOH,,,,0,20180105220000,-1,-1,-1,-1,270,-1,10,-1,-1,-1,-1,,9999,0,0,3,FEW 15   SCT 40   BKN 50,1,6,1,0,1014,RJOH 052200Z 27010KT 9999 FEW015 SCT040 BKN050 06/00 Q1014 RMK     1CU015 4CU040 5SC050 A2996=,
20180105_230000.000,0,RJOH,,,,0,20180105230000,-1,-1,-1,-1,260,-1,6,-1,-1,-1,-1,,9999,0,0,2,FEW 20   SCT 50,1,5,-1,1,1015,RJOH 052300Z 26006KT 9999 FEW020 SCT050 05/M01 Q1015 RMK 1CU020     3SC050 A2999=,
20180105_230000.002,0,RJOH,,,,0,20180105230000,-1,-1,-1,-1,260,-1,6,-1,-1,-1,-1,,9999,0,0,2,FEW 20   SCT 50,1,5,-1,1,1015,RJOH 052300Z 26006KT 9999 FEW020 SCT050 05/M01 Q1015 RMK     1CU020 3SC050 A2999=,
20180106_000000.000,0,RJOH,,,,0,20180106000000,-1,-1,-1,-1,200,-1,6,-1,-1,-1,-1,,9999,0,0,2,FEW 20   SCT 50,1,6,1,0,1016,RJOH 060000Z 20006KT 9999 FEW020 SCT050 06/00 Q1016 RMK 1CU020     3SC050 A3000=,
20180106_000000.002,0,RJOH,,,,0,20180106000000,-1,-1,-1,-1,200,-1,6,-1,-1,-1,-1,,9999,0,0,2,FEW 20   SCT 50,1,6,1,0,1016,RJOH 060000Z 20006KT 9999 FEW020 SCT050 06/00 Q1016 RMK 1CU020     3SC050 A3000=,
20180106_010000.000,0,RJOH,,,,0,20180106010000,-1,-1,-1,-1,250,-1,11,-1,-1,-1,-1,,9999,0,1,3,FEW 10   SCT 20   BKN 30,1,7,-1,1,1016,RJOH 060100Z 25011KT 9999 -SHRA FEW010 SCT020 BKN030 07/M01     Q1016 RMK 1CU010 3CU020 5CU030 A3003=,- RA SH
20180106_010000.002,0,RJOH,,,,0,20180106010000,-1,-1,-1,-1,250,-1,11,-1,-1,-1,-1,,9999,0,1,3,FEW 10   SCT 20   BKN 30,1,7,-1,1,1016,RJOH 060100Z 25011KT 9999 -SHRA FEW010 SCT020 BKN030 07/M01     Q1016 RMK 1CU010 3CU020 5CU030 A3003=,- RA SH
20180106_020000.000,0,RJOH,,,,0,20180106020000,-1,-1,-1,-1,240,-1,10,-1,-1,-1,-1,,9999,0,1,3,FEW 20   SCT 30   BKN 50,1,7,1,2,1017,RJOH 060200Z 24010KT 9999 -SHRA FEW020 SCT030 BKN050 07/02     Q1017 RMK 1CU020 4CU030 7SC050 A3003=,- RA SH
20180106_020000.002,0,RJOH,,,,0,20180106020000,-1,-1,-1,-1,240,-1,10,-1,-1,-1,-1,,9999,0,1,3,FEW 20   SCT 30   BKN 50,1,7,1,2,1017,RJOH 060200Z 24010KT 9999 -SHRA FEW020 SCT030 BKN050 07/02     Q1017 RMK 1CU020 4CU030 7SC050 A3003=,- RA SH
20180106_030000.000,0,RJOH,,,,0,20180106030000,-1,-1,-1,-1,260,-1,9,-1,-1,220,310,,9999,0,0,3,FEW 20   BKN 35   BKN 50,1,7,1,1,1016,RJOH 060300Z 26009KT 220V310 9999 FEW020 BKN035 BKN050 07/01     Q1016 RMK 1CU020 6CU035 7SC050 A3002=,
20180106_030000.002,0,RJOH,,,,0,20180106030000,-1,-1,-1,-1,260,-1,9,-1,-1,220,310,,9999,0,0,3,FEW 20   BKN 35   BKN 50,1,7,1,1,1016,RJOH 060300Z 26009KT 220V310 9999 FEW020 BKN035 BKN050 07/01     Q1016 RMK 1CU020 6CU035 7SC050 A3002=,
20180106_040000.000,0,RJOH,,,,0,20180106040000,-1,-1,-1,-1,300,-1,9,-1,19,260,330,,9999,0,0,3,FEW 20   SCT 35   BKN 50,1,9,-1,4,1016,RJOH 060400Z 30009G19KT 260V330 9999 FEW020 SCT035 BKN050     09/M04 Q1016 RMK 1CU020 4CU035 7SC050 A3001=,
20180106_040000.002,0,RJOH,,,,0,20180106040000,-1,-1,-1,-1,300,-1,9,-1,19,260,330,,9999,0,0,3,FEW 20   SCT 35   BKN 50,1,9,-1,4,1016,RJOH 060400Z 30009G19KT 260V330 9999 FEW020 SCT035 BKN050     09/M04 Q1016 RMK 1CU020 4CU035 7SC050 A3001=,
20180106_050000.000,0,RJOH,,,,0,20180106050000,-1,-1,-1,-1,320,-1,12,-1,-1,-1,-1,,9999,0,1,3,FEW 25   BKN 35   BKN 50,1,7,-1,1,1016,RJOH 060500Z 32012KT 9999 -SHRA FEW025 BKN035 BKN050 07/M01     Q1016 RMK 1CU025 6CU035 7SC050 A3002=,- RA SH
20180106_050000.002,0,RJOH,,,,0,20180106050000,-1,-1,-1,-1,320,-1,12,-1,-1,-1,-1,,9999,0,1,3,FEW 25   BKN 35   BKN 50,1,7,-1,1,1016,RJOH 060500Z 32012KT 9999 -SHRA FEW025 BKN035 BKN050 07/M01     Q1016 RMK 1CU025 6CU035 7SC050 A3002=,- RA SH
20180106_060000.000,0,RJOH,,,,0,20180106060000,-1,-1,-1,-1,290,-1,10,-1,-1,-1,-1,,9999,0,1,3,FEW 25   BKN 35   BKN 50,1,8,-1,1,1017,RJOH 060600Z 29010KT 9999 -SHRA FEW025 BKN035 BKN050 08/M01     Q1017 RMK 1CU025 5CU035 7SC050 A3003=,- RA SH
20180106_060000.002,0,RJOH,,,,0,20180106060000,-1,-1,-1,-1,290,-1,10,-1,-1,-1,-1,,9999,0,1,3,FEW 25   BKN 35   BKN 50,1,8,-1,1,1017,RJOH 060600Z 29010KT 9999 -SHRA FEW025 BKN035 BKN050 08/M01     Q1017 RMK 1CU025 5CU035 7SC050 A3003=,- RA SH
20180106_070000.000,0,RJOH,,,,0,20180106070000,-1,-1,-1,-1,300,-1,8,-1,-1,-1,-1,,9999,0,0,2,FEW 35   BKN 50,1,9,-1,6,1017,RJOH 060700Z 30008KT 9999 FEW035 BKN050 09/M06 Q1017 RMK 2CU035     5SC050 A3005=,
20180106_070000.002,0,RJOH,,,,0,20180106070000,-1,-1,-1,-1,300,-1,8,-1,-1,-1,-1,,9999,0,0,2,FEW 35   BKN 50,1,9,-1,6,1017,RJOH 060700Z 30008KT 9999 FEW035 BKN050 09/M06 Q1017 RMK     2CU035 5SC050 A3005=,
20180106_080000.000,0,RJOH,,,,0,20180106080000,-1,-1,-1,-1,280,-1,10,-1,-1,-1,-1,,9999,0,1,3,FEW 25   SCT 35   BKN 50,1,6,-1,2,1018,RJOH 060800Z 28010KT 9999 -SHRA FEW025 SCT035 BKN050 06/M02     Q1018 RMK 1CU025 3CU035 7SC050 A3007=,- RA SH
20180106_080000.002,0,RJOH,,,,0,20180106080000,-1,-1,-1,-1,280,-1,10,-1,-1,-1,-1,,9999,0,1,3,FEW 25   SCT 35   BKN 50,1,6,-1,2,1018,RJOH 060800Z 28010KT 9999 -SHRA FEW025 SCT035 BKN050 06/M02     Q1018 RMK 1CU025 3CU035 7SC050 A3007=,- RA SH
20180106_090000.000,0,RJOH,,,,0,20180106090000,-1,-1,-1,-1,290,-1,8,-1,-1,-1,-1,,9999,0,1,3,FEW 20   BKN 35   BKN 50,1,5,1,0,1018,RJOH 060900Z 29008KT 9999 -SHRA FEW020 BKN035 BKN050 05/00     Q1018 RMK 1CU020 5CU035 7SC050 A3008=,- RA SH
20180106_090000.002,0,RJOH,,,,0,20180106090000,-1,-1,-1,-1,290,-1,8,-1,-1,-1,-1,,9999,0,1,3,FEW 20   BKN 35   BKN 50,1,5,1,0,1018,RJOH 060900Z 29008KT 9999 -SHRA FEW020 BKN035 BKN050 05/00     Q1018 RMK 1CU020 5CU035 7SC050 A3008=,- RA SH
20180106_100000.000,0,RJOH,,,,0,20180106100000,-1,-1,-1,-1,200,-1,4,-1,-1,-1,-1,,9999,0,1,3,FEW 20   BKN 35   BKN 50,1,5,1,1,1018,RJOH 061000Z 20004KT 9999 -SHRA FEW020 BKN035 BKN050 05/01     Q1018 RMK 1CU020 6CU035 7SC050 A3008=,- RA SH
20180106_100000.002,0,RJOH,,,,0,20180106100000,-1,-1,-1,-1,200,-1,4,-1,-1,-1,-1,,9999,0,1,3,FEW 20   BKN 35   BKN 50,1,5,1,1,1018,RJOH 061000Z 20004KT 9999 -SHRA FEW020 BKN035 BKN050 05/01     Q1018 RMK 1CU020 6CU035 7SC050 A3008=,- RA SH
20180106_110000.000,0,RJOH,,,,0,20180106110000,-1,-1,-1,-1,230,-1,8,-1,-1,-1,-1,,9999,0,1,3,FEW 15   BKN 35   BKN 50,1,5,1,2,1020,RJOH 061100Z 23008KT 9999 -SHRA FEW015 BKN035 BKN050 05/02     Q1020 RMK 1CU015 6CU035 7SC050 A3013=,- RA SH
20180106_110000.002,0,RJOH,,,,0,20180106110000,-1,-1,-1,-1,230,-1,8,-1,-1,-1,-1,,9999,0,1,3,FEW 15   BKN 35   BKN 50,1,5,1,2,1020,RJOH 061100Z 23008KT 9999 -SHRA FEW015 BKN035 BKN050 05/02     Q1020 RMK 1CU015 6CU035 7SC050 A3013=,- RA SH
20180106_120000.000,0,RJOH,,,,0,20180106120000,-1,-1,-1,-1,240,-1,8,-1,-1,-1,-1,,9999,0,1,3,FEW 10   BKN 20   BKN 35,1,4,1,1,1021,RJOH 061200Z 24008KT 9999 -SHRA FEW010 BKN020 BKN035 04/01     Q1021 RMK 1CU010 5CU020 7CU035 A3016=,- RA SH
20180106_120000.002,0,RJOH,,,,0,20180106120000,-1,-1,-1,-1,240,-1,8,-1,-1,-1,-1,,9999,0,1,3,FEW 10   BKN 20   BKN 35,1,4,1,1,1021,RJOH 061200Z 24008KT 9999 -SHRA FEW010 BKN020 BKN035 04/01     Q1021 RMK 1CU010 5CU020 7CU035 A3016=,- RA SH
20180106_130000.000,0,RJOH,,,,0,20180106130000,-1,-1,-1,-1,220,-1,7,-1,-1,-1,-1,,9999,0,1,3,FEW 20   SCT 35   BKN 50,1,4,1,1,1021,RJOH 061300Z 22007KT 9999 -SHRA FEW020 SCT035 BKN050 04/01     Q1021 RMK 1CU020 4CU035 6SC050 A3016=,- RA SH
20180106_130000.002,0,RJOH,,,,0,20180106130000,-1,-1,-1,-1,220,-1,7,-1,-1,-1,-1,,9999,0,1,3,FEW 20   SCT 35   BKN 50,1,4,1,1,1021,RJOH 061300Z 22007KT 9999 -SHRA FEW020 SCT035 BKN050 04/01     Q1021 RMK 1CU020 4CU035 6SC050 A3016=,- RA SH
20180106_140000.000,0,RJOH,,,,0,20180106140000,-1,-1,-1,-1,130,-1,3,-1,-1,80,190,,9999,0,0,3,FEW 20   SCT 35   BKN 50,1,4,1,1,1022,RJOH 061400Z 13003KT 080V190 9999 FEW020 SCT035 BKN050 04/01     Q1022 RMK 1CU020 3CU035 7SC050 A3019=,
20180106_140000.003,0,RJOH,,,,0,20180106140000,-1,-1,-1,-1,130,-1,3,-1,-1,80,190,,9999,0,0,3,FEW 20   SCT 35   BKN 50,1,4,1,1,1022,RJOH 061400Z 13003KT 080V190 9999 FEW020 SCT035 BKN050 04/01     Q1022 RMK 1CU020 3CU035 7SC050 A3019=,
20180106_150000.000,0,RJOH,,,,0,20180106150000,-1,-1,-1,-1,999,-1,2,-1,-1,-1,-1,,9999,0,1,3,FEW 10   BKN 35   BKN 50,1,4,1,1,1022,RJOH 061500Z VRB02KT 9999 -SHRA FEW010 BKN035 BKN050 04/01     Q1022 RMK 2CU010 6CU035 7SC050 A3019=,- RA SH
20180106_150000.002,0,RJOH,,,,0,20180106150000,-1,-1,-1,-1,999,-1,2,-1,-1,-1,-1,,9999,0,1,3,FEW 10   BKN 35   BKN 50,1,4,1,1,1022,RJOH 061500Z VRB02KT 9999 -SHRA FEW010 BKN035 BKN050 04/01     Q1022 RMK 2CU010 6CU035 7SC050 A3019=,- RA SH
20180106_160000.000,0,RJOH,,,,0,20180106160000,-1,-1,-1,-1,130,-1,5,-1,-1,100,160,,9999,0,1,3,FEW 25   SCT 35   BKN 50,1,4,1,1,1022,RJOH 061600Z 13005KT 100V160 9999 -SHRA FEW025 SCT035 BKN050     04/01 Q1022 RMK 1CU025 4CU035 7SC050 A3018=,- RA SH
20180106_160000.002,0,RJOH,,,,0,20180106160000,-1,-1,-1,-1,130,-1,5,-1,-1,100,160,,9999,0,1,3,FEW 25   SCT 35   BKN 50,1,4,1,1,1022,RJOH 061600Z 13005KT 100V160 9999 -SHRA FEW025 SCT035 BKN050     04/01 Q1022 RMK 1CU025 4CU035 7SC050 A3018=,- RA SH
20180106_170000.000,0,RJOH,,,,0,20180106170000,-1,-1,-1,-1,999,-1,2,-1,-1,-1,-1,,9999,0,0,2,FEW 25   BKN 50,1,3,1,0,1022,RJOH 061700Z VRB02KT 9999 FEW025 BKN050 03/00 Q1022 RMK 1CU025     5SC050 A3018=,
20180106_170000.002,0,RJOH,,,,0,20180106170000,-1,-1,-1,-1,999,-1,2,-1,-1,-1,-1,,9999,0,0,2,FEW 25   BKN 50,1,3,1,0,1022,RJOH 061700Z VRB02KT 9999 FEW025 BKN050 03/00 Q1022 RMK 1CU025     5SC050 A3018=,
20180106_180000.000,0,RJOH,,,,0,20180106180000,-1,-1,-1,-1,180,-1,5,-1,-1,-1,-1,,9999,0,0,2,FEW 25   BKN 50,1,2,1,0,1022,RJOH 061800Z 18005KT 9999 FEW025 BKN050 02/00 Q1022 RMK 1CU025     7SC050 A3020=,
20180106_180000.003,0,RJOH,,,,0,20180106180000,-1,-1,-1,-1,180,-1,5,-1,-1,-1,-1,,9999,0,0,2,FEW 25   BKN 50,1,2,1,0,1022,RJOH 061800Z 18005KT 9999 FEW025 BKN050 02/00 Q1022 RMK 1CU025     7SC050 A3020=,
20180106_190000.000,0,RJOH,,,,0,20180106190000,-1,-1,-1,-1,240,-1,5,-1,-1,-1,-1,,9999,0,0,3,FEW 10   BKN 20   BKN 50,1,3,1,1,1023,RJOH 061900Z 24005KT 9999 FEW010 BKN020 BKN050 03/01 Q1023 RMK     1CU010 5CU020 7SC050 A3021=,
20180106_190000.002,0,RJOH,,,,0,20180106190000,-1,-1,-1,-1,240,-1,5,-1,-1,-1,-1,,9999,0,0,3,FEW 10   BKN 20   BKN 50,1,3,1,1,1023,RJOH 061900Z 24005KT 9999 FEW010 BKN020 BKN050 03/01 Q1023 RMK     1CU010 5CU020 7SC050 A3021=,
20180106_200000.000,0,RJOH,,,,0,20180106200000,-1,-1,-1,-1,310,-1,2,-1,-1,-1,-1,,9999,0,1,3,FEW 20   BKN 30   BKN 50,1,4,1,2,1022,RJOH 062000Z 31002KT 9999 -SHRA FEW020 BKN030 BKN050 04/02     Q1022 RMK 1CU020 5CU030 7SC050 A3020=,- RA SH
20180106_200000.002,0,RJOH,,,,0,20180106200000,-1,-1,-1,-1,310,-1,2,-1,-1,-1,-1,,9999,0,1,3,FEW 20   BKN 30   BKN 50,1,4,1,2,1022,RJOH 062000Z 31002KT 9999 -SHRA FEW020 BKN030 BKN050 04/02     Q1022 RMK 1CU020 5CU030 7SC050 A3020=,- RA SH
20180106_210000.000,0,RJOH,,,,0,20180106210000,-1,-1,-1,-1,200,-1,4,-1,-1,180,240,,9999,0,0,2,FEW 30   BKN 60,1,3,1,1,1023,RJOH 062100Z 20004KT 180V240 9999 FEW030 BKN060 03/01 Q1023 RMK     2CU030 7SC060 A3022 11/02 R002=,
20180106_210000.002,0,RJOH,,,,0,20180106210000,-1,-1,-1,-1,200,-1,4,-1,-1,180,240,,9999,0,0,2,FEW 30   BKN 60,1,3,1,1,1023,RJOH 062100Z 20004KT 180V240 9999 FEW030 BKN060 03/01 Q1023     RMK 2CU030 7SC060 A3022 11/02 R002=,
20180106_220000.000,0,RJOH,,,,0,20180106220000,-1,-1,-1,-1,200,-1,4,-1,-1,-1,-1,,9999,0,0,3,FEW 3   SCT 30   BKN 60,1,3,1,1,1023,RJOH 062200Z 20004KT 9999 FEW003 SCT030 BKN060 03/01 Q1023 RMK     1ST003 3CU030 7SC060 A3022=,
20180106_220000.002,0,RJOH,,,,0,20180106220000,-1,-1,-1,-1,200,-1,4,-1,-1,-1,-1,,9999,0,0,3,FEW 3   SCT 30   BKN 60,1,3,1,1,1023,RJOH 062200Z 20004KT 9999 FEW003 SCT030 BKN060 03/01 Q1023 RMK     1ST003 3CU030 7SC060 A3022=,
20180106_230000.000,0,RJOH,,,,0,20180106230000,-1,-1,-1,-1,150,-1,3,-1,-1,120,180,,9999,0,0,2,FEW 30   BKN 60,1,3,1,1,1023,RJOH 062300Z 15003KT 120V180 9999 FEW030 BKN060 03/01 Q1023 RMK     2CU030 6SC060 A3022=,
20180106_230000.002,0,RJOH,,,,0,20180106230000,-1,-1,-1,-1,150,-1,3,-1,-1,120,180,,9999,0,0,2,FEW 30   BKN 60,1,3,1,1,1023,RJOH 062300Z 15003KT 120V180 9999 FEW030 BKN060 03/01 Q1023     RMK 2CU030 6SC060 A3022=,
20180107_000000.000,0,RJOH,,,,0,20180107000000,-1,-1,-1,-1,0,-1,0,-1,-1,-1,-1,,9999,0,0,2,FEW 3   BKN 60,1,3,1,1,1024,RJOH 070000Z 00000KT 9999 FEW003 BKN060 03/01 Q1024 RMK 1ST003     6SC060 A3024=,
20180107_000000.002,0,RJOH,,,,0,20180107000000,-1,-1,-1,-1,0,-1,0,-1,-1,-1,-1,,9999,0,0,2,FEW 3   BKN 60,1,3,1,1,1024,RJOH 070000Z 00000KT 9999 FEW003 BKN060 03/01 Q1024 RMK 1ST003     6SC060 A3024=,
20180107_010000.000,0,RJOH,,,,0,20180107010000,-1,-1,-1,-1,999,-1,2,-1,-1,-1,-1,,9999,0,0,2,FEW 7   BKN 60,1,5,1,2,1024,RJOH 070100Z VRB02KT 9999 FEW007 BKN060 05/02 Q1024 RMK 1ST007     6SC060 A3024=,
20180107_010000.003,0,RJOH,,,,0,20180107010000,-1,-1,-1,-1,999,-1,2,-1,-1,-1,-1,,9999,0,0,2,FEW 7   BKN 60,1,5,1,2,1024,RJOH 070100Z VRB02KT 9999 FEW007 BKN060 05/02 Q1024 RMK 1ST007     6SC060 A3024=,
20180107_020000.000,0,RJOH,,,,0,20180107020000,-1,-1,-1,-1,999,-1,2,-1,-1,-1,-1,,9999,0,0,3,FEW 30   SCT 60   BKN 200,1,7,1,1,1024,RJOH 070200Z VRB02KT 9999 FEW030 SCT060 BKN200 07/01 Q1024 RMK     1CU030 3SC060 A3024=,
20180107_020000.002,0,RJOH,,,,0,20180107020000,-1,-1,-1,-1,999,-1,2,-1,-1,-1,-1,,9999,0,0,3,FEW 30   SCT 60   BKN 200,1,7,1,1,1024,RJOH 070200Z VRB02KT 9999 FEW030 SCT060 BKN200 07/01 Q1024 RMK     1CU030 3SC060 A3024=,
20180107_030000.000,0,RJOH,,,,0,20180107030000,-1,-1,-1,-1,80,-1,7,-1,-1,-1,-1,,9999,0,0,2,FEW 30   BKN 200,1,9,-1,1,1023,RJOH 070300Z 08007KT 9999 FEW030 BKN200 09/M01 Q1023 RMK 2CU030     A3021=,
20180107_030000.002,0,RJOH,,,,0,20180107030000,-1,-1,-1,-1,80,-1,7,-1,-1,-1,-1,,9999,0,0,2,FEW 30   BKN 200,1,9,-1,1,1023,RJOH 070300Z 08007KT 9999 FEW030 BKN200 09/M01 Q1023 RMK     2CU030 A3021=,
20180107_040000.000,0,RJOH,,,,0,20180107040000,-1,-1,-1,-1,60,-1,7,-1,-1,-1,-1,,9999,0,0,2,FEW 30   BKN 200,1,9,-1,1,1022,RJOH 070400Z 06007KT 9999 FEW030 BKN200 09/M01 Q1022 RMK 2CU030     A3019=,
20180107_040000.002,0,RJOH,,,,0,20180107040000,-1,-1,-1,-1,60,-1,7,-1,-1,-1,-1,,9999,0,0,2,FEW 30   BKN 200,1,9,-1,1,1022,RJOH 070400Z 06007KT 9999 FEW030 BKN200 09/M01 Q1022 RMK     2CU030 A3019=,
20180107_050000.000,0,RJOH,,,,0,20180107050000,-1,-1,-1,-1,60,-1,7,-1,-1,30,90,,9999,0,0,3,FEW 50   SCT 180   BKN 200,1,9,-1,2,1022,RJOH 070500Z 06007KT 030V090 9999 FEW050 SCT180 BKN200 09/M02     Q1022 RMK 1SC050 3AC180 A3020=,
20180107_050000.002,0,RJOH,,,,0,20180107050000,-1,-1,-1,-1,60,-1,7,-1,-1,30,90,,9999,0,0,3,FEW 50   SCT 180   BKN 200,1,9,-1,2,1022,RJOH 070500Z 06007KT 030V090 9999 FEW050 SCT180 BKN200 09/M02     Q1022 RMK 1SC050 3AC180 A3020=,
20180107_060000.000,0,RJOH,,,,0,20180107060000,-1,-1,-1,-1,70,-1,10,-1,-1,-1,-1,,9999,0,0,3,FEW 50   BKN 180   BKN 200,1,9,-1,4,1021,RJOH 070600Z 07010KT 9999 FEW050 BKN180 BKN200 09/M04 Q1021 RMK     1SC050 5AC180 A3018=,
20180107_060000.002,0,RJOH,,,,0,20180107060000,-1,-1,-1,-1,70,-1,10,-1,-1,-1,-1,,9999,0,0,3,FEW 50   BKN 180   BKN 200,1,9,-1,4,1021,RJOH 070600Z 07010KT 9999 FEW050 BKN180 BKN200 09/M04 Q1021     RMK 1SC050 5AC180 A3018=,
20180107_070000.000,0,RJOH,,,,0,20180107070000,-1,-1,-1,-1,80,-1,10,-1,-1,-1,-1,,9999,0,0,3,FEW 50   SCT 120   BKN 150,1,8,-1,3,1021,RJOH 070700Z 08010KT 9999 FEW050 SCT120 BKN150 08/M03 Q1021 RMK     1SC050 3AC120 7AC150 A3016=,
20180107_070000.002,0,RJOH,,,,0,20180107070000,-1,-1,-1,-1,80,-1,10,-1,-1,-1,-1,,9999,0,0,3,FEW 50   SCT 120   BKN 150,1,8,-1,3,1021,RJOH 070700Z 08010KT 9999 FEW050 SCT120 BKN150 08/M03 Q1021     RMK 1SC050 3AC120 7AC150 A3016=,
20180107_080000.000,0,RJOH,,,,0,20180107080000,-1,-1,-1,-1,80,-1,9,-1,-1,-1,-1,,9999,0,0,3,FEW 50   SCT 120   BKN 150,1,8,-1,3,1021,RJOH 070800Z 08009KT 9999 FEW050 SCT120 BKN150 08/M03 Q1021 RMK     1SC050 3AC120 7AC150 A3017=,
20180107_080000.002,0,RJOH,,,,0,20180107080000,-1,-1,-1,-1,80,-1,9,-1,-1,-1,-1,,9999,0,0,3,FEW 50   SCT 120   BKN 150,1,8,-1,3,1021,RJOH 070800Z 08009KT 9999 FEW050 SCT120 BKN150 08/M03 Q1021     RMK 1SC050 3AC120 7AC150 A3017=,
20180107_090000.000,0,RJOH,,,,0,20180107090000,-1,-1,-1,-1,110,-1,5,-1,-1,80,140,,9999,0,0,3,FEW 50   SCT 120   BKN 150,1,7,-1,2,1021,RJOH 070900Z 11005KT 080V140 9999 FEW050 SCT120 BKN150 07/M02     Q1021 RMK 1SC050 3AC120 7AC150 A3017=,
20180107_090000.002,0,RJOH,,,,0,20180107090000,-1,-1,-1,-1,110,-1,5,-1,-1,80,140,,9999,0,0,3,FEW 50   SCT 120   BKN 150,1,7,-1,2,1021,RJOH 070900Z 11005KT 080V140 9999 FEW050 SCT120 BKN150 07/M02     Q1021 RMK 1SC050 3AC120 7AC150 A3017=,
20180107_100000.000,0,RJOH,,,,0,20180107100000,-1,-1,-1,-1,110,-1,5,-1,-1,-1,-1,,9999,0,0,3,FEW 100   SCT 120   BKN 150,1,7,-1,2,1021,RJOH 071000Z 11005KT 9999 FEW100 SCT120 BKN150 07/M02 Q1021 RMK     1AC100 3AC120 7AC150 A3016=,
20180107_100000.002,0,RJOH,,,,0,20180107100000,-1,-1,-1,-1,110,-1,5,-1,-1,-1,-1,,9999,0,0,3,FEW 100   SCT 120   BKN 150,1,7,-1,2,1021,RJOH 071000Z 11005KT 9999 FEW100 SCT120 BKN150 07/M02 Q1021     RMK 1AC100 3AC120 7AC150 A3016=,
20180107_110000.000,0,RJOH,,,,0,20180107110000,-1,-1,-1,-1,120,-1,4,-1,-1,-1,-1,,9999,0,0,3,FEW 100   BKN 120   BKN 150,1,6,-1,2,1021,RJOH 071100Z 12004KT 9999 FEW100 BKN120 BKN150 06/M02 Q1021 RMK     1AC100 5AC120 7AC150 A3016=,
20180107_110000.002,0,RJOH,,,,0,20180107110000,-1,-1,-1,-1,120,-1,4,-1,-1,-1,-1,,9999,0,0,3,FEW 100   BKN 120   BKN 150,1,6,-1,2,1021,RJOH 071100Z 12004KT 9999 FEW100 BKN120 BKN150 06/M02 Q1021     RMK 1AC100 5AC120 7AC150 A3016=,
20180107_120000.000,0,RJOH,,,,0,20180107120000,-1,-1,-1,-1,130,-1,6,-1,-1,-1,-1,,9999,0,0,3,FEW 100   BKN 120   BKN 150,1,5,-1,2,1020,RJOH 071200Z 13006KT 9999 FEW100 BKN120 BKN150 05/M02 Q1020 RMK     1AC100 5AC120 6AC150 A3012=,
20180107_120000.003,0,RJOH,,,,0,20180107120000,-1,-1,-1,-1,130,-1,6,-1,-1,-1,-1,,9999,0,0,3,FEW 100   BKN 120   BKN 150,1,5,-1,2,1020,RJOH 071200Z 13006KT 9999 FEW100 BKN120 BKN150 05/M02 Q1020     RMK 1AC100 5AC120 6AC150 A3012=,
20180107_130000.000,0,RJOH,,,,0,20180107130000,-1,-1,-1,-1,120,-1,6,-1,-1,-1,-1,,9999,0,0,3,FEW 100   BKN 120   BKN 150,1,5,-1,3,1019,RJOH 071300Z 12006KT 9999 FEW100 BKN120 BKN150 05/M03 Q1019 RMK     1AC100 5AC120 6AC150 A3010=,
20180107_130000.003,0,RJOH,,,,0,20180107130000,-1,-1,-1,-1,120,-1,6,-1,-1,-1,-1,,9999,0,0,3,FEW 100   BKN 120   BKN 150,1,5,-1,3,1019,RJOH 071300Z 12006KT 9999 FEW100 BKN120 BKN150 05/M03 Q1019     RMK 1AC100 5AC120 6AC150 A3010=,
20180107_140000.000,0,RJOH,,,,0,20180107140000,-1,-1,-1,-1,999,-1,2,-1,-1,-1,-1,,9999,0,0,3,FEW 100   BKN 120   BKN 150,1,6,-1,3,1019,RJOH 071400Z VRB02KT 9999 FEW100 BKN120 BKN150 06/M03 Q1019 RMK     1AC100 6AC120 7AC150 A3009=,
20180107_140000.003,0,RJOH,,,,0,20180107140000,-1,-1,-1,-1,999,-1,2,-1,-1,-1,-1,,9999,0,0,3,FEW 100   BKN 120   BKN 150,1,6,-1,3,1019,RJOH 071400Z VRB02KT 9999 FEW100 BKN120 BKN150 06/M03 Q1019     RMK 1AC100 6AC120 7AC150 A3009=,
20180107_150000.000,0,RJOH,,,,0,20180107150000,-1,-1,-1,-1,150,-1,5,-1,-1,-1,-1,,9999,0,0,3,FEW 80   BKN 110   BKN 150,1,7,-1,3,1018,RJOH 071500Z 15005KT 9999 FEW080 BKN110 BKN150 07/M03 Q1018 RMK     1AC080 5AC110 7AC150 A3008=,
20180107_150000.002,0,RJOH,,,,0,20180107150000,-1,-1,-1,-1,150,-1,5,-1,-1,-1,-1,,9999,0,0,3,FEW 80   BKN 110   BKN 150,1,7,-1,3,1018,RJOH 071500Z 15005KT 9999 FEW080 BKN110 BKN150 07/M03 Q1018     RMK 1AC080 5AC110 7AC150 A3008=,
20180107_160000.000,0,RJOH,,,,0,20180107160000,-1,-1,-1,-1,150,-1,6,-1,-1,-1,-1,,9999,0,0,2,FEW 80   BKN 100,1,7,-1,3,1017,RJOH 071600Z 15006KT 9999 FEW080 BKN100 07/M03 Q1017 RMK 1AC080     7AC100 A3006=,
20180107_160000.002,0,RJOH,,,,0,20180107160000,-1,-1,-1,-1,150,-1,6,-1,-1,-1,-1,,9999,0,0,2,FEW 80   BKN 100,1,7,-1,3,1017,RJOH 071600Z 15006KT 9999 FEW080 BKN100 07/M03 Q1017 RMK     1AC080 7AC100 A3006=,
20180107_170000.000,0,RJOH,,,,0,20180107170000,-1,-1,-1,-1,150,-1,4,-1,-1,-1,-1,,9999,0,1,3,FEW 50   BKN 80   OVC 100,1,7,-1,1,1017,RJOH 071700Z 15004KT 9999 -RA FEW050 BKN080 OVC100 07/M01 Q1017     RMK 1SC050 6AC080 8AS100 A3004=,- RA
20180107_170000.002,0,RJOH,,,,0,20180107170000,-1,-1,-1,-1,150,-1,4,-1,-1,-1,-1,,9999,0,1,3,FEW 50   BKN 80   OVC 100,1,7,-1,1,1017,RJOH 071700Z 15004KT 9999 -RA FEW050 BKN080 OVC100 07/M01     Q1017 RMK 1SC050 6AC080 8AS100 A3004=,- RA
20180107_180000.000,0,RJOH,,,,0,20180107180000,-1,-1,-1,-1,170,-1,7,-1,-1,-1,-1,,9999,0,1,3,FEW 50   BKN 80   OVC 100,1,6,1,1,1016,RJOH 071800Z 17007KT 9999 -RA FEW050 BKN080 OVC100 06/01 Q1016     RMK 2SC050 6AC080 8AS100 A3003=,- RA
20180107_180000.002,0,RJOH,,,,0,20180107180000,-1,-1,-1,-1,170,-1,7,-1,-1,-1,-1,,9999,0,1,3,FEW 50   BKN 80   OVC 100,1,6,1,1,1016,RJOH 071800Z 17007KT 9999 -RA FEW050 BKN080 OVC100 06/01 Q1016     RMK 2SC050 6AC080 8AS100 A3003=,- RA
20180107_190000.000,0,RJOH,,,,0,20180107190000,-1,-1,-1,-1,170,-1,5,-1,-1,-1,-1,,9999,0,1,3,FEW 30   SCT 50   BKN 80,1,5,1,3,1016,RJOH 071900Z 17005KT 9999 -RA FEW030 SCT050 BKN080 05/03 Q1016     RMK 1CU030 3SC050 7AC080 A3001=,- RA
20180107_190000.003,0,RJOH,,,,0,20180107190000,-1,-1,-1,-1,170,-1,5,-1,-1,-1,-1,,9999,0,1,3,FEW 30   SCT 50   BKN 80,1,5,1,3,1016,RJOH 071900Z 17005KT 9999 -RA FEW030 SCT050 BKN080 05/03 Q1016     RMK 1CU030 3SC050 7AC080 A3001=,- RA
20180107_200000.000,0,RJOH,,,,0,20180107200000,-1,-1,-1,-1,170,-1,9,-1,-1,-1,-1,,9999,0,1,3,FEW 25   BKN 45   OVC 80,1,6,1,2,1015,RJOH 072000Z 17009KT 9999 -RA FEW025 BKN045 OVC080 06/02 Q1015     RMK 2CU025 6SC045 8AS080 A2999=,- RA
20180107_200000.002,0,RJOH,,,,0,20180107200000,-1,-1,-1,-1,170,-1,9,-1,-1,-1,-1,,9999,0,1,3,FEW 25   BKN 45   OVC 80,1,6,1,2,1015,RJOH 072000Z 17009KT 9999 -RA FEW025 BKN045 OVC080 06/02 Q1015     RMK 2CU025 6SC045 8AS080 A2999=,- RA
20180107_210000.000,0,RJOH,,,,0,20180107210000,-1,-1,-1,-1,160,-1,9,-1,-1,-1,-1,,9999,0,1,3,FEW 25   BKN 50   OVC 80,1,6,1,2,1014,RJOH 072100Z 16009KT 9999 -RA FEW025 BKN050 OVC080 06/02 Q1014     RMK 1CU025 6SC050 8AS080 A2997 10/05 R002=,- RA
20180107_210000.003,0,RJOH,,,,0,20180107210000,-1,-1,-1,-1,160,-1,9,-1,-1,-1,-1,,9999,0,1,3,FEW 25   BKN 50   OVC 80,1,6,1,2,1014,RJOH 072100Z 16009KT 9999 -RA FEW025 BKN050 OVC080 06/02 Q1014     RMK 1CU025 6SC050 8AS080 A2997 10/05 R002=,- RA
20180107_220000.000,0,RJOH,,,,0,20180107220000,-1,-1,-1,-1,160,-1,7,-1,-1,-1,-1,,9999,0,1,3,FEW 25   BKN 60   OVC 80,1,6,1,2,1014,RJOH 072200Z 16007KT 9999 -RA FEW025 BKN060 OVC080 06/02 Q1014     RMK 1CU025 5SC060 8AS080 A2995=,- RA
20180107_220000.002,0,RJOH,,,,0,20180107220000,-1,-1,-1,-1,160,-1,7,-1,-1,-1,-1,,9999,0,1,3,FEW 25   BKN 60   OVC 80,1,6,1,2,1014,RJOH 072200Z 16007KT 9999 -RA FEW025 BKN060 OVC080 06/02 Q1014     RMK 1CU025 5SC060 8AS080 A2995=,- RA
20180107_230000.000,0,RJOH,,,,0,20180107230000,-1,-1,-1,-1,170,-1,6,-1,-1,-1,-1,,9999,0,1,3,FEW 25   SCT 35   BKN 60,1,6,1,2,1013,RJOH 072300Z 17006KT 9999 -RA FEW025 SCT035 BKN060 06/02 Q1013     RMK 1CU025 3CU035 7SC060 A2991=,- RA
20180107_230000.002,0,RJOH,,,,0,20180107230000,-1,-1,-1,-1,170,-1,6,-1,-1,-1,-1,,9999,0,1,3,FEW 25   SCT 35   BKN 60,1,6,1,2,1013,RJOH 072300Z 17006KT 9999 -RA FEW025 SCT035 BKN060 06/02 Q1013     RMK 1CU025 3CU035 7SC060 A2991=,- RA
20180108_000000.000,0,RJOH,,,,0,20180108000000,-1,-1,-1,-1,200,-1,4,-1,-1,-1,-1,,9999,0,1,3,FEW 25   SCT 35   BKN 60,1,7,1,4,1011,RJOH 080000Z 20004KT 9999 -RA FEW025 SCT035 BKN060 07/04 Q1011     RMK 1CU025 3CU035 7SC060 A2986=,- RA
20180108_000000.002,0,RJOH,,,,0,20180108000000,-1,-1,-1,-1,200,-1,4,-1,-1,-1,-1,,9999,0,1,3,FEW 25   SCT 35   BKN 60,1,7,1,4,1011,RJOH 080000Z 20004KT 9999 -RA FEW025 SCT035 BKN060 07/04 Q1011     RMK 1CU025 3CU035 7SC060 A2986=,- RA
20180108_010000.000,0,RJOH,,,,0,20180108010000,-1,-1,-1,-1,340,-1,4,-1,-1,-1,-1,,9999,0,1,3,FEW 20   SCT 35   BKN 60,1,8,1,5,1009,RJOH 080100Z 34004KT 9999 -RA FEW020 SCT035 BKN060 08/05 Q1009     RMK 1CU020 3CU035 7SC060 A2982=,- RA
20180108_010000.002,0,RJOH,,,,0,20180108010000,-1,-1,-1,-1,340,-1,4,-1,-1,-1,-1,,9999,0,1,3,FEW 20   SCT 35   BKN 60,1,8,1,5,1009,RJOH 080100Z 34004KT 9999 -RA FEW020 SCT035 BKN060 08/05 Q1009     RMK 1CU020 3CU035 7SC060 A2982=,- RA
20180108_020000.000,0,RJOH,,,,0,20180108020000,-1,-1,-1,-1,310,-1,3,-1,-1,-1,-1,,9999,0,1,3,FEW 20   SCT 35   BKN 50,1,9,1,4,1008,RJOH 080200Z 31003KT 9999 -RA FEW020 SCT035 BKN050 09/04 Q1008     RMK 1CU020 3CU035 7SC050 A2978=,- RA
20180108_020000.002,0,RJOH,,,,0,20180108020000,-1,-1,-1,-1,310,-1,3,-1,-1,-1,-1,,9999,0,1,3,FEW 20   SCT 35   BKN 50,1,9,1,4,1008,RJOH 080200Z 31003KT 9999 -RA FEW020 SCT035 BKN050 09/04 Q1008     RMK 1CU020 3CU035 7SC050 A2978=,- RA
20180108_030000.000,0,RJOH,,,,0,20180108030000,-1,-1,-1,-1,160,-1,7,-1,-1,-1,-1,,9999,0,0,3,FEW 20   BKN 50   OVC 80,1,10,1,5,1006,RJOH 080300Z 16007KT 9999 FEW020 BKN050 OVC080 10/05 Q1006 RMK     1CU020 6SC050 8AS080 A2973=,
20180108_030000.002,0,RJOH,,,,0,20180108030000,-1,-1,-1,-1,160,-1,7,-1,-1,-1,-1,,9999,0,0,3,FEW 20   BKN 50   OVC 80,1,10,1,5,1006,RJOH 080300Z 16007KT 9999 FEW020 BKN050 OVC080 10/05 Q1006 RMK     1CU020 6SC050 8AS080 A2973=,
20180108_040000.000,0,RJOH,,,,0,20180108040000,-1,-1,-1,-1,180,-1,10,-1,-1,-1,-1,,9999,0,1,3,FEW 10   BKN 35   OVC 50,1,9,1,5,1005,RJOH 080400Z 18010KT 9999 -SHRA FEW010 BKN035 OVC050 09/05     Q1005 RMK 1CU010 6CU035 8SC050 A2970=,- RA SH
20180108_040000.002,0,RJOH,,,,0,20180108040000,-1,-1,-1,-1,180,-1,10,-1,-1,-1,-1,,9999,0,1,3,FEW 10   BKN 35   OVC 50,1,9,1,5,1005,RJOH 080400Z 18010KT 9999 -SHRA FEW010 BKN035 OVC050 09/05     Q1005 RMK 1CU010 6CU035 8SC050 A2970=,- RA SH
20180108_050000.000,0,RJOH,,,,0,20180108050000,-1,-1,-1,-1,220,-1,6,-1,-1,-1,-1,,9999,0,1,3,FEW 15   BKN 35   BKN 50,1,9,1,6,1005,RJOH 080500Z 22006KT 9999 -SHRA FEW015 BKN035 BKN050 09/06     Q1005 RMK 1CU015 5CU035 7SC050 A2968=,- RA SH
20180108_050000.002,0,RJOH,,,,0,20180108050000,-1,-1,-1,-1,220,-1,6,-1,-1,-1,-1,,9999,0,1,3,FEW 15   BKN 35   BKN 50,1,9,1,6,1005,RJOH 080500Z 22006KT 9999 -SHRA FEW015 BKN035 BKN050 09/06     Q1005 RMK 1CU015 5CU035 7SC050 A2968=,- RA SH
20180108_060000.000,0,RJOH,,,,0,20180108060000,-1,-1,-1,-1,250,-1,3,-1,-1,-1,-1,,9999,0,1,3,FEW 10   BKN 35   BKN 50,1,9,1,7,1004,RJOH 080600Z 25003KT 9999 -SHRA FEW010 BKN035 BKN050 09/07     Q1004 RMK 1CU010 6CU035 7SC050 A2965=,- RA SH
20180108_060000.003,0,RJOH,,,,0,20180108060000,-1,-1,-1,-1,250,-1,3,-1,-1,-1,-1,,9999,0,1,3,FEW 10   BKN 35   BKN 50,1,9,1,7,1004,RJOH 080600Z 25003KT 9999 -SHRA FEW010 BKN035 BKN050 09/07     Q1004 RMK 1CU010 6CU035 7SC050 A2965=,- RA SH
20180108_070000.000,0,RJOH,,,,0,20180108070000,-1,-1,-1,-1,240,-1,2,-1,-1,-1,-1,,6000,0,1,3,FEW 10   BKN 35   BKN 50,1,9,1,7,1004,RJOH 080700Z 24002KT 6000 -SHRA FEW010 BKN035 BKN050 09/07     Q1004 RMK 1CU010 6CU035 7SC050 A2965 VIS W-N 3000M=,- RA SH
20180108_070000.002,0,RJOH,,,,0,20180108070000,-1,-1,-1,-1,240,-1,2,-1,-1,-1,-1,,6000,0,1,3,FEW 10   BKN 35   BKN 50,1,9,1,7,1004,RJOH 080700Z 24002KT 6000 -SHRA FEW010 BKN035 BKN050 09/07     Q1004 RMK 1CU010 6CU035 7SC050 A2965 VIS W-N 3000M=,- RA SH
20180108_080000.000,0,RJOH,,,,0,20180108080000,-1,-1,-1,-1,220,-1,3,-1,-1,-1,-1,,9999,0,0,3,FEW 2   BKN 35   BKN 50,1,8,1,6,1004,RJOH 080800Z 22003KT 9999 FEW002 BKN035 BKN050 08/06 Q1004 RMK     1ST002 6CU035 7SC050 A2965=,
20180108_080000.002,0,RJOH,,,,0,20180108080000,-1,-1,-1,-1,220,-1,3,-1,-1,-1,-1,,9999,0,0,3,FEW 2   BKN 35   BKN 50,1,8,1,6,1004,RJOH 080800Z 22003KT 9999 FEW002 BKN035 BKN050 08/06 Q1004 RMK     1ST002 6CU035 7SC050 A2965=,
20180108_090000.000,0,RJOH,,,,0,20180108090000,-1,-1,-1,-1,200,-1,3,-1,-1,170,240,,9999,0,1,3,FEW 4   BKN 30   BKN 50,1,8,1,6,1003,RJOH 080900Z 20003KT 170V240 9999 -SHRA FEW004 BKN030 BKN050     08/06 Q1003 RMK 1ST004 6CU030 7SC050 A2962=,- RA SH
20180108_090000.002,0,RJOH,,,,0,20180108090000,-1,-1,-1,-1,200,-1,3,-1,-1,170,240,,9999,0,1,3,FEW 4   BKN 30   BKN 50,1,8,1,6,1003,RJOH 080900Z 20003KT 170V240 9999 -SHRA FEW004 BKN030 BKN050     08/06 Q1003 RMK 1ST004 6CU030 7SC050 A2962=,- RA SH
20180108_100000.000,0,RJOH,,,,0,20180108100000,-1,-1,-1,-1,999,-1,1,-1,-1,-1,-1,,9999,0,1,3,FEW 10   BKN 30   BKN 50,1,9,1,7,1002,RJOH 081000Z VRB01KT 9999 -SHRA FEW010 BKN030 BKN050 09/07     Q1002 RMK 1CU010 6CU030 7SC050 A2959=,- RA SH
20180108_100000.002,0,RJOH,,,,0,20180108100000,-1,-1,-1,-1,999,-1,1,-1,-1,-1,-1,,9999,0,1,3,FEW 10   BKN 30   BKN 50,1,9,1,7,1002,RJOH 081000Z VRB01KT 9999 -SHRA FEW010 BKN030 BKN050 09/07     Q1002 RMK 1CU010 6CU030 7SC050 A2959=,- RA SH
20180108_110000.000,0,RJOH,,,,0,20180108110000,-1,-1,-1,-1,260,-1,4,-1,-1,-1,-1,,9999,0,1,3,FEW 10   BKN 30   BKN 50,1,8,1,6,1002,RJOH 081100Z 26004KT 9999 -SHRA FEW010 BKN030 BKN050 08/06     Q1002 RMK 1CU010 6CU030 7SC050 A2959=,- RA SH
20180108_110000.002,0,RJOH,,,,0,20180108110000,-1,-1,-1,-1,260,-1,4,-1,-1,-1,-1,,9999,0,1,3,FEW 10   BKN 30   BKN 50,1,8,1,6,1002,RJOH 081100Z 26004KT 9999 -SHRA FEW010 BKN030 BKN050 08/06     Q1002 RMK 1CU010 6CU030 7SC050 A2959=,- RA SH
20180108_120000.000,0,RJOH,,,,0,20180108120000,-1,-1,-1,-1,999,-1,2,-1,-1,-1,-1,,9999,0,1,3,FEW 10   BKN 30   BKN 50,1,8,1,6,1001,RJOH 081200Z VRB02KT 9999 -SHRA FEW010 BKN030 BKN050 08/06     Q1001 RMK 1CU010 6CU030 7SC050 A2958 VIS SW-N 5KM=,- RA SH
20180108_120000.002,0,RJOH,,,,0,20180108120000,-1,-1,-1,-1,999,-1,2,-1,-1,-1,-1,,9999,0,1,3,FEW 10   BKN 30   BKN 50,1,8,1,6,1001,RJOH 081200Z VRB02KT 9999 -SHRA FEW010 BKN030 BKN050 08/06     Q1001 RMK 1CU010 6CU030 7SC050 A2958 VIS SW-N 5KM=,- RA SH
20180108_130000.000,0,RJOH,,,,0,20180108130000,-1,-1,-1,-1,270,-1,7,-1,-1,-1,-1,,8000,0,1,3,FEW 10   BKN 25   BKN 30,1,9,1,7,1001,RJOH 081300Z 27007KT 8000 -SHRA FEW010 BKN025 BKN030 09/07     Q1001 RMK 1CU010 5CU025 7CU030 A2958=,- RA SH
20180108_130000.003,0,RJOH,,,,0,20180108130000,-1,-1,-1,-1,270,-1,7,-1,-1,-1,-1,,8000,0,1,3,FEW 10   BKN 25   BKN 30,1,9,1,7,1001,RJOH 081300Z 27007KT 8000 -SHRA FEW010 BKN025 BKN030 09/07     Q1001 RMK 1CU010 5CU025 7CU030 A2958=,- RA SH
20180108_140000.000,0,RJOH,,,,0,20180108140000,-1,-1,-1,-1,260,-1,14,-1,-1,-1,-1,,9999,0,1,3,FEW 8   SCT 15   BKN 25,1,10,1,7,1002,RJOH 081400Z 26014KT 9999 -SHRA FEW008 SCT015 BKN025 10/07     Q1002 RMK 1CU008 3CU015 7CU025 A2959=,- RA SH
20180108_140000.002,0,RJOH,,,,0,20180108140000,-1,-1,-1,-1,260,-1,14,-1,-1,-1,-1,,9999,0,1,3,FEW 8   SCT 15   BKN 25,1,10,1,7,1002,RJOH 081400Z 26014KT 9999 -SHRA FEW008 SCT015 BKN025 10/07     Q1002 RMK 1CU008 3CU015 7CU025 A2959=,- RA SH
20180108_150000.000,0,RJOH,,,,0,20180108150000,-1,-1,-1,-1,260,-1,18,-1,-1,-1,-1,,9999,0,1,3,FEW 10   BKN 15   BKN 25,1,8,1,5,1003,RJOH 081500Z 26018KT 9999 -SHRA FEW010 BKN015 BKN025 08/05     Q1003 RMK 1CU010 6CU015 7CU025 A2962 MAX WIND 26KT=,- RA SH
20180108_150000.002,0,RJOH,,,,0,20180108150000,-1,-1,-1,-1,260,-1,18,-1,-1,-1,-1,,9999,0,1,3,FEW 10   BKN 15   BKN 25,1,8,1,5,1003,RJOH 081500Z 26018KT 9999 -SHRA FEW010 BKN015 BKN025 08/05     Q1003 RMK 1CU010 6CU015 7CU025 A2962 MAX WIND 26KT=,- RA SH
20180108_160000.000,0,RJOH,,,,0,20180108160000,-1,-1,-1,-1,250,-1,18,-1,-1,-1,-1,,9999,0,1,3,FEW 15   BKN 25   BKN 45,1,8,1,3,1003,RJOH 081600Z 25018KT 9999 -SHRA FEW015 BKN025 BKN045 08/03     Q1003 RMK 1CU015 5CU025 7SC045 A2963=,- RA SH
20180108_160000.002,0,RJOH,,,,0,20180108160000,-1,-1,-1,-1,250,-1,18,-1,-1,-1,-1,,9999,0,1,3,FEW 15   BKN 25   BKN 45,1,8,1,3,1003,RJOH 081600Z 25018KT 9999 -SHRA FEW015 BKN025 BKN045 08/03     Q1003 RMK 1CU015 5CU025 7SC045 A2963=,- RA SH
20180108_170000.000,0,RJOH,,,,0,20180108170000,-1,-1,-1,-1,250,-1,10,-1,-1,-1,-1,,9999,0,1,3,FEW 15   BKN 30   BKN 45,1,7,1,3,1003,RJOH 081700Z 25010KT 9999 -SHRA FEW015 BKN030 BKN045 07/03     Q1003 RMK 1CU015 5CU030 7SC045 A2964=,- RA SH
20180108_170000.002,0,RJOH,,,,0,20180108170000,-1,-1,-1,-1,250,-1,10,-1,-1,-1,-1,,9999,0,1,3,FEW 15   BKN 30   BKN 45,1,7,1,3,1003,RJOH 081700Z 25010KT 9999 -SHRA FEW015 BKN030 BKN045 07/03     Q1003 RMK 1CU015 5CU030 7SC045 A2964=,- RA SH
20180108_180000.000,0,RJOH,,,,0,20180108180000,-1,-1,-1,-1,260,-1,11,-1,-1,-1,-1,,9999,0,1,3,FEW 15   BKN 25   BKN 45,1,7,1,3,1003,RJOH 081800Z 26011KT 9999 -SHRA FEW015 BKN025 BKN045 07/03     Q1003 RMK 1CU015 5CU025 7SC045 A2963=,- RA SH
20180108_180000.002,0,RJOH,,,,0,20180108180000,-1,-1,-1,-1,260,-1,11,-1,-1,-1,-1,,9999,0,1,3,FEW 15   BKN 25   BKN 45,1,7,1,3,1003,RJOH 081800Z 26011KT 9999 -SHRA FEW015 BKN025 BKN045 07/03     Q1003 RMK 1CU015 5CU025 7SC045 A2963=,- RA SH
20180108_190000.000,0,RJOH,,,,0,20180108190000,-1,-1,-1,-1,230,-1,13,-1,-1,-1,-1,,9999,0,1,3,FEW 15   BKN 25   BKN 45,1,6,1,3,1003,RJOH 081900Z 23013KT 9999 -SHRA FEW015 BKN025 BKN045 06/03     Q1003 RMK 1CU015 5CU025 7SC045 A2963=,- RA SH
20180108_190000.002,0,RJOH,,,,0,20180108190000,-1,-1,-1,-1,230,-1,13,-1,-1,-1,-1,,9999,0,1,3,FEW 15   BKN 25   BKN 45,1,6,1,3,1003,RJOH 081900Z 23013KT 9999 -SHRA FEW015 BKN025 BKN045 06/03     Q1003 RMK 1CU015 5CU025 7SC045 A2963=,- RA SH
20180108_200000.000,0,RJOH,,,,0,20180108200000,-1,-1,-1,-1,250,-1,14,-1,-1,-1,-1,,9999,0,1,3,FEW 10   SCT 15   BKN 25,1,6,1,3,1003,RJOH 082000Z 25014KT 9999 -SHRA FEW010 SCT015 BKN025 06/03     Q1003 RMK 1CU010 3CU015 5CU025 A2962=,- RA SH
20180108_200000.002,0,RJOH,,,,0,20180108200000,-1,-1,-1,-1,250,-1,14,-1,-1,-1,-1,,9999,0,1,3,FEW 10   SCT 15   BKN 25,1,6,1,3,1003,RJOH 082000Z 25014KT 9999 -SHRA FEW010 SCT015 BKN025 06/03     Q1003 RMK 1CU010 3CU015 5CU025 A2962=,- RA SH
20180108_210000.000,0,RJOH,,,,0,20180108210000,-1,-1,-1,-1,270,-1,20,-1,-1,-1,-1,,9999,0,1,3,FEW 15   SCT 25   BKN 50,1,6,1,2,1004,RJOH 082100Z 27020KT 9999 -SHRA FEW015 SCT025 BKN050 06/02     Q1004 RMK 1CU015 3CU025 7SC050 A2965 26035KT/2030 11/06           R009=,- RA SH
20180108_210000.003,0,RJOH,,,,0,20180108210000,-1,-1,-1,-1,270,-1,20,-1,-1,-1,-1,,9999,0,1,3,FEW 15   SCT 25   BKN 50,1,6,1,2,1004,RJOH 082100Z 27020KT 9999 -SHRA FEW015 SCT025 BKN050 06/02     Q1004 RMK 1CU015 3CU025 7SC050 A2965 26035KT/2030 11/06           R009=,- RA SH
20180108_220000.000,0,RJOH,,,,0,20180108220000,-1,-1,-1,-1,260,-1,16,-1,-1,-1,-1,,9999,0,1,3,FEW 10   SCT 25   BKN 50,1,7,1,0,1003,RJOH 082200Z 26016KT 9999 -SHRA FEW010 SCT025 BKN050 07/00     Q1003 RMK 1CU010 3CU025 7SC050 A2964 MAX WIND 24KT=,- RA SH
20180108_220000.002,0,RJOH,,,,0,20180108220000,-1,-1,-1,-1,260,-1,16,-1,-1,-1,-1,,9999,0,1,3,FEW 10   SCT 25   BKN 50,1,7,1,0,1003,RJOH 082200Z 26016KT 9999 -SHRA FEW010 SCT025 BKN050 07/00     Q1003 RMK 1CU010 3CU025 7SC050 A2964 MAX WIND 24KT=,- RA SH
20180108_220000.005,2,RJOH,,,,0,20180108220000,-1,-1,-1,-1,260,-1,16,-1,-1,-1,-1,,9999,0,1,3,FEW 10   SCT 25   BKN 50,1,7,1,0,1003,RJOH 082200Z 26016KT 9999 -SHRA FEW010 SCT025 BKN050 07/00     Q1003 RMK 1CU010 3CU025 7SC050 A2964 MAX WIND 24KT=,- RA SH
20180108_230000.000,0,RJOH,,,,0,20180108230000,-1,-1,-1,-1,250,-1,26,-1,47,-1,-1,,8000,0,1,3,FEW 10   BKN 25   BKN 50,1,5,-1,1,1004,RJOH 082300Z 25026G47KT 8000 -SHRA FEW010 BKN025 BKN050 05/M01     Q1004 RMK 1CU010 5CU025 7SC050 A2966 VIS SW 10KM=,- RA SH
20180108_230000.003,0,RJOH,,,,0,20180108230000,-1,-1,-1,-1,250,-1,26,-1,47,-1,-1,,8000,0,1,3,FEW 10   BKN 25   BKN 50,1,5,-1,1,1004,RJOH 082300Z 25026G47KT 8000 -SHRA FEW010 BKN025 BKN050 05/M01     Q1004 RMK 1CU010 5CU025 7SC050 A2966 VIS SW 10KM=,- RA SH
20180109_000000.000,0,RJOH,,,,0,20180109000000,-1,-1,-1,-1,260,-1,22,-1,34,-1,-1,,9999,0,1,3,FEW 10   BKN 25   BKN 50,1,5,-1,1,1005,RJOH 090000Z 26022G34KT 9999 -SHRASN FEW010 BKN025 BKN050     05/M01 Q1005 RMK 1CU010 6CU025 7SC050 A2969=,- RA SN SH
20180109_000000.002,0,RJOH,,,,0,20180109000000,-1,-1,-1,-1,260,-1,22,-1,34,-1,-1,,9999,0,1,3,FEW 10   BKN 25   BKN 50,1,5,-1,1,1005,RJOH 090000Z 26022G34KT 9999 -SHRASN FEW010 BKN025 BKN050     05/M01 Q1005 RMK 1CU010 6CU025 7SC050 A2969=,- RA SN SH
20180109_010000.000,0,RJOH,,,,0,20180109010000,-1,-1,-1,-1,270,-1,24,-1,37,-1,-1,,9999,0,1,3,FEW 15   BKN 25   BKN 50,1,4,-1,0,1007,RJOH 090100Z 27024G37KT 9999 -SHRASN FEW015 BKN025 BKN050     04/M00 Q1007 RMK 2CU015 6CU025 7SC050 A2974=,- RA SN SH
20180109_010000.002,0,RJOH,,,,0,20180109010000,-1,-1,-1,-1,270,-1,24,-1,37,-1,-1,,9999,0,1,3,FEW 15   BKN 25   BKN 50,1,4,-1,0,1007,RJOH 090100Z 27024G37KT 9999 -SHRASN FEW015 BKN025 BKN050     04/M00 Q1007 RMK 2CU015 6CU025 7SC050 A2974=,- RA SN SH
20180109_020000.000,0,RJOH,,,,0,20180109020000,-1,-1,-1,-1,270,-1,26,-1,40,-1,-1,,9999,0,1,3,FEW 10   BKN 25   BKN 50,1,5,-1,4,1006,RJOH 090200Z 27026G40KT 9999 -SHRASN FEW010 BKN025 BKN050     05/M04 Q1006 RMK 1CU010 6CU025 7SC050 A2973=,- RA SN SH
20180109_020000.002,0,RJOH,,,,0,20180109020000,-1,-1,-1,-1,270,-1,26,-1,40,-1,-1,,9999,0,1,3,FEW 10   BKN 25   BKN 50,1,5,-1,4,1006,RJOH 090200Z 27026G40KT 9999 -SHRASN FEW010 BKN025 BKN050     05/M04 Q1006 RMK 1CU010 6CU025 7SC050 A2973=,- RA SN SH
20180109_030000.000,0,RJOH,,,,0,20180109030000,-1,-1,-1,-1,260,-1,25,-1,39,-1,-1,,9999,0,1,3,FEW 10   BKN 30   BKN 50,1,6,-1,6,1006,RJOH 090300Z 26025G39KT 9999 -SHRASN FEW010 BKN030 BKN050     06/M06 Q1006 RMK 1CU010 5CU030 7SC050 A2972=,- RA SN SH
20180109_030000.002,0,RJOH,,,,0,20180109030000,-1,-1,-1,-1,260,-1,25,-1,39,-1,-1,,9999,0,1,3,FEW 10   BKN 30   BKN 50,1,6,-1,6,1006,RJOH 090300Z 26025G39KT 9999 -SHRASN FEW010 BKN030 BKN050     06/M06 Q1006 RMK 1CU010 5CU030 7SC050 A2972=,- RA SN SH
20180109_040000.000,0,RJOH,,,,0,20180109040000,-1,-1,-1,-1,270,-1,24,-1,35,-1,-1,,9999,0,0,3,FEW 10   SCT 30   BKN 50,1,6,-1,6,1006,RJOH 090400Z 27024G35KT 9999 FEW010 SCT030 BKN050 06/M06 Q1006     RMK 1CU010 3CU030 5SC050 A2972=,
20180109_040000.002,0,RJOH,,,,0,20180109040000,-1,-1,-1,-1,270,-1,24,-1,35,-1,-1,,9999,0,0,3,FEW 10   SCT 30   BKN 50,1,6,-1,6,1006,RJOH 090400Z 27024G35KT 9999 FEW010 SCT030 BKN050 06/M06 Q1006     RMK 1CU010 3CU030 5SC050 A2972=,
20180109_050000.000,0,RJOH,,,,0,20180109050000,-1,-1,-1,-1,270,-1,24,-1,35,-1,-1,,9999,0,0,2,FEW 30   BKN 50,1,6,-1,7,1007,RJOH 090500Z 27024G35KT 9999 FEW030 BKN050 06/M07 Q1007 RMK     2CU030 5SC050 A2974=,
20180109_050000.002,0,RJOH,,,,0,20180109050000,-1,-1,-1,-1,270,-1,24,-1,35,-1,-1,,9999,0,0,2,FEW 30   BKN 50,1,6,-1,7,1007,RJOH 090500Z 27024G35KT 9999 FEW030 BKN050 06/M07 Q1007 RMK     2CU030 5SC050 A2974=,
20180109_060000.000,0,RJOH,,,,0,20180109060000,-1,-1,-1,-1,270,-1,23,-1,33,-1,-1,,9999,0,1,3,FEW 15   BKN 30   BKN 50,1,6,-1,6,1008,RJOH 090600Z 27023G33KT 9999 -SHSN FEW015 BKN030 BKN050 06/M06     Q1008 RMK 1CU015 5CU030 7SC050 A2977=,- SN SH
20180109_060000.002,0,RJOH,,,,0,20180109060000,-1,-1,-1,-1,270,-1,23,-1,33,-1,-1,,9999,0,1,3,FEW 15   BKN 30   BKN 50,1,6,-1,6,1008,RJOH 090600Z 27023G33KT 9999 -SHSN FEW015 BKN030 BKN050 06/M06     Q1008 RMK 1CU015 5CU030 7SC050 A2977=,- SN SH
20180109_070000.000,0,RJOH,,,,0,20180109070000,-1,-1,-1,-1,270,-1,20,-1,30,-1,-1,,9999,0,0,3,FEW 15   SCT 35   BKN 50,1,5,-1,7,1009,RJOH 090700Z 27020G30KT 9999 FEW015 SCT035 BKN050 05/M07 Q1009     RMK 1CU015 3CU035 6SC050 A2980=,
20180109_070000.002,0,RJOH,,,,0,20180109070000,-1,-1,-1,-1,270,-1,20,-1,30,-1,-1,,9999,0,0,3,FEW 15   SCT 35   BKN 50,1,5,-1,7,1009,RJOH 090700Z 27020G30KT 9999 FEW015 SCT035 BKN050 05/M07 Q1009     RMK 1CU015 3CU035 6SC050 A2980=,
20180109_080000.000,0,RJOH,,,,0,20180109080000,-1,-1,-1,-1,260,-1,14,-1,-1,-1,-1,,9999,0,0,3,FEW 10   BKN 40   BKN 50,1,5,-1,7,1009,RJOH 090800Z 26014KT 9999 FEW010 BKN040 BKN050 05/M07 Q1009 RMK     1CU010 5CU040 7SC050 A2981=,
20180109_080000.002,0,RJOH,,,,0,20180109080000,-1,-1,-1,-1,260,-1,14,-1,-1,-1,-1,,9999,0,0,3,FEW 10   BKN 40   BKN 50,1,5,-1,7,1009,RJOH 090800Z 26014KT 9999 FEW010 BKN040 BKN050 05/M07 Q1009     RMK 1CU010 5CU040 7SC050 A2981=,
20180109_090000.000,0,RJOH,,,,0,20180109090000,-1,-1,-1,-1,260,-1,18,-1,-1,-1,-1,,9999,0,0,3,FEW 15   BKN 40   BKN 60,1,5,-1,8,1010,RJOH 090900Z 26018KT 9999 FEW015 BKN040 BKN060 05/M08 Q1010 RMK     1CU015 5CU040 6SC060 A2983 MAX WIND 26KT=,
20180109_090000.002,0,RJOH,,,,0,20180109090000,-1,-1,-1,-1,260,-1,18,-1,-1,-1,-1,,9999,0,0,3,FEW 15   BKN 40   BKN 60,1,5,-1,8,1010,RJOH 090900Z 26018KT 9999 FEW015 BKN040 BKN060 05/M08 Q1010     RMK 1CU015 5CU040 6SC060 A2983 MAX WIND 26KT=,
20180109_100000.000,0,RJOH,,,,0,20180109100000,-1,-1,-1,-1,260,-1,15,-1,-1,-1,-1,,9999,0,0,3,FEW 20   SCT 40   BKN 60,1,5,-1,7,1010,RJOH 091000Z 26015KT 9999 FEW020 SCT040 BKN060 05/M07 Q1010 RMK     1CU020 4CU040 6SC060 A2985=,
20180109_100000.002,0,RJOH,,,,0,20180109100000,-1,-1,-1,-1,260,-1,15,-1,-1,-1,-1,,9999,0,0,3,FEW 20   SCT 40   BKN 60,1,5,-1,7,1010,RJOH 091000Z 26015KT 9999 FEW020 SCT040 BKN060 05/M07 Q1010     RMK 1CU020 4CU040 6SC060 A2985=,
20180109_110000.000,0,RJOH,,,,0,20180109110000,-1,-1,-1,-1,250,-1,17,-1,-1,-1,-1,,9999,0,0,3,FEW 20   SCT 40   BKN 60,1,5,-1,8,1011,RJOH 091100Z 25017KT 9999 FEW020 SCT040 BKN060 05/M08 Q1011 RMK     1CU020 3CU040 6SC060 A2986=,
20180109_110000.002,0,RJOH,,,,0,20180109110000,-1,-1,-1,-1,250,-1,17,-1,-1,-1,-1,,9999,0,0,3,FEW 20   SCT 40   BKN 60,1,5,-1,8,1011,RJOH 091100Z 25017KT 9999 FEW020 SCT040 BKN060 05/M08 Q1011     RMK 1CU020 3CU040 6SC060 A2986=,
20180109_120000.000,0,RJOH,,,,0,20180109120000,-1,-1,-1,-1,190,-1,10,-1,-1,170,230,,9999,0,0,3,FEW 20   SCT 40   BKN 60,1,4,-1,4,1011,RJOH 091200Z 19010KT 170V230 9999 FEW020 SCT040 BKN060 04/M04     Q1011 RMK 1CU020 3CU040 7SC060 A2987=,
20180109_120000.002,0,RJOH,,,,0,20180109120000,-1,-1,-1,-1,190,-1,10,-1,-1,170,230,,9999,0,0,3,FEW 20   SCT 40   BKN 60,1,4,-1,4,1011,RJOH 091200Z 19010KT 170V230 9999 FEW020 SCT040 BKN060 04/M04     Q1011 RMK 1CU020 3CU040 7SC060 A2987=,
20180109_130000.000,0,RJOH,,,,0,20180109130000,-1,-1,-1,-1,260,-1,18,-1,30,-1,-1,,9999,0,1,3,FEW 20   BKN 35   BKN 50,1,5,-1,6,1011,RJOH 091300Z 26018G30KT 9999 -SHRASN FEW020 BKN035 BKN050     05/M06 Q1011 RMK 1CU020 5CU035 7SC050 A2987=,- RA SN SH
20180109_130000.002,0,RJOH,,,,0,20180109130000,-1,-1,-1,-1,260,-1,18,-1,30,-1,-1,,9999,0,1,3,FEW 20   BKN 35   BKN 50,1,5,-1,6,1011,RJOH 091300Z 26018G30KT 9999 -SHRASN FEW020 BKN035 BKN050     05/M06 Q1011 RMK 1CU020 5CU035 7SC050 A2987=,- RA SN SH
20180109_140000.000,0,RJOH,,,,0,20180109140000,-1,-1,-1,-1,280,-1,15,-1,26,-1,-1,,9999,0,1,3,FEW 20   BKN 30   BKN 50,1,4,-1,4,1011,RJOH 091400Z 28015G26KT 9999 -SHSNRA FEW020 BKN030 BKN050     04/M04 Q1011 RMK 1CU020 5CU030 7SC050 A2988=,- SN RA SH
20180109_140000.002,0,RJOH,,,,0,20180109140000,-1,-1,-1,-1,280,-1,15,-1,26,-1,-1,,9999,0,1,3,FEW 20   BKN 30   BKN 50,1,4,-1,4,1011,RJOH 091400Z 28015G26KT 9999 -SHSNRA FEW020 BKN030 BKN050     04/M04 Q1011 RMK 1CU020 5CU030 7SC050 A2988=,- SN RA SH
20180109_150000.000,0,RJOH,,,,0,20180109150000,-1,-1,-1,-1,280,-1,13,-1,28,250,310,,9999,0,1,3,FEW 20   SCT 30   BKN 50,1,4,-1,4,1011,RJOH 091500Z 28013G28KT 250V310 9999 -SHSNRA FEW020 SCT030     BKN050 04/M04 Q1011 RMK 1CU020 4CU030 6SC050 A2987=,- SN RA SH
20180109_150000.002,0,RJOH,,,,0,20180109150000,-1,-1,-1,-1,280,-1,13,-1,28,250,310,,9999,0,1,3,FEW 20   SCT 30   BKN 50,1,4,-1,4,1011,RJOH 091500Z 28013G28KT 250V310 9999 -SHSNRA FEW020 SCT030     BKN050 04/M04 Q1011 RMK 1CU020 4CU030 6SC050 A2987=,- SN RA SH
20180109_160000.000,0,RJOH,,,,0,20180109160000,-1,-1,-1,-1,220,-1,8,-1,-1,-1,-1,,9999,0,0,3,FEW 20   SCT 30   BKN 50,1,4,-1,3,1011,RJOH 091600Z 22008KT 9999 FEW020 SCT030 BKN050 04/M03 Q1011 RMK     1CU020 3CU030 7SC050 A2988=,
20180109_160000.002,0,RJOH,,,,0,20180109160000,-1,-1,-1,-1,220,-1,8,-1,-1,-1,-1,,9999,0,0,3,FEW 20   SCT 30   BKN 50,1,4,-1,3,1011,RJOH 091600Z 22008KT 9999 FEW020 SCT030 BKN050 04/M03 Q1011     RMK 1CU020 3CU030 7SC050 A2988=,
20180109_170000.000,0,RJOH,,,,0,20180109170000,-1,-1,-1,-1,220,-1,16,-1,-1,-1,-1,,9999,0,0,3,FEW 20   SCT 30   BKN 50,1,4,-1,2,1012,RJOH 091700Z 22016KT 9999 FEW020 SCT030 BKN050 04/M02 Q1012 RMK     1CU020 3CU030 7SC050 A2989=,
20180109_170000.002,0,RJOH,,,,0,20180109170000,-1,-1,-1,-1,220,-1,16,-1,-1,-1,-1,,9999,0,0,3,FEW 20   SCT 30   BKN 50,1,4,-1,2,1012,RJOH 091700Z 22016KT 9999 FEW020 SCT030 BKN050 04/M02 Q1012     RMK 1CU020 3CU030 7SC050 A2989=,
20180109_180000.000,0,RJOH,,,,0,20180109180000,-1,-1,-1,-1,240,-1,6,-1,-1,210,270,,9999,0,1,3,FEW 20   BKN 30   BKN 50,1,3,-1,2,1012,RJOH 091800Z 24006KT 210V270 9999 -SHSNRA FEW020 BKN030 BKN050     03/M02 Q1012 RMK 1CU020 5CU030 7SC050 A2989=,- SN RA SH
20180109_180000.002,0,RJOH,,,,0,20180109180000,-1,-1,-1,-1,240,-1,6,-1,-1,210,270,,9999,0,1,3,FEW 20   BKN 30   BKN 50,1,3,-1,2,1012,RJOH 091800Z 24006KT 210V270 9999 -SHSNRA FEW020 BKN030 BKN050     03/M02 Q1012 RMK 1CU020 5CU030 7SC050 A2989=,- SN RA SH
20180109_190000.000,0,RJOH,,,,0,20180109190000,-1,-1,-1,-1,220,-1,12,-1,-1,-1,-1,,9999,0,1,3,FEW 20   SCT 30   BKN 50,1,3,-1,2,1012,RJOH 091900Z 22012KT 9999 -SHSNRA FEW020 SCT030 BKN050 03/M02     Q1012 RMK 1CU020 4CU030 7SC050 A2988=,- SN RA SH
20180109_190000.003,0,RJOH,,,,0,20180109190000,-1,-1,-1,-1,220,-1,12,-1,-1,-1,-1,,9999,0,1,3,FEW 20   SCT 30   BKN 50,1,3,-1,2,1012,RJOH 091900Z 22012KT 9999 -SHSNRA FEW020 SCT030 BKN050 03/M02     Q1012 RMK 1CU020 4CU030 7SC050 A2988=,- SN RA SH
20180109_200000.000,0,RJOH,,,,0,20180109200000,-1,-1,-1,-1,210,-1,17,-1,-1,-1,-1,,1500,1,1,4,FEW 5   BKN 8   BKN 20   SCT 25 TCU,1,1,-1,2,1012,RJOH 092000Z 21017KT 1500 R25/P1800N -SHSNRAGS FEW005 BKN008     BKN020 SCT025TCU 01/M02 Q1012 RMK 1CU005 5CU008 7CU020           3TCU025 A2990 VIS S-W 800M TCU OHD MOV E SMALL HAIL=,- SN, RA GS SH
20180109_200000.002,0,RJOH,,,,0,20180109200000,-1,-1,-1,-1,210,-1,17,-1,-1,-1,-1,,1500,1,1,4,FEW 5   BKN 8   BKN 20   SCT 25 TCU,1,1,-1,2,1012,RJOH 092000Z 21017KT 1500 R25/P1800N -SHSNRAGS FEW005 BKN008     BKN020 SCT025TCU 01/M02 Q1012 RMK 1CU005 5CU008 7CU020           3TCU025 A2990 VIS S-W 800M TCU OHD MOV E SMALL HAIL=,- SN, RA GS SH
20180109_210000.000,0,RJOH,,,,0,20180109210000,-1,-1,-1,-1,999,-1,2,-1,-1,-1,-1,,9999,0,1,3,FEW 15   BKN 30   BKN 50,1,1,-1,1,1012,RJOH 092100Z VRB02KT 9999 -SHSNRA FEW015 BKN030 BKN050 01/M01     Q1012 RMK 2CU015 5CU030 7SC050 A2988 27048KT/0310 07/01           R002 S000=,- SN RA SH
20180109_210000.002,0,RJOH,,,,0,20180109210000,-1,-1,-1,-1,999,-1,2,-1,-1,-1,-1,,9999,0,1,3,FEW 15   BKN 30   BKN 50,1,1,-1,1,1012,RJOH 092100Z VRB02KT 9999 -SHSNRA FEW015 BKN030 BKN050 01/M01     Q1012 RMK 2CU015 5CU030 7SC050 A2988 27048KT/0310 07/01           R002 S000=,- SN RA SH
20180109_220000.000,0,RJOH,,,,0,20180109220000,-1,-1,-1,-1,200,-1,8,-1,-1,-1,-1,,9999,0,1,3,FEW 8   BKN 30   BKN 50,1,2,-1,1,1011,RJOH 092200Z 20008KT 9999 -SHRASN FEW008 BKN030 BKN050 02/M01     Q1011 RMK 1CU008 5CU030 7SC050 A2987 1CU008 SW=,- RA SN SH
20180109_220000.002,0,RJOH,,,,0,20180109220000,-1,-1,-1,-1,200,-1,8,-1,-1,-1,-1,,9999,0,1,3,FEW 8   BKN 30   BKN 50,1,2,-1,1,1011,RJOH 092200Z 20008KT 9999 -SHRASN FEW008 BKN030 BKN050 02/M01     Q1011 RMK 1CU008 5CU030 7SC050 A2987 1CU008 SW=,- RA SN SH
20180109_230000.000,0,RJOH,,,,0,20180109230000,-1,-1,-1,-1,180,-1,11,-1,-1,-1,-1,,9999,0,1,3,FEW 8   BKN 20   BKN 35,1,2,-1,1,1012,RJOH 092300Z 18011KT 9999 -SHRASN FEW008 BKN020 BKN035 02/M01     Q1012 RMK 1CU008 5CU020 6CU035 A2988 1CU008 SW=,- RA SN SH
20180109_230000.002,0,RJOH,,,,0,20180109230000,-1,-1,-1,-1,180,-1,11,-1,-1,-1,-1,,9999,0,1,3,FEW 8   BKN 20   BKN 35,1,2,-1,1,1012,RJOH 092300Z 18011KT 9999 -SHRASN FEW008 BKN020 BKN035 02/M01     Q1012 RMK 1CU008 5CU020 6CU035 A2988 1CU008 SW=,- RA SN SH
20180110_000000.000,0,RJOH,,,,0,20180110000000,-1,-1,-1,-1,190,-1,14,-1,-1,-1,-1,,9999,0,1,3,FEW 8   BKN 20   BKN 35,1,2,-1,1,1012,RJOH 100000Z 19014KT 9999 -SHRASN FEW008 BKN020 BKN035 02/M01     Q1012 RMK 1CU008 5CU020 7CU035 A2990=,- RA SN SH
20180110_000000.002,0,RJOH,,,,0,20180110000000,-1,-1,-1,-1,190,-1,14,-1,-1,-1,-1,,9999,0,1,3,FEW 8   BKN 20   BKN 35,1,2,-1,1,1012,RJOH 100000Z 19014KT 9999 -SHRASN FEW008 BKN020 BKN035 02/M01     Q1012 RMK 1CU008 5CU020 7CU035 A2990=,- RA SN SH
20180110_010000.000,0,RJOH,,,,0,20180110010000,-1,-1,-1,-1,180,-1,13,-1,-1,-1,-1,,9999,0,1,3,FEW 8   BKN 20   OVC 30,1,2,-1,1,1012,RJOH 100100Z 18013KT 9999 -SHRASN FEW008 BKN020 OVC030 02/M01     Q1012 RMK 1CU008 5CU020 8CU030 A2990 VIS S 6KM 1CU008 SW=,- RA SN SH
20180110_010000.002,0,RJOH,,,,0,20180110010000,-1,-1,-1,-1,180,-1,13,-1,-1,-1,-1,,9999,0,1,3,FEW 8   BKN 20   OVC 30,1,2,-1,1,1012,RJOH 100100Z 18013KT 9999 -SHRASN FEW008 BKN020 OVC030 02/M01     Q1012 RMK 1CU008 5CU020 8CU030 A2990 VIS S 6KM 1CU008 SW=,- RA SN SH
20180110_020000.000,0,RJOH,,,,0,20180110020000,-1,-1,-1,-1,180,-1,12,-1,-1,-1,-1,,9999,0,1,3,FEW 8   BKN 20   OVC 30,1,2,-1,0,1012,RJOH 100200Z 18012KT 9999 -SHRASN FEW008 BKN020 OVC030 02/M00     Q1012 RMK 1CU008 5CU020 8CU030 A2989 VIS S 8KM 1CU008           SW-W=,- RA SN SH
20180110_020000.002,0,RJOH,,,,0,20180110020000,-1,-1,-1,-1,180,-1,12,-1,-1,-1,-1,,9999,0,1,3,FEW 8   BKN 20   OVC 30,1,2,-1,0,1012,RJOH 100200Z 18012KT 9999 -SHRASN FEW008 BKN020 OVC030 02/M00     Q1012 RMK 1CU008 5CU020 8CU030 A2989 VIS S 8KM 1CU008           SW-W=,- RA SN SH
20180110_030000.000,0,RJOH,,,,0,20180110030000,-1,-1,-1,-1,210,-1,16,-1,-1,-1,-1,,9000,0,1,3,FEW 8   SCT 15   BKN 20,1,2,-1,1,1011,RJOH 100300Z 21016KT 9000 -SHRASN FEW008 SCT015 BKN020 02/M01     Q1011 RMK 1CU008 3CU015 7CU020 A2988=,- RA SN SH
20180110_030000.000,0,RJOH,,,,0,20180110030000,-1,-1,-1,-1,210,-1,16,-1,-1,-1,-1,,9000,0,1,3,FEW 8   SCT 15   BKN 20,1,2,-1,1,1012,RJOH 100300Z 21016KT 9000 -SHRASN FEW008 SCT015 BKN020 02/M01     Q1012 RMK 1CU008 3CU015 7CU020 A2989=,- RA SN SH
20180110_030000.002,0,RJOH,,,,0,20180110030000,-1,-1,-1,-1,210,-1,16,-1,-1,-1,-1,,9000,0,1,3,FEW 8   SCT 15   BKN 20,1,2,-1,1,1012,RJOH 100300Z 21016KT 9000 -SHRASN FEW008 SCT015 BKN020 02/M01     Q1012 RMK 1CU008 3CU015 7CU020 A2989=,- RA SN SH
20180110_030000.005,2,RJOH,,,,0,20180110030000,-1,-1,-1,-1,210,-1,16,-1,-1,-1,-1,,9000,0,1,3,FEW 8   SCT 15   BKN 20,1,2,-1,1,1012,RJOH 100300Z 21016KT 9000 -SHRASN FEW008 SCT015 BKN020     02/M01 Q1012 RMK 1CU008 3CU015 7CU020 A2989=,- RA SN SH
20180110_040000.000,0,RJOH,,,,0,20180110040000,-1,-1,-1,-1,260,-1,12,-1,-1,-1,-1,,1500,1,1,3,FEW 4   BKN 6   OVC 15,1,1,-1,2,1011,RJOH 100400Z 26012KT 1500 R25/P1800D -SHSN FEW004 BKN006 OVC015     01/M02 Q1011 RMK 1CU004 5CU006 8CU015 A2987 VIS W 3000M           1CU004 AAL=,- SN SH
20180110_040000.003,0,RJOH,,,,0,20180110040000,-1,-1,-1,-1,260,-1,12,-1,-1,-1,-1,,1500,1,1,3,FEW 4   BKN 6   OVC 15,1,1,-1,2,1011,RJOH 100400Z 26012KT 1500 R25/P1800D -SHSN FEW004 BKN006     OVC015 01/M02 Q1011 RMK 1CU004 5CU006 8CU015 A2987 VIS W           3000M 1CU004 AAL=,- SN SH
20180110_050000.000,0,RJOH,,,,0,20180110050000,-1,-1,-1,-1,220,-1,9,-1,-1,-1,-1,,1500,1,1,3,FEW 3   BKN 6   OVC 15,1,1,-1,2,1011,RJOH 100500Z 22009KT 1500 R25/1700U -SHSN FEW003 BKN006 OVC015     01/M02 Q1011 RMK 1CU003 6CU006 8CU015 A2987 1CU003 AAL=,- SN SH
20180110_050000.002,0,RJOH,,,,0,20180110050000,-1,-1,-1,-1,220,-1,9,-1,-1,-1,-1,,1500,1,1,3,FEW 3   BKN 6   OVC 15,1,1,-1,2,1011,RJOH 100500Z 22009KT 1500 R25/1700U -SHSN FEW003 BKN006 OVC015     01/M02 Q1011 RMK 1CU003 6CU006 8CU015 A2987 1CU003 AAL=,- SN SH
20180110_060000.000,0,RJOH,,,,0,20180110060000,-1,-1,-1,-1,260,-1,11,-1,-1,-1,-1,,2000,1,1,3,FEW 3   BKN 6   OVC 15,1,1,-1,2,1012,RJOH 100600Z 26011KT 2000 R25/1400VP1800U -SHSN FEW003 BKN006     OVC015 01/M02 Q1012 RMK 2CU003 5CU006 8CU015 A2990 R1800           VIS W 3000M 2CU003 AAL=,- SN SH
20180110_060000.002,0,RJOH,,,,0,20180110060000,-1,-1,-1,-1,260,-1,11,-1,-1,-1,-1,,2000,1,1,3,FEW 3   BKN 6   OVC 15,1,1,-1,2,1012,RJOH 100600Z 26011KT 2000 R25/1400VP1800U -SHSN FEW003 BKN006     OVC015 01/M02 Q1012 RMK 2CU003 5CU006 8CU015 A2990 R1800           VIS W 3000M 2CU003 AAL=,- SN SH
20180110_070000.000,0,RJOH,,,,0,20180110070000,-1,-1,-1,-1,240,-1,9,-1,-1,-1,-1,,800,1,1,3,FEW 2   SCT 3   BKN 6,1,1,-1,2,1013,RJOH 100700Z 24009KT 0800 R25/1200VP1800D SHSN FEW002 SCT003     BKN006 01/M02 Q1013 RMK 1CU002 3CU003 7CU006 A2992 R1800           1CU002 AND 3CU003 AAL=,SN SH
20180110_070000.002,0,RJOH,,,,0,20180110070000,-1,-1,-1,-1,240,-1,9,-1,-1,-1,-1,,800,1,1,3,FEW 2   SCT 3   BKN 6,1,1,-1,2,1013,RJOH 100700Z 24009KT 0800 R25/1200VP1800D SHSN FEW002 SCT003     BKN006 01/M02 Q1013 RMK 1CU002 3CU003 7CU006 A2992 R1800           1CU002 AND 3CU003 AAL=,SN SH
20180110_080000.000,0,RJOH,,,,0,20180110080000,-1,-1,-1,-1,260,-1,12,-1,-1,-1,-1,,500,1,1,3,FEW 3   BKN 6   OVC 15,1,0,-1,2,1013,RJOH 100800Z 26012KT 0500 R25/1300V1800D SHSN FEW003 BKN006     OVC015 00/M02 Q1013 RMK 2CU003 7CU006 8CU015 A2994 R1400           2CU003 AAL=,SN SH
20180110_080000.002,0,RJOH,,,,0,20180110080000,-1,-1,-1,-1,260,-1,12,-1,-1,-1,-1,,500,1,1,3,FEW 3   BKN 6   OVC 15,1,0,-1,2,1013,RJOH 100800Z 26012KT 0500 R25/1300V1800D SHSN FEW003 BKN006     OVC015 00/M02 Q1013 RMK 2CU003 7CU006 8CU015 A2994 R1400           2CU003 AAL=,SN SH
20180110_090000.000,0,RJOH,,,,0,20180110090000,-1,-1,-1,-1,260,-1,8,-1,-1,-1,-1,,500,1,1,3,SCT 3   BKN 6   OVC 15,1,0,-1,2,1014,RJOH 100900Z 26008KT 0500 R25/1400V1800D SHSN SCT003 BKN006     OVC015 00/M02 Q1014 RMK 3CU003 7CU006 8CU015 A2995 R1500           3CU003 AAL=,SN SH
20180110_090000.002,0,RJOH,,,,0,20180110090000,-1,-1,-1,-1,260,-1,8,-1,-1,-1,-1,,500,1,1,3,SCT 3   BKN 6   OVC 15,1,0,-1,2,1014,RJOH 100900Z 26008KT 0500 R25/1400V1800D SHSN SCT003 BKN006     OVC015 00/M02 Q1014 RMK 3CU003 7CU006 8CU015 A2995 R1500           3CU003 AAL=,SN SH
20180110_100000.000,0,RJOH,,,,0,20180110100000,-1,-1,-1,-1,260,-1,13,-1,-1,-1,-1,,1500,1,1,3,FEW 3   BKN 6   OVC 15,1,0,-1,2,1014,RJOH 101000Z 26013KT 1500 R25/P1800N -SHSN FEW003 BKN006 OVC015     00/M02 Q1014 RMK 1CU003 6CU006 8CU015 A2996 MAX WIND 20KT           1CU003 AAL=,- SN SH
20180110_100000.002,0,RJOH,,,,0,20180110100000,-1,-1,-1,-1,260,-1,13,-1,-1,-1,-1,,1500,1,1,3,FEW 3   BKN 6   OVC 15,1,0,-1,2,1014,RJOH 101000Z 26013KT 1500 R25/P1800N -SHSN FEW003 BKN006     OVC015 00/M02 Q1014 RMK 1CU003 6CU006 8CU015 A2996 MAX           WIND 20KT 1CU003 AAL=,- SN SH
20180110_110000.000,0,RJOH,,,,0,20180110110000,-1,-1,-1,-1,240,-1,10,-1,-1,-1,-1,,3000,0,1,3,FEW 5   SCT 6   BKN 15,1,0,-1,2,1015,RJOH 101100Z 24010KT 3000 -SHSN FEW005 SCT006 BKN015 00/M02     Q1015 RMK 1CU005 3CU006 7CU015 A2997 1CU005 AND 3CU006           AAL=,- SN SH
20180110_110000.002,0,RJOH,,,,0,20180110110000,-1,-1,-1,-1,240,-1,10,-1,-1,-1,-1,,3000,0,1,3,FEW 5   SCT 6   BKN 15,1,0,-1,2,1015,RJOH 101100Z 24010KT 3000 -SHSN FEW005 SCT006 BKN015 00/M02     Q1015 RMK 1CU005 3CU006 7CU015 A2997 1CU005 AND 3CU006           AAL=,- SN SH
20180110_120000.000,0,RJOH,,,,0,20180110120000,-1,-1,-1,-1,230,-1,11,-1,-1,210,270,,5000,0,1,3,FEW 6   BKN 15   BKN 25,1,1,-1,3,1015,RJOH 101200Z 23011KT 210V270 5000 -SHSN FEW006 BKN015 BKN025     01/M03 Q1015 RMK 1CU006 5CU015 7CU025 A2998 1CU006 AAL=,- SN SH
20180110_120000.002,0,RJOH,,,,0,20180110120000,-1,-1,-1,-1,230,-1,11,-1,-1,210,270,,5000,0,1,3,FEW 6   BKN 15   BKN 25,1,1,-1,3,1015,RJOH 101200Z 23011KT 210V270 5000 -SHSN FEW006 BKN015 BKN025     01/M03 Q1015 RMK 1CU006 5CU015 7CU025 A2998 1CU006 AAL=,- SN SH
20180110_130000.000,0,RJOH,,,,0,20180110130000,-1,-1,-1,-1,250,-1,10,-1,-1,220,280,,9999,0,1,3,FEW 8   BKN 20   BKN 30,1,1,-1,5,1015,RJOH 101300Z 25010KT 220V280 9999 -SHSN FEW008 BKN020 BKN030     01/M05 Q1015 RMK 1CU008 5CU020 7CU030 A2999=,- SN SH
20180110_130000.002,0,RJOH,,,,0,20180110130000,-1,-1,-1,-1,250,-1,10,-1,-1,220,280,,9999,0,1,3,FEW 8   BKN 20   BKN 30,1,1,-1,5,1015,RJOH 101300Z 25010KT 220V280 9999 -SHSN FEW008 BKN020 BKN030     01/M05 Q1015 RMK 1CU008 5CU020 7CU030 A2999=,- SN SH
20180110_140000.000,0,RJOH,,,,0,20180110140000,-1,-1,-1,-1,260,-1,14,-1,-1,-1,-1,,9999,0,1,3,FEW 8   BKN 20   BKN 30,1,1,-1,5,1015,RJOH 101400Z 26014KT 9999 -SHSN FEW008 BKN020 BKN030 01/M05     Q1015 RMK 1CU008 5CU020 7CU030 A2999=,- SN SH
20180110_140000.002,0,RJOH,,,,0,20180110140000,-1,-1,-1,-1,260,-1,14,-1,-1,-1,-1,,9999,0,1,3,FEW 8   BKN 20   BKN 30,1,1,-1,5,1015,RJOH 101400Z 26014KT 9999 -SHSN FEW008 BKN020 BKN030 01/M05     Q1015 RMK 1CU008 5CU020 7CU030 A2999=,- SN SH
20180110_150000.000,0,RJOH,,,,0,20180110150000,-1,-1,-1,-1,270,-1,19,-1,34,-1,-1,,9999,0,1,3,FEW 20   BKN 30   OVC 40,1,1,-1,8,1015,RJOH 101500Z 27019G34KT 9999 -SHSN FEW020 BKN030 OVC040 01/M08     Q1015 RMK 1CU020 5CU030 8CU040 A3000=,- SN SH
20180110_150000.002,0,RJOH,,,,0,20180110150000,-1,-1,-1,-1,270,-1,19,-1,34,-1,-1,,9999,0,1,3,FEW 20   BKN 30   OVC 40,1,1,-1,8,1015,RJOH 101500Z 27019G34KT 9999 -SHSN FEW020 BKN030 OVC040 01/M08     Q1015 RMK 1CU020 5CU030 8CU040 A3000=,- SN SH
20180110_160000.000,0,RJOH,,,,0,20180110160000,-1,-1,-1,-1,260,-1,20,-1,31,-1,-1,,9999,0,1,3,FEW 20   BKN 40   BKN 60,1,1,-1,9,1016,RJOH 101600Z 26020G31KT 9999 -SHSN FEW020 BKN040 BKN060 01/M09     Q1016 RMK 1CU020 5CU040 7SC060 A3001=,- SN SH
20180110_160000.002,0,RJOH,,,,0,20180110160000,-1,-1,-1,-1,260,-1,20,-1,31,-1,-1,,9999,0,1,3,FEW 20   BKN 40   BKN 60,1,1,-1,9,1016,RJOH 101600Z 26020G31KT 9999 -SHSN FEW020 BKN040 BKN060 01/M09     Q1016 RMK 1CU020 5CU040 7SC060 A3001=,- SN SH
20180110_170000.000,0,RJOH,,,,0,20180110170000,-1,-1,-1,-1,260,-1,19,-1,29,-1,-1,,9999,0,1,3,FEW 20   BKN 40   BKN 60,1,0,-1,8,1016,RJOH 101700Z 26019G29KT 9999 -SHSN FEW020 BKN040 BKN060 00/M08     Q1016 RMK 1CU020 5CU040 6SC060 A3003=,- SN SH
20180110_170000.002,0,RJOH,,,,0,20180110170000,-1,-1,-1,-1,260,-1,19,-1,29,-1,-1,,9999,0,1,3,FEW 20   BKN 40   BKN 60,1,0,-1,8,1016,RJOH 101700Z 26019G29KT 9999 -SHSN FEW020 BKN040 BKN060 00/M08     Q1016 RMK 1CU020 5CU040 6SC060 A3003=,- SN SH
20180110_180000.000,0,RJOH,,,,0,20180110180000,-1,-1,-1,-1,260,-1,23,-1,-1,-1,-1,,9999,0,1,3,FEW 20   BKN 40   BKN 60,1,0,-1,10,1017,RJOH 101800Z 26023KT 9999 -SHSN FEW020 BKN040 BKN060 00/M10     Q1017 RMK 1CU020 5CU040 6SC060 A3004=,- SN SH
20180110_180000.002,0,RJOH,,,,0,20180110180000,-1,-1,-1,-1,260,-1,23,-1,-1,-1,-1,,9999,0,1,3,FEW 20   BKN 40   BKN 60,1,0,-1,10,1017,RJOH 101800Z 26023KT 9999 -SHSN FEW020 BKN040 BKN060 00/M10     Q1017 RMK 1CU020 5CU040 6SC060 A3004=,- SN SH
20180110_190000.000,0,RJOH,,,,0,20180110190000,-1,-1,-1,-1,260,-1,22,-1,33,-1,-1,,9999,0,1,3,FEW 30   BKN 40   BKN 60,-1,1,-1,9,1017,RJOH 101900Z 26022G33KT 9999 -SHSN FEW030 BKN040 BKN060 M01/M09     Q1017 RMK 1CU030 5CU040 6SC060 A3004=,- SN SH
20180110_190000.002,0,RJOH,,,,0,20180110190000,-1,-1,-1,-1,260,-1,22,-1,33,-1,-1,,9999,0,1,3,FEW 30   BKN 40   BKN 60,-1,1,-1,9,1017,RJOH 101900Z 26022G33KT 9999 -SHSN FEW030 BKN040 BKN060     M01/M09 Q1017 RMK 1CU030 5CU040 6SC060 A3004=,- SN SH
20180110_200000.000,0,RJOH,,,,0,20180110200000,-1,-1,-1,-1,280,-1,18,-1,32,-1,-1,,5000,0,1,3,FEW 8   SCT 15   BKN 30,-1,1,-1,8,1017,RJOH 102000Z 28018G32KT 5000 -SHSN FEW008 SCT015 BKN030 M01/M08     Q1017 RMK 1CU008 3CU015 6CU030 A3005 VIS SW 2000M=,- SN SH
20180110_200000.002,0,RJOH,,,,0,20180110200000,-1,-1,-1,-1,280,-1,18,-1,32,-1,-1,,5000,0,1,3,FEW 8   SCT 15   BKN 30,-1,1,-1,8,1017,RJOH 102000Z 28018G32KT 5000 -SHSN FEW008 SCT015 BKN030     M01/M08 Q1017 RMK 1CU008 3CU015 6CU030 A3005 VIS SW           2000M=,- SN SH
20180110_210000.000,0,RJOH,,,,0,20180110210000,-1,-1,-1,-1,260,-1,22,-1,37,-1,-1,,9999,0,1,3,FEW 8   SCT 15   BKN 30,-1,2,-1,8,1018,RJOH 102100Z 26022G37KT 9999 -SHSN FEW008 SCT015 BKN030 M02/M08     Q1018 RMK 1CU008 3CU015 5CU030 A3006 1CU008 AAL           25037KT/2050 03/M02 R011 S006 SD002=,- SN SH
20180110_210000.002,0,RJOH,,,,0,20180110210000,-1,-1,-1,-1,260,-1,22,-1,37,-1,-1,,9999,0,1,3,FEW 8   SCT 15   BKN 30,-1,2,-1,8,1018,RJOH 102100Z 26022G37KT 9999 -SHSN FEW008 SCT015 BKN030     M02/M08 Q1018 RMK 1CU008 3CU015 5CU030 A3006 1CU008 AAL           25037KT/2050 03/M02 R011 S006 SD002=,- SN SH
20180110_220000.000,0,RJOH,,,,0,20180110220000,-1,-1,-1,-1,270,-1,18,-1,-1,-1,-1,,9999,0,1,3,FEW 8   SCT 15   BKN 30,-1,2,-1,8,1018,RJOH 102200Z 27018KT 9999 -SHSN FEW008 SCT015 BKN030 M02/M08     Q1018 RMK 1CU008 3CU015 5CU030 A3008 VIS NW-NE 3000M=,- SN SH
20180110_220000.002,0,RJOH,,,,0,20180110220000,-1,-1,-1,-1,270,-1,18,-1,-1,-1,-1,,9999,0,1,3,FEW 8   SCT 15   BKN 30,-1,2,-1,8,1018,RJOH 102200Z 27018KT 9999 -SHSN FEW008 SCT015 BKN030 M02/M08     Q1018 RMK 1CU008 3CU015 5CU030 A3008 VIS NW-NE 3000M=,- SN SH
20180110_230000.000,0,RJOH,,,,0,20180110230000,-1,-1,-1,-1,260,-1,19,-1,-1,-1,-1,,9999,0,1,3,FEW 8   SCT 15   BKN 30,-1,1,-1,8,1018,RJOH 102300Z 26019KT 9999 -SHSN FEW008 SCT015 BKN030 M01/M08     Q1018 RMK 1CU008 4CU015 7CU030 A3008 VIS NW-NE 3000M=,- SN SH
20180110_230000.003,0,RJOH,,,,0,20180110230000,-1,-1,-1,-1,260,-1,19,-1,-1,-1,-1,,9999,0,1,3,FEW 8   SCT 15   BKN 30,-1,1,-1,8,1018,RJOH 102300Z 26019KT 9999 -SHSN FEW008 SCT015 BKN030 M01/M08     Q1018 RMK 1CU008 4CU015 7CU030 A3008 VIS NW-NE 3000M=,- SN SH
20180111_000000.000,0,RJOH,,,,0,20180111000000,-1,-1,-1,-1,270,-1,20,-1,31,-1,-1,,9999,0,1,3,FEW 8   SCT 15   BKN 30,-1,0,-1,8,1019,RJOH 110000Z 27020G31KT 9999 -SHSN FEW008 SCT015 BKN030 M00/M08     Q1019 RMK 1CU008 4CU015 7CU030 A3010 VIS SW-N 1500M=,- SN SH
20180111_000000.002,0,RJOH,,,,0,20180111000000,-1,-1,-1,-1,270,-1,20,-1,31,-1,-1,,9999,0,1,3,FEW 8   SCT 15   BKN 30,-1,0,-1,8,1019,RJOH 110000Z 27020G31KT 9999 -SHSN FEW008 SCT015 BKN030     M00/M08 Q1019 RMK 1CU008 4CU015 7CU030 A3010 VIS SW-N           1500M=,- SN SH
20180111_010000.000,0,RJOH,,,,0,20180111010000,-1,-1,-1,-1,260,-1,21,-1,31,-1,-1,,9999,0,1,3,FEW 8   BKN 15   BKN 30,-1,0,-1,7,1019,RJOH 110100Z 26021G31KT 9999 -SHSN FEW008 BKN015 BKN030 M00/M07     Q1019 RMK 1CU008 5CU015 6CU030 A3011 VIS N-E 2000M=,- SN SH
20180111_010000.002,0,RJOH,,,,0,20180111010000,-1,-1,-1,-1,260,-1,21,-1,31,-1,-1,,9999,0,1,3,FEW 8   BKN 15   BKN 30,-1,0,-1,7,1019,RJOH 110100Z 26021G31KT 9999 -SHSN FEW008 BKN015 BKN030     M00/M07 Q1019 RMK 1CU008 5CU015 6CU030 A3011 VIS N-E           2000M=,- SN SH
20180111_020000.000,0,RJOH,,,,0,20180111020000,-1,-1,-1,-1,260,-1,23,-1,-1,-1,-1,,9999,0,1,3,FEW 8   SCT 15   BKN 30,-1,1,-1,8,1019,RJOH 110200Z 26023KT 9999 -SHSN FEW008 SCT015 BKN030 M01/M08     Q1019 RMK 1CU008 3CU015 6CU030 A3011 MAX WIND 32KT VIS           SW-W 6KM=,- SN SH
20180111_020000.002,0,RJOH,,,,0,20180111020000,-1,-1,-1,-1,260,-1,23,-1,-1,-1,-1,,9999,0,1,3,FEW 8   SCT 15   BKN 30,-1,1,-1,8,1019,RJOH 110200Z 26023KT 9999 -SHSN FEW008 SCT015 BKN030 M01/M08     Q1019 RMK 1CU008 3CU015 6CU030 A3011 MAX WIND 32KT VIS           SW-W 6KM=,- SN SH
20180111_030000.000,0,RJOH,,,,0,20180111030000,-1,-1,-1,-1,260,-1,22,-1,32,-1,-1,,1500,1,1,3,FEW 6   SCT 8   BKN 15,-1,1,-1,8,1019,RJOH 110300Z 26022G32KT 1500 R25/1000VP1800D -SHSN FEW006     SCT008 BKN015 M01/M08 Q1019 RMK 1CU006 3CU008 5CU015 A3011           R1500 VIS SW 2000M=,- SN SH
20180111_030000.001,0,RJOH,,,,0,20180111030000,-1,-1,-1,-1,260,-1,22,-1,32,-1,-1,,1500,1,1,3,FEW 6   SCT 8   BKN 15,-1,1,-1,8,1019,RJOH 110300Z 26022G32KT 1500 R25/1000VP1800D -SHSN FEW006     SCT008 BKN015 M01/M08 Q1019 RMK 1CU006 3CU008 5CU015           A3011 R1500 VIS SW 2000M=,- SN SH
20180111_040000.000,0,RJOH,,,,0,20180111040000,-1,-1,-1,-1,240,-1,23,-1,-1,-1,-1,,9999,0,1,3,FEW 8   SCT 15   BKN 30,1,0,-1,8,1019,RJOH 110400Z 24023KT 9999 -SHSN FEW008 SCT015 BKN030 00/M08     Q1019 RMK 1CU008 3CU015 5CU030 A3009 MAX WIND 30KT VIS N           6KM 1CU008 AAL=,- SN SH
20180111_040000.002,0,RJOH,,,,0,20180111040000,-1,-1,-1,-1,240,-1,23,-1,-1,-1,-1,,9999,0,1,3,FEW 8   SCT 15   BKN 30,1,0,-1,8,1019,RJOH 110400Z 24023KT 9999 -SHSN FEW008 SCT015 BKN030 00/M08     Q1019 RMK 1CU008 3CU015 5CU030 A3009 MAX WIND 30KT VIS N           6KM 1CU008 AAL=,- SN SH
20180111_050000.000,0,RJOH,,,,0,20180111050000,-1,-1,-1,-1,250,-1,21,-1,-1,-1,-1,,9999,0,1,3,FEW 10   SCT 15   BKN 30,-1,0,-1,8,1019,RJOH 110500Z 25021KT 9999 -SHSN FEW010 SCT015 BKN030 M00/M08     Q1019 RMK 1CU010 3CU015 5CU030 A3010=,- SN SH
20180111_050000.002,0,RJOH,,,,0,20180111050000,-1,-1,-1,-1,250,-1,21,-1,-1,-1,-1,,9999,0,1,3,FEW 10   SCT 15   BKN 30,-1,0,-1,8,1019,RJOH 110500Z 25021KT 9999 -SHSN FEW010 SCT015 BKN030 M00/M08     Q1019 RMK 1CU010 3CU015 5CU030 A3010=,- SN SH
20180111_060000.000,0,RJOH,,,,0,20180111060000,-1,-1,-1,-1,260,-1,20,-1,-1,-1,-1,,7000,0,1,3,FEW 8   SCT 15   BKN 30,-1,0,-1,8,1019,RJOH 110600Z 26020KT 7000 -SHSN FEW008 SCT015 BKN030 M00/M08     Q1019 RMK 1CU008 3CU015 6CU030 A3012 MAX WIND 27KT VIS W-N           5KM 1CU008 AAL=,- SN SH
20180111_060000.002,0,RJOH,,,,0,20180111060000,-1,-1,-1,-1,260,-1,20,-1,-1,-1,-1,,7000,0,1,3,FEW 8   SCT 15   BKN 30,-1,0,-1,8,1019,RJOH 110600Z 26020KT 7000 -SHSN FEW008 SCT015 BKN030 M00/M08     Q1019 RMK 1CU008 3CU015 6CU030 A3012 MAX WIND 27KT VIS           W-N 5KM 1CU008 AAL=,- SN SH
20180111_070000.000,0,RJOH,,,,0,20180111070000,-1,-1,-1,-1,240,-1,20,-1,-1,-1,-1,,7000,0,1,3,FEW 8   SCT 15   BKN 30,-1,1,-1,7,1020,RJOH 110700Z 24020KT 7000 -SHSN FEW008 SCT015 BKN030 M01/M07     Q1020 RMK 1CU008 3CU015 6CU030 A3013 VIS W-NW 5KM 1CU008           AAL=,- SN SH
20180111_070000.002,0,RJOH,,,,0,20180111070000,-1,-1,-1,-1,240,-1,20,-1,-1,-1,-1,,7000,0,1,3,FEW 8   SCT 15   BKN 30,-1,1,-1,7,1020,RJOH 110700Z 24020KT 7000 -SHSN FEW008 SCT015 BKN030 M01/M07     Q1020 RMK 1CU008 3CU015 6CU030 A3013 VIS W-NW 5KM 1CU008           AAL=,- SN SH
20180111_080000.000,0,RJOH,,,,0,20180111080000,-1,-1,-1,-1,260,-1,15,-1,-1,-1,-1,,9999,0,1,3,FEW 8   BKN 15   BKN 30,-1,1,-1,7,1020,RJOH 110800Z 26015KT 9999 -SHSN FEW008 BKN015 BKN030 M01/M07     Q1020 RMK 1CU008 5CU015 6CU030 A3013 VIS N-NE 5KM 1CU008           AAL=,- SN SH
20180111_080000.002,0,RJOH,,,,0,20180111080000,-1,-1,-1,-1,260,-1,15,-1,-1,-1,-1,,9999,0,1,3,FEW 8   BKN 15   BKN 30,-1,1,-1,7,1020,RJOH 110800Z 26015KT 9999 -SHSN FEW008 BKN015 BKN030 M01/M07     Q1020 RMK 1CU008 5CU015 6CU030 A3013 VIS N-NE 5KM 1CU008           AAL=,- SN SH
20180111_090000.000,0,RJOH,,,,0,20180111090000,-1,-1,-1,-1,240,-1,17,-1,-1,-1,-1,,9999,0,1,3,FEW 7   SCT 15   BKN 25,-1,2,-1,7,1020,RJOH 110900Z 24017KT 9999 -SHSN FEW007 SCT015 BKN025 M02/M07     Q1020 RMK 1CU007 4CU015 6CU025 A3014 VIS N 5KM 1CU007 AAL=,- SN SH
20180111_090000.002,0,RJOH,,,,0,20180111090000,-1,-1,-1,-1,240,-1,17,-1,-1,-1,-1,,9999,0,1,3,FEW 7   SCT 15   BKN 25,-1,2,-1,7,1020,RJOH 110900Z 24017KT 9999 -SHSN FEW007 SCT015 BKN025 M02/M07     Q1020 RMK 1CU007 4CU015 6CU025 A3014 VIS N 5KM 1CU007           AAL=,- SN SH
20180111_100000.000,0,RJOH,,,,0,20180111100000,-1,-1,-1,-1,250,-1,17,-1,-1,-1,-1,,7000,0,1,3,FEW 8   BKN 15   OVC 25,-1,1,-1,6,1021,RJOH 111000Z 25017KT 7000 -SHSN FEW008 BKN015 OVC025 M01/M06     Q1021 RMK 2CU008 6CU015 8CU025 A3016 VIS SW 5KM 2CU008           AAL=,- SN SH
20180111_100000.002,0,RJOH,,,,0,20180111100000,-1,-1,-1,-1,250,-1,17,-1,-1,-1,-1,,7000,0,1,3,FEW 8   BKN 15   OVC 25,-1,1,-1,6,1021,RJOH 111000Z 25017KT 7000 -SHSN FEW008 BKN015 OVC025 M01/M06     Q1021 RMK 2CU008 6CU015 8CU025 A3016 VIS SW 5KM 2CU008           AAL=,- SN SH
20180111_110000.000,0,RJOH,,,,0,20180111110000,-1,-1,-1,-1,240,-1,21,-1,31,-1,-1,,1500,1,1,3,FEW 8   BKN 15   OVC 25,-1,2,-1,6,1021,RJOH 111100Z 24021G31KT 1500 R25/P1800N -SHSN FEW008 BKN015     OVC025 M02/M06 Q1021 RMK 2CU008 7CU015 8CU025 A3017 VIS           SW-W 8KM 2CU008 AAL=,- SN SH
20180111_110000.002,0,RJOH,,,,0,20180111110000,-1,-1,-1,-1,240,-1,21,-1,31,-1,-1,,1500,1,1,3,FEW 8   BKN 15   OVC 25,-1,2,-1,6,1021,RJOH 111100Z 24021G31KT 1500 R25/P1800N -SHSN FEW008 BKN015     OVC025 M02/M06 Q1021 RMK 2CU008 7CU015 8CU025 A3017 VIS           SW-W 8KM 2CU008 AAL=,- SN SH
20180111_120000.000,0,RJOH,,,,0,20180111120000,-1,-1,-1,-1,240,-1,14,-1,-1,-1,-1,,9999,0,1,3,FEW 8   SCT 15   BKN 60,-1,2,-1,6,1021,RJOH 111200Z 24014KT 9999 -SHSN FEW008 SCT015 BKN060 M02/M06     Q1021 RMK 1CU008 3CU015 5SC060 A3018 1CU008 AAL=,- SN SH
20180111_120000.002,0,RJOH,,,,0,20180111120000,-1,-1,-1,-1,240,-1,14,-1,-1,-1,-1,,9999,0,1,3,FEW 8   SCT 15   BKN 60,-1,2,-1,6,1021,RJOH 111200Z 24014KT 9999 -SHSN FEW008 SCT015 BKN060 M02/M06     Q1021 RMK 1CU008 3CU015 5SC060 A3018 1CU008 AAL=,- SN SH
20180111_130000.000,0,RJOH,,,,0,20180111130000,-1,-1,-1,-1,230,-1,15,-1,-1,-1,-1,,9999,0,1,3,FEW 8   SCT 30   BKN 60,-1,2,-1,6,1022,RJOH 111300Z 23015KT 9999 -SHSN FEW008 SCT030 BKN060 M02/M06     Q1022 RMK 1CU008 3CU030 6SC060 A3018=,- SN SH
20180111_130000.002,0,RJOH,,,,0,20180111130000,-1,-1,-1,-1,230,-1,15,-1,-1,-1,-1,,9999,0,1,3,FEW 8   SCT 30   BKN 60,-1,2,-1,6,1022,RJOH 111300Z 23015KT 9999 -SHSN FEW008 SCT030 BKN060 M02/M06     Q1022 RMK 1CU008 3CU030 6SC060 A3018=,- SN SH
20180111_140000.000,0,RJOH,,,,0,20180111140000,-1,-1,-1,-1,230,-1,13,-1,-1,-1,-1,,9999,0,1,3,FEW 8   SCT 20   BKN 30,-1,2,-1,5,1022,RJOH 111400Z 23013KT 9999 -SHSN FEW008 SCT020 BKN030 M02/M05     Q1022 RMK 1CU008 3CU020 5CU030 A3019=,- SN SH
20180111_140000.002,0,RJOH,,,,0,20180111140000,-1,-1,-1,-1,230,-1,13,-1,-1,-1,-1,,9999,0,1,3,FEW 8   SCT 20   BKN 30,-1,2,-1,5,1022,RJOH 111400Z 23013KT 9999 -SHSN FEW008 SCT020 BKN030 M02/M05     Q1022 RMK 1CU008 3CU020 5CU030 A3019=,- SN SH
20180111_150000.000,0,RJOH,,,,0,20180111150000,-1,-1,-1,-1,220,-1,16,-1,-1,-1,-1,,2500,0,1,3,FEW 6   BKN 8   BKN 15,-1,2,-1,4,1022,RJOH 111500Z 22016KT 2500 -SHSN FEW006 BKN008 BKN015 M02/M04     Q1022 RMK 1CU006 5CU008 7CU015 A3018=,- SN SH
20180111_150000.002,0,RJOH,,,,0,20180111150000,-1,-1,-1,-1,220,-1,16,-1,-1,-1,-1,,2500,0,1,3,FEW 6   BKN 8   BKN 15,-1,2,-1,4,1022,RJOH 111500Z 22016KT 2500 -SHSN FEW006 BKN008 BKN015 M02/M04     Q1022 RMK 1CU006 5CU008 7CU015 A3018=,- SN SH
20180111_160000.000,0,RJOH,,,,0,20180111160000,-1,-1,-1,-1,220,-1,7,-1,-1,-1,-1,,4000,0,1,3,FEW 8   SCT 15   BKN 30,-1,2,-1,6,1022,RJOH 111600Z 22007KT 4000 -SHSN FEW008 SCT015 BKN030 M02/M06     Q1022 RMK 1CU008 3CU015 7CU030 A3019=,- SN SH
20180111_160000.002,0,RJOH,,,,0,20180111160000,-1,-1,-1,-1,220,-1,7,-1,-1,-1,-1,,4000,0,1,3,FEW 8   SCT 15   BKN 30,-1,2,-1,6,1022,RJOH 111600Z 22007KT 4000 -SHSN FEW008 SCT015 BKN030 M02/M06     Q1022 RMK 1CU008 3CU015 7CU030 A3019=,- SN SH
20180111_170000.000,0,RJOH,,,,0,20180111170000,-1,-1,-1,-1,210,-1,10,-1,-1,-1,-1,,8000,0,1,3,FEW 8   SCT 15   BKN 30,-1,2,-1,5,1022,RJOH 111700Z 21010KT 8000 -SHSN FEW008 SCT015 BKN030 M02/M05     Q1022 RMK 1CU008 4CU015 7CU030 A3020 VIS SW 4000M=,- SN SH
20180111_170000.002,0,RJOH,,,,0,20180111170000,-1,-1,-1,-1,210,-1,10,-1,-1,-1,-1,,8000,0,1,3,FEW 8   SCT 15   BKN 30,-1,2,-1,5,1022,RJOH 111700Z 21010KT 8000 -SHSN FEW008 SCT015 BKN030 M02/M05     Q1022 RMK 1CU008 4CU015 7CU030 A3020 VIS SW 4000M=,- SN SH
20180111_180000.000,0,RJOH,,,,0,20180111180000,-1,-1,-1,-1,220,-1,15,-1,-1,-1,-1,,9999,0,1,3,FEW 8   BKN 15   BKN 30,-1,2,-1,5,1022,RJOH 111800Z 22015KT 9999 -SHSN FEW008 BKN015 BKN030 M02/M05     Q1022 RMK 2CU008 5CU015 7CU030 A3020 VIS SE 4000M=,- SN SH
20180111_180000.002,0,RJOH,,,,0,20180111180000,-1,-1,-1,-1,220,-1,15,-1,-1,-1,-1,,9999,0,1,3,FEW 8   BKN 15   BKN 30,-1,2,-1,5,1022,RJOH 111800Z 22015KT 9999 -SHSN FEW008 BKN015 BKN030 M02/M05     Q1022 RMK 2CU008 5CU015 7CU030 A3020 VIS SE 4000M=,- SN SH
20180111_190000.000,0,RJOH,,,,0,20180111190000,-1,-1,-1,-1,250,-1,19,-1,-1,-1,-1,,8000,0,1,3,FEW 8   SCT 15   BKN 30,-1,2,-1,4,1023,RJOH 111900Z 25019KT 8000 -SHSN FEW008 SCT015 BKN030 M02/M04     Q1023 RMK 1CU008 3CU015 7CU030 A3021 VIS N-E 4000M=,- SN SH
20180111_190000.002,0,RJOH,,,,0,20180111190000,-1,-1,-1,-1,250,-1,19,-1,-1,-1,-1,,8000,0,1,3,FEW 8   SCT 15   BKN 30,-1,2,-1,4,1023,RJOH 111900Z 25019KT 8000 -SHSN FEW008 SCT015 BKN030 M02/M04     Q1023 RMK 1CU008 3CU015 7CU030 A3021 VIS N-E 4000M=,- SN SH
20180111_200000.000,0,RJOH,,,,0,20180111200000,-1,-1,-1,-1,240,-1,21,-1,-1,-1,-1,,3000,1,1,3,FEW 6   BKN 8   BKN 15,-1,2,-1,5,1022,RJOH 112000Z 24021KT 3000 R25/1200VP1800U -SHSN FEW006 BKN008     BKN015 M02/M05 Q1022 RMK 2CU006 5CU008 6CU015 A3020 R1700           VIS SW-W 6KM=,- SN SH
20180111_200000.002,0,RJOH,,,,0,20180111200000,-1,-1,-1,-1,240,-1,21,-1,-1,-1,-1,,3000,1,1,3,FEW 6   BKN 8   BKN 15,-1,2,-1,5,1022,RJOH 112000Z 24021KT 3000 R25/1200VP1800U -SHSN FEW006 BKN008     BKN015 M02/M05 Q1022 RMK 2CU006 5CU008 6CU015 A3020 R1700           VIS SW-W 6KM=,- SN SH
20180111_210000.000,0,RJOH,,,,0,20180111210000,-1,-1,-1,-1,190,-1,14,-1,-1,-1,-1,,4000,0,1,3,FEW 8   SCT 15   BKN 30,-1,2,-1,5,1023,RJOH 112100Z 19014KT 4000 -SHSN FEW008 SCT015 BKN030 M02/M05     Q1023 RMK 1CU008 3CU015 6CU030 A3023 25042KT/0030 00/M03           R000 S010 SD006=,- SN SH
20180111_210000.002,0,RJOH,,,,0,20180111210000,-1,-1,-1,-1,190,-1,14,-1,-1,-1,-1,,4000,0,1,3,FEW 8   SCT 15   BKN 30,-1,2,-1,5,1023,RJOH 112100Z 19014KT 4000 -SHSN FEW008 SCT015 BKN030 M02/M05     Q1023 RMK 1CU008 3CU015 6CU030 A3023 25042KT/0030 00/M03           R000 S010 SD006=,- SN SH
20180111_220000.000,0,RJOH,,,,0,20180111220000,-1,-1,-1,-1,180,-1,10,-1,-1,-1,-1,,5000,0,1,3,FEW 8   BKN 15   BKN 30,-1,3,-1,6,1024,RJOH 112200Z 18010KT 5000 -SHSN FEW008 BKN015 BKN030 M03/M06     Q1024 RMK 1CU008 6CU015 7CU030 A3024 VIS SW-W 3000M 1CU008           AAL=,- SN SH
20180111_220000.002,0,RJOH,,,,0,20180111220000,-1,-1,-1,-1,180,-1,10,-1,-1,-1,-1,,5000,0,1,3,FEW 8   BKN 15   BKN 30,-1,3,-1,6,1024,RJOH 112200Z 18010KT 5000 -SHSN FEW008 BKN015 BKN030 M03/M06     Q1024 RMK 1CU008 6CU015 7CU030 A3024 VIS SW-W 3000M           1CU008 AAL=,- SN SH
20180111_230000.000,0,RJOH,,,,0,20180111230000,-1,-1,-1,-1,230,-1,8,-1,-1,-1,-1,,9999,0,1,3,FEW 8   BKN 15   BKN 30,-1,2,-1,6,1024,RJOH 112300Z 23008KT 9999 -SHSN FEW008 BKN015 BKN030 M02/M06     Q1024 RMK 1CU008 6CU015 7CU030 A3026 VIS N 6KM 1CU008 AAL=,- SN SH
20180111_230000.002,0,RJOH,,,,0,20180111230000,-1,-1,-1,-1,230,-1,8,-1,-1,-1,-1,,9999,0,1,3,FEW 8   BKN 15   BKN 30,-1,2,-1,6,1024,RJOH 112300Z 23008KT 9999 -SHSN FEW008 BKN015 BKN030 M02/M06     Q1024 RMK 1CU008 6CU015 7CU030 A3026 VIS N 6KM 1CU008           AAL=,- SN SH
20180112_000000.000,0,RJOH,,,,0,20180112000000,-1,-1,-1,-1,220,-1,11,-1,-1,-1,-1,,9999,0,1,3,FEW 8   SCT 15   BKN 30,-1,1,-1,5,1025,RJOH 120000Z 22011KT 9999 -SHSN FEW008 SCT015 BKN030 M01/M05     Q1025 RMK 1CU008 3CU015 7CU030 A3028 1CU008 AAL=,- SN SH
20180112_000000.002,0,RJOH,,,,0,20180112000000,-1,-1,-1,-1,220,-1,11,-1,-1,-1,-1,,9999,0,1,3,FEW 8   SCT 15   BKN 30,-1,1,-1,5,1025,RJOH 120000Z 22011KT 9999 -SHSN FEW008 SCT015 BKN030 M01/M05     Q1025 RMK 1CU008 3CU015 7CU030 A3028 1CU008 AAL=,- SN SH
20180112_010000.000,0,RJOH,,,,0,20180112010000,-1,-1,-1,-1,280,-1,4,-1,-1,220,310,,9999,0,1,3,FEW 8   BKN 15   BKN 30,-1,1,-1,5,1026,RJOH 120100Z 28004KT 220V310 9999 -SHSN FEW008 BKN015 BKN030     M01/M05 Q1026 RMK 1CU008 6CU015 7CU030 A3030 VIS SW-N 6KM           1CU008 AAL=,- SN SH
20180112_010000.003,0,RJOH,,,,0,20180112010000,-1,-1,-1,-1,280,-1,4,-1,-1,220,310,,9999,0,1,3,FEW 8   BKN 15   BKN 30,-1,1,-1,5,1026,RJOH 120100Z 28004KT 220V310 9999 -SHSN FEW008 BKN015 BKN030     M01/M05 Q1026 RMK 1CU008 6CU015 7CU030 A3030 VIS SW-N 6KM           1CU008 AAL=,- SN SH
20180112_020000.000,0,RJOH,,,,0,20180112020000,-1,-1,-1,-1,220,-1,9,-1,-1,190,250,,2500,1,1,3,FEW 8   BKN 15   BKN 30,-1,1,-1,4,1025,RJOH 120200Z 22009KT 190V250 2500 R25/1100VP1800U -SHSN FEW008     BKN015 BKN030 M01/M04 Q1025 RMK 2CU008 6CU015 7CU030 A3029           R1700 VIS W 5KM 2CU008 AAL=,- SN SH
20180112_020000.002,0,RJOH,,,,0,20180112020000,-1,-1,-1,-1,220,-1,9,-1,-1,190,250,,2500,1,1,3,FEW 8   BKN 15   BKN 30,-1,1,-1,4,1025,RJOH 120200Z 22009KT 190V250 2500 R25/1100VP1800U -SHSN FEW008     BKN015 BKN030 M01/M04 Q1025 RMK 2CU008 6CU015 7CU030           A3029 R1700 VIS W 5KM 2CU008 AAL=,- SN SH
20180112_030000.000,0,RJOH,,,,0,20180112030000,-1,-1,-1,-1,230,-1,11,-1,-1,-1,-1,,9999,0,1,3,FEW 4   SCT 8   BKN 15,-1,0,-1,5,1025,RJOH 120300Z 23011KT 9999 -SHSN FEW004 SCT008 BKN015 M00/M05     Q1025 RMK 1CU004 3CU008 6CU015 A3027 VIS N 5KM 1CU004 AND           3CU008 AAL=,- SN SH
20180112_030000.002,0,RJOH,,,,0,20180112030000,-1,-1,-1,-1,230,-1,11,-1,-1,-1,-1,,9999,0,1,3,FEW 4   SCT 8   BKN 15,-1,0,-1,5,1025,RJOH 120300Z 23011KT 9999 -SHSN FEW004 SCT008 BKN015 M00/M05     Q1025 RMK 1CU004 3CU008 6CU015 A3027 VIS N 5KM 1CU004 AND           3CU008 AAL=,- SN SH
20180112_040000.000,0,RJOH,,,,0,20180112040000,-1,-1,-1,-1,260,-1,6,-1,17,-1,-1,,9999,0,1,3,FEW 8   SCT 15   BKN 25,1,1,-1,5,1024,RJOH 120400Z 26006G17KT 9999 -SHSN FEW008 SCT015 BKN025 01/M05     Q1024 RMK 1CU008 3CU015 7CU025 A3025 1CU008 AAL=,- SN SH
20180112_040000.002,0,RJOH,,,,0,20180112040000,-1,-1,-1,-1,260,-1,6,-1,17,-1,-1,,9999,0,1,3,FEW 8   SCT 15   BKN 25,1,1,-1,5,1024,RJOH 120400Z 26006G17KT 9999 -SHSN FEW008 SCT015 BKN025 01/M05     Q1024 RMK 1CU008 3CU015 7CU025 A3025 1CU008 AAL=,- SN SH
20180112_050000.000,0,RJOH,,,,0,20180112050000,-1,-1,-1,-1,240,-1,14,-1,-1,-1,-1,,5000,0,1,3,FEW 3   SCT 8   BKN 15,-1,0,-1,4,1024,RJOH 120500Z 24014KT 5000 -SHSN FEW003 SCT008 BKN015 M00/M04     Q1024 RMK 1CU003 3CU008 7CU015 A3025 VIS S-W 8KM 1CU003           AND 3CU008 AAL=,- SN SH
20180112_050000.003,0,RJOH,,,,0,20180112050000,-1,-1,-1,-1,240,-1,14,-1,-1,-1,-1,,5000,0,1,3,FEW 3   SCT 8   BKN 15,-1,0,-1,4,1024,RJOH 120500Z 24014KT 5000 -SHSN FEW003 SCT008 BKN015 M00/M04     Q1024 RMK 1CU003 3CU008 7CU015 A3025 VIS S-W 8KM 1CU003           AND 3CU008 AAL=,- SN SH
20180112_060000.000,0,RJOH,,,,0,20180112060000,-1,-1,-1,-1,240,-1,19,-1,-1,-1,-1,,9999,0,1,3,FEW 8   SCT 25   BKN 50,-1,0,-1,5,1024,RJOH 120600Z 24019KT 9999 -SHSN FEW008 SCT025 BKN050 M00/M05     Q1024 RMK 1CU008 3CU025 6SC050 A3025 1CU008 AAL=,- SN SH
20180112_060000.002,0,RJOH,,,,0,20180112060000,-1,-1,-1,-1,240,-1,19,-1,-1,-1,-1,,9999,0,1,3,FEW 8   SCT 25   BKN 50,-1,0,-1,5,1024,RJOH 120600Z 24019KT 9999 -SHSN FEW008 SCT025 BKN050 M00/M05     Q1024 RMK 1CU008 3CU025 6SC050 A3025 1CU008 AAL=,- SN SH
20180112_070000.000,0,RJOH,,,,0,20180112070000,-1,-1,-1,-1,240,-1,15,-1,-1,-1,-1,,9999,0,1,3,FEW 8   SCT 25   BKN 50,1,0,-1,6,1025,RJOH 120700Z 24015KT 9999 -SHSN FEW008 SCT025 BKN050 00/M06     Q1025 RMK 1CU008 3CU025 5SC050 A3027 1CU008 AAL=,- SN SH
20180112_070000.003,0,RJOH,,,,0,20180112070000,-1,-1,-1,-1,240,-1,15,-1,-1,-1,-1,,9999,0,1,3,FEW 8   SCT 25   BKN 50,1,0,-1,6,1025,RJOH 120700Z 24015KT 9999 -SHSN FEW008 SCT025 BKN050 00/M06     Q1025 RMK 1CU008 3CU025 5SC050 A3027 1CU008 AAL=,- SN SH
20180112_080000.000,0,RJOH,,,,0,20180112080000,-1,-1,-1,-1,230,-1,13,-1,-1,-1,-1,,9999,0,1,3,FEW 8   SCT 25   BKN 50,-1,0,-1,5,1025,RJOH 120800Z 23013KT 9999 -SHSN FEW008 SCT025 BKN050 M00/M05     Q1025 RMK 1CU008 3CU025 5SC050 A3028 VIS W 5KM 1CU008 W=,- SN SH
20180112_080000.002,0,RJOH,,,,0,20180112080000,-1,-1,-1,-1,230,-1,13,-1,-1,-1,-1,,9999,0,1,3,FEW 8   SCT 25   BKN 50,-1,0,-1,5,1025,RJOH 120800Z 23013KT 9999 -SHSN FEW008 SCT025 BKN050 M00/M05     Q1025 RMK 1CU008 3CU025 5SC050 A3028 VIS W 5KM 1CU008 W=,- SN SH
20180112_090000.000,0,RJOH,,,,0,20180112090000,-1,-1,-1,-1,240,-1,15,-1,-1,-1,-1,,9999,0,1,3,FEW 8   SCT 15   BKN 50,-1,1,-1,5,1026,RJOH 120900Z 24015KT 9999 -SHSN FEW008 SCT015 BKN050 M01/M05     Q1026 RMK 1CU008 3CU015 6SC050 A3030 1CU008 AAL=,- SN SH
20180112_090000.002,0,RJOH,,,,0,20180112090000,-1,-1,-1,-1,240,-1,15,-1,-1,-1,-1,,9999,0,1,3,FEW 8   SCT 15   BKN 50,-1,1,-1,5,1026,RJOH 120900Z 24015KT 9999 -SHSN FEW008 SCT015 BKN050 M01/M05     Q1026 RMK 1CU008 3CU015 6SC050 A3030 1CU008 AAL=,- SN SH
20180112_100000.000,0,RJOH,,,,0,20180112100000,-1,-1,-1,-1,240,-1,12,-1,-1,-1,-1,,9999,0,0,2,FEW 15   BKN 50,-1,1,-1,6,1026,RJOH 121000Z 24012KT 9999 FEW015 BKN050 M01/M06 Q1026 RMK     1CU015 5SC050 A3031=,
20180112_100000.002,0,RJOH,,,,0,20180112100000,-1,-1,-1,-1,240,-1,12,-1,-1,-1,-1,,9999,0,0,2,FEW 15   BKN 50,-1,1,-1,6,1026,RJOH 121000Z 24012KT 9999 FEW015 BKN050 M01/M06 Q1026 RMK     1CU015 5SC050 A3031=,
20180112_110000.000,0,RJOH,,,,0,20180112110000,-1,-1,-1,-1,190,-1,5,-1,-1,-1,-1,,9999,0,0,2,FEW 15   SCT 50,-1,1,-1,7,1026,RJOH 121100Z 19005KT 9999 FEW015 SCT050 M01/M07 Q1026 RMK     1CU015 4SC050 A3032=,
20180112_110000.002,0,RJOH,,,,0,20180112110000,-1,-1,-1,-1,190,-1,5,-1,-1,-1,-1,,9999,0,0,2,FEW 15   SCT 50,-1,1,-1,7,1026,RJOH 121100Z 19005KT 9999 FEW015 SCT050 M01/M07 Q1026 RMK     1CU015 4SC050 A3032=,
20180112_120000.000,0,RJOH,,,,0,20180112120000,-1,-1,-1,-1,250,-1,10,-1,-1,-1,-1,,9999,0,1,2,FEW 8   BKN 50,-1,1,-1,6,1027,RJOH 121200Z 25010KT 9999 -SHSN FEW008 BKN050 M01/M06 Q1027 RMK     1CU008 6SC050 A3033 1CU008 W=,- SN SH
20180112_120000.002,0,RJOH,,,,0,20180112120000,-1,-1,-1,-1,250,-1,10,-1,-1,-1,-1,,9999,0,1,2,FEW 8   BKN 50,-1,1,-1,6,1027,RJOH 121200Z 25010KT 9999 -SHSN FEW008 BKN050 M01/M06 Q1027     RMK 1CU008 6SC050 A3033 1CU008 W=,- SN SH
20180112_130000.000,0,RJOH,,,,0,20180112130000,-1,-1,-1,-1,220,-1,10,-1,-1,-1,-1,,9999,0,1,3,FEW 10   SCT 25   BKN 50,-1,1,-1,6,1027,RJOH 121300Z 22010KT 9999 -SHSN FEW010 SCT025 BKN050 M01/M06     Q1027 RMK 1CU010 3CU025 7SC050 A3033=,- SN SH
20180112_130000.002,0,RJOH,,,,0,20180112130000,-1,-1,-1,-1,220,-1,10,-1,-1,-1,-1,,9999,0,1,3,FEW 10   SCT 25   BKN 50,-1,1,-1,6,1027,RJOH 121300Z 22010KT 9999 -SHSN FEW010 SCT025 BKN050 M01/M06     Q1027 RMK 1CU010 3CU025 7SC050 A3033=,- SN SH
20180112_140000.000,0,RJOH,,,,0,20180112140000,-1,-1,-1,-1,240,-1,12,-1,-1,-1,-1,,7000,0,1,3,FEW 15   BKN 25   BKN 50,-1,1,-1,6,1027,RJOH 121400Z 24012KT 7000 -SHSN FEW015 BKN025 BKN050 M01/M06     Q1027 RMK 2CU015 5CU025 7SC050 A3033 VIS N 5KM=,- SN SH
20180112_140000.002,0,RJOH,,,,0,20180112140000,-1,-1,-1,-1,240,-1,12,-1,-1,-1,-1,,7000,0,1,3,FEW 15   BKN 25   BKN 50,-1,1,-1,6,1027,RJOH 121400Z 24012KT 7000 -SHSN FEW015 BKN025 BKN050 M01/M06     Q1027 RMK 2CU015 5CU025 7SC050 A3033 VIS N 5KM=,- SN SH
20180112_150000.000,0,RJOH,,,,0,20180112150000,-1,-1,-1,-1,230,-1,11,-1,-1,-1,-1,,9999,0,1,3,FEW 15   SCT 25   BKN 50,-1,1,-1,5,1026,RJOH 121500Z 23011KT 9999 -SHSN FEW015 SCT025 BKN050 M01/M05     Q1026 RMK 1CU015 4CU025 6SC050 A3032 VIS W 7KM=,- SN SH
20180112_150000.002,0,RJOH,,,,0,20180112150000,-1,-1,-1,-1,230,-1,11,-1,-1,-1,-1,,9999,0,1,3,FEW 15   SCT 25   BKN 50,-1,1,-1,5,1026,RJOH 121500Z 23011KT 9999 -SHSN FEW015 SCT025 BKN050 M01/M05     Q1026 RMK 1CU015 4CU025 6SC050 A3032 VIS W 7KM=,- SN SH
20180112_160000.000,0,RJOH,,,,0,20180112160000,-1,-1,-1,-1,200,-1,8,-1,-1,-1,-1,,9999,0,1,3,FEW 15   SCT 25   BKN 50,-1,1,-1,6,1026,RJOH 121600Z 20008KT 9999 -SHSN FEW015 SCT025 BKN050 M01/M06     Q1026 RMK 1CU015 3CU025 6SC050 A3032=,- SN SH
20180112_160000.002,0,RJOH,,,,0,20180112160000,-1,-1,-1,-1,200,-1,8,-1,-1,-1,-1,,9999,0,1,3,FEW 15   SCT 25   BKN 50,-1,1,-1,6,1026,RJOH 121600Z 20008KT 9999 -SHSN FEW015 SCT025 BKN050 M01/M06     Q1026 RMK 1CU015 3CU025 6SC050 A3032=,- SN SH
20180112_170000.000,0,RJOH,,,,0,20180112170000,-1,-1,-1,-1,180,-1,8,-1,-1,-1,-1,,7000,0,1,3,FEW 15   BKN 25   BKN 50,-1,1,-1,5,1026,RJOH 121700Z 18008KT 7000 -SHSN FEW015 BKN025 BKN050 M01/M05     Q1026 RMK 2CU015 5CU025 7SC050 A3031 VIS W 5KM=,- SN SH
20180112_170000.002,0,RJOH,,,,0,20180112170000,-1,-1,-1,-1,180,-1,8,-1,-1,-1,-1,,7000,0,1,3,FEW 15   BKN 25   BKN 50,-1,1,-1,5,1026,RJOH 121700Z 18008KT 7000 -SHSN FEW015 BKN025 BKN050 M01/M05     Q1026 RMK 2CU015 5CU025 7SC050 A3031 VIS W 5KM=,- SN SH
20180112_180000.000,0,RJOH,,,,0,20180112180000,-1,-1,-1,-1,180,-1,7,-1,-1,-1,-1,,2000,0,1,3,FEW 5   SCT 7   BKN 15,-1,1,-1,4,1026,RJOH 121800Z 18007KT 2000 -SHSN FEW005 SCT007 BKN015 M01/M04     Q1026 RMK 1CU005 3CU007 7CU015 A3032 VIS W 1000M=,- SN SH
20180112_180000.002,0,RJOH,,,,0,20180112180000,-1,-1,-1,-1,180,-1,7,-1,-1,-1,-1,,2000,0,1,3,FEW 5   SCT 7   BKN 15,-1,1,-1,4,1026,RJOH 121800Z 18007KT 2000 -SHSN FEW005 SCT007 BKN015 M01/M04     Q1026 RMK 1CU005 3CU007 7CU015 A3032 VIS W 1000M=,- SN SH
20180112_190000.000,0,RJOH,,,,0,20180112190000,-1,-1,-1,-1,170,-1,4,-1,-1,130,220,,8000,0,1,3,FEW 5   SCT 7   BKN 25,-1,1,-1,4,1026,RJOH 121900Z 17004KT 130V220 8000 -SHSN FEW005 SCT007 BKN025     M01/M04 Q1026 RMK 1CU005 3CU007 6CU025 A3030 VIS SW-W           10KM=,- SN SH
20180112_190000.002,0,RJOH,,,,0,20180112190000,-1,-1,-1,-1,170,-1,4,-1,-1,130,220,,8000,0,1,3,FEW 5   SCT 7   BKN 25,-1,1,-1,4,1026,RJOH 121900Z 17004KT 130V220 8000 -SHSN FEW005 SCT007 BKN025     M01/M04 Q1026 RMK 1CU005 3CU007 6CU025 A3030 VIS SW-W           10KM=,- SN SH
20180112_200000.000,0,RJOH,,,,0,20180112200000,-1,-1,-1,-1,240,-1,10,-1,-1,-1,-1,,9999,0,1,3,FEW 7   SCT 15   BKN 25,1,0,-1,4,1025,RJOH 122000Z 24010KT 9999 -SHSN FEW007 SCT015 BKN025 00/M04     Q1025 RMK 1CU007 3CU015 5CU025 A3029 VIS SW-W 7KM=,- SN SH
20180112_200000.003,0,RJOH,,,,0,20180112200000,-1,-1,-1,-1,240,-1,10,-1,-1,-1,-1,,9999,0,1,3,FEW 7   SCT 15   BKN 25,1,0,-1,4,1025,RJOH 122000Z 24010KT 9999 -SHSN FEW007 SCT015 BKN025 00/M04     Q1025 RMK 1CU007 3CU015 5CU025 A3029 VIS SW-W 7KM=,- SN SH
20180112_210000.000,0,RJOH,,,,0,20180112210000,-1,-1,-1,-1,230,-1,13,-1,-1,-1,-1,,7000,0,1,3,FEW 7   SCT 15   BKN 25,1,0,-1,3,1025,RJOH 122100Z 23013KT 7000 -SHSN FEW007 SCT015 BKN025 00/M03     Q1025 RMK 1CU007 3CU015 6CU025 A3029 01/M03 R001 S005           SD006=,- SN SH
20180112_210000.002,0,RJOH,,,,0,20180112210000,-1,-1,-1,-1,230,-1,13,-1,-1,-1,-1,,7000,0,1,3,FEW 7   SCT 15   BKN 25,1,0,-1,3,1025,RJOH 122100Z 23013KT 7000 -SHSN FEW007 SCT015 BKN025 00/M03     Q1025 RMK 1CU007 3CU015 6CU025 A3029 01/M03 R001 S005           SD006=,- SN SH
20180112_220000.000,0,RJOH,,,,0,20180112220000,-1,-1,-1,-1,230,-1,12,-1,-1,-1,-1,,7000,0,1,3,FEW 10   SCT 15   BKN 25,1,0,-1,3,1026,RJOH 122200Z 23012KT 7000 -SHSN FEW010 SCT015 BKN025 00/M03     Q1026 RMK 1CU010 4CU015 6CU025 A3030 VIS SW-W 3000M=,- SN SH
20180112_220000.002,0,RJOH,,,,0,20180112220000,-1,-1,-1,-1,230,-1,12,-1,-1,-1,-1,,7000,0,1,3,FEW 10   SCT 15   BKN 25,1,0,-1,3,1026,RJOH 122200Z 23012KT 7000 -SHSN FEW010 SCT015 BKN025 00/M03     Q1026 RMK 1CU010 4CU015 6CU025 A3030 VIS SW-W 3000M=,- SN SH
20180112_230000.000,0,RJOH,,,,0,20180112230000,-1,-1,-1,-1,220,-1,6,-1,-1,-1,-1,,2000,0,1,3,FEW 8   BKN 15   OVC 25,1,0,-1,3,1026,RJOH 122300Z 22006KT 2000 -SHSN FEW008 BKN015 OVC025 00/M03     Q1026 RMK 2CU008 6CU015 8CU025 A3031 VIS SW-NW 3000M=,- SN SH
20180112_230000.002,0,RJOH,,,,0,20180112230000,-1,-1,-1,-1,220,-1,6,-1,-1,-1,-1,,2000,0,1,3,FEW 8   BKN 15   OVC 25,1,0,-1,3,1026,RJOH 122300Z 22006KT 2000 -SHSN FEW008 BKN015 OVC025 00/M03     Q1026 RMK 2CU008 6CU015 8CU025 A3031 VIS SW-NW 3000M=,- SN SH
20180113_000000.000,0,RJOH,,,,0,20180113000000,-1,-1,-1,-1,180,-1,7,-1,-1,-1,-1,,4000,0,1,3,FEW 8   BKN 15   BKN 25,1,0,-1,3,1026,RJOH 130000Z 18007KT 4000 -SHSN FEW008 BKN015 BKN025 00/M03     Q1026 RMK 1CU008 5CU015 7CU025 A3032 VIS SE-SW 7KM=,- SN SH
20180113_000000.002,0,RJOH,,,,0,20180113000000,-1,-1,-1,-1,180,-1,7,-1,-1,-1,-1,,4000,0,1,3,FEW 8   BKN 15   BKN 25,1,0,-1,3,1026,RJOH 130000Z 18007KT 4000 -SHSN FEW008 BKN015 BKN025 00/M03     Q1026 RMK 1CU008 5CU015 7CU025 A3032 VIS SE-SW 7KM=,- SN SH
20180113_010000.000,0,RJOH,,,,0,20180113010000,-1,-1,-1,-1,240,-1,14,-1,-1,-1,-1,,3200,0,1,3,FEW 8   BKN 15   BKN 25,1,2,-1,4,1027,RJOH 130100Z 24014KT 3200 -SHSN FEW008 BKN015 BKN025 02/M04     Q1027 RMK 1CU008 6CU015 7CU025 A3034 VIS SW-NW 2000M=,- SN SH
20180113_010000.003,0,RJOH,,,,0,20180113010000,-1,-1,-1,-1,240,-1,14,-1,-1,-1,-1,,3200,0,1,3,FEW 8   BKN 15   BKN 25,1,2,-1,4,1027,RJOH 130100Z 24014KT 3200 -SHSN FEW008 BKN015 BKN025 02/M04     Q1027 RMK 1CU008 6CU015 7CU025 A3034 VIS SW-NW 2000M=,- SN SH
20180113_020000.000,0,RJOH,,,,0,20180113020000,-1,-1,-1,-1,250,-1,13,-1,-1,-1,-1,,9999,0,1,3,FEW 8   SCT 15   BKN 25,1,2,-1,3,1027,RJOH 130200Z 25013KT 9999 -SHSN FEW008 SCT015 BKN025 02/M03     Q1027 RMK 1CU008 3CU015 7CU025 A3034=,- SN SH
20180113_020000.002,0,RJOH,,,,0,20180113020000,-1,-1,-1,-1,250,-1,13,-1,-1,-1,-1,,9999,0,1,3,FEW 8   SCT 15   BKN 25,1,2,-1,3,1027,RJOH 130200Z 25013KT 9999 -SHSN FEW008 SCT015 BKN025 02/M03     Q1027 RMK 1CU008 3CU015 7CU025 A3034=,- SN SH
20180113_030000.000,0,RJOH,,,,0,20180113030000,-1,-1,-1,-1,240,-1,14,-1,-1,-1,-1,,9999,0,1,3,FEW 15   SCT 25   BKN 30,1,2,-1,3,1027,RJOH 130300Z 24014KT 9999 -SHSN FEW015 SCT025 BKN030 02/M03     Q1027 RMK 1CU015 3CU025 6CU030 A3033=,- SN SH
20180113_030000.002,0,RJOH,,,,0,20180113030000,-1,-1,-1,-1,240,-1,14,-1,-1,-1,-1,,9999,0,1,3,FEW 15   SCT 25   BKN 30,1,2,-1,3,1027,RJOH 130300Z 24014KT 9999 -SHSN FEW015 SCT025 BKN030 02/M03     Q1027 RMK 1CU015 3CU025 6CU030 A3033=,- SN SH
20180113_040000.000,0,RJOH,,,,0,20180113040000,-1,-1,-1,-1,290,-1,10,-1,20,260,320,,3000,1,1,3,FEW 8   BKN 15   BKN 25,1,1,-1,3,1026,RJOH 130400Z 29010G20KT 260V320 3000 R25/0900VP1800U -SHSN     FEW008 BKN015 BKN025 01/M03 Q1026 RMK 1CU008 5CU015 7CU025           A3032 R1600 VIS E 2000M SW 7KM=,- SN SH
20180113_040000.002,0,RJOH,,,,0,20180113040000,-1,-1,-1,-1,290,-1,10,-1,20,260,320,,3000,1,1,3,FEW 8   BKN 15   BKN 25,1,1,-1,3,1026,RJOH 130400Z 29010G20KT 260V320 3000 R25/0900VP1800U -SHSN     FEW008 BKN015 BKN025 01/M03 Q1026 RMK 1CU008 5CU015           7CU025 A3032 R1600 VIS E 2000M SW 7KM=,- SN SH
20180113_050000.000,0,RJOH,,,,0,20180113050000,-1,-1,-1,-1,250,-1,13,-1,-1,-1,-1,,9999,0,1,3,FEW 8   SCT 15   BKN 25,1,2,-1,2,1026,RJOH 130500Z 25013KT 9999 -SHSN FEW008 SCT015 BKN025 02/M02     Q1026 RMK 1CU008 3CU015 6CU025 A3032=,- SN SH
20180113_050000.002,0,RJOH,,,,0,20180113050000,-1,-1,-1,-1,250,-1,13,-1,-1,-1,-1,,9999,0,1,3,FEW 8   SCT 15   BKN 25,1,2,-1,2,1026,RJOH 130500Z 25013KT 9999 -SHSN FEW008 SCT015 BKN025 02/M02     Q1026 RMK 1CU008 3CU015 6CU025 A3032=,- SN SH
20180113_060000.000,0,RJOH,,,,0,20180113060000,-1,-1,-1,-1,270,-1,11,-1,-1,-1,-1,,4000,0,1,3,FEW 5   SCT 8   BKN 15 CB,1,1,-1,2,1027,RJOH 130600Z 27011KT 4000 -SHSN FEW005 SCT008 BKN015CB 01/M02     Q1027 RETS RMK 1CU005 4CU008 7CB015 A3034 VIS SE 2000M W           10KM CB OHD MOV SE=,- SN SH
20180113_060000.002,0,RJOH,,,,0,20180113060000,-1,-1,-1,-1,270,-1,11,-1,-1,-1,-1,,4000,0,1,3,FEW 5   SCT 8   BKN 15 CB,1,1,-1,2,1027,RJOH 130600Z 27011KT 4000 -SHSN FEW005 SCT008 BKN015CB 01/M02     Q1027 RETS RMK 1CU005 4CU008 7CB015 A3034 VIS SE 2000M W           10KM CB OHD MOV SE=,- SN SH
20180113_070000.000,0,RJOH,,,,0,20180113070000,-1,-1,-1,-1,280,-1,9,-1,-1,-1,-1,,5000,0,1,3,FEW 5   SCT 8   BKN 15 TCU,1,2,-1,2,1027,RJOH 130700Z 28009KT 5000 -SHSN FEW005 SCT008 BKN015TCU 02/M02     Q1027 RMK 1CU005 3CU008 6TCU015 A3035 VIS N-E 3000M SW           10KM TCU OHD MOV SE=,- SN SH
20180113_070000.002,0,RJOH,,,,0,20180113070000,-1,-1,-1,-1,280,-1,9,-1,-1,-1,-1,,5000,0,1,3,FEW 5   SCT 8   BKN 15 TCU,1,2,-1,2,1027,RJOH 130700Z 28009KT 5000 -SHSN FEW005 SCT008 BKN015TCU 02/M02     Q1027 RMK 1CU005 3CU008 6TCU015 A3035 VIS N-E 3000M SW           10KM TCU OHD MOV SE=,- SN SH
20180113_080000.000,0,RJOH,,,,0,20180113080000,-1,-1,-1,-1,280,-1,10,-1,-1,-1,-1,,9999,0,1,3,FEW 8   SCT 15   BKN 25,1,2,-1,3,1028,RJOH 130800Z 28010KT 9999 -SHSN FEW008 SCT015 BKN025 02/M03     Q1028 RMK 1CU008 3CU015 7CU025 A3036=,- SN SH
20180113_080000.002,0,RJOH,,,,0,20180113080000,-1,-1,-1,-1,280,-1,10,-1,-1,-1,-1,,9999,0,1,3,FEW 8   SCT 15   BKN 25,1,2,-1,3,1028,RJOH 130800Z 28010KT 9999 -SHSN FEW008 SCT015 BKN025 02/M03     Q1028 RMK 1CU008 3CU015 7CU025 A3036=,- SN SH
20180113_090000.000,0,RJOH,,,,0,20180113090000,-1,-1,-1,-1,270,-1,15,-1,25,-1,-1,,8000,0,1,4,FEW 8   BKN 15   BKN 25   FEW 25 TCU,1,1,-1,2,1028,RJOH 130900Z 27015G25KT 8000 -SHSN FEW008 BKN015 BKN025     FEW025TCU 01/M02 Q1028 RMK 1CU008 5CU015 7CU025 1TCU025           A3038 VIS W 3000M TCU 6KM W MOV SE=,- SN SH
20180113_090000.002,0,RJOH,,,,0,20180113090000,-1,-1,-1,-1,270,-1,15,-1,25,-1,-1,,8000,0,1,4,FEW 8   BKN 15   BKN 25   FEW 25 TCU,1,1,-1,2,1028,RJOH 130900Z 27015G25KT 8000 -SHSN FEW008 BKN015 BKN025     FEW025TCU 01/M02 Q1028 RMK 1CU008 5CU015 7CU025 1TCU025           A3038 VIS W 3000M TCU 6KM W MOV SE=,- SN SH
20180113_100000.000,0,RJOH,,,,0,20180113100000,-1,-1,-1,-1,260,-1,12,-1,-1,-1,-1,,9999,0,1,3,FEW 15   BKN 25   BKN 50,1,2,-1,2,1029,RJOH 131000Z 26012KT 9999 -SHSN FEW015 BKN025 BKN050 02/M02     Q1029 RMK 1CU015 6CU025 7SC050 A3039=,- SN SH
20180113_100000.002,0,RJOH,,,,0,20180113100000,-1,-1,-1,-1,260,-1,12,-1,-1,-1,-1,,9999,0,1,3,FEW 15   BKN 25   BKN 50,1,2,-1,2,1029,RJOH 131000Z 26012KT 9999 -SHSN FEW015 BKN025 BKN050 02/M02     Q1029 RMK 1CU015 6CU025 7SC050 A3039=,- SN SH
20180113_110000.000,0,RJOH,,,,0,20180113110000,-1,-1,-1,-1,240,-1,13,-1,-1,-1,-1,,9999,0,1,3,FEW 15   SCT 25 TCU  BKN 50,1,2,-1,2,1029,RJOH 131100Z 24013KT 9999 -SHGSSN FEW015 SCT025TCU BKN050     02/M02 Q1029 RMK 1CU015 4TCU025 6SC050 A3040 VIS N 5KM TCU           OHD MOV SE SNOW PELLETS=,- GS SN SH
20180113_110000.002,0,RJOH,,,,0,20180113110000,-1,-1,-1,-1,240,-1,13,-1,-1,-1,-1,,9999,0,1,3,FEW 15   SCT 25 TCU  BKN 50,1,2,-1,2,1029,RJOH 131100Z 24013KT 9999 -SHGSSN FEW015 SCT025TCU BKN050     02/M02 Q1029 RMK 1CU015 4TCU025 6SC050 A3040 VIS N 5KM           TCU OHD MOV SE SNOW PELLETS=,- GS SN SH
20180113_120000.000,0,RJOH,,,,0,20180113120000,-1,-1,-1,-1,320,-1,5,-1,-1,280,360,,9999,0,0,3,FEW 15   SCT 25   BKN 50,1,3,-1,4,1030,RJOH 131200Z 32005KT 280V360 9999 FEW015 SCT025 BKN050 03/M04     Q1030 RMK 1CU015 3CU025 5SC050 A3042=,
20180113_120000.002,0,RJOH,,,,0,20180113120000,-1,-1,-1,-1,320,-1,5,-1,-1,280,360,,9999,0,0,3,FEW 15   SCT 25   BKN 50,1,3,-1,4,1030,RJOH 131200Z 32005KT 280V360 9999 FEW015 SCT025 BKN050 03/M04     Q1030 RMK 1CU015 3CU025 5SC050 A3042=,
20180113_130000.000,0,RJOH,,,,0,20180113130000,-1,-1,-1,-1,270,-1,7,-1,-1,-1,-1,,9999,0,1,3,FEW 10   SCT 15   BKN 25,1,2,-1,2,1030,RJOH 131300Z 27007KT 9999 -SHSN FEW010 SCT015 BKN025 02/M02     Q1030 RMK 1CU010 3CU015 6CU025 A3044=,- SN SH
20180113_130000.002,0,RJOH,,,,0,20180113130000,-1,-1,-1,-1,270,-1,7,-1,-1,-1,-1,,9999,0,1,3,FEW 10   SCT 15   BKN 25,1,2,-1,2,1030,RJOH 131300Z 27007KT 9999 -SHSN FEW010 SCT015 BKN025 02/M02     Q1030 RMK 1CU010 3CU015 6CU025 A3044=,- SN SH
20180113_140000.000,0,RJOH,,,,0,20180113140000,-1,-1,-1,-1,10,-1,8,-1,-1,-1,-1,,9999,0,0,3,FEW 15   SCT 25   BKN 35,1,4,-1,3,1030,RJOH 131400Z 01008KT 9999 FEW015 SCT025 BKN035 04/M03 Q1030 RMK     1CU015 3CU025 7CU035 A3044=,
20180113_140000.003,0,RJOH,,,,0,20180113140000,-1,-1,-1,-1,10,-1,8,-1,-1,-1,-1,,9999,0,0,3,FEW 15   SCT 25   BKN 35,1,4,-1,3,1030,RJOH 131400Z 01008KT 9999 FEW015 SCT025 BKN035 04/M03 Q1030     RMK 1CU015 3CU025 7CU035 A3044=,
20180113_150000.000,0,RJOH,,,,0,20180113150000,-1,-1,-1,-1,300,-1,3,-1,-1,260,330,,9999,0,0,3,FEW 15   BKN 25   BKN 35,1,2,-1,4,1031,RJOH 131500Z 30003KT 260V330 9999 FEW015 BKN025 BKN035 02/M04     Q1031 RMK 1CU015 5CU025 7CU035 A3045=,
20180113_150000.002,0,RJOH,,,,0,20180113150000,-1,-1,-1,-1,300,-1,3,-1,-1,260,330,,9999,0,0,3,FEW 15   BKN 25   BKN 35,1,2,-1,4,1031,RJOH 131500Z 30003KT 260V330 9999 FEW015 BKN025 BKN035 02/M04     Q1031 RMK 1CU015 5CU025 7CU035 A3045=,
20180113_160000.000,0,RJOH,,,,0,20180113160000,-1,-1,-1,-1,220,-1,7,-1,-1,-1,-1,,9999,0,0,3,FEW 15   SCT 25   BKN 35,1,2,-1,2,1031,RJOH 131600Z 22007KT 9999 FEW015 SCT025 BKN035 02/M02 Q1031 RMK     1CU015 3CU025 6CU035 A3045=,
20180113_160000.002,0,RJOH,,,,0,20180113160000,-1,-1,-1,-1,220,-1,7,-1,-1,-1,-1,,9999,0,0,3,FEW 15   SCT 25   BKN 35,1,2,-1,2,1031,RJOH 131600Z 22007KT 9999 FEW015 SCT025 BKN035 02/M02 Q1031     RMK 1CU015 3CU025 6CU035 A3045=,
20180113_170000.000,0,RJOH,,,,0,20180113170000,-1,-1,-1,-1,200,-1,5,-1,-1,-1,-1,,9999,0,0,3,FEW 20   BKN 25   BKN 35,1,1,-1,2,1031,RJOH 131700Z 20005KT 9999 FEW020 BKN025 BKN035 01/M02 Q1031 RMK     2CU020 5CU025 7CU035 A3045=,
20180113_170000.002,0,RJOH,,,,0,20180113170000,-1,-1,-1,-1,200,-1,5,-1,-1,-1,-1,,9999,0,0,3,FEW 20   BKN 25   BKN 35,1,1,-1,2,1031,RJOH 131700Z 20005KT 9999 FEW020 BKN025 BKN035 01/M02 Q1031     RMK 2CU020 5CU025 7CU035 A3045=,
20180113_180000.000,0,RJOH,,,,0,20180113180000,-1,-1,-1,-1,180,-1,3,-1,-1,-1,-1,,9999,0,0,2,FEW 25   BKN 35,-1,0,-1,3,1031,RJOH 131800Z 18003KT 9999 FEW025 BKN035 M00/M03 Q1031 RMK     2CU025 6CU035 A3045=,
20180113_180000.002,0,RJOH,,,,0,20180113180000,-1,-1,-1,-1,180,-1,3,-1,-1,-1,-1,,9999,0,0,2,FEW 25   BKN 35,-1,0,-1,3,1031,RJOH 131800Z 18003KT 9999 FEW025 BKN035 M00/M03 Q1031 RMK     2CU025 6CU035 A3045=,
20180113_190000.000,0,RJOH,,,,0,20180113190000,-1,-1,-1,-1,180,-1,4,-1,-1,-1,-1,,9999,0,1,3,FEW 20   BKN 30   BKN 50,1,1,-1,1,1031,RJOH 131900Z 18004KT 9999 -SHSN FEW020 BKN030 BKN050 01/M01     Q1031 RMK 2CU020 5CU030 6SC050 A3045=,- SN SH
20180113_190000.003,0,RJOH,,,,0,20180113190000,-1,-1,-1,-1,180,-1,4,-1,-1,-1,-1,,9999,0,1,3,FEW 20   BKN 30   BKN 50,1,1,-1,1,1031,RJOH 131900Z 18004KT 9999 -SHSN FEW020 BKN030 BKN050 01/M01     Q1031 RMK 2CU020 5CU030 6SC050 A3045=,- SN SH
20180113_200000.000,0,RJOH,,,,0,20180113200000,-1,-1,-1,-1,170,-1,2,-1,-1,-1,-1,,9999,0,0,2,FEW 30   BKN 50,1,1,-1,2,1031,RJOH 132000Z 17002KT 9999 FEW030 BKN050 01/M02 Q1031 RMK 2CU030     6SC050 A3046=,
20180113_200000.003,0,RJOH,,,,0,20180113200000,-1,-1,-1,-1,170,-1,2,-1,-1,-1,-1,,9999,0,0,2,FEW 30   BKN 50,1,1,-1,2,1031,RJOH 132000Z 17002KT 9999 FEW030 BKN050 01/M02 Q1031 RMK     2CU030 6SC050 A3046=,
20180113_210000.000,0,RJOH,,,,0,20180113210000,-1,-1,-1,-1,190,-1,4,-1,-1,-1,-1,,9999,0,1,3,FEW 20   SCT 30   BKN 50,1,1,-1,2,1031,RJOH 132100Z 19004KT 9999 -SHSN FEW020 SCT030 BKN050 01/M02     Q1031 RMK 1CU020 4CU030 7SC050 A3046 04/M01 R004 S006           SD005=,- SN SH
20180113_210000.002,0,RJOH,,,,0,20180113210000,-1,-1,-1,-1,190,-1,4,-1,-1,-1,-1,,9999,0,1,3,FEW 20   SCT 30   BKN 50,1,1,-1,2,1031,RJOH 132100Z 19004KT 9999 -SHSN FEW020 SCT030 BKN050 01/M02     Q1031 RMK 1CU020 4CU030 7SC050 A3046 04/M01 R004 S006           SD005=,- SN SH
20180113_220000.000,0,RJOH,,,,0,20180113220000,-1,-1,-1,-1,999,-1,1,-1,-1,-1,-1,,9999,0,0,2,FEW 30   BKN 50,1,1,-1,2,1031,RJOH 132200Z VRB01KT 9999 FEW030 BKN050 01/M02 Q1031 RMK 2CU030     7SC050 A3046=,
20180113_220000.002,0,RJOH,,,,0,20180113220000,-1,-1,-1,-1,999,-1,1,-1,-1,-1,-1,,9999,0,0,2,FEW 30   BKN 50,1,1,-1,2,1031,RJOH 132200Z VRB01KT 9999 FEW030 BKN050 01/M02 Q1031 RMK     2CU030 7SC050 A3046=,
20180113_230000.000,0,RJOH,,,,0,20180113230000,-1,-1,-1,-1,190,-1,6,-1,-1,-1,-1,,9999,0,0,2,FEW 5   BKN 50,1,0,-1,3,1032,RJOH 132300Z 19006KT 9999 FEW005 BKN050 00/M03 Q1032 RMK 1ST005     6SC050 A3048=,
20180113_230000.002,0,RJOH,,,,0,20180113230000,-1,-1,-1,-1,190,-1,6,-1,-1,-1,-1,,9999,0,0,2,FEW 5   BKN 50,1,0,-1,3,1032,RJOH 132300Z 19006KT 9999 FEW005 BKN050 00/M03 Q1032 RMK     1ST005 6SC050 A3048=,
20180114_000000.000,0,RJOH,,,,0,20180114000000,-1,-1,-1,-1,230,-1,4,-1,-1,-1,-1,,9999,0,0,2,FEW 5   BKN 50,1,1,-1,2,1032,RJOH 140000Z 23004KT 9999 FEW005 BKN050 01/M02 Q1032 RMK 1ST005     7SC050 A3050=,
20180114_000000.003,0,RJOH,,,,0,20180114000000,-1,-1,-1,-1,230,-1,4,-1,-1,-1,-1,,9999,0,0,2,FEW 5   BKN 50,1,1,-1,2,1032,RJOH 140000Z 23004KT 9999 FEW005 BKN050 01/M02 Q1032 RMK     1ST005 7SC050 A3050=,
20180114_010000.000,0,RJOH,,,,0,20180114010000,-1,-1,-1,-1,220,-1,4,-1,-1,-1,-1,,9999,0,0,2,FEW 5   BKN 50,1,2,-1,1,1033,RJOH 140100Z 22004KT 9999 FEW005 BKN050 02/M01 Q1033 RMK 1ST005     7SC050 A3053 1ST005 W=,
20180114_010000.002,0,RJOH,,,,0,20180114010000,-1,-1,-1,-1,220,-1,4,-1,-1,-1,-1,,9999,0,0,2,FEW 5   BKN 50,1,2,-1,1,1033,RJOH 140100Z 22004KT 9999 FEW005 BKN050 02/M01 Q1033 RMK     1ST005 7SC050 A3053 1ST005 W=,
20180114_020000.000,0,RJOH,,,,0,20180114020000,-1,-1,-1,-1,999,-1,2,-1,-1,-1,-1,,9999,0,0,2,FEW 5   BKN 50,1,2,-1,1,1033,RJOH 140200Z VRB02KT 9999 FEW005 BKN050 02/M01 Q1033 RMK 1ST005     7SC050 A3051 1ST005 SW-W=,
20180114_020000.002,0,RJOH,,,,0,20180114020000,-1,-1,-1,-1,999,-1,2,-1,-1,-1,-1,,9999,0,0,2,FEW 5   BKN 50,1,2,-1,1,1033,RJOH 140200Z VRB02KT 9999 FEW005 BKN050 02/M01 Q1033 RMK     1ST005 7SC050 A3051 1ST005 SW-W=,
20180114_030000.000,0,RJOH,,,,0,20180114030000,-1,-1,-1,-1,130,-1,4,-1,-1,-1,-1,,9999,0,0,2,FEW 25   BKN 45,1,2,-1,3,1032,RJOH 140300Z 13004KT 9999 FEW025 BKN045 02/M03 Q1032 RMK 1CU025     7SC045 A3048=,
20180114_030000.002,0,RJOH,,,,0,20180114030000,-1,-1,-1,-1,130,-1,4,-1,-1,-1,-1,,9999,0,0,2,FEW 25   BKN 45,1,2,-1,3,1032,RJOH 140300Z 13004KT 9999 FEW025 BKN045 02/M03 Q1032 RMK     1CU025 7SC045 A3048=,
20180114_040000.000,0,RJOH,,,,0,20180114040000,-1,-1,-1,-1,0,-1,0,-1,-1,-1,-1,,9999,0,0,2,FEW 25   BKN 50,1,3,-1,3,1030,RJOH 140400Z 00000KT 9999 FEW025 BKN050 03/M03 Q1030 RMK 1CU025     7SC050 A3044=,
20180114_040000.002,0,RJOH,,,,0,20180114040000,-1,-1,-1,-1,0,-1,0,-1,-1,-1,-1,,9999,0,0,2,FEW 25   BKN 50,1,3,-1,3,1030,RJOH 140400Z 00000KT 9999 FEW025 BKN050 03/M03 Q1030 RMK     1CU025 7SC050 A3044=,
20180114_050000.000,0,RJOH,,,,0,20180114050000,-1,-1,-1,-1,140,-1,5,-1,-1,110,170,,9999,0,0,2,FEW 25   BKN 250,1,5,-1,4,1030,RJOH 140500Z 14005KT 110V170 9999 FEW025 BKN250 05/M04 Q1030     RMK 1CU025 A3042=,
20180114_050000.002,0,RJOH,,,,0,20180114050000,-1,-1,-1,-1,140,-1,5,-1,-1,110,170,,9999,0,0,2,FEW 25   BKN 250,1,5,-1,4,1030,RJOH 140500Z 14005KT 110V170 9999 FEW025 BKN250 05/M04 Q1030     RMK 1CU025 A3042=,
20180114_060000.000,0,RJOH,,,,0,20180114060000,-1,-1,-1,-1,130,-1,4,-1,-1,90,160,,9999,0,0,2,FEW 25   BKN 250,1,6,-1,7,1029,RJOH 140600Z 13004KT 090V160 9999 FEW025 BKN250 06/M07 Q1029     RMK 1CU025 A3040=,
20180114_060000.003,0,RJOH,,,,0,20180114060000,-1,-1,-1,-1,130,-1,4,-1,-1,90,160,,9999,0,0,2,FEW 25   BKN 250,1,6,-1,7,1029,RJOH 140600Z 13004KT 090V160 9999 FEW025 BKN250 06/M07 Q1029     RMK 1CU025 A3040=,
20180114_070000.000,0,RJOH,,,,0,20180114070000,-1,-1,-1,-1,140,-1,4,-1,-1,-1,-1,,9999,0,0,2,FEW 25   SCT 250,1,6,-1,6,1029,RJOH 140700Z 14004KT 9999 FEW025 SCT250 06/M06 Q1029 RMK 1CU025     A3040=,
20180114_070000.002,0,RJOH,,,,0,20180114070000,-1,-1,-1,-1,140,-1,4,-1,-1,-1,-1,,9999,0,0,2,FEW 25   SCT 250,1,6,-1,6,1029,RJOH 140700Z 14004KT 9999 FEW025 SCT250 06/M06 Q1029 RMK     1CU025 A3040=,
20180114_080000.000,0,RJOH,,,,0,20180114080000,-1,-1,-1,-1,0,-1,0,-1,-1,-1,-1,,9999,0,0,2,FEW 30   BKN 45,1,6,-1,6,1029,RJOH 140800Z 00000KT 9999 FEW030 BKN045 06/M06 Q1029 RMK 1CU030     5SC045 A3040=,
20180114_080000.002,0,RJOH,,,,0,20180114080000,-1,-1,-1,-1,0,-1,0,-1,-1,-1,-1,,9999,0,0,2,FEW 30   BKN 45,1,6,-1,6,1029,RJOH 140800Z 00000KT 9999 FEW030 BKN045 06/M06 Q1029 RMK     1CU030 5SC045 A3040=,
20180114_090000.000,0,RJOH,,,,0,20180114090000,-1,-1,-1,-1,210,-1,6,-1,-1,-1,-1,,9999,0,0,2,FEW 30   BKN 50,1,2,-1,2,1029,RJOH 140900Z 21006KT 9999 FEW030 BKN050 02/M02 Q1029 RMK 1CU030     5SC050 A3040=,
20180114_090000.002,0,RJOH,,,,0,20180114090000,-1,-1,-1,-1,210,-1,6,-1,-1,-1,-1,,9999,0,0,2,FEW 30   BKN 50,1,2,-1,2,1029,RJOH 140900Z 21006KT 9999 FEW030 BKN050 02/M02 Q1029 RMK     1CU030 5SC050 A3040=,
20180114_100000.000,0,RJOH,,,,0,20180114100000,-1,-1,-1,-1,200,-1,6,-1,-1,-1,-1,,9999,0,0,2,FEW 30   SCT 50,1,1,-1,2,1029,RJOH 141000Z 20006KT 9999 FEW030 SCT050 01/M02 Q1029 RMK 1CU030     3SC050 A3041=,
20180114_100000.002,0,RJOH,,,,0,20180114100000,-1,-1,-1,-1,200,-1,6,-1,-1,-1,-1,,9999,0,0,2,FEW 30   SCT 50,1,1,-1,2,1029,RJOH 141000Z 20006KT 9999 FEW030 SCT050 01/M02 Q1029 RMK     1CU030 3SC050 A3041=,
20180114_110000.000,0,RJOH,,,,0,20180114110000,-1,-1,-1,-1,190,-1,6,-1,-1,-1,-1,,9999,0,0,1,FEW 50,1,0,-1,2,1029,RJOH 141100Z 19006KT 9999 FEW050 00/M02 Q1029 RMK 2SC050 A3040=,
20180114_110000.002,0,RJOH,,,,0,20180114110000,-1,-1,-1,-1,190,-1,6,-1,-1,-1,-1,,9999,0,0,1,FEW 50,1,0,-1,2,1029,RJOH 141100Z 19006KT 9999 FEW050 00/M02 Q1029 RMK 2SC050     A3040=,
20180114_120000.000,0,RJOH,,,,0,20180114120000,-1,-1,-1,-1,200,-1,7,-1,-1,-1,-1,,9999,0,0,1,FEW 50,1,0,-1,3,1029,RJOH 141200Z 20007KT 9999 FEW050 00/M03 Q1029 RMK 1SC050 A3040=,
20180114_120000.002,0,RJOH,,,,0,20180114120000,-1,-1,-1,-1,200,-1,7,-1,-1,-1,-1,,9999,0,0,1,FEW 50,1,0,-1,3,1029,RJOH 141200Z 20007KT 9999 FEW050 00/M03 Q1029 RMK 1SC050     A3040=,
20180114_130000.000,0,RJOH,,,,0,20180114130000,-1,-1,-1,-1,200,-1,7,-1,-1,-1,-1,,9999,0,0,1,FEW 50,1,0,-1,3,1029,RJOH 141300Z 20007KT 9999 FEW050 00/M03 Q1029 RMK 1SC050 A3040=,
20180114_130000.003,0,RJOH,,,,0,20180114130000,-1,-1,-1,-1,200,-1,7,-1,-1,-1,-1,,9999,0,0,1,FEW 50,1,0,-1,3,1029,RJOH 141300Z 20007KT 9999 FEW050 00/M03 Q1029 RMK 1SC050     A3040=,
20180114_140000.000,0,RJOH,,,,0,20180114140000,-1,-1,-1,-1,200,-1,7,-1,-1,-1,-1,,9999,0,0,1,NSC -1,-1,0,-1,4,1029,RJOH 141400Z 20007KT 9999 NSC M00/M04 Q1029 RMK A3039=,
20180114_140000.002,0,RJOH,,,,0,20180114140000,-1,-1,-1,-1,200,-1,7,-1,-1,-1,-1,,9999,0,0,1,NSC -1,-1,0,-1,4,1029,RJOH 141400Z 20007KT 9999 NSC M00/M04 Q1029 RMK A3039=,
20180114_150000.000,0,RJOH,,,,0,20180114150000,-1,-1,-1,-1,180,-1,7,-1,-1,-1,-1,,9999,0,0,1,FEW 40,-1,0,-1,4,1028,RJOH 141500Z 18007KT 9999 FEW040 M00/M04 Q1028 RMK 1CU040     A3037=,
20180114_150000.002,0,RJOH,,,,0,20180114150000,-1,-1,-1,-1,180,-1,7,-1,-1,-1,-1,,9999,0,0,1,FEW 40,-1,0,-1,4,1028,RJOH 141500Z 18007KT 9999 FEW040 M00/M04 Q1028 RMK 1CU040     A3037=,
20180114_160000.000,0,RJOH,,,,0,20180114160000,-1,-1,-1,-1,180,-1,7,-1,-1,-1,-1,,9999,0,0,1,FEW 40,1,0,-1,4,1027,RJOH 141600Z 18007KT 9999 FEW040 00/M04 Q1027 RMK 1CU040 A3035=,
20180114_160000.002,0,RJOH,,,,0,20180114160000,-1,-1,-1,-1,180,-1,7,-1,-1,-1,-1,,9999,0,0,1,FEW 40,1,0,-1,4,1027,RJOH 141600Z 18007KT 9999 FEW040 00/M04 Q1027 RMK 1CU040     A3035=,
20180114_170000.000,0,RJOH,,,,0,20180114170000,-1,-1,-1,-1,180,-1,7,-1,-1,-1,-1,,9999,0,0,1,FEW 40,1,1,-1,5,1027,RJOH 141700Z 18007KT 9999 FEW040 01/M05 Q1027 RMK 1CU040 A3035=,
20180114_170000.002,0,RJOH,,,,0,20180114170000,-1,-1,-1,-1,180,-1,7,-1,-1,-1,-1,,9999,0,0,1,FEW 40,1,1,-1,5,1027,RJOH 141700Z 18007KT 9999 FEW040 01/M05 Q1027 RMK 1CU040     A3035=,
20180114_180000.000,0,RJOH,,,,0,20180114180000,-1,-1,-1,-1,170,-1,10,-1,-1,-1,-1,,9999,0,0,1,FEW -9999,1,1,-1,5,1027,RJOH 141800Z 17010KT 9999 FEW/// 01/M05 Q1027 RMK A3033=,
20180114_180000.003,0,RJOH,,,,0,20180114180000,-1,-1,-1,-1,170,-1,10,-1,-1,-1,-1,,9999,0,0,1,FEW -9999,1,1,-1,5,1027,RJOH 141800Z 17010KT 9999 FEW/// 01/M05 Q1027 RMK A3033=,
20180114_190000.000,0,RJOH,,,,0,20180114190000,-1,-1,-1,-1,180,-1,9,-1,-1,-1,-1,,9999,0,0,1,FEW -9999,1,1,-1,5,1027,RJOH 141900Z 18009KT 9999 FEW/// 01/M05 Q1027 RMK A3033=,
20180114_190000.002,0,RJOH,,,,0,20180114190000,-1,-1,-1,-1,180,-1,9,-1,-1,-1,-1,,9999,0,0,1,FEW -9999,1,1,-1,5,1027,RJOH 141900Z 18009KT 9999 FEW/// 01/M05 Q1027 RMK A3033=,
20180114_200000.000,0,RJOH,,,,0,20180114200000,-1,-1,-1,-1,180,-1,7,-1,-1,-1,-1,,9999,0,0,1,FEW -9999,1,1,-1,5,1026,RJOH 142000Z 18007KT 9999 FEW/// 01/M05 Q1026 RMK A3032=,
20180114_200000.003,0,RJOH,,,,0,20180114200000,-1,-1,-1,-1,180,-1,7,-1,-1,-1,-1,,9999,0,0,1,FEW -9999,1,1,-1,5,1026,RJOH 142000Z 18007KT 9999 FEW/// 01/M05 Q1026 RMK A3032=,
20180114_210000.000,0,RJOH,,,,0,20180114210000,-1,-1,-1,-1,190,-1,7,-1,-1,-1,-1,,9999,0,0,1,FEW -9999,1,1,-1,5,1026,RJOH 142100Z 19007KT 9999 FEW/// 01/M05 Q1026 RMK A3032 06/M01     R000 S000=,
20180114_210000.002,0,RJOH,,,,0,20180114210000,-1,-1,-1,-1,190,-1,7,-1,-1,-1,-1,,9999,0,0,1,FEW -9999,1,1,-1,5,1026,RJOH 142100Z 19007KT 9999 FEW/// 01/M05 Q1026 RMK A3032 06/M01     R000 S000=,
20180114_220000.000,0,RJOH,,,,0,20180114220000,-1,-1,-1,-1,200,-1,6,-1,-1,-1,-1,,9999,0,0,1,FEW 30,-1,0,-1,4,1026,RJOH 142200Z 20006KT 9999 FEW030 M00/M04 Q1026 RMK 1CU030     A3032=,
20180114_220000.002,0,RJOH,,,,0,20180114220000,-1,-1,-1,-1,200,-1,6,-1,-1,-1,-1,,9999,0,0,1,FEW 30,-1,0,-1,4,1026,RJOH 142200Z 20006KT 9999 FEW030 M00/M04 Q1026 RMK 1CU030     A3032=,
20180114_230000.000,0,RJOH,,,,0,20180114230000,-1,-1,-1,-1,170,-1,5,-1,-1,-1,-1,,9999,0,0,2,FEW 30   SCT 230,1,1,-1,4,1026,RJOH 142300Z 17005KT 9999 FEW030 SCT230 01/M04 Q1026 RMK 1CU030     A3031=,
20180114_230000.002,0,RJOH,,,,0,20180114230000,-1,-1,-1,-1,170,-1,5,-1,-1,-1,-1,,9999,0,0,2,FEW 30   SCT 230,1,1,-1,4,1026,RJOH 142300Z 17005KT 9999 FEW030 SCT230 01/M04 Q1026 RMK     1CU030 A3031=,
20180115_000000.000,0,RJOH,,,,0,20180115000000,-1,-1,-1,-1,140,-1,3,-1,-1,70,230,,9999,0,0,2,FEW 30   SCT 240,1,3,-1,4,1026,RJOH 150000Z 14003KT 070V230 9999 FEW030 SCT240 03/M04 Q1026     RMK 1CU030 A3031=,
20180115_000000.002,0,RJOH,,,,0,20180115000000,-1,-1,-1,-1,140,-1,3,-1,-1,70,230,,9999,0,0,2,FEW 30   SCT 240,1,3,-1,4,1026,RJOH 150000Z 14003KT 070V230 9999 FEW030 SCT240 03/M04 Q1026     RMK 1CU030 A3031=,
20180115_010000.000,0,RJOH,,,,0,20180115010000,-1,-1,-1,-1,200,-1,5,-1,-1,-1,-1,,9999,0,0,1,FEW 50,1,4,-1,3,1026,RJOH 150100Z 20005KT 9999 FEW050 04/M03 Q1026 RMK 1SC050 A3030=,
20180115_010000.002,0,RJOH,,,,0,20180115010000,-1,-1,-1,-1,200,-1,5,-1,-1,-1,-1,,9999,0,0,1,FEW 50,1,4,-1,3,1026,RJOH 150100Z 20005KT 9999 FEW050 04/M03 Q1026 RMK 1SC050     A3030=,
20180115_020000.000,0,RJOH,,,,0,20180115020000,-1,-1,-1,-1,270,-1,3,-1,-1,-1,-1,,9999,0,0,3,FEW 30   BKN 70   BKN 100,1,5,-1,3,1025,RJOH 150200Z 27003KT 9999 FEW030 BKN070 BKN100 05/M03 Q1025 RMK     1CU030 6AC070 7AC100 A3027=,
20180115_020000.002,0,RJOH,,,,0,20180115020000,-1,-1,-1,-1,270,-1,3,-1,-1,-1,-1,,9999,0,0,3,FEW 30   BKN 70   BKN 100,1,5,-1,3,1025,RJOH 150200Z 27003KT 9999 FEW030 BKN070 BKN100 05/M03 Q1025     RMK 1CU030 6AC070 7AC100 A3027=,
20180115_030000.000,0,RJOH,,,,0,20180115030000,-1,-1,-1,-1,230,-1,5,-1,-1,-1,-1,,9999,0,0,3,FEW 30   SCT 40   BKN 50,1,5,-1,2,1023,RJOH 150300Z 23005KT 9999 FEW030 SCT040 BKN050 05/M02 Q1023 RMK     1CU030 3CU040 7SC050 A3023=,
20180115_030000.002,0,RJOH,,,,0,20180115030000,-1,-1,-1,-1,230,-1,5,-1,-1,-1,-1,,9999,0,0,3,FEW 30   SCT 40   BKN 50,1,5,-1,2,1023,RJOH 150300Z 23005KT 9999 FEW030 SCT040 BKN050 05/M02 Q1023     RMK 1CU030 3CU040 7SC050 A3023=,
20180115_040000.000,0,RJOH,,,,0,20180115040000,-1,-1,-1,-1,240,-1,5,-1,-1,-1,-1,,9999,0,0,3,FEW 30   SCT 40   BKN 50,1,7,-1,2,1022,RJOH 150400Z 24005KT 9999 FEW030 SCT040 BKN050 07/M02 Q1022 RMK     1CU030 3CU040 7SC050 A3019=,
20180115_040000.002,0,RJOH,,,,0,20180115040000,-1,-1,-1,-1,240,-1,5,-1,-1,-1,-1,,9999,0,0,3,FEW 30   SCT 40   BKN 50,1,7,-1,2,1022,RJOH 150400Z 24005KT 9999 FEW030 SCT040 BKN050 07/M02 Q1022     RMK 1CU030 3CU040 7SC050 A3019=,
20180115_050000.000,0,RJOH,,,,0,20180115050000,-1,-1,-1,-1,220,-1,4,-1,-1,-1,-1,,9999,0,0,2,FEW 40   BKN 50,1,7,-1,2,1021,RJOH 150500Z 22004KT 9999 FEW040 BKN050 07/M02 Q1021 RMK 2CU040     7SC050 A3018=,
20180115_050000.002,0,RJOH,,,,0,20180115050000,-1,-1,-1,-1,220,-1,4,-1,-1,-1,-1,,9999,0,0,2,FEW 40   BKN 50,1,7,-1,2,1021,RJOH 150500Z 22004KT 9999 FEW040 BKN050 07/M02 Q1021 RMK     2CU040 7SC050 A3018=,
20180115_060000.000,0,RJOH,,,,0,20180115060000,-1,-1,-1,-1,220,-1,9,-1,-1,180,240,,9999,0,0,3,FEW 35   SCT 40   BKN 60,1,8,1,0,1022,RJOH 150600Z 22009KT 180V240 9999 FEW035 SCT040 BKN060 08/00     Q1022 RMK 1CU035 3CU040 7SC060 A3019=,
20180115_060000.002,0,RJOH,,,,0,20180115060000,-1,-1,-1,-1,220,-1,9,-1,-1,180,240,,9999,0,0,3,FEW 35   SCT 40   BKN 60,1,8,1,0,1022,RJOH 150600Z 22009KT 180V240 9999 FEW035 SCT040 BKN060 08/00     Q1022 RMK 1CU035 3CU040 7SC060 A3019=,
20180115_070000.000,0,RJOH,,,,0,20180115070000,-1,-1,-1,-1,220,-1,12,-1,-1,-1,-1,,9999,0,0,2,FEW 30   BKN 35,1,9,1,0,1022,RJOH 150700Z 22012KT 9999 FEW030 BKN035 09/00 Q1022 RMK 1CU030     5CU035 A3019=,
20180115_070000.003,0,RJOH,,,,0,20180115070000,-1,-1,-1,-1,220,-1,12,-1,-1,-1,-1,,9999,0,0,2,FEW 30   BKN 35,1,9,1,0,1022,RJOH 150700Z 22012KT 9999 FEW030 BKN035 09/00 Q1022 RMK 1CU030     5CU035 A3019=,
20180115_080000.000,0,RJOH,,,,0,20180115080000,-1,-1,-1,-1,220,-1,12,-1,-1,-1,-1,,9999,0,0,2,FEW 30   SCT 35,1,8,1,1,1022,RJOH 150800Z 22012KT 9999 FEW030 SCT035 08/01 Q1022 RMK 1CU030     3CU035 A3020=,
20180115_080000.002,0,RJOH,,,,0,20180115080000,-1,-1,-1,-1,220,-1,12,-1,-1,-1,-1,,9999,0,0,2,FEW 30   SCT 35,1,8,1,1,1022,RJOH 150800Z 22012KT 9999 FEW030 SCT035 08/01 Q1022 RMK 1CU030     3CU035 A3020=,
20180115_090000.000,0,RJOH,,,,0,20180115090000,-1,-1,-1,-1,180,-1,9,-1,-1,-1,-1,,9999,0,0,2,FEW 35   BKN 60,1,6,1,0,1023,RJOH 150900Z 18009KT 9999 FEW035 BKN060 06/00 Q1023 RMK 2CU035     6SC060 A3022=,
20180115_090000.002,0,RJOH,,,,0,20180115090000,-1,-1,-1,-1,180,-1,9,-1,-1,-1,-1,,9999,0,0,2,FEW 35   BKN 60,1,6,1,0,1023,RJOH 150900Z 18009KT 9999 FEW035 BKN060 06/00 Q1023 RMK 2CU035     6SC060 A3022=,
20180115_100000.000,0,RJOH,,,,0,20180115100000,-1,-1,-1,-1,999,-1,1,-1,-1,-1,-1,,9999,0,0,2,SCT 35   BKN 60,1,7,1,1,1023,RJOH 151000Z VRB01KT 9999 SCT035 BKN060 07/01 Q1023 RMK 3CU035     6SC060 A3023=,
20180115_100000.002,0,RJOH,,,,0,20180115100000,-1,-1,-1,-1,999,-1,1,-1,-1,-1,-1,,9999,0,0,2,SCT 35   BKN 60,1,7,1,1,1023,RJOH 151000Z VRB01KT 9999 SCT035 BKN060 07/01 Q1023 RMK 3CU035     6SC060 A3023=,
20180115_110000.000,0,RJOH,,,,0,20180115110000,-1,-1,-1,-1,210,-1,4,-1,-1,-1,-1,,9999,0,0,2,FEW 35   BKN 60,1,6,1,1,1024,RJOH 151100Z 21004KT 9999 FEW035 BKN060 06/01 Q1024 RMK 1CU035     6SC060 A3024=,
20180115_110000.002,0,RJOH,,,,0,20180115110000,-1,-1,-1,-1,210,-1,4,-1,-1,-1,-1,,9999,0,0,2,FEW 35   BKN 60,1,6,1,1,1024,RJOH 151100Z 21004KT 9999 FEW035 BKN060 06/01 Q1024 RMK 1CU035     6SC060 A3024=,
20180115_120000.000,0,RJOH,,,,0,20180115120000,-1,-1,-1,-1,190,-1,6,-1,-1,-1,-1,,9999,0,0,2,FEW 35   BKN 60,1,4,1,1,1024,RJOH 151200Z 19006KT 9999 FEW035 BKN060 04/01 Q1024 RMK 1CU035     5SC060 A3025=,
20180115_120000.002,0,RJOH,,,,0,20180115120000,-1,-1,-1,-1,190,-1,6,-1,-1,-1,-1,,9999,0,0,2,FEW 35   BKN 60,1,4,1,1,1024,RJOH 151200Z 19006KT 9999 FEW035 BKN060 04/01 Q1024 RMK 1CU035     5SC060 A3025=,
20180115_130000.000,0,RJOH,,,,0,20180115130000,-1,-1,-1,-1,150,-1,3,-1,-1,120,210,,9999,0,0,2,FEW 35   BKN 50,1,5,1,1,1024,RJOH 151300Z 15003KT 120V210 9999 FEW035 BKN050 05/01 Q1024 RMK     2CU035 7SC050 A3025=,
20180115_130000.002,0,RJOH,,,,0,20180115130000,-1,-1,-1,-1,150,-1,3,-1,-1,120,210,,9999,0,0,2,FEW 35   BKN 50,1,5,1,1,1024,RJOH 151300Z 15003KT 120V210 9999 FEW035 BKN050 05/01 Q1024     RMK 2CU035 7SC050 A3025=,
20180115_140000.000,0,RJOH,,,,0,20180115140000,-1,-1,-1,-1,999,-1,2,-1,-1,-1,-1,,9999,0,0,3,FEW 30   SCT 35   BKN 50,1,5,1,1,1024,RJOH 151400Z VRB02KT 9999 FEW030 SCT035 BKN050 05/01 Q1024 RMK     1CU030 4CU035 5SC050 A3024=,
20180115_140000.002,0,RJOH,,,,0,20180115140000,-1,-1,-1,-1,999,-1,2,-1,-1,-1,-1,,9999,0,0,3,FEW 30   SCT 35   BKN 50,1,5,1,1,1024,RJOH 151400Z VRB02KT 9999 FEW030 SCT035 BKN050 05/01 Q1024 RMK     1CU030 4CU035 5SC050 A3024=,
20180115_150000.000,0,RJOH,,,,0,20180115150000,-1,-1,-1,-1,200,-1,3,-1,-1,-1,-1,,9999,0,0,3,FEW 30   BKN 35   BKN 50,1,3,1,0,1023,RJOH 151500Z 20003KT 9999 FEW030 BKN035 BKN050 03/00 Q1023 RMK     1CU030 5CU035 7SC050 A3024=,
20180115_150000.002,0,RJOH,,,,0,20180115150000,-1,-1,-1,-1,200,-1,3,-1,-1,-1,-1,,9999,0,0,3,FEW 30   BKN 35   BKN 50,1,3,1,0,1023,RJOH 151500Z 20003KT 9999 FEW030 BKN035 BKN050 03/00 Q1023 RMK     1CU030 5CU035 7SC050 A3024=,
20180115_160000.000,0,RJOH,,,,0,20180115160000,-1,-1,-1,-1,210,-1,5,-1,-1,-1,-1,,9999,0,0,3,FEW 25   BKN 30   BKN 50,1,3,1,0,1023,RJOH 151600Z 21005KT 9999 FEW025 BKN030 BKN050 03/00 Q1023 RMK     1CU025 5CU030 7SC050 A3023=,
20180115_160000.002,0,RJOH,,,,0,20180115160000,-1,-1,-1,-1,210,-1,5,-1,-1,-1,-1,,9999,0,0,3,FEW 25   BKN 30   BKN 50,1,3,1,0,1023,RJOH 151600Z 21005KT 9999 FEW025 BKN030 BKN050 03/00 Q1023 RMK     1CU025 5CU030 7SC050 A3023=,
20180115_170000.000,0,RJOH,,,,0,20180115170000,-1,-1,-1,-1,200,-1,4,-1,-1,-1,-1,,9999,0,0,3,FEW 25   BKN 30   BKN 50,1,3,1,0,1022,RJOH 151700Z 20004KT 9999 FEW025 BKN030 BKN050 03/00 Q1022 RMK     1CU025 6CU030 7SC050 A3020=,
20180115_170000.002,0,RJOH,,,,0,20180115170000,-1,-1,-1,-1,200,-1,4,-1,-1,-1,-1,,9999,0,0,3,FEW 25   BKN 30   BKN 50,1,3,1,0,1022,RJOH 151700Z 20004KT 9999 FEW025 BKN030 BKN050 03/00 Q1022 RMK     1CU025 6CU030 7SC050 A3020=,
20180115_180000.000,0,RJOH,,,,0,20180115180000,-1,-1,-1,-1,999,-1,1,-1,-1,-1,-1,,9999,0,0,2,FEW 30   BKN -9999,1,3,1,1,1021,RJOH 151800Z VRB01KT 9999 FEW030 BKN/// 03/01 Q1021 RMK 1CU030     A3016=,
20180115_180000.002,0,RJOH,,,,0,20180115180000,-1,-1,-1,-1,999,-1,1,-1,-1,-1,-1,,9999,0,0,2,FEW 30   BKN -9999,1,3,1,1,1021,RJOH 151800Z VRB01KT 9999 FEW030 BKN/// 03/01 Q1021 RMK 1CU030     A3016=,
20180115_190000.000,0,RJOH,,,,0,20180115190000,-1,-1,-1,-1,200,-1,6,-1,-1,-1,-1,,9999,0,0,2,FEW 30   SCT -9999,1,2,-1,0,1021,RJOH 151900Z 20006KT 9999 FEW030 SCT/// 02/M00 Q1021 RMK 1CU030     A3017=,
20180115_190000.002,0,RJOH,,,,0,20180115190000,-1,-1,-1,-1,200,-1,6,-1,-1,-1,-1,,9999,0,0,2,FEW 30   SCT -9999,1,2,-1,0,1021,RJOH 151900Z 20006KT 9999 FEW030 SCT/// 02/M00 Q1021 RMK     1CU030 A3017=,
20180115_200000.000,0,RJOH,,,,0,20180115200000,-1,-1,-1,-1,210,-1,6,-1,-1,-1,-1,,9999,0,0,1,FEW 8,1,2,-1,0,1022,RJOH 152000Z 21006KT 9999 FEW008 02/M00 Q1022 RMK 1ST008 A3019=,
20180115_200000.002,0,RJOH,,,,0,20180115200000,-1,-1,-1,-1,210,-1,6,-1,-1,-1,-1,,9999,0,0,1,FEW 8,1,2,-1,0,1022,RJOH 152000Z 21006KT 9999 FEW008 02/M00 Q1022 RMK 1ST008     A3019=,
20180115_210000.000,0,RJOH,,,,0,20180115210000,-1,-1,-1,-1,210,-1,4,-1,-1,-1,-1,,9999,0,0,1,FEW -9999,1,3,1,0,1022,RJOH 152100Z 21004KT 9999 FEW/// 03/00 Q1022 RMK A3018 09/01     R000=,
20180115_210000.002,0,RJOH,,,,0,20180115210000,-1,-1,-1,-1,210,-1,4,-1,-1,-1,-1,,9999,0,0,1,FEW -9999,1,3,1,0,1022,RJOH 152100Z 21004KT 9999 FEW/// 03/00 Q1022 RMK A3018 09/01     R000=,
20180115_220000.000,0,RJOH,,,,0,20180115220000,-1,-1,-1,-1,200,-1,5,-1,-1,-1,-1,,9999,0,0,1,FEW 50,1,2,-1,1,1022,RJOH 152200Z 20005KT 9999 FEW050 02/M01 Q1022 RMK 2SC050 A3019=,
20180115_220000.002,0,RJOH,,,,0,20180115220000,-1,-1,-1,-1,200,-1,5,-1,-1,-1,-1,,9999,0,0,1,FEW 50,1,2,-1,1,1022,RJOH 152200Z 20005KT 9999 FEW050 02/M01 Q1022 RMK 2SC050     A3019=,
20180115_230000.000,0,RJOH,,,,0,20180115230000,-1,-1,-1,-1,220,-1,5,-1,-1,-1,-1,,9999,0,0,2,FEW 30   BKN 60,1,2,-1,0,1022,RJOH 152300Z 22005KT 9999 FEW030 BKN060 02/M00 Q1022 RMK 1CU030     5SC060 A3018=,
20180115_230000.002,0,RJOH,,,,0,20180115230000,-1,-1,-1,-1,220,-1,5,-1,-1,-1,-1,,9999,0,0,2,FEW 30   BKN 60,1,2,-1,0,1022,RJOH 152300Z 22005KT 9999 FEW030 BKN060 02/M00 Q1022 RMK     1CU030 5SC060 A3018=,
20180116_000000.000,0,RJOH,,,,0,20180116000000,-1,-1,-1,-1,230,-1,5,-1,-1,-1,-1,,9999,0,0,2,FEW 30   BKN 60,1,4,1,1,1021,RJOH 160000Z 23005KT 9999 FEW030 BKN060 04/01 Q1021 RMK 1CU030     6SC060 A3018=,
20180116_000000.002,0,RJOH,,,,0,20180116000000,-1,-1,-1,-1,230,-1,5,-1,-1,-1,-1,,9999,0,0,2,FEW 30   BKN 60,1,4,1,1,1021,RJOH 160000Z 23005KT 9999 FEW030 BKN060 04/01 Q1021 RMK 1CU030     6SC060 A3018=,
20180116_010000.000,0,RJOH,,,,0,20180116010000,-1,-1,-1,-1,220,-1,4,-1,-1,-1,-1,,9999,0,0,2,FEW 30   BKN 60,1,4,1,1,1021,RJOH 160100Z 22004KT 9999 FEW030 BKN060 04/01 Q1021 RMK 1CU030     7SC060 A3015=,
20180116_010000.002,0,RJOH,,,,0,20180116010000,-1,-1,-1,-1,220,-1,4,-1,-1,-1,-1,,9999,0,0,2,FEW 30   BKN 60,1,4,1,1,1021,RJOH 160100Z 22004KT 9999 FEW030 BKN060 04/01 Q1021 RMK 1CU030     7SC060 A3015=,
20180116_020000.000,0,RJOH,,,,0,20180116020000,-1,-1,-1,-1,320,-1,3,-1,-1,-1,-1,,9999,0,0,2,FEW 50   SCT 110,1,9,1,2,1020,RJOH 160200Z 32003KT 9999 FEW050 SCT110 09/02 Q1020 RMK 2SC050     4AC110 A3013=,
20180116_020000.002,0,RJOH,,,,0,20180116020000,-1,-1,-1,-1,320,-1,3,-1,-1,-1,-1,,9999,0,0,2,FEW 50   SCT 110,1,9,1,2,1020,RJOH 160200Z 32003KT 9999 FEW050 SCT110 09/02 Q1020 RMK 2SC050     4AC110 A3013=,
20180116_030000.000,0,RJOH,,,,0,20180116030000,-1,-1,-1,-1,210,-1,2,-1,-1,-1,-1,,9999,0,0,2,FEW 30   BKN 70,1,12,1,2,1018,RJOH 160300Z 21002KT 9999 FEW030 BKN070 12/02 Q1018 RMK 1CU030     5AC070 A3009=,
20180116_030000.002,0,RJOH,,,,0,20180116030000,-1,-1,-1,-1,210,-1,2,-1,-1,-1,-1,,9999,0,0,2,FEW 30   BKN 70,1,12,1,2,1018,RJOH 160300Z 21002KT 9999 FEW030 BKN070 12/02 Q1018 RMK 1CU030     5AC070 A3009=,
20180116_040000.000,0,RJOH,,,,0,20180116040000,-1,-1,-1,-1,10,-1,3,-1,-1,-1,-1,,9999,0,0,2,FEW 30   BKN 60,1,13,1,3,1017,RJOH 160400Z 01003KT 9999 FEW030 BKN060 13/03 Q1017 RMK 1CU030     5SC060 A3005=,
20180116_040000.002,0,RJOH,,,,0,20180116040000,-1,-1,-1,-1,10,-1,3,-1,-1,-1,-1,,9999,0,0,2,FEW 30   BKN 60,1,13,1,3,1017,RJOH 160400Z 01003KT 9999 FEW030 BKN060 13/03 Q1017 RMK 1CU030     5SC060 A3005=,
20180116_050000.000,0,RJOH,,,,0,20180116050000,-1,-1,-1,-1,60,-1,3,-1,-1,-1,-1,,9999,0,0,3,FEW 30   SCT 40   BKN 50,1,13,1,3,1016,RJOH 160500Z 06003KT 9999 FEW030 SCT040 BKN050 13/03 Q1016 RMK     1CU030 3CU040 7SC050 A3002=,
20180116_050000.002,0,RJOH,,,,0,20180116050000,-1,-1,-1,-1,60,-1,3,-1,-1,-1,-1,,9999,0,0,3,FEW 30   SCT 40   BKN 50,1,13,1,3,1016,RJOH 160500Z 06003KT 9999 FEW030 SCT040 BKN050 13/03 Q1016 RMK     1CU030 3CU040 7SC050 A3002=,
20180116_060000.000,0,RJOH,,,,0,20180116060000,-1,-1,-1,-1,220,-1,2,-1,-1,-1,-1,,9999,0,0,3,FEW 20   SCT 35   BKN 50,1,12,1,4,1016,RJOH 160600Z 22002KT 9999 FEW020 SCT035 BKN050 12/04 Q1016 RMK     1CU020 3CU035 7SC050 A3000=,
20180116_060000.002,0,RJOH,,,,0,20180116060000,-1,-1,-1,-1,220,-1,2,-1,-1,-1,-1,,9999,0,0,3,FEW 20   SCT 35   BKN 50,1,12,1,4,1016,RJOH 160600Z 22002KT 9999 FEW020 SCT035 BKN050 12/04 Q1016 RMK     1CU020 3CU035 7SC050 A3000=,
20180116_070000.000,0,RJOH,,,,0,20180116070000,-1,-1,-1,-1,200,-1,5,-1,-1,-1,-1,,9999,0,1,3,FEW 20   SCT 30   BKN 50,1,12,1,3,1015,RJOH 160700Z 20005KT 9999 -SHRA FEW020 SCT030 BKN050 12/03     Q1015 RMK 1CU020 3CU030 7SC050 A3000=,- RA SH
20180116_070000.002,0,RJOH,,,,0,20180116070000,-1,-1,-1,-1,200,-1,5,-1,-1,-1,-1,,9999,0,1,3,FEW 20   SCT 30   BKN 50,1,12,1,3,1015,RJOH 160700Z 20005KT 9999 -SHRA FEW020 SCT030 BKN050 12/03     Q1015 RMK 1CU020 3CU030 7SC050 A3000=,- RA SH
20180116_080000.000,0,RJOH,,,,0,20180116080000,-1,-1,-1,-1,180,-1,7,-1,-1,-1,-1,,9999,0,1,3,FEW 20   SCT 30   BKN 50,1,10,1,3,1015,RJOH 160800Z 18007KT 9999 -SHRA FEW020 SCT030 BKN050 10/03     Q1015 RMK 1CU020 3CU030 7SC050 A2998=,- RA SH
20180116_080000.002,0,RJOH,,,,0,20180116080000,-1,-1,-1,-1,180,-1,7,-1,-1,-1,-1,,9999,0,1,3,FEW 20   SCT 30   BKN 50,1,10,1,3,1015,RJOH 160800Z 18007KT 9999 -SHRA FEW020 SCT030 BKN050 10/03     Q1015 RMK 1CU020 3CU030 7SC050 A2998=,- RA SH
20180116_090000.000,0,RJOH,,,,0,20180116090000,-1,-1,-1,-1,330,-1,3,-1,-1,-1,-1,,9999,0,0,3,FEW 20   SCT 30   BKN 50,1,11,1,3,1015,RJOH 160900Z 33003KT 9999 FEW020 SCT030 BKN050 11/03 Q1015 RMK     1CU020 3CU030 7SC050 A2998=,
20180116_090000.002,0,RJOH,,,,0,20180116090000,-1,-1,-1,-1,330,-1,3,-1,-1,-1,-1,,9999,0,0,3,FEW 20   SCT 30   BKN 50,1,11,1,3,1015,RJOH 160900Z 33003KT 9999 FEW020 SCT030 BKN050 11/03 Q1015 RMK     1CU020 3CU030 7SC050 A2998=,
20180116_100000.000,0,RJOH,,,,0,20180116100000,-1,-1,-1,-1,350,-1,7,-1,-1,-1,-1,,9999,0,1,3,FEW 20   SCT 30   BKN 50,1,10,1,5,1015,RJOH 161000Z 35007KT 9999 -SHRA FEW020 SCT030 BKN050 10/05     Q1015 RMK 1CU020 3CU030 7SC050 A2999=,- RA SH
20180116_100000.002,0,RJOH,,,,0,20180116100000,-1,-1,-1,-1,350,-1,7,-1,-1,-1,-1,,9999,0,1,3,FEW 20   SCT 30   BKN 50,1,10,1,5,1015,RJOH 161000Z 35007KT 9999 -SHRA FEW020 SCT030 BKN050 10/05     Q1015 RMK 1CU020 3CU030 7SC050 A2999=,- RA SH
20180116_110000.000,0,RJOH,,,,0,20180116110000,-1,-1,-1,-1,340,-1,2,-1,-1,-1,-1,,9999,0,1,3,FEW 20   BKN 30   BKN 45,1,9,1,7,1016,RJOH 161100Z 34002KT 9999 -SHRA FEW020 BKN030 BKN045 09/07     Q1016 RMK 1CU020 5CU030 7SC045 A3000=,- RA SH
20180116_110000.004,0,RJOH,,,,0,20180116110000,-1,-1,-1,-1,340,-1,2,-1,-1,-1,-1,,9999,0,1,3,FEW 20   BKN 30   BKN 45,1,9,1,7,1016,RJOH 161100Z 34002KT 9999 -SHRA FEW020 BKN030 BKN045 09/07     Q1016 RMK 1CU020 5CU030 7SC045 A3000=,- RA SH
20180116_120000.000,0,RJOH,,,,0,20180116120000,-1,-1,-1,-1,200,-1,2,-1,-1,-1,-1,,4000,1,2,3,FEW 4   SCT 8   BKN 15,1,7,1,5,1016,RJOH 161200Z 20002KT 4000 R25/0700VP1800U -SHRA BR FEW004     SCT008 BKN015 07/05 Q1016 RMK 2CU004 4CU008 7CU015 A3002           R1000=,- RA SH; BR
20180116_120000.002,0,RJOH,,,,0,20180116120000,-1,-1,-1,-1,200,-1,2,-1,-1,-1,-1,,4000,1,2,3,FEW 4   SCT 8   BKN 15,1,7,1,5,1016,RJOH 161200Z 20002KT 4000 R25/0700VP1800U -SHRA BR FEW004     SCT008 BKN015 07/05 Q1016 RMK 2CU004 4CU008 7CU015 A3002           R1000=,- RA SH; BR
20180116_130000.000,0,RJOH,,,,0,20180116130000,-1,-1,-1,-1,20,-1,8,-1,-1,-1,-1,,5000,0,2,3,FEW 7   BKN 15   BKN 25,1,9,1,6,1016,RJOH 161300Z 02008KT 5000 -SHRA BR FEW007 BKN015 BKN025 09/06     Q1016 RMK 1CU007 6CU015 7CU025 A3001=,- RA SH; BR
20180116_130000.002,0,RJOH,,,,0,20180116130000,-1,-1,-1,-1,20,-1,8,-1,-1,-1,-1,,5000,0,2,3,FEW 7   BKN 15   BKN 25,1,9,1,6,1016,RJOH 161300Z 02008KT 5000 -SHRA BR FEW007 BKN015 BKN025 09/06     Q1016 RMK 1CU007 6CU015 7CU025 A3001=,- RA SH; BR
20180116_140000.000,0,RJOH,,,,0,20180116140000,-1,-1,-1,-1,30,-1,11,-1,-1,-1,-1,,6000,0,1,3,FEW 7   BKN 15   BKN 25,1,9,1,5,1016,RJOH 161400Z 03011KT 6000 -SHRA FEW007 BKN015 BKN025 09/05     Q1016 RMK 1CU007 6CU015 7CU025 A3001=,- RA SH
20180116_140000.002,0,RJOH,,,,0,20180116140000,-1,-1,-1,-1,30,-1,11,-1,-1,-1,-1,,6000,0,1,3,FEW 7   BKN 15   BKN 25,1,9,1,5,1016,RJOH 161400Z 03011KT 6000 -SHRA FEW007 BKN015 BKN025 09/05     Q1016 RMK 1CU007 6CU015 7CU025 A3001=,- RA SH
20180116_150000.000,0,RJOH,,,,0,20180116150000,-1,-1,-1,-1,50,-1,14,-1,-1,-1,-1,,8000,0,1,3,FEW 8   SCT 15   BKN 25,1,8,1,5,1015,RJOH 161500Z 05014KT 8000 -SHRA FEW008 SCT015 BKN025 08/05     Q1015 RMK 1CU008 4CU015 7CU025 A2998=,- RA SH
20180116_150000.002,0,RJOH,,,,0,20180116150000,-1,-1,-1,-1,50,-1,14,-1,-1,-1,-1,,8000,0,1,3,FEW 8   SCT 15   BKN 25,1,8,1,5,1015,RJOH 161500Z 05014KT 8000 -SHRA FEW008 SCT015 BKN025 08/05     Q1015 RMK 1CU008 4CU015 7CU025 A2998=,- RA SH
20180116_160000.000,0,RJOH,,,,0,20180116160000,-1,-1,-1,-1,50,-1,15,-1,-1,-1,-1,,6000,0,1,3,FEW 6   SCT 8   BKN 15,1,9,1,6,1014,RJOH 161600Z 05015KT 6000 -SHRA FEW006 SCT008 BKN015 09/06     Q1014 RMK 1CU006 3CU008 6CU015 A2997=,- RA SH
20180116_160000.002,0,RJOH,,,,0,20180116160000,-1,-1,-1,-1,50,-1,15,-1,-1,-1,-1,,6000,0,1,3,FEW 6   SCT 8   BKN 15,1,9,1,6,1014,RJOH 161600Z 05015KT 6000 -SHRA FEW006 SCT008 BKN015 09/06     Q1014 RMK 1CU006 3CU008 6CU015 A2997=,- RA SH
20180116_170000.000,0,RJOH,,,,0,20180116170000,-1,-1,-1,-1,50,-1,16,-1,-1,-1,-1,,4000,0,1,3,FEW 6   BKN 8   BKN 15,1,9,1,6,1014,RJOH 161700Z 05016KT 4000 -SHRA FEW006 BKN008 BKN015 09/06     Q1014 RMK 1CU006 5CU008 7CU015 A2995=,- RA SH
20180116_170000.002,0,RJOH,,,,0,20180116170000,-1,-1,-1,-1,50,-1,16,-1,-1,-1,-1,,4000,0,1,3,FEW 6   BKN 8   BKN 15,1,9,1,6,1014,RJOH 161700Z 05016KT 4000 -SHRA FEW006 BKN008 BKN015 09/06     Q1014 RMK 1CU006 5CU008 7CU015 A2995=,- RA SH
20180116_180000.000,0,RJOH,,,,0,20180116180000,-1,-1,-1,-1,60,-1,16,-1,-1,-1,-1,,5000,0,1,3,FEW 6   BKN 8   BKN 15,1,9,1,7,1014,RJOH 161800Z 06016KT 5000 -SHRA FEW006 BKN008 BKN015 09/07     Q1014 RMK 1CU006 5CU008 7CU015 A2995=,- RA SH
20180116_180000.002,0,RJOH,,,,0,20180116180000,-1,-1,-1,-1,60,-1,16,-1,-1,-1,-1,,5000,0,1,3,FEW 6   BKN 8   BKN 15,1,9,1,7,1014,RJOH 161800Z 06016KT 5000 -SHRA FEW006 BKN008 BKN015 09/07     Q1014 RMK 1CU006 5CU008 7CU015 A2995=,- RA SH
20180116_190000.000,0,RJOH,,,,0,20180116190000,-1,-1,-1,-1,70,-1,17,-1,-1,-1,-1,,8000,0,1,3,FEW 5   BKN 8   BKN 15,1,9,1,7,1012,RJOH 161900Z 07017KT 8000 -SHRA FEW005 BKN008 BKN015 09/07     Q1012 RMK 1CU005 6CU008 7CU015 A2990=,- RA SH
20180116_190000.002,0,RJOH,,,,0,20180116190000,-1,-1,-1,-1,70,-1,17,-1,-1,-1,-1,,8000,0,1,3,FEW 5   BKN 8   BKN 15,1,9,1,7,1012,RJOH 161900Z 07017KT 8000 -SHRA FEW005 BKN008 BKN015 09/07     Q1012 RMK 1CU005 6CU008 7CU015 A2990=,- RA SH
20180116_200000.000,0,RJOH,,,,0,20180116200000,-1,-1,-1,-1,70,-1,14,-1,-1,-1,-1,,5000,0,1,3,FEW 5   BKN 8   BKN 15,1,10,1,7,1012,RJOH 162000Z 07014KT 5000 -SHRA FEW005 BKN008 BKN015 10/07     Q1012 RMK 1CU005 6CU008 7CU015 A2989=,- RA SH
20180116_200000.002,0,RJOH,,,,0,20180116200000,-1,-1,-1,-1,70,-1,14,-1,-1,-1,-1,,5000,0,1,3,FEW 5   BKN 8   BKN 15,1,10,1,7,1012,RJOH 162000Z 07014KT 5000 -SHRA FEW005 BKN008 BKN015 10/07     Q1012 RMK 1CU005 6CU008 7CU015 A2989=,- RA SH
20180116_210000.000,0,RJOH,,,,0,20180116210000,-1,-1,-1,-1,70,-1,12,-1,-1,-1,-1,,6000,0,1,3,FEW 3   SCT 6   BKN 8,1,10,1,7,1011,RJOH 162100Z 07012KT 6000 -SHRA FEW003 SCT006 BKN008 10/07     Q1011 RMK 1CU003 3CU006 7CU008 A2987 14/07 R021=,- RA SH
20180116_210000.002,0,RJOH,,,,0,20180116210000,-1,-1,-1,-1,70,-1,12,-1,-1,-1,-1,,6000,0,1,3,FEW 3   SCT 6   BKN 8,1,10,1,7,1011,RJOH 162100Z 07012KT 6000 -SHRA FEW003 SCT006 BKN008 10/07     Q1011 RMK 1CU003 3CU006 7CU008 A2987 14/07 R021=,- RA SH
20180116_220000.000,0,RJOH,,,,0,20180116220000,-1,-1,-1,-1,100,-1,8,-1,-1,-1,-1,,6000,0,1,3,FEW 6   SCT 8   BKN 15,1,9,1,6,1011,RJOH 162200Z 10008KT 6000 -SHRA FEW006 SCT008 BKN015 09/06     Q1011 RMK 1CU006 3CU008 6CU015 A2987 1CU006 AND 3CU008           AAL=,- RA SH
20180116_220000.002,0,RJOH,,,,0,20180116220000,-1,-1,-1,-1,100,-1,8,-1,-1,-1,-1,,6000,0,1,3,FEW 6   SCT 8   BKN 15,1,9,1,6,1011,RJOH 162200Z 10008KT 6000 -SHRA FEW006 SCT008 BKN015 09/06     Q1011 RMK 1CU006 3CU008 6CU015 A2987 1CU006 AND 3CU008           AAL=,- RA SH
20180116_230000.000,0,RJOH,,,,0,20180116230000,-1,-1,-1,-1,130,-1,4,-1,-1,-1,-1,,4000,0,2,3,FEW 4   SCT 8   BKN 15,1,7,1,5,1011,RJOH 162300Z 13004KT 4000 -SHRA BR FEW004 SCT008 BKN015 07/05     Q1011 RMK 1CU004 3CU008 5CU015 A2986 VIS SW 6KM 1CU004 AND           3CU008 AAL=,- RA SH; BR
20180116_230000.002,0,RJOH,,,,0,20180116230000,-1,-1,-1,-1,130,-1,4,-1,-1,-1,-1,,4000,0,2,3,FEW 4   SCT 8   BKN 15,1,7,1,5,1011,RJOH 162300Z 13004KT 4000 -SHRA BR FEW004 SCT008 BKN015 07/05     Q1011 RMK 1CU004 3CU008 5CU015 A2986 VIS SW 6KM 1CU004           AND 3CU008 AAL=,- RA SH; BR
20180117_000000.000,0,RJOH,,,,0,20180117000000,-1,-1,-1,-1,240,-1,4,-1,-1,-1,-1,,9999,0,1,3,FEW 2   BKN 8   BKN 25,1,7,1,5,1011,RJOH 170000Z 24004KT 9999 -SHRA FEW002 BKN008 BKN025 07/05     Q1011 RMK 1ST002 6CU008 6CU025 A2986 1ST002 S-W=,- RA SH
20180117_000000.002,0,RJOH,,,,0,20180117000000,-1,-1,-1,-1,240,-1,4,-1,-1,-1,-1,,9999,0,1,3,FEW 2   BKN 8   BKN 25,1,7,1,5,1011,RJOH 170000Z 24004KT 9999 -SHRA FEW002 BKN008 BKN025 07/05     Q1011 RMK 1ST002 6CU008 6CU025 A2986 1ST002 S-W=,- RA SH
20180117_010000.000,0,RJOH,,,,0,20180117010000,-1,-1,-1,-1,999,-1,2,-1,-1,-1,-1,,9999,0,1,3,FEW 2   BKN 30   BKN 60,1,8,1,6,1011,RJOH 170100Z VRB02KT 9999 -SHRA FEW002 BKN030 BKN060 08/06     Q1011 RMK 1ST002 6CU030 7SC060 A2985 1ST002 S-W 1CU008           AAL=,- RA SH
20180117_010000.002,0,RJOH,,,,0,20180117010000,-1,-1,-1,-1,999,-1,2,-1,-1,-1,-1,,9999,0,1,3,FEW 2   BKN 30   BKN 60,1,8,1,6,1011,RJOH 170100Z VRB02KT 9999 -SHRA FEW002 BKN030 BKN060 08/06     Q1011 RMK 1ST002 6CU030 7SC060 A2985 1ST002 S-W 1CU008           AAL=,- RA SH
20180117_020000.000,0,RJOH,,,,0,20180117020000,-1,-1,-1,-1,210,-1,5,-1,-1,-1,-1,,7000,0,1,3,FEW 2   BKN 30   BKN 60,1,8,1,6,1010,RJOH 170200Z 21005KT 7000 -SHRA FEW002 BKN030 BKN060 08/06     Q1010 RMK 1ST002 7CU030 7SC060 A2983 VIS SE 3500M 1ST002           S-W=,- RA SH
20180117_020000.004,0,RJOH,,,,0,20180117020000,-1,-1,-1,-1,210,-1,5,-1,-1,-1,-1,,7000,0,1,3,FEW 2   BKN 30   BKN 60,1,8,1,6,1010,RJOH 170200Z 21005KT 7000 -SHRA FEW002 BKN030 BKN060 08/06     Q1010 RMK 1ST002 7CU030 7SC060 A2983 VIS SE 3500M 1ST002           S-W=,- RA SH
20180117_030000.000,0,RJOH,,,,0,20180117030000,-1,-1,-1,-1,240,-1,3,-1,-1,-1,-1,,7000,0,1,3,FEW 1   BKN 30   BKN 50,1,9,1,7,1009,RJOH 170300Z 24003KT 7000 -SHRA FEW001 BKN030 BKN050 09/07     Q1009 RMK 1ST001 6CU030 7SC050 A2980 1ST001 S-W=,- RA SH
20180117_030000.002,0,RJOH,,,,0,20180117030000,-1,-1,-1,-1,240,-1,3,-1,-1,-1,-1,,7000,0,1,3,FEW 1   BKN 30   BKN 50,1,9,1,7,1009,RJOH 170300Z 24003KT 7000 -SHRA FEW001 BKN030 BKN050 09/07     Q1009 RMK 1ST001 6CU030 7SC050 A2980 1ST001 S-W=,- RA SH
20180117_040000.000,0,RJOH,,,,0,20180117040000,-1,-1,-1,-1,999,-1,1,-1,-1,-1,-1,,1500,1,2,3,SCT 2   SCT 8   BKN 15,1,10,1,8,1008,RJOH 170400Z VRB01KT 1500 R25/P1800N -SHRA BR SCT002 SCT008     BKN015 10/08 Q1008 RMK 3ST002 4CU008 6CU015 A2977=,- RA SH; BR
20180117_040000.001,2,RJOH,,,,0,20180117040000,-1,-1,-1,-1,999,-1,1,-1,-1,-1,-1,,1500,1,2,3,SCT 2   SCT 8   BKN 15,1,10,1,8,1008,RJOH 170400Z VRB01KT 1500 R25/P1800N -SHRA BR SCT002 SCT008     BKN015 10/08 Q1008 RMK 3ST002 4CU008 6CU015 A2977=,- RA SH; BR
20180117_040000.003,0,RJOH,,,,0,20180117040000,-1,-1,-1,-1,999,-1,1,-1,-1,-1,-1,,1500,1,2,3,SCT 2   SCT 8   BKN 15,1,10,1,8,1008,RJOH 170400Z VRB01KT 1500 R25/P1800N -SHRA BR SCT002     SCT008 BKN015 10/08 Q1008 RMK 3ST002 4CU008 6CU015 A2977=,- RA SH; BR
20180117_040000.003,2,RJOH,,,,0,20180117040000,-1,-1,-1,-1,999,-1,1,-1,-1,-1,-1,,1500,1,2,3,SCT 2   SCT 8   BKN 15,1,10,1,8,1008,RJOH 170400Z VRB01KT 1500 R25/P1800N -SHRA BR SCT002 SCT008     BKN015 10/08 Q1008 RMK 3ST002 4CU008 6CU015 A2977=,- RA SH; BR
20180117_050000.000,0,RJOH,,,,0,20180117050000,-1,-1,-1,-1,240,-1,6,-1,-1,-1,-1,,2000,1,2,3,SCT 1   BKN 6   OVC 15,1,10,1,8,1009,RJOH 170500Z 24006KT 2000 R25/0750VP1800U -SHRA BR SCT001     BKN006 OVC015 10/08 Q1009 RMK 3ST001 5CU006 8CU015 A2980           R1400=,- RA SH; BR
20180117_050000.003,0,RJOH,,,,0,20180117050000,-1,-1,-1,-1,240,-1,6,-1,-1,-1,-1,,2000,1,2,3,SCT 1   BKN 6   OVC 15,1,10,1,8,1009,RJOH 170500Z 24006KT 2000 R25/0750VP1800U -SHRA BR SCT001     BKN006 OVC015 10/08 Q1009 RMK 3ST001 5CU006 8CU015 A2980           R1400=,- RA SH; BR
20180117_060000.000,0,RJOH,,,,0,20180117060000,-1,-1,-1,-1,20,-1,8,-1,-1,-1,-1,,9999,0,1,3,FEW 5   SCT 9   BKN 15,1,11,1,8,1009,RJOH 170600Z 02008KT 9999 -SHRA FEW005 SCT009 BKN015 11/08     Q1009 RMK 1ST005 3CU009 6CU015 A2981=,- RA SH
20180117_060000.002,0,RJOH,,,,0,20180117060000,-1,-1,-1,-1,20,-1,8,-1,-1,-1,-1,,9999,0,1,3,FEW 5   SCT 9   BKN 15,1,11,1,8,1009,RJOH 170600Z 02008KT 9999 -SHRA FEW005 SCT009 BKN015 11/08     Q1009 RMK 1ST005 3CU009 6CU015 A2981=,- RA SH
20180117_070000.000,0,RJOH,,,,0,20180117070000,-1,-1,-1,-1,340,-1,10,-1,-1,-1,-1,,5000,0,1,3,FEW 6   SCT 8   BKN 10,1,10,1,8,1011,RJOH 170700Z 34010KT 5000 -SHRA FEW006 SCT008 BKN010 10/08     Q1011 RMK 1CU006 3CU008 6CU010 A2987 MAX WIND 17KT VIS W           8KM 1CU006 AND 3CU008 AAL=,- RA SH
20180117_070000.000,0,RJOH,,,,0,20180117070000,-1,-1,-1,-1,340,-1,10,-1,-1,-1,-1,,5000,0,1,3,FEW 6   SCT 8   BKN 10,1,10,1,8,1011,RJOH 170700Z 34010KT 5000 -SHRA FEW006 SCT008 BKN010 10/08     Q1011 RMK 1CU006 3CU008 6CU010 A2987 MAX WIND 17KT VIS W           8KM 1CU006 AND 3CU008 AAL=,- RA SH
20180117_070000.002,0,RJOH,,,,0,20180117070000,-1,-1,-1,-1,340,-1,10,-1,-1,-1,-1,,5000,0,1,3,FEW 6   SCT 8   BKN 10,1,10,1,8,1011,RJOH 170700Z 34010KT 5000 -SHRA FEW006 SCT008 BKN010 10/08     Q1011 RMK 1CU006 3CU008 6CU010 A2987 MAX WIND 17KT VIS W           8KM 1CU006 AND 3CU008 AAL=,- RA SH
20180117_080000.000,0,RJOH,,,,0,20180117080000,-1,-1,-1,-1,330,-1,10,-1,-1,-1,-1,,8000,0,1,3,FEW 8   BKN 10   BKN 15,1,10,1,7,1012,RJOH 170800Z 33010KT 8000 -SHRA FEW008 BKN010 BKN015 10/07     Q1012 RMK 2CU008 5CU010 7CU015 A2991=,- RA SH
20180117_080000.002,0,RJOH,,,,0,20180117080000,-1,-1,-1,-1,330,-1,10,-1,-1,-1,-1,,8000,0,1,3,FEW 8   BKN 10   BKN 15,1,10,1,7,1012,RJOH 170800Z 33010KT 8000 -SHRA FEW008 BKN010 BKN015 10/07     Q1012 RMK 2CU008 5CU010 7CU015 A2991=,- RA SH
20180117_090000.000,0,RJOH,,,,0,20180117090000,-1,-1,-1,-1,330,-1,13,-1,-1,-1,-1,,9999,0,1,3,FEW 8   SCT 10   BKN 15,1,10,1,6,1014,RJOH 170900Z 33013KT 9999 -SHRA FEW008 SCT010 BKN015 10/06     Q1014 RMK 1CU008 4CU010 6CU015 A2995=,- RA SH
20180117_090000.003,0,RJOH,,,,0,20180117090000,-1,-1,-1,-1,330,-1,13,-1,-1,-1,-1,,9999,0,1,3,FEW 8   SCT 10   BKN 15,1,10,1,6,1014,RJOH 170900Z 33013KT 9999 -SHRA FEW008 SCT010 BKN015 10/06     Q1014 RMK 1CU008 4CU010 6CU015 A2995=,- RA SH
20180117_100000.000,0,RJOH,,,,0,20180117100000,-1,-1,-1,-1,340,-1,5,-1,-1,-1,-1,,9999,0,1,3,FEW 10   SCT 15   BKN 25,1,9,1,6,1015,RJOH 171000Z 34005KT 9999 -SHRA FEW010 SCT015 BKN025 09/06     Q1015 RMK 2CU010 4CU015 6CU025 A2999=,- RA SH
20180117_100000.002,0,RJOH,,,,0,20180117100000,-1,-1,-1,-1,340,-1,5,-1,-1,-1,-1,,9999,0,1,3,FEW 10   SCT 15   BKN 25,1,9,1,6,1015,RJOH 171000Z 34005KT 9999 -SHRA FEW010 SCT015 BKN025 09/06     Q1015 RMK 2CU010 4CU015 6CU025 A2999=,- RA SH
20180117_110000.000,0,RJOH,,,,0,20180117110000,-1,-1,-1,-1,230,-1,3,-1,-1,-1,-1,,9999,0,1,3,FEW 10   SCT 20   BKN 30,1,9,1,6,1016,RJOH 171100Z 23003KT 9999 -SHRA FEW010 SCT020 BKN030 09/06     Q1016 RMK 1CU010 3CU020 7CU030 A3002=,- RA SH
20180117_110000.003,0,RJOH,,,,0,20180117110000,-1,-1,-1,-1,230,-1,3,-1,-1,-1,-1,,9999,0,1,3,FEW 10   SCT 20   BKN 30,1,9,1,6,1016,RJOH 171100Z 23003KT 9999 -SHRA FEW010 SCT020 BKN030 09/06     Q1016 RMK 1CU010 3CU020 7CU030 A3002=,- RA SH
20180117_120000.000,0,RJOH,,,,0,20180117120000,-1,-1,-1,-1,330,-1,2,-1,-1,-1,-1,,9999,0,0,3,FEW 15   SCT 25   BKN 35,1,10,1,5,1017,RJOH 171200Z 33002KT 9999 FEW015 SCT025 BKN035 10/05 Q1017 RMK     1CU015 3CU025 7CU035 A3004=,
20180117_120000.003,0,RJOH,,,,0,20180117120000,-1,-1,-1,-1,330,-1,2,-1,-1,-1,-1,,9999,0,0,3,FEW 15   SCT 25   BKN 35,1,10,1,5,1017,RJOH 171200Z 33002KT 9999 FEW015 SCT025 BKN035 10/05 Q1017 RMK     1CU015 3CU025 7CU035 A3004=,
20180117_130000.000,0,RJOH,,,,0,20180117130000,-1,-1,-1,-1,330,-1,5,-1,-1,-1,-1,,9999,0,0,3,FEW 15   SCT 25   BKN 35,1,9,1,5,1017,RJOH 171300Z 33005KT 9999 FEW015 SCT025 BKN035 09/05 Q1017 RMK     1CU015 3CU025 7CU035 A3004=,
20180117_130000.002,0,RJOH,,,,0,20180117130000,-1,-1,-1,-1,330,-1,5,-1,-1,-1,-1,,9999,0,0,3,FEW 15   SCT 25   BKN 35,1,9,1,5,1017,RJOH 171300Z 33005KT 9999 FEW015 SCT025 BKN035 09/05 Q1017 RMK     1CU015 3CU025 7CU035 A3004=,
20180117_140000.000,0,RJOH,,,,0,20180117140000,-1,-1,-1,-1,240,-1,4,-1,-1,-1,-1,,9999,0,0,3,FEW 15   SCT 25   BKN 35,1,8,1,5,1018,RJOH 171400Z 24004KT 9999 FEW015 SCT025 BKN035 08/05 Q1018 RMK     1CU015 4CU025 7CU035 A3006=,
20180117_140000.002,0,RJOH,,,,0,20180117140000,-1,-1,-1,-1,240,-1,4,-1,-1,-1,-1,,9999,0,0,3,FEW 15   SCT 25   BKN 35,1,8,1,5,1018,RJOH 171400Z 24004KT 9999 FEW015 SCT025 BKN035 08/05 Q1018 RMK     1CU015 4CU025 7CU035 A3006=,
20180117_150000.000,0,RJOH,,,,0,20180117150000,-1,-1,-1,-1,250,-1,5,-1,-1,-1,-1,,9999,0,0,3,FEW 15   SCT 25   BKN 40,1,8,1,5,1017,RJOH 171500Z 25005KT 9999 FEW015 SCT025 BKN040 08/05 Q1017 RMK     1CU015 3CU025 7CU040 A3006=,
20180117_150000.002,0,RJOH,,,,0,20180117150000,-1,-1,-1,-1,250,-1,5,-1,-1,-1,-1,,9999,0,0,3,FEW 15   SCT 25   BKN 40,1,8,1,5,1017,RJOH 171500Z 25005KT 9999 FEW015 SCT025 BKN040 08/05 Q1017 RMK     1CU015 3CU025 7CU040 A3006=,
20180117_160000.000,0,RJOH,,,,0,20180117160000,-1,-1,-1,-1,220,-1,5,-1,-1,-1,-1,,9999,0,0,3,FEW 25   BKN 40   BKN 50,1,7,1,4,1017,RJOH 171600Z 22005KT 9999 FEW025 BKN040 BKN050 07/04 Q1017 RMK     2CU025 6CU040 7SC050 A3005=,
20180117_160000.002,0,RJOH,,,,0,20180117160000,-1,-1,-1,-1,220,-1,5,-1,-1,-1,-1,,9999,0,0,3,FEW 25   BKN 40   BKN 50,1,7,1,4,1017,RJOH 171600Z 22005KT 9999 FEW025 BKN040 BKN050 07/04 Q1017 RMK     2CU025 6CU040 7SC050 A3005=,
20180117_170000.000,0,RJOH,,,,0,20180117170000,-1,-1,-1,-1,230,-1,5,-1,-1,-1,-1,,9999,0,0,3,FEW 20   BKN 40   BKN 50,1,7,1,5,1017,RJOH 171700Z 23005KT 9999 FEW020 BKN040 BKN050 07/05 Q1017 RMK     1CU020 6CU040 7SC050 A3006=,
20180117_170000.002,0,RJOH,,,,0,20180117170000,-1,-1,-1,-1,230,-1,5,-1,-1,-1,-1,,9999,0,0,3,FEW 20   BKN 40   BKN 50,1,7,1,5,1017,RJOH 171700Z 23005KT 9999 FEW020 BKN040 BKN050 07/05 Q1017 RMK     1CU020 6CU040 7SC050 A3006=,
20180117_180000.000,0,RJOH,,,,0,20180117180000,-1,-1,-1,-1,240,-1,4,-1,-1,-1,-1,,9999,0,0,3,FEW 15   SCT 25   BKN 35,1,7,1,5,1017,RJOH 171800Z 24004KT 9999 FEW015 SCT025 BKN035 07/05 Q1017 RMK     1CU015 3CU025 7CU035 A3005=,
20180117_180000.002,0,RJOH,,,,0,20180117180000,-1,-1,-1,-1,240,-1,4,-1,-1,-1,-1,,9999,0,0,3,FEW 15   SCT 25   BKN 35,1,7,1,5,1017,RJOH 171800Z 24004KT 9999 FEW015 SCT025 BKN035 07/05 Q1017 RMK     1CU015 3CU025 7CU035 A3005=,
20180117_190000.000,0,RJOH,,,,0,20180117190000,-1,-1,-1,-1,999,-1,2,-1,-1,-1,-1,,9999,0,0,3,FEW 25   BKN 35   BKN 50,1,7,1,5,1018,RJOH 171900Z VRB02KT 9999 FEW025 BKN035 BKN050 07/05 Q1018 RMK     2CU025 5CU035 7SC050 A3006=,
20180117_190000.003,0,RJOH,,,,0,20180117190000,-1,-1,-1,-1,999,-1,2,-1,-1,-1,-1,,9999,0,0,3,FEW 25   BKN 35   BKN 50,1,7,1,5,1018,RJOH 171900Z VRB02KT 9999 FEW025 BKN035 BKN050 07/05 Q1018 RMK     2CU025 5CU035 7SC050 A3006=,
20180117_200000.000,0,RJOH,,,,0,20180117200000,-1,-1,-1,-1,190,-1,6,-1,-1,-1,-1,,9999,0,0,3,FEW 25   SCT 35   BKN 50,1,7,1,5,1017,RJOH 172000Z 19006KT 9999 FEW025 SCT035 BKN050 07/05 Q1017 RMK     1CU025 3CU035 6SC050 A3006=,
20180117_200000.002,0,RJOH,,,,0,20180117200000,-1,-1,-1,-1,190,-1,6,-1,-1,-1,-1,,9999,0,0,3,FEW 25   SCT 35   BKN 50,1,7,1,5,1017,RJOH 172000Z 19006KT 9999 FEW025 SCT035 BKN050 07/05 Q1017 RMK     1CU025 3CU035 6SC050 A3006=,
20180117_210000.000,0,RJOH,,,,0,20180117210000,-1,-1,-1,-1,190,-1,5,-1,-1,-1,-1,,9999,0,0,3,FEW 25   BKN 35   BKN 50,1,6,1,4,1018,RJOH 172100Z 19005KT 9999 FEW025 BKN035 BKN050 06/04 Q1018 RMK     1CU025 6CU035 7SC050 A3007 11/06 R010=,
20180117_210000.002,0,RJOH,,,,0,20180117210000,-1,-1,-1,-1,190,-1,5,-1,-1,-1,-1,,9999,0,0,3,FEW 25   BKN 35   BKN 50,1,6,1,4,1018,RJOH 172100Z 19005KT 9999 FEW025 BKN035 BKN050 06/04 Q1018 RMK     1CU025 6CU035 7SC050 A3007 11/06 R010=,
20180117_220000.000,0,RJOH,,,,0,20180117220000,-1,-1,-1,-1,999,-1,1,-1,-1,-1,-1,,9999,0,1,3,FEW 20   BKN 25   BKN 35,1,6,1,4,1018,RJOH 172200Z VRB01KT 9999 -SHRA FEW020 BKN025 BKN035 06/04     Q1018 RMK 1CU020 5CU025 6CU035 A3008=,- RA SH
20180117_220000.001,2,RJOH,,,,0,20180117220000,-1,-1,-1,-1,999,-1,1,-1,-1,-1,-1,,9999,0,1,3,FEW 20   BKN 25   BKN 35,1,6,1,4,1018,RJOH 172200Z VRB01KT 9999 -SHRA FEW020 BKN025 BKN035 06/04     Q1018 RMK 1CU020 5CU025 6CU035 A3008=,- RA SH
20180117_220000.003,0,RJOH,,,,0,20180117220000,-1,-1,-1,-1,999,-1,1,-1,-1,-1,-1,,9999,0,1,3,FEW 20   BKN 25   BKN 35,1,6,1,4,1018,RJOH 172200Z VRB01KT 9999 -SHRA FEW020 BKN025 BKN035 06/04     Q1018 RMK 1CU020 5CU025 6CU035 A3008=,- RA SH
20180117_230000.000,0,RJOH,,,,0,20180117230000,-1,-1,-1,-1,210,-1,5,-1,-1,-1,-1,,9999,0,0,3,FEW 5   SCT 35   BKN 50,1,7,1,4,1018,RJOH 172300Z 21005KT 9999 FEW005 SCT035 BKN050 07/04 Q1018 RMK     1ST005 4CU035 7SC050 A3008 1ST005 SW=,
20180117_230000.002,0,RJOH,,,,0,20180117230000,-1,-1,-1,-1,210,-1,5,-1,-1,-1,-1,,9999,0,0,3,FEW 5   SCT 35   BKN 50,1,7,1,4,1018,RJOH 172300Z 21005KT 9999 FEW005 SCT035 BKN050 07/04 Q1018 RMK     1ST005 4CU035 7SC050 A3008 1ST005 SW=,
20180118_000000.000,0,RJOH,,,,0,20180118000000,-1,-1,-1,-1,210,-1,4,-1,-1,-1,-1,,9999,0,1,3,FEW 20   SCT 25   BKN 35,1,7,1,5,1019,RJOH 180000Z 21004KT 9999 -SHRA FEW020 SCT025 BKN035 07/05     Q1019 RMK 1CU020 4CU025 6CU035 A3010=,- RA SH
20180118_000000.002,0,RJOH,,,,0,20180118000000,-1,-1,-1,-1,210,-1,4,-1,-1,-1,-1,,9999,0,1,3,FEW 20   SCT 25   BKN 35,1,7,1,5,1019,RJOH 180000Z 21004KT 9999 -SHRA FEW020 SCT025 BKN035 07/05     Q1019 RMK 1CU020 4CU025 6CU035 A3010=,- RA SH
20180118_010000.000,0,RJOH,,,,0,20180118010000,-1,-1,-1,-1,230,-1,3,-1,-1,-1,-1,,9999,0,1,3,FEW 5   BKN 20   BKN 35,1,7,1,5,1019,RJOH 180100Z 23003KT 9999 -SHRA FEW005 BKN020 BKN035 07/05     Q1019 RMK 1ST005 6CU020 7CU035 A3011 1ST005 W=,- RA SH
20180118_010000.002,0,RJOH,,,,0,20180118010000,-1,-1,-1,-1,230,-1,3,-1,-1,-1,-1,,9999,0,1,3,FEW 5   BKN 20   BKN 35,1,7,1,5,1019,RJOH 180100Z 23003KT 9999 -SHRA FEW005 BKN020 BKN035 07/05     Q1019 RMK 1ST005 6CU020 7CU035 A3011 1ST005 W=,- RA SH
20180118_020000.000,0,RJOH,,,,0,20180118020000,-1,-1,-1,-1,230,-1,6,-1,-1,-1,-1,,9999,0,0,3,FEW 7   BKN 20   BKN 50,1,9,1,6,1019,RJOH 180200Z 23006KT 9999 FEW007 BKN020 BKN050 09/06 Q1019 RMK     1ST007 6CU020 7SC050 A3011 1ST007 W=,
20180118_020000.002,0,RJOH,,,,0,20180118020000,-1,-1,-1,-1,230,-1,6,-1,-1,-1,-1,,9999,0,0,3,FEW 7   BKN 20   BKN 50,1,9,1,6,1019,RJOH 180200Z 23006KT 9999 FEW007 BKN020 BKN050 09/06 Q1019 RMK     1ST007 6CU020 7SC050 A3011 1ST007 W=,
20180118_030000.000,0,RJOH,,,,0,20180118030000,-1,-1,-1,-1,190,-1,3,-1,-1,-1,-1,,9999,0,0,3,FEW 7   BKN 30   BKN 50,1,9,1,6,1019,RJOH 180300Z 19003KT 9999 FEW007 BKN030 BKN050 09/06 Q1019 RMK     1ST007 6CU030 7SC050 A3010 1ST007 AAL=,
20180118_030000.003,0,RJOH,,,,0,20180118030000,-1,-1,-1,-1,190,-1,3,-1,-1,-1,-1,,9999,0,0,3,FEW 7   BKN 30   BKN 50,1,9,1,6,1019,RJOH 180300Z 19003KT 9999 FEW007 BKN030 BKN050 09/06 Q1019 RMK     1ST007 6CU030 7SC050 A3010 1ST007 AAL=,
20180118_040000.000,0,RJOH,,,,0,20180118040000,-1,-1,-1,-1,999,-1,2,-1,-1,-1,-1,,9999,0,1,3,FEW 10   BKN 30   BKN 50,1,9,1,6,1019,RJOH 180400Z VRB02KT 9999 -SHRA FEW010 BKN030 BKN050 09/06     Q1019 RMK 1CU010 6CU030 7SC050 A3010=,- RA SH
20180118_040000.002,0,RJOH,,,,0,20180118040000,-1,-1,-1,-1,999,-1,2,-1,-1,-1,-1,,9999,0,1,3,FEW 10   BKN 30   BKN 50,1,9,1,6,1019,RJOH 180400Z VRB02KT 9999 -SHRA FEW010 BKN030 BKN050 09/06     Q1019 RMK 1CU010 6CU030 7SC050 A3010=,- RA SH
20180118_050000.000,0,RJOH,,,,0,20180118050000,-1,-1,-1,-1,210,-1,4,-1,-1,-1,-1,,9999,0,0,3,FEW 20   BKN 30   BKN 50,1,10,1,6,1018,RJOH 180500Z 21004KT 9999 FEW020 BKN030 BKN050 10/06 Q1018 RMK     1CU020 6CU030 7SC050 A3009=,
20180118_050000.002,0,RJOH,,,,0,20180118050000,-1,-1,-1,-1,210,-1,4,-1,-1,-1,-1,,9999,0,0,3,FEW 20   BKN 30   BKN 50,1,10,1,6,1018,RJOH 180500Z 21004KT 9999 FEW020 BKN030 BKN050 10/06 Q1018 RMK     1CU020 6CU030 7SC050 A3009=,
20180118_060000.000,0,RJOH,,,,0,20180118060000,-1,-1,-1,-1,220,-1,4,-1,-1,-1,-1,,9999,0,0,3,FEW 20   BKN 30   BKN 50,1,10,1,4,1019,RJOH 180600Z 22004KT 9999 FEW020 BKN030 BKN050 10/04 Q1019 RMK     1CU020 6CU030 7SC050 A3010=,
20180118_060000.002,0,RJOH,,,,0,20180118060000,-1,-1,-1,-1,220,-1,4,-1,-1,-1,-1,,9999,0,0,3,FEW 20   BKN 30   BKN 50,1,10,1,4,1019,RJOH 180600Z 22004KT 9999 FEW020 BKN030 BKN050 10/04 Q1019 RMK     1CU020 6CU030 7SC050 A3010=,
20180118_070000.000,0,RJOH,,,,0,20180118070000,-1,-1,-1,-1,300,-1,3,-1,-1,270,330,,9999,0,0,3,FEW 25   BKN 30   BKN 50,1,11,1,3,1019,RJOH 180700Z 30003KT 270V330 9999 FEW025 BKN030 BKN050 11/03     Q1019 RMK 1CU025 5CU030 7SC050 A3011=,
20180118_070000.002,0,RJOH,,,,0,20180118070000,-1,-1,-1,-1,300,-1,3,-1,-1,270,330,,9999,0,0,3,FEW 25   BKN 30   BKN 50,1,11,1,3,1019,RJOH 180700Z 30003KT 270V330 9999 FEW025 BKN030 BKN050 11/03     Q1019 RMK 1CU025 5CU030 7SC050 A3011=,
20180118_080000.000,0,RJOH,,,,0,20180118080000,-1,-1,-1,-1,260,-1,3,-1,-1,-1,-1,,9999,0,0,3,FEW 30   BKN 35   BKN 50,1,9,1,3,1020,RJOH 180800Z 26003KT 9999 FEW030 BKN035 BKN050 09/03 Q1020 RMK     1CU030 6CU035 7SC050 A3012=,
20180118_080000.002,0,RJOH,,,,0,20180118080000,-1,-1,-1,-1,260,-1,3,-1,-1,-1,-1,,9999,0,0,3,FEW 30   BKN 35   BKN 50,1,9,1,3,1020,RJOH 180800Z 26003KT 9999 FEW030 BKN035 BKN050 09/03 Q1020 RMK     1CU030 6CU035 7SC050 A3012=,
20180118_090000.000,0,RJOH,,,,0,20180118090000,-1,-1,-1,-1,999,-1,2,-1,-1,-1,-1,,9999,0,0,3,FEW 30   BKN 35   BKN 50,1,8,1,4,1020,RJOH 180900Z VRB02KT 9999 FEW030 BKN035 BKN050 08/04 Q1020 RMK     1CU030 5CU035 7SC050 A3014=,
20180118_090000.002,0,RJOH,,,,0,20180118090000,-1,-1,-1,-1,999,-1,2,-1,-1,-1,-1,,9999,0,0,3,FEW 30   BKN 35   BKN 50,1,8,1,4,1020,RJOH 180900Z VRB02KT 9999 FEW030 BKN035 BKN050 08/04 Q1020 RMK     1CU030 5CU035 7SC050 A3014=,
20180118_100000.000,0,RJOH,,,,0,20180118100000,-1,-1,-1,-1,220,-1,3,-1,-1,-1,-1,,9999,0,0,3,FEW 30   BKN 35   BKN 50,1,7,1,4,1020,RJOH 181000Z 22003KT 9999 FEW030 BKN035 BKN050 07/04 Q1020 RMK     1CU030 5CU035 7SC050 A3014=,
20180118_100000.002,0,RJOH,,,,0,20180118100000,-1,-1,-1,-1,220,-1,3,-1,-1,-1,-1,,9999,0,0,3,FEW 30   BKN 35   BKN 50,1,7,1,4,1020,RJOH 181000Z 22003KT 9999 FEW030 BKN035 BKN050 07/04 Q1020 RMK     1CU030 5CU035 7SC050 A3014=,
20180118_110000.000,0,RJOH,,,,0,20180118110000,-1,-1,-1,-1,999,-1,1,-1,-1,-1,-1,,9999,0,0,3,FEW 30   SCT 35   BKN 50,1,7,1,4,1021,RJOH 181100Z VRB01KT 9999 FEW030 SCT035 BKN050 07/04 Q1021 RMK     1CU030 3CU035 7SC050 A3016=,
20180118_110000.002,0,RJOH,,,,0,20180118110000,-1,-1,-1,-1,999,-1,1,-1,-1,-1,-1,,9999,0,0,3,FEW 30   SCT 35   BKN 50,1,7,1,4,1021,RJOH 181100Z VRB01KT 9999 FEW030 SCT035 BKN050 07/04 Q1021 RMK     1CU030 3CU035 7SC050 A3016=,
20180118_120000.000,0,RJOH,,,,0,20180118120000,-1,-1,-1,-1,220,-1,5,-1,-1,-1,-1,,9999,0,0,3,FEW 30   SCT 35   BKN 50,1,7,1,4,1021,RJOH 181200Z 22005KT 9999 FEW030 SCT035 BKN050 07/04 Q1021 RMK     1CU030 3CU035 7SC050 A3017=,
20180118_120000.002,0,RJOH,,,,0,20180118120000,-1,-1,-1,-1,220,-1,5,-1,-1,-1,-1,,9999,0,0,3,FEW 30   SCT 35   BKN 50,1,7,1,4,1021,RJOH 181200Z 22005KT 9999 FEW030 SCT035 BKN050 07/04 Q1021 RMK     1CU030 3CU035 7SC050 A3017=,
20180118_130000.000,0,RJOH,,,,0,20180118130000,-1,-1,-1,-1,210,-1,3,-1,-1,-1,-1,,9999,0,0,3,FEW 30   SCT 35   BKN 50,1,7,1,4,1021,RJOH 181300Z 21003KT 9999 FEW030 SCT035 BKN050 07/04 Q1021 RMK     1CU030 3CU035 7SC050 A3018=,
20180118_130000.002,0,RJOH,,,,0,20180118130000,-1,-1,-1,-1,210,-1,3,-1,-1,-1,-1,,9999,0,0,3,FEW 30   SCT 35   BKN 50,1,7,1,4,1021,RJOH 181300Z 21003KT 9999 FEW030 SCT035 BKN050 07/04 Q1021 RMK     1CU030 3CU035 7SC050 A3018=,
20180118_140000.000,0,RJOH,,,,0,20180118140000,-1,-1,-1,-1,220,-1,3,-1,-1,-1,-1,,9999,0,0,3,FEW 25   BKN 30   BKN 50,1,6,1,4,1022,RJOH 181400Z 22003KT 9999 FEW025 BKN030 BKN050 06/04 Q1022 RMK     1CU025 6CU030 7SC050 A3018=,
20180118_140000.002,0,RJOH,,,,0,20180118140000,-1,-1,-1,-1,220,-1,3,-1,-1,-1,-1,,9999,0,0,3,FEW 25   BKN 30   BKN 50,1,6,1,4,1022,RJOH 181400Z 22003KT 9999 FEW025 BKN030 BKN050 06/04 Q1022 RMK     1CU025 6CU030 7SC050 A3018=,
20180118_150000.000,0,RJOH,,,,0,20180118150000,-1,-1,-1,-1,210,-1,4,-1,-1,-1,-1,,9999,0,0,3,FEW 25   BKN 35   BKN 50,1,6,1,4,1021,RJOH 181500Z 21004KT 9999 FEW025 BKN035 BKN050 06/04 Q1021 RMK     1CU025 5CU035 7SC050 A3018=,
20180118_150000.002,0,RJOH,,,,0,20180118150000,-1,-1,-1,-1,210,-1,4,-1,-1,-1,-1,,9999,0,0,3,FEW 25   BKN 35   BKN 50,1,6,1,4,1021,RJOH 181500Z 21004KT 9999 FEW025 BKN035 BKN050 06/04 Q1021 RMK     1CU025 5CU035 7SC050 A3018=,
20180118_160000.000,0,RJOH,,,,0,20180118160000,-1,-1,-1,-1,200,-1,3,-1,-1,-1,-1,,9999,0,0,3,FEW 30   BKN 35   BKN 50,1,6,1,3,1021,RJOH 181600Z 20003KT 9999 FEW030 BKN035 BKN050 06/03 Q1021 RMK     1CU030 5CU035 7SC050 A3017=,
20180118_160000.002,0,RJOH,,,,0,20180118160000,-1,-1,-1,-1,200,-1,3,-1,-1,-1,-1,,9999,0,0,3,FEW 30   BKN 35   BKN 50,1,6,1,3,1021,RJOH 181600Z 20003KT 9999 FEW030 BKN035 BKN050 06/03 Q1021 RMK     1CU030 5CU035 7SC050 A3017=,
20180118_170000.000,0,RJOH,,,,0,20180118170000,-1,-1,-1,-1,999,-1,2,-1,-1,-1,-1,,9999,0,0,3,FEW 30   SCT 35   BKN 50,1,6,1,3,1021,RJOH 181700Z VRB02KT 9999 FEW030 SCT035 BKN050 06/03 Q1021 RMK     1CU030 4CU035 7SC050 A3018=,
20180118_170000.002,0,RJOH,,,,0,20180118170000,-1,-1,-1,-1,999,-1,2,-1,-1,-1,-1,,9999,0,0,3,FEW 30   SCT 35   BKN 50,1,6,1,3,1021,RJOH 181700Z VRB02KT 9999 FEW030 SCT035 BKN050 06/03 Q1021 RMK     1CU030 4CU035 7SC050 A3018=,
20180118_180000.000,0,RJOH,,,,0,20180118180000,-1,-1,-1,-1,999,-1,2,-1,-1,-1,-1,,9999,0,0,3,FEW 30   SCT 35   BKN 50,1,6,1,3,1021,RJOH 181800Z VRB02KT 9999 FEW030 SCT035 BKN050 06/03 Q1021 RMK     1CU030 3CU035 7SC050 A3017=,
20180118_180000.002,0,RJOH,,,,0,20180118180000,-1,-1,-1,-1,999,-1,2,-1,-1,-1,-1,,9999,0,0,3,FEW 30   SCT 35   BKN 50,1,6,1,3,1021,RJOH 181800Z VRB02KT 9999 FEW030 SCT035 BKN050 06/03 Q1021 RMK     1CU030 3CU035 7SC050 A3017=,
20180118_190000.000,0,RJOH,,,,0,20180118190000,-1,-1,-1,-1,230,-1,4,-1,-1,-1,-1,,9999,0,0,3,FEW 30   BKN 35   BKN 50,1,5,1,3,1021,RJOH 181900Z 23004KT 9999 FEW030 BKN035 BKN050 05/03 Q1021 RMK     1CU030 5CU035 7SC050 A3016=,
20180118_190000.002,0,RJOH,,,,0,20180118190000,-1,-1,-1,-1,230,-1,4,-1,-1,-1,-1,,9999,0,0,3,FEW 30   BKN 35   BKN 50,1,5,1,3,1021,RJOH 181900Z 23004KT 9999 FEW030 BKN035 BKN050 05/03 Q1021 RMK     1CU030 5CU035 7SC050 A3016=,
20180118_200000.000,0,RJOH,,,,0,20180118200000,-1,-1,-1,-1,190,-1,5,-1,-1,-1,-1,,8000,0,0,3,FEW 30   SCT 35   BKN 50,1,4,1,2,1021,RJOH 182000Z 19005KT 8000 FEW030 SCT035 BKN050 04/02 Q1021 RMK     1CU030 3CU035 7SC050 A3016=,
20180118_200000.002,0,RJOH,,,,0,20180118200000,-1,-1,-1,-1,190,-1,5,-1,-1,-1,-1,,8000,0,0,3,FEW 30   SCT 35   BKN 50,1,4,1,2,1021,RJOH 182000Z 19005KT 8000 FEW030 SCT035 BKN050 04/02 Q1021 RMK     1CU030 3CU035 7SC050 A3016=,
20180118_210000.000,0,RJOH,,,,0,20180118210000,-1,-1,-1,-1,220,-1,3,-1,-1,190,260,,8000,0,0,2,FEW 35   BKN 60,1,4,1,2,1021,RJOH 182100Z 22003KT 190V260 8000 FEW035 BKN060 04/02 Q1021 RMK     1CU035 7SC060 A3017 11/04 R000=,
20180118_210000.003,0,RJOH,,,,0,20180118210000,-1,-1,-1,-1,220,-1,3,-1,-1,190,260,,8000,0,0,2,FEW 35   BKN 60,1,4,1,2,1021,RJOH 182100Z 22003KT 190V260 8000 FEW035 BKN060 04/02 Q1021     RMK 1CU035 7SC060 A3017 11/04 R000=,
20180118_220000.000,0,RJOH,,,,0,20180118220000,-1,-1,-1,-1,999,-1,2,-1,-1,-1,-1,,7000,0,0,2,FEW 35   BKN 50,1,5,1,3,1021,RJOH 182200Z VRB02KT 7000 FEW035 BKN050 05/03 Q1021 RMK 1CU035     6SC050 A3017=,
20180118_220000.002,0,RJOH,,,,0,20180118220000,-1,-1,-1,-1,999,-1,2,-1,-1,-1,-1,,7000,0,0,2,FEW 35   BKN 50,1,5,1,3,1021,RJOH 182200Z VRB02KT 7000 FEW035 BKN050 05/03 Q1021 RMK 1CU035     6SC050 A3017=,
20180118_230000.000,0,RJOH,,,,0,20180118230000,-1,-1,-1,-1,200,-1,5,-1,-1,180,260,,5000,0,1,2,FEW 35   BKN 60,1,5,1,2,1022,RJOH 182300Z 20005KT 180V260 5000 BR FEW035 BKN060 05/02 Q1022     RMK 1CU035 7SC060 A3018 VIS N 6KM=,BR
20180118_230000.003,0,RJOH,,,,0,20180118230000,-1,-1,-1,-1,200,-1,5,-1,-1,180,260,,5000,0,1,2,FEW 35   BKN 60,1,5,1,2,1022,RJOH 182300Z 20005KT 180V260 5000 BR FEW035 BKN060 05/02 Q1022     RMK 1CU035 7SC060 A3018 VIS N 6KM=,BR
20180119_000000.000,0,RJOH,,,,0,20180119000000,-1,-1,-1,-1,180,-1,3,-1,-1,150,270,,5000,0,1,2,FEW 35   BKN 60,1,6,1,3,1021,RJOH 190000Z 18003KT 150V270 5000 BR FEW035 BKN060 06/03 Q1021     RMK 1CU035 7SC060 A3018=,BR
20180119_000000.002,0,RJOH,,,,0,20180119000000,-1,-1,-1,-1,180,-1,3,-1,-1,150,270,,5000,0,1,2,FEW 35   BKN 60,1,6,1,3,1021,RJOH 190000Z 18003KT 150V270 5000 BR FEW035 BKN060 06/03 Q1021     RMK 1CU035 7SC060 A3018=,BR
20180119_010000.000,0,RJOH,,,,0,20180119010000,-1,-1,-1,-1,210,-1,3,-1,-1,-1,-1,,5000,0,1,2,FEW 35   BKN 60,1,7,1,4,1022,RJOH 190100Z 21003KT 5000 BR FEW035 BKN060 07/04 Q1022 RMK     1CU035 5SC060 A3020=,BR
20180119_010000.003,0,RJOH,,,,0,20180119010000,-1,-1,-1,-1,210,-1,3,-1,-1,-1,-1,,5000,0,1,2,FEW 35   BKN 60,1,7,1,4,1022,RJOH 190100Z 21003KT 5000 BR FEW035 BKN060 07/04 Q1022 RMK     1CU035 5SC060 A3020=,BR
20180119_020000.000,0,RJOH,,,,0,20180119020000,-1,-1,-1,-1,10,-1,3,-1,-1,-1,-1,,7000,0,0,2,FEW 35   BKN 60,1,10,1,3,1022,RJOH 190200Z 01003KT 7000 FEW035 BKN060 10/03 Q1022 RMK 1CU035     6SC060 A3019=,
20180119_020000.002,0,RJOH,,,,0,20180119020000,-1,-1,-1,-1,10,-1,3,-1,-1,-1,-1,,7000,0,0,2,FEW 35   BKN 60,1,10,1,3,1022,RJOH 190200Z 01003KT 7000 FEW035 BKN060 10/03 Q1022 RMK 1CU035     6SC060 A3019=,
20180119_030000.000,0,RJOH,,,,0,20180119030000,-1,-1,-1,-1,80,-1,12,-1,-1,-1,-1,,9999,0,0,1,FEW 35,1,10,1,2,1020,RJOH 190300Z 08012KT 9999 FEW035 10/02 Q1020 RMK 1CU035 A3014=,
20180119_030000.002,0,RJOH,,,,0,20180119030000,-1,-1,-1,-1,80,-1,12,-1,-1,-1,-1,,9999,0,0,1,FEW 35,1,10,1,2,1020,RJOH 190300Z 08012KT 9999 FEW035 10/02 Q1020 RMK 1CU035 A3014=,
20180119_040000.000,0,RJOH,,,,0,20180119040000,-1,-1,-1,-1,70,-1,12,-1,-1,-1,-1,,9999,0,0,1,FEW 35,1,11,1,1,1019,RJOH 190400Z 07012KT 9999 FEW035 11/01 Q1019 RMK 1CU035 A3012=,
20180119_040000.002,0,RJOH,,,,0,20180119040000,-1,-1,-1,-1,70,-1,12,-1,-1,-1,-1,,9999,0,0,1,FEW 35,1,11,1,1,1019,RJOH 190400Z 07012KT 9999 FEW035 11/01 Q1019 RMK 1CU035 A3012=,
20180119_050000.000,0,RJOH,,,,0,20180119050000,-1,-1,-1,-1,60,-1,9,-1,-1,-1,-1,,9999,0,0,2,FEW 35   SCT 230,1,11,1,1,1019,RJOH 190500Z 06009KT 9999 FEW035 SCT230 11/01 Q1019 RMK 1CU035     A3009=,
20180119_050000.003,0,RJOH,,,,0,20180119050000,-1,-1,-1,-1,60,-1,9,-1,-1,-1,-1,,9999,0,0,2,FEW 35   SCT 230,1,11,1,1,1019,RJOH 190500Z 06009KT 9999 FEW035 SCT230 11/01 Q1019 RMK 1CU035     A3009=,
20180119_060000.000,0,RJOH,,,,0,20180119060000,-1,-1,-1,-1,50,-1,8,-1,-1,-1,-1,,9999,0,0,1,FEW 35,1,10,-1,0,1018,RJOH 190600Z 05008KT 9999 FEW035 10/M00 Q1018 RMK 1CU035 A3008=,
20180119_060000.002,0,RJOH,,,,0,20180119060000,-1,-1,-1,-1,50,-1,8,-1,-1,-1,-1,,9999,0,0,1,FEW 35,1,10,-1,0,1018,RJOH 190600Z 05008KT 9999 FEW035 10/M00 Q1018 RMK 1CU035     A3008=,
20180119_070000.000,0,RJOH,,,,0,20180119070000,-1,-1,-1,-1,60,-1,7,-1,-1,-1,-1,,9999,0,0,1,FEW 60,1,10,-1,0,1018,RJOH 190700Z 06007KT 9999 FEW060 10/M00 Q1018 RMK 1SC060 A3008=,
20180119_070000.002,0,RJOH,,,,0,20180119070000,-1,-1,-1,-1,60,-1,7,-1,-1,-1,-1,,9999,0,0,1,FEW 60,1,10,-1,0,1018,RJOH 190700Z 06007KT 9999 FEW060 10/M00 Q1018 RMK 1SC060     A3008=,
20180119_080000.000,0,RJOH,,,,0,20180119080000,-1,-1,-1,-1,80,-1,4,-1,-1,-1,-1,,9999,0,0,2,FEW 40   SCT 50,1,9,-1,0,1018,RJOH 190800Z 08004KT 9999 FEW040 SCT050 09/M00 Q1018 RMK 1SC040     3SC050 A3008=,
20180119_080000.002,0,RJOH,,,,0,20180119080000,-1,-1,-1,-1,80,-1,4,-1,-1,-1,-1,,9999,0,0,2,FEW 40   SCT 50,1,9,-1,0,1018,RJOH 190800Z 08004KT 9999 FEW040 SCT050 09/M00 Q1018 RMK     1SC040 3SC050 A3008=,
20180119_090000.000,0,RJOH,,,,0,20180119090000,-1,-1,-1,-1,999,-1,1,-1,-1,-1,-1,,9999,0,0,2,FEW 40   BKN 50,1,8,1,0,1018,RJOH 190900Z VRB01KT 9999 FEW040 BKN050 08/00 Q1018 RMK 1SC040     5SC050 A3009=,
20180119_090000.003,0,RJOH,,,,0,20180119090000,-1,-1,-1,-1,999,-1,1,-1,-1,-1,-1,,9999,0,0,2,FEW 40   BKN 50,1,8,1,0,1018,RJOH 190900Z VRB01KT 9999 FEW040 BKN050 08/00 Q1018 RMK 1SC040     5SC050 A3009=,
20180119_100000.000,0,RJOH,,,,0,20180119100000,-1,-1,-1,-1,260,-1,2,-1,-1,-1,-1,,9999,0,0,2,FEW 40   BKN 50,1,6,1,2,1019,RJOH 191000Z 26002KT 9999 FEW040 BKN050 06/02 Q1019 RMK 1SC040     7SC050 A3009=,
20180119_100000.002,0,RJOH,,,,0,20180119100000,-1,-1,-1,-1,260,-1,2,-1,-1,-1,-1,,9999,0,0,2,FEW 40   BKN 50,1,6,1,2,1019,RJOH 191000Z 26002KT 9999 FEW040 BKN050 06/02 Q1019 RMK 1SC040     7SC050 A3009=,
20180119_110000.000,0,RJOH,,,,0,20180119110000,-1,-1,-1,-1,999,-1,2,-1,-1,-1,-1,,9999,0,0,2,FEW 40   BKN 50,1,6,1,3,1019,RJOH 191100Z VRB02KT 9999 FEW040 BKN050 06/03 Q1019 RMK 1SC040     5SC050 A3009=,
20180119_110000.002,0,RJOH,,,,0,20180119110000,-1,-1,-1,-1,999,-1,2,-1,-1,-1,-1,,9999,0,0,2,FEW 40   BKN 50,1,6,1,3,1019,RJOH 191100Z VRB02KT 9999 FEW040 BKN050 06/03 Q1019 RMK 1SC040     5SC050 A3009=,
20180119_120000.000,0,RJOH,,,,0,20180119120000,-1,-1,-1,-1,190,-1,4,-1,-1,-1,-1,,9999,0,0,2,FEW 40   BKN 50,1,4,1,1,1018,RJOH 191200Z 19004KT 9999 FEW040 BKN050 04/01 Q1018 RMK 1SC040     6SC050 A3008=,
20180119_120000.003,0,RJOH,,,,0,20180119120000,-1,-1,-1,-1,190,-1,4,-1,-1,-1,-1,,9999,0,0,2,FEW 40   BKN 50,1,4,1,1,1018,RJOH 191200Z 19004KT 9999 FEW040 BKN050 04/01 Q1018 RMK 1SC040     6SC050 A3008=,
20180119_130000.000,0,RJOH,,,,0,20180119130000,-1,-1,-1,-1,180,-1,6,-1,-1,-1,-1,,9999,0,0,2,FEW 35   BKN 50,1,5,1,2,1018,RJOH 191300Z 18006KT 9999 FEW035 BKN050 05/02 Q1018 RMK 1SC035     7SC050 A3008=,
20180119_130000.002,0,RJOH,,,,0,20180119130000,-1,-1,-1,-1,180,-1,6,-1,-1,-1,-1,,9999,0,0,2,FEW 35   BKN 50,1,5,1,2,1018,RJOH 191300Z 18006KT 9999 FEW035 BKN050 05/02 Q1018 RMK 1SC035     7SC050 A3008=,
20180119_140000.000,0,RJOH,,,,0,20180119140000,-1,-1,-1,-1,270,-1,1,-1,-1,-1,-1,,9999,0,0,2,FEW 35   BKN 50,1,6,1,5,1018,RJOH 191400Z 27001KT 9999 FEW035 BKN050 06/05 Q1018 RMK 1SC035     7SC050 A3008 WIND EST=,
20180119_140000.002,0,RJOH,,,,0,20180119140000,-1,-1,-1,-1,270,-1,1,-1,-1,-1,-1,,9999,0,0,2,FEW 35   BKN 50,1,6,1,5,1018,RJOH 191400Z 27001KT 9999 FEW035 BKN050 06/05 Q1018 RMK 1SC035     7SC050 A3008 WIND EST=,
20180119_150000.000,0,RJOH,,,,0,20180119150000,-1,-1,-1,-1,260,-1,1,-1,-1,-1,-1,,9999,0,0,2,FEW 35   BKN 50,1,6,1,5,1018,RJOH 191500Z 26001KT 9999 FEW035 BKN050 06/05 Q1018 RMK 2CU035     7SC050 A3007 WIND EST=,
20180119_150000.002,0,RJOH,,,,0,20180119150000,-1,-1,-1,-1,260,-1,1,-1,-1,-1,-1,,9999,0,0,2,FEW 35   BKN 50,1,6,1,5,1018,RJOH 191500Z 26001KT 9999 FEW035 BKN050 06/05 Q1018 RMK 2CU035     7SC050 A3007 WIND EST=,
20180119_160000.000,0,RJOH,,,,0,20180119160000,-1,-1,-1,-1,270,-1,1,-1,-1,-1,-1,,9999,0,0,2,FEW 35   BKN 50,1,6,1,5,1018,RJOH 191600Z 27001KT 9999 FEW035 BKN050 06/05 Q1018 RMK 1CU035     6SC050 A3007 WIND EST=,
20180119_160000.002,0,RJOH,,,,0,20180119160000,-1,-1,-1,-1,270,-1,1,-1,-1,-1,-1,,9999,0,0,2,FEW 35   BKN 50,1,6,1,5,1018,RJOH 191600Z 27001KT 9999 FEW035 BKN050 06/05 Q1018 RMK 1CU035     6SC050 A3007 WIND EST=,
20180119_170000.000,0,RJOH,,,,0,20180119170000,-1,-1,-1,-1,280,-1,2,-1,-1,-1,-1,,9999,0,0,2,FEW 35   BKN 50,1,6,1,5,1018,RJOH 191700Z 28002KT 9999 FEW035 BKN050 06/05 Q1018 RMK 1CU035     7SC050 A3007 WIND EST=,
20180119_170000.002,0,RJOH,,,,0,20180119170000,-1,-1,-1,-1,280,-1,2,-1,-1,-1,-1,,9999,0,0,2,FEW 35   BKN 50,1,6,1,5,1018,RJOH 191700Z 28002KT 9999 FEW035 BKN050 06/05 Q1018 RMK 1CU035     7SC050 A3007 WIND EST=,
20180119_180000.000,0,RJOH,,,,0,20180119180000,-1,-1,-1,-1,270,-1,1,-1,-1,-1,-1,,9999,0,0,2,FEW 35   BKN 50,1,5,1,5,1018,RJOH 191800Z 27001KT 9999 FEW035 BKN050 05/05 Q1018 RMK 1CU035     5SC050 A3008 WIND EST=,
20180119_180000.003,0,RJOH,,,,0,20180119180000,-1,-1,-1,-1,270,-1,1,-1,-1,-1,-1,,9999,0,0,2,FEW 35   BKN 50,1,5,1,5,1018,RJOH 191800Z 27001KT 9999 FEW035 BKN050 05/05 Q1018 RMK 1CU035     5SC050 A3008 WIND EST=,
20180119_190000.000,0,RJOH,,,,0,20180119190000,-1,-1,-1,-1,270,-1,1,-1,-1,-1,-1,,9999,0,0,2,FEW 35   SCT 50,1,5,1,4,1018,RJOH 191900Z 27001KT 9999 FEW035 SCT050 05/04 Q1018 RMK 1CU035     3SC050 A3007 WIND EST=,
20180119_190000.003,0,RJOH,,,,0,20180119190000,-1,-1,-1,-1,270,-1,1,-1,-1,-1,-1,,9999,0,0,2,FEW 35   SCT 50,1,5,1,4,1018,RJOH 191900Z 27001KT 9999 FEW035 SCT050 05/04 Q1018 RMK 1CU035     3SC050 A3007 WIND EST=,
20180119_200000.000,0,RJOH,,,,0,20180119200000,-1,-1,-1,-1,200,-1,5,-1,-1,-1,-1,,9999,0,0,2,FEW 35   BKN 50,1,5,1,4,1018,RJOH 192000Z 20005KT 9999 FEW035 BKN050 05/04 Q1018 RMK 1CU035     5SC050 A3007 WIND EST=,
20180119_200000.002,0,RJOH,,,,0,20180119200000,-1,-1,-1,-1,200,-1,5,-1,-1,-1,-1,,9999,0,0,2,FEW 35   BKN 50,1,5,1,4,1018,RJOH 192000Z 20005KT 9999 FEW035 BKN050 05/04 Q1018 RMK 1CU035     5SC050 A3007 WIND EST=,
20180119_210000.000,0,RJOH,,,,0,20180119210000,-1,-1,-1,-1,200,-1,3,-1,-1,-1,-1,,9999,0,0,2,FEW 35   BKN 50,1,4,1,1,1018,RJOH 192100Z 20003KT 9999 FEW035 BKN050 04/01 Q1018 RMK 1CU035     7SC050 A3008 11/04=,
20180119_210000.002,0,RJOH,,,,0,20180119210000,-1,-1,-1,-1,200,-1,3,-1,-1,-1,-1,,9999,0,0,2,FEW 35   BKN 50,1,4,1,1,1018,RJOH 192100Z 20003KT 9999 FEW035 BKN050 04/01 Q1018 RMK 1CU035     7SC050 A3008 11/04=,
20180119_220000.000,0,RJOH,,,,0,20180119220000,-1,-1,-1,-1,190,-1,5,-1,-1,-1,-1,,9999,0,1,3,FEW 30   SCT 35   BKN 50,1,3,1,1,1019,RJOH 192200Z 19005KT 9999 -SHRA FEW030 SCT035 BKN050 03/01     Q1019 RMK 1CU030 3CU035 7SC050 A3009=,- RA SH
20180119_220000.002,0,RJOH,,,,0,20180119220000,-1,-1,-1,-1,190,-1,5,-1,-1,-1,-1,,9999,0,1,3,FEW 30   SCT 35   BKN 50,1,3,1,1,1019,RJOH 192200Z 19005KT 9999 -SHRA FEW030 SCT035 BKN050 03/01     Q1019 RMK 1CU030 3CU035 7SC050 A3009=,- RA SH
20180119_230000.000,0,RJOH,,,,0,20180119230000,-1,-1,-1,-1,200,-1,4,-1,-1,-1,-1,,9999,0,1,3,FEW 20   BKN 30   BKN 50,1,5,1,2,1019,RJOH 192300Z 20004KT 9999 -SHRA FEW020 BKN030 BKN050 05/02     Q1019 RMK 1CU020 5CU030 7SC050 A3011=,- RA SH
20180119_230000.002,0,RJOH,,,,0,20180119230000,-1,-1,-1,-1,200,-1,4,-1,-1,-1,-1,,9999,0,1,3,FEW 20   BKN 30   BKN 50,1,5,1,2,1019,RJOH 192300Z 20004KT 9999 -SHRA FEW020 BKN030 BKN050 05/02     Q1019 RMK 1CU020 5CU030 7SC050 A3011=,- RA SH
20180120_000000.000,0,RJOH,,,,0,20180120000000,-1,-1,-1,-1,220,-1,5,-1,-1,-1,-1,,9999,0,1,3,FEW 20   BKN 30   BKN 50,1,6,1,2,1019,RJOH 200000Z 22005KT 9999 -SHRA FEW020 BKN030 BKN050 06/02     Q1019 RMK 1CU020 5CU030 7SC050 A3011=,- RA SH
20180120_000000.002,0,RJOH,,,,0,20180120000000,-1,-1,-1,-1,220,-1,5,-1,-1,-1,-1,,9999,0,1,3,FEW 20   BKN 30   BKN 50,1,6,1,2,1019,RJOH 200000Z 22005KT 9999 -SHRA FEW020 BKN030 BKN050 06/02     Q1019 RMK 1CU020 5CU030 7SC050 A3011=,- RA SH
20180120_010000.000,0,RJOH,,,,0,20180120010000,-1,-1,-1,-1,230,-1,7,-1,-1,-1,-1,,9999,0,1,3,FEW 20   BKN 30   BKN 50,1,6,1,2,1020,RJOH 200100Z 23007KT 9999 -SHRA FEW020 BKN030 BKN050 06/02     Q1020 RMK 1CU020 6CU030 7SC050 A3013=,- RA SH
20180120_010000.002,0,RJOH,,,,0,20180120010000,-1,-1,-1,-1,230,-1,7,-1,-1,-1,-1,,9999,0,1,3,FEW 20   BKN 30   BKN 50,1,6,1,2,1020,RJOH 200100Z 23007KT 9999 -SHRA FEW020 BKN030 BKN050 06/02     Q1020 RMK 1CU020 6CU030 7SC050 A3013=,- RA SH
20180120_020000.000,0,RJOH,,,,0,20180120020000,-1,-1,-1,-1,240,-1,9,-1,-1,-1,-1,,9999,0,1,3,FEW 20   BKN 30   BKN 50,1,7,1,3,1020,RJOH 200200Z 24009KT 9999 -SHRA FEW020 BKN030 BKN050 07/03     Q1020 RMK 1CU020 5CU030 7SC050 A3014=,- RA SH
20180120_020000.003,0,RJOH,,,,0,20180120020000,-1,-1,-1,-1,240,-1,9,-1,-1,-1,-1,,9999,0,1,3,FEW 20   BKN 30   BKN 50,1,7,1,3,1020,RJOH 200200Z 24009KT 9999 -SHRA FEW020 BKN030 BKN050 07/03     Q1020 RMK 1CU020 5CU030 7SC050 A3014=,- RA SH
20180120_030000.000,0,RJOH,,,,0,20180120030000,-1,-1,-1,-1,250,-1,9,-1,-1,-1,-1,,9999,0,0,2,FEW 30   BKN 50,1,9,1,2,1020,RJOH 200300Z 25009KT 9999 FEW030 BKN050 09/02 Q1020 RMK 1CU030     7SC050 A3015=,
20180120_030000.002,0,RJOH,,,,0,20180120030000,-1,-1,-1,-1,250,-1,9,-1,-1,-1,-1,,9999,0,0,2,FEW 30   BKN 50,1,9,1,2,1020,RJOH 200300Z 25009KT 9999 FEW030 BKN050 09/02 Q1020 RMK 1CU030     7SC050 A3015=,
20180120_040000.000,0,RJOH,,,,0,20180120040000,-1,-1,-1,-1,220,-1,7,-1,-1,-1,-1,,9999,0,0,2,FEW 30   BKN 50,1,9,1,0,1020,RJOH 200400Z 22007KT 9999 FEW030 BKN050 09/00 Q1020 RMK 1CU030     7SC050 A3013=,
20180120_040000.002,0,RJOH,,,,0,20180120040000,-1,-1,-1,-1,220,-1,7,-1,-1,-1,-1,,9999,0,0,2,FEW 30   BKN 50,1,9,1,0,1020,RJOH 200400Z 22007KT 9999 FEW030 BKN050 09/00 Q1020 RMK 1CU030     7SC050 A3013=,
20180120_050000.000,0,RJOH,,,,0,20180120050000,-1,-1,-1,-1,200,-1,7,-1,-1,-1,-1,,9999,0,0,2,FEW 30   BKN 50,1,11,-1,2,1019,RJOH 200500Z 20007KT 9999 FEW030 BKN050 11/M02 Q1019 RMK 1CU030     5SC050 A3010=,
20180120_050000.002,0,RJOH,,,,0,20180120050000,-1,-1,-1,-1,200,-1,7,-1,-1,-1,-1,,9999,0,0,2,FEW 30   BKN 50,1,11,-1,2,1019,RJOH 200500Z 20007KT 9999 FEW030 BKN050 11/M02 Q1019 RMK     1CU030 5SC050 A3010=,
20180120_060000.000,0,RJOH,,,,0,20180120060000,-1,-1,-1,-1,210,-1,5,-1,-1,-1,-1,,9999,0,0,2,FEW 30   BKN 50,1,10,-1,3,1019,RJOH 200600Z 21005KT 9999 FEW030 BKN050 10/M03 Q1019 RMK 1CU030     6SC050 A3009=,
20180120_060000.002,0,RJOH,,,,0,20180120060000,-1,-1,-1,-1,210,-1,5,-1,-1,-1,-1,,9999,0,0,2,FEW 30   BKN 50,1,10,-1,3,1019,RJOH 200600Z 21005KT 9999 FEW030 BKN050 10/M03 Q1019 RMK     1CU030 6SC050 A3009=,
20180120_070000.000,0,RJOH,,,,0,20180120070000,-1,-1,-1,-1,270,-1,5,-1,-1,-1,-1,,9999,0,0,2,FEW 30   BKN 50,1,10,-1,3,1019,RJOH 200700Z 27005KT 9999 FEW030 BKN050 10/M03 Q1019 RMK 1CU030     6SC050 A3011=,
20180120_070000.002,0,RJOH,,,,0,20180120070000,-1,-1,-1,-1,270,-1,5,-1,-1,-1,-1,,9999,0,0,2,FEW 30   BKN 50,1,10,-1,3,1019,RJOH 200700Z 27005KT 9999 FEW030 BKN050 10/M03 Q1019 RMK     1CU030 6SC050 A3011=,
20180120_080000.000,0,RJOH,,,,0,20180120080000,-1,-1,-1,-1,300,-1,4,-1,-1,-1,-1,,9999,0,0,2,FEW 30   BKN 50,1,9,-1,4,1020,RJOH 200800Z 30004KT 9999 FEW030 BKN050 09/M04 Q1020 RMK 1CU030     5SC050 A3012=,
20180120_080000.002,0,RJOH,,,,0,20180120080000,-1,-1,-1,-1,300,-1,4,-1,-1,-1,-1,,9999,0,0,2,FEW 30   BKN 50,1,9,-1,4,1020,RJOH 200800Z 30004KT 9999 FEW030 BKN050 09/M04 Q1020 RMK     1CU030 5SC050 A3012=,
20180120_090000.000,0,RJOH,,,,0,20180120090000,-1,-1,-1,-1,230,-1,1,-1,-1,-1,-1,,9999,0,0,2,FEW 30   SCT 50,1,6,-1,2,1020,RJOH 200900Z 23001KT 9999 FEW030 SCT050 06/M02 Q1020 RMK 1CU030     4SC050 A3013=,
20180120_090000.002,0,RJOH,,,,0,20180120090000,-1,-1,-1,-1,230,-1,1,-1,-1,-1,-1,,9999,0,0,2,FEW 30   SCT 50,1,6,-1,2,1020,RJOH 200900Z 23001KT 9999 FEW030 SCT050 06/M02 Q1020 RMK     1CU030 4SC050 A3013=,
20180120_100000.000,0,RJOH,,,,0,20180120100000,-1,-1,-1,-1,200,-1,5,-1,-1,-1,-1,,9999,0,0,2,FEW 30   SCT 50,1,3,-1,1,1020,RJOH 201000Z 20005KT 9999 FEW030 SCT050 03/M01 Q1020 RMK 1CU030     3SC050 A3013=,
20180120_100000.002,0,RJOH,,,,0,20180120100000,-1,-1,-1,-1,200,-1,5,-1,-1,-1,-1,,9999,0,0,2,FEW 30   SCT 50,1,3,-1,1,1020,RJOH 201000Z 20005KT 9999 FEW030 SCT050 03/M01 Q1020 RMK     1CU030 3SC050 A3013=,
20180120_110000.000,0,RJOH,,,,0,20180120110000,-1,-1,-1,-1,180,-1,6,-1,-1,-1,-1,,9999,0,0,2,FEW 30   SCT 50,1,3,-1,0,1020,RJOH 201100Z 18006KT 9999 FEW030 SCT050 03/M00 Q1020 RMK 1CU030     4SC050 A3014=,
20180120_110000.002,0,RJOH,,,,0,20180120110000,-1,-1,-1,-1,180,-1,6,-1,-1,-1,-1,,9999,0,0,2,FEW 30   SCT 50,1,3,-1,0,1020,RJOH 201100Z 18006KT 9999 FEW030 SCT050 03/M00 Q1020 RMK     1CU030 4SC050 A3014=,
20180120_120000.000,0,RJOH,,,,0,20180120120000,-1,-1,-1,-1,190,-1,6,-1,-1,-1,-1,,9999,0,0,2,FEW 30   BKN 50,1,3,-1,0,1020,RJOH 201200Z 19006KT 9999 FEW030 BKN050 03/M00 Q1020 RMK 1CU030     5SC050 A3014=,
20180120_120000.002,0,RJOH,,,,0,20180120120000,-1,-1,-1,-1,190,-1,6,-1,-1,-1,-1,,9999,0,0,2,FEW 30   BKN 50,1,3,-1,0,1020,RJOH 201200Z 19006KT 9999 FEW030 BKN050 03/M00 Q1020 RMK     1CU030 5SC050 A3014=,
20180120_130000.000,0,RJOH,,,,0,20180120130000,-1,-1,-1,-1,180,-1,5,-1,-1,-1,-1,,9999,0,0,2,FEW 30   BKN 50,1,2,-1,1,1020,RJOH 201300Z 18005KT 9999 FEW030 BKN050 02/M01 Q1020 RMK 1CU030     5SC050 A3014=,
20180120_130000.002,0,RJOH,,,,0,20180120130000,-1,-1,-1,-1,180,-1,5,-1,-1,-1,-1,,9999,0,0,2,FEW 30   BKN 50,1,2,-1,1,1020,RJOH 201300Z 18005KT 9999 FEW030 BKN050 02/M01 Q1020 RMK     1CU030 5SC050 A3014=,
20180120_140000.000,0,RJOH,,,,0,20180120140000,-1,-1,-1,-1,200,-1,4,-1,-1,-1,-1,,9999,0,0,2,FEW 50   SCT -9999,1,2,-1,1,1020,RJOH 201400Z 20004KT 9999 FEW050 SCT/// 02/M01 Q1020 RMK 2SC050     A3014=,
20180120_140000.002,0,RJOH,,,,0,20180120140000,-1,-1,-1,-1,200,-1,4,-1,-1,-1,-1,,9999,0,0,2,FEW 50   SCT -9999,1,2,-1,1,1020,RJOH 201400Z 20004KT 9999 FEW050 SCT/// 02/M01 Q1020 RMK     2SC050 A3014=,
20180120_150000.000,0,RJOH,,,,0,20180120150000,-1,-1,-1,-1,190,-1,5,-1,-1,-1,-1,,9999,0,0,2,FEW 50   BKN -9999,1,1,-1,2,1020,RJOH 201500Z 19005KT 9999 FEW050 BKN/// 01/M02 Q1020 RMK 1SC050     A3014=,
20180120_150000.002,0,RJOH,,,,0,20180120150000,-1,-1,-1,-1,190,-1,5,-1,-1,-1,-1,,9999,0,0,2,FEW 50   BKN -9999,1,1,-1,2,1020,RJOH 201500Z 19005KT 9999 FEW050 BKN/// 01/M02 Q1020 RMK     1SC050 A3014=,
20180120_160000.000,0,RJOH,,,,0,20180120160000,-1,-1,-1,-1,190,-1,3,-1,-1,-1,-1,,9999,0,0,3,FEW 30   SCT 50   BKN -9999,1,2,-1,1,1020,RJOH 201600Z 19003KT 9999 FEW030 SCT050 BKN/// 02/M01 Q1020 RMK     1CU030 3SC050 A3013=,
20180120_160000.002,0,RJOH,,,,0,20180120160000,-1,-1,-1,-1,190,-1,3,-1,-1,-1,-1,,9999,0,0,3,FEW 30   SCT 50   BKN -9999,1,2,-1,1,1020,RJOH 201600Z 19003KT 9999 FEW030 SCT050 BKN/// 02/M01 Q1020     RMK 1CU030 3SC050 A3013=,
20180120_170000.000,0,RJOH,,,,0,20180120170000,-1,-1,-1,-1,200,-1,4,-1,-1,-1,-1,,9999,0,0,2,FEW 30   BKN 50,1,3,1,0,1020,RJOH 201700Z 20004KT 9999 FEW030 BKN050 03/00 Q1020 RMK 1CU030     7SC050 A3013=,
20180120_170000.002,0,RJOH,,,,0,20180120170000,-1,-1,-1,-1,200,-1,4,-1,-1,-1,-1,,9999,0,0,2,FEW 30   BKN 50,1,3,1,0,1020,RJOH 201700Z 20004KT 9999 FEW030 BKN050 03/00 Q1020 RMK 1CU030     7SC050 A3013=,
20180120_180000.000,0,RJOH,,,,0,20180120180000,-1,-1,-1,-1,999,-1,2,-1,-1,-1,-1,,9999,0,0,2,FEW 30   BKN 50,1,3,-1,0,1020,RJOH 201800Z VRB02KT 9999 FEW030 BKN050 03/M00 Q1020 RMK 1CU030     7SC050 A3013=,
20180120_180000.002,0,RJOH,,,,0,20180120180000,-1,-1,-1,-1,999,-1,2,-1,-1,-1,-1,,9999,0,0,2,FEW 30   BKN 50,1,3,-1,0,1020,RJOH 201800Z VRB02KT 9999 FEW030 BKN050 03/M00 Q1020 RMK     1CU030 7SC050 A3013=,
20180120_190000.000,0,RJOH,,,,0,20180120190000,-1,-1,-1,-1,999,-1,2,-1,-1,-1,-1,,9999,0,0,2,FEW 30   BKN 50,1,3,-1,0,1019,RJOH 201900Z VRB02KT 9999 FEW030 BKN050 03/M00 Q1019 RMK 1CU030     7SC050 A3011=,
20180120_190000.003,0,RJOH,,,,0,20180120190000,-1,-1,-1,-1,999,-1,2,-1,-1,-1,-1,,9999,0,0,2,FEW 30   BKN 50,1,3,-1,0,1019,RJOH 201900Z VRB02KT 9999 FEW030 BKN050 03/M00 Q1019 RMK     1CU030 7SC050 A3011=,
20180120_200000.000,0,RJOH,,,,0,20180120200000,-1,-1,-1,-1,200,-1,3,-1,-1,-1,-1,,9999,0,0,2,FEW 30   BKN 50,1,3,1,0,1019,RJOH 202000Z 20003KT 9999 FEW030 BKN050 03/00 Q1019 RMK 1CU030     7SC050 A3011=,
20180120_200000.002,0,RJOH,,,,0,20180120200000,-1,-1,-1,-1,200,-1,3,-1,-1,-1,-1,,9999,0,0,2,FEW 30   BKN 50,1,3,1,0,1019,RJOH 202000Z 20003KT 9999 FEW030 BKN050 03/00 Q1019 RMK 1CU030     7SC050 A3011=,
20180120_210000.000,0,RJOH,,,,0,20180120210000,-1,-1,-1,-1,220,-1,6,-1,-1,-1,-1,,9999,0,0,2,FEW 30   BKN 50,1,2,-1,0,1020,RJOH 202100Z 22006KT 9999 FEW030 BKN050 02/M00 Q1020 RMK 1CU030     7SC050 A3012 11/01 R000=,
20180120_210000.002,0,RJOH,,,,0,20180120210000,-1,-1,-1,-1,220,-1,6,-1,-1,-1,-1,,9999,0,0,2,FEW 30   BKN 50,1,2,-1,0,1020,RJOH 202100Z 22006KT 9999 FEW030 BKN050 02/M00 Q1020 RMK     1CU030 7SC050 A3012 11/01 R000=,
20180120_220000.000,0,RJOH,,,,0,20180120220000,-1,-1,-1,-1,210,-1,5,-1,-1,-1,-1,,9999,0,0,3,FEW 30   SCT 35   BKN 50,1,3,1,0,1020,RJOH 202200Z 21005KT 9999 FEW030 SCT035 BKN050 03/00 Q1020 RMK     1CU030 3CU035 7SC050 A3012=,
20180120_220000.002,0,RJOH,,,,0,20180120220000,-1,-1,-1,-1,210,-1,5,-1,-1,-1,-1,,9999,0,0,3,FEW 30   SCT 35   BKN 50,1,3,1,0,1020,RJOH 202200Z 21005KT 9999 FEW030 SCT035 BKN050 03/00 Q1020 RMK     1CU030 3CU035 7SC050 A3012=,
20180120_230000.000,0,RJOH,,,,0,20180120230000,-1,-1,-1,-1,210,-1,4,-1,-1,-1,-1,,9999,0,1,3,FEW 30   BKN 35   BKN 50,1,3,1,0,1020,RJOH 202300Z 21004KT 9999 -SHRA FEW030 BKN035 BKN050 03/00     Q1020 RMK 1CU030 6CU035 7SC050 A3014=,- RA SH
20180120_230000.002,0,RJOH,,,,0,20180120230000,-1,-1,-1,-1,210,-1,4,-1,-1,-1,-1,,9999,0,1,3,FEW 30   BKN 35   BKN 50,1,3,1,0,1020,RJOH 202300Z 21004KT 9999 -SHRA FEW030 BKN035 BKN050 03/00     Q1020 RMK 1CU030 6CU035 7SC050 A3014=,- RA SH
20180121_000000.000,0,RJOH,,,,0,20180121000000,-1,-1,-1,-1,230,-1,7,-1,-1,-1,-1,,9999,0,0,3,FEW 30   SCT 35   BKN 50,1,5,1,0,1021,RJOH 210000Z 23007KT 9999 FEW030 SCT035 BKN050 05/00 Q1021 RMK     1CU030 3CU035 6SC050 A3015=,
20180121_000000.002,0,RJOH,,,,0,20180121000000,-1,-1,-1,-1,230,-1,7,-1,-1,-1,-1,,9999,0,0,3,FEW 30   SCT 35   BKN 50,1,5,1,0,1021,RJOH 210000Z 23007KT 9999 FEW030 SCT035 BKN050 05/00 Q1021 RMK     1CU030 3CU035 6SC050 A3015=,
20180121_010000.000,0,RJOH,,,,0,20180121010000,-1,-1,-1,-1,260,-1,6,-1,-1,230,290,,9999,0,1,3,FEW 30   BKN 35   BKN 50,1,6,1,1,1021,RJOH 210100Z 26006KT 230V290 9999 -SHRA FEW030 BKN035 BKN050     06/01 Q1021 RMK 1CU030 6CU035 7SC050 A3016=,- RA SH
20180121_010000.002,0,RJOH,,,,0,20180121010000,-1,-1,-1,-1,260,-1,6,-1,-1,230,290,,9999,0,1,3,FEW 30   BKN 35   BKN 50,1,6,1,1,1021,RJOH 210100Z 26006KT 230V290 9999 -SHRA FEW030 BKN035 BKN050     06/01 Q1021 RMK 1CU030 6CU035 7SC050 A3016=,- RA SH
20180121_020000.000,0,RJOH,,,,0,20180121020000,-1,-1,-1,-1,240,-1,10,-1,-1,-1,-1,,9999,0,1,3,FEW 30   BKN 35   BKN 50,1,7,1,1,1021,RJOH 210200Z 24010KT 9999 -SHRA FEW030 BKN035 BKN050 07/01     Q1021 RMK 1CU030 6CU035 7SC050 A3017=,- RA SH
20180121_020000.002,0,RJOH,,,,0,20180121020000,-1,-1,-1,-1,240,-1,10,-1,-1,-1,-1,,9999,0,1,3,FEW 30   BKN 35   BKN 50,1,7,1,1,1021,RJOH 210200Z 24010KT 9999 -SHRA FEW030 BKN035 BKN050 07/01     Q1021 RMK 1CU030 6CU035 7SC050 A3017=,- RA SH
20180121_030000.000,0,RJOH,,,,0,20180121030000,-1,-1,-1,-1,310,-1,7,-1,-1,270,10,,9999,0,0,3,FEW 30   SCT 35   BKN 50,1,9,-1,3,1021,RJOH 210300Z 31007KT 270V010 9999 FEW030 SCT035 BKN050 09/M03     Q1021 RMK 1CU030 4CU035 7SC050 A3016=,
20180121_030000.002,0,RJOH,,,,0,20180121030000,-1,-1,-1,-1,310,-1,7,-1,-1,270,10,,9999,0,0,3,FEW 30   SCT 35   BKN 50,1,9,-1,3,1021,RJOH 210300Z 31007KT 270V010 9999 FEW030 SCT035 BKN050 09/M03     Q1021 RMK 1CU030 4CU035 7SC050 A3016=,
20180121_040000.000,0,RJOH,,,,0,20180121040000,-1,-1,-1,-1,300,-1,10,-1,-1,-1,-1,,9999,0,0,2,FEW 30   BKN 50,1,9,-1,5,1020,RJOH 210400Z 30010KT 9999 FEW030 BKN050 09/M05 Q1020 RMK 1CU030     5SC050 A3014=,
20180121_040000.003,0,RJOH,,,,0,20180121040000,-1,-1,-1,-1,300,-1,10,-1,-1,-1,-1,,9999,0,0,2,FEW 30   BKN 50,1,9,-1,5,1020,RJOH 210400Z 30010KT 9999 FEW030 BKN050 09/M05 Q1020 RMK     1CU030 5SC050 A3014=,
20180121_050000.000,0,RJOH,,,,0,20180121050000,-1,-1,-1,-1,290,-1,11,-1,-1,-1,-1,,9999,0,0,2,FEW 30   BKN 50,1,9,-1,7,1020,RJOH 210500Z 29011KT 9999 FEW030 BKN050 09/M07 Q1020 RMK 1CU030     5SC050 A3015=,
20180121_050000.002,0,RJOH,,,,0,20180121050000,-1,-1,-1,-1,290,-1,11,-1,-1,-1,-1,,9999,0,0,2,FEW 30   BKN 50,1,9,-1,7,1020,RJOH 210500Z 29011KT 9999 FEW030 BKN050 09/M07 Q1020 RMK     1CU030 5SC050 A3015=,
20180121_060000.000,0,RJOH,,,,0,20180121060000,-1,-1,-1,-1,310,-1,12,-1,-1,-1,-1,,9999,0,0,2,FEW 30   BKN 50,1,9,-1,5,1021,RJOH 210600Z 31012KT 9999 FEW030 BKN050 09/M05 Q1021 RMK 1CU030     5SC050 A3016=,
20180121_060000.002,0,RJOH,,,,0,20180121060000,-1,-1,-1,-1,310,-1,12,-1,-1,-1,-1,,9999,0,0,2,FEW 30   BKN 50,1,9,-1,5,1021,RJOH 210600Z 31012KT 9999 FEW030 BKN050 09/M05 Q1021 RMK     1CU030 5SC050 A3016=,
20180121_070000.000,0,RJOH,,,,0,20180121070000,-1,-1,-1,-1,320,-1,10,-1,-1,-1,-1,,9999,0,0,2,FEW 30   BKN 50,1,8,-1,5,1021,RJOH 210700Z 32010KT 9999 FEW030 BKN050 08/M05 Q1021 RMK 1CU030     5SC050 A3016=,
20180121_070000.002,0,RJOH,,,,0,20180121070000,-1,-1,-1,-1,320,-1,10,-1,-1,-1,-1,,9999,0,0,2,FEW 30   BKN 50,1,8,-1,5,1021,RJOH 210700Z 32010KT 9999 FEW030 BKN050 08/M05 Q1021 RMK     1CU030 5SC050 A3016=,
20180121_080000.000,0,RJOH,,,,0,20180121080000,-1,-1,-1,-1,280,-1,6,-1,-1,-1,-1,,9999,0,0,2,FEW 30   BKN 50,1,7,-1,5,1021,RJOH 210800Z 28006KT 9999 FEW030 BKN050 07/M05 Q1021 RMK 1CU030     6SC050 A3017=,
20180121_080000.002,0,RJOH,,,,0,20180121080000,-1,-1,-1,-1,280,-1,6,-1,-1,-1,-1,,9999,0,0,2,FEW 30   BKN 50,1,7,-1,5,1021,RJOH 210800Z 28006KT 9999 FEW030 BKN050 07/M05 Q1021 RMK     1CU030 6SC050 A3017=,
20180121_090000.000,0,RJOH,,,,0,20180121090000,-1,-1,-1,-1,280,-1,6,-1,-1,-1,-1,,9999,0,0,2,FEW 30   BKN 50,1,7,-1,4,1022,RJOH 210900Z 28006KT 9999 FEW030 BKN050 07/M04 Q1022 RMK 1CU030     6SC050 A3019=,
20180121_090000.002,0,RJOH,,,,0,20180121090000,-1,-1,-1,-1,280,-1,6,-1,-1,-1,-1,,9999,0,0,2,FEW 30   BKN 50,1,7,-1,4,1022,RJOH 210900Z 28006KT 9999 FEW030 BKN050 07/M04 Q1022 RMK     1CU030 6SC050 A3019=,
20180121_100000.000,0,RJOH,,,,0,20180121100000,-1,-1,-1,-1,350,-1,8,-1,-1,-1,-1,,9999,0,0,2,FEW 30   BKN 50,1,7,-1,3,1022,RJOH 211000Z 35008KT 9999 FEW030 BKN050 07/M03 Q1022 RMK 1CU030     6SC050 A3019=,
20180121_100000.002,0,RJOH,,,,0,20180121100000,-1,-1,-1,-1,350,-1,8,-1,-1,-1,-1,,9999,0,0,2,FEW 30   BKN 50,1,7,-1,3,1022,RJOH 211000Z 35008KT 9999 FEW030 BKN050 07/M03 Q1022 RMK     1CU030 6SC050 A3019=,
20180121_110000.000,0,RJOH,,,,0,20180121110000,-1,-1,-1,-1,20,-1,6,-1,-1,-1,-1,,9999,0,0,2,FEW 30   SCT 50,1,7,-1,3,1022,RJOH 211100Z 02006KT 9999 FEW030 SCT050 07/M03 Q1022 RMK 1CU030     4SC050 A3018=,
20180121_110000.002,0,RJOH,,,,0,20180121110000,-1,-1,-1,-1,20,-1,6,-1,-1,-1,-1,,9999,0,0,2,FEW 30   SCT 50,1,7,-1,3,1022,RJOH 211100Z 02006KT 9999 FEW030 SCT050 07/M03 Q1022 RMK     1CU030 4SC050 A3018=,
20180121_120000.000,0,RJOH,,,,0,20180121120000,-1,-1,-1,-1,30,-1,7,-1,-1,-1,-1,,9999,0,0,2,FEW 30   SCT -9999,1,7,-1,4,1021,RJOH 211200Z 03007KT 9999 FEW030 SCT/// 07/M04 Q1021 RMK 1CU030     A3016=,
20180121_120000.002,0,RJOH,,,,0,20180121120000,-1,-1,-1,-1,30,-1,7,-1,-1,-1,-1,,9999,0,0,2,FEW 30   SCT -9999,1,7,-1,4,1021,RJOH 211200Z 03007KT 9999 FEW030 SCT/// 07/M04 Q1021 RMK     1CU030 A3016=,
20180121_130000.000,0,RJOH,,,,0,20180121130000,-1,-1,-1,-1,190,-1,4,-1,-1,70,220,,9999,0,0,2,FEW 30   BKN 35,1,4,-1,1,1021,RJOH 211300Z 19004KT 070V220 9999 FEW030 BKN035 04/M01 Q1021     RMK 1CU030 7CU035 A3017=,
20180121_130000.003,0,RJOH,,,,0,20180121130000,-1,-1,-1,-1,190,-1,4,-1,-1,70,220,,9999,0,0,2,FEW 30   BKN 35,1,4,-1,1,1021,RJOH 211300Z 19004KT 070V220 9999 FEW030 BKN035 04/M01 Q1021     RMK 1CU030 7CU035 A3017=,
20180121_140000.000,0,RJOH,,,,0,20180121140000,-1,-1,-1,-1,190,-1,6,-1,-1,-1,-1,,9999,0,0,2,FEW 30   BKN 35,1,4,-1,1,1021,RJOH 211400Z 19006KT 9999 FEW030 BKN035 04/M01 Q1021 RMK 1CU030     7CU035 A3015=,
20180121_140000.002,0,RJOH,,,,0,20180121140000,-1,-1,-1,-1,190,-1,6,-1,-1,-1,-1,,9999,0,0,2,FEW 30   BKN 35,1,4,-1,1,1021,RJOH 211400Z 19006KT 9999 FEW030 BKN035 04/M01 Q1021 RMK     1CU030 7CU035 A3015=,
20180121_150000.000,0,RJOH,,,,0,20180121150000,-1,-1,-1,-1,190,-1,5,-1,-1,-1,-1,,9999,0,0,3,FEW 30   BKN 35   BKN 50,1,3,-1,1,1020,RJOH 211500Z 19005KT 9999 FEW030 BKN035 BKN050 03/M01 Q1020 RMK     1CU030 5CU035 7SC050 A3013=,
20180121_150000.002,0,RJOH,,,,0,20180121150000,-1,-1,-1,-1,190,-1,5,-1,-1,-1,-1,,9999,0,0,3,FEW 30   BKN 35   BKN 50,1,3,-1,1,1020,RJOH 211500Z 19005KT 9999 FEW030 BKN035 BKN050 03/M01 Q1020     RMK 1CU030 5CU035 7SC050 A3013=,
20180121_160000.000,0,RJOH,,,,0,20180121160000,-1,-1,-1,-1,130,-1,3,-1,-1,60,180,,9999,0,1,3,FEW 30   BKN 35   BKN 50,1,3,-1,1,1019,RJOH 211600Z 13003KT 060V180 9999 -SHRA FEW030 BKN035 BKN050     03/M01 Q1019 RMK 1CU030 5CU035 7SC050 A3011=,- RA SH
20180121_160000.002,0,RJOH,,,,0,20180121160000,-1,-1,-1,-1,130,-1,3,-1,-1,60,180,,9999,0,1,3,FEW 30   BKN 35   BKN 50,1,3,-1,1,1019,RJOH 211600Z 13003KT 060V180 9999 -SHRA FEW030 BKN035 BKN050     03/M01 Q1019 RMK 1CU030 5CU035 7SC050 A3011=,- RA SH
20180121_170000.000,0,RJOH,,,,0,20180121170000,-1,-1,-1,-1,220,-1,4,-1,-1,-1,-1,,9999,0,0,3,FEW 30   SCT 35   BKN 50,1,2,-1,1,1019,RJOH 211700Z 22004KT 9999 FEW030 SCT035 BKN050 02/M01 Q1019 RMK     1CU030 3CU035 5SC050 A3010=,
20180121_170000.002,0,RJOH,,,,0,20180121170000,-1,-1,-1,-1,220,-1,4,-1,-1,-1,-1,,9999,0,0,3,FEW 30   SCT 35   BKN 50,1,2,-1,1,1019,RJOH 211700Z 22004KT 9999 FEW030 SCT035 BKN050 02/M01 Q1019     RMK 1CU030 3CU035 5SC050 A3010=,
20180121_180000.000,0,RJOH,,,,0,20180121180000,-1,-1,-1,-1,160,-1,3,-1,-1,-1,-1,,9999,0,0,3,FEW 30   SCT 50   BKN 180,1,2,-1,1,1019,RJOH 211800Z 16003KT 9999 FEW030 SCT050 BKN180 02/M01 Q1019 RMK     1CU030 3SC050 7AC180 A3009=,
20180121_180000.002,0,RJOH,,,,0,20180121180000,-1,-1,-1,-1,160,-1,3,-1,-1,-1,-1,,9999,0,0,3,FEW 30   SCT 50   BKN 180,1,2,-1,1,1019,RJOH 211800Z 16003KT 9999 FEW030 SCT050 BKN180 02/M01 Q1019     RMK 1CU030 3SC050 7AC180 A3009=,
20180121_190000.000,0,RJOH,,,,0,20180121190000,-1,-1,-1,-1,200,-1,4,-1,-1,-1,-1,,9999,0,0,3,FEW 50   BKN 120   BKN 150,1,2,-1,1,1019,RJOH 211900Z 20004KT 9999 FEW050 BKN120 BKN150 02/M01 Q1019 RMK     1SC050 5AC120 7AC150 A3009=,
20180121_190000.002,0,RJOH,,,,0,20180121190000,-1,-1,-1,-1,200,-1,4,-1,-1,-1,-1,,9999,0,0,3,FEW 50   BKN 120   BKN 150,1,2,-1,1,1019,RJOH 211900Z 20004KT 9999 FEW050 BKN120 BKN150 02/M01 Q1019     RMK 1SC050 5AC120 7AC150 A3009=,
20180121_200000.000,0,RJOH,,,,0,20180121200000,-1,-1,-1,-1,200,-1,4,-1,-1,-1,-1,,9999,0,0,3,FEW 50   SCT 80   BKN 120,1,3,1,0,1018,RJOH 212000Z 20004KT 9999 FEW050 SCT080 BKN120 03/00 Q1018 RMK     1SC050 4AC080 7AC120 A3008=,
20180121_200000.002,0,RJOH,,,,0,20180121200000,-1,-1,-1,-1,200,-1,4,-1,-1,-1,-1,,9999,0,0,3,FEW 50   SCT 80   BKN 120,1,3,1,0,1018,RJOH 212000Z 20004KT 9999 FEW050 SCT080 BKN120 03/00 Q1018 RMK     1SC050 4AC080 7AC120 A3008=,
20180121_210000.000,0,RJOH,,,,0,20180121210000,-1,-1,-1,-1,360,-1,4,-1,-1,330,60,,9999,0,0,3,FEW 50   BKN 80   BKN 120,1,3,1,0,1017,RJOH 212100Z 36004KT 330V060 9999 FEW050 BKN080 BKN120 03/00     Q1017 RMK 1SC050 6AC080 7AC120 A3004 11/02 R000=,
20180121_210000.002,0,RJOH,,,,0,20180121210000,-1,-1,-1,-1,360,-1,4,-1,-1,330,60,,9999,0,0,3,FEW 50   BKN 80   BKN 120,1,3,1,0,1017,RJOH 212100Z 36004KT 330V060 9999 FEW050 BKN080 BKN120 03/00     Q1017 RMK 1SC050 6AC080 7AC120 A3004 11/02 R000=,
20180121_220000.000,0,RJOH,,,,0,20180121220000,-1,-1,-1,-1,999,-1,2,-1,-1,-1,-1,,9999,0,0,3,FEW 5   BKN 80   BKN 120,1,3,1,0,1016,RJOH 212200Z VRB02KT 9999 FEW005 BKN080 BKN120 03/00 Q1016 RMK     1ST005 6AC080 7AC120 A3003=,
20180121_220000.002,0,RJOH,,,,0,20180121220000,-1,-1,-1,-1,999,-1,2,-1,-1,-1,-1,,9999,0,0,3,FEW 5   BKN 80   BKN 120,1,3,1,0,1016,RJOH 212200Z VRB02KT 9999 FEW005 BKN080 BKN120 03/00 Q1016 RMK     1ST005 6AC080 7AC120 A3003=,
20180121_230000.000,0,RJOH,,,,0,20180121230000,-1,-1,-1,-1,190,-1,4,-1,-1,-1,-1,,9999,0,0,3,FEW 5   BKN 80   OVC 120,1,3,-1,0,1017,RJOH 212300Z 19004KT 9999 FEW005 BKN080 OVC120 03/M00 Q1017 RMK     1ST005 7AC080 8AS120 A3004 1ST005 SW=,
20180121_230000.002,0,RJOH,,,,0,20180121230000,-1,-1,-1,-1,190,-1,4,-1,-1,-1,-1,,9999,0,0,3,FEW 5   BKN 80   OVC 120,1,3,-1,0,1017,RJOH 212300Z 19004KT 9999 FEW005 BKN080 OVC120 03/M00 Q1017     RMK 1ST005 7AC080 8AS120 A3004 1ST005 SW=,
20180122_000000.000,0,RJOH,,,,0,20180122000000,-1,-1,-1,-1,240,-1,3,-1,-1,-1,-1,,9999,0,0,3,FEW 20   SCT 30   BKN 50,1,4,-1,0,1017,RJOH 220000Z 24003KT 9999 FEW020 SCT030 BKN050 04/M00 Q1017 RMK     1SC020 4SC030 6SC050 A3004=,
20180122_000000.002,0,RJOH,,,,0,20180122000000,-1,-1,-1,-1,240,-1,3,-1,-1,-1,-1,,9999,0,0,3,FEW 20   SCT 30   BKN 50,1,4,-1,0,1017,RJOH 220000Z 24003KT 9999 FEW020 SCT030 BKN050 04/M00 Q1017     RMK 1SC020 4SC030 6SC050 A3004=,
20180122_010000.000,0,RJOH,,,,0,20180122010000,-1,-1,-1,-1,180,-1,6,-1,-1,-1,-1,,9999,0,1,3,FEW 20   BKN 30   OVC 50,1,4,1,0,1017,RJOH 220100Z 18006KT 9999 -RA FEW020 BKN030 OVC050 04/00 Q1017     RMK 2SC020 7SC030 8SC050 A3003 MAX WIND 15KT=,- RA
20180122_010000.002,0,RJOH,,,,0,20180122010000,-1,-1,-1,-1,180,-1,6,-1,-1,-1,-1,,9999,0,1,3,FEW 20   BKN 30   OVC 50,1,4,1,0,1017,RJOH 220100Z 18006KT 9999 -RA FEW020 BKN030 OVC050 04/00 Q1017     RMK 2SC020 7SC030 8SC050 A3003 MAX WIND 15KT=,- RA
20180122_020000.000,0,RJOH,,,,0,20180122020000,-1,-1,-1,-1,190,-1,8,-1,-1,-1,-1,,9999,0,1,3,FEW 15   BKN 20   OVC 30,1,4,1,0,1016,RJOH 220200Z 19008KT 9999 -RA FEW015 BKN020 OVC030 04/00 Q1016     RMK 1SC015 6SC020 8SC030 A3001=,- RA
20180122_020000.002,0,RJOH,,,,0,20180122020000,-1,-1,-1,-1,190,-1,8,-1,-1,-1,-1,,9999,0,1,3,FEW 15   BKN 20   OVC 30,1,4,1,0,1016,RJOH 220200Z 19008KT 9999 -RA FEW015 BKN020 OVC030 04/00 Q1016     RMK 1SC015 6SC020 8SC030 A3001=,- RA
20180122_030000.000,0,RJOH,,,,0,20180122030000,-1,-1,-1,-1,210,-1,7,-1,-1,-1,-1,,8000,0,1,3,FEW 7   SCT 9   OVC 15,1,3,1,0,1014,RJOH 220300Z 21007KT 8000 -RA FEW007 SCT009 OVC015 03/00 Q1014     RMK 1ST007 4ST009 8SC015 A2996 VIS N 6KM 1ST007 AND 4ST009           AAL=,- RA
20180122_030000.002,0,RJOH,,,,0,20180122030000,-1,-1,-1,-1,210,-1,7,-1,-1,-1,-1,,8000,0,1,3,FEW 7   SCT 9   OVC 15,1,3,1,0,1014,RJOH 220300Z 21007KT 8000 -RA FEW007 SCT009 OVC015 03/00 Q1014     RMK 1ST007 4ST009 8SC015 A2996 VIS N 6KM 1ST007 AND           4ST009 AAL=,- RA
20180122_040000.000,0,RJOH,,,,0,20180122040000,-1,-1,-1,-1,220,-1,5,-1,-1,-1,-1,,9999,0,1,3,FEW 6   BKN 8   OVC 15,1,3,1,0,1013,RJOH 220400Z 22005KT 9999 -RA FEW006 BKN008 OVC015 03/00 Q1013     RMK 1ST006 5ST008 8SC015 A2992 VIS N 6KM 1ST006 AAL=,- RA
20180122_040000.002,0,RJOH,,,,0,20180122040000,-1,-1,-1,-1,220,-1,5,-1,-1,-1,-1,,9999,0,1,3,FEW 6   BKN 8   OVC 15,1,3,1,0,1013,RJOH 220400Z 22005KT 9999 -RA FEW006 BKN008 OVC015 03/00 Q1013     RMK 1ST006 5ST008 8SC015 A2992 VIS N 6KM 1ST006 AAL=,- RA
20180122_050000.000,0,RJOH,,,,0,20180122050000,-1,-1,-1,-1,270,-1,4,-1,-1,-1,-1,,7000,0,1,3,FEW 4   SCT 5   BKN 7,1,3,1,0,1012,RJOH 220500Z 27004KT 7000 -RA FEW004 SCT005 BKN007 03/00 Q1012     RMK 1ST004 3ST005 7ST007 A2990 VIS N 5KM 1ST004 AND 3ST005           AAL=,- RA
20180122_050000.002,0,RJOH,,,,0,20180122050000,-1,-1,-1,-1,270,-1,4,-1,-1,-1,-1,,7000,0,1,3,FEW 4   SCT 5   BKN 7,1,3,1,0,1012,RJOH 220500Z 27004KT 7000 -RA FEW004 SCT005 BKN007 03/00 Q1012     RMK 1ST004 3ST005 7ST007 A2990 VIS N 5KM 1ST004 AND           3ST005 AAL=,- RA
20180122_060000.000,0,RJOH,,,,0,20180122060000,-1,-1,-1,-1,250,-1,6,-1,-1,210,270,,7000,0,1,3,FEW 4   BKN 6   BKN 15,1,3,1,0,1012,RJOH 220600Z 25006KT 210V270 7000 -RA FEW004 BKN006 BKN015     03/00 Q1012 RMK 1ST004 6ST006 7SC015 A2991 VIS N 5KM           1ST004 S=,- RA
20180122_060000.003,0,RJOH,,,,0,20180122060000,-1,-1,-1,-1,250,-1,6,-1,-1,210,270,,7000,0,1,3,FEW 4   BKN 6   BKN 15,1,3,1,0,1012,RJOH 220600Z 25006KT 210V270 7000 -RA FEW004 BKN006 BKN015     03/00 Q1012 RMK 1ST004 6ST006 7SC015 A2991 VIS N 5KM           1ST004 S=,- RA
20180122_060000.003,2,RJOH,,,,0,20180122060000,-1,-1,-1,-1,250,-1,6,-1,-1,210,270,,7000,0,1,3,FEW 4   BKN 6   BKN 15,1,3,1,0,1012,RJOH 220600Z 25006KT 210V270 7000 -RA FEW004 BKN006 BKN015     03/00 Q1012 RMK 1ST004 6ST006 7SC015 A2991 VIS N 5KM           1ST004 S=,- RA
20180122_070000.000,0,RJOH,,,,0,20180122070000,-1,-1,-1,-1,220,-1,6,-1,-1,-1,-1,,9999,0,0,3,FEW 4   BKN 5   BKN 100,1,3,1,1,1012,RJOH 220700Z 22006KT 9999 FEW004 BKN005 BKN100 03/01 Q1012 RMK     1ST004 5ST005 7AC100 A2990 1ST004 AAL=,
20180122_070000.002,0,RJOH,,,,0,20180122070000,-1,-1,-1,-1,220,-1,6,-1,-1,-1,-1,,9999,0,0,3,FEW 4   BKN 5   BKN 100,1,3,1,1,1012,RJOH 220700Z 22006KT 9999 FEW004 BKN005 BKN100 03/01 Q1012 RMK     1ST004 5ST005 7AC100 A2990 1ST004 AAL=,
20180122_080000.000,0,RJOH,,,,0,20180122080000,-1,-1,-1,-1,230,-1,6,-1,-1,-1,-1,,9999,0,0,3,FEW 4   SCT 5   BKN 45,1,3,1,1,1012,RJOH 220800Z 23006KT 9999 FEW004 SCT005 BKN045 03/01 Q1012 RMK     1ST004 4ST005 5SC045 A2990 1ST004 AND 4ST005 AAL=,
20180122_080000.003,0,RJOH,,,,0,20180122080000,-1,-1,-1,-1,230,-1,6,-1,-1,-1,-1,,9999,0,0,3,FEW 4   SCT 5   BKN 45,1,3,1,1,1012,RJOH 220800Z 23006KT 9999 FEW004 SCT005 BKN045 03/01 Q1012 RMK     1ST004 4ST005 5SC045 A2990 1ST004 AND 4ST005 AAL=,
20180122_090000.000,0,RJOH,,,,0,20180122090000,-1,-1,-1,-1,260,-1,5,-1,-1,-1,-1,,9999,0,0,2,FEW 4   SCT 5,1,3,1,1,1012,RJOH 220900Z 26005KT 9999 FEW004 SCT005 03/01 Q1012 RMK 1ST004     3ST005 A2990 1ST004 AND 3ST005 AAL=,
20180122_090000.002,0,RJOH,,,,0,20180122090000,-1,-1,-1,-1,260,-1,5,-1,-1,-1,-1,,9999,0,0,2,FEW 4   SCT 5,1,3,1,1,1012,RJOH 220900Z 26005KT 9999 FEW004 SCT005 03/01 Q1012 RMK 1ST004     3ST005 A2990 1ST004 AND 3ST005 AAL=,
20180122_100000.000,0,RJOH,,,,0,20180122100000,-1,-1,-1,-1,200,-1,4,-1,-1,-1,-1,,9999,0,0,2,FEW 5   SCT 60,1,2,-1,0,1012,RJOH 221000Z 20004KT 9999 FEW005 SCT060 02/M00 Q1012 RMK 1ST005     3SC060 A2990 1ST005 AAL=,
20180122_100000.002,0,RJOH,,,,0,20180122100000,-1,-1,-1,-1,200,-1,4,-1,-1,-1,-1,,9999,0,0,2,FEW 5   SCT 60,1,2,-1,0,1012,RJOH 221000Z 20004KT 9999 FEW005 SCT060 02/M00 Q1012 RMK     1ST005 3SC060 A2990 1ST005 AAL=,
20180122_110000.000,0,RJOH,,,,0,20180122110000,-1,-1,-1,-1,240,-1,5,-1,-1,-1,-1,,9999,0,0,2,FEW 30   BKN 50,1,3,1,1,1012,RJOH 221100Z 24005KT 9999 FEW030 BKN050 03/01 Q1012 RMK 1CU030     5SC050 A2989=,
20180122_110000.003,0,RJOH,,,,0,20180122110000,-1,-1,-1,-1,240,-1,5,-1,-1,-1,-1,,9999,0,0,2,FEW 30   BKN 50,1,3,1,1,1012,RJOH 221100Z 24005KT 9999 FEW030 BKN050 03/01 Q1012 RMK 1CU030     5SC050 A2989=,
20180122_120000.000,0,RJOH,,,,0,20180122120000,-1,-1,-1,-1,220,-1,6,-1,-1,-1,-1,,9999,0,1,3,FEW 25   SCT 30   BKN 50,1,3,1,1,1012,RJOH 221200Z 22006KT 9999 -SHRA FEW025 SCT030 BKN050 03/01     Q1012 RMK 1CU025 3CU030 7SC050 A2988=,- RA SH
20180122_120000.002,0,RJOH,,,,0,20180122120000,-1,-1,-1,-1,220,-1,6,-1,-1,-1,-1,,9999,0,1,3,FEW 25   SCT 30   BKN 50,1,3,1,1,1012,RJOH 221200Z 22006KT 9999 -SHRA FEW025 SCT030 BKN050 03/01     Q1012 RMK 1CU025 3CU030 7SC050 A2988=,- RA SH
20180122_130000.000,0,RJOH,,,,0,20180122130000,-1,-1,-1,-1,190,-1,5,-1,-1,-1,-1,,9999,0,0,2,FEW 30   SCT 50,1,2,-1,1,1011,RJOH 221300Z 19005KT 9999 FEW030 SCT050 02/M01 Q1011 RMK 2CU030     3SC050 A2986=,
20180122_130000.003,0,RJOH,,,,0,20180122130000,-1,-1,-1,-1,190,-1,5,-1,-1,-1,-1,,9999,0,0,2,FEW 30   SCT 50,1,2,-1,1,1011,RJOH 221300Z 19005KT 9999 FEW030 SCT050 02/M01 Q1011 RMK     2CU030 3SC050 A2986=,
20180122_140000.000,0,RJOH,,,,0,20180122140000,-1,-1,-1,-1,190,-1,5,-1,-1,-1,-1,,9999,0,0,3,FEW 20   SCT 30   BKN 50,1,2,-1,1,1010,RJOH 221400Z 19005KT 9999 FEW020 SCT030 BKN050 02/M01 Q1010 RMK     1CU020 3CU030 6SC050 A2985=,
20180122_140000.003,0,RJOH,,,,0,20180122140000,-1,-1,-1,-1,190,-1,5,-1,-1,-1,-1,,9999,0,0,3,FEW 20   SCT 30   BKN 50,1,2,-1,1,1010,RJOH 221400Z 19005KT 9999 FEW020 SCT030 BKN050 02/M01 Q1010     RMK 1CU020 3CU030 6SC050 A2985=,
20180122_150000.000,0,RJOH,,,,0,20180122150000,-1,-1,-1,-1,190,-1,6,-1,-1,-1,-1,,9999,0,1,3,FEW 20   BKN 30   BKN 50,1,2,1,0,1010,RJOH 221500Z 19006KT 9999 -SHRA FEW020 BKN030 BKN050 02/00     Q1010 RMK 1CU020 5CU030 7SC050 A2983=,- RA SH
20180122_150000.002,0,RJOH,,,,0,20180122150000,-1,-1,-1,-1,190,-1,6,-1,-1,-1,-1,,9999,0,1,3,FEW 20   BKN 30   BKN 50,1,2,1,0,1010,RJOH 221500Z 19006KT 9999 -SHRA FEW020 BKN030 BKN050 02/00     Q1010 RMK 1CU020 5CU030 7SC050 A2983=,- RA SH
20180122_160000.000,0,RJOH,,,,0,20180122160000,-1,-1,-1,-1,230,-1,19,-1,-1,-1,-1,,7000,0,1,4,FEW 15   BKN 25   SCT 25 TCU  BKN 50,1,5,1,2,1010,RJOH 221600Z 23019KT 7000 -SHRA FEW015 BKN025 SCT025TCU BKN050     05/02 Q1010 RMK 2CU015 7CU025 3TCU025 7SC050 A2983 TCU 5KM           NE-SE AND NW MOV E=,- RA SH
20180122_160000.002,0,RJOH,,,,0,20180122160000,-1,-1,-1,-1,230,-1,19,-1,-1,-1,-1,,7000,0,1,4,FEW 15   BKN 25   SCT 25 TCU  BKN 50,1,5,1,2,1010,RJOH 221600Z 23019KT 7000 -SHRA FEW015 BKN025 SCT025TCU BKN050     05/02 Q1010 RMK 2CU015 7CU025 3TCU025 7SC050 A2983 TCU           5KM NE-SE AND NW MOV E=,- RA SH
20180122_170000.000,0,RJOH,,,,0,20180122170000,-1,-1,-1,-1,200,-1,9,-1,-1,-1,-1,,9999,0,1,4,FEW 15   BKN 25   FEW 25 CB  BKN 50,1,5,1,2,1009,RJOH 221700Z 20009KT 9999 -TSRA FEW015 BKN025 FEW025CB BKN050     05/02 Q1009 RMK 2CU015 6CU025 2CB025 7SC050 A2980 FBL TS           15KM NW-NE MOV E=,- TS   RA
20180122_170000.002,0,RJOH,,,,0,20180122170000,-1,-1,-1,-1,200,-1,9,-1,-1,-1,-1,,9999,0,1,4,FEW 15   BKN 25   FEW 25 CB  BKN 50,1,5,1,2,1009,RJOH 221700Z 20009KT 9999 -TSRA FEW015 BKN025 FEW025CB BKN050     05/02 Q1009 RMK 2CU015 6CU025 2CB025 7SC050 A2980 FBL TS           15KM NW-NE MOV E=,- TS   RA
20180122_180000.000,0,RJOH,,,,0,20180122180000,-1,-1,-1,-1,210,-1,9,-1,-1,-1,-1,,7000,0,1,4,FEW 15   BKN 25   SCT 25 CB  BKN 50,1,5,1,2,1008,RJOH 221800Z 21009KT 7000 -TSRA FEW015 BKN025 SCT025CB BKN050     05/02 Q1008 RMK 2CU015 7CU025 3CB025 7SC050 A2979 FBL TS           10KM NW-NE MOV E=,- TS   RA
20180122_180000.002,0,RJOH,,,,0,20180122180000,-1,-1,-1,-1,210,-1,9,-1,-1,-1,-1,,7000,0,1,4,FEW 15   BKN 25   SCT 25 CB  BKN 50,1,5,1,2,1008,RJOH 221800Z 21009KT 7000 -TSRA FEW015 BKN025 SCT025CB BKN050     05/02 Q1008 RMK 2CU015 7CU025 3CB025 7SC050 A2979 FBL TS           10KM NW-NE MOV E=,- TS   RA
20180122_190000.000,0,RJOH,,,,0,20180122190000,-1,-1,-1,-1,210,-1,10,-1,-1,-1,-1,,9999,0,1,3,FEW 15   BKN 25   BKN 50,1,5,1,2,1008,RJOH 221900Z 21010KT 9999 -SHRA FEW015 BKN025 BKN050 05/02     Q1008 RETS RMK 2CU015 6CU025 7SC050 A2978=,- RA SH
20180122_190000.002,0,RJOH,,,,0,20180122190000,-1,-1,-1,-1,210,-1,10,-1,-1,-1,-1,,9999,0,1,3,FEW 15   BKN 25   BKN 50,1,5,1,2,1008,RJOH 221900Z 21010KT 9999 -SHRA FEW015 BKN025 BKN050 05/02     Q1008 RETS RMK 2CU015 6CU025 7SC050 A2978=,- RA SH
20180122_200000.000,0,RJOH,,,,0,20180122200000,-1,-1,-1,-1,230,-1,10,-1,-1,-1,-1,,9999,0,1,3,FEW 15   BKN 25   BKN 50,1,5,1,2,1008,RJOH 222000Z 23010KT 9999 -SHRA FEW015 BKN025 BKN050 05/02     Q1008 RMK 1CU015 6CU025 7SC050 A2978=,- RA SH
20180122_200000.002,0,RJOH,,,,0,20180122200000,-1,-1,-1,-1,230,-1,10,-1,-1,-1,-1,,9999,0,1,3,FEW 15   BKN 25   BKN 50,1,5,1,2,1008,RJOH 222000Z 23010KT 9999 -SHRA FEW015 BKN025 BKN050 05/02     Q1008 RMK 1CU015 6CU025 7SC050 A2978=,- RA SH
20180122_210000.000,0,RJOH,,,,0,20180122210000,-1,-1,-1,-1,270,-1,21,-1,-1,-1,-1,,9999,0,1,3,FEW 20   BKN 30   BKN 50,1,6,1,1,1009,RJOH 222100Z 27021KT 9999 -SHRA FEW020 BKN030 BKN050 06/01     Q1009 RMK 1CU020 5CU030 7SC050 A2981 MAX WIND 30KT RWY07           28020G38KT 27044KT/0530 07/02 R009=,- RA SH
20180122_210000.001,2,RJOH,,,,0,20180122210000,-1,-1,-1,-1,270,-1,21,-1,-1,-1,-1,,9999,0,1,3,FEW 20   BKN 30   BKN 50,1,6,1,1,1009,RJOH 222100Z 27021KT 9999 -SHRA FEW020 BKN030 BKN050 06/01     Q1009 RMK 1CU020 5CU030 7SC050 A2981 MAX WIND 30KT RWY07           28020G38KT 27044KT/2030 07/02 R009=,- RA SH
20180122_210000.003,0,RJOH,,,,0,20180122210000,-1,-1,-1,-1,270,-1,21,-1,-1,-1,-1,,9999,0,1,3,FEW 20   BKN 30   BKN 50,1,6,1,1,1009,RJOH 222100Z 27021KT 9999 -SHRA FEW020 BKN030 BKN050 06/01     Q1009 RMK 1CU020 5CU030 7SC050 A2981 MAX WIND 30KT RWY07           28020G38KT 27044KT/2030 07/02 R009=,- RA SH
20180122_220000.000,0,RJOH,,,,0,20180122220000,-1,-1,-1,-1,260,-1,21,-1,31,-1,-1,,9999,0,0,2,FEW 30   SCT 45,1,6,-1,2,1009,RJOH 222200Z 26021G31KT 9999 FEW030 SCT045 06/M02 Q1009 RMK     1CU030 3SC045 A2982=,
20180122_220000.002,0,RJOH,,,,0,20180122220000,-1,-1,-1,-1,260,-1,21,-1,31,-1,-1,,9999,0,0,2,FEW 30   SCT 45,1,6,-1,2,1009,RJOH 222200Z 26021G31KT 9999 FEW030 SCT045 06/M02 Q1009 RMK     1CU030 3SC045 A2982=,
20180122_230000.000,0,RJOH,,,,0,20180122230000,-1,-1,-1,-1,270,-1,25,-1,-1,-1,-1,,9999,0,0,2,FEW 30   SCT 50,1,6,-1,5,1011,RJOH 222300Z 27025KT 9999 FEW030 SCT050 06/M05 Q1011 RMK 1CU030     3SC050 A2986 MAX WIND 34KT=,
20180122_230000.003,0,RJOH,,,,0,20180122230000,-1,-1,-1,-1,270,-1,25,-1,-1,-1,-1,,9999,0,0,2,FEW 30   SCT 50,1,6,-1,5,1011,RJOH 222300Z 27025KT 9999 FEW030 SCT050 06/M05 Q1011 RMK     1CU030 3SC050 A2986 MAX WIND 34KT=,
20180123_000000.000,0,RJOH,,,,0,20180123000000,-1,-1,-1,-1,270,-1,22,-1,32,-1,-1,,9999,0,0,3,FEW 20   SCT 30   BKN 50,1,6,-1,6,1011,RJOH 230000Z 27022G32KT 9999 FEW020 SCT030 BKN050 06/M06 Q1011     RMK 1CU020 3CU030 6SC050 A2988=,
20180123_000000.002,0,RJOH,,,,0,20180123000000,-1,-1,-1,-1,270,-1,22,-1,32,-1,-1,,9999,0,0,3,FEW 20   SCT 30   BKN 50,1,6,-1,6,1011,RJOH 230000Z 27022G32KT 9999 FEW020 SCT030 BKN050 06/M06 Q1011     RMK 1CU020 3CU030 6SC050 A2988=,
20180123_010000.000,0,RJOH,,,,0,20180123010000,-1,-1,-1,-1,270,-1,24,-1,36,-1,-1,,9999,0,0,3,FEW 25   BKN 35   BKN 50,1,7,-1,5,1012,RJOH 230100Z 27024G36KT 9999 FEW025 BKN035 BKN050 07/M05 Q1012     RMK 1CU025 5CU035 7SC050 A2991=,
20180123_010000.002,0,RJOH,,,,0,20180123010000,-1,-1,-1,-1,270,-1,24,-1,36,-1,-1,,9999,0,0,3,FEW 25   BKN 35   BKN 50,1,7,-1,5,1012,RJOH 230100Z 27024G36KT 9999 FEW025 BKN035 BKN050 07/M05 Q1012     RMK 1CU025 5CU035 7SC050 A2991=,
20180123_020000.000,0,RJOH,,,,0,20180123020000,-1,-1,-1,-1,270,-1,29,-1,39,-1,-1,,9999,0,0,3,FEW 25   BKN 35   BKN 50,1,5,-1,6,1013,RJOH 230200Z 27029G39KT 9999 FEW025 BKN035 BKN050 05/M06 Q1013     RMK 1CU025 5CU035 6SC050 A2993=,
20180123_020000.002,0,RJOH,,,,0,20180123020000,-1,-1,-1,-1,270,-1,29,-1,39,-1,-1,,9999,0,0,3,FEW 25   BKN 35   BKN 50,1,5,-1,6,1013,RJOH 230200Z 27029G39KT 9999 FEW025 BKN035 BKN050 05/M06 Q1013     RMK 1CU025 5CU035 6SC050 A2993=,
20180123_030000.000,0,RJOH,,,,0,20180123030000,-1,-1,-1,-1,280,-1,27,-1,44,-1,-1,,9999,0,0,3,FEW 25   BKN 30   BKN 120,1,5,-1,8,1013,RJOH 230300Z 28027G44KT 9999 FEW025 BKN030 BKN120 05/M08 Q1013     RMK 1CU025 5CU030 6AC120 A2994=,
20180123_030000.003,0,RJOH,,,,0,20180123030000,-1,-1,-1,-1,280,-1,27,-1,44,-1,-1,,9999,0,0,3,FEW 25   BKN 30   BKN 120,1,5,-1,8,1013,RJOH 230300Z 28027G44KT 9999 FEW025 BKN030 BKN120 05/M08 Q1013     RMK 1CU025 5CU030 6AC120 A2994=,
20180123_040000.000,0,RJOH,,,,0,20180123040000,-1,-1,-1,-1,270,-1,25,-1,40,-1,-1,,9999,0,0,3,FEW 25   SCT 30   BKN 120,1,4,-1,11,1014,RJOH 230400Z 27025G40KT 9999 FEW025 SCT030 BKN120 04/M11 Q1014     RMK 1CU025 4CU030 7AC120 A2996=,
20180123_040000.003,0,RJOH,,,,0,20180123040000,-1,-1,-1,-1,270,-1,25,-1,40,-1,-1,,9999,0,0,3,FEW 25   SCT 30   BKN 120,1,4,-1,11,1014,RJOH 230400Z 27025G40KT 9999 FEW025 SCT030 BKN120 04/M11 Q1014     RMK 1CU025 4CU030 7AC120 A2996=,
20180123_050000.000,0,RJOH,,,,0,20180123050000,-1,-1,-1,-1,270,-1,25,-1,41,-1,-1,,9999,0,1,3,FEW 15   SCT 30   BKN 50,1,3,-1,11,1014,RJOH 230500Z 27025G41KT 9999 -SHSNRA FEW015 SCT030 BKN050     03/M11 Q1014 RMK 1CU015 4CU030 6SC050 A2997=,- SN RA SH
20180123_050000.002,0,RJOH,,,,0,20180123050000,-1,-1,-1,-1,270,-1,25,-1,41,-1,-1,,9999,0,1,3,FEW 15   SCT 30   BKN 50,1,3,-1,11,1014,RJOH 230500Z 27025G41KT 9999 -SHSNRA FEW015 SCT030 BKN050     03/M11 Q1014 RMK 1CU015 4CU030 6SC050 A2997=,- SN RA SH
20180123_060000.000,0,RJOH,,,,0,20180123060000,-1,-1,-1,-1,270,-1,26,-1,37,-1,-1,,9999,0,1,3,FEW 8   SCT 15   BKN 30,1,2,-1,10,1015,RJOH 230600Z 27026G37KT 9999 -SHSN FEW008 SCT015 BKN030 02/M10     Q1015 RMK 1CU008 4CU015 6CU030 A2999 1CU008 AAL=,- SN SH
20180123_060000.003,0,RJOH,,,,0,20180123060000,-1,-1,-1,-1,270,-1,26,-1,37,-1,-1,,9999,0,1,3,FEW 8   SCT 15   BKN 30,1,2,-1,10,1015,RJOH 230600Z 27026G37KT 9999 -SHSN FEW008 SCT015 BKN030 02/M10     Q1015 RMK 1CU008 4CU015 6CU030 A2999 1CU008 AAL=,- SN SH
20180123_070000.000,0,RJOH,,,,0,20180123070000,-1,-1,-1,-1,270,-1,19,-1,-1,-1,-1,,9999,0,1,3,FEW 8   SCT 15   BKN 30,1,2,-1,11,1015,RJOH 230700Z 27019KT 9999 -SHSN FEW008 SCT015 BKN030 02/M11     Q1015 RMK 1CU008 4CU015 6CU030 A3000 MAX WIND 28KT 1CU008           AAL=,- SN SH
20180123_070000.002,0,RJOH,,,,0,20180123070000,-1,-1,-1,-1,270,-1,19,-1,-1,-1,-1,,9999,0,1,3,FEW 8   SCT 15   BKN 30,1,2,-1,11,1015,RJOH 230700Z 27019KT 9999 -SHSN FEW008 SCT015 BKN030 02/M11     Q1015 RMK 1CU008 4CU015 6CU030 A3000 MAX WIND 28KT 1CU008           AAL=,- SN SH
20180123_080000.000,0,RJOH,,,,0,20180123080000,-1,-1,-1,-1,260,-1,18,-1,29,-1,-1,,9999,0,1,3,FEW 8   SCT 15   BKN 30,1,1,-1,11,1015,RJOH 230800Z 26018G29KT 9999 -SHSN FEW008 SCT015 BKN030 01/M11     Q1015 RMK 1CU008 3CU015 7CU030 A3000=,- SN SH
20180123_080000.002,0,RJOH,,,,0,20180123080000,-1,-1,-1,-1,260,-1,18,-1,29,-1,-1,,9999,0,1,3,FEW 8   SCT 15   BKN 30,1,1,-1,11,1015,RJOH 230800Z 26018G29KT 9999 -SHSN FEW008 SCT015 BKN030 01/M11     Q1015 RMK 1CU008 3CU015 7CU030 A3000=,- SN SH
20180123_090000.000,0,RJOH,,,,0,20180123090000,-1,-1,-1,-1,260,-1,19,-1,-1,-1,-1,,9999,0,1,3,FEW 8   SCT 15   BKN 30,1,1,-1,9,1016,RJOH 230900Z 26019KT 9999 -SHSN FEW008 SCT015 BKN030 01/M09     Q1016 RMK 1CU008 4CU015 7CU030 A3001=,- SN SH
20180123_090000.002,0,RJOH,,,,0,20180123090000,-1,-1,-1,-1,260,-1,19,-1,-1,-1,-1,,9999,0,1,3,FEW 8   SCT 15   BKN 30,1,1,-1,9,1016,RJOH 230900Z 26019KT 9999 -SHSN FEW008 SCT015 BKN030 01/M09     Q1016 RMK 1CU008 4CU015 7CU030 A3001=,- SN SH
20180123_100000.000,0,RJOH,,,,0,20180123100000,-1,-1,-1,-1,260,-1,18,-1,-1,-1,-1,,9999,0,1,3,FEW 10   SCT 15   BKN 30,1,1,-1,11,1016,RJOH 231000Z 26018KT 9999 -SHSN FEW010 SCT015 BKN030 01/M11     Q1016 RMK 1CU010 3CU015 6CU030 A3001=,- SN SH
20180123_100000.002,0,RJOH,,,,0,20180123100000,-1,-1,-1,-1,260,-1,18,-1,-1,-1,-1,,9999,0,1,3,FEW 10   SCT 15   BKN 30,1,1,-1,11,1016,RJOH 231000Z 26018KT 9999 -SHSN FEW010 SCT015 BKN030 01/M11     Q1016 RMK 1CU010 3CU015 6CU030 A3001=,- SN SH
20180123_110000.000,0,RJOH,,,,0,20180123110000,-1,-1,-1,-1,260,-1,19,-1,39,-1,-1,,9999,0,1,3,FEW 10   SCT 15   BKN 30,1,1,-1,12,1016,RJOH 231100Z 26019G39KT 9999 -SHSN FEW010 SCT015 BKN030 01/M12     Q1016 RMK 1CU010 3CU015 6CU030 A3001=,- SN SH
20180123_110000.002,0,RJOH,,,,0,20180123110000,-1,-1,-1,-1,260,-1,19,-1,39,-1,-1,,9999,0,1,3,FEW 10   SCT 15   BKN 30,1,1,-1,12,1016,RJOH 231100Z 26019G39KT 9999 -SHSN FEW010 SCT015 BKN030 01/M12     Q1016 RMK 1CU010 3CU015 6CU030 A3001=,- SN SH
20180123_120000.000,0,RJOH,,,,0,20180123120000,-1,-1,-1,-1,280,-1,22,-1,-1,-1,-1,,9999,0,1,3,FEW 10   SCT 15   BKN 30,-1,0,-1,7,1016,RJOH 231200Z 28022KT 9999 -SHSN FEW010 SCT015 BKN030 M00/M07     Q1016 RMK 1CU010 4CU015 7CU030 A3003=,- SN SH
20180123_120000.002,0,RJOH,,,,0,20180123120000,-1,-1,-1,-1,280,-1,22,-1,-1,-1,-1,,9999,0,1,3,FEW 10   SCT 15   BKN 30,-1,0,-1,7,1016,RJOH 231200Z 28022KT 9999 -SHSN FEW010 SCT015 BKN030 M00/M07     Q1016 RMK 1CU010 4CU015 7CU030 A3003=,- SN SH
20180123_130000.000,0,RJOH,,,,0,20180123130000,-1,-1,-1,-1,270,-1,15,-1,25,-1,-1,,9999,0,1,3,FEW 20   BKN 30   BKN 45,1,0,-1,8,1016,RJOH 231300Z 27015G25KT 9999 -SHSN FEW020 BKN030 BKN045 00/M08     Q1016 RMK 1CU020 6CU030 7CU045 A3003=,- SN SH
20180123_130000.002,0,RJOH,,,,0,20180123130000,-1,-1,-1,-1,270,-1,15,-1,25,-1,-1,,9999,0,1,3,FEW 20   BKN 30   BKN 45,1,0,-1,8,1016,RJOH 231300Z 27015G25KT 9999 -SHSN FEW020 BKN030 BKN045 00/M08     Q1016 RMK 1CU020 6CU030 7CU045 A3003=,- SN SH
20180123_140000.000,0,RJOH,,,,0,20180123140000,-1,-1,-1,-1,260,-1,17,-1,27,-1,-1,,9999,0,1,3,FEW 20   BKN 30   BKN 45,1,0,-1,9,1016,RJOH 231400Z 26017G27KT 9999 -SHSN FEW020 BKN030 BKN045 00/M09     Q1016 RMK 1CU020 6CU030 7CU045 A3002=,- SN SH
20180123_140000.002,0,RJOH,,,,0,20180123140000,-1,-1,-1,-1,260,-1,17,-1,27,-1,-1,,9999,0,1,3,FEW 20   BKN 30   BKN 45,1,0,-1,9,1016,RJOH 231400Z 26017G27KT 9999 -SHSN FEW020 BKN030 BKN045 00/M09     Q1016 RMK 1CU020 6CU030 7CU045 A3002=,- SN SH
20180123_150000.000,0,RJOH,,,,0,20180123150000,-1,-1,-1,-1,260,-1,21,-1,-1,-1,-1,,9999,0,1,3,FEW 20   BKN 30   BKN 45,1,0,-1,9,1016,RJOH 231500Z 26021KT 9999 -SHSN FEW020 BKN030 BKN045 00/M09     Q1016 RMK 1CU020 6CU030 7SC045 A3002=,- SN SH
20180123_150000.002,0,RJOH,,,,0,20180123150000,-1,-1,-1,-1,260,-1,21,-1,-1,-1,-1,,9999,0,1,3,FEW 20   BKN 30   BKN 45,1,0,-1,9,1016,RJOH 231500Z 26021KT 9999 -SHSN FEW020 BKN030 BKN045 00/M09     Q1016 RMK 1CU020 6CU030 7SC045 A3002=,- SN SH
20180123_160000.000,0,RJOH,,,,0,20180123160000,-1,-1,-1,-1,270,-1,19,-1,-1,-1,-1,,9999,0,1,3,FEW 20   BKN 30   BKN 45,1,0,-1,9,1016,RJOH 231600Z 27019KT 9999 -SHSN FEW020 BKN030 BKN045 00/M09     Q1016 RMK 1CU020 6CU030 7SC045 A3002=,- SN SH
20180123_160000.002,0,RJOH,,,,0,20180123160000,-1,-1,-1,-1,270,-1,19,-1,-1,-1,-1,,9999,0,1,3,FEW 20   BKN 30   BKN 45,1,0,-1,9,1016,RJOH 231600Z 27019KT 9999 -SHSN FEW020 BKN030 BKN045 00/M09     Q1016 RMK 1CU020 6CU030 7SC045 A3002=,- SN SH
20180123_170000.000,0,RJOH,,,,0,20180123170000,-1,-1,-1,-1,260,-1,19,-1,-1,-1,-1,,5000,0,1,3,FEW 10   BKN 20   OVC 30,-1,1,-1,7,1017,RJOH 231700Z 26019KT 5000 -SHSN FEW010 BKN020 OVC030 M01/M07     Q1017 RMK 1CU010 6CU020 8CU030 A3003=,- SN SH
20180123_170000.002,0,RJOH,,,,0,20180123170000,-1,-1,-1,-1,260,-1,19,-1,-1,-1,-1,,5000,0,1,3,FEW 10   BKN 20   OVC 30,-1,1,-1,7,1017,RJOH 231700Z 26019KT 5000 -SHSN FEW010 BKN020 OVC030 M01/M07     Q1017 RMK 1CU010 6CU020 8CU030 A3003=,- SN SH
20180123_180000.000,0,RJOH,,,,0,20180123180000,-1,-1,-1,-1,260,-1,21,-1,-1,-1,-1,,1500,1,1,3,FEW 8   SCT 10   OVC 20,-1,1,-1,7,1016,RJOH 231800Z 26021KT 1500 R25/P1800N -SHSN FEW008 SCT010 OVC020     M01/M07 Q1016 RMK 1CU008 3CU010 8CU020 A3003 VIS SW-W           3000M=,- SN SH
20180123_180000.002,0,RJOH,,,,0,20180123180000,-1,-1,-1,-1,260,-1,21,-1,-1,-1,-1,,1500,1,1,3,FEW 8   SCT 10   OVC 20,-1,1,-1,7,1016,RJOH 231800Z 26021KT 1500 R25/P1800N -SHSN FEW008 SCT010     OVC020 M01/M07 Q1016 RMK 1CU008 3CU010 8CU020 A3003 VIS           SW-W 3000M=,- SN SH
20180123_190000.000,0,RJOH,,,,0,20180123190000,-1,-1,-1,-1,260,-1,17,-1,-1,-1,-1,,5000,0,1,3,FEW 10   SCT 20   BKN 30,-1,1,-1,7,1016,RJOH 231900Z 26017KT 5000 -SHSN FEW010 SCT020 BKN030 M01/M07     Q1016 RMK 1CU010 4CU020 6CU030 A3003 VIS W 8KM=,- SN SH
20180123_190000.002,0,RJOH,,,,0,20180123190000,-1,-1,-1,-1,260,-1,17,-1,-1,-1,-1,,5000,0,1,3,FEW 10   SCT 20   BKN 30,-1,1,-1,7,1016,RJOH 231900Z 26017KT 5000 -SHSN FEW010 SCT020 BKN030 M01/M07     Q1016 RMK 1CU010 4CU020 6CU030 A3003 VIS W 8KM=,- SN SH
20180123_200000.000,0,RJOH,,,,0,20180123200000,-1,-1,-1,-1,270,-1,16,-1,-1,-1,-1,,8000,0,1,3,FEW 20   BKN 30   BKN 50,-1,1,-1,9,1017,RJOH 232000Z 27016KT 8000 -SHSN FEW020 BKN030 BKN050 M01/M09     Q1017 RMK 1CU020 5CU030 7SC050 A3003=,- SN SH
20180123_200000.002,0,RJOH,,,,0,20180123200000,-1,-1,-1,-1,270,-1,16,-1,-1,-1,-1,,8000,0,1,3,FEW 20   BKN 30   BKN 50,-1,1,-1,9,1017,RJOH 232000Z 27016KT 8000 -SHSN FEW020 BKN030 BKN050 M01/M09     Q1017 RMK 1CU020 5CU030 7SC050 A3003=,- SN SH
20180123_210000.000,0,RJOH,,,,0,20180123210000,-1,-1,-1,-1,260,-1,24,-1,-1,-1,-1,,1500,1,1,3,FEW 8   SCT 10   OVC 20,-1,2,-1,8,1017,RJOH 232100Z 26024KT 1500 R25/P1800N -SHSN FEW008 SCT010 OVC020     M02/M08 Q1017 RMK 1CU008 4CU010 8CU020 A3005 VIS W 800M           1CU008 AAL 28051KT/0220 07/M02 R000 S001 SD000=,- SN SH
20180123_210000.002,0,RJOH,,,,0,20180123210000,-1,-1,-1,-1,260,-1,24,-1,-1,-1,-1,,1500,1,1,3,FEW 8   SCT 10   OVC 20,-1,2,-1,8,1017,RJOH 232100Z 26024KT 1500 R25/P1800N -SHSN FEW008 SCT010     OVC020 M02/M08 Q1017 RMK 1CU008 4CU010 8CU020 A3005 VIS W           800M 1CU008 AAL 28051KT/0220 07/M02 R000 S001 SD000=,- SN SH
20180123_220000.000,0,RJOH,,,,0,20180123220000,-1,-1,-1,-1,260,-1,20,-1,-1,-1,-1,,9999,1,1,3,FEW 10   BKN 20   BKN 30,-1,2,-1,9,1017,RJOH 232200Z 26020KT 9999 R25/0700VP1800D -SHSN FEW010 BKN020     BKN030 M02/M09 Q1017 RMK 1CU010 5CU020 7CU030 A3005 R1700           VIS S-NW 500M=,- SN SH
20180123_220000.002,0,RJOH,,,,0,20180123220000,-1,-1,-1,-1,260,-1,20,-1,-1,-1,-1,,9999,1,1,3,FEW 10   BKN 20   BKN 30,-1,2,-1,9,1017,RJOH 232200Z 26020KT 9999 R25/0700VP1800D -SHSN FEW010 BKN020     BKN030 M02/M09 Q1017 RMK 1CU010 5CU020 7CU030 A3005 R1700           VIS S-NW 500M=,- SN SH
20180123_230000.000,0,RJOH,,,,0,20180123230000,-1,-1,-1,-1,260,-1,21,-1,-1,-1,-1,,9999,0,1,3,FEW 8   SCT 10   BKN 20,-1,2,-1,10,1017,RJOH 232300Z 26021KT 9999 -SHSN FEW008 SCT010 BKN020 M02/M10     Q1017 REBLSN RMK 1CU008 3CU010 6CU020 A3006=,- SN SH
20180123_230000.002,0,RJOH,,,,0,20180123230000,-1,-1,-1,-1,260,-1,21,-1,-1,-1,-1,,9999,0,1,3,FEW 8   SCT 10   BKN 20,-1,2,-1,10,1017,RJOH 232300Z 26021KT 9999 -SHSN FEW008 SCT010 BKN020 M02/M10     Q1017 REBLSN RMK 1CU008 3CU010 6CU020 A3006=,- SN SH
20180124_000000.000,0,RJOH,,,,0,20180124000000,-1,-1,-1,-1,270,-1,20,-1,34,-1,-1,,3000,0,1,3,FEW 8   BKN 10   BKN 20,-1,2,-1,8,1018,RJOH 240000Z 27020G34KT 3000 -SHSN FEW008 BKN010 BKN020 M02/M08     Q1018 RMK 1CU008 6CU010 7CU020 A3007 VIS SE 2000M=,- SN SH
20180124_000000.002,0,RJOH,,,,0,20180124000000,-1,-1,-1,-1,270,-1,20,-1,34,-1,-1,,3000,0,1,3,FEW 8   BKN 10   BKN 20,-1,2,-1,8,1018,RJOH 240000Z 27020G34KT 3000 -SHSN FEW008 BKN010 BKN020     M02/M08 Q1018 RMK 1CU008 6CU010 7CU020 A3007 VIS SE           2000M=,- SN SH
20180124_010000.000,0,RJOH,,,,0,20180124010000,-1,-1,-1,-1,260,-1,24,-1,34,-1,-1,,2000,0,1,3,FEW 5   BKN 8   BKN 10,-1,2,-1,8,1018,RJOH 240100Z 26024G34KT 2000 -SHSN FEW005 BKN008 BKN010 M02/M08     Q1018 REBLSN RMK 1CU005 5CU008 7CU010 A3007 VIS W-N 10KM=,- SN SH
20180124_010000.003,0,RJOH,,,,0,20180124010000,-1,-1,-1,-1,260,-1,24,-1,34,-1,-1,,2000,0,1,3,FEW 5   BKN 8   BKN 10,-1,2,-1,8,1018,RJOH 240100Z 26024G34KT 2000 -SHSN FEW005 BKN008 BKN010     M02/M08 Q1018 REBLSN RMK 1CU005 5CU008 7CU010 A3007 VIS           W-N 10KM=,- SN SH
20180124_020000.000,0,RJOH,,,,0,20180124020000,-1,-1,-1,-1,250,-1,28,-1,38,-1,-1,,9999,0,1,3,FEW 8   BKN 20   BKN 35,-1,1,-1,8,1017,RJOH 240200Z 25028G38KT 9999 -SHSN FEW008 BKN020 BKN035 M01/M08     Q1017 RMK 1CU008 5CU020 7CU035 A3006=,- SN SH
20180124_020000.002,0,RJOH,,,,0,20180124020000,-1,-1,-1,-1,250,-1,28,-1,38,-1,-1,,9999,0,1,3,FEW 8   BKN 20   BKN 35,-1,1,-1,8,1017,RJOH 240200Z 25028G38KT 9999 -SHSN FEW008 BKN020 BKN035     M01/M08 Q1017 RMK 1CU008 5CU020 7CU035 A3006=,- SN SH
20180124_030000.000,0,RJOH,,,,0,20180124030000,-1,-1,-1,-1,260,-1,27,-1,37,-1,-1,,8000,0,1,3,FEW 8   SCT 10   BKN 20,-1,1,-1,9,1017,RJOH 240300Z 26027G37KT 8000 -SHSN FEW008 SCT010 BKN020 M01/M09     Q1017 RMK 1CU008 3CU010 6CU020 A3004 VIS S 2000M=,- SN SH
20180124_030000.002,0,RJOH,,,,0,20180124030000,-1,-1,-1,-1,260,-1,27,-1,37,-1,-1,,8000,0,1,3,FEW 8   SCT 10   BKN 20,-1,1,-1,9,1017,RJOH 240300Z 26027G37KT 8000 -SHSN FEW008 SCT010 BKN020     M01/M09 Q1017 RMK 1CU008 3CU010 6CU020 A3004 VIS S 2000M=,- SN SH
20180124_040000.000,0,RJOH,,,,0,20180124040000,-1,-1,-1,-1,260,-1,24,-1,38,-1,-1,,1000,1,1,3,FEW 2   BKN 10   BKN 20,-1,3,-1,8,1017,RJOH 240400Z 26024G38KT 1000 R25/P1800N SHSN FEW002 BKN010     BKN020 M03/M08 Q1017 RMK 1CU002 5CU010 7CU020 A3004 VIS N           5KM SW 300M 1CU002 AAL=,SN SH
20180124_040000.002,0,RJOH,,,,0,20180124040000,-1,-1,-1,-1,260,-1,24,-1,38,-1,-1,,1000,1,1,3,FEW 2   BKN 10   BKN 20,-1,3,-1,8,1017,RJOH 240400Z 26024G38KT 1000 R25/P1800N SHSN FEW002 BKN010     BKN020 M03/M08 Q1017 RMK 1CU002 5CU010 7CU020 A3004 VIS N           5KM SW 300M 1CU002 AAL=,SN SH
20180124_050000.000,0,RJOH,,,,0,20180124050000,-1,-1,-1,-1,270,-1,20,-1,30,-1,-1,,1500,1,1,3,FEW 1   BKN 10   BKN 20,-1,3,-1,7,1018,RJOH 240500Z 27020G30KT 1500 R25/1200VP1800U -SHSN FEW001     BKN010 BKN020 M03/M07 Q1018 RMK 2CU001 6CU010 7CU020 A3006           R1700 VIS S 3000M 2CU001 AAL=,- SN SH
20180124_050000.002,0,RJOH,,,,0,20180124050000,-1,-1,-1,-1,270,-1,20,-1,30,-1,-1,,1500,1,1,3,FEW 1   BKN 10   BKN 20,-1,3,-1,7,1018,RJOH 240500Z 27020G30KT 1500 R25/1200VP1800U -SHSN FEW001     BKN010 BKN020 M03/M07 Q1018 RMK 2CU001 6CU010 7CU020           A3006 R1700 VIS S 3000M 2CU001 AAL=,- SN SH
20180124_060000.000,0,RJOH,,,,0,20180124060000,-1,-1,-1,-1,260,-1,24,-1,36,-1,-1,,300,1,1,1,VV 1,-1,3,-1,7,1018,RJOH 240600Z 26024G36KT 0300 R25/1100VP1800D SHSN VV001 M03/M07     Q1018 RMK A3008 R1700 VIS N-E 800M WS R25=,SN SH
20180124_060000.002,0,RJOH,,,,0,20180124060000,-1,-1,-1,-1,260,-1,24,-1,36,-1,-1,,300,1,1,1,VV 1,-1,3,-1,7,1018,RJOH 240600Z 26024G36KT 0300 R25/1100VP1800D SHSN VV001     M03/M07 Q1018 RMK A3008 R1700 VIS N-E 800M WS R25=,SN SH
20180124_070000.000,0,RJOH,,,,0,20180124070000,-1,-1,-1,-1,270,-1,19,-1,31,-1,-1,,6000,0,1,3,FEW 5   SCT 10   BKN 20,-1,2,-1,9,1018,RJOH 240700Z 27019G31KT 6000 -SHSN FEW005 SCT010 BKN020 M02/M09     Q1018 RMK 1CU005 3CU010 6CU020 A3009 VIS N 3000M 1CU005           AAL=,- SN SH
20180124_070000.002,0,RJOH,,,,0,20180124070000,-1,-1,-1,-1,270,-1,19,-1,31,-1,-1,,6000,0,1,3,FEW 5   SCT 10   BKN 20,-1,2,-1,9,1018,RJOH 240700Z 27019G31KT 6000 -SHSN FEW005 SCT010 BKN020     M02/M09 Q1018 RMK 1CU005 3CU010 6CU020 A3009 VIS N 3000M           1CU005 AAL=,- SN SH
20180124_080000.000,0,RJOH,,,,0,20180124080000,-1,-1,-1,-1,280,-1,14,-1,-1,-1,-1,,500,1,1,1,VV 3,-1,3,-1,7,1019,RJOH 240800Z 28014KT 0500 R25/P1800N SHSN VV003 M03/M07 Q1019     RMK A3010 MAX WIND 21KT=,SN SH
20180124_080000.002,0,RJOH,,,,0,20180124080000,-1,-1,-1,-1,280,-1,14,-1,-1,-1,-1,,500,1,1,1,VV 3,-1,3,-1,7,1019,RJOH 240800Z 28014KT 0500 R25/P1800N SHSN VV003 M03/M07 Q1019     RMK A3010 MAX WIND 21KT=,SN SH
20180124_090000.000,0,RJOH,,,,0,20180124090000,-1,-1,-1,-1,260,-1,18,-1,-1,-1,-1,,1500,1,1,3,FEW 2   SCT 5   BKN 10,-1,3,-1,7,1019,RJOH 240900Z 26018KT 1500 R25/P1800N -SHSN FEW002 SCT005 BKN010     M03/M07 Q1019 RMK 1CU002 3CU005 6CU010 A3010 VIS N 5KM=,- SN SH
20180124_090000.003,0,RJOH,,,,0,20180124090000,-1,-1,-1,-1,260,-1,18,-1,-1,-1,-1,,1500,1,1,3,FEW 2   SCT 5   BKN 10,-1,3,-1,7,1019,RJOH 240900Z 26018KT 1500 R25/P1800N -SHSN FEW002 SCT005     BKN010 M03/M07 Q1019 RMK 1CU002 3CU005 6CU010 A3010 VIS N           5KM=,- SN SH
20180124_100000.000,0,RJOH,,,,0,20180124100000,-1,-1,-1,-1,280,-1,18,-1,29,-1,-1,,9999,0,1,3,FEW 2   SCT 20   BKN 40,-1,2,-1,12,1019,RJOH 241000Z 28018G29KT 9999 -SHSN FEW002 SCT020 BKN040 M02/M12     Q1019 RMK 1CU002 4CU020 6CU040 A3011=,- SN SH
20180124_100000.002,0,RJOH,,,,0,20180124100000,-1,-1,-1,-1,280,-1,18,-1,29,-1,-1,,9999,0,1,3,FEW 2   SCT 20   BKN 40,-1,2,-1,12,1019,RJOH 241000Z 28018G29KT 9999 -SHSN FEW002 SCT020 BKN040     M02/M12 Q1019 RMK 1CU002 4CU020 6CU040 A3011=,- SN SH
20180124_110000.000,0,RJOH,,,,0,20180124110000,-1,-1,-1,-1,270,-1,18,-1,29,-1,-1,,9999,0,1,3,FEW 2   SCT 20   BKN 40,-1,2,-1,9,1019,RJOH 241100Z 27018G29KT 9999 -SHSN FEW002 SCT020 BKN040 M02/M09     Q1019 RMK 1CU002 4CU020 7CU040 A3011=,- SN SH
20180124_110000.002,0,RJOH,,,,0,20180124110000,-1,-1,-1,-1,270,-1,18,-1,29,-1,-1,,9999,0,1,3,FEW 2   SCT 20   BKN 40,-1,2,-1,9,1019,RJOH 241100Z 27018G29KT 9999 -SHSN FEW002 SCT020 BKN040     M02/M09 Q1019 RMK 1CU002 4CU020 7CU040 A3011=,- SN SH
20180124_120000.000,0,RJOH,,,,0,20180124120000,-1,-1,-1,-1,300,-1,13,-1,26,-1,-1,,4000,0,1,3,FEW 5   SCT 10   BKN 20,-1,2,-1,10,1019,RJOH 241200Z 30013G26KT 4000 -SHSN FEW005 SCT010 BKN020 M02/M10     Q1019 RMK 1CU005 3CU010 5CU020 A3010 VIS E 3000M S-W 8KM=,- SN SH
20180124_120000.002,0,RJOH,,,,0,20180124120000,-1,-1,-1,-1,300,-1,13,-1,26,-1,-1,,4000,0,1,3,FEW 5   SCT 10   BKN 20,-1,2,-1,10,1019,RJOH 241200Z 30013G26KT 4000 -SHSN FEW005 SCT010 BKN020     M02/M10 Q1019 RMK 1CU005 3CU010 5CU020 A3010 VIS E 3000M           S-W 8KM=,- SN SH
20180124_130000.000,0,RJOH,,,,0,20180124130000,-1,-1,-1,-1,270,-1,15,-1,-1,-1,-1,,8000,0,1,3,FEW 5   SCT 10   BKN 20,-1,2,-1,7,1019,RJOH 241300Z 27015KT 8000 -SHSN FEW005 SCT010 BKN020 M02/M07     Q1019 RMK 1CU005 3CU010 5CU020 A3011 VIS W-N 4000M=,- SN SH
20180124_130000.002,0,RJOH,,,,0,20180124130000,-1,-1,-1,-1,270,-1,15,-1,-1,-1,-1,,8000,0,1,3,FEW 5   SCT 10   BKN 20,-1,2,-1,7,1019,RJOH 241300Z 27015KT 8000 -SHSN FEW005 SCT010 BKN020 M02/M07     Q1019 RMK 1CU005 3CU010 5CU020 A3011 VIS W-N 4000M=,- SN SH
20180124_140000.000,0,RJOH,,,,0,20180124140000,-1,-1,-1,-1,290,-1,6,-1,-1,-1,-1,,8000,0,1,3,FEW 8   SCT 10   BKN 20,-1,2,-1,9,1019,RJOH 241400Z 29006KT 8000 -SHSN FEW008 SCT010 BKN020 M02/M09     Q1019 RMK 1CU008 3CU010 5CU020 A3010 VIS S 6KM=,- SN SH
20180124_140000.003,0,RJOH,,,,0,20180124140000,-1,-1,-1,-1,290,-1,6,-1,-1,-1,-1,,8000,0,1,3,FEW 8   SCT 10   BKN 20,-1,2,-1,9,1019,RJOH 241400Z 29006KT 8000 -SHSN FEW008 SCT010 BKN020 M02/M09     Q1019 RMK 1CU008 3CU010 5CU020 A3010 VIS S 6KM=,- SN SH
20180124_150000.000,0,RJOH,,,,0,20180124150000,-1,-1,-1,-1,300,-1,10,-1,-1,-1,-1,,6000,0,1,3,FEW 8   SCT 10   BKN 20,-1,2,-1,8,1019,RJOH 241500Z 30010KT 6000 -SHSN FEW008 SCT010 BKN020 M02/M08     Q1019 RMK 1CU008 3CU010 6CU020 A3010 VIS W-NE 2000M=,- SN SH
20180124_150000.002,0,RJOH,,,,0,20180124150000,-1,-1,-1,-1,300,-1,10,-1,-1,-1,-1,,6000,0,1,3,FEW 8   SCT 10   BKN 20,-1,2,-1,8,1019,RJOH 241500Z 30010KT 6000 -SHSN FEW008 SCT010 BKN020 M02/M08     Q1019 RMK 1CU008 3CU010 6CU020 A3010 VIS W-NE 2000M=,- SN SH
20180124_160000.000,0,RJOH,,,,0,20180124160000,-1,-1,-1,-1,270,-1,10,-1,-1,-1,-1,,2000,0,1,3,FEW 5   BKN 8   BKN 10,-1,2,-1,7,1019,RJOH 241600Z 27010KT 2000 -SHSN FEW005 BKN008 BKN010 M02/M07     Q1019 RMK 1CU005 5CU008 7CU010 A3009 VIS S-SW 800M=,- SN SH
20180124_160000.002,0,RJOH,,,,0,20180124160000,-1,-1,-1,-1,270,-1,10,-1,-1,-1,-1,,2000,0,1,3,FEW 5   BKN 8   BKN 10,-1,2,-1,7,1019,RJOH 241600Z 27010KT 2000 -SHSN FEW005 BKN008 BKN010 M02/M07     Q1019 RMK 1CU005 5CU008 7CU010 A3009 VIS S-SW 800M=,- SN SH
20180124_170000.000,0,RJOH,,,,0,20180124170000,-1,-1,-1,-1,290,-1,10,-1,-1,-1,-1,,3000,0,1,3,FEW 5   SCT 8   BKN 10,-1,2,-1,8,1019,RJOH 241700Z 29010KT 3000 -SHSN FEW005 SCT008 BKN010 M02/M08     Q1019 RMK 1CU005 3CU008 5CU010 A3011 VIS SW-N 1500M=,- SN SH
20180124_170000.002,0,RJOH,,,,0,20180124170000,-1,-1,-1,-1,290,-1,10,-1,-1,-1,-1,,3000,0,1,3,FEW 5   SCT 8   BKN 10,-1,2,-1,8,1019,RJOH 241700Z 29010KT 3000 -SHSN FEW005 SCT008 BKN010 M02/M08     Q1019 RMK 1CU005 3CU008 5CU010 A3011 VIS SW-N 1500M=,- SN SH
20180124_180000.000,0,RJOH,,,,0,20180124180000,-1,-1,-1,-1,280,-1,12,-1,23,-1,-1,,9999,0,1,3,FEW 10   SCT 20   BKN 35,-1,1,-1,9,1019,RJOH 241800Z 28012G23KT 9999 -SHSN FEW010 SCT020 BKN035 M01/M09     Q1019 RMK 1CU010 4CU020 7CU035 A3011 VIS W 6KM=,- SN SH
20180124_180000.002,0,RJOH,,,,0,20180124180000,-1,-1,-1,-1,280,-1,12,-1,23,-1,-1,,9999,0,1,3,FEW 10   SCT 20   BKN 35,-1,1,-1,9,1019,RJOH 241800Z 28012G23KT 9999 -SHSN FEW010 SCT020 BKN035     M01/M09 Q1019 RMK 1CU010 4CU020 7CU035 A3011 VIS W 6KM=,- SN SH
20180124_190000.000,0,RJOH,,,,0,20180124190000,-1,-1,-1,-1,280,-1,11,-1,22,-1,-1,,2000,0,1,3,FEW 5   SCT 8   BKN 10,-1,2,-1,7,1019,RJOH 241900Z 28011G22KT 2000 -SHSN FEW005 SCT008 BKN010 M02/M07     Q1019 RMK 1CU005 3CU008 5CU010 A3012 VIS S-W 6KM=,- SN SH
20180124_190000.003,0,RJOH,,,,0,20180124190000,-1,-1,-1,-1,280,-1,11,-1,22,-1,-1,,2000,0,1,3,FEW 5   SCT 8   BKN 10,-1,2,-1,7,1019,RJOH 241900Z 28011G22KT 2000 -SHSN FEW005 SCT008 BKN010     M02/M07 Q1019 RMK 1CU005 3CU008 5CU010 A3012 VIS S-W 6KM=,- SN SH
20180124_200000.000,0,RJOH,,,,0,20180124200000,-1,-1,-1,-1,270,-1,12,-1,-1,-1,-1,,9999,0,1,3,FEW 8   SCT 20   BKN 35,-1,2,-1,9,1020,RJOH 242000Z 27012KT 9999 -SHSN FEW008 SCT020 BKN035 M02/M09     Q1020 RMK 1CU008 3CU020 7CU035 A3012=,- SN SH
20180124_200000.002,0,RJOH,,,,0,20180124200000,-1,-1,-1,-1,270,-1,12,-1,-1,-1,-1,,9999,0,1,3,FEW 8   SCT 20   BKN 35,-1,2,-1,9,1020,RJOH 242000Z 27012KT 9999 -SHSN FEW008 SCT020 BKN035 M02/M09     Q1020 RMK 1CU008 3CU020 7CU035 A3012=,- SN SH
20180124_210000.000,0,RJOH,,,,0,20180124210000,-1,-1,-1,-1,260,-1,13,-1,-1,-1,-1,,4000,0,1,3,FEW 8   SCT 10   BKN 20,-1,1,-1,6,1020,RJOH 242100Z 26013KT 4000 -SHSN FEW008 SCT010 BKN020 M01/M06     Q1020 RMK 1CU008 3CU010 6CU020 A3012 VIS W 8KM           25041KT/0330 M00/M03 R001 S008 SD004=,- SN SH
20180124_210000.002,0,RJOH,,,,0,20180124210000,-1,-1,-1,-1,260,-1,13,-1,-1,-1,-1,,4000,0,1,3,FEW 8   SCT 10   BKN 20,-1,1,-1,6,1020,RJOH 242100Z 26013KT 4000 -SHSN FEW008 SCT010 BKN020 M01/M06     Q1020 RMK 1CU008 3CU010 6CU020 A3012 VIS W 8KM           25041KT/0330 M00/M03 R001 S008 SD004=,- SN SH
20180124_220000.000,0,RJOH,,,,0,20180124220000,-1,-1,-1,-1,270,-1,9,-1,-1,-1,-1,,9999,0,1,3,FEW 10   SCT 20   BKN 35,-1,1,-1,6,1020,RJOH 242200Z 27009KT 9999 -SHSN FEW010 SCT020 BKN035 M01/M06     Q1020 RMK 1CU010 3CU020 6CU035 A3012=,- SN SH
20180124_220000.002,0,RJOH,,,,0,20180124220000,-1,-1,-1,-1,270,-1,9,-1,-1,-1,-1,,9999,0,1,3,FEW 10   SCT 20   BKN 35,-1,1,-1,6,1020,RJOH 242200Z 27009KT 9999 -SHSN FEW010 SCT020 BKN035 M01/M06     Q1020 RMK 1CU010 3CU020 6CU035 A3012=,- SN SH
20180124_230000.000,0,RJOH,,,,0,20180124230000,-1,-1,-1,-1,270,-1,11,-1,-1,-1,-1,,9999,0,1,3,FEW 8   SCT 10   BKN 20 TCU,-1,1,-1,6,1020,RJOH 242300Z 27011KT 9999 -SHGSSN FEW008 SCT010 BKN020TCU     M01/M06 Q1020 RMK 1CU008 3CU010 6TCU020 A3013 VIS S-W           2000M TCU OHD MOV SE 1CU008 AAL SNOW PELLETS=,- GS SN SH
20180124_230000.002,0,RJOH,,,,0,20180124230000,-1,-1,-1,-1,270,-1,11,-1,-1,-1,-1,,9999,0,1,3,FEW 8   SCT 10   BKN 20 TCU,-1,1,-1,6,1020,RJOH 242300Z 27011KT 9999 -SHGSSN FEW008 SCT010 BKN020TCU     M01/M06 Q1020 RMK 1CU008 3CU010 6TCU020 A3013 VIS S-W           2000M TCU OHD MOV SE 1CU008 AAL SNOW PELLETS=,- GS SN SH
20180125_000000.000,0,RJOH,,,,0,20180125000000,-1,-1,-1,-1,340,-1,8,-1,-1,-1,-1,,9999,0,1,3,FEW 5   SCT 20   BKN 35,1,0,-1,7,1021,RJOH 250000Z 34008KT 9999 -SHSN FEW005 SCT020 BKN035 00/M07     Q1021 RMK 1CU005 3CU020 6CU035 A3015 VIS SW-W 4000M 1CU005           SE=,- SN SH
20180125_000000.002,0,RJOH,,,,0,20180125000000,-1,-1,-1,-1,340,-1,8,-1,-1,-1,-1,,9999,0,1,3,FEW 5   SCT 20   BKN 35,1,0,-1,7,1021,RJOH 250000Z 34008KT 9999 -SHSN FEW005 SCT020 BKN035 00/M07     Q1021 RMK 1CU005 3CU020 6CU035 A3015 VIS SW-W 4000M           1CU005 SE=,- SN SH
20180125_010000.000,0,RJOH,,,,0,20180125010000,-1,-1,-1,-1,270,-1,7,-1,-1,240,310,,2000,0,1,4,FEW 3   SCT 5   BKN 10   OVC 20 CB,-1,0,-1,6,1021,RJOH 250100Z 27007KT 240V310 2000 -SHGSSN FEW003 SCT005 BKN010     OVC020CB M00/M06 Q1021 RMK 1CU003 4CU005 6CU010 8CB020           A3015 MAX WIND 14KT VIS S-W 1000M CB OHD MOV SE 1CU003 AND           4CU005 AAL SNOW PELLETS=,- GS SN SH
20180125_010000.002,0,RJOH,,,,0,20180125010000,-1,-1,-1,-1,270,-1,7,-1,-1,240,310,,2000,0,1,4,FEW 3   SCT 5   BKN 10   OVC 20 CB,-1,0,-1,6,1021,RJOH 250100Z 27007KT 240V310 2000 -SHGSSN FEW003 SCT005 BKN010     OVC020CB M00/M06 Q1021 RMK 1CU003 4CU005 6CU010 8CB020           A3015 MAX WIND 14KT VIS S-W 1000M CB OHD MOV SE 1CU003           AND 4CU005 AAL SNOW PELLETS=,- GS SN SH
20180125_020000.000,0,RJOH,,,,0,20180125020000,-1,-1,-1,-1,210,-1,3,-1,-1,170,270,,9999,0,1,3,FEW 5   SCT 35   BKN 60,1,0,-1,5,1020,RJOH 250200Z 21003KT 170V270 9999 -SHSN FEW005 SCT035 BKN060     00/M05 Q1020 REGS RMK 1CU005 3CU035 5SC060 A3014 VIS N 6KM           1CU005 SE WS R25=,- SN SH
20180125_020000.003,0,RJOH,,,,0,20180125020000,-1,-1,-1,-1,210,-1,3,-1,-1,170,270,,9999,0,1,3,FEW 5   SCT 35   BKN 60,1,0,-1,5,1020,RJOH 250200Z 21003KT 170V270 9999 -SHSN FEW005 SCT035 BKN060     00/M05 Q1020 REGS RMK 1CU005 3CU035 5SC060 A3014 VIS N           6KM 1CU005 SE WS R25=,- SN SH
20180125_030000.000,0,RJOH,,,,0,20180125030000,-1,-1,-1,-1,260,-1,8,-1,-1,-1,-1,,8000,0,1,3,FEW 5   SCT 15   BKN 35,1,0,-1,5,1019,RJOH 250300Z 26008KT 8000 -SHSN FEW005 SCT015 BKN035 00/M05     Q1019 RMK 1CU005 4CU015 6CU035 A3012 VIS SW-NW 3000M           1CU005 AAL=,- SN SH
20180125_030000.002,0,RJOH,,,,0,20180125030000,-1,-1,-1,-1,260,-1,8,-1,-1,-1,-1,,8000,0,1,3,FEW 5   SCT 15   BKN 35,1,0,-1,5,1019,RJOH 250300Z 26008KT 8000 -SHSN FEW005 SCT015 BKN035 00/M05     Q1019 RMK 1CU005 4CU015 6CU035 A3012 VIS SW-NW 3000M           1CU005 AAL=,- SN SH
20180125_040000.000,0,RJOH,,,,0,20180125040000,-1,-1,-1,-1,270,-1,6,-1,-1,240,300,,9999,0,1,3,FEW 8   SCT 15   BKN 30,1,2,-1,6,1018,RJOH 250400Z 27006KT 240V300 9999 -SHSN FEW008 SCT015 BKN030     02/M06 Q1018 RMK 1CU008 3CU015 5CU030 A3008 1CU008 E=,- SN SH
20180125_040000.002,0,RJOH,,,,0,20180125040000,-1,-1,-1,-1,270,-1,6,-1,-1,240,300,,9999,0,1,3,FEW 8   SCT 15   BKN 30,1,2,-1,6,1018,RJOH 250400Z 27006KT 240V300 9999 -SHSN FEW008 SCT015 BKN030     02/M06 Q1018 RMK 1CU008 3CU015 5CU030 A3008 1CU008 E=,- SN SH
20180125_050000.000,0,RJOH,,,,0,20180125050000,-1,-1,-1,-1,300,-1,13,-1,-1,270,330,,9999,0,0,3,FEW 10   SCT 15   BKN 30,1,2,-1,7,1018,RJOH 250500Z 30013KT 270V330 9999 FEW010 SCT015 BKN030 02/M07     Q1018 RMK 1CU010 3CU015 6CU030 A3007 MAX WIND 21KT=,
20180125_050000.002,0,RJOH,,,,0,20180125050000,-1,-1,-1,-1,300,-1,13,-1,-1,270,330,,9999,0,0,3,FEW 10   SCT 15   BKN 30,1,2,-1,7,1018,RJOH 250500Z 30013KT 270V330 9999 FEW010 SCT015 BKN030 02/M07     Q1018 RMK 1CU010 3CU015 6CU030 A3007 MAX WIND 21KT=,
20180125_060000.000,0,RJOH,,,,0,20180125060000,-1,-1,-1,-1,270,-1,9,-1,-1,-1,-1,,9999,0,1,3,FEW 8   SCT 15   BKN 30,1,2,-1,4,1018,RJOH 250600Z 27009KT 9999 -SHSN FEW008 SCT015 BKN030 02/M04     Q1018 RMK 2CU008 4CU015 7CU030 A3008 2CU008 AAL=,- SN SH
20180125_060000.002,0,RJOH,,,,0,20180125060000,-1,-1,-1,-1,270,-1,9,-1,-1,-1,-1,,9999,0,1,3,FEW 8   SCT 15   BKN 30,1,2,-1,4,1018,RJOH 250600Z 27009KT 9999 -SHSN FEW008 SCT015 BKN030 02/M04     Q1018 RMK 2CU008 4CU015 7CU030 A3008 2CU008 AAL=,- SN SH
20180125_070000.000,0,RJOH,,,,0,20180125070000,-1,-1,-1,-1,260,-1,17,-1,-1,-1,-1,,800,1,1,1,VV 8,1,0,-1,3,1018,RJOH 250700Z 26017KT 0800 R25/0900VP1800U -SHGSSN VV008 00/M03     Q1018 RMK A3007 R1400 MAX WIND 25KT SNOW PELLETS=,- GS SN SH
20180125_070000.002,0,RJOH,,,,0,20180125070000,-1,-1,-1,-1,260,-1,17,-1,-1,-1,-1,,800,1,1,1,VV 8,1,0,-1,3,1018,RJOH 250700Z 26017KT 0800 R25/0900VP1800U -SHGSSN VV008 00/M03     Q1018 RMK A3007 R1400 MAX WIND 25KT SNOW PELLETS=,- GS SN SH
20180125_080000.000,0,RJOH,,,,0,20180125080000,-1,-1,-1,-1,270,-1,9,-1,-1,-1,-1,,9999,0,1,3,FEW 8   BKN 15   BKN 30,1,1,-1,4,1018,RJOH 250800Z 27009KT 9999 -SHSN FEW008 BKN015 BKN030 01/M04     Q1018 RMK 2CU008 5CU015 7CU030 A3006 VIS W-N 5KM 2CU008           AAL=,- SN SH
20180125_080000.002,0,RJOH,,,,0,20180125080000,-1,-1,-1,-1,270,-1,9,-1,-1,-1,-1,,9999,0,1,3,FEW 8   BKN 15   BKN 30,1,1,-1,4,1018,RJOH 250800Z 27009KT 9999 -SHSN FEW008 BKN015 BKN030 01/M04     Q1018 RMK 2CU008 5CU015 7CU030 A3006 VIS W-N 5KM 2CU008           AAL=,- SN SH
20180125_090000.000,0,RJOH,,,,0,20180125090000,-1,-1,-1,-1,260,-1,10,-1,-1,-1,-1,,9999,0,1,3,FEW 8   SCT 15   BKN 25,1,1,-1,4,1017,RJOH 250900Z 26010KT 9999 -SHSN FEW008 SCT015 BKN025 01/M04     Q1017 RMK 1CU008 4CU015 7CU025 A3005 1CU008 AAL=,- SN SH
20180125_090000.002,0,RJOH,,,,0,20180125090000,-1,-1,-1,-1,260,-1,10,-1,-1,-1,-1,,9999,0,1,3,FEW 8   SCT 15   BKN 25,1,1,-1,4,1017,RJOH 250900Z 26010KT 9999 -SHSN FEW008 SCT015 BKN025 01/M04     Q1017 RMK 1CU008 4CU015 7CU025 A3005 1CU008 AAL=,- SN SH
20180125_100000.000,0,RJOH,,,,0,20180125100000,-1,-1,-1,-1,230,-1,14,-1,-1,-1,-1,,9999,0,1,3,FEW 10   SCT 15   BKN 25,1,1,-1,6,1017,RJOH 251000Z 23014KT 9999 -SHSN FEW010 SCT015 BKN025 01/M06     Q1017 RMK 1CU010 3CU015 6CU025 A3006=,- SN SH
20180125_100000.003,0,RJOH,,,,0,20180125100000,-1,-1,-1,-1,230,-1,14,-1,-1,-1,-1,,9999,0,1,3,FEW 10   SCT 15   BKN 25,1,1,-1,6,1017,RJOH 251000Z 23014KT 9999 -SHSN FEW010 SCT015 BKN025 01/M06     Q1017 RMK 1CU010 3CU015 6CU025 A3006=,- SN SH
20180125_110000.000,0,RJOH,,,,0,20180125110000,-1,-1,-1,-1,250,-1,12,-1,-1,-1,-1,,9999,0,1,3,FEW 15   BKN 25   BKN 50,1,1,-1,6,1017,RJOH 251100Z 25012KT 9999 -SHSN FEW015 BKN025 BKN050 01/M06     Q1017 RMK 1CU015 5CU025 7SC050 A3005=,- SN SH
20180125_110000.003,0,RJOH,,,,0,20180125110000,-1,-1,-1,-1,250,-1,12,-1,-1,-1,-1,,9999,0,1,3,FEW 15   BKN 25   BKN 50,1,1,-1,6,1017,RJOH 251100Z 25012KT 9999 -SHSN FEW015 BKN025 BKN050 01/M06     Q1017 RMK 1CU015 5CU025 7SC050 A3005=,- SN SH
20180125_120000.000,0,RJOH,,,,0,20180125120000,-1,-1,-1,-1,260,-1,13,-1,-1,-1,-1,,9999,0,1,3,FEW 15   BKN 30   BKN 50,1,1,-1,7,1017,RJOH 251200Z 26013KT 9999 -SHSN FEW015 BKN030 BKN050 01/M07     Q1017 RMK 1CU015 5CU030 7SC050 A3004=,- SN SH
20180125_120000.002,0,RJOH,,,,0,20180125120000,-1,-1,-1,-1,260,-1,13,-1,-1,-1,-1,,9999,0,1,3,FEW 15   BKN 30   BKN 50,1,1,-1,7,1017,RJOH 251200Z 26013KT 9999 -SHSN FEW015 BKN030 BKN050 01/M07     Q1017 RMK 1CU015 5CU030 7SC050 A3004=,- SN SH
20180125_130000.000,0,RJOH,,,,0,20180125130000,-1,-1,-1,-1,260,-1,13,-1,-1,-1,-1,,9999,0,1,3,FEW 15   BKN 30   BKN 50,1,1,-1,8,1016,RJOH 251300Z 26013KT 9999 -SHSN FEW015 BKN030 BKN050 01/M08     Q1016 RMK 1CU015 5CU030 7SC050 A3002=,- SN SH
20180125_130000.002,0,RJOH,,,,0,20180125130000,-1,-1,-1,-1,260,-1,13,-1,-1,-1,-1,,9999,0,1,3,FEW 15   BKN 30   BKN 50,1,1,-1,8,1016,RJOH 251300Z 26013KT 9999 -SHSN FEW015 BKN030 BKN050 01/M08     Q1016 RMK 1CU015 5CU030 7SC050 A3002=,- SN SH
20180125_140000.000,0,RJOH,,,,0,20180125140000,-1,-1,-1,-1,270,-1,15,-1,-1,-1,-1,,9999,0,1,3,FEW 15   BKN 30   BKN 50,1,1,-1,8,1016,RJOH 251400Z 27015KT 9999 -SHSN FEW015 BKN030 BKN050 01/M08     Q1016 RMK 1CU015 5CU030 7SC050 A3001=,- SN SH
20180125_140000.002,0,RJOH,,,,0,20180125140000,-1,-1,-1,-1,270,-1,15,-1,-1,-1,-1,,9999,0,1,3,FEW 15   BKN 30   BKN 50,1,1,-1,8,1016,RJOH 251400Z 27015KT 9999 -SHSN FEW015 BKN030 BKN050 01/M08     Q1016 RMK 1CU015 5CU030 7SC050 A3001=,- SN SH
20180125_150000.000,0,RJOH,,,,0,20180125150000,-1,-1,-1,-1,260,-1,14,-1,-1,-1,-1,,6000,0,1,3,FEW 10   SCT 15   BKN 30,1,0,-1,4,1016,RJOH 251500Z 26014KT 6000 -SHSN FEW010 SCT015 BKN030 00/M04     Q1016 RMK 1CU010 3CU015 6CU030 A3001 VIS W 3000M=,- SN SH
20180125_150000.002,0,RJOH,,,,0,20180125150000,-1,-1,-1,-1,260,-1,14,-1,-1,-1,-1,,6000,0,1,3,FEW 10   SCT 15   BKN 30,1,0,-1,4,1016,RJOH 251500Z 26014KT 6000 -SHSN FEW010 SCT015 BKN030 00/M04     Q1016 RMK 1CU010 3CU015 6CU030 A3001 VIS W 3000M=,- SN SH
20180125_160000.000,0,RJOH,,,,0,20180125160000,-1,-1,-1,-1,260,-1,12,-1,-1,-1,-1,,3000,0,1,3,FEW 10   SCT 15   BKN 30 TCU,-1,0,-1,4,1015,RJOH 251600Z 26012KT 3000 -SHGSSN FEW010 SCT015 BKN030TCU     M00/M04 Q1015 RMK 2CU010 4CU015 7TCU030 A3000 TCU OHD MOV           SE SNOW PELLETS=,- GS SN SH
20180125_160000.002,0,RJOH,,,,0,20180125160000,-1,-1,-1,-1,260,-1,12,-1,-1,-1,-1,,3000,0,1,3,FEW 10   SCT 15   BKN 30 TCU,-1,0,-1,4,1015,RJOH 251600Z 26012KT 3000 -SHGSSN FEW010 SCT015 BKN030TCU     M00/M04 Q1015 RMK 2CU010 4CU015 7TCU030 A3000 TCU OHD MOV           SE SNOW PELLETS=,- GS SN SH
20180125_170000.000,0,RJOH,,,,0,20180125170000,-1,-1,-1,-1,260,-1,20,-1,-1,-1,-1,,1500,1,1,4,FEW 3   SCT 5   BKN 15   OVC 30 TCU,-1,0,-1,3,1015,RJOH 251700Z 26020KT 1500 R25/P1800N -SHGSSN FEW003 SCT005     BKN015 OVC030TCU M00/M03 Q1015 RMK 1CU003 4CU005 7CU015           8TCU030 A3000 VIS N 3000M SE 800M TCU OHD MOV SE SNOW           PELLETS=,- GS SN SH
20180125_170000.002,0,RJOH,,,,0,20180125170000,-1,-1,-1,-1,260,-1,20,-1,-1,-1,-1,,1500,1,1,4,FEW 3   SCT 5   BKN 15   OVC 30 TCU,-1,0,-1,3,1015,RJOH 251700Z 26020KT 1500 R25/P1800N -SHGSSN FEW003 SCT005     BKN015 OVC030TCU M00/M03 Q1015 RMK 1CU003 4CU005 7CU015           8TCU030 A3000 VIS N 3000M SE 800M TCU OHD MOV SE SNOW           PELLETS=,- GS SN SH
20180125_180000.000,0,RJOH,,,,0,20180125180000,-1,-1,-1,-1,260,-1,10,-1,-1,-1,-1,,3000,0,1,3,FEW 5   BKN 15   OVC 25 TCU,1,0,-1,3,1015,RJOH 251800Z 26010KT 3000 -SHGSSN FEW005 BKN015 OVC025TCU     00/M03 Q1015 RMK 2CU005 6CU015 8TCU025 A2999 VIS S 2000M           TCU OHD MOV SE SNOW PELLETS=,- GS SN SH
20180125_180000.002,0,RJOH,,,,0,20180125180000,-1,-1,-1,-1,260,-1,10,-1,-1,-1,-1,,3000,0,1,3,FEW 5   BKN 15   OVC 25 TCU,1,0,-1,3,1015,RJOH 251800Z 26010KT 3000 -SHGSSN FEW005 BKN015 OVC025TCU     00/M03 Q1015 RMK 2CU005 6CU015 8TCU025 A2999 VIS S 2000M           TCU OHD MOV SE SNOW PELLETS=,- GS SN SH
20180125_190000.000,0,RJOH,,,,0,20180125190000,-1,-1,-1,-1,300,-1,12,-1,-1,-1,-1,,1500,1,1,3,FEW 3   SCT 5   BKN 15,-1,0,-1,4,1015,RJOH 251900Z 30012KT 1500 R25/P1800N -SHSN FEW003 SCT005 BKN015     M00/M04 Q1015 RMK 1CU003 3CU005 6CU015 A2999=,- SN SH
20180125_190000.002,0,RJOH,,,,0,20180125190000,-1,-1,-1,-1,300,-1,12,-1,-1,-1,-1,,1500,1,1,3,FEW 3   SCT 5   BKN 15,-1,0,-1,4,1015,RJOH 251900Z 30012KT 1500 R25/P1800N -SHSN FEW003 SCT005     BKN015 M00/M04 Q1015 RMK 1CU003 3CU005 6CU015 A2999=,- SN SH
20180125_200000.000,0,RJOH,,,,0,20180125200000,-1,-1,-1,-1,300,-1,11,-1,23,260,330,,6000,0,1,3,FEW 5   SCT 15   BKN 25,1,1,-1,7,1015,RJOH 252000Z 30011G23KT 260V330 6000 -SHSN FEW005 SCT015 BKN025     01/M07 Q1015 RMK 1CU005 3CU015 6CU025 A2998=,- SN SH
20180125_200000.003,0,RJOH,,,,0,20180125200000,-1,-1,-1,-1,300,-1,11,-1,23,260,330,,6000,0,1,3,FEW 5   SCT 15   BKN 25,1,1,-1,7,1015,RJOH 252000Z 30011G23KT 260V330 6000 -SHSN FEW005 SCT015     BKN025 01/M07 Q1015 RMK 1CU005 3CU015 6CU025 A2998=,- SN SH
20180125_210000.000,0,RJOH,,,,0,20180125210000,-1,-1,-1,-1,290,-1,11,-1,-1,-1,-1,,8000,0,1,3,FEW 5   SCT 25   BKN 40,-1,0,-1,7,1015,RJOH 252100Z 29011KT 8000 -SHSN FEW005 SCT025 BKN040 M00/M07     Q1015 RMK 1CU005 4CU025 7CU040 A2999 03/M01 R004 S007           SD006=,- SN SH
20180125_210000.002,0,RJOH,,,,0,20180125210000,-1,-1,-1,-1,290,-1,11,-1,-1,-1,-1,,8000,0,1,3,FEW 5   SCT 25   BKN 40,-1,0,-1,7,1015,RJOH 252100Z 29011KT 8000 -SHSN FEW005 SCT025 BKN040 M00/M07     Q1015 RMK 1CU005 4CU025 7CU040 A2999 03/M01 R004 S007           SD006=,- SN SH
20180125_220000.000,0,RJOH,,,,0,20180125220000,-1,-1,-1,-1,290,-1,13,-1,-1,260,320,,9999,0,1,3,FEW 5   BKN 25   BKN 40,1,0,-1,7,1016,RJOH 252200Z 29013KT 260V320 9999 -SHSN FEW005 BKN025 BKN040     00/M07 Q1016 RMK 1CU005 5CU025 7CU040 A3001 MAX WIND 22KT           VIS SW-W 4000M 1CU005 AAL=,- SN SH
20180125_220000.002,0,RJOH,,,,0,20180125220000,-1,-1,-1,-1,290,-1,13,-1,-1,260,320,,9999,0,1,3,FEW 5   BKN 25   BKN 40,1,0,-1,7,1016,RJOH 252200Z 29013KT 260V320 9999 -SHSN FEW005 BKN025 BKN040     00/M07 Q1016 RMK 1CU005 5CU025 7CU040 A3001 MAX WIND 22KT           VIS SW-W 4000M 1CU005 AAL=,- SN SH
20180125_230000.000,0,RJOH,,,,0,20180125230000,-1,-1,-1,-1,290,-1,13,-1,24,-1,-1,,9999,0,1,3,FEW 8   BKN 25   BKN 40,1,0,-1,8,1016,RJOH 252300Z 29013G24KT 9999 -SHSN FEW008 BKN025 BKN040 00/M08     Q1016 RMK 1CU008 5CU025 7CU040 A3003 1CU008 AAL=,- SN SH
20180125_230000.002,0,RJOH,,,,0,20180125230000,-1,-1,-1,-1,290,-1,13,-1,24,-1,-1,,9999,0,1,3,FEW 8   BKN 25   BKN 40,1,0,-1,8,1016,RJOH 252300Z 29013G24KT 9999 -SHSN FEW008 BKN025 BKN040 00/M08     Q1016 RMK 1CU008 5CU025 7CU040 A3003 1CU008 AAL=,- SN SH
20180126_000000.000,0,RJOH,,,,0,20180126000000,-1,-1,-1,-1,290,-1,13,-1,-1,260,320,,9999,0,0,3,FEW 15   SCT 25   BKN 40,1,1,-1,10,1017,RJOH 260000Z 29013KT 260V320 9999 FEW015 SCT025 BKN040 01/M10     Q1017 RMK 1CU015 3CU025 6CU040 A3004=,
20180126_000000.002,0,RJOH,,,,0,20180126000000,-1,-1,-1,-1,290,-1,13,-1,-1,260,320,,9999,0,0,3,FEW 15   SCT 25   BKN 40,1,1,-1,10,1017,RJOH 260000Z 29013KT 260V320 9999 FEW015 SCT025 BKN040 01/M10     Q1017 RMK 1CU015 3CU025 6CU040 A3004=,
20180126_010000.000,0,RJOH,,,,0,20180126010000,-1,-1,-1,-1,280,-1,14,-1,25,-1,-1,,9999,0,1,3,FEW 15   SCT 25   BKN 40,1,1,-1,9,1017,RJOH 260100Z 28014G25KT 9999 -SHSN FEW015 SCT025 BKN040 01/M09     Q1017 RMK 2CU015 4CU025 7CU040 A3005 VIS W-N 2000M=,- SN SH
20180126_010000.002,0,RJOH,,,,0,20180126010000,-1,-1,-1,-1,280,-1,14,-1,25,-1,-1,,9999,0,1,3,FEW 15   SCT 25   BKN 40,1,1,-1,9,1017,RJOH 260100Z 28014G25KT 9999 -SHSN FEW015 SCT025 BKN040 01/M09     Q1017 RMK 2CU015 4CU025 7CU040 A3005 VIS W-N 2000M=,- SN SH
20180126_020000.000,0,RJOH,,,,0,20180126020000,-1,-1,-1,-1,270,-1,15,-1,-1,-1,-1,,9999,0,1,3,FEW 15   SCT 25   BKN 40,1,1,-1,7,1017,RJOH 260200Z 27015KT 9999 -SHSN FEW015 SCT025 BKN040 01/M07     Q1017 RMK 2CU015 4CU025 7CU040 A3006 VIS N-E 4000M=,- SN SH
20180126_020000.002,0,RJOH,,,,0,20180126020000,-1,-1,-1,-1,270,-1,15,-1,-1,-1,-1,,9999,0,1,3,FEW 15   SCT 25   BKN 40,1,1,-1,7,1017,RJOH 260200Z 27015KT 9999 -SHSN FEW015 SCT025 BKN040 01/M07     Q1017 RMK 2CU015 4CU025 7CU040 A3006 VIS N-E 4000M=,- SN SH
20180126_030000.000,0,RJOH,,,,0,20180126030000,-1,-1,-1,-1,280,-1,15,-1,-1,-1,-1,,9999,0,1,3,FEW 8   SCT 15   BKN 25,-1,0,-1,6,1017,RJOH 260300Z 28015KT 9999 -SHSN FEW008 SCT015 BKN025 M00/M06     Q1017 RMK 1CU008 4CU015 7CU025 A3004 MAX WIND 24KT VIS           NE-SE 4000M 1CU008 AAL=,- SN SH
20180126_030000.002,0,RJOH,,,,0,20180126030000,-1,-1,-1,-1,280,-1,15,-1,-1,-1,-1,,9999,0,1,3,FEW 8   SCT 15   BKN 25,-1,0,-1,6,1017,RJOH 260300Z 28015KT 9999 -SHSN FEW008 SCT015 BKN025 M00/M06     Q1017 RMK 1CU008 4CU015 7CU025 A3004 MAX WIND 24KT VIS           NE-SE 4000M 1CU008 AAL=,- SN SH
20180126_040000.000,0,RJOH,,,,0,20180126040000,-1,-1,-1,-1,280,-1,17,-1,-1,-1,-1,,9999,0,1,3,FEW 8   SCT 15   BKN 25,1,1,-1,8,1016,RJOH 260400Z 28017KT 9999 -SHSN FEW008 SCT015 BKN025 01/M08     Q1016 RMK 1CU008 3CU015 7CU025 A3002 MAX WIND 24KT 1CU008           AAL=,- SN SH
20180126_040000.002,0,RJOH,,,,0,20180126040000,-1,-1,-1,-1,280,-1,17,-1,-1,-1,-1,,9999,0,1,3,FEW 8   SCT 15   BKN 25,1,1,-1,8,1016,RJOH 260400Z 28017KT 9999 -SHSN FEW008 SCT015 BKN025 01/M08     Q1016 RMK 1CU008 3CU015 7CU025 A3002 MAX WIND 24KT 1CU008           AAL=,- SN SH
20180126_050000.000,0,RJOH,,,,0,20180126050000,-1,-1,-1,-1,280,-1,13,-1,-1,-1,-1,,500,1,1,1,VV 8,-1,1,-1,6,1017,RJOH 260500Z 28013KT 0500 R25/0550V1600D -SHGSSN VV008 M01/M06     Q1017 RMK A3003 R0800 MAX WIND 20KT SNOW PELLETS=,- GS SN SH
20180126_050000.002,0,RJOH,,,,0,20180126050000,-1,-1,-1,-1,280,-1,13,-1,-1,-1,-1,,500,1,1,1,VV 8,-1,1,-1,6,1017,RJOH 260500Z 28013KT 0500 R25/0550V1600D -SHGSSN VV008 M01/M06     Q1017 RMK A3003 R0800 MAX WIND 20KT SNOW PELLETS=,- GS SN SH
20180126_060000.000,0,RJOH,,,,0,20180126060000,-1,-1,-1,-1,280,-1,14,-1,-1,-1,-1,,5000,0,1,3,FEW 6   SCT 8   BKN 15,1,0,-1,7,1017,RJOH 260600Z 28014KT 5000 -SHSN FEW006 SCT008 BKN015 00/M07     Q1017 RMK 1CU006 3CU008 6CU015 A3004 1CU006 AND 3CU008           AAL=,- SN SH
20180126_060000.002,0,RJOH,,,,0,20180126060000,-1,-1,-1,-1,280,-1,14,-1,-1,-1,-1,,5000,0,1,3,FEW 6   SCT 8   BKN 15,1,0,-1,7,1017,RJOH 260600Z 28014KT 5000 -SHSN FEW006 SCT008 BKN015 00/M07     Q1017 RMK 1CU006 3CU008 6CU015 A3004 1CU006 AND 3CU008           AAL=,- SN SH
20180126_070000.000,0,RJOH,,,,0,20180126070000,-1,-1,-1,-1,270,-1,8,-1,-1,-1,-1,,9999,0,1,3,FEW 8   BKN 15   BKN 30,1,0,-1,5,1017,RJOH 260700Z 27008KT 9999 -SHSN FEW008 BKN015 BKN030 00/M05     Q1017 RMK 1CU008 5CU015 7CU030 A3005 1CU008 AAL=,- SN SH
20180126_070000.002,0,RJOH,,,,0,20180126070000,-1,-1,-1,-1,270,-1,8,-1,-1,-1,-1,,9999,0,1,3,FEW 8   BKN 15   BKN 30,1,0,-1,5,1017,RJOH 260700Z 27008KT 9999 -SHSN FEW008 BKN015 BKN030 00/M05     Q1017 RMK 1CU008 5CU015 7CU030 A3005 1CU008 AAL=,- SN SH
20180126_080000.000,0,RJOH,,,,0,20180126080000,-1,-1,-1,-1,280,-1,11,-1,-1,250,310,,9999,0,1,4,FEW 8   BKN 15   BKN 30   FEW 30 TCU,-1,0,-1,6,1017,RJOH 260800Z 28011KT 250V310 9999 -SHSN FEW008 BKN015 BKN030     FEW030TCU M00/M06 Q1017 RMK 1CU008 6CU015 7CU030 2TCU030           A3006 VIS S-W 2000M TCU 6KM S-SW MOV SE 1CU008 AAL=,- SN SH
20180126_080000.003,0,RJOH,,,,0,20180126080000,-1,-1,-1,-1,280,-1,11,-1,-1,250,310,,9999,0,1,4,FEW 8   BKN 15   BKN 30   FEW 30 TCU,-1,0,-1,6,1017,RJOH 260800Z 28011KT 250V310 9999 -SHSN FEW008 BKN015 BKN030     FEW030TCU M00/M06 Q1017 RMK 1CU008 6CU015 7CU030 2TCU030           A3006 VIS S-W 2000M TCU 6KM S-SW MOV SE 1CU008 AAL=,- SN SH
20180126_090000.000,0,RJOH,,,,0,20180126090000,-1,-1,-1,-1,300,-1,9,-1,-1,-1,-1,,9999,0,1,3,FEW 8   BKN 15   BKN 30,-1,1,-1,7,1018,RJOH 260900Z 30009KT 9999 -SHSN FEW008 BKN015 BKN030 M01/M07     Q1018 RMK 1CU008 6CU015 7CU030 A3007 VIS SW-NW 3000M           1CU008 AAL=,- SN SH
20180126_090000.002,0,RJOH,,,,0,20180126090000,-1,-1,-1,-1,300,-1,9,-1,-1,-1,-1,,9999,0,1,3,FEW 8   BKN 15   BKN 30,-1,1,-1,7,1018,RJOH 260900Z 30009KT 9999 -SHSN FEW008 BKN015 BKN030 M01/M07     Q1018 RMK 1CU008 6CU015 7CU030 A3007 VIS SW-NW 3000M           1CU008 AAL=,- SN SH
20180126_100000.000,0,RJOH,,,,0,20180126100000,-1,-1,-1,-1,310,-1,12,-1,22,-1,-1,,8000,0,1,3,FEW 8   BKN 15   BKN 25,1,0,-1,8,1019,RJOH 261000Z 31012G22KT 8000 -SHSN FEW008 BKN015 BKN025 00/M08     Q1019 RMK 1CU008 6CU015 7CU025 A3009 VIS W 15KM 1CU008           AAL=,- SN SH
20180126_100000.002,0,RJOH,,,,0,20180126100000,-1,-1,-1,-1,310,-1,12,-1,22,-1,-1,,8000,0,1,3,FEW 8   BKN 15   BKN 25,1,0,-1,8,1019,RJOH 261000Z 31012G22KT 8000 -SHSN FEW008 BKN015 BKN025 00/M08     Q1019 RMK 1CU008 6CU015 7CU025 A3009 VIS W 15KM 1CU008           AAL=,- SN SH
20180126_110000.000,0,RJOH,,,,0,20180126110000,-1,-1,-1,-1,330,-1,11,-1,-1,-1,-1,,800,1,1,3,FEW 3   SCT 8   BKN 15,-1,1,-1,7,1020,RJOH 261100Z 33011KT 0800 R25/0900VP1800D -SHSN FEW003 SCT008     BKN015 M01/M07 Q1020 RMK 1CU003 3CU008 7CU015 A3013 R1400           VIS S-NW 500M 1CU003 AND 3CU008 AAL=,- SN SH
20180126_110000.002,0,RJOH,,,,0,20180126110000,-1,-1,-1,-1,330,-1,11,-1,-1,-1,-1,,800,1,1,3,FEW 3   SCT 8   BKN 15,-1,1,-1,7,1020,RJOH 261100Z 33011KT 0800 R25/0900VP1800D -SHSN FEW003 SCT008     BKN015 M01/M07 Q1020 RMK 1CU003 3CU008 7CU015 A3013 R1400           VIS S-NW 500M 1CU003 AND 3CU008 AAL=,- SN SH
20180126_120000.000,0,RJOH,,,,0,20180126120000,-1,-1,-1,-1,290,-1,6,-1,-1,260,320,,9999,0,1,3,FEW 8   BKN 15   BKN 30,-1,0,-1,7,1020,RJOH 261200Z 29006KT 260V320 9999 -SHSN FEW008 BKN015 BKN030     M00/M07 Q1020 RMK 1CU008 5CU015 7CU030 A3013 1CU008 AAL=,- SN SH
20180126_120000.002,0,RJOH,,,,0,20180126120000,-1,-1,-1,-1,290,-1,6,-1,-1,260,320,,9999,0,1,3,FEW 8   BKN 15   BKN 30,-1,0,-1,7,1020,RJOH 261200Z 29006KT 260V320 9999 -SHSN FEW008 BKN015 BKN030     M00/M07 Q1020 RMK 1CU008 5CU015 7CU030 A3013 1CU008 AAL=,- SN SH
20180126_130000.000,0,RJOH,,,,0,20180126130000,-1,-1,-1,-1,350,-1,9,-1,-1,-1,-1,,9999,0,1,3,FEW 8   BKN 15   BKN 30,-1,2,-1,7,1021,RJOH 261300Z 35009KT 9999 -SHSN FEW008 BKN015 BKN030 M02/M07     Q1021 RMK 2CU008 6CU015 7CU030 A3016=,- SN SH
20180126_130000.002,0,RJOH,,,,0,20180126130000,-1,-1,-1,-1,350,-1,9,-1,-1,-1,-1,,9999,0,1,3,FEW 8   BKN 15   BKN 30,-1,2,-1,7,1021,RJOH 261300Z 35009KT 9999 -SHSN FEW008 BKN015 BKN030 M02/M07     Q1021 RMK 2CU008 6CU015 7CU030 A3016=,- SN SH
20180126_140000.000,0,RJOH,,,,0,20180126140000,-1,-1,-1,-1,300,-1,8,-1,-1,-1,-1,,1500,1,1,4,FEW 5   BKN 8   BKN 15   SCT 25 CB,-1,1,-1,7,1021,RJOH 261400Z 30008KT 1500 R25/P1800N -SHGSSN FEW005 BKN008     BKN015 SCT025CB M01/M07 Q1021 RMK 2CU005 6CU008 7CU015           3CB025 A3017 VIS NW-NE 500M CB OHD MOV SE SNOW PELLETS=,- GS SN SH
20180126_140000.002,0,RJOH,,,,0,20180126140000,-1,-1,-1,-1,300,-1,8,-1,-1,-1,-1,,1500,1,1,4,FEW 5   BKN 8   BKN 15   SCT 25 CB,-1,1,-1,7,1021,RJOH 261400Z 30008KT 1500 R25/P1800N -SHGSSN FEW005 BKN008     BKN015 SCT025CB M01/M07 Q1021 RMK 2CU005 6CU008 7CU015           3CB025 A3017 VIS NW-NE 500M CB OHD MOV SE SNOW PELLETS=,- GS SN SH
20180126_150000.000,0,RJOH,,,,0,20180126150000,-1,-1,-1,-1,270,-1,8,-1,-1,240,310,,9999,0,1,3,FEW 8   BKN 15   BKN 30,-1,1,-1,5,1021,RJOH 261500Z 27008KT 240V310 9999 -SHSN FEW008 BKN015 BKN030     M01/M05 Q1021 REGS RMK 1CU008 5CU015 7CU030 A3017=,- SN SH
20180126_150000.002,0,RJOH,,,,0,20180126150000,-1,-1,-1,-1,270,-1,8,-1,-1,240,310,,9999,0,1,3,FEW 8   BKN 15   BKN 30,-1,1,-1,5,1021,RJOH 261500Z 27008KT 240V310 9999 -SHSN FEW008 BKN015 BKN030     M01/M05 Q1021 REGS RMK 1CU008 5CU015 7CU030 A3017=,- SN SH
20180126_160000.000,0,RJOH,,,,0,20180126160000,-1,-1,-1,-1,240,-1,8,-1,-1,-1,-1,,9999,0,1,3,FEW 8   SCT 15   BKN 30,-1,1,-1,4,1021,RJOH 261600Z 24008KT 9999 -SHSN FEW008 SCT015 BKN030 M01/M04     Q1021 RMK 1CU008 3CU015 7CU030 A3018=,- SN SH
20180126_160000.002,0,RJOH,,,,0,20180126160000,-1,-1,-1,-1,240,-1,8,-1,-1,-1,-1,,9999,0,1,3,FEW 8   SCT 15   BKN 30,-1,1,-1,4,1021,RJOH 261600Z 24008KT 9999 -SHSN FEW008 SCT015 BKN030 M01/M04     Q1021 RMK 1CU008 3CU015 7CU030 A3018=,- SN SH
20180126_170000.000,0,RJOH,,,,0,20180126170000,-1,-1,-1,-1,60,-1,5,-1,-1,320,120,,9999,0,1,3,FEW 10   BKN 15   BKN 30,-1,1,-1,5,1022,RJOH 261700Z 06005KT 320V120 9999 -SHSN FEW010 BKN015 BKN030     M01/M05 Q1022 RMK 1CU010 5CU015 7CU030 A3018=,- SN SH
20180126_170000.002,0,RJOH,,,,0,20180126170000,-1,-1,-1,-1,60,-1,5,-1,-1,320,120,,9999,0,1,3,FEW 10   BKN 15   BKN 30,-1,1,-1,5,1022,RJOH 261700Z 06005KT 320V120 9999 -SHSN FEW010 BKN015 BKN030     M01/M05 Q1022 RMK 1CU010 5CU015 7CU030 A3018=,- SN SH
20180126_180000.000,0,RJOH,,,,0,20180126180000,-1,-1,-1,-1,330,-1,10,-1,-1,-1,-1,,5000,0,1,3,FEW 5   BKN 8   BKN 15,-1,0,-1,3,1022,RJOH 261800Z 33010KT 5000 -SHSN FEW005 BKN008 BKN015 M00/M03     Q1022 REGS RMK 1CU005 5CU008 6CU015 A3019 VIS SE 3000M           W-NW 10KM=,- SN SH
20180126_180000.002,0,RJOH,,,,0,20180126180000,-1,-1,-1,-1,330,-1,10,-1,-1,-1,-1,,5000,0,1,3,FEW 5   BKN 8   BKN 15,-1,0,-1,3,1022,RJOH 261800Z 33010KT 5000 -SHSN FEW005 BKN008 BKN015 M00/M03     Q1022 REGS RMK 1CU005 5CU008 6CU015 A3019 VIS SE 3000M           W-NW 10KM=,- SN SH
20180126_190000.000,0,RJOH,,,,0,20180126190000,-1,-1,-1,-1,320,-1,3,-1,-1,260,70,,9999,0,1,3,FEW 8   BKN 15   BKN 25,1,0,-1,5,1022,RJOH 261900Z 32003KT 260V070 9999 -SHSN FEW008 BKN015 BKN025     00/M05 Q1022 RMK 1CU008 5CU015 7CU025 A3019=,- SN SH
20180126_190000.002,0,RJOH,,,,0,20180126190000,-1,-1,-1,-1,320,-1,3,-1,-1,260,70,,9999,0,1,3,FEW 8   BKN 15   BKN 25,1,0,-1,5,1022,RJOH 261900Z 32003KT 260V070 9999 -SHSN FEW008 BKN015 BKN025     00/M05 Q1022 RMK 1CU008 5CU015 7CU025 A3019=,- SN SH
20180126_200000.000,0,RJOH,,,,0,20180126200000,-1,-1,-1,-1,340,-1,6,-1,-1,310,10,,3000,0,1,3,FEW 5   BKN 8   BKN 15,1,0,-1,4,1022,RJOH 262000Z 34006KT 310V010 3000 -SHSN FEW005 BKN008 BKN015     00/M04 Q1022 RMK 2CU005 6CU008 7CU015 A3020 VIS NW-NE 5KM=,- SN SH
20180126_200000.003,0,RJOH,,,,0,20180126200000,-1,-1,-1,-1,340,-1,6,-1,-1,310,10,,3000,0,1,3,FEW 5   BKN 8   BKN 15,1,0,-1,4,1022,RJOH 262000Z 34006KT 310V010 3000 -SHSN FEW005 BKN008 BKN015     00/M04 Q1022 RMK 2CU005 6CU008 7CU015 A3020 VIS NW-NE           5KM=,- SN SH
20180126_210000.000,0,RJOH,,,,0,20180126210000,-1,-1,-1,-1,999,-1,2,-1,-1,-1,-1,,9999,0,1,3,FEW 15   BKN 25   BKN 40,1,0,-1,3,1022,RJOH 262100Z VRB02KT 9999 -SHSN FEW015 BKN025 BKN040 00/M03     Q1022 RMK 2CU015 6CU025 7CU040 A3019 29030KT/2220 02/M03           R003 S005 SD008=,- SN SH
20180126_210000.002,0,RJOH,,,,0,20180126210000,-1,-1,-1,-1,999,-1,2,-1,-1,-1,-1,,9999,0,1,3,FEW 15   BKN 25   BKN 40,1,0,-1,3,1022,RJOH 262100Z VRB02KT 9999 -SHSN FEW015 BKN025 BKN040 00/M03     Q1022 RMK 2CU015 6CU025 7CU040 A3019 29030KT/2220 02/M03           R003 S005 SD008=,- SN SH
20180126_220000.000,0,RJOH,,,,0,20180126220000,-1,-1,-1,-1,999,-1,2,-1,-1,-1,-1,,9999,0,1,3,FEW 8   SCT 15   BKN 25,1,1,-1,4,1023,RJOH 262200Z VRB02KT 9999 -SHSN FEW008 SCT015 BKN025 01/M04     Q1023 RMK 1CU008 3CU015 6CU025 A3021=,- SN SH
20180126_220000.002,0,RJOH,,,,0,20180126220000,-1,-1,-1,-1,999,-1,2,-1,-1,-1,-1,,9999,0,1,3,FEW 8   SCT 15   BKN 25,1,1,-1,4,1023,RJOH 262200Z VRB02KT 9999 -SHSN FEW008 SCT015 BKN025 01/M04     Q1023 RMK 1CU008 3CU015 6CU025 A3021=,- SN SH
20180126_230000.000,0,RJOH,,,,0,20180126230000,-1,-1,-1,-1,310,-1,6,-1,-1,280,360,,5000,0,1,4,FEW 5   SCT 8   BKN 15   FEW 20 TCU,1,0,-1,3,1024,RJOH 262300Z 31006KT 280V360 5000 -SHSN FEW005 SCT008 BKN015     FEW020TCU 00/M03 Q1024 RETS RMK 2CU005 4CU008 7CU015           1TCU020 A3024 VIS S 3000M W-N 8KM TCU 8KM SE MOV SE=,- SN SH
20180126_230000.002,0,RJOH,,,,0,20180126230000,-1,-1,-1,-1,310,-1,6,-1,-1,280,360,,5000,0,1,4,FEW 5   SCT 8   BKN 15   FEW 20 TCU,1,0,-1,3,1024,RJOH 262300Z 31006KT 280V360 5000 -SHSN FEW005 SCT008 BKN015     FEW020TCU 00/M03 Q1024 RETS RMK 2CU005 4CU008 7CU015           1TCU020 A3024 VIS S 3000M W-N 8KM TCU 8KM SE MOV SE=,- SN SH
20180127_000000.000,0,RJOH,,,,0,20180127000000,-1,-1,-1,-1,360,-1,7,-1,-1,320,20,,9999,0,1,3,FEW 8   BKN 15   BKN 30,1,2,-1,5,1024,RJOH 270000Z 36007KT 320V020 9999 -SHSN FEW008 BKN015 BKN030     02/M05 Q1024 RMK 1CU008 5CU015 7CU030 A3025=,- SN SH
20180127_000000.002,0,RJOH,,,,0,20180127000000,-1,-1,-1,-1,360,-1,7,-1,-1,320,20,,9999,0,1,3,FEW 8   BKN 15   BKN 30,1,2,-1,5,1024,RJOH 270000Z 36007KT 320V020 9999 -SHSN FEW008 BKN015 BKN030     02/M05 Q1024 RMK 1CU008 5CU015 7CU030 A3025=,- SN SH
20180127_010000.000,0,RJOH,,,,0,20180127010000,-1,-1,-1,-1,340,-1,6,-1,-1,310,10,,9999,0,1,2,FEW 15   BKN 30,1,3,-1,7,1025,RJOH 270100Z 34006KT 310V010 9999 -SHSN FEW015 BKN030 03/M07     Q1025 RMK 2CU015 6CU030 A3027=,- SN SH
20180127_010000.002,0,RJOH,,,,0,20180127010000,-1,-1,-1,-1,340,-1,6,-1,-1,310,10,,9999,0,1,2,FEW 15   BKN 30,1,3,-1,7,1025,RJOH 270100Z 34006KT 310V010 9999 -SHSN FEW015 BKN030 03/M07     Q1025 RMK 2CU015 6CU030 A3027=,- SN SH
20180127_020000.000,0,RJOH,,,,0,20180127020000,-1,-1,-1,-1,20,-1,9,-1,-1,-1,-1,,9999,0,1,3,FEW 15   BKN 30   BKN 50,1,2,-1,5,1025,RJOH 270200Z 02009KT 9999 -SHSN FEW015 BKN030 BKN050 02/M05     Q1025 RMK 1CU015 5CU030 7SC050 A3027=,- SN SH
20180127_020000.002,0,RJOH,,,,0,20180127020000,-1,-1,-1,-1,20,-1,9,-1,-1,-1,-1,,9999,0,1,3,FEW 15   BKN 30   BKN 50,1,2,-1,5,1025,RJOH 270200Z 02009KT 9999 -SHSN FEW015 BKN030 BKN050 02/M05     Q1025 RMK 1CU015 5CU030 7SC050 A3027=,- SN SH
20180127_030000.000,0,RJOH,,,,0,20180127030000,-1,-1,-1,-1,999,-1,2,-1,-1,-1,-1,,9999,0,1,3,FEW 8   SCT 15   BKN 30,1,2,-1,4,1024,RJOH 270300Z VRB02KT 9999 -SHSN FEW008 SCT015 BKN030 02/M04     Q1024 RMK 1CU008 3CU015 7CU030 A3026=,- SN SH
20180127_030000.002,0,RJOH,,,,0,20180127030000,-1,-1,-1,-1,999,-1,2,-1,-1,-1,-1,,9999,0,1,3,FEW 8   SCT 15   BKN 30,1,2,-1,4,1024,RJOH 270300Z VRB02KT 9999 -SHSN FEW008 SCT015 BKN030 02/M04     Q1024 RMK 1CU008 3CU015 7CU030 A3026=,- SN SH
20180127_040000.000,0,RJOH,,,,0,20180127040000,-1,-1,-1,-1,350,-1,5,-1,-1,-1,-1,,4000,0,1,3,FEW 6   BKN 15   BKN 30,1,2,-1,4,1024,RJOH 270400Z 35005KT 4000 -SHSN FEW006 BKN015 BKN030 02/M04     Q1024 RMK 1CU006 6CU015 7CU030 A3025 VIS N 10KM=,- SN SH
20180127_040000.002,0,RJOH,,,,0,20180127040000,-1,-1,-1,-1,350,-1,5,-1,-1,-1,-1,,4000,0,1,3,FEW 6   BKN 15   BKN 30,1,2,-1,4,1024,RJOH 270400Z 35005KT 4000 -SHSN FEW006 BKN015 BKN030 02/M04     Q1024 RMK 1CU006 6CU015 7CU030 A3025 VIS N 10KM=,- SN SH
20180127_050000.000,0,RJOH,,,,0,20180127050000,-1,-1,-1,-1,210,-1,6,-1,-1,-1,-1,,9999,0,1,3,FEW 15   SCT 30   BKN 50,1,2,-1,2,1023,RJOH 270500Z 21006KT 9999 -SHSN FEW015 SCT030 BKN050 02/M02     Q1023 RMK 1CU015 4CU030 7SC050 A3024 VIS N 7KM=,- SN SH
20180127_050000.002,0,RJOH,,,,0,20180127050000,-1,-1,-1,-1,210,-1,6,-1,-1,-1,-1,,9999,0,1,3,FEW 15   SCT 30   BKN 50,1,2,-1,2,1023,RJOH 270500Z 21006KT 9999 -SHSN FEW015 SCT030 BKN050 02/M02     Q1023 RMK 1CU015 4CU030 7SC050 A3024 VIS N 7KM=,- SN SH
20180127_060000.000,0,RJOH,,,,0,20180127060000,-1,-1,-1,-1,180,-1,4,-1,-1,160,220,,5000,0,1,3,FEW 15   BKN 30   BKN 50,1,1,-1,1,1024,RJOH 270600Z 18004KT 160V220 5000 -SHSN FEW015 BKN030 BKN050     01/M01 Q1024 RMK 1CU015 5CU030 7SC050 A3024 VIS W-N 8KM=,- SN SH
20180127_060000.002,0,RJOH,,,,0,20180127060000,-1,-1,-1,-1,180,-1,4,-1,-1,160,220,,5000,0,1,3,FEW 15   BKN 30   BKN 50,1,1,-1,1,1024,RJOH 270600Z 18004KT 160V220 5000 -SHSN FEW015 BKN030 BKN050     01/M01 Q1024 RMK 1CU015 5CU030 7SC050 A3024 VIS W-N 8KM=,- SN SH
20180127_070000.000,0,RJOH,,,,0,20180127070000,-1,-1,-1,-1,170,-1,6,-1,-1,-1,-1,,8000,0,1,3,FEW 15   BKN 30   BKN 50,1,1,-1,1,1023,RJOH 270700Z 17006KT 8000 -SHSN FEW015 BKN030 BKN050 01/M01     Q1023 RMK 1CU015 5CU030 7SC050 A3023=,- SN SH
20180127_070000.002,0,RJOH,,,,0,20180127070000,-1,-1,-1,-1,170,-1,6,-1,-1,-1,-1,,8000,0,1,3,FEW 15   BKN 30   BKN 50,1,1,-1,1,1023,RJOH 270700Z 17006KT 8000 -SHSN FEW015 BKN030 BKN050 01/M01     Q1023 RMK 1CU015 5CU030 7SC050 A3023=,- SN SH
20180127_080000.000,0,RJOH,,,,0,20180127080000,-1,-1,-1,-1,250,-1,5,-1,-1,-1,-1,,8000,0,1,3,FEW 10   SCT 15   BKN 30,1,1,-1,2,1024,RJOH 270800Z 25005KT 8000 -SHSN FEW010 SCT015 BKN030 01/M02     Q1024 RMK 1CU010 3CU015 7CU030 A3024 VIS W-N 5KM=,- SN SH
20180127_080000.002,0,RJOH,,,,0,20180127080000,-1,-1,-1,-1,250,-1,5,-1,-1,-1,-1,,8000,0,1,3,FEW 10   SCT 15   BKN 30,1,1,-1,2,1024,RJOH 270800Z 25005KT 8000 -SHSN FEW010 SCT015 BKN030 01/M02     Q1024 RMK 1CU010 3CU015 7CU030 A3024 VIS W-N 5KM=,- SN SH
20180127_090000.000,0,RJOH,,,,0,20180127090000,-1,-1,-1,-1,210,-1,4,-1,-1,-1,-1,,9999,0,1,3,FEW 15   BKN 30   BKN 50,1,1,-1,1,1024,RJOH 270900Z 21004KT 9999 -SHSN FEW015 BKN030 BKN050 01/M01     Q1024 RMK 1CU015 5CU030 7SC050 A3024=,- SN SH
20180127_090000.003,0,RJOH,,,,0,20180127090000,-1,-1,-1,-1,210,-1,4,-1,-1,-1,-1,,9999,0,1,3,FEW 15   BKN 30   BKN 50,1,1,-1,1,1024,RJOH 270900Z 21004KT 9999 -SHSN FEW015 BKN030 BKN050 01/M01     Q1024 RMK 1CU015 5CU030 7SC050 A3024=,- SN SH
20180127_100000.000,0,RJOH,,,,0,20180127100000,-1,-1,-1,-1,999,-1,2,-1,-1,-1,-1,,9999,0,0,3,FEW 5   BKN 30   BKN 50,1,1,-1,2,1024,RJOH 271000Z VRB02KT 9999 FEW005 BKN030 BKN050 01/M02 Q1024 RMK     1CU005 5CU030 6SC050 A3024=,
20180127_100000.002,0,RJOH,,,,0,20180127100000,-1,-1,-1,-1,999,-1,2,-1,-1,-1,-1,,9999,0,0,3,FEW 5   BKN 30   BKN 50,1,1,-1,2,1024,RJOH 271000Z VRB02KT 9999 FEW005 BKN030 BKN050 01/M02 Q1024     RMK 1CU005 5CU030 6SC050 A3024=,
20180127_110000.000,0,RJOH,,,,0,20180127110000,-1,-1,-1,-1,999,-1,1,-1,-1,-1,-1,,9999,0,0,3,FEW 15   BKN 30   BKN 50,1,0,-1,2,1023,RJOH 271100Z VRB01KT 9999 FEW015 BKN030 BKN050 00/M02 Q1023 RMK     1CU015 6CU030 7SC050 A3024=,
20180127_110000.002,0,RJOH,,,,0,20180127110000,-1,-1,-1,-1,999,-1,1,-1,-1,-1,-1,,9999,0,0,3,FEW 15   BKN 30   BKN 50,1,0,-1,2,1023,RJOH 271100Z VRB01KT 9999 FEW015 BKN030 BKN050 00/M02 Q1023     RMK 1CU015 6CU030 7SC050 A3024=,
20180127_120000.000,0,RJOH,,,,0,20180127120000,-1,-1,-1,-1,999,-1,1,-1,-1,-1,-1,,9999,0,0,3,FEW 15   BKN 30   BKN 50,1,1,-1,2,1023,RJOH 271200Z VRB01KT 9999 FEW015 BKN030 BKN050 01/M02 Q1023 RMK     1CU015 6CU030 7SC050 A3022=,
20180127_120000.002,0,RJOH,,,,0,20180127120000,-1,-1,-1,-1,999,-1,1,-1,-1,-1,-1,,9999,0,0,3,FEW 15   BKN 30   BKN 50,1,1,-1,2,1023,RJOH 271200Z VRB01KT 9999 FEW015 BKN030 BKN050 01/M02 Q1023     RMK 1CU015 6CU030 7SC050 A3022=,
20180127_130000.000,0,RJOH,,,,0,20180127130000,-1,-1,-1,-1,220,-1,3,-1,-1,-1,-1,,9999,0,0,3,FEW 15   BKN 30   BKN 50,1,1,-1,2,1023,RJOH 271300Z 22003KT 9999 FEW015 BKN030 BKN050 01/M02 Q1023 RMK     1CU015 5CU030 7SC050 A3023=,
20180127_130000.002,0,RJOH,,,,0,20180127130000,-1,-1,-1,-1,220,-1,3,-1,-1,-1,-1,,9999,0,0,3,FEW 15   BKN 30   BKN 50,1,1,-1,2,1023,RJOH 271300Z 22003KT 9999 FEW015 BKN030 BKN050 01/M02 Q1023     RMK 1CU015 5CU030 7SC050 A3023=,
20180127_140000.000,0,RJOH,,,,0,20180127140000,-1,-1,-1,-1,180,-1,3,-1,-1,-1,-1,,9999,0,0,3,FEW 15   BKN 30   BKN 50,1,1,-1,1,1023,RJOH 271400Z 18003KT 9999 FEW015 BKN030 BKN050 01/M01 Q1023 RMK     1CU015 6CU030 7SC050 A3022=,
20180127_140000.003,0,RJOH,,,,0,20180127140000,-1,-1,-1,-1,180,-1,3,-1,-1,-1,-1,,9999,0,0,3,FEW 15   BKN 30   BKN 50,1,1,-1,1,1023,RJOH 271400Z 18003KT 9999 FEW015 BKN030 BKN050 01/M01 Q1023     RMK 1CU015 6CU030 7SC050 A3022=,
20180127_150000.000,0,RJOH,,,,0,20180127150000,-1,-1,-1,-1,999,-1,2,-1,-1,-1,-1,,9999,0,0,3,FEW 5   BKN 30   BKN 50,1,1,-1,2,1022,RJOH 271500Z VRB02KT 9999 FEW005 BKN030 BKN050 01/M02 Q1022 RMK     1ST005 5CU030 7SC050 A3021=,
20180127_150000.002,0,RJOH,,,,0,20180127150000,-1,-1,-1,-1,999,-1,2,-1,-1,-1,-1,,9999,0,0,3,FEW 5   BKN 30   BKN 50,1,1,-1,2,1022,RJOH 271500Z VRB02KT 9999 FEW005 BKN030 BKN050 01/M02 Q1022     RMK 1ST005 5CU030 7SC050 A3021=,
20180127_160000.000,0,RJOH,,,,0,20180127160000,-1,-1,-1,-1,999,-1,1,-1,-1,-1,-1,,9999,0,0,3,FEW 10   SCT 30   BKN 45,1,0,-1,2,1022,RJOH 271600Z VRB01KT 9999 FEW010 SCT030 BKN045 00/M02 Q1022 RMK     1CU010 3CU030 7SC045 A3019=,
20180127_160000.002,0,RJOH,,,,0,20180127160000,-1,-1,-1,-1,999,-1,1,-1,-1,-1,-1,,9999,0,0,3,FEW 10   SCT 30   BKN 45,1,0,-1,2,1022,RJOH 271600Z VRB01KT 9999 FEW010 SCT030 BKN045 00/M02 Q1022     RMK 1CU010 3CU030 7SC045 A3019=,
20180127_170000.000,0,RJOH,,,,0,20180127170000,-1,-1,-1,-1,160,-1,6,-1,-1,-1,-1,,9999,0,0,3,FEW 5   SCT 45   BKN 150,1,0,-1,3,1021,RJOH 271700Z 16006KT 9999 FEW005 SCT045 BKN150 00/M03 Q1021 RMK     1ST005 3SC045 7AC150 A3017=,
20180127_170000.002,0,RJOH,,,,0,20180127170000,-1,-1,-1,-1,160,-1,6,-1,-1,-1,-1,,9999,0,0,3,FEW 5   SCT 45   BKN 150,1,0,-1,3,1021,RJOH 271700Z 16006KT 9999 FEW005 SCT045 BKN150 00/M03 Q1021     RMK 1ST005 3SC045 7AC150 A3017=,
20180127_180000.000,0,RJOH,,,,0,20180127180000,-1,-1,-1,-1,190,-1,3,-1,-1,-1,-1,,9999,0,0,3,FEW 5   SCT 45   BKN 150,-1,0,-1,4,1021,RJOH 271800Z 19003KT 9999 FEW005 SCT045 BKN150 M00/M04 Q1021     RMK 1ST005 3SC045 7AC150 A3016=,
20180127_180000.002,0,RJOH,,,,0,20180127180000,-1,-1,-1,-1,190,-1,3,-1,-1,-1,-1,,9999,0,0,3,FEW 5   SCT 45   BKN 150,-1,0,-1,4,1021,RJOH 271800Z 19003KT 9999 FEW005 SCT045 BKN150 M00/M04 Q1021     RMK 1ST005 3SC045 7AC150 A3016=,
20180127_190000.000,0,RJOH,,,,0,20180127190000,-1,-1,-1,-1,200,-1,4,-1,-1,-1,-1,,100,1,1,1,VV 1,-1,1,-1,3,1020,RJOH 271900Z 20004KT 0100 R25/P1800N FG VV001 M01/M03 Q1020 RMK     A3014 VIS E-S 8KM=,FG
20180127_190000.002,0,RJOH,,,,0,20180127190000,-1,-1,-1,-1,200,-1,4,-1,-1,-1,-1,,100,1,1,1,VV 1,-1,1,-1,3,1020,RJOH 271900Z 20004KT 0100 R25/P1800N FG VV001 M01/M03 Q1020     RMK A3014 VIS E-S 8KM=,FG
20180127_200000.000,0,RJOH,,,,0,20180127200000,-1,-1,-1,-1,180,-1,3,-1,-1,-1,-1,,100,1,1,2,SCT 0   BKN 3,-1,1,-1,3,1020,RJOH 272000Z 18003KT 0100 R25/0650V1600U FG SCT000 BKN003     M01/M03 Q1020 RMK 4ST000 7ST003 A3012 R0800 VIS S-SW 800M=,FG
20180127_200000.002,0,RJOH,,,,0,20180127200000,-1,-1,-1,-1,180,-1,3,-1,-1,-1,-1,,100,1,1,2,SCT 0   BKN 3,-1,1,-1,3,1020,RJOH 272000Z 18003KT 0100 R25/0650V1600U FG SCT000 BKN003     M01/M03 Q1020 RMK 4ST000 7ST003 A3012 R0800 VIS S-SW           800M=,FG
20180127_210000.000,0,RJOH,,,,0,20180127210000,-1,-1,-1,-1,180,-1,5,-1,-1,-1,-1,,9999,0,0,3,FEW 50   SCT 100   BKN 120,-1,1,-1,4,1020,RJOH 272100Z 18005KT 9999 FEW050 SCT100 BKN120 M01/M04 Q1020     RMK 1SC050 3AC100 7AC120 A3012 03/M01 R001 S000 SD003=,
20180127_210000.002,0,RJOH,,,,0,20180127210000,-1,-1,-1,-1,180,-1,5,-1,-1,-1,-1,,9999,0,0,3,FEW 50   SCT 100   BKN 120,-1,1,-1,4,1020,RJOH 272100Z 18005KT 9999 FEW050 SCT100 BKN120 M01/M04 Q1020     RMK 1SC050 3AC100 7AC120 A3012 03/M01 R001 S000 SD003=,
20180127_220000.000,0,RJOH,,,,0,20180127220000,-1,-1,-1,-1,999,-1,1,-1,-1,-1,-1,,9999,0,0,3,FEW 3   SCT 70   BKN 90,-1,0,-1,4,1019,RJOH 272200Z VRB01KT 9999 FEW003 SCT070 BKN090 M00/M04 Q1019     RMK 1ST003 3AC070 7AC090 A3010=,
20180127_220000.002,0,RJOH,,,,0,20180127220000,-1,-1,-1,-1,999,-1,1,-1,-1,-1,-1,,9999,0,0,3,FEW 3   SCT 70   BKN 90,-1,0,-1,4,1019,RJOH 272200Z VRB01KT 9999 FEW003 SCT070 BKN090 M00/M04 Q1019     RMK 1ST003 3AC070 7AC090 A3010=,
20180127_230000.000,0,RJOH,,,,0,20180127230000,-1,-1,-1,-1,190,-1,5,-1,-1,-1,-1,,9999,0,0,3,FEW 50   SCT 60   BKN 80,1,0,-1,4,1019,RJOH 272300Z 19005KT 9999 FEW050 SCT060 BKN080 00/M04 Q1019 RMK     1SC050 3SC060 7AC080 A3009=,
20180127_230000.002,0,RJOH,,,,0,20180127230000,-1,-1,-1,-1,190,-1,5,-1,-1,-1,-1,,9999,0,0,3,FEW 50   SCT 60   BKN 80,1,0,-1,4,1019,RJOH 272300Z 19005KT 9999 FEW050 SCT060 BKN080 00/M04 Q1019     RMK 1SC050 3SC060 7AC080 A3009=,
20180128_000000.000,0,RJOH,,,,0,20180128000000,-1,-1,-1,-1,190,-1,5,-1,-1,-1,-1,,9999,0,0,3,FEW 50   SCT 60   BKN 80,1,2,-1,4,1018,RJOH 280000Z 19005KT 9999 FEW050 SCT060 BKN080 02/M04 Q1018 RMK     1SC050 3SC060 7AC080 A3007=,
20180128_000000.003,0,RJOH,,,,0,20180128000000,-1,-1,-1,-1,190,-1,5,-1,-1,-1,-1,,9999,0,0,3,FEW 50   SCT 60   BKN 80,1,2,-1,4,1018,RJOH 280000Z 19005KT 9999 FEW050 SCT060 BKN080 02/M04 Q1018     RMK 1SC050 3SC060 7AC080 A3007=,
20180128_010000.000,0,RJOH,,,,0,20180128010000,-1,-1,-1,-1,190,-1,8,-1,-1,-1,-1,,9999,0,0,3,FEW 40   SCT 45   BKN 70,1,3,-1,3,1017,RJOH 280100Z 19008KT 9999 FEW040 SCT045 BKN070 03/M03 Q1017 RMK     1SC040 3SC045 7AC070 A3005=,
20180128_010000.002,0,RJOH,,,,0,20180128010000,-1,-1,-1,-1,190,-1,8,-1,-1,-1,-1,,9999,0,0,3,FEW 40   SCT 45   BKN 70,1,3,-1,3,1017,RJOH 280100Z 19008KT 9999 FEW040 SCT045 BKN070 03/M03 Q1017     RMK 1SC040 3SC045 7AC070 A3005=,
20180128_020000.000,0,RJOH,,,,0,20180128020000,-1,-1,-1,-1,190,-1,9,-1,-1,-1,-1,,9999,0,0,2,FEW 45   BKN 110,1,4,-1,3,1016,RJOH 280200Z 19009KT 9999 FEW045 BKN110 04/M03 Q1016 RMK 1SC045     5AC110 A3001=,
20180128_020000.002,0,RJOH,,,,0,20180128020000,-1,-1,-1,-1,190,-1,9,-1,-1,-1,-1,,9999,0,0,2,FEW 45   BKN 110,1,4,-1,3,1016,RJOH 280200Z 19009KT 9999 FEW045 BKN110 04/M03 Q1016 RMK     1SC045 5AC110 A3001=,
20180128_030000.000,0,RJOH,,,,0,20180128030000,-1,-1,-1,-1,200,-1,10,-1,-1,-1,-1,,9999,0,0,3,FEW 20   SCT 35   BKN 110,1,5,-1,3,1015,RJOH 280300Z 20010KT 9999 FEW020 SCT035 BKN110 05/M03 Q1015 RMK     1CU020 3CU035 7AC110 A2998=,
20180128_030000.002,0,RJOH,,,,0,20180128030000,-1,-1,-1,-1,200,-1,10,-1,-1,-1,-1,,9999,0,0,3,FEW 20   SCT 35   BKN 110,1,5,-1,3,1015,RJOH 280300Z 20010KT 9999 FEW020 SCT035 BKN110 05/M03 Q1015     RMK 1CU020 3CU035 7AC110 A2998=,
20180128_040000.000,0,RJOH,,,,0,20180128040000,-1,-1,-1,-1,280,-1,15,-1,-1,-1,-1,,9999,0,1,3,FEW 15   SCT 20   BKN 35,1,4,-1,1,1014,RJOH 280400Z 28015KT 9999 -RA FEW015 SCT020 BKN035 04/M01 Q1014     RMK 1CU015 3CU020 5CU035 A2997=,- RA
20180128_040000.002,0,RJOH,,,,0,20180128040000,-1,-1,-1,-1,280,-1,15,-1,-1,-1,-1,,9999,0,1,3,FEW 15   SCT 20   BKN 35,1,4,-1,1,1014,RJOH 280400Z 28015KT 9999 -RA FEW015 SCT020 BKN035 04/M01     Q1014 RMK 1CU015 3CU020 5CU035 A2997=,- RA
20180128_050000.000,0,RJOH,,,,0,20180128050000,-1,-1,-1,-1,260,-1,10,-1,-1,-1,-1,,9999,0,1,3,FEW 15   SCT 20   BKN 35,1,2,-1,0,1014,RJOH 280500Z 26010KT 9999 -RA FEW015 SCT020 BKN035 02/M00 Q1014     RMK 1CU015 3CU020 7CU035 A2996=,- RA
20180128_050000.002,0,RJOH,,,,0,20180128050000,-1,-1,-1,-1,260,-1,10,-1,-1,-1,-1,,9999,0,1,3,FEW 15   SCT 20   BKN 35,1,2,-1,0,1014,RJOH 280500Z 26010KT 9999 -RA FEW015 SCT020 BKN035 02/M00     Q1014 RMK 1CU015 3CU020 7CU035 A2996=,- RA
20180128_060000.000,0,RJOH,,,,0,20180128060000,-1,-1,-1,-1,260,-1,6,-1,-1,-1,-1,,9999,0,1,3,FEW 8   SCT 15   BKN 20,1,2,-1,0,1014,RJOH 280600Z 26006KT 9999 -SHRA FEW008 SCT015 BKN020 02/M00     Q1014 RMK 1CU008 3CU015 5CU020 A2996=,- RA SH
20180128_060000.002,0,RJOH,,,,0,20180128060000,-1,-1,-1,-1,260,-1,6,-1,-1,-1,-1,,9999,0,1,3,FEW 8   SCT 15   BKN 20,1,2,-1,0,1014,RJOH 280600Z 26006KT 9999 -SHRA FEW008 SCT015 BKN020 02/M00     Q1014 RMK 1CU008 3CU015 5CU020 A2996=,- RA SH
20180128_070000.000,0,RJOH,,,,0,20180128070000,-1,-1,-1,-1,260,-1,6,-1,-1,230,290,,8000,0,1,3,FEW 6   BKN 15   BKN 20,1,2,-1,0,1014,RJOH 280700Z 26006KT 230V290 8000 -SHRA FEW006 BKN015 BKN020     02/M00 Q1014 RMK 1CU006 5CU015 7CU020 A2996=,- RA SH
20180128_070000.003,0,RJOH,,,,0,20180128070000,-1,-1,-1,-1,260,-1,6,-1,-1,230,290,,8000,0,1,3,FEW 6   BKN 15   BKN 20,1,2,-1,0,1014,RJOH 280700Z 26006KT 230V290 8000 -SHRA FEW006 BKN015 BKN020     02/M00 Q1014 RMK 1CU006 5CU015 7CU020 A2996=,- RA SH
20180128_080000.000,0,RJOH,,,,0,20180128080000,-1,-1,-1,-1,250,-1,7,-1,-1,-1,-1,,8000,0,1,3,FEW 6   BKN 15   BKN 20,1,2,1,0,1014,RJOH 280800Z 25007KT 8000 -SHRA FEW006 BKN015 BKN020 02/00     Q1014 RMK 1CU006 6CU015 7CU020 A2996=,- RA SH
20180128_080000.002,0,RJOH,,,,0,20180128080000,-1,-1,-1,-1,250,-1,7,-1,-1,-1,-1,,8000,0,1,3,FEW 6   BKN 15   BKN 20,1,2,1,0,1014,RJOH 280800Z 25007KT 8000 -SHRA FEW006 BKN015 BKN020 02/00     Q1014 RMK 1CU006 6CU015 7CU020 A2996=,- RA SH
20180128_090000.000,0,RJOH,,,,0,20180128090000,-1,-1,-1,-1,250,-1,8,-1,-1,-1,-1,,9999,0,1,3,FEW 8   SCT 15   BKN 20,1,2,1,0,1014,RJOH 280900Z 25008KT 9999 -SHRA FEW008 SCT015 BKN020 02/00     Q1014 RMK 1CU008 4CU015 6CU020 A2996=,- RA SH
20180128_090000.002,0,RJOH,,,,0,20180128090000,-1,-1,-1,-1,250,-1,8,-1,-1,-1,-1,,9999,0,1,3,FEW 8   SCT 15   BKN 20,1,2,1,0,1014,RJOH 280900Z 25008KT 9999 -SHRA FEW008 SCT015 BKN020 02/00     Q1014 RMK 1CU008 4CU015 6CU020 A2996=,- RA SH
20180128_100000.000,0,RJOH,,,,0,20180128100000,-1,-1,-1,-1,240,-1,7,-1,-1,-1,-1,,9999,0,1,3,FEW 15   SCT 20   BKN 35,1,2,-1,0,1015,RJOH 281000Z 24007KT 9999 -SHRA FEW015 SCT020 BKN035 02/M00     Q1015 RMK 1CU015 4CU020 6CU035 A2998=,- RA SH
20180128_100000.002,0,RJOH,,,,0,20180128100000,-1,-1,-1,-1,240,-1,7,-1,-1,-1,-1,,9999,0,1,3,FEW 15   SCT 20   BKN 35,1,2,-1,0,1015,RJOH 281000Z 24007KT 9999 -SHRA FEW015 SCT020 BKN035 02/M00     Q1015 RMK 1CU015 4CU020 6CU035 A2998=,- RA SH
20180128_110000.000,0,RJOH,,,,0,20180128110000,-1,-1,-1,-1,240,-1,5,-1,-1,-1,-1,,9999,0,0,3,FEW 20   SCT 35   BKN 50,1,2,-1,0,1015,RJOH 281100Z 24005KT 9999 FEW020 SCT035 BKN050 02/M00 Q1015 RMK     1CU020 3CU035 7SC050 A2998=,
20180128_110000.002,0,RJOH,,,,0,20180128110000,-1,-1,-1,-1,240,-1,5,-1,-1,-1,-1,,9999,0,0,3,FEW 20   SCT 35   BKN 50,1,2,-1,0,1015,RJOH 281100Z 24005KT 9999 FEW020 SCT035 BKN050 02/M00 Q1015     RMK 1CU020 3CU035 7SC050 A2998=,
20180128_120000.000,0,RJOH,,,,0,20180128120000,-1,-1,-1,-1,220,-1,9,-1,-1,-1,-1,,9999,0,0,2,FEW 35   BKN 50,1,3,-1,1,1015,RJOH 281200Z 22009KT 9999 FEW035 BKN050 03/M01 Q1015 RMK 2CU035     6SC050 A2998=,
20180128_120000.002,0,RJOH,,,,0,20180128120000,-1,-1,-1,-1,220,-1,9,-1,-1,-1,-1,,9999,0,0,2,FEW 35   BKN 50,1,3,-1,1,1015,RJOH 281200Z 22009KT 9999 FEW035 BKN050 03/M01 Q1015 RMK     2CU035 6SC050 A2998=,
20180128_130000.000,0,RJOH,,,,0,20180128130000,-1,-1,-1,-1,230,-1,6,-1,-1,-1,-1,,9999,0,0,3,FEW 30   BKN 35   BKN 50,1,3,-1,1,1015,RJOH 281300Z 23006KT 9999 FEW030 BKN035 BKN050 03/M01 Q1015 RMK     1CU030 5CU035 7SC050 A2998=,
20180128_130000.002,0,RJOH,,,,0,20180128130000,-1,-1,-1,-1,230,-1,6,-1,-1,-1,-1,,9999,0,0,3,FEW 30   BKN 35   BKN 50,1,3,-1,1,1015,RJOH 281300Z 23006KT 9999 FEW030 BKN035 BKN050 03/M01 Q1015     RMK 1CU030 5CU035 7SC050 A2998=,
20180128_140000.000,0,RJOH,,,,0,20180128140000,-1,-1,-1,-1,200,-1,5,-1,-1,-1,-1,,9999,0,0,3,FEW 30   BKN 35   BKN 50,1,2,-1,1,1015,RJOH 281400Z 20005KT 9999 FEW030 BKN035 BKN050 02/M01 Q1015 RMK     1CU030 6CU035 7SC050 A2998=,
20180128_140000.002,0,RJOH,,,,0,20180128140000,-1,-1,-1,-1,200,-1,5,-1,-1,-1,-1,,9999,0,0,3,FEW 30   BKN 35   BKN 50,1,2,-1,1,1015,RJOH 281400Z 20005KT 9999 FEW030 BKN035 BKN050 02/M01 Q1015     RMK 1CU030 6CU035 7SC050 A2998=,
20180128_150000.000,0,RJOH,,,,0,20180128150000,-1,-1,-1,-1,220,-1,3,-1,-1,190,250,,9999,0,0,3,FEW 30   SCT 35   BKN 50,1,3,-1,2,1014,RJOH 281500Z 22003KT 190V250 9999 FEW030 SCT035 BKN050 03/M02     Q1014 RMK 1CU030 4CU035 7SC050 A2996=,
20180128_150000.002,0,RJOH,,,,0,20180128150000,-1,-1,-1,-1,220,-1,3,-1,-1,190,250,,9999,0,0,3,FEW 30   SCT 35   BKN 50,1,3,-1,2,1014,RJOH 281500Z 22003KT 190V250 9999 FEW030 SCT035 BKN050 03/M02     Q1014 RMK 1CU030 4CU035 7SC050 A2996=,
20180128_160000.000,0,RJOH,,,,0,20180128160000,-1,-1,-1,-1,210,-1,8,-1,-1,-1,-1,,9999,0,0,3,FEW 30   SCT 35   BKN 50,1,3,-1,2,1014,RJOH 281600Z 21008KT 9999 FEW030 SCT035 BKN050 03/M02 Q1014 RMK     1CU030 3CU035 7SC050 A2995=,
20180128_160000.002,0,RJOH,,,,0,20180128160000,-1,-1,-1,-1,210,-1,8,-1,-1,-1,-1,,9999,0,0,3,FEW 30   SCT 35   BKN 50,1,3,-1,2,1014,RJOH 281600Z 21008KT 9999 FEW030 SCT035 BKN050 03/M02 Q1014     RMK 1CU030 3CU035 7SC050 A2995=,
20180128_170000.000,0,RJOH,,,,0,20180128170000,-1,-1,-1,-1,220,-1,8,-1,-1,-1,-1,,9999,0,0,3,FEW 30   SCT 35   BKN 50,1,3,-1,2,1014,RJOH 281700Z 22008KT 9999 FEW030 SCT035 BKN050 03/M02 Q1014 RMK     1CU030 3CU035 7SC050 A2995=,
20180128_170000.002,0,RJOH,,,,0,20180128170000,-1,-1,-1,-1,220,-1,8,-1,-1,-1,-1,,9999,0,0,3,FEW 30   SCT 35   BKN 50,1,3,-1,2,1014,RJOH 281700Z 22008KT 9999 FEW030 SCT035 BKN050 03/M02 Q1014     RMK 1CU030 3CU035 7SC050 A2995=,
20180128_180000.000,0,RJOH,,,,0,20180128180000,-1,-1,-1,-1,270,-1,10,-1,-1,-1,-1,,9999,0,0,3,FEW 20   SCT 35   BKN 50,1,3,-1,5,1014,RJOH 281800Z 27010KT 9999 FEW020 SCT035 BKN050 03/M05 Q1014 RMK     1CU020 3CU035 7SC050 A2995=,
20180128_180000.002,0,RJOH,,,,0,20180128180000,-1,-1,-1,-1,270,-1,10,-1,-1,-1,-1,,9999,0,0,3,FEW 20   SCT 35   BKN 50,1,3,-1,5,1014,RJOH 281800Z 27010KT 9999 FEW020 SCT035 BKN050 03/M05 Q1014     RMK 1CU020 3CU035 7SC050 A2995=,
20180128_190000.000,0,RJOH,,,,0,20180128190000,-1,-1,-1,-1,280,-1,7,-1,-1,-1,-1,,9999,0,0,2,FEW 35   BKN 50,1,3,-1,7,1014,RJOH 281900Z 28007KT 9999 FEW035 BKN050 03/M07 Q1014 RMK 2CU035     7SC050 A2995=,
20180128_190000.002,0,RJOH,,,,0,20180128190000,-1,-1,-1,-1,280,-1,7,-1,-1,-1,-1,,9999,0,0,2,FEW 35   BKN 50,1,3,-1,7,1014,RJOH 281900Z 28007KT 9999 FEW035 BKN050 03/M07 Q1014 RMK     2CU035 7SC050 A2995=,
20180128_200000.000,0,RJOH,,,,0,20180128200000,-1,-1,-1,-1,240,-1,8,-1,-1,-1,-1,,9999,0,0,2,FEW 35   BKN 50,1,3,-1,6,1014,RJOH 282000Z 24008KT 9999 FEW035 BKN050 03/M06 Q1014 RMK 1CU035     7SC050 A2995=,
20180128_200000.002,0,RJOH,,,,0,20180128200000,-1,-1,-1,-1,240,-1,8,-1,-1,-1,-1,,9999,0,0,2,FEW 35   BKN 50,1,3,-1,6,1014,RJOH 282000Z 24008KT 9999 FEW035 BKN050 03/M06 Q1014 RMK     1CU035 7SC050 A2995=,
20180128_210000.000,0,RJOH,,,,0,20180128210000,-1,-1,-1,-1,230,-1,10,-1,-1,-1,-1,,9999,0,0,3,FEW 30   SCT 35   BKN 45,1,3,-1,5,1013,RJOH 282100Z 23010KT 9999 FEW030 SCT035 BKN045 03/M05 Q1013 RMK     1CU030 3CU035 7SC045 A2994 05/02 R002=,
20180128_210000.002,0,RJOH,,,,0,20180128210000,-1,-1,-1,-1,230,-1,10,-1,-1,-1,-1,,9999,0,0,3,FEW 30   SCT 35   BKN 45,1,3,-1,5,1013,RJOH 282100Z 23010KT 9999 FEW030 SCT035 BKN045 03/M05 Q1013     RMK 1CU030 3CU035 7SC045 A2994 05/02 R002=,
20180128_220000.000,0,RJOH,,,,0,20180128220000,-1,-1,-1,-1,240,-1,9,-1,-1,-1,-1,,9999,0,0,3,FEW 20   SCT 35   BKN 50,1,3,-1,5,1014,RJOH 282200Z 24009KT 9999 FEW020 SCT035 BKN050 03/M05 Q1014 RMK     1CU020 3CU035 7SC050 A2997=,
20180128_220000.003,0,RJOH,,,,0,20180128220000,-1,-1,-1,-1,240,-1,9,-1,-1,-1,-1,,9999,0,0,3,FEW 20   SCT 35   BKN 50,1,3,-1,5,1014,RJOH 282200Z 24009KT 9999 FEW020 SCT035 BKN050 03/M05 Q1014     RMK 1CU020 3CU035 7SC050 A2997=,
20180128_230000.000,0,RJOH,,,,0,20180128230000,-1,-1,-1,-1,240,-1,11,-1,-1,-1,-1,,9999,0,1,3,FEW 15   SCT 20   BKN 35,1,2,-1,6,1014,RJOH 282300Z 24011KT 9999 -SHSN FEW015 SCT020 BKN035 02/M06     Q1014 RMK 1CU015 3CU020 6CU035 A2997=,- SN SH
20180128_230000.002,0,RJOH,,,,0,20180128230000,-1,-1,-1,-1,240,-1,11,-1,-1,-1,-1,,9999,0,1,3,FEW 15   SCT 20   BKN 35,1,2,-1,6,1014,RJOH 282300Z 24011KT 9999 -SHSN FEW015 SCT020 BKN035 02/M06     Q1014 RMK 1CU015 3CU020 6CU035 A2997=,- SN SH
20180129_000000.000,0,RJOH,,,,0,20180129000000,-1,-1,-1,-1,270,-1,10,-1,-1,-1,-1,,9999,0,1,3,FEW 15   BKN 20   BKN 35,1,2,-1,5,1015,RJOH 290000Z 27010KT 9999 -SHSN FEW015 BKN020 BKN035 02/M05     Q1015 RMK 1CU015 5CU020 7CU035 A2998 VIS SE 8KM=,- SN SH
20180129_000000.003,0,RJOH,,,,0,20180129000000,-1,-1,-1,-1,270,-1,10,-1,-1,-1,-1,,9999,0,1,3,FEW 15   BKN 20   BKN 35,1,2,-1,5,1015,RJOH 290000Z 27010KT 9999 -SHSN FEW015 BKN020 BKN035 02/M05     Q1015 RMK 1CU015 5CU020 7CU035 A2998 VIS SE 8KM=,- SN SH
20180129_010000.000,0,RJOH,,,,0,20180129010000,-1,-1,-1,-1,250,-1,11,-1,-1,-1,-1,,9999,0,1,3,FEW 8   SCT 20   BKN 35,1,2,-1,3,1015,RJOH 290100Z 25011KT 9999 -SHSN FEW008 SCT020 BKN035 02/M03     Q1015 RMK 1CU008 4CU020 7CU035 A3000 VIS N 4000M=,- SN SH
20180129_010000.002,0,RJOH,,,,0,20180129010000,-1,-1,-1,-1,250,-1,11,-1,-1,-1,-1,,9999,0,1,3,FEW 8   SCT 20   BKN 35,1,2,-1,3,1015,RJOH 290100Z 25011KT 9999 -SHSN FEW008 SCT020 BKN035 02/M03     Q1015 RMK 1CU008 4CU020 7CU035 A3000 VIS N 4000M=,- SN SH
20180129_020000.000,0,RJOH,,,,0,20180129020000,-1,-1,-1,-1,260,-1,15,-1,-1,-1,-1,,9999,0,0,3,FEW 20   SCT 35   BKN 50,1,3,-1,7,1015,RJOH 290200Z 26015KT 9999 FEW020 SCT035 BKN050 03/M07 Q1015 RMK     1CU020 3CU035 6SC050 A2999=,
20180129_020000.002,0,RJOH,,,,0,20180129020000,-1,-1,-1,-1,260,-1,15,-1,-1,-1,-1,,9999,0,0,3,FEW 20   SCT 35   BKN 50,1,3,-1,7,1015,RJOH 290200Z 26015KT 9999 FEW020 SCT035 BKN050 03/M07 Q1015     RMK 1CU020 3CU035 6SC050 A2999=,
20180129_030000.000,0,RJOH,,,,0,20180129030000,-1,-1,-1,-1,250,-1,18,-1,-1,-1,-1,,9999,0,1,3,FEW 15   BKN 35   BKN 50,1,4,-1,6,1015,RJOH 290300Z 25018KT 9999 -SHSN FEW015 BKN035 BKN050 04/M06     Q1015 RMK 1CU015 5CU035 7SC050 A2998=,- SN SH
20180129_030000.002,0,RJOH,,,,0,20180129030000,-1,-1,-1,-1,250,-1,18,-1,-1,-1,-1,,9999,0,1,3,FEW 15   BKN 35   BKN 50,1,4,-1,6,1015,RJOH 290300Z 25018KT 9999 -SHSN FEW015 BKN035 BKN050 04/M06     Q1015 RMK 1CU015 5CU035 7SC050 A2998=,- SN SH
20180129_040000.000,0,RJOH,,,,0,20180129040000,-1,-1,-1,-1,270,-1,22,-1,33,-1,-1,,9999,0,1,3,FEW 10   BKN 35   BKN 50,1,3,-1,7,1014,RJOH 290400Z 27022G33KT 9999 -SHSN FEW010 BKN035 BKN050 03/M07     Q1014 RMK 1CU010 6CU035 7SC050 A2997=,- SN SH
20180129_040000.002,0,RJOH,,,,0,20180129040000,-1,-1,-1,-1,270,-1,22,-1,33,-1,-1,,9999,0,1,3,FEW 10   BKN 35   BKN 50,1,3,-1,7,1014,RJOH 290400Z 27022G33KT 9999 -SHSN FEW010 BKN035 BKN050 03/M07     Q1014 RMK 1CU010 6CU035 7SC050 A2997=,- SN SH
20180129_050000.000,0,RJOH,,,,0,20180129050000,-1,-1,-1,-1,260,-1,19,-1,36,-1,-1,,9999,0,1,3,FEW 10   BKN 35   BKN 50,1,2,-1,7,1014,RJOH 290500Z 26019G36KT 9999 -SHSN FEW010 BKN035 BKN050 02/M07     Q1014 RMK 1CU010 6CU035 7SC050 A2997=,- SN SH
20180129_050000.002,0,RJOH,,,,0,20180129050000,-1,-1,-1,-1,260,-1,19,-1,36,-1,-1,,9999,0,1,3,FEW 10   BKN 35   BKN 50,1,2,-1,7,1014,RJOH 290500Z 26019G36KT 9999 -SHSN FEW010 BKN035 BKN050 02/M07     Q1014 RMK 1CU010 6CU035 7SC050 A2997=,- SN SH
20180129_060000.000,0,RJOH,,,,0,20180129060000,-1,-1,-1,-1,250,-1,24,-1,-1,-1,-1,,9999,0,1,3,FEW 10   SCT 20   BKN 35,1,1,-1,8,1014,RJOH 290600Z 25024KT 9999 -SHSN FEW010 SCT020 BKN035 01/M08     Q1014 RMK 1CU010 3CU020 6CU035 A2997 MAX WIND 32KT VIS W           4000M=,- SN SH
20180129_060000.002,0,RJOH,,,,0,20180129060000,-1,-1,-1,-1,250,-1,24,-1,-1,-1,-1,,9999,0,1,3,FEW 10   SCT 20   BKN 35,1,1,-1,8,1014,RJOH 290600Z 25024KT 9999 -SHSN FEW010 SCT020 BKN035 01/M08     Q1014 RMK 1CU010 3CU020 6CU035 A2997 MAX WIND 32KT VIS W           4000M=,- SN SH
20180129_070000.000,0,RJOH,,,,0,20180129070000,-1,-1,-1,-1,250,-1,19,-1,-1,-1,-1,,3000,0,1,3,FEW 5   SCT 10   BKN 20,1,0,-1,4,1015,RJOH 290700Z 25019KT 3000 -SHSN FEW005 SCT010 BKN020 00/M04     Q1015 RMK 1CU005 3CU010 6CU020 A2999 MAX WIND 25KT VIS W           2000M 1CU005 AAL=,- SN SH
20180129_070000.002,0,RJOH,,,,0,20180129070000,-1,-1,-1,-1,250,-1,19,-1,-1,-1,-1,,3000,0,1,3,FEW 5   SCT 10   BKN 20,1,0,-1,4,1015,RJOH 290700Z 25019KT 3000 -SHSN FEW005 SCT010 BKN020 00/M04     Q1015 RMK 1CU005 3CU010 6CU020 A2999 MAX WIND 25KT VIS W           2000M 1CU005 AAL=,- SN SH
20180129_080000.000,0,RJOH,,,,0,20180129080000,-1,-1,-1,-1,270,-1,16,-1,29,-1,-1,,3500,0,1,3,FEW 8   BKN 20   BKN 30,1,0,-1,5,1016,RJOH 290800Z 27016G29KT 3500 -SHSN FEW008 BKN020 BKN030 00/M05     Q1016 RMK 2CU008 6CU020 7CU030 A3002=,- SN SH
20180129_080000.002,0,RJOH,,,,0,20180129080000,-1,-1,-1,-1,270,-1,16,-1,29,-1,-1,,3500,0,1,3,FEW 8   BKN 20   BKN 30,1,0,-1,5,1016,RJOH 290800Z 27016G29KT 3500 -SHSN FEW008 BKN020 BKN030 00/M05     Q1016 RMK 2CU008 6CU020 7CU030 A3002=,- SN SH
20180129_090000.000,0,RJOH,,,,0,20180129090000,-1,-1,-1,-1,260,-1,14,-1,-1,-1,-1,,9999,0,1,3,FEW 8   SCT 20   BKN 30,1,0,-1,6,1017,RJOH 290900Z 26014KT 9999 -SHSN FEW008 SCT020 BKN030 00/M06     Q1017 RMK 1CU008 3CU020 5CU030 A3005 MAX WIND 21KT VIS W           4000M 1CU008 AAL=,- SN SH
20180129_090000.002,0,RJOH,,,,0,20180129090000,-1,-1,-1,-1,260,-1,14,-1,-1,-1,-1,,9999,0,1,3,FEW 8   SCT 20   BKN 30,1,0,-1,6,1017,RJOH 290900Z 26014KT 9999 -SHSN FEW008 SCT020 BKN030 00/M06     Q1017 RMK 1CU008 3CU020 5CU030 A3005 MAX WIND 21KT VIS W           4000M 1CU008 AAL=,- SN SH
20180129_100000.000,0,RJOH,,,,0,20180129100000,-1,-1,-1,-1,280,-1,17,-1,-1,-1,-1,,9999,0,1,3,FEW 8   SCT 20   BKN 30,1,0,-1,9,1018,RJOH 291000Z 28017KT 9999 -SHSN FEW008 SCT020 BKN030 00/M09     Q1018 RMK 1CU008 3CU020 5CU030 A3006 MAX WIND 25KT 1CU008           AAL=,- SN SH
20180129_100000.002,0,RJOH,,,,0,20180129100000,-1,-1,-1,-1,280,-1,17,-1,-1,-1,-1,,9999,0,1,3,FEW 8   SCT 20   BKN 30,1,0,-1,9,1018,RJOH 291000Z 28017KT 9999 -SHSN FEW008 SCT020 BKN030 00/M09     Q1018 RMK 1CU008 3CU020 5CU030 A3006 MAX WIND 25KT 1CU008           AAL=,- SN SH
20180129_110000.000,0,RJOH,,,,0,20180129110000,-1,-1,-1,-1,270,-1,14,-1,-1,-1,-1,,9999,0,1,3,FEW 20   SCT 30   BKN 50,1,1,-1,10,1018,RJOH 291100Z 27014KT 9999 -SHSN FEW020 SCT030 BKN050 01/M10     Q1018 RMK 2CU020 4CU030 7SC050 A3007=,- SN SH
20180129_110000.002,0,RJOH,,,,0,20180129110000,-1,-1,-1,-1,270,-1,14,-1,-1,-1,-1,,9999,0,1,3,FEW 20   SCT 30   BKN 50,1,1,-1,10,1018,RJOH 291100Z 27014KT 9999 -SHSN FEW020 SCT030 BKN050 01/M10     Q1018 RMK 2CU020 4CU030 7SC050 A3007=,- SN SH
20180129_120000.000,0,RJOH,,,,0,20180129120000,-1,-1,-1,-1,290,-1,12,-1,-1,-1,-1,,9999,0,1,3,FEW 20   SCT 30   BKN 50,1,1,-1,9,1018,RJOH 291200Z 29012KT 9999 -SHSN FEW020 SCT030 BKN050 01/M09     Q1018 RMK 1CU020 3CU030 7SC050 A3008=,- SN SH
20180129_120000.002,0,RJOH,,,,0,20180129120000,-1,-1,-1,-1,290,-1,12,-1,-1,-1,-1,,9999,0,1,3,FEW 20   SCT 30   BKN 50,1,1,-1,9,1018,RJOH 291200Z 29012KT 9999 -SHSN FEW020 SCT030 BKN050 01/M09     Q1018 RMK 1CU020 3CU030 7SC050 A3008=,- SN SH
20180129_130000.000,0,RJOH,,,,0,20180129130000,-1,-1,-1,-1,280,-1,10,-1,-1,-1,-1,,9999,0,1,3,FEW 20   SCT 30   BKN 50,1,1,-1,9,1018,RJOH 291300Z 28010KT 9999 -SHSN FEW020 SCT030 BKN050 01/M09     Q1018 RMK 1CU020 3CU030 7SC050 A3007=,- SN SH
20180129_130000.002,0,RJOH,,,,0,20180129130000,-1,-1,-1,-1,280,-1,10,-1,-1,-1,-1,,9999,0,1,3,FEW 20   SCT 30   BKN 50,1,1,-1,9,1018,RJOH 291300Z 28010KT 9999 -SHSN FEW020 SCT030 BKN050 01/M09     Q1018 RMK 1CU020 3CU030 7SC050 A3007=,- SN SH
20180129_140000.000,0,RJOH,,,,0,20180129140000,-1,-1,-1,-1,290,-1,11,-1,-1,-1,-1,,9999,0,1,3,FEW 15   BKN 30   BKN 50,1,0,-1,9,1018,RJOH 291400Z 29011KT 9999 -SHSN FEW015 BKN030 BKN050 00/M09     Q1018 RMK 1CU015 5CU030 7SC050 A3007=,- SN SH
20180129_140000.002,0,RJOH,,,,0,20180129140000,-1,-1,-1,-1,290,-1,11,-1,-1,-1,-1,,9999,0,1,3,FEW 15   BKN 30   BKN 50,1,0,-1,9,1018,RJOH 291400Z 29011KT 9999 -SHSN FEW015 BKN030 BKN050 00/M09     Q1018 RMK 1CU015 5CU030 7SC050 A3007=,- SN SH
20180129_150000.000,0,RJOH,,,,0,20180129150000,-1,-1,-1,-1,270,-1,11,-1,-1,-1,-1,,9999,0,1,3,FEW 15   BKN 30   BKN 50,1,1,-1,8,1018,RJOH 291500Z 27011KT 9999 -SHSN FEW015 BKN030 BKN050 01/M08     Q1018 RMK 1CU015 5CU030 7SC050 A3006 VIS S 8KM=,- SN SH
20180129_150000.002,0,RJOH,,,,0,20180129150000,-1,-1,-1,-1,270,-1,11,-1,-1,-1,-1,,9999,0,1,3,FEW 15   BKN 30   BKN 50,1,1,-1,8,1018,RJOH 291500Z 27011KT 9999 -SHSN FEW015 BKN030 BKN050 01/M08     Q1018 RMK 1CU015 5CU030 7SC050 A3006 VIS S 8KM=,- SN SH
20180129_160000.000,0,RJOH,,,,0,20180129160000,-1,-1,-1,-1,300,-1,5,-1,-1,280,340,,9999,0,1,3,FEW 15   BKN 30   BKN 50,1,1,-1,9,1017,RJOH 291600Z 30005KT 280V340 9999 -SHSN FEW015 BKN030 BKN050     01/M09 Q1017 RMK 1CU015 5CU030 7SC050 A3006=,- SN SH
20180129_160000.002,0,RJOH,,,,0,20180129160000,-1,-1,-1,-1,300,-1,5,-1,-1,280,340,,9999,0,1,3,FEW 15   BKN 30   BKN 50,1,1,-1,9,1017,RJOH 291600Z 30005KT 280V340 9999 -SHSN FEW015 BKN030 BKN050     01/M09 Q1017 RMK 1CU015 5CU030 7SC050 A3006=,- SN SH
20180129_170000.000,0,RJOH,,,,0,20180129170000,-1,-1,-1,-1,250,-1,15,-1,-1,-1,-1,,8000,0,1,3,FEW 10   SCT 15   BKN 30,1,0,-1,6,1018,RJOH 291700Z 25015KT 8000 -SHSN FEW010 SCT015 BKN030 00/M06     Q1018 RMK 1CU010 3CU015 5CU030 A3008 VIS S 6KM=,- SN SH
20180129_170000.002,0,RJOH,,,,0,20180129170000,-1,-1,-1,-1,250,-1,15,-1,-1,-1,-1,,8000,0,1,3,FEW 10   SCT 15   BKN 30,1,0,-1,6,1018,RJOH 291700Z 25015KT 8000 -SHSN FEW010 SCT015 BKN030 00/M06     Q1018 RMK 1CU010 3CU015 5CU030 A3008 VIS S 6KM=,- SN SH
20180129_180000.000,0,RJOH,,,,0,20180129180000,-1,-1,-1,-1,260,-1,13,-1,-1,-1,-1,,9999,0,1,3,FEW 15   BKN 30   BKN 45,-1,0,-1,6,1018,RJOH 291800Z 26013KT 9999 -SHSN FEW015 BKN030 BKN045 M00/M06     Q1018 RMK 2CU015 5CU030 7SC045 A3008=,- SN SH
20180129_180000.002,0,RJOH,,,,0,20180129180000,-1,-1,-1,-1,260,-1,13,-1,-1,-1,-1,,9999,0,1,3,FEW 15   BKN 30   BKN 45,-1,0,-1,6,1018,RJOH 291800Z 26013KT 9999 -SHSN FEW015 BKN030 BKN045 M00/M06     Q1018 RMK 2CU015 5CU030 7SC045 A3008=,- SN SH
20180129_190000.000,0,RJOH,,,,0,20180129190000,-1,-1,-1,-1,240,-1,11,-1,-1,-1,-1,,4000,0,1,3,FEW 8   SCT 15   BKN 30,-1,0,-1,4,1019,RJOH 291900Z 24011KT 4000 -SHSN FEW008 SCT015 BKN030 M00/M04     Q1019 RMK 1CU008 3CU015 7CU030 A3010 VIS S-NW 2000M=,- SN SH
20180129_190000.002,0,RJOH,,,,0,20180129190000,-1,-1,-1,-1,240,-1,11,-1,-1,-1,-1,,4000,0,1,3,FEW 8   SCT 15   BKN 30,-1,0,-1,4,1019,RJOH 291900Z 24011KT 4000 -SHSN FEW008 SCT015 BKN030 M00/M04     Q1019 RMK 1CU008 3CU015 7CU030 A3010 VIS S-NW 2000M=,- SN SH
20180129_200000.000,0,RJOH,,,,0,20180129200000,-1,-1,-1,-1,180,-1,6,-1,-1,-1,-1,,4000,0,1,3,FEW 8   SCT 15   BKN 30,-1,1,-1,4,1019,RJOH 292000Z 18006KT 4000 -SHSN FEW008 SCT015 BKN030 M01/M04     Q1019 RMK 1CU008 4CU015 7CU030 A3011 VIS SW 6KM=,- SN SH
20180129_200000.002,0,RJOH,,,,0,20180129200000,-1,-1,-1,-1,180,-1,6,-1,-1,-1,-1,,4000,0,1,3,FEW 8   SCT 15   BKN 30,-1,1,-1,4,1019,RJOH 292000Z 18006KT 4000 -SHSN FEW008 SCT015 BKN030 M01/M04     Q1019 RMK 1CU008 4CU015 7CU030 A3011 VIS SW 6KM=,- SN SH
20180129_210000.000,0,RJOH,,,,0,20180129210000,-1,-1,-1,-1,170,-1,6,-1,-1,-1,-1,,9999,0,1,3,FEW 15   BKN 30   BKN 45,-1,1,-1,5,1019,RJOH 292100Z 17006KT 9999 -SHSN FEW015 BKN030 BKN045 M01/M05     Q1019 RMK 2CU015 6CU030 7SC045 A3011 25036KT/0440 04/M01           R000 S002 SD001=,- SN SH
20180129_210000.002,0,RJOH,,,,0,20180129210000,-1,-1,-1,-1,170,-1,6,-1,-1,-1,-1,,9999,0,1,3,FEW 15   BKN 30   BKN 45,-1,1,-1,5,1019,RJOH 292100Z 17006KT 9999 -SHSN FEW015 BKN030 BKN045 M01/M05     Q1019 RMK 2CU015 6CU030 7SC045 A3011 25036KT/0440 04/M01           R000 S002 SD001=,- SN SH
20180129_220000.000,0,RJOH,,,,0,20180129220000,-1,-1,-1,-1,200,-1,9,-1,-1,-1,-1,,9999,0,1,3,FEW 15   BKN 30   BKN 45,-1,0,-1,4,1020,RJOH 292200Z 20009KT 9999 -SHSN FEW015 BKN030 BKN045 M00/M04     Q1020 RMK 1CU015 5CU030 7SC045 A3013=,- SN SH
20180129_220000.002,0,RJOH,,,,0,20180129220000,-1,-1,-1,-1,200,-1,9,-1,-1,-1,-1,,9999,0,1,3,FEW 15   BKN 30   BKN 45,-1,0,-1,4,1020,RJOH 292200Z 20009KT 9999 -SHSN FEW015 BKN030 BKN045 M00/M04     Q1020 RMK 1CU015 5CU030 7SC045 A3013=,- SN SH
20180129_220000.005,2,RJOH,,,,0,20180129220000,-1,-1,-1,-1,200,-1,9,-1,-1,-1,-1,,9999,0,1,3,FEW 15   BKN 30   BKN 45,-1,0,-1,4,1020,RJOH 292200Z 20009KT 9999 -SHSN FEW015 BKN030 BKN045     M00/M04 Q1020 RMK 1CU015 5CU030 7SC045 A3013=,- SN SH
20180129_230000.000,0,RJOH,,,,0,20180129230000,-1,-1,-1,-1,220,-1,12,-1,-1,-1,-1,,6000,0,1,3,FEW 8   SCT 15   BKN 30,1,0,-1,4,1020,RJOH 292300Z 22012KT 6000 -SHSN FEW008 SCT015 BKN030 00/M04     Q1020 RMK 1CU008 3CU015 7CU030 A3015 VIS S-W 3000M 1CU008           AAL=,- SN SH
20180129_230000.002,0,RJOH,,,,0,20180129230000,-1,-1,-1,-1,220,-1,12,-1,-1,-1,-1,,6000,0,1,3,FEW 8   SCT 15   BKN 30,1,0,-1,4,1020,RJOH 292300Z 22012KT 6000 -SHSN FEW008 SCT015 BKN030 00/M04     Q1020 RMK 1CU008 3CU015 7CU030 A3015 VIS S-W 3000M 1CU008           AAL=,- SN SH
20180130_000000.000,0,RJOH,,,,0,20180130000000,-1,-1,-1,-1,210,-1,14,-1,-1,-1,-1,,6000,0,1,3,FEW 5   BKN 30   BKN 50,-1,0,-1,3,1021,RJOH 300000Z 21014KT 6000 -SHSN FEW005 BKN030 BKN050 M00/M03     Q1021 RMK 1CU005 5CU030 7SC050 A3016 VIS S-SW 4000M 1CU005           AAL=,- SN SH
20180130_000000.002,0,RJOH,,,,0,20180130000000,-1,-1,-1,-1,210,-1,14,-1,-1,-1,-1,,6000,0,1,3,FEW 5   BKN 30   BKN 50,-1,0,-1,3,1021,RJOH 300000Z 21014KT 6000 -SHSN FEW005 BKN030 BKN050 M00/M03     Q1021 RMK 1CU005 5CU030 7SC050 A3016 VIS S-SW 4000M           1CU005 AAL=,- SN SH
20180130_010000.000,0,RJOH,,,,0,20180130010000,-1,-1,-1,-1,230,-1,11,-1,-1,-1,-1,,5000,0,1,3,FEW 5   SCT 8   BKN 15,1,0,-1,3,1021,RJOH 300100Z 23011KT 5000 -SHSN FEW005 SCT008 BKN015 00/M03     Q1021 RMK 1CU005 3CU008 5CU015 A3016 VIS SW-W 3000M 1CU005           AND 3CU008 AAL=,- SN SH
20180130_010000.002,0,RJOH,,,,0,20180130010000,-1,-1,-1,-1,230,-1,11,-1,-1,-1,-1,,5000,0,1,3,FEW 5   SCT 8   BKN 15,1,0,-1,3,1021,RJOH 300100Z 23011KT 5000 -SHSN FEW005 SCT008 BKN015 00/M03     Q1021 RMK 1CU005 3CU008 5CU015 A3016 VIS SW-W 3000M           1CU005 AND 3CU008 AAL=,- SN SH
20180130_020000.000,0,RJOH,,,,0,20180130020000,-1,-1,-1,-1,220,-1,13,-1,-1,-1,-1,,1500,1,1,3,FEW 4   SCT 8   BKN 15,-1,0,-1,3,1021,RJOH 300200Z 22013KT 1500 R25/P1800N -SHSN FEW004 SCT008 BKN015     M00/M03 Q1021 RMK 1CU004 4CU008 6CU015 A3016 MAX WIND 20KT           VIS N 8KM S-SW 800M 1CU004 AND 4CU008 AAL=,- SN SH
20180130_020000.002,0,RJOH,,,,0,20180130020000,-1,-1,-1,-1,220,-1,13,-1,-1,-1,-1,,1500,1,1,3,FEW 4   SCT 8   BKN 15,-1,0,-1,3,1021,RJOH 300200Z 22013KT 1500 R25/P1800N -SHSN FEW004 SCT008     BKN015 M00/M03 Q1021 RMK 1CU004 4CU008 6CU015 A3016 MAX           WIND 20KT VIS N 8KM S-SW 800M 1CU004 AND 4CU008 AAL=,- SN SH
20180130_030000.000,0,RJOH,,,,0,20180130030000,-1,-1,-1,-1,230,-1,9,-1,-1,210,280,,9999,0,1,3,FEW 5   SCT 30   BKN 50,1,3,-1,4,1020,RJOH 300300Z 23009KT 210V280 9999 -SHSN FEW005 SCT030 BKN050     03/M04 Q1020 RMK 1CU005 3CU030 7SC050 A3014 1CU005 E=,- SN SH
20180130_030000.002,0,RJOH,,,,0,20180130030000,-1,-1,-1,-1,230,-1,9,-1,-1,210,280,,9999,0,1,3,FEW 5   SCT 30   BKN 50,1,3,-1,4,1020,RJOH 300300Z 23009KT 210V280 9999 -SHSN FEW005 SCT030 BKN050     03/M04 Q1020 RMK 1CU005 3CU030 7SC050 A3014 1CU005 E=,- SN SH
20180130_040000.000,0,RJOH,,,,0,20180130040000,-1,-1,-1,-1,260,-1,16,-1,-1,-1,-1,,9999,0,1,3,FEW 15   SCT 30   BKN 50,1,4,-1,5,1020,RJOH 300400Z 26016KT 9999 -SHSN FEW015 SCT030 BKN050 04/M05     Q1020 RMK 1CU015 3CU030 7SC050 A3013 MAX WIND 22KT=,- SN SH
20180130_040000.002,0,RJOH,,,,0,20180130040000,-1,-1,-1,-1,260,-1,16,-1,-1,-1,-1,,9999,0,1,3,FEW 15   SCT 30   BKN 50,1,4,-1,5,1020,RJOH 300400Z 26016KT 9999 -SHSN FEW015 SCT030 BKN050 04/M05     Q1020 RMK 1CU015 3CU030 7SC050 A3013 MAX WIND 22KT=,- SN SH
20180130_050000.000,0,RJOH,,,,0,20180130050000,-1,-1,-1,-1,250,-1,17,-1,-1,-1,-1,,9999,0,1,3,FEW 15   SCT 30   BKN 50,1,4,-1,6,1020,RJOH 300500Z 25017KT 9999 -SHSN FEW015 SCT030 BKN050 04/M06     Q1020 RMK 1CU015 4CU030 7SC050 A3013 MAX WIND 23KT=,- SN SH
20180130_050000.002,0,RJOH,,,,0,20180130050000,-1,-1,-1,-1,250,-1,17,-1,-1,-1,-1,,9999,0,1,3,FEW 15   SCT 30   BKN 50,1,4,-1,6,1020,RJOH 300500Z 25017KT 9999 -SHSN FEW015 SCT030 BKN050 04/M06     Q1020 RMK 1CU015 4CU030 7SC050 A3013 MAX WIND 23KT=,- SN SH
20180130_060000.000,0,RJOH,,,,0,20180130060000,-1,-1,-1,-1,240,-1,11,-1,-1,200,280,,9999,0,1,3,FEW 15   BKN 30   BKN 50,1,3,-1,6,1021,RJOH 300600Z 24011KT 200V280 9999 -SHSN FEW015 BKN030 BKN050     03/M06 Q1021 RMK 1CU015 6CU030 7SC050 A3016=,- SN SH
20180130_060000.003,0,RJOH,,,,0,20180130060000,-1,-1,-1,-1,240,-1,11,-1,-1,200,280,,9999,0,1,3,FEW 15   BKN 30   BKN 50,1,3,-1,6,1021,RJOH 300600Z 24011KT 200V280 9999 -SHSN FEW015 BKN030 BKN050     03/M06 Q1021 RMK 1CU015 6CU030 7SC050 A3016=,- SN SH
20180130_070000.000,0,RJOH,,,,0,20180130070000,-1,-1,-1,-1,250,-1,16,-1,-1,-1,-1,,9999,0,1,3,FEW 15   BKN 30   BKN 50,1,3,-1,8,1021,RJOH 300700Z 25016KT 9999 -SHSN FEW015 BKN030 BKN050 03/M08     Q1021 RMK 1CU015 6CU030 7SC050 A3016 MAX WIND 24KT=,- SN SH
20180130_070000.002,0,RJOH,,,,0,20180130070000,-1,-1,-1,-1,250,-1,16,-1,-1,-1,-1,,9999,0,1,3,FEW 15   BKN 30   BKN 50,1,3,-1,8,1021,RJOH 300700Z 25016KT 9999 -SHSN FEW015 BKN030 BKN050 03/M08     Q1021 RMK 1CU015 6CU030 7SC050 A3016 MAX WIND 24KT=,- SN SH
20180130_080000.000,0,RJOH,,,,0,20180130080000,-1,-1,-1,-1,270,-1,12,-1,-1,-1,-1,,9999,0,1,3,FEW 15   BKN 30   BKN 50,1,3,-1,8,1021,RJOH 300800Z 27012KT 9999 -SHSN FEW015 BKN030 BKN050 03/M08     Q1021 RMK 1CU015 5CU030 7SC050 A3017 MAX WIND 19KT=,- SN SH
20180130_080000.002,0,RJOH,,,,0,20180130080000,-1,-1,-1,-1,270,-1,12,-1,-1,-1,-1,,9999,0,1,3,FEW 15   BKN 30   BKN 50,1,3,-1,8,1021,RJOH 300800Z 27012KT 9999 -SHSN FEW015 BKN030 BKN050 03/M08     Q1021 RMK 1CU015 5CU030 7SC050 A3017 MAX WIND 19KT=,- SN SH
20180130_090000.000,0,RJOH,,,,0,20180130090000,-1,-1,-1,-1,280,-1,13,-1,-1,-1,-1,,9999,0,1,3,FEW 15   BKN 30   BKN 50,1,2,-1,5,1023,RJOH 300900Z 28013KT 9999 -SHSN FEW015 BKN030 BKN050 02/M05     Q1023 RMK 1CU015 6CU030 7SC050 A3021 MAX WIND 20KT=,- SN SH
20180130_090000.002,0,RJOH,,,,0,20180130090000,-1,-1,-1,-1,280,-1,13,-1,-1,-1,-1,,9999,0,1,3,FEW 15   BKN 30   BKN 50,1,2,-1,5,1023,RJOH 300900Z 28013KT 9999 -SHSN FEW015 BKN030 BKN050 02/M05     Q1023 RMK 1CU015 6CU030 7SC050 A3021 MAX WIND 20KT=,- SN SH
20180130_100000.000,0,RJOH,,,,0,20180130100000,-1,-1,-1,-1,270,-1,10,-1,-1,-1,-1,,9999,0,1,3,FEW 15   BKN 30   BKN 50,1,2,-1,6,1023,RJOH 301000Z 27010KT 9999 -SHSN FEW015 BKN030 BKN050 02/M06     Q1023 RMK 1CU015 5CU030 7SC050 A3023=,- SN SH
20180130_100000.002,0,RJOH,,,,0,20180130100000,-1,-1,-1,-1,270,-1,10,-1,-1,-1,-1,,9999,0,1,3,FEW 15   BKN 30   BKN 50,1,2,-1,6,1023,RJOH 301000Z 27010KT 9999 -SHSN FEW015 BKN030 BKN050 02/M06     Q1023 RMK 1CU015 5CU030 7SC050 A3023=,- SN SH
20180130_110000.000,0,RJOH,,,,0,20180130110000,-1,-1,-1,-1,240,-1,11,-1,-1,-1,-1,,9999,0,1,3,FEW 15   BKN 30   BKN 50,1,2,-1,7,1024,RJOH 301100Z 24011KT 9999 -SHSN FEW015 BKN030 BKN050 02/M07     Q1024 RMK 1CU015 6CU030 7SC050 A3024=,- SN SH
20180130_110000.002,0,RJOH,,,,0,20180130110000,-1,-1,-1,-1,240,-1,11,-1,-1,-1,-1,,9999,0,1,3,FEW 15   BKN 30   BKN 50,1,2,-1,7,1024,RJOH 301100Z 24011KT 9999 -SHSN FEW015 BKN030 BKN050 02/M07     Q1024 RMK 1CU015 6CU030 7SC050 A3024=,- SN SH
20180130_120000.000,0,RJOH,,,,0,20180130120000,-1,-1,-1,-1,250,-1,12,-1,-1,-1,-1,,9999,0,1,3,FEW 15   BKN 30   BKN 50,1,2,-1,4,1024,RJOH 301200Z 25012KT 9999 -SHSN FEW015 BKN030 BKN050 02/M04     Q1024 RMK 1CU015 5CU030 7SC050 A3026=,- SN SH
20180130_120000.002,0,RJOH,,,,0,20180130120000,-1,-1,-1,-1,250,-1,12,-1,-1,-1,-1,,9999,0,1,3,FEW 15   BKN 30   BKN 50,1,2,-1,4,1024,RJOH 301200Z 25012KT 9999 -SHSN FEW015 BKN030 BKN050 02/M04     Q1024 RMK 1CU015 5CU030 7SC050 A3026=,- SN SH
20180130_130000.000,0,RJOH,,,,0,20180130130000,-1,-1,-1,-1,230,-1,11,-1,-1,-1,-1,,9999,0,1,3,FEW 15   BKN 30   BKN 50,1,1,-1,5,1025,RJOH 301300Z 23011KT 9999 -SHSN FEW015 BKN030 BKN050 01/M05     Q1025 RMK 1CU015 5CU030 7SC050 A3027=,- SN SH
20180130_130000.002,0,RJOH,,,,0,20180130130000,-1,-1,-1,-1,230,-1,11,-1,-1,-1,-1,,9999,0,1,3,FEW 15   BKN 30   BKN 50,1,1,-1,5,1025,RJOH 301300Z 23011KT 9999 -SHSN FEW015 BKN030 BKN050 01/M05     Q1025 RMK 1CU015 5CU030 7SC050 A3027=,- SN SH
20180130_140000.000,0,RJOH,,,,0,20180130140000,-1,-1,-1,-1,210,-1,8,-1,-1,-1,-1,,9999,0,0,2,FEW 30   BKN 50,1,1,-1,5,1025,RJOH 301400Z 21008KT 9999 FEW030 BKN050 01/M05 Q1025 RMK 2CU030     6SC050 A3027=,
20180130_140000.002,0,RJOH,,,,0,20180130140000,-1,-1,-1,-1,210,-1,8,-1,-1,-1,-1,,9999,0,0,2,FEW 30   BKN 50,1,1,-1,5,1025,RJOH 301400Z 21008KT 9999 FEW030 BKN050 01/M05 Q1025 RMK     2CU030 6SC050 A3027=,
20180130_150000.000,0,RJOH,,,,0,20180130150000,-1,-1,-1,-1,170,-1,6,-1,-1,-1,-1,,9999,0,0,2,FEW 30   BKN 50,-1,0,-1,4,1025,RJOH 301500Z 17006KT 9999 FEW030 BKN050 M00/M04 Q1025 RMK     1CU030 5SC050 A3027=,
20180130_150000.002,0,RJOH,,,,0,20180130150000,-1,-1,-1,-1,170,-1,6,-1,-1,-1,-1,,9999,0,0,2,FEW 30   BKN 50,-1,0,-1,4,1025,RJOH 301500Z 17006KT 9999 FEW030 BKN050 M00/M04 Q1025 RMK     1CU030 5SC050 A3027=,
20180130_160000.000,0,RJOH,,,,0,20180130160000,-1,-1,-1,-1,190,-1,5,-1,-1,-1,-1,,9999,0,0,2,FEW 30   BKN 50,-1,0,-1,5,1024,RJOH 301600Z 19005KT 9999 FEW030 BKN050 M00/M05 Q1024 RMK     1CU030 5SC050 A3026=,
20180130_160000.002,0,RJOH,,,,0,20180130160000,-1,-1,-1,-1,190,-1,5,-1,-1,-1,-1,,9999,0,0,2,FEW 30   BKN 50,-1,0,-1,5,1024,RJOH 301600Z 19005KT 9999 FEW030 BKN050 M00/M05 Q1024 RMK     1CU030 5SC050 A3026=,
20180130_170000.000,0,RJOH,,,,0,20180130170000,-1,-1,-1,-1,180,-1,5,-1,-1,-1,-1,,9999,0,0,2,FEW 30   BKN 50,-1,0,-1,5,1025,RJOH 301700Z 18005KT 9999 FEW030 BKN050 M00/M05 Q1025 RMK     2CU030 7SC050 A3027=,
20180130_170000.002,0,RJOH,,,,0,20180130170000,-1,-1,-1,-1,180,-1,5,-1,-1,-1,-1,,9999,0,0,2,FEW 30   BKN 50,-1,0,-1,5,1025,RJOH 301700Z 18005KT 9999 FEW030 BKN050 M00/M05 Q1025 RMK     2CU030 7SC050 A3027=,
20180130_180000.000,0,RJOH,,,,0,20180130180000,-1,-1,-1,-1,180,-1,5,-1,-1,-1,-1,,9999,0,0,2,FEW 30   BKN 50,1,0,-1,5,1025,RJOH 301800Z 18005KT 9999 FEW030 BKN050 00/M05 Q1025 RMK 1CU030     7SC050 A3028=,
20180130_180000.002,0,RJOH,,,,0,20180130180000,-1,-1,-1,-1,180,-1,5,-1,-1,-1,-1,,9999,0,0,2,FEW 30   BKN 50,1,0,-1,5,1025,RJOH 301800Z 18005KT 9999 FEW030 BKN050 00/M05 Q1025 RMK     1CU030 7SC050 A3028=,
20180130_190000.000,0,RJOH,,,,0,20180130190000,-1,-1,-1,-1,140,-1,5,-1,-1,-1,-1,,9999,0,0,2,FEW 30   BKN 50,-1,1,-1,6,1024,RJOH 301900Z 14005KT 9999 FEW030 BKN050 M01/M06 Q1024 RMK     1CU030 6SC050 A3026=,
20180130_190000.002,0,RJOH,,,,0,20180130190000,-1,-1,-1,-1,140,-1,5,-1,-1,-1,-1,,9999,0,0,2,FEW 30   BKN 50,-1,1,-1,6,1024,RJOH 301900Z 14005KT 9999 FEW030 BKN050 M01/M06 Q1024 RMK     1CU030 6SC050 A3026=,
20180130_200000.000,0,RJOH,,,,0,20180130200000,-1,-1,-1,-1,190,-1,7,-1,-1,-1,-1,,9999,0,0,2,FEW 30   BKN 50,-1,0,-1,5,1024,RJOH 302000Z 19007KT 9999 FEW030 BKN050 M00/M05 Q1024 RMK     1CU030 6SC050 A3026=,
20180130_200000.002,0,RJOH,,,,0,20180130200000,-1,-1,-1,-1,190,-1,7,-1,-1,-1,-1,,9999,0,0,2,FEW 30   BKN 50,-1,0,-1,5,1024,RJOH 302000Z 19007KT 9999 FEW030 BKN050 M00/M05 Q1024 RMK     1CU030 6SC050 A3026=,
20180130_210000.000,0,RJOH,,,,0,20180130210000,-1,-1,-1,-1,200,-1,9,-1,-1,-1,-1,,9999,0,0,2,FEW 35   BKN 50,1,0,-1,5,1024,RJOH 302100Z 20009KT 9999 FEW035 BKN050 00/M05 Q1024 RMK 1CU035     7SC050 A3025 04/M01 R001 S002=,
20180130_210000.002,0,RJOH,,,,0,20180130210000,-1,-1,-1,-1,200,-1,9,-1,-1,-1,-1,,9999,0,0,2,FEW 35   BKN 50,1,0,-1,5,1024,RJOH 302100Z 20009KT 9999 FEW035 BKN050 00/M05 Q1024 RMK     1CU035 7SC050 A3025 04/M01 R001 S002=,
20180130_220000.000,0,RJOH,,,,0,20180130220000,-1,-1,-1,-1,210,-1,5,-1,-1,-1,-1,,9999,0,0,2,FEW 35   BKN 50,1,0,-1,6,1025,RJOH 302200Z 21005KT 9999 FEW035 BKN050 00/M06 Q1025 RMK 1CU035     5SC050 A3028=,
20180130_220000.002,0,RJOH,,,,0,20180130220000,-1,-1,-1,-1,210,-1,5,-1,-1,-1,-1,,9999,0,0,2,FEW 35   BKN 50,1,0,-1,6,1025,RJOH 302200Z 21005KT 9999 FEW035 BKN050 00/M06 Q1025 RMK     1CU035 5SC050 A3028=,
20180130_230000.000,0,RJOH,,,,0,20180130230000,-1,-1,-1,-1,220,-1,7,-1,-1,-1,-1,,9999,0,0,2,FEW 30   BKN 50,1,2,-1,4,1026,RJOH 302300Z 22007KT 9999 FEW030 BKN050 02/M04 Q1026 RMK 1CU030     5SC050 A3030=,
20180130_230000.002,0,RJOH,,,,0,20180130230000,-1,-1,-1,-1,220,-1,7,-1,-1,-1,-1,,9999,0,0,2,FEW 30   BKN 50,1,2,-1,4,1026,RJOH 302300Z 22007KT 9999 FEW030 BKN050 02/M04 Q1026 RMK     1CU030 5SC050 A3030=,
20180131_000000.000,0,RJOH,,,,0,20180131000000,-1,-1,-1,-1,190,-1,10,-1,-1,-1,-1,,9999,0,1,3,FEW 20   BKN 40   BKN 50,1,2,-1,4,1026,RJOH 310000Z 19010KT 9999 -SHSN FEW020 BKN040 BKN050 02/M04     Q1026 RMK 1CU020 5CU040 7SC050 A3031=,- SN SH
20180131_000000.002,0,RJOH,,,,0,20180131000000,-1,-1,-1,-1,190,-1,10,-1,-1,-1,-1,,9999,0,1,3,FEW 20   BKN 40   BKN 50,1,2,-1,4,1026,RJOH 310000Z 19010KT 9999 -SHSN FEW020 BKN040 BKN050 02/M04     Q1026 RMK 1CU020 5CU040 7SC050 A3031=,- SN SH
20180131_010000.000,0,RJOH,,,,0,20180131010000,-1,-1,-1,-1,190,-1,10,-1,-1,-1,-1,,9999,0,1,3,FEW 15   BKN 40   BKN 50,1,4,-1,4,1026,RJOH 310100Z 19010KT 9999 -SHSN FEW015 BKN040 BKN050 04/M04     Q1026 RMK 1CU015 5CU040 7SC050 A3031=,- SN SH
20180131_010000.002,0,RJOH,,,,0,20180131010000,-1,-1,-1,-1,190,-1,10,-1,-1,-1,-1,,9999,0,1,3,FEW 15   BKN 40   BKN 50,1,4,-1,4,1026,RJOH 310100Z 19010KT 9999 -SHSN FEW015 BKN040 BKN050 04/M04     Q1026 RMK 1CU015 5CU040 7SC050 A3031=,- SN SH
20180131_020000.000,0,RJOH,,,,0,20180131020000,-1,-1,-1,-1,210,-1,8,-1,-1,180,250,,9999,0,1,3,FEW 15   BKN 40   BKN 50,1,5,-1,5,1026,RJOH 310200Z 21008KT 180V250 9999 -SHSNRA FEW015 BKN040 BKN050     05/M05 Q1026 RMK 1CU015 5CU040 7SC050 A3030=,- SN RA SH
20180131_020000.002,0,RJOH,,,,0,20180131020000,-1,-1,-1,-1,210,-1,8,-1,-1,180,250,,9999,0,1,3,FEW 15   BKN 40   BKN 50,1,5,-1,5,1026,RJOH 310200Z 21008KT 180V250 9999 -SHSNRA FEW015 BKN040 BKN050     05/M05 Q1026 RMK 1CU015 5CU040 7SC050 A3030=,- SN RA SH
20180131_030000.000,0,RJOH,,,,0,20180131030000,-1,-1,-1,-1,230,-1,11,-1,-1,-1,-1,,9999,0,0,3,FEW 20   SCT 40   BKN 50,1,7,-1,4,1025,RJOH 310300Z 23011KT 9999 FEW020 SCT040 BKN050 07/M04 Q1025 RMK     1CU020 4CU040 6SC050 A3029=,
20180131_030000.002,0,RJOH,,,,0,20180131030000,-1,-1,-1,-1,230,-1,11,-1,-1,-1,-1,,9999,0,0,3,FEW 20   SCT 40   BKN 50,1,7,-1,4,1025,RJOH 310300Z 23011KT 9999 FEW020 SCT040 BKN050 07/M04 Q1025     RMK 1CU020 4CU040 6SC050 A3029=,
20180131_040000.000,0,RJOH,,,,0,20180131040000,-1,-1,-1,-1,250,-1,16,-1,-1,-1,-1,,9999,0,1,3,FEW 30   SCT 35   BKN 50,1,7,-1,5,1024,RJOH 310400Z 25016KT 9999 VCSH FEW030 SCT035 BKN050 07/M05     Q1024 RMK 1CU030 3CU035 6SC050 A3026 MAX WIND 22KT VCSH           SE-S=,VC SH
20180131_040000.002,0,RJOH,,,,0,20180131040000,-1,-1,-1,-1,250,-1,16,-1,-1,-1,-1,,9999,0,1,3,FEW 30   SCT 35   BKN 50,1,7,-1,5,1024,RJOH 310400Z 25016KT 9999 VCSH FEW030 SCT035 BKN050 07/M05     Q1024 RMK 1CU030 3CU035 6SC050 A3026 MAX WIND 22KT VCSH           SE-S=,VC SH
20180131_050000.000,0,RJOH,,,,0,20180131050000,-1,-1,-1,-1,250,-1,16,-1,-1,-1,-1,,9999,0,0,3,FEW 35   SCT 150   BKN 230,1,8,-1,7,1023,RJOH 310500Z 25016KT 9999 FEW035 SCT150 BKN230 08/M07 Q1023 RMK     1CU035 3AC150 A3022=,
20180131_050000.002,0,RJOH,,,,0,20180131050000,-1,-1,-1,-1,250,-1,16,-1,-1,-1,-1,,9999,0,0,3,FEW 35   SCT 150   BKN 230,1,8,-1,7,1023,RJOH 310500Z 25016KT 9999 FEW035 SCT150 BKN230 08/M07 Q1023     RMK 1CU035 3AC150 A3022=,
20180131_060000.000,0,RJOH,,,,0,20180131060000,-1,-1,-1,-1,270,-1,12,-1,-1,-1,-1,,9999,0,0,3,FEW 35   SCT 50   BKN 230,1,7,-1,6,1023,RJOH 310600Z 27012KT 9999 FEW035 SCT050 BKN230 07/M06 Q1023 RMK     1CU035 3SC050 A3024=,
20180131_060000.002,0,RJOH,,,,0,20180131060000,-1,-1,-1,-1,270,-1,12,-1,-1,-1,-1,,9999,0,0,3,FEW 35   SCT 50   BKN 230,1,7,-1,6,1023,RJOH 310600Z 27012KT 9999 FEW035 SCT050 BKN230 07/M06 Q1023     RMK 1CU035 3SC050 A3024=,
20180131_070000.000,0,RJOH,,,,0,20180131070000,-1,-1,-1,-1,260,-1,13,-1,-1,-1,-1,,9999,0,0,3,FEW 30   BKN 50   BKN 230,1,7,-1,7,1024,RJOH 310700Z 26013KT 9999 FEW030 BKN050 BKN230 07/M07 Q1024 RMK     1CU030 6SC050 A3026=,
20180131_070000.003,0,RJOH,,,,0,20180131070000,-1,-1,-1,-1,260,-1,13,-1,-1,-1,-1,,9999,0,0,3,FEW 30   BKN 50   BKN 230,1,7,-1,7,1024,RJOH 310700Z 26013KT 9999 FEW030 BKN050 BKN230 07/M07 Q1024     RMK 1CU030 6SC050 A3026=,
20180131_080000.000,0,RJOH,,,,0,20180131080000,-1,-1,-1,-1,250,-1,10,-1,-1,-1,-1,,9999,0,0,2,FEW 30   BKN 230,1,6,-1,6,1025,RJOH 310800Z 25010KT 9999 FEW030 BKN230 06/M06 Q1025 RMK 1CU030     A3027=,
20180131_080000.003,0,RJOH,,,,0,20180131080000,-1,-1,-1,-1,250,-1,10,-1,-1,-1,-1,,9999,0,0,2,FEW 30   BKN 230,1,6,-1,6,1025,RJOH 310800Z 25010KT 9999 FEW030 BKN230 06/M06 Q1025 RMK     1CU030 A3027=,
20180131_090000.000,0,RJOH,,,,0,20180131090000,-1,-1,-1,-1,250,-1,8,-1,-1,-1,-1,,9999,0,0,2,FEW 50   BKN -9999,1,4,-1,5,1025,RJOH 310900Z 25008KT 9999 FEW050 BKN/// 04/M05 Q1025 RMK 1SC050     A3027=,
20180131_090000.002,0,RJOH,,,,0,20180131090000,-1,-1,-1,-1,250,-1,8,-1,-1,-1,-1,,9999,0,0,2,FEW 50   BKN -9999,1,4,-1,5,1025,RJOH 310900Z 25008KT 9999 FEW050 BKN/// 04/M05 Q1025 RMK     1SC050 A3027=,
20180131_100000.000,0,RJOH,,,,0,20180131100000,-1,-1,-1,-1,210,-1,6,-1,-1,-1,-1,,9999,0,0,3,FEW 50   BKN 120   BKN -9999,1,3,-1,4,1025,RJOH 311000Z 21006KT 9999 FEW050 BKN120 BKN/// 03/M04 Q1025 RMK     1SC050 6AC120 A3029=,
20180131_100000.002,0,RJOH,,,,0,20180131100000,-1,-1,-1,-1,210,-1,6,-1,-1,-1,-1,,9999,0,0,3,FEW 50   BKN 120   BKN -9999,1,3,-1,4,1025,RJOH 311000Z 21006KT 9999 FEW050 BKN120 BKN/// 03/M04 Q1025     RMK 1SC050 6AC120 A3029=,
20180131_110000.000,0,RJOH,,,,0,20180131110000,-1,-1,-1,-1,170,-1,4,-1,-1,-1,-1,,9999,0,0,3,FEW 50   BKN 120   BKN -9999,1,2,-1,5,1024,RJOH 311100Z 17004KT 9999 FEW050 BKN120 BKN/// 02/M05 Q1024 RMK     1SC050 6AC120 A3026=,
20180131_110000.002,0,RJOH,,,,0,20180131110000,-1,-1,-1,-1,170,-1,4,-1,-1,-1,-1,,9999,0,0,3,FEW 50   BKN 120   BKN -9999,1,2,-1,5,1024,RJOH 311100Z 17004KT 9999 FEW050 BKN120 BKN/// 02/M05 Q1024     RMK 1SC050 6AC120 A3026=,
20180131_120000.000,0,RJOH,,,,0,20180131120000,-1,-1,-1,-1,220,-1,4,-1,-1,180,280,,9999,0,0,3,FEW 50   BKN 100   BKN 120,1,2,-1,4,1024,RJOH 311200Z 22004KT 180V280 9999 FEW050 BKN100 BKN120 02/M04     Q1024 RMK 1SC050 5AC100 7AC120 A3026=,
20180131_120000.002,0,RJOH,,,,0,20180131120000,-1,-1,-1,-1,220,-1,4,-1,-1,180,280,,9999,0,0,3,FEW 50   BKN 100   BKN 120,1,2,-1,4,1024,RJOH 311200Z 22004KT 180V280 9999 FEW050 BKN100 BKN120 02/M04     Q1024 RMK 1SC050 5AC100 7AC120 A3026=,
20180131_130000.000,0,RJOH,,,,0,20180131130000,-1,-1,-1,-1,220,-1,5,-1,-1,-1,-1,,9999,0,0,3,FEW 50   BKN 100   BKN 120,1,3,-1,4,1026,RJOH 311300Z 22005KT 9999 FEW050 BKN100 BKN120 03/M04 Q1026 RMK     2SC050 6AC100 7AC120 A3030=,
20180131_130000.003,0,RJOH,,,,0,20180131130000,-1,-1,-1,-1,220,-1,5,-1,-1,-1,-1,,9999,0,0,3,FEW 50   BKN 100   BKN 120,1,3,-1,4,1026,RJOH 311300Z 22005KT 9999 FEW050 BKN100 BKN120 03/M04 Q1026     RMK 2SC050 6AC100 7AC120 A3030=,
20180131_140000.000,0,RJOH,,,,0,20180131140000,-1,-1,-1,-1,200,-1,5,-1,-1,-1,-1,,9999,0,0,3,FEW 35   SCT 50   BKN 80,1,3,-1,5,1025,RJOH 311400Z 20005KT 9999 FEW035 SCT050 BKN080 03/M05 Q1025 RMK     1CU035 3SC050 6AC080 A3027=,
20180131_140000.002,0,RJOH,,,,0,20180131140000,-1,-1,-1,-1,200,-1,5,-1,-1,-1,-1,,9999,0,0,3,FEW 35   SCT 50   BKN 80,1,3,-1,5,1025,RJOH 311400Z 20005KT 9999 FEW035 SCT050 BKN080 03/M05 Q1025     RMK 1CU035 3SC050 6AC080 A3027=,
20180131_150000.000,0,RJOH,,,,0,20180131150000,-1,-1,-1,-1,200,-1,5,-1,-1,-1,-1,,9999,0,0,3,FEW 35   BKN 60   BKN 80,1,2,-1,3,1025,RJOH 311500Z 20005KT 9999 FEW035 BKN060 BKN080 02/M03 Q1025 RMK     1CU035 5SC060 7AC080 A3028=,
20180131_150000.002,0,RJOH,,,,0,20180131150000,-1,-1,-1,-1,200,-1,5,-1,-1,-1,-1,,9999,0,0,3,FEW 35   BKN 60   BKN 80,1,2,-1,3,1025,RJOH 311500Z 20005KT 9999 FEW035 BKN060 BKN080 02/M03 Q1025     RMK 1CU035 5SC060 7AC080 A3028=,
20180131_160000.000,0,RJOH,,,,0,20180131160000,-1,-1,-1,-1,210,-1,7,-1,-1,-1,-1,,9999,0,0,3,FEW 35   BKN 50   BKN 80,1,3,-1,4,1025,RJOH 311600Z 21007KT 9999 FEW035 BKN050 BKN080 03/M04 Q1025 RMK     1CU035 5SC050 7AC080 A3028=,
20180131_160000.002,0,RJOH,,,,0,20180131160000,-1,-1,-1,-1,210,-1,7,-1,-1,-1,-1,,9999,0,0,3,FEW 35   BKN 50   BKN 80,1,3,-1,4,1025,RJOH 311600Z 21007KT 9999 FEW035 BKN050 BKN080 03/M04 Q1025     RMK 1CU035 5SC050 7AC080 A3028=,
20180131_170000.000,0,RJOH,,,,0,20180131170000,-1,-1,-1,-1,220,-1,9,-1,-1,-1,-1,,9999,0,0,3,FEW 35   BKN 50   BKN 80,1,3,-1,2,1025,RJOH 311700Z 22009KT 9999 FEW035 BKN050 BKN080 03/M02 Q1025 RMK     1CU035 5SC050 6AC080 A3028=,
20180131_170000.002,0,RJOH,,,,0,20180131170000,-1,-1,-1,-1,220,-1,9,-1,-1,-1,-1,,9999,0,0,3,FEW 35   BKN 50   BKN 80,1,3,-1,2,1025,RJOH 311700Z 22009KT 9999 FEW035 BKN050 BKN080 03/M02 Q1025     RMK 1CU035 5SC050 6AC080 A3028=,
20180131_180000.000,0,RJOH,,,,0,20180131180000,-1,-1,-1,-1,230,-1,7,-1,-1,-1,-1,,9999,0,0,3,FEW 35   SCT 50   BKN 80,1,3,-1,2,1025,RJOH 311800Z 23007KT 9999 FEW035 SCT050 BKN080 03/M02 Q1025 RMK     1CU035 3SC050 6AC080 A3028=,
20180131_180000.002,0,RJOH,,,,0,20180131180000,-1,-1,-1,-1,230,-1,7,-1,-1,-1,-1,,9999,0,0,3,FEW 35   SCT 50   BKN 80,1,3,-1,2,1025,RJOH 311800Z 23007KT 9999 FEW035 SCT050 BKN080 03/M02 Q1025     RMK 1CU035 3SC050 6AC080 A3028=,
20180131_190000.000,0,RJOH,,,,0,20180131190000,-1,-1,-1,-1,210,-1,4,-1,-1,-1,-1,,9999,0,0,3,FEW 35   SCT 50   BKN 80,1,2,-1,2,1024,RJOH 311900Z 21004KT 9999 FEW035 SCT050 BKN080 02/M02 Q1024 RMK     1CU035 3SC050 5AC080 A3026=,
20180131_190000.003,0,RJOH,,,,0,20180131190000,-1,-1,-1,-1,210,-1,4,-1,-1,-1,-1,,9999,0,0,3,FEW 35   SCT 50   BKN 80,1,2,-1,2,1024,RJOH 311900Z 21004KT 9999 FEW035 SCT050 BKN080 02/M02 Q1024     RMK 1CU035 3SC050 5AC080 A3026=,
20180131_200000.000,0,RJOH,,,,0,20180131200000,-1,-1,-1,-1,190,-1,5,-1,-1,-1,-1,,9999,0,0,3,FEW 35   BKN 80   BKN 100,1,2,-1,2,1024,RJOH 312000Z 19005KT 9999 FEW035 BKN080 BKN100 02/M02 Q1024 RMK     1CU035 5AC080 6AC100 A3026=,
20180131_200000.003,0,RJOH,,,,0,20180131200000,-1,-1,-1,-1,190,-1,5,-1,-1,-1,-1,,9999,0,0,3,FEW 35   BKN 80   BKN 100,1,2,-1,2,1024,RJOH 312000Z 19005KT 9999 FEW035 BKN080 BKN100 02/M02 Q1024     RMK 1CU035 5AC080 6AC100 A3026=,
20180131_210000.000,0,RJOH,,,,0,20180131210000,-1,-1,-1,-1,999,-1,2,-1,-1,-1,-1,,9999,0,0,3,FEW 30   BKN 35   BKN 80,1,1,-1,2,1024,RJOH 312100Z VRB02KT 9999 FEW030 BKN035 BKN080 01/M02 Q1024 RMK     1CU030 5CU035 7AC080 A3026 08/01 R000 S000=,
20180131_210000.002,0,RJOH,,,,0,20180131210000,-1,-1,-1,-1,999,-1,2,-1,-1,-1,-1,,9999,0,0,3,FEW 30   BKN 35   BKN 80,1,1,-1,2,1024,RJOH 312100Z VRB02KT 9999 FEW030 BKN035 BKN080 01/M02 Q1024     RMK 1CU030 5CU035 7AC080 A3026 08/01 R000 S000=,
20180131_220000.000,0,RJOH,,,,0,20180131220000,-1,-1,-1,-1,240,-1,2,-1,-1,-1,-1,,9999,0,1,3,FEW 8   SCT 25   BKN 35,1,2,-1,2,1025,RJOH 312200Z 24002KT 9999 -SHRASN FEW008 SCT025 BKN035 02/M02     Q1025 RMK 1ST008 3CU025 7CU035 A3029 VIS W 5KM 1ST008 SW=,- RA SN SH
20180131_220000.002,0,RJOH,,,,0,20180131220000,-1,-1,-1,-1,240,-1,2,-1,-1,-1,-1,,9999,0,1,3,FEW 8   SCT 25   BKN 35,1,2,-1,2,1025,RJOH 312200Z 24002KT 9999 -SHRASN FEW008 SCT025 BKN035 02/M02     Q1025 RMK 1ST008 3CU025 7CU035 A3029 VIS W 5KM 1ST008 SW=,- RA SN SH
20180131_230000.000,0,RJOH,,,,0,20180131230000,-1,-1,-1,-1,300,-1,3,-1,-1,-1,-1,,9999,0,1,3,FEW 8   SCT 25   BKN 35,1,1,-1,1,1025,RJOH 312300Z 30003KT 9999 -SHRASN FEW008 SCT025 BKN035 01/M01     Q1025 RMK 1ST008 3CU025 7CU035 A3029 VIS W 5KM 1ST008 AAL=,- RA SN SH
20180131_230000.002,0,RJOH,,,,0,20180131230000,-1,-1,-1,-1,300,-1,3,-1,-1,-1,-1,,9999,0,1,3,FEW 8   SCT 25   BKN 35,1,1,-1,1,1025,RJOH 312300Z 30003KT 9999 -SHRASN FEW008 SCT025 BKN035 01/M01     Q1025 RMK 1ST008 3CU025 7CU035 A3029 VIS W 5KM 1ST008           AAL=,- RA SN SH
20180201_000000.000,0,RJOH,,,,0,20180201000000,-1,-1,-1,-1,230,-1,3,-1,-1,190,250,,9999,0,1,3,FEW 3   SCT 35   BKN 70,1,2,-1,0,1026,RJOH 010000Z 23003KT 190V250 9999 -SHRASN FEW003 SCT035 BKN070     02/M00 Q1026 RMK 1ST003 3CU035 7AC070 A3030 1ST003 N=,- RA SN SH
20180201_000000.003,0,RJOH,,,,0,20180201000000,-1,-1,-1,-1,230,-1,3,-1,-1,190,250,,9999,0,1,3,FEW 3   SCT 35   BKN 70,1,2,-1,0,1026,RJOH 010000Z 23003KT 190V250 9999 -SHRASN FEW003 SCT035 BKN070     02/M00 Q1026 RMK 1ST003 3CU035 7AC070 A3030 1ST003 N=,- RA SN SH
20180201_010000.000,0,RJOH,,,,0,20180201010000,-1,-1,-1,-1,230,-1,3,-1,-1,200,260,,9999,0,0,2,FEW 5   BKN 70,1,3,-1,1,1025,RJOH 010100Z 23003KT 200V260 9999 FEW005 BKN070 03/M01 Q1025     RMK 1ST005 7AC070 A3029 1ST005 N=,
20180201_010000.002,0,RJOH,,,,0,20180201010000,-1,-1,-1,-1,230,-1,3,-1,-1,200,260,,9999,0,0,2,FEW 5   BKN 70,1,3,-1,1,1025,RJOH 010100Z 23003KT 200V260 9999 FEW005 BKN070 03/M01 Q1025     RMK 1ST005 7AC070 A3029 1ST005 N=,
20180201_020000.000,0,RJOH,,,,0,20180201020000,-1,-1,-1,-1,120,-1,4,-1,-1,90,180,,9999,0,0,1,FEW 10,1,5,-1,0,1025,RJOH 010200Z 12004KT 090V180 9999 FEW010 05/M00 Q1025 RMK     1CU010 A3028=,
20180201_020000.002,0,RJOH,,,,0,20180201020000,-1,-1,-1,-1,120,-1,4,-1,-1,90,180,,9999,0,0,1,FEW 10,1,5,-1,0,1025,RJOH 010200Z 12004KT 090V180 9999 FEW010 05/M00 Q1025 RMK     1CU010 A3028=,
20180201_030000.000,0,RJOH,,,,0,20180201030000,-1,-1,-1,-1,999,-1,4,-1,-1,-1,-1,,9999,0,0,2,FEW 15   SCT 70,1,7,-1,2,1024,RJOH 010300Z VRB04KT 9999 FEW015 SCT070 07/M02 Q1024 RMK 1CU015     4AC070 A3026=,
20180201_030000.003,0,RJOH,,,,0,20180201030000,-1,-1,-1,-1,999,-1,4,-1,-1,-1,-1,,9999,0,0,2,FEW 15   SCT 70,1,7,-1,2,1024,RJOH 010300Z VRB04KT 9999 FEW015 SCT070 07/M02 Q1024 RMK     1CU015 4AC070 A3026=,
20180201_040000.000,0,RJOH,,,,0,20180201040000,-1,-1,-1,-1,70,-1,4,-1,-1,40,110,,9999,0,0,3,FEW 15   BKN 25   BKN 50,1,6,-1,2,1024,RJOH 010400Z 07004KT 040V110 9999 FEW015 BKN025 BKN050 06/M02     Q1024 RMK 1CU015 6CU025 7SC050 A3024=,
20180201_040000.003,0,RJOH,,,,0,20180201040000,-1,-1,-1,-1,70,-1,4,-1,-1,40,110,,9999,0,0,3,FEW 15   BKN 25   BKN 50,1,6,-1,2,1024,RJOH 010400Z 07004KT 040V110 9999 FEW015 BKN025 BKN050 06/M02     Q1024 RMK 1CU015 6CU025 7SC050 A3024=,
20180201_050000.000,0,RJOH,,,,0,20180201050000,-1,-1,-1,-1,110,-1,5,-1,-1,-1,-1,,9999,0,1,3,FEW 8   SCT 25   BKN 50,1,6,-1,2,1023,RJOH 010500Z 11005KT 9999 -SHRA FEW008 SCT025 BKN050 06/M02     Q1023 RMK 1CU008 3CU025 7SC050 A3022 1CU008 SE=,- RA SH
20180201_050000.002,0,RJOH,,,,0,20180201050000,-1,-1,-1,-1,110,-1,5,-1,-1,-1,-1,,9999,0,1,3,FEW 8   SCT 25   BKN 50,1,6,-1,2,1023,RJOH 010500Z 11005KT 9999 -SHRA FEW008 SCT025 BKN050 06/M02     Q1023 RMK 1CU008 3CU025 7SC050 A3022 1CU008 SE=,- RA SH
20180201_060000.000,0,RJOH,,,,0,20180201060000,-1,-1,-1,-1,10,-1,10,-1,-1,340,40,,9999,0,1,3,FEW 15   BKN 30   BKN 50,1,5,-1,1,1023,RJOH 010600Z 01010KT 340V040 9999 -SHRA FEW015 BKN030 BKN050     05/M01 Q1023 RMK 1CU015 6CU030 7SC050 A3023=,- RA SH
20180201_060000.002,0,RJOH,,,,0,20180201060000,-1,-1,-1,-1,10,-1,10,-1,-1,340,40,,9999,0,1,3,FEW 15   BKN 30   BKN 50,1,5,-1,1,1023,RJOH 010600Z 01010KT 340V040 9999 -SHRA FEW015 BKN030 BKN050     05/M01 Q1023 RMK 1CU015 6CU030 7SC050 A3023=,- RA SH
20180201_070000.000,0,RJOH,,,,0,20180201070000,-1,-1,-1,-1,260,-1,6,-1,-1,-1,-1,,9999,0,0,2,FEW 30   BKN 60,1,7,-1,2,1023,RJOH 010700Z 26006KT 9999 FEW030 BKN060 07/M02 Q1023 RMK 2CU030     7SC060 A3022=,
20180201_070000.002,0,RJOH,,,,0,20180201070000,-1,-1,-1,-1,260,-1,6,-1,-1,-1,-1,,9999,0,0,2,FEW 30   BKN 60,1,7,-1,2,1023,RJOH 010700Z 26006KT 9999 FEW030 BKN060 07/M02 Q1023 RMK     2CU030 7SC060 A3022=,
20180201_080000.000,0,RJOH,,,,0,20180201080000,-1,-1,-1,-1,290,-1,6,-1,-1,-1,-1,,9999,0,1,3,FEW 25   BKN 30   BKN 60,1,5,-1,1,1024,RJOH 010800Z 29006KT 9999 -SHRA FEW025 BKN030 BKN060 05/M01     Q1024 RMK 1CU025 6CU030 7SC060 A3024=,- RA SH
20180201_080000.002,0,RJOH,,,,0,20180201080000,-1,-1,-1,-1,290,-1,6,-1,-1,-1,-1,,9999,0,1,3,FEW 25   BKN 30   BKN 60,1,5,-1,1,1024,RJOH 010800Z 29006KT 9999 -SHRA FEW025 BKN030 BKN060 05/M01     Q1024 RMK 1CU025 6CU030 7SC060 A3024=,- RA SH
20180201_090000.000,0,RJOH,,,,0,20180201090000,-1,-1,-1,-1,270,-1,5,-1,-1,-1,-1,,9999,0,1,3,FEW 20   BKN 30   BKN 50,1,5,1,0,1024,RJOH 010900Z 27005KT 9999 -SHRA FEW020 BKN030 BKN050 05/00     Q1024 RMK 1CU020 6CU030 7SC050 A3025=,- RA SH
20180201_090000.002,0,RJOH,,,,0,20180201090000,-1,-1,-1,-1,270,-1,5,-1,-1,-1,-1,,9999,0,1,3,FEW 20   BKN 30   BKN 50,1,5,1,0,1024,RJOH 010900Z 27005KT 9999 -SHRA FEW020 BKN030 BKN050 05/00     Q1024 RMK 1CU020 6CU030 7SC050 A3025=,- RA SH
20180201_100000.000,0,RJOH,,,,0,20180201100000,-1,-1,-1,-1,260,-1,8,-1,-1,-1,-1,,9999,0,1,3,FEW 10   BKN 15   BKN 30,1,4,1,1,1025,RJOH 011000Z 26008KT 9999 -SHRA FEW010 BKN015 BKN030 04/01     Q1025 RMK 1CU010 6CU015 7CU030 A3027=,- RA SH
20180201_100000.002,0,RJOH,,,,0,20180201100000,-1,-1,-1,-1,260,-1,8,-1,-1,-1,-1,,9999,0,1,3,FEW 10   BKN 15   BKN 30,1,4,1,1,1025,RJOH 011000Z 26008KT 9999 -SHRA FEW010 BKN015 BKN030 04/01     Q1025 RMK 1CU010 6CU015 7CU030 A3027=,- RA SH
20180201_110000.000,0,RJOH,,,,0,20180201110000,-1,-1,-1,-1,220,-1,5,-1,-1,-1,-1,,9999,0,1,3,FEW 15   BKN 30   BKN 50,1,3,1,1,1025,RJOH 011100Z 22005KT 9999 -SHRA FEW015 BKN030 BKN050 03/01     Q1025 RMK 2CU015 6CU030 7SC050 A3027=,- RA SH
20180201_110000.002,0,RJOH,,,,0,20180201110000,-1,-1,-1,-1,220,-1,5,-1,-1,-1,-1,,9999,0,1,3,FEW 15   BKN 30   BKN 50,1,3,1,1,1025,RJOH 011100Z 22005KT 9999 -SHRA FEW015 BKN030 BKN050 03/01     Q1025 RMK 2CU015 6CU030 7SC050 A3027=,- RA SH
20180201_120000.000,0,RJOH,,,,0,20180201120000,-1,-1,-1,-1,250,-1,6,-1,-1,-1,-1,,9999,0,1,3,FEW 8   BKN 15   BKN 30,1,4,1,1,1025,RJOH 011200Z 25006KT 9999 -SHRA FEW008 BKN015 BKN030 04/01     Q1025 RMK 1CU008 6CU015 7CU030 A3028 1CU008 AAL=,- RA SH
20180201_120000.002,0,RJOH,,,,0,20180201120000,-1,-1,-1,-1,250,-1,6,-1,-1,-1,-1,,9999,0,1,3,FEW 8   BKN 15   BKN 30,1,4,1,1,1025,RJOH 011200Z 25006KT 9999 -SHRA FEW008 BKN015 BKN030 04/01     Q1025 RMK 1CU008 6CU015 7CU030 A3028 1CU008 AAL=,- RA SH
20180201_130000.000,0,RJOH,,,,0,20180201130000,-1,-1,-1,-1,240,-1,7,-1,-1,-1,-1,,9999,0,1,3,FEW 15   SCT 20   BKN 30,1,4,1,1,1024,RJOH 011300Z 24007KT 9999 -SHRA FEW015 SCT020 BKN030 04/01     Q1024 RMK 1CU015 3CU020 7CU030 A3025=,- RA SH
20180201_130000.002,0,RJOH,,,,0,20180201130000,-1,-1,-1,-1,240,-1,7,-1,-1,-1,-1,,9999,0,1,3,FEW 15   SCT 20   BKN 30,1,4,1,1,1024,RJOH 011300Z 24007KT 9999 -SHRA FEW015 SCT020 BKN030 04/01     Q1024 RMK 1CU015 3CU020 7CU030 A3025=,- RA SH
20180201_140000.000,0,RJOH,,,,0,20180201140000,-1,-1,-1,-1,180,-1,5,-1,-1,-1,-1,,9999,0,1,3,FEW 3   SCT 5   BKN 30,1,3,1,1,1024,RJOH 011400Z 18005KT 9999 -SHRA FEW003 SCT005 BKN030 03/01     Q1024 RMK 1ST003 3ST005 7CU030 A3026=,- RA SH
20180201_140000.002,0,RJOH,,,,0,20180201140000,-1,-1,-1,-1,180,-1,5,-1,-1,-1,-1,,9999,0,1,3,FEW 3   SCT 5   BKN 30,1,3,1,1,1024,RJOH 011400Z 18005KT 9999 -SHRA FEW003 SCT005 BKN030 03/01     Q1024 RMK 1ST003 3ST005 7CU030 A3026=,- RA SH
20180201_150000.000,0,RJOH,,,,0,20180201150000,-1,-1,-1,-1,160,-1,3,-1,-1,-1,-1,,9999,0,0,3,FEW 6   BKN 15   BKN 30,1,2,-1,0,1025,RJOH 011500Z 16003KT 9999 FEW006 BKN015 BKN030 02/M00 Q1025 RMK     1ST006 6CU015 7CU030 A3029=,
20180201_150000.002,0,RJOH,,,,0,20180201150000,-1,-1,-1,-1,160,-1,3,-1,-1,-1,-1,,9999,0,0,3,FEW 6   BKN 15   BKN 30,1,2,-1,0,1025,RJOH 011500Z 16003KT 9999 FEW006 BKN015 BKN030 02/M00 Q1025     RMK 1ST006 6CU015 7CU030 A3029=,
20180201_160000.000,0,RJOH,,,,0,20180201160000,-1,-1,-1,-1,140,-1,3,-1,-1,-1,-1,,9999,0,0,2,FEW 10   SCT 15,1,1,-1,1,1025,RJOH 011600Z 14003KT 9999 FEW010 SCT015 01/M01 Q1025 RMK 1CU010     3CU015 A3028=,
20180201_160000.002,0,RJOH,,,,0,20180201160000,-1,-1,-1,-1,140,-1,3,-1,-1,-1,-1,,9999,0,0,2,FEW 10   SCT 15,1,1,-1,1,1025,RJOH 011600Z 14003KT 9999 FEW010 SCT015 01/M01 Q1025 RMK     1CU010 3CU015 A3028=,
20180201_170000.000,0,RJOH,,,,0,20180201170000,-1,-1,-1,-1,150,-1,3,-1,-1,-1,-1,,9999,0,0,2,FEW 15   BKN 30,1,1,-1,1,1024,RJOH 011700Z 15003KT 9999 FEW015 BKN030 01/M01 Q1024 RMK 1CU015     5CU030 A3026=,
20180201_170000.002,0,RJOH,,,,0,20180201170000,-1,-1,-1,-1,150,-1,3,-1,-1,-1,-1,,9999,0,0,2,FEW 15   BKN 30,1,1,-1,1,1024,RJOH 011700Z 15003KT 9999 FEW015 BKN030 01/M01 Q1024 RMK     1CU015 5CU030 A3026=,
20180201_180000.000,0,RJOH,,,,0,20180201180000,-1,-1,-1,-1,200,-1,4,-1,-1,-1,-1,,9999,0,0,1,FEW 30,1,0,-1,2,1025,RJOH 011800Z 20004KT 9999 FEW030 00/M02 Q1025 RMK 2CU030 A3027=,
20180201_180000.002,0,RJOH,,,,0,20180201180000,-1,-1,-1,-1,200,-1,4,-1,-1,-1,-1,,9999,0,0,1,FEW 30,1,0,-1,2,1025,RJOH 011800Z 20004KT 9999 FEW030 00/M02 Q1025 RMK 2CU030     A3027=,
20180201_190000.000,0,RJOH,,,,0,20180201190000,-1,-1,-1,-1,190,-1,5,-1,-1,-1,-1,,9999,0,0,1,FEW 3,-1,0,-1,2,1024,RJOH 011900Z 19005KT 9999 FEW003 M00/M02 Q1024 RMK 2ST003     A3025=,
20180201_190000.003,0,RJOH,,,,0,20180201190000,-1,-1,-1,-1,190,-1,5,-1,-1,-1,-1,,9999,0,0,1,FEW 3,-1,0,-1,2,1024,RJOH 011900Z 19005KT 9999 FEW003 M00/M02 Q1024 RMK 2ST003     A3025=,
20180201_200000.000,0,RJOH,,,,0,20180201200000,-1,-1,-1,-1,180,-1,4,-1,-1,-1,-1,,9999,0,0,1,FEW 3,-1,1,-1,3,1024,RJOH 012000Z 18004KT 9999 FEW003 M01/M03 Q1024 RMK 1ST003     A3024=,
20180201_200000.003,0,RJOH,,,,0,20180201200000,-1,-1,-1,-1,180,-1,4,-1,-1,-1,-1,,9999,0,0,1,FEW 3,-1,1,-1,3,1024,RJOH 012000Z 18004KT 9999 FEW003 M01/M03 Q1024 RMK 1ST003     A3024=,
20180201_210000.000,0,RJOH,,,,0,20180201210000,-1,-1,-1,-1,999,-1,1,-1,-1,-1,-1,,9999,0,0,1,FEW 3,1,0,-1,2,1024,RJOH 012100Z VRB01KT 9999 FEW003 00/M02 Q1024 RMK 1ST003 A3025     1ST003 SW-NW 08/M01 R001 S000=,
20180201_210000.002,0,RJOH,,,,0,20180201210000,-1,-1,-1,-1,999,-1,1,-1,-1,-1,-1,,9999,0,0,1,FEW 3,1,0,-1,2,1024,RJOH 012100Z VRB01KT 9999 FEW003 00/M02 Q1024 RMK 1ST003 A3025     1ST003 SW-NW 08/M01 R001 S000=,
20180201_220000.000,0,RJOH,,,,0,20180201220000,-1,-1,-1,-1,190,-1,2,-1,-1,-1,-1,,9999,0,1,1,FEW 3,-1,1,-1,3,1024,RJOH 012200Z 19002KT 9999 PRFG FEW003 M01/M03 Q1024 RMK 1ST003     A3024 FG BANK 4000M SW-NW 1ST003 SE AND SW-W=,PR FG
20180201_220000.002,0,RJOH,,,,0,20180201220000,-1,-1,-1,-1,190,-1,2,-1,-1,-1,-1,,9999,0,1,1,FEW 3,-1,1,-1,3,1024,RJOH 012200Z 19002KT 9999 PRFG FEW003 M01/M03 Q1024 RMK 1ST003     A3024 FG BANK 4000M SW-NW 1ST003 SE AND SW-W=,PR FG
20180201_230000.000,0,RJOH,,,,0,20180201230000,-1,-1,-1,-1,210,-1,4,-1,-1,170,230,,9999,0,1,1,FEW 0,-1,0,-1,2,1024,RJOH 012300Z 21004KT 170V230 9999 PRFG FEW000 M00/M02 Q1024 RMK     1ST000 A3025 FG BANK 3000M W-N=,PR FG
20180201_230000.003,0,RJOH,,,,0,20180201230000,-1,-1,-1,-1,210,-1,4,-1,-1,170,230,,9999,0,1,1,FEW 0,-1,0,-1,2,1024,RJOH 012300Z 21004KT 170V230 9999 PRFG FEW000 M00/M02 Q1024     RMK 1ST000 A3025 FG BANK 3000M W-N=,PR FG
20180202_000000.000,0,RJOH,,,,0,20180202000000,-1,-1,-1,-1,250,-1,3,-1,-1,210,310,,9999,0,1,2,FEW 0   BKN 250,1,1,-1,1,1024,RJOH 020000Z 25003KT 210V310 9999 PRFG FEW000 BKN250 01/M01     Q1024 RMK 1ST000 A3026 FG BANK 2500M SW-NW=,PR FG
20180202_000000.002,0,RJOH,,,,0,20180202000000,-1,-1,-1,-1,250,-1,3,-1,-1,210,310,,9999,0,1,2,FEW 0   BKN 250,1,1,-1,1,1024,RJOH 020000Z 25003KT 210V310 9999 PRFG FEW000 BKN250 01/M01     Q1024 RMK 1ST000 A3026 FG BANK 2500M SW-NW=,PR FG
20180202_010000.000,0,RJOH,,,,0,20180202010000,-1,-1,-1,-1,240,-1,3,-1,-1,200,270,,9999,0,1,2,FEW 2   BKN 230,1,2,-1,0,1024,RJOH 020100Z 24003KT 200V270 9999 PRFG FEW002 BKN230 02/M00     Q1024 RMK 1ST002 A3026 FG BANK 3000M S-NW 1ST002 S=,PR FG
20180202_010000.002,0,RJOH,,,,0,20180202010000,-1,-1,-1,-1,240,-1,3,-1,-1,200,270,,9999,0,1,2,FEW 2   BKN 230,1,2,-1,0,1024,RJOH 020100Z 24003KT 200V270 9999 PRFG FEW002 BKN230 02/M00     Q1024 RMK 1ST002 A3026 FG BANK 3000M S-NW 1ST002 S=,PR FG
20180202_020000.000,0,RJOH,,,,0,20180202020000,-1,-1,-1,-1,999,-1,2,-1,-1,-1,-1,,9999,0,1,2,FEW 2   BKN 220,1,6,1,1,1024,RJOH 020200Z VRB02KT 9999 PRFG FEW002 BKN220 06/01 Q1024 RMK     1ST002 A3025 FG BANK 6KM SW 1ST002 W=,PR FG
20180202_020000.002,0,RJOH,,,,0,20180202020000,-1,-1,-1,-1,999,-1,2,-1,-1,-1,-1,,9999,0,1,2,FEW 2   BKN 220,1,6,1,1,1024,RJOH 020200Z VRB02KT 9999 PRFG FEW002 BKN220 06/01 Q1024 RMK     1ST002 A3025 FG BANK 6KM SW 1ST002 W=,PR FG
20180202_030000.000,0,RJOH,,,,0,20180202030000,-1,-1,-1,-1,999,-1,2,-1,-1,-1,-1,,9999,0,0,2,FEW 1   BKN 210,1,8,-1,3,1023,RJOH 020300Z VRB02KT 9999 FEW001 BKN210 08/M03 Q1023 RMK 1ST001     A3023 1ST001 SW=,
20180202_030000.002,0,RJOH,,,,0,20180202030000,-1,-1,-1,-1,999,-1,2,-1,-1,-1,-1,,9999,0,0,2,FEW 1   BKN 210,1,8,-1,3,1023,RJOH 020300Z VRB02KT 9999 FEW001 BKN210 08/M03 Q1023 RMK     1ST001 A3023 1ST001 SW=,
20180202_040000.000,0,RJOH,,,,0,20180202040000,-1,-1,-1,-1,70,-1,6,-1,-1,40,110,,9999,0,0,2,FEW 1   BKN 210,1,9,-1,4,1022,RJOH 020400Z 07006KT 040V110 9999 FEW001 BKN210 09/M04 Q1022     RMK 1ST001 A3020 1ST001 SW=,
20180202_040000.002,0,RJOH,,,,0,20180202040000,-1,-1,-1,-1,70,-1,6,-1,-1,40,110,,9999,0,0,2,FEW 1   BKN 210,1,9,-1,4,1022,RJOH 020400Z 07006KT 040V110 9999 FEW001 BKN210 09/M04 Q1022     RMK 1ST001 A3020 1ST001 SW=,
20180202_050000.001,0,RJOH,,,,0,20180202050000,-1,-1,-1,-1,70,-1,7,-1,-1,-1,-1,,9999,0,0,2,FEW 50   BKN 210,1,9,-1,4,1022,RJOH 020500Z 07007KT 9999 FEW050 BKN210 09/M04 Q1022 RMK     1SC050 A3018=,
20180202_060000.000,0,RJOH,,,,0,20180202060000,-1,-1,-1,-1,50,-1,6,-1,-1,-1,-1,,9999,0,0,3,FEW 50   SCT 180   BKN 210,1,9,-1,4,1021,RJOH 020600Z 05006KT 9999 FEW050 SCT180 BKN210 09/M04 Q1021 RMK     1SC050 4AC180 A3017=,
20180202_060000.002,0,RJOH,,,,0,20180202060000,-1,-1,-1,-1,50,-1,6,-1,-1,-1,-1,,9999,0,0,3,FEW 50   SCT 180   BKN 210,1,9,-1,4,1021,RJOH 020600Z 05006KT 9999 FEW050 SCT180 BKN210 09/M04 Q1021     RMK 1SC050 4AC180 A3017=,
20180202_070000.000,0,RJOH,,,,0,20180202070000,-1,-1,-1,-1,20,-1,3,-1,-1,-1,-1,,9999,0,0,3,FEW 50   BKN 70   BKN 180,1,8,-1,3,1021,RJOH 020700Z 02003KT 9999 FEW050 BKN070 BKN180 08/M03 Q1021 RMK     1SC050 5AC070 7AC180 A3016=,
20180202_070000.002,0,RJOH,,,,0,20180202070000,-1,-1,-1,-1,20,-1,3,-1,-1,-1,-1,,9999,0,0,3,FEW 50   BKN 70   BKN 180,1,8,-1,3,1021,RJOH 020700Z 02003KT 9999 FEW050 BKN070 BKN180 08/M03 Q1021     RMK 1SC050 5AC070 7AC180 A3016=,
20180202_080000.000,0,RJOH,,,,0,20180202080000,-1,-1,-1,-1,50,-1,3,-1,-1,-1,-1,,9999,0,0,3,FEW 50   BKN 70   BKN 180,1,8,-1,3,1021,RJOH 020800Z 05003KT 9999 FEW050 BKN070 BKN180 08/M03 Q1021 RMK     2SC050 6AC070 7AC180 A3016=,
20180202_080000.002,0,RJOH,,,,0,20180202080000,-1,-1,-1,-1,50,-1,3,-1,-1,-1,-1,,9999,0,0,3,FEW 50   BKN 70   BKN 180,1,8,-1,3,1021,RJOH 020800Z 05003KT 9999 FEW050 BKN070 BKN180 08/M03 Q1021     RMK 2SC050 6AC070 7AC180 A3016=,
20180202_090000.000,0,RJOH,,,,0,20180202090000,-1,-1,-1,-1,270,-1,3,-1,-1,-1,-1,,9999,0,0,3,FEW 30   BKN 50   BKN 70,1,7,-1,2,1021,RJOH 020900Z 27003KT 9999 FEW030 BKN050 BKN070 07/M02 Q1021 RMK     1CU030 5SC050 7AC070 A3015=,
20180202_090000.002,0,RJOH,,,,0,20180202090000,-1,-1,-1,-1,270,-1,3,-1,-1,-1,-1,,9999,0,0,3,FEW 30   BKN 50   BKN 70,1,7,-1,2,1021,RJOH 020900Z 27003KT 9999 FEW030 BKN050 BKN070 07/M02 Q1021     RMK 1CU030 5SC050 7AC070 A3015=,
20180202_100000.000,0,RJOH,,,,0,20180202100000,-1,-1,-1,-1,270,-1,6,-1,-1,-1,-1,,9999,0,0,3,FEW 30   BKN 50   BKN 70,1,6,1,0,1021,RJOH 021000Z 27006KT 9999 FEW030 BKN050 BKN070 06/00 Q1021 RMK     1CU030 6SC050 7AC070 A3016=,
20180202_100000.003,0,RJOH,,,,0,20180202100000,-1,-1,-1,-1,270,-1,6,-1,-1,-1,-1,,9999,0,0,3,FEW 30   BKN 50   BKN 70,1,6,1,0,1021,RJOH 021000Z 27006KT 9999 FEW030 BKN050 BKN070 06/00 Q1021 RMK     1CU030 6SC050 7AC070 A3016=,
20180202_110000.000,0,RJOH,,,,0,20180202110000,-1,-1,-1,-1,270,-1,12,-1,-1,-1,-1,,9999,0,1,3,FEW 25   SCT 30   BKN 50,1,6,-1,0,1021,RJOH 021100Z 27012KT 9999 -SHRA FEW025 SCT030 BKN050 06/M00     Q1021 RMK 1CU025 3CU030 7SC050 A3016=,- RA SH
20180202_110000.002,0,RJOH,,,,0,20180202110000,-1,-1,-1,-1,270,-1,12,-1,-1,-1,-1,,9999,0,1,3,FEW 25   SCT 30   BKN 50,1,6,-1,0,1021,RJOH 021100Z 27012KT 9999 -SHRA FEW025 SCT030 BKN050 06/M00     Q1021 RMK 1CU025 3CU030 7SC050 A3016=,- RA SH
20180202_120000.000,0,RJOH,,,,0,20180202120000,-1,-1,-1,-1,270,-1,10,-1,-1,-1,-1,,9999,0,1,3,FEW 25   SCT 30   BKN 50,1,5,1,1,1021,RJOH 021200Z 27010KT 9999 -SHRA FEW025 SCT030 BKN050 05/01     Q1021 RMK 1CU025 3CU030 7SC050 A3016=,- RA SH
20180202_120000.002,0,RJOH,,,,0,20180202120000,-1,-1,-1,-1,270,-1,10,-1,-1,-1,-1,,9999,0,1,3,FEW 25   SCT 30   BKN 50,1,5,1,1,1021,RJOH 021200Z 27010KT 9999 -SHRA FEW025 SCT030 BKN050 05/01     Q1021 RMK 1CU025 3CU030 7SC050 A3016=,- RA SH
20180202_130000.000,0,RJOH,,,,0,20180202130000,-1,-1,-1,-1,270,-1,9,-1,-1,-1,-1,,9999,0,1,4,FEW 6   BKN 25   FEW 25 TCU  BKN 50,1,4,1,1,1021,RJOH 021300Z 27009KT 9999 -SHRA FEW006 BKN025 FEW025TCU BKN050     04/01 Q1021 RMK 1CU006 6CU025 1TCU025 7SC050 A3016 TCU 7KM           NE MOV E=,- RA SH
20180202_130000.003,0,RJOH,,,,0,20180202130000,-1,-1,-1,-1,270,-1,9,-1,-1,-1,-1,,9999,0,1,4,FEW 6   BKN 25   FEW 25 TCU  BKN 50,1,4,1,1,1021,RJOH 021300Z 27009KT 9999 -SHRA FEW006 BKN025 FEW025TCU BKN050     04/01 Q1021 RMK 1CU006 6CU025 1TCU025 7SC050 A3016 TCU           7KM NE MOV E=,- RA SH
20180202_140000.000,0,RJOH,,,,0,20180202140000,-1,-1,-1,-1,210,-1,9,-1,-1,-1,-1,,9999,0,1,3,FEW 10   BKN 30   BKN 50,1,4,1,1,1021,RJOH 021400Z 21009KT 9999 -SHRA FEW010 BKN030 BKN050 04/01     Q1021 RMK 1CU010 6CU030 7SC050 A3016=,- RA SH
20180202_140000.002,0,RJOH,,,,0,20180202140000,-1,-1,-1,-1,210,-1,9,-1,-1,-1,-1,,9999,0,1,3,FEW 10   BKN 30   BKN 50,1,4,1,1,1021,RJOH 021400Z 21009KT 9999 -SHRA FEW010 BKN030 BKN050 04/01     Q1021 RMK 1CU010 6CU030 7SC050 A3016=,- RA SH
20180202_150000.000,0,RJOH,,,,0,20180202150000,-1,-1,-1,-1,190,-1,7,-1,-1,-1,-1,,9999,0,0,3,FEW 20   BKN 30   BKN 50,1,4,1,1,1021,RJOH 021500Z 19007KT 9999 FEW020 BKN030 BKN050 04/01 Q1021 RMK     1CU020 5CU030 7SC050 A3016=,
20180202_150000.002,0,RJOH,,,,0,20180202150000,-1,-1,-1,-1,190,-1,7,-1,-1,-1,-1,,9999,0,0,3,FEW 20   BKN 30   BKN 50,1,4,1,1,1021,RJOH 021500Z 19007KT 9999 FEW020 BKN030 BKN050 04/01 Q1021 RMK     1CU020 5CU030 7SC050 A3016=,
20180202_160000.000,0,RJOH,,,,0,20180202160000,-1,-1,-1,-1,190,-1,6,-1,-1,-1,-1,,9999,0,1,3,FEW 20   BKN 30   BKN 50,1,4,1,1,1020,RJOH 021600Z 19006KT 9999 -SHRA FEW020 BKN030 BKN050 04/01     Q1020 RMK 1CU020 5CU030 7SC050 A3015=,- RA SH
20180202_160000.002,0,RJOH,,,,0,20180202160000,-1,-1,-1,-1,190,-1,6,-1,-1,-1,-1,,9999,0,1,3,FEW 20   BKN 30   BKN 50,1,4,1,1,1020,RJOH 021600Z 19006KT 9999 -SHRA FEW020 BKN030 BKN050 04/01     Q1020 RMK 1CU020 5CU030 7SC050 A3015=,- RA SH
20180202_170000.000,0,RJOH,,,,0,20180202170000,-1,-1,-1,-1,260,-1,8,-1,-1,-1,-1,,9999,0,1,3,FEW 20   BKN 30   BKN 50,1,4,1,0,1021,RJOH 021700Z 26008KT 9999 -SHRA FEW020 BKN030 BKN050 04/00     Q1021 RMK 1CU020 6CU030 7SC050 A3015=,- RA SH
20180202_170000.002,0,RJOH,,,,0,20180202170000,-1,-1,-1,-1,260,-1,8,-1,-1,-1,-1,,9999,0,1,3,FEW 20   BKN 30   BKN 50,1,4,1,0,1021,RJOH 021700Z 26008KT 9999 -SHRA FEW020 BKN030 BKN050 04/00     Q1021 RMK 1CU020 6CU030 7SC050 A3015=,- RA SH
20180202_180000.000,0,RJOH,,,,0,20180202180000,-1,-1,-1,-1,260,-1,9,-1,-1,-1,-1,,9999,0,1,3,FEW 20   BKN 30   BKN 50,1,4,1,0,1020,RJOH 021800Z 26009KT 9999 -SHRA FEW020 BKN030 BKN050 04/00     Q1020 RMK 1CU020 6CU030 7SC050 A3015=,- RA SH
20180202_180000.003,0,RJOH,,,,0,20180202180000,-1,-1,-1,-1,260,-1,9,-1,-1,-1,-1,,9999,0,1,3,FEW 20   BKN 30   BKN 50,1,4,1,0,1020,RJOH 021800Z 26009KT 9999 -SHRA FEW020 BKN030 BKN050 04/00     Q1020 RMK 1CU020 6CU030 7SC050 A3015=,- RA SH
20180202_190000.000,0,RJOH,,,,0,20180202190000,-1,-1,-1,-1,290,-1,9,-1,-1,-1,-1,,9999,0,1,3,FEW 15   SCT 20   BKN 30,1,4,-1,2,1020,RJOH 021900Z 29009KT 9999 -SHRA FEW015 SCT020 BKN030 04/M02     Q1020 RMK 1CU015 4CU020 7CU030 A3015=,- RA SH
20180202_190000.003,0,RJOH,,,,0,20180202190000,-1,-1,-1,-1,290,-1,9,-1,-1,-1,-1,,9999,0,1,3,FEW 15   SCT 20   BKN 30,1,4,-1,2,1020,RJOH 021900Z 29009KT 9999 -SHRA FEW015 SCT020 BKN030 04/M02     Q1020 RMK 1CU015 4CU020 7CU030 A3015=,- RA SH
20180202_200000.000,0,RJOH,,,,0,20180202200000,-1,-1,-1,-1,200,-1,7,-1,-1,-1,-1,,9999,0,1,3,FEW 20   BKN 30   BKN 50,1,3,-1,0,1021,RJOH 022000Z 20007KT 9999 -SHRA FEW020 BKN030 BKN050 03/M00     Q1021 RMK 1CU020 5CU030 7SC050 A3015=,- RA SH
20180202_200000.003,0,RJOH,,,,0,20180202200000,-1,-1,-1,-1,200,-1,7,-1,-1,-1,-1,,9999,0,1,3,FEW 20   BKN 30   BKN 50,1,3,-1,0,1021,RJOH 022000Z 20007KT 9999 -SHRA FEW020 BKN030 BKN050 03/M00     Q1021 RMK 1CU020 5CU030 7SC050 A3015=,- RA SH
20180202_210000.000,0,RJOH,,,,0,20180202210000,-1,-1,-1,-1,999,-1,5,-1,-1,-1,-1,,9999,0,1,3,FEW 20   BKN 30   BKN 50,1,4,-1,3,1021,RJOH 022100Z VRB05KT 9999 -SHRA FEW020 BKN030 BKN050 04/M03     Q1021 RMK 1CU020 6CU030 7SC050 A3015 10/03 R002=,- RA SH
20180202_210000.002,0,RJOH,,,,0,20180202210000,-1,-1,-1,-1,999,-1,5,-1,-1,-1,-1,,9999,0,1,3,FEW 20   BKN 30   BKN 50,1,4,-1,3,1021,RJOH 022100Z VRB05KT 9999 -SHRA FEW020 BKN030 BKN050 04/M03     Q1021 RMK 1CU020 6CU030 7SC050 A3015 10/03 R002=,- RA SH
20180202_220000.000,0,RJOH,,,,0,20180202220000,-1,-1,-1,-1,290,-1,7,-1,-1,250,320,,9999,0,1,3,FEW 20   BKN 30   BKN 50,1,4,-1,4,1021,RJOH 022200Z 29007KT 250V320 9999 -SHRA FEW020 BKN030 BKN050     04/M04 Q1021 RMK 1CU020 5CU030 7SC050 A3015=,- RA SH
20180202_220000.002,0,RJOH,,,,0,20180202220000,-1,-1,-1,-1,290,-1,7,-1,-1,250,320,,9999,0,1,3,FEW 20   BKN 30   BKN 50,1,4,-1,4,1021,RJOH 022200Z 29007KT 250V320 9999 -SHRA FEW020 BKN030 BKN050     04/M04 Q1021 RMK 1CU020 5CU030 7SC050 A3015=,- RA SH
20180202_230000.000,0,RJOH,,,,0,20180202230000,-1,-1,-1,-1,300,-1,8,-1,-1,-1,-1,,9999,0,1,3,FEW 8   SCT 20   BKN 30,1,3,-1,2,1021,RJOH 022300Z 30008KT 9999 -SHRA FEW008 SCT020 BKN030 03/M02     Q1021 RMK 1CU008 3CU020 7CU030 A3016=,- RA SH
20180202_230000.003,0,RJOH,,,,0,20180202230000,-1,-1,-1,-1,300,-1,8,-1,-1,-1,-1,,9999,0,1,3,FEW 8   SCT 20   BKN 30,1,3,-1,2,1021,RJOH 022300Z 30008KT 9999 -SHRA FEW008 SCT020 BKN030 03/M02     Q1021 RMK 1CU008 3CU020 7CU030 A3016=,- RA SH
20180203_000000.000,0,RJOH,,,,0,20180203000000,-1,-1,-1,-1,200,-1,4,-1,-1,-1,-1,,9999,0,1,3,FEW 4   BKN 30   BKN 50,1,3,-1,0,1021,RJOH 030000Z 20004KT 9999 -SHRA FEW004 BKN030 BKN050 03/M00     Q1021 RMK 1ST004 5CU030 7SC050 A3016=,- RA SH
20180203_000000.002,0,RJOH,,,,0,20180203000000,-1,-1,-1,-1,200,-1,4,-1,-1,-1,-1,,9999,0,1,3,FEW 4   BKN 30   BKN 50,1,3,-1,0,1021,RJOH 030000Z 20004KT 9999 -SHRA FEW004 BKN030 BKN050 03/M00     Q1021 RMK 1ST004 5CU030 7SC050 A3016=,- RA SH
20180203_010000.000,0,RJOH,,,,0,20180203010000,-1,-1,-1,-1,200,-1,7,-1,-1,-1,-1,,9999,0,1,3,FEW 4   SCT 10   BKN 20,1,3,-1,0,1021,RJOH 030100Z 20007KT 9999 -SHRASN FEW004 SCT010 BKN020 03/M00     Q1021 RMK 1ST004 3CU010 5CU020 A3016 VIS W-N 6KM=,- RA SN SH
20180203_010000.003,0,RJOH,,,,0,20180203010000,-1,-1,-1,-1,200,-1,7,-1,-1,-1,-1,,9999,0,1,3,FEW 4   SCT 10   BKN 20,1,3,-1,0,1021,RJOH 030100Z 20007KT 9999 -SHRASN FEW004 SCT010 BKN020 03/M00     Q1021 RMK 1ST004 3CU010 5CU020 A3016 VIS W-N 6KM=,- RA SN SH
20180203_020000.000,0,RJOH,,,,0,20180203020000,-1,-1,-1,-1,220,-1,8,-1,-1,-1,-1,,9999,0,1,3,FEW 4   BKN 30   BKN 50,1,3,1,0,1021,RJOH 030200Z 22008KT 9999 -SHRA FEW004 BKN030 BKN050 03/00     Q1021 RMK 1CU004 5CU030 7SC050 A3015=,- RA SH
20180203_020000.002,0,RJOH,,,,0,20180203020000,-1,-1,-1,-1,220,-1,8,-1,-1,-1,-1,,9999,0,1,3,FEW 4   BKN 30   BKN 50,1,3,1,0,1021,RJOH 030200Z 22008KT 9999 -SHRA FEW004 BKN030 BKN050 03/00     Q1021 RMK 1CU004 5CU030 7SC050 A3015=,- RA SH
20180203_030000.000,0,RJOH,,,,0,20180203030000,-1,-1,-1,-1,250,-1,9,-1,-1,-1,-1,,7000,0,1,3,FEW 6   SCT 20   BKN 30,1,3,1,0,1020,RJOH 030300Z 25009KT 7000 -SHRASN FEW006 SCT020 BKN030 03/00     Q1020 RMK 1CU006 4CU020 7CU030 A3013=,- RA SN SH
20180203_030000.002,0,RJOH,,,,0,20180203030000,-1,-1,-1,-1,250,-1,9,-1,-1,-1,-1,,7000,0,1,3,FEW 6   SCT 20   BKN 30,1,3,1,0,1020,RJOH 030300Z 25009KT 7000 -SHRASN FEW006 SCT020 BKN030 03/00     Q1020 RMK 1CU006 4CU020 7CU030 A3013=,- RA SN SH
20180203_040000.000,0,RJOH,,,,0,20180203040000,-1,-1,-1,-1,270,-1,7,-1,-1,220,310,,9999,0,0,2,FEW 6   SCT 30,1,6,-1,1,1019,RJOH 030400Z 27007KT 220V310 9999 FEW006 SCT030 06/M01 Q1019     RMK 1CU006 3CU030 A3011=,
20180203_040000.002,0,RJOH,,,,0,20180203040000,-1,-1,-1,-1,270,-1,7,-1,-1,220,310,,9999,0,0,2,FEW 6   SCT 30,1,6,-1,1,1019,RJOH 030400Z 27007KT 220V310 9999 FEW006 SCT030 06/M01 Q1019     RMK 1CU006 3CU030 A3011=,
20180203_050000.000,0,RJOH,,,,0,20180203050000,-1,-1,-1,-1,280,-1,10,-1,-1,250,330,,9999,0,0,3,FEW 15   BKN 35   BKN 50,1,6,-1,5,1019,RJOH 030500Z 28010KT 250V330 9999 FEW015 BKN035 BKN050 06/M05     Q1019 RMK 1CU015 5CU035 7SC050 A3009=,
20180203_050000.002,0,RJOH,,,,0,20180203050000,-1,-1,-1,-1,280,-1,10,-1,-1,250,330,,9999,0,0,3,FEW 15   BKN 35   BKN 50,1,6,-1,5,1019,RJOH 030500Z 28010KT 250V330 9999 FEW015 BKN035 BKN050 06/M05     Q1019 RMK 1CU015 5CU035 7SC050 A3009=,
20180203_060000.000,0,RJOH,,,,0,20180203060000,-1,-1,-1,-1,250,-1,13,-1,-1,-1,-1,,9999,0,1,4,FEW 6   BKN 35   FEW 35 TCU  BKN 50,1,4,-1,3,1019,RJOH 030600Z 25013KT 9999 -SHRASN FEW006 BKN035 FEW035TCU     BKN050 04/M03 Q1019 RMK 1CU006 6CU035 1TCU035 7SC050 A3009           VIS NW-NE 5KM TCU 8KM NW-NE MOV E=,- RA SN SH
20180203_060000.002,0,RJOH,,,,0,20180203060000,-1,-1,-1,-1,250,-1,13,-1,-1,-1,-1,,9999,0,1,4,FEW 6   BKN 35   FEW 35 TCU  BKN 50,1,4,-1,3,1019,RJOH 030600Z 25013KT 9999 -SHRASN FEW006 BKN035 FEW035TCU     BKN050 04/M03 Q1019 RMK 1CU006 6CU035 1TCU035 7SC050           A3009 VIS NW-NE 5KM TCU 8KM NW-NE MOV E=,- RA SN SH
20180203_070000.000,0,RJOH,,,,0,20180203070000,-1,-1,-1,-1,220,-1,8,-1,-1,-1,-1,,8000,0,1,3,FEW 10   SCT 30   BKN 50,1,3,1,1,1019,RJOH 030700Z 22008KT 8000 -SHSN FEW010 SCT030 BKN050 03/01     Q1019 RMK 1CU010 4CU030 6SC050 A3009=,- SN SH
20180203_070000.003,0,RJOH,,,,0,20180203070000,-1,-1,-1,-1,220,-1,8,-1,-1,-1,-1,,8000,0,1,3,FEW 10   SCT 30   BKN 50,1,3,1,1,1019,RJOH 030700Z 22008KT 8000 -SHSN FEW010 SCT030 BKN050 03/01     Q1019 RMK 1CU010 4CU030 6SC050 A3009=,- SN SH
20180203_080000.000,0,RJOH,,,,0,20180203080000,-1,-1,-1,-1,240,-1,4,-1,-1,-1,-1,,9999,0,1,3,FEW 8   BKN 30   BKN 50,1,3,-1,0,1018,RJOH 030800Z 24004KT 9999 -SHRASN FEW008 BKN030 BKN050 03/M00     Q1018 RMK 1CU008 5CU030 7SC050 A3009=,- RA SN SH
20180203_080000.002,0,RJOH,,,,0,20180203080000,-1,-1,-1,-1,240,-1,4,-1,-1,-1,-1,,9999,0,1,3,FEW 8   BKN 30   BKN 50,1,3,-1,0,1018,RJOH 030800Z 24004KT 9999 -SHRASN FEW008 BKN030 BKN050 03/M00     Q1018 RMK 1CU008 5CU030 7SC050 A3009=,- RA SN SH
20180203_090000.000,0,RJOH,,,,0,20180203090000,-1,-1,-1,-1,220,-1,5,-1,-1,-1,-1,,9999,0,0,3,FEW 8   SCT 30   BKN 50,1,2,-1,1,1018,RJOH 030900Z 22005KT 9999 FEW008 SCT030 BKN050 02/M01 Q1018 RMK     1CU008 4CU030 6SC050 A3008=,
20180203_090000.002,0,RJOH,,,,0,20180203090000,-1,-1,-1,-1,220,-1,5,-1,-1,-1,-1,,9999,0,0,3,FEW 8   SCT 30   BKN 50,1,2,-1,1,1018,RJOH 030900Z 22005KT 9999 FEW008 SCT030 BKN050 02/M01 Q1018     RMK 1CU008 4CU030 6SC050 A3008=,
20180203_100000.000,0,RJOH,,,,0,20180203100000,-1,-1,-1,-1,220,-1,9,-1,-1,-1,-1,,9999,0,1,3,FEW 10   BKN 30   BKN 50,1,3,-1,1,1019,RJOH 031000Z 22009KT 9999 -SHRASN FEW010 BKN030 BKN050 03/M01     Q1019 RMK 1CU010 6CU030 7SC050 A3009=,- RA SN SH
20180203_100000.002,0,RJOH,,,,0,20180203100000,-1,-1,-1,-1,220,-1,9,-1,-1,-1,-1,,9999,0,1,3,FEW 10   BKN 30   BKN 50,1,3,-1,1,1019,RJOH 031000Z 22009KT 9999 -SHRASN FEW010 BKN030 BKN050 03/M01     Q1019 RMK 1CU010 6CU030 7SC050 A3009=,- RA SN SH
20180203_110000.000,0,RJOH,,,,0,20180203110000,-1,-1,-1,-1,230,-1,10,-1,-1,-1,-1,,9999,0,1,3,FEW 10   BKN 30   BKN 50,1,3,-1,3,1019,RJOH 031100Z 23010KT 9999 -SHRASN FEW010 BKN030 BKN050 03/M03     Q1019 RMK 1CU010 5CU030 7SC050 A3009=,- RA SN SH
20180203_110000.002,0,RJOH,,,,0,20180203110000,-1,-1,-1,-1,230,-1,10,-1,-1,-1,-1,,9999,0,1,3,FEW 10   BKN 30   BKN 50,1,3,-1,3,1019,RJOH 031100Z 23010KT 9999 -SHRASN FEW010 BKN030 BKN050 03/M03     Q1019 RMK 1CU010 5CU030 7SC050 A3009=,- RA SN SH
20180203_120000.000,0,RJOH,,,,0,20180203120000,-1,-1,-1,-1,250,-1,11,-1,-1,-1,-1,,9999,0,0,2,FEW 30   BKN 50,1,3,-1,6,1019,RJOH 031200Z 25011KT 9999 FEW030 BKN050 03/M06 Q1019 RMK 2CU030     7SC050 A3009=,
20180203_120000.002,0,RJOH,,,,0,20180203120000,-1,-1,-1,-1,250,-1,11,-1,-1,-1,-1,,9999,0,0,2,FEW 30   BKN 50,1,3,-1,6,1019,RJOH 031200Z 25011KT 9999 FEW030 BKN050 03/M06 Q1019 RMK     2CU030 7SC050 A3009=,
20180203_130000.000,0,RJOH,,,,0,20180203130000,-1,-1,-1,-1,250,-1,14,-1,-1,-1,-1,,9999,0,0,2,FEW 30   BKN 50,1,3,-1,8,1018,RJOH 031300Z 25014KT 9999 FEW030 BKN050 03/M08 Q1018 RMK 1CU030     6SC050 A3008=,
20180203_130000.002,0,RJOH,,,,0,20180203130000,-1,-1,-1,-1,250,-1,14,-1,-1,-1,-1,,9999,0,0,2,FEW 30   BKN 50,1,3,-1,8,1018,RJOH 031300Z 25014KT 9999 FEW030 BKN050 03/M08 Q1018 RMK     1CU030 6SC050 A3008=,
20180203_140000.000,0,RJOH,,,,0,20180203140000,-1,-1,-1,-1,230,-1,13,-1,-1,-1,-1,,9999,0,0,2,FEW 30   BKN 50,1,2,-1,7,1018,RJOH 031400Z 23013KT 9999 FEW030 BKN050 02/M07 Q1018 RMK 1CU030     7SC050 A3009=,
20180203_140000.002,0,RJOH,,,,0,20180203140000,-1,-1,-1,-1,230,-1,13,-1,-1,-1,-1,,9999,0,0,2,FEW 30   BKN 50,1,2,-1,7,1018,RJOH 031400Z 23013KT 9999 FEW030 BKN050 02/M07 Q1018 RMK     1CU030 7SC050 A3009=,
20180203_150000.000,0,RJOH,,,,0,20180203150000,-1,-1,-1,-1,240,-1,17,-1,-1,-1,-1,,9999,0,0,2,FEW 30   BKN 50,1,3,-1,8,1018,RJOH 031500Z 24017KT 9999 FEW030 BKN050 03/M08 Q1018 RMK 1CU030     7SC050 A3008=,
20180203_150000.002,0,RJOH,,,,0,20180203150000,-1,-1,-1,-1,240,-1,17,-1,-1,-1,-1,,9999,0,0,2,FEW 30   BKN 50,1,3,-1,8,1018,RJOH 031500Z 24017KT 9999 FEW030 BKN050 03/M08 Q1018 RMK     1CU030 7SC050 A3008=,
20180203_160000.000,0,RJOH,,,,0,20180203160000,-1,-1,-1,-1,200,-1,14,-1,25,-1,-1,,9999,0,0,2,FEW 30   BKN 50,1,2,-1,7,1018,RJOH 031600Z 20014G25KT 9999 FEW030 BKN050 02/M07 Q1018 RMK     1CU030 7SC050 A3007=,
20180203_160000.002,0,RJOH,,,,0,20180203160000,-1,-1,-1,-1,200,-1,14,-1,25,-1,-1,,9999,0,0,2,FEW 30   BKN 50,1,2,-1,7,1018,RJOH 031600Z 20014G25KT 9999 FEW030 BKN050 02/M07 Q1018 RMK     1CU030 7SC050 A3007=,
20180203_170000.000,0,RJOH,,,,0,20180203170000,-1,-1,-1,-1,260,-1,16,-1,26,-1,-1,,9999,0,1,3,FEW 20   BKN 30   BKN 50,1,2,-1,8,1018,RJOH 031700Z 26016G26KT 9999 -SHSN FEW020 BKN030 BKN050 02/M08     Q1018 RMK 1CU020 6CU030 7SC050 A3007=,- SN SH
20180203_170000.002,0,RJOH,,,,0,20180203170000,-1,-1,-1,-1,260,-1,16,-1,26,-1,-1,,9999,0,1,3,FEW 20   BKN 30   BKN 50,1,2,-1,8,1018,RJOH 031700Z 26016G26KT 9999 -SHSN FEW020 BKN030 BKN050 02/M08     Q1018 RMK 1CU020 6CU030 7SC050 A3007=,- SN SH
20180203_180000.000,0,RJOH,,,,0,20180203180000,-1,-1,-1,-1,250,-1,16,-1,26,-1,-1,,9999,0,1,3,FEW 20   SCT 30   BKN 50,1,1,-1,9,1017,RJOH 031800Z 25016G26KT 9999 -SHSN FEW020 SCT030 BKN050 01/M09     Q1017 RMK 1CU020 4CU030 6SC050 A3006=,- SN SH
20180203_180000.003,0,RJOH,,,,0,20180203180000,-1,-1,-1,-1,250,-1,16,-1,26,-1,-1,,9999,0,1,3,FEW 20   SCT 30   BKN 50,1,1,-1,9,1017,RJOH 031800Z 25016G26KT 9999 -SHSN FEW020 SCT030 BKN050 01/M09     Q1017 RMK 1CU020 4CU030 6SC050 A3006=,- SN SH
20180203_190000.000,0,RJOH,,,,0,20180203190000,-1,-1,-1,-1,260,-1,20,-1,-1,-1,-1,,9999,0,1,3,FEW 20   SCT 30   BKN 50,1,1,-1,8,1017,RJOH 031900Z 26020KT 9999 -SHSN FEW020 SCT030 BKN050 01/M08     Q1017 RMK 1CU020 4CU030 7SC050 A3005=,- SN SH
20180203_190000.002,0,RJOH,,,,0,20180203190000,-1,-1,-1,-1,260,-1,20,-1,-1,-1,-1,,9999,0,1,3,FEW 20   SCT 30   BKN 50,1,1,-1,8,1017,RJOH 031900Z 26020KT 9999 -SHSN FEW020 SCT030 BKN050 01/M08     Q1017 RMK 1CU020 4CU030 7SC050 A3005=,- SN SH
20180203_200000.000,0,RJOH,,,,0,20180203200000,-1,-1,-1,-1,240,-1,20,-1,-1,-1,-1,,9999,0,1,3,FEW 10   SCT 20   BKN 30,-1,0,-1,6,1017,RJOH 032000Z 24020KT 9999 -SHSN FEW010 SCT020 BKN030 M00/M06     Q1017 RMK 1CU010 3CU020 6CU030 A3005 VIS S 5KM=,- SN SH
20180203_200000.002,0,RJOH,,,,0,20180203200000,-1,-1,-1,-1,240,-1,20,-1,-1,-1,-1,,9999,0,1,3,FEW 10   SCT 20   BKN 30,-1,0,-1,6,1017,RJOH 032000Z 24020KT 9999 -SHSN FEW010 SCT020 BKN030 M00/M06     Q1017 RMK 1CU010 3CU020 6CU030 A3005 VIS S 5KM=,- SN SH
20180203_210000.000,0,RJOH,,,,0,20180203210000,-1,-1,-1,-1,240,-1,21,-1,32,-1,-1,,5000,0,1,3,FEW 10   SCT 20   BKN 30,-1,1,-1,7,1017,RJOH 032100Z 24021G32KT 5000 -SHSN FEW010 SCT020 BKN030 M01/M07     Q1017 RMK 1CU010 3CU020 5CU030 A3006 VIS N 4000M           26033KT/2030 07/M01 R003 S000=,- SN SH
20180203_210000.002,0,RJOH,,,,0,20180203210000,-1,-1,-1,-1,240,-1,21,-1,32,-1,-1,,5000,0,1,3,FEW 10   SCT 20   BKN 30,-1,1,-1,7,1017,RJOH 032100Z 24021G32KT 5000 -SHSN FEW010 SCT020 BKN030     M01/M07 Q1017 RMK 1CU010 3CU020 5CU030 A3006 VIS N 4000M           26033KT/2030 07/M01 R003 S000=,- SN SH
20180203_220000.000,0,RJOH,,,,0,20180203220000,-1,-1,-1,-1,250,-1,19,-1,-1,-1,-1,,6000,0,1,3,FEW 10   SCT 20   BKN 30,-1,1,-1,7,1018,RJOH 032200Z 25019KT 6000 -SHSN FEW010 SCT020 BKN030 M01/M07     Q1018 RMK 1CU010 3CU020 5CU030 A3006 VIS N 4000M=,- SN SH
20180203_220000.002,0,RJOH,,,,0,20180203220000,-1,-1,-1,-1,250,-1,19,-1,-1,-1,-1,,6000,0,1,3,FEW 10   SCT 20   BKN 30,-1,1,-1,7,1018,RJOH 032200Z 25019KT 6000 -SHSN FEW010 SCT020 BKN030 M01/M07     Q1018 RMK 1CU010 3CU020 5CU030 A3006 VIS N 4000M=,- SN SH
20180203_230000.000,0,RJOH,,,,0,20180203230000,-1,-1,-1,-1,250,-1,21,-1,-1,-1,-1,,2000,0,1,3,FEW 4   SCT 6   BKN 10,-1,1,-1,6,1018,RJOH 032300Z 25021KT 2000 -SHSN FEW004 SCT006 BKN010 M01/M06     Q1018 RMK 1CU004 3CU006 6CU010 A3008 MAX WIND 28KT VIS           SW-W 800M=,- SN SH
20180203_230000.002,0,RJOH,,,,0,20180203230000,-1,-1,-1,-1,250,-1,21,-1,-1,-1,-1,,2000,0,1,3,FEW 4   SCT 6   BKN 10,-1,1,-1,6,1018,RJOH 032300Z 25021KT 2000 -SHSN FEW004 SCT006 BKN010 M01/M06     Q1018 RMK 1CU004 3CU006 6CU010 A3008 MAX WIND 28KT VIS           SW-W 800M=,- SN SH
20180204_000000.000,0,RJOH,,,,0,20180204000000,-1,-1,-1,-1,240,-1,19,-1,-1,-1,-1,,9999,0,1,2,FEW 6   SCT 20,-1,1,-1,6,1018,RJOH 040000Z 24019KT 9999 -SHSN FEW006 SCT020 M01/M06 Q1018 RMK     1CU006 3CU020 A3007 MAX WIND 26KT=,- SN SH
20180204_000000.002,0,RJOH,,,,0,20180204000000,-1,-1,-1,-1,240,-1,19,-1,-1,-1,-1,,9999,0,1,2,FEW 6   SCT 20,-1,1,-1,6,1018,RJOH 040000Z 24019KT 9999 -SHSN FEW006 SCT020 M01/M06 Q1018     RMK 1CU006 3CU020 A3007 MAX WIND 26KT=,- SN SH
20180204_010000.000,0,RJOH,,,,0,20180204010000,-1,-1,-1,-1,230,-1,22,-1,-1,-1,-1,,9999,0,0,2,FEW 10   BKN 50,1,1,-1,6,1018,RJOH 040100Z 23022KT 9999 FEW010 BKN050 01/M06 Q1018 RMK 1CU010     5SC050 A3007=,
20180204_010000.002,0,RJOH,,,,0,20180204010000,-1,-1,-1,-1,230,-1,22,-1,-1,-1,-1,,9999,0,0,2,FEW 10   BKN 50,1,1,-1,6,1018,RJOH 040100Z 23022KT 9999 FEW010 BKN050 01/M06 Q1018 RMK     1CU010 5SC050 A3007=,
20180204_020000.000,0,RJOH,,,,0,20180204020000,-1,-1,-1,-1,240,-1,21,-1,-1,-1,-1,,9999,0,1,3,FEW 20   BKN 30   BKN 50,1,2,-1,7,1018,RJOH 040200Z 24021KT 9999 -SHSN FEW020 BKN030 BKN050 02/M07     Q1018 RMK 1CU020 5CU030 7SC050 A3006 MAX WIND 29KT VIS N           7KM=,- SN SH
20180204_020000.002,0,RJOH,,,,0,20180204020000,-1,-1,-1,-1,240,-1,21,-1,-1,-1,-1,,9999,0,1,3,FEW 20   BKN 30   BKN 50,1,2,-1,7,1018,RJOH 040200Z 24021KT 9999 -SHSN FEW020 BKN030 BKN050 02/M07     Q1018 RMK 1CU020 5CU030 7SC050 A3006 MAX WIND 29KT VIS N           7KM=,- SN SH
20180204_030000.000,0,RJOH,,,,0,20180204030000,-1,-1,-1,-1,230,-1,21,-1,-1,-1,-1,,400,1,1,1,VV 4,-1,1,-1,4,1017,RJOH 040300Z 23021KT 0400 R25/1000V1800N SHSN VV004 M01/M04     Q1017 RMK A3006 R1400 MAX WIND 28KT=,SN SH
20180204_030000.002,0,RJOH,,,,0,20180204030000,-1,-1,-1,-1,230,-1,21,-1,-1,-1,-1,,400,1,1,1,VV 4,-1,1,-1,4,1017,RJOH 040300Z 23021KT 0400 R25/1000V1800N SHSN VV004 M01/M04     Q1017 RMK A3006 R1400 MAX WIND 28KT=,SN SH
20180204_040000.000,0,RJOH,,,,0,20180204040000,-1,-1,-1,-1,240,-1,24,-1,-1,-1,-1,,2500,0,1,3,FEW 3   SCT 6   BKN 10,-1,1,-1,4,1017,RJOH 040400Z 24024KT 2500 -SHSN FEW003 SCT006 BKN010 M01/M04     Q1017 RMK 1CU003 4CU006 6CU010 A3004 VIS NW-NE 1500M=,- SN SH
20180204_040000.002,0,RJOH,,,,0,20180204040000,-1,-1,-1,-1,240,-1,24,-1,-1,-1,-1,,2500,0,1,3,FEW 3   SCT 6   BKN 10,-1,1,-1,4,1017,RJOH 040400Z 24024KT 2500 -SHSN FEW003 SCT006 BKN010 M01/M04     Q1017 RMK 1CU003 4CU006 6CU010 A3004 VIS NW-NE 1500M=,- SN SH
20180204_050000.000,0,RJOH,,,,0,20180204050000,-1,-1,-1,-1,230,-1,21,-1,-1,-1,-1,,6000,0,1,3,FEW 6   SCT 10   BKN 20,1,0,-1,3,1016,RJOH 040500Z 23021KT 6000 -SHSN FEW006 SCT010 BKN020 00/M03     Q1016 RMK 1CU006 3CU010 6CU020 A3002 VIS NW-NE 3000M=,- SN SH
20180204_050000.002,0,RJOH,,,,0,20180204050000,-1,-1,-1,-1,230,-1,21,-1,-1,-1,-1,,6000,0,1,3,FEW 6   SCT 10   BKN 20,1,0,-1,3,1016,RJOH 040500Z 23021KT 6000 -SHSN FEW006 SCT010 BKN020 00/M03     Q1016 RMK 1CU006 3CU010 6CU020 A3002 VIS NW-NE 3000M=,- SN SH
20180204_060000.000,0,RJOH,,,,0,20180204060000,-1,-1,-1,-1,230,-1,20,-1,-1,-1,-1,,2000,0,1,3,FEW 6   BKN 10   BKN 20,1,0,-1,4,1017,RJOH 040600Z 23020KT 2000 -SHSN FEW006 BKN010 BKN020 00/M04     Q1017 RMK 2CU006 5CU010 7CU020 A3004 VIS W-NE 1000M=,- SN SH
20180204_060000.002,0,RJOH,,,,0,20180204060000,-1,-1,-1,-1,230,-1,20,-1,-1,-1,-1,,2000,0,1,3,FEW 6   BKN 10   BKN 20,1,0,-1,4,1017,RJOH 040600Z 23020KT 2000 -SHSN FEW006 BKN010 BKN020 00/M04     Q1017 RMK 2CU006 5CU010 7CU020 A3004 VIS W-NE 1000M=,- SN SH
20180204_070000.000,0,RJOH,,,,0,20180204070000,-1,-1,-1,-1,240,-1,18,-1,-1,-1,-1,,400,1,1,1,VV 4,-1,0,-1,3,1018,RJOH 040700Z 24018KT 0400 R25/0700V1500U SHSN VV004 M00/M03     Q1018 RMK A3006 R1000=,SN SH
20180204_070000.002,0,RJOH,,,,0,20180204070000,-1,-1,-1,-1,240,-1,18,-1,-1,-1,-1,,400,1,1,1,VV 4,-1,0,-1,3,1018,RJOH 040700Z 24018KT 0400 R25/0700V1500U SHSN VV004 M00/M03     Q1018 RMK A3006 R1000=,SN SH
20180204_080000.000,0,RJOH,,,,0,20180204080000,-1,-1,-1,-1,250,-1,21,-1,-1,-1,-1,,1000,1,1,3,SCT 3   BKN 6   OVC 10,-1,0,-1,3,1018,RJOH 040800Z 25021KT 1000 R25/1700U -SHSN SCT003 BKN006 OVC010     M00/M03 Q1018 REGS RMK 3CU003 6CU006 8CU010 A3006=,- SN SH
20180204_080000.002,0,RJOH,,,,0,20180204080000,-1,-1,-1,-1,250,-1,21,-1,-1,-1,-1,,1000,1,1,3,SCT 3   BKN 6   OVC 10,-1,0,-1,3,1018,RJOH 040800Z 25021KT 1000 R25/1700U -SHSN SCT003 BKN006 OVC010     M00/M03 Q1018 REGS RMK 3CU003 6CU006 8CU010 A3006=,- SN SH
20180204_090000.000,0,RJOH,,,,0,20180204090000,-1,-1,-1,-1,240,-1,16,-1,-1,-1,-1,,800,1,1,3,FEW 3   BKN 6   OVC 10,-1,0,-1,2,1018,RJOH 040900Z 24016KT 0800 R25/1700D -SHGSSN FEW003 BKN006     OVC010 M00/M02 Q1018 RMK 2CU003 7CU006 8CU010 A3007 SNOW           PELLETS=,- GS SN SH
20180204_090000.002,0,RJOH,,,,0,20180204090000,-1,-1,-1,-1,240,-1,16,-1,-1,-1,-1,,800,1,1,3,FEW 3   BKN 6   OVC 10,-1,0,-1,2,1018,RJOH 040900Z 24016KT 0800 R25/1700D -SHGSSN FEW003 BKN006     OVC010 M00/M02 Q1018 RMK 2CU003 7CU006 8CU010 A3007 SNOW           PELLETS=,- GS SN SH
20180204_100000.000,0,RJOH,,,,0,20180204100000,-1,-1,-1,-1,260,-1,18,-1,-1,-1,-1,,2500,0,1,3,FEW 3   SCT 6   BKN 10,-1,0,-1,3,1018,RJOH 041000Z 26018KT 2500 -SHSN FEW003 SCT006 BKN010 M00/M03     Q1018 REGS RMK 1CU003 4CU006 7CU010 A3008=,- SN SH
20180204_100000.002,0,RJOH,,,,0,20180204100000,-1,-1,-1,-1,260,-1,18,-1,-1,-1,-1,,2500,0,1,3,FEW 3   SCT 6   BKN 10,-1,0,-1,3,1018,RJOH 041000Z 26018KT 2500 -SHSN FEW003 SCT006 BKN010 M00/M03     Q1018 REGS RMK 1CU003 4CU006 7CU010 A3008=,- SN SH
20180204_110000.000,0,RJOH,,,,0,20180204110000,-1,-1,-1,-1,270,-1,8,-1,-1,-1,-1,,3000,1,1,3,FEW 3   SCT 6   BKN 10,1,0,-1,2,1019,RJOH 041100Z 27008KT 3000 R25/1800U -SHSN FEW003 SCT006 BKN010     00/M02 Q1019 REGS RMK 1CU003 4CU006 7CU010 A3010=,- SN SH
20180204_110000.003,0,RJOH,,,,0,20180204110000,-1,-1,-1,-1,270,-1,8,-1,-1,-1,-1,,3000,1,1,3,FEW 3   SCT 6   BKN 10,1,0,-1,2,1019,RJOH 041100Z 27008KT 3000 R25/1800U -SHSN FEW003 SCT006 BKN010     00/M02 Q1019 REGS RMK 1CU003 4CU006 7CU010 A3010=,- SN SH
20180204_120000.000,0,RJOH,,,,0,20180204120000,-1,-1,-1,-1,250,-1,19,-1,-1,-1,-1,,3500,0,1,3,FEW 3   SCT 6   BKN 10,-1,0,-1,2,1019,RJOH 041200Z 25019KT 3500 -SHSN FEW003 SCT006 BKN010 M00/M02     Q1019 RETS RMK 1CU003 3CU006 6CU010 A3010=,- SN SH
20180204_120000.002,0,RJOH,,,,0,20180204120000,-1,-1,-1,-1,250,-1,19,-1,-1,-1,-1,,3500,0,1,3,FEW 3   SCT 6   BKN 10,-1,0,-1,2,1019,RJOH 041200Z 25019KT 3500 -SHSN FEW003 SCT006 BKN010 M00/M02     Q1019 RETS RMK 1CU003 3CU006 6CU010 A3010=,- SN SH
20180204_130000.000,0,RJOH,,,,0,20180204130000,-1,-1,-1,-1,260,-1,8,-1,-1,-1,-1,,2000,0,1,3,FEW 3   BKN 6   OVC 10,1,0,-1,2,1019,RJOH 041300Z 26008KT 2000 -SHSN FEW003 BKN006 OVC010 00/M02     Q1019 RMK 1CU003 5CU006 8CU010 A3010=,- SN SH
20180204_130000.002,0,RJOH,,,,0,20180204130000,-1,-1,-1,-1,260,-1,8,-1,-1,-1,-1,,2000,0,1,3,FEW 3   BKN 6   OVC 10,1,0,-1,2,1019,RJOH 041300Z 26008KT 2000 -SHSN FEW003 BKN006 OVC010 00/M02     Q1019 RMK 1CU003 5CU006 8CU010 A3010=,- SN SH
20180204_140000.000,0,RJOH,,,,0,20180204140000,-1,-1,-1,-1,260,-1,17,-1,27,-1,-1,,300,1,1,1,VV 3,-1,1,-1,3,1019,RJOH 041400Z 26017G27KT 0300 R25/0650V1500U SHGSSN VV003     M01/M03 Q1019 RMK A3010 R0900 SNOW PELLETS=,GS SN SH
20180204_140000.002,0,RJOH,,,,0,20180204140000,-1,-1,-1,-1,260,-1,17,-1,27,-1,-1,,300,1,1,1,VV 3,-1,1,-1,3,1019,RJOH 041400Z 26017G27KT 0300 R25/0650V1500U SHGSSN VV003     M01/M03 Q1019 RMK A3010 R0900 SNOW PELLETS=,GS SN SH
20180204_150000.000,0,RJOH,,,,0,20180204150000,-1,-1,-1,-1,190,-1,8,-1,-1,-1,-1,,1000,1,1,4,FEW 3   BKN 6   BKN 10   OVC 20 CB,-1,1,-1,3,1019,RJOH 041500Z 19008KT 1000 R25/P1800N -SHGSSN FEW003 BKN006     BKN010 OVC020CB M01/M03 Q1019 RETS RMK 1CU003 5CU006           7CU010 8CB020 A3009 VIS SW-W 2000M CB OHD MOV E SNOW           PELLETS=,- GS SN SH
20180204_150000.002,0,RJOH,,,,0,20180204150000,-1,-1,-1,-1,190,-1,8,-1,-1,-1,-1,,1000,1,1,4,FEW 3   BKN 6   BKN 10   OVC 20 CB,-1,1,-1,3,1019,RJOH 041500Z 19008KT 1000 R25/P1800N -SHGSSN FEW003 BKN006     BKN010 OVC020CB M01/M03 Q1019 RETS RMK 1CU003 5CU006           7CU010 8CB020 A3009 VIS SW-W 2000M CB OHD MOV E SNOW           PELLETS=,- GS SN SH
20180204_160000.000,0,RJOH,,,,0,20180204160000,-1,-1,-1,-1,240,-1,16,-1,-1,-1,-1,,9999,0,1,4,FEW 6   SCT 10   BKN 25   FEW 25 CB,-1,0,-1,5,1018,RJOH 041600Z 24016KT 9999 -SHSN FEW006 SCT010 BKN025 FEW025CB     M00/M05 Q1018 RETS RMK 1CU006 3CU010 5CU025 1CB025 A3007           CB 15KM NE MOV E=,- SN SH
20180204_160000.002,0,RJOH,,,,0,20180204160000,-1,-1,-1,-1,240,-1,16,-1,-1,-1,-1,,9999,0,1,4,FEW 6   SCT 10   BKN 25   FEW 25 CB,-1,0,-1,5,1018,RJOH 041600Z 24016KT 9999 -SHSN FEW006 SCT010 BKN025 FEW025CB     M00/M05 Q1018 RETS RMK 1CU006 3CU010 5CU025 1CB025 A3007           CB 15KM NE MOV E=,- SN SH
20180204_170000.000,0,RJOH,,,,0,20180204170000,-1,-1,-1,-1,230,-1,18,-1,-1,-1,-1,,9999,0,1,4,FEW 6   BKN 25   FEW 25 CB  BKN 50,-1,1,-1,6,1018,RJOH 041700Z 23018KT 9999 -SHSN FEW006 BKN025 FEW025CB BKN050     M01/M06 Q1018 RMK 1CU006 5CU025 1CB025 7SC050 A3006 VIS W           5KM CB 15KM NE MOV E=,- SN SH
20180204_170000.002,0,RJOH,,,,0,20180204170000,-1,-1,-1,-1,230,-1,18,-1,-1,-1,-1,,9999,0,1,4,FEW 6   BKN 25   FEW 25 CB  BKN 50,-1,1,-1,6,1018,RJOH 041700Z 23018KT 9999 -SHSN FEW006 BKN025 FEW025CB BKN050     M01/M06 Q1018 RMK 1CU006 5CU025 1CB025 7SC050 A3006 VIS W           5KM CB 15KM NE MOV E=,- SN SH
20180204_180000.000,0,RJOH,,,,0,20180204180000,-1,-1,-1,-1,260,-1,11,-1,-1,-1,-1,,4000,0,1,4,FEW 6   SCT 15   BKN 25   SCT 25 TCU,-1,0,-1,5,1018,RJOH 041800Z 26011KT 4000 -SHSN FEW006 SCT015 BKN025 SCT025TCU     M00/M05 Q1018 RMK 1CU006 4CU015 7CU025 3TCU025 A3006 VIS S           10KM TCU OHD MOV E=,- SN SH
20180204_180000.003,0,RJOH,,,,0,20180204180000,-1,-1,-1,-1,260,-1,11,-1,-1,-1,-1,,4000,0,1,4,FEW 6   SCT 15   BKN 25   SCT 25 TCU,-1,0,-1,5,1018,RJOH 041800Z 26011KT 4000 -SHSN FEW006 SCT015 BKN025 SCT025TCU     M00/M05 Q1018 RMK 1CU006 4CU015 7CU025 3TCU025 A3006 VIS           S 10KM TCU OHD MOV E=,- SN SH
20180204_190000.000,0,RJOH,,,,0,20180204190000,-1,-1,-1,-1,240,-1,11,-1,24,-1,-1,,2000,0,1,4,FEW 4   BKN 7   BKN 10   FEW 20 CB,-1,1,-1,5,1018,RJOH 041900Z 24011G24KT 2000 -SHGSSN FEW004 BKN007 BKN010     FEW020CB M01/M05 Q1018 RMK 1CU004 5CU007 7CU010 2CB020           A3007 VIS W 500M CB 5KM W MOV E SNOW PELLETS=,- GS SN SH
20180204_190000.002,0,RJOH,,,,0,20180204190000,-1,-1,-1,-1,240,-1,11,-1,24,-1,-1,,2000,0,1,4,FEW 4   BKN 7   BKN 10   FEW 20 CB,-1,1,-1,5,1018,RJOH 041900Z 24011G24KT 2000 -SHGSSN FEW004 BKN007 BKN010     FEW020CB M01/M05 Q1018 RMK 1CU004 5CU007 7CU010 2CB020           A3007 VIS W 500M CB 5KM W MOV E SNOW PELLETS=,- GS SN SH
20180204_200000.000,0,RJOH,,,,0,20180204200000,-1,-1,-1,-1,240,-1,21,-1,-1,-1,-1,,100,1,1,1,VV 2,-1,1,-1,3,1018,RJOH 042000Z 24021KT 0100 R25/0750V1400U +SHGSSN VV002 M01/M03     Q1018 RMK A3006 R1000 SNOW PELLETS=,+ GS SN SH
20180204_200000.002,0,RJOH,,,,0,20180204200000,-1,-1,-1,-1,240,-1,21,-1,-1,-1,-1,,100,1,1,1,VV 2,-1,1,-1,3,1018,RJOH 042000Z 24021KT 0100 R25/0750V1400U +SHGSSN VV002 M01/M03     Q1018 RMK A3006 R1000 SNOW PELLETS=,+ GS SN SH
20180204_210000.000,0,RJOH,,,,0,20180204210000,-1,-1,-1,-1,270,-1,15,-1,26,-1,-1,,100,1,1,1,VV 2,-1,1,-1,4,1018,RJOH 042100Z 27015G26KT 0100 R25/1100VP1800D +SHGSSN VV002     M01/M04 Q1018 RMK A3007 R1700 VIS S 400M SNOW PELLETS           24034KT/0720 02/M01 R005 S031 S019=,+ GS SN SH
20180204_210000.002,0,RJOH,,,,0,20180204210000,-1,-1,-1,-1,270,-1,15,-1,26,-1,-1,,100,1,1,1,VV 2,-1,1,-1,4,1018,RJOH 042100Z 27015G26KT 0100 R25/1100VP1800D +SHGSSN VV002     M01/M04 Q1018 RMK A3007 R1700 VIS S 400M SNOW PELLETS           24034KT/0720 02/M01 R005 S031 S019=,+ GS SN SH
20180204_210000.004,2,RJOH,,,,0,20180204210000,-1,-1,-1,-1,270,-1,15,-1,26,-1,-1,,100,1,1,1,VV 2,-1,1,-1,4,1018,RJOH 042100Z 27015G26KT 0100 R25/1100VP1800D +SHGSSN VV002     M01/M04 Q1018 RMK A3007 R1700 VIS S 400M 24034KT/0720           02/M02 R005 S031 SD019 SNOW PELLETS=,+ GS SN SH
20180204_220000.000,0,RJOH,,,,0,20180204220000,-1,-1,-1,-1,250,-1,23,-1,-1,-1,-1,,400,1,1,1,VV 4,-1,1,-1,4,1018,RJOH 042200Z 25023KT 0400 R25/1200VP1800U +SHSN VV004 M01/M04     Q1018 REGS RMK A3008 R1500=,+ SN SH
20180204_220000.002,0,RJOH,,,,0,20180204220000,-1,-1,-1,-1,250,-1,23,-1,-1,-1,-1,,400,1,1,1,VV 4,-1,1,-1,4,1018,RJOH 042200Z 25023KT 0400 R25/1200VP1800U +SHSN VV004 M01/M04     Q1018 REGS RMK A3008 R1500=,+ SN SH
20180204_230000.000,0,RJOH,,,,0,20180204230000,-1,-1,-1,-1,250,-1,22,-1,-1,-1,-1,,700,1,1,3,FEW 3   BKN 6   OVC 10,-1,1,-1,5,1018,RJOH 042300Z 25022KT 0700 R25/P1800N SHSN FEW003 BKN006 OVC010     M01/M05 Q1018 RMK 1CU003 6CU006 8CU010 A3009 MAX WIND 31KT           VIS SW-NW 7KM=,SN SH
20180204_230000.002,0,RJOH,,,,0,20180204230000,-1,-1,-1,-1,250,-1,22,-1,-1,-1,-1,,700,1,1,3,FEW 3   BKN 6   OVC 10,-1,1,-1,5,1018,RJOH 042300Z 25022KT 0700 R25/P1800N SHSN FEW003 BKN006 OVC010     M01/M05 Q1018 RMK 1CU003 6CU006 8CU010 A3009 MAX WIND           31KT VIS SW-NW 7KM=,SN SH
20180205_000000.000,0,RJOH,,,,0,20180205000000,-1,-1,-1,-1,250,-1,21,-1,-1,-1,-1,,9999,0,0,1,FEW 6,-1,1,-1,8,1018,RJOH 050000Z 25021KT 9999 FEW006 M01/M08 Q1018 RESN RMK 1CU006     A3008=,
20180205_000000.003,0,RJOH,,,,0,20180205000000,-1,-1,-1,-1,250,-1,21,-1,-1,-1,-1,,9999,0,0,1,FEW 6,-1,1,-1,8,1018,RJOH 050000Z 25021KT 9999 FEW006 M01/M08 Q1018 RESN RMK 1CU006     A3008=,
20180205_010000.000,0,RJOH,,,,0,20180205010000,-1,-1,-1,-1,260,-1,22,-1,-1,-1,-1,,9999,0,0,1,FEW 10,-1,0,-1,10,1018,RJOH 050100Z 26022KT 9999 FEW010 M00/M10 Q1018 RMK 1CU010 A3008     MAX WIND 31KT=,
20180205_010000.002,0,RJOH,,,,0,20180205010000,-1,-1,-1,-1,260,-1,22,-1,-1,-1,-1,,9999,0,0,1,FEW 10,-1,0,-1,10,1018,RJOH 050100Z 26022KT 9999 FEW010 M00/M10 Q1018 RMK 1CU010     A3008 MAX WIND 31KT=,
20180205_020000.000,0,RJOH,,,,0,20180205020000,-1,-1,-1,-1,260,-1,16,-1,-1,-1,-1,,9999,0,0,2,FEW 15   BKN 25,1,0,-1,8,1019,RJOH 050200Z 26016KT 9999 FEW015 BKN025 00/M08 Q1019 RMK 1CU015     5CU025 A3009=,
20180205_020000.002,0,RJOH,,,,0,20180205020000,-1,-1,-1,-1,260,-1,16,-1,-1,-1,-1,,9999,0,0,2,FEW 15   BKN 25,1,0,-1,8,1019,RJOH 050200Z 26016KT 9999 FEW015 BKN025 00/M08 Q1019 RMK     1CU015 5CU025 A3009=,
