20180101_000000.004,0,RJOI,,,,0,20171231230000,-1,-1,-1,-1,270,-1,5,-1,-1,-1,-1,,9999,0,0,2,FEW 25   FEW 50,1,6,-1,3,1023,RJOI 312355Z 27005KT 9999 FEW025 FEW050 06/M03 A3021 RMK SLP231     T00561028 10056 20011 51020=,
20180101_010000.002,0,RJOI,,,,0,20180101000000,-1,-1,-1,-1,310,-1,6,-1,-1,-1,-1,,9999,0,0,2,FEW 25   FEW 50,1,7,-1,5,1023,RJOI 010055Z 31006KT 9999 FEW025 FEW050 07/M05 A3022 RMK SLP234     T00721050=,
20180101_020000.004,1,RJOI,,,,0,20180101010000,-1,-1,-1,-1,270,-1,8,-1,-1,-1,-1,,9999,0,0,2,FEW 30   SCT 45,1,8,-1,5,1023,RJOI 010155Z 27008KT 9999 FEW030 SCT045 08/M05 A3022 RMK SLP233     T00831050=,
20180101_030000.004,1,RJOI,,,,0,20180101020000,-1,-1,-1,-1,270,-1,13,-1,-1,-1,-1,,9999,0,0,2,FEW 30   BKN 50,1,9,-1,6,1023,RJOI 010255Z 27013KT 9999 FEW030 BKN050 09/M06 A3020 RMK SLP228     T00891056 58003=,
20180101_040000.004,1,RJOI,,,,0,20180101030000,-1,-1,-1,-1,340,-1,10,-1,-1,-1,-1,,9999,0,0,2,FEW 25   BKN 50,1,9,-1,6,1022,RJOI 010355Z 34010KT 9999 FEW025 BKN050 09/M06 A3019 RMK SLP222     T00941056=,
20180101_050000.002,0,RJOI,,,,0,20180101040000,-1,-1,-1,-1,290,-1,7,-1,-1,-1,-1,,9999,0,0,2,FEW 30   BKN 55,1,9,-1,6,1022,RJOI 010455Z 29007KT 9999 FEW030 BKN055 09/M06 A3018 RMK SLP219     T00891056=,
20180101_060000.004,1,RJOI,,,,0,20180101050000,-1,-1,-1,-1,280,-1,11,-1,-1,-1,-1,,9999,0,0,2,FEW 30   SCT 50,1,9,-1,6,1022,RJOI 010555Z 28011KT 9999 FEW030 SCT050 09/M06 A3019 RMK SLP223     T00891061 10106 20056 55003=,
20180101_070000.002,0,RJOI,,,,0,20180101060000,-1,-1,-1,-1,280,-1,10,-1,-1,-1,-1,,9999,0,0,2,FEW 30   SCT 50,1,8,-1,6,1023,RJOI 010655Z 28010KT 9999 FEW030 SCT050 08/M06 A3021 RMK SLP228     T00781061=,
20180101_080000.002,0,RJOI,,,,0,20180101070000,-1,-1,-1,-1,300,-1,5,-1,-1,-1,-1,,9999,0,0,2,FEW 30   SCT 50,1,7,-1,6,1023,RJOI 010755Z 30005KT 9999 FEW030 SCT050 07/M06 A3022 RMK SLP233     T00671056=,
20180101_090000.002,0,RJOI,,,,0,20180101080000,-1,-1,-1,-1,260,-1,4,-1,-1,-1,-1,,9999,0,0,2,FEW 30   BKN 50,1,5,-1,4,1024,RJOI 010855Z 26004KT 9999 FEW030 BKN050 05/M04 A3024 RMK SLP239     T00501039 53014=,
20180101_100000.002,0,RJOI,,,,0,20180101090000,-1,-1,-1,-1,250,-1,5,-1,-1,-1,-1,,9999,0,0,2,FEW 30   BKN 50,1,5,-1,4,1025,RJOI 010955Z 25005KT 9999 FEW030 BKN050 05/M04 A3026 RMK SLP245     T00501039=,
20180101_110000.002,0,RJOI,,,,0,20180101100000,-1,-1,-1,-1,250,-1,5,-1,-1,-1,-1,,9999,0,0,2,SCT 30   BKN 45,1,4,-1,4,1025,RJOI 011055Z 25005KT 9999 SCT030 BKN045 04/M04 A3027 RMK SLP248     T00441039=,
20180101_120000.002,0,RJOI,,,,0,20180101110000,-1,-1,-1,-1,260,-1,6,-1,-1,-1,-1,,9999,0,0,2,FEW 30   SCT 45,1,3,-1,3,1025,RJOI 011155Z 26006KT 9999 FEW030 SCT045 03/M03 A3027 RMK SLP249     T00331033 10089 20028 51010=,
20180101_130000.002,0,RJOI,,,,0,20180101120000,-1,-1,-1,-1,290,-1,3,-1,-1,-1,-1,,9999,0,0,2,FEW 30   SCT 45,1,3,-1,3,1025,RJOI 011255Z 29003KT 9999 FEW030 SCT045 03/M03 A3027 RMK SLP250     T00281033=,
20180101_140000.002,0,RJOI,,,,0,20180101130000,-1,-1,-1,-1,290,-1,5,-1,-1,-1,-1,,9999,0,0,2,FEW 30   SCT 45,1,3,-1,3,1025,RJOI 011355Z 29005KT 9999 FEW030 SCT045 03/M03 A3027 RMK SLP250     T00281028=,
20180101_150000.002,0,RJOI,,,,0,20180101140000,-1,-1,-1,-1,280,-1,6,-1,-1,-1,-1,,9999,0,0,1,FEW 30,1,2,-1,3,1025,RJOI 011455Z 28006KT 9999 FEW030 02/M03 A3027 RMK SLP251     T00221028 401060011 53003=,
20180101_160000.002,0,RJOI,,,,0,20180101150000,-1,-1,-1,-1,300,-1,5,-1,-1,-1,-1,,9999,0,0,1,FEW 30,1,2,-1,3,1025,RJOI 011555Z 30005KT 9999 FEW030 02/M03 A3026 RMK SLP247     T00171028=,
20180101_170000.002,0,RJOI,,,,0,20180101160000,-1,-1,-1,-1,290,-1,7,-1,-1,-1,-1,,9999,0,0,1,SCT 40,1,2,-1,3,1025,RJOI 011655Z 29007KT 9999 SCT040 02/M03 A3028 RMK SLP254     T00171028=,
20180101_180000.001,0,RJOI,,,,0,20180101170000,-1,-1,-1,-1,290,-1,6,-1,-1,-1,-1,,9999,0,0,1,SCT 40,1,2,-1,3,1025,RJOI 011755Z 29006KT 9999 SCT040 02/M03 A3028 RMK SLP253     T00171028 10033 20011 50000=,
20180101_190000.001,0,RJOI,,,,0,20180101180000,-1,-1,-1,-1,300,-1,6,-1,-1,-1,-1,,9999,0,0,2,FEW 25   SCT 40,1,2,-1,3,1025,RJOI 011855Z 30006KT 9999 FEW025 SCT040 02/M03 A3028 RMK SLP253     T00171028=,
20180101_200000.001,0,RJOI,,,,0,20180101190000,-1,-1,-1,-1,290,-1,6,-1,-1,-1,-1,,9999,0,0,1,SCT 30,1,1,-1,3,1025,RJOI 011955Z 29006KT 9999 SCT030 01/M03 A3028 RMK SLP252     T00111033=,
20180101_210000.002,0,RJOI,,,,0,20180101200000,-1,-1,-1,-1,290,-1,6,-1,-1,-1,-1,,9999,0,0,1,SCT 30,1,2,-1,3,1026,RJOI 012055Z 29006KT 9999 SCT030 02/M03 A3029 RMK SLP256     T00171028 53003=,
20180101_220000.002,0,RJOI,,,,0,20180101210000,-1,-1,-1,-1,290,-1,6,-1,-1,-1,-1,,9999,0,0,1,SCT 30,1,2,-1,3,1026,RJOI 012155Z 29006KT 9999 SCT030 02/M03 A3030 RMK SLP260     T00171028=,
20180101_230000.002,0,RJOI,,,,0,20180101220000,-1,-1,-1,-1,290,-1,6,-1,-1,-1,-1,,9999,0,0,1,FEW 30,1,2,-1,3,1026,RJOI 012255Z 29006KT 9999 FEW030 02/M03 A3030 RMK SLP261     T00171028=,
20180102_000000.005,0,RJOI,,,,0,20180101230000,-1,-1,-1,-1,300,-1,6,-1,-1,-1,-1,,9999,0,0,1,FEW 30,1,3,-1,2,1026,RJOI 012355Z 30006KT 9999 FEW030 03/M02 A3031 RMK SLP264     T00331022 10033 20011 53010=,
20180102_010000.007,1,RJOI,,,,0,20180102000000,-1,-1,-1,-1,260,-1,5,-1,-1,-1,-1,,9999,0,0,1,FEW 30,1,8,-1,3,1026,RJOI 020055Z 26005KT 9999 FEW030 08/M03 A3031 RMK SLP263     T00781028=,
20180102_020000.004,1,RJOI,,,,0,20180102010000,-1,-1,-1,-1,270,-1,6,-1,-1,-1,-1,,9999,0,0,1,FEW 30,1,9,-1,3,1026,RJOI 020155Z 27006KT 9999 FEW030 09/M03 A3029 RMK SLP258     T00891028=,
20180102_030000.004,1,RJOI,,,,0,20180102020000,-1,-1,-1,-1,280,-1,7,-1,-1,240,300,,9999,0,0,1,FEW 30,1,11,-1,3,1024,RJOI 020255Z 28007KT 240V300 9999 FEW030 11/M03 A3025 RMK     SLP243 T01061033 58024=,
20180102_040000.004,1,RJOI,,,,0,20180102030000,-1,-1,-1,-1,290,-1,8,-1,-1,-1,-1,,9999,0,0,1,FEW 30,1,11,-1,6,1023,RJOI 020355Z 29008KT 9999 FEW030 11/M06 A3022 RMK SLP234     T01111056=,
20180102_050000.002,0,RJOI,,,,0,20180102040000,-1,-1,-1,-1,360,-1,6,-1,17,-1,-1,,9999,0,0,2,FEW 30   FEW 45,1,12,-1,3,1023,RJOI 020455Z 36006G17KT 9999 FEW030 FEW045 12/M03 A3022 RMK     SLP232 T01171028=,
20180102_060000.002,0,RJOI,,,,0,20180102050000,-1,-1,-1,-1,300,-1,9,-1,17,-1,-1,,9999,0,0,2,FEW 30   FEW 45,1,12,-1,8,1023,RJOI 020555Z 30009G17KT 9999 FEW030 FEW045 12/M08 A3021 RMK     SLP230 T01171083 10122 20033 56010=,
20180102_070000.002,0,RJOI,,,,0,20180102060000,-1,-1,-1,-1,280,-1,8,-1,-1,-1,-1,,9999,0,0,1,FEW 30,1,11,-1,7,1023,RJOI 020655Z 28008KT 9999 FEW030 11/M07 A3022 RMK SLP232     T01061072=,
20180102_080000.002,0,RJOI,,,,0,20180102070000,-1,-1,-1,-1,290,-1,5,-1,-1,-1,-1,,9999,0,0,1,FEW 30,1,9,-1,7,1023,RJOI 020755Z 29005KT 9999 FEW030 09/M07 A3021 RMK SLP230     T00891072=,
20180102_090000.002,0,RJOI,,,,0,20180102080000,-1,-1,-1,-1,290,-1,10,-1,-1,-1,-1,,9999,0,0,1,FEW 30,1,8,-1,6,1024,RJOI 020855Z 29010KT 9999 FEW030 08/M06 A3024 RMK SLP240     T00781056 53007=,
20180102_100000.002,0,RJOI,,,,0,20180102090000,-1,-1,-1,-1,260,-1,5,-1,-1,-1,-1,,9999,0,0,1,FEW 30,1,7,-1,4,1024,RJOI 020955Z 26005KT 9999 FEW030 07/M04 A3025 RMK SLP244     T00671039=,
20180102_110000.002,0,RJOI,,,,0,20180102100000,-1,-1,-1,-1,260,-1,3,-1,-1,-1,-1,,9999,0,0,1,FEW 30,1,5,-1,3,1025,RJOI 021055Z 26003KT 9999 FEW030 05/M03 A3026 RMK SLP246     T00501028=,
20180102_120000.002,0,RJOI,,,,0,20180102110000,-1,-1,-1,-1,230,-1,4,-1,-1,-1,-1,,9999,0,0,1,FEW 30,1,5,-1,2,1024,RJOI 021155Z 23004KT 9999 FEW030 05/M02 A3024 RMK SLP240     T00501022 10117 20039 50000=,
20180102_130000.001,0,RJOI,,,,0,20180102120000,-1,-1,-1,-1,280,-1,3,-1,-1,-1,-1,,9999,0,0,1,FEW 30,1,4,-1,2,1024,RJOI 021255Z 28003KT 9999 FEW030 04/M02 A3023 RMK SLP235     T00391017=,
20180102_140000.005,1,RJOI,,,,0,20180102130000,-1,-1,-1,-1,280,-1,4,-1,-1,-1,-1,,9999,0,0,1,FEW 30,1,3,-1,1,1023,RJOI 021355Z 28004KT 9999 FEW030 03/M01 A3020 RMK SLP227     T00331011=,
20180102_150000.002,0,RJOI,,,,0,20180102140000,-1,-1,-1,-1,260,-1,4,-1,-1,-1,-1,,9999,0,0,1,FEW 30,1,3,-1,1,1022,RJOI 021455Z 26004KT 9999 FEW030 03/M01 A3019 RMK SLP223     T00331011 401220011 56017=,
20180102_160000.002,0,RJOI,,,,0,20180102150000,-1,-1,-1,-1,280,-1,4,-1,-1,-1,-1,,9999,0,0,3,FEW 30   BKN 50   BKN 65,1,4,-1,2,1022,RJOI 021555Z 28004KT 9999 FEW030 BKN050 BKN065 04/M02 A3018 RMK     SLP221 T00391017=,
20180102_170000.002,0,RJOI,,,,0,20180102160000,-1,-1,-1,-1,270,-1,3,-1,-1,-1,-1,,9999,0,0,2,FEW 30   FEW 60,1,4,-1,1,1022,RJOI 021655Z 27003KT 9999 FEW030 FEW060 04/M01 A3019 RMK SLP221     T00391011=,
20180102_180000.001,0,RJOI,,,,0,20180102170000,-1,-1,-1,-1,290,-1,3,-1,-1,-1,-1,,9999,0,0,3,FEW 30   BKN 50   BKN 70,1,3,-1,1,1022,RJOI 021755Z 29003KT 9999 FEW030 BKN050 BKN070 03/M01 A3019 RMK     SLP224 T00331011 10061 20028 53003=,
20180102_190000.002,0,RJOI,,,,0,20180102180000,-1,-1,-1,-1,290,-1,6,-1,-1,-1,-1,,9999,0,0,2,FEW 30   FEW 50,1,4,-1,1,1023,RJOI 021855Z 29006KT 9999 FEW030 FEW050 04/M01 A3020 RMK SLP227     T00441011=,
20180102_200000.001,0,RJOI,,,,0,20180102190000,-1,-1,-1,-1,0,-1,0,-1,-1,-1,-1,,9999,0,0,2,FEW 30   FEW 50,1,5,-1,4,1023,RJOI 021955Z 00000KT 9999 FEW030 FEW050 05/M04 A3021 RMK SLP229     T00501039=,
20180102_210000.002,0,RJOI,,,,0,20180102200000,-1,-1,-1,-1,250,-1,5,-1,-1,-1,-1,,9999,0,0,2,FEW 30   FEW 50,1,4,-1,4,1023,RJOI 022055Z 25005KT 9999 FEW030 FEW050 04/M04 A3022 RMK SLP234     T00391039 51010=,
20180102_220000.002,0,RJOI,,,,0,20180102210000,-1,-1,-1,-1,270,-1,4,-1,-1,-1,-1,,9999,0,0,2,FEW 30   SCT 50,1,2,-1,3,1024,RJOI 022155Z 27004KT 9999 FEW030 SCT050 02/M03 A3024 RMK SLP238     T00221033=,
20180102_230000.004,1,RJOI,,,,0,20180102220000,-1,-1,-1,-1,310,-1,6,-1,-1,-1,-1,,9999,0,0,2,FEW 30   BKN 60,1,4,-1,3,1024,RJOI 022255Z 31006KT 9999 FEW030 BKN060 04/M03 A3025 RMK SLP243     T00391028=,
20180103_000000.004,0,RJOI,,,,0,20180102230000,-1,-1,-1,-1,270,-1,3,-1,-1,-1,-1,,9999,0,0,2,FEW 30   SCT 60,1,6,-1,2,1024,RJOI 022355Z 27003KT 9999 FEW030 SCT060 06/M02 A3025 RMK SLP244     T00611022 10061 20022 51010=,
20180103_010000.002,0,RJOI,,,,0,20180103000000,-1,-1,-1,-1,280,-1,3,-1,-1,-1,-1,,9999,0,0,2,FEW 30   BKN 55,1,7,-1,3,1025,RJOI 030055Z 28003KT 9999 FEW030 BKN055 07/M03 A3026 RMK SLP247     T00721028=,
20180103_020000.002,0,RJOI,,,,0,20180103010000,-1,-1,-1,-1,320,-1,7,-1,-1,-1,-1,,9999,0,0,1,BKN 50,1,8,-1,3,1025,RJOI 030155Z 32007KT 9999 BKN050 08/M03 A3027 RMK SLP248     T00831033=,
20180103_030000.003,0,RJOI,,,,0,20180103020000,-1,-1,-1,-1,260,-1,7,-1,-1,-1,-1,,9999,0,0,1,BKN 50,1,9,-1,4,1024,RJOI 030255Z 26007KT 9999 BKN050 09/M04 A3023 RMK SLP235     T00941044 58007=,
20180103_040000.002,0,RJOI,,,,0,20180103030000,-1,-1,-1,-1,320,-1,10,-1,-1,-1,-1,,9999,0,0,1,SCT 50,1,9,-1,3,1023,RJOI 030355Z 32010KT 9999 SCT050 09/M03 A3022 RMK SLP231     T00891028=,
20180103_050000.002,0,RJOI,,,,0,20180103040000,-1,-1,-1,-1,320,-1,8,-1,-1,-1,-1,,9999,0,0,1,BKN 50,1,10,-1,3,1023,RJOI 030455Z 32008KT 9999 BKN050 10/M03 A3021 RMK SLP228     T01001028=,
20180103_060000.002,0,RJOI,,,,0,20180103050000,-1,-1,-1,-1,320,-1,9,-1,-1,-1,-1,,9999,0,0,1,BKN 50,1,8,-1,3,1023,RJOI 030555Z 32009KT 9999 BKN050 08/M03 A3022 RMK SLP231     T00831028 10100 20061 55003=,
20180103_070000.002,0,RJOI,,,,0,20180103060000,-1,-1,-1,-1,290,-1,8,-1,-1,-1,-1,,9999,0,0,2,BKN 50   BKN 250,1,8,-1,2,1023,RJOI 030655Z 29008KT 9999 BKN050 BKN250 08/M02 A3022 RMK     RAB23E33 SLP232 P0000 T00781022=,
20180103_080000.002,0,RJOI,,,,0,20180103070000,-1,-1,-1,-1,270,-1,9,-1,-1,-1,-1,,9999,0,0,2,SCT 50   SCT 250,1,7,-1,2,1024,RJOI 030755Z 27009KT 9999 SCT050 SCT250 07/M02 A3023 RMK SLP236     T00671017=,
20180103_090000.002,0,RJOI,,,,0,20180103080000,-1,-1,-1,-1,290,-1,6,-1,-1,-1,-1,,9999,0,0,2,SCT 50   SCT 250,1,6,-1,1,1024,RJOI 030855Z 29006KT 9999 SCT050 SCT250 06/M01 A3024 RMK SLP238     60000 T00561006 53007=,
20180103_100000.002,0,RJOI,,,,0,20180103090000,-1,-1,-1,-1,300,-1,5,-1,-1,-1,-1,,9999,0,0,1,BKN 50,1,6,-1,1,1025,RJOI 030955Z 30005KT 9999 BKN050 06/M01 A3026 RMK SLP246     T00561006=,
20180103_110000.002,0,RJOI,,,,0,20180103100000,-1,-1,-1,-1,360,-1,3,-1,-1,-1,-1,,9999,0,0,3,FEW 20   SCT 35   BKN 60,1,5,-1,1,1025,RJOI 031055Z 36003KT 9999 FEW020 SCT035 BKN060 05/M01 A3027 RMK     SLP250 T00501006=,
20180103_120000.004,1,RJOI,,,,0,20180103110000,-1,-1,-1,-1,350,-1,7,-1,-1,-1,-1,,9999,0,0,3,FEW 20   SCT 35   BKN 60,1,6,1,0,1025,RJOI 031155Z 35007KT 9999 FEW020 SCT035 BKN060 06/00 A3026 RMK     SLP246 60000 T00560000 10094 20050 51007=,
20180103_130000.001,0,RJOI,,,,0,20180103120000,-1,-1,-1,-1,360,-1,9,-1,-1,-1,-1,,9999,0,0,2,FEW 25   BKN 60,1,4,1,0,1025,RJOI 031255Z 36009KT 9999 FEW025 BKN060 04/00 A3027 RMK SLP251     T00440000=,
20180103_140000.004,1,RJOI,,,,0,20180103130000,-1,-1,-1,-1,300,-1,5,-1,-1,-1,-1,,9999,0,0,2,FEW 25   SCT 40,1,4,1,0,1025,RJOI 031355Z 30005KT 9999 FEW025 SCT040 04/00 A3028 RMK SLP253     T00390000=,
20180103_150000.004,1,RJOI,,,,0,20180103140000,-1,-1,-1,-1,310,-1,6,-1,-1,-1,-1,,9999,0,0,2,FEW 25   FEW 40,1,3,-1,1,1025,RJOI 031455Z 31006KT 9999 FEW025 FEW040 03/M01 A3027 RMK SLP250     T00281006 401000022 51007=,
20180103_160000.004,1,RJOI,,,,0,20180103150000,-1,-1,-1,-1,290,-1,6,-1,-1,-1,-1,,9999,0,0,2,FEW 25   SCT 40,1,2,-1,1,1025,RJOI 031555Z 29006KT 9999 FEW025 SCT040 02/M01 A3027 RMK SLP250     T00171006=,
20180103_170000.002,0,RJOI,,,,0,20180103160000,-1,-1,-1,-1,300,-1,6,-1,-1,-1,-1,,9999,0,0,2,FEW 25   SCT 40,1,2,-1,1,1025,RJOI 031655Z 30006KT 9999 FEW025 SCT040 02/M01 A3027 RMK SLP250     T00171006=,
20180103_180000.002,0,RJOI,,,,0,20180103170000,-1,-1,-1,-1,300,-1,6,-1,-1,-1,-1,,9999,0,0,2,FEW 25   SCT 40,1,2,-1,1,1025,RJOI 031755Z 30006KT 9999 FEW025 SCT040 02/M01 A3026 RMK SLP246     T00171006 10050 20017 58007=,
20180103_190000.002,0,RJOI,,,,0,20180103180000,-1,-1,-1,-1,290,-1,6,-1,-1,-1,-1,,9999,0,0,2,FEW 25   SCT 40,1,1,-1,1,1025,RJOI 031855Z 29006KT 9999 FEW025 SCT040 01/M01 A3026 RMK SLP245     T00111006=,
20180103_200000.002,0,RJOI,,,,0,20180103190000,-1,-1,-1,-1,300,-1,6,-1,-1,-1,-1,,9999,0,0,3,FEW 25   SCT 40   BKN 60,1,2,-1,1,1025,RJOI 031955Z 30006KT 9999 FEW025 SCT040 BKN060 02/M01 A3026 RMK     SLP246 T00171006=,
20180103_210000.005,1,RJOI,,,,0,20180103200000,-1,-1,-1,-1,290,-1,5,-1,-1,-1,-1,,9999,0,0,3,FEW 25   FEW 40   SCT 60,1,2,-1,1,1025,RJOI 032055Z 29005KT 9999 FEW025 FEW040 SCT060 02/M01 A3026 RMK     SLP247 T00171006 53003=,
20180103_220000.002,0,RJOI,,,,0,20180103210000,-1,-1,-1,-1,290,-1,6,-1,-1,-1,-1,,9999,0,0,3,FEW 25   FEW 40   SCT 60,1,1,-1,1,1025,RJOI 032155Z 29006KT 9999 FEW025 FEW040 SCT060 01/M01 A3027 RMK     SLP250 T00111006=,
20180103_230000.002,0,RJOI,,,,0,20180103220000,-1,-1,-1,-1,300,-1,6,-1,-1,-1,-1,,9999,0,0,3,FEW 25   SCT 60   SCT 250,1,2,-1,1,1025,RJOI 032255Z 30006KT 9999 FEW025 SCT060 SCT250 02/M01 A3026 RMK     SLP247 T00171006=,
20180104_000000.004,0,RJOI,,,,0,20180103230000,-1,-1,-1,-1,300,-1,6,-1,-1,-1,-1,,9999,0,0,3,FEW 25   SCT 60   SCT 250,1,4,1,0,1025,RJOI 032355Z 30006KT 9999 FEW025 SCT060 SCT250 04/00 A3027 RMK     SLP249 T00390000 10039 20011 51003=,
20180104_010000.004,1,RJOI,,,,0,20180104000000,-1,-1,-1,-1,320,-1,4,-1,-1,-1,-1,,9999,0,0,3,FEW 25   SCT 60   SCT 150,1,6,1,0,1025,RJOI 040055Z 32004KT 9999 FEW025 SCT060 SCT150 06/00 A3027 RMK     SLP250 T00610000=,
20180104_020000.002,0,RJOI,,,,0,20180104010000,-1,-1,-1,-1,30,-1,3,-1,-1,-1,-1,,9999,0,0,3,FEW 25   SCT 60   SCT 150,1,7,1,1,1025,RJOI 040155Z 03003KT 9999 FEW025 SCT060 SCT150 07/01 A3026 RMK     SLP247 T00720006=,
20180104_030000.002,0,RJOI,,,,0,20180104020000,-1,-1,-1,-1,50,-1,5,-1,-1,-1,-1,,9999,0,0,3,FEW 25   BKN 60   BKN 150,1,8,-1,1,1023,RJOI 040255Z 05005KT 9999 FEW025 BKN060 BKN150 08/M01 A3022 RMK     SLP234 T00831006 58017=,
20180104_040000.002,0,RJOI,,,,0,20180104030000,-1,-1,-1,-1,0,-1,0,-1,-1,-1,-1,,9999,0,0,3,FEW 25   BKN 60   BKN 150,1,8,-1,1,1023,RJOI 040355Z 00000KT 9999 FEW025 BKN060 BKN150 08/M01 A3020 RMK     SLP224 T00781011=,
20180104_050000.002,0,RJOI,,,,0,20180104040000,-1,-1,-1,-1,140,-1,3,-1,-1,-1,-1,,9999,0,0,3,FEW 25   BKN 60   BKN 150,1,8,-1,2,1022,RJOI 040455Z 14003KT 9999 FEW025 BKN060 BKN150 08/M02 A3017 RMK     SLP216 T00831017=,
20180104_060000.003,0,RJOI,,,,0,20180104050000,-1,-1,-1,-1,0,-1,0,-1,-1,-1,-1,,9999,0,0,3,FEW 25   BKN 60   BKN 150,1,7,-1,2,1022,RJOI 040555Z 00000KT 9999 FEW025 BKN060 BKN150 07/M02 A3017 RMK     SLP214 T00721017 10089 20039 56017=,
20180104_070000.004,1,RJOI,,,,0,20180104060000,-1,-1,-1,-1,0,-1,0,-1,-1,-1,-1,,9999,0,0,3,FEW 25   BKN 60   BKN 150,1,8,-1,2,1022,RJOI 040655Z 00000KT 9999 FEW025 BKN060 BKN150 08/M02 A3017 RMK     SLP214 T00831017=,
20180104_080000.002,0,RJOI,,,,0,20180104070000,-1,-1,-1,-1,0,-1,0,-1,-1,-1,-1,,9999,0,0,3,FEW 25   BKN 50   BKN 120,1,8,-1,1,1022,RJOI 040755Z 00000KT 9999 FEW025 BKN050 BKN120 08/M01 A3017 RMK     SLP216 T00781011=,
20180104_090000.002,0,RJOI,,,,0,20180104080000,-1,-1,-1,-1,0,-1,0,-1,-1,-1,-1,,9999,0,0,3,FEW 25   BKN 50   BKN 120,1,8,1,0,1022,RJOI 040855Z 00000KT 9999 FEW025 BKN050 BKN120 08/00 A3018 RMK     SLP218 T00780000 53003=,
20180104_100000.002,0,RJOI,,,,0,20180104090000,-1,-1,-1,-1,300,-1,3,-1,-1,-1,-1,,9999,0,0,2,BKN 50   BKN 120,1,7,1,1,1022,RJOI 040955Z 30003KT 9999 BKN050 BKN120 07/01 A3018 RMK SLP220     T00720006=,
20180104_110000.002,0,RJOI,,,,0,20180104100000,-1,-1,-1,-1,360,-1,5,-1,-1,-1,-1,,9999,0,0,3,BKN 50   BKN 120   OVC 180,1,7,-1,1,1022,RJOI 041055Z 36005KT 9999 BKN050 BKN120 OVC180 07/M01 A3019 RMK     SLP222 T00721006=,
20180104_120000.001,0,RJOI,,,,0,20180104110000,-1,-1,-1,-1,10,-1,9,-1,-1,-1,-1,,9999,0,0,3,BKN 50   BKN 120   OVC 180,1,7,-1,1,1022,RJOI 041155Z 01009KT 9999 BKN050 BKN120 OVC180 07/M01 A3018 RMK     SLP218 T00721011 10083 20067 54000=,
20180104_130000.005,1,RJOI,,,,0,20180104120000,-1,-1,-1,-1,310,-1,5,-1,-1,-1,-1,,9999,0,0,3,BKN 40   BKN 120   OVC 180,1,6,1,0,1022,RJOI 041255Z 31005KT 9999 BKN040 BKN120 OVC180 06/00 A3017 RMK     SLP217 T00610000=,
20180104_140000.002,0,RJOI,,,,0,20180104130000,-1,-1,-1,-1,290,-1,4,-1,-1,-1,-1,,9999,0,0,3,SCT 40   BKN 120   OVC 180,1,6,1,1,1021,RJOI 041355Z 29004KT 9999 SCT040 BKN120 OVC180 06/01 A3015 RMK     SLP210 T00560006=,
20180104_150000.001,0,RJOI,,,,0,20180104140000,-1,-1,-1,-1,300,-1,5,-1,-1,-1,-1,,9999,0,0,3,SCT 35   BKN 100   OVC 180,1,6,1,1,1021,RJOI 041455Z 30005KT 9999 SCT035 BKN100 OVC180 06/01 A3015 RMK     SLP209 T00560006 400890011 56007=,
20180104_160000.001,0,RJOI,,,,0,20180104150000,-1,-1,-1,-1,290,-1,5,-1,-1,-1,-1,,9999,0,0,3,SCT 35   BKN 100   OVC 180,1,5,1,0,1020,RJOI 041555Z 29005KT 9999 SCT035 BKN100 OVC180 05/00 A3012 RMK     SLP199 T00500000=,
20180104_170000.000,0,RJOI,,,,0,20180104160000,-1,-1,-1,-1,310,-1,5,-1,-1,-1,-1,,9999,0,0,3,SCT 30   BKN 80   OVC 180,1,5,1,0,1020,RJOI 041655Z 31005KT 9999 SCT030 BKN080 OVC180 05/00 A3011 RMK     SLP195 T00500000=,
20180104_180000.004,1,RJOI,,,,0,20180104170000,-1,-1,-1,-1,300,-1,5,-1,-1,-1,-1,,9999,0,0,3,FEW 30   BKN 70   OVC 180,1,5,1,1,1020,RJOI 041755Z 30005KT 9999 FEW030 BKN070 OVC180 05/01 A3011 RMK     SLP197 T005000006 10072 20050 56017=,
20180104_190000.008,1,RJOI,,,,0,20180104180000,-1,-1,-1,-1,260,-1,5,-1,-1,-1,-1,,9999,0,0,3,FEW 30   BKN 50   OVC 80,1,5,1,1,1019,RJOI 041855Z 26005KT 9999 FEW030 BKN050 OVC080 05/01 A3010 RMK     SLP191 P0000 T00500006=,
20180104_200000.002,0,RJOI,,,,0,20180104190000,-1,-1,-1,-1,270,-1,6,-1,-1,-1,-1,,9999,0,1,3,FEW 8   BKN 30   OVC 40,1,4,1,2,1019,RJOI 041955Z 27006KT 9999 -RA FEW008 BKN030 OVC040 04/02 A3009     RMK SLP190 P0000 T00440022=,- RA
20180104_210000.002,0,RJOI,,,,0,20180104200000,-1,-1,-1,-1,290,-1,4,-1,-1,-1,-1,,9000,0,2,3,FEW 8   BKN 20   OVC 35,1,4,1,2,1019,RJOI 042055Z 29004KT 9000 -RA BR FEW008 BKN020 OVC035 04/02     A3008 RMK SLP185 P0000 60000 T00390022 57007=,- RA; BR
20180104_220000.002,0,RJOI,,,,0,20180104210000,-1,-1,-1,-1,260,-1,6,-1,-1,-1,-1,,9999,0,1,3,FEW 20   BKN 30   BKN 80,1,4,1,2,1018,RJOI 042155Z 26006KT 9999 -RA FEW020 BKN030 BKN080 04/02 A3006     RMK SLP180 P0001 T00390022=,- RA
20180104_230000.002,0,RJOI,,,,0,20180104220000,-1,-1,-1,-1,290,-1,4,-1,-1,-1,-1,,9999,0,1,3,FEW 10   FEW 25   OVC 80,1,4,1,3,1018,RJOI 042255Z 29004KT 9999 -RA FEW010 FEW025 OVC080 04/03 A3007     RMK SLP183 P0007 T00390028=,- RA
20180105_000000.006,0,RJOI,,,,0,20180104230000,-1,-1,-1,-1,290,-1,5,-1,-1,-1,-1,,9999,0,1,3,FEW 10   FEW 25   OVC 80,1,4,1,2,1018,RJOI 042355Z 29005KT 9999 -RA FEW010 FEW025 OVC080 04/02 A3007     RMK SLP182 P0002 60010 T00390022 10050 20033 58003=,- RA
20180105_010000.005,1,RJOI,,,,0,20180105000000,-1,-1,-1,-1,290,-1,5,-1,-1,-1,-1,,9999,0,1,3,FEW 10   FEW 25   OVC 80,1,4,1,2,1019,RJOI 050055Z 29005KT 9999 -RA FEW010 FEW025 OVC080 04/02 A3008     RMK SLP186 P0003 T00390022=,- RA
20180105_020000.002,0,RJOI,,,,0,20180105010000,-1,-1,-1,-1,290,-1,5,-1,-1,-1,-1,,9999,0,1,3,FEW 5   FEW 25   OVC 45,1,4,1,3,1018,RJOI 050155Z 29005KT 9999 -RA FEW005 FEW025 OVC045 04/03 A3007     RMK SLP182 P0003 T00390028=,- RA
20180105_030000.002,0,RJOI,,,,0,20180105020000,-1,-1,-1,-1,999,-1,3,-1,-1,-1,-1,,9999,0,0,3,FEW 15   BKN 35   BKN 110,1,6,1,3,1017,RJOI 050255Z VRB03KT 9999 FEW015 BKN035 BKN110 06/03 A3004 RMK     RAE46 SLP171 P0002 60008 T00560033 58010=,
20180105_040000.002,0,RJOI,,,,0,20180105030000,-1,-1,-1,-1,0,-1,0,-1,-1,-1,-1,,9999,0,0,3,FEW 15   SCT 35   BKN 70,1,6,1,3,1016,RJOI 050355Z 00000KT 9999 FEW015 SCT035 BKN070 06/03 A3001 RMK     SLP161 T00610028=,
20180105_050000.002,0,RJOI,,,,0,20180105040000,-1,-1,-1,-1,0,-1,0,-1,-1,-1,-1,,9999,0,0,3,FEW 15   SCT 35   BKN 70,1,7,1,3,1015,RJOI 050455Z 00000KT 9999 FEW015 SCT035 BKN070 07/03 A2998 RMK     SLP153 T00670033=,
20180105_060000.004,1,RJOI,,,,0,20180105050000,-1,-1,-1,-1,190,-1,3,-1,-1,-1,-1,,9999,0,0,3,FEW 15   BKN 20   BKN 70,0,-1,0,-1,1015,RJOI 050555Z 19003KT 9999 FEW015 BKN020 BKN070 A2998 RMK SLP152     60008 T00670028 10067 20039 56017=,
20180105_070000.002,0,RJOI,,,,0,20180105060000,-1,-1,-1,-1,190,-1,3,-1,-1,-1,-1,,9999,0,0,3,FEW 15   SCT 35   BKN 70,1,7,1,3,1015,RJOI 050655Z 19003KT 9999 FEW015 SCT035 BKN070 07/03 A2998 RMK     SLP151 T00670033=,
20180105_080000.002,0,RJOI,,,,0,20180105070000,-1,-1,-1,-1,240,-1,3,-1,-1,-1,-1,,9999,0,0,3,FEW 15   SCT 35   BKN 70,1,7,1,3,1015,RJOI 050755Z 24003KT 9999 FEW015 SCT035 BKN070 07/03 A2998 RMK     SLP152 T00670033=,
20180105_090000.002,0,RJOI,,,,0,20180105080000,-1,-1,-1,-1,0,-1,0,-1,-1,-1,-1,,9999,0,0,3,FEW 25   SCT 45   BKN 70,1,6,1,3,1015,RJOI 050855Z 00000KT 9999 FEW025 SCT045 BKN070 06/03 A2997 RMK     SLP149 T00560033 58003=,
20180105_100000.002,0,RJOI,,,,0,20180105090000,-1,-1,-1,-1,320,-1,4,-1,-1,-1,-1,,9999,0,0,3,FEW 25   FEW 45   BKN 70,1,6,1,3,1015,RJOI 050955Z 32004KT 9999 FEW025 FEW045 BKN070 06/03 A2998 RMK     SLP150 T00560033=,
20180105_110000.002,0,RJOI,,,,0,20180105100000,-1,-1,-1,-1,300,-1,5,-1,-1,-1,-1,,9999,0,0,3,SCT 20   BKN 30   OVC 45,1,6,1,4,1015,RJOI 051055Z 30005KT 9999 SCT020 BKN030 OVC045 06/04 A2998 RMK     SLP150 T00560039=,
20180105_120000.002,0,RJOI,,,,0,20180105110000,-1,-1,-1,-1,280,-1,4,-1,-1,-1,-1,,9999,0,1,3,SCT 20   BKN 30   OVC 45,1,6,1,3,1015,RJOI 051155Z 28004KT 9999 -SHRA SCT020 BKN030 OVC045 06/03     A2997 RMK SHRAB45 SLP148 P0000 60000 70018 T00610033 10067           20050 58003=,- RA SH
20180105_130000.002,0,RJOI,,,,0,20180105120000,-1,-1,-1,-1,270,-1,6,-1,-1,-1,-1,,9999,0,0,3,FEW 20   BKN 30   OVC 60,1,6,1,3,1015,RJOI 051255Z 27006KT 9999 FEW020 BKN030 OVC060 06/03 A2997 RMK     SHRAE16 SLP148 P0000 T00610033=,
20180105_140000.002,0,RJOI,,,,0,20180105130000,-1,-1,-1,-1,290,-1,3,-1,-1,-1,-1,,9999,0,0,3,FEW 20   BKN 30   BKN 60,1,6,1,3,1015,RJOI 051355Z 29003KT 9999 FEW020 BKN030 BKN060 06/03 A2996 RMK     SLP146 T00560033=,
20180105_150000.002,0,RJOI,,,,0,20180105140000,-1,-1,-1,-1,240,-1,7,-1,-1,-1,-1,,9999,0,0,2,FEW 30   SCT 60,1,6,1,3,1015,RJOI 051455Z 24007KT 9999 FEW030 SCT060 06/03 A2996 RMK SLP144     60000 T00610033 400670033 58003=,
20180105_160000.001,0,RJOI,,,,0,20180105150000,-1,-1,-1,-1,250,-1,7,-1,-1,-1,-1,,9999,0,0,3,FEW 20   BKN 30   BKN 60,1,7,1,3,1015,RJOI 051555Z 25007KT 9999 FEW020 BKN030 BKN060 07/03 A2996 RMK     SLP146 T00720028=,
20180105_170000.002,0,RJOI,,,,0,20180105160000,-1,-1,-1,-1,240,-1,7,-1,-1,-1,-1,,9999,0,0,2,FEW 30   SCT 45,1,7,1,3,1015,RJOI 051655Z 24007KT 9999 FEW030 SCT045 07/03 A2997 RMK SLP147     T00670028=,
20180105_180000.001,0,RJOI,,,,0,20180105170000,-1,-1,-1,-1,240,-1,3,-1,-1,-1,-1,,9999,0,0,1,FEW 30,1,6,1,2,1015,RJOI 051755Z 24003KT 9999 FEW030 06/02 A2998 RMK SLP150 60000     T00560017 10072 20056 53007=,
20180105_190000.002,0,RJOI,,,,0,20180105180000,-1,-1,-1,-1,350,-1,4,-1,-1,-1,-1,,9999,0,0,2,FEW 30   BKN 60,1,4,1,2,1015,RJOI 051855Z 35004KT 9999 FEW030 BKN060 04/02 A2998 RMK SLP150     T00440017=,
20180105_200000.002,0,RJOI,,,,0,20180105190000,-1,-1,-1,-1,340,-1,3,-1,-1,-1,-1,,9999,0,0,2,FEW 30   SCT 45,1,5,1,1,1016,RJOI 051955Z 34003KT 9999 FEW030 SCT045 05/01 A2999 RMK SLP156     T00500011=,
20180105_210000.003,0,RJOI,,,,0,20180105200000,-1,-1,-1,-1,0,-1,0,-1,-1,-1,-1,,9999,0,0,1,FEW 30,1,5,1,0,1016,RJOI 052055Z 00000KT 9999 FEW030 05/00 A3000 RMK SLP158     T00500000 51007=,
20180105_220000.002,0,RJOI,,,,0,20180105210000,-1,-1,-1,-1,0,-1,0,-1,-1,-1,-1,,9999,0,0,1,FEW 25,1,5,-1,2,1017,RJOI 052155Z 00000KT 9999 FEW025 05/M02 A3002 RMK SLP164     T00501017=,
20180105_230000.002,0,RJOI,,,,0,20180105220000,-1,-1,-1,-1,0,-1,0,-1,-1,-1,-1,,9999,0,0,2,FEW 25   FEW 50,1,4,-1,1,1017,RJOI 052255Z 00000KT 9999 FEW025 FEW050 04/M01 A3004 RMK SLP172     T00441006=,
20180106_000000.005,1,RJOI,,,,0,20180105230000,-1,-1,-1,-1,290,-1,5,-1,-1,-1,-1,,9999,0,0,2,FEW 25   FEW 50,1,7,-1,1,1018,RJOI 052355Z 29005KT 9999 FEW025 FEW050 07/M01 A3006 RMK SLP179     T00671006 10067 20033 51024=,
20180106_010000.004,1,RJOI,,,,0,20180106000000,-1,-1,-1,-1,280,-1,8,-1,-1,-1,-1,,9999,0,0,2,FEW 25   FEW 40,1,8,-1,1,1019,RJOI 060055Z 28008KT 9999 FEW025 FEW040 08/M01 A3008 RMK SLP186     T00831011=,
20180106_020000.002,0,RJOI,,,,0,20180106010000,-1,-1,-1,-1,290,-1,10,-1,-1,-1,-1,,9999,0,0,1,FEW 30,1,9,-1,3,1018,RJOI 060155Z 29010KT 9999 FEW030 09/M03 A3007 RMK SLP183     T00941033=,
20180106_030000.002,0,RJOI,,,,0,20180106020000,-1,-1,-1,-1,290,-1,13,-1,18,-1,-1,,9999,0,0,1,FEW 30,1,10,-1,3,1017,RJOI 060255Z 29013G18KT 9999 FEW030 10/M03 A3004 RMK SLP173     T01001033 58007=,
20180106_040000.004,0,RJOI,,,,0,20180106030000,-1,-1,-1,-1,280,-1,14,-1,19,-1,-1,,9999,0,0,2,FEW 30   FEW 40,1,11,-1,4,1017,RJOI 060355Z 28014G19KT 9999 FEW030 FEW040 11/M04 A3003 RMK     SLP169 T01061039=,
20180106_050000.002,0,RJOI,,,,0,20180106040000,-1,-1,-1,-1,330,-1,9,-1,-1,-1,-1,,9999,0,0,2,FEW 30   SCT 45,1,10,-1,4,1017,RJOI 060455Z 33009KT 9999 FEW030 SCT045 10/M04 A3003 RMK SLP169     T01001044=,
20180106_060000.004,1,RJOI,,,,0,20180106050000,-1,-1,-1,-1,290,-1,9,-1,-1,-1,-1,,9999,0,0,2,FEW 30   FEW 45,1,11,-1,5,1017,RJOI 060555Z 29009KT 9999 FEW030 FEW045 11/M05 A3003 RMK SLP169     T01111050 10117 20067 56003=,
20180106_070000.002,0,RJOI,,,,0,20180106060000,-1,-1,-1,-1,300,-1,6,-1,-1,-1,-1,,9999,0,0,2,FEW 30   FEW 45,1,11,-1,6,1018,RJOI 060655Z 30006KT 9999 FEW030 FEW045 11/M06 A3005 RMK SLP175     T01061056=,
20180106_080000.004,1,RJOI,,,,0,20180106070000,-1,-1,-1,-1,300,-1,6,-1,-1,-1,-1,,9999,0,0,2,FEW 30   SCT 50,1,9,-1,5,1018,RJOI 060755Z 30006KT 9999 FEW030 SCT050 09/M05 A3007 RMK SLP183     T00891050=,
20180106_090000.002,0,RJOI,,,,0,20180106080000,-1,-1,-1,-1,320,-1,4,-1,-1,-1,-1,,9999,0,0,2,FEW 30   FEW 40,1,8,-1,4,1018,RJOI 060855Z 32004KT 9999 FEW030 FEW040 08/M04 A3007 RMK SLP181     T00781039 51014=,
20180106_100000.004,1,RJOI,,,,0,20180106090000,-1,-1,-1,-1,290,-1,6,-1,-1,-1,-1,,9999,0,0,2,FEW 30   FEW 40,1,7,-1,2,1021,RJOI 060955Z 29006KT 9999 FEW030 FEW040 07/M02 A3014 RMK PRESRR     SLP205 T00671022=,
20180106_110000.004,1,RJOI,,,,0,20180106100000,-1,-1,-1,-1,290,-1,7,-1,-1,-1,-1,,9999,0,0,2,FEW 30   SCT 60,1,6,-1,2,1021,RJOI 061055Z 29007KT 9999 FEW030 SCT060 06/M02 A3016 RMK SLP211     T00561017=,
20180106_120000.002,0,RJOI,,,,0,20180106110000,-1,-1,-1,-1,300,-1,6,-1,-1,-1,-1,,9999,0,0,2,FEW 30   FEW 60,1,5,-1,2,1021,RJOI 061155Z 30006KT 9999 FEW030 FEW060 05/M02 A3016 RMK SLP212     T00501017 10111 20050 51027=,
20180106_130000.002,0,RJOI,,,,0,20180106120000,-1,-1,-1,-1,300,-1,6,-1,-1,-1,-1,,9999,0,0,2,FEW 30   FEW 60,1,4,-1,1,1022,RJOI 061255Z 30006KT 9999 FEW030 FEW060 04/M01 A3017 RMK SLP215     T00441011=,
20180106_140000.001,0,RJOI,,,,0,20180106130000,-1,-1,-1,-1,300,-1,7,-1,-1,-1,-1,,9999,0,0,3,FEW 30   FEW 60   SCT 200,1,4,-1,1,1022,RJOI 061355Z 30007KT 9999 FEW030 FEW060 SCT200 04/M01 A3017 RMK     SLP218 T00391006=,
20180106_140000.005,1,RJOI,,,,0,20180106130000,-1,-1,-1,-1,300,-1,7,-1,-1,-1,-1,,9999,0,0,3,FEW 30   FEW 60   SCT 200,1,4,-1,1,1022,RJOI 061355Z 30007KT 9999 FEW030 FEW060 SCT200 04/M01 A3017     RMK SLP218 T00391006=,
20180106_150000.002,0,RJOI,,,,0,20180106140000,-1,-1,-1,-1,300,-1,7,-1,-1,-1,-1,,9999,0,0,3,FEW 30   FEW 60   SCT 200,1,4,-1,1,1022,RJOI 061455Z 30007KT 9999 FEW030 FEW060 SCT200 04/M01 A3018 RMK     SLP218 T00391006 401170033 51007=,
20180106_160000.002,0,RJOI,,,,0,20180106150000,-1,-1,-1,-1,290,-1,6,-1,-1,-1,-1,,9999,0,0,3,FEW 30   SCT 60   BKN 200,1,3,-1,1,1022,RJOI 061555Z 29006KT 9999 FEW030 SCT060 BKN200 03/M01 A3018 RMK     SLP218 T00331006=,
20180106_170000.002,0,RJOI,,,,0,20180106160000,-1,-1,-1,-1,290,-1,8,-1,-1,-1,-1,,9999,0,0,3,FEW 30   FEW 60   BKN 200,1,3,-1,1,1023,RJOI 061655Z 29008KT 9999 FEW030 FEW060 BKN200 03/M01 A3020 RMK     SLP225 T00331006=,
20180106_180000.005,1,RJOI,,,,0,20180106170000,-1,-1,-1,-1,300,-1,7,-1,-1,-1,-1,,9999,0,0,3,FEW 30   BKN 60   BKN 200,1,4,-1,1,1022,RJOI 061755Z 30007KT 9999 FEW030 BKN060 BKN200 04/M01 A3019 RMK     SLP224 T00391011 10050 20033 51007=,
20180106_190000.002,0,RJOI,,,,0,20180106180000,-1,-1,-1,-1,300,-1,5,-1,-1,-1,-1,,9999,0,0,3,FEW 30   FEW 60   BKN 200,1,3,-1,1,1023,RJOI 061855Z 30005KT 9999 FEW030 FEW060 BKN200 03/M01 A3020 RMK     SLP225 T00281011=,
20180106_200000.002,0,RJOI,,,,0,20180106190000,-1,-1,-1,-1,320,-1,6,-1,-1,-1,-1,,9999,0,0,2,FEW 30   BKN 200,1,3,-1,1,1022,RJOI 061955Z 32006KT 9999 FEW030 BKN200 03/M01 A3018 RMK SLP220     T00331011=,
20180106_210000.002,0,RJOI,,,,0,20180106200000,-1,-1,-1,-1,300,-1,6,-1,-1,-1,-1,,9999,0,0,3,FEW 30   FEW 60   BKN 200,1,2,-1,1,1023,RJOI 062055Z 30006KT 9999 FEW030 FEW060 BKN200 02/M01 A3020 RMK     SLP225 T00221011 55000=,
20180106_220000.004,1,RJOI,,,,0,20180106210000,-1,-1,-1,-1,290,-1,8,-1,-1,-1,-1,,9999,0,0,3,FEW 30   BKN 60   BKN 200,1,2,-1,1,1024,RJOI 062155Z 29008KT 9999 FEW030 BKN060 BKN200 02/M01 A3023 RMK     SLP235 T00221011=,
20180106_230000.002,0,RJOI,,,,0,20180106220000,-1,-1,-1,-1,300,-1,7,-1,-1,-1,-1,,9999,0,0,3,FEW 30   SCT 60   BKN 200,1,2,-1,1,1024,RJOI 062255Z 30007KT 9999 FEW030 SCT060 BKN200 02/M01 A3023 RMK     SLP237 T00221011=,
20180107_000000.004,0,RJOI,,,,0,20180106230000,-1,-1,-1,-1,310,-1,4,-1,-1,-1,-1,,9999,0,0,2,FEW 30   BKN 200,1,4,-1,1,1024,RJOI 062355Z 31004KT 9999 FEW030 BKN200 04/M01 A3023 RMK SLP237     T00391006 10039 20017 51010=,
20180107_010000.005,1,RJOI,,,,0,20180107000000,-1,-1,-1,-1,340,-1,5,-1,-1,-1,-1,,9999,0,0,3,FEW 30   SCT 60   BKN 200,1,7,1,1,1024,RJOI 070055Z 34005KT 9999 FEW030 SCT060 BKN200 07/01 A3023 RMK     SLP237 T00720011=,
20180107_020000.002,0,RJOI,,,,0,20180107010000,-1,-1,-1,-1,20,-1,7,-1,-1,-1,-1,,9999,0,0,3,FEW 30   SCT 60   BKN 200,1,8,1,2,1024,RJOI 070155Z 02007KT 9999 FEW030 SCT060 BKN200 08/02 A3023 RMK     SLP236 T00830017=,
20180107_030000.002,0,RJOI,,,,0,20180107020000,-1,-1,-1,-1,20,-1,5,-1,-1,-1,-1,,9999,0,0,3,FEW 30   SCT 60   BKN 200,1,9,1,1,1023,RJOI 070255Z 02005KT 9999 FEW030 SCT060 BKN200 09/01 A3020 RMK     SLP226 T00890011 58010=,
20180107_040000.002,0,RJOI,,,,0,20180107030000,-1,-1,-1,-1,50,-1,4,-1,-1,-1,-1,,9999,0,0,3,FEW 30   SCT 60   OVC 200 0,1,9,1,1,1022,RJOI 070355Z 05004KT 9999 FEW030 SCT060 OVC2000 09/01 A3019 RMK     SLP223 T00890006=,
20180107_050000.002,0,RJOI,,,,0,20180107040000,-1,-1,-1,-1,210,-1,3,-1,-1,-1,-1,,9999,0,0,3,FEW 30   BKN 120   OVC 200,1,9,1,1,1022,RJOI 070455Z 21003KT 9999 FEW030 BKN120 OVC200 09/01 A3019 RMK     SLP222 T00890006=,
20180107_060000.002,0,RJOI,,,,0,20180107050000,-1,-1,-1,-1,0,-1,0,-1,-1,-1,-1,,9999,0,0,3,FEW 30   BKN 120   OVC 200,1,8,1,1,1022,RJOI 070555Z 00000KT 9999 FEW030 BKN120 OVC200 08/01 A3018 RMK     SLP219 T00830011 10094 20039 56007=,
20180107_070000.002,0,RJOI,,,,0,20180107060000,-1,-1,-1,-1,50,-1,3,-1,-1,-1,-1,,9999,0,0,3,FEW 30   BKN 120   OVC 200,1,9,1,2,1021,RJOI 070655Z 05003KT 9999 FEW030 BKN120 OVC200 09/02 A3016 RMK     SLP213 T00890017=,
20180107_080000.002,0,RJOI,,,,0,20180107070000,-1,-1,-1,-1,340,-1,4,-1,-1,-1,-1,,9999,0,0,3,FEW 30   BKN 120   OVC 200,1,8,1,2,1021,RJOI 070755Z 34004KT 9999 FEW030 BKN120 OVC200 08/02 A3016 RMK     SLP213 T00830017=,
20180107_090000.002,0,RJOI,,,,0,20180107080000,-1,-1,-1,-1,0,-1,0,-1,-1,-1,-1,,9999,0,0,3,FEW 30   BKN 120   OVC 200,1,8,1,2,1022,RJOI 070855Z 00000KT 9999 FEW030 BKN120 OVC200 08/02 A3017 RMK     SLP217 T00830022 55003=,
20180107_100000.002,0,RJOI,,,,0,20180107090000,-1,-1,-1,-1,80,-1,7,-1,-1,-1,-1,,9999,0,0,3,FEW 30   BKN 110   OVC 200,1,9,1,2,1022,RJOI 070955Z 08007KT 9999 FEW030 BKN110 OVC200 09/02 A3018 RMK     SLP220 T00890017=,
20180107_110000.002,0,RJOI,,,,0,20180107100000,-1,-1,-1,-1,50,-1,5,-1,-1,-1,-1,,9999,0,0,3,FEW 20   BKN 50   OVC 120,1,9,1,1,1022,RJOI 071055Z 05005KT 9999 FEW020 BKN050 OVC120 09/01 A3017 RMK     SLP217 T00890011=,
20180107_120000.001,0,RJOI,,,,0,20180107110000,-1,-1,-1,-1,0,-1,0,-1,-1,-1,-1,,9999,0,0,3,FEW 20   SCT 50   OVC 100,1,7,1,3,1021,RJOI 071155Z 00000KT 9999 FEW020 SCT050 OVC100 07/03 A3016 RMK     SLP212 T00720028 10089 20072 58007=,
20180107_130000.001,0,RJOI,,,,0,20180107120000,-1,-1,-1,-1,999,-1,3,-1,-1,-1,-1,,9999,0,0,3,FEW 20   SCT 50   OVC 100,1,7,1,3,1020,RJOI 071255Z VRB03KT 9999 FEW020 SCT050 OVC100 07/03 A3013 RMK     SLP204 T00720028=,
20180107_140000.001,0,RJOI,,,,0,20180107130000,-1,-1,-1,-1,310,-1,4,-1,-1,-1,-1,,9999,0,1,3,FEW 20   BKN 40   OVC 60,1,7,1,3,1020,RJOI 071355Z 31004KT 9999 -RA FEW020 BKN040 OVC060 07/03 A3013     RMK RAB39 SLP201 P0000 T00670033=,- RA
20180107_150000.002,0,RJOI,,,,0,20180107140000,-1,-1,-1,-1,300,-1,5,-1,-1,-1,-1,,9999,0,1,3,FEW 20   BKN 30   OVC 40,1,7,1,4,1019,RJOI 071455Z 30005KT 9999 -RA FEW020 BKN030 OVC040 07/04 A3010     RMK SLP193 P0001 60001 T00670039 400940017 58020=,- RA
20180107_160000.002,0,RJOI,,,,0,20180107150000,-1,-1,-1,-1,290,-1,5,-1,-1,-1,-1,,9000,0,2,3,FEW 20   BKN 30   OVC 40,1,6,1,4,1019,RJOI 071555Z 29005KT 9000 -RA BR FEW020 BKN030 OVC040 06/04     A3009 RMK SLP188 P0005 T00610039=,- RA; BR
20180107_170000.002,0,RJOI,,,,0,20180107160000,-1,-1,-1,-1,300,-1,4,-1,-1,-1,-1,,9000,0,2,3,SCT 20   BKN 30   OVC 40,1,6,1,1,1018,RJOI 071655Z 30004KT 9000 -RA BR SCT020 BKN030 OVC040 06/01     A3006 RMK SLP179 P0003 T00610044=,- RA; BR
20180107_180000.004,1,RJOI,,,,0,20180107170000,-1,-1,-1,-1,350,-1,7,-1,-1,-1,-1,,9000,0,2,3,FEW 8   BKN 20   OVC 40,1,6,1,4,1018,RJOI 071755Z 35007KT 9000 -RA BR FEW008 BKN020 OVC040 06/04     A3005 RMK SLP176 P0011 60020 T00610044 10072 20056 56017=,- RA; BR
20180107_180000.005,1,RJOI,,,,0,20180107170000,-1,-1,-1,-1,350,-1,7,-1,-1,-1,-1,,9000,0,2,3,FEW 8   BKN 20   OVC 40,1,6,1,4,1018,RJOI 071755Z 35007KT 9000 SHRA BR FEW008 BKN020 OVC040     06/04 A3005 RMK SLP176 P0011 60020 T00610044 10072 20056           56017=,RA SH; BR
20180107_190000.003,1,RJOI,,,,0,20180107180000,-1,-1,-1,-1,20,-1,11,-1,-1,-1,-1,,8000,0,2,3,FEW 8   BKN 20   OVC 40,1,6,1,5,1017,RJOI 071855Z 02011KT 8000 SHRA BR FEW008 BKN020 OVC040 06/05     A3002 RMK SLP165 P0012 T00610050=,RA SH; BR
20180107_200000.002,0,RJOI,,,,0,20180107190000,-1,-1,-1,-1,10,-1,13,-1,-1,-1,-1,,6000,0,2,3,SCT 8   BKN 15   OVC 30,1,6,1,5,1016,RJOI 071955Z 01013KT 6000 SHRA BR SCT008 BKN015 OVC030 06/05     A3000 RMK SLP159 P0020 T00610050=,RA SH; BR
20180107_210000.005,1,RJOI,,,,0,20180107200000,-1,-1,-1,-1,40,-1,9,-1,-1,-1,-1,,6000,0,2,3,SCT 8   BKN 15   OVC 3 0,1,6,1,6,1015,RJOI 072055Z 04009KT 6000 SHRA BR SCT008 BKN015 OVC0030 06/06     A2998 RMK WSHFT 2038 SLP151 P0018 60050 T00610056 58020=,RA SH; BR
20180107_210000.005,1,RJOI,,,,0,20180107200000,-1,-1,-1,-1,40,-1,9,-1,-1,-1,-1,,6000,0,2,3,SCT 8   BKN 15   OVC 30,1,6,1,6,1015,RJOI 072055Z 04009KT 6000 SHRA BR SCT008 BKN015 OVC030     06/06 A2998 RMK WSHFT 2038 SLP151 P0018 60050 T00610056           58020=,RA SH; BR
20180107_220000.002,0,RJOI,,,,0,20180107210000,-1,-1,-1,-1,20,-1,7,-1,-1,-1,-1,,4800,0,2,3,SCT 8   BKN 15   OVC 30,1,6,1,6,1015,RJOI 072155Z 02007KT 4800 -SHRA BR SCT008 BKN015 OVC030 06/06     A2997 RMK SLP147 P0006 T00610056=,- RA SH; BR
20180107_230000.002,0,RJOI,,,,0,20180107220000,-1,-1,-1,-1,20,-1,9,-1,-1,-1,-1,,4800,0,2,3,SCT 8   BKN 15   OVC 30,1,7,1,6,1014,RJOI 072255Z 02009KT 4800 -RA BR SCT008 BKN015 OVC030 07/06     A2994 RMK SLP139 P0001 T00670056=,- RA; BR
20180108_000000.004,0,RJOI,,,,0,20180107230000,-1,-1,-1,-1,360,-1,5,-1,-1,-1,-1,,6000,0,2,3,SCT 8   BKN 15   OVC 30,1,7,1,6,1014,RJOI 072355Z 36005KT 6000 -RA BR SCT008 BKN015 OVC030 07/06     A2993 RMK SLP134 P0000 60037 T00670056 10067 20061 58020=,- RA; BR
20180108_010000.002,0,RJOI,,,,0,20180108000000,-1,-1,-1,-1,350,-1,3,-1,-1,-1,-1,,8000,0,1,2,SCT 6   OVC 15,1,7,1,6,1013,RJOI 080055Z 35003KT 8000 BR SCT006 OVC015 07/06 A2991 RMK     RAE35 SLP127 P0000 T00670056=,BR
20180108_020000.002,0,RJOI,,,,0,20180108010000,-1,-1,-1,-1,360,-1,5,-1,-1,-1,-1,,9000,0,1,2,SCT 6   OVC 15,1,7,1,6,1011,RJOI 080155Z 36005KT 9000 BR SCT006 OVC015 07/06 A2985 RMK     SLP107 T00720056=,BR
20180108_030000.004,1,RJOI,,,,0,20180108020000,-1,-1,-1,-1,340,-1,3,-1,-1,-1,-1,,9000,0,1,2,SCT 10   OVC 15,1,7,1,6,1009,RJOI 080255Z 34003KT 9000 BR SCT010 OVC015 07/06 A2981 RMK     SLP096 60000 T00720056 57037=,BR
20180108_040000.002,0,RJOI,,,,0,20180108030000,-1,-1,-1,-1,0,-1,0,-1,-1,-1,-1,,9000,0,2,3,FEW 2   SCT 10   OVC 15,1,7,1,6,1009,RJOI 080355Z 00000KT 9000 -RA BR FEW002 SCT010 OVC015 07/06     A2979 RMK RAB45 SLP088 P0000 T00720061=,- RA; BR
20180108_050000.002,0,RJOI,,,,0,20180108040000,-1,-1,-1,-1,290,-1,4,-1,-1,-1,-1,,9000,0,2,3,FEW 4   SCT 10   OVC 15,1,7,1,6,1007,RJOI 080455Z 29004KT 9000 -RA BR FEW004 SCT010 OVC015 07/06     A2975 RMK SLP073 P0000 T00720061=,- RA; BR
20180108_060000.005,1,RJOI,,,,0,20180108050000,-1,-1,-1,-1,330,-1,5,-1,-1,-1,-1,,9000,0,1,2,SCT 10   OVC 15,1,8,1,7,1007,RJOI 080555Z 33005KT 9000 BR SCT010 OVC015 08/07 A2973 RMK     RAE0456B28E50 SLP066 P0000 60000 T00780067 10078 20067           56027=,BR
20180108_060000.006,1,RJOI,,,,0,20180108060000,-1,-1,-1,-1,320,-1,3,-1,-1,-1,-1,,9000,0,1,3,FEW 4   BKN 10   OVC 15,1,8,1,7,1007,RJOI 080612Z 32003KT 9000 BR FEW004 BKN010 OVC015 08/07 A2973     08/07 A2973 RMK T00780067=,BR
20180108_070000.002,0,RJOI,,,,0,20180108060000,-1,-1,-1,-1,290,-1,4,-1,-1,-1,-1,,9000,0,1,3,FEW 4   BKN 10   OVC 15,1,8,1,7,1006,RJOI 080655Z 29004KT 9000 BR FEW004 BKN010 OVC015 08/07 A2971     RMK SLP060 T00780067=,BR
20180108_080000.002,0,RJOI,,,,0,20180108070000,-1,-1,-1,-1,300,-1,4,-1,-1,-1,-1,,9000,0,2,3,FEW 4   BKN 10   OVC 15,1,8,1,7,1006,RJOI 080755Z 30004KT 9000 -RA BR FEW004 BKN010 OVC015 08/07     A2970 RMK RAB46 SLP058 P0000 T00780067=,- RA; BR
20180108_090000.002,0,RJOI,,,,0,20180108080000,-1,-1,-1,-1,290,-1,3,-1,-1,-1,-1,,4800,0,2,3,FEW 4   BKN 10   OVC 15,1,8,1,7,1005,RJOI 080855Z 29003KT 4800 RA BR FEW004 BKN010 OVC015 08/07     A2968 RMK SLP050 P0001 60001 T00780067 56017=,RA; BR
20180108_100000.002,0,RJOI,,,,0,20180108090000,-1,-1,-1,-1,0,-1,0,-1,-1,-1,-1,,4800,0,2,3,FEW 4   BKN 10   OVC 15,1,8,1,7,1005,RJOI 080955Z 00000KT 4800 -RA BR FEW004 BKN010 OVC015 08/07     A2969 RMK SLP053 P0004 T00780072=,- RA; BR
20180108_110000.002,0,RJOI,,,,0,20180108100000,-1,-1,-1,-1,0,-1,0,-1,-1,-1,-1,,4800,0,1,3,FEW 4   BKN 10   OVC 15,1,8,1,7,1005,RJOI 081055Z 00000KT 4800 BR FEW004 BKN010 OVC015 08/07 A2969     RMK RAE35 SLP052 P0001 T00780072=,BR
20180108_120000.002,0,RJOI,,,,0,20180108110000,-1,-1,-1,-1,0,-1,0,-1,-1,-1,-1,,4800,0,2,3,FEW 4   BKN 10   OVC 15,1,8,1,8,1005,RJOI 081155Z 00000KT 4800 -RA BR FEW004 BKN010 OVC015 08/08     A2967 RMK RAB06 SLP047 P0001 60006 70054 T00780078 10078           20072 58003=,- RA; BR
20180108_130000.001,0,RJOI,,,,0,20180108120000,-1,-1,-1,-1,0,-1,0,-1,-1,-1,-1,,8000,0,2,2,FEW 4   OVC 20,1,8,1,8,1004,RJOI 081255Z 00000KT 8000 -RA BR FEW004 OVC020 08/08 A2966 RMK     RAE19B36 SLP043 P0000 T00830078=,- RA; BR
20180108_140000.002,0,RJOI,,,,0,20180108130000,-1,-1,-1,-1,250,-1,14,-1,24,-1,-1,,9999,0,0,2,FEW 4   OVC 20,1,12,1,9,1004,RJOI 081355Z 25014G24KT 9999 FEW004 OVC020 12/09 A2964 RMK     RAE46 SLP037 P0000 T01220089=,
20180108_150000.002,0,RJOI,,,,0,20180108140000,-1,-1,-1,-1,250,-1,17,-1,23,-1,-1,,9999,0,0,2,FEW 4   OVC 20,1,11,1,8,1004,RJOI 081455Z 25017G23KT 9999 FEW004 OVC020 11/08 A2966 RMK PK     WND 25026/1402 SLP043 60000 T01110078 401220056 55003=,
20180108_160000.002,0,RJOI,,,,0,20180108150000,-1,-1,-1,-1,280,-1,11,-1,21,-1,-1,,8000,0,2,3,FEW 4   BKN 15   OVC 20,1,10,1,7,1005,RJOI 081555Z 28011G21KT 8000 -RA BR FEW004 BKN015 OVC020 10/07     A2969 RMK RAB23 SLP053 P0000 T01000072=,- RA; BR
20180108_170000.002,0,RJOI,,,,0,20180108160000,-1,-1,-1,-1,260,-1,8,-1,-1,-1,-1,,9999,0,0,3,SCT 15   BKN 20   OVC 40,1,9,1,4,1005,RJOI 081655Z 26008KT 9999 SCT015 BKN020 OVC040 09/04 A2968 RMK     RAE06 SLP051 P0000 T00940044=,
20180108_180000.002,0,RJOI,,,,0,20180108170000,-1,-1,-1,-1,250,-1,9,-1,-1,-1,-1,,9999,0,0,3,SCT 15   BKN 20   OVC 40,1,9,1,3,1006,RJOI 081755Z 25009KT 9999 SCT015 BKN020 OVC040 09/03 A2972 RMK     SLP063 60000 T00890033 10122 20078 53020=,
20180108_190000.002,0,RJOI,,,,0,20180108180000,-1,-1,-1,-1,270,-1,12,-1,21,-1,-1,,9999,0,0,3,SCT 15   BKN 20   OVC 40,1,8,1,2,1007,RJOI 081855Z 27012G21KT 9999 SCT015 BKN020 OVC040 08/02 A2973     RMK RAB1757E06 SLP066 P0000 T00830017=,
20180108_200000.002,0,RJOI,,,,0,20180108190000,-1,-1,-1,-1,250,-1,10,-1,15,-1,-1,,9999,0,0,3,FEW 15   BKN 20   OVC 40,1,8,1,2,1008,RJOI 081955Z 25010G15KT 9999 FEW015 BKN020 OVC040 08/02 A2976     RMK RAB30E38 SLP077 P0000 T00780017=,
20180108_210000.005,1,RJOI,,,,0,20180108200000,-1,-1,-1,-1,270,-1,12,-1,20,-1,-1,,9999,0,0,2,SCT 20   BKN 40,1,7,-1,1,1007,RJOI 082055Z 27012G20KT 9999 SCT020 BKN040 07/M01 A2974 RMK     SLP070 60000 T00671006 50007=,
20180108_220000.002,0,RJOI,,,,0,20180108210000,-1,-1,-1,-1,270,-1,17,-1,24,-1,-1,,9999,0,0,1,BKN 40,1,7,-1,2,1008,RJOI 082155Z 27017G24KT 9999 BKN040 07/M02 A2976 RMK SLP076     T00721022=,
20180108_230000.005,1,RJOI,,,,0,20180108220000,-1,-1,-1,-1,250,-1,15,-1,23,-1,-1,,9999,0,0,2,FEW 20   BKN 40,1,7,-1,3,1009,RJOI 082255Z 25015G23KT 9999 FEW020 BKN040 07/M03 A2980 RMK     SLP089 T00671028=,
20180109_000000.004,1,RJOI,,,,0,20180108230000,-1,-1,-1,-1,250,-1,12,-1,22,-1,-1,,9999,0,1,3,FEW 20   SCT 30   BKN 40,1,7,-1,3,1010,RJOI 082355Z 25012G22KT 9999 -SHRA FEW020 SCT030 BKN040 07/M03     A2982 RMK PK WND 23030/41 SHRAB51 SLP097 P0000 60000           T00671028 10089 20067 51027=,- RA SH
20180109_010000.004,1,RJOI,,,,0,20180109000000,-1,-1,-1,-1,260,-1,15,-1,28,-1,-1,,9999,0,1,3,FEW 8   BKN 30   BKN 40,1,5,-1,1,1011,RJOI 090055Z 26015G28KT 9999 -SHRA FEW008 BKN030 BKN040 05/M01     A2985 RMK PK WND 25034/16 SLP106 P0000 T00501006=,- RA SH
20180109_020000.004,1,RJOI,,,,0,20180109010000,-1,-1,-1,-1,270,-1,13,-1,27,-1,-1,,9999,0,0,2,SCT 30   SCT 50,1,8,-1,5,1010,RJOI 090155Z 27013G27KT 9999 SCT030 SCT050 08/M05 A2982 RMK PK     WND 25027/49 SHRAE46 SLP097 P0001 T00781050=,
20180109_030000.002,0,RJOI,,,,0,20180109020000,-1,-1,-1,-1,270,-1,16,-1,22,-1,-1,,9999,0,0,2,FEW 30   SCT 45,1,7,-1,3,1009,RJOI 090255Z 27016G22KT 9999 FEW030 SCT045 07/M03 A2981 RMK PK     WND 25028/34 SLP095 60001 T00671028 50000=,
20180109_040000.004,1,RJOI,,,,0,20180109030000,-1,-1,-1,-1,260,-1,19,-1,26,-1,-1,,9999,0,0,3,FEW 15   SCT 30   BKN 50,1,7,-1,4,1009,RJOI 090355Z 26019G26KT 9999 FEW015 SCT030 BKN050 07/M04 A2981     RMK PK WND 26029/09 SLP094 T00721039=,
20180109_050000.004,1,RJOI,,,,0,20180109040000,-1,-1,-1,-1,280,-1,12,-1,18,-1,-1,,9999,0,0,3,FEW 15   SCT 30   BKN 50,1,6,-1,4,1010,RJOI 090455Z 28012G18KT 9999 FEW015 SCT030 BKN050 06/M04 A2983     RMK PK WND 28027/13 SLP099 T00611039=,
20180109_050000.005,1,RJOI,,,,0,20180109040000,-1,-1,-1,-1,280,-1,12,-1,18,-1,-1,,9999,0,0,3,FEW 15   SCT 30   BKN 50,1,6,-1,4,1010,RJOI 090455Z 28012G18KT 9999 FEW015 SCT030 BKN050 06/M04     A2983 RMK PK WND 28027/13 VIRGA NW SLP099 T00611039=,
20180109_060000.004,1,RJOI,,,,0,20180109050000,-1,-1,-1,-1,290,-1,10,-1,16,-1,-1,,9999,0,0,3,FEW 10   SCT 30   BKN 50,1,6,-1,4,1010,RJOI 090555Z 29010G16KT 9999 FEW010 SCT030 BKN050 06/M04 A2984     RMK SLP104 60001 T00561039 10078 20050 53010=,
20180109_060000.005,1,RJOI,,,,0,20180109050000,-1,-1,-1,-1,290,-1,10,-1,16,-1,-1,,9999,0,0,3,FEW 10   SCT 30   BKN 50,1,6,-1,4,1010,RJOI 090555Z 29010G16KT 9999 FEW010 SCT030 BKN050 06/M04     A2984 RMK VIRGA SW SLP104 60001 T00561039 10078 20050           53010=,
20180109_070000.004,1,RJOI,,,,0,20180109060000,-1,-1,-1,-1,280,-1,6,-1,-1,-1,-1,,9999,0,0,3,FEW 10   BKN 50   BKN 70,1,6,-1,3,1011,RJOI 090655Z 28006KT 9999 FEW010 BKN050 BKN070 06/M03 A2985 RMK     SHRAB30E40 SLP109 P0000 T00561028=,
20180109_080000.004,1,RJOI,,,,0,20180109070000,-1,-1,-1,-1,250,-1,7,-1,-1,-1,-1,,9999,0,1,3,FEW 10   SCT 35   BKN 50,1,5,-1,2,1012,RJOI 090755Z 25007KT 9999 -SHRASN FEW010 SCT035 BKN050 05/M02     A2989 RMK SHRAB44SNB44 SLP121 P0000 T00501022=,- RA SN SH
20180109_090000.004,1,RJOI,,,,0,20180109080000,-1,-1,-1,-1,250,-1,13,-1,-1,-1,-1,,9999,0,0,2,FEW 30   SCT 50,1,5,-1,3,1013,RJOI 090855Z 25013KT 9999 FEW030 SCT050 05/M03 A2992 RMK     SHRAE50SNE50 SLP130 P0000 60000 T00501028 53024=,
20180109_100000.002,0,RJOI,,,,0,20180109090000,-1,-1,-1,-1,280,-1,10,-1,-1,-1,-1,,9999,0,0,2,FEW 30   FEW 50,1,4,-1,2,1013,RJOI 090955Z 28010KT 9999 FEW030 FEW050 04/M02 A2992 RMK SLP132     T00441022=,
20180109_110000.002,0,RJOI,,,,0,20180109100000,-1,-1,-1,-1,270,-1,15,-1,21,-1,-1,,9999,0,0,1,SCT 30,1,5,-1,2,1014,RJOI 091055Z 27015G21KT 9999 SCT030 05/M02 A2993 RMK SLP136     T00501022=,
20180109_120000.002,0,RJOI,,,,0,20180109110000,-1,-1,-1,-1,260,-1,14,-1,27,-1,-1,,9999,0,0,1,FEW 30,1,4,-1,2,1014,RJOI 091155Z 26014G27KT 9999 FEW030 04/M02 A2994 RMK PK WND     26029/34 SLP139 60000 70001 T00441017 10067 20044 52010=,
20180109_130000.002,0,RJOI,,,,0,20180109120000,-1,-1,-1,-1,250,-1,17,-1,23,-1,-1,,9999,0,0,1,FEW 30,1,4,-1,2,1014,RJOI 091255Z 25017G23KT 9999 FEW030 04/M02 A2995 RMK SLP143     T00441022=,
20180109_140000.002,0,RJOI,,,,0,20180109130000,-1,-1,-1,-1,290,-1,7,-1,-1,-1,-1,,9999,0,0,1,FEW 30,1,4,-1,2,1015,RJOI 091355Z 29007KT 9999 FEW030 04/M02 A2996 RMK SLP146     T00441017=,
20180109_150000.004,1,RJOI,,,,0,20180109140000,-1,-1,-1,-1,270,-1,10,-1,-1,-1,-1,,9999,0,1,1,SCT 25,1,4,-1,2,1014,RJOI 091455Z 27010KT 9999 -SHRASN SCT025 04/M02 A2995 RMK     SHRASNB45 SLP142 P0000 60000 T00441017 401110039 50000=,- RA SN SH
20180109_160000.002,0,RJOI,,,,0,20180109150000,-1,-1,-1,-1,260,-1,14,-1,21,-1,-1,,9999,0,0,1,SCT 25,1,5,-1,3,1014,RJOI 091555Z 26014G21KT 9999 SCT025 05/M03 A2995 RMK SHRASNE11     SLP141 P0000 T00501028=,
20180109_170000.002,0,RJOI,,,,0,20180109160000,-1,-1,-1,-1,250,-1,10,-1,18,-1,-1,,9999,0,0,1,SCT 30,1,5,-1,3,1015,RJOI 091655Z 25010G18KT 9999 SCT030 05/M03 A2996 RMK SLP143     T00501028=,
20180109_180000.002,0,RJOI,,,,0,20180109170000,-1,-1,-1,-1,240,-1,8,-1,-1,-1,-1,,9999,0,0,1,FEW 30,1,4,-1,2,1015,RJOI 091755Z 24008KT 9999 FEW030 04/M02 A2996 RMK SLP145 60000     T00391017 10050 20039 51003=,
20180109_190000.001,0,RJOI,,,,0,20180109180000,-1,-1,-1,-1,250,-1,6,-1,-1,-1,-1,,9999,0,0,1,SCT 30,1,3,-1,2,1014,RJOI 091855Z 25006KT 9999 SCT030 03/M02 A2995 RMK SLP140     T00331017=,
20180109_200000.002,0,RJOI,,,,0,20180109190000,-1,-1,-1,-1,260,-1,10,-1,15,-1,-1,,9999,0,0,2,SCT 30   BKN 45,1,4,-1,2,1014,RJOI 091955Z 26010G15KT 9999 SCT030 BKN045 04/M02 A2994 RMK     SLP138 T00441022=,
20180109_210000.002,0,RJOI,,,,0,20180109200000,-1,-1,-1,-1,270,-1,9,-1,-1,-1,-1,,9999,0,1,3,SCT 30   BKN 45   OVC 70,1,4,-1,1,1014,RJOI 092055Z 27009KT 9999 -SHRASN SCT030 BKN045 OVC070 04/M01     A2993 RMK SHRASNB45 SLP134 P0000 60000 T00391006 57010=,- RA SN SH
20180109_220000.002,0,RJOI,,,,0,20180109210000,-1,-1,-1,-1,250,-1,8,-1,-1,-1,-1,,9999,0,1,3,SCT 20   BKN 30   BKN 45,1,4,1,0,1014,RJOI 092155Z 25008KT 9999 -SHRASN SCT020 BKN030 BKN045 04/00     A2994 RMK SLP140 VIS LWR S-W P0000 T00390000=,- RA SN SH
20180109_230000.002,0,RJOI,,,,0,20180109220000,-1,-1,-1,-1,270,-1,6,-1,-1,-1,-1,,9999,0,1,3,SCT 20   BKN 30   BKN 45,1,4,1,1,1014,RJOI 092255Z 27006KT 9999 -SHRASN SCT020 BKN030 BKN045 04/01     A2995 RMK SLP141 P0000 T00390006=,- RA SN SH
20180110_000000.004,1,RJOI,,,,0,20180109230000,-1,-1,-1,-1,150,-1,5,-1,-1,-1,-1,,9999,0,1,3,SCT 20   BKN 40   BKN 60,1,4,1,2,1014,RJOI 092355Z 15005KT 9999 -SHRA SCT020 BKN040 BKN060 04/02     A2995 RMK SHSNE36 SLP141 P0000 60000 T00390022 10044 20033           51007=,- RA SH
20180110_010000.004,1,RJOI,,,,0,20180110000000,-1,-1,-1,-1,240,-1,5,-1,-1,-1,-1,,9999,0,0,3,FEW 20   SCT 40   BKN 60,1,4,1,22,1014,RJOI 100055Z 24005KT 9999 FEW020 SCT040 BKN060 04/22 A2994 RMK     SHRAE22 SLP139 P0000 T00440017=,
20180110_020000.002,0,RJOI,,,,0,20180110010000,-1,-1,-1,-1,260,-1,11,-1,16,-1,-1,,9999,0,1,3,FEW 20   BKN 40   BKN 60,1,6,1,2,1014,RJOI 100155Z 26011G16KT 9999 -SHRA FEW020 BKN040 BKN060 06/02     A2993 RMK SHRAB54 SLP135 P0000 T00560017=,- RA SH
20180110_030000.002,0,RJOI,,,,0,20180110020000,-1,-1,-1,-1,260,-1,14,-1,19,-1,-1,,9999,0,0,3,FEW 25   FEW 40   SCT 65,1,7,1,1,1012,RJOI 100255Z 26014G19KT 9999 FEW025 FEW040 SCT065 07/01 A2989     RMK SHRAE14 SLP122 P0000 60000 T00670011 58017=,
20180110_040000.005,1,RJOI,,,,0,20180110030000,-1,-1,-1,-1,250,-1,15,-1,22,-1,-1,,9999,0,1,3,FEW 25   SCT 40   BKN 65,1,6,1,1,1013,RJOI 100355Z 25015G22KT 9999 -SHRA FEW025 SCT040 BKN065 06/01     A2990 RMK PK WND 26026/26 SHRAB24 SLP125 P0000 T00610006=,- RA SH
20180110_050000.002,0,RJOI,,,,0,20180110040000,-1,-1,-1,-1,260,-1,11,-1,20,-1,-1,,9999,0,1,3,FEW 25   SCT 45   BKN 65,1,6,1,0,1013,RJOI 100455Z 26011G20KT 9999 -SHRA FEW025 SCT045 BKN065 06/00     A2990 RMK SHRAE09B53 SLP124 P0000 T00610000=,- RA SH
20180110_060000.002,0,RJOI,,,,0,20180110050000,-1,-1,-1,-1,280,-1,13,-1,-1,-1,-1,,9999,0,0,3,FEW 25   SCT 45   BKN 65,1,6,1,0,1013,RJOI 100555Z 28013KT 9999 FEW025 SCT045 BKN065 06/00 A2991 RMK     SHRAE24 SLP128 P0000 60000 T00560000 10072 20039 51003=,
20180110_070000.004,1,RJOI,,,,0,20180110060000,-1,-1,-1,-1,270,-1,9,-1,-1,-1,-1,,9999,0,0,3,FEW 25   FEW 40   SCT 50,1,6,-1,2,1014,RJOI 100655Z 27009KT 9999 FEW025 FEW040 SCT050 06/M02 A2993 RMK     SLP134 T00561022=,
20180110_080000.002,0,RJOI,,,,0,20180110070000,-1,-1,-1,-1,270,-1,8,-1,-1,-1,-1,,9999,0,0,3,FEW 25   FEW 40   SCT 60,1,4,-1,3,1014,RJOI 100755Z 27008KT 9999 FEW025 FEW040 SCT060 04/M03 A2995 RMK     SLP140 T00441033=,
20180110_090000.004,1,RJOI,,,,0,20180110080000,-1,-1,-1,-1,260,-1,10,-1,17,-1,-1,,9999,0,0,3,FEW 20   FEW 35   SCT 45,1,4,-1,4,1014,RJOI 100855Z 26010G17KT 9999 FEW020 FEW035 SCT045 04/M04 A2995     RMK SLP142 T00391039 51017=,
20180110_100000.002,0,RJOI,,,,0,20180110090000,-1,-1,-1,-1,270,-1,11,-1,-1,-1,-1,,9999,0,0,3,FEW 20   FEW 35   SCT 45,1,3,-1,4,1015,RJOI 100955Z 27011KT 9999 FEW020 FEW035 SCT045 03/M04 A2997 RMK     SLP149 T00281039=,
20180110_110000.002,0,RJOI,,,,0,20180110100000,-1,-1,-1,-1,280,-1,8,-1,-1,-1,-1,,9999,0,0,2,FEW 20   FEW 45,1,3,-1,4,1016,RJOI 101055Z 28008KT 9999 FEW020 FEW045 03/M04 A3000 RMK SLP158     T00281044=,
20180110_120000.002,0,RJOI,,,,0,20180110110000,-1,-1,-1,-1,290,-1,10,-1,-1,-1,-1,,9999,0,0,2,FEW 20   FEW 45,1,3,-1,5,1016,RJOI 101155Z 29010KT 9999 FEW020 FEW045 03/M05 A3001 RMK SLP163     T00281050 10056 20028 52020=,
20180110_120000.004,1,RJOI,,,,0,20180110110000,-1,-1,-1,-1,290,-1,10,-1,-1,-1,-1,,9999,0,0,2,FEW 20   FEW 45,1,3,-1,5,1016,RJOI 101155Z 29010KT 9999 FEW020 FEW045 03/M05 A3001 RMK     OCNL LTG DSNT N SLP163 T00281050 10056 20028 52020=,
20180110_130000.002,0,RJOI,,,,0,20180110120000,-1,-1,-1,-1,260,-1,7,-1,-1,-1,-1,,9999,0,0,2,FEW 20   FEW 45,1,2,-1,5,1017,RJOI 101255Z 26007KT 9999 FEW020 FEW045 02/M05 A3003 RMK SLP167     T00221050=,
20180110_140000.004,1,RJOI,,,,0,20180110130000,-1,-1,-1,-1,300,-1,7,-1,-1,-1,-1,,9999,0,0,2,FEW 20   BKN 45,1,2,-1,5,1018,RJOI 101355Z 30007KT 9999 FEW020 BKN045 02/M05 A3005 RMK     SNB10E23 SLP174 P0000 T00221050=,
20180110_150000.002,0,RJOI,,,,0,20180110140000,-1,-1,-1,-1,260,-1,9,-1,-1,-1,-1,,9999,0,0,2,FEW 20   FEW 45,1,2,-1,4,1018,RJOI 101455Z 26009KT 9999 FEW020 FEW045 02/M04 A3005 RMK SLP174     60000 T00171044 400720017 51010=,
20180110_160000.002,0,RJOI,,,,0,20180110150000,-1,-1,-1,-1,260,-1,8,-1,-1,-1,-1,,9999,0,0,2,FEW 20   FEW 45,1,1,-1,4,1018,RJOI 101555Z 26008KT 9999 FEW020 FEW045 01/M04 A3006 RMK SLP178     T00111039=,
20180110_170000.002,0,RJOI,,,,0,20180110160000,-1,-1,-1,-1,290,-1,6,-1,-1,-1,-1,,9999,0,0,2,FEW 20   FEW 45,1,1,-1,6,1019,RJOI 101655Z 29006KT 9999 FEW020 FEW045 01/M06 A3008 RMK SLP186     T00111061=,
20180110_180000.002,0,RJOI,,,,0,20180110170000,-1,-1,-1,-1,280,-1,12,-1,20,-1,-1,,9999,0,0,2,FEW 20   FEW 45,1,1,-1,8,1020,RJOI 101755Z 28012G20KT 9999 FEW020 FEW045 01/M08 A3011 RMK     SLP195 60000 T00111078 10028 20006 52020=,
20180110_190000.004,0,RJOI,,,,0,20180110180000,-1,-1,-1,-1,250,-1,6,-1,-1,-1,-1,,9999,0,0,2,FEW 20   FEW 45,1,0,-1,6,1019,RJOI 101855Z 25006KT 9999 FEW020 FEW045 00/M06 A3010 RMK SLP194     T00001056=,
20180110_200000.004,1,RJOI,,,,0,20180110190000,-1,-1,-1,-1,320,-1,9,-1,-1,-1,-1,,9999,0,1,2,FEW 20   SCT 45,-1,1,-1,6,1020,RJOI 101955Z 32009KT 9999 -SHSN FEW020 SCT045 M01/M06 A3012 RMK     SHSNB1950 SLP199 P0000 T10061056=,- SN SH
20180110_210000.004,1,RJOI,,,,0,20180110200000,-1,-1,-1,-1,340,-1,6,-1,-1,-1,-1,,9999,0,0,2,FEW 20   FEW 45,-1,1,-1,6,1020,RJOI 102055Z 34006KT 9999 FEW020 FEW045 M01/M06 A3013 RMK     SHSNE09 SLP201 P0000 60000 T10061056 53007=,
20180110_220000.002,0,RJOI,,,,0,20180110210000,-1,-1,-1,-1,330,-1,4,-1,-1,-1,-1,,9999,0,0,2,FEW 20   FEW 45,-1,1,-1,5,1021,RJOI 102155Z 33004KT 9999 FEW020 FEW045 M01/M05 A3014 RMK     SLP207 T10111050=,
20180110_230000.001,0,RJOI,,,,0,20180110220000,-1,-1,-1,-1,320,-1,3,-1,-1,-1,-1,,9999,0,0,3,FEW 15   FEW 30   SCT 45,-1,1,-1,5,1021,RJOI 102255Z 32003KT 9999 FEW015 FEW030 SCT045 M01/M05 A3015     RMK SLP211 T10111050=,
20180111_000000.004,0,RJOI,,,,0,20180110230000,-1,-1,-1,-1,290,-1,6,-1,-1,-1,-1,,9999,0,0,3,FEW 15   FEW 30   SCT 45,1,1,-1,6,1021,RJOI 102355Z 29006KT 9999 FEW015 FEW030 SCT045 01/M06 A3016 RMK     SLP213 60000 T00061056 10011 21017 51014=,
20180111_010000.002,0,RJOI,,,,0,20180111000000,-1,-1,-1,-1,320,-1,4,-1,-1,-1,-1,,9999,0,0,3,FEW 15   SCT 30   BKN 50,1,1,-1,6,1022,RJOI 110055Z 32004KT 9999 FEW015 SCT030 BKN050 01/M06 A3018 RMK     SLP218 T00111061=,
20180111_020000.002,0,RJOI,,,,0,20180111010000,-1,-1,-1,-1,999,-1,5,-1,-1,-1,-1,,9999,0,0,2,SCT 30   BKN 50,1,2,-1,7,1022,RJOI 110155Z VRB05KT 9999 SCT030 BKN050 02/M07 A3017 RMK SLP215     T00171067=,
20180111_030000.001,0,RJOI,,,,0,20180111020000,-1,-1,-1,-1,320,-1,11,-1,15,-1,-1,,9999,0,1,2,SCT 30   BKN 50,1,3,-1,8,1021,RJOI 110255Z 32011G15KT 9999 -SN SCT030 BKN050 03/M08 A3015 RMK     SNB47 SLP208 P0000 60000 T00281078 56003=,- SN
20180111_040000.002,0,RJOI,,,,0,20180111030000,-1,-1,-1,-1,270,-1,14,-1,24,-1,-1,,9999,0,0,2,BKN 50   BKN 100,1,3,-1,9,1021,RJOI 110355Z 27014G24KT 9999 BKN050 BKN100 03/M09 A3015 RMK     SNE18 SLP208 P0000 T00281094=,
20180111_050000.004,1,RJOI,,,,0,20180111040000,-1,-1,-1,-1,290,-1,16,-1,23,-1,-1,,9999,0,1,2,SCT 30   BKN 50,1,2,-1,11,1021,RJOI 110455Z 29016G23KT 9999 -SN SCT030 BKN050 02/M11 A3014 RMK     SNB50 SLP207 P0000 T00221106=,- SN
20180111_060000.002,0,RJOI,,,,0,20180111050000,-1,-1,-1,-1,290,-1,15,-1,26,-1,-1,,9999,0,0,1,BKN 50,1,2,-1,11,1021,RJOI 110555Z 29015G26KT 9999 BKN050 02/M11 A3015 RMK PK WND     28026/0550 SNE11 SLP210 P0000 60000 T00221106 10033 20006           54000=,
20180111_070000.002,0,RJOI,,,,0,20180111060000,-1,-1,-1,-1,280,-1,15,-1,-1,-1,-1,,9999,0,0,1,BKN 50,1,2,-1,11,1021,RJOI 110655Z 28015KT 9999 BKN050 02/M11 A3016 RMK SLP212     T00221106=,
20180111_080000.002,0,RJOI,,,,0,20180111070000,-1,-1,-1,-1,280,-1,12,-1,19,-1,-1,,9999,0,0,1,SCT 50,1,1,-1,11,1022,RJOI 110755Z 28012G19KT 9999 SCT050 01/M11 A3017 RMK SLP216     T00111106=,
20180111_090000.002,0,RJOI,,,,0,20180111080000,-1,-1,-1,-1,270,-1,10,-1,-1,-1,-1,,9999,0,0,1,SCT 30,1,0,-1,10,1022,RJOI 110855Z 27010KT 9999 SCT030 00/M10 A3019 RMK SLP224     T00001100 53014=,
20180111_100000.002,0,RJOI,,,,0,20180111090000,-1,-1,-1,-1,270,-1,8,-1,-1,-1,-1,,9999,0,0,1,FEW 30,-1,1,-1,9,1023,RJOI 110955Z 27008KT 9999 FEW030 M01/M09 A3021 RMK SLP228     T10061089=,
20180111_110000.002,0,RJOI,,,,0,20180111100000,-1,-1,-1,-1,270,-1,6,-1,-1,-1,-1,,9999,0,0,2,FEW 20   FEW 35,-1,1,-1,8,1023,RJOI 111055Z 27006KT 9999 FEW020 FEW035 M01/M08 A3022 RMK     SLP231 T10061083=,
20180111_120000.002,0,RJOI,,,,0,20180111110000,-1,-1,-1,-1,250,-1,3,-1,-1,-1,-1,,9999,0,0,2,FEW 20   FEW 35,-1,1,-1,8,1023,RJOI 111155Z 25003KT 9999 FEW020 FEW035 M01/M08 A3022 RMK     SLP234 T10111078 10028 21017 52010=,
20180111_130000.002,0,RJOI,,,,0,20180111120000,-1,-1,-1,-1,250,-1,5,-1,-1,-1,-1,,9999,0,0,2,FEW 20   FEW 35,-1,1,-1,8,1024,RJOI 111255Z 25005KT 9999 FEW020 FEW035 M01/M08 A3023 RMK     SLP237 T10111078=,
20180111_140000.004,1,RJOI,,,,0,20180111130000,-1,-1,-1,-1,250,-1,3,-1,-1,-1,-1,,9999,0,0,2,FEW 20   FEW 35,-1,2,-1,8,1024,RJOI 111355Z 25003KT 9999 FEW020 FEW035 M02/M08 A3024 RMK     SLP241 T10171078=,
20180111_150000.004,1,RJOI,,,,0,20180111140000,-1,-1,-1,-1,280,-1,3,-1,-1,-1,-1,,9999,0,0,1,FEW 25,-1,2,-1,8,1024,RJOI 111455Z 28003KT 9999 FEW025 M02/M08 A3024 RMK SLP239     T10221078 400331022 51003=,
20180111_160000.002,0,RJOI,,,,0,20180111150000,-1,-1,-1,-1,0,-1,0,-1,-1,-1,-1,,9999,0,0,1,FEW 25,-1,2,-1,7,1024,RJOI 111555Z 00000KT 9999 FEW025 M02/M07 A3024 RMK SLP241     T10221072=,
20180111_170000.004,1,RJOI,,,,0,20180111160000,-1,-1,-1,-1,280,-1,4,-1,-1,-1,-1,,9999,0,0,1,FEW 25,-1,2,-1,7,1024,RJOI 111655Z 28004KT 9999 FEW025 M02/M07 A3025 RMK SLP244     T10221072=,
20180111_180000.002,0,RJOI,,,,0,20180111170000,-1,-1,-1,-1,340,-1,3,-1,-1,-1,-1,,9999,0,0,1,FEW 25,-1,2,-1,7,1025,RJOI 111755Z 34003KT 9999 FEW025 M02/M07 A3026 RMK SLP245     T10171072 11006 21022 51007=,
20180111_190000.004,1,RJOI,,,,0,20180111180000,-1,-1,-1,-1,330,-1,3,-1,-1,-1,-1,,9999,0,0,1,FEW 25,-1,2,-1,8,1024,RJOI 111855Z 33003KT 9999 FEW025 M02/M08 A3025 RMK SLP243     T10221078=,
20180111_200000.004,1,RJOI,,,,0,20180111190000,-1,-1,-1,-1,270,-1,3,-1,-1,-1,-1,,9999,0,0,1,FEW 25,-1,2,-1,8,1024,RJOI 111955Z 27003KT 9999 FEW025 M02/M08 A3025 RMK SLP243     T10171083=,
20180111_210000.004,1,RJOI,,,,0,20180111200000,-1,-1,-1,-1,0,-1,0,-1,-1,-1,-1,,9999,0,0,1,FEW 25,-1,2,-1,9,1025,RJOI 112055Z 00000KT 9999 FEW025 M02/M09 A3027 RMK SLP249     T10171089 53003=,
20180111_220000.002,0,RJOI,,,,0,20180111210000,-1,-1,-1,-1,270,-1,3,-1,-1,-1,-1,,9999,0,0,2,FEW 25   FEW 40,-1,2,-1,9,1025,RJOI 112155Z 27003KT 9999 FEW025 FEW040 M02/M09 A3028 RMK     SLP253 T10171089=,
20180111_230000.002,0,RJOI,,,,0,20180111220000,-1,-1,-1,-1,260,-1,9,-1,-1,-1,-1,,9999,0,0,1,FEW 25,-1,1,-1,8,1026,RJOI 112255Z 26009KT 9999 FEW025 M01/M08 A3030 RMK SLP261     T10111083=,
20180112_000000.004,0,RJOI,,,,0,20180111230000,-1,-1,-1,-1,260,-1,7,-1,-1,-1,-1,,9999,0,0,2,FEW 25   FEW 40,1,0,-1,8,1027,RJOI 112355Z 26007KT 9999 FEW025 FEW040 00/M08 A3032 RMK SLP267     T00001083 10000 21022 52020=,
20180112_010000.001,0,RJOI,,,,0,20180112000000,-1,-1,-1,-1,270,-1,7,-1,-1,-1,-1,,9999,0,0,2,FEW 25   FEW 40,1,2,-1,9,1027,RJOI 120055Z 27007KT 9999 FEW025 FEW040 02/M09 A3033 RMK SLP269     T00171094=,
20180112_020000.002,0,RJOI,,,,0,20180112010000,-1,-1,-1,-1,290,-1,7,-1,-1,-1,-1,,9999,0,0,2,FEW 25   SCT 40,1,3,-1,9,1027,RJOI 120155Z 29007KT 9999 FEW025 SCT040 03/M09 A3032 RMK SLP265     T00281094=,
20180112_030000.002,0,RJOI,,,,0,20180112020000,-1,-1,-1,-1,260,-1,10,-1,-1,-1,-1,,9999,0,0,1,SCT 25,1,4,-1,9,1026,RJOI 120255Z 26010KT 9999 SCT025 04/M09 A3029 RMK SLP256     T00391094 58014=,
20180112_040000.002,0,RJOI,,,,0,20180112030000,-1,-1,-1,-1,290,-1,7,-1,-1,-1,-1,,9999,0,0,1,SCT 25,1,4,-1,10,1025,RJOI 120355Z 29007KT 9999 SCT025 04/M10 A3026 RMK SLP247     T00391100=,
20180112_050000.003,0,RJOI,,,,0,20180112040000,-1,-1,-1,-1,290,-1,6,-1,-1,-1,-1,,9999,0,0,1,SCT 25,1,4,-1,10,1025,RJOI 120455Z 29006KT 9999 SCT025 04/M10 A3026 RMK SLP246     T00391100=,
20180112_060000.002,0,RJOI,,,,0,20180112050000,-1,-1,-1,-1,280,-1,8,-1,-1,-1,-1,,9999,0,0,1,SCT 25,1,4,-1,10,1025,RJOI 120555Z 28008KT 9999 SCT025 04/M10 A3026 RMK SLP247     T00441100 10044 20000 55007=,
20180112_070000.001,0,RJOI,,,,0,20180112060000,-1,-1,-1,-1,300,-1,4,-1,-1,-1,-1,,9999,0,0,1,SCT 25,1,3,-1,9,1025,RJOI 120655Z 30004KT 9999 SCT025 03/M09 A3028 RMK SLP253     T00331094=,
20180112_080000.002,0,RJOI,,,,0,20180112070000,-1,-1,-1,-1,310,-1,6,-1,-1,-1,-1,,9999,0,0,2,SCT 25   BKN 80,1,3,-1,9,1026,RJOI 120755Z 31006KT 9999 SCT025 BKN080 03/M09 A3029 RMK SLP257     T00281089=,
20180112_090000.002,0,RJOI,,,,0,20180112080000,-1,-1,-1,-1,260,-1,5,-1,-1,-1,-1,,9999,0,0,2,FEW 25   SCT 40,1,2,-1,7,1026,RJOI 120855Z 26005KT 9999 FEW025 SCT040 02/M07 A3031 RMK SLP265     T00171067 53017=,
20180112_100000.002,0,RJOI,,,,0,20180112090000,-1,-1,-1,-1,290,-1,7,-1,-1,-1,-1,,9999,0,0,1,FEW 25,1,1,-1,8,1027,RJOI 120955Z 29007KT 9999 FEW025 01/M08 A3034 RMK SLP273     T00111083=,
20180112_110000.002,0,RJOI,,,,0,20180112100000,-1,-1,-1,-1,80,-1,3,-1,-1,-1,-1,,9999,0,0,1,FEW 25,1,0,-1,8,1027,RJOI 121055Z 08003KT 9999 FEW025 00/M08 A3034 RMK SLP275     T00001083=,
20180112_120000.004,1,RJOI,,,,0,20180112110000,-1,-1,-1,-1,290,-1,9,-1,-1,-1,-1,,9999,0,0,1,SKC -1,1,1,-1,8,1028,RJOI 121155Z 29009KT 9999 SKC 01/M08 A3035 RMK SLP276     T00061083=,
20180112_120000.005,1,RJOI,,,,0,20180112110000,-1,-1,-1,-1,290,-1,9,-1,-1,-1,-1,,9999,0,0,1,SKC -1,1,1,-1,8,1028,RJOI 121155Z 29009KT 9999 SKC 01/M08 A3035 RMK SLP276     T00061083 10044 20000 51012=,
20180112_130000.004,1,RJOI,,,,0,20180112120000,-1,-1,-1,-1,290,-1,7,-1,-1,-1,-1,,9999,0,0,1,FEW 20,1,0,-1,7,1028,RJOI 121255Z 29007KT 9999 FEW020 00/M07 A3035 RMK SLP278     T00001072=,
20180112_140000.004,1,RJOI,,,,0,20180112130000,-1,-1,-1,-1,280,-1,12,-1,-1,-1,-1,,9999,0,0,0,,-1,1,-1,7,1028,RJOI 121355Z 28012KT 9999 CLR M01/M07 A3036 RMK SLP280     T10061067=,
20180112_150000.002,0,RJOI,,,,0,20180112140000,-1,-1,-1,-1,270,-1,7,-1,-1,-1,-1,,9999,0,0,0,,-1,1,-1,7,1028,RJOI 121455Z 27007KT 9999 CLR M01/M07 A3037 RMK SLP283     T10061072 400441022 51007=,
20180112_160000.005,1,RJOI,,,,0,20180112150000,-1,-1,-1,-1,0,-1,0,-1,-1,-1,-1,,9999,0,0,1,SKC -1,-1,2,-1,7,1028,RJOI 121555Z 00000KT 9999 SKC M02/M07 A3036 RMK SLP280     T10171072=,
20180112_170000.002,0,RJOI,,,,0,20180112160000,-1,-1,-1,-1,290,-1,3,-1,-1,-1,-1,,9999,0,0,1,SKC -1,-1,2,-1,7,1028,RJOI 121655Z 29003KT 9999 SKC M02/M07 A3036 RMK SLP281     T10171072=,
20180112_180000.002,0,RJOI,,,,0,20180112170000,-1,-1,-1,-1,290,-1,4,-1,-1,-1,-1,,9999,0,0,1,SKC -1,-1,1,-1,7,1028,RJOI 121755Z 29004KT 9999 SKC M01/M07 A3036 RMK SLP279     T10111072 100006 21017 58003=,
20180112_190000.004,1,RJOI,,,,0,20180112180000,-1,-1,-1,-1,280,-1,4,-1,-1,-1,-1,,9999,0,0,1,SKC -1,-1,2,-1,7,1027,RJOI 121855Z 28004KT 9999 SKC M02/M07 A3034 RMK SLP275     T10221072=,
20180112_200000.006,1,RJOI,,,,0,20180112190000,-1,-1,-1,-1,310,-1,4,-1,-1,-1,-1,,9999,0,0,2,BKN 50   OVC 60,-1,1,-1,7,1028,RJOI 121955Z 31004KT 9999 BKN050 OVC060 M01/M07 A3035 RMK     SLP276 T10111067 FZRANO TSNO=,
20180112_210000.002,0,RJOI,,,,0,20180112200000,-1,-1,-1,-1,260,-1,3,-1,-1,-1,-1,,9999,0,0,0,,-1,1,-1,5,1028,RJOI 122055Z 26003KT 9999 M01/M05 A3036 RMK SLP279 T10061050     55000=,
20180112_210000.005,1,RJOI,,,,0,20180112190000,-1,-1,-1,-1,310,-1,4,-1,-1,-1,-1,,9999,0,0,1,SKC -1,-1,1,-1,7,1028,RJOI 121955Z 31004KT 9999 SKC M01/M07 A3035 RMK SLP276     T10111067 FZRANO TSNO=,
20180112_210000.005,1,RJOI,,,,0,20180112200000,-1,-1,-1,-1,260,-1,3,-1,-1,-1,-1,,9999,0,0,1,SCT 50,-1,1,-1,5,1028,RJOI 122055Z 26003KT 9999 SCT050 M01/M05 A3036 RMK SLP279     T10061050 55000=,
20180112_220000.002,0,RJOI,,,,0,20180112210000,-1,-1,-1,-1,250,-1,5,-1,-1,-1,-1,,9999,0,0,1,BKN 40,1,1,-1,4,1028,RJOI 122155Z 25005KT 9999 BKN040 01/M04 A3036 RMK SLP281     T00061044=,
20180112_230000.004,1,RJOI,,,,0,20180112220000,-1,-1,-1,-1,310,-1,3,-1,-1,-1,-1,,9999,0,0,2,FEW 20   SCT 40,-1,1,-1,4,1028,RJOI 122255Z 31003KT 9999 FEW020 SCT040 M01/M04 A3036 RMK     SLP280 T10061044=,
20180113_000000.004,1,RJOI,,,,0,20180112230000,-1,-1,-1,-1,240,-1,6,-1,-1,-1,-1,,9999,0,0,2,FEW 20   SCT 40,1,2,-1,3,1029,RJOI 122355Z 24006KT 9999 FEW020 SCT040 02/M03 A3039 RMK SLP289     T00221033 10022 21022 53010=,
20180113_010000.001,0,RJOI,,,,0,20180113000000,-1,-1,-1,-1,230,-1,4,-1,-1,-1,-1,,9999,0,0,3,FEW 25   BKN 40   BKN 50,1,3,-1,3,1029,RJOI 130055Z 23004KT 9999 FEW025 BKN040 BKN050 03/M03 A3040 RMK     SLP293 T00331028=,
20180113_020000.004,1,RJOI,,,,0,20180113010000,-1,-1,-1,-1,999,-1,4,-1,-1,-1,-1,,9999,0,0,3,FEW 25   SCT 40   BKN 50,1,3,-1,3,1029,RJOI 130155Z VRB04KT 9999 FEW025 SCT040 BKN050 03/M03 A3039 RMK     SLP289 T00331033=,
20180113_030000.002,0,RJOI,,,,0,20180113020000,-1,-1,-1,-1,240,-1,5,-1,-1,-1,-1,,9999,0,0,3,FEW 25   SCT 35   BKN 50,1,5,-1,3,1028,RJOI 130255Z 24005KT 9999 FEW025 SCT035 BKN050 05/M03 A3037 RMK     SLP284 T00501033 58003=,
20180113_040000.005,1,RJOI,,,,0,20180113030000,-1,-1,-1,-1,270,-1,8,-1,-1,-1,-1,,9999,0,0,3,FEW 30   SCT 40   BKN 200,1,6,-1,3,1028,RJOI 130355Z 27008KT 9999 FEW030 SCT040 BKN200 06/M03 A3035 RMK     SLP277 T00611033=,
20180113_050000.002,0,RJOI,,,,0,20180113040000,-1,-1,-1,-1,270,-1,12,-1,15,-1,-1,,9999,0,0,2,FEW 25   BKN 40,1,7,-1,3,1028,RJOI 130455Z 27012G15KT 9999 FEW025 BKN040 07/M03 A3035 RMK     SLP277 T00671033=,
20180113_060000.002,0,RJOI,,,,0,20180113050000,-1,-1,-1,-1,290,-1,13,-1,-1,-1,-1,,9999,0,0,2,FEW 25   BKN 40,1,6,-1,4,1028,RJOI 130555Z 29013KT 9999 FEW025 BKN040 06/M04 A3036 RMK SLP279     T00611039 10072 20022 55007=,
20180113_070000.002,0,RJOI,,,,0,20180113060000,-1,-1,-1,-1,310,-1,12,-1,17,-1,-1,,9999,0,0,2,FEW 25   SCT 40,1,6,-1,3,1029,RJOI 130655Z 31012G17KT 9999 FEW025 SCT040 06/M03 A3038 RMK     SLP286 T00561033=,
20180113_080000.004,1,RJOI,,,,0,20180113070000,-1,-1,-1,-1,290,-1,9,-1,-1,-1,-1,,9999,0,0,3,FEW 8   FEW 25   BKN 50,1,4,-1,2,1029,RJOI 130755Z 29009KT 9999 FEW008 FEW025 BKN050 04/M02 A3040 RMK     SLP292 T00441022=,
20180113_090000.005,1,RJOI,,,,0,20180113080000,-1,-1,-1,-1,290,-1,6,-1,-1,-1,-1,,9999,0,0,2,FEW 25   FEW 50,1,3,-1,2,1030,RJOI 130855Z 29006KT 9999 FEW025 FEW050 03/M02 A3041 RMK SLP298     T00331022 52020=,
20180113_100000.004,1,RJOI,,,,0,20180113090000,-1,-1,-1,-1,320,-1,5,-1,-1,-1,-1,,9999,0,0,2,FEW 25   FEW 50,1,3,-1,3,1030,RJOI 130955Z 32005KT 9999 FEW025 FEW050 03/M03 A3042 RMK SLP301     T00331028=,
20180113_110000.002,0,RJOI,,,,0,20180113100000,-1,-1,-1,-1,280,-1,5,-1,-1,-1,-1,,9999,0,0,2,SCT 30   BKN 45,1,3,-1,2,1030,RJOI 131055Z 28005KT 9999 SCT030 BKN045 03/M02 A3043 RMK SLP305     T00331022=,
20180113_120000.002,0,RJOI,,,,0,20180113110000,-1,-1,-1,-1,290,-1,4,-1,-1,-1,-1,,9999,0,0,2,SCT 30   BKN 45,1,3,-1,2,1031,RJOI 131155Z 29004KT 9999 SCT030 BKN045 03/M02 A3045 RMK SLP309     T00281017 10067 20028 53010=,
20180113_130000.002,0,RJOI,,,,0,20180113120000,-1,-1,-1,-1,270,-1,4,-1,-1,-1,-1,,9999,0,0,2,SCT 30   BKN 45,1,2,-1,2,1031,RJOI 131255Z 27004KT 9999 SCT030 BKN045 02/M02 A3045 RMK     SHSNB11E29 SLP312 P0000 T00221017=,
20180113_140000.001,0,RJOI,,,,0,20180113130000,-1,-1,-1,-1,340,-1,6,-1,-1,-1,-1,,9999,0,1,2,SCT 30   BKN 45,1,3,-1,2,1032,RJOI 131355Z 34006KT 9999 -SHSN SCT030 BKN045 03/M02 A3047 RMK     SHSNB45 SLP316 P0000 T00281022=,- SN SH
20180113_150000.002,0,RJOI,,,,0,20180113140000,-1,-1,-1,-1,310,-1,5,-1,-1,-1,-1,,9999,0,0,1,FEW 30,1,2,-1,2,1031,RJOI 131455Z 31005KT 9999 FEW030 02/M02 A3045 RMK SHSNE08     SLP310 P0000 60000 T00171017 400721022 50000=,
20180113_160000.002,0,RJOI,,,,0,20180113150000,-1,-1,-1,-1,310,-1,6,-1,-1,-1,-1,,9999,0,0,2,FEW 30   BKN 45,1,1,-1,2,1031,RJOI 131555Z 31006KT 9999 FEW030 BKN045 01/M02 A3044 RMK SLP306     T00111017=,
20180113_170000.002,0,RJOI,,,,0,20180113160000,-1,-1,-1,-1,290,-1,6,-1,-1,-1,-1,,9999,0,0,3,FEW 10   BKN 30   OVC 45,1,1,-1,1,1031,RJOI 131655Z 29006KT 9999 FEW010 BKN030 OVC045 01/M01 A3045 RMK     SLP311 T00111011=,
20180113_180000.002,0,RJOI,,,,0,20180113170000,-1,-1,-1,-1,300,-1,8,-1,-1,-1,-1,,9999,0,0,3,FEW 10   BKN 30   BKN 45,1,2,-1,2,1031,RJOI 131755Z 30008KT 9999 FEW010 BKN030 BKN045 02/M02 A3045 RMK     SLP312 60000 T00171017 10028 20011 53003=,
20180113_190000.001,0,RJOI,,,,0,20180113180000,-1,-1,-1,-1,300,-1,5,-1,-1,-1,-1,,9999,0,0,3,SCT 20   BKN 30   OVC 45,1,2,-1,2,1031,RJOI 131855Z 30005KT 9999 SCT020 BKN030 OVC045 02/M02 A3045 RMK     SLP310 T00171017=,
20180113_200000.001,0,RJOI,,,,0,20180113190000,-1,-1,-1,-1,300,-1,6,-1,-1,-1,-1,,9999,0,0,3,FEW 15   BKN 30   BKN 45,1,2,-1,2,1031,RJOI 131955Z 30006KT 9999 FEW015 BKN030 BKN045 02/M02 A3044 RMK     SLP308 T00171017=,
20180113_210000.002,0,RJOI,,,,0,20180113200000,-1,-1,-1,-1,300,-1,5,-1,-1,-1,-1,,9999,0,0,3,FEW 45   SCT 100   BKN 230,1,2,-1,2,1031,RJOI 132055Z 30005KT 9999 FEW045 SCT100 BKN230 02/M02 A3045 RMK     SLP309 T00171017 56003=,
20180113_220000.002,0,RJOI,,,,0,20180113210000,-1,-1,-1,-1,300,-1,5,-1,-1,-1,-1,,9999,0,0,3,FEW 15   BKN 100   BKN 230,1,1,-1,2,1031,RJOI 132155Z 30005KT 9999 FEW015 BKN100 BKN230 01/M02 A3045 RMK     SLP311 T00111022=,
20180113_230000.002,0,RJOI,,,,0,20180113220000,-1,-1,-1,-1,300,-1,6,-1,-1,-1,-1,,9999,0,0,3,FEW 20   BKN 100   BKN 230,1,1,-1,2,1033,RJOI 132255Z 30006KT 9999 FEW020 BKN100 BKN230 01/M02 A3050 RMK     SLP328 T00111017=,
20180114_000000.005,1,RJOI,,,,0,20180113230000,-1,-1,-1,-1,310,-1,5,-1,-1,-1,-1,,9999,0,0,2,FEW 20   BKN 180,1,2,-1,2,1033,RJOI 132355Z 31005KT 9999 FEW020 BKN180 02/M02 A3052 RMK SLP335     T00221017 10022 20006 53027=,
20180114_010000.002,0,RJOI,,,,0,20180114000000,-1,-1,-1,-1,270,-1,4,-1,-1,-1,-1,,9999,0,0,2,FEW 20   BKN 180,1,3,-1,2,1034,RJOI 140055Z 27004KT 9999 FEW020 BKN180 03/M02 A3054 RMK SLP342     T00331017=,
20180114_020000.002,0,RJOI,,,,0,20180114010000,-1,-1,-1,-1,40,-1,4,-1,-1,-1,-1,,9999,0,0,2,FEW 25   BKN 230,1,7,-1,1,1033,RJOI 140155Z 04004KT 9999 FEW025 BKN230 07/M01 A3051 RMK SLP332     T00671006=,
20180114_030000.002,0,RJOI,,,,0,20180114020000,-1,-1,-1,-1,0,-1,0,-1,-1,-1,-1,,9999,0,0,2,FEW 25   BKN 230,1,7,-1,2,1032,RJOI 140255Z 00000KT 9999 FEW025 BKN230 07/M02 A3048 RMK SLP321     T00671017 58014=,
20180114_040000.002,0,RJOI,,,,0,20180114030000,-1,-1,-1,-1,0,-1,0,-1,-1,-1,-1,,9999,0,0,2,FEW 25   BKN 230,1,7,-1,2,1031,RJOI 140355Z 00000KT 9999 FEW025 BKN230 07/M02 A3044 RMK SLP307     T00671022=,
20180114_050000.002,0,RJOI,,,,0,20180114040000,-1,-1,-1,-1,110,-1,4,-1,-1,-1,-1,,9999,0,0,2,FEW 30   BKN 230,1,7,-1,3,1030,RJOI 140455Z 11004KT 9999 FEW030 BKN230 07/M03 A3041 RMK SLP296     T00671028=,
20180114_060000.001,0,RJOI,,,,0,20180114050000,-1,-1,-1,-1,0,-1,0,-1,-1,-1,-1,,9999,0,0,2,FEW 30   BKN 230,1,7,-1,4,1029,RJOI 140555Z 00000KT 9999 FEW030 BKN230 07/M04 A3039 RMK SLP292     T00671039 10072 20022 56030=,
20180114_070000.002,0,RJOI,,,,0,20180114060000,-1,-1,-1,-1,0,-1,0,-1,-1,-1,-1,,9999,0,0,3,FEW 30   BKN 180   BKN 200,1,7,-1,4,1029,RJOI 140655Z 00000KT 9999 FEW030 BKN180 BKN200 07/M04 A3039 RMK     SLP292 T00671039=,
20180114_080000.002,0,RJOI,,,,0,20180114070000,-1,-1,-1,-1,0,-1,0,-1,-1,-1,-1,,9999,0,0,3,FEW 30   BKN 180   BKN 200,1,6,-1,4,1029,RJOI 140755Z 00000KT 9999 FEW030 BKN180 BKN200 06/M04 A3040 RMK     SLP294 T00611039=,
20180114_090000.002,0,RJOI,,,,0,20180114080000,-1,-1,-1,-1,0,-1,0,-1,-1,-1,-1,,9999,0,0,3,FEW 30   BKN 160   BKN 180,1,4,-1,3,1030,RJOI 140855Z 00000KT 9999 FEW030 BKN160 BKN180 04/M03 A3041 RMK     SLP296 T00441033 53007=,
20180114_100000.002,0,RJOI,,,,0,20180114090000,-1,-1,-1,-1,290,-1,5,-1,-1,-1,-1,,9999,0,0,3,FEW 30   SCT 160   BKN 210,1,4,-1,3,1029,RJOI 140955Z 29005KT 9999 FEW030 SCT160 BKN210 04/M03 A3040 RMK     SLP295 T00441028=,
20180114_110000.002,0,RJOI,,,,0,20180114100000,-1,-1,-1,-1,300,-1,6,-1,-1,-1,-1,,9999,0,0,1,FEW 30,1,3,-1,3,1030,RJOI 141055Z 30006KT 9999 FEW030 03/M03 A3041 RMK SLP297     T00281028=,
20180114_120000.004,1,RJOI,,,,0,20180114110000,-1,-1,-1,-1,300,-1,8,-1,-1,-1,-1,,9999,0,0,2,FEW 30   FEW 160,1,2,-1,3,1030,RJOI 141155Z 30008KT 9999 FEW030 FEW160 02/M03 A3042 RMK SLP300     T00221028 10067 20022 55000=,
20180114_130000.001,0,RJOI,,,,0,20180114120000,-1,-1,-1,-1,320,-1,7,-1,-1,-1,-1,,9999,0,0,2,FEW 30   FEW 160,1,2,-1,3,1030,RJOI 141255Z 32007KT 9999 FEW030 FEW160 02/M03 A3041 RMK SLP298     T00171028=,
20180114_140000.004,1,RJOI,,,,0,20180114130000,-1,-1,-1,-1,300,-1,7,-1,-1,-1,-1,,9999,0,0,2,FEW 30   FEW 160,1,1,-1,3,1029,RJOI 141355Z 30007KT 9999 FEW030 FEW160 01/M03 A3040 RMK SLP295     T00111028=,
20180114_150000.002,0,RJOI,,,,0,20180114140000,-1,-1,-1,-1,300,-1,8,-1,-1,-1,-1,,9999,0,0,2,FEW 30   FEW 160,1,1,-1,2,1029,RJOI 141455Z 30008KT 9999 FEW030 FEW160 01/M02 A3039 RMK SLP291     T00111022 400720006 58007=,
20180114_160000.002,0,RJOI,,,,0,20180114150000,-1,-1,-1,-1,300,-1,6,-1,-1,-1,-1,,9999,0,0,2,FEW 30   FEW 160,1,1,-1,3,1028,RJOI 141555Z 30006KT 9999 FEW030 FEW160 01/M03 A3037 RMK SLP285     T00061028=,
20180114_170000.005,1,RJOI,,,,0,20180114160000,-1,-1,-1,-1,300,-1,7,-1,-1,-1,-1,,9999,0,0,2,FEW 30   FEW 160,1,1,-1,3,1028,RJOI 141655Z 30007KT 9999 FEW030 FEW160 01/M03 A3037 RMK SLP283     T00061028=,
20180114_180000.005,1,RJOI,,,,0,20180114170000,-1,-1,-1,-1,300,-1,7,-1,-1,-1,-1,,9999,0,0,2,FEW 30   SCT 200,1,1,-1,3,1028,RJOI 141755Z 30007KT 9999 FEW030 SCT200 01/M03 A3037 RMK SLP284     T00061028 10022 20000 55007=,
20180114_190000.002,0,RJOI,,,,0,20180114180000,-1,-1,-1,-1,300,-1,6,-1,-1,-1,-1,,9999,0,0,2,FEW 30   SCT 200,1,0,-1,3,1028,RJOI 141855Z 30006KT 9999 FEW030 SCT200 00/M03 A3037 RMK SLP283     T00001028=,
20180114_200000.001,0,RJOI,,,,0,20180114190000,-1,-1,-1,-1,300,-1,8,-1,-1,-1,-1,,9999,0,0,2,FEW 30   FEW 200,1,0,-1,3,1028,RJOI 141955Z 30008KT 9999 FEW030 FEW200 00/M03 A3035 RMK SLP278     T00001028=,
20180114_210000.004,1,RJOI,,,,0,20180114200000,-1,-1,-1,-1,300,-1,7,-1,-1,-1,-1,,9999,0,0,2,FEW 30   SCT 200,1,0,-1,2,1028,RJOI 142055Z 30007KT 9999 FEW030 SCT200 00/M02 A3035 RMK SLP276     T00001022 57010=,
20180114_220000.002,0,RJOI,,,,0,20180114210000,-1,-1,-1,-1,310,-1,4,-1,-1,-1,-1,,9999,0,0,3,FEW 30   SCT 60   BKN 200,1,0,-1,2,1028,RJOI 142155Z 31004KT 9999 FEW030 SCT060 BKN200 00/M02 A3036 RMK     SLP280 T00001022=,
20180114_230000.005,1,RJOI,,,,0,20180114220000,-1,-1,-1,-1,300,-1,5,-1,-1,-1,-1,,9999,0,0,2,SCT 60   BKN 200,1,1,-1,2,1028,RJOI 142255Z 30005KT 9999 FERW030 SCT060 BKN200 01/M02 A3036     RMK SLP280 T00061017=,
20180115_000000.004,0,RJOI,,,,0,20180114230000,-1,-1,-1,-1,280,-1,6,-1,-1,-1,-1,,9999,0,0,2,FEW 25   OVC 80,1,2,-1,1,1029,RJOI 142355Z 28006KT 9999 FEW025 OVC080 02/M01 A3038 RMK SLP287     T0221011 10022 N21006 52014=,
20180115_010000.002,0,RJOI,,,,0,20180115000000,-1,-1,-1,-1,290,-1,3,-1,-1,-1,-1,,9999,0,0,1,BKN 50,1,4,1,0,1029,RJOI 150055Z 29003KT 9999 BKN050 04/00 A3038 RMK SLP287     T00390000=,
20180115_020000.002,0,RJOI,,,,0,20180115010000,-1,-1,-1,-1,360,-1,4,-1,-1,-1,-1,,9999,0,0,1,OVC 40,1,6,1,2,1028,RJOI 150155Z 36004KT 9999 OVC040 06/02 A3036 RMK SLP279     T00610017=,
20180115_030000.004,1,RJOI,,,,0,20180115020000,-1,-1,-1,-1,50,-1,3,-1,-1,-1,-1,,9999,0,0,1,OVC 40,1,7,1,2,1026,RJOI 150255Z 05003KT 9999 OVC040 07/02 A3031 RMK SLP264     T00720017 58024=,
20180115_040000.002,0,RJOI,,,,0,20180115030000,-1,-1,-1,-1,0,-1,0,-1,-1,-1,-1,,9999,0,0,2,BKN 40   OVC 80,1,7,1,3,1025,RJOI 150355Z 00000KT 9999 BKN040 OVC080 07/03 A3027 RMK SLP249     T00670028=,
20180115_050000.002,0,RJOI,,,,0,20180115040000,-1,-1,-1,-1,0,-1,0,-1,-1,-1,-1,,9999,0,0,2,BKN 40   OVC 80,1,8,1,2,1024,RJOI 150455Z 00000KT 9999 BKN040 OVC080 08/02 A3025 RMK SLP242     T00830022=,
20180115_060000.004,1,RJOI,,,,0,20180115050000,-1,-1,-1,-1,50,-1,3,-1,-1,-1,-1,,9999,0,0,2,FEW 30   SCT 90,1,9,1,3,1024,RJOI 150555Z 05003KT 9999 FEW030 SCT090 09/03 A3025 RMK SLP242     T00890028 10094 20022 56027=,
20180115_070000.003,0,RJOI,,,,0,20180115060000,-1,-1,-1,-1,0,-1,0,-1,-1,-1,-1,,9999,0,0,2,FEW 30   SCT 90,1,9,1,3,1024,RJOI 150655Z 00000KT 9999 FEW030 SCT090 09/03 A3025 RMK SLP244     T00890033=,
20180115_080000.004,1,RJOI,,,,0,20180115070000,-1,-1,-1,-1,160,-1,3,-1,-1,-1,-1,,9999,0,0,2,FEW 30   SCT 70,1,8,1,3,1025,RJOI 150755Z 16003KT 9999 FEW030 SCT070 08/03 A3026 RMK SLP246     T00780033=,
20180115_090000.004,1,RJOI,,,,0,20180115080000,-1,-1,-1,-1,250,-1,3,-1,-1,-1,-1,,9999,0,0,1,FEW 40,1,6,1,3,1028,RJOI 150855Z 25003KT 9999 FEW040 06/03 A3037 RMK SLP251     T00610033 53010=,
20180115_090000.005,1,RJOI,,,,0,20180115080000,-1,-1,-1,-1,250,-1,3,-1,-1,-1,-1,,9999,0,0,1,FEW 40,1,6,1,3,1025,RJOI 150855Z 25003KT 9999 FEW040 06/03 A3027 RMK SLP251     T00610033 53010=,
20180115_100000.004,1,RJOI,,,,0,20180115090000,-1,-1,-1,-1,0,-1,0,-1,-1,-1,-1,,9999,0,0,2,FEW 40   SCT 50,1,6,1,3,1025,RJOI 150955Z 00000KT 9999 FEW040 SCT050 06/03 A3027 RMK SLP249     T00560033=,
20180115_110000.002,0,RJOI,,,,0,20180115100000,-1,-1,-1,-1,340,-1,5,-1,-1,-1,-1,,9999,0,0,2,FEW 25   SCT 40,1,6,1,3,1025,RJOI 151055Z 34005KT 9999 FEW025 SCT040 06/03 A3027 RMK SLP249     T00560033=,
20180115_120000.002,0,RJOI,,,,0,20180115110000,-1,-1,-1,-1,290,-1,4,-1,-1,-1,-1,,9999,0,0,2,FEW 25   SCT 40,1,6,1,4,1025,RJOI 151155Z 29004KT 9999 FEW025 SCT040 06/04 A3028 RMK SLP253     T00560039 10094 20044 53003=,
20180115_130000.002,0,RJOI,,,,0,20180115120000,-1,-1,-1,-1,310,-1,5,-1,-1,-1,-1,,9999,0,0,2,FEW 25   SCT 40,1,6,1,4,1025,RJOI 151255Z 31005KT 9999 FEW025 SCT040 06/04 A3027 RMK SLP251     T00560039=,
20180115_140000.004,1,RJOI,,,,0,20180115130000,-1,-1,-1,-1,300,-1,5,-1,-1,-1,-1,,9999,0,0,2,FEW 25   FEW 40,1,4,1,3,1025,RJOI 151355Z 30005KT 9999 FEW025 FEW040 04/03 A3027 RMK SLP251     T00390028=,
20180115_150000.002,0,RJOI,,,,0,20180115140000,-1,-1,-1,-1,310,-1,4,-1,-1,-1,-1,,9999,0,0,2,FEW 25   SCT 40,1,4,1,3,1025,RJOI 151455Z 31004KT 9999 FEW025 SCT040 04/03 A3027 RMK SLP249     T00390028 400941006 56003=,
20180115_160000.004,1,RJOI,,,,0,20180115150000,-1,-1,-1,-1,300,-1,6,-1,-1,-1,-1,,9999,0,0,2,FEW 25   SCT 40,1,4,1,3,1024,RJOI 151555Z 30006KT 9999 FEW025 SCT040 04/03 A3025 RMK SLP245     T00390028=,
20180115_170000.002,0,RJOI,,,,0,20180115160000,-1,-1,-1,-1,310,-1,5,-1,-1,-1,-1,,9999,0,0,2,FEW 25   SCT 40,1,3,1,2,1024,RJOI 151655Z 31005KT 9999 FEW025 SCT040 03/02 A3025 RMK SLP244     T00330022=,
20180115_180000.004,1,RJOI,,,,0,20180115170000,-1,-1,-1,-1,310,-1,5,-1,-1,-1,-1,,9999,0,0,2,FEW 25   SCT 40,1,3,1,2,1024,RJOI 151755Z 31005KT 9999 FEW025 SCT040 03/02 A3023 RMK SLP237     T00280022 10056 20028 58014=,
20180115_190000.004,1,RJOI,,,,0,20180115180000,-1,-1,-1,-1,310,-1,6,-1,-1,-1,-1,,9999,0,0,2,FEW 25   SCT 40,1,3,1,2,1023,RJOI 151855Z 31006KT 9999 FEW025 SCT040 03/02 A3022 RMK SLP232     T00280022=,
20180115_200000.002,0,RJOI,,,,0,20180115190000,-1,-1,-1,-1,300,-1,4,-1,-1,-1,-1,,9999,0,0,3,FEW 20   SCT 40   BKN 230,1,3,1,2,1023,RJOI 151955Z 30004KT 9999 FEW020 SCT040 BKN230 03/02 A3021 RMK     SLP229 T00330022=,
20180115_210000.004,1,RJOI,,,,0,20180115200000,-1,-1,-1,-1,310,-1,5,-1,-1,-1,-1,,9999,0,0,3,FEW 20   SCT 40   BKN 230,1,4,1,3,1023,RJOI 152055Z 31005KT 9999 FEW020 SCT040 BKN230 04/03 A3022 RMK     SLP231 T00390028 55007=,
20180115_220000.002,0,RJOI,,,,0,20180115210000,-1,-1,-1,-1,330,-1,4,-1,-1,-1,-1,,9999,0,0,3,FEW 20   SCT 40   SCT 60,1,4,1,3,1024,RJOI 152155Z 33004KT 9999 FEW020 SCT040 SCT060 04/03 A3023 RMK     SLP235 T00390028=,
20180115_230000.002,0,RJOI,,,,0,20180115220000,-1,-1,-1,-1,300,-1,3,-1,-1,-1,-1,,8000,0,1,3,SCT 15   BKN 30   BKN 80,1,4,1,3,1024,RJOI 152255Z 30003KT 8000 BR SCT015 BKN030 BKN080 04/03 A3023     RMK SLP236 T00390028=,BR
20180116_000000.004,0,RJOI,,,,0,20180115230000,-1,-1,-1,-1,300,-1,4,-1,-1,-1,-1,,8000,0,1,3,SCT 12   BKN 30   BKN 45,1,6,1,4,1024,RJOI 152355Z 30004KT 8000 BR SCT012 BKN030 BKN045 06/04 A3023     RMK SLP236 T00610044 10061 20028 51007=,BR
20180116_010000.002,0,RJOI,,,,0,20180116000000,-1,-1,-1,-1,360,-1,5,-1,-1,-1,-1,,8000,0,1,3,FEW 7   SCT 12   BKN 30,1,7,1,6,1023,RJOI 160055Z 36005KT 8000 BR FEW007 SCT012 BKN030 07/06 A3022     RMK SLP234 T00720056=,BR
20180116_020000.002,0,RJOI,,,,0,20180116010000,-1,-1,-1,-1,20,-1,5,-1,-1,-1,-1,,9000,0,1,3,FEW 8   SCT 15   OVC 35,1,9,1,6,1023,RJOI 160155Z 02005KT 9000 BR FEW008 SCT015 OVC035 09/06 A3021     RMK SLP230 T00890056=,BR
20180116_030000.002,0,RJOI,,,,0,20180116020000,-1,-1,-1,-1,40,-1,4,-1,-1,-1,-1,,9000,0,1,3,FEW 13   SCT 30   BKN 70,1,10,1,6,1022,RJOI 160255Z 04004KT 9000 BR FEW013 SCT030 BKN070 10/06 A3017     RMK SLP215 T01000061 58024=,BR
20180116_040000.002,0,RJOI,,,,0,20180116030000,-1,-1,-1,-1,80,-1,4,-1,-1,-1,-1,,9999,0,0,2,FEW 30   FEW 100,1,11,1,7,1020,RJOI 160355Z 08004KT 9999 FEW030 FEW100 11/07 A3011 RMK SLP197     T01060072=,
20180116_050000.002,0,RJOI,,,,0,20180116040000,-1,-1,-1,-1,110,-1,4,-1,-1,-1,-1,,9999,0,0,2,FEW 30   SCT 60,1,11,1,7,1018,RJOI 160455Z 11004KT 9999 FEW030 SCT060 11/07 A3007 RMK SLP183     T01060072=,
20180116_060000.002,0,RJOI,,,,0,20180116050000,-1,-1,-1,-1,180,-1,3,-1,-1,-1,-1,,9999,0,0,3,FEW 25   SCT 40   SCT 80,1,11,1,7,1018,RJOI 160555Z 18003KT 9999 FEW025 SCT040 SCT080 11/07 A3006 RMK     SLP178 T01060072 10117 20056 56034=,
20180116_070000.002,0,RJOI,,,,0,20180116060000,-1,-1,-1,-1,0,-1,0,-1,-1,-1,-1,,9999,0,0,3,FEW 25   BKN 50   BKN 80,1,11,1,8,1017,RJOI 160655Z 00000KT 9999 FEW025 BKN050 BKN080 11/08 A3004 RMK     SLP172 T01110078=,
20180116_080000.002,0,RJOI,,,,0,20180116070000,-1,-1,-1,-1,0,-1,0,-1,-1,-1,-1,,9999,0,0,3,FEW 25   SCT 40   BKN 80,1,11,1,8,1017,RJOI 160755Z 00000KT 9999 FEW025 SCT040 BKN080 11/08 A3003 RMK     SLP168 T01060078=,
20180116_090000.002,0,RJOI,,,,0,20180116080000,-1,-1,-1,-1,0,-1,0,-1,-1,-1,-1,,9999,0,0,3,FEW 25   SCT 40   BKN 80,1,10,1,8,1016,RJOI 160855Z 00000KT 9999 FEW025 SCT040 BKN080 10/08 A3001 RMK     SLP163 T01000078 56017=,
20180116_100000.002,0,RJOI,,,,0,20180116090000,-1,-1,-1,-1,190,-1,3,-1,-1,-1,-1,,9000,0,1,3,FEW 25   BKN 40   OVC 80,1,10,1,8,1016,RJOI 160955Z 19003KT 9000 BR FEW025 BKN040 OVC080 10/08 A3000     RMK SLP159 T01000078=,BR
20180116_110000.004,0,RJOI,,,,0,20180116100000,-1,-1,-1,-1,270,-1,4,-1,-1,-1,-1,,8000,0,2,3,FEW 25   BKN 40   OVC 80,1,10,1,8,1017,RJOI 161055Z 27004KT 8000 -RA BR FEW025 BKN040 OVC080 10/08     A3002 RMK SLP165 P0001 T01000083=,- RA; BR
20180116_110000.007,1,RJOI,,,,0,20180116100000,-1,-1,-1,-1,270,-1,4,-1,-1,-1,-1,,8000,0,2,3,FEW 25   BKN 40   OVC 80,1,10,1,8,1017,RJOI 161055Z 27004KT 8000 -RA BR FEW025 BKN040 OVC080 10/08     A3002 RMK SLP165 RAB18 P0001 T01000083=,- RA; BR
20180116_120000.002,0,RJOI,,,,0,20180116110000,-1,-1,-1,-1,0,-1,0,-1,-1,-1,-1,,8000,0,2,3,FEW 25   BKN 40   OVC 80,1,10,1,9,1016,RJOI 161155Z 00000KT 8000 -RA BR FEW025 BKN040 OVC080 10/09     A3000 RMK SLP159 P0005 60006 T01000089 10111 20094 58003=,- RA; BR
20180116_130000.002,0,RJOI,,,,0,20180116120000,-1,-1,-1,-1,0,-1,0,-1,-1,-1,-1,,4800,0,2,3,FEW 25   BKN 40   OVC 80,1,10,1,9,1016,RJOI 161255Z 00000KT 4800 -RA BR FEW025 BKN040 OVC080 10/09     A2999 RMK SLP156 P0006 T01000094=,- RA; BR
20180116_140000.002,0,RJOI,,,,0,20180116130000,-1,-1,-1,-1,0,-1,0,-1,-1,-1,-1,,4800,0,2,3,FEW 25   BKN 40   OVC 80,1,10,1,9,1015,RJOI 161355Z 00000KT 4800 RA BR FEW025 BKN040 OVC080 10/09     A2998 RMK SLP151 P0008 T01000094=,RA; BR
20180116_150000.004,0,RJOI,,,,0,20180116140000,-1,-1,-1,-1,0,-1,0,-1,-1,-1,-1,,4800,0,2,3,FEW 15   BKN 40   OVC 80,1,10,1,9,1014,RJOI 161455Z 00000KT 4800 RA BR FEW015 BKN040 OVC080 10/09     A2995 RMK SLP140 P0005 60025 T01000094 401170028 58020=,RA; BR
20180116_160000.002,0,RJOI,,,,0,20180116150000,-1,-1,-1,-1,0,-1,0,-1,-1,-1,-1,,3200,0,2,3,FEW 15   BKN 30   OVC 80,1,10,1,10,1014,RJOI 161555Z 00000KT 3200 RA BR FEW015 BKN030 OVC080 10/10     A2994 RMK SLP137 P0009 T01000100=,RA; BR
20180116_170000.002,0,RJOI,,,,0,20180116160000,-1,-1,-1,-1,350,-1,3,-1,-1,-1,-1,,3200,0,2,3,FEW 15   BKN 30   OVC 80,1,10,1,9,1013,RJOI 161655Z 35003KT 3200 RA BR FEW015 BKN030 OVC080 10/09     A2992 RMK SLP132 P0018 T01000094=,RA; BR
20180116_180000.002,0,RJOI,,,,0,20180116170000,-1,-1,-1,-1,20,-1,3,-1,-1,-1,-1,,3200,0,2,3,FEW 15   BKN 20   OVC 80,1,10,1,10,1013,RJOI 161755Z 02003KT 3200 RA BR FEW015 BKN020 OVC080 10/10     A2992 RMK SLP130 60065 T01000100 10100 20094 56010=,RA; BR
20180116_190000.002,0,RJOI,,,,0,20180116180000,-1,-1,-1,-1,0,-1,0,-1,-1,-1,-1,,3200,0,2,3,FEW 10   BKN 20   OVC 30,1,10,1,10,1012,RJOI 161855Z 00000KT 3200 RA BR FEW010 BKN020 OVC030 10/10     A2989 RMK SLP122 P0008 T01000100=,RA; BR
20180116_200000.002,0,RJOI,,,,0,20180116190000,-1,-1,-1,-1,290,-1,4,-1,-1,-1,-1,,3200,0,2,2,BKN 10   OVC 30,1,10,1,9,1012,RJOI 161955Z 29004KT 3200 -RA BR BKN010 OVC030 10/09 A2989 RMK     SLP121 P0006 T01000094=,- RA; BR
20180116_210000.002,0,RJOI,,,,0,20180116200000,-1,-1,-1,-1,0,-1,0,-1,-1,-1,-1,,3200,0,2,2,BKN 10   OVC 30,1,10,1,9,1012,RJOI 162055Z 00000KT 3200 -RA BR BKN010 OVC030 10/09 A2988 RMK     SLP119 P0006 60020 T01000094 57010=,- RA; BR
20180116_220000.002,0,RJOI,,,,0,20180116210000,-1,-1,-1,-1,0,-1,0,-1,-1,-1,-1,,3200,0,2,2,BKN 10   OVC 30,1,10,1,10,1012,RJOI 162155Z 00000KT 3200 -RA BR BKN010 OVC030 10/10 A2989 RMK     SLP121 P0006 T01000100=,- RA; BR
20180116_230000.002,0,RJOI,,,,0,20180116220000,-1,-1,-1,-1,50,-1,3,-1,-1,-1,-1,,3200,0,2,1,OVC 10,1,10,1,9,1011,RJOI 162255Z 05003KT 3200 -RA BR OVC010 10/09 A2987 RMK SLP115     P0005 T01000094=,- RA; BR
20180117_000000.005,0,RJOI,,,,0,20180116230000,-1,-1,-1,-1,310,-1,3,-1,-1,-1,-1,,3200,0,2,1,OVC 4,1,11,1,11,1011,RJOI 162355Z 31003KT 3200 -RA BR OVC004 11/11 A2987 RMK SLP114     P0002 60033 T01060106 10106 20100 55003=,- RA; BR
20180117_010000.002,0,RJOI,,,,0,20180117000000,-1,-1,-1,-1,0,-1,0,-1,-1,-1,-1,,-1,0,1,2,BKN 4   OVC 10,1,11,1,11,1011,RJOI 170055Z 00000KT 1 1/2SM BR BKN004 OVC010 11/11 A2987 RMK     RAE2359B24E53 SLP116 P0001 T01110106=,BR
20180117_020000.004,0,RJOI,,,,0,20180117010000,-1,-1,-1,-1,0,-1,0,-1,-1,-1,-1,,-1,0,2,3,FEW 8   BKN 14   BKN 60,1,12,1,11,1011,RJOI 170155Z 00000KT 2 1/2SM -RA BR FEW008 BKN014 BKN060 12/11     A2985 RMK RAB14E31B47 SLP109 P0000 T01170111=,- RA; BR
20180117_030000.005,1,RJOI,,,,0,20180117020000,-1,-1,-1,-1,0,-1,0,-1,-1,-1,-1,,-1,0,2,3,FEW 8   BKN 14   OVC 60,1,12,1,11,1010,RJOI 170255Z 00000KT 2 1/2SM -RA BR FEW008 BKN014 OVC060 12/11     A2984 RMK RAE01B54 SLP104 P0000 60003 T01170111 58010=,- RA; BR
20180117_040000.003,0,RJOI,,,,0,20180117030000,-1,-1,-1,-1,110,-1,4,-1,-1,-1,-1,,4000,0,1,3,SCT 8   BKN 14   BKN 60,1,12,1,11,-1,RJOI 170355Z 11004KT 4000 BR SCT008 BKN014 BKN060 12/11 2981     RMK RAE25 SLP095 P0000 T01220111=,BR
20180117_040000.005,1,RJOI,,,,0,20180117010000,-1,-1,-1,-1,0,-1,0,-1,-1,-1,-1,,4000,0,2,3,FEW 8   BKN 14   BKN 60,1,12,1,11,1011,RJOI 170155Z 00000KT 4000 -RA BR FEW008 BKN014 BKN060 12/11     A2985 RMK RAB14E31B47 SLP109 P0000 T01170111=,- RA; BR
20180117_040000.005,1,RJOI,,,,0,20180117020000,-1,-1,-1,-1,0,-1,0,-1,-1,-1,-1,,4000,0,2,3,FEW 8   BKN 14   OVC 60,1,12,1,11,1010,RJOI 170255Z 00000KT 4000 -RA BR FEW008 BKN014 OVC060 12/11     A2984 RMK RAE01B54 SLP104 P0000 60003 T01170111 58010=,- RA; BR
20180117_040000.006,1,RJOI,,,,0,20180117030000,-1,-1,-1,-1,110,-1,4,-1,-1,-1,-1,,4000,0,1,3,SCT 8   BKN 14   BKN 60,1,12,1,11,1009,RJOI 170355Z 11004KT 4000 BR SCT008 BKN014 BKN060 12/11     A2981 RMK RAE25 SLP095 P0000 T01220111=,BR
20180117_050000.003,0,RJOI,,,,0,20180117040000,-1,-1,-1,-1,180,-1,7,-1,-1,-1,-1,,9999,0,0,3,SCT 14   BKN 30   BKN 60,1,15,1,12,1009,RJOI 170455Z 18007KT 9999 SCT014 BKN030 BKN060 15/12 A2980 RMK     SLP091 T01500122=,
20180117_060000.002,0,RJOI,,,,0,20180117050000,-1,-1,-1,-1,310,-1,5,-1,-1,-1,-1,,9999,0,1,3,FEW 15   BKN 30   BKN 60,1,15,1,12,1010,RJOI 170555Z 31005KT 9999 -RA FEW015 BKN030 BKN060 15/12 A2982     RMK RAB0458 SLP099 P0002 60002 T01500122 10161 20106           55007=,- RA
20180117_070000.002,0,RJOI,,,,0,20180117060000,-1,-1,-1,-1,300,-1,8,-1,-1,-1,-1,,9999,0,0,3,FEW 15   SCT 30   BKN 60,1,14,1,9,1011,RJOI 170655Z 30008KT 9999 FEW015 SCT030 BKN060 14/09 A2987 RMK     RAE11 SLP113 P0000 T01390094=,
20180117_080000.002,0,RJOI,,,,0,20180117070000,-1,-1,-1,-1,280,-1,8,-1,-1,-1,-1,,9999,0,0,3,FEW 15   SCT 30   BKN 60,1,13,1,8,1013,RJOI 170755Z 28008KT 9999 FEW015 SCT030 BKN060 13/08 A2990 RMK     SLP124 T01330083=,
20180117_090000.003,0,RJOI,,,,0,20180117080000,-1,-1,-1,-1,270,-1,7,-1,-1,-1,-1,,9999,0,0,2,FEW 15   BKN 30,1,12,1,8,1014,RJOI 170855Z 27007KT 9999 FEW015 BKN030 12/08 A2995 RMK PRESRR     SLP142 60002 T01220078 53044=,
20180117_100000.002,0,RJOI,,,,0,20180117090000,-1,-1,-1,-1,300,-1,6,-1,-1,-1,-1,,9999,0,0,2,SCT 20   BKN 30,1,12,1,7,1015,RJOI 170955Z 30006KT 9999 SCT020 BKN030 12/07 A2998 RMK SLP153     T01170067=,
20180117_110000.003,0,RJOI,,,,0,20180117100000,-1,-1,-1,-1,300,-1,5,-1,-1,-1,-1,,9999,0,0,2,SCT 15   BKN 30,1,12,1,7,1016,RJOI 171055Z 30005KT 9999 SCT015 BKN030 12/07 A3001 RMK SLP160     T01170067=,
20180117_120000.003,0,RJOI,,,,0,20180117110000,-1,-1,-1,-1,340,-1,4,-1,-1,-1,-1,,9999,0,0,3,SCT 12   BKN 30   BKN 45,1,11,1,7,1018,RJOI 171155Z 34004KT 9999 SCT012 BKN030 BKN045 11/07 A3005 RMK     SLP175 60000 70101 T01110072 10156 20111 53030=,
20180117_130000.002,0,RJOI,,,,0,20180117120000,-1,-1,-1,-1,310,-1,4,-1,-1,-1,-1,,9999,0,0,3,SCT 15   BKN 30   BKN 45,1,11,1,7,1019,RJOI 171255Z 31004KT 9999 SCT015 BKN030 BKN045 11/07 A3008 RMK     SLP185 T01060067=,
20180117_140000.002,0,RJOI,,,,0,20180117130000,-1,-1,-1,-1,310,-1,3,-1,-1,-1,-1,,9999,0,0,2,FEW 15   SCT 30,1,9,1,6,1018,RJOI 171355Z 31003KT 9999 FEW015 SCT030 09/06 A3006 RMK SLP179     T00940056=,
20180117_150000.002,0,RJOI,,,,0,20180117140000,-1,-1,-1,-1,310,-1,5,-1,-1,-1,-1,,9999,0,0,2,FEW 15   SCT 30,1,8,1,6,1019,RJOI 171455Z 31005KT 9999 FEW015 SCT030 08/06 A3010 RMK SLP191     T00830056 401610083 53017=,
20180117_160000.002,0,RJOI,,,,0,20180117150000,-1,-1,-1,-1,300,-1,6,-1,-1,-1,-1,,9999,0,0,1,FEW 25,1,8,1,5,1018,RJOI 171555Z 30006KT 9999 FEW025 08/05 A3007 RMK SLP183     T00780050=,
20180117_170000.002,0,RJOI,,,,0,20180117160000,-1,-1,-1,-1,290,-1,6,-1,-1,-1,-1,,9999,0,0,1,SKC -1,1,7,1,5,1018,RJOI 171655Z 29006KT 9999 SKC 07/05 A3007 RMK SLP183 T00720050=,
20180117_180000.002,0,RJOI,,,,0,20180117170000,-1,-1,-1,-1,310,-1,6,-1,-1,-1,-1,,9999,0,0,1,SCT 230,1,7,1,4,1018,RJOI 171755Z 31006KT 9999 SCT230 07/04 A3006 RMK SLP177     T00670044 10117 20061 56010=,
20180117_190000.001,0,RJOI,,,,0,20180117180000,-1,-1,-1,-1,310,-1,7,-1,-1,-1,-1,,9999,0,0,1,BKN 230,1,7,1,4,1018,RJOI 171855Z 31007KT 9999 BKN230 07/04 A3007 RMK SLP182     T00670044=,
20180117_200000.002,0,RJOI,,,,0,20180117190000,-1,-1,-1,-1,310,-1,5,-1,-1,-1,-1,,9999,0,0,1,BKN 230,1,7,1,4,1018,RJOI 171955Z 31005KT 9999 BKN230 07/04 A3005 RMK SLP176     T00670044=,
20180117_210000.002,0,RJOI,,,,0,20180117200000,-1,-1,-1,-1,300,-1,6,-1,-1,-1,-1,,9999,0,0,2,FEW 20   SCT 230,1,6,1,4,1019,RJOI 172055Z 30006KT 9999 FEW020 SCT230 06/04 A3010 RMK SLP192     T00610044 53010=,
20180117_220000.003,0,RJOI,,,,0,20180117210000,-1,-1,-1,-1,310,-1,6,-1,-1,-1,-1,,9999,0,0,3,FEW 25   FEW 100   SCT 230,1,6,1,4,1019,RJOI 172155Z 31006KT 9999 FEW025 FEW100 SCT230 06/04 A3009 RMK     SLP190 T00560039=,
20180117_230000.002,0,RJOI,,,,0,20180117220000,-1,-1,-1,-1,0,-1,0,-1,-1,-1,-1,,9999,0,0,3,FEW 20   SCT 40   BKN 100,1,7,1,4,1020,RJOI 172255Z 00000KT 9999 FEW020 SCT040 BKN100 07/04 A3011 RMK     SLP196 T00670039=,
20180118_000000.005,1,RJOI,,,,0,20180117230000,-1,-1,-1,-1,320,-1,5,-1,-1,-1,-1,,9999,0,0,3,FEW 20   BKN 45   BKN 230,1,7,1,4,1021,RJOI 172355Z 32005KT 9999 FEW020 BKN045 BKN230 07/04 A3014 RMK     SLP206 T00720044 10072 20056 53017=,
20180118_010000.002,0,RJOI,,,,0,20180118000000,-1,-1,-1,-1,0,-1,0,-1,-1,-1,-1,,9999,0,0,3,FEW 20   BKN 50   BKN 230,1,8,1,5,1021,RJOI 180055Z 00000KT 9999 FEW020 BKN050 BKN230 08/05 A3015 RMK     SLP209 T00830050=,
20180118_020000.003,0,RJOI,,,,0,20180118010000,-1,-1,-1,-1,30,-1,5,-1,-1,-1,-1,,9999,0,0,3,FEW 25   BKN 50   BKN 230,1,10,1,5,1021,RJOI 180155Z 03005KT 9999 FEW025 BKN050 BKN230 10/05 A3014 RMK     SLP207 T01000050=,
20180118_030000.005,1,RJOI,,,,0,20180118020000,-1,-1,-1,-1,90,-1,5,-1,-1,-1,-1,,9999,0,0,2,FEW 25   SCT 50,1,11,1,6,1020,RJOI 180255Z 09005KT 9999 FEW025 SCT050 11/06 A3013 RMK SLP201     T01060056 58007=,
20180118_040000.002,0,RJOI,,,,0,20180118030000,-1,-1,-1,-1,100,-1,4,-1,-1,-1,-1,,9999,0,0,2,FEW 25   BKN 50,1,11,1,6,1020,RJOI 180355Z 10004KT 9999 FEW025 BKN050 11/06 A3011 RMK SLP195     T01060061=,
20180118_050000.004,1,RJOI,,,,0,20180118040000,-1,-1,-1,-1,90,-1,5,-1,-1,-1,-1,,9999,0,0,3,FEW 25   SCT 50   SCT 230,1,11,1,7,1019,RJOI 180455Z 09005KT 9999 FEW025 SCT050 SCT230 11/07 A3009 RMK     SLP188 T01110067=,
20180118_060000.004,1,RJOI,,,,0,20180118050000,-1,-1,-1,-1,50,-1,4,-1,-1,-1,-1,,9999,0,0,2,FEW 25   BKN 40,1,12,1,7,1019,RJOI 180555Z 05004KT 9999 FEW025 BKN040 12/07 A3009 RMK SLP189     T01170072 10117 20072 56014=,
20180118_070000.002,0,RJOI,,,,0,20180118060000,-1,-1,-1,-1,30,-1,6,-1,-1,-1,-1,,9999,0,0,2,FEW 25   BKN 45,1,12,1,7,1019,RJOI 180655Z 03006KT 9999 FEW025 BKN045 12/07 A3009 RMK SLP190     T01170072=,
20180118_080000.004,1,RJOI,,,,0,20180118070000,-1,-1,-1,-1,10,-1,5,-1,-1,-1,-1,,9999,0,0,2,FEW 25   BKN 45,1,11,1,7,1020,RJOI 180755Z 01005KT 9999 FEW025 BKN045 11/07 A3011 RMK SLP195     T01060072=,
20180118_090000.002,0,RJOI,,,,0,20180118080000,-1,-1,-1,-1,310,-1,3,-1,-1,-1,-1,,9999,0,0,2,FEW 25   BKN 45,1,11,1,7,1020,RJOI 180855Z 31003KT 9999 FEW025 BKN045 11/07 A3012 RMK SLP200     T01060072 53014=,
20180118_100000.002,0,RJOI,,,,0,20180118090000,-1,-1,-1,-1,300,-1,5,-1,-1,-1,-1,,9999,0,0,2,FEW 25   SCT 45,1,9,1,7,1021,RJOI 180955Z 30005KT 9999 FEW025 SCT045 09/07 A3014 RMK SLP205     T00940072=,
20180118_110000.002,0,RJOI,,,,0,20180118100000,-1,-1,-1,-1,310,-1,4,-1,-1,-1,-1,,9999,0,0,2,FEW 25   SCT 45,1,9,1,6,1021,RJOI 181055Z 31004KT 9999 FEW025 SCT045 09/06 A3015 RMK SLP209     T00940056=,
20180118_120000.004,1,RJOI,,,,0,20180118110000,-1,-1,-1,-1,310,-1,5,-1,-1,-1,-1,,9999,0,0,2,FEW 25   SCT 45,1,8,1,4,1021,RJOI 181155Z 31005KT 9999 FEW025 SCT045 08/04 A3016 RMK SLP212     T00830044 10117 20083 51010=,
20180118_130000.004,1,RJOI,,,,0,20180118120000,-1,-1,-1,-1,290,-1,5,-1,-1,-1,-1,,9999,0,0,2,FEW 25   BKN 45,1,8,1,4,1021,RJOI 181255Z 29005KT 9999 FEW025 BKN045 08/04 A3016 RMK SLP214     T00780044=,
20180118_140000.002,0,RJOI,,,,0,20180118130000,-1,-1,-1,-1,300,-1,6,-1,-1,-1,-1,,9999,0,0,2,FEW 25   FEW 45,1,7,1,4,1022,RJOI 181355Z 30006KT 9999 FEW025 FEW045 07/04 A3017 RMK SLP216     T00670039=,
20180118_150000.002,0,RJOI,,,,0,20180118140000,-1,-1,-1,-1,310,-1,5,-1,-1,-1,-1,,9999,0,0,2,FEW 25   FEW 45,1,7,1,4,1021,RJOI 181455Z 31005KT 9999 FEW025 FEW045 07/04 A3016 RMK SLP214     T00670039 401170056 51003=,
20180118_160000.002,0,RJOI,,,,0,20180118150000,-1,-1,-1,-1,300,-1,5,-1,-1,-1,-1,,9000,0,1,2,FEW 25   BKN 40,1,6,1,4,1021,RJOI 181555Z 30005KT 9000 BR FEW025 BKN040 06/04 A3016 RMK     SLP213 T00610039=,BR
20180118_170000.005,1,RJOI,,,,0,20180118160000,-1,-1,-1,-1,310,-1,5,-1,-1,-1,-1,,9000,0,1,2,FEW 25   BKN 45,1,6,1,4,1021,RJOI 181655Z 31005KT 9000 BR FEW025 BKN045 06/04 A3016 RMK     SLP214 T00610039=,BR
20180118_180000.004,1,RJOI,,,,0,20180118170000,-1,-1,-1,-1,300,-1,6,-1,-1,-1,-1,,9000,0,1,2,FEW 25   BKN 45,1,6,1,3,1021,RJOI 181755Z 30006KT 9000 BR FEW025 BKN045 06/03 A3016 RMK     SLP213 T00560033 10083 20056 58003=,BR
20180118_190000.002,0,RJOI,,,,0,20180118180000,-1,-1,-1,-1,300,-1,6,-1,-1,-1,-1,,9000,0,1,2,FEW 25   BKN 45,1,6,1,3,1021,RJOI 181855Z 30006KT 9000 BR FEW025 BKN045 06/03 A3015 RMK     SLP210 T00560033=,BR
20180118_200000.002,0,RJOI,,,,0,20180118190000,-1,-1,-1,-1,310,-1,6,-1,-1,-1,-1,,8000,0,1,2,FEW 25   BKN 45,1,5,1,3,1021,RJOI 181955Z 31006KT 8000 BR FEW025 BKN045 05/03 A3015 RMK     SLP209 T00500028=,BR
20180118_210000.005,1,RJOI,,,,0,20180118200000,-1,-1,-1,-1,300,-1,7,-1,-1,-1,-1,,8000,0,1,2,FEW 25   FEW 45,1,4,1,2,1021,RJOI 182055Z 30007KT 8000 BR FEW025 FEW045 04/02 A3016 RMK     SLP212 T00440022 54000=,BR
20180118_220000.005,1,RJOI,,,,0,20180118210000,-1,-1,-1,-1,300,-1,7,-1,-1,-1,-1,,6000,0,1,2,FEW 25   BKN 45,1,4,1,2,1022,RJOI 182155Z 30007KT 6000 BR FEW025 BKN045 04/02 A3018 RMK     SLP218 T00440022=,BR
20180118_230000.005,1,RJOI,,,,0,20180118220000,-1,-1,-1,-1,300,-1,7,-1,-1,-1,-1,,8000,0,1,2,FEW 20   BKN 45,1,5,1,2,1022,RJOI 182255Z 30007KT 8000 BR FEW020 BKN045 05/02 A3018 RMK     SLP220 T005000022=,BR
20180119_000000.004,0,RJOI,,,,0,20180118230000,-1,-1,-1,-1,310,-1,6,-1,-1,-1,-1,,6000,0,1,1,FEW 12,1,6,1,2,1022,RJOI 182355Z 31006KT 6000 BR FEW012 06/02 A3018 RMK SLP219     T00610022 10061 20039 50007=,BR
20180119_010000.003,0,RJOI,,,,0,20180119000000,-1,-1,-1,-1,340,-1,7,-1,-1,-1,-1,,6000,0,1,1,FEW 15,1,8,1,4,1022,RJOI 190055Z 34007KT 6000 BR FEW015 08/04 A3018 RMK SLP220     T00830039=,BR
20180119_020000.002,0,RJOI,,,,0,20180119010000,-1,-1,-1,-1,350,-1,4,-1,-1,-1,-1,,8000,0,1,1,FEW 15,1,11,1,4,-1,RJOI 190155Z 35004KT 8000 BR FEW015 11/04 RMK SLP215 T01060039=,BR
20180119_030000.002,0,RJOI,,,,0,20180119020000,-1,-1,-1,-1,50,-1,7,-1,-1,-1,-1,,8000,0,1,2,FEW 15   SCT 35,1,11,1,4,1021,RJOI 190255Z 05007KT 8000 BR FEW015 SCT035 11/04 A3015 RMK     SLP209 T01170039 50007=,BR
20180119_030000.002,1,RJOI,,,,0,20180119010000,-1,-1,-1,-1,350,-1,4,-1,-1,-1,-1,,8000,0,1,1,FEW 15,1,11,1,4,1022,RJOI 190155Z 35004KT 8000 BR FEW015 11/04 A3017 RMK SLP215     T01060039=,BR
20180119_040000.002,0,RJOI,,,,0,20180119030000,-1,-1,-1,-1,90,-1,4,-1,-1,-1,-1,,9000,0,1,2,FEW 20   SCT 35,1,12,1,3,1020,RJOI 190355Z 09004KT 9000 BR FEW020 SCT035 12/03 A3011 RMK     SLP195 T01170033=,BR
20180119_050000.001,0,RJOI,,,,0,20180119040000,-1,-1,-1,-1,150,-1,6,-1,-1,-1,-1,,8000,0,1,2,FEW 20   SCT 35,1,12,1,2,1019,RJOI 190455Z 15006KT 8000 HZ FEW020 SCT035 12/02 A3008 RMK     SLP184 T01170022=,HZ
20180119_060000.002,0,RJOI,,,,0,20180119050000,-1,-1,-1,-1,250,-1,4,-1,-1,-1,-1,,8000,0,1,2,FEW 30   BKN 50,1,11,1,3,1018,RJOI 190555Z 25004KT 8000 HZ FEW030 BKN050 11/03 A3007 RMK     SLP183 T01110033 10122 20061 57027=,HZ
20180119_070000.002,0,RJOI,,,,0,20180119060000,-1,-1,-1,-1,180,-1,6,-1,-1,-1,-1,,8000,0,1,2,SCT 30   BKN 50,1,11,1,3,1019,RJOI 190655Z 18006KT 8000 HZ SCT030 BKN050 11/03 A3008 RMK     SLP186 T01110033=,HZ
20180119_080000.002,0,RJOI,,,,0,20180119070000,-1,-1,-1,-1,180,-1,8,-1,-1,-1,-1,,9999,0,0,2,SCT 30   BKN 55,1,11,1,4,1019,RJOI 190755Z 18008KT 9999 SCT030 BKN055 11/04 A3008 RMK SLP184     T01060039=,
20180119_090000.001,0,RJOI,,,,0,20180119080000,-1,-1,-1,-1,240,-1,4,-1,-1,-1,-1,,8000,0,1,2,SCT 30   BKN 55,1,10,1,3,1019,RJOI 190855Z 24004KT 8000 HZ SCT030 BKN055 10/03 A3009 RMK     SLP189 T01000028=,HZ
20180119_100000.002,0,RJOI,,,,0,20180119090000,-1,-1,-1,-1,310,-1,3,-1,-1,-1,-1,,8000,0,1,2,SCT 30   BKN 55,1,9,1,3,1019,RJOI 190955Z 31003KT 8000 HZ SCT030 BKN055 09/03 A3009 RMK     SLP188 T00940028=,HZ
20180119_110000.002,0,RJOI,,,,0,20180119100000,-1,-1,-1,-1,310,-1,5,-1,-1,-1,-1,,8000,0,1,2,FEW 25   SCT 40,1,8,1,3,1019,RJOI 191055Z 31005KT 8000 HZ FEW025 SCT040 08/03 A3009 RMK     SLP188 T00780033=,HZ
20180119_120000.001,0,RJOI,,,,0,20180119110000,-1,-1,-1,-1,300,-1,4,-1,-1,-1,-1,,8000,0,1,2,FEW 25   FEW 40,1,7,1,3,1019,RJOI 191155Z 30004KT 8000 HZ FEW025 FEW040 07/03 A3009 RMK     SLP188 T00720033 10117 20072 54000=,HZ
20180119_130000.002,0,RJOI,,,,0,20180119120000,-1,-1,-1,-1,300,-1,6,-1,-1,-1,-1,,8000,0,1,2,FEW 25   SCT 45,1,7,1,3,1019,RJOI 191255Z 30006KT 8000 HZ FEW025 SCT045 07/03 A3009 RMK     SLP190 T00720033=,HZ
20180119_140000.002,0,RJOI,,,,0,20180119130000,-1,-1,-1,-1,310,-1,7,-1,-1,-1,-1,,8000,0,1,2,FEW 25   SCT 45,1,7,1,3,1019,RJOI 191355Z 31007KT 8000 HZ FEW025 SCT045 07/03 A3010 RMK     SLP193 T00670028=,HZ
20180119_150000.004,1,RJOI,,,,0,20180119140000,-1,-1,-1,-1,290,-1,7,-1,-1,-1,-1,,8000,0,1,2,FEW 25   SCT 45,1,6,1,3,1019,RJOI 191455Z 29007KT 8000 HZ FEW025 SCT045 06/03 A3010 RMK     SLP194 T00610028 401220039 51003=,HZ
20180119_160000.004,1,RJOI,,,,0,20180119150000,-1,-1,-1,-1,320,-1,6,-1,-1,-1,-1,,8000,0,1,2,FEW 25   SCT 45,1,6,1,3,1019,RJOI 191555Z 32006KT 8000 HZ FEW025 SCT045 06/03 A3010 RMK     SLP192 T00560028=,HZ
20180119_170000.004,1,RJOI,,,,0,20180119160000,-1,-1,-1,-1,290,-1,7,-1,-1,-1,-1,,8000,0,1,2,FEW 25   SCT 45,1,6,1,2,1019,RJOI 191655Z 29007KT 8000 HZ FEW025 SCT045 06/02 A3010 RMK     SLP193 T00560022=,HZ
20180119_180000.001,0,RJOI,,,,0,20180119170000,-1,-1,-1,-1,310,-1,4,-1,-1,-1,-1,,8000,0,1,2,FEW 20   SCT 40,1,5,1,2,1019,RJOI 191755Z 31004KT 8000 HZ FEW020 SCT040 05/02 A3010 RMK     SLP193 T00500022 10072 20050 51003=,HZ
20180119_190000.001,0,RJOI,,,,0,20180119180000,-1,-1,-1,-1,310,-1,8,-1,-1,-1,-1,,8000,0,1,2,FEW 20   SCT 40,1,5,1,2,1020,RJOI 191855Z 31008KT 8000 HZ FEW020 SCT040 05/02 A3011 RMK     SLP194 T00500022=,HZ
20180119_200000.005,1,RJOI,,,,0,20180119190000,-1,-1,-1,-1,320,-1,6,-1,-1,-1,-1,,8000,0,1,2,FEW 20   SCT 45,1,4,1,2,1019,RJOI 191955Z 32006KT 8000 HZ FEW020 SCT045 04/02 A3010 RMK     SLP191 T00440017=,HZ
20180119_210000.002,0,RJOI,,,,0,20180119200000,-1,-1,-1,-1,330,-1,4,-1,-1,-1,-1,,8000,0,1,2,FEW 20   FEW 40,1,5,1,2,1019,RJOI 192055Z 33004KT 8000 HZ FEW020 FEW040 05/02 A3010 RMK     SLP193 T00500017 55000=,HZ
20180119_220000.004,1,RJOI,,,,0,20180119210000,-1,-1,-1,-1,320,-1,7,-1,-1,-1,-1,,8000,0,1,2,FEW 20   FEW 40,1,3,1,2,1020,RJOI 192155Z 32007KT 8000 BR FEW020 FEW040 03/02 A3012 RMK     SLP198 T00330017=,BR
20180119_230000.002,0,RJOI,,,,0,20180119220000,-1,-1,-1,-1,330,-1,4,-1,-1,-1,-1,,8000,0,1,1,FEW 40,1,4,1,2,1020,RJOI 192255Z 33004KT 8000 BR FEW040 04/02 A3012 RMK SLP200     T00390017=,BR
20180120_000000.004,0,RJOI,,,,0,20180119230000,-1,-1,-1,-1,330,-1,4,-1,-1,-1,-1,,8000,0,1,1,FEW 40,1,5,1,2,1020,RJOI 192355Z 33004KT 8000 BR FEW040 05/02 A3013 RMK SLP202     T00500017 10056 20033 51007=,BR
20180120_010000.002,0,RJOI,,,,0,20180120000000,-1,-1,-1,-1,0,-1,0,-1,-1,-1,-1,,8000,0,1,2,FEW 40   SCT 230,1,8,1,2,1020,RJOI 200055Z 00000KT 8000 HZ FEW040 SCT230 08/02 A3013 RMK     SLP203 T00830017=,HZ
20180120_020000.003,0,RJOI,,,,0,20180120010000,-1,-1,-1,-1,999,-1,3,-1,-1,-1,-1,,9000,0,1,1,SCT 230,1,10,1,3,1021,RJOI 200155Z VRB03KT 9000 HZ SCT230 10/03 A3014 RMK SLP206     T01000033=,HZ
20180120_030000.002,0,RJOI,,,,0,20180120020000,-1,-1,-1,-1,120,-1,6,-1,-1,-1,-1,,9999,0,0,2,FEW 25   SCT 230,1,11,1,4,1020,RJOI 200255Z 12006KT 9999 FEW025 SCT230 11/04 A3013 RMK SLP204     T01060039=,
20180120_040000.002,0,RJOI,,,,0,20180120030000,-1,-1,-1,-1,230,-1,5,-1,-1,-1,-1,,9999,0,0,1,FEW 25,1,12,1,1,1019,RJOI 200355Z 23005KT 9999 FEW025 12/01 A3009 RMK SLP190     T01220011=,
20180120_050000.002,0,RJOI,,,,0,20180120040000,-1,-1,-1,-1,110,-1,8,-1,-1,-1,-1,,9999,0,0,1,FEW 25,1,12,1,3,1018,RJOI 200455Z 11008KT 9999 FEW025 12/03 A3006 RMK SLP180     T01220028=,
20180120_060000.002,0,RJOI,,,,0,20180120050000,-1,-1,-1,-1,180,-1,6,-1,-1,-1,-1,,9999,0,0,2,FEW 25   SCT 230,1,12,1,1,1018,RJOI 200555Z 18006KT 9999 FEW025 SCT230 12/01 A3007 RMK SLP181     T01170011 10128 20056 56024=,
20180120_070000.002,0,RJOI,,,,0,20180120060000,-1,-1,-1,-1,180,-1,5,-1,-1,-1,-1,,9999,0,0,2,FEW 30   BKN 230,1,11,1,1,1019,RJOI 200655Z 18005KT 9999 FEW030 BKN230 11/01 A3008 RMK SLP186     T01110011=,
20180120_080000.002,0,RJOI,,,,0,20180120070000,-1,-1,-1,-1,160,-1,7,-1,-1,-1,-1,,9999,0,0,3,FEW 25   SCT 180   BKN 230,1,11,1,3,1019,RJOI 200755Z 16007KT 9999 FEW025 SCT180 BKN230 11/03 A3009 RMK     SLP188 T01060028=,
20180120_090000.002,0,RJOI,,,,0,20180120080000,-1,-1,-1,-1,200,-1,4,-1,-1,-1,-1,,9999,0,0,3,FEW 25   SCT 180   BKN 230,1,10,1,4,1019,RJOI 200855Z 20004KT 9999 FEW025 SCT180 BKN230 10/04 A3009 RMK     SLP190 T01000039 51010=,
20180120_100000.002,0,RJOI,,,,0,20180120090000,-1,-1,-1,-1,300,-1,4,-1,-1,-1,-1,,9999,0,0,2,FEW 25   BKN 230,1,8,1,3,1019,RJOI 200955Z 30004KT 9999 FEW025 BKN230 08/03 A3010 RMK SLP193     T00830033=,
20180120_110000.002,0,RJOI,,,,0,20180120100000,-1,-1,-1,-1,290,-1,6,-1,-1,-1,-1,,9999,0,0,2,FEW 25   BKN 210,1,8,1,2,1020,RJOI 201055Z 29006KT 9999 FEW025 BKN210 08/02 A3012 RMK SLP198     T00780022=,
20180120_120000.002,0,RJOI,,,,0,20180120110000,-1,-1,-1,-1,300,-1,7,-1,-1,-1,-1,,9999,0,0,2,FEW 25   BKN 210,1,7,1,1,1020,RJOI 201155Z 30007KT 9999 FEW025 BKN210 07/01 A3013 RMK SLP202     T00720011 10122 20072 52010=,
20180120_130000.002,0,RJOI,,,,0,20180120120000,-1,-1,-1,-1,300,-1,6,-1,-1,-1,-1,,9999,0,0,2,FEW 25   SCT 210,1,7,1,1,1021,RJOI 201255Z 30006KT 9999 FEW025 SCT210 07/01 A3014 RMK SLP205     T00670011=,
20180120_140000.002,0,RJOI,,,,0,20180120130000,-1,-1,-1,-1,300,-1,8,-1,-1,-1,-1,,9999,0,0,2,FEW 25   SCT 210,1,6,1,1,1021,RJOI 201355Z 30008KT 9999 FEW025 SCT210 06/01 A3014 RMK SLP206     T00610006=,
20180120_150000.002,0,RJOI,,,,0,20180120140000,-1,-1,-1,-1,300,-1,7,-1,-1,-1,-1,,9999,0,0,2,FEW 25   SCT 210,1,6,1,1,1020,RJOI 201455Z 30007KT 9999 FEW025 SCT210 06/01 A3013 RMK SLP203     T00560006 401280033 50000=,
20180120_160000.002,0,RJOI,,,,0,20180120150000,-1,-1,-1,-1,310,-1,7,-1,-1,-1,-1,,9999,0,0,1,BKN 210,1,4,1,1,1020,RJOI 201555Z 31007KT 9999 BKN210 04/01 A3013 RMK SLP202     T00440006=,
20180120_170000.004,1,RJOI,,,,0,20180120160000,-1,-1,-1,-1,300,-1,6,-1,-1,-1,-1,,9999,0,0,1,BKN 210,1,4,1,1,1020,RJOI 201655Z 30006KT 9999 BKN210 04/01 A3013 RMK SLP201     T00390006=,
20180120_180000.002,0,RJOI,,,,0,20180120170000,-1,-1,-1,-1,300,-1,6,-1,-1,-1,-1,,9999,0,0,1,SCT 210,1,4,1,0,1021,RJOI 201755Z 30006KT 9999 SCT210 04/00 A3014 RMK SLP204     T00390000 10072 20033 53007=,
20180120_190000.001,0,RJOI,,,,0,20180120180000,-1,-1,-1,-1,310,-1,6,-1,-1,-1,-1,,9999,0,0,1,SCT 210,1,3,-1,1,1020,RJOI 201855Z 31006KT 9999 SCT210 03/M01 A3013 RMK SLP201     T00331006=,
20180120_200000.002,0,RJOI,,,,0,20180120190000,-1,-1,-1,-1,310,-1,5,-1,-1,-1,-1,,9999,0,0,1,SCT 210,1,3,-1,1,1020,RJOI 201955Z 31005KT 9999 SCT210 03/M01 A3013 RMK SLP201     T00281006=,
20180120_210000.002,0,RJOI,,,,0,20180120200000,-1,-1,-1,-1,310,-1,6,-1,-1,-1,-1,,9999,0,0,1,FEW 30,1,3,-1,1,1021,RJOI 202055Z 31006KT 9999 FEW030 03/M01 A3014 RMK SLP206     T00331006 55000=,
20180120_220000.002,0,RJOI,,,,0,20180120210000,-1,-1,-1,-1,300,-1,6,-1,-1,-1,-1,,9999,0,0,1,FEW 30,1,3,-1,1,1021,RJOI 202155Z 30006KT 9999 FEW030 03/M01 A3016 RMK SLP211     T00281006=,
20180120_230000.004,1,RJOI,,,,0,20180120220000,-1,-1,-1,-1,310,-1,5,-1,-1,-1,-1,,9999,0,0,3,FEW 30   FEW 120   BKN 210,1,3,-1,1,1022,RJOI 202255Z 31005KT 9999 FEW030 FEW120 BKN210 03/M01 A3017 RMK     SLP215 T00281006=,
20180121_000000.004,1,RJOI,,,,0,20180120230000,-1,-1,-1,-1,320,-1,5,-1,-1,-1,-1,,9999,0,0,2,FEW 10   BKN 210,1,4,1,0,1022,RJOI 202355Z 32005KT 9999 FEW010 BKN210 04/00 A3018 RMK SLP220     T00440000 10044 20022 53014=,
20180121_010000.004,0,RJOI,,,,0,20180121000000,-1,-1,-1,-1,0,-1,0,-1,-1,-1,-1,,9999,0,0,3,FEW 10   FEW 40   BKN 210,1,8,1,1,1022,RJOI 210055Z 00000KT 9999 FEW010 FEW040 BKN210 08/01 A3018 RMK     SLP221 T00780006=,
20180121_020000.002,0,RJOI,,,,0,20180121010000,-1,-1,-1,-1,30,-1,5,-1,-1,-1,-1,,9999,0,0,3,FEW 8   FEW 60   BKN 210,1,9,1,2,1022,RJOI 210155Z 03005KT 9999 FEW008 FEW060 BKN210 09/02 A3017 RMK     SLP217 T00940017=,
20180121_030000.004,1,RJOI,,,,0,20180121020000,-1,-1,-1,-1,50,-1,6,-1,-1,-1,-1,,9999,0,0,3,FEW 10   BKN 60   BKN 210,1,10,1,2,1021,RJOI 210255Z 05006KT 9999 FEW010 BKN060 BKN210 10/02 A3016 RMK     SLP214 T01000017 58007=,
20180121_040000.003,0,RJOI,,,,0,20180121030000,-1,-1,-1,-1,100,-1,8,-1,-1,-1,-1,,9999,0,0,3,FEW 40   SCT 60   BKN 210,1,11,1,1,1020,RJOI 210355Z 10008KT 9999 FEW040 SCT060 BKN210 11/01 A3013 RMK     SLP203 T01110006=,
20180121_050000.002,0,RJOI,,,,0,20180121040000,-1,-1,-1,-1,70,-1,5,-1,-1,-1,-1,,9999,0,0,3,FEW 40   BKN 60   BKN 210,1,11,-1,1,1020,RJOI 210455Z 07005KT 9999 FEW040 BKN060 BKN210 11/M01 A3013 RMK     SLP202 T01061006=,
20180121_060000.004,1,RJOI,,,,0,20180121050000,-1,-1,-1,-1,50,-1,11,-1,-1,-1,-1,,9999,0,0,3,FEW 40   SCT 60   BKN 210,1,11,1,1,1020,RJOI 210555Z 05011KT 9999 FEW040 SCT060 BKN210 11/01 A3012 RMK     SLP199 T01110006 10117 20044 56014=,
20180121_070000.004,1,RJOI,,,,0,20180121060000,-1,-1,-1,-1,50,-1,9,-1,-1,-1,-1,,9999,0,0,3,FEW 40   SCT 60   BKN 210,1,11,1,0,1020,RJOI 210655Z 05009KT 9999 FEW040 SCT060 BKN210 11/00 A3011 RMK     SLP196 T01060000=,
20180121_080000.004,1,RJOI,,,,0,20180121070000,-1,-1,-1,-1,50,-1,7,-1,-1,-1,-1,,9999,0,0,3,FEW 40   SCT 60   BKN 210,1,11,-1,2,1020,RJOI 210755Z 05007KT 9999 FEW040 SCT060 BKN210 11/M02 A3012 RMK     SLP199 T01061017=,
20180121_090000.002,0,RJOI,,,,0,20180121080000,-1,-1,-1,-1,10,-1,11,-1,-1,-1,-1,,9999,0,0,3,FEW 30   BKN 60   BKN 210,1,9,-1,3,1021,RJOI 210855Z 01011KT 9999 FEW030 BKN060 BKN210 09/M03 A3014 RMK     SLP207 T00941033 53007=,
20180121_100000.002,0,RJOI,,,,0,20180121090000,-1,-1,-1,-1,20,-1,14,-1,-1,-1,-1,,9999,0,0,3,FEW 30   SCT 60   BKN 210,1,9,-1,3,1021,RJOI 210955Z 02014KT 9999 FEW030 SCT060 BKN210 09/M03 A3015 RMK     SLP210 T00891028=,
20180121_110000.002,0,RJOI,,,,0,20180121100000,-1,-1,-1,-1,20,-1,15,-1,-1,-1,-1,,9999,0,0,2,FEW 45   BKN 230,1,8,-1,2,1021,RJOI 211055Z 02015KT 9999 FEW045 BKN230 08/M02 A3015 RMK SLP209     T00831022=,
20180121_120000.002,0,RJOI,,,,0,20180121110000,-1,-1,-1,-1,10,-1,15,-1,-1,-1,-1,,9999,0,0,2,FEW 20   BKN 230,1,8,-1,2,1021,RJOI 211155Z 01015KT 9999 FEW020 BKN230 08/M02 A3015 RMK SLP208     T00781017 10111 20078 51003=,
20180121_130000.001,0,RJOI,,,,0,20180121120000,-1,-1,-1,-1,20,-1,11,-1,-1,-1,-1,,9999,0,0,2,FEW 20   BKN 230,1,7,-1,1,1021,RJOI 211255Z 02011KT 9999 FEW020 BKN230 07/M01 A3015 RMK SLP209     T00721011=,
20180121_140000.002,0,RJOI,,,,0,20180121130000,-1,-1,-1,-1,30,-1,12,-1,-1,-1,-1,,9999,0,0,2,FEW 45   OVC 230,1,7,-1,1,1021,RJOI 211355Z 03012KT 9999 FEW045 OVC230 07/M01 A3014 RMK SLP205     T00721011=,
20180121_150000.002,0,RJOI,,,,0,20180121140000,-1,-1,-1,-1,30,-1,13,-1,-1,-1,-1,,9999,0,0,3,FEW 45   SCT 150   OVC 230,1,7,-1,1,1020,RJOI 211455Z 03013KT 9999 FEW045 SCT150 OVC230 07/M01 A3011 RMK     SLP195 T00721006 401170022 58017=,
20180121_160000.002,0,RJOI,,,,0,20180121150000,-1,-1,-1,-1,360,-1,8,-1,-1,-1,-1,,9999,0,0,3,FEW 45   SCT 150   OVC 230,1,7,-1,1,1019,RJOI 211555Z 36008KT 9999 FEW045 SCT150 OVC230 07/M01 A3010 RMK     SLP192 T00671011=,
20180121_170000.002,0,RJOI,,,,0,20180121160000,-1,-1,-1,-1,360,-1,10,-1,-1,-1,-1,,9999,0,0,3,FEW 45   BKN 150   OVC 230,1,7,-1,1,1019,RJOI 211655Z 36010KT 9999 FEW045 BKN150 OVC230 07/M01 A3008 RMK     SLP186 T00671011=,
20180121_180000.002,0,RJOI,,,,0,20180121170000,-1,-1,-1,-1,0,-1,0,-1,-1,-1,-1,,9999,0,0,3,FEW 45   BKN 150   OVC 230,1,6,-1,2,1018,RJOI 211755Z 00000KT 9999 FEW045 BKN150 OVC230 06/M02 A3007 RMK     SLP181 T00561017 10078 20056 58014=,
20180121_190000.002,0,RJOI,,,,0,20180121180000,-1,-1,-1,-1,20,-1,14,-1,-1,-1,-1,,9999,0,0,2,BKN 150   OVC 230,1,7,-1,2,1017,RJOI 211855Z 02014KT 9999 BKN150 OVC230 07/M02 A3004 RMK SLP174     T00721017=,
20180121_200000.002,0,RJOI,,,,0,20180121190000,-1,-1,-1,-1,20,-1,12,-1,-1,-1,-1,,9999,0,0,3,FEW 45   BKN 100   OVC 200,1,7,-1,1,1017,RJOI 211955Z 02012KT 9999 FEW045 BKN100 OVC200 07/M01 A3003 RMK     SLP170 T00671011=,
20180121_210000.002,0,RJOI,,,,0,20180121200000,-1,-1,-1,-1,30,-1,13,-1,-1,-1,-1,,9999,0,0,3,FEW 35   BKN 80   OVC 120,1,7,-1,1,1016,RJOI 212055Z 03013KT 9999 FEW035 BKN080 OVC120 07/M01 A3001 RMK     SLP160 T00721006 58020=,
20180121_220000.002,0,RJOI,,,,0,20180121210000,-1,-1,-1,-1,20,-1,9,-1,-1,-1,-1,,9999,0,1,3,SCT 30   BKN 45   OVC 80,1,7,-1,1,1017,RJOI 212155Z 02009KT 9999 -RA SCT030 BKN045 OVC080 07/M01 A3002     RMK RAB45 SLP164 P0000 T00721011=,- RA
20180121_230000.002,0,RJOI,,,,0,20180121220000,-1,-1,-1,-1,50,-1,10,-1,-1,-1,-1,,8000,0,1,3,SCT 15   BKN 30   OVC 40,1,6,1,2,1017,RJOI 212255Z 05010KT 8000 -RA SCT015 BKN030 OVC040 06/02 A3002     RMK SLP166 P0002 T00560017=,- RA
20180122_000000.004,1,RJOI,,,,0,20180121230000,-1,-1,-1,-1,30,-1,11,-1,-1,-1,-1,,6000,0,2,3,SCT 15   BKN 25   OVC 35,1,4,1,2,1017,RJOI 212355Z 03011KT 6000 -RA BR SCT015 BKN025 OVC035 04/02     A3004 RMK SLP171 P0010 60012 T00390022 10072 20039 52010=,- RA; BR
20180122_010000.004,0,RJOI,,,,0,20180122000000,-1,-1,-1,-1,40,-1,8,-1,-1,-1,-1,,6000,0,2,3,FEW 10   BKN 15   OVC 35,1,3,1,2,1017,RJOI 220055Z 04008KT 6000 RA BR FEW010 BKN015 OVC035 03/02     A3003 RMK SLP168 P0018 T00330017=,RA; BR
20180122_020000.002,0,RJOI,,,,0,20180122010000,-1,-1,-1,-1,350,-1,7,-1,-1,-1,-1,,4000,0,2,3,SCT 8   BKN 10   OVC 30,1,2,1,1,1016,RJOI 220155Z 35007KT 4000 -RASN BR SCT008 BKN010 OVC030 02/01     A3000 RMK SNB30 SLP159 P0010 T00170011=,- RA SN; BR
20180122_030000.002,0,RJOI,,,,0,20180122020000,-1,-1,-1,-1,350,-1,8,-1,-1,-1,-1,,4000,0,2,3,SCT 8   BKN 10   OVC 30,1,2,1,1,1014,RJOI 220255Z 35008KT 4000 SHRASN BR SCT008 BKN010 OVC030 02/01     A2995 RMK SLP142 P0011 60039 T00170011 58027=,RA SN SH; BR
20180122_040000.002,0,RJOI,,,,0,20180122030000,-1,-1,-1,-1,350,-1,8,-1,-1,-1,-1,,6000,0,2,3,SCT 8   BKN 10   OVC 30,1,2,1,2,1013,RJOI 220355Z 35008KT 6000 -SHRASN BR SCT008 BKN010 OVC030 02/02     A2991 RMK SLP128 P0014 T00220017=,- RA SN SH; BR
20180122_050000.002,0,RJOI,,,,0,20180122040000,-1,-1,-1,-1,310,-1,3,-1,-1,-1,-1,,8000,0,2,3,SCT 10   BKN 25   OVC 40,1,3,1,2,1013,RJOI 220455Z 31003KT 8000 -SHRA BR SCT010 BKN025 OVC040 03/02     A2990 RMK SNE06 SLP124 P0007 T00330022=,- RA SH; BR
20180122_060000.003,0,RJOI,,,,0,20180122050000,-1,-1,-1,-1,350,-1,7,-1,-1,-1,-1,,9999,0,0,3,FEW 10   BKN 25   OVC 40,1,4,1,3,1013,RJOI 220555Z 35007KT 9999 FEW010 BKN025 OVC040 04/03 A2990 RMK     SHRAE38 SLP125 P0002 60062 T00440028 10044 20017 56017=,
20180122_070000.004,1,RJOI,,,,0,20180122060000,-1,-1,-1,-1,20,-1,8,-1,-1,-1,-1,,9999,0,0,3,FEW 10   SCT 25   SCT 100,1,6,1,3,1013,RJOI 220655Z 02008KT 9999 FEW010 SCT025 SCT100 06/03 A2991 RMK     SLP129 T00560028=,
20180122_080000.003,0,RJOI,,,,0,20180122070000,-1,-1,-1,-1,280,-1,5,-1,-1,-1,-1,,9999,0,0,3,FEW 15   BKN 30   BKN 45,1,5,1,3,1013,RJOI 220755Z 28005KT 9999 FEW015 BKN030 BKN045 05/03 A2992 RMK     SLP133 T00500028=,
20180122_090000.002,0,RJOI,,,,0,20180122080000,-1,-1,-1,-1,0,-1,0,-1,-1,-1,-1,,9999,0,0,3,FEW 15   FEW 25   BKN 45,1,4,1,2,1014,RJOI 220855Z 00000KT 9999 FEW015 FEW025 BKN045 04/02 A2995 RMK     SLP140 T00390022 53014=,
20180122_100000.002,0,RJOI,,,,0,20180122090000,-1,-1,-1,-1,280,-1,4,-1,-1,-1,-1,,9999,0,0,3,FEW 15   FEW 25   SCT 45,1,3,1,2,1014,RJOI 220955Z 28004KT 9999 FEW015 FEW025 SCT045 03/02 A2995 RMK     SLP141 T00280017=,
20180122_110000.003,0,RJOI,,,,0,20180122100000,-1,-1,-1,-1,300,-1,6,-1,-1,-1,-1,,9999,0,0,2,FEW 15   FEW 40,1,2,1,2,1014,RJOI 221055Z 30006KT 9999 FEW015 FEW040 02/02 A2995 RMK SLP140     T00220017=,
20180122_120000.002,0,RJOI,,,,0,20180122110000,-1,-1,-1,-1,290,-1,6,-1,-1,-1,-1,,9999,0,0,2,FEW 15   FEW 40,1,3,1,2,1014,RJOI 221155Z 29006KT 9999 FEW015 FEW040 03/02 A2994 RMK SLP140     70074 T00280017 10056 20022 50000=,
20180122_130000.001,0,RJOI,,,,0,20180122120000,-1,-1,-1,-1,999,-1,3,-1,-1,-1,-1,,9999,0,0,1,FEW 20,1,2,1,2,1015,RJOI 221255Z VRB03KT 9999 FEW020 02/02 A2996 RMK SLP143     T00220017=,
20180122_140000.006,1,RJOI,,,,0,20180122130000,-1,-1,-1,-1,330,-1,5,-1,-1,-1,-1,,9999,0,0,2,FEW 20   FEW 40,1,2,1,1,1014,RJOI 221355Z 33005KT 9999 FEW020 FEW040 02/01 A2994 RMK SLP137     T00220011=,
20180122_150000.002,0,RJOI,,,,0,20180122140000,-1,-1,-1,-1,360,-1,4,-1,-1,-1,-1,,9999,0,0,2,FEW 20   FEW 40,1,3,1,2,1013,RJOI 221455Z 36004KT 9999 FEW020 FEW040 03/02 A2992 RMK SLP133     T00280017 400720017 58007=,
20180122_160000.004,1,RJOI,,,,0,20180122150000,-1,-1,-1,-1,0,-1,0,-1,-1,-1,-1,,9999,0,0,3,FEW 30   SCT 50   BKN 65,1,3,1,2,1013,RJOI 221555Z 00000KT 9999 FEW030 SCT050 BKN065 03/02 A2991 RMK     SLP127 T00330022=,
20180122_170000.002,0,RJOI,,,,0,20180122160000,-1,-1,-1,-1,320,-1,3,-1,-1,-1,-1,,9999,0,0,3,FEW 30   BKN 55   BKN 75,1,5,1,3,1012,RJOI 221655Z 32003KT 9999 FEW030 BKN055 BKN075 05/03 A2989 RMK     SLP122 T00500033=,
20180122_180000.005,1,RJOI,,,,0,20180122170000,-1,-1,-1,-1,0,-1,0,-1,-1,-1,-1,,9999,0,1,3,FEW 20   BKN 35   OVC 45,1,4,1,3,1013,RJOI 221755Z 00000KT 9999 -SHRA FEW020 BKN035 OVC045 04/03     A2990 RMK SHRAB44 SLP123 P0000 60000 T00440033 10050 20022           55007=,- RA SH
20180122_190000.004,0,RJOI,,,,0,20180122180000,-1,-1,-1,-1,260,-1,8,-1,-1,-1,-1,,9999,0,0,3,FEW 20   BKN 35   BKN 70,1,7,1,4,1013,RJOI 221855Z 26008KT 9999 FEW020 BKN035 BKN070 07/04 A2990 RMK     SHRAE45 SLP124 P0001 T00720039=,
20180122_200000.002,0,RJOI,,,,0,20180122190000,-1,-1,-1,-1,230,-1,9,-1,15,-1,-1,,9999,0,1,3,FEW 20   BKN 50   BKN 70,1,7,1,4,1012,RJOI 221955Z 23009G15KT 9999 -SHRA FEW020 BKN050 BKN070 07/04     A2989 RMK SHRAB21 SLP120 P0000 T00720044=,- RA SH
20180122_210000.006,1,RJOI,,,,0,20180122200000,-1,-1,-1,-1,260,-1,11,-1,20,-1,-1,,9000,0,1,2,FEW 20   SCT 40,1,8,1,2,1013,RJOI 222055Z 26011G20KT 9000 HZ FEW020 SCT040 08/02 A2991 RMK     SHRAE1959 SLP126 WR P0000 60001 T00780022 55000=,HZ
20180122_220000.004,1,RJOI,,,,0,20180122210000,-1,-1,-1,-1,250,-1,11,-1,-1,-1,-1,,6000,0,1,1,FEW 40,1,7,1,1,1014,RJOI 222155Z 25011KT 6000 HZ FEW040 07/01 A2993 RMK SLP134     T00720006=,HZ
20180122_230000.003,0,RJOI,,,,0,20180122220000,-1,-1,-1,-1,230,-1,12,-1,21,-1,-1,,-1,0,1,1,FEW 40,1,7,1,1,1014,RJOI 222255Z 23012G21KT 5SM HZ FEW040 07/01 A2994 RMK SLP139     T00720006=,HZ
20180122_230000.005,1,RJOI,,,,0,20180122220000,-1,-1,-1,-1,230,-1,12,-1,21,-1,-1,,8000,0,1,1,FEW 40,1,7,1,1,1014,RJOI 222255Z 23012G21KT 8000 HZ FEW040 07/01 A2994 RMK     SLP139 T00720006=,HZ
20180123_000000.004,0,RJOI,,,,0,20180122230000,-1,-1,-1,-1,240,-1,12,-1,24,-1,-1,,8000,0,1,1,FEW 40,1,7,1,1,1015,RJOI 222355Z 24012G24KT 8000 HZ FEW040 07/01 A2997 RMK SLP149     60000 T00720006 10078 20044 53020=,HZ
20180123_010000.002,0,RJOI,,,,0,20180123000000,-1,-1,-1,-1,250,-1,14,-1,18,-1,-1,,9999,0,0,1,FEW 40,1,8,-1,1,1015,RJOI 230055Z 25014G18KT 9999 FEW040 08/M01 A2998 RMK SLP153     T00781011=,
20180123_020000.002,0,RJOI,,,,0,20180123010000,-1,-1,-1,-1,260,-1,15,-1,20,-1,-1,,9999,0,0,1,BKN 40,1,8,-1,1,1016,RJOI 230155Z 26015G20KT 9999 BKN040 08/M01 A3000 RMK SLP157     T00781006=,
20180123_030000.005,1,RJOI,,,,0,20180123020000,-1,-1,-1,-1,260,-1,12,-1,21,-1,-1,,9999,0,1,2,SCT 15   BKN 40,1,7,1,1,1016,RJOI 230255Z 26012G21KT 9999 -RA SCT015 BKN040 07/01 A3001 RMK     RAB10 SLP160 P0000 60000 T00670011 51014=,- RA
20180123_040000.005,0,RJOI,,,,0,20180123030000,-1,-1,-1,-1,270,-1,13,-1,22,-1,-1,,9999,0,0,3,FEW 15   SCT 40   SCT 210,1,7,-1,2,1015,RJOI 230355Z 27013G22KT 9999 FEW015 SCT040 SCT210 07/M02 A2998     RMK PK WND 29026/0326 RAE09 SLP151 P0000 T00721017=,
20180123_050000.002,0,RJOI,,,,0,20180123040000,-1,-1,-1,-1,280,-1,21,-1,29,-1,-1,,9999,0,0,2,SCT 40   SCT 210,1,8,-1,7,1015,RJOI 230455Z 28021G29KT 9999 SCT040 SCT210 08/M07 A2998 RMK PK     WND 29031/0409 SLP153 T00781067=,
20180123_060000.003,0,RJOI,,,,0,20180123050000,-1,-1,-1,-1,270,-1,14,-1,22,-1,-1,,9999,0,0,2,FEW 40   SCT 210,1,7,-1,7,1015,RJOI 230555Z 27014G22KT 9999 FEW040 SCT210 07/M07 A2998 RMK PK     WND 27030/0504 SLP153 60000 T00671072 10083 20061 56010=,
20180123_070000.005,0,RJOI,,,,0,20180123060000,-1,-1,-1,-1,290,-1,20,-1,28,-1,-1,,9999,0,0,2,FEW 40   SCT 210,1,6,-1,11,1016,RJOI 230655Z 29020G28KT 9999 FEW040 SCT210 06/M11 A2999 RMK PK     WND 28030/0635 SLP156 T00611111=,
20180123_080000.002,0,RJOI,,,,0,20180123070000,-1,-1,-1,-1,280,-1,15,-1,27,-1,-1,,9999,0,0,2,FEW 40   SCT 210,1,4,-1,11,1016,RJOI 230755Z 28015G27KT 9999 FEW040 SCT210 04/M11 A3001 RMK PK     WND 29032/0738 SLP163 T00441111=,
20180123_090000.002,0,RJOI,,,,0,20180123080000,-1,-1,-1,-1,280,-1,12,-1,-1,-1,-1,,9999,0,0,2,FEW 40   SCT 210,1,3,-1,9,1017,RJOI 230855Z 28012KT 9999 FEW040 SCT210 03/M09 A3003 RMK PK WND     30027/0816 SLP169 T00331094 53017=,
20180123_100000.002,0,RJOI,,,,0,20180123090000,-1,-1,-1,-1,250,-1,18,-1,24,-1,-1,,9999,0,0,1,SCT 40,1,2,-1,10,1018,RJOI 230955Z 25018G24KT 9999 SCT040 02/M10 A3005 RMK SLP177     T00221100=,
20180123_110000.002,0,RJOI,,,,0,20180123100000,-1,-1,-1,-1,260,-1,16,-1,23,-1,-1,,9999,0,0,3,FEW 20   FEW 35   SCT 50,1,2,-1,10,1018,RJOI 231055Z 26016G23KT 9999 FEW020 FEW035 SCT050 02/M10 A3006     RMK SLP179 T00221100=,
20180123_120000.002,0,RJOI,,,,0,20180123110000,-1,-1,-1,-1,280,-1,12,-1,-1,-1,-1,,9999,0,0,3,FEW 20   FEW 35   SCT 60,1,2,-1,8,1018,RJOI 231155Z 28012KT 9999 FEW020 FEW035 SCT060 02/M08 A3007 RMK     SLP182 T00221083 10072 20022 51010=,
20180123_120000.004,1,RJOI,,,,0,20180123110000,-1,-1,-1,-1,280,-1,12,-1,-1,-1,-1,,9999,0,0,3,FEW 20   FEW 35   SCT 60,1,2,-1,8,1018,RJOI 231155Z 28012KT 9999 FEW020 FEW035 SCT060 02/M08 A3007     RMK SLP182 70001 T00221083 10072 20022 51010=,
20180123_210000.004,0,RJOI,,,,0,20180123200000,-1,-1,-1,-1,360,-1,6,-1,-1,-1,-1,,9999,0,0,3,FEW 25   FEW 40   SCT 65,-1,1,-1,5,1020,RJOI 232055Z 36006KT 9999 FEW025 FEW040 SCT065 M01/M05 A3011     RMK SHSNE09 SLP194 P0000 60000 T10111050 53003=,
20180123_220000.006,0,RJOI,,,,0,20180123210000,-1,-1,-1,-1,300,-1,8,-1,-1,-1,-1,,9999,0,1,3,FEW 25   SCT 40   SCT 60,-1,2,-1,4,1020,RJOI 232155Z 30008KT 9999 -SHSN FEW025 SCT040 SCT060 M02/M04     A3013 RMK SHSNB26 SLP202 P0000 T10171044=,- SN SH
20180123_223000.002,0,RJOI,,,,0,20180123190000,-1,-1,-1,-1,310,-1,6,-1,-1,-1,-1,,9999,0,1,3,FEW 25   BKN 40   BKN 60,-1,1,-1,6,1019,RJOI 231955Z 31006KT 9999 -SHSN FEW025 BKN040 BKN060 M01/M06     A3010 RMK SHSNB24 SLP191 P0000 T10111056=,- SN SH
20180123_230000.004,0,RJOI,,,,0,20180123220000,-1,-1,-1,-1,300,-1,10,-1,18,-1,-1,,9999,0,1,2,FEW 20   SCT 35,-1,1,-1,7,1021,RJOI 232255Z 30010G18KT 9999 -SHSN FEW020 SCT035 M01/M07 A3014     RMK SLP205 VIS LWR SW P0000 T10111072=,- SN SH
20180124_000000.004,0,RJOI,,,,0,20180123230000,-1,-1,-1,-1,290,-1,11,-1,23,-1,-1,,9999,0,0,2,FEW 20   SCT 30,1,0,-1,7,1021,RJOI 232355Z 29011G23KT 9999 FEW020 SCT030 00/M07 A3014 RMK     SHSNE45 SLP206 VIS LWR SW P0000 60000 T00001072 10000           21017 51014=,
20180124_010000.001,0,RJOI,,,,0,20180124000000,-1,-1,-1,-1,300,-1,12,-1,-1,-1,-1,,9999,0,0,1,SCT 20,1,1,-1,7,1021,RJOI 240055Z 30012KT 9999 SCT020 01/M07 A3015 RMK SLP209 SHSN     OVR MTNS SW T00061072=,
20180124_020000.002,0,RJOI,,,,0,20180124010000,-1,-1,-1,-1,280,-1,12,-1,21,-1,-1,,9999,0,0,1,SCT 20,1,1,-1,7,1020,RJOI 240155Z 28012G21KT 9999 SCT020 01/M07 A3013 RMK SLP204     T00111072=,
20180124_030000.002,0,RJOI,,,,0,20180124020000,-1,-1,-1,-1,290,-1,13,-1,24,-1,-1,,9999,0,1,2,SCT 20   BKN 30,1,1,-1,8,1020,RJOI 240255Z 29013G24KT 9999 -SHSN SCT020 BKN030 01/M08 A3011     RMK SHSNB45 SLP196 P0000 60000 T00061083 58010=,- SN SH
20180124_040000.002,0,RJOI,,,,0,20180124030000,-1,-1,-1,-1,310,-1,14,-1,22,-1,-1,,9999,0,1,2,SCT 25   BKN 230,1,0,-1,9,1020,RJOI 240355Z 31014G22KT 9999 -SHSN SCT025 BKN230 00/M09 A3011     RMK PK WND 29028/11 SLP194 P0000 T00001089=,- SN SH
20180124_050000.004,0,RJOI,,,,0,20180124040000,-1,-1,-1,-1,310,-1,11,-1,18,-1,-1,,9999,0,0,2,SCT 25   BKN 230,-1,1,-1,10,1020,RJOI 240455Z 31011G18KT 9999 SCT025 BKN230 M01/M10 A3012 RMK     SHSNE20B44E52 SLP198 P0000 T10061100=,
20180124_050000.005,1,RJOI,,,,0,20180124040000,-1,-1,-1,-1,310,-1,11,-1,18,-1,-1,,9999,0,0,2,SCT 25   BKN 230,-1,1,-1,10,1020,RJOI 240455Z 31011G18KT 9999 SCT025 BKN230 M01/M10 A3012 RMK PK     WND 32028/17 SHSNE20B44E52 SLP198 P0000 T10061100=,
20180124_060000.002,0,RJOI,,,,0,20180124050000,-1,-1,-1,-1,320,-1,16,-1,23,-1,-1,,9999,0,0,2,SCT 25   BKN 230,1,0,-1,12,1020,RJOI 240555Z 32016G23KT 9999 SCT025 BKN230 00/M12 A3012 RMK     SLP199 60000 T00001117 10011 21011 55000=,
20180124_070000.002,0,RJOI,,,,0,20180124060000,-1,-1,-1,-1,290,-1,15,-1,25,-1,-1,,9999,0,0,2,SCT 25   BKN 230,1,0,-1,12,1020,RJOI 240655Z 29015G25KT 9999 SCT025 BKN230 00/M12 A3013 RMK PK     WND 29028/31 SLP203 T00001122=,
20180124_080000.002,0,RJOI,,,,0,20180124070000,-1,-1,-1,-1,300,-1,6,-1,17,-1,-1,,9999,0,0,1,SCT 25,-1,2,-1,11,1021,RJOI 240755Z 30006G17KT 9999 SCT025 M02/M11 A3015 RMK PK WND     30030/08 SLP209 T10171111=,
20180124_090000.003,0,RJOI,,,,0,20180124080000,-1,-1,-1,-1,270,-1,6,-1,-1,-1,-1,,9999,0,1,2,SCT 20   BKN 30,-1,2,-1,10,1021,RJOI 240855Z 27006KT 9999 -SHSN SCT020 BKN030 M02/M10 A3016 RMK     SHSNB47 SLP211 P0000 60000 T10171100 51014=,- SN SH
20180124_100000.002,0,RJOI,,,,0,20180124090000,-1,-1,-1,-1,260,-1,4,-1,-1,-1,-1,,9000,0,1,2,SCT 15   BKN 30,-1,2,-1,8,1022,RJOI 240955Z 26004KT 9000 -SHSN SCT015 BKN030 M02/M08 A3017 RMK     SLP216 VIS LWR SW-NW P0000 T10221078=,- SN SH
20180124_110000.004,1,RJOI,,,,0,20180124100000,-1,-1,-1,-1,240,-1,5,-1,-1,-1,-1,,9999,0,1,2,SCT 15   BKN 30,-1,2,-1,7,1021,RJOI 241055Z 24005KT 9999 -SHSN SCT015 BKN030 M02/M07 A3015 RMK     P0000 T10221072=,- SN SH
20180124_120000.002,0,RJOI,,,,0,20180124110000,-1,-1,-1,-1,240,-1,4,-1,-1,-1,-1,,9999,0,1,2,SCT 15   BKN 30,-1,2,-1,8,1021,RJOI 241155Z 24004KT 9999 -SHSN SCT015 BKN030 M02/M08 A3015 RMK     SLP208 P0000 60000 T10221078 10000 21028 58003=,- SN SH
20180124_120000.004,1,RJOI,,,,0,20180124110000,-1,-1,-1,-1,240,-1,4,-1,-1,-1,-1,,9999,0,1,2,SCT 15   BKN 30,-1,2,-1,8,1021,RJOI 241155Z 24004KT 9999 -SHSN SCT015 BKN030 M02/M08 A3015     RMK SLP208 P0000 60001 T10221078 10000 21028 50000=,- SN SH
20180124_130000.005,1,RJOI,,,,0,20180124120000,-1,-1,-1,-1,250,-1,8,-1,-1,-1,-1,,9999,0,0,1,BKN 40,-1,2,-1,8,1021,RJOI 241255Z 25008KT 9999 BKN040 M02/M08 A3015 RMK SLP210 P0000     T10221078=,
20180124_140000.001,0,RJOI,,,,0,20180124130000,-1,-1,-1,-1,270,-1,8,-1,-1,-1,-1,,9999,0,0,1,BKN 40,-1,2,-1,8,1021,RJOI 241355Z 27008KT 9999 BKN040 M02/M08 A3015 RMK SNE1256     SLP208 P0000 T10221078=,
20180124_150000.004,1,RJOI,,,,0,20180124140000,-1,-1,-1,-1,260,-1,8,-1,-1,-1,-1,,9999,0,0,1,SCT 50,-1,2,-1,7,1021,RJOI 241455Z 26008KT 9999 SCT050 M02/M07 A3014 RMK SLP205 60000     T10221072 400111028 55003=,
20180124_160000.002,0,RJOI,,,,0,20180124150000,-1,-1,-1,-1,260,-1,5,-1,-1,-1,-1,,9999,0,0,1,SCT 50,-1,2,-1,7,1021,RJOI 241555Z 26005KT 9999 SCT050 M02/M07 A3014 RMK SLP206     T10221067=,
20180124_170000.004,1,RJOI,,,,0,20180124160000,-1,-1,-1,-1,60,-1,3,-1,-1,-1,-1,,9999,0,0,1,SCT 40,-1,3,-1,7,1021,RJOI 241655Z 06003KT 9999 SCT040 M03/M07 A3016 RMK SLP212     T10331072=,
20180124_180000.004,1,RJOI,,,,0,20180124170000,-1,-1,-1,-1,300,-1,5,-1,-1,-1,-1,,9999,0,0,1,SCT 40,-1,2,-1,6,1022,RJOI 241755Z 30005KT 9999 SCT040 M02/M06 A3017 RMK SLP214 60000     T10221061 11022 21033 50007=,
20180124_190000.006,1,RJOI,,,,0,20180124180000,-1,-1,-1,-1,0,-1,0,-1,-1,-1,-1,,9999,0,0,1,SCT 40,-1,3,-1,7,1021,RJOI 241855Z 00000KT 9999 SCT040 M03/M07 A3016 RMK SLP211     T210331067=,
20180124_200000.002,0,RJOI,,,,0,20180124190000,-1,-1,-1,-1,270,-1,7,-1,-1,-1,-1,,9999,0,0,1,FEW 30,-1,3,-1,6,1021,RJOI 241955Z 27007KT 9999 FEW030 M03/M06 A3016 RMK SLP213     T10281061=,
20180124_210000.005,0,RJOI,,,,0,20180124200000,-1,-1,-1,-1,270,-1,7,-1,-1,-1,-1,,9999,0,0,2,FEW 40   SCT 160,-1,2,-1,6,1022,RJOI 242055Z 27007KT 9999 FEW040 SCT160 M02/M06 A3017 RMK     SLP216 T10221061 53003=,
20180124_220000.004,1,RJOI,,,,0,20180124210000,-1,-1,-1,-1,300,-1,7,-1,-1,-1,-1,,9999,0,0,2,FEW 30   SCT 160,-1,2,-1,6,1022,RJOI 242155Z 30007KT 9999 FEW030 SCT160 M02/M06 A3018 RMK     SLP219 T10221061=,
20180124_230000.004,1,RJOI,,,,0,20180124220000,-1,-1,-1,-1,290,-1,7,-1,-1,-1,-1,,9999,0,0,3,FEW 25   SCT 50   SCT 160,-1,2,-1,6,1022,RJOI 242255Z 29007KT 9999 FEW025 SCT050 SCT160 M02/M06 A3019     RMK SLP222 T10171056=,
20180125_000000.004,0,RJOI,,,,0,20180124230000,-1,-1,-1,-1,290,-1,7,-1,-1,-1,-1,,9999,0,0,3,FEW 25   SCT 50   BKN 160,1,0,-1,6,1022,RJOI 242355Z 29007KT 9999 FEW025 SCT050 BKN160 00/M06 A3019 RMK     SLP222 T00001056 10000 21033 51003=,
20180125_010000.004,1,RJOI,,,,0,20180125000000,-1,-1,-1,-1,280,-1,8,-1,-1,-1,-1,,9999,0,0,3,FEW 25   FEW 80   SCT 250,1,1,-1,6,1022,RJOI 250055Z 28008KT 9999 FEW025 FEW080 SCT250 01/M06 A3019 RMK     SLP224 T00111056=,
20180125_020000.003,0,RJOI,,,,0,20180125010000,-1,-1,-1,-1,300,-1,5,-1,-1,-1,-1,,9999,0,0,2,FEW 25   SCT 60,1,2,-1,5,1022,RJOI 250155Z 30005KT 9999 FEW025 SCT060 02/M05 A3018 RMK SLP219     T00221050=,
20180125_030000.002,0,RJOI,,,,0,20180125020000,-1,-1,-1,-1,340,-1,12,-1,16,-1,-1,,9999,0,0,2,SCT 25   SCT 60,1,4,-1,6,1021,RJOI 250255Z 34012G16KT 9999 SCT025 SCT060 04/M06 A3014 RMK     SNB27E38 SLP207 P0000 60000 T00391061 58014=,
20180125_040000.002,0,RJOI,,,,0,20180125030000,-1,-1,-1,-1,300,-1,6,-1,-1,-1,-1,,9999,0,0,3,FEW 8   FEW 25   SCT 40,1,4,-1,6,1020,RJOI 250355Z 30006KT 9999 FEW008 FEW025 SCT040 04/M06 A3011 RMK     SLP197 T00441061=,
20180125_050000.002,0,RJOI,,,,0,20180125040000,-1,-1,-1,-1,310,-1,9,-1,-1,-1,-1,,9999,0,1,3,FEW 25   SCT 40   BKN 55,1,4,-1,6,1019,RJOI 250455Z 31009KT 9999 -SN FEW025 SCT040 BKN055 04/M06 A3010     RMK SNB46 SLP191 P0000 T00441061=,- SN
20180125_060000.002,0,RJOI,,,,0,20180125050000,-1,-1,-1,-1,280,-1,11,-1,22,-1,-1,,9999,0,0,2,FEW 25   SCT 45,1,4,-1,8,1020,RJOI 250555Z 28011G22KT 9999 FEW025 SCT045 04/M08 A3011 RMK     SNE02 SLP195 P0000 60000 T00391078 10056 20000 55014=,
20180125_070000.002,0,RJOI,,,,0,20180125060000,-1,-1,-1,-1,280,-1,10,-1,-1,-1,-1,,9999,0,0,2,SCT 25   BKN 40,1,4,-1,7,1020,RJOI 250655Z 28010KT 9999 SCT025 BKN040 04/M07 A3011 RMK SLP196     T00391067=,
20180125_080000.002,0,RJOI,,,,0,20180125070000,-1,-1,-1,-1,310,-1,9,-1,-1,-1,-1,,9999,0,0,2,FEW 25   SCT 40,1,2,-1,8,1020,RJOI 250755Z 31009KT 9999 FEW025 SCT040 02/M08 A3011 RMK SLP196     T00221078=,
20180125_090000.002,0,RJOI,,,,0,20180125080000,-1,-1,-1,-1,290,-1,7,-1,-1,-1,-1,,9999,0,0,2,FEW 25   FEW 40,1,1,-1,7,1020,RJOI 250855Z 29007KT 9999 FEW025 FEW040 01/M07 A3012 RMK SLP200     T00111067 53007=,
20180125_100000.003,0,RJOI,,,,0,20180125090000,-1,-1,-1,-1,290,-1,6,-1,-1,-1,-1,,9999,0,0,2,FEW 25   SCT 70,1,1,-1,7,1020,RJOI 250955Z 29006KT 9999 FEW025 SCT070 01/M07 A3013 RMK SLP201     T00061067=,
20180125_110000.003,0,RJOI,,,,0,20180125100000,-1,-1,-1,-1,240,-1,5,-1,-1,-1,-1,,9999,0,0,2,FEW 30   BKN 230,1,0,-1,6,1020,RJOI 251055Z 24005KT 9999 FEW030 BKN230 00/M06 A3012 RMK SLP201     T00001056=,
20180125_120000.002,0,RJOI,,,,0,20180125110000,-1,-1,-1,-1,260,-1,6,-1,-1,-1,-1,,9999,0,0,3,FEW 30   BKN 100   BKN 230,1,1,-1,6,1020,RJOI 251155Z 26006KT 9999 FEW030 BKN100 BKN230 01/M06 A3012 RMK     SLP197 T00061056 10044 20000 58003=,
20180125_130000.002,0,RJOI,,,,0,20180125120000,-1,-1,-1,-1,250,-1,4,-1,-1,-1,-1,,9999,0,0,3,FEW 30   BKN 100   OVC 230,1,1,-1,6,1019,RJOI 251255Z 25004KT 9999 FEW030 BKN100 OVC230 01/M06 A3009 RMK     SLP190 T00061061=,
20180125_140000.002,0,RJOI,,,,0,20180125130000,-1,-1,-1,-1,240,-1,6,-1,-1,-1,-1,,9999,0,0,3,FEW 30   SCT 120   BKN 230,1,1,-1,7,1019,RJOI 251355Z 24006KT 9999 FEW030 SCT120 BKN230 01/M07 A3008 RMK     SLP186 T00061067=,
20180125_150000.002,0,RJOI,,,,0,20180125140000,-1,-1,-1,-1,250,-1,4,-1,-1,-1,-1,,9999,0,0,3,FEW 30   SCT 120   BKN 230,1,0,-1,7,1018,RJOI 251455Z 25004KT 9999 FEW030 SCT120 BKN230 00/M07 A3007 RMK     SLP183 T00001067 400561033 56014=,
20180125_160000.002,0,RJOI,,,,0,20180125150000,-1,-1,-1,-1,260,-1,4,-1,-1,-1,-1,,9999,0,0,2,FEW 30   SCT 230,-1,1,-1,7,1018,RJOI 251555Z 26004KT 9999 FEW030 SCT230 M01/M07 A3006 RMK     SLP179 T10111067=,
20180125_170000.002,0,RJOI,,,,0,20180125160000,-1,-1,-1,-1,260,-1,4,-1,-1,-1,-1,,9999,0,0,1,FEW 25,-1,1,-1,6,1018,RJOI 251655Z 26004KT 9999 FEW025 M01/M06 A3007 RMK SLP182     T10111061=,
20180125_180000.002,0,RJOI,,,,0,20180125170000,-1,-1,-1,-1,250,-1,5,-1,-1,-1,-1,,9999,0,0,1,FEW 25,-1,1,-1,6,1018,RJOI 251755Z 25005KT 9999 FEW025 M01/M06 A3006 RMK SLP180     T10111061 10006 21011 56003=,
20180125_190000.002,0,RJOI,,,,0,20180125180000,-1,-1,-1,-1,210,-1,3,-1,-1,-1,-1,,9999,0,0,1,FEW 25,1,0,-1,5,1018,RJOI 251855Z 21003KT 9999 FEW025 00/M05 A3005 RMK SLP175     T00001050=,
20180125_200000.001,0,RJOI,,,,0,20180125190000,-1,-1,-1,-1,0,-1,0,-1,-1,-1,-1,,9999,0,0,1,FEW 25,-1,1,-1,6,1018,RJOI 251955Z 00000KT 9999 FEW025 M01/M06 A3005 RMK SLP174     T10111056=,
20180125_210000.002,0,RJOI,,,,0,20180125200000,-1,-1,-1,-1,240,-1,3,-1,-1,-1,-1,,9999,0,0,1,SCT 30,-1,1,-1,6,1018,RJOI 252055Z 24003KT 9999 SCT030 M01/M06 A3006 RMK SLP177     T10111061 55000=,
20180125_220000.002,0,RJOI,,,,0,20180125210000,-1,-1,-1,-1,270,-1,7,-1,-1,-1,-1,,9999,0,0,1,SCT 25,-1,1,-1,6,1018,RJOI 252155Z 27007KT 9999 SCT025 M01/M06 A3007 RMK SLP182     T10111056=,
20180125_230000.004,1,RJOI,,,,0,20180125220000,-1,-1,-1,-1,250,-1,6,-1,-1,-1,-1,,9999,0,0,2,FEW 20   SCT 35,1,0,-1,6,1019,RJOI 252255Z 25006KT 9999 FEW020 SCT035 00/M06 A3008 RMK SLP186     T00001056=,
20180126_000000.004,0,RJOI,,,,0,20180125230000,-1,-1,-1,-1,250,-1,10,-1,-1,-1,-1,,9999,0,0,3,FEW 25   SCT 35   BKN 50,1,1,-1,7,1019,RJOI 252355Z 25010KT 9999 FEW025 SCT035 BKN050 01/M07 A3009 RMK     SLP189 T00111067 10011 21011 53010=,
20180126_010000.002,0,RJOI,,,,0,20180126000000,-1,-1,-1,-1,310,-1,10,-1,16,-1,-1,,9999,0,0,3,FEW 25   SCT 35   BKN 45,1,2,-1,7,1020,RJOI 260055Z 31010G16KT 9999 FEW025 SCT035 BKN045 02/M07 A3011     RMK SLP194 T00221072=,
20180126_020000.002,0,RJOI,,,,0,20180126010000,-1,-1,-1,-1,290,-1,8,-1,-1,-1,-1,,9999,0,0,2,FEW 25   BKN 40,1,3,-1,6,1019,RJOI 260155Z 29008KT 9999 FEW025 BKN040 03/M06 A3010 RMK     SHSNB12E29 SLP194 P0000 T00281061=,
20180126_030000.004,1,RJOI,,,,0,20180126020000,-1,-1,-1,-1,300,-1,8,-1,16,-1,-1,,9999,0,0,2,FEW 25   BKN 40,1,3,-1,7,1019,RJOI 260255Z 30008G16KT 9999 FEW025 BKN040 03/M07 A3008 RMK     SLP185 60000 T00331072 58007=,
20180126_040000.002,0,RJOI,,,,0,20180126030000,-1,-1,-1,-1,290,-1,13,-1,21,-1,-1,,9999,0,0,2,FEW 25   BKN 40,1,2,-1,8,1018,RJOI 260355Z 29013G21KT 9999 FEW025 BKN040 02/M08 A3006 RMK     SLP179 T00221083=,
20180126_050000.002,0,RJOI,,,,0,20180126040000,-1,-1,-1,-1,310,-1,10,-1,18,-1,-1,,9999,0,0,2,FEW 25   BKN 40,1,3,-1,8,1018,RJOI 260455Z 31010G18KT 9999 FEW025 BKN040 03/M08 A3005 RMK     SLP176 T00331083=,
20180126_060000.002,0,RJOI,,,,0,20180126050000,-1,-1,-1,-1,290,-1,17,-1,25,-1,-1,,9999,0,0,2,FEW 25   BKN 40,1,3,-1,9,1018,RJOI 260555Z 29017G25KT 9999 FEW025 BKN040 03/M09 A3006 RMK PK     WND 29029/18 SLP179 60000 T00331089 10044 20011 55003=,
20180126_070000.002,0,RJOI,,,,0,20180126060000,-1,-1,-1,-1,290,-1,13,-1,20,-1,-1,,9999,0,0,2,FEW 25   SCT 40,1,3,-1,8,1018,RJOI 260655Z 29013G20KT 9999 FEW025 SCT040 03/M08 A3007 RMK     SLP183 T00331083=,
20180126_080000.003,0,RJOI,,,,0,20180126070000,-1,-1,-1,-1,320,-1,12,-1,20,-1,-1,,9999,0,1,2,FEW 25   BKN 40,1,2,-1,8,1019,RJOI 260755Z 32012G20KT 9999 -SHSN FEW025 BKN040 02/M08 A3009     RMK SHSNB52 SLP189 P0000 T00171083=,- SN SH
20180126_090000.004,1,RJOI,,,,0,20180126080000,-1,-1,-1,-1,290,-1,8,-1,-1,-1,-1,,9999,0,0,2,FEW 25   SCT 40,1,1,-1,8,1020,RJOI 260855Z 29008KT 9999 FEW025 SCT040 01/M08 A3011 RMK     SHSNE48 SLP194 P0000 60000 T00061083 51014=,
20180126_100000.004,1,RJOI,,,,0,20180126090000,-1,-1,-1,-1,999,-1,5,-1,-1,-1,-1,,9999,0,0,2,FEW 25   SCT 40,1,0,-1,8,1021,RJOI 260955Z VRB05KT 9999 FEW025 SCT040 00/M08 A3014 RMK SLP205     T00001078=,
20180126_110000.002,0,RJOI,,,,0,20180126100000,-1,-1,-1,-1,280,-1,6,-1,-1,-1,-1,,9999,0,0,2,FEW 25   FEW 40,-1,1,-1,8,1021,RJOI 261055Z 28006KT 9999 FEW025 FEW040 M01/M08 A3016 RMK     SLP211 T10061078=,
20180126_120000.002,0,RJOI,,,,0,20180126110000,-1,-1,-1,-1,270,-1,7,-1,-1,-1,-1,,9999,0,0,3,FEW 25   SCT 40   SCT 50,-1,1,-1,7,1022,RJOI 261155Z 27007KT 9999 FEW025 SCT040 SCT050 M01/M07 A3017     RMK SLP217 60000 T10061072 10039 21006 51024=,
20180126_130000.002,0,RJOI,,,,0,20180126120000,-1,-1,-1,-1,270,-1,8,-1,-1,-1,-1,,9999,0,0,2,FEW 25   FEW 40,-1,1,-1,7,1022,RJOI 261255Z 27008KT 9999 FEW025 FEW040 M01/M07 A3018 RMK     SLP220 T10061072=,
20180126_140000.002,0,RJOI,,,,0,20180126130000,-1,-1,-1,-1,290,-1,7,-1,-1,-1,-1,,9999,0,0,3,FEW 25   SCT 40   BKN 50,-1,1,-1,7,1022,RJOI 261355Z 29007KT 9999 FEW025 SCT040 BKN050 M01/M07 A3019     RMK SLP223 T10061067=,
20180126_150000.002,0,RJOI,,,,0,20180126140000,-1,-1,-1,-1,300,-1,7,-1,-1,-1,-1,,9999,0,0,3,FEW 25   SCT 45   BKN 160,-1,1,-1,6,1023,RJOI 261455Z 30007KT 9999 FEW025 SCT045 BKN160 M01/M06 A3020     RMK SLP226 T10061061 400441011 51007=,
20180126_160000.002,0,RJOI,,,,0,20180126150000,-1,-1,-1,-1,300,-1,6,-1,-1,-1,-1,,9999,0,0,3,FEW 25   SCT 45   BKN 160,-1,1,-1,6,1023,RJOI 261555Z 30006KT 9999 FEW025 SCT045 BKN160 M01/M06 A3020     RMK SLP227 T10111056=,
20180126_170000.004,1,RJOI,,,,0,20180126160000,-1,-1,-1,-1,300,-1,5,-1,-1,-1,-1,,9999,0,0,3,FEW 25   BKN 50   BKN 160,-1,1,-1,5,1023,RJOI 261655Z 30005KT 9999 FEW025 BKN050 BKN160 M01/M05 A3022     RMK SLP232 T10111050=,
20180126_180000.002,0,RJOI,,,,0,20180126170000,-1,-1,-1,-1,300,-1,5,-1,-1,-1,-1,,9999,0,0,2,FEW 25   SCT 50,-1,1,-1,5,1023,RJOI 261755Z 30005KT 9999 FEW025 SCT050 M01/M05 A3022 RMK     SLP234 T10111050 10000 21011 52010=,
20180126_190000.004,1,RJOI,,,,0,20180126180000,-1,-1,-1,-1,300,-1,6,-1,-1,-1,-1,,9999,0,0,2,FEW 25   FEW 50,-1,1,-1,5,1023,RJOI 261855Z 30006KT 9999 FEW025 FEW050 M01/M05 A3022 RMK     SLP234 T10111050=,
20180126_200000.001,0,RJOI,,,,0,20180126190000,-1,-1,-1,-1,300,-1,6,-1,-1,-1,-1,,9999,0,0,2,FEW 25   FEW 50,-1,2,-1,4,1023,RJOI 261955Z 30006KT 9999 FEW025 FEW050 M02/M04 A3022 RMK     SLP233 T10171044=,
20180126_210000.002,0,RJOI,,,,0,20180126200000,-1,-1,-1,-1,310,-1,5,-1,-1,-1,-1,,9999,0,0,3,FEW 25   SCT 50   BKN 220,-1,2,-1,4,1024,RJOI 262055Z 31005KT 9999 FEW025 SCT050 BKN220 M02/M04 A3023     RMK SLP235 T10171044 53003=,
20180126_220000.002,0,RJOI,,,,0,20180126210000,-1,-1,-1,-1,310,-1,7,-1,-1,-1,-1,,9999,0,0,2,FEW 25   BKN 50,-1,1,-1,4,1025,RJOI 262155Z 31007KT 9999 FEW025 BKN050 M01/M04 A3026 RMK     SLP246 T10061044=,
20180126_230000.004,1,RJOI,,,,0,20180126220000,-1,-1,-1,-1,290,-1,5,-1,-1,-1,-1,,9999,0,0,2,FEW 25   BKN 50,1,0,-1,4,1025,RJOI 262255Z 29005KT 9999 FEW025 BKN050 00/M04 A3027 RMK SLP249     T00001039=,
20180127_000000.004,0,RJOI,,,,0,20180126230000,-1,-1,-1,-1,320,-1,4,-1,-1,-1,-1,,9999,0,0,3,FEW 30   BKN 50   BKN 120,1,1,-1,4,1025,RJOI 262355Z 32004KT 9999 FEW030 BKN050 BKN120 01/M04 A3028 RMK     SLP253 T00111044 10017 21017 51018=,
20180127_010000.004,1,RJOI,,,,0,20180127000000,-1,-1,-1,-1,999,-1,3,-1,-1,-1,-1,,9999,0,0,2,FEW 40   FEW 120,1,3,-1,4,1025,RJOI 270055Z VRB03KT 9999 FEW040 FEW120 03/M04 A3028 RMK SLP252     T00331044=,
20180127_020000.002,0,RJOI,,,,0,20180127010000,-1,-1,-1,-1,999,-1,4,-1,-1,-1,-1,,9999,0,0,1,FEW 40,1,4,-1,5,1025,RJOI 270155Z VRB04KT 9999 FEW040 04/M05 A3027 RMK SLP251     T00391050=,
20180127_030000.002,0,RJOI,,,,0,20180127020000,-1,-1,-1,-1,100,-1,6,-1,-1,-1,-1,,9999,0,0,1,SCT 40,1,5,-1,4,1024,RJOI 270255Z 10006KT 9999 SCT040 05/M04 A3025 RMK SLP245     T00501044 58007=,
20180127_040000.002,0,RJOI,,,,0,20180127030000,-1,-1,-1,-1,100,-1,5,-1,-1,-1,-1,,9999,0,0,1,BKN 50,1,5,-1,4,1024,RJOI 270355Z 10005KT 9999 BKN050 05/M04 A3024 RMK SLP239     T00501039=,
20180127_050000.002,0,RJOI,,,,0,20180127040000,-1,-1,-1,-1,90,-1,4,-1,-1,-1,-1,,9999,0,0,1,BKN 40,1,6,-1,4,1024,RJOI 270455Z 09004KT 9999 BKN040 06/M04 A3023 RMK SLP236     T00561039=,
20180127_060000.004,1,RJOI,,,,0,20180127050000,-1,-1,-1,-1,120,-1,4,-1,-1,-1,-1,,9999,0,0,2,BKN 40   BKN 100,1,6,-1,3,1023,RJOI 270555Z 12004KT 9999 BKN040 BKN100 06/M03 A3022 RMK SLP232     T00611033 10061 20011 57014=,
20180127_070000.002,0,RJOI,,,,0,20180127060000,-1,-1,-1,-1,70,-1,4,-1,-1,-1,-1,,9999,0,0,2,SCT 40   SCT 80,1,6,-1,4,1023,RJOI 270655Z 07004KT 9999 SCT040 SCT080 06/M04 A3021 RMK SLP230     T00561039=,
20180127_080000.002,0,RJOI,,,,0,20180127070000,-1,-1,-1,-1,0,-1,0,-1,-1,-1,-1,,9999,0,0,2,SCT 50   BKN 120,1,5,-1,4,1023,RJOI 270755Z 00000KT 9999 SCT050 BKN120 05/M04 A3022 RMK SLP233     T00501039=,
20180127_090000.003,0,RJOI,,,,0,20180127080000,-1,-1,-1,-1,0,-1,0,-1,-1,-1,-1,,9999,0,0,3,FEW 30   BKN 50   BKN 120,1,5,-1,4,1024,RJOI 270855Z 00000KT 9999 FEW030 BKN050 BKN120 05/M04 A3023 RMK     SLP236 T00501039 53007=,
20180127_100000.002,0,RJOI,,,,0,20180127090000,-1,-1,-1,-1,0,-1,0,-1,-1,-1,-1,,9999,0,0,3,FEW 30   BKN 50   BKN 120,1,4,-1,2,1024,RJOI 270955Z 00000KT 9999 FEW030 BKN050 BKN120 04/M02 A3023 RMK     SLP237 T00391022=,
20180127_110000.004,1,RJOI,,,,0,20180127100000,-1,-1,-1,-1,310,-1,4,-1,-1,-1,-1,,9999,0,0,2,FEW 25   FEW 40,1,3,-1,2,1024,RJOI 271055Z 31004KT 9999 FEW025 FEW040 03/M02 A3023 RMK SLP235     T00281022=,
20180127_120000.005,1,RJOI,,,,0,20180127110000,-1,-1,-1,-1,300,-1,4,-1,-1,-1,-1,,9999,0,0,2,FEW 25   SCT 40,1,2,-1,2,1023,RJOI 271155Z 30004KT 9999 FEW025 SCT040 02/M02 A3022 RMK SLP234     T00221017 10067 20022 55003=,
20180127_130000.004,1,RJOI,,,,0,20180127120000,-1,-1,-1,-1,320,-1,5,-1,-1,-1,-1,,9999,0,0,3,FEW 25   FEW 40   SCT 120,1,2,-1,2,1023,RJOI 271255Z 32005KT 9999 FEW025 FEW040 SCT120 02/M02 A3021 RMK     SLP228 T00221017=,
20180127_140000.001,0,RJOI,,,,0,20180127130000,-1,-1,-1,-1,310,-1,5,-1,-1,-1,-1,,9999,0,0,3,FEW 25   FEW 40   SCT 120,1,2,-1,2,1023,RJOI 271355Z 31005KT 9999 FEW025 FEW040 SCT120 02/M02 A3022 RMK     SLP233 T00171022=,
20180127_150000.005,1,RJOI,,,,0,20180127140000,-1,-1,-1,-1,300,-1,5,-1,-1,-1,-1,,9999,0,0,3,FEW 25   SCT 40   BKN 140,1,1,-1,2,1023,RJOI 271455Z 30005KT 9999 FEW025 SCT040 BKN140 01/M02 A3020 RMK     SLP227 T00111022 400671017 58007=,
20180127_160000.004,1,RJOI,,,,0,20180127150000,-1,-1,-1,-1,300,-1,5,-1,-1,-1,-1,,9999,0,0,3,FEW 25   BKN 40   BKN 140,1,2,-1,2,1022,RJOI 271555Z 30005KT 9999 FEW025 BKN040 BKN140 02/M02 A3019 RMK     SLP223 T00171022=,
20180127_170000.002,0,RJOI,,,,0,20180127160000,-1,-1,-1,-1,300,-1,5,-1,-1,-1,-1,,9999,0,0,3,FEW 25   BKN 40   BKN 140,1,2,-1,2,1022,RJOI 271655Z 30005KT 9999 FEW025 BKN040 BKN140 02/M02 A3017 RMK     SLP215 T00171022=,
20180127_180000.002,0,RJOI,,,,0,20180127170000,-1,-1,-1,-1,310,-1,7,-1,-1,-1,-1,,9999,0,0,2,FEW 25   BKN 120,1,2,-1,2,1022,RJOI 271755Z 31007KT 9999 FEW025 BKN120 02/M02 A3018 RMK SLP220     T00171022 10028 20011 55010=,
20180127_190000.004,1,RJOI,,,,0,20180127180000,-1,-1,-1,-1,310,-1,6,-1,-1,-1,-1,,9999,0,0,2,FEW 25   BKN 120,1,2,-1,2,1021,RJOI 271855Z 31006KT 9999 FEW025 BKN120 02/M02 A3015 RMK SLP210     T00171022=,
20180127_200000.004,1,RJOI,,,,0,20180127190000,-1,-1,-1,-1,300,-1,5,-1,-1,-1,-1,,9999,0,0,2,FEW 25   BKN 120,1,2,-1,2,1020,RJOI 271955Z 30005KT 9999 FEW025 BKN120 02/M02 A3013 RMK SLP203     T00171017=,
20180127_210000.002,0,RJOI,,,,0,20180127200000,-1,-1,-1,-1,300,-1,6,-1,-1,-1,-1,,9999,0,0,3,FEW 25   SCT 40   BKN 100,1,2,-1,2,1020,RJOI 272055Z 30006KT 9999 FEW025 SCT040 BKN100 02/M02 A3013 RMK     SLP201 T00171017 56017=,
20180127_220000.002,0,RJOI,,,,0,20180127210000,-1,-1,-1,-1,300,-1,5,-1,-1,-1,-1,,9999,0,0,3,FEW 25   SCT 40   BKN 65,1,2,-1,2,1021,RJOI 272155Z 30005KT 9999 FEW025 SCT040 BKN065 02/M02 A3014 RMK     SLP204 T00171017=,
20180127_230000.002,0,RJOI,,,,0,20180127220000,-1,-1,-1,-1,300,-1,6,-1,-1,-1,-1,,9000,0,1,3,FEW 7   BKN 15   OVC 30,1,2,-1,1,1020,RJOI 272255Z 30006KT 9000 -SHSN FEW007 BKN015 OVC030 02/M01     A3012 RMK SHSNB10 SLP201 VIS LWR S-W P0000 T00171011=,- SN SH
20180128_000000.005,0,RJOI,,,,0,20180127230000,-1,-1,-1,-1,300,-1,5,-1,-1,-1,-1,,9999,0,1,3,FEW 7   BKN 20   OVC 40,1,2,1,0,1020,RJOI 272355Z 30005KT 9999 -SHRASN FEW007 BKN020 OVC040 02/00     A3012 RMK SHRAB17 SLP200 P0000 60000 T00170000 10022 20011           50000=,- RA SN SH
20180128_010000.002,0,RJOI,,,,0,20180128000000,-1,-1,-1,-1,290,-1,3,-1,-1,-1,-1,,9000,0,2,3,FEW 5   BKN 20   OVC 40,1,2,1,1,1019,RJOI 280055Z 29003KT 9000 -SHRA BR FEW005 BKN020 OVC040 02/01     A3010 RMK SHSNE40 SLP193 WR P0000 T00220011=,- RA SH; BR
20180128_020000.002,0,RJOI,,,,0,20180128010000,-1,-1,-1,-1,0,-1,0,-1,-1,-1,-1,,9000,0,2,3,FEW 5   BKN 15   OVC 40,1,4,1,2,1019,RJOI 280155Z 00000KT 9000 -SHRA BR FEW005 BKN015 OVC040 04/02     A3008 RMK SLP186 P0000 T00390017=,- RA SH; BR
20180128_030000.002,0,RJOI,,,,0,20180128020000,-1,-1,-1,-1,0,-1,0,-1,-1,-1,-1,,9999,0,1,3,FEW 7   BKN 15   OVC 40,1,4,1,2,1018,RJOI 280255Z 00000KT 9999 -SHRA FEW007 BKN015 OVC040 04/02     A3005 RMK SLP177 P0000 60000 T00440022 58024=,- RA SH
20180128_040000.002,0,RJOI,,,,0,20180128030000,-1,-1,-1,-1,0,-1,0,-1,-1,-1,-1,,9999,0,1,3,FEW 10   BKN 15   OVC 40,1,6,1,3,1017,RJOI 280355Z 00000KT 9999 -SHRA FEW010 BKN015 OVC040 06/03     A3002 RMK SLP165 P0000 T00560028=,- RA SH
20180128_050000.002,0,RJOI,,,,0,20180128040000,-1,-1,-1,-1,0,-1,0,-1,-1,-1,-1,,9999,0,0,3,FEW 10   BKN 15   OVC 40,1,6,1,2,1016,RJOI 280455Z 00000KT 9999 FEW010 BKN015 OVC040 06/02 A3000 RMK     SHRAE10 SLP159 P0000 T00610017=,
20180128_060000.002,0,RJOI,,,,0,20180128050000,-1,-1,-1,-1,250,-1,6,-1,-1,-1,-1,,9999,0,0,3,BKN 15   BKN 40   OVC 80,1,7,1,2,1016,RJOI 280555Z 25006KT 9999 BKN015 BKN040 OVC080 07/02 A3000 RMK     SLP158 60000 T00670017 10067 20017 56020=,
20180128_070000.001,0,RJOI,,,,0,20180128060000,-1,-1,-1,-1,270,-1,10,-1,-1,-1,-1,,9999,0,0,3,SCT 15   BKN 40   OVC 80,1,6,1,2,1016,RJOI 280655Z 27010KT 9999 SCT015 BKN040 OVC080 06/02 A3000 RMK     SLP160 T00610017=,
20180128_080000.002,0,RJOI,,,,0,20180128070000,-1,-1,-1,-1,0,-1,0,-1,-1,-1,-1,,9999,0,0,3,FEW 15   BKN 40   BKN 80,1,6,1,2,1015,RJOI 280755Z 00000KT 9999 FEW015 BKN040 BKN080 06/02 A2998 RMK     SLP153 T00560017=,
20180128_090000.002,0,RJOI,,,,0,20180128080000,-1,-1,-1,-1,230,-1,5,-1,-1,-1,-1,,9999,0,0,3,SCT 20   BKN 30   OVC 50,1,6,1,1,1016,RJOI 280855Z 23005KT 9999 SCT020 BKN030 OVC050 06/01 A3000 RMK     SLP158 T00610011 55000=,
20180128_100000.002,0,RJOI,,,,0,20180128090000,-1,-1,-1,-1,230,-1,5,-1,-1,-1,-1,,9999,0,1,3,FEW 10   BKN 20   BKN 30,1,6,1,2,1016,RJOI 280955Z 23005KT 9999 -SHRA FEW010 BKN020 BKN030 06/02     A3000 RMK SHRAB28 SLP159 P0000 T00560017=,- RA SH
20180128_110000.002,0,RJOI,,,,0,20180128100000,-1,-1,-1,-1,250,-1,7,-1,-1,-1,-1,,9999,0,0,3,FEW 10   BKN 20   BKN 30,1,6,1,1,1017,RJOI 281055Z 25007KT 9999 FEW010 BKN020 BKN030 06/01 A3002 RMK     SHRAE08 SLP164 P0000 T00610006=,
20180128_120000.002,0,RJOI,,,,0,20180128110000,-1,-1,-1,-1,290,-1,3,-1,-1,-1,-1,,9999,0,0,3,FEW 20   SCT 30   BKN 50,1,4,1,1,1017,RJOI 281155Z 29003KT 9999 FEW020 SCT030 BKN050 04/01 A3002 RMK     SLP164 60000 T00440006 10067 20044 53007=,
20180128_130000.002,0,RJOI,,,,0,20180128120000,-1,-1,-1,-1,270,-1,4,-1,-1,-1,-1,,9999,0,0,2,FEW 30   SCT 58 0,1,4,1,1,1017,RJOI 281255Z 27004KT 9999 FEW030 SCT0580 04/01 A3002 RMK SLP166     T00390006=,
20180128_140000.004,1,RJOI,,,,0,20180128130000,-1,-1,-1,-1,260,-1,5,-1,-1,-1,-1,,9999,0,0,2,FEW 30   SCT 80,1,2,1,0,1016,RJOI 281355Z 26005KT 9999 FEW030 SCT080 02/00 A3001 RMK SLP163     T00220000=,
20180128_150000.002,0,RJOI,,,,0,20180128140000,-1,-1,-1,-1,270,-1,4,-1,-1,-1,-1,,9999,0,0,2,FEW 30   SCT 120,1,2,1,0,1016,RJOI 281455Z 27004 9999 FEW030 SCT120 02/00 A3000 RMK SLP160     T00220000 400670011 58003=,
20180128_150000.004,1,RJOI,,,,0,20180128140000,-1,-1,-1,-1,270,-1,4,-1,-1,-1,-1,,9999,0,0,2,FEW 30   SCT 120,1,2,1,0,1016,RJOI 281455Z 27004KT 9999 FEW030 SCT120 02/00 A3000 RMK     SLP160 T00220000 400670011 58003=,
20180128_160000.004,1,RJOI,,,,0,20180128150000,-1,-1,-1,-1,290,-1,6,-1,-1,-1,-1,,9999,0,0,1,SCT 120,1,2,-1,1,1016,RJOI 281555Z 29006KT 9999 SCT120 02/M01 A2999 RMK SLP157     T00171006=,
20180128_170000.004,1,RJOI,,,,0,20180128160000,-1,-1,-1,-1,280,-1,4,-1,-1,-1,-1,,9999,0,0,1,SCT 120,1,1,-1,1,1016,RJOI 281655Z 28004KT 9999 SCT120 01/M01 A2999 RMK SLP154     T00111011=,
20180128_180000.004,1,RJOI,,,,0,20180128170000,-1,-1,-1,-1,300,-1,5,-1,-1,-1,-1,,9999,0,0,1,BKN 50,1,2,-1,1,1015,RJOI 281755Z 30005KT 9999 BKN050 02/M01 A2997 RMK SLP148     T00221006 10044 20011 58012=,
20180128_190000.004,1,RJOI,,,,0,20180128180000,-1,-1,-1,-1,280,-1,6,-1,-1,-1,-1,,9999,0,0,1,BKN 50,1,3,-1,1,1015,RJOI 281855Z 28006KT 9999 BKN050 03/M01 A2996 RMK SLP146     T00281006=,
20180128_200000.002,0,RJOI,,,,0,20180128190000,-1,-1,-1,-1,290,-1,6,-1,-1,-1,-1,,9999,0,0,1,OVC 50,1,3,-1,1,1015,RJOI 281955Z 29006KT 9999 OVC050 03/M01 A2996 RMK SLP146     T00281006=,
20180128_200000.005,1,RJOI,,,,0,20180128190000,-1,-1,-1,-1,290,-1,6,-1,-1,-1,-1,,9999,0,0,1,OVC 30,1,3,-1,1,1015,RJOI 281955Z 29006KT 9999 OVC030 03/M01 A2996 RMK SLP146     T00281006=,
20180128_210000.005,1,RJOI,,,,0,20180128200000,-1,-1,-1,-1,290,-1,7,-1,-1,-1,-1,,9999,0,0,1,OVC 30,1,3,-1,1,1015,RJOI 282055Z 29007KT 9999 OVC030 03/M01 A2997 RMK SLP149     T00331006 55000=,
20180128_220000.003,0,RJOI,,,,0,20180128210000,-1,-1,-1,-1,280,-1,6,-1,-1,-1,-1,,9999,0,0,1,BKN 30,1,3,-1,2,1016,RJOI 282155Z 28006KT 9999 BKN030 03/M02 A2999 RMK SLP155     T00331017=,
20180128_230000.002,0,RJOI,,,,0,20180128220000,-1,-1,-1,-1,290,-1,6,-1,-1,-1,-1,,9999,0,0,3,FEW 15   SCT 30   BKN 55,1,3,-1,2,1016,RJOI 282255Z 29006KT 9999 FEW015 SCT030 BKN055 03/M02 A3001 RMK     SLP163 T00331022=,
20180129_000000.005,1,RJOI,,,,0,20180128230000,-1,-1,-1,-1,280,-1,8,-1,-1,-1,-1,,9999,0,0,3,FEW 20   SCT 30   BKN 55,1,4,-1,4,1017,RJOI 282355Z 28008KT 9999 FEW020 SCT030 BKN055 04/M04 A3003 RMK     SLP170 T00441039 10044 20022 52020=,
20180129_010000.002,0,RJOI,,,,0,20180129000000,-1,-1,-1,-1,270,-1,10,-1,-1,-1,-1,,9999,0,0,3,FEW 20   SCT 30   BKN 55,1,4,-1,4,1017,RJOI 290055Z 27010KT 9999 FEW020 SCT030 BKN055 04/M04 A3004 RMK     SLP171 T00391044=,
20180129_020000.004,1,RJOI,,,,0,20180129010000,-1,-1,-1,-1,290,-1,10,-1,-1,-1,-1,,9999,0,0,3,FEW 20   BKN 30   BKN 45,1,4,-1,7,1017,RJOI 290155Z 29010KT 9999 FEW020 BKN030 BKN045 04/M07 A3004 RMK     SLP172 T00441067=,
20180129_030000.004,1,RJOI,,,,0,20180129020000,-1,-1,-1,-1,330,-1,12,-1,18,-1,-1,,9999,0,0,2,FEW 20   SCT 30,1,4,-1,7,1017,RJOI 290255Z 33012G18KT 9999 FEW020 SCT030 04/M07 A3004 RMK     SLP170 T00441072 50000=,
20180129_040000.004,1,RJOI,,,,0,20180129030000,-1,-1,-1,-1,310,-1,13,-1,19,-1,-1,,9999,0,0,2,FEW 20   SCT 30,1,4,-1,8,1017,RJOI 290355Z 31013G19KT 9999 FEW020 SCT030 04/M08 A3003 RMK     SLP167 T00441078=,
20180129_050000.004,1,RJOI,,,,0,20180129040000,-1,-1,-1,-1,290,-1,11,-1,19,-1,-1,,9999,0,0,3,FEW 20   SCT 30   SCT 40,1,3,-1,8,1017,RJOI 290455Z 29011G19KT 9999 FEW020 SCT030 SCT040 03/M08 A3002     RMK SLP165 T00331078=,
20180129_060000.004,1,RJOI,,,,0,20180129050000,-1,-1,-1,-1,290,-1,11,-1,19,-1,-1,,9999,0,0,3,FEW 20   SCT 30   BKN 50,1,3,-1,8,1017,RJOI 290555Z 29011G19KT 9999 FEW020 SCT030 BKN050 03/M08 A3003     RMK SLP168 T00331078 10056 20033 55003=,
20180129_070000.002,0,RJOI,,,,0,20180129060000,-1,-1,-1,-1,300,-1,9,-1,19,-1,-1,,9999,0,0,3,FEW 20   SCT 30   BKN 50,1,3,-1,8,1017,RJOI 290655Z 30009G19KT 9999 FEW020 SCT030 BKN050 03/M08 A3003     RMK SLP168 T00331078=,
20180129_080000.004,1,RJOI,,,,0,20180129070000,-1,-1,-1,-1,280,-1,11,-1,18,-1,-1,,9999,0,0,3,FEW 20   SCT 30   BKN 40,1,3,-1,8,1018,RJOI 290755Z 28011G18KT 9999 FEW020 SCT030 BKN040 03/M08 A3006     RMK SLP178 T00331078=,
20180129_090000.002,0,RJOI,,,,0,20180129080000,-1,-1,-1,-1,290,-1,8,-1,15,-1,-1,,9999,0,0,2,FEW 30   FEW 45,1,3,-1,8,1019,RJOI 290855Z 29008G15KT 9999 FEW030 FEW045 03/M08 A3008 RMK     SLP184 T00331078 51014=,
20180129_100000.002,0,RJOI,,,,0,20180129090000,-1,-1,-1,-1,280,-1,8,-1,-1,-1,-1,,9999,0,0,2,FEW 30   FEW 45,1,3,-1,8,1020,RJOI 290955Z 28008KT 9999 FEW030 FEW045 03/M08 A3011 RMK SLP195     T00331078=,
20180129_110000.002,0,RJOI,,,,0,20180129100000,-1,-1,-1,-1,280,-1,6,-1,-1,-1,-1,,9999,0,0,2,SCT 45   BKN 120,1,3,-1,8,1020,RJOI 291055Z 28006KT 9999 SCT045 BKN120 03/M08 A3011 RMK SLP195     T00331078=,
20180129_110000.005,1,RJOI,,,,0,20180129100000,-1,-1,-1,-1,280,-1,6,-1,-1,-1,-1,,9999,0,0,2,SCT 45   BKN 120,1,0,-1,7,1020,RJOI 291055Z 28006KT 9999 SCT045 BKN120 00/M07 A3011 RMK     SLP195 T00001067=,
20180129_120000.002,0,RJOI,,,,0,20180129110000,-1,-1,-1,-1,260,-1,3,-1,-1,-1,-1,,9999,0,0,2,SCT 60   BKN 120,1,3,-1,8,1020,RJOI 291155Z 26003KT 9999 SCT060 BKN120 03/M08 A3012 RMK SLP198     T00331078 10033 20033 51014=,
20180129_120000.004,1,RJOI,,,,0,20180129110000,-1,-1,-1,-1,260,-1,3,-1,-1,-1,-1,,9999,0,0,2,SCT 60   BKN 120,-1,1,-1,6,1020,RJOI 291155Z 26003KT 9999 SCT060 BKN120 M01/M06 A3012 RMK     SLP198 T10061056 10033 21006 51014=,
20180129_130000.002,0,RJOI,,,,0,20180129120000,-1,-1,-1,-1,260,-1,6,-1,-1,-1,-1,,9999,0,0,1,FEW 30,1,0,-1,5,1020,RJOI 291255Z 26006KT 9999 FEW030 00/M05 A3011 RMK SLP195     T00001050=,
20180129_140000.002,0,RJOI,,,,0,20180129130000,-1,-1,-1,-1,290,-1,4,-1,-1,-1,-1,,9999,0,0,1,FEW 30,-1,1,-1,4,1019,RJOI 291355Z 29004KT 9999 FEW030 M01/M04 A3010 RMK SLP191     T10111044=,
20180129_150000.002,0,RJOI,,,,0,20180129140000,-1,-1,-1,-1,290,-1,4,-1,-1,-1,-1,,9999,0,0,1,FEW 30,-1,2,-1,5,1019,RJOI 291455Z 29004KT 9999 FEW030 M02/M05 A3008 RMK SLP187     T10171050 400561017 57010=,
20180129_160000.002,0,RJOI,,,,0,20180129150000,-1,-1,-1,-1,290,-1,6,-1,-1,-1,-1,,9999,0,0,1,FEW 30,-1,1,-1,5,1019,RJOI 291555Z 29006KT 9999 FEW030 M01/M05 A3010 RMK SLP192     T10111050=,
20180129_170000.002,0,RJOI,,,,0,20180129160000,-1,-1,-1,-1,270,-1,4,-1,-1,-1,-1,,9999,0,0,1,FEW 30,-1,2,-1,5,1020,RJOI 291655Z 27004KT 9999 FEW030 M02/M05 A3012 RMK SLP199     T10171050=,
20180129_180000.002,0,RJOI,,,,0,20180129170000,-1,-1,-1,-1,270,-1,4,-1,-1,-1,-1,,9999,0,0,1,FEW 30,-1,2,-1,5,1021,RJOI 291755Z 27004KT 9999 FEW030 M02/M05 A3014 RMK SLP205     T10221050 10000 21022 53020=,
20180129_190000.002,0,RJOI,,,,0,20180129180000,-1,-1,-1,-1,330,-1,5,-1,-1,-1,-1,,9999,0,0,1,SKC -1,-1,2,-1,5,1021,RJOI 291855Z 33005KT 9999 SKC M02/M05 A3014 RMK SLP205     T10171050=,
20180129_200000.002,0,RJOI,,,,0,20180129190000,-1,-1,-1,-1,270,-1,3,-1,-1,-1,-1,,9999,0,0,1,FEW 230,-1,2,-1,5,1021,RJOI 291955Z 27003KT 9999 FEW230 M02/M05 A3015 RMK SLP208     T10221050=,
20180129_210000.002,0,RJOI,,,,0,20180129200000,-1,-1,-1,-1,290,-1,5,-1,-1,-1,-1,,9999,0,0,2,FEW 30   FEW 230,-1,3,-1,4,1021,RJOI 292055Z 29005KT 9999 FEW030 FEW230 M03/M04 A3015 RMK     SLP210 T10281044 51003=,
20180129_220000.002,0,RJOI,,,,0,20180129210000,-1,-1,-1,-1,290,-1,5,-1,-1,-1,-1,,9999,0,0,2,FEW 20   SCT 40,-1,2,-1,5,1022,RJOI 292155Z 29005KT 9999 FEW020 SCT040 M02/M05 A3017 RMK     SLP216 T10221050=,
20180129_230000.004,1,RJOI,,,,0,20180129220000,-1,-1,-1,-1,280,-1,5,-1,-1,-1,-1,,9999,0,0,2,FEW 20   SCT 40,-1,1,-1,5,1023,RJOI 292255Z 28005KT 9999 FEW020 SCT040 M01/M05 A3020 RMK     SLP225 T10111050=,
20180130_000000.005,1,RJOI,,,,0,20180129230000,-1,-1,-1,-1,260,-1,5,-1,-1,-1,-1,,9999,0,0,1,FEW 25,1,2,-1,4,1023,RJOI 292355Z 26005KT 9999 FEW025 02/M04 A3021 RMK SLP229     T00171044 10017 21028 51017=,
20180130_010000.002,0,RJOI,,,,0,20180130000000,-1,-1,-1,-1,0,-1,0,-1,-1,-1,-1,,9999,0,0,2,FEW 25   FEW 40,1,3,-1,6,1023,RJOI 300055Z 00000KT 9999 FEW025 FEW040 03/M06 A3021 RMK SLP229     T00281056=,
20180130_020000.004,1,RJOI,,,,0,20180130010000,-1,-1,-1,-1,280,-1,3,-1,-1,-1,-1,,9999,0,0,2,FEW 25   SCT 40,1,3,-1,6,1023,RJOI 300155Z 28003KT 9999 FEW025 SCT040 03/M06 A3021 RMK SLP228     T00331061=,
20180130_030000.004,1,RJOI,,,,0,20180130020000,-1,-1,-1,-1,290,-1,8,-1,-1,-1,-1,,9999,0,0,2,FEW 25   BKN 40,1,4,-1,7,1022,RJOI 300255Z 29008KT 9999 FEW025 BKN040 04/M07 A3019 RMK SLP224     T00441072 58003=,
20180130_040000.002,0,RJOI,,,,0,20180130030000,-1,-1,-1,-1,310,-1,6,-1,-1,-1,-1,,9999,0,0,2,FEW 25   SCT 40,1,4,-1,8,1022,RJOI 300355Z 31006KT 9999 FEW025 SCT040 04/M08 A3017 RMK SLP216     T00391083=,
20180130_050000.002,0,RJOI,,,,0,20180130040000,-1,-1,-1,-1,340,-1,8,-1,-1,-1,-1,,9999,0,0,3,FEW 25   SCT 40   SCT 200,1,4,-1,7,1022,RJOI 300455Z 34008KT 9999 FEW025 SCT040 SCT200 04/M07 A3017 RMK     SLP216 T00391067=,
20180130_060000.003,0,RJOI,,,,0,20180130050000,-1,-1,-1,-1,340,-1,7,-1,-1,-1,-1,,9999,0,0,3,FEW 25   SCT 40   SCT 200,1,3,-1,8,1022,RJOI 300555Z 34007KT 9999 FEW025 SCT040 SCT200 03/M08 A3017 RMK     SLP215 T00281078 10056 20000 56010=,
20180130_070000.002,0,RJOI,,,,0,20180130060000,-1,-1,-1,-1,290,-1,9,-1,-1,-1,-1,,9999,0,0,3,FEW 25   FEW 40   SCT 200,1,6,-1,8,1022,RJOI 300655Z 29009KT 9999 FEW025 FEW040 SCT200 06/M08 A3018 RMK     SLP220 T00561083=,
20180130_080000.002,0,RJOI,,,,0,20180130070000,-1,-1,-1,-1,300,-1,6,-1,-1,-1,-1,,9999,0,0,2,FEW 25   FEW 40,1,4,-1,9,1023,RJOI 300755Z 30006KT 9999 FEW025 FEW040 04/M09 A3021 RMK SLP228     T00441094=,
20180130_090000.002,0,RJOI,,,,0,20180130080000,-1,-1,-1,-1,280,-1,8,-1,-1,-1,-1,,9999,0,0,2,FEW 25   FEW 40,1,3,-1,8,1024,RJOI 300855Z 28008KT 9999 FEW025 FEW040 03/M08 A3024 RMK SLP240     T00331083 53024=,
20180130_100000.002,0,RJOI,,,,0,20180130090000,-1,-1,-1,-1,300,-1,4,-1,-1,-1,-1,,9999,0,0,2,FEW 25   FEW 40,1,2,-1,8,1025,RJOI 300955Z 30004KT 9999 FEW025 FEW040 02/M08 A3026 RMK SLP247     T00221078=,
20180130_110000.002,0,RJOI,,,,0,20180130100000,-1,-1,-1,-1,280,-1,3,-1,-1,-1,-1,,9999,0,0,2,FEW 25   FEW 40,1,1,-1,7,1025,RJOI 301055Z 28003KT 9999 FEW025 FEW040 01/M07 A3027 RMK SLP251     T00111067=,
20180130_120000.004,1,RJOI,,,,0,20180130110000,-1,-1,-1,-1,280,-1,3,-1,-1,-1,-1,,9999,0,0,2,FEW 25   BKN 50,1,1,-1,6,1025,RJOI 301155Z 28003KT 9999 FEW025 BKN050 01/M06 A3027 RMK SLP249     T00061061 10056 20006 50010=,
20180130_130000.002,0,RJOI,,,,0,20180130120000,-1,-1,-1,-1,280,-1,4,-1,-1,-1,-1,,9999,0,0,3,FEW 25   BKN 50   BKN 200,1,1,-1,6,1026,RJOI 301255Z 28004KT 9999 FEW025 BKN050 BKN200 01/M06 A3030 RMK     SLP259 T00061056=,
20180130_140000.004,1,RJOI,,,,0,20180130130000,-1,-1,-1,-1,280,-1,6,-1,-1,-1,-1,,9999,0,0,3,FEW 25   FEW 50   SCT 200,1,1,-1,6,1026,RJOI 301355Z 28006KT 9999 FEW025 FEW050 SCT200 01/M06 A3030 RMK     SLP258 T00061056=,
20180130_150000.002,0,RJOI,,,,0,20180130140000,-1,-1,-1,-1,300,-1,6,-1,-1,-1,-1,,9999,0,0,1,FEW 25,1,0,-1,5,1026,RJOI 301455Z 30006KT 9999 FEW025 00/M05 A3029 RMK SLP255     T00001050 400561028 50007=,
20180130_160000.004,1,RJOI,,,,0,20180130150000,-1,-1,-1,-1,320,-1,5,-1,-1,-1,-1,,9999,0,0,1,FEW 25,-1,1,-1,5,1025,RJOI 301555Z 32005KT 9999 FEW025 M01/M05 A3028 RMK SLP255     T10061050=,
20180130_170000.004,1,RJOI,,,,0,20180130160000,-1,-1,-1,-1,300,-1,7,-1,-1,-1,-1,,9999,0,0,1,FEW 25,-1,1,-1,5,1026,RJOI 301655Z 30007KT 9999 FEW025 M01/M05 A3030 RMK SLP262     T10061050=,
20180130_180000.004,1,RJOI,,,,0,20180130170000,-1,-1,-1,-1,300,-1,6,-1,-1,-1,-1,,9999,0,0,2,FEW 25   FEW 50,-1,1,-1,4,1026,RJOI 301755Z 30006KT 9999 FEW025 FEW050 M01/M04 A3031 RMK     SLP264 T10061044 10006 21006 51010=,
20180130_190000.002,0,RJOI,,,,0,20180130180000,-1,-1,-1,-1,290,-1,6,-1,-1,-1,-1,,9999,0,0,1,FEW 25,-1,1,-1,4,1026,RJOI 301855Z 29006KT 9999 FEW025 M01/M04 A3030 RMK SLP259     T10111044=,
20180130_200000.004,1,RJOI,,,,0,20180130190000,-1,-1,-1,-1,310,-1,7,-1,-1,-1,-1,,9999,0,0,1,FEW 25,-1,1,-1,4,1026,RJOI 301955Z 31007KT 9999 FEW025 M01/M04 A3031 RMK SLP263     T10111044=,
20180130_210000.004,1,RJOI,,,,0,20180130200000,-1,-1,-1,-1,300,-1,7,-1,-1,-1,-1,,9999,0,0,1,FEW 25,-1,2,-1,4,1027,RJOI 302055Z 30007KT 9999 FEW025 M02/M04 A3033 RMK SLP270     T10171044 53003=,
20180130_220000.002,0,RJOI,,,,0,20180130210000,-1,-1,-1,-1,310,-1,6,-1,-1,-1,-1,,9999,0,0,3,FEW 10   FEW 25   SCT 150,-1,2,-1,4,1027,RJOI 302155Z 31006KT 9999 FEW010 FEW025 SCT150 M02/M04 A3034     RMK SLP274 T10171044=,
20180130_230000.004,1,RJOI,,,,0,20180130220000,-1,-1,-1,-1,300,-1,6,-1,-1,-1,-1,,9999,0,0,2,FEW 20   FEW 150,-1,1,-1,4,1028,RJOI 302255Z 30006KT 9999 FEW020 FEW150 M01/M04 A3036 RMK     SLP279 T10111044=,
20180131_000000.004,1,RJOI,,,,0,20180130230000,-1,-1,-1,-1,300,-1,6,-1,-1,-1,-1,,9999,0,0,1,BKN 230,1,1,-1,4,1028,RJOI 302355Z 30006KT 9999 BKN230 01/M04 A3036 RMK SLP279     T00061044 10006 21017 51010=,
20180131_010000.002,0,RJOI,,,,0,20180131000000,-1,-1,-1,-1,320,-1,4,-1,-1,-1,-1,,9999,0,0,1,BKN 230,1,4,-1,4,1028,RJOI 310055Z 32004KT 9999 BKN230 04/M04 A3036 RMK SLP281     T00391044=,
20180131_010000.004,1,RJOI,,,,0,20180131000000,-1,-1,-1,-1,320,-1,4,-1,-1,-1,-1,,9999,0,0,2,FEW 20   BKN 230,1,4,-1,4,1028,RJOI 310055Z 32004KT 9999 FEW020 BKN230 04/M04 A3036 RMK     SLP281 T00391044=,
20180131_020000.002,0,RJOI,,,,0,20180131010000,-1,-1,-1,-1,170,-1,5,-1,-1,-1,-1,,-1,0,0,3,FEW 30   BKN 180   OVC 230,1,6,-1,6,1028,RJOI 310155Z 17005KT FEW030 BKN180 OVC230 06/M06 A3036 RMK     SLP282 T00561056=,
20180131_030000.002,0,RJOI,,,,0,20180131020000,-1,-1,-1,-1,120,-1,6,-1,-1,-1,-1,,9999,0,0,3,FEW 30   BKN 140   OVC 210,1,6,-1,3,1027,RJOI 310255Z 12006KT 9999 FEW030 BKN140 OVC210 06/M03 A3032 RMK     SLP268 T00561028 58010=,
20180131_040000.002,0,RJOI,,,,0,20180131030000,-1,-1,-1,-1,130,-1,6,-1,-1,-1,-1,,9999,0,0,3,FEW 25   BKN 160   OVC 210,1,7,-1,2,1026,RJOI 310355Z 13006KT 9999 FEW025 BKN160 OVC210 07/M02 A3029 RMK     SLP255 T00671022=,
20180131_050000.002,0,RJOI,,,,0,20180131040000,-1,-1,-1,-1,110,-1,4,-1,-1,-1,-1,,9999,0,0,3,FEW 25   BKN 180   OVC 250,1,6,-1,3,1024,RJOI 310455Z 11004KT 9999 FEW025 BKN180 OVC250 06/M03 A3025 RMK     SLP244 T00611033=,
20180131_060000.005,1,RJOI,,,,0,20180131050000,-1,-1,-1,-1,110,-1,3,-1,-1,-1,-1,,9999,0,0,3,FEW 25   BKN 180   OVC 250,1,7,-1,3,1025,RJOI 310555Z 11003KT 9999 FEW025 BKN180 OVC250 07/M03 A3026 RMK     SLP245 T00671033 10072 20006 56020=,
20180131_070000.003,0,RJOI,,,,0,20180131060000,-1,-1,-1,-1,90,-1,4,-1,-1,-1,-1,,9999,0,0,2,FEW 30   BKN 230,1,7,-1,3,1024,RJOI 310655Z 09004KT 9999 FEW030 BKN230 07/M03 A3025 RMK SLP242     T00721033=,
20180131_080000.006,1,RJOI,,,,0,20180131070000,-1,-1,-1,-1,150,-1,3,-1,-1,-1,-1,,9999,0,0,3,FEW 30   SCT 120   BKN 230,1,7,-1,4,1025,RJOI 310755Z 15003KT 9999 FEW030 SCT120 BKN230 07/M04 A3026 RMK     SLP246 T00671039=,
20180131_090000.004,1,RJOI,,,,0,20180131080000,-1,-1,-1,-1,0,-1,0,-1,-1,-1,-1,,9999,0,0,3,FEW 30   SCT 120   BKN 230,1,6,-1,3,1025,RJOI 310855Z 00000KT 9999 FEW030 SCT120 BKN230 06/M03 A3027 RMK     SLP250 CONTRAILS OVHD T00611033 55000=,
20180131_100000.002,0,RJOI,,,,0,20180131090000,-1,-1,-1,-1,290,-1,4,-1,-1,-1,-1,,9999,0,0,3,FEW 30   SCT 120   BKN 230,1,5,-1,1,1025,RJOI 310955Z 29004KT 9999 FEW030 SCT120 BKN230 05/M01 A3027 RMK     SLP250 CONTRAILS OVHD T00501011=,
20180131_110000.002,0,RJOI,,,,0,20180131100000,-1,-1,-1,-1,280,-1,3,-1,-1,-1,-1,,9999,0,0,3,FEW 25   SCT 120   BKN 230,1,4,-1,2,1024,RJOI 311055Z 28003KT 9999 FEW025 SCT120 BKN230 04/M02 A3024 RMK     SLP240 T00391017=,
20180131_120000.002,0,RJOI,,,,0,20180131110000,-1,-1,-1,-1,310,-1,6,-1,-1,-1,-1,,9999,0,0,3,FEW 25   BKN 65   OVC 120,1,4,-1,2,1025,RJOI 311155Z 31006KT 9999 FEW025 BKN065 OVC120 04/M02 A3027 RMK     SLP251 T00391017 10078 20039 53003=,
20180131_130000.001,0,RJOI,,,,0,20180131120000,-1,-1,-1,-1,290,-1,5,-1,-1,-1,-1,,9999,0,0,3,FEW 25   BKN 65   OVC 140,1,4,-1,2,1025,RJOI 311255Z 29005KT 9999 FEW025 BKN065 OVC140 04/M02 A3026 RMK     SLP246 T00391017=,
20180131_140000.002,0,RJOI,,,,0,20180131130000,-1,-1,-1,-1,300,-1,5,-1,-1,-1,-1,,9999,0,0,3,FEW 25   BKN 65   OVC 100,1,4,-1,2,1025,RJOI 311355Z 30005KT 9999 FEW025 BKN065 OVC100 04/M02 A3027 RMK     SLP251 T00391017=,
20180131_150000.004,1,RJOI,,,,0,20180131140000,-1,-1,-1,-1,300,-1,6,-1,-1,-1,-1,,9999,0,0,3,FEW 25   BKN 65   OVC 100,1,4,-1,2,1025,RJOI 311455Z 30006KT 9999 FEW025 BKN065 OVC100 04/M02 A3027 RMK     SLP250 T00391017 400781017 56003=,
20180131_160000.002,0,RJOI,,,,0,20180131150000,-1,-1,-1,-1,300,-1,7,-1,-1,-1,-1,,9999,0,0,3,FEW 25   SCT 60   BKN 80,1,3,-1,2,1025,RJOI 311555Z 30007KT 9999 FEW025 SCT060 BKN080 03/M02 A3026 RMK     SLP248 T00331017=,
20180131_170000.002,0,RJOI,,,,0,20180131160000,-1,-1,-1,-1,300,-1,5,-1,-1,-1,-1,,9999,0,0,3,FEW 25   BKN 60   OVC 80,1,3,-1,2,1025,RJOI 311655Z 30005KT 9999 FEW025 BKN060 OVC080 03/M02 A3026 RMK     SLP245 T00331017=,
20180131_180000.002,0,RJOI,,,,0,20180131170000,-1,-1,-1,-1,310,-1,4,-1,-1,-1,-1,,9999,0,0,3,FEW 25   BKN 60   OVC 80,1,4,-1,2,1024,RJOI 311755Z 31004KT 9999 FEW025 BKN060 OVC080 04/M02 A3025 RMK     SLP244 T00391017 10039 20033 56003=,
20180131_190000.005,1,RJOI,,,,0,20180131180000,-1,-1,-1,-1,0,-1,0,-1,-1,-1,-1,,9999,0,0,3,FEW 25   BKN 25   OVC 60,1,4,-1,2,1024,RJOI 311855Z 00000KT 9999 FEW025 BKN025 OVC060 04/M02 A3025 RMK     SLP242 T00391017=,
20180131_190000.006,1,RJOI,,,,0,20180131180000,-1,-1,-1,-1,0,-1,0,-1,-1,-1,-1,,9999,0,0,3,FEW 25   BKN 40   OVC 60,1,4,-1,2,1024,RJOI 311855Z 00000KT 9999 FEW025 BKN040 OVC060 04/M02 A3025     RMK SLP242 T00391017=,
20180131_200000.001,0,RJOI,,,,0,20180131190000,-1,-1,-1,-1,290,-1,3,-1,-1,-1,-1,,9999,0,1,3,FEW 20   BKN 30   OVC 40,1,4,-1,2,1024,RJOI 311955Z 29003KT 9999 -RA FEW020 BKN030 OVC040 04/M02 A3025     RMK RAB33 SLP241 P0000 T00441017=,- RA
20180131_210000.004,1,RJOI,,,,0,20180131200000,-1,-1,-1,-1,60,-1,4,-1,-1,-1,-1,,9999,0,1,3,FEW 20   BKN 30   OVC 45,1,4,-1,1,1024,RJOI 312055Z 06004KT 9999 -RA FEW020 BKN030 OVC045 04/M01 A3025     RMK SLP243 P0000 60000 T00441011 56003=,- RA
20180131_220000.004,1,RJOI,,,,0,20180131210000,-1,-1,-1,-1,0,-1,0,-1,-1,-1,-1,,9999,0,0,3,FEW 20   BKN 35   OVC 60,1,4,-1,1,1025,RJOI 312155Z 00000KT 9999 FEW020 BKN035 OVC060 04/M01 A3027 RMK     RAE16 SLP248 P0000 T00391006=,
20180131_230000.002,0,RJOI,,,,0,20180131220000,-1,-1,-1,-1,10,-1,2,-1,-1,-1,-1,,9999,0,1,3,FEW 10   BKN 20   OVC 40,1,4,-1,1,1025,RJOI 312255Z 01002KT 9999 -RA FEW010 BKN020 OVC040 04/M01 A3028     RMK RAB2157 SLP252 P0000 T00391006=,- RA
20180201_000000.005,0,RJOI,,,,0,20180131230000,-1,-1,-1,-1,60,-1,7,-1,-1,-1,-1,,9999,0,1,3,FEW 7   BKN 20   OVC 40,1,4,1,1,1025,RJOI 312355Z 06007KT 9999 -RA FEW007 BKN020 OVC040 04/01 A3028     RMK SLP254 P0000 60000 T00390006 10044 20033 51014=,- RA
20180201_010000.002,0,RJOI,,,,0,20180201000000,-1,-1,-1,-1,40,-1,7,-1,-1,-1,-1,,9999,0,1,3,SCT 7   BKN 20   OVC 40,1,4,1,1,1026,RJOI 010055Z 04007KT 9999 -RA SCT007 BKN020 OVC040 04/01 A3029     RMK SLP255 WR P0001 T00390011=,- RA
20180201_020000.002,0,RJOI,,,,0,20180201010000,-1,-1,-1,-1,30,-1,9,-1,-1,-1,-1,,9999,0,1,3,SCT 10   BKN 20   OVC 50,1,4,1,1,1025,RJOI 010155Z 03009KT 9999 -RA SCT010 BKN020 OVC050 04/01 A3028     RMK SLP252 P0000 T00440006=,- RA
20180201_030000.003,0,RJOI,,,,0,20180201020000,-1,-1,-1,-1,30,-1,10,-1,-1,-1,-1,,9999,0,0,3,SCT 15   BKN 30   BKN 80,1,6,1,1,1024,RJOI 010255Z 03010KT 9999 SCT015 BKN030 BKN080 06/01 A3025 RMK     RAE22 SLP244 P0000 60001 T00560006 58010=,
20180201_040000.003,0,RJOI,,,,0,20180201030000,-1,-1,-1,-1,20,-1,10,-1,-1,-1,-1,,9999,0,0,3,FEW 20   SCT 30   BKN 80,1,6,-1,1,1024,RJOI 010355Z 02010KT 9999 FEW020 SCT030 BKN080 06/M01 A3023 RMK     SLP237 T00561006=,
20180201_050000.002,0,RJOI,,,,0,20180201040000,-1,-1,-1,-1,60,-1,7,-1,-1,-1,-1,,9999,0,0,3,SCT 25   SCT 80   BKN 120,1,6,-1,1,1023,RJOI 010455Z 06007KT 9999 SCT025 SCT080 BKN120 06/M01 A3021 RMK     SLP231 T00611006=,
20180201_060000.002,0,RJOI,,,,0,20180201050000,-1,-1,-1,-1,80,-1,7,-1,-1,-1,-1,,9999,0,0,2,FEW 25   SCT 100,1,7,-1,1,1023,RJOI 010555Z 08007KT 9999 FEW025 SCT100 07/M01 A3021 RMK SLP228     60001 T00721006 10072 20039 56017=,
20180201_070000.002,0,RJOI,,,,0,20180201060000,-1,-1,-1,-1,110,-1,4,-1,-1,-1,-1,,9999,0,0,2,FEW 20   SCT 35,1,7,-1,1,1023,RJOI 010655Z 11004KT 9999 FEW020 SCT035 07/M01 A3021 RMK SLP229     T00671006=,
20180201_080000.002,0,RJOI,,,,0,20180201070000,-1,-1,-1,-1,150,-1,5,-1,-1,-1,-1,,9999,0,0,2,FEW 20   SCT 35,1,6,1,0,1023,RJOI 010755Z 15005KT 9999 FEW020 SCT035 06/00 A3022 RMK SLP234     T00560000=,
20180201_090000.002,0,RJOI,,,,0,20180201080000,-1,-1,-1,-1,250,-1,4,-1,-1,-1,-1,,9999,0,0,2,FEW 20   SCT 35,1,5,1,1,1024,RJOI 010855Z 25004KT 9999 FEW020 SCT035 05/01 A3024 RMK SLP239     T00500006 53010=,
20180201_100000.002,0,RJOI,,,,0,20180201090000,-1,-1,-1,-1,310,-1,4,-1,-1,-1,-1,,9999,0,0,2,FEW 20   SCT 35,1,4,1,0,1025,RJOI 010955Z 31004KT 9999 FEW020 SCT035 04/00 A3026 RMK SLP245     T00390000=,
20180201_110000.002,0,RJOI,,,,0,20180201100000,-1,-1,-1,-1,280,-1,3,-1,-1,-1,-1,,9999,0,0,2,FEW 20   SCT 35,1,3,1,0,1025,RJOI 011055Z 28003KT 9999 FEW020 SCT035 03/00 A3026 RMK SLP247     T00330000=,
20180201_120000.002,0,RJOI,,,,0,20180201110000,-1,-1,-1,-1,300,-1,6,-1,-1,-1,-1,,9999,0,0,2,FEW 20   SCT 35,1,3,1,0,1025,RJOI 011155Z 30006KT 9999 FEW020 SCT035 03/00 A3027 RMK SLP249     T00280000 10078 20028 51010=,
20180201_130000.002,0,RJOI,,,,0,20180201120000,-1,-1,-1,-1,310,-1,5,-1,-1,-1,-1,,9999,0,0,2,FEW 20   FEW 35,1,2,-1,1,1024,RJOI 011255Z 31005KT 9999 FEW020 FEW035 02/M01 A3025 RMK SLP245     T00221006=,
20180201_140000.004,1,RJOI,,,,0,20180201130000,-1,-1,-1,-1,300,-1,7,-1,-1,-1,-1,,9999,0,0,1,FEW 20,1,2,-1,1,1026,RJOI 011355Z 30007KT 9999 FEW020 02/M01 A3029 RMK SLP255     T00221011=,
20180201_150000.002,0,RJOI,,,,0,20180201140000,-1,-1,-1,-1,300,-1,8,-1,-1,-1,-1,,9999,0,0,1,FEW 20,1,2,-1,1,1025,RJOI 011455Z 30008KT 9999 FEW020 02/M01 A3028 RMK SLP253     T00171011 400780017 53003=,
20180201_160000.002,0,RJOI,,,,0,20180201150000,-1,-1,-1,-1,300,-1,7,-1,-1,-1,-1,,9999,0,0,1,FEW 20,1,1,-1,1,1025,RJOI 011555Z 30007KT 9999 FEW020 01/M01 A3026 RMK SLP246     T00111011=,
20180201_170000.002,0,RJOI,,,,0,20180201160000,-1,-1,-1,-1,300,-1,8,-1,-1,-1,-1,,9999,0,0,1,FEW 20,1,1,-1,1,1025,RJOI 011655Z 30008KT 9999 FEW020 01/M01 A3026 RMK SLP246     T00111011=,
20180201_180000.002,0,RJOI,,,,0,20180201170000,-1,-1,-1,-1,310,-1,6,-1,-1,-1,-1,,9999,0,0,1,FEW 20,1,1,-1,2,1024,RJOI 011755Z 31006KT 9999 FEW020 01/M02 A3025 RMK SLP244     T00061017 10028 20006 56010=,
20180201_190000.001,0,RJOI,,,,0,20180201180000,-1,-1,-1,-1,310,-1,7,-1,-1,-1,-1,,9999,0,0,1,FEW 20,1,0,-1,2,1024,RJOI 011855Z 31007KT 9999 FEW020 00/M02 A3024 RMK SLP239     T00001017=,
20180201_200000.001,0,RJOI,,,,0,20180201190000,-1,-1,-1,-1,300,-1,7,-1,-1,-1,-1,,9999,0,0,1,FEW 20,1,1,-1,2,1024,RJOI 011955Z 30007KT 9999 FEW020 01/M02 A3023 RMK SLP236     T00061017=,
20180201_210000.002,0,RJOI,,,,0,20180201200000,-1,-1,-1,-1,310,-1,6,-1,-1,-1,-1,,9999,0,0,2,FEW 20   SCT 100,1,0,-1,2,1024,RJOI 012055Z 31006KT 9999 FEW020 SCT100 00/M02 A3024 RMK SLP239     T00001022 55003=,
20180201_220000.002,0,RJOI,,,,0,20180201210000,-1,-1,-1,-1,310,-1,6,-1,-1,-1,-1,,9999,0,0,3,FEW 20   SCT 100   SCT 180,1,0,-1,2,1023,RJOI 012155Z 31006KT 9999 FEW020 SCT100 SCT180 00/M02 A3022 RMK     SLP234 T00001022=,
20180201_230000.003,0,RJOI,,,,0,20180201220000,-1,-1,-1,-1,300,-1,6,-1,-1,-1,-1,,9999,0,0,3,FEW 25   SCT 50   BKN 180,1,1,-1,2,1024,RJOI 012255Z 30006KT 9999 FEW025 SCT050 BKN180 01/M02 A3025 RMK     SLP241 T00061017=,
20180202_000000.004,0,RJOI,,,,0,20180201230000,-1,-1,-1,-1,300,-1,4,-1,-1,-1,-1,,9999,0,0,3,FEW 25   SCT 50   BKN 180,1,3,-1,1,1025,RJOI 012355Z 30004KT 9999 FEW025 SCT050 BKN180 03/M01 A3027 RMK     SLP249 T00281006 10028 20000 53010=,
20180202_010000.002,0,RJOI,,,,0,20180202000000,-1,-1,-1,-1,310,-1,4,-1,-1,-1,-1,,9999,0,0,3,FEW 20   SCT 140   BKN 200,1,5,1,0,1025,RJOI 020055Z 31004KT 9999 FEW020 SCT140 BKN200 05/00 A3026 RMK     SLP247 T00500000=,
20180202_020000.002,0,RJOI,,,,0,20180202010000,-1,-1,-1,-1,100,-1,3,-1,-1,-1,-1,,9999,0,0,3,FEW 20   SCT 140   BKN 200,1,7,1,0,1025,RJOI 020155Z 10003KT 9999 FEW020 SCT140 BKN200 07/00 A3027 RMK     SLP250 T00670000=,
20180202_030000.002,0,RJOI,,,,0,20180202020000,-1,-1,-1,-1,100,-1,4,-1,-1,-1,-1,,9999,0,0,3,FEW 20   SCT 140   BKN 200,1,7,1,0,1024,RJOI 020255Z 10004KT 9999 FEW020 SCT140 BKN200 07/00 A3024 RMK     SLP241 T00670000 58007=,
20180202_040000.002,0,RJOI,,,,0,20180202030000,-1,-1,-1,-1,110,-1,4,-1,-1,-1,-1,,9999,0,0,3,FEW 20   SCT 140   OVC 200,1,8,1,0,1023,RJOI 020355Z 11004KT 9999 FEW020 SCT140 OVC200 08/00 A3022 RMK     SLP234 T00780000=,
20180202_050000.001,0,RJOI,,,,0,20180202040000,-1,-1,-1,-1,170,-1,3,-1,-1,-1,-1,,9999,0,0,3,FEW 20   BKN 55   OVC 200,1,7,1,0,1023,RJOI 020455Z 17003KT 9999 FEW020 BKN055 OVC200 07/00 A3020 RMK     SLP227 T00720000=,
20180202_060000.004,1,RJOI,,,,0,20180202050000,-1,-1,-1,-1,150,-1,4,-1,-1,-1,-1,,9999,0,0,3,FEW 20   BKN 55   OVC 200,1,8,1,1,1023,RJOI 020555Z 15004KT 9999 FEW020 BKN055 OVC200 08/01 A3020 RMK     SLP225 T00780006 10078 20028 56017=,
20180202_070000.002,0,RJOI,,,,0,20180202060000,-1,-1,-1,-1,150,-1,3,-1,-1,-1,-1,,9999,0,0,3,FEW 20   BKN 50   OVC 200,1,8,1,1,1022,RJOI 020655Z 15003KT 9999 FEW020 BKN050 OVC200 08/01 A3019 RMK     SLP222 T00780011=,
20180202_080000.002,0,RJOI,,,,0,20180202070000,-1,-1,-1,-1,180,-1,3,-1,-1,-1,-1,,9999,0,0,3,FEW 30   BKN 45   BKN 200,1,8,1,0,1022,RJOI 020755Z 18003KT 9999 FEW030 BKN045 BKN200 08/00 A3018 RMK     SLP218 T00780000=,
20180202_090000.005,1,RJOI,,,,0,20180202080000,-1,-1,-1,-1,0,-1,0,-1,-1,-1,-1,,9999,0,0,3,FEW 30   SCT 45   BKN 200,1,7,1,1,1022,RJOI 020855Z 00000KT 9999 FEW030 SCT045 BKN200 07/01 A3018     RMK SLP218 T00670011 56007=,
20180202_090000.005,1,RJOI,,,,0,20180202080000,-1,-1,-1,-1,0,-1,0,-1,-1,-1,-1,,9999,0,0,3,FEW 30   SCT 45   BKN 200,1,7,1,1,1022,RJOI 020855Z 00000KT 9999 FEW030 SCT045 BKN200 07/01 A3018 RMK     SLP218 T00670011=,
20180202_100000.003,0,RJOI,,,,0,20180202090000,-1,-1,-1,-1,290,-1,3,-1,-1,-1,-1,,9999,0,0,3,FEW 30   SCT 35   SCT 200,1,5,1,1,1022,RJOI 020955Z 29003KT 9999 FEW030 SCT035 SCT200 05/01 A3018 RMK     SLP218 T00500011=,
20180202_110000.002,0,RJOI,,,,0,20180202100000,-1,-1,-1,-1,290,-1,4,-1,-1,-1,-1,,9999,0,0,2,SCT 30   BKN 45,1,5,1,1,1022,RJOI 021055Z 29004KT 9999 SCT030 BKN045 05/01 A3018 RMK SLP218     T00500011=,
20180202_120000.002,0,RJOI,,,,0,20180202110000,-1,-1,-1,-1,280,-1,3,-1,-1,-1,-1,,9999,0,0,2,FEW 30   BKN 120,1,4,1,1,1022,RJOI 021155Z 28003KT 9999 FEW030 BKN120 04/01 A3017 RMK SLP216     T00390011 10078 20039 58003=,
20180202_130000.001,0,RJOI,,,,0,20180202120000,-1,-1,-1,-1,300,-1,3,-1,-1,-1,-1,,9999,0,0,2,FEW 30   BKN 120,1,4,1,1,1022,RJOI 021255Z 30003KT 9999 FEW030 BKN120 04/01 A3017 RMK SLP217     T00390011=,
20180202_140000.002,0,RJOI,,,,0,20180202130000,-1,-1,-1,-1,300,-1,7,-1,-1,-1,-1,,9999,0,0,3,SCT 45   BKN 120   BKN 200,1,4,1,1,1021,RJOI 021355Z 30007KT 9999 SCT045 BKN120 BKN200 04/01 A3016 RMK     SLP214 T00440011=,
20180202_150000.002,0,RJOI,,,,0,20180202140000,-1,-1,-1,-1,310,-1,5,-1,-1,-1,-1,,9999,0,0,3,SCT 30   BKN 45   BKN 200,1,4,1,1,1021,RJOI 021455Z 31005KT 9999 SCT030 BKN045 BKN200 04/01 A3016 RMK     SLP212 T00440011 400780000 58003=,
20180202_160000.002,0,RJOI,,,,0,20180202150000,-1,-1,-1,-1,300,-1,5,-1,-1,-1,-1,,9999,0,1,3,SCT 20   BKN 30   BKN 45,1,5,1,1,1021,RJOI 021555Z 30005KT 9999 -SHSNRA SCT020 BKN030 BKN045 05/01     A3016 RMK SHSNRAB45 SLP212 P0000 T00500011=,- SN RA SH
20180202_170000.002,0,RJOI,,,,0,20180202160000,-1,-1,-1,-1,300,-1,5,-1,-1,-1,-1,,9999,0,0,2,SCT 30   OVC 45,1,5,1,2,1021,RJOI 021655Z 30005KT 9999 SCT030 OVC045 05/02 A3015 RMK     SHSNE08SHRAE50 SLP210 P0000 T00500017=,
20180202_180000.001,0,RJOI,,,,0,20180202170000,-1,-1,-1,-1,300,-1,6,-1,-1,-1,-1,,9999,0,0,3,FEW 15   BKN 25   OVC 40,1,5,1,2,1021,RJOI 021755Z 30006KT 9999 FEW015 BKN025 OVC040 05/02 A3015 RMK     SHRAB18E31 SLP210 P0000 60000 T00500017 10050 20033 54000=,
20180202_190000.001,0,RJOI,,,,0,20180202180000,-1,-1,-1,-1,280,-1,9,-1,-1,-1,-1,,9999,0,0,3,FEW 30   SCT 45   BKN 80,1,5,1,1,1021,RJOI 021855Z 28009KT 9999 FEW030 SCT045 BKN080 05/01 A3015 RMK     SHRAB1758E18 SLP208 P0000 T00500006=,
20180202_200000.001,0,RJOI,,,,0,20180202190000,-1,-1,-1,-1,290,-1,5,-1,-1,-1,-1,,9999,0,0,3,FEW 30   BKN 45   BKN 80,1,5,1,0,1020,RJOI 021955Z 29005KT 9999 FEW030 BKN045 BKN080 05/00 A3013 RMK     SLP203 T00500000=,
20180202_210000.002,0,RJOI,,,,0,20180202200000,-1,-1,-1,-1,330,-1,4,-1,-1,-1,-1,,9999,0,0,2,FEW 30   SCT 60,1,4,1,0,1021,RJOI 022055Z 33004KT 9999 FEW030 SCT060 04/00 A3014 RMK SLP206     60000 T00390000 55003=,
20180202_220000.002,0,RJOI,,,,0,20180202210000,-1,-1,-1,-1,310,-1,5,-1,-1,-1,-1,,9999,0,0,2,FEW 30   SCT 45,1,3,1,0,1021,RJOI 022155Z 31005KT 9999 FEW030 SCT045 03/00 A3015 RMK SLP209     T00330000=,
20180202_230000.005,1,RJOI,,,,0,20180202220000,-1,-1,-1,-1,310,-1,6,-1,-1,-1,-1,,9999,0,0,3,SCT 30   BKN 45   BKN 100,1,3,1,0,1021,RJOI 022255Z 31006KT 9999 SCT030 BKN045 BKN100 03/00 A3015 RMK     SLP211 T00330000=,
20180203_010000.001,0,RJOI,,,,0,20180203000000,-1,-1,-1,-1,310,-1,3,-1,-1,-1,-1,,9999,0,0,3,SCT 30   BKN 45   BKN 120,1,7,-1,1,1021,RJOI 030055Z 31003KT 9999 SCT030 BKN045 BKN120 07/M01 A3016 RMK     SLP211 T00671006=,
20180203_020000.002,0,RJOI,,,,0,20180203010000,-1,-1,-1,-1,290,-1,8,-1,-1,-1,-1,,9999,0,0,3,FEW 30   SCT 50   BKN 120,1,7,-1,2,1021,RJOI 030155Z 29008KT 9999 FEW030 SCT050 BKN120 07/M02 A3014 RMK     SLP206 T00721022=,
20180203_030000.002,0,RJOI,,,,0,20180203020000,-1,-1,-1,-1,999,-1,4,-1,-1,-1,-1,,9999,0,0,3,SCT 30   SCT 50   BKN 120,1,8,-1,1,1020,RJOI 030255Z VRB04KT 9999 SCT030 SCT050 BKN120 08/M01 A3012 RMK     SLP200 T00831011 57014=,
20180203_040000.002,0,RJOI,,,,0,20180203030000,-1,-1,-1,-1,290,-1,10,-1,-1,-1,-1,,9999,0,0,1,SCT 40,1,9,-1,7,1019,RJOI 030355Z 29010KT 9999 SCT040 09/M07 A3009 RMK SLP190     T00941072=,
20180203_050000.004,1,RJOI,,,,0,20180203040000,-1,-1,-1,-1,290,-1,14,-1,20,-1,-1,,9999,0,0,2,SCT 40   SCT 170,1,9,-1,7,1019,RJOI 030455Z 29014G20KT 9999 SCT040 SCT170 09/M07 A3009 RMK     SLP188 T00891072=,
20180203_060000.002,0,RJOI,,,,0,20180203050000,-1,-1,-1,-1,300,-1,9,-1,17,-1,-1,,9999,0,0,2,FEW 40   SCT 150,1,8,-1,6,1019,RJOI 030555Z 30009G17KT 9999 FEW040 SCT150 08/M06 A3008 RMK     SLP187 T00831056 10100 20050 56014=,
20180203_070000.005,1,RJOI,,,,0,20180203060000,-1,-1,-1,-1,320,-1,9,-1,-1,-1,-1,,-1,0,0,2,FEW 30   SCT 150,1,8,-1,6,1019,RJOI 030655Z 32009KT FEW030 SCT150 08/M06 A3009 RMK SLP188     T00831061=,
20180203_070000.006,1,RJOI,,,,0,20180203060000,-1,-1,-1,-1,320,-1,9,-1,-1,-1,-1,,9999,0,0,2,FEW 30   SCT 150,1,8,-1,6,1019,RJOI 030655Z 32009KT 9999 FEW030 SCT150 08/M06 A3009 RMK     SLP188 T00831061=,
20180203_080000.002,0,RJOI,,,,0,20180203070000,-1,-1,-1,-1,320,-1,9,-1,-1,-1,-1,,9999,0,0,1,FEW 45,1,6,-1,4,1019,RJOI 030755Z 32009KT 9999 FEW045 06/M04 A3010 RMK SLP191     T00611039=,
20180203_090000.002,0,RJOI,,,,0,20180203080000,-1,-1,-1,-1,300,-1,7,-1,-1,-1,-1,,9999,0,0,2,FEW 30   SCT 100,1,5,-1,2,1020,RJOI 030855Z 30007KT 9999 FEW030 SCT100 05/M02 A3011 RMK SLP194     T00501022 53007=,
20180203_100000.002,0,RJOI,,,,0,20180203090000,-1,-1,-1,-1,260,-1,5,-1,-1,-1,-1,,9999,0,0,2,FEW 40   SCT 50,1,4,-1,3,1020,RJOI 030955Z 26005KT 9999 FEW040 SCT050 04/M03 A3012 RMK SLP198     T00391028=,
20180203_110000.004,1,RJOI,,,,0,20180203100000,-1,-1,-1,-1,240,-1,8,-1,-1,-1,-1,,9999,0,0,2,FEW 30   SCT 70,1,4,-1,1,1020,RJOI 031055Z 24008KT 9999 FEW030 SCT070 04/M01 A3012 RMK SLP200     T00391011=,
20180203_120000.002,0,RJOI,,,,0,20180203110000,-1,-1,-1,-1,250,-1,6,-1,-1,-1,-1,,9999,0,0,2,FEW 30   FEW 70,1,2,-1,2,1020,RJOI 031155Z 25006KT 9999 FEW030 FEW070 02/M02 A3012 RMK SLP200     T00221022 10083 20022 51007=,
20180203_130000.002,0,RJOI,,,,0,20180203120000,-1,-1,-1,-1,250,-1,4,-1,-1,-1,-1,,9999,0,0,2,FEW 30   FEW 70,1,2,-1,4,1021,RJOI 031255Z 25004KT 9999 FEW030 FEW070 02/M04 A3014 RMK SLP206     T00221039=,
20180203_140000.002,0,RJOI,,,,0,20180203130000,-1,-1,-1,-1,240,-1,5,-1,-1,-1,-1,,9999,0,0,3,FEW 30   BKN 50   BKN 70,1,3,-1,3,1021,RJOI 031355Z 24005KT 9999 FEW030 BKN050 BKN070 03/M03 A3014 RMK     SLP205 T00281033=,
20180203_150000.002,0,RJOI,,,,0,20180203140000,-1,-1,-1,-1,250,-1,7,-1,-1,-1,-1,,9999,0,0,3,FEW 30   SCT 60   BKN 220,1,2,-1,3,1021,RJOI 031455Z 25007KT 9999 FEW030 SCT060 BKN220 02/M03 A3014 RMK     SLP205 T00221028 401000017 51007=,
20180203_160000.004,1,RJOI,,,,0,20180203150000,-1,-1,-1,-1,270,-1,5,-1,-1,-1,-1,,9999,0,1,2,FEW 30   BKN 55,1,2,-1,2,1020,RJOI 031555Z 27005KT 9999 -SHSN FEW030 BKN055 02/M02 A3013 RMK     SHSNB1554 SLP204 P0000 T00171022=,- SN SH
20180203_170000.004,1,RJOI,,,,0,20180203160000,-1,-1,-1,-1,270,-1,4,-1,-1,-1,-1,,9999,0,1,3,FEW 30   FEW 55   SCT 220,1,1,-1,2,1020,RJOI 031655Z 27004KT 9999 -SHSN FEW030 FEW055 SCT220 01/M02     A3012 RMK SLP199 P0000 T00061022=,- SN SH
20180203_180000.005,1,RJOI,,,,0,20180203170000,-1,-1,-1,-1,0,-1,0,-1,-1,-1,-1,,9999,0,1,2,FEW 25   BKN 35,1,1,-1,1,1020,RJOI 031755Z 00000KT 9999 -SHSN FEW025 BKN035 01/M01 A3011 RMK     SLP196 P0000 60000 T00061011 10028 20006 56010=,- SN SH
20180203_190000.004,1,RJOI,,,,0,20180203180000,-1,-1,-1,-1,330,-1,5,-1,-1,-1,-1,,9999,0,0,3,FEW 25   SCT 45   BKN 55,1,1,-1,3,1020,RJOI 031855Z 33005KT 9999 FEW025 SCT045 BKN055 01/M03 A3011 RMK     SHSNE47 SLP195 P0000 T00061033=,
20180203_200000.002,0,RJOI,,,,0,20180203190000,-1,-1,-1,-1,250,-1,11,-1,-1,-1,-1,,9999,0,0,3,FEW 25   FEW 45   SCT 55,1,1,-1,5,1019,RJOI 031955Z 25011KT 9999 FEW025 FEW045 SCT055 01/M05 A3010 RMK     SLP193 T00061050=,
20180203_210000.002,0,RJOI,,,,0,20180203200000,-1,-1,-1,-1,260,-1,14,-1,20,-1,-1,,9999,0,0,3,FEW 25   FEW 40   SCT 50,1,0,-1,7,1020,RJOI 032055Z 26014G20KT 9999 FEW025 FEW040 SCT050 00/M07 A3012     RMK SHSNB33E2053 SLP199 P0000 60000 T00001072 53003=,
20180203_220000.002,0,RJOI,,,,0,20180203210000,-1,-1,-1,-1,280,-1,7,-1,-1,-1,-1,,9999,0,0,2,FEW 30   FEW 50,-1,1,-1,10,1021,RJOI 032155Z 28007KT 9999 FEW030 FEW050 M01/M10 A3014 RMK     SLP207 T10061100=,
20180203_230000.002,0,RJOI,,,,0,20180203220000,-1,-1,-1,-1,227,-1,11,-1,21,-1,-1,,9999,0,0,2,FEW 30   SCT 50,1,0,-1,10,1021,RJOI 032255Z 227011G21KT 9999 FEW030 SCT050 00/M10 A3016 RMK     SLP212 T00001100=,
20180204_000000.004,0,RJOI,,,,0,20180203230000,-1,-1,-1,-1,260,-1,10,-1,-1,-1,-1,,9999,0,0,2,FEW 30   SCT 120,1,1,-1,9,1022,RJOI 032355Z 26010KT 9999 FEW030 SCT120 01/M09 A3017 RMK     SNB42E55 SLP215 P0000 60000 T00061089 10011 21006 51014=,
20180204_010000.002,0,RJOI,,,,0,20180204000000,-1,-1,-1,-1,300,-1,13,-1,20,-1,-1,,9999,0,0,2,SCT 30   BKN 100,1,1,-1,10,1022,RJOI 040055Z 30013G20KT 9999 SCT030 BKN100 01/M10 A3017 RMK     SLP215 T00111100=,
20180204_020000.002,0,RJOI,,,,0,20180204010000,-1,-1,-1,-1,280,-1,10,-1,18,-1,-1,,9999,0,0,1,BKN 30,1,3,-1,11,1021,RJOI 040155Z 28010G18KT 9999 BKN030 03/M11 A3016 RMK SPL211     T00281106=,
20180204_030000.004,1,RJOI,,,,0,20180204020000,-1,-1,-1,-1,280,-1,11,-1,19,250,320,,9999,0,0,1,SCT 30,1,3,-1,11,1021,RJOI 040255Z 28011G19KT 250V320 9999 SCT030 03/M11 A3014 RMK     SLP204 T00281106 58010=,
20180204_040000.002,0,RJOI,,,,0,20180204030000,-1,-1,-1,-1,250,-1,13,-1,26,-1,-1,,9999,0,0,1,BKN 30,1,3,-1,11,1020,RJOI 040355Z 25013G26KT 9999 BKN030 03/M11 A3011 RMK PK WND     29026/0347 SLP197 T00281106=,
20180204_050000.004,1,RJOI,,,,0,20180204040000,-1,-1,-1,-1,260,-1,17,-1,22,-1,-1,,9999,0,0,1,BKN 30,1,3,-1,11,1020,RJOI 040455Z 26017G22KT 9999 BKN030 03/M11 A3011 RMK SLP194     T00281111=,
20180204_060000.004,1,RJOI,,,,0,20180204050000,-1,-1,-1,-1,260,-1,14,-1,17,-1,-1,,9999,0,0,1,SCT 30,1,2,-1,9,1020,RJOI 040555Z 26014G17KT 9999 SCT030 02/M09 A3013 RMK SLP201     T00171094 10039 20000 55000=,
20180204_070000.004,1,RJOI,,,,0,20180204060000,-1,-1,-1,-1,280,-1,9,-1,-1,-1,-1,,9999,0,0,1,BKN 30,1,2,-1,9,1020,RJOI 040655Z 28009KT 9999 BKN030 02/M09 A3013 RMK SNB51E56     SLP203 P0000 T00171089=,
20180204_080000.002,0,RJOI,,,,0,20180204070000,-1,-1,-1,-1,280,-1,11,-1,-1,-1,-1,,9999,0,0,1,BKN 40,1,1,-1,10,1021,RJOI 040755Z 28011KT 9999 BKN040 01/M10 A3014 RMK SLP205 P0000     T00111100=,
20180204_090000.004,1,RJOI,,,,0,20180204080000,-1,-1,-1,-1,280,-1,5,-1,-1,-1,-1,,9999,0,0,1,SCT 40,1,0,-1,10,1021,RJOI 040855Z 28005KT 9999 SCT040 00/M10 A3015 RMK SLP210 60000     T00001100 53007=,
20180204_100000.002,0,RJOI,,,,0,20180204090000,-1,-1,-1,-1,300,-1,6,-1,-1,-1,-1,,9999,0,0,1,FEW 40,-1,1,-1,8,1022,RJOI 040955Z 30006KT 9999 FEW040 M01/M08 A3017 RMK SLP217     T10061083=,
20180204_110000.005,1,RJOI,,,,0,20180204100000,-1,-1,-1,-1,250,-1,5,-1,-1,-1,-1,,9999,0,0,1,FEW 25,-1,1,-1,8,1022,RJOI 041055Z 25005KT 9999 FEW025 M01/M08 A3018 RMK SLP219     T10111078=,
20180204_120000.002,0,RJOI,,,,0,20180204110000,-1,-1,-1,-1,250,-1,8,-1,-1,-1,-1,,9999,0,0,1,FEW 25,-1,1,-1,8,1022,RJOI 041155Z 25008KT 9999 FEW025 M01/M08 A3018 RMK SLP221 60000     T10061078 10028 21011 51007=,
20180204_130000.004,1,RJOI,,,,0,20180204120000,-1,-1,-1,-1,280,-1,5,-1,-1,-1,-1,,9999,0,0,2,FEW 25   FEW 40,-1,1,-1,8,1022,RJOI 041255Z 28005KT 9999 FEW025 FEW040 M01/M08 A3018 RMK     SLP218 T10111078=,
20180204_140000.002,0,RJOI,,,,0,20180204130000,-1,-1,-1,-1,260,-1,3,-1,-1,-1,-1,,9999,0,0,2,FEW 25   FEW 40,-1,1,-1,7,1022,RJOI 041355Z 26003KT 9999 FEW025 FEW040 M01/M07 A3017 RMK     SLP217 T10111072=,
20180204_150000.004,1,RJOI,,,,0,20180204140000,-1,-1,-1,-1,240,-1,4,-1,-1,-1,-1,,9999,0,0,2,FEW 25   FEW 40,-1,1,-1,7,1022,RJOI 041455Z 24004KT 9999 FEW025 FEW040 M01/M07 A3017 RMK     SLP215 T10111072 400391011 58003=,
20180204_160000.002,0,RJOI,,,,0,20180204150000,-1,-1,-1,-1,250,-1,3,-1,-1,-1,-1,,9999,0,0,1,FEW 25,-1,1,-1,7,1021,RJOI 041555Z 25003KT 9999 FEW025 M01/M07 A3016 RMK SLP212     T10111067=,
20180204_170000.004,1,RJOI,,,,0,20180204160000,-1,-1,-1,-1,270,-1,5,-1,-1,-1,-1,,9999,0,0,1,FEW 25,-1,2,-1,7,1021,RJOI 041655Z 27005KT 9999 FEW025 M02/M07 A3015 RMK SLP211     T10171067=,
20180204_180000.001,0,RJOI,,,,0,20180204170000,-1,-1,-1,-1,0,-1,0,-1,-1,-1,-1,,9999,0,0,1,FEW 25,-1,2,-1,7,1021,RJOI 041755Z 00000KT 9999 FEW025 M02/M07 A3015 RMK SLP210     T10171072 11006 21022 56003=,
20180204_190000.002,0,RJOI,,,,0,20180204180000,-1,-1,-1,-1,0,-1,0,-1,-1,-1,-1,,9999,0,0,1,FEW 25,-1,1,-1,7,1021,RJOI 041855Z 00000KT 9999 FEW025 M01/M07 A3016 RMK SLP212     T10111072=,
20180204_200000.005,1,RJOI,,,,0,20180204190000,-1,-1,-1,-1,250,-1,4,-1,-1,-1,-1,,9999,0,0,1,FEW 25,-1,2,-1,7,1021,RJOI 041955Z 25004KT 9999 FEW025 M02/M07 A3016 RMK SLP212     T10221067=,
20180204_210000.002,0,RJOI,,,,0,20180204200000,-1,-1,-1,-1,240,-1,4,-1,-1,-1,-1,,9999,0,0,1,FEW 25,-1,2,-1,6,1021,RJOI 042055Z 24004KT 9999 FEW025 M02/M06 A3016 RMK SLP214     T10221061 53003=,
20180204_220000.002,0,RJOI,,,,0,20180204210000,-1,-1,-1,-1,250,-1,4,-1,-1,-1,-1,,9999,0,0,2,FEW 25   SCT 40,-1,2,-1,8,1022,RJOI 042155Z 25004KT 9999 FEW025 SCT040 M02/M08 A3018 RMK     SLP218 T10171078=,
20180204_230000.002,0,RJOI,,,,0,20180204220000,-1,-1,-1,-1,230,-1,5,-1,-1,-1,-1,,9999,0,0,2,FEW 20   FEW 120,-1,1,-1,7,1022,RJOI 042255Z 23005KT 9999 FEW020 FEW120 M01/M07 A3018 RMK     SLP221 SHSN OVR MTNS NW-N T10111067=,
20180205_000000.001,1,RJOI,,,,0,20180204230000,-1,-1,-1,-1,260,-1,12,-1,-1,-1,-1,,9999,0,1,2,FEW 20   SCT 120,1,0,-1,7,1022,RJOI 042355Z 26012KT 9999 -SHSN FEW020 SCT120 00/M07 A3018 RMK     SHSNB52 SLP220 P0000 60000 T00001067 10000 21022 51007=,- SN SH
20180205_010000.002,0,RJOI,,,,0,20180205000000,-1,-1,-1,-1,260,-1,11,-1,19,-1,-1,,9999,0,0,2,SCT 25   SCT 120,1,1,-1,8,1022,RJOI 050055Z 26011G19KT 9999 SCT025 SCT120 01/M08 A3018 RMK     SHSNE30 SLP220 SHSN OVR MTNS W-N P0000 T00061083=,
20180205_020000.002,0,RJOI,,,,0,20180205010000,-1,-1,-1,-1,270,-1,14,-1,22,-1,-1,,9999,0,0,1,SCT 25,1,1,-1,9,1022,RJOI 050155Z 27014G22KT 9999 SCT025 01/M09 A3017 RMK SHSNB05E16     SLP216 SHSN OVR MTNS N AND S P0000 T00111089=,
