20180101_000000.002,0,RJOM,,,,0,20180101000000,-1,-1,-1,-1,300,-1,10,-1,-1,-1,-1,,9999,0,0,1,FEW 25,1,7,-1,4,1022,RJOM 010000Z 30010KT 9999 FEW025 07/M04 Q1022 RMK 1CU025     A3020=,
20180101_010000.002,0,RJOM,,,,0,20180101010000,-1,-1,-1,-1,300,-1,11,-1,-1,-1,-1,,9999,0,0,1,FEW 25,1,8,-1,5,1023,RJOM 010100Z 30011KT 9999 FEW025 08/M05 Q1023 RMK 1CU025     A3022=,
20180101_020000.002,0,RJOM,,,,0,20180101020000,-1,-1,-1,-1,290,-1,9,-1,-1,-1,-1,,9999,0,0,1,FEW 25,1,8,-1,4,1023,RJOM 010200Z 29009KT 9999 FEW025 08/M04 Q1023 RMK 1CU025     A3022=,
20180101_030000.002,0,RJOM,,,,0,20180101030000,-1,-1,-1,-1,300,-1,10,-1,-1,-1,-1,,9999,0,0,2,FEW 25   SCT 40,1,9,-1,4,1022,RJOM 010300Z 30010KT 9999 FEW025 SCT040 09/M04 Q1022 RMK     1CU025 3CU040 A3020=,
20180101_040000.002,0,RJOM,,,,0,20180101040000,-1,-1,-1,-1,290,-1,10,-1,-1,260,320,,9999,0,0,1,FEW 30,1,9,-1,4,1022,RJOM 010400Z 29010KT 260V320 9999 FEW030 09/M04 Q1022 RMK     1CU030 A3019=,
20180101_050000.002,0,RJOM,,,,0,20180101050000,-1,-1,-1,-1,260,-1,7,-1,-1,-1,-1,,9999,0,0,2,FEW 30   SCT 60,1,9,-1,4,1022,RJOM 010500Z 26007KT 9999 FEW030 SCT060 09/M04 Q1022 RMK     1CU030 4SC060 A3018=,
20180101_060000.002,0,RJOM,,,,0,20180101060000,-1,-1,-1,-1,260,-1,5,-1,-1,220,320,,9999,0,0,2,FEW 30   BKN 50,1,9,-1,3,1022,RJOM 010600Z 26005KT 220V320 9999 FEW030 BKN050 09/M03 Q1022     RMK 1CU030 5SC050 A3018=,
20180101_070000.002,0,RJOM,,,,0,20180101070000,-1,-1,-1,-1,300,-1,11,-1,-1,-1,-1,,9999,0,0,2,FEW 30   SCT 50,1,8,-1,5,1022,RJOM 010700Z 30011KT 9999 FEW030 SCT050 08/M05 Q1022 RMK     1CU030 4SC050 A3019=,
20180101_080000.002,0,RJOM,,,,0,20180101080000,-1,-1,-1,-1,340,-1,11,-1,-1,-1,-1,,9999,0,0,2,FEW 30   BKN 50,1,8,-1,4,1022,RJOM 010800Z 34011KT 9999 FEW030 BKN050 08/M04 Q1022 RMK     1CU030 5SC050 A3020=,
20180101_090000.002,0,RJOM,,,,0,20180101090000,-1,-1,-1,-1,340,-1,12,-1,-1,-1,-1,,9999,0,0,2,FEW 30   SCT 50,1,8,-1,3,1023,RJOM 010900Z 34012KT 9999 FEW030 SCT050 08/M03 Q1023 RMK     1CU030 4SC050 A3022=,
20180101_100000.002,0,RJOM,,,,0,20180101100000,-1,-1,-1,-1,340,-1,12,-1,-1,-1,-1,,9999,0,0,2,FEW 30   SCT 50,1,7,-1,4,1024,RJOM 011000Z 34012KT 9999 FEW030 SCT050 07/M04 Q1024 RMK     1CU030 3SC050 A3024=,
20180101_110000.002,0,RJOM,,,,0,20180101110000,-1,-1,-1,-1,290,-1,12,-1,-1,-1,-1,,9999,0,0,2,FEW 30   SCT 50,1,7,-1,5,1024,RJOM 011100Z 29012KT 9999 FEW030 SCT050 07/M05 Q1024 RMK     1CU030 3SC050 A3025=,
20180101_120000.002,0,RJOM,,,,0,20180101120000,-1,-1,-1,-1,280,-1,12,-1,-1,-1,-1,,9999,0,0,2,FEW 30   SCT 50,1,6,-1,5,1024,RJOM 011200Z 28012KT 9999 FEW030 SCT050 06/M05 Q1024 RMK     1CU030 3SC050 A3026=,
20180101_220000.002,0,RJOM,,,,0,20180101220000,-1,-1,-1,-1,120,-1,8,-1,-1,-1,-1,,9999,0,0,1,FEW 25,1,2,-1,4,1026,RJOM 012200Z 12008KT 9999 FEW025 02/M04 Q1026 RMK 1CU025     A3030=,
20180101_230000.002,0,RJOM,,,,0,20180101230000,-1,-1,-1,-1,120,-1,9,-1,-1,-1,-1,,9999,0,0,2,FEW 25   SCT 45,1,2,-1,3,1026,RJOM 012300Z 12009KT 9999 FEW025 SCT045 02/M03 Q1026 RMK     1CU025 3SC045 A3030=,
20180102_000000.003,0,RJOM,,,,0,20180102000000,-1,-1,-1,-1,130,-1,9,-1,-1,90,160,,9999,0,0,1,FEW 25,1,4,-1,3,1026,RJOM 020000Z 13009KT 090V160 9999 FEW025 04/M03 Q1026 RMK     1CU025 A3031=,
20180102_010000.003,0,RJOM,,,,0,20180102010000,-1,-1,-1,-1,120,-1,7,-1,-1,-1,-1,,9999,0,0,1,FEW 30,1,7,-1,3,1026,RJOM 020100Z 12007KT 9999 FEW030 07/M03 Q1026 RMK 1CU030     A3031=,
20180102_020000.002,0,RJOM,,,,0,20180102020000,-1,-1,-1,-1,200,-1,3,-1,-1,-1,-1,,9999,0,0,1,FEW 30,1,8,-1,2,1026,RJOM 020200Z 20003KT 9999 FEW030 08/M02 Q1026 RMK 1CU030     A3030=,
20180102_030000.002,0,RJOM,,,,0,20180102030000,-1,-1,-1,-1,250,-1,6,-1,-1,-1,-1,,9999,0,0,1,FEW 30,1,9,-1,3,1024,RJOM 020300Z 25006KT 9999 FEW030 09/M03 Q1024 RMK 1CU030     A3026=,
20180102_040000.002,0,RJOM,,,,0,20180102040000,-1,-1,-1,-1,240,-1,8,-1,-1,190,270,,9999,0,0,1,FEW 30,1,10,-1,2,1024,RJOM 020400Z 24008KT 190V270 9999 FEW030 10/M02 Q1024 RMK     1CU030 A3024=,
20180102_050000.002,0,RJOM,,,,0,20180102050000,-1,-1,-1,-1,250,-1,8,-1,-1,200,280,,9999,0,0,1,FEW 30,1,10,-1,3,1023,RJOM 020500Z 25008KT 200V280 9999 FEW030 10/M03 Q1023 RMK     1CU030 A3023=,
20180102_060000.002,0,RJOM,,,,0,20180102060000,-1,-1,-1,-1,230,-1,7,-1,-1,180,250,,9999,0,0,1,FEW 30,1,10,-1,1,1023,RJOM 020600Z 23007KT 180V250 9999 FEW030 10/M01 Q1023 RMK     1CU030 A3022=,
20180102_070000.002,0,RJOM,,,,0,20180102070000,-1,-1,-1,-1,220,-1,7,-1,-1,-1,-1,,9999,0,0,1,FEW 30,1,10,-1,1,1023,RJOM 020700Z 22007KT 9999 FEW030 10/M01 Q1023 RMK 1CU030     A3023=,
20180102_080000.002,0,RJOM,,,,0,20180102080000,-1,-1,-1,-1,150,-1,6,-1,-1,-1,-1,,9999,0,0,1,FEW 30,1,8,-1,1,1022,RJOM 020800Z 15006KT 9999 FEW030 08/M01 Q1022 RMK 1CU030     A3020=,
20180102_090000.002,0,RJOM,,,,0,20180102090000,-1,-1,-1,-1,999,-1,2,-1,-1,-1,-1,,9999,0,0,1,FEW 30,1,8,-1,1,1023,RJOM 020900Z VRB02KT 9999 FEW030 08/M01 Q1023 RMK 1CU030     A3022=,
20180102_100000.002,0,RJOM,,,,0,20180102100000,-1,-1,-1,-1,290,-1,17,-1,-1,-1,-1,,9999,0,0,1,FEW 50,1,9,-1,3,1024,RJOM 021000Z 29017KT 9999 FEW050 09/M03 Q1024 RMK 1SC050     A3024=,
20180102_110000.002,0,RJOM,,,,0,20180102110000,-1,-1,-1,-1,300,-1,13,-1,-1,-1,-1,,9999,0,0,1,FEW 50,1,8,-1,3,1024,RJOM 021100Z 30013KT 9999 FEW050 08/M03 Q1024 RMK 1SC050     A3026=,
20180102_120000.002,0,RJOM,,,,0,20180102120000,-1,-1,-1,-1,280,-1,11,-1,-1,-1,-1,,9999,0,0,1,FEW 50,1,8,-1,2,1024,RJOM 021200Z 28011KT 9999 FEW050 08/M02 Q1024 RMK 1SC050     A3024=,
20180102_220000.002,0,RJOM,,,,0,20180102220000,-1,-1,-1,-1,300,-1,11,-1,-1,-1,-1,,9999,0,0,1,FEW 30,1,7,-1,4,1023,RJOM 022200Z 30011KT 9999 FEW030 07/M04 Q1023 RMK 1CU030     A3022=,
20180102_230000.002,0,RJOM,,,,0,20180102230000,-1,-1,-1,-1,280,-1,12,-1,-1,-1,-1,,9999,0,0,2,FEW 30   SCT 50,1,8,-1,4,1023,RJOM 022300Z 28012KT 9999 FEW030 SCT050 08/M04 Q1023 RMK     1CU030 3SC050 A3023=,
20180103_000000.002,0,RJOM,,,,0,20180103000000,-1,-1,-1,-1,300,-1,11,-1,-1,-1,-1,,9999,0,0,2,FEW 30   SCT 50,1,8,-1,3,1024,RJOM 030000Z 30011KT 9999 FEW030 SCT050 08/M03 Q1024 RMK     1CU030 4SC050 A3024=,
20180103_010000.002,0,RJOM,,,,0,20180103010000,-1,-1,-1,-1,290,-1,8,-1,-1,260,320,,9999,0,0,2,FEW 30   SCT 50,1,9,-1,3,1024,RJOM 030100Z 29008KT 260V320 9999 FEW030 SCT050 09/M03 Q1024     RMK 1CU030 4SC050 A3024=,
20180103_020000.002,0,RJOM,,,,0,20180103020000,-1,-1,-1,-1,350,-1,13,-1,-1,-1,-1,,9999,0,0,3,FEW 25   SCT 35   BKN 45,1,8,-1,2,1024,RJOM 030200Z 35013KT 9999 FEW025 SCT035 BKN045 08/M02 Q1024     RMK 1CU025 3CU035 5SC045 A3025=,
20180103_030000.003,0,RJOM,,,,0,20180103030000,-1,-1,-1,-1,320,-1,9,-1,-1,-1,-1,,9999,0,0,1,FEW 25,1,9,-1,2,1023,RJOM 030300Z 32009KT 9999 FEW025 09/M02 Q1023 RMK 1CU025     A3023=,
20180103_040000.002,0,RJOM,,,,0,20180103040000,-1,-1,-1,-1,290,-1,10,-1,-1,-1,-1,,9999,0,0,2,FEW 25   SCT 45,1,10,-1,3,1022,RJOM 030400Z 29010KT 9999 FEW025 SCT045 10/M03 Q1022 RMK     1CU025 3SC045 A3020=,
20180103_050000.002,0,RJOM,,,,0,20180103050000,-1,-1,-1,-1,300,-1,11,-1,-1,-1,-1,,9999,0,0,2,FEW 25   SCT 60,1,10,-1,4,1022,RJOM 030500Z 30011KT 9999 FEW025 SCT060 10/M04 Q1022 RMK     1CU025 3SC060 A3019=,
20180103_060000.002,0,RJOM,,,,0,20180103060000,-1,-1,-1,-1,310,-1,14,-1,-1,260,20,,9999,0,0,2,FEW 25   SCT 50,1,10,-1,3,1022,RJOM 030600Z 31014KT 260V020 9999 FEW025 SCT050 10/M03 Q1022     RMK 1CU025 3SC050 A3019=,
20180103_070000.002,0,RJOM,,,,0,20180103070000,-1,-1,-1,-1,350,-1,13,-1,-1,-1,-1,,9999,0,0,2,FEW 25   SCT 45,1,8,-1,2,1022,RJOM 030700Z 35013KT 9999 FEW025 SCT045 08/M02 Q1022 RMK     1CU025 3SC045 A3020=,
20180103_080000.002,0,RJOM,,,,0,20180103080000,-1,-1,-1,-1,340,-1,12,-1,-1,-1,-1,,9999,0,0,1,FEW 25,1,8,-1,2,1023,RJOM 030800Z 34012KT 9999 FEW025 08/M02 Q1023 RMK 1CU025     A3021=,
20180103_090000.002,0,RJOM,,,,0,20180103090000,-1,-1,-1,-1,20,-1,13,-1,-1,-1,-1,,9999,0,0,2,FEW 25   SCT 35,1,7,-1,1,1023,RJOM 030900Z 02013KT 9999 FEW025 SCT035 07/M01 Q1023 RMK     1CU025 4CU035 A3022=,
20180103_100000.002,0,RJOM,,,,0,20180103100000,-1,-1,-1,-1,40,-1,12,-1,-1,-1,-1,,9999,0,0,1,FEW 30,1,6,-1,3,1024,RJOM 031000Z 04012KT 9999 FEW030 06/M03 Q1024 RMK 1CU030     A3024=,
20180103_110000.002,0,RJOM,,,,0,20180103110000,-1,-1,-1,-1,40,-1,9,-1,-1,-1,-1,,9999,0,0,1,FEW 30,1,6,-1,3,1024,RJOM 031100Z 04009KT 9999 FEW030 06/M03 Q1024 RMK 1CU030     A3025=,
20180103_120000.002,0,RJOM,,,,0,20180103120000,-1,-1,-1,-1,40,-1,8,-1,-1,-1,-1,,9999,0,0,2,FEW 30   SCT 60,1,5,-1,3,1024,RJOM 031200Z 04008KT 9999 FEW030 SCT060 05/M03 Q1024 RMK     1CU030 3SC060 A3024=,
20180103_220000.002,0,RJOM,,,,0,20180103220000,-1,-1,-1,-1,110,-1,10,-1,-1,-1,-1,,9999,0,0,1,FEW 25,1,1,-1,4,1024,RJOM 032200Z 11010KT 9999 FEW025 01/M04 Q1024 RMK 1CU025     A3026=,
20180103_230000.002,0,RJOM,,,,0,20180103230000,-1,-1,-1,-1,110,-1,10,-1,-1,-1,-1,,9999,0,0,1,FEW 25,1,1,-1,4,1024,RJOM 032300Z 11010KT 9999 FEW025 01/M04 Q1024 RMK 1CU025     A3025=,
20180104_000000.002,0,RJOM,,,,0,20180104000000,-1,-1,-1,-1,110,-1,10,-1,-1,-1,-1,,9999,0,0,1,FEW 25,1,3,-1,4,1024,RJOM 040000Z 11010KT 9999 FEW025 03/M04 Q1024 RMK 1CU025     A3026=,
20180104_010000.002,0,RJOM,,,,0,20180104010000,-1,-1,-1,-1,120,-1,6,-1,-1,-1,-1,,9999,0,0,1,FEW 25,1,6,-1,3,1024,RJOM 040100Z 12006KT 9999 FEW025 06/M03 Q1024 RMK 1CU025     A3026=,
20180104_020000.002,0,RJOM,,,,0,20180104020000,-1,-1,-1,-1,999,-1,2,-1,-1,-1,-1,,9999,0,0,2,FEW 25   SCT 180,1,7,-1,2,1024,RJOM 040200Z VRB02KT 9999 FEW025 SCT180 07/M02 Q1024 RMK     1CU025 4AC180 A3024=,
20180104_030000.002,0,RJOM,,,,0,20180104030000,-1,-1,-1,-1,290,-1,5,-1,-1,260,330,,9999,0,0,2,FEW 25   BKN 170,1,8,-1,2,1022,RJOM 040300Z 29005KT 260V330 9999 FEW025 BKN170 08/M02 Q1022     RMK 2CU025 5AC170 A3021=,
20180104_040000.002,0,RJOM,,,,0,20180104040000,-1,-1,-1,-1,290,-1,5,-1,-1,260,330,,9999,0,0,2,FEW 25   BKN 150,1,8,-1,1,1021,RJOM 040400Z 29005KT 260V330 9999 FEW025 BKN150 08/M01 Q1021     RMK 2CU025 5AC150 A3018=,
20180104_050000.002,0,RJOM,,,,0,20180104050000,-1,-1,-1,-1,340,-1,5,-1,-1,290,20,,9999,0,0,3,FEW 30   SCT 150   BKN -9999,1,8,-1,4,1021,RJOM 040500Z 34005KT 290V020 9999 FEW030 SCT150 BKN/// 08/M04     Q1021 RMK 1CU030 4AC150 A3016=,
20180104_060000.003,0,RJOM,,,,0,20180104060000,-1,-1,-1,-1,340,-1,6,-1,-1,-1,-1,,9999,0,0,1,FEW 30,1,8,-1,3,1020,RJOM 040600Z 34006KT 9999 FEW030 08/M03 Q1020 RMK 1CU030     A3015=,
20180104_070000.002,0,RJOM,,,,0,20180104070000,-1,-1,-1,-1,320,-1,7,-1,-1,-1,-1,,9999,0,0,3,FEW 30   SCT 150   BKN 170,1,8,-1,4,1021,RJOM 040700Z 32007KT 9999 FEW030 SCT150 BKN170 08/M04 Q1021     RMK 1CU030 3AC150 5AC170 A3016=,
20180104_080000.002,0,RJOM,,,,0,20180104080000,-1,-1,-1,-1,350,-1,6,-1,-1,320,20,,9999,0,0,3,FEW 30   SCT 140   BKN 160,1,8,-1,3,1021,RJOM 040800Z 35006KT 320V020 9999 FEW030 SCT140 BKN160 08/M03     Q1021 RMK 1CU030 3AC140 5AC160 A3016=,
20180104_090000.002,0,RJOM,,,,0,20180104090000,-1,-1,-1,-1,340,-1,5,-1,-1,-1,-1,,9999,0,0,3,FEW 30   SCT 140   BKN 160,1,8,-1,3,1021,RJOM 040900Z 34005KT 9999 FEW030 SCT140 BKN160 08/M03 Q1021     RMK 1CU030 3AC140 5AC160 A3017=,
20180104_100000.002,0,RJOM,,,,0,20180104100000,-1,-1,-1,-1,50,-1,4,-1,-1,-1,-1,,9999,0,0,1,FEW 30,1,7,-1,3,1021,RJOM 041000Z 05004KT 9999 FEW030 07/M03 Q1021 RMK 1CU030     A3017=,
20180104_110000.002,0,RJOM,,,,0,20180104110000,-1,-1,-1,-1,120,-1,7,-1,-1,-1,-1,,9999,0,0,3,FEW 30   SCT 50   BKN 140,1,6,-1,2,1022,RJOM 041100Z 12007KT 9999 FEW030 SCT050 BKN140 06/M02 Q1022     RMK 1CU030 3SC050 5AC140 A3018=,
20180104_120000.003,0,RJOM,,,,0,20180104120000,-1,-1,-1,-1,120,-1,8,-1,-1,-1,-1,,9999,0,0,2,FEW 30   BKN 50,1,5,-1,2,1021,RJOM 041200Z 12008KT 9999 FEW030 BKN050 05/M02 Q1021 RMK     1CU030 5SC050 A3016=,
20180104_220000.002,0,RJOM,,,,0,20180104220000,-1,-1,-1,-1,110,-1,8,-1,-1,-1,-1,,9000,0,1,3,FEW 15   BKN 30   BKN 50,1,4,1,1,1017,RJOM 042200Z 11008KT 9000 -RA FEW015 BKN030 BKN050 04/01 Q1017     RMK 1CU015 5CU030 7SC050 A3005=,- RA
20180104_230000.002,0,RJOM,,,,0,20180104230000,-1,-1,-1,-1,100,-1,4,-1,-1,60,130,,9999,0,1,3,FEW 10   SCT 25   BKN 50,1,4,1,1,1017,RJOM 042300Z 10004KT 060V130 9999 -RA FEW010 SCT025 BKN050     04/01 Q1017 RMK 1ST010 3CU025 5SC050 A3006=,- RA
20180105_000000.002,0,RJOM,,,,0,20180105000000,-1,-1,-1,-1,90,-1,4,-1,-1,50,130,,8000,0,1,3,FEW 8   SCT 12   BKN 20,1,4,1,2,1018,RJOM 050000Z 09004KT 050V130 8000 -RA FEW008 SCT012 BKN020     04/02 Q1018 RMK 1ST008 3CU012 5CU020 A3006=,- RA
20180105_010000.003,0,RJOM,,,,0,20180105010000,-1,-1,-1,-1,130,-1,6,-1,-1,-1,-1,,9999,0,1,3,FEW 5   SCT 20   BKN 50,1,4,1,2,1018,RJOM 050100Z 13006KT 9999 -RA FEW005 SCT020 BKN050 04/02 Q1018     RMK 1ST005 3CU020 6SC050 A3006=,- RA
20180105_020000.002,0,RJOM,,,,0,20180105020000,-1,-1,-1,-1,140,-1,5,-1,-1,-1,-1,,9999,0,1,3,FEW 5   SCT 30   BKN 40,1,4,1,2,1017,RJOM 050200Z 14005KT 9999 -RA FEW005 SCT030 BKN040 04/02 Q1017     RMK 1ST005 3CU030 5SC040 A3005=,- RA
20180105_030000.002,0,RJOM,,,,0,20180105030000,-1,-1,-1,-1,140,-1,4,-1,-1,-1,-1,,9999,0,1,3,FEW 5   SCT 30   BKN 50,1,5,1,3,1016,RJOM 050300Z 14004KT 9999 -RA FEW005 SCT030 BKN050 05/03 Q1016     RMK 1ST005 3CU030 5SC050 A3003=,- RA
20180105_040000.002,0,RJOM,,,,0,20180105040000,-1,-1,-1,-1,140,-1,4,-1,-1,-1,-1,,9999,0,0,3,FEW 7   SCT 25   BKN 70,1,5,1,3,1015,RJOM 050400Z 14004KT 9999 FEW007 SCT025 BKN070 05/03 Q1015 RMK     1ST007 3CU025 5AC070 A3000=,
20180105_050000.002,0,RJOM,,,,0,20180105050000,-1,-1,-1,-1,999,-1,2,-1,-1,-1,-1,,9999,0,0,2,FEW 25   SCT 70,1,7,1,3,1015,RJOM 050500Z VRB02KT 9999 FEW025 SCT070 07/03 Q1015 RMK 1CU025     3AC070 A2998=,
20180105_060000.002,0,RJOM,,,,0,20180105060000,-1,-1,-1,-1,320,-1,4,-1,-1,270,360,,9999,0,0,2,FEW 20   SCT 30,1,7,1,3,1014,RJOM 050600Z 32004KT 270V360 9999 FEW020 SCT030 07/03 Q1014     RMK 1CU020 4CU030 A2997=,
20180105_070000.002,0,RJOM,,,,0,20180105070000,-1,-1,-1,-1,340,-1,3,-1,-1,300,10,,9999,0,0,3,FEW 20   SCT 30   BKN 60,1,7,1,2,1015,RJOM 050700Z 34003KT 300V010 9999 FEW020 SCT030 BKN060 07/02     Q1015 RMK 1CU020 3CU030 5SC060 A2997=,
20180105_080000.002,0,RJOM,,,,0,20180105080000,-1,-1,-1,-1,999,-1,1,-1,-1,-1,-1,,9999,0,0,3,FEW 20   SCT 50   BKN 70,1,7,1,1,1014,RJOM 050800Z VRB01KT 9999 FEW020 SCT050 BKN070 07/01 Q1014 RMK     1CU020 4SC050 5AC070 A2997=,
20180105_090000.002,0,RJOM,,,,0,20180105090000,-1,-1,-1,-1,130,-1,2,-1,-1,-1,-1,,9999,0,0,3,FEW 20   SCT 30   BKN 45,1,7,1,2,1015,RJOM 050900Z 13002KT 9999 FEW020 SCT030 BKN045 07/02 Q1015 RMK     1CU020 4CU030 5SC045 A2997=,
20180105_100000.002,0,RJOM,,,,0,20180105100000,-1,-1,-1,-1,120,-1,7,-1,-1,-1,-1,,9999,0,0,3,FEW 20   BKN 30   BKN 45,1,6,1,2,1015,RJOM 051000Z 12007KT 9999 FEW020 BKN030 BKN045 06/02 Q1015 RMK     1CU020 5CU030 6SC045 A2997=,
20180105_110000.002,0,RJOM,,,,0,20180105110000,-1,-1,-1,-1,120,-1,7,-1,-1,-1,-1,,9999,0,0,2,FEW 20   BKN 30,1,6,1,2,1015,RJOM 051100Z 12007KT 9999 FEW020 BKN030 06/02 Q1015 RMK 1CU020     5CU030 A2997=,
20180105_120000.002,0,RJOM,,,,0,20180105120000,-1,-1,-1,-1,120,-1,7,-1,-1,-1,-1,,9999,0,0,3,FEW 20   BKN 30   BKN 45,1,6,1,3,1014,RJOM 051200Z 12007KT 9999 FEW020 BKN030 BKN045 06/03 Q1014 RMK     1CU020 5CU030 6SC045 A2997=,
20180105_220000.002,0,RJOM,,,,0,20180105220000,-1,-1,-1,-1,270,-1,17,-1,-1,-1,-1,,9999,0,0,1,FEW 25,1,8,-1,2,1016,RJOM 052200Z 27017KT 9999 FEW025 08/M02 Q1016 RMK 1CU025     A3002=,
20180105_230000.002,0,RJOM,,,,0,20180105230000,-1,-1,-1,-1,260,-1,17,-1,-1,-1,-1,,9999,0,0,1,FEW 25,1,8,-1,1,1017,RJOM 052300Z 26017KT 9999 FEW025 08/M01 Q1017 RMK 1CU025     A3003=,
20180106_000000.002,0,RJOM,,,,0,20180106000000,-1,-1,-1,-1,280,-1,14,-1,-1,-1,-1,,9999,0,0,1,FEW 25,1,8,-1,2,1017,RJOM 060000Z 28014KT 9999 FEW025 08/M02 Q1017 RMK 1CU025     A3006=,
20180106_010000.002,0,RJOM,,,,0,20180106010000,-1,-1,-1,-1,280,-1,14,-1,-1,-1,-1,,9999,0,0,1,FEW 25,1,8,-1,2,1018,RJOM 060100Z 28014KT 9999 FEW025 08/M02 Q1018 RMK 1CU025     A3008=,
20180106_020000.002,0,RJOM,,,,0,20180106020000,-1,-1,-1,-1,270,-1,11,-1,-1,240,300,,9999,0,0,1,FEW 25,1,9,-1,2,1018,RJOM 060200Z 27011KT 240V300 9999 FEW025 09/M02 Q1018 RMK     1CU025 A3007=,
20180106_030000.002,0,RJOM,,,,0,20180106030000,-1,-1,-1,-1,290,-1,8,-1,-1,-1,-1,,9999,0,0,2,FEW 25   SCT 35,1,9,-1,2,1017,RJOM 060300Z 29008KT 9999 FEW025 SCT035 09/M02 Q1017 RMK     1CU025 3CU035 A3006=,
20180106_040000.002,0,RJOM,,,,0,20180106040000,-1,-1,-1,-1,250,-1,7,-1,-1,240,300,,9999,0,0,1,FEW 25,1,9,-1,2,1017,RJOM 060400Z 25007KT 240V300 9999 FEW025 09/M02 Q1017 RMK     1CU025 A3004=,
20180106_050000.002,0,RJOM,,,,0,20180106050000,-1,-1,-1,-1,220,-1,6,-1,-1,-1,-1,,9999,0,0,2,FEW 25   SCT 50,1,10,-1,2,1017,RJOM 060500Z 22006KT 9999 FEW025 SCT050 10/M02 Q1017 RMK     1CU025 3SC050 A3003=,
20180106_060000.002,0,RJOM,,,,0,20180106060000,-1,-1,-1,-1,220,-1,7,-1,-1,180,260,,9999,0,0,1,FEW 40,1,10,-1,1,1017,RJOM 060600Z 22007KT 180V260 9999 FEW040 10/M01 Q1017 RMK     2CU040 A3003=,
20180106_070000.002,0,RJOM,,,,0,20180106070000,-1,-1,-1,-1,210,-1,4,-1,-1,160,260,,9999,0,0,2,FEW 30   SCT 45,1,10,-1,3,1017,RJOM 060700Z 21004KT 160V260 9999 FEW030 SCT045 10/M03 Q1017     RMK 1CU030 3SC045 A3004=,
20180106_080000.002,0,RJOM,,,,0,20180106080000,-1,-1,-1,-1,999,-1,2,-1,-1,-1,-1,,9999,0,0,2,FEW 30   SCT 50,1,9,-1,2,1017,RJOM 060800Z VRB02KT 9999 FEW030 SCT050 09/M02 Q1017 RMK     1CU030 3SC050 A3005=,
20180106_090000.002,0,RJOM,,,,0,20180106090000,-1,-1,-1,-1,330,-1,11,-1,-1,-1,-1,,9999,0,0,2,FEW 30   SCT 50,1,9,-1,4,1017,RJOM 060900Z 33011KT 9999 FEW030 SCT050 09/M04 Q1017 RMK     1CU030 4SC050 A3005=,
20180106_100000.002,0,RJOM,,,,0,20180106100000,-1,-1,-1,-1,340,-1,12,-1,-1,-1,-1,,9999,0,0,2,FEW 30   SCT 60,1,9,-1,3,1019,RJOM 061000Z 34012KT 9999 FEW030 SCT060 09/M03 Q1019 RMK     1CU030 3SC060 A3012=,
20180106_110000.002,0,RJOM,,,,0,20180106110000,-1,-1,-1,-1,350,-1,12,-1,-1,-1,-1,,9999,0,0,1,FEW 30,1,9,-1,2,1020,RJOM 061100Z 35012KT 9999 FEW030 09/M02 Q1020 RMK 1CU030     A3013=,
20180106_120000.002,0,RJOM,,,,0,20180106120000,-1,-1,-1,-1,340,-1,10,-1,-1,-1,-1,,9999,0,0,1,FEW 60,1,6,-1,1,1020,RJOM 061200Z 34010KT 9999 FEW060 06/M01 Q1020 RMK 1SC060     A3014=,
20180106_220000.002,0,RJOM,,,,0,20180106220000,-1,-1,-1,-1,140,-1,4,-1,-1,-1,-1,,9999,0,0,3,FEW 25   SCT 180   BKN -9999,1,3,-1,2,1023,RJOM 062200Z 14004KT 9999 FEW025 SCT180 BKN/// 03/M02 Q1023     RMK 1CU025 3AC180 A3021=,
20180106_230000.002,0,RJOM,,,,0,20180106230000,-1,-1,-1,-1,130,-1,7,-1,-1,-1,-1,,9999,0,0,2,FEW 25   BKN -9999,1,3,-1,2,1023,RJOM 062300Z 13007KT 9999 FEW025 BKN/// 03/M02 Q1023 RMK     1CU025 A3021=,
20180107_000000.002,0,RJOM,,,,0,20180107000000,-1,-1,-1,-1,110,-1,6,-1,-1,-1,-1,,9999,0,0,3,FEW 25   SCT 180   BKN -9999,1,5,-1,1,1022,RJOM 070000Z 11006KT 9999 FEW025 SCT180 BKN/// 05/M01 Q1022     RMK 1CU025 3AC180 A3021=,
20180107_010000.003,0,RJOM,,,,0,20180107010000,-1,-1,-1,-1,130,-1,3,-1,-1,-1,-1,,9999,0,0,3,FEW 25   SCT 180   BKN -9999,1,7,-1,0,1023,RJOM 070100Z 13003KT 9999 FEW025 SCT180 BKN/// 07/M00 Q1023     RMK 1CU025 4AC180 A3021=,
20180107_020000.002,0,RJOM,,,,0,20180107020000,-1,-1,-1,-1,270,-1,3,-1,-1,220,300,,9999,0,0,3,FEW 25   SCT 180   BKN -9999,1,9,1,0,1022,RJOM 070200Z 27003KT 220V300 9999 FEW025 SCT180 BKN/// 09/00     Q1022 RMK 1CU025 4AC180 A3021=,
20180107_030000.002,0,RJOM,,,,0,20180107030000,-1,-1,-1,-1,330,-1,5,-1,-1,-1,-1,,9999,0,0,3,FEW 25   SCT 180   BKN -9999,1,9,-1,0,1021,RJOM 070300Z 33005KT 9999 FEW025 SCT180 BKN/// 09/M00 Q1021     RMK 1CU025 3AC180 A3017=,
20180107_040000.002,0,RJOM,,,,0,20180107040000,-1,-1,-1,-1,320,-1,7,-1,-1,-1,-1,,9999,0,0,3,FEW 25   SCT 170   BKN -9999,1,9,-1,0,1021,RJOM 070400Z 32007KT 9999 FEW025 SCT170 BKN/// 09/M00 Q1021     RMK 1CU025 4AC170 A3017=,
20180107_050000.002,0,RJOM,,,,0,20180107050000,-1,-1,-1,-1,290,-1,4,-1,-1,-1,-1,,9999,0,0,3,FEW 25   SCT 140   BKN -9999,1,9,-1,1,1022,RJOM 070500Z 29004KT 9999 FEW025 SCT140 BKN/// 09/M01 Q1022     RMK 1CU025 4AC140 A3018=,
20180107_060000.002,0,RJOM,,,,0,20180107060000,-1,-1,-1,-1,320,-1,3,-1,-1,290,360,,9999,0,0,3,FEW 25   SCT 130   BKN 150,1,9,-1,1,1021,RJOM 070600Z 32003KT 290V360 9999 FEW025 SCT130 BKN150 09/M01     Q1021 RMK 1CU025 4AC130 6AC150 A3016=,
20180107_070000.002,0,RJOM,,,,0,20180107070000,-1,-1,-1,-1,999,-1,1,-1,-1,-1,-1,,9999,0,0,3,FEW 25   BKN 100   BKN 120,1,9,-1,1,1020,RJOM 070700Z VRB01KT 9999 FEW025 BKN100 BKN120 09/M01 Q1020     RMK 1CU025 5AC100 6AC120 A3015=,
20180107_080000.002,0,RJOM,,,,0,20180107080000,-1,-1,-1,-1,110,-1,2,-1,-1,-1,-1,,9999,0,0,2,FEW 25   BKN 120,1,9,-1,2,1020,RJOM 070800Z 11002KT 9999 FEW025 BKN120 09/M02 Q1020 RMK     1CU025 5AC120 A3014=,
20180107_090000.002,0,RJOM,,,,0,20180107090000,-1,-1,-1,-1,130,-1,7,-1,-1,-1,-1,,9999,0,0,3,FEW 25   BKN 120   BKN 150,1,8,1,1,1021,RJOM 070900Z 13007KT 9999 FEW025 BKN120 BKN150 08/01 Q1021 RMK     1CU025 5AC120 6AC150 A3016=,
20180107_100000.002,0,RJOM,,,,0,20180107100000,-1,-1,-1,-1,120,-1,7,-1,-1,-1,-1,,9999,0,0,3,FEW 25   SCT 100   BKN 120,1,8,1,1,1021,RJOM 071000Z 12007KT 9999 FEW025 SCT100 BKN120 08/01 Q1021 RMK     1CU025 4AC100 6AC120 A3017=,
20180107_110000.002,0,RJOM,,,,0,20180107110000,-1,-1,-1,-1,90,-1,5,-1,-1,30,110,,9999,0,0,2,FEW 25   BKN 100,1,8,1,1,1021,RJOM 071100Z 09005KT 030V110 9999 FEW025 BKN100 08/01 Q1021     RMK 1CU025 6AC100 A3016=,
20180107_120000.003,0,RJOM,,,,0,20180107120000,-1,-1,-1,-1,130,-1,4,-1,-1,-1,-1,,9999,0,0,2,FEW 20   BKN 90,1,7,1,1,1020,RJOM 071200Z 13004KT 9999 FEW020 BKN090 07/01 Q1020 RMK 1CU020     6AC090 A3015=,
20180107_220000.002,0,RJOM,,,,0,20180107220000,-1,-1,-1,-1,50,-1,3,-1,-1,350,110,,6000,0,1,3,FEW 6   SCT 15   BKN 35,1,7,1,5,1014,RJOM 072200Z 05003KT 350V110 6000 -SHRA FEW006 SCT015 BKN035     07/05 Q1014 RMK 1ST006 4CU015 6CU035 A2994=,- RA SH
20180107_230000.002,0,RJOM,,,,0,20180107230000,-1,-1,-1,-1,110,-1,3,-1,-1,60,150,,6000,0,1,3,FEW 4   SCT 20   BKN 50,1,7,1,6,1012,RJOM 072300Z 11003KT 060V150 6000 -SHRA FEW004 SCT020 BKN050     07/06 Q1012 RMK 1ST004 4CU020 6SC050 A2989=,- RA SH
20180108_000000.002,0,RJOM,,,,0,20180108000000,-1,-1,-1,-1,50,-1,4,-1,-1,360,120,,7000,0,1,3,FEW 4   SCT 20   BKN 40,1,7,1,6,1011,RJOM 080000Z 05004KT 360V120 7000 -SHRA FEW004 SCT020 BKN040     07/06 Q1011 RMK 1ST004 3CU020 6CU040 A2987=,- RA SH
20180108_010000.002,0,RJOM,,,,0,20180108010000,-1,-1,-1,-1,20,-1,9,-1,-1,-1,-1,,3000,0,2,3,FEW 3   SCT 10   BKN 30,1,8,1,7,1011,RJOM 080100Z 02009KT 3000 SHRA BR FEW003 SCT010 BKN030 08/07     Q1011 RMK 1ST003 3ST010 7CU030 A2987=,RA SH; BR
20180108_020000.002,0,RJOM,,,,0,20180108020000,-1,-1,-1,-1,999,-1,2,-1,-1,-1,-1,,8000,0,0,3,FEW 3   BKN 6   BKN 20,1,8,1,7,1009,RJOM 080200Z VRB02KT 8000 FEW003 BKN006 BKN020 08/07 Q1009 RMK     1ST003 5ST006 6CU020 A2981 P/FR=,
20180108_030000.002,0,RJOM,,,,0,20180108030000,-1,-1,-1,-1,999,-1,1,-1,-1,-1,-1,,9999,0,0,3,FEW 3   SCT 25   BKN 50,1,9,1,8,1008,RJOM 080300Z VRB01KT 9999 FEW003 SCT025 BKN050 09/08 Q1008 RMK     1ST003 4CU025 6SC050 A2977=,
20180108_040000.002,0,RJOM,,,,0,20180108040000,-1,-1,-1,-1,999,-1,2,-1,-1,-1,-1,,9999,0,0,3,FEW 3   SCT 20   BKN 45,1,10,1,8,1008,RJOM 080400Z VRB02KT 9999 FEW003 SCT020 BKN045 10/08 Q1008 RMK     1ST003 4CU020 6SC045 A2977=,
20180108_050000.002,0,RJOM,,,,0,20180108050000,-1,-1,-1,-1,130,-1,7,-1,-1,-1,-1,,9000,0,1,3,FEW 3   SCT 20   BKN 45,1,10,1,8,1006,RJOM 080500Z 13007KT 9000 -SHRA FEW003 SCT020 BKN045 10/08     Q1006 RMK 1ST003 3CU020 6SC045 A2972 P/FR=,- RA SH
20180108_060000.003,0,RJOM,,,,0,20180108060000,-1,-1,-1,-1,80,-1,5,-1,-1,40,110,,8000,0,1,3,FEW 3   SCT 25   BKN 90,1,10,1,8,1005,RJOM 080600Z 08005KT 040V110 8000 -SHRA FEW003 SCT025 BKN090     10/08 Q1005 RMK 1ST003 4CU025 6AC090 A2969=,- RA SH
20180108_070000.002,0,RJOM,,,,0,20180108070000,-1,-1,-1,-1,20,-1,7,-1,-1,-1,-1,,5000,0,2,3,FEW 3   SCT 25   BKN 45,1,10,1,9,1005,RJOM 080700Z 02007KT 5000 -SHRA BR FEW003 SCT025 BKN045 10/09     Q1005 RMK 1ST003 4CU025 5SC045 A2969=,- RA SH; BR
20180108_080000.002,0,RJOM,,,,0,20180108080000,-1,-1,-1,-1,330,-1,4,-1,-1,-1,-1,,7000,0,1,3,FEW 3   SCT 25   BKN 50,1,10,1,9,1005,RJOM 080800Z 33004KT 7000 -SHRA FEW003 SCT025 BKN050 10/09     Q1005 RMK 1ST003 4CU025 5SC050 A2969=,- RA SH
20180108_090000.002,0,RJOM,,,,0,20180108090000,-1,-1,-1,-1,999,-1,2,-1,-1,-1,-1,,6000,0,1,3,FEW 3   SCT 30   BKN 50,1,10,1,9,1004,RJOM 080900Z VRB02KT 6000 SHRA FEW003 SCT030 BKN050 10/09     Q1004 RMK 2ST003 4CU030 5SC050 A2966=,RA SH
20180108_100000.002,0,RJOM,,,,0,20180108100000,-1,-1,-1,-1,360,-1,6,-1,-1,330,30,,4000,0,2,3,FEW 3   SCT 30   BKN 50,1,10,1,9,1005,RJOM 081000Z 36006KT 330V030 4000 SHRA BR FEW003 SCT030 BKN050     10/09 Q1005 RMK 2ST003 4CU030 5SC050 A2969 P/RR=,RA SH; BR
20180108_110000.002,0,RJOM,,,,0,20180108110000,-1,-1,-1,-1,140,-1,5,-1,-1,-1,-1,,5000,0,2,3,FEW 3   SCT 30   BKN 40,1,10,1,9,1004,RJOM 081100Z 14005KT 5000 -SHRA BR FEW003 SCT030 BKN040 10/09     Q1004 RMK 2ST003 3CU030 5CU040 A2967=,- RA SH; BR
20180108_120000.002,0,RJOM,,,,0,20180108120000,-1,-1,-1,-1,999,-1,2,-1,-1,-1,-1,,6000,0,1,3,FEW 3   SCT 25   BKN 50,1,10,1,9,1004,RJOM 081200Z VRB02KT 6000 -SHRA FEW003 SCT025 BKN050 10/09     Q1004 RMK 2ST003 4CU025 5SC050 A2967=,- RA SH
20180108_220000.002,0,RJOM,,,,0,20180108220000,-1,-1,-1,-1,280,-1,22,-1,-1,-1,-1,,9999,0,0,2,SCT 25   BKN 40,1,8,-1,1,1008,RJOM 082200Z 28022KT 9999 SCT025 BKN040 08/M01 Q1008 RMK     3CU025 6CU040 A2977=,
20180108_230000.003,0,RJOM,,,,0,20180108230000,-1,-1,-1,-1,280,-1,21,-1,-1,-1,-1,,9000,0,1,2,SCT 25   BKN 40,1,7,1,0,1009,RJOM 082300Z 28021KT 9000 -SHRA SCT025 BKN040 07/00 Q1009 RMK     3CU025 7CU040 A2982=,- RA SH
20180109_000000.002,0,RJOM,,,,0,20180109000000,-1,-1,-1,-1,260,-1,22,-1,33,-1,-1,,8000,0,1,2,SCT 20   BKN 35,1,7,1,0,1010,RJOM 090000Z 26022G33KT 8000 -SHRA SCT020 BKN035 07/00 Q1010     RMK 3CU020 7CU035 A2983=,- RA SH
20180109_010000.002,0,RJOM,,,,0,20180109010000,-1,-1,-1,-1,270,-1,33,-1,43,-1,-1,,9999,0,0,2,FEW 25   BKN 40,1,8,-1,2,1010,RJOM 090100Z 27033G43KT 9999 FEW025 BKN040 08/M02 Q1010 RMK     2CU025 6CU040 A2985=,
20180109_020000.002,0,RJOM,,,,0,20180109020000,-1,-1,-1,-1,270,-1,31,-1,41,-1,-1,,9999,0,0,2,FEW 25   BKN 40,1,7,-1,2,1010,RJOM 090200Z 27031G41KT 9999 FEW025 BKN040 07/M02 Q1010 RMK     2CU025 6CU040 A2985=,
20180109_030000.002,0,RJOM,,,,0,20180109030000,-1,-1,-1,-1,270,-1,32,-1,-1,-1,-1,,9999,0,1,2,SCT 15   BKN 30,1,6,-1,0,1010,RJOM 090300Z 27032KT 9999 -SHRA SCT015 BKN030 06/M00 Q1010 RMK     3CU015 7CU030 A2984=,- RA SH
20180109_040000.002,0,RJOM,,,,0,20180109040000,-1,-1,-1,-1,260,-1,25,-1,35,-1,-1,,8000,0,1,3,FEW 8   SCT 15   BKN 25,1,4,1,1,1010,RJOM 090400Z 26025G35KT 8000 -SHRA FEW008 SCT015 BKN025 04/01     Q1010 RMK 1CU008 3CU015 6CU025 A2982=,- RA SH
20180109_050000.002,0,RJOM,,,,0,20180109050000,-1,-1,-1,-1,260,-1,26,-1,-1,-1,-1,,9000,0,1,3,FEW 15   SCT 30   BKN 70,1,6,-1,1,1010,RJOM 090500Z 26026KT 9000 VCSH FEW015 SCT030 BKN070 06/M01     Q1010 RMK 2CU015 3CU030 5AC070 A2985=,VC SH
20180109_060000.002,0,RJOM,,,,0,20180109060000,-1,-1,-1,-1,260,-1,24,-1,-1,-1,-1,,9999,0,0,2,FEW 15   SCT 30,1,6,-1,2,1010,RJOM 090600Z 26024KT 9999 FEW015 SCT030 06/M02 Q1010 RMK     1CU015 3CU030 A2984=,
20180109_070000.002,0,RJOM,,,,0,20180109070000,-1,-1,-1,-1,270,-1,22,-1,-1,-1,-1,,9999,0,0,2,FEW 15   SCT 30,1,6,-1,3,1011,RJOM 090700Z 27022KT 9999 FEW015 SCT030 06/M03 Q1011 RMK     1CU015 3CU030 A2986=,
20180109_080000.002,0,RJOM,,,,0,20180109080000,-1,-1,-1,-1,260,-1,19,-1,-1,-1,-1,,9999,0,0,2,FEW 15   SCT 30,1,6,-1,4,1012,RJOM 090800Z 26019KT 9999 FEW015 SCT030 06/M04 Q1012 RMK     1CU015 3CU030 A2990=,
20180109_090000.002,0,RJOM,,,,0,20180109090000,-1,-1,-1,-1,270,-1,18,-1,-1,-1,-1,,9999,0,0,2,FEW 15   SCT 30,1,6,-1,4,1013,RJOM 090900Z 27018KT 9999 FEW015 SCT030 06/M04 Q1013 RMK     1CU015 3CU030 A2993=,
20180109_100000.002,0,RJOM,,,,0,20180109100000,-1,-1,-1,-1,260,-1,12,-1,-1,-1,-1,,9999,0,0,2,FEW 15   BKN 45,1,6,-1,1,1014,RJOM 091000Z 26012KT 9999 FEW015 BKN045 06/M01 Q1014 RMK     1CU015 5SC045 A2995=,
20180109_110000.002,0,RJOM,,,,0,20180109110000,-1,-1,-1,-1,260,-1,20,-1,-1,-1,-1,,8000,0,1,3,FEW 15   SCT 25   BKN 50,1,5,1,2,1014,RJOM 091100Z 26020KT 8000 -SHRA FEW015 SCT025 BKN050 05/02     Q1014 RMK 1CU015 4CU025 6SC050 A2996=,- RA SH
20180109_120000.002,0,RJOM,,,,0,20180109120000,-1,-1,-1,-1,250,-1,24,-1,-1,-1,-1,,9999,0,0,2,FEW 30   SCT 60,1,5,1,1,1015,RJOM 091200Z 25024KT 9999 FEW030 SCT060 05/01 Q1015 RMK 1CU030     4SC060 A2998=,
20180109_220000.002,0,RJOM,,,,0,20180109220000,-1,-1,-1,-1,260,-1,14,-1,-1,-1,-1,,8000,0,1,3,FEW 10   SCT 20   BKN 35,1,5,1,1,1014,RJOM 092200Z 26014KT 8000 -SHRA FEW010 SCT020 BKN035 05/01     Q1014 RMK 1ST010 3CU020 6CU035 A2995=,- RA SH
20180109_230000.002,0,RJOM,,,,0,20180109230000,-1,-1,-1,-1,290,-1,14,-1,-1,-1,-1,,8000,0,1,3,FEW 5   SCT 15   BKN 30,1,4,1,2,1014,RJOM 092300Z 29014KT 8000 -SHRA FEW005 SCT015 BKN030 04/02     Q1014 RMK 1ST005 3CU015 6CU030 A2995=,- RA SH
20180110_000000.002,0,RJOM,,,,0,20180110000000,-1,-1,-1,-1,240,-1,9,-1,-1,-1,-1,,6000,0,1,3,FEW 5   SCT 10   BKN 20,1,5,1,3,1014,RJOM 100000Z 24009KT 6000 -SHRA FEW005 SCT010 BKN020 05/03     Q1014 RMK 1ST005 3CU010 5CU020 A2996=,- RA SH
20180110_010000.002,0,RJOM,,,,0,20180110010000,-1,-1,-1,-1,250,-1,16,-1,-1,-1,-1,,9999,0,1,3,FEW 10   SCT 15   BKN 25,1,6,1,2,1014,RJOM 100100Z 25016KT 9999 -SHRA FEW010 SCT015 BKN025 06/02     Q1014 RMK 1ST010 3CU015 6CU025 A2994=,- RA SH
20180110_020000.002,0,RJOM,,,,0,20180110020000,-1,-1,-1,-1,260,-1,14,-1,-1,-1,-1,,9999,0,1,3,FEW 10   SCT 15   BKN 25,1,6,1,3,1013,RJOM 100200Z 26014KT 9999 -SHRA FEW010 SCT015 BKN025 06/03     Q1013 RMK 1ST010 3CU015 6CU025 A2993=,- RA SH
20180110_030000.002,0,RJOM,,,,0,20180110030000,-1,-1,-1,-1,260,-1,16,-1,-1,-1,-1,,8000,0,1,3,FEW 6   SCT 15   BKN 25,1,6,1,3,1012,RJOM 100300Z 26016KT 8000 -SHRA FEW006 SCT015 BKN025 06/03     Q1012 RMK 1ST006 3CU015 5CU025 A2991=,- RA SH
20180110_040000.003,0,RJOM,,,,0,20180110040000,-1,-1,-1,-1,270,-1,25,-1,36,250,310,,3000,0,2,3,FEW 4   SCT 15   BKN 25,1,5,1,2,1013,RJOM 100400Z 27025G36KT 250V310 3000 SHRA BR FEW004 SCT015     BKN025 05/02 Q1013 RMK 1ST004 4CU015 6CU025 A2991=,RA SH; BR
20180110_050000.002,0,RJOM,,,,0,20180110050000,-1,-1,-1,-1,260,-1,15,-1,-1,-1,-1,,9999,0,0,3,FEW 7   SCT 20   BKN 60,1,6,1,1,1013,RJOM 100500Z 26015KT 9999 FEW007 SCT020 BKN060 06/01 Q1013 RMK     1ST007 3CU020 5SC060 A2992=,
20180110_060000.002,0,RJOM,,,,0,20180110060000,-1,-1,-1,-1,270,-1,21,-1,-1,-1,-1,,9999,0,1,3,FEW 8   SCT 20   BKN 40,1,5,1,1,1013,RJOM 100600Z 27021KT 9999 -SHRA FEW008 SCT020 BKN040 05/01     Q1013 RMK 1ST008 4CU020 6CU040 A2992=,- RA SH
20180110_070000.002,0,RJOM,,,,0,20180110070000,-1,-1,-1,-1,280,-1,20,-1,-1,-1,-1,,9999,0,0,3,FEW 10   SCT 20   BKN 35,1,5,1,0,1014,RJOM 100700Z 28020KT 9999 FEW010 SCT020 BKN035 05/00 Q1014 RMK     1ST010 4CU020 5CU035 A2994=,
20180110_080000.002,0,RJOM,,,,0,20180110080000,-1,-1,-1,-1,280,-1,20,-1,-1,-1,-1,,9999,0,1,3,FEW 15   SCT 25   BKN 50,1,4,-1,1,1015,RJOM 100800Z 28020KT 9999 -SHRA FEW015 SCT025 BKN050 04/M01     Q1015 RMK 1CU015 4CU025 5SC050 A2997=,- RA SH
20180110_090000.002,0,RJOM,,,,0,20180110090000,-1,-1,-1,-1,280,-1,21,-1,-1,-1,-1,,8000,0,1,3,FEW 7   SCT 20   BKN 35,1,3,-1,1,1015,RJOM 100900Z 28021KT 8000 -SHRA FEW007 SCT020 BKN035 03/M01     Q1015 RMK 1ST007 4CU020 5CU035 A2997=,- RA SH
20180110_100000.002,0,RJOM,,,,0,20180110100000,-1,-1,-1,-1,260,-1,16,-1,-1,-1,-1,,8000,0,1,3,FEW 10   SCT 20   BKN 40,1,4,-1,0,1015,RJOM 101000Z 26016KT 8000 -SHRA FEW010 SCT020 BKN040 04/M00     Q1015 RMK 1ST010 3CU020 5CU040 A2999=,- RA SH
20180110_110000.002,0,RJOM,,,,0,20180110110000,-1,-1,-1,-1,280,-1,19,-1,-1,-1,-1,,8000,0,0,3,FEW 15   SCT 30   BKN 60,1,4,-1,3,1016,RJOM 101100Z 28019KT 8000 FEW015 SCT030 BKN060 04/M03 Q1016     RMK 1CU015 3CU030 5SC060 A3001=,
20180110_120000.002,0,RJOM,,,,0,20180110120000,-1,-1,-1,-1,290,-1,20,-1,-1,-1,-1,,8000,0,0,3,FEW 20   SCT 35   BKN 60,1,4,-1,3,1016,RJOM 101200Z 29020KT 8000 FEW020 SCT035 BKN060 04/M03 Q1016     RMK 1CU020 3CU035 5SC060 A3003=,
20180110_220000.002,0,RJOM,,,,0,20180110220000,-1,-1,-1,-1,280,-1,18,-1,-1,-1,-1,,9999,0,0,1,FEW 25,1,1,-1,10,1020,RJOM 102200Z 28018KT 9999 FEW025 01/M10 Q1020 RMK 1CU025     A3014=,
20180110_230000.003,0,RJOM,,,,0,20180110230000,-1,-1,-1,-1,290,-1,17,-1,-1,-1,-1,,9999,0,0,2,FEW 20   SCT 35,1,1,-1,9,1021,RJOM 102300Z 29017KT 9999 FEW020 SCT035 01/M09 Q1021 RMK     1CU020 3CU035 A3015=,
20180111_000000.002,0,RJOM,,,,0,20180111000000,-1,-1,-1,-1,300,-1,14,-1,-1,-1,-1,,9999,0,0,2,FEW 20   SCT 35,1,1,-1,9,1021,RJOM 110000Z 30014KT 9999 FEW020 SCT035 01/M09 Q1021 RMK     1CU020 3CU035 A3016=,
20180111_010000.002,0,RJOM,,,,0,20180111010000,-1,-1,-1,-1,290,-1,14,-1,-1,-1,-1,,9999,0,0,2,FEW 25   BKN -9999,1,3,-1,8,1021,RJOM 110100Z 29014KT 9999 FEW025 BKN/// 03/M08 Q1021 RMK     1CU025 A3017=,
20180111_020000.002,0,RJOM,,,,0,20180111020000,-1,-1,-1,-1,280,-1,16,-1,-1,-1,-1,,9999,0,0,2,FEW 20   BKN -9999,1,3,-1,7,1021,RJOM 110200Z 28016KT 9999 FEW020 BKN/// 03/M07 Q1021 RMK     1CU020 A3016=,
20180111_030000.001,0,RJOM,,,,0,20180111030000,-1,-1,-1,-1,280,-1,19,-1,-1,-1,-1,,9999,0,0,3,FEW 20   SCT 40   BKN -9999,1,3,-1,10,1021,RJOM 110300Z 28019KT 9999 FEW020 SCT040 BKN/// 03/M10 Q1021     RMK 1CU020 3CU040 A3015=,
20180111_040000.002,0,RJOM,,,,0,20180111040000,-1,-1,-1,-1,270,-1,18,-1,-1,-1,-1,,9999,0,1,3,FEW 20   SCT 40   BKN -9999,1,3,-1,7,1020,RJOM 110400Z 27018KT 9999 VCSH FEW020 SCT040 BKN/// 03/M07     Q1020 RMK 1CU020 3CU040 A3014=,VC SH
20180111_050000.002,0,RJOM,,,,0,20180111050000,-1,-1,-1,-1,300,-1,19,-1,-1,-1,-1,,9999,0,1,3,FEW 20   SCT 35   BKN 40,1,3,-1,6,1020,RJOM 110500Z 30019KT 9999 VCSH FEW020 SCT035 BKN040 03/M06     Q1020 RMK 1CU020 3CU035 5CU040 A3014=,VC SH
20180111_060000.002,0,RJOM,,,,0,20180111060000,-1,-1,-1,-1,280,-1,17,-1,-1,-1,-1,,9999,0,1,3,FEW 20   SCT 35   BKN 60,1,3,-1,8,1021,RJOM 110600Z 28017KT 9999 VCSH FEW020 SCT035 BKN060 03/M08     Q1021 RMK 1CU020 4CU035 5SC060 A3016=,VC SH
20180111_070000.002,0,RJOM,,,,0,20180111070000,-1,-1,-1,-1,280,-1,22,-1,-1,-1,-1,,9999,0,1,3,FEW 15   SCT 30   BKN 40,1,2,-1,7,1021,RJOM 110700Z 28022KT 9999 -SHSN FEW015 SCT030 BKN040 02/M07     Q1021 RMK 1CU015 3CU030 6CU040 A3017=,- SN SH
20180111_080000.002,0,RJOM,,,,0,20180111080000,-1,-1,-1,-1,290,-1,20,-1,31,-1,-1,,9999,0,1,3,FEW 12   SCT 30   BKN 40,1,2,-1,8,1021,RJOM 110800Z 29020G31KT 9999 VCSH FEW012 SCT030 BKN040 02/M08     Q1021 RMK 1CU012 3CU030 5CU040 A3018=,VC SH
20180111_090000.002,0,RJOM,,,,0,20180111090000,-1,-1,-1,-1,280,-1,22,-1,-1,-1,-1,,9999,0,0,2,FEW 15   SCT 35,1,1,-1,9,1022,RJOM 110900Z 28022KT 9999 FEW015 SCT035 01/M09 Q1022 RMK     1CU015 3CU035 A3020=,
20180111_100000.002,0,RJOM,,,,0,20180111100000,-1,-1,-1,-1,280,-1,19,-1,-1,-1,-1,,9999,0,0,1,FEW 30,1,1,-1,9,1023,RJOM 111000Z 28019KT 9999 FEW030 01/M09 Q1023 RMK 1CU030     A3021=,
20180111_110000.002,0,RJOM,,,,0,20180111110000,-1,-1,-1,-1,280,-1,20,-1,-1,-1,-1,,9999,0,0,2,FEW 30   SCT 80,1,1,-1,11,1023,RJOM 111100Z 28020KT 9999 FEW030 SCT080 01/M11 Q1023 RMK     1CU030 3AC080 A3023=,
20180111_120000.002,0,RJOM,,,,0,20180111120000,-1,-1,-1,-1,280,-1,19,-1,-1,-1,-1,,9999,0,0,1,FEW 30,1,1,-1,10,1023,RJOM 111200Z 28019KT 9999 FEW030 01/M10 Q1023 RMK 1CU030     A3022=,
20180111_220000.002,0,RJOM,,,,0,20180111220000,-1,-1,-1,-1,300,-1,21,-1,-1,-1,-1,,9999,0,0,2,FEW 20   SCT 40,1,0,-1,9,1025,RJOM 112200Z 30021KT 9999 FEW020 SCT040 00/M09 Q1025 RMK     1CU020 3CU040 A3028=,
20180111_230000.002,0,RJOM,,,,0,20180111230000,-1,-1,-1,-1,280,-1,20,-1,-1,-1,-1,,9999,0,0,1,FEW 20,1,1,-1,8,1026,RJOM 112300Z 28020KT 9999 FEW020 01/M08 Q1026 RMK 1CU020     A3031=,
20180112_000000.002,0,RJOM,,,,0,20180112000000,-1,-1,-1,-1,290,-1,15,-1,-1,-1,-1,,9999,0,0,1,FEW 20,1,2,-1,11,1026,RJOM 120000Z 29015KT 9999 FEW020 02/M11 Q1026 RMK 1CU020     A3032=,
20180112_010000.003,0,RJOM,,,,0,20180112010000,-1,-1,-1,-1,290,-1,15,-1,-1,250,310,,9999,0,0,1,FEW 20,1,3,-1,10,1027,RJOM 120100Z 29015KT 250V310 9999 FEW020 03/M10 Q1027 RMK     1CU020 A3033=,
20180112_020000.002,0,RJOM,,,,0,20180112020000,-1,-1,-1,-1,290,-1,14,-1,-1,-1,-1,,9999,0,0,1,FEW 20,1,4,-1,9,1026,RJOM 120200Z 29014KT 9999 FEW020 04/M09 Q1026 RMK 1CU020     A3031=,
20180112_030000.002,0,RJOM,,,,0,20180112030000,-1,-1,-1,-1,300,-1,10,-1,-1,270,330,,9999,0,0,1,FEW 20,1,3,-1,11,1025,RJOM 120300Z 30010KT 270V330 9999 FEW020 03/M11 Q1025 RMK     1CU020 A3028=,
20180112_040000.002,0,RJOM,,,,0,20180112040000,-1,-1,-1,-1,300,-1,8,-1,-1,260,330,,9999,0,0,1,FEW 20,1,3,-1,9,1024,RJOM 120400Z 30008KT 260V330 9999 FEW020 03/M09 Q1024 RMK     1CU020 A3026=,
20180112_050000.003,0,RJOM,,,,0,20180112050000,-1,-1,-1,-1,290,-1,4,-1,-1,210,360,,9999,0,0,1,FEW 25,1,3,-1,10,1024,RJOM 120500Z 29004KT 210V360 9999 FEW025 03/M10 Q1024 RMK     2CU025 A3026=,
20180112_060000.002,0,RJOM,,,,0,20180112060000,-1,-1,-1,-1,280,-1,5,-1,-1,210,340,,9999,0,1,1,FEW 25,1,4,-1,10,1025,RJOM 120600Z 28005KT 210V340 9999 VCSH FEW025 04/M10 Q1025 RMK     2CU025 A3027=,VC SH
20180112_070000.003,0,RJOM,,,,0,20180112070000,-1,-1,-1,-1,230,-1,13,-1,-1,-1,-1,,9999,0,1,1,FEW 25,1,2,-1,5,1025,RJOM 120700Z 23013KT 9999 VCSH FEW025 02/M05 Q1025 RMK 2CU025     A3028=,VC SH
20180112_080000.002,0,RJOM,,,,0,20180112080000,-1,-1,-1,-1,240,-1,8,-1,-1,-1,-1,,9999,0,1,1,FEW 25,1,1,-1,5,1025,RJOM 120800Z 24008KT 9999 VCSH FEW025 01/M05 Q1025 RMK 2CU025     A3029=,VC SH
20180112_090000.002,0,RJOM,,,,0,20180112090000,-1,-1,-1,-1,280,-1,6,-1,-1,250,320,,9999,0,1,2,FEW 25   SCT 50,1,2,-1,6,1026,RJOM 120900Z 28006KT 250V320 9999 VCSH FEW025 SCT050 02/M06     Q1026 RMK 2CU025 3SC050 A3030=,VC SH
20180112_100000.002,0,RJOM,,,,0,20180112100000,-1,-1,-1,-1,310,-1,4,-1,-1,240,20,,9999,0,1,3,FEW 15   SCT 30   BKN 40,1,2,-1,5,1026,RJOM 121000Z 31004KT 240V020 9999 -SHSN FEW015 SCT030 BKN040     02/M05 Q1026 RMK 1CU015 3CU030 6CU040 A3032=,- SN SH
20180112_110000.002,0,RJOM,,,,0,20180112110000,-1,-1,-1,-1,999,-1,3,-1,-1,-1,-1,,9999,0,1,3,FEW 15   SCT 30   BKN 40,1,1,-1,4,1027,RJOM 121100Z VRB03KT 9999 -SHSN FEW015 SCT030 BKN040 01/M04     Q1027 RMK 1CU015 3CU030 6CU040 A3034=,- SN SH
20180112_120000.002,0,RJOM,,,,0,20180112120000,-1,-1,-1,-1,280,-1,6,-1,-1,240,330,,9999,0,0,2,FEW 20   BKN 50,1,1,-1,5,1027,RJOM 121200Z 28006KT 240V330 9999 FEW020 BKN050 01/M05 Q1027     RMK 1CU020 5SC050 A3034=,
20180112_220000.002,0,RJOM,,,,0,20180112220000,-1,-1,-1,-1,290,-1,15,-1,-1,-1,-1,,9999,0,0,1,FEW 25,1,2,-1,6,1028,RJOM 122200Z 29015KT 9999 FEW025 02/M06 Q1028 RMK 1CU025     A3036=,
20180112_230000.002,0,RJOM,,,,0,20180112230000,-1,-1,-1,-1,290,-1,11,-1,-1,-1,-1,,9999,0,0,2,FEW 25   SCT 50,1,3,-1,6,1028,RJOM 122300Z 29011KT 9999 FEW025 SCT050 03/M06 Q1028 RMK     1CU025 3SC050 A3037=,
20180113_000000.002,0,RJOM,,,,0,20180113000000,-1,-1,-1,-1,270,-1,13,-1,-1,-1,-1,,9999,0,0,2,FEW 25   SCT 60,1,4,-1,5,1029,RJOM 130000Z 27013KT 9999 FEW025 SCT060 04/M05 Q1029 RMK     1CU025 3SC060 A3040=,
20180113_010000.003,0,RJOM,,,,0,20180113010000,-1,-1,-1,-1,260,-1,12,-1,-1,-1,-1,,9999,0,0,1,FEW 20,1,4,-1,5,1029,RJOM 130100Z 26012KT 9999 FEW020 04/M05 Q1029 RMK 1CU020     A3041=,
20180113_020000.002,0,RJOM,,,,0,20180113020000,-1,-1,-1,-1,260,-1,11,-1,-1,-1,-1,,9999,0,0,1,FEW 20,1,5,-1,4,1029,RJOM 130200Z 26011KT 9999 FEW020 05/M04 Q1029 RMK 1CU020     A3039=,
20180113_030000.002,0,RJOM,,,,0,20180113030000,-1,-1,-1,-1,280,-1,9,-1,-1,240,340,,9999,0,0,2,FEW 20   SCT 35,1,5,-1,5,1028,RJOM 130300Z 28009KT 240V340 9999 FEW020 SCT035 05/M05 Q1028     RMK 1CU020 4CU035 A3037=,
20180113_040000.002,0,RJOM,,,,0,20180113040000,-1,-1,-1,-1,290,-1,10,-1,-1,-1,-1,,9999,0,0,2,FEW 20   BKN 35,1,5,-1,4,1028,RJOM 130400Z 29010KT 9999 FEW020 BKN035 05/M04 Q1028 RMK     1CU020 5CU035 A3036=,
20180113_050000.002,0,RJOM,,,,0,20180113050000,-1,-1,-1,-1,260,-1,10,-1,-1,-1,-1,,9999,0,0,2,FEW 20   BKN 35,1,5,-1,3,1027,RJOM 130500Z 26010KT 9999 FEW020 BKN035 05/M03 Q1027 RMK     1CU020 6CU035 A3035=,
20180113_060000.002,0,RJOM,,,,0,20180113060000,-1,-1,-1,-1,270,-1,13,-1,-1,-1,-1,,9999,0,0,2,FEW 20   SCT 35,1,6,-1,3,1027,RJOM 130600Z 27013KT 9999 FEW020 SCT035 06/M03 Q1027 RMK     1CU020 4CU035 A3035=,
20180113_070000.002,0,RJOM,,,,0,20180113070000,-1,-1,-1,-1,290,-1,15,-1,-1,-1,-1,,9999,0,0,2,FEW 20   BKN 35,1,7,-1,3,1028,RJOM 130700Z 29015KT 9999 FEW020 BKN035 07/M03 Q1028 RMK     1CU020 5CU035 A3036=,
20180113_080000.002,0,RJOM,,,,0,20180113080000,-1,-1,-1,-1,280,-1,17,-1,-1,-1,-1,,9999,0,0,2,FEW 20   BKN 35,1,6,-1,3,1028,RJOM 130800Z 28017KT 9999 FEW020 BKN035 06/M03 Q1028 RMK     1CU020 6CU035 A3038=,
20180113_090000.002,0,RJOM,,,,0,20180113090000,-1,-1,-1,-1,300,-1,17,-1,-1,-1,-1,,9999,0,0,1,FEW 25,1,5,-1,3,1029,RJOM 130900Z 30017KT 9999 FEW025 05/M03 Q1029 RMK 1CU025     A3039=,
20180113_100000.002,0,RJOM,,,,0,20180113100000,-1,-1,-1,-1,310,-1,13,-1,-1,-1,-1,,9999,0,0,2,FEW 20   SCT 30,1,5,-1,3,1029,RJOM 131000Z 31013KT 9999 FEW020 SCT030 05/M03 Q1029 RMK     1CU020 3CU030 A3041=,
20180113_110000.002,0,RJOM,,,,0,20180113110000,-1,-1,-1,-1,320,-1,10,-1,-1,-1,-1,,9999,0,0,2,FEW 20   BKN 30,1,5,-1,3,1030,RJOM 131100Z 32010KT 9999 FEW020 BKN030 05/M03 Q1030 RMK     1CU020 5CU030 A3042=,
20180113_120000.002,0,RJOM,,,,0,20180113120000,-1,-1,-1,-1,300,-1,11,-1,-1,-1,-1,,9999,0,0,2,FEW 25   BKN 60,1,5,-1,3,1030,RJOM 131200Z 30011KT 9999 FEW025 BKN060 05/M03 Q1030 RMK     1CU025 5SC060 A3044=,
20180113_220000.002,0,RJOM,,,,0,20180113220000,-1,-1,-1,-1,110,-1,7,-1,-1,-1,-1,,9999,0,0,2,FEW 20   BKN -9999,1,0,-1,3,1030,RJOM 132200Z 11007KT 9999 FEW020 BKN/// 00/M03 Q1030 RMK     1CU020 A3044=,
20180113_230000.002,0,RJOM,,,,0,20180113230000,-1,-1,-1,-1,140,-1,6,-1,-1,-1,-1,,9999,0,0,2,FEW 20   BKN -9999,1,0,-1,3,1032,RJOM 132300Z 14006KT 9999 FEW020 BKN/// 00/M03 Q1032 RMK     1CU020 A3048=,
20180114_000000.003,0,RJOM,,,,0,20180114000000,-1,-1,-1,-1,110,-1,5,-1,-1,-1,-1,,9999,0,0,2,FEW 20   BKN -9999,1,2,-1,3,1033,RJOM 140000Z 11005KT 9999 FEW020 BKN/// 02/M03 Q1033 RMK     1CU020 A3051=,
20180114_010000.002,0,RJOM,,,,0,20180114010000,-1,-1,-1,-1,170,-1,3,-1,-1,120,240,,9999,0,0,2,FEW 20   BKN -9999,1,4,-1,2,1034,RJOM 140100Z 17003KT 120V240 9999 FEW020 BKN/// 04/M02 Q1034     RMK 1CU020 A3053=,
20180114_020000.002,0,RJOM,,,,0,20180114020000,-1,-1,-1,-1,140,-1,4,-1,-1,110,180,,9999,0,0,2,FEW 20   SCT -9999,1,6,-1,2,1032,RJOM 140200Z 14004KT 110V180 9999 FEW020 SCT/// 06/M02 Q1032     RMK 1CU020 A3050=,
20180114_030000.002,0,RJOM,,,,0,20180114030000,-1,-1,-1,-1,360,-1,6,-1,-1,310,60,,9999,0,0,2,FEW 25   SCT -9999,1,7,-1,3,1031,RJOM 140300Z 36006KT 310V060 9999 FEW025 SCT/// 07/M03 Q1031     RMK 1CU025 A3046=,
20180114_040000.002,0,RJOM,,,,0,20180114040000,-1,-1,-1,-1,340,-1,9,-1,-1,-1,-1,,9999,0,0,2,FEW 25   BKN -9999,1,7,-1,2,1030,RJOM 140400Z 34009KT 9999 FEW025 BKN/// 07/M02 Q1030 RMK     1CU025 A3042=,
20180114_050000.002,0,RJOM,,,,0,20180114050000,-1,-1,-1,-1,350,-1,9,-1,-1,320,20,,9999,0,0,2,FEW 30   BKN -9999,1,7,-1,2,1029,RJOM 140500Z 35009KT 320V020 9999 FEW030 BKN/// 07/M02 Q1029     RMK 1CU030 A3039=,
20180114_060000.003,0,RJOM,,,,0,20180114060000,-1,-1,-1,-1,340,-1,7,-1,-1,-1,-1,,9999,0,0,2,FEW 30   BKN -9999,1,7,-1,2,1028,RJOM 140600Z 34007KT 9999 FEW030 BKN/// 07/M02 Q1028 RMK     1CU030 A3037=,
20180114_070000.002,0,RJOM,,,,0,20180114070000,-1,-1,-1,-1,340,-1,5,-1,-1,-1,-1,,9999,0,0,3,FEW 30   BKN 180   BKN -9999,1,7,-1,2,1028,RJOM 140700Z 34005KT 9999 FEW030 BKN180 BKN/// 07/M02 Q1028     RMK 1CU030 5AC180 A3037=,
20180114_080000.002,0,RJOM,,,,0,20180114080000,-1,-1,-1,-1,340,-1,5,-1,-1,290,30,,9999,0,0,3,FEW 30   BKN 170   BKN -9999,1,7,-1,2,1028,RJOM 140800Z 34005KT 290V030 9999 FEW030 BKN170 BKN/// 07/M02     Q1028 RMK 1CU030 5AC170 A3037=,
20180114_090000.002,0,RJOM,,,,0,20180114090000,-1,-1,-1,-1,999,-1,2,-1,-1,-1,-1,,9999,0,0,3,FEW 30   SCT 45   BKN 170,1,7,-1,2,1029,RJOM 140900Z VRB02KT 9999 FEW030 SCT045 BKN170 07/M02 Q1029     RMK 1CU030 4SC045 6AC170 A3039=,
20180114_100000.002,0,RJOM,,,,0,20180114100000,-1,-1,-1,-1,120,-1,8,-1,-1,-1,-1,,9999,0,0,3,FEW 30   SCT 45   BKN 160,1,6,-1,2,1029,RJOM 141000Z 12008KT 9999 FEW030 SCT045 BKN160 06/M02 Q1029     RMK 1CU030 4SC045 5AC160 A3040=,
20180114_110000.002,0,RJOM,,,,0,20180114110000,-1,-1,-1,-1,110,-1,8,-1,-1,-1,-1,,9999,0,0,2,FEW 30   SCT 150,1,4,-1,1,1029,RJOM 141100Z 11008KT 9999 FEW030 SCT150 04/M01 Q1029 RMK     1CU030 4AC150 A3041=,
20180114_120000.002,0,RJOM,,,,0,20180114120000,-1,-1,-1,-1,120,-1,8,-1,-1,-1,-1,,9999,0,0,1,FEW 30,1,4,-1,1,1030,RJOM 141200Z 12008KT 9999 FEW030 04/M01 Q1030 RMK 1CU030     A3041=,
20180114_220000.002,0,RJOM,,,,0,20180114220000,-1,-1,-1,-1,90,-1,7,-1,-1,-1,-1,,9999,0,0,1,FEW 20,1,2,-1,1,1027,RJOM 142200Z 09007KT 9999 FEW020 02/M01 Q1027 RMK 1CU020     A3034=,
20180114_230000.002,0,RJOM,,,,0,20180114230000,-1,-1,-1,-1,999,-1,2,-1,-1,-1,-1,,9999,0,0,1,FEW 20,1,1,-1,1,1027,RJOM 142300Z VRB02KT 9999 FEW020 01/M01 Q1027 RMK 1CU020     A3035=,
20180115_000000.002,0,RJOM,,,,0,20180115000000,-1,-1,-1,-1,120,-1,9,-1,-1,-1,-1,,9999,0,0,2,FEW 25   BKN 60,1,4,-1,0,1027,RJOM 150000Z 12009KT 9999 FEW025 BKN060 04/M00 Q1027 RMK     1CU025 5SC060 A3035=,
20180115_010000.002,0,RJOM,,,,0,20180115010000,-1,-1,-1,-1,360,-1,5,-1,-1,340,40,,9999,0,0,2,FEW 25   BKN 70,1,7,1,2,1028,RJOM 150100Z 36005KT 340V040 9999 FEW025 BKN070 07/02 Q1028     RMK 1CU025 7AC070 A3036=,
20180115_020000.002,0,RJOM,,,,0,20180115020000,-1,-1,-1,-1,30,-1,5,-1,-1,-1,-1,,9999,0,0,2,FEW 25   BKN 80,1,8,1,3,1027,RJOM 150200Z 03005KT 9999 FEW025 BKN080 08/03 Q1027 RMK 1CU025     6AC080 A3033=,
20180115_030000.002,0,RJOM,,,,0,20180115030000,-1,-1,-1,-1,270,-1,4,-1,-1,220,320,,9999,0,0,2,FEW 25   BKN 80,1,9,1,2,1025,RJOM 150300Z 27004KT 220V320 9999 FEW025 BKN080 09/02 Q1025     RMK 1CU025 6AC080 A3028=,
20180115_040000.002,0,RJOM,,,,0,20180115040000,-1,-1,-1,-1,10,-1,3,-1,-1,-1,-1,,9999,0,0,2,FEW 25   BKN 60,1,9,1,4,1024,RJOM 150400Z 01003KT 9999 FEW025 BKN060 09/04 Q1024 RMK 1CU025     6SC060 A3024=,
20180115_050000.002,0,RJOM,,,,0,20180115050000,-1,-1,-1,-1,340,-1,4,-1,-1,300,10,,9999,0,0,2,FEW 25   BKN 50,1,9,1,4,1023,RJOM 150500Z 34004KT 300V010 9999 FEW025 BKN050 09/04 Q1023     RMK 1CU025 7SC050 A3022=,
20180115_060000.002,0,RJOM,,,,0,20180115060000,-1,-1,-1,-1,10,-1,5,-1,-1,340,60,,9999,0,0,3,FEW 25   BKN 45   BKN 70,1,9,1,4,1023,RJOM 150600Z 01005KT 340V060 9999 FEW025 BKN045 BKN070 09/04     Q1023 RMK 1CU025 5SC045 6AC070 A3023=,
20180115_070000.003,0,RJOM,,,,0,20180115070000,-1,-1,-1,-1,350,-1,3,-1,-1,310,20,,9999,0,0,2,FEW 25   BKN 50,1,9,1,5,1024,RJOM 150700Z 35003KT 310V020 9999 FEW025 BKN050 09/05 Q1024     RMK 1CU025 6SC050 A3025=,
20180115_080000.002,0,RJOM,,,,0,20180115080000,-1,-1,-1,-1,130,-1,5,-1,-1,-1,-1,,9999,0,0,1,FEW 25,1,9,1,4,1024,RJOM 150800Z 13005KT 9999 FEW025 09/04 Q1024 RMK 1CU025 A3025=,
20180115_090000.002,0,RJOM,,,,0,20180115090000,-1,-1,-1,-1,150,-1,3,-1,-1,100,230,,9999,0,0,2,FEW 25   SCT 50,1,8,1,4,1024,RJOM 150900Z 15003KT 100V230 9999 FEW025 SCT050 08/04 Q1024     RMK 1CU025 4SC050 A3026=,
20180115_100000.002,0,RJOM,,,,0,20180115100000,-1,-1,-1,-1,130,-1,7,-1,-1,-1,-1,,9999,0,0,2,FEW 25   BKN 45,1,8,1,4,1025,RJOM 151000Z 13007KT 9999 FEW025 BKN045 08/04 Q1025 RMK 1CU025     5SC045 A3027=,
20180115_110000.002,0,RJOM,,,,0,20180115110000,-1,-1,-1,-1,120,-1,9,-1,-1,-1,-1,,9999,0,0,1,FEW 25,1,8,1,4,1024,RJOM 151100Z 12009KT 9999 FEW025 08/04 Q1024 RMK 1CU025 A3025=,
20180115_120000.002,0,RJOM,,,,0,20180115120000,-1,-1,-1,-1,130,-1,6,-1,-1,-1,-1,,9999,0,0,1,FEW 45,1,7,1,3,1025,RJOM 151200Z 13006KT 9999 FEW045 07/03 Q1025 RMK 2SC045 A3027=,
20180115_220000.002,0,RJOM,,,,0,20180115220000,-1,-1,-1,-1,90,-1,4,-1,-1,70,140,,9999,0,0,1,FEW 25,1,6,1,3,1023,RJOM 152200Z 09004KT 070V140 9999 FEW025 06/03 Q1023 RMK     1CU025 A3021=,
20180115_230000.002,0,RJOM,,,,0,20180115230000,-1,-1,-1,-1,130,-1,5,-1,-1,-1,-1,,9999,0,0,2,FEW 20   BKN 60,1,4,1,3,1023,RJOM 152300Z 13005KT 9999 FEW020 BKN060 04/03 Q1023 RMK 1CU020     5SC060 A3021=,
20180116_000000.002,0,RJOM,,,,0,20180116000000,-1,-1,-1,-1,30,-1,4,-1,-1,-1,-1,,9999,0,0,1,FEW 6,1,8,1,7,1022,RJOM 160000Z 03004KT 9999 FEW006 08/07 Q1022 RMK 1ST006 A3021=,
20180116_010000.002,0,RJOM,,,,0,20180116010000,-1,-1,-1,-1,10,-1,6,-1,-1,-1,-1,,8000,0,0,2,FEW 8   BKN 60,1,11,1,8,1022,RJOM 160100Z 01006KT 8000 FEW008 BKN060 11/08 Q1022 RMK 1ST008     5SC060 A3020=,
20180116_020000.002,0,RJOM,,,,0,20180116020000,-1,-1,-1,-1,360,-1,13,-1,-1,-1,-1,,8000,0,0,2,FEW 15   BKN 60,1,12,1,8,1022,RJOM 160200Z 36013KT 8000 FEW015 BKN060 12/08 Q1022 RMK 1CU015     5SC060 A3018=,
20180116_030000.002,0,RJOM,,,,0,20180116030000,-1,-1,-1,-1,360,-1,12,-1,-1,-1,-1,,8000,0,0,1,FEW 20,1,12,1,7,1020,RJOM 160300Z 36012KT 8000 FEW020 12/07 Q1020 RMK 1CU020 A3014=,
20180116_040000.002,0,RJOM,,,,0,20180116040000,-1,-1,-1,-1,360,-1,11,-1,-1,-1,-1,,9000,0,0,2,FEW 25   BKN 60,1,13,1,7,1019,RJOM 160400Z 36011KT 9000 FEW025 BKN060 13/07 Q1019 RMK 1CU025     5SC060 A3009=,
20180116_050000.002,0,RJOM,,,,0,20180116050000,-1,-1,-1,-1,350,-1,11,-1,-1,-1,-1,,9999,0,0,2,FEW 25   SCT 60,1,13,1,8,1017,RJOM 160500Z 35011KT 9999 FEW025 SCT060 13/08 Q1017 RMK 1CU025     3SC060 A3005=,
20180116_060000.002,0,RJOM,,,,0,20180116060000,-1,-1,-1,-1,350,-1,11,-1,-1,-1,-1,,9999,0,0,2,FEW 25   SCT 60,1,14,1,8,1017,RJOM 160600Z 35011KT 9999 FEW025 SCT060 14/08 Q1017 RMK 1CU025     3SC060 A3003=,
20180116_070000.002,0,RJOM,,,,0,20180116070000,-1,-1,-1,-1,360,-1,11,-1,-1,-1,-1,,8000,0,0,2,FEW 25   BKN 70,1,13,1,8,1016,RJOM 160700Z 36011KT 8000 FEW025 BKN070 13/08 Q1016 RMK 1CU025     6AC070 A3003=,
20180116_080000.002,0,RJOM,,,,0,20180116080000,-1,-1,-1,-1,10,-1,5,-1,-1,-1,-1,,8000,0,0,3,FEW 25   SCT 40   BKN 60,1,12,1,8,1016,RJOM 160800Z 01005KT 8000 FEW025 SCT040 BKN060 12/08 Q1016 RMK     1CU025 3CU040 5SC060 A3003=,
20180116_090000.002,0,RJOM,,,,0,20180116090000,-1,-1,-1,-1,150,-1,11,-1,-1,-1,-1,,8000,0,0,3,FEW 25   SCT 40   BKN 80,1,14,1,9,1016,RJOM 160900Z 15011KT 8000 FEW025 SCT040 BKN080 14/09 Q1016 RMK     1CU025 3CU040 6AC080 A3001=,
20180116_100000.002,0,RJOM,,,,0,20180116100000,-1,-1,-1,-1,80,-1,5,-1,-1,20,120,,9999,0,0,2,FEW 25   SCT 70,1,15,1,8,1015,RJOM 161000Z 08005KT 020V120 9999 FEW025 SCT070 15/08 Q1015     RMK 1CU025 3AC070 A2998=,
20180116_110000.004,0,RJOM,,,,0,20180116110000,-1,-1,-1,-1,170,-1,12,-1,-1,-1,-1,,9999,0,0,2,FEW 25   BKN 70,1,16,1,8,1015,RJOM 161100Z 17012KT 9999 FEW025 BKN070 16/08 Q1015 RMK 1CU025     6AC070 A3000=,
20180116_120000.002,0,RJOM,,,,0,20180116120000,-1,-1,-1,-1,180,-1,6,-1,-1,150,230,,9999,0,1,3,FEW 25   SCT 45   BKN 70,1,16,1,8,1015,RJOM 161200Z 18006KT 150V230 9999 -RA FEW025 SCT045 BKN070     16/08 Q1015 RMK 1CU025 3SC045 6AC070 A2999=,- RA
20180116_220000.002,0,RJOM,,,,0,20180116220000,-1,-1,-1,-1,20,-1,4,-1,-1,-1,-1,,9000,0,1,3,FEW 5   SCT 25   BKN 50,1,12,1,11,1011,RJOM 162200Z 02004KT 9000 -SHRA FEW005 SCT025 BKN050 12/11     Q1011 RMK 1ST005 4CU025 5SC050 A2988=,- RA SH
20180116_230000.002,0,RJOM,,,,0,20180116230000,-1,-1,-1,-1,120,-1,4,-1,-1,-1,-1,,9000,0,1,3,FEW 5   SCT 30   BKN 60,1,12,1,11,1011,RJOM 162300Z 12004KT 9000 -SHRA FEW005 SCT030 BKN060 12/11     Q1011 RMK 1ST005 4CU030 5SC060 A2987=,- RA SH
20180117_000000.002,0,RJOM,,,,0,20180117000000,-1,-1,-1,-1,110,-1,9,-1,-1,-1,-1,,9999,0,1,3,FEW 2   SCT 30   BKN 60,1,13,1,12,1010,RJOM 170000Z 11009KT 9999 -SHRA FEW002 SCT030 BKN060 13/12     Q1010 RMK 1ST002 3CU030 5SC060 A2984=,- RA SH
20180117_010000.002,0,RJOM,,,,0,20180117010000,-1,-1,-1,-1,130,-1,4,-1,-1,-1,-1,,9999,0,0,3,FEW 2   SCT 40   BKN 80,1,14,1,13,1010,RJOM 170100Z 13004KT 9999 FEW002 SCT040 BKN080 14/13 Q1010 RMK     1ST002 3CU040 5AC080 A2985=,
20180117_020000.004,0,RJOM,,,,0,20180117020000,-1,-1,-1,-1,360,-1,11,-1,-1,-1,-1,,8000,0,0,3,FEW 2   SCT 40   BKN 60,1,13,1,12,1011,RJOM 170200Z 36011KT 8000 FEW002 SCT040 BKN060 13/12 Q1011 RMK     1ST002 3CU040 5SC060 A2986=,
20180117_030000.002,0,RJOM,,,,0,20180117030000,-1,-1,-1,-1,999,-1,1,-1,-1,-1,-1,,8000,0,1,3,FEW 2   SCT 35   BKN 50,1,14,1,12,1010,RJOM 170300Z VRB01KT 8000 -SHRA FEW002 SCT035 BKN050 14/12     Q1010 RMK 1ST002 4CU035 5SC050 A2983=,- RA SH
20180117_040000.003,0,RJOM,,,,0,20180117040000,-1,-1,-1,-1,999,-1,1,-1,-1,-1,-1,,7000,0,0,3,FEW 2   SCT 35   BKN 50,1,13,1,12,1009,RJOM 170400Z VRB01KT 7000 FEW002 SCT035 BKN050 13/12 Q1009 RMK     1ST002 4CU035 5SC050 A2981=,
20180117_050000.003,0,RJOM,,,,0,20180117050000,-1,-1,-1,-1,999,-1,2,-1,-1,-1,-1,,9999,0,0,3,FEW 2   SCT 25   BKN 60,1,13,1,12,1009,RJOM 170500Z VRB02KT 9999 FEW002 SCT025 BKN060 13/12 Q1009 RMK     1ST002 4CU025 5SC060 A2981=,
20180117_060000.002,0,RJOM,,,,0,20180117060000,-1,-1,-1,-1,280,-1,4,-1,-1,240,310,,4000,0,2,3,FEW 2   BKN 20   BKN 60,1,13,1,11,1009,RJOM 170600Z 28004KT 240V310 4000 SHRA BR FEW002 BKN020 BKN060     13/11 Q1009 RMK 1ST002 5CU020 6SC060 A2982=,RA SH; BR
20180117_070000.002,0,RJOM,,,,0,20180117070000,-1,-1,-1,-1,250,-1,12,-1,-1,-1,-1,,9999,0,1,3,FEW 6   SCT 25   BKN 50,1,13,1,12,1011,RJOM 170700Z 25012KT 9999 -SHRA FEW006 SCT025 BKN050 13/12     Q1011 RMK 1ST006 3CU025 6SC050 A2987=,- RA SH
20180117_080000.002,0,RJOM,,,,0,20180117080000,-1,-1,-1,-1,220,-1,14,-1,-1,-1,-1,,9999,0,0,2,FEW 6   BKN 60,1,13,1,11,1012,RJOM 170800Z 22014KT 9999 FEW006 BKN060 13/11 Q1012 RMK 1ST006     6SC060 A2990=,
20180117_090000.003,0,RJOM,,,,0,20180117090000,-1,-1,-1,-1,230,-1,10,-1,-1,-1,-1,,9999,0,0,2,FEW 8   BKN 60,1,13,1,11,1014,RJOM 170900Z 23010KT 9999 FEW008 BKN060 13/11 Q1014 RMK 1ST008     7SC060 A2994=,
20180117_100000.002,0,RJOM,,,,0,20180117100000,-1,-1,-1,-1,270,-1,13,-1,-1,-1,-1,,9999,0,0,2,FEW 15   BKN 60,1,13,1,9,1015,RJOM 171000Z 27013KT 9999 FEW015 BKN060 13/09 Q1015 RMK 1CU015     6SC060 A2998=,
20180117_110000.003,0,RJOM,,,,0,20180117110000,-1,-1,-1,-1,300,-1,12,-1,-1,-1,-1,,9999,0,0,3,FEW 20   SCT 50   BKN 70,1,12,1,8,1016,RJOM 171100Z 30012KT 9999 FEW020 SCT050 BKN070 12/08 Q1016 RMK     1CU020 4SC050 6AC070 A3000=,
20180117_120000.003,0,RJOM,,,,0,20180117120000,-1,-1,-1,-1,320,-1,7,-1,-1,-1,-1,,9999,0,0,2,FEW 20   BKN 60,1,12,1,9,1016,RJOM 171200Z 32007KT 9999 FEW020 BKN060 12/09 Q1016 RMK 2CU020     6SC060 A3003=,
20180117_220000.003,0,RJOM,,,,0,20180117220000,-1,-1,-1,-1,120,-1,7,-1,-1,-1,-1,,9999,0,0,1,FEW 20,1,7,1,5,1019,RJOM 172200Z 12007KT 9999 FEW020 07/05 Q1019 RMK 1CU020 A3009=,
20180117_230000.002,0,RJOM,,,,0,20180117230000,-1,-1,-1,-1,130,-1,8,-1,-1,-1,-1,,9999,0,0,1,FEW 20,1,6,1,4,1020,RJOM 172300Z 13008KT 9999 FEW020 06/04 Q1020 RMK 2CU020 A3012=,
20180118_000000.002,0,RJOM,,,,0,20180118000000,-1,-1,-1,-1,120,-1,8,-1,-1,-1,-1,,9999,0,0,3,FEW 20   SCT 30   BKN 50,1,7,1,5,1021,RJOM 180000Z 12008KT 9999 FEW020 SCT030 BKN050 07/05 Q1021 RMK     1CU020 3CU030 5SC050 A3015=,
20180118_010000.002,0,RJOM,,,,0,20180118010000,-1,-1,-1,-1,120,-1,10,-1,-1,-1,-1,,9999,0,0,3,FEW 25   SCT 40   BKN 50,1,10,1,7,1020,RJOM 180100Z 12010KT 9999 FEW025 SCT040 BKN050 10/07 Q1020 RMK     1CU025 3CU040 5SC050 A3013=,
20180118_020000.002,0,RJOM,,,,0,20180118020000,-1,-1,-1,-1,160,-1,4,-1,-1,110,230,,9999,0,0,2,FEW 25   BKN 50,1,12,1,6,1020,RJOM 180200Z 16004KT 110V230 9999 FEW025 BKN050 12/06 Q1020     RMK 1CU025 6SC050 A3013=,
20180118_030000.003,0,RJOM,,,,0,20180118030000,-1,-1,-1,-1,250,-1,5,-1,-1,180,280,,9999,0,0,2,FEW 25   BKN 50,1,12,1,6,1020,RJOM 180300Z 25005KT 180V280 9999 FEW025 BKN050 12/06 Q1020     RMK 1CU025 5SC050 A3013=,
20180118_040000.002,0,RJOM,,,,0,20180118040000,-1,-1,-1,-1,220,-1,6,-1,-1,150,270,,9999,0,0,2,FEW 25   SCT 50,1,12,1,6,1019,RJOM 180400Z 22006KT 150V270 9999 FEW025 SCT050 12/06 Q1019     RMK 1CU025 3SC050 A3010=,
20180118_050000.002,0,RJOM,,,,0,20180118050000,-1,-1,-1,-1,200,-1,7,-1,-1,-1,-1,,9999,0,0,1,FEW 25,1,13,1,7,1019,RJOM 180500Z 20007KT 9999 FEW025 13/07 Q1019 RMK 1CU025 A3009=,
20180118_060000.002,0,RJOM,,,,0,20180118060000,-1,-1,-1,-1,220,-1,9,-1,-1,-1,-1,,9999,0,0,1,FEW 25,1,13,1,6,1018,RJOM 180600Z 22009KT 9999 FEW025 13/06 Q1018 RMK 1CU025 A3008=,
20180118_070000.002,0,RJOM,,,,0,20180118070000,-1,-1,-1,-1,220,-1,7,-1,-1,-1,-1,,9999,0,0,1,FEW 25,1,12,1,7,1019,RJOM 180700Z 22007KT 9999 FEW025 12/07 Q1019 RMK 1CU025 A3009=,
20180118_080000.002,0,RJOM,,,,0,20180118080000,-1,-1,-1,-1,220,-1,8,-1,-1,-1,-1,,9999,0,0,3,FEW 25   SCT 40   BKN 50,1,11,1,8,1019,RJOM 180800Z 22008KT 9999 FEW025 SCT040 BKN050 11/08 Q1019 RMK     1CU025 4CU040 5SC050 A3011=,
20180118_090000.002,0,RJOM,,,,0,20180118090000,-1,-1,-1,-1,999,-1,7,-1,-1,-1,-1,,9999,0,0,2,FEW 15   BKN 40,1,11,1,8,1019,RJOM 180900Z VRB07KT 9999 FEW015 BKN040 11/08 Q1019 RMK 1CU015     5CU040 A3011=,
20180118_100000.002,0,RJOM,,,,0,20180118100000,-1,-1,-1,-1,170,-1,3,-1,-1,140,220,,9999,0,0,2,FEW 20   BKN 50,1,11,1,7,1020,RJOM 181000Z 17003KT 140V220 9999 FEW020 BKN050 11/07 Q1020     RMK 1CU020 6SC050 A3013=,
20180118_110000.002,0,RJOM,,,,0,20180118110000,-1,-1,-1,-1,120,-1,7,-1,-1,-1,-1,,9999,0,0,2,FEW 20   BKN 50,1,11,1,7,1020,RJOM 181100Z 12007KT 9999 FEW020 BKN050 11/07 Q1020 RMK 1CU020     5SC050 A3014=,
20180118_120000.002,0,RJOM,,,,0,20180118120000,-1,-1,-1,-1,120,-1,7,-1,-1,-1,-1,,9999,0,0,2,FEW 20   BKN 45,1,10,1,6,1020,RJOM 181200Z 12007KT 9999 FEW020 BKN045 10/06 Q1020 RMK 1CU020     5SC045 A3015=,
20180118_220000.002,0,RJOM,,,,0,20180118220000,-1,-1,-1,-1,120,-1,6,-1,-1,-1,-1,,8000,0,0,2,FEW 20   BKN 50,1,8,1,4,1021,RJOM 182200Z 12006KT 8000 FEW020 BKN050 08/04 Q1021 RMK 1CU020     6SC050 A3016=,
20180118_230000.003,0,RJOM,,,,0,20180118230000,-1,-1,-1,-1,110,-1,7,-1,-1,-1,-1,,7000,0,0,2,FEW 20   SCT 50,1,8,1,4,1021,RJOM 182300Z 11007KT 7000 FEW020 SCT050 08/04 Q1021 RMK 1CU020     3SC050 A3016=,
20180119_000000.002,0,RJOM,,,,0,20180119000000,-1,-1,-1,-1,130,-1,4,-1,-1,90,170,,6000,0,0,1,FEW 25,1,9,1,5,1021,RJOM 190000Z 13004KT 090V170 6000 FEW025 09/05 Q1021 RMK     1CU025 A3016=,
20180119_010000.003,0,RJOM,,,,0,20180119010000,-1,-1,-1,-1,999,-1,1,-1,-1,-1,-1,,7000,0,0,1,FEW 25,1,10,1,5,1021,RJOM 190100Z VRB01KT 7000 FEW025 10/05 Q1021 RMK 1CU025 A3015=,
20180119_020000.002,0,RJOM,,,,0,20180119020000,-1,-1,-1,-1,270,-1,5,-1,-1,240,300,,8000,0,0,1,FEW 25,1,11,1,6,1020,RJOM 190200Z 27005KT 240V300 8000 FEW025 11/06 Q1020 RMK     1CU025 A3014=,
20180119_030000.002,0,RJOM,,,,0,20180119030000,-1,-1,-1,-1,340,-1,8,-1,-1,-1,-1,,9000,0,0,1,FEW 25,1,12,1,4,1020,RJOM 190300Z 34008KT 9000 FEW025 12/04 Q1020 RMK 1CU025 A3013=,
20180119_040000.002,0,RJOM,,,,0,20180119040000,-1,-1,-1,-1,340,-1,10,-1,-1,-1,-1,,8000,0,0,1,FEW 25,1,12,1,5,1019,RJOM 190400Z 34010KT 8000 FEW025 12/05 Q1019 RMK 1CU025 A3009=,
20180119_050000.003,0,RJOM,,,,0,20180119050000,-1,-1,-1,-1,320,-1,8,-1,-1,280,350,,8000,0,0,1,FEW 25,1,12,1,2,1017,RJOM 190500Z 32008KT 280V350 8000 FEW025 12/02 Q1017 RMK     1CU025 A3006=,
20180119_060000.002,0,RJOM,,,,0,20180119060000,-1,-1,-1,-1,300,-1,9,-1,-1,-1,-1,,9000,0,0,1,FEW 30,1,12,1,3,1017,RJOM 190600Z 30009KT 9000 FEW030 12/03 Q1017 RMK 1CU030 A3005=,
20180119_070000.002,0,RJOM,,,,0,20180119070000,-1,-1,-1,-1,310,-1,9,-1,-1,-1,-1,,9000,0,0,2,FEW 30   SCT 50,1,12,1,2,1018,RJOM 190700Z 31009KT 9000 FEW030 SCT050 12/02 Q1018 RMK 1CU030     3SC050 A3008=,
20180119_080000.002,0,RJOM,,,,0,20180119080000,-1,-1,-1,-1,330,-1,2,-1,-1,-1,-1,,9000,0,0,1,FEW 30,1,11,1,1,1018,RJOM 190800Z 33002KT 9000 FEW030 11/01 Q1018 RMK 1CU030 A3007=,
20180119_090000.003,0,RJOM,,,,0,20180119090000,-1,-1,-1,-1,250,-1,5,-1,-1,-1,-1,,8000,0,0,1,FEW 30,1,11,1,2,1018,RJOM 190900Z 25005KT 8000 FEW030 11/02 Q1018 RMK 1CU030 A3009=,
20180119_100000.002,0,RJOM,,,,0,20180119100000,-1,-1,-1,-1,250,-1,5,-1,-1,-1,-1,,8000,0,0,1,FEW 30,1,10,1,4,1018,RJOM 191000Z 25005KT 8000 FEW030 10/04 Q1018 RMK 1CU030 A3009=,
20180119_110000.002,0,RJOM,,,,0,20180119110000,-1,-1,-1,-1,110,-1,7,-1,-1,-1,-1,,8000,0,0,1,FEW 30,1,9,1,3,1018,RJOM 191100Z 11007KT 8000 FEW030 09/03 Q1018 RMK 1CU030 A3009=,
20180119_120000.003,0,RJOM,,,,0,20180119120000,-1,-1,-1,-1,110,-1,11,-1,-1,-1,-1,,8000,0,0,1,FEW 30,1,8,1,3,1019,RJOM 191200Z 11011KT 8000 FEW030 08/03 Q1019 RMK 1CU030 A3009=,
20180119_220000.002,0,RJOM,,,,0,20180119220000,-1,-1,-1,-1,110,-1,10,-1,-1,-1,-1,,6000,0,0,2,FEW 20   SCT 50,1,5,1,2,1019,RJOM 192200Z 11010KT 6000 FEW020 SCT050 05/02 Q1019 RMK 1CU020     3SC050 A3010=,
20180119_230000.002,0,RJOM,,,,0,20180119230000,-1,-1,-1,-1,110,-1,8,-1,-1,-1,-1,,6000,0,0,1,FEW 20,1,5,1,2,1019,RJOM 192300Z 11008KT 6000 FEW020 05/02 Q1019 RMK 1CU020 A3012=,
20180120_000000.002,0,RJOM,,,,0,20180120000000,-1,-1,-1,-1,120,-1,8,-1,-1,-1,-1,,6000,0,0,1,FEW 20,1,6,1,3,1019,RJOM 200000Z 12008KT 6000 FEW020 06/03 Q1019 RMK 1CU020 A3012=,
20180120_010000.002,0,RJOM,,,,0,20180120010000,-1,-1,-1,-1,130,-1,4,-1,-1,110,180,,6000,0,0,1,FEW 25,1,9,1,4,1020,RJOM 200100Z 13004KT 110V180 6000 FEW025 09/04 Q1020 RMK     1CU025 A3012=,
20180120_020000.003,0,RJOM,,,,0,20180120020000,-1,-1,-1,-1,280,-1,4,-1,-1,230,310,,6000,0,0,1,FEW 25,1,10,1,4,1020,RJOM 200200Z 28004KT 230V310 6000 FEW025 10/04 Q1020 RMK     1CU025 A3012=,
20180120_030000.002,0,RJOM,,,,0,20180120030000,-1,-1,-1,-1,270,-1,7,-1,-1,-1,-1,,7000,0,0,2,FEW 30   BKN -9999,1,11,1,5,1020,RJOM 200300Z 27007KT 7000 FEW030 BKN/// 11/05 Q1020 RMK 1CU030     A3014=,
20180120_040000.002,0,RJOM,,,,0,20180120040000,-1,-1,-1,-1,310,-1,5,-1,-1,290,350,,8000,0,0,1,FEW 30,1,11,1,3,1019,RJOM 200400Z 31005KT 290V350 8000 FEW030 11/03 Q1019 RMK     1CU030 A3010=,
20180120_050000.002,0,RJOM,,,,0,20180120050000,-1,-1,-1,-1,290,-1,3,-1,-1,230,360,,9000,0,0,1,FEW 30,1,11,-1,1,1018,RJOM 200500Z 29003KT 230V360 9000 FEW030 11/M01 Q1018 RMK     1CU030 A3006=,
20180120_060000.002,0,RJOM,,,,0,20180120060000,-1,-1,-1,-1,260,-1,6,-1,-1,-1,-1,,9999,0,0,2,FEW 30   SCT -9999,1,11,-1,0,1017,RJOM 200600Z 26006KT 9999 FEW030 SCT/// 11/M00 Q1017 RMK     1CU030 A3006=,
20180120_070000.002,0,RJOM,,,,0,20180120070000,-1,-1,-1,-1,270,-1,5,-1,-1,-1,-1,,9999,0,0,2,FEW 30   BKN -9999,1,11,1,0,1018,RJOM 200700Z 27005KT 9999 FEW030 BKN/// 11/00 Q1018 RMK 1CU030     A3008=,
20180120_080000.002,0,RJOM,,,,0,20180120080000,-1,-1,-1,-1,230,-1,3,-1,-1,-1,-1,,9999,0,0,2,FEW 30   BKN -9999,1,10,1,1,1019,RJOM 200800Z 23003KT 9999 FEW030 BKN/// 10/01 Q1019 RMK 1CU030     A3009=,
20180120_090000.002,0,RJOM,,,,0,20180120090000,-1,-1,-1,-1,190,-1,5,-1,-1,150,260,,9999,0,0,2,FEW 30   BKN -9999,1,10,1,1,1019,RJOM 200900Z 19005KT 150V260 9999 FEW030 BKN/// 10/01 Q1019     RMK 1CU030 A3009=,
20180120_100000.002,0,RJOM,,,,0,20180120100000,-1,-1,-1,-1,130,-1,6,-1,-1,-1,-1,,9000,0,0,2,FEW 25   BKN -9999,1,8,1,1,1019,RJOM 201000Z 13006KT 9000 FEW025 BKN/// 08/01 Q1019 RMK 1CU025     A3010=,
20180120_110000.002,0,RJOM,,,,0,20180120110000,-1,-1,-1,-1,120,-1,8,-1,-1,-1,-1,,9000,0,0,2,FEW 25   BKN -9999,1,8,1,1,1019,RJOM 201100Z 12008KT 9000 FEW025 BKN/// 08/01 Q1019 RMK 1CU025     A3011=,
20180120_120000.002,0,RJOM,,,,0,20180120120000,-1,-1,-1,-1,110,-1,9,-1,-1,-1,-1,,9000,0,0,2,FEW 25   SCT -9999,1,7,1,1,1020,RJOM 201200Z 11009KT 9000 FEW025 SCT/// 07/01 Q1020 RMK 1CU025     A3012=,
20180120_220000.002,0,RJOM,,,,0,20180120220000,-1,-1,-1,-1,120,-1,7,-1,-1,-1,-1,,9999,0,0,1,FEW 25,1,4,1,1,1020,RJOM 202200Z 12007KT 9999 FEW025 04/01 Q1020 RMK 1CU025 A3014=,
20180120_230000.002,0,RJOM,,,,0,20180120230000,-1,-1,-1,-1,110,-1,5,-1,-1,-1,-1,,9000,0,0,1,FEW 25,1,4,1,1,1021,RJOM 202300Z 11005KT 9000 FEW025 04/01 Q1021 RMK 1CU025 A3015=,
20180121_000000.002,0,RJOM,,,,0,20180121000000,-1,-1,-1,-1,130,-1,6,-1,-1,-1,-1,,9000,0,0,1,FEW 25,1,6,1,2,1021,RJOM 210000Z 13006KT 9000 FEW025 06/02 Q1021 RMK 1CU025 A3018=,
20180121_010000.002,0,RJOM,,,,0,20180121010000,-1,-1,-1,-1,999,-1,4,-1,-1,-1,-1,,9999,0,0,1,FEW 25,1,9,1,3,1021,RJOM 210100Z VRB04KT 9999 FEW025 09/03 Q1021 RMK 1CU025 A3017=,
20180121_020000.002,0,RJOM,,,,0,20180121020000,-1,-1,-1,-1,360,-1,6,-1,-1,320,40,,9999,0,0,2,FEW 25   SCT -9999,1,11,-1,1,1021,RJOM 210200Z 36006KT 320V040 9999 FEW025 SCT/// 11/M01 Q1021     RMK 1CU025 A3015=,
20180121_030000.002,0,RJOM,,,,0,20180121030000,-1,-1,-1,-1,350,-1,11,-1,-1,-1,-1,,9999,0,0,2,FEW 25   SCT -9999,1,11,-1,1,1021,RJOM 210300Z 35011KT 9999 FEW025 SCT/// 11/M01 Q1021 RMK     1CU025 A3015=,
20180121_040000.003,0,RJOM,,,,0,20180121040000,-1,-1,-1,-1,360,-1,11,-1,-1,-1,-1,,9999,0,0,2,FEW 30   SCT -9999,1,11,-1,0,1020,RJOM 210400Z 36011KT 9999 FEW030 SCT/// 11/M00 Q1020 RMK     1CU030 A3013=,
20180121_050000.002,0,RJOM,,,,0,20180121050000,-1,-1,-1,-1,340,-1,11,-1,-1,-1,-1,,9999,0,0,1,FEW 30,1,12,-1,0,1019,RJOM 210500Z 34011KT 9999 FEW030 12/M00 Q1019 RMK 1CU030     A3011=,
20180121_060000.002,0,RJOM,,,,0,20180121060000,-1,-1,-1,-1,350,-1,11,-1,-1,-1,-1,,9999,0,0,2,FEW 30   SCT -9999,1,12,-1,2,1019,RJOM 210600Z 35011KT 9999 FEW030 SCT/// 12/M02 Q1019 RMK     1CU030 A3010=,
20180121_070000.002,0,RJOM,,,,0,20180121070000,-1,-1,-1,-1,360,-1,11,-1,-1,-1,-1,,9999,0,0,2,FEW 30   SCT -9999,1,11,-1,1,1019,RJOM 210700Z 36011KT 9999 FEW030 SCT/// 11/M01 Q1019 RMK     1CU030 A3010=,
20180121_080000.002,0,RJOM,,,,0,20180121080000,-1,-1,-1,-1,20,-1,9,-1,-1,-1,-1,,9999,0,0,2,FEW 35   SCT -9999,1,11,-1,2,1019,RJOM 210800Z 02009KT 9999 FEW035 SCT/// 11/M02 Q1019 RMK     1CU035 A3011=,
20180121_090000.002,0,RJOM,,,,0,20180121090000,-1,-1,-1,-1,40,-1,7,-1,-1,-1,-1,,9999,0,0,2,FEW 30   SCT -9999,1,10,-1,2,1020,RJOM 210900Z 04007KT 9999 FEW030 SCT/// 10/M02 Q1020 RMK     1CU030 A3013=,
20180121_100000.002,0,RJOM,,,,0,20180121100000,-1,-1,-1,-1,50,-1,7,-1,-1,-1,-1,,9999,0,0,2,FEW 30   BKN -9999,1,10,-1,2,1020,RJOM 211000Z 05007KT 9999 FEW030 BKN/// 10/M02 Q1020 RMK     1CU030 A3014=,
20180121_110000.002,0,RJOM,,,,0,20180121110000,-1,-1,-1,-1,50,-1,7,-1,-1,350,80,,9999,0,0,2,FEW 30   SCT -9999,1,9,-1,3,1020,RJOM 211100Z 05007KT 350V080 9999 FEW030 SCT/// 09/M03 Q1020     RMK 1CU030 A3013=,
20180121_120000.002,0,RJOM,,,,0,20180121120000,-1,-1,-1,-1,20,-1,8,-1,-1,-1,-1,,9999,0,0,2,FEW 30   SCT -9999,1,9,-1,3,1020,RJOM 211200Z 02008KT 9999 FEW030 SCT/// 09/M03 Q1020 RMK     1CU030 A3013=,
20180121_220000.002,0,RJOM,,,,0,20180121220000,-1,-1,-1,-1,160,-1,5,-1,-1,-1,-1,,9999,0,1,3,FEW 25   SCT 45   BKN 60,1,7,-1,1,1015,RJOM 212200Z 16005KT 9999 -RA FEW025 SCT045 BKN060 07/M01     Q1015 RMK 1CU025 4SC045 6SC060 A2998=,- RA
20180121_230000.002,0,RJOM,,,,0,20180121230000,-1,-1,-1,-1,120,-1,8,-1,-1,-1,-1,,6000,0,1,3,FEW 20   SCT 30   BKN 45,1,6,1,2,1015,RJOM 212300Z 12008KT 6000 -RA FEW020 SCT030 BKN045 06/02 Q1015     RMK 1CU020 4CU030 7SC045 A2999=,- RA
20180122_000000.002,0,RJOM,,,,0,20180122000000,-1,-1,-1,-1,60,-1,7,-1,-1,30,100,,6000,0,1,3,FEW 20   SCT 30   BKN 45,1,5,1,2,1015,RJOM 220000Z 06007KT 030V100 6000 -RA FEW020 SCT030 BKN045     05/02 Q1015 RMK 1CU020 3CU030 7SC045 A2999=,- RA
20180122_010000.002,0,RJOM,,,,0,20180122010000,-1,-1,-1,-1,999,-1,2,-1,-1,-1,-1,,6000,0,1,3,FEW 8   SCT 20   BKN 40,1,5,1,3,1015,RJOM 220100Z VRB02KT 6000 -RA FEW008 SCT020 BKN040 05/03 Q1015     RMK 1ST008 3CU020 7SC040 A2999=,- RA
20180122_020000.002,0,RJOM,,,,0,20180122020000,-1,-1,-1,-1,50,-1,4,-1,-1,-1,-1,,6000,0,1,3,FEW 10   SCT 15   BKN 30,1,5,1,3,1014,RJOM 220200Z 05004KT 6000 SHRA FEW010 SCT015 BKN030 05/03     Q1014 RMK 1ST010 3CU015 6CU030 A2996=,RA SH
20180122_030000.002,0,RJOM,,,,0,20180122030000,-1,-1,-1,-1,180,-1,3,-1,-1,140,210,,9999,0,1,3,FEW 3   SCT 10   BKN 25,1,4,1,2,1012,RJOM 220300Z 18003KT 140V210 9999 -SHRA FEW003 SCT010 BKN025     04/02 Q1012 RMK 1ST003 3ST010 6CU025 A2991=,- RA SH
20180122_040000.002,0,RJOM,,,,0,20180122040000,-1,-1,-1,-1,190,-1,3,-1,-1,140,250,,9999,0,1,3,FEW 3   SCT 10   BKN 25,1,5,1,3,1011,RJOM 220400Z 19003KT 140V250 9999 -SHRA FEW003 SCT010 BKN025     05/03 Q1011 RMK 1ST003 3ST010 6CU025 A2986=,- RA SH
20180122_050000.002,0,RJOM,,,,0,20180122050000,-1,-1,-1,-1,999,-1,1,-1,-1,-1,-1,,9999,0,1,3,FEW 3   SCT 10   BKN 20,1,5,1,3,1011,RJOM 220500Z VRB01KT 9999 -SHRA FEW003 SCT010 BKN020 05/03     Q1011 RMK 1ST003 4ST010 6CU020 A2985=,- RA SH
20180122_060000.003,0,RJOM,,,,0,20180122060000,-1,-1,-1,-1,10,-1,16,-1,-1,-1,-1,,9000,0,1,3,FEW 5   SCT 10   BKN 20,1,4,1,3,1011,RJOM 220600Z 01016KT 9000 -SHRA FEW005 SCT010 BKN020 04/03     Q1011 RMK 1ST005 4ST010 7CU020 A2988=,- RA SH
20180122_070000.002,0,RJOM,,,,0,20180122070000,-1,-1,-1,-1,40,-1,9,-1,-1,-1,-1,,9999,0,0,3,FEW 8   SCT 20   BKN 50,1,4,1,2,1012,RJOM 220700Z 04009KT 9999 FEW008 SCT020 BKN050 04/02 Q1012 RMK     1ST008 4CU020 5SC050 A2990=,
20180122_080000.003,0,RJOM,,,,0,20180122080000,-1,-1,-1,-1,30,-1,5,-1,-1,-1,-1,,9999,0,0,2,FEW 8   SCT 20,1,4,1,2,1012,RJOM 220800Z 03005KT 9999 FEW008 SCT020 04/02 Q1012 RMK 1ST008     3CU020 A2991=,
20180122_090000.002,0,RJOM,,,,0,20180122090000,-1,-1,-1,-1,10,-1,6,-1,-1,340,40,,9999,0,0,2,FEW 6   SCT 10,1,4,1,2,1013,RJOM 220900Z 01006KT 340V040 9999 FEW006 SCT010 04/02 Q1013     RMK 1ST006 3CU010 A2993=,
20180122_100000.002,0,RJOM,,,,0,20180122100000,-1,-1,-1,-1,999,-1,2,-1,-1,-1,-1,,9999,0,0,1,FEW 8,1,4,1,1,1014,RJOM 221000Z VRB02KT 9999 FEW008 04/01 Q1014 RMK 1ST008 A2995=,
20180122_110000.003,0,RJOM,,,,0,20180122110000,-1,-1,-1,-1,110,-1,9,-1,-1,-1,-1,,9999,0,0,2,FEW 8   SCT 20,1,4,1,1,1014,RJOM 221100Z 11009KT 9999 FEW008 SCT020 04/01 Q1014 RMK 1ST008     3CU020 A2995=,
20180122_120000.002,0,RJOM,,,,0,20180122120000,-1,-1,-1,-1,110,-1,8,-1,-1,-1,-1,,9999,0,0,1,FEW 8,1,3,1,1,1014,RJOM 221200Z 11008KT 9999 FEW008 03/01 Q1014 RMK 1ST008 A2995=,
20180122_220000.002,0,RJOM,,,,0,20180122220000,-1,-1,-1,-1,260,-1,26,-1,-1,-1,-1,,8000,0,0,2,FEW 20   BKN 35,1,9,1,3,1013,RJOM 222200Z 26026KT 8000 FEW020 BKN035 09/03 Q1013 RMK 2CU020     6CU035 A2994=,
20180122_230000.003,0,RJOM,,,,0,20180122230000,-1,-1,-1,-1,270,-1,20,-1,-1,-1,-1,,9000,0,0,2,FEW 25   SCT 35,1,9,1,3,1014,RJOM 222300Z 27020KT 9000 FEW025 SCT035 09/03 Q1014 RMK 1CU025     4CU035 A2995=,
20180123_000000.002,0,RJOM,,,,0,20180123000000,-1,-1,-1,-1,270,-1,23,-1,-1,-1,-1,,9999,0,0,2,FEW 25   SCT 35,1,9,1,0,1014,RJOM 230000Z 27023KT 9999 FEW025 SCT035 09/00 Q1014 RMK 1CU025     3CU035 A2997=,
20180123_010000.002,0,RJOM,,,,0,20180123010000,-1,-1,-1,-1,280,-1,20,-1,-1,-1,-1,,9999,0,0,2,FEW 25   SCT 35,1,10,1,0,1015,RJOM 230100Z 28020KT 9999 FEW025 SCT035 10/00 Q1015 RMK 1CU025     3CU035 A2999=,
20180123_020000.002,0,RJOM,,,,0,20180123020000,-1,-1,-1,-1,250,-1,23,-1,-1,-1,-1,,9999,0,0,2,FEW 20   BKN 30,1,8,1,2,1015,RJOM 230200Z 25023KT 9999 FEW020 BKN030 08/02 Q1015 RMK 2CU020     6CU030 A2999=,
20180123_030000.003,0,RJOM,,,,0,20180123030000,-1,-1,-1,-1,270,-1,24,-1,-1,-1,-1,,9999,0,1,3,FEW 15   SCT 25   BKN 35,1,7,-1,0,1015,RJOM 230300Z 27024KT 9999 -SHRA FEW015 SCT025 BKN035 07/M00     Q1015 RMK 2CU015 4CU025 6CU035 A3000=,- RA SH
20180123_040000.003,0,RJOM,,,,0,20180123040000,-1,-1,-1,-1,290,-1,19,-1,-1,-1,-1,,9999,0,0,3,FEW 15   SCT 25   BKN 35,1,7,1,1,1015,RJOM 230400Z 29019KT 9999 FEW015 SCT025 BKN035 07/01 Q1015 RMK     1CU015 3CU025 5CU035 A3000=,
20180123_050000.002,0,RJOM,,,,0,20180123050000,-1,-1,-1,-1,290,-1,23,-1,-1,-1,-1,,9999,0,1,3,FEW 15   SCT 35   BKN 50,1,5,1,1,1016,RJOM 230500Z 29023KT 9999 -SHRA FEW015 SCT035 BKN050 05/01     Q1016 RMK 1CU015 4CU035 6SC050 A3000=,- RA SH
20180123_060000.003,0,RJOM,,,,0,20180123060000,-1,-1,-1,-1,270,-1,16,-1,-1,-1,-1,,9999,0,0,3,FEW 15   SCT 25   BKN 40,1,6,-1,3,1016,RJOM 230600Z 27016KT 9999 FEW015 SCT025 BKN040 06/M03 Q1016     RMK 1CU015 3CU025 5CU040 A3001=,
20180123_070000.002,0,RJOM,,,,0,20180123070000,-1,-1,-1,-1,270,-1,14,-1,-1,-1,-1,,9999,0,1,3,FEW 15   SCT 25   BKN 40,1,6,-1,3,1016,RJOM 230700Z 27014KT 9999 VCSH FEW015 SCT025 BKN040 06/M03     Q1016 RMK 1CU015 3CU025 5CU040 A3002=,VC SH
20180123_080000.002,0,RJOM,,,,0,20180123080000,-1,-1,-1,-1,250,-1,8,-1,-1,210,290,,9999,0,0,3,FEW 15   SCT 25   BKN 35,1,5,-1,3,1016,RJOM 230800Z 25008KT 210V290 9999 FEW015 SCT025 BKN035 05/M03     Q1016 RMK 1CU015 3CU025 5CU035 A3002=,
20180123_090000.002,0,RJOM,,,,0,20180123090000,-1,-1,-1,-1,270,-1,13,-1,-1,240,310,,9999,0,0,3,FEW 15   SCT 35   BKN 50,1,5,-1,5,1017,RJOM 230900Z 27013KT 240V310 9999 FEW015 SCT035 BKN050 05/M05     Q1017 RMK 1CU015 4CU035 5SC050 A3003=,
20180123_100000.002,0,RJOM,,,,0,20180123100000,-1,-1,-1,-1,290,-1,18,-1,-1,-1,-1,,9999,0,0,2,FEW 35   SCT -9999,1,4,-1,7,1017,RJOM 231000Z 29018KT 9999 FEW035 SCT/// 04/M07 Q1017 RMK     2CU035 A3005=,
20180123_110000.002,0,RJOM,,,,0,20180123110000,-1,-1,-1,-1,290,-1,18,-1,-1,-1,-1,,9999,0,0,2,FEW 35   SCT 60,1,3,-1,9,1018,RJOM 231100Z 29018KT 9999 FEW035 SCT060 03/M09 Q1018 RMK     1CU035 3SC060 A3007=,
20180123_120000.002,0,RJOM,,,,0,20180123120000,-1,-1,-1,-1,280,-1,17,-1,-1,-1,-1,,9999,0,0,2,FEW 35   BKN 50,1,3,-1,8,1018,RJOM 231200Z 28017KT 9999 FEW035 BKN050 03/M08 Q1018 RMK     1CU035 6SC050 A3007=,
20180123_220000.002,0,RJOM,,,,0,20180123220000,-1,-1,-1,-1,280,-1,15,-1,-1,-1,-1,,9999,0,1,3,FEW 25   SCT 40   BKN 60,1,1,-1,8,1019,RJOM 232200Z 28015KT 9999 VCSH FEW025 SCT040 BKN060 01/M08     Q1019 RMK 1CU025 3CU040 6SC060 A3010=,VC SH
20180123_230000.002,0,RJOM,,,,0,20180123230000,-1,-1,-1,-1,310,-1,12,-1,-1,-1,-1,,9999,0,0,3,FEW 25   SCT 40   BKN 60,1,1,-1,7,1020,RJOM 232300Z 31012KT 9999 FEW025 SCT040 BKN060 01/M07 Q1020     RMK 1CU025 3CU040 5SC060 A3012=,
20180124_000000.002,0,RJOM,,,,0,20180124000000,-1,-1,-1,-1,300,-1,14,-1,-1,-1,-1,,9999,0,0,2,FEW 25   SCT 40,1,1,-1,7,1020,RJOM 240000Z 30014KT 9999 FEW025 SCT040 01/M07 Q1020 RMK     1CU025 3CU040 A3013=,
20180124_010000.003,0,RJOM,,,,0,20180124010000,-1,-1,-1,-1,290,-1,16,-1,-1,-1,-1,,9999,0,0,2,FEW 25   SCT 40,1,2,-1,8,1020,RJOM 240100Z 29016KT 9999 FEW025 SCT040 02/M08 Q1020 RMK     1CU025 3CU040 A3014=,
20180124_020000.002,0,RJOM,,,,0,20180124020000,-1,-1,-1,-1,290,-1,18,-1,-1,-1,-1,,9999,0,0,2,FEW 25   SCT 40,1,2,-1,8,1020,RJOM 240200Z 29018KT 9999 FEW025 SCT040 02/M08 Q1020 RMK     1CU025 4CU040 A3013=,
20180124_030000.002,0,RJOM,,,,0,20180124030000,-1,-1,-1,-1,290,-1,21,-1,-1,-1,-1,,9999,0,1,2,FEW 25   SCT 40,1,3,-1,10,1019,RJOM 240300Z 29021KT 9999 VCSH FEW025 SCT040 03/M10 Q1019 RMK     1CU025 3CU040 A3010=,VC SH
20180124_040000.002,0,RJOM,,,,0,20180124040000,-1,-1,-1,-1,290,-1,22,-1,-1,260,330,,9999,0,1,3,FEW 20   BKN 35   BKN -9999,1,3,-1,5,1019,RJOM 240400Z 29022KT 260V330 9999 -SHSN FEW020 BKN035 BKN///     03/M05 Q1019 RMK 1CU020 5CU035 A3009=,- SN SH
20180124_050000.002,0,RJOM,,,,0,20180124050000,-1,-1,-1,-1,300,-1,16,-1,-1,-1,-1,,9999,0,1,2,FEW 20   BKN 40,1,3,-1,8,1019,RJOM 240500Z 30016KT 9999 VCSH FEW020 BKN040 03/M08 Q1019 RMK     1CU020 5CU040 A3009=,VC SH
20180124_060000.002,0,RJOM,,,,0,20180124060000,-1,-1,-1,-1,320,-1,18,-1,-1,-1,-1,,9999,0,1,2,FEW 20   BKN 40,1,1,-1,9,1020,RJOM 240600Z 32018KT 9999 -SHSN FEW020 BKN040 01/M09 Q1020 RMK     1CU020 5CU040 A3012=,- SN SH
20180124_070000.002,0,RJOM,,,,0,20180124070000,-1,-1,-1,-1,310,-1,20,-1,-1,-1,-1,,9999,0,0,2,FEW 20   SCT 40,-1,0,-1,12,1020,RJOM 240700Z 31020KT 9999 FEW020 SCT040 M00/M12 Q1020 RMK     1CU020 3CU040 A3014=,
20180124_080000.002,0,RJOM,,,,0,20180124080000,-1,-1,-1,-1,290,-1,16,-1,-1,-1,-1,,9999,0,0,2,FEW 25   BKN 40,-1,0,-1,11,1020,RJOM 240800Z 29016KT 9999 FEW025 BKN040 M00/M11 Q1020 RMK     1CU025 5CU040 A3015=,
20180124_090000.003,0,RJOM,,,,0,20180124090000,-1,-1,-1,-1,300,-1,19,-1,-1,-1,-1,,9999,0,0,2,FEW 25   SCT 40,-1,1,-1,11,1020,RJOM 240900Z 30019KT 9999 FEW025 SCT040 M01/M11 Q1020 RMK     1CU025 3CU040 A3014=,
20180124_100000.002,0,RJOM,,,,0,20180124100000,-1,-1,-1,-1,290,-1,17,-1,-1,-1,-1,,9999,0,0,2,FEW 25   SCT 40,-1,1,-1,11,1021,RJOM 241000Z 29017KT 9999 FEW025 SCT040 M01/M11 Q1021 RMK     1CU025 3CU040 A3016=,
20180124_110000.002,0,RJOM,,,,0,20180124110000,-1,-1,-1,-1,280,-1,13,-1,-1,250,310,,9999,0,0,2,FEW 25   SCT 40,-1,1,-1,9,1021,RJOM 241100Z 28013KT 250V310 9999 FEW025 SCT040 M01/M09 Q1021     RMK 1CU025 4CU040 A3015=,
20180124_120000.002,0,RJOM,,,,0,20180124120000,-1,-1,-1,-1,280,-1,12,-1,-1,-1,-1,,9999,0,0,2,FEW 30   SCT 40,-1,1,-1,10,1020,RJOM 241200Z 28012KT 9999 FEW030 SCT040 M01/M10 Q1020 RMK     1CU030 3CU040 A3014=,
20180124_220000.002,0,RJOM,,,,0,20180124220000,-1,-1,-1,-1,300,-1,10,-1,-1,-1,-1,,9999,0,0,2,FEW 20   SCT 35,-1,0,-1,7,1021,RJOM 242200Z 30010KT 9999 FEW020 SCT035 M00/M07 Q1021 RMK     2CU020 3CU035 A3017=,
20180124_230000.002,0,RJOM,,,,0,20180124230000,-1,-1,-1,-1,290,-1,11,-1,-1,-1,-1,,9999,0,0,2,FEW 20   SCT 35,1,0,-1,7,1021,RJOM 242300Z 29011KT 9999 FEW020 SCT035 00/M07 Q1021 RMK     1CU020 3CU035 A3018=,
20180125_000000.002,0,RJOM,,,,0,20180125000000,-1,-1,-1,-1,290,-1,9,-1,-1,-1,-1,,9999,0,0,2,FEW 20   SCT 30,1,1,-1,6,1022,RJOM 250000Z 29009KT 9999 FEW020 SCT030 01/M06 Q1022 RMK     1CU020 3CU030 A3018=,
20180125_010000.002,0,RJOM,,,,0,20180125010000,-1,-1,-1,-1,310,-1,10,-1,-1,270,340,,9999,0,0,2,FEW 20   SCT 30,1,2,-1,6,1022,RJOM 250100Z 31010KT 270V340 9999 FEW020 SCT030 02/M06 Q1022     RMK 1CU020 3CU030 A3018=,
20180125_020000.003,0,RJOM,,,,0,20180125020000,-1,-1,-1,-1,280,-1,9,-1,-1,-1,-1,,9999,0,0,1,FEW 20,1,3,-1,7,1021,RJOM 250200Z 28009KT 9999 FEW020 03/M07 Q1021 RMK 1CU020     A3017=,
20180125_030000.002,0,RJOM,,,,0,20180125030000,-1,-1,-1,-1,310,-1,7,-1,-1,260,340,,9999,0,0,1,FEW 20,1,3,-1,6,1020,RJOM 250300Z 31007KT 260V340 9999 FEW020 03/M06 Q1020 RMK     1CU020 A3014=,
20180125_040000.002,0,RJOM,,,,0,20180125040000,-1,-1,-1,-1,280,-1,9,-1,-1,-1,-1,,9999,0,0,2,FEW 20   SCT 40,1,4,-1,5,1019,RJOM 250400Z 28009KT 9999 FEW020 SCT040 04/M05 Q1019 RMK     1CU020 3CU040 A3012=,
20180125_050000.002,0,RJOM,,,,0,20180125050000,-1,-1,-1,-1,290,-1,7,-1,-1,270,330,,9999,0,1,2,FEW 20   BKN 40,1,3,-1,7,1019,RJOM 250500Z 29007KT 270V330 9999 VCSH FEW020 BKN040 03/M07     Q1019 RMK 1CU020 5CU040 A3009=,VC SH
20180125_060000.002,0,RJOM,,,,0,20180125060000,-1,-1,-1,-1,260,-1,8,-1,-1,-1,-1,,9999,0,1,3,FEW 20   SCT 30   BKN 40,1,4,-1,5,1019,RJOM 250600Z 26008KT 9999 -SHSN FEW020 SCT030 BKN040 04/M05     Q1019 RMK 1CU020 3CU030 5CU040 A3010=,- SN SH
20180125_070000.002,0,RJOM,,,,0,20180125070000,-1,-1,-1,-1,290,-1,15,-1,-1,-1,-1,,9999,0,1,2,FEW 20   BKN 40,1,4,-1,6,1019,RJOM 250700Z 29015KT 9999 -SHSN FEW020 BKN040 04/M06 Q1019 RMK     1CU020 5CU040 A3010=,- SN SH
20180125_080000.002,0,RJOM,,,,0,20180125080000,-1,-1,-1,-1,300,-1,14,-1,-1,-1,-1,,9999,0,1,2,FEW 20   SCT 40,1,4,-1,7,1018,RJOM 250800Z 30014KT 9999 VCSH FEW020 SCT040 04/M07 Q1018 RMK     1CU020 4CU040 A3008=,VC SH
20180125_090000.002,0,RJOM,,,,0,20180125090000,-1,-1,-1,-1,310,-1,13,-1,27,-1,-1,,9999,0,0,2,FEW 20   SCT 40,1,3,-1,7,1019,RJOM 250900Z 31013G27KT 9999 FEW020 SCT040 03/M07 Q1019 RMK     1CU020 3CU040 A3010=,
20180125_100000.003,0,RJOM,,,,0,20180125100000,-1,-1,-1,-1,300,-1,13,-1,-1,-1,-1,,9999,0,0,2,FEW 20   SCT 40,1,2,-1,8,1019,RJOM 251000Z 30013KT 9999 FEW020 SCT040 02/M08 Q1019 RMK     1CU020 3CU040 A3010=,
20180125_110000.003,0,RJOM,,,,0,20180125110000,-1,-1,-1,-1,310,-1,13,-1,-1,-1,-1,,9999,0,0,2,FEW 40   SCT -9999,1,2,-1,8,1019,RJOM 251100Z 31013KT 9999 FEW040 SCT/// 02/M08 Q1019 RMK     2CU040 A3011=,
20180125_120000.002,0,RJOM,,,,0,20180125120000,-1,-1,-1,-1,290,-1,11,-1,-1,250,320,,9999,0,0,3,FEW 25   SCT 40   BKN 170,1,2,-1,8,1019,RJOM 251200Z 29011KT 250V320 9999 FEW025 SCT040 BKN170 02/M08     Q1019 RMK 1CU025 3CU040 5AC170 A3010=,
20180125_220000.002,0,RJOM,,,,0,20180125220000,-1,-1,-1,-1,290,-1,13,-1,-1,-1,-1,,9999,0,0,2,FEW 20   SCT 35,1,1,-1,8,1018,RJOM 252200Z 29013KT 9999 FEW020 SCT035 01/M08 Q1018 RMK     1CU020 3CU035 A3006=,
20180125_230000.002,0,RJOM,,,,0,20180125230000,-1,-1,-1,-1,290,-1,13,-1,-1,-1,-1,,9999,0,0,2,FEW 20   SCT 35,1,2,-1,8,1018,RJOM 252300Z 29013KT 9999 FEW020 SCT035 02/M08 Q1018 RMK     1CU020 3CU035 A3008=,
20180126_000000.002,0,RJOM,,,,0,20180126000000,-1,-1,-1,-1,280,-1,12,-1,-1,-1,-1,,9999,0,0,2,FEW 20   SCT 35,1,2,-1,7,1018,RJOM 260000Z 28012KT 9999 FEW020 SCT035 02/M07 Q1018 RMK     1CU020 3CU035 A3009=,
20180126_010000.002,0,RJOM,,,,0,20180126010000,-1,-1,-1,-1,290,-1,14,-1,-1,-1,-1,,9999,0,0,2,FEW 20   SCT 35,1,3,-1,6,1019,RJOM 260100Z 29014KT 9999 FEW020 SCT035 03/M06 Q1019 RMK     1CU020 3CU035 A3010=,
20180126_020000.002,0,RJOM,,,,0,20180126020000,-1,-1,-1,-1,290,-1,11,-1,-1,-1,-1,,9999,0,0,2,FEW 20   SCT 35,1,4,-1,7,1019,RJOM 260200Z 29011KT 9999 FEW020 SCT035 04/M07 Q1019 RMK     1CU020 3CU035 A3010=,
20180126_030000.002,0,RJOM,,,,0,20180126030000,-1,-1,-1,-1,280,-1,12,-1,-1,-1,-1,,9999,0,1,2,FEW 20   SCT 35,1,4,-1,6,1018,RJOM 260300Z 28012KT 9999 VCSH FEW020 SCT035 04/M06 Q1018 RMK     1CU020 3CU035 A3007=,VC SH
20180126_040000.002,0,RJOM,,,,0,20180126040000,-1,-1,-1,-1,280,-1,12,-1,-1,250,310,,9999,0,0,3,FEW 20   SCT 35   BKN 45,1,3,-1,7,1017,RJOM 260400Z 28012KT 250V310 9999 FEW020 SCT035 BKN045 03/M07     Q1017 RMK 1CU020 3CU035 5SC045 A3005=,
20180126_050000.002,0,RJOM,,,,0,20180126050000,-1,-1,-1,-1,280,-1,9,-1,-1,260,320,,9999,0,0,2,FEW 20   SCT 35,1,3,-1,7,1017,RJOM 260500Z 28009KT 260V320 9999 FEW020 SCT035 03/M07 Q1017     RMK 1CU020 4CU035 A3004=,
20180126_060000.002,0,RJOM,,,,0,20180126060000,-1,-1,-1,-1,270,-1,10,-1,-1,240,300,,9999,0,1,3,FEW 20   SCT 35   BKN 50,1,3,-1,6,1017,RJOM 260600Z 27010KT 240V300 9999 VCSH FEW020 SCT035 BKN050     03/M06 Q1017 RMK 1CU020 4CU035 5SC050 A3005=,VC SH
20180126_070000.002,0,RJOM,,,,0,20180126070000,-1,-1,-1,-1,310,-1,15,-1,-1,-1,-1,,9999,0,1,3,FEW 20   SCT 35   BKN 45,1,3,-1,8,1017,RJOM 260700Z 31015KT 9999 VCSH FEW020 SCT035 BKN045 03/M08     Q1017 RMK 1CU020 3CU035 5SC045 A3006=,VC SH
20180126_080000.003,0,RJOM,,,,0,20180126080000,-1,-1,-1,-1,300,-1,15,-1,-1,-1,-1,,9999,0,1,2,FEW 20   SCT 40,1,2,-1,7,1018,RJOM 260800Z 30015KT 9999 VCSH FEW020 SCT040 02/M07 Q1018 RMK     1CU020 4CU040 A3007=,VC SH
20180126_090000.002,0,RJOM,,,,0,20180126090000,-1,-1,-1,-1,300,-1,15,-1,-1,-1,-1,,9999,0,0,2,FEW 20   BKN 35,1,2,-1,7,1018,RJOM 260900Z 30015KT 9999 FEW020 BKN035 02/M07 Q1018 RMK     1CU020 5CU035 A3008=,
20180126_100000.002,0,RJOM,,,,0,20180126100000,-1,-1,-1,-1,310,-1,16,-1,-1,-1,-1,,9999,0,0,2,FEW 20   BKN 40,1,2,-1,7,1019,RJOM 261000Z 31016KT 9999 FEW020 BKN040 02/M07 Q1019 RMK     1CU020 5CU040 A3011=,
20180126_110000.002,0,RJOM,,,,0,20180126110000,-1,-1,-1,-1,330,-1,13,-1,-1,-1,-1,,9999,0,0,2,FEW 20   BKN 35,1,2,-1,7,1020,RJOM 261100Z 33013KT 9999 FEW020 BKN035 02/M07 Q1020 RMK     1CU020 5CU035 A3013=,
20180126_120000.002,0,RJOM,,,,0,20180126120000,-1,-1,-1,-1,320,-1,12,-1,-1,-1,-1,,9999,0,0,2,FEW 20   SCT 35,1,1,-1,7,1021,RJOM 261200Z 32012KT 9999 FEW020 SCT035 01/M07 Q1021 RMK     1CU020 4CU035 A3015=,
20180126_220000.002,0,RJOM,,,,0,20180126220000,-1,-1,-1,-1,120,-1,8,-1,-1,-1,-1,,9999,0,0,1,FEW 25,-1,2,-1,7,1024,RJOM 262200Z 12008KT 9999 FEW025 M02/M07 Q1024 RMK 1CU025     A3024=,
20180126_230000.002,0,RJOM,,,,0,20180126230000,-1,-1,-1,-1,110,-1,8,-1,-1,-1,-1,,9999,0,0,1,FEW 25,-1,1,-1,7,1024,RJOM 262300Z 11008KT 9999 FEW025 M01/M07 Q1024 RMK 1CU025     A3025=,
20180127_000000.002,0,RJOM,,,,0,20180127000000,-1,-1,-1,-1,130,-1,8,-1,-1,-1,-1,,9999,0,0,1,FEW 25,1,1,-1,6,1025,RJOM 270000Z 13008KT 9999 FEW025 01/M06 Q1025 RMK 1CU025     A3027=,
20180127_010000.002,0,RJOM,,,,0,20180127010000,-1,-1,-1,-1,70,-1,5,-1,-1,320,110,,9999,0,0,1,FEW 25,1,4,-1,5,1025,RJOM 270100Z 07005KT 320V110 9999 FEW025 04/M05 Q1025 RMK     1CU025 A3027=,
20180127_020000.002,0,RJOM,,,,0,20180127020000,-1,-1,-1,-1,360,-1,10,-1,-1,-1,-1,,9999,0,0,2,FEW 25   SCT 35,1,4,-1,5,1024,RJOM 270200Z 36010KT 9999 FEW025 SCT035 04/M05 Q1024 RMK     1CU025 3CU035 A3026=,
20180127_030000.002,0,RJOM,,,,0,20180127030000,-1,-1,-1,-1,10,-1,11,-1,-1,-1,-1,,9999,0,0,2,FEW 25   SCT 35,1,5,-1,5,1024,RJOM 270300Z 01011KT 9999 FEW025 SCT035 05/M05 Q1024 RMK     1CU025 3CU035 A3024=,
20180127_040000.002,0,RJOM,,,,0,20180127040000,-1,-1,-1,-1,350,-1,10,-1,-1,-1,-1,,9999,0,0,1,FEW 35,1,6,-1,5,1023,RJOM 270400Z 35010KT 9999 FEW035 06/M05 Q1023 RMK 2CU035     A3022=,
20180127_050000.002,0,RJOM,,,,0,20180127050000,-1,-1,-1,-1,360,-1,7,-1,-1,310,40,,9999,0,0,2,FEW 25   SCT 35,1,6,-1,5,1023,RJOM 270500Z 36007KT 310V040 9999 FEW025 SCT035 06/M05 Q1023     RMK 1CU025 3CU035 A3022=,
20180127_060000.002,0,RJOM,,,,0,20180127060000,-1,-1,-1,-1,350,-1,6,-1,-1,320,30,,9999,0,0,2,FEW 25   SCT 35,1,5,-1,5,1023,RJOM 270600Z 35006KT 320V030 9999 FEW025 SCT035 05/M05 Q1023     RMK 1CU025 3CU035 A3021=,
20180127_070000.002,0,RJOM,,,,0,20180127070000,-1,-1,-1,-1,330,-1,6,-1,-1,-1,-1,,9999,0,0,1,FEW 25,1,6,-1,5,1022,RJOM 270700Z 33006KT 9999 FEW025 06/M05 Q1022 RMK 1CU025     A3020=,
20180127_080000.002,0,RJOM,,,,0,20180127080000,-1,-1,-1,-1,320,-1,7,-1,-1,-1,-1,,9999,0,0,1,FEW 25,1,5,-1,5,1023,RJOM 270800Z 32007KT 9999 FEW025 05/M05 Q1023 RMK 1CU025     A3021=,
20180127_090000.003,0,RJOM,,,,0,20180127090000,-1,-1,-1,-1,340,-1,7,-1,-1,-1,-1,,9999,0,0,1,FEW 25,1,5,-1,5,1023,RJOM 270900Z 34007KT 9999 FEW025 05/M05 Q1023 RMK 1CU025     A3022=,
20180127_100000.002,0,RJOM,,,,0,20180127100000,-1,-1,-1,-1,30,-1,4,-1,-1,350,50,,9999,0,0,1,FEW 30,1,5,-1,5,1023,RJOM 271000Z 03004KT 350V050 9999 FEW030 05/M05 Q1023 RMK     1CU030 A3023=,
20180127_110000.002,0,RJOM,,,,0,20180127110000,-1,-1,-1,-1,120,-1,8,-1,-1,-1,-1,,9999,0,0,1,FEW 30,1,2,-1,5,1023,RJOM 271100Z 12008KT 9999 FEW030 02/M05 Q1023 RMK 1CU030     A3021=,
20180127_120000.002,0,RJOM,,,,0,20180127120000,-1,-1,-1,-1,120,-1,8,-1,-1,-1,-1,,9999,0,0,2,FEW 30   SCT 40,1,2,-1,5,1023,RJOM 271200Z 12008KT 9999 FEW030 SCT040 02/M05 Q1023 RMK     1CU030 3CU040 A3021=,
20180127_220000.002,0,RJOM,,,,0,20180127220000,-1,-1,-1,-1,130,-1,5,-1,-1,-1,-1,,9999,0,0,3,FEW 20   SCT 45   BKN 70,1,2,-1,4,1020,RJOM 272200Z 13005KT 9999 FEW020 SCT045 BKN070 02/M04 Q1020     RMK 1CU020 3SC045 6AC070 A3013=,
20180127_230000.002,0,RJOM,,,,0,20180127230000,-1,-1,-1,-1,130,-1,6,-1,-1,100,170,,9999,0,1,3,FEW 10   SCT 20   BKN 50,1,3,-1,3,1019,RJOM 272300Z 13006KT 100V170 9999 -RA FEW010 SCT020 BKN050     03/M03 Q1019 RMK 1ST010 3CU020 6SC050 A3010=,- RA
20180128_000000.003,0,RJOM,,,,0,20180128000000,-1,-1,-1,-1,140,-1,4,-1,-1,-1,-1,,9999,0,1,3,FEW 10   SCT 25   BKN 40,1,3,-1,1,1019,RJOM 280000Z 14004KT 9999 -RA FEW010 SCT025 BKN040 03/M01     Q1019 RMK 1ST010 3CU025 6SC040 A3011=,- RA
20180128_010000.002,0,RJOM,,,,0,20180128010000,-1,-1,-1,-1,130,-1,8,-1,-1,-1,-1,,9000,0,1,3,FEW 10   SCT 15   BKN 25,1,4,1,1,1019,RJOM 280100Z 13008KT 9000 -SHRA FEW010 SCT015 BKN025 04/01     Q1019 RMK 2ST010 4CU015 6CU025 A3010=,- RA SH
20180128_020000.002,0,RJOM,,,,0,20180128020000,-1,-1,-1,-1,150,-1,7,-1,-1,-1,-1,,9999,0,1,3,FEW 8   SCT 12   BKN 20,1,4,1,2,1018,RJOM 280200Z 15007KT 9999 -SHRA FEW008 SCT012 BKN020 04/02     Q1018 RMK 1ST008 4CU012 6CU020 A3008=,- RA SH
20180128_030000.002,0,RJOM,,,,0,20180128030000,-1,-1,-1,-1,190,-1,8,-1,-1,150,210,,9999,0,1,3,FEW 8   SCT 15   BKN 25,1,5,1,2,1017,RJOM 280300Z 19008KT 150V210 9999 -SHRA FEW008 SCT015 BKN025     05/02 Q1017 RMK 1ST008 4CU015 6CU025 A3005=,- RA SH
20180128_040000.002,0,RJOM,,,,0,20180128040000,-1,-1,-1,-1,190,-1,9,-1,-1,-1,-1,,9999,0,1,3,FEW 8   SCT 15   BKN 25,1,5,1,3,1016,RJOM 280400Z 19009KT 9999 -SHRA FEW008 SCT015 BKN025 05/03     Q1016 RMK 1ST008 4CU015 6CU025 A3002=,- RA SH
20180128_050000.002,0,RJOM,,,,0,20180128050000,-1,-1,-1,-1,220,-1,10,-1,-1,-1,-1,,9999,0,1,3,FEW 10   SCT 15   BKN 35,1,6,1,3,1016,RJOM 280500Z 22010KT 9999 -SHRA FEW010 SCT015 BKN035 06/03     Q1016 RMK 1ST010 3CU015 5CU035 A3000=,- RA SH
20180128_060000.002,0,RJOM,,,,0,20180128060000,-1,-1,-1,-1,220,-1,12,-1,-1,-1,-1,,9999,0,1,3,FEW 10   SCT 20   BKN 35,1,6,1,3,1016,RJOM 280600Z 22012KT 9999 -SHRA FEW010 SCT020 BKN035 06/03     Q1016 RMK 1ST010 3CU020 5CU035 A3000=,- RA SH
20180128_070000.003,0,RJOM,,,,0,20180128070000,-1,-1,-1,-1,230,-1,13,-1,-1,-1,-1,,9999,0,0,3,FEW 12   SCT 20   BKN 30,1,7,1,3,1015,RJOM 280700Z 23013KT 9999 FEW012 SCT020 BKN030 07/03 Q1015 RMK     1ST012 3CU020 5CU030 A2999=,
20180128_080000.002,0,RJOM,,,,0,20180128080000,-1,-1,-1,-1,230,-1,11,-1,-1,-1,-1,,9999,0,0,3,FEW 15   SCT 25   BKN 35,1,7,1,3,1015,RJOM 280800Z 23011KT 9999 FEW015 SCT025 BKN035 07/03 Q1015 RMK     1CU015 3CU025 5CU035 A3000=,
20180128_090000.002,0,RJOM,,,,0,20180128090000,-1,-1,-1,-1,260,-1,11,-1,-1,-1,-1,,9999,0,0,3,FEW 15   SCT 25   BKN 35,1,7,1,2,1015,RJOM 280900Z 26011KT 9999 FEW015 SCT025 BKN035 07/02 Q1015 RMK     1CU015 4CU025 6CU035 A3000=,
20180128_100000.002,0,RJOM,,,,0,20180128100000,-1,-1,-1,-1,270,-1,11,-1,-1,-1,-1,,9999,0,0,3,FEW 20   SCT 30   BKN 60,1,7,1,2,1016,RJOM 281000Z 27011KT 9999 FEW020 SCT030 BKN060 07/02 Q1016 RMK     1CU020 4CU030 6SC060 A3000=,
20180128_110000.002,0,RJOM,,,,0,20180128110000,-1,-1,-1,-1,260,-1,11,-1,-1,-1,-1,,9999,0,0,3,FEW 20   SCT 30   BKN 45,1,7,1,2,1016,RJOM 281100Z 26011KT 9999 FEW020 SCT030 BKN045 07/02 Q1016 RMK     1CU020 3CU030 5SC045 A3001=,
20180128_120000.002,0,RJOM,,,,0,20180128120000,-1,-1,-1,-1,260,-1,9,-1,-1,-1,-1,,9999,0,0,3,FEW 20   SCT 30   BKN 45,1,6,1,3,1016,RJOM 281200Z 26009KT 9999 FEW020 SCT030 BKN045 06/03 Q1016 RMK     1CU020 4CU030 6SC045 A3000=,
20180128_220000.003,0,RJOM,,,,0,20180128220000,-1,-1,-1,-1,280,-1,6,-1,-1,160,320,,9999,0,0,3,FEW 20   SCT 30   BKN 50,1,3,-1,0,1015,RJOM 282200Z 28006KT 160V320 9999 FEW020 SCT030 BKN050 03/M00     Q1015 RMK 1CU020 3CU030 6SC050 A2997=,
20180128_230000.002,0,RJOM,,,,0,20180128230000,-1,-1,-1,-1,300,-1,13,-1,-1,-1,-1,,9999,0,0,3,FEW 20   SCT 30   BKN 50,1,5,-1,2,1015,RJOM 282300Z 30013KT 9999 FEW020 SCT030 BKN050 05/M02 Q1015     RMK 1CU020 3CU030 5SC050 A3000=,
20180129_000000.003,0,RJOM,,,,0,20180129000000,-1,-1,-1,-1,290,-1,15,-1,-1,-1,-1,,9999,0,0,2,FEW 25   BKN 50,1,5,-1,3,1016,RJOM 290000Z 29015KT 9999 FEW025 BKN050 05/M03 Q1016 RMK     1CU025 6SC050 A3001=,
20180129_010000.002,0,RJOM,,,,0,20180129010000,-1,-1,-1,-1,300,-1,13,-1,-1,-1,-1,,9999,0,0,2,FEW 25   SCT 40,1,5,-1,4,1016,RJOM 290100Z 30013KT 9999 FEW025 SCT040 05/M04 Q1016 RMK     1CU025 4CU040 A3003=,
20180129_020000.002,0,RJOM,,,,0,20180129020000,-1,-1,-1,-1,280,-1,15,-1,-1,-1,-1,,9999,0,0,2,FEW 25   SCT 40,1,5,-1,6,1017,RJOM 290200Z 28015KT 9999 FEW025 SCT040 05/M06 Q1017 RMK     1CU025 3CU040 A3004=,
20180129_030000.002,0,RJOM,,,,0,20180129030000,-1,-1,-1,-1,280,-1,12,-1,-1,-1,-1,,9999,0,0,2,FEW 25   SCT 40,1,5,-1,6,1016,RJOM 290300Z 28012KT 9999 FEW025 SCT040 05/M06 Q1016 RMK     1CU025 3CU040 A3002=,
20180129_040000.002,0,RJOM,,,,0,20180129040000,-1,-1,-1,-1,300,-1,13,-1,-1,-1,-1,,9999,0,0,2,FEW 25   BKN 40,1,6,-1,5,1016,RJOM 290400Z 30013KT 9999 FEW025 BKN040 06/M05 Q1016 RMK     1CU025 6CU040 A3001=,
20180129_050000.002,0,RJOM,,,,0,20180129050000,-1,-1,-1,-1,290,-1,13,-1,-1,-1,-1,,9999,0,0,2,FEW 25   BKN 40,1,6,-1,7,1016,RJOM 290500Z 29013KT 9999 FEW025 BKN040 06/M07 Q1016 RMK     1CU025 6CU040 A3000=,
20180129_060000.002,0,RJOM,,,,0,20180129060000,-1,-1,-1,-1,300,-1,15,-1,25,-1,-1,,9999,0,0,2,FEW 25   SCT 40,1,4,-1,7,1016,RJOM 290600Z 30015G25KT 9999 FEW025 SCT040 04/M07 Q1016 RMK     1CU025 3CU040 A3001=,
20180129_070000.002,0,RJOM,,,,0,20180129070000,-1,-1,-1,-1,280,-1,15,-1,-1,-1,-1,,9999,0,0,2,FEW 25   SCT 40,1,5,-1,6,1016,RJOM 290700Z 28015KT 9999 FEW025 SCT040 05/M06 Q1016 RMK     1CU025 4CU040 A3002=,
20180129_080000.002,0,RJOM,,,,0,20180129080000,-1,-1,-1,-1,300,-1,10,-1,-1,250,330,,9999,0,1,2,FEW 25   BKN 40,1,4,-1,6,1017,RJOM 290800Z 30010KT 250V330 9999 -SHSN FEW025 BKN040 04/M06     Q1017 RMK 1CU025 5CU040 A3005=,- SN SH
20180129_090000.002,0,RJOM,,,,0,20180129090000,-1,-1,-1,-1,290,-1,16,-1,-1,-1,-1,,9999,0,1,2,FEW 25   SCT 40,1,3,-1,5,1018,RJOM 290900Z 29016KT 9999 VCSH FEW025 SCT040 03/M05 Q1018 RMK     1CU025 3CU040 A3007=,VC SH
20180129_100000.002,0,RJOM,,,,0,20180129100000,-1,-1,-1,-1,300,-1,16,-1,-1,-1,-1,,9999,0,0,2,FEW 25   SCT 35,1,2,-1,3,1018,RJOM 291000Z 30016KT 9999 FEW025 SCT035 02/M03 Q1018 RMK     1CU025 3CU035 A3009=,
20180129_110000.002,0,RJOM,,,,0,20180129110000,-1,-1,-1,-1,320,-1,15,-1,-1,-1,-1,,9999,0,0,2,FEW 25   SCT 35,1,2,-1,7,1019,RJOM 291100Z 32015KT 9999 FEW025 SCT035 02/M07 Q1019 RMK     1CU025 4CU035 A3010=,
20180129_120000.002,0,RJOM,,,,0,20180129120000,-1,-1,-1,-1,300,-1,13,-1,-1,-1,-1,,9999,0,0,1,FEW 30,1,2,-1,9,1019,RJOM 291200Z 30013KT 9999 FEW030 02/M09 Q1019 RMK 1CU030     A3010=,
20180129_220000.002,0,RJOM,,,,0,20180129220000,-1,-1,-1,-1,300,-1,13,-1,-1,-1,-1,,9999,0,0,2,FEW 25   SCT 35,1,1,-1,7,1021,RJOM 292200Z 30013KT 9999 FEW025 SCT035 01/M07 Q1021 RMK     1CU025 3CU035 A3016=,
20180129_230000.002,0,RJOM,,,,0,20180129230000,-1,-1,-1,-1,300,-1,10,-1,-1,-1,-1,,9999,0,0,2,FEW 20   BKN 35,1,2,-1,7,1022,RJOM 292300Z 30010KT 9999 FEW020 BKN035 02/M07 Q1022 RMK     1CU020 5CU035 A3019=,
20180130_000000.002,0,RJOM,,,,0,20180130000000,-1,-1,-1,-1,290,-1,10,-1,-1,-1,-1,,9999,0,0,1,FEW 20,1,3,-1,6,1022,RJOM 300000Z 29010KT 9999 FEW020 03/M06 Q1022 RMK 1CU020     A3021=,
20180130_010000.002,0,RJOM,,,,0,20180130010000,-1,-1,-1,-1,270,-1,11,-1,-1,-1,-1,,9999,0,0,2,FEW 20   SCT 35,1,4,-1,8,1022,RJOM 300100Z 27011KT 9999 FEW020 SCT035 04/M08 Q1022 RMK     1CU020 3CU035 A3021=,
20180130_020000.002,0,RJOM,,,,0,20180130020000,-1,-1,-1,-1,260,-1,9,-1,-1,-1,-1,,9999,0,0,1,FEW 25,1,4,-1,8,1022,RJOM 300200Z 26009KT 9999 FEW025 04/M08 Q1022 RMK 1CU025     A3021=,
20180130_030000.002,0,RJOM,,,,0,20180130030000,-1,-1,-1,-1,270,-1,9,-1,-1,220,310,,9999,0,0,2,FEW 25   BKN 40,1,4,-1,7,1022,RJOM 300300Z 27009KT 220V310 9999 FEW025 BKN040 04/M07 Q1022     RMK 1CU025 5CU040 A3019=,
20180130_040000.002,0,RJOM,,,,0,20180130040000,-1,-1,-1,-1,260,-1,9,-1,-1,220,280,,9999,0,0,2,FEW 25   SCT 40,1,4,-1,6,1022,RJOM 300400Z 26009KT 220V280 9999 FEW025 SCT040 04/M06 Q1022     RMK 1CU025 4CU040 A3018=,
20180130_050000.002,0,RJOM,,,,0,20180130050000,-1,-1,-1,-1,240,-1,8,-1,-1,-1,-1,,9999,0,0,2,FEW 25   SCT 40,1,4,-1,7,1021,RJOM 300500Z 24008KT 9999 FEW025 SCT040 04/M07 Q1021 RMK     1CU025 4CU040 A3018=,
20180130_060000.003,0,RJOM,,,,0,20180130060000,-1,-1,-1,-1,280,-1,8,-1,-1,250,310,,9999,0,0,2,FEW 25   SCT 40,1,5,-1,7,1021,RJOM 300600Z 28008KT 250V310 9999 FEW025 SCT040 05/M07 Q1021     RMK 1CU025 4CU040 A3018=,
20180130_070000.002,0,RJOM,,,,0,20180130070000,-1,-1,-1,-1,260,-1,10,-1,-1,230,290,,9999,0,0,2,FEW 25   SCT 40,1,5,-1,6,1022,RJOM 300700Z 26010KT 230V290 9999 FEW025 SCT040 05/M06 Q1022     RMK 1CU025 3CU040 A3019=,
20180130_080000.002,0,RJOM,,,,0,20180130080000,-1,-1,-1,-1,240,-1,7,-1,-1,200,290,,9999,0,0,2,FEW 25   SCT 50,1,4,-1,6,1023,RJOM 300800Z 24007KT 200V290 9999 FEW025 SCT050 04/M06 Q1023     RMK 1CU025 3SC050 A3021=,
20180130_090000.002,0,RJOM,,,,0,20180130090000,-1,-1,-1,-1,250,-1,10,-1,-1,240,300,,9999,0,0,2,FEW 25   SCT 40,1,4,-1,6,1024,RJOM 300900Z 25010KT 240V300 9999 FEW025 SCT040 04/M06 Q1024     RMK 1CU025 3CU040 A3024=,
20180130_100000.002,0,RJOM,,,,0,20180130100000,-1,-1,-1,-1,280,-1,8,-1,-1,240,310,,9999,0,0,2,FEW 25   SCT 40,1,4,-1,7,1024,RJOM 301000Z 28008KT 240V310 9999 FEW025 SCT040 04/M07 Q1024     RMK 1CU025 3CU040 A3024=,
20180130_110000.002,0,RJOM,,,,0,20180130110000,-1,-1,-1,-1,290,-1,12,-1,-1,-1,-1,,9999,0,0,1,FEW 30,1,4,-1,7,1024,RJOM 301100Z 29012KT 9999 FEW030 04/M07 Q1024 RMK 1CU030     A3025=,
20180130_120000.002,0,RJOM,,,,0,20180130120000,-1,-1,-1,-1,290,-1,10,-1,-1,-1,-1,,9999,0,0,1,FEW 30,1,3,-1,7,1025,RJOM 301200Z 29010KT 9999 FEW030 03/M07 Q1025 RMK 1CU030     A3027=,
20180130_220000.002,0,RJOM,,,,0,20180130220000,-1,-1,-1,-1,110,-1,10,-1,-1,-1,-1,,9999,0,0,2,FEW 20   SCT -9999,-1,1,-1,6,1027,RJOM 302200Z 11010KT 9999 FEW020 SCT/// M01/M06 Q1027 RMK     1CU020 A3034=,
20180130_230000.002,0,RJOM,,,,0,20180130230000,-1,-1,-1,-1,120,-1,9,-1,-1,-1,-1,,9999,0,0,2,FEW 20   BKN -9999,-1,1,-1,5,1028,RJOM 302300Z 12009KT 9999 FEW020 BKN/// M01/M05 Q1028 RMK     1CU020 A3036=,
20180131_000000.002,0,RJOM,,,,0,20180131000000,-1,-1,-1,-1,110,-1,10,-1,-1,-1,-1,,9999,0,0,2,FEW 20   BKN -9999,1,1,-1,5,1027,RJOM 310000Z 11010KT 9999 FEW020 BKN/// 01/M05 Q1027 RMK     1CU020 A3035=,
20180131_010000.002,0,RJOM,,,,0,20180131010000,-1,-1,-1,-1,110,-1,7,-1,-1,-1,-1,,9999,0,0,2,FEW 20   BKN -9999,1,4,-1,5,1028,RJOM 310100Z 11007KT 9999 FEW020 BKN/// 04/M05 Q1028 RMK     1CU020 A3036=,
20180131_020000.002,0,RJOM,,,,0,20180131020000,-1,-1,-1,-1,999,-1,2,-1,-1,-1,-1,,9999,0,0,2,FEW 20   BKN -9999,1,5,-1,6,1028,RJOM 310200Z VRB02KT 9999 FEW020 BKN/// 05/M06 Q1028 RMK     1CU020 A3036=,
20180131_030000.002,0,RJOM,,,,0,20180131030000,-1,-1,-1,-1,999,-1,2,-1,-1,-1,-1,,9999,0,0,2,FEW 25   BKN -9999,1,5,-1,4,1027,RJOM 310300Z VRB02KT 9999 FEW025 BKN/// 05/M04 Q1027 RMK     1CU025 A3033=,
20180131_040000.002,0,RJOM,,,,0,20180131040000,-1,-1,-1,-1,999,-1,3,-1,-1,-1,-1,,9999,0,0,2,FEW 25   BKN -9999,1,7,-1,5,1025,RJOM 310400Z VRB03KT 9999 FEW025 BKN/// 07/M05 Q1025 RMK     1CU025 A3027=,
20180131_050000.002,0,RJOM,,,,0,20180131050000,-1,-1,-1,-1,290,-1,4,-1,-1,240,320,,9999,0,0,2,FEW 30   BKN -9999,1,7,-1,3,1024,RJOM 310500Z 29004KT 240V320 9999 FEW030 BKN/// 07/M03 Q1024     RMK 1CU030 A3024=,
20180131_060000.002,0,RJOM,,,,0,20180131060000,-1,-1,-1,-1,290,-1,6,-1,-1,250,310,,9999,0,0,2,FEW 30   BKN -9999,1,7,-1,5,1024,RJOM 310600Z 29006KT 250V310 9999 FEW030 BKN/// 07/M05 Q1024     RMK 1CU030 A3025=,
20180131_070000.003,0,RJOM,,,,0,20180131070000,-1,-1,-1,-1,320,-1,7,-1,-1,-1,-1,,9999,0,0,2,FEW 30   SCT -9999,1,7,-1,3,1024,RJOM 310700Z 32007KT 9999 FEW030 SCT/// 07/M03 Q1024 RMK     1CU030 A3024=,
20180131_080000.003,0,RJOM,,,,0,20180131080000,-1,-1,-1,-1,10,-1,7,-1,-1,330,30,,9999,0,0,2,FEW 25   BKN 120,1,7,-1,4,1024,RJOM 310800Z 01007KT 330V030 9999 FEW025 BKN120 07/M04 Q1024     RMK 1CU025 5AC120 A3025=,
20180131_090000.002,0,RJOM,,,,0,20180131090000,-1,-1,-1,-1,20,-1,8,-1,-1,-1,-1,,9999,0,0,2,FEW 25   BKN 120,1,7,-1,3,1024,RJOM 310900Z 02008KT 9999 FEW025 BKN120 07/M03 Q1024 RMK     1CU025 6AC120 A3026=,
20180131_100000.002,0,RJOM,,,,0,20180131100000,-1,-1,-1,-1,60,-1,6,-1,-1,40,110,,9999,0,0,2,FEW 25   BKN 120,1,6,-1,4,1024,RJOM 311000Z 06006KT 040V110 9999 FEW025 BKN120 06/M04 Q1024     RMK 1CU025 5AC120 A3026=,
20180131_110000.002,0,RJOM,,,,0,20180131110000,-1,-1,-1,-1,120,-1,8,-1,-1,-1,-1,,9999,0,0,2,FEW 25   SCT 110,1,4,-1,4,1023,RJOM 311100Z 12008KT 9999 FEW025 SCT110 04/M04 Q1023 RMK     1CU025 3AC110 A3022=,
20180131_120000.002,0,RJOM,,,,0,20180131120000,-1,-1,-1,-1,130,-1,7,-1,-1,-1,-1,,9999,0,0,2,FEW 25   BKN 70,1,4,-1,3,1024,RJOM 311200Z 13007KT 9999 FEW025 BKN070 04/M03 Q1024 RMK     1CU025 6AC070 A3026 P/RR=,
20180131_220000.002,0,RJOM,,,,0,20180131220000,-1,-1,-1,-1,140,-1,5,-1,-1,-1,-1,,5000,0,2,3,FEW 4   SCT 10   BKN 40,1,1,1,1,1024,RJOM 312200Z 14005KT 5000 -RA BR FEW004 SCT010 BKN040 01/01     Q1024 RMK 2ST004 4ST010 6SC040 A3026=,- RA; BR
20180131_230000.002,0,RJOM,,,,0,20180131230000,-1,-1,-1,-1,130,-1,4,-1,-1,100,170,,5000,0,2,3,FEW 2   SCT 20   BKN 35,1,2,1,1,1025,RJOM 312300Z 13004KT 100V170 5000 -SHRASN BR FEW002 SCT020     BKN035 02/01 Q1025 RMK 2ST002 3CU020 6CU035 A3027=,- RA SN SH; BR
20180201_000000.003,0,RJOM,,,,0,20180201000000,-1,-1,-1,-1,120,-1,4,-1,-1,-1,-1,,7000,0,1,3,FEW 2   SCT 20   BKN 50,1,2,1,1,1024,RJOM 010000Z 12004KT 7000 -SHRA FEW002 SCT020 BKN050 02/01     Q1024 RMK 1ST002 4CU020 6SC050 A3026=,- RA SH
20180201_010000.002,0,RJOM,,,,0,20180201010000,-1,-1,-1,-1,130,-1,5,-1,-1,-1,-1,,9999,0,1,3,FEW 6   SCT 25   BKN 40,1,2,1,1,1025,RJOM 010100Z 13005KT 9999 -SHRASN FEW006 SCT025 BKN040 02/01     Q1025 RMK 1ST006 4CU025 6SC040 A3027=,- RA SN SH
20180201_020000.002,0,RJOM,,,,0,20180201020000,-1,-1,-1,-1,120,-1,4,-1,-1,-1,-1,,9999,0,1,3,FEW 6   SCT 10   BKN 30,1,3,1,2,1024,RJOM 010200Z 12004KT 9999 -SHRASN FEW006 SCT010 BKN030 03/02     Q1024 RMK 1ST006 4ST010 6CU030 A3025=,- RA SN SH
20180201_030000.003,0,RJOM,,,,0,20180201030000,-1,-1,-1,-1,999,-1,2,-1,-1,-1,-1,,9999,0,1,2,FEW 8   BKN 25,1,4,1,2,1023,RJOM 010300Z VRB02KT 9999 -SHRA FEW008 BKN025 04/02 Q1023 RMK     2ST008 6CU025 A3023=,- RA SH
20180201_040000.003,0,RJOM,,,,0,20180201040000,-1,-1,-1,-1,0,-1,0,-1,-1,-1,-1,,9999,0,1,3,FEW 10   SCT 20   BKN 30,1,4,1,2,1022,RJOM 010400Z 00000KT 9999 -SHRA FEW010 SCT020 BKN030 04/02     Q1022 RMK 2ST010 4CU020 6CU030 A3020=,- RA SH
20180201_050000.002,0,RJOM,,,,0,20180201050000,-1,-1,-1,-1,999,-1,2,-1,-1,-1,-1,,9999,0,1,3,FEW 8   SCT 15   BKN 30,1,4,1,2,1022,RJOM 010500Z VRB02KT 9999 -SHRA FEW008 SCT015 BKN030 04/02     Q1022 RMK 1ST008 3CU015 6CU030 A3019=,- RA SH
20180201_060000.002,0,RJOM,,,,0,20180201060000,-1,-1,-1,-1,999,-1,2,-1,-1,-1,-1,,9999,0,1,3,FEW 8   SCT 15   BKN 30,1,4,1,2,1022,RJOM 010600Z VRB02KT 9999 -SHRA FEW008 SCT015 BKN030 04/02     Q1022 RMK 1ST008 4CU015 6CU030 A3019=,- RA SH
20180201_070000.002,0,RJOM,,,,0,20180201070000,-1,-1,-1,-1,20,-1,11,-1,-1,-1,-1,,9999,0,0,3,FEW 8   SCT 15   BKN 90,1,5,1,2,1022,RJOM 010700Z 02011KT 9999 FEW008 SCT015 BKN090 05/02 Q1022 RMK     1ST008 3CU015 5AC090 A3020=,
20180201_080000.002,0,RJOM,,,,0,20180201080000,-1,-1,-1,-1,30,-1,11,-1,-1,-1,-1,,9999,0,0,1,FEW 15,1,5,1,2,1023,RJOM 010800Z 03011KT 9999 FEW015 05/02 Q1023 RMK 1CU015 A3021=,
20180201_090000.002,0,RJOM,,,,0,20180201090000,-1,-1,-1,-1,90,-1,5,-1,-1,30,150,,9999,0,0,1,FEW 15,1,3,1,1,1023,RJOM 010900Z 09005KT 030V150 9999 FEW015 03/01 Q1023 RMK     1CU015 A3023=,
20180201_100000.002,0,RJOM,,,,0,20180201100000,-1,-1,-1,-1,120,-1,6,-1,-1,-1,-1,,9999,0,0,1,FEW 15,1,3,1,1,1024,RJOM 011000Z 12006KT 9999 FEW015 03/01 Q1024 RMK 1CU015 A3024=,
20180201_110000.002,0,RJOM,,,,0,20180201110000,-1,-1,-1,-1,120,-1,6,-1,-1,-1,-1,,9999,0,0,1,FEW 15,1,3,1,1,1024,RJOM 011100Z 12006KT 9999 FEW015 03/01 Q1024 RMK 1CU015 A3025=,
20180201_120000.002,0,RJOM,,,,0,20180201120000,-1,-1,-1,-1,120,-1,6,-1,-1,-1,-1,,9999,0,0,1,FEW 15,1,2,1,0,1024,RJOM 011200Z 12006KT 9999 FEW015 02/00 Q1024 RMK 1CU015 A3026=,
20180201_220000.002,0,RJOM,,,,0,20180201220000,-1,-1,-1,-1,110,-1,8,-1,-1,-1,-1,,9999,0,0,1,FEW 15,1,1,-1,1,1023,RJOM 012200Z 11008KT 9999 FEW015 01/M01 Q1023 RMK 1CU015     A3021=,
20180201_230000.003,0,RJOM,,,,0,20180201230000,-1,-1,-1,-1,120,-1,5,-1,-1,-1,-1,,9999,0,0,2,FEW 15   BKN -9999,1,1,-1,0,1023,RJOM 012300Z 12005KT 9999 FEW015 BKN/// 01/M00 Q1023 RMK     1CU015 A3023=,
20180202_000000.002,0,RJOM,,,,0,20180202000000,-1,-1,-1,-1,110,-1,5,-1,-1,-1,-1,,9999,0,0,2,FEW 15   BKN -9999,1,3,1,0,1024,RJOM 020000Z 11005KT 9999 FEW015 BKN/// 03/00 Q1024 RMK 1CU015     A3024=,
20180202_010000.002,0,RJOM,,,,0,20180202010000,-1,-1,-1,-1,130,-1,5,-1,-1,110,170,,9999,0,0,2,FEW 15   BKN -9999,1,5,1,1,1024,RJOM 020100Z 13005KT 110V170 9999 FEW015 BKN/// 05/01 Q1024     RMK 1CU015 A3025=,
20180202_020000.002,0,RJOM,,,,0,20180202020000,-1,-1,-1,-1,999,-1,2,-1,-1,-1,-1,,9999,0,0,3,FEW 20   SCT 180   BKN -9999,1,7,1,1,1024,RJOM 020200Z VRB02KT 9999 FEW020 SCT180 BKN/// 07/01 Q1024 RMK     1CU020 3AC180 A3025=,
20180202_030000.002,0,RJOM,,,,0,20180202030000,-1,-1,-1,-1,220,-1,4,-1,-1,160,250,,9999,0,0,3,FEW 20   SCT 150   BKN -9999,1,7,1,1,1023,RJOM 020300Z 22004KT 160V250 9999 FEW020 SCT150 BKN/// 07/01     Q1023 RMK 1CU020 3AC150 A3023=,
20180202_040000.002,0,RJOM,,,,0,20180202040000,-1,-1,-1,-1,220,-1,3,-1,-1,170,290,,9999,0,0,3,FEW 20   BKN 180   BKN -9999,1,8,1,2,1023,RJOM 020400Z 22003KT 170V290 9999 FEW020 BKN180 BKN/// 08/02     Q1023 RMK 1CU020 5AC180 A3021=,
20180202_050000.001,0,RJOM,,,,0,20180202050000,-1,-1,-1,-1,350,-1,8,-1,-1,-1,-1,,9999,0,0,3,FEW 25   SCT 180   BKN -9999,1,8,1,1,1022,RJOM 020500Z 35008KT 9999 FEW025 SCT180 BKN/// 08/01 Q1022 RMK     1CU025 3AC180 A3019=,
20180202_060000.002,0,RJOM,,,,0,20180202060000,-1,-1,-1,-1,350,-1,7,-1,-1,-1,-1,,9999,0,0,2,FEW 25   BKN -9999,1,9,1,1,1022,RJOM 020600Z 35007KT 9999 FEW025 BKN/// 09/01 Q1022 RMK 1CU025     A3018=,
20180202_070000.002,0,RJOM,,,,0,20180202070000,-1,-1,-1,-1,340,-1,6,-1,-1,-1,-1,,9999,0,0,3,FEW 25   SCT 170   BKN -9999,1,9,-1,0,1021,RJOM 020700Z 34006KT 9999 FEW025 SCT170 BKN/// 09/M00 Q1021     RMK 1CU025 3AC170 A3018=,
20180202_080000.002,0,RJOM,,,,0,20180202080000,-1,-1,-1,-1,330,-1,7,-1,-1,-1,-1,,9999,0,0,3,FEW 25   SCT 180   BKN -9999,1,8,-1,1,1021,RJOM 020800Z 33007KT 9999 FEW025 SCT180 BKN/// 08/M01 Q1021     RMK 1CU025 3AC180 A3017=,
20180202_090000.002,0,RJOM,,,,0,20180202090000,-1,-1,-1,-1,340,-1,6,-1,-1,-1,-1,,9999,0,0,2,FEW 30   BKN -9999,1,8,-1,2,1021,RJOM 020900Z 34006KT 9999 FEW030 BKN/// 08/M02 Q1021 RMK     1CU030 A3017=,
20180202_100000.003,0,RJOM,,,,0,20180202100000,-1,-1,-1,-1,330,-1,5,-1,-1,-1,-1,,9999,0,0,3,FEW 30   SCT 50   BKN 170,1,7,-1,2,1021,RJOM 021000Z 33005KT 9999 FEW030 SCT050 BKN170 07/M02 Q1021     RMK 1CU030 4SC050 5AC170 A3017=,
20180202_110000.002,0,RJOM,,,,0,20180202110000,-1,-1,-1,-1,120,-1,8,-1,-1,-1,-1,,9999,0,0,3,FEW 30   SCT 50   BKN 150,1,5,1,2,1021,RJOM 021100Z 12008KT 9999 FEW030 SCT050 BKN150 05/02 Q1021 RMK     1CU030 4SC050 6AC150 A3016=,
20180202_120000.002,0,RJOM,,,,0,20180202120000,-1,-1,-1,-1,110,-1,8,-1,-1,-1,-1,,9999,0,0,2,FEW 30   BKN 50,1,5,1,1,1021,RJOM 021200Z 11008KT 9999 FEW030 BKN050 05/01 Q1021 RMK 1CU030     6SC050 A3017=,
20180202_220000.002,0,RJOM,,,,0,20180202220000,-1,-1,-1,-1,110,-1,7,-1,-1,-1,-1,,9999,0,1,3,FEW 15   SCT 25   BKN 35,1,4,1,3,1020,RJOM 022200Z 11007KT 9999 -SHRA FEW015 SCT025 BKN035 04/03     Q1020 RMK 1CU015 4CU025 6CU035 A3014=,- RA SH
20180202_230000.003,0,RJOM,,,,0,20180202230000,-1,-1,-1,-1,100,-1,5,-1,-1,-1,-1,,9999,0,1,3,FEW 15   SCT 30   BKN 50,1,5,1,3,1020,RJOM 022300Z 10005KT 9999 -SHRA FEW015 SCT030 BKN050 05/03     Q1020 RMK 1CU015 4CU030 5SC050 A3014=,- RA SH
20180203_000000.002,0,RJOM,,,,0,20180203000000,-1,-1,-1,-1,30,-1,9,-1,-1,-1,-1,,9999,0,0,3,FEW 8   SCT 30   BKN 50,1,6,1,2,1021,RJOM 030000Z 03009KT 9999 FEW008 SCT030 BKN050 06/02 Q1021 RMK     1ST008 4CU030 5SC050 A3015=,
20180203_010000.003,0,RJOM,,,,0,20180203010000,-1,-1,-1,-1,30,-1,9,-1,-1,-1,-1,,9999,0,0,3,FEW 15   SCT 30   BKN 50,1,6,1,0,1020,RJOM 030100Z 03009KT 9999 FEW015 SCT030 BKN050 06/00 Q1020 RMK     1CU015 3CU030 5SC050 A3015=,
20180203_020000.002,0,RJOM,,,,0,20180203020000,-1,-1,-1,-1,30,-1,9,-1,-1,340,60,,9999,0,0,3,FEW 15   SCT 35   BKN 50,1,6,-1,1,1020,RJOM 030200Z 03009KT 340V060 9999 FEW015 SCT035 BKN050 06/M01     Q1020 RMK 1CU015 3CU035 5SC050 A3014=,
20180203_030000.002,0,RJOM,,,,0,20180203030000,-1,-1,-1,-1,350,-1,8,-1,-1,320,30,,9999,0,0,3,FEW 15   SCT 35   BKN 50,1,7,-1,0,1020,RJOM 030300Z 35008KT 320V030 9999 FEW015 SCT035 BKN050 07/M00     Q1020 RMK 1CU015 4CU035 5SC050 A3012=,
20180203_040000.002,0,RJOM,,,,0,20180203040000,-1,-1,-1,-1,360,-1,6,-1,-1,320,40,,9999,0,1,3,FEW 15   SCT 35   BKN 50,1,7,-1,1,1019,RJOM 030400Z 36006KT 320V040 9999 VCSH FEW015 SCT035 BKN050     07/M01 Q1019 RMK 1CU015 3CU035 5SC050 A3010=,VC SH
20180203_050000.002,0,RJOM,,,,0,20180203050000,-1,-1,-1,-1,999,-1,2,-1,-1,-1,-1,,9999,0,1,2,FEW 15   SCT 50,1,7,-1,0,1018,RJOM 030500Z VRB02KT 9999 VCSH FEW015 SCT050 07/M00 Q1018 RMK     1CU015 3SC050 A3009=,VC SH
20180203_060000.002,0,RJOM,,,,0,20180203060000,-1,-1,-1,-1,200,-1,8,-1,-1,-1,-1,,9999,0,1,2,FEW 15   SCT 40,1,6,-1,0,1018,RJOM 030600Z 20008KT 9999 VCSH FEW015 SCT040 06/M00 Q1018 RMK     1CU015 4CU040 A3009=,VC SH
20180203_070000.003,0,RJOM,,,,0,20180203070000,-1,-1,-1,-1,260,-1,7,-1,-1,-1,-1,,9999,0,1,2,FEW 15   SCT 40,1,8,-1,2,1019,RJOM 030700Z 26007KT 9999 VCSH FEW015 SCT040 08/M02 Q1019 RMK     1CU015 3CU040 A3009=,VC SH
20180203_080000.002,0,RJOM,,,,0,20180203080000,-1,-1,-1,-1,290,-1,15,-1,-1,-1,-1,,9999,0,1,2,FEW 20   SCT 40,1,7,-1,3,1018,RJOM 030800Z 29015KT 9999 -SHRA FEW020 SCT040 07/M03 Q1018 RMK     1CU020 4CU040 A3008=,- RA SH
20180203_090000.002,0,RJOM,,,,0,20180203090000,-1,-1,-1,-1,290,-1,17,-1,-1,-1,-1,,9999,0,0,1,FEW 30,1,6,-1,2,1019,RJOM 030900Z 29017KT 9999 FEW030 06/M02 Q1019 RMK 1CU030     A3009=,
20180203_100000.002,0,RJOM,,,,0,20180203100000,-1,-1,-1,-1,270,-1,19,-1,-1,-1,-1,,9999,0,0,1,FEW 25,1,6,1,1,1019,RJOM 031000Z 27019KT 9999 FEW025 06/01 Q1019 RMK 1CU025 A3011=,
20180203_110000.002,0,RJOM,,,,0,20180203110000,-1,-1,-1,-1,270,-1,19,-1,-1,-1,-1,,9999,0,0,2,FEW 20   SCT 70,1,5,1,1,1019,RJOM 031100Z 27019KT 9999 FEW020 SCT070 05/01 Q1019 RMK 1CU020     3AC070 A3011=,
20180203_120000.002,0,RJOM,,,,0,20180203120000,-1,-1,-1,-1,290,-1,20,-1,-1,-1,-1,,9999,0,0,2,FEW 20   SCT 70,1,4,-1,0,1020,RJOM 031200Z 29020KT 9999 FEW020 SCT070 04/M00 Q1020 RMK     1CU020 3AC070 A3012=,
20180203_220000.002,0,RJOM,,,,0,20180203220000,-1,-1,-1,-1,280,-1,21,-1,-1,-1,-1,,9999,0,0,2,FEW 25   SCT 40,1,2,-1,8,1020,RJOM 032200Z 28021KT 9999 FEW025 SCT040 02/M08 Q1020 RMK     1CU025 3CU040 A3014=,
20180203_230000.002,0,RJOM,,,,0,20180203230000,-1,-1,-1,-1,280,-1,17,-1,-1,-1,-1,,9999,0,1,2,FEW 25   SCT 40,1,1,-1,6,1021,RJOM 032300Z 28017KT 9999 VCSH FEW025 SCT040 01/M06 Q1021 RMK     1CU025 3CU040 A3016=,VC SH
20180204_000000.002,0,RJOM,,,,0,20180204000000,-1,-1,-1,-1,280,-1,21,-1,-1,-1,-1,,9999,0,0,1,FEW 25,1,2,-1,10,1021,RJOM 040000Z 28021KT 9999 FEW025 02/M10 Q1021 RMK 1CU025     A3017=,
20180204_010000.002,0,RJOM,,,,0,20180204010000,-1,-1,-1,-1,280,-1,16,-1,-1,-1,-1,,9999,0,0,1,FEW 25,1,3,-1,9,1021,RJOM 040100Z 28016KT 9999 FEW025 03/M09 Q1021 RMK 1CU025     A3018=,
20180204_020000.002,0,RJOM,,,,0,20180204020000,-1,-1,-1,-1,270,-1,16,-1,-1,-1,-1,,9999,0,1,2,FEW 25   SCT 40,1,3,-1,9,1021,RJOM 040200Z 27016KT 9999 VCSH FEW025 SCT040 03/M09 Q1021 RMK     1CU025 3CU040 A3017=,VC SH
20180204_030000.002,0,RJOM,,,,0,20180204030000,-1,-1,-1,-1,280,-1,15,-1,-1,-1,-1,,9999,0,0,2,FEW 25   SCT 40,1,3,-1,9,1020,RJOM 040300Z 28015KT 9999 FEW025 SCT040 03/M09 Q1020 RMK     1CU025 3CU040 A3014=,
20180204_040000.002,0,RJOM,,,,0,20180204040000,-1,-1,-1,-1,280,-1,17,-1,-1,-1,-1,,9999,0,0,2,FEW 25   SCT 50,1,3,-1,11,1020,RJOM 040400Z 28017KT 9999 FEW025 SCT050 03/M11 Q1020 RMK     1CU025 3SC050 A3012=,
20180204_050000.002,0,RJOM,,,,0,20180204050000,-1,-1,-1,-1,260,-1,20,-1,-1,-1,-1,,9999,0,0,3,FEW 25   SCT 40   BKN 50,1,4,-1,8,1019,RJOM 040500Z 26020KT 9999 FEW025 SCT040 BKN050 04/M08 Q1019     RMK 1CU025 3CU040 5SC050 A3011=,
20180204_060000.002,0,RJOM,,,,0,20180204060000,-1,-1,-1,-1,280,-1,15,-1,-1,-1,-1,,9999,0,0,2,FEW 25   SCT 40,1,3,-1,7,1020,RJOM 040600Z 28015KT 9999 FEW025 SCT040 03/M07 Q1020 RMK     1CU025 3CU040 A3013=,
20180204_070000.002,0,RJOM,,,,0,20180204070000,-1,-1,-1,-1,280,-1,12,-1,-1,240,320,,9999,0,0,2,FEW 25   SCT 40,1,2,-1,9,1020,RJOM 040700Z 28012KT 240V320 9999 FEW025 SCT040 02/M09 Q1020     RMK 1CU025 3CU040 A3013=,
20180204_080000.002,0,RJOM,,,,0,20180204080000,-1,-1,-1,-1,300,-1,15,-1,-1,-1,-1,,9999,0,1,2,FEW 25   SCT 35,1,2,-1,8,1020,RJOM 040800Z 30015KT 9999 VCSH FEW025 SCT035 02/M08 Q1020 RMK     1CU025 3CU035 A3013=,VC SH
20180204_090000.002,0,RJOM,,,,0,20180204090000,-1,-1,-1,-1,290,-1,16,-1,-1,-1,-1,,9999,0,0,2,FEW 25   SCT 35,1,1,-1,8,1020,RJOM 040900Z 29016KT 9999 FEW025 SCT035 01/M08 Q1020 RMK     1CU025 4CU035 A3014=,
20180204_100000.002,0,RJOM,,,,0,20180204100000,-1,-1,-1,-1,280,-1,19,-1,-1,-1,-1,,9999,0,0,1,FEW 25,1,1,-1,9,1021,RJOM 041000Z 28019KT 9999 FEW025 01/M09 Q1021 RMK 1CU025     A3016=,
20180204_110000.003,0,RJOM,,,,0,20180204110000,-1,-1,-1,-1,280,-1,19,-1,-1,-1,-1,,9999,0,0,1,FEW 25,1,1,-1,7,1021,RJOM 041100Z 28019KT 9999 FEW025 01/M07 Q1021 RMK 1CU025     A3017=,
20180204_120000.002,0,RJOM,,,,0,20180204120000,-1,-1,-1,-1,280,-1,19,-1,-1,-1,-1,,9999,0,0,1,FEW 25,1,1,-1,7,1022,RJOM 041200Z 28019KT 9999 FEW025 01/M07 Q1022 RMK 1CU025     A3018=,
20180204_220000.002,0,RJOM,,,,0,20180204220000,-1,-1,-1,-1,270,-1,16,-1,-1,-1,-1,,9999,0,0,3,FEW 25   SCT 35   BKN 60,1,0,-1,6,1021,RJOM 042200Z 27016KT 9999 FEW025 SCT035 BKN060 00/M06 Q1021     RMK 1CU025 3CU035 5SC060 A3018=,
20180204_230000.002,0,RJOM,,,,0,20180204230000,-1,-1,-1,-1,270,-1,19,-1,-1,-1,-1,,9999,0,0,1,FEW 25,1,1,-1,8,1022,RJOM 042300Z 27019KT 9999 FEW025 01/M08 Q1022 RMK 1CU025     A3018=,
20180205_000000.003,0,RJOM,,,,0,20180205000000,-1,-1,-1,-1,280,-1,20,-1,-1,-1,-1,,9999,0,0,2,FEW 25   SCT 35,1,1,-1,8,1022,RJOM 050000Z 28020KT 9999 FEW025 SCT035 01/M08 Q1022 RMK     1CU025 3CU035 A3018=,
20180205_010000.002,0,RJOM,,,,0,20180205010000,-1,-1,-1,-1,270,-1,19,-1,-1,-1,-1,,9999,0,0,1,FEW 25,1,2,-1,8,1022,RJOM 050100Z 27019KT 9999 FEW025 02/M08 Q1022 RMK 1CU025     A3018=,
20180205_020000.002,0,RJOM,,,,0,20180205020000,-1,-1,-1,-1,270,-1,15,-1,-1,-1,-1,,9999,0,0,2,FEW 25   SCT 40,1,3,-1,8,1022,RJOM 050200Z 27015KT 9999 FEW025 SCT040 03/M08 Q1022 RMK     1CU025 3CU040 A3018=,
