20180101_000000.002,0,RJOO,,,,0,20180101000000,-1,-1,-1,-1,999,-1,1,-1,-1,-1,-1,,9999,0,0,1,FEW 30,1,6,-1,3,1020,RJOO 010000Z VRB01KT 9999 FEW030 06/M03 Q1020 RMK 1CU030     A3013=,
20180101_010000.002,0,RJOO,,,,0,20180101010000,-1,-1,-1,-1,999,-1,3,-1,-1,-1,-1,,9999,0,0,1,FEW 30,1,8,-1,5,1020,RJOO 010100Z VRB03KT 9999 FEW030 08/M05 Q1020 RMK 1CU030     A3013=,
20180101_020000.002,0,RJOO,,,,0,20180101020000,-1,-1,-1,-1,290,-1,6,-1,-1,240,330,,9999,0,0,1,FEW 30,1,9,-1,6,1020,RJOO 010200Z 29006KT 240V330 9999 FEW030 09/M06 Q1020 RMK     1CU030 A3012=,
20180101_030000.002,0,RJOO,,,,0,20180101030000,-1,-1,-1,-1,300,-1,6,-1,-1,210,330,,9999,0,0,2,FEW 30   SCT 45,1,8,-1,6,1019,RJOO 010300Z 30006KT 210V330 9999 FEW030 SCT045 08/M06 Q1019     RMK 1CU030 3CU045 A3009=,
20180101_040000.002,0,RJOO,,,,0,20180101040000,-1,-1,-1,-1,280,-1,7,-1,-1,230,330,,9999,0,0,2,FEW 30   SCT 45,1,10,-1,5,1018,RJOO 010400Z 28007KT 230V330 9999 FEW030 SCT045 10/M05 Q1018     RMK 1CU030 3CU045 A3007=,
20180101_050000.002,0,RJOO,,,,0,20180101050000,-1,-1,-1,-1,290,-1,10,-1,-1,240,330,,9999,0,0,2,FEW 30   BKN 50,1,10,-1,6,1018,RJOO 010500Z 29010KT 240V330 9999 FEW030 BKN050 10/M06 Q1018     RMK 1CU030 5SC050 A3007=,
20180101_060000.002,0,RJOO,,,,0,20180101060000,-1,-1,-1,-1,290,-1,9,-1,-1,240,330,,9999,0,0,3,FEW 30   SCT 50   BKN 70,1,9,-1,6,1019,RJOO 010600Z 29009KT 240V330 9999 FEW030 SCT050 BKN070 09/M06     Q1019 RMK 1CU030 3SC050 5AC070 A3010=,
20180101_070000.002,0,RJOO,,,,0,20180101070000,-1,-1,-1,-1,290,-1,8,-1,-1,250,330,,9999,0,0,3,FEW 30   SCT 60   BKN 70,1,9,-1,5,1019,RJOO 010700Z 29008KT 250V330 9999 FEW030 SCT060 BKN070 09/M05     Q1019 RMK 1CU030 3SC060 5AC070 A3010=,
20180101_080000.002,0,RJOO,,,,0,20180101080000,-1,-1,-1,-1,300,-1,6,-1,-1,-1,-1,,9999,0,0,2,FEW 20   SCT 60,1,8,-1,4,1019,RJOO 010800Z 30006KT 9999 FEW020 SCT060 08/M04 Q1019 RMK     2CU020 3SC060 A3011=,
20180101_090000.002,0,RJOO,,,,0,20180101090000,-1,-1,-1,-1,310,-1,4,-1,-1,-1,-1,,9999,0,0,1,FEW 20,1,7,-1,4,1020,RJOO 010900Z 31004KT 9999 FEW020 07/M04 Q1020 RMK 2CU020     A3014=,
20180101_100000.002,0,RJOO,,,,0,20180101100000,-1,-1,-1,-1,280,-1,5,-1,-1,220,320,,9999,0,0,2,FEW 20   SCT 60,1,7,-1,5,1021,RJOO 011000Z 28005KT 220V320 9999 FEW020 SCT060 07/M05 Q1021     RMK 2CU020 3SC060 A3015=,
20180101_110000.002,0,RJOO,,,,0,20180101110000,-1,-1,-1,-1,300,-1,3,-1,-1,-1,-1,,9999,0,0,2,FEW 20   SCT 50,1,6,-1,5,1021,RJOO 011100Z 30003KT 9999 FEW020 SCT050 06/M05 Q1021 RMK     2CU020 4SC050 A3016=,
20180101_200000.003,0,RJOO,,,,0,20180101200000,-1,-1,-1,-1,310,-1,5,-1,-1,-1,-1,,9999,0,0,2,FEW 20   SCT -9999,1,2,-1,4,1022,RJOO 012000Z 31005KT 9999 FEW020 SCT/// 02/M04 Q1022 RMK     1CU020 A3019=,
20180101_210000.002,0,RJOO,,,,0,20180101210000,-1,-1,-1,-1,320,-1,6,-1,-1,-1,-1,,9999,0,0,1,FEW 20,1,2,-1,4,1023,RJOO 012100Z 32006KT 9999 FEW020 02/M04 Q1023 RMK 1CU020     A3022=,
20180101_220000.002,0,RJOO,,,,0,20180101220000,-1,-1,-1,-1,320,-1,4,-1,-1,-1,-1,,9999,0,0,1,FEW 15,1,1,-1,4,1023,RJOO 012200Z 32004KT 9999 FEW015 01/M04 Q1023 RMK 1CU015     A3022=,
20180101_230000.002,0,RJOO,,,,0,20180101230000,-1,-1,-1,-1,320,-1,5,-1,-1,-1,-1,,9999,0,0,1,FEW 15,1,2,-1,3,1023,RJOO 012300Z 32005KT 9999 FEW015 02/M03 Q1023 RMK 1CU015     A3023=,
20180102_000000.003,0,RJOO,,,,0,20180102000000,-1,-1,-1,-1,310,-1,9,-1,-1,-1,-1,,9999,0,0,1,FEW 20,1,5,-1,3,1024,RJOO 020000Z 31009KT 9999 FEW020 05/M03 Q1024 RMK 1CU020     A3025=,
20180102_010000.003,0,RJOO,,,,0,20180102010000,-1,-1,-1,-1,300,-1,6,-1,-1,250,330,,9999,0,0,2,FEW 20   SCT 30,1,7,-1,3,1024,RJOO 020100Z 30006KT 250V330 9999 FEW020 SCT030 07/M03 Q1024     RMK 1CU020 3CU030 A3024=,
20180102_020000.002,0,RJOO,,,,0,20180102020000,-1,-1,-1,-1,210,-1,3,-1,-1,130,290,,9999,0,0,2,FEW 30   SCT 40,1,8,-1,3,1023,RJOO 020200Z 21003KT 130V290 9999 FEW030 SCT040 08/M03 Q1023     RMK 1CU030 3CU040 A3022=,
20180102_030000.002,0,RJOO,,,,0,20180102030000,-1,-1,-1,-1,280,-1,7,-1,-1,230,330,,9999,0,0,2,FEW 30   SCT 40,1,10,-1,4,1021,RJOO 020300Z 28007KT 230V330 9999 FEW030 SCT040 10/M04 Q1021     RMK 1CU030 3CU040 A3017=,
20180102_040000.002,0,RJOO,,,,0,20180102040000,-1,-1,-1,-1,290,-1,10,-1,-1,240,320,,9999,0,0,2,FEW 30   SCT 40,1,10,-1,5,1020,RJOO 020400Z 29010KT 240V320 9999 FEW030 SCT040 10/M05 Q1020     RMK 1CU030 3CU040 A3014=,
20180102_050000.002,0,RJOO,,,,0,20180102050000,-1,-1,-1,-1,270,-1,8,-1,-1,230,350,,9999,0,0,2,FEW 30   SCT 45,1,10,-1,5,1020,RJOO 020500Z 27008KT 230V350 9999 FEW030 SCT045 10/M05 Q1020     RMK 1CU030 3CU045 A3014=,
20180102_060000.002,0,RJOO,,,,0,20180102060000,-1,-1,-1,-1,300,-1,9,-1,-1,250,330,,9999,0,0,2,FEW 30   SCT 50,1,10,-1,5,1020,RJOO 020600Z 30009KT 250V330 9999 FEW030 SCT050 10/M05 Q1020     RMK 1CU030 4SC050 A3015=,
20180102_070000.002,0,RJOO,,,,0,20180102070000,-1,-1,-1,-1,260,-1,6,-1,-1,210,330,,9999,0,0,2,FEW 30   SCT 50,1,9,-1,6,1020,RJOO 020700Z 26006KT 210V330 9999 FEW030 SCT050 09/M06 Q1020     RMK 1CU030 3SC050 A3013=,
20180102_080000.002,0,RJOO,,,,0,20180102080000,-1,-1,-1,-1,250,-1,4,-1,-1,190,290,,9999,0,0,2,FEW 30   SCT 60,1,9,-1,6,1020,RJOO 020800Z 25004KT 190V290 9999 FEW030 SCT060 09/M06 Q1020     RMK 1CU030 3SC060 A3013=,
20180102_090000.002,0,RJOO,,,,0,20180102090000,-1,-1,-1,-1,999,-1,1,-1,-1,-1,-1,,9999,0,0,1,FEW 30,1,7,-1,4,1020,RJOO 020900Z VRB01KT 9999 FEW030 07/M04 Q1020 RMK 1CU030     A3013=,
20180102_100000.002,0,RJOO,,,,0,20180102100000,-1,-1,-1,-1,999,-1,2,-1,-1,-1,-1,,9999,0,0,2,FEW 30   SCT 70,1,6,-1,4,1020,RJOO 021000Z VRB02KT 9999 FEW030 SCT070 06/M04 Q1020 RMK     1CU030 3AC070 A3014=,
20180102_110000.002,0,RJOO,,,,0,20180102110000,-1,-1,-1,-1,240,-1,4,-1,-1,190,290,,9999,0,0,2,FEW 30   SCT 70,1,7,-1,5,1020,RJOO 021100Z 24004KT 190V290 9999 FEW030 SCT070 07/M05 Q1020     RMK 1CU030 3AC070 A3013=,
20180102_200000.003,0,RJOO,,,,0,20180102200000,-1,-1,-1,-1,290,-1,3,-1,-1,250,340,,9999,0,1,3,FEW 15   SCT 45   BKN 60,1,5,-1,2,1019,RJOO 022000Z 29003KT 250V340 9999 VCSH FEW015 SCT045 BKN060     05/M02 Q1019 RMK 1CU015 3CU045 5SC060 A3010=,VC SH
20180102_210000.002,0,RJOO,,,,0,20180102210000,-1,-1,-1,-1,250,-1,4,-1,-1,210,300,,9999,0,1,3,FEW 25   SCT 40   BKN 60,1,4,-1,1,1020,RJOO 022100Z 25004KT 210V300 9999 -SHRA FEW025 SCT040 BKN060     04/M01 Q1020 RMK 1CU025 3CU040 5SC060 A3013=,- RA SH
20180102_220000.002,0,RJOO,,,,0,20180102220000,-1,-1,-1,-1,340,-1,10,-1,-1,-1,-1,,9999,0,1,3,FEW 12   SCT 15   BKN 20,1,3,1,0,1021,RJOO 022200Z 34010KT 9999 -SHRA FEW012 SCT015 BKN020 03/00     Q1021 RMK 1CU012 3CU015 5CU020 A3016=,- RA SH
20180102_230000.002,0,RJOO,,,,0,20180102230000,-1,-1,-1,-1,310,-1,5,-1,-1,270,350,,9999,0,1,3,FEW 10   SCT 35   BKN 80,1,4,1,0,1022,RJOO 022300Z 31005KT 270V350 9999 -SHRA FEW010 SCT035 BKN080     04/00 Q1022 RMK 1CU010 3CU035 5AC080 A3018=,- RA SH
20180103_000000.002,0,RJOO,,,,0,20180103000000,-1,-1,-1,-1,260,-1,5,-1,-1,220,300,,9999,0,1,3,FEW 10   SCT 60   BKN 70,1,5,1,0,1022,RJOO 030000Z 26005KT 220V300 9999 VCSH FEW010 SCT060 BKN070     05/00 Q1022 RMK 1CU010 3SC060 5AC070 A3018=,VC SH
20180103_010000.002,0,RJOO,,,,0,20180103010000,-1,-1,-1,-1,310,-1,7,-1,-1,260,350,,9999,0,1,3,FEW 3   BKN 30   BKN 45,1,5,-1,2,1022,RJOO 030100Z 31007KT 260V350 9999 VCSH FEW003 BKN030 BKN045     05/M02 Q1022 RMK 2ST003 5CU030 6CU045 A3019=,VC SH
20180103_020000.002,0,RJOO,,,,0,20180103020000,-1,-1,-1,-1,310,-1,10,-1,-1,-1,-1,,9999,0,1,2,FEW 3   BKN 35,1,5,-1,2,1021,RJOO 030200Z 31010KT 9999 VCSH FEW003 BKN035 05/M02 Q1021 RMK     2ST003 6CU035 A3018=,VC SH
20180103_030000.003,0,RJOO,,,,0,20180103030000,-1,-1,-1,-1,320,-1,7,-1,-1,-1,-1,,9999,0,1,3,FEW 3   BKN 30   BKN 80,1,5,-1,3,1021,RJOO 030300Z 32007KT 9999 VCSH FEW003 BKN030 BKN080 05/M03     Q1021 RMK 2ST003 5CU030 6AC080 A3017=,VC SH
20180103_040000.002,0,RJOO,,,,0,20180103040000,-1,-1,-1,-1,10,-1,5,-1,-1,250,60,,9999,0,1,2,FEW 25   BKN 35,1,5,-1,3,1021,RJOO 030400Z 01005KT 250V060 9999 VCSH FEW025 BKN035 05/M03     Q1021 RMK 2CU025 5CU035 A3015=,VC SH
20180103_050000.002,0,RJOO,,,,0,20180103050000,-1,-1,-1,-1,350,-1,9,-1,-1,-1,-1,,9999,0,1,1,FEW 15,1,4,-1,1,1020,RJOO 030500Z 35009KT 9999 VCSH FEW015 04/M01 Q1020 RMK 1CU015     A3015=,VC SH
20180103_060000.002,0,RJOO,,,,0,20180103060000,-1,-1,-1,-1,320,-1,11,-1,-1,-1,-1,,9999,0,1,2,FEW 3   BKN 40,1,5,-1,4,1021,RJOO 030600Z 32011KT 9999 -SHSN FEW003 BKN040 05/M04 Q1021 RMK     2ST003 5CU040 A3017=,- SN SH
20180103_070000.002,0,RJOO,,,,0,20180103070000,-1,-1,-1,-1,340,-1,11,-1,-1,-1,-1,,9999,0,1,2,FEW 15   SCT 35,1,4,-1,2,1022,RJOO 030700Z 34011KT 9999 -SHRASN FEW015 SCT035 04/M02 Q1022     RMK 1CU015 4CU035 A3018=,- RA SN SH
20180103_080000.002,0,RJOO,,,,0,20180103080000,-1,-1,-1,-1,320,-1,7,-1,-1,-1,-1,,9999,0,1,2,FEW 15   SCT 35,1,4,-1,3,1022,RJOO 030800Z 32007KT 9999 VCSH FEW015 SCT035 04/M03 Q1022 RMK     1CU015 3CU035 A3019=,VC SH
20180103_090000.002,0,RJOO,,,,0,20180103090000,-1,-1,-1,-1,300,-1,3,-1,-1,-1,-1,,9999,0,0,2,FEW 15   SCT 40,1,3,-1,2,1022,RJOO 030900Z 30003KT 9999 FEW015 SCT040 03/M02 Q1022 RMK     1CU015 3CU040 A3020=,
20180103_100000.002,0,RJOO,,,,0,20180103100000,-1,-1,-1,-1,300,-1,5,-1,-1,250,330,,9999,0,1,2,FEW 8   SCT 45,1,3,-1,3,1023,RJOO 031000Z 30005KT 250V330 9999 -SHRASN FEW008 SCT045 03/M03     Q1023 RMK 1ST008 3CU045 A3022=,- RA SN SH
20180103_110000.002,0,RJOO,,,,0,20180103110000,-1,-1,-1,-1,320,-1,6,-1,-1,-1,-1,,9999,0,0,1,FEW 20,1,3,-1,3,1023,RJOO 031100Z 32006KT 9999 FEW020 03/M03 Q1023 RMK 1CU020     A3021=,
20180103_200000.002,0,RJOO,,,,0,20180103200000,-1,-1,-1,-1,999,-1,1,-1,-1,-1,-1,,9999,0,0,1,FEW 30,-1,1,-1,4,1023,RJOO 032000Z VRB01KT 9999 FEW030 M01/M04 Q1023 RMK 1CU030     A3021=,
20180103_210000.003,0,RJOO,,,,0,20180103210000,-1,-1,-1,-1,999,-1,1,-1,-1,-1,-1,,9999,0,0,1,FEW 25,-1,1,-1,4,1023,RJOO 032100Z VRB01KT 9999 FEW025 M01/M04 Q1023 RMK 1CU025     A3023=,
20180103_220000.002,0,RJOO,,,,0,20180103220000,-1,-1,-1,-1,999,-1,2,-1,-1,-1,-1,,9999,0,0,1,FEW 25,-1,2,-1,4,1024,RJOO 032200Z VRB02KT 9999 FEW025 M02/M04 Q1024 RMK 1CU025     A3024=,
20180103_230000.002,0,RJOO,,,,0,20180103230000,-1,-1,-1,-1,270,-1,1,-1,-1,-1,-1,,9999,0,0,1,FEW 25,-1,0,-1,3,1023,RJOO 032300Z 27001KT 9999 FEW025 M00/M03 Q1023 RMK 1CU025     A3023=,
20180104_000000.002,0,RJOO,,,,0,20180104000000,-1,-1,-1,-1,999,-1,1,-1,-1,-1,-1,,9999,0,0,2,FEW 25   BKN 35,1,2,-1,3,1024,RJOO 040000Z VRB01KT 9999 FEW025 BKN035 02/M03 Q1024 RMK     1CU025 5CU035 A3024=,
20180104_010000.002,0,RJOO,,,,0,20180104010000,-1,-1,-1,-1,999,-1,1,-1,-1,-1,-1,,9999,0,0,2,FEW 25   BKN 30,1,4,-1,2,1023,RJOO 040100Z VRB01KT 9999 FEW025 BKN030 04/M02 Q1023 RMK     2CU025 5CU030 A3023=,
20180104_020000.002,0,RJOO,,,,0,20180104020000,-1,-1,-1,-1,220,-1,4,-1,-1,170,260,,9999,0,0,2,FEW 25   BKN 30,1,5,-1,3,1023,RJOO 040200Z 22004KT 170V260 9999 FEW025 BKN030 05/M03 Q1023     RMK 2CU025 5CU030 A3021=,
20180104_030000.002,0,RJOO,,,,0,20180104030000,-1,-1,-1,-1,999,-1,3,-1,-1,-1,-1,,9999,0,0,2,FEW 25   BKN 30,1,6,-1,3,1021,RJOO 040300Z VRB03KT 9999 FEW025 BKN030 06/M03 Q1021 RMK     1CU025 5CU030 A3018=,
20180104_040000.002,0,RJOO,,,,0,20180104040000,-1,-1,-1,-1,300,-1,4,-1,-1,230,350,,9999,0,0,2,FEW 35   BKN 40,1,7,-1,4,1020,RJOO 040400Z 30004KT 230V350 9999 FEW035 BKN040 07/M04 Q1020     RMK 1CU035 5CU040 A3015=,
20180104_050000.002,0,RJOO,,,,0,20180104050000,-1,-1,-1,-1,999,-1,4,-1,-1,-1,-1,,9999,0,0,2,FEW 30   BKN 45,1,7,-1,4,1020,RJOO 040500Z VRB04KT 9999 FEW030 BKN045 07/M04 Q1020 RMK     1CU030 5CU045 A3013=,
20180104_060000.003,0,RJOO,,,,0,20180104060000,-1,-1,-1,-1,300,-1,5,-1,-1,220,360,,9999,0,1,2,FEW 25   BKN 40,1,7,-1,4,1020,RJOO 040600Z 30005KT 220V360 9999 VCSH FEW025 BKN040 07/M04     Q1020 RMK 1CU025 5CU040 A3014=,VC SH
20180104_070000.002,0,RJOO,,,,0,20180104070000,-1,-1,-1,-1,340,-1,12,-1,-1,-1,-1,,9999,0,0,2,FEW 25   SCT 40,1,7,-1,3,1020,RJOO 040700Z 34012KT 9999 FEW025 SCT040 07/M03 Q1020 RMK     1CU025 3CU040 A3014=,
20180104_080000.002,0,RJOO,,,,0,20180104080000,-1,-1,-1,-1,350,-1,11,-1,-1,-1,-1,,9999,0,0,2,FEW 25   SCT 40,1,6,-1,3,1021,RJOO 040800Z 35011KT 9999 FEW025 SCT040 06/M03 Q1021 RMK     1CU025 3CU040 A3016=,
20180104_090000.002,0,RJOO,,,,0,20180104090000,-1,-1,-1,-1,350,-1,6,-1,-1,-1,-1,,9999,0,0,2,FEW 25   BKN -9999,1,4,-1,3,1021,RJOO 040900Z 35006KT 9999 FEW025 BKN/// 04/M03 Q1021 RMK     1CU025 A3016=,
20180104_100000.002,0,RJOO,,,,0,20180104100000,-1,-1,-1,-1,310,-1,5,-1,-1,-1,-1,,9999,0,0,2,FEW 25   BKN -9999,1,4,-1,2,1021,RJOO 041000Z 31005KT 9999 FEW025 BKN/// 04/M02 Q1021 RMK     1CU025 A3017=,
20180104_110000.002,0,RJOO,,,,0,20180104110000,-1,-1,-1,-1,10,-1,4,-1,-1,330,50,,9999,0,0,2,FEW 25   SCT 170,1,4,-1,3,1021,RJOO 041100Z 01004KT 330V050 9999 FEW025 SCT170 04/M03 Q1021     RMK 1CU025 3AC170 A3018=,
20180104_200000.002,0,RJOO,,,,0,20180104200000,-1,-1,-1,-1,310,-1,2,-1,-1,-1,-1,,9999,0,0,3,FEW 10   BKN 90   OVC 100,1,2,-1,1,1018,RJOO 042000Z 31002KT 9999 FEW010 BKN090 OVC100 02/M01 Q1018     RMK 1ST010 6AC090 8AS100 A3009=,
20180104_210000.002,0,RJOO,,,,0,20180104210000,-1,-1,-1,-1,999,-1,1,-1,-1,-1,-1,,9999,0,0,3,FEW 10   BKN 90   OVC 100,1,2,-1,1,1018,RJOO 042100Z VRB01KT 9999 FEW010 BKN090 OVC100 02/M01 Q1018     RMK 1ST010 6AC090 8AS100 A3008=,
20180104_220000.002,0,RJOO,,,,0,20180104220000,-1,-1,-1,-1,999,-1,1,-1,-1,-1,-1,,9999,0,1,3,FEW 25   SCT 50   BKN 70,1,3,-1,1,1018,RJOO 042200Z VRB01KT 9999 VCSH FEW025 SCT050 BKN070 03/M01     Q1018 RMK 1CU025 3SC050 6AC070 A3008=,VC SH
20180104_230000.002,0,RJOO,,,,0,20180104230000,-1,-1,-1,-1,0,-1,0,-1,-1,-1,-1,,9999,0,1,3,FEW 10   SCT 35   BKN 50,1,3,-1,0,1018,RJOO 042300Z 00000KT 9999 -SHRA FEW010 SCT035 BKN050 03/M00     Q1018 RMK 1CU010 3CU035 5SC050 A3008=,- RA SH
20180105_000000.002,0,RJOO,,,,0,20180105000000,-1,-1,-1,-1,999,-1,1,-1,-1,-1,-1,,9999,0,1,3,FEW 10   SCT 50   BKN 70,1,4,-1,1,1018,RJOO 050000Z VRB01KT 9999 -SHRA FEW010 SCT050 BKN070 04/M01     Q1018 RMK 1CU010 3SC050 5AC070 A3008=,- RA SH
20180105_010000.003,0,RJOO,,,,0,20180105010000,-1,-1,-1,-1,999,-1,1,-1,-1,-1,-1,,9999,0,1,3,FEW 10   SCT 35   BKN 60,1,4,-1,1,1019,RJOO 050100Z VRB01KT 9999 -RA FEW010 SCT035 BKN060 04/M01     Q1019 RMK 1ST010 4CU035 7SC060 A3009=,- RA
20180105_020000.002,0,RJOO,,,,0,20180105020000,-1,-1,-1,-1,999,-1,1,-1,-1,-1,-1,,9999,0,1,3,FEW 8   SCT 18   BKN 40,1,4,1,0,1018,RJOO 050200Z VRB01KT 9999 -RA FEW008 SCT018 BKN040 04/00 Q1018     RMK 1ST008 4CU018 7SC040 A3007=,- RA
20180105_030000.002,0,RJOO,,,,0,20180105030000,-1,-1,-1,-1,999,-1,2,-1,-1,-1,-1,,9999,0,1,3,FEW 8   SCT 15   BKN 40,1,4,1,0,1016,RJOO 050300Z VRB02KT 9999 -RA FEW008 SCT015 BKN040 04/00 Q1016     RMK 1ST008 4CU015 7SC040 A3003=,- RA
20180105_040000.002,0,RJOO,,,,0,20180105040000,-1,-1,-1,-1,999,-1,2,-1,-1,-1,-1,,9999,0,1,3,FEW 8   SCT 15   BKN 35,1,4,-1,0,1015,RJOO 050400Z VRB02KT 9999 -RA FEW008 SCT015 BKN035 04/M00     Q1015 RMK 1ST008 4CU015 7CU035 A3000=,- RA
20180105_050000.002,0,RJOO,,,,0,20180105050000,-1,-1,-1,-1,999,-1,1,-1,-1,-1,-1,,9999,0,1,3,FEW 8   SCT 15   BKN 40,1,5,1,1,1016,RJOO 050500Z VRB01KT 9999 -RA FEW008 SCT015 BKN040 05/01 Q1016     RMK 1ST008 4CU015 7SC040 A3000=,- RA
20180105_060000.002,0,RJOO,,,,0,20180105060000,-1,-1,-1,-1,200,-1,3,-1,-1,120,270,,9999,0,1,3,FEW 8   SCT 15   BKN 50,1,5,1,1,1015,RJOO 050600Z 20003KT 120V270 9999 -RA FEW008 SCT015 BKN050     05/01 Q1015 RMK 1ST008 4CU015 7SC050 A3000=,- RA
20180105_070000.002,0,RJOO,,,,0,20180105070000,-1,-1,-1,-1,999,-1,2,-1,-1,-1,-1,,9999,0,0,2,FEW 8   BKN 15,1,5,1,0,1015,RJOO 050700Z VRB02KT 9999 FEW008 BKN015 05/00 Q1015 RMK 1ST008     6CU015 A2998=,
20180105_080000.002,0,RJOO,,,,0,20180105080000,-1,-1,-1,-1,999,-1,1,-1,-1,-1,-1,,9999,0,0,2,FEW 10   BKN 15,1,5,1,0,1015,RJOO 050800Z VRB01KT 9999 FEW010 BKN015 05/00 Q1015 RMK 1CU010     5CU015 A2998=,
20180105_090000.002,0,RJOO,,,,0,20180105090000,-1,-1,-1,-1,999,-1,2,-1,-1,-1,-1,,9999,0,0,2,FEW 10   BKN 20,1,4,-1,0,1015,RJOO 050900Z VRB02KT 9999 FEW010 BKN020 04/M00 Q1015 RMK     1CU010 5CU020 A2998=,
20180105_100000.002,0,RJOO,,,,0,20180105100000,-1,-1,-1,-1,999,-1,1,-1,-1,-1,-1,,9999,0,0,2,FEW 15   BKN 25,1,4,1,0,1015,RJOO 051000Z VRB01KT 9999 FEW015 BKN025 04/00 Q1015 RMK 1CU015     5CU025 A2999=,
20180105_110000.002,0,RJOO,,,,0,20180105110000,-1,-1,-1,-1,220,-1,3,-1,-1,-1,-1,,9999,0,0,1,FEW 20,1,3,1,1,1015,RJOO 051100Z 22003KT 9999 FEW020 03/01 Q1015 RMK 1CU020 A2998=,
20180105_200000.002,0,RJOO,,,,0,20180105200000,-1,-1,-1,-1,50,-1,3,-1,-1,-1,-1,,9999,0,0,3,FEW 10   SCT 20   BKN 30,1,3,1,0,1014,RJOO 052000Z 05003KT 9999 FEW010 SCT020 BKN030 03/00 Q1014 RMK     1ST010 3CU020 6CU030 A2994=,
20180105_210000.003,0,RJOO,,,,0,20180105210000,-1,-1,-1,-1,80,-1,2,-1,-1,-1,-1,,8000,0,1,3,FEW 10   SCT 20   BKN 30,1,3,1,1,1014,RJOO 052100Z 08002KT 8000 -RA FEW010 SCT020 BKN030 03/01 Q1014     RMK 1ST010 3CU020 6CU030 A2995=,- RA
20180105_220000.002,0,RJOO,,,,0,20180105220000,-1,-1,-1,-1,320,-1,2,-1,-1,-1,-1,,8000,0,0,3,FEW 10   SCT 20   BKN 30,1,2,1,1,1014,RJOO 052200Z 32002KT 8000 FEW010 SCT020 BKN030 02/01 Q1014 RMK     1ST010 3CU020 5CU030 A2995=,
20180105_230000.002,0,RJOO,,,,0,20180105230000,-1,-1,-1,-1,999,-1,2,-1,-1,-1,-1,,8000,0,0,3,FEW 10   SCT 25   BKN 50,1,3,1,1,1014,RJOO 052300Z VRB02KT 8000 FEW010 SCT025 BKN050 03/01 Q1014 RMK     1ST010 3CU025 5SC050 A2996=,
20180106_000000.002,0,RJOO,,,,0,20180106000000,-1,-1,-1,-1,999,-1,1,-1,-1,-1,-1,,8000,0,0,3,FEW 10   SCT 50   BKN 80,1,4,1,1,1015,RJOO 060000Z VRB01KT 8000 FEW010 SCT050 BKN080 04/01 Q1015 RMK     1ST010 3SC050 5AC080 A2997=,
20180106_010000.002,0,RJOO,,,,0,20180106010000,-1,-1,-1,-1,999,-1,2,-1,-1,-1,-1,,8000,0,0,3,FEW 10   SCT 30   BKN 50,1,5,1,1,1015,RJOO 060100Z VRB02KT 8000 FEW010 SCT030 BKN050 05/01 Q1015 RMK     1ST010 3CU030 5SC050 A2999=,
20180106_020000.002,0,RJOO,,,,0,20180106020000,-1,-1,-1,-1,999,-1,1,-1,-1,-1,-1,,9999,0,0,3,FEW 20   SCT 30   BKN 50,1,7,1,1,1015,RJOO 060200Z VRB01KT 9999 FEW020 SCT030 BKN050 07/01 Q1015 RMK     1CU020 3CU030 5SC050 A2997=,
20180106_030000.002,0,RJOO,,,,0,20180106030000,-1,-1,-1,-1,290,-1,6,-1,-1,250,330,,9999,0,0,3,FEW 20   SCT 30   BKN 40,1,8,-1,1,1014,RJOO 060300Z 29006KT 250V330 9999 FEW020 SCT030 BKN040 08/M01     Q1014 RMK 1CU020 3CU030 5CU040 A2995=,
20180106_040000.002,0,RJOO,,,,0,20180106040000,-1,-1,-1,-1,340,-1,9,-1,-1,-1,-1,,9999,0,1,3,FEW 20   SCT 30   BKN 60,1,10,1,1,1014,RJOO 060400Z 34009KT 9999 VCSH FEW020 SCT030 BKN060 10/01     Q1014 RMK 1CU020 3CU030 5SC060 A2994=,VC SH
20180106_050000.002,0,RJOO,,,,0,20180106050000,-1,-1,-1,-1,340,-1,9,-1,-1,-1,-1,,9999,0,0,3,FEW 20   SCT 30   BKN 50,1,9,-1,0,1014,RJOO 060500Z 34009KT 9999 FEW020 SCT030 BKN050 09/M00 Q1014     RMK 1CU020 3CU030 5SC050 A2994=,
20180106_060000.002,0,RJOO,,,,0,20180106060000,-1,-1,-1,-1,330,-1,5,-1,-1,-1,-1,,9999,0,0,3,FEW 20   SCT 30   BKN 50,1,9,-1,1,1014,RJOO 060600Z 33005KT 9999 FEW020 SCT030 BKN050 09/M01 Q1014     RMK 1CU020 3CU030 5SC050 A2995=,
20180106_070000.002,0,RJOO,,,,0,20180106070000,-1,-1,-1,-1,340,-1,12,-1,-1,-1,-1,,9999,0,0,3,FEW 20   SCT 50   BKN 60,1,9,-1,3,1015,RJOO 060700Z 34012KT 9999 FEW020 SCT050 BKN060 09/M03 Q1015     RMK 2CU020 3SC050 5SC060 A2997=,
20180106_080000.002,0,RJOO,,,,0,20180106080000,-1,-1,-1,-1,350,-1,13,-1,-1,-1,-1,,9999,0,1,3,FEW 20   BKN 50   BKN 60,1,7,-1,1,1016,RJOO 060800Z 35013KT 9999 VCSH FEW020 BKN050 BKN060 07/M01     Q1016 RMK 1CU020 5SC050 6SC060 A3000=,VC SH
20180106_090000.002,0,RJOO,,,,0,20180106090000,-1,-1,-1,-1,320,-1,10,-1,-1,-1,-1,,9999,0,0,2,FEW 20   SCT 45,1,6,-1,0,1016,RJOO 060900Z 32010KT 9999 FEW020 SCT045 06/M00 Q1016 RMK     1CU020 3CU045 A3003=,
20180106_100000.002,0,RJOO,,,,0,20180106100000,-1,-1,-1,-1,310,-1,6,-1,-1,-1,-1,,9999,0,0,2,FEW 15   SCT 30,1,5,-1,0,1017,RJOO 061000Z 31006KT 9999 FEW015 SCT030 05/M00 Q1017 RMK     1CU015 3CU030 A3005=,
20180106_110000.002,0,RJOO,,,,0,20180106110000,-1,-1,-1,-1,300,-1,7,-1,-1,-1,-1,,9999,0,0,1,FEW 20,1,5,-1,1,1018,RJOO 061100Z 30007KT 9999 FEW020 05/M01 Q1018 RMK 1CU020     A3009=,
20180106_200000.002,0,RJOO,,,,0,20180106200000,-1,-1,-1,-1,260,-1,2,-1,-1,-1,-1,,9999,0,0,2,FEW 30   BKN 50,1,1,-1,1,1022,RJOO 062000Z 26002KT 9999 FEW030 BKN050 01/M01 Q1022 RMK     1CU030 6SC050 A3018=,
20180106_210000.002,0,RJOO,,,,0,20180106210000,-1,-1,-1,-1,320,-1,3,-1,-1,290,350,,9999,0,0,2,FEW 30   BKN 50,-1,1,-1,3,1022,RJOO 062100Z 32003KT 290V350 9999 FEW030 BKN050 M01/M03 Q1022     RMK 1CU030 5SC050 A3021=,
20180106_220000.002,0,RJOO,,,,0,20180106220000,-1,-1,-1,-1,320,-1,3,-1,-1,-1,-1,,9999,0,0,2,FEW 30   SCT 50,-1,1,-1,3,1022,RJOO 062200Z 32003KT 9999 FEW030 SCT050 M01/M03 Q1022 RMK     1CU030 3SC050 A3020=,
20180106_230000.002,0,RJOO,,,,0,20180106230000,-1,-1,-1,-1,0,-1,0,-1,-1,-1,-1,,9999,0,0,2,FEW 30   BKN -9999,1,2,-1,2,1023,RJOO 062300Z 00000KT 9999 FEW030 BKN/// 02/M02 Q1023 RMK     1CU030 A3021=,
20180107_000000.002,0,RJOO,,,,0,20180107000000,-1,-1,-1,-1,999,-1,1,-1,-1,-1,-1,,9999,0,0,2,FEW 20   BKN -9999,1,5,-1,1,1023,RJOO 070000Z VRB01KT 9999 FEW020 BKN/// 05/M01 Q1023 RMK     1CU020 A3023=,
20180107_010000.003,0,RJOO,,,,0,20180107010000,-1,-1,-1,-1,999,-1,1,-1,-1,-1,-1,,9999,0,0,3,FEW 20   SCT 50   BKN -9999,1,6,-1,2,1024,RJOO 070100Z VRB01KT 9999 FEW020 SCT050 BKN/// 06/M02 Q1024     RMK 1CU020 3SC050 A3024=,
20180107_020000.002,0,RJOO,,,,0,20180107020000,-1,-1,-1,-1,999,-1,2,-1,-1,-1,-1,,9999,0,0,2,FEW 20   BKN 45,1,7,-1,3,1023,RJOO 070200Z VRB02KT 9999 FEW020 BKN045 07/M03 Q1023 RMK     1CU020 5SC045 A3023=,
20180107_030000.002,0,RJOO,,,,0,20180107030000,-1,-1,-1,-1,70,-1,4,-1,-1,40,110,,9999,0,0,2,FEW 20   BKN 40,1,8,-1,4,1023,RJOO 070300Z 07004KT 040V110 9999 FEW020 BKN040 08/M04 Q1023     RMK 1CU020 6CU040 A3022=,
20180107_040000.002,0,RJOO,,,,0,20180107040000,-1,-1,-1,-1,999,-1,1,-1,-1,-1,-1,,9999,0,0,2,FEW 30   BKN 50,1,8,-1,5,1022,RJOO 070400Z VRB01KT 9999 FEW030 BKN050 08/M05 Q1022 RMK     1CU030 5SC050 A3020=,
20180107_050000.002,0,RJOO,,,,0,20180107050000,-1,-1,-1,-1,20,-1,3,-1,-1,350,100,,9999,0,0,2,FEW 30   BKN -9999,1,8,-1,5,1021,RJOO 070500Z 02003KT 350V100 9999 FEW030 BKN/// 08/M05 Q1021     RMK 1CU030 A3017=,
20180107_060000.002,0,RJOO,,,,0,20180107060000,-1,-1,-1,-1,330,-1,7,-1,-1,300,20,,9999,0,0,2,FEW 30   BKN -9999,1,9,-1,4,1021,RJOO 070600Z 33007KT 300V020 9999 FEW030 BKN/// 09/M04 Q1021     RMK 1CU030 A3018=,
20180107_070000.002,0,RJOO,,,,0,20180107070000,-1,-1,-1,-1,360,-1,7,-1,-1,-1,-1,,9999,0,0,2,FEW 30   BKN -9999,1,8,-1,4,1022,RJOO 070700Z 36007KT 9999 FEW030 BKN/// 08/M04 Q1022 RMK     1CU030 A3018=,
20180107_080000.002,0,RJOO,,,,0,20180107080000,-1,-1,-1,-1,20,-1,4,-1,-1,340,50,,9999,0,0,3,FEW 30   SCT 160   BKN 170,1,8,-1,4,1022,RJOO 070800Z 02004KT 340V050 9999 FEW030 SCT160 BKN170 08/M04     Q1022 RMK 2CU030 3AC160 5AC170 A3020=,
20180107_090000.002,0,RJOO,,,,0,20180107090000,-1,-1,-1,-1,20,-1,4,-1,-1,-1,-1,,9999,0,0,3,FEW 30   BKN 160   BKN 170,1,7,-1,4,1022,RJOO 070900Z 02004KT 9999 FEW030 BKN160 BKN170 07/M04 Q1022     RMK 2CU030 5AC160 6AC170 A3020=,
20180107_100000.002,0,RJOO,,,,0,20180107100000,-1,-1,-1,-1,20,-1,4,-1,-1,-1,-1,,9999,0,0,2,FEW 30   BKN 140,1,7,-1,4,1022,RJOO 071000Z 02004KT 9999 FEW030 BKN140 07/M04 Q1022 RMK     2CU030 6AC140 A3021=,
20180107_110000.002,0,RJOO,,,,0,20180107110000,-1,-1,-1,-1,90,-1,3,-1,-1,30,130,,9999,0,0,3,FEW 30   BKN 140   BKN 150,1,6,-1,3,1023,RJOO 071100Z 09003KT 030V130 9999 FEW030 BKN140 BKN150 06/M03     Q1023 RMK 1CU030 5AC140 6AC150 A3021=,
20180107_200000.002,0,RJOO,,,,0,20180107200000,-1,-1,-1,-1,330,-1,6,-1,-1,-1,-1,,9999,0,1,3,FEW 10   BKN 50   BKN 60,1,4,1,0,1018,RJOO 072000Z 33006KT 9999 -RA FEW010 BKN050 BKN060 04/00 Q1018     RMK 2SC010 5SC050 7SC060 A3009=,- RA
20180107_210000.003,0,RJOO,,,,0,20180107210000,-1,-1,-1,-1,999,-1,1,-1,-1,-1,-1,,9000,0,1,2,FEW 15   BKN 50,1,5,1,1,1018,RJOO 072100Z VRB01KT 9000 -RA FEW015 BKN050 05/01 Q1018 RMK     2SC015 7SC050 A3007=,- RA
20180107_220000.002,0,RJOO,,,,0,20180107220000,-1,-1,-1,-1,70,-1,3,-1,-1,40,110,,9000,0,1,3,FEW 10   SCT 40   BKN 50,1,5,1,1,1018,RJOO 072200Z 07003KT 040V110 9000 -RA FEW010 SCT040 BKN050     05/01 Q1018 RMK 2SC010 3SC040 7SC050 A3007=,- RA
20180107_230000.002,0,RJOO,,,,0,20180107230000,-1,-1,-1,-1,999,-1,2,-1,-1,-1,-1,,9999,0,1,3,FEW 9   SCT 50   OVC 90,1,5,1,2,1018,RJOO 072300Z VRB02KT 9999 -RA FEW009 SCT050 OVC090 05/02 Q1018     RMK 1ST009 3SC050 8AS090 A3007=,- RA
20180108_000000.002,0,RJOO,,,,0,20180108000000,-1,-1,-1,-1,80,-1,13,-1,-1,-1,-1,,9999,0,1,3,FEW 10   BKN 60   BKN 100,1,6,1,2,1015,RJOO 080000Z 08013KT 9999 VCSH FEW010 BKN060 BKN100 06/02     Q1015 RMK 1ST010 5SC060 6AC100 A3000 P/FR=,VC SH
20180108_010000.002,0,RJOO,,,,0,20180108010000,-1,-1,-1,-1,70,-1,11,-1,-1,-1,-1,,9999,0,1,2,FEW 10   BKN 50,1,6,1,3,1014,RJOO 080100Z 07011KT 9999 VCSH FEW010 BKN050 06/03 Q1014 RMK     1ST010 7SC050 A2996=,VC SH
20180108_020000.002,0,RJOO,,,,0,20180108020000,-1,-1,-1,-1,70,-1,10,-1,-1,-1,-1,,9999,0,1,2,FEW 15   BKN 50,1,7,1,4,1012,RJOO 080200Z 07010KT 9999 VCSH FEW015 BKN050 07/04 Q1012 RMK     1CU015 7SC050 A2991=,VC SH
20180108_030000.002,0,RJOO,,,,0,20180108030000,-1,-1,-1,-1,70,-1,15,-1,-1,-1,-1,,9999,0,1,2,FEW 10   BKN 50,1,8,1,4,1010,RJOO 080300Z 07015KT 9999 -RA FEW010 BKN050 08/04 Q1010 RMK     1ST010 7SC050 A2984 P/FR=,- RA
20180108_040000.002,0,RJOO,,,,0,20180108040000,-1,-1,-1,-1,80,-1,14,-1,-1,40,100,,9999,0,1,3,FEW 8   SCT 30   BKN 50,1,8,1,5,1009,RJOO 080400Z 08014KT 040V100 9999 -RA FEW008 SCT030 BKN050     08/05 Q1009 RMK 1ST008 3CU030 7SC050 A2980=,- RA
20180108_050000.002,0,RJOO,,,,0,20180108050000,-1,-1,-1,-1,70,-1,12,-1,-1,30,90,,9999,0,1,3,FEW 8   SCT 35   BKN 50,1,9,1,6,1008,RJOO 080500Z 07012KT 030V090 9999 -RA FEW008 SCT035 BKN050     09/06 Q1008 RMK 1ST008 3CU035 7SC050 A2977=,- RA
20180108_060000.003,0,RJOO,,,,0,20180108060000,-1,-1,-1,-1,80,-1,11,-1,-1,-1,-1,,9999,0,1,3,FEW 3   SCT 35   BKN 45,1,9,1,6,1007,RJOO 080600Z 08011KT 9999 -RA FEW003 SCT035 BKN045 09/06 Q1007     RMK 1ST003 3CU035 7SC045 A2974=,- RA
20180108_070000.002,0,RJOO,,,,0,20180108070000,-1,-1,-1,-1,60,-1,7,-1,-1,20,100,,9999,0,1,3,FEW 10   SCT 35   BKN 45,1,10,1,7,1006,RJOO 080700Z 06007KT 020V100 9999 -RA FEW010 SCT035 BKN045     10/07 Q1006 RMK 1ST010 3CU035 7SC045 A2972=,- RA
20180108_080000.002,0,RJOO,,,,0,20180108080000,-1,-1,-1,-1,80,-1,8,-1,-1,-1,-1,,9999,0,1,3,FEW 10   SCT 30   BKN 50,1,10,1,8,1006,RJOO 080800Z 08008KT 9999 -RA FEW010 SCT030 BKN050 10/08 Q1006     RMK 1ST010 3CU030 7SC050 A2971=,- RA
20180108_090000.002,0,RJOO,,,,0,20180108090000,-1,-1,-1,-1,70,-1,6,-1,-1,20,100,,9999,0,1,3,FEW 10   SCT 25   BKN 90,1,10,1,7,1005,RJOO 080900Z 07006KT 020V100 9999 -RA FEW010 SCT025 BKN090     10/07 Q1005 RMK 1ST010 3CU025 7AC090 A2969=,- RA
20180108_100000.002,0,RJOO,,,,0,20180108100000,-1,-1,-1,-1,70,-1,7,-1,-1,30,110,,8000,0,1,3,FEW 8   BKN 20   BKN 70,1,10,1,7,1004,RJOO 081000Z 07007KT 030V110 8000 -RA FEW008 BKN020 BKN070     10/07 Q1004 RMK 1ST008 5CU020 7AC070 A2967=,- RA
20180108_110000.002,0,RJOO,,,,0,20180108110000,-1,-1,-1,-1,80,-1,5,-1,-1,30,100,,5000,0,2,3,FEW 8   BKN 20   BKN 70,1,10,1,8,1004,RJOO 081100Z 08005KT 030V100 5000 RA BR FEW008 BKN020 BKN070     10/08 Q1004 RMK 1ST008 5CU020 7AC070 A2966=,RA; BR
20180108_200000.002,0,RJOO,,,,0,20180108200000,-1,-1,-1,-1,280,-1,7,-1,-1,240,330,,9999,0,0,3,FEW 8   SCT 20   BKN 40,1,11,1,3,1001,RJOO 082000Z 28007KT 240V330 9999 FEW008 SCT020 BKN040 11/03     Q1001 RMK 1ST008 3CU020 6CU040 A2956=,
20180108_210000.003,0,RJOO,,,,0,20180108210000,-1,-1,-1,-1,300,-1,11,-1,22,260,330,,9999,0,0,3,FEW 10   SCT 30   BKN 50,1,11,1,2,1002,RJOO 082100Z 30011G22KT 260V330 9999 FEW010 SCT030 BKN050     11/02 Q1002 RMK 1CU010 3CU030 5SC050 A2959=,
20180108_220000.002,0,RJOO,,,,0,20180108220000,-1,-1,-1,-1,280,-1,9,-1,19,230,320,,9999,0,0,3,FEW 20   SCT 40   BKN 70,1,10,1,1,1003,RJOO 082200Z 28009G19KT 230V320 9999 FEW020 SCT040 BKN070     10/01 Q1003 RMK 1CU020 3CU040 5AC070 A2963=,
20180108_230000.003,0,RJOO,,,,0,20180108230000,-1,-1,-1,-1,260,-1,5,-1,-1,180,310,,9999,0,0,1,FEW 20,1,9,-1,1,1003,RJOO 082300Z 26005KT 180V310 9999 FEW020 09/M01 Q1003 RMK     1CU020 A2964=,
20180109_000000.002,0,RJOO,,,,0,20180109000000,-1,-1,-1,-1,250,-1,14,-1,26,200,290,,9999,0,0,2,FEW 25   BKN 70,1,9,-1,3,1005,RJOO 090000Z 25014G26KT 200V290 9999 FEW025 BKN070 09/M03     Q1005 RMK 1CU025 5AC070 A2968=,
20180109_010000.002,0,RJOO,,,,0,20180109010000,-1,-1,-1,-1,260,-1,13,-1,25,220,330,,9999,0,0,2,FEW 25   SCT 80,1,10,-1,4,1005,RJOO 090100Z 26013G25KT 220V330 9999 FEW025 SCT080 10/M04     Q1005 RMK 1CU025 4AC080 A2969 VERY ROUGH AIR OBS AT 0043Z           ON SHORT FNA RWY32L DH8D=,
20180109_020000.002,0,RJOO,,,,0,20180109020000,-1,-1,-1,-1,270,-1,14,-1,29,220,320,,9999,0,0,2,FEW 25   SCT 60,1,10,-1,6,1004,RJOO 090200Z 27014G29KT 220V320 9999 FEW025 SCT060 10/M06     Q1004 RMK 2CU025 3SC060 A2967=,
20180109_030000.002,0,RJOO,,,,0,20180109030000,-1,-1,-1,-1,260,-1,14,-1,29,220,320,,9999,0,0,3,FEW 25   SCT 60   BKN 70,1,10,-1,6,1004,RJOO 090300Z 26014G29KT 220V320 9999 FEW025 SCT060 BKN070     10/M06 Q1004 RMK 1CU025 3SC060 5AC070 A2966=,
20180109_040000.002,0,RJOO,,,,0,20180109040000,-1,-1,-1,-1,270,-1,13,-1,25,220,310,,9999,0,1,3,FEW 25   SCT 60   BKN 70,1,8,-1,4,1004,RJOO 090400Z 27013G25KT 220V310 9999 -SHRA FEW025 SCT060     BKN070 08/M04 Q1004 RMK 1CU025 3SC060 5AC070 A2966 WS           10KT LOSS OBS AT 0338Z OVER THR RWY32L IN DES E190=,- RA SH
20180109_050000.002,0,RJOO,,,,0,20180109050000,-1,-1,-1,-1,270,-1,12,-1,25,230,300,,9999,0,1,3,FEW 25   SCT 50   BKN 70,1,9,-1,5,1004,RJOO 090500Z 27012G25KT 230V300 9999 -SHRA FEW025 SCT050     BKN070 09/M05 Q1004 RMK 1CU025 3SC050 5AC070 A2967=,- RA SH
20180109_060000.002,0,RJOO,,,,0,20180109060000,-1,-1,-1,-1,270,-1,11,-1,24,200,320,,9999,0,1,3,FEW 20   SCT 40   BKN 50,1,8,-1,6,1006,RJOO 090600Z 27011G24KT 200V320 9999 VCSH FEW020 SCT040 BKN050     08/M06 Q1006 RMK 1CU020 3CU040 5SC050 A2971=,VC SH
20180109_070000.002,0,RJOO,,,,0,20180109070000,-1,-1,-1,-1,290,-1,9,-1,-1,230,330,,9999,0,1,3,FEW 35   SCT 60   BKN 70,1,7,-1,4,1007,RJOO 090700Z 29009KT 230V330 9999 VCSH FEW035 SCT060 BKN070     07/M04 Q1007 RMK 1CU035 3SC060 5AC070 A2974=,VC SH
20180109_080000.002,0,RJOO,,,,0,20180109080000,-1,-1,-1,-1,300,-1,5,-1,-1,240,330,,9999,0,0,2,FEW 25   SCT 45,1,6,-1,5,1008,RJOO 090800Z 30005KT 240V330 9999 FEW025 SCT045 06/M05 Q1008     RMK 1CU025 3CU045 A2979=,
20180109_090000.002,0,RJOO,,,,0,20180109090000,-1,-1,-1,-1,260,-1,9,-1,-1,230,330,,9999,0,0,1,FEW 30,1,5,-1,8,1010,RJOO 090900Z 26009KT 230V330 9999 FEW030 05/M08 Q1010 RMK     1CU030 A2984=,
20180109_100000.002,0,RJOO,,,,0,20180109100000,-1,-1,-1,-1,280,-1,7,-1,-1,240,330,,9999,0,0,1,FEW 30,1,5,-1,8,1011,RJOO 091000Z 28007KT 240V330 9999 FEW030 05/M08 Q1011 RMK     1CU030 A2985=,
20180109_110000.002,0,RJOO,,,,0,20180109110000,-1,-1,-1,-1,280,-1,9,-1,-1,240,320,,9999,0,0,1,FEW 40,1,5,-1,8,1011,RJOO 091100Z 28009KT 240V320 9999 FEW040 05/M08 Q1011 RMK     1CU040 A2987=,
20180109_200000.002,0,RJOO,,,,0,20180109200000,-1,-1,-1,-1,999,-1,1,-1,-1,-1,-1,,9999,0,0,1,FEW 25,1,1,-1,4,1012,RJOO 092000Z VRB01KT 9999 FEW025 01/M04 Q1012 RMK 1CU025     A2990=,
20180109_210000.002,0,RJOO,,,,0,20180109210000,-1,-1,-1,-1,320,-1,4,-1,-1,-1,-1,,9999,0,0,1,FEW 25,1,2,-1,4,1013,RJOO 092100Z 32004KT 9999 FEW025 02/M04 Q1013 RMK 1CU025     A2992=,
20180109_220000.002,0,RJOO,,,,0,20180109220000,-1,-1,-1,-1,320,-1,4,-1,-1,-1,-1,,9999,0,0,1,FEW 20,1,1,-1,4,1013,RJOO 092200Z 32004KT 9999 FEW020 01/M04 Q1013 RMK 1CU020     A2991=,
20180109_230000.002,0,RJOO,,,,0,20180109230000,-1,-1,-1,-1,999,-1,2,-1,-1,-1,-1,,9999,0,0,1,FEW 25,1,1,-1,3,1013,RJOO 092300Z VRB02KT 9999 FEW025 01/M03 Q1013 RMK 1CU025     A2992=,
20180110_000000.002,0,RJOO,,,,0,20180110000000,-1,-1,-1,-1,330,-1,6,-1,-1,-1,-1,,9999,0,0,2,FEW 25   SCT 80,1,5,-1,3,1013,RJOO 100000Z 33006KT 9999 FEW025 SCT080 05/M03 Q1013 RMK     1CU025 4AC080 A2993=,
20180110_010000.002,0,RJOO,,,,0,20180110010000,-1,-1,-1,-1,330,-1,4,-1,-1,-1,-1,,9999,0,0,2,FEW 25   SCT 60,1,5,-1,4,1013,RJOO 100100Z 33004KT 9999 FEW025 SCT060 05/M04 Q1013 RMK     1CU025 3SC060 A2992=,
20180110_020000.002,0,RJOO,,,,0,20180110020000,-1,-1,-1,-1,230,-1,8,-1,-1,-1,-1,,9999,0,0,3,FEW 25   SCT 50   BKN 80,1,7,-1,4,1012,RJOO 100200Z 23008KT 9999 FEW025 SCT050 BKN080 07/M04 Q1012     RMK 1CU025 4SC050 6AC080 A2990=,
20180110_030000.002,0,RJOO,,,,0,20180110030000,-1,-1,-1,-1,230,-1,8,-1,-1,160,290,,9999,0,1,3,FEW 20   SCT 40   BKN 50,1,7,-1,1,1011,RJOO 100300Z 23008KT 160V290 9999 VCSH FEW020 SCT040 BKN050     07/M01 Q1011 RMK 1CU020 4CU040 6SC050 A2986=,VC SH
20180110_040000.003,0,RJOO,,,,0,20180110040000,-1,-1,-1,-1,250,-1,8,-1,-1,210,290,,9999,0,1,3,FEW 15   SCT 25   BKN 40,1,7,-1,2,1010,RJOO 100400Z 25008KT 210V290 9999 -SHRA FEW015 SCT025 BKN040     07/M02 Q1010 RMK 1CU015 3CU025 5CU040 A2984=,- RA SH
20180110_050000.002,0,RJOO,,,,0,20180110050000,-1,-1,-1,-1,340,-1,4,-1,-1,-1,-1,,9999,0,1,3,FEW 6   SCT 10   BKN 25,1,4,1,2,1010,RJOO 100500Z 34004KT 9999 -SHRA FEW006 SCT010 BKN025 04/02     Q1010 RMK 1ST006 3CU010 6CU025 A2985=,- RA SH
20180110_060000.002,0,RJOO,,,,0,20180110060000,-1,-1,-1,-1,250,-1,7,-1,-1,210,300,,9999,0,0,3,FEW 15   SCT 50   BKN 100,1,6,1,1,1010,RJOO 100600Z 25007KT 210V300 9999 FEW015 SCT050 BKN100 06/01     Q1010 RMK 1CU015 3SC050 5AC100 A2984=,
20180110_070000.002,0,RJOO,,,,0,20180110070000,-1,-1,-1,-1,260,-1,5,-1,20,210,310,,9999,0,1,3,FEW 5   SCT 15   BKN 25,1,6,1,1,1010,RJOO 100700Z 26005G20KT 210V310 9999 -SHRA FEW005 SCT015     BKN025 06/01 Q1010 RMK 1ST005 3CU015 5CU025 A2984           3000W-NE=,- RA SH
20180110_080000.002,0,RJOO,,,,0,20180110080000,-1,-1,-1,-1,999,-1,2,-1,-1,-1,-1,,9999,0,1,3,FEW 8   SCT 15   BKN 40,1,4,1,2,1011,RJOO 100800Z VRB02KT 9999 -SHRA FEW008 SCT015 BKN040 04/02     Q1011 RMK 1ST008 3CU015 6CU040 A2986=,- RA SH
20180110_090000.002,0,RJOO,,,,0,20180110090000,-1,-1,-1,-1,310,-1,4,-1,-1,-1,-1,,9999,0,0,2,FEW 15   SCT 70,1,3,1,1,1011,RJOO 100900Z 31004KT 9999 FEW015 SCT070 03/01 Q1011 RMK 1CU015     3AC070 A2987 MOD TURB OBS AT 0838Z 5NM E IZUMI 7000FT INC           DH8D=,
20180110_100000.002,0,RJOO,,,,0,20180110100000,-1,-1,-1,-1,320,-1,3,-1,-1,-1,-1,,9999,0,0,3,FEW 15   SCT 30   BKN 70,1,4,1,1,1012,RJOO 101000Z 32003KT 9999 FEW015 SCT030 BKN070 04/01 Q1012 RMK     1CU015 3CU030 5AC070 A2989=,
20180110_110000.002,0,RJOO,,,,0,20180110110000,-1,-1,-1,-1,360,-1,6,-1,-1,340,50,,9999,0,0,2,FEW 10   BKN 20,1,4,-1,0,1013,RJOO 101100Z 36006KT 340V050 9999 FEW010 BKN020 04/M00 Q1013     RMK 1ST010 5CU020 A2992=,
20180110_200000.002,0,RJOO,,,,0,20180110200000,-1,-1,-1,-1,290,-1,8,-1,-1,250,320,,9999,0,0,1,FEW 30,1,1,-1,6,1016,RJOO 102000Z 29008KT 250V320 9999 FEW030 01/M06 Q1016 RMK     1CU030 A3002=,
20180110_210000.002,0,RJOO,,,,0,20180110210000,-1,-1,-1,-1,280,-1,6,-1,-1,240,320,,9999,0,0,2,FEW 30   SCT 60,1,1,-1,10,1017,RJOO 102100Z 28006KT 240V320 9999 FEW030 SCT060 01/M10 Q1017     RMK 1CU030 4SC060 A3004=,
20180110_220000.002,0,RJOO,,,,0,20180110220000,-1,-1,-1,-1,250,-1,7,-1,-1,-1,-1,,9999,0,0,1,FEW 30,1,0,-1,10,1018,RJOO 102200Z 25007KT 9999 FEW030 00/M10 Q1018 RMK 1CU030     A3007=,
20180110_230000.003,0,RJOO,,,,0,20180110230000,-1,-1,-1,-1,260,-1,7,-1,-1,220,330,,9999,0,0,1,FEW 30,1,1,-1,11,1019,RJOO 102300Z 26007KT 220V330 9999 FEW030 01/M11 Q1019 RMK     1CU030 A3009=,
20180111_000000.002,0,RJOO,,,,0,20180111000000,-1,-1,-1,-1,250,-1,8,-1,-1,220,300,,9999,0,0,1,FEW 30,1,2,-1,12,1019,RJOO 110000Z 25008KT 220V300 9999 FEW030 02/M12 Q1019 RMK     1CU030 A3012=,
20180111_010000.002,0,RJOO,,,,0,20180111010000,-1,-1,-1,-1,260,-1,8,-1,-1,210,330,,9999,0,0,1,FEW 30,1,3,-1,11,1020,RJOO 110100Z 26008KT 210V330 9999 FEW030 03/M11 Q1020 RMK     1CU030 A3012=,
20180111_020000.002,0,RJOO,,,,0,20180111020000,-1,-1,-1,-1,250,-1,10,-1,-1,210,300,,9999,0,0,2,FEW 25   SCT 40,1,3,-1,13,1019,RJOO 110200Z 25010KT 210V300 9999 FEW025 SCT040 03/M13 Q1019     RMK 1CU025 3CU040 A3011=,
20180111_030000.001,0,RJOO,,,,0,20180111030000,-1,-1,-1,-1,270,-1,7,-1,-1,200,330,,9999,0,1,2,FEW 20   SCT 45,1,3,-1,12,1019,RJOO 110300Z 27007KT 200V330 9999 VCSH FEW020 SCT045 03/M12     Q1019 RMK 1CU020 3CU045 A3010=,VC SH
20180111_040000.002,0,RJOO,,,,0,20180111040000,-1,-1,-1,-1,280,-1,6,-1,-1,210,320,,9999,0,1,2,FEW 15   BKN 45,1,3,-1,11,1018,RJOO 110400Z 28006KT 210V320 9999 -SHSN FEW015 BKN045 03/M11     Q1018 RMK 1CU015 5CU045 A3008=,- SN SH
20180111_050000.002,0,RJOO,,,,0,20180111050000,-1,-1,-1,-1,310,-1,7,-1,-1,270,360,,9999,0,1,2,FEW 20   BKN 45,1,3,-1,11,1018,RJOO 110500Z 31007KT 270V360 9999 VCSH FEW020 BKN045 03/M11     Q1018 RMK 1CU020 5CU045 A3008 MOD TURB OBS AT 0440Z 5NM           NE IZUMI BTN 9000FT AND 6000FT IN DES E190=,VC SH
20180111_060000.002,0,RJOO,,,,0,20180111060000,-1,-1,-1,-1,250,-1,12,-1,-1,210,290,,9999,0,0,2,FEW 20   SCT 50,1,4,-1,12,1018,RJOO 110600Z 25012KT 210V290 9999 FEW020 SCT050 04/M12 Q1018     RMK 1CU020 4SC050 A3009=,
20180111_070000.002,0,RJOO,,,,0,20180111070000,-1,-1,-1,-1,250,-1,9,-1,-1,210,300,,9999,0,0,2,FEW 20   SCT 50,1,3,-1,12,1019,RJOO 110700Z 25009KT 210V300 9999 FEW020 SCT050 03/M12 Q1019     RMK 1CU020 3SC050 A3009=,
20180111_080000.002,0,RJOO,,,,0,20180111080000,-1,-1,-1,-1,260,-1,8,-1,21,210,330,,9999,0,0,1,FEW 20,1,3,-1,13,1019,RJOO 110800Z 26008G21KT 210V330 9999 FEW020 03/M13 Q1019 RMK     1CU020 A3009=,
20180111_090000.002,0,RJOO,,,,0,20180111090000,-1,-1,-1,-1,270,-1,5,-1,-1,230,320,,9999,0,0,1,FEW 20,1,2,-1,12,1019,RJOO 110900Z 27005KT 230V320 9999 FEW020 02/M12 Q1019 RMK     1CU020 A3011=,
20180111_100000.002,0,RJOO,,,,0,20180111100000,-1,-1,-1,-1,280,-1,3,-1,-1,210,320,,9999,0,0,1,FEW 20,1,2,-1,11,1020,RJOO 111000Z 28003KT 210V320 9999 FEW020 02/M11 Q1020 RMK     1CU020 A3014=,
20180111_110000.002,0,RJOO,,,,0,20180111110000,-1,-1,-1,-1,280,-1,7,-1,-1,230,350,,9999,0,0,1,FEW 20,1,1,-1,14,1021,RJOO 111100Z 28007KT 230V350 9999 FEW020 01/M14 Q1021 RMK     1CU020 A3015=,
20180111_200000.002,0,RJOO,,,,0,20180111200000,-1,-1,-1,-1,260,-1,5,-1,-1,220,300,,9999,0,0,1,FEW 25,-1,0,-1,10,1022,RJOO 112000Z 26005KT 220V300 9999 FEW025 M00/M10 Q1022 RMK     1CU025 A3018=,
20180111_210000.002,0,RJOO,,,,0,20180111210000,-1,-1,-1,-1,310,-1,6,-1,-1,-1,-1,,9999,0,0,1,FEW 25,-1,2,-1,10,1022,RJOO 112100Z 31006KT 9999 FEW025 M02/M10 Q1022 RMK 1CU025     A3020=,
20180111_220000.002,0,RJOO,,,,0,20180111220000,-1,-1,-1,-1,999,-1,5,-1,-1,-1,-1,,9999,0,0,1,FEW 25,-1,2,-1,11,1023,RJOO 112200Z VRB05KT 9999 FEW025 M02/M11 Q1023 RMK 1CU025     A3021=,
20180111_230000.002,0,RJOO,,,,0,20180111230000,-1,-1,-1,-1,360,-1,3,-1,-1,280,50,,9999,0,0,1,FEW 25,-1,0,-1,11,1023,RJOO 112300Z 36003KT 280V050 9999 FEW025 M00/M11 Q1023 RMK     1CU025 A3023=,
20180112_000000.002,0,RJOO,,,,0,20180112000000,-1,-1,-1,-1,300,-1,4,-1,-1,210,20,,9999,0,0,1,FEW 25,1,1,-1,11,1024,RJOO 120000Z 30004KT 210V020 9999 FEW025 01/M11 Q1024 RMK     1CU025 A3024=,
20180112_010000.003,0,RJOO,,,,0,20180112010000,-1,-1,-1,-1,290,-1,5,-1,-1,240,330,,9999,0,0,1,FEW 25,1,3,-1,13,1024,RJOO 120100Z 29005KT 240V330 9999 FEW025 03/M13 Q1024 RMK     1CU025 A3025=,
20180112_020000.002,0,RJOO,,,,0,20180112020000,-1,-1,-1,-1,999,-1,9,-1,-1,-1,-1,,9999,0,0,1,FEW 25,1,4,-1,12,1023,RJOO 120200Z VRB09KT 9999 FEW025 04/M12 Q1023 RMK 1CU025     A3023=,
20180112_030000.002,0,RJOO,,,,0,20180112030000,-1,-1,-1,-1,310,-1,9,-1,-1,-1,-1,,9999,0,0,1,FEW 25,1,4,-1,13,1022,RJOO 120300Z 31009KT 9999 FEW025 04/M13 Q1022 RMK 1CU025     A3019=,
20180112_040000.002,0,RJOO,,,,0,20180112040000,-1,-1,-1,-1,310,-1,10,-1,-1,-1,-1,,9999,0,0,1,FEW 25,1,5,-1,14,1021,RJOO 120400Z 31010KT 9999 FEW025 05/M14 Q1021 RMK 1CU025     A3018=,
20180112_050000.003,0,RJOO,,,,0,20180112050000,-1,-1,-1,-1,310,-1,5,-1,-1,250,330,,9999,0,0,1,FEW 25,1,5,-1,14,1022,RJOO 120500Z 31005KT 250V330 9999 FEW025 05/M14 Q1022 RMK     1CU025 A3018=,
20180112_060000.002,0,RJOO,,,,0,20180112060000,-1,-1,-1,-1,220,-1,8,-1,-1,170,250,,9999,0,0,1,FEW 25,1,5,-1,10,1022,RJOO 120600Z 22008KT 170V250 9999 FEW025 05/M10 Q1022 RMK     1CU025 A3018=,
20180112_070000.003,0,RJOO,,,,0,20180112070000,-1,-1,-1,-1,220,-1,9,-1,-1,160,250,,9999,0,0,2,FEW 25   SCT 60,1,5,-1,9,1022,RJOO 120700Z 22009KT 160V250 9999 FEW025 SCT060 05/M09 Q1022     RMK 1CU025 3SC060 A3019=,
20180112_080000.002,0,RJOO,,,,0,20180112080000,-1,-1,-1,-1,250,-1,6,-1,-1,200,290,,9999,0,1,2,FEW 30   SCT 70,1,4,-1,10,1023,RJOO 120800Z 25006KT 200V290 9999 VCSH FEW030 SCT070 04/M10     Q1023 RMK 2CU030 4AC070 A3021=,VC SH
20180112_090000.002,0,RJOO,,,,0,20180112090000,-1,-1,-1,-1,250,-1,4,-1,-1,210,310,,9999,0,0,1,FEW 30,1,4,-1,10,1024,RJOO 120900Z 25004KT 210V310 9999 FEW030 04/M10 Q1024 RMK     2CU030 A3024=,
20180112_100000.002,0,RJOO,,,,0,20180112100000,-1,-1,-1,-1,999,-1,2,-1,-1,-1,-1,,9999,0,0,1,FEW 30,1,3,-1,11,1024,RJOO 121000Z VRB02KT 9999 FEW030 03/M11 Q1024 RMK 1CU030     A3025=,
20180112_110000.002,0,RJOO,,,,0,20180112110000,-1,-1,-1,-1,300,-1,8,-1,-1,-1,-1,,9999,0,0,1,FEW 30,1,2,-1,11,1024,RJOO 121100Z 30008KT 9999 FEW030 02/M11 Q1024 RMK 1CU030     A3026=,
20180112_200000.003,0,RJOO,,,,0,20180112200000,-1,-1,-1,-1,330,-1,6,-1,-1,-1,-1,,9999,0,0,1,FEW 25,-1,2,-1,9,1025,RJOO 122000Z 33006KT 9999 FEW025 M02/M09 Q1025 RMK 1CU025     A3029=,
20180112_210000.002,0,RJOO,,,,0,20180112210000,-1,-1,-1,-1,310,-1,5,-1,-1,-1,-1,,9999,0,0,1,FEW 25,-1,3,-1,8,1025,RJOO 122100Z 31005KT 9999 FEW025 M03/M08 Q1025 RMK 1CU025     A3029=,
20180112_220000.002,0,RJOO,,,,0,20180112220000,-1,-1,-1,-1,310,-1,4,-1,-1,-1,-1,,9999,0,0,1,FEW 25,-1,3,-1,8,1026,RJOO 122200Z 31004KT 9999 FEW025 M03/M08 Q1026 RMK 1CU025     A3030=,
20180112_230000.002,0,RJOO,,,,0,20180112230000,-1,-1,-1,-1,310,-1,5,-1,-1,-1,-1,,9999,0,0,1,FEW 25,-1,2,-1,8,1026,RJOO 122300Z 31005KT 9999 FEW025 M02/M08 Q1026 RMK 1CU025     A3031=,
20180113_000000.002,0,RJOO,,,,0,20180113000000,-1,-1,-1,-1,320,-1,7,-1,-1,-1,-1,,9999,0,0,1,FEW 25,1,1,-1,8,1027,RJOO 130000Z 32007KT 9999 FEW025 01/M08 Q1027 RMK 1CU025     A3033=,
20180113_010000.003,0,RJOO,,,,0,20180113010000,-1,-1,-1,-1,330,-1,5,-1,-1,300,360,,9999,0,0,1,FEW 25,1,3,-1,8,1027,RJOO 130100Z 33005KT 300V360 9999 FEW025 03/M08 Q1027 RMK     1CU025 A3034=,
20180113_020000.002,0,RJOO,,,,0,20180113020000,-1,-1,-1,-1,999,-1,5,-1,-1,-1,-1,,9999,0,0,1,FEW 25,1,5,-1,8,1026,RJOO 130200Z VRB05KT 9999 FEW025 05/M08 Q1026 RMK 1CU025     A3031=,
20180113_030000.002,0,RJOO,,,,0,20180113030000,-1,-1,-1,-1,250,-1,6,-1,-1,190,320,,9999,0,0,2,FEW 25   SCT 40,1,5,-1,8,1025,RJOO 130300Z 25006KT 190V320 9999 FEW025 SCT040 05/M08 Q1025     RMK 1CU025 3CU040 A3029=,
20180113_040000.002,0,RJOO,,,,0,20180113040000,-1,-1,-1,-1,999,-1,4,-1,-1,-1,-1,,9999,0,0,2,FEW 30   SCT 40,1,6,-1,8,1025,RJOO 130400Z VRB04KT 9999 FEW030 SCT040 06/M08 Q1025 RMK     1CU030 3CU040 A3027=,
20180113_050000.002,0,RJOO,,,,0,20180113050000,-1,-1,-1,-1,999,-1,6,-1,-1,-1,-1,,9999,0,0,2,FEW 30   SCT 45,1,5,-1,7,1024,RJOO 130500Z VRB06KT 9999 FEW030 SCT045 05/M07 Q1024 RMK     1CU030 3CU045 A3026=,
20180113_060000.002,0,RJOO,,,,0,20180113060000,-1,-1,-1,-1,260,-1,6,-1,-1,220,330,,9999,0,1,2,FEW 30   BKN 50,1,7,-1,8,1024,RJOO 130600Z 26006KT 220V330 9999 VCSH FEW030 BKN050 07/M08     Q1024 RMK 1CU030 5SC050 A3026=,VC SH
20180113_070000.002,0,RJOO,,,,0,20180113070000,-1,-1,-1,-1,270,-1,8,-1,-1,230,330,,9999,0,1,3,FEW 25   BKN 50   BKN 60,1,6,-1,8,1025,RJOO 130700Z 27008KT 230V330 9999 VCSH FEW025 BKN050 BKN060     06/M08 Q1025 RMK 1CU025 5SC050 6SC060 A3027=,VC SH
20180113_080000.002,0,RJOO,,,,0,20180113080000,-1,-1,-1,-1,290,-1,7,-1,-1,250,320,,9999,0,1,2,FEW 25   SCT 60,1,5,-1,7,1025,RJOO 130800Z 29007KT 250V320 9999 VCSH FEW025 SCT060 05/M07     Q1025 RMK 1CU025 3SC060 A3028=,VC SH
20180113_090000.002,0,RJOO,,,,0,20180113090000,-1,-1,-1,-1,260,-1,6,-1,-1,-1,-1,,9999,0,0,2,FEW 25   SCT 60,1,4,-1,6,1026,RJOO 130900Z 26006KT 9999 FEW025 SCT060 04/M06 Q1026 RMK     1CU025 3SC060 A3031=,
20180113_100000.002,0,RJOO,,,,0,20180113100000,-1,-1,-1,-1,290,-1,3,-1,-1,240,320,,9999,0,0,2,FEW 25   SCT 60,1,4,-1,6,1026,RJOO 131000Z 29003KT 240V320 9999 FEW025 SCT060 04/M06 Q1026     RMK 2CU025 3SC060 A3032=,
20180113_110000.002,0,RJOO,,,,0,20180113110000,-1,-1,-1,-1,290,-1,4,-1,-1,260,320,,9999,0,0,1,FEW 25,1,3,-1,6,1027,RJOO 131100Z 29004KT 260V320 9999 FEW025 03/M06 Q1027 RMK     1CU025 A3034=,
20180113_200000.003,0,RJOO,,,,0,20180113200000,-1,-1,-1,-1,999,-1,1,-1,-1,-1,-1,,9999,0,0,1,FEW 9,-1,2,-1,5,1029,RJOO 132000Z VRB01KT 9999 FEW009 M02/M05 Q1029 RMK 1ST009     A3041=,
20180113_210000.002,0,RJOO,,,,0,20180113210000,-1,-1,-1,-1,0,-1,0,-1,-1,-1,-1,,9999,0,0,1,FEW 6,-1,2,-1,4,1030,RJOO 132100Z 00000KT 9999 FEW006 M02/M04 Q1030 RMK 1ST006     A3043=,
20180113_220000.002,0,RJOO,,,,0,20180113220000,-1,-1,-1,-1,999,-1,2,-1,-1,-1,-1,,9999,0,0,1,FEW 6,-1,3,-1,5,1031,RJOO 132200Z VRB02KT 9999 FEW006 M03/M05 Q1031 RMK 1ST006     A3044=,
20180113_230000.002,0,RJOO,,,,0,20180113230000,-1,-1,-1,-1,999,-1,1,-1,-1,-1,-1,,9999,0,0,2,FEW 9   SCT 50,-1,1,-1,4,1031,RJOO 132300Z VRB01KT 9999 FEW009 SCT050 M01/M04 Q1031 RMK     1ST009 3SC050 A3045=,
20180114_000000.003,0,RJOO,,,,0,20180114000000,-1,-1,-1,-1,999,-1,1,-1,-1,-1,-1,,9999,0,0,2,FEW 20   SCT 50,1,3,-1,4,1031,RJOO 140000Z VRB01KT 9999 FEW020 SCT050 03/M04 Q1031 RMK     1CU020 4SC050 A3046=,
20180114_010000.002,0,RJOO,,,,0,20180114010000,-1,-1,-1,-1,240,-1,4,-1,-1,200,270,,9999,0,0,2,FEW 20   BKN 50,1,5,-1,5,1032,RJOO 140100Z 24004KT 200V270 9999 FEW020 BKN050 05/M05 Q1032     RMK 1CU020 5SC050 A3049=,
20180114_020000.002,0,RJOO,,,,0,20180114020000,-1,-1,-1,-1,300,-1,3,-1,-1,220,10,,9999,0,0,2,FEW 20   BKN 50,1,6,-1,7,1032,RJOO 140200Z 30003KT 220V010 9999 FEW020 BKN050 06/M07 Q1032     RMK 1CU020 5SC050 A3049=,
20180114_030000.002,0,RJOO,,,,0,20180114030000,-1,-1,-1,-1,999,-1,1,-1,-1,-1,-1,,9999,0,0,2,FEW 20   BKN 50,1,6,-1,6,1031,RJOO 140300Z VRB01KT 9999 FEW020 BKN050 06/M06 Q1031 RMK     1CU020 6SC050 A3045=,
20180114_040000.002,0,RJOO,,,,0,20180114040000,-1,-1,-1,-1,999,-1,3,-1,-1,-1,-1,,9999,0,0,2,FEW 20   BKN 50,1,6,-1,7,1030,RJOO 140400Z VRB03KT 9999 FEW020 BKN050 06/M07 Q1030 RMK     1CU020 6SC050 A3044=,
20180114_050000.002,0,RJOO,,,,0,20180114050000,-1,-1,-1,-1,50,-1,3,-1,-1,350,120,,9999,0,0,2,FEW 25   BKN 50,1,6,-1,7,1030,RJOO 140500Z 05003KT 350V120 9999 FEW025 BKN050 06/M07 Q1030     RMK 1CU025 6SC050 A3042=,
20180114_060000.003,0,RJOO,,,,0,20180114060000,-1,-1,-1,-1,50,-1,5,-1,-1,20,110,,9999,0,0,2,FEW 25   BKN 50,1,6,-1,6,1029,RJOO 140600Z 05005KT 020V110 9999 FEW025 BKN050 06/M06 Q1029     RMK 1CU025 6SC050 A3041=,
20180114_070000.002,0,RJOO,,,,0,20180114070000,-1,-1,-1,-1,70,-1,6,-1,-1,-1,-1,,9999,0,0,2,FEW 25   BKN 50,1,5,-1,5,1029,RJOO 140700Z 07006KT 9999 FEW025 BKN050 05/M05 Q1029 RMK     1CU025 6SC050 A3041=,
20180114_080000.002,0,RJOO,,,,0,20180114080000,-1,-1,-1,-1,999,-1,2,-1,-1,-1,-1,,9999,0,0,3,FEW 25   SCT 45   BKN -9999,1,5,-1,5,1029,RJOO 140800Z VRB02KT 9999 FEW025 SCT045 BKN/// 05/M05 Q1029     RMK 1CU025 4CU045 A3040=,
20180114_090000.002,0,RJOO,,,,0,20180114090000,-1,-1,-1,-1,70,-1,3,-1,-1,40,130,,9999,0,0,3,FEW 25   SCT 40   BKN -9999,1,4,-1,5,1029,RJOO 140900Z 07003KT 040V130 9999 FEW025 SCT040 BKN/// 04/M05     Q1029 RMK 1CU025 3CU040 A3041=,
20180114_100000.002,0,RJOO,,,,0,20180114100000,-1,-1,-1,-1,999,-1,1,-1,-1,-1,-1,,9999,0,0,2,FEW 30   BKN -9999,1,3,-1,4,1030,RJOO 141000Z VRB01KT 9999 FEW030 BKN/// 03/M04 Q1030 RMK     1CU030 A3042=,
20180114_110000.002,0,RJOO,,,,0,20180114110000,-1,-1,-1,-1,999,-1,1,-1,-1,-1,-1,,9999,0,0,2,FEW 30   BKN -9999,1,2,-1,4,1030,RJOO 141100Z VRB01KT 9999 FEW030 BKN/// 02/M04 Q1030 RMK     1CU030 A3042=,
20180114_200000.003,0,RJOO,,,,0,20180114200000,-1,-1,-1,-1,310,-1,3,-1,-1,-1,-1,,9999,0,0,2,FEW 35   SCT 150,-1,2,-1,5,1028,RJOO 142000Z 31003KT 9999 FEW035 SCT150 M02/M05 Q1028 RMK     1CU035 3AC150 A3038=,
20180114_210000.002,0,RJOO,,,,0,20180114210000,-1,-1,-1,-1,330,-1,4,-1,-1,-1,-1,,9999,0,0,2,FEW 30   SCT 40,-1,2,-1,5,1028,RJOO 142100Z 33004KT 9999 FEW030 SCT040 M02/M05 Q1028 RMK     1CU030 3CU040 A3037=,
20180114_220000.002,0,RJOO,,,,0,20180114220000,-1,-1,-1,-1,300,-1,3,-1,-1,-1,-1,,9999,0,0,2,FEW 35   SCT 140,-1,2,-1,5,1028,RJOO 142200Z 30003KT 9999 FEW035 SCT140 M02/M05 Q1028 RMK     1CU035 3AC140 A3037=,
20180114_230000.002,0,RJOO,,,,0,20180114230000,-1,-1,-1,-1,310,-1,4,-1,-1,-1,-1,,9999,0,0,2,FEW 30   SCT 140,-1,0,-1,5,1028,RJOO 142300Z 31004KT 9999 FEW030 SCT140 M00/M05 Q1028 RMK     1CU030 3AC140 A3038=,
20180115_000000.002,0,RJOO,,,,0,20180115000000,-1,-1,-1,-1,999,-1,1,-1,-1,-1,-1,,9999,0,0,3,FEW 20   SCT 40   BKN -9999,1,2,-1,4,1028,RJOO 150000Z VRB01KT 9999 FEW020 SCT040 BKN/// 02/M04 Q1028     RMK 1CU020 3CU040 A3038=,
20180115_010000.002,0,RJOO,,,,0,20180115010000,-1,-1,-1,-1,999,-1,2,-1,-1,-1,-1,,9999,0,0,2,FEW 25   BKN -9999,1,4,-1,4,1028,RJOO 150100Z VRB02KT 9999 FEW025 BKN/// 04/M04 Q1028 RMK     1CU025 A3037=,
20180115_020000.002,0,RJOO,,,,0,20180115020000,-1,-1,-1,-1,999,-1,2,-1,-1,-1,-1,,9999,0,0,2,FEW 25   BKN -9999,1,6,-1,4,1027,RJOO 150200Z VRB02KT 9999 FEW025 BKN/// 06/M04 Q1027 RMK     2CU025 A3035=,
20180115_030000.002,0,RJOO,,,,0,20180115030000,-1,-1,-1,-1,999,-1,2,-1,-1,-1,-1,,9999,0,0,3,FEW 20   BKN 30   BKN -9999,1,7,-1,3,1026,RJOO 150300Z VRB02KT 9999 FEW020 BKN030 BKN/// 07/M03 Q1026     RMK 1CU020 5CU030 A3031=,
20180115_040000.002,0,RJOO,,,,0,20180115040000,-1,-1,-1,-1,240,-1,8,-1,-1,210,290,,9999,0,0,1,FEW 30,1,10,-1,0,1024,RJOO 150400Z 24008KT 210V290 9999 FEW030 10/M00 Q1024 RMK     1CU030 A3025 P/FR=,
20180115_050000.002,0,RJOO,,,,0,20180115050000,-1,-1,-1,-1,230,-1,8,-1,-1,180,260,,9999,0,0,1,FEW 30,1,11,1,0,1023,RJOO 150500Z 23008KT 180V260 9999 FEW030 11/00 Q1023 RMK     1CU030 A3022=,
20180115_060000.002,0,RJOO,,,,0,20180115060000,-1,-1,-1,-1,230,-1,9,-1,-1,190,260,,9999,0,0,1,FEW 30,1,11,1,1,1023,RJOO 150600Z 23009KT 190V260 9999 FEW030 11/01 Q1023 RMK     1CU030 A3021=,
20180115_070000.003,0,RJOO,,,,0,20180115070000,-1,-1,-1,-1,230,-1,7,-1,-1,190,270,,9999,0,0,2,FEW 30   SCT 60,1,11,1,1,1023,RJOO 150700Z 23007KT 190V270 9999 FEW030 SCT060 11/01 Q1023     RMK 1CU030 4SC060 A3023=,
20180115_080000.002,0,RJOO,,,,0,20180115080000,-1,-1,-1,-1,230,-1,5,-1,-1,-1,-1,,9999,0,0,2,FEW 30   BKN 60,1,10,1,2,1024,RJOO 150800Z 23005KT 9999 FEW030 BKN060 10/02 Q1024 RMK 1CU030     5SC060 A3024=,
20180115_090000.002,0,RJOO,,,,0,20180115090000,-1,-1,-1,-1,999,-1,2,-1,-1,-1,-1,,9999,0,0,3,FEW 30   SCT 50   BKN 70,1,9,1,1,1024,RJOO 150900Z VRB02KT 9999 FEW030 SCT050 BKN070 09/01 Q1024 RMK     1CU030 3SC050 5AC070 A3026=,
20180115_100000.002,0,RJOO,,,,0,20180115100000,-1,-1,-1,-1,999,-1,2,-1,-1,-1,-1,,9999,0,0,2,FEW 30   SCT 50,1,6,-1,0,1025,RJOO 151000Z VRB02KT 9999 FEW030 SCT050 06/M00 Q1025 RMK     1CU030 3SC050 A3027=,
20180115_110000.002,0,RJOO,,,,0,20180115110000,-1,-1,-1,-1,999,-1,1,-1,-1,-1,-1,CAVOK,-1,0,0,0,,1,7,1,0,1024,RJOO 151100Z VRB01KT CAVOK 07/00 Q1024 RMK A3026=,
20180115_200000.002,0,RJOO,,,,0,20180115200000,-1,-1,-1,-1,999,-1,1,-1,-1,-1,-1,,9999,0,0,2,FEW 35   SCT -9999,1,1,-1,1,1022,RJOO 152000Z VRB01KT 9999 FEW035 SCT/// 01/M01 Q1022 RMK     1CU035 A3021=,
20180115_210000.002,0,RJOO,,,,0,20180115210000,-1,-1,-1,-1,320,-1,4,-1,-1,-1,-1,,9999,0,0,2,FEW 35   SCT -9999,1,1,-1,1,1023,RJOO 152100Z 32004KT 9999 FEW035 SCT/// 01/M01 Q1023 RMK     1CU035 A3022=,
20180115_220000.002,0,RJOO,,,,0,20180115220000,-1,-1,-1,-1,310,-1,5,-1,-1,-1,-1,,9999,0,0,2,FEW 30   SCT -9999,1,1,-1,1,1024,RJOO 152200Z 31005KT 9999 FEW030 SCT/// 01/M01 Q1024 RMK     1CU030 A3025=,
20180115_230000.002,0,RJOO,,,,0,20180115230000,-1,-1,-1,-1,300,-1,1,-1,-1,-1,-1,,9999,0,0,3,FEW 30   SCT 50   BKN -9999,1,2,-1,0,1024,RJOO 152300Z 30001KT 9999 FEW030 SCT050 BKN/// 02/M00 Q1024     RMK 1CU030 3SC050 A3025=,
20180116_000000.002,0,RJOO,,,,0,20180116000000,-1,-1,-1,-1,999,-1,1,-1,-1,-1,-1,,8000,0,0,3,FEW 30   BKN 50   BKN -9999,1,5,1,1,1024,RJOO 160000Z VRB01KT 8000 FEW030 BKN050 BKN/// 05/01 Q1024 RMK     1CU030 5SC050 A3026=,
20180116_010000.002,0,RJOO,,,,0,20180116010000,-1,-1,-1,-1,999,-1,1,-1,-1,-1,-1,,8000,0,0,2,FEW 30   BKN 60,1,7,1,2,1024,RJOO 160100Z VRB01KT 8000 FEW030 BKN060 07/02 Q1024 RMK 1CU030     5SC060 A3026=,
20180116_020000.002,0,RJOO,,,,0,20180116020000,-1,-1,-1,-1,70,-1,4,-1,-1,10,110,,8000,0,0,2,FEW 30   BKN 60,1,9,1,2,1023,RJOO 160200Z 07004KT 010V110 8000 FEW030 BKN060 09/02 Q1023     RMK 1CU030 5SC060 A3023=,
20180116_030000.002,0,RJOO,,,,0,20180116030000,-1,-1,-1,-1,999,-1,2,-1,-1,-1,-1,,8000,0,0,2,FEW 30   BKN 60,1,11,1,2,1022,RJOO 160300Z VRB02KT 8000 FEW030 BKN060 11/02 Q1022 RMK 1CU030     5SC060 A3018=,
20180116_040000.002,0,RJOO,,,,0,20180116040000,-1,-1,-1,-1,999,-1,2,-1,-1,-1,-1,,9999,0,0,2,FEW 30   BKN 60,1,14,1,3,1020,RJOO 160400Z VRB02KT 9999 FEW030 BKN060 14/03 Q1020 RMK 1CU030     5SC060 A3015=,
20180116_050000.002,0,RJOO,,,,0,20180116050000,-1,-1,-1,-1,999,-1,3,-1,-1,-1,-1,,9999,0,0,2,FEW 30   SCT -9999,1,14,1,3,1019,RJOO 160500Z VRB03KT 9999 FEW030 SCT/// 14/03 Q1019 RMK 1CU030     A3010=,
20180116_060000.002,0,RJOO,,,,0,20180116060000,-1,-1,-1,-1,999,-1,1,-1,-1,-1,-1,,9999,0,0,2,FEW 30   BKN 60,1,14,1,2,1018,RJOO 160600Z VRB01KT 9999 FEW030 BKN060 14/02 Q1018 RMK 1CU030     5SC060 A3009=,
20180116_070000.002,0,RJOO,,,,0,20180116070000,-1,-1,-1,-1,0,-1,0,-1,-1,-1,-1,,9999,0,0,2,FEW 30   BKN 60,1,14,1,2,1018,RJOO 160700Z 00000KT 9999 FEW030 BKN060 14/02 Q1018 RMK 1CU030     5SC060 A3007=,
20180116_080000.002,0,RJOO,,,,0,20180116080000,-1,-1,-1,-1,999,-1,2,-1,-1,-1,-1,,9999,0,0,1,FEW 30,1,13,1,2,1018,RJOO 160800Z VRB02KT 9999 FEW030 13/02 Q1018 RMK 1CU030 A3006=,
20180116_090000.002,0,RJOO,,,,0,20180116090000,-1,-1,-1,-1,999,-1,2,-1,-1,-1,-1,,9999,0,0,1,FEW 30,1,12,1,2,1017,RJOO 160900Z VRB02KT 9999 FEW030 12/02 Q1017 RMK 1CU030 A3005=,
20180116_100000.002,0,RJOO,,,,0,20180116100000,-1,-1,-1,-1,200,-1,3,-1,-1,-1,-1,,9999,0,0,1,FEW 30,1,11,1,4,1017,RJOO 161000Z 20003KT 9999 FEW030 11/04 Q1017 RMK 1CU030 A3004=,
20180116_110000.004,0,RJOO,,,,0,20180116110000,-1,-1,-1,-1,999,-1,1,-1,-1,-1,-1,,9999,0,0,1,BKN 30,1,11,1,4,1017,RJOO 161100Z VRB01KT 9999 BKN030 11/04 Q1017 RMK 6CU030 A3004=,
20180116_200000.002,0,RJOO,,,,0,20180116200000,-1,-1,-1,-1,999,-1,1,-1,-1,-1,-1,,4000,0,2,3,FEW 8   BKN 30   BKN 50,1,9,1,9,1014,RJOO 162000Z VRB01KT 4000 SHRA BR FEW008 BKN030 BKN050 09/09     Q1014 RMK 1ST008 5CU030 7SC050 A2995=,RA SH; BR
20180116_210000.002,0,RJOO,,,,0,20180116210000,-1,-1,-1,-1,100,-1,5,-1,-1,-1,-1,,4000,0,2,3,FEW 8   BKN 30   BKN 50,1,10,1,9,1013,RJOO 162100Z 10005KT 4000 SHRA BR FEW008 BKN030 BKN050 10/09     Q1013 RMK 1ST008 5CU030 7SC050 A2994=,RA SH; BR
20180116_220000.002,0,RJOO,,,,0,20180116220000,-1,-1,-1,-1,100,-1,5,-1,-1,70,130,,6000,0,2,3,FEW 8   SCT 15   BKN 30,1,10,1,9,1013,RJOO 162200Z 10005KT 070V130 6000 -SHRA BR FEW008 SCT015     BKN030 10/09 Q1013 RMK 1ST008 3CU015 5CU030 A2993=,- RA SH; BR
20180116_230000.002,0,RJOO,,,,0,20180116230000,-1,-1,-1,-1,80,-1,4,-1,-1,20,120,,6000,0,2,2,FEW 8   BKN 15,1,10,1,9,1013,RJOO 162300Z 08004KT 020V120 6000 -SHRA BR FEW008 BKN015 10/09     Q1013 RMK 1ST008 5CU015 A2992=,- RA SH; BR
20180117_000000.002,0,RJOO,,,,0,20180117000000,-1,-1,-1,-1,60,-1,3,-1,-1,20,90,,6000,0,2,3,FEW 5   SCT 10   BKN 15,1,10,1,9,1013,RJOO 170000Z 06003KT 020V090 6000 -SHRA BR FEW005 SCT010     BKN015 10/09 Q1013 RMK 1ST005 3ST010 6CU015 A2992=,- RA SH; BR
20180117_010000.002,0,RJOO,,,,0,20180117010000,-1,-1,-1,-1,70,-1,5,-1,-1,40,100,,6000,0,2,3,FEW 5   SCT 10   BKN 15,1,11,1,9,1012,RJOO 170100Z 07005KT 040V100 6000 -SHRA BR FEW005 SCT010     BKN015 11/09 Q1012 RMK 1ST005 3ST010 6CU015 A2991=,- RA SH; BR
20180117_020000.004,0,RJOO,,,,0,20180117020000,-1,-1,-1,-1,100,-1,5,-1,-1,50,190,,6000,0,2,3,FEW 5   SCT 8   BKN 13,1,11,1,10,1011,RJOO 170200Z 10005KT 050V190 6000 -SHRA BR FEW005 SCT008     BKN013 11/10 Q1011 RMK 1ST005 3ST008 6CU013 A2986=,- RA SH; BR
20180117_030000.002,0,RJOO,,,,0,20180117030000,-1,-1,-1,-1,330,-1,5,-1,-1,-1,-1,,5000,0,2,3,FEW 5   BKN 10   BKN 13,1,11,1,11,1010,RJOO 170300Z 33005KT 5000 -SHRA BR FEW005 BKN010 BKN013 11/11     Q1010 RMK 1ST005 5ST010 6CU013 A2982 P/FR=,- RA SH; BR
20180117_040000.003,0,RJOO,,,,0,20180117040000,-1,-1,-1,-1,40,-1,4,-1,-1,10,80,,9999,0,1,3,FEW 5   SCT 10   BKN 15,1,12,1,11,1008,RJOO 170400Z 04004KT 010V080 9999 -SHRA FEW005 SCT010 BKN015     12/11 Q1008 RMK 1ST005 4ST010 6CU015 A2979=,- RA SH
20180117_050000.003,0,RJOO,,,,0,20180117050000,-1,-1,-1,-1,999,-1,2,-1,-1,-1,-1,,9999,0,1,3,FEW 5   BKN 10   BKN 13,1,13,1,11,1008,RJOO 170500Z VRB02KT 9999 -SHRA FEW005 BKN010 BKN013 13/11     Q1008 RMK 1ST005 5ST010 6CU013 A2977=,- RA SH
20180117_060000.002,0,RJOO,,,,0,20180117060000,-1,-1,-1,-1,999,-1,1,-1,-1,-1,-1,,8000,0,1,3,FEW 5   SCT 8   BKN 10,1,13,1,12,1008,RJOO 170600Z VRB01KT 8000 -SHRA FEW005 SCT008 BKN010 13/12     Q1008 RMK 1ST005 4ST008 6CU010 A2978=,- RA SH
20180117_070000.002,0,RJOO,,,,0,20180117070000,-1,-1,-1,-1,220,-1,7,-1,-1,170,250,,4500,0,2,3,FEW 3   SCT 6   BKN 8,1,14,1,13,1008,RJOO 170700Z 22007KT 170V250 4500 -SHRA BR FEW003 SCT006     BKN008 14/13 Q1008 RMK 1ST003 4ST006 6ST008 A2978=,- RA SH; BR
20180117_080000.002,0,RJOO,,,,0,20180117080000,-1,-1,-1,-1,250,-1,5,-1,-1,190,300,,8000,0,1,3,FEW 2   SCT 4   BKN 7,1,13,1,13,1008,RJOO 170800Z 25005KT 190V300 8000 -SHRA FEW002 SCT004 BKN007     13/13 Q1008 RMK 1ST002 4ST004 6ST007 A2979=,- RA SH
20180117_090000.003,0,RJOO,,,,0,20180117090000,-1,-1,-1,-1,230,-1,4,-1,-1,170,270,,8000,0,0,3,FEW 3   SCT 5   BKN 20,1,14,1,13,1009,RJOO 170900Z 23004KT 170V270 8000 FEW003 SCT005 BKN020 14/13     Q1009 RMK 1ST003 3ST005 5CU020 A2980 MOD TURB OBS AT           0835Z KAZRA 16000FT DH8D=,
20180117_100000.002,0,RJOO,,,,0,20180117100000,-1,-1,-1,-1,310,-1,5,-1,-1,-1,-1,,9999,0,0,3,FEW 8   SCT 20   BKN 30,1,13,1,11,1009,RJOO 171000Z 31005KT 9999 FEW008 SCT020 BKN030 13/11 Q1009 RMK     1ST008 3CU020 5CU030 A2980 MOD TURB OBS AT 0932Z KAINA           BTN 18000FT AND 14000FT B772=,
20180117_110000.003,0,RJOO,,,,0,20180117110000,-1,-1,-1,-1,260,-1,6,-1,-1,240,320,,9999,0,0,3,FEW 8   SCT 20   BKN 30,1,12,1,10,1010,RJOO 171100Z 26006KT 240V320 9999 FEW008 SCT020 BKN030 12/10     Q1010 RMK 1ST008 3CU020 5CU030 A2985=,
20180117_200000.002,0,RJOO,,,,0,20180117200000,-1,-1,-1,-1,999,-1,1,-1,-1,-1,-1,,9999,0,0,2,FEW 20   BKN 50,1,7,1,6,1016,RJOO 172000Z VRB01KT 9999 FEW020 BKN050 07/06 Q1016 RMK 1CU020     5SC050 A3002=,
20180117_210000.002,0,RJOO,,,,0,20180117210000,-1,-1,-1,-1,310,-1,5,-1,-1,-1,-1,,9999,0,0,1,FEW 20,1,7,1,6,1017,RJOO 172100Z 31005KT 9999 FEW020 07/06 Q1017 RMK 1CU020 A3004=,
20180117_220000.003,0,RJOO,,,,0,20180117220000,-1,-1,-1,-1,310,-1,5,-1,-1,-1,-1,,9999,0,0,1,FEW 5,1,7,1,5,1017,RJOO 172200Z 31005KT 9999 FEW005 07/05 Q1017 RMK 1ST005 A3005=,
20180117_230000.002,0,RJOO,,,,0,20180117230000,-1,-1,-1,-1,320,-1,5,-1,-1,-1,-1,,9999,0,0,1,FEW 3,1,7,1,5,1017,RJOO 172300Z 32005KT 9999 FEW003 07/05 Q1017 RMK 1ST003 A3005=,
20180118_000000.002,0,RJOO,,,,0,20180118000000,-1,-1,-1,-1,320,-1,3,-1,-1,290,350,,9999,0,0,2,FEW 3   SCT 50,1,9,1,6,1018,RJOO 180000Z 32003KT 290V350 9999 FEW003 SCT050 09/06 Q1018     RMK 1ST003 3SC050 A3007=,
20180118_010000.002,0,RJOO,,,,0,20180118010000,-1,-1,-1,-1,200,-1,3,-1,-1,150,260,,9999,0,0,2,FEW 30   BKN 50,1,11,1,7,1019,RJOO 180100Z 20003KT 150V260 9999 FEW030 BKN050 11/07 Q1019     RMK 1CU030 5SC050 A3011=,
20180118_020000.002,0,RJOO,,,,0,20180118020000,-1,-1,-1,-1,230,-1,5,-1,-1,180,280,,9999,0,0,3,FEW 15   SCT 30   BKN 50,1,11,1,6,1018,RJOO 180200Z 23005KT 180V280 9999 FEW015 SCT030 BKN050 11/06     Q1018 RMK 1CU015 3CU030 5SC050 A3009=,
20180118_030000.003,0,RJOO,,,,0,20180118030000,-1,-1,-1,-1,999,-1,6,-1,-1,-1,-1,,9999,0,0,2,FEW 30   SCT 50,1,13,1,5,1018,RJOO 180300Z VRB06KT 9999 FEW030 SCT050 13/05 Q1018 RMK 1CU030     4SC050 A3007=,
20180118_040000.002,0,RJOO,,,,0,20180118040000,-1,-1,-1,-1,230,-1,8,-1,-1,180,270,,9999,0,0,3,FEW 20   SCT 60   BKN -9999,1,13,1,4,1017,RJOO 180400Z 23008KT 180V270 9999 FEW020 SCT060 BKN/// 13/04     Q1017 RMK 1CU020 4SC060 A3005=,
20180118_050000.002,0,RJOO,,,,0,20180118050000,-1,-1,-1,-1,230,-1,7,-1,-1,190,260,,9999,0,0,2,FEW 20   SCT 60,1,14,1,3,1017,RJOO 180500Z 23007KT 190V260 9999 FEW020 SCT060 14/03 Q1017     RMK 1CU020 4SC060 A3005=,
20180118_060000.002,0,RJOO,,,,0,20180118060000,-1,-1,-1,-1,230,-1,8,-1,-1,200,270,,9999,0,0,2,FEW 20   SCT 50,1,13,1,3,1017,RJOO 180600Z 23008KT 200V270 9999 FEW020 SCT050 13/03 Q1017     RMK 2CU020 4SC050 A3004=,
20180118_070000.002,0,RJOO,,,,0,20180118070000,-1,-1,-1,-1,240,-1,7,-1,-1,-1,-1,,9999,0,0,2,FEW 20   SCT 50,1,12,1,3,1017,RJOO 180700Z 24007KT 9999 FEW020 SCT050 12/03 Q1017 RMK 1CU020     3SC050 A3005=,
20180118_080000.002,0,RJOO,,,,0,20180118080000,-1,-1,-1,-1,240,-1,4,-1,-1,210,280,,9999,0,0,3,FEW 20   SCT 40   BKN -9999,1,12,1,4,1018,RJOO 180800Z 24004KT 210V280 9999 FEW020 SCT040 BKN/// 12/04     Q1018 RMK 1CU020 3SC040 A3007=,
20180118_090000.002,0,RJOO,,,,0,20180118090000,-1,-1,-1,-1,310,-1,3,-1,-1,250,20,,9999,0,0,3,FEW 20   SCT 30   BKN 40,1,12,1,4,1019,RJOO 180900Z 31003KT 250V020 9999 FEW020 SCT030 BKN040 12/04     Q1019 RMK 1CU020 3CU030 5SC040 A3010=,
20180118_100000.002,0,RJOO,,,,0,20180118100000,-1,-1,-1,-1,350,-1,4,-1,-1,-1,-1,,9999,0,0,2,FEW 20   BKN 50,1,11,1,3,1019,RJOO 181000Z 35004KT 9999 FEW020 BKN050 11/03 Q1019 RMK 1CU020     5SC050 A3011=,
20180118_110000.002,0,RJOO,,,,0,20180118110000,-1,-1,-1,-1,999,-1,3,-1,-1,-1,-1,,9999,0,0,2,FEW 20   SCT 50,1,10,1,3,1019,RJOO 181100Z VRB03KT 9999 FEW020 SCT050 10/03 Q1019 RMK 1CU020     4SC050 A3011=,
20180118_200000.002,0,RJOO,,,,0,20180118200000,-1,-1,-1,-1,300,-1,4,-1,-1,-1,-1,,9999,0,0,2,FEW 20   BKN 50,1,6,1,2,1020,RJOO 182000Z 30004KT 9999 FEW020 BKN050 06/02 Q1020 RMK 1CU020     6SC050 A3014=,
20180118_210000.003,0,RJOO,,,,0,20180118210000,-1,-1,-1,-1,320,-1,5,-1,-1,-1,-1,,9999,0,0,2,FEW 20   BKN 50,1,5,1,2,1020,RJOO 182100Z 32005KT 9999 FEW020 BKN050 05/02 Q1020 RMK 1CU020     5SC050 A3014=,
20180118_220000.002,0,RJOO,,,,0,20180118220000,-1,-1,-1,-1,290,-1,4,-1,-1,-1,-1,,9999,0,0,2,FEW 20   BKN 50,1,6,1,2,1021,RJOO 182200Z 29004KT 9999 FEW020 BKN050 06/02 Q1021 RMK 1CU020     5SC050 A3016=,
20180118_230000.003,0,RJOO,,,,0,20180118230000,-1,-1,-1,-1,310,-1,4,-1,-1,-1,-1,,9000,0,0,2,FEW 20   BKN 50,1,6,1,2,1021,RJOO 182300Z 31004KT 9000 FEW020 BKN050 06/02 Q1021 RMK 1CU020     5SC050 A3017=,
20180119_000000.002,0,RJOO,,,,0,20180119000000,-1,-1,-1,-1,300,-1,3,-1,-1,260,330,,9999,0,0,2,FEW 20   BKN 50,1,7,1,2,1022,RJOO 190000Z 30003KT 260V330 9999 FEW020 BKN050 07/02 Q1022     RMK 1CU020 5SC050 A3018=,
20180119_010000.003,0,RJOO,,,,0,20180119010000,-1,-1,-1,-1,320,-1,6,-1,-1,-1,-1,,9999,0,0,2,FEW 20   BKN 50,1,10,1,1,1021,RJOO 190100Z 32006KT 9999 FEW020 BKN050 10/01 Q1021 RMK 1CU020     5SC050 A3017=,
20180119_020000.002,0,RJOO,,,,0,20180119020000,-1,-1,-1,-1,10,-1,8,-1,-1,350,50,,9999,0,0,2,FEW 20   SCT 50,1,10,-1,2,1021,RJOO 190200Z 01008KT 350V050 9999 FEW020 SCT050 10/M02 Q1021     RMK 1CU020 4SC050 A3018=,
20180119_030000.002,0,RJOO,,,,0,20180119030000,-1,-1,-1,-1,350,-1,6,-1,-1,320,50,,9999,0,0,2,FEW 30   SCT 50,1,11,-1,2,1020,RJOO 190300Z 35006KT 320V050 9999 FEW030 SCT050 11/M02 Q1020     RMK 1CU030 3SC050 A3014=,
20180119_040000.002,0,RJOO,,,,0,20180119040000,-1,-1,-1,-1,360,-1,7,-1,-1,300,40,,9999,0,0,2,FEW 30   SCT 50,1,12,-1,3,1019,RJOO 190400Z 36007KT 300V040 9999 FEW030 SCT050 12/M03 Q1019     RMK 1CU030 3SC050 A3011=,
20180119_050000.003,0,RJOO,,,,0,20180119050000,-1,-1,-1,-1,70,-1,6,-1,-1,30,180,,9999,0,0,1,FEW 30,1,12,-1,2,1018,RJOO 190500Z 07006KT 030V180 9999 FEW030 12/M02 Q1018 RMK     1CU030 A3008=,
20180119_060000.002,0,RJOO,,,,0,20180119060000,-1,-1,-1,-1,999,-1,2,-1,-1,-1,-1,,9999,0,0,2,FEW 30   SCT 45,1,11,-1,3,1017,RJOO 190600Z VRB02KT 9999 FEW030 SCT045 11/M03 Q1017 RMK     1CU030 3CU045 A3006=,
20180119_070000.002,0,RJOO,,,,0,20180119070000,-1,-1,-1,-1,20,-1,7,-1,-1,-1,-1,,9999,0,0,1,FEW 30,1,10,-1,3,1018,RJOO 190700Z 02007KT 9999 FEW030 10/M03 Q1018 RMK 1CU030     A3007=,
20180119_080000.002,0,RJOO,,,,0,20180119080000,-1,-1,-1,-1,360,-1,9,-1,-1,-1,-1,,9999,0,0,1,FEW 30,1,9,-1,2,1018,RJOO 190800Z 36009KT 9999 FEW030 09/M02 Q1018 RMK 1CU030     A3008=,
20180119_090000.003,0,RJOO,,,,0,20180119090000,-1,-1,-1,-1,350,-1,5,-1,-1,-1,-1,,9999,0,0,1,FEW 30,1,8,-1,2,1018,RJOO 190900Z 35005KT 9999 FEW030 08/M02 Q1018 RMK 1CU030     A3008=,
20180119_100000.002,0,RJOO,,,,0,20180119100000,-1,-1,-1,-1,999,-1,1,-1,-1,-1,-1,,9999,0,0,1,FEW 30,1,7,-1,2,1018,RJOO 191000Z VRB01KT 9999 FEW030 07/M02 Q1018 RMK 1CU030     A3009=,
20180119_110000.002,0,RJOO,,,,0,20180119110000,-1,-1,-1,-1,300,-1,3,-1,-1,-1,-1,,9999,0,0,1,FEW 20,1,6,-1,1,1018,RJOO 191100Z 30003KT 9999 FEW020 06/M01 Q1018 RMK 1CU020     A3008=,
20180119_200000.002,0,RJOO,,,,0,20180119200000,-1,-1,-1,-1,350,-1,1,-1,-1,-1,-1,,9999,0,0,2,FEW 6   SCT 160,1,2,-1,1,1019,RJOO 192000Z 35001KT 9999 FEW006 SCT160 02/M01 Q1019 RMK     1ST006 3AC160 A3009=,
20180119_210000.002,0,RJOO,,,,0,20180119210000,-1,-1,-1,-1,310,-1,4,-1,-1,-1,-1,,9999,0,0,1,FEW 6,1,2,-1,1,1019,RJOO 192100Z 31004KT 9999 FEW006 02/M01 Q1019 RMK 1ST006     A3010=,
20180119_220000.002,0,RJOO,,,,0,20180119220000,-1,-1,-1,-1,290,-1,3,-1,-1,260,320,,9999,0,0,1,FEW 9,1,2,-1,1,1019,RJOO 192200Z 29003KT 260V320 9999 FEW009 02/M01 Q1019 RMK     1ST009 A3010=,
20180119_230000.002,0,RJOO,,,,0,20180119230000,-1,-1,-1,-1,999,-1,2,-1,-1,-1,-1,,9999,0,0,1,FEW 10,1,3,-1,1,1019,RJOO 192300Z VRB02KT 9999 FEW010 03/M01 Q1019 RMK 1ST010     A3010=,
20180120_000000.002,0,RJOO,,,,0,20180120000000,-1,-1,-1,-1,999,-1,1,-1,-1,-1,-1,,9999,0,0,1,FEW 20,1,5,-1,1,1019,RJOO 200000Z VRB01KT 9999 FEW020 05/M01 Q1019 RMK 1CU020     A3010=,
20180120_010000.002,0,RJOO,,,,0,20180120010000,-1,-1,-1,-1,999,-1,2,-1,-1,-1,-1,,9999,0,0,1,FEW 25,1,7,-1,1,1019,RJOO 200100Z VRB02KT 9999 FEW025 07/M01 Q1019 RMK 1CU025     A3012=,
20180120_020000.003,0,RJOO,,,,0,20180120020000,-1,-1,-1,-1,230,-1,3,-1,-1,180,270,,9999,0,0,2,FEW 30   BKN -9999,1,9,-1,1,1019,RJOO 200200Z 23003KT 180V270 9999 FEW030 BKN/// 09/M01 Q1019     RMK 1CU030 A3010=,
20180120_030000.002,0,RJOO,,,,0,20180120030000,-1,-1,-1,-1,190,-1,3,-1,-1,140,270,,9999,0,0,3,FEW 35   SCT 60   BKN -9999,1,11,1,0,1018,RJOO 200300Z 19003KT 140V270 9999 FEW035 SCT060 BKN/// 11/00     Q1018 RMK 1CU035 3SC060 A3008=,
20180120_040000.002,0,RJOO,,,,0,20180120040000,-1,-1,-1,-1,240,-1,6,-1,-1,190,310,,9999,0,0,3,FEW 35   SCT 60   BKN -9999,1,11,1,1,1018,RJOO 200400Z 24006KT 190V310 9999 FEW035 SCT060 BKN/// 11/01     Q1018 RMK 1CU035 4SC060 A3008=,
20180120_050000.002,0,RJOO,,,,0,20180120050000,-1,-1,-1,-1,360,-1,8,-1,-1,-1,-1,,9999,0,0,3,FEW 30   SCT 40   BKN 60,1,11,-1,1,1018,RJOO 200500Z 36008KT 9999 FEW030 SCT040 BKN060 11/M01 Q1018     RMK 1CU030 3CU040 5SC060 A3007=,
20180120_060000.002,0,RJOO,,,,0,20180120060000,-1,-1,-1,-1,330,-1,7,-1,-1,-1,-1,,9999,0,0,2,FEW 30   SCT 40,1,11,-1,0,1018,RJOO 200600Z 33007KT 9999 FEW030 SCT040 11/M00 Q1018 RMK     1CU030 3CU040 A3006=,
20180120_070000.002,0,RJOO,,,,0,20180120070000,-1,-1,-1,-1,360,-1,8,-1,-1,-1,-1,,9999,0,0,1,FEW 30,1,11,-1,0,1017,RJOO 200700Z 36008KT 9999 FEW030 11/M00 Q1017 RMK 1CU030     A3005=,
20180120_080000.002,0,RJOO,,,,0,20180120080000,-1,-1,-1,-1,350,-1,8,-1,-1,-1,-1,,9999,0,0,1,FEW 30,1,10,-1,0,1018,RJOO 200800Z 35008KT 9999 FEW030 10/M00 Q1018 RMK 1CU030     A3006=,
20180120_090000.002,0,RJOO,,,,0,20180120090000,-1,-1,-1,-1,320,-1,8,-1,-1,-1,-1,,9999,0,0,2,FEW 30   BKN 50,1,8,-1,0,1019,RJOO 200900Z 32008KT 9999 FEW030 BKN050 08/M00 Q1019 RMK     1CU030 5SC050 A3010=,
20180120_100000.002,0,RJOO,,,,0,20180120100000,-1,-1,-1,-1,10,-1,3,-1,-1,-1,-1,,9999,0,0,3,FEW 30   SCT 45   BKN -9999,1,7,-1,1,1019,RJOO 201000Z 01003KT 9999 FEW030 SCT045 BKN/// 07/M01 Q1019     RMK 1CU030 3CU045 A3012=,
20180120_110000.002,0,RJOO,,,,0,20180120110000,-1,-1,-1,-1,20,-1,5,-1,-1,330,50,,9999,0,0,2,FEW 30   BKN -9999,1,8,-1,1,1020,RJOO 201100Z 02005KT 330V050 9999 FEW030 BKN/// 08/M01 Q1020     RMK 1CU030 A3012=,
20180120_200000.002,0,RJOO,,,,0,20180120200000,-1,-1,-1,-1,999,-1,2,-1,-1,-1,-1,,9999,0,0,1,FEW 30,1,2,-1,1,1019,RJOO 202000Z VRB02KT 9999 FEW030 02/M01 Q1019 RMK 1CU030     A3010=,
20180120_210000.002,0,RJOO,,,,0,20180120210000,-1,-1,-1,-1,310,-1,3,-1,-1,-1,-1,,9999,0,0,1,FEW 30,1,1,-1,1,1019,RJOO 202100Z 31003KT 9999 FEW030 01/M01 Q1019 RMK 1CU030     A3010=,
20180120_220000.002,0,RJOO,,,,0,20180120220000,-1,-1,-1,-1,310,-1,4,-1,-1,-1,-1,,9999,0,0,1,FEW 30,1,2,-1,1,1019,RJOO 202200Z 31004KT 9999 FEW030 02/M01 Q1019 RMK 1CU030     A3011=,
20180120_230000.002,0,RJOO,,,,0,20180120230000,-1,-1,-1,-1,310,-1,5,-1,-1,-1,-1,,9999,0,0,1,FEW 30,1,2,-1,1,1020,RJOO 202300Z 31005KT 9999 FEW030 02/M01 Q1020 RMK 1CU030     A3014=,
20180121_000000.002,0,RJOO,,,,0,20180121000000,-1,-1,-1,-1,999,-1,2,-1,-1,-1,-1,,9999,0,0,2,FEW 20   SCT -9999,1,5,-1,1,1020,RJOO 210000Z VRB02KT 9999 FEW020 SCT/// 05/M01 Q1020 RMK     1CU020 A3015=,
20180121_010000.002,0,RJOO,,,,0,20180121010000,-1,-1,-1,-1,999,-1,2,-1,-1,-1,-1,,9999,0,0,2,FEW 20   SCT -9999,1,7,-1,0,1021,RJOO 210100Z VRB02KT 9999 FEW020 SCT/// 07/M00 Q1021 RMK     1CU020 A3016=,
20180121_020000.002,0,RJOO,,,,0,20180121020000,-1,-1,-1,-1,230,-1,4,-1,-1,170,290,,9999,0,0,2,FEW 30   BKN -9999,1,10,-1,1,1020,RJOO 210200Z 23004KT 170V290 9999 FEW030 BKN/// 10/M01 Q1020     RMK 2CU030 A3012=,
20180121_030000.002,0,RJOO,,,,0,20180121030000,-1,-1,-1,-1,220,-1,5,-1,-1,170,260,,9999,0,0,3,FEW 30   SCT 45   BKN -9999,1,10,-1,1,1019,RJOO 210300Z 22005KT 170V260 9999 FEW030 SCT045 BKN/// 10/M01     Q1019 RMK 1CU030 4CU045 A3010=,
20180121_040000.003,0,RJOO,,,,0,20180121040000,-1,-1,-1,-1,220,-1,7,-1,-1,140,260,,9999,0,0,2,FEW 30   SCT 45,1,10,-1,1,1019,RJOO 210400Z 22007KT 140V260 9999 FEW030 SCT045 10/M01 Q1019     RMK 1CU030 3CU045 A3010=,
20180121_050000.002,0,RJOO,,,,0,20180121050000,-1,-1,-1,-1,240,-1,6,-1,-1,200,300,,9999,0,0,2,FEW 30   SCT 45,1,12,-1,1,1018,RJOO 210500Z 24006KT 200V300 9999 FEW030 SCT045 12/M01 Q1018     RMK 1CU030 3CU045 A3007=,
20180121_060000.002,0,RJOO,,,,0,20180121060000,-1,-1,-1,-1,230,-1,7,-1,-1,190,250,,9999,0,0,2,FEW 30   BKN 50,1,10,-1,1,1018,RJOO 210600Z 23007KT 190V250 9999 FEW030 BKN050 10/M01 Q1018     RMK 1CU030 6SC050 A3007=,
20180121_070000.002,0,RJOO,,,,0,20180121070000,-1,-1,-1,-1,999,-1,3,-1,-1,-1,-1,,9999,0,0,2,FEW 30   BKN 50,1,10,1,0,1019,RJOO 210700Z VRB03KT 9999 FEW030 BKN050 10/00 Q1019 RMK 1CU030     6SC050 A3009 LGT TO MOD TURB OBS AT 0645Z 10NM N OHDAI           BTN 16000FT AND 13000FT IN DES E190=,
20180121_080000.002,0,RJOO,,,,0,20180121080000,-1,-1,-1,-1,340,-1,9,-1,-1,-1,-1,,9999,0,0,3,FEW 30   SCT 50   BKN -9999,1,9,-1,1,1019,RJOO 210800Z 34009KT 9999 FEW030 SCT050 BKN/// 09/M01 Q1019     RMK 1CU030 3SC050 A3011=,
20180121_090000.002,0,RJOO,,,,0,20180121090000,-1,-1,-1,-1,340,-1,12,-1,-1,-1,-1,,9999,0,0,2,FEW 30   BKN -9999,1,8,-1,2,1020,RJOO 210900Z 34012KT 9999 FEW030 BKN/// 08/M02 Q1020 RMK     1CU030 A3013=,
20180121_100000.002,0,RJOO,,,,0,20180121100000,-1,-1,-1,-1,350,-1,9,-1,-1,-1,-1,,9999,0,0,2,FEW 30   BKN -9999,1,8,-1,1,1021,RJOO 211000Z 35009KT 9999 FEW030 BKN/// 08/M01 Q1021 RMK     1CU030 A3016=,
20180121_110000.002,0,RJOO,,,,0,20180121110000,-1,-1,-1,-1,350,-1,11,-1,-1,-1,-1,,9999,0,0,2,FEW 30   BKN -9999,1,7,-1,2,1021,RJOO 211100Z 35011KT 9999 FEW030 BKN/// 07/M02 Q1021 RMK     1CU030 A3015=,
20180121_200000.002,0,RJOO,,,,0,20180121200000,-1,-1,-1,-1,320,-1,5,-1,-1,-1,-1,,9999,0,0,2,FEW 40   BKN 160,1,3,-1,1,1018,RJOO 212000Z 32005KT 9999 FEW040 BKN160 03/M01 Q1018 RMK     1CU040 5AC160 A3009=,
20180121_210000.002,0,RJOO,,,,0,20180121210000,-1,-1,-1,-1,320,-1,5,-1,-1,-1,-1,,9999,0,0,2,FEW 40   BKN 150,1,3,-1,1,1018,RJOO 212100Z 32005KT 9999 FEW040 BKN150 03/M01 Q1018 RMK     1CU040 5AC150 A3008=,
20180121_220000.002,0,RJOO,,,,0,20180121220000,-1,-1,-1,-1,310,-1,3,-1,-1,280,340,,9999,0,0,3,FEW 40   BKN 120   BKN 140,1,3,-1,1,1017,RJOO 212200Z 31003KT 280V340 9999 FEW040 BKN120 BKN140 03/M01     Q1017 RMK 1CU040 5AC120 6AC140 A3004=,
20180121_230000.002,0,RJOO,,,,0,20180121230000,-1,-1,-1,-1,100,-1,5,-1,-1,60,140,,9999,0,0,3,FEW 40   SCT 90   BKN 110,1,4,-1,1,1017,RJOO 212300Z 10005KT 060V140 9999 FEW040 SCT090 BKN110 04/M01     Q1017 RMK 1CU040 4AC090 6AC110 A3003=,
20180122_000000.002,0,RJOO,,,,0,20180122000000,-1,-1,-1,-1,60,-1,8,-1,-1,-1,-1,,9999,0,0,3,FEW 30   SCT 80   BKN 90,1,5,-1,1,1016,RJOO 220000Z 06008KT 9999 FEW030 SCT080 BKN090 05/M01 Q1016     RMK 1CU030 4AC080 6AC090 A3003=,
20180122_010000.002,0,RJOO,,,,0,20180122010000,-1,-1,-1,-1,80,-1,7,-1,-1,-1,-1,,9999,0,0,3,FEW 30   SCT 80   BKN 90,1,5,-1,1,1016,RJOO 220100Z 08007KT 9999 FEW030 SCT080 BKN090 05/M01 Q1016     RMK 1CU030 4AC080 6AC090 A3003=,
20180122_020000.002,0,RJOO,,,,0,20180122020000,-1,-1,-1,-1,40,-1,7,-1,-1,-1,-1,,9999,0,0,3,FEW 30   BKN 70   BKN 80,1,5,-1,1,1015,RJOO 220200Z 04007KT 9999 FEW030 BKN070 BKN080 05/M01 Q1015     RMK 1CU030 5AC070 6AC080 A2999=,
20180122_030000.002,0,RJOO,,,,0,20180122030000,-1,-1,-1,-1,30,-1,4,-1,-1,10,70,,9999,0,1,3,FEW 35   SCT 45   BKN 50,1,6,-1,2,1013,RJOO 220300Z 03004KT 010V070 9999 VCSH FEW035 SCT045 BKN050     06/M02 Q1013 RMK 1CU035 3CU045 6SC050 A2993=,VC SH
20180122_040000.002,0,RJOO,,,,0,20180122040000,-1,-1,-1,-1,100,-1,8,-1,-1,60,140,,9999,0,1,3,FEW 5   SCT 15   BKN 25,1,6,-1,2,1012,RJOO 220400Z 10008KT 060V140 9999 -SHRA FEW005 SCT015 BKN025     06/M02 Q1012 RMK 1ST005 3CU015 6CU025 A2991 MOD TURB OBS           AT 0345Z MUGIE 19000FT B788=,- RA SH
20180122_050000.002,0,RJOO,,,,0,20180122050000,-1,-1,-1,-1,80,-1,7,-1,-1,-1,-1,,7000,0,2,3,FEW 3   SCT 10   BKN 15,1,3,1,0,1011,RJOO 220500Z 08007KT 7000 -SHRA BR FEW003 SCT010 BKN015 03/00     Q1011 RMK 1ST003 3ST010 6CU015 A2987=,- RA SH; BR
20180122_060000.003,0,RJOO,,,,0,20180122060000,-1,-1,-1,-1,360,-1,4,-1,-1,330,40,,5000,0,2,3,FEW 2   SCT 7   BKN 20,1,2,1,1,1010,RJOO 220600Z 36004KT 330V040 5000 -RA BR FEW002 SCT007 BKN020     02/01 Q1010 RMK 1ST002 4ST007 6CU020 A2983=,- RA; BR
20180122_070000.002,0,RJOO,,,,0,20180122070000,-1,-1,-1,-1,340,-1,8,-1,-1,-1,-1,,8000,0,1,3,FEW 5   SCT 10   BKN 15,1,3,1,1,1010,RJOO 220700Z 34008KT 8000 -RA FEW005 SCT010 BKN015 03/01 Q1010     RMK 1ST005 3CU010 6CU015 A2984 MOD TURB OBS AT 0642Z 25NM           E RJOO BTN 12000FT AND 16000FT IN CMB B738=,- RA
20180122_080000.003,0,RJOO,,,,0,20180122080000,-1,-1,-1,-1,320,-1,6,-1,-1,-1,-1,,9999,0,1,3,FEW 5   SCT 10   BKN 20,1,3,1,1,1011,RJOO 220800Z 32006KT 9999 -RA FEW005 SCT010 BKN020 03/01 Q1011     RMK 1ST005 3CU010 6CU020 A2986=,- RA
20180122_090000.002,0,RJOO,,,,0,20180122090000,-1,-1,-1,-1,330,-1,7,-1,-1,-1,-1,,9999,0,1,3,FEW 5   SCT 10   BKN 20,1,3,1,1,1011,RJOO 220900Z 33007KT 9999 -RA FEW005 SCT010 BKN020 03/01 Q1011     RMK 1ST005 3CU010 6CU020 A2988=,- RA
20180122_100000.002,0,RJOO,,,,0,20180122100000,-1,-1,-1,-1,310,-1,3,-1,-1,250,330,,9999,0,0,3,FEW 5   SCT 15   BKN 30,1,3,1,1,1012,RJOO 221000Z 31003KT 250V330 9999 FEW005 SCT015 BKN030 03/01     Q1012 RMK 1ST005 3CU015 6CU030 A2988=,
20180122_110000.003,0,RJOO,,,,0,20180122110000,-1,-1,-1,-1,310,-1,4,-1,-1,-1,-1,,9999,0,0,3,FEW 5   SCT 15   BKN 30,1,3,1,1,1012,RJOO 221100Z 31004KT 9999 FEW005 SCT015 BKN030 03/01 Q1012 RMK     1ST005 3CU015 5CU030 A2990=,
20180122_200000.002,0,RJOO,,,,0,20180122200000,-1,-1,-1,-1,320,-1,3,-1,-1,-1,-1,,9999,0,0,2,FEW 8   BKN 15,1,3,1,2,1010,RJOO 222000Z 32003KT 9999 FEW008 BKN015 03/02 Q1010 RMK 1ST008     5CU015 A2984=,
20180122_210000.003,0,RJOO,,,,0,20180122210000,-1,-1,-1,-1,999,-1,1,-1,-1,-1,-1,,9999,0,0,3,FEW 8   SCT 15   BKN 40,1,3,1,1,1010,RJOO 222100Z VRB01KT 9999 FEW008 SCT015 BKN040 03/01 Q1010 RMK     1ST008 4CU015 6CU040 A2985=,
20180122_220000.002,0,RJOO,,,,0,20180122220000,-1,-1,-1,-1,999,-1,2,-1,-1,-1,-1,,9999,0,0,3,FEW 8   SCT 15   BKN 30,1,5,1,2,1010,RJOO 222200Z VRB02KT 9999 FEW008 SCT015 BKN030 05/02 Q1010 RMK     1ST008 3CU015 5CU030 A2985=,
20180122_230000.003,0,RJOO,,,,0,20180122230000,-1,-1,-1,-1,999,-1,1,-1,-1,-1,-1,,9999,0,1,3,FEW 8   SCT 15   BKN 30,1,5,1,2,1010,RJOO 222300Z VRB01KT 9999 -SHRA FEW008 SCT015 BKN030 05/02     Q1010 RMK 1ST008 3CU015 5CU030 A2985=,- RA SH
20180123_000000.002,0,RJOO,,,,0,20180123000000,-1,-1,-1,-1,999,-1,2,-1,-1,-1,-1,,9999,0,0,2,FEW 15   SCT 30,0,-9999,0,-9999,-1,RJOO 230000Z VRB02KT 9999 FEW015 SCT030 ///// Q//// RMK 2CU015     4CU030 A//// MOD TURB OBS AT 2332Z KAINA BTN 11000FT AND           10000FT IN DES B738=,
20180123_010000.002,0,RJOO,,,,0,20180123010000,-1,-1,-1,-1,290,-1,7,-1,-1,220,330,,9999,0,0,2,FEW 20   SCT 35,1,8,1,2,1011,RJOO 230100Z 29007KT 220V330 9999 FEW020 SCT035 08/02 Q1011     RMK 1CU020 3CU035 A2987=,
20180123_020000.002,0,RJOO,,,,0,20180123020000,-1,-1,-1,-1,280,-1,10,-1,23,240,330,,9999,0,0,2,FEW 25   SCT 40,1,9,-1,1,1011,RJOO 230200Z 28010G23KT 240V330 9999 FEW025 SCT040 09/M01     Q1011 RMK 1CU025 3CU040 A2985=,
20180123_030000.003,0,RJOO,,,,0,20180123030000,-1,-1,-1,-1,300,-1,13,-1,-1,-1,-1,,9999,0,1,2,FEW 25   SCT 40,1,8,-1,1,1010,RJOO 230300Z 30013KT 9999 -SHRA FEW025 SCT040 08/M01 Q1010 RMK     1CU025 4CU040 A2984=,- RA SH
20180123_040000.003,0,RJOO,,,,0,20180123040000,-1,-1,-1,-1,300,-1,13,-1,26,260,330,,9999,0,1,2,FEW 25   BKN 45,1,8,-1,4,1010,RJOO 230400Z 30013G26KT 260V330 9999 -SHRA FEW025 BKN045     08/M04 Q1010 RMK 1CU025 5CU045 A2985=,- RA SH
20180123_050000.002,0,RJOO,,,,0,20180123050000,-1,-1,-1,-1,270,-1,8,-1,18,220,340,,9999,0,1,2,FEW 25   BKN 45,1,7,-1,4,1011,RJOO 230500Z 27008G18KT 220V340 9999 -SHRA FEW025 BKN045     07/M04 Q1011 RMK 1CU025 5CU045 A2986 VERY ROUGH AIR OBS           AT 0437Z ON SHORT FNA RWY32L 100FT IN DES B738=,- RA SH
20180123_060000.003,0,RJOO,,,,0,20180123060000,-1,-1,-1,-1,280,-1,12,-1,26,210,320,,9999,0,0,2,FEW 20   BKN -9999,1,7,-1,5,1011,RJOO 230600Z 28012G26KT 210V320 9999 FEW020 BKN/// 07/M05     Q1011 RMK 1CU020 A2987=,
20180123_070000.002,0,RJOO,,,,0,20180123070000,-1,-1,-1,-1,260,-1,13,-1,-1,230,310,,9999,0,0,2,FEW 25   BKN -9999,1,7,-1,8,1011,RJOO 230700Z 26013KT 230V310 9999 FEW025 BKN/// 07/M08 Q1011     RMK 1CU025 A2988=,
20180123_080000.002,0,RJOO,,,,0,20180123080000,-1,-1,-1,-1,270,-1,8,-1,-1,220,310,,9999,0,0,1,FEW 20,1,6,-1,8,1012,RJOO 230800Z 27008KT 220V310 9999 FEW020 06/M08 Q1012 RMK     1CU020 A2990=,
20180123_090000.002,0,RJOO,,,,0,20180123090000,-1,-1,-1,-1,290,-1,11,-1,-1,230,330,,9999,0,0,1,FEW 20,1,5,-1,13,1013,RJOO 230900Z 29011KT 230V330 9999 FEW020 05/M13 Q1013 RMK     1CU020 A2993=,
20180123_100000.002,0,RJOO,,,,0,20180123100000,-1,-1,-1,-1,270,-1,5,-1,-1,220,320,,9999,0,0,1,FEW 30,1,4,-1,14,1014,RJOO 231000Z 27005KT 220V320 9999 FEW030 04/M14 Q1014 RMK     1CU030 A2995 MOD TURB OBS AT 0938Z AROUND ROKKO BTN           12000FT AND 10000FT IN DES B738=,
20180123_110000.002,0,RJOO,,,,0,20180123110000,-1,-1,-1,-1,280,-1,7,-1,-1,230,320,,9999,0,0,1,FEW 25,1,3,-1,11,1015,RJOO 231100Z 28007KT 230V320 9999 FEW025 03/M11 Q1015 RMK     1CU025 A2997 MOD TURB OBS AT 1032Z AROUND ROKKO BTN           12000FT AND 10000FT IN DES E170=,
20180123_200000.002,0,RJOO,,,,0,20180123200000,-1,-1,-1,-1,260,-1,7,-1,-1,230,320,,9999,0,0,2,FEW 25   SCT -9999,-1,0,-1,9,1015,RJOO 232000Z 26007KT 230V320 9999 FEW025 SCT/// M00/M09 Q1015     RMK 1CU025 A2998=,
20180123_210000.002,0,RJOO,,,,0,20180123210000,-1,-1,-1,-1,240,-1,4,-1,-1,200,280,,9999,0,0,1,FEW 25,1,0,-1,10,1015,RJOO 232100Z 24004KT 200V280 9999 FEW025 00/M10 Q1015 RMK     1CU025 A3000=,
20180123_220000.002,0,RJOO,,,,0,20180123220000,-1,-1,-1,-1,230,-1,6,-1,-1,-1,-1,,9999,0,0,1,FEW 25,-1,0,-1,9,1016,RJOO 232200Z 23006KT 9999 FEW025 M00/M09 Q1016 RMK 1CU025     A3001=,
20180123_230000.002,0,RJOO,,,,0,20180123230000,-1,-1,-1,-1,240,-1,6,-1,-1,210,310,,9999,0,0,1,FEW 25,1,0,-1,9,1016,RJOO 232300Z 24006KT 210V310 9999 FEW025 00/M09 Q1016 RMK     1CU025 A3001=,
20180124_000000.002,0,RJOO,,,,0,20180124000000,-1,-1,-1,-1,280,-1,8,-1,-1,240,320,,9999,0,0,1,FEW 25,1,0,-1,13,1016,RJOO 240000Z 28008KT 240V320 9999 FEW025 00/M13 Q1016 RMK     1CU025 A3002=,
20180124_010000.003,0,RJOO,,,,0,20180124010000,-1,-1,-1,-1,270,-1,8,-1,-1,230,310,,9999,0,0,2,FEW 25   SCT 40,1,1,-1,11,1016,RJOO 240100Z 27008KT 230V310 9999 FEW025 SCT040 01/M11 Q1016     RMK 1CU025 3CU040 A3000=,
20180124_020000.002,0,RJOO,,,,0,20180124020000,-1,-1,-1,-1,270,-1,9,-1,19,230,320,,9999,0,0,2,FEW 30   SCT 50,1,1,-1,12,1015,RJOO 240200Z 27009G19KT 230V320 9999 FEW030 SCT050 01/M12     Q1015 RMK 1CU030 3SC050 A2998=,
20180124_030000.002,0,RJOO,,,,0,20180124030000,-1,-1,-1,-1,280,-1,9,-1,-1,230,320,,9999,0,0,2,FEW 30   SCT 50,1,2,-1,10,1013,RJOO 240300Z 28009KT 230V320 9999 FEW030 SCT050 02/M10 Q1013     RMK 1CU030 3SC050 A2994=,
20180124_040000.002,0,RJOO,,,,0,20180124040000,-1,-1,-1,-1,280,-1,12,-1,25,240,320,,9999,0,0,2,FEW 30   SCT 50,1,2,-1,12,1012,RJOO 240400Z 28012G25KT 240V320 9999 FEW030 SCT050 02/M12     Q1012 RMK 2CU030 3SC050 A2991=,
20180124_050000.002,0,RJOO,,,,0,20180124050000,-1,-1,-1,-1,270,-1,16,-1,32,240,310,,9999,0,1,2,FEW 30   SCT 60,1,2,-1,11,1012,RJOO 240500Z 27016G32KT 240V310 9999 VCSH FEW030 SCT060 02/M11     Q1012 RMK 1CU030 3SC060 A2991=,VC SH
20180124_060000.002,0,RJOO,,,,0,20180124060000,-1,-1,-1,-1,270,-1,14,-1,28,230,310,,9999,0,0,2,FEW 30   SCT 60,1,2,-1,12,1013,RJOO 240600Z 27014G28KT 230V310 9999 FEW030 SCT060 02/M12     Q1013 RMK 1CU030 3SC060 A2992=,
20180124_070000.002,0,RJOO,,,,0,20180124070000,-1,-1,-1,-1,280,-1,13,-1,26,240,320,,9999,0,0,1,FEW 30,1,1,-1,10,1013,RJOO 240700Z 28013G26KT 240V320 9999 FEW030 01/M10 Q1013 RMK     1CU030 A2994=,
20180124_080000.002,0,RJOO,,,,0,20180124080000,-1,-1,-1,-1,270,-1,12,-1,26,240,320,,9999,0,0,1,FEW 30,1,0,-1,14,1014,RJOO 240800Z 27012G26KT 240V320 9999 FEW030 00/M14 Q1014 RMK     1CU030 A2996=,
20180124_090000.003,0,RJOO,,,,0,20180124090000,-1,-1,-1,-1,270,-1,9,-1,-1,230,310,,9999,0,0,1,FEW 30,-1,0,-1,13,1015,RJOO 240900Z 27009KT 230V310 9999 FEW030 M00/M13 Q1015 RMK     1CU030 A3000=,
20180124_100000.002,0,RJOO,,,,0,20180124100000,-1,-1,-1,-1,260,-1,8,-1,-1,210,330,,9999,0,0,1,FEW 30,-1,1,-1,14,1016,RJOO 241000Z 26008KT 210V330 9999 FEW030 M01/M14 Q1016 RMK     1CU030 A3001=,
20180124_110000.002,0,RJOO,,,,0,20180124110000,-1,-1,-1,-1,270,-1,8,-1,-1,230,310,,9999,0,0,1,FEW 30,-1,2,-1,10,1016,RJOO 241100Z 27008KT 230V310 9999 FEW030 M02/M10 Q1016 RMK     1CU030 A3003=,
20180124_200000.002,0,RJOO,,,,0,20180124200000,-1,-1,-1,-1,310,-1,5,-1,-1,-1,-1,,9999,0,0,1,FEW 25,-1,3,-1,10,1017,RJOO 242000Z 31005KT 9999 FEW025 M03/M10 Q1017 RMK 1CU025     A3006=,
20180124_210000.002,0,RJOO,,,,0,20180124210000,-1,-1,-1,-1,320,-1,8,-1,-1,-1,-1,,9999,0,0,2,FEW 25   SCT 45,-1,4,-1,7,1018,RJOO 242100Z 32008KT 9999 FEW025 SCT045 M04/M07 Q1018 RMK     1CU025 3CU045 A3008=,
20180124_220000.002,0,RJOO,,,,0,20180124220000,-1,-1,-1,-1,300,-1,10,-1,-1,-1,-1,,9999,0,0,1,FEW 25,-1,3,-1,7,1018,RJOO 242200Z 30010KT 9999 FEW025 M03/M07 Q1018 RMK 1CU025     A3007=,
20180124_230000.002,0,RJOO,,,,0,20180124230000,-1,-1,-1,-1,310,-1,8,-1,-1,270,330,,9999,0,0,1,FEW 15,-1,3,-1,7,1018,RJOO 242300Z 31008KT 270V330 9999 FEW015 M03/M07 Q1018 RMK     1CU015 A3008=,
20180125_000000.002,0,RJOO,,,,0,20180125000000,-1,-1,-1,-1,320,-1,9,-1,-1,-1,-1,,9999,0,1,1,FEW 15,-1,1,-1,7,1019,RJOO 250000Z 32009KT 9999 VCSH FEW015 M01/M07 Q1019 RMK 1CU015     A3010=,VC SH
20180125_010000.002,0,RJOO,,,,0,20180125010000,-1,-1,-1,-1,300,-1,6,-1,-1,240,350,,9999,0,1,2,FEW 15   SCT 50,-1,0,-1,7,1019,RJOO 250100Z 30006KT 240V350 9999 -SHSN FEW015 SCT050 M00/M07     Q1019 RMK 2CU015 4SC050 A3010=,- SN SH
20180125_020000.003,0,RJOO,,,,0,20180125020000,-1,-1,-1,-1,290,-1,6,-1,-1,230,340,,9999,0,1,3,FEW 20   SCT 30   BKN 40,1,1,-1,8,1018,RJOO 250200Z 29006KT 230V340 9999 -SHSN FEW020 SCT030 BKN040     01/M08 Q1018 RMK 2CU020 3CU030 5CU040 A3009=,- SN SH
20180125_030000.002,0,RJOO,,,,0,20180125030000,-1,-1,-1,-1,320,-1,9,-1,-1,-1,-1,,9999,0,1,2,FEW 20   SCT 30,1,0,-1,2,1018,RJOO 250300Z 32009KT 9999 -SHSN FEW020 SCT030 00/M02 Q1018 RMK     2CU020 4CU030 A3006=,- SN SH
20180125_040000.002,0,RJOO,,,,0,20180125040000,-1,-1,-1,-1,320,-1,8,-1,-1,280,10,,9999,0,1,2,FEW 20   SCT 40,1,2,-1,7,1016,RJOO 250400Z 32008KT 280V010 9999 -SHSN FEW020 SCT040 02/M07     Q1016 RMK 2CU020 4CU040 A3003=,- SN SH
20180125_050000.002,0,RJOO,,,,0,20180125050000,-1,-1,-1,-1,310,-1,8,-1,-1,-1,-1,,9999,0,1,2,FEW 15   SCT 50,1,2,-1,7,1016,RJOO 250500Z 31008KT 9999 -SHSN FEW015 SCT050 02/M07 Q1016 RMK     1CU015 4SC050 A3003=,- SN SH
20180125_060000.002,0,RJOO,,,,0,20180125060000,-1,-1,-1,-1,320,-1,10,-1,-1,290,350,,9999,0,1,2,FEW 10   BKN 45,1,2,-1,9,1016,RJOO 250600Z 32010KT 290V350 9999 VCSH FEW010 BKN045 02/M09     Q1016 RMK 1ST010 5CU045 A3003=,VC SH
20180125_070000.002,0,RJOO,,,,0,20180125070000,-1,-1,-1,-1,350,-1,11,-1,-1,-1,-1,,9999,0,0,2,FEW 20   BKN 45,1,2,1,0,1016,RJOO 250700Z 35011KT 9999 FEW020 BKN045 02/00 Q1016 RMK 1CU020     5CU045 A3003=,
20180125_080000.002,0,RJOO,,,,0,20180125080000,-1,-1,-1,-1,330,-1,9,-1,-1,-1,-1,,9999,0,0,2,FEW 20   SCT 45,1,1,-1,5,1016,RJOO 250800Z 33009KT 9999 FEW020 SCT045 01/M05 Q1016 RMK     1CU020 3CU045 A3003=,
20180125_090000.002,0,RJOO,,,,0,20180125090000,-1,-1,-1,-1,320,-1,6,-1,-1,-1,-1,,9999,0,0,2,FEW 20   SCT 50,1,1,-1,7,1017,RJOO 250900Z 32006KT 9999 FEW020 SCT050 01/M07 Q1017 RMK     1CU020 3SC050 A3003=,
20180125_100000.003,0,RJOO,,,,0,20180125100000,-1,-1,-1,-1,320,-1,6,-1,-1,-1,-1,,9999,0,0,1,FEW 25,1,0,-1,7,1016,RJOO 251000Z 32006KT 9999 FEW025 00/M07 Q1016 RMK 1CU025     A3002=,
20180125_110000.003,0,RJOO,,,,0,20180125110000,-1,-1,-1,-1,320,-1,6,-1,-1,-1,-1,,9999,0,0,1,FEW 25,-1,0,-1,7,1016,RJOO 251100Z 32006KT 9999 FEW025 M00/M07 Q1016 RMK 1CU025     A3001=,
20180125_200000.003,0,RJOO,,,,0,20180125200000,-1,-1,-1,-1,320,-1,5,-1,-1,260,340,,9999,0,1,3,FEW 20   SCT 50   BKN 60,-1,1,-1,8,1013,RJOO 252000Z 32005KT 260V340 9999 VCSH FEW020 SCT050 BKN060     M01/M08 Q1013 RMK 1CU020 3SC050 6SC060 A2994=,VC SH
20180125_210000.002,0,RJOO,,,,0,20180125210000,-1,-1,-1,-1,330,-1,11,-1,-1,-1,-1,,9999,0,1,3,FEW 20   BKN 60   BKN 70,-1,1,-1,7,1014,RJOO 252100Z 33011KT 9999 VCSH FEW020 BKN060 BKN070 M01/M07     Q1014 RMK 2CU020 5SC060 6AC070 A2995=,VC SH
20180125_220000.002,0,RJOO,,,,0,20180125220000,-1,-1,-1,-1,310,-1,7,-1,-1,-1,-1,,9999,0,1,3,FEW 20   BKN 45   BKN 60,-1,1,-1,7,1014,RJOO 252200Z 31007KT 9999 -SHSN FEW020 BKN045 BKN060 M01/M07     Q1014 RMK 2CU020 5CU045 6SC060 A2996=,- SN SH
20180125_230000.002,0,RJOO,,,,0,20180125230000,-1,-1,-1,-1,300,-1,8,-1,-1,-1,-1,,9999,0,0,2,FEW 20   SCT 45,-1,0,-1,7,1014,RJOO 252300Z 30008KT 9999 FEW020 SCT045 M00/M07 Q1014 RMK     2CU020 3CU045 A2996=,
20180126_000000.002,0,RJOO,,,,0,20180126000000,-1,-1,-1,-1,310,-1,9,-1,-1,-1,-1,,9999,0,0,2,FEW 20   SCT 40,1,1,-1,7,1015,RJOO 260000Z 31009KT 9999 FEW020 SCT040 01/M07 Q1015 RMK     1CU020 3CU040 A2997=,
20180126_010000.002,0,RJOO,,,,0,20180126010000,-1,-1,-1,-1,310,-1,6,-1,-1,280,350,,9999,0,0,1,FEW 20,1,3,-1,7,1015,RJOO 260100Z 31006KT 280V350 9999 FEW020 03/M07 Q1015 RMK     1CU020 A2997=,
20180126_020000.002,0,RJOO,,,,0,20180126020000,-1,-1,-1,-1,310,-1,8,-1,-1,260,340,,9999,0,0,2,FEW 25   SCT 35,1,4,-1,8,1014,RJOO 260200Z 31008KT 260V340 9999 FEW025 SCT035 04/M08 Q1014     RMK 1CU025 3CU035 A2996=,
20180126_030000.002,0,RJOO,,,,0,20180126030000,-1,-1,-1,-1,280,-1,7,-1,-1,230,330,,9999,0,0,2,FEW 25   SCT 35,1,4,-1,8,1013,RJOO 260300Z 28007KT 230V330 9999 FEW025 SCT035 04/M08 Q1013     RMK 1CU025 4CU035 A2993 MOD TURB OBS AT 0232Z ABENO BTN           7000FT AND 4000FT IN DES E170=,
20180126_040000.002,0,RJOO,,,,0,20180126040000,-1,-1,-1,-1,300,-1,8,-1,-1,220,330,,9999,0,1,2,FEW 25   BKN 40,1,4,-1,8,1012,RJOO 260400Z 30008KT 220V330 9999 VCSH FEW025 BKN040 04/M08     Q1012 RMK 1CU025 5CU040 A2991=,VC SH
20180126_050000.002,0,RJOO,,,,0,20180126050000,-1,-1,-1,-1,290,-1,7,-1,-1,240,340,,9999,0,1,3,FEW 25   SCT 40   BKN 50,1,4,-1,8,1012,RJOO 260500Z 29007KT 240V340 9999 -SHSN FEW025 SCT040 BKN050     04/M08 Q1012 RMK 1CU025 3CU040 5SC050 A2990=,- SN SH
20180126_060000.002,0,RJOO,,,,0,20180126060000,-1,-1,-1,-1,300,-1,10,-1,-1,240,330,,9999,0,1,3,FEW 20   SCT 35   BKN 50,1,3,-1,7,1013,RJOO 260600Z 30010KT 240V330 9999 -SHSN FEW020 SCT035 BKN050     03/M07 Q1013 RMK 1CU020 3CU035 5SC050 A2992 4000W-NW=,- SN SH
20180126_070000.002,0,RJOO,,,,0,20180126070000,-1,-1,-1,-1,290,-1,8,-1,-1,240,320,,2000,0,1,3,FEW 10   SCT 30   BKN 50,1,1,-1,3,1013,RJOO 260700Z 29008KT 240V320 2000 -SHSN FEW010 SCT030 BKN050     01/M03 Q1013 RMK 1CU010 3CU030 5SC050 A2994 5000N-NE=,- SN SH
20180126_080000.003,0,RJOO,,,,0,20180126080000,-1,-1,-1,-1,270,-1,7,-1,-1,240,320,,7000,0,1,3,FEW 10   SCT 30   BKN 50,1,1,-1,3,1014,RJOO 260800Z 27007KT 240V320 7000 -SHSN FEW010 SCT030 BKN050     01/M03 Q1014 RMK 1CU010 3CU030 5SC050 A2995=,- SN SH
20180126_090000.002,0,RJOO,,,,0,20180126090000,-1,-1,-1,-1,280,-1,4,-1,-1,-1,-1,,9999,0,1,3,FEW 30   SCT 60   BKN 80,1,1,-1,4,1015,RJOO 260900Z 28004KT 9999 VCSH FEW030 SCT060 BKN080 01/M04     Q1015 RMK 1CU030 3SC060 5AC080 A2998=,VC SH
20180126_100000.002,0,RJOO,,,,0,20180126100000,-1,-1,-1,-1,270,-1,5,-1,-1,240,340,,9999,0,1,2,FEW 30   BKN 50,1,1,-1,5,1016,RJOO 261000Z 27005KT 240V340 9999 -SHSN FEW030 BKN050 01/M05     Q1016 RMK 1CU030 5SC050 A3001=,- SN SH
20180126_110000.002,0,RJOO,,,,0,20180126110000,-1,-1,-1,-1,10,-1,6,-1,-1,-1,-1,,9999,0,1,3,FEW 8   SCT 25   BKN 35,-1,0,-1,3,1017,RJOO 261100Z 01006KT 9999 -SHSN FEW008 SCT025 BKN035 M00/M03     Q1017 RMK 1ST008 3CU025 5CU035 A3004=,- SN SH
20180126_200000.003,0,RJOO,,,,0,20180126200000,-1,-1,-1,-1,340,-1,3,-1,-1,-1,-1,,9999,0,1,2,FEW 20   BKN 40,-1,3,-1,5,1020,RJOO 262000Z 34003KT 9999 VCSH FEW020 BKN040 M03/M05 Q1020 RMK     1CU020 5CU040 A3015=,VC SH
20180126_210000.002,0,RJOO,,,,0,20180126210000,-1,-1,-1,-1,330,-1,5,-1,-1,-1,-1,,5000,0,1,2,FEW 25   BKN 50,-1,2,-1,5,1021,RJOO 262100Z 33005KT 5000 -SHSN FEW025 BKN050 M02/M05 Q1021     RMK 1CU025 6SC050 A3016=,- SN SH
20180126_220000.002,0,RJOO,,,,0,20180126220000,-1,-1,-1,-1,330,-1,7,-1,-1,-1,-1,,9999,0,1,2,FEW 30   BKN 40,-1,2,-1,5,1021,RJOO 262200Z 33007KT 9999 -SHSN FEW030 BKN040 M02/M05 Q1021     RMK 1CU030 6CU040 A3017=,- SN SH
20180126_230000.002,0,RJOO,,,,0,20180126230000,-1,-1,-1,-1,320,-1,7,-1,-1,-1,-1,,9999,0,1,2,FEW 25   BKN 40,-1,1,-1,5,1022,RJOO 262300Z 32007KT 9999 -SHSN FEW025 BKN040 M01/M05 Q1022     RMK 1CU025 6CU040 A3018=,- SN SH
20180127_000000.002,0,RJOO,,,,0,20180127000000,-1,-1,-1,-1,310,-1,3,-1,-1,240,350,,8000,0,1,3,FEW 10   BKN 20   BKN 40,1,0,-1,4,1022,RJOO 270000Z 31003KT 240V350 8000 -SHSN FEW010 BKN020 BKN040     00/M04 Q1022 RMK 2ST010 5CU020 6CU040 A3020=,- SN SH
20180127_010000.002,0,RJOO,,,,0,20180127010000,-1,-1,-1,-1,310,-1,6,-1,-1,270,340,,9999,0,1,2,FEW 15   SCT 50,1,1,-1,3,1023,RJOO 270100Z 31006KT 270V340 9999 -SHSN FEW015 SCT050 01/M03     Q1023 RMK 2CU015 3SC050 A3022=,- SN SH
20180127_020000.002,0,RJOO,,,,0,20180127020000,-1,-1,-1,-1,300,-1,7,-1,-1,240,320,,9999,0,1,2,FEW 20   SCT 30,1,3,-1,4,1023,RJOO 270200Z 30007KT 240V320 9999 VCSH FEW020 SCT030 03/M04     Q1023 RMK 2CU020 3CU030 A3021=,VC SH
20180127_030000.002,0,RJOO,,,,0,20180127030000,-1,-1,-1,-1,330,-1,10,-1,-1,-1,-1,,9999,0,0,2,FEW 20   SCT 25,1,4,-1,4,1022,RJOO 270300Z 33010KT 9999 FEW020 SCT025 04/M04 Q1022 RMK     1CU020 3CU025 A3019=,
20180127_040000.002,0,RJOO,,,,0,20180127040000,-1,-1,-1,-1,340,-1,14,-1,-1,-1,-1,,9999,0,0,2,FEW 20   BKN 30,1,5,-1,6,1022,RJOO 270400Z 34014KT 9999 FEW020 BKN030 05/M06 Q1022 RMK     1CU020 5CU030 A3018=,
20180127_050000.002,0,RJOO,,,,0,20180127050000,-1,-1,-1,-1,330,-1,14,-1,-1,-1,-1,,9999,0,1,2,FEW 20   SCT 50,1,4,-1,6,1022,RJOO 270500Z 33014KT 9999 -SHSN FEW020 SCT050 04/M06 Q1022 RMK     1CU020 3SC050 A3018=,- SN SH
20180127_060000.002,0,RJOO,,,,0,20180127060000,-1,-1,-1,-1,320,-1,14,-1,-1,-1,-1,,9999,0,1,2,FEW 20   SCT 40,1,5,-1,5,1022,RJOO 270600Z 32014KT 9999 -SHSN FEW020 SCT040 05/M05 Q1022 RMK     1CU020 4CU040 A3019=,- SN SH
20180127_070000.002,0,RJOO,,,,0,20180127070000,-1,-1,-1,-1,320,-1,11,-1,-1,-1,-1,,9999,0,0,2,FEW 20   BKN 30,1,4,-1,6,1022,RJOO 270700Z 32011KT 9999 FEW020 BKN030 04/M06 Q1022 RMK     1CU020 5CU030 A3019=,
20180127_080000.002,0,RJOO,,,,0,20180127080000,-1,-1,-1,-1,320,-1,7,-1,-1,-1,-1,,9999,0,0,1,FEW 25,1,2,-1,6,1022,RJOO 270800Z 32007KT 9999 FEW025 02/M06 Q1022 RMK 1CU025     A3020=,
20180127_090000.003,0,RJOO,,,,0,20180127090000,-1,-1,-1,-1,330,-1,6,-1,-1,-1,-1,,9999,0,0,1,FEW 25,1,1,-1,6,1023,RJOO 270900Z 33006KT 9999 FEW025 01/M06 Q1023 RMK 1CU025     A3023=,
20180127_100000.002,0,RJOO,,,,0,20180127100000,-1,-1,-1,-1,310,-1,3,-1,-1,270,10,,9999,0,0,1,FEW 30,1,1,-1,6,1024,RJOO 271000Z 31003KT 270V010 9999 FEW030 01/M06 Q1024 RMK     1CU030 A3024=,
20180127_110000.002,0,RJOO,,,,0,20180127110000,-1,-1,-1,-1,290,-1,2,-1,-1,-1,-1,,9999,0,0,1,FEW 30,1,1,-1,6,1023,RJOO 271100Z 29002KT 9999 FEW030 01/M06 Q1023 RMK 1CU030     A3023=,
20180127_200000.002,0,RJOO,,,,0,20180127200000,-1,-1,-1,-1,320,-1,3,-1,-1,260,340,,9999,0,0,2,FEW 20   BKN 150,-1,3,-1,6,1020,RJOO 272000Z 32003KT 260V340 9999 FEW020 BKN150 M03/M06 Q1020     RMK 1CU020 5AC150 A3014=,
20180127_210000.002,0,RJOO,,,,0,20180127210000,-1,-1,-1,-1,310,-1,3,-1,-1,270,330,,9999,0,0,3,FEW 30   SCT 120   BKN 150,-1,3,-1,6,1020,RJOO 272100Z 31003KT 270V330 9999 FEW030 SCT120 BKN150 M03/M06     Q1020 RMK 1CU030 3AC120 5AC150 A3013=,
20180127_220000.002,0,RJOO,,,,0,20180127220000,-1,-1,-1,-1,310,-1,5,-1,-1,-1,-1,,9999,0,0,3,FEW 40   SCT 120   BKN 140,-1,2,-1,5,1020,RJOO 272200Z 31005KT 9999 FEW040 SCT120 BKN140 M02/M05 Q1020     RMK 1CU040 3AC120 7AC140 A3015=,
20180127_230000.002,0,RJOO,,,,0,20180127230000,-1,-1,-1,-1,999,-1,2,-1,-1,-1,-1,,9999,0,0,3,FEW 40   SCT 100   BKN 130,-1,1,-1,5,1020,RJOO 272300Z VRB02KT 9999 FEW040 SCT100 BKN130 M01/M05 Q1020     RMK 1CU040 3AC100 7AC130 A3013=,
20180128_000000.003,0,RJOO,,,,0,20180128000000,-1,-1,-1,-1,320,-1,2,-1,-1,-1,-1,,9999,0,0,3,FEW 40   BKN 100   BKN 120,1,0,-1,5,1020,RJOO 280000Z 32002KT 9999 FEW040 BKN100 BKN120 00/M05 Q1020     RMK 1CU040 5AC100 7AC120 A3014=,
20180128_010000.002,0,RJOO,,,,0,20180128010000,-1,-1,-1,-1,999,-1,2,-1,-1,-1,-1,,9999,0,0,3,FEW 40   BKN 90   BKN 100,1,2,-1,4,1019,RJOO 280100Z VRB02KT 9999 FEW040 BKN090 BKN100 02/M04 Q1019     RMK 1CU040 5AC090 7AC100 A3011=,
20180128_020000.002,0,RJOO,,,,0,20180128020000,-1,-1,-1,-1,999,-1,1,-1,-1,-1,-1,,9999,0,0,3,FEW 30   BKN 70   OVC 90,1,2,-1,5,1018,RJOO 280200Z VRB01KT 9999 FEW030 BKN070 OVC090 02/M05 Q1018     RMK 1CU030 5AC070 8AS090 A3008=,
20180128_030000.002,0,RJOO,,,,0,20180128030000,-1,-1,-1,-1,999,-1,2,-1,-1,-1,-1,,9999,0,0,3,FEW 30   BKN 70   OVC 80,1,4,-1,6,1016,RJOO 280300Z VRB02KT 9999 FEW030 BKN070 OVC080 04/M06 Q1016     RMK 1CU030 5AC070 8AS080 A3002=,
20180128_040000.002,0,RJOO,,,,0,20180128040000,-1,-1,-1,-1,999,-1,2,-1,-1,-1,-1,,9999,0,0,3,FEW 15   SCT 40   BKN 50,1,4,-1,7,1016,RJOO 280400Z VRB02KT 9999 FEW015 SCT040 BKN050 04/M07 Q1016     RMK 1CU015 3SC040 5SC050 A3002=,
20180128_050000.002,0,RJOO,,,,0,20180128050000,-1,-1,-1,-1,240,-1,3,-1,-1,200,280,,8000,0,1,3,FEW 10   SCT 25   BKN 40,1,3,-1,4,1016,RJOO 280500Z 24003KT 200V280 8000 -SHSN FEW010 SCT025 BKN040     03/M04 Q1016 RMK 1CU010 3CU025 5CU040 A3001=,- SN SH
20180128_060000.002,0,RJOO,,,,0,20180128060000,-1,-1,-1,-1,0,-1,0,-1,-1,-1,-1,,8000,0,1,3,FEW 10   SCT 25   BKN 45,1,2,-1,2,1016,RJOO 280600Z 00000KT 8000 -SHSN FEW010 SCT025 BKN045 02/M02     Q1016 RMK 1ST010 3CU025 5CU045 A3001=,- SN SH
20180128_070000.003,0,RJOO,,,,0,20180128070000,-1,-1,-1,-1,999,-1,1,-1,-1,-1,-1,,9999,0,1,3,FEW 10   SCT 30   BKN 45,1,3,-1,2,1016,RJOO 280700Z VRB01KT 9999 -SHRASN FEW010 SCT030 BKN045 03/M02     Q1016 RMK 1ST010 3CU030 5CU045 A3001=,- RA SN SH
20180128_080000.002,0,RJOO,,,,0,20180128080000,-1,-1,-1,-1,999,-1,2,-1,-1,-1,-1,,9999,0,0,2,FEW 10   BKN 30,1,3,-1,2,1016,RJOO 280800Z VRB02KT 9999 FEW010 BKN030 03/M02 Q1016 RMK     1ST010 5CU030 A3001=,
20180128_090000.002,0,RJOO,,,,0,20180128090000,-1,-1,-1,-1,999,-1,1,-1,-1,-1,-1,,9999,0,0,3,FEW 10   SCT 30   BKN 70,1,3,-1,1,1016,RJOO 280900Z VRB01KT 9999 FEW010 SCT030 BKN070 03/M01 Q1016     RMK 1ST010 4CU030 6AC070 A3000=,
20180128_100000.002,0,RJOO,,,,0,20180128100000,-1,-1,-1,-1,350,-1,1,-1,-1,-1,-1,,9999,0,0,3,FEW 10   SCT 30   BKN 70,1,3,-1,1,1015,RJOO 281000Z 35001KT 9999 FEW010 SCT030 BKN070 03/M01 Q1015     RMK 1ST010 4CU030 6AC070 A2999=,
20180128_110000.002,0,RJOO,,,,0,20180128110000,-1,-1,-1,-1,20,-1,3,-1,-1,340,50,,9999,0,0,2,FEW 10   BKN 20,1,3,-1,1,1015,RJOO 281100Z 02003KT 340V050 9999 FEW010 BKN020 03/M01 Q1015     RMK 1ST010 6CU020 A2999=,
20180128_200000.002,0,RJOO,,,,0,20180128200000,-1,-1,-1,-1,330,-1,5,-1,-1,-1,-1,,9999,0,0,2,FEW 10   BKN 170,1,0,-1,1,1012,RJOO 282000Z 33005KT 9999 FEW010 BKN170 00/M01 Q1012 RMK     1ST010 5AC170 A2991=,
20180128_210000.002,0,RJOO,,,,0,20180128210000,-1,-1,-1,-1,330,-1,6,-1,-1,-1,-1,,9999,0,0,3,FEW 10   SCT 60   BKN 170,1,0,-1,1,1012,RJOO 282100Z 33006KT 9999 FEW010 SCT060 BKN170 00/M01 Q1012     RMK 1ST010 3SC060 5AC170 A2991=,
20180128_220000.003,0,RJOO,,,,0,20180128220000,-1,-1,-1,-1,999,-1,2,-1,-1,-1,-1,,9999,0,0,3,FEW 15   SCT 60   BKN 170,1,0,-1,2,1012,RJOO 282200Z VRB02KT 9999 FEW015 SCT060 BKN170 00/M02 Q1012     RMK 1CU015 3SC060 5AC170 A2991=,
20180128_230000.002,0,RJOO,,,,0,20180128230000,-1,-1,-1,-1,999,-1,2,-1,-1,-1,-1,,9999,0,0,2,FEW 15   BKN -9999,1,2,-1,2,1013,RJOO 282300Z VRB02KT 9999 FEW015 BKN/// 02/M02 Q1013 RMK     1CU015 A2993=,
20180129_000000.003,0,RJOO,,,,0,20180129000000,-1,-1,-1,-1,20,-1,4,-1,-1,300,90,,9999,0,0,3,FEW 20   SCT 60   BKN -9999,1,3,-1,3,1014,RJOO 290000Z 02004KT 300V090 9999 FEW020 SCT060 BKN/// 03/M03     Q1014 RMK 1CU020 3SC060 A2994=,
20180129_010000.002,0,RJOO,,,,0,20180129010000,-1,-1,-1,-1,300,-1,6,-1,-1,230,360,,9999,0,0,3,FEW 25   SCT 60   BKN -9999,1,6,-1,8,1013,RJOO 290100Z 30006KT 230V360 9999 FEW025 SCT060 BKN/// 06/M08     Q1013 RMK 1CU025 3SC060 A2994=,
20180129_020000.002,0,RJOO,,,,0,20180129020000,-1,-1,-1,-1,290,-1,10,-1,-1,240,330,,9999,0,0,2,FEW 25   SCT -9999,1,7,-1,8,1013,RJOO 290200Z 29010KT 240V330 9999 FEW025 SCT/// 07/M08 Q1013     RMK 1CU025 A2992=,
20180129_030000.002,0,RJOO,,,,0,20180129030000,-1,-1,-1,-1,300,-1,10,-1,-1,260,320,,9999,0,0,2,FEW 25   SCT -9999,1,8,-1,9,1012,RJOO 290300Z 30010KT 260V320 9999 FEW025 SCT/// 08/M09 Q1012     RMK 1CU025 A2989=,
20180129_040000.002,0,RJOO,,,,0,20180129040000,-1,-1,-1,-1,300,-1,11,-1,-1,260,330,,9999,0,0,2,FEW 25   BKN -9999,1,8,-1,9,1011,RJOO 290400Z 30011KT 260V330 9999 FEW025 BKN/// 08/M09 Q1011     RMK 1CU025 A2987=,
20180129_050000.002,0,RJOO,,,,0,20180129050000,-1,-1,-1,-1,290,-1,12,-1,-1,240,330,,9999,0,0,2,FEW 30   SCT -9999,1,8,-1,9,1010,RJOO 290500Z 29012KT 240V330 9999 FEW030 SCT/// 08/M09 Q1010     RMK 1CU030 A2985=,
20180129_060000.002,0,RJOO,,,,0,20180129060000,-1,-1,-1,-1,280,-1,11,-1,-1,-1,-1,,9999,0,0,1,FEW 30,1,8,-1,10,1011,RJOO 290600Z 28011KT 9999 FEW030 08/M10 Q1011 RMK 1CU030     A2987=,
20180129_070000.002,0,RJOO,,,,0,20180129070000,-1,-1,-1,-1,270,-1,9,-1,-1,230,330,,9999,0,0,1,FEW 30,1,7,-1,10,1011,RJOO 290700Z 27009KT 230V330 9999 FEW030 07/M10 Q1011 RMK     1CU030 A2987=,
20180129_080000.002,0,RJOO,,,,0,20180129080000,-1,-1,-1,-1,280,-1,10,-1,21,240,310,,9999,0,0,2,FEW 25   SCT 50,1,6,-1,10,1012,RJOO 290800Z 28010G21KT 240V310 9999 FEW025 SCT050 06/M10     Q1012 RMK 1CU025 3SC050 A2988=,
20180129_090000.002,0,RJOO,,,,0,20180129090000,-1,-1,-1,-1,290,-1,11,-1,-1,250,320,,9999,0,0,1,FEW 25,1,5,-1,11,1013,RJOO 290900Z 29011KT 250V320 9999 FEW025 05/M11 Q1013 RMK     1CU025 A2993=,
20180129_100000.002,0,RJOO,,,,0,20180129100000,-1,-1,-1,-1,290,-1,10,-1,-1,260,320,,9999,0,0,1,FEW 25,1,3,-1,10,1014,RJOO 291000Z 29010KT 260V320 9999 FEW025 03/M10 Q1014 RMK     1CU025 A2995=,
20180129_110000.002,0,RJOO,,,,0,20180129110000,-1,-1,-1,-1,290,-1,9,-1,-1,240,330,,9999,0,0,1,FEW 25,1,3,-1,11,1015,RJOO 291100Z 29009KT 240V330 9999 FEW025 03/M11 Q1015 RMK     1CU025 A3000=,
20180129_200000.002,0,RJOO,,,,0,20180129200000,-1,-1,-1,-1,999,-1,2,-1,-1,-1,-1,,9999,0,0,1,FEW 25,-1,1,-1,8,1019,RJOO 292000Z VRB02KT 9999 FEW025 M01/M08 Q1019 RMK 1CU025     A3009=,
20180129_210000.002,0,RJOO,,,,0,20180129210000,-1,-1,-1,-1,999,-1,1,-1,-1,-1,-1,,9999,0,0,1,FEW 20,-1,2,-1,9,1019,RJOO 292100Z VRB01KT 9999 FEW020 M02/M09 Q1019 RMK 1CU020     A3011=,
20180129_220000.002,0,RJOO,,,,0,20180129220000,-1,-1,-1,-1,999,-1,2,-1,-1,-1,-1,,9999,0,0,1,FEW 25,-1,2,-1,8,1019,RJOO 292200Z VRB02KT 9999 FEW025 M02/M08 Q1019 RMK 1CU025     A3011=,
20180129_230000.002,0,RJOO,,,,0,20180129230000,-1,-1,-1,-1,320,-1,8,-1,-1,-1,-1,,9999,0,0,1,FEW 25,-1,1,-1,7,1020,RJOO 292300Z 32008KT 9999 FEW025 M01/M07 Q1020 RMK 1CU025     A3013=,
20180130_000000.002,0,RJOO,,,,0,20180130000000,-1,-1,-1,-1,350,-1,5,-1,-1,300,20,,9999,0,0,1,FEW 25,1,0,-1,8,1020,RJOO 300000Z 35005KT 300V020 9999 FEW025 00/M08 Q1020 RMK     1CU025 A3014=,
20180130_010000.002,0,RJOO,,,,0,20180130010000,-1,-1,-1,-1,330,-1,7,-1,-1,280,360,,9999,0,0,1,FEW 25,1,3,-1,8,1020,RJOO 300100Z 33007KT 280V360 9999 FEW025 03/M08 Q1020 RMK     1CU025 A3013=,
20180130_020000.002,0,RJOO,,,,0,20180130020000,-1,-1,-1,-1,999,-1,2,-1,-1,-1,-1,,9999,0,0,1,FEW 25,1,4,-1,10,1020,RJOO 300200Z VRB02KT 9999 FEW025 04/M10 Q1020 RMK 1CU025     A3012=,
20180130_030000.002,0,RJOO,,,,0,20180130030000,-1,-1,-1,-1,999,-1,5,-1,-1,-1,-1,,9999,0,0,1,FEW 25,1,5,-1,10,1019,RJOO 300300Z VRB05KT 9999 FEW025 05/M10 Q1019 RMK 1CU025     A3009=,
20180130_040000.002,0,RJOO,,,,0,20180130040000,-1,-1,-1,-1,280,-1,5,-1,-1,240,330,,9999,0,0,2,FEW 25   SCT 60,1,5,-1,10,1018,RJOO 300400Z 28005KT 240V330 9999 FEW025 SCT060 05/M10 Q1018     RMK 2CU025 3SC060 A3008=,
20180130_050000.002,0,RJOO,,,,0,20180130050000,-1,-1,-1,-1,260,-1,4,-1,-1,200,310,,9999,0,0,2,FEW 25   SCT 60,1,7,-1,10,1018,RJOO 300500Z 26004KT 200V310 9999 FEW025 SCT060 07/M10 Q1018     RMK 1CU025 3SC060 A3008=,
20180130_060000.003,0,RJOO,,,,0,20180130060000,-1,-1,-1,-1,260,-1,7,-1,-1,230,300,,9999,0,0,2,FEW 25   SCT 60,1,6,-1,10,1018,RJOO 300600Z 26007KT 230V300 9999 FEW025 SCT060 06/M10 Q1018     RMK 1CU025 3SC060 A3009=,
20180130_070000.002,0,RJOO,,,,0,20180130070000,-1,-1,-1,-1,270,-1,5,-1,-1,210,10,,9999,0,1,2,FEW 25   SCT 70,1,6,-1,9,1019,RJOO 300700Z 27005KT 210V010 9999 VCSH FEW025 SCT070 06/M09     Q1019 RMK 2CU025 3AC070 A3011=,VC SH
20180130_080000.002,0,RJOO,,,,0,20180130080000,-1,-1,-1,-1,260,-1,6,-1,-1,230,300,,9999,0,0,1,FEW 25,1,5,-1,8,1020,RJOO 300800Z 26006KT 230V300 9999 FEW025 05/M08 Q1020 RMK     1CU025 A3013=,
20180130_090000.002,0,RJOO,,,,0,20180130090000,-1,-1,-1,-1,240,-1,3,-1,-1,210,290,,9999,0,0,2,FEW 25   BKN 60,1,5,-1,8,1021,RJOO 300900Z 24003KT 210V290 9999 FEW025 BKN060 05/M08 Q1021     RMK 1CU025 5SC060 A3015=,
20180130_100000.002,0,RJOO,,,,0,20180130100000,-1,-1,-1,-1,250,-1,6,-1,-1,-1,-1,,9999,0,0,2,FEW 25   SCT 60,1,4,-1,9,1022,RJOO 301000Z 25006KT 9999 FEW025 SCT060 04/M09 Q1022 RMK     1CU025 4SC060 A3019=,
20180130_110000.002,0,RJOO,,,,0,20180130110000,-1,-1,-1,-1,270,-1,3,-1,-1,220,330,,9999,0,0,2,FEW 25   SCT -9999,1,3,-1,10,1023,RJOO 301100Z 27003KT 220V330 9999 FEW025 SCT/// 03/M10 Q1023     RMK 1CU025 A3021=,
20180130_200000.002,0,RJOO,,,,0,20180130200000,-1,-1,-1,-1,330,-1,6,-1,-1,-1,-1,,9999,0,0,1,FEW 40,-1,1,-1,7,1024,RJOO 302000Z 33006KT 9999 FEW040 M01/M07 Q1024 RMK 1SC040     A3025=,
20180130_210000.002,0,RJOO,,,,0,20180130210000,-1,-1,-1,-1,320,-1,6,-1,-1,-1,-1,CAVOK,-1,0,0,0,,-1,1,-1,6,1025,RJOO 302100Z 32006KT CAVOK M01/M06 Q1025 RMK A3027=,
20180130_220000.002,0,RJOO,,,,0,20180130220000,-1,-1,-1,-1,310,-1,4,-1,-1,-1,-1,,9999,0,0,1,FEW 20,-1,1,-1,7,1026,RJOO 302200Z 31004KT 9999 FEW020 M01/M07 Q1026 RMK 1CU020     A3031=,
20180130_230000.002,0,RJOO,,,,0,20180130230000,-1,-1,-1,-1,340,-1,8,-1,-1,-1,-1,,9999,0,0,1,FEW 20,1,1,-1,7,1026,RJOO 302300Z 34008KT 9999 FEW020 01/M07 Q1026 RMK 1CU020     A3031=,
20180131_000000.002,0,RJOO,,,,0,20180131000000,-1,-1,-1,-1,330,-1,4,-1,-1,280,360,,9999,0,0,2,FEW 20   SCT -9999,1,3,-1,7,1027,RJOO 310000Z 33004KT 280V360 9999 FEW020 SCT/// 03/M07 Q1027     RMK 1CU020 A3034=,
20180131_010000.002,0,RJOO,,,,0,20180131010000,-1,-1,-1,-1,999,-1,2,-1,-1,-1,-1,,9999,0,0,2,FEW 25   BKN -9999,1,3,-1,8,1027,RJOO 310100Z VRB02KT 9999 FEW025 BKN/// 03/M08 Q1027 RMK     1CU025 A3033=,
20180131_020000.002,0,RJOO,,,,0,20180131020000,-1,-1,-1,-1,999,-1,2,-1,-1,-1,-1,,9999,0,0,2,FEW 25   BKN -9999,1,4,-1,8,1026,RJOO 310200Z VRB02KT 9999 FEW025 BKN/// 04/M08 Q1026 RMK     1CU025 A3031=,
20180131_030000.002,0,RJOO,,,,0,20180131030000,-1,-1,-1,-1,999,-1,2,-1,-1,-1,-1,,9999,0,0,2,FEW 25   BKN -9999,1,6,-1,8,1025,RJOO 310300Z VRB02KT 9999 FEW025 BKN/// 06/M08 Q1025 RMK     1CU025 A3029=,
20180131_040000.002,0,RJOO,,,,0,20180131040000,-1,-1,-1,-1,210,-1,7,-1,-1,160,250,,9999,0,0,2,FEW 25   BKN -9999,1,6,-1,7,1025,RJOO 310400Z 21007KT 160V250 9999 FEW025 BKN/// 06/M07 Q1025     RMK 1CU025 A3028=,
20180131_050000.002,0,RJOO,,,,0,20180131050000,-1,-1,-1,-1,290,-1,7,-1,-1,240,340,,9999,0,0,2,FEW 25   BKN -9999,1,7,-1,7,1024,RJOO 310500Z 29007KT 240V340 9999 FEW025 BKN/// 07/M07 Q1024     RMK 1CU025 A3025=,
20180131_060000.002,0,RJOO,,,,0,20180131060000,-1,-1,-1,-1,240,-1,5,-1,-1,200,300,,9999,0,0,2,FEW 25   BKN -9999,1,7,-1,7,1023,RJOO 310600Z 24005KT 200V300 9999 FEW025 BKN/// 07/M07 Q1023     RMK 1CU025 A3023=,
20180131_070000.003,0,RJOO,,,,0,20180131070000,-1,-1,-1,-1,190,-1,4,-1,-1,140,250,,9999,0,0,2,FEW 25   BKN -9999,1,7,-1,5,1023,RJOO 310700Z 19004KT 140V250 9999 FEW025 BKN/// 07/M05 Q1023     RMK 1CU025 A3023=,
20180131_080000.003,0,RJOO,,,,0,20180131080000,-1,-1,-1,-1,230,-1,5,-1,-1,200,260,,9999,0,0,2,FEW 30   BKN -9999,1,6,-1,5,1024,RJOO 310800Z 23005KT 200V260 9999 FEW030 BKN/// 06/M05 Q1024     RMK 1CU030 A3025=,
20180131_090000.002,0,RJOO,,,,0,20180131090000,-1,-1,-1,-1,210,-1,3,-1,-1,170,250,,9999,0,0,2,FEW 30   BKN -9999,1,5,-1,4,1024,RJOO 310900Z 21003KT 170V250 9999 FEW030 BKN/// 05/M04 Q1024     RMK 1CU030 A3026=,
20180131_100000.002,0,RJOO,,,,0,20180131100000,-1,-1,-1,-1,230,-1,3,-1,-1,200,260,,9999,0,0,3,FEW 30   SCT 140   BKN -9999,1,5,-1,5,1025,RJOO 311000Z 23003KT 200V260 9999 FEW030 SCT140 BKN/// 05/M05     Q1025 RMK 1CU030 3AC140 A3027=,
20180131_110000.002,0,RJOO,,,,0,20180131110000,-1,-1,-1,-1,999,-1,2,-1,-1,-1,-1,,9999,0,0,2,FEW 30   SCT 130,1,4,-1,5,1025,RJOO 311100Z VRB02KT 9999 FEW030 SCT130 04/M05 Q1025 RMK     2CU030 3AC130 A3027=,
20180131_200000.003,0,RJOO,,,,0,20180131200000,-1,-1,-1,-1,999,-1,1,-1,-1,-1,-1,,9999,0,1,3,FEW 10   BKN 60   BKN 70,1,3,-1,3,1024,RJOO 312000Z VRB01KT 9999 VCSH FEW010 BKN060 BKN070 03/M03     Q1024 RMK 1ST010 6SC060 7AC070 A3024=,VC SH
20180131_210000.002,0,RJOO,,,,0,20180131210000,-1,-1,-1,-1,999,-1,2,-1,-1,-1,-1,,9999,0,1,3,FEW 10   BKN 45   BKN 60,1,3,-1,3,1024,RJOO 312100Z VRB02KT 9999 VCSH FEW010 BKN045 BKN060 03/M03     Q1024 RMK 1ST010 5CU045 6SC060 A3025=,VC SH
20180131_220000.002,0,RJOO,,,,0,20180131220000,-1,-1,-1,-1,340,-1,4,-1,-1,-1,-1,,9999,0,1,2,FEW 10   BKN 35,1,3,-1,1,1025,RJOO 312200Z 34004KT 9999 -RASN FEW010 BKN035 03/M01 Q1025 RMK     1ST010 7SC035 A3028=,- RA SN
20180131_230000.002,0,RJOO,,,,0,20180131230000,-1,-1,-1,-1,999,-1,1,-1,-1,-1,-1,,8000,0,1,3,FEW 9   BKN 25   BKN 35,1,2,1,0,1026,RJOO 312300Z VRB01KT 8000 -RASN FEW009 BKN025 BKN035 02/00     Q1026 RMK 1ST009 6SC025 7SC035 A3030=,- RA SN
20180201_000000.003,0,RJOO,,,,0,20180201000000,-1,-1,-1,-1,0,-1,0,-1,-1,-1,-1,,6000,0,1,3,FEW 8   BKN 20   BKN 30,1,2,-1,0,1026,RJOO 010000Z 00000KT 6000 -RASN FEW008 BKN020 BKN030 02/M00     Q1026 RMK 1ST008 5SC020 6SC030 A3031=,- RA SN
20180201_010000.002,0,RJOO,,,,0,20180201010000,-1,-1,-1,-1,0,-1,0,-1,-1,-1,-1,,4000,0,2,3,FEW 4   SCT 10   BKN 20,1,2,1,1,1026,RJOO 010100Z 00000KT 4000 -RA BR FEW004 SCT010 BKN020 02/01     Q1026 RMK 1ST004 4CU010 6SC020 A3030 MOD TURB OBS AT           0037Z HONMA BTN FL180 AND FL170 IN DES E190=,- RA; BR
20180201_020000.002,0,RJOO,,,,0,20180201020000,-1,-1,-1,-1,999,-1,1,-1,-1,-1,-1,,4000,0,2,3,FEW 4   SCT 6   BKN 20,1,3,1,1,1025,RJOO 010200Z VRB01KT 4000 -RASN BR FEW004 SCT006 BKN020 03/01     Q1025 RMK 1ST004 3ST006 6SC020 A3029=,- RA SN; BR
20180201_030000.003,0,RJOO,,,,0,20180201030000,-1,-1,-1,-1,999,-1,2,-1,-1,-1,-1,,6000,0,2,3,FEW 4   SCT 6   BKN 25,1,3,1,1,1024,RJOO 010300Z VRB02KT 6000 -RA BR FEW004 SCT006 BKN025 03/01     Q1024 RMK 1ST004 4ST006 6SC025 A3026=,- RA; BR
20180201_040000.003,0,RJOO,,,,0,20180201040000,-1,-1,-1,-1,310,-1,3,-1,-1,250,350,,7000,0,1,3,FEW 4   BKN 7   BKN 25,1,3,1,1,1023,RJOO 010400Z 31003KT 250V350 7000 -RA FEW004 BKN007 BKN025     03/01 Q1023 RMK 1ST004 5ST007 7SC025 A3022=,- RA
20180201_050000.002,0,RJOO,,,,0,20180201050000,-1,-1,-1,-1,340,-1,5,-1,-1,310,50,,8000,0,1,3,FEW 4   BKN 10   BKN 30,1,4,1,1,1022,RJOO 010500Z 34005KT 310V050 8000 -RA FEW004 BKN010 BKN030     04/01 Q1022 RMK 1ST004 5ST010 6CU030 A3020=,- RA
20180201_060000.002,0,RJOO,,,,0,20180201060000,-1,-1,-1,-1,330,-1,6,-1,-1,-1,-1,,9999,0,1,3,FEW 4   SCT 10   BKN 30,1,4,1,1,1022,RJOO 010600Z 33006KT 9999 -RA FEW004 SCT010 BKN030 04/01 Q1022     RMK 1ST004 4ST010 6CU030 A3020=,- RA
20180201_070000.002,0,RJOO,,,,0,20180201070000,-1,-1,-1,-1,330,-1,6,-1,-1,-1,-1,,9999,0,1,3,FEW 4   SCT 10   BKN 20,1,4,1,1,1022,RJOO 010700Z 33006KT 9999 -RA FEW004 SCT010 BKN020 04/01 Q1022     RMK 1ST004 4ST010 5CU020 A3021=,- RA
20180201_080000.002,0,RJOO,,,,0,20180201080000,-1,-1,-1,-1,999,-1,2,-1,-1,-1,-1,,9999,0,1,3,FEW 4   BKN 10   BKN 15,1,4,1,1,1023,RJOO 010800Z VRB02KT 9999 -RA FEW004 BKN010 BKN015 04/01 Q1023     RMK 1ST004 5ST010 6CU015 A3022=,- RA
20180201_090000.002,0,RJOO,,,,0,20180201090000,-1,-1,-1,-1,70,-1,3,-1,-1,40,100,,9999,0,1,3,FEW 4   BKN 10   BKN 15,1,4,1,1,1023,RJOO 010900Z 07003KT 040V100 9999 -RA FEW004 BKN010 BKN015     04/01 Q1023 RMK 1ST004 5ST010 6CU015 A3023=,- RA
20180201_100000.002,0,RJOO,,,,0,20180201100000,-1,-1,-1,-1,80,-1,3,-1,-1,-1,-1,,9999,0,1,3,FEW 4   SCT 10   BKN 40,1,4,1,1,1024,RJOO 011000Z 08003KT 9999 -RA FEW004 SCT010 BKN040 04/01 Q1024     RMK 1ST004 3ST010 6SC040 A3024=,- RA
20180201_110000.002,0,RJOO,,,,0,20180201110000,-1,-1,-1,-1,999,-1,2,-1,-1,-1,-1,,9999,0,1,3,FEW 4   SCT 10   BKN 40,1,3,1,2,1024,RJOO 011100Z VRB02KT 9999 -RA FEW004 SCT010 BKN040 03/02 Q1024     RMK 1ST004 3ST010 6SC040 A3025=,- RA
20180201_200000.003,0,RJOO,,,,0,20180201200000,-1,-1,-1,-1,310,-1,2,-1,-1,-1,-1,,9999,0,0,2,FEW 15   SCT 35,-1,1,-1,1,1023,RJOO 012000Z 31002KT 9999 FEW015 SCT035 M01/M01 Q1023 RMK     1CU015 3CU035 A3021=,
20180201_210000.002,0,RJOO,,,,0,20180201210000,-1,-1,-1,-1,320,-1,3,-1,-1,-1,-1,,9999,0,0,1,FEW 20,-1,1,-1,2,1023,RJOO 012100Z 32003KT 9999 FEW020 M01/M02 Q1023 RMK 1CU020     A3023=,
20180201_220000.002,0,RJOO,,,,0,20180201220000,-1,-1,-1,-1,999,-1,2,-1,-1,-1,-1,,5000,0,1,1,FEW 20,-1,1,-1,2,1023,RJOO 012200Z VRB02KT 5000 BR FEW020 M01/M02 Q1023 RMK 1CU020     A3023=,BR
20180201_230000.003,0,RJOO,,,,0,20180201230000,-1,-1,-1,-1,999,-1,2,-1,-1,-1,-1,,300,2,1,1,VV 2,1,1,1,1,1024,RJOO 012300Z VRB02KT 0300 R32R/0900VP2000U R32L/1200VP2000U FG     VV002 01/01 Q1024 RMK A3024 FG ALL QUAD=,FG
20180202_000000.002,0,RJOO,,,,0,20180202000000,-1,-1,-1,-1,30,-1,3,-1,-1,350,80,,400,2,1,1,VV 3,1,1,1,1,1023,RJOO 020000Z 03003KT 350V080 0400 R32R/0600V1300U     R32L/1400VP2000U FG VV003 01/01 Q1023 RMK A3023 FG ALL           QUAD=,FG
20180202_010000.002,0,RJOO,,,,0,20180202010000,-1,-1,-1,-1,999,-1,1,-1,-1,-1,-1,,5000,0,1,3,FEW 1   SCT 5   BKN -9999,1,4,1,2,1023,RJOO 020100Z VRB01KT 5000 BR FEW001 SCT005 BKN/// 04/02 Q1023     RMK 1ST001 3ST005 A3023=,BR
20180202_020000.002,0,RJOO,,,,0,20180202020000,-1,-1,-1,-1,999,-1,1,-1,-1,-1,-1,,9999,0,0,2,FEW 3   BKN -9999,1,6,-1,1,1023,RJOO 020200Z VRB01KT 9999 FEW003 BKN/// 06/M01 Q1023 RMK     1ST003 A3022=,
20180202_030000.002,0,RJOO,,,,0,20180202030000,-1,-1,-1,-1,999,-1,2,-1,-1,-1,-1,,9999,0,0,2,FEW 25   BKN -9999,1,7,-1,1,1022,RJOO 020300Z VRB02KT 9999 FEW025 BKN/// 07/M01 Q1022 RMK     1CU025 A3020=,
20180202_040000.002,0,RJOO,,,,0,20180202040000,-1,-1,-1,-1,230,-1,6,-1,-1,180,280,,9999,0,0,2,FEW 25   OVC -9999,1,7,-1,1,1022,RJOO 020400Z 23006KT 180V280 9999 FEW025 OVC/// 07/M01 Q1022     RMK 1CU025 A3019=,
20180202_050000.001,0,RJOO,,,,0,20180202050000,-1,-1,-1,-1,240,-1,4,-1,-1,200,300,,9999,0,0,3,FEW 25   SCT 150   OVC -9999,1,7,-1,1,1022,RJOO 020500Z 24004KT 200V300 9999 FEW025 SCT150 OVC/// 07/M01     Q1022 RMK 1CU025 3AC150 A3018=,
20180202_060000.002,0,RJOO,,,,0,20180202060000,-1,-1,-1,-1,999,-1,1,-1,-1,-1,-1,,9999,0,0,3,FEW 25   SCT 150   OVC -9999,1,7,-1,1,1021,RJOO 020600Z VRB01KT 9999 FEW025 SCT150 OVC/// 07/M01 Q1021     RMK 1CU025 4AC150 A3017=,
20180202_070000.002,0,RJOO,,,,0,20180202070000,-1,-1,-1,-1,260,-1,4,-1,-1,210,330,,9999,0,0,3,FEW 25   SCT 150   OVC -9999,1,7,-1,1,1021,RJOO 020700Z 26004KT 210V330 9999 FEW025 SCT150 OVC/// 07/M01     Q1021 RMK 1CU025 3AC150 A3016=,
20180202_080000.002,0,RJOO,,,,0,20180202080000,-1,-1,-1,-1,250,-1,3,-1,-1,220,280,,9999,0,0,2,FEW 25   BKN -9999,1,7,-1,0,1021,RJOO 020800Z 25003KT 220V280 9999 FEW025 BKN/// 07/M00 Q1021     RMK 1CU025 A3016=,
20180202_090000.002,0,RJOO,,,,0,20180202090000,-1,-1,-1,-1,999,-1,1,-1,-1,-1,-1,,9999,0,0,3,FEW 45   SCT 180   BKN -9999,1,6,1,0,1021,RJOO 020900Z VRB01KT 9999 FEW045 SCT180 BKN/// 06/00 Q1021 RMK     1CU045 3AC180 A3016=,
20180202_100000.003,0,RJOO,,,,0,20180202100000,-1,-1,-1,-1,250,-1,1,-1,-1,-1,-1,,9999,0,0,2,FEW 45   BKN -9999,1,5,1,1,1021,RJOO 021000Z 25001KT 9999 FEW045 BKN/// 05/01 Q1021 RMK 1CU045     A3015=,
20180202_110000.002,0,RJOO,,,,0,20180202110000,-1,-1,-1,-1,999,-1,1,-1,-1,-1,-1,CAVOK,-1,0,0,0,,1,4,1,1,1020,RJOO 021100Z VRB01KT CAVOK 04/01 Q1020 RMK A3015=,
20180202_200000.003,0,RJOO,,,,0,20180202200000,-1,-1,-1,-1,999,-1,1,-1,-1,-1,-1,,9999,0,0,2,FEW 10   BKN -9999,1,0,-1,1,1019,RJOO 022000Z VRB01KT 9999 FEW010 BKN/// 00/M01 Q1019 RMK     1ST010 A3010=,
20180202_210000.002,0,RJOO,,,,0,20180202210000,-1,-1,-1,-1,300,-1,2,-1,-1,-1,-1,,9000,0,0,2,FEW 10   BKN -9999,-1,0,-1,2,1019,RJOO 022100Z 30002KT 9000 FEW010 BKN/// M00/M02 Q1019 RMK     1ST010 A3010=,
20180202_220000.002,0,RJOO,,,,0,20180202220000,-1,-1,-1,-1,320,-1,3,-1,-1,-1,-1,,8000,0,0,3,FEW 7   SCT 70   BKN -9999,1,1,-1,1,1019,RJOO 022200Z 32003KT 8000 FEW007 SCT070 BKN/// 01/M01 Q1019     RMK 1ST007 4AC070 A3010=,
20180202_230000.003,0,RJOO,,,,0,20180202230000,-1,-1,-1,-1,0,-1,0,-1,-1,-1,-1,,8000,0,0,3,FEW 5   SCT 80   BKN -9999,1,1,-1,1,1019,RJOO 022300Z 00000KT 8000 FEW005 SCT080 BKN/// 01/M01 Q1019     RMK 1ST005 4AC080 A3010=,
20180203_000000.002,0,RJOO,,,,0,20180203000000,-1,-1,-1,-1,999,-1,1,-1,-1,-1,-1,,8000,0,0,3,FEW 5   SCT 40   BKN 60,1,3,-1,0,1019,RJOO 030000Z VRB01KT 8000 FEW005 SCT040 BKN060 03/M00 Q1019     RMK 1ST005 3CU040 5SC060 A3011=,
20180203_010000.003,0,RJOO,,,,0,20180203010000,-1,-1,-1,-1,999,-1,1,-1,-1,-1,-1,,7000,0,0,3,FEW 5   BKN 60   BKN 70,1,5,1,0,1019,RJOO 030100Z VRB01KT 7000 FEW005 BKN060 BKN070 05/00 Q1019 RMK     1ST005 5SC060 6AC070 A3011=,
20180203_020000.002,0,RJOO,,,,0,20180203020000,-1,-1,-1,-1,350,-1,8,-1,-1,320,20,,9999,0,0,3,FEW 15   SCT 60   BKN 70,1,8,-1,3,1018,RJOO 030200Z 35008KT 320V020 9999 FEW015 SCT060 BKN070 08/M03     Q1018 RMK 1CU015 3SC060 6AC070 A3008=,
20180203_030000.002,0,RJOO,,,,0,20180203030000,-1,-1,-1,-1,340,-1,7,-1,-1,300,360,,9999,0,0,3,FEW 15   BKN 40   BKN -9999,1,9,-1,3,1017,RJOO 030300Z 34007KT 300V360 9999 FEW015 BKN040 BKN/// 09/M03     Q1017 RMK 1CU015 5SC040 A3005=,
20180203_040000.002,0,RJOO,,,,0,20180203040000,-1,-1,-1,-1,330,-1,11,-1,-1,-1,-1,,9999,0,1,3,FEW 15   BKN 40   BKN -9999,1,8,-1,3,1017,RJOO 030400Z 33011KT 9999 VCSH FEW015 BKN040 BKN/// 08/M03     Q1017 RMK 1CU015 5CU040 A3003=,VC SH
20180203_050000.002,0,RJOO,,,,0,20180203050000,-1,-1,-1,-1,320,-1,10,-1,-1,-1,-1,,9999,0,1,3,FEW 10   SCT 25   BKN 50,1,7,-1,3,1017,RJOO 030500Z 32010KT 9999 -SHRA FEW010 SCT025 BKN050 07/M03     Q1017 RMK 1ST010 3CU025 5SC050 A3003=,- RA SH
20180203_060000.002,0,RJOO,,,,0,20180203060000,-1,-1,-1,-1,310,-1,7,-1,-1,270,340,,9999,0,1,3,FEW 15   SCT 30   BKN 60,1,7,-1,4,1016,RJOO 030600Z 31007KT 270V340 9999 VCSH FEW015 SCT030 BKN060     07/M04 Q1016 RMK 1CU015 3CU030 5SC060 A3003=,VC SH
20180203_070000.003,0,RJOO,,,,0,20180203070000,-1,-1,-1,-1,250,-1,6,-1,-1,220,310,,9999,0,1,3,FEW 15   SCT 35   BKN 60,1,7,-1,2,1016,RJOO 030700Z 25006KT 220V310 9999 VCSH FEW015 SCT035 BKN060     07/M02 Q1016 RMK 1CU015 3CU035 5SC060 A3003=,VC SH
20180203_080000.002,0,RJOO,,,,0,20180203080000,-1,-1,-1,-1,340,-1,11,-1,-1,-1,-1,,9999,0,1,3,FEW 15   SCT 25   BKN 45,1,5,-1,2,1017,RJOO 030800Z 34011KT 9999 VCSH FEW015 SCT025 BKN045 05/M02     Q1017 RMK 1CU015 3CU025 5SC045 A3005=,VC SH
20180203_090000.002,0,RJOO,,,,0,20180203090000,-1,-1,-1,-1,310,-1,5,-1,-1,-1,-1,,9999,0,1,2,FEW 25   SCT 60,1,5,-1,2,1017,RJOO 030900Z 31005KT 9999 VCSH FEW025 SCT060 05/M02 Q1017 RMK     1CU025 3SC060 A3005=,VC SH
20180203_100000.002,0,RJOO,,,,0,20180203100000,-1,-1,-1,-1,310,-1,3,-1,-1,270,340,,9999,0,0,1,FEW 25,1,4,-1,3,1017,RJOO 031000Z 31003KT 270V340 9999 FEW025 04/M03 Q1017 RMK     1CU025 A3004=,
20180203_110000.002,0,RJOO,,,,0,20180203110000,-1,-1,-1,-1,300,-1,3,-1,-1,260,320,,9999,0,0,1,FEW 25,1,3,-1,3,1017,RJOO 031100Z 30003KT 260V320 9999 FEW025 03/M03 Q1017 RMK     1CU025 A3004=,
20180203_200000.002,0,RJOO,,,,0,20180203200000,-1,-1,-1,-1,250,-1,3,-1,-1,210,320,,9999,0,0,2,FEW 30   SCT -9999,1,1,-1,8,1016,RJOO 032000Z 25003KT 210V320 9999 FEW030 SCT/// 01/M08 Q1016     RMK 1CU030 A3002=,
20180203_210000.002,0,RJOO,,,,0,20180203210000,-1,-1,-1,-1,999,-1,2,-1,-1,-1,-1,,9999,0,0,2,FEW 30   SCT -9999,1,0,-1,8,1017,RJOO 032100Z VRB02KT 9999 FEW030 SCT/// 00/M08 Q1017 RMK     1CU030 A3003=,
20180203_220000.002,0,RJOO,,,,0,20180203220000,-1,-1,-1,-1,260,-1,4,-1,-1,230,300,,9999,0,0,1,FEW 30,1,1,-1,8,1017,RJOO 032200Z 26004KT 230V300 9999 FEW030 01/M08 Q1017 RMK     1CU030 A3003=,
20180203_230000.002,0,RJOO,,,,0,20180203230000,-1,-1,-1,-1,250,-1,3,-1,-1,220,330,,9999,0,0,1,FEW 30,1,2,-1,10,1017,RJOO 032300Z 25003KT 220V330 9999 FEW030 02/M10 Q1017 RMK     1CU030 A3004=,
20180204_000000.002,0,RJOO,,,,0,20180204000000,-1,-1,-1,-1,260,-1,6,-1,-1,220,320,,9999,0,0,1,FEW 30,1,3,-1,10,1017,RJOO 040000Z 26006KT 220V320 9999 FEW030 03/M10 Q1017 RMK     1CU030 A3005=,
20180204_010000.002,0,RJOO,,,,0,20180204010000,-1,-1,-1,-1,270,-1,7,-1,-1,210,310,,9999,0,0,2,FEW 25   SCT 45,1,4,-1,11,1017,RJOO 040100Z 27007KT 210V310 9999 FEW025 SCT045 04/M11 Q1017     RMK 1CU025 4CU045 A3005=,
20180204_020000.002,0,RJOO,,,,0,20180204020000,-1,-1,-1,-1,240,-1,12,-1,24,210,290,,9999,0,0,2,FEW 25   SCT 50,1,4,-1,14,1017,RJOO 040200Z 24012G24KT 210V290 9999 FEW025 SCT050 04/M14     Q1017 RMK 1CU025 4SC050 A3003=,
20180204_030000.002,0,RJOO,,,,0,20180204030000,-1,-1,-1,-1,250,-1,15,-1,-1,220,280,,9999,0,0,2,FEW 25   SCT 50,1,4,-1,14,1015,RJOO 040300Z 25015KT 220V280 9999 FEW025 SCT050 04/M14 Q1015     RMK 1CU025 3SC050 A3000=,
20180204_040000.002,0,RJOO,,,,0,20180204040000,-1,-1,-1,-1,240,-1,11,-1,-1,200,280,,9999,0,0,1,FEW 25,1,5,-1,13,1014,RJOO 040400Z 24011KT 200V280 9999 FEW025 05/M13 Q1014 RMK     1CU025 A2996=,
20180204_050000.002,0,RJOO,,,,0,20180204050000,-1,-1,-1,-1,240,-1,13,-1,-1,210,270,,9999,0,0,2,FEW 30   SCT 60,1,5,-1,13,1014,RJOO 040500Z 24013KT 210V270 9999 FEW030 SCT060 05/M13 Q1014     RMK 1CU030 3SC060 A2997=,
20180204_060000.002,0,RJOO,,,,0,20180204060000,-1,-1,-1,-1,250,-1,11,-1,22,220,280,,9999,0,0,1,FEW 30,1,5,-1,12,1015,RJOO 040600Z 25011G22KT 220V280 9999 FEW030 05/M12 Q1015 RMK     1CU030 A2997=,
20180204_070000.002,0,RJOO,,,,0,20180204070000,-1,-1,-1,-1,240,-1,13,-1,-1,-1,-1,,9999,0,0,1,FEW 30,1,5,-1,11,1015,RJOO 040700Z 24013KT 9999 FEW030 05/M11 Q1015 RMK 1CU030     A2998=,
20180204_080000.002,0,RJOO,,,,0,20180204080000,-1,-1,-1,-1,240,-1,12,-1,-1,210,280,,9999,0,0,1,FEW 25,1,4,-1,11,1015,RJOO 040800Z 24012KT 210V280 9999 FEW025 04/M11 Q1015 RMK     1CU025 A2998=,
20180204_090000.002,0,RJOO,,,,0,20180204090000,-1,-1,-1,-1,250,-1,9,-1,-1,220,300,,9999,0,0,2,FEW 25   SCT 70,1,4,-1,11,1015,RJOO 040900Z 25009KT 220V300 9999 FEW025 SCT070 04/M11 Q1015     RMK 1CU025 3AC070 A3000=,
20180204_100000.002,0,RJOO,,,,0,20180204100000,-1,-1,-1,-1,250,-1,7,-1,-1,210,290,,9999,0,0,1,FEW 25,1,3,-1,11,1016,RJOO 041000Z 25007KT 210V290 9999 FEW025 03/M11 Q1016 RMK     1CU025 A3001=,
20180204_110000.003,0,RJOO,,,,0,20180204110000,-1,-1,-1,-1,280,-1,8,-1,18,190,320,,9999,0,0,1,FEW 30,1,3,-1,12,1016,RJOO 041100Z 28008G18KT 190V320 9999 FEW030 03/M12 Q1016 RMK     1CU030 A3000=,
20180204_200000.002,0,RJOO,,,,0,20180204200000,-1,-1,-1,-1,320,-1,5,-1,-1,-1,-1,,9999,0,0,1,FEW 30,-1,1,-1,9,1017,RJOO 042000Z 32005KT 9999 FEW030 M01/M09 Q1017 RMK 1CU030     A3003=,
20180204_210000.002,0,RJOO,,,,0,20180204210000,-1,-1,-1,-1,310,-1,5,-1,-1,-1,-1,,9999,0,0,1,FEW 25,-1,1,-1,9,1017,RJOO 042100Z 31005KT 9999 FEW025 M01/M09 Q1017 RMK 1CU025     A3003=,
20180204_220000.002,0,RJOO,,,,0,20180204220000,-1,-1,-1,-1,310,-1,4,-1,-1,270,340,,9999,0,0,1,FEW 25,-1,1,-1,9,1017,RJOO 042200Z 31004KT 270V340 9999 FEW025 M01/M09 Q1017 RMK     1CU025 A3005=,
20180204_230000.002,0,RJOO,,,,0,20180204230000,-1,-1,-1,-1,330,-1,8,-1,-1,-1,-1,,9999,0,0,2,FEW 25   BKN -9999,1,0,-1,8,1017,RJOO 042300Z 33008KT 9999 FEW025 BKN/// 00/M08 Q1017 RMK     1CU025 A3005=,
20180205_000000.003,0,RJOO,,,,0,20180205000000,-1,-1,-1,-1,330,-1,6,-1,-1,250,10,,9999,0,0,2,FEW 25   SCT -9999,1,2,-1,9,1017,RJOO 050000Z 33006KT 250V010 9999 FEW025 SCT/// 02/M09 Q1017     RMK 1CU025 A3005 MOD TURB OBS AT 2332Z YODOH 4000FT IN           CMB B788=,
20180205_010000.002,0,RJOO,,,,0,20180205010000,-1,-1,-1,-1,230,-1,8,-1,-1,190,270,,9999,0,0,2,FEW 25   SCT -9999,1,3,-1,10,1017,RJOO 050100Z 23008KT 190V270 9999 FEW025 SCT/// 03/M10 Q1017     RMK 1CU025 A3003=,
20180205_020000.002,0,RJOO,,,,0,20180205020000,-1,-1,-1,-1,250,-1,10,-1,-1,220,280,,9999,0,0,1,FEW 30,1,4,-1,11,1016,RJOO 050200Z 25010KT 220V280 9999 FEW030 04/M11 Q1016 RMK     1CU030 A3002=,
