20180101_000000.003,0,RJOP,,,,0,20180101000000,-1,-1,-1,-1,300,-1,14,-1,24,-1,-1,,9999,0,0,1,FEW 30,1,7,-1,3,1020,RJOP 010000Z 30014G24KT 9999 FEW030 07/M03 Q1020 RMK 1CU030     A3014=,
20180101_010000.003,0,RJOP,,,,0,20180101010000,-1,-1,-1,-1,310,-1,15,-1,25,-1,-1,,9999,0,0,1,FEW 30,1,8,-1,4,1021,RJOP 010100Z 31015G25KT 9999 FEW030 08/M04 Q1021 RMK 1CU030     A3015=,
20180101_020000.003,0,RJOP,,,,0,20180101020000,-1,-1,-1,-1,320,-1,20,-1,-1,-1,-1,,9999,0,0,1,FEW 30,1,8,-1,5,1020,RJOP 010200Z 32020KT 9999 FEW030 08/M05 Q1020 RMK 1CU030     A3014=,
20180101_030000.003,0,RJOP,,,,0,20180101030000,-1,-1,-1,-1,290,-1,22,-1,32,-1,-1,,9999,0,0,1,FEW 30,1,9,-1,5,1019,RJOP 010300Z 29022G32KT 9999 FEW030 09/M05 Q1019 RMK 1CU030     A3011=,
20180101_040000.003,0,RJOP,,,,0,20180101040000,-1,-1,-1,-1,310,-1,19,-1,31,-1,-1,,9999,0,0,1,FEW 30,1,9,-1,5,1019,RJOP 010400Z 31019G31KT 9999 FEW030 09/M05 Q1019 RMK 1CU030     A3010=,
20180101_050000.003,0,RJOP,,,,0,20180101050000,-1,-1,-1,-1,300,-1,17,-1,27,-1,-1,,9999,0,0,2,FEW 30   SCT 60,1,9,-1,4,1019,RJOP 010500Z 30017G27KT 9999 FEW030 SCT060 09/M04 Q1019 RMK     1CU030 3SC060 A3011=,
20180101_060000.003,0,RJOP,,,,0,20180101060000,-1,-1,-1,-1,300,-1,18,-1,28,-1,-1,,9999,0,0,2,FEW 30   SCT 60,1,9,-1,3,1019,RJOP 010600Z 30018G28KT 9999 FEW030 SCT060 09/M03 Q1019 RMK     1CU030 3SC060 A3011=,
20180101_070000.003,0,RJOP,,,,0,20180101070000,-1,-1,-1,-1,300,-1,17,-1,29,-1,-1,,9999,0,0,2,FEW 30   SCT 60,1,8,-1,4,1020,RJOP 010700Z 30017G29KT 9999 FEW030 SCT060 08/M04 Q1020 RMK     1CU030 3SC060 A3013=,
20180101_080000.003,0,RJOP,,,,0,20180101080000,-1,-1,-1,-1,290,-1,12,-1,-1,-1,-1,,9999,0,0,2,FEW 30   SCT 70,1,8,-1,3,1020,RJOP 010800Z 29012KT 9999 FEW030 SCT070 08/M03 Q1020 RMK     1CU030 4AC070 A3013=,
20180101_090000.003,0,RJOP,,,,0,20180101090000,-1,-1,-1,-1,300,-1,13,-1,-1,-1,-1,,9999,0,0,2,FEW 30   BKN 60,1,8,-1,3,1021,RJOP 010900Z 30013KT 9999 FEW030 BKN060 08/M03 Q1021 RMK     1CU030 6SC060 A3015=,
20180101_100000.003,0,RJOP,,,,0,20180101100000,-1,-1,-1,-1,300,-1,10,-1,-1,-1,-1,,9999,0,0,2,FEW 30   BKN 50,1,8,-1,3,1021,RJOP 011000Z 30010KT 9999 FEW030 BKN050 08/M03 Q1021 RMK     1CU030 6SC050 A3018=,
20180101_110000.003,0,RJOP,,,,0,20180101110000,-1,-1,-1,-1,320,-1,16,-1,26,-1,-1,,9999,0,0,2,FEW 30   BKN 50,1,7,-1,2,1022,RJOP 011100Z 32016G26KT 9999 FEW030 BKN050 07/M02 Q1022 RMK     1CU030 5SC050 A3019=,
20180101_120000.003,0,RJOP,,,,0,20180101120000,-1,-1,-1,-1,300,-1,15,-1,-1,-1,-1,,9999,0,0,1,FEW 30,1,6,-1,3,1022,RJOP 011200Z 30015KT 9999 FEW030 06/M03 Q1022 RMK 1CU030     A3020=,
20180101_130000.003,0,RJOP,,,,0,20180101130000,-1,-1,-1,-1,290,-1,16,-1,-1,-1,-1,,9999,0,0,1,FEW 30,1,6,-1,3,1022,RJOP 011300Z 29016KT 9999 FEW030 06/M03 Q1022 RMK 1CU030     A3021=,
20180101_140000.003,0,RJOP,,,,0,20180101140000,-1,-1,-1,-1,300,-1,17,-1,27,-1,-1,,9999,0,0,1,FEW 30,1,6,-1,2,1023,RJOP 011400Z 30017G27KT 9999 FEW030 06/M02 Q1023 RMK 2CU030     A3021=,
20180101_150000.003,0,RJOP,,,,0,20180101150000,-1,-1,-1,-1,310,-1,15,-1,-1,-1,-1,,9999,0,0,2,FEW 30   SCT 60,1,6,-1,3,1023,RJOP 011500Z 31015KT 9999 FEW030 SCT060 06/M03 Q1023 RMK     1CU030 4SC060 A3021=,
20180101_160000.003,0,RJOP,,,,0,20180101160000,-1,-1,-1,-1,310,-1,18,-1,-1,-1,-1,,9999,0,0,2,FEW 30   BKN 60,1,6,-1,3,1022,RJOP 011600Z 31018KT 9999 FEW030 BKN060 06/M03 Q1022 RMK     1CU030 5SC060 A3021=,
20180101_170000.003,0,RJOP,,,,0,20180101170000,-1,-1,-1,-1,300,-1,14,-1,24,-1,-1,,9999,0,0,1,FEW 30,1,6,-1,3,1023,RJOP 011700Z 30014G24KT 9999 FEW030 06/M03 Q1023 RMK 1CU030     A3021=,
20180101_180000.004,0,RJOP,,,,0,20180101180000,-1,-1,-1,-1,280,-1,13,-1,-1,-1,-1,,9999,0,0,2,FEW 30   SCT 60,1,6,-1,3,1023,RJOP 011800Z 28013KT 9999 FEW030 SCT060 06/M03 Q1023 RMK     1CU030 4SC060 A3021=,
20180101_190000.004,0,RJOP,,,,0,20180101190000,-1,-1,-1,-1,280,-1,12,-1,-1,-1,-1,,9999,0,0,2,FEW 30   BKN 60,1,6,-1,4,1022,RJOP 011900Z 28012KT 9999 FEW030 BKN060 06/M04 Q1022 RMK     1CU030 6SC060 A3021=,
20180101_200000.004,0,RJOP,,,,0,20180101200000,-1,-1,-1,-1,300,-1,16,-1,26,-1,-1,,9999,0,0,2,FEW 30   BKN 60,1,6,-1,4,1023,RJOP 012000Z 30016G26KT 9999 FEW030 BKN060 06/M04 Q1023 RMK     1CU030 5SC060 A3021=,
20180101_210000.003,0,RJOP,,,,0,20180101210000,-1,-1,-1,-1,300,-1,16,-1,-1,-1,-1,,9999,0,0,2,FEW 30   BKN 60,1,6,-1,3,1023,RJOP 012100Z 30016KT 9999 FEW030 BKN060 06/M03 Q1023 RMK     1CU030 6SC060 A3022=,
20180101_220000.003,0,RJOP,,,,0,20180101220000,-1,-1,-1,-1,290,-1,14,-1,-1,-1,-1,,9999,0,0,2,FEW 30   SCT 60,1,6,-1,3,1023,RJOP 012200Z 29014KT 9999 FEW030 SCT060 06/M03 Q1023 RMK     1CU030 4SC060 A3024=,
20180101_230000.003,0,RJOP,,,,0,20180101230000,-1,-1,-1,-1,290,-1,15,-1,-1,-1,-1,,9999,0,0,1,FEW 30,1,6,-1,3,1024,RJOP 012300Z 29015KT 9999 FEW030 06/M03 Q1024 RMK 1CU030     A3025=,
20180102_000000.004,0,RJOP,,,,0,20180102000000,-1,-1,-1,-1,300,-1,16,-1,-1,-1,-1,,9999,0,0,1,FEW 30,1,7,-1,3,1024,RJOP 020000Z 30016KT 9999 FEW030 07/M03 Q1024 RMK 1CU030     A3026=,
20180102_010000.004,0,RJOP,,,,0,20180102010000,-1,-1,-1,-1,300,-1,16,-1,26,-1,-1,,9999,0,0,1,FEW 30,1,8,-1,3,1024,RJOP 020100Z 30016G26KT 9999 FEW030 08/M03 Q1024 RMK 1CU030     A3025=,
20180102_020000.003,0,RJOP,,,,0,20180102020000,-1,-1,-1,-1,300,-1,18,-1,28,-1,-1,,9999,0,0,1,FEW 30,1,9,-1,3,1023,RJOP 020200Z 30018G28KT 9999 FEW030 09/M03 Q1023 RMK 1CU030     A3023=,
20180102_030000.003,0,RJOP,,,,0,20180102030000,-1,-1,-1,-1,300,-1,16,-1,27,-1,-1,,9999,0,0,1,FEW 30,1,9,-1,4,1022,RJOP 020300Z 30016G27KT 9999 FEW030 09/M04 Q1022 RMK 1CU030     A3018=,
20180102_040000.003,0,RJOP,,,,0,20180102040000,-1,-1,-1,-1,320,-1,17,-1,-1,-1,-1,,9999,0,0,1,FEW 30,1,10,-1,3,1021,RJOP 020400Z 32017KT 9999 FEW030 10/M03 Q1021 RMK 1CU030     A3016=,
20180102_050000.003,0,RJOP,,,,0,20180102050000,-1,-1,-1,-1,310,-1,9,-1,-1,250,350,,9999,0,0,1,FEW 30,1,10,-1,3,1021,RJOP 020500Z 31009KT 250V350 9999 FEW030 10/M03 Q1021 RMK     1CU030 A3015=,
20180102_060000.003,0,RJOP,,,,0,20180102060000,-1,-1,-1,-1,310,-1,16,-1,-1,-1,-1,,9999,0,0,1,FEW 30,1,10,-1,3,1020,RJOP 020600Z 31016KT 9999 FEW030 10/M03 Q1020 RMK 1CU030     A3015=,
20180102_070000.003,0,RJOP,,,,0,20180102070000,-1,-1,-1,-1,300,-1,15,-1,-1,-1,-1,,9999,0,0,1,FEW 30,1,10,-1,3,1021,RJOP 020700Z 30015KT 9999 FEW030 10/M03 Q1021 RMK 1CU030     A3016=,
20180102_080000.003,0,RJOP,,,,0,20180102080000,-1,-1,-1,-1,290,-1,10,-1,-1,-1,-1,,9999,0,0,1,FEW 30,1,9,-1,3,1021,RJOP 020800Z 29010KT 9999 FEW030 09/M03 Q1021 RMK 1CU030     A3015=,
20180102_090000.003,0,RJOP,,,,0,20180102090000,-1,-1,-1,-1,290,-1,8,-1,-1,-1,-1,,9999,0,0,1,FEW 30,1,9,-1,3,1020,RJOP 020900Z 29008KT 9999 FEW030 09/M03 Q1020 RMK 1CU030     A3015=,
20180102_100000.003,0,RJOP,,,,0,20180102100000,-1,-1,-1,-1,290,-1,12,-1,-1,-1,-1,,9999,0,0,1,FEW 30,1,9,-1,2,1021,RJOP 021000Z 29012KT 9999 FEW030 09/M02 Q1021 RMK 1CU030     A3016=,
20180102_110000.003,0,RJOP,,,,0,20180102110000,-1,-1,-1,-1,300,-1,11,-1,-1,-1,-1,,9999,0,0,1,FEW 30,1,8,-1,2,1021,RJOP 021100Z 30011KT 9999 FEW030 08/M02 Q1021 RMK 1CU030     A3016=,
20180102_120000.003,0,RJOP,,,,0,20180102120000,-1,-1,-1,-1,300,-1,14,-1,-1,-1,-1,,9999,0,0,1,FEW 30,1,8,-1,2,1021,RJOP 021200Z 30014KT 9999 FEW030 08/M02 Q1021 RMK 1CU030     A3016=,
20180102_130000.004,0,RJOP,,,,0,20180102130000,-1,-1,-1,-1,300,-1,10,-1,-1,-1,-1,,9999,0,0,1,FEW 30,1,7,-1,3,1021,RJOP 021300Z 30010KT 9999 FEW030 07/M03 Q1021 RMK 1CU030     A3015=,
20180102_140000.004,0,RJOP,,,,0,20180102140000,-1,-1,-1,-1,300,-1,12,-1,-1,-1,-1,,9999,0,0,1,FEW 30,1,7,-1,2,1020,RJOP 021400Z 30012KT 9999 FEW030 07/M02 Q1020 RMK 1CU030     A3013=,
20180102_150000.003,0,RJOP,,,,0,20180102150000,-1,-1,-1,-1,310,-1,8,-1,-1,-1,-1,,9999,0,0,1,FEW 30,1,7,-1,3,1019,RJOP 021500Z 31008KT 9999 FEW030 07/M03 Q1019 RMK 1CU030     A3010=,
20180102_160000.003,0,RJOP,,,,0,20180102160000,-1,-1,-1,-1,250,-1,3,-1,-1,190,350,,9999,0,0,1,FEW 30,1,7,-1,1,1019,RJOP 021600Z 25003KT 190V350 9999 FEW030 07/M01 Q1019 RMK     1CU030 A3009=,
20180102_170000.003,0,RJOP,,,,0,20180102170000,-1,-1,-1,-1,240,-1,3,-1,-1,190,300,,9999,0,0,1,FEW 30,1,6,-1,1,1019,RJOP 021700Z 24003KT 190V300 9999 FEW030 06/M01 Q1019 RMK     1CU030 A3011=,
20180102_180000.004,0,RJOP,,,,0,20180102180000,-1,-1,-1,-1,300,-1,15,-1,-1,260,330,,9999,0,0,1,FEW 30,1,8,-1,2,1018,RJOP 021800Z 30015KT 260V330 9999 FEW030 08/M02 Q1018 RMK     1CU030 A3009=,
20180102_190000.003,0,RJOP,,,,0,20180102190000,-1,-1,-1,-1,300,-1,15,-1,26,260,330,,9999,0,0,1,FEW 30,1,8,-1,2,1018,RJOP 021900Z 30015G26KT 260V330 9999 FEW030 08/M02 Q1018 RMK     1CU030 A3008=,
20180102_200000.004,0,RJOP,,,,0,20180102200000,-1,-1,-1,-1,310,-1,20,-1,30,270,330,,9999,0,0,1,FEW 30,1,8,-1,1,1019,RJOP 022000Z 31020G30KT 270V330 9999 FEW030 08/M01 Q1019 RMK     1CU030 A3010=,
20180102_210000.003,0,RJOP,,,,0,20180102210000,-1,-1,-1,-1,310,-1,20,-1,32,-1,-1,,9999,0,0,1,FEW 30,1,8,-1,4,1020,RJOP 022100Z 31020G32KT 9999 FEW030 08/M04 Q1020 RMK 1CU030     A3013=,
20180102_220000.003,0,RJOP,,,,0,20180102220000,-1,-1,-1,-1,310,-1,20,-1,30,-1,-1,,9999,0,0,2,FEW 30   BKN 60,1,8,-1,2,1021,RJOP 022200Z 31020G30KT 9999 FEW030 BKN060 08/M02 Q1021 RMK     1CU030 7SC060 A3015=,
20180102_230000.003,0,RJOP,,,,0,20180102230000,-1,-1,-1,-1,320,-1,17,-1,-1,-1,-1,,9999,0,0,2,FEW 30   SCT 60,1,7,-1,2,1021,RJOP 022300Z 32017KT 9999 FEW030 SCT060 07/M02 Q1021 RMK     2CU030 3SC060 A3016=,
20180103_000000.003,0,RJOP,,,,0,20180103000000,-1,-1,-1,-1,330,-1,20,-1,-1,-1,-1,,9999,0,0,2,FEW 30   BKN 50,1,7,-1,0,1021,RJOP 030000Z 33020KT 9999 FEW030 BKN050 07/M00 Q1021 RMK     1CU030 6SC050 A3018=,
20180103_010000.003,0,RJOP,,,,0,20180103010000,-1,-1,-1,-1,310,-1,21,-1,31,-1,-1,,9999,0,0,3,FEW 30   BKN 50   BKN 70,1,8,-1,2,1021,RJOP 030100Z 31021G31KT 9999 FEW030 BKN050 BKN070 08/M02 Q1021     RMK 1CU030 5SC050 6AC070 A3017=,
20180103_020000.003,0,RJOP,,,,0,20180103020000,-1,-1,-1,-1,310,-1,21,-1,31,-1,-1,,9999,0,0,2,FEW 30   BKN 50,1,8,-1,3,1021,RJOP 030200Z 31021G31KT 9999 FEW030 BKN050 08/M03 Q1021 RMK     1CU030 5SC050 A3016=,
20180103_030000.004,0,RJOP,,,,0,20180103030000,-1,-1,-1,-1,330,-1,22,-1,-1,-1,-1,,9999,0,0,2,FEW 30   BKN 50,1,8,-1,2,1021,RJOP 030300Z 33022KT 9999 FEW030 BKN050 08/M02 Q1021 RMK     2CU030 6SC050 A3015=,
20180103_040000.003,0,RJOP,,,,0,20180103040000,-1,-1,-1,-1,320,-1,23,-1,33,-1,-1,,9999,0,1,2,FEW 30   BKN 50,1,7,-1,2,1020,RJOP 030400Z 32023G33KT 9999 VCSH FEW030 BKN050 07/M02 Q1020     RMK 2CU030 6SC050 A3013=,VC SH
20180103_050000.003,0,RJOP,,,,0,20180103050000,-1,-1,-1,-1,330,-1,22,-1,32,-1,-1,,9999,0,0,2,FEW 30   SCT 50,1,7,-1,1,1020,RJOP 030500Z 33022G32KT 9999 FEW030 SCT050 07/M01 Q1020 RMK     2CU030 4SC050 A3013=,
20180103_060000.003,0,RJOP,,,,0,20180103060000,-1,-1,-1,-1,330,-1,20,-1,-1,-1,-1,,9999,0,0,2,FEW 30   BKN 50,1,7,-1,1,1020,RJOP 030600Z 33020KT 9999 FEW030 BKN050 07/M01 Q1020 RMK     2CU030 5SC050 A3014=,
20180103_070000.003,0,RJOP,,,,0,20180103070000,-1,-1,-1,-1,330,-1,19,-1,-1,-1,-1,,9999,0,0,2,FEW 30   BKN 50,1,7,-1,2,1021,RJOP 030700Z 33019KT 9999 FEW030 BKN050 07/M02 Q1021 RMK     2CU030 6SC050 A3017=,
20180103_080000.003,0,RJOP,,,,0,20180103080000,-1,-1,-1,-1,330,-1,21,-1,-1,-1,-1,,9999,0,0,3,FEW 30   SCT 50   BKN 230,1,7,-1,4,1021,RJOP 030800Z 33021KT 9999 FEW030 SCT050 BKN230 07/M04 Q1021     RMK 1CU030 3SC050 A3016=,
20180103_090000.003,0,RJOP,,,,0,20180103090000,-1,-1,-1,-1,320,-1,18,-1,-1,-1,-1,,9999,0,0,2,FEW 30   SCT 70,1,6,-1,4,1022,RJOP 030900Z 32018KT 9999 FEW030 SCT070 06/M04 Q1022 RMK     1CU030 4AC070 A3019=,
20180103_100000.003,0,RJOP,,,,0,20180103100000,-1,-1,-1,-1,320,-1,16,-1,-1,-1,-1,,9999,0,0,1,FEW 30,1,6,-1,4,1022,RJOP 031000Z 32016KT 9999 FEW030 06/M04 Q1022 RMK 1CU030     A3021=,
20180103_110000.003,0,RJOP,,,,0,20180103110000,-1,-1,-1,-1,320,-1,14,-1,24,-1,-1,,9999,0,0,1,FEW 30,1,5,-1,5,1023,RJOP 031100Z 32014G24KT 9999 FEW030 05/M05 Q1023 RMK 1CU030     A3022=,
20180103_120000.003,0,RJOP,,,,0,20180103120000,-1,-1,-1,-1,310,-1,14,-1,-1,-1,-1,,9999,0,0,1,FEW 30,1,5,-1,4,1023,RJOP 031200Z 31014KT 9999 FEW030 05/M04 Q1023 RMK 1CU030     A3023=,
20180103_130000.004,0,RJOP,,,,0,20180103130000,-1,-1,-1,-1,300,-1,11,-1,-1,-1,-1,,9999,0,0,1,FEW 30,1,4,-1,4,1024,RJOP 031300Z 30011KT 9999 FEW030 04/M04 Q1024 RMK 1CU030     A3025=,
20180103_140000.003,0,RJOP,,,,0,20180103140000,-1,-1,-1,-1,280,-1,9,-1,-1,-1,-1,,9999,0,0,2,FEW 30   SCT 60,1,4,-1,4,1024,RJOP 031400Z 28009KT 9999 FEW030 SCT060 04/M04 Q1024 RMK     1CU030 3SC060 A3025=,
20180103_150000.003,0,RJOP,,,,0,20180103150000,-1,-1,-1,-1,290,-1,9,-1,-1,-1,-1,,9999,0,0,2,FEW 30   BKN 60,1,4,-1,4,1024,RJOP 031500Z 29009KT 9999 FEW030 BKN060 04/M04 Q1024 RMK     1CU030 5SC060 A3024=,
20180103_160000.003,0,RJOP,,,,0,20180103160000,-1,-1,-1,-1,290,-1,11,-1,-1,-1,-1,,9999,0,0,1,FEW 30,1,4,-1,4,1023,RJOP 031600Z 29011KT 9999 FEW030 04/M04 Q1023 RMK 1CU030     A3023=,
20180103_170000.003,0,RJOP,,,,0,20180103170000,-1,-1,-1,-1,300,-1,11,-1,-1,-1,-1,,9999,0,0,1,FEW 30,1,4,-1,4,1023,RJOP 031700Z 30011KT 9999 FEW030 04/M04 Q1023 RMK 1CU030     A3023=,
20180103_180000.003,0,RJOP,,,,0,20180103180000,-1,-1,-1,-1,270,-1,12,-1,-1,-1,-1,,9999,0,0,1,FEW 30,1,3,-1,3,1023,RJOP 031800Z 27012KT 9999 FEW030 03/M03 Q1023 RMK 1CU030     A3023=,
20180103_190000.003,0,RJOP,,,,0,20180103190000,-1,-1,-1,-1,290,-1,12,-1,-1,-1,-1,,9999,0,0,1,FEW 30,1,4,-1,4,1023,RJOP 031900Z 29012KT 9999 FEW030 04/M04 Q1023 RMK 1CU030     A3022=,
20180103_200000.003,0,RJOP,,,,0,20180103200000,-1,-1,-1,-1,300,-1,13,-1,-1,-1,-1,,9999,0,0,1,FEW 30,1,4,-1,4,1023,RJOP 032000Z 30013KT 9999 FEW030 04/M04 Q1023 RMK 1CU030     A3021=,
20180103_210000.004,0,RJOP,,,,0,20180103210000,-1,-1,-1,-1,290,-1,14,-1,-1,-1,-1,,9999,0,0,1,FEW 30,1,4,-1,3,1023,RJOP 032100Z 29014KT 9999 FEW030 04/M03 Q1023 RMK 1CU030     A3023=,
20180103_220000.003,0,RJOP,,,,0,20180103220000,-1,-1,-1,-1,290,-1,13,-1,-1,-1,-1,,9999,0,0,1,FEW 30,1,3,-1,4,1023,RJOP 032200Z 29013KT 9999 FEW030 03/M04 Q1023 RMK 1CU030     A3023=,
20180103_230000.003,0,RJOP,,,,0,20180103230000,-1,-1,-1,-1,290,-1,11,-1,-1,-1,-1,,9999,0,0,2,FEW 30   SCT 230,1,3,-1,4,1024,RJOP 032300Z 29011KT 9999 FEW030 SCT230 03/M04 Q1024 RMK     1CU030 A3024=,
20180104_000000.003,0,RJOP,,,,0,20180104000000,-1,-1,-1,-1,290,-1,13,-1,-1,-1,-1,,9999,0,0,2,FEW 30   SCT 230,1,5,-1,3,1024,RJOP 040000Z 29013KT 9999 FEW030 SCT230 05/M03 Q1024 RMK     1CU030 A3024=,
20180104_010000.003,0,RJOP,,,,0,20180104010000,-1,-1,-1,-1,300,-1,10,-1,-1,-1,-1,,9999,0,0,1,FEW 30,1,5,-1,3,1024,RJOP 040100Z 30010KT 9999 FEW030 05/M03 Q1024 RMK 1CU030     A3024=,
20180104_020000.005,0,RJOP,,,,0,20180104020000,-1,-1,-1,-1,330,-1,10,-1,-1,-1,-1,,9999,0,0,1,FEW 30,1,6,-1,3,1023,RJOP 040200Z 33010KT 9999 FEW030 06/M03 Q1023 RMK 1CU030     A3023=,
20180104_030000.004,0,RJOP,,,,0,20180104030000,-1,-1,-1,-1,350,-1,9,-1,-1,-1,-1,,9999,0,0,2,FEW 30   SCT 230,1,7,-1,3,1022,RJOP 040300Z 35009KT 9999 FEW030 SCT230 07/M03 Q1022 RMK     1CU030 A3019=,
20180104_040000.003,0,RJOP,,,,0,20180104040000,-1,-1,-1,-1,360,-1,11,-1,-1,-1,-1,,9999,0,0,2,FEW 30   SCT 230,1,8,-1,3,1021,RJOP 040400Z 36011KT 9999 FEW030 SCT230 08/M03 Q1021 RMK     1CU030 A3015=,
20180104_050000.003,0,RJOP,,,,0,20180104050000,-1,-1,-1,-1,10,-1,15,-1,-1,-1,-1,,9999,0,0,1,FEW 30,1,8,-1,3,1020,RJOP 040500Z 01015KT 9999 FEW030 08/M03 Q1020 RMK 1CU030     A3013=,
20180104_060000.004,0,RJOP,,,,0,20180104060000,-1,-1,-1,-1,360,-1,15,-1,-1,-1,-1,,9999,0,0,1,FEW 30,1,8,-1,2,1020,RJOP 040600Z 36015KT 9999 FEW030 08/M02 Q1020 RMK 1CU030     A3013=,
20180104_070000.003,0,RJOP,,,,0,20180104070000,-1,-1,-1,-1,360,-1,14,-1,-1,-1,-1,,9999,0,0,1,FEW 30,1,7,-1,2,1020,RJOP 040700Z 36014KT 9999 FEW030 07/M02 Q1020 RMK 1CU030     A3014=,
20180104_080000.003,0,RJOP,,,,0,20180104080000,-1,-1,-1,-1,10,-1,11,-1,-1,-1,-1,,9999,0,0,1,FEW 30,1,7,-1,2,1020,RJOP 040800Z 01011KT 9999 FEW030 07/M02 Q1020 RMK 1CU030     A3015=,
20180104_090000.003,0,RJOP,,,,0,20180104090000,-1,-1,-1,-1,340,-1,11,-1,-1,-1,-1,,9999,0,0,2,FEW 30   SCT 230,1,7,-1,2,1021,RJOP 040900Z 34011KT 9999 FEW030 SCT230 07/M02 Q1021 RMK     1CU030 A3016=,
20180104_100000.003,0,RJOP,,,,0,20180104100000,-1,-1,-1,-1,270,-1,7,-1,-1,-1,-1,,9999,0,0,2,FEW 30   SCT 230,1,6,-1,1,1021,RJOP 041000Z 27007KT 9999 FEW030 SCT230 06/M01 Q1021 RMK     1CU030 A3017=,
20180104_110000.003,0,RJOP,,,,0,20180104110000,-1,-1,-1,-1,280,-1,6,-1,-1,-1,-1,,9999,0,0,2,FEW 30   BKN 150,1,5,-1,1,1021,RJOP 041100Z 28006KT 9999 FEW030 BKN150 05/M01 Q1021 RMK     1CU030 7AC150 A3017=,
20180104_120000.004,0,RJOP,,,,0,20180104120000,-1,-1,-1,-1,280,-1,7,-1,-1,-1,-1,,9999,0,0,2,FEW 30   SCT 150,1,6,-1,1,1021,RJOP 041200Z 28007KT 9999 FEW030 SCT150 06/M01 Q1021 RMK     1CU030 3AC150 A3017=,
20180104_130000.003,0,RJOP,,,,0,20180104130000,-1,-1,-1,-1,260,-1,8,-1,-1,-1,-1,,9999,0,0,2,FEW 30   SCT 150,1,5,-1,2,1021,RJOP 041300Z 26008KT 9999 FEW030 SCT150 05/M02 Q1021 RMK     1CU030 3AC150 A3016=,
20180104_140000.003,0,RJOP,,,,0,20180104140000,-1,-1,-1,-1,290,-1,6,-1,-1,-1,-1,,9999,0,0,2,FEW 30   SCT 150,1,5,-1,2,1021,RJOP 041400Z 29006KT 9999 FEW030 SCT150 05/M02 Q1021 RMK     1CU030 3AC150 A3015=,
20180104_150000.004,0,RJOP,,,,0,20180104150000,-1,-1,-1,-1,280,-1,6,-1,-1,-1,-1,,9999,0,0,1,FEW 30,1,4,-1,1,1020,RJOP 041500Z 28006KT 9999 FEW030 04/M01 Q1020 RMK 1CU030     A3013=,
20180104_160000.004,0,RJOP,,,,0,20180104160000,-1,-1,-1,-1,280,-1,8,-1,-1,-1,-1,,9999,0,0,2,FEW 30   BKN 200,1,5,-1,1,1020,RJOP 041600Z 28008KT 9999 FEW030 BKN200 05/M01 Q1020 RMK     1CU030 A3012=,
20180104_170000.004,0,RJOP,,,,0,20180104170000,-1,-1,-1,-1,320,-1,8,-1,-1,-1,-1,,9999,0,0,3,FEW 30   SCT 150   BKN 200,1,5,-1,1,1019,RJOP 041700Z 32008KT 9999 FEW030 SCT150 BKN200 05/M01 Q1019     RMK 1CU030 3AC150 A3011=,
20180104_180000.003,0,RJOP,,,,0,20180104180000,-1,-1,-1,-1,320,-1,9,-1,-1,-1,-1,,9999,0,0,2,FEW 30   BKN 150,1,5,1,0,1019,RJOP 041800Z 32009KT 9999 FEW030 BKN150 05/00 Q1019 RMK 1CU030     7AC150 A3010=,
20180104_190000.004,0,RJOP,,,,0,20180104190000,-1,-1,-1,-1,290,-1,7,-1,-1,-1,-1,,9999,0,0,3,FEW 30   BKN 100   BKN 150,1,5,1,0,1018,RJOP 041900Z 29007KT 9999 FEW030 BKN100 BKN150 05/00 Q1018 RMK     1CU030 5AC100 7AC150 A3008=,
20180104_200000.003,0,RJOP,,,,0,20180104200000,-1,-1,-1,-1,300,-1,6,-1,-1,270,360,,9999,0,0,2,FEW 30   BKN 100,1,5,-1,0,1018,RJOP 042000Z 30006KT 270V360 9999 FEW030 BKN100 05/M00 Q1018     RMK 1CU030 7AC100 A3007=,
20180104_210000.003,0,RJOP,,,,0,20180104210000,-1,-1,-1,-1,290,-1,7,-1,-1,-1,-1,,9999,0,0,2,FEW 30   BKN 100,1,5,-1,0,1018,RJOP 042100Z 29007KT 9999 FEW030 BKN100 05/M00 Q1018 RMK     1CU030 7AC100 A3007=,
20180104_220000.003,0,RJOP,,,,0,20180104220000,-1,-1,-1,-1,270,-1,8,-1,-1,-1,-1,,9999,0,0,3,FEW 30   SCT 80   BKN 100,1,5,1,0,1018,RJOP 042200Z 27008KT 9999 FEW030 SCT080 BKN100 05/00 Q1018 RMK     1CU030 4AC080 7AC100 A3007=,
20180104_230000.003,0,RJOP,,,,0,20180104230000,-1,-1,-1,-1,280,-1,6,-1,-1,-1,-1,,9999,0,1,3,FEW 15   SCT 30   BKN 80,1,5,1,1,1017,RJOP 042300Z 28006KT 9999 -SHRA FEW015 SCT030 BKN080 05/01     Q1017 RMK 1CU015 4CU030 7AC080 A3006=,- RA SH
20180105_000000.004,0,RJOP,,,,0,20180105000000,-1,-1,-1,-1,280,-1,6,-1,-1,-1,-1,,9999,0,1,3,FEW 15   SCT 30   BKN 80,1,5,1,2,1018,RJOP 050000Z 28006KT 9999 -SHRA FEW015 SCT030 BKN080 05/02     Q1018 RMK 1CU015 4CU030 7AC080 A3007=,- RA SH
20180105_010000.004,0,RJOP,,,,0,20180105010000,-1,-1,-1,-1,330,-1,5,-1,-1,300,10,,9999,0,1,3,FEW 15   BKN 30   BKN 80,1,5,1,1,1018,RJOP 050100Z 33005KT 300V010 9999 -SHRA FEW015 BKN030 BKN080     05/01 Q1018 RMK 1CU015 5CU030 7AC080 A3007=,- RA SH
20180105_020000.003,0,RJOP,,,,0,20180105020000,-1,-1,-1,-1,300,-1,6,-1,-1,-1,-1,,9999,0,1,2,SCT 12   BKN 30,1,4,1,2,1018,RJOP 050200Z 30006KT 9999 -SHRA SCT012 BKN030 04/02 Q1018 RMK     3CU012 7CU030 A3006=,- RA SH
20180105_030000.003,0,RJOP,,,,0,20180105030000,-1,-1,-1,-1,330,-1,8,-1,-1,-1,-1,,9999,0,1,3,FEW 8   SCT 12   BKN 25,1,4,1,2,1016,RJOP 050300Z 33008KT 9999 -SHRA FEW008 SCT012 BKN025 04/02     Q1016 RMK 1ST008 4CU012 7CU025 A3003=,- RA SH
20180105_040000.003,0,RJOP,,,,0,20180105040000,-1,-1,-1,-1,320,-1,9,-1,-1,-1,-1,,9999,0,1,3,FEW 8   BKN 12   BKN 25,1,3,1,2,1016,RJOP 050400Z 32009KT 9999 -SHRA FEW008 BKN012 BKN025 03/02     Q1016 RMK 2ST008 5CU012 7CU025 A3001=,- RA SH
20180105_050000.003,0,RJOP,,,,0,20180105050000,-1,-1,-1,-1,310,-1,6,-1,-1,280,350,,9999,0,1,3,FEW 8   BKN 12   BKN 25,1,3,1,2,1016,RJOP 050500Z 31006KT 280V350 9999 -SHRA FEW008 BKN012 BKN025     03/02 Q1016 RMK 2ST008 5CU012 7CU025 A3001=,- RA SH
20180105_060000.003,0,RJOP,,,,0,20180105060000,-1,-1,-1,-1,330,-1,6,-1,-1,-1,-1,,9999,0,1,3,FEW 8   BKN 12   BKN 25,1,3,1,2,1015,RJOP 050600Z 33006KT 9999 -SHRA FEW008 BKN012 BKN025 03/02     Q1015 RMK 1ST008 5CU012 7CU025 A3000=,- RA SH
20180105_070000.003,0,RJOP,,,,0,20180105070000,-1,-1,-1,-1,330,-1,5,-1,-1,-1,-1,,9999,0,0,3,FEW 12   BKN 25   BKN 50,1,4,1,2,1015,RJOP 050700Z 33005KT 9999 FEW012 BKN025 BKN050 04/02 Q1015 RMK     1CU012 5CU025 6SC050 A2998=,
20180105_080000.003,0,RJOP,,,,0,20180105080000,-1,-1,-1,-1,300,-1,5,-1,-1,270,330,,9999,0,0,3,FEW 12   BKN 25   BKN 50,1,4,1,3,1015,RJOP 050800Z 30005KT 270V330 9999 FEW012 BKN025 BKN050 04/03     Q1015 RMK 1CU012 5CU025 6SC050 A2998=,
20180105_090000.003,0,RJOP,,,,0,20180105090000,-1,-1,-1,-1,290,-1,8,-1,-1,-1,-1,,9999,0,0,2,FEW 12   SCT 25,1,4,1,2,1015,RJOP 050900Z 29008KT 9999 FEW012 SCT025 04/02 Q1015 RMK 1CU012     3CU025 A2998=,
20180105_100000.003,0,RJOP,,,,0,20180105100000,-1,-1,-1,-1,330,-1,8,-1,-1,-1,-1,,9999,0,0,2,FEW 25   SCT 50,1,4,1,2,1015,RJOP 051000Z 33008KT 9999 FEW025 SCT050 04/02 Q1015 RMK 2CU025     3SC050 A2999=,
20180105_110000.003,0,RJOP,,,,0,20180105110000,-1,-1,-1,-1,280,-1,7,-1,-1,-1,-1,,9999,0,0,1,FEW 25,1,4,1,3,1015,RJOP 051100Z 28007KT 9999 FEW025 04/03 Q1015 RMK 2CU025 A2998=,
20180105_120000.003,0,RJOP,,,,0,20180105120000,-1,-1,-1,-1,270,-1,7,-1,-1,-1,-1,,9999,0,0,1,FEW 25,1,3,1,2,1015,RJOP 051200Z 27007KT 9999 FEW025 03/02 Q1015 RMK 1CU025 A2998=,
20180105_130000.003,0,RJOP,,,,0,20180105130000,-1,-1,-1,-1,270,-1,7,-1,-1,-1,-1,,9999,0,0,1,FEW 25,1,2,1,2,1014,RJOP 051300Z 27007KT 9999 FEW025 02/02 Q1014 RMK 1CU025 A2997=,
20180105_140000.003,0,RJOP,,,,0,20180105140000,-1,-1,-1,-1,270,-1,7,-1,-1,-1,-1,,9999,0,0,1,FEW 25,1,2,1,1,1014,RJOP 051400Z 27007KT 9999 FEW025 02/01 Q1014 RMK 1CU025 A2996=,
20180105_150000.003,0,RJOP,,,,0,20180105150000,-1,-1,-1,-1,230,-1,6,-1,-1,180,260,,9999,0,0,1,FEW 25,1,2,1,1,1014,RJOP 051500Z 23006KT 180V260 9999 FEW025 02/01 Q1014 RMK     1CU025 A2994=,
20180105_160000.004,0,RJOP,,,,0,20180105160000,-1,-1,-1,-1,270,-1,10,-1,-1,-1,-1,,9999,0,0,2,FEW 25   SCT 70,1,2,1,1,1014,RJOP 051600Z 27010KT 9999 FEW025 SCT070 02/01 Q1014 RMK 1CU025     3AC070 A2995=,
20180105_170000.003,0,RJOP,,,,0,20180105170000,-1,-1,-1,-1,999,-1,2,-1,-1,-1,-1,,9999,0,0,2,FEW 25   BKN 70,1,2,1,1,1014,RJOP 051700Z VRB02KT 9999 FEW025 BKN070 02/01 Q1014 RMK 1CU025     7AC070 A2995=,
20180105_180000.004,0,RJOP,,,,0,20180105180000,-1,-1,-1,-1,250,-1,4,-1,-1,-1,-1,,9999,0,0,3,FEW 25   SCT 40   BKN 70,1,2,1,1,1014,RJOP 051800Z 25004KT 9999 FEW025 SCT040 BKN070 02/01 Q1014 RMK     1CU025 3CU040 7AC070 A2996=,
20180105_190000.003,0,RJOP,,,,0,20180105190000,-1,-1,-1,-1,190,-1,3,-1,-1,-1,-1,,9999,0,0,3,FEW 25   BKN 40   BKN 70,1,2,1,1,1014,RJOP 051900Z 19003KT 9999 FEW025 BKN040 BKN070 02/01 Q1014 RMK     1CU025 5CU040 7AC070 A2994=,
20180105_200000.003,0,RJOP,,,,0,20180105200000,-1,-1,-1,-1,999,-1,2,-1,-1,-1,-1,,9999,0,0,2,FEW 25   BKN 40,1,3,1,2,1014,RJOP 052000Z VRB02KT 9999 FEW025 BKN040 03/02 Q1014 RMK 1CU025     7CU040 A2994=,
20180105_210000.004,0,RJOP,,,,0,20180105210000,-1,-1,-1,-1,999,-1,2,-1,-1,-1,-1,,9999,0,0,2,FEW 25   BKN 40,1,2,1,2,1014,RJOP 052100Z VRB02KT 9999 FEW025 BKN040 02/02 Q1014 RMK 1CU025     7CU040 A2995=,
20180105_220000.003,0,RJOP,,,,0,20180105220000,-1,-1,-1,-1,999,-1,1,-1,-1,-1,-1,,9999,0,0,2,FEW 25   BKN 40,1,3,1,2,1014,RJOP 052200Z VRB01KT 9999 FEW025 BKN040 03/02 Q1014 RMK 1CU025     7CU040 A2996=,
20180105_230000.003,0,RJOP,,,,0,20180105230000,-1,-1,-1,-1,999,-1,2,-1,-1,-1,-1,,9999,0,0,2,FEW 25   SCT 40,1,3,1,3,1015,RJOP 052300Z VRB02KT 9999 FEW025 SCT040 03/03 Q1015 RMK 1CU025     3CU040 A2997=,
20180106_000000.003,0,RJOP,,,,0,20180106000000,-1,-1,-1,-1,240,-1,3,-1,-1,190,280,,9999,0,0,2,FEW 25   SCT 40,1,4,1,4,1015,RJOP 060000Z 24003KT 190V280 9999 FEW025 SCT040 04/04 Q1015     RMK 1CU025 3CU040 A2999=,
20180106_010000.003,0,RJOP,,,,0,20180106010000,-1,-1,-1,-1,250,-1,3,-1,-1,220,280,,9999,0,0,2,FEW 25   SCT 40,1,7,1,4,1016,RJOP 060100Z 25003KT 220V280 9999 FEW025 SCT040 07/04 Q1016     RMK 1CU025 3CU040 A3001=,
20180106_020000.003,0,RJOP,,,,0,20180106020000,-1,-1,-1,-1,310,-1,16,-1,26,-1,-1,,9999,0,0,2,FEW 25   SCT 40,1,9,1,1,1015,RJOP 060200Z 31016G26KT 9999 FEW025 SCT040 09/01 Q1015 RMK     1CU025 3CU040 A3000=,
20180106_030000.003,0,RJOP,,,,0,20180106030000,-1,-1,-1,-1,290,-1,15,-1,30,-1,-1,,9999,0,0,1,FEW 30,1,9,1,1,1014,RJOP 060300Z 29015G30KT 9999 FEW030 09/01 Q1014 RMK 1CU030     A2997=,
20180106_040000.003,0,RJOP,,,,0,20180106040000,-1,-1,-1,-1,290,-1,16,-1,26,-1,-1,,9999,0,0,1,FEW 30,1,10,1,0,1014,RJOP 060400Z 29016G26KT 9999 FEW030 10/00 Q1014 RMK 1CU030     A2995=,
20180106_050000.003,0,RJOP,,,,0,20180106050000,-1,-1,-1,-1,300,-1,17,-1,27,-1,-1,,9999,0,0,2,FEW 30   SCT 60,1,10,-1,0,1014,RJOP 060500Z 30017G27KT 9999 FEW030 SCT060 10/M00 Q1014 RMK     1CU030 3SC060 A2995=,
20180106_060000.003,0,RJOP,,,,0,20180106060000,-1,-1,-1,-1,300,-1,17,-1,30,-1,-1,,9999,0,0,1,FEW 30,1,10,1,0,1014,RJOP 060600Z 30017G30KT 9999 FEW030 10/00 Q1014 RMK 1CU030     A2997=,
20180106_070000.003,0,RJOP,,,,0,20180106070000,-1,-1,-1,-1,320,-1,18,-1,-1,-1,-1,,9999,0,0,2,FEW 30   BKN 60,1,9,1,0,1015,RJOP 060700Z 32018KT 9999 FEW030 BKN060 09/00 Q1015 RMK 1CU030     5SC060 A2999=,
20180106_080000.003,0,RJOP,,,,0,20180106080000,-1,-1,-1,-1,310,-1,15,-1,-1,-1,-1,,9999,0,0,2,FEW 30   SCT 60,1,9,-1,0,1016,RJOP 060800Z 31015KT 9999 FEW030 SCT060 09/M00 Q1016 RMK     1CU030 3SC060 A3001=,
20180106_090000.003,0,RJOP,,,,0,20180106090000,-1,-1,-1,-1,300,-1,13,-1,-1,-1,-1,,9999,0,0,2,FEW 30   SCT 60,1,8,1,0,1016,RJOP 060900Z 30013KT 9999 FEW030 SCT060 08/00 Q1016 RMK 1CU030     3SC060 A3002=,
20180106_100000.003,0,RJOP,,,,0,20180106100000,-1,-1,-1,-1,300,-1,12,-1,-1,-1,-1,,9999,0,0,2,FEW 30   SCT 60,1,8,1,1,1017,RJOP 061000Z 30012KT 9999 FEW030 SCT060 08/01 Q1017 RMK 1CU030     3SC060 A3005=,
20180106_110000.003,0,RJOP,,,,0,20180106110000,-1,-1,-1,-1,310,-1,12,-1,-1,-1,-1,,9999,0,0,2,FEW 30   BKN 60,1,8,1,1,1019,RJOP 061100Z 31012KT 9999 FEW030 BKN060 08/01 Q1019 RMK 1CU030     5SC060 A3010=,
20180106_120000.003,0,RJOP,,,,0,20180106120000,-1,-1,-1,-1,310,-1,10,-1,-1,-1,-1,,9999,0,0,2,FEW 30   SCT 60,1,8,1,1,1020,RJOP 061200Z 31010KT 9999 FEW030 SCT060 08/01 Q1020 RMK 1CU030     3SC060 A3012=,
20180106_130000.005,0,RJOP,,,,0,20180106130000,-1,-1,-1,-1,310,-1,9,-1,-1,-1,-1,,9999,0,0,2,FEW 30   SCT 60,1,7,1,1,1020,RJOP 061300Z 31009KT 9999 FEW030 SCT060 07/01 Q1020 RMK 1CU030     3SC060 A3014=,
20180106_140000.004,0,RJOP,,,,0,20180106140000,-1,-1,-1,-1,330,-1,16,-1,-1,-1,-1,,9999,0,0,2,FEW 30   SCT 60,1,7,1,0,1020,RJOP 061400Z 33016KT 9999 FEW030 SCT060 07/00 Q1020 RMK 1CU030     3SC060 A3013=,
20180106_150000.003,0,RJOP,,,,0,20180106150000,-1,-1,-1,-1,330,-1,14,-1,-1,-1,-1,,9999,0,0,2,FEW 30   SCT 60,1,6,1,1,1020,RJOP 061500Z 33014KT 9999 FEW030 SCT060 06/01 Q1020 RMK 1CU030     3SC060 A3012=,
20180106_160000.003,0,RJOP,,,,0,20180106160000,-1,-1,-1,-1,310,-1,11,-1,-1,-1,-1,,9999,0,0,2,FEW 30   SCT 60,1,6,-1,0,1020,RJOP 061600Z 31011KT 9999 FEW030 SCT060 06/M00 Q1020 RMK     1CU030 3SC060 A3014=,
20180106_170000.003,0,RJOP,,,,0,20180106170000,-1,-1,-1,-1,310,-1,11,-1,-1,-1,-1,,9999,0,0,2,FEW 30   BKN 60,1,6,1,0,1021,RJOP 061700Z 31011KT 9999 FEW030 BKN060 06/00 Q1021 RMK 1CU030     5SC060 A3016=,
20180106_180000.004,0,RJOP,,,,0,20180106180000,-1,-1,-1,-1,310,-1,10,-1,-1,-1,-1,,9999,0,0,3,FEW 12   SCT 30   BKN 60,1,6,1,1,1021,RJOP 061800Z 31010KT 9999 FEW012 SCT030 BKN060 06/01 Q1021 RMK     1CU012 4CU030 6SC060 A3016=,
20180106_190000.003,0,RJOP,,,,0,20180106190000,-1,-1,-1,-1,330,-1,9,-1,-1,-1,-1,,9999,0,0,2,FEW 12   BKN 30,1,6,1,1,1021,RJOP 061900Z 33009KT 9999 FEW012 BKN030 06/01 Q1021 RMK 2CU012     6CU030 A3017=,
20180106_200000.003,0,RJOP,,,,0,20180106200000,-1,-1,-1,-1,320,-1,8,-1,-1,-1,-1,,9999,0,0,2,FEW 12   BKN 30,1,6,1,1,1022,RJOP 062000Z 32008KT 9999 FEW012 BKN030 06/01 Q1022 RMK 2CU012     7CU030 A3018=,
20180106_210000.003,0,RJOP,,,,0,20180106210000,-1,-1,-1,-1,320,-1,8,-1,-1,-1,-1,,9999,0,1,2,FEW 12   BKN 35,1,5,1,1,1022,RJOP 062100Z 32008KT 9999 -SHRA FEW012 BKN035 05/01 Q1022 RMK     2CU012 7CU035 A3019=,- RA SH
20180106_220000.003,0,RJOP,,,,0,20180106220000,-1,-1,-1,-1,320,-1,9,-1,-1,-1,-1,,9999,0,0,3,FEW 20   BKN 35   BKN 50,1,5,1,2,1023,RJOP 062200Z 32009KT 9999 FEW020 BKN035 BKN050 05/02 Q1023 RMK     2CU020 5CU035 7SC050 A3021=,
20180106_230000.003,0,RJOP,,,,0,20180106230000,-1,-1,-1,-1,270,-1,7,-1,-1,-1,-1,,9999,0,0,3,FEW 20   SCT 35   BKN 50,1,5,1,2,1023,RJOP 062300Z 27007KT 9999 FEW020 SCT035 BKN050 05/02 Q1023 RMK     1CU020 3CU035 7SC050 A3022=,
20180107_000000.003,0,RJOP,,,,0,20180107000000,-1,-1,-1,-1,280,-1,6,-1,-1,-1,-1,,9999,0,0,3,FEW 20   SCT 35   BKN 50,1,5,1,2,1024,RJOP 070000Z 28006KT 9999 FEW020 SCT035 BKN050 05/02 Q1024 RMK     1CU020 3CU035 6SC050 A3025=,
20180107_010000.004,0,RJOP,,,,0,20180107010000,-1,-1,-1,-1,340,-1,9,-1,-1,-1,-1,,9999,0,0,3,FEW 35   SCT 50   BKN 200,1,7,1,1,1024,RJOP 070100Z 34009KT 9999 FEW035 SCT050 BKN200 07/01 Q1024 RMK     1CU035 3SC050 A3024=,
20180107_020000.003,0,RJOP,,,,0,20180107020000,-1,-1,-1,-1,350,-1,8,-1,-1,-1,-1,,9999,0,0,2,FEW 35   BKN 200,1,7,1,1,1024,RJOP 070200Z 35008KT 9999 FEW035 BKN200 07/01 Q1024 RMK 1CU035     A3025=,
20180107_030000.003,0,RJOP,,,,0,20180107030000,-1,-1,-1,-1,360,-1,9,-1,-1,340,40,,9999,0,0,3,FEW 30   SCT 45   BKN 200,1,8,-1,0,1023,RJOP 070300Z 36009KT 340V040 9999 FEW030 SCT045 BKN200 08/M00     Q1023 RMK 2CU030 3SC045 A3021=,
20180107_040000.003,0,RJOP,,,,0,20180107040000,-1,-1,-1,-1,360,-1,11,-1,-1,-1,-1,,9999,0,0,2,FEW 30   BKN 200,1,8,-1,2,1022,RJOP 070400Z 36011KT 9999 FEW030 BKN200 08/M02 Q1022 RMK     2CU030 A3018=,
20180107_050000.003,0,RJOP,,,,0,20180107050000,-1,-1,-1,-1,10,-1,11,-1,-1,-1,-1,,9999,0,0,2,FEW 30   BKN 200,1,8,-1,3,1021,RJOP 070500Z 01011KT 9999 FEW030 BKN200 08/M03 Q1021 RMK     1CU030 A3017=,
20180107_060000.003,0,RJOP,,,,0,20180107060000,-1,-1,-1,-1,360,-1,11,-1,-1,-1,-1,,9999,0,0,2,FEW 30   BKN 200,1,8,-1,2,1021,RJOP 070600Z 36011KT 9999 FEW030 BKN200 08/M02 Q1021 RMK     1CU030 A3018=,
20180107_070000.003,0,RJOP,,,,0,20180107070000,-1,-1,-1,-1,340,-1,11,-1,-1,-1,-1,,9999,0,0,3,FEW 30   SCT 150   BKN 200,1,8,-1,2,1022,RJOP 070700Z 34011KT 9999 FEW030 SCT150 BKN200 08/M02 Q1022     RMK 1CU030 4AC150 A3020=,
20180107_080000.003,0,RJOP,,,,0,20180107080000,-1,-1,-1,-1,340,-1,9,-1,-1,-1,-1,,9999,0,0,2,FEW 30   BKN 150,1,8,-1,1,1022,RJOP 070800Z 34009KT 9999 FEW030 BKN150 08/M01 Q1022 RMK     1CU030 7AC150 A3020=,
20180107_090000.003,0,RJOP,,,,0,20180107090000,-1,-1,-1,-1,340,-1,7,-1,-1,-1,-1,,9999,0,0,2,FEW 30   BKN 150,1,8,-1,0,1022,RJOP 070900Z 34007KT 9999 FEW030 BKN150 08/M00 Q1022 RMK     1CU030 7AC150 A3019=,
20180107_100000.003,0,RJOP,,,,0,20180107100000,-1,-1,-1,-1,999,-1,1,-1,-1,-1,-1,,9999,0,0,3,FEW 30   BKN 120   BKN 150,1,8,-1,0,1022,RJOP 071000Z VRB01KT 9999 FEW030 BKN120 BKN150 08/M00 Q1022     RMK 1CU030 5AC120 7AC150 A3020=,
20180107_110000.003,0,RJOP,,,,0,20180107110000,-1,-1,-1,-1,290,-1,6,-1,-1,-1,-1,,9999,0,0,3,FEW 30   BKN 120   BKN 150,1,7,1,1,1023,RJOP 071100Z 29006KT 9999 FEW030 BKN120 BKN150 07/01 Q1023 RMK     1CU030 5AC120 7AC150 A3021=,
20180107_120000.004,0,RJOP,,,,0,20180107120000,-1,-1,-1,-1,280,-1,7,-1,-1,-1,-1,,9999,0,0,3,FEW 30   SCT 120   BKN 150,1,6,1,1,1022,RJOP 071200Z 28007KT 9999 FEW030 SCT120 BKN150 06/01 Q1022 RMK     1CU030 3AC120 7AC150 A3018=,
20180107_130000.004,0,RJOP,,,,0,20180107130000,-1,-1,-1,-1,260,-1,4,-1,-1,230,300,,9999,0,0,3,FEW 30   BKN 110   BKN 150,1,7,1,1,1021,RJOP 071300Z 26004KT 230V300 9999 FEW030 BKN110 BKN150 07/01     Q1021 RMK 1CU030 5AC110 7AC150 A3017=,
20180107_140000.004,0,RJOP,,,,0,20180107140000,-1,-1,-1,-1,220,-1,4,-1,-1,-1,-1,,9999,0,0,2,FEW 30   BKN 110,1,7,1,1,1021,RJOP 071400Z 22004KT 9999 FEW030 BKN110 07/01 Q1021 RMK 1CU030     7AC110 A3016=,
20180107_150000.003,0,RJOP,,,,0,20180107150000,-1,-1,-1,-1,170,-1,7,-1,-1,-1,-1,,9999,0,0,3,FEW 30   BKN 100   BKN 160,1,6,1,1,1020,RJOP 071500Z 17007KT 9999 FEW030 BKN100 BKN160 06/01 Q1020 RMK     1CU030 5AC100 7AC160 A3013=,
20180107_160000.003,0,RJOP,,,,0,20180107160000,-1,-1,-1,-1,170,-1,4,-1,-1,140,200,,9999,0,0,2,FEW 30   BKN 80,1,6,1,1,1020,RJOP 071600Z 17004KT 140V200 9999 FEW030 BKN080 06/01 Q1020     RMK 1CU030 7AC080 A3012=,
20180107_170000.003,0,RJOP,,,,0,20180107170000,-1,-1,-1,-1,180,-1,6,-1,-1,-1,-1,,9999,0,1,3,FEW 30   BKN 60   OVC 80,1,7,1,2,1019,RJOP 071700Z 18006KT 9999 -RA FEW030 BKN060 OVC080 07/02     Q1019 RMK 1CU030 5SC060 8AS080 A3011=,- RA
20180107_180000.003,0,RJOP,,,,0,20180107180000,-1,-1,-1,-1,180,-1,6,-1,-1,-1,-1,,9999,0,0,3,FEW 30   BKN 60   BKN 80,1,7,1,4,1018,RJOP 071800Z 18006KT 9999 FEW030 BKN060 BKN080 07/04 Q1018 RMK     1CU030 5SC060 7AC080 A3008=,
20180107_190000.004,0,RJOP,,,,0,20180107190000,-1,-1,-1,-1,190,-1,10,-1,-1,-1,-1,,9999,0,1,2,FEW 25   BKN 40,1,8,1,5,1018,RJOP 071900Z 19010KT 9999 -SHRA FEW025 BKN040 08/05 Q1018 RMK     1CU025 7CU040 A3006=,- RA SH
20180107_200000.003,0,RJOP,,,,0,20180107200000,-1,-1,-1,-1,180,-1,4,-1,-1,-1,-1,,9999,0,1,2,FEW 25   BKN 40,1,7,1,6,1017,RJOP 072000Z 18004KT 9999 -SHRA FEW025 BKN040 07/06 Q1017 RMK     2CU025 7CU040 A3003=,- RA SH
20180107_210000.004,0,RJOP,,,,0,20180107210000,-1,-1,-1,-1,100,-1,3,-1,-1,50,140,,9999,0,1,2,FEW 15   BKN 30,1,7,1,6,1016,RJOP 072100Z 10003KT 050V140 9999 -SHRA FEW015 BKN030 07/06     Q1016 RMK 2CU015 7CU030 A3002=,- RA SH
20180107_220000.003,0,RJOP,,,,0,20180107220000,-1,-1,-1,-1,130,-1,4,-1,-1,90,160,,9999,0,1,3,SCT 8   BKN 15   OVC 25,1,8,1,7,1016,RJOP 072200Z 13004KT 090V160 9999 -SHRA SCT008 BKN015 OVC025     08/07 Q1016 RMK 3ST008 5CU015 8CU025 A3002=,- RA SH
20180107_230000.003,0,RJOP,,,,0,20180107230000,-1,-1,-1,-1,180,-1,4,-1,-1,110,200,,9999,0,1,3,SCT 8   BKN 15   OVC 25,1,8,1,7,1016,RJOP 072300Z 18004KT 110V200 9999 -SHRA SCT008 BKN015 OVC025     08/07 Q1016 RMK 3ST008 7CU015 8CU025 A3000=,- RA SH
20180108_000000.003,0,RJOP,,,,0,20180108000000,-1,-1,-1,-1,140,-1,15,-1,-1,-1,-1,,9999,0,1,3,FEW 8   BKN 15   BKN 25,1,10,1,9,1014,RJOP 080000Z 14015KT 9999 -SHRA FEW008 BKN015 BKN025 10/09     Q1014 RMK 2ST008 5CU015 7CU025 A2997 PEAK GUST 24KT=,- RA SH
20180108_010000.003,0,RJOP,,,,0,20180108010000,-1,-1,-1,-1,140,-1,18,-1,-1,-1,-1,,6000,0,1,3,SCT 8   BKN 15   BKN 25,1,10,1,10,1012,RJOP 080100Z 14018KT 6000 -SHRA SCT008 BKN015 BKN025 10/10     Q1012 RMK 3ST008 6CU015 7CU025 A2990 P/FR=,- RA SH
20180108_020000.004,0,RJOP,,,,0,20180108020000,-1,-1,-1,-1,150,-1,15,-1,-1,-1,-1,,4500,0,2,3,SCT 8   BKN 12   BKN 20,1,11,1,11,1011,RJOP 080200Z 15015KT 4500 -SHRA BR SCT008 BKN012 BKN020 11/11     Q1011 RMK 3ST008 6CU012 7CU020 A2987 P/FR=,- RA SH; BR
20180108_030000.003,0,RJOP,,,,0,20180108030000,-1,-1,-1,-1,999,-1,1,-1,-1,-1,-1,,4000,0,2,3,FEW 5   BKN 8   BKN 12,1,12,1,12,1010,RJOP 080300Z VRB01KT 4000 SHRA BR FEW005 BKN008 BKN012 12/12     Q1010 RMK 1ST005 5ST008 7CU012 A2983=,RA SH; BR
20180108_040000.003,0,RJOP,,,,0,20180108040000,-1,-1,-1,-1,130,-1,9,-1,-1,-1,-1,,4500,0,2,3,FEW 5   SCT 8   BKN 12,1,12,1,12,1008,RJOP 080400Z 13009KT 4500 -SHRA BR FEW005 SCT008 BKN012 12/12     Q1008 RMK 1ST005 3ST008 6CU012 A2977 P/FR=,- RA SH; BR
20180108_050000.003,0,RJOP,,,,0,20180108050000,-1,-1,-1,-1,160,-1,7,-1,-1,-1,-1,,9999,0,0,3,FEW 5   SCT 8   BKN 12,1,12,1,12,1006,RJOP 080500Z 16007KT 9999 FEW005 SCT008 BKN012 12/12 Q1006 RMK     1ST005 3ST008 5CU012 A2973=,
20180108_060000.004,0,RJOP,,,,0,20180108060000,-1,-1,-1,-1,190,-1,4,-1,-1,-1,-1,,9999,0,0,3,FEW 5   SCT 8   BKN 12,1,12,1,12,1005,RJOP 080600Z 19004KT 9999 FEW005 SCT008 BKN012 12/12 Q1005 RMK     1ST005 3ST008 6CU012 A2969=,
20180108_070000.003,0,RJOP,,,,0,20180108070000,-1,-1,-1,-1,360,-1,4,-1,-1,-1,-1,,9999,0,0,3,FEW 5   SCT 8   BKN 12,1,12,1,12,1006,RJOP 080700Z 36004KT 9999 FEW005 SCT008 BKN012 12/12 Q1006 RMK     1ST005 4ST008 7CU012 A2971=,
20180108_080000.003,0,RJOP,,,,0,20180108080000,-1,-1,-1,-1,360,-1,5,-1,-1,-1,-1,,6000,0,1,3,SCT 4   BKN 8   BKN 12,1,11,1,11,1005,RJOP 080800Z 36005KT 6000 -SHRA SCT004 BKN008 BKN012 11/11     Q1005 RMK 3ST004 6ST008 7CU012 A2970=,- RA SH
20180108_090000.003,0,RJOP,,,,0,20180108090000,-1,-1,-1,-1,40,-1,5,-1,-1,-1,-1,,2500,0,2,3,SCT 2   BKN 8   OVC 12,1,10,1,10,1005,RJOP 080900Z 04005KT 2500 -SHRA BR SCT002 BKN008 OVC012 10/10     Q1005 RMK 3ST002 6ST008 8CU012 A2968=,- RA SH; BR
20180108_100000.003,0,RJOP,,,,0,20180108100000,-1,-1,-1,-1,40,-1,3,-1,-1,20,80,,800,0,2,3,FEW 1   BKN 2   OVC 8,1,10,1,10,1004,RJOP 081000Z 04003KT 020V080 0800 -SHRA FG FEW001 BKN002     OVC008 10/10 Q1004 RMK 2ST001 7ST002 8ST008 A2966=,- RA SH; FG
20180108_110000.003,0,RJOP,,,,0,20180108110000,-1,-1,-1,-1,999,-1,2,-1,-1,-1,-1,,1200,0,2,3,FEW 1   BKN 2   OVC 8,1,10,1,10,1004,RJOP 081100Z VRB02KT 1200 -SHRA BR FEW001 BKN002 OVC008 10/10     Q1004 RMK 2ST001 6ST002 8ST008 A2967=,- RA SH; BR
20180108_120000.003,0,RJOP,,,,0,20180108120000,-1,-1,-1,-1,999,-1,1,-1,-1,-1,-1,,2000,0,2,3,SCT 2   BKN 8   OVC 12,1,10,1,10,1003,RJOP 081200Z VRB01KT 2000 -SHRA BR SCT002 BKN008 OVC012 10/10     Q1003 RMK 4ST002 7ST008 8CU012 A2964=,- RA SH; BR
20180108_130000.004,0,RJOP,,,,0,20180108130000,-1,-1,-1,-1,999,-1,1,-1,-1,-1,-1,,2000,0,1,3,SCT 2   BKN 8   OVC 12,1,10,1,10,1002,RJOP 081300Z VRB01KT 2000 BR SCT002 BKN008 OVC012 10/10 Q1002     RMK 4ST002 7ST008 8CU012 A2961=,BR
20180108_140000.003,0,RJOP,,,,0,20180108140000,-1,-1,-1,-1,999,-1,1,-1,-1,-1,-1,,4000,0,1,3,SCT 2   BKN 8   OVC 12,1,10,1,10,1001,RJOP 081400Z VRB01KT 4000 BR SCT002 BKN008 OVC012 10/10 Q1001     RMK 4ST002 7ST008 8CU012 A2958=,BR
20180108_150000.003,0,RJOP,,,,0,20180108150000,-1,-1,-1,-1,10,-1,3,-1,-1,-1,-1,,4000,0,2,3,SCT 2   BKN 8   OVC 12,1,11,1,11,1001,RJOP 081500Z 01003KT 4000 -SHRA BR SCT002 BKN008 OVC012 11/11     Q1001 RMK 4ST002 6ST008 8CU012 A2958=,- RA SH; BR
20180108_160000.003,0,RJOP,,,,0,20180108160000,-1,-1,-1,-1,340,-1,8,-1,-1,-1,-1,,5000,0,1,3,FEW 8   SCT 15   BKN 25,1,10,1,10,1001,RJOP 081600Z 34008KT 5000 BR FEW008 SCT015 BKN025 10/10 Q1001     RMK 2ST008 4CU015 7CU025 A2956=,BR
20180108_170000.003,0,RJOP,,,,0,20180108170000,-1,-1,-1,-1,350,-1,8,-1,-1,320,20,,9999,0,0,3,FEW 15   SCT 25   BKN 50,1,11,1,11,1000,RJOP 081700Z 35008KT 320V020 9999 FEW015 SCT025 BKN050 11/11     Q1000 RMK 2CU015 4CU025 7SC050 A2955=,
20180108_180000.003,0,RJOP,,,,0,20180108180000,-1,-1,-1,-1,300,-1,23,-1,36,-1,-1,,9999,0,0,3,FEW 15   SCT 30   BKN 50,1,12,1,9,1000,RJOP 081800Z 30023G36KT 9999 FEW015 SCT030 BKN050 12/09 Q1000     RMK 2CU015 4CU030 7SC050 A2953=,
20180108_190000.003,0,RJOP,,,,0,20180108190000,-1,-1,-1,-1,300,-1,29,-1,46,-1,-1,,9999,0,0,3,FEW 15   BKN 30   BKN 50,1,12,1,7,1000,RJOP 081900Z 30029G46KT 9999 FEW015 BKN030 BKN050 12/07 Q1000     RMK 2CU015 5CU030 7SC050 A2955=,
20180108_200000.003,0,RJOP,,,,0,20180108200000,-1,-1,-1,-1,300,-1,30,-1,46,-1,-1,,9999,0,0,3,FEW 15   BKN 40   BKN 100,1,11,1,5,1000,RJOP 082000Z 30030G46KT 9999 FEW015 BKN040 BKN100 11/05 Q1000     RMK 2CU015 5CU040 7AC100 A2956=,
20180108_210000.004,0,RJOP,,,,0,20180108210000,-1,-1,-1,-1,290,-1,33,-1,52,-1,-1,,9999,0,0,2,FEW 20   BKN 40,1,11,1,3,1002,RJOP 082100Z 29033G52KT 9999 FEW020 BKN040 11/03 Q1002 RMK     2CU020 7CU040 A2959 P/RR=,
20180108_220000.003,0,RJOP,,,,0,20180108220000,-1,-1,-1,-1,300,-1,15,-1,25,-1,-1,,9999,0,0,3,FEW 25   BKN 40   BKN 120,1,10,1,2,1003,RJOP 082200Z 30015G25KT 9999 FEW025 BKN040 BKN120 10/02 Q1003     RMK 2CU025 5CU040 6AC120 A2964=,
20180108_230000.004,0,RJOP,,,,0,20180108230000,-1,-1,-1,-1,300,-1,17,-1,28,270,330,,9999,0,0,2,FEW 30   BKN 40,1,10,1,2,1004,RJOP 082300Z 30017G28KT 270V330 9999 FEW030 BKN040 10/02 Q1004     RMK 2CU030 6CU040 A2967=,
20180109_000000.003,0,RJOP,,,,0,20180109000000,-1,-1,-1,-1,300,-1,27,-1,37,-1,-1,,9999,0,0,2,FEW 30   BKN 45,1,9,-1,0,1006,RJOP 090000Z 30027G37KT 9999 FEW030 BKN045 09/M00 Q1006 RMK     1CU030 6CU045 A2971=,
20180109_010000.003,0,RJOP,,,,0,20180109010000,-1,-1,-1,-1,300,-1,20,-1,30,270,330,,9999,0,0,2,FEW 30   SCT 45,1,10,-1,1,1006,RJOP 090100Z 30020G30KT 270V330 9999 FEW030 SCT045 10/M01     Q1006 RMK 1CU030 3CU045 A2973=,
20180109_020000.003,0,RJOP,,,,0,20180109020000,-1,-1,-1,-1,300,-1,18,-1,28,-1,-1,,9999,0,0,3,FEW 30   SCT 45   BKN 60,1,10,-1,1,1006,RJOP 090200Z 30018G28KT 9999 FEW030 SCT045 BKN060 10/M01 Q1006     RMK 1CU030 3CU045 5SC060 A2972=,
20180109_030000.003,0,RJOP,,,,0,20180109030000,-1,-1,-1,-1,290,-1,27,-1,41,-1,-1,,9999,0,0,2,FEW 30   SCT 50,1,9,-1,2,1005,RJOP 090300Z 29027G41KT 9999 FEW030 SCT050 09/M02 Q1005 RMK     1CU030 3SC050 A2968=,
20180109_040000.003,0,RJOP,,,,0,20180109040000,-1,-1,-1,-1,290,-1,25,-1,40,-1,-1,,9999,0,0,1,FEW 30,1,9,-1,3,1005,RJOP 090400Z 29025G40KT 9999 FEW030 09/M03 Q1005 RMK 1CU030     A2968=,
20180109_050000.003,0,RJOP,,,,0,20180109050000,-1,-1,-1,-1,270,-1,25,-1,42,-1,-1,,9999,0,0,1,FEW 30,1,9,-1,5,1005,RJOP 090500Z 27025G42KT 9999 FEW030 09/M05 Q1005 RMK 1CU030     A2970=,
20180109_060000.003,0,RJOP,,,,0,20180109060000,-1,-1,-1,-1,290,-1,24,-1,34,-1,-1,,9999,0,0,1,FEW 30,1,8,-1,3,1006,RJOP 090600Z 29024G34KT 9999 FEW030 08/M03 Q1006 RMK 1CU030     A2973 P/RR=,
20180109_070000.003,0,RJOP,,,,0,20180109070000,-1,-1,-1,-1,290,-1,21,-1,32,-1,-1,,9999,0,0,1,FEW 30,1,7,-1,3,1008,RJOP 090700Z 29021G32KT 9999 FEW030 07/M03 Q1008 RMK 1CU030     A2977=,
20180109_080000.003,0,RJOP,,,,0,20180109080000,-1,-1,-1,-1,300,-1,11,-1,-1,-1,-1,,9999,0,0,1,FEW 30,1,6,-1,3,1009,RJOP 090800Z 30011KT 9999 FEW030 06/M03 Q1009 RMK 1CU030     A2982=,
20180109_090000.003,0,RJOP,,,,0,20180109090000,-1,-1,-1,-1,300,-1,14,-1,-1,-1,-1,,9999,0,0,1,FEW 30,1,6,-1,3,1010,RJOP 090900Z 30014KT 9999 FEW030 06/M03 Q1010 RMK 2CU030 A2985     PEAK GUST 22KT=,
20180109_100000.003,0,RJOP,,,,0,20180109100000,-1,-1,-1,-1,310,-1,9,-1,-1,260,340,,9999,0,0,1,FEW 30,1,5,-1,2,1011,RJOP 091000Z 31009KT 260V340 9999 FEW030 05/M02 Q1011 RMK     2CU030 A2988=,
20180109_110000.003,0,RJOP,,,,0,20180109110000,-1,-1,-1,-1,300,-1,11,-1,-1,-1,-1,,9999,0,0,1,SCT 30,1,5,-1,2,1012,RJOP 091100Z 30011KT 9999 SCT030 05/M02 Q1012 RMK 3CU030     A2990=,
20180109_120000.003,0,RJOP,,,,0,20180109120000,-1,-1,-1,-1,310,-1,15,-1,-1,-1,-1,,9999,0,0,1,FEW 30,1,5,-1,3,1012,RJOP 091200Z 31015KT 9999 FEW030 05/M03 Q1012 RMK 2CU030     A2990=,
20180109_130000.003,0,RJOP,,,,0,20180109130000,-1,-1,-1,-1,240,-1,5,-1,-1,160,300,,9999,0,0,1,FEW 30,1,4,-1,3,1013,RJOP 091300Z 24005KT 160V300 9999 FEW030 04/M03 Q1013 RMK     1CU030 A2992=,
20180109_140000.003,0,RJOP,,,,0,20180109140000,-1,-1,-1,-1,230,-1,3,-1,-1,180,330,,9999,0,0,1,FEW 30,1,4,-1,2,1013,RJOP 091400Z 23003KT 180V330 9999 FEW030 04/M02 Q1013 RMK     1CU030 A2991=,
20180109_150000.003,0,RJOP,,,,0,20180109150000,-1,-1,-1,-1,310,-1,16,-1,-1,-1,-1,,9999,0,0,1,FEW 30,1,6,-1,3,1012,RJOP 091500Z 31016KT 9999 FEW030 06/M03 Q1012 RMK 1CU030     A2991=,
20180109_160000.003,0,RJOP,,,,0,20180109160000,-1,-1,-1,-1,300,-1,9,-1,-1,-1,-1,,9999,0,0,1,FEW 30,1,5,-1,3,1013,RJOP 091600Z 30009KT 9999 FEW030 05/M03 Q1013 RMK 1CU030     A2991=,
20180109_170000.003,0,RJOP,,,,0,20180109170000,-1,-1,-1,-1,280,-1,7,-1,-1,250,310,,9999,0,0,1,FEW 30,1,4,-1,2,1013,RJOP 091700Z 28007KT 250V310 9999 FEW030 04/M02 Q1013 RMK     1CU030 A2993=,
20180109_180000.003,0,RJOP,,,,0,20180109180000,-1,-1,-1,-1,180,-1,5,-1,-1,110,220,,9999,0,0,1,FEW 30,1,2,-1,3,1013,RJOP 091800Z 18005KT 110V220 9999 FEW030 02/M03 Q1013 RMK     1CU030 A2993=,
20180109_190000.004,0,RJOP,,,,0,20180109190000,-1,-1,-1,-1,170,-1,3,-1,-1,140,230,,9999,0,0,1,FEW 30,1,1,-1,3,1013,RJOP 091900Z 17003KT 140V230 9999 FEW030 01/M03 Q1013 RMK     1CU030 A2992=,
20180109_200000.003,0,RJOP,,,,0,20180109200000,-1,-1,-1,-1,160,-1,4,-1,-1,-1,-1,,9999,0,0,1,FEW 30,1,1,-1,4,1013,RJOP 092000Z 16004KT 9999 FEW030 01/M04 Q1013 RMK 1CU030     A2991=,
20180109_210000.003,0,RJOP,,,,0,20180109210000,-1,-1,-1,-1,170,-1,3,-1,-1,130,230,,9999,0,0,1,FEW 30,1,1,-1,3,1013,RJOP 092100Z 17003KT 130V230 9999 FEW030 01/M03 Q1013 RMK     1CU030 A2992=,
20180109_220000.003,0,RJOP,,,,0,20180109220000,-1,-1,-1,-1,200,-1,4,-1,-1,180,260,,9999,0,0,1,FEW 30,1,2,-1,1,1013,RJOP 092200Z 20004KT 180V260 9999 FEW030 02/M01 Q1013 RMK     1CU030 A2993=,
20180109_230000.003,0,RJOP,,,,0,20180109230000,-1,-1,-1,-1,200,-1,4,-1,-1,180,240,,9999,0,0,1,FEW 30,1,1,-1,2,1013,RJOP 092300Z 20004KT 180V240 9999 FEW030 01/M02 Q1013 RMK     1CU030 A2994=,
20180110_000000.003,0,RJOP,,,,0,20180110000000,-1,-1,-1,-1,150,-1,3,-1,-1,100,190,,9999,0,0,1,FEW 30,1,4,-1,2,1014,RJOP 100000Z 15003KT 100V190 9999 FEW030 04/M02 Q1014 RMK     1CU030 A2994=,
20180110_010000.003,0,RJOP,,,,0,20180110010000,-1,-1,-1,-1,999,-1,1,-1,-1,-1,-1,,9999,0,0,1,FEW 30,1,6,-1,4,1013,RJOP 100100Z VRB01KT 9999 FEW030 06/M04 Q1013 RMK 1CU030     A2993=,
20180110_020000.003,0,RJOP,,,,0,20180110020000,-1,-1,-1,-1,20,-1,4,-1,-1,330,100,,9999,0,0,1,FEW 30,1,7,-1,3,1012,RJOP 100200Z 02004KT 330V100 9999 FEW030 07/M03 Q1012 RMK     1CU030 A2991=,
20180110_030000.003,0,RJOP,,,,0,20180110030000,-1,-1,-1,-1,70,-1,4,-1,-1,10,120,,9999,0,0,1,FEW 30,1,7,-1,4,1011,RJOP 100300Z 07004KT 010V120 9999 FEW030 07/M04 Q1011 RMK     1CU030 A2986 P/FR=,
20180110_040000.004,0,RJOP,,,,0,20180110040000,-1,-1,-1,-1,40,-1,8,-1,-1,10,110,,9999,0,0,2,FEW 20   SCT 40,1,8,-1,3,1010,RJOP 100400Z 04008KT 010V110 9999 FEW020 SCT040 08/M03 Q1010     RMK 1CU020 3CU040 A2984=,
20180110_050000.003,0,RJOP,,,,0,20180110050000,-1,-1,-1,-1,40,-1,6,-1,-1,20,90,,9999,0,0,3,FEW 20   SCT 40   BKN 70,1,8,-1,1,1010,RJOP 100500Z 04006KT 020V090 9999 FEW020 SCT040 BKN070 08/M01     Q1010 RMK 1CU020 3CU040 5AC070 A2983=,
20180110_060000.003,0,RJOP,,,,0,20180110060000,-1,-1,-1,-1,340,-1,12,-1,24,260,360,,9999,0,1,3,FEW 20   SCT 40   BKN 70,1,8,1,0,1010,RJOP 100600Z 34012G24KT 260V360 9999 -SHRA FEW020 SCT040     BKN070 08/00 Q1010 RMK 1CU020 4CU040 6AC070 A2984=,- RA SH
20180110_070000.003,0,RJOP,,,,0,20180110070000,-1,-1,-1,-1,290,-1,17,-1,27,-1,-1,,9999,0,0,3,FEW 20   SCT 40   BKN 70,1,7,-1,1,1011,RJOP 100700Z 29017G27KT 9999 FEW020 SCT040 BKN070 07/M01 Q1011     RMK 1CU020 4CU040 5AC070 A2986=,
20180110_080000.003,0,RJOP,,,,0,20180110080000,-1,-1,-1,-1,290,-1,21,-1,32,-1,-1,,9999,0,0,1,FEW 30,1,7,-1,2,1010,RJOP 100800Z 29021G32KT 9999 FEW030 07/M02 Q1010 RMK 1CU030     A2984=,
20180110_090000.003,0,RJOP,,,,0,20180110090000,-1,-1,-1,-1,290,-1,24,-1,34,-1,-1,,9999,0,0,1,FEW 30,1,7,-1,1,1011,RJOP 100900Z 29024G34KT 9999 FEW030 07/M01 Q1011 RMK 1CU030     A2987=,
20180110_100000.003,0,RJOP,,,,0,20180110100000,-1,-1,-1,-1,270,-1,16,-1,-1,-1,-1,,9999,0,0,1,FEW 30,1,5,-1,1,1013,RJOP 101000Z 27016KT 9999 FEW030 05/M01 Q1013 RMK 1CU030     A2992=,
20180110_110000.003,0,RJOP,,,,0,20180110110000,-1,-1,-1,-1,300,-1,7,-1,-1,260,340,,9999,0,0,1,FEW 30,1,6,-1,3,1013,RJOP 101100Z 30007KT 260V340 9999 FEW030 06/M03 Q1013 RMK     1CU030 A2993=,
20180110_120000.003,0,RJOP,,,,0,20180110120000,-1,-1,-1,-1,290,-1,11,-1,-1,250,320,,9999,0,0,2,FEW 30   SCT 50,1,3,1,0,1014,RJOP 101200Z 29011KT 250V320 9999 FEW030 SCT050 03/00 Q1014     RMK 2CU030 4SC050 A2996=,
20180110_130000.003,0,RJOP,,,,0,20180110130000,-1,-1,-1,-1,330,-1,7,-1,-1,300,360,,9999,0,0,2,FEW 30   SCT 50,1,3,-1,0,1015,RJOP 101300Z 33007KT 300V360 9999 FEW030 SCT050 03/M00 Q1015     RMK 1CU030 3SC050 A2998=,
20180110_140000.003,0,RJOP,,,,0,20180110140000,-1,-1,-1,-1,320,-1,18,-1,-1,-1,-1,,9999,0,0,1,FEW 30,1,3,-1,0,1015,RJOP 101400Z 32018KT 9999 FEW030 03/M00 Q1015 RMK 1CU030     A2998=,
20180110_150000.003,0,RJOP,,,,0,20180110150000,-1,-1,-1,-1,320,-1,11,-1,-1,-1,-1,,9999,0,0,1,FEW 30,1,2,-1,0,1015,RJOP 101500Z 32011KT 9999 FEW030 02/M00 Q1015 RMK 1CU030     A2999=,
20180110_160000.003,0,RJOP,,,,0,20180110160000,-1,-1,-1,-1,300,-1,9,-1,-1,-1,-1,,9999,0,0,2,FEW 30   SCT 50,1,2,-1,1,1015,RJOP 101600Z 30009KT 9999 FEW030 SCT050 02/M01 Q1015 RMK     1CU030 3SC050 A3000=,
20180110_170000.003,0,RJOP,,,,0,20180110170000,-1,-1,-1,-1,330,-1,14,-1,-1,-1,-1,,4500,0,1,3,FEW 8   SCT 12   BKN 30,1,1,-1,0,1016,RJOP 101700Z 33014KT 4500 -SHSN FEW008 SCT012 BKN030 01/M00     Q1016 RMK 1ST008 4CU012 7CU030 A3002=,- SN SH
20180110_180000.003,0,RJOP,,,,0,20180110180000,-1,-1,-1,-1,280,-1,13,-1,-1,-1,-1,,4500,0,1,3,FEW 8   SCT 12   BKN 25,1,1,-1,0,1017,RJOP 101800Z 28013KT 4500 -SHSN FEW008 SCT012 BKN025 01/M00     Q1017 RMK 2ST008 4CU012 7CU025 A3004=,- SN SH
20180110_190000.003,0,RJOP,,,,0,20180110190000,-1,-1,-1,-1,280,-1,15,-1,-1,-1,-1,,9999,0,0,3,FEW 12   SCT 25   BKN 60,1,1,-1,1,1017,RJOP 101900Z 28015KT 9999 FEW012 SCT025 BKN060 01/M01 Q1017     RMK 1CU012 3CU025 7SC060 A3003=,
20180110_200000.003,0,RJOP,,,,0,20180110200000,-1,-1,-1,-1,290,-1,13,-1,-1,-1,-1,,4500,0,1,3,FEW 8   SCT 12   BKN 25,1,1,-1,1,1017,RJOP 102000Z 29013KT 4500 -SHSN FEW008 SCT012 BKN025 01/M01     Q1017 RMK 2ST008 4CU012 7CU025 A3005=,- SN SH
20180110_210000.003,0,RJOP,,,,0,20180110210000,-1,-1,-1,-1,280,-1,10,-1,-1,-1,-1,,9999,0,0,2,FEW 8   BKN 25,1,1,-1,1,1018,RJOP 102100Z 28010KT 9999 FEW008 BKN025 01/M01 Q1018 RMK     1ST008 7CU025 A3008 S000 SD/// FS000=,
20180110_220000.003,0,RJOP,,,,0,20180110220000,-1,-1,-1,-1,290,-1,8,-1,-1,260,330,,4000,0,1,3,SCT 8   SCT 12   BKN 25,1,0,-1,1,1019,RJOP 102200Z 29008KT 260V330 4000 -SHSN SCT008 SCT012 BKN025     00/M01 Q1019 RMK 3ST008 4CU012 7CU025 A3011=,- SN SH
20180110_230000.004,0,RJOP,,,,0,20180110230000,-1,-1,-1,-1,290,-1,8,-1,-1,-1,-1,,9999,0,1,3,FEW 12   BKN 25   BKN 50,1,0,-1,2,1020,RJOP 102300Z 29008KT 9999 -SHSN FEW012 BKN025 BKN050 00/M02     Q1020 RMK 2CU012 5CU025 6SC050 A3012=,- SN SH
20180111_000000.003,0,RJOP,,,,0,20180111000000,-1,-1,-1,-1,280,-1,9,-1,-1,-1,-1,,9999,0,1,3,FEW 12   BKN 25   BKN 50,1,1,-1,2,1020,RJOP 110000Z 28009KT 9999 -SHSN FEW012 BKN025 BKN050 01/M02     Q1020 RMK 2CU012 5CU025 6SC050 A3014 4000S-NW=,- SN SH
20180111_010000.003,0,RJOP,,,,0,20180111010000,-1,-1,-1,-1,320,-1,13,-1,-1,280,340,,9999,0,0,2,FEW 12   SCT 25,1,1,-1,2,1020,RJOP 110100Z 32013KT 280V340 9999 FEW012 SCT025 01/M02 Q1020     RMK 1CU012 3CU025 A3015=,
20180111_020000.003,0,RJOP,,,,0,20180111020000,-1,-1,-1,-1,310,-1,12,-1,-1,-1,-1,,9999,0,0,2,FEW 12   SCT 25,1,1,-1,2,1020,RJOP 110200Z 31012KT 9999 FEW012 SCT025 01/M02 Q1020 RMK     1CU012 3CU025 A3014=,
20180111_030000.002,0,RJOP,,,,0,20180111030000,-1,-1,-1,-1,320,-1,14,-1,-1,-1,-1,,9999,0,0,1,FEW 12,1,2,-1,3,1020,RJOP 110300Z 32014KT 9999 FEW012 02/M03 Q1020 RMK 1CU012     A3012=,
20180111_040000.003,0,RJOP,,,,0,20180111040000,-1,-1,-1,-1,330,-1,19,-1,-1,-1,-1,,9999,0,0,1,FEW 12,1,2,-1,3,1019,RJOP 110400Z 33019KT 9999 FEW012 02/M03 Q1019 RMK 1CU012     A3009=,
20180111_050000.003,0,RJOP,,,,0,20180111050000,-1,-1,-1,-1,330,-1,23,-1,-1,-1,-1,,9999,0,0,1,FEW 12,1,2,-1,3,1018,RJOP 110500Z 33023KT 9999 FEW012 02/M03 Q1018 RMK 1CU012 A3009     PEAK GUST 31KT=,
20180111_060000.003,0,RJOP,,,,0,20180111060000,-1,-1,-1,-1,310,-1,23,-1,-1,-1,-1,,9999,0,0,1,FEW 12,1,3,-1,4,1018,RJOP 110600Z 31023KT 9999 FEW012 03/M04 Q1018 RMK 1CU012 A3008     PEAK GUST 31KT=,
20180111_070000.003,0,RJOP,,,,0,20180111070000,-1,-1,-1,-1,320,-1,23,-1,-1,-1,-1,,9999,0,0,1,FEW 12,1,2,-1,4,1019,RJOP 110700Z 32023KT 9999 FEW012 02/M04 Q1019 RMK 1CU012 A3009     PEAK GUST 31KT=,
20180111_080000.003,0,RJOP,,,,0,20180111080000,-1,-1,-1,-1,300,-1,13,-1,-1,-1,-1,,9999,0,0,1,FEW 12,1,1,-1,3,1020,RJOP 110800Z 30013KT 9999 FEW012 01/M03 Q1020 RMK 1CU012     A3013=,
20180111_090000.003,0,RJOP,,,,0,20180111090000,-1,-1,-1,-1,320,-1,14,-1,-1,-1,-1,,9999,0,0,2,FEW 12   SCT 80,1,1,-1,4,1021,RJOP 110900Z 32014KT 9999 FEW012 SCT080 01/M04 Q1021 RMK     1CU012 4AC080 A3015=,
20180111_100000.003,0,RJOP,,,,0,20180111100000,-1,-1,-1,-1,300,-1,12,-1,-1,-1,-1,,9999,0,1,3,FEW 12   SCT 25   BKN 50,1,1,-1,3,1021,RJOP 111000Z 30012KT 9999 -SHSN FEW012 SCT025 BKN050 01/M03     Q1021 RMK 2CU012 4CU025 6SC050 A3017=,- SN SH
20180111_110000.003,0,RJOP,,,,0,20180111110000,-1,-1,-1,-1,290,-1,13,-1,-1,-1,-1,,9999,0,0,3,FEW 12   SCT 25   BKN 50,1,1,-1,3,1022,RJOP 111100Z 29013KT 9999 FEW012 SCT025 BKN050 01/M03 Q1022     RMK 2CU012 3CU025 7SC050 A3019=,
20180111_120000.003,0,RJOP,,,,0,20180111120000,-1,-1,-1,-1,290,-1,15,-1,-1,-1,-1,,9999,0,1,3,FEW 12   SCT 25   BKN 50,1,1,-1,5,1022,RJOP 111200Z 29015KT 9999 -SHSN FEW012 SCT025 BKN050 01/M05     Q1022 RMK 2CU012 3CU025 7SC050 A3019=,- SN SH
20180111_130000.003,0,RJOP,,,,0,20180111130000,-1,-1,-1,-1,300,-1,10,-1,-1,270,340,,9999,0,0,3,FEW 12   SCT 25   BKN 60,1,0,-1,5,1023,RJOP 111300Z 30010KT 270V340 9999 FEW012 SCT025 BKN060 00/M05     Q1023 RMK 1CU012 3CU025 5SC060 A3021=,
20180111_140000.003,0,RJOP,,,,0,20180111140000,-1,-1,-1,-1,290,-1,6,-1,-1,240,340,,9999,0,0,2,FEW 25   SCT 60,-1,0,-1,4,1022,RJOP 111400Z 29006KT 240V340 9999 FEW025 SCT060 M00/M04 Q1022     RMK 1CU025 3SC060 A3021=,
20180111_150000.003,0,RJOP,,,,0,20180111150000,-1,-1,-1,-1,280,-1,9,-1,-1,-1,-1,,9999,0,0,1,FEW 25,1,0,-1,5,1023,RJOP 111500Z 28009KT 9999 FEW025 00/M05 Q1023 RMK 1CU025     A3021=,
20180111_160000.003,0,RJOP,,,,0,20180111160000,-1,-1,-1,-1,290,-1,9,-1,-1,-1,-1,,9999,0,0,1,FEW 25,-1,1,-1,6,1023,RJOP 111600Z 29009KT 9999 FEW025 M01/M06 Q1023 RMK 1CU025     A3022=,
20180111_170000.003,0,RJOP,,,,0,20180111170000,-1,-1,-1,-1,300,-1,7,-1,-1,270,330,,9999,0,0,1,FEW 25,-1,1,-1,5,1023,RJOP 111700Z 30007KT 270V330 9999 FEW025 M01/M05 Q1023 RMK     1CU025 A3023=,
20180111_180000.003,0,RJOP,,,,0,20180111180000,-1,-1,-1,-1,300,-1,12,-1,22,-1,-1,,9999,0,0,1,FEW 25,-1,1,-1,5,1023,RJOP 111800Z 30012G22KT 9999 FEW025 M01/M05 Q1023 RMK 1CU025     A3023=,
20180111_190000.003,0,RJOP,,,,0,20180111190000,-1,-1,-1,-1,280,-1,10,-1,-1,-1,-1,,9999,0,0,1,FEW 25,-1,1,-1,5,1023,RJOP 111900Z 28010KT 9999 FEW025 M01/M05 Q1023 RMK 1CU025     A3022=,
20180111_200000.003,0,RJOP,,,,0,20180111200000,-1,-1,-1,-1,270,-1,7,-1,-1,-1,-1,,9999,0,0,1,FEW 25,-1,1,-1,5,1023,RJOP 112000Z 27007KT 9999 FEW025 M01/M05 Q1023 RMK 1CU025     A3023=,
20180111_210000.003,0,RJOP,,,,0,20180111210000,-1,-1,-1,-1,260,-1,9,-1,-1,-1,-1,,9999,0,0,1,FEW 30,-1,1,-1,5,1024,RJOP 112100Z 26009KT 9999 FEW030 M01/M05 Q1024 RMK 1CU030     A3024=,
20180111_220000.004,0,RJOP,,,,0,20180111220000,-1,-1,-1,-1,260,-1,8,-1,-1,-1,-1,,9999,0,0,1,FEW 30,-1,1,-1,5,1024,RJOP 112200Z 26008KT 9999 FEW030 M01/M05 Q1024 RMK 1CU030     A3024=,
20180111_230000.003,0,RJOP,,,,0,20180111230000,-1,-1,-1,-1,280,-1,11,-1,-1,-1,-1,,9999,0,0,1,FEW 30,-1,1,-1,5,1024,RJOP 112300Z 28011KT 9999 FEW030 M01/M05 Q1024 RMK 1CU030     A3026=,
20180112_000000.003,0,RJOP,,,,0,20180112000000,-1,-1,-1,-1,270,-1,9,-1,-1,-1,-1,,9999,0,0,1,FEW 30,-1,0,-1,4,1025,RJOP 120000Z 27009KT 9999 FEW030 M00/M04 Q1025 RMK 1CU030     A3028=,
20180112_010000.004,0,RJOP,,,,0,20180112010000,-1,-1,-1,-1,300,-1,17,-1,-1,-1,-1,,9999,0,0,1,FEW 30,1,1,-1,5,1025,RJOP 120100Z 30017KT 9999 FEW030 01/M05 Q1025 RMK 1CU030     A3028=,
20180112_020000.003,0,RJOP,,,,0,20180112020000,-1,-1,-1,-1,300,-1,14,-1,-1,-1,-1,,9999,0,0,1,FEW 30,1,2,-1,5,1024,RJOP 120200Z 30014KT 9999 FEW030 02/M05 Q1024 RMK 1CU030     A3026=,
20180112_030000.003,0,RJOP,,,,0,20180112030000,-1,-1,-1,-1,290,-1,16,-1,26,-1,-1,,9999,0,0,1,FEW 30,1,3,-1,5,1024,RJOP 120300Z 29016G26KT 9999 FEW030 03/M05 Q1024 RMK 2CU030     A3024=,
20180112_040000.003,0,RJOP,,,,0,20180112040000,-1,-1,-1,-1,290,-1,15,-1,-1,-1,-1,,9999,0,0,2,FEW 30   SCT 40,1,3,-1,6,1023,RJOP 120400Z 29015KT 9999 FEW030 SCT040 03/M06 Q1023 RMK     1CU030 3CU040 A3022 PEAK GUST 23KT=,
20180112_050000.004,0,RJOP,,,,0,20180112050000,-1,-1,-1,-1,290,-1,17,-1,-1,-1,-1,,9999,0,0,1,FEW 40,1,3,-1,7,1023,RJOP 120500Z 29017KT 9999 FEW040 03/M07 Q1023 RMK 2CU040 A3021     PEAK GUST 26KT=,
20180112_060000.003,0,RJOP,,,,0,20180112060000,-1,-1,-1,-1,300,-1,18,-1,-1,270,330,,9999,0,0,1,FEW 30,1,4,-1,7,1023,RJOP 120600Z 30018KT 270V330 9999 FEW030 04/M07 Q1023 RMK     1CU030 A3022=,
20180112_070000.004,0,RJOP,,,,0,20180112070000,-1,-1,-1,-1,300,-1,15,-1,25,-1,-1,,9999,0,0,1,FEW 30,1,3,-1,8,1023,RJOP 120700Z 30015G25KT 9999 FEW030 03/M08 Q1023 RMK 1CU030     A3023=,
20180112_080000.003,0,RJOP,,,,0,20180112080000,-1,-1,-1,-1,300,-1,13,-1,-1,-1,-1,,9999,0,0,1,FEW 30,1,3,-1,8,1024,RJOP 120800Z 30013KT 9999 FEW030 03/M08 Q1024 RMK 1CU030     A3025=,
20180112_090000.003,0,RJOP,,,,0,20180112090000,-1,-1,-1,-1,300,-1,15,-1,-1,-1,-1,,9999,0,0,1,FEW 30,1,2,-1,7,1024,RJOP 120900Z 30015KT 9999 FEW030 02/M07 Q1024 RMK 1CU030     A3026=,
20180112_100000.003,0,RJOP,,,,0,20180112100000,-1,-1,-1,-1,290,-1,14,-1,-1,-1,-1,,9999,0,0,1,FEW 30,1,2,-1,6,1025,RJOP 121000Z 29014KT 9999 FEW030 02/M06 Q1025 RMK 1CU030     A3028=,
20180112_110000.003,0,RJOP,,,,0,20180112110000,-1,-1,-1,-1,290,-1,13,-1,-1,-1,-1,,9999,0,0,1,FEW 30,1,2,-1,7,1025,RJOP 121100Z 29013KT 9999 FEW030 02/M07 Q1025 RMK 1CU030     A3029=,
20180112_120000.003,0,RJOP,,,,0,20180112120000,-1,-1,-1,-1,290,-1,12,-1,-1,-1,-1,,9999,0,0,1,FEW 30,1,1,-1,7,1025,RJOP 121200Z 29012KT 9999 FEW030 01/M07 Q1025 RMK 1CU030     A3029=,
20180112_130000.003,0,RJOP,,,,0,20180112130000,-1,-1,-1,-1,290,-1,14,-1,-1,-1,-1,,9999,0,0,1,FEW 30,1,1,-1,6,1025,RJOP 121300Z 29014KT 9999 FEW030 01/M06 Q1025 RMK 1CU030     A3029=,
20180112_140000.003,0,RJOP,,,,0,20180112140000,-1,-1,-1,-1,300,-1,14,-1,-1,-1,-1,,9999,0,0,1,FEW 30,1,1,-1,5,1026,RJOP 121400Z 30014KT 9999 FEW030 01/M05 Q1026 RMK 1CU030     A3030=,
20180112_150000.003,0,RJOP,,,,0,20180112150000,-1,-1,-1,-1,300,-1,13,-1,-1,-1,-1,,9999,0,0,1,FEW 30,1,1,-1,5,1026,RJOP 121500Z 30013KT 9999 FEW030 01/M05 Q1026 RMK 1CU030     A3031=,
20180112_160000.003,0,RJOP,,,,0,20180112160000,-1,-1,-1,-1,300,-1,15,-1,-1,-1,-1,,9999,0,0,1,FEW 30,1,1,-1,4,1026,RJOP 121600Z 30015KT 9999 FEW030 01/M04 Q1026 RMK 1CU030     A3031=,
20180112_170000.003,0,RJOP,,,,0,20180112170000,-1,-1,-1,-1,310,-1,15,-1,-1,-1,-1,,9999,0,0,1,FEW 30,1,1,-1,3,1026,RJOP 121700Z 31015KT 9999 FEW030 01/M03 Q1026 RMK 1CU030     A3031=,
20180112_180000.003,0,RJOP,,,,0,20180112180000,-1,-1,-1,-1,310,-1,16,-1,-1,-1,-1,,9999,0,0,1,FEW 30,1,1,-1,3,1026,RJOP 121800Z 31016KT 9999 FEW030 01/M03 Q1026 RMK 1CU030     A3031=,
20180112_190000.003,0,RJOP,,,,0,20180112190000,-1,-1,-1,-1,300,-1,14,-1,-1,-1,-1,,9999,0,0,1,FEW 30,1,1,-1,4,1026,RJOP 121900Z 30014KT 9999 FEW030 01/M04 Q1026 RMK 1CU030     A3031=,
20180112_200000.004,0,RJOP,,,,0,20180112200000,-1,-1,-1,-1,290,-1,14,-1,-1,-1,-1,,9999,0,0,1,FEW 30,1,0,-1,4,1025,RJOP 122000Z 29014KT 9999 FEW030 00/M04 Q1025 RMK 1CU030     A3029=,
20180112_210000.003,0,RJOP,,,,0,20180112210000,-1,-1,-1,-1,310,-1,13,-1,-1,-1,-1,,9999,0,0,1,FEW 30,1,1,-1,5,1026,RJOP 122100Z 31013KT 9999 FEW030 01/M05 Q1026 RMK 1CU030     A3030=,
20180112_220000.003,0,RJOP,,,,0,20180112220000,-1,-1,-1,-1,300,-1,9,-1,-1,-1,-1,,9999,0,0,1,FEW 30,1,0,-1,5,1026,RJOP 122200Z 30009KT 9999 FEW030 00/M05 Q1026 RMK 1CU030     A3032=,
20180112_230000.003,0,RJOP,,,,0,20180112230000,-1,-1,-1,-1,280,-1,7,-1,-1,-1,-1,,9999,0,0,1,FEW 30,1,0,-1,4,1027,RJOP 122300Z 28007KT 9999 FEW030 00/M04 Q1027 RMK 1CU030     A3033=,
20180113_000000.003,0,RJOP,,,,0,20180113000000,-1,-1,-1,-1,300,-1,11,-1,-1,-1,-1,,9999,0,0,1,FEW 30,1,2,-1,5,1027,RJOP 130000Z 30011KT 9999 FEW030 02/M05 Q1027 RMK 1CU030     A3033=,
20180113_010000.004,0,RJOP,,,,0,20180113010000,-1,-1,-1,-1,300,-1,12,-1,-1,-1,-1,,9999,0,0,1,FEW 30,1,3,-1,4,1027,RJOP 130100Z 30012KT 9999 FEW030 03/M04 Q1027 RMK 1CU030     A3035=,
20180113_020000.003,0,RJOP,,,,0,20180113020000,-1,-1,-1,-1,300,-1,16,-1,-1,-1,-1,,9999,0,0,1,FEW 30,1,4,-1,4,1027,RJOP 130200Z 30016KT 9999 FEW030 04/M04 Q1027 RMK 1CU030     A3034=,
20180113_030000.003,0,RJOP,,,,0,20180113030000,-1,-1,-1,-1,290,-1,16,-1,27,260,320,,9999,0,0,2,FEW 30   SCT 50,1,5,-1,4,1026,RJOP 130300Z 29016G27KT 260V320 9999 FEW030 SCT050 05/M04     Q1026 RMK 1CU030 3SC050 A3032=,
20180113_040000.003,0,RJOP,,,,0,20180113040000,-1,-1,-1,-1,300,-1,14,-1,-1,-1,-1,,9999,0,0,2,FEW 30   BKN 50,1,6,-1,4,1026,RJOP 130400Z 30014KT 9999 FEW030 BKN050 06/M04 Q1026 RMK     1CU030 6SC050 A3030=,
20180113_050000.003,0,RJOP,,,,0,20180113050000,-1,-1,-1,-1,290,-1,16,-1,26,-1,-1,,9999,0,0,2,FEW 30   SCT 50,1,5,-1,3,1025,RJOP 130500Z 29016G26KT 9999 FEW030 SCT050 05/M03 Q1025 RMK     1CU030 3SC050 A3029=,
20180113_060000.003,0,RJOP,,,,0,20180113060000,-1,-1,-1,-1,300,-1,20,-1,31,270,350,,9999,0,0,2,FEW 30   SCT 50,1,6,-1,3,1026,RJOP 130600Z 30020G31KT 270V350 9999 FEW030 SCT050 06/M03     Q1026 RMK 1CU030 3SC050 A3030=,
20180113_070000.003,0,RJOP,,,,0,20180113070000,-1,-1,-1,-1,290,-1,16,-1,26,-1,-1,,9999,0,0,2,FEW 30   SCT 50,1,5,-1,3,1026,RJOP 130700Z 29016G26KT 9999 FEW030 SCT050 05/M03 Q1026 RMK     1CU030 3SC050 A3030=,
20180113_080000.003,0,RJOP,,,,0,20180113080000,-1,-1,-1,-1,300,-1,13,-1,23,-1,-1,,9999,0,0,2,FEW 30   SCT 50,1,5,-1,3,1026,RJOP 130800Z 30013G23KT 9999 FEW030 SCT050 05/M03 Q1026 RMK     1CU030 3SC050 A3032=,
20180113_090000.003,0,RJOP,,,,0,20180113090000,-1,-1,-1,-1,280,-1,12,-1,-1,-1,-1,,9999,0,0,2,FEW 30   SCT 50,1,5,-1,3,1027,RJOP 130900Z 28012KT 9999 FEW030 SCT050 05/M03 Q1027 RMK     1CU030 3SC050 A3034=,
20180113_100000.003,0,RJOP,,,,0,20180113100000,-1,-1,-1,-1,310,-1,11,-1,-1,-1,-1,,9999,0,0,1,FEW 30,1,4,-1,3,1028,RJOP 131000Z 31011KT 9999 FEW030 04/M03 Q1028 RMK 1CU030     A3036=,
20180113_110000.003,0,RJOP,,,,0,20180113110000,-1,-1,-1,-1,300,-1,10,-1,-1,-1,-1,,9999,0,0,1,FEW 30,1,4,-1,3,1028,RJOP 131100Z 30010KT 9999 FEW030 04/M03 Q1028 RMK 1CU030     A3037=,
20180113_120000.003,0,RJOP,,,,0,20180113120000,-1,-1,-1,-1,290,-1,14,-1,-1,-1,-1,,9999,0,0,1,FEW 30,1,4,-1,3,1028,RJOP 131200Z 29014KT 9999 FEW030 04/M03 Q1028 RMK 1CU030     A3038=,
20180113_130000.003,0,RJOP,,,,0,20180113130000,-1,-1,-1,-1,290,-1,16,-1,-1,-1,-1,,9999,0,0,1,FEW 30,1,3,-1,3,1029,RJOP 131300Z 29016KT 9999 FEW030 03/M03 Q1029 RMK 1CU030     A3039=,
20180113_140000.004,0,RJOP,,,,0,20180113140000,-1,-1,-1,-1,300,-1,15,-1,-1,-1,-1,,9999,0,0,1,FEW 30,1,3,-1,4,1029,RJOP 131400Z 30015KT 9999 FEW030 03/M04 Q1029 RMK 1CU030 A3039     PEAK GUST 24KT=,
20180113_150000.003,0,RJOP,,,,0,20180113150000,-1,-1,-1,-1,300,-1,15,-1,25,-1,-1,,9999,0,0,1,FEW 30,1,3,-1,3,1029,RJOP 131500Z 30015G25KT 9999 FEW030 03/M03 Q1029 RMK 1CU030     A3040=,
20180113_160000.003,0,RJOP,,,,0,20180113160000,-1,-1,-1,-1,300,-1,14,-1,-1,-1,-1,,9999,0,0,1,FEW 30,1,3,-1,3,1029,RJOP 131600Z 30014KT 9999 FEW030 03/M03 Q1029 RMK 1CU030     A3039=,
20180113_170000.003,0,RJOP,,,,0,20180113170000,-1,-1,-1,-1,300,-1,17,-1,27,-1,-1,,9999,0,0,1,FEW 30,1,3,-1,2,1029,RJOP 131700Z 30017G27KT 9999 FEW030 03/M02 Q1029 RMK 1CU030     A3040=,
20180113_180000.003,0,RJOP,,,,0,20180113180000,-1,-1,-1,-1,300,-1,14,-1,-1,-1,-1,,9999,0,0,1,FEW 30,1,3,-1,2,1029,RJOP 131800Z 30014KT 9999 FEW030 03/M02 Q1029 RMK 1CU030     A3039=,
20180113_190000.004,0,RJOP,,,,0,20180113190000,-1,-1,-1,-1,300,-1,15,-1,-1,-1,-1,,9999,0,0,1,FEW 30,1,3,-1,2,1029,RJOP 131900Z 30015KT 9999 FEW030 03/M02 Q1029 RMK 2CU030     A3040=,
20180113_200000.004,0,RJOP,,,,0,20180113200000,-1,-1,-1,-1,310,-1,15,-1,-1,-1,-1,,9999,0,0,2,FEW 25   BKN 40,1,3,-1,2,1030,RJOP 132000Z 31015KT 9999 FEW025 BKN040 03/M02 Q1030 RMK     1CU025 5CU040 A3042=,
20180113_210000.003,0,RJOP,,,,0,20180113210000,-1,-1,-1,-1,300,-1,14,-1,-1,-1,-1,,9999,0,0,2,FEW 25   SCT 40,1,3,-1,2,1030,RJOP 132100Z 30014KT 9999 FEW025 SCT040 03/M02 Q1030 RMK     1CU025 3CU040 A3043=,
20180113_220000.003,0,RJOP,,,,0,20180113220000,-1,-1,-1,-1,290,-1,12,-1,-1,-1,-1,,9999,0,0,2,SCT 25   BKN 40,1,3,-1,2,1030,RJOP 132200Z 29012KT 9999 SCT025 BKN040 03/M02 Q1030 RMK     3CU025 7CU040 A3044=,
20180113_230000.003,0,RJOP,,,,0,20180113230000,-1,-1,-1,-1,300,-1,10,-1,-1,270,330,,9999,0,1,2,FEW 25   BKN 40,1,3,-1,2,1031,RJOP 132300Z 30010KT 270V330 9999 VCSH FEW025 BKN040 03/M02     Q1031 RMK 1CU025 6CU040 A3045=,VC SH
20180114_000000.004,0,RJOP,,,,0,20180114000000,-1,-1,-1,-1,300,-1,9,-1,-1,-1,-1,,9999,0,1,2,SCT 25   BKN 40,1,4,-1,1,1032,RJOP 140000Z 30009KT 9999 -SHRA SCT025 BKN040 04/M01 Q1032 RMK     3CU025 5CU040 A3049=,- RA SH
20180114_010000.003,0,RJOP,,,,0,20180114010000,-1,-1,-1,-1,290,-1,9,-1,-1,-1,-1,,9999,0,0,2,SCT 25   BKN 40,1,4,-1,1,1033,RJOP 140100Z 29009KT 9999 SCT025 BKN040 04/M01 Q1033 RMK     3CU025 5CU040 A3052=,
20180114_020000.003,0,RJOP,,,,0,20180114020000,-1,-1,-1,-1,310,-1,7,-1,-1,270,340,,9999,0,0,2,SCT 25   BKN 40,1,5,-1,2,1032,RJOP 140200Z 31007KT 270V340 9999 SCT025 BKN040 05/M02 Q1032     RMK 3CU025 7CU040 A3050=,
20180114_030000.003,0,RJOP,,,,0,20180114030000,-1,-1,-1,-1,310,-1,8,-1,-1,-1,-1,,9999,0,0,2,FEW 25   BKN 40,1,6,-1,2,1032,RJOP 140300Z 31008KT 9999 FEW025 BKN040 06/M02 Q1032 RMK     2CU025 6CU040 A3048=,
20180114_040000.003,0,RJOP,,,,0,20180114040000,-1,-1,-1,-1,340,-1,11,-1,-1,-1,-1,,9999,0,0,2,FEW 25   SCT 40,1,6,-1,4,1030,RJOP 140400Z 34011KT 9999 FEW025 SCT040 06/M04 Q1030 RMK     1CU025 3CU040 A3044=,
20180114_050000.003,0,RJOP,,,,0,20180114050000,-1,-1,-1,-1,10,-1,10,-1,-1,340,40,,9999,0,0,2,FEW 40   BKN 230,1,6,-1,3,1030,RJOP 140500Z 01010KT 340V040 9999 FEW040 BKN230 06/M03 Q1030     RMK 2CU040 A3042=,
20180114_060000.004,0,RJOP,,,,0,20180114060000,-1,-1,-1,-1,20,-1,11,-1,-1,-1,-1,,9999,0,0,2,FEW 40   BKN 230,1,6,-1,3,1029,RJOP 140600Z 02011KT 9999 FEW040 BKN230 06/M03 Q1029 RMK     1CU040 A3041=,
20180114_070000.003,0,RJOP,,,,0,20180114070000,-1,-1,-1,-1,10,-1,10,-1,-1,-1,-1,,9999,0,0,2,FEW 40   BKN 230,1,6,-1,4,1029,RJOP 140700Z 01010KT 9999 FEW040 BKN230 06/M04 Q1029 RMK     1CU040 A3041=,
20180114_080000.003,0,RJOP,,,,0,20180114080000,-1,-1,-1,-1,10,-1,8,-1,-1,-1,-1,,9999,0,0,2,FEW 40   BKN 230,1,5,-1,4,1029,RJOP 140800Z 01008KT 9999 FEW040 BKN230 05/M04 Q1029 RMK     1CU040 A3040=,
20180114_090000.003,0,RJOP,,,,0,20180114090000,-1,-1,-1,-1,340,-1,9,-1,-1,-1,-1,,9999,0,0,3,FEW 40   SCT 180   BKN 230,1,5,-1,2,1029,RJOP 140900Z 34009KT 9999 FEW040 SCT180 BKN230 05/M02 Q1029     RMK 1CU040 4AC180 A3041=,
20180114_100000.003,0,RJOP,,,,0,20180114100000,-1,-1,-1,-1,310,-1,7,-1,-1,280,340,,9999,0,0,2,FEW 40   BKN 230,1,5,-1,2,1029,RJOP 141000Z 31007KT 280V340 9999 FEW040 BKN230 05/M02 Q1029     RMK 1CU040 A3041=,
20180114_110000.003,0,RJOP,,,,0,20180114110000,-1,-1,-1,-1,999,-1,2,-1,-1,-1,-1,,9999,0,0,2,FEW 40   BKN 230,1,4,-1,2,1029,RJOP 141100Z VRB02KT 9999 FEW040 BKN230 04/M02 Q1029 RMK     1CU040 A3041=,
20180114_120000.003,0,RJOP,,,,0,20180114120000,-1,-1,-1,-1,260,-1,6,-1,-1,-1,-1,,9999,0,0,2,FEW 30   BKN 230,1,3,-1,2,1030,RJOP 141200Z 26006KT 9999 FEW030 BKN230 03/M02 Q1030 RMK     1CU030 A3043=,
20180114_130000.004,0,RJOP,,,,0,20180114130000,-1,-1,-1,-1,270,-1,5,-1,-1,-1,-1,,9999,0,0,2,FEW 30   SCT 230,1,2,-1,2,1030,RJOP 141300Z 27005KT 9999 FEW030 SCT230 02/M02 Q1030 RMK     1CU030 A3042=,
20180114_140000.003,0,RJOP,,,,0,20180114140000,-1,-1,-1,-1,270,-1,8,-1,-1,-1,-1,,9999,0,0,2,FEW 30   SCT 230,1,2,-1,2,1030,RJOP 141400Z 27008KT 9999 FEW030 SCT230 02/M02 Q1030 RMK     1CU030 A3042=,
20180114_150000.003,0,RJOP,,,,0,20180114150000,-1,-1,-1,-1,260,-1,4,-1,-1,220,300,,9999,0,0,2,FEW 30   SCT 230,1,2,-1,2,1029,RJOP 141500Z 26004KT 220V300 9999 FEW030 SCT230 02/M02 Q1029     RMK 1CU030 A3040=,
20180114_160000.003,0,RJOP,,,,0,20180114160000,-1,-1,-1,-1,240,-1,6,-1,-1,170,270,,9999,0,0,1,FEW 30,1,2,-1,2,1029,RJOP 141600Z 24006KT 170V270 9999 FEW030 02/M02 Q1029 RMK     1CU030 A3039=,
20180114_170000.003,0,RJOP,,,,0,20180114170000,-1,-1,-1,-1,280,-1,4,-1,-1,250,330,,9999,0,0,1,FEW 30,1,1,-1,2,1028,RJOP 141700Z 28004KT 250V330 9999 FEW030 01/M02 Q1028 RMK     1CU030 A3038=,
20180114_180000.004,0,RJOP,,,,0,20180114180000,-1,-1,-1,-1,270,-1,6,-1,-1,-1,-1,,9999,0,0,1,FEW 30,1,1,-1,2,1028,RJOP 141800Z 27006KT 9999 FEW030 01/M02 Q1028 RMK 1CU030     A3038=,
20180114_190000.003,0,RJOP,,,,0,20180114190000,-1,-1,-1,-1,260,-1,7,-1,-1,-1,-1,,9999,0,0,1,FEW 30,1,1,-1,2,1028,RJOP 141900Z 26007KT 9999 FEW030 01/M02 Q1028 RMK 1CU030     A3037=,
20180114_200000.004,0,RJOP,,,,0,20180114200000,-1,-1,-1,-1,270,-1,7,-1,-1,-1,-1,,9999,0,0,1,FEW 30,1,1,-1,2,1028,RJOP 142000Z 27007KT 9999 FEW030 01/M02 Q1028 RMK 1CU030     A3037=,
20180114_210000.003,0,RJOP,,,,0,20180114210000,-1,-1,-1,-1,270,-1,5,-1,-1,-1,-1,,9999,0,0,1,FEW 30,1,1,-1,2,1028,RJOP 142100Z 27005KT 9999 FEW030 01/M02 Q1028 RMK 2CU030     A3036=,
20180114_220000.003,0,RJOP,,,,0,20180114220000,-1,-1,-1,-1,270,-1,7,-1,-1,-1,-1,,9999,0,0,1,FEW 30,1,1,-1,2,1028,RJOP 142200Z 27007KT 9999 FEW030 01/M02 Q1028 RMK 1CU030     A3036=,
20180114_230000.003,0,RJOP,,,,0,20180114230000,-1,-1,-1,-1,230,-1,3,-1,-1,210,270,,9999,0,0,1,FEW 30,1,0,-1,2,1028,RJOP 142300Z 23003KT 210V270 9999 FEW030 00/M02 Q1028 RMK     1CU030 A3036=,
20180115_000000.003,0,RJOP,,,,0,20180115000000,-1,-1,-1,-1,260,-1,5,-1,-1,-1,-1,,9999,0,0,1,FEW 30,1,3,-1,1,1028,RJOP 150000Z 26005KT 9999 FEW030 03/M01 Q1028 RMK 1CU030     A3038=,
20180115_010000.003,0,RJOP,,,,0,20180115010000,-1,-1,-1,-1,999,-1,2,-1,-1,-1,-1,,9999,0,0,1,FEW 30,1,5,-1,1,1028,RJOP 150100Z VRB02KT 9999 FEW030 05/M01 Q1028 RMK 1CU030     A3038=,
20180115_020000.003,0,RJOP,,,,0,20180115020000,-1,-1,-1,-1,340,-1,6,-1,-1,-1,-1,,9999,0,0,2,FEW 30   SCT 230,1,6,-1,0,1028,RJOP 150200Z 34006KT 9999 FEW030 SCT230 06/M00 Q1028 RMK     1CU030 A3036=,
20180115_030000.003,0,RJOP,,,,0,20180115030000,-1,-1,-1,-1,20,-1,6,-1,-1,320,60,,9999,0,0,2,FEW 30   SCT 70,1,7,1,1,1026,RJOP 150300Z 02006KT 320V060 9999 FEW030 SCT070 07/01 Q1026     RMK 1CU030 3AC070 A3031 P/FR=,
20180115_040000.003,0,RJOP,,,,0,20180115040000,-1,-1,-1,-1,110,-1,5,-1,-1,60,140,,9999,0,0,1,FEW 30,1,8,1,3,1024,RJOP 150400Z 11005KT 060V140 9999 FEW030 08/03 Q1024 RMK     1CU030 A3025 P/FR=,
20180115_050000.003,0,RJOP,,,,0,20180115050000,-1,-1,-1,-1,70,-1,6,-1,-1,40,100,,9999,0,0,1,FEW 30,1,8,1,5,1023,RJOP 150500Z 07006KT 040V100 9999 FEW030 08/05 Q1023 RMK     1CU030 A3022=,
20180115_060000.003,0,RJOP,,,,0,20180115060000,-1,-1,-1,-1,80,-1,5,-1,-1,30,200,,9999,0,0,2,FEW 30   SCT 80,1,10,1,7,1023,RJOP 150600Z 08005KT 030V200 9999 FEW030 SCT080 10/07 Q1023     RMK 1CU030 3AC080 A3021=,
20180115_070000.005,0,RJOP,,,,0,20180115070000,-1,-1,-1,-1,10,-1,5,-1,-1,330,60,,9999,0,0,3,FEW 30   SCT 60   BKN 70,1,10,1,8,1023,RJOP 150700Z 01005KT 330V060 9999 FEW030 SCT060 BKN070 10/08     Q1023 RMK 1CU030 3SC060 6AC070 A3023=,
20180115_080000.003,0,RJOP,,,,0,20180115080000,-1,-1,-1,-1,350,-1,8,-1,-1,-1,-1,,9999,0,0,3,FEW 30   SCT 60   BKN 70,1,9,1,7,1024,RJOP 150800Z 35008KT 9999 FEW030 SCT060 BKN070 09/07 Q1024 RMK     1CU030 3SC060 6AC070 A3025=,
20180115_090000.003,0,RJOP,,,,0,20180115090000,-1,-1,-1,-1,350,-1,7,-1,-1,-1,-1,,9999,0,0,3,FEW 30   SCT 50   BKN 70,1,9,1,6,1024,RJOP 150900Z 35007KT 9999 FEW030 SCT050 BKN070 09/06 Q1024 RMK     1CU030 3SC050 6AC070 A3026=,
20180115_100000.003,0,RJOP,,,,0,20180115100000,-1,-1,-1,-1,340,-1,5,-1,-1,-1,-1,,9999,0,0,2,FEW 30   SCT 50,1,8,1,6,1025,RJOP 151000Z 34005KT 9999 FEW030 SCT050 08/06 Q1025 RMK 1CU030     4SC050 A3028=,
20180115_110000.003,0,RJOP,,,,0,20180115110000,-1,-1,-1,-1,310,-1,3,-1,-1,-1,-1,,9999,0,0,1,FEW 30,1,7,1,6,1025,RJOP 151100Z 31003KT 9999 FEW030 07/06 Q1025 RMK 1CU030 A3027=,
20180115_120000.003,0,RJOP,,,,0,20180115120000,-1,-1,-1,-1,280,-1,5,-1,-1,260,320,,9999,0,0,1,FEW 30,1,6,1,5,1025,RJOP 151200Z 28005KT 260V320 9999 FEW030 06/05 Q1025 RMK     1CU030 A3028=,
20180115_130000.003,0,RJOP,,,,0,20180115130000,-1,-1,-1,-1,250,-1,5,-1,-1,190,270,,9999,0,0,1,FEW 30,1,6,1,4,1025,RJOP 151300Z 25005KT 190V270 9999 FEW030 06/04 Q1025 RMK     1CU030 A3028=,
20180115_140000.003,0,RJOP,,,,0,20180115140000,-1,-1,-1,-1,250,-1,3,-1,-1,-1,-1,,9999,0,0,1,FEW 30,1,5,1,4,1025,RJOP 151400Z 25003KT 9999 FEW030 05/04 Q1025 RMK 1CU030 A3027=,
20180115_150000.003,0,RJOP,,,,0,20180115150000,-1,-1,-1,-1,260,-1,6,-1,-1,-1,-1,,9999,0,0,1,FEW 30,1,5,1,4,1024,RJOP 151500Z 26006KT 9999 FEW030 05/04 Q1024 RMK 1CU030 A3025=,
20180115_160000.003,0,RJOP,,,,0,20180115160000,-1,-1,-1,-1,250,-1,4,-1,-1,-1,-1,,9999,0,0,1,FEW 30,1,5,1,3,1024,RJOP 151600Z 25004KT 9999 FEW030 05/03 Q1024 RMK 1CU030 A3025=,
20180115_170000.003,0,RJOP,,,,0,20180115170000,-1,-1,-1,-1,999,-1,2,-1,-1,-1,-1,,9999,0,0,1,FEW 30,1,4,1,3,1024,RJOP 151700Z VRB02KT 9999 FEW030 04/03 Q1024 RMK 1CU030 A3025=,
20180115_180000.003,0,RJOP,,,,0,20180115180000,-1,-1,-1,-1,0,-1,0,-1,-1,-1,-1,,9999,0,0,1,FEW 30,1,4,1,3,1023,RJOP 151800Z 00000KT 9999 FEW030 04/03 Q1023 RMK 1CU030 A3024=,
20180115_190000.003,0,RJOP,,,,0,20180115190000,-1,-1,-1,-1,999,-1,1,-1,-1,-1,-1,,9999,0,0,1,FEW 30,1,3,1,2,1023,RJOP 151900Z VRB01KT 9999 FEW030 03/02 Q1023 RMK 1CU030 A3021=,
20180115_200000.003,0,RJOP,,,,0,20180115200000,-1,-1,-1,-1,260,-1,4,-1,-1,-1,-1,,9999,0,0,1,FEW 30,1,3,1,3,1022,RJOP 152000Z 26004KT 9999 FEW030 03/03 Q1022 RMK 1CU030 A3020=,
20180115_210000.003,0,RJOP,,,,0,20180115210000,-1,-1,-1,-1,999,-1,2,-1,-1,-1,-1,,9999,0,0,1,FEW 30,1,3,1,3,1023,RJOP 152100Z VRB02KT 9999 FEW030 03/03 Q1023 RMK 1CU030 A3021=,
20180115_220000.003,0,RJOP,,,,0,20180115220000,-1,-1,-1,-1,260,-1,4,-1,-1,230,290,,9999,0,0,2,FEW 30   SCT 230,1,3,1,2,1023,RJOP 152200Z 26004KT 230V290 9999 FEW030 SCT230 03/02 Q1023     RMK 1CU030 A3023=,
20180115_230000.003,0,RJOP,,,,0,20180115230000,-1,-1,-1,-1,260,-1,4,-1,-1,220,280,,9999,0,0,1,FEW 30,1,4,1,3,1024,RJOP 152300Z 26004KT 220V280 9999 FEW030 04/03 Q1024 RMK     1CU030 A3024=,
20180116_000000.003,0,RJOP,,,,0,20180116000000,-1,-1,-1,-1,999,-1,1,-1,-1,-1,-1,,9999,0,0,1,FEW 30,1,4,1,3,1024,RJOP 160000Z VRB01KT 9999 FEW030 04/03 Q1024 RMK 1CU030 A3024=,
20180116_010000.003,0,RJOP,,,,0,20180116010000,-1,-1,-1,-1,350,-1,3,-1,-1,320,40,,9999,0,0,1,FEW 30,1,7,1,5,1024,RJOP 160100Z 35003KT 320V040 9999 FEW030 07/05 Q1024 RMK     1CU030 A3024=,
20180116_020000.003,0,RJOP,,,,0,20180116020000,-1,-1,-1,-1,340,-1,3,-1,-1,300,20,,9999,0,0,1,FEW 30,1,8,1,4,1023,RJOP 160200Z 34003KT 300V020 9999 FEW030 08/04 Q1023 RMK     1CU030 A3022=,
20180116_030000.003,0,RJOP,,,,0,20180116030000,-1,-1,-1,-1,10,-1,5,-1,-1,320,70,,9999,0,0,1,FEW 30,1,9,1,6,1022,RJOP 160300Z 01005KT 320V070 9999 FEW030 09/06 Q1022 RMK     1CU030 A3019=,
20180116_040000.003,0,RJOP,,,,0,20180116040000,-1,-1,-1,-1,70,-1,4,-1,-1,30,110,,9999,0,0,1,FEW 30,1,10,1,7,1020,RJOP 160400Z 07004KT 030V110 9999 FEW030 10/07 Q1020 RMK     1CU030 A3014=,
20180116_050000.003,0,RJOP,,,,0,20180116050000,-1,-1,-1,-1,90,-1,6,-1,-1,60,120,,9999,0,0,1,FEW 30,1,10,1,8,1019,RJOP 160500Z 09006KT 060V120 9999 FEW030 10/08 Q1019 RMK     1CU030 A3010=,
20180116_060000.003,0,RJOP,,,,0,20180116060000,-1,-1,-1,-1,100,-1,9,-1,-1,-1,-1,,9999,0,0,1,FEW 30,1,11,1,9,1018,RJOP 160600Z 10009KT 9999 FEW030 11/09 Q1018 RMK 1CU030 A3007=,
20180116_070000.003,0,RJOP,,,,0,20180116070000,-1,-1,-1,-1,110,-1,9,-1,-1,-1,-1,,9999,0,0,1,FEW 30,1,11,1,9,1018,RJOP 160700Z 11009KT 9999 FEW030 11/09 Q1018 RMK 1CU030 A3007=,
20180116_080000.003,0,RJOP,,,,0,20180116080000,-1,-1,-1,-1,120,-1,8,-1,-1,-1,-1,,9999,0,0,1,FEW 30,1,12,1,10,1017,RJOP 160800Z 12008KT 9999 FEW030 12/10 Q1017 RMK 1CU030 A3006=,
20180116_090000.003,0,RJOP,,,,0,20180116090000,-1,-1,-1,-1,250,-1,6,-1,-1,-1,-1,,9999,0,0,2,FEW 30   BKN 60,1,11,1,9,1017,RJOP 160900Z 25006KT 9999 FEW030 BKN060 11/09 Q1017 RMK 1CU030     5SC060 A3005=,
20180116_100000.003,0,RJOP,,,,0,20180116100000,-1,-1,-1,-1,170,-1,15,-1,-1,-1,-1,,9999,0,0,2,FEW 30   BKN 60,1,13,1,11,1017,RJOP 161000Z 17015KT 9999 FEW030 BKN060 13/11 Q1017 RMK 1CU030     7SC060 A3004=,
20180116_110000.005,0,RJOP,,,,0,20180116110000,-1,-1,-1,-1,160,-1,10,-1,-1,-1,-1,,9999,0,0,2,FEW 30   BKN 60,1,13,1,11,1016,RJOP 161100Z 16010KT 9999 FEW030 BKN060 13/11 Q1016 RMK 1CU030     7SC060 A3003=,
20180116_120000.003,0,RJOP,,,,0,20180116120000,-1,-1,-1,-1,140,-1,4,-1,-1,110,170,,9999,0,0,3,FEW 15   SCT 30   BKN 60,1,13,1,11,1017,RJOP 161200Z 14004KT 110V170 9999 FEW015 SCT030 BKN060 13/11     Q1017 RMK 1CU015 3CU030 7SC060 A3003=,
20180116_130000.003,0,RJOP,,,,0,20180116130000,-1,-1,-1,-1,150,-1,7,-1,-1,-1,-1,,9999,0,0,3,FEW 15   SCT 30   BKN 60,1,14,1,12,1017,RJOP 161300Z 15007KT 9999 FEW015 SCT030 BKN060 14/12 Q1017 RMK     1CU015 3CU030 7SC060 A3003=,
20180116_140000.003,0,RJOP,,,,0,20180116140000,-1,-1,-1,-1,150,-1,9,-1,-1,130,190,,9999,0,0,3,FEW 15   SCT 30   BKN 60,1,14,1,11,1016,RJOP 161400Z 15009KT 130V190 9999 FEW015 SCT030 BKN060 14/11     Q1016 RMK 1CU015 3CU030 7SC060 A3001=,
20180116_150000.003,0,RJOP,,,,0,20180116150000,-1,-1,-1,-1,180,-1,13,-1,-1,150,210,,9999,0,0,3,FEW 15   SCT 30   BKN 60,1,15,1,10,1015,RJOP 161500Z 18013KT 150V210 9999 FEW015 SCT030 BKN060 15/10     Q1015 RMK 1CU015 3CU030 7SC060 A2999=,
20180116_160000.003,0,RJOP,,,,0,20180116160000,-1,-1,-1,-1,160,-1,14,-1,-1,-1,-1,,9999,0,0,3,FEW 15   SCT 30   BKN 60,1,15,1,11,1014,RJOP 161600Z 16014KT 9999 FEW015 SCT030 BKN060 15/11 Q1014 RMK     1CU015 3CU030 7SC060 A2995=,
20180116_170000.003,0,RJOP,,,,0,20180116170000,-1,-1,-1,-1,160,-1,11,-1,-1,-1,-1,,9999,0,0,3,FEW 15   SCT 30   BKN 60,1,15,1,12,1014,RJOP 161700Z 16011KT 9999 FEW015 SCT030 BKN060 15/12 Q1014 RMK     1CU015 3CU030 7SC060 A2995=,
20180116_180000.003,0,RJOP,,,,0,20180116180000,-1,-1,-1,-1,170,-1,8,-1,-1,140,240,,9999,0,1,3,FEW 15   SCT 30   BKN 50,1,14,1,13,1013,RJOP 161800Z 17008KT 140V240 9999 -SHRA FEW015 SCT030 BKN050     14/13 Q1013 RMK 1CU015 4CU030 7SC050 A2993=,- RA SH
20180116_190000.003,0,RJOP,,,,0,20180116190000,-1,-1,-1,-1,160,-1,9,-1,-1,-1,-1,,9999,0,1,3,FEW 15   SCT 30   BKN 50,1,14,1,12,1013,RJOP 161900Z 16009KT 9999 -SHRA FEW015 SCT030 BKN050 14/12     Q1013 RMK 1CU015 4CU030 7SC050 A2992=,- RA SH
20180116_200000.003,0,RJOP,,,,0,20180116200000,-1,-1,-1,-1,160,-1,10,-1,-1,-1,-1,,9999,0,1,3,FEW 15   SCT 30   BKN 50,1,14,1,12,1012,RJOP 162000Z 16010KT 9999 -SHRA FEW015 SCT030 BKN050 14/12     Q1012 RMK 1CU015 4CU030 7SC050 A2990=,- RA SH
20180116_210000.003,0,RJOP,,,,0,20180116210000,-1,-1,-1,-1,160,-1,7,-1,-1,-1,-1,,9999,0,1,3,FEW 15   SCT 30   BKN 50,1,14,1,13,1012,RJOP 162100Z 16007KT 9999 -SHRA FEW015 SCT030 BKN050 14/13     Q1012 RMK 1CU015 4CU030 5SC050 A2990=,- RA SH
20180116_220000.003,0,RJOP,,,,0,20180116220000,-1,-1,-1,-1,160,-1,5,-1,-1,-1,-1,,9999,0,1,3,FEW 15   BKN 30   BKN 80,1,13,1,13,1012,RJOP 162200Z 16005KT 9999 -SHRA FEW015 BKN030 BKN080 13/13     Q1012 RMK 1CU015 5CU030 7AC080 A2990=,- RA SH
20180116_230000.003,0,RJOP,,,,0,20180116230000,-1,-1,-1,-1,260,-1,4,-1,-1,-1,-1,,9999,0,1,3,FEW 6   BKN 30   BKN 80,1,13,1,13,1012,RJOP 162300Z 26004KT 9999 -SHRA FEW006 BKN030 BKN080 13/13     Q1012 RMK 1ST006 6CU030 7AC080 A2989=,- RA SH
20180117_000000.004,0,RJOP,,,,0,20180117000000,-1,-1,-1,-1,999,-1,2,-1,-1,-1,-1,,6000,0,1,3,FEW 6   BKN 30   BKN 80,1,11,1,11,1012,RJOP 170000Z VRB02KT 6000 -SHRA FEW006 BKN030 BKN080 11/11     Q1012 RMK 1ST006 5CU030 7AC080 A2989=,- RA SH
20180117_010000.003,0,RJOP,,,,0,20180117010000,-1,-1,-1,-1,999,-1,2,-1,-1,-1,-1,,6000,0,1,3,FEW 6   BKN 30   BKN 60,1,12,1,12,1012,RJOP 170100Z VRB02KT 6000 -SHRA FEW006 BKN030 BKN060 12/12     Q1012 RMK 2ST006 5CU030 7SC060 A2989=,- RA SH
20180117_020000.006,0,RJOP,,,,0,20180117020000,-1,-1,-1,-1,140,-1,6,-1,-1,-1,-1,,5000,0,2,3,FEW 3   SCT 12   BKN 30,1,11,1,11,1010,RJOP 170200Z 14006KT 5000 -SHRA BR FEW003 SCT012 BKN030 11/11     Q1010 RMK 2ST003 4CU012 5CU030 A2985 P/FR=,- RA SH; BR
20180117_030000.004,0,RJOP,,,,0,20180117030000,-1,-1,-1,-1,180,-1,9,-1,-1,150,210,,9999,0,0,3,FEW 1   SCT 3   BKN 80,1,14,1,14,1008,RJOP 170300Z 18009KT 150V210 9999 FEW001 SCT003 BKN080 14/14     Q1008 RMK 1ST001 3ST003 7AC080 A2978 P/FR=,
20180117_040000.004,0,RJOP,,,,0,20180117040000,-1,-1,-1,-1,330,-1,7,-1,-1,-1,-1,,9999,0,1,3,FEW 1   SCT 3   BKN 120,1,12,1,12,1008,RJOP 170400Z 33007KT 9999 BR FEW001 SCT003 BKN120 12/12 Q1008     RMK 1ST001 3ST003 7AC120 A2977 4000W-N=,BR
20180117_050000.004,0,RJOP,,,,0,20180117050000,-1,-1,-1,-1,10,-1,4,-1,-1,-1,-1,,9999,0,0,3,FEW 3   SCT 30   BKN 100,1,13,1,13,1008,RJOP 170500Z 01004KT 9999 FEW003 SCT030 BKN100 13/13 Q1008 RMK     1ST003 3CU030 7AC100 A2978=,
20180117_060000.003,0,RJOP,,,,0,20180117060000,-1,-1,-1,-1,20,-1,6,-1,-1,-1,-1,,9999,0,1,3,FEW 3   BKN 30   BKN 60,1,12,1,12,1008,RJOP 170600Z 02006KT 9999 -SHRA FEW003 BKN030 BKN060 12/12     Q1008 RMK 2ST003 5CU030 7SC060 A2978=,- RA SH
20180117_070000.004,0,RJOP,,,,0,20180117070000,-1,-1,-1,-1,350,-1,6,-1,-1,310,30,,9999,0,1,3,FEW 3   BKN 30   BKN 60,1,12,1,12,1009,RJOP 170700Z 35006KT 310V030 9999 -SHRA FEW003 BKN030 BKN060     12/12 Q1009 RMK 2ST003 5CU030 7SC060 A2979=,- RA SH
20180117_080000.003,0,RJOP,,,,0,20180117080000,-1,-1,-1,-1,340,-1,5,-1,-1,-1,-1,,6000,0,0,3,FEW 3   SCT 25   BKN 40,1,12,1,12,1009,RJOP 170800Z 34005KT 6000 FEW003 SCT025 BKN040 12/12 Q1009 RMK     2ST003 4CU025 7CU040 A2980=,
20180117_090000.004,0,RJOP,,,,0,20180117090000,-1,-1,-1,-1,330,-1,11,-1,-1,-1,-1,,4500,0,2,3,SCT 3   BKN 25   BKN 35,1,13,1,13,1010,RJOP 170900Z 33011KT 4500 SHRA BR SCT003 BKN025 BKN035 13/13     Q1010 RMK 3ST003 5CU025 7CU035 A2983=,RA SH; BR
20180117_100000.003,0,RJOP,,,,0,20180117100000,-1,-1,-1,-1,300,-1,16,-1,-1,-1,-1,,9999,0,0,3,SCT 30   SCT 80   BKN 120,1,14,1,12,1010,RJOP 171000Z 30016KT 9999 SCT030 SCT080 BKN120 14/12 Q1010     RERA RMK 3CU030 4AC080 5AC120 A2985=,
20180117_110000.004,0,RJOP,,,,0,20180117110000,-1,-1,-1,-1,300,-1,11,-1,-1,-1,-1,,9999,0,0,1,FEW 30,1,14,1,9,1012,RJOP 171100Z 30011KT 9999 FEW030 14/09 Q1012 RMK 1CU030 A2989=,
20180117_120000.004,0,RJOP,,,,0,20180117120000,-1,-1,-1,-1,320,-1,17,-1,27,-1,-1,,9999,0,0,1,FEW 30,1,13,1,9,1013,RJOP 171200Z 32017G27KT 9999 FEW030 13/09 Q1013 RMK 1CU030     A2992=,
20180117_130000.003,0,RJOP,,,,0,20180117130000,-1,-1,-1,-1,320,-1,18,-1,-1,-1,-1,,9999,0,0,1,FEW 30,1,13,1,8,1014,RJOP 171300Z 32018KT 9999 FEW030 13/08 Q1014 RMK 1CU030 A2995=,
20180117_140000.003,0,RJOP,,,,0,20180117140000,-1,-1,-1,-1,310,-1,19,-1,-1,-1,-1,,9999,0,0,1,FEW 30,1,12,1,7,1015,RJOP 171400Z 31019KT 9999 FEW030 12/07 Q1015 RMK 1CU030 A2999     P/RR=,
20180117_150000.003,0,RJOP,,,,0,20180117150000,-1,-1,-1,-1,300,-1,19,-1,29,-1,-1,,9999,0,0,1,FEW 30,1,11,1,7,1015,RJOP 171500Z 30019G29KT 9999 FEW030 11/07 Q1015 RMK 1CU030     A2999=,
20180117_160000.003,0,RJOP,,,,0,20180117160000,-1,-1,-1,-1,330,-1,14,-1,-1,-1,-1,,9999,0,0,1,FEW 30,1,11,1,6,1016,RJOP 171600Z 33014KT 9999 FEW030 11/06 Q1016 RMK 1CU030 A3001=,
20180117_170000.003,0,RJOP,,,,0,20180117170000,-1,-1,-1,-1,320,-1,12,-1,-1,-1,-1,,9999,0,0,1,FEW 30,1,10,1,7,1016,RJOP 171700Z 32012KT 9999 FEW030 10/07 Q1016 RMK 1CU030 A3002=,
20180117_180000.003,0,RJOP,,,,0,20180117180000,-1,-1,-1,-1,310,-1,13,-1,-1,-1,-1,,9999,0,0,1,FEW 30,1,10,1,6,1017,RJOP 171800Z 31013KT 9999 FEW030 10/06 Q1017 RMK 1CU030 A3003=,
20180117_190000.004,0,RJOP,,,,0,20180117190000,-1,-1,-1,-1,290,-1,10,-1,-1,270,330,,9999,0,0,1,FEW 30,1,10,1,6,1017,RJOP 171900Z 29010KT 270V330 9999 FEW030 10/06 Q1017 RMK     1CU030 A3003=,
20180117_200000.003,0,RJOP,,,,0,20180117200000,-1,-1,-1,-1,270,-1,10,-1,-1,240,300,,9999,0,0,1,FEW 30,1,10,1,5,1016,RJOP 172000Z 27010KT 240V300 9999 FEW030 10/05 Q1016 RMK     1CU030 A3003=,
20180117_210000.003,0,RJOP,,,,0,20180117210000,-1,-1,-1,-1,280,-1,12,-1,-1,-1,-1,,9999,0,0,1,FEW 30,1,9,1,5,1017,RJOP 172100Z 28012KT 9999 FEW030 09/05 Q1017 RMK 1CU030 A3003=,
20180117_220000.004,0,RJOP,,,,0,20180117220000,-1,-1,-1,-1,290,-1,13,-1,-1,-1,-1,,9999,0,0,1,FEW 30,1,9,1,5,1017,RJOP 172200Z 29013KT 9999 FEW030 09/05 Q1017 RMK 1CU030 A3004=,
20180117_230000.003,0,RJOP,,,,0,20180117230000,-1,-1,-1,-1,290,-1,16,-1,-1,-1,-1,,9999,0,0,1,FEW 30,1,9,1,5,1017,RJOP 172300Z 29016KT 9999 FEW030 09/05 Q1017 RMK 1CU030 A3004=,
20180118_000000.003,0,RJOP,,,,0,20180118000000,-1,-1,-1,-1,300,-1,14,-1,-1,-1,-1,,9999,0,0,1,FEW 30,1,10,1,5,1018,RJOP 180000Z 30014KT 9999 FEW030 10/05 Q1018 RMK 1CU030 A3007=,
20180118_010000.003,0,RJOP,,,,0,20180118010000,-1,-1,-1,-1,300,-1,15,-1,-1,-1,-1,,9999,0,0,2,FEW 30   SCT 45,1,11,1,5,1020,RJOP 180100Z 30015KT 9999 FEW030 SCT045 11/05 Q1020 RMK 1CU030     3SC045 A3012 PEAK GUST 24KT=,
20180118_020000.003,0,RJOP,,,,0,20180118020000,-1,-1,-1,-1,300,-1,15,-1,-1,280,340,,9999,0,0,1,FEW 30,1,12,1,4,1019,RJOP 180200Z 30015KT 280V340 9999 FEW030 12/04 Q1019 RMK     1CU030 A3009=,
20180118_030000.004,0,RJOP,,,,0,20180118030000,-1,-1,-1,-1,300,-1,12,-1,-1,-1,-1,,9999,0,0,1,FEW 30,1,13,1,4,1018,RJOP 180300Z 30012KT 9999 FEW030 13/04 Q1018 RMK 1CU030 A3008=,
20180118_040000.003,0,RJOP,,,,0,20180118040000,-1,-1,-1,-1,320,-1,13,-1,-1,-1,-1,,9999,0,0,1,FEW 30,1,14,1,4,1017,RJOP 180400Z 32013KT 9999 FEW030 14/04 Q1017 RMK 1CU030 A3005=,
20180118_050000.003,0,RJOP,,,,0,20180118050000,-1,-1,-1,-1,320,-1,13,-1,-1,-1,-1,,9999,0,0,1,FEW 30,1,15,1,5,1017,RJOP 180500Z 32013KT 9999 FEW030 15/05 Q1017 RMK 1CU030 A3003=,
20180118_060000.003,0,RJOP,,,,0,20180118060000,-1,-1,-1,-1,350,-1,20,-1,-1,-1,-1,,9999,0,0,1,FEW 30,1,13,1,6,1017,RJOP 180600Z 35020KT 9999 FEW030 13/06 Q1017 RMK 1CU030 A3003=,
20180118_070000.003,0,RJOP,,,,0,20180118070000,-1,-1,-1,-1,350,-1,17,-1,-1,-1,-1,,9999,0,0,1,FEW 30,1,13,1,6,1017,RJOP 180700Z 35017KT 9999 FEW030 13/06 Q1017 RMK 1CU030 A3004=,
20180118_080000.003,0,RJOP,,,,0,20180118080000,-1,-1,-1,-1,340,-1,14,-1,-1,-1,-1,,9999,0,0,1,FEW 30,1,13,1,5,1018,RJOP 180800Z 34014KT 9999 FEW030 13/05 Q1018 RMK 1CU030 A3006=,
20180118_090000.003,0,RJOP,,,,0,20180118090000,-1,-1,-1,-1,340,-1,13,-1,-1,-1,-1,,9999,0,0,1,FEW 30,1,12,1,5,1018,RJOP 180900Z 34013KT 9999 FEW030 12/05 Q1018 RMK 1CU030 A3008=,
20180118_100000.003,0,RJOP,,,,0,20180118100000,-1,-1,-1,-1,320,-1,10,-1,-1,-1,-1,,9999,0,0,1,FEW 30,1,12,1,5,1019,RJOP 181000Z 32010KT 9999 FEW030 12/05 Q1019 RMK 1CU030 A3010=,
20180118_110000.003,0,RJOP,,,,0,20180118110000,-1,-1,-1,-1,300,-1,5,-1,-1,-1,-1,,9999,0,0,1,FEW 30,1,11,1,5,1019,RJOP 181100Z 30005KT 9999 FEW030 11/05 Q1019 RMK 1CU030 A3011=,
20180118_120000.003,0,RJOP,,,,0,20180118120000,-1,-1,-1,-1,300,-1,11,-1,-1,-1,-1,,9999,0,0,1,FEW 30,1,11,1,5,1020,RJOP 181200Z 30011KT 9999 FEW030 11/05 Q1020 RMK 1CU030 A3013=,
20180118_130000.003,0,RJOP,,,,0,20180118130000,-1,-1,-1,-1,310,-1,10,-1,-1,-1,-1,,9999,0,0,1,FEW 30,1,11,1,4,1020,RJOP 181300Z 31010KT 9999 FEW030 11/04 Q1020 RMK 1CU030 A3013=,
20180118_140000.003,0,RJOP,,,,0,20180118140000,-1,-1,-1,-1,310,-1,9,-1,-1,-1,-1,,9999,0,0,2,FEW 30   SCT 50,1,10,1,5,1020,RJOP 181400Z 31009KT 9999 FEW030 SCT050 10/05 Q1020 RMK 1CU030     4SC050 A3014=,
20180118_150000.003,0,RJOP,,,,0,20180118150000,-1,-1,-1,-1,310,-1,10,-1,-1,-1,-1,,9999,0,0,2,FEW 30   BKN 50,1,10,1,4,1020,RJOP 181500Z 31010KT 9999 FEW030 BKN050 10/04 Q1020 RMK 1CU030     5SC050 A3014=,
20180118_160000.003,0,RJOP,,,,0,20180118160000,-1,-1,-1,-1,320,-1,9,-1,-1,-1,-1,,9999,0,0,2,FEW 30   BKN 50,1,10,1,5,1020,RJOP 181600Z 32009KT 9999 FEW030 BKN050 10/05 Q1020 RMK 1CU030     5SC050 A3013=,
20180118_170000.003,0,RJOP,,,,0,20180118170000,-1,-1,-1,-1,350,-1,8,-1,-1,-1,-1,,9999,0,0,2,FEW 30   BKN 50,1,9,1,5,1020,RJOP 181700Z 35008KT 9999 FEW030 BKN050 09/05 Q1020 RMK 1CU030     5SC050 A3014=,
20180118_180000.003,0,RJOP,,,,0,20180118180000,-1,-1,-1,-1,350,-1,11,-1,-1,-1,-1,,9999,0,0,2,FEW 30   SCT 50,1,9,1,6,1020,RJOP 181800Z 35011KT 9999 FEW030 SCT050 09/06 Q1020 RMK 1CU030     3SC050 A3014=,
20180118_190000.003,0,RJOP,,,,0,20180118190000,-1,-1,-1,-1,360,-1,11,-1,-1,-1,-1,,9999,0,0,2,FEW 30   SCT 50,1,9,1,6,1020,RJOP 181900Z 36011KT 9999 FEW030 SCT050 09/06 Q1020 RMK 1CU030     3SC050 A3013=,
20180118_200000.003,0,RJOP,,,,0,20180118200000,-1,-1,-1,-1,360,-1,12,-1,-1,-1,-1,,9999,0,0,2,FEW 30   SCT 50,1,9,1,5,1020,RJOP 182000Z 36012KT 9999 FEW030 SCT050 09/05 Q1020 RMK 1CU030     3SC050 A3013=,
20180118_210000.004,0,RJOP,,,,0,20180118210000,-1,-1,-1,-1,330,-1,11,-1,-1,-1,-1,,9999,0,0,2,FEW 30   SCT 50,1,8,1,5,1020,RJOP 182100Z 33011KT 9999 FEW030 SCT050 08/05 Q1020 RMK 1CU030     3SC050 A3013=,
20180118_220000.003,0,RJOP,,,,0,20180118220000,-1,-1,-1,-1,330,-1,13,-1,-1,-1,-1,,8000,0,0,1,FEW 30,1,8,1,5,1020,RJOP 182200Z 33013KT 8000 FEW030 08/05 Q1020 RMK 1CU030 A3015=,
20180118_230000.004,0,RJOP,,,,0,20180118230000,-1,-1,-1,-1,330,-1,10,-1,-1,-1,-1,,9999,0,0,1,FEW 30,1,8,1,5,1021,RJOP 182300Z 33010KT 9999 FEW030 08/05 Q1021 RMK 1CU030 A3017=,
20180119_000000.003,0,RJOP,,,,0,20180119000000,-1,-1,-1,-1,340,-1,10,-1,-1,-1,-1,,9999,0,0,1,FEW 30,1,9,1,5,1021,RJOP 190000Z 34010KT 9999 FEW030 09/05 Q1021 RMK 1CU030 A3017=,
20180119_010000.004,0,RJOP,,,,0,20180119010000,-1,-1,-1,-1,340,-1,8,-1,-1,-1,-1,,9999,0,0,1,FEW 30,1,9,1,5,1021,RJOP 190100Z 34008KT 9999 FEW030 09/05 Q1021 RMK 1CU030 A3017=,
20180119_020000.003,0,RJOP,,,,0,20180119020000,-1,-1,-1,-1,10,-1,10,-1,-1,-1,-1,,9999,0,0,1,FEW 30,1,10,1,5,1021,RJOP 190200Z 01010KT 9999 FEW030 10/05 Q1021 RMK 1CU030 A3016=,
20180119_030000.003,0,RJOP,,,,0,20180119030000,-1,-1,-1,-1,10,-1,12,-1,-1,-1,-1,,8000,0,0,2,FEW 20   BKN 40,1,10,1,4,1020,RJOP 190300Z 01012KT 8000 FEW020 BKN040 10/04 Q1020 RMK 2CU020     7CU040 A3012=,
20180119_040000.003,0,RJOP,,,,0,20180119040000,-1,-1,-1,-1,350,-1,13,-1,-1,-1,-1,,9999,0,0,3,FEW 20   BKN 40   BKN 50,1,10,1,3,1019,RJOP 190400Z 35013KT 9999 FEW020 BKN040 BKN050 10/03 Q1019 RMK     1CU020 5CU040 7SC050 A3011=,
20180119_050000.004,0,RJOP,,,,0,20180119050000,-1,-1,-1,-1,340,-1,11,-1,-1,-1,-1,,9999,0,0,3,FEW 25   SCT 40   BKN 50,1,10,1,2,1018,RJOP 190500Z 34011KT 9999 FEW025 SCT040 BKN050 10/02 Q1018 RMK     1CU025 4CU040 7SC050 A3008=,
20180119_060000.003,0,RJOP,,,,0,20180119060000,-1,-1,-1,-1,330,-1,8,-1,-1,-1,-1,,9999,0,0,2,FEW 25   BKN 50,1,10,1,2,1017,RJOP 190600Z 33008KT 9999 FEW025 BKN050 10/02 Q1017 RMK 1CU025     7SC050 A3006=,
20180119_070000.003,0,RJOP,,,,0,20180119070000,-1,-1,-1,-1,320,-1,10,-1,-1,-1,-1,,9999,0,0,2,FEW 25   BKN 45,1,10,1,2,1018,RJOP 190700Z 32010KT 9999 FEW025 BKN045 10/02 Q1018 RMK 1CU025     7SC045 A3006=,
20180119_080000.003,0,RJOP,,,,0,20180119080000,-1,-1,-1,-1,320,-1,10,-1,-1,-1,-1,,9999,0,0,2,FEW 25   BKN 45,1,10,1,1,1018,RJOP 190800Z 32010KT 9999 FEW025 BKN045 10/01 Q1018 RMK 1CU025     7SC045 A3007=,
20180119_090000.004,0,RJOP,,,,0,20180119090000,-1,-1,-1,-1,280,-1,8,-1,-1,-1,-1,,9999,0,0,2,FEW 25   BKN 45,1,10,1,3,1018,RJOP 190900Z 28008KT 9999 FEW025 BKN045 10/03 Q1018 RMK 1CU025     7SC045 A3008=,
20180119_100000.003,0,RJOP,,,,0,20180119100000,-1,-1,-1,-1,320,-1,8,-1,-1,-1,-1,,9999,0,0,2,FEW 25   BKN 50,1,10,1,2,1018,RJOP 191000Z 32008KT 9999 FEW025 BKN050 10/02 Q1018 RMK 1CU025     7SC050 A3008=,
20180119_110000.003,0,RJOP,,,,0,20180119110000,-1,-1,-1,-1,280,-1,6,-1,-1,-1,-1,,9999,0,0,2,FEW 25   SCT 50,1,9,1,3,1018,RJOP 191100Z 28006KT 9999 FEW025 SCT050 09/03 Q1018 RMK 1CU025     3SC050 A3008=,
20180119_120000.004,0,RJOP,,,,0,20180119120000,-1,-1,-1,-1,280,-1,7,-1,-1,-1,-1,,9999,0,0,2,FEW 25   SCT 50,1,8,1,4,1018,RJOP 191200Z 28007KT 9999 FEW025 SCT050 08/04 Q1018 RMK 1CU025     3SC050 A3008=,
20180119_130000.003,0,RJOP,,,,0,20180119130000,-1,-1,-1,-1,300,-1,6,-1,-1,280,340,,9999,0,0,2,FEW 25   SCT 50,1,7,1,5,1019,RJOP 191300Z 30006KT 280V340 9999 FEW025 SCT050 07/05 Q1019     RMK 1CU025 3SC050 A3009=,
20180119_140000.003,0,RJOP,,,,0,20180119140000,-1,-1,-1,-1,290,-1,7,-1,-1,260,320,,9999,0,0,1,FEW 25,1,7,1,4,1018,RJOP 191400Z 29007KT 260V320 9999 FEW025 07/04 Q1018 RMK     1CU025 A3008=,
20180119_150000.003,0,RJOP,,,,0,20180119150000,-1,-1,-1,-1,330,-1,10,-1,-1,-1,-1,,9999,0,0,1,FEW 25,1,8,1,4,1018,RJOP 191500Z 33010KT 9999 FEW025 08/04 Q1018 RMK 1CU025 A3007=,
20180119_160000.003,0,RJOP,,,,0,20180119160000,-1,-1,-1,-1,290,-1,7,-1,-1,-1,-1,,9999,0,0,1,FEW 30,1,7,1,4,1018,RJOP 191600Z 29007KT 9999 FEW030 07/04 Q1018 RMK 1CU030 A3008=,
20180119_170000.003,0,RJOP,,,,0,20180119170000,-1,-1,-1,-1,300,-1,6,-1,-1,-1,-1,,9999,0,0,1,FEW 25,1,7,1,4,1018,RJOP 191700Z 30006KT 9999 FEW025 07/04 Q1018 RMK 1CU025 A3008=,
20180119_180000.004,0,RJOP,,,,0,20180119180000,-1,-1,-1,-1,320,-1,9,-1,-1,-1,-1,,9999,0,0,1,FEW 25,1,7,1,4,1018,RJOP 191800Z 32009KT 9999 FEW025 07/04 Q1018 RMK 1CU025 A3007=,
20180119_190000.004,0,RJOP,,,,0,20180119190000,-1,-1,-1,-1,320,-1,3,-1,-1,270,360,,9999,0,0,3,FEW 25   SCT 50   BKN 150,1,7,1,4,1018,RJOP 191900Z 32003KT 270V360 9999 FEW025 SCT050 BKN150 07/04     Q1018 RMK 1CU025 3SC050 5AC150 A3007=,
20180119_200000.003,0,RJOP,,,,0,20180119200000,-1,-1,-1,-1,280,-1,9,-1,-1,-1,-1,,9999,0,0,2,FEW 25   BKN 150,1,6,1,3,1018,RJOP 192000Z 28009KT 9999 FEW025 BKN150 06/03 Q1018 RMK 1CU025     6AC150 A3008=,
20180119_210000.003,0,RJOP,,,,0,20180119210000,-1,-1,-1,-1,260,-1,5,-1,-1,180,340,,9999,0,0,2,FEW 25   BKN 150,1,6,1,3,1018,RJOP 192100Z 26005KT 180V340 9999 FEW025 BKN150 06/03 Q1018     RMK 1CU025 5AC150 A3009=,
20180119_220000.003,0,RJOP,,,,0,20180119220000,-1,-1,-1,-1,999,-1,1,-1,-1,-1,-1,,9999,0,0,1,FEW 25,1,5,1,3,1019,RJOP 192200Z VRB01KT 9999 FEW025 05/03 Q1019 RMK 1CU025 A3009=,
20180119_230000.003,0,RJOP,,,,0,20180119230000,-1,-1,-1,-1,290,-1,7,-1,-1,-1,-1,,9000,0,0,1,FEW 25,1,6,1,3,1019,RJOP 192300Z 29007KT 9000 FEW025 06/03 Q1019 RMK 1CU025 A3010=,
20180120_000000.003,0,RJOP,,,,0,20180120000000,-1,-1,-1,-1,280,-1,8,-1,-1,-1,-1,,9000,0,0,1,FEW 25,1,6,1,3,1019,RJOP 200000Z 28008KT 9000 FEW025 06/03 Q1019 RMK 1CU025 A3011=,
20180120_010000.003,0,RJOP,,,,0,20180120010000,-1,-1,-1,-1,320,-1,5,-1,-1,-1,-1,,9000,0,0,1,FEW 25,1,8,1,4,1019,RJOP 200100Z 32005KT 9000 FEW025 08/04 Q1019 RMK 1CU025 A3012=,
20180120_020000.004,0,RJOP,,,,0,20180120020000,-1,-1,-1,-1,10,-1,8,-1,-1,-1,-1,,9000,0,0,1,FEW 25,1,9,1,6,1019,RJOP 200200Z 01008KT 9000 FEW025 09/06 Q1019 RMK 1CU025 A3010=,
20180120_030000.003,0,RJOP,,,,0,20180120030000,-1,-1,-1,-1,10,-1,9,-1,-1,-1,-1,,8000,0,0,2,FEW 25   SCT 230,1,10,1,6,1018,RJOP 200300Z 01009KT 8000 FEW025 SCT230 10/06 Q1018 RMK 1CU025     A3008=,
20180120_040000.003,0,RJOP,,,,0,20180120040000,-1,-1,-1,-1,350,-1,14,-1,-1,-1,-1,,8000,0,0,1,FEW 25,1,11,1,4,1018,RJOP 200400Z 35014KT 8000 FEW025 11/04 Q1018 RMK 1CU025 A3007=,
20180120_050000.003,0,RJOP,,,,0,20180120050000,-1,-1,-1,-1,10,-1,14,-1,-1,-1,-1,,8000,0,0,1,FEW 25,1,10,1,3,1018,RJOP 200500Z 01014KT 8000 FEW025 10/03 Q1018 RMK 2CU025 A3006=,
20180120_060000.003,0,RJOP,,,,0,20180120060000,-1,-1,-1,-1,10,-1,17,-1,-1,-1,-1,,8000,0,0,1,FEW 25,1,11,1,4,1017,RJOP 200600Z 01017KT 8000 FEW025 11/04 Q1017 RMK 1CU025 A3004=,
20180120_070000.003,0,RJOP,,,,0,20180120070000,-1,-1,-1,-1,20,-1,15,-1,-1,-1,-1,,9999,0,0,2,FEW 25   SCT 230,1,11,1,4,1017,RJOP 200700Z 02015KT 9999 FEW025 SCT230 11/04 Q1017 RMK 1CU025     A3003=,
20180120_080000.003,0,RJOP,,,,0,20180120080000,-1,-1,-1,-1,360,-1,12,-1,-1,-1,-1,,9999,0,0,2,FEW 25   BKN 230,1,10,1,3,1018,RJOP 200800Z 36012KT 9999 FEW025 BKN230 10/03 Q1018 RMK 1CU025     A3006=,
20180120_090000.003,0,RJOP,,,,0,20180120090000,-1,-1,-1,-1,330,-1,9,-1,-1,-1,-1,,9999,0,0,2,FEW 25   BKN 230,1,10,1,1,1019,RJOP 200900Z 33009KT 9999 FEW025 BKN230 10/01 Q1019 RMK 1CU025     A3009=,
20180120_100000.003,0,RJOP,,,,0,20180120100000,-1,-1,-1,-1,300,-1,5,-1,-1,-1,-1,,9999,0,0,2,FEW 25   SCT 230,1,10,1,2,1019,RJOP 201000Z 30005KT 9999 FEW025 SCT230 10/02 Q1019 RMK 1CU025     A3010=,
20180120_110000.003,0,RJOP,,,,0,20180120110000,-1,-1,-1,-1,350,-1,8,-1,-1,-1,-1,,9999,0,0,1,FEW 25,1,9,1,4,1019,RJOP 201100Z 35008KT 9999 FEW025 09/04 Q1019 RMK 1CU025 A3010=,
20180120_120000.003,0,RJOP,,,,0,20180120120000,-1,-1,-1,-1,340,-1,7,-1,-1,-1,-1,,9999,0,0,1,FEW 25,1,9,1,5,1019,RJOP 201200Z 34007KT 9999 FEW025 09/05 Q1019 RMK 1CU025 A3011=,
20180120_130000.003,0,RJOP,,,,0,20180120130000,-1,-1,-1,-1,280,-1,7,-1,-1,-1,-1,,9999,0,0,1,FEW 25,1,7,1,3,1019,RJOP 201300Z 28007KT 9999 FEW025 07/03 Q1019 RMK 1CU025 A3012=,
20180120_140000.003,0,RJOP,,,,0,20180120140000,-1,-1,-1,-1,280,-1,7,-1,-1,-1,-1,,9999,0,0,1,FEW 25,1,7,1,2,1019,RJOP 201400Z 28007KT 9999 FEW025 07/02 Q1019 RMK 1CU025 A3012=,
20180120_150000.003,0,RJOP,,,,0,20180120150000,-1,-1,-1,-1,290,-1,7,-1,-1,-1,-1,,9999,0,0,1,FEW 25,1,6,1,3,1019,RJOP 201500Z 29007KT 9999 FEW025 06/03 Q1019 RMK 1CU025 A3011=,
20180120_160000.003,0,RJOP,,,,0,20180120160000,-1,-1,-1,-1,290,-1,9,-1,-1,-1,-1,,9999,0,0,1,FEW 30,1,6,1,3,1019,RJOP 201600Z 29009KT 9999 FEW030 06/03 Q1019 RMK 1CU030 A3010=,
20180120_170000.003,0,RJOP,,,,0,20180120170000,-1,-1,-1,-1,290,-1,10,-1,-1,-1,-1,,9999,0,0,1,FEW 30,1,6,1,2,1019,RJOP 201700Z 29010KT 9999 FEW030 06/02 Q1019 RMK 1CU030 A3010=,
20180120_180000.003,0,RJOP,,,,0,20180120180000,-1,-1,-1,-1,280,-1,10,-1,-1,-1,-1,,9999,0,0,1,FEW 30,1,6,1,2,1019,RJOP 201800Z 28010KT 9999 FEW030 06/02 Q1019 RMK 1CU030 A3010=,
20180120_190000.004,0,RJOP,,,,0,20180120190000,-1,-1,-1,-1,260,-1,10,-1,-1,-1,-1,,9999,0,0,1,FEW 30,1,5,1,2,1019,RJOP 201900Z 26010KT 9999 FEW030 05/02 Q1019 RMK 2CU030 A3010=,
20180120_200000.003,0,RJOP,,,,0,20180120200000,-1,-1,-1,-1,310,-1,9,-1,-1,-1,-1,,9999,0,0,2,FEW 20   SCT 45,1,7,1,3,1019,RJOP 202000Z 31009KT 9999 FEW020 SCT045 07/03 Q1019 RMK 1CU020     3SC045 A3010=,
20180120_210000.003,0,RJOP,,,,0,20180120210000,-1,-1,-1,-1,320,-1,8,-1,-1,-1,-1,,9999,0,0,2,FEW 20   SCT 45,1,7,1,3,1019,RJOP 202100Z 32008KT 9999 FEW020 SCT045 07/03 Q1019 RMK 1CU020     3SC045 A3010=,
20180120_220000.003,0,RJOP,,,,0,20180120220000,-1,-1,-1,-1,320,-1,10,-1,-1,-1,-1,,9999,0,0,2,FEW 20   BKN 45,1,7,1,2,1019,RJOP 202200Z 32010KT 9999 FEW020 BKN045 07/02 Q1019 RMK 1CU020     6SC045 A3011=,
20180120_230000.003,0,RJOP,,,,0,20180120230000,-1,-1,-1,-1,310,-1,10,-1,-1,-1,-1,,9999,0,0,2,FEW 20   BKN 50,1,7,1,1,1020,RJOP 202300Z 31010KT 9999 FEW020 BKN050 07/01 Q1020 RMK 1CU020     6SC050 A3014=,
20180121_000000.003,0,RJOP,,,,0,20180121000000,-1,-1,-1,-1,350,-1,7,-1,-1,-1,-1,,9999,0,0,2,FEW 30   SCT 50,1,7,1,1,1021,RJOP 210000Z 35007KT 9999 FEW030 SCT050 07/01 Q1021 RMK 1CU030     4SC050 A3015=,
20180121_010000.003,0,RJOP,,,,0,20180121010000,-1,-1,-1,-1,10,-1,7,-1,-1,-1,-1,,9999,0,0,1,FEW 30,1,8,1,1,1021,RJOP 210100Z 01007KT 9999 FEW030 08/01 Q1021 RMK 1CU030 A3016=,
20180121_020000.003,0,RJOP,,,,0,20180121020000,-1,-1,-1,-1,360,-1,9,-1,-1,-1,-1,,9999,0,0,2,FEW 30   BKN 200,1,10,1,1,1020,RJOP 210200Z 36009KT 9999 FEW030 BKN200 10/01 Q1020 RMK 1CU030     A3013=,
20180121_030000.003,0,RJOP,,,,0,20180121030000,-1,-1,-1,-1,40,-1,5,-1,-1,360,70,,9999,0,0,2,FEW 30   BKN 200,1,10,1,2,1019,RJOP 210300Z 04005KT 360V070 9999 FEW030 BKN200 10/02 Q1019     RMK 1CU030 A3010=,
20180121_040000.004,0,RJOP,,,,0,20180121040000,-1,-1,-1,-1,340,-1,20,-1,-1,-1,-1,,9999,0,0,3,FEW 30   BKN 50   BKN 200,1,10,1,1,1019,RJOP 210400Z 34020KT 9999 FEW030 BKN050 BKN200 10/01 Q1019 RMK     1CU030 5SC050 A3009=,
20180121_050000.003,0,RJOP,,,,0,20180121050000,-1,-1,-1,-1,340,-1,17,-1,-1,-1,-1,,9999,0,0,2,FEW 30   SCT 200,1,11,1,1,1018,RJOP 210500Z 34017KT 9999 FEW030 SCT200 11/01 Q1018 RMK 1CU030     A3008=,
20180121_060000.003,0,RJOP,,,,0,20180121060000,-1,-1,-1,-1,320,-1,15,-1,-1,290,360,,9999,0,0,2,FEW 30   BKN 230,1,11,-1,0,1018,RJOP 210600Z 32015KT 290V360 9999 FEW030 BKN230 11/M00 Q1018     RMK 1CU030 A3008=,
20180121_070000.003,0,RJOP,,,,0,20180121070000,-1,-1,-1,-1,350,-1,15,-1,-1,-1,-1,,9999,0,0,3,FEW 30   SCT 180   BKN 230,1,11,1,1,1018,RJOP 210700Z 35015KT 9999 FEW030 SCT180 BKN230 11/01 Q1018 RMK     1CU030 3AC180 A3008=,
20180121_080000.003,0,RJOP,,,,0,20180121080000,-1,-1,-1,-1,330,-1,17,-1,-1,-1,-1,,9999,0,0,3,FEW 30   SCT 180   BKN 230,1,10,1,1,1019,RJOP 210800Z 33017KT 9999 FEW030 SCT180 BKN230 10/01 Q1019 RMK     1CU030 3AC180 A3009=,
20180121_090000.003,0,RJOP,,,,0,20180121090000,-1,-1,-1,-1,320,-1,11,-1,-1,-1,-1,,9999,0,0,3,FEW 30   SCT 180   BKN 230,1,10,1,1,1020,RJOP 210900Z 32011KT 9999 FEW030 SCT180 BKN230 10/01 Q1020 RMK     1CU030 3AC180 A3012=,
20180121_100000.003,0,RJOP,,,,0,20180121100000,-1,-1,-1,-1,320,-1,11,-1,-1,-1,-1,,9999,0,0,3,FEW 30   SCT 180   BKN 230,1,9,1,2,1020,RJOP 211000Z 32011KT 9999 FEW030 SCT180 BKN230 09/02 Q1020 RMK     1CU030 3AC180 A3014=,
20180121_110000.003,0,RJOP,,,,0,20180121110000,-1,-1,-1,-1,330,-1,10,-1,-1,-1,-1,,9999,0,0,3,FEW 30   SCT 180   BKN 230,1,9,1,2,1021,RJOP 211100Z 33010KT 9999 FEW030 SCT180 BKN230 09/02 Q1021 RMK     1CU030 3AC180 A3015=,
20180121_120000.003,0,RJOP,,,,0,20180121120000,-1,-1,-1,-1,360,-1,13,-1,-1,-1,-1,,9999,0,0,3,FEW 30   SCT 180   BKN 230,1,9,-1,0,1020,RJOP 211200Z 36013KT 9999 FEW030 SCT180 BKN230 09/M00 Q1020     RMK 1CU030 4AC180 A3015=,
20180121_130000.004,0,RJOP,,,,0,20180121130000,-1,-1,-1,-1,340,-1,11,-1,-1,-1,-1,,9999,0,0,3,FEW 30   SCT 160   BKN 200,1,8,-1,0,1020,RJOP 211300Z 34011KT 9999 FEW030 SCT160 BKN200 08/M00 Q1020     RMK 1CU030 3AC160 A3014=,
20180121_140000.003,0,RJOP,,,,0,20180121140000,-1,-1,-1,-1,320,-1,9,-1,-1,-1,-1,,9999,0,0,2,FEW 30   SCT 160,1,8,-1,0,1020,RJOP 211400Z 32009KT 9999 FEW030 SCT160 08/M00 Q1020 RMK     1CU030 3AC160 A3013=,
20180121_150000.003,0,RJOP,,,,0,20180121150000,-1,-1,-1,-1,270,-1,5,-1,-1,-1,-1,,9999,0,0,2,FEW 30   SCT 160,1,6,1,1,1020,RJOP 211500Z 27005KT 9999 FEW030 SCT160 06/01 Q1020 RMK 1CU030     3AC160 A3012=,
20180121_160000.003,0,RJOP,,,,0,20180121160000,-1,-1,-1,-1,300,-1,6,-1,-1,-1,-1,,9999,0,0,2,FEW 30   SCT 160,1,6,1,1,1019,RJOP 211600Z 30006KT 9999 FEW030 SCT160 06/01 Q1019 RMK 1CU030     3AC160 A3010=,
20180121_170000.003,0,RJOP,,,,0,20180121170000,-1,-1,-1,-1,280,-1,7,-1,-1,-1,-1,,9999,0,0,2,FEW 30   SCT 160,1,5,1,1,1019,RJOP 211700Z 28007KT 9999 FEW030 SCT160 05/01 Q1019 RMK 1CU030     3AC160 A3010=,
20180121_180000.003,0,RJOP,,,,0,20180121180000,-1,-1,-1,-1,300,-1,9,-1,-1,270,340,,9999,0,0,2,FEW 30   BKN 160,1,6,1,0,1018,RJOP 211800Z 30009KT 270V340 9999 FEW030 BKN160 06/00 Q1018     RMK 1CU030 5AC160 A3007=,
20180121_190000.003,0,RJOP,,,,0,20180121190000,-1,-1,-1,-1,280,-1,8,-1,-1,-1,-1,,9999,0,0,2,FEW 30   BKN 160,1,5,1,0,1018,RJOP 211900Z 28008KT 9999 FEW030 BKN160 05/00 Q1018 RMK 1CU030     6AC160 A3006=,
20180121_200000.003,0,RJOP,,,,0,20180121200000,-1,-1,-1,-1,330,-1,9,-1,-1,-1,-1,,9999,0,0,2,FEW 30   BKN 150,1,6,1,1,1017,RJOP 212000Z 33009KT 9999 FEW030 BKN150 06/01 Q1017 RMK 1CU030     7AC150 A3005=,
20180121_210000.003,0,RJOP,,,,0,20180121210000,-1,-1,-1,-1,320,-1,11,-1,-1,-1,-1,,9999,0,0,2,FEW 30   BKN 150,1,6,1,1,1017,RJOP 212100Z 32011KT 9999 FEW030 BKN150 06/01 Q1017 RMK 1CU030     7AC150 A3004=,
20180121_220000.003,0,RJOP,,,,0,20180121220000,-1,-1,-1,-1,300,-1,7,-1,-1,-1,-1,,9999,0,0,3,FEW 30   SCT 100   BKN 150,1,6,1,1,1016,RJOP 212200Z 30007KT 9999 FEW030 SCT100 BKN150 06/01 Q1016 RMK     1CU030 3AC100 7AC150 A3002=,
20180121_230000.003,0,RJOP,,,,0,20180121230000,-1,-1,-1,-1,290,-1,8,-1,-1,-1,-1,,9999,0,0,3,FEW 20   SCT 40   BKN 100,1,6,1,2,1016,RJOP 212300Z 29008KT 9999 FEW020 SCT040 BKN100 06/02 Q1016 RMK     2CU020 3SC040 7AC100 A3002=,
20180122_000000.003,0,RJOP,,,,0,20180122000000,-1,-1,-1,-1,310,-1,8,-1,-1,-1,-1,,9999,0,0,3,FEW 20   SCT 40   BKN 100,1,7,1,2,1016,RJOP 220000Z 31008KT 9999 FEW020 SCT040 BKN100 07/02 Q1016 RMK     2CU020 3CU040 7AC100 A3002=,
20180122_010000.003,0,RJOP,,,,0,20180122010000,-1,-1,-1,-1,310,-1,7,-1,-1,-1,-1,,9999,0,0,3,FEW 20   SCT 40   BKN 80,1,6,1,2,1016,RJOP 220100Z 31007KT 9999 FEW020 SCT040 BKN080 06/02 Q1016 RMK     2CU020 4CU040 7AC080 A3000=,
20180122_020000.003,0,RJOP,,,,0,20180122020000,-1,-1,-1,-1,290,-1,12,-1,22,260,360,,9999,0,1,3,SCT 20   BKN 40   BKN 80,1,6,1,2,1015,RJOP 220200Z 29012G22KT 260V360 9999 -SHRA SCT020 BKN040     BKN080 06/02 Q1015 RMK 3CU020 5CU040 7AC080 A2997=,- RA SH
20180122_030000.003,0,RJOP,,,,0,20180122030000,-1,-1,-1,-1,360,-1,8,-1,-1,320,80,,8000,0,1,3,FEW 12   SCT 20   BKN 40,1,4,1,1,1014,RJOP 220300Z 36008KT 320V080 8000 -SHRA FEW012 SCT020 BKN040     04/01 Q1014 RMK 2CU012 4CU020 7CU040 A2995=,- RA SH
20180122_040000.003,0,RJOP,,,,0,20180122040000,-1,-1,-1,-1,30,-1,10,-1,-1,10,70,,8000,0,1,3,FEW 12   BKN 20   BKN 40,1,4,1,2,1012,RJOP 220400Z 03010KT 010V070 8000 -SHRA FEW012 BKN020 BKN040     04/02 Q1012 RMK 2CU012 5CU020 7CU040 A2989 P/FR=,- RA SH
20180122_050000.003,0,RJOP,,,,0,20180122050000,-1,-1,-1,-1,360,-1,8,-1,-1,320,50,,8000,0,1,3,FEW 8   SCT 12   BKN 20,1,3,1,2,1011,RJOP 220500Z 36008KT 320V050 8000 -SHRA FEW008 SCT012 BKN020     03/02 Q1011 RMK 1ST008 3CU012 7CU020 A2987=,- RA SH
20180122_060000.004,0,RJOP,,,,0,20180122060000,-1,-1,-1,-1,290,-1,10,-1,-1,-1,-1,,8000,0,1,3,FEW 6   BKN 12   BKN 20,1,3,1,2,1010,RJOP 220600Z 29010KT 8000 -SHRA FEW006 BKN012 BKN020 03/02     Q1010 RMK 2ST006 5CU012 7CU020 A2984=,- RA SH
20180122_070000.003,0,RJOP,,,,0,20180122070000,-1,-1,-1,-1,310,-1,14,-1,-1,-1,-1,,8000,0,1,3,FEW 6   SCT 8   BKN 12,1,3,1,2,1010,RJOP 220700Z 31014KT 8000 -SHRA FEW006 SCT008 BKN012 03/02     Q1010 RMK 2ST006 4ST008 7CU012 A2985=,- RA SH
20180122_080000.004,0,RJOP,,,,0,20180122080000,-1,-1,-1,-1,310,-1,17,-1,-1,-1,-1,,9999,0,1,3,FEW 8   SCT 12   BKN 30,1,4,1,3,1011,RJOP 220800Z 31017KT 9999 -SHRA FEW008 SCT012 BKN030 04/03     Q1011 RMK 2ST008 4CU012 7CU030 A2986=,- RA SH
20180122_090000.003,0,RJOP,,,,0,20180122090000,-1,-1,-1,-1,320,-1,17,-1,-1,-1,-1,,9999,0,0,3,FEW 8   SCT 12   BKN 25,1,4,1,2,1011,RJOP 220900Z 32017KT 9999 FEW008 SCT012 BKN025 04/02 Q1011 RMK     1ST008 4CU012 7CU025 A2987=,
20180122_100000.003,0,RJOP,,,,0,20180122100000,-1,-1,-1,-1,320,-1,9,-1,-1,-1,-1,,9999,0,0,3,FEW 12   SCT 25   BKN 80,1,4,1,2,1012,RJOP 221000Z 32009KT 9999 FEW012 SCT025 BKN080 04/02 Q1012 RMK     1CU012 3CU025 5AC080 A2989=,
20180122_110000.004,0,RJOP,,,,0,20180122110000,-1,-1,-1,-1,320,-1,13,-1,-1,-1,-1,,9999,0,0,2,FEW 25   SCT 80,1,4,1,1,1012,RJOP 221100Z 32013KT 9999 FEW025 SCT080 04/01 Q1012 RMK 1CU025     3AC080 A2990=,
20180122_120000.003,0,RJOP,,,,0,20180122120000,-1,-1,-1,-1,340,-1,8,-1,-1,300,10,,9999,0,0,1,FEW 25,1,3,1,1,1012,RJOP 221200Z 34008KT 300V010 9999 FEW025 03/01 Q1012 RMK     1CU025 A2990=,
20180122_130000.004,0,RJOP,,,,0,20180122130000,-1,-1,-1,-1,310,-1,14,-1,-1,-1,-1,,9999,0,0,1,FEW 25,1,4,1,1,1012,RJOP 221300Z 31014KT 9999 FEW025 04/01 Q1012 RMK 1CU025 A2990=,
20180122_140000.004,0,RJOP,,,,0,20180122140000,-1,-1,-1,-1,270,-1,6,-1,-1,240,300,,9999,0,0,1,FEW 30,1,4,1,1,1012,RJOP 221400Z 27006KT 240V300 9999 FEW030 04/01 Q1012 RMK     1CU030 A2990=,
20180122_150000.003,0,RJOP,,,,0,20180122150000,-1,-1,-1,-1,260,-1,5,-1,-1,240,300,,9999,0,0,1,FEW 30,1,3,1,1,1012,RJOP 221500Z 26005KT 240V300 9999 FEW030 03/01 Q1012 RMK     1CU030 A2989=,
20180122_160000.003,0,RJOP,,,,0,20180122160000,-1,-1,-1,-1,220,-1,4,-1,-1,180,260,,9999,0,0,1,FEW 30,1,2,1,1,1012,RJOP 221600Z 22004KT 180V260 9999 FEW030 02/01 Q1012 RMK     1CU030 A2989=,
20180122_170000.003,0,RJOP,,,,0,20180122170000,-1,-1,-1,-1,210,-1,5,-1,-1,-1,-1,,9999,0,0,1,FEW 30,1,2,1,1,1012,RJOP 221700Z 21005KT 9999 FEW030 02/01 Q1012 RMK 1CU030 A2991=,
20180122_180000.003,0,RJOP,,,,0,20180122180000,-1,-1,-1,-1,170,-1,5,-1,-1,140,220,,9999,0,0,1,FEW 30,1,1,1,0,1011,RJOP 221800Z 17005KT 140V220 9999 FEW030 01/00 Q1011 RMK     1CU030 A2987=,
20180122_190000.003,0,RJOP,,,,0,20180122190000,-1,-1,-1,-1,280,-1,7,-1,-1,-1,-1,,9999,0,0,1,FEW 30,1,2,1,2,1011,RJOP 221900Z 28007KT 9999 FEW030 02/02 Q1011 RMK 1CU030 A2987=,
20180122_200000.003,0,RJOP,,,,0,20180122200000,-1,-1,-1,-1,180,-1,4,-1,-1,140,220,,9999,0,0,1,FEW 30,1,2,1,1,1011,RJOP 222000Z 18004KT 140V220 9999 FEW030 02/01 Q1011 RMK     2CU030 A2987=,
20180122_210000.004,0,RJOP,,,,0,20180122210000,-1,-1,-1,-1,180,-1,4,-1,-1,-1,-1,,9999,0,0,2,FEW 30   BKN 50,1,2,1,1,1011,RJOP 222100Z 18004KT 9999 FEW030 BKN050 02/01 Q1011 RMK 1CU030     5SC050 A2987=,
20180122_220000.003,0,RJOP,,,,0,20180122220000,-1,-1,-1,-1,180,-1,3,-1,-1,130,240,,9999,0,0,2,FEW 5   SCT 50,1,2,1,1,1011,RJOP 222200Z 18003KT 130V240 9999 FEW005 SCT050 02/01 Q1011     RMK 1ST005 4SC050 A2988=,
20180122_230000.004,0,RJOP,,,,0,20180122230000,-1,-1,-1,-1,180,-1,3,-1,-1,110,240,,9999,0,0,2,FEW 5   SCT 50,1,2,1,1,1011,RJOP 222300Z 18003KT 110V240 9999 FEW005 SCT050 02/01 Q1011     RMK 1ST005 3SC050 A2988=,
20180123_000000.003,0,RJOP,,,,0,20180123000000,-1,-1,-1,-1,150,-1,5,-1,-1,130,190,,9999,0,0,1,FEW 30,1,3,1,2,1012,RJOP 230000Z 15005KT 130V190 9999 FEW030 03/02 Q1012 RMK     1CU030 A2989=,
20180123_010000.003,0,RJOP,,,,0,20180123010000,-1,-1,-1,-1,210,-1,5,-1,-1,170,270,,9999,0,0,1,FEW 30,1,8,1,3,1012,RJOP 230100Z 21005KT 170V270 9999 FEW030 08/03 Q1012 RMK     1CU030 A2989=,
20180123_020000.003,0,RJOP,,,,0,20180123020000,-1,-1,-1,-1,280,-1,20,-1,35,-1,-1,,9999,0,0,1,FEW 30,1,11,-1,1,1011,RJOP 230200Z 28020G35KT 9999 FEW030 11/M01 Q1011 RMK 1CU030     A2988=,
20180123_030000.004,0,RJOP,,,,0,20180123030000,-1,-1,-1,-1,290,-1,24,-1,38,-1,-1,,9999,0,0,1,FEW 30,1,11,-1,2,1010,RJOP 230300Z 29024G38KT 9999 FEW030 11/M02 Q1010 RMK 1CU030     A2985=,
20180123_040000.004,0,RJOP,,,,0,20180123040000,-1,-1,-1,-1,290,-1,24,-1,34,-1,-1,,9999,0,0,2,FEW 30   SCT 50,1,11,-1,2,1010,RJOP 230400Z 29024G34KT 9999 FEW030 SCT050 11/M02 Q1010 RMK     1CU030 3SC050 A2985=,
20180123_050000.003,0,RJOP,,,,0,20180123050000,-1,-1,-1,-1,320,-1,17,-1,27,-1,-1,,9999,0,0,1,FEW 30,1,8,1,2,1011,RJOP 230500Z 32017G27KT 9999 FEW030 08/02 Q1011 RMK 1CU030     A2988=,
20180123_060000.004,0,RJOP,,,,0,20180123060000,-1,-1,-1,-1,310,-1,19,-1,31,-1,-1,,9999,0,1,2,FEW 25   BKN 40,1,7,-1,0,1012,RJOP 230600Z 31019G31KT 9999 -SHRA FEW025 BKN040 07/M00 Q1012     RMK 1CU025 6CU040 A2989=,- RA SH
20180123_070000.003,0,RJOP,,,,0,20180123070000,-1,-1,-1,-1,310,-1,17,-1,27,280,360,,9999,0,0,2,FEW 25   SCT 40,1,7,-1,1,1012,RJOP 230700Z 31017G27KT 280V360 9999 FEW025 SCT040 07/M01     Q1012 RMK 1CU025 3CU040 A2991=,
20180123_080000.003,0,RJOP,,,,0,20180123080000,-1,-1,-1,-1,340,-1,18,-1,28,-1,-1,,9999,0,0,2,FEW 25   SCT 40,1,4,-1,0,1014,RJOP 230800Z 34018G28KT 9999 FEW025 SCT040 04/M00 Q1014 RMK     1CU025 3CU040 A2994=,
20180123_090000.003,0,RJOP,,,,0,20180123090000,-1,-1,-1,-1,330,-1,10,-1,-1,-1,-1,,9999,0,0,2,FEW 25   SCT 40,1,4,-1,1,1014,RJOP 230900Z 33010KT 9999 FEW025 SCT040 04/M01 Q1014 RMK     2CU025 3CU040 A2996=,
20180123_100000.003,0,RJOP,,,,0,20180123100000,-1,-1,-1,-1,350,-1,6,-1,-1,-1,-1,,9999,0,1,2,FEW 25   BKN 40,1,4,-1,2,1015,RJOP 231000Z 35006KT 9999 -SHRA FEW025 BKN040 04/M02 Q1015 RMK     2CU025 7CU040 A2998=,- RA SH
20180123_110000.003,0,RJOP,,,,0,20180123110000,-1,-1,-1,-1,320,-1,13,-1,-1,-1,-1,,9999,0,0,2,FEW 25   BKN 40,1,4,-1,5,1016,RJOP 231100Z 32013KT 9999 FEW025 BKN040 04/M05 Q1016 RMK     2CU025 7CU040 A3000=,
20180123_120000.003,0,RJOP,,,,0,20180123120000,-1,-1,-1,-1,310,-1,9,-1,-1,270,340,,9999,0,0,2,FEW 25   SCT 40,1,3,-1,7,1016,RJOP 231200Z 31009KT 270V340 9999 FEW025 SCT040 03/M07 Q1016     RMK 1CU025 4CU040 A3002=,
20180123_130000.003,0,RJOP,,,,0,20180123130000,-1,-1,-1,-1,320,-1,12,-1,-1,290,350,,9999,0,0,2,FEW 25   SCT 40,1,2,-1,7,1016,RJOP 231300Z 32012KT 290V350 9999 FEW025 SCT040 02/M07 Q1016     RMK 1CU025 3CU040 A3002=,
20180123_140000.003,0,RJOP,,,,0,20180123140000,-1,-1,-1,-1,310,-1,19,-1,-1,-1,-1,,9999,0,0,1,FEW 25,1,2,-1,7,1016,RJOP 231400Z 31019KT 9999 FEW025 02/M07 Q1016 RMK 1CU025     A3001=,
20180123_150000.003,0,RJOP,,,,0,20180123150000,-1,-1,-1,-1,280,-1,7,-1,-1,250,310,,9999,0,0,2,FEW 25   BKN 40,1,1,-1,5,1016,RJOP 231500Z 28007KT 250V310 9999 FEW025 BKN040 01/M05 Q1016     RMK 1CU025 5CU040 A3003=,
20180123_160000.003,0,RJOP,,,,0,20180123160000,-1,-1,-1,-1,280,-1,4,-1,-1,250,310,,9999,0,0,2,FEW 25   BKN 40,1,1,-1,5,1016,RJOP 231600Z 28004KT 250V310 9999 FEW025 BKN040 01/M05 Q1016     RMK 1CU025 7CU040 A3002=,
20180123_170000.003,0,RJOP,,,,0,20180123170000,-1,-1,-1,-1,250,-1,5,-1,-1,200,300,,9999,0,1,2,FEW 20   BKN 40,1,1,-1,4,1016,RJOP 231700Z 25005KT 200V300 9999 -SHSN FEW020 BKN040 01/M04     Q1016 RMK 1CU020 7CU040 A3003=,- SN SH
20180123_180000.003,0,RJOP,,,,0,20180123180000,-1,-1,-1,-1,300,-1,4,-1,-1,260,340,,9999,0,0,2,FEW 25   BKN 40,1,0,-1,3,1016,RJOP 231800Z 30004KT 260V340 9999 FEW025 BKN040 00/M03 Q1016     RMK 1CU025 7CU040 A3002=,
20180123_190000.003,0,RJOP,,,,0,20180123190000,-1,-1,-1,-1,330,-1,3,-1,-1,250,20,,9999,0,1,3,FEW 25   BKN 35   BKN 50,1,0,-1,2,1016,RJOP 231900Z 33003KT 250V020 9999 -SHSN FEW025 BKN035 BKN050     00/M02 Q1016 RMK 1CU025 5CU035 7SC050 A3001=,- SN SH
20180123_200000.003,0,RJOP,,,,0,20180123200000,-1,-1,-1,-1,310,-1,9,-1,-1,270,350,,9999,0,1,3,FEW 25   SCT 35   BKN 50,1,0,-1,3,1016,RJOP 232000Z 31009KT 270V350 9999 -SHSN FEW025 SCT035 BKN050     00/M03 Q1016 RMK 1CU025 4CU035 7SC050 A3001=,- SN SH
20180123_210000.003,0,RJOP,,,,0,20180123210000,-1,-1,-1,-1,310,-1,9,-1,-1,-1,-1,,9999,0,0,3,FEW 25   SCT 35   BKN 50,1,1,-1,4,1016,RJOP 232100Z 31009KT 9999 FEW025 SCT035 BKN050 01/M04 Q1016     RMK 1CU025 4CU035 6SC050 A3002 S000 SD/// FS000=,
20180123_220000.003,0,RJOP,,,,0,20180123220000,-1,-1,-1,-1,300,-1,14,-1,24,270,330,,9999,0,0,2,FEW 35   SCT 50,1,1,-1,7,1017,RJOP 232200Z 30014G24KT 270V330 9999 FEW035 SCT050 01/M07     Q1017 RMK 2CU035 3SC050 A3004=,
20180123_230000.003,0,RJOP,,,,0,20180123230000,-1,-1,-1,-1,240,-1,7,-1,-1,210,270,,9999,0,0,2,FEW 35   SCT 50,1,0,-1,7,1017,RJOP 232300Z 24007KT 210V270 9999 FEW035 SCT050 00/M07 Q1017     RMK 2CU035 3SC050 A3005=,
20180124_000000.003,0,RJOP,,,,0,20180124000000,-1,-1,-1,-1,300,-1,15,-1,26,-1,-1,,9999,0,0,1,FEW 35,1,1,-1,7,1017,RJOP 240000Z 30015G26KT 9999 FEW035 01/M07 Q1017 RMK 1CU035     A3005=,
20180124_010000.004,0,RJOP,,,,0,20180124010000,-1,-1,-1,-1,300,-1,15,-1,25,270,330,,9999,0,0,2,FEW 30   SCT 45,1,2,-1,7,1017,RJOP 240100Z 30015G25KT 270V330 9999 FEW030 SCT045 02/M07     Q1017 RMK 2CU030 3SC045 A3005=,
20180124_020000.003,0,RJOP,,,,0,20180124020000,-1,-1,-1,-1,300,-1,17,-1,31,270,330,,9999,0,0,2,FEW 20   BKN 45,1,2,-1,8,1017,RJOP 240200Z 30017G31KT 270V330 9999 FEW020 BKN045 02/M08     Q1017 RMK 2CU020 6SC045 A3003=,
20180124_030000.003,0,RJOP,,,,0,20180124030000,-1,-1,-1,-1,290,-1,17,-1,29,-1,-1,,9999,0,0,2,FEW 20   BKN 45,1,3,-1,9,1015,RJOP 240300Z 29017G29KT 9999 FEW020 BKN045 03/M09 Q1015 RMK     2CU020 6SC045 A2999=,
20180124_040000.003,0,RJOP,,,,0,20180124040000,-1,-1,-1,-1,300,-1,22,-1,32,-1,-1,,9999,0,0,2,FEW 25   BKN 45,1,3,-1,10,1014,RJOP 240400Z 30022G32KT 9999 FEW025 BKN045 03/M10 Q1014 RMK     2CU025 6SC045 A2996=,
20180124_050000.003,0,RJOP,,,,0,20180124050000,-1,-1,-1,-1,310,-1,21,-1,31,-1,-1,,9999,0,0,2,FEW 25   SCT 50,1,3,-1,9,1014,RJOP 240500Z 31021G31KT 9999 FEW025 SCT050 03/M09 Q1014 RMK     2CU025 4SC050 A2997=,
20180124_060000.003,0,RJOP,,,,0,20180124060000,-1,-1,-1,-1,300,-1,20,-1,33,-1,-1,,9999,0,0,2,FEW 25   SCT 50,1,2,-1,10,1015,RJOP 240600Z 30020G33KT 9999 FEW025 SCT050 02/M10 Q1015 RMK     2CU025 4SC050 A2997=,
20180124_070000.003,0,RJOP,,,,0,20180124070000,-1,-1,-1,-1,310,-1,23,-1,38,280,340,,9999,0,0,2,FEW 25   SCT 50,1,2,-1,11,1015,RJOP 240700Z 31023G38KT 280V340 9999 FEW025 SCT050 02/M11     Q1015 RMK 2CU025 4SC050 A2999=,
20180124_080000.003,0,RJOP,,,,0,20180124080000,-1,-1,-1,-1,320,-1,23,-1,36,-1,-1,,9999,0,0,2,FEW 25   SCT 50,1,0,-1,9,1016,RJOP 240800Z 32023G36KT 9999 FEW025 SCT050 00/M09 Q1016 RMK     1CU025 3SC050 A3002=,
20180124_090000.004,0,RJOP,,,,0,20180124090000,-1,-1,-1,-1,300,-1,20,-1,31,270,330,,9999,0,0,2,FEW 25   SCT 50,-1,0,-1,11,1017,RJOP 240900Z 30020G31KT 270V330 9999 FEW025 SCT050 M00/M11     Q1017 RMK 1CU025 3SC050 A3004=,
20180124_100000.003,0,RJOP,,,,0,20180124100000,-1,-1,-1,-1,310,-1,22,-1,32,-1,-1,,9999,0,0,1,FEW 25,-1,1,-1,11,1017,RJOP 241000Z 31022G32KT 9999 FEW025 M01/M11 Q1017 RMK 1CU025     A3005=,
20180124_110000.003,0,RJOP,,,,0,20180124110000,-1,-1,-1,-1,300,-1,22,-1,33,-1,-1,,9999,0,0,1,FEW 25,-1,1,-1,10,1018,RJOP 241100Z 30022G33KT 9999 FEW025 M01/M10 Q1018 RMK 1CU025     A3006=,
20180124_120000.003,0,RJOP,,,,0,20180124120000,-1,-1,-1,-1,310,-1,20,-1,31,-1,-1,,9999,0,0,1,FEW 30,-1,1,-1,10,1017,RJOP 241200Z 31020G31KT 9999 FEW030 M01/M10 Q1017 RMK 1CU030     A3006=,
20180124_130000.003,0,RJOP,,,,0,20180124130000,-1,-1,-1,-1,300,-1,19,-1,29,-1,-1,,9999,0,0,1,FEW 30,-1,1,-1,9,1018,RJOP 241300Z 30019G29KT 9999 FEW030 M01/M09 Q1018 RMK 1CU030     A3006=,
20180124_140000.004,0,RJOP,,,,0,20180124140000,-1,-1,-1,-1,310,-1,17,-1,27,-1,-1,,9999,0,0,1,FEW 30,-1,1,-1,10,1018,RJOP 241400Z 31017G27KT 9999 FEW030 M01/M10 Q1018 RMK 1CU030     A3006=,
20180124_150000.003,0,RJOP,,,,0,20180124150000,-1,-1,-1,-1,300,-1,11,-1,-1,-1,-1,,9999,0,0,1,FEW 30,-1,1,-1,9,1018,RJOP 241500Z 30011KT 9999 FEW030 M01/M09 Q1018 RMK 1CU030     A3006=,
20180124_160000.003,0,RJOP,,,,0,20180124160000,-1,-1,-1,-1,300,-1,13,-1,-1,-1,-1,,9999,0,0,1,FEW 30,-1,1,-1,10,1018,RJOP 241600Z 30013KT 9999 FEW030 M01/M10 Q1018 RMK 1CU030     A3006=,
20180124_170000.003,0,RJOP,,,,0,20180124170000,-1,-1,-1,-1,290,-1,11,-1,-1,-1,-1,,9999,0,0,1,FEW 30,-1,1,-1,9,1018,RJOP 241700Z 29011KT 9999 FEW030 M01/M09 Q1018 RMK 1CU030     A3008=,
20180124_180000.003,0,RJOP,,,,0,20180124180000,-1,-1,-1,-1,290,-1,13,-1,-1,-1,-1,,9999,0,0,1,FEW 30,-1,1,-1,9,1018,RJOP 241800Z 29013KT 9999 FEW030 M01/M09 Q1018 RMK 1CU030     A3007=,
20180124_190000.004,0,RJOP,,,,0,20180124190000,-1,-1,-1,-1,290,-1,12,-1,-1,260,330,,9999,0,0,1,FEW 30,-1,1,-1,8,1018,RJOP 241900Z 29012KT 260V330 9999 FEW030 M01/M08 Q1018 RMK     1CU030 A3008=,
20180124_200000.003,0,RJOP,,,,0,20180124200000,-1,-1,-1,-1,310,-1,15,-1,-1,-1,-1,,9999,0,0,1,FEW 30,-1,1,-1,8,1018,RJOP 242000Z 31015KT 9999 FEW030 M01/M08 Q1018 RMK 1CU030     A3008=,
20180124_210000.004,0,RJOP,,,,0,20180124210000,-1,-1,-1,-1,300,-1,13,-1,-1,-1,-1,,9999,0,0,1,FEW 30,-1,1,-1,8,1018,RJOP 242100Z 30013KT 9999 FEW030 M01/M08 Q1018 RMK 1CU030     A3008 S/// SD/// FS000=,
20180124_220000.003,0,RJOP,,,,0,20180124220000,-1,-1,-1,-1,290,-1,13,-1,-1,-1,-1,,9999,0,0,1,FEW 30,-1,0,-1,8,1018,RJOP 242200Z 29013KT 9999 FEW030 M00/M08 Q1018 RMK 1CU030     A3008=,
20180124_230000.003,0,RJOP,,,,0,20180124230000,-1,-1,-1,-1,300,-1,13,-1,-1,-1,-1,,9999,0,0,1,FEW 30,-1,0,-1,8,1019,RJOP 242300Z 30013KT 9999 FEW030 M00/M08 Q1019 RMK 1CU030     A3009=,
20180125_000000.003,0,RJOP,,,,0,20180125000000,-1,-1,-1,-1,310,-1,17,-1,27,280,350,,9999,0,0,1,FEW 30,1,1,-1,8,1019,RJOP 250000Z 31017G27KT 280V350 9999 FEW030 01/M08 Q1019 RMK     1CU030 A3010=,
20180125_010000.003,0,RJOP,,,,0,20180125010000,-1,-1,-1,-1,300,-1,20,-1,34,-1,-1,,9999,0,0,1,FEW 30,1,2,-1,8,1019,RJOP 250100Z 30020G34KT 9999 FEW030 02/M08 Q1019 RMK 1CU030     A3011=,
20180125_020000.004,0,RJOP,,,,0,20180125020000,-1,-1,-1,-1,300,-1,17,-1,27,-1,-1,,9999,0,0,1,FEW 30,1,3,-1,7,1018,RJOP 250200Z 30017G27KT 9999 FEW030 03/M07 Q1018 RMK 1CU030     A3009=,
20180125_030000.003,0,RJOP,,,,0,20180125030000,-1,-1,-1,-1,310,-1,17,-1,27,-1,-1,,9999,0,0,1,FEW 30,1,4,-1,8,1017,RJOP 250300Z 31017G27KT 9999 FEW030 04/M08 Q1017 RMK 1CU030     A3005=,
20180125_040000.003,0,RJOP,,,,0,20180125040000,-1,-1,-1,-1,320,-1,17,-1,27,-1,-1,,9999,0,0,2,FEW 30   SCT 50,1,4,-1,8,1017,RJOP 250400Z 32017G27KT 9999 FEW030 SCT050 04/M08 Q1017 RMK     1CU030 3SC050 A3003=,
20180125_050000.003,0,RJOP,,,,0,20180125050000,-1,-1,-1,-1,320,-1,17,-1,27,-1,-1,,9999,0,0,2,FEW 30   SCT 50,1,4,-1,8,1016,RJOP 250500Z 32017G27KT 9999 FEW030 SCT050 04/M08 Q1016 RMK     1CU030 3SC050 A3001=,
20180125_060000.003,0,RJOP,,,,0,20180125060000,-1,-1,-1,-1,310,-1,16,-1,26,-1,-1,,9999,0,0,2,FEW 30   BKN 50,1,4,-1,7,1016,RJOP 250600Z 31016G26KT 9999 FEW030 BKN050 04/M07 Q1016 RMK     1CU030 5SC050 A3003=,
20180125_070000.003,0,RJOP,,,,0,20180125070000,-1,-1,-1,-1,320,-1,17,-1,-1,-1,-1,,9999,0,0,2,FEW 30   SCT 50,1,4,-1,7,1016,RJOP 250700Z 32017KT 9999 FEW030 SCT050 04/M07 Q1016 RMK     1CU030 4SC050 A3002 PEAK GUST 25KT=,
20180125_080000.003,0,RJOP,,,,0,20180125080000,-1,-1,-1,-1,310,-1,14,-1,-1,-1,-1,,9999,0,0,2,FEW 30   SCT 50,1,4,-1,6,1016,RJOP 250800Z 31014KT 9999 FEW030 SCT050 04/M06 Q1016 RMK     1CU030 3SC050 A3002=,
20180125_090000.003,0,RJOP,,,,0,20180125090000,-1,-1,-1,-1,310,-1,17,-1,-1,-1,-1,,9999,0,0,2,FEW 30   SCT 50,1,3,-1,5,1017,RJOP 250900Z 31017KT 9999 FEW030 SCT050 03/M05 Q1017 RMK     1CU030 3SC050 A3003=,
20180125_100000.004,0,RJOP,,,,0,20180125100000,-1,-1,-1,-1,290,-1,14,-1,-1,-1,-1,,9999,0,0,1,FEW 30,1,2,-1,4,1017,RJOP 251000Z 29014KT 9999 FEW030 02/M04 Q1017 RMK 1CU030     A3003=,
20180125_110000.004,0,RJOP,,,,0,20180125110000,-1,-1,-1,-1,300,-1,15,-1,-1,-1,-1,,9999,0,0,1,FEW 30,1,2,-1,5,1016,RJOP 251100Z 30015KT 9999 FEW030 02/M05 Q1016 RMK 1CU030     A3003=,
20180125_120000.003,0,RJOP,,,,0,20180125120000,-1,-1,-1,-1,290,-1,19,-1,-1,-1,-1,,9999,0,0,1,FEW 30,1,2,-1,6,1016,RJOP 251200Z 29019KT 9999 FEW030 02/M06 Q1016 RMK 1CU030     A3003=,
20180125_130000.003,0,RJOP,,,,0,20180125130000,-1,-1,-1,-1,280,-1,18,-1,-1,-1,-1,,9999,0,0,2,FEW 30   SCT 180,1,2,-1,7,1016,RJOP 251300Z 28018KT 9999 FEW030 SCT180 02/M07 Q1016 RMK     1CU030 4AC180 A3001=,
20180125_140000.003,0,RJOP,,,,0,20180125140000,-1,-1,-1,-1,280,-1,16,-1,-1,-1,-1,,9999,0,0,2,FEW 30   BKN 180,1,2,-1,7,1016,RJOP 251400Z 28016KT 9999 FEW030 BKN180 02/M07 Q1016 RMK     1CU030 5AC180 A3000=,
20180125_150000.003,0,RJOP,,,,0,20180125150000,-1,-1,-1,-1,300,-1,13,-1,-1,-1,-1,,9999,0,0,2,FEW 30   BKN 180,1,2,-1,7,1016,RJOP 251500Z 30013KT 9999 FEW030 BKN180 02/M07 Q1016 RMK     1CU030 5AC180 A3000=,
20180125_160000.003,0,RJOP,,,,0,20180125160000,-1,-1,-1,-1,300,-1,15,-1,-1,-1,-1,,9999,0,0,3,FEW 30   SCT 180   BKN 230,1,1,-1,7,1015,RJOP 251600Z 30015KT 9999 FEW030 SCT180 BKN230 01/M07 Q1015     RMK 1CU030 3AC180 A2999=,
20180125_170000.003,0,RJOP,,,,0,20180125170000,-1,-1,-1,-1,310,-1,11,-1,-1,-1,-1,,9999,0,0,3,FEW 30   SCT 50   BKN 230,1,1,-1,7,1015,RJOP 251700Z 31011KT 9999 FEW030 SCT050 BKN230 01/M07 Q1015     RMK 1CU030 3SC050 A2999=,
20180125_180000.003,0,RJOP,,,,0,20180125180000,-1,-1,-1,-1,300,-1,10,-1,-1,-1,-1,,9999,0,0,2,FEW 30   BKN 50,1,1,-1,7,1015,RJOP 251800Z 30010KT 9999 FEW030 BKN050 01/M07 Q1015 RMK     1CU030 5SC050 A2998=,
20180125_190000.003,0,RJOP,,,,0,20180125190000,-1,-1,-1,-1,290,-1,11,-1,-1,-1,-1,,9999,0,0,3,FEW 30   SCT 50   BKN 180,1,1,-1,5,1015,RJOP 251900Z 29011KT 9999 FEW030 SCT050 BKN180 01/M05 Q1015     RMK 1CU030 3SC050 5AC180 A2997=,
20180125_200000.004,0,RJOP,,,,0,20180125200000,-1,-1,-1,-1,300,-1,14,-1,-1,-1,-1,,9999,0,0,3,FEW 30   BKN 50   BKN 230,1,1,-1,5,1014,RJOP 252000Z 30014KT 9999 FEW030 BKN050 BKN230 01/M05 Q1014     RMK 1CU030 5SC050 A2996=,
20180125_210000.003,0,RJOP,,,,0,20180125210000,-1,-1,-1,-1,310,-1,13,-1,25,260,330,,9999,0,0,3,FEW 30   SCT 50   BKN 230,1,2,-1,5,1014,RJOP 252100Z 31013G25KT 260V330 9999 FEW030 SCT050 BKN230     02/M05 Q1014 RMK 1CU030 3SC050 A2996 S/// SD/// FS000=,
20180125_220000.003,0,RJOP,,,,0,20180125220000,-1,-1,-1,-1,300,-1,13,-1,-1,-1,-1,,9999,0,0,2,FEW 30   SCT 230,1,2,-1,5,1014,RJOP 252200Z 30013KT 9999 FEW030 SCT230 02/M05 Q1014 RMK     1CU030 A2997=,
20180125_230000.003,0,RJOP,,,,0,20180125230000,-1,-1,-1,-1,310,-1,15,-1,-1,280,350,,9999,0,0,2,FEW 30   BKN 60,1,2,-1,7,1015,RJOP 252300Z 31015KT 280V350 9999 FEW030 BKN060 02/M07 Q1015     RMK 2CU030 5SC060 A2997 PEAK GUST 23KT=,
20180126_000000.003,0,RJOP,,,,0,20180126000000,-1,-1,-1,-1,310,-1,17,-1,27,-1,-1,,9999,0,0,2,FEW 30   BKN 60,1,3,-1,6,1015,RJOP 260000Z 31017G27KT 9999 FEW030 BKN060 03/M06 Q1015 RMK     1CU030 7SC060 A2998=,
20180126_010000.003,0,RJOP,,,,0,20180126010000,-1,-1,-1,-1,320,-1,19,-1,29,-1,-1,,9999,0,1,3,FEW 30   SCT 40   BKN 60,1,3,-1,5,1015,RJOP 260100Z 32019G29KT 9999 -SHSN FEW030 SCT040 BKN060 03/M05     Q1015 RMK 2CU030 3CU040 7SC060 A2999=,- SN SH
20180126_020000.003,0,RJOP,,,,0,20180126020000,-1,-1,-1,-1,310,-1,19,-1,31,270,330,,9999,0,0,3,FEW 30   SCT 40   BKN 60,1,3,-1,6,1015,RJOP 260200Z 31019G31KT 270V330 9999 FEW030 SCT040 BKN060     03/M06 Q1015 RMK 2CU030 3CU040 7SC060 A2998=,
20180126_030000.003,0,RJOP,,,,0,20180126030000,-1,-1,-1,-1,310,-1,22,-1,40,270,350,,9999,0,0,2,FEW 30   BKN 40,1,4,-1,7,1014,RJOP 260300Z 31022G40KT 270V350 9999 FEW030 BKN040 04/M07     Q1014 RMK 2CU030 6CU040 A2995=,
20180126_040000.003,0,RJOP,,,,0,20180126040000,-1,-1,-1,-1,310,-1,24,-1,38,-1,-1,,9999,0,0,2,FEW 30   BKN 40,1,5,-1,8,1013,RJOP 260400Z 31024G38KT 9999 FEW030 BKN040 05/M08 Q1013 RMK     1CU030 6CU040 A2992=,
20180126_050000.003,0,RJOP,,,,0,20180126050000,-1,-1,-1,-1,340,-1,21,-1,-1,-1,-1,,9999,0,0,2,FEW 30   BKN 40,1,3,-1,3,1013,RJOP 260500Z 34021KT 9999 FEW030 BKN040 03/M03 Q1013 RMK     2CU030 5CU040 A2992=,
20180126_060000.003,0,RJOP,,,,0,20180126060000,-1,-1,-1,-1,310,-1,19,-1,29,280,350,,9999,0,1,2,FEW 30   BKN 40,1,4,-1,3,1013,RJOP 260600Z 31019G29KT 280V350 9999 VCSH FEW030 BKN040 04/M03     Q1013 RMK 2CU030 6CU040 A2994=,VC SH
20180126_070000.003,0,RJOP,,,,0,20180126070000,-1,-1,-1,-1,340,-1,23,-1,-1,-1,-1,,9999,0,1,2,FEW 30   BKN 40,1,3,-1,3,1014,RJOP 260700Z 34023KT 9999 -SHSN FEW030 BKN040 03/M03 Q1014 RMK     2CU030 7CU040 A2995 PEAK GUST 31KT=,- SN SH
20180126_080000.004,0,RJOP,,,,0,20180126080000,-1,-1,-1,-1,330,-1,20,-1,30,-1,-1,,9999,0,1,2,FEW 30   SCT 40,1,2,-1,3,1014,RJOP 260800Z 33020G30KT 9999 VCSH FEW030 SCT040 02/M03 Q1014     RMK 2CU030 3SC040 A2996=,VC SH
20180126_090000.003,0,RJOP,,,,0,20180126090000,-1,-1,-1,-1,310,-1,21,-1,33,270,330,,9999,0,0,1,FEW 30,1,2,-1,5,1015,RJOP 260900Z 31021G33KT 270V330 9999 FEW030 02/M05 Q1015 RMK     1CU030 A2999=,
20180126_100000.003,0,RJOP,,,,0,20180126100000,-1,-1,-1,-1,310,-1,21,-1,32,-1,-1,,9999,0,0,1,FEW 30,1,2,-1,7,1016,RJOP 261000Z 31021G32KT 9999 FEW030 02/M07 Q1016 RMK 1CU030     A3001=,
20180126_110000.003,0,RJOP,,,,0,20180126110000,-1,-1,-1,-1,310,-1,20,-1,30,270,330,,9999,0,0,1,FEW 30,1,2,-1,7,1017,RJOP 261100Z 31020G30KT 270V330 9999 FEW030 02/M07 Q1017 RMK     1CU030 A3003=,
20180126_120000.003,0,RJOP,,,,0,20180126120000,-1,-1,-1,-1,310,-1,20,-1,30,-1,-1,,9999,0,0,1,FEW 30,1,2,-1,6,1017,RJOP 261200Z 31020G30KT 9999 FEW030 02/M06 Q1017 RMK 1CU030     A3005=,
20180126_130000.003,0,RJOP,,,,0,20180126130000,-1,-1,-1,-1,310,-1,22,-1,35,-1,-1,,9999,0,0,1,FEW 30,1,1,-1,7,1018,RJOP 261300Z 31022G35KT 9999 FEW030 01/M07 Q1018 RMK 1CU030     A3007=,
20180126_140000.003,0,RJOP,,,,0,20180126140000,-1,-1,-1,-1,300,-1,23,-1,36,-1,-1,,9999,0,0,2,FEW 30   SCT 50,1,1,-1,7,1018,RJOP 261400Z 30023G36KT 9999 FEW030 SCT050 01/M07 Q1018 RMK     1CU030 3SC050 A3009=,
20180126_150000.003,0,RJOP,,,,0,20180126150000,-1,-1,-1,-1,310,-1,20,-1,30,-1,-1,,9999,0,0,2,FEW 30   BKN 50,1,1,-1,6,1019,RJOP 261500Z 31020G30KT 9999 FEW030 BKN050 01/M06 Q1019 RMK     1CU030 5SC050 A3009=,
20180126_160000.003,0,RJOP,,,,0,20180126160000,-1,-1,-1,-1,320,-1,22,-1,32,-1,-1,,9999,0,0,2,FEW 30   SCT 40,1,1,-1,6,1019,RJOP 261600Z 32022G32KT 9999 FEW030 SCT040 01/M06 Q1019 RMK     1CU030 3CU040 A3011=,
20180126_170000.003,0,RJOP,,,,0,20180126170000,-1,-1,-1,-1,310,-1,18,-1,-1,-1,-1,,9999,0,0,1,FEW 30,1,1,-1,6,1020,RJOP 261700Z 31018KT 9999 FEW030 01/M06 Q1020 RMK 1CU030     A3013=,
20180126_180000.003,0,RJOP,,,,0,20180126180000,-1,-1,-1,-1,310,-1,21,-1,-1,-1,-1,,9999,0,0,1,FEW 30,1,1,-1,6,1020,RJOP 261800Z 31021KT 9999 FEW030 01/M06 Q1020 RMK 1CU030     A3013=,
20180126_190000.003,0,RJOP,,,,0,20180126190000,-1,-1,-1,-1,310,-1,21,-1,31,-1,-1,,9999,0,0,1,FEW 30,1,0,-1,7,1020,RJOP 261900Z 31021G31KT 9999 FEW030 00/M07 Q1020 RMK 1CU030     A3013=,
20180126_200000.004,0,RJOP,,,,0,20180126200000,-1,-1,-1,-1,300,-1,19,-1,-1,-1,-1,,9999,0,0,1,FEW 30,1,0,-1,7,1020,RJOP 262000Z 30019KT 9999 FEW030 00/M07 Q1020 RMK 1CU030     A3013=,
20180126_210000.003,0,RJOP,,,,0,20180126210000,-1,-1,-1,-1,300,-1,17,-1,27,-1,-1,,9999,0,0,1,FEW 30,1,0,-1,7,1020,RJOP 262100Z 30017G27KT 9999 FEW030 00/M07 Q1020 RMK 1CU030     A3014 S000 SD///=,
20180126_220000.003,0,RJOP,,,,0,20180126220000,-1,-1,-1,-1,300,-1,19,-1,30,270,330,,9999,0,0,1,FEW 30,1,0,-1,7,1021,RJOP 262200Z 30019G30KT 270V330 9999 FEW030 00/M07 Q1021 RMK     1CU030 A3015=,
20180126_230000.003,0,RJOP,,,,0,20180126230000,-1,-1,-1,-1,300,-1,20,-1,30,270,340,,9999,0,0,1,FEW 30,1,1,-1,6,1022,RJOP 262300Z 30020G30KT 270V340 9999 FEW030 01/M06 Q1022 RMK     1CU030 A3018=,
20180127_000000.003,0,RJOP,,,,0,20180127000000,-1,-1,-1,-1,300,-1,17,-1,27,-1,-1,,9999,0,0,1,FEW 30,1,2,-1,6,1022,RJOP 270000Z 30017G27KT 9999 FEW030 02/M06 Q1022 RMK 1CU030     A3020=,
20180127_010000.003,0,RJOP,,,,0,20180127010000,-1,-1,-1,-1,310,-1,18,-1,28,-1,-1,,9999,0,0,1,FEW 30,1,3,-1,5,1023,RJOP 270100Z 31018G28KT 9999 FEW030 03/M05 Q1023 RMK 1CU030     A3022=,
20180127_020000.003,0,RJOP,,,,0,20180127020000,-1,-1,-1,-1,330,-1,20,-1,-1,-1,-1,,9999,0,0,1,SCT 30,1,4,-1,5,1023,RJOP 270200Z 33020KT 9999 SCT030 04/M05 Q1023 RMK 3CU030 A3021     PEAK GUST 27KT=,
20180127_030000.003,0,RJOP,,,,0,20180127030000,-1,-1,-1,-1,340,-1,19,-1,-1,-1,-1,,9999,0,0,2,FEW 30   SCT 45,1,4,-1,5,1022,RJOP 270300Z 34019KT 9999 FEW030 SCT045 04/M05 Q1022 RMK     1CU030 3SC045 A3019 PEAK GUST 27KT=,
20180127_040000.003,0,RJOP,,,,0,20180127040000,-1,-1,-1,-1,330,-1,21,-1,-1,-1,-1,,9999,0,0,1,FEW 30,1,5,-1,6,1022,RJOP 270400Z 33021KT 9999 FEW030 05/M06 Q1022 RMK 1CU030     A3018=,
20180127_050000.003,0,RJOP,,,,0,20180127050000,-1,-1,-1,-1,340,-1,19,-1,-1,-1,-1,,9999,0,0,1,FEW 30,1,5,-1,5,1022,RJOP 270500Z 34019KT 9999 FEW030 05/M05 Q1022 RMK 1CU030     A3019=,
20180127_060000.003,0,RJOP,,,,0,20180127060000,-1,-1,-1,-1,330,-1,19,-1,-1,-1,-1,,9999,0,0,2,FEW 30   SCT 45,1,5,-1,6,1022,RJOP 270600Z 33019KT 9999 FEW030 SCT045 05/M06 Q1022 RMK     1CU030 3SC045 A3020=,
20180127_070000.003,0,RJOP,,,,0,20180127070000,-1,-1,-1,-1,350,-1,17,-1,-1,-1,-1,,9999,0,0,2,FEW 30   BKN 50,1,5,-1,5,1022,RJOP 270700Z 35017KT 9999 FEW030 BKN050 05/M05 Q1022 RMK     1CU030 5SC050 A3018=,
20180127_080000.003,0,RJOP,,,,0,20180127080000,-1,-1,-1,-1,360,-1,14,-1,-1,-1,-1,,9999,0,0,2,FEW 30   SCT 50,1,5,-1,4,1022,RJOP 270800Z 36014KT 9999 FEW030 SCT050 05/M04 Q1022 RMK     1CU030 4SC050 A3018=,
20180127_090000.004,0,RJOP,,,,0,20180127090000,-1,-1,-1,-1,340,-1,12,-1,-1,-1,-1,,9999,0,0,2,FEW 30   BKN 50,1,4,-1,4,1022,RJOP 270900Z 34012KT 9999 FEW030 BKN050 04/M04 Q1022 RMK     1CU030 6SC050 A3021=,
20180127_100000.003,0,RJOP,,,,0,20180127100000,-1,-1,-1,-1,310,-1,12,-1,-1,-1,-1,,9999,0,0,2,FEW 30   BKN 50,1,5,-1,4,1023,RJOP 271000Z 31012KT 9999 FEW030 BKN050 05/M04 Q1023 RMK     1CU030 6SC050 A3022=,
20180127_110000.003,0,RJOP,,,,0,20180127110000,-1,-1,-1,-1,320,-1,10,-1,-1,-1,-1,,9999,0,0,2,FEW 30   BKN 50,1,4,-1,4,1023,RJOP 271100Z 32010KT 9999 FEW030 BKN050 04/M04 Q1023 RMK     1CU030 7SC050 A3022=,
20180127_120000.003,0,RJOP,,,,0,20180127120000,-1,-1,-1,-1,320,-1,7,-1,-1,-1,-1,,9999,0,0,2,FEW 30   BKN 50,1,4,-1,3,1023,RJOP 271200Z 32007KT 9999 FEW030 BKN050 04/M03 Q1023 RMK     2CU030 6SC050 A3021=,
20180127_130000.003,0,RJOP,,,,0,20180127130000,-1,-1,-1,-1,340,-1,6,-1,-1,300,360,,9999,0,0,2,FEW 30   BKN 50,1,4,-1,3,1023,RJOP 271300Z 34006KT 300V360 9999 FEW030 BKN050 04/M03 Q1023     RMK 1CU030 6SC050 A3022=,
20180127_140000.004,0,RJOP,,,,0,20180127140000,-1,-1,-1,-1,290,-1,9,-1,-1,260,330,,9999,0,0,2,FEW 30   BKN 50,1,3,-1,2,1023,RJOP 271400Z 29009KT 260V330 9999 FEW030 BKN050 03/M02 Q1023     RMK 1CU030 5SC050 A3021=,
20180127_150000.003,0,RJOP,,,,0,20180127150000,-1,-1,-1,-1,270,-1,8,-1,-1,-1,-1,,9999,0,0,1,FEW 30,1,2,-1,3,1022,RJOP 271500Z 27008KT 9999 FEW030 02/M03 Q1022 RMK 1CU030     A3021=,
20180127_160000.003,0,RJOP,,,,0,20180127160000,-1,-1,-1,-1,280,-1,8,-1,-1,-1,-1,,9999,0,0,2,FEW 30   SCT 160,1,2,-1,3,1022,RJOP 271600Z 28008KT 9999 FEW030 SCT160 02/M03 Q1022 RMK     1CU030 4AC160 A3020=,
20180127_170000.003,0,RJOP,,,,0,20180127170000,-1,-1,-1,-1,290,-1,5,-1,-1,270,330,,9999,0,0,2,FEW 30   SCT 160,1,2,-1,3,1022,RJOP 271700Z 29005KT 270V330 9999 FEW030 SCT160 02/M03 Q1022     RMK 1CU030 4AC160 A3019=,
20180127_180000.003,0,RJOP,,,,0,20180127180000,-1,-1,-1,-1,290,-1,5,-1,-1,-1,-1,,9999,0,0,2,FEW 30   BKN 160,1,2,-1,3,1021,RJOP 271800Z 29005KT 9999 FEW030 BKN160 02/M03 Q1021 RMK     1CU030 6AC160 A3016=,
20180127_190000.003,0,RJOP,,,,0,20180127190000,-1,-1,-1,-1,270,-1,9,-1,-1,-1,-1,,9999,0,0,3,FEW 30   SCT 130   BKN 160,1,1,-1,3,1021,RJOP 271900Z 27009KT 9999 FEW030 SCT130 BKN160 01/M03 Q1021     RMK 1CU030 4AC130 6AC160 A3016=,
20180127_200000.003,0,RJOP,,,,0,20180127200000,-1,-1,-1,-1,270,-1,9,-1,-1,-1,-1,,9999,0,0,2,FEW 30   BKN 120,1,1,-1,3,1020,RJOP 272000Z 27009KT 9999 FEW030 BKN120 01/M03 Q1020 RMK     1CU030 7AC120 A3013=,
20180127_210000.003,0,RJOP,,,,0,20180127210000,-1,-1,-1,-1,280,-1,9,-1,-1,-1,-1,,9999,0,0,2,FEW 30   BKN 120,1,1,-1,3,1020,RJOP 272100Z 28009KT 9999 FEW030 BKN120 01/M03 Q1020 RMK     1CU030 7AC120 A3014=,
20180127_220000.003,0,RJOP,,,,0,20180127220000,-1,-1,-1,-1,270,-1,10,-1,-1,-1,-1,,9999,0,0,3,FEW 30   SCT 80   BKN 120,1,1,-1,3,1020,RJOP 272200Z 27010KT 9999 FEW030 SCT080 BKN120 01/M03 Q1020     RMK 1CU030 3AC080 7AC120 A3014=,
20180127_230000.003,0,RJOP,,,,0,20180127230000,-1,-1,-1,-1,260,-1,6,-1,-1,-1,-1,,9999,0,0,3,FEW 30   BKN 80   BKN 120,1,2,-1,3,1020,RJOP 272300Z 26006KT 9999 FEW030 BKN080 BKN120 02/M03 Q1020     RMK 1CU030 5AC080 7AC120 A3013=,
20180128_000000.004,0,RJOP,,,,0,20180128000000,-1,-1,-1,-1,999,-1,1,-1,-1,-1,-1,,9999,0,0,2,FEW 30   BKN 90,1,2,-1,3,1019,RJOP 280000Z VRB01KT 9999 FEW030 BKN090 02/M03 Q1019 RMK     1CU030 7AC090 A3011=,
20180128_010000.003,0,RJOP,,,,0,20180128010000,-1,-1,-1,-1,999,-1,1,-1,-1,-1,-1,,9999,0,0,2,FEW 30   BKN 90,1,3,-1,3,1019,RJOP 280100Z VRB01KT 9999 FEW030 BKN090 03/M03 Q1019 RMK     1CU030 7AC090 A3010=,
20180128_020000.003,0,RJOP,,,,0,20180128020000,-1,-1,-1,-1,999,-1,1,-1,-1,-1,-1,,9999,0,0,3,FEW 30   SCT 50   BKN 70,1,3,-1,2,1018,RJOP 280200Z VRB01KT 9999 FEW030 SCT050 BKN070 03/M02 Q1018     RMK 1CU030 3SC050 7AC070 A3008=,
20180128_030000.003,0,RJOP,,,,0,20180128030000,-1,-1,-1,-1,330,-1,3,-1,-1,-1,-1,,9999,0,0,3,FEW 30   SCT 50   BKN 70,1,3,-1,2,1017,RJOP 280300Z 33003KT 9999 FEW030 SCT050 BKN070 03/M02 Q1017     RMK 1CU030 4SC050 7AC070 A3003=,
20180128_040000.003,0,RJOP,,,,0,20180128040000,-1,-1,-1,-1,330,-1,3,-1,-1,-1,-1,,9999,0,1,3,FEW 15   SCT 30   BKN 50,1,4,-1,2,1016,RJOP 280400Z 33003KT 9999 -SHRA FEW015 SCT030 BKN050 04/M02     Q1016 RMK 1CU015 4CU030 7SC050 A3002=,- RA SH
20180128_050000.003,0,RJOP,,,,0,20180128050000,-1,-1,-1,-1,310,-1,7,-1,-1,-1,-1,,9999,0,1,2,FEW 15   BKN 30,1,4,-1,2,1016,RJOP 280500Z 31007KT 9999 -SHRA FEW015 BKN030 04/M02 Q1016 RMK     1CU015 7CU030 A3001=,- RA SH
20180128_060000.003,0,RJOP,,,,0,20180128060000,-1,-1,-1,-1,20,-1,3,-1,-1,-1,-1,,9999,0,1,2,FEW 15   BKN 30,1,4,-1,1,1015,RJOP 280600Z 02003KT 9999 -SHRA FEW015 BKN030 04/M01 Q1015 RMK     1CU015 7CU030 A3000=,- RA SH
20180128_070000.004,0,RJOP,,,,0,20180128070000,-1,-1,-1,-1,10,-1,3,-1,-1,-1,-1,,9999,0,1,2,FEW 15   BKN 30,1,4,-1,1,1015,RJOP 280700Z 01003KT 9999 -SHRA FEW015 BKN030 04/M01 Q1015 RMK     1CU015 7CU030 A2999=,- RA SH
20180128_080000.003,0,RJOP,,,,0,20180128080000,-1,-1,-1,-1,999,-1,2,-1,-1,-1,-1,,9999,0,0,3,FEW 15   SCT 30   BKN 50,1,4,-1,0,1016,RJOP 280800Z VRB02KT 9999 FEW015 SCT030 BKN050 04/M00 Q1016     RMK 1CU015 4CU030 7SC050 A3000=,
20180128_090000.003,0,RJOP,,,,0,20180128090000,-1,-1,-1,-1,0,-1,0,-1,-1,-1,-1,,9999,0,0,3,FEW 25   SCT 50   BKN 100,1,4,1,0,1015,RJOP 280900Z 00000KT 9999 FEW025 SCT050 BKN100 04/00 Q1015 RMK     1CU025 4SC050 7AC100 A2999=,
20180128_100000.003,0,RJOP,,,,0,20180128100000,-1,-1,-1,-1,250,-1,4,-1,-1,-1,-1,,9999,0,0,2,FEW 30   SCT 100,1,4,1,1,1015,RJOP 281000Z 25004KT 9999 FEW030 SCT100 04/01 Q1015 RMK 1CU030     4AC100 A2999=,
20180128_110000.003,0,RJOP,,,,0,20180128110000,-1,-1,-1,-1,230,-1,5,-1,-1,-1,-1,,9999,0,0,2,FEW 30   SCT 100,1,3,1,1,1015,RJOP 281100Z 23005KT 9999 FEW030 SCT100 03/01 Q1015 RMK 1CU030     3AC100 A2998=,
20180128_120000.003,0,RJOP,,,,0,20180128120000,-1,-1,-1,-1,270,-1,7,-1,-1,-1,-1,,9999,0,0,3,FEW 30   BKN 50   BKN 100,1,3,1,1,1015,RJOP 281200Z 27007KT 9999 FEW030 BKN050 BKN100 03/01 Q1015 RMK     1CU030 5SC050 7AC100 A2999=,
20180128_130000.003,0,RJOP,,,,0,20180128130000,-1,-1,-1,-1,270,-1,6,-1,-1,-1,-1,,9999,0,0,2,FEW 30   BKN 50,1,3,1,0,1014,RJOP 281300Z 27006KT 9999 FEW030 BKN050 03/00 Q1014 RMK 1CU030     7SC050 A2996=,
20180128_140000.003,0,RJOP,,,,0,20180128140000,-1,-1,-1,-1,320,-1,7,-1,-1,-1,-1,,9999,0,0,2,FEW 30   BKN 50,1,4,1,1,1014,RJOP 281400Z 32007KT 9999 FEW030 BKN050 04/01 Q1014 RMK 1CU030     7SC050 A2996=,
20180128_150000.003,0,RJOP,,,,0,20180128150000,-1,-1,-1,-1,340,-1,8,-1,-1,-1,-1,,9999,0,0,2,FEW 30   BKN 50,1,5,1,2,1014,RJOP 281500Z 34008KT 9999 FEW030 BKN050 05/02 Q1014 RMK 1CU030     7SC050 A2996=,
20180128_160000.003,0,RJOP,,,,0,20180128160000,-1,-1,-1,-1,240,-1,3,-1,-1,210,290,,9999,0,0,2,FEW 30   BKN 45,1,5,1,2,1013,RJOP 281600Z 24003KT 210V290 9999 FEW030 BKN045 05/02 Q1013     RMK 2CU030 7SC045 A2994=,
20180128_170000.003,0,RJOP,,,,0,20180128170000,-1,-1,-1,-1,290,-1,3,-1,-1,-1,-1,,9999,0,0,2,FEW 30   BKN 45,1,5,1,2,1013,RJOP 281700Z 29003KT 9999 FEW030 BKN045 05/02 Q1013 RMK 2CU030     7SC045 A2994=,
20180128_180000.003,0,RJOP,,,,0,20180128180000,-1,-1,-1,-1,330,-1,15,-1,-1,-1,-1,,9999,0,0,2,FEW 30   BKN 45,1,5,-1,1,1013,RJOP 281800Z 33015KT 9999 FEW030 BKN045 05/M01 Q1013 RMK     2CU030 7SC045 A2993=,
20180128_190000.003,0,RJOP,,,,0,20180128190000,-1,-1,-1,-1,330,-1,15,-1,-1,-1,-1,,9999,0,0,2,FEW 30   BKN 45,1,5,-1,2,1013,RJOP 281900Z 33015KT 9999 FEW030 BKN045 05/M02 Q1013 RMK     2CU030 7SC045 A2991=,
20180128_200000.003,0,RJOP,,,,0,20180128200000,-1,-1,-1,-1,320,-1,17,-1,-1,-1,-1,,9999,0,0,3,FEW 30   SCT 45   BKN 150,1,5,-1,2,1013,RJOP 282000Z 32017KT 9999 FEW030 SCT045 BKN150 05/M02 Q1013     RMK 1CU030 4SC045 7AC150 A2991=,
20180128_210000.003,0,RJOP,,,,0,20180128210000,-1,-1,-1,-1,320,-1,17,-1,-1,-1,-1,,9999,0,0,3,FEW 30   BKN 50   BKN 150,1,5,-1,3,1012,RJOP 282100Z 32017KT 9999 FEW030 BKN050 BKN150 05/M03 Q1012     RMK 1CU030 5SC050 7AC150 A2991=,
20180128_220000.004,0,RJOP,,,,0,20180128220000,-1,-1,-1,-1,310,-1,11,-1,-1,-1,-1,,9999,0,0,3,FEW 30   BKN 50   BKN 150,1,5,-1,3,1013,RJOP 282200Z 31011KT 9999 FEW030 BKN050 BKN150 05/M03 Q1013     RMK 1CU030 5SC050 7AC150 A2993=,
20180128_230000.003,0,RJOP,,,,0,20180128230000,-1,-1,-1,-1,300,-1,10,-1,-1,-1,-1,,9999,0,0,2,FEW 30   BKN 50,1,5,-1,3,1013,RJOP 282300Z 30010KT 9999 FEW030 BKN050 05/M03 Q1013 RMK     1CU030 7SC050 A2994=,
20180129_000000.004,0,RJOP,,,,0,20180129000000,-1,-1,-1,-1,300,-1,9,-1,-1,270,360,,9999,0,0,2,FEW 30   BKN 50,1,6,-1,2,1014,RJOP 290000Z 30009KT 270V360 9999 FEW030 BKN050 06/M02 Q1014     RMK 1CU030 7SC050 A2996=,
20180129_010000.003,0,RJOP,,,,0,20180129010000,-1,-1,-1,-1,320,-1,12,-1,-1,-1,-1,,9999,0,0,2,FEW 30   BKN 45,1,5,-1,2,1014,RJOP 290100Z 32012KT 9999 FEW030 BKN045 05/M02 Q1014 RMK     1CU030 7SC045 A2997=,
20180129_020000.003,0,RJOP,,,,0,20180129020000,-1,-1,-1,-1,330,-1,11,-1,-1,-1,-1,,9999,0,0,2,SCT 30   BKN 40,1,5,-1,2,1014,RJOP 290200Z 33011KT 9999 SCT030 BKN040 05/M02 Q1014 RMK     3CU030 7CU040 A2996=,
20180129_030000.003,0,RJOP,,,,0,20180129030000,-1,-1,-1,-1,340,-1,11,-1,-1,-1,-1,,9999,0,0,2,SCT 30   BKN 40,1,5,-1,2,1013,RJOP 290300Z 34011KT 9999 SCT030 BKN040 05/M02 Q1013 RMK     3CU030 7CU040 A2994=,
20180129_040000.003,0,RJOP,,,,0,20180129040000,-1,-1,-1,-1,310,-1,15,-1,-1,280,350,,9999,0,0,2,FEW 30   BKN 40,1,6,-1,2,1012,RJOP 290400Z 31015KT 280V350 9999 FEW030 BKN040 06/M02 Q1012     RMK 2CU030 6CU040 A2990=,
20180129_050000.003,0,RJOP,,,,0,20180129050000,-1,-1,-1,-1,310,-1,16,-1,-1,-1,-1,,9999,0,0,2,FEW 30   BKN 40,1,6,-1,2,1012,RJOP 290500Z 31016KT 9999 FEW030 BKN040 06/M02 Q1012 RMK     2CU030 6CU040 A2989=,
20180129_060000.003,0,RJOP,,,,0,20180129060000,-1,-1,-1,-1,310,-1,15,-1,-1,-1,-1,,9999,0,0,2,FEW 30   BKN 40,1,5,-1,2,1012,RJOP 290600Z 31015KT 9999 FEW030 BKN040 05/M02 Q1012 RMK     2CU030 6CU040 A2990=,
20180129_070000.003,0,RJOP,,,,0,20180129070000,-1,-1,-1,-1,300,-1,18,-1,28,-1,-1,,9999,0,0,2,FEW 30   BKN 40,1,5,-1,3,1012,RJOP 290700Z 30018G28KT 9999 FEW030 BKN040 05/M03 Q1012 RMK     1CU030 5CU040 A2990=,
20180129_080000.003,0,RJOP,,,,0,20180129080000,-1,-1,-1,-1,290,-1,18,-1,28,-1,-1,,9999,0,1,3,FEW 8   SCT 20   BKN 40,1,4,-1,2,1013,RJOP 290800Z 29018G28KT 9999 -SHRASN FEW008 SCT020 BKN040     04/M02 Q1013 RMK 1ST008 3CU020 6CU040 A2993=,- RA SN SH
20180129_090000.003,0,RJOP,,,,0,20180129090000,-1,-1,-1,-1,280,-1,13,-1,-1,-1,-1,,9999,0,1,2,FEW 20   BKN 40,1,4,-1,2,1014,RJOP 290900Z 28013KT 9999 -SHRA FEW020 BKN040 04/M02 Q1014 RMK     2CU020 5CU040 A2997=,- RA SH
20180129_100000.003,0,RJOP,,,,0,20180129100000,-1,-1,-1,-1,290,-1,12,-1,-1,-1,-1,,9999,0,0,2,FEW 30   BKN 40,1,3,-1,3,1015,RJOP 291000Z 29012KT 9999 FEW030 BKN040 03/M03 Q1015 RMK     1CU030 5CU040 A3000 P/RR=,
20180129_110000.003,0,RJOP,,,,0,20180129110000,-1,-1,-1,-1,320,-1,21,-1,32,-1,-1,,9999,0,0,2,FEW 20   SCT 40,1,3,-1,6,1016,RJOP 291100Z 32021G32KT 9999 FEW020 SCT040 03/M06 Q1016 RMK     1CU020 4CU040 A3001=,
20180129_120000.003,0,RJOP,,,,0,20180129120000,-1,-1,-1,-1,320,-1,20,-1,30,-1,-1,,9999,0,0,2,FEW 20   SCT 40,1,2,-1,7,1016,RJOP 291200Z 32020G30KT 9999 FEW020 SCT040 02/M07 Q1016 RMK     1CU020 3CU040 A3002=,
20180129_130000.003,0,RJOP,,,,0,20180129130000,-1,-1,-1,-1,320,-1,21,-1,31,-1,-1,,9999,0,0,1,FEW 20,1,2,-1,7,1016,RJOP 291300Z 32021G31KT 9999 FEW020 02/M07 Q1016 RMK 1CU020     A3002=,
20180129_140000.003,0,RJOP,,,,0,20180129140000,-1,-1,-1,-1,310,-1,20,-1,30,-1,-1,,9999,0,0,1,FEW 30,1,1,-1,7,1017,RJOP 291400Z 31020G30KT 9999 FEW030 01/M07 Q1017 RMK 1CU030     A3004=,
20180129_150000.003,0,RJOP,,,,0,20180129150000,-1,-1,-1,-1,310,-1,19,-1,29,-1,-1,,9999,0,0,1,FEW 30,1,1,-1,7,1017,RJOP 291500Z 31019G29KT 9999 FEW030 01/M07 Q1017 RMK 1CU030     A3003=,
20180129_160000.003,0,RJOP,,,,0,20180129160000,-1,-1,-1,-1,330,-1,17,-1,-1,-1,-1,,9999,0,0,1,FEW 30,1,1,-1,7,1017,RJOP 291600Z 33017KT 9999 FEW030 01/M07 Q1017 RMK 1CU030     A3003=,
20180129_170000.003,0,RJOP,,,,0,20180129170000,-1,-1,-1,-1,320,-1,19,-1,-1,-1,-1,,9999,0,0,1,FEW 30,1,1,-1,7,1017,RJOP 291700Z 32019KT 9999 FEW030 01/M07 Q1017 RMK 1CU030     A3006=,
20180129_180000.003,0,RJOP,,,,0,20180129180000,-1,-1,-1,-1,300,-1,18,-1,28,-1,-1,,9999,0,0,1,FEW 30,1,1,-1,7,1018,RJOP 291800Z 30018G28KT 9999 FEW030 01/M07 Q1018 RMK 1CU030     A3008=,
20180129_190000.003,0,RJOP,,,,0,20180129190000,-1,-1,-1,-1,310,-1,14,-1,-1,-1,-1,,9999,0,0,1,FEW 30,1,1,-1,7,1018,RJOP 291900Z 31014KT 9999 FEW030 01/M07 Q1018 RMK 1CU030     A3009=,
20180129_200000.003,0,RJOP,,,,0,20180129200000,-1,-1,-1,-1,300,-1,16,-1,-1,-1,-1,,9999,0,0,1,FEW 30,1,1,-1,6,1019,RJOP 292000Z 30016KT 9999 FEW030 01/M06 Q1019 RMK 1CU030     A3010=,
20180129_210000.003,0,RJOP,,,,0,20180129210000,-1,-1,-1,-1,310,-1,15,-1,-1,-1,-1,,9999,0,0,1,FEW 30,1,1,-1,6,1019,RJOP 292100Z 31015KT 9999 FEW030 01/M06 Q1019 RMK 1CU030 A3010     S000 SD/// FS///=,
20180129_220000.003,0,RJOP,,,,0,20180129220000,-1,-1,-1,-1,300,-1,14,-1,-1,-1,-1,,9999,0,0,1,FEW 30,1,1,-1,6,1019,RJOP 292200Z 30014KT 9999 FEW030 01/M06 Q1019 RMK 1CU030     A3011=,
20180129_230000.003,0,RJOP,,,,0,20180129230000,-1,-1,-1,-1,290,-1,12,-1,-1,-1,-1,,9999,0,0,1,FEW 30,1,1,-1,6,1020,RJOP 292300Z 29012KT 9999 FEW030 01/M06 Q1020 RMK 1CU030     A3014=,
20180130_000000.003,0,RJOP,,,,0,20180130000000,-1,-1,-1,-1,290,-1,13,-1,-1,-1,-1,,9999,0,0,1,FEW 30,1,2,-1,6,1021,RJOP 300000Z 29013KT 9999 FEW030 02/M06 Q1021 RMK 1CU030     A3015=,
20180130_010000.003,0,RJOP,,,,0,20180130010000,-1,-1,-1,-1,290,-1,17,-1,-1,-1,-1,,9999,0,0,1,FEW 30,1,3,-1,6,1021,RJOP 300100Z 29017KT 9999 FEW030 03/M06 Q1021 RMK 1CU030     A3016=,
20180130_020000.003,0,RJOP,,,,0,20180130020000,-1,-1,-1,-1,280,-1,15,-1,-1,-1,-1,,9999,0,0,2,FEW 30   SCT 45,1,4,-1,6,1020,RJOP 300200Z 28015KT 9999 FEW030 SCT045 04/M06 Q1020 RMK     1CU030 3SC045 A3015 PEAK GUST 23KT=,
20180130_030000.003,0,RJOP,,,,0,20180130030000,-1,-1,-1,-1,300,-1,14,-1,-1,-1,-1,,9999,0,0,2,FEW 30   SCT 45,1,5,-1,7,1020,RJOP 300300Z 30014KT 9999 FEW030 SCT045 05/M07 Q1020 RMK     1CU030 4SC045 A3013=,
20180130_040000.003,0,RJOP,,,,0,20180130040000,-1,-1,-1,-1,290,-1,12,-1,-1,-1,-1,,9999,0,0,2,FEW 30   SCT 45,1,5,-1,6,1019,RJOP 300400Z 29012KT 9999 FEW030 SCT045 05/M06 Q1019 RMK     1CU030 3SC045 A3011=,
20180130_050000.003,0,RJOP,,,,0,20180130050000,-1,-1,-1,-1,300,-1,14,-1,-1,270,330,,9999,0,0,2,FEW 30   BKN 45,1,6,-1,6,1019,RJOP 300500Z 30014KT 270V330 9999 FEW030 BKN045 06/M06 Q1019     RMK 1CU030 5SC045 A3010=,
20180130_060000.004,0,RJOP,,,,0,20180130060000,-1,-1,-1,-1,290,-1,14,-1,-1,270,340,,9999,0,0,2,FEW 30   SCT 45,1,6,-1,6,1019,RJOP 300600Z 29014KT 270V340 9999 FEW030 SCT045 06/M06 Q1019     RMK 1CU030 4SC045 A3011=,
20180130_070000.003,0,RJOP,,,,0,20180130070000,-1,-1,-1,-1,330,-1,19,-1,30,-1,-1,,9999,0,0,2,FEW 30   SCT 45,1,5,-1,7,1020,RJOP 300700Z 33019G30KT 9999 FEW030 SCT045 05/M07 Q1020 RMK     1CU030 3SC045 A3013=,
20180130_080000.003,0,RJOP,,,,0,20180130080000,-1,-1,-1,-1,320,-1,19,-1,29,-1,-1,,9999,0,0,1,FEW 30,1,5,-1,7,1020,RJOP 300800Z 32019G29KT 9999 FEW030 05/M07 Q1020 RMK 1CU030     A3014=,
20180130_090000.003,0,RJOP,,,,0,20180130090000,-1,-1,-1,-1,300,-1,13,-1,-1,-1,-1,,9999,0,0,1,FEW 30,1,4,-1,6,1022,RJOP 300900Z 30013KT 9999 FEW030 04/M06 Q1022 RMK 1CU030     A3019=,
20180130_100000.003,0,RJOP,,,,0,20180130100000,-1,-1,-1,-1,310,-1,13,-1,-1,-1,-1,,9999,0,0,2,FEW 30   SCT 45,1,4,-1,6,1023,RJOP 301000Z 31013KT 9999 FEW030 SCT045 04/M06 Q1023 RMK     1CU030 3SC045 A3022=,
20180130_110000.003,0,RJOP,,,,0,20180130110000,-1,-1,-1,-1,310,-1,9,-1,-1,-1,-1,,9999,0,0,1,FEW 30,1,4,-1,6,1024,RJOP 301100Z 31009KT 9999 FEW030 04/M06 Q1024 RMK 1CU030     A3024=,
20180130_120000.003,0,RJOP,,,,0,20180130120000,-1,-1,-1,-1,270,-1,7,-1,-1,250,320,,9999,0,0,2,FEW 30   SCT 45,1,3,-1,5,1024,RJOP 301200Z 27007KT 250V320 9999 FEW030 SCT045 03/M05 Q1024     RMK 1CU030 3SC045 A3024=,
20180130_130000.003,0,RJOP,,,,0,20180130130000,-1,-1,-1,-1,300,-1,12,-1,-1,-1,-1,,9999,0,0,2,FEW 30   BKN 200,1,3,-1,4,1024,RJOP 301300Z 30012KT 9999 FEW030 BKN200 03/M04 Q1024 RMK     1CU030 A3025=,
20180130_140000.003,0,RJOP,,,,0,20180130140000,-1,-1,-1,-1,280,-1,11,-1,-1,-1,-1,,9999,0,0,2,FEW 30   BKN 180,1,3,-1,3,1025,RJOP 301400Z 28011KT 9999 FEW030 BKN180 03/M03 Q1025 RMK     1CU030 7AC180 A3028=,
20180130_150000.003,0,RJOP,,,,0,20180130150000,-1,-1,-1,-1,290,-1,11,-1,-1,-1,-1,,9999,0,0,2,FEW 30   BKN 180,1,3,-1,3,1025,RJOP 301500Z 29011KT 9999 FEW030 BKN180 03/M03 Q1025 RMK     1CU030 7AC180 A3027=,
20180130_160000.003,0,RJOP,,,,0,20180130160000,-1,-1,-1,-1,310,-1,15,-1,-1,-1,-1,,9999,0,0,2,FEW 30   SCT 160,1,2,-1,3,1024,RJOP 301600Z 31015KT 9999 FEW030 SCT160 02/M03 Q1024 RMK     1CU030 3AC160 A3026=,
20180130_170000.003,0,RJOP,,,,0,20180130170000,-1,-1,-1,-1,300,-1,10,-1,-1,-1,-1,,9999,0,0,1,FEW 30,1,2,-1,4,1024,RJOP 301700Z 30010KT 9999 FEW030 02/M04 Q1024 RMK 1CU030     A3026=,
20180130_180000.003,0,RJOP,,,,0,20180130180000,-1,-1,-1,-1,300,-1,12,-1,-1,-1,-1,,9999,0,0,1,FEW 30,1,2,-1,4,1025,RJOP 301800Z 30012KT 9999 FEW030 02/M04 Q1025 RMK 1CU030     A3027=,
20180130_190000.003,0,RJOP,,,,0,20180130190000,-1,-1,-1,-1,310,-1,13,-1,-1,-1,-1,,9999,0,0,1,FEW 30,1,2,-1,4,1025,RJOP 301900Z 31013KT 9999 FEW030 02/M04 Q1025 RMK 1CU030     A3028=,
20180130_200000.003,0,RJOP,,,,0,20180130200000,-1,-1,-1,-1,300,-1,12,-1,-1,-1,-1,,9999,0,0,1,FEW 30,1,2,-1,4,1025,RJOP 302000Z 30012KT 9999 FEW030 02/M04 Q1025 RMK 1CU030     A3027=,
20180130_210000.003,0,RJOP,,,,0,20180130210000,-1,-1,-1,-1,300,-1,11,-1,-1,-1,-1,,9999,0,0,1,FEW 30,1,2,-1,5,1026,RJOP 302100Z 30011KT 9999 FEW030 02/M05 Q1026 RMK 1CU030     A3030=,
20180130_220000.003,0,RJOP,,,,0,20180130220000,-1,-1,-1,-1,280,-1,8,-1,-1,-1,-1,,9999,0,0,1,FEW 30,1,2,-1,5,1026,RJOP 302200Z 28008KT 9999 FEW030 02/M05 Q1026 RMK 1CU030     A3031=,
20180130_230000.003,0,RJOP,,,,0,20180130230000,-1,-1,-1,-1,280,-1,6,-1,-1,-1,-1,,9999,0,0,2,FEW 30   BKN 230,1,2,-1,5,1027,RJOP 302300Z 28006KT 9999 FEW030 BKN230 02/M05 Q1027 RMK     1CU030 A3033=,
20180131_000000.003,0,RJOP,,,,0,20180131000000,-1,-1,-1,-1,310,-1,9,-1,-1,-1,-1,,9999,0,0,2,FEW 30   SCT 230,1,4,-1,5,1027,RJOP 310000Z 31009KT 9999 FEW030 SCT230 04/M05 Q1027 RMK     1CU030 A3035=,
20180131_010000.003,0,RJOP,,,,0,20180131010000,-1,-1,-1,-1,300,-1,9,-1,-1,-1,-1,,9999,0,0,2,FEW 30   SCT 230,1,5,-1,5,1027,RJOP 310100Z 30009KT 9999 FEW030 SCT230 05/M05 Q1027 RMK     1CU030 A3033=,
20180131_020000.003,0,RJOP,,,,0,20180131020000,-1,-1,-1,-1,330,-1,8,-1,-1,-1,-1,,9999,0,0,1,FEW 30,1,6,-1,6,1026,RJOP 310200Z 33008KT 9999 FEW030 06/M06 Q1026 RMK 1CU030     A3032=,
20180131_030000.003,0,RJOP,,,,0,20180131030000,-1,-1,-1,-1,350,-1,8,-1,-1,-1,-1,,9999,0,0,2,FEW 30   BKN 230,1,7,-1,5,1026,RJOP 310300Z 35008KT 9999 FEW030 BKN230 07/M05 Q1026 RMK     1CU030 A3030=,
20180131_040000.003,0,RJOP,,,,0,20180131040000,-1,-1,-1,-1,360,-1,7,-1,-1,-1,-1,,9999,0,0,2,FEW 30   BKN 230,1,7,-1,5,1025,RJOP 310400Z 36007KT 9999 FEW030 BKN230 07/M05 Q1025 RMK     1CU030 A3027=,
20180131_050000.003,0,RJOP,,,,0,20180131050000,-1,-1,-1,-1,10,-1,15,-1,-1,-1,-1,,9999,0,0,2,FEW 30   BKN 230,1,7,-1,2,1023,RJOP 310500Z 01015KT 9999 FEW030 BKN230 07/M02 Q1023 RMK     1CU030 A3024=,
20180131_060000.003,0,RJOP,,,,0,20180131060000,-1,-1,-1,-1,30,-1,12,-1,-1,-1,-1,,9999,0,0,2,FEW 30   BKN 230,1,7,-1,1,1023,RJOP 310600Z 03012KT 9999 FEW030 BKN230 07/M01 Q1023 RMK     1CU030 A3023=,
20180131_070000.004,0,RJOP,,,,0,20180131070000,-1,-1,-1,-1,40,-1,12,-1,-1,-1,-1,,9999,0,0,2,FEW 30   BKN 230,1,7,-1,1,1024,RJOP 310700Z 04012KT 9999 FEW030 BKN230 07/M01 Q1024 RMK     1CU030 A3024=,
20180131_080000.004,0,RJOP,,,,0,20180131080000,-1,-1,-1,-1,20,-1,12,-1,-1,-1,-1,,9999,0,0,2,FEW 30   BKN 230,1,7,-1,3,1024,RJOP 310800Z 02012KT 9999 FEW030 BKN230 07/M03 Q1024 RMK     1CU030 A3024=,
20180131_090000.003,0,RJOP,,,,0,20180131090000,-1,-1,-1,-1,20,-1,12,-1,-1,-1,-1,,9999,0,0,2,FEW 30   SCT 230,1,6,-1,2,1024,RJOP 310900Z 02012KT 9999 FEW030 SCT230 06/M02 Q1024 RMK     1CU030 A3025=,
20180131_100000.003,0,RJOP,,,,0,20180131100000,-1,-1,-1,-1,360,-1,7,-1,-1,-1,-1,,9999,0,0,1,FEW 30,1,6,-1,2,1025,RJOP 311000Z 36007KT 9999 FEW030 06/M02 Q1025 RMK 1CU030     A3029=,
20180131_110000.003,0,RJOP,,,,0,20180131110000,-1,-1,-1,-1,270,-1,4,-1,-1,-1,-1,,9999,0,0,1,FEW 30,1,4,-1,2,1025,RJOP 311100Z 27004KT 9999 FEW030 04/M02 Q1025 RMK 1CU030     A3027=,
20180131_120000.003,0,RJOP,,,,0,20180131120000,-1,-1,-1,-1,270,-1,8,-1,-1,-1,-1,,9999,0,0,1,FEW 30,1,3,-1,2,1024,RJOP 311200Z 27008KT 9999 FEW030 03/M02 Q1024 RMK 1CU030     A3026=,
20180131_130000.004,0,RJOP,,,,0,20180131130000,-1,-1,-1,-1,270,-1,12,-1,-1,-1,-1,,9999,0,0,1,FEW 30,1,3,-1,3,1025,RJOP 311300Z 27012KT 9999 FEW030 03/M03 Q1025 RMK 1CU030 A3028     P/RR=,
20180131_140000.003,0,RJOP,,,,0,20180131140000,-1,-1,-1,-1,270,-1,10,-1,-1,-1,-1,,9999,0,0,2,FEW 30   SCT 120,1,3,-1,3,1024,RJOP 311400Z 27010KT 9999 FEW030 SCT120 03/M03 Q1024 RMK     1CU030 3AC120 A3025=,
20180131_150000.003,0,RJOP,,,,0,20180131150000,-1,-1,-1,-1,280,-1,8,-1,-1,-1,-1,,9999,0,0,2,FEW 30   SCT 120,1,3,-1,3,1024,RJOP 311500Z 28008KT 9999 FEW030 SCT120 03/M03 Q1024 RMK     1CU030 3AC120 A3024=,
20180131_160000.003,0,RJOP,,,,0,20180131160000,-1,-1,-1,-1,270,-1,9,-1,-1,-1,-1,,9999,0,0,2,FEW 30   BKN 100,1,3,-1,4,1024,RJOP 311600Z 27009KT 9999 FEW030 BKN100 03/M04 Q1024 RMK     1CU030 5AC100 A3025=,
20180131_170000.003,0,RJOP,,,,0,20180131170000,-1,-1,-1,-1,270,-1,8,-1,-1,-1,-1,,9999,0,0,2,FEW 30   BKN 80,1,4,-1,4,1024,RJOP 311700Z 27008KT 9999 FEW030 BKN080 04/M04 Q1024 RMK     1CU030 7AC080 A3026=,
20180131_180000.003,0,RJOP,,,,0,20180131180000,-1,-1,-1,-1,320,-1,11,-1,-1,-1,-1,,9999,0,0,3,FEW 30   SCT 60   BKN 80,1,5,-1,4,1024,RJOP 311800Z 32011KT 9999 FEW030 SCT060 BKN080 05/M04 Q1024     RMK 1CU030 3SC060 7AC080 A3024=,
20180131_190000.004,0,RJOP,,,,0,20180131190000,-1,-1,-1,-1,290,-1,9,-1,-1,270,330,,9999,0,1,3,FEW 30   BKN 50   BKN 80,1,5,-1,4,1024,RJOP 311900Z 29009KT 270V330 9999 -RA FEW030 BKN050 BKN080     05/M04 Q1024 RMK 1CU030 5SC050 7AC080 A3024=,- RA
20180131_200000.004,0,RJOP,,,,0,20180131200000,-1,-1,-1,-1,270,-1,14,-1,-1,-1,-1,,9999,0,1,3,FEW 30   BKN 45   BKN 80,1,3,-1,1,1024,RJOP 312000Z 27014KT 9999 -RA FEW030 BKN045 BKN080 03/M01     Q1024 RMK 2CU030 5SC045 7AC080 A3025=,- RA
20180131_210000.003,0,RJOP,,,,0,20180131210000,-1,-1,-1,-1,300,-1,9,-1,-1,-1,-1,,9999,0,1,3,FEW 15   BKN 25   BKN 45,1,2,1,0,1025,RJOP 312100Z 30009KT 9999 -RA FEW015 BKN025 BKN045 02/00 Q1025     RMK 1CU015 5CU025 7SC045 A3027 S/// SD/// FS000=,- RA
20180131_220000.003,0,RJOP,,,,0,20180131220000,-1,-1,-1,-1,290,-1,10,-1,-1,-1,-1,,8000,0,1,3,FEW 15   BKN 25   BKN 45,1,2,1,1,1025,RJOP 312200Z 29010KT 8000 -RA FEW015 BKN025 BKN045 02/01 Q1025     RMK 2CU015 5CU025 7SC045 A3028=,- RA
20180131_230000.003,0,RJOP,,,,0,20180131230000,-1,-1,-1,-1,290,-1,8,-1,-1,-1,-1,,6000,0,1,3,FEW 8   SCT 15   BKN 25,1,2,1,1,1026,RJOP 312300Z 29008KT 6000 -RA FEW008 SCT015 BKN025 02/01 Q1026     RMK 2ST008 3CU015 5CU025 A3031=,- RA
20180201_000000.004,0,RJOP,,,,0,20180201000000,-1,-1,-1,-1,300,-1,7,-1,-1,-1,-1,,6000,0,1,3,FEW 8   BKN 15   BKN 25,1,2,1,1,1026,RJOP 010000Z 30007KT 6000 -RASN FEW008 BKN015 BKN025 02/01     Q1026 RMK 2ST008 5CU015 6CU025 A3031=,- RA SN
20180201_010000.003,0,RJOP,,,,0,20180201010000,-1,-1,-1,-1,290,-1,8,-1,-1,-1,-1,,8000,0,1,3,SCT 8   BKN 15   BKN 40,1,2,1,1,1026,RJOP 010100Z 29008KT 8000 -RA SCT008 BKN015 BKN040 02/01 Q1026     RMK 3ST008 5CU015 7SC040 A3030=,- RA
20180201_020000.003,0,RJOP,,,,0,20180201020000,-1,-1,-1,-1,290,-1,8,-1,-1,-1,-1,,8000,0,1,3,SCT 8   BKN 15   BKN 40,1,2,1,1,1025,RJOP 010200Z 29008KT 8000 -RASN SCT008 BKN015 BKN040 02/01     Q1025 RMK 3ST008 5CU015 7SC040 A3029=,- RA SN
20180201_030000.004,0,RJOP,,,,0,20180201030000,-1,-1,-1,-1,320,-1,7,-1,-1,-1,-1,,8000,0,1,3,FEW 5   SCT 8   BKN 12,1,2,1,1,1024,RJOP 010300Z 32007KT 8000 -RASN FEW005 SCT008 BKN012 02/01     Q1024 RMK 1ST005 4ST008 6CU012 A3024=,- RA SN
20180201_040000.004,0,RJOP,,,,0,20180201040000,-1,-1,-1,-1,310,-1,9,-1,-1,-1,-1,,8000,0,1,3,FEW 5   SCT 8   BKN 12,1,2,1,1,1023,RJOP 010400Z 31009KT 8000 -RASN FEW005 SCT008 BKN012 02/01     Q1023 RMK 1ST005 4ST008 6CU012 A3021=,- RA SN
20180201_050000.003,0,RJOP,,,,0,20180201050000,-1,-1,-1,-1,320,-1,9,-1,-1,290,350,,8000,0,1,3,FEW 5   SCT 8   BKN 12,1,3,1,1,1022,RJOP 010500Z 32009KT 290V350 8000 -RASN FEW005 SCT008 BKN012     03/01 Q1022 RMK 1ST005 4ST008 6CU012 A3020=,- RA SN
20180201_060000.003,0,RJOP,,,,0,20180201060000,-1,-1,-1,-1,310,-1,11,-1,-1,-1,-1,,8000,0,1,3,FEW 5   SCT 8   BKN 12,1,3,1,2,1022,RJOP 010600Z 31011KT 8000 -RA FEW005 SCT008 BKN012 03/02 Q1022     RMK 1ST005 3ST008 5CU012 A3020=,- RA
20180201_070000.003,0,RJOP,,,,0,20180201070000,-1,-1,-1,-1,320,-1,12,-1,-1,-1,-1,,8000,0,1,3,FEW 5   SCT 8   BKN 12,1,3,1,2,1022,RJOP 010700Z 32012KT 8000 -RA FEW005 SCT008 BKN012 03/02 Q1022     RMK 1ST005 3ST008 5CU012 A3020=,- RA
20180201_080000.003,0,RJOP,,,,0,20180201080000,-1,-1,-1,-1,320,-1,12,-1,-1,-1,-1,,9000,0,1,3,FEW 5   SCT 8   BKN 12,1,3,1,2,1023,RJOP 010800Z 32012KT 9000 -RA FEW005 SCT008 BKN012 03/02 Q1023     RMK 1ST005 3ST008 5CU012 A3021=,- RA
20180201_090000.003,0,RJOP,,,,0,20180201090000,-1,-1,-1,-1,320,-1,12,-1,-1,-1,-1,,9000,0,1,3,FEW 6   SCT 8   BKN 12,1,4,1,2,1023,RJOP 010900Z 32012KT 9000 -RA FEW006 SCT008 BKN012 04/02 Q1023     RMK 1ST006 3ST008 5CU012 A3022=,- RA
20180201_100000.003,0,RJOP,,,,0,20180201100000,-1,-1,-1,-1,300,-1,11,-1,-1,-1,-1,,9999,0,0,3,FEW 10   BKN 20   BKN 50,1,4,1,2,1024,RJOP 011000Z 30011KT 9999 FEW010 BKN020 BKN050 04/02 Q1024 RMK     2CU010 5CU020 7SC050 A3024=,
20180201_110000.003,0,RJOP,,,,0,20180201110000,-1,-1,-1,-1,320,-1,12,-1,-1,-1,-1,,9999,0,0,3,SCT 20   BKN 50   BKN 100,1,4,1,2,1024,RJOP 011100Z 32012KT 9999 SCT020 BKN050 BKN100 04/02 Q1024 RMK     3CU020 5SC050 7AC100 A3024=,
20180201_120000.003,0,RJOP,,,,0,20180201120000,-1,-1,-1,-1,310,-1,13,-1,-1,-1,-1,,9999,0,0,3,FEW 20   SCT 50   BKN 100,1,4,1,1,1024,RJOP 011200Z 31013KT 9999 FEW020 SCT050 BKN100 04/01 Q1024 RMK     2CU020 4SC050 7AC100 A3025=,
20180201_130000.003,0,RJOP,,,,0,20180201130000,-1,-1,-1,-1,290,-1,14,-1,-1,-1,-1,,9999,0,0,3,FEW 20   SCT 50   BKN 100,1,4,1,1,1024,RJOP 011300Z 29014KT 9999 FEW020 SCT050 BKN100 04/01 Q1024 RMK     1CU020 3SC050 7AC100 A3025=,
20180201_140000.003,0,RJOP,,,,0,20180201140000,-1,-1,-1,-1,290,-1,14,-1,-1,-1,-1,,9999,0,0,3,FEW 10   SCT 20   BKN 100,1,3,1,1,1023,RJOP 011400Z 29014KT 9999 FEW010 SCT020 BKN100 03/01 Q1023 RMK     1CU010 3CU020 7AC100 A3023=,
20180201_150000.003,0,RJOP,,,,0,20180201150000,-1,-1,-1,-1,290,-1,13,-1,-1,-1,-1,,9999,0,0,3,FEW 10   SCT 20   BKN 100,1,3,1,1,1023,RJOP 011500Z 29013KT 9999 FEW010 SCT020 BKN100 03/01 Q1023 RMK     1CU010 4CU020 7AC100 A3023=,
20180201_160000.003,0,RJOP,,,,0,20180201160000,-1,-1,-1,-1,300,-1,15,-1,-1,-1,-1,,9999,0,0,3,FEW 10   SCT 20   BKN 100,1,4,1,1,1024,RJOP 011600Z 30015KT 9999 FEW010 SCT020 BKN100 04/01 Q1024 RMK     1CU010 4CU020 7AC100 A3025=,
20180201_170000.003,0,RJOP,,,,0,20180201170000,-1,-1,-1,-1,290,-1,14,-1,-1,-1,-1,,9999,0,0,3,FEW 10   BKN 20   BKN 100,1,3,1,1,1023,RJOP 011700Z 29014KT 9999 FEW010 BKN020 BKN100 03/01 Q1023 RMK     2CU010 5CU020 7AC100 A3023=,
20180201_180000.003,0,RJOP,,,,0,20180201180000,-1,-1,-1,-1,280,-1,12,-1,-1,-1,-1,,9999,0,0,3,FEW 12   BKN 25   BKN 100,1,4,1,1,1023,RJOP 011800Z 28012KT 9999 FEW012 BKN025 BKN100 04/01 Q1023 RMK     2CU012 5CU025 6AC100 A3023=,
20180201_190000.004,0,RJOP,,,,0,20180201190000,-1,-1,-1,-1,290,-1,13,-1,-1,-1,-1,,9999,0,0,2,FEW 15   BKN 30,1,4,1,1,1023,RJOP 011900Z 29013KT 9999 FEW015 BKN030 04/01 Q1023 RMK 2CU015     6CU030 A3021=,
20180201_200000.004,0,RJOP,,,,0,20180201200000,-1,-1,-1,-1,300,-1,14,-1,-1,-1,-1,,9999,0,0,2,FEW 15   SCT 25,1,4,1,0,1022,RJOP 012000Z 30014KT 9999 FEW015 SCT025 04/00 Q1022 RMK 1CU015     4CU025 A3020=,
20180201_210000.003,0,RJOP,,,,0,20180201210000,-1,-1,-1,-1,300,-1,13,-1,-1,-1,-1,,9999,0,0,2,FEW 15   SCT 25,1,4,1,0,1023,RJOP 012100Z 30013KT 9999 FEW015 SCT025 04/00 Q1023 RMK 1CU015     4CU025 A3022 S000 SD/// FS///=,
20180201_220000.003,0,RJOP,,,,0,20180201220000,-1,-1,-1,-1,290,-1,13,-1,-1,-1,-1,,9999,0,0,1,FEW 25,1,4,1,0,1023,RJOP 012200Z 29013KT 9999 FEW025 04/00 Q1023 RMK 2CU025 A3021=,
20180201_230000.004,0,RJOP,,,,0,20180201230000,-1,-1,-1,-1,300,-1,14,-1,-1,-1,-1,,9999,0,0,1,FEW 30,1,5,1,0,1023,RJOP 012300Z 30014KT 9999 FEW030 05/00 Q1023 RMK 1CU030 A3022=,
20180202_000000.003,0,RJOP,,,,0,20180202000000,-1,-1,-1,-1,310,-1,12,-1,-1,-1,-1,,9999,0,0,2,FEW 30   SCT 230,1,5,1,1,1023,RJOP 020000Z 31012KT 9999 FEW030 SCT230 05/01 Q1023 RMK 1CU030     A3023=,
20180202_010000.003,0,RJOP,,,,0,20180202010000,-1,-1,-1,-1,320,-1,10,-1,-1,-1,-1,,9999,0,0,2,FEW 30   BKN 230,1,6,1,1,1024,RJOP 020100Z 32010KT 9999 FEW030 BKN230 06/01 Q1024 RMK 2CU030     A3025=,
20180202_020000.003,0,RJOP,,,,0,20180202020000,-1,-1,-1,-1,320,-1,12,-1,-1,-1,-1,,9999,0,0,2,SCT 30   BKN 230,1,7,1,1,1023,RJOP 020200Z 32012KT 9999 SCT030 BKN230 07/01 Q1023 RMK 3CU030     A3023=,
20180202_030000.003,0,RJOP,,,,0,20180202030000,-1,-1,-1,-1,330,-1,11,-1,-1,-1,-1,,9999,0,0,2,FEW 30   BKN 230,1,7,1,1,1023,RJOP 020300Z 33011KT 9999 FEW030 BKN230 07/01 Q1023 RMK 2CU030     A3021=,
20180202_040000.003,0,RJOP,,,,0,20180202040000,-1,-1,-1,-1,350,-1,10,-1,-1,-1,-1,,9999,0,0,2,FEW 30   BKN 230,1,7,1,1,1022,RJOP 020400Z 35010KT 9999 FEW030 BKN230 07/01 Q1022 RMK 1CU030     A3018=,
20180202_050000.002,0,RJOP,,,,0,20180202050000,-1,-1,-1,-1,360,-1,11,-1,-1,-1,-1,,9999,0,0,2,FEW 30   BKN 230,1,7,1,1,1021,RJOP 020500Z 36011KT 9999 FEW030 BKN230 07/01 Q1021 RMK 1CU030     A3018=,
20180202_060000.003,0,RJOP,,,,0,20180202060000,-1,-1,-1,-1,10,-1,10,-1,-1,-1,-1,,9999,0,0,2,FEW 30   BKN 230,1,7,1,1,1022,RJOP 020600Z 01010KT 9999 FEW030 BKN230 07/01 Q1022 RMK 1CU030     A3018=,
20180202_070000.003,0,RJOP,,,,0,20180202070000,-1,-1,-1,-1,20,-1,11,-1,-1,-1,-1,,9999,0,0,2,FEW 30   BKN 230,1,7,1,1,1021,RJOP 020700Z 02011KT 9999 FEW030 BKN230 07/01 Q1021 RMK 1CU030     A3016=,
20180202_080000.003,0,RJOP,,,,0,20180202080000,-1,-1,-1,-1,360,-1,9,-1,-1,-1,-1,,9999,0,0,2,FEW 30   BKN 230,1,7,-1,0,1021,RJOP 020800Z 36009KT 9999 FEW030 BKN230 07/M00 Q1021 RMK     1CU030 A3016=,
20180202_090000.003,0,RJOP,,,,0,20180202090000,-1,-1,-1,-1,350,-1,8,-1,-1,-1,-1,,9999,0,0,2,FEW 30   BKN 230,1,7,-1,0,1021,RJOP 020900Z 35008KT 9999 FEW030 BKN230 07/M00 Q1021 RMK     1CU030 A3015=,
20180202_100000.004,0,RJOP,,,,0,20180202100000,-1,-1,-1,-1,340,-1,8,-1,-1,-1,-1,,9999,0,0,2,FEW 30   BKN 230,1,7,1,0,1021,RJOP 021000Z 34008KT 9999 FEW030 BKN230 07/00 Q1021 RMK 1CU030     A3016=,
20180202_110000.003,0,RJOP,,,,0,20180202110000,-1,-1,-1,-1,270,-1,7,-1,-1,-1,-1,,9999,0,0,2,FEW 30   BKN 230,1,5,1,1,1021,RJOP 021100Z 27007KT 9999 FEW030 BKN230 05/01 Q1021 RMK 1CU030     A3015=,
20180202_120000.003,0,RJOP,,,,0,20180202120000,-1,-1,-1,-1,280,-1,7,-1,-1,-1,-1,,9999,0,0,2,FEW 30   SCT 230,1,4,1,2,1020,RJOP 021200Z 28007KT 9999 FEW030 SCT230 04/02 Q1020 RMK 1CU030     A3014=,
20180202_130000.004,0,RJOP,,,,0,20180202130000,-1,-1,-1,-1,290,-1,8,-1,-1,-1,-1,,9999,0,0,2,FEW 30   SCT 230,1,4,1,1,1020,RJOP 021300Z 29008KT 9999 FEW030 SCT230 04/01 Q1020 RMK 1CU030     A3014=,
20180202_140000.003,0,RJOP,,,,0,20180202140000,-1,-1,-1,-1,260,-1,9,-1,-1,-1,-1,,9999,0,0,1,FEW 30,1,3,1,1,1020,RJOP 021400Z 26009KT 9999 FEW030 03/01 Q1020 RMK 1CU030 A3013=,
20180202_150000.003,0,RJOP,,,,0,20180202150000,-1,-1,-1,-1,280,-1,10,-1,-1,-1,-1,,9999,0,0,1,FEW 30,1,4,1,1,1020,RJOP 021500Z 28010KT 9999 FEW030 04/01 Q1020 RMK 1CU030 A3013=,
20180202_160000.003,0,RJOP,,,,0,20180202160000,-1,-1,-1,-1,280,-1,8,-1,-1,-1,-1,,9999,0,0,1,FEW 30,1,4,1,1,1020,RJOP 021600Z 28008KT 9999 FEW030 04/01 Q1020 RMK 1CU030 A3012=,
20180202_170000.003,0,RJOP,,,,0,20180202170000,-1,-1,-1,-1,300,-1,6,-1,-1,260,330,,9999,0,0,1,FEW 30,1,4,-1,0,1020,RJOP 021700Z 30006KT 260V330 9999 FEW030 04/M00 Q1020 RMK     1CU030 A3012=,
20180202_180000.004,0,RJOP,,,,0,20180202180000,-1,-1,-1,-1,300,-1,13,-1,-1,-1,-1,,9999,0,0,1,FEW 30,1,5,-1,1,1019,RJOP 021800Z 30013KT 9999 FEW030 05/M01 Q1019 RMK 1CU030     A3010=,
20180202_190000.004,0,RJOP,,,,0,20180202190000,-1,-1,-1,-1,310,-1,15,-1,-1,-1,-1,,9999,0,0,1,FEW 30,1,5,-1,1,1018,RJOP 021900Z 31015KT 9999 FEW030 05/M01 Q1018 RMK 1CU030     A3008=,
20180202_200000.004,0,RJOP,,,,0,20180202200000,-1,-1,-1,-1,330,-1,16,-1,-1,-1,-1,,9999,0,0,1,FEW 30,1,4,-1,1,1018,RJOP 022000Z 33016KT 9999 FEW030 04/M01 Q1018 RMK 2CU030     A3008=,
20180202_210000.003,0,RJOP,,,,0,20180202210000,-1,-1,-1,-1,310,-1,17,-1,-1,-1,-1,,9999,0,0,1,FEW 30,1,4,1,0,1018,RJOP 022100Z 31017KT 9999 FEW030 04/00 Q1018 RMK 1CU030 A3008=,
20180202_220000.003,0,RJOP,,,,0,20180202220000,-1,-1,-1,-1,310,-1,16,-1,-1,-1,-1,,9999,0,0,2,FEW 30   SCT 50,1,5,1,1,1018,RJOP 022200Z 31016KT 9999 FEW030 SCT050 05/01 Q1018 RMK 1CU030     3SC050 A3008=,
20180202_230000.004,0,RJOP,,,,0,20180202230000,-1,-1,-1,-1,300,-1,17,-1,-1,-1,-1,,9999,0,0,2,FEW 30   SCT 50,1,6,1,1,1019,RJOP 022300Z 30017KT 9999 FEW030 SCT050 06/01 Q1019 RMK 1CU030     3SC050 A3009=,
20180203_000000.003,0,RJOP,,,,0,20180203000000,-1,-1,-1,-1,310,-1,17,-1,-1,-1,-1,,9999,0,0,2,FEW 30   SCT 230,1,6,1,1,1019,RJOP 030000Z 31017KT 9999 FEW030 SCT230 06/01 Q1019 RMK 1CU030     A3009=,
20180203_010000.004,0,RJOP,,,,0,20180203010000,-1,-1,-1,-1,310,-1,16,-1,-1,-1,-1,,9999,0,0,2,FEW 30   BKN 230,1,7,1,0,1019,RJOP 030100Z 31016KT 9999 FEW030 BKN230 07/00 Q1019 RMK 1CU030     A3009=,
20180203_020000.003,0,RJOP,,,,0,20180203020000,-1,-1,-1,-1,320,-1,17,-1,-1,-1,-1,,9999,0,0,2,FEW 30   BKN 230,1,7,-1,0,1018,RJOP 030200Z 32017KT 9999 FEW030 BKN230 07/M00 Q1018 RMK     1CU030 A3008=,
20180203_030000.003,0,RJOP,,,,0,20180203030000,-1,-1,-1,-1,330,-1,12,-1,-1,-1,-1,,9999,0,0,2,FEW 30   BKN 230,1,8,-1,1,1017,RJOP 030300Z 33012KT 9999 FEW030 BKN230 08/M01 Q1017 RMK     1CU030 A3006=,
20180203_040000.003,0,RJOP,,,,0,20180203040000,-1,-1,-1,-1,340,-1,14,-1,-1,-1,-1,,9999,0,0,3,FEW 30   BKN 50   BKN 230,1,8,-1,2,1017,RJOP 030400Z 34014KT 9999 FEW030 BKN050 BKN230 08/M02 Q1017     RMK 1CU030 5SC050 A3004=,
20180203_050000.003,0,RJOP,,,,0,20180203050000,-1,-1,-1,-1,350,-1,16,-1,-1,-1,-1,,9999,0,0,2,FEW 30   SCT 50,1,8,-1,3,1017,RJOP 030500Z 35016KT 9999 FEW030 SCT050 08/M03 Q1017 RMK     1CU030 4SC050 A3003=,
20180203_060000.003,0,RJOP,,,,0,20180203060000,-1,-1,-1,-1,310,-1,15,-1,-1,-1,-1,,9999,0,0,2,FEW 30   SCT 50,1,8,-1,2,1017,RJOP 030600Z 31015KT 9999 FEW030 SCT050 08/M02 Q1017 RMK     1CU030 3SC050 A3003=,
20180203_070000.004,0,RJOP,,,,0,20180203070000,-1,-1,-1,-1,310,-1,13,-1,-1,-1,-1,,9999,0,0,2,FEW 30   SCT 50,1,8,-1,1,1017,RJOP 030700Z 31013KT 9999 FEW030 SCT050 08/M01 Q1017 RMK     1CU030 4SC050 A3004=,
20180203_080000.003,0,RJOP,,,,0,20180203080000,-1,-1,-1,-1,320,-1,14,-1,-1,-1,-1,,9999,0,0,3,FEW 30   SCT 50   BKN 230,1,7,-1,1,1017,RJOP 030800Z 32014KT 9999 FEW030 SCT050 BKN230 07/M01 Q1017     RMK 1CU030 3SC050 A3004=,
20180203_090000.003,0,RJOP,,,,0,20180203090000,-1,-1,-1,-1,310,-1,12,-1,-1,-1,-1,,9999,0,0,2,FEW 30   BKN 230,1,6,-1,0,1017,RJOP 030900Z 31012KT 9999 FEW030 BKN230 06/M00 Q1017 RMK     1CU030 A3005=,
20180203_100000.003,0,RJOP,,,,0,20180203100000,-1,-1,-1,-1,300,-1,15,-1,-1,-1,-1,,9999,0,0,2,FEW 30   SCT 230,1,6,-1,1,1017,RJOP 031000Z 30015KT 9999 FEW030 SCT230 06/M01 Q1017 RMK     1CU030 A3005=,
20180203_110000.003,0,RJOP,,,,0,20180203110000,-1,-1,-1,-1,290,-1,15,-1,-1,-1,-1,,9999,0,0,1,FEW 30,1,5,-1,2,1017,RJOP 031100Z 29015KT 9999 FEW030 05/M02 Q1017 RMK 1CU030     A3005=,
20180203_120000.003,0,RJOP,,,,0,20180203120000,-1,-1,-1,-1,290,-1,13,-1,-1,-1,-1,,9999,0,0,1,FEW 30,1,5,-1,2,1017,RJOP 031200Z 29013KT 9999 FEW030 05/M02 Q1017 RMK 1CU030     A3004=,
20180203_130000.003,0,RJOP,,,,0,20180203130000,-1,-1,-1,-1,280,-1,16,-1,-1,-1,-1,,9999,0,0,2,FEW 30   SCT 50,1,5,-1,1,1017,RJOP 031300Z 28016KT 9999 FEW030 SCT050 05/M01 Q1017 RMK     1CU030 4SC050 A3005=,
20180203_140000.003,0,RJOP,,,,0,20180203140000,-1,-1,-1,-1,280,-1,10,-1,-1,-1,-1,,9999,0,0,2,FEW 30   SCT 50,1,4,-1,1,1018,RJOP 031400Z 28010KT 9999 FEW030 SCT050 04/M01 Q1018 RMK     1CU030 4SC050 A3006=,
20180203_150000.003,0,RJOP,,,,0,20180203150000,-1,-1,-1,-1,310,-1,18,-1,-1,-1,-1,,9999,0,0,1,FEW 30,1,4,-1,1,1017,RJOP 031500Z 31018KT 9999 FEW030 04/M01 Q1017 RMK 1CU030     A3004=,
20180203_160000.003,0,RJOP,,,,0,20180203160000,-1,-1,-1,-1,300,-1,14,-1,-1,-1,-1,,9999,0,0,2,FEW 30   BKN 50,1,3,-1,0,1017,RJOP 031600Z 30014KT 9999 FEW030 BKN050 03/M00 Q1017 RMK     1CU030 5SC050 A3005=,
20180203_170000.003,0,RJOP,,,,0,20180203170000,-1,-1,-1,-1,300,-1,10,-1,-1,-1,-1,,9999,0,0,2,FEW 30   BKN 50,1,3,-1,0,1017,RJOP 031700Z 30010KT 9999 FEW030 BKN050 03/M00 Q1017 RMK     1CU030 7SC050 A3005=,
20180203_180000.004,0,RJOP,,,,0,20180203180000,-1,-1,-1,-1,310,-1,12,-1,-1,-1,-1,,9999,0,0,3,FEW 30   SCT 50   BKN 230,1,3,-1,3,1017,RJOP 031800Z 31012KT 9999 FEW030 SCT050 BKN230 03/M03 Q1017     RMK 1CU030 3SC050 A3005=,
20180203_190000.003,0,RJOP,,,,0,20180203190000,-1,-1,-1,-1,310,-1,14,-1,-1,-1,-1,,9999,0,0,2,FEW 30   BKN 230,1,3,-1,4,1017,RJOP 031900Z 31014KT 9999 FEW030 BKN230 03/M04 Q1017 RMK     1CU030 A3004=,
20180203_200000.003,0,RJOP,,,,0,20180203200000,-1,-1,-1,-1,300,-1,12,-1,-1,-1,-1,,9999,0,0,3,FEW 30   SCT 50   BKN 230,1,2,-1,5,1017,RJOP 032000Z 30012KT 9999 FEW030 SCT050 BKN230 02/M05 Q1017     RMK 1CU030 3SC050 A3005=,
20180203_210000.003,0,RJOP,,,,0,20180203210000,-1,-1,-1,-1,280,-1,11,-1,-1,-1,-1,,9999,0,0,3,FEW 30   SCT 50   BKN 230,1,2,-1,4,1017,RJOP 032100Z 28011KT 9999 FEW030 SCT050 BKN230 02/M04 Q1017     RMK 1CU030 3SC050 A3006=,
20180203_220000.003,0,RJOP,,,,0,20180203220000,-1,-1,-1,-1,290,-1,9,-1,-1,-1,-1,,9999,0,0,3,FEW 30   SCT 50   BKN 230,1,1,-1,4,1017,RJOP 032200Z 29009KT 9999 FEW030 SCT050 BKN230 01/M04 Q1017     RMK 1CU030 3SC050 A3005=,
20180203_230000.003,0,RJOP,,,,0,20180203230000,-1,-1,-1,-1,290,-1,8,-1,-1,-1,-1,,6000,0,1,3,FEW 15   BKN 30   BKN 50,1,1,-1,3,1018,RJOP 032300Z 29008KT 6000 -SHSN FEW015 BKN030 BKN050 01/M03     Q1018 RMK 1CU015 5CU030 7SC050 A3007 3000W-N=,- SN SH
20180204_000000.003,0,RJOP,,,,0,20180204000000,-1,-1,-1,-1,340,-1,9,-1,-1,-1,-1,,4500,0,1,2,FEW 15   BKN 30,1,0,-1,2,1018,RJOP 040000Z 34009KT 4500 -SHSN FEW015 BKN030 00/M02 Q1018 RMK     2CU015 6CU030 A3007=,- SN SH
20180204_010000.003,0,RJOP,,,,0,20180204010000,-1,-1,-1,-1,350,-1,11,-1,-1,-1,-1,,3000,0,1,2,SCT 6   BKN 25,1,0,-1,1,1018,RJOP 040100Z 35011KT 3000 -SHSN SCT006 BKN025 00/M01 Q1018 RMK     3ST006 7CU025 A3008=,- SN SH
20180204_020000.003,0,RJOP,,,,0,20180204020000,-1,-1,-1,-1,330,-1,18,-1,-1,-1,-1,,9999,0,1,3,FEW 6   SCT 15   BKN 25,1,2,-1,2,1018,RJOP 040200Z 33018KT 9999 -SHSN FEW006 SCT015 BKN025 02/M02     Q1018 RMK 1ST006 3CU015 5CU025 A3007 5000N=,- SN SH
20180204_030000.003,0,RJOP,,,,0,20180204030000,-1,-1,-1,-1,320,-1,22,-1,33,-1,-1,,9999,0,0,2,FEW 15   SCT 25,1,2,-1,2,1017,RJOP 040300Z 32022G33KT 9999 FEW015 SCT025 02/M02 Q1017 RMK     1CU015 3CU025 A3004=,
20180204_040000.003,0,RJOP,,,,0,20180204040000,-1,-1,-1,-1,300,-1,24,-1,37,-1,-1,,9999,0,0,1,FEW 25,1,3,-1,6,1016,RJOP 040400Z 30024G37KT 9999 FEW025 03/M06 Q1016 RMK 2CU025     A3001=,
20180204_050000.003,0,RJOP,,,,0,20180204050000,-1,-1,-1,-1,300,-1,25,-1,36,-1,-1,,9999,0,0,1,FEW 35,1,3,-1,8,1016,RJOP 040500Z 30025G36KT 9999 FEW035 03/M08 Q1016 RMK 2CU035     A3001=,
20180204_060000.003,0,RJOP,,,,0,20180204060000,-1,-1,-1,-1,300,-1,19,-1,29,270,330,,9999,0,0,1,FEW 35,1,4,-1,9,1016,RJOP 040600Z 30019G29KT 270V330 9999 FEW035 04/M09 Q1016 RMK     1CU035 A3002=,
20180204_070000.003,0,RJOP,,,,0,20180204070000,-1,-1,-1,-1,290,-1,21,-1,31,-1,-1,,9999,0,0,1,FEW 35,1,3,-1,8,1017,RJOP 040700Z 29021G31KT 9999 FEW035 03/M08 Q1017 RMK 1CU035     A3003=,
20180204_080000.003,0,RJOP,,,,0,20180204080000,-1,-1,-1,-1,280,-1,19,-1,29,-1,-1,,9999,0,0,1,FEW 35,1,3,-1,7,1017,RJOP 040800Z 28019G29KT 9999 FEW035 03/M07 Q1017 RMK 1CU035     A3003=,
20180204_090000.003,0,RJOP,,,,0,20180204090000,-1,-1,-1,-1,290,-1,17,-1,-1,-1,-1,,9999,0,0,1,FEW 35,1,2,-1,7,1017,RJOP 040900Z 29017KT 9999 FEW035 02/M07 Q1017 RMK 1CU035     A3004=,
20180204_100000.003,0,RJOP,,,,0,20180204100000,-1,-1,-1,-1,290,-1,11,-1,-1,260,320,,9999,0,0,1,FEW 35,1,2,-1,7,1018,RJOP 041000Z 29011KT 260V320 9999 FEW035 02/M07 Q1018 RMK     1CU035 A3007=,
20180204_110000.004,0,RJOP,,,,0,20180204110000,-1,-1,-1,-1,300,-1,14,-1,-1,-1,-1,,9999,0,0,1,FEW 35,1,2,-1,7,1018,RJOP 041100Z 30014KT 9999 FEW035 02/M07 Q1018 RMK 1CU035     A3007=,
20180204_120000.003,0,RJOP,,,,0,20180204120000,-1,-1,-1,-1,300,-1,18,-1,-1,-1,-1,,9999,0,0,1,FEW 35,1,2,-1,7,1018,RJOP 041200Z 30018KT 9999 FEW035 02/M07 Q1018 RMK 1CU035     A3008=,
20180204_130000.003,0,RJOP,,,,0,20180204130000,-1,-1,-1,-1,300,-1,20,-1,-1,-1,-1,,9999,0,0,1,FEW 35,1,1,-1,7,1018,RJOP 041300Z 30020KT 9999 FEW035 01/M07 Q1018 RMK 1CU035     A3007=,
20180204_140000.003,0,RJOP,,,,0,20180204140000,-1,-1,-1,-1,300,-1,20,-1,-1,-1,-1,,9999,0,0,1,FEW 35,1,1,-1,7,1018,RJOP 041400Z 30020KT 9999 FEW035 01/M07 Q1018 RMK 1CU035     A3007=,
20180204_150000.003,0,RJOP,,,,0,20180204150000,-1,-1,-1,-1,310,-1,20,-1,30,-1,-1,,9999,0,0,1,FEW 30,1,1,-1,7,1018,RJOP 041500Z 31020G30KT 9999 FEW030 01/M07 Q1018 RMK 1CU030     A3008=,
20180204_160000.003,0,RJOP,,,,0,20180204160000,-1,-1,-1,-1,310,-1,21,-1,31,-1,-1,,9999,0,0,1,FEW 30,1,1,-1,8,1018,RJOP 041600Z 31021G31KT 9999 FEW030 01/M08 Q1018 RMK 1CU030     A3006=,
20180204_170000.003,0,RJOP,,,,0,20180204170000,-1,-1,-1,-1,310,-1,21,-1,31,-1,-1,,9999,0,0,1,FEW 30,1,1,-1,7,1017,RJOP 041700Z 31021G31KT 9999 FEW030 01/M07 Q1017 RMK 1CU030     A3005=,
20180204_180000.004,0,RJOP,,,,0,20180204180000,-1,-1,-1,-1,300,-1,19,-1,-1,-1,-1,,9999,0,0,1,FEW 30,1,1,-1,7,1017,RJOP 041800Z 30019KT 9999 FEW030 01/M07 Q1017 RMK 1CU030     A3005=,
20180204_190000.003,0,RJOP,,,,0,20180204190000,-1,-1,-1,-1,290,-1,18,-1,28,-1,-1,,9999,0,0,1,FEW 30,1,1,-1,6,1017,RJOP 041900Z 29018G28KT 9999 FEW030 01/M06 Q1017 RMK 1CU030     A3005=,
20180204_200000.003,0,RJOP,,,,0,20180204200000,-1,-1,-1,-1,290,-1,19,-1,29,-1,-1,,9999,0,0,1,FEW 30,1,1,-1,6,1017,RJOP 042000Z 29019G29KT 9999 FEW030 01/M06 Q1017 RMK 1CU030     A3005=,
20180204_210000.003,0,RJOP,,,,0,20180204210000,-1,-1,-1,-1,290,-1,22,-1,32,-1,-1,,9999,0,0,1,FEW 30,1,1,-1,5,1017,RJOP 042100Z 29022G32KT 9999 FEW030 01/M05 Q1017 RMK 1CU030     A3005 S000 SD/// FS///=,
20180204_220000.003,0,RJOP,,,,0,20180204220000,-1,-1,-1,-1,310,-1,18,-1,-1,-1,-1,,9999,0,0,2,FEW 30   BKN 230,1,0,-1,6,1018,RJOP 042200Z 31018KT 9999 FEW030 BKN230 00/M06 Q1018 RMK     1CU030 A3007 PEAK GUST 26KT=,
20180204_230000.003,0,RJOP,,,,0,20180204230000,-1,-1,-1,-1,310,-1,14,-1,-1,-1,-1,,9999,0,0,2,FEW 30   BKN 230,1,1,-1,6,1018,RJOP 042300Z 31014KT 9999 FEW030 BKN230 01/M06 Q1018 RMK     1CU030 A3008=,
20180205_000000.004,0,RJOP,,,,0,20180205000000,-1,-1,-1,-1,310,-1,14,-1,-1,280,340,,9999,0,0,2,FEW 30   BKN 230,1,1,-1,7,1018,RJOP 050000Z 31014KT 280V340 9999 FEW030 BKN230 01/M07 Q1018     RMK 1CU030 A3008=,
20180205_010000.003,0,RJOP,,,,0,20180205010000,-1,-1,-1,-1,300,-1,17,-1,27,-1,-1,,9999,0,1,2,FEW 30   BKN 230,1,2,-1,7,1018,RJOP 050100Z 30017G27KT 9999 -SHSN FEW030 BKN230 02/M07 Q1018     RMK 2CU030 A3008=,- SN SH
20180205_020000.003,0,RJOP,,,,0,20180205020000,-1,-1,-1,-1,320,-1,17,-1,27,-1,-1,,9999,0,0,2,FEW 30   BKN 230,1,2,-1,6,1018,RJOP 050200Z 32017G27KT 9999 FEW030 BKN230 02/M06 Q1018 RMK     2CU030 A3008=,
