20180101_000000.002,0,RJOR,,,,0,20180101000000,-1,-1,-1,-1,230,-1,11,-1,-1,-1,-1,,9999,0,1,2,FEW 20   BKN 40,1,5,-1,2,1020,RJOR 010000Z 23011KT 9999 -SHRASN FEW020 BKN040 05/M02 Q1020     RMK 1CU020 6CU040 A3013=,- RA SN SH
20180101_010000.002,0,RJOR,,,,0,20180101010000,-1,-1,-1,-1,230,-1,10,-1,-1,-1,-1,,9999,0,1,2,FEW 20   BKN 40,1,5,-1,1,1021,RJOR 010100Z 23010KT 9999 -SHRASN FEW020 BKN040 05/M01 Q1021     RMK 1CU020 6CU040 A3016=,- RA SN SH
20180101_020000.002,0,RJOR,,,,0,20180101020000,-1,-1,-1,-1,240,-1,8,-1,-1,190,260,,9999,0,1,2,FEW 25   BKN 40,1,6,-1,1,1020,RJOR 010200Z 24008KT 190V260 9999 -SHRA FEW025 BKN040 06/M01     Q1020 RMK 1CU025 5CU040 A3014=,- RA SH
20180101_030000.002,0,RJOR,,,,0,20180101030000,-1,-1,-1,-1,250,-1,13,-1,-1,-1,-1,,9999,0,1,2,FEW 30   BKN 45,1,8,-1,3,1020,RJOR 010300Z 25013KT 9999 VCSH FEW030 BKN045 08/M03 Q1020 RMK     1CU030 5CU045 A3012=,VC SH
20180101_040000.002,0,RJOR,,,,0,20180101040000,-1,-1,-1,-1,300,-1,23,-1,-1,-1,-1,,9999,0,1,2,FEW 20   BKN 40,1,7,1,1,1019,RJOR 010400Z 30023KT 9999 VCSH FEW020 BKN040 07/01 Q1019 RMK     1CU020 5CU040 A3011=,VC SH
20180101_050000.002,0,RJOR,,,,0,20180101050000,-1,-1,-1,-1,280,-1,15,-1,-1,-1,-1,,9999,0,1,3,FEW 20   SCT 30   BKN 40,1,6,-1,2,1020,RJOR 010500Z 28015KT 9999 -SHRA FEW020 SCT030 BKN040 06/M02     Q1020 RMK 1CU020 3CU030 5CU040 A3013=,- RA SH
20180101_060000.002,0,RJOR,,,,0,20180101060000,-1,-1,-1,-1,290,-1,24,-1,-1,-1,-1,,9999,0,0,2,FEW 30   SCT 70,1,7,-1,1,1020,RJOR 010600Z 29024KT 9999 FEW030 SCT070 07/M01 Q1020 RMK     1CU030 3AC070 A3013=,
20180101_070000.002,0,RJOR,,,,0,20180101070000,-1,-1,-1,-1,280,-1,22,-1,-1,-1,-1,,9999,0,0,3,FEW 30   SCT 45   BKN 70,1,8,-1,1,1020,RJOR 010700Z 28022KT 9999 FEW030 SCT045 BKN070 08/M01 Q1020     RMK 1CU030 3CU045 5AC070 A3013=,
20180101_080000.002,0,RJOR,,,,0,20180101080000,-1,-1,-1,-1,310,-1,21,-1,-1,-1,-1,,9999,0,1,3,FEW 25   SCT 45   BKN 70,1,7,-1,1,1020,RJOR 010800Z 31021KT 9999 -SHRA FEW025 SCT045 BKN070 07/M01     Q1020 RMK 1CU025 3CU045 5AC070 A3014=,- RA SH
20180101_090000.002,0,RJOR,,,,0,20180101090000,-1,-1,-1,-1,280,-1,21,-1,-1,-1,-1,,9999,0,1,3,FEW 25   SCT 45   BKN 70,1,6,-1,1,1021,RJOR 010900Z 28021KT 9999 -SHRA FEW025 SCT045 BKN070 06/M01     Q1021 RMK 1CU025 3CU045 5AC070 A3016=,- RA SH
20180101_100000.002,0,RJOR,,,,0,20180101100000,-1,-1,-1,-1,300,-1,22,-1,-1,-1,-1,,9999,0,0,3,FEW 25   SCT 45   BKN 70,1,7,-1,1,1021,RJOR 011000Z 30022KT 9999 FEW025 SCT045 BKN070 07/M01 Q1021     RMK 1CU025 3CU045 5AC070 A3017=,
20180101_110000.002,0,RJOR,,,,0,20180101110000,-1,-1,-1,-1,300,-1,21,-1,-1,-1,-1,,9999,0,1,3,FEW 25   SCT 45   BKN 70,1,7,-1,2,1021,RJOR 011100Z 30021KT 9999 -SHRA FEW025 SCT045 BKN070 07/M02     Q1021 RMK 1CU025 3CU045 5AC070 A3018=,- RA SH
20180101_120000.002,0,RJOR,,,,0,20180101120000,-1,-1,-1,-1,290,-1,21,-1,-1,-1,-1,,9999,0,0,3,FEW 25   SCT 45   BKN 70,1,7,-1,3,1022,RJOR 011200Z 29021KT 9999 FEW025 SCT045 BKN070 07/M03 Q1022     RMK 1CU025 3CU045 5AC070 A3018=,
20180101_213000.001,0,RJOR,,,,0,20180101210000,-1,-1,-1,-1,320,-1,16,-1,-1,-1,-1,,9999,0,0,3,FEW 20   SCT 40   BKN 70,1,7,-1,2,1022,RJOR 012130Z 32016KT 9999 FEW020 SCT040 BKN070 07/M02 Q1022     RMK 1CU020 3CU040 6AC070 A3021=,
20180101_220000.002,0,RJOR,,,,0,20180101220000,-1,-1,-1,-1,220,-1,7,-1,-1,-1,-1,,9999,0,0,3,FEW 30   SCT 40   BKN 60,1,6,-1,3,1023,RJOR 012200Z 22007KT 9999 FEW030 SCT040 BKN060 06/M03 Q1023     RMK 1CU030 4CU040 6SC060 A3022=,
20180101_230000.002,0,RJOR,,,,0,20180101230000,-1,-1,-1,-1,230,-1,9,-1,-1,-1,-1,,9999,0,1,3,FEW 20   SCT 40   BKN 50,1,6,-1,2,1023,RJOR 012300Z 23009KT 9999 -SHRA FEW020 SCT040 BKN050 06/M02     Q1023 RMK 1CU020 3CU040 5SC050 A3023=,- RA SH
20180102_000000.003,0,RJOR,,,,0,20180102000000,-1,-1,-1,-1,220,-1,11,-1,-1,-1,-1,,9999,0,1,3,FEW 15   SCT 40   BKN 50,1,5,-1,1,1024,RJOR 020000Z 22011KT 9999 -SHRA FEW015 SCT040 BKN050 05/M01     Q1024 RMK 1CU015 3CU040 5SC050 A3024=,- RA SH
20180102_010000.003,0,RJOR,,,,0,20180102010000,-1,-1,-1,-1,190,-1,7,-1,-1,-1,-1,,9999,0,0,3,FEW 5   SCT 40   BKN 50,1,5,-1,0,1024,RJOR 020100Z 19007KT 9999 FEW005 SCT040 BKN050 05/M00 Q1024     RMK 1ST005 3CU040 5SC050 A3024=,
20180102_020000.002,0,RJOR,,,,0,20180102020000,-1,-1,-1,-1,280,-1,16,-1,-1,-1,-1,,9999,0,0,3,FEW 30   SCT 40   BKN 50,1,7,-1,2,1023,RJOR 020200Z 28016KT 9999 FEW030 SCT040 BKN050 07/M02 Q1023     RMK 1CU030 3CU040 5SC050 A3022=,
20180102_030000.002,0,RJOR,,,,0,20180102030000,-1,-1,-1,-1,270,-1,20,-1,-1,-1,-1,,9999,0,0,3,FEW 30   SCT 40   BKN 50,1,8,-1,1,1022,RJOR 020300Z 27020KT 9999 FEW030 SCT040 BKN050 08/M01 Q1022     RMK 1CU030 3CU040 5SC050 A3018=,
20180102_040000.002,0,RJOR,,,,0,20180102040000,-1,-1,-1,-1,260,-1,18,-1,-1,-1,-1,,9999,0,0,3,FEW 30   SCT 40   BKN 60,1,8,-1,3,1021,RJOR 020400Z 26018KT 9999 FEW030 SCT040 BKN060 08/M03 Q1021     RMK 1CU030 3CU040 5SC060 A3017=,
20180102_050000.002,0,RJOR,,,,0,20180102050000,-1,-1,-1,-1,250,-1,14,-1,24,-1,-1,,9999,0,0,3,FEW 30   SCT 40   BKN 60,1,8,-1,4,1021,RJOR 020500Z 25014G24KT 9999 FEW030 SCT040 BKN060 08/M04 Q1021     RMK 1CU030 3CU040 5SC060 A3016=,
20180102_060000.002,0,RJOR,,,,0,20180102060000,-1,-1,-1,-1,270,-1,24,-1,-1,-1,-1,,9999,0,0,3,FEW 30   SCT 40   BKN 60,1,9,-1,2,1021,RJOR 020600Z 27024KT 9999 FEW030 SCT040 BKN060 09/M02 Q1021     RMK 1CU030 3CU040 5SC060 A3016=,
20180102_070000.002,0,RJOR,,,,0,20180102070000,-1,-1,-1,-1,280,-1,25,-1,-1,-1,-1,,9999,0,0,2,FEW 35   BKN 60,1,9,-1,2,1021,RJOR 020700Z 28025KT 9999 FEW035 BKN060 09/M02 Q1021 RMK     2CU035 5SC060 A3015=,
20180102_080000.002,0,RJOR,,,,0,20180102080000,-1,-1,-1,-1,260,-1,19,-1,32,-1,-1,,9999,0,0,3,FEW 35   SCT 45   BKN 60,1,8,-1,3,1020,RJOR 020800Z 26019G32KT 9999 FEW035 SCT045 BKN060 08/M03 Q1020     RMK 1CU035 3CU045 5SC060 A3014=,
20180102_090000.002,0,RJOR,,,,0,20180102090000,-1,-1,-1,-1,250,-1,13,-1,-1,-1,-1,,9999,0,0,3,FEW 35   SCT 45   BKN 60,1,7,-1,4,1020,RJOR 020900Z 25013KT 9999 FEW035 SCT045 BKN060 07/M04 Q1020     RMK 1CU035 3CU045 5SC060 A3014=,
20180102_100000.002,0,RJOR,,,,0,20180102100000,-1,-1,-1,-1,240,-1,15,-1,-1,-1,-1,,9999,0,0,3,FEW 35   SCT 45   BKN 70,1,7,-1,4,1020,RJOR 021000Z 24015KT 9999 FEW035 SCT045 BKN070 07/M04 Q1020     RMK 1CU035 3CU045 5AC070 A3014=,
20180102_110000.002,0,RJOR,,,,0,20180102110000,-1,-1,-1,-1,270,-1,25,-1,-1,-1,-1,,9999,0,0,3,FEW 35   SCT 45   BKN 70,1,8,-1,3,1021,RJOR 021100Z 27025KT 9999 FEW035 SCT045 BKN070 08/M03 Q1021     RMK 1CU035 3CU045 5AC070 A3015=,
20180102_120000.002,0,RJOR,,,,0,20180102120000,-1,-1,-1,-1,250,-1,14,-1,-1,-1,-1,,9999,0,0,3,FEW 35   SCT 45   BKN 70,1,7,-1,4,1020,RJOR 021200Z 25014KT 9999 FEW035 SCT045 BKN070 07/M04 Q1020     RMK 1CU035 3CU045 5AC070 A3013=,
20180102_213000.001,0,RJOR,,,,0,20180102210000,-1,-1,-1,-1,280,-1,26,-1,-1,-1,-1,,9999,0,1,3,FEW 15   SCT 30   BKN 40,1,4,-1,1,1022,RJOR 022130Z 28026KT 9999 -SHRASN FEW015 SCT030 BKN040 04/M01     Q1022 RMK 1CU015 3CU030 5CU040 A3019=,- RA SN SH
20180102_220000.002,0,RJOR,,,,0,20180102220000,-1,-1,-1,-1,340,-1,28,-1,-1,-1,-1,,9999,0,1,2,FEW 15   BKN 40,1,4,1,1,1022,RJOR 022200Z 34028KT 9999 VCSH FEW015 BKN040 04/01 Q1022 RMK     1CU015 5CU040 A3018=,VC SH
20180102_230000.002,0,RJOR,,,,0,20180102230000,-1,-1,-1,-1,340,-1,26,-1,-1,-1,-1,,9999,0,0,2,FEW 10   SCT 30,1,4,-1,0,1022,RJOR 022300Z 34026KT 9999 FEW010 SCT030 04/M00 Q1022 RMK     1CU010 4CU030 A3020=,
20180103_000000.002,0,RJOR,,,,0,20180103000000,-1,-1,-1,-1,340,-1,28,-1,-1,-1,-1,,9999,0,1,2,FEW 15   BKN 30,1,4,-1,1,1023,RJOR 030000Z 34028KT 9999 VCSH FEW015 BKN030 04/M01 Q1023 RMK     1CU015 5CU030 A3022=,VC SH
20180103_010000.002,0,RJOR,,,,0,20180103010000,-1,-1,-1,-1,340,-1,26,-1,-1,-1,-1,,9999,0,1,2,FEW 15   SCT 30,1,5,-1,2,1022,RJOR 030100Z 34026KT 9999 VCSH FEW015 SCT030 05/M02 Q1022 RMK     1CU015 4CU030 A3020=,VC SH
20180103_020000.002,0,RJOR,,,,0,20180103020000,-1,-1,-1,-1,330,-1,26,-1,-1,-1,-1,,9999,0,1,3,FEW 15   SCT 20   BKN 30,1,5,-1,2,1023,RJOR 030200Z 33026KT 9999 -SHRASN FEW015 SCT020 BKN030 05/M02     Q1023 RMK 1CU015 3CU020 5CU030 A3022=,- RA SN SH
20180103_030000.003,0,RJOR,,,,0,20180103030000,-1,-1,-1,-1,320,-1,22,-1,-1,-1,-1,,9999,0,0,3,FEW 15   SCT 20   BKN 40,1,6,-1,3,1023,RJOR 030300Z 32022KT 9999 FEW015 SCT020 BKN040 06/M03 Q1023     RMK 1CU015 3CU020 5CU040 A3021=,
20180103_040000.002,0,RJOR,,,,0,20180103040000,-1,-1,-1,-1,330,-1,23,-1,-1,-1,-1,,9999,0,0,3,FEW 15   SCT 20   BKN 40,1,5,-1,2,1022,RJOR 030400Z 33023KT 9999 FEW015 SCT020 BKN040 05/M02 Q1022     RMK 1CU015 3CU020 5CU040 A3020=,
20180103_050000.002,0,RJOR,,,,0,20180103050000,-1,-1,-1,-1,340,-1,24,-1,-1,-1,-1,,8000,0,1,3,FEW 15   SCT 20   BKN 30,1,3,1,0,1022,RJOR 030500Z 34024KT 8000 -SHSNRA FEW015 SCT020 BKN030 03/00     Q1022 RMK 1CU015 3CU020 5CU030 A3019=,- SN RA SH
20180103_060000.002,0,RJOR,,,,0,20180103060000,-1,-1,-1,-1,310,-1,19,-1,-1,-1,-1,,9999,0,1,3,FEW 10   SCT 20   BKN 40,1,5,-1,1,1022,RJOR 030600Z 31019KT 9999 VCSH FEW010 SCT020 BKN040 05/M01     Q1022 RMK 1CU010 3CU020 5CU040 A3020=,VC SH
20180103_070000.002,0,RJOR,,,,0,20180103070000,-1,-1,-1,-1,340,-1,24,-1,-1,-1,-1,,5000,0,1,3,FEW 5   SCT 10   BKN 20,1,2,1,0,1023,RJOR 030700Z 34024KT 5000 -SHSNRA FEW005 SCT010 BKN020 02/00     Q1023 RMK 1CU005 3CU010 5CU020 A3022=,- SN RA SH
20180103_080000.002,0,RJOR,,,,0,20180103080000,-1,-1,-1,-1,310,-1,23,-1,-1,-1,-1,,9999,0,0,3,FEW 5   SCT 15   BKN 30,1,4,-1,1,1023,RJOR 030800Z 31023KT 9999 FEW005 SCT015 BKN030 04/M01 Q1023     RMK 1CU005 3CU015 5CU030 A3021=,
20180103_090000.002,0,RJOR,,,,0,20180103090000,-1,-1,-1,-1,350,-1,22,-1,-1,-1,-1,,9999,0,1,3,FEW 5   SCT 20   BKN 40,1,3,-1,0,1023,RJOR 030900Z 35022KT 9999 -SHSNRA FEW005 SCT020 BKN040 03/M00     Q1023 RMK 1CU005 3CU020 5CU040 A3023=,- SN RA SH
20180103_100000.002,0,RJOR,,,,0,20180103100000,-1,-1,-1,-1,330,-1,15,-1,-1,-1,-1,,9999,0,0,3,FEW 10   SCT 30   BKN 40,1,4,-1,2,1023,RJOR 031000Z 33015KT 9999 FEW010 SCT030 BKN040 04/M02 Q1023     RMK 1CU010 3CU030 5CU040 A3023=,
20180103_110000.002,0,RJOR,,,,0,20180103110000,-1,-1,-1,-1,340,-1,14,-1,-1,-1,-1,,9999,0,0,3,FEW 15   SCT 30   BKN 40,1,4,-1,2,1023,RJOR 031100Z 34014KT 9999 FEW015 SCT030 BKN040 04/M02 Q1023     RMK 1CU015 3CU030 5CU040 A3023=,
20180103_120000.002,0,RJOR,,,,0,20180103120000,-1,-1,-1,-1,360,-1,10,-1,-1,-1,-1,,9999,0,0,3,FEW 15   SCT 30   BKN 40,1,3,-1,1,1024,RJOR 031200Z 36010KT 9999 FEW015 SCT030 BKN040 03/M01 Q1024     RMK 1CU015 3CU030 5CU040 A3025=,
20180103_213000.001,0,RJOR,,,,0,20180103210000,-1,-1,-1,-1,150,-1,5,-1,-1,-1,-1,,9999,0,0,2,FEW 5   BKN 35,1,1,-1,1,1024,RJOR 032130Z 15005KT 9999 FEW005 BKN035 01/M01 Q1024 RMK     1ST005 5CU035 A3025=,
20180103_220000.002,0,RJOR,,,,0,20180103220000,-1,-1,-1,-1,130,-1,6,-1,-1,-1,-1,,9999,0,1,2,FEW 15   SCT 35,1,1,-1,1,1024,RJOR 032200Z 13006KT 9999 VCSH FEW015 SCT035 01/M01 Q1024 RMK     1CU015 4CU035 A3024=,VC SH
20180103_230000.002,0,RJOR,,,,0,20180103230000,-1,-1,-1,-1,220,-1,6,-1,-1,180,260,,6000,0,1,3,FEW 10   SCT 20   BKN 30,1,1,-1,1,1024,RJOR 032300Z 22006KT 180V260 6000 -SHSN FEW010 SCT020 BKN030     01/M01 Q1024 RMK 1CU010 3CU020 5CU030 A3024=,- SN SH
20180104_000000.002,0,RJOR,,,,0,20180104000000,-1,-1,-1,-1,140,-1,5,-1,-1,-1,-1,,9999,0,1,3,FEW 5   SCT 15   BKN 30,1,1,-1,1,1024,RJOR 040000Z 14005KT 9999 -SHRASN FEW005 SCT015 BKN030 01/M01     Q1024 RMK 1CU005 3CU015 5CU030 A3025=,- RA SN SH
20180104_010000.002,0,RJOR,,,,0,20180104010000,-1,-1,-1,-1,150,-1,7,-1,-1,-1,-1,,8000,0,1,3,FEW 5   SCT 15   BKN 30,1,1,-1,0,1024,RJOR 040100Z 15007KT 8000 -SHRASN FEW005 SCT015 BKN030 01/M00     Q1024 RMK 1CU005 3CU015 5CU030 A3025=,- RA SN SH
20180104_020000.002,0,RJOR,,,,0,20180104020000,-1,-1,-1,-1,140,-1,7,-1,-1,-1,-1,,9999,0,0,3,FEW 5   SCT 20   BKN 60,1,3,1,1,1023,RJOR 040200Z 14007KT 9999 FEW005 SCT020 BKN060 03/01 Q1023 RMK     1CU005 3CU020 5SC060 A3023=,
20180104_030000.002,0,RJOR,,,,0,20180104030000,-1,-1,-1,-1,120,-1,7,-1,-1,-1,-1,,9999,0,1,3,FEW 5   SCT 15   BKN 20,1,2,1,0,1022,RJOR 040300Z 12007KT 9999 -SHRA FEW005 SCT015 BKN020 02/00     Q1022 RMK 1CU005 3CU015 5CU020 A3021=,- RA SH
20180104_040000.002,0,RJOR,,,,0,20180104040000,-1,-1,-1,-1,140,-1,7,-1,-1,-1,-1,,9999,0,1,3,FEW 5   SCT 10   BKN 15,1,2,1,0,1021,RJOR 040400Z 14007KT 9999 -SHRASN FEW005 SCT010 BKN015 02/00     Q1021 RMK 1CU005 4CU010 6CU015 A3018=,- RA SN SH
20180104_050000.002,0,RJOR,,,,0,20180104050000,-1,-1,-1,-1,140,-1,7,-1,-1,110,180,,8000,0,1,3,FEW 5   SCT 10   BKN 20,1,3,1,1,1021,RJOR 040500Z 14007KT 110V180 8000 -SHRA FEW005 SCT010 BKN020     03/01 Q1021 RMK 1CU005 4CU010 6CU020 A3016=,- RA SH
20180104_060000.003,0,RJOR,,,,0,20180104060000,-1,-1,-1,-1,360,-1,16,-1,-1,-1,-1,,5000,0,1,3,FEW 5   SCT 10   BKN 15,1,2,1,1,1022,RJOR 040600Z 36016KT 5000 -SHGSRA FEW005 SCT010 BKN015 02/01     Q1022 RMK 1CU005 4CU010 6CU015 A3018 SMALL HAIL=,- GS RA SH
20180104_070000.002,0,RJOR,,,,0,20180104070000,-1,-1,-1,-1,40,-1,6,-1,-1,-1,-1,,9999,0,0,3,FEW 5   SCT 15   BKN 45,1,4,1,1,1022,RJOR 040700Z 04006KT 9999 FEW005 SCT015 BKN045 04/01 Q1022 RMK     1ST005 3CU015 5CU045 A3018=,
20180104_080000.002,0,RJOR,,,,0,20180104080000,-1,-1,-1,-1,10,-1,16,-1,-1,-1,-1,,9999,0,0,3,FEW 5   SCT 10   BKN 15,1,2,1,1,1022,RJOR 040800Z 01016KT 9999 FEW005 SCT010 BKN015 02/01 Q1022 RMK     1CU005 3CU010 5CU015 A3018=,
20180104_090000.002,0,RJOR,,,,0,20180104090000,-1,-1,-1,-1,180,-1,3,-1,-1,130,210,,9999,0,0,3,FEW 5   SCT 30   BKN 50,1,3,1,0,1022,RJOR 040900Z 18003KT 130V210 9999 FEW005 SCT030 BKN050 03/00     Q1022 RMK 1ST005 4CU030 6SC050 A3019=,
20180104_100000.002,0,RJOR,,,,0,20180104100000,-1,-1,-1,-1,140,-1,5,-1,-1,-1,-1,,9999,0,1,3,FEW 5   SCT 20   BKN 40,1,2,1,0,1022,RJOR 041000Z 14005KT 9999 -SHRASN FEW005 SCT020 BKN040 02/00     Q1022 RMK 1ST005 3CU020 5CU040 A3019=,- RA SN SH
20180104_110000.002,0,RJOR,,,,0,20180104110000,-1,-1,-1,-1,160,-1,5,-1,-1,-1,-1,,9999,0,1,3,FEW 5   SCT 15   BKN 25,1,2,1,1,1022,RJOR 041100Z 16005KT 9999 -SHRASN FEW005 SCT015 BKN025 02/01     Q1022 RMK 1ST005 3CU015 5CU025 A3019=,- RA SN SH
20180104_120000.003,0,RJOR,,,,0,20180104120000,-1,-1,-1,-1,180,-1,5,-1,-1,-1,-1,,9999,0,1,3,FEW 5   SCT 15   BKN 25,1,2,1,0,1022,RJOR 041200Z 18005KT 9999 -SHRASN FEW005 SCT015 BKN025 02/00     Q1022 RMK 1ST005 3CU015 5CU025 A3019=,- RA SN SH
20180104_213000.001,0,RJOR,,,,0,20180104210000,-1,-1,-1,-1,140,-1,5,-1,-1,-1,-1,,9999,0,0,3,FEW 10   SCT 60   BKN 120,1,2,1,0,1018,RJOR 042130Z 14005KT 9999 FEW010 SCT060 BKN120 02/00 Q1018 RMK     1CU010 3SC060 5AC120 A3007=,
20180104_220000.002,0,RJOR,,,,0,20180104220000,-1,-1,-1,-1,140,-1,7,-1,-1,-1,-1,,9999,0,0,3,FEW 20   SCT 60   BKN 120,1,2,-1,0,1018,RJOR 042200Z 14007KT 9999 FEW020 SCT060 BKN120 02/M00 Q1018     RMK 1CU020 3SC060 5AC120 A3007=,
20180104_230000.002,0,RJOR,,,,0,20180104230000,-1,-1,-1,-1,130,-1,9,-1,-1,-1,-1,,9999,0,0,3,FEW 5   SCT 60   BKN 120,1,2,-1,0,1017,RJOR 042300Z 13009KT 9999 FEW005 SCT060 BKN120 02/M00 Q1017     RMK 1ST005 4SC060 6AC120 A3005=,
20180105_000000.002,0,RJOR,,,,0,20180105000000,-1,-1,-1,-1,130,-1,6,-1,-1,-1,-1,,9999,0,0,3,FEW 5   SCT 60   BKN 120,1,2,1,0,1018,RJOR 050000Z 13006KT 9999 FEW005 SCT060 BKN120 02/00 Q1018 RMK     1ST005 4SC060 6AC120 A3007=,
20180105_010000.003,0,RJOR,,,,0,20180105010000,-1,-1,-1,-1,140,-1,8,-1,-1,-1,-1,,9999,0,0,3,FEW 30   SCT 60   BKN 120,1,3,1,0,1017,RJOR 050100Z 14008KT 9999 FEW030 SCT060 BKN120 03/00 Q1017 RMK     1CU030 3SC060 6AC120 A3006=,
20180105_020000.002,0,RJOR,,,,0,20180105020000,-1,-1,-1,-1,160,-1,7,-1,-1,-1,-1,,9999,0,0,3,FEW 30   SCT 60   BKN 100,1,4,1,1,1017,RJOR 050200Z 16007KT 9999 FEW030 SCT060 BKN100 04/01 Q1017 RMK     1CU030 3SC060 5AC100 A3005=,
20180105_030000.002,0,RJOR,,,,0,20180105030000,-1,-1,-1,-1,140,-1,4,-1,-1,-1,-1,,9999,0,0,3,FEW 30   SCT 60   BKN 100,1,5,1,1,1016,RJOR 050300Z 14004KT 9999 FEW030 SCT060 BKN100 05/01 Q1016 RMK     1CU030 3SC060 5AC100 A3001=,
20180105_040000.002,0,RJOR,,,,0,20180105040000,-1,-1,-1,-1,140,-1,6,-1,-1,-1,-1,,9999,0,0,3,FEW 30   SCT 60   BKN 100,1,5,1,1,1015,RJOR 050400Z 14006KT 9999 FEW030 SCT060 BKN100 05/01 Q1015 RMK     1CU030 3SC060 5AC100 A2998=,
20180105_050000.002,0,RJOR,,,,0,20180105050000,-1,-1,-1,-1,150,-1,4,-1,-1,-1,-1,,9999,0,0,3,FEW 10   SCT 140   BKN -9999,1,6,-1,0,1014,RJOR 050500Z 15004KT 9999 FEW010 SCT140 BKN/// 06/M00 Q1014     RMK 1ST010 4AC140 A2997=,
20180105_060000.002,0,RJOR,,,,0,20180105060000,-1,-1,-1,-1,999,-1,1,-1,-1,-1,-1,,9999,0,0,1,FEW 30,1,7,-1,1,1014,RJOR 050600Z VRB01KT 9999 FEW030 07/M01 Q1014 RMK 2CU030     A2997=,
20180105_070000.002,0,RJOR,,,,0,20180105070000,-1,-1,-1,-1,999,-1,1,-1,-1,-1,-1,,9999,0,0,1,FEW 30,1,6,-1,1,1014,RJOR 050700Z VRB01KT 9999 FEW030 06/M01 Q1014 RMK 2CU030     A2996=,
20180105_080000.002,0,RJOR,,,,0,20180105080000,-1,-1,-1,-1,160,-1,3,-1,-1,-1,-1,,9999,0,0,2,FEW 25   BKN 90,1,5,-1,0,1015,RJOR 050800Z 16003KT 9999 FEW025 BKN090 05/M00 Q1015 RMK     1CU025 6AC090 A2997=,
20180105_090000.002,0,RJOR,,,,0,20180105090000,-1,-1,-1,-1,160,-1,5,-1,-1,-1,-1,,9999,0,0,2,FEW 25   BKN 90,1,4,1,1,1015,RJOR 050900Z 16005KT 9999 FEW025 BKN090 04/01 Q1015 RMK 1CU025     7AC090 A2997=,
20180105_100000.002,0,RJOR,,,,0,20180105100000,-1,-1,-1,-1,140,-1,6,-1,-1,-1,-1,,9999,0,0,2,FEW 25   BKN 80,1,4,1,1,1014,RJOR 051000Z 14006KT 9999 FEW025 BKN080 04/01 Q1014 RMK 1CU025     5AC080 A2996=,
20180105_110000.002,0,RJOR,,,,0,20180105110000,-1,-1,-1,-1,140,-1,6,-1,-1,-1,-1,,9999,0,0,2,FEW 25   BKN 80,1,3,1,0,1014,RJOR 051100Z 14006KT 9999 FEW025 BKN080 03/00 Q1014 RMK 1CU025     6AC080 A2995=,
20180105_120000.002,0,RJOR,,,,0,20180105120000,-1,-1,-1,-1,140,-1,6,-1,-1,-1,-1,,9999,0,0,3,FEW 25   SCT 60   BKN 80,1,3,1,0,1013,RJOR 051200Z 14006KT 9999 FEW025 SCT060 BKN080 03/00 Q1013 RMK     1CU025 3SC060 6AC080 A2994=,
20180105_213000.001,0,RJOR,,,,0,20180105210000,-1,-1,-1,-1,170,-1,6,-1,-1,-1,-1,,9999,0,0,4,FEW 10   SCT 20   FEW 25 CB  BKN 35,1,4,1,2,1012,RJOR 052130Z 17006KT 9999 FEW010 SCT020 FEW025CB BKN035 04/02     Q1012 RMK 1CU010 3CU020 1CB025 5CU035 A2991 CB 10KM NE           MOV SE=,
20180105_220000.002,0,RJOR,,,,0,20180105220000,-1,-1,-1,-1,110,-1,6,-1,-1,-1,-1,,9999,0,0,4,FEW 10   SCT 20   FEW 25 CB  BKN 35,1,4,1,2,1013,RJOR 052200Z 11006KT 9999 FEW010 SCT020 FEW025CB BKN035 04/02     Q1013 RMK 1CU010 3CU020 1CB025 5CU035 A2992 CB W=,
20180105_230000.002,0,RJOR,,,,0,20180105230000,-1,-1,-1,-1,230,-1,14,-1,-1,-1,-1,,9999,0,1,4,FEW 10   SCT 20   FEW 25 CB  BKN 35,1,4,1,2,1013,RJOR 052300Z 23014KT 9999 -SHRA FEW010 SCT020 FEW025CB BKN035     04/02 Q1013 RMK 1CU010 3CU020 2CB025 5CU035 A2994 CB 20KM           W MOV E=,- RA SH
20180106_000000.002,0,RJOR,,,,0,20180106000000,-1,-1,-1,-1,330,-1,24,-1,-1,-1,-1,,7000,0,1,4,FEW 10   SCT 15   FEW 25 CB  BKN 30,1,5,1,2,1015,RJOR 060000Z 33024KT 7000 -SHRA FEW010 SCT015 FEW025CB BKN030     05/02 Q1015 RMK 1CU010 3CU015 2CB025 5CU030 A2997 CB 30KM           W AND NE MOV SE=,- RA SH
20180106_010000.002,0,RJOR,,,,0,20180106010000,-1,-1,-1,-1,220,-1,8,-1,-1,170,260,,9999,0,0,4,FEW 10   SCT 20   FEW 25 CB  BKN 45,1,5,1,2,1016,RJOR 060100Z 22008KT 170V260 9999 FEW010 SCT020 FEW025CB     BKN045 05/02 Q1016 RMK 1CU010 3CU020 1CB025 5CU045 A3001           CB 20KM W MOV SE P/RR=,
20180106_020000.002,0,RJOR,,,,0,20180106020000,-1,-1,-1,-1,230,-1,8,-1,-1,-1,-1,,9999,0,0,4,FEW 10   SCT 20   FEW 25 CB  BKN 45,1,4,1,1,1016,RJOR 060200Z 23008KT 9999 FEW010 SCT020 FEW025CB BKN045 04/01     Q1016 RMK 1CU010 3CU020 1CB025 5CU045 A3001 CB 10KM E MOV           SE=,
20180106_030000.002,0,RJOR,,,,0,20180106030000,-1,-1,-1,-1,210,-1,8,-1,-1,-1,-1,,8000,0,1,4,FEW 10   SCT 20   FEW 25 CB  BKN 40,1,5,1,2,1015,RJOR 060300Z 21008KT 8000 -SHRA FEW010 SCT020 FEW025CB BKN040     05/02 Q1015 RMK 1CU010 3CU020 1CB025 5CU040 A2999 CB 10KM           W MOV SE=,- RA SH
20180106_040000.002,0,RJOR,,,,0,20180106040000,-1,-1,-1,-1,230,-1,9,-1,-1,-1,-1,,9999,0,0,3,FEW 10   SCT 25   BKN 45,1,5,1,2,1015,RJOR 060400Z 23009KT 9999 FEW010 SCT025 BKN045 05/02 Q1015 RMK     1CU010 3CU025 5CU045 A2998=,
20180106_050000.002,0,RJOR,,,,0,20180106050000,-1,-1,-1,-1,310,-1,21,-1,-1,-1,-1,,9999,0,0,3,FEW 20   SCT 30   BKN 70,1,8,-1,0,1015,RJOR 060500Z 31021KT 9999 FEW020 SCT030 BKN070 08/M00 Q1015     RMK 1CU020 3CU030 5AC070 A2998=,
20180106_060000.002,0,RJOR,,,,0,20180106060000,-1,-1,-1,-1,330,-1,20,-1,-1,-1,-1,,9999,0,0,3,FEW 20   SCT 30   BKN 45,1,8,1,3,1015,RJOR 060600Z 33020KT 9999 FEW020 SCT030 BKN045 08/03 Q1015 RMK     1CU020 3CU030 5CU045 A3000=,
20180106_070000.002,0,RJOR,,,,0,20180106070000,-1,-1,-1,-1,360,-1,24,-1,-1,-1,-1,,9999,0,1,4,FEW 15   FEW 25 CB  SCT 30   BKN 40,1,6,1,3,1016,RJOR 060700Z 36024KT 9999 VCSH FEW015 FEW025CB SCT030 BKN040     06/03 Q1016 RMK 1CU015 1CB025 3CU030 5CU040 A3003 CB 15KM           SE MOV SE=,VC SH
20180106_080000.002,0,RJOR,,,,0,20180106080000,-1,-1,-1,-1,20,-1,16,-1,-1,-1,-1,,9999,0,1,3,FEW 15   SCT 30   BKN 70,1,6,1,1,1017,RJOR 060800Z 02016KT 9999 VCSH FEW015 SCT030 BKN070 06/01     Q1017 RMK 1CU015 3CU030 5AC070 A3005=,VC SH
20180106_090000.002,0,RJOR,,,,0,20180106090000,-1,-1,-1,-1,20,-1,18,-1,-1,-1,-1,,9999,0,1,3,FEW 15   SCT 25   BKN 40,1,6,1,2,1018,RJOR 060900Z 02018KT 9999 -SHRA FEW015 SCT025 BKN040 06/02     Q1018 RMK 1CU015 3CU025 5CU040 A3006=,- RA SH
20180106_100000.002,0,RJOR,,,,0,20180106100000,-1,-1,-1,-1,20,-1,16,-1,-1,-1,-1,,9999,0,0,3,FEW 10   SCT 15   BKN 30,1,6,1,1,1018,RJOR 061000Z 02016KT 9999 FEW010 SCT015 BKN030 06/01 Q1018 RMK     1CU010 3CU015 5CU030 A3008=,
20180106_110000.002,0,RJOR,,,,0,20180106110000,-1,-1,-1,-1,20,-1,16,-1,-1,-1,-1,,9999,0,0,3,FEW 15   SCT 25   BKN 40,1,6,1,0,1019,RJOR 061100Z 02016KT 9999 FEW015 SCT025 BKN040 06/00 Q1019 RMK     1CU015 3CU025 5CU040 A3010=,
20180106_120000.002,0,RJOR,,,,0,20180106120000,-1,-1,-1,-1,330,-1,13,-1,-1,-1,-1,,8000,0,1,3,FEW 10   SCT 15   BKN 30,1,5,1,1,1020,RJOR 061200Z 33013KT 8000 -SHRA FEW010 SCT015 BKN030 05/01     Q1020 RMK 1CU010 3CU015 5CU030 A3015=,- RA SH
20180106_213000.001,0,RJOR,,,,0,20180106210000,-1,-1,-1,-1,140,-1,6,-1,-1,-1,-1,,9999,0,0,3,FEW 20   SCT 35   BKN 60,1,2,1,1,1022,RJOR 062130Z 14006KT 9999 FEW020 SCT035 BKN060 02/01 Q1022 RMK     1CU020 3CU035 5SC060 A3021=,
20180106_220000.002,0,RJOR,,,,0,20180106220000,-1,-1,-1,-1,140,-1,8,-1,-1,-1,-1,,9999,0,0,3,FEW 20   BKN 35   BKN 60,1,2,1,1,1022,RJOR 062200Z 14008KT 9999 FEW020 BKN035 BKN060 02/01 Q1022 RMK     1CU020 5CU035 6SC060 A3020=,
20180106_230000.002,0,RJOR,,,,0,20180106230000,-1,-1,-1,-1,140,-1,5,-1,-1,-1,-1,,9999,0,0,3,FEW 15   SCT 35   BKN 45,1,3,1,1,1023,RJOR 062300Z 14005KT 9999 FEW015 SCT035 BKN045 03/01 Q1023 RMK     1CU015 3CU035 5CU045 A3022=,
20180107_000000.002,0,RJOR,,,,0,20180107000000,-1,-1,-1,-1,130,-1,7,-1,-1,-1,-1,,9999,0,0,3,FEW 15   SCT 40   BKN 50,1,3,1,1,1024,RJOR 070000Z 13007KT 9999 FEW015 SCT040 BKN050 03/01 Q1024 RMK     1CU015 3CU040 5SC050 A3024=,
20180107_010000.003,0,RJOR,,,,0,20180107010000,-1,-1,-1,-1,140,-1,5,-1,-1,-1,-1,,9999,0,0,2,FEW 20   BKN 50,1,5,1,2,1024,RJOR 070100Z 14005KT 9999 FEW020 BKN050 05/02 Q1024 RMK 1CU020     5SC050 A3024=,
20180107_020000.002,0,RJOR,,,,0,20180107020000,-1,-1,-1,-1,150,-1,5,-1,-1,110,180,,9999,0,0,3,FEW 25   SCT 50   BKN -9999,1,7,1,0,1024,RJOR 070200Z 15005KT 110V180 9999 FEW025 SCT050 BKN/// 07/00     Q1024 RMK 1CU025 3SC050 A3024=,
20180107_030000.002,0,RJOR,,,,0,20180107030000,-1,-1,-1,-1,180,-1,6,-1,-1,-1,-1,,9999,0,0,3,FEW 30   BKN 45   BKN -9999,1,8,-1,1,1023,RJOR 070300Z 18006KT 9999 FEW030 BKN045 BKN/// 08/M01 Q1023     RMK 1CU030 5SC045 A3021=,
20180107_040000.002,0,RJOR,,,,0,20180107040000,-1,-1,-1,-1,150,-1,4,-1,-1,110,190,,9999,0,0,2,FEW 30   BKN 45,1,8,-1,1,1022,RJOR 070400Z 15004KT 110V190 9999 FEW030 BKN045 08/M01 Q1022     RMK 1CU030 6SC045 A3019=,
20180107_050000.002,0,RJOR,,,,0,20180107050000,-1,-1,-1,-1,160,-1,4,-1,-1,80,200,,9999,0,0,3,FEW 30   SCT 50   BKN -9999,1,8,-1,2,1022,RJOR 070500Z 16004KT 080V200 9999 FEW030 SCT050 BKN/// 08/M02     Q1022 RMK 1CU030 4SC050 A3019=,
20180107_060000.002,0,RJOR,,,,0,20180107060000,-1,-1,-1,-1,10,-1,3,-1,-1,340,50,,9999,0,0,2,FEW 30   BKN -9999,1,8,-1,2,1022,RJOR 070600Z 01003KT 340V050 9999 FEW030 BKN/// 08/M02 Q1022     RMK 1CU030 A3020=,
20180107_070000.002,0,RJOR,,,,0,20180107070000,-1,-1,-1,-1,50,-1,4,-1,-1,360,90,,9999,0,0,2,FEW 30   BKN -9999,1,7,-1,3,1021,RJOR 070700Z 05004KT 360V090 9999 FEW030 BKN/// 07/M03 Q1021     RMK 1CU030 A3018=,
20180107_080000.002,0,RJOR,,,,0,20180107080000,-1,-1,-1,-1,110,-1,4,-1,-1,-1,-1,,9999,0,0,3,FEW 30   SCT 150   BKN -9999,1,7,-1,2,1022,RJOR 070800Z 11004KT 9999 FEW030 SCT150 BKN/// 07/M02 Q1022     RMK 1CU030 3AC150 A3019=,
20180107_090000.002,0,RJOR,,,,0,20180107090000,-1,-1,-1,-1,170,-1,3,-1,-1,-1,-1,,9999,0,0,3,FEW 30   SCT 150   BKN -9999,1,5,1,1,1022,RJOR 070900Z 17003KT 9999 FEW030 SCT150 BKN/// 05/01 Q1022 RMK     1CU030 3AC150 A3018=,
20180107_100000.002,0,RJOR,,,,0,20180107100000,-1,-1,-1,-1,120,-1,6,-1,-1,-1,-1,,9999,0,0,3,FEW 30   SCT 150   BKN -9999,1,5,1,1,1022,RJOR 071000Z 12006KT 9999 FEW030 SCT150 BKN/// 05/01 Q1022 RMK     1CU030 3AC150 A3019=,
20180107_110000.002,0,RJOR,,,,0,20180107110000,-1,-1,-1,-1,140,-1,5,-1,-1,-1,-1,,9999,0,0,3,FEW 30   SCT 150   BKN -9999,1,5,1,1,1021,RJOR 071100Z 14005KT 9999 FEW030 SCT150 BKN/// 05/01 Q1021 RMK     1CU030 3AC150 A3018=,
20180107_120000.003,0,RJOR,,,,0,20180107120000,-1,-1,-1,-1,130,-1,8,-1,-1,-1,-1,,9999,0,0,3,FEW 30   SCT 120   BKN 150,1,4,1,1,1020,RJOR 071200Z 13008KT 9999 FEW030 SCT120 BKN150 04/01 Q1020 RMK     1CU030 3AC120 5AC150 A3015=,
20180107_213000.001,0,RJOR,,,,0,20180107210000,-1,-1,-1,-1,130,-1,17,-1,-1,-1,-1,,9999,0,1,3,FEW 15   SCT 50   BKN 60,1,6,1,2,1015,RJOR 072130Z 13017KT 9999 -RA FEW015 SCT050 BKN060 06/02 Q1015     RMK 1CU015 3SC050 6SC060 A2998=,- RA
20180107_220000.002,0,RJOR,,,,0,20180107220000,-1,-1,-1,-1,140,-1,10,-1,-1,-1,-1,,9999,0,1,3,FEW 15   SCT 50   BKN 60,1,6,1,2,1014,RJOR 072200Z 14010KT 9999 -RA FEW015 SCT050 BKN060 06/02 Q1014     RMK 1CU015 3SC050 6SC060 A2997=,- RA
20180107_230000.002,0,RJOR,,,,0,20180107230000,-1,-1,-1,-1,130,-1,9,-1,-1,-1,-1,,9999,0,1,3,FEW 10   SCT 50   BKN 60,1,6,1,3,1014,RJOR 072300Z 13009KT 9999 -RA FEW010 SCT050 BKN060 06/03 Q1014     RMK 1CU010 3SC050 6SC060 A2994=,- RA
20180108_000000.002,0,RJOR,,,,0,20180108000000,-1,-1,-1,-1,130,-1,12,-1,-1,-1,-1,,9999,0,0,3,FEW 10   SCT 25   BKN 80,1,8,1,5,1011,RJOR 080000Z 13012KT 9999 FEW010 SCT025 BKN080 08/05 Q1011 RMK     1CU010 3CU025 5AC080 A2987 P/FR=,
20180108_010000.002,0,RJOR,,,,0,20180108010000,-1,-1,-1,-1,150,-1,16,-1,29,-1,-1,,9999,0,1,3,FEW 10   SCT 20   BKN 80,1,10,1,6,1010,RJOR 080100Z 15016G29KT 9999 -RA FEW010 SCT020 BKN080 10/06     Q1010 RMK 1CU010 3CU020 5AC080 A2984=,- RA
20180108_020000.002,0,RJOR,,,,0,20180108020000,-1,-1,-1,-1,160,-1,20,-1,32,-1,-1,,9999,0,1,3,FEW 15   SCT 25   BKN 80,1,11,1,5,1009,RJOR 080200Z 16020G32KT 9999 -RA FEW015 SCT025 BKN080 11/05     Q1009 RMK 1CU015 3CU025 5AC080 A2980=,- RA
20180108_030000.002,0,RJOR,,,,0,20180108030000,-1,-1,-1,-1,170,-1,21,-1,33,-1,-1,,9999,0,0,3,FEW 15   SCT 25   BKN 100,1,12,1,5,1005,RJOR 080300Z 17021G33KT 9999 FEW015 SCT025 BKN100 12/05 Q1005     RMK 1CU015 3CU025 5AC100 A2970 P/FR=,
20180108_040000.002,0,RJOR,,,,0,20180108040000,-1,-1,-1,-1,180,-1,17,-1,-1,-1,-1,,9999,0,1,3,FEW 10   SCT 60   BKN 100,1,12,1,6,1005,RJOR 080400Z 18017KT 9999 VCSH FEW010 SCT060 BKN100 12/06     Q1005 RMK 1CU010 3SC060 5AC100 A2969=,VC SH
20180108_050000.002,0,RJOR,,,,0,20180108050000,-1,-1,-1,-1,180,-1,12,-1,-1,-1,-1,,9999,0,1,4,FEW 15   FEW 20 CB  SCT 25   BKN 50,1,12,1,7,1004,RJOR 080500Z 18012KT 9999 -SHRA FEW015 FEW020CB SCT025 BKN050     12/07 Q1004 RMK 1CU015 1CB020 3CU025 5SC050 A2966 CB 20KM           N MOV NE=,- RA SH
20180108_060000.003,0,RJOR,,,,0,20180108060000,-1,-1,-1,-1,160,-1,16,-1,-1,-1,-1,,9999,0,1,3,FEW 15   SCT 25   BKN 80,1,13,1,7,1003,RJOR 080600Z 16016KT 9999 -SHRA FEW015 SCT025 BKN080 13/07     Q1003 RMK 1CU015 3CU025 5AC080 A2962=,- RA SH
20180108_070000.002,0,RJOR,,,,0,20180108070000,-1,-1,-1,-1,270,-1,5,-1,-1,230,300,,9999,0,0,3,FEW 20   SCT 60   BKN 80,1,12,1,8,1003,RJOR 080700Z 27005KT 230V300 9999 FEW020 SCT060 BKN080 12/08     Q1003 RMK 1CU020 3SC060 6AC080 A2964=,
20180108_080000.002,0,RJOR,,,,0,20180108080000,-1,-1,-1,-1,999,-1,2,-1,-1,-1,-1,,9999,0,0,3,FEW 20   SCT 70   BKN 120,1,12,1,8,1003,RJOR 080800Z VRB02KT 9999 FEW020 SCT070 BKN120 12/08 Q1003 RMK     1CU020 3AC070 5AC120 A2962=,
20180108_090000.002,0,RJOR,,,,0,20180108090000,-1,-1,-1,-1,999,-1,1,-1,-1,-1,-1,,9999,0,0,3,FEW 20   SCT 45   BKN 100,1,12,1,8,1003,RJOR 080900Z VRB01KT 9999 FEW020 SCT045 BKN100 12/08 Q1003 RMK     1CU020 3CU045 5AC100 A2962=,
20180108_100000.002,0,RJOR,,,,0,20180108100000,-1,-1,-1,-1,999,-1,2,-1,-1,-1,-1,,9999,0,0,3,FEW 15   SCT 45   BKN 100,1,11,1,8,1001,RJOR 081000Z VRB02KT 9999 FEW015 SCT045 BKN100 11/08 Q1001 RMK     1CU015 3CU045 5AC100 A2957 P/FR=,
20180108_110000.002,0,RJOR,,,,0,20180108110000,-1,-1,-1,-1,170,-1,7,-1,-1,-1,-1,,9999,0,1,3,FEW 15   SCT 45   BKN 100,1,10,1,8,1001,RJOR 081100Z 17007KT 9999 -SHRA FEW015 SCT045 BKN100 10/08     Q1001 RMK 1CU015 3CU045 5AC100 A2957=,- RA SH
20180108_120000.002,0,RJOR,,,,0,20180108120000,-1,-1,-1,-1,200,-1,8,-1,-1,150,240,,9999,0,1,3,FEW 15   SCT 45   BKN 70,1,13,1,9,1000,RJOR 081200Z 20008KT 150V240 9999 -SHRA FEW015 SCT045 BKN070     13/09 Q1000 RMK 1CU015 3CU045 5AC070 A2955=,- RA SH
20180108_213000.001,0,RJOR,,,,0,20180108210000,-1,-1,-1,-1,250,-1,19,-1,-1,-1,-1,,9999,0,1,3,FEW 15   SCT 20   BKN 40,1,7,1,2,1003,RJOR 082130Z 25019KT 9999 -SHRA FEW015 SCT020 BKN040 07/02     Q1003 RMK 1CU015 3CU020 5CU040 A2963=,- RA SH
20180108_220000.002,0,RJOR,,,,0,20180108220000,-1,-1,-1,-1,220,-1,10,-1,-1,-1,-1,,9999,0,1,3,FEW 10   SCT 20   BKN 30,1,6,1,3,1003,RJOR 082200Z 22010KT 9999 -SHRA FEW010 SCT020 BKN030 06/03     Q1003 RMK 1CU010 3CU020 5CU030 A2963=,- RA SH
20180108_230000.003,0,RJOR,,,,0,20180108230000,-1,-1,-1,-1,230,-1,15,-1,-1,-1,-1,,9999,0,0,3,FEW 15   SCT 30   BKN 70,1,6,1,1,1003,RJOR 082300Z 23015KT 9999 FEW015 SCT030 BKN070 06/01 Q1003 RMK     1CU015 3CU030 5AC070 A2964=,
20180109_000000.002,0,RJOR,,,,0,20180109000000,-1,-1,-1,-1,240,-1,20,-1,32,-1,-1,,9999,0,1,3,FEW 10   SCT 20   BKN 30,1,5,1,0,1004,RJOR 090000Z 24020G32KT 9999 -SHRA FEW010 SCT020 BKN030 05/00     Q1004 RMK 1CU010 3CU020 5CU030 A2967=,- RA SH
20180109_010000.002,0,RJOR,,,,0,20180109010000,-1,-1,-1,-1,250,-1,24,-1,34,-1,-1,,9999,0,1,3,FEW 15   SCT 30   BKN 45,1,5,-1,1,1005,RJOR 090100Z 25024G34KT 9999 -SHRA FEW015 SCT030 BKN045 05/M01     Q1005 RMK 1CU015 3CU030 5CU045 A2970=,- RA SH
20180109_020000.002,0,RJOR,,,,0,20180109020000,-1,-1,-1,-1,240,-1,20,-1,34,-1,-1,,9999,0,1,3,FEW 10   SCT 20   BKN 40,1,4,-1,1,1005,RJOR 090200Z 24020G34KT 9999 -SHRA FEW010 SCT020 BKN040 04/M01     Q1005 RMK 1CU010 3CU020 5CU040 A2970=,- RA SH
20180109_030000.002,0,RJOR,,,,0,20180109030000,-1,-1,-1,-1,240,-1,23,-1,35,-1,-1,,8000,0,1,3,FEW 8   SCT 15   BKN 30,1,4,-1,1,1005,RJOR 090300Z 24023G35KT 8000 -SHRASN FEW008 SCT015 BKN030     04/M01 Q1005 RMK 1ST008 3CU015 5CU030 A2970=,- RA SN SH
20180109_040000.002,0,RJOR,,,,0,20180109040000,-1,-1,-1,-1,240,-1,22,-1,-1,-1,-1,,9999,0,1,3,FEW 10   SCT 20   BKN 30,1,5,-1,4,1005,RJOR 090400Z 24022KT 9999 -SHSN FEW010 SCT020 BKN030 05/M04     Q1005 RMK 1CU010 3CU020 5CU030 A2970=,- SN SH
20180109_050000.002,0,RJOR,,,,0,20180109050000,-1,-1,-1,-1,240,-1,16,-1,26,-1,-1,,9999,0,1,3,FEW 10   SCT 20   BKN 30,1,4,-1,3,1006,RJOR 090500Z 24016G26KT 9999 -SHSN FEW010 SCT020 BKN030 04/M03     Q1006 RMK 1CU010 3CU020 5CU030 A2972=,- SN SH
20180109_060000.002,0,RJOR,,,,0,20180109060000,-1,-1,-1,-1,260,-1,25,-1,40,-1,-1,,9999,0,1,3,FEW 15   SCT 25   BKN 40,1,5,-1,6,1007,RJOR 090600Z 26025G40KT 9999 -SHSN FEW015 SCT025 BKN040 05/M06     Q1007 RMK 1CU015 3CU025 5CU040 A2974=,- SN SH
20180109_070000.002,0,RJOR,,,,0,20180109070000,-1,-1,-1,-1,250,-1,18,-1,29,-1,-1,,9999,0,1,3,FEW 20   SCT 30   BKN 40,1,5,-1,6,1008,RJOR 090700Z 25018G29KT 9999 VCSH FEW020 SCT030 BKN040 05/M06     Q1008 RMK 1CU020 3CU030 5CU040 A2977=,VC SH
20180109_080000.002,0,RJOR,,,,0,20180109080000,-1,-1,-1,-1,270,-1,27,-1,-1,-1,-1,,9999,0,1,3,FEW 20   SCT 30   BKN 40,1,5,-1,5,1008,RJOR 090800Z 27027KT 9999 VCSH FEW020 SCT030 BKN040 05/M05     Q1008 RMK 1CU020 3CU030 5CU040 A2978=,VC SH
20180109_090000.002,0,RJOR,,,,0,20180109090000,-1,-1,-1,-1,230,-1,15,-1,-1,-1,-1,,9999,0,1,3,FEW 15   SCT 25   BKN 40,1,4,-1,6,1009,RJOR 090900Z 23015KT 9999 -SHSN FEW015 SCT025 BKN040 04/M06     Q1009 RMK 1CU015 3CU025 5CU040 A2982=,- SN SH
20180109_100000.002,0,RJOR,,,,0,20180109100000,-1,-1,-1,-1,220,-1,12,-1,-1,-1,-1,,9999,0,0,3,FEW 20   SCT 40   BKN 60,1,4,-1,5,1010,RJOR 091000Z 22012KT 9999 FEW020 SCT040 BKN060 04/M05 Q1010     RMK 1CU020 3CU040 5SC060 A2984=,
20180109_110000.002,0,RJOR,,,,0,20180109110000,-1,-1,-1,-1,230,-1,12,-1,-1,200,270,,9999,0,1,3,FEW 10   SCT 20   BKN 30,1,4,-1,5,1011,RJOR 091100Z 23012KT 200V270 9999 -SHSN FEW010 SCT020 BKN030     04/M05 Q1011 RMK 1CU010 3CU020 5CU030 A2986=,- SN SH
20180109_120000.002,0,RJOR,,,,0,20180109120000,-1,-1,-1,-1,220,-1,9,-1,-1,-1,-1,,9999,0,0,3,FEW 20   SCT 40   BKN 60,1,4,-1,6,1011,RJOR 091200Z 22009KT 9999 FEW020 SCT040 BKN060 04/M06 Q1011     RMK 1CU020 3CU040 5SC060 A2985=,
20180109_213000.001,0,RJOR,,,,0,20180109210000,-1,-1,-1,-1,210,-1,6,-1,-1,-1,-1,,9999,0,0,2,FEW 20   SCT 40,1,2,-1,1,1012,RJOR 092130Z 21006KT 9999 FEW020 SCT040 02/M01 Q1012 RMK     1CU020 4CU040 A2989=,
20180109_220000.002,0,RJOR,,,,0,20180109220000,-1,-1,-1,-1,150,-1,6,-1,-1,-1,-1,,9999,0,0,2,FEW 15   SCT 40,1,2,-1,1,1011,RJOR 092200Z 15006KT 9999 FEW015 SCT040 02/M01 Q1011 RMK     1CU015 4CU040 A2988=,
20180109_230000.002,0,RJOR,,,,0,20180109230000,-1,-1,-1,-1,170,-1,5,-1,-1,130,200,,9999,0,1,1,FEW 15,1,2,-1,2,1011,RJOR 092300Z 17005KT 130V200 9999 VCSH FEW015 02/M02 Q1011 RMK     2CU015 A2988=,VC SH
20180110_000000.002,0,RJOR,,,,0,20180110000000,-1,-1,-1,-1,230,-1,7,-1,-1,-1,-1,,9999,0,1,2,FEW 10   BKN 25,1,3,-1,2,1012,RJOR 100000Z 23007KT 9999 -SHSN FEW010 BKN025 03/M02 Q1012 RMK     2CU010 5CU025 A2990=,- SN SH
20180110_010000.002,0,RJOR,,,,0,20180110010000,-1,-1,-1,-1,230,-1,8,-1,-1,-1,-1,,9999,0,1,3,FEW 10   SCT 20   BKN 40,1,4,-1,2,1012,RJOR 100100Z 23008KT 9999 -SHRA FEW010 SCT020 BKN040 04/M02     Q1012 RMK 1CU010 3CU020 5SC040 A2989=,- RA SH
20180110_020000.002,0,RJOR,,,,0,20180110020000,-1,-1,-1,-1,220,-1,11,-1,-1,190,260,,9999,0,0,3,FEW 10   SCT 20   BKN 40,1,5,-1,3,1011,RJOR 100200Z 22011KT 190V260 9999 FEW010 SCT020 BKN040 05/M03     Q1011 RMK 1CU010 3CU020 5SC040 A2987=,
20180110_030000.002,0,RJOR,,,,0,20180110030000,-1,-1,-1,-1,230,-1,11,-1,-1,-1,-1,,9999,0,1,3,FEW 10   SCT 20   BKN 30,1,4,-1,2,1010,RJOR 100300Z 23011KT 9999 -SHRA FEW010 SCT020 BKN030 04/M02     Q1010 RMK 1CU010 3CU020 5CU030 A2985=,- RA SH
20180110_040000.003,0,RJOR,,,,0,20180110040000,-1,-1,-1,-1,230,-1,10,-1,-1,200,260,,9999,0,0,2,FEW 10   BKN 25,1,5,-1,2,1010,RJOR 100400Z 23010KT 200V260 9999 FEW010 BKN025 05/M02 Q1010     RMK 1CU010 6CU025 A2983=,
20180110_050000.002,0,RJOR,,,,0,20180110050000,-1,-1,-1,-1,260,-1,17,-1,-1,-1,-1,,9999,0,1,3,FEW 10   SCT 20   BKN 40,1,4,-1,2,1010,RJOR 100500Z 26017KT 9999 -SHRA FEW010 SCT020 BKN040 04/M02     Q1010 RMK 1CU010 3CU020 5SC040 A2983=,- RA SH
20180110_060000.002,0,RJOR,,,,0,20180110060000,-1,-1,-1,-1,250,-1,16,-1,-1,-1,-1,,9999,0,1,3,FEW 10   SCT 20   BKN 35,1,3,-1,1,1011,RJOR 100600Z 25016KT 9999 -SHRA FEW010 SCT020 BKN035 03/M01     Q1011 RMK 2CU010 3CU020 5SC035 A2986=,- RA SH
20180110_070000.002,0,RJOR,,,,0,20180110070000,-1,-1,-1,-1,270,-1,20,-1,-1,-1,-1,,1000,1,1,3,FEW 3   SCT 8   BKN 10,1,1,-1,1,1012,RJOR 100700Z 27020KT 1000 R10/1000V1500U -SHSN FEW003 SCT008     BKN010 01/M01 Q1012 RMK 1ST003 3ST008 5CU010 A2989=,- SN SH
20180110_080000.002,0,RJOR,,,,0,20180110080000,-1,-1,-1,-1,250,-1,12,-1,-1,-1,-1,,5000,0,1,3,FEW 5   SCT 8   BKN 15,1,1,-1,1,1012,RJOR 100800Z 25012KT 5000 -SHSN FEW005 SCT008 BKN015 01/M01     Q1012 RMK 1ST005 3ST008 5CU015 A2989=,- SN SH
20180110_090000.002,0,RJOR,,,,0,20180110090000,-1,-1,-1,-1,250,-1,10,-1,-1,-1,-1,,3000,0,1,3,FEW 3   SCT 8   BKN 10,1,0,-1,1,1013,RJOR 100900Z 25010KT 3000 -SHSN FEW003 SCT008 BKN010 00/M01     Q1013 RMK 1ST003 3ST008 5CU010 A2992=,- SN SH
20180110_100000.002,0,RJOR,,,,0,20180110100000,-1,-1,-1,-1,230,-1,14,-1,-1,-1,-1,,1500,1,1,3,FEW 3   SCT 8   BKN 15,1,0,-1,1,1013,RJOR 101000Z 23014KT 1500 R10/1000VP1800D -SHSN FEW003 SCT008     BKN015 00/M01 Q1013 RMK 1ST003 3ST008 5CU015 A2994=,- SN SH
20180110_110000.002,0,RJOR,,,,0,20180110110000,-1,-1,-1,-1,220,-1,12,-1,-1,-1,-1,,3000,0,1,3,FEW 5   SCT 8   BKN 15,1,0,-1,1,1013,RJOR 101100Z 22012KT 3000 -SHSN FEW005 SCT008 BKN015 00/M01     Q1013 RMK 1ST005 3ST008 5CU015 A2994=,- SN SH
20180110_120000.002,0,RJOR,,,,0,20180110120000,-1,-1,-1,-1,240,-1,11,-1,21,-1,-1,,1500,1,1,3,FEW 3   SCT 8   BKN 15,1,0,-1,2,1014,RJOR 101200Z 24011G21KT 1500 R10/P1800N -SHSN FEW003 SCT008     BKN015 00/M02 Q1014 RMK 1ST003 3ST008 5CU015 A2995=,- SN SH
20180110_213000.001,0,RJOR,,,,0,20180110210000,-1,-1,-1,-1,230,-1,14,-1,24,-1,-1,,9999,0,0,3,FEW 15   SCT 25   BKN 70,-1,2,-1,9,1017,RJOR 102130Z 23014G24KT 9999 FEW015 SCT025 BKN070 M02/M09     Q1017 RMK 1CU015 3CU025 5AC070 A3005=,
20180110_220000.002,0,RJOR,,,,0,20180110220000,-1,-1,-1,-1,210,-1,10,-1,-1,-1,-1,,9999,0,0,3,FEW 15   SCT 25   BKN 60,-1,1,-1,9,1017,RJOR 102200Z 21010KT 9999 FEW015 SCT025 BKN060 M01/M09 Q1017     RMK 1CU015 3CU025 5SC060 A3006=,
20180110_230000.003,0,RJOR,,,,0,20180110230000,-1,-1,-1,-1,220,-1,9,-1,-1,-1,-1,,9999,0,1,3,FEW 15   SCT 25   BKN 60,-1,1,-1,9,1018,RJOR 102300Z 22009KT 9999 VCSH FEW015 SCT025 BKN060 M01/M09     Q1018 RMK 1CU015 3CU025 5SC060 A3006=,VC SH
20180111_000000.002,0,RJOR,,,,0,20180111000000,-1,-1,-1,-1,220,-1,9,-1,-1,-1,-1,,9999,0,1,3,FEW 15   SCT 25   BKN 60,-1,0,-1,9,1018,RJOR 110000Z 22009KT 9999 VCSH FEW015 SCT025 BKN060 M00/M09     Q1018 RMK 1CU015 3CU025 5SC060 A3009=,VC SH
20180111_010000.002,0,RJOR,,,,0,20180111010000,-1,-1,-1,-1,240,-1,9,-1,-1,200,260,,9999,0,1,3,FEW 15   SCT 30   BKN 60,1,0,-1,10,1019,RJOR 110100Z 24009KT 200V260 9999 VCSH FEW015 SCT030 BKN060     00/M10 Q1019 RMK 1CU015 3CU030 5SC060 A3009=,VC SH
20180111_020000.002,0,RJOR,,,,0,20180111020000,-1,-1,-1,-1,250,-1,15,-1,25,210,270,,9999,0,0,2,FEW 15   SCT 30,1,1,-1,9,1018,RJOR 110200Z 25015G25KT 210V270 9999 FEW015 SCT030 01/M09     Q1018 RMK 1CU015 3CU030 A3009=,
20180111_030000.001,0,RJOR,,,,0,20180111030000,-1,-1,-1,-1,250,-1,17,-1,-1,-1,-1,,9999,0,0,2,FEW 20   SCT 30,1,1,-1,10,1018,RJOR 110300Z 25017KT 9999 FEW020 SCT030 01/M10 Q1018 RMK     1CU020 3CU030 A3008=,
20180111_040000.002,0,RJOR,,,,0,20180111040000,-1,-1,-1,-1,240,-1,19,-1,-1,-1,-1,,9999,0,0,2,FEW 20   SCT 40,1,1,-1,10,1018,RJOR 110400Z 24019KT 9999 FEW020 SCT040 01/M10 Q1018 RMK     1CU020 3CU040 A3007=,
20180111_050000.002,0,RJOR,,,,0,20180111050000,-1,-1,-1,-1,230,-1,15,-1,-1,-1,-1,,9999,0,1,1,FEW 20,1,1,-1,8,1018,RJOR 110500Z 23015KT 9999 VCSH FEW020 01/M08 Q1018 RMK 2CU020     A3008=,VC SH
20180111_060000.002,0,RJOR,,,,0,20180111060000,-1,-1,-1,-1,240,-1,19,-1,-1,-1,-1,,9999,0,1,1,FEW 20,-1,0,-1,9,1019,RJOR 110600Z 24019KT 9999 -SHRASN FEW020 M00/M09 Q1019 RMK     2CU020 A3009=,- RA SN SH
20180111_070000.002,0,RJOR,,,,0,20180111070000,-1,-1,-1,-1,240,-1,16,-1,-1,-1,-1,,9999,0,0,1,FEW 20,-1,0,-1,8,1019,RJOR 110700Z 24016KT 9999 FEW020 M00/M08 Q1019 RMK 2CU020     A3010=,
20180111_080000.002,0,RJOR,,,,0,20180111080000,-1,-1,-1,-1,220,-1,10,-1,-1,-1,-1,,9999,0,0,1,FEW 20,-1,1,-1,7,1019,RJOR 110800Z 22010KT 9999 FEW020 M01/M07 Q1019 RMK 2CU020     A3010=,
20180111_090000.002,0,RJOR,,,,0,20180111090000,-1,-1,-1,-1,230,-1,9,-1,-1,-1,-1,,9999,0,0,1,FEW 20,-1,1,-1,7,1019,RJOR 110900Z 23009KT 9999 FEW020 M01/M07 Q1019 RMK 2CU020     A3012=,
20180111_100000.002,0,RJOR,,,,0,20180111100000,-1,-1,-1,-1,220,-1,9,-1,-1,-1,-1,,9999,0,0,1,FEW 20,-1,1,-1,8,1020,RJOR 111000Z 22009KT 9999 FEW020 M01/M08 Q1020 RMK 2CU020     A3013=,
20180111_110000.002,0,RJOR,,,,0,20180111110000,-1,-1,-1,-1,220,-1,9,-1,-1,-1,-1,,9999,0,0,1,FEW 20,-1,2,-1,8,1020,RJOR 111100Z 22009KT 9999 FEW020 M02/M08 Q1020 RMK 2CU020     A3014=,
20180111_120000.002,0,RJOR,,,,0,20180111120000,-1,-1,-1,-1,220,-1,10,-1,-1,-1,-1,,9999,0,0,1,FEW 20,-1,2,-1,9,1021,RJOR 111200Z 22010KT 9999 FEW020 M02/M09 Q1021 RMK 2CU020     A3015=,
20180111_213000.001,0,RJOR,,,,0,20180111210000,-1,-1,-1,-1,220,-1,8,-1,-1,-1,-1,,9999,0,0,1,FEW 20,-1,1,-1,9,1022,RJOR 112130Z 22008KT 9999 FEW020 M01/M09 Q1022 RMK 1CU020     A3019=,
20180111_220000.002,0,RJOR,,,,0,20180111220000,-1,-1,-1,-1,230,-1,14,-1,-1,-1,-1,,9999,0,0,1,FEW 20,-1,1,-1,9,1022,RJOR 112200Z 23014KT 9999 FEW020 M01/M09 Q1022 RMK 2CU020     A3020=,
20180111_230000.002,0,RJOR,,,,0,20180111230000,-1,-1,-1,-1,230,-1,18,-1,-1,-1,-1,,9999,0,1,1,FEW 20,-1,1,-1,8,1023,RJOR 112300Z 23018KT 9999 -SHSN FEW020 M01/M08 Q1023 RMK     2CU020 A3022=,- SN SH
20180112_000000.002,0,RJOR,,,,0,20180112000000,-1,-1,-1,-1,230,-1,17,-1,-1,-1,-1,,9999,0,0,1,FEW 20,1,0,-1,9,1024,RJOR 120000Z 23017KT 9999 FEW020 00/M09 Q1024 RMK 1CU020     A3024=,
20180112_010000.003,0,RJOR,,,,0,20180112010000,-1,-1,-1,-1,230,-1,13,-1,-1,-1,-1,,9999,0,0,1,FEW 20,1,1,-1,8,1024,RJOR 120100Z 23013KT 9999 FEW020 01/M08 Q1024 RMK 1CU020     A3026=,
20180112_020000.002,0,RJOR,,,,0,20180112020000,-1,-1,-1,-1,240,-1,10,-1,-1,200,280,,9999,0,0,1,FEW 20,1,2,-1,9,1024,RJOR 120200Z 24010KT 200V280 9999 FEW020 02/M09 Q1024 RMK     1CU020 A3024=,
20180112_030000.002,0,RJOR,,,,0,20180112030000,-1,-1,-1,-1,250,-1,16,-1,-1,-1,-1,,9999,0,0,2,FEW 20   SCT 40,1,2,-1,8,1023,RJOR 120300Z 25016KT 9999 FEW020 SCT040 02/M08 Q1023 RMK     1CU020 3CU040 A3022=,
20180112_040000.002,0,RJOR,,,,0,20180112040000,-1,-1,-1,-1,240,-1,15,-1,-1,-1,-1,,9999,0,0,1,FEW 20,1,3,-1,8,1023,RJOR 120400Z 24015KT 9999 FEW020 03/M08 Q1023 RMK 2CU020     A3021=,
20180112_050000.003,0,RJOR,,,,0,20180112050000,-1,-1,-1,-1,260,-1,19,-1,-1,-1,-1,,9999,0,0,2,FEW 20   SCT 60,1,3,-1,6,1023,RJOR 120500Z 26019KT 9999 FEW020 SCT060 03/M06 Q1023 RMK     2CU020 3SC060 A3021=,
20180112_060000.002,0,RJOR,,,,0,20180112060000,-1,-1,-1,-1,260,-1,13,-1,-1,-1,-1,,9999,0,0,1,FEW 20,1,3,-1,7,1023,RJOR 120600Z 26013KT 9999 FEW020 03/M07 Q1023 RMK 1CU020     A3022=,
20180112_070000.003,0,RJOR,,,,0,20180112070000,-1,-1,-1,-1,250,-1,16,-1,-1,-1,-1,,9999,0,0,1,FEW 20,1,3,-1,8,1023,RJOR 120700Z 25016KT 9999 FEW020 03/M08 Q1023 RMK 1CU020     A3022=,
20180112_080000.002,0,RJOR,,,,0,20180112080000,-1,-1,-1,-1,240,-1,10,-1,-1,-1,-1,,9999,0,0,1,FEW 20,1,2,-1,8,1023,RJOR 120800Z 24010KT 9999 FEW020 02/M08 Q1023 RMK 1CU020     A3023=,
20180112_090000.002,0,RJOR,,,,0,20180112090000,-1,-1,-1,-1,210,-1,5,-1,-1,180,240,,9999,0,0,1,FEW 20,1,1,-1,8,1024,RJOR 120900Z 21005KT 180V240 9999 FEW020 01/M08 Q1024 RMK     1CU020 A3026=,
20180112_100000.002,0,RJOR,,,,0,20180112100000,-1,-1,-1,-1,220,-1,6,-1,-1,190,310,,9999,0,0,1,FEW 20,1,0,-1,7,1025,RJOR 121000Z 22006KT 190V310 9999 FEW020 00/M07 Q1025 RMK     1CU020 A3028=,
20180112_110000.002,0,RJOR,,,,0,20180112110000,-1,-1,-1,-1,180,-1,5,-1,-1,-1,-1,,9999,0,0,1,FEW 20,1,0,-1,8,1025,RJOR 121100Z 18005KT 9999 FEW020 00/M08 Q1025 RMK 1CU020     A3028=,
20180112_120000.002,0,RJOR,,,,0,20180112120000,-1,-1,-1,-1,140,-1,5,-1,-1,-1,-1,,9999,0,0,1,FEW 20,-1,1,-1,8,1025,RJOR 121200Z 14005KT 9999 FEW020 M01/M08 Q1025 RMK 1CU020     A3029=,
20180112_213000.001,0,RJOR,,,,0,20180112210000,-1,-1,-1,-1,140,-1,5,-1,-1,-1,-1,,9999,0,0,2,FEW 15   SCT 60,-1,3,-1,7,1025,RJOR 122130Z 14005KT 9999 FEW015 SCT060 M03/M07 Q1025 RMK     1CU015 3SC060 A3027=,
20180112_220000.002,0,RJOR,,,,0,20180112220000,-1,-1,-1,-1,140,-1,7,-1,-1,120,190,,9999,0,0,1,FEW 15,-1,3,-1,8,1025,RJOR 122200Z 14007KT 120V190 9999 FEW015 M03/M08 Q1025 RMK     1CU015 A3027=,
20180112_230000.002,0,RJOR,,,,0,20180112230000,-1,-1,-1,-1,130,-1,7,-1,-1,-1,-1,,9999,0,0,2,FEW 15   SCT 50,-1,2,-1,8,1025,RJOR 122300Z 13007KT 9999 FEW015 SCT050 M02/M08 Q1025 RMK     1CU015 3SC050 A3028=,
20180113_000000.002,0,RJOR,,,,0,20180113000000,-1,-1,-1,-1,240,-1,13,-1,-1,-1,-1,,9999,0,1,2,FEW 15   BKN 40,1,1,-1,5,1025,RJOR 130000Z 24013KT 9999 -SHSN FEW015 BKN040 01/M05 Q1025 RMK     1CU015 5CU040 A3029=,- SN SH
20180113_010000.003,0,RJOR,,,,0,20180113010000,-1,-1,-1,-1,170,-1,8,-1,-1,140,210,,9999,0,1,2,FEW 15   SCT 45,1,3,-1,4,1026,RJOR 130100Z 17008KT 140V210 9999 VCSH FEW015 SCT045 03/M04     Q1026 RMK 1CU015 3CU045 A3030=,VC SH
20180113_020000.002,0,RJOR,,,,0,20180113020000,-1,-1,-1,-1,260,-1,22,-1,-1,-1,-1,,2000,0,1,4,FEW 5   SCT 10   BKN 20   FEW 25 CB,1,1,-1,3,1026,RJOR 130200Z 26022KT 2000 -SHSN FEW005 SCT010 BKN020 FEW025CB     01/M03 Q1026 RMK 1ST005 3CU010 5CU020 1CB025 A3031 CB           15KM NW MOV E=,- SN SH
20180113_030000.002,0,RJOR,,,,0,20180113030000,-1,-1,-1,-1,250,-1,13,-1,-1,-1,-1,,3000,0,1,3,FEW 5   SCT 10   BKN 20,1,1,-1,2,1025,RJOR 130300Z 25013KT 3000 -SHSN FEW005 SCT010 BKN020 01/M02     Q1025 RMK 1ST005 3CU010 5CU020 A3029=,- SN SH
20180113_040000.002,0,RJOR,,,,0,20180113040000,-1,-1,-1,-1,240,-1,10,-1,-1,-1,-1,,5000,0,1,3,FEW 8   SCT 15   BKN 25,1,2,-1,2,1025,RJOR 130400Z 24010KT 5000 -SHSN FEW008 SCT015 BKN025 02/M02     Q1025 RMK 1ST008 3CU015 5CU025 A3028=,- SN SH
20180113_050000.002,0,RJOR,,,,0,20180113050000,-1,-1,-1,-1,240,-1,11,-1,-1,-1,-1,,2000,1,1,3,FEW 5   SCT 15 CB  BKN 25,1,1,-1,2,1025,RJOR 130500Z 24011KT 2000 R10/1300VP1800D -SHSNGS FEW005     SCT015CB BKN025 01/M02 Q1025 RMK 1ST005 3CB015 5CU025           A3029 CB OHD MOV SE SNOW PELLETS=,- SN GS SH
20180113_060000.002,0,RJOR,,,,0,20180113060000,-1,-1,-1,-1,260,-1,10,-1,-1,-1,-1,,3000,0,1,4,FEW 5   FEW 15 CB  SCT 20   BKN 25,1,1,-1,1,1026,RJOR 130600Z 26010KT 3000 -SHSN FEW005 FEW015CB SCT020 BKN025     01/M01 Q1026 RMK 1ST005 2CB015 3CU020 5CU025 A3031           6000NW-N CB 10KM NW AND N MOV SE=,- SN SH
20180113_070000.002,0,RJOR,,,,0,20180113070000,-1,-1,-1,-1,280,-1,20,-1,-1,-1,-1,,5000,0,1,4,FEW 5   FEW 15 CB  SCT 20   BKN 25,1,2,1,0,1026,RJOR 130700Z 28020KT 5000 -SHSN FEW005 FEW015CB SCT020 BKN025     02/00 Q1026 RMK 1ST005 1CB015 3CU020 5CU025 A3031           9999NW-N CB 20KM NW MOV SE=,- SN SH
20180113_080000.002,0,RJOR,,,,0,20180113080000,-1,-1,-1,-1,240,-1,13,-1,-1,-1,-1,,7000,0,1,3,FEW 8   SCT 20   BKN 30,1,1,-1,1,1026,RJOR 130800Z 24013KT 7000 -SHSN FEW008 SCT020 BKN030 01/M01     Q1026 RMK 1ST008 3CU020 5CU030 A3032=,- SN SH
20180113_090000.002,0,RJOR,,,,0,20180113090000,-1,-1,-1,-1,240,-1,12,-1,-1,-1,-1,,9999,0,0,3,FEW 8   FEW 20 CB  SCT 35,1,1,-1,1,1027,RJOR 130900Z 24012KT 9999 FEW008 FEW020CB SCT035 01/M01 Q1027     RMK 1ST008 2CB020 4CU035 A3033 CB 25KM SW AND W MOV SE=,
20180113_100000.002,0,RJOR,,,,0,20180113100000,-1,-1,-1,-1,300,-1,24,-1,-1,-1,-1,,9999,0,1,4,FEW 10   FEW 20 CB  SCT 30   BKN 40,1,3,-1,1,1027,RJOR 131000Z 30024KT 9999 -SHSN FEW010 FEW020CB SCT030 BKN040     03/M01 Q1027 RMK 1ST010 1CB020 3CU030 5CU040 A3035 CB           20KM N AND NE MOV SE=,- SN SH
20180113_110000.002,0,RJOR,,,,0,20180113110000,-1,-1,-1,-1,300,-1,31,-1,-1,-1,-1,,5000,0,1,4,FEW 10   FEW 20 CB  SCT 25   BKN 35,1,2,-1,1,1028,RJOR 131100Z 30031KT 5000 -SHSN FEW010 FEW020CB SCT025 BKN035     02/M01 Q1028 RMK 1ST010 2CB020 3CU025 5CU035 A3036 CB           15KM S AND SW MOV SE=,- SN SH
20180113_120000.002,0,RJOR,,,,0,20180113120000,-1,-1,-1,-1,350,-1,22,-1,-1,-1,-1,,5000,0,1,3,FEW 10   SCT 20 CB  BKN 30,1,3,-1,1,1028,RJOR 131200Z 35022KT 5000 -SHRAGS FEW010 SCT020CB BKN030     03/M01 Q1028 RMK 1ST010 3CB020 5CU030 A3037 CB OHD MOV SE           SMALL HAIL=,- RA GS SH
20180113_213000.001,0,RJOR,,,,0,20180113210000,-1,-1,-1,-1,150,-1,7,-1,-1,-1,-1,,9999,0,0,2,FEW 15   BKN 50,1,1,-1,1,1031,RJOR 132130Z 15007KT 9999 FEW015 BKN050 01/M01 Q1031 RMK     1CU015 6SC050 A3044=,
20180113_220000.002,0,RJOR,,,,0,20180113220000,-1,-1,-1,-1,140,-1,8,-1,-1,-1,-1,,9999,0,0,3,FEW 20   SCT 40   BKN 50,1,1,-1,1,1031,RJOR 132200Z 14008KT 9999 FEW020 SCT040 BKN050 01/M01 Q1031     RMK 1CU020 3CU040 5SC050 A3045=,
20180113_230000.002,0,RJOR,,,,0,20180113230000,-1,-1,-1,-1,150,-1,6,-1,-1,-1,-1,,9999,0,0,3,FEW 20   SCT 40   BKN 50,1,1,-1,1,1031,RJOR 132300Z 15006KT 9999 FEW020 SCT040 BKN050 01/M01 Q1031     RMK 1CU020 3CU040 5SC050 A3045=,
20180114_000000.003,0,RJOR,,,,0,20180114000000,-1,-1,-1,-1,150,-1,6,-1,-1,120,200,,9999,0,0,2,FEW 20   BKN 50,1,1,-1,1,1031,RJOR 140000Z 15006KT 120V200 9999 FEW020 BKN050 01/M01 Q1031     RMK 1CU020 6SC050 A3047=,
20180114_010000.002,0,RJOR,,,,0,20180114010000,-1,-1,-1,-1,150,-1,4,-1,-1,-1,-1,,9999,0,0,2,FEW 20   BKN 50,1,2,-1,0,1033,RJOR 140100Z 15004KT 9999 FEW020 BKN050 02/M00 Q1033 RMK     1CU020 6SC050 A3051=,
20180114_020000.002,0,RJOR,,,,0,20180114020000,-1,-1,-1,-1,140,-1,8,-1,-1,-1,-1,,9999,0,0,3,FEW 20   SCT 40   BKN 50,1,2,-1,1,1032,RJOR 140200Z 14008KT 9999 FEW020 SCT040 BKN050 02/M01 Q1032     RMK 1CU020 3CU040 6SC050 A3049=,
20180114_030000.002,0,RJOR,,,,0,20180114030000,-1,-1,-1,-1,140,-1,6,-1,-1,-1,-1,,9999,0,0,3,FEW 20   SCT 30   BKN 40,1,2,-1,0,1031,RJOR 140300Z 14006KT 9999 FEW020 SCT030 BKN040 02/M00 Q1031     RMK 1CU020 3CU030 5SC040 A3047=,
20180114_040000.002,0,RJOR,,,,0,20180114040000,-1,-1,-1,-1,140,-1,5,-1,-1,-1,-1,,9999,0,0,2,FEW 20   BKN 45,1,2,1,0,1030,RJOR 140400Z 14005KT 9999 FEW020 BKN045 02/00 Q1030 RMK 1CU020     6SC045 A3044=,
20180114_050000.002,0,RJOR,,,,0,20180114050000,-1,-1,-1,-1,160,-1,5,-1,-1,-1,-1,,9999,0,0,2,FEW 25   BKN 45,1,3,1,0,1030,RJOR 140500Z 16005KT 9999 FEW025 BKN045 03/00 Q1030 RMK 1CU025     6SC045 A3042=,
20180114_060000.003,0,RJOR,,,,0,20180114060000,-1,-1,-1,-1,160,-1,3,-1,-1,-1,-1,,9999,0,0,2,FEW 25   BKN 45,1,3,1,0,1030,RJOR 140600Z 16003KT 9999 FEW025 BKN045 03/00 Q1030 RMK 1CU025     6SC045 A3041=,
20180114_070000.002,0,RJOR,,,,0,20180114070000,-1,-1,-1,-1,130,-1,6,-1,-1,-1,-1,,9999,0,0,2,FEW 25   BKN 45,1,3,1,0,1029,RJOR 140700Z 13006KT 9999 FEW025 BKN045 03/00 Q1029 RMK 1CU025     6SC045 A3040=,
20180114_080000.002,0,RJOR,,,,0,20180114080000,-1,-1,-1,-1,130,-1,4,-1,-1,-1,-1,,9999,0,0,2,FEW 25   SCT 45,1,2,-1,0,1029,RJOR 140800Z 13004KT 9999 FEW025 SCT045 02/M00 Q1029 RMK     1CU025 3SC045 A3040=,
20180114_090000.002,0,RJOR,,,,0,20180114090000,-1,-1,-1,-1,130,-1,6,-1,-1,-1,-1,,9999,0,0,1,FEW 25,1,1,-1,1,1029,RJOR 140900Z 13006KT 9999 FEW025 01/M01 Q1029 RMK 1CU025     A3040=,
20180114_100000.002,0,RJOR,,,,0,20180114100000,-1,-1,-1,-1,150,-1,5,-1,-1,-1,-1,,9999,0,0,1,FEW 25,1,1,-1,1,1029,RJOR 141000Z 15005KT 9999 FEW025 01/M01 Q1029 RMK 1CU025     A3040=,
20180114_110000.002,0,RJOR,,,,0,20180114110000,-1,-1,-1,-1,140,-1,9,-1,-1,-1,-1,,9999,0,0,1,FEW 25,1,0,-1,1,1029,RJOR 141100Z 14009KT 9999 FEW025 00/M01 Q1029 RMK 1CU025     A3039=,
20180114_120000.002,0,RJOR,,,,0,20180114120000,-1,-1,-1,-1,140,-1,8,-1,-1,-1,-1,,9999,0,0,1,FEW 25,1,1,-1,2,1029,RJOR 141200Z 14008KT 9999 FEW025 01/M02 Q1029 RMK 1CU025     A3039=,
20180114_213000.001,0,RJOR,,,,0,20180114210000,-1,-1,-1,-1,140,-1,9,-1,-1,-1,-1,,9999,0,0,2,FEW 50   BKN -9999,1,2,-1,3,1026,RJOR 142130Z 14009KT 9999 FEW050 BKN/// 02/M03 Q1026 RMK     1SC050 A3030=,
20180114_220000.002,0,RJOR,,,,0,20180114220000,-1,-1,-1,-1,140,-1,9,-1,-1,-1,-1,,9999,0,0,2,FEW 50   BKN -9999,1,2,-1,3,1026,RJOR 142200Z 14009KT 9999 FEW050 BKN/// 02/M03 Q1026 RMK     1SC050 A3030=,
20180114_230000.002,0,RJOR,,,,0,20180114230000,-1,-1,-1,-1,140,-1,10,-1,-1,-1,-1,,9999,0,0,2,FEW 40   SCT -9999,1,3,-1,3,1026,RJOR 142300Z 14010KT 9999 FEW040 SCT/// 03/M03 Q1026 RMK     1SC040 A3031=,
20180115_000000.002,0,RJOR,,,,0,20180115000000,-1,-1,-1,-1,140,-1,11,-1,-1,-1,-1,,9999,0,0,2,FEW 40   BKN -9999,1,4,-1,3,1026,RJOR 150000Z 14011KT 9999 FEW040 BKN/// 04/M03 Q1026 RMK     1SC040 A3030=,
20180115_010000.002,0,RJOR,,,,0,20180115010000,-1,-1,-1,-1,140,-1,9,-1,-1,-1,-1,,9999,0,0,1,FEW 30,1,6,-1,2,1025,RJOR 150100Z 14009KT 9999 FEW030 06/M02 Q1025 RMK 1CU030     A3029=,
20180115_020000.002,0,RJOR,,,,0,20180115020000,-1,-1,-1,-1,150,-1,11,-1,-1,-1,-1,,9999,0,0,1,FEW 30,1,8,-1,1,1024,RJOR 150200Z 15011KT 9999 FEW030 08/M01 Q1024 RMK 1CU030     A3026=,
20180115_030000.002,0,RJOR,,,,0,20180115030000,-1,-1,-1,-1,140,-1,12,-1,-1,-1,-1,,9999,0,0,1,FEW 30,1,8,-1,1,1022,RJOR 150300Z 14012KT 9999 FEW030 08/M01 Q1022 RMK 1CU030     A3020=,
20180115_040000.002,0,RJOR,,,,0,20180115040000,-1,-1,-1,-1,150,-1,13,-1,-1,-1,-1,,9999,0,0,2,FEW 30   BKN 50,1,8,-1,0,1021,RJOR 150400Z 15013KT 9999 FEW030 BKN050 08/M00 Q1021 RMK     1CU030 6SC050 A3017=,
20180115_050000.002,0,RJOR,,,,0,20180115050000,-1,-1,-1,-1,150,-1,14,-1,-1,-1,-1,,9999,0,0,3,FEW 30   SCT 45   BKN 60,1,9,1,0,1021,RJOR 150500Z 15014KT 9999 FEW030 SCT045 BKN060 09/00 Q1021 RMK     1CU030 3SC045 5SC060 A3015=,
20180115_060000.002,0,RJOR,,,,0,20180115060000,-1,-1,-1,-1,160,-1,6,-1,-1,-1,-1,,9999,0,0,2,FEW 30   BKN 45,1,9,1,1,1021,RJOR 150600Z 16006KT 9999 FEW030 BKN045 09/01 Q1021 RMK 1CU030     7SC045 A3017=,
20180115_070000.003,0,RJOR,,,,0,20180115070000,-1,-1,-1,-1,140,-1,8,-1,-1,-1,-1,,9999,0,0,1,FEW 30,1,9,1,1,1021,RJOR 150700Z 14008KT 9999 FEW030 09/01 Q1021 RMK 1CU030 A3017=,
20180115_080000.002,0,RJOR,,,,0,20180115080000,-1,-1,-1,-1,150,-1,6,-1,-1,-1,-1,,9999,0,0,1,FEW 25,1,9,1,1,1022,RJOR 150800Z 15006KT 9999 FEW025 09/01 Q1022 RMK 1CU025 A3019=,
20180115_090000.002,0,RJOR,,,,0,20180115090000,-1,-1,-1,-1,140,-1,7,-1,-1,-1,-1,,9999,0,0,1,FEW 25,1,7,1,1,1022,RJOR 150900Z 14007KT 9999 FEW025 07/01 Q1022 RMK 1CU025 A3020=,
20180115_100000.002,0,RJOR,,,,0,20180115100000,-1,-1,-1,-1,130,-1,10,-1,-1,-1,-1,,9999,0,0,2,FEW 25   SCT 70,1,7,1,1,1023,RJOR 151000Z 13010KT 9999 FEW025 SCT070 07/01 Q1023 RMK 1CU025     4AC070 A3022=,
20180115_110000.002,0,RJOR,,,,0,20180115110000,-1,-1,-1,-1,150,-1,8,-1,-1,-1,-1,,9999,0,0,3,FEW 25   SCT 45   BKN 70,1,7,1,0,1023,RJOR 151100Z 15008KT 9999 FEW025 SCT045 BKN070 07/00 Q1023 RMK     1CU025 3CU045 5AC070 A3023=,
20180115_120000.002,0,RJOR,,,,0,20180115120000,-1,-1,-1,-1,150,-1,7,-1,-1,-1,-1,,9999,0,0,2,FEW 25   SCT 70,1,5,1,1,1024,RJOR 151200Z 15007KT 9999 FEW025 SCT070 05/01 Q1024 RMK 1CU025     3AC070 A3024=,
20180115_213000.001,0,RJOR,,,,0,20180115210000,-1,-1,-1,-1,140,-1,9,-1,-1,-1,-1,,9999,0,0,1,FEW 60,1,3,1,0,1021,RJOR 152130Z 14009KT 9999 FEW060 03/00 Q1021 RMK 1SC060 A3018=,
20180115_220000.002,0,RJOR,,,,0,20180115220000,-1,-1,-1,-1,140,-1,11,-1,-1,-1,-1,,9999,0,0,1,FEW 30,1,3,1,0,1022,RJOR 152200Z 14011KT 9999 FEW030 03/00 Q1022 RMK 1CU030 A3018=,
20180115_230000.002,0,RJOR,,,,0,20180115230000,-1,-1,-1,-1,140,-1,9,-1,-1,-1,-1,,9999,0,0,2,FEW 30   SCT 70,1,4,1,1,1022,RJOR 152300Z 14009KT 9999 FEW030 SCT070 04/01 Q1022 RMK 1CU030     3AC070 A3019=,
20180116_000000.002,0,RJOR,,,,0,20180116000000,-1,-1,-1,-1,140,-1,12,-1,-1,-1,-1,,9999,0,0,2,FEW 50   BKN 70,1,7,1,1,1021,RJOR 160000Z 14012KT 9999 FEW050 BKN070 07/01 Q1021 RMK 1SC050     5AC070 A3017=,
20180116_010000.002,0,RJOR,,,,0,20180116010000,-1,-1,-1,-1,130,-1,10,-1,-1,-1,-1,,9999,0,0,2,FEW 35   SCT 60,1,10,1,2,1021,RJOR 160100Z 13010KT 9999 FEW035 SCT060 10/02 Q1021 RMK 1CU035     3SC060 A3016=,
20180116_020000.002,0,RJOR,,,,0,20180116020000,-1,-1,-1,-1,130,-1,9,-1,-1,-1,-1,,9999,0,0,3,FEW 35   SCT 60   BKN 70,1,11,1,3,1020,RJOR 160200Z 13009KT 9999 FEW035 SCT060 BKN070 11/03 Q1020 RMK     1CU035 3SC060 5AC070 A3013=,
20180116_030000.002,0,RJOR,,,,0,20180116030000,-1,-1,-1,-1,190,-1,3,-1,-1,140,280,,9999,0,0,2,FEW 35   SCT 60,1,15,1,4,1019,RJOR 160300Z 19003KT 140V280 9999 FEW035 SCT060 15/04 Q1019     RMK 1CU035 3SC060 A3009=,
20180116_040000.002,0,RJOR,,,,0,20180116040000,-1,-1,-1,-1,300,-1,5,-1,-1,270,330,,9999,0,0,3,FEW 35   SCT 50   BKN -9999,1,16,1,4,1018,RJOR 160400Z 30005KT 270V330 9999 FEW035 SCT050 BKN/// 16/04     Q1018 RMK 1CU035 4SC050 A3006=,
20180116_050000.002,0,RJOR,,,,0,20180116050000,-1,-1,-1,-1,40,-1,5,-1,-1,-1,-1,,9999,0,0,3,FEW 35   SCT 50   BKN 70,1,15,1,4,1016,RJOR 160500Z 04005KT 9999 FEW035 SCT050 BKN070 15/04 Q1016 RMK     1CU035 4SC050 5AC070 A3003=,
20180116_060000.002,0,RJOR,,,,0,20180116060000,-1,-1,-1,-1,999,-1,2,-1,-1,-1,-1,,9999,0,0,3,FEW 35   SCT 50   BKN 80,1,15,1,5,1016,RJOR 160600Z VRB02KT 9999 FEW035 SCT050 BKN080 15/05 Q1016 RMK     1CU035 3SC050 6AC080 A3001=,
20180116_070000.002,0,RJOR,,,,0,20180116070000,-1,-1,-1,-1,170,-1,5,-1,-1,-1,-1,,9999,0,0,3,FEW 35   SCT 70   BKN 120,1,14,1,4,1015,RJOR 160700Z 17005KT 9999 FEW035 SCT070 BKN120 14/04 Q1015 RMK     1CU035 3AC070 6AC120 A2999=,
20180116_080000.002,0,RJOR,,,,0,20180116080000,-1,-1,-1,-1,150,-1,8,-1,-1,-1,-1,,9999,0,0,3,FEW 35   SCT 70   BKN 100,1,13,1,4,1015,RJOR 160800Z 15008KT 9999 FEW035 SCT070 BKN100 13/04 Q1015 RMK     1CU035 4AC070 6AC100 A3000=,
20180116_090000.002,0,RJOR,,,,0,20180116090000,-1,-1,-1,-1,180,-1,8,-1,-1,-1,-1,,9999,0,0,3,FEW 30   SCT 50   BKN 70,1,12,1,4,1015,RJOR 160900Z 18008KT 9999 FEW030 SCT050 BKN070 12/04 Q1015 RMK     1CU030 4SC050 6AC070 A2999=,
20180116_100000.002,0,RJOR,,,,0,20180116100000,-1,-1,-1,-1,150,-1,9,-1,-1,-1,-1,,9999,0,0,3,FEW 30   SCT 50   BKN 80,1,12,1,4,1015,RJOR 161000Z 15009KT 9999 FEW030 SCT050 BKN080 12/04 Q1015 RMK     1CU030 4SC050 6AC080 A2999=,
20180116_110000.004,0,RJOR,,,,0,20180116110000,-1,-1,-1,-1,190,-1,7,-1,-1,-1,-1,,9999,0,1,3,FEW 30   SCT 50   BKN 80,1,12,1,4,1015,RJOR 161100Z 19007KT 9999 -RA FEW030 SCT050 BKN080 12/04 Q1015     RMK 1CU030 4SC050 6AC080 A2999=,- RA
20180116_120000.002,0,RJOR,,,,0,20180116120000,-1,-1,-1,-1,190,-1,3,-1,-1,-1,-1,,9999,0,1,3,FEW 30   SCT 50   BKN 70,1,10,1,5,1016,RJOR 161200Z 19003KT 9999 -RA FEW030 SCT050 BKN070 10/05 Q1016     RMK 1CU030 4SC050 6AC070 A3000=,- RA
20180116_213000.001,0,RJOR,,,,0,20180116210000,-1,-1,-1,-1,160,-1,3,-1,-1,-1,-1,,8000,0,1,3,FEW 8   SCT 30   BKN 45,1,7,1,6,1011,RJOR 162130Z 16003KT 8000 -SHRA FEW008 SCT030 BKN045 07/06     Q1011 RMK 1ST008 3CU030 5CU045 A2988=,- RA SH
20180116_220000.002,0,RJOR,,,,0,20180116220000,-1,-1,-1,-1,180,-1,3,-1,-1,-1,-1,,6000,0,1,3,FEW 5   SCT 30   BKN 45,1,7,1,6,1011,RJOR 162200Z 18003KT 6000 -SHRA FEW005 SCT030 BKN045 07/06     Q1011 RMK 1ST005 3CU030 5CU045 A2988=,- RA SH
20180116_230000.002,0,RJOR,,,,0,20180116230000,-1,-1,-1,-1,160,-1,4,-1,-1,-1,-1,,9999,0,1,3,FEW 3   SCT 30   BKN 35,1,7,1,6,1011,RJOR 162300Z 16004KT 9999 -SHRA FEW003 SCT030 BKN035 07/06     Q1011 RMK 1ST003 3CU030 5CU035 A2987=,- RA SH
20180117_000000.002,0,RJOR,,,,0,20180117000000,-1,-1,-1,-1,140,-1,6,-1,-1,-1,-1,,9999,0,1,3,FEW 3   SCT 35   BKN 60,1,8,1,6,1011,RJOR 170000Z 14006KT 9999 -SHRA FEW003 SCT035 BKN060 08/06     Q1011 RMK 1ST003 3CU035 5SC060 A2985=,- RA SH
20180117_010000.002,0,RJOR,,,,0,20180117010000,-1,-1,-1,-1,110,-1,4,-1,-1,-1,-1,,9999,0,1,3,FEW 3   SCT 40   BKN 70,1,8,1,6,1010,RJOR 170100Z 11004KT 9999 -SHRA FEW003 SCT040 BKN070 08/06     Q1010 RMK 1ST003 3CU040 5AC070 A2984=,- RA SH
20180117_020000.004,0,RJOR,,,,0,20180117020000,-1,-1,-1,-1,200,-1,3,-1,-1,-1,-1,,9999,0,0,3,FEW 3   SCT 60   OVC 80,1,9,1,7,1009,RJOR 170200Z 20003KT 9999 FEW003 SCT060 OVC080 09/07 Q1009 RMK     1ST003 3SC060 8AS080 A2982=,
20180117_030000.002,0,RJOR,,,,0,20180117030000,-1,-1,-1,-1,140,-1,4,-1,-1,-1,-1,,9999,0,0,3,FEW 3   SCT 70   BKN 80,1,10,1,8,1008,RJOR 170300Z 14004KT 9999 FEW003 SCT070 BKN080 10/08 Q1008 RMK     1ST003 3AC070 5AC080 A2977=,
20180117_040000.003,0,RJOR,,,,0,20180117040000,-1,-1,-1,-1,999,-1,1,-1,-1,-1,-1,,9999,0,0,3,FEW 3   SCT 50   BKN 70,1,10,1,8,1007,RJOR 170400Z VRB01KT 9999 FEW003 SCT050 BKN070 10/08 Q1007 RMK     1ST003 4SC050 5AC070 A2974=,
20180117_050000.003,0,RJOR,,,,0,20180117050000,-1,-1,-1,-1,320,-1,5,-1,-1,-1,-1,,6000,0,1,3,FEW 5   SCT 25   BKN 35,1,11,1,9,1007,RJOR 170500Z 32005KT 6000 -SHRA FEW005 SCT025 BKN035 11/09     Q1007 RMK 1ST005 3CU025 5SC035 A2975=,- RA SH
20180117_060000.002,0,RJOR,,,,0,20180117060000,-1,-1,-1,-1,260,-1,5,-1,-1,-1,-1,,5000,0,2,3,FEW 3   SCT 5   BKN 10,1,11,1,10,1008,RJOR 170600Z 26005KT 5000 -SHRA BR FEW003 SCT005 BKN010 11/10     Q1008 RMK 1ST003 3ST005 5CU010 A2977=,- RA SH; BR
20180117_070000.002,0,RJOR,,,,0,20180117070000,-1,-1,-1,-1,270,-1,5,-1,-1,-1,-1,,9999,0,0,3,FEW 3   SCT 5   BKN 12,1,11,1,10,1008,RJOR 170700Z 27005KT 9999 FEW003 SCT005 BKN012 11/10 Q1008 RMK     1ST003 3ST005 5CU012 A2979=,
20180117_080000.002,0,RJOR,,,,0,20180117080000,-1,-1,-1,-1,350,-1,14,-1,-1,-1,-1,,9999,0,0,3,FEW 5   SCT 10   BKN 15,1,11,1,9,1009,RJOR 170800Z 35014KT 9999 FEW005 SCT010 BKN015 11/09 Q1009 RMK     1ST005 3CU010 5CU015 A2982=,
20180117_090000.003,0,RJOR,,,,0,20180117090000,-1,-1,-1,-1,350,-1,24,-1,-1,-1,-1,,7000,0,1,3,FEW 5   SCT 15   BKN 20,1,10,1,8,1011,RJOR 170900Z 35024KT 7000 -SHRA FEW005 SCT015 BKN020 10/08     Q1011 RMK 1ST005 3CU015 5CU020 A2987=,- RA SH
20180117_100000.002,0,RJOR,,,,0,20180117100000,-1,-1,-1,-1,340,-1,21,-1,-1,-1,-1,,9999,0,1,3,FEW 10   SCT 15   BKN 20,1,10,1,8,1013,RJOR 171000Z 34021KT 9999 -SHRA FEW010 SCT015 BKN020 10/08     Q1013 RMK 1CU010 3CU015 5CU020 A2993=,- RA SH
20180117_110000.003,0,RJOR,,,,0,20180117110000,-1,-1,-1,-1,340,-1,24,-1,-1,-1,-1,,9999,0,1,3,FEW 10   SCT 15   BKN 25,1,10,1,7,1014,RJOR 171100Z 34024KT 9999 -SHRA FEW010 SCT015 BKN025 10/07     Q1014 RMK 1CU010 3CU015 5CU025 A2996=,- RA SH
20180117_120000.003,0,RJOR,,,,0,20180117120000,-1,-1,-1,-1,340,-1,18,-1,-1,-1,-1,,7000,0,1,3,FEW 10   SCT 15   BKN 25,1,10,1,7,1015,RJOR 171200Z 34018KT 7000 -SHRA FEW010 SCT015 BKN025 10/07     Q1015 RMK 1CU010 3CU015 5CU025 A2999=,- RA SH
20180117_213000.001,0,RJOR,,,,0,20180117210000,-1,-1,-1,-1,160,-1,5,-1,-1,-1,-1,,9999,0,0,3,FEW 15   SCT 25   BKN 45,1,7,1,6,1017,RJOR 172130Z 16005KT 9999 FEW015 SCT025 BKN045 07/06 Q1017 RMK     1CU015 3CU025 5CU045 A3006=,
20180117_220000.003,0,RJOR,,,,0,20180117220000,-1,-1,-1,-1,150,-1,4,-1,-1,-1,-1,,9999,0,0,3,FEW 20   SCT 30   BKN 45,1,8,1,6,1017,RJOR 172200Z 15004KT 9999 FEW020 SCT030 BKN045 08/06 Q1017 RMK     1CU020 4CU030 6CU045 A3005=,
20180117_230000.002,0,RJOR,,,,0,20180117230000,-1,-1,-1,-1,130,-1,6,-1,-1,-1,-1,,9999,0,0,3,FEW 20   SCT 40   BKN 60,1,8,1,5,1018,RJOR 172300Z 13006KT 9999 FEW020 SCT040 BKN060 08/05 Q1018 RMK     1CU020 4CU040 6SC060 A3007=,
20180118_000000.002,0,RJOR,,,,0,20180118000000,-1,-1,-1,-1,150,-1,4,-1,-1,140,200,,9999,0,0,3,FEW 20   SCT 30   BKN 45,1,8,1,5,1019,RJOR 180000Z 15004KT 140V200 9999 FEW020 SCT030 BKN045 08/05     Q1019 RMK 1CU020 4CU030 6CU045 A3009=,
20180118_010000.002,0,RJOR,,,,0,20180118010000,-1,-1,-1,-1,140,-1,7,-1,-1,-1,-1,,9999,0,0,3,FEW 25   SCT 45   BKN 70,1,10,1,6,1018,RJOR 180100Z 14007KT 9999 FEW025 SCT045 BKN070 10/06 Q1018 RMK     1CU025 3CU045 6AC070 A3008=,
20180118_020000.002,0,RJOR,,,,0,20180118020000,-1,-1,-1,-1,260,-1,7,-1,-1,-1,-1,,9999,0,0,3,FEW 25   SCT 45   BKN 70,1,13,1,5,1018,RJOR 180200Z 26007KT 9999 FEW025 SCT045 BKN070 13/05 Q1018 RMK     1CU025 3CU045 6AC070 A3008=,
20180118_030000.003,0,RJOR,,,,0,20180118030000,-1,-1,-1,-1,260,-1,10,-1,-1,-1,-1,,9999,0,0,3,FEW 25   SCT 35   BKN 70,1,12,1,5,1018,RJOR 180300Z 26010KT 9999 FEW025 SCT035 BKN070 12/05 Q1018 RMK     1CU025 4CU035 6AC070 A3007=,
20180118_040000.002,0,RJOR,,,,0,20180118040000,-1,-1,-1,-1,270,-1,18,-1,-1,-1,-1,,9999,0,0,3,FEW 20   SCT 30   BKN 60,1,11,1,6,1018,RJOR 180400Z 27018KT 9999 FEW020 SCT030 BKN060 11/06 Q1018 RMK     1CU020 3CU030 6SC060 A3006=,
20180118_050000.002,0,RJOR,,,,0,20180118050000,-1,-1,-1,-1,300,-1,15,-1,-1,-1,-1,,9999,0,1,3,FEW 20   SCT 30   BKN 35,1,11,1,4,1018,RJOR 180500Z 30015KT 9999 -SHRA FEW020 SCT030 BKN035 11/04     Q1018 RMK 1CU020 4CU030 5CU035 A3007=,- RA SH
20180118_060000.002,0,RJOR,,,,0,20180118060000,-1,-1,-1,-1,310,-1,14,-1,-1,-1,-1,,9999,0,0,3,FEW 20   SCT 30   BKN 35,1,11,1,3,1018,RJOR 180600Z 31014KT 9999 FEW020 SCT030 BKN035 11/03 Q1018 RMK     1CU020 3CU030 5CU035 A3008=,
20180118_070000.002,0,RJOR,,,,0,20180118070000,-1,-1,-1,-1,320,-1,13,-1,-1,-1,-1,,9999,0,0,3,FEW 30   SCT 35   BKN 40,1,11,1,3,1018,RJOR 180700Z 32013KT 9999 FEW030 SCT035 BKN040 11/03 Q1018 RMK     2CU030 3CU035 5SC040 A3009=,
20180118_080000.002,0,RJOR,,,,0,20180118080000,-1,-1,-1,-1,330,-1,12,-1,-1,-1,-1,,8000,0,0,2,SCT 30   BKN 40,1,10,1,3,1019,RJOR 180800Z 33012KT 8000 SCT030 BKN040 10/03 Q1019 RMK 3CU030     5SC040 A3010=,
20180118_090000.002,0,RJOR,,,,0,20180118090000,-1,-1,-1,-1,340,-1,11,-1,-1,-1,-1,,8000,0,0,2,SCT 30   BKN 40,1,10,1,3,1020,RJOR 180900Z 34011KT 8000 SCT030 BKN040 10/03 Q1020 RMK 3CU030     5SC040 A3013=,
20180118_100000.002,0,RJOR,,,,0,20180118100000,-1,-1,-1,-1,350,-1,9,-1,-1,-1,-1,,8000,0,0,2,SCT 30   BKN 35,1,10,1,2,1020,RJOR 181000Z 35009KT 8000 SCT030 BKN035 10/02 Q1020 RMK 3CU030     5CU035 A3013=,
20180118_110000.002,0,RJOR,,,,0,20180118110000,-1,-1,-1,-1,340,-1,9,-1,-1,-1,-1,,8000,0,0,3,FEW 30   SCT 35   BKN 40,1,10,1,2,1020,RJOR 181100Z 34009KT 8000 FEW030 SCT035 BKN040 10/02 Q1020 RMK     1CU030 3CU035 5SC040 A3014=,
20180118_120000.002,0,RJOR,,,,0,20180118120000,-1,-1,-1,-1,340,-1,10,-1,-1,320,20,,8000,0,0,3,FEW 30   SCT 35   BKN 50,1,10,1,2,1021,RJOR 181200Z 34010KT 320V020 8000 FEW030 SCT035 BKN050 10/02     Q1021 RMK 1CU030 4CU035 5SC050 A3016=,
20180118_213000.001,0,RJOR,,,,0,20180118210000,-1,-1,-1,-1,170,-1,4,-1,-1,-1,-1,,9000,0,0,3,FEW 25   SCT 30   BKN 40,1,6,1,3,1021,RJOR 182130Z 17004KT 9000 FEW025 SCT030 BKN040 06/03 Q1021 RMK     1CU025 3CU030 5SC040 A3016=,
20180118_220000.002,0,RJOR,,,,0,20180118220000,-1,-1,-1,-1,150,-1,5,-1,-1,-1,-1,,9999,0,0,3,FEW 25   SCT 30   BKN 40,1,6,1,3,1021,RJOR 182200Z 15005KT 9999 FEW025 SCT030 BKN040 06/03 Q1021 RMK     1CU025 4CU030 5SC040 A3017=,
20180118_230000.003,0,RJOR,,,,0,20180118230000,-1,-1,-1,-1,999,-1,2,-1,-1,-1,-1,,9999,0,0,3,FEW 25   SCT 30   BKN 40,1,7,1,3,1021,RJOR 182300Z VRB02KT 9999 FEW025 SCT030 BKN040 07/03 Q1021 RMK     1CU025 3CU030 5SC040 A3018=,
20180119_000000.002,0,RJOR,,,,0,20180119000000,-1,-1,-1,-1,130,-1,5,-1,-1,-1,-1,,9999,0,0,3,FEW 20   SCT 30   BKN 45,1,7,1,3,1021,RJOR 190000Z 13005KT 9999 FEW020 SCT030 BKN045 07/03 Q1021 RMK     1CU020 3CU030 5SC045 A3017=,
20180119_010000.003,0,RJOR,,,,0,20180119010000,-1,-1,-1,-1,120,-1,3,-1,-1,70,190,,9999,0,0,2,SCT 30   BKN 60,1,8,1,3,1022,RJOR 190100Z 12003KT 070V190 9999 SCT030 BKN060 08/03 Q1022     RMK 3CU030 5SC060 A3020=,
20180119_020000.002,0,RJOR,,,,0,20180119020000,-1,-1,-1,-1,60,-1,8,-1,-1,-1,-1,,9999,0,0,2,FEW 25   BKN 70,1,9,1,1,1022,RJOR 190200Z 06008KT 9999 FEW025 BKN070 09/01 Q1022 RMK 1CU025     6AC070 A3018=,
20180119_030000.002,0,RJOR,,,,0,20180119030000,-1,-1,-1,-1,40,-1,9,-1,-1,-1,-1,,9999,0,0,3,FEW 30   SCT 60   BKN 70,1,9,1,1,1020,RJOR 190300Z 04009KT 9999 FEW030 SCT060 BKN070 09/01 Q1020 RMK     1CU030 3SC060 5AC070 A3015=,
20180119_040000.002,0,RJOR,,,,0,20180119040000,-1,-1,-1,-1,40,-1,12,-1,-1,-1,-1,,9999,0,0,1,FEW 30,1,10,1,1,1019,RJOR 190400Z 04012KT 9999 FEW030 10/01 Q1019 RMK 1CU030 A3010=,
20180119_050000.003,0,RJOR,,,,0,20180119050000,-1,-1,-1,-1,40,-1,15,-1,-1,-1,-1,,9999,0,0,1,FEW 30,1,10,1,1,1018,RJOR 190500Z 04015KT 9999 FEW030 10/01 Q1018 RMK 1CU030 A3008=,
20180119_060000.002,0,RJOR,,,,0,20180119060000,-1,-1,-1,-1,50,-1,12,-1,-1,-1,-1,,9999,0,0,2,FEW 30   SCT -9999,1,10,1,2,1018,RJOR 190600Z 05012KT 9999 FEW030 SCT/// 10/02 Q1018 RMK 1CU030     A3007=,
20180119_070000.002,0,RJOR,,,,0,20180119070000,-1,-1,-1,-1,50,-1,7,-1,-1,-1,-1,,9999,0,0,1,FEW 30,1,10,1,1,1018,RJOR 190700Z 05007KT 9999 FEW030 10/01 Q1018 RMK 1CU030 A3007=,
20180119_080000.002,0,RJOR,,,,0,20180119080000,-1,-1,-1,-1,30,-1,6,-1,-1,-1,-1,,9999,0,0,1,FEW 30,1,9,1,1,1018,RJOR 190800Z 03006KT 9999 FEW030 09/01 Q1018 RMK 1CU030 A3006=,
20180119_090000.003,0,RJOR,,,,0,20180119090000,-1,-1,-1,-1,999,-1,3,-1,-1,-1,-1,,9999,0,0,1,FEW 30,1,8,1,2,1018,RJOR 190900Z VRB03KT 9999 FEW030 08/02 Q1018 RMK 1CU030 A3007=,
20180119_100000.002,0,RJOR,,,,0,20180119100000,-1,-1,-1,-1,170,-1,5,-1,-1,-1,-1,,9999,0,0,1,FEW 30,1,5,1,2,1018,RJOR 191000Z 17005KT 9999 FEW030 05/02 Q1018 RMK 1CU030 A3008=,
20180119_110000.002,0,RJOR,,,,0,20180119110000,-1,-1,-1,-1,140,-1,6,-1,-1,-1,-1,,9999,0,0,2,FEW 30   SCT 50,1,6,1,2,1018,RJOR 191100Z 14006KT 9999 FEW030 SCT050 06/02 Q1018 RMK 1CU030     3SC050 A3008=,
20180119_120000.003,0,RJOR,,,,0,20180119120000,-1,-1,-1,-1,150,-1,8,-1,-1,-1,-1,,9999,0,0,3,FEW 30   SCT 50   BKN -9999,1,6,1,2,1018,RJOR 191200Z 15008KT 9999 FEW030 SCT050 BKN/// 06/02 Q1018 RMK     1CU030 3SC050 A3008=,
20180119_213000.001,0,RJOR,,,,0,20180119210000,-1,-1,-1,-1,130,-1,5,-1,-1,-1,-1,,9999,0,1,3,FEW 20   SCT 40   BKN 60,1,5,1,1,1018,RJOR 192130Z 13005KT 9999 VCSH FEW020 SCT040 BKN060 05/01     Q1018 RMK 1CU020 4CU040 6AC060 A3007=,VC SH
20180119_220000.002,0,RJOR,,,,0,20180119220000,-1,-1,-1,-1,280,-1,15,-1,-1,-1,-1,,8000,0,1,3,FEW 15   SCT 30   BKN 40,1,7,1,3,1018,RJOR 192200Z 28015KT 8000 -SHRA FEW015 SCT030 BKN040 07/03     Q1018 RMK 1CU015 3CU030 5CU040 A3008=,- RA SH
20180119_230000.002,0,RJOR,,,,0,20180119230000,-1,-1,-1,-1,230,-1,8,-1,-1,-1,-1,,8000,0,1,3,FEW 15   SCT 30   BKN 40,1,7,1,4,1019,RJOR 192300Z 23008KT 8000 -SHRA FEW015 SCT030 BKN040 07/04     Q1019 RMK 1CU015 3CU030 5CU040 A3009=,- RA SH
20180120_000000.002,0,RJOR,,,,0,20180120000000,-1,-1,-1,-1,210,-1,6,-1,-1,-1,-1,,6000,0,1,3,FEW 15   SCT 20   BKN 30,1,6,1,4,1019,RJOR 200000Z 21006KT 6000 -SHRA FEW015 SCT020 BKN030 06/04     Q1019 RMK 1CU015 3CU020 5CU030 A3011=,- RA SH
20180120_010000.002,0,RJOR,,,,0,20180120010000,-1,-1,-1,-1,200,-1,6,-1,-1,-1,-1,,9999,0,1,3,FEW 15   SCT 30   BKN 40,1,6,1,3,1019,RJOR 200100Z 20006KT 9999 -SHRA FEW015 SCT030 BKN040 06/03     Q1019 RMK 1CU015 3CU030 5CU040 A3012=,- RA SH
20180120_020000.003,0,RJOR,,,,0,20180120020000,-1,-1,-1,-1,160,-1,4,-1,-1,140,250,,8000,0,1,3,FEW 10   SCT 20   BKN 30,1,6,1,4,1019,RJOR 200200Z 16004KT 140V250 8000 -SHRA FEW010 SCT020 BKN030     06/04 Q1019 RMK 1CU010 3CU020 5CU030 A3012=,- RA SH
20180120_030000.002,0,RJOR,,,,0,20180120030000,-1,-1,-1,-1,180,-1,5,-1,-1,-1,-1,,9999,0,0,3,FEW 15   SCT 30   BKN 50,1,7,1,4,1020,RJOR 200300Z 18005KT 9999 FEW015 SCT030 BKN050 07/04 Q1020 RMK     1CU015 3CU030 5SC050 A3012=,
20180120_040000.002,0,RJOR,,,,0,20180120040000,-1,-1,-1,-1,270,-1,8,-1,-1,220,290,,9999,0,0,3,FEW 15   SCT 30   BKN 60,1,9,1,4,1019,RJOR 200400Z 27008KT 220V290 9999 FEW015 SCT030 BKN060 09/04     Q1019 RMK 1CU015 3CU030 5SC060 A3011=,
20180120_050000.002,0,RJOR,,,,0,20180120050000,-1,-1,-1,-1,260,-1,5,-1,-1,-1,-1,,9999,0,0,3,FEW 20   SCT 40   BKN 60,1,9,1,2,1019,RJOR 200500Z 26005KT 9999 FEW020 SCT040 BKN060 09/02 Q1019 RMK     1CU020 3CU040 5SC060 A3010=,
20180120_060000.002,0,RJOR,,,,0,20180120060000,-1,-1,-1,-1,999,-1,2,-1,-1,-1,-1,,9999,0,0,2,FEW 25   SCT 60,1,9,1,0,1018,RJOR 200600Z VRB02KT 9999 FEW025 SCT060 09/00 Q1018 RMK 1CU025     3SC060 A3009=,
20180120_070000.002,0,RJOR,,,,0,20180120070000,-1,-1,-1,-1,0,-1,0,-1,-1,-1,-1,,9999,0,0,2,FEW 25   BKN 60,1,9,1,1,1018,RJOR 200700Z 00000KT 9999 FEW025 BKN060 09/01 Q1018 RMK 1CU025     5SC060 A3008=,
20180120_080000.002,0,RJOR,,,,0,20180120080000,-1,-1,-1,-1,180,-1,4,-1,-1,-1,-1,,9999,0,0,3,FEW 25   SCT 40   BKN 60,1,8,1,1,1019,RJOR 200800Z 18004KT 9999 FEW025 SCT040 BKN060 08/01 Q1019 RMK     1CU025 4CU040 6SC060 A3011=,
20180120_090000.002,0,RJOR,,,,0,20180120090000,-1,-1,-1,-1,320,-1,6,-1,-1,-1,-1,,9999,0,0,3,FEW 25   SCT 40   BKN 60,1,8,1,1,1019,RJOR 200900Z 32006KT 9999 FEW025 SCT040 BKN060 08/01 Q1019 RMK     1CU025 4CU040 6SC060 A3012=,
20180120_100000.002,0,RJOR,,,,0,20180120100000,-1,-1,-1,-1,170,-1,6,-1,-1,160,260,,9999,0,0,3,FEW 25   SCT 40   BKN 60,1,6,1,3,1020,RJOR 201000Z 17006KT 160V260 9999 FEW025 SCT040 BKN060 06/03     Q1020 RMK 1CU025 3CU040 5SC060 A3012=,
20180120_110000.002,0,RJOR,,,,0,20180120110000,-1,-1,-1,-1,150,-1,5,-1,-1,-1,-1,,9999,0,0,3,FEW 25   SCT 40   BKN 60,1,6,1,2,1020,RJOR 201100Z 15005KT 9999 FEW025 SCT040 BKN060 06/02 Q1020 RMK     1CU025 3CU040 5SC060 A3013=,
20180120_120000.002,0,RJOR,,,,0,20180120120000,-1,-1,-1,-1,150,-1,7,-1,-1,-1,-1,,9999,0,0,3,FEW 25   SCT 40   BKN 60,1,5,1,1,1020,RJOR 201200Z 15007KT 9999 FEW025 SCT040 BKN060 05/01 Q1020 RMK     1CU025 3CU040 5SC060 A3013=,
20180120_213000.001,0,RJOR,,,,0,20180120210000,-1,-1,-1,-1,150,-1,10,-1,-1,-1,-1,,9999,0,0,2,FEW 40   BKN 60,1,3,-1,1,1019,RJOR 202130Z 15010KT 9999 FEW040 BKN060 03/M01 Q1019 RMK     1CU040 7SC060 A3010=,
20180120_220000.002,0,RJOR,,,,0,20180120220000,-1,-1,-1,-1,150,-1,8,-1,-1,-1,-1,,9999,0,0,3,FEW 40   SCT 60   BKN 70,1,3,-1,1,1019,RJOR 202200Z 15008KT 9999 FEW040 SCT060 BKN070 03/M01 Q1019     RMK 1CU040 4SC060 6AC070 A3011=,
20180120_230000.002,0,RJOR,,,,0,20180120230000,-1,-1,-1,-1,140,-1,8,-1,-1,-1,-1,,9999,0,0,3,FEW 30   SCT 45   BKN 60,1,3,-1,1,1019,RJOR 202300Z 14008KT 9999 FEW030 SCT045 BKN060 03/M01 Q1019     RMK 1CU030 3CU045 5SC060 A3011=,
20180121_000000.002,0,RJOR,,,,0,20180121000000,-1,-1,-1,-1,130,-1,8,-1,-1,-1,-1,,9999,0,0,2,FEW 30   BKN 70,1,4,-1,1,1020,RJOR 210000Z 13008KT 9999 FEW030 BKN070 04/M01 Q1020 RMK     1CU030 5AC070 A3013=,
20180121_010000.002,0,RJOR,,,,0,20180121010000,-1,-1,-1,-1,220,-1,9,-1,-1,-1,-1,,9999,0,0,2,FEW 30   SCT 70,1,8,1,1,1020,RJOR 210100Z 22009KT 9999 FEW030 SCT070 08/01 Q1020 RMK 1CU030     4AC070 A3014=,
20180121_020000.002,0,RJOR,,,,0,20180121020000,-1,-1,-1,-1,250,-1,7,-1,-1,170,300,,8000,0,0,3,FEW 30   SCT 45   BKN 70,1,10,-1,0,1020,RJOR 210200Z 25007KT 170V300 8000 FEW030 SCT045 BKN070 10/M00     Q1020 RMK 1CU030 3CU045 5AC070 A3013=,
20180121_030000.002,0,RJOR,,,,0,20180121030000,-1,-1,-1,-1,260,-1,18,-1,-1,-1,-1,,4000,0,2,3,FEW 10   SCT 20   BKN 35,1,6,1,2,1020,RJOR 210300Z 26018KT 4000 -SHRA BR FEW010 SCT020 BKN035 06/02     Q1020 RMK 1CU010 3CU020 5CU035 A3014=,- RA SH; BR
20180121_040000.003,0,RJOR,,,,0,20180121040000,-1,-1,-1,-1,220,-1,8,-1,-1,-1,-1,,8000,0,1,3,FEW 20   SCT 30   BKN 45,1,7,1,3,1020,RJOR 210400Z 22008KT 8000 VCSH FEW020 SCT030 BKN045 07/03     Q1020 RMK 1CU020 3CU030 5CU045 A3012=,VC SH
20180121_050000.002,0,RJOR,,,,0,20180121050000,-1,-1,-1,-1,300,-1,18,-1,-1,-1,-1,,9999,0,0,2,FEW 20   SCT 45,1,9,1,0,1019,RJOR 210500Z 30018KT 9999 FEW020 SCT045 09/00 Q1019 RMK 1CU020     4CU045 A3011=,
20180121_060000.002,0,RJOR,,,,0,20180121060000,-1,-1,-1,-1,290,-1,19,-1,-1,-1,-1,,9999,0,0,2,FEW 20   BKN 45,1,9,-1,2,1020,RJOR 210600Z 29019KT 9999 FEW020 BKN045 09/M02 Q1020 RMK     1CU020 5CU045 A3013=,
20180121_070000.002,0,RJOR,,,,0,20180121070000,-1,-1,-1,-1,290,-1,18,-1,-1,-1,-1,,9999,0,0,2,FEW 20   SCT 40,1,8,-1,2,1020,RJOR 210700Z 29018KT 9999 FEW020 SCT040 08/M02 Q1020 RMK     1CU020 4CU040 A3014=,
20180121_080000.002,0,RJOR,,,,0,20180121080000,-1,-1,-1,-1,300,-1,17,-1,-1,-1,-1,,9999,0,0,3,FEW 20   SCT 40   BKN 50,1,8,-1,2,1020,RJOR 210800Z 30017KT 9999 FEW020 SCT040 BKN050 08/M02 Q1020     RMK 1CU020 3CU040 5SC050 A3015=,
20180121_090000.002,0,RJOR,,,,0,20180121090000,-1,-1,-1,-1,290,-1,11,-1,-1,-1,-1,,9999,0,0,3,FEW 20   SCT 40   BKN -9999,1,7,-1,1,1021,RJOR 210900Z 29011KT 9999 FEW020 SCT040 BKN/// 07/M01 Q1021     RMK 1CU020 4SC040 A3016=,
20180121_100000.002,0,RJOR,,,,0,20180121100000,-1,-1,-1,-1,320,-1,8,-1,-1,-1,-1,,9999,0,0,3,FEW 20   SCT 35   BKN 70,1,7,-1,3,1021,RJOR 211000Z 32008KT 9999 FEW020 SCT035 BKN070 07/M03 Q1021     RMK 1CU020 3SC035 6AC070 A3017=,
20180121_110000.002,0,RJOR,,,,0,20180121110000,-1,-1,-1,-1,350,-1,9,-1,-1,-1,-1,,9999,0,1,3,FEW 15   SCT 20   BKN 30,1,6,1,1,1021,RJOR 211100Z 35009KT 9999 -SHRA FEW015 SCT020 BKN030 06/01     Q1021 RMK 1CU015 3CU020 5CU030 A3017=,- RA SH
20180121_120000.002,0,RJOR,,,,0,20180121120000,-1,-1,-1,-1,30,-1,13,-1,-1,-1,-1,,9999,0,0,3,FEW 20   SCT 30   BKN 50,1,5,1,1,1021,RJOR 211200Z 03013KT 9999 FEW020 SCT030 BKN050 05/01 Q1021 RMK     1CU020 3CU030 5SC050 A3015=,
20180121_213000.001,0,RJOR,,,,0,20180121210000,-1,-1,-1,-1,110,-1,6,-1,-1,-1,-1,,9999,0,0,3,FEW 50   SCT 60   OVC 70,1,3,-1,1,1017,RJOR 212130Z 11006KT 9999 FEW050 SCT060 OVC070 03/M01 Q1017     RMK 2SC050 3SC060 8AS070 A3005=,
20180121_220000.002,0,RJOR,,,,0,20180121220000,-1,-1,-1,-1,100,-1,3,-1,-1,-1,-1,,9999,0,0,3,FEW 50   SCT 60   OVC 70,1,3,-1,0,1016,RJOR 212200Z 10003KT 9999 FEW050 SCT060 OVC070 03/M00 Q1016     RMK 1SC050 3SC060 8AS070 A3002=,
20180121_230000.002,0,RJOR,,,,0,20180121230000,-1,-1,-1,-1,200,-1,8,-1,-1,-1,-1,,9999,0,0,3,FEW 25   SCT 60   OVC 70,1,4,-1,0,1016,RJOR 212300Z 20008KT 9999 FEW025 SCT060 OVC070 04/M00 Q1016     RMK 1CU025 4SC060 8AS070 A3003=,
20180122_000000.002,0,RJOR,,,,0,20180122000000,-1,-1,-1,-1,100,-1,3,-1,-1,-1,-1,,9999,0,0,3,FEW 30   SCT 40   BKN 50,1,4,1,0,1016,RJOR 220000Z 10003KT 9999 FEW030 SCT040 BKN050 04/00 Q1016 RMK     1CU030 3SC040 5SC050 A3003=,
20180122_010000.002,0,RJOR,,,,0,20180122010000,-1,-1,-1,-1,170,-1,5,-1,-1,-1,-1,,9999,0,1,3,FEW 25   SCT 35   BKN 40,1,4,1,0,1016,RJOR 220100Z 17005KT 9999 -RA FEW025 SCT035 BKN040 04/00 Q1016     RMK 1CU025 3SC035 5SC040 A3002=,- RA
20180122_020000.002,0,RJOR,,,,0,20180122020000,-1,-1,-1,-1,190,-1,5,-1,-1,-1,-1,,9999,0,1,3,FEW 15   SCT 20   BKN 30,1,5,1,1,1015,RJOR 220200Z 19005KT 9999 -RA FEW015 SCT020 BKN030 05/01 Q1015     RMK 1CU015 3CU020 5SC030 A2999=,- RA
20180122_030000.002,0,RJOR,,,,0,20180122030000,-1,-1,-1,-1,170,-1,4,-1,-1,-1,-1,,9000,0,1,3,FEW 15   SCT 20   BKN 30,1,4,1,0,1013,RJOR 220300Z 17004KT 9000 -RA FEW015 SCT020 BKN030 04/00 Q1013     RMK 1CU015 3CU020 5SC030 A2993=,- RA
20180122_040000.002,0,RJOR,,,,0,20180122040000,-1,-1,-1,-1,160,-1,8,-1,-1,-1,-1,,9000,0,1,3,FEW 8   SCT 10   BKN 20,1,3,1,0,1012,RJOR 220400Z 16008KT 9000 -RA FEW008 SCT010 BKN020 03/00 Q1012     RMK 1ST008 3ST010 5SC020 A2990=,- RA
20180122_050000.002,0,RJOR,,,,0,20180122050000,-1,-1,-1,-1,170,-1,4,-1,-1,-1,-1,,9999,0,1,3,FEW 5   SCT 15   BKN 30,1,3,1,1,1011,RJOR 220500Z 17004KT 9999 -RA FEW005 SCT015 BKN030 03/01 Q1011     RMK 1ST005 3CU015 5SC030 A2988=,- RA
20180122_060000.003,0,RJOR,,,,0,20180122060000,-1,-1,-1,-1,170,-1,3,-1,-1,-1,-1,,8000,0,1,3,FEW 5   SCT 15   BKN 30,1,3,1,1,1011,RJOR 220600Z 17003KT 8000 -RA FEW005 SCT015 BKN030 03/01 Q1011     RMK 1ST005 3CU015 6SC030 A2988=,- RA
20180122_070000.002,0,RJOR,,,,0,20180122070000,-1,-1,-1,-1,170,-1,4,-1,-1,-1,-1,,8000,0,1,3,FEW 5   SCT 20   BKN 40,1,3,1,1,1012,RJOR 220700Z 17004KT 8000 -RA FEW005 SCT020 BKN040 03/01 Q1012     RMK 1ST005 3CU020 6SC040 A2988=,- RA
20180122_080000.003,0,RJOR,,,,0,20180122080000,-1,-1,-1,-1,150,-1,6,-1,-1,-1,-1,,9999,0,0,2,FEW 5   SCT 15,1,3,1,1,1011,RJOR 220800Z 15006KT 9999 FEW005 SCT015 03/01 Q1011 RMK 1ST005     4CU015 A2987=,
20180122_090000.002,0,RJOR,,,,0,20180122090000,-1,-1,-1,-1,160,-1,5,-1,-1,-1,-1,,9999,0,0,3,FEW 5   SCT 15   BKN 25,1,3,1,1,1012,RJOR 220900Z 16005KT 9999 FEW005 SCT015 BKN025 03/01 Q1012 RMK     1ST005 3CU015 5CU025 A2988=,
20180122_100000.002,0,RJOR,,,,0,20180122100000,-1,-1,-1,-1,150,-1,8,-1,-1,-1,-1,,9999,0,0,3,FEW 5   SCT 20   BKN 30,1,2,1,0,1012,RJOR 221000Z 15008KT 9999 FEW005 SCT020 BKN030 02/00 Q1012 RMK     1ST005 3CU020 5CU030 A2989=,
20180122_110000.003,0,RJOR,,,,0,20180122110000,-1,-1,-1,-1,150,-1,7,-1,-1,-1,-1,,9999,0,0,3,FEW 5   SCT 30   BKN 50,1,2,-1,0,1011,RJOR 221100Z 15007KT 9999 FEW005 SCT030 BKN050 02/M00 Q1011     RMK 1ST005 3CU030 5SC050 A2988=,
20180122_120000.002,0,RJOR,,,,0,20180122120000,-1,-1,-1,-1,150,-1,7,-1,-1,-1,-1,,9999,0,0,3,FEW 10   SCT 20   BKN 40,1,2,-1,0,1011,RJOR 221200Z 15007KT 9999 FEW010 SCT020 BKN040 02/M00 Q1011     RMK 1CU010 3CU020 5CU040 A2987=,
20180122_213000.001,0,RJOR,,,,0,20180122210000,-1,-1,-1,-1,250,-1,18,-1,-1,210,280,,9999,0,1,4,FEW 15   FEW 20 CB  SCT 25   BKN 40,1,6,1,1,1009,RJOR 222130Z 25018KT 210V280 9999 -TSRA FEW015 FEW020CB SCT025     BKN040 06/01 Q1009 RMK 1CU015 1CB020 3CU025 5CU040 A2980           FBL TS 20KM NW MOV E=,- TS   RA
20180122_220000.002,0,RJOR,,,,0,20180122220000,-1,-1,-1,-1,240,-1,19,-1,-1,-1,-1,,9999,0,1,4,FEW 15   FEW 20 CB  SCT 25   BKN 40,1,6,1,1,1009,RJOR 222200Z 24019KT 9999 -SHRA FEW015 FEW020CB SCT025 BKN040     06/01 Q1009 RMK 1CU015 1CB020 3CU025 5CU040 A2981 CB 10KM           N MOV E=,- RA SH
20180122_230000.003,0,RJOR,,,,0,20180122230000,-1,-1,-1,-1,230,-1,15,-1,-1,-1,-1,,9999,0,0,3,FEW 15   FEW 20 CB  SCT 45,1,6,-1,0,1010,RJOR 222300Z 23015KT 9999 FEW015 FEW020CB SCT045 06/M00 Q1010     RMK 1CU015 1CB020 3CU045 A2983 CB 30KM NW MOV E=,
20180123_000000.002,0,RJOR,,,,0,20180123000000,-1,-1,-1,-1,250,-1,21,-1,-1,-1,-1,,9999,0,0,1,FEW 25,1,7,-1,3,1010,RJOR 230000Z 25021KT 9999 FEW025 07/M03 Q1010 RMK 2CU025     A2984=,
20180123_010000.002,0,RJOR,,,,0,20180123010000,-1,-1,-1,-1,250,-1,22,-1,33,-1,-1,,9999,0,0,1,FEW 25,1,7,-1,5,1011,RJOR 230100Z 25022G33KT 9999 FEW025 07/M05 Q1011 RMK 2CU025     A2987=,
20180123_020000.002,0,RJOR,,,,0,20180123020000,-1,-1,-1,-1,260,-1,35,-1,-1,230,290,,9999,0,0,3,FEW 25   SCT 35   BKN 70,1,7,-1,1,1011,RJOR 230200Z 26035KT 230V290 9999 FEW025 SCT035 BKN070 07/M01     Q1011 RMK 1CU025 3CU035 5AC070 A2987=,
20180123_030000.003,0,RJOR,,,,0,20180123030000,-1,-1,-1,-1,270,-1,36,-1,-1,-1,-1,,9999,0,0,3,FEW 25   SCT 35   BKN 45,1,6,-1,3,1012,RJOR 230300Z 27036KT 9999 FEW025 SCT035 BKN045 06/M03 Q1012     RMK 1CU025 3CU035 5CU045 A2988=,
20180123_040000.003,0,RJOR,,,,0,20180123040000,-1,-1,-1,-1,270,-1,37,-1,49,-1,-1,,9999,0,0,3,FEW 25   SCT 35   BKN -9999,1,6,-1,5,1012,RJOR 230400Z 27037G49KT 9999 FEW025 SCT035 BKN/// 06/M05 Q1012     RMK 1CU025 4CU035 A2990=,
20180123_050000.002,0,RJOR,,,,0,20180123050000,-1,-1,-1,-1,270,-1,32,-1,-1,-1,-1,,9999,0,1,3,FEW 20   SCT 35   BKN -9999,1,4,-1,8,1013,RJOR 230500Z 27032KT 9999 VCSH FEW020 SCT035 BKN/// 04/M08     Q1013 RMK 1CU020 3CU035 A2991=,VC SH
20180123_060000.003,0,RJOR,,,,0,20180123060000,-1,-1,-1,-1,280,-1,33,-1,43,-1,-1,,9999,0,1,2,FEW 20   BKN 35,1,3,-1,5,1013,RJOR 230600Z 28033G43KT 9999 -SHSN FEW020 BKN035 03/M05 Q1013     RMK 2CU020 5CU035 A2994=,- SN SH
20180123_070000.002,0,RJOR,,,,0,20180123070000,-1,-1,-1,-1,270,-1,29,-1,-1,-1,-1,,9999,0,1,3,FEW 15   SCT 25   BKN 30,1,1,-1,4,1014,RJOR 230700Z 27029KT 9999 -SHSN FEW015 SCT025 BKN030 01/M04     Q1014 RMK 1CU015 3CU025 5CU030 A2996=,- SN SH
20180123_080000.002,0,RJOR,,,,0,20180123080000,-1,-1,-1,-1,240,-1,21,-1,34,-1,-1,,9999,0,1,2,FEW 10   BKN 15,1,1,-1,7,1014,RJOR 230800Z 24021G34KT 9999 -SHSN FEW010 BKN015 01/M07 Q1014     RMK 1CU010 6CU015 A2996=,- SN SH
20180123_090000.002,0,RJOR,,,,0,20180123090000,-1,-1,-1,-1,230,-1,12,-1,22,-1,-1,,9999,0,1,3,FEW 10   SCT 15   BKN 20,1,0,-1,7,1014,RJOR 230900Z 23012G22KT 9999 -SHSN FEW010 SCT015 BKN020 00/M07     Q1014 RMK 1CU010 3CU015 5CU020 A2996=,- SN SH
20180123_100000.002,0,RJOR,,,,0,20180123100000,-1,-1,-1,-1,240,-1,16,-1,-1,-1,-1,,9999,0,1,3,FEW 8   SCT 10   BKN 20,-1,0,-1,7,1015,RJOR 231000Z 24016KT 9999 -SHSN FEW008 SCT010 BKN020 M00/M07     Q1015 RMK 1CU008 3CU010 5CU020 A2998=,- SN SH
20180123_110000.002,0,RJOR,,,,0,20180123110000,-1,-1,-1,-1,240,-1,16,-1,27,-1,-1,,9999,0,1,3,FEW 10   SCT 15   BKN 20,-1,0,-1,8,1015,RJOR 231100Z 24016G27KT 9999 -SHSN FEW010 SCT015 BKN020     M00/M08 Q1015 RMK 1CU010 3CU015 5CU020 A2998=,- SN SH
20180123_120000.002,0,RJOR,,,,0,20180123120000,-1,-1,-1,-1,250,-1,16,-1,-1,-1,-1,,7000,0,1,3,FEW 10   SCT 15   BKN 20,-1,0,-1,8,1015,RJOR 231200Z 25016KT 7000 -SHSN FEW010 SCT015 BKN020 M00/M08     Q1015 RMK 1CU010 3CU015 5CU020 A2999=,- SN SH
20180123_213000.001,0,RJOR,,,,0,20180123210000,-1,-1,-1,-1,250,-1,22,-1,34,-1,-1,,800,1,1,3,FEW 5   SCT 15   BKN 25,-1,3,-1,6,1016,RJOR 232130Z 25022G34KT 0800 R10/1400VP1800D SHSN FEW005     SCT015 BKN025 M03/M06 Q1016 RMK 1ST005 3CU015 5CU025           A3001=,SN SH
20180123_220000.002,0,RJOR,,,,0,20180123220000,-1,-1,-1,-1,240,-1,16,-1,26,-1,-1,,9999,0,1,2,FEW 15   SCT 40,-1,2,-1,8,1015,RJOR 232200Z 24016G26KT 9999 VCSH FEW015 SCT040 M02/M08 Q1015     RMK 1CU015 3CU040 A3000=,VC SH
20180123_230000.002,0,RJOR,,,,0,20180123230000,-1,-1,-1,-1,240,-1,18,-1,-1,-1,-1,,400,1,1,3,FEW 5   SCT 10   BKN 20,-1,3,-1,6,1016,RJOR 232300Z 24018KT 0400 R10/0800VP1800D SHSN FEW005 SCT010     BKN020 M03/M06 Q1016 RMK 1ST005 3CU010 5CU020 A3001=,SN SH
20180124_000000.002,0,RJOR,,,,0,20180124000000,-1,-1,-1,-1,240,-1,19,-1,29,-1,-1,,7000,1,1,3,FEW 5   SCT 20   BKN 30,-1,2,-1,7,1016,RJOR 240000Z 24019G29KT 7000 R10/0800VP1800U -SHSN FEW005     SCT020 BKN030 M02/M07 Q1016 RMK 1ST005 3CU020 5CU030           A3002=,- SN SH
20180124_010000.003,0,RJOR,,,,0,20180124010000,-1,-1,-1,-1,240,-1,19,-1,30,-1,-1,,9999,0,0,3,FEW 10   SCT 30   BKN 45,-1,1,-1,8,1016,RJOR 240100Z 24019G30KT 9999 FEW010 SCT030 BKN045 M01/M08     Q1016 RMK 1ST010 3CU030 5CU045 A3001=,
20180124_020000.002,0,RJOR,,,,0,20180124020000,-1,-1,-1,-1,250,-1,24,-1,38,-1,-1,,6000,1,1,3,FEW 5   SCT 20   BKN 30,-1,2,-1,10,1016,RJOR 240200Z 25024G38KT 6000 R10/1200VP1800D -SHSN FEW005     SCT020 BKN030 M02/M10 Q1016 RMK 1ST005 3CU020 5CU030           A3001 3000NW-N=,- SN SH
20180124_030000.002,0,RJOR,,,,0,20180124030000,-1,-1,-1,-1,260,-1,27,-1,38,-1,-1,,1500,1,1,3,FEW 5   SCT 15   BKN 25,-1,3,-1,8,1015,RJOR 240300Z 26027G38KT 1500 R10/0600VP1800D -SHSN FEW005     SCT015 BKN025 M03/M08 Q1015 RMK 1ST005 3CU015 5CU025           A2999=,- SN SH
20180124_040000.002,0,RJOR,,,,0,20180124040000,-1,-1,-1,-1,250,-1,23,-1,36,-1,-1,,600,1,1,3,FEW 5   SCT 15   BKN 25,-1,3,-1,7,1015,RJOR 240400Z 25023G36KT 0600 R10/0400VP1800D SHSN FEW005     SCT015 BKN025 M03/M07 Q1015 RMK 1ST005 3CU015 5CU025           A2997=,SN SH
20180124_050000.002,0,RJOR,,,,0,20180124050000,-1,-1,-1,-1,240,-1,22,-1,32,-1,-1,,500,1,1,3,FEW 5   SCT 15   BKN 25,-1,3,-1,7,1015,RJOR 240500Z 24022G32KT 0500 R10/0450V1000U SHSN FEW005 SCT015     BKN025 M03/M07 Q1015 RMK 1ST005 3CU015 5CU025 A2999=,SN SH
20180124_060000.002,0,RJOR,,,,0,20180124060000,-1,-1,-1,-1,250,-1,23,-1,33,-1,-1,,100,1,1,3,FEW 5   SCT 15   BKN 25,-1,4,-1,7,1016,RJOR 240600Z 25023G33KT 0100 R10/0250V0600U +SHSN FEW005     SCT015 BKN025 M04/M07 Q1016 RMK 1ST005 3CU015 5CU025           A3003=,+ SN SH
20180124_070000.002,0,RJOR,,,,0,20180124070000,-1,-1,-1,-1,260,-1,17,-1,35,230,300,,1000,1,1,3,FEW 5   SCT 15   BKN 25,-1,4,-1,7,1017,RJOR 240700Z 26017G35KT 230V300 1000 R10/0900VP1800U -SHSN     FEW005 SCT015 BKN025 M04/M07 Q1017 RMK 1ST005 3CU015           5CU025 A3004=,- SN SH
20180124_080000.002,0,RJOR,,,,0,20180124080000,-1,-1,-1,-1,260,-1,28,-1,38,-1,-1,,500,1,1,2,FEW 5   BKN 15,-1,3,-1,6,1017,RJOR 240800Z 26028G38KT 0500 R10/0900VP1800D SHSN FEW005     BKN015 M03/M06 Q1017 RMK 2ST005 5CU015 A3004=,SN SH
20180124_090000.003,0,RJOR,,,,0,20180124090000,-1,-1,-1,-1,280,-1,26,-1,36,-1,-1,,9000,0,1,2,FEW 10   BKN 20,-1,2,-1,7,1017,RJOR 240900Z 28026G36KT 9000 -SHSN FEW010 BKN020 M02/M07 Q1017     RMK 2CU010 5CU020 A3004=,- SN SH
20180124_100000.002,0,RJOR,,,,0,20180124100000,-1,-1,-1,-1,280,-1,27,-1,37,-1,-1,,3000,0,1,2,SCT 10   BKN 20,-1,2,-1,6,1017,RJOR 241000Z 28027G37KT 3000 -SHSN SCT010 BKN020 M02/M06 Q1017     RMK 3CU010 5CU020 A3005=,- SN SH
20180124_110000.002,0,RJOR,,,,0,20180124110000,-1,-1,-1,-1,300,-1,27,-1,-1,-1,-1,,5000,0,1,2,SCT 10   BKN 20,-1,2,-1,7,1017,RJOR 241100Z 30027KT 5000 -SHSN SCT010 BKN020 M02/M07 Q1017     RMK 3CU010 5CU020 A3005=,- SN SH
20180124_120000.002,0,RJOR,,,,0,20180124120000,-1,-1,-1,-1,300,-1,20,-1,33,-1,-1,,5000,0,1,2,FEW 10   BKN 20,-1,1,-1,7,1017,RJOR 241200Z 30020G33KT 5000 -SHSN FEW010 BKN020 M01/M07 Q1017     RMK 2CU010 5CU020 A3005=,- SN SH
20180124_213000.001,0,RJOR,,,,0,20180124210000,-1,-1,-1,-1,320,-1,22,-1,-1,-1,-1,,8000,0,1,3,FEW 10   SCT 20   BKN 40,1,0,-1,6,1018,RJOR 242130Z 32022KT 8000 -SHSN FEW010 SCT020 BKN040 00/M06     Q1018 RMK 1CU010 3CU020 5CU040 A3007=,- SN SH
20180124_220000.002,0,RJOR,,,,0,20180124220000,-1,-1,-1,-1,320,-1,21,-1,-1,-1,-1,,9999,0,1,3,FEW 10   SCT 25   BKN 50,1,0,-1,5,1018,RJOR 242200Z 32021KT 9999 -SHSN FEW010 SCT025 BKN050 00/M05     Q1018 RMK 1CU010 3CU025 5SC050 A3008=,- SN SH
20180124_230000.002,0,RJOR,,,,0,20180124230000,-1,-1,-1,-1,330,-1,22,-1,-1,-1,-1,,4000,0,1,3,FEW 10   SCT 20   BKN 30,-1,0,-1,6,1018,RJOR 242300Z 33022KT 4000 -SHSN FEW010 SCT020 BKN030 M00/M06     Q1018 RMK 1CU010 3CU020 5CU030 A3009=,- SN SH
20180125_000000.002,0,RJOR,,,,0,20180125000000,-1,-1,-1,-1,330,-1,25,-1,-1,-1,-1,,9999,0,1,3,FEW 10   SCT 25   BKN 40,1,1,-1,6,1018,RJOR 250000Z 33025KT 9999 -SHSN FEW010 SCT025 BKN040 01/M06     Q1018 RMK 1CU010 3CU025 5CU040 A3009=,- SN SH
20180125_010000.002,0,RJOR,,,,0,20180125010000,-1,-1,-1,-1,340,-1,23,-1,-1,-1,-1,,9999,0,1,3,FEW 15   SCT 30   BKN 50,1,0,-1,6,1019,RJOR 250100Z 34023KT 9999 -SHSN FEW015 SCT030 BKN050 00/M06     Q1019 RMK 1CU015 3CU030 5SC050 A3011=,- SN SH
20180125_020000.003,0,RJOR,,,,0,20180125020000,-1,-1,-1,-1,350,-1,20,-1,-1,-1,-1,,9999,0,1,3,FEW 15   SCT 30   BKN 40,1,1,-1,5,1019,RJOR 250200Z 35020KT 9999 -SHSN FEW015 SCT030 BKN040 01/M05     Q1019 RMK 1CU015 3CU030 5CU040 A3010=,- SN SH
20180125_030000.002,0,RJOR,,,,0,20180125030000,-1,-1,-1,-1,350,-1,19,-1,-1,-1,-1,,9999,0,1,3,FEW 10   SCT 20   BKN 40,1,0,-1,7,1018,RJOR 250300Z 35019KT 9999 -SHSN FEW010 SCT020 BKN040 00/M07     Q1018 RMK 1CU010 3CU020 5CU040 A3008=,- SN SH
20180125_040000.002,0,RJOR,,,,0,20180125040000,-1,-1,-1,-1,320,-1,15,-1,-1,-1,-1,,9999,0,1,3,FEW 10   SCT 20   BKN 40,1,1,-1,5,1018,RJOR 250400Z 32015KT 9999 -SHSN FEW010 SCT020 BKN040 01/M05     Q1018 RMK 1CU010 3CU020 5CU040 A3006=,- SN SH
20180125_050000.002,0,RJOR,,,,0,20180125050000,-1,-1,-1,-1,320,-1,16,-1,-1,-1,-1,,9999,0,1,3,FEW 15   SCT 25   BKN 40,1,1,-1,4,1017,RJOR 250500Z 32016KT 9999 -SHSN FEW015 SCT025 BKN040 01/M04     Q1017 RMK 1CU015 3CU025 5CU040 A3005=,- SN SH
20180125_060000.002,0,RJOR,,,,0,20180125060000,-1,-1,-1,-1,310,-1,18,-1,-1,-1,-1,,9999,0,0,3,FEW 15   SCT 25   BKN 45,1,1,-1,4,1017,RJOR 250600Z 31018KT 9999 FEW015 SCT025 BKN045 01/M04 Q1017     RMK 1CU015 3CU025 5CU045 A3005=,
20180125_070000.002,0,RJOR,,,,0,20180125070000,-1,-1,-1,-1,220,-1,11,-1,-1,-1,-1,,5000,0,1,3,FEW 10   SCT 20   BKN 30,1,0,-1,3,1017,RJOR 250700Z 22011KT 5000 -SHSN FEW010 SCT020 BKN030 00/M03     Q1017 RMK 1CU010 3CU020 5CU030 A3005 9999NW-N=,- SN SH
20180125_080000.002,0,RJOR,,,,0,20180125080000,-1,-1,-1,-1,300,-1,14,-1,-1,-1,-1,,3000,0,1,3,FEW 10   SCT 20   BKN 30,1,1,-1,3,1017,RJOR 250800Z 30014KT 3000 -SHSN FEW010 SCT020 BKN030 01/M03     Q1017 RMK 1CU010 3CU020 5CU030 A3003=,- SN SH
20180125_090000.002,0,RJOR,,,,0,20180125090000,-1,-1,-1,-1,280,-1,14,-1,-1,-1,-1,,1000,1,1,3,FEW 5   SCT 10   BKN 15,-1,0,-1,2,1017,RJOR 250900Z 28014KT 1000 R10/1600VP1800N -SHSN FEW005 SCT010     BKN015 M00/M02 Q1017 RMK 1ST005 3CU010 5CU015 A3004=,- SN SH
20180125_100000.003,0,RJOR,,,,0,20180125100000,-1,-1,-1,-1,210,-1,10,-1,-1,-1,-1,,3000,0,1,3,FEW 5   SCT 20   BKN 25,-1,0,-1,2,1016,RJOR 251000Z 21010KT 3000 -SHSN FEW005 SCT020 BKN025 M00/M02     Q1016 RMK 1ST005 3CU020 5CU025 A3002=,- SN SH
20180125_110000.003,0,RJOR,,,,0,20180125110000,-1,-1,-1,-1,240,-1,13,-1,-1,200,270,,1000,1,1,3,FEW 5   SCT 10   BKN 15,-1,1,-1,3,1016,RJOR 251100Z 24013KT 200V270 1000 R10/1100VP1800U -SHSN FEW005     SCT010 BKN015 M01/M03 Q1016 RMK 1ST005 3CU010 5CU015           A3002=,- SN SH
20180125_120000.002,0,RJOR,,,,0,20180125120000,-1,-1,-1,-1,230,-1,12,-1,-1,190,260,,8000,0,1,3,FEW 8   SCT 20   BKN 30,-1,1,-1,3,1016,RJOR 251200Z 23012KT 190V260 8000 -SHSN FEW008 SCT020 BKN030     M01/M03 Q1016 RMK 1ST008 3CU020 5CU030 A3000=,- SN SH
20180125_213000.001,0,RJOR,,,,0,20180125210000,-1,-1,-1,-1,330,-1,26,-1,-1,-1,-1,,9999,0,0,3,FEW 10   SCT 30   BKN 50,1,1,-1,3,1014,RJOR 252130Z 33026KT 9999 FEW010 SCT030 BKN050 01/M03 Q1014     RMK 1CU010 3CU030 5SC050 A2995=,
20180125_220000.002,0,RJOR,,,,0,20180125220000,-1,-1,-1,-1,320,-1,27,-1,-1,-1,-1,,9999,0,0,3,FEW 10   SCT 20   BKN 40,1,2,-1,3,1014,RJOR 252200Z 32027KT 9999 FEW010 SCT020 BKN040 02/M03 Q1014     RMK 1CU010 3CU020 5CU040 A2995=,
20180125_230000.002,0,RJOR,,,,0,20180125230000,-1,-1,-1,-1,310,-1,26,-1,-1,-1,-1,,9999,0,1,3,FEW 10   SCT 20   BKN 40,1,1,-1,4,1014,RJOR 252300Z 31026KT 9999 -SHSN FEW010 SCT020 BKN040 01/M04     Q1014 RMK 1CU010 3CU020 5CU040 A2996=,- SN SH
20180126_000000.002,0,RJOR,,,,0,20180126000000,-1,-1,-1,-1,320,-1,24,-1,-1,-1,-1,,9999,0,1,3,FEW 10   SCT 20   BKN 40,1,1,-1,4,1015,RJOR 260000Z 32024KT 9999 -SHSN FEW010 SCT020 BKN040 01/M04     Q1015 RMK 1CU010 3CU020 5CU040 A2997=,- SN SH
20180126_010000.002,0,RJOR,,,,0,20180126010000,-1,-1,-1,-1,290,-1,24,-1,-1,-1,-1,,8000,0,1,3,FEW 10   SCT 20   BKN 40,1,2,-1,3,1015,RJOR 260100Z 29024KT 8000 -SHSN FEW010 SCT020 BKN040 02/M03     Q1015 RMK 1CU010 3CU020 5CU040 A2999=,- SN SH
20180126_020000.002,0,RJOR,,,,0,20180126020000,-1,-1,-1,-1,310,-1,26,-1,-1,-1,-1,,400,1,1,3,FEW 5   SCT 10   BKN 15,-1,0,-1,3,1016,RJOR 260200Z 31026KT 0400 R10/0350V1800D SHSN FEW005 SCT010     BKN015 M00/M03 Q1016 RMK 1ST005 3CU010 5CU015 A3000=,SN SH
20180126_030000.002,0,RJOR,,,,0,20180126030000,-1,-1,-1,-1,320,-1,22,-1,-1,-1,-1,,4000,1,1,3,FEW 5   SCT 10   BKN 15,1,1,-1,2,1015,RJOR 260300Z 32022KT 4000 R10/0750VP1800U -SHSN FEW005 SCT010     BKN015 01/M02 Q1015 RMK 1ST005 3CU010 5CU015 A2997=,- SN SH
20180126_040000.002,0,RJOR,,,,0,20180126040000,-1,-1,-1,-1,310,-1,28,-1,-1,-1,-1,,3000,1,1,3,FEW 5   SCT 10   BKN 15,1,0,-1,3,1014,RJOR 260400Z 31028KT 3000 R10/1300VP1800U -SHSN FEW005 SCT010     BKN015 00/M03 Q1014 RMK 1ST005 3CU010 5CU015 A2996=,- SN SH
20180126_050000.002,0,RJOR,,,,0,20180126050000,-1,-1,-1,-1,320,-1,28,-1,40,-1,-1,,1500,1,1,3,FEW 5   SCT 15   BKN 25,1,0,-1,2,1014,RJOR 260500Z 32028G40KT 1500 R10/1800D -SHSN FEW005 SCT015     BKN025 00/M02 Q1014 RMK 1ST005 3CU015 5CU025 A2996=,- SN SH
20180126_060000.002,0,RJOR,,,,0,20180126060000,-1,-1,-1,-1,310,-1,23,-1,-1,-1,-1,,5000,0,1,3,FEW 5   SCT 20   BKN 30,1,0,-1,4,1015,RJOR 260600Z 31023KT 5000 -SHSN FEW005 SCT020 BKN030 00/M04     Q1015 RMK 1ST005 3CU020 5CU030 A2997=,- SN SH
20180126_070000.002,0,RJOR,,,,0,20180126070000,-1,-1,-1,-1,330,-1,27,-1,-1,-1,-1,,9999,0,1,3,FEW 10   SCT 25   BKN 40,1,1,-1,3,1015,RJOR 260700Z 33027KT 9999 -SHSN FEW010 SCT025 BKN040 01/M03     Q1015 RMK 1CU010 3CU025 5CU040 A2998=,- SN SH
20180126_080000.003,0,RJOR,,,,0,20180126080000,-1,-1,-1,-1,330,-1,27,-1,-1,-1,-1,,1000,1,1,3,FEW 5   SCT 15   BKN 25,-1,1,-1,4,1016,RJOR 260800Z 33027KT 1000 R10/1200VP1800D -SHSN FEW005 SCT015     BKN025 M01/M04 Q1016 RMK 1ST005 3CU015 5CU025 A3000=,- SN SH
20180126_090000.002,0,RJOR,,,,0,20180126090000,-1,-1,-1,-1,330,-1,25,-1,-1,-1,-1,,5000,0,1,3,FEW 5   SCT 15   BKN 25,1,0,-1,4,1016,RJOR 260900Z 33025KT 5000 -SHSN FEW005 SCT015 BKN025 00/M04     Q1016 RMK 1ST005 3CU015 5CU025 A3003=,- SN SH
20180126_100000.002,0,RJOR,,,,0,20180126100000,-1,-1,-1,-1,330,-1,28,-1,-1,-1,-1,,5000,0,1,3,FEW 5   SCT 15   BKN 25,1,1,-1,4,1017,RJOR 261000Z 33028KT 5000 -SHSN FEW005 SCT015 BKN025 01/M04     Q1017 RMK 1ST005 3CU015 5CU025 A3004=,- SN SH
20180126_110000.002,0,RJOR,,,,0,20180126110000,-1,-1,-1,-1,340,-1,26,-1,-1,-1,-1,,7000,0,1,3,FEW 10   SCT 25   BKN 40,1,1,-1,6,1018,RJOR 261100Z 34026KT 7000 -SHSN FEW010 SCT025 BKN040 01/M06     Q1018 RMK 1CU010 3CU025 5CU040 A3006=,- SN SH
20180126_120000.002,0,RJOR,,,,0,20180126120000,-1,-1,-1,-1,340,-1,27,-1,-1,-1,-1,,9999,0,0,3,FEW 10   SCT 25   BKN 40,1,0,-1,8,1018,RJOR 261200Z 34027KT 9999 FEW010 SCT025 BKN040 00/M08 Q1018     RMK 1CU010 3CU025 5CU040 A3008=,
20180126_213000.001,0,RJOR,,,,0,20180126210000,-1,-1,-1,-1,340,-1,23,-1,-1,-1,-1,,9999,0,1,3,FEW 15   SCT 25   BKN 40,1,2,-1,4,1021,RJOR 262130Z 34023KT 9999 -SHSN FEW015 SCT025 BKN040 02/M04     Q1021 RMK 1CU015 3CU025 5CU040 A3016=,- SN SH
20180126_220000.002,0,RJOR,,,,0,20180126220000,-1,-1,-1,-1,340,-1,24,-1,-1,-1,-1,,9999,0,1,2,FEW 15   BKN 35,1,2,-1,4,1021,RJOR 262200Z 34024KT 9999 -SHSN FEW015 BKN035 02/M04 Q1021 RMK     2CU015 5CU035 A3018=,- SN SH
20180126_230000.002,0,RJOR,,,,0,20180126230000,-1,-1,-1,-1,330,-1,21,-1,-1,-1,-1,,9999,0,1,2,FEW 15   BKN 35,1,2,-1,5,1022,RJOR 262300Z 33021KT 9999 -SHSN FEW015 BKN035 02/M05 Q1022 RMK     1CU015 5CU035 A3020=,- SN SH
20180127_000000.002,0,RJOR,,,,0,20180127000000,-1,-1,-1,-1,340,-1,21,-1,-1,-1,-1,,9999,0,1,2,FEW 10   BKN 35,1,2,-1,3,1023,RJOR 270000Z 34021KT 9999 -SHSN FEW010 BKN035 02/M03 Q1023 RMK     1CU010 5CU035 A3022=,- SN SH
20180127_010000.002,0,RJOR,,,,0,20180127010000,-1,-1,-1,-1,350,-1,22,-1,-1,-1,-1,,9999,0,1,2,FEW 15   SCT 35,1,2,-1,4,1024,RJOR 270100Z 35022KT 9999 VCSH FEW015 SCT035 02/M04 Q1024 RMK     2CU015 4CU035 A3024=,VC SH
20180127_020000.002,0,RJOR,,,,0,20180127020000,-1,-1,-1,-1,340,-1,18,-1,-1,-1,-1,,9999,0,1,2,FEW 15   BKN 35,1,3,-1,5,1023,RJOR 270200Z 34018KT 9999 VCSH FEW015 BKN035 03/M05 Q1023 RMK     1CU015 5CU035 A3023=,VC SH
20180127_030000.002,0,RJOR,,,,0,20180127030000,-1,-1,-1,-1,350,-1,15,-1,-1,-1,-1,,9999,0,0,2,FEW 20   SCT 35,1,3,-1,6,1023,RJOR 270300Z 35015KT 9999 FEW020 SCT035 03/M06 Q1023 RMK     1CU020 3CU035 A3023=,
20180127_040000.002,0,RJOR,,,,0,20180127040000,-1,-1,-1,-1,330,-1,14,-1,-1,-1,-1,,9999,0,0,2,FEW 30   BKN 40,1,3,-1,5,1023,RJOR 270400Z 33014KT 9999 FEW030 BKN040 03/M05 Q1023 RMK     1CU030 5CU040 A3021=,
20180127_050000.002,0,RJOR,,,,0,20180127050000,-1,-1,-1,-1,340,-1,13,-1,-1,-1,-1,,9999,0,0,3,FEW 30   SCT 40   BKN 60,1,3,-1,6,1023,RJOR 270500Z 34013KT 9999 FEW030 SCT040 BKN060 03/M06 Q1023     RMK 1CU030 3CU040 5SC060 A3021=,
20180127_060000.002,0,RJOR,,,,0,20180127060000,-1,-1,-1,-1,330,-1,8,-1,-1,290,360,,9999,0,1,3,FEW 20   SCT 30   BKN 50,1,3,-1,5,1023,RJOR 270600Z 33008KT 290V360 9999 VCSH FEW020 SCT030 BKN050     03/M05 Q1023 RMK 1CU020 3CU030 5SC050 A3022=,VC SH
20180127_070000.002,0,RJOR,,,,0,20180127070000,-1,-1,-1,-1,330,-1,8,-1,-1,300,360,,9999,0,1,3,FEW 20   SCT 30   BKN 50,1,3,-1,5,1022,RJOR 270700Z 33008KT 300V360 9999 VCSH FEW020 SCT030 BKN050     03/M05 Q1022 RMK 1CU020 3CU030 5SC050 A3021=,VC SH
20180127_080000.002,0,RJOR,,,,0,20180127080000,-1,-1,-1,-1,340,-1,7,-1,-1,290,10,,9999,0,1,3,FEW 15   SCT 25   BKN 40,1,3,-1,3,1023,RJOR 270800Z 34007KT 290V010 9999 VCSH FEW015 SCT025 BKN040     03/M03 Q1023 RMK 1CU015 3CU025 5CU040 A3021=,VC SH
20180127_090000.003,0,RJOR,,,,0,20180127090000,-1,-1,-1,-1,360,-1,12,-1,-1,-1,-1,,9999,0,1,3,FEW 15   SCT 25   BKN 40,1,3,-1,3,1023,RJOR 270900Z 36012KT 9999 VCSH FEW015 SCT025 BKN040 03/M03     Q1023 RMK 1CU015 3CU025 5CU040 A3022=,VC SH
20180127_100000.002,0,RJOR,,,,0,20180127100000,-1,-1,-1,-1,170,-1,6,-1,-1,-1,-1,,9999,0,1,3,FEW 15   SCT 30   BKN 45,1,1,-1,2,1023,RJOR 271000Z 17006KT 9999 VCSH FEW015 SCT030 BKN045 01/M02     Q1023 RMK 1CU015 3CU030 5CU045 A3023=,VC SH
20180127_110000.002,0,RJOR,,,,0,20180127110000,-1,-1,-1,-1,170,-1,6,-1,-1,-1,-1,,9999,0,1,3,FEW 15   SCT 30   BKN 60,1,1,-1,2,1023,RJOR 271100Z 17006KT 9999 -SHSN FEW015 SCT030 BKN060 01/M02     Q1023 RMK 1CU015 3CU030 5SC060 A3022=,- SN SH
20180127_120000.002,0,RJOR,,,,0,20180127120000,-1,-1,-1,-1,160,-1,3,-1,-1,-1,-1,,8000,0,1,3,FEW 10   SCT 20   BKN 30,1,1,-1,2,1023,RJOR 271200Z 16003KT 8000 -SHSN FEW010 SCT020 BKN030 01/M02     Q1023 RMK 1CU010 3CU020 5CU030 A3022=,- SN SH
20180127_213000.001,0,RJOR,,,,0,20180127210000,-1,-1,-1,-1,140,-1,9,-1,-1,-1,-1,,9999,0,0,3,FEW 50   SCT 120   BKN 150,-1,0,-1,4,1019,RJOR 272130Z 14009KT 9999 FEW050 SCT120 BKN150 M00/M04 Q1019     RMK 1SC050 4AC120 5AC150 A3011=,
20180127_220000.002,0,RJOR,,,,0,20180127220000,-1,-1,-1,-1,130,-1,9,-1,-1,-1,-1,,9999,0,0,3,FEW 40   SCT 100   BKN 120,1,0,-1,4,1018,RJOR 272200Z 13009KT 9999 FEW040 SCT100 BKN120 00/M04 Q1018     RMK 1SC040 4AC100 6AC120 A3009=,
20180127_230000.002,0,RJOR,,,,0,20180127230000,-1,-1,-1,-1,140,-1,8,-1,-1,-1,-1,,9999,0,0,3,FEW 40   SCT 80   BKN 100,1,0,-1,4,1018,RJOR 272300Z 14008KT 9999 FEW040 SCT080 BKN100 00/M04 Q1018     RMK 1SC040 3AC080 5AC100 A3008=,
20180128_000000.003,0,RJOR,,,,0,20180128000000,-1,-1,-1,-1,140,-1,8,-1,-1,-1,-1,,9999,0,0,3,FEW 40   SCT 70   BKN 100,1,2,-1,4,1018,RJOR 280000Z 14008KT 9999 FEW040 SCT070 BKN100 02/M04 Q1018     RMK 1SC040 3AC070 6AC100 A3007=,
20180128_010000.002,0,RJOR,,,,0,20180128010000,-1,-1,-1,-1,140,-1,10,-1,-1,-1,-1,,9999,0,0,3,FEW 40   SCT 80   BKN 100,1,3,-1,4,1017,RJOR 280100Z 14010KT 9999 FEW040 SCT080 BKN100 03/M04 Q1017     RMK 1SC040 3AC080 6AC100 A3004=,
20180128_020000.002,0,RJOR,,,,0,20180128020000,-1,-1,-1,-1,150,-1,8,-1,-1,-1,-1,,9999,0,0,3,FEW 40   SCT 50   BKN 70,1,4,-1,4,1015,RJOR 280200Z 15008KT 9999 FEW040 SCT050 BKN070 04/M04 Q1015     RMK 1SC040 3SC050 5AC070 A2999=,
20180128_030000.002,0,RJOR,,,,0,20180128030000,-1,-1,-1,-1,170,-1,12,-1,-1,-1,-1,,9999,0,0,3,FEW 30   SCT 45   BKN 60,1,3,-1,3,1014,RJOR 280300Z 17012KT 9999 FEW030 SCT045 BKN060 03/M03 Q1014     RMK 1CU030 3SC045 5SC060 A2996=,
20180128_040000.002,0,RJOR,,,,0,20180128040000,-1,-1,-1,-1,140,-1,10,-1,-1,-1,-1,,9999,0,0,3,FEW 35   SCT 80   BKN 150,1,4,-1,3,1013,RJOR 280400Z 14010KT 9999 FEW035 SCT080 BKN150 04/M03 Q1013     RMK 1CU035 3AC080 5AC150 A2993=,
20180128_050000.002,0,RJOR,,,,0,20180128050000,-1,-1,-1,-1,200,-1,7,-1,-1,140,240,,9999,0,0,3,FEW 30   SCT 40   BKN 60,1,5,-1,3,1013,RJOR 280500Z 20007KT 140V240 9999 FEW030 SCT040 BKN060 05/M03     Q1013 RMK 1CU030 3SC040 5SC060 A2992=,
20180128_060000.002,0,RJOR,,,,0,20180128060000,-1,-1,-1,-1,240,-1,9,-1,-1,-1,-1,,9999,0,0,3,FEW 30   SCT 40   BKN 70,1,6,-1,3,1013,RJOR 280600Z 24009KT 9999 FEW030 SCT040 BKN070 06/M03 Q1013     RMK 1CU030 3CU040 5AC070 A2992=,
20180128_070000.003,0,RJOR,,,,0,20180128070000,-1,-1,-1,-1,150,-1,5,-1,-1,130,200,,9999,0,0,3,FEW 30   SCT 40   BKN 70,1,4,-1,2,1013,RJOR 280700Z 15005KT 130V200 9999 FEW030 SCT040 BKN070 04/M02     Q1013 RMK 1CU030 3CU040 5AC070 A2993=,
20180128_080000.002,0,RJOR,,,,0,20180128080000,-1,-1,-1,-1,160,-1,5,-1,-1,-1,-1,,9999,0,1,3,FEW 15   SCT 30   BKN 50,1,4,-1,2,1013,RJOR 280800Z 16005KT 9999 -SHRA FEW015 SCT030 BKN050 04/M02     Q1013 RMK 1CU015 3CU030 5SC050 A2993=,- RA SH
20180128_090000.002,0,RJOR,,,,0,20180128090000,-1,-1,-1,-1,170,-1,6,-1,-1,-1,-1,,9999,0,1,3,FEW 15   SCT 25   BKN 40,1,3,-1,1,1013,RJOR 280900Z 17006KT 9999 -SHRA FEW015 SCT025 BKN040 03/M01     Q1013 RMK 1CU015 3CU025 5CU040 A2993=,- RA SH
20180128_100000.002,0,RJOR,,,,0,20180128100000,-1,-1,-1,-1,190,-1,6,-1,-1,170,280,,9999,0,1,3,FEW 10   SCT 20   BKN 40,1,3,-1,1,1014,RJOR 281000Z 19006KT 170V280 9999 -SHRA FEW010 SCT020 BKN040     03/M01 Q1014 RMK 1CU010 3CU020 5CU040 A2995=,- RA SH
20180128_110000.002,0,RJOR,,,,0,20180128110000,-1,-1,-1,-1,220,-1,8,-1,-1,-1,-1,,9999,0,1,3,FEW 10   SCT 20   BKN 40,1,3,-1,0,1014,RJOR 281100Z 22008KT 9999 -SHRA FEW010 SCT020 BKN040 03/M00     Q1014 RMK 1CU010 3CU020 5CU040 A2996=,- RA SH
20180128_120000.002,0,RJOR,,,,0,20180128120000,-1,-1,-1,-1,250,-1,12,-1,-1,-1,-1,,9999,0,0,3,FEW 20   SCT 40   BKN 60,1,4,-1,1,1014,RJOR 281200Z 25012KT 9999 FEW020 SCT040 BKN060 04/M01 Q1014     RMK 1CU020 3CU040 5SC060 A2995=,
20180128_213000.001,0,RJOR,,,,0,20180128210000,-1,-1,-1,-1,240,-1,7,-1,-1,-1,-1,,9999,0,0,3,FEW 20   SCT 30   BKN 45,1,3,-1,5,1012,RJOR 282130Z 24007KT 9999 FEW020 SCT030 BKN045 03/M05 Q1012     RMK 1CU020 3CU030 5CU045 A2991=,
20180128_220000.003,0,RJOR,,,,0,20180128220000,-1,-1,-1,-1,230,-1,10,-1,-1,-1,-1,,9999,0,1,3,FEW 20   SCT 30   BKN 45,1,3,-1,5,1013,RJOR 282200Z 23010KT 9999 -SHSN FEW020 SCT030 BKN045 03/M05     Q1013 RMK 1CU020 3CU030 5CU045 A2993=,- SN SH
20180128_230000.002,0,RJOR,,,,0,20180128230000,-1,-1,-1,-1,250,-1,15,-1,-1,-1,-1,,9999,0,0,3,FEW 30   SCT 45   BKN 70,1,3,-1,6,1013,RJOR 282300Z 25015KT 9999 FEW030 SCT045 BKN070 03/M06 Q1013     RMK 1CU030 3CU045 5AC070 A2993=,
20180129_000000.003,0,RJOR,,,,0,20180129000000,-1,-1,-1,-1,240,-1,11,-1,-1,210,270,,9999,0,1,3,FEW 20   SCT 30   BKN 45,1,3,-1,5,1014,RJOR 290000Z 24011KT 210V270 9999 -SHSN FEW020 SCT030 BKN045     03/M05 Q1014 RMK 1CU020 3CU030 5CU045 A2995=,- SN SH
20180129_010000.002,0,RJOR,,,,0,20180129010000,-1,-1,-1,-1,240,-1,13,-1,-1,-1,-1,,3500,0,1,3,FEW 10   SCT 20   BKN 30,1,2,-1,3,1014,RJOR 290100Z 24013KT 3500 -SHSN FEW010 SCT020 BKN030 02/M03     Q1014 RMK 1CU010 3CU020 5CU030 A2996=,- SN SH
20180129_020000.002,0,RJOR,,,,0,20180129020000,-1,-1,-1,-1,260,-1,16,-1,-1,-1,-1,,5000,0,1,3,FEW 10   SCT 25   BKN 35,1,2,-1,3,1014,RJOR 290200Z 26016KT 5000 -SHSN FEW010 SCT025 BKN035 02/M03     Q1014 RMK 1CU010 3CU025 5CU035 A2995=,- SN SH
20180129_030000.002,0,RJOR,,,,0,20180129030000,-1,-1,-1,-1,260,-1,18,-1,-1,-1,-1,,9999,0,0,2,FEW 25   SCT 70,1,4,-1,5,1013,RJOR 290300Z 26018KT 9999 FEW025 SCT070 04/M05 Q1013 RMK     1CU025 3AC070 A2993=,
20180129_040000.002,0,RJOR,,,,0,20180129040000,-1,-1,-1,-1,270,-1,23,-1,35,-1,-1,,9999,0,1,3,FEW 20   SCT 35   BKN 45,1,2,-1,3,1013,RJOR 290400Z 27023G35KT 9999 -SHSN FEW020 SCT035 BKN045 02/M03     Q1013 RMK 1CU020 3CU035 5CU045 A2992=,- SN SH
20180129_050000.002,0,RJOR,,,,0,20180129050000,-1,-1,-1,-1,260,-1,23,-1,34,-1,-1,,9999,0,0,2,FEW 20   SCT 70,1,4,-1,6,1013,RJOR 290500Z 26023G34KT 9999 FEW020 SCT070 04/M06 Q1013 RMK     2CU020 4AC070 A2991=,
20180129_060000.002,0,RJOR,,,,0,20180129060000,-1,-1,-1,-1,250,-1,19,-1,-1,-1,-1,,9999,0,0,2,FEW 20   SCT 60,1,3,-1,7,1013,RJOR 290600Z 25019KT 9999 FEW020 SCT060 03/M07 Q1013 RMK     1CU020 3SC060 A2993=,
20180129_070000.002,0,RJOR,,,,0,20180129070000,-1,-1,-1,-1,250,-1,17,-1,29,-1,-1,,9999,0,1,3,FEW 10   SCT 20   BKN 50,1,1,-1,6,1014,RJOR 290700Z 25017G29KT 9999 -SHSN FEW010 SCT020 BKN050 01/M06     Q1014 RMK 1CU010 3CU020 5SC050 A2994=,- SN SH
20180129_080000.002,0,RJOR,,,,0,20180129080000,-1,-1,-1,-1,240,-1,17,-1,-1,-1,-1,,1000,1,1,2,FEW 10   BKN 20,-1,1,-1,4,1015,RJOR 290800Z 24017KT 1000 R10/1100VP1800U -SHSN FEW010 BKN020     M01/M04 Q1015 RMK 2CU010 6CU020 A2998 P/RR=,- SN SH
20180129_090000.002,0,RJOR,,,,0,20180129090000,-1,-1,-1,-1,280,-1,34,-1,-1,-1,-1,,6000,0,1,3,FEW 10   SCT 20   BKN 40,1,1,-1,3,1015,RJOR 290900Z 28034KT 6000 -SHSN FEW010 SCT020 BKN040 01/M03     Q1015 RMK 2CU010 3CU020 5SC040 A3000=,- SN SH
20180129_100000.002,0,RJOR,,,,0,20180129100000,-1,-1,-1,-1,230,-1,13,-1,-1,-1,-1,,9999,0,1,3,FEW 10   SCT 20   BKN 40,-1,0,-1,4,1017,RJOR 291000Z 23013KT 9999 -SHSN FEW010 SCT020 BKN040 M00/M04     Q1017 RMK 1CU010 3CU020 5SC040 A3003=,- SN SH
20180129_110000.002,0,RJOR,,,,0,20180129110000,-1,-1,-1,-1,240,-1,11,-1,-1,-1,-1,,2000,0,1,3,FEW 5   SCT 10   BKN 20,-1,1,-1,4,1017,RJOR 291100Z 24011KT 2000 -SHSN FEW005 SCT010 BKN020 M01/M04     Q1017 RMK 1ST005 3CU010 5CU020 A3004=,- SN SH
20180129_120000.002,0,RJOR,,,,0,20180129120000,-1,-1,-1,-1,230,-1,12,-1,-1,-1,-1,,4000,0,1,3,FEW 10   SCT 15   BKN 25,-1,1,-1,5,1017,RJOR 291200Z 23012KT 4000 -SHSN FEW010 SCT015 BKN025 M01/M05     Q1017 RMK 1CU010 3CU015 5CU025 A3005=,- SN SH
20180129_213000.001,0,RJOR,,,,0,20180129210000,-1,-1,-1,-1,200,-1,4,-1,-1,-1,-1,,9999,0,1,2,FEW 10   SCT 30,-1,1,-1,4,1019,RJOR 292130Z 20004KT 9999 -SHSN FEW010 SCT030 M01/M04 Q1019     RMK 1CU010 4CU030 A3010=,- SN SH
20180129_220000.002,0,RJOR,,,,0,20180129220000,-1,-1,-1,-1,210,-1,7,-1,-1,180,240,,9999,0,1,3,FEW 10   SCT 20   BKN 50,-1,1,-1,4,1019,RJOR 292200Z 21007KT 180V240 9999 -SHSN FEW010 SCT020 BKN050     M01/M04 Q1019 RMK 2CU010 3CU020 5SC050 A3011 3000W-N=,- SN SH
20180129_230000.002,0,RJOR,,,,0,20180129230000,-1,-1,-1,-1,230,-1,5,-1,-1,-1,-1,,4000,0,1,3,FEW 8   SCT 15   BKN 25,-1,1,-1,5,1020,RJOR 292300Z 23005KT 4000 -SHSN FEW008 SCT015 BKN025 M01/M05     Q1020 RMK 1ST008 3CU015 5CU025 A3013 9999SE-S=,- SN SH
20180130_000000.002,0,RJOR,,,,0,20180130000000,-1,-1,-1,-1,240,-1,8,-1,-1,-1,-1,,9999,0,0,2,FEW 20   SCT 60,1,0,-1,5,1020,RJOR 300000Z 24008KT 9999 FEW020 SCT060 00/M05 Q1020 RMK     2CU020 3SC060 A3014=,
20180130_010000.002,0,RJOR,,,,0,20180130010000,-1,-1,-1,-1,250,-1,6,-1,-1,-1,-1,,9999,0,1,2,FEW 20   SCT 70,1,1,-1,5,1020,RJOR 300100Z 25006KT 9999 -SHSN FEW020 SCT070 01/M05 Q1020 RMK     2CU020 3AC070 A3013 4000NW=,- SN SH
20180130_020000.002,0,RJOR,,,,0,20180130020000,-1,-1,-1,-1,260,-1,17,-1,-1,-1,-1,,9999,0,1,3,FEW 15   SCT 30   BKN 40,1,1,-1,4,1020,RJOR 300200Z 26017KT 9999 -SHSN FEW015 SCT030 BKN040 01/M04     Q1020 RMK 2CU015 3CU030 5SC040 A3013=,- SN SH
20180130_030000.002,0,RJOR,,,,0,20180130030000,-1,-1,-1,-1,260,-1,19,-1,-1,-1,-1,,9999,0,1,2,FEW 20   BKN 35,1,2,-1,5,1019,RJOR 300300Z 26019KT 9999 -SHSN FEW020 BKN035 02/M05 Q1019 RMK     1CU020 5CU035 A3011=,- SN SH
20180130_040000.002,0,RJOR,,,,0,20180130040000,-1,-1,-1,-1,250,-1,14,-1,-1,-1,-1,,9999,0,0,3,FEW 20   SCT 30   BKN 50,1,2,-1,5,1019,RJOR 300400Z 25014KT 9999 FEW020 SCT030 BKN050 02/M05 Q1019     RMK 1CU020 3CU030 5SC050 A3010=,
20180130_050000.002,0,RJOR,,,,0,20180130050000,-1,-1,-1,-1,240,-1,11,-1,-1,-1,-1,,9999,0,1,2,FEW 20   BKN 40,1,4,-1,7,1019,RJOR 300500Z 24011KT 9999 VCSH FEW020 BKN040 04/M07 Q1019 RMK     1CU020 5CU040 A3010=,VC SH
20180130_060000.003,0,RJOR,,,,0,20180130060000,-1,-1,-1,-1,250,-1,18,-1,-1,-1,-1,,9999,0,1,2,FEW 20   SCT 40,1,3,-1,7,1020,RJOR 300600Z 25018KT 9999 VCSH FEW020 SCT040 03/M07 Q1020 RMK     1CU020 3CU040 A3013=,VC SH
20180130_070000.002,0,RJOR,,,,0,20180130070000,-1,-1,-1,-1,240,-1,11,-1,-1,210,280,,9999,0,1,3,FEW 20   SCT 30   BKN 50,1,3,-1,6,1020,RJOR 300700Z 24011KT 210V280 9999 -SHSN FEW020 SCT030 BKN050     03/M06 Q1020 RMK 1CU020 3CU030 5SC050 A3015=,- SN SH
20180130_080000.002,0,RJOR,,,,0,20180130080000,-1,-1,-1,-1,240,-1,11,-1,-1,200,280,,9999,0,1,3,FEW 20   SCT 30   BKN 50,1,2,-1,6,1021,RJOR 300800Z 24011KT 200V280 9999 -SHSN FEW020 SCT030 BKN050     02/M06 Q1021 RMK 1CU020 3CU030 5SC050 A3016=,- SN SH
20180130_090000.002,0,RJOR,,,,0,20180130090000,-1,-1,-1,-1,250,-1,12,-1,-1,-1,-1,,9999,0,1,3,FEW 15   SCT 30   BKN 40,1,1,-1,5,1022,RJOR 300900Z 25012KT 9999 -SHSN FEW015 SCT030 BKN040 01/M05     Q1022 RMK 1CU015 3CU030 5CU040 A3018=,- SN SH
20180130_100000.002,0,RJOR,,,,0,20180130100000,-1,-1,-1,-1,230,-1,6,-1,-1,-1,-1,,9999,0,1,3,FEW 10   SCT 20   BKN 40,1,1,-1,5,1023,RJOR 301000Z 23006KT 9999 -SHSN FEW010 SCT020 BKN040 01/M05     Q1023 RMK 1CU010 3CU020 5CU040 A3021=,- SN SH
20180130_110000.002,0,RJOR,,,,0,20180130110000,-1,-1,-1,-1,230,-1,8,-1,-1,-1,-1,,9999,0,0,3,FEW 15   SCT 30   BKN 50,1,2,-1,6,1023,RJOR 301100Z 23008KT 9999 FEW015 SCT030 BKN050 02/M06 Q1023     RMK 1CU015 3CU030 5SC050 A3023=,
20180130_120000.002,0,RJOR,,,,0,20180130120000,-1,-1,-1,-1,250,-1,14,-1,-1,220,290,,4000,0,1,3,FEW 5   SCT 20   BKN 30,1,0,-1,4,1024,RJOR 301200Z 25014KT 220V290 4000 -SHSN FEW005 SCT020 BKN030     00/M04 Q1024 RMK 1ST005 3CU020 5CU030 A3024=,- SN SH
20180130_213000.001,0,RJOR,,,,0,20180130210000,-1,-1,-1,-1,140,-1,10,-1,-1,-1,-1,,9999,0,0,2,FEW 20   SCT 70,-1,1,-1,6,1024,RJOR 302130Z 14010KT 9999 FEW020 SCT070 M01/M06 Q1024 RMK     1CU020 4AC070 A3025=,
20180130_220000.002,0,RJOR,,,,0,20180130220000,-1,-1,-1,-1,140,-1,10,-1,-1,-1,-1,,9999,0,0,2,FEW 40   SCT 70,-1,1,-1,6,1024,RJOR 302200Z 14010KT 9999 FEW040 SCT070 M01/M06 Q1024 RMK     1SC040 3AC070 A3026=,
20180130_230000.002,0,RJOR,,,,0,20180130230000,-1,-1,-1,-1,130,-1,10,-1,-1,-1,-1,,9999,0,0,2,FEW 40   SCT 70,-1,1,-1,7,1025,RJOR 302300Z 13010KT 9999 FEW040 SCT070 M01/M07 Q1025 RMK     1CU040 3AC070 A3028=,
20180131_000000.002,0,RJOR,,,,0,20180131000000,-1,-1,-1,-1,140,-1,7,-1,-1,-1,-1,,9999,0,0,2,FEW 40   SCT 70,1,1,-1,6,1026,RJOR 310000Z 14007KT 9999 FEW040 SCT070 01/M06 Q1026 RMK     1CU040 3AC070 A3030=,
20180131_010000.002,0,RJOR,,,,0,20180131010000,-1,-1,-1,-1,230,-1,10,-1,-1,-1,-1,,9999,0,0,1,FEW 40,1,5,-1,6,1025,RJOR 310100Z 23010KT 9999 FEW040 05/M06 Q1025 RMK 1CU040     A3029=,
20180131_020000.002,0,RJOR,,,,0,20180131020000,-1,-1,-1,-1,270,-1,11,-1,-1,-1,-1,,9999,0,0,2,FEW 40   BKN 50,1,5,-1,5,1025,RJOR 310200Z 27011KT 9999 FEW040 BKN050 05/M05 Q1025 RMK     1CU040 6SC050 A3028=,
20180131_030000.002,0,RJOR,,,,0,20180131030000,-1,-1,-1,-1,260,-1,13,-1,-1,-1,-1,,9999,0,0,2,FEW 30   BKN 45,1,7,-1,5,1025,RJOR 310300Z 26013KT 9999 FEW030 BKN045 07/M05 Q1025 RMK     1CU030 5CU045 A3027=,
20180131_040000.002,0,RJOR,,,,0,20180131040000,-1,-1,-1,-1,260,-1,14,-1,-1,-1,-1,,9999,0,0,3,FEW 30   SCT 45   BKN -9999,1,7,-1,6,1024,RJOR 310400Z 26014KT 9999 FEW030 SCT045 BKN/// 07/M06 Q1024     RMK 1CU030 4CU045 A3024=,
20180131_050000.002,0,RJOR,,,,0,20180131050000,-1,-1,-1,-1,260,-1,11,-1,-1,230,300,,9999,0,0,3,FEW 30   SCT 50   BKN -9999,1,7,-1,7,1023,RJOR 310500Z 26011KT 230V300 9999 FEW030 SCT050 BKN/// 07/M07     Q1023 RMK 1CU030 4SC050 A3023=,
20180131_060000.002,0,RJOR,,,,0,20180131060000,-1,-1,-1,-1,250,-1,11,-1,-1,-1,-1,,9999,0,0,3,FEW 30   SCT 50   BKN -9999,1,7,-1,6,1023,RJOR 310600Z 25011KT 9999 FEW030 SCT050 BKN/// 07/M06 Q1023     RMK 1CU030 4SC050 A3021=,
20180131_070000.003,0,RJOR,,,,0,20180131070000,-1,-1,-1,-1,240,-1,7,-1,-1,-1,-1,,9999,0,0,3,FEW 30   SCT 45   BKN 120,1,6,-1,6,1024,RJOR 310700Z 24007KT 9999 FEW030 SCT045 BKN120 06/M06 Q1024     RMK 1CU030 3CU045 5AC120 A3024=,
20180131_080000.003,0,RJOR,,,,0,20180131080000,-1,-1,-1,-1,240,-1,9,-1,-1,-1,-1,,9999,0,0,3,FEW 30   SCT 45   BKN 120,1,6,-1,7,1024,RJOR 310800Z 24009KT 9999 FEW030 SCT045 BKN120 06/M07 Q1024     RMK 1CU030 3CU045 5AC120 A3025=,
20180131_090000.002,0,RJOR,,,,0,20180131090000,-1,-1,-1,-1,240,-1,6,-1,-1,-1,-1,,9999,0,0,3,FEW 30   SCT 70   BKN 120,1,5,-1,7,1024,RJOR 310900Z 24006KT 9999 FEW030 SCT070 BKN120 05/M07 Q1024     RMK 1CU030 3AC070 5AC120 A3026=,
20180131_100000.002,0,RJOR,,,,0,20180131100000,-1,-1,-1,-1,230,-1,6,-1,-1,-1,-1,,9999,0,0,3,FEW 30   SCT 70   BKN 120,1,5,-1,7,1024,RJOR 311000Z 23006KT 9999 FEW030 SCT070 BKN120 05/M07 Q1024     RMK 1CU030 3AC070 5AC120 A3026=,
20180131_110000.002,0,RJOR,,,,0,20180131110000,-1,-1,-1,-1,150,-1,5,-1,-1,-1,-1,,9999,0,0,3,FEW 25   SCT 60   BKN 100,1,3,-1,4,1024,RJOR 311100Z 15005KT 9999 FEW025 SCT060 BKN100 03/M04 Q1024     RMK 1CU025 3SC060 5AC100 A3026=,
20180131_120000.002,0,RJOR,,,,0,20180131120000,-1,-1,-1,-1,150,-1,5,-1,-1,-1,-1,,9999,0,0,3,FEW 25   SCT 60   BKN 100,1,2,-1,4,1024,RJOR 311200Z 15005KT 9999 FEW025 SCT060 BKN100 02/M04 Q1024     RMK 1CU025 3SC060 5AC100 A3024=,
20180131_213000.001,0,RJOR,,,,0,20180131210000,-1,-1,-1,-1,150,-1,5,-1,-1,-1,-1,,9999,0,1,3,FEW 15   SCT 20   BKN 30,1,1,-1,1,1024,RJOR 312130Z 15005KT 9999 -SHRASN FEW015 SCT020 BKN030 01/M01     Q1024 RMK 1CU015 3CU020 5SC030 A3026=,- RA SN SH
20180131_220000.002,0,RJOR,,,,0,20180131220000,-1,-1,-1,-1,180,-1,5,-1,-1,-1,-1,,9999,0,1,3,FEW 15   SCT 20   BKN 30,1,1,-1,1,1025,RJOR 312200Z 18005KT 9999 -SHRASN FEW015 SCT020 BKN030 01/M01     Q1025 RMK 1CU015 3CU020 5SC030 A3027=,- RA SN SH
20180131_230000.002,0,RJOR,,,,0,20180131230000,-1,-1,-1,-1,170,-1,6,-1,-1,-1,-1,,9999,0,1,3,FEW 5   SCT 10   BKN 20,1,1,-1,1,1025,RJOR 312300Z 17006KT 9999 -SHRA FEW005 SCT010 BKN020 01/M01     Q1025 RMK 1ST005 3CU010 5CU020 A3028=,- RA SH
20180201_000000.003,0,RJOR,,,,0,20180201000000,-1,-1,-1,-1,999,-1,5,-1,-1,-1,-1,,9999,0,1,3,FEW 5   SCT 10   BKN 15,1,2,-1,0,1025,RJOR 010000Z VRB05KT 9999 -SHRASN FEW005 SCT010 BKN015 02/M00     Q1025 RMK 1ST005 3CU010 5CU015 A3028=,- RA SN SH
20180201_010000.002,0,RJOR,,,,0,20180201010000,-1,-1,-1,-1,160,-1,8,-1,-1,-1,-1,,9999,0,0,3,FEW 5   SCT 15   BKN 30,1,2,1,0,1025,RJOR 010100Z 16008KT 9999 FEW005 SCT015 BKN030 02/00 Q1025 RMK     1ST005 4CU015 5SC030 A3027=,
20180201_020000.002,0,RJOR,,,,0,20180201020000,-1,-1,-1,-1,130,-1,6,-1,-1,-1,-1,,9999,0,1,3,FEW 15   SCT 30   BKN 40,1,2,-1,1,1024,RJOR 010200Z 13006KT 9999 -SHRA FEW015 SCT030 BKN040 02/M01     Q1024 RMK 1CU015 3CU030 5SC040 A3026=,- RA SH
20180201_030000.003,0,RJOR,,,,0,20180201030000,-1,-1,-1,-1,150,-1,7,-1,-1,-1,-1,,9999,0,0,3,FEW 20   SCT 40   BKN 70,1,4,1,0,1024,RJOR 010300Z 15007KT 9999 FEW020 SCT040 BKN070 04/00 Q1024 RMK     1CU020 3SC040 5AC070 A3024=,
20180201_040000.003,0,RJOR,,,,0,20180201040000,-1,-1,-1,-1,140,-1,3,-1,-1,110,220,,9999,0,0,2,FEW 25   SCT 60,1,5,1,1,1023,RJOR 010400Z 14003KT 110V220 9999 FEW025 SCT060 05/01 Q1023     RMK 2CU025 4SC060 A3021=,
20180201_050000.002,0,RJOR,,,,0,20180201050000,-1,-1,-1,-1,340,-1,8,-1,-1,300,20,,9999,0,1,3,FEW 15   SCT 35   BKN 70,1,5,1,1,1022,RJOR 010500Z 34008KT 300V020 9999 -SHRA FEW015 SCT035 BKN070     05/01 Q1022 RMK 1CU015 3CU035 5AC070 A3020=,- RA SH
20180201_060000.002,0,RJOR,,,,0,20180201060000,-1,-1,-1,-1,280,-1,6,-1,-1,-1,-1,,9999,0,0,3,FEW 15   SCT 40   BKN 70,1,5,1,1,1022,RJOR 010600Z 28006KT 9999 FEW015 SCT040 BKN070 05/01 Q1022 RMK     1CU015 3CU040 5AC070 A3020=,
20180201_070000.002,0,RJOR,,,,0,20180201070000,-1,-1,-1,-1,230,-1,4,-1,-1,-1,-1,,9999,0,0,3,FEW 15   SCT 40   BKN 70,1,5,1,1,1022,RJOR 010700Z 23004KT 9999 FEW015 SCT040 BKN070 05/01 Q1022 RMK     1CU015 3CU040 5AC070 A3020=,
20180201_080000.002,0,RJOR,,,,0,20180201080000,-1,-1,-1,-1,210,-1,4,-1,-1,-1,-1,,9999,0,0,3,FEW 15   SCT 30   BKN 70,1,5,1,1,1023,RJOR 010800Z 21004KT 9999 FEW015 SCT030 BKN070 05/01 Q1023 RMK     1CU015 3CU030 5AC070 A3022=,
20180201_090000.002,0,RJOR,,,,0,20180201090000,-1,-1,-1,-1,230,-1,5,-1,-1,-1,-1,,9999,0,1,3,FEW 10   SCT 25   BKN 45,1,4,1,1,1023,RJOR 010900Z 23005KT 9999 -SHRA FEW010 SCT025 BKN045 04/01     Q1023 RMK 1CU010 3CU025 5CU045 A3023=,- RA SH
20180201_100000.002,0,RJOR,,,,0,20180201100000,-1,-1,-1,-1,170,-1,3,-1,-1,-1,-1,,9999,0,0,3,FEW 10   SCT 25   BKN 45,1,4,1,1,1024,RJOR 011000Z 17003KT 9999 FEW010 SCT025 BKN045 04/01 Q1024 RMK     1CU010 3CU025 5CU045 A3024=,
20180201_110000.002,0,RJOR,,,,0,20180201110000,-1,-1,-1,-1,170,-1,5,-1,-1,-1,-1,,9999,0,0,3,FEW 10   SCT 30   BKN 60,1,3,1,1,1024,RJOR 011100Z 17005KT 9999 FEW010 SCT030 BKN060 03/01 Q1024 RMK     1CU010 3CU030 5SC060 A3026=,
20180201_120000.002,0,RJOR,,,,0,20180201120000,-1,-1,-1,-1,150,-1,5,-1,-1,-1,-1,,9999,0,0,3,FEW 10   SCT 30   BKN 60,1,2,1,0,1025,RJOR 011200Z 15005KT 9999 FEW010 SCT030 BKN060 02/00 Q1025 RMK     1CU010 3CU030 5SC060 A3027=,
20180201_213000.001,0,RJOR,,,,0,20180201210000,-1,-1,-1,-1,130,-1,7,-1,-1,-1,-1,,9999,0,0,2,FEW 40   BKN 60,1,0,-1,2,1024,RJOR 012130Z 13007KT 9999 FEW040 BKN060 00/M02 Q1024 RMK     1CU040 5SC060 A3024=,
20180201_220000.002,0,RJOR,,,,0,20180201220000,-1,-1,-1,-1,140,-1,8,-1,-1,-1,-1,,9999,0,0,2,FEW 30   BKN 60,-1,0,-1,2,1023,RJOR 012200Z 14008KT 9999 FEW030 BKN060 M00/M02 Q1023 RMK     1CU030 5SC060 A3023=,
20180201_230000.003,0,RJOR,,,,0,20180201230000,-1,-1,-1,-1,140,-1,8,-1,-1,-1,-1,,9999,0,0,2,FEW 30   SCT 50,1,0,-1,2,1023,RJOR 012300Z 14008KT 9999 FEW030 SCT050 00/M02 Q1023 RMK     1CU030 3SC050 A3023=,
20180202_000000.002,0,RJOR,,,,0,20180202000000,-1,-1,-1,-1,140,-1,7,-1,-1,-1,-1,,9999,0,0,3,FEW 30   SCT 50   BKN -9999,1,2,-1,2,1024,RJOR 020000Z 14007KT 9999 FEW030 SCT050 BKN/// 02/M02 Q1024     RMK 1CU030 3SC050 A3025=,
20180202_010000.002,0,RJOR,,,,0,20180202010000,-1,-1,-1,-1,140,-1,5,-1,-1,-1,-1,,9999,0,0,2,FEW 30   BKN -9999,1,3,-1,1,1024,RJOR 020100Z 14005KT 9999 FEW030 BKN/// 03/M01 Q1024 RMK     1CU030 A3024=,
20180202_020000.002,0,RJOR,,,,0,20180202020000,-1,-1,-1,-1,140,-1,3,-1,-1,90,180,,9999,0,0,2,FEW 30   BKN -9999,1,7,-1,1,1023,RJOR 020200Z 14003KT 090V180 9999 FEW030 BKN/// 07/M01 Q1023     RMK 1CU030 A3023=,
20180202_030000.002,0,RJOR,,,,0,20180202030000,-1,-1,-1,-1,999,-1,1,-1,-1,-1,-1,,9999,0,0,2,FEW 40   BKN -9999,1,8,-1,2,1023,RJOR 020300Z VRB01KT 9999 FEW040 BKN/// 08/M02 Q1023 RMK     1CU040 A3021=,
20180202_040000.002,0,RJOR,,,,0,20180202040000,-1,-1,-1,-1,50,-1,8,-1,-1,-1,-1,,9999,0,0,2,FEW 40   BKN -9999,1,8,-1,1,1022,RJOR 020400Z 05008KT 9999 FEW040 BKN/// 08/M01 Q1022 RMK     1CU040 A3018=,
20180202_050000.001,0,RJOR,,,,0,20180202050000,-1,-1,-1,-1,50,-1,10,-1,-1,-1,-1,,9999,0,0,2,FEW 45   BKN -9999,1,9,-1,2,1021,RJOR 020500Z 05010KT 9999 FEW045 BKN/// 09/M02 Q1021 RMK     2CU045 A3017=,
20180202_060000.002,0,RJOR,,,,0,20180202060000,-1,-1,-1,-1,50,-1,13,-1,-1,-1,-1,,9999,0,0,3,FEW 45   SCT 150   BKN -9999,1,8,-1,1,1021,RJOR 020600Z 05013KT 9999 FEW045 SCT150 BKN/// 08/M01 Q1021     RMK 1CU045 3AC150 A3016=,
20180202_070000.002,0,RJOR,,,,0,20180202070000,-1,-1,-1,-1,50,-1,11,-1,-1,-1,-1,,9999,0,0,3,FEW 40   SCT 170   BKN -9999,1,8,-1,1,1021,RJOR 020700Z 05011KT 9999 FEW040 SCT170 BKN/// 08/M01 Q1021     RMK 1SC040 4AC170 A3015=,
20180202_080000.002,0,RJOR,,,,0,20180202080000,-1,-1,-1,-1,70,-1,7,-1,-1,-1,-1,,9999,0,0,2,FEW 40   BKN -9999,1,8,-1,1,1020,RJOR 020800Z 07007KT 9999 FEW040 BKN/// 08/M01 Q1020 RMK     1SC040 A3015=,
20180202_090000.002,0,RJOR,,,,0,20180202090000,-1,-1,-1,-1,160,-1,3,-1,-1,-1,-1,,9999,0,0,2,FEW 35   BKN -9999,1,5,-1,0,1020,RJOR 020900Z 16003KT 9999 FEW035 BKN/// 05/M00 Q1020 RMK     1SC035 A3014=,
20180202_100000.003,0,RJOR,,,,0,20180202100000,-1,-1,-1,-1,170,-1,5,-1,-1,-1,-1,,9999,0,0,3,FEW 35   SCT 150   BKN -9999,1,3,-1,0,1021,RJOR 021000Z 17005KT 9999 FEW035 SCT150 BKN/// 03/M00 Q1021     RMK 1SC035 3AC150 A3015=,
20180202_110000.002,0,RJOR,,,,0,20180202110000,-1,-1,-1,-1,150,-1,6,-1,-1,-1,-1,,9999,0,0,2,FEW 35   BKN -9999,1,3,-1,1,1020,RJOR 021100Z 15006KT 9999 FEW035 BKN/// 03/M01 Q1020 RMK     1SC035 A3014=,
20180202_120000.002,0,RJOR,,,,0,20180202120000,-1,-1,-1,-1,150,-1,8,-1,-1,-1,-1,,9999,0,0,3,FEW 35   SCT 80   BKN 150,1,3,-1,1,1020,RJOR 021200Z 15008KT 9999 FEW035 SCT080 BKN150 03/M01 Q1020     RMK 1SC035 3AC080 5AC150 A3013=,
20180202_213000.001,0,RJOR,,,,0,20180202210000,-1,-1,-1,-1,240,-1,7,-1,-1,200,270,,9999,0,1,3,FEW 20   SCT 25   BKN 40,1,3,-1,0,1020,RJOR 022130Z 24007KT 200V270 9999 -SHRA FEW020 SCT025 BKN040     03/M00 Q1020 RMK 1CU020 3CU025 5SC040 A3012=,- RA SH
20180202_220000.002,0,RJOR,,,,0,20180202220000,-1,-1,-1,-1,240,-1,12,-1,-1,-1,-1,,9999,0,1,3,FEW 20   SCT 25   BKN 40,1,3,-1,0,1020,RJOR 022200Z 24012KT 9999 -SHRA FEW020 SCT025 BKN040 03/M00     Q1020 RMK 1CU020 3CU025 5SC040 A3013=,- RA SH
20180202_230000.003,0,RJOR,,,,0,20180202230000,-1,-1,-1,-1,230,-1,11,-1,-1,-1,-1,,9999,0,1,3,FEW 15   SCT 20   BKN 40,1,3,-1,0,1020,RJOR 022300Z 23011KT 9999 -SHRASN FEW015 SCT020 BKN040 03/M00     Q1020 RMK 2CU015 3CU020 5SC040 A3013=,- RA SN SH
20180203_000000.002,0,RJOR,,,,0,20180203000000,-1,-1,-1,-1,250,-1,10,-1,-1,-1,-1,,9999,0,1,3,FEW 15   SCT 20   BKN 35,1,4,1,0,1020,RJOR 030000Z 25010KT 9999 -SHRA FEW015 SCT020 BKN035 04/00     Q1020 RMK 2CU015 3CU020 5SC035 A3013=,- RA SH
20180203_010000.003,0,RJOR,,,,0,20180203010000,-1,-1,-1,-1,200,-1,6,-1,-1,-1,-1,,9999,0,1,3,FEW 15   SCT 20   BKN 40,1,3,1,0,1020,RJOR 030100Z 20006KT 9999 -SHRA FEW015 SCT020 BKN040 03/00     Q1020 RMK 1CU015 3CU020 5SC040 A3013=,- RA SH
20180203_020000.002,0,RJOR,,,,0,20180203020000,-1,-1,-1,-1,190,-1,7,-1,-1,160,230,,9999,0,1,2,FEW 20   SCT -9999,1,5,1,1,1019,RJOR 030200Z 19007KT 160V230 9999 VCSH FEW020 SCT/// 05/01     Q1019 RMK 2CU020 A3011=,VC SH
20180203_030000.002,0,RJOR,,,,0,20180203030000,-1,-1,-1,-1,280,-1,14,-1,-1,-1,-1,,4000,0,1,3,FEW 10   SCT 20   BKN 40,1,2,-1,0,1019,RJOR 030300Z 28014KT 4000 -SHSNRA FEW010 SCT020 BKN040 02/M00     Q1019 RMK 2CU010 4CU020 5SC040 A3011 9999NW-N=,- SN RA SH
20180203_040000.002,0,RJOR,,,,0,20180203040000,-1,-1,-1,-1,250,-1,6,-1,-1,200,300,,5000,0,1,3,FEW 10   SCT 20   BKN 30,1,2,1,0,1019,RJOR 030400Z 25006KT 200V300 5000 -SHRASN FEW010 SCT020 BKN030     02/00 Q1019 RMK 2CU010 3CU020 5CU030 A3009=,- RA SN SH
20180203_050000.002,0,RJOR,,,,0,20180203050000,-1,-1,-1,-1,240,-1,10,-1,-1,-1,-1,,9999,0,0,3,FEW 5   SCT 30   BKN 60,1,3,-1,0,1018,RJOR 030500Z 24010KT 9999 FEW005 SCT030 BKN060 03/M00 Q1018     RMK 1ST005 3CU030 5SC060 A3009=,
20180203_060000.002,0,RJOR,,,,0,20180203060000,-1,-1,-1,-1,230,-1,8,-1,-1,-1,-1,,9999,0,0,2,FEW 8   SCT 30,1,5,-1,1,1018,RJOR 030600Z 23008KT 9999 FEW008 SCT030 05/M01 Q1018 RMK     1ST008 3CU030 A3007=,
20180203_070000.003,0,RJOR,,,,0,20180203070000,-1,-1,-1,-1,250,-1,7,-1,-1,-1,-1,,9999,0,0,3,FEW 10   SCT 20   BKN 40,1,6,-1,3,1018,RJOR 030700Z 25007KT 9999 FEW010 SCT020 BKN040 06/M03 Q1018     RMK 1CU010 3CU020 5CU040 A3006=,
20180203_080000.002,0,RJOR,,,,0,20180203080000,-1,-1,-1,-1,220,-1,9,-1,-1,-1,-1,,8000,0,1,3,FEW 5   SCT 20   BKN 30,1,1,-1,1,1018,RJOR 030800Z 22009KT 8000 -SHRASN FEW005 SCT020 BKN030 01/M01     Q1018 RMK 1ST005 3CU020 5CU030 A3008=,- RA SN SH
20180203_090000.002,0,RJOR,,,,0,20180203090000,-1,-1,-1,-1,230,-1,9,-1,-1,-1,-1,,9999,0,0,4,FEW 5   SCT 20   FEW 25 CB  BKN 40,1,2,-1,2,1018,RJOR 030900Z 23009KT 9999 FEW005 SCT020 FEW025CB BKN040 02/M02     Q1018 RMK 1ST005 3CU020 1CB025 5CU040 A3007 CB 20KM NE           MOV E=,
20180203_100000.002,0,RJOR,,,,0,20180203100000,-1,-1,-1,-1,210,-1,6,-1,-1,-1,-1,,9999,0,0,3,FEW 5   SCT 30   BKN 70,1,2,-1,2,1018,RJOR 031000Z 21006KT 9999 FEW005 SCT030 BKN070 02/M02 Q1018     RMK 1ST005 3CU030 5AC070 A3006=,
20180203_110000.002,0,RJOR,,,,0,20180203110000,-1,-1,-1,-1,180,-1,5,-1,-1,150,230,,9999,0,0,3,FEW 10   SCT 30   BKN 70,1,2,-1,2,1018,RJOR 031100Z 18005KT 150V230 9999 FEW010 SCT030 BKN070 02/M02     Q1018 RMK 1CU010 3CU030 5AC070 A3006=,
20180203_120000.002,0,RJOR,,,,0,20180203120000,-1,-1,-1,-1,240,-1,9,-1,-1,200,270,,9999,0,0,3,FEW 15   SCT 40   BKN 80,1,2,-1,3,1018,RJOR 031200Z 24009KT 200V270 9999 FEW015 SCT040 BKN080 02/M03     Q1018 RMK 1CU015 3CU040 5AC080 A3006=,
20180203_213000.001,0,RJOR,,,,0,20180203210000,-1,-1,-1,-1,230,-1,11,-1,-1,-1,-1,,9999,0,1,3,FEW 15   SCT 25   BKN 40,-1,1,-1,6,1016,RJOR 032130Z 23011KT 9999 -SHSN FEW015 SCT025 BKN040 M01/M06     Q1016 RMK 1CU015 3CU025 5CU040 A3003=,- SN SH
20180203_220000.002,0,RJOR,,,,0,20180203220000,-1,-1,-1,-1,240,-1,10,-1,-1,-1,-1,,9999,0,0,3,FEW 15   SCT 30   BKN 45,-1,1,-1,6,1016,RJOR 032200Z 24010KT 9999 FEW015 SCT030 BKN045 M01/M06 Q1016     RMK 1CU015 3CU030 5CU045 A3003=,
20180203_230000.002,0,RJOR,,,,0,20180203230000,-1,-1,-1,-1,250,-1,14,-1,25,-1,-1,,9999,0,0,3,FEW 15   SCT 30   BKN 45,-1,1,-1,7,1017,RJOR 032300Z 25014G25KT 9999 FEW015 SCT030 BKN045 M01/M07     Q1017 RMK 1CU015 3CU030 5CU045 A3004=,
20180204_000000.002,0,RJOR,,,,0,20180204000000,-1,-1,-1,-1,240,-1,19,-1,-1,-1,-1,,9999,0,0,2,FEW 20   SCT 45,1,0,-1,9,1017,RJOR 040000Z 24019KT 9999 FEW020 SCT045 00/M09 Q1017 RMK     1CU020 3CU045 A3004=,
20180204_010000.002,0,RJOR,,,,0,20180204010000,-1,-1,-1,-1,230,-1,18,-1,-1,-1,-1,,9999,0,0,1,FEW 30,1,2,-1,10,1016,RJOR 040100Z 23018KT 9999 FEW030 02/M10 Q1016 RMK 1CU030     A3002=,
20180204_020000.002,0,RJOR,,,,0,20180204020000,-1,-1,-1,-1,230,-1,16,-1,-1,200,270,,9999,0,0,1,FEW 30,1,2,-1,10,1016,RJOR 040200Z 23016KT 200V270 9999 FEW030 02/M10 Q1016 RMK     1CU030 A3001=,
20180204_030000.002,0,RJOR,,,,0,20180204030000,-1,-1,-1,-1,240,-1,20,-1,-1,-1,-1,,9999,0,0,1,FEW 30,1,3,-1,10,1015,RJOR 040300Z 24020KT 9999 FEW030 03/M10 Q1015 RMK 2CU030     A2999=,
20180204_040000.002,0,RJOR,,,,0,20180204040000,-1,-1,-1,-1,270,-1,23,-1,-1,-1,-1,,9999,0,0,3,FEW 30   SCT 45   BKN 70,1,3,-1,8,1015,RJOR 040400Z 27023KT 9999 FEW030 SCT045 BKN070 03/M08 Q1015     RMK 1CU030 3CU045 5AC070 A2998=,
20180204_050000.002,0,RJOR,,,,0,20180204050000,-1,-1,-1,-1,270,-1,23,-1,34,-1,-1,,9999,0,1,3,FEW 15   SCT 30   BKN 40,1,2,-1,6,1015,RJOR 040500Z 27023G34KT 9999 -SHSN FEW015 SCT030 BKN040 02/M06     Q1015 RMK 1CU015 3CU030 5CU040 A2998=,- SN SH
20180204_060000.002,0,RJOR,,,,0,20180204060000,-1,-1,-1,-1,240,-1,14,-1,-1,-1,-1,,4000,0,1,3,FEW 5   SCT 15   BKN 20,1,0,-1,4,1016,RJOR 040600Z 24014KT 4000 -SHSN FEW005 SCT015 BKN020 00/M04     Q1016 RMK 1ST005 3CU015 5CU020 A3001=,- SN SH
20180204_070000.002,0,RJOR,,,,0,20180204070000,-1,-1,-1,-1,240,-1,15,-1,-1,-1,-1,,400,1,1,3,FEW 5   SCT 10   BKN 20,-1,1,-1,3,1016,RJOR 040700Z 24015KT 0400 R10/0400VP1800D SHSN FEW005 SCT010     BKN020 M01/M03 Q1016 RMK 1ST005 3CU010 5CU020 A3002=,SN SH
20180204_080000.002,0,RJOR,,,,0,20180204080000,-1,-1,-1,-1,240,-1,14,-1,-1,200,290,,3000,0,1,4,FEW 5   SCT 15   BKN 20   FEW 25 CB,1,0,-1,4,1016,RJOR 040800Z 24014KT 200V290 3000 -SHSN FEW005 SCT015 BKN020     FEW025CB 00/M04 Q1016 RMK 1ST005 3CU015 5CU020 1CB025           A3003 CB 20KM N MOV SE=,- SN SH
20180204_090000.002,0,RJOR,,,,0,20180204090000,-1,-1,-1,-1,220,-1,8,-1,-1,-1,-1,,1000,1,1,3,FEW 2   SCT 10   BKN 15,-1,1,-1,3,1017,RJOR 040900Z 22008KT 1000 R10/0900VP1800U -SHSN FEW002 SCT010     BKN015 M01/M03 Q1017 RMK 1ST002 4CU010 6CU015 A3003=,- SN SH
20180204_100000.002,0,RJOR,,,,0,20180204100000,-1,-1,-1,-1,240,-1,14,-1,-1,-1,-1,,200,1,1,3,FEW 2   SCT 5   BKN 10,-1,1,-1,3,1017,RJOR 041000Z 24014KT 0200 R10/0600V0900N +SHSN FEW002 SCT005     BKN010 M01/M03 Q1017 RMK 2ST002 4ST005 6CU010 A3004=,+ SN SH
20180204_110000.003,0,RJOR,,,,0,20180204110000,-1,-1,-1,-1,260,-1,9,-1,-1,230,300,,600,1,1,3,FEW 2   SCT 5   BKN 10,-1,1,-1,2,1017,RJOR 041100Z 26009KT 230V300 0600 R10/1100VP1800D SHSN FEW002     SCT005 BKN010 M01/M02 Q1017 RMK 1ST002 4ST005 6CU010           A3005=,SN SH
20180204_120000.002,0,RJOR,,,,0,20180204120000,-1,-1,-1,-1,240,-1,10,-1,-1,-1,-1,,500,1,1,3,FEW 2   SCT 5   BKN 10,-1,1,-1,2,1018,RJOR 041200Z 24010KT 0500 R10/0800V1300D SHSN FEW002 SCT005     BKN010 M01/M02 Q1018 RMK 1ST002 4ST005 6CU010 A3006=,SN SH
20180204_213000.001,0,RJOR,,,,0,20180204210000,-1,-1,-1,-1,220,-1,9,-1,-1,-1,-1,,300,1,1,3,FEW 5   SCT 10   BKN 15,-1,2,-1,4,1017,RJOR 042130Z 22009KT 0300 R10/0750V1500D SHSN FEW005 SCT010     BKN015 M02/M04 Q1017 RMK 1ST005 3CU010 5CU015 A3003=,SN SH
20180204_220000.002,0,RJOR,,,,0,20180204220000,-1,-1,-1,-1,220,-1,8,-1,-1,200,270,,300,1,1,3,FEW 5   SCT 15   BKN 20,-1,2,-1,4,1017,RJOR 042200Z 22008KT 200V270 0300 R10/0800VP1800D SHSN FEW005     SCT015 BKN020 M02/M04 Q1017 RMK 1ST005 3CU015 5CU020           A3004=,SN SH
20180204_230000.002,0,RJOR,,,,0,20180204230000,-1,-1,-1,-1,240,-1,12,-1,-1,200,270,,8000,0,1,3,FEW 5   SCT 20   BKN 30,-1,1,-1,6,1017,RJOR 042300Z 24012KT 200V270 8000 -SHSN FEW005 SCT020 BKN030     M01/M06 Q1017 RMK 1ST005 3CU020 5CU030 A3005=,- SN SH
20180205_000000.003,0,RJOR,,,,0,20180205000000,-1,-1,-1,-1,240,-1,14,-1,-1,-1,-1,,9999,0,1,3,FEW 15   SCT 25   BKN 40,-1,1,-1,7,1017,RJOR 050000Z 24014KT 9999 -SHSN FEW015 SCT025 BKN040 M01/M07     Q1017 RMK 1CU015 3CU025 5CU040 A3004=,- SN SH
20180205_010000.002,0,RJOR,,,,0,20180205010000,-1,-1,-1,-1,230,-1,10,-1,-1,200,270,,9999,0,0,2,FEW 25   SCT 60,-1,0,-1,7,1017,RJOR 050100Z 23010KT 200V270 9999 FEW025 SCT060 M00/M07 Q1017     RMK 1CU025 3SC060 A3005=,
20180205_020000.002,0,RJOR,,,,0,20180205020000,-1,-1,-1,-1,230,-1,14,-1,-1,-1,-1,,9999,0,0,1,FEW 30,1,1,-1,9,1017,RJOR 050200Z 23014KT 9999 FEW030 01/M09 Q1017 RMK 2CU030     A3005=,
