20180101_000000.000,0,RJOS,,,,0,20180101000000,-1,-1,-1,-1,320,-1,13,-1,-1,-1,-1,,9999,0,0,1,FEW 30,1,7,-1,5,1021,RJOS 010000Z 32013KT 9999 FEW030 07/M05 Q1021 RMK 1CU030 A3015=,
20180101_000000.003,0,RJOS,,,,0,20180101000000,-1,-1,-1,-1,320,-1,13,-1,-1,-1,-1,,9999,0,0,1,FEW 30,1,7,-1,5,1021,RJOS 010000Z 32013KT 9999 FEW030 07/M05 Q1021 RMK 1CU030     A3015=,
20180101_010000.000,0,RJOS,,,,0,20180101010000,-1,-1,-1,-1,310,-1,16,-1,-1,-1,-1,,9999,0,0,1,FEW 30,1,8,-1,6,1021,RJOS 010100Z 31016KT 9999 FEW030 08/M06 Q1021 RMK 1CU030 A3016=,
20180101_010000.003,0,RJOS,,,,0,20180101010000,-1,-1,-1,-1,310,-1,16,-1,-1,-1,-1,,9999,0,0,1,FEW 30,1,8,-1,6,1021,RJOS 010100Z 31016KT 9999 FEW030 08/M06 Q1021 RMK 1CU030     A3016=,
20180101_020000.000,0,RJOS,,,,0,20180101020000,-1,-1,-1,-1,300,-1,18,-1,28,-1,-1,,9999,0,0,1,FEW 30,1,8,-1,6,1020,RJOS 010200Z 30018G28KT 9999 FEW030 08/M06 Q1020 RMK 1CU030     A3014=,
20180101_020000.003,0,RJOS,,,,0,20180101020000,-1,-1,-1,-1,300,-1,18,-1,28,-1,-1,,9999,0,0,1,FEW 30,1,8,-1,6,1020,RJOS 010200Z 30018G28KT 9999 FEW030 08/M06 Q1020 RMK 1CU030     A3014=,
20180101_030000.000,0,RJOS,,,,0,20180101030000,-1,-1,-1,-1,320,-1,18,-1,28,-1,-1,,9999,0,0,1,FEW 30,1,9,-1,7,1020,RJOS 010300Z 32018G28KT 9999 FEW030 09/M07 Q1020 RMK 1CU030     A3012=,
20180101_030000.003,0,RJOS,,,,0,20180101030000,-1,-1,-1,-1,320,-1,18,-1,28,-1,-1,,9999,0,0,1,FEW 30,1,9,-1,7,1020,RJOS 010300Z 32018G28KT 9999 FEW030 09/M07 Q1020 RMK 1CU030     A3012=,
20180101_040000.000,0,RJOS,,,,0,20180101040000,-1,-1,-1,-1,330,-1,16,-1,26,-1,-1,,9999,0,0,1,FEW 30,1,10,-1,6,1019,RJOS 010400Z 33016G26KT 9999 FEW030 10/M06 Q1019 RMK 1CU030     A3011=,
20180101_040000.003,0,RJOS,,,,0,20180101040000,-1,-1,-1,-1,330,-1,16,-1,26,-1,-1,,9999,0,0,1,FEW 30,1,10,-1,6,1019,RJOS 010400Z 33016G26KT 9999 FEW030 10/M06 Q1019 RMK 1CU030     A3011=,
20180101_050000.000,0,RJOS,,,,0,20180101050000,-1,-1,-1,-1,340,-1,15,-1,25,-1,-1,,9999,0,0,2,FEW 30   BKN 60,1,9,-1,6,1019,RJOS 010500Z 34015G25KT 9999 FEW030 BKN060 09/M06 Q1019 RMK     1CU030 5SC060 A3012=,
20180101_050000.003,0,RJOS,,,,0,20180101050000,-1,-1,-1,-1,340,-1,15,-1,25,-1,-1,,9999,0,0,2,FEW 30   BKN 60,1,9,-1,6,1019,RJOS 010500Z 34015G25KT 9999 FEW030 BKN060 09/M06 Q1019 RMK     1CU030 5SC060 A3012=,
20180101_060000.000,0,RJOS,,,,0,20180101060000,-1,-1,-1,-1,320,-1,14,-1,24,-1,-1,,9999,0,0,2,FEW 30   SCT 60,1,9,-1,5,1019,RJOS 010600Z 32014G24KT 9999 FEW030 SCT060 09/M05 Q1019 RMK     1CU030 4SC060 A3012=,
20180101_060000.003,0,RJOS,,,,0,20180101060000,-1,-1,-1,-1,320,-1,14,-1,24,-1,-1,,9999,0,0,2,FEW 30   SCT 60,1,9,-1,5,1019,RJOS 010600Z 32014G24KT 9999 FEW030 SCT060 09/M05 Q1019 RMK     1CU030 4SC060 A3012=,
20180101_070000.000,0,RJOS,,,,0,20180101070000,-1,-1,-1,-1,310,-1,12,-1,-1,-1,-1,,9999,0,0,2,FEW 30   BKN 60,1,9,-1,5,1020,RJOS 010700Z 31012KT 9999 FEW030 BKN060 09/M05 Q1020 RMK 1CU030     5SC060 A3013=,
20180101_070000.003,0,RJOS,,,,0,20180101070000,-1,-1,-1,-1,310,-1,12,-1,-1,-1,-1,,9999,0,0,2,FEW 30   BKN 60,1,9,-1,5,1020,RJOS 010700Z 31012KT 9999 FEW030 BKN060 09/M05 Q1020 RMK     1CU030 5SC060 A3013=,
20180101_080000.000,0,RJOS,,,,0,20180101080000,-1,-1,-1,-1,320,-1,13,-1,-1,290,350,,9999,0,0,2,FEW 30   BKN 60,1,8,-1,5,1020,RJOS 010800Z 32013KT 290V350 9999 FEW030 BKN060 08/M05 Q1020     RMK 1CU030 5SC060 A3014=,
20180101_080000.003,0,RJOS,,,,0,20180101080000,-1,-1,-1,-1,320,-1,13,-1,-1,290,350,,9999,0,0,2,FEW 30   BKN 60,1,8,-1,5,1020,RJOS 010800Z 32013KT 290V350 9999 FEW030 BKN060 08/M05 Q1020     RMK 1CU030 5SC060 A3014=,
20180101_090000.000,0,RJOS,,,,0,20180101090000,-1,-1,-1,-1,330,-1,10,-1,21,-1,-1,,9999,0,0,2,FEW 30   BKN 50,1,8,-1,4,1021,RJOS 010900Z 33010G21KT 9999 FEW030 BKN050 08/M04 Q1021 RMK     1CU030 6SC050 A3016=,
20180101_090000.003,0,RJOS,,,,0,20180101090000,-1,-1,-1,-1,330,-1,10,-1,21,-1,-1,,9999,0,0,2,FEW 30   BKN 50,1,8,-1,4,1021,RJOS 010900Z 33010G21KT 9999 FEW030 BKN050 08/M04 Q1021 RMK     1CU030 6SC050 A3016=,
20180101_100000.000,0,RJOS,,,,0,20180101100000,-1,-1,-1,-1,330,-1,15,-1,-1,-1,-1,,9999,0,0,2,FEW 30   BKN 50,1,7,-1,2,1021,RJOS 011000Z 33015KT 9999 FEW030 BKN050 07/M02 Q1021 RMK 1CU030     6SC050 A3018=,
20180101_100000.003,0,RJOS,,,,0,20180101100000,-1,-1,-1,-1,330,-1,15,-1,-1,-1,-1,,9999,0,0,2,FEW 30   BKN 50,1,7,-1,2,1021,RJOS 011000Z 33015KT 9999 FEW030 BKN050 07/M02 Q1021 RMK     1CU030 6SC050 A3018=,
20180101_110000.000,0,RJOS,,,,0,20180101110000,-1,-1,-1,-1,320,-1,14,-1,-1,-1,-1,,9999,0,0,2,FEW 30   SCT 50,1,7,-1,2,1022,RJOS 011100Z 32014KT 9999 FEW030 SCT050 07/M02 Q1022 RMK 1CU030     3SC050 A3019=,
20180101_110000.003,0,RJOS,,,,0,20180101110000,-1,-1,-1,-1,320,-1,14,-1,-1,-1,-1,,9999,0,0,2,FEW 30   SCT 50,1,7,-1,2,1022,RJOS 011100Z 32014KT 9999 FEW030 SCT050 07/M02 Q1022 RMK     1CU030 3SC050 A3019=,
20180101_120000.000,0,RJOS,,,,0,20180101120000,-1,-1,-1,-1,310,-1,10,-1,-1,-1,-1,,9999,0,0,1,FEW 30,1,6,-1,2,1022,RJOS 011200Z 31010KT 9999 FEW030 06/M02 Q1022 RMK 1CU030 A3020=,
20180101_120000.003,0,RJOS,,,,0,20180101120000,-1,-1,-1,-1,310,-1,10,-1,-1,-1,-1,,9999,0,0,1,FEW 30,1,6,-1,2,1022,RJOS 011200Z 31010KT 9999 FEW030 06/M02 Q1022 RMK 1CU030     A3020=,
20180101_130000.000,0,RJOS,,,,0,20180101130000,-1,-1,-1,-1,310,-1,12,-1,-1,-1,-1,,9999,0,0,1,FEW 30,1,6,-1,3,1022,RJOS 011300Z 31012KT 9999 FEW030 06/M03 Q1022 RMK 1CU030 A3021=,
20180101_130000.003,0,RJOS,,,,0,20180101130000,-1,-1,-1,-1,310,-1,12,-1,-1,-1,-1,,9999,0,0,1,FEW 30,1,6,-1,3,1022,RJOS 011300Z 31012KT 9999 FEW030 06/M03 Q1022 RMK 1CU030     A3021=,
20180101_140000.000,0,RJOS,,,,0,20180101140000,-1,-1,-1,-1,310,-1,13,-1,-1,-1,-1,,9999,0,0,2,FEW 30   SCT 60,1,6,-1,3,1023,RJOS 011400Z 31013KT 9999 FEW030 SCT060 06/M03 Q1023 RMK 1CU030     3SC060 A3022=,
20180101_140000.003,0,RJOS,,,,0,20180101140000,-1,-1,-1,-1,310,-1,13,-1,-1,-1,-1,,9999,0,0,2,FEW 30   SCT 60,1,6,-1,3,1023,RJOS 011400Z 31013KT 9999 FEW030 SCT060 06/M03 Q1023 RMK     1CU030 3SC060 A3022=,
20180101_150000.000,0,RJOS,,,,0,20180101150000,-1,-1,-1,-1,310,-1,11,-1,-1,-1,-1,,9999,0,0,2,FEW 30   BKN 60,1,6,-1,3,1023,RJOS 011500Z 31011KT 9999 FEW030 BKN060 06/M03 Q1023 RMK 1CU030     7SC060 A3022=,
20180101_150000.003,0,RJOS,,,,0,20180101150000,-1,-1,-1,-1,310,-1,11,-1,-1,-1,-1,,9999,0,0,2,FEW 30   BKN 60,1,6,-1,3,1023,RJOS 011500Z 31011KT 9999 FEW030 BKN060 06/M03 Q1023 RMK     1CU030 7SC060 A3022=,
20180101_160000.000,0,RJOS,,,,0,20180101160000,-1,-1,-1,-1,310,-1,10,-1,-1,-1,-1,,9999,0,0,2,FEW 30   BKN 60,1,6,-1,4,1023,RJOS 011600Z 31010KT 9999 FEW030 BKN060 06/M04 Q1023 RMK 1CU030     7SC060 A3021=,
20180101_160000.003,0,RJOS,,,,0,20180101160000,-1,-1,-1,-1,310,-1,10,-1,-1,-1,-1,,9999,0,0,2,FEW 30   BKN 60,1,6,-1,4,1023,RJOS 011600Z 31010KT 9999 FEW030 BKN060 06/M04 Q1023 RMK     1CU030 7SC060 A3021=,
20180101_170000.000,0,RJOS,,,,0,20180101170000,-1,-1,-1,-1,310,-1,10,-1,-1,-1,-1,,9999,0,0,2,FEW 30   SCT 60,1,6,-1,4,1023,RJOS 011700Z 31010KT 9999 FEW030 SCT060 06/M04 Q1023 RMK 1CU030     4SC060 A3021=,
20180101_170000.003,0,RJOS,,,,0,20180101170000,-1,-1,-1,-1,310,-1,10,-1,-1,-1,-1,,9999,0,0,2,FEW 30   SCT 60,1,6,-1,4,1023,RJOS 011700Z 31010KT 9999 FEW030 SCT060 06/M04 Q1023 RMK     1CU030 4SC060 A3021=,
20180101_180000.000,0,RJOS,,,,0,20180101180000,-1,-1,-1,-1,310,-1,10,-1,-1,-1,-1,,9999,0,0,2,FEW 30   BKN 60,1,5,-1,5,1023,RJOS 011800Z 31010KT 9999 FEW030 BKN060 05/M05 Q1023 RMK 1CU030     5SC060 A3021=,
20180101_180000.004,0,RJOS,,,,0,20180101180000,-1,-1,-1,-1,310,-1,10,-1,-1,-1,-1,,9999,0,0,2,FEW 30   BKN 60,1,5,-1,5,1023,RJOS 011800Z 31010KT 9999 FEW030 BKN060 05/M05 Q1023 RMK     1CU030 5SC060 A3021=,
20180101_190000.000,0,RJOS,,,,0,20180101190000,-1,-1,-1,-1,300,-1,10,-1,-1,-1,-1,,9999,0,0,2,FEW 30   SCT 60,1,5,-1,5,1023,RJOS 011900Z 30010KT 9999 FEW030 SCT060 05/M05 Q1023 RMK 1CU030     4SC060 A3021=,
20180101_190000.004,0,RJOS,,,,0,20180101190000,-1,-1,-1,-1,300,-1,10,-1,-1,-1,-1,,9999,0,0,2,FEW 30   SCT 60,1,5,-1,5,1023,RJOS 011900Z 30010KT 9999 FEW030 SCT060 05/M05 Q1023 RMK     1CU030 4SC060 A3021=,
20180101_200000.000,0,RJOS,,,,0,20180101200000,-1,-1,-1,-1,310,-1,9,-1,-1,-1,-1,,9999,0,0,2,FEW 30   BKN 50,1,5,-1,5,1023,RJOS 012000Z 31009KT 9999 FEW030 BKN050 05/M05 Q1023 RMK 1CU030     5SC050 A3022=,
20180101_200000.004,0,RJOS,,,,0,20180101200000,-1,-1,-1,-1,310,-1,9,-1,-1,-1,-1,,9999,0,0,2,FEW 30   BKN 50,1,5,-1,5,1023,RJOS 012000Z 31009KT 9999 FEW030 BKN050 05/M05 Q1023 RMK     1CU030 5SC050 A3022=,
20180101_210000.000,0,RJOS,,,,0,20180101210000,-1,-1,-1,-1,310,-1,9,-1,-1,-1,-1,,9999,0,0,2,FEW 30   BKN 50,1,6,-1,5,1023,RJOS 012100Z 31009KT 9999 FEW030 BKN050 06/M05 Q1023 RMK 1CU030     6SC050 A3022=,
20180101_210000.003,0,RJOS,,,,0,20180101210000,-1,-1,-1,-1,310,-1,9,-1,-1,-1,-1,,9999,0,0,2,FEW 30   BKN 50,1,6,-1,5,1023,RJOS 012100Z 31009KT 9999 FEW030 BKN050 06/M05 Q1023 RMK     1CU030 6SC050 A3022=,
20180101_220000.000,0,RJOS,,,,0,20180101220000,-1,-1,-1,-1,320,-1,9,-1,-1,-1,-1,,9999,0,0,2,FEW 30   SCT 50,1,5,-1,5,1024,RJOS 012200Z 32009KT 9999 FEW030 SCT050 05/M05 Q1024 RMK 1CU030     3SC050 A3024=,
20180101_220000.003,0,RJOS,,,,0,20180101220000,-1,-1,-1,-1,320,-1,9,-1,-1,-1,-1,,9999,0,0,2,FEW 30   SCT 50,1,5,-1,5,1024,RJOS 012200Z 32009KT 9999 FEW030 SCT050 05/M05 Q1024 RMK     1CU030 3SC050 A3024=,
20180101_230000.000,0,RJOS,,,,0,20180101230000,-1,-1,-1,-1,310,-1,5,-1,-1,-1,-1,,9999,0,0,1,FEW 30,1,5,-1,5,1024,RJOS 012300Z 31005KT 9999 FEW030 05/M05 Q1024 RMK 1CU030 A3026=,
20180101_230000.003,0,RJOS,,,,0,20180101230000,-1,-1,-1,-1,310,-1,5,-1,-1,-1,-1,,9999,0,0,1,FEW 30,1,5,-1,5,1024,RJOS 012300Z 31005KT 9999 FEW030 05/M05 Q1024 RMK 1CU030     A3026=,
20180102_000000.000,0,RJOS,,,,0,20180102000000,-1,-1,-1,-1,300,-1,9,-1,-1,-1,-1,,9999,0,0,1,FEW 30,1,7,-1,4,1024,RJOS 020000Z 30009KT 9999 FEW030 07/M04 Q1024 RMK 1CU030 A3026=,
20180102_000000.004,0,RJOS,,,,0,20180102000000,-1,-1,-1,-1,300,-1,9,-1,-1,-1,-1,,9999,0,0,1,FEW 30,1,7,-1,4,1024,RJOS 020000Z 30009KT 9999 FEW030 07/M04 Q1024 RMK 1CU030     A3026=,
20180102_010000.000,0,RJOS,,,,0,20180102010000,-1,-1,-1,-1,310,-1,14,-1,-1,-1,-1,,9999,0,0,1,FEW 30,1,8,-1,4,1024,RJOS 020100Z 31014KT 9999 FEW030 08/M04 Q1024 RMK 1CU030 A3026=,
20180102_010000.004,0,RJOS,,,,0,20180102010000,-1,-1,-1,-1,310,-1,14,-1,-1,-1,-1,,9999,0,0,1,FEW 30,1,8,-1,4,1024,RJOS 020100Z 31014KT 9999 FEW030 08/M04 Q1024 RMK 1CU030     A3026=,
20180102_020000.000,0,RJOS,,,,0,20180102020000,-1,-1,-1,-1,310,-1,15,-1,25,-1,-1,,9999,0,0,1,FEW 30,1,9,-1,5,1023,RJOS 020200Z 31015G25KT 9999 FEW030 09/M05 Q1023 RMK 1CU030     A3024=,
20180102_020000.003,0,RJOS,,,,0,20180102020000,-1,-1,-1,-1,310,-1,15,-1,25,-1,-1,,9999,0,0,1,FEW 30,1,9,-1,5,1023,RJOS 020200Z 31015G25KT 9999 FEW030 09/M05 Q1023 RMK 1CU030     A3024=,
20180102_030000.000,0,RJOS,,,,0,20180102030000,-1,-1,-1,-1,330,-1,13,-1,23,-1,-1,,9999,0,0,1,FEW 30,1,10,-1,5,1022,RJOS 020300Z 33013G23KT 9999 FEW030 10/M05 Q1022 RMK 1CU030     A3020=,
20180102_030000.003,0,RJOS,,,,0,20180102030000,-1,-1,-1,-1,330,-1,13,-1,23,-1,-1,,9999,0,0,1,FEW 30,1,10,-1,5,1022,RJOS 020300Z 33013G23KT 9999 FEW030 10/M05 Q1022 RMK 1CU030     A3020=,
20180102_040000.000,0,RJOS,,,,0,20180102040000,-1,-1,-1,-1,330,-1,12,-1,-1,290,360,,9999,0,0,1,FEW 30,1,10,-1,4,1021,RJOS 020400Z 33012KT 290V360 9999 FEW030 10/M04 Q1021 RMK     2CU030 A3017=,
20180102_040000.003,0,RJOS,,,,0,20180102040000,-1,-1,-1,-1,330,-1,12,-1,-1,290,360,,9999,0,0,1,FEW 30,1,10,-1,4,1021,RJOS 020400Z 33012KT 290V360 9999 FEW030 10/M04 Q1021 RMK     2CU030 A3017=,
20180102_050000.000,0,RJOS,,,,0,20180102050000,-1,-1,-1,-1,330,-1,11,-1,-1,310,10,,9999,0,0,1,FEW 30,1,10,-1,5,1021,RJOS 020500Z 33011KT 310V010 9999 FEW030 10/M05 Q1021 RMK     2CU030 A3016=,
20180102_050000.003,0,RJOS,,,,0,20180102050000,-1,-1,-1,-1,330,-1,11,-1,-1,310,10,,9999,0,0,1,FEW 30,1,10,-1,5,1021,RJOS 020500Z 33011KT 310V010 9999 FEW030 10/M05 Q1021 RMK     2CU030 A3016=,
20180102_060000.000,0,RJOS,,,,0,20180102060000,-1,-1,-1,-1,310,-1,13,-1,-1,-1,-1,,9999,0,0,1,FEW 30,1,10,-1,4,1021,RJOS 020600Z 31013KT 9999 FEW030 10/M04 Q1021 RMK 1CU030 A3016=,
20180102_060000.003,0,RJOS,,,,0,20180102060000,-1,-1,-1,-1,310,-1,13,-1,-1,-1,-1,,9999,0,0,1,FEW 30,1,10,-1,4,1021,RJOS 020600Z 31013KT 9999 FEW030 10/M04 Q1021 RMK 1CU030     A3016=,
20180102_070000.000,0,RJOS,,,,0,20180102070000,-1,-1,-1,-1,330,-1,12,-1,-1,-1,-1,,9999,0,0,1,FEW 30,1,10,-1,4,1021,RJOS 020700Z 33012KT 9999 FEW030 10/M04 Q1021 RMK 1CU030 A3016=,
20180102_070000.003,0,RJOS,,,,0,20180102070000,-1,-1,-1,-1,330,-1,12,-1,-1,-1,-1,,9999,0,0,1,FEW 30,1,10,-1,4,1021,RJOS 020700Z 33012KT 9999 FEW030 10/M04 Q1021 RMK 1CU030     A3016=,
20180102_080000.000,0,RJOS,,,,0,20180102080000,-1,-1,-1,-1,310,-1,9,-1,-1,-1,-1,,9999,0,0,1,FEW 30,1,9,-1,4,1021,RJOS 020800Z 31009KT 9999 FEW030 09/M04 Q1021 RMK 1CU030 A3015=,
20180102_080000.003,0,RJOS,,,,0,20180102080000,-1,-1,-1,-1,310,-1,9,-1,-1,-1,-1,,9999,0,0,1,FEW 30,1,9,-1,4,1021,RJOS 020800Z 31009KT 9999 FEW030 09/M04 Q1021 RMK 1CU030     A3015=,
20180102_090000.000,0,RJOS,,,,0,20180102090000,-1,-1,-1,-1,310,-1,7,-1,-1,-1,-1,,9999,0,0,1,FEW 30,1,8,-1,4,1020,RJOS 020900Z 31007KT 9999 FEW030 08/M04 Q1020 RMK 1CU030 A3014=,
20180102_090000.003,0,RJOS,,,,0,20180102090000,-1,-1,-1,-1,310,-1,7,-1,-1,-1,-1,,9999,0,0,1,FEW 30,1,8,-1,4,1020,RJOS 020900Z 31007KT 9999 FEW030 08/M04 Q1020 RMK 1CU030     A3014=,
20180102_100000.000,0,RJOS,,,,0,20180102100000,-1,-1,-1,-1,300,-1,7,-1,-1,-1,-1,,9999,0,0,1,FEW 30,1,7,-1,3,1021,RJOS 021000Z 30007KT 9999 FEW030 07/M03 Q1021 RMK 1CU030 A3016=,
20180102_100000.003,0,RJOS,,,,0,20180102100000,-1,-1,-1,-1,300,-1,7,-1,-1,-1,-1,,9999,0,0,1,FEW 30,1,7,-1,3,1021,RJOS 021000Z 30007KT 9999 FEW030 07/M03 Q1021 RMK 1CU030     A3016=,
20180102_110000.000,0,RJOS,,,,0,20180102110000,-1,-1,-1,-1,320,-1,9,-1,-1,-1,-1,,9999,0,0,1,FEW 30,1,8,-1,3,1021,RJOS 021100Z 32009KT 9999 FEW030 08/M03 Q1021 RMK 1CU030 A3017=,
20180102_110000.003,0,RJOS,,,,0,20180102110000,-1,-1,-1,-1,320,-1,9,-1,-1,-1,-1,,9999,0,0,1,FEW 30,1,8,-1,3,1021,RJOS 021100Z 32009KT 9999 FEW030 08/M03 Q1021 RMK 1CU030     A3017=,
20180102_120000.000,0,RJOS,,,,0,20180102120000,-1,-1,-1,-1,310,-1,11,-1,-1,-1,-1,,9999,0,0,1,FEW 30,1,8,-1,5,1021,RJOS 021200Z 31011KT 9999 FEW030 08/M05 Q1021 RMK 1CU030 A3017=,
20180102_120000.003,0,RJOS,,,,0,20180102120000,-1,-1,-1,-1,310,-1,11,-1,-1,-1,-1,,9999,0,0,1,FEW 30,1,8,-1,5,1021,RJOS 021200Z 31011KT 9999 FEW030 08/M05 Q1021 RMK 1CU030     A3017=,
20180102_130000.000,0,RJOS,,,,0,20180102130000,-1,-1,-1,-1,310,-1,10,-1,-1,-1,-1,,9999,0,0,1,FEW 30,1,7,-1,4,1021,RJOS 021300Z 31010KT 9999 FEW030 07/M04 Q1021 RMK 1CU030 A3015=,
20180102_130000.004,0,RJOS,,,,0,20180102130000,-1,-1,-1,-1,310,-1,10,-1,-1,-1,-1,,9999,0,0,1,FEW 30,1,7,-1,4,1021,RJOS 021300Z 31010KT 9999 FEW030 07/M04 Q1021 RMK 1CU030     A3015=,
20180102_140000.000,0,RJOS,,,,0,20180102140000,-1,-1,-1,-1,310,-1,10,-1,-1,-1,-1,,9999,0,0,1,FEW 30,1,7,-1,4,1020,RJOS 021400Z 31010KT 9999 FEW030 07/M04 Q1020 RMK 1CU030 A3013=,
20180102_140000.004,0,RJOS,,,,0,20180102140000,-1,-1,-1,-1,310,-1,10,-1,-1,-1,-1,,9999,0,0,1,FEW 30,1,7,-1,4,1020,RJOS 021400Z 31010KT 9999 FEW030 07/M04 Q1020 RMK 1CU030     A3013=,
20180102_150000.000,0,RJOS,,,,0,20180102150000,-1,-1,-1,-1,320,-1,7,-1,-1,-1,-1,,9999,0,0,1,FEW 30,1,7,-1,3,1019,RJOS 021500Z 32007KT 9999 FEW030 07/M03 Q1019 RMK 1CU030 A3010=,
20180102_150000.003,0,RJOS,,,,0,20180102150000,-1,-1,-1,-1,320,-1,7,-1,-1,-1,-1,,9999,0,0,1,FEW 30,1,7,-1,3,1019,RJOS 021500Z 32007KT 9999 FEW030 07/M03 Q1019 RMK 1CU030     A3010=,
20180102_160000.000,0,RJOS,,,,0,20180102160000,-1,-1,-1,-1,320,-1,6,-1,-1,-1,-1,,9999,0,0,1,FEW 30,1,7,-1,3,1019,RJOS 021600Z 32006KT 9999 FEW030 07/M03 Q1019 RMK 1CU030 A3009=,
20180102_160000.003,0,RJOS,,,,0,20180102160000,-1,-1,-1,-1,320,-1,6,-1,-1,-1,-1,,9999,0,0,1,FEW 30,1,7,-1,3,1019,RJOS 021600Z 32006KT 9999 FEW030 07/M03 Q1019 RMK 1CU030     A3009=,
20180102_170000.000,0,RJOS,,,,0,20180102170000,-1,-1,-1,-1,300,-1,6,-1,-1,-1,-1,,9999,0,0,1,FEW 30,1,7,-1,2,1019,RJOS 021700Z 30006KT 9999 FEW030 07/M02 Q1019 RMK 1CU030 A3010=,
20180102_170000.003,0,RJOS,,,,0,20180102170000,-1,-1,-1,-1,300,-1,6,-1,-1,-1,-1,,9999,0,0,1,FEW 30,1,7,-1,2,1019,RJOS 021700Z 30006KT 9999 FEW030 07/M02 Q1019 RMK 1CU030     A3010=,
20180102_180000.000,0,RJOS,,,,0,20180102180000,-1,-1,-1,-1,320,-1,14,-1,-1,-1,-1,,9999,0,0,1,FEW 30,1,8,-1,2,1019,RJOS 021800Z 32014KT 9999 FEW030 08/M02 Q1019 RMK 1CU030 A3009=,
20180102_180000.004,0,RJOS,,,,0,20180102180000,-1,-1,-1,-1,320,-1,14,-1,-1,-1,-1,,9999,0,0,1,FEW 30,1,8,-1,2,1019,RJOS 021800Z 32014KT 9999 FEW030 08/M02 Q1019 RMK 1CU030     A3009=,
20180102_190000.000,0,RJOS,,,,0,20180102190000,-1,-1,-1,-1,320,-1,14,-1,-1,-1,-1,,9999,0,0,1,FEW 30,1,8,-1,3,1019,RJOS 021900Z 32014KT 9999 FEW030 08/M03 Q1019 RMK 1CU030 A3009=,
20180102_190000.003,0,RJOS,,,,0,20180102190000,-1,-1,-1,-1,320,-1,14,-1,-1,-1,-1,,9999,0,0,1,FEW 30,1,8,-1,3,1019,RJOS 021900Z 32014KT 9999 FEW030 08/M03 Q1019 RMK 1CU030     A3009=,
20180102_200000.000,0,RJOS,,,,0,20180102200000,-1,-1,-1,-1,310,-1,15,-1,-1,280,360,,9999,0,0,1,FEW 30,1,8,-1,4,1019,RJOS 022000Z 31015KT 280V360 9999 FEW030 08/M04 Q1019 RMK     1CU030 A3010=,
20180102_200000.004,0,RJOS,,,,0,20180102200000,-1,-1,-1,-1,310,-1,15,-1,-1,280,360,,9999,0,0,1,FEW 30,1,8,-1,4,1019,RJOS 022000Z 31015KT 280V360 9999 FEW030 08/M04 Q1019 RMK     1CU030 A3010=,
20180102_210000.000,0,RJOS,,,,0,20180102210000,-1,-1,-1,-1,310,-1,12,-1,22,-1,-1,,9999,0,0,2,FEW 30   BKN 60,1,7,-1,4,1020,RJOS 022100Z 31012G22KT 9999 FEW030 BKN060 07/M04 Q1020 RMK     1CU030 5SC060 A3014=,
20180102_210000.003,0,RJOS,,,,0,20180102210000,-1,-1,-1,-1,310,-1,12,-1,22,-1,-1,,9999,0,0,2,FEW 30   BKN 60,1,7,-1,4,1020,RJOS 022100Z 31012G22KT 9999 FEW030 BKN060 07/M04 Q1020 RMK     1CU030 5SC060 A3014=,
20180102_220000.000,0,RJOS,,,,0,20180102220000,-1,-1,-1,-1,340,-1,14,-1,-1,310,10,,9999,0,0,2,FEW 30   BKN 60,1,7,-1,4,1021,RJOS 022200Z 34014KT 310V010 9999 FEW030 BKN060 07/M04 Q1021     RMK 2CU030 6SC060 A3016=,
20180102_220000.003,0,RJOS,,,,0,20180102220000,-1,-1,-1,-1,340,-1,14,-1,-1,310,10,,9999,0,0,2,FEW 30   BKN 60,1,7,-1,4,1021,RJOS 022200Z 34014KT 310V010 9999 FEW030 BKN060 07/M04 Q1021     RMK 2CU030 6SC060 A3016=,
20180102_230000.000,0,RJOS,,,,0,20180102230000,-1,-1,-1,-1,340,-1,13,-1,24,-1,-1,,9999,0,0,2,FEW 30   BKN 60,1,7,-1,2,1021,RJOS 022300Z 34013G24KT 9999 FEW030 BKN060 07/M02 Q1021 RMK     1CU030 5SC060 A3017=,
20180102_230000.003,0,RJOS,,,,0,20180102230000,-1,-1,-1,-1,340,-1,13,-1,24,-1,-1,,9999,0,0,2,FEW 30   BKN 60,1,7,-1,2,1021,RJOS 022300Z 34013G24KT 9999 FEW030 BKN060 07/M02 Q1021 RMK     1CU030 5SC060 A3017=,
20180103_000000.000,0,RJOS,,,,0,20180103000000,-1,-1,-1,-1,350,-1,14,-1,-1,-1,-1,,9999,0,0,3,FEW 25   SCT 35   BKN 50,1,7,-1,1,1022,RJOS 030000Z 35014KT 9999 FEW025 SCT035 BKN050 07/M01 Q1022 RMK     1CU025 3CU035 6SC050 A3018=,
20180103_000000.003,0,RJOS,,,,0,20180103000000,-1,-1,-1,-1,350,-1,14,-1,-1,-1,-1,,9999,0,0,3,FEW 25   SCT 35   BKN 50,1,7,-1,1,1022,RJOS 030000Z 35014KT 9999 FEW025 SCT035 BKN050 07/M01 Q1022     RMK 1CU025 3CU035 6SC050 A3018=,
20180103_010000.000,0,RJOS,,,,0,20180103010000,-1,-1,-1,-1,340,-1,15,-1,25,-1,-1,,9999,0,0,2,FEW 25   SCT 35,1,8,-1,3,1022,RJOS 030100Z 34015G25KT 9999 FEW025 SCT035 08/M03 Q1022 RMK     1CU025 3CU035 A3019=,
20180103_010000.003,0,RJOS,,,,0,20180103010000,-1,-1,-1,-1,340,-1,15,-1,25,-1,-1,,9999,0,0,2,FEW 25   SCT 35,1,8,-1,3,1022,RJOS 030100Z 34015G25KT 9999 FEW025 SCT035 08/M03 Q1022 RMK     1CU025 3CU035 A3019=,
20180103_020000.000,0,RJOS,,,,0,20180103020000,-1,-1,-1,-1,350,-1,18,-1,29,-1,-1,,9999,0,0,2,FEW 25   SCT 40,1,8,-1,3,1021,RJOS 030200Z 35018G29KT 9999 FEW025 SCT040 08/M03 Q1021 RMK     1CU025 4CU040 A3017=,
20180103_020000.003,0,RJOS,,,,0,20180103020000,-1,-1,-1,-1,350,-1,18,-1,29,-1,-1,,9999,0,0,2,FEW 25   SCT 40,1,8,-1,3,1021,RJOS 030200Z 35018G29KT 9999 FEW025 SCT040 08/M03 Q1021 RMK     1CU025 4CU040 A3017=,
20180103_030000.000,0,RJOS,,,,0,20180103030000,-1,-1,-1,-1,340,-1,20,-1,31,-1,-1,,9999,0,0,2,FEW 25   SCT 40,1,8,-1,3,1021,RJOS 030300Z 34020G31KT 9999 FEW025 SCT040 08/M03 Q1021 RMK     1CU025 3CU040 A3017=,
20180103_030000.004,0,RJOS,,,,0,20180103030000,-1,-1,-1,-1,340,-1,20,-1,31,-1,-1,,9999,0,0,2,FEW 25   SCT 40,1,8,-1,3,1021,RJOS 030300Z 34020G31KT 9999 FEW025 SCT040 08/M03 Q1021 RMK     1CU025 3CU040 A3017=,
20180103_040000.000,0,RJOS,,,,0,20180103040000,-1,-1,-1,-1,340,-1,19,-1,29,-1,-1,,9999,0,1,2,FEW 25   SCT 40,1,8,-1,3,1020,RJOS 030400Z 34019G29KT 9999 VCSH FEW025 SCT040 08/M03 Q1020     RMK 1CU025 4CU040 A3014=,VC SH
20180103_040000.003,0,RJOS,,,,0,20180103040000,-1,-1,-1,-1,340,-1,19,-1,29,-1,-1,,9999,0,1,2,FEW 25   SCT 40,1,8,-1,3,1020,RJOS 030400Z 34019G29KT 9999 VCSH FEW025 SCT040 08/M03 Q1020     RMK 1CU025 4CU040 A3014=,VC SH
20180103_050000.000,0,RJOS,,,,0,20180103050000,-1,-1,-1,-1,340,-1,15,-1,27,-1,-1,,9999,0,0,2,FEW 20   SCT 40,1,8,-1,2,1020,RJOS 030500Z 34015G27KT 9999 FEW020 SCT040 08/M02 Q1020 RMK     1CU020 3CU040 A3014=,
20180103_050000.003,0,RJOS,,,,0,20180103050000,-1,-1,-1,-1,340,-1,15,-1,27,-1,-1,,9999,0,0,2,FEW 20   SCT 40,1,8,-1,2,1020,RJOS 030500Z 34015G27KT 9999 FEW020 SCT040 08/M02 Q1020 RMK     1CU020 3CU040 A3014=,
20180103_060000.000,0,RJOS,,,,0,20180103060000,-1,-1,-1,-1,350,-1,14,-1,-1,-1,-1,,9999,0,0,2,FEW 20   SCT 40,1,7,-1,3,1021,RJOS 030600Z 35014KT 9999 FEW020 SCT040 07/M03 Q1021 RMK 1CU020     3CU040 A3016=,
20180103_060000.003,0,RJOS,,,,0,20180103060000,-1,-1,-1,-1,350,-1,14,-1,-1,-1,-1,,9999,0,0,2,FEW 20   SCT 40,1,7,-1,3,1021,RJOS 030600Z 35014KT 9999 FEW020 SCT040 07/M03 Q1021 RMK     1CU020 3CU040 A3016=,
20180103_070000.000,0,RJOS,,,,0,20180103070000,-1,-1,-1,-1,360,-1,13,-1,-1,-1,-1,,9999,0,0,3,FEW 20   SCT 40   BKN 60,1,7,-1,3,1021,RJOS 030700Z 36013KT 9999 FEW020 SCT040 BKN060 07/M03 Q1021 RMK     1CU020 4CU040 6SC060 A3017=,
20180103_070000.003,0,RJOS,,,,0,20180103070000,-1,-1,-1,-1,360,-1,13,-1,-1,-1,-1,,9999,0,0,3,FEW 20   SCT 40   BKN 60,1,7,-1,3,1021,RJOS 030700Z 36013KT 9999 FEW020 SCT040 BKN060 07/M03 Q1021     RMK 1CU020 4CU040 6SC060 A3017=,
20180103_080000.000,0,RJOS,,,,0,20180103080000,-1,-1,-1,-1,340,-1,18,-1,29,-1,-1,,9999,0,0,2,FEW 40   SCT 60,1,6,-1,6,1021,RJOS 030800Z 34018G29KT 9999 FEW040 SCT060 06/M06 Q1021 RMK     2CU040 3SC060 A3017=,
20180103_080000.003,0,RJOS,,,,0,20180103080000,-1,-1,-1,-1,340,-1,18,-1,29,-1,-1,,9999,0,0,2,FEW 40   SCT 60,1,6,-1,6,1021,RJOS 030800Z 34018G29KT 9999 FEW040 SCT060 06/M06 Q1021 RMK     2CU040 3SC060 A3017=,
20180103_090000.000,0,RJOS,,,,0,20180103090000,-1,-1,-1,-1,350,-1,12,-1,-1,-1,-1,,9999,0,0,2,FEW 40   SCT -9999,1,6,-1,6,1022,RJOS 030900Z 35012KT 9999 FEW040 SCT/// 06/M06 Q1022 RMK 1CU040     A3020=,
20180103_090000.003,0,RJOS,,,,0,20180103090000,-1,-1,-1,-1,350,-1,12,-1,-1,-1,-1,,9999,0,0,2,FEW 40   SCT -9999,1,6,-1,6,1022,RJOS 030900Z 35012KT 9999 FEW040 SCT/// 06/M06 Q1022 RMK     1CU040 A3020=,
20180103_100000.000,0,RJOS,,,,0,20180103100000,-1,-1,-1,-1,340,-1,11,-1,-1,-1,-1,,9999,0,0,2,FEW 40   SCT -9999,1,5,-1,6,1023,RJOS 031000Z 34011KT 9999 FEW040 SCT/// 05/M06 Q1023 RMK 1CU040     A3022=,
20180103_100000.003,0,RJOS,,,,0,20180103100000,-1,-1,-1,-1,340,-1,11,-1,-1,-1,-1,,9999,0,0,2,FEW 40   SCT -9999,1,5,-1,6,1023,RJOS 031000Z 34011KT 9999 FEW040 SCT/// 05/M06 Q1023 RMK     1CU040 A3022=,
20180103_110000.000,0,RJOS,,,,0,20180103110000,-1,-1,-1,-1,340,-1,11,-1,-1,-1,-1,,9999,0,0,2,FEW 30   SCT 70,1,5,-1,6,1023,RJOS 031100Z 34011KT 9999 FEW030 SCT070 05/M06 Q1023 RMK 1CU030     3AC070 A3023=,
20180103_110000.003,0,RJOS,,,,0,20180103110000,-1,-1,-1,-1,340,-1,11,-1,-1,-1,-1,,9999,0,0,2,FEW 30   SCT 70,1,5,-1,6,1023,RJOS 031100Z 34011KT 9999 FEW030 SCT070 05/M06 Q1023 RMK     1CU030 3AC070 A3023=,
20180103_120000.000,0,RJOS,,,,0,20180103120000,-1,-1,-1,-1,340,-1,11,-1,-1,-1,-1,,9999,0,0,2,FEW 30   SCT 70,1,4,-1,5,1023,RJOS 031200Z 34011KT 9999 FEW030 SCT070 04/M05 Q1023 RMK 1CU030     3AC070 A3023=,
20180103_120000.003,0,RJOS,,,,0,20180103120000,-1,-1,-1,-1,340,-1,11,-1,-1,-1,-1,,9999,0,0,2,FEW 30   SCT 70,1,4,-1,5,1023,RJOS 031200Z 34011KT 9999 FEW030 SCT070 04/M05 Q1023 RMK     1CU030 3AC070 A3023=,
20180103_130000.000,0,RJOS,,,,0,20180103130000,-1,-1,-1,-1,340,-1,9,-1,-1,-1,-1,,9999,0,0,1,FEW 30,1,4,-1,4,1024,RJOS 031300Z 34009KT 9999 FEW030 04/M04 Q1024 RMK 1CU030 A3025=,
20180103_130000.004,0,RJOS,,,,0,20180103130000,-1,-1,-1,-1,340,-1,9,-1,-1,-1,-1,,9999,0,0,1,FEW 30,1,4,-1,4,1024,RJOS 031300Z 34009KT 9999 FEW030 04/M04 Q1024 RMK 1CU030     A3025=,
20180103_140000.000,0,RJOS,,,,0,20180103140000,-1,-1,-1,-1,330,-1,7,-1,-1,-1,-1,,9999,0,0,2,FEW 25   SCT 40,1,4,-1,4,1024,RJOS 031400Z 33007KT 9999 FEW025 SCT040 04/M04 Q1024 RMK 1CU025     4CU040 A3025=,
20180103_140000.003,0,RJOS,,,,0,20180103140000,-1,-1,-1,-1,330,-1,7,-1,-1,-1,-1,,9999,0,0,2,FEW 25   SCT 40,1,4,-1,4,1024,RJOS 031400Z 33007KT 9999 FEW025 SCT040 04/M04 Q1024 RMK     1CU025 4CU040 A3025=,
20180103_150000.000,0,RJOS,,,,0,20180103150000,-1,-1,-1,-1,260,-1,6,-1,-1,-1,-1,,9999,0,0,2,FEW 25   SCT 40,1,3,-1,5,1024,RJOS 031500Z 26006KT 9999 FEW025 SCT040 03/M05 Q1024 RMK 1CU025     4CU040 A3024=,
20180103_150000.003,0,RJOS,,,,0,20180103150000,-1,-1,-1,-1,260,-1,6,-1,-1,-1,-1,,9999,0,0,2,FEW 25   SCT 40,1,3,-1,5,1024,RJOS 031500Z 26006KT 9999 FEW025 SCT040 03/M05 Q1024 RMK     1CU025 4CU040 A3024=,
20180103_160000.000,0,RJOS,,,,0,20180103160000,-1,-1,-1,-1,260,-1,4,-1,-1,-1,-1,,9999,0,0,2,FEW 25   SCT 40,1,2,-1,4,1023,RJOS 031600Z 26004KT 9999 FEW025 SCT040 02/M04 Q1023 RMK 1CU025     3CU040 A3023=,
20180103_160000.003,0,RJOS,,,,0,20180103160000,-1,-1,-1,-1,260,-1,4,-1,-1,-1,-1,,9999,0,0,2,FEW 25   SCT 40,1,2,-1,4,1023,RJOS 031600Z 26004KT 9999 FEW025 SCT040 02/M04 Q1023 RMK     1CU025 3CU040 A3023=,
20180103_170000.000,0,RJOS,,,,0,20180103170000,-1,-1,-1,-1,290,-1,5,-1,-1,-1,-1,,9999,0,0,1,FEW 40,1,2,-1,4,1023,RJOS 031700Z 29005KT 9999 FEW040 02/M04 Q1023 RMK 1CU040 A3023=,
20180103_170000.003,0,RJOS,,,,0,20180103170000,-1,-1,-1,-1,290,-1,5,-1,-1,-1,-1,,9999,0,0,1,FEW 40,1,2,-1,4,1023,RJOS 031700Z 29005KT 9999 FEW040 02/M04 Q1023 RMK 1CU040     A3023=,
20180103_180000.000,0,RJOS,,,,0,20180103180000,-1,-1,-1,-1,280,-1,9,-1,-1,-1,-1,,9999,0,0,1,FEW 40,1,1,-1,4,1024,RJOS 031800Z 28009KT 9999 FEW040 01/M04 Q1024 RMK 1CU040 A3024=,
20180103_180000.003,0,RJOS,,,,0,20180103180000,-1,-1,-1,-1,280,-1,9,-1,-1,-1,-1,,9999,0,0,1,FEW 40,1,1,-1,4,1024,RJOS 031800Z 28009KT 9999 FEW040 01/M04 Q1024 RMK 1CU040     A3024=,
20180103_190000.000,0,RJOS,,,,0,20180103190000,-1,-1,-1,-1,290,-1,8,-1,-1,-1,-1,,9999,0,0,1,FEW 40,1,1,-1,4,1023,RJOS 031900Z 29008KT 9999 FEW040 01/M04 Q1023 RMK 1CU040 A3023=,
20180103_190000.003,0,RJOS,,,,0,20180103190000,-1,-1,-1,-1,290,-1,8,-1,-1,-1,-1,,9999,0,0,1,FEW 40,1,1,-1,4,1023,RJOS 031900Z 29008KT 9999 FEW040 01/M04 Q1023 RMK 1CU040     A3023=,
20180103_200000.000,0,RJOS,,,,0,20180103200000,-1,-1,-1,-1,280,-1,7,-1,-1,-1,-1,,9999,0,0,1,FEW 30,1,1,-1,4,1023,RJOS 032000Z 28007KT 9999 FEW030 01/M04 Q1023 RMK 1CU030 A3022=,
20180103_200000.003,0,RJOS,,,,0,20180103200000,-1,-1,-1,-1,280,-1,7,-1,-1,-1,-1,,9999,0,0,1,FEW 30,1,1,-1,4,1023,RJOS 032000Z 28007KT 9999 FEW030 01/M04 Q1023 RMK 1CU030     A3022=,
20180103_210000.000,0,RJOS,,,,0,20180103210000,-1,-1,-1,-1,280,-1,10,-1,-1,-1,-1,,9999,0,0,1,FEW 30,1,1,-1,4,1023,RJOS 032100Z 28010KT 9999 FEW030 01/M04 Q1023 RMK 1CU030 A3024=,
20180103_210000.004,0,RJOS,,,,0,20180103210000,-1,-1,-1,-1,280,-1,10,-1,-1,-1,-1,,9999,0,0,1,FEW 30,1,1,-1,4,1023,RJOS 032100Z 28010KT 9999 FEW030 01/M04 Q1023 RMK 1CU030     A3024=,
20180103_220000.000,0,RJOS,,,,0,20180103220000,-1,-1,-1,-1,280,-1,8,-1,-1,-1,-1,,9999,0,0,1,FEW 25,1,1,-1,4,1024,RJOS 032200Z 28008KT 9999 FEW025 01/M04 Q1024 RMK 2CU025 A3025=,
20180103_220000.003,0,RJOS,,,,0,20180103220000,-1,-1,-1,-1,280,-1,8,-1,-1,-1,-1,,9999,0,0,1,FEW 25,1,1,-1,4,1024,RJOS 032200Z 28008KT 9999 FEW025 01/M04 Q1024 RMK 2CU025     A3025=,
20180103_230000.000,0,RJOS,,,,0,20180103230000,-1,-1,-1,-1,290,-1,7,-1,-1,-1,-1,,9999,0,0,2,FEW 30   SCT -9999,1,1,-1,4,1024,RJOS 032300Z 29007KT 9999 FEW030 SCT/// 01/M04 Q1024 RMK 1CU030     A3024=,
20180103_230000.003,0,RJOS,,,,0,20180103230000,-1,-1,-1,-1,290,-1,7,-1,-1,-1,-1,,9999,0,0,2,FEW 30   SCT -9999,1,1,-1,4,1024,RJOS 032300Z 29007KT 9999 FEW030 SCT/// 01/M04 Q1024 RMK     1CU030 A3024=,
20180104_000000.000,0,RJOS,,,,0,20180104000000,-1,-1,-1,-1,280,-1,8,-1,-1,-1,-1,,9999,0,0,1,FEW 30,1,3,-1,3,1024,RJOS 040000Z 28008KT 9999 FEW030 03/M03 Q1024 RMK 2CU030 A3025=,
20180104_000000.003,0,RJOS,,,,0,20180104000000,-1,-1,-1,-1,280,-1,8,-1,-1,-1,-1,,9999,0,0,1,FEW 30,1,3,-1,3,1024,RJOS 040000Z 28008KT 9999 FEW030 03/M03 Q1024 RMK 2CU030     A3025=,
20180104_010000.000,0,RJOS,,,,0,20180104010000,-1,-1,-1,-1,300,-1,10,-1,-1,-1,-1,,9999,0,0,1,FEW 30,1,5,-1,3,1024,RJOS 040100Z 30010KT 9999 FEW030 05/M03 Q1024 RMK 2CU030 A3024=,
20180104_010000.003,0,RJOS,,,,0,20180104010000,-1,-1,-1,-1,300,-1,10,-1,-1,-1,-1,,9999,0,0,1,FEW 30,1,5,-1,3,1024,RJOS 040100Z 30010KT 9999 FEW030 05/M03 Q1024 RMK 2CU030     A3024=,
20180104_020000.000,0,RJOS,,,,0,20180104020000,-1,-1,-1,-1,10,-1,10,-1,-1,-1,-1,,9999,0,0,1,FEW 30,1,7,-1,3,1023,RJOS 040200Z 01010KT 9999 FEW030 07/M03 Q1023 RMK 2CU030 A3023=,
20180104_020000.005,0,RJOS,,,,0,20180104020000,-1,-1,-1,-1,10,-1,10,-1,-1,-1,-1,,9999,0,0,1,FEW 30,1,7,-1,3,1023,RJOS 040200Z 01010KT 9999 FEW030 07/M03 Q1023 RMK 2CU030     A3023=,
20180104_030000.000,0,RJOS,,,,0,20180104030000,-1,-1,-1,-1,30,-1,9,-1,-1,-1,-1,,9999,0,0,2,FEW 30   SCT 180,1,8,-1,4,1022,RJOS 040300Z 03009KT 9999 FEW030 SCT180 08/M04 Q1022 RMK 2CU030     3AC180 A3020=,
20180104_030000.004,0,RJOS,,,,0,20180104030000,-1,-1,-1,-1,30,-1,9,-1,-1,-1,-1,,9999,0,0,2,FEW 30   SCT 180,1,8,-1,4,1022,RJOS 040300Z 03009KT 9999 FEW030 SCT180 08/M04 Q1022 RMK     2CU030 3AC180 A3020=,
20180104_040000.000,0,RJOS,,,,0,20180104040000,-1,-1,-1,-1,10,-1,9,-1,-1,320,40,,9999,0,0,1,FEW 30,1,8,-1,4,1021,RJOS 040400Z 01009KT 320V040 9999 FEW030 08/M04 Q1021 RMK     1CU030 A3016=,
20180104_040000.003,0,RJOS,,,,0,20180104040000,-1,-1,-1,-1,10,-1,9,-1,-1,320,40,,9999,0,0,1,FEW 30,1,8,-1,4,1021,RJOS 040400Z 01009KT 320V040 9999 FEW030 08/M04 Q1021 RMK     1CU030 A3016=,
20180104_050000.000,0,RJOS,,,,0,20180104050000,-1,-1,-1,-1,10,-1,11,-1,-1,-1,-1,,9999,0,0,1,FEW 30,1,8,-1,4,1020,RJOS 040500Z 01011KT 9999 FEW030 08/M04 Q1020 RMK 1CU030 A3014=,
20180104_050000.003,0,RJOS,,,,0,20180104050000,-1,-1,-1,-1,10,-1,11,-1,-1,-1,-1,,9999,0,0,1,FEW 30,1,8,-1,4,1020,RJOS 040500Z 01011KT 9999 FEW030 08/M04 Q1020 RMK 1CU030     A3014=,
20180104_060000.000,0,RJOS,,,,0,20180104060000,-1,-1,-1,-1,360,-1,15,-1,-1,-1,-1,,9999,0,0,2,FEW 30   SCT -9999,1,8,-1,4,1020,RJOS 040600Z 36015KT 9999 FEW030 SCT/// 08/M04 Q1020 RMK 1CU030     A3014=,
20180104_060000.004,0,RJOS,,,,0,20180104060000,-1,-1,-1,-1,360,-1,15,-1,-1,-1,-1,,9999,0,0,2,FEW 30   SCT -9999,1,8,-1,4,1020,RJOS 040600Z 36015KT 9999 FEW030 SCT/// 08/M04 Q1020 RMK     1CU030 A3014=,
20180104_070000.000,0,RJOS,,,,0,20180104070000,-1,-1,-1,-1,360,-1,10,-1,-1,-1,-1,,9999,0,0,2,FEW 30   SCT -9999,1,8,-1,3,1020,RJOS 040700Z 36010KT 9999 FEW030 SCT/// 08/M03 Q1020 RMK 1CU030     A3015=,
20180104_070000.003,0,RJOS,,,,0,20180104070000,-1,-1,-1,-1,360,-1,10,-1,-1,-1,-1,,9999,0,0,2,FEW 30   SCT -9999,1,8,-1,3,1020,RJOS 040700Z 36010KT 9999 FEW030 SCT/// 08/M03 Q1020 RMK     1CU030 A3015=,
20180104_080000.000,0,RJOS,,,,0,20180104080000,-1,-1,-1,-1,20,-1,7,-1,-1,330,40,,9999,0,0,2,FEW 30   SCT -9999,1,7,-1,3,1021,RJOS 040800Z 02007KT 330V040 9999 FEW030 SCT/// 07/M03 Q1021     RMK 1CU030 A3015=,
20180104_080000.003,0,RJOS,,,,0,20180104080000,-1,-1,-1,-1,20,-1,7,-1,-1,330,40,,9999,0,0,2,FEW 30   SCT -9999,1,7,-1,3,1021,RJOS 040800Z 02007KT 330V040 9999 FEW030 SCT/// 07/M03 Q1021     RMK 1CU030 A3015=,
20180104_090000.000,0,RJOS,,,,0,20180104090000,-1,-1,-1,-1,340,-1,5,-1,-1,-1,-1,,9999,0,0,2,FEW 30   SCT -9999,1,6,-1,3,1021,RJOS 040900Z 34005KT 9999 FEW030 SCT/// 06/M03 Q1021 RMK 1CU030     A3016=,
20180104_090000.003,0,RJOS,,,,0,20180104090000,-1,-1,-1,-1,340,-1,5,-1,-1,-1,-1,,9999,0,0,2,FEW 30   SCT -9999,1,6,-1,3,1021,RJOS 040900Z 34005KT 9999 FEW030 SCT/// 06/M03 Q1021 RMK     1CU030 A3016=,
20180104_100000.000,0,RJOS,,,,0,20180104100000,-1,-1,-1,-1,300,-1,3,-1,-1,-1,-1,,9999,0,0,2,FEW 30   SCT 60,1,6,-1,2,1021,RJOS 041000Z 30003KT 9999 FEW030 SCT060 06/M02 Q1021 RMK 1CU030     3SC060 A3017=,
20180104_100000.003,0,RJOS,,,,0,20180104100000,-1,-1,-1,-1,300,-1,3,-1,-1,-1,-1,,9999,0,0,2,FEW 30   SCT 60,1,6,-1,2,1021,RJOS 041000Z 30003KT 9999 FEW030 SCT060 06/M02 Q1021 RMK     1CU030 3SC060 A3017=,
20180104_110000.000,0,RJOS,,,,0,20180104110000,-1,-1,-1,-1,310,-1,5,-1,-1,-1,-1,,9999,0,0,2,FEW 30   BKN 60,1,6,-1,2,1021,RJOS 041100Z 31005KT 9999 FEW030 BKN060 06/M02 Q1021 RMK 1CU030     7SC060 A3017=,
20180104_110000.003,0,RJOS,,,,0,20180104110000,-1,-1,-1,-1,310,-1,5,-1,-1,-1,-1,,9999,0,0,2,FEW 30   BKN 60,1,6,-1,2,1021,RJOS 041100Z 31005KT 9999 FEW030 BKN060 06/M02 Q1021 RMK     1CU030 7SC060 A3017=,
20180104_120000.000,0,RJOS,,,,0,20180104120000,-1,-1,-1,-1,290,-1,4,-1,-1,-1,-1,,9999,0,1,3,FEW 20   SCT 30   BKN 60,1,6,-1,2,1021,RJOS 041200Z 29004KT 9999 -SHRA FEW020 SCT030 BKN060 06/M02     Q1021 RMK 1CU020 4CU030 7SC060 A3017=,- RA SH
20180104_120000.004,0,RJOS,,,,0,20180104120000,-1,-1,-1,-1,290,-1,4,-1,-1,-1,-1,,9999,0,1,3,FEW 20   SCT 30   BKN 60,1,6,-1,2,1021,RJOS 041200Z 29004KT 9999 -SHRA FEW020 SCT030 BKN060 06/M02     Q1021 RMK 1CU020 4CU030 7SC060 A3017=,- RA SH
20180104_130000.000,0,RJOS,,,,0,20180104130000,-1,-1,-1,-1,290,-1,5,-1,-1,-1,-1,,9999,0,0,3,FEW 20   SCT 30   BKN 60,1,5,-1,2,1021,RJOS 041300Z 29005KT 9999 FEW020 SCT030 BKN060 05/M02 Q1021 RMK     1CU020 3CU030 7SC060 A3016=,
20180104_130000.003,0,RJOS,,,,0,20180104130000,-1,-1,-1,-1,290,-1,5,-1,-1,-1,-1,,9999,0,0,3,FEW 20   SCT 30   BKN 60,1,5,-1,2,1021,RJOS 041300Z 29005KT 9999 FEW020 SCT030 BKN060 05/M02 Q1021     RMK 1CU020 3CU030 7SC060 A3016=,
20180104_140000.000,0,RJOS,,,,0,20180104140000,-1,-1,-1,-1,270,-1,6,-1,-1,-1,-1,,9999,0,0,2,FEW 30   BKN 60,1,4,-1,2,1020,RJOS 041400Z 27006KT 9999 FEW030 BKN060 04/M02 Q1020 RMK 1CU030     5SC060 A3015=,
20180104_140000.003,0,RJOS,,,,0,20180104140000,-1,-1,-1,-1,270,-1,6,-1,-1,-1,-1,,9999,0,0,2,FEW 30   BKN 60,1,4,-1,2,1020,RJOS 041400Z 27006KT 9999 FEW030 BKN060 04/M02 Q1020 RMK     1CU030 5SC060 A3015=,
20180104_150000.000,0,RJOS,,,,0,20180104150000,-1,-1,-1,-1,290,-1,6,-1,-1,-1,-1,,9999,0,0,2,FEW 30   SCT 60,1,3,-1,2,1020,RJOS 041500Z 29006KT 9999 FEW030 SCT060 03/M02 Q1020 RMK 1CU030     3SC060 A3014=,
20180104_150000.004,0,RJOS,,,,0,20180104150000,-1,-1,-1,-1,290,-1,6,-1,-1,-1,-1,,9999,0,0,2,FEW 30   SCT 60,1,3,-1,2,1020,RJOS 041500Z 29006KT 9999 FEW030 SCT060 03/M02 Q1020 RMK     1CU030 3SC060 A3014=,
20180104_160000.000,0,RJOS,,,,0,20180104160000,-1,-1,-1,-1,310,-1,4,-1,-1,-1,-1,,9999,0,0,2,FEW 30   SCT -9999,1,3,-1,2,1020,RJOS 041600Z 31004KT 9999 FEW030 SCT/// 03/M02 Q1020 RMK 1CU030     A3013=,
20180104_160000.004,0,RJOS,,,,0,20180104160000,-1,-1,-1,-1,310,-1,4,-1,-1,-1,-1,,9999,0,0,2,FEW 30   SCT -9999,1,3,-1,2,1020,RJOS 041600Z 31004KT 9999 FEW030 SCT/// 03/M02 Q1020 RMK     1CU030 A3013=,
20180104_170000.001,0,RJOS,,,,0,20180104170000,-1,-1,-1,-1,300,-1,5,-1,-1,-1,-1,,9999,0,0,3,FEW 30   SCT 180   BKN -9999,1,3,-1,1,1019,RJOS 041700Z 30005KT 9999 FEW030 SCT180 BKN/// 03/M01 Q1019 RMK     1CU030 3AC180 A3011=,
20180104_170000.004,0,RJOS,,,,0,20180104170000,-1,-1,-1,-1,300,-1,5,-1,-1,-1,-1,,9999,0,0,3,FEW 30   SCT 180   BKN -9999,1,3,-1,1,1019,RJOS 041700Z 30005KT 9999 FEW030 SCT180 BKN/// 03/M01 Q1019     RMK 1CU030 3AC180 A3011=,
20180104_180000.000,0,RJOS,,,,0,20180104180000,-1,-1,-1,-1,300,-1,5,-1,-1,-1,-1,,9999,0,0,3,FEW 25   BKN 120   BKN -9999,1,3,-1,1,1019,RJOS 041800Z 30005KT 9999 FEW025 BKN120 BKN/// 03/M01 Q1019 RMK     1CU025 5AC120 A3010=,
20180104_180000.003,0,RJOS,,,,0,20180104180000,-1,-1,-1,-1,300,-1,5,-1,-1,-1,-1,,9999,0,0,3,FEW 25   BKN 120   BKN -9999,1,3,-1,1,1019,RJOS 041800Z 30005KT 9999 FEW025 BKN120 BKN/// 03/M01 Q1019     RMK 1CU025 5AC120 A3010=,
20180104_190000.000,0,RJOS,,,,0,20180104190000,-1,-1,-1,-1,310,-1,4,-1,-1,-1,-1,,9999,0,0,2,FEW 25   BKN 120,1,3,-1,1,1018,RJOS 041900Z 31004KT 9999 FEW025 BKN120 03/M01 Q1018 RMK 1CU025     7AC120 A3009=,
20180104_190000.004,0,RJOS,,,,0,20180104190000,-1,-1,-1,-1,310,-1,4,-1,-1,-1,-1,,9999,0,0,2,FEW 25   BKN 120,1,3,-1,1,1018,RJOS 041900Z 31004KT 9999 FEW025 BKN120 03/M01 Q1018 RMK     1CU025 7AC120 A3009=,
20180104_200000.000,0,RJOS,,,,0,20180104200000,-1,-1,-1,-1,300,-1,5,-1,-1,-1,-1,,9999,0,0,3,FEW 25   SCT 50   BKN 100,1,3,-1,1,1018,RJOS 042000Z 30005KT 9999 FEW025 SCT050 BKN100 03/M01 Q1018 RMK     1CU025 3SC050 7AC100 A3007=,
20180104_200000.003,0,RJOS,,,,0,20180104200000,-1,-1,-1,-1,300,-1,5,-1,-1,-1,-1,,9999,0,0,3,FEW 25   SCT 50   BKN 100,1,3,-1,1,1018,RJOS 042000Z 30005KT 9999 FEW025 SCT050 BKN100 03/M01 Q1018     RMK 1CU025 3SC050 7AC100 A3007=,
20180104_210000.000,0,RJOS,,,,0,20180104210000,-1,-1,-1,-1,290,-1,6,-1,-1,-1,-1,,9999,0,0,3,FEW 25   SCT 50   BKN 100,1,3,-1,1,1018,RJOS 042100Z 29006KT 9999 FEW025 SCT050 BKN100 03/M01 Q1018 RMK     1CU025 3SC050 7AC100 A3007 S/// SD/// FS000=,
20180104_210000.003,0,RJOS,,,,0,20180104210000,-1,-1,-1,-1,290,-1,6,-1,-1,-1,-1,,9999,0,0,3,FEW 25   SCT 50   BKN 100,1,3,-1,1,1018,RJOS 042100Z 29006KT 9999 FEW025 SCT050 BKN100 03/M01 Q1018     RMK 1CU025 3SC050 7AC100 A3007 S/// SD/// FS000=,
20180104_220000.000,0,RJOS,,,,0,20180104220000,-1,-1,-1,-1,290,-1,5,-1,-1,-1,-1,,9999,0,0,2,FEW 20   OVC 80,1,4,-1,1,1018,RJOS 042200Z 29005KT 9999 FEW020 OVC080 04/M01 Q1018 RMK 2CU020     8AS080 A3007=,
20180104_220000.003,0,RJOS,,,,0,20180104220000,-1,-1,-1,-1,290,-1,5,-1,-1,-1,-1,,9999,0,0,2,FEW 20   OVC 80,1,4,-1,1,1018,RJOS 042200Z 29005KT 9999 FEW020 OVC080 04/M01 Q1018 RMK     2CU020 8AS080 A3007=,
20180104_230000.000,0,RJOS,,,,0,20180104230000,-1,-1,-1,-1,300,-1,5,-1,-1,-1,-1,,9999,0,0,3,FEW 20   SCT 60   OVC 80,1,4,-1,1,1017,RJOS 042300Z 30005KT 9999 FEW020 SCT060 OVC080 04/M01 Q1017 RMK     1CU020 3SC060 8AS080 A3006=,
20180104_230000.003,0,RJOS,,,,0,20180104230000,-1,-1,-1,-1,300,-1,5,-1,-1,-1,-1,,9999,0,0,3,FEW 20   SCT 60   OVC 80,1,4,-1,1,1017,RJOS 042300Z 30005KT 9999 FEW020 SCT060 OVC080 04/M01 Q1017     RMK 1CU020 3SC060 8AS080 A3006=,
20180105_000000.000,0,RJOS,,,,0,20180105000000,-1,-1,-1,-1,310,-1,5,-1,-1,-1,-1,,9999,0,1,3,FEW 15   BKN 30   OVC 80,1,4,1,0,1018,RJOS 050000Z 31005KT 9999 -SHRA FEW015 BKN030 OVC080 04/00     Q1018 RMK 1CU015 5CU030 8AS080 A3007=,- RA SH
20180105_000000.004,0,RJOS,,,,0,20180105000000,-1,-1,-1,-1,310,-1,5,-1,-1,-1,-1,,9999,0,1,3,FEW 15   BKN 30   OVC 80,1,4,1,0,1018,RJOS 050000Z 31005KT 9999 -SHRA FEW015 BKN030 OVC080 04/00     Q1018 RMK 1CU015 5CU030 8AS080 A3007=,- RA SH
20180105_010000.000,0,RJOS,,,,0,20180105010000,-1,-1,-1,-1,260,-1,3,-1,-1,-1,-1,,9999,0,1,2,FEW 15   BKN 30,1,4,1,2,1018,RJOS 050100Z 26003KT 9999 -SHRA FEW015 BKN030 04/02 Q1018 RMK     2CU015 7CU030 A3007=,- RA SH
20180105_010000.004,0,RJOS,,,,0,20180105010000,-1,-1,-1,-1,260,-1,3,-1,-1,-1,-1,,9999,0,1,2,FEW 15   BKN 30,1,4,1,2,1018,RJOS 050100Z 26003KT 9999 -SHRA FEW015 BKN030 04/02 Q1018 RMK     2CU015 7CU030 A3007=,- RA SH
20180105_020000.000,0,RJOS,,,,0,20180105020000,-1,-1,-1,-1,290,-1,6,-1,-1,-1,-1,,6000,0,1,2,FEW 12   BKN 30,1,4,1,2,1017,RJOS 050200Z 29006KT 6000 -SHRA FEW012 BKN030 04/02 Q1017 RMK     2CU012 7CU030 A3006=,- RA SH
20180105_020000.003,0,RJOS,,,,0,20180105020000,-1,-1,-1,-1,290,-1,6,-1,-1,-1,-1,,6000,0,1,2,FEW 12   BKN 30,1,4,1,2,1017,RJOS 050200Z 29006KT 6000 -SHRA FEW012 BKN030 04/02 Q1017 RMK     2CU012 7CU030 A3006=,- RA SH
20180105_030000.000,0,RJOS,,,,0,20180105030000,-1,-1,-1,-1,290,-1,6,-1,-1,-1,-1,,8000,0,1,3,FEW 6   SCT 12   BKN 20,1,4,1,2,1016,RJOS 050300Z 29006KT 8000 -SHRA FEW006 SCT012 BKN020 04/02     Q1016 RMK 1ST006 3CU012 7CU020 A3003=,- RA SH
20180105_030000.003,0,RJOS,,,,0,20180105030000,-1,-1,-1,-1,290,-1,6,-1,-1,-1,-1,,8000,0,1,3,FEW 6   SCT 12   BKN 20,1,4,1,2,1016,RJOS 050300Z 29006KT 8000 -SHRA FEW006 SCT012 BKN020 04/02     Q1016 RMK 1ST006 3CU012 7CU020 A3003=,- RA SH
20180105_040000.000,0,RJOS,,,,0,20180105040000,-1,-1,-1,-1,300,-1,6,-1,-1,-1,-1,,8000,0,1,3,FEW 6   SCT 12   BKN 20,1,3,1,2,1016,RJOS 050400Z 30006KT 8000 -SHRA FEW006 SCT012 BKN020 03/02     Q1016 RMK 2ST006 4CU012 7CU020 A3002=,- RA SH
20180105_040000.003,0,RJOS,,,,0,20180105040000,-1,-1,-1,-1,300,-1,6,-1,-1,-1,-1,,8000,0,1,3,FEW 6   SCT 12   BKN 20,1,3,1,2,1016,RJOS 050400Z 30006KT 8000 -SHRA FEW006 SCT012 BKN020 03/02     Q1016 RMK 2ST006 4CU012 7CU020 A3002=,- RA SH
20180105_050000.000,0,RJOS,,,,0,20180105050000,-1,-1,-1,-1,300,-1,4,-1,-1,-1,-1,,9999,0,1,3,FEW 6   BKN 12   BKN 20,1,3,1,2,1016,RJOS 050500Z 30004KT 9999 -SHRA FEW006 BKN012 BKN020 03/02     Q1016 RMK 1ST006 5CU012 7CU020 A3001=,- RA SH
20180105_050000.003,0,RJOS,,,,0,20180105050000,-1,-1,-1,-1,300,-1,4,-1,-1,-1,-1,,9999,0,1,3,FEW 6   BKN 12   BKN 20,1,3,1,2,1016,RJOS 050500Z 30004KT 9999 -SHRA FEW006 BKN012 BKN020 03/02     Q1016 RMK 1ST006 5CU012 7CU020 A3001=,- RA SH
20180105_060000.000,0,RJOS,,,,0,20180105060000,-1,-1,-1,-1,310,-1,2,-1,-1,-1,-1,,9999,0,1,3,FEW 12   SCT 20   BKN 50,1,4,1,2,1015,RJOS 050600Z 31002KT 9999 -SHRA FEW012 SCT020 BKN050 04/02     Q1015 RMK 1CU012 3CU020 5SC050 A3000=,- RA SH
20180105_060000.003,0,RJOS,,,,0,20180105060000,-1,-1,-1,-1,310,-1,2,-1,-1,-1,-1,,9999,0,1,3,FEW 12   SCT 20   BKN 50,1,4,1,2,1015,RJOS 050600Z 31002KT 9999 -SHRA FEW012 SCT020 BKN050 04/02     Q1015 RMK 1CU012 3CU020 5SC050 A3000=,- RA SH
20180105_070000.000,0,RJOS,,,,0,20180105070000,-1,-1,-1,-1,350,-1,2,-1,-1,-1,-1,,9999,0,0,3,FEW 12   BKN 25   BKN 100,1,4,1,2,1015,RJOS 050700Z 35002KT 9999 FEW012 BKN025 BKN100 04/02 Q1015 RMK     1CU012 6CU025 7AC100 A2999=,
20180105_070000.003,0,RJOS,,,,0,20180105070000,-1,-1,-1,-1,350,-1,2,-1,-1,-1,-1,,9999,0,0,3,FEW 12   BKN 25   BKN 100,1,4,1,2,1015,RJOS 050700Z 35002KT 9999 FEW012 BKN025 BKN100 04/02 Q1015 RMK     1CU012 6CU025 7AC100 A2999=,
20180105_080000.000,0,RJOS,,,,0,20180105080000,-1,-1,-1,-1,290,-1,4,-1,-1,-1,-1,,9999,0,0,3,FEW 12   BKN 25   BKN 100,1,4,1,2,1015,RJOS 050800Z 29004KT 9999 FEW012 BKN025 BKN100 04/02 Q1015 RMK     1CU012 5CU025 7AC100 A2998=,
20180105_080000.003,0,RJOS,,,,0,20180105080000,-1,-1,-1,-1,290,-1,4,-1,-1,-1,-1,,9999,0,0,3,FEW 12   BKN 25   BKN 100,1,4,1,2,1015,RJOS 050800Z 29004KT 9999 FEW012 BKN025 BKN100 04/02 Q1015 RMK     1CU012 5CU025 7AC100 A2998=,
20180105_090000.000,0,RJOS,,,,0,20180105090000,-1,-1,-1,-1,300,-1,7,-1,-1,-1,-1,,9999,0,0,1,FEW 25,1,3,1,2,1015,RJOS 050900Z 30007KT 9999 FEW025 03/02 Q1015 RMK 2CU025 A2999=,
20180105_090000.003,0,RJOS,,,,0,20180105090000,-1,-1,-1,-1,300,-1,7,-1,-1,-1,-1,,9999,0,0,1,FEW 25,1,3,1,2,1015,RJOS 050900Z 30007KT 9999 FEW025 03/02 Q1015 RMK 2CU025 A2999=,
20180105_100000.000,0,RJOS,,,,0,20180105100000,-1,-1,-1,-1,300,-1,5,-1,-1,-1,-1,,9999,0,0,1,SCT 20,1,3,1,2,1015,RJOS 051000Z 30005KT 9999 SCT020 03/02 Q1015 RMK 3CU020 A2999=,
20180105_100000.003,0,RJOS,,,,0,20180105100000,-1,-1,-1,-1,300,-1,5,-1,-1,-1,-1,,9999,0,0,1,SCT 20,1,3,1,2,1015,RJOS 051000Z 30005KT 9999 SCT020 03/02 Q1015 RMK 3CU020 A2999=,
20180105_110000.000,0,RJOS,,,,0,20180105110000,-1,-1,-1,-1,290,-1,4,-1,-1,-1,-1,,9999,0,0,1,FEW 20,1,3,1,1,1015,RJOS 051100Z 29004KT 9999 FEW020 03/01 Q1015 RMK 2CU020 A2998=,
20180105_110000.003,0,RJOS,,,,0,20180105110000,-1,-1,-1,-1,290,-1,4,-1,-1,-1,-1,,9999,0,0,1,FEW 20,1,3,1,1,1015,RJOS 051100Z 29004KT 9999 FEW020 03/01 Q1015 RMK 2CU020 A2998=,
20180105_120000.000,0,RJOS,,,,0,20180105120000,-1,-1,-1,-1,310,-1,5,-1,-1,-1,-1,,9999,0,0,1,FEW 20,1,2,1,1,1015,RJOS 051200Z 31005KT 9999 FEW020 02/01 Q1015 RMK 1CU020 A2998=,
20180105_120000.003,0,RJOS,,,,0,20180105120000,-1,-1,-1,-1,310,-1,5,-1,-1,-1,-1,,9999,0,0,1,FEW 20,1,2,1,1,1015,RJOS 051200Z 31005KT 9999 FEW020 02/01 Q1015 RMK 1CU020 A2998=,
20180105_130000.000,0,RJOS,,,,0,20180105130000,-1,-1,-1,-1,290,-1,7,-1,-1,-1,-1,,8000,0,0,2,FEW 6   SCT 20,1,2,1,1,1014,RJOS 051300Z 29007KT 8000 FEW006 SCT020 02/01 Q1014 RMK 1ST006     3CU020 A2997=,
20180105_130000.003,0,RJOS,,,,0,20180105130000,-1,-1,-1,-1,290,-1,7,-1,-1,-1,-1,,8000,0,0,2,FEW 6   SCT 20,1,2,1,1,1014,RJOS 051300Z 29007KT 8000 FEW006 SCT020 02/01 Q1014 RMK 1ST006     3CU020 A2997=,
20180105_140000.000,0,RJOS,,,,0,20180105140000,-1,-1,-1,-1,300,-1,7,-1,-1,-1,-1,,9999,0,0,2,FEW 6   BKN 80,1,2,1,1,1014,RJOS 051400Z 30007KT 9999 FEW006 BKN080 02/01 Q1014 RMK 1ST006     5AC080 A2996=,
20180105_140000.003,0,RJOS,,,,0,20180105140000,-1,-1,-1,-1,300,-1,7,-1,-1,-1,-1,,9999,0,0,2,FEW 6   BKN 80,1,2,1,1,1014,RJOS 051400Z 30007KT 9999 FEW006 BKN080 02/01 Q1014 RMK 1ST006     5AC080 A2996=,
20180105_150000.000,0,RJOS,,,,0,20180105150000,-1,-1,-1,-1,290,-1,7,-1,-1,-1,-1,,9999,0,0,2,FEW 6   BKN 80,1,2,1,1,1014,RJOS 051500Z 29007KT 9999 FEW006 BKN080 02/01 Q1014 RMK 1ST006     5AC080 A2995=,
20180105_150000.003,0,RJOS,,,,0,20180105150000,-1,-1,-1,-1,290,-1,7,-1,-1,-1,-1,,9999,0,0,2,FEW 6   BKN 80,1,2,1,1,1014,RJOS 051500Z 29007KT 9999 FEW006 BKN080 02/01 Q1014 RMK 1ST006     5AC080 A2995=,
20180105_160000.000,0,RJOS,,,,0,20180105160000,-1,-1,-1,-1,290,-1,8,-1,-1,-1,-1,,9999,0,0,2,FEW 20   BKN 70,1,2,1,1,1014,RJOS 051600Z 29008KT 9999 FEW020 BKN070 02/01 Q1014 RMK 1CU020     7AC070 A2995=,
20180105_160000.004,0,RJOS,,,,0,20180105160000,-1,-1,-1,-1,290,-1,8,-1,-1,-1,-1,,9999,0,0,2,FEW 20   BKN 70,1,2,1,1,1014,RJOS 051600Z 29008KT 9999 FEW020 BKN070 02/01 Q1014 RMK 1CU020     7AC070 A2995=,
20180105_170000.000,0,RJOS,,,,0,20180105170000,-1,-1,-1,-1,290,-1,7,-1,-1,-1,-1,,9999,0,0,3,FEW 20   SCT 40   BKN 70,1,2,1,1,1014,RJOS 051700Z 29007KT 9999 FEW020 SCT040 BKN070 02/01 Q1014 RMK     1CU020 3CU040 7AC070 A2995=,
20180105_170000.003,0,RJOS,,,,0,20180105170000,-1,-1,-1,-1,290,-1,7,-1,-1,-1,-1,,9999,0,0,3,FEW 20   SCT 40   BKN 70,1,2,1,1,1014,RJOS 051700Z 29007KT 9999 FEW020 SCT040 BKN070 02/01 Q1014 RMK     1CU020 3CU040 7AC070 A2995=,
20180105_180000.000,0,RJOS,,,,0,20180105180000,-1,-1,-1,-1,290,-1,8,-1,-1,-1,-1,,9999,0,0,3,FEW 15   SCT 30   BKN 70,1,2,1,1,1014,RJOS 051800Z 29008KT 9999 FEW015 SCT030 BKN070 02/01 Q1014 RMK     1CU015 4CU030 7AC070 A2996=,
20180105_180000.004,0,RJOS,,,,0,20180105180000,-1,-1,-1,-1,290,-1,8,-1,-1,-1,-1,,9999,0,0,3,FEW 15   SCT 30   BKN 70,1,2,1,1,1014,RJOS 051800Z 29008KT 9999 FEW015 SCT030 BKN070 02/01 Q1014 RMK     1CU015 4CU030 7AC070 A2996=,
20180105_190000.000,0,RJOS,,,,0,20180105190000,-1,-1,-1,-1,290,-1,3,-1,-1,-1,-1,,9999,0,0,2,FEW 15   BKN 30,1,3,1,1,1013,RJOS 051900Z 29003KT 9999 FEW015 BKN030 03/01 Q1013 RMK 1CU015     7CU030 A2994=,
20180105_190000.003,0,RJOS,,,,0,20180105190000,-1,-1,-1,-1,290,-1,3,-1,-1,-1,-1,,9999,0,0,2,FEW 15   BKN 30,1,3,1,1,1013,RJOS 051900Z 29003KT 9999 FEW015 BKN030 03/01 Q1013 RMK 1CU015     7CU030 A2994=,
20180105_200000.000,0,RJOS,,,,0,20180105200000,-1,-1,-1,-1,280,-1,5,-1,-1,-1,-1,,9999,0,0,3,FEW 15   BKN 30   BKN 50,1,3,1,1,1013,RJOS 052000Z 28005KT 9999 FEW015 BKN030 BKN050 03/01 Q1013 RMK     1CU015 5CU030 7SC050 A2994=,
20180105_200000.003,0,RJOS,,,,0,20180105200000,-1,-1,-1,-1,280,-1,5,-1,-1,-1,-1,,9999,0,0,3,FEW 15   BKN 30   BKN 50,1,3,1,1,1013,RJOS 052000Z 28005KT 9999 FEW015 BKN030 BKN050 03/01 Q1013 RMK     1CU015 5CU030 7SC050 A2994=,
20180105_210000.000,0,RJOS,,,,0,20180105210000,-1,-1,-1,-1,270,-1,4,-1,-1,240,310,,9999,0,0,3,FEW 15   BKN 30   BKN 50,1,3,1,2,1014,RJOS 052100Z 27004KT 240V310 9999 FEW015 BKN030 BKN050 03/02     Q1014 RMK 1CU015 5CU030 7SC050 A2995=,
20180105_210000.004,0,RJOS,,,,0,20180105210000,-1,-1,-1,-1,270,-1,4,-1,-1,240,310,,9999,0,0,3,FEW 15   BKN 30   BKN 50,1,3,1,2,1014,RJOS 052100Z 27004KT 240V310 9999 FEW015 BKN030 BKN050 03/02     Q1014 RMK 1CU015 5CU030 7SC050 A2995=,
20180105_220000.000,0,RJOS,,,,0,20180105220000,-1,-1,-1,-1,280,-1,5,-1,-1,-1,-1,,9999,0,0,3,FEW 15   BKN 30   BKN 50,1,3,1,2,1014,RJOS 052200Z 28005KT 9999 FEW015 BKN030 BKN050 03/02 Q1014 RMK     1CU015 5CU030 6SC050 A2996=,
20180105_220000.003,0,RJOS,,,,0,20180105220000,-1,-1,-1,-1,280,-1,5,-1,-1,-1,-1,,9999,0,0,3,FEW 15   BKN 30   BKN 50,1,3,1,2,1014,RJOS 052200Z 28005KT 9999 FEW015 BKN030 BKN050 03/02 Q1014 RMK     1CU015 5CU030 6SC050 A2996=,
20180105_230000.000,0,RJOS,,,,0,20180105230000,-1,-1,-1,-1,250,-1,3,-1,-1,-1,-1,,9999,0,0,1,FEW 30,1,3,1,2,1014,RJOS 052300Z 25003KT 9999 FEW030 03/02 Q1014 RMK 1CU030 A2997=,
20180105_230000.003,0,RJOS,,,,0,20180105230000,-1,-1,-1,-1,250,-1,3,-1,-1,-1,-1,,9999,0,0,1,FEW 30,1,3,1,2,1014,RJOS 052300Z 25003KT 9999 FEW030 03/02 Q1014 RMK 1CU030 A2997=,
20180106_000000.000,0,RJOS,,,,0,20180106000000,-1,-1,-1,-1,999,-1,2,-1,-1,-1,-1,,9999,0,0,1,FEW 30,1,5,1,2,1015,RJOS 060000Z VRB02KT 9999 FEW030 05/02 Q1015 RMK 1CU030 A2999=,
20180106_000000.003,0,RJOS,,,,0,20180106000000,-1,-1,-1,-1,999,-1,2,-1,-1,-1,-1,,9999,0,0,1,FEW 30,1,5,1,2,1015,RJOS 060000Z VRB02KT 9999 FEW030 05/02 Q1015 RMK 1CU030 A2999=,
20180106_010000.000,0,RJOS,,,,0,20180106010000,-1,-1,-1,-1,999,-1,2,-1,-1,-1,-1,,9999,0,0,1,FEW 30,1,8,1,2,1016,RJOS 060100Z VRB02KT 9999 FEW030 08/02 Q1016 RMK 1CU030 A3000=,
20180106_010000.003,0,RJOS,,,,0,20180106010000,-1,-1,-1,-1,999,-1,2,-1,-1,-1,-1,,9999,0,0,1,FEW 30,1,8,1,2,1016,RJOS 060100Z VRB02KT 9999 FEW030 08/02 Q1016 RMK 1CU030 A3000=,
20180106_020000.000,0,RJOS,,,,0,20180106020000,-1,-1,-1,-1,310,-1,13,-1,-1,-1,-1,,9999,0,0,1,FEW 30,1,10,-1,1,1015,RJOS 060200Z 31013KT 9999 FEW030 10/M01 Q1015 RMK 1CU030 A3000=,
20180106_020000.003,0,RJOS,,,,0,20180106020000,-1,-1,-1,-1,310,-1,13,-1,-1,-1,-1,,9999,0,0,1,FEW 30,1,10,-1,1,1015,RJOS 060200Z 31013KT 9999 FEW030 10/M01 Q1015 RMK 1CU030     A3000=,
20180106_030000.000,0,RJOS,,,,0,20180106030000,-1,-1,-1,-1,330,-1,16,-1,26,-1,-1,,9999,0,0,1,FEW 30,1,10,-1,3,1014,RJOS 060300Z 33016G26KT 9999 FEW030 10/M03 Q1014 RMK 1CU030     A2997=,
20180106_030000.003,0,RJOS,,,,0,20180106030000,-1,-1,-1,-1,330,-1,16,-1,26,-1,-1,,9999,0,0,1,FEW 30,1,10,-1,3,1014,RJOS 060300Z 33016G26KT 9999 FEW030 10/M03 Q1014 RMK 1CU030     A2997=,
20180106_040000.000,0,RJOS,,,,0,20180106040000,-1,-1,-1,-1,320,-1,15,-1,25,-1,-1,,9999,0,0,1,FEW 30,1,10,-1,2,1014,RJOS 060400Z 32015G25KT 9999 FEW030 10/M02 Q1014 RMK 1CU030     A2995=,
20180106_040000.003,0,RJOS,,,,0,20180106040000,-1,-1,-1,-1,320,-1,15,-1,25,-1,-1,,9999,0,0,1,FEW 30,1,10,-1,2,1014,RJOS 060400Z 32015G25KT 9999 FEW030 10/M02 Q1014 RMK 1CU030     A2995=,
20180106_050000.000,0,RJOS,,,,0,20180106050000,-1,-1,-1,-1,340,-1,15,-1,25,-1,-1,,9999,0,0,1,FEW 30,1,10,-1,2,1014,RJOS 060500Z 34015G25KT 9999 FEW030 10/M02 Q1014 RMK 1CU030     A2996=,
20180106_050000.003,0,RJOS,,,,0,20180106050000,-1,-1,-1,-1,340,-1,15,-1,25,-1,-1,,9999,0,0,1,FEW 30,1,10,-1,2,1014,RJOS 060500Z 34015G25KT 9999 FEW030 10/M02 Q1014 RMK 1CU030     A2996=,
20180106_060000.000,0,RJOS,,,,0,20180106060000,-1,-1,-1,-1,330,-1,15,-1,-1,-1,-1,,9999,0,0,2,FEW 30   SCT 50,1,10,-1,1,1015,RJOS 060600Z 33015KT 9999 FEW030 SCT050 10/M01 Q1015 RMK 1CU030     3SC050 A2997=,
20180106_060000.003,0,RJOS,,,,0,20180106060000,-1,-1,-1,-1,330,-1,15,-1,-1,-1,-1,,9999,0,0,2,FEW 30   SCT 50,1,10,-1,1,1015,RJOS 060600Z 33015KT 9999 FEW030 SCT050 10/M01 Q1015 RMK     1CU030 3SC050 A2997=,
20180106_070000.000,0,RJOS,,,,0,20180106070000,-1,-1,-1,-1,330,-1,17,-1,-1,-1,-1,,9999,0,0,2,FEW 30   SCT 50,1,9,-1,1,1015,RJOS 060700Z 33017KT 9999 FEW030 SCT050 09/M01 Q1015 RMK 1CU030     3SC050 A2999=,
20180106_070000.003,0,RJOS,,,,0,20180106070000,-1,-1,-1,-1,330,-1,17,-1,-1,-1,-1,,9999,0,0,2,FEW 30   SCT 50,1,9,-1,1,1015,RJOS 060700Z 33017KT 9999 FEW030 SCT050 09/M01 Q1015 RMK     1CU030 3SC050 A2999=,
20180106_080000.000,0,RJOS,,,,0,20180106080000,-1,-1,-1,-1,310,-1,11,-1,-1,-1,-1,,9999,0,0,1,FEW 30,1,9,-1,1,1016,RJOS 060800Z 31011KT 9999 FEW030 09/M01 Q1016 RMK 1CU030 A3001=,
20180106_080000.003,0,RJOS,,,,0,20180106080000,-1,-1,-1,-1,310,-1,11,-1,-1,-1,-1,,9999,0,0,1,FEW 30,1,9,-1,1,1016,RJOS 060800Z 31011KT 9999 FEW030 09/M01 Q1016 RMK 1CU030     A3001=,
20180106_090000.000,0,RJOS,,,,0,20180106090000,-1,-1,-1,-1,320,-1,10,-1,-1,-1,-1,,9999,0,0,2,FEW 30   SCT 70,1,8,-1,1,1016,RJOS 060900Z 32010KT 9999 FEW030 SCT070 08/M01 Q1016 RMK 1CU030     3AC070 A3002=,
20180106_090000.003,0,RJOS,,,,0,20180106090000,-1,-1,-1,-1,320,-1,10,-1,-1,-1,-1,,9999,0,0,2,FEW 30   SCT 70,1,8,-1,1,1016,RJOS 060900Z 32010KT 9999 FEW030 SCT070 08/M01 Q1016 RMK     1CU030 3AC070 A3002=,
20180106_100000.000,0,RJOS,,,,0,20180106100000,-1,-1,-1,-1,340,-1,8,-1,-1,-1,-1,,9999,0,0,2,FEW 30   BKN 60,1,8,-1,0,1017,RJOS 061000Z 34008KT 9999 FEW030 BKN060 08/M00 Q1017 RMK 1CU030     5SC060 A3005=,
20180106_100000.003,0,RJOS,,,,0,20180106100000,-1,-1,-1,-1,340,-1,8,-1,-1,-1,-1,,9999,0,0,2,FEW 30   BKN 60,1,8,-1,0,1017,RJOS 061000Z 34008KT 9999 FEW030 BKN060 08/M00 Q1017 RMK     1CU030 5SC060 A3005=,
20180106_110000.000,0,RJOS,,,,0,20180106110000,-1,-1,-1,-1,340,-1,10,-1,-1,-1,-1,,9999,0,0,2,FEW 30   BKN 60,1,8,-1,1,1019,RJOS 061100Z 34010KT 9999 FEW030 BKN060 08/M01 Q1019 RMK 1CU030     6SC060 A3010=,
20180106_110000.003,0,RJOS,,,,0,20180106110000,-1,-1,-1,-1,340,-1,10,-1,-1,-1,-1,,9999,0,0,2,FEW 30   BKN 60,1,8,-1,1,1019,RJOS 061100Z 34010KT 9999 FEW030 BKN060 08/M01 Q1019 RMK     1CU030 6SC060 A3010=,
20180106_120000.000,0,RJOS,,,,0,20180106120000,-1,-1,-1,-1,350,-1,11,-1,-1,-1,-1,,9999,0,0,2,FEW 30   SCT 60,1,7,-1,1,1020,RJOS 061200Z 35011KT 9999 FEW030 SCT060 07/M01 Q1020 RMK 1CU030     4SC060 A3012=,
20180106_120000.003,0,RJOS,,,,0,20180106120000,-1,-1,-1,-1,350,-1,11,-1,-1,-1,-1,,9999,0,0,2,FEW 30   SCT 60,1,7,-1,1,1020,RJOS 061200Z 35011KT 9999 FEW030 SCT060 07/M01 Q1020 RMK     1CU030 4SC060 A3012=,
20180106_130000.000,0,RJOS,,,,0,20180106130000,-1,-1,-1,-1,350,-1,10,-1,-1,-1,-1,,9999,0,0,2,FEW 30   BKN 60,1,7,-1,0,1020,RJOS 061300Z 35010KT 9999 FEW030 BKN060 07/M00 Q1020 RMK 1CU030     6SC060 A3014=,
20180106_130000.005,0,RJOS,,,,0,20180106130000,-1,-1,-1,-1,350,-1,10,-1,-1,-1,-1,,9999,0,0,2,FEW 30   BKN 60,1,7,-1,0,1020,RJOS 061300Z 35010KT 9999 FEW030 BKN060 07/M00 Q1020 RMK     1CU030 6SC060 A3014=,
20180106_140000.000,0,RJOS,,,,0,20180106140000,-1,-1,-1,-1,340,-1,9,-1,-1,-1,-1,,9999,0,0,2,FEW 30   BKN 60,1,7,-1,0,1020,RJOS 061400Z 34009KT 9999 FEW030 BKN060 07/M00 Q1020 RMK 1CU030     5SC060 A3014=,
20180106_140000.004,0,RJOS,,,,0,20180106140000,-1,-1,-1,-1,340,-1,9,-1,-1,-1,-1,,9999,0,0,2,FEW 30   BKN 60,1,7,-1,0,1020,RJOS 061400Z 34009KT 9999 FEW030 BKN060 07/M00 Q1020 RMK     1CU030 5SC060 A3014=,
20180106_150000.000,0,RJOS,,,,0,20180106150000,-1,-1,-1,-1,340,-1,9,-1,-1,-1,-1,,9999,0,0,2,FEW 30   SCT 60,1,6,-1,0,1020,RJOS 061500Z 34009KT 9999 FEW030 SCT060 06/M00 Q1020 RMK 1CU030     3SC060 A3013=,
20180106_150000.003,0,RJOS,,,,0,20180106150000,-1,-1,-1,-1,340,-1,9,-1,-1,-1,-1,,9999,0,0,2,FEW 30   SCT 60,1,6,-1,0,1020,RJOS 061500Z 34009KT 9999 FEW030 SCT060 06/M00 Q1020 RMK     1CU030 3SC060 A3013=,
20180106_160000.000,0,RJOS,,,,0,20180106160000,-1,-1,-1,-1,330,-1,6,-1,-1,300,10,,9999,0,0,2,FEW 25   SCT 60,1,6,-1,0,1020,RJOS 061600Z 33006KT 300V010 9999 FEW025 SCT060 06/M00 Q1020     RMK 2CU025 3SC060 A3014=,
20180106_160000.003,0,RJOS,,,,0,20180106160000,-1,-1,-1,-1,330,-1,6,-1,-1,300,10,,9999,0,0,2,FEW 25   SCT 60,1,6,-1,0,1020,RJOS 061600Z 33006KT 300V010 9999 FEW025 SCT060 06/M00 Q1020     RMK 2CU025 3SC060 A3014=,
20180106_170000.000,0,RJOS,,,,0,20180106170000,-1,-1,-1,-1,10,-1,3,-1,-1,280,80,,9999,0,0,2,SCT 25   BKN 60,1,5,-1,0,1021,RJOS 061700Z 01003KT 280V080 9999 SCT025 BKN060 05/M00 Q1021     RMK 3CU025 6SC060 A3016=,
20180106_170000.003,0,RJOS,,,,0,20180106170000,-1,-1,-1,-1,10,-1,3,-1,-1,280,80,,9999,0,0,2,SCT 25   BKN 60,1,5,-1,0,1021,RJOS 061700Z 01003KT 280V080 9999 SCT025 BKN060 05/M00 Q1021     RMK 3CU025 6SC060 A3016=,
20180106_180000.000,0,RJOS,,,,0,20180106180000,-1,-1,-1,-1,300,-1,3,-1,-1,-1,-1,,9999,0,0,2,FEW 12   BKN 25,1,5,1,0,1021,RJOS 061800Z 30003KT 9999 FEW012 BKN025 05/00 Q1021 RMK 1CU012     6CU025 A3017=,
20180106_180000.004,0,RJOS,,,,0,20180106180000,-1,-1,-1,-1,300,-1,3,-1,-1,-1,-1,,9999,0,0,2,FEW 12   BKN 25,1,5,1,0,1021,RJOS 061800Z 30003KT 9999 FEW012 BKN025 05/00 Q1021 RMK 1CU012     6CU025 A3017=,
20180106_190000.000,0,RJOS,,,,0,20180106190000,-1,-1,-1,-1,310,-1,5,-1,-1,-1,-1,,9999,0,0,2,FEW 12   BKN 35,1,4,-1,0,1021,RJOS 061900Z 31005KT 9999 FEW012 BKN035 04/M00 Q1021 RMK 1CU012     6CU035 A3017=,
20180106_190000.003,0,RJOS,,,,0,20180106190000,-1,-1,-1,-1,310,-1,5,-1,-1,-1,-1,,9999,0,0,2,FEW 12   BKN 35,1,4,-1,0,1021,RJOS 061900Z 31005KT 9999 FEW012 BKN035 04/M00 Q1021 RMK     1CU012 6CU035 A3017=,
20180106_200000.000,0,RJOS,,,,0,20180106200000,-1,-1,-1,-1,310,-1,4,-1,-1,-1,-1,,9999,0,1,2,FEW 12   BKN 35,1,4,1,0,1022,RJOS 062000Z 31004KT 9999 -SHRA FEW012 BKN035 04/00 Q1022 RMK     1CU012 7CU035 A3018=,- RA SH
20180106_200000.003,0,RJOS,,,,0,20180106200000,-1,-1,-1,-1,310,-1,4,-1,-1,-1,-1,,9999,0,1,2,FEW 12   BKN 35,1,4,1,0,1022,RJOS 062000Z 31004KT 9999 -SHRA FEW012 BKN035 04/00 Q1022 RMK     1CU012 7CU035 A3018=,- RA SH
20180106_210000.000,0,RJOS,,,,0,20180106210000,-1,-1,-1,-1,300,-1,5,-1,-1,-1,-1,,9999,0,1,2,SCT 25   BKN 35,1,3,1,1,1022,RJOS 062100Z 30005KT 9999 -SHRA SCT025 BKN035 03/01 Q1022 RMK     4CU025 7CU035 A3020=,- RA SH
20180106_210000.003,0,RJOS,,,,0,20180106210000,-1,-1,-1,-1,300,-1,5,-1,-1,-1,-1,,9999,0,1,2,SCT 25   BKN 35,1,3,1,1,1022,RJOS 062100Z 30005KT 9999 -SHRA SCT025 BKN035 03/01 Q1022 RMK     4CU025 7CU035 A3020=,- RA SH
20180106_220000.000,0,RJOS,,,,0,20180106220000,-1,-1,-1,-1,260,-1,3,-1,-1,-1,-1,,9999,0,0,2,SCT 25   BKN 35,1,4,1,2,1023,RJOS 062200Z 26003KT 9999 SCT025 BKN035 04/02 Q1023 RMK 3CU025     7CU035 A3021=,
20180106_220000.003,0,RJOS,,,,0,20180106220000,-1,-1,-1,-1,260,-1,3,-1,-1,-1,-1,,9999,0,0,2,SCT 25   BKN 35,1,4,1,2,1023,RJOS 062200Z 26003KT 9999 SCT025 BKN035 04/02 Q1023 RMK 3CU025     7CU035 A3021=,
20180106_230000.000,0,RJOS,,,,0,20180106230000,-1,-1,-1,-1,290,-1,5,-1,-1,-1,-1,,9999,0,0,3,FEW 20   BKN 30   BKN -9999,1,3,1,1,1023,RJOS 062300Z 29005KT 9999 FEW020 BKN030 BKN/// 03/01 Q1023 RMK     1CU020 5CU030 A3022=,
20180106_230000.003,0,RJOS,,,,0,20180106230000,-1,-1,-1,-1,290,-1,5,-1,-1,-1,-1,,9999,0,0,3,FEW 20   BKN 30   BKN -9999,1,3,1,1,1023,RJOS 062300Z 29005KT 9999 FEW020 BKN030 BKN/// 03/01 Q1023 RMK     1CU020 5CU030 A3022=,
20180107_000000.000,0,RJOS,,,,0,20180107000000,-1,-1,-1,-1,300,-1,6,-1,-1,-1,-1,,9999,0,0,2,FEW 20   BKN 35,1,4,1,1,1024,RJOS 070000Z 30006KT 9999 FEW020 BKN035 04/01 Q1024 RMK 1CU020     6CU035 A3026=,
20180107_000000.003,0,RJOS,,,,0,20180107000000,-1,-1,-1,-1,300,-1,6,-1,-1,-1,-1,,9999,0,0,2,FEW 20   BKN 35,1,4,1,1,1024,RJOS 070000Z 30006KT 9999 FEW020 BKN035 04/01 Q1024 RMK 1CU020     6CU035 A3026=,
20180107_010000.000,0,RJOS,,,,0,20180107010000,-1,-1,-1,-1,340,-1,5,-1,-1,310,10,,9999,0,0,3,FEW 20   SCT 35   BKN 50,1,6,1,2,1024,RJOS 070100Z 34005KT 310V010 9999 FEW020 SCT035 BKN050 06/02     Q1024 RMK 1CU020 3CU035 6SC050 A3025=,
20180107_010000.004,0,RJOS,,,,0,20180107010000,-1,-1,-1,-1,340,-1,5,-1,-1,310,10,,9999,0,0,3,FEW 20   SCT 35   BKN 50,1,6,1,2,1024,RJOS 070100Z 34005KT 310V010 9999 FEW020 SCT035 BKN050 06/02     Q1024 RMK 1CU020 3CU035 6SC050 A3025=,
20180107_020000.000,0,RJOS,,,,0,20180107020000,-1,-1,-1,-1,40,-1,4,-1,-1,340,80,,9999,0,0,3,FEW 20   SCT 35   BKN 50,1,7,1,1,1024,RJOS 070200Z 04004KT 340V080 9999 FEW020 SCT035 BKN050 07/01     Q1024 RMK 1CU020 4CU035 6SC050 A3025=,
20180107_020000.003,0,RJOS,,,,0,20180107020000,-1,-1,-1,-1,40,-1,4,-1,-1,340,80,,9999,0,0,3,FEW 20   SCT 35   BKN 50,1,7,1,1,1024,RJOS 070200Z 04004KT 340V080 9999 FEW020 SCT035 BKN050 07/01     Q1024 RMK 1CU020 4CU035 6SC050 A3025=,
20180107_030000.000,0,RJOS,,,,0,20180107030000,-1,-1,-1,-1,40,-1,9,-1,-1,-1,-1,,9999,0,0,3,FEW 35   SCT 50   BKN -9999,1,8,-1,1,1023,RJOS 070300Z 04009KT 9999 FEW035 SCT050 BKN/// 08/M01 Q1023 RMK     2CU035 4SC050 A3021=,
20180107_030000.003,0,RJOS,,,,0,20180107030000,-1,-1,-1,-1,40,-1,9,-1,-1,-1,-1,,9999,0,0,3,FEW 35   SCT 50   BKN -9999,1,8,-1,1,1023,RJOS 070300Z 04009KT 9999 FEW035 SCT050 BKN/// 08/M01 Q1023     RMK 2CU035 4SC050 A3021=,
20180107_040000.000,0,RJOS,,,,0,20180107040000,-1,-1,-1,-1,30,-1,9,-1,-1,360,60,,9999,0,0,2,FEW 35   BKN -9999,1,9,-1,3,1022,RJOS 070400Z 03009KT 360V060 9999 FEW035 BKN/// 09/M03 Q1022     RMK 1CU035 A3019=,
20180107_040000.003,0,RJOS,,,,0,20180107040000,-1,-1,-1,-1,30,-1,9,-1,-1,360,60,,9999,0,0,2,FEW 35   BKN -9999,1,9,-1,3,1022,RJOS 070400Z 03009KT 360V060 9999 FEW035 BKN/// 09/M03 Q1022     RMK 1CU035 A3019=,
20180107_050000.000,0,RJOS,,,,0,20180107050000,-1,-1,-1,-1,30,-1,10,-1,-1,-1,-1,,9999,0,0,3,FEW 30   SCT 150   BKN -9999,1,8,-1,4,1021,RJOS 070500Z 03010KT 9999 FEW030 SCT150 BKN/// 08/M04 Q1021 RMK     1CU030 4AC150 A3017=,
20180107_050000.003,0,RJOS,,,,0,20180107050000,-1,-1,-1,-1,30,-1,10,-1,-1,-1,-1,,9999,0,0,3,FEW 30   SCT 150   BKN -9999,1,8,-1,4,1021,RJOS 070500Z 03010KT 9999 FEW030 SCT150 BKN/// 08/M04 Q1021     RMK 1CU030 4AC150 A3017=,
20180107_060000.000,0,RJOS,,,,0,20180107060000,-1,-1,-1,-1,10,-1,10,-1,-1,340,40,,9999,0,0,3,FEW 30   SCT 150   BKN -9999,1,8,-1,3,1021,RJOS 070600Z 01010KT 340V040 9999 FEW030 SCT150 BKN/// 08/M03     Q1021 RMK 1CU030 4AC150 A3018=,
20180107_060000.003,0,RJOS,,,,0,20180107060000,-1,-1,-1,-1,10,-1,10,-1,-1,340,40,,9999,0,0,3,FEW 30   SCT 150   BKN -9999,1,8,-1,3,1021,RJOS 070600Z 01010KT 340V040 9999 FEW030 SCT150 BKN/// 08/M03     Q1021 RMK 1CU030 4AC150 A3018=,
20180107_070000.000,0,RJOS,,,,0,20180107070000,-1,-1,-1,-1,10,-1,9,-1,-1,-1,-1,,9999,0,0,3,FEW 30   SCT 60   BKN 150,1,8,-1,2,1022,RJOS 070700Z 01009KT 9999 FEW030 SCT060 BKN150 08/M02 Q1022 RMK     1CU030 3SC060 6AC150 A3020=,
20180107_070000.003,0,RJOS,,,,0,20180107070000,-1,-1,-1,-1,10,-1,9,-1,-1,-1,-1,,9999,0,0,3,FEW 30   SCT 60   BKN 150,1,8,-1,2,1022,RJOS 070700Z 01009KT 9999 FEW030 SCT060 BKN150 08/M02 Q1022     RMK 1CU030 3SC060 6AC150 A3020=,
20180107_080000.000,0,RJOS,,,,0,20180107080000,-1,-1,-1,-1,20,-1,5,-1,-1,-1,-1,,9999,0,0,2,FEW 30   BKN 150,1,8,-1,2,1022,RJOS 070800Z 02005KT 9999 FEW030 BKN150 08/M02 Q1022 RMK 1CU030     7AC150 A3020=,
20180107_080000.003,0,RJOS,,,,0,20180107080000,-1,-1,-1,-1,20,-1,5,-1,-1,-1,-1,,9999,0,0,2,FEW 30   BKN 150,1,8,-1,2,1022,RJOS 070800Z 02005KT 9999 FEW030 BKN150 08/M02 Q1022 RMK     1CU030 7AC150 A3020=,
20180107_090000.000,0,RJOS,,,,0,20180107090000,-1,-1,-1,-1,40,-1,4,-1,-1,10,80,,9999,0,0,2,FEW 30   BKN 150,1,7,-1,2,1022,RJOS 070900Z 04004KT 010V080 9999 FEW030 BKN150 07/M02 Q1022     RMK 1CU030 7AC150 A3019=,
20180107_090000.003,0,RJOS,,,,0,20180107090000,-1,-1,-1,-1,40,-1,4,-1,-1,10,80,,9999,0,0,2,FEW 30   BKN 150,1,7,-1,2,1022,RJOS 070900Z 04004KT 010V080 9999 FEW030 BKN150 07/M02 Q1022     RMK 1CU030 7AC150 A3019=,
20180107_100000.000,0,RJOS,,,,0,20180107100000,-1,-1,-1,-1,70,-1,4,-1,-1,-1,-1,,9999,0,0,2,FEW 30   BKN 150,1,7,-1,1,1022,RJOS 071000Z 07004KT 9999 FEW030 BKN150 07/M01 Q1022 RMK 1CU030     7AC150 A3019=,
20180107_100000.003,0,RJOS,,,,0,20180107100000,-1,-1,-1,-1,70,-1,4,-1,-1,-1,-1,,9999,0,0,2,FEW 30   BKN 150,1,7,-1,1,1022,RJOS 071000Z 07004KT 9999 FEW030 BKN150 07/M01 Q1022 RMK     1CU030 7AC150 A3019=,
20180107_110000.000,0,RJOS,,,,0,20180107110000,-1,-1,-1,-1,310,-1,4,-1,-1,-1,-1,,9999,0,0,2,FEW 30   BKN 150,1,7,-1,0,1023,RJOS 071100Z 31004KT 9999 FEW030 BKN150 07/M00 Q1023 RMK 1CU030     7AC150 A3022=,
20180107_110000.003,0,RJOS,,,,0,20180107110000,-1,-1,-1,-1,310,-1,4,-1,-1,-1,-1,,9999,0,0,2,FEW 30   BKN 150,1,7,-1,0,1023,RJOS 071100Z 31004KT 9999 FEW030 BKN150 07/M00 Q1023 RMK     1CU030 7AC150 A3022=,
20180107_120000.000,0,RJOS,,,,0,20180107120000,-1,-1,-1,-1,290,-1,4,-1,-1,-1,-1,,9999,0,0,3,FEW 20   SCT 100   BKN 150,1,6,-1,0,1022,RJOS 071200Z 29004KT 9999 FEW020 SCT100 BKN150 06/M00 Q1022 RMK     1CU020 3AC100 7AC150 A3019=,
20180107_120000.004,0,RJOS,,,,0,20180107120000,-1,-1,-1,-1,290,-1,4,-1,-1,-1,-1,,9999,0,0,3,FEW 20   SCT 100   BKN 150,1,6,-1,0,1022,RJOS 071200Z 29004KT 9999 FEW020 SCT100 BKN150 06/M00 Q1022     RMK 1CU020 3AC100 7AC150 A3019=,
20180107_130000.000,0,RJOS,,,,0,20180107130000,-1,-1,-1,-1,270,-1,3,-1,-1,210,320,,9999,0,0,2,FEW 20   BKN 100,1,6,1,0,1021,RJOS 071300Z 27003KT 210V320 9999 FEW020 BKN100 06/00 Q1021 RMK     1CU020 7AC100 A3017=,
20180107_130000.004,0,RJOS,,,,0,20180107130000,-1,-1,-1,-1,270,-1,3,-1,-1,210,320,,9999,0,0,2,FEW 20   BKN 100,1,6,1,0,1021,RJOS 071300Z 27003KT 210V320 9999 FEW020 BKN100 06/00 Q1021     RMK 1CU020 7AC100 A3017=,
20180107_140000.000,0,RJOS,,,,0,20180107140000,-1,-1,-1,-1,300,-1,4,-1,-1,-1,-1,,9999,0,0,2,FEW 20   BKN 100,1,6,1,0,1021,RJOS 071400Z 30004KT 9999 FEW020 BKN100 06/00 Q1021 RMK 1CU020     7AC100 A3015=,
20180107_140000.004,0,RJOS,,,,0,20180107140000,-1,-1,-1,-1,300,-1,4,-1,-1,-1,-1,,9999,0,0,2,FEW 20   BKN 100,1,6,1,0,1021,RJOS 071400Z 30004KT 9999 FEW020 BKN100 06/00 Q1021 RMK 1CU020     7AC100 A3015=,
20180107_150000.000,0,RJOS,,,,0,20180107150000,-1,-1,-1,-1,999,-1,2,-1,-1,-1,-1,,9999,0,0,2,FEW 20   BKN 100,1,6,1,0,1020,RJOS 071500Z VRB02KT 9999 FEW020 BKN100 06/00 Q1020 RMK 1CU020     7AC100 A3012=,
20180107_150000.003,0,RJOS,,,,0,20180107150000,-1,-1,-1,-1,999,-1,2,-1,-1,-1,-1,,9999,0,0,2,FEW 20   BKN 100,1,6,1,0,1020,RJOS 071500Z VRB02KT 9999 FEW020 BKN100 06/00 Q1020 RMK 1CU020     7AC100 A3012=,
20180107_160000.000,0,RJOS,,,,0,20180107160000,-1,-1,-1,-1,170,-1,8,-1,-1,-1,-1,,9999,0,0,3,FEW 20   SCT 80   BKN 100,1,6,1,1,1019,RJOS 071600Z 17008KT 9999 FEW020 SCT080 BKN100 06/01 Q1019 RMK     1CU020 4AC080 7AC100 A3012=,
20180107_160000.003,0,RJOS,,,,0,20180107160000,-1,-1,-1,-1,170,-1,8,-1,-1,-1,-1,,9999,0,0,3,FEW 20   SCT 80   BKN 100,1,6,1,1,1019,RJOS 071600Z 17008KT 9999 FEW020 SCT080 BKN100 06/01 Q1019 RMK     1CU020 4AC080 7AC100 A3012=,
20180107_170000.000,0,RJOS,,,,0,20180107170000,-1,-1,-1,-1,180,-1,8,-1,-1,150,210,,9999,0,1,3,FEW 20   SCT 60   OVC 80,1,7,1,2,1019,RJOS 071700Z 18008KT 150V210 9999 -RA FEW020 SCT060 OVC080     07/02 Q1019 RMK 1CU020 4SC060 8AS080 A3011=,- RA
20180107_170000.003,0,RJOS,,,,0,20180107170000,-1,-1,-1,-1,180,-1,8,-1,-1,150,210,,9999,0,1,3,FEW 20   SCT 60   OVC 80,1,7,1,2,1019,RJOS 071700Z 18008KT 150V210 9999 -RA FEW020 SCT060 OVC080     07/02 Q1019 RMK 1CU020 4SC060 8AS080 A3011=,- RA
20180107_180000.000,0,RJOS,,,,0,20180107180000,-1,-1,-1,-1,170,-1,11,-1,-1,-1,-1,,9999,0,0,3,FEW 20   BKN 60   OVC 80,1,7,1,4,1018,RJOS 071800Z 17011KT 9999 FEW020 BKN060 OVC080 07/04 Q1018 RMK     1CU020 6SC060 8AS080 A3008=,
20180107_180000.003,0,RJOS,,,,0,20180107180000,-1,-1,-1,-1,170,-1,11,-1,-1,-1,-1,,9999,0,0,3,FEW 20   BKN 60   OVC 80,1,7,1,4,1018,RJOS 071800Z 17011KT 9999 FEW020 BKN060 OVC080 07/04 Q1018 RMK     1CU020 6SC060 8AS080 A3008=,
20180107_190000.000,0,RJOS,,,,0,20180107190000,-1,-1,-1,-1,200,-1,11,-1,-1,170,250,,9999,0,1,3,FEW 15   BKN 40   OVC 60,1,8,1,5,1018,RJOS 071900Z 20011KT 170V250 9999 -SHRA FEW015 BKN040 OVC060     08/05 Q1018 RMK 2CU015 6CU040 8SC060 A3007=,- RA SH
20180107_190000.004,0,RJOS,,,,0,20180107190000,-1,-1,-1,-1,200,-1,11,-1,-1,170,250,,9999,0,1,3,FEW 15   BKN 40   OVC 60,1,8,1,5,1018,RJOS 071900Z 20011KT 170V250 9999 -SHRA FEW015 BKN040 OVC060     08/05 Q1018 RMK 2CU015 6CU040 8SC060 A3007=,- RA SH
20180107_200000.000,0,RJOS,,,,0,20180107200000,-1,-1,-1,-1,180,-1,8,-1,-1,-1,-1,,9999,0,1,3,FEW 15   BKN 30   OVC 50,1,8,1,6,1017,RJOS 072000Z 18008KT 9999 -SHRA FEW015 BKN030 OVC050 08/06     Q1017 RMK 2CU015 5CU030 8SC050 A3003=,- RA SH
20180107_200000.003,0,RJOS,,,,0,20180107200000,-1,-1,-1,-1,180,-1,8,-1,-1,-1,-1,,9999,0,1,3,FEW 15   BKN 30   OVC 50,1,8,1,6,1017,RJOS 072000Z 18008KT 9999 -SHRA FEW015 BKN030 OVC050 08/06     Q1017 RMK 2CU015 5CU030 8SC050 A3003=,- RA SH
20180107_210000.000,0,RJOS,,,,0,20180107210000,-1,-1,-1,-1,150,-1,6,-1,-1,120,190,,8000,0,1,3,FEW 8   SCT 15   OVC 25,1,8,1,7,1016,RJOS 072100Z 15006KT 120V190 8000 -SHRA FEW008 SCT015 OVC025     08/07 Q1016 RMK 1ST008 3CU015 8CU025 A3002=,- RA SH
20180107_210000.004,0,RJOS,,,,0,20180107210000,-1,-1,-1,-1,150,-1,6,-1,-1,120,190,,8000,0,1,3,FEW 8   SCT 15   OVC 25,1,8,1,7,1016,RJOS 072100Z 15006KT 120V190 8000 -SHRA FEW008 SCT015 OVC025     08/07 Q1016 RMK 1ST008 3CU015 8CU025 A3002=,- RA SH
20180107_220000.000,0,RJOS,,,,0,20180107220000,-1,-1,-1,-1,180,-1,7,-1,-1,-1,-1,,7000,0,1,3,FEW 6   BKN 15   OVC 25,1,8,1,7,1016,RJOS 072200Z 18007KT 7000 -SHRA FEW006 BKN015 OVC025 08/07     Q1016 RMK 2ST006 5CU015 8CU025 A3001=,- RA SH
20180107_220000.003,0,RJOS,,,,0,20180107220000,-1,-1,-1,-1,180,-1,7,-1,-1,-1,-1,,7000,0,1,3,FEW 6   BKN 15   OVC 25,1,8,1,7,1016,RJOS 072200Z 18007KT 7000 -SHRA FEW006 BKN015 OVC025 08/07     Q1016 RMK 2ST006 5CU015 8CU025 A3001=,- RA SH
20180107_230000.000,0,RJOS,,,,0,20180107230000,-1,-1,-1,-1,110,-1,10,-1,-1,-1,-1,,9999,0,1,3,FEW 6   BKN 15   BKN 25,1,9,1,7,1016,RJOS 072300Z 11010KT 9999 -SHRA FEW006 BKN015 BKN025 09/07     Q1016 RMK 2ST006 5CU015 7CU025 A3001=,- RA SH
20180107_230000.003,0,RJOS,,,,0,20180107230000,-1,-1,-1,-1,110,-1,10,-1,-1,-1,-1,,9999,0,1,3,FEW 6   BKN 15   BKN 25,1,9,1,7,1016,RJOS 072300Z 11010KT 9999 -SHRA FEW006 BKN015 BKN025 09/07     Q1016 RMK 2ST006 5CU015 7CU025 A3001=,- RA SH
20180108_000000.000,0,RJOS,,,,0,20180108000000,-1,-1,-1,-1,110,-1,12,-1,-1,-1,-1,,9999,0,0,2,FEW 12   BKN 25,1,9,1,7,1014,RJOS 080000Z 11012KT 9999 FEW012 BKN025 09/07 Q1014 RMK 2CU012     7CU025 A2997=,
20180108_000000.003,0,RJOS,,,,0,20180108000000,-1,-1,-1,-1,110,-1,12,-1,-1,-1,-1,,9999,0,0,2,FEW 12   BKN 25,1,9,1,7,1014,RJOS 080000Z 11012KT 9999 FEW012 BKN025 09/07 Q1014 RMK 2CU012     7CU025 A2997=,
20180108_010000.000,0,RJOS,,,,0,20180108010000,-1,-1,-1,-1,160,-1,17,-1,27,-1,-1,,9999,0,0,2,FEW 12   BKN 25,1,11,1,9,1012,RJOS 080100Z 16017G27KT 9999 FEW012 BKN025 11/09 Q1012 RMK     2CU012 7CU025 A2991=,
20180108_010000.003,0,RJOS,,,,0,20180108010000,-1,-1,-1,-1,160,-1,17,-1,27,-1,-1,,9999,0,0,2,FEW 12   BKN 25,1,11,1,9,1012,RJOS 080100Z 16017G27KT 9999 FEW012 BKN025 11/09 Q1012 RMK     2CU012 7CU025 A2991=,
20180108_020000.000,0,RJOS,,,,0,20180108020000,-1,-1,-1,-1,160,-1,14,-1,-1,-1,-1,,4500,0,2,3,FEW 8   SCT 12   BKN 20,1,11,1,10,1011,RJOS 080200Z 16014KT 4500 -SHRA BR FEW008 SCT012 BKN020 11/10     Q1011 RMK 2ST008 4CU012 7CU020 A2988=,- RA SH; BR
20180108_020000.004,0,RJOS,,,,0,20180108020000,-1,-1,-1,-1,160,-1,14,-1,-1,-1,-1,,4500,0,2,3,FEW 8   SCT 12   BKN 20,1,11,1,10,1011,RJOS 080200Z 16014KT 4500 -SHRA BR FEW008 SCT012 BKN020 11/10     Q1011 RMK 2ST008 4CU012 7CU020 A2988=,- RA SH; BR
20180108_030000.000,0,RJOS,,,,0,20180108030000,-1,-1,-1,-1,190,-1,7,-1,-1,-1,-1,,2500,0,2,3,SCT 8   BKN 12   OVC 20,1,11,1,11,1010,RJOS 080300Z 19007KT 2500 -SHRA BR SCT008 BKN012 OVC020 11/11     Q1010 RMK 3ST008 6CU012 8CU020 A2984=,- RA SH; BR
20180108_030000.003,0,RJOS,,,,0,20180108030000,-1,-1,-1,-1,190,-1,7,-1,-1,-1,-1,,2500,0,2,3,SCT 8   BKN 12   OVC 20,1,11,1,11,1010,RJOS 080300Z 19007KT 2500 -SHRA BR SCT008 BKN012 OVC020 11/11     Q1010 RMK 3ST008 6CU012 8CU020 A2984=,- RA SH; BR
20180108_040000.000,0,RJOS,,,,0,20180108040000,-1,-1,-1,-1,190,-1,9,-1,-1,-1,-1,,4500,0,2,3,FEW 8   BKN 12   OVC 20,1,12,1,11,1008,RJOS 080400Z 19009KT 4500 -SHRA BR FEW008 BKN012 OVC020 12/11     Q1008 RMK 2ST008 5CU012 8CU020 A2978=,- RA SH; BR
20180108_040000.003,0,RJOS,,,,0,20180108040000,-1,-1,-1,-1,190,-1,9,-1,-1,-1,-1,,4500,0,2,3,FEW 8   BKN 12   OVC 20,1,12,1,11,1008,RJOS 080400Z 19009KT 4500 -SHRA BR FEW008 BKN012 OVC020 12/11     Q1008 RMK 2ST008 5CU012 8CU020 A2978=,- RA SH; BR
20180108_050000.000,0,RJOS,,,,0,20180108050000,-1,-1,-1,-1,180,-1,11,-1,-1,-1,-1,,8000,0,1,3,FEW 8   SCT 12   BKN 20,1,12,1,12,1006,RJOS 080500Z 18011KT 8000 -SHRA FEW008 SCT012 BKN020 12/12     Q1006 RMK 1ST008 3CU012 7CU020 A2973=,- RA SH
20180108_050000.003,0,RJOS,,,,0,20180108050000,-1,-1,-1,-1,180,-1,11,-1,-1,-1,-1,,8000,0,1,3,FEW 8   SCT 12   BKN 20,1,12,1,12,1006,RJOS 080500Z 18011KT 8000 -SHRA FEW008 SCT012 BKN020 12/12     Q1006 RMK 1ST008 3CU012 7CU020 A2973=,- RA SH
20180108_060000.000,0,RJOS,,,,0,20180108060000,-1,-1,-1,-1,999,-1,2,-1,-1,-1,-1,,9999,0,0,3,FEW 8   SCT 12   BKN 20,1,12,1,12,1005,RJOS 080600Z VRB02KT 9999 FEW008 SCT012 BKN020 12/12 Q1005 RMK     1ST008 3CU012 7CU020 A2970=,
20180108_060000.004,0,RJOS,,,,0,20180108060000,-1,-1,-1,-1,999,-1,2,-1,-1,-1,-1,,9999,0,0,3,FEW 8   SCT 12   BKN 20,1,12,1,12,1005,RJOS 080600Z VRB02KT 9999 FEW008 SCT012 BKN020 12/12 Q1005 RMK     1ST008 3CU012 7CU020 A2970=,
20180108_070000.000,0,RJOS,,,,0,20180108070000,-1,-1,-1,-1,40,-1,6,-1,-1,-1,-1,,8000,0,0,3,FEW 4   BKN 8   BKN 12,1,11,1,11,1006,RJOS 080700Z 04006KT 8000 FEW004 BKN008 BKN012 11/11 Q1006 RMK     2ST004 5ST008 7CU012 A2972=,
20180108_070000.003,0,RJOS,,,,0,20180108070000,-1,-1,-1,-1,40,-1,6,-1,-1,-1,-1,,8000,0,0,3,FEW 4   BKN 8   BKN 12,1,11,1,11,1006,RJOS 080700Z 04006KT 8000 FEW004 BKN008 BKN012 11/11 Q1006 RMK     2ST004 5ST008 7CU012 A2972=,
20180108_080000.000,0,RJOS,,,,0,20180108080000,-1,-1,-1,-1,300,-1,4,-1,-1,-1,-1,,2500,0,2,2,SCT 4   OVC 8,1,11,1,10,1005,RJOS 080800Z 30004KT 2500 -SHRA BR SCT004 OVC008 11/10 Q1005     RMK 3ST004 8ST008 A2970=,- RA SH; BR
20180108_080000.003,0,RJOS,,,,0,20180108080000,-1,-1,-1,-1,300,-1,4,-1,-1,-1,-1,,2500,0,2,2,SCT 4   OVC 8,1,11,1,10,1005,RJOS 080800Z 30004KT 2500 -SHRA BR SCT004 OVC008 11/10 Q1005     RMK 3ST004 8ST008 A2970=,- RA SH; BR
20180108_090000.000,0,RJOS,,,,0,20180108090000,-1,-1,-1,-1,40,-1,3,-1,-1,-1,-1,,2000,0,2,2,SCT 3   OVC 8,1,10,1,10,1005,RJOS 080900Z 04003KT 2000 -SHRA BR SCT003 OVC008 10/10 Q1005     RMK 3ST003 8ST008 A2968=,- RA SH; BR
20180108_090000.003,0,RJOS,,,,0,20180108090000,-1,-1,-1,-1,40,-1,3,-1,-1,-1,-1,,2000,0,2,2,SCT 3   OVC 8,1,10,1,10,1005,RJOS 080900Z 04003KT 2000 -SHRA BR SCT003 OVC008 10/10 Q1005     RMK 3ST003 8ST008 A2968=,- RA SH; BR
20180108_100000.000,0,RJOS,,,,0,20180108100000,-1,-1,-1,-1,260,-1,4,-1,-1,-1,-1,,2000,1,2,2,SCT 3   OVC 8,1,10,1,10,1004,RJOS 081000Z 26004KT 2000 R29/1800U -SHRA BR SCT003 OVC008     10/10 Q1004 RMK 4ST003 8ST008 A2966=,- RA SH; BR
20180108_100000.003,0,RJOS,,,,0,20180108100000,-1,-1,-1,-1,260,-1,4,-1,-1,-1,-1,,2000,1,2,2,SCT 3   OVC 8,1,10,1,10,1004,RJOS 081000Z 26004KT 2000 R29/1800U -SHRA BR SCT003 OVC008     10/10 Q1004 RMK 4ST003 8ST008 A2966=,- RA SH; BR
20180108_110000.000,0,RJOS,,,,0,20180108110000,-1,-1,-1,-1,310,-1,5,-1,-1,-1,-1,,3000,0,2,3,SCT 3   BKN 8   OVC 12,1,10,1,10,1004,RJOS 081100Z 31005KT 3000 -SHRA BR SCT003 BKN008 OVC012 10/10     Q1004 RMK 3ST003 6ST008 8CU012 A2967=,- RA SH; BR
20180108_110000.003,0,RJOS,,,,0,20180108110000,-1,-1,-1,-1,310,-1,5,-1,-1,-1,-1,,3000,0,2,3,SCT 3   BKN 8   OVC 12,1,10,1,10,1004,RJOS 081100Z 31005KT 3000 -SHRA BR SCT003 BKN008 OVC012 10/10     Q1004 RMK 3ST003 6ST008 8CU012 A2967=,- RA SH; BR
20180108_120000.000,0,RJOS,,,,0,20180108120000,-1,-1,-1,-1,200,-1,3,-1,-1,150,230,,2000,1,2,2,SCT 3   OVC 8,1,10,1,10,1003,RJOS 081200Z 20003KT 150V230 2000 R29/0600VP1800U -SHRA BR     SCT003 OVC008 10/10 Q1003 RMK 4ST003 8ST008 A2963 R1000=,- RA SH; BR
20180108_120000.003,0,RJOS,,,,0,20180108120000,-1,-1,-1,-1,200,-1,3,-1,-1,150,230,,2000,1,2,2,SCT 3   OVC 8,1,10,1,10,1003,RJOS 081200Z 20003KT 150V230 2000 R29/0600VP1800U -SHRA BR     SCT003 OVC008 10/10 Q1003 RMK 4ST003 8ST008 A2963 R1000=,- RA SH; BR
20180108_130000.000,0,RJOS,,,,0,20180108130000,-1,-1,-1,-1,320,-1,4,-1,-1,-1,-1,,6000,0,0,3,FEW 3   BKN 8   OVC 12,1,10,1,10,1002,RJOS 081300Z 32004KT 6000 FEW003 BKN008 OVC012 10/10 Q1002 RMK     2ST003 5ST008 8CU012 A2962=,
20180108_130000.004,0,RJOS,,,,0,20180108130000,-1,-1,-1,-1,320,-1,4,-1,-1,-1,-1,,6000,0,0,3,FEW 3   BKN 8   OVC 12,1,10,1,10,1002,RJOS 081300Z 32004KT 6000 FEW003 BKN008 OVC012 10/10 Q1002 RMK     2ST003 5ST008 8CU012 A2962=,
20180108_140000.000,0,RJOS,,,,0,20180108140000,-1,-1,-1,-1,270,-1,4,-1,-1,210,290,,8000,0,0,3,FEW 3   BKN 8   OVC 12,1,10,1,10,1001,RJOS 081400Z 27004KT 210V290 8000 FEW003 BKN008 OVC012 10/10     Q1001 RMK 2ST003 5ST008 8CU012 A2957=,
20180108_140000.003,0,RJOS,,,,0,20180108140000,-1,-1,-1,-1,270,-1,4,-1,-1,210,290,,8000,0,0,3,FEW 3   BKN 8   OVC 12,1,10,1,10,1001,RJOS 081400Z 27004KT 210V290 8000 FEW003 BKN008 OVC012 10/10     Q1001 RMK 2ST003 5ST008 8CU012 A2957=,
20180108_150000.000,0,RJOS,,,,0,20180108150000,-1,-1,-1,-1,50,-1,5,-1,-1,-1,-1,,4500,0,2,3,FEW 3   BKN 8   OVC 15,1,10,1,10,1001,RJOS 081500Z 05005KT 4500 -SHRA BR FEW003 BKN008 OVC015 10/10     Q1001 RMK 2ST003 5ST008 8CU015 A2958=,- RA SH; BR
20180108_150000.003,0,RJOS,,,,0,20180108150000,-1,-1,-1,-1,50,-1,5,-1,-1,-1,-1,,4500,0,2,3,FEW 3   BKN 8   OVC 15,1,10,1,10,1001,RJOS 081500Z 05005KT 4500 -SHRA BR FEW003 BKN008 OVC015 10/10     Q1001 RMK 2ST003 5ST008 8CU015 A2958=,- RA SH; BR
20180108_160000.000,0,RJOS,,,,0,20180108160000,-1,-1,-1,-1,310,-1,4,-1,-1,-1,-1,,5000,0,1,3,FEW 8   SCT 15   BKN 30,1,10,1,10,1000,RJOS 081600Z 31004KT 5000 BR FEW008 SCT015 BKN030 10/10 Q1000     RMK 2ST008 3CU015 7CU030 A2955=,BR
20180108_160000.003,0,RJOS,,,,0,20180108160000,-1,-1,-1,-1,310,-1,4,-1,-1,-1,-1,,5000,0,1,3,FEW 8   SCT 15   BKN 30,1,10,1,10,1000,RJOS 081600Z 31004KT 5000 BR FEW008 SCT015 BKN030 10/10 Q1000     RMK 2ST008 3CU015 7CU030 A2955=,BR
20180108_170000.000,0,RJOS,,,,0,20180108170000,-1,-1,-1,-1,999,-1,2,-1,-1,-1,-1,,9999,0,0,3,FEW 15   SCT 30   BKN 80,1,10,1,9,1001,RJOS 081700Z VRB02KT 9999 FEW015 SCT030 BKN080 10/09 Q1001 RMK     1CU015 3CU030 7AC080 A2957=,
20180108_170000.003,0,RJOS,,,,0,20180108170000,-1,-1,-1,-1,999,-1,2,-1,-1,-1,-1,,9999,0,0,3,FEW 15   SCT 30   BKN 80,1,10,1,9,1001,RJOS 081700Z VRB02KT 9999 FEW015 SCT030 BKN080 10/09 Q1001 RMK     1CU015 3CU030 7AC080 A2957=,
20180108_180000.000,0,RJOS,,,,0,20180108180000,-1,-1,-1,-1,290,-1,13,-1,-1,-1,-1,,9999,0,0,3,FEW 15   SCT 30   BKN 80,1,11,1,10,1000,RJOS 081800Z 29013KT 9999 FEW015 SCT030 BKN080 11/10 Q1000 RMK     1CU015 3CU030 7AC080 A2954=,
20180108_180000.003,0,RJOS,,,,0,20180108180000,-1,-1,-1,-1,290,-1,13,-1,-1,-1,-1,,9999,0,0,3,FEW 15   SCT 30   BKN 80,1,11,1,10,1000,RJOS 081800Z 29013KT 9999 FEW015 SCT030 BKN080 11/10 Q1000 RMK     1CU015 3CU030 7AC080 A2954=,
20180108_190000.000,0,RJOS,,,,0,20180108190000,-1,-1,-1,-1,330,-1,16,-1,26,-1,-1,,9999,0,0,3,FEW 20   SCT 40   BKN 80,1,11,1,7,1001,RJOS 081900Z 33016G26KT 9999 FEW020 SCT040 BKN080 11/07 Q1001     RMK 2CU020 4CU040 7AC080 A2957=,
20180108_190000.003,0,RJOS,,,,0,20180108190000,-1,-1,-1,-1,330,-1,16,-1,26,-1,-1,,9999,0,0,3,FEW 20   SCT 40   BKN 80,1,11,1,7,1001,RJOS 081900Z 33016G26KT 9999 FEW020 SCT040 BKN080 11/07 Q1001     RMK 2CU020 4CU040 7AC080 A2957=,
20180108_200000.000,0,RJOS,,,,0,20180108200000,-1,-1,-1,-1,320,-1,16,-1,28,-1,-1,,9999,0,0,2,FEW 20   BKN 40,1,10,1,6,1002,RJOS 082000Z 32016G28KT 9999 FEW020 BKN040 10/06 Q1002 RMK     1CU020 7CU040 A2959 P/RR=,
20180108_200000.003,0,RJOS,,,,0,20180108200000,-1,-1,-1,-1,320,-1,16,-1,28,-1,-1,,9999,0,0,2,FEW 20   BKN 40,1,10,1,6,1002,RJOS 082000Z 32016G28KT 9999 FEW020 BKN040 10/06 Q1002 RMK     1CU020 7CU040 A2959 P/RR=,
20180108_210000.000,0,RJOS,,,,0,20180108210000,-1,-1,-1,-1,290,-1,14,-1,-1,-1,-1,,9999,0,0,3,FEW 20   BKN 40   BKN 130,1,10,1,3,1003,RJOS 082100Z 29014KT 9999 FEW020 BKN040 BKN130 10/03 Q1003 RMK     1CU020 5CU040 7AC130 A2964=,
20180108_210000.004,0,RJOS,,,,0,20180108210000,-1,-1,-1,-1,290,-1,14,-1,-1,-1,-1,,9999,0,0,3,FEW 20   BKN 40   BKN 130,1,10,1,3,1003,RJOS 082100Z 29014KT 9999 FEW020 BKN040 BKN130 10/03 Q1003 RMK     1CU020 5CU040 7AC130 A2964=,
20180108_220000.000,0,RJOS,,,,0,20180108220000,-1,-1,-1,-1,320,-1,10,-1,-1,-1,-1,,9999,0,0,3,FEW 40   SCT 130   BKN -9999,1,9,1,1,1003,RJOS 082200Z 32010KT 9999 FEW040 SCT130 BKN/// 09/01 Q1003 RMK     1CU040 3AC130 A2964=,
20180108_220000.003,0,RJOS,,,,0,20180108220000,-1,-1,-1,-1,320,-1,10,-1,-1,-1,-1,,9999,0,0,3,FEW 40   SCT 130   BKN -9999,1,9,1,1,1003,RJOS 082200Z 32010KT 9999 FEW040 SCT130 BKN/// 09/01 Q1003 RMK     1CU040 3AC130 A2964=,
20180108_230000.000,0,RJOS,,,,0,20180108230000,-1,-1,-1,-1,310,-1,15,-1,-1,260,360,,9999,0,0,2,FEW 30   BKN 50,1,10,1,1,1004,RJOS 082300Z 31015KT 260V360 9999 FEW030 BKN050 10/01 Q1004 RMK     2CU030 7SC050 A2967=,
20180108_230000.004,0,RJOS,,,,0,20180108230000,-1,-1,-1,-1,310,-1,15,-1,-1,260,360,,9999,0,0,2,FEW 30   BKN 50,1,10,1,1,1004,RJOS 082300Z 31015KT 260V360 9999 FEW030 BKN050 10/01 Q1004     RMK 2CU030 7SC050 A2967=,
20180109_000000.000,0,RJOS,,,,0,20180109000000,-1,-1,-1,-1,300,-1,14,-1,-1,-1,-1,,9999,0,0,2,FEW 30   BKN 50,1,9,-1,2,1006,RJOS 090000Z 30014KT 9999 FEW030 BKN050 09/M02 Q1006 RMK 2CU030     7SC050 A2972 PEAK GUST 22KT=,
20180109_000000.003,0,RJOS,,,,0,20180109000000,-1,-1,-1,-1,300,-1,14,-1,-1,-1,-1,,9999,0,0,2,FEW 30   BKN 50,1,9,-1,2,1006,RJOS 090000Z 30014KT 9999 FEW030 BKN050 09/M02 Q1006 RMK     2CU030 7SC050 A2972 PEAK GUST 22KT=,
20180109_010000.000,0,RJOS,,,,0,20180109010000,-1,-1,-1,-1,290,-1,17,-1,27,260,320,,9999,0,0,2,FEW 30   BKN 50,1,10,-1,3,1006,RJOS 090100Z 29017G27KT 260V320 9999 FEW030 BKN050 10/M03 Q1006     RMK 1CU030 6SC050 A2973=,
20180109_010000.003,0,RJOS,,,,0,20180109010000,-1,-1,-1,-1,290,-1,17,-1,27,260,320,,9999,0,0,2,FEW 30   BKN 50,1,10,-1,3,1006,RJOS 090100Z 29017G27KT 260V320 9999 FEW030 BKN050 10/M03     Q1006 RMK 1CU030 6SC050 A2973=,
20180109_020000.000,0,RJOS,,,,0,20180109020000,-1,-1,-1,-1,310,-1,15,-1,25,-1,-1,,9999,0,0,2,FEW 30   BKN 50,1,9,-1,2,1006,RJOS 090200Z 31015G25KT 9999 FEW030 BKN050 09/M02 Q1006 RMK     1CU030 6SC050 A2972=,
20180109_020000.003,0,RJOS,,,,0,20180109020000,-1,-1,-1,-1,310,-1,15,-1,25,-1,-1,,9999,0,0,2,FEW 30   BKN 50,1,9,-1,2,1006,RJOS 090200Z 31015G25KT 9999 FEW030 BKN050 09/M02 Q1006 RMK     1CU030 6SC050 A2972=,
20180109_030000.000,0,RJOS,,,,0,20180109030000,-1,-1,-1,-1,280,-1,20,-1,32,-1,-1,,9999,0,0,2,FEW 30   SCT 50,1,10,-1,2,1005,RJOS 090300Z 28020G32KT 9999 FEW030 SCT050 10/M02 Q1005 RMK     1CU030 4SC050 A2970=,
20180109_030000.003,0,RJOS,,,,0,20180109030000,-1,-1,-1,-1,280,-1,20,-1,32,-1,-1,,9999,0,0,2,FEW 30   SCT 50,1,10,-1,2,1005,RJOS 090300Z 28020G32KT 9999 FEW030 SCT050 10/M02 Q1005 RMK     1CU030 4SC050 A2970=,
20180109_040000.000,0,RJOS,,,,0,20180109040000,-1,-1,-1,-1,280,-1,24,-1,35,-1,-1,,9999,0,0,1,FEW 30,1,9,-1,4,1005,RJOS 090400Z 28024G35KT 9999 FEW030 09/M04 Q1005 RMK 2CU030     A2968=,
20180109_040000.003,0,RJOS,,,,0,20180109040000,-1,-1,-1,-1,280,-1,24,-1,35,-1,-1,,9999,0,0,1,FEW 30,1,9,-1,4,1005,RJOS 090400Z 28024G35KT 9999 FEW030 09/M04 Q1005 RMK 2CU030     A2968=,
20180109_050000.000,0,RJOS,,,,0,20180109050000,-1,-1,-1,-1,300,-1,20,-1,30,-1,-1,,9999,0,0,1,FEW 30,1,10,-1,7,1005,RJOS 090500Z 30020G30KT 9999 FEW030 10/M07 Q1005 RMK 2CU030     A2970=,
20180109_050000.003,0,RJOS,,,,0,20180109050000,-1,-1,-1,-1,300,-1,20,-1,30,-1,-1,,9999,0,0,1,FEW 30,1,10,-1,7,1005,RJOS 090500Z 30020G30KT 9999 FEW030 10/M07 Q1005 RMK 2CU030     A2970=,
20180109_060000.000,0,RJOS,,,,0,20180109060000,-1,-1,-1,-1,310,-1,23,-1,36,-1,-1,,9999,0,0,2,FEW 25   SCT 40,1,8,-1,5,1006,RJOS 090600Z 31023G36KT 9999 FEW025 SCT040 08/M05 Q1006 RMK     1CU025 3CU040 A2973=,
20180109_060000.003,0,RJOS,,,,0,20180109060000,-1,-1,-1,-1,310,-1,23,-1,36,-1,-1,,9999,0,0,2,FEW 25   SCT 40,1,8,-1,5,1006,RJOS 090600Z 31023G36KT 9999 FEW025 SCT040 08/M05 Q1006 RMK     1CU025 3CU040 A2973=,
20180109_070000.000,0,RJOS,,,,0,20180109070000,-1,-1,-1,-1,320,-1,15,-1,25,-1,-1,,9999,0,0,2,FEW 25   SCT 40,1,7,-1,3,1008,RJOS 090700Z 32015G25KT 9999 FEW025 SCT040 07/M03 Q1008 RMK     1CU025 3CU040 A2977=,
20180109_070000.003,0,RJOS,,,,0,20180109070000,-1,-1,-1,-1,320,-1,15,-1,25,-1,-1,,9999,0,0,2,FEW 25   SCT 40,1,7,-1,3,1008,RJOS 090700Z 32015G25KT 9999 FEW025 SCT040 07/M03 Q1008 RMK     1CU025 3CU040 A2977=,
20180109_080000.000,0,RJOS,,,,0,20180109080000,-1,-1,-1,-1,340,-1,14,-1,-1,-1,-1,,9999,0,0,1,FEW 25,1,5,-1,2,1009,RJOS 090800Z 34014KT 9999 FEW025 05/M02 Q1009 RMK 1CU025 A2980     PEAK GUST 20KT=,
20180109_080000.003,0,RJOS,,,,0,20180109080000,-1,-1,-1,-1,340,-1,14,-1,-1,-1,-1,,9999,0,0,1,FEW 25,1,5,-1,2,1009,RJOS 090800Z 34014KT 9999 FEW025 05/M02 Q1009 RMK 1CU025 A2980     PEAK GUST 20KT=,
20180109_090000.000,0,RJOS,,,,0,20180109090000,-1,-1,-1,-1,320,-1,12,-1,-1,-1,-1,,9999,0,0,1,FEW 25,1,5,-1,3,1010,RJOS 090900Z 32012KT 9999 FEW025 05/M03 Q1010 RMK 1CU025 A2985=,
20180109_090000.003,0,RJOS,,,,0,20180109090000,-1,-1,-1,-1,320,-1,12,-1,-1,-1,-1,,9999,0,0,1,FEW 25,1,5,-1,3,1010,RJOS 090900Z 32012KT 9999 FEW025 05/M03 Q1010 RMK 1CU025     A2985=,
20180109_100000.000,0,RJOS,,,,0,20180109100000,-1,-1,-1,-1,320,-1,9,-1,-1,-1,-1,,9999,0,0,1,FEW 25,1,5,-1,4,1011,RJOS 091000Z 32009KT 9999 FEW025 05/M04 Q1011 RMK 1CU025 A2987=,
20180109_100000.003,0,RJOS,,,,0,20180109100000,-1,-1,-1,-1,320,-1,9,-1,-1,-1,-1,,9999,0,0,1,FEW 25,1,5,-1,4,1011,RJOS 091000Z 32009KT 9999 FEW025 05/M04 Q1011 RMK 1CU025     A2987=,
20180109_110000.000,0,RJOS,,,,0,20180109110000,-1,-1,-1,-1,290,-1,10,-1,-1,-1,-1,,9999,0,0,1,FEW 25,1,4,-1,2,1012,RJOS 091100Z 29010KT 9999 FEW025 04/M02 Q1012 RMK 1CU025 A2989=,
20180109_110000.003,0,RJOS,,,,0,20180109110000,-1,-1,-1,-1,290,-1,10,-1,-1,-1,-1,,9999,0,0,1,FEW 25,1,4,-1,2,1012,RJOS 091100Z 29010KT 9999 FEW025 04/M02 Q1012 RMK 1CU025     A2989=,
20180109_120000.000,0,RJOS,,,,0,20180109120000,-1,-1,-1,-1,270,-1,4,-1,-1,230,300,,9999,0,0,1,FEW 25,1,4,-1,2,1012,RJOS 091200Z 27004KT 230V300 9999 FEW025 04/M02 Q1012 RMK     1CU025 A2991=,
20180109_120000.003,0,RJOS,,,,0,20180109120000,-1,-1,-1,-1,270,-1,4,-1,-1,230,300,,9999,0,0,1,FEW 25,1,4,-1,2,1012,RJOS 091200Z 27004KT 230V300 9999 FEW025 04/M02 Q1012 RMK     1CU025 A2991=,
20180109_130000.000,0,RJOS,,,,0,20180109130000,-1,-1,-1,-1,0,-1,0,-1,-1,-1,-1,,9999,0,0,1,FEW 25,1,4,-1,3,1013,RJOS 091300Z 00000KT 9999 FEW025 04/M03 Q1013 RMK 1CU025 A2992=,
20180109_130000.003,0,RJOS,,,,0,20180109130000,-1,-1,-1,-1,0,-1,0,-1,-1,-1,-1,,9999,0,0,1,FEW 25,1,4,-1,3,1013,RJOS 091300Z 00000KT 9999 FEW025 04/M03 Q1013 RMK 1CU025     A2992=,
20180109_140000.000,0,RJOS,,,,0,20180109140000,-1,-1,-1,-1,999,-1,2,-1,-1,-1,-1,,9999,0,0,1,FEW 25,1,3,-1,3,1013,RJOS 091400Z VRB02KT 9999 FEW025 03/M03 Q1013 RMK 1CU025 A2991=,
20180109_140000.003,0,RJOS,,,,0,20180109140000,-1,-1,-1,-1,999,-1,2,-1,-1,-1,-1,,9999,0,0,1,FEW 25,1,3,-1,3,1013,RJOS 091400Z VRB02KT 9999 FEW025 03/M03 Q1013 RMK 1CU025     A2991=,
20180109_150000.000,0,RJOS,,,,0,20180109150000,-1,-1,-1,-1,300,-1,10,-1,-1,-1,-1,,9999,0,0,1,FEW 25,1,5,-1,4,1012,RJOS 091500Z 30010KT 9999 FEW025 05/M04 Q1012 RMK 1CU025 A2991=,
20180109_150000.003,0,RJOS,,,,0,20180109150000,-1,-1,-1,-1,300,-1,10,-1,-1,-1,-1,,9999,0,0,1,FEW 25,1,5,-1,4,1012,RJOS 091500Z 30010KT 9999 FEW025 05/M04 Q1012 RMK 1CU025     A2991=,
20180109_160000.000,0,RJOS,,,,0,20180109160000,-1,-1,-1,-1,290,-1,9,-1,-1,-1,-1,,9999,0,0,1,FEW 25,1,4,-1,2,1012,RJOS 091600Z 29009KT 9999 FEW025 04/M02 Q1012 RMK 1CU025 A2991=,
20180109_160000.003,0,RJOS,,,,0,20180109160000,-1,-1,-1,-1,290,-1,9,-1,-1,-1,-1,,9999,0,0,1,FEW 25,1,4,-1,2,1012,RJOS 091600Z 29009KT 9999 FEW025 04/M02 Q1012 RMK 1CU025     A2991=,
20180109_170000.000,0,RJOS,,,,0,20180109170000,-1,-1,-1,-1,290,-1,12,-1,-1,-1,-1,,9999,0,0,1,FEW 25,1,4,-1,3,1013,RJOS 091700Z 29012KT 9999 FEW025 04/M03 Q1013 RMK 1CU025 A2992=,
20180109_170000.003,0,RJOS,,,,0,20180109170000,-1,-1,-1,-1,290,-1,12,-1,-1,-1,-1,,9999,0,0,1,FEW 25,1,4,-1,3,1013,RJOS 091700Z 29012KT 9999 FEW025 04/M03 Q1013 RMK 1CU025     A2992=,
20180109_180000.000,0,RJOS,,,,0,20180109180000,-1,-1,-1,-1,290,-1,13,-1,-1,-1,-1,,9999,0,0,1,FEW 25,1,5,-1,3,1013,RJOS 091800Z 29013KT 9999 FEW025 05/M03 Q1013 RMK 1CU025 A2993=,
20180109_180000.003,0,RJOS,,,,0,20180109180000,-1,-1,-1,-1,290,-1,13,-1,-1,-1,-1,,9999,0,0,1,FEW 25,1,5,-1,3,1013,RJOS 091800Z 29013KT 9999 FEW025 05/M03 Q1013 RMK 1CU025     A2993=,
20180109_190000.000,0,RJOS,,,,0,20180109190000,-1,-1,-1,-1,300,-1,10,-1,-1,-1,-1,,9999,0,0,1,FEW 25,1,4,-1,3,1013,RJOS 091900Z 30010KT 9999 FEW025 04/M03 Q1013 RMK 1CU025 A2992=,
20180109_190000.004,0,RJOS,,,,0,20180109190000,-1,-1,-1,-1,300,-1,10,-1,-1,-1,-1,,9999,0,0,1,FEW 25,1,4,-1,3,1013,RJOS 091900Z 30010KT 9999 FEW025 04/M03 Q1013 RMK 1CU025     A2992=,
20180109_200000.000,0,RJOS,,,,0,20180109200000,-1,-1,-1,-1,270,-1,4,-1,-1,240,300,,9999,0,0,1,FEW 25,1,4,-1,3,1012,RJOS 092000Z 27004KT 240V300 9999 FEW025 04/M03 Q1012 RMK     1CU025 A2991=,
20180109_200000.003,0,RJOS,,,,0,20180109200000,-1,-1,-1,-1,270,-1,4,-1,-1,240,300,,9999,0,0,1,FEW 25,1,4,-1,3,1012,RJOS 092000Z 27004KT 240V300 9999 FEW025 04/M03 Q1012 RMK     1CU025 A2991=,
20180109_210000.000,0,RJOS,,,,0,20180109210000,-1,-1,-1,-1,290,-1,7,-1,-1,-1,-1,,9999,0,0,1,FEW 25,1,4,-1,3,1013,RJOS 092100Z 29007KT 9999 FEW025 04/M03 Q1013 RMK 1CU025 A2992     S/// SD/// FS000=,
20180109_210000.003,0,RJOS,,,,0,20180109210000,-1,-1,-1,-1,290,-1,7,-1,-1,-1,-1,,9999,0,0,1,FEW 25,1,4,-1,3,1013,RJOS 092100Z 29007KT 9999 FEW025 04/M03 Q1013 RMK 1CU025 A2992     S/// SD/// FS000=,
20180109_220000.000,0,RJOS,,,,0,20180109220000,-1,-1,-1,-1,300,-1,5,-1,-1,-1,-1,,9999,0,0,1,FEW 25,1,4,-1,3,1013,RJOS 092200Z 30005KT 9999 FEW025 04/M03 Q1013 RMK 2CU025 A2993=,
20180109_220000.003,0,RJOS,,,,0,20180109220000,-1,-1,-1,-1,300,-1,5,-1,-1,-1,-1,,9999,0,0,1,FEW 25,1,4,-1,3,1013,RJOS 092200Z 30005KT 9999 FEW025 04/M03 Q1013 RMK 2CU025     A2993=,
20180109_230000.000,0,RJOS,,,,0,20180109230000,-1,-1,-1,-1,290,-1,6,-1,-1,-1,-1,,9999,0,0,1,FEW 25,1,4,-1,2,1013,RJOS 092300Z 29006KT 9999 FEW025 04/M02 Q1013 RMK 1CU025 A2994=,
20180109_230000.003,0,RJOS,,,,0,20180109230000,-1,-1,-1,-1,290,-1,6,-1,-1,-1,-1,,9999,0,0,1,FEW 25,1,4,-1,2,1013,RJOS 092300Z 29006KT 9999 FEW025 04/M02 Q1013 RMK 1CU025     A2994=,
20180110_000000.000,0,RJOS,,,,0,20180110000000,-1,-1,-1,-1,300,-1,7,-1,-1,-1,-1,,9999,0,0,1,FEW 25,1,5,-1,2,1013,RJOS 100000Z 30007KT 9999 FEW025 05/M02 Q1013 RMK 1CU025 A2994=,
20180110_000000.003,0,RJOS,,,,0,20180110000000,-1,-1,-1,-1,300,-1,7,-1,-1,-1,-1,,9999,0,0,1,FEW 25,1,5,-1,2,1013,RJOS 100000Z 30007KT 9999 FEW025 05/M02 Q1013 RMK 1CU025     A2994=,
20180110_010000.000,0,RJOS,,,,0,20180110010000,-1,-1,-1,-1,280,-1,6,-1,-1,-1,-1,,9999,0,0,1,FEW 30,1,7,-1,1,1013,RJOS 100100Z 28006KT 9999 FEW030 07/M01 Q1013 RMK 1CU030 A2993=,
20180110_010000.003,0,RJOS,,,,0,20180110010000,-1,-1,-1,-1,280,-1,6,-1,-1,-1,-1,,9999,0,0,1,FEW 30,1,7,-1,1,1013,RJOS 100100Z 28006KT 9999 FEW030 07/M01 Q1013 RMK 1CU030     A2993=,
20180110_020000.000,0,RJOS,,,,0,20180110020000,-1,-1,-1,-1,240,-1,5,-1,-1,160,300,,9999,0,0,2,FEW 30   SCT 70,1,8,-1,3,1012,RJOS 100200Z 24005KT 160V300 9999 FEW030 SCT070 08/M03 Q1012     RMK 1CU030 3AC070 A2990=,
20180110_020000.003,0,RJOS,,,,0,20180110020000,-1,-1,-1,-1,240,-1,5,-1,-1,160,300,,9999,0,0,2,FEW 30   SCT 70,1,8,-1,3,1012,RJOS 100200Z 24005KT 160V300 9999 FEW030 SCT070 08/M03 Q1012     RMK 1CU030 3AC070 A2990=,
20180110_030000.000,0,RJOS,,,,0,20180110030000,-1,-1,-1,-1,60,-1,7,-1,-1,10,80,,9999,0,0,2,FEW 30   BKN 70,1,8,-1,1,1011,RJOS 100300Z 06007KT 010V080 9999 FEW030 BKN070 08/M01 Q1011     RMK 1CU030 5AC070 A2986=,
20180110_030000.003,0,RJOS,,,,0,20180110030000,-1,-1,-1,-1,60,-1,7,-1,-1,10,80,,9999,0,0,2,FEW 30   BKN 70,1,8,-1,1,1011,RJOS 100300Z 06007KT 010V080 9999 FEW030 BKN070 08/M01 Q1011     RMK 1CU030 5AC070 A2986=,
20180110_040000.000,0,RJOS,,,,0,20180110040000,-1,-1,-1,-1,60,-1,6,-1,-1,10,90,,9999,0,0,3,FEW 25   SCT 40   BKN 70,1,8,-1,1,1010,RJOS 100400Z 06006KT 010V090 9999 FEW025 SCT040 BKN070 08/M01     Q1010 RMK 1CU025 3CU040 6AC070 A2984=,
20180110_040000.004,0,RJOS,,,,0,20180110040000,-1,-1,-1,-1,60,-1,6,-1,-1,10,90,,9999,0,0,3,FEW 25   SCT 40   BKN 70,1,8,-1,1,1010,RJOS 100400Z 06006KT 010V090 9999 FEW025 SCT040 BKN070 08/M01     Q1010 RMK 1CU025 3CU040 6AC070 A2984=,
20180110_050000.000,0,RJOS,,,,0,20180110050000,-1,-1,-1,-1,30,-1,9,-1,-1,340,50,,9999,0,0,3,FEW 25   SCT 40   BKN 70,1,8,1,1,1010,RJOS 100500Z 03009KT 340V050 9999 FEW025 SCT040 BKN070 08/01     Q1010 RMK 1CU025 3CU040 6AC070 A2983=,
20180110_050000.003,0,RJOS,,,,0,20180110050000,-1,-1,-1,-1,30,-1,9,-1,-1,340,50,,9999,0,0,3,FEW 25   SCT 40   BKN 70,1,8,1,1,1010,RJOS 100500Z 03009KT 340V050 9999 FEW025 SCT040 BKN070 08/01     Q1010 RMK 1CU025 3CU040 6AC070 A2983=,
20180110_060000.000,0,RJOS,,,,0,20180110060000,-1,-1,-1,-1,340,-1,8,-1,-1,300,40,,9999,0,1,3,FEW 8   SCT 15   BKN 35,1,7,1,2,1010,RJOS 100600Z 34008KT 300V040 9999 -SHRA FEW008 SCT015 BKN035     07/02 Q1010 RMK 2ST008 3CU015 7CU035 A2985=,- RA SH
20180110_060000.003,0,RJOS,,,,0,20180110060000,-1,-1,-1,-1,340,-1,8,-1,-1,300,40,,9999,0,1,3,FEW 8   SCT 15   BKN 35,1,7,1,2,1010,RJOS 100600Z 34008KT 300V040 9999 -SHRA FEW008 SCT015 BKN035     07/02 Q1010 RMK 2ST008 3CU015 7CU035 A2985=,- RA SH
20180110_070000.000,0,RJOS,,,,0,20180110070000,-1,-1,-1,-1,270,-1,14,-1,-1,-1,-1,,9999,0,0,1,FEW 15,1,7,1,1,1011,RJOS 100700Z 27014KT 9999 FEW015 07/01 Q1011 RMK 1CU015 A2986=,
20180110_070000.003,0,RJOS,,,,0,20180110070000,-1,-1,-1,-1,270,-1,14,-1,-1,-1,-1,,9999,0,0,1,FEW 15,1,7,1,1,1011,RJOS 100700Z 27014KT 9999 FEW015 07/01 Q1011 RMK 1CU015 A2986=,
20180110_080000.000,0,RJOS,,,,0,20180110080000,-1,-1,-1,-1,280,-1,16,-1,31,-1,-1,,9999,0,0,1,FEW 15,1,6,-1,1,1011,RJOS 100800Z 28016G31KT 9999 FEW015 06/M01 Q1011 RMK 1CU015     A2986=,
20180110_080000.003,0,RJOS,,,,0,20180110080000,-1,-1,-1,-1,280,-1,16,-1,31,-1,-1,,9999,0,0,1,FEW 15,1,6,-1,1,1011,RJOS 100800Z 28016G31KT 9999 FEW015 06/M01 Q1011 RMK 1CU015     A2986=,
20180110_090000.000,0,RJOS,,,,0,20180110090000,-1,-1,-1,-1,280,-1,15,-1,-1,-1,-1,,9999,0,0,1,FEW 15,1,6,-1,1,1012,RJOS 100900Z 28015KT 9999 FEW015 06/M01 Q1012 RMK 1CU015 A2989=,
20180110_090000.003,0,RJOS,,,,0,20180110090000,-1,-1,-1,-1,280,-1,15,-1,-1,-1,-1,,9999,0,0,1,FEW 15,1,6,-1,1,1012,RJOS 100900Z 28015KT 9999 FEW015 06/M01 Q1012 RMK 1CU015     A2989=,
20180110_100000.000,0,RJOS,,,,0,20180110100000,-1,-1,-1,-1,290,-1,11,-1,21,250,320,,9999,0,0,2,FEW 30   SCT 50,1,5,-1,1,1013,RJOS 101000Z 29011G21KT 250V320 9999 FEW030 SCT050 05/M01 Q1013     RMK 1CU030 3SC050 A2992=,
20180110_100000.003,0,RJOS,,,,0,20180110100000,-1,-1,-1,-1,290,-1,11,-1,21,250,320,,9999,0,0,2,FEW 30   SCT 50,1,5,-1,1,1013,RJOS 101000Z 29011G21KT 250V320 9999 FEW030 SCT050 05/M01     Q1013 RMK 1CU030 3SC050 A2992=,
20180110_110000.000,0,RJOS,,,,0,20180110110000,-1,-1,-1,-1,360,-1,12,-1,22,320,20,,9999,0,1,3,FEW 12   SCT 30   BKN 50,1,4,1,1,1014,RJOS 101100Z 36012G22KT 320V020 9999 -SHRA FEW012 SCT030 BKN050     04/01 Q1014 RMK 1CU012 4CU030 7SC050 A2994=,- RA SH
20180110_110000.003,0,RJOS,,,,0,20180110110000,-1,-1,-1,-1,360,-1,12,-1,22,320,20,,9999,0,1,3,FEW 12   SCT 30   BKN 50,1,4,1,1,1014,RJOS 101100Z 36012G22KT 320V020 9999 -SHRA FEW012 SCT030     BKN050 04/01 Q1014 RMK 1CU012 4CU030 7SC050 A2994=,- RA SH
20180110_120000.000,0,RJOS,,,,0,20180110120000,-1,-1,-1,-1,290,-1,9,-1,-1,-1,-1,,9999,0,0,2,FEW 30   BKN 70,1,3,1,0,1014,RJOS 101200Z 29009KT 9999 FEW030 BKN070 03/00 Q1014 RMK 2CU030     5AC070 A2996=,
20180110_120000.003,0,RJOS,,,,0,20180110120000,-1,-1,-1,-1,290,-1,9,-1,-1,-1,-1,,9999,0,0,2,FEW 30   BKN 70,1,3,1,0,1014,RJOS 101200Z 29009KT 9999 FEW030 BKN070 03/00 Q1014 RMK 2CU030     5AC070 A2996=,
20180110_130000.000,0,RJOS,,,,0,20180110130000,-1,-1,-1,-1,310,-1,10,-1,-1,270,340,,8000,0,1,3,FEW 15   BKN 30   BKN 70,1,3,-1,0,1015,RJOS 101300Z 31010KT 270V340 8000 -SHRA FEW015 BKN030 BKN070     03/M00 Q1015 RMK 2CU015 6CU030 7AC070 A2998=,- RA SH
20180110_130000.003,0,RJOS,,,,0,20180110130000,-1,-1,-1,-1,310,-1,10,-1,-1,270,340,,8000,0,1,3,FEW 15   BKN 30   BKN 70,1,3,-1,0,1015,RJOS 101300Z 31010KT 270V340 8000 -SHRA FEW015 BKN030 BKN070     03/M00 Q1015 RMK 2CU015 6CU030 7AC070 A2998=,- RA SH
20180110_140000.000,0,RJOS,,,,0,20180110140000,-1,-1,-1,-1,270,-1,10,-1,-1,-1,-1,,9999,0,0,3,FEW 15   SCT 30   BKN 70,1,2,1,0,1015,RJOS 101400Z 27010KT 9999 FEW015 SCT030 BKN070 02/00 Q1015 RMK     1CU015 3CU030 7AC070 A2999=,
20180110_140000.003,0,RJOS,,,,0,20180110140000,-1,-1,-1,-1,270,-1,10,-1,-1,-1,-1,,9999,0,0,3,FEW 15   SCT 30   BKN 70,1,2,1,0,1015,RJOS 101400Z 27010KT 9999 FEW015 SCT030 BKN070 02/00 Q1015 RMK     1CU015 3CU030 7AC070 A2999=,
20180110_150000.000,0,RJOS,,,,0,20180110150000,-1,-1,-1,-1,270,-1,5,-1,-1,-1,-1,,9999,0,0,3,FEW 30   SCT 50   BKN 70,1,2,-1,1,1015,RJOS 101500Z 27005KT 9999 FEW030 SCT050 BKN070 02/M01 Q1015 RMK     1CU030 3SC050 5AC070 A2999=,
20180110_150000.003,0,RJOS,,,,0,20180110150000,-1,-1,-1,-1,270,-1,5,-1,-1,-1,-1,,9999,0,0,3,FEW 30   SCT 50   BKN 70,1,2,-1,1,1015,RJOS 101500Z 27005KT 9999 FEW030 SCT050 BKN070 02/M01 Q1015     RMK 1CU030 3SC050 5AC070 A2999=,
20180110_160000.000,0,RJOS,,,,0,20180110160000,-1,-1,-1,-1,300,-1,8,-1,-1,-1,-1,,2500,0,1,3,FEW 6   SCT 12   BKN 25,1,1,-1,1,1016,RJOS 101600Z 30008KT 2500 -SHSN FEW006 SCT012 BKN025 01/M01     Q1016 RMK 2ST006 4CU012 7CU025 A3000=,- SN SH
20180110_160000.003,0,RJOS,,,,0,20180110160000,-1,-1,-1,-1,300,-1,8,-1,-1,-1,-1,,2500,0,1,3,FEW 6   SCT 12   BKN 25,1,1,-1,1,1016,RJOS 101600Z 30008KT 2500 -SHSN FEW006 SCT012 BKN025 01/M01     Q1016 RMK 2ST006 4CU012 7CU025 A3000=,- SN SH
20180110_170000.000,0,RJOS,,,,0,20180110170000,-1,-1,-1,-1,260,-1,11,-1,-1,-1,-1,,7000,0,1,3,FEW 12   BKN 25   BKN 50,1,1,-1,0,1016,RJOS 101700Z 26011KT 7000 -SHSN FEW012 BKN025 BKN050 01/M00     Q1016 RMK 1CU012 5CU025 7SC050 A3002=,- SN SH
20180110_170000.003,0,RJOS,,,,0,20180110170000,-1,-1,-1,-1,260,-1,11,-1,-1,-1,-1,,7000,0,1,3,FEW 12   BKN 25   BKN 50,1,1,-1,0,1016,RJOS 101700Z 26011KT 7000 -SHSN FEW012 BKN025 BKN050 01/M00     Q1016 RMK 1CU012 5CU025 7SC050 A3002=,- SN SH
20180110_180000.000,0,RJOS,,,,0,20180110180000,-1,-1,-1,-1,280,-1,15,-1,-1,-1,-1,,4500,0,1,2,FEW 6   BKN 25,1,1,-1,1,1017,RJOS 101800Z 28015KT 4500 -SHSN FEW006 BKN025 01/M01 Q1017 RMK     1ST006 7CU025 A3003=,- SN SH
20180110_180000.003,0,RJOS,,,,0,20180110180000,-1,-1,-1,-1,280,-1,15,-1,-1,-1,-1,,4500,0,1,2,FEW 6   BKN 25,1,1,-1,1,1017,RJOS 101800Z 28015KT 4500 -SHSN FEW006 BKN025 01/M01 Q1017 RMK     1ST006 7CU025 A3003=,- SN SH
20180110_190000.000,0,RJOS,,,,0,20180110190000,-1,-1,-1,-1,280,-1,12,-1,-1,-1,-1,,6000,0,1,2,FEW 6   BKN 30,1,1,-1,1,1017,RJOS 101900Z 28012KT 6000 -SHSN FEW006 BKN030 01/M01 Q1017 RMK     1ST006 7CU030 A3004=,- SN SH
20180110_190000.003,0,RJOS,,,,0,20180110190000,-1,-1,-1,-1,280,-1,12,-1,-1,-1,-1,,6000,0,1,2,FEW 6   BKN 30,1,1,-1,1,1017,RJOS 101900Z 28012KT 6000 -SHSN FEW006 BKN030 01/M01 Q1017 RMK     1ST006 7CU030 A3004=,- SN SH
20180110_200000.000,0,RJOS,,,,0,20180110200000,-1,-1,-1,-1,300,-1,10,-1,-1,-1,-1,,3000,0,1,2,FEW 6   BKN 30,-1,0,-1,2,1017,RJOS 102000Z 30010KT 3000 -SHSN FEW006 BKN030 M00/M02 Q1017 RMK     2ST006 7CU030 A3006=,- SN SH
20180110_200000.003,0,RJOS,,,,0,20180110200000,-1,-1,-1,-1,300,-1,10,-1,-1,-1,-1,,3000,0,1,2,FEW 6   BKN 30,-1,0,-1,2,1017,RJOS 102000Z 30010KT 3000 -SHSN FEW006 BKN030 M00/M02 Q1017     RMK 2ST006 7CU030 A3006=,- SN SH
20180110_210000.000,0,RJOS,,,,0,20180110210000,-1,-1,-1,-1,290,-1,8,-1,-1,-1,-1,,6000,0,1,3,FEW 6   BKN 30   BKN 60,1,0,-1,3,1018,RJOS 102100Z 29008KT 6000 -SHSN FEW006 BKN030 BKN060 00/M03     Q1018 RMK 1ST006 5CU030 6SC060 A3008 S002 SD001 FS001=,- SN SH
20180110_210000.003,0,RJOS,,,,0,20180110210000,-1,-1,-1,-1,290,-1,8,-1,-1,-1,-1,,6000,0,1,3,FEW 6   BKN 30   BKN 60,1,0,-1,3,1018,RJOS 102100Z 29008KT 6000 -SHSN FEW006 BKN030 BKN060 00/M03     Q1018 RMK 1ST006 5CU030 6SC060 A3008 S002 SD001 FS001=,- SN SH
20180110_220000.000,0,RJOS,,,,0,20180110220000,-1,-1,-1,-1,320,-1,6,-1,-1,-1,-1,,9999,0,0,2,FEW 30   SCT 60,-1,0,-1,4,1019,RJOS 102200Z 32006KT 9999 FEW030 SCT060 M00/M04 Q1019 RMK     1CU030 3SC060 A3010=,
20180110_220000.003,0,RJOS,,,,0,20180110220000,-1,-1,-1,-1,320,-1,6,-1,-1,-1,-1,,9999,0,0,2,FEW 30   SCT 60,-1,0,-1,4,1019,RJOS 102200Z 32006KT 9999 FEW030 SCT060 M00/M04 Q1019 RMK     1CU030 3SC060 A3010=,
20180110_230000.000,0,RJOS,,,,0,20180110230000,-1,-1,-1,-1,310,-1,4,-1,-1,-1,-1,,9999,0,0,1,FEW 25,-1,0,-1,4,1020,RJOS 102300Z 31004KT 9999 FEW025 M00/M04 Q1020 RMK 1CU025     A3012=,
20180110_230000.004,0,RJOS,,,,0,20180110230000,-1,-1,-1,-1,310,-1,4,-1,-1,-1,-1,,9999,0,0,1,FEW 25,-1,0,-1,4,1020,RJOS 102300Z 31004KT 9999 FEW025 M00/M04 Q1020 RMK 1CU025     A3012=,
20180111_000000.000,0,RJOS,,,,0,20180111000000,-1,-1,-1,-1,280,-1,4,-1,-1,-1,-1,,9999,0,0,2,FEW 25   SCT 40,1,0,-1,2,1020,RJOS 110000Z 28004KT 9999 FEW025 SCT040 00/M02 Q1020 RMK 1CU025     3CU040 A3014=,
20180111_000000.003,0,RJOS,,,,0,20180111000000,-1,-1,-1,-1,280,-1,4,-1,-1,-1,-1,,9999,0,0,2,FEW 25   SCT 40,1,0,-1,2,1020,RJOS 110000Z 28004KT 9999 FEW025 SCT040 00/M02 Q1020 RMK     1CU025 3CU040 A3014=,
20180111_010000.000,0,RJOS,,,,0,20180111010000,-1,-1,-1,-1,270,-1,8,-1,-1,-1,-1,,9999,0,1,2,FEW 12   BKN 40,1,0,-1,2,1021,RJOS 110100Z 27008KT 9999 -SHSN FEW012 BKN040 00/M02 Q1021 RMK     2CU012 5CU040 A3016=,- SN SH
20180111_010000.003,0,RJOS,,,,0,20180111010000,-1,-1,-1,-1,270,-1,8,-1,-1,-1,-1,,9999,0,1,2,FEW 12   BKN 40,1,0,-1,2,1021,RJOS 110100Z 27008KT 9999 -SHSN FEW012 BKN040 00/M02 Q1021 RMK     2CU012 5CU040 A3016=,- SN SH
20180111_020000.000,0,RJOS,,,,0,20180111020000,-1,-1,-1,-1,270,-1,8,-1,-1,-1,-1,,9999,0,0,3,FEW 15   SCT 40   BKN 70,1,2,-1,3,1020,RJOS 110200Z 27008KT 9999 FEW015 SCT040 BKN070 02/M03 Q1020 RMK     1CU015 3CU040 6AC070 A3014=,
20180111_020000.003,0,RJOS,,,,0,20180111020000,-1,-1,-1,-1,270,-1,8,-1,-1,-1,-1,,9999,0,0,3,FEW 15   SCT 40   BKN 70,1,2,-1,3,1020,RJOS 110200Z 27008KT 9999 FEW015 SCT040 BKN070 02/M03 Q1020     RMK 1CU015 3CU040 6AC070 A3014=,
20180111_030000.000,0,RJOS,,,,0,20180111030000,-1,-1,-1,-1,280,-1,11,-1,-1,-1,-1,,9999,0,1,3,FEW 15   SCT 40   BKN 70,1,2,-1,5,1020,RJOS 110300Z 28011KT 9999 VCSH FEW015 SCT040 BKN070 02/M05     Q1020 RMK 1CU015 3CU040 5AC070 A3012=,VC SH
20180111_030000.002,0,RJOS,,,,0,20180111030000,-1,-1,-1,-1,280,-1,11,-1,-1,-1,-1,,9999,0,1,3,FEW 15   SCT 40   BKN 70,1,2,-1,5,1020,RJOS 110300Z 28011KT 9999 VCSH FEW015 SCT040 BKN070 02/M05     Q1020 RMK 1CU015 3CU040 5AC070 A3012=,VC SH
20180111_040000.000,0,RJOS,,,,0,20180111040000,-1,-1,-1,-1,320,-1,13,-1,-1,-1,-1,,9999,0,1,2,FEW 15   BKN 40,1,2,-1,3,1019,RJOS 110400Z 32013KT 9999 -SHSN FEW015 BKN040 02/M03 Q1019 RMK     1CU015 5CU040 A3011 PEAK GUST 20KT=,- SN SH
20180111_040000.003,0,RJOS,,,,0,20180111040000,-1,-1,-1,-1,320,-1,13,-1,-1,-1,-1,,9999,0,1,2,FEW 15   BKN 40,1,2,-1,3,1019,RJOS 110400Z 32013KT 9999 -SHSN FEW015 BKN040 02/M03 Q1019 RMK     1CU015 5CU040 A3011 PEAK GUST 20KT=,- SN SH
20180111_050000.000,0,RJOS,,,,0,20180111050000,-1,-1,-1,-1,310,-1,9,-1,-1,-1,-1,,9999,0,0,1,SCT 15,1,3,-1,5,1019,RJOS 110500Z 31009KT 9999 SCT015 03/M05 Q1019 RMK 3CU015 A3012=,
20180111_050000.003,0,RJOS,,,,0,20180111050000,-1,-1,-1,-1,310,-1,9,-1,-1,-1,-1,,9999,0,0,1,SCT 15,1,3,-1,5,1019,RJOS 110500Z 31009KT 9999 SCT015 03/M05 Q1019 RMK 3CU015     A3012=,
20180111_060000.000,0,RJOS,,,,0,20180111060000,-1,-1,-1,-1,320,-1,10,-1,-1,-1,-1,,9999,0,0,1,FEW 15,1,3,-1,5,1019,RJOS 110600Z 32010KT 9999 FEW015 03/M05 Q1019 RMK 1CU015 A3011=,
20180111_060000.003,0,RJOS,,,,0,20180111060000,-1,-1,-1,-1,320,-1,10,-1,-1,-1,-1,,9999,0,0,1,FEW 15,1,3,-1,5,1019,RJOS 110600Z 32010KT 9999 FEW015 03/M05 Q1019 RMK 1CU015     A3011=,
20180111_070000.000,0,RJOS,,,,0,20180111070000,-1,-1,-1,-1,340,-1,14,-1,-1,-1,-1,,9999,0,1,2,FEW 15   BKN 30,1,2,-1,3,1020,RJOS 110700Z 34014KT 9999 -SHSN FEW015 BKN030 02/M03 Q1020 RMK     1CU015 5CU030 A3012 5000W=,- SN SH
20180111_070000.003,0,RJOS,,,,0,20180111070000,-1,-1,-1,-1,340,-1,14,-1,-1,-1,-1,,9999,0,1,2,FEW 15   BKN 30,1,2,-1,3,1020,RJOS 110700Z 34014KT 9999 -SHSN FEW015 BKN030 02/M03 Q1020 RMK     1CU015 5CU030 A3012 5000W=,- SN SH
20180111_080000.000,0,RJOS,,,,0,20180111080000,-1,-1,-1,-1,290,-1,8,-1,-1,-1,-1,,9999,0,0,2,FEW 15   SCT 30,1,1,-1,3,1020,RJOS 110800Z 29008KT 9999 FEW015 SCT030 01/M03 Q1020 RMK 1CU015     4CU030 A3013=,
20180111_080000.003,0,RJOS,,,,0,20180111080000,-1,-1,-1,-1,290,-1,8,-1,-1,-1,-1,,9999,0,0,2,FEW 15   SCT 30,1,1,-1,3,1020,RJOS 110800Z 29008KT 9999 FEW015 SCT030 01/M03 Q1020 RMK     1CU015 4CU030 A3013=,
20180111_090000.000,0,RJOS,,,,0,20180111090000,-1,-1,-1,-1,280,-1,9,-1,-1,-1,-1,,8000,0,1,2,SCT 15   BKN 30,1,0,-1,2,1021,RJOS 110900Z 28009KT 8000 -SHSN SCT015 BKN030 00/M02 Q1021 RMK     3CU015 7CU030 A3015=,- SN SH
20180111_090000.003,0,RJOS,,,,0,20180111090000,-1,-1,-1,-1,280,-1,9,-1,-1,-1,-1,,8000,0,1,2,SCT 15   BKN 30,1,0,-1,2,1021,RJOS 110900Z 28009KT 8000 -SHSN SCT015 BKN030 00/M02 Q1021 RMK     3CU015 7CU030 A3015=,- SN SH
20180111_100000.000,0,RJOS,,,,0,20180111100000,-1,-1,-1,-1,280,-1,11,-1,-1,-1,-1,,9999,0,1,2,FEW 15   BKN 30,1,0,-1,2,1021,RJOS 111000Z 28011KT 9999 -SHSN FEW015 BKN030 00/M02 Q1021 RMK     1CU015 5CU030 A3016=,- SN SH
20180111_100000.003,0,RJOS,,,,0,20180111100000,-1,-1,-1,-1,280,-1,11,-1,-1,-1,-1,,9999,0,1,2,FEW 15   BKN 30,1,0,-1,2,1021,RJOS 111000Z 28011KT 9999 -SHSN FEW015 BKN030 00/M02 Q1021 RMK     1CU015 5CU030 A3016=,- SN SH
20180111_110000.000,0,RJOS,,,,0,20180111110000,-1,-1,-1,-1,280,-1,13,-1,-1,-1,-1,,9999,0,1,2,FEW 15   BKN 30,-1,0,-1,3,1022,RJOS 111100Z 28013KT 9999 -SHSN FEW015 BKN030 M00/M03 Q1022 RMK     1CU015 5CU030 A3019=,- SN SH
20180111_110000.003,0,RJOS,,,,0,20180111110000,-1,-1,-1,-1,280,-1,13,-1,-1,-1,-1,,9999,0,1,2,FEW 15   BKN 30,-1,0,-1,3,1022,RJOS 111100Z 28013KT 9999 -SHSN FEW015 BKN030 M00/M03 Q1022     RMK 1CU015 5CU030 A3019=,- SN SH
20180111_120000.000,0,RJOS,,,,0,20180111120000,-1,-1,-1,-1,280,-1,12,-1,-1,-1,-1,,9999,0,0,2,FEW 15   BKN 30,-1,0,-1,4,1022,RJOS 111200Z 28012KT 9999 FEW015 BKN030 M00/M04 Q1022 RMK     1CU015 5CU030 A3019=,
20180111_120000.003,0,RJOS,,,,0,20180111120000,-1,-1,-1,-1,280,-1,12,-1,-1,-1,-1,,9999,0,0,2,FEW 15   BKN 30,-1,0,-1,4,1022,RJOS 111200Z 28012KT 9999 FEW015 BKN030 M00/M04 Q1022 RMK     1CU015 5CU030 A3019=,
20180111_130000.000,0,RJOS,,,,0,20180111130000,-1,-1,-1,-1,280,-1,12,-1,-1,-1,-1,,9999,0,0,3,FEW 15   SCT 30   BKN 70,-1,1,-1,5,1022,RJOS 111300Z 28012KT 9999 FEW015 SCT030 BKN070 M01/M05 Q1022     RMK 1CU015 3CU030 5AC070 A3021=,
20180111_130000.003,0,RJOS,,,,0,20180111130000,-1,-1,-1,-1,280,-1,12,-1,-1,-1,-1,,9999,0,0,3,FEW 15   SCT 30   BKN 70,-1,1,-1,5,1022,RJOS 111300Z 28012KT 9999 FEW015 SCT030 BKN070 M01/M05 Q1022     RMK 1CU015 3CU030 5AC070 A3021=,
20180111_140000.000,0,RJOS,,,,0,20180111140000,-1,-1,-1,-1,270,-1,4,-1,-1,-1,-1,,9999,0,0,3,FEW 15   SCT 30   BKN 70,-1,1,-1,5,1022,RJOS 111400Z 27004KT 9999 FEW015 SCT030 BKN070 M01/M05 Q1022     RMK 1CU015 3CU030 5AC070 A3021=,
20180111_140000.003,0,RJOS,,,,0,20180111140000,-1,-1,-1,-1,270,-1,4,-1,-1,-1,-1,,9999,0,0,3,FEW 15   SCT 30   BKN 70,-1,1,-1,5,1022,RJOS 111400Z 27004KT 9999 FEW015 SCT030 BKN070 M01/M05 Q1022     RMK 1CU015 3CU030 5AC070 A3021=,
20180111_150000.000,0,RJOS,,,,0,20180111150000,-1,-1,-1,-1,280,-1,4,-1,-1,-1,-1,,9999,0,0,2,FEW 30   SCT 70,-1,1,-1,5,1022,RJOS 111500Z 28004KT 9999 FEW030 SCT070 M01/M05 Q1022 RMK     1CU030 3AC070 A3021=,
20180111_150000.003,0,RJOS,,,,0,20180111150000,-1,-1,-1,-1,280,-1,4,-1,-1,-1,-1,,9999,0,0,2,FEW 30   SCT 70,-1,1,-1,5,1022,RJOS 111500Z 28004KT 9999 FEW030 SCT070 M01/M05 Q1022 RMK     1CU030 3AC070 A3021=,
20180111_160000.000,0,RJOS,,,,0,20180111160000,-1,-1,-1,-1,290,-1,9,-1,-1,-1,-1,,9999,0,0,1,FEW 30,-1,1,-1,5,1023,RJOS 111600Z 29009KT 9999 FEW030 M01/M05 Q1023 RMK 1CU030     A3022=,
20180111_160000.003,0,RJOS,,,,0,20180111160000,-1,-1,-1,-1,290,-1,9,-1,-1,-1,-1,,9999,0,0,1,FEW 30,-1,1,-1,5,1023,RJOS 111600Z 29009KT 9999 FEW030 M01/M05 Q1023 RMK 1CU030     A3022=,
20180111_170000.000,0,RJOS,,,,0,20180111170000,-1,-1,-1,-1,280,-1,10,-1,-1,-1,-1,,9999,0,0,1,FEW 30,-1,2,-1,5,1023,RJOS 111700Z 28010KT 9999 FEW030 M02/M05 Q1023 RMK 1CU030     A3022=,
20180111_170000.003,0,RJOS,,,,0,20180111170000,-1,-1,-1,-1,280,-1,10,-1,-1,-1,-1,,9999,0,0,1,FEW 30,-1,2,-1,5,1023,RJOS 111700Z 28010KT 9999 FEW030 M02/M05 Q1023 RMK 1CU030     A3022=,
20180111_180000.000,0,RJOS,,,,0,20180111180000,-1,-1,-1,-1,280,-1,13,-1,-1,-1,-1,,9999,0,0,1,FEW 30,-1,2,-1,5,1023,RJOS 111800Z 28013KT 9999 FEW030 M02/M05 Q1023 RMK 2CU030     A3023=,
20180111_180000.003,0,RJOS,,,,0,20180111180000,-1,-1,-1,-1,280,-1,13,-1,-1,-1,-1,,9999,0,0,1,FEW 30,-1,2,-1,5,1023,RJOS 111800Z 28013KT 9999 FEW030 M02/M05 Q1023 RMK 2CU030     A3023=,
20180111_190000.000,0,RJOS,,,,0,20180111190000,-1,-1,-1,-1,290,-1,10,-1,-1,-1,-1,,9999,0,0,1,FEW 30,-1,2,-1,5,1023,RJOS 111900Z 29010KT 9999 FEW030 M02/M05 Q1023 RMK 2CU030     A3022=,
20180111_190000.003,0,RJOS,,,,0,20180111190000,-1,-1,-1,-1,290,-1,10,-1,-1,-1,-1,,9999,0,0,1,FEW 30,-1,2,-1,5,1023,RJOS 111900Z 29010KT 9999 FEW030 M02/M05 Q1023 RMK 2CU030     A3022=,
20180111_200000.000,0,RJOS,,,,0,20180111200000,-1,-1,-1,-1,280,-1,10,-1,-1,-1,-1,,9999,0,0,1,FEW 30,-1,2,-1,5,1023,RJOS 112000Z 28010KT 9999 FEW030 M02/M05 Q1023 RMK 2CU030     A3022=,
20180111_200000.003,0,RJOS,,,,0,20180111200000,-1,-1,-1,-1,280,-1,10,-1,-1,-1,-1,,9999,0,0,1,FEW 30,-1,2,-1,5,1023,RJOS 112000Z 28010KT 9999 FEW030 M02/M05 Q1023 RMK 2CU030     A3022=,
20180111_210000.000,0,RJOS,,,,0,20180111210000,-1,-1,-1,-1,280,-1,10,-1,-1,-1,-1,,9999,0,0,1,FEW 30,-1,2,-1,5,1023,RJOS 112100Z 28010KT 9999 FEW030 M02/M05 Q1023 RMK 2CU030 A3023     S000 SD/// FS///=,
20180111_210000.003,0,RJOS,,,,0,20180111210000,-1,-1,-1,-1,280,-1,10,-1,-1,-1,-1,,9999,0,0,1,FEW 30,-1,2,-1,5,1023,RJOS 112100Z 28010KT 9999 FEW030 M02/M05 Q1023 RMK 2CU030     A3023 S000 SD/// FS///=,
20180111_220000.000,0,RJOS,,,,0,20180111220000,-1,-1,-1,-1,280,-1,4,-1,-1,-1,-1,,9999,0,0,1,FEW 20,-1,2,-1,5,1024,RJOS 112200Z 28004KT 9999 FEW020 M02/M05 Q1024 RMK 2CU020     A3024=,
20180111_220000.004,0,RJOS,,,,0,20180111220000,-1,-1,-1,-1,280,-1,4,-1,-1,-1,-1,,9999,0,0,1,FEW 20,-1,2,-1,5,1024,RJOS 112200Z 28004KT 9999 FEW020 M02/M05 Q1024 RMK 2CU020     A3024=,
20180111_230000.000,0,RJOS,,,,0,20180111230000,-1,-1,-1,-1,290,-1,11,-1,-1,-1,-1,,9999,0,0,1,SCT 20,-1,2,-1,5,1024,RJOS 112300Z 29011KT 9999 SCT020 M02/M05 Q1024 RMK 3CU020     A3026=,
20180111_230000.003,0,RJOS,,,,0,20180111230000,-1,-1,-1,-1,290,-1,11,-1,-1,-1,-1,,9999,0,0,1,SCT 20,-1,2,-1,5,1024,RJOS 112300Z 29011KT 9999 SCT020 M02/M05 Q1024 RMK 3CU020     A3026=,
20180112_000000.000,0,RJOS,,,,0,20180112000000,-1,-1,-1,-1,300,-1,12,-1,-1,-1,-1,,9999,0,0,1,FEW 20,-1,0,-1,5,1025,RJOS 120000Z 30012KT 9999 FEW020 M00/M05 Q1025 RMK 1CU020     A3029=,
20180112_000000.003,0,RJOS,,,,0,20180112000000,-1,-1,-1,-1,300,-1,12,-1,-1,-1,-1,,9999,0,0,1,FEW 20,-1,0,-1,5,1025,RJOS 120000Z 30012KT 9999 FEW020 M00/M05 Q1025 RMK 1CU020     A3029=,
20180112_010000.000,0,RJOS,,,,0,20180112010000,-1,-1,-1,-1,290,-1,12,-1,-1,-1,-1,,9999,0,0,1,FEW 20,1,1,-1,5,1025,RJOS 120100Z 29012KT 9999 FEW020 01/M05 Q1025 RMK 1CU020 A3029=,
20180112_010000.004,0,RJOS,,,,0,20180112010000,-1,-1,-1,-1,290,-1,12,-1,-1,-1,-1,,9999,0,0,1,FEW 20,1,1,-1,5,1025,RJOS 120100Z 29012KT 9999 FEW020 01/M05 Q1025 RMK 1CU020     A3029=,
20180112_020000.000,0,RJOS,,,,0,20180112020000,-1,-1,-1,-1,290,-1,13,-1,-1,-1,-1,,9999,0,0,1,FEW 25,1,2,-1,5,1024,RJOS 120200Z 29013KT 9999 FEW025 02/M05 Q1024 RMK 2CU025 A3027=,
20180112_020000.003,0,RJOS,,,,0,20180112020000,-1,-1,-1,-1,290,-1,13,-1,-1,-1,-1,,9999,0,0,1,FEW 25,1,2,-1,5,1024,RJOS 120200Z 29013KT 9999 FEW025 02/M05 Q1024 RMK 2CU025     A3027=,
20180112_030000.000,0,RJOS,,,,0,20180112030000,-1,-1,-1,-1,300,-1,12,-1,-1,-1,-1,,9999,0,0,2,FEW 20   SCT 30,1,2,-1,6,1024,RJOS 120300Z 30012KT 9999 FEW020 SCT030 02/M06 Q1024 RMK 1CU020     3CU030 A3024=,
20180112_030000.003,0,RJOS,,,,0,20180112030000,-1,-1,-1,-1,300,-1,12,-1,-1,-1,-1,,9999,0,0,2,FEW 20   SCT 30,1,2,-1,6,1024,RJOS 120300Z 30012KT 9999 FEW020 SCT030 02/M06 Q1024 RMK     1CU020 3CU030 A3024=,
20180112_040000.000,0,RJOS,,,,0,20180112040000,-1,-1,-1,-1,280,-1,10,-1,20,-1,-1,,9999,0,0,2,FEW 20   BKN 40,1,3,-1,6,1023,RJOS 120400Z 28010G20KT 9999 FEW020 BKN040 03/M06 Q1023 RMK     1CU020 5CU040 A3022=,
20180112_040000.003,0,RJOS,,,,0,20180112040000,-1,-1,-1,-1,280,-1,10,-1,20,-1,-1,,9999,0,0,2,FEW 20   BKN 40,1,3,-1,6,1023,RJOS 120400Z 28010G20KT 9999 FEW020 BKN040 03/M06 Q1023 RMK     1CU020 5CU040 A3022=,
20180112_050000.000,0,RJOS,,,,0,20180112050000,-1,-1,-1,-1,290,-1,13,-1,-1,-1,-1,,9999,0,0,1,FEW 20,1,4,-1,6,1023,RJOS 120500Z 29013KT 9999 FEW020 04/M06 Q1023 RMK 1CU020 A3021     PEAK GUST 22KT=,
20180112_050000.004,0,RJOS,,,,0,20180112050000,-1,-1,-1,-1,290,-1,13,-1,-1,-1,-1,,9999,0,0,1,FEW 20,1,4,-1,6,1023,RJOS 120500Z 29013KT 9999 FEW020 04/M06 Q1023 RMK 1CU020 A3021     PEAK GUST 22KT=,
20180112_060000.000,0,RJOS,,,,0,20180112060000,-1,-1,-1,-1,280,-1,15,-1,-1,-1,-1,,9999,0,0,1,FEW 20,1,4,-1,7,1023,RJOS 120600Z 28015KT 9999 FEW020 04/M07 Q1023 RMK 1CU020 A3023     PEAK GUST 23KT=,
20180112_060000.003,0,RJOS,,,,0,20180112060000,-1,-1,-1,-1,280,-1,15,-1,-1,-1,-1,,9999,0,0,1,FEW 20,1,4,-1,7,1023,RJOS 120600Z 28015KT 9999 FEW020 04/M07 Q1023 RMK 1CU020 A3023     PEAK GUST 23KT=,
20180112_070000.000,0,RJOS,,,,0,20180112070000,-1,-1,-1,-1,290,-1,14,-1,-1,-1,-1,,9999,0,0,1,FEW 30,1,3,-1,7,1023,RJOS 120700Z 29014KT 9999 FEW030 03/M07 Q1023 RMK 1CU030 A3023     PEAK GUST 20KT=,
20180112_070000.004,0,RJOS,,,,0,20180112070000,-1,-1,-1,-1,290,-1,14,-1,-1,-1,-1,,9999,0,0,1,FEW 30,1,3,-1,7,1023,RJOS 120700Z 29014KT 9999 FEW030 03/M07 Q1023 RMK 1CU030 A3023     PEAK GUST 20KT=,
20180112_080000.000,0,RJOS,,,,0,20180112080000,-1,-1,-1,-1,290,-1,13,-1,-1,-1,-1,,9999,0,0,1,FEW 30,1,3,-1,7,1024,RJOS 120800Z 29013KT 9999 FEW030 03/M07 Q1024 RMK 1CU030 A3025=,
20180112_080000.003,0,RJOS,,,,0,20180112080000,-1,-1,-1,-1,290,-1,13,-1,-1,-1,-1,,9999,0,0,1,FEW 30,1,3,-1,7,1024,RJOS 120800Z 29013KT 9999 FEW030 03/M07 Q1024 RMK 1CU030     A3025=,
20180112_090000.000,0,RJOS,,,,0,20180112090000,-1,-1,-1,-1,300,-1,10,-1,-1,-1,-1,,9999,0,0,1,FEW 30,1,2,-1,7,1025,RJOS 120900Z 30010KT 9999 FEW030 02/M07 Q1025 RMK 1CU030 A3027=,
20180112_090000.003,0,RJOS,,,,0,20180112090000,-1,-1,-1,-1,300,-1,10,-1,-1,-1,-1,,9999,0,0,1,FEW 30,1,2,-1,7,1025,RJOS 120900Z 30010KT 9999 FEW030 02/M07 Q1025 RMK 1CU030     A3027=,
20180112_100000.000,0,RJOS,,,,0,20180112100000,-1,-1,-1,-1,300,-1,9,-1,-1,-1,-1,,9999,0,0,1,FEW 30,1,1,-1,6,1025,RJOS 121000Z 30009KT 9999 FEW030 01/M06 Q1025 RMK 1CU030 A3028=,
20180112_100000.003,0,RJOS,,,,0,20180112100000,-1,-1,-1,-1,300,-1,9,-1,-1,-1,-1,,9999,0,0,1,FEW 30,1,1,-1,6,1025,RJOS 121000Z 30009KT 9999 FEW030 01/M06 Q1025 RMK 1CU030     A3028=,
20180112_110000.000,0,RJOS,,,,0,20180112110000,-1,-1,-1,-1,280,-1,9,-1,-1,-1,-1,,9999,0,0,1,FEW 30,1,1,-1,6,1025,RJOS 121100Z 28009KT 9999 FEW030 01/M06 Q1025 RMK 1CU030 A3030=,
20180112_110000.003,0,RJOS,,,,0,20180112110000,-1,-1,-1,-1,280,-1,9,-1,-1,-1,-1,,9999,0,0,1,FEW 30,1,1,-1,6,1025,RJOS 121100Z 28009KT 9999 FEW030 01/M06 Q1025 RMK 1CU030     A3030=,
20180112_120000.000,0,RJOS,,,,0,20180112120000,-1,-1,-1,-1,290,-1,7,-1,-1,-1,-1,,9999,0,0,1,FEW 30,1,0,-1,6,1025,RJOS 121200Z 29007KT 9999 FEW030 00/M06 Q1025 RMK 1CU030 A3030=,
20180112_120000.003,0,RJOS,,,,0,20180112120000,-1,-1,-1,-1,290,-1,7,-1,-1,-1,-1,,9999,0,0,1,FEW 30,1,0,-1,6,1025,RJOS 121200Z 29007KT 9999 FEW030 00/M06 Q1025 RMK 1CU030     A3030=,
20180112_130000.000,0,RJOS,,,,0,20180112130000,-1,-1,-1,-1,280,-1,6,-1,-1,-1,-1,,9999,0,0,1,FEW 30,-1,0,-1,5,1025,RJOS 121300Z 28006KT 9999 FEW030 M00/M05 Q1025 RMK 1CU030     A3030=,
20180112_130000.003,0,RJOS,,,,0,20180112130000,-1,-1,-1,-1,280,-1,6,-1,-1,-1,-1,,9999,0,0,1,FEW 30,-1,0,-1,5,1025,RJOS 121300Z 28006KT 9999 FEW030 M00/M05 Q1025 RMK 1CU030     A3030=,
20180112_140000.000,0,RJOS,,,,0,20180112140000,-1,-1,-1,-1,300,-1,8,-1,-1,-1,-1,,9999,0,0,1,FEW 30,-1,1,-1,5,1026,RJOS 121400Z 30008KT 9999 FEW030 M01/M05 Q1026 RMK 1CU030     A3031=,
20180112_140000.003,0,RJOS,,,,0,20180112140000,-1,-1,-1,-1,300,-1,8,-1,-1,-1,-1,,9999,0,0,1,FEW 30,-1,1,-1,5,1026,RJOS 121400Z 30008KT 9999 FEW030 M01/M05 Q1026 RMK 1CU030     A3031=,
20180112_150000.000,0,RJOS,,,,0,20180112150000,-1,-1,-1,-1,290,-1,8,-1,-1,-1,-1,,9999,0,0,1,FEW 30,-1,1,-1,4,1026,RJOS 121500Z 29008KT 9999 FEW030 M01/M04 Q1026 RMK 1CU030     A3032=,
20180112_150000.003,0,RJOS,,,,0,20180112150000,-1,-1,-1,-1,290,-1,8,-1,-1,-1,-1,,9999,0,0,1,FEW 30,-1,1,-1,4,1026,RJOS 121500Z 29008KT 9999 FEW030 M01/M04 Q1026 RMK 1CU030     A3032=,
20180112_160000.000,0,RJOS,,,,0,20180112160000,-1,-1,-1,-1,300,-1,8,-1,-1,-1,-1,,9999,0,0,1,FEW 30,-1,1,-1,4,1026,RJOS 121600Z 30008KT 9999 FEW030 M01/M04 Q1026 RMK 1CU030     A3032=,
20180112_160000.003,0,RJOS,,,,0,20180112160000,-1,-1,-1,-1,300,-1,8,-1,-1,-1,-1,,9999,0,0,1,FEW 30,-1,1,-1,4,1026,RJOS 121600Z 30008KT 9999 FEW030 M01/M04 Q1026 RMK 1CU030     A3032=,
20180112_170000.000,0,RJOS,,,,0,20180112170000,-1,-1,-1,-1,290,-1,7,-1,-1,-1,-1,,9999,0,0,2,FEW 20   SCT 40,-1,1,-1,3,1026,RJOS 121700Z 29007KT 9999 FEW020 SCT040 M01/M03 Q1026 RMK     1CU020 3CU040 A3032=,
20180112_170000.003,0,RJOS,,,,0,20180112170000,-1,-1,-1,-1,290,-1,7,-1,-1,-1,-1,,9999,0,0,2,FEW 20   SCT 40,-1,1,-1,3,1026,RJOS 121700Z 29007KT 9999 FEW020 SCT040 M01/M03 Q1026 RMK     1CU020 3CU040 A3032=,
20180112_180000.000,0,RJOS,,,,0,20180112180000,-1,-1,-1,-1,300,-1,4,-1,-1,-1,-1,,9999,0,0,1,FEW 20,-1,1,-1,3,1026,RJOS 121800Z 30004KT 9999 FEW020 M01/M03 Q1026 RMK 1CU020     A3032=,
20180112_180000.003,0,RJOS,,,,0,20180112180000,-1,-1,-1,-1,300,-1,4,-1,-1,-1,-1,,9999,0,0,1,FEW 20,-1,1,-1,3,1026,RJOS 121800Z 30004KT 9999 FEW020 M01/M03 Q1026 RMK 1CU020     A3032=,
20180112_190000.000,0,RJOS,,,,0,20180112190000,-1,-1,-1,-1,260,-1,5,-1,-1,230,290,,9999,0,0,1,FEW 20,-1,1,-1,4,1026,RJOS 121900Z 26005KT 230V290 9999 FEW020 M01/M04 Q1026 RMK     1CU020 A3030=,
20180112_190000.003,0,RJOS,,,,0,20180112190000,-1,-1,-1,-1,260,-1,5,-1,-1,230,290,,9999,0,0,1,FEW 20,-1,1,-1,4,1026,RJOS 121900Z 26005KT 230V290 9999 FEW020 M01/M04 Q1026 RMK     1CU020 A3030=,
20180112_200000.000,0,RJOS,,,,0,20180112200000,-1,-1,-1,-1,310,-1,5,-1,-1,-1,-1,,9999,0,0,1,FEW 20,-1,1,-1,4,1026,RJOS 122000Z 31005KT 9999 FEW020 M01/M04 Q1026 RMK 1CU020     A3031=,
20180112_200000.004,0,RJOS,,,,0,20180112200000,-1,-1,-1,-1,310,-1,5,-1,-1,-1,-1,,9999,0,0,1,FEW 20,-1,1,-1,4,1026,RJOS 122000Z 31005KT 9999 FEW020 M01/M04 Q1026 RMK 1CU020     A3031=,
20180112_210000.000,0,RJOS,,,,0,20180112210000,-1,-1,-1,-1,300,-1,7,-1,-1,-1,-1,,9999,0,0,1,FEW 20,-1,1,-1,4,1026,RJOS 122100Z 30007KT 9999 FEW020 M01/M04 Q1026 RMK 1CU020     A3031=,
20180112_210000.003,0,RJOS,,,,0,20180112210000,-1,-1,-1,-1,300,-1,7,-1,-1,-1,-1,,9999,0,0,1,FEW 20,-1,1,-1,4,1026,RJOS 122100Z 30007KT 9999 FEW020 M01/M04 Q1026 RMK 1CU020     A3031=,
20180112_220000.000,0,RJOS,,,,0,20180112220000,-1,-1,-1,-1,290,-1,10,-1,-1,-1,-1,,9999,0,0,1,FEW 25,-1,1,-1,5,1026,RJOS 122200Z 29010KT 9999 FEW025 M01/M05 Q1026 RMK 1CU025     A3032=,
20180112_220000.003,0,RJOS,,,,0,20180112220000,-1,-1,-1,-1,290,-1,10,-1,-1,-1,-1,,9999,0,0,1,FEW 25,-1,1,-1,5,1026,RJOS 122200Z 29010KT 9999 FEW025 M01/M05 Q1026 RMK 1CU025     A3032=,
20180112_230000.000,0,RJOS,,,,0,20180112230000,-1,-1,-1,-1,290,-1,10,-1,-1,-1,-1,,9999,0,0,1,FEW 25,-1,0,-1,4,1027,RJOS 122300Z 29010KT 9999 FEW025 M00/M04 Q1027 RMK 1CU025     A3033=,
20180112_230000.003,0,RJOS,,,,0,20180112230000,-1,-1,-1,-1,290,-1,10,-1,-1,-1,-1,,9999,0,0,1,FEW 25,-1,0,-1,4,1027,RJOS 122300Z 29010KT 9999 FEW025 M00/M04 Q1027 RMK 1CU025     A3033=,
20180113_000000.000,0,RJOS,,,,0,20180113000000,-1,-1,-1,-1,310,-1,8,-1,-1,-1,-1,,9999,0,0,1,FEW 25,1,1,-1,4,1027,RJOS 130000Z 31008KT 9999 FEW025 01/M04 Q1027 RMK 1CU025 A3034=,
20180113_000000.003,0,RJOS,,,,0,20180113000000,-1,-1,-1,-1,310,-1,8,-1,-1,-1,-1,,9999,0,0,1,FEW 25,1,1,-1,4,1027,RJOS 130000Z 31008KT 9999 FEW025 01/M04 Q1027 RMK 1CU025     A3034=,
20180113_010000.000,0,RJOS,,,,0,20180113010000,-1,-1,-1,-1,280,-1,14,-1,-1,-1,-1,,9999,0,0,1,FEW 25,1,3,-1,4,1027,RJOS 130100Z 28014KT 9999 FEW025 03/M04 Q1027 RMK 1CU025 A3035=,
20180113_010000.004,0,RJOS,,,,0,20180113010000,-1,-1,-1,-1,280,-1,14,-1,-1,-1,-1,,9999,0,0,1,FEW 25,1,3,-1,4,1027,RJOS 130100Z 28014KT 9999 FEW025 03/M04 Q1027 RMK 1CU025     A3035=,
20180113_020000.000,0,RJOS,,,,0,20180113020000,-1,-1,-1,-1,280,-1,12,-1,-1,-1,-1,,9999,0,0,2,FEW 25   SCT 40,1,4,-1,4,1027,RJOS 130200Z 28012KT 9999 FEW025 SCT040 04/M04 Q1027 RMK 1CU025     3CU040 A3033=,
20180113_020000.003,0,RJOS,,,,0,20180113020000,-1,-1,-1,-1,280,-1,12,-1,-1,-1,-1,,9999,0,0,2,FEW 25   SCT 40,1,4,-1,4,1027,RJOS 130200Z 28012KT 9999 FEW025 SCT040 04/M04 Q1027 RMK     1CU025 3CU040 A3033=,
20180113_030000.000,0,RJOS,,,,0,20180113030000,-1,-1,-1,-1,280,-1,16,-1,-1,-1,-1,,9999,0,0,2,FEW 25   SCT 40,1,5,-1,4,1026,RJOS 130300Z 28016KT 9999 FEW025 SCT040 05/M04 Q1026 RMK 1CU025     4CU040 A3031=,
20180113_030000.003,0,RJOS,,,,0,20180113030000,-1,-1,-1,-1,280,-1,16,-1,-1,-1,-1,,9999,0,0,2,FEW 25   SCT 40,1,5,-1,4,1026,RJOS 130300Z 28016KT 9999 FEW025 SCT040 05/M04 Q1026 RMK     1CU025 4CU040 A3031=,
20180113_040000.000,0,RJOS,,,,0,20180113040000,-1,-1,-1,-1,280,-1,14,-1,-1,-1,-1,,9999,0,0,2,FEW 25   BKN 40,1,5,-1,4,1025,RJOS 130400Z 28014KT 9999 FEW025 BKN040 05/M04 Q1025 RMK 1CU025     5CU040 A3030=,
20180113_040000.003,0,RJOS,,,,0,20180113040000,-1,-1,-1,-1,280,-1,14,-1,-1,-1,-1,,9999,0,0,2,FEW 25   BKN 40,1,5,-1,4,1025,RJOS 130400Z 28014KT 9999 FEW025 BKN040 05/M04 Q1025 RMK     1CU025 5CU040 A3030=,
20180113_050000.000,0,RJOS,,,,0,20180113050000,-1,-1,-1,-1,290,-1,14,-1,-1,-1,-1,,9999,0,0,2,FEW 25   BKN 40,1,6,-1,3,1025,RJOS 130500Z 29014KT 9999 FEW025 BKN040 06/M03 Q1025 RMK 1CU025     5CU040 A3029=,
20180113_050000.003,0,RJOS,,,,0,20180113050000,-1,-1,-1,-1,290,-1,14,-1,-1,-1,-1,,9999,0,0,2,FEW 25   BKN 40,1,6,-1,3,1025,RJOS 130500Z 29014KT 9999 FEW025 BKN040 06/M03 Q1025 RMK     1CU025 5CU040 A3029=,
20180113_060000.000,0,RJOS,,,,0,20180113060000,-1,-1,-1,-1,290,-1,14,-1,-1,-1,-1,,9999,0,0,2,FEW 25   SCT 40,1,6,-1,3,1026,RJOS 130600Z 29014KT 9999 FEW025 SCT040 06/M03 Q1026 RMK 1CU025     3CU040 A3030=,
20180113_060000.003,0,RJOS,,,,0,20180113060000,-1,-1,-1,-1,290,-1,14,-1,-1,-1,-1,,9999,0,0,2,FEW 25   SCT 40,1,6,-1,3,1026,RJOS 130600Z 29014KT 9999 FEW025 SCT040 06/M03 Q1026 RMK     1CU025 3CU040 A3030=,
20180113_070000.000,0,RJOS,,,,0,20180113070000,-1,-1,-1,-1,310,-1,10,-1,-1,-1,-1,,9999,0,0,2,FEW 25   SCT 40,1,6,-1,4,1026,RJOS 130700Z 31010KT 9999 FEW025 SCT040 06/M04 Q1026 RMK 1CU025     4CU040 A3031=,
20180113_070000.003,0,RJOS,,,,0,20180113070000,-1,-1,-1,-1,310,-1,10,-1,-1,-1,-1,,9999,0,0,2,FEW 25   SCT 40,1,6,-1,4,1026,RJOS 130700Z 31010KT 9999 FEW025 SCT040 06/M04 Q1026 RMK     1CU025 4CU040 A3031=,
20180113_080000.000,0,RJOS,,,,0,20180113080000,-1,-1,-1,-1,290,-1,12,-1,-1,-1,-1,,9999,0,0,1,FEW 25,1,4,-1,2,1026,RJOS 130800Z 29012KT 9999 FEW025 04/M02 Q1026 RMK 1CU025 A3032=,
20180113_080000.003,0,RJOS,,,,0,20180113080000,-1,-1,-1,-1,290,-1,12,-1,-1,-1,-1,,9999,0,0,1,FEW 25,1,4,-1,2,1026,RJOS 130800Z 29012KT 9999 FEW025 04/M02 Q1026 RMK 1CU025     A3032=,
20180113_090000.000,0,RJOS,,,,0,20180113090000,-1,-1,-1,-1,290,-1,10,-1,-1,-1,-1,,9999,0,0,2,FEW 25   SCT 50,1,4,-1,2,1027,RJOS 130900Z 29010KT 9999 FEW025 SCT050 04/M02 Q1027 RMK 1CU025     4SC050 A3035=,
20180113_090000.003,0,RJOS,,,,0,20180113090000,-1,-1,-1,-1,290,-1,10,-1,-1,-1,-1,,9999,0,0,2,FEW 25   SCT 50,1,4,-1,2,1027,RJOS 130900Z 29010KT 9999 FEW025 SCT050 04/M02 Q1027 RMK     1CU025 4SC050 A3035=,
20180113_100000.000,0,RJOS,,,,0,20180113100000,-1,-1,-1,-1,270,-1,9,-1,-1,-1,-1,,9999,0,0,2,FEW 25   SCT 50,1,3,-1,2,1027,RJOS 131000Z 27009KT 9999 FEW025 SCT050 03/M02 Q1027 RMK 1CU025     3SC050 A3035=,
20180113_100000.003,0,RJOS,,,,0,20180113100000,-1,-1,-1,-1,270,-1,9,-1,-1,-1,-1,,9999,0,0,2,FEW 25   SCT 50,1,3,-1,2,1027,RJOS 131000Z 27009KT 9999 FEW025 SCT050 03/M02 Q1027 RMK     1CU025 3SC050 A3035=,
20180113_110000.000,0,RJOS,,,,0,20180113110000,-1,-1,-1,-1,280,-1,6,-1,-1,250,350,,9999,0,0,1,FEW 25,1,3,-1,3,1028,RJOS 131100Z 28006KT 250V350 9999 FEW025 03/M03 Q1028 RMK     1CU025 A3037=,
20180113_110000.003,0,RJOS,,,,0,20180113110000,-1,-1,-1,-1,280,-1,6,-1,-1,250,350,,9999,0,0,1,FEW 25,1,3,-1,3,1028,RJOS 131100Z 28006KT 250V350 9999 FEW025 03/M03 Q1028 RMK     1CU025 A3037=,
20180113_120000.000,0,RJOS,,,,0,20180113120000,-1,-1,-1,-1,310,-1,7,-1,-1,-1,-1,,9999,0,0,2,FEW 20   SCT 40,1,3,-1,4,1028,RJOS 131200Z 31007KT 9999 FEW020 SCT040 03/M04 Q1028 RMK 1CU020     3CU040 A3038=,
20180113_120000.003,0,RJOS,,,,0,20180113120000,-1,-1,-1,-1,310,-1,7,-1,-1,-1,-1,,9999,0,0,2,FEW 20   SCT 40,1,3,-1,4,1028,RJOS 131200Z 31007KT 9999 FEW020 SCT040 03/M04 Q1028 RMK     1CU020 3CU040 A3038=,
20180113_130000.000,0,RJOS,,,,0,20180113130000,-1,-1,-1,-1,310,-1,7,-1,-1,-1,-1,,9999,0,0,2,FEW 25   SCT 40,1,3,-1,4,1029,RJOS 131300Z 31007KT 9999 FEW025 SCT040 03/M04 Q1029 RMK 1CU025     3CU040 A3039=,
20180113_130000.003,0,RJOS,,,,0,20180113130000,-1,-1,-1,-1,310,-1,7,-1,-1,-1,-1,,9999,0,0,2,FEW 25   SCT 40,1,3,-1,4,1029,RJOS 131300Z 31007KT 9999 FEW025 SCT040 03/M04 Q1029 RMK     1CU025 3CU040 A3039=,
20180113_140000.000,0,RJOS,,,,0,20180113140000,-1,-1,-1,-1,310,-1,11,-1,-1,-1,-1,,9999,0,0,1,FEW 25,1,3,-1,4,1029,RJOS 131400Z 31011KT 9999 FEW025 03/M04 Q1029 RMK 1CU025 A3040=,
20180113_140000.004,0,RJOS,,,,0,20180113140000,-1,-1,-1,-1,310,-1,11,-1,-1,-1,-1,,9999,0,0,1,FEW 25,1,3,-1,4,1029,RJOS 131400Z 31011KT 9999 FEW025 03/M04 Q1029 RMK 1CU025     A3040=,
20180113_150000.000,0,RJOS,,,,0,20180113150000,-1,-1,-1,-1,310,-1,8,-1,-1,290,360,,9999,0,0,1,FEW 25,1,3,-1,4,1029,RJOS 131500Z 31008KT 290V360 9999 FEW025 03/M04 Q1029 RMK     1CU025 A3041=,
20180113_150000.003,0,RJOS,,,,0,20180113150000,-1,-1,-1,-1,310,-1,8,-1,-1,290,360,,9999,0,0,1,FEW 25,1,3,-1,4,1029,RJOS 131500Z 31008KT 290V360 9999 FEW025 03/M04 Q1029 RMK     1CU025 A3041=,
20180113_160000.000,0,RJOS,,,,0,20180113160000,-1,-1,-1,-1,310,-1,10,-1,-1,-1,-1,,9999,0,0,1,FEW 25,1,3,-1,3,1029,RJOS 131600Z 31010KT 9999 FEW025 03/M03 Q1029 RMK 1CU025 A3040=,
20180113_160000.003,0,RJOS,,,,0,20180113160000,-1,-1,-1,-1,310,-1,10,-1,-1,-1,-1,,9999,0,0,1,FEW 25,1,3,-1,3,1029,RJOS 131600Z 31010KT 9999 FEW025 03/M03 Q1029 RMK 1CU025     A3040=,
20180113_170000.000,0,RJOS,,,,0,20180113170000,-1,-1,-1,-1,310,-1,10,-1,-1,-1,-1,,9999,0,0,1,FEW 25,1,3,-1,3,1029,RJOS 131700Z 31010KT 9999 FEW025 03/M03 Q1029 RMK 1CU025 A3041=,
20180113_170000.003,0,RJOS,,,,0,20180113170000,-1,-1,-1,-1,310,-1,10,-1,-1,-1,-1,,9999,0,0,1,FEW 25,1,3,-1,3,1029,RJOS 131700Z 31010KT 9999 FEW025 03/M03 Q1029 RMK 1CU025     A3041=,
20180113_180000.000,0,RJOS,,,,0,20180113180000,-1,-1,-1,-1,320,-1,9,-1,-1,-1,-1,,9999,0,0,1,FEW 30,1,3,-1,3,1029,RJOS 131800Z 32009KT 9999 FEW030 03/M03 Q1029 RMK 1CU030 A3041=,
20180113_180000.003,0,RJOS,,,,0,20180113180000,-1,-1,-1,-1,320,-1,9,-1,-1,-1,-1,,9999,0,0,1,FEW 30,1,3,-1,3,1029,RJOS 131800Z 32009KT 9999 FEW030 03/M03 Q1029 RMK 1CU030     A3041=,
20180113_190000.000,0,RJOS,,,,0,20180113190000,-1,-1,-1,-1,320,-1,9,-1,-1,-1,-1,,9999,0,0,2,FEW 15   SCT 30,1,2,-1,2,1029,RJOS 131900Z 32009KT 9999 FEW015 SCT030 02/M02 Q1029 RMK 1CU015     3CU030 A3041=,
20180113_190000.004,0,RJOS,,,,0,20180113190000,-1,-1,-1,-1,320,-1,9,-1,-1,-1,-1,,9999,0,0,2,FEW 15   SCT 30,1,2,-1,2,1029,RJOS 131900Z 32009KT 9999 FEW015 SCT030 02/M02 Q1029 RMK     1CU015 3CU030 A3041=,
20180113_200000.000,0,RJOS,,,,0,20180113200000,-1,-1,-1,-1,320,-1,6,-1,-1,-1,-1,,9999,0,0,2,FEW 15   SCT 35,1,2,-1,2,1030,RJOS 132000Z 32006KT 9999 FEW015 SCT035 02/M02 Q1030 RMK 1CU015     3CU035 A3043=,
20180113_200000.004,0,RJOS,,,,0,20180113200000,-1,-1,-1,-1,320,-1,6,-1,-1,-1,-1,,9999,0,0,2,FEW 15   SCT 35,1,2,-1,2,1030,RJOS 132000Z 32006KT 9999 FEW015 SCT035 02/M02 Q1030 RMK     1CU015 3CU035 A3043=,
20180113_210000.000,0,RJOS,,,,0,20180113210000,-1,-1,-1,-1,310,-1,5,-1,-1,-1,-1,,9999,0,0,2,FEW 20   BKN 35,1,2,-1,2,1030,RJOS 132100Z 31005KT 9999 FEW020 BKN035 02/M02 Q1030 RMK 1CU020     5CU035 A3043=,
20180113_210000.003,0,RJOS,,,,0,20180113210000,-1,-1,-1,-1,310,-1,5,-1,-1,-1,-1,,9999,0,0,2,FEW 20   BKN 35,1,2,-1,2,1030,RJOS 132100Z 31005KT 9999 FEW020 BKN035 02/M02 Q1030 RMK     1CU020 5CU035 A3043=,
20180113_220000.000,0,RJOS,,,,0,20180113220000,-1,-1,-1,-1,290,-1,5,-1,-1,-1,-1,,9999,0,0,2,FEW 20   BKN 35,1,1,-1,2,1030,RJOS 132200Z 29005KT 9999 FEW020 BKN035 01/M02 Q1030 RMK 1CU020     6CU035 A3044=,
20180113_220000.003,0,RJOS,,,,0,20180113220000,-1,-1,-1,-1,290,-1,5,-1,-1,-1,-1,,9999,0,0,2,FEW 20   BKN 35,1,1,-1,2,1030,RJOS 132200Z 29005KT 9999 FEW020 BKN035 01/M02 Q1030 RMK     1CU020 6CU035 A3044=,
20180113_230000.000,0,RJOS,,,,0,20180113230000,-1,-1,-1,-1,280,-1,6,-1,-1,-1,-1,,9999,0,0,2,FEW 20   BKN 35,1,1,-1,2,1031,RJOS 132300Z 28006KT 9999 FEW020 BKN035 01/M02 Q1031 RMK 1CU020     5CU035 A3046=,
20180113_230000.003,0,RJOS,,,,0,20180113230000,-1,-1,-1,-1,280,-1,6,-1,-1,-1,-1,,9999,0,0,2,FEW 20   BKN 35,1,1,-1,2,1031,RJOS 132300Z 28006KT 9999 FEW020 BKN035 01/M02 Q1031 RMK     1CU020 5CU035 A3046=,
20180114_000000.000,0,RJOS,,,,0,20180114000000,-1,-1,-1,-1,280,-1,7,-1,-1,-1,-1,,9999,0,0,2,FEW 20   BKN 35,1,2,-1,2,1032,RJOS 140000Z 28007KT 9999 FEW020 BKN035 02/M02 Q1032 RMK 1CU020     5CU035 A3049=,
20180114_000000.004,0,RJOS,,,,0,20180114000000,-1,-1,-1,-1,280,-1,7,-1,-1,-1,-1,,9999,0,0,2,FEW 20   BKN 35,1,2,-1,2,1032,RJOS 140000Z 28007KT 9999 FEW020 BKN035 02/M02 Q1032 RMK     1CU020 5CU035 A3049=,
20180114_010000.000,0,RJOS,,,,0,20180114010000,-1,-1,-1,-1,280,-1,7,-1,-1,-1,-1,,9999,0,0,2,FEW 20   BKN 35,1,2,-1,2,1033,RJOS 140100Z 28007KT 9999 FEW020 BKN035 02/M02 Q1033 RMK 1CU020     6CU035 A3052=,
20180114_010000.003,0,RJOS,,,,0,20180114010000,-1,-1,-1,-1,280,-1,7,-1,-1,-1,-1,,9999,0,0,2,FEW 20   BKN 35,1,2,-1,2,1033,RJOS 140100Z 28007KT 9999 FEW020 BKN035 02/M02 Q1033 RMK     1CU020 6CU035 A3052=,
20180114_020000.000,0,RJOS,,,,0,20180114020000,-1,-1,-1,-1,280,-1,4,-1,-1,-1,-1,,9999,0,0,2,FEW 20   BKN 35,1,4,-1,2,1032,RJOS 140200Z 28004KT 9999 FEW020 BKN035 04/M02 Q1032 RMK 1CU020     5CU035 A3050=,
20180114_020000.003,0,RJOS,,,,0,20180114020000,-1,-1,-1,-1,280,-1,4,-1,-1,-1,-1,,9999,0,0,2,FEW 20   BKN 35,1,4,-1,2,1032,RJOS 140200Z 28004KT 9999 FEW020 BKN035 04/M02 Q1032 RMK     1CU020 5CU035 A3050=,
20180114_030000.000,0,RJOS,,,,0,20180114030000,-1,-1,-1,-1,290,-1,7,-1,-1,-1,-1,,9999,0,0,2,FEW 20   BKN 40,1,5,-1,2,1032,RJOS 140300Z 29007KT 9999 FEW020 BKN040 05/M02 Q1032 RMK 1CU020     5CU040 A3048=,
20180114_030000.003,0,RJOS,,,,0,20180114030000,-1,-1,-1,-1,290,-1,7,-1,-1,-1,-1,,9999,0,0,2,FEW 20   BKN 40,1,5,-1,2,1032,RJOS 140300Z 29007KT 9999 FEW020 BKN040 05/M02 Q1032 RMK     1CU020 5CU040 A3048=,
20180114_040000.000,0,RJOS,,,,0,20180114040000,-1,-1,-1,-1,10,-1,5,-1,-1,300,40,,9999,0,0,2,SCT 20   SCT 40,1,6,-1,5,1030,RJOS 140400Z 01005KT 300V040 9999 SCT020 SCT040 06/M05 Q1030     RMK 3CU020 4CU040 A3044=,
20180114_040000.003,0,RJOS,,,,0,20180114040000,-1,-1,-1,-1,10,-1,5,-1,-1,300,40,,9999,0,0,2,SCT 20   SCT 40,1,6,-1,5,1030,RJOS 140400Z 01005KT 300V040 9999 SCT020 SCT040 06/M05 Q1030     RMK 3CU020 4CU040 A3044=,
20180114_050000.000,0,RJOS,,,,0,20180114050000,-1,-1,-1,-1,10,-1,10,-1,-1,-1,-1,,9999,0,0,2,SCT 25   BKN 250,1,6,-1,5,1030,RJOS 140500Z 01010KT 9999 SCT025 BKN250 06/M05 Q1030 RMK 4CU025     A3042=,
20180114_050000.003,0,RJOS,,,,0,20180114050000,-1,-1,-1,-1,10,-1,10,-1,-1,-1,-1,,9999,0,0,2,SCT 25   BKN 250,1,6,-1,5,1030,RJOS 140500Z 01010KT 9999 SCT025 BKN250 06/M05 Q1030 RMK     4CU025 A3042=,
20180114_060000.000,0,RJOS,,,,0,20180114060000,-1,-1,-1,-1,10,-1,9,-1,-1,-1,-1,,9999,0,0,2,FEW 25   BKN 250,1,6,-1,5,1029,RJOS 140600Z 01009KT 9999 FEW025 BKN250 06/M05 Q1029 RMK 2CU025     A3041=,
20180114_060000.004,0,RJOS,,,,0,20180114060000,-1,-1,-1,-1,10,-1,9,-1,-1,-1,-1,,9999,0,0,2,FEW 25   BKN 250,1,6,-1,5,1029,RJOS 140600Z 01009KT 9999 FEW025 BKN250 06/M05 Q1029 RMK     2CU025 A3041=,
20180114_070000.000,0,RJOS,,,,0,20180114070000,-1,-1,-1,-1,40,-1,7,-1,-1,-1,-1,,9999,0,0,2,FEW 25   BKN 250,1,6,-1,5,1029,RJOS 140700Z 04007KT 9999 FEW025 BKN250 06/M05 Q1029 RMK 2CU025     A3041=,
20180114_070000.003,0,RJOS,,,,0,20180114070000,-1,-1,-1,-1,40,-1,7,-1,-1,-1,-1,,9999,0,0,2,FEW 25   BKN 250,1,6,-1,5,1029,RJOS 140700Z 04007KT 9999 FEW025 BKN250 06/M05 Q1029 RMK     2CU025 A3041=,
20180114_080000.000,0,RJOS,,,,0,20180114080000,-1,-1,-1,-1,20,-1,7,-1,-1,-1,-1,,9999,0,0,2,FEW 25   BKN 250,1,5,-1,4,1029,RJOS 140800Z 02007KT 9999 FEW025 BKN250 05/M04 Q1029 RMK 1CU025     A3041=,
20180114_080000.003,0,RJOS,,,,0,20180114080000,-1,-1,-1,-1,20,-1,7,-1,-1,-1,-1,,9999,0,0,2,FEW 25   BKN 250,1,5,-1,4,1029,RJOS 140800Z 02007KT 9999 FEW025 BKN250 05/M04 Q1029 RMK     1CU025 A3041=,
20180114_090000.000,0,RJOS,,,,0,20180114090000,-1,-1,-1,-1,360,-1,4,-1,-1,-1,-1,,9999,0,0,3,FEW 25   SCT 180   BKN 250,1,4,-1,3,1030,RJOS 140900Z 36004KT 9999 FEW025 SCT180 BKN250 04/M03 Q1030 RMK     1CU025 4AC180 A3042=,
20180114_090000.003,0,RJOS,,,,0,20180114090000,-1,-1,-1,-1,360,-1,4,-1,-1,-1,-1,,9999,0,0,3,FEW 25   SCT 180   BKN 250,1,4,-1,3,1030,RJOS 140900Z 36004KT 9999 FEW025 SCT180 BKN250 04/M03 Q1030     RMK 1CU025 4AC180 A3042=,
20180114_100000.000,0,RJOS,,,,0,20180114100000,-1,-1,-1,-1,310,-1,3,-1,-1,-1,-1,,9999,0,0,3,FEW 25   BKN 180   BKN 250,1,3,-1,3,1029,RJOS 141000Z 31003KT 9999 FEW025 BKN180 BKN250 03/M03 Q1029 RMK     1CU025 5AC180 A3041=,
20180114_100000.003,0,RJOS,,,,0,20180114100000,-1,-1,-1,-1,310,-1,3,-1,-1,-1,-1,,9999,0,0,3,FEW 25   BKN 180   BKN 250,1,3,-1,3,1029,RJOS 141000Z 31003KT 9999 FEW025 BKN180 BKN250 03/M03 Q1029     RMK 1CU025 5AC180 A3041=,
20180114_110000.000,0,RJOS,,,,0,20180114110000,-1,-1,-1,-1,300,-1,3,-1,-1,-1,-1,,9999,0,0,3,FEW 25   SCT 180   BKN 250,1,2,-1,3,1030,RJOS 141100Z 30003KT 9999 FEW025 SCT180 BKN250 02/M03 Q1030 RMK     1CU025 3AC180 A3042=,
20180114_110000.003,0,RJOS,,,,0,20180114110000,-1,-1,-1,-1,300,-1,3,-1,-1,-1,-1,,9999,0,0,3,FEW 25   SCT 180   BKN 250,1,2,-1,3,1030,RJOS 141100Z 30003KT 9999 FEW025 SCT180 BKN250 02/M03 Q1030     RMK 1CU025 3AC180 A3042=,
20180114_120000.000,0,RJOS,,,,0,20180114120000,-1,-1,-1,-1,290,-1,6,-1,-1,-1,-1,,9999,0,0,2,FEW 25   BKN 250,1,2,-1,2,1030,RJOS 141200Z 29006KT 9999 FEW025 BKN250 02/M02 Q1030 RMK 1CU025     A3043=,
20180114_120000.003,0,RJOS,,,,0,20180114120000,-1,-1,-1,-1,290,-1,6,-1,-1,-1,-1,,9999,0,0,2,FEW 25   BKN 250,1,2,-1,2,1030,RJOS 141200Z 29006KT 9999 FEW025 BKN250 02/M02 Q1030 RMK     1CU025 A3043=,
20180114_130000.000,0,RJOS,,,,0,20180114130000,-1,-1,-1,-1,300,-1,6,-1,-1,-1,-1,,9999,0,0,2,FEW 25   BKN 250,1,1,-1,3,1030,RJOS 141300Z 30006KT 9999 FEW025 BKN250 01/M03 Q1030 RMK 1CU025     A3042=,
20180114_130000.004,0,RJOS,,,,0,20180114130000,-1,-1,-1,-1,300,-1,6,-1,-1,-1,-1,,9999,0,0,2,FEW 25   BKN 250,1,1,-1,3,1030,RJOS 141300Z 30006KT 9999 FEW025 BKN250 01/M03 Q1030 RMK     1CU025 A3042=,
20180114_140000.000,0,RJOS,,,,0,20180114140000,-1,-1,-1,-1,300,-1,8,-1,-1,-1,-1,,9999,0,0,2,FEW 25   SCT 250,1,1,-1,2,1030,RJOS 141400Z 30008KT 9999 FEW025 SCT250 01/M02 Q1030 RMK 1CU025     A3042=,
20180114_140000.003,0,RJOS,,,,0,20180114140000,-1,-1,-1,-1,300,-1,8,-1,-1,-1,-1,,9999,0,0,2,FEW 25   SCT 250,1,1,-1,2,1030,RJOS 141400Z 30008KT 9999 FEW025 SCT250 01/M02 Q1030 RMK     1CU025 A3042=,
20180114_150000.000,0,RJOS,,,,0,20180114150000,-1,-1,-1,-1,300,-1,7,-1,-1,-1,-1,,9999,0,0,1,FEW 25,1,0,-1,2,1029,RJOS 141500Z 30007KT 9999 FEW025 00/M02 Q1029 RMK 1CU025 A3041=,
20180114_150000.003,0,RJOS,,,,0,20180114150000,-1,-1,-1,-1,300,-1,7,-1,-1,-1,-1,,9999,0,0,1,FEW 25,1,0,-1,2,1029,RJOS 141500Z 30007KT 9999 FEW025 00/M02 Q1029 RMK 1CU025     A3041=,
20180114_160000.000,0,RJOS,,,,0,20180114160000,-1,-1,-1,-1,300,-1,8,-1,-1,-1,-1,,9999,0,0,1,FEW 25,-1,0,-1,2,1029,RJOS 141600Z 30008KT 9999 FEW025 M00/M02 Q1029 RMK 1CU025     A3039=,
20180114_160000.003,0,RJOS,,,,0,20180114160000,-1,-1,-1,-1,300,-1,8,-1,-1,-1,-1,,9999,0,0,1,FEW 25,-1,0,-1,2,1029,RJOS 141600Z 30008KT 9999 FEW025 M00/M02 Q1029 RMK 1CU025     A3039=,
20180114_170000.000,0,RJOS,,,,0,20180114170000,-1,-1,-1,-1,310,-1,6,-1,-1,-1,-1,,9999,0,0,1,FEW 25,-1,0,-1,3,1028,RJOS 141700Z 31006KT 9999 FEW025 M00/M03 Q1028 RMK 1CU025     A3038=,
20180114_170000.003,0,RJOS,,,,0,20180114170000,-1,-1,-1,-1,310,-1,6,-1,-1,-1,-1,,9999,0,0,1,FEW 25,-1,0,-1,3,1028,RJOS 141700Z 31006KT 9999 FEW025 M00/M03 Q1028 RMK 1CU025     A3038=,
20180114_180000.000,0,RJOS,,,,0,20180114180000,-1,-1,-1,-1,290,-1,8,-1,-1,-1,-1,,9999,0,0,1,FEW 25,-1,1,-1,2,1028,RJOS 141800Z 29008KT 9999 FEW025 M01/M02 Q1028 RMK 1CU025     A3038=,
20180114_180000.004,0,RJOS,,,,0,20180114180000,-1,-1,-1,-1,290,-1,8,-1,-1,-1,-1,,9999,0,0,1,FEW 25,-1,1,-1,2,1028,RJOS 141800Z 29008KT 9999 FEW025 M01/M02 Q1028 RMK 1CU025     A3038=,
20180114_190000.000,0,RJOS,,,,0,20180114190000,-1,-1,-1,-1,290,-1,9,-1,-1,-1,-1,,9999,0,0,1,FEW 25,-1,1,-1,3,1028,RJOS 141900Z 29009KT 9999 FEW025 M01/M03 Q1028 RMK 1CU025     A3037=,
20180114_190000.003,0,RJOS,,,,0,20180114190000,-1,-1,-1,-1,290,-1,9,-1,-1,-1,-1,,9999,0,0,1,FEW 25,-1,1,-1,3,1028,RJOS 141900Z 29009KT 9999 FEW025 M01/M03 Q1028 RMK 1CU025     A3037=,
20180114_200000.000,0,RJOS,,,,0,20180114200000,-1,-1,-1,-1,290,-1,8,-1,-1,-1,-1,,9999,0,0,1,FEW 25,-1,1,-1,3,1028,RJOS 142000Z 29008KT 9999 FEW025 M01/M03 Q1028 RMK 1CU025     A3037=,
20180114_200000.004,0,RJOS,,,,0,20180114200000,-1,-1,-1,-1,290,-1,8,-1,-1,-1,-1,,9999,0,0,1,FEW 25,-1,1,-1,3,1028,RJOS 142000Z 29008KT 9999 FEW025 M01/M03 Q1028 RMK 1CU025     A3037=,
20180114_210000.000,0,RJOS,,,,0,20180114210000,-1,-1,-1,-1,290,-1,8,-1,-1,-1,-1,,9999,0,0,1,FEW 25,-1,1,-1,3,1027,RJOS 142100Z 29008KT 9999 FEW025 M01/M03 Q1027 RMK 1CU025     A3035=,
20180114_210000.003,0,RJOS,,,,0,20180114210000,-1,-1,-1,-1,290,-1,8,-1,-1,-1,-1,,9999,0,0,1,FEW 25,-1,1,-1,3,1027,RJOS 142100Z 29008KT 9999 FEW025 M01/M03 Q1027 RMK 1CU025     A3035=,
20180114_220000.000,0,RJOS,,,,0,20180114220000,-1,-1,-1,-1,290,-1,8,-1,-1,-1,-1,,9999,0,0,1,FEW 25,-1,1,-1,3,1027,RJOS 142200Z 29008KT 9999 FEW025 M01/M03 Q1027 RMK 1CU025     A3035=,
20180114_220000.003,0,RJOS,,,,0,20180114220000,-1,-1,-1,-1,290,-1,8,-1,-1,-1,-1,,9999,0,0,1,FEW 25,-1,1,-1,3,1027,RJOS 142200Z 29008KT 9999 FEW025 M01/M03 Q1027 RMK 1CU025     A3035=,
20180114_230000.000,0,RJOS,,,,0,20180114230000,-1,-1,-1,-1,310,-1,8,-1,-1,-1,-1,,9999,0,0,1,FEW 30,-1,1,-1,3,1028,RJOS 142300Z 31008KT 9999 FEW030 M01/M03 Q1028 RMK 1CU030     A3036=,
20180114_230000.003,0,RJOS,,,,0,20180114230000,-1,-1,-1,-1,310,-1,8,-1,-1,-1,-1,,9999,0,0,1,FEW 30,-1,1,-1,3,1028,RJOS 142300Z 31008KT 9999 FEW030 M01/M03 Q1028 RMK 1CU030     A3036=,
20180115_000000.000,0,RJOS,,,,0,20180115000000,-1,-1,-1,-1,290,-1,7,-1,-1,-1,-1,,9999,0,0,1,FEW 30,1,1,-1,2,1028,RJOS 150000Z 29007KT 9999 FEW030 01/M02 Q1028 RMK 1CU030 A3038=,
20180115_000000.003,0,RJOS,,,,0,20180115000000,-1,-1,-1,-1,290,-1,7,-1,-1,-1,-1,,9999,0,0,1,FEW 30,1,1,-1,2,1028,RJOS 150000Z 29007KT 9999 FEW030 01/M02 Q1028 RMK 1CU030     A3038=,
20180115_010000.000,0,RJOS,,,,0,20180115010000,-1,-1,-1,-1,310,-1,7,-1,-1,-1,-1,,9999,0,0,2,FEW 30   SCT -9999,1,3,-1,1,1029,RJOS 150100Z 31007KT 9999 FEW030 SCT/// 03/M01 Q1029 RMK 1CU030     A3039=,
20180115_010000.003,0,RJOS,,,,0,20180115010000,-1,-1,-1,-1,310,-1,7,-1,-1,-1,-1,,9999,0,0,2,FEW 30   SCT -9999,1,3,-1,1,1029,RJOS 150100Z 31007KT 9999 FEW030 SCT/// 03/M01 Q1029 RMK     1CU030 A3039=,
20180115_020000.000,0,RJOS,,,,0,20180115020000,-1,-1,-1,-1,999,-1,2,-1,-1,-1,-1,,9999,0,0,2,FEW 30   BKN -9999,1,6,1,0,1028,RJOS 150200Z VRB02KT 9999 FEW030 BKN/// 06/00 Q1028 RMK 1CU030     A3036=,
20180115_020000.003,0,RJOS,,,,0,20180115020000,-1,-1,-1,-1,999,-1,2,-1,-1,-1,-1,,9999,0,0,2,FEW 30   BKN -9999,1,6,1,0,1028,RJOS 150200Z VRB02KT 9999 FEW030 BKN/// 06/00 Q1028 RMK 1CU030     A3036=,
20180115_030000.000,0,RJOS,,,,0,20180115030000,-1,-1,-1,-1,90,-1,4,-1,-1,60,120,,9999,0,0,2,FEW 30   SCT 80,1,8,1,1,1026,RJOS 150300Z 09004KT 060V120 9999 FEW030 SCT080 08/01 Q1026 RMK     1CU030 3AC080 A3031 P/FR=,
20180115_030000.003,0,RJOS,,,,0,20180115030000,-1,-1,-1,-1,90,-1,4,-1,-1,60,120,,9999,0,0,2,FEW 30   SCT 80,1,8,1,1,1026,RJOS 150300Z 09004KT 060V120 9999 FEW030 SCT080 08/01 Q1026     RMK 1CU030 3AC080 A3031 P/FR=,
20180115_040000.000,0,RJOS,,,,0,20180115040000,-1,-1,-1,-1,130,-1,4,-1,-1,90,170,,9999,0,0,1,FEW 30,1,8,1,3,1024,RJOS 150400Z 13004KT 090V170 9999 FEW030 08/03 Q1024 RMK 1CU030     A3025 P/FR=,
20180115_040000.003,0,RJOS,,,,0,20180115040000,-1,-1,-1,-1,130,-1,4,-1,-1,90,170,,9999,0,0,1,FEW 30,1,8,1,3,1024,RJOS 150400Z 13004KT 090V170 9999 FEW030 08/03 Q1024 RMK     1CU030 A3025 P/FR=,
20180115_050000.000,0,RJOS,,,,0,20180115050000,-1,-1,-1,-1,90,-1,4,-1,-1,60,130,,9999,0,0,1,FEW 30,1,9,1,4,1023,RJOS 150500Z 09004KT 060V130 9999 FEW030 09/04 Q1023 RMK 1CU030     A3022=,
20180115_050000.003,0,RJOS,,,,0,20180115050000,-1,-1,-1,-1,90,-1,4,-1,-1,60,130,,9999,0,0,1,FEW 30,1,9,1,4,1023,RJOS 150500Z 09004KT 060V130 9999 FEW030 09/04 Q1023 RMK     1CU030 A3022=,
20180115_060000.000,0,RJOS,,,,0,20180115060000,-1,-1,-1,-1,70,-1,4,-1,-1,30,100,,9999,0,0,2,FEW 30   BKN 80,1,9,1,5,1023,RJOS 150600Z 07004KT 030V100 9999 FEW030 BKN080 09/05 Q1023 RMK     1CU030 6AC080 A3022=,
20180115_060000.003,0,RJOS,,,,0,20180115060000,-1,-1,-1,-1,70,-1,4,-1,-1,30,100,,9999,0,0,2,FEW 30   BKN 80,1,9,1,5,1023,RJOS 150600Z 07004KT 030V100 9999 FEW030 BKN080 09/05 Q1023     RMK 1CU030 6AC080 A3022=,
20180115_070000.000,0,RJOS,,,,0,20180115070000,-1,-1,-1,-1,30,-1,6,-1,-1,-1,-1,,9999,0,0,3,FEW 30   SCT 60   BKN 80,1,9,1,5,1024,RJOS 150700Z 03006KT 9999 FEW030 SCT060 BKN080 09/05 Q1024 RMK     1CU030 3SC060 7AC080 A3024=,
20180115_070000.005,0,RJOS,,,,0,20180115070000,-1,-1,-1,-1,30,-1,6,-1,-1,-1,-1,,9999,0,0,3,FEW 30   SCT 60   BKN 80,1,9,1,5,1024,RJOS 150700Z 03006KT 9999 FEW030 SCT060 BKN080 09/05 Q1024 RMK     1CU030 3SC060 7AC080 A3024=,
20180115_080000.000,0,RJOS,,,,0,20180115080000,-1,-1,-1,-1,10,-1,7,-1,-1,-1,-1,,9999,0,0,2,FEW 30   BKN 50,1,8,1,5,1024,RJOS 150800Z 01007KT 9999 FEW030 BKN050 08/05 Q1024 RMK 1CU030     6SC050 A3024=,
20180115_080000.003,0,RJOS,,,,0,20180115080000,-1,-1,-1,-1,10,-1,7,-1,-1,-1,-1,,9999,0,0,2,FEW 30   BKN 50,1,8,1,5,1024,RJOS 150800Z 01007KT 9999 FEW030 BKN050 08/05 Q1024 RMK 1CU030     6SC050 A3024=,
20180115_090000.000,0,RJOS,,,,0,20180115090000,-1,-1,-1,-1,360,-1,10,-1,-1,-1,-1,,9999,0,0,2,FEW 30   BKN 50,1,7,1,5,1024,RJOS 150900Z 36010KT 9999 FEW030 BKN050 07/05 Q1024 RMK 2CU030     5SC050 A3026=,
20180115_090000.003,0,RJOS,,,,0,20180115090000,-1,-1,-1,-1,360,-1,10,-1,-1,-1,-1,,9999,0,0,2,FEW 30   BKN 50,1,7,1,5,1024,RJOS 150900Z 36010KT 9999 FEW030 BKN050 07/05 Q1024 RMK 2CU030     5SC050 A3026=,
20180115_100000.000,0,RJOS,,,,0,20180115100000,-1,-1,-1,-1,30,-1,7,-1,-1,-1,-1,,9999,0,0,2,FEW 30   SCT 50,1,7,1,4,1025,RJOS 151000Z 03007KT 9999 FEW030 SCT050 07/04 Q1025 RMK 1CU030     4SC050 A3028=,
20180115_100000.003,0,RJOS,,,,0,20180115100000,-1,-1,-1,-1,30,-1,7,-1,-1,-1,-1,,9999,0,0,2,FEW 30   SCT 50,1,7,1,4,1025,RJOS 151000Z 03007KT 9999 FEW030 SCT050 07/04 Q1025 RMK 1CU030     4SC050 A3028=,
20180115_110000.000,0,RJOS,,,,0,20180115110000,-1,-1,-1,-1,10,-1,6,-1,-1,-1,-1,,9999,0,0,1,FEW 30,1,6,1,3,1025,RJOS 151100Z 01006KT 9999 FEW030 06/03 Q1025 RMK 1CU030 A3028=,
20180115_110000.003,0,RJOS,,,,0,20180115110000,-1,-1,-1,-1,10,-1,6,-1,-1,-1,-1,,9999,0,0,1,FEW 30,1,6,1,3,1025,RJOS 151100Z 01006KT 9999 FEW030 06/03 Q1025 RMK 1CU030 A3028=,
20180115_120000.000,0,RJOS,,,,0,20180115120000,-1,-1,-1,-1,290,-1,5,-1,-1,-1,-1,,9999,0,0,1,FEW 30,1,5,1,3,1025,RJOS 151200Z 29005KT 9999 FEW030 05/03 Q1025 RMK 1CU030 A3028=,
20180115_120000.003,0,RJOS,,,,0,20180115120000,-1,-1,-1,-1,290,-1,5,-1,-1,-1,-1,,9999,0,0,1,FEW 30,1,5,1,3,1025,RJOS 151200Z 29005KT 9999 FEW030 05/03 Q1025 RMK 1CU030 A3028=,
20180115_130000.000,0,RJOS,,,,0,20180115130000,-1,-1,-1,-1,290,-1,7,-1,-1,-1,-1,,9999,0,0,1,FEW 30,1,4,1,2,1025,RJOS 151300Z 29007KT 9999 FEW030 04/02 Q1025 RMK 1CU030 A3028=,
20180115_130000.003,0,RJOS,,,,0,20180115130000,-1,-1,-1,-1,290,-1,7,-1,-1,-1,-1,,9999,0,0,1,FEW 30,1,4,1,2,1025,RJOS 151300Z 29007KT 9999 FEW030 04/02 Q1025 RMK 1CU030 A3028=,
20180115_140000.000,0,RJOS,,,,0,20180115140000,-1,-1,-1,-1,290,-1,10,-1,-1,-1,-1,,9999,0,0,1,FEW 30,1,4,1,2,1025,RJOS 151400Z 29010KT 9999 FEW030 04/02 Q1025 RMK 1CU030 A3027=,
20180115_140000.003,0,RJOS,,,,0,20180115140000,-1,-1,-1,-1,290,-1,10,-1,-1,-1,-1,,9999,0,0,1,FEW 30,1,4,1,2,1025,RJOS 151400Z 29010KT 9999 FEW030 04/02 Q1025 RMK 1CU030 A3027=,
20180115_150000.000,0,RJOS,,,,0,20180115150000,-1,-1,-1,-1,280,-1,9,-1,-1,-1,-1,,9999,0,0,1,FEW 30,1,4,1,2,1024,RJOS 151500Z 28009KT 9999 FEW030 04/02 Q1024 RMK 1CU030 A3026=,
20180115_150000.003,0,RJOS,,,,0,20180115150000,-1,-1,-1,-1,280,-1,9,-1,-1,-1,-1,,9999,0,0,1,FEW 30,1,4,1,2,1024,RJOS 151500Z 28009KT 9999 FEW030 04/02 Q1024 RMK 1CU030 A3026=,
20180115_160000.000,0,RJOS,,,,0,20180115160000,-1,-1,-1,-1,300,-1,8,-1,-1,-1,-1,,9999,0,0,1,FEW 30,1,3,1,1,1024,RJOS 151600Z 30008KT 9999 FEW030 03/01 Q1024 RMK 1CU030 A3025=,
20180115_160000.003,0,RJOS,,,,0,20180115160000,-1,-1,-1,-1,300,-1,8,-1,-1,-1,-1,,9999,0,0,1,FEW 30,1,3,1,1,1024,RJOS 151600Z 30008KT 9999 FEW030 03/01 Q1024 RMK 1CU030 A3025=,
20180115_170000.000,0,RJOS,,,,0,20180115170000,-1,-1,-1,-1,290,-1,5,-1,-1,-1,-1,,9999,0,0,1,FEW 30,1,3,1,1,1024,RJOS 151700Z 29005KT 9999 FEW030 03/01 Q1024 RMK 1CU030 A3025=,
20180115_170000.003,0,RJOS,,,,0,20180115170000,-1,-1,-1,-1,290,-1,5,-1,-1,-1,-1,,9999,0,0,1,FEW 30,1,3,1,1,1024,RJOS 151700Z 29005KT 9999 FEW030 03/01 Q1024 RMK 1CU030 A3025=,
20180115_180000.000,0,RJOS,,,,0,20180115180000,-1,-1,-1,-1,310,-1,6,-1,-1,-1,-1,,9999,0,0,1,FEW 30,1,2,1,1,1024,RJOS 151800Z 31006KT 9999 FEW030 02/01 Q1024 RMK 1CU030 A3024=,
20180115_180000.003,0,RJOS,,,,0,20180115180000,-1,-1,-1,-1,310,-1,6,-1,-1,-1,-1,,9999,0,0,1,FEW 30,1,2,1,1,1024,RJOS 151800Z 31006KT 9999 FEW030 02/01 Q1024 RMK 1CU030 A3024=,
20180115_190000.000,0,RJOS,,,,0,20180115190000,-1,-1,-1,-1,300,-1,7,-1,-1,-1,-1,,9999,0,0,1,FEW 30,1,2,1,1,1023,RJOS 151900Z 30007KT 9999 FEW030 02/01 Q1023 RMK 1CU030 A3021=,
20180115_190000.003,0,RJOS,,,,0,20180115190000,-1,-1,-1,-1,300,-1,7,-1,-1,-1,-1,,9999,0,0,1,FEW 30,1,2,1,1,1023,RJOS 151900Z 30007KT 9999 FEW030 02/01 Q1023 RMK 1CU030 A3021=,
20180115_200000.000,0,RJOS,,,,0,20180115200000,-1,-1,-1,-1,290,-1,8,-1,-1,-1,-1,,9999,0,0,1,FEW 30,1,2,1,1,1022,RJOS 152000Z 29008KT 9999 FEW030 02/01 Q1022 RMK 1CU030 A3020=,
20180115_200000.003,0,RJOS,,,,0,20180115200000,-1,-1,-1,-1,290,-1,8,-1,-1,-1,-1,,9999,0,0,1,FEW 30,1,2,1,1,1022,RJOS 152000Z 29008KT 9999 FEW030 02/01 Q1022 RMK 1CU030 A3020=,
20180115_210000.000,0,RJOS,,,,0,20180115210000,-1,-1,-1,-1,290,-1,9,-1,-1,-1,-1,,9999,0,0,1,FEW 30,1,3,1,1,1023,RJOS 152100Z 29009KT 9999 FEW030 03/01 Q1023 RMK 1CU030 A3021=,
20180115_210000.003,0,RJOS,,,,0,20180115210000,-1,-1,-1,-1,290,-1,9,-1,-1,-1,-1,,9999,0,0,1,FEW 30,1,3,1,1,1023,RJOS 152100Z 29009KT 9999 FEW030 03/01 Q1023 RMK 1CU030 A3021=,
20180115_220000.000,0,RJOS,,,,0,20180115220000,-1,-1,-1,-1,300,-1,8,-1,-1,-1,-1,,9999,0,0,1,FEW 30,1,2,1,1,1023,RJOS 152200Z 30008KT 9999 FEW030 02/01 Q1023 RMK 1CU030 A3023=,
20180115_220000.003,0,RJOS,,,,0,20180115220000,-1,-1,-1,-1,300,-1,8,-1,-1,-1,-1,,9999,0,0,1,FEW 30,1,2,1,1,1023,RJOS 152200Z 30008KT 9999 FEW030 02/01 Q1023 RMK 1CU030 A3023=,
20180115_230000.000,0,RJOS,,,,0,20180115230000,-1,-1,-1,-1,310,-1,6,-1,-1,-1,-1,,9999,0,0,1,FEW 30,1,2,1,1,1024,RJOS 152300Z 31006KT 9999 FEW030 02/01 Q1024 RMK 1CU030 A3024=,
20180115_230000.003,0,RJOS,,,,0,20180115230000,-1,-1,-1,-1,310,-1,6,-1,-1,-1,-1,,9999,0,0,1,FEW 30,1,2,1,1,1024,RJOS 152300Z 31006KT 9999 FEW030 02/01 Q1024 RMK 1CU030 A3024=,
20180116_000000.000,0,RJOS,,,,0,20180116000000,-1,-1,-1,-1,290,-1,5,-1,-1,-1,-1,,9999,0,0,1,FEW 30,1,5,1,2,1024,RJOS 160000Z 29005KT 9999 FEW030 05/02 Q1024 RMK 1CU030 A3024=,
20180116_000000.003,0,RJOS,,,,0,20180116000000,-1,-1,-1,-1,290,-1,5,-1,-1,-1,-1,,9999,0,0,1,FEW 30,1,5,1,2,1024,RJOS 160000Z 29005KT 9999 FEW030 05/02 Q1024 RMK 1CU030 A3024=,
20180116_010000.000,0,RJOS,,,,0,20180116010000,-1,-1,-1,-1,999,-1,1,-1,-1,-1,-1,,9999,0,0,2,FEW 30   SCT 230,1,7,1,4,1024,RJOS 160100Z VRB01KT 9999 FEW030 SCT230 07/04 Q1024 RMK 1CU030     A3024=,
20180116_010000.003,0,RJOS,,,,0,20180116010000,-1,-1,-1,-1,999,-1,1,-1,-1,-1,-1,,9999,0,0,2,FEW 30   SCT 230,1,7,1,4,1024,RJOS 160100Z VRB01KT 9999 FEW030 SCT230 07/04 Q1024 RMK 1CU030     A3024=,
20180116_020000.000,0,RJOS,,,,0,20180116020000,-1,-1,-1,-1,70,-1,4,-1,-1,-1,-1,,9999,0,0,2,FEW 30   SCT 230,1,10,1,6,1023,RJOS 160200Z 07004KT 9999 FEW030 SCT230 10/06 Q1023 RMK 1CU030     A3022=,
20180116_020000.003,0,RJOS,,,,0,20180116020000,-1,-1,-1,-1,70,-1,4,-1,-1,-1,-1,,9999,0,0,2,FEW 30   SCT 230,1,10,1,6,1023,RJOS 160200Z 07004KT 9999 FEW030 SCT230 10/06 Q1023 RMK 1CU030     A3022=,
20180116_030000.000,0,RJOS,,,,0,20180116030000,-1,-1,-1,-1,70,-1,4,-1,-1,30,110,,9999,0,0,2,FEW 30   SCT 230,1,11,1,6,1022,RJOS 160300Z 07004KT 030V110 9999 FEW030 SCT230 11/06 Q1022 RMK     1CU030 A3018=,
20180116_030000.003,0,RJOS,,,,0,20180116030000,-1,-1,-1,-1,70,-1,4,-1,-1,30,110,,9999,0,0,2,FEW 30   SCT 230,1,11,1,6,1022,RJOS 160300Z 07004KT 030V110 9999 FEW030 SCT230 11/06 Q1022     RMK 1CU030 A3018=,
20180116_040000.000,0,RJOS,,,,0,20180116040000,-1,-1,-1,-1,110,-1,4,-1,-1,70,150,,9999,0,0,2,FEW 30   SCT 230,1,11,1,6,1020,RJOS 160400Z 11004KT 070V150 9999 FEW030 SCT230 11/06 Q1020 RMK     1CU030 A3014 P/FR=,
20180116_040000.003,0,RJOS,,,,0,20180116040000,-1,-1,-1,-1,110,-1,4,-1,-1,70,150,,9999,0,0,2,FEW 30   SCT 230,1,11,1,6,1020,RJOS 160400Z 11004KT 070V150 9999 FEW030 SCT230 11/06 Q1020     RMK 1CU030 A3014 P/FR=,
20180116_050000.000,0,RJOS,,,,0,20180116050000,-1,-1,-1,-1,100,-1,3,-1,-1,60,140,,9999,0,0,1,FEW 30,1,11,1,7,1019,RJOS 160500Z 10003KT 060V140 9999 FEW030 11/07 Q1019 RMK 1CU030     A3010=,
20180116_050000.003,0,RJOS,,,,0,20180116050000,-1,-1,-1,-1,100,-1,3,-1,-1,60,140,,9999,0,0,1,FEW 30,1,11,1,7,1019,RJOS 160500Z 10003KT 060V140 9999 FEW030 11/07 Q1019 RMK     1CU030 A3010=,
20180116_060000.000,0,RJOS,,,,0,20180116060000,-1,-1,-1,-1,110,-1,3,-1,-1,40,140,,9999,0,0,1,FEW 30,1,11,1,8,1018,RJOS 160600Z 11003KT 040V140 9999 FEW030 11/08 Q1018 RMK 1CU030     A3008=,
20180116_060000.003,0,RJOS,,,,0,20180116060000,-1,-1,-1,-1,110,-1,3,-1,-1,40,140,,9999,0,0,1,FEW 30,1,11,1,8,1018,RJOS 160600Z 11003KT 040V140 9999 FEW030 11/08 Q1018 RMK     1CU030 A3008=,
20180116_070000.000,0,RJOS,,,,0,20180116070000,-1,-1,-1,-1,100,-1,5,-1,-1,-1,-1,,9999,0,0,1,FEW 30,1,12,1,8,1018,RJOS 160700Z 10005KT 9999 FEW030 12/08 Q1018 RMK 1CU030 A3007=,
20180116_070000.003,0,RJOS,,,,0,20180116070000,-1,-1,-1,-1,100,-1,5,-1,-1,-1,-1,,9999,0,0,1,FEW 30,1,12,1,8,1018,RJOS 160700Z 10005KT 9999 FEW030 12/08 Q1018 RMK 1CU030 A3007=,
20180116_080000.000,0,RJOS,,,,0,20180116080000,-1,-1,-1,-1,80,-1,5,-1,-1,-1,-1,,9999,0,0,1,FEW 30,1,12,1,8,1018,RJOS 160800Z 08005KT 9999 FEW030 12/08 Q1018 RMK 1CU030 A3007=,
20180116_080000.003,0,RJOS,,,,0,20180116080000,-1,-1,-1,-1,80,-1,5,-1,-1,-1,-1,,9999,0,0,1,FEW 30,1,12,1,8,1018,RJOS 160800Z 08005KT 9999 FEW030 12/08 Q1018 RMK 1CU030 A3007=,
20180116_090000.000,0,RJOS,,,,0,20180116090000,-1,-1,-1,-1,120,-1,8,-1,-1,-1,-1,,9999,0,0,1,FEW 30,1,12,1,10,1017,RJOS 160900Z 12008KT 9999 FEW030 12/10 Q1017 RMK 1CU030 A3005     FU LYR N=,
20180116_090000.003,0,RJOS,,,,0,20180116090000,-1,-1,-1,-1,120,-1,8,-1,-1,-1,-1,,9999,0,0,1,FEW 30,1,12,1,10,1017,RJOS 160900Z 12008KT 9999 FEW030 12/10 Q1017 RMK 1CU030 A3005     FU LYR N=,
20180116_100000.000,0,RJOS,,,,0,20180116100000,-1,-1,-1,-1,250,-1,4,-1,-1,220,280,,9999,0,0,2,FEW 30   BKN 70,1,11,1,9,1017,RJOS 161000Z 25004KT 220V280 9999 FEW030 BKN070 11/09 Q1017 RMK     1CU030 5AC070 A3004 FU LYR N=,
20180116_100000.003,0,RJOS,,,,0,20180116100000,-1,-1,-1,-1,250,-1,4,-1,-1,220,280,,9999,0,0,2,FEW 30   BKN 70,1,11,1,9,1017,RJOS 161000Z 25004KT 220V280 9999 FEW030 BKN070 11/09 Q1017     RMK 1CU030 5AC070 A3004 FU LYR N=,
20180116_110000.000,0,RJOS,,,,0,20180116110000,-1,-1,-1,-1,999,-1,2,-1,-1,-1,-1,,9999,0,0,2,FEW 30   BKN 70,1,11,1,8,1016,RJOS 161100Z VRB02KT 9999 FEW030 BKN070 11/08 Q1016 RMK 1CU030     5AC070 A3001 FU LYR N P/FR=,
20180116_110000.005,0,RJOS,,,,0,20180116110000,-1,-1,-1,-1,999,-1,2,-1,-1,-1,-1,,9999,0,0,2,FEW 30   BKN 70,1,11,1,8,1016,RJOS 161100Z VRB02KT 9999 FEW030 BKN070 11/08 Q1016 RMK 1CU030     5AC070 A3001 FU LYR N P/FR=,
20180116_120000.000,0,RJOS,,,,0,20180116120000,-1,-1,-1,-1,190,-1,14,-1,-1,-1,-1,,9999,0,0,3,FEW 30   SCT 50   BKN 70,1,13,1,11,1016,RJOS 161200Z 19014KT 9999 FEW030 SCT050 BKN070 13/11 Q1016 RMK     2CU030 3SC050 7AC070 A3002=,
20180116_120000.003,0,RJOS,,,,0,20180116120000,-1,-1,-1,-1,190,-1,14,-1,-1,-1,-1,,9999,0,0,3,FEW 30   SCT 50   BKN 70,1,13,1,11,1016,RJOS 161200Z 19014KT 9999 FEW030 SCT050 BKN070 13/11 Q1016 RMK     2CU030 3SC050 7AC070 A3002=,
20180116_130000.000,0,RJOS,,,,0,20180116130000,-1,-1,-1,-1,170,-1,10,-1,-1,-1,-1,,9999,0,0,3,FEW 30   BKN 50   BKN 70,1,13,1,11,1016,RJOS 161300Z 17010KT 9999 FEW030 BKN050 BKN070 13/11 Q1016 RMK     2CU030 5SC050 7AC070 A3002=,
20180116_130000.003,0,RJOS,,,,0,20180116130000,-1,-1,-1,-1,170,-1,10,-1,-1,-1,-1,,9999,0,0,3,FEW 30   BKN 50   BKN 70,1,13,1,11,1016,RJOS 161300Z 17010KT 9999 FEW030 BKN050 BKN070 13/11 Q1016 RMK     2CU030 5SC050 7AC070 A3002=,
20180116_140000.000,0,RJOS,,,,0,20180116140000,-1,-1,-1,-1,180,-1,12,-1,-1,-1,-1,,9999,0,0,3,FEW 30   SCT 50   OVC 70,1,14,1,10,1015,RJOS 161400Z 18012KT 9999 FEW030 SCT050 OVC070 14/10 Q1015 RMK     1CU030 4SC050 8AS070 A3000=,
20180116_140000.003,0,RJOS,,,,0,20180116140000,-1,-1,-1,-1,180,-1,12,-1,-1,-1,-1,,9999,0,0,3,FEW 30   SCT 50   OVC 70,1,14,1,10,1015,RJOS 161400Z 18012KT 9999 FEW030 SCT050 OVC070 14/10 Q1015 RMK     1CU030 4SC050 8AS070 A3000=,
20180116_150000.000,0,RJOS,,,,0,20180116150000,-1,-1,-1,-1,180,-1,13,-1,-1,-1,-1,,9999,0,1,3,FEW 30   SCT 50   OVC 70,1,14,1,10,1015,RJOS 161500Z 18013KT 9999 -RA FEW030 SCT050 OVC070 14/10 Q1015     RMK 1CU030 4SC050 8AS070 A2998=,- RA
20180116_150000.003,0,RJOS,,,,0,20180116150000,-1,-1,-1,-1,180,-1,13,-1,-1,-1,-1,,9999,0,1,3,FEW 30   SCT 50   OVC 70,1,14,1,10,1015,RJOS 161500Z 18013KT 9999 -RA FEW030 SCT050 OVC070 14/10 Q1015     RMK 1CU030 4SC050 8AS070 A2998=,- RA
20180116_160000.000,0,RJOS,,,,0,20180116160000,-1,-1,-1,-1,180,-1,14,-1,-1,-1,-1,,9999,0,1,3,FEW 30   SCT 50   OVC 70,1,14,1,10,1014,RJOS 161600Z 18014KT 9999 -RA FEW030 SCT050 OVC070 14/10 Q1014     RMK 1CU030 4SC050 8AS070 A2996=,- RA
20180116_160000.003,0,RJOS,,,,0,20180116160000,-1,-1,-1,-1,180,-1,14,-1,-1,-1,-1,,9999,0,1,3,FEW 30   SCT 50   OVC 70,1,14,1,10,1014,RJOS 161600Z 18014KT 9999 -RA FEW030 SCT050 OVC070 14/10 Q1014     RMK 1CU030 4SC050 8AS070 A2996=,- RA
20180116_170000.000,0,RJOS,,,,0,20180116170000,-1,-1,-1,-1,180,-1,11,-1,-1,-1,-1,,9999,0,0,3,FEW 30   SCT 50   OVC 70,1,14,1,10,1014,RJOS 161700Z 18011KT 9999 FEW030 SCT050 OVC070 14/10 Q1014 RMK     1CU030 3SC050 8AS070 A2995=,
20180116_170000.003,0,RJOS,,,,0,20180116170000,-1,-1,-1,-1,180,-1,11,-1,-1,-1,-1,,9999,0,0,3,FEW 30   SCT 50   OVC 70,1,14,1,10,1014,RJOS 161700Z 18011KT 9999 FEW030 SCT050 OVC070 14/10 Q1014 RMK     1CU030 3SC050 8AS070 A2995=,
20180116_180000.000,0,RJOS,,,,0,20180116180000,-1,-1,-1,-1,180,-1,13,-1,-1,-1,-1,,9999,0,0,3,FEW 30   SCT 50   OVC 70,1,14,1,11,1013,RJOS 161800Z 18013KT 9999 FEW030 SCT050 OVC070 14/11 Q1013 RMK     1CU030 3SC050 8AC070 A2993=,
20180116_180000.003,0,RJOS,,,,0,20180116180000,-1,-1,-1,-1,180,-1,13,-1,-1,-1,-1,,9999,0,0,3,FEW 30   SCT 50   OVC 70,1,14,1,11,1013,RJOS 161800Z 18013KT 9999 FEW030 SCT050 OVC070 14/11 Q1013 RMK     1CU030 3SC050 8AC070 A2993=,
20180116_190000.000,0,RJOS,,,,0,20180116190000,-1,-1,-1,-1,180,-1,13,-1,-1,-1,-1,,9999,0,0,3,FEW 35   BKN 50   OVC 70,1,14,1,11,1012,RJOS 161900Z 18013KT 9999 FEW035 BKN050 OVC070 14/11 Q1012 RMK     2CU035 5SC050 8AS070 A2991=,
20180116_190000.003,0,RJOS,,,,0,20180116190000,-1,-1,-1,-1,180,-1,13,-1,-1,-1,-1,,9999,0,0,3,FEW 35   BKN 50   OVC 70,1,14,1,11,1012,RJOS 161900Z 18013KT 9999 FEW035 BKN050 OVC070 14/11 Q1012 RMK     2CU035 5SC050 8AS070 A2991=,
20180116_200000.000,0,RJOS,,,,0,20180116200000,-1,-1,-1,-1,170,-1,12,-1,-1,-1,-1,,9999,0,0,3,FEW 35   SCT 50   BKN 80,1,13,1,11,1012,RJOS 162000Z 17012KT 9999 FEW035 SCT050 BKN080 13/11 Q1012 RMK     1CU035 3SC050 7AC080 A2990=,
20180116_200000.003,0,RJOS,,,,0,20180116200000,-1,-1,-1,-1,170,-1,12,-1,-1,-1,-1,,9999,0,0,3,FEW 35   SCT 50   BKN 80,1,13,1,11,1012,RJOS 162000Z 17012KT 9999 FEW035 SCT050 BKN080 13/11 Q1012 RMK     1CU035 3SC050 7AC080 A2990=,
20180116_210000.000,0,RJOS,,,,0,20180116210000,-1,-1,-1,-1,270,-1,5,-1,-1,230,290,,9999,0,1,3,FEW 15   SCT 35   BKN 80,1,9,1,8,1012,RJOS 162100Z 27005KT 230V290 9999 -SHRA FEW015 SCT035 BKN080     09/08 Q1012 RMK 1CU015 3CU035 7AC080 A2991=,- RA SH
20180116_210000.003,0,RJOS,,,,0,20180116210000,-1,-1,-1,-1,270,-1,5,-1,-1,230,290,,9999,0,1,3,FEW 15   SCT 35   BKN 80,1,9,1,8,1012,RJOS 162100Z 27005KT 230V290 9999 -SHRA FEW015 SCT035 BKN080     09/08 Q1012 RMK 1CU015 3CU035 7AC080 A2991=,- RA SH
20180116_220000.000,0,RJOS,,,,0,20180116220000,-1,-1,-1,-1,260,-1,5,-1,-1,220,290,,9999,0,1,3,FEW 8   BKN 30   BKN 80,1,10,1,9,1012,RJOS 162200Z 26005KT 220V290 9999 -SHRA FEW008 BKN030 BKN080     10/09 Q1012 RMK 1ST008 5CU030 7AC080 A2990=,- RA SH
20180116_220000.003,0,RJOS,,,,0,20180116220000,-1,-1,-1,-1,260,-1,5,-1,-1,220,290,,9999,0,1,3,FEW 8   BKN 30   BKN 80,1,10,1,9,1012,RJOS 162200Z 26005KT 220V290 9999 -SHRA FEW008 BKN030 BKN080     10/09 Q1012 RMK 1ST008 5CU030 7AC080 A2990=,- RA SH
20180116_230000.000,0,RJOS,,,,0,20180116230000,-1,-1,-1,-1,290,-1,5,-1,-1,-1,-1,,9999,0,1,3,SCT 2   BKN 6   BKN 20,1,10,1,9,1012,RJOS 162300Z 29005KT 9999 -SHRA SCT002 BKN006 BKN020 10/09     Q1012 RMK 3ST002 5ST006 7CU020 A2989=,- RA SH
20180116_230000.003,0,RJOS,,,,0,20180116230000,-1,-1,-1,-1,290,-1,5,-1,-1,-1,-1,,9999,0,1,3,SCT 2   BKN 6   BKN 20,1,10,1,9,1012,RJOS 162300Z 29005KT 9999 -SHRA SCT002 BKN006 BKN020 10/09     Q1012 RMK 3ST002 5ST006 7CU020 A2989=,- RA SH
20180117_000000.000,0,RJOS,,,,0,20180117000000,-1,-1,-1,-1,290,-1,6,-1,-1,-1,-1,,9999,0,1,3,FEW 3   BKN 20   OVC 80,1,10,1,9,1012,RJOS 170000Z 29006KT 9999 -SHRA FEW003 BKN020 OVC080 10/09     Q1012 RMK 2ST003 6CU020 8AS080 A2988=,- RA SH
20180117_000000.004,0,RJOS,,,,0,20180117000000,-1,-1,-1,-1,290,-1,6,-1,-1,-1,-1,,9999,0,1,3,FEW 3   BKN 20   OVC 80,1,10,1,9,1012,RJOS 170000Z 29006KT 9999 -SHRA FEW003 BKN020 OVC080 10/09     Q1012 RMK 2ST003 6CU020 8AS080 A2988=,- RA SH
20180117_010000.000,0,RJOS,,,,0,20180117010000,-1,-1,-1,-1,280,-1,6,-1,-1,-1,-1,,9999,0,1,3,FEW 1   BKN 20   OVC 80,1,10,1,10,1011,RJOS 170100Z 28006KT 9999 -SHRA FEW001 BKN020 OVC080 10/10     Q1011 RMK 1ST001 6CU020 8AS080 A2988=,- RA SH
20180117_010000.003,0,RJOS,,,,0,20180117010000,-1,-1,-1,-1,280,-1,6,-1,-1,-1,-1,,9999,0,1,3,FEW 1   BKN 20   OVC 80,1,10,1,10,1011,RJOS 170100Z 28006KT 9999 -SHRA FEW001 BKN020 OVC080 10/10     Q1011 RMK 1ST001 6CU020 8AS080 A2988=,- RA SH
20180117_020000.000,0,RJOS,,,,0,20180117020000,-1,-1,-1,-1,280,-1,3,-1,-1,-1,-1,,8000,0,1,3,FEW 1   SCT 6   BKN 20,1,11,1,10,1010,RJOS 170200Z 28003KT 8000 -SHRA FEW001 SCT006 BKN020 11/10     Q1010 RMK 1ST001 3ST006 6CU020 A2985=,- RA SH
20180117_020000.006,0,RJOS,,,,0,20180117020000,-1,-1,-1,-1,280,-1,3,-1,-1,-1,-1,,8000,0,1,3,FEW 1   SCT 6   BKN 20,1,11,1,10,1010,RJOS 170200Z 28003KT 8000 -SHRA FEW001 SCT006 BKN020 11/10     Q1010 RMK 1ST001 3ST006 6CU020 A2985=,- RA SH
20180117_030000.000,0,RJOS,,,,0,20180117030000,-1,-1,-1,-1,40,-1,3,-1,-1,360,80,,8000,0,0,3,FEW 1   BKN 4   OVC 80,1,11,1,11,1008,RJOS 170300Z 04003KT 360V080 8000 FEW001 BKN004 OVC080 11/11     Q1008 RMK 1ST001 7ST004 8AS080 A2979=,
20180117_030000.004,0,RJOS,,,,0,20180117030000,-1,-1,-1,-1,40,-1,3,-1,-1,360,80,,8000,0,0,3,FEW 1   BKN 4   OVC 80,1,11,1,11,1008,RJOS 170300Z 04003KT 360V080 8000 FEW001 BKN004 OVC080 11/11     Q1008 RMK 1ST001 7ST004 8AS080 A2979=,
20180117_040000.000,0,RJOS,,,,0,20180117040000,-1,-1,-1,-1,290,-1,7,-1,-1,-1,-1,,4000,0,1,3,FEW 1   BKN 4   OVC 80,1,12,1,12,1008,RJOS 170400Z 29007KT 4000 BR FEW001 BKN004 OVC080 12/12 Q1008     RMK 2ST001 7ST004 8AS080 A2977=,BR
20180117_040000.004,0,RJOS,,,,0,20180117040000,-1,-1,-1,-1,290,-1,7,-1,-1,-1,-1,,4000,0,1,3,FEW 1   BKN 4   OVC 80,1,12,1,12,1008,RJOS 170400Z 29007KT 4000 BR FEW001 BKN004 OVC080 12/12 Q1008     RMK 2ST001 7ST004 8AS080 A2977=,BR
20180117_050000.000,0,RJOS,,,,0,20180117050000,-1,-1,-1,-1,10,-1,6,-1,-1,330,40,,5000,0,1,3,FEW 1   SCT 4   BKN 100,1,14,1,13,1008,RJOS 170500Z 01006KT 330V040 5000 BR FEW001 SCT004 BKN100 14/13     Q1008 RMK 1ST001 4ST004 7AC100 A2978=,BR
20180117_050000.004,0,RJOS,,,,0,20180117050000,-1,-1,-1,-1,10,-1,6,-1,-1,330,40,,5000,0,1,3,FEW 1   SCT 4   BKN 100,1,14,1,13,1008,RJOS 170500Z 01006KT 330V040 5000 BR FEW001 SCT004 BKN100     14/13 Q1008 RMK 1ST001 4ST004 7AC100 A2978=,BR
20180117_060000.000,0,RJOS,,,,0,20180117060000,-1,-1,-1,-1,40,-1,6,-1,-1,350,50,,8000,0,0,3,FEW 6   SCT 60   BKN 100,1,13,1,11,1008,RJOS 170600Z 04006KT 350V050 8000 FEW006 SCT060 BKN100 13/11     Q1008 RMK 1ST006 4SC060 7AC100 A2978=,
20180117_060000.003,0,RJOS,,,,0,20180117060000,-1,-1,-1,-1,40,-1,6,-1,-1,350,50,,8000,0,0,3,FEW 6   SCT 60   BKN 100,1,13,1,11,1008,RJOS 170600Z 04006KT 350V050 8000 FEW006 SCT060 BKN100 13/11     Q1008 RMK 1ST006 4SC060 7AC100 A2978=,
20180117_070000.000,0,RJOS,,,,0,20180117070000,-1,-1,-1,-1,50,-1,3,-1,-1,10,80,,4500,0,2,3,FEW 6   SCT 40   OVC 60,1,12,1,12,1008,RJOS 170700Z 05003KT 010V080 4500 -SHRA BR FEW006 SCT040 OVC060     12/12 Q1008 RMK 1ST006 4CU040 8SC060 A2979 9999NW=,- RA SH; BR
20180117_070000.004,0,RJOS,,,,0,20180117070000,-1,-1,-1,-1,50,-1,3,-1,-1,10,80,,4500,0,2,3,FEW 6   SCT 40   OVC 60,1,12,1,12,1008,RJOS 170700Z 05003KT 010V080 4500 -SHRA BR FEW006 SCT040     OVC060 12/12 Q1008 RMK 1ST006 4CU040 8SC060 A2979 9999NW=,- RA SH; BR
20180117_080000.000,0,RJOS,,,,0,20180117080000,-1,-1,-1,-1,360,-1,6,-1,-1,-1,-1,,5000,0,1,3,FEW 3   SCT 6   BKN 60,1,13,1,12,1009,RJOS 170800Z 36006KT 5000 BR FEW003 SCT006 BKN060 13/12 Q1009     RMK 1ST003 3ST006 7SC060 A2981=,BR
20180117_080000.003,0,RJOS,,,,0,20180117080000,-1,-1,-1,-1,360,-1,6,-1,-1,-1,-1,,5000,0,1,3,FEW 3   SCT 6   BKN 60,1,13,1,12,1009,RJOS 170800Z 36006KT 5000 BR FEW003 SCT006 BKN060 13/12 Q1009     RMK 1ST003 3ST006 7SC060 A2981=,BR
20180117_090000.000,0,RJOS,,,,0,20180117090000,-1,-1,-1,-1,310,-1,16,-1,-1,-1,-1,,6000,0,1,3,FEW 6   SCT 15   BKN 30,1,14,1,11,1010,RJOS 170900Z 31016KT 6000 SHRA FEW006 SCT015 BKN030 14/11 Q1010     RMK 2ST006 4CU015 7CU030 A2984=,RA SH
20180117_090000.004,0,RJOS,,,,0,20180117090000,-1,-1,-1,-1,310,-1,16,-1,-1,-1,-1,,6000,0,1,3,FEW 6   SCT 15   BKN 30,1,14,1,11,1010,RJOS 170900Z 31016KT 6000 SHRA FEW006 SCT015 BKN030 14/11     Q1010 RMK 2ST006 4CU015 7CU030 A2984=,RA SH
20180117_100000.000,0,RJOS,,,,0,20180117100000,-1,-1,-1,-1,300,-1,11,-1,-1,-1,-1,,9999,0,0,3,FEW 15   SCT 30   BKN 70,1,14,1,9,1010,RJOS 171000Z 30011KT 9999 FEW015 SCT030 BKN070 14/09 Q1010 RERA     RMK 1CU015 3CU030 6AC070 A2984=,
20180117_100000.003,0,RJOS,,,,0,20180117100000,-1,-1,-1,-1,300,-1,11,-1,-1,-1,-1,,9999,0,0,3,FEW 15   SCT 30   BKN 70,1,14,1,9,1010,RJOS 171000Z 30011KT 9999 FEW015 SCT030 BKN070 14/09 Q1010     RERA RMK 1CU015 3CU030 6AC070 A2984=,
20180117_110000.000,0,RJOS,,,,0,20180117110000,-1,-1,-1,-1,300,-1,16,-1,-1,-1,-1,,9999,0,0,2,FEW 30   SCT 70,1,13,1,8,1011,RJOS 171100Z 30016KT 9999 FEW030 SCT070 13/08 Q1011 RMK 2CU030     4AC070 A2988=,
20180117_110000.004,0,RJOS,,,,0,20180117110000,-1,-1,-1,-1,300,-1,16,-1,-1,-1,-1,,9999,0,0,2,FEW 30   SCT 70,1,13,1,8,1011,RJOS 171100Z 30016KT 9999 FEW030 SCT070 13/08 Q1011 RMK 2CU030     4AC070 A2988=,
20180117_120000.000,0,RJOS,,,,0,20180117120000,-1,-1,-1,-1,330,-1,19,-1,34,-1,-1,,9999,0,0,1,FEW 30,1,13,1,8,1013,RJOS 171200Z 33019G34KT 9999 FEW030 13/08 Q1013 RMK 2CU030     A2992=,
20180117_120000.004,0,RJOS,,,,0,20180117120000,-1,-1,-1,-1,330,-1,19,-1,34,-1,-1,,9999,0,0,1,FEW 30,1,13,1,8,1013,RJOS 171200Z 33019G34KT 9999 FEW030 13/08 Q1013 RMK 2CU030     A2992=,
20180117_130000.000,0,RJOS,,,,0,20180117130000,-1,-1,-1,-1,320,-1,15,-1,-1,-1,-1,,9999,0,0,1,FEW 30,1,12,1,7,1014,RJOS 171300Z 32015KT 9999 FEW030 12/07 Q1014 RMK 1CU030 A2996=,
20180117_130000.003,0,RJOS,,,,0,20180117130000,-1,-1,-1,-1,320,-1,15,-1,-1,-1,-1,,9999,0,0,1,FEW 30,1,12,1,7,1014,RJOS 171300Z 32015KT 9999 FEW030 12/07 Q1014 RMK 1CU030 A2996=,
20180117_140000.000,0,RJOS,,,,0,20180117140000,-1,-1,-1,-1,320,-1,13,-1,-1,-1,-1,,9999,0,0,1,FEW 30,1,11,1,7,1016,RJOS 171400Z 32013KT 9999 FEW030 11/07 Q1016 RMK 1CU030 A3001=,
20180117_140000.003,0,RJOS,,,,0,20180117140000,-1,-1,-1,-1,320,-1,13,-1,-1,-1,-1,,9999,0,0,1,FEW 30,1,11,1,7,1016,RJOS 171400Z 32013KT 9999 FEW030 11/07 Q1016 RMK 1CU030 A3001=,
20180117_150000.000,0,RJOS,,,,0,20180117150000,-1,-1,-1,-1,320,-1,16,-1,-1,-1,-1,,9999,0,0,1,FEW 30,1,11,1,6,1016,RJOS 171500Z 32016KT 9999 FEW030 11/06 Q1016 RMK 1CU030 A3001=,
20180117_150000.003,0,RJOS,,,,0,20180117150000,-1,-1,-1,-1,320,-1,16,-1,-1,-1,-1,,9999,0,0,1,FEW 30,1,11,1,6,1016,RJOS 171500Z 32016KT 9999 FEW030 11/06 Q1016 RMK 1CU030 A3001=,
20180117_160000.000,0,RJOS,,,,0,20180117160000,-1,-1,-1,-1,330,-1,17,-1,-1,-1,-1,,9999,0,0,1,FEW 30,1,10,1,6,1016,RJOS 171600Z 33017KT 9999 FEW030 10/06 Q1016 RMK 1CU030 A3001=,
20180117_160000.003,0,RJOS,,,,0,20180117160000,-1,-1,-1,-1,330,-1,17,-1,-1,-1,-1,,9999,0,0,1,FEW 30,1,10,1,6,1016,RJOS 171600Z 33017KT 9999 FEW030 10/06 Q1016 RMK 1CU030 A3001=,
20180117_170000.000,0,RJOS,,,,0,20180117170000,-1,-1,-1,-1,310,-1,9,-1,-1,-1,-1,,9999,0,0,1,FEW 30,1,10,1,5,1016,RJOS 171700Z 31009KT 9999 FEW030 10/05 Q1016 RMK 1CU030 A3003=,
20180117_170000.003,0,RJOS,,,,0,20180117170000,-1,-1,-1,-1,310,-1,9,-1,-1,-1,-1,,9999,0,0,1,FEW 30,1,10,1,5,1016,RJOS 171700Z 31009KT 9999 FEW030 10/05 Q1016 RMK 1CU030 A3003=,
20180117_180000.000,0,RJOS,,,,0,20180117180000,-1,-1,-1,-1,310,-1,8,-1,-1,-1,-1,,9999,0,0,1,FEW 30,1,10,1,5,1017,RJOS 171800Z 31008KT 9999 FEW030 10/05 Q1017 RMK 1CU030 A3003=,
20180117_180000.003,0,RJOS,,,,0,20180117180000,-1,-1,-1,-1,310,-1,8,-1,-1,-1,-1,,9999,0,0,1,FEW 30,1,10,1,5,1017,RJOS 171800Z 31008KT 9999 FEW030 10/05 Q1017 RMK 1CU030 A3003=,
20180117_190000.000,0,RJOS,,,,0,20180117190000,-1,-1,-1,-1,300,-1,7,-1,-1,-1,-1,,9999,0,0,1,FEW 30,1,9,1,5,1016,RJOS 171900Z 30007KT 9999 FEW030 09/05 Q1016 RMK 1CU030 A3002=,
20180117_190000.004,0,RJOS,,,,0,20180117190000,-1,-1,-1,-1,300,-1,7,-1,-1,-1,-1,,9999,0,0,1,FEW 30,1,9,1,5,1016,RJOS 171900Z 30007KT 9999 FEW030 09/05 Q1016 RMK 1CU030 A3002=,
20180117_200000.000,0,RJOS,,,,0,20180117200000,-1,-1,-1,-1,290,-1,8,-1,-1,-1,-1,,9999,0,0,2,FEW 30   SCT 80,1,9,1,4,1017,RJOS 172000Z 29008KT 9999 FEW030 SCT080 09/04 Q1017 RMK 1CU030     4AC080 A3003=,
20180117_200000.003,0,RJOS,,,,0,20180117200000,-1,-1,-1,-1,290,-1,8,-1,-1,-1,-1,,9999,0,0,2,FEW 30   SCT 80,1,9,1,4,1017,RJOS 172000Z 29008KT 9999 FEW030 SCT080 09/04 Q1017 RMK 1CU030     4AC080 A3003=,
20180117_210000.000,0,RJOS,,,,0,20180117210000,-1,-1,-1,-1,310,-1,2,-1,-1,-1,-1,,9999,0,0,1,FEW 30,1,8,1,4,1017,RJOS 172100Z 31002KT 9999 FEW030 08/04 Q1017 RMK 1CU030 A3003=,
20180117_210000.003,0,RJOS,,,,0,20180117210000,-1,-1,-1,-1,310,-1,2,-1,-1,-1,-1,,9999,0,0,1,FEW 30,1,8,1,4,1017,RJOS 172100Z 31002KT 9999 FEW030 08/04 Q1017 RMK 1CU030 A3003=,
20180117_220000.000,0,RJOS,,,,0,20180117220000,-1,-1,-1,-1,310,-1,5,-1,-1,-1,-1,,9999,0,0,1,FEW 20,1,7,1,4,1017,RJOS 172200Z 31005KT 9999 FEW020 07/04 Q1017 RMK 1CU020 A3004=,
20180117_220000.004,0,RJOS,,,,0,20180117220000,-1,-1,-1,-1,310,-1,5,-1,-1,-1,-1,,9999,0,0,1,FEW 20,1,7,1,4,1017,RJOS 172200Z 31005KT 9999 FEW020 07/04 Q1017 RMK 1CU020 A3004=,
20180117_230000.000,0,RJOS,,,,0,20180117230000,-1,-1,-1,-1,320,-1,4,-1,-1,-1,-1,,9999,0,0,1,FEW 20,1,7,1,4,1017,RJOS 172300Z 32004KT 9999 FEW020 07/04 Q1017 RMK 1CU020 A3005=,
20180117_230000.003,0,RJOS,,,,0,20180117230000,-1,-1,-1,-1,320,-1,4,-1,-1,-1,-1,,9999,0,0,1,FEW 20,1,7,1,4,1017,RJOS 172300Z 32004KT 9999 FEW020 07/04 Q1017 RMK 1CU020 A3005=,
20180118_000000.000,0,RJOS,,,,0,20180118000000,-1,-1,-1,-1,280,-1,7,-1,-1,240,320,,9999,0,0,2,FEW 20   SCT 40,1,10,1,4,1018,RJOS 180000Z 28007KT 240V320 9999 FEW020 SCT040 10/04 Q1018 RMK     1CU020 3SC040 A3008=,
20180118_000000.003,0,RJOS,,,,0,20180118000000,-1,-1,-1,-1,280,-1,7,-1,-1,240,320,,9999,0,0,2,FEW 20   SCT 40,1,10,1,4,1018,RJOS 180000Z 28007KT 240V320 9999 FEW020 SCT040 10/04 Q1018     RMK 1CU020 3SC040 A3008=,
20180118_010000.000,0,RJOS,,,,0,20180118010000,-1,-1,-1,-1,330,-1,15,-1,-1,-1,-1,,9999,0,0,2,FEW 20   BKN 45,1,12,1,4,1020,RJOS 180100Z 33015KT 9999 FEW020 BKN045 12/04 Q1020 RMK 1CU020     6SC045 A3013 PEAK GUST 22KT=,
20180118_010000.003,0,RJOS,,,,0,20180118010000,-1,-1,-1,-1,330,-1,15,-1,-1,-1,-1,,9999,0,0,2,FEW 20   BKN 45,1,12,1,4,1020,RJOS 180100Z 33015KT 9999 FEW020 BKN045 12/04 Q1020 RMK 1CU020     6SC045 A3013 PEAK GUST 22KT=,
20180118_020000.000,0,RJOS,,,,0,20180118020000,-1,-1,-1,-1,310,-1,13,-1,-1,-1,-1,,9999,0,0,1,FEW 25,1,13,1,3,1019,RJOS 180200Z 31013KT 9999 FEW025 13/03 Q1019 RMK 1CU025 A3009=,
20180118_020000.003,0,RJOS,,,,0,20180118020000,-1,-1,-1,-1,310,-1,13,-1,-1,-1,-1,,9999,0,0,1,FEW 25,1,13,1,3,1019,RJOS 180200Z 31013KT 9999 FEW025 13/03 Q1019 RMK 1CU025 A3009=,
20180118_030000.000,0,RJOS,,,,0,20180118030000,-1,-1,-1,-1,290,-1,10,-1,-1,270,330,,9999,0,0,1,FEW 25,1,13,1,4,1018,RJOS 180300Z 29010KT 270V330 9999 FEW025 13/04 Q1018 RMK 1CU025     A3008=,
20180118_030000.004,0,RJOS,,,,0,20180118030000,-1,-1,-1,-1,290,-1,10,-1,-1,270,330,,9999,0,0,1,FEW 25,1,13,1,4,1018,RJOS 180300Z 29010KT 270V330 9999 FEW025 13/04 Q1018 RMK     1CU025 A3008=,
20180118_040000.000,0,RJOS,,,,0,20180118040000,-1,-1,-1,-1,340,-1,11,-1,-1,310,20,,9999,0,0,1,FEW 30,1,15,1,3,1018,RJOS 180400Z 34011KT 310V020 9999 FEW030 15/03 Q1018 RMK 1CU030     A3007=,
20180118_040000.003,0,RJOS,,,,0,20180118040000,-1,-1,-1,-1,340,-1,11,-1,-1,310,20,,9999,0,0,1,FEW 30,1,15,1,3,1018,RJOS 180400Z 34011KT 310V020 9999 FEW030 15/03 Q1018 RMK     1CU030 A3007=,
20180118_050000.000,0,RJOS,,,,0,20180118050000,-1,-1,-1,-1,360,-1,15,-1,-1,-1,-1,,9999,0,0,1,FEW 30,1,15,1,4,1017,RJOS 180500Z 36015KT 9999 FEW030 15/04 Q1017 RMK 1CU030 A3004     PEAK GUST 20KT=,
20180118_050000.003,0,RJOS,,,,0,20180118050000,-1,-1,-1,-1,360,-1,15,-1,-1,-1,-1,,9999,0,0,1,FEW 30,1,15,1,4,1017,RJOS 180500Z 36015KT 9999 FEW030 15/04 Q1017 RMK 1CU030 A3004     PEAK GUST 20KT=,
20180118_060000.000,0,RJOS,,,,0,20180118060000,-1,-1,-1,-1,350,-1,10,-1,-1,-1,-1,,9999,0,0,1,FEW 30,1,14,1,5,1017,RJOS 180600Z 35010KT 9999 FEW030 14/05 Q1017 RMK 1CU030 A3005=,
20180118_060000.003,0,RJOS,,,,0,20180118060000,-1,-1,-1,-1,350,-1,10,-1,-1,-1,-1,,9999,0,0,1,FEW 30,1,14,1,5,1017,RJOS 180600Z 35010KT 9999 FEW030 14/05 Q1017 RMK 1CU030 A3005=,
20180118_070000.000,0,RJOS,,,,0,20180118070000,-1,-1,-1,-1,340,-1,11,-1,-1,-1,-1,,9999,0,0,1,FEW 30,1,14,1,4,1017,RJOS 180700Z 34011KT 9999 FEW030 14/04 Q1017 RMK 1CU030 A3005=,
20180118_070000.003,0,RJOS,,,,0,20180118070000,-1,-1,-1,-1,340,-1,11,-1,-1,-1,-1,,9999,0,0,1,FEW 30,1,14,1,4,1017,RJOS 180700Z 34011KT 9999 FEW030 14/04 Q1017 RMK 1CU030 A3005=,
20180118_080000.000,0,RJOS,,,,0,20180118080000,-1,-1,-1,-1,340,-1,10,-1,-1,-1,-1,,9999,0,0,2,FEW 30   SCT 60,1,13,1,4,1018,RJOS 180800Z 34010KT 9999 FEW030 SCT060 13/04 Q1018 RMK 1CU030     3SC060 A3007=,
20180118_080000.003,0,RJOS,,,,0,20180118080000,-1,-1,-1,-1,340,-1,10,-1,-1,-1,-1,,9999,0,0,2,FEW 30   SCT 60,1,13,1,4,1018,RJOS 180800Z 34010KT 9999 FEW030 SCT060 13/04 Q1018 RMK 1CU030     3SC060 A3007=,
20180118_090000.000,0,RJOS,,,,0,20180118090000,-1,-1,-1,-1,340,-1,9,-1,-1,-1,-1,,9999,0,0,2,FEW 30   SCT 60,1,13,1,3,1019,RJOS 180900Z 34009KT 9999 FEW030 SCT060 13/03 Q1019 RMK 1CU030     3SC060 A3009=,
20180118_090000.003,0,RJOS,,,,0,20180118090000,-1,-1,-1,-1,340,-1,9,-1,-1,-1,-1,,9999,0,0,2,FEW 30   SCT 60,1,13,1,3,1019,RJOS 180900Z 34009KT 9999 FEW030 SCT060 13/03 Q1019 RMK 1CU030     3SC060 A3009=,
20180118_100000.000,0,RJOS,,,,0,20180118100000,-1,-1,-1,-1,320,-1,11,-1,-1,-1,-1,,9999,0,0,1,FEW 30,1,12,1,4,1019,RJOS 181000Z 32011KT 9999 FEW030 12/04 Q1019 RMK 1CU030 A3010=,
20180118_100000.003,0,RJOS,,,,0,20180118100000,-1,-1,-1,-1,320,-1,11,-1,-1,-1,-1,,9999,0,0,1,FEW 30,1,12,1,4,1019,RJOS 181000Z 32011KT 9999 FEW030 12/04 Q1019 RMK 1CU030 A3010=,
20180118_110000.000,0,RJOS,,,,0,20180118110000,-1,-1,-1,-1,320,-1,9,-1,-1,-1,-1,,9999,0,0,1,FEW 30,1,11,1,4,1019,RJOS 181100Z 32009KT 9999 FEW030 11/04 Q1019 RMK 1CU030 A3011=,
20180118_110000.003,0,RJOS,,,,0,20180118110000,-1,-1,-1,-1,320,-1,9,-1,-1,-1,-1,,9999,0,0,1,FEW 30,1,11,1,4,1019,RJOS 181100Z 32009KT 9999 FEW030 11/04 Q1019 RMK 1CU030 A3011=,
20180118_120000.000,0,RJOS,,,,0,20180118120000,-1,-1,-1,-1,330,-1,9,-1,-1,-1,-1,,9999,0,0,2,FEW 30   SCT 60,1,11,1,4,1020,RJOS 181200Z 33009KT 9999 FEW030 SCT060 11/04 Q1020 RMK 1CU030     3SC060 A3013=,
20180118_120000.003,0,RJOS,,,,0,20180118120000,-1,-1,-1,-1,330,-1,9,-1,-1,-1,-1,,9999,0,0,2,FEW 30   SCT 60,1,11,1,4,1020,RJOS 181200Z 33009KT 9999 FEW030 SCT060 11/04 Q1020 RMK 1CU030     3SC060 A3013=,
20180118_130000.000,0,RJOS,,,,0,20180118130000,-1,-1,-1,-1,350,-1,8,-1,-1,-1,-1,,9999,0,0,2,FEW 30   SCT 50,1,10,1,4,1020,RJOS 181300Z 35008KT 9999 FEW030 SCT050 10/04 Q1020 RMK 1CU030     4SC050 A3014=,
20180118_130000.003,0,RJOS,,,,0,20180118130000,-1,-1,-1,-1,350,-1,8,-1,-1,-1,-1,,9999,0,0,2,FEW 30   SCT 50,1,10,1,4,1020,RJOS 181300Z 35008KT 9999 FEW030 SCT050 10/04 Q1020 RMK 1CU030     4SC050 A3014=,
20180118_140000.000,0,RJOS,,,,0,20180118140000,-1,-1,-1,-1,340,-1,6,-1,-1,-1,-1,,9999,0,0,2,FEW 30   BKN 50,1,9,1,3,1020,RJOS 181400Z 34006KT 9999 FEW030 BKN050 09/03 Q1020 RMK 1CU030     5SC050 A3014=,
20180118_140000.003,0,RJOS,,,,0,20180118140000,-1,-1,-1,-1,340,-1,6,-1,-1,-1,-1,,9999,0,0,2,FEW 30   BKN 50,1,9,1,3,1020,RJOS 181400Z 34006KT 9999 FEW030 BKN050 09/03 Q1020 RMK 1CU030     5SC050 A3014=,
20180118_150000.000,0,RJOS,,,,0,20180118150000,-1,-1,-1,-1,330,-1,7,-1,-1,-1,-1,,9999,0,0,2,FEW 30   BKN 50,1,10,1,3,1020,RJOS 181500Z 33007KT 9999 FEW030 BKN050 10/03 Q1020 RMK 1CU030     6SC050 A3015=,
20180118_150000.003,0,RJOS,,,,0,20180118150000,-1,-1,-1,-1,330,-1,7,-1,-1,-1,-1,,9999,0,0,2,FEW 30   BKN 50,1,10,1,3,1020,RJOS 181500Z 33007KT 9999 FEW030 BKN050 10/03 Q1020 RMK 1CU030     6SC050 A3015=,
20180118_160000.000,0,RJOS,,,,0,20180118160000,-1,-1,-1,-1,10,-1,4,-1,-1,-1,-1,,9999,0,0,2,FEW 30   BKN 50,1,8,1,3,1020,RJOS 181600Z 01004KT 9999 FEW030 BKN050 08/03 Q1020 RMK 1CU030     6SC050 A3014=,
20180118_160000.003,0,RJOS,,,,0,20180118160000,-1,-1,-1,-1,10,-1,4,-1,-1,-1,-1,,9999,0,0,2,FEW 30   BKN 50,1,8,1,3,1020,RJOS 181600Z 01004KT 9999 FEW030 BKN050 08/03 Q1020 RMK 1CU030     6SC050 A3014=,
20180118_170000.000,0,RJOS,,,,0,20180118170000,-1,-1,-1,-1,10,-1,6,-1,-1,-1,-1,,9999,0,0,2,FEW 30   BKN 50,1,9,1,5,1020,RJOS 181700Z 01006KT 9999 FEW030 BKN050 09/05 Q1020 RMK 1CU030     7SC050 A3014=,
20180118_170000.003,0,RJOS,,,,0,20180118170000,-1,-1,-1,-1,10,-1,6,-1,-1,-1,-1,,9999,0,0,2,FEW 30   BKN 50,1,9,1,5,1020,RJOS 181700Z 01006KT 9999 FEW030 BKN050 09/05 Q1020 RMK 1CU030     7SC050 A3014=,
20180118_180000.000,0,RJOS,,,,0,20180118180000,-1,-1,-1,-1,360,-1,5,-1,-1,-1,-1,,9999,0,0,2,FEW 30   BKN 50,1,9,1,5,1020,RJOS 181800Z 36005KT 9999 FEW030 BKN050 09/05 Q1020 RMK 1CU030     6SC050 A3014=,
20180118_180000.003,0,RJOS,,,,0,20180118180000,-1,-1,-1,-1,360,-1,5,-1,-1,-1,-1,,9999,0,0,2,FEW 30   BKN 50,1,9,1,5,1020,RJOS 181800Z 36005KT 9999 FEW030 BKN050 09/05 Q1020 RMK 1CU030     6SC050 A3014=,
20180118_190000.000,0,RJOS,,,,0,20180118190000,-1,-1,-1,-1,20,-1,7,-1,-1,-1,-1,,9999,0,0,2,FEW 30   BKN 50,1,8,1,5,1020,RJOS 181900Z 02007KT 9999 FEW030 BKN050 08/05 Q1020 RMK 1CU030     6SC050 A3013=,
20180118_190000.003,0,RJOS,,,,0,20180118190000,-1,-1,-1,-1,20,-1,7,-1,-1,-1,-1,,9999,0,0,2,FEW 30   BKN 50,1,8,1,5,1020,RJOS 181900Z 02007KT 9999 FEW030 BKN050 08/05 Q1020 RMK 1CU030     6SC050 A3013=,
20180118_200000.000,0,RJOS,,,,0,20180118200000,-1,-1,-1,-1,10,-1,5,-1,-1,-1,-1,,9999,0,0,2,SCT 30   BKN 50,1,8,1,4,1020,RJOS 182000Z 01005KT 9999 SCT030 BKN050 08/04 Q1020 RMK 3CU030     5SC050 A3014=,
20180118_200000.003,0,RJOS,,,,0,20180118200000,-1,-1,-1,-1,10,-1,5,-1,-1,-1,-1,,9999,0,0,2,SCT 30   BKN 50,1,8,1,4,1020,RJOS 182000Z 01005KT 9999 SCT030 BKN050 08/04 Q1020 RMK 3CU030     5SC050 A3014=,
20180118_210000.000,0,RJOS,,,,0,20180118210000,-1,-1,-1,-1,320,-1,4,-1,-1,-1,-1,,9999,0,0,2,FEW 20   SCT 35,1,7,1,4,1020,RJOS 182100Z 32004KT 9999 FEW020 SCT035 07/04 Q1020 RMK 1CU020     4CU035 A3014=,
20180118_210000.004,0,RJOS,,,,0,20180118210000,-1,-1,-1,-1,320,-1,4,-1,-1,-1,-1,,9999,0,0,2,FEW 20   SCT 35,1,7,1,4,1020,RJOS 182100Z 32004KT 9999 FEW020 SCT035 07/04 Q1020 RMK 1CU020     4CU035 A3014=,
20180118_220000.000,0,RJOS,,,,0,20180118220000,-1,-1,-1,-1,330,-1,4,-1,-1,300,10,,8000,0,0,2,FEW 10   SCT 30,1,6,1,4,1021,RJOS 182200Z 33004KT 300V010 8000 FEW010 SCT030 06/04 Q1021 RMK     2ST010 4CU030 A3016=,
20180118_220000.003,0,RJOS,,,,0,20180118220000,-1,-1,-1,-1,330,-1,4,-1,-1,300,10,,8000,0,0,2,FEW 10   SCT 30,1,6,1,4,1021,RJOS 182200Z 33004KT 300V010 8000 FEW010 SCT030 06/04 Q1021     RMK 2ST010 4CU030 A3016=,
20180118_230000.000,0,RJOS,,,,0,20180118230000,-1,-1,-1,-1,300,-1,3,-1,-1,-1,-1,,8000,0,0,1,SCT 35,1,6,1,4,1021,RJOS 182300Z 30003KT 8000 SCT035 06/04 Q1021 RMK 4CU035 A3017=,
20180118_230000.004,0,RJOS,,,,0,20180118230000,-1,-1,-1,-1,300,-1,3,-1,-1,-1,-1,,8000,0,0,1,SCT 35,1,6,1,4,1021,RJOS 182300Z 30003KT 8000 SCT035 06/04 Q1021 RMK 4CU035 A3017=,
20180119_000000.000,0,RJOS,,,,0,20180119000000,-1,-1,-1,-1,310,-1,4,-1,-1,-1,-1,,8000,0,0,1,FEW 35,1,8,1,4,1021,RJOS 190000Z 31004KT 8000 FEW035 08/04 Q1021 RMK 2CU035 A3018=,
20180119_000000.003,0,RJOS,,,,0,20180119000000,-1,-1,-1,-1,310,-1,4,-1,-1,-1,-1,,8000,0,0,1,FEW 35,1,8,1,4,1021,RJOS 190000Z 31004KT 8000 FEW035 08/04 Q1021 RMK 2CU035 A3018=,
20180119_010000.000,0,RJOS,,,,0,20180119010000,-1,-1,-1,-1,40,-1,11,-1,-1,-1,-1,,9999,0,0,3,FEW 20   BKN 35   BKN 50,1,9,1,3,1021,RJOS 190100Z 04011KT 9999 FEW020 BKN035 BKN050 09/03 Q1021 RMK     1CU020 5CU035 7SC050 A3018=,
20180119_010000.004,0,RJOS,,,,0,20180119010000,-1,-1,-1,-1,40,-1,11,-1,-1,-1,-1,,9999,0,0,3,FEW 20   BKN 35   BKN 50,1,9,1,3,1021,RJOS 190100Z 04011KT 9999 FEW020 BKN035 BKN050 09/03 Q1021 RMK     1CU020 5CU035 7SC050 A3018=,
20180119_020000.000,0,RJOS,,,,0,20180119020000,-1,-1,-1,-1,30,-1,10,-1,-1,-1,-1,,9999,0,0,2,FEW 20   BKN 35,1,10,1,3,1021,RJOS 190200Z 03010KT 9999 FEW020 BKN035 10/03 Q1021 RMK 1CU020     6CU035 A3016=,
20180119_020000.003,0,RJOS,,,,0,20180119020000,-1,-1,-1,-1,30,-1,10,-1,-1,-1,-1,,9999,0,0,2,FEW 20   BKN 35,1,10,1,3,1021,RJOS 190200Z 03010KT 9999 FEW020 BKN035 10/03 Q1021 RMK 1CU020     6CU035 A3016=,
20180119_030000.000,0,RJOS,,,,0,20180119030000,-1,-1,-1,-1,20,-1,11,-1,-1,-1,-1,,9999,0,0,3,FEW 20   SCT 35   BKN 45,1,10,1,2,1020,RJOS 190300Z 02011KT 9999 FEW020 SCT035 BKN045 10/02 Q1020 RMK     1CU020 3CU035 7SC045 A3012=,
20180119_030000.003,0,RJOS,,,,0,20180119030000,-1,-1,-1,-1,20,-1,11,-1,-1,-1,-1,,9999,0,0,3,FEW 20   SCT 35   BKN 45,1,10,1,2,1020,RJOS 190300Z 02011KT 9999 FEW020 SCT035 BKN045 10/02 Q1020 RMK     1CU020 3CU035 7SC045 A3012=,
20180119_040000.000,0,RJOS,,,,0,20180119040000,-1,-1,-1,-1,10,-1,9,-1,-1,-1,-1,,9999,0,0,2,FEW 30   BKN 45,1,10,1,1,1019,RJOS 190400Z 01009KT 9999 FEW030 BKN045 10/01 Q1019 RMK 2CU030     7SC045 A3011=,
20180119_040000.003,0,RJOS,,,,0,20180119040000,-1,-1,-1,-1,10,-1,9,-1,-1,-1,-1,,9999,0,0,2,FEW 30   BKN 45,1,10,1,1,1019,RJOS 190400Z 01009KT 9999 FEW030 BKN045 10/01 Q1019 RMK 2CU030     7SC045 A3011=,
20180119_050000.000,0,RJOS,,,,0,20180119050000,-1,-1,-1,-1,30,-1,11,-1,-1,-1,-1,,9999,0,0,2,FEW 30   BKN 50,1,10,1,2,1018,RJOS 190500Z 03011KT 9999 FEW030 BKN050 10/02 Q1018 RMK 1CU030     7SC050 A3008=,
20180119_050000.004,0,RJOS,,,,0,20180119050000,-1,-1,-1,-1,30,-1,11,-1,-1,-1,-1,,9999,0,0,2,FEW 30   BKN 50,1,10,1,2,1018,RJOS 190500Z 03011KT 9999 FEW030 BKN050 10/02 Q1018 RMK 1CU030     7SC050 A3008=,
20180119_060000.000,0,RJOS,,,,0,20180119060000,-1,-1,-1,-1,360,-1,6,-1,-1,330,40,,9999,0,0,2,FEW 30   BKN 50,1,11,1,1,1017,RJOS 190600Z 36006KT 330V040 9999 FEW030 BKN050 11/01 Q1017 RMK     1CU030 7SC050 A3006=,
20180119_060000.003,0,RJOS,,,,0,20180119060000,-1,-1,-1,-1,360,-1,6,-1,-1,330,40,,9999,0,0,2,FEW 30   BKN 50,1,11,1,1,1017,RJOS 190600Z 36006KT 330V040 9999 FEW030 BKN050 11/01 Q1017     RMK 1CU030 7SC050 A3006=,
20180119_070000.000,0,RJOS,,,,0,20180119070000,-1,-1,-1,-1,360,-1,9,-1,-1,-1,-1,,9999,0,0,2,FEW 30   BKN 50,1,10,1,1,1018,RJOS 190700Z 36009KT 9999 FEW030 BKN050 10/01 Q1018 RMK 1CU030     7SC050 A3006=,
20180119_070000.003,0,RJOS,,,,0,20180119070000,-1,-1,-1,-1,360,-1,9,-1,-1,-1,-1,,9999,0,0,2,FEW 30   BKN 50,1,10,1,1,1018,RJOS 190700Z 36009KT 9999 FEW030 BKN050 10/01 Q1018 RMK 1CU030     7SC050 A3006=,
20180119_080000.000,0,RJOS,,,,0,20180119080000,-1,-1,-1,-1,330,-1,7,-1,-1,-1,-1,,9999,0,0,2,FEW 30   BKN 50,1,10,1,2,1018,RJOS 190800Z 33007KT 9999 FEW030 BKN050 10/02 Q1018 RMK 1CU030     6SC050 A3007=,
20180119_080000.003,0,RJOS,,,,0,20180119080000,-1,-1,-1,-1,330,-1,7,-1,-1,-1,-1,,9999,0,0,2,FEW 30   BKN 50,1,10,1,2,1018,RJOS 190800Z 33007KT 9999 FEW030 BKN050 10/02 Q1018 RMK 1CU030     6SC050 A3007=,
20180119_090000.000,0,RJOS,,,,0,20180119090000,-1,-1,-1,-1,280,-1,5,-1,-1,-1,-1,,9999,0,0,2,FEW 30   BKN 50,1,9,1,2,1018,RJOS 190900Z 28005KT 9999 FEW030 BKN050 09/02 Q1018 RMK 1CU030     6SC050 A3008=,
20180119_090000.004,0,RJOS,,,,0,20180119090000,-1,-1,-1,-1,280,-1,5,-1,-1,-1,-1,,9999,0,0,2,FEW 30   BKN 50,1,9,1,2,1018,RJOS 190900Z 28005KT 9999 FEW030 BKN050 09/02 Q1018 RMK 1CU030     6SC050 A3008=,
20180119_100000.000,0,RJOS,,,,0,20180119100000,-1,-1,-1,-1,310,-1,5,-1,-1,-1,-1,,9999,0,0,2,FEW 30   BKN 50,1,8,1,2,1018,RJOS 191000Z 31005KT 9999 FEW030 BKN050 08/02 Q1018 RMK 1CU030     5SC050 A3009=,
20180119_100000.003,0,RJOS,,,,0,20180119100000,-1,-1,-1,-1,310,-1,5,-1,-1,-1,-1,,9999,0,0,2,FEW 30   BKN 50,1,8,1,2,1018,RJOS 191000Z 31005KT 9999 FEW030 BKN050 08/02 Q1018 RMK 1CU030     5SC050 A3009=,
20180119_110000.000,0,RJOS,,,,0,20180119110000,-1,-1,-1,-1,310,-1,2,-1,-1,-1,-1,,9999,0,0,1,FEW 30,1,7,1,1,1018,RJOS 191100Z 31002KT 9999 FEW030 07/01 Q1018 RMK 1CU030 A3008=,
20180119_110000.003,0,RJOS,,,,0,20180119110000,-1,-1,-1,-1,310,-1,2,-1,-1,-1,-1,,9999,0,0,1,FEW 30,1,7,1,1,1018,RJOS 191100Z 31002KT 9999 FEW030 07/01 Q1018 RMK 1CU030 A3008=,
20180119_120000.000,0,RJOS,,,,0,20180119120000,-1,-1,-1,-1,310,-1,3,-1,-1,-1,-1,,9999,0,0,1,FEW 30,1,6,1,2,1018,RJOS 191200Z 31003KT 9999 FEW030 06/02 Q1018 RMK 1CU030 A3009=,
20180119_120000.004,0,RJOS,,,,0,20180119120000,-1,-1,-1,-1,310,-1,3,-1,-1,-1,-1,,9999,0,0,1,FEW 30,1,6,1,2,1018,RJOS 191200Z 31003KT 9999 FEW030 06/02 Q1018 RMK 1CU030 A3009=,
20180119_130000.000,0,RJOS,,,,0,20180119130000,-1,-1,-1,-1,310,-1,3,-1,-1,-1,-1,,9999,0,0,1,FEW 30,1,6,1,1,1019,RJOS 191300Z 31003KT 9999 FEW030 06/01 Q1019 RMK 1CU030 A3009=,
20180119_130000.003,0,RJOS,,,,0,20180119130000,-1,-1,-1,-1,310,-1,3,-1,-1,-1,-1,,9999,0,0,1,FEW 30,1,6,1,1,1019,RJOS 191300Z 31003KT 9999 FEW030 06/01 Q1019 RMK 1CU030 A3009=,
20180119_140000.000,0,RJOS,,,,0,20180119140000,-1,-1,-1,-1,300,-1,5,-1,-1,-1,-1,,9999,0,0,1,FEW 30,1,6,1,1,1018,RJOS 191400Z 30005KT 9999 FEW030 06/01 Q1018 RMK 1CU030 A3009=,
20180119_140000.003,0,RJOS,,,,0,20180119140000,-1,-1,-1,-1,300,-1,5,-1,-1,-1,-1,,9999,0,0,1,FEW 30,1,6,1,1,1018,RJOS 191400Z 30005KT 9999 FEW030 06/01 Q1018 RMK 1CU030 A3009=,
20180119_150000.000,0,RJOS,,,,0,20180119150000,-1,-1,-1,-1,310,-1,5,-1,-1,-1,-1,,9999,0,0,1,FEW 30,1,5,1,1,1018,RJOS 191500Z 31005KT 9999 FEW030 05/01 Q1018 RMK 1CU030 A3009=,
20180119_150000.003,0,RJOS,,,,0,20180119150000,-1,-1,-1,-1,310,-1,5,-1,-1,-1,-1,,9999,0,0,1,FEW 30,1,5,1,1,1018,RJOS 191500Z 31005KT 9999 FEW030 05/01 Q1018 RMK 1CU030 A3009=,
20180119_160000.000,0,RJOS,,,,0,20180119160000,-1,-1,-1,-1,300,-1,6,-1,-1,-1,-1,,9999,0,0,1,FEW 30,1,4,1,1,1018,RJOS 191600Z 30006KT 9999 FEW030 04/01 Q1018 RMK 1CU030 A3008=,
20180119_160000.003,0,RJOS,,,,0,20180119160000,-1,-1,-1,-1,300,-1,6,-1,-1,-1,-1,,9999,0,0,1,FEW 30,1,4,1,1,1018,RJOS 191600Z 30006KT 9999 FEW030 04/01 Q1018 RMK 1CU030 A3008=,
20180119_170000.000,0,RJOS,,,,0,20180119170000,-1,-1,-1,-1,300,-1,7,-1,-1,-1,-1,,9999,0,0,1,FEW 30,1,4,1,1,1018,RJOS 191700Z 30007KT 9999 FEW030 04/01 Q1018 RMK 1CU030 A3008=,
20180119_170000.003,0,RJOS,,,,0,20180119170000,-1,-1,-1,-1,300,-1,7,-1,-1,-1,-1,,9999,0,0,1,FEW 30,1,4,1,1,1018,RJOS 191700Z 30007KT 9999 FEW030 04/01 Q1018 RMK 1CU030 A3008=,
20180119_180000.000,0,RJOS,,,,0,20180119180000,-1,-1,-1,-1,300,-1,6,-1,-1,-1,-1,,9999,0,0,2,FEW 25   BKN 50,1,5,1,2,1018,RJOS 191800Z 30006KT 9999 FEW025 BKN050 05/02 Q1018 RMK 1CU025     6SC050 A3008=,
20180119_180000.004,0,RJOS,,,,0,20180119180000,-1,-1,-1,-1,300,-1,6,-1,-1,-1,-1,,9999,0,0,2,FEW 25   BKN 50,1,5,1,2,1018,RJOS 191800Z 30006KT 9999 FEW025 BKN050 05/02 Q1018 RMK 1CU025     6SC050 A3008=,
20180119_190000.000,0,RJOS,,,,0,20180119190000,-1,-1,-1,-1,310,-1,6,-1,-1,-1,-1,,9999,0,0,2,FEW 25   BKN 50,1,5,1,2,1018,RJOS 191900Z 31006KT 9999 FEW025 BKN050 05/02 Q1018 RMK 1CU025     5SC050 A3007=,
20180119_190000.004,0,RJOS,,,,0,20180119190000,-1,-1,-1,-1,310,-1,6,-1,-1,-1,-1,,9999,0,0,2,FEW 25   BKN 50,1,5,1,2,1018,RJOS 191900Z 31006KT 9999 FEW025 BKN050 05/02 Q1018 RMK 1CU025     5SC050 A3007=,
20180119_200000.000,0,RJOS,,,,0,20180119200000,-1,-1,-1,-1,300,-1,6,-1,-1,-1,-1,,9999,0,0,2,FEW 25   SCT 150,1,4,1,2,1018,RJOS 192000Z 30006KT 9999 FEW025 SCT150 04/02 Q1018 RMK 1CU025     3AC150 A3009=,
20180119_200000.003,0,RJOS,,,,0,20180119200000,-1,-1,-1,-1,300,-1,6,-1,-1,-1,-1,,9999,0,0,2,FEW 25   SCT 150,1,4,1,2,1018,RJOS 192000Z 30006KT 9999 FEW025 SCT150 04/02 Q1018 RMK 1CU025     3AC150 A3009=,
20180119_210000.000,0,RJOS,,,,0,20180119210000,-1,-1,-1,-1,280,-1,5,-1,-1,-1,-1,,9999,0,0,1,FEW 25,1,4,1,2,1019,RJOS 192100Z 28005KT 9999 FEW025 04/02 Q1019 RMK 1CU025 A3009=,
20180119_210000.003,0,RJOS,,,,0,20180119210000,-1,-1,-1,-1,280,-1,5,-1,-1,-1,-1,,9999,0,0,1,FEW 25,1,4,1,2,1019,RJOS 192100Z 28005KT 9999 FEW025 04/02 Q1019 RMK 1CU025 A3009=,
20180119_220000.000,0,RJOS,,,,0,20180119220000,-1,-1,-1,-1,310,-1,4,-1,-1,-1,-1,,8000,0,0,1,FEW 25,1,3,1,1,1019,RJOS 192200Z 31004KT 8000 FEW025 03/01 Q1019 RMK 1CU025 A3009=,
20180119_220000.003,0,RJOS,,,,0,20180119220000,-1,-1,-1,-1,310,-1,4,-1,-1,-1,-1,,8000,0,0,1,FEW 25,1,3,1,1,1019,RJOS 192200Z 31004KT 8000 FEW025 03/01 Q1019 RMK 1CU025 A3009=,
20180119_230000.000,0,RJOS,,,,0,20180119230000,-1,-1,-1,-1,310,-1,5,-1,-1,-1,-1,,9999,0,0,2,FEW 30   SCT 50,1,4,1,2,1019,RJOS 192300Z 31005KT 9999 FEW030 SCT050 04/02 Q1019 RMK 2CU030     4SC050 A3010=,
20180119_230000.003,0,RJOS,,,,0,20180119230000,-1,-1,-1,-1,310,-1,5,-1,-1,-1,-1,,9999,0,0,2,FEW 30   SCT 50,1,4,1,2,1019,RJOS 192300Z 31005KT 9999 FEW030 SCT050 04/02 Q1019 RMK 2CU030     4SC050 A3010=,
20180120_000000.000,0,RJOS,,,,0,20180120000000,-1,-1,-1,-1,310,-1,4,-1,-1,-1,-1,,7000,0,0,1,SCT 30,1,5,1,3,1019,RJOS 200000Z 31004KT 7000 SCT030 05/03 Q1019 RMK 3CU030 A3011=,
20180120_000000.003,0,RJOS,,,,0,20180120000000,-1,-1,-1,-1,310,-1,4,-1,-1,-1,-1,,7000,0,0,1,SCT 30,1,5,1,3,1019,RJOS 200000Z 31004KT 7000 SCT030 05/03 Q1019 RMK 3CU030 A3011=,
20180120_010000.000,0,RJOS,,,,0,20180120010000,-1,-1,-1,-1,290,-1,4,-1,-1,-1,-1,,6000,0,0,1,FEW 30,1,7,1,4,1020,RJOS 200100Z 29004KT 6000 FEW030 07/04 Q1020 RMK 2CU030 A3012=,
20180120_010000.003,0,RJOS,,,,0,20180120010000,-1,-1,-1,-1,290,-1,4,-1,-1,-1,-1,,6000,0,0,1,FEW 30,1,7,1,4,1020,RJOS 200100Z 29004KT 6000 FEW030 07/04 Q1020 RMK 2CU030 A3012=,
20180120_020000.000,0,RJOS,,,,0,20180120020000,-1,-1,-1,-1,50,-1,4,-1,-1,10,80,,5000,0,1,1,FEW 30,1,9,1,5,1019,RJOS 200200Z 05004KT 010V080 5000 HZ FEW030 09/05 Q1019 RMK     2CU030 A3010=,HZ
20180120_020000.004,0,RJOS,,,,0,20180120020000,-1,-1,-1,-1,50,-1,4,-1,-1,10,80,,5000,0,1,1,FEW 30,1,9,1,5,1019,RJOS 200200Z 05004KT 010V080 5000 HZ FEW030 09/05 Q1019 RMK     2CU030 A3010=,HZ
20180120_030000.000,0,RJOS,,,,0,20180120030000,-1,-1,-1,-1,10,-1,7,-1,-1,-1,-1,,9999,0,0,2,FEW 25   SCT 40,1,11,1,3,1018,RJOS 200300Z 01007KT 9999 FEW025 SCT040 11/03 Q1018 RMK 1CU025     4CU040 A3008=,
20180120_030000.003,0,RJOS,,,,0,20180120030000,-1,-1,-1,-1,10,-1,7,-1,-1,-1,-1,,9999,0,0,2,FEW 25   SCT 40,1,11,1,3,1018,RJOS 200300Z 01007KT 9999 FEW025 SCT040 11/03 Q1018 RMK 1CU025     4CU040 A3008=,
20180120_040000.000,0,RJOS,,,,0,20180120040000,-1,-1,-1,-1,360,-1,14,-1,-1,-1,-1,,9999,0,0,2,FEW 25   SCT -9999,1,12,1,2,1018,RJOS 200400Z 36014KT 9999 FEW025 SCT/// 12/02 Q1018 RMK 1CU025     A3007=,
20180120_040000.003,0,RJOS,,,,0,20180120040000,-1,-1,-1,-1,360,-1,14,-1,-1,-1,-1,,9999,0,0,2,FEW 25   SCT -9999,1,12,1,2,1018,RJOS 200400Z 36014KT 9999 FEW025 SCT/// 12/02 Q1018 RMK 1CU025     A3007=,
20180120_050000.000,0,RJOS,,,,0,20180120050000,-1,-1,-1,-1,10,-1,15,-1,-1,-1,-1,,9999,0,0,1,FEW 30,1,12,1,1,1018,RJOS 200500Z 01015KT 9999 FEW030 12/01 Q1018 RMK 1CU030 A3007     PEAK GUST 21KT=,
20180120_050000.003,0,RJOS,,,,0,20180120050000,-1,-1,-1,-1,10,-1,15,-1,-1,-1,-1,,9999,0,0,1,FEW 30,1,12,1,1,1018,RJOS 200500Z 01015KT 9999 FEW030 12/01 Q1018 RMK 1CU030 A3007     PEAK GUST 21KT=,
20180120_060000.000,0,RJOS,,,,0,20180120060000,-1,-1,-1,-1,10,-1,11,-1,-1,-1,-1,,9999,0,0,1,FEW 30,1,12,1,2,1017,RJOS 200600Z 01011KT 9999 FEW030 12/02 Q1017 RMK 1CU030 A3004=,
20180120_060000.003,0,RJOS,,,,0,20180120060000,-1,-1,-1,-1,10,-1,11,-1,-1,-1,-1,,9999,0,0,1,FEW 30,1,12,1,2,1017,RJOS 200600Z 01011KT 9999 FEW030 12/02 Q1017 RMK 1CU030 A3004=,
20180120_070000.000,0,RJOS,,,,0,20180120070000,-1,-1,-1,-1,360,-1,11,-1,-1,-1,-1,,9999,0,0,2,FEW 30   SCT -9999,1,11,1,2,1017,RJOS 200700Z 36011KT 9999 FEW030 SCT/// 11/02 Q1017 RMK 1CU030     A3004=,
20180120_070000.003,0,RJOS,,,,0,20180120070000,-1,-1,-1,-1,360,-1,11,-1,-1,-1,-1,,9999,0,0,2,FEW 30   SCT -9999,1,11,1,2,1017,RJOS 200700Z 36011KT 9999 FEW030 SCT/// 11/02 Q1017 RMK 1CU030     A3004=,
20180120_080000.000,0,RJOS,,,,0,20180120080000,-1,-1,-1,-1,340,-1,9,-1,-1,-1,-1,,9999,0,0,2,FEW 30   BKN -9999,1,10,1,1,1018,RJOS 200800Z 34009KT 9999 FEW030 BKN/// 10/01 Q1018 RMK 1CU030     A3007=,
20180120_080000.003,0,RJOS,,,,0,20180120080000,-1,-1,-1,-1,340,-1,9,-1,-1,-1,-1,,9999,0,0,2,FEW 30   BKN -9999,1,10,1,1,1018,RJOS 200800Z 34009KT 9999 FEW030 BKN/// 10/01 Q1018 RMK 1CU030     A3007=,
20180120_090000.000,0,RJOS,,,,0,20180120090000,-1,-1,-1,-1,340,-1,9,-1,-1,-1,-1,,9999,0,0,2,FEW 30   BKN -9999,1,10,1,1,1019,RJOS 200900Z 34009KT 9999 FEW030 BKN/// 10/01 Q1019 RMK 1CU030     A3009=,
20180120_090000.003,0,RJOS,,,,0,20180120090000,-1,-1,-1,-1,340,-1,9,-1,-1,-1,-1,,9999,0,0,2,FEW 30   BKN -9999,1,10,1,1,1019,RJOS 200900Z 34009KT 9999 FEW030 BKN/// 10/01 Q1019 RMK 1CU030     A3009=,
20180120_100000.000,0,RJOS,,,,0,20180120100000,-1,-1,-1,-1,20,-1,4,-1,-1,360,60,,9999,0,0,2,FEW 30   BKN -9999,1,8,1,1,1019,RJOS 201000Z 02004KT 360V060 9999 FEW030 BKN/// 08/01 Q1019 RMK     1CU030 A3010=,
20180120_100000.003,0,RJOS,,,,0,20180120100000,-1,-1,-1,-1,20,-1,4,-1,-1,360,60,,9999,0,0,2,FEW 30   BKN -9999,1,8,1,1,1019,RJOS 201000Z 02004KT 360V060 9999 FEW030 BKN/// 08/01 Q1019     RMK 1CU030 A3010=,
20180120_110000.000,0,RJOS,,,,0,20180120110000,-1,-1,-1,-1,40,-1,7,-1,-1,-1,-1,,9999,0,0,2,FEW 30   BKN -9999,1,9,1,3,1019,RJOS 201100Z 04007KT 9999 FEW030 BKN/// 09/03 Q1019 RMK 1CU030     A3010=,
20180120_110000.003,0,RJOS,,,,0,20180120110000,-1,-1,-1,-1,40,-1,7,-1,-1,-1,-1,,9999,0,0,2,FEW 30   BKN -9999,1,9,1,3,1019,RJOS 201100Z 04007KT 9999 FEW030 BKN/// 09/03 Q1019 RMK 1CU030     A3010=,
20180120_120000.000,0,RJOS,,,,0,20180120120000,-1,-1,-1,-1,20,-1,6,-1,-1,-1,-1,,9999,0,0,3,FEW 30   SCT 60   BKN -9999,1,8,1,3,1019,RJOS 201200Z 02006KT 9999 FEW030 SCT060 BKN/// 08/03 Q1019 RMK     1CU030 3SC060 A3011=,
20180120_120000.003,0,RJOS,,,,0,20180120120000,-1,-1,-1,-1,20,-1,6,-1,-1,-1,-1,,9999,0,0,3,FEW 30   SCT 60   BKN -9999,1,8,1,3,1019,RJOS 201200Z 02006KT 9999 FEW030 SCT060 BKN/// 08/03 Q1019 RMK     1CU030 3SC060 A3011=,
20180120_130000.000,0,RJOS,,,,0,20180120130000,-1,-1,-1,-1,330,-1,3,-1,-1,300,10,,9999,0,0,2,FEW 30   BKN -9999,1,8,1,3,1019,RJOS 201300Z 33003KT 300V010 9999 FEW030 BKN/// 08/03 Q1019 RMK     1CU030 A3012=,
20180120_130000.003,0,RJOS,,,,0,20180120130000,-1,-1,-1,-1,330,-1,3,-1,-1,300,10,,9999,0,0,2,FEW 30   BKN -9999,1,8,1,3,1019,RJOS 201300Z 33003KT 300V010 9999 FEW030 BKN/// 08/03 Q1019     RMK 1CU030 A3012=,
20180120_140000.000,0,RJOS,,,,0,20180120140000,-1,-1,-1,-1,290,-1,6,-1,-1,-1,-1,,9999,0,0,2,FEW 30   BKN 240,1,6,1,1,1020,RJOS 201400Z 29006KT 9999 FEW030 BKN240 06/01 Q1020 RMK 1CU030     A3012=,
20180120_140000.003,0,RJOS,,,,0,20180120140000,-1,-1,-1,-1,290,-1,6,-1,-1,-1,-1,,9999,0,0,2,FEW 30   BKN 240,1,6,1,1,1020,RJOS 201400Z 29006KT 9999 FEW030 BKN240 06/01 Q1020 RMK 1CU030     A3012=,
20180120_150000.000,0,RJOS,,,,0,20180120150000,-1,-1,-1,-1,300,-1,6,-1,-1,-1,-1,,9999,0,0,1,FEW 30,1,5,1,1,1019,RJOS 201500Z 30006KT 9999 FEW030 05/01 Q1019 RMK 1CU030 A3012=,
20180120_150000.003,0,RJOS,,,,0,20180120150000,-1,-1,-1,-1,300,-1,6,-1,-1,-1,-1,,9999,0,0,1,FEW 30,1,5,1,1,1019,RJOS 201500Z 30006KT 9999 FEW030 05/01 Q1019 RMK 1CU030 A3012=,
20180120_160000.000,0,RJOS,,,,0,20180120160000,-1,-1,-1,-1,300,-1,7,-1,-1,-1,-1,,9999,0,0,1,FEW 30,1,5,1,1,1019,RJOS 201600Z 30007KT 9999 FEW030 05/01 Q1019 RMK 1CU030 A3010=,
20180120_160000.003,0,RJOS,,,,0,20180120160000,-1,-1,-1,-1,300,-1,7,-1,-1,-1,-1,,9999,0,0,1,FEW 30,1,5,1,1,1019,RJOS 201600Z 30007KT 9999 FEW030 05/01 Q1019 RMK 1CU030 A3010=,
20180120_170000.000,0,RJOS,,,,0,20180120170000,-1,-1,-1,-1,300,-1,6,-1,-1,-1,-1,,9999,0,0,1,FEW 30,1,4,1,1,1019,RJOS 201700Z 30006KT 9999 FEW030 04/01 Q1019 RMK 1CU030 A3010=,
20180120_170000.003,0,RJOS,,,,0,20180120170000,-1,-1,-1,-1,300,-1,6,-1,-1,-1,-1,,9999,0,0,1,FEW 30,1,4,1,1,1019,RJOS 201700Z 30006KT 9999 FEW030 04/01 Q1019 RMK 1CU030 A3010=,
20180120_180000.000,0,RJOS,,,,0,20180120180000,-1,-1,-1,-1,290,-1,7,-1,-1,-1,-1,,9999,0,0,1,FEW 30,1,4,1,1,1019,RJOS 201800Z 29007KT 9999 FEW030 04/01 Q1019 RMK 1CU030 A3011=,
20180120_180000.003,0,RJOS,,,,0,20180120180000,-1,-1,-1,-1,290,-1,7,-1,-1,-1,-1,,9999,0,0,1,FEW 30,1,4,1,1,1019,RJOS 201800Z 29007KT 9999 FEW030 04/01 Q1019 RMK 1CU030 A3011=,
20180120_190000.000,0,RJOS,,,,0,20180120190000,-1,-1,-1,-1,300,-1,8,-1,-1,-1,-1,,9999,0,0,2,FEW 30   SCT 45,1,4,1,1,1019,RJOS 201900Z 30008KT 9999 FEW030 SCT045 04/01 Q1019 RMK 1CU030     4SC045 A3010=,
20180120_190000.004,0,RJOS,,,,0,20180120190000,-1,-1,-1,-1,300,-1,8,-1,-1,-1,-1,,9999,0,0,2,FEW 30   SCT 45,1,4,1,1,1019,RJOS 201900Z 30008KT 9999 FEW030 SCT045 04/01 Q1019 RMK 1CU030     4SC045 A3010=,
20180120_200000.000,0,RJOS,,,,0,20180120200000,-1,-1,-1,-1,310,-1,4,-1,-1,-1,-1,,9999,0,0,2,FEW 30   BKN 45,1,4,1,2,1019,RJOS 202000Z 31004KT 9999 FEW030 BKN045 04/02 Q1019 RMK 1CU030     7SC045 A3010=,
20180120_200000.003,0,RJOS,,,,0,20180120200000,-1,-1,-1,-1,310,-1,4,-1,-1,-1,-1,,9999,0,0,2,FEW 30   BKN 45,1,4,1,2,1019,RJOS 202000Z 31004KT 9999 FEW030 BKN045 04/02 Q1019 RMK 1CU030     7SC045 A3010=,
20180120_210000.000,0,RJOS,,,,0,20180120210000,-1,-1,-1,-1,310,-1,4,-1,-1,-1,-1,,9999,0,0,2,FEW 30   BKN 45,1,4,1,2,1019,RJOS 202100Z 31004KT 9999 FEW030 BKN045 04/02 Q1019 RMK 1CU030     7SC045 A3011=,
20180120_210000.003,0,RJOS,,,,0,20180120210000,-1,-1,-1,-1,310,-1,4,-1,-1,-1,-1,,9999,0,0,2,FEW 30   BKN 45,1,4,1,2,1019,RJOS 202100Z 31004KT 9999 FEW030 BKN045 04/02 Q1019 RMK 1CU030     7SC045 A3011=,
20180120_220000.000,0,RJOS,,,,0,20180120220000,-1,-1,-1,-1,310,-1,4,-1,-1,-1,-1,,9999,0,0,2,FEW 30   BKN 45,1,4,1,2,1019,RJOS 202200Z 31004KT 9999 FEW030 BKN045 04/02 Q1019 RMK 1CU030     7SC045 A3012=,
20180120_220000.003,0,RJOS,,,,0,20180120220000,-1,-1,-1,-1,310,-1,4,-1,-1,-1,-1,,9999,0,0,2,FEW 30   BKN 45,1,4,1,2,1019,RJOS 202200Z 31004KT 9999 FEW030 BKN045 04/02 Q1019 RMK 1CU030     7SC045 A3012=,
20180120_230000.000,0,RJOS,,,,0,20180120230000,-1,-1,-1,-1,300,-1,4,-1,-1,-1,-1,,9999,0,0,2,FEW 30   SCT 45,1,4,1,1,1020,RJOS 202300Z 30004KT 9999 FEW030 SCT045 04/01 Q1020 RMK 1CU030     4SC045 A3014=,
20180120_230000.003,0,RJOS,,,,0,20180120230000,-1,-1,-1,-1,300,-1,4,-1,-1,-1,-1,,9999,0,0,2,FEW 30   SCT 45,1,4,1,1,1020,RJOS 202300Z 30004KT 9999 FEW030 SCT045 04/01 Q1020 RMK 1CU030     4SC045 A3014=,
20180121_000000.000,0,RJOS,,,,0,20180121000000,-1,-1,-1,-1,290,-1,3,-1,-1,-1,-1,,9999,0,0,2,FEW 30   SCT 50,1,6,1,2,1021,RJOS 210000Z 29003KT 9999 FEW030 SCT050 06/02 Q1021 RMK 1CU030     4SC050 A3016=,
20180121_000000.003,0,RJOS,,,,0,20180121000000,-1,-1,-1,-1,290,-1,3,-1,-1,-1,-1,,9999,0,0,2,FEW 30   SCT 50,1,6,1,2,1021,RJOS 210000Z 29003KT 9999 FEW030 SCT050 06/02 Q1021 RMK 1CU030     4SC050 A3016=,
20180121_010000.000,0,RJOS,,,,0,20180121010000,-1,-1,-1,-1,999,-1,1,-1,-1,-1,-1,,9999,0,0,2,FEW 30   SCT -9999,1,8,1,2,1021,RJOS 210100Z VRB01KT 9999 FEW030 SCT/// 08/02 Q1021 RMK 1CU030     A3016=,
20180121_010000.003,0,RJOS,,,,0,20180121010000,-1,-1,-1,-1,999,-1,1,-1,-1,-1,-1,,9999,0,0,2,FEW 30   SCT -9999,1,8,1,2,1021,RJOS 210100Z VRB01KT 9999 FEW030 SCT/// 08/02 Q1021 RMK 1CU030     A3016=,
20180121_020000.000,0,RJOS,,,,0,20180121020000,-1,-1,-1,-1,340,-1,5,-1,-1,270,350,,9999,0,0,2,FEW 30   BKN -9999,1,10,-1,1,1020,RJOS 210200Z 34005KT 270V350 9999 FEW030 BKN/// 10/M01 Q1020     RMK 1CU030 A3013=,
20180121_020000.003,0,RJOS,,,,0,20180121020000,-1,-1,-1,-1,340,-1,5,-1,-1,270,350,,9999,0,0,2,FEW 30   BKN -9999,1,10,-1,1,1020,RJOS 210200Z 34005KT 270V350 9999 FEW030 BKN/// 10/M01 Q1020     RMK 1CU030 A3013=,
20180121_030000.000,0,RJOS,,,,0,20180121030000,-1,-1,-1,-1,330,-1,10,-1,-1,300,360,,9999,0,0,2,FEW 30   BKN -9999,1,11,-1,2,1019,RJOS 210300Z 33010KT 300V360 9999 FEW030 BKN/// 11/M02 Q1019     RMK 1CU030 A3010=,
20180121_030000.003,0,RJOS,,,,0,20180121030000,-1,-1,-1,-1,330,-1,10,-1,-1,300,360,,9999,0,0,2,FEW 30   BKN -9999,1,11,-1,2,1019,RJOS 210300Z 33010KT 300V360 9999 FEW030 BKN/// 11/M02 Q1019     RMK 1CU030 A3010=,
20180121_040000.000,0,RJOS,,,,0,20180121040000,-1,-1,-1,-1,340,-1,17,-1,-1,-1,-1,,9999,0,0,2,SCT 30   BKN 50,1,12,1,1,1019,RJOS 210400Z 34017KT 9999 SCT030 BKN050 12/01 Q1019 RMK 3CU030     6SC050 A3010=,
20180121_040000.004,0,RJOS,,,,0,20180121040000,-1,-1,-1,-1,340,-1,17,-1,-1,-1,-1,,9999,0,0,2,SCT 30   BKN 50,1,12,1,1,1019,RJOS 210400Z 34017KT 9999 SCT030 BKN050 12/01 Q1019 RMK 3CU030     6SC050 A3010=,
20180121_050000.000,0,RJOS,,,,0,20180121050000,-1,-1,-1,-1,350,-1,13,-1,-1,-1,-1,,9999,0,0,1,FEW 30,1,11,-1,1,1018,RJOS 210500Z 35013KT 9999 FEW030 11/M01 Q1018 RMK 1CU030 A3008=,
20180121_050000.003,0,RJOS,,,,0,20180121050000,-1,-1,-1,-1,350,-1,13,-1,-1,-1,-1,,9999,0,0,1,FEW 30,1,11,-1,1,1018,RJOS 210500Z 35013KT 9999 FEW030 11/M01 Q1018 RMK 1CU030     A3008=,
20180121_060000.000,0,RJOS,,,,0,20180121060000,-1,-1,-1,-1,340,-1,12,-1,-1,310,10,,9999,0,0,2,FEW 30   SCT -9999,1,11,-1,1,1018,RJOS 210600Z 34012KT 310V010 9999 FEW030 SCT/// 11/M01 Q1018     RMK 1CU030 A3009=,
20180121_060000.003,0,RJOS,,,,0,20180121060000,-1,-1,-1,-1,340,-1,12,-1,-1,310,10,,9999,0,0,2,FEW 30   SCT -9999,1,11,-1,1,1018,RJOS 210600Z 34012KT 310V010 9999 FEW030 SCT/// 11/M01 Q1018     RMK 1CU030 A3009=,
20180121_070000.000,0,RJOS,,,,0,20180121070000,-1,-1,-1,-1,330,-1,13,-1,-1,-1,-1,,9999,0,0,2,FEW 30   BKN -9999,1,11,-1,1,1018,RJOS 210700Z 33013KT 9999 FEW030 BKN/// 11/M01 Q1018 RMK 1CU030     A3009=,
20180121_070000.003,0,RJOS,,,,0,20180121070000,-1,-1,-1,-1,330,-1,13,-1,-1,-1,-1,,9999,0,0,2,FEW 30   BKN -9999,1,11,-1,1,1018,RJOS 210700Z 33013KT 9999 FEW030 BKN/// 11/M01 Q1018 RMK     1CU030 A3009=,
20180121_080000.000,0,RJOS,,,,0,20180121080000,-1,-1,-1,-1,340,-1,11,-1,-1,-1,-1,,9999,0,0,2,FEW 30   BKN -9999,1,10,-1,1,1019,RJOS 210800Z 34011KT 9999 FEW030 BKN/// 10/M01 Q1019 RMK 1CU030     A3010=,
20180121_080000.003,0,RJOS,,,,0,20180121080000,-1,-1,-1,-1,340,-1,11,-1,-1,-1,-1,,9999,0,0,2,FEW 30   BKN -9999,1,10,-1,1,1019,RJOS 210800Z 34011KT 9999 FEW030 BKN/// 10/M01 Q1019 RMK     1CU030 A3010=,
20180121_090000.000,0,RJOS,,,,0,20180121090000,-1,-1,-1,-1,330,-1,9,-1,-1,-1,-1,,9999,0,0,2,FEW 30   BKN 230,1,9,-1,0,1020,RJOS 210900Z 33009KT 9999 FEW030 BKN230 09/M00 Q1020 RMK 1CU030     A3013=,
20180121_090000.003,0,RJOS,,,,0,20180121090000,-1,-1,-1,-1,330,-1,9,-1,-1,-1,-1,,9999,0,0,2,FEW 30   BKN 230,1,9,-1,0,1020,RJOS 210900Z 33009KT 9999 FEW030 BKN230 09/M00 Q1020 RMK     1CU030 A3013=,
20180121_100000.000,0,RJOS,,,,0,20180121100000,-1,-1,-1,-1,340,-1,8,-1,-1,-1,-1,,9999,0,0,2,FEW 30   BKN 220,1,9,1,1,1020,RJOS 211000Z 34008KT 9999 FEW030 BKN220 09/01 Q1020 RMK 1CU030     A3015=,
20180121_100000.003,0,RJOS,,,,0,20180121100000,-1,-1,-1,-1,340,-1,8,-1,-1,-1,-1,,9999,0,0,2,FEW 30   BKN 220,1,9,1,1,1020,RJOS 211000Z 34008KT 9999 FEW030 BKN220 09/01 Q1020 RMK 1CU030     A3015=,
20180121_110000.000,0,RJOS,,,,0,20180121110000,-1,-1,-1,-1,10,-1,7,-1,-1,-1,-1,,9999,0,0,3,FEW 30   SCT 180   BKN 200,1,9,-1,1,1021,RJOS 211100Z 01007KT 9999 FEW030 SCT180 BKN200 09/M01 Q1021 RMK     1CU030 3AC180 A3015=,
20180121_110000.003,0,RJOS,,,,0,20180121110000,-1,-1,-1,-1,10,-1,7,-1,-1,-1,-1,,9999,0,0,3,FEW 30   SCT 180   BKN 200,1,9,-1,1,1021,RJOS 211100Z 01007KT 9999 FEW030 SCT180 BKN200 09/M01 Q1021     RMK 1CU030 3AC180 A3015=,
20180121_120000.000,0,RJOS,,,,0,20180121120000,-1,-1,-1,-1,10,-1,9,-1,-1,-1,-1,,9999,0,0,3,FEW 30   BKN 180   BKN 200,1,8,-1,1,1020,RJOS 211200Z 01009KT 9999 FEW030 BKN180 BKN200 08/M01 Q1020 RMK     1CU030 5AC180 A3015=,
20180121_120000.003,0,RJOS,,,,0,20180121120000,-1,-1,-1,-1,10,-1,9,-1,-1,-1,-1,,9999,0,0,3,FEW 30   BKN 180   BKN 200,1,8,-1,1,1020,RJOS 211200Z 01009KT 9999 FEW030 BKN180 BKN200 08/M01 Q1020     RMK 1CU030 5AC180 A3015=,
20180121_130000.000,0,RJOS,,,,0,20180121130000,-1,-1,-1,-1,10,-1,6,-1,-1,-1,-1,,9999,0,0,3,FEW 30   BKN 180   BKN 200,1,8,-1,2,1020,RJOS 211300Z 01006KT 9999 FEW030 BKN180 BKN200 08/M02 Q1020 RMK     1CU030 5AC180 A3014=,
20180121_130000.004,0,RJOS,,,,0,20180121130000,-1,-1,-1,-1,10,-1,6,-1,-1,-1,-1,,9999,0,0,3,FEW 30   BKN 180   BKN 200,1,8,-1,2,1020,RJOS 211300Z 01006KT 9999 FEW030 BKN180 BKN200 08/M02 Q1020     RMK 1CU030 5AC180 A3014=,
20180121_140000.000,0,RJOS,,,,0,20180121140000,-1,-1,-1,-1,360,-1,5,-1,-1,-1,-1,,9999,0,0,3,FEW 30   SCT 180   BKN 200,1,7,-1,2,1020,RJOS 211400Z 36005KT 9999 FEW030 SCT180 BKN200 07/M02 Q1020 RMK     1CU030 3AC180 A3014=,
20180121_140000.003,0,RJOS,,,,0,20180121140000,-1,-1,-1,-1,360,-1,5,-1,-1,-1,-1,,9999,0,0,3,FEW 30   SCT 180   BKN 200,1,7,-1,2,1020,RJOS 211400Z 36005KT 9999 FEW030 SCT180 BKN200 07/M02 Q1020     RMK 1CU030 3AC180 A3014=,
20180121_150000.000,0,RJOS,,,,0,20180121150000,-1,-1,-1,-1,320,-1,3,-1,-1,-1,-1,,9999,0,0,2,FEW 30   SCT 200,1,6,-1,2,1020,RJOS 211500Z 32003KT 9999 FEW030 SCT200 06/M02 Q1020 RMK 1CU030     A3012=,
20180121_150000.003,0,RJOS,,,,0,20180121150000,-1,-1,-1,-1,320,-1,3,-1,-1,-1,-1,,9999,0,0,2,FEW 30   SCT 200,1,6,-1,2,1020,RJOS 211500Z 32003KT 9999 FEW030 SCT200 06/M02 Q1020 RMK     1CU030 A3012=,
20180121_160000.000,0,RJOS,,,,0,20180121160000,-1,-1,-1,-1,280,-1,3,-1,-1,-1,-1,,9999,0,0,3,FEW 30   SCT 180   BKN 200,1,6,-1,1,1019,RJOS 211600Z 28003KT 9999 FEW030 SCT180 BKN200 06/M01 Q1019 RMK     1CU030 3AC180 A3010=,
20180121_160000.003,0,RJOS,,,,0,20180121160000,-1,-1,-1,-1,280,-1,3,-1,-1,-1,-1,,9999,0,0,3,FEW 30   SCT 180   BKN 200,1,6,-1,1,1019,RJOS 211600Z 28003KT 9999 FEW030 SCT180 BKN200 06/M01 Q1019     RMK 1CU030 3AC180 A3010=,
20180121_170000.000,0,RJOS,,,,0,20180121170000,-1,-1,-1,-1,310,-1,3,-1,-1,-1,-1,,9999,0,0,3,FEW 30   SCT 180   BKN 200,1,4,-1,1,1019,RJOS 211700Z 31003KT 9999 FEW030 SCT180 BKN200 04/M01 Q1019 RMK     1CU030 3AC180 A3010=,
20180121_170000.003,0,RJOS,,,,0,20180121170000,-1,-1,-1,-1,310,-1,3,-1,-1,-1,-1,,9999,0,0,3,FEW 30   SCT 180   BKN 200,1,4,-1,1,1019,RJOS 211700Z 31003KT 9999 FEW030 SCT180 BKN200 04/M01 Q1019     RMK 1CU030 3AC180 A3010=,
20180121_180000.000,0,RJOS,,,,0,20180121180000,-1,-1,-1,-1,320,-1,7,-1,-1,-1,-1,,9999,0,0,2,FEW 30   SCT 170,1,4,-1,1,1019,RJOS 211800Z 32007KT 9999 FEW030 SCT170 04/M01 Q1019 RMK 1CU030     4AC170 A3009=,
20180121_180000.003,0,RJOS,,,,0,20180121180000,-1,-1,-1,-1,320,-1,7,-1,-1,-1,-1,,9999,0,0,2,FEW 30   SCT 170,1,4,-1,1,1019,RJOS 211800Z 32007KT 9999 FEW030 SCT170 04/M01 Q1019 RMK     1CU030 4AC170 A3009=,
20180121_190000.000,0,RJOS,,,,0,20180121190000,-1,-1,-1,-1,290,-1,5,-1,-1,-1,-1,,9999,0,0,2,FEW 30   BKN 150,1,4,-1,0,1018,RJOS 211900Z 29005KT 9999 FEW030 BKN150 04/M00 Q1018 RMK 1CU030     6AC150 A3007=,
20180121_190000.003,0,RJOS,,,,0,20180121190000,-1,-1,-1,-1,290,-1,5,-1,-1,-1,-1,,9999,0,0,2,FEW 30   BKN 150,1,4,-1,0,1018,RJOS 211900Z 29005KT 9999 FEW030 BKN150 04/M00 Q1018 RMK     1CU030 6AC150 A3007=,
20180121_200000.000,0,RJOS,,,,0,20180121200000,-1,-1,-1,-1,310,-1,5,-1,-1,-1,-1,,9999,0,0,2,FEW 30   BKN 150,1,4,-1,1,1017,RJOS 212000Z 31005KT 9999 FEW030 BKN150 04/M01 Q1017 RMK 1CU030     6AC150 A3006=,
20180121_200000.003,0,RJOS,,,,0,20180121200000,-1,-1,-1,-1,310,-1,5,-1,-1,-1,-1,,9999,0,0,2,FEW 30   BKN 150,1,4,-1,1,1017,RJOS 212000Z 31005KT 9999 FEW030 BKN150 04/M01 Q1017 RMK     1CU030 6AC150 A3006=,
20180121_210000.000,0,RJOS,,,,0,20180121210000,-1,-1,-1,-1,310,-1,5,-1,-1,-1,-1,,9999,0,0,2,FEW 30   BKN 150,1,4,-1,0,1017,RJOS 212100Z 31005KT 9999 FEW030 BKN150 04/M00 Q1017 RMK 1CU030     7AC150 A3004 S/// SD/// FS000=,
20180121_210000.003,0,RJOS,,,,0,20180121210000,-1,-1,-1,-1,310,-1,5,-1,-1,-1,-1,,9999,0,0,2,FEW 30   BKN 150,1,4,-1,0,1017,RJOS 212100Z 31005KT 9999 FEW030 BKN150 04/M00 Q1017 RMK     1CU030 7AC150 A3004 S/// SD/// FS000=,
20180121_220000.000,0,RJOS,,,,0,20180121220000,-1,-1,-1,-1,300,-1,6,-1,-1,280,350,,9999,0,0,2,SCT 30   BKN 120,1,4,-1,0,1016,RJOS 212200Z 30006KT 280V350 9999 SCT030 BKN120 04/M00 Q1016     RMK 3CU030 7AC120 A3002=,
20180121_220000.003,0,RJOS,,,,0,20180121220000,-1,-1,-1,-1,300,-1,6,-1,-1,280,350,,9999,0,0,2,SCT 30   BKN 120,1,4,-1,0,1016,RJOS 212200Z 30006KT 280V350 9999 SCT030 BKN120 04/M00 Q1016     RMK 3CU030 7AC120 A3002=,
20180121_230000.000,0,RJOS,,,,0,20180121230000,-1,-1,-1,-1,290,-1,7,-1,-1,-1,-1,,9999,0,0,2,SCT 25   OVC 90,1,4,1,0,1016,RJOS 212300Z 29007KT 9999 SCT025 OVC090 04/00 Q1016 RMK 4CU025     8AS090 A3002=,
20180121_230000.003,0,RJOS,,,,0,20180121230000,-1,-1,-1,-1,290,-1,7,-1,-1,-1,-1,,9999,0,0,2,SCT 25   OVC 90,1,4,1,0,1016,RJOS 212300Z 29007KT 9999 SCT025 OVC090 04/00 Q1016 RMK 4CU025     8AS090 A3002=,
20180122_000000.000,0,RJOS,,,,0,20180122000000,-1,-1,-1,-1,290,-1,5,-1,-1,-1,-1,,9999,0,0,3,FEW 25   SCT 60   OVC 90,1,6,1,1,1016,RJOS 220000Z 29005KT 9999 FEW025 SCT060 OVC090 06/01 Q1016 RMK     2CU025 3SC060 8AS090 A3002=,
20180122_000000.003,0,RJOS,,,,0,20180122000000,-1,-1,-1,-1,290,-1,5,-1,-1,-1,-1,,9999,0,0,3,FEW 25   SCT 60   OVC 90,1,6,1,1,1016,RJOS 220000Z 29005KT 9999 FEW025 SCT060 OVC090 06/01 Q1016 RMK     2CU025 3SC060 8AS090 A3002=,
20180122_010000.000,0,RJOS,,,,0,20180122010000,-1,-1,-1,-1,350,-1,5,-1,-1,320,30,,9999,0,0,3,FEW 25   SCT 60   OVC 80,1,7,1,2,1016,RJOS 220100Z 35005KT 320V030 9999 FEW025 SCT060 OVC080 07/02     Q1016 RMK 1CU025 4SC060 8AS080 A3000=,
20180122_010000.003,0,RJOS,,,,0,20180122010000,-1,-1,-1,-1,350,-1,5,-1,-1,320,30,,9999,0,0,3,FEW 25   SCT 60   OVC 80,1,7,1,2,1016,RJOS 220100Z 35005KT 320V030 9999 FEW025 SCT060 OVC080 07/02     Q1016 RMK 1CU025 4SC060 8AS080 A3000=,
20180122_020000.000,0,RJOS,,,,0,20180122020000,-1,-1,-1,-1,350,-1,5,-1,-1,270,30,,9999,0,1,3,FEW 15   SCT 25   BKN 40,1,6,1,0,1015,RJOS 220200Z 35005KT 270V030 9999 -RA FEW015 SCT025 BKN040     06/00 Q1015 RMK 1CU015 4CU025 7SC040 A2998=,- RA
20180122_020000.003,0,RJOS,,,,0,20180122020000,-1,-1,-1,-1,350,-1,5,-1,-1,270,30,,9999,0,1,3,FEW 15   SCT 25   BKN 40,1,6,1,0,1015,RJOS 220200Z 35005KT 270V030 9999 -RA FEW015 SCT025 BKN040     06/00 Q1015 RMK 1CU015 4CU025 7SC040 A2998=,- RA
20180122_030000.000,0,RJOS,,,,0,20180122030000,-1,-1,-1,-1,60,-1,11,-1,-1,-1,-1,,8000,0,1,3,FEW 10   SCT 20   OVC 40,1,5,1,2,1014,RJOS 220300Z 06011KT 8000 -RA FEW010 SCT020 OVC040 05/02 Q1014     RMK 2ST010 4CU020 8SC040 A2995=,- RA
20180122_030000.003,0,RJOS,,,,0,20180122030000,-1,-1,-1,-1,60,-1,11,-1,-1,-1,-1,,8000,0,1,3,FEW 10   SCT 20   OVC 40,1,5,1,2,1014,RJOS 220300Z 06011KT 8000 -RA FEW010 SCT020 OVC040 05/02 Q1014     RMK 2ST010 4CU020 8SC040 A2995=,- RA
20180122_040000.000,0,RJOS,,,,0,20180122040000,-1,-1,-1,-1,60,-1,9,-1,-1,-1,-1,,8000,0,1,3,FEW 10   SCT 20   OVC 40,1,4,1,1,1012,RJOS 220400Z 06009KT 8000 -RA FEW010 SCT020 OVC040 04/01 Q1012     RMK 2ST010 4CU020 8SC040 A2989 P/FR=,- RA
20180122_040000.003,0,RJOS,,,,0,20180122040000,-1,-1,-1,-1,60,-1,9,-1,-1,-1,-1,,8000,0,1,3,FEW 10   SCT 20   OVC 40,1,4,1,1,1012,RJOS 220400Z 06009KT 8000 -RA FEW010 SCT020 OVC040 04/01 Q1012     RMK 2ST010 4CU020 8SC040 A2989 P/FR=,- RA
20180122_050000.000,0,RJOS,,,,0,20180122050000,-1,-1,-1,-1,20,-1,7,-1,-1,-1,-1,,8000,0,1,3,FEW 8   BKN 15   OVC 35,1,4,1,2,1011,RJOS 220500Z 02007KT 8000 -RA FEW008 BKN015 OVC035 04/02 Q1011     RMK 2ST008 5CU015 8SC035 A2988=,- RA
20180122_050000.003,0,RJOS,,,,0,20180122050000,-1,-1,-1,-1,20,-1,7,-1,-1,-1,-1,,8000,0,1,3,FEW 8   BKN 15   OVC 35,1,4,1,2,1011,RJOS 220500Z 02007KT 8000 -RA FEW008 BKN015 OVC035 04/02 Q1011     RMK 2ST008 5CU015 8SC035 A2988=,- RA
20180122_060000.000,0,RJOS,,,,0,20180122060000,-1,-1,-1,-1,330,-1,6,-1,-1,-1,-1,,7000,0,1,3,FEW 5   SCT 8   BKN 15,1,3,1,1,1010,RJOS 220600Z 33006KT 7000 -RA FEW005 SCT008 BKN015 03/01 Q1010     RMK 1ST005 3ST008 7CU015 A2984=,- RA
20180122_060000.004,0,RJOS,,,,0,20180122060000,-1,-1,-1,-1,330,-1,6,-1,-1,-1,-1,,7000,0,1,3,FEW 5   SCT 8   BKN 15,1,3,1,1,1010,RJOS 220600Z 33006KT 7000 -RA FEW005 SCT008 BKN015 03/01 Q1010     RMK 1ST005 3ST008 7CU015 A2984=,- RA
20180122_070000.000,0,RJOS,,,,0,20180122070000,-1,-1,-1,-1,330,-1,8,-1,-1,-1,-1,,9999,0,1,3,FEW 5   BKN 8   BKN 15,1,3,1,2,1011,RJOS 220700Z 33008KT 9999 -RA FEW005 BKN008 BKN015 03/02 Q1011     RMK 1ST005 5ST008 7CU015 A2986=,- RA
20180122_070000.003,0,RJOS,,,,0,20180122070000,-1,-1,-1,-1,330,-1,8,-1,-1,-1,-1,,9999,0,1,3,FEW 5   BKN 8   BKN 15,1,3,1,2,1011,RJOS 220700Z 33008KT 9999 -RA FEW005 BKN008 BKN015 03/02 Q1011     RMK 1ST005 5ST008 7CU015 A2986=,- RA
20180122_080000.000,0,RJOS,,,,0,20180122080000,-1,-1,-1,-1,340,-1,11,-1,-1,-1,-1,,9999,0,1,3,FEW 5   SCT 8   BKN 15,1,4,1,2,1011,RJOS 220800Z 34011KT 9999 -RA FEW005 SCT008 BKN015 04/02 Q1011     RMK 1ST005 3ST008 7CU015 A2988=,- RA
20180122_080000.004,0,RJOS,,,,0,20180122080000,-1,-1,-1,-1,340,-1,11,-1,-1,-1,-1,,9999,0,1,3,FEW 5   SCT 8   BKN 15,1,4,1,2,1011,RJOS 220800Z 34011KT 9999 -RA FEW005 SCT008 BKN015 04/02 Q1011     RMK 1ST005 3ST008 7CU015 A2988=,- RA
20180122_090000.000,0,RJOS,,,,0,20180122090000,-1,-1,-1,-1,330,-1,11,-1,-1,-1,-1,,9999,0,1,2,SCT 8   BKN 15,1,4,1,2,1011,RJOS 220900Z 33011KT 9999 -RA SCT008 BKN015 04/02 Q1011 RMK     3ST008 7CU015 A2988=,- RA
20180122_090000.003,0,RJOS,,,,0,20180122090000,-1,-1,-1,-1,330,-1,11,-1,-1,-1,-1,,9999,0,1,2,SCT 8   BKN 15,1,4,1,2,1011,RJOS 220900Z 33011KT 9999 -RA SCT008 BKN015 04/02 Q1011 RMK     3ST008 7CU015 A2988=,- RA
20180122_100000.000,0,RJOS,,,,0,20180122100000,-1,-1,-1,-1,310,-1,6,-1,-1,-1,-1,,9999,0,0,2,FEW 8   SCT 15,1,3,1,1,1012,RJOS 221000Z 31006KT 9999 FEW008 SCT015 03/01 Q1012 RMK 1ST008     3CU015 A2989=,
20180122_100000.003,0,RJOS,,,,0,20180122100000,-1,-1,-1,-1,310,-1,6,-1,-1,-1,-1,,9999,0,0,2,FEW 8   SCT 15,1,3,1,1,1012,RJOS 221000Z 31006KT 9999 FEW008 SCT015 03/01 Q1012 RMK 1ST008     3CU015 A2989=,
20180122_110000.000,0,RJOS,,,,0,20180122110000,-1,-1,-1,-1,340,-1,5,-1,-1,-1,-1,,9999,0,0,1,FEW 15,1,3,1,1,1012,RJOS 221100Z 34005KT 9999 FEW015 03/01 Q1012 RMK 2CU015 A2990=,
20180122_110000.004,0,RJOS,,,,0,20180122110000,-1,-1,-1,-1,340,-1,5,-1,-1,-1,-1,,9999,0,0,1,FEW 15,1,3,1,1,1012,RJOS 221100Z 34005KT 9999 FEW015 03/01 Q1012 RMK 2CU015 A2990=,
20180122_120000.000,0,RJOS,,,,0,20180122120000,-1,-1,-1,-1,340,-1,7,-1,-1,260,10,,9999,0,0,1,FEW 15,1,3,1,0,1012,RJOS 221200Z 34007KT 260V010 9999 FEW015 03/00 Q1012 RMK 1CU015     A2990=,
20180122_120000.003,0,RJOS,,,,0,20180122120000,-1,-1,-1,-1,340,-1,7,-1,-1,260,10,,9999,0,0,1,FEW 15,1,3,1,0,1012,RJOS 221200Z 34007KT 260V010 9999 FEW015 03/00 Q1012 RMK     1CU015 A2990=,
20180122_130000.000,0,RJOS,,,,0,20180122130000,-1,-1,-1,-1,310,-1,2,-1,-1,-1,-1,,9999,0,0,1,FEW 30,1,3,1,0,1012,RJOS 221300Z 31002KT 9999 FEW030 03/00 Q1012 RMK 1CU030 A2990=,
20180122_130000.004,0,RJOS,,,,0,20180122130000,-1,-1,-1,-1,310,-1,2,-1,-1,-1,-1,,9999,0,0,1,FEW 30,1,3,1,0,1012,RJOS 221300Z 31002KT 9999 FEW030 03/00 Q1012 RMK 1CU030 A2990=,
20180122_140000.000,0,RJOS,,,,0,20180122140000,-1,-1,-1,-1,300,-1,2,-1,-1,-1,-1,,9999,0,0,1,FEW 30,1,2,1,0,1012,RJOS 221400Z 30002KT 9999 FEW030 02/00 Q1012 RMK 1CU030 A2990=,
20180122_140000.004,0,RJOS,,,,0,20180122140000,-1,-1,-1,-1,300,-1,2,-1,-1,-1,-1,,9999,0,0,1,FEW 30,1,2,1,0,1012,RJOS 221400Z 30002KT 9999 FEW030 02/00 Q1012 RMK 1CU030 A2990=,
20180122_150000.000,0,RJOS,,,,0,20180122150000,-1,-1,-1,-1,999,-1,2,-1,-1,-1,-1,,9999,0,0,1,FEW 30,1,1,-1,0,1012,RJOS 221500Z VRB02KT 9999 FEW030 01/M00 Q1012 RMK 1CU030 A2989=,
20180122_150000.003,0,RJOS,,,,0,20180122150000,-1,-1,-1,-1,999,-1,2,-1,-1,-1,-1,,9999,0,0,1,FEW 30,1,1,-1,0,1012,RJOS 221500Z VRB02KT 9999 FEW030 01/M00 Q1012 RMK 1CU030     A2989=,
20180122_160000.000,0,RJOS,,,,0,20180122160000,-1,-1,-1,-1,300,-1,5,-1,-1,-1,-1,,9999,0,0,1,FEW 30,1,2,1,0,1012,RJOS 221600Z 30005KT 9999 FEW030 02/00 Q1012 RMK 1CU030 A2989=,
20180122_160000.003,0,RJOS,,,,0,20180122160000,-1,-1,-1,-1,300,-1,5,-1,-1,-1,-1,,9999,0,0,1,FEW 30,1,2,1,0,1012,RJOS 221600Z 30005KT 9999 FEW030 02/00 Q1012 RMK 1CU030 A2989=,
20180122_170000.000,0,RJOS,,,,0,20180122170000,-1,-1,-1,-1,290,-1,6,-1,-1,-1,-1,,9999,0,0,1,FEW 30,1,2,1,0,1012,RJOS 221700Z 29006KT 9999 FEW030 02/00 Q1012 RMK 1CU030 A2991=,
20180122_170000.003,0,RJOS,,,,0,20180122170000,-1,-1,-1,-1,290,-1,6,-1,-1,-1,-1,,9999,0,0,1,FEW 30,1,2,1,0,1012,RJOS 221700Z 29006KT 9999 FEW030 02/00 Q1012 RMK 1CU030 A2991=,
20180122_180000.000,0,RJOS,,,,0,20180122180000,-1,-1,-1,-1,999,-1,2,-1,-1,-1,-1,,9999,0,0,1,FEW 30,1,1,-1,0,1011,RJOS 221800Z VRB02KT 9999 FEW030 01/M00 Q1011 RMK 1CU030 A2988=,
20180122_180000.003,0,RJOS,,,,0,20180122180000,-1,-1,-1,-1,999,-1,2,-1,-1,-1,-1,,9999,0,0,1,FEW 30,1,1,-1,0,1011,RJOS 221800Z VRB02KT 9999 FEW030 01/M00 Q1011 RMK 1CU030     A2988=,
20180122_190000.000,0,RJOS,,,,0,20180122190000,-1,-1,-1,-1,280,-1,5,-1,-1,-1,-1,,9999,0,0,1,FEW 30,1,1,-1,0,1011,RJOS 221900Z 28005KT 9999 FEW030 01/M00 Q1011 RMK 1CU030 A2987=,
20180122_190000.003,0,RJOS,,,,0,20180122190000,-1,-1,-1,-1,280,-1,5,-1,-1,-1,-1,,9999,0,0,1,FEW 30,1,1,-1,0,1011,RJOS 221900Z 28005KT 9999 FEW030 01/M00 Q1011 RMK 1CU030     A2987=,
20180122_200000.000,0,RJOS,,,,0,20180122200000,-1,-1,-1,-1,280,-1,4,-1,-1,-1,-1,,9999,0,0,1,FEW 30,1,1,-1,0,1011,RJOS 222000Z 28004KT 9999 FEW030 01/M00 Q1011 RMK 2CU030 A2986=,
20180122_200000.003,0,RJOS,,,,0,20180122200000,-1,-1,-1,-1,280,-1,4,-1,-1,-1,-1,,9999,0,0,1,FEW 30,1,1,-1,0,1011,RJOS 222000Z 28004KT 9999 FEW030 01/M00 Q1011 RMK 2CU030     A2986=,
20180122_210000.000,0,RJOS,,,,0,20180122210000,-1,-1,-1,-1,270,-1,4,-1,-1,230,320,,9999,0,0,2,FEW 25   SCT 50,1,1,1,0,1011,RJOS 222100Z 27004KT 230V320 9999 FEW025 SCT050 01/00 Q1011 RMK     2CU025 4SC050 A2987=,
20180122_210000.004,0,RJOS,,,,0,20180122210000,-1,-1,-1,-1,270,-1,4,-1,-1,230,320,,9999,0,0,2,FEW 25   SCT 50,1,1,1,0,1011,RJOS 222100Z 27004KT 230V320 9999 FEW025 SCT050 01/00 Q1011     RMK 2CU025 4SC050 A2987=,
20180122_220000.000,0,RJOS,,,,0,20180122220000,-1,-1,-1,-1,290,-1,4,-1,-1,230,330,,9999,0,0,2,FEW 25   SCT 50,1,1,-1,0,1011,RJOS 222200Z 29004KT 230V330 9999 FEW025 SCT050 01/M00 Q1011     RMK 1CU025 3SC050 A2987=,
20180122_220000.003,0,RJOS,,,,0,20180122220000,-1,-1,-1,-1,290,-1,4,-1,-1,230,330,,9999,0,0,2,FEW 25   SCT 50,1,1,-1,0,1011,RJOS 222200Z 29004KT 230V330 9999 FEW025 SCT050 01/M00 Q1011     RMK 1CU025 3SC050 A2987=,
20180122_230000.000,0,RJOS,,,,0,20180122230000,-1,-1,-1,-1,280,-1,3,-1,-1,240,330,,9999,0,0,1,FEW 25,1,1,-1,1,1011,RJOS 222300Z 28003KT 240V330 9999 FEW025 01/M01 Q1011 RMK     1CU025 A2987=,
20180122_230000.004,0,RJOS,,,,0,20180122230000,-1,-1,-1,-1,280,-1,3,-1,-1,240,330,,9999,0,0,1,FEW 25,1,1,-1,1,1011,RJOS 222300Z 28003KT 240V330 9999 FEW025 01/M01 Q1011 RMK     1CU025 A2987=,
20180123_000000.000,0,RJOS,,,,0,20180123000000,-1,-1,-1,-1,260,-1,4,-1,-1,-1,-1,,9999,0,0,2,FEW 25   SCT 50,1,6,1,2,1011,RJOS 230000Z 26004KT 9999 FEW025 SCT050 06/02 Q1011 RMK 1CU025     3SC050 A2988=,
20180123_000000.003,0,RJOS,,,,0,20180123000000,-1,-1,-1,-1,260,-1,4,-1,-1,-1,-1,,9999,0,0,2,FEW 25   SCT 50,1,6,1,2,1011,RJOS 230000Z 26004KT 9999 FEW025 SCT050 06/02 Q1011 RMK 1CU025     3SC050 A2988=,
20180123_010000.000,0,RJOS,,,,0,20180123010000,-1,-1,-1,-1,270,-1,6,-1,-1,210,330,,9999,0,0,1,FEW 30,1,8,1,2,1012,RJOS 230100Z 27006KT 210V330 9999 FEW030 08/02 Q1012 RMK 1CU030     A2988=,
20180123_010000.003,0,RJOS,,,,0,20180123010000,-1,-1,-1,-1,270,-1,6,-1,-1,210,330,,9999,0,0,1,FEW 30,1,8,1,2,1012,RJOS 230100Z 27006KT 210V330 9999 FEW030 08/02 Q1012 RMK     1CU030 A2988=,
20180123_020000.000,0,RJOS,,,,0,20180123020000,-1,-1,-1,-1,310,-1,19,-1,29,-1,-1,,9999,0,0,1,FEW 30,1,11,-1,3,1011,RJOS 230200Z 31019G29KT 9999 FEW030 11/M03 Q1011 RMK 2CU030     A2987=,
20180123_020000.003,0,RJOS,,,,0,20180123020000,-1,-1,-1,-1,310,-1,19,-1,29,-1,-1,,9999,0,0,1,FEW 30,1,11,-1,3,1011,RJOS 230200Z 31019G29KT 9999 FEW030 11/M03 Q1011 RMK 2CU030     A2987=,
20180123_030000.000,0,RJOS,,,,0,20180123030000,-1,-1,-1,-1,320,-1,19,-1,30,-1,-1,,9999,0,0,2,FEW 30   SCT 40,1,10,-1,3,1011,RJOS 230300Z 32019G30KT 9999 FEW030 SCT040 10/M03 Q1011 RMK     1CU030 3CU040 A2986=,
20180123_030000.004,0,RJOS,,,,0,20180123030000,-1,-1,-1,-1,320,-1,19,-1,30,-1,-1,,9999,0,0,2,FEW 30   SCT 40,1,10,-1,3,1011,RJOS 230300Z 32019G30KT 9999 FEW030 SCT040 10/M03 Q1011 RMK     1CU030 3CU040 A2986=,
20180123_040000.000,0,RJOS,,,,0,20180123040000,-1,-1,-1,-1,320,-1,20,-1,30,-1,-1,,9999,0,1,2,FEW 15   BKN 40,1,8,-1,0,1011,RJOS 230400Z 32020G30KT 9999 -SHRA FEW015 BKN040 08/M00 Q1011     RMK 2CU015 6CU040 A2986 4000W=,- RA SH
20180123_040000.004,0,RJOS,,,,0,20180123040000,-1,-1,-1,-1,320,-1,20,-1,30,-1,-1,,9999,0,1,2,FEW 15   BKN 40,1,8,-1,0,1011,RJOS 230400Z 32020G30KT 9999 -SHRA FEW015 BKN040 08/M00 Q1011     RMK 2CU015 6CU040 A2986 4000W=,- RA SH
20180123_050000.000,0,RJOS,,,,0,20180123050000,-1,-1,-1,-1,310,-1,22,-1,32,-1,-1,,9999,0,1,2,FEW 15   SCT 40,1,7,1,1,1012,RJOS 230500Z 31022G32KT 9999 -SHRA FEW015 SCT040 07/01 Q1012     RMK 1CU015 4CU040 A2989=,- RA SH
20180123_050000.003,0,RJOS,,,,0,20180123050000,-1,-1,-1,-1,310,-1,22,-1,32,-1,-1,,9999,0,1,2,FEW 15   SCT 40,1,7,1,1,1012,RJOS 230500Z 31022G32KT 9999 -SHRA FEW015 SCT040 07/01 Q1012     RMK 1CU015 4CU040 A2989=,- RA SH
20180123_060000.000,0,RJOS,,,,0,20180123060000,-1,-1,-1,-1,300,-1,15,-1,-1,-1,-1,,9999,0,0,2,FEW 15   SCT 40,1,7,-1,2,1012,RJOS 230600Z 30015KT 9999 FEW015 SCT040 07/M02 Q1012 RMK 1CU015     3CU040 A2989 PEAK GUST 20KT=,
20180123_060000.004,0,RJOS,,,,0,20180123060000,-1,-1,-1,-1,300,-1,15,-1,-1,-1,-1,,9999,0,0,2,FEW 15   SCT 40,1,7,-1,2,1012,RJOS 230600Z 30015KT 9999 FEW015 SCT040 07/M02 Q1012 RMK     1CU015 3CU040 A2989 PEAK GUST 20KT=,
20180123_070000.000,0,RJOS,,,,0,20180123070000,-1,-1,-1,-1,330,-1,22,-1,32,-1,-1,,9999,0,1,3,FEW 3   SCT 15   BKN 40,1,5,1,1,1013,RJOS 230700Z 33022G32KT 9999 -SHRA FEW003 SCT015 BKN040 05/01     Q1013 RMK 1ST003 4CU015 7CU040 A2992 5000W=,- RA SH
20180123_070000.003,0,RJOS,,,,0,20180123070000,-1,-1,-1,-1,330,-1,22,-1,32,-1,-1,,9999,0,1,3,FEW 3   SCT 15   BKN 40,1,5,1,1,1013,RJOS 230700Z 33022G32KT 9999 -SHRA FEW003 SCT015 BKN040 05/01     Q1013 RMK 1ST003 4CU015 7CU040 A2992 5000W=,- RA SH
20180123_080000.000,0,RJOS,,,,0,20180123080000,-1,-1,-1,-1,330,-1,14,-1,-1,-1,-1,,9999,0,1,2,FEW 3   SCT 40,1,4,-1,1,1013,RJOS 230800Z 33014KT 9999 VCSH FEW003 SCT040 04/M01 Q1013 RMK     1ST003 3CU040 A2994 PEAK GUST 21KT=,VC SH
20180123_080000.003,0,RJOS,,,,0,20180123080000,-1,-1,-1,-1,330,-1,14,-1,-1,-1,-1,,9999,0,1,2,FEW 3   SCT 40,1,4,-1,1,1013,RJOS 230800Z 33014KT 9999 VCSH FEW003 SCT040 04/M01 Q1013 RMK     1ST003 3CU040 A2994 PEAK GUST 21KT=,VC SH
20180123_090000.000,0,RJOS,,,,0,20180123090000,-1,-1,-1,-1,340,-1,13,-1,-1,-1,-1,,9999,0,0,2,FEW 25   SCT 60,1,4,-1,4,1014,RJOS 230900Z 34013KT 9999 FEW025 SCT060 04/M04 Q1014 RMK 1CU025     4SC060 A2995 PEAK GUST 20KT=,
20180123_090000.003,0,RJOS,,,,0,20180123090000,-1,-1,-1,-1,340,-1,13,-1,-1,-1,-1,,9999,0,0,2,FEW 25   SCT 60,1,4,-1,4,1014,RJOS 230900Z 34013KT 9999 FEW025 SCT060 04/M04 Q1014 RMK     1CU025 4SC060 A2995 PEAK GUST 20KT=,
20180123_100000.000,0,RJOS,,,,0,20180123100000,-1,-1,-1,-1,300,-1,7,-1,-1,-1,-1,,9999,0,0,3,FEW 25   SCT 40   BKN 50,1,4,-1,6,1015,RJOS 231000Z 30007KT 9999 FEW025 SCT040 BKN050 04/M06 Q1015 RMK     1CU025 3CU040 6SC050 A2999=,
20180123_100000.003,0,RJOS,,,,0,20180123100000,-1,-1,-1,-1,300,-1,7,-1,-1,-1,-1,,9999,0,0,3,FEW 25   SCT 40   BKN 50,1,4,-1,6,1015,RJOS 231000Z 30007KT 9999 FEW025 SCT040 BKN050 04/M06 Q1015     RMK 1CU025 3CU040 6SC050 A2999=,
20180123_110000.000,0,RJOS,,,,0,20180123110000,-1,-1,-1,-1,330,-1,5,-1,-1,300,10,,9999,0,0,2,FEW 25   SCT 50,1,3,-1,8,1016,RJOS 231100Z 33005KT 300V010 9999 FEW025 SCT050 03/M08 Q1016     RMK 1CU025 4SC050 A3000=,
20180123_110000.003,0,RJOS,,,,0,20180123110000,-1,-1,-1,-1,330,-1,5,-1,-1,300,10,,9999,0,0,2,FEW 25   SCT 50,1,3,-1,8,1016,RJOS 231100Z 33005KT 300V010 9999 FEW025 SCT050 03/M08 Q1016     RMK 1CU025 4SC050 A3000=,
20180123_120000.000,0,RJOS,,,,0,20180123120000,-1,-1,-1,-1,320,-1,8,-1,-1,-1,-1,,9999,0,0,2,FEW 25   SCT 50,1,2,-1,9,1016,RJOS 231200Z 32008KT 9999 FEW025 SCT050 02/M09 Q1016 RMK 1CU025     3SC050 A3002=,
20180123_120000.003,0,RJOS,,,,0,20180123120000,-1,-1,-1,-1,320,-1,8,-1,-1,-1,-1,,9999,0,0,2,FEW 25   SCT 50,1,2,-1,9,1016,RJOS 231200Z 32008KT 9999 FEW025 SCT050 02/M09 Q1016 RMK     1CU025 3SC050 A3002=,
20180123_130000.000,0,RJOS,,,,0,20180123130000,-1,-1,-1,-1,310,-1,8,-1,-1,-1,-1,,9999,0,0,2,FEW 25   SCT 45,1,2,-1,9,1016,RJOS 231300Z 31008KT 9999 FEW025 SCT045 02/M09 Q1016 RMK 1CU025     3SC045 A3003=,
20180123_130000.003,0,RJOS,,,,0,20180123130000,-1,-1,-1,-1,310,-1,8,-1,-1,-1,-1,,9999,0,0,2,FEW 25   SCT 45,1,2,-1,9,1016,RJOS 231300Z 31008KT 9999 FEW025 SCT045 02/M09 Q1016 RMK     1CU025 3SC045 A3003=,
20180123_140000.000,0,RJOS,,,,0,20180123140000,-1,-1,-1,-1,310,-1,7,-1,-1,-1,-1,,9999,0,0,2,FEW 25   SCT 45,1,1,-1,8,1016,RJOS 231400Z 31007KT 9999 FEW025 SCT045 01/M08 Q1016 RMK 1CU025     4SC045 A3003=,
20180123_140000.003,0,RJOS,,,,0,20180123140000,-1,-1,-1,-1,310,-1,7,-1,-1,-1,-1,,9999,0,0,2,FEW 25   SCT 45,1,1,-1,8,1016,RJOS 231400Z 31007KT 9999 FEW025 SCT045 01/M08 Q1016 RMK     1CU025 4SC045 A3003=,
20180123_150000.000,0,RJOS,,,,0,20180123150000,-1,-1,-1,-1,310,-1,7,-1,-1,-1,-1,,9999,0,0,1,FEW 25,1,1,-1,6,1016,RJOS 231500Z 31007KT 9999 FEW025 01/M06 Q1016 RMK 1CU025 A3003=,
20180123_150000.003,0,RJOS,,,,0,20180123150000,-1,-1,-1,-1,310,-1,7,-1,-1,-1,-1,,9999,0,0,1,FEW 25,1,1,-1,6,1016,RJOS 231500Z 31007KT 9999 FEW025 01/M06 Q1016 RMK 1CU025     A3003=,
20180123_160000.000,0,RJOS,,,,0,20180123160000,-1,-1,-1,-1,290,-1,4,-1,-1,-1,-1,,9999,0,0,2,FEW 25   SCT 45,1,0,-1,5,1016,RJOS 231600Z 29004KT 9999 FEW025 SCT045 00/M05 Q1016 RMK 1CU025     4SC045 A3001=,
20180123_160000.003,0,RJOS,,,,0,20180123160000,-1,-1,-1,-1,290,-1,4,-1,-1,-1,-1,,9999,0,0,2,FEW 25   SCT 45,1,0,-1,5,1016,RJOS 231600Z 29004KT 9999 FEW025 SCT045 00/M05 Q1016 RMK     1CU025 4SC045 A3001=,
20180123_170000.000,0,RJOS,,,,0,20180123170000,-1,-1,-1,-1,270,-1,4,-1,-1,-1,-1,,9999,0,1,3,FEW 25   SCT 35   BKN 50,1,1,-1,5,1016,RJOS 231700Z 27004KT 9999 -SHSN FEW025 SCT035 BKN050 01/M05     Q1016 RMK 1CU025 3CU035 7SC050 A3002=,- SN SH
20180123_170000.003,0,RJOS,,,,0,20180123170000,-1,-1,-1,-1,270,-1,4,-1,-1,-1,-1,,9999,0,1,3,FEW 25   SCT 35   BKN 50,1,1,-1,5,1016,RJOS 231700Z 27004KT 9999 -SHSN FEW025 SCT035 BKN050 01/M05     Q1016 RMK 1CU025 3CU035 7SC050 A3002=,- SN SH
20180123_180000.000,0,RJOS,,,,0,20180123180000,-1,-1,-1,-1,280,-1,5,-1,-1,-1,-1,,9999,0,1,3,FEW 25   SCT 35   BKN 50,1,0,-1,4,1016,RJOS 231800Z 28005KT 9999 -SHSN FEW025 SCT035 BKN050 00/M04     Q1016 RMK 1CU025 4CU035 5SC050 A3002=,- SN SH
20180123_180000.003,0,RJOS,,,,0,20180123180000,-1,-1,-1,-1,280,-1,5,-1,-1,-1,-1,,9999,0,1,3,FEW 25   SCT 35   BKN 50,1,0,-1,4,1016,RJOS 231800Z 28005KT 9999 -SHSN FEW025 SCT035 BKN050 00/M04     Q1016 RMK 1CU025 4CU035 5SC050 A3002=,- SN SH
20180123_190000.000,0,RJOS,,,,0,20180123190000,-1,-1,-1,-1,290,-1,4,-1,-1,270,350,,9999,0,1,3,FEW 25   BKN 35   BKN 50,1,0,-1,5,1016,RJOS 231900Z 29004KT 270V350 9999 -SHSN FEW025 BKN035 BKN050     00/M05 Q1016 RMK 1CU025 5CU035 6SC050 A3001=,- SN SH
20180123_190000.003,0,RJOS,,,,0,20180123190000,-1,-1,-1,-1,290,-1,4,-1,-1,270,350,,9999,0,1,3,FEW 25   BKN 35   BKN 50,1,0,-1,5,1016,RJOS 231900Z 29004KT 270V350 9999 -SHSN FEW025 BKN035 BKN050     00/M05 Q1016 RMK 1CU025 5CU035 6SC050 A3001=,- SN SH
20180123_200000.000,0,RJOS,,,,0,20180123200000,-1,-1,-1,-1,320,-1,13,-1,-1,-1,-1,,9999,0,0,3,FEW 25   BKN 35   BKN 50,1,1,-1,8,1016,RJOS 232000Z 32013KT 9999 FEW025 BKN035 BKN050 01/M08 Q1016 RMK     1CU025 5CU035 6SC050 A3001=,
20180123_200000.003,0,RJOS,,,,0,20180123200000,-1,-1,-1,-1,320,-1,13,-1,-1,-1,-1,,9999,0,0,3,FEW 25   BKN 35   BKN 50,1,1,-1,8,1016,RJOS 232000Z 32013KT 9999 FEW025 BKN035 BKN050 01/M08 Q1016     RMK 1CU025 5CU035 6SC050 A3001=,
20180123_210000.000,0,RJOS,,,,0,20180123210000,-1,-1,-1,-1,320,-1,14,-1,-1,-1,-1,,9999,0,0,2,FEW 35   SCT 50,1,0,-1,9,1016,RJOS 232100Z 32014KT 9999 FEW035 SCT050 00/M09 Q1016 RMK 2CU035     3SC050 A3003 S000 SD000 FS000=,
20180123_210000.002,2,RJOS,,,,0,20180123210000,-1,-1,-1,-1,320,-1,14,-1,-1,-1,-1,,9999,0,0,2,FEW 35   SCT 50,1,0,-1,9,1016,RJOS 232100Z 32014KT 9999 FEW035 SCT050 00/M09 Q1016 RMK     2CU035 3SC050 A3003 S000 SD/// FS000=,
20180123_210000.003,0,RJOS,,,,0,20180123210000,-1,-1,-1,-1,320,-1,14,-1,-1,-1,-1,,9999,0,0,2,FEW 35   SCT 50,1,0,-1,9,1016,RJOS 232100Z 32014KT 9999 FEW035 SCT050 00/M09 Q1016 RMK     2CU035 3SC050 A3003 S000 SD/// FS000=,
20180123_220000.000,0,RJOS,,,,0,20180123220000,-1,-1,-1,-1,310,-1,13,-1,23,-1,-1,,9999,0,0,1,FEW 35,1,0,-1,10,1017,RJOS 232200Z 31013G23KT 9999 FEW035 00/M10 Q1017 RMK 2CU035     A3004=,
20180123_220000.003,0,RJOS,,,,0,20180123220000,-1,-1,-1,-1,310,-1,13,-1,23,-1,-1,,9999,0,0,1,FEW 35,1,0,-1,10,1017,RJOS 232200Z 31013G23KT 9999 FEW035 00/M10 Q1017 RMK 2CU035     A3004=,
20180123_230000.000,0,RJOS,,,,0,20180123230000,-1,-1,-1,-1,300,-1,15,-1,-1,-1,-1,,9999,0,0,1,FEW 30,1,0,-1,10,1017,RJOS 232300Z 30015KT 9999 FEW030 00/M10 Q1017 RMK 2CU030 A3004=,
20180123_230000.003,0,RJOS,,,,0,20180123230000,-1,-1,-1,-1,300,-1,15,-1,-1,-1,-1,,9999,0,0,1,FEW 30,1,0,-1,10,1017,RJOS 232300Z 30015KT 9999 FEW030 00/M10 Q1017 RMK 2CU030     A3004=,
20180124_000000.000,0,RJOS,,,,0,20180124000000,-1,-1,-1,-1,310,-1,16,-1,27,-1,-1,,9999,0,0,1,FEW 30,1,1,-1,10,1017,RJOS 240000Z 31016G27KT 9999 FEW030 01/M10 Q1017 RMK 1CU030     A3005=,
20180124_000000.003,0,RJOS,,,,0,20180124000000,-1,-1,-1,-1,310,-1,16,-1,27,-1,-1,,9999,0,0,1,FEW 30,1,1,-1,10,1017,RJOS 240000Z 31016G27KT 9999 FEW030 01/M10 Q1017 RMK 1CU030     A3005=,
20180124_010000.000,0,RJOS,,,,0,20180124010000,-1,-1,-1,-1,310,-1,15,-1,-1,-1,-1,,9999,0,0,2,FEW 25   BKN 40,1,1,-1,9,1017,RJOS 240100Z 31015KT 9999 FEW025 BKN040 01/M09 Q1017 RMK 1CU025     6CU040 A3006 PEAK GUST 24KT=,
20180124_010000.004,0,RJOS,,,,0,20180124010000,-1,-1,-1,-1,310,-1,15,-1,-1,-1,-1,,9999,0,0,2,FEW 25   BKN 40,1,1,-1,9,1017,RJOS 240100Z 31015KT 9999 FEW025 BKN040 01/M09 Q1017 RMK     1CU025 6CU040 A3006 PEAK GUST 24KT=,
20180124_020000.000,0,RJOS,,,,0,20180124020000,-1,-1,-1,-1,310,-1,20,-1,30,-1,-1,,9999,0,0,2,FEW 25   BKN 40,1,2,-1,10,1017,RJOS 240200Z 31020G30KT 9999 FEW025 BKN040 02/M10 Q1017 RMK     1CU025 5CU040 A3003=,
20180124_020000.003,0,RJOS,,,,0,20180124020000,-1,-1,-1,-1,310,-1,20,-1,30,-1,-1,,9999,0,0,2,FEW 25   BKN 40,1,2,-1,10,1017,RJOS 240200Z 31020G30KT 9999 FEW025 BKN040 02/M10 Q1017 RMK     1CU025 5CU040 A3003=,
20180124_030000.000,0,RJOS,,,,0,20180124030000,-1,-1,-1,-1,320,-1,18,-1,35,-1,-1,,9999,0,0,2,FEW 25   BKN 40,1,3,-1,10,1015,RJOS 240300Z 32018G35KT 9999 FEW025 BKN040 03/M10 Q1015 RMK     1CU025 5CU040 A2999=,
20180124_030000.003,0,RJOS,,,,0,20180124030000,-1,-1,-1,-1,320,-1,18,-1,35,-1,-1,,9999,0,0,2,FEW 25   BKN 40,1,3,-1,10,1015,RJOS 240300Z 32018G35KT 9999 FEW025 BKN040 03/M10 Q1015 RMK     1CU025 5CU040 A2999=,
20180124_040000.000,0,RJOS,,,,0,20180124040000,-1,-1,-1,-1,320,-1,19,-1,31,-1,-1,,9999,0,0,2,FEW 25   BKN 40,1,2,-1,10,1015,RJOS 240400Z 32019G31KT 9999 FEW025 BKN040 02/M10 Q1015 RMK     1CU025 5CU040 A2998=,
20180124_040000.003,0,RJOS,,,,0,20180124040000,-1,-1,-1,-1,320,-1,19,-1,31,-1,-1,,9999,0,0,2,FEW 25   BKN 40,1,2,-1,10,1015,RJOS 240400Z 32019G31KT 9999 FEW025 BKN040 02/M10 Q1015 RMK     1CU025 5CU040 A2998=,
20180124_050000.000,0,RJOS,,,,0,20180124050000,-1,-1,-1,-1,330,-1,24,-1,34,-1,-1,,9999,0,0,2,FEW 25   BKN 40,1,3,-1,12,1015,RJOS 240500Z 33024G34KT 9999 FEW025 BKN040 03/M12 Q1015 RMK     1CU025 5CU040 A2998=,
20180124_050000.003,0,RJOS,,,,0,20180124050000,-1,-1,-1,-1,330,-1,24,-1,34,-1,-1,,9999,0,0,2,FEW 25   BKN 40,1,3,-1,12,1015,RJOS 240500Z 33024G34KT 9999 FEW025 BKN040 03/M12 Q1015 RMK     1CU025 5CU040 A2998=,
20180124_060000.000,0,RJOS,,,,0,20180124060000,-1,-1,-1,-1,330,-1,24,-1,38,-1,-1,,9999,0,0,2,FEW 25   BKN 40,1,3,-1,13,1015,RJOS 240600Z 33024G38KT 9999 FEW025 BKN040 03/M13 Q1015 RMK     1CU025 5CU040 A2999=,
20180124_060000.003,0,RJOS,,,,0,20180124060000,-1,-1,-1,-1,330,-1,24,-1,38,-1,-1,,9999,0,0,2,FEW 25   BKN 40,1,3,-1,13,1015,RJOS 240600Z 33024G38KT 9999 FEW025 BKN040 03/M13 Q1015 RMK     1CU025 5CU040 A2999=,
20180124_070000.000,0,RJOS,,,,0,20180124070000,-1,-1,-1,-1,330,-1,20,-1,30,-1,-1,,9999,0,0,2,FEW 25   SCT 40,1,1,-1,11,1016,RJOS 240700Z 33020G30KT 9999 FEW025 SCT040 01/M11 Q1016 RMK     1CU025 4CU040 A3001=,
20180124_070000.003,0,RJOS,,,,0,20180124070000,-1,-1,-1,-1,330,-1,20,-1,30,-1,-1,,9999,0,0,2,FEW 25   SCT 40,1,1,-1,11,1016,RJOS 240700Z 33020G30KT 9999 FEW025 SCT040 01/M11 Q1016 RMK     1CU025 4CU040 A3001=,
20180124_080000.000,0,RJOS,,,,0,20180124080000,-1,-1,-1,-1,320,-1,20,-1,39,-1,-1,,9999,0,0,2,FEW 25   SCT 40,-1,0,-1,12,1017,RJOS 240800Z 32020G39KT 9999 FEW025 SCT040 M00/M12 Q1017 RMK     1CU025 4CU040 A3003=,
20180124_080000.003,0,RJOS,,,,0,20180124080000,-1,-1,-1,-1,320,-1,20,-1,39,-1,-1,,9999,0,0,2,FEW 25   SCT 40,-1,0,-1,12,1017,RJOS 240800Z 32020G39KT 9999 FEW025 SCT040 M00/M12 Q1017 RMK     1CU025 4CU040 A3003=,
20180124_090000.000,0,RJOS,,,,0,20180124090000,-1,-1,-1,-1,310,-1,20,-1,37,-1,-1,,9999,0,0,2,FEW 25   SCT 40,-1,1,-1,13,1017,RJOS 240900Z 31020G37KT 9999 FEW025 SCT040 M01/M13 Q1017 RMK     1CU025 4CU040 A3004=,
20180124_090000.004,0,RJOS,,,,0,20180124090000,-1,-1,-1,-1,310,-1,20,-1,37,-1,-1,,9999,0,0,2,FEW 25   SCT 40,-1,1,-1,13,1017,RJOS 240900Z 31020G37KT 9999 FEW025 SCT040 M01/M13 Q1017 RMK     1CU025 4CU040 A3004=,
20180124_100000.000,0,RJOS,,,,0,20180124100000,-1,-1,-1,-1,310,-1,17,-1,31,-1,-1,,9999,0,0,2,FEW 25   SCT 40,-1,1,-1,12,1018,RJOS 241000Z 31017G31KT 9999 FEW025 SCT040 M01/M12 Q1018 RMK     1CU025 4CU040 A3007=,
20180124_100000.003,0,RJOS,,,,0,20180124100000,-1,-1,-1,-1,310,-1,17,-1,31,-1,-1,,9999,0,0,2,FEW 25   SCT 40,-1,1,-1,12,1018,RJOS 241000Z 31017G31KT 9999 FEW025 SCT040 M01/M12 Q1018 RMK     1CU025 4CU040 A3007=,
20180124_110000.000,0,RJOS,,,,0,20180124110000,-1,-1,-1,-1,310,-1,20,-1,37,-1,-1,,9999,0,0,2,FEW 25   SCT 40,-1,1,-1,11,1018,RJOS 241100Z 31020G37KT 9999 FEW025 SCT040 M01/M11 Q1018 RMK     1CU025 3CU040 A3007=,
20180124_110000.003,0,RJOS,,,,0,20180124110000,-1,-1,-1,-1,310,-1,20,-1,37,-1,-1,,9999,0,0,2,FEW 25   SCT 40,-1,1,-1,11,1018,RJOS 241100Z 31020G37KT 9999 FEW025 SCT040 M01/M11 Q1018 RMK     1CU025 3CU040 A3007=,
20180124_120000.000,0,RJOS,,,,0,20180124120000,-1,-1,-1,-1,310,-1,16,-1,26,-1,-1,,9999,0,0,2,FEW 25   SCT 40,-1,2,-1,11,1018,RJOS 241200Z 31016G26KT 9999 FEW025 SCT040 M02/M11 Q1018 RMK     1CU025 3CU040 A3006=,
20180124_120000.003,0,RJOS,,,,0,20180124120000,-1,-1,-1,-1,310,-1,16,-1,26,-1,-1,,9999,0,0,2,FEW 25   SCT 40,-1,2,-1,11,1018,RJOS 241200Z 31016G26KT 9999 FEW025 SCT040 M02/M11 Q1018 RMK     1CU025 3CU040 A3006=,
20180124_130000.000,0,RJOS,,,,0,20180124130000,-1,-1,-1,-1,310,-1,14,-1,24,-1,-1,,9999,0,0,2,FEW 25   SCT 40,-1,2,-1,11,1018,RJOS 241300Z 31014G24KT 9999 FEW025 SCT040 M02/M11 Q1018 RMK     1CU025 3CU040 A3007=,
20180124_130000.003,0,RJOS,,,,0,20180124130000,-1,-1,-1,-1,310,-1,14,-1,24,-1,-1,,9999,0,0,2,FEW 25   SCT 40,-1,2,-1,11,1018,RJOS 241300Z 31014G24KT 9999 FEW025 SCT040 M02/M11 Q1018 RMK     1CU025 3CU040 A3007=,
20180124_140000.000,0,RJOS,,,,0,20180124140000,-1,-1,-1,-1,320,-1,14,-1,24,-1,-1,,9999,0,0,1,FEW 25,-1,2,-1,10,1018,RJOS 241400Z 32014G24KT 9999 FEW025 M02/M10 Q1018 RMK 1CU025     A3007=,
20180124_140000.004,0,RJOS,,,,0,20180124140000,-1,-1,-1,-1,320,-1,14,-1,24,-1,-1,,9999,0,0,1,FEW 25,-1,2,-1,10,1018,RJOS 241400Z 32014G24KT 9999 FEW025 M02/M10 Q1018 RMK 1CU025     A3007=,
20180124_150000.000,0,RJOS,,,,0,20180124150000,-1,-1,-1,-1,310,-1,13,-1,-1,-1,-1,,9999,0,0,1,FEW 25,-1,2,-1,11,1018,RJOS 241500Z 31013KT 9999 FEW025 M02/M11 Q1018 RMK 1CU025     A3006=,
20180124_150000.003,0,RJOS,,,,0,20180124150000,-1,-1,-1,-1,310,-1,13,-1,-1,-1,-1,,9999,0,0,1,FEW 25,-1,2,-1,11,1018,RJOS 241500Z 31013KT 9999 FEW025 M02/M11 Q1018 RMK 1CU025     A3006=,
20180124_160000.000,0,RJOS,,,,0,20180124160000,-1,-1,-1,-1,310,-1,13,-1,-1,-1,-1,,9999,0,0,1,FEW 25,-1,2,-1,11,1017,RJOS 241600Z 31013KT 9999 FEW025 M02/M11 Q1017 RMK 1CU025     A3006=,
20180124_160000.003,0,RJOS,,,,0,20180124160000,-1,-1,-1,-1,310,-1,13,-1,-1,-1,-1,,9999,0,0,1,FEW 25,-1,2,-1,11,1017,RJOS 241600Z 31013KT 9999 FEW025 M02/M11 Q1017 RMK 1CU025     A3006=,
20180124_170000.000,0,RJOS,,,,0,20180124170000,-1,-1,-1,-1,310,-1,13,-1,-1,-1,-1,,9999,0,0,1,FEW 25,-1,1,-1,10,1018,RJOS 241700Z 31013KT 9999 FEW025 M01/M10 Q1018 RMK 1CU025     A3007=,
20180124_170000.003,0,RJOS,,,,0,20180124170000,-1,-1,-1,-1,310,-1,13,-1,-1,-1,-1,,9999,0,0,1,FEW 25,-1,1,-1,10,1018,RJOS 241700Z 31013KT 9999 FEW025 M01/M10 Q1018 RMK 1CU025     A3007=,
20180124_180000.000,0,RJOS,,,,0,20180124180000,-1,-1,-1,-1,320,-1,11,-1,-1,-1,-1,,9999,0,0,1,FEW 30,-1,1,-1,10,1018,RJOS 241800Z 32011KT 9999 FEW030 M01/M10 Q1018 RMK 1CU030     A3007=,
20180124_180000.003,0,RJOS,,,,0,20180124180000,-1,-1,-1,-1,320,-1,11,-1,-1,-1,-1,,9999,0,0,1,FEW 30,-1,1,-1,10,1018,RJOS 241800Z 32011KT 9999 FEW030 M01/M10 Q1018 RMK 1CU030     A3007=,
20180124_190000.000,0,RJOS,,,,0,20180124190000,-1,-1,-1,-1,320,-1,9,-1,-1,-1,-1,,9999,0,0,1,FEW 30,-1,1,-1,9,1018,RJOS 241900Z 32009KT 9999 FEW030 M01/M09 Q1018 RMK 1CU030     A3008=,
20180124_190000.004,0,RJOS,,,,0,20180124190000,-1,-1,-1,-1,320,-1,9,-1,-1,-1,-1,,9999,0,0,1,FEW 30,-1,1,-1,9,1018,RJOS 241900Z 32009KT 9999 FEW030 M01/M09 Q1018 RMK 1CU030     A3008=,
20180124_200000.000,0,RJOS,,,,0,20180124200000,-1,-1,-1,-1,310,-1,13,-1,-1,-1,-1,,9999,0,0,1,FEW 30,-1,1,-1,9,1018,RJOS 242000Z 31013KT 9999 FEW030 M01/M09 Q1018 RMK 1CU030     A3008=,
20180124_200000.003,0,RJOS,,,,0,20180124200000,-1,-1,-1,-1,310,-1,13,-1,-1,-1,-1,,9999,0,0,1,FEW 30,-1,1,-1,9,1018,RJOS 242000Z 31013KT 9999 FEW030 M01/M09 Q1018 RMK 1CU030     A3008=,
20180124_210000.000,0,RJOS,,,,0,20180124210000,-1,-1,-1,-1,310,-1,16,-1,26,-1,-1,,9999,0,0,1,FEW 30,-1,1,-1,9,1018,RJOS 242100Z 31016G26KT 9999 FEW030 M01/M09 Q1018 RMK 2CU030     A3008 S000 SD/// FS000=,
20180124_210000.004,0,RJOS,,,,0,20180124210000,-1,-1,-1,-1,310,-1,16,-1,26,-1,-1,,9999,0,0,1,FEW 30,-1,1,-1,9,1018,RJOS 242100Z 31016G26KT 9999 FEW030 M01/M09 Q1018 RMK 2CU030     A3008 S000 SD/// FS000=,
20180124_220000.000,0,RJOS,,,,0,20180124220000,-1,-1,-1,-1,310,-1,11,-1,-1,-1,-1,,9999,0,0,1,SCT 25,-1,1,-1,9,1018,RJOS 242200Z 31011KT 9999 SCT025 M01/M09 Q1018 RMK 3CU025     A3009=,
20180124_220000.003,0,RJOS,,,,0,20180124220000,-1,-1,-1,-1,310,-1,11,-1,-1,-1,-1,,9999,0,0,1,SCT 25,-1,1,-1,9,1018,RJOS 242200Z 31011KT 9999 SCT025 M01/M09 Q1018 RMK 3CU025     A3009=,
20180124_230000.000,0,RJOS,,,,0,20180124230000,-1,-1,-1,-1,320,-1,12,-1,-1,-1,-1,,9999,0,0,1,SCT 25,-1,0,-1,9,1019,RJOS 242300Z 32012KT 9999 SCT025 M00/M09 Q1019 RMK 3CU025     A3010=,
20180124_230000.003,0,RJOS,,,,0,20180124230000,-1,-1,-1,-1,320,-1,12,-1,-1,-1,-1,,9999,0,0,1,SCT 25,-1,0,-1,9,1019,RJOS 242300Z 32012KT 9999 SCT025 M00/M09 Q1019 RMK 3CU025     A3010=,
20180125_000000.000,0,RJOS,,,,0,20180125000000,-1,-1,-1,-1,310,-1,15,-1,25,-1,-1,,9999,0,0,1,FEW 25,1,1,-1,9,1019,RJOS 250000Z 31015G25KT 9999 FEW025 01/M09 Q1019 RMK 2CU025     A3010=,
20180125_000000.003,0,RJOS,,,,0,20180125000000,-1,-1,-1,-1,310,-1,15,-1,25,-1,-1,,9999,0,0,1,FEW 25,1,1,-1,9,1019,RJOS 250000Z 31015G25KT 9999 FEW025 01/M09 Q1019 RMK 2CU025     A3010=,
20180125_010000.000,0,RJOS,,,,0,20180125010000,-1,-1,-1,-1,330,-1,15,-1,25,-1,-1,,9999,0,0,1,FEW 25,1,2,-1,8,1019,RJOS 250100Z 33015G25KT 9999 FEW025 02/M08 Q1019 RMK 2CU025     A3011=,
20180125_010000.003,0,RJOS,,,,0,20180125010000,-1,-1,-1,-1,330,-1,15,-1,25,-1,-1,,9999,0,0,1,FEW 25,1,2,-1,8,1019,RJOS 250100Z 33015G25KT 9999 FEW025 02/M08 Q1019 RMK 2CU025     A3011=,
20180125_020000.000,0,RJOS,,,,0,20180125020000,-1,-1,-1,-1,330,-1,14,-1,24,-1,-1,,9999,0,0,1,FEW 25,1,3,-1,8,1019,RJOS 250200Z 33014G24KT 9999 FEW025 03/M08 Q1019 RMK 2CU025     A3009=,
20180125_020000.004,0,RJOS,,,,0,20180125020000,-1,-1,-1,-1,330,-1,14,-1,24,-1,-1,,9999,0,0,1,FEW 25,1,3,-1,8,1019,RJOS 250200Z 33014G24KT 9999 FEW025 03/M08 Q1019 RMK 2CU025     A3009=,
20180125_030000.000,0,RJOS,,,,0,20180125030000,-1,-1,-1,-1,330,-1,15,-1,25,-1,-1,,9999,0,0,1,FEW 25,1,4,-1,8,1018,RJOS 250300Z 33015G25KT 9999 FEW025 04/M08 Q1018 RMK 2CU025     A3006=,
20180125_030000.003,0,RJOS,,,,0,20180125030000,-1,-1,-1,-1,330,-1,15,-1,25,-1,-1,,9999,0,0,1,FEW 25,1,4,-1,8,1018,RJOS 250300Z 33015G25KT 9999 FEW025 04/M08 Q1018 RMK 2CU025     A3006=,
20180125_040000.000,0,RJOS,,,,0,20180125040000,-1,-1,-1,-1,330,-1,16,-1,26,-1,-1,,9999,0,0,1,FEW 25,1,4,-1,8,1017,RJOS 250400Z 33016G26KT 9999 FEW025 04/M08 Q1017 RMK 2CU025     A3004=,
20180125_040000.003,0,RJOS,,,,0,20180125040000,-1,-1,-1,-1,330,-1,16,-1,26,-1,-1,,9999,0,0,1,FEW 25,1,4,-1,8,1017,RJOS 250400Z 33016G26KT 9999 FEW025 04/M08 Q1017 RMK 2CU025     A3004=,
20180125_050000.000,0,RJOS,,,,0,20180125050000,-1,-1,-1,-1,330,-1,17,-1,27,-1,-1,,9999,0,0,2,FEW 25   SCT 40,1,4,-1,9,1016,RJOS 250500Z 33017G27KT 9999 FEW025 SCT040 04/M09 Q1016 RMK     1CU025 3CU040 A3003=,
20180125_050000.003,0,RJOS,,,,0,20180125050000,-1,-1,-1,-1,330,-1,17,-1,27,-1,-1,,9999,0,0,2,FEW 25   SCT 40,1,4,-1,9,1016,RJOS 250500Z 33017G27KT 9999 FEW025 SCT040 04/M09 Q1016 RMK     1CU025 3CU040 A3003=,
20180125_060000.000,0,RJOS,,,,0,20180125060000,-1,-1,-1,-1,330,-1,13,-1,-1,-1,-1,,9999,0,0,2,FEW 25   SCT 40,1,4,-1,8,1017,RJOS 250600Z 33013KT 9999 FEW025 SCT040 04/M08 Q1017 RMK 2CU025     4CU040 A3003 PEAK GUST 21KT=,
20180125_060000.003,0,RJOS,,,,0,20180125060000,-1,-1,-1,-1,330,-1,13,-1,-1,-1,-1,,9999,0,0,2,FEW 25   SCT 40,1,4,-1,8,1017,RJOS 250600Z 33013KT 9999 FEW025 SCT040 04/M08 Q1017 RMK     2CU025 4CU040 A3003 PEAK GUST 21KT=,
20180125_070000.000,0,RJOS,,,,0,20180125070000,-1,-1,-1,-1,310,-1,12,-1,-1,-1,-1,,9999,0,0,3,FEW 25   SCT 40   BKN -9999,1,4,-1,8,1016,RJOS 250700Z 31012KT 9999 FEW025 SCT040 BKN/// 04/M08 Q1016 RMK     1CU025 4CU040 A3002 PEAK GUST 20KT=,
20180125_070000.003,0,RJOS,,,,0,20180125070000,-1,-1,-1,-1,310,-1,12,-1,-1,-1,-1,,9999,0,0,3,FEW 25   SCT 40   BKN -9999,1,4,-1,8,1016,RJOS 250700Z 31012KT 9999 FEW025 SCT040 BKN/// 04/M08 Q1016     RMK 1CU025 4CU040 A3002 PEAK GUST 20KT=,
20180125_080000.000,0,RJOS,,,,0,20180125080000,-1,-1,-1,-1,310,-1,13,-1,-1,-1,-1,,9999,0,1,2,FEW 25   SCT 40,1,3,-1,6,1016,RJOS 250800Z 31013KT 9999 -SHSN FEW025 SCT040 03/M06 Q1016 RMK     1CU025 3CU040 A3003=,- SN SH
20180125_080000.003,0,RJOS,,,,0,20180125080000,-1,-1,-1,-1,310,-1,13,-1,-1,-1,-1,,9999,0,1,2,FEW 25   SCT 40,1,3,-1,6,1016,RJOS 250800Z 31013KT 9999 -SHSN FEW025 SCT040 03/M06 Q1016 RMK     1CU025 3CU040 A3003=,- SN SH
20180125_090000.000,0,RJOS,,,,0,20180125090000,-1,-1,-1,-1,310,-1,12,-1,-1,-1,-1,,9999,0,0,1,FEW 25,1,2,-1,5,1017,RJOS 250900Z 31012KT 9999 FEW025 02/M05 Q1017 RMK 1CU025 A3004=,
20180125_090000.003,0,RJOS,,,,0,20180125090000,-1,-1,-1,-1,310,-1,12,-1,-1,-1,-1,,9999,0,0,1,FEW 25,1,2,-1,5,1017,RJOS 250900Z 31012KT 9999 FEW025 02/M05 Q1017 RMK 1CU025     A3004=,
20180125_100000.000,0,RJOS,,,,0,20180125100000,-1,-1,-1,-1,310,-1,12,-1,-1,-1,-1,,9999,0,0,2,FEW 25   SCT 50,1,2,-1,5,1017,RJOS 251000Z 31012KT 9999 FEW025 SCT050 02/M05 Q1017 RMK 1CU025     4SC050 A3003=,
20180125_100000.004,0,RJOS,,,,0,20180125100000,-1,-1,-1,-1,310,-1,12,-1,-1,-1,-1,,9999,0,0,2,FEW 25   SCT 50,1,2,-1,5,1017,RJOS 251000Z 31012KT 9999 FEW025 SCT050 02/M05 Q1017 RMK     1CU025 4SC050 A3003=,
20180125_110000.000,0,RJOS,,,,0,20180125110000,-1,-1,-1,-1,310,-1,13,-1,-1,-1,-1,,9999,0,0,2,FEW 25   SCT 50,1,2,-1,7,1016,RJOS 251100Z 31013KT 9999 FEW025 SCT050 02/M07 Q1016 RMK 1CU025     3SC050 A3003=,
20180125_110000.004,0,RJOS,,,,0,20180125110000,-1,-1,-1,-1,310,-1,13,-1,-1,-1,-1,,9999,0,0,2,FEW 25   SCT 50,1,2,-1,7,1016,RJOS 251100Z 31013KT 9999 FEW025 SCT050 02/M07 Q1016 RMK     1CU025 3SC050 A3003=,
20180125_120000.000,0,RJOS,,,,0,20180125120000,-1,-1,-1,-1,310,-1,13,-1,-1,-1,-1,,9999,0,0,1,FEW 25,1,2,-1,8,1016,RJOS 251200Z 31013KT 9999 FEW025 02/M08 Q1016 RMK 1CU025 A3003=,
20180125_120000.003,0,RJOS,,,,0,20180125120000,-1,-1,-1,-1,310,-1,13,-1,-1,-1,-1,,9999,0,0,1,FEW 25,1,2,-1,8,1016,RJOS 251200Z 31013KT 9999 FEW025 02/M08 Q1016 RMK 1CU025     A3003=,
20180125_130000.000,0,RJOS,,,,0,20180125130000,-1,-1,-1,-1,310,-1,14,-1,-1,-1,-1,,9999,0,0,2,FEW 25   SCT 200,1,1,-1,8,1016,RJOS 251300Z 31014KT 9999 FEW025 SCT200 01/M08 Q1016 RMK 1CU025     A3002=,
20180125_130000.003,0,RJOS,,,,0,20180125130000,-1,-1,-1,-1,310,-1,14,-1,-1,-1,-1,,9999,0,0,2,FEW 25   SCT 200,1,1,-1,8,1016,RJOS 251300Z 31014KT 9999 FEW025 SCT200 01/M08 Q1016 RMK     1CU025 A3002=,
20180125_140000.000,0,RJOS,,,,0,20180125140000,-1,-1,-1,-1,310,-1,10,-1,-1,-1,-1,,9999,0,0,2,FEW 25   SCT 200,1,1,-1,9,1016,RJOS 251400Z 31010KT 9999 FEW025 SCT200 01/M09 Q1016 RMK 1CU025     A3001=,
20180125_140000.003,0,RJOS,,,,0,20180125140000,-1,-1,-1,-1,310,-1,10,-1,-1,-1,-1,,9999,0,0,2,FEW 25   SCT 200,1,1,-1,9,1016,RJOS 251400Z 31010KT 9999 FEW025 SCT200 01/M09 Q1016 RMK     1CU025 A3001=,
20180125_150000.000,0,RJOS,,,,0,20180125150000,-1,-1,-1,-1,310,-1,9,-1,-1,-1,-1,,9999,0,0,2,FEW 25   BKN 200,1,1,-1,9,1016,RJOS 251500Z 31009KT 9999 FEW025 BKN200 01/M09 Q1016 RMK 1CU025     A3001=,
20180125_150000.003,0,RJOS,,,,0,20180125150000,-1,-1,-1,-1,310,-1,9,-1,-1,-1,-1,,9999,0,0,2,FEW 25   BKN 200,1,1,-1,9,1016,RJOS 251500Z 31009KT 9999 FEW025 BKN200 01/M09 Q1016 RMK     1CU025 A3001=,
20180125_160000.000,0,RJOS,,,,0,20180125160000,-1,-1,-1,-1,330,-1,12,-1,-1,-1,-1,,9999,0,0,2,FEW 25   BKN 200,1,1,-1,8,1015,RJOS 251600Z 33012KT 9999 FEW025 BKN200 01/M08 Q1015 RMK 1CU025     A3000=,
20180125_160000.003,0,RJOS,,,,0,20180125160000,-1,-1,-1,-1,330,-1,12,-1,-1,-1,-1,,9999,0,0,2,FEW 25   BKN 200,1,1,-1,8,1015,RJOS 251600Z 33012KT 9999 FEW025 BKN200 01/M08 Q1015 RMK     1CU025 A3000=,
20180125_170000.000,0,RJOS,,,,0,20180125170000,-1,-1,-1,-1,320,-1,11,-1,-1,-1,-1,,9999,0,0,3,FEW 25   SCT 60   BKN 200,1,1,-1,8,1015,RJOS 251700Z 32011KT 9999 FEW025 SCT060 BKN200 01/M08 Q1015 RMK     1CU025 3SC060 A2999=,
20180125_170000.003,0,RJOS,,,,0,20180125170000,-1,-1,-1,-1,320,-1,11,-1,-1,-1,-1,,9999,0,0,3,FEW 25   SCT 60   BKN 200,1,1,-1,8,1015,RJOS 251700Z 32011KT 9999 FEW025 SCT060 BKN200 01/M08 Q1015     RMK 1CU025 3SC060 A2999=,
20180125_180000.000,0,RJOS,,,,0,20180125180000,-1,-1,-1,-1,320,-1,9,-1,-1,-1,-1,,9999,0,0,3,FEW 25   SCT 60   BKN 200,1,1,-1,7,1015,RJOS 251800Z 32009KT 9999 FEW025 SCT060 BKN200 01/M07 Q1015 RMK     1CU025 3SC060 A2998=,
20180125_180000.003,0,RJOS,,,,0,20180125180000,-1,-1,-1,-1,320,-1,9,-1,-1,-1,-1,,9999,0,0,3,FEW 25   SCT 60   BKN 200,1,1,-1,7,1015,RJOS 251800Z 32009KT 9999 FEW025 SCT060 BKN200 01/M07 Q1015     RMK 1CU025 3SC060 A2998=,
20180125_190000.000,0,RJOS,,,,0,20180125190000,-1,-1,-1,-1,320,-1,11,-1,-1,-1,-1,,9999,0,0,3,FEW 30   SCT 60   BKN 200,1,1,-1,7,1015,RJOS 251900Z 32011KT 9999 FEW030 SCT060 BKN200 01/M07 Q1015 RMK     1CU030 4SC060 A2998=,
20180125_190000.003,0,RJOS,,,,0,20180125190000,-1,-1,-1,-1,320,-1,11,-1,-1,-1,-1,,9999,0,0,3,FEW 30   SCT 60   BKN 200,1,1,-1,7,1015,RJOS 251900Z 32011KT 9999 FEW030 SCT060 BKN200 01/M07 Q1015     RMK 1CU030 4SC060 A2998=,
20180125_200000.000,0,RJOS,,,,0,20180125200000,-1,-1,-1,-1,320,-1,11,-1,-1,-1,-1,,9999,0,0,2,FEW 30   BKN 60,1,1,-1,7,1014,RJOS 252000Z 32011KT 9999 FEW030 BKN060 01/M07 Q1014 RMK 1CU030     5SC060 A2997=,
20180125_200000.004,0,RJOS,,,,0,20180125200000,-1,-1,-1,-1,320,-1,11,-1,-1,-1,-1,,9999,0,0,2,FEW 30   BKN 60,1,1,-1,7,1014,RJOS 252000Z 32011KT 9999 FEW030 BKN060 01/M07 Q1014 RMK     1CU030 5SC060 A2997=,
20180125_210000.000,0,RJOS,,,,0,20180125210000,-1,-1,-1,-1,310,-1,6,-1,-1,280,340,,9999,0,0,2,FEW 30   SCT 60,1,1,-1,6,1014,RJOS 252100Z 31006KT 280V340 9999 FEW030 SCT060 01/M06 Q1014     RMK 1CU030 3SC060 A2996 S000 SD/// FS000=,
20180125_210000.003,0,RJOS,,,,0,20180125210000,-1,-1,-1,-1,310,-1,6,-1,-1,280,340,,9999,0,0,2,FEW 30   SCT 60,1,1,-1,6,1014,RJOS 252100Z 31006KT 280V340 9999 FEW030 SCT060 01/M06 Q1014     RMK 1CU030 3SC060 A2996 S000 SD/// FS000=,
20180125_220000.000,0,RJOS,,,,0,20180125220000,-1,-1,-1,-1,320,-1,10,-1,-1,-1,-1,,9999,0,0,2,SCT 30   BKN 60,1,1,-1,7,1015,RJOS 252200Z 32010KT 9999 SCT030 BKN060 01/M07 Q1015 RMK 3CU030     5SC060 A2997=,
20180125_220000.003,0,RJOS,,,,0,20180125220000,-1,-1,-1,-1,320,-1,10,-1,-1,-1,-1,,9999,0,0,2,SCT 30   BKN 60,1,1,-1,7,1015,RJOS 252200Z 32010KT 9999 SCT030 BKN060 01/M07 Q1015 RMK     3CU030 5SC060 A2997=,
20180125_230000.000,0,RJOS,,,,0,20180125230000,-1,-1,-1,-1,310,-1,12,-1,-1,-1,-1,,9999,0,0,2,FEW 30   BKN 50,1,2,-1,7,1015,RJOS 252300Z 31012KT 9999 FEW030 BKN050 02/M07 Q1015 RMK 2CU030     6SC050 A2998 PEAK GUST 20KT=,
20180125_230000.003,0,RJOS,,,,0,20180125230000,-1,-1,-1,-1,310,-1,12,-1,-1,-1,-1,,9999,0,0,2,FEW 30   BKN 50,1,2,-1,7,1015,RJOS 252300Z 31012KT 9999 FEW030 BKN050 02/M07 Q1015 RMK     2CU030 6SC050 A2998 PEAK GUST 20KT=,
20180126_000000.000,0,RJOS,,,,0,20180126000000,-1,-1,-1,-1,320,-1,14,-1,-1,-1,-1,,9999,0,1,3,FEW 25   SCT 35   BKN 50,1,3,-1,7,1015,RJOS 260000Z 32014KT 9999 -SHSN FEW025 SCT035 BKN050 03/M07     Q1015 RMK 1CU025 4CU035 7SC050 A2999 PEAK GUST 22KT=,- SN SH
20180126_000000.003,0,RJOS,,,,0,20180126000000,-1,-1,-1,-1,320,-1,14,-1,-1,-1,-1,,9999,0,1,3,FEW 25   SCT 35   BKN 50,1,3,-1,7,1015,RJOS 260000Z 32014KT 9999 -SHSN FEW025 SCT035 BKN050 03/M07     Q1015 RMK 1CU025 4CU035 7SC050 A2999 PEAK GUST 22KT=,- SN SH
20180126_010000.000,0,RJOS,,,,0,20180126010000,-1,-1,-1,-1,320,-1,14,-1,-1,-1,-1,,9999,0,0,2,FEW 25   BKN 35,1,3,-1,6,1015,RJOS 260100Z 32014KT 9999 FEW025 BKN035 03/M06 Q1015 RMK 2CU025     6CU035 A3000 PEAK GUST 21KT=,
20180126_010000.003,0,RJOS,,,,0,20180126010000,-1,-1,-1,-1,320,-1,14,-1,-1,-1,-1,,9999,0,0,2,FEW 25   BKN 35,1,3,-1,6,1015,RJOS 260100Z 32014KT 9999 FEW025 BKN035 03/M06 Q1015 RMK     2CU025 6CU035 A3000 PEAK GUST 21KT=,
20180126_020000.000,0,RJOS,,,,0,20180126020000,-1,-1,-1,-1,330,-1,19,-1,30,-1,-1,,9999,0,0,2,FEW 25   BKN 35,1,3,-1,7,1015,RJOS 260200Z 33019G30KT 9999 FEW025 BKN035 03/M07 Q1015 RMK     1CU025 5CU035 A2999=,
20180126_020000.003,0,RJOS,,,,0,20180126020000,-1,-1,-1,-1,330,-1,19,-1,30,-1,-1,,9999,0,0,2,FEW 25   BKN 35,1,3,-1,7,1015,RJOS 260200Z 33019G30KT 9999 FEW025 BKN035 03/M07 Q1015 RMK     1CU025 5CU035 A2999=,
20180126_030000.000,0,RJOS,,,,0,20180126030000,-1,-1,-1,-1,330,-1,19,-1,29,-1,-1,,9999,0,0,3,FEW 25   SCT 35   BKN 50,1,3,-1,8,1014,RJOS 260300Z 33019G29KT 9999 FEW025 SCT035 BKN050 03/M08 Q1014     RMK 1CU025 4CU035 5SC050 A2996=,
20180126_030000.003,0,RJOS,,,,0,20180126030000,-1,-1,-1,-1,330,-1,19,-1,29,-1,-1,,9999,0,0,3,FEW 25   SCT 35   BKN 50,1,3,-1,8,1014,RJOS 260300Z 33019G29KT 9999 FEW025 SCT035 BKN050 03/M08 Q1014     RMK 1CU025 4CU035 5SC050 A2996=,
20180126_040000.000,0,RJOS,,,,0,20180126040000,-1,-1,-1,-1,340,-1,18,-1,32,310,20,,9999,0,1,3,FEW 25   SCT 40   BKN 50,1,4,-1,5,1013,RJOS 260400Z 34018G32KT 310V020 9999 VCSH FEW025 SCT040 BKN050     04/M05 Q1013 RMK 1CU025 4CU040 7SC050 A2993=,VC SH
20180126_040000.003,0,RJOS,,,,0,20180126040000,-1,-1,-1,-1,340,-1,18,-1,32,310,20,,9999,0,1,3,FEW 25   SCT 40   BKN 50,1,4,-1,5,1013,RJOS 260400Z 34018G32KT 310V020 9999 VCSH FEW025 SCT040 BKN050     04/M05 Q1013 RMK 1CU025 4CU040 7SC050 A2993=,VC SH
20180126_050000.000,0,RJOS,,,,0,20180126050000,-1,-1,-1,-1,350,-1,17,-1,27,-1,-1,,9999,0,1,3,FEW 25   SCT 40   BKN 50,1,3,-1,3,1014,RJOS 260500Z 35017G27KT 9999 -SHSN FEW025 SCT040 BKN050 03/M03     Q1014 RMK 1CU025 4CU040 7SC050 A2995=,- SN SH
20180126_050000.003,0,RJOS,,,,0,20180126050000,-1,-1,-1,-1,350,-1,17,-1,27,-1,-1,,9999,0,1,3,FEW 25   SCT 40   BKN 50,1,3,-1,3,1014,RJOS 260500Z 35017G27KT 9999 -SHSN FEW025 SCT040 BKN050 03/M03     Q1014 RMK 1CU025 4CU040 7SC050 A2995=,- SN SH
20180126_060000.000,0,RJOS,,,,0,20180126060000,-1,-1,-1,-1,330,-1,17,-1,-1,-1,-1,,6000,0,1,3,SCT 20   BKN 30   BKN 50,1,3,-1,4,1014,RJOS 260600Z 33017KT 6000 -SHSN SCT020 BKN030 BKN050 03/M04     Q1014 RMK 3CU020 6CU030 7SC050 A2995 3000W-N PEAK GUST           25KT=,- SN SH
20180126_060000.003,0,RJOS,,,,0,20180126060000,-1,-1,-1,-1,330,-1,17,-1,-1,-1,-1,,6000,0,1,3,SCT 20   BKN 30   BKN 50,1,3,-1,4,1014,RJOS 260600Z 33017KT 6000 -SHSN SCT020 BKN030 BKN050 03/M04     Q1014 RMK 3CU020 6CU030 7SC050 A2995 3000W-N PEAK GUST           25KT=,- SN SH
20180126_070000.000,0,RJOS,,,,0,20180126070000,-1,-1,-1,-1,330,-1,19,-1,33,-1,-1,,9999,0,1,3,FEW 20   BKN 30   BKN 50,1,3,-1,5,1014,RJOS 260700Z 33019G33KT 9999 VCSH FEW020 BKN030 BKN050 03/M05     Q1014 RMK 1CU020 5CU030 7SC050 A2996=,VC SH
20180126_070000.003,0,RJOS,,,,0,20180126070000,-1,-1,-1,-1,330,-1,19,-1,33,-1,-1,,9999,0,1,3,FEW 20   BKN 30   BKN 50,1,3,-1,5,1014,RJOS 260700Z 33019G33KT 9999 VCSH FEW020 BKN030 BKN050 03/M05     Q1014 RMK 1CU020 5CU030 7SC050 A2996=,VC SH
20180126_080000.000,0,RJOS,,,,0,20180126080000,-1,-1,-1,-1,320,-1,14,-1,-1,-1,-1,,9999,0,1,2,FEW 20   SCT 35,1,2,-1,5,1015,RJOS 260800Z 32014KT 9999 -SHSN FEW020 SCT035 02/M05 Q1015 RMK     1CU020 4CU035 A2999=,- SN SH
20180126_080000.004,0,RJOS,,,,0,20180126080000,-1,-1,-1,-1,320,-1,14,-1,-1,-1,-1,,9999,0,1,2,FEW 20   SCT 35,1,2,-1,5,1015,RJOS 260800Z 32014KT 9999 -SHSN FEW020 SCT035 02/M05 Q1015 RMK     1CU020 4CU035 A2999=,- SN SH
20180126_090000.000,0,RJOS,,,,0,20180126090000,-1,-1,-1,-1,300,-1,15,-1,25,-1,-1,,9999,0,0,1,FEW 20,1,2,-1,6,1016,RJOS 260900Z 30015G25KT 9999 FEW020 02/M06 Q1016 RMK 1CU020     A3001=,
20180126_090000.003,0,RJOS,,,,0,20180126090000,-1,-1,-1,-1,300,-1,15,-1,25,-1,-1,,9999,0,0,1,FEW 20,1,2,-1,6,1016,RJOS 260900Z 30015G25KT 9999 FEW020 02/M06 Q1016 RMK 1CU020     A3001=,
20180126_100000.000,0,RJOS,,,,0,20180126100000,-1,-1,-1,-1,300,-1,14,-1,24,-1,-1,,9999,0,0,2,FEW 20   SCT 35,1,2,-1,8,1016,RJOS 261000Z 30014G24KT 9999 FEW020 SCT035 02/M08 Q1016 RMK     1CU020 3CU035 A3002=,
20180126_100000.003,0,RJOS,,,,0,20180126100000,-1,-1,-1,-1,300,-1,14,-1,24,-1,-1,,9999,0,0,2,FEW 20   SCT 35,1,2,-1,8,1016,RJOS 261000Z 30014G24KT 9999 FEW020 SCT035 02/M08 Q1016 RMK     1CU020 3CU035 A3002=,
20180126_110000.000,0,RJOS,,,,0,20180126110000,-1,-1,-1,-1,310,-1,14,-1,24,-1,-1,,9999,0,0,2,FEW 20   SCT 40,1,1,-1,8,1017,RJOS 261100Z 31014G24KT 9999 FEW020 SCT040 01/M08 Q1017 RMK     1CU020 3CU040 A3004=,
20180126_110000.003,0,RJOS,,,,0,20180126110000,-1,-1,-1,-1,310,-1,14,-1,24,-1,-1,,9999,0,0,2,FEW 20   SCT 40,1,1,-1,8,1017,RJOS 261100Z 31014G24KT 9999 FEW020 SCT040 01/M08 Q1017 RMK     1CU020 3CU040 A3004=,
20180126_120000.000,0,RJOS,,,,0,20180126120000,-1,-1,-1,-1,310,-1,13,-1,-1,-1,-1,,9999,0,0,2,FEW 20   SCT 40,1,1,-1,8,1018,RJOS 261200Z 31013KT 9999 FEW020 SCT040 01/M08 Q1018 RMK 1CU020     3CU040 A3007=,
20180126_120000.003,0,RJOS,,,,0,20180126120000,-1,-1,-1,-1,310,-1,13,-1,-1,-1,-1,,9999,0,0,2,FEW 20   SCT 40,1,1,-1,8,1018,RJOS 261200Z 31013KT 9999 FEW020 SCT040 01/M08 Q1018 RMK     1CU020 3CU040 A3007=,
20180126_130000.000,0,RJOS,,,,0,20180126130000,-1,-1,-1,-1,310,-1,15,-1,25,-1,-1,,9999,0,0,3,FEW 20   SCT 40   BKN 50,1,1,-1,7,1018,RJOS 261300Z 31015G25KT 9999 FEW020 SCT040 BKN050 01/M07 Q1018     RMK 1CU020 3CU040 5SC050 A3008=,
20180126_130000.003,0,RJOS,,,,0,20180126130000,-1,-1,-1,-1,310,-1,15,-1,25,-1,-1,,9999,0,0,3,FEW 20   SCT 40   BKN 50,1,1,-1,7,1018,RJOS 261300Z 31015G25KT 9999 FEW020 SCT040 BKN050 01/M07 Q1018     RMK 1CU020 3CU040 5SC050 A3008=,
20180126_140000.000,0,RJOS,,,,0,20180126140000,-1,-1,-1,-1,310,-1,14,-1,24,-1,-1,,9999,0,0,3,FEW 20   SCT 35   BKN 50,1,1,-1,7,1019,RJOS 261400Z 31014G24KT 9999 FEW020 SCT035 BKN050 01/M07 Q1019     RMK 1CU020 4CU035 7SC050 A3010=,
20180126_140000.003,0,RJOS,,,,0,20180126140000,-1,-1,-1,-1,310,-1,14,-1,24,-1,-1,,9999,0,0,3,FEW 20   SCT 35   BKN 50,1,1,-1,7,1019,RJOS 261400Z 31014G24KT 9999 FEW020 SCT035 BKN050 01/M07 Q1019     RMK 1CU020 4CU035 7SC050 A3010=,
20180126_150000.000,0,RJOS,,,,0,20180126150000,-1,-1,-1,-1,330,-1,15,-1,-1,-1,-1,,9999,0,0,2,FEW 20   BKN 35,1,1,-1,7,1019,RJOS 261500Z 33015KT 9999 FEW020 BKN035 01/M07 Q1019 RMK 1CU020     7CU035 A3012=,
20180126_150000.003,0,RJOS,,,,0,20180126150000,-1,-1,-1,-1,330,-1,15,-1,-1,-1,-1,,9999,0,0,2,FEW 20   BKN 35,1,1,-1,7,1019,RJOS 261500Z 33015KT 9999 FEW020 BKN035 01/M07 Q1019 RMK     1CU020 7CU035 A3012=,
20180126_160000.000,0,RJOS,,,,0,20180126160000,-1,-1,-1,-1,340,-1,15,-1,26,-1,-1,,9999,0,0,2,FEW 20   BKN 35,1,1,-1,8,1020,RJOS 261600Z 34015G26KT 9999 FEW020 BKN035 01/M08 Q1020 RMK     1CU020 6CU035 A3012=,
20180126_160000.003,0,RJOS,,,,0,20180126160000,-1,-1,-1,-1,340,-1,15,-1,26,-1,-1,,9999,0,0,2,FEW 20   BKN 35,1,1,-1,8,1020,RJOS 261600Z 34015G26KT 9999 FEW020 BKN035 01/M08 Q1020 RMK     1CU020 6CU035 A3012=,
20180126_170000.000,0,RJOS,,,,0,20180126170000,-1,-1,-1,-1,300,-1,14,-1,-1,-1,-1,,9999,0,0,2,FEW 20   SCT 35,1,0,-1,7,1020,RJOS 261700Z 30014KT 9999 FEW020 SCT035 00/M07 Q1020 RMK 1CU020     3CU035 A3013=,
20180126_170000.003,0,RJOS,,,,0,20180126170000,-1,-1,-1,-1,300,-1,14,-1,-1,-1,-1,,9999,0,0,2,FEW 20   SCT 35,1,0,-1,7,1020,RJOS 261700Z 30014KT 9999 FEW020 SCT035 00/M07 Q1020 RMK     1CU020 3CU035 A3013=,
20180126_180000.000,0,RJOS,,,,0,20180126180000,-1,-1,-1,-1,300,-1,12,-1,-1,-1,-1,,9999,0,0,2,FEW 20   SCT 35,-1,0,-1,8,1020,RJOS 261800Z 30012KT 9999 FEW020 SCT035 M00/M08 Q1020 RMK     1CU020 3CU035 A3014=,
20180126_180000.003,0,RJOS,,,,0,20180126180000,-1,-1,-1,-1,300,-1,12,-1,-1,-1,-1,,9999,0,0,2,FEW 20   SCT 35,-1,0,-1,8,1020,RJOS 261800Z 30012KT 9999 FEW020 SCT035 M00/M08 Q1020 RMK     1CU020 3CU035 A3014=,
20180126_190000.000,0,RJOS,,,,0,20180126190000,-1,-1,-1,-1,310,-1,10,-1,-1,-1,-1,,9999,0,0,1,FEW 30,-1,0,-1,8,1021,RJOS 261900Z 31010KT 9999 FEW030 M00/M08 Q1021 RMK 2CU030     A3015=,
20180126_190000.003,0,RJOS,,,,0,20180126190000,-1,-1,-1,-1,310,-1,10,-1,-1,-1,-1,,9999,0,0,1,FEW 30,-1,0,-1,8,1021,RJOS 261900Z 31010KT 9999 FEW030 M00/M08 Q1021 RMK 2CU030     A3015=,
20180126_200000.000,0,RJOS,,,,0,20180126200000,-1,-1,-1,-1,310,-1,12,-1,-1,-1,-1,,9999,0,0,1,FEW 30,1,0,-1,8,1021,RJOS 262000Z 31012KT 9999 FEW030 00/M08 Q1021 RMK 1CU030 A3016=,
20180126_200000.004,0,RJOS,,,,0,20180126200000,-1,-1,-1,-1,310,-1,12,-1,-1,-1,-1,,9999,0,0,1,FEW 30,1,0,-1,8,1021,RJOS 262000Z 31012KT 9999 FEW030 00/M08 Q1021 RMK 1CU030     A3016=,
20180126_210000.000,0,RJOS,,,,0,20180126210000,-1,-1,-1,-1,310,-1,14,-1,-1,-1,-1,,9999,0,0,1,FEW 30,1,0,-1,7,1021,RJOS 262100Z 31014KT 9999 FEW030 00/M07 Q1021 RMK 1CU030 A3016     S000 SD/// FS///=,
20180126_210000.003,0,RJOS,,,,0,20180126210000,-1,-1,-1,-1,310,-1,14,-1,-1,-1,-1,,9999,0,0,1,FEW 30,1,0,-1,7,1021,RJOS 262100Z 31014KT 9999 FEW030 00/M07 Q1021 RMK 1CU030 A3016     S000 SD/// FS///=,
20180126_220000.000,0,RJOS,,,,0,20180126220000,-1,-1,-1,-1,310,-1,11,-1,-1,-1,-1,,9999,0,0,1,FEW 30,1,0,-1,7,1021,RJOS 262200Z 31011KT 9999 FEW030 00/M07 Q1021 RMK 1CU030 A3017=,
20180126_220000.003,0,RJOS,,,,0,20180126220000,-1,-1,-1,-1,310,-1,11,-1,-1,-1,-1,,9999,0,0,1,FEW 30,1,0,-1,7,1021,RJOS 262200Z 31011KT 9999 FEW030 00/M07 Q1021 RMK 1CU030     A3017=,
20180126_230000.000,0,RJOS,,,,0,20180126230000,-1,-1,-1,-1,310,-1,11,-1,-1,-1,-1,,9999,0,0,1,FEW 30,1,0,-1,7,1022,RJOS 262300Z 31011KT 9999 FEW030 00/M07 Q1022 RMK 1CU030 A3019=,
20180126_230000.003,0,RJOS,,,,0,20180126230000,-1,-1,-1,-1,310,-1,11,-1,-1,-1,-1,,9999,0,0,1,FEW 30,1,0,-1,7,1022,RJOS 262300Z 31011KT 9999 FEW030 00/M07 Q1022 RMK 1CU030     A3019=,
20180127_000000.000,0,RJOS,,,,0,20180127000000,-1,-1,-1,-1,310,-1,13,-1,-1,-1,-1,,9999,0,0,1,FEW 30,1,2,-1,7,1023,RJOS 270000Z 31013KT 9999 FEW030 02/M07 Q1023 RMK 1CU030 A3021     PEAK GUST 20KT=,
20180127_000000.003,0,RJOS,,,,0,20180127000000,-1,-1,-1,-1,310,-1,13,-1,-1,-1,-1,,9999,0,0,1,FEW 30,1,2,-1,7,1023,RJOS 270000Z 31013KT 9999 FEW030 02/M07 Q1023 RMK 1CU030 A3021     PEAK GUST 20KT=,
20180127_010000.000,0,RJOS,,,,0,20180127010000,-1,-1,-1,-1,330,-1,13,-1,-1,-1,-1,,9999,0,0,1,SCT 30,1,4,-1,6,1023,RJOS 270100Z 33013KT 9999 SCT030 04/M06 Q1023 RMK 3CU030 A3022=,
20180127_010000.003,0,RJOS,,,,0,20180127010000,-1,-1,-1,-1,330,-1,13,-1,-1,-1,-1,,9999,0,0,1,SCT 30,1,4,-1,6,1023,RJOS 270100Z 33013KT 9999 SCT030 04/M06 Q1023 RMK 3CU030     A3022=,
20180127_020000.000,0,RJOS,,,,0,20180127020000,-1,-1,-1,-1,330,-1,15,-1,25,-1,-1,,9999,0,0,1,SCT 30,1,4,-1,5,1023,RJOS 270200Z 33015G25KT 9999 SCT030 04/M05 Q1023 RMK 4CU030     A3022=,
20180127_020000.003,0,RJOS,,,,0,20180127020000,-1,-1,-1,-1,330,-1,15,-1,25,-1,-1,,9999,0,0,1,SCT 30,1,4,-1,5,1023,RJOS 270200Z 33015G25KT 9999 SCT030 04/M05 Q1023 RMK 4CU030     A3022=,
20180127_030000.000,0,RJOS,,,,0,20180127030000,-1,-1,-1,-1,340,-1,15,-1,25,-1,-1,,9999,0,0,1,SCT 30,1,5,-1,5,1022,RJOS 270300Z 34015G25KT 9999 SCT030 05/M05 Q1022 RMK 4CU030     A3020=,
20180127_030000.003,0,RJOS,,,,0,20180127030000,-1,-1,-1,-1,340,-1,15,-1,25,-1,-1,,9999,0,0,1,SCT 30,1,5,-1,5,1022,RJOS 270300Z 34015G25KT 9999 SCT030 05/M05 Q1022 RMK 4CU030     A3020=,
20180127_040000.000,0,RJOS,,,,0,20180127040000,-1,-1,-1,-1,340,-1,15,-1,-1,-1,-1,,9999,0,0,1,SCT 30,1,5,-1,5,1022,RJOS 270400Z 34015KT 9999 SCT030 05/M05 Q1022 RMK 4CU030 A3019     PEAK GUST 23KT=,
20180127_040000.003,0,RJOS,,,,0,20180127040000,-1,-1,-1,-1,340,-1,15,-1,-1,-1,-1,,9999,0,0,1,SCT 30,1,5,-1,5,1022,RJOS 270400Z 34015KT 9999 SCT030 05/M05 Q1022 RMK 4CU030 A3019     PEAK GUST 23KT=,
20180127_050000.000,0,RJOS,,,,0,20180127050000,-1,-1,-1,-1,340,-1,16,-1,26,-1,-1,,9999,0,0,2,FEW 20   SCT 40,1,5,-1,6,1022,RJOS 270500Z 34016G26KT 9999 FEW020 SCT040 05/M06 Q1022 RMK     1CU020 4CU040 A3019=,
20180127_050000.003,0,RJOS,,,,0,20180127050000,-1,-1,-1,-1,340,-1,16,-1,26,-1,-1,,9999,0,0,2,FEW 20   SCT 40,1,5,-1,6,1022,RJOS 270500Z 34016G26KT 9999 FEW020 SCT040 05/M06 Q1022 RMK     1CU020 4CU040 A3019=,
20180127_060000.000,0,RJOS,,,,0,20180127060000,-1,-1,-1,-1,350,-1,13,-1,-1,-1,-1,,9999,0,0,2,FEW 20   BKN 40,1,5,-1,6,1022,RJOS 270600Z 35013KT 9999 FEW020 BKN040 05/M06 Q1022 RMK 1CU020     5CU040 A3019=,
20180127_060000.003,0,RJOS,,,,0,20180127060000,-1,-1,-1,-1,350,-1,13,-1,-1,-1,-1,,9999,0,0,2,FEW 20   BKN 40,1,5,-1,6,1022,RJOS 270600Z 35013KT 9999 FEW020 BKN040 05/M06 Q1022 RMK     1CU020 5CU040 A3019=,
20180127_070000.000,0,RJOS,,,,0,20180127070000,-1,-1,-1,-1,340,-1,13,-1,-1,-1,-1,,9999,0,0,2,FEW 20   BKN 40,1,5,-1,5,1022,RJOS 270700Z 34013KT 9999 FEW020 BKN040 05/M05 Q1022 RMK 1CU020     5CU040 A3019=,
20180127_070000.003,0,RJOS,,,,0,20180127070000,-1,-1,-1,-1,340,-1,13,-1,-1,-1,-1,,9999,0,0,2,FEW 20   BKN 40,1,5,-1,5,1022,RJOS 270700Z 34013KT 9999 FEW020 BKN040 05/M05 Q1022 RMK     1CU020 5CU040 A3019=,
20180127_080000.000,0,RJOS,,,,0,20180127080000,-1,-1,-1,-1,350,-1,9,-1,-1,-1,-1,,9999,0,0,1,SCT 40,1,4,-1,6,1022,RJOS 270800Z 35009KT 9999 SCT040 04/M06 Q1022 RMK 4CU040 A3019=,
20180127_080000.003,0,RJOS,,,,0,20180127080000,-1,-1,-1,-1,350,-1,9,-1,-1,-1,-1,,9999,0,0,1,SCT 40,1,4,-1,6,1022,RJOS 270800Z 35009KT 9999 SCT040 04/M06 Q1022 RMK 4CU040     A3019=,
20180127_090000.000,0,RJOS,,,,0,20180127090000,-1,-1,-1,-1,340,-1,6,-1,-1,-1,-1,,9999,0,0,2,FEW 20   SCT 50,1,4,-1,5,1023,RJOS 270900Z 34006KT 9999 FEW020 SCT050 04/M05 Q1023 RMK 1CU020     4SC050 A3021=,
20180127_090000.004,0,RJOS,,,,0,20180127090000,-1,-1,-1,-1,340,-1,6,-1,-1,-1,-1,,9999,0,0,2,FEW 20   SCT 50,1,4,-1,5,1023,RJOS 270900Z 34006KT 9999 FEW020 SCT050 04/M05 Q1023 RMK     1CU020 4SC050 A3021=,
20180127_100000.000,0,RJOS,,,,0,20180127100000,-1,-1,-1,-1,340,-1,8,-1,-1,-1,-1,,9999,0,0,2,FEW 20   BKN 50,1,4,-1,5,1023,RJOS 271000Z 34008KT 9999 FEW020 BKN050 04/M05 Q1023 RMK 1CU020     6SC050 A3023=,
20180127_100000.003,0,RJOS,,,,0,20180127100000,-1,-1,-1,-1,340,-1,8,-1,-1,-1,-1,,9999,0,0,2,FEW 20   BKN 50,1,4,-1,5,1023,RJOS 271000Z 34008KT 9999 FEW020 BKN050 04/M05 Q1023 RMK     1CU020 6SC050 A3023=,
20180127_110000.000,0,RJOS,,,,0,20180127110000,-1,-1,-1,-1,30,-1,7,-1,-1,-1,-1,,9999,0,0,2,FEW 20   BKN 50,1,4,-1,5,1023,RJOS 271100Z 03007KT 9999 FEW020 BKN050 04/M05 Q1023 RMK 1CU020     7SC050 A3023=,
20180127_110000.003,0,RJOS,,,,0,20180127110000,-1,-1,-1,-1,30,-1,7,-1,-1,-1,-1,,9999,0,0,2,FEW 20   BKN 50,1,4,-1,5,1023,RJOS 271100Z 03007KT 9999 FEW020 BKN050 04/M05 Q1023 RMK     1CU020 7SC050 A3023=,
20180127_120000.000,0,RJOS,,,,0,20180127120000,-1,-1,-1,-1,50,-1,7,-1,-1,-1,-1,,9999,0,0,2,FEW 20   BKN 50,1,3,-1,3,1023,RJOS 271200Z 05007KT 9999 FEW020 BKN050 03/M03 Q1023 RMK 1CU020     7SC050 A3022=,
20180127_120000.003,0,RJOS,,,,0,20180127120000,-1,-1,-1,-1,50,-1,7,-1,-1,-1,-1,,9999,0,0,2,FEW 20   BKN 50,1,3,-1,3,1023,RJOS 271200Z 05007KT 9999 FEW020 BKN050 03/M03 Q1023 RMK     1CU020 7SC050 A3022=,
20180127_130000.000,0,RJOS,,,,0,20180127130000,-1,-1,-1,-1,50,-1,6,-1,-1,-1,-1,,9999,0,0,2,FEW 20   BKN 50,1,2,-1,3,1023,RJOS 271300Z 05006KT 9999 FEW020 BKN050 02/M03 Q1023 RMK 1CU020     6SC050 A3022=,
20180127_130000.003,0,RJOS,,,,0,20180127130000,-1,-1,-1,-1,50,-1,6,-1,-1,-1,-1,,9999,0,0,2,FEW 20   BKN 50,1,2,-1,3,1023,RJOS 271300Z 05006KT 9999 FEW020 BKN050 02/M03 Q1023 RMK     1CU020 6SC050 A3022=,
20180127_140000.000,0,RJOS,,,,0,20180127140000,-1,-1,-1,-1,50,-1,7,-1,-1,-1,-1,,9999,0,0,2,FEW 20   BKN 50,1,2,-1,3,1023,RJOS 271400Z 05007KT 9999 FEW020 BKN050 02/M03 Q1023 RMK 1CU020     6SC050 A3022=,
20180127_140000.004,0,RJOS,,,,0,20180127140000,-1,-1,-1,-1,50,-1,7,-1,-1,-1,-1,,9999,0,0,2,FEW 20   BKN 50,1,2,-1,3,1023,RJOS 271400Z 05007KT 9999 FEW020 BKN050 02/M03 Q1023 RMK     1CU020 6SC050 A3022=,
20180127_150000.000,0,RJOS,,,,0,20180127150000,-1,-1,-1,-1,310,-1,4,-1,-1,-1,-1,,9999,0,0,3,FEW 20   SCT 50   BKN 150,1,1,-1,4,1022,RJOS 271500Z 31004KT 9999 FEW020 SCT050 BKN150 01/M04 Q1022 RMK     1CU020 4SC050 7AC150 A3020=,
20180127_150000.003,0,RJOS,,,,0,20180127150000,-1,-1,-1,-1,310,-1,4,-1,-1,-1,-1,,9999,0,0,3,FEW 20   SCT 50   BKN 150,1,1,-1,4,1022,RJOS 271500Z 31004KT 9999 FEW020 SCT050 BKN150 01/M04 Q1022     RMK 1CU020 4SC050 7AC150 A3020=,
20180127_160000.000,0,RJOS,,,,0,20180127160000,-1,-1,-1,-1,310,-1,4,-1,-1,290,350,,9999,0,0,3,FEW 20   SCT 50   BKN 150,1,0,-1,4,1022,RJOS 271600Z 31004KT 290V350 9999 FEW020 SCT050 BKN150 00/M04     Q1022 RMK 1CU020 3SC050 6AC150 A3020=,
20180127_160000.003,0,RJOS,,,,0,20180127160000,-1,-1,-1,-1,310,-1,4,-1,-1,290,350,,9999,0,0,3,FEW 20   SCT 50   BKN 150,1,0,-1,4,1022,RJOS 271600Z 31004KT 290V350 9999 FEW020 SCT050 BKN150 00/M04     Q1022 RMK 1CU020 3SC050 6AC150 A3020=,
20180127_170000.000,0,RJOS,,,,0,20180127170000,-1,-1,-1,-1,300,-1,6,-1,-1,-1,-1,,9999,0,0,2,FEW 30   BKN 150,1,0,-1,4,1022,RJOS 271700Z 30006KT 9999 FEW030 BKN150 00/M04 Q1022 RMK 1CU030     6AC150 A3020=,
20180127_170000.003,0,RJOS,,,,0,20180127170000,-1,-1,-1,-1,300,-1,6,-1,-1,-1,-1,,9999,0,0,2,FEW 30   BKN 150,1,0,-1,4,1022,RJOS 271700Z 30006KT 9999 FEW030 BKN150 00/M04 Q1022 RMK     1CU030 6AC150 A3020=,
20180127_180000.000,0,RJOS,,,,0,20180127180000,-1,-1,-1,-1,300,-1,5,-1,-1,-1,-1,,9999,0,0,2,FEW 30   BKN 150,1,0,-1,4,1021,RJOS 271800Z 30005KT 9999 FEW030 BKN150 00/M04 Q1021 RMK 1CU030     7AC150 A3017=,
20180127_180000.003,0,RJOS,,,,0,20180127180000,-1,-1,-1,-1,300,-1,5,-1,-1,-1,-1,,9999,0,0,2,FEW 30   BKN 150,1,0,-1,4,1021,RJOS 271800Z 30005KT 9999 FEW030 BKN150 00/M04 Q1021 RMK     1CU030 7AC150 A3017=,
20180127_190000.000,0,RJOS,,,,0,20180127190000,-1,-1,-1,-1,290,-1,6,-1,-1,-1,-1,,9999,0,0,2,FEW 30   BKN 150,1,0,-1,4,1021,RJOS 271900Z 29006KT 9999 FEW030 BKN150 00/M04 Q1021 RMK 1CU030     7AC150 A3016=,
20180127_190000.003,0,RJOS,,,,0,20180127190000,-1,-1,-1,-1,290,-1,6,-1,-1,-1,-1,,9999,0,0,2,FEW 30   BKN 150,1,0,-1,4,1021,RJOS 271900Z 29006KT 9999 FEW030 BKN150 00/M04 Q1021 RMK     1CU030 7AC150 A3016=,
20180127_200000.000,0,RJOS,,,,0,20180127200000,-1,-1,-1,-1,290,-1,6,-1,-1,-1,-1,,9999,0,0,2,FEW 30   BKN 150,-1,0,-1,4,1020,RJOS 272000Z 29006KT 9999 FEW030 BKN150 M00/M04 Q1020 RMK     1CU030 6AC150 A3013=,
20180127_200000.003,0,RJOS,,,,0,20180127200000,-1,-1,-1,-1,290,-1,6,-1,-1,-1,-1,,9999,0,0,2,FEW 30   BKN 150,-1,0,-1,4,1020,RJOS 272000Z 29006KT 9999 FEW030 BKN150 M00/M04 Q1020 RMK     1CU030 6AC150 A3013=,
20180127_210000.000,0,RJOS,,,,0,20180127210000,-1,-1,-1,-1,300,-1,8,-1,-1,-1,-1,,9999,0,0,3,FEW 30   SCT 120   BKN 150,-1,0,-1,4,1020,RJOS 272100Z 30008KT 9999 FEW030 SCT120 BKN150 M00/M04 Q1020     RMK 1CU030 4AC120 7AC150 A3014=,
20180127_210000.003,0,RJOS,,,,0,20180127210000,-1,-1,-1,-1,300,-1,8,-1,-1,-1,-1,,9999,0,0,3,FEW 30   SCT 120   BKN 150,-1,0,-1,4,1020,RJOS 272100Z 30008KT 9999 FEW030 SCT120 BKN150 M00/M04 Q1020     RMK 1CU030 4AC120 7AC150 A3014=,
20180127_220000.000,0,RJOS,,,,0,20180127220000,-1,-1,-1,-1,290,-1,7,-1,-1,-1,-1,,9999,0,0,2,FEW 30   BKN 120,-1,0,-1,4,1020,RJOS 272200Z 29007KT 9999 FEW030 BKN120 M00/M04 Q1020 RMK     1CU030 7AC120 A3014=,
20180127_220000.003,0,RJOS,,,,0,20180127220000,-1,-1,-1,-1,290,-1,7,-1,-1,-1,-1,,9999,0,0,2,FEW 30   BKN 120,-1,0,-1,4,1020,RJOS 272200Z 29007KT 9999 FEW030 BKN120 M00/M04 Q1020 RMK     1CU030 7AC120 A3014=,
20180127_230000.000,0,RJOS,,,,0,20180127230000,-1,-1,-1,-1,300,-1,7,-1,-1,-1,-1,,9999,0,0,2,FEW 30   BKN 120,1,0,-1,4,1020,RJOS 272300Z 30007KT 9999 FEW030 BKN120 00/M04 Q1020 RMK 1CU030     7AC120 A3013=,
20180127_230000.003,0,RJOS,,,,0,20180127230000,-1,-1,-1,-1,300,-1,7,-1,-1,-1,-1,,9999,0,0,2,FEW 30   BKN 120,1,0,-1,4,1020,RJOS 272300Z 30007KT 9999 FEW030 BKN120 00/M04 Q1020 RMK     1CU030 7AC120 A3013=,
20180128_000000.000,0,RJOS,,,,0,20180128000000,-1,-1,-1,-1,290,-1,5,-1,-1,-1,-1,,9999,0,0,3,FEW 30   SCT 50   BKN 100,1,1,-1,4,1019,RJOS 280000Z 29005KT 9999 FEW030 SCT050 BKN100 01/M04 Q1019 RMK     1CU030 3SC050 7AC100 A3011=,
20180128_000000.004,0,RJOS,,,,0,20180128000000,-1,-1,-1,-1,290,-1,5,-1,-1,-1,-1,,9999,0,0,3,FEW 30   SCT 50   BKN 100,1,1,-1,4,1019,RJOS 280000Z 29005KT 9999 FEW030 SCT050 BKN100 01/M04 Q1019     RMK 1CU030 3SC050 7AC100 A3011=,
20180128_010000.000,0,RJOS,,,,0,20180128010000,-1,-1,-1,-1,300,-1,5,-1,-1,-1,-1,,9999,0,0,3,FEW 30   SCT 50   BKN 100,1,2,-1,4,1019,RJOS 280100Z 30005KT 9999 FEW030 SCT050 BKN100 02/M04 Q1019 RMK     1CU030 3SC050 7AC100 A3010=,
20180128_010000.003,0,RJOS,,,,0,20180128010000,-1,-1,-1,-1,300,-1,5,-1,-1,-1,-1,,9999,0,0,3,FEW 30   SCT 50   BKN 100,1,2,-1,4,1019,RJOS 280100Z 30005KT 9999 FEW030 SCT050 BKN100 02/M04 Q1019     RMK 1CU030 3SC050 7AC100 A3010=,
20180128_020000.000,0,RJOS,,,,0,20180128020000,-1,-1,-1,-1,310,-1,5,-1,-1,-1,-1,,9999,0,0,2,FEW 30   BKN 80,1,2,-1,3,1018,RJOS 280200Z 31005KT 9999 FEW030 BKN080 02/M03 Q1018 RMK 1CU030     7AC080 A3007=,
20180128_020000.003,0,RJOS,,,,0,20180128020000,-1,-1,-1,-1,310,-1,5,-1,-1,-1,-1,,9999,0,0,2,FEW 30   BKN 80,1,2,-1,3,1018,RJOS 280200Z 31005KT 9999 FEW030 BKN080 02/M03 Q1018 RMK     1CU030 7AC080 A3007=,
20180128_030000.000,0,RJOS,,,,0,20180128030000,-1,-1,-1,-1,300,-1,4,-1,-1,270,330,,9999,0,0,3,FEW 30   SCT 50   BKN 80,1,4,-1,3,1017,RJOS 280300Z 30004KT 270V330 9999 FEW030 SCT050 BKN080 04/M03     Q1017 RMK 1CU030 4SC050 7AC080 A3004=,
20180128_030000.003,0,RJOS,,,,0,20180128030000,-1,-1,-1,-1,300,-1,4,-1,-1,270,330,,9999,0,0,3,FEW 30   SCT 50   BKN 80,1,4,-1,3,1017,RJOS 280300Z 30004KT 270V330 9999 FEW030 SCT050 BKN080 04/M03     Q1017 RMK 1CU030 4SC050 7AC080 A3004=,
20180128_040000.000,0,RJOS,,,,0,20180128040000,-1,-1,-1,-1,290,-1,5,-1,-1,-1,-1,,9999,0,0,3,FEW 30   SCT 50   BKN 70,1,4,-1,3,1016,RJOS 280400Z 29005KT 9999 FEW030 SCT050 BKN070 04/M03 Q1016 RMK     1CU030 4SC050 7AC070 A3002=,
20180128_040000.003,0,RJOS,,,,0,20180128040000,-1,-1,-1,-1,290,-1,5,-1,-1,-1,-1,,9999,0,0,3,FEW 30   SCT 50   BKN 70,1,4,-1,3,1016,RJOS 280400Z 29005KT 9999 FEW030 SCT050 BKN070 04/M03 Q1016     RMK 1CU030 4SC050 7AC070 A3002=,
20180128_050000.000,0,RJOS,,,,0,20180128050000,-1,-1,-1,-1,999,-1,2,-1,-1,-1,-1,,9999,0,1,3,SCT 30   BKN 50   BKN 70,1,4,-1,0,1016,RJOS 280500Z VRB02KT 9999 -SHRA SCT030 BKN050 BKN070 04/M00     Q1016 RMK 3CU030 5SC050 7AC070 A3001=,- RA SH
20180128_050000.003,0,RJOS,,,,0,20180128050000,-1,-1,-1,-1,999,-1,2,-1,-1,-1,-1,,9999,0,1,3,SCT 30   BKN 50   BKN 70,1,4,-1,0,1016,RJOS 280500Z VRB02KT 9999 -SHRA SCT030 BKN050 BKN070 04/M00     Q1016 RMK 3CU030 5SC050 7AC070 A3001=,- RA SH
20180128_060000.000,0,RJOS,,,,0,20180128060000,-1,-1,-1,-1,180,-1,3,-1,-1,140,220,,9999,0,0,2,FEW 30   BKN 70,1,4,-1,1,1015,RJOS 280600Z 18003KT 140V220 9999 FEW030 BKN070 04/M01 Q1015     RMK 1CU030 6AC070 A2999=,
20180128_060000.003,0,RJOS,,,,0,20180128060000,-1,-1,-1,-1,180,-1,3,-1,-1,140,220,,9999,0,0,2,FEW 30   BKN 70,1,4,-1,1,1015,RJOS 280600Z 18003KT 140V220 9999 FEW030 BKN070 04/M01 Q1015     RMK 1CU030 6AC070 A2999=,
20180128_070000.000,0,RJOS,,,,0,20180128070000,-1,-1,-1,-1,999,-1,1,-1,-1,-1,-1,,9999,0,0,3,FEW 30   SCT 70   BKN 100,1,5,-1,1,1015,RJOS 280700Z VRB01KT 9999 FEW030 SCT070 BKN100 05/M01 Q1015 RMK     1CU030 3AC070 7AC100 A2999=,
20180128_070000.004,0,RJOS,,,,0,20180128070000,-1,-1,-1,-1,999,-1,1,-1,-1,-1,-1,,9999,0,0,3,FEW 30   SCT 70   BKN 100,1,5,-1,1,1015,RJOS 280700Z VRB01KT 9999 FEW030 SCT070 BKN100 05/M01 Q1015     RMK 1CU030 3AC070 7AC100 A2999=,
20180128_080000.000,0,RJOS,,,,0,20180128080000,-1,-1,-1,-1,999,-1,1,-1,-1,-1,-1,,9999,0,0,3,FEW 30   SCT 70   BKN 100,1,5,-1,1,1016,RJOS 280800Z VRB01KT 9999 FEW030 SCT070 BKN100 05/M01 Q1016 RMK     1CU030 3AC070 7AC100 A3000=,
20180128_080000.003,0,RJOS,,,,0,20180128080000,-1,-1,-1,-1,999,-1,1,-1,-1,-1,-1,,9999,0,0,3,FEW 30   SCT 70   BKN 100,1,5,-1,1,1016,RJOS 280800Z VRB01KT 9999 FEW030 SCT070 BKN100 05/M01 Q1016     RMK 1CU030 3AC070 7AC100 A3000=,
20180128_090000.000,0,RJOS,,,,0,20180128090000,-1,-1,-1,-1,999,-1,2,-1,-1,-1,-1,,9999,0,0,2,FEW 30   BKN 100,1,4,-1,0,1015,RJOS 280900Z VRB02KT 9999 FEW030 BKN100 04/M00 Q1015 RMK 1CU030     5AC100 A2999=,
20180128_090000.003,0,RJOS,,,,0,20180128090000,-1,-1,-1,-1,999,-1,2,-1,-1,-1,-1,,9999,0,0,2,FEW 30   BKN 100,1,4,-1,0,1015,RJOS 280900Z VRB02KT 9999 FEW030 BKN100 04/M00 Q1015 RMK     1CU030 5AC100 A2999=,
20180128_100000.000,0,RJOS,,,,0,20180128100000,-1,-1,-1,-1,260,-1,3,-1,-1,-1,-1,,9999,0,0,2,FEW 30   BKN 100,1,4,-1,0,1015,RJOS 281000Z 26003KT 9999 FEW030 BKN100 04/M00 Q1015 RMK 1CU030     6AC100 A2999=,
20180128_100000.003,0,RJOS,,,,0,20180128100000,-1,-1,-1,-1,260,-1,3,-1,-1,-1,-1,,9999,0,0,2,FEW 30   BKN 100,1,4,-1,0,1015,RJOS 281000Z 26003KT 9999 FEW030 BKN100 04/M00 Q1015 RMK     1CU030 6AC100 A2999=,
20180128_110000.000,0,RJOS,,,,0,20180128110000,-1,-1,-1,-1,310,-1,4,-1,-1,-1,-1,,9999,0,0,3,FEW 30   SCT 50   BKN 100,1,3,-1,0,1015,RJOS 281100Z 31004KT 9999 FEW030 SCT050 BKN100 03/M00 Q1015 RMK     1CU030 3SC050 6AC100 A2998=,
20180128_110000.003,0,RJOS,,,,0,20180128110000,-1,-1,-1,-1,310,-1,4,-1,-1,-1,-1,,9999,0,0,3,FEW 30   SCT 50   BKN 100,1,3,-1,0,1015,RJOS 281100Z 31004KT 9999 FEW030 SCT050 BKN100 03/M00 Q1015     RMK 1CU030 3SC050 6AC100 A2998=,
20180128_120000.000,0,RJOS,,,,0,20180128120000,-1,-1,-1,-1,310,-1,3,-1,-1,-1,-1,,9999,0,0,3,FEW 30   BKN 50   BKN 100,1,4,-1,0,1015,RJOS 281200Z 31003KT 9999 FEW030 BKN050 BKN100 04/M00 Q1015 RMK     2CU030 5SC050 7AC100 A2999=,
20180128_120000.003,0,RJOS,,,,0,20180128120000,-1,-1,-1,-1,310,-1,3,-1,-1,-1,-1,,9999,0,0,3,FEW 30   BKN 50   BKN 100,1,4,-1,0,1015,RJOS 281200Z 31003KT 9999 FEW030 BKN050 BKN100 04/M00 Q1015     RMK 2CU030 5SC050 7AC100 A2999=,
20180128_130000.000,0,RJOS,,,,0,20180128130000,-1,-1,-1,-1,310,-1,3,-1,-1,-1,-1,,9999,0,0,2,FEW 30   BKN 50,1,4,1,0,1014,RJOS 281300Z 31003KT 9999 FEW030 BKN050 04/00 Q1014 RMK 2CU030     7SC050 A2997=,
20180128_130000.003,0,RJOS,,,,0,20180128130000,-1,-1,-1,-1,310,-1,3,-1,-1,-1,-1,,9999,0,0,2,FEW 30   BKN 50,1,4,1,0,1014,RJOS 281300Z 31003KT 9999 FEW030 BKN050 04/00 Q1014 RMK 2CU030     7SC050 A2997=,
20180128_140000.000,0,RJOS,,,,0,20180128140000,-1,-1,-1,-1,330,-1,2,-1,-1,-1,-1,,9999,0,0,2,FEW 30   BKN 50,1,4,1,0,1014,RJOS 281400Z 33002KT 9999 FEW030 BKN050 04/00 Q1014 RMK 1CU030     7SC050 A2997=,
20180128_140000.003,0,RJOS,,,,0,20180128140000,-1,-1,-1,-1,330,-1,2,-1,-1,-1,-1,,9999,0,0,2,FEW 30   BKN 50,1,4,1,0,1014,RJOS 281400Z 33002KT 9999 FEW030 BKN050 04/00 Q1014 RMK 1CU030     7SC050 A2997=,
20180128_150000.000,0,RJOS,,,,0,20180128150000,-1,-1,-1,-1,320,-1,3,-1,-1,280,10,,9999,0,1,3,FEW 15   SCT 30   BKN 50,1,5,1,1,1014,RJOS 281500Z 32003KT 280V010 9999 -SHRA FEW015 SCT030 BKN050     05/01 Q1014 RMK 1CU015 4CU030 7SC050 A2996=,- RA SH
20180128_150000.003,0,RJOS,,,,0,20180128150000,-1,-1,-1,-1,320,-1,3,-1,-1,280,10,,9999,0,1,3,FEW 15   SCT 30   BKN 50,1,5,1,1,1014,RJOS 281500Z 32003KT 280V010 9999 -SHRA FEW015 SCT030 BKN050     05/01 Q1014 RMK 1CU015 4CU030 7SC050 A2996=,- RA SH
20180128_160000.000,0,RJOS,,,,0,20180128160000,-1,-1,-1,-1,350,-1,7,-1,-1,-1,-1,,9999,0,0,3,FEW 15   BKN 30   BKN 50,1,5,1,2,1014,RJOS 281600Z 35007KT 9999 FEW015 BKN030 BKN050 05/02 Q1014 RMK     1CU015 5CU030 7SC050 A2994=,
20180128_160000.003,0,RJOS,,,,0,20180128160000,-1,-1,-1,-1,350,-1,7,-1,-1,-1,-1,,9999,0,0,3,FEW 15   BKN 30   BKN 50,1,5,1,2,1014,RJOS 281600Z 35007KT 9999 FEW015 BKN030 BKN050 05/02 Q1014 RMK     1CU015 5CU030 7SC050 A2994=,
20180128_170000.000,0,RJOS,,,,0,20180128170000,-1,-1,-1,-1,320,-1,5,-1,-1,290,20,,9999,0,0,3,FEW 15   BKN 30   BKN 50,1,5,1,0,1013,RJOS 281700Z 32005KT 290V020 9999 FEW015 BKN030 BKN050 05/00     Q1013 RMK 1CU015 5CU030 6SC050 A2994=,
20180128_170000.003,0,RJOS,,,,0,20180128170000,-1,-1,-1,-1,320,-1,5,-1,-1,290,20,,9999,0,0,3,FEW 15   BKN 30   BKN 50,1,5,1,0,1013,RJOS 281700Z 32005KT 290V020 9999 FEW015 BKN030 BKN050 05/00     Q1013 RMK 1CU015 5CU030 6SC050 A2994=,
20180128_180000.000,0,RJOS,,,,0,20180128180000,-1,-1,-1,-1,350,-1,14,-1,24,-1,-1,,9999,0,0,3,FEW 15   SCT 30   BKN 50,1,5,-1,2,1013,RJOS 281800Z 35014G24KT 9999 FEW015 SCT030 BKN050 05/M02 Q1013     RMK 1CU015 3CU030 6SC050 A2993=,
20180128_180000.003,0,RJOS,,,,0,20180128180000,-1,-1,-1,-1,350,-1,14,-1,24,-1,-1,,9999,0,0,3,FEW 15   SCT 30   BKN 50,1,5,-1,2,1013,RJOS 281800Z 35014G24KT 9999 FEW015 SCT030 BKN050 05/M02 Q1013     RMK 1CU015 3CU030 6SC050 A2993=,
20180128_190000.000,0,RJOS,,,,0,20180128190000,-1,-1,-1,-1,350,-1,14,-1,-1,-1,-1,,9999,0,0,3,FEW 30   BKN 50   BKN 150,1,5,-1,3,1012,RJOS 281900Z 35014KT 9999 FEW030 BKN050 BKN150 05/M03 Q1012 RMK     1CU030 5SC050 7AC150 A2991=,
20180128_190000.003,0,RJOS,,,,0,20180128190000,-1,-1,-1,-1,350,-1,14,-1,-1,-1,-1,,9999,0,0,3,FEW 30   BKN 50   BKN 150,1,5,-1,3,1012,RJOS 281900Z 35014KT 9999 FEW030 BKN050 BKN150 05/M03 Q1012     RMK 1CU030 5SC050 7AC150 A2991=,
20180128_200000.000,0,RJOS,,,,0,20180128200000,-1,-1,-1,-1,340,-1,11,-1,-1,-1,-1,,9999,0,0,3,FEW 30   BKN 50   BKN 150,1,5,-1,3,1013,RJOS 282000Z 34011KT 9999 FEW030 BKN050 BKN150 05/M03 Q1013 RMK     1CU030 5SC050 7AC150 A2992=,
20180128_200000.003,0,RJOS,,,,0,20180128200000,-1,-1,-1,-1,340,-1,11,-1,-1,-1,-1,,9999,0,0,3,FEW 30   BKN 50   BKN 150,1,5,-1,3,1013,RJOS 282000Z 34011KT 9999 FEW030 BKN050 BKN150 05/M03 Q1013     RMK 1CU030 5SC050 7AC150 A2992=,
20180128_210000.000,0,RJOS,,,,0,20180128210000,-1,-1,-1,-1,330,-1,9,-1,-1,-1,-1,,9999,0,0,2,FEW 30   BKN 50,1,5,-1,4,1013,RJOS 282100Z 33009KT 9999 FEW030 BKN050 05/M04 Q1013 RMK 1CU030     7SC050 A2992=,
20180128_210000.003,0,RJOS,,,,0,20180128210000,-1,-1,-1,-1,330,-1,9,-1,-1,-1,-1,,9999,0,0,2,FEW 30   BKN 50,1,5,-1,4,1013,RJOS 282100Z 33009KT 9999 FEW030 BKN050 05/M04 Q1013 RMK     1CU030 7SC050 A2992=,
20180128_220000.000,0,RJOS,,,,0,20180128220000,-1,-1,-1,-1,320,-1,7,-1,-1,-1,-1,,9999,0,0,2,FEW 30   BKN 60,1,5,-1,4,1013,RJOS 282200Z 32007KT 9999 FEW030 BKN060 05/M04 Q1013 RMK 1CU030     7SC060 A2993=,
20180128_220000.004,0,RJOS,,,,0,20180128220000,-1,-1,-1,-1,320,-1,7,-1,-1,-1,-1,,9999,0,0,2,FEW 30   BKN 60,1,5,-1,4,1013,RJOS 282200Z 32007KT 9999 FEW030 BKN060 05/M04 Q1013 RMK     1CU030 7SC060 A2993=,
20180128_230000.000,0,RJOS,,,,0,20180128230000,-1,-1,-1,-1,320,-1,7,-1,-1,-1,-1,,9999,0,0,2,FEW 30   BKN 60,1,5,-1,3,1014,RJOS 282300Z 32007KT 9999 FEW030 BKN060 05/M03 Q1014 RMK 1CU030     6SC060 A2994=,
20180128_230000.003,0,RJOS,,,,0,20180128230000,-1,-1,-1,-1,320,-1,7,-1,-1,-1,-1,,9999,0,0,2,FEW 30   BKN 60,1,5,-1,3,1014,RJOS 282300Z 32007KT 9999 FEW030 BKN060 05/M03 Q1014 RMK     1CU030 6SC060 A2994=,
20180129_000000.000,0,RJOS,,,,0,20180129000000,-1,-1,-1,-1,320,-1,7,-1,-1,-1,-1,,9999,0,0,2,SCT 30   BKN 60,1,5,-1,3,1014,RJOS 290000Z 32007KT 9999 SCT030 BKN060 05/M03 Q1014 RMK 3CU030     7SC060 A2996=,
20180129_000000.004,0,RJOS,,,,0,20180129000000,-1,-1,-1,-1,320,-1,7,-1,-1,-1,-1,,9999,0,0,2,SCT 30   BKN 60,1,5,-1,3,1014,RJOS 290000Z 32007KT 9999 SCT030 BKN060 05/M03 Q1014 RMK     3CU030 7SC060 A2996=,
20180129_010000.000,0,RJOS,,,,0,20180129010000,-1,-1,-1,-1,350,-1,11,-1,-1,-1,-1,,9999,0,0,3,FEW 30   SCT 40   BKN 60,1,5,-1,3,1014,RJOS 290100Z 35011KT 9999 FEW030 SCT040 BKN060 05/M03 Q1014 RMK     1CU030 3CU040 5SC060 A2997=,
20180129_010000.003,0,RJOS,,,,0,20180129010000,-1,-1,-1,-1,350,-1,11,-1,-1,-1,-1,,9999,0,0,3,FEW 30   SCT 40   BKN 60,1,5,-1,3,1014,RJOS 290100Z 35011KT 9999 FEW030 SCT040 BKN060 05/M03 Q1014     RMK 1CU030 3CU040 5SC060 A2997=,
20180129_020000.000,0,RJOS,,,,0,20180129020000,-1,-1,-1,-1,350,-1,12,-1,-1,-1,-1,,9999,0,0,2,FEW 30   BKN 40,1,5,-1,3,1014,RJOS 290200Z 35012KT 9999 FEW030 BKN040 05/M03 Q1014 RMK 1CU030     7CU040 A2996=,
20180129_020000.003,0,RJOS,,,,0,20180129020000,-1,-1,-1,-1,350,-1,12,-1,-1,-1,-1,,9999,0,0,2,FEW 30   BKN 40,1,5,-1,3,1014,RJOS 290200Z 35012KT 9999 FEW030 BKN040 05/M03 Q1014 RMK     1CU030 7CU040 A2996=,
20180129_030000.000,0,RJOS,,,,0,20180129030000,-1,-1,-1,-1,320,-1,11,-1,-1,-1,-1,,9999,0,0,2,FEW 30   BKN 40,1,6,-1,5,1013,RJOS 290300Z 32011KT 9999 FEW030 BKN040 06/M05 Q1013 RMK 1CU030     5CU040 A2994=,
20180129_030000.003,0,RJOS,,,,0,20180129030000,-1,-1,-1,-1,320,-1,11,-1,-1,-1,-1,,9999,0,0,2,FEW 30   BKN 40,1,6,-1,5,1013,RJOS 290300Z 32011KT 9999 FEW030 BKN040 06/M05 Q1013 RMK     1CU030 5CU040 A2994=,
20180129_040000.000,0,RJOS,,,,0,20180129040000,-1,-1,-1,-1,320,-1,12,-1,22,-1,-1,,9999,0,0,2,FEW 30   BKN 40,1,6,-1,5,1012,RJOS 290400Z 32012G22KT 9999 FEW030 BKN040 06/M05 Q1012 RMK     1CU030 5CU040 A2991=,
20180129_040000.003,0,RJOS,,,,0,20180129040000,-1,-1,-1,-1,320,-1,12,-1,22,-1,-1,,9999,0,0,2,FEW 30   BKN 40,1,6,-1,5,1012,RJOS 290400Z 32012G22KT 9999 FEW030 BKN040 06/M05 Q1012 RMK     1CU030 5CU040 A2991=,
20180129_050000.000,0,RJOS,,,,0,20180129050000,-1,-1,-1,-1,330,-1,15,-1,25,-1,-1,,9999,0,0,2,FEW 30   BKN 40,1,6,-1,5,1012,RJOS 290500Z 33015G25KT 9999 FEW030 BKN040 06/M05 Q1012 RMK     1CU030 7CU040 A2990=,
20180129_050000.003,0,RJOS,,,,0,20180129050000,-1,-1,-1,-1,330,-1,15,-1,25,-1,-1,,9999,0,0,2,FEW 30   BKN 40,1,6,-1,5,1012,RJOS 290500Z 33015G25KT 9999 FEW030 BKN040 06/M05 Q1012 RMK     1CU030 7CU040 A2990=,
20180129_060000.000,0,RJOS,,,,0,20180129060000,-1,-1,-1,-1,330,-1,12,-1,-1,-1,-1,,9999,0,0,2,FEW 30   BKN 40,1,6,-1,5,1012,RJOS 290600Z 33012KT 9999 FEW030 BKN040 06/M05 Q1012 RMK 1CU030     5CU040 A2990 PEAK GUST 21KT=,
20180129_060000.003,0,RJOS,,,,0,20180129060000,-1,-1,-1,-1,330,-1,12,-1,-1,-1,-1,,9999,0,0,2,FEW 30   BKN 40,1,6,-1,5,1012,RJOS 290600Z 33012KT 9999 FEW030 BKN040 06/M05 Q1012 RMK     1CU030 5CU040 A2990 PEAK GUST 21KT=,
20180129_070000.000,0,RJOS,,,,0,20180129070000,-1,-1,-1,-1,330,-1,15,-1,25,-1,-1,,9999,0,0,2,FEW 30   BKN 40,1,6,-1,5,1012,RJOS 290700Z 33015G25KT 9999 FEW030 BKN040 06/M05 Q1012 RMK     1CU030 6CU040 A2991=,
20180129_070000.003,0,RJOS,,,,0,20180129070000,-1,-1,-1,-1,330,-1,15,-1,25,-1,-1,,9999,0,0,2,FEW 30   BKN 40,1,6,-1,5,1012,RJOS 290700Z 33015G25KT 9999 FEW030 BKN040 06/M05 Q1012 RMK     1CU030 6CU040 A2991=,
20180129_080000.000,0,RJOS,,,,0,20180129080000,-1,-1,-1,-1,320,-1,16,-1,-1,-1,-1,,9999,0,0,2,FEW 30   BKN 40,1,4,-1,5,1013,RJOS 290800Z 32016KT 9999 FEW030 BKN040 04/M05 Q1013 RMK 1CU030     5CU040 A2994 PEAK GUST 24KT=,
20180129_080000.003,0,RJOS,,,,0,20180129080000,-1,-1,-1,-1,320,-1,16,-1,-1,-1,-1,,9999,0,0,2,FEW 30   BKN 40,1,4,-1,5,1013,RJOS 290800Z 32016KT 9999 FEW030 BKN040 04/M05 Q1013 RMK     1CU030 5CU040 A2994 PEAK GUST 24KT=,
20180129_090000.000,0,RJOS,,,,0,20180129090000,-1,-1,-1,-1,320,-1,13,-1,23,-1,-1,,9999,0,0,2,FEW 25   SCT 40,1,4,-1,7,1014,RJOS 290900Z 32013G23KT 9999 FEW025 SCT040 04/M07 Q1014 RMK     1CU025 3CU040 A2996=,
20180129_090000.003,0,RJOS,,,,0,20180129090000,-1,-1,-1,-1,320,-1,13,-1,23,-1,-1,,9999,0,0,2,FEW 25   SCT 40,1,4,-1,7,1014,RJOS 290900Z 32013G23KT 9999 FEW025 SCT040 04/M07 Q1014 RMK     1CU025 3CU040 A2996=,
20180129_100000.000,0,RJOS,,,,0,20180129100000,-1,-1,-1,-1,320,-1,17,-1,30,-1,-1,,9999,0,0,2,FEW 25   SCT 40,1,3,-1,9,1016,RJOS 291000Z 32017G30KT 9999 FEW025 SCT040 03/M09 Q1016 RMK     1CU025 3CU040 A3000=,
20180129_100000.003,0,RJOS,,,,0,20180129100000,-1,-1,-1,-1,320,-1,17,-1,30,-1,-1,,9999,0,0,2,FEW 25   SCT 40,1,3,-1,9,1016,RJOS 291000Z 32017G30KT 9999 FEW025 SCT040 03/M09 Q1016 RMK     1CU025 3CU040 A3000=,
20180129_110000.000,0,RJOS,,,,0,20180129110000,-1,-1,-1,-1,330,-1,16,-1,-1,-1,-1,,9999,0,0,1,FEW 40,1,3,-1,9,1016,RJOS 291100Z 33016KT 9999 FEW040 03/M09 Q1016 RMK 2CU040 A3003     PEAK GUST 24KT=,
20180129_110000.003,0,RJOS,,,,0,20180129110000,-1,-1,-1,-1,330,-1,16,-1,-1,-1,-1,,9999,0,0,1,FEW 40,1,3,-1,9,1016,RJOS 291100Z 33016KT 9999 FEW040 03/M09 Q1016 RMK 2CU040 A3003     PEAK GUST 24KT=,
20180129_120000.000,0,RJOS,,,,0,20180129120000,-1,-1,-1,-1,340,-1,20,-1,31,-1,-1,,9999,0,0,1,FEW 40,1,2,-1,10,1016,RJOS 291200Z 34020G31KT 9999 FEW040 02/M10 Q1016 RMK 1CU040     A3003=,
20180129_120000.003,0,RJOS,,,,0,20180129120000,-1,-1,-1,-1,340,-1,20,-1,31,-1,-1,,9999,0,0,1,FEW 40,1,2,-1,10,1016,RJOS 291200Z 34020G31KT 9999 FEW040 02/M10 Q1016 RMK 1CU040     A3003=,
20180129_130000.000,0,RJOS,,,,0,20180129130000,-1,-1,-1,-1,330,-1,15,-1,-1,-1,-1,,9999,0,0,1,FEW 40,1,1,-1,7,1017,RJOS 291300Z 33015KT 9999 FEW040 01/M07 Q1017 RMK 2CU040 A3004=,
20180129_130000.003,0,RJOS,,,,0,20180129130000,-1,-1,-1,-1,330,-1,15,-1,-1,-1,-1,,9999,0,0,1,FEW 40,1,1,-1,7,1017,RJOS 291300Z 33015KT 9999 FEW040 01/M07 Q1017 RMK 2CU040     A3004=,
20180129_140000.000,0,RJOS,,,,0,20180129140000,-1,-1,-1,-1,320,-1,15,-1,26,-1,-1,,9999,0,0,1,FEW 40,1,1,-1,7,1017,RJOS 291400Z 32015G26KT 9999 FEW040 01/M07 Q1017 RMK 2CU040     A3005=,
20180129_140000.003,0,RJOS,,,,0,20180129140000,-1,-1,-1,-1,320,-1,15,-1,26,-1,-1,,9999,0,0,1,FEW 40,1,1,-1,7,1017,RJOS 291400Z 32015G26KT 9999 FEW040 01/M07 Q1017 RMK 2CU040     A3005=,
20180129_150000.000,0,RJOS,,,,0,20180129150000,-1,-1,-1,-1,320,-1,13,-1,-1,-1,-1,,9999,0,0,1,FEW 40,1,1,-1,7,1017,RJOS 291500Z 32013KT 9999 FEW040 01/M07 Q1017 RMK 2CU040 A3005=,
20180129_150000.003,0,RJOS,,,,0,20180129150000,-1,-1,-1,-1,320,-1,13,-1,-1,-1,-1,,9999,0,0,1,FEW 40,1,1,-1,7,1017,RJOS 291500Z 32013KT 9999 FEW040 01/M07 Q1017 RMK 2CU040     A3005=,
20180129_160000.000,0,RJOS,,,,0,20180129160000,-1,-1,-1,-1,310,-1,14,-1,-1,-1,-1,,9999,0,0,1,FEW 40,1,1,-1,8,1017,RJOS 291600Z 31014KT 9999 FEW040 01/M08 Q1017 RMK 1CU040 A3005=,
20180129_160000.003,0,RJOS,,,,0,20180129160000,-1,-1,-1,-1,310,-1,14,-1,-1,-1,-1,,9999,0,0,1,FEW 40,1,1,-1,8,1017,RJOS 291600Z 31014KT 9999 FEW040 01/M08 Q1017 RMK 1CU040     A3005=,
20180129_170000.000,0,RJOS,,,,0,20180129170000,-1,-1,-1,-1,310,-1,12,-1,-1,-1,-1,,9999,0,0,1,FEW 40,1,0,-1,8,1018,RJOS 291700Z 31012KT 9999 FEW040 00/M08 Q1018 RMK 1CU040 A3006=,
20180129_170000.003,0,RJOS,,,,0,20180129170000,-1,-1,-1,-1,310,-1,12,-1,-1,-1,-1,,9999,0,0,1,FEW 40,1,0,-1,8,1018,RJOS 291700Z 31012KT 9999 FEW040 00/M08 Q1018 RMK 1CU040     A3006=,
20180129_180000.000,0,RJOS,,,,0,20180129180000,-1,-1,-1,-1,300,-1,14,-1,-1,-1,-1,,9999,0,0,1,FEW 30,1,0,-1,8,1018,RJOS 291800Z 30014KT 9999 FEW030 00/M08 Q1018 RMK 1CU030 A3009=,
20180129_180000.003,0,RJOS,,,,0,20180129180000,-1,-1,-1,-1,300,-1,14,-1,-1,-1,-1,,9999,0,0,1,FEW 30,1,0,-1,8,1018,RJOS 291800Z 30014KT 9999 FEW030 00/M08 Q1018 RMK 1CU030     A3009=,
20180129_190000.000,0,RJOS,,,,0,20180129190000,-1,-1,-1,-1,310,-1,7,-1,-1,-1,-1,,9999,0,0,1,FEW 30,-1,1,-1,7,1019,RJOS 291900Z 31007KT 9999 FEW030 M01/M07 Q1019 RMK 1CU030     A3010=,
20180129_190000.003,0,RJOS,,,,0,20180129190000,-1,-1,-1,-1,310,-1,7,-1,-1,-1,-1,,9999,0,0,1,FEW 30,-1,1,-1,7,1019,RJOS 291900Z 31007KT 9999 FEW030 M01/M07 Q1019 RMK 1CU030     A3010=,
20180129_200000.000,0,RJOS,,,,0,20180129200000,-1,-1,-1,-1,310,-1,8,-1,-1,-1,-1,,9999,0,0,1,FEW 30,1,0,-1,8,1019,RJOS 292000Z 31008KT 9999 FEW030 00/M08 Q1019 RMK 1CU030 A3010=,
20180129_200000.003,0,RJOS,,,,0,20180129200000,-1,-1,-1,-1,310,-1,8,-1,-1,-1,-1,,9999,0,0,1,FEW 30,1,0,-1,8,1019,RJOS 292000Z 31008KT 9999 FEW030 00/M08 Q1019 RMK 1CU030     A3010=,
20180129_210000.000,0,RJOS,,,,0,20180129210000,-1,-1,-1,-1,310,-1,10,-1,-1,-1,-1,,9999,0,0,1,FEW 30,-1,0,-1,7,1019,RJOS 292100Z 31010KT 9999 FEW030 M00/M07 Q1019 RMK 1CU030     A3010=,
20180129_210000.003,0,RJOS,,,,0,20180129210000,-1,-1,-1,-1,310,-1,10,-1,-1,-1,-1,,9999,0,0,1,FEW 30,-1,0,-1,7,1019,RJOS 292100Z 31010KT 9999 FEW030 M00/M07 Q1019 RMK 1CU030     A3010=,
20180129_220000.000,0,RJOS,,,,0,20180129220000,-1,-1,-1,-1,300,-1,10,-1,-1,-1,-1,,9999,0,0,1,FEW 30,-1,0,-1,7,1019,RJOS 292200Z 30010KT 9999 FEW030 M00/M07 Q1019 RMK 1CU030     A3012=,
20180129_220000.003,0,RJOS,,,,0,20180129220000,-1,-1,-1,-1,300,-1,10,-1,-1,-1,-1,,9999,0,0,1,FEW 30,-1,0,-1,7,1019,RJOS 292200Z 30010KT 9999 FEW030 M00/M07 Q1019 RMK 1CU030     A3012=,
20180129_230000.000,0,RJOS,,,,0,20180129230000,-1,-1,-1,-1,290,-1,9,-1,-1,-1,-1,,9999,0,0,1,FEW 30,1,0,-1,7,1020,RJOS 292300Z 29009KT 9999 FEW030 00/M07 Q1020 RMK 1CU030 A3014=,
20180129_230000.003,0,RJOS,,,,0,20180129230000,-1,-1,-1,-1,290,-1,9,-1,-1,-1,-1,,9999,0,0,1,FEW 30,1,0,-1,7,1020,RJOS 292300Z 29009KT 9999 FEW030 00/M07 Q1020 RMK 1CU030     A3014=,
20180130_000000.000,0,RJOS,,,,0,20180130000000,-1,-1,-1,-1,300,-1,12,-1,-1,-1,-1,,9999,0,0,1,FEW 30,1,2,-1,7,1021,RJOS 300000Z 30012KT 9999 FEW030 02/M07 Q1021 RMK 1CU030 A3015=,
20180130_000000.003,0,RJOS,,,,0,20180130000000,-1,-1,-1,-1,300,-1,12,-1,-1,-1,-1,,9999,0,0,1,FEW 30,1,2,-1,7,1021,RJOS 300000Z 30012KT 9999 FEW030 02/M07 Q1021 RMK 1CU030     A3015=,
20180130_010000.000,0,RJOS,,,,0,20180130010000,-1,-1,-1,-1,300,-1,13,-1,-1,-1,-1,,9999,0,0,1,FEW 30,1,3,-1,8,1021,RJOS 300100Z 30013KT 9999 FEW030 03/M08 Q1021 RMK 1CU030 A3016=,
20180130_010000.003,0,RJOS,,,,0,20180130010000,-1,-1,-1,-1,300,-1,13,-1,-1,-1,-1,,9999,0,0,1,FEW 30,1,3,-1,8,1021,RJOS 300100Z 30013KT 9999 FEW030 03/M08 Q1021 RMK 1CU030     A3016=,
20180130_020000.000,0,RJOS,,,,0,20180130020000,-1,-1,-1,-1,310,-1,14,-1,-1,-1,-1,,9999,0,0,1,FEW 30,1,4,-1,8,1020,RJOS 300200Z 31014KT 9999 FEW030 04/M08 Q1020 RMK 1CU030 A3014     PEAK GUST 21KT=,
20180130_020000.003,0,RJOS,,,,0,20180130020000,-1,-1,-1,-1,310,-1,14,-1,-1,-1,-1,,9999,0,0,1,FEW 30,1,4,-1,8,1020,RJOS 300200Z 31014KT 9999 FEW030 04/M08 Q1020 RMK 1CU030 A3014     PEAK GUST 21KT=,
20180130_030000.000,0,RJOS,,,,0,20180130030000,-1,-1,-1,-1,320,-1,11,-1,-1,-1,-1,,9999,0,0,2,FEW 30   SCT 50,1,4,-1,8,1020,RJOS 300300Z 32011KT 9999 FEW030 SCT050 04/M08 Q1020 RMK 1CU030     3SC050 A3013=,
20180130_030000.003,0,RJOS,,,,0,20180130030000,-1,-1,-1,-1,320,-1,11,-1,-1,-1,-1,,9999,0,0,2,FEW 30   SCT 50,1,4,-1,8,1020,RJOS 300300Z 32011KT 9999 FEW030 SCT050 04/M08 Q1020 RMK     1CU030 3SC050 A3013=,
20180130_040000.000,0,RJOS,,,,0,20180130040000,-1,-1,-1,-1,310,-1,12,-1,-1,-1,-1,,9999,0,0,2,FEW 30   BKN 50,1,5,-1,8,1019,RJOS 300400Z 31012KT 9999 FEW030 BKN050 05/M08 Q1019 RMK 1CU030     5SC050 A3011 PEAK GUST 20KT=,
20180130_040000.003,0,RJOS,,,,0,20180130040000,-1,-1,-1,-1,310,-1,12,-1,-1,-1,-1,,9999,0,0,2,FEW 30   BKN 50,1,5,-1,8,1019,RJOS 300400Z 31012KT 9999 FEW030 BKN050 05/M08 Q1019 RMK     1CU030 5SC050 A3011 PEAK GUST 20KT=,
20180130_050000.000,0,RJOS,,,,0,20180130050000,-1,-1,-1,-1,330,-1,14,-1,-1,-1,-1,,9999,0,0,2,FEW 30   SCT 50,1,5,-1,8,1019,RJOS 300500Z 33014KT 9999 FEW030 SCT050 05/M08 Q1019 RMK 1CU030     4SC050 A3011 PEAK GUST 20KT=,
20180130_050000.003,0,RJOS,,,,0,20180130050000,-1,-1,-1,-1,330,-1,14,-1,-1,-1,-1,,9999,0,0,2,FEW 30   SCT 50,1,5,-1,8,1019,RJOS 300500Z 33014KT 9999 FEW030 SCT050 05/M08 Q1019 RMK     1CU030 4SC050 A3011 PEAK GUST 20KT=,
20180130_060000.000,0,RJOS,,,,0,20180130060000,-1,-1,-1,-1,330,-1,14,-1,-1,-1,-1,,9999,0,0,2,FEW 30   SCT 50,1,6,-1,9,1019,RJOS 300600Z 33014KT 9999 FEW030 SCT050 06/M09 Q1019 RMK 1CU030     3SC050 A3012=,
20180130_060000.004,0,RJOS,,,,0,20180130060000,-1,-1,-1,-1,330,-1,14,-1,-1,-1,-1,,9999,0,0,2,FEW 30   SCT 50,1,6,-1,9,1019,RJOS 300600Z 33014KT 9999 FEW030 SCT050 06/M09 Q1019 RMK     1CU030 3SC050 A3012=,
20180130_070000.000,0,RJOS,,,,0,20180130070000,-1,-1,-1,-1,320,-1,12,-1,-1,-1,-1,,9999,0,0,2,FEW 30   SCT 50,1,5,-1,8,1020,RJOS 300700Z 32012KT 9999 FEW030 SCT050 05/M08 Q1020 RMK 1CU030     3SC050 A3014=,
20180130_070000.003,0,RJOS,,,,0,20180130070000,-1,-1,-1,-1,320,-1,12,-1,-1,-1,-1,,9999,0,0,2,FEW 30   SCT 50,1,5,-1,8,1020,RJOS 300700Z 32012KT 9999 FEW030 SCT050 05/M08 Q1020 RMK     1CU030 3SC050 A3014=,
20180130_080000.000,0,RJOS,,,,0,20180130080000,-1,-1,-1,-1,330,-1,13,-1,-1,-1,-1,,9999,0,0,2,FEW 30   SCT 50,1,5,-1,8,1021,RJOS 300800Z 33013KT 9999 FEW030 SCT050 05/M08 Q1021 RMK 1CU030     3SC050 A3016=,
20180130_080000.003,0,RJOS,,,,0,20180130080000,-1,-1,-1,-1,330,-1,13,-1,-1,-1,-1,,9999,0,0,2,FEW 30   SCT 50,1,5,-1,8,1021,RJOS 300800Z 33013KT 9999 FEW030 SCT050 05/M08 Q1021 RMK     1CU030 3SC050 A3016=,
20180130_090000.000,0,RJOS,,,,0,20180130090000,-1,-1,-1,-1,320,-1,7,-1,-1,-1,-1,,9999,0,0,2,FEW 30   SCT 50,1,3,-1,7,1022,RJOS 300900Z 32007KT 9999 FEW030 SCT050 03/M07 Q1022 RMK 1CU030     3SC050 A3020=,
20180130_090000.003,0,RJOS,,,,0,20180130090000,-1,-1,-1,-1,320,-1,7,-1,-1,-1,-1,,9999,0,0,2,FEW 30   SCT 50,1,3,-1,7,1022,RJOS 300900Z 32007KT 9999 FEW030 SCT050 03/M07 Q1022 RMK     1CU030 3SC050 A3020=,
20180130_100000.000,0,RJOS,,,,0,20180130100000,-1,-1,-1,-1,310,-1,8,-1,-1,-1,-1,,9999,0,0,2,FEW 30   SCT 50,1,3,-1,7,1023,RJOS 301000Z 31008KT 9999 FEW030 SCT050 03/M07 Q1023 RMK 1CU030     4SC050 A3022=,
20180130_100000.003,0,RJOS,,,,0,20180130100000,-1,-1,-1,-1,310,-1,8,-1,-1,-1,-1,,9999,0,0,2,FEW 30   SCT 50,1,3,-1,7,1023,RJOS 301000Z 31008KT 9999 FEW030 SCT050 03/M07 Q1023 RMK     1CU030 4SC050 A3022=,
20180130_110000.000,0,RJOS,,,,0,20180130110000,-1,-1,-1,-1,310,-1,4,-1,-1,-1,-1,,9999,0,0,2,FEW 30   SCT 50,1,3,-1,6,1024,RJOS 301100Z 31004KT 9999 FEW030 SCT050 03/M06 Q1024 RMK 1CU030     4SC050 A3024=,
20180130_110000.003,0,RJOS,,,,0,20180130110000,-1,-1,-1,-1,310,-1,4,-1,-1,-1,-1,,9999,0,0,2,FEW 30   SCT 50,1,3,-1,6,1024,RJOS 301100Z 31004KT 9999 FEW030 SCT050 03/M06 Q1024 RMK     1CU030 4SC050 A3024=,
20180130_120000.000,0,RJOS,,,,0,20180130120000,-1,-1,-1,-1,290,-1,6,-1,-1,-1,-1,,9999,0,0,1,FEW 30,1,2,-1,5,1024,RJOS 301200Z 29006KT 9999 FEW030 02/M05 Q1024 RMK 1CU030 A3025=,
20180130_120000.003,0,RJOS,,,,0,20180130120000,-1,-1,-1,-1,290,-1,6,-1,-1,-1,-1,,9999,0,0,1,FEW 30,1,2,-1,5,1024,RJOS 301200Z 29006KT 9999 FEW030 02/M05 Q1024 RMK 1CU030     A3025=,
20180130_130000.000,0,RJOS,,,,0,20180130130000,-1,-1,-1,-1,270,-1,5,-1,-1,-1,-1,,9999,0,0,1,FEW 30,1,2,-1,5,1024,RJOS 301300Z 27005KT 9999 FEW030 02/M05 Q1024 RMK 1CU030 A3025=,
20180130_130000.003,0,RJOS,,,,0,20180130130000,-1,-1,-1,-1,270,-1,5,-1,-1,-1,-1,,9999,0,0,1,FEW 30,1,2,-1,5,1024,RJOS 301300Z 27005KT 9999 FEW030 02/M05 Q1024 RMK 1CU030     A3025=,
20180130_140000.000,0,RJOS,,,,0,20180130140000,-1,-1,-1,-1,280,-1,8,-1,-1,-1,-1,,9999,0,0,2,FEW 30   SCT 180,1,2,-1,3,1025,RJOS 301400Z 28008KT 9999 FEW030 SCT180 02/M03 Q1025 RMK 1CU030     4AC180 A3028=,
20180130_140000.003,0,RJOS,,,,0,20180130140000,-1,-1,-1,-1,280,-1,8,-1,-1,-1,-1,,9999,0,0,2,FEW 30   SCT 180,1,2,-1,3,1025,RJOS 301400Z 28008KT 9999 FEW030 SCT180 02/M03 Q1025 RMK     1CU030 4AC180 A3028=,
20180130_150000.000,0,RJOS,,,,0,20180130150000,-1,-1,-1,-1,290,-1,7,-1,-1,-1,-1,,9999,0,0,2,FEW 30   SCT 180,1,1,-1,3,1025,RJOS 301500Z 29007KT 9999 FEW030 SCT180 01/M03 Q1025 RMK 1CU030     3AC180 A3028=,
20180130_150000.003,0,RJOS,,,,0,20180130150000,-1,-1,-1,-1,290,-1,7,-1,-1,-1,-1,,9999,0,0,2,FEW 30   SCT 180,1,1,-1,3,1025,RJOS 301500Z 29007KT 9999 FEW030 SCT180 01/M03 Q1025 RMK     1CU030 3AC180 A3028=,
20180130_160000.000,0,RJOS,,,,0,20180130160000,-1,-1,-1,-1,280,-1,5,-1,-1,-1,-1,,9999,0,0,3,FEW 30   SCT 50   BKN 180,1,1,-1,4,1025,RJOS 301600Z 28005KT 9999 FEW030 SCT050 BKN180 01/M04 Q1025 RMK     1CU030 3SC050 5AC180 A3027=,
20180130_160000.003,0,RJOS,,,,0,20180130160000,-1,-1,-1,-1,280,-1,5,-1,-1,-1,-1,,9999,0,0,3,FEW 30   SCT 50   BKN 180,1,1,-1,4,1025,RJOS 301600Z 28005KT 9999 FEW030 SCT050 BKN180 01/M04 Q1025     RMK 1CU030 3SC050 5AC180 A3027=,
20180130_170000.000,0,RJOS,,,,0,20180130170000,-1,-1,-1,-1,310,-1,3,-1,-1,-1,-1,,9999,0,0,2,FEW 30   SCT 180,1,1,-1,4,1024,RJOS 301700Z 31003KT 9999 FEW030 SCT180 01/M04 Q1024 RMK 1CU030     3AC180 A3026=,
20180130_170000.003,0,RJOS,,,,0,20180130170000,-1,-1,-1,-1,310,-1,3,-1,-1,-1,-1,,9999,0,0,2,FEW 30   SCT 180,1,1,-1,4,1024,RJOS 301700Z 31003KT 9999 FEW030 SCT180 01/M04 Q1024 RMK     1CU030 3AC180 A3026=,
20180130_180000.000,0,RJOS,,,,0,20180130180000,-1,-1,-1,-1,310,-1,4,-1,-1,-1,-1,,9999,0,0,1,FEW 30,1,1,-1,5,1025,RJOS 301800Z 31004KT 9999 FEW030 01/M05 Q1025 RMK 1CU030 A3028=,
20180130_180000.003,0,RJOS,,,,0,20180130180000,-1,-1,-1,-1,310,-1,4,-1,-1,-1,-1,,9999,0,0,1,FEW 30,1,1,-1,5,1025,RJOS 301800Z 31004KT 9999 FEW030 01/M05 Q1025 RMK 1CU030     A3028=,
20180130_190000.000,0,RJOS,,,,0,20180130190000,-1,-1,-1,-1,320,-1,9,-1,-1,-1,-1,,9999,0,0,1,FEW 30,1,1,-1,5,1025,RJOS 301900Z 32009KT 9999 FEW030 01/M05 Q1025 RMK 1CU030 A3028=,
20180130_190000.003,0,RJOS,,,,0,20180130190000,-1,-1,-1,-1,320,-1,9,-1,-1,-1,-1,,9999,0,0,1,FEW 30,1,1,-1,5,1025,RJOS 301900Z 32009KT 9999 FEW030 01/M05 Q1025 RMK 1CU030     A3028=,
20180130_200000.000,0,RJOS,,,,0,20180130200000,-1,-1,-1,-1,280,-1,6,-1,-1,260,350,,9999,0,0,1,FEW 30,1,0,-1,5,1025,RJOS 302000Z 28006KT 260V350 9999 FEW030 00/M05 Q1025 RMK     1CU030 A3027=,
20180130_200000.003,0,RJOS,,,,0,20180130200000,-1,-1,-1,-1,280,-1,6,-1,-1,260,350,,9999,0,0,1,FEW 30,1,0,-1,5,1025,RJOS 302000Z 28006KT 260V350 9999 FEW030 00/M05 Q1025 RMK     1CU030 A3027=,
20180130_210000.000,0,RJOS,,,,0,20180130210000,-1,-1,-1,-1,300,-1,4,-1,-1,-1,-1,,9999,0,0,1,FEW 30,-1,0,-1,5,1026,RJOS 302100Z 30004KT 9999 FEW030 M00/M05 Q1026 RMK 1CU030     A3030=,
20180130_210000.003,0,RJOS,,,,0,20180130210000,-1,-1,-1,-1,300,-1,4,-1,-1,-1,-1,,9999,0,0,1,FEW 30,-1,0,-1,5,1026,RJOS 302100Z 30004KT 9999 FEW030 M00/M05 Q1026 RMK 1CU030     A3030=,
20180130_220000.000,0,RJOS,,,,0,20180130220000,-1,-1,-1,-1,290,-1,8,-1,-1,-1,-1,,9999,0,0,1,FEW 30,-1,1,-1,5,1026,RJOS 302200Z 29008KT 9999 FEW030 M01/M05 Q1026 RMK 1CU030     A3032=,
20180130_220000.003,0,RJOS,,,,0,20180130220000,-1,-1,-1,-1,290,-1,8,-1,-1,-1,-1,,9999,0,0,1,FEW 30,-1,1,-1,5,1026,RJOS 302200Z 29008KT 9999 FEW030 M01/M05 Q1026 RMK 1CU030     A3032=,
20180130_230000.000,0,RJOS,,,,0,20180130230000,-1,-1,-1,-1,300,-1,9,-1,-1,-1,-1,,9999,0,0,2,FEW 30   BKN -9999,1,0,-1,5,1027,RJOS 302300Z 30009KT 9999 FEW030 BKN/// 00/M05 Q1027 RMK 1CU030     A3034=,
20180130_230000.003,0,RJOS,,,,0,20180130230000,-1,-1,-1,-1,300,-1,9,-1,-1,-1,-1,,9999,0,0,2,FEW 30   BKN -9999,1,0,-1,5,1027,RJOS 302300Z 30009KT 9999 FEW030 BKN/// 00/M05 Q1027 RMK     1CU030 A3034=,
20180131_000000.000,0,RJOS,,,,0,20180131000000,-1,-1,-1,-1,300,-1,7,-1,-1,-1,-1,,9999,0,0,2,FEW 30   BKN -9999,1,2,-1,4,1027,RJOS 310000Z 30007KT 9999 FEW030 BKN/// 02/M04 Q1027 RMK 1CU030     A3035=,
20180131_000000.003,0,RJOS,,,,0,20180131000000,-1,-1,-1,-1,300,-1,7,-1,-1,-1,-1,,9999,0,0,2,FEW 30   BKN -9999,1,2,-1,4,1027,RJOS 310000Z 30007KT 9999 FEW030 BKN/// 02/M04 Q1027 RMK     1CU030 A3035=,
20180131_010000.000,0,RJOS,,,,0,20180131010000,-1,-1,-1,-1,280,-1,8,-1,-1,-1,-1,,9999,0,0,2,FEW 30   BKN -9999,1,5,-1,5,1027,RJOS 310100Z 28008KT 9999 FEW030 BKN/// 05/M05 Q1027 RMK 1CU030     A3033=,
20180131_010000.003,0,RJOS,,,,0,20180131010000,-1,-1,-1,-1,280,-1,8,-1,-1,-1,-1,,9999,0,0,2,FEW 30   BKN -9999,1,5,-1,5,1027,RJOS 310100Z 28008KT 9999 FEW030 BKN/// 05/M05 Q1027 RMK     1CU030 A3033=,
20180131_020000.000,0,RJOS,,,,0,20180131020000,-1,-1,-1,-1,310,-1,3,-1,-1,230,20,,9999,0,0,2,FEW 30   BKN -9999,1,6,-1,6,1026,RJOS 310200Z 31003KT 230V020 9999 FEW030 BKN/// 06/M06 Q1026     RMK 1CU030 A3032=,
20180131_020000.003,0,RJOS,,,,0,20180131020000,-1,-1,-1,-1,310,-1,3,-1,-1,230,20,,9999,0,0,2,FEW 30   BKN -9999,1,6,-1,6,1026,RJOS 310200Z 31003KT 230V020 9999 FEW030 BKN/// 06/M06 Q1026     RMK 1CU030 A3032=,
20180131_030000.000,0,RJOS,,,,0,20180131030000,-1,-1,-1,-1,330,-1,13,-1,-1,-1,-1,,9999,0,0,2,FEW 30   BKN -9999,1,8,-1,6,1025,RJOS 310300Z 33013KT 9999 FEW030 BKN/// 08/M06 Q1025 RMK 1CU030     A3030=,
20180131_030000.003,0,RJOS,,,,0,20180131030000,-1,-1,-1,-1,330,-1,13,-1,-1,-1,-1,,9999,0,0,2,FEW 30   BKN -9999,1,8,-1,6,1025,RJOS 310300Z 33013KT 9999 FEW030 BKN/// 08/M06 Q1025 RMK     1CU030 A3030=,
20180131_040000.000,0,RJOS,,,,0,20180131040000,-1,-1,-1,-1,10,-1,12,-1,-1,-1,-1,,9999,0,0,2,FEW 30   BKN -9999,1,7,-1,4,1025,RJOS 310400Z 01012KT 9999 FEW030 BKN/// 07/M04 Q1025 RMK 1CU030     A3028=,
20180131_040000.003,0,RJOS,,,,0,20180131040000,-1,-1,-1,-1,10,-1,12,-1,-1,-1,-1,,9999,0,0,2,FEW 30   BKN -9999,1,7,-1,4,1025,RJOS 310400Z 01012KT 9999 FEW030 BKN/// 07/M04 Q1025 RMK     1CU030 A3028=,
20180131_050000.000,0,RJOS,,,,0,20180131050000,-1,-1,-1,-1,20,-1,12,-1,-1,-1,-1,,9999,0,0,2,FEW 30   BKN -9999,1,7,-1,3,1024,RJOS 310500Z 02012KT 9999 FEW030 BKN/// 07/M03 Q1024 RMK 1CU030     A3024=,
20180131_050000.003,0,RJOS,,,,0,20180131050000,-1,-1,-1,-1,20,-1,12,-1,-1,-1,-1,,9999,0,0,2,FEW 30   BKN -9999,1,7,-1,3,1024,RJOS 310500Z 02012KT 9999 FEW030 BKN/// 07/M03 Q1024 RMK     1CU030 A3024=,
20180131_060000.000,0,RJOS,,,,0,20180131060000,-1,-1,-1,-1,10,-1,10,-1,-1,-1,-1,,9999,0,0,2,FEW 30   BKN -9999,1,8,-1,3,1023,RJOS 310600Z 01010KT 9999 FEW030 BKN/// 08/M03 Q1023 RMK 1CU030     A3023=,
20180131_060000.003,0,RJOS,,,,0,20180131060000,-1,-1,-1,-1,10,-1,10,-1,-1,-1,-1,,9999,0,0,2,FEW 30   BKN -9999,1,8,-1,3,1023,RJOS 310600Z 01010KT 9999 FEW030 BKN/// 08/M03 Q1023 RMK     1CU030 A3023=,
20180131_070000.000,0,RJOS,,,,0,20180131070000,-1,-1,-1,-1,10,-1,12,-1,-1,-1,-1,,9999,0,0,2,FEW 30   BKN -9999,1,7,-1,5,1023,RJOS 310700Z 01012KT 9999 FEW030 BKN/// 07/M05 Q1023 RMK 1CU030     A3024=,
20180131_070000.004,0,RJOS,,,,0,20180131070000,-1,-1,-1,-1,10,-1,12,-1,-1,-1,-1,,9999,0,0,2,FEW 30   BKN -9999,1,7,-1,5,1023,RJOS 310700Z 01012KT 9999 FEW030 BKN/// 07/M05 Q1023 RMK     1CU030 A3024=,
20180131_080000.000,0,RJOS,,,,0,20180131080000,-1,-1,-1,-1,20,-1,10,-1,-1,-1,-1,,9999,0,0,2,FEW 30   BKN -9999,1,6,-1,5,1024,RJOS 310800Z 02010KT 9999 FEW030 BKN/// 06/M05 Q1024 RMK 1CU030     A3025=,
20180131_080000.004,0,RJOS,,,,0,20180131080000,-1,-1,-1,-1,20,-1,10,-1,-1,-1,-1,,9999,0,0,2,FEW 30   BKN -9999,1,6,-1,5,1024,RJOS 310800Z 02010KT 9999 FEW030 BKN/// 06/M05 Q1024 RMK     1CU030 A3025=,
20180131_090000.000,0,RJOS,,,,0,20180131090000,-1,-1,-1,-1,20,-1,6,-1,-1,-1,-1,,9999,0,0,2,FEW 30   SCT -9999,1,5,-1,5,1024,RJOS 310900Z 02006KT 9999 FEW030 SCT/// 05/M05 Q1024 RMK 1CU030     A3026=,
20180131_090000.003,0,RJOS,,,,0,20180131090000,-1,-1,-1,-1,20,-1,6,-1,-1,-1,-1,,9999,0,0,2,FEW 30   SCT -9999,1,5,-1,5,1024,RJOS 310900Z 02006KT 9999 FEW030 SCT/// 05/M05 Q1024 RMK     1CU030 A3026=,
20180131_100000.000,0,RJOS,,,,0,20180131100000,-1,-1,-1,-1,10,-1,3,-1,-1,-1,-1,,9999,0,0,2,FEW 30   SCT -9999,1,4,-1,5,1025,RJOS 311000Z 01003KT 9999 FEW030 SCT/// 04/M05 Q1025 RMK 1CU030     A3028=,
20180131_100000.003,0,RJOS,,,,0,20180131100000,-1,-1,-1,-1,10,-1,3,-1,-1,-1,-1,,9999,0,0,2,FEW 30   SCT -9999,1,4,-1,5,1025,RJOS 311000Z 01003KT 9999 FEW030 SCT/// 04/M05 Q1025 RMK     1CU030 A3028=,
20180131_110000.000,0,RJOS,,,,0,20180131110000,-1,-1,-1,-1,999,-1,1,-1,-1,-1,-1,,9999,0,0,2,FEW 30   SCT -9999,1,4,-1,4,1025,RJOS 311100Z VRB01KT 9999 FEW030 SCT/// 04/M04 Q1025 RMK 1CU030     A3027=,
20180131_110000.003,0,RJOS,,,,0,20180131110000,-1,-1,-1,-1,999,-1,1,-1,-1,-1,-1,,9999,0,0,2,FEW 30   SCT -9999,1,4,-1,4,1025,RJOS 311100Z VRB01KT 9999 FEW030 SCT/// 04/M04 Q1025 RMK     1CU030 A3027=,
20180131_120000.000,0,RJOS,,,,0,20180131120000,-1,-1,-1,-1,310,-1,3,-1,-1,-1,-1,,9999,0,0,2,FEW 30   SCT -9999,1,3,-1,3,1024,RJOS 311200Z 31003KT 9999 FEW030 SCT/// 03/M03 Q1024 RMK 1CU030     A3025=,
20180131_120000.003,0,RJOS,,,,0,20180131120000,-1,-1,-1,-1,310,-1,3,-1,-1,-1,-1,,9999,0,0,2,FEW 30   SCT -9999,1,3,-1,3,1024,RJOS 311200Z 31003KT 9999 FEW030 SCT/// 03/M03 Q1024 RMK     1CU030 A3025=,
20180131_130000.000,0,RJOS,,,,0,20180131130000,-1,-1,-1,-1,300,-1,7,-1,-1,-1,-1,,9999,0,0,2,FEW 30   SCT -9999,1,3,-1,3,1025,RJOS 311300Z 30007KT 9999 FEW030 SCT/// 03/M03 Q1025 RMK 1CU030     A3028=,
20180131_130000.004,0,RJOS,,,,0,20180131130000,-1,-1,-1,-1,300,-1,7,-1,-1,-1,-1,,9999,0,0,2,FEW 30   SCT -9999,1,3,-1,3,1025,RJOS 311300Z 30007KT 9999 FEW030 SCT/// 03/M03 Q1025 RMK     1CU030 A3028=,
20180131_140000.000,0,RJOS,,,,0,20180131140000,-1,-1,-1,-1,290,-1,6,-1,-1,-1,-1,,9999,0,0,3,FEW 30   SCT 120   BKN -9999,1,2,-1,3,1024,RJOS 311400Z 29006KT 9999 FEW030 SCT120 BKN/// 02/M03 Q1024 RMK     1CU030 3AC120 A3025=,
20180131_140000.003,0,RJOS,,,,0,20180131140000,-1,-1,-1,-1,290,-1,6,-1,-1,-1,-1,,9999,0,0,3,FEW 30   SCT 120   BKN -9999,1,2,-1,3,1024,RJOS 311400Z 29006KT 9999 FEW030 SCT120 BKN/// 02/M03 Q1024     RMK 1CU030 3AC120 A3025=,
20180131_150000.000,0,RJOS,,,,0,20180131150000,-1,-1,-1,-1,300,-1,8,-1,-1,-1,-1,,9999,0,0,3,FEW 30   BKN 100   BKN -9999,1,2,-1,4,1024,RJOS 311500Z 30008KT 9999 FEW030 BKN100 BKN/// 02/M04 Q1024 RMK     1CU030 5AC100 A3025=,
20180131_150000.003,0,RJOS,,,,0,20180131150000,-1,-1,-1,-1,300,-1,8,-1,-1,-1,-1,,9999,0,0,3,FEW 30   BKN 100   BKN -9999,1,2,-1,4,1024,RJOS 311500Z 30008KT 9999 FEW030 BKN100 BKN/// 02/M04 Q1024     RMK 1CU030 5AC100 A3025=,
20180131_160000.000,0,RJOS,,,,0,20180131160000,-1,-1,-1,-1,290,-1,7,-1,-1,-1,-1,,9999,0,0,2,FEW 30   BKN 100,1,2,-1,4,1024,RJOS 311600Z 29007KT 9999 FEW030 BKN100 02/M04 Q1024 RMK 1CU030     7AC100 A3025=,
20180131_160000.003,0,RJOS,,,,0,20180131160000,-1,-1,-1,-1,290,-1,7,-1,-1,-1,-1,,9999,0,0,2,FEW 30   BKN 100,1,2,-1,4,1024,RJOS 311600Z 29007KT 9999 FEW030 BKN100 02/M04 Q1024 RMK     1CU030 7AC100 A3025=,
20180131_170000.000,0,RJOS,,,,0,20180131170000,-1,-1,-1,-1,300,-1,7,-1,-1,-1,-1,,9999,0,0,2,FEW 30   BKN 100,1,3,-1,4,1024,RJOS 311700Z 30007KT 9999 FEW030 BKN100 03/M04 Q1024 RMK 1CU030     7AC100 A3026=,
20180131_170000.003,0,RJOS,,,,0,20180131170000,-1,-1,-1,-1,300,-1,7,-1,-1,-1,-1,,9999,0,0,2,FEW 30   BKN 100,1,3,-1,4,1024,RJOS 311700Z 30007KT 9999 FEW030 BKN100 03/M04 Q1024 RMK     1CU030 7AC100 A3026=,
20180131_180000.000,0,RJOS,,,,0,20180131180000,-1,-1,-1,-1,310,-1,5,-1,-1,-1,-1,,9999,0,0,3,FEW 30   SCT 80   BKN 100,1,3,-1,4,1024,RJOS 311800Z 31005KT 9999 FEW030 SCT080 BKN100 03/M04 Q1024 RMK     1CU030 4AC080 7AC100 A3025=,
20180131_180000.003,0,RJOS,,,,0,20180131180000,-1,-1,-1,-1,310,-1,5,-1,-1,-1,-1,,9999,0,0,3,FEW 30   SCT 80   BKN 100,1,3,-1,4,1024,RJOS 311800Z 31005KT 9999 FEW030 SCT080 BKN100 03/M04 Q1024     RMK 1CU030 4AC080 7AC100 A3025=,
20180131_190000.000,0,RJOS,,,,0,20180131190000,-1,-1,-1,-1,290,-1,7,-1,-1,-1,-1,,9999,0,0,2,FEW 30   BKN 80,1,3,-1,4,1024,RJOS 311900Z 29007KT 9999 FEW030 BKN080 03/M04 Q1024 RMK 1CU030     7AC080 A3024=,
20180131_190000.004,0,RJOS,,,,0,20180131190000,-1,-1,-1,-1,290,-1,7,-1,-1,-1,-1,,9999,0,0,2,FEW 30   BKN 80,1,3,-1,4,1024,RJOS 311900Z 29007KT 9999 FEW030 BKN080 03/M04 Q1024 RMK     1CU030 7AC080 A3024=,
20180131_200000.000,0,RJOS,,,,0,20180131200000,-1,-1,-1,-1,270,-1,6,-1,-1,220,300,,9999,0,0,3,FEW 20   SCT 40   BKN 80,1,3,-1,2,1024,RJOS 312000Z 27006KT 220V300 9999 FEW020 SCT040 BKN080 03/M02     Q1024 RMK 1CU020 4CU040 7AC080 A3025=,
20180131_200000.004,0,RJOS,,,,0,20180131200000,-1,-1,-1,-1,270,-1,6,-1,-1,220,300,,9999,0,0,3,FEW 20   SCT 40   BKN 80,1,3,-1,2,1024,RJOS 312000Z 27006KT 220V300 9999 FEW020 SCT040 BKN080 03/M02     Q1024 RMK 1CU020 4CU040 7AC080 A3025=,
20180131_210000.000,0,RJOS,,,,0,20180131210000,-1,-1,-1,-1,290,-1,8,-1,-1,-1,-1,,8000,0,1,3,FEW 20   BKN 35   BKN 80,1,2,1,0,1025,RJOS 312100Z 29008KT 8000 -SHRA FEW020 BKN035 BKN080 02/00     Q1025 RMK 1CU020 5CU035 7AC080 A3027 S/// SD/// FS000=,- RA SH
20180131_210000.003,0,RJOS,,,,0,20180131210000,-1,-1,-1,-1,290,-1,8,-1,-1,-1,-1,,8000,0,1,3,FEW 20   BKN 35   BKN 80,1,2,1,0,1025,RJOS 312100Z 29008KT 8000 -SHRA FEW020 BKN035 BKN080 02/00     Q1025 RMK 1CU020 5CU035 7AC080 A3027 S/// SD/// FS000=,- RA SH
20180131_220000.000,0,RJOS,,,,0,20180131220000,-1,-1,-1,-1,290,-1,10,-1,-1,-1,-1,,8000,0,1,2,FEW 20   BKN 35,1,2,1,0,1025,RJOS 312200Z 29010KT 8000 -SHRA FEW020 BKN035 02/00 Q1025 RMK     2CU020 7CU035 A3029=,- RA SH
20180131_220000.003,0,RJOS,,,,0,20180131220000,-1,-1,-1,-1,290,-1,10,-1,-1,-1,-1,,8000,0,1,2,FEW 20   BKN 35,1,2,1,0,1025,RJOS 312200Z 29010KT 8000 -SHRA FEW020 BKN035 02/00 Q1025 RMK     2CU020 7CU035 A3029=,- RA SH
20180131_230000.000,0,RJOS,,,,0,20180131230000,-1,-1,-1,-1,290,-1,5,-1,-1,-1,-1,,8000,0,1,3,FEW 10   SCT 15   OVC 30,1,2,1,0,1026,RJOS 312300Z 29005KT 8000 -SHRASN FEW010 SCT015 OVC030 02/00     Q1026 RMK 1CU010 3CU015 8CU030 A3031=,- RA SN SH
20180131_230000.003,0,RJOS,,,,0,20180131230000,-1,-1,-1,-1,290,-1,5,-1,-1,-1,-1,,8000,0,1,3,FEW 10   SCT 15   OVC 30,1,2,1,0,1026,RJOS 312300Z 29005KT 8000 -SHRASN FEW010 SCT015 OVC030 02/00     Q1026 RMK 1CU010 3CU015 8CU030 A3031=,- RA SN SH
20180201_000000.000,0,RJOS,,,,0,20180201000000,-1,-1,-1,-1,300,-1,5,-1,-1,-1,-1,,6000,0,1,3,FEW 5   SCT 15   OVC 30,1,2,1,1,1026,RJOS 010000Z 30005KT 6000 -SHRASN FEW005 SCT015 OVC030 02/01     Q1026 RMK 2ST005 4CU015 8CU030 A3031=,- RA SN SH
20180201_000000.004,0,RJOS,,,,0,20180201000000,-1,-1,-1,-1,300,-1,5,-1,-1,-1,-1,,6000,0,1,3,FEW 5   SCT 15   OVC 30,1,2,1,1,1026,RJOS 010000Z 30005KT 6000 -SHRASN FEW005 SCT015 OVC030 02/01     Q1026 RMK 2ST005 4CU015 8CU030 A3031=,- RA SN SH
20180201_010000.000,0,RJOS,,,,0,20180201010000,-1,-1,-1,-1,290,-1,5,-1,-1,-1,-1,,5000,0,2,3,SCT 4   BKN 15   OVC 30,1,2,1,1,1025,RJOS 010100Z 29005KT 5000 -SHRASN BR SCT004 BKN015 OVC030 02/01     Q1025 RMK 3ST004 5CU015 8CU030 A3030=,- RA SN SH; BR
20180201_010000.003,0,RJOS,,,,0,20180201010000,-1,-1,-1,-1,290,-1,5,-1,-1,-1,-1,,5000,0,2,3,SCT 4   BKN 15   OVC 30,1,2,1,1,1025,RJOS 010100Z 29005KT 5000 -SHRASN BR SCT004 BKN015 OVC030     02/01 Q1025 RMK 3ST004 5CU015 8CU030 A3030=,- RA SN SH; BR
20180201_020000.000,0,RJOS,,,,0,20180201020000,-1,-1,-1,-1,300,-1,6,-1,-1,-1,-1,,4500,0,2,3,FEW 4   SCT 15   OVC 30,1,2,1,1,1025,RJOS 010200Z 30006KT 4500 -SHRASN BR FEW004 SCT015 OVC030 02/01     Q1025 RMK 2ST004 4CU015 8CU030 A3029=,- RA SN SH; BR
20180201_020000.003,0,RJOS,,,,0,20180201020000,-1,-1,-1,-1,300,-1,6,-1,-1,-1,-1,,4500,0,2,3,FEW 4   SCT 15   OVC 30,1,2,1,1,1025,RJOS 010200Z 30006KT 4500 -SHRASN BR FEW004 SCT015 OVC030     02/01 Q1025 RMK 2ST004 4CU015 8CU030 A3029=,- RA SN SH; BR
20180201_030000.000,0,RJOS,,,,0,20180201030000,-1,-1,-1,-1,310,-1,5,-1,-1,-1,-1,,8000,0,1,3,FEW 4   SCT 8   BKN 15,1,2,1,1,1024,RJOS 010300Z 31005KT 8000 -SHSNRA FEW004 SCT008 BKN015 02/01     Q1024 RMK 2ST004 4ST008 6CU015 A3025=,- SN RA SH
20180201_030000.004,0,RJOS,,,,0,20180201030000,-1,-1,-1,-1,310,-1,5,-1,-1,-1,-1,,8000,0,1,3,FEW 4   SCT 8   BKN 15,1,2,1,1,1024,RJOS 010300Z 31005KT 8000 -SHSNRA FEW004 SCT008 BKN015 02/01     Q1024 RMK 2ST004 4ST008 6CU015 A3025=,- SN RA SH
20180201_040000.000,0,RJOS,,,,0,20180201040000,-1,-1,-1,-1,300,-1,6,-1,-1,-1,-1,,8000,0,1,3,FEW 4   SCT 8   BKN 15,1,3,1,1,1023,RJOS 010400Z 30006KT 8000 -SHSNRA FEW004 SCT008 BKN015 03/01     Q1023 RMK 2ST004 4ST008 6CU015 A3022=,- SN RA SH
20180201_040000.004,0,RJOS,,,,0,20180201040000,-1,-1,-1,-1,300,-1,6,-1,-1,-1,-1,,8000,0,1,3,FEW 4   SCT 8   BKN 15,1,3,1,1,1023,RJOS 010400Z 30006KT 8000 -SHSNRA FEW004 SCT008 BKN015 03/01     Q1023 RMK 2ST004 4ST008 6CU015 A3022=,- SN RA SH
20180201_050000.000,0,RJOS,,,,0,20180201050000,-1,-1,-1,-1,340,-1,4,-1,-1,-1,-1,,9999,0,1,3,FEW 4   SCT 8   BKN 15,1,3,1,1,1022,RJOS 010500Z 34004KT 9999 -SHRA FEW004 SCT008 BKN015 03/01     Q1022 RMK 1ST004 4ST008 6CU015 A3020=,- RA SH
20180201_050000.003,0,RJOS,,,,0,20180201050000,-1,-1,-1,-1,340,-1,4,-1,-1,-1,-1,,9999,0,1,3,FEW 4   SCT 8   BKN 15,1,3,1,1,1022,RJOS 010500Z 34004KT 9999 -SHRA FEW004 SCT008 BKN015 03/01     Q1022 RMK 1ST004 4ST008 6CU015 A3020=,- RA SH
20180201_060000.000,0,RJOS,,,,0,20180201060000,-1,-1,-1,-1,360,-1,10,-1,-1,-1,-1,,9999,0,1,3,FEW 4   SCT 8   BKN 15,1,3,1,2,1022,RJOS 010600Z 36010KT 9999 -SHRA FEW004 SCT008 BKN015 03/02     Q1022 RMK 1ST004 4ST008 6CU015 A3020=,- RA SH
20180201_060000.003,0,RJOS,,,,0,20180201060000,-1,-1,-1,-1,360,-1,10,-1,-1,-1,-1,,9999,0,1,3,FEW 4   SCT 8   BKN 15,1,3,1,2,1022,RJOS 010600Z 36010KT 9999 -SHRA FEW004 SCT008 BKN015 03/02     Q1022 RMK 1ST004 4ST008 6CU015 A3020=,- RA SH
20180201_070000.000,0,RJOS,,,,0,20180201070000,-1,-1,-1,-1,350,-1,7,-1,-1,-1,-1,,9999,0,1,3,FEW 4   SCT 8   BKN 15,1,3,1,1,1022,RJOS 010700Z 35007KT 9999 -SHRA FEW004 SCT008 BKN015 03/01     Q1022 RMK 1ST004 4ST008 6CU015 A3020=,- RA SH
20180201_070000.003,0,RJOS,,,,0,20180201070000,-1,-1,-1,-1,350,-1,7,-1,-1,-1,-1,,9999,0,1,3,FEW 4   SCT 8   BKN 15,1,3,1,1,1022,RJOS 010700Z 35007KT 9999 -SHRA FEW004 SCT008 BKN015 03/01     Q1022 RMK 1ST004 4ST008 6CU015 A3020=,- RA SH
20180201_080000.000,0,RJOS,,,,0,20180201080000,-1,-1,-1,-1,310,-1,5,-1,-1,-1,-1,,9999,0,1,3,FEW 4   SCT 8   BKN 15,1,3,1,1,1023,RJOS 010800Z 31005KT 9999 -SHRA FEW004 SCT008 BKN015 03/01     Q1023 RMK 1ST004 3ST008 6CU015 A3022=,- RA SH
20180201_080000.003,0,RJOS,,,,0,20180201080000,-1,-1,-1,-1,310,-1,5,-1,-1,-1,-1,,9999,0,1,3,FEW 4   SCT 8   BKN 15,1,3,1,1,1023,RJOS 010800Z 31005KT 9999 -SHRA FEW004 SCT008 BKN015 03/01     Q1023 RMK 1ST004 3ST008 6CU015 A3022=,- RA SH
20180201_090000.000,0,RJOS,,,,0,20180201090000,-1,-1,-1,-1,320,-1,5,-1,-1,-1,-1,,9999,0,1,3,FEW 8   BKN 15   BKN 30,1,3,1,1,1023,RJOS 010900Z 32005KT 9999 -SHRA FEW008 BKN015 BKN030 03/01     Q1023 RMK 2ST008 5CU015 7CU030 A3023=,- RA SH
20180201_090000.003,0,RJOS,,,,0,20180201090000,-1,-1,-1,-1,320,-1,5,-1,-1,-1,-1,,9999,0,1,3,FEW 8   BKN 15   BKN 30,1,3,1,1,1023,RJOS 010900Z 32005KT 9999 -SHRA FEW008 BKN015 BKN030 03/01     Q1023 RMK 2ST008 5CU015 7CU030 A3023=,- RA SH
20180201_100000.000,0,RJOS,,,,0,20180201100000,-1,-1,-1,-1,310,-1,6,-1,-1,-1,-1,,9999,0,1,3,FEW 8   BKN 15   BKN 30,1,3,1,1,1024,RJOS 011000Z 31006KT 9999 -SHRA FEW008 BKN015 BKN030 03/01     Q1024 RMK 1ST008 5CU015 7CU030 A3025=,- RA SH
20180201_100000.003,0,RJOS,,,,0,20180201100000,-1,-1,-1,-1,310,-1,6,-1,-1,-1,-1,,9999,0,1,3,FEW 8   BKN 15   BKN 30,1,3,1,1,1024,RJOS 011000Z 31006KT 9999 -SHRA FEW008 BKN015 BKN030 03/01     Q1024 RMK 1ST008 5CU015 7CU030 A3025=,- RA SH
20180201_110000.000,0,RJOS,,,,0,20180201110000,-1,-1,-1,-1,320,-1,7,-1,-1,-1,-1,,9999,0,0,3,FEW 8   BKN 15   BKN 30,1,3,1,1,1024,RJOS 011100Z 32007KT 9999 FEW008 BKN015 BKN030 03/01 Q1024 RMK     1ST008 5CU015 7CU030 A3025=,
20180201_110000.003,0,RJOS,,,,0,20180201110000,-1,-1,-1,-1,320,-1,7,-1,-1,-1,-1,,9999,0,0,3,FEW 8   BKN 15   BKN 30,1,3,1,1,1024,RJOS 011100Z 32007KT 9999 FEW008 BKN015 BKN030 03/01 Q1024 RMK     1ST008 5CU015 7CU030 A3025=,
20180201_120000.000,0,RJOS,,,,0,20180201120000,-1,-1,-1,-1,300,-1,6,-1,-1,-1,-1,,9999,0,0,3,FEW 8   SCT 15   BKN 30,1,3,1,1,1024,RJOS 011200Z 30006KT 9999 FEW008 SCT015 BKN030 03/01 Q1024 RMK     1ST008 3CU015 7CU030 A3026=,
20180201_120000.003,0,RJOS,,,,0,20180201120000,-1,-1,-1,-1,300,-1,6,-1,-1,-1,-1,,9999,0,0,3,FEW 8   SCT 15   BKN 30,1,3,1,1,1024,RJOS 011200Z 30006KT 9999 FEW008 SCT015 BKN030 03/01 Q1024 RMK     1ST008 3CU015 7CU030 A3026=,
20180201_130000.000,0,RJOS,,,,0,20180201130000,-1,-1,-1,-1,290,-1,6,-1,-1,-1,-1,,9999,0,0,2,FEW 15   BKN 30,1,3,1,1,1024,RJOS 011300Z 29006KT 9999 FEW015 BKN030 03/01 Q1024 RMK 1CU015     7CU030 A3025=,
20180201_130000.003,0,RJOS,,,,0,20180201130000,-1,-1,-1,-1,290,-1,6,-1,-1,-1,-1,,9999,0,0,2,FEW 15   BKN 30,1,3,1,1,1024,RJOS 011300Z 29006KT 9999 FEW015 BKN030 03/01 Q1024 RMK 1CU015     7CU030 A3025=,
20180201_140000.000,0,RJOS,,,,0,20180201140000,-1,-1,-1,-1,290,-1,7,-1,-1,-1,-1,,9999,0,0,2,FEW 15   BKN 30,1,2,1,1,1023,RJOS 011400Z 29007KT 9999 FEW015 BKN030 02/01 Q1023 RMK 1CU015     7CU030 A3024=,
20180201_140000.003,0,RJOS,,,,0,20180201140000,-1,-1,-1,-1,290,-1,7,-1,-1,-1,-1,,9999,0,0,2,FEW 15   BKN 30,1,2,1,1,1023,RJOS 011400Z 29007KT 9999 FEW015 BKN030 02/01 Q1023 RMK 1CU015     7CU030 A3024=,
20180201_150000.000,0,RJOS,,,,0,20180201150000,-1,-1,-1,-1,290,-1,9,-1,-1,-1,-1,,9999,0,0,2,FEW 15   BKN 30,1,2,1,0,1024,RJOS 011500Z 29009KT 9999 FEW015 BKN030 02/00 Q1024 RMK 1CU015     7CU030 A3024=,
20180201_150000.003,0,RJOS,,,,0,20180201150000,-1,-1,-1,-1,290,-1,9,-1,-1,-1,-1,,9999,0,0,2,FEW 15   BKN 30,1,2,1,0,1024,RJOS 011500Z 29009KT 9999 FEW015 BKN030 02/00 Q1024 RMK 1CU015     7CU030 A3024=,
20180201_160000.000,0,RJOS,,,,0,20180201160000,-1,-1,-1,-1,290,-1,10,-1,-1,-1,-1,,9999,0,0,2,FEW 15   BKN 30,1,2,1,0,1024,RJOS 011600Z 29010KT 9999 FEW015 BKN030 02/00 Q1024 RMK 1CU015     7CU030 A3027=,
20180201_160000.003,0,RJOS,,,,0,20180201160000,-1,-1,-1,-1,290,-1,10,-1,-1,-1,-1,,9999,0,0,2,FEW 15   BKN 30,1,2,1,0,1024,RJOS 011600Z 29010KT 9999 FEW015 BKN030 02/00 Q1024 RMK 1CU015     7CU030 A3027=,
20180201_170000.000,0,RJOS,,,,0,20180201170000,-1,-1,-1,-1,290,-1,7,-1,-1,-1,-1,,9999,0,0,2,FEW 15   BKN 30,1,2,1,0,1024,RJOS 011700Z 29007KT 9999 FEW015 BKN030 02/00 Q1024 RMK 1CU015     7CU030 A3024=,
20180201_170000.003,0,RJOS,,,,0,20180201170000,-1,-1,-1,-1,290,-1,7,-1,-1,-1,-1,,9999,0,0,2,FEW 15   BKN 30,1,2,1,0,1024,RJOS 011700Z 29007KT 9999 FEW015 BKN030 02/00 Q1024 RMK 1CU015     7CU030 A3024=,
20180201_180000.000,0,RJOS,,,,0,20180201180000,-1,-1,-1,-1,290,-1,8,-1,-1,-1,-1,,9999,0,0,2,FEW 15   BKN 30,1,2,-1,0,1023,RJOS 011800Z 29008KT 9999 FEW015 BKN030 02/M00 Q1023 RMK 1CU015     7CU030 A3024=,
20180201_180000.003,0,RJOS,,,,0,20180201180000,-1,-1,-1,-1,290,-1,8,-1,-1,-1,-1,,9999,0,0,2,FEW 15   BKN 30,1,2,-1,0,1023,RJOS 011800Z 29008KT 9999 FEW015 BKN030 02/M00 Q1023 RMK     1CU015 7CU030 A3024=,
20180201_190000.000,0,RJOS,,,,0,20180201190000,-1,-1,-1,-1,300,-1,9,-1,-1,-1,-1,,9999,0,0,2,FEW 15   BKN 25,1,2,-1,1,1023,RJOS 011900Z 30009KT 9999 FEW015 BKN025 02/M01 Q1023 RMK 1CU015     7CU025 A3023=,
20180201_190000.004,0,RJOS,,,,0,20180201190000,-1,-1,-1,-1,300,-1,9,-1,-1,-1,-1,,9999,0,0,2,FEW 15   BKN 25,1,2,-1,1,1023,RJOS 011900Z 30009KT 9999 FEW015 BKN025 02/M01 Q1023 RMK     1CU015 7CU025 A3023=,
20180201_200000.000,0,RJOS,,,,0,20180201200000,-1,-1,-1,-1,300,-1,9,-1,-1,-1,-1,,9999,0,0,2,FEW 15   BKN 25,1,2,-1,1,1023,RJOS 012000Z 30009KT 9999 FEW015 BKN025 02/M01 Q1023 RMK 1CU015     7CU025 A3021=,
20180201_200000.004,0,RJOS,,,,0,20180201200000,-1,-1,-1,-1,300,-1,9,-1,-1,-1,-1,,9999,0,0,2,FEW 15   BKN 25,1,2,-1,1,1023,RJOS 012000Z 30009KT 9999 FEW015 BKN025 02/M01 Q1023 RMK     1CU015 7CU025 A3021=,
20180201_210000.000,0,RJOS,,,,0,20180201210000,-1,-1,-1,-1,280,-1,7,-1,-1,-1,-1,,9999,0,0,2,FEW 15   BKN 30,1,1,-1,1,1023,RJOS 012100Z 28007KT 9999 FEW015 BKN030 01/M01 Q1023 RMK 1CU015     6CU030 A3023 S000 SD/// FS///=,
20180201_210000.003,0,RJOS,,,,0,20180201210000,-1,-1,-1,-1,280,-1,7,-1,-1,-1,-1,,9999,0,0,2,FEW 15   BKN 30,1,1,-1,1,1023,RJOS 012100Z 28007KT 9999 FEW015 BKN030 01/M01 Q1023 RMK     1CU015 6CU030 A3023 S000 SD/// FS///=,
20180201_220000.000,0,RJOS,,,,0,20180201220000,-1,-1,-1,-1,310,-1,6,-1,-1,-1,-1,,9999,0,0,2,FEW 15   SCT 30,1,1,-1,1,1023,RJOS 012200Z 31006KT 9999 FEW015 SCT030 01/M01 Q1023 RMK 1CU015     3CU030 A3023=,
20180201_220000.003,0,RJOS,,,,0,20180201220000,-1,-1,-1,-1,310,-1,6,-1,-1,-1,-1,,9999,0,0,2,FEW 15   SCT 30,1,1,-1,1,1023,RJOS 012200Z 31006KT 9999 FEW015 SCT030 01/M01 Q1023 RMK     1CU015 3CU030 A3023=,
20180201_230000.000,0,RJOS,,,,0,20180201230000,-1,-1,-1,-1,290,-1,6,-1,-1,-1,-1,,9999,0,0,2,FEW 30   SCT -9999,1,1,-1,1,1023,RJOS 012300Z 29006KT 9999 FEW030 SCT/// 01/M01 Q1023 RMK 2CU030     A3023=,
20180201_230000.004,0,RJOS,,,,0,20180201230000,-1,-1,-1,-1,290,-1,6,-1,-1,-1,-1,,9999,0,0,2,FEW 30   SCT -9999,1,1,-1,1,1023,RJOS 012300Z 29006KT 9999 FEW030 SCT/// 01/M01 Q1023 RMK     2CU030 A3023=,
20180202_000000.000,0,RJOS,,,,0,20180202000000,-1,-1,-1,-1,300,-1,9,-1,-1,-1,-1,,9999,0,0,2,FEW 20   BKN 30,1,3,1,0,1024,RJOS 020000Z 30009KT 9999 FEW020 BKN030 03/00 Q1024 RMK 2CU020     6CU030 A3025=,
20180202_000000.003,0,RJOS,,,,0,20180202000000,-1,-1,-1,-1,300,-1,9,-1,-1,-1,-1,,9999,0,0,2,FEW 20   BKN 30,1,3,1,0,1024,RJOS 020000Z 30009KT 9999 FEW020 BKN030 03/00 Q1024 RMK 2CU020     6CU030 A3025=,
20180202_010000.000,0,RJOS,,,,0,20180202010000,-1,-1,-1,-1,320,-1,6,-1,-1,290,350,,9999,0,0,3,FEW 20   BKN 30   BKN -9999,1,5,1,1,1024,RJOS 020100Z 32006KT 290V350 9999 FEW020 BKN030 BKN/// 05/01     Q1024 RMK 1CU020 5CU030 A3024=,
20180202_010000.003,0,RJOS,,,,0,20180202010000,-1,-1,-1,-1,320,-1,6,-1,-1,290,350,,9999,0,0,3,FEW 20   BKN 30   BKN -9999,1,5,1,1,1024,RJOS 020100Z 32006KT 290V350 9999 FEW020 BKN030 BKN/// 05/01     Q1024 RMK 1CU020 5CU030 A3024=,
20180202_020000.000,0,RJOS,,,,0,20180202020000,-1,-1,-1,-1,360,-1,9,-1,-1,-1,-1,,9999,0,0,3,FEW 20   BKN 30   BKN -9999,1,6,1,1,1023,RJOS 020200Z 36009KT 9999 FEW020 BKN030 BKN/// 06/01 Q1023 RMK     1CU020 5CU030 A3022=,
20180202_020000.003,0,RJOS,,,,0,20180202020000,-1,-1,-1,-1,360,-1,9,-1,-1,-1,-1,,9999,0,0,3,FEW 20   BKN 30   BKN -9999,1,6,1,1,1023,RJOS 020200Z 36009KT 9999 FEW020 BKN030 BKN/// 06/01 Q1023 RMK     1CU020 5CU030 A3022=,
20180202_030000.000,0,RJOS,,,,0,20180202030000,-1,-1,-1,-1,340,-1,7,-1,-1,310,30,,9999,0,0,3,FEW 20   SCT 30   BKN -9999,1,7,1,0,1023,RJOS 020300Z 34007KT 310V030 9999 FEW020 SCT030 BKN/// 07/00     Q1023 RMK 1CU020 3CU030 A3022=,
20180202_030000.003,0,RJOS,,,,0,20180202030000,-1,-1,-1,-1,340,-1,7,-1,-1,310,30,,9999,0,0,3,FEW 20   SCT 30   BKN -9999,1,7,1,0,1023,RJOS 020300Z 34007KT 310V030 9999 FEW020 SCT030 BKN/// 07/00     Q1023 RMK 1CU020 3CU030 A3022=,
20180202_040000.000,0,RJOS,,,,0,20180202040000,-1,-1,-1,-1,10,-1,9,-1,-1,-1,-1,,9999,0,0,2,FEW 30   BKN -9999,1,7,1,1,1022,RJOS 020400Z 01009KT 9999 FEW030 BKN/// 07/01 Q1022 RMK 2CU030     A3019=,
20180202_040000.003,0,RJOS,,,,0,20180202040000,-1,-1,-1,-1,10,-1,9,-1,-1,-1,-1,,9999,0,0,2,FEW 30   BKN -9999,1,7,1,1,1022,RJOS 020400Z 01009KT 9999 FEW030 BKN/// 07/01 Q1022 RMK 2CU030     A3019=,
20180202_050000.002,0,RJOS,,,,0,20180202050000,-1,-1,-1,-1,10,-1,9,-1,-1,330,40,,9999,0,0,2,FEW 30   BKN -9999,1,8,-1,0,1022,RJOS 020500Z 01009KT 330V040 9999 FEW030 BKN/// 08/M00 Q1022     RMK 1CU030 A3018=,
20180202_060000.000,0,RJOS,,,,0,20180202060000,-1,-1,-1,-1,10,-1,6,-1,-1,330,50,,9999,0,0,3,FEW 30   SCT 150   BKN -9999,1,8,-1,2,1022,RJOS 020600Z 01006KT 330V050 9999 FEW030 SCT150 BKN/// 08/M02     Q1022 RMK 1CU030 3AC150 A3018=,
20180202_060000.003,0,RJOS,,,,0,20180202060000,-1,-1,-1,-1,10,-1,6,-1,-1,330,50,,9999,0,0,3,FEW 30   SCT 150   BKN -9999,1,8,-1,2,1022,RJOS 020600Z 01006KT 330V050 9999 FEW030 SCT150 BKN/// 08/M02     Q1022 RMK 1CU030 3AC150 A3018=,
20180202_070000.000,0,RJOS,,,,0,20180202070000,-1,-1,-1,-1,360,-1,7,-1,-1,-1,-1,,9999,0,0,2,FEW 30   BKN -9999,1,8,-1,2,1021,RJOS 020700Z 36007KT 9999 FEW030 BKN/// 08/M02 Q1021 RMK 1CU030     A3017=,
20180202_070000.003,0,RJOS,,,,0,20180202070000,-1,-1,-1,-1,360,-1,7,-1,-1,-1,-1,,9999,0,0,2,FEW 30   BKN -9999,1,8,-1,2,1021,RJOS 020700Z 36007KT 9999 FEW030 BKN/// 08/M02 Q1021 RMK     1CU030 A3017=,
20180202_080000.000,0,RJOS,,,,0,20180202080000,-1,-1,-1,-1,360,-1,6,-1,-1,-1,-1,,9999,0,0,2,FEW 30   BKN -9999,1,7,-1,2,1021,RJOS 020800Z 36006KT 9999 FEW030 BKN/// 07/M02 Q1021 RMK 1CU030     A3017=,
20180202_080000.003,0,RJOS,,,,0,20180202080000,-1,-1,-1,-1,360,-1,6,-1,-1,-1,-1,,9999,0,0,2,FEW 30   BKN -9999,1,7,-1,2,1021,RJOS 020800Z 36006KT 9999 FEW030 BKN/// 07/M02 Q1021 RMK     1CU030 A3017=,
20180202_090000.000,0,RJOS,,,,0,20180202090000,-1,-1,-1,-1,360,-1,6,-1,-1,-1,-1,,9999,0,0,3,FEW 30   SCT 150   BKN -9999,1,6,-1,1,1021,RJOS 020900Z 36006KT 9999 FEW030 SCT150 BKN/// 06/M01 Q1021 RMK     1CU030 3AC150 A3016=,
20180202_090000.003,0,RJOS,,,,0,20180202090000,-1,-1,-1,-1,360,-1,6,-1,-1,-1,-1,,9999,0,0,3,FEW 30   SCT 150   BKN -9999,1,6,-1,1,1021,RJOS 020900Z 36006KT 9999 FEW030 SCT150 BKN/// 06/M01 Q1021     RMK 1CU030 3AC150 A3016=,
20180202_100000.000,0,RJOS,,,,0,20180202100000,-1,-1,-1,-1,340,-1,3,-1,-1,-1,-1,,9999,0,0,3,FEW 30   SCT 150   BKN -9999,1,6,-1,0,1021,RJOS 021000Z 34003KT 9999 FEW030 SCT150 BKN/// 06/M00 Q1021 RMK     1CU030 4AC150 A3015=,
20180202_100000.004,0,RJOS,,,,0,20180202100000,-1,-1,-1,-1,340,-1,3,-1,-1,-1,-1,,9999,0,0,3,FEW 30   SCT 150   BKN -9999,1,6,-1,0,1021,RJOS 021000Z 34003KT 9999 FEW030 SCT150 BKN/// 06/M00 Q1021     RMK 1CU030 4AC150 A3015=,
20180202_110000.000,0,RJOS,,,,0,20180202110000,-1,-1,-1,-1,999,-1,1,-1,-1,-1,-1,,9999,0,0,2,FEW 30   BKN -9999,1,5,-1,0,1021,RJOS 021100Z VRB01KT 9999 FEW030 BKN/// 05/M00 Q1021 RMK 1CU030     A3015=,
20180202_110000.003,0,RJOS,,,,0,20180202110000,-1,-1,-1,-1,999,-1,1,-1,-1,-1,-1,,9999,0,0,2,FEW 30   BKN -9999,1,5,-1,0,1021,RJOS 021100Z VRB01KT 9999 FEW030 BKN/// 05/M00 Q1021 RMK     1CU030 A3015=,
20180202_120000.000,0,RJOS,,,,0,20180202120000,-1,-1,-1,-1,290,-1,5,-1,-1,-1,-1,,9999,0,0,3,FEW 30   SCT 150   BKN -9999,1,4,1,1,1020,RJOS 021200Z 29005KT 9999 FEW030 SCT150 BKN/// 04/01 Q1020 RMK     1CU030 3AC150 A3014=,
20180202_120000.003,0,RJOS,,,,0,20180202120000,-1,-1,-1,-1,290,-1,5,-1,-1,-1,-1,,9999,0,0,3,FEW 30   SCT 150   BKN -9999,1,4,1,1,1020,RJOS 021200Z 29005KT 9999 FEW030 SCT150 BKN/// 04/01 Q1020 RMK     1CU030 3AC150 A3014=,
20180202_130000.000,0,RJOS,,,,0,20180202130000,-1,-1,-1,-1,280,-1,8,-1,-1,-1,-1,,9999,0,0,2,FEW 30   BKN -9999,1,3,1,1,1020,RJOS 021300Z 28008KT 9999 FEW030 BKN/// 03/01 Q1020 RMK 1CU030     A3014=,
20180202_130000.004,0,RJOS,,,,0,20180202130000,-1,-1,-1,-1,280,-1,8,-1,-1,-1,-1,,9999,0,0,2,FEW 30   BKN -9999,1,3,1,1,1020,RJOS 021300Z 28008KT 9999 FEW030 BKN/// 03/01 Q1020 RMK 1CU030     A3014=,
20180202_140000.000,0,RJOS,,,,0,20180202140000,-1,-1,-1,-1,290,-1,9,-1,-1,-1,-1,,9999,0,0,2,FEW 30   BKN -9999,1,3,1,1,1020,RJOS 021400Z 29009KT 9999 FEW030 BKN/// 03/01 Q1020 RMK 1CU030     A3013=,
20180202_140000.003,0,RJOS,,,,0,20180202140000,-1,-1,-1,-1,290,-1,9,-1,-1,-1,-1,,9999,0,0,2,FEW 30   BKN -9999,1,3,1,1,1020,RJOS 021400Z 29009KT 9999 FEW030 BKN/// 03/01 Q1020 RMK 1CU030     A3013=,
20180202_150000.000,0,RJOS,,,,0,20180202150000,-1,-1,-1,-1,300,-1,8,-1,-1,-1,-1,,9999,0,0,2,FEW 30   BKN 130,1,2,1,0,1020,RJOS 021500Z 30008KT 9999 FEW030 BKN130 02/00 Q1020 RMK 1CU030     5AC130 A3013=,
20180202_150000.003,0,RJOS,,,,0,20180202150000,-1,-1,-1,-1,300,-1,8,-1,-1,-1,-1,,9999,0,0,2,FEW 30   BKN 130,1,2,1,0,1020,RJOS 021500Z 30008KT 9999 FEW030 BKN130 02/00 Q1020 RMK 1CU030     5AC130 A3013=,
20180202_160000.000,0,RJOS,,,,0,20180202160000,-1,-1,-1,-1,290,-1,10,-1,-1,-1,-1,,9999,0,0,2,FEW 30   SCT 130,1,2,1,0,1019,RJOS 021600Z 29010KT 9999 FEW030 SCT130 02/00 Q1019 RMK 1CU030     3AC130 A3012=,
20180202_160000.003,0,RJOS,,,,0,20180202160000,-1,-1,-1,-1,290,-1,10,-1,-1,-1,-1,,9999,0,0,2,FEW 30   SCT 130,1,2,1,0,1019,RJOS 021600Z 29010KT 9999 FEW030 SCT130 02/00 Q1019 RMK 1CU030     3AC130 A3012=,
20180202_170000.000,0,RJOS,,,,0,20180202170000,-1,-1,-1,-1,290,-1,9,-1,-1,-1,-1,,9999,0,0,2,FEW 30   SCT 200,1,2,-1,0,1020,RJOS 021700Z 29009KT 9999 FEW030 SCT200 02/M00 Q1020 RMK 1CU030     A3013=,
20180202_170000.003,0,RJOS,,,,0,20180202170000,-1,-1,-1,-1,290,-1,9,-1,-1,-1,-1,,9999,0,0,2,FEW 30   SCT 200,1,2,-1,0,1020,RJOS 021700Z 29009KT 9999 FEW030 SCT200 02/M00 Q1020 RMK     1CU030 A3013=,
20180202_180000.000,0,RJOS,,,,0,20180202180000,-1,-1,-1,-1,290,-1,8,-1,-1,-1,-1,,9999,0,0,2,FEW 30   BKN 200,1,2,-1,0,1019,RJOS 021800Z 29008KT 9999 FEW030 BKN200 02/M00 Q1019 RMK 1CU030     A3011=,
20180202_180000.004,0,RJOS,,,,0,20180202180000,-1,-1,-1,-1,290,-1,8,-1,-1,-1,-1,,9999,0,0,2,FEW 30   BKN 200,1,2,-1,0,1019,RJOS 021800Z 29008KT 9999 FEW030 BKN200 02/M00 Q1019 RMK     1CU030 A3011=,
20180202_190000.000,0,RJOS,,,,0,20180202190000,-1,-1,-1,-1,300,-1,7,-1,-1,-1,-1,,9999,0,0,2,FEW 30   BKN 200,1,1,-1,1,1019,RJOS 021900Z 30007KT 9999 FEW030 BKN200 01/M01 Q1019 RMK 2CU030     A3009=,
20180202_190000.004,0,RJOS,,,,0,20180202190000,-1,-1,-1,-1,300,-1,7,-1,-1,-1,-1,,9999,0,0,2,FEW 30   BKN 200,1,1,-1,1,1019,RJOS 021900Z 30007KT 9999 FEW030 BKN200 01/M01 Q1019 RMK     2CU030 A3009=,
20180202_200000.000,0,RJOS,,,,0,20180202200000,-1,-1,-1,-1,300,-1,4,-1,-1,-1,-1,,9999,0,0,2,FEW 20   BKN 30,1,2,-1,1,1019,RJOS 022000Z 30004KT 9999 FEW020 BKN030 02/M01 Q1019 RMK 1CU020     7CU030 A3009=,
20180202_200000.004,0,RJOS,,,,0,20180202200000,-1,-1,-1,-1,300,-1,4,-1,-1,-1,-1,,9999,0,0,2,FEW 20   BKN 30,1,2,-1,1,1019,RJOS 022000Z 30004KT 9999 FEW020 BKN030 02/M01 Q1019 RMK     1CU020 7CU030 A3009=,
20180202_210000.000,0,RJOS,,,,0,20180202210000,-1,-1,-1,-1,290,-1,7,-1,-1,-1,-1,,9999,0,0,2,FEW 30   BKN 220,1,2,-1,1,1019,RJOS 022100Z 29007KT 9999 FEW030 BKN220 02/M01 Q1019 RMK 2CU030     A3009=,
20180202_210000.003,0,RJOS,,,,0,20180202210000,-1,-1,-1,-1,290,-1,7,-1,-1,-1,-1,,9999,0,0,2,FEW 30   BKN 220,1,2,-1,1,1019,RJOS 022100Z 29007KT 9999 FEW030 BKN220 02/M01 Q1019 RMK     2CU030 A3009=,
20180202_220000.000,0,RJOS,,,,0,20180202220000,-1,-1,-1,-1,999,-1,2,-1,-1,-1,-1,,9999,0,0,2,FEW 30   BKN 220,1,2,-1,1,1019,RJOS 022200Z VRB02KT 9999 FEW030 BKN220 02/M01 Q1019 RMK 1CU030     A3009=,
20180202_220000.003,0,RJOS,,,,0,20180202220000,-1,-1,-1,-1,999,-1,2,-1,-1,-1,-1,,9999,0,0,2,FEW 30   BKN 220,1,2,-1,1,1019,RJOS 022200Z VRB02KT 9999 FEW030 BKN220 02/M01 Q1019 RMK     1CU030 A3009=,
20180202_230000.000,0,RJOS,,,,0,20180202230000,-1,-1,-1,-1,290,-1,6,-1,-1,-1,-1,,9999,0,0,2,FEW 30   SCT -9999,1,4,-1,0,1019,RJOS 022300Z 29006KT 9999 FEW030 SCT/// 04/M00 Q1019 RMK 1CU030     A3011=,
20180202_230000.004,0,RJOS,,,,0,20180202230000,-1,-1,-1,-1,290,-1,6,-1,-1,-1,-1,,9999,0,0,2,FEW 30   SCT -9999,1,4,-1,0,1019,RJOS 022300Z 29006KT 9999 FEW030 SCT/// 04/M00 Q1019 RMK     1CU030 A3011=,
20180203_000000.000,0,RJOS,,,,0,20180203000000,-1,-1,-1,-1,320,-1,11,-1,-1,-1,-1,,9999,0,0,2,FEW 30   BKN -9999,1,6,-1,0,1019,RJOS 030000Z 32011KT 9999 FEW030 BKN/// 06/M00 Q1019 RMK 1CU030     A3010=,
20180203_000000.003,0,RJOS,,,,0,20180203000000,-1,-1,-1,-1,320,-1,11,-1,-1,-1,-1,,9999,0,0,2,FEW 30   BKN -9999,1,6,-1,0,1019,RJOS 030000Z 32011KT 9999 FEW030 BKN/// 06/M00 Q1019 RMK     1CU030 A3010=,
20180203_010000.000,0,RJOS,,,,0,20180203010000,-1,-1,-1,-1,320,-1,11,-1,-1,-1,-1,,9999,0,0,2,FEW 30   BKN -9999,1,7,-1,1,1019,RJOS 030100Z 32011KT 9999 FEW030 BKN/// 07/M01 Q1019 RMK 1CU030     A3011=,
20180203_010000.004,0,RJOS,,,,0,20180203010000,-1,-1,-1,-1,320,-1,11,-1,-1,-1,-1,,9999,0,0,2,FEW 30   BKN -9999,1,7,-1,1,1019,RJOS 030100Z 32011KT 9999 FEW030 BKN/// 07/M01 Q1019 RMK     1CU030 A3011=,
20180203_020000.000,0,RJOS,,,,0,20180203020000,-1,-1,-1,-1,330,-1,12,-1,-1,-1,-1,,9999,0,0,2,FEW 30   BKN -9999,1,7,-1,1,1018,RJOS 030200Z 33012KT 9999 FEW030 BKN/// 07/M01 Q1018 RMK 1CU030     A3009=,
20180203_020000.003,0,RJOS,,,,0,20180203020000,-1,-1,-1,-1,330,-1,12,-1,-1,-1,-1,,9999,0,0,2,FEW 30   BKN -9999,1,7,-1,1,1018,RJOS 030200Z 33012KT 9999 FEW030 BKN/// 07/M01 Q1018 RMK     1CU030 A3009=,
20180203_030000.000,0,RJOS,,,,0,20180203030000,-1,-1,-1,-1,350,-1,12,-1,-1,-1,-1,,9999,0,0,2,FEW 30   BKN -9999,1,8,-1,2,1018,RJOS 030300Z 35012KT 9999 FEW030 BKN/// 08/M02 Q1018 RMK 1CU030     A3006=,
20180203_030000.003,0,RJOS,,,,0,20180203030000,-1,-1,-1,-1,350,-1,12,-1,-1,-1,-1,,9999,0,0,2,FEW 30   BKN -9999,1,8,-1,2,1018,RJOS 030300Z 35012KT 9999 FEW030 BKN/// 08/M02 Q1018 RMK     1CU030 A3006=,
20180203_040000.000,0,RJOS,,,,0,20180203040000,-1,-1,-1,-1,340,-1,13,-1,-1,-1,-1,,9999,0,0,2,FEW 30   BKN -9999,1,8,-1,3,1017,RJOS 030400Z 34013KT 9999 FEW030 BKN/// 08/M03 Q1017 RMK 2CU030     A3005=,
20180203_040000.003,0,RJOS,,,,0,20180203040000,-1,-1,-1,-1,340,-1,13,-1,-1,-1,-1,,9999,0,0,2,FEW 30   BKN -9999,1,8,-1,3,1017,RJOS 030400Z 34013KT 9999 FEW030 BKN/// 08/M03 Q1017 RMK     2CU030 A3005=,
20180203_050000.000,0,RJOS,,,,0,20180203050000,-1,-1,-1,-1,340,-1,16,-1,-1,-1,-1,,9999,0,0,1,FEW 30,1,9,-1,4,1017,RJOS 030500Z 34016KT 9999 FEW030 09/M04 Q1017 RMK 2CU030 A3004=,
20180203_050000.003,0,RJOS,,,,0,20180203050000,-1,-1,-1,-1,340,-1,16,-1,-1,-1,-1,,9999,0,0,1,FEW 30,1,9,-1,4,1017,RJOS 030500Z 34016KT 9999 FEW030 09/M04 Q1017 RMK 2CU030     A3004=,
20180203_060000.000,0,RJOS,,,,0,20180203060000,-1,-1,-1,-1,330,-1,12,-1,-1,-1,-1,,9999,0,0,1,FEW 30,1,8,-1,4,1017,RJOS 030600Z 33012KT 9999 FEW030 08/M04 Q1017 RMK 1CU030 A3004=,
20180203_060000.003,0,RJOS,,,,0,20180203060000,-1,-1,-1,-1,330,-1,12,-1,-1,-1,-1,,9999,0,0,1,FEW 30,1,8,-1,4,1017,RJOS 030600Z 33012KT 9999 FEW030 08/M04 Q1017 RMK 1CU030     A3004=,
20180203_070000.000,0,RJOS,,,,0,20180203070000,-1,-1,-1,-1,310,-1,11,-1,-1,-1,-1,,9999,0,0,2,FEW 30   SCT 60,1,7,-1,2,1017,RJOS 030700Z 31011KT 9999 FEW030 SCT060 07/M02 Q1017 RMK 1CU030     4SC060 A3004=,
20180203_070000.004,0,RJOS,,,,0,20180203070000,-1,-1,-1,-1,310,-1,11,-1,-1,-1,-1,,9999,0,0,2,FEW 30   SCT 60,1,7,-1,2,1017,RJOS 030700Z 31011KT 9999 FEW030 SCT060 07/M02 Q1017 RMK     1CU030 4SC060 A3004=,
20180203_080000.000,0,RJOS,,,,0,20180203080000,-1,-1,-1,-1,340,-1,12,-1,-1,-1,-1,,9999,0,0,2,FEW 30   SCT 50,1,7,-1,1,1017,RJOS 030800Z 34012KT 9999 FEW030 SCT050 07/M01 Q1017 RMK 2CU030     4SC050 A3005=,
20180203_080000.003,0,RJOS,,,,0,20180203080000,-1,-1,-1,-1,340,-1,12,-1,-1,-1,-1,,9999,0,0,2,FEW 30   SCT 50,1,7,-1,1,1017,RJOS 030800Z 34012KT 9999 FEW030 SCT050 07/M01 Q1017 RMK     2CU030 4SC050 A3005=,
20180203_090000.000,0,RJOS,,,,0,20180203090000,-1,-1,-1,-1,300,-1,8,-1,-1,-1,-1,,9999,0,0,2,FEW 30   SCT -9999,1,6,-1,1,1017,RJOS 030900Z 30008KT 9999 FEW030 SCT/// 06/M01 Q1017 RMK 1CU030     A3004=,
20180203_090000.003,0,RJOS,,,,0,20180203090000,-1,-1,-1,-1,300,-1,8,-1,-1,-1,-1,,9999,0,0,2,FEW 30   SCT -9999,1,6,-1,1,1017,RJOS 030900Z 30008KT 9999 FEW030 SCT/// 06/M01 Q1017 RMK     1CU030 A3004=,
20180203_100000.000,0,RJOS,,,,0,20180203100000,-1,-1,-1,-1,290,-1,11,-1,-1,-1,-1,,9999,0,0,2,FEW 30   SCT 70,1,5,-1,1,1017,RJOS 031000Z 29011KT 9999 FEW030 SCT070 05/M01 Q1017 RMK 1CU030     4AC070 A3005=,
20180203_100000.003,0,RJOS,,,,0,20180203100000,-1,-1,-1,-1,290,-1,11,-1,-1,-1,-1,,9999,0,0,2,FEW 30   SCT 70,1,5,-1,1,1017,RJOS 031000Z 29011KT 9999 FEW030 SCT070 05/M01 Q1017 RMK     1CU030 4AC070 A3005=,
20180203_110000.000,0,RJOS,,,,0,20180203110000,-1,-1,-1,-1,290,-1,10,-1,-1,-1,-1,,9999,0,0,2,FEW 30   SCT 70,1,4,-1,1,1017,RJOS 031100Z 29010KT 9999 FEW030 SCT070 04/M01 Q1017 RMK 1CU030     3AC070 A3006=,
20180203_110000.003,0,RJOS,,,,0,20180203110000,-1,-1,-1,-1,290,-1,10,-1,-1,-1,-1,,9999,0,0,2,FEW 30   SCT 70,1,4,-1,1,1017,RJOS 031100Z 29010KT 9999 FEW030 SCT070 04/M01 Q1017 RMK     1CU030 3AC070 A3006=,
20180203_120000.000,0,RJOS,,,,0,20180203120000,-1,-1,-1,-1,300,-1,6,-1,-1,-1,-1,,9999,0,0,2,FEW 20   SCT 40,1,4,-1,1,1017,RJOS 031200Z 30006KT 9999 FEW020 SCT040 04/M01 Q1017 RMK 1CU020     3CU040 A3005=,
20180203_120000.003,0,RJOS,,,,0,20180203120000,-1,-1,-1,-1,300,-1,6,-1,-1,-1,-1,,9999,0,0,2,FEW 20   SCT 40,1,4,-1,1,1017,RJOS 031200Z 30006KT 9999 FEW020 SCT040 04/M01 Q1017 RMK     1CU020 3CU040 A3005=,
20180203_130000.000,0,RJOS,,,,0,20180203130000,-1,-1,-1,-1,280,-1,9,-1,-1,-1,-1,,9999,0,0,2,FEW 20   BKN 50,1,4,-1,1,1018,RJOS 031300Z 28009KT 9999 FEW020 BKN050 04/M01 Q1018 RMK 1CU020     5SC050 A3006=,
20180203_130000.003,0,RJOS,,,,0,20180203130000,-1,-1,-1,-1,280,-1,9,-1,-1,-1,-1,,9999,0,0,2,FEW 20   BKN 50,1,4,-1,1,1018,RJOS 031300Z 28009KT 9999 FEW020 BKN050 04/M01 Q1018 RMK     1CU020 5SC050 A3006=,
20180203_140000.000,0,RJOS,,,,0,20180203140000,-1,-1,-1,-1,300,-1,7,-1,-1,-1,-1,,9999,0,0,2,FEW 30   SCT 50,1,3,-1,1,1018,RJOS 031400Z 30007KT 9999 FEW030 SCT050 03/M01 Q1018 RMK 1CU030     3SC050 A3007=,
20180203_140000.003,0,RJOS,,,,0,20180203140000,-1,-1,-1,-1,300,-1,7,-1,-1,-1,-1,,9999,0,0,2,FEW 30   SCT 50,1,3,-1,1,1018,RJOS 031400Z 30007KT 9999 FEW030 SCT050 03/M01 Q1018 RMK     1CU030 3SC050 A3007=,
20180203_150000.000,0,RJOS,,,,0,20180203150000,-1,-1,-1,-1,290,-1,7,-1,-1,-1,-1,,9999,0,0,2,FEW 20   BKN 50,1,3,-1,1,1018,RJOS 031500Z 29007KT 9999 FEW020 BKN050 03/M01 Q1018 RMK 1CU020     5SC050 A3007=,
20180203_150000.003,0,RJOS,,,,0,20180203150000,-1,-1,-1,-1,290,-1,7,-1,-1,-1,-1,,9999,0,0,2,FEW 20   BKN 50,1,3,-1,1,1018,RJOS 031500Z 29007KT 9999 FEW020 BKN050 03/M01 Q1018 RMK     1CU020 5SC050 A3007=,
20180203_160000.000,0,RJOS,,,,0,20180203160000,-1,-1,-1,-1,310,-1,8,-1,-1,-1,-1,,9999,0,0,2,FEW 35   BKN 50,1,4,-1,3,1018,RJOS 031600Z 31008KT 9999 FEW035 BKN050 04/M03 Q1018 RMK 2CU035     6SC050 A3006=,
20180203_160000.003,0,RJOS,,,,0,20180203160000,-1,-1,-1,-1,310,-1,8,-1,-1,-1,-1,,9999,0,0,2,FEW 35   BKN 50,1,4,-1,3,1018,RJOS 031600Z 31008KT 9999 FEW035 BKN050 04/M03 Q1018 RMK     2CU035 6SC050 A3006=,
20180203_170000.000,0,RJOS,,,,0,20180203170000,-1,-1,-1,-1,310,-1,10,-1,-1,-1,-1,,9999,0,0,2,FEW 35   BKN 50,1,3,-1,7,1017,RJOS 031700Z 31010KT 9999 FEW035 BKN050 03/M07 Q1017 RMK 1CU035     6SC050 A3006=,
20180203_170000.003,0,RJOS,,,,0,20180203170000,-1,-1,-1,-1,310,-1,10,-1,-1,-1,-1,,9999,0,0,2,FEW 35   BKN 50,1,3,-1,7,1017,RJOS 031700Z 31010KT 9999 FEW035 BKN050 03/M07 Q1017 RMK     1CU035 6SC050 A3006=,
20180203_180000.000,0,RJOS,,,,0,20180203180000,-1,-1,-1,-1,330,-1,13,-1,-1,-1,-1,,9999,0,0,2,FEW 30   BKN 230,1,3,-1,6,1017,RJOS 031800Z 33013KT 9999 FEW030 BKN230 03/M06 Q1017 RMK 1CU030     A3005=,
20180203_180000.004,0,RJOS,,,,0,20180203180000,-1,-1,-1,-1,330,-1,13,-1,-1,-1,-1,,9999,0,0,2,FEW 30   BKN 230,1,3,-1,6,1017,RJOS 031800Z 33013KT 9999 FEW030 BKN230 03/M06 Q1017 RMK     1CU030 A3005=,
20180203_190000.000,0,RJOS,,,,0,20180203190000,-1,-1,-1,-1,320,-1,8,-1,-1,-1,-1,,9999,0,0,2,FEW 30   BKN 230,1,2,-1,7,1017,RJOS 031900Z 32008KT 9999 FEW030 BKN230 02/M07 Q1017 RMK 1CU030     A3004=,
20180203_190000.003,0,RJOS,,,,0,20180203190000,-1,-1,-1,-1,320,-1,8,-1,-1,-1,-1,,9999,0,0,2,FEW 30   BKN 230,1,2,-1,7,1017,RJOS 031900Z 32008KT 9999 FEW030 BKN230 02/M07 Q1017 RMK     1CU030 A3004=,
20180203_200000.000,0,RJOS,,,,0,20180203200000,-1,-1,-1,-1,320,-1,6,-1,-1,-1,-1,,9999,0,0,3,FEW 30   SCT 50   BKN 230,1,2,-1,7,1017,RJOS 032000Z 32006KT 9999 FEW030 SCT050 BKN230 02/M07 Q1017 RMK     1CU030 3SC050 A3005=,
20180203_200000.003,0,RJOS,,,,0,20180203200000,-1,-1,-1,-1,320,-1,6,-1,-1,-1,-1,,9999,0,0,3,FEW 30   SCT 50   BKN 230,1,2,-1,7,1017,RJOS 032000Z 32006KT 9999 FEW030 SCT050 BKN230 02/M07 Q1017     RMK 1CU030 3SC050 A3005=,
20180203_210000.000,0,RJOS,,,,0,20180203210000,-1,-1,-1,-1,290,-1,5,-1,-1,-1,-1,,9999,0,0,2,FEW 30   SCT 50,1,1,-1,6,1017,RJOS 032100Z 29005KT 9999 FEW030 SCT050 01/M06 Q1017 RMK 1CU030     3SC050 A3006=,
20180203_210000.003,0,RJOS,,,,0,20180203210000,-1,-1,-1,-1,290,-1,5,-1,-1,-1,-1,,9999,0,0,2,FEW 30   SCT 50,1,1,-1,6,1017,RJOS 032100Z 29005KT 9999 FEW030 SCT050 01/M06 Q1017 RMK     1CU030 3SC050 A3006=,
20180203_220000.000,0,RJOS,,,,0,20180203220000,-1,-1,-1,-1,280,-1,4,-1,-1,-1,-1,,9999,0,0,2,FEW 30   SCT 50,1,1,-1,3,1017,RJOS 032200Z 28004KT 9999 FEW030 SCT050 01/M03 Q1017 RMK 1CU030     4SC050 A3006=,
20180203_220000.003,0,RJOS,,,,0,20180203220000,-1,-1,-1,-1,280,-1,4,-1,-1,-1,-1,,9999,0,0,2,FEW 30   SCT 50,1,1,-1,3,1017,RJOS 032200Z 28004KT 9999 FEW030 SCT050 01/M03 Q1017 RMK     1CU030 4SC050 A3006=,
20180203_230000.000,0,RJOS,,,,0,20180203230000,-1,-1,-1,-1,290,-1,6,-1,-1,-1,-1,,9999,0,1,2,FEW 20   BKN 30,1,1,-1,3,1018,RJOS 032300Z 29006KT 9999 -SHSN FEW020 BKN030 01/M03 Q1018 RMK     1CU020 7CU030 A3007=,- SN SH
20180203_230000.003,0,RJOS,,,,0,20180203230000,-1,-1,-1,-1,290,-1,6,-1,-1,-1,-1,,9999,0,1,2,FEW 20   BKN 30,1,1,-1,3,1018,RJOS 032300Z 29006KT 9999 -SHSN FEW020 BKN030 01/M03 Q1018 RMK     1CU020 7CU030 A3007=,- SN SH
20180204_000000.000,0,RJOS,,,,0,20180204000000,-1,-1,-1,-1,300,-1,2,-1,-1,-1,-1,,1900,1,1,3,FEW 5   BKN 15   BKN 25,-1,0,-1,2,1018,RJOS 040000Z 30002KT 1900 R29/0700VP1800D -SHSN FEW005 BKN015     BKN025 M00/M02 Q1018 RMK 2ST005 5CU015 7CU025 A3008 R1500=,- SN SH
20180204_000000.003,0,RJOS,,,,0,20180204000000,-1,-1,-1,-1,300,-1,2,-1,-1,-1,-1,,1900,1,1,3,FEW 5   BKN 15   BKN 25,-1,0,-1,2,1018,RJOS 040000Z 30002KT 1900 R29/0700VP1800D -SHSN FEW005 BKN015     BKN025 M00/M02 Q1018 RMK 2ST005 5CU015 7CU025 A3008           R1500=,- SN SH
20180204_010000.000,0,RJOS,,,,0,20180204010000,-1,-1,-1,-1,300,-1,3,-1,-1,280,340,,4500,0,1,3,FEW 5   SCT 15   BKN 25,1,0,-1,2,1018,RJOS 040100Z 30003KT 280V340 4500 -SHSN FEW005 SCT015 BKN025     00/M02 Q1018 RMK 1ST005 4CU015 7CU025 A3008=,- SN SH
20180204_010000.003,0,RJOS,,,,0,20180204010000,-1,-1,-1,-1,300,-1,3,-1,-1,280,340,,4500,0,1,3,FEW 5   SCT 15   BKN 25,1,0,-1,2,1018,RJOS 040100Z 30003KT 280V340 4500 -SHSN FEW005 SCT015 BKN025     00/M02 Q1018 RMK 1ST005 4CU015 7CU025 A3008=,- SN SH
20180204_020000.000,0,RJOS,,,,0,20180204020000,-1,-1,-1,-1,320,-1,15,-1,-1,-1,-1,,9999,0,1,2,FEW 15   BKN 25,1,0,-1,4,1018,RJOS 040200Z 32015KT 9999 -SHSN FEW015 BKN025 00/M04 Q1018 RMK     1CU015 6CU025 A3009=,- SN SH
20180204_020000.003,0,RJOS,,,,0,20180204020000,-1,-1,-1,-1,320,-1,15,-1,-1,-1,-1,,9999,0,1,2,FEW 15   BKN 25,1,0,-1,4,1018,RJOS 040200Z 32015KT 9999 -SHSN FEW015 BKN025 00/M04 Q1018 RMK     1CU015 6CU025 A3009=,- SN SH
20180204_030000.000,0,RJOS,,,,0,20180204030000,-1,-1,-1,-1,310,-1,17,-1,-1,-1,-1,,9999,0,0,3,FEW 15   SCT 25   BKN 50,1,2,-1,5,1017,RJOS 040300Z 31017KT 9999 FEW015 SCT025 BKN050 02/M05 Q1017 RMK     1CU015 3CU025 5SC050 A3006=,
20180204_030000.003,0,RJOS,,,,0,20180204030000,-1,-1,-1,-1,310,-1,17,-1,-1,-1,-1,,9999,0,0,3,FEW 15   SCT 25   BKN 50,1,2,-1,5,1017,RJOS 040300Z 31017KT 9999 FEW015 SCT025 BKN050 02/M05 Q1017     RMK 1CU015 3CU025 5SC050 A3006=,
20180204_040000.000,0,RJOS,,,,0,20180204040000,-1,-1,-1,-1,280,-1,15,-1,-1,250,310,,9999,0,1,2,FEW 15   SCT 25,1,2,-1,5,1017,RJOS 040400Z 28015KT 250V310 9999 -SHSN FEW015 SCT025 02/M05     Q1017 RMK 1CU015 4CU025 A3004=,- SN SH
20180204_040000.003,0,RJOS,,,,0,20180204040000,-1,-1,-1,-1,280,-1,15,-1,-1,250,310,,9999,0,1,2,FEW 15   SCT 25,1,2,-1,5,1017,RJOS 040400Z 28015KT 250V310 9999 -SHSN FEW015 SCT025 02/M05     Q1017 RMK 1CU015 4CU025 A3004=,- SN SH
20180204_050000.000,0,RJOS,,,,0,20180204050000,-1,-1,-1,-1,300,-1,14,-1,-1,-1,-1,,9999,0,0,2,FEW 25   BKN 40,1,4,-1,8,1016,RJOS 040500Z 30014KT 9999 FEW025 BKN040 04/M08 Q1016 RMK 1CU025     5CU040 A3002=,
20180204_050000.003,0,RJOS,,,,0,20180204050000,-1,-1,-1,-1,300,-1,14,-1,-1,-1,-1,,9999,0,0,2,FEW 25   BKN 40,1,4,-1,8,1016,RJOS 040500Z 30014KT 9999 FEW025 BKN040 04/M08 Q1016 RMK     1CU025 5CU040 A3002=,
20180204_060000.000,0,RJOS,,,,0,20180204060000,-1,-1,-1,-1,300,-1,17,-1,27,-1,-1,,9999,0,0,2,FEW 25   SCT 40,1,4,-1,9,1016,RJOS 040600Z 30017G27KT 9999 FEW025 SCT040 04/M09 Q1016 RMK     1CU025 4CU040 A3002=,
20180204_060000.003,0,RJOS,,,,0,20180204060000,-1,-1,-1,-1,300,-1,17,-1,27,-1,-1,,9999,0,0,2,FEW 25   SCT 40,1,4,-1,9,1016,RJOS 040600Z 30017G27KT 9999 FEW025 SCT040 04/M09 Q1016 RMK     1CU025 4CU040 A3002=,
20180204_070000.000,0,RJOS,,,,0,20180204070000,-1,-1,-1,-1,320,-1,15,-1,-1,-1,-1,,9999,0,0,2,FEW 25   SCT 40,1,3,-1,9,1017,RJOS 040700Z 32015KT 9999 FEW025 SCT040 03/M09 Q1017 RMK 1CU025     3CU040 A3004=,
20180204_070000.003,0,RJOS,,,,0,20180204070000,-1,-1,-1,-1,320,-1,15,-1,-1,-1,-1,,9999,0,0,2,FEW 25   SCT 40,1,3,-1,9,1017,RJOS 040700Z 32015KT 9999 FEW025 SCT040 03/M09 Q1017 RMK     1CU025 3CU040 A3004=,
20180204_080000.000,0,RJOS,,,,0,20180204080000,-1,-1,-1,-1,290,-1,17,-1,-1,-1,-1,,9999,0,0,1,FEW 40,1,3,-1,9,1016,RJOS 040800Z 29017KT 9999 FEW040 03/M09 Q1016 RMK 2CU040 A3003=,
20180204_080000.003,0,RJOS,,,,0,20180204080000,-1,-1,-1,-1,290,-1,17,-1,-1,-1,-1,,9999,0,0,1,FEW 40,1,3,-1,9,1016,RJOS 040800Z 29017KT 9999 FEW040 03/M09 Q1016 RMK 2CU040     A3003=,
20180204_090000.000,0,RJOS,,,,0,20180204090000,-1,-1,-1,-1,300,-1,13,-1,-1,-1,-1,,9999,0,0,1,FEW 40,1,2,-1,8,1017,RJOS 040900Z 30013KT 9999 FEW040 02/M08 Q1017 RMK 1CU040 A3004=,
20180204_090000.003,0,RJOS,,,,0,20180204090000,-1,-1,-1,-1,300,-1,13,-1,-1,-1,-1,,9999,0,0,1,FEW 40,1,2,-1,8,1017,RJOS 040900Z 30013KT 9999 FEW040 02/M08 Q1017 RMK 1CU040     A3004=,
20180204_100000.000,0,RJOS,,,,0,20180204100000,-1,-1,-1,-1,280,-1,8,-1,-1,250,330,,9999,0,0,1,FEW 40,1,2,-1,8,1018,RJOS 041000Z 28008KT 250V330 9999 FEW040 02/M08 Q1018 RMK     1CU040 A3007=,
20180204_100000.003,0,RJOS,,,,0,20180204100000,-1,-1,-1,-1,280,-1,8,-1,-1,250,330,,9999,0,0,1,FEW 40,1,2,-1,8,1018,RJOS 041000Z 28008KT 250V330 9999 FEW040 02/M08 Q1018 RMK     1CU040 A3007=,
20180204_110000.000,0,RJOS,,,,0,20180204110000,-1,-1,-1,-1,270,-1,6,-1,-1,220,300,,9999,0,0,1,FEW 40,1,1,-1,7,1018,RJOS 041100Z 27006KT 220V300 9999 FEW040 01/M07 Q1018 RMK     1CU040 A3007=,
20180204_110000.004,0,RJOS,,,,0,20180204110000,-1,-1,-1,-1,270,-1,6,-1,-1,220,300,,9999,0,0,1,FEW 40,1,1,-1,7,1018,RJOS 041100Z 27006KT 220V300 9999 FEW040 01/M07 Q1018 RMK     1CU040 A3007=,
20180204_120000.000,0,RJOS,,,,0,20180204120000,-1,-1,-1,-1,280,-1,12,-1,-1,-1,-1,,9999,0,0,1,FEW 30,1,1,-1,6,1019,RJOS 041200Z 28012KT 9999 FEW030 01/M06 Q1019 RMK 1CU030 A3009=,
20180204_120000.003,0,RJOS,,,,0,20180204120000,-1,-1,-1,-1,280,-1,12,-1,-1,-1,-1,,9999,0,0,1,FEW 30,1,1,-1,6,1019,RJOS 041200Z 28012KT 9999 FEW030 01/M06 Q1019 RMK 1CU030     A3009=,
20180204_130000.000,0,RJOS,,,,0,20180204130000,-1,-1,-1,-1,280,-1,16,-1,-1,-1,-1,,9999,0,0,1,FEW 30,1,0,-1,6,1019,RJOS 041300Z 28016KT 9999 FEW030 00/M06 Q1019 RMK 1CU030 A3009=,
20180204_130000.003,0,RJOS,,,,0,20180204130000,-1,-1,-1,-1,280,-1,16,-1,-1,-1,-1,,9999,0,0,1,FEW 30,1,0,-1,6,1019,RJOS 041300Z 28016KT 9999 FEW030 00/M06 Q1019 RMK 1CU030     A3009=,
20180204_140000.000,0,RJOS,,,,0,20180204140000,-1,-1,-1,-1,290,-1,16,-1,-1,-1,-1,,9999,0,0,1,FEW 30,-1,0,-1,7,1019,RJOS 041400Z 29016KT 9999 FEW030 M00/M07 Q1019 RMK 1CU030     A3009=,
20180204_140000.003,0,RJOS,,,,0,20180204140000,-1,-1,-1,-1,290,-1,16,-1,-1,-1,-1,,9999,0,0,1,FEW 30,-1,0,-1,7,1019,RJOS 041400Z 29016KT 9999 FEW030 M00/M07 Q1019 RMK 1CU030     A3009=,
20180204_150000.000,0,RJOS,,,,0,20180204150000,-1,-1,-1,-1,280,-1,17,-1,-1,-1,-1,,9999,0,0,1,FEW 30,-1,0,-1,7,1019,RJOS 041500Z 28017KT 9999 FEW030 M00/M07 Q1019 RMK 1CU030     A3009=,
20180204_150000.003,0,RJOS,,,,0,20180204150000,-1,-1,-1,-1,280,-1,17,-1,-1,-1,-1,,9999,0,0,1,FEW 30,-1,0,-1,7,1019,RJOS 041500Z 28017KT 9999 FEW030 M00/M07 Q1019 RMK 1CU030     A3009=,
20180204_160000.000,0,RJOS,,,,0,20180204160000,-1,-1,-1,-1,290,-1,17,-1,27,-1,-1,,9999,0,0,1,FEW 30,-1,0,-1,7,1018,RJOS 041600Z 29017G27KT 9999 FEW030 M00/M07 Q1018 RMK 1CU030     A3007=,
20180204_160000.003,0,RJOS,,,,0,20180204160000,-1,-1,-1,-1,290,-1,17,-1,27,-1,-1,,9999,0,0,1,FEW 30,-1,0,-1,7,1018,RJOS 041600Z 29017G27KT 9999 FEW030 M00/M07 Q1018 RMK 1CU030     A3007=,
20180204_170000.000,0,RJOS,,,,0,20180204170000,-1,-1,-1,-1,280,-1,14,-1,-1,-1,-1,,9999,0,0,1,FEW 30,-1,1,-1,7,1018,RJOS 041700Z 28014KT 9999 FEW030 M01/M07 Q1018 RMK 1CU030     A3007=,
20180204_170000.003,0,RJOS,,,,0,20180204170000,-1,-1,-1,-1,280,-1,14,-1,-1,-1,-1,,9999,0,0,1,FEW 30,-1,1,-1,7,1018,RJOS 041700Z 28014KT 9999 FEW030 M01/M07 Q1018 RMK 1CU030     A3007=,
20180204_180000.000,0,RJOS,,,,0,20180204180000,-1,-1,-1,-1,290,-1,15,-1,25,-1,-1,,9999,0,0,1,FEW 30,-1,1,-1,7,1018,RJOS 041800Z 29015G25KT 9999 FEW030 M01/M07 Q1018 RMK 1CU030     A3007=,
20180204_180000.004,0,RJOS,,,,0,20180204180000,-1,-1,-1,-1,290,-1,15,-1,25,-1,-1,,9999,0,0,1,FEW 30,-1,1,-1,7,1018,RJOS 041800Z 29015G25KT 9999 FEW030 M01/M07 Q1018 RMK 1CU030     A3007=,
20180204_190000.000,0,RJOS,,,,0,20180204190000,-1,-1,-1,-1,300,-1,16,-1,-1,-1,-1,,9999,0,0,2,FEW 30   SCT -9999,-1,1,-1,5,1017,RJOS 041900Z 30016KT 9999 FEW030 SCT/// M01/M05 Q1017 RMK     1CU030 A3006=,
20180204_190000.003,0,RJOS,,,,0,20180204190000,-1,-1,-1,-1,300,-1,16,-1,-1,-1,-1,,9999,0,0,2,FEW 30   SCT -9999,-1,1,-1,5,1017,RJOS 041900Z 30016KT 9999 FEW030 SCT/// M01/M05 Q1017 RMK     1CU030 A3006=,
20180204_200000.000,0,RJOS,,,,0,20180204200000,-1,-1,-1,-1,290,-1,12,-1,-1,-1,-1,,9999,0,0,2,FEW 30   SCT -9999,-1,1,-1,6,1018,RJOS 042000Z 29012KT 9999 FEW030 SCT/// M01/M06 Q1018 RMK     1CU030 A3006=,
20180204_200000.003,0,RJOS,,,,0,20180204200000,-1,-1,-1,-1,290,-1,12,-1,-1,-1,-1,,9999,0,0,2,FEW 30   SCT -9999,-1,1,-1,6,1018,RJOS 042000Z 29012KT 9999 FEW030 SCT/// M01/M06 Q1018 RMK     1CU030 A3006=,
20180204_210000.000,0,RJOS,,,,0,20180204210000,-1,-1,-1,-1,290,-1,16,-1,-1,-1,-1,,9999,0,0,2,FEW 30   SCT -9999,-1,1,-1,7,1018,RJOS 042100Z 29016KT 9999 FEW030 SCT/// M01/M07 Q1018 RMK     1CU030 A3007 S002 SD/// FS000=,
20180204_210000.003,0,RJOS,,,,0,20180204210000,-1,-1,-1,-1,290,-1,16,-1,-1,-1,-1,,9999,0,0,2,FEW 30   SCT -9999,-1,1,-1,7,1018,RJOS 042100Z 29016KT 9999 FEW030 SCT/// M01/M07 Q1018 RMK     1CU030 A3007 S002 SD/// FS000=,
20180204_220000.000,0,RJOS,,,,0,20180204220000,-1,-1,-1,-1,290,-1,8,-1,-1,-1,-1,,9999,0,0,2,FEW 30   SCT 60,-1,1,-1,6,1018,RJOS 042200Z 29008KT 9999 FEW030 SCT060 M01/M06 Q1018 RMK     1CU030 3SC060 A3009=,
20180204_220000.003,0,RJOS,,,,0,20180204220000,-1,-1,-1,-1,290,-1,8,-1,-1,-1,-1,,9999,0,0,2,FEW 30   SCT 60,-1,1,-1,6,1018,RJOS 042200Z 29008KT 9999 FEW030 SCT060 M01/M06 Q1018 RMK     1CU030 3SC060 A3009=,
20180204_230000.000,0,RJOS,,,,0,20180204230000,-1,-1,-1,-1,260,-1,3,-1,-1,220,290,,9999,0,0,2,FEW 30   BKN -9999,-1,0,-1,6,1018,RJOS 042300Z 26003KT 220V290 9999 FEW030 BKN/// M00/M06 Q1018     RMK 1CU030 A3009=,
20180204_230000.003,0,RJOS,,,,0,20180204230000,-1,-1,-1,-1,260,-1,3,-1,-1,220,290,,9999,0,0,2,FEW 30   BKN -9999,-1,0,-1,6,1018,RJOS 042300Z 26003KT 220V290 9999 FEW030 BKN/// M00/M06 Q1018     RMK 1CU030 A3009=,
20180205_000000.000,0,RJOS,,,,0,20180205000000,-1,-1,-1,-1,270,-1,8,-1,-1,240,310,,9999,0,0,2,FEW 30   BKN -9999,1,1,-1,6,1018,RJOS 050000Z 27008KT 240V310 9999 FEW030 BKN/// 01/M06 Q1018     RMK 1CU030 A3008=,
20180205_000000.004,0,RJOS,,,,0,20180205000000,-1,-1,-1,-1,270,-1,8,-1,-1,240,310,,9999,0,0,2,FEW 30   BKN -9999,1,1,-1,6,1018,RJOS 050000Z 27008KT 240V310 9999 FEW030 BKN/// 01/M06 Q1018     RMK 1CU030 A3008=,
20180205_010000.000,0,RJOS,,,,0,20180205010000,-1,-1,-1,-1,280,-1,16,-1,-1,-1,-1,,9999,0,0,2,FEW 30   BKN -9999,1,2,-1,5,1018,RJOS 050100Z 28016KT 9999 FEW030 BKN/// 02/M05 Q1018 RMK 2CU030     A3008 PEAK GUST 21KT=,
20180205_010000.003,0,RJOS,,,,0,20180205010000,-1,-1,-1,-1,280,-1,16,-1,-1,-1,-1,,9999,0,0,2,FEW 30   BKN -9999,1,2,-1,5,1018,RJOS 050100Z 28016KT 9999 FEW030 BKN/// 02/M05 Q1018 RMK     2CU030 A3008 PEAK GUST 21KT=,
20180205_020000.000,0,RJOS,,,,0,20180205020000,-1,-1,-1,-1,260,-1,13,-1,-1,-1,-1,,9999,0,0,1,SCT 30,1,2,-1,5,1018,RJOS 050200Z 26013KT 9999 SCT030 02/M05 Q1018 RMK 3CU030 A3008=,
20180205_020000.003,0,RJOS,,,,0,20180205020000,-1,-1,-1,-1,260,-1,13,-1,-1,-1,-1,,9999,0,0,1,SCT 30,1,2,-1,5,1018,RJOS 050200Z 26013KT 9999 SCT030 02/M05 Q1018 RMK 3CU030     A3008=,
