20180101_000000.002,0,RJOT,,,,0,20180101000000,-1,-1,-1,-1,290,-1,10,-1,-1,-1,-1,,9999,0,0,1,FEW 30,1,5,-1,2,1021,RJOT 010000Z 29010KT 9999 FEW030 05/M02 Q1021 RMK 2CU030     A3017=,
20180101_010000.002,0,RJOT,,,,0,20180101010000,-1,-1,-1,-1,290,-1,13,-1,-1,-1,-1,,9999,0,0,1,FEW 30,1,6,-1,3,1021,RJOT 010100Z 29013KT 9999 FEW030 06/M03 Q1021 RMK 1CU030     A3017=,
20180101_020000.002,0,RJOT,,,,0,20180101020000,-1,-1,-1,-1,300,-1,11,-1,-1,-1,-1,,9999,0,0,2,FEW 30   SCT 50,1,6,-1,2,1021,RJOT 010200Z 30011KT 9999 FEW030 SCT050 06/M02 Q1021 RMK     1CU030 3SC050 A3016=,
20180101_030000.002,0,RJOT,,,,0,20180101030000,-1,-1,-1,-1,280,-1,12,-1,-1,-1,-1,,9999,0,0,2,FEW 30   SCT 50,1,6,-1,3,1020,RJOT 010300Z 28012KT 9999 FEW030 SCT050 06/M03 Q1020 RMK     1CU030 3SC050 A3014=,
20180101_040000.002,0,RJOT,,,,0,20180101040000,-1,-1,-1,-1,270,-1,13,-1,-1,250,310,,9999,0,0,2,FEW 30   BKN 50,1,7,-1,3,1020,RJOT 010400Z 27013KT 250V310 9999 FEW030 BKN050 07/M03 Q1020     RMK 1CU030 5SC050 A3013=,
20180101_050000.002,0,RJOT,,,,0,20180101050000,-1,-1,-1,-1,280,-1,12,-1,-1,-1,-1,,9999,0,0,2,FEW 30   BKN 50,1,6,-1,3,1020,RJOT 010500Z 28012KT 9999 FEW030 BKN050 06/M03 Q1020 RMK     1CU030 5SC050 A3012=,
20180101_060000.002,0,RJOT,,,,0,20180101060000,-1,-1,-1,-1,290,-1,12,-1,-1,-1,-1,,9999,0,0,1,FEW 30,1,7,-1,3,1020,RJOT 010600Z 29012KT 9999 FEW030 07/M03 Q1020 RMK 1CU030     A3013=,
20180101_070000.002,0,RJOT,,,,0,20180101070000,-1,-1,-1,-1,280,-1,15,-1,-1,-1,-1,,9999,0,0,1,FEW 30,1,6,-1,3,1020,RJOT 010700Z 28015KT 9999 FEW030 06/M03 Q1020 RMK 1CU030     A3013=,
20180101_080000.002,0,RJOT,,,,0,20180101080000,-1,-1,-1,-1,290,-1,9,-1,-1,-1,-1,,9999,0,0,2,FEW 30   SCT 60,1,5,-1,2,1021,RJOT 010800Z 29009KT 9999 FEW030 SCT060 05/M02 Q1021 RMK     1CU030 4SC060 A3015=,
20180101_090000.002,0,RJOT,,,,0,20180101090000,-1,-1,-1,-1,280,-1,8,-1,-1,-1,-1,,9999,0,0,2,FEW 30   SCT 60,1,4,-1,2,1021,RJOT 010900Z 28008KT 9999 FEW030 SCT060 04/M02 Q1021 RMK     1CU030 3SC060 A3017=,
20180101_100000.002,0,RJOT,,,,0,20180101100000,-1,-1,-1,-1,310,-1,8,-1,-1,-1,-1,,9999,0,0,1,FEW 30,1,4,-1,1,1022,RJOT 011000Z 31008KT 9999 FEW030 04/M01 Q1022 RMK 1CU030     A3019=,
20180101_110000.002,0,RJOT,,,,0,20180101110000,-1,-1,-1,-1,260,-1,5,-1,-1,-1,-1,,9999,0,0,2,FEW 30   BKN 60,1,3,-1,1,1022,RJOT 011100Z 26005KT 9999 FEW030 BKN060 03/M01 Q1022 RMK     1CU030 5SC060 A3020=,
20180101_120000.002,0,RJOT,,,,0,20180101120000,-1,-1,-1,-1,270,-1,6,-1,-1,-1,-1,,9999,0,0,2,FEW 30   BKN 60,1,3,-1,0,1023,RJOT 011200Z 27006KT 9999 FEW030 BKN060 03/M00 Q1023 RMK     1CU030 6SC060 A3021=,
20180101_220000.002,0,RJOT,,,,0,20180101220000,-1,-1,-1,-1,240,-1,8,-1,-1,-1,-1,,9999,0,0,1,FEW 25,1,2,-1,2,1024,RJOT 012200Z 24008KT 9999 FEW025 02/M02 Q1024 RMK 1CU025     A3025=,
20180101_230000.002,0,RJOT,,,,0,20180101230000,-1,-1,-1,-1,230,-1,9,-1,-1,-1,-1,,9999,0,0,2,FEW 25   SCT 50,1,2,-1,2,1024,RJOT 012300Z 23009KT 9999 FEW025 SCT050 02/M02 Q1024 RMK     1CU025 3SC050 A3026=,
20180102_000000.003,0,RJOT,,,,0,20180102000000,-1,-1,-1,-1,250,-1,9,-1,-1,-1,-1,,9999,0,0,2,FEW 25   SCT 50,1,5,-1,1,1024,RJOT 020000Z 25009KT 9999 FEW025 SCT050 05/M01 Q1024 RMK     1CU025 3SC050 A3026=,
20180102_010000.003,0,RJOT,,,,0,20180102010000,-1,-1,-1,-1,280,-1,13,-1,-1,-1,-1,,9999,0,0,1,FEW 25,1,7,-1,1,1024,RJOT 020100Z 28013KT 9999 FEW025 07/M01 Q1024 RMK 1CU025     A3026=,
20180102_020000.002,0,RJOT,,,,0,20180102020000,-1,-1,-1,-1,280,-1,16,-1,-1,-1,-1,,9999,0,0,1,FEW 30,1,7,-1,3,1024,RJOT 020200Z 28016KT 9999 FEW030 07/M03 Q1024 RMK 1CU030     A3024=,
20180102_030000.002,0,RJOT,,,,0,20180102030000,-1,-1,-1,-1,290,-1,15,-1,-1,-1,-1,,9999,0,0,1,FEW 30,1,8,-1,3,1022,RJOT 020300Z 29015KT 9999 FEW030 08/M03 Q1022 RMK 1CU030     A3020=,
20180102_040000.002,0,RJOT,,,,0,20180102040000,-1,-1,-1,-1,270,-1,14,-1,-1,-1,-1,,9999,0,0,1,FEW 30,1,9,-1,1,1021,RJOT 020400Z 27014KT 9999 FEW030 09/M01 Q1021 RMK 1CU030     A3017=,
20180102_050000.002,0,RJOT,,,,0,20180102050000,-1,-1,-1,-1,290,-1,14,-1,-1,-1,-1,,9999,0,0,1,FEW 30,1,8,-1,2,1021,RJOT 020500Z 29014KT 9999 FEW030 08/M02 Q1021 RMK 1CU030     A3017=,
20180102_060000.002,0,RJOT,,,,0,20180102060000,-1,-1,-1,-1,260,-1,12,-1,-1,-1,-1,,9999,0,0,1,FEW 30,1,8,-1,1,1021,RJOT 020600Z 26012KT 9999 FEW030 08/M01 Q1021 RMK 1CU030     A3017=,
20180102_070000.002,0,RJOT,,,,0,20180102070000,-1,-1,-1,-1,260,-1,11,-1,-1,-1,-1,,9999,0,0,1,FEW 30,1,7,-1,1,1021,RJOT 020700Z 26011KT 9999 FEW030 07/M01 Q1021 RMK 1CU030     A3016=,
20180102_080000.002,0,RJOT,,,,0,20180102080000,-1,-1,-1,-1,250,-1,11,-1,-1,-1,-1,,9999,0,0,1,FEW 30,1,7,-1,1,1021,RJOT 020800Z 25011KT 9999 FEW030 07/M01 Q1021 RMK 1CU030     A3016=,
20180102_090000.002,0,RJOT,,,,0,20180102090000,-1,-1,-1,-1,240,-1,8,-1,-1,-1,-1,,9999,0,0,1,FEW 25,1,6,-1,0,1021,RJOT 020900Z 24008KT 9999 FEW025 06/M00 Q1021 RMK 1CU025     A3016=,
20180102_100000.002,0,RJOT,,,,0,20180102100000,-1,-1,-1,-1,270,-1,14,-1,-1,-1,-1,,9999,0,0,2,FEW 25   SCT 40,1,6,1,0,1021,RJOT 021000Z 27014KT 9999 FEW025 SCT040 06/00 Q1021 RMK 1CU025     3CU040 A3017=,
20180102_110000.002,0,RJOT,,,,0,20180102110000,-1,-1,-1,-1,290,-1,10,-1,-1,-1,-1,,9999,0,0,1,FEW 25,1,6,-1,2,1022,RJOT 021100Z 29010KT 9999 FEW025 06/M02 Q1022 RMK 1CU025     A3020=,
20180102_120000.002,0,RJOT,,,,0,20180102120000,-1,-1,-1,-1,280,-1,13,-1,-1,-1,-1,,9999,0,0,1,FEW 25,1,5,-1,2,1021,RJOT 021200Z 28013KT 9999 FEW025 05/M02 Q1021 RMK 1CU025     A3018=,
20180102_220000.002,0,RJOT,,,,0,20180102220000,-1,-1,-1,-1,280,-1,9,-1,-1,-1,-1,,9999,0,0,3,FEW 25   SCT 50   BKN 70,1,4,-1,2,1021,RJOT 022200Z 28009KT 9999 FEW025 SCT050 BKN070 04/M02 Q1021     RMK 1CU025 3SC050 5AC070 A3017=,
20180102_230000.002,0,RJOT,,,,0,20180102230000,-1,-1,-1,-1,280,-1,11,-1,-1,-1,-1,,9999,0,0,2,FEW 25   SCT 50,1,5,-1,2,1022,RJOT 022300Z 28011KT 9999 FEW025 SCT050 05/M02 Q1022 RMK     1CU025 3SC050 A3018=,
20180103_000000.002,0,RJOT,,,,0,20180103000000,-1,-1,-1,-1,290,-1,9,-1,-1,-1,-1,,9999,0,0,1,FEW 25,1,6,-1,1,1022,RJOT 030000Z 29009KT 9999 FEW025 06/M01 Q1022 RMK 1CU025     A3019=,
20180103_010000.002,0,RJOT,,,,0,20180103010000,-1,-1,-1,-1,310,-1,13,-1,-1,290,350,,9999,0,0,2,FEW 25   SCT 40,1,6,-1,2,1022,RJOT 030100Z 31013KT 290V350 9999 FEW025 SCT040 06/M02 Q1022     RMK 1CU025 4CU040 A3019=,
20180103_020000.002,0,RJOT,,,,0,20180103020000,-1,-1,-1,-1,300,-1,14,-1,-1,-1,-1,,9999,0,0,2,FEW 25   BKN 40,1,6,-1,2,1022,RJOT 030200Z 30014KT 9999 FEW025 BKN040 06/M02 Q1022 RMK     1CU025 5CU040 A3019=,
20180103_030000.003,0,RJOT,,,,0,20180103030000,-1,-1,-1,-1,300,-1,13,-1,-1,-1,-1,,9999,0,1,2,FEW 25   BKN 40,1,7,-1,1,1021,RJOT 030300Z 30013KT 9999 VCSH FEW025 BKN040 07/M01 Q1021 RMK     1CU025 5CU040 A3017=,VC SH
20180103_040000.002,0,RJOT,,,,0,20180103040000,-1,-1,-1,-1,340,-1,9,-1,-1,-1,-1,,9999,0,1,2,FEW 20   BKN 35,1,6,-1,1,1021,RJOT 030400Z 34009KT 9999 VCSH FEW020 BKN035 06/M01 Q1021 RMK     1CU020 6CU035 A3015=,VC SH
20180103_050000.002,0,RJOT,,,,0,20180103050000,-1,-1,-1,-1,300,-1,11,-1,-1,-1,-1,,9999,0,1,2,FEW 25   SCT 40,1,6,-1,1,1021,RJOT 030500Z 30011KT 9999 VCSH FEW025 SCT040 06/M01 Q1021 RMK     1CU025 3CU040 A3015=,VC SH
20180103_060000.002,0,RJOT,,,,0,20180103060000,-1,-1,-1,-1,310,-1,12,-1,-1,-1,-1,,9999,0,0,2,FEW 25   BKN 40,1,5,-1,3,1021,RJOT 030600Z 31012KT 9999 FEW025 BKN040 05/M03 Q1021 RMK     1CU025 5CU040 A3016=,
20180103_070000.002,0,RJOT,,,,0,20180103070000,-1,-1,-1,-1,350,-1,8,-1,-1,300,40,,9999,0,0,2,FEW 25   BKN 40,1,5,-1,2,1022,RJOT 030700Z 35008KT 300V040 9999 FEW025 BKN040 05/M02 Q1022     RMK 1CU025 6CU040 A3018=,
20180103_080000.002,0,RJOT,,,,0,20180103080000,-1,-1,-1,-1,10,-1,10,-1,-1,-1,-1,,9999,0,0,2,FEW 25   SCT 45,1,4,-1,2,1022,RJOT 030800Z 01010KT 9999 FEW025 SCT045 04/M02 Q1022 RMK     1CU025 4CU045 A3019=,
20180103_090000.002,0,RJOT,,,,0,20180103090000,-1,-1,-1,-1,320,-1,7,-1,-1,290,360,,9999,0,0,2,FEW 25   SCT 50,1,3,-1,4,1022,RJOT 030900Z 32007KT 290V360 9999 FEW025 SCT050 03/M04 Q1022     RMK 1CU025 3SC050 A3021=,
20180103_100000.002,0,RJOT,,,,0,20180103100000,-1,-1,-1,-1,280,-1,6,-1,-1,-1,-1,,9999,0,0,1,FEW 30,1,2,-1,3,1023,RJOT 031000Z 28006KT 9999 FEW030 02/M03 Q1023 RMK 1CU030     A3022=,
20180103_110000.002,0,RJOT,,,,0,20180103110000,-1,-1,-1,-1,270,-1,6,-1,-1,-1,-1,,9999,0,1,1,FEW 50,1,2,-1,3,1023,RJOT 031100Z 27006KT 9999 VCSH FEW050 02/M03 Q1023 RMK 2SC050     A3022=,VC SH
20180103_120000.002,0,RJOT,,,,0,20180103120000,-1,-1,-1,-1,210,-1,5,-1,-1,130,260,,9999,0,1,1,FEW 30,1,1,-1,3,1023,RJOT 031200Z 21005KT 130V260 9999 VCSH FEW030 01/M03 Q1023 RMK     2CU030 A3023=,VC SH
20180103_220000.002,0,RJOT,,,,0,20180103220000,-1,-1,-1,-1,200,-1,5,-1,-1,-1,-1,,9999,0,0,1,FEW 20,-1,0,-1,3,1023,RJOT 032200Z 20005KT 9999 FEW020 M00/M03 Q1023 RMK 1CU020     A3023=,
20180103_230000.002,0,RJOT,,,,0,20180103230000,-1,-1,-1,-1,190,-1,5,-1,-1,-1,-1,,9999,0,0,1,FEW 20,-1,0,-1,3,1023,RJOT 032300Z 19005KT 9999 FEW020 M00/M03 Q1023 RMK 1CU020     A3022=,
20180104_000000.002,0,RJOT,,,,0,20180104000000,-1,-1,-1,-1,180,-1,3,-1,-1,150,220,,9999,0,0,1,FEW 20,1,2,-1,2,1023,RJOT 040000Z 18003KT 150V220 9999 FEW020 02/M02 Q1023 RMK     1CU020 A3023=,
20180104_010000.002,0,RJOT,,,,0,20180104010000,-1,-1,-1,-1,280,-1,5,-1,-1,220,310,,9999,0,0,1,FEW 20,1,5,-1,3,1023,RJOT 040100Z 28005KT 220V310 9999 FEW020 05/M03 Q1023 RMK     1CU020 A3023=,
20180104_020000.002,0,RJOT,,,,0,20180104020000,-1,-1,-1,-1,290,-1,7,-1,-1,-1,-1,,9999,0,0,1,FEW 20,1,5,-1,3,1023,RJOT 040200Z 29007KT 9999 FEW020 05/M03 Q1023 RMK 1CU020     A3021=,
20180104_030000.002,0,RJOT,,,,0,20180104030000,-1,-1,-1,-1,280,-1,6,-1,-1,190,340,,9999,0,0,1,FEW 20,1,6,-1,3,1021,RJOT 040300Z 28006KT 190V340 9999 FEW020 06/M03 Q1021 RMK     1CU020 A3018=,
20180104_040000.002,0,RJOT,,,,0,20180104040000,-1,-1,-1,-1,290,-1,8,-1,-1,240,330,,9999,0,0,2,FEW 20   SCT 180,1,7,-1,3,1020,RJOT 040400Z 29008KT 240V330 9999 FEW020 SCT180 07/M03 Q1020     RMK 1CU020 3AC180 A3014=,
20180104_050000.002,0,RJOT,,,,0,20180104050000,-1,-1,-1,-1,300,-1,9,-1,-1,270,340,,9999,0,0,2,FEW 20   SCT -9999,1,7,-1,2,1020,RJOT 040500Z 30009KT 270V340 9999 FEW020 SCT/// 07/M02 Q1020     RMK 1CU020 A3013=,
20180104_060000.003,0,RJOT,,,,0,20180104060000,-1,-1,-1,-1,310,-1,7,-1,-1,270,350,,9999,0,0,1,FEW 20,1,7,-1,2,1020,RJOT 040600Z 31007KT 270V350 9999 FEW020 07/M02 Q1020 RMK     1CU020 A3013=,
20180104_070000.002,0,RJOT,,,,0,20180104070000,-1,-1,-1,-1,310,-1,7,-1,-1,-1,-1,,9999,0,0,1,FEW 40,1,6,-1,2,1020,RJOT 040700Z 31007KT 9999 FEW040 06/M02 Q1020 RMK 2CU040     A3013=,
20180104_080000.002,0,RJOT,,,,0,20180104080000,-1,-1,-1,-1,290,-1,4,-1,-1,-1,-1,,9999,0,0,1,FEW 35,1,5,-1,2,1020,RJOT 040800Z 29004KT 9999 FEW035 05/M02 Q1020 RMK 2CU035     A3015=,
20180104_090000.002,0,RJOT,,,,0,20180104090000,-1,-1,-1,-1,230,-1,5,-1,-1,-1,-1,,9999,0,0,2,FEW 35   SCT 150,1,4,-1,2,1021,RJOT 040900Z 23005KT 9999 FEW035 SCT150 04/M02 Q1021 RMK     1CU035 3AC150 A3015=,
20180104_100000.002,0,RJOT,,,,0,20180104100000,-1,-1,-1,-1,170,-1,5,-1,-1,-1,-1,,9999,0,0,2,FEW 30   BKN 140,1,3,-1,1,1021,RJOT 041000Z 17005KT 9999 FEW030 BKN140 03/M01 Q1021 RMK     1CU030 5AC140 A3016=,
20180104_110000.002,0,RJOT,,,,0,20180104110000,-1,-1,-1,-1,150,-1,7,-1,-1,-1,-1,,9999,0,0,2,FEW 30   BKN 140,1,3,-1,1,1021,RJOT 041100Z 15007KT 9999 FEW030 BKN140 03/M01 Q1021 RMK     1CU030 5AC140 A3016=,
20180104_120000.003,0,RJOT,,,,0,20180104120000,-1,-1,-1,-1,150,-1,7,-1,-1,-1,-1,,9999,0,0,3,FEW 30   SCT 50   BKN 120,1,2,-1,1,1020,RJOT 041200Z 15007KT 9999 FEW030 SCT050 BKN120 02/M01 Q1020     RMK 1CU030 3SC050 5AC120 A3015=,
20180104_220000.002,0,RJOT,,,,0,20180104220000,-1,-1,-1,-1,150,-1,5,-1,-1,-1,-1,,9999,0,0,3,FEW 20   SCT 60   BKN 80,1,2,1,1,1017,RJOT 042200Z 15005KT 9999 FEW020 SCT060 BKN080 02/01 Q1017 RMK     1CU020 3SC060 5AC080 A3005=,
20180104_230000.002,0,RJOT,,,,0,20180104230000,-1,-1,-1,-1,140,-1,4,-1,-1,-1,-1,,9999,0,1,3,FEW 20   SCT 50   BKN 100,1,3,1,1,1016,RJOT 042300Z 14004KT 9999 -RA FEW020 SCT050 BKN100 03/01 Q1016     RMK 1CU020 4SC050 6AC100 A3003=,- RA
20180105_000000.002,0,RJOT,,,,0,20180105000000,-1,-1,-1,-1,60,-1,3,-1,-1,10,90,,9999,0,1,3,FEW 20   SCT 40   BKN 70,1,3,1,1,1017,RJOT 050000Z 06003KT 010V090 9999 VCSH FEW020 SCT040 BKN070     03/01 Q1017 RMK 1CU020 4SC040 7AC070 A3006=,VC SH
20180105_010000.003,0,RJOT,,,,0,20180105010000,-1,-1,-1,-1,150,-1,3,-1,-1,110,190,,9999,0,1,3,FEW 10   BKN 40   BKN 70,1,4,1,1,1017,RJOT 050100Z 15003KT 110V190 9999 -RA FEW010 BKN040 BKN070     04/01 Q1017 RMK 1ST010 5SC040 7AC070 A3004=,- RA
20180105_020000.002,0,RJOT,,,,0,20180105020000,-1,-1,-1,-1,210,-1,3,-1,-1,130,250,,9999,0,1,3,FEW 5   SCT 20   BKN 40,1,4,1,1,1017,RJOT 050200Z 21003KT 130V250 9999 -RA FEW005 SCT020 BKN040     04/01 Q1017 RMK 1ST005 3CU020 7SC040 A3004=,- RA
20180105_030000.002,0,RJOT,,,,0,20180105030000,-1,-1,-1,-1,190,-1,3,-1,-1,140,260,,9999,0,1,3,FEW 5   SCT 15   BKN 40,1,3,1,2,1016,RJOT 050300Z 19003KT 140V260 9999 -RA FEW005 SCT015 BKN040     03/02 Q1016 RMK 1ST005 3CU015 7SC040 A3000=,- RA
20180105_040000.002,0,RJOT,,,,0,20180105040000,-1,-1,-1,-1,999,-1,2,-1,-1,-1,-1,,9999,0,1,3,FEW 5   SCT 20   BKN 40,1,3,1,2,1015,RJOT 050400Z VRB02KT 9999 -RA FEW005 SCT020 BKN040 03/02 Q1015     RMK 1ST005 3CU020 7SC040 A2998=,- RA
20180105_050000.002,0,RJOT,,,,0,20180105050000,-1,-1,-1,-1,999,-1,2,-1,-1,-1,-1,,9999,0,0,3,FEW 3   SCT 80   BKN 100,1,4,1,2,1015,RJOT 050500Z VRB02KT 9999 FEW003 SCT080 BKN100 04/02 Q1015 RMK     1ST003 3AC080 7AC100 A2997=,
20180105_060000.002,0,RJOT,,,,0,20180105060000,-1,-1,-1,-1,999,-1,1,-1,-1,-1,-1,,9999,0,0,3,FEW 3   SCT 15   BKN 80,1,4,1,3,1014,RJOT 050600Z VRB01KT 9999 FEW003 SCT015 BKN080 04/03 Q1014 RMK     1ST003 3CU015 7AC080 A2996=,
20180105_070000.002,0,RJOT,,,,0,20180105070000,-1,-1,-1,-1,999,-1,1,-1,-1,-1,-1,,9999,0,0,1,FEW 15,1,4,1,2,1014,RJOT 050700Z VRB01KT 9999 FEW015 04/02 Q1014 RMK 1CU015 A2996=,
20180105_080000.002,0,RJOT,,,,0,20180105080000,-1,-1,-1,-1,90,-1,1,-1,-1,-1,-1,,9999,0,0,1,FEW 15,1,3,1,2,1014,RJOT 050800Z 09001KT 9999 FEW015 03/02 Q1014 RMK 1CU015 A2996=,
20180105_090000.002,0,RJOT,,,,0,20180105090000,-1,-1,-1,-1,150,-1,5,-1,-1,-1,-1,,9999,0,0,2,FEW 15   SCT 30,1,1,1,1,1014,RJOT 050900Z 15005KT 9999 FEW015 SCT030 01/01 Q1014 RMK 1CU015     3CU030 A2997=,
20180105_100000.002,0,RJOT,,,,0,20180105100000,-1,-1,-1,-1,150,-1,5,-1,-1,-1,-1,,9999,0,0,2,FEW 15   SCT 30,1,1,1,1,1014,RJOT 051000Z 15005KT 9999 FEW015 SCT030 01/01 Q1014 RMK 1CU015     3CU030 A2995=,
20180105_110000.002,0,RJOT,,,,0,20180105110000,-1,-1,-1,-1,150,-1,5,-1,-1,-1,-1,,9999,0,0,2,FEW 15   BKN 70,1,1,1,1,1014,RJOT 051100Z 15005KT 9999 FEW015 BKN070 01/01 Q1014 RMK 1CU015     5AC070 A2995=,
20180105_120000.002,0,RJOT,,,,0,20180105120000,-1,-1,-1,-1,150,-1,6,-1,-1,-1,-1,,9999,0,0,2,FEW 15   SCT 70,1,0,1,0,1014,RJOT 051200Z 15006KT 9999 FEW015 SCT070 00/00 Q1014 RMK 1CU015     3AC070 A2995=,
20180105_220000.002,0,RJOT,,,,0,20180105220000,-1,-1,-1,-1,280,-1,4,-1,-1,-1,-1,,9999,0,0,3,FEW 10   SCT 25   BKN 50,1,3,1,3,1014,RJOT 052200Z 28004KT 9999 FEW010 SCT025 BKN050 03/03 Q1014 RMK     1ST010 3CU025 5SC050 A2995=,
20180105_230000.002,0,RJOT,,,,0,20180105230000,-1,-1,-1,-1,260,-1,5,-1,-1,-1,-1,,9999,0,0,2,FEW 10   SCT 25,1,3,1,3,1014,RJOT 052300Z 26005KT 9999 FEW010 SCT025 03/03 Q1014 RMK 1ST010     3CU025 A2997=,
20180106_000000.002,0,RJOT,,,,0,20180106000000,-1,-1,-1,-1,280,-1,8,-1,-1,-1,-1,,9999,0,0,2,FEW 20   SCT 40,1,5,1,3,1015,RJOT 060000Z 28008KT 9999 FEW020 SCT040 05/03 Q1015 RMK 1CU020     4CU040 A2999=,
20180106_010000.002,0,RJOT,,,,0,20180106010000,-1,-1,-1,-1,290,-1,11,-1,-1,270,330,,9999,0,0,2,FEW 20   BKN 40,1,6,1,1,1016,RJOT 060100Z 29011KT 270V330 9999 FEW020 BKN040 06/01 Q1016     RMK 1CU020 5CU040 A3001=,
20180106_020000.002,0,RJOT,,,,0,20180106020000,-1,-1,-1,-1,290,-1,15,-1,-1,-1,-1,,9999,0,0,1,FEW 30,1,8,-1,0,1016,RJOT 060200Z 29015KT 9999 FEW030 08/M00 Q1016 RMK 1CU030     A3001=,
20180106_030000.002,0,RJOT,,,,0,20180106030000,-1,-1,-1,-1,290,-1,13,-1,-1,-1,-1,,9999,0,0,2,FEW 30   SCT 45,1,8,-1,0,1015,RJOT 060300Z 29013KT 9999 FEW030 SCT045 08/M00 Q1015 RMK     1CU030 4CU045 A2999=,
20180106_040000.002,0,RJOT,,,,0,20180106040000,-1,-1,-1,-1,270,-1,14,-1,-1,-1,-1,,9999,0,0,2,FEW 30   BKN 40,1,7,1,1,1015,RJOT 060400Z 27014KT 9999 FEW030 BKN040 07/01 Q1015 RMK 1CU030     6CU040 A2998=,
20180106_050000.002,0,RJOT,,,,0,20180106050000,-1,-1,-1,-1,280,-1,13,-1,-1,-1,-1,,9999,0,0,2,FEW 30   BKN 40,1,8,1,1,1015,RJOT 060500Z 28013KT 9999 FEW030 BKN040 08/01 Q1015 RMK 1CU030     5CU040 A2998=,
20180106_060000.002,0,RJOT,,,,0,20180106060000,-1,-1,-1,-1,280,-1,13,-1,-1,-1,-1,,9999,0,0,2,FEW 30   BKN 60,1,7,1,1,1016,RJOT 060600Z 28013KT 9999 FEW030 BKN060 07/01 Q1016 RMK 1CU030     5SC060 A3000=,
20180106_070000.002,0,RJOT,,,,0,20180106070000,-1,-1,-1,-1,280,-1,12,-1,-1,-1,-1,,9999,0,1,2,FEW 30   BKN 50,1,7,1,1,1016,RJOT 060700Z 28012KT 9999 VCSH FEW030 BKN050 07/01 Q1016 RMK     1CU030 5SC050 A3001=,VC SH
20180106_080000.002,0,RJOT,,,,0,20180106080000,-1,-1,-1,-1,280,-1,9,-1,-1,-1,-1,,9999,0,0,2,FEW 30   SCT 60,1,6,1,1,1016,RJOT 060800Z 28009KT 9999 FEW030 SCT060 06/01 Q1016 RMK 1CU030     3SC060 A3002=,
20180106_090000.002,0,RJOT,,,,0,20180106090000,-1,-1,-1,-1,260,-1,6,-1,-1,-1,-1,,9999,0,0,2,FEW 30   SCT 60,1,5,1,1,1016,RJOT 060900Z 26006KT 9999 FEW030 SCT060 05/01 Q1016 RMK 1CU030     3SC060 A3003=,
20180106_100000.002,0,RJOT,,,,0,20180106100000,-1,-1,-1,-1,260,-1,5,-1,-1,230,290,,9999,0,0,2,FEW 30   BKN 60,1,5,1,1,1018,RJOT 061000Z 26005KT 230V290 9999 FEW030 BKN060 05/01 Q1018     RMK 1CU030 5SC060 A3007 P/RR=,
20180106_110000.002,0,RJOT,,,,0,20180106110000,-1,-1,-1,-1,240,-1,6,-1,-1,-1,-1,,9999,0,0,1,FEW 30,1,4,1,1,1019,RJOT 061100Z 24006KT 9999 FEW030 04/01 Q1019 RMK 1CU030 A3011=,
20180106_120000.002,0,RJOT,,,,0,20180106120000,-1,-1,-1,-1,220,-1,5,-1,-1,-1,-1,,9999,0,0,1,FEW 30,1,4,-1,0,1020,RJOT 061200Z 22005KT 9999 FEW030 04/M00 Q1020 RMK 1CU030     A3013=,
20180106_220000.002,0,RJOT,,,,0,20180106220000,-1,-1,-1,-1,150,-1,6,-1,-1,-1,-1,,9999,0,0,2,FEW 20   BKN -9999,1,2,1,1,1022,RJOT 062200Z 15006KT 9999 FEW020 BKN/// 02/01 Q1022 RMK 1CU020     A3020=,
20180106_230000.002,0,RJOT,,,,0,20180106230000,-1,-1,-1,-1,150,-1,7,-1,-1,-1,-1,,9999,0,0,2,FEW 20   BKN -9999,1,2,1,1,1022,RJOT 062300Z 15007KT 9999 FEW020 BKN/// 02/01 Q1022 RMK 1CU020     A3020=,
20180107_000000.002,0,RJOT,,,,0,20180107000000,-1,-1,-1,-1,140,-1,5,-1,-1,-1,-1,,9999,0,0,2,FEW 20   BKN -9999,1,4,1,2,1023,RJOT 070000Z 14005KT 9999 FEW020 BKN/// 04/02 Q1023 RMK 1CU020     A3022=,
20180107_010000.003,0,RJOT,,,,0,20180107010000,-1,-1,-1,-1,70,-1,5,-1,-1,-1,-1,,9999,0,0,2,FEW 20   BKN -9999,1,6,1,2,1023,RJOT 070100Z 07005KT 9999 FEW020 BKN/// 06/02 Q1023 RMK 1CU020     A3021=,
20180107_020000.002,0,RJOT,,,,0,20180107020000,-1,-1,-1,-1,60,-1,7,-1,-1,-1,-1,,9999,0,0,2,FEW 20   BKN -9999,1,7,1,2,1023,RJOT 070200Z 06007KT 9999 FEW020 BKN/// 07/02 Q1023 RMK 1CU020     A3022=,
20180107_030000.002,0,RJOT,,,,0,20180107030000,-1,-1,-1,-1,50,-1,8,-1,-1,20,90,,9999,0,0,2,FEW 20   BKN -9999,1,8,-1,0,1022,RJOT 070300Z 05008KT 020V090 9999 FEW020 BKN/// 08/M00 Q1022     RMK 1CU020 A3019=,
20180107_040000.002,0,RJOT,,,,0,20180107040000,-1,-1,-1,-1,70,-1,9,-1,-1,30,90,,9999,0,0,2,FEW 25   BKN -9999,1,8,1,1,1021,RJOT 070400Z 07009KT 030V090 9999 FEW025 BKN/// 08/01 Q1021     RMK 1CU025 A3015=,
20180107_050000.002,0,RJOT,,,,0,20180107050000,-1,-1,-1,-1,70,-1,8,-1,-1,-1,-1,,9999,0,0,2,FEW 25   BKN -9999,1,7,1,1,1021,RJOT 070500Z 07008KT 9999 FEW025 BKN/// 07/01 Q1021 RMK 1CU025     A3017=,
20180107_060000.002,0,RJOT,,,,0,20180107060000,-1,-1,-1,-1,60,-1,8,-1,-1,-1,-1,,9999,0,0,3,FEW 25   SCT 140   BKN -9999,1,7,1,1,1021,RJOT 070600Z 06008KT 9999 FEW025 SCT140 BKN/// 07/01 Q1021 RMK     1CU025 3AC140 A3016=,
20180107_070000.002,0,RJOT,,,,0,20180107070000,-1,-1,-1,-1,80,-1,6,-1,-1,-1,-1,,9999,0,0,3,FEW 25   SCT 140   BKN 160,1,6,-1,0,1021,RJOT 070700Z 08006KT 9999 FEW025 SCT140 BKN160 06/M00 Q1021     RMK 1CU025 3AC140 5AC160 A3018=,
20180107_080000.002,0,RJOT,,,,0,20180107080000,-1,-1,-1,-1,90,-1,4,-1,-1,-1,-1,,9999,0,0,3,FEW 25   SCT 120   BKN 140,1,5,-1,0,1022,RJOT 070800Z 09004KT 9999 FEW025 SCT120 BKN140 05/M00 Q1022     RMK 1CU025 3AC120 7AC140 A3018=,
20180107_090000.002,0,RJOT,,,,0,20180107090000,-1,-1,-1,-1,130,-1,4,-1,-1,-1,-1,,9999,0,0,3,FEW 25   SCT 100   BKN 120,1,5,-1,0,1021,RJOT 070900Z 13004KT 9999 FEW025 SCT100 BKN120 05/M00 Q1021     RMK 1CU025 3AC100 6AC120 A3017=,
20180107_100000.002,0,RJOT,,,,0,20180107100000,-1,-1,-1,-1,999,-1,1,-1,-1,-1,-1,,9999,0,0,3,FEW 25   SCT 100   BKN 120,1,5,-1,0,1022,RJOT 071000Z VRB01KT 9999 FEW025 SCT100 BKN120 05/M00 Q1022     RMK 1CU025 3AC100 7AC120 A3018=,
20180107_110000.002,0,RJOT,,,,0,20180107110000,-1,-1,-1,-1,140,-1,3,-1,-1,90,180,,9999,0,0,3,FEW 25   SCT 100   BKN 120,1,5,-1,0,1022,RJOT 071100Z 14003KT 090V180 9999 FEW025 SCT100 BKN120 05/M00     Q1022 RMK 1CU025 3AC100 7AC120 A3018=,
20180107_120000.003,0,RJOT,,,,0,20180107120000,-1,-1,-1,-1,80,-1,3,-1,-1,50,120,,9999,0,0,3,FEW 25   SCT 100   BKN 120,1,4,1,0,1021,RJOT 071200Z 08003KT 050V120 9999 FEW025 SCT100 BKN120 04/00     Q1021 RMK 1CU025 4AC100 7AC120 A3016=,
20180107_220000.002,0,RJOT,,,,0,20180107220000,-1,-1,-1,-1,999,-1,2,-1,-1,-1,-1,,7000,0,1,3,FEW 1   SCT 4   BKN 60,1,4,1,4,1014,RJOT 072200Z VRB02KT 7000 -RA FEW001 SCT004 BKN060 04/04 Q1014     RMK 1ST001 3ST004 6SC060 A2997=,- RA
20180107_230000.002,0,RJOT,,,,0,20180107230000,-1,-1,-1,-1,999,-1,2,-1,-1,-1,-1,,4500,0,2,3,FEW 0   SCT 2   BKN 8,1,5,1,5,1013,RJOT 072300Z VRB02KT 4500 -RA BR FEW000 SCT002 BKN008 05/05     Q1013 RMK 1ST000 3ST002 5ST008 A2993=,- RA; BR
20180108_000000.002,0,RJOT,,,,0,20180108000000,-1,-1,-1,-1,80,-1,7,-1,-1,-1,-1,,800,1,2,3,FEW 0   SCT 1   BKN 4,1,7,1,7,1012,RJOT 080000Z 08007KT 0800 R26///// FG -RA FEW000 SCT001 BKN004     07/07 Q1012 RMK 1ST000 3ST001 5ST004 A2991=,FG; - RA
20180108_010000.002,0,RJOT,,,,0,20180108010000,-1,-1,-1,-1,60,-1,10,-1,-1,-1,-1,,1500,1,2,3,FEW 0   SCT 1   BKN 4,1,7,1,7,1011,RJOT 080100Z 06010KT 1500 R26///// -RA BR FEW000 SCT001 BKN004     07/07 Q1011 RMK 1ST000 3ST001 5ST004 A2986 6000N-NE=,- RA; BR
20180108_020000.002,0,RJOT,,,,0,20180108020000,-1,-1,-1,-1,999,-1,2,-1,-1,-1,-1,,4000,1,2,3,FEW 0   SCT 2   BKN 4,1,7,1,7,1011,RJOT 080200Z VRB02KT 4000 R26///// -RA BR FEW000 SCT002 BKN004     07/07 Q1011 RMK 1ST000 3ST002 5ST004 A2986 1000SW-W=,- RA; BR
20180108_030000.002,0,RJOT,,,,0,20180108030000,-1,-1,-1,-1,999,-1,2,-1,-1,-1,-1,,2500,0,1,3,FEW 0   SCT 2   BKN 4,1,7,1,7,1008,RJOT 080300Z VRB02KT 2500 BR FEW000 SCT002 BKN004 07/07 Q1008     RMK 1ST000 3ST002 5ST004 A2979=,BR
20180108_040000.002,0,RJOT,,,,0,20180108040000,-1,-1,-1,-1,320,-1,3,-1,-1,280,20,,800,1,2,3,FEW 0   SCT 2   BKN 4,1,8,1,8,1007,RJOT 080400Z 32003KT 280V020 0800 R26///// FG -SHRA FEW000     SCT002 BKN004 08/08 Q1007 RMK 1ST000 3ST002 5ST004 A2974=,FG; - RA SH
20180108_050000.002,0,RJOT,,,,0,20180108050000,-1,-1,-1,-1,270,-1,5,-1,-1,-1,-1,,300,1,2,3,FEW 0   SCT 2   BKN 4,1,8,1,8,1007,RJOT 080500Z 27005KT 0300 R26///// FG -SHRA FEW000 SCT002     BKN004 08/08 Q1007 RMK 2ST000 4ST002 6ST004 A2974=,FG; - RA SH
20180108_060000.003,0,RJOT,,,,0,20180108060000,-1,-1,-1,-1,280,-1,5,-1,-1,-1,-1,,100,1,1,3,FEW 0   SCT 2   BKN 4,1,8,1,8,1006,RJOT 080600Z 28005KT 0100 R26///// FG FEW000 SCT002 BKN004     08/08 Q1006 RMK 2ST000 4ST002 6ST004 A2973=,FG
20180108_070000.002,0,RJOT,,,,0,20180108070000,-1,-1,-1,-1,50,-1,3,-1,-1,-1,-1,,100,1,2,3,FEW 0   SCT 2   BKN 4,1,8,1,8,1006,RJOT 080700Z 05003KT 0100 R26///// FG -SHRA FEW000 SCT002     BKN004 08/08 Q1006 RMK 2ST000 4ST002 6ST004 A2971=,FG; - RA SH
20180108_080000.002,0,RJOT,,,,0,20180108080000,-1,-1,-1,-1,90,-1,4,-1,-1,-1,-1,,100,1,2,3,FEW 0   SCT 2   BKN 4,1,8,1,8,1004,RJOT 080800Z 09004KT 0100 R26///// FG -SHRA FEW000 SCT002     BKN004 08/08 Q1004 RMK 2ST000 4ST002 6ST004 A2967=,FG; - RA SH
20180108_090000.002,0,RJOT,,,,0,20180108090000,-1,-1,-1,-1,10,-1,3,-1,-1,350,70,,100,1,2,3,FEW 0   SCT 2   BKN 4,1,8,1,8,1004,RJOT 080900Z 01003KT 350V070 0100 R26///// FG -SHRA FEW000     SCT002 BKN004 08/08 Q1004 RMK 2ST000 4ST002 6ST004 A2967=,FG; - RA SH
20180108_100000.002,0,RJOT,,,,0,20180108100000,-1,-1,-1,-1,100,-1,3,-1,-1,40,130,,100,1,2,3,FEW 0   SCT 2   BKN 4,1,7,1,7,1004,RJOT 081000Z 10003KT 040V130 0100 R26///// FG -SHRA FEW000     SCT002 BKN004 07/07 Q1004 RMK 2ST000 4ST002 6ST004 A2966=,FG; - RA SH
20180108_110000.002,0,RJOT,,,,0,20180108110000,-1,-1,-1,-1,999,-1,1,-1,-1,-1,-1,,400,1,2,3,FEW 0   SCT 2   BKN 6,1,7,1,7,1004,RJOT 081100Z VRB01KT 0400 R26///// FG -SHRA FEW000 SCT002     BKN006 07/07 Q1004 RMK 2ST000 4ST002 6ST006 A2967=,FG; - RA SH
20180108_120000.002,0,RJOT,,,,0,20180108120000,-1,-1,-1,-1,230,-1,5,-1,-1,200,270,,200,1,2,3,FEW 0   SCT 2   BKN 6,1,8,1,8,1003,RJOT 081200Z 23005KT 200V270 0200 R26///// FG -SHRA FEW000     SCT002 BKN006 08/08 Q1003 RMK 1ST000 3ST002 5ST006 A2963=,FG; - RA SH
20180108_220000.002,0,RJOT,,,,0,20180108220000,-1,-1,-1,-1,270,-1,24,-1,-1,-1,-1,,9999,0,0,2,FEW 20   SCT 40,1,7,1,3,1004,RJOT 082200Z 27024KT 9999 FEW020 SCT040 07/03 Q1004 RMK 1CU020     4CU040 A2965=,
20180108_230000.003,0,RJOT,,,,0,20180108230000,-1,-1,-1,-1,260,-1,27,-1,37,-1,-1,,9999,0,1,2,FEW 20   SCT 40,1,7,1,1,1005,RJOT 082300Z 26027G37KT 9999 VCSH FEW020 SCT040 07/01 Q1005     RMK 1CU020 3CU040 A2968=,VC SH
20180109_000000.002,0,RJOT,,,,0,20180109000000,-1,-1,-1,-1,260,-1,30,-1,43,-1,-1,,9999,0,1,2,FEW 20   SCT 40,1,7,1,0,1006,RJOT 090000Z 26030G43KT 9999 VCSH FEW020 SCT040 07/00 Q1006     RMK 1CU020 3CU040 A2972=,VC SH
20180109_010000.002,0,RJOT,,,,0,20180109010000,-1,-1,-1,-1,280,-1,29,-1,42,-1,-1,,9999,0,1,3,FEW 20   SCT 30   BKN 40,1,6,-1,0,1006,RJOT 090100Z 28029G42KT 9999 -SHRA FEW020 SCT030 BKN040 06/M00     Q1006 RMK 1CU020 3CU030 6CU040 A2973=,- RA SH
20180109_020000.002,0,RJOT,,,,0,20180109020000,-1,-1,-1,-1,260,-1,23,-1,38,-1,-1,,9999,0,1,2,FEW 25   SCT 40,1,6,1,1,1006,RJOT 090200Z 26023G38KT 9999 VCSH FEW025 SCT040 06/01 Q1006     RMK 1CU025 4CU040 A2973=,VC SH
20180109_030000.002,0,RJOT,,,,0,20180109030000,-1,-1,-1,-1,260,-1,28,-1,41,-1,-1,,9999,0,1,2,FEW 25   SCT 40,1,7,-1,1,1006,RJOT 090300Z 26028G41KT 9999 VCSH FEW025 SCT040 07/M01 Q1006     RMK 1CU025 3CU040 A2971=,VC SH
20180109_040000.002,0,RJOT,,,,0,20180109040000,-1,-1,-1,-1,260,-1,26,-1,-1,-1,-1,,9999,0,1,3,FEW 25   SCT 40   BKN 80,1,6,-1,1,1006,RJOT 090400Z 26026KT 9999 VCSH FEW025 SCT040 BKN080 06/M01     Q1006 RMK 1CU025 3CU040 5AC080 A2971=,VC SH
20180109_050000.002,0,RJOT,,,,0,20180109050000,-1,-1,-1,-1,270,-1,26,-1,42,-1,-1,,9999,0,1,3,FEW 20   SCT 35   BKN 50,1,6,-1,2,1006,RJOT 090500Z 27026G42KT 9999 -SHRASN FEW020 SCT035 BKN050     06/M02 Q1006 RMK 1CU020 3CU035 6SC050 A2973=,- RA SN SH
20180109_060000.002,0,RJOT,,,,0,20180109060000,-1,-1,-1,-1,260,-1,19,-1,-1,-1,-1,,9999,0,0,3,FEW 20   SCT 35   BKN 50,1,5,-1,1,1008,RJOT 090600Z 26019KT 9999 FEW020 SCT035 BKN050 05/M01 Q1008     RMK 1CU020 4CU035 6SC050 A2977=,
20180109_070000.002,0,RJOT,,,,0,20180109070000,-1,-1,-1,-1,290,-1,17,-1,-1,-1,-1,,9999,0,1,2,FEW 20   SCT 40,1,4,1,0,1008,RJOT 090700Z 29017KT 9999 VCSH FEW020 SCT040 04/00 Q1008 RMK     1CU020 4CU040 A2978=,VC SH
20180109_080000.002,0,RJOT,,,,0,20180109080000,-1,-1,-1,-1,280,-1,12,-1,-1,-1,-1,,9999,0,1,2,FEW 20   SCT 40,1,4,-1,1,1009,RJOT 090800Z 28012KT 9999 -SHSN FEW020 SCT040 04/M01 Q1009 RMK     1CU020 3CU040 A2982=,- SN SH
20180109_090000.002,0,RJOT,,,,0,20180109090000,-1,-1,-1,-1,280,-1,15,-1,-1,-1,-1,,9999,0,1,3,FEW 20   SCT 40   BKN 60,1,3,-1,2,1010,RJOT 090900Z 28015KT 9999 VCSH FEW020 SCT040 BKN060 03/M02     Q1010 RMK 1CU020 3CU040 5SC060 A2985=,VC SH
20180109_100000.002,0,RJOT,,,,0,20180109100000,-1,-1,-1,-1,270,-1,13,-1,-1,-1,-1,,9999,0,1,2,FEW 20   BKN 50,1,3,-1,2,1011,RJOT 091000Z 27013KT 9999 -SHSN FEW020 BKN050 03/M02 Q1011 RMK     1CU020 5SC050 A2987=,- SN SH
20180109_110000.002,0,RJOT,,,,0,20180109110000,-1,-1,-1,-1,250,-1,15,-1,-1,-1,-1,,9999,0,1,3,FEW 15   SCT 40   BKN 60,1,3,-1,1,1012,RJOT 091100Z 25015KT 9999 -SHSN FEW015 SCT040 BKN060 03/M01     Q1012 RMK 1CU015 3CU040 5SC060 A2989=,- SN SH
20180109_120000.002,0,RJOT,,,,0,20180109120000,-1,-1,-1,-1,250,-1,16,-1,-1,-1,-1,,9999,0,1,3,FEW 15   SCT 30   BKN 50,1,4,-1,2,1012,RJOT 091200Z 25016KT 9999 VCSH FEW015 SCT030 BKN050 04/M02     Q1012 RMK 1CU015 3CU030 5SC050 A2990=,VC SH
20180109_220000.002,0,RJOT,,,,0,20180109220000,-1,-1,-1,-1,240,-1,8,-1,-1,-1,-1,,9999,0,1,2,FEW 20   SCT 40,1,3,1,1,1012,RJOT 092200Z 24008KT 9999 -SHRA FEW020 SCT040 03/01 Q1012 RMK     1CU020 3CU040 A2990=,- RA SH
20180109_230000.002,0,RJOT,,,,0,20180109230000,-1,-1,-1,-1,240,-1,9,-1,-1,-1,-1,,9999,0,0,3,FEW 20   SCT 40   BKN 70,1,3,1,1,1012,RJOT 092300Z 24009KT 9999 FEW020 SCT040 BKN070 03/01 Q1012 RMK     1CU020 3CU040 5AC070 A2990=,
20180110_000000.002,0,RJOT,,,,0,20180110000000,-1,-1,-1,-1,250,-1,10,-1,-1,-1,-1,,9999,0,1,3,FEW 20   SCT 40   BKN 70,1,5,1,2,1012,RJOT 100000Z 25010KT 9999 -SHRA FEW020 SCT040 BKN070 05/02     Q1012 RMK 1CU020 3CU040 5AC070 A2991=,- RA SH
20180110_010000.002,0,RJOT,,,,0,20180110010000,-1,-1,-1,-1,240,-1,11,-1,-1,-1,-1,,9999,0,1,3,FEW 10   SCT 20   BKN 30,1,2,1,2,1013,RJOT 100100Z 24011KT 9999 -SHRASN FEW010 SCT020 BKN030 02/02     Q1013 RMK 2ST010 4CU020 6CU030 A2991=,- RA SN SH
20180110_020000.002,0,RJOT,,,,0,20180110020000,-1,-1,-1,-1,230,-1,7,-1,-1,-1,-1,,9999,0,1,3,FEW 5   SCT 20   BKN 40,1,3,1,3,1012,RJOT 100200Z 23007KT 9999 -SHRASN FEW005 SCT020 BKN040 03/03     Q1012 RMK 1ST005 3CU020 5CU040 A2989=,- RA SN SH
20180110_030000.002,0,RJOT,,,,0,20180110030000,-1,-1,-1,-1,250,-1,12,-1,-1,-1,-1,,9999,0,1,3,FEW 5   SCT 20   BKN 35,1,4,1,3,1011,RJOT 100300Z 25012KT 9999 -SHRA FEW005 SCT020 BKN035 04/03     Q1011 RMK 1ST005 3CU020 5CU035 A2986=,- RA SH
20180110_040000.003,0,RJOT,,,,0,20180110040000,-1,-1,-1,-1,250,-1,8,-1,-1,-1,-1,,9999,0,1,3,FEW 5   SCT 15   BKN 20,1,3,1,3,1010,RJOT 100400Z 25008KT 9999 -SHRA FEW005 SCT015 BKN020 03/03     Q1010 RMK 1ST005 3CU015 5CU020 A2984=,- RA SH
20180110_050000.002,0,RJOT,,,,0,20180110050000,-1,-1,-1,-1,250,-1,8,-1,-1,170,290,,9999,0,1,3,FEW 3   SCT 10   BKN 15,1,3,1,3,1010,RJOT 100500Z 25008KT 170V290 9999 VCSH FEW003 SCT010 BKN015     03/03 Q1010 RMK 1ST003 3CU010 5CU015 A2984=,VC SH
20180110_060000.002,0,RJOT,,,,0,20180110060000,-1,-1,-1,-1,250,-1,14,-1,-1,-1,-1,,9999,0,0,3,FEW 8   SCT 15   BKN 20,1,4,1,4,1010,RJOT 100600Z 25014KT 9999 FEW008 SCT015 BKN020 04/04 Q1010 RMK     1ST008 3CU015 5CU020 A2984=,
20180110_070000.002,0,RJOT,,,,0,20180110070000,-1,-1,-1,-1,250,-1,12,-1,-1,-1,-1,,9999,0,0,3,FEW 20   SCT 25   BKN 35,1,4,1,2,1010,RJOT 100700Z 25012KT 9999 FEW020 SCT025 BKN035 04/02 Q1010 RMK     1CU020 3CU025 5CU035 A2984=,
20180110_080000.002,0,RJOT,,,,0,20180110080000,-1,-1,-1,-1,240,-1,11,-1,-1,-1,-1,,9999,0,0,3,FEW 20   SCT 30   BKN 40,1,4,1,2,1011,RJOT 100800Z 24011KT 9999 FEW020 SCT030 BKN040 04/02 Q1011 RMK     1CU020 3CU030 5CU040 A2986=,
20180110_090000.002,0,RJOT,,,,0,20180110090000,-1,-1,-1,-1,250,-1,14,-1,-1,-1,-1,,9999,0,1,3,FEW 20   SCT 30   BKN 40,1,4,1,2,1011,RJOT 100900Z 25014KT 9999 -SHRA FEW020 SCT030 BKN040 04/02     Q1011 RMK 1CU020 3CU030 5CU040 A2988=,- RA SH
20180110_100000.002,0,RJOT,,,,0,20180110100000,-1,-1,-1,-1,260,-1,14,-1,-1,-1,-1,,9999,0,0,3,FEW 20   SCT 30   BKN 50,1,3,1,1,1012,RJOT 101000Z 26014KT 9999 FEW020 SCT030 BKN050 03/01 Q1012 RMK     1CU020 3CU030 5SC050 A2990=,
20180110_110000.002,0,RJOT,,,,0,20180110110000,-1,-1,-1,-1,250,-1,12,-1,-1,-1,-1,,9999,0,0,3,FEW 15   SCT 20   BKN 50,1,2,1,1,1013,RJOT 101100Z 25012KT 9999 FEW015 SCT020 BKN050 02/01 Q1013 RMK     1CU015 3CU020 5SC050 A2992=,
20180110_120000.002,0,RJOT,,,,0,20180110120000,-1,-1,-1,-1,270,-1,14,-1,-1,-1,-1,,9999,0,0,3,FEW 15   SCT 30   BKN 40,1,2,-1,0,1013,RJOT 101200Z 27014KT 9999 FEW015 SCT030 BKN040 02/M00 Q1013     RMK 1CU015 3CU030 5CU040 A2994=,
20180110_220000.002,0,RJOT,,,,0,20180110220000,-1,-1,-1,-1,280,-1,7,-1,-1,-1,-1,,9999,0,1,2,FEW 15   SCT 25,-1,2,-1,4,1018,RJOT 102200Z 28007KT 9999 VCSH FEW015 SCT025 M02/M04 Q1018 RMK     1CU015 3CU025 A3007=,VC SH
20180110_230000.003,0,RJOT,,,,0,20180110230000,-1,-1,-1,-1,290,-1,9,-1,-1,-1,-1,,9999,0,1,2,FEW 20   SCT 35,-1,1,-1,4,1018,RJOT 102300Z 29009KT 9999 VCSH FEW020 SCT035 M01/M04 Q1018 RMK     1CU020 3CU035 A3009=,VC SH
20180111_000000.002,0,RJOT,,,,0,20180111000000,-1,-1,-1,-1,280,-1,7,-1,-1,250,310,,9999,0,1,2,FEW 5   SCT 35,-1,1,-1,4,1019,RJOT 110000Z 28007KT 250V310 9999 VCSH FEW005 SCT035 M01/M04     Q1019 RMK 1ST005 4CU035 A3010=,VC SH
20180111_010000.002,0,RJOT,,,,0,20180111010000,-1,-1,-1,-1,230,-1,8,-1,-1,-1,-1,,9999,0,1,2,FEW 5   BKN 35,-1,1,-1,3,1019,RJOT 110100Z 23008KT 9999 -SHSN FEW005 BKN035 M01/M03 Q1019     RMK 1ST005 5CU035 A3011=,- SN SH
20180111_020000.002,0,RJOT,,,,0,20180111020000,-1,-1,-1,-1,220,-1,6,-1,-1,-1,-1,,9999,0,1,3,FEW 8   SCT 30   BKN 40,-1,1,-1,2,1019,RJOT 110200Z 22006KT 9999 VCSH FEW008 SCT030 BKN040 M01/M02     Q1019 RMK 1ST008 3CU030 5CU040 A3010=,VC SH
20180111_030000.001,0,RJOT,,,,0,20180111030000,-1,-1,-1,-1,260,-1,10,-1,-1,220,290,,9999,0,1,3,FEW 8   SCT 20   BKN 30,-1,0,-1,4,1019,RJOT 110300Z 26010KT 220V290 9999 -SHSN FEW008 SCT020 BKN030     M00/M04 Q1019 RMK 1ST008 3CU020 5CU030 A3009=,- SN SH
20180111_040000.002,0,RJOT,,,,0,20180111040000,-1,-1,-1,-1,190,-1,5,-1,-1,-1,-1,,9999,0,1,3,FEW 5   SCT 15   BKN 30,-1,2,-1,2,1018,RJOT 110400Z 19005KT 9999 -SHSN FEW005 SCT015 BKN030 M02/M02     Q1018 RMK 1ST005 3CU015 6CU030 A3008=,- SN SH
20180111_050000.002,0,RJOT,,,,0,20180111050000,-1,-1,-1,-1,200,-1,5,-1,-1,160,240,,9999,0,1,3,FEW 5   SCT 25   BKN 30,-1,1,-1,2,1018,RJOT 110500Z 20005KT 160V240 9999 VCSH FEW005 SCT025 BKN030     M01/M02 Q1018 RMK 1ST005 3CU025 6CU030 A3007=,VC SH
20180111_060000.002,0,RJOT,,,,0,20180111060000,-1,-1,-1,-1,260,-1,12,-1,-1,-1,-1,,9999,0,1,3,FEW 5   SCT 15   BKN 30,-1,1,-1,3,1018,RJOT 110600Z 26012KT 9999 -SHSN FEW005 SCT015 BKN030 M01/M03     Q1018 RMK 1ST005 3CU015 6CU030 A3008=,- SN SH
20180111_070000.002,0,RJOT,,,,0,20180111070000,-1,-1,-1,-1,240,-1,7,-1,-1,-1,-1,,9999,0,1,3,FEW 5   SCT 30   BKN 40,-1,0,-1,4,1018,RJOT 110700Z 24007KT 9999 VCSH FEW005 SCT030 BKN040 M00/M04     Q1018 RMK 1ST005 3CU030 6CU040 A3008=,VC SH
20180111_080000.002,0,RJOT,,,,0,20180111080000,-1,-1,-1,-1,270,-1,11,-1,21,-1,-1,,6000,0,1,3,FEW 5   SCT 20   BKN 30,-1,0,-1,4,1019,RJOT 110800Z 27011G21KT 6000 -SHSN FEW005 SCT020 BKN030     M00/M04 Q1019 RMK 1ST005 3CU020 6CU030 A3009=,- SN SH
20180111_090000.002,0,RJOT,,,,0,20180111090000,-1,-1,-1,-1,270,-1,13,-1,-1,-1,-1,,9999,0,1,3,FEW 5   SCT 25   BKN 35,1,0,-1,6,1019,RJOT 110900Z 27013KT 9999 VCSH FEW005 SCT025 BKN035 00/M06     Q1019 RMK 1ST005 3CU025 5CU035 A3011=,VC SH
20180111_100000.002,0,RJOT,,,,0,20180111100000,-1,-1,-1,-1,280,-1,13,-1,-1,-1,-1,,9999,0,1,3,FEW 5   SCT 30   BKN 40,1,0,-1,8,1020,RJOT 111000Z 28013KT 9999 VCSH FEW005 SCT030 BKN040 00/M08     Q1020 RMK 1ST005 3CU030 5CU040 A3013=,VC SH
20180111_110000.002,0,RJOT,,,,0,20180111110000,-1,-1,-1,-1,280,-1,11,-1,-1,-1,-1,,9999,0,1,3,FEW 5   SCT 25   BKN 40,-1,1,-1,6,1020,RJOT 111100Z 28011KT 9999 VCSH FEW005 SCT025 BKN040 M01/M06     Q1020 RMK 1ST005 3CU025 5CU040 A3014=,VC SH
20180111_120000.002,0,RJOT,,,,0,20180111120000,-1,-1,-1,-1,240,-1,8,-1,-1,-1,-1,,9999,0,1,2,FEW 5   SCT 40,-1,2,-1,4,1020,RJOT 111200Z 24008KT 9999 VCSH FEW005 SCT040 M02/M04 Q1020 RMK     1ST005 3CU040 A3014=,VC SH
20180111_220000.002,0,RJOT,,,,0,20180111220000,-1,-1,-1,-1,230,-1,8,-1,-1,-1,-1,,9999,0,1,2,FEW 25   SCT 35,-1,3,-1,5,1023,RJOT 112200Z 23008KT 9999 VCSH FEW025 SCT035 M03/M05 Q1023 RMK     1CU025 3CU035 A3021=,VC SH
20180111_230000.002,0,RJOT,,,,0,20180111230000,-1,-1,-1,-1,220,-1,5,-1,-1,-1,-1,,9999,0,0,1,FEW 25,-1,3,-1,5,1023,RJOT 112300Z 22005KT 9999 FEW025 M03/M05 Q1023 RMK 1CU025     A3023=,
20180112_000000.002,0,RJOT,,,,0,20180112000000,-1,-1,-1,-1,260,-1,6,-1,-1,220,300,,9999,0,1,1,FEW 20,-1,0,-1,5,1024,RJOT 120000Z 26006KT 220V300 9999 VCSH FEW020 M00/M05 Q1024     RMK 1CU020 A3026=,VC SH
20180112_010000.003,0,RJOT,,,,0,20180112010000,-1,-1,-1,-1,290,-1,14,-1,-1,-1,-1,,9999,0,1,2,FEW 20   SCT 35,1,0,-1,6,1024,RJOT 120100Z 29014KT 9999 VCSH FEW020 SCT035 00/M06 Q1024 RMK     1CU020 3CU035 A3026=,VC SH
20180112_020000.002,0,RJOT,,,,0,20180112020000,-1,-1,-1,-1,280,-1,15,-1,-1,-1,-1,,9999,0,0,1,FEW 20,1,1,-1,6,1024,RJOT 120200Z 28015KT 9999 FEW020 01/M06 Q1024 RMK 1CU020     A3024=,
20180112_030000.002,0,RJOT,,,,0,20180112030000,-1,-1,-1,-1,280,-1,14,-1,-1,-1,-1,,9999,0,0,1,FEW 20,1,1,-1,6,1023,RJOT 120300Z 28014KT 9999 FEW020 01/M06 Q1023 RMK 1CU020     A3022=,
20180112_040000.002,0,RJOT,,,,0,20180112040000,-1,-1,-1,-1,290,-1,14,-1,-1,-1,-1,,9999,0,0,1,FEW 20,1,2,-1,6,1022,RJOT 120400Z 29014KT 9999 FEW020 02/M06 Q1022 RMK 1CU020     A3019=,
20180112_050000.003,0,RJOT,,,,0,20180112050000,-1,-1,-1,-1,290,-1,13,-1,-1,-1,-1,,9999,0,0,2,FEW 25   SCT 35,1,1,-1,7,1023,RJOT 120500Z 29013KT 9999 FEW025 SCT035 01/M07 Q1023 RMK     1CU025 3CU035 A3021=,
20180112_060000.002,0,RJOT,,,,0,20180112060000,-1,-1,-1,-1,300,-1,12,-1,-1,-1,-1,,9999,0,0,1,FEW 25,1,2,-1,7,1023,RJOT 120600Z 30012KT 9999 FEW025 02/M07 Q1023 RMK 1CU025     A3021=,
20180112_070000.003,0,RJOT,,,,0,20180112070000,-1,-1,-1,-1,290,-1,9,-1,-1,-1,-1,,9999,0,1,1,FEW 20,1,1,-1,7,1023,RJOT 120700Z 29009KT 9999 VCSH FEW020 01/M07 Q1023 RMK 1CU020     A3022=,VC SH
20180112_080000.002,0,RJOT,,,,0,20180112080000,-1,-1,-1,-1,250,-1,6,-1,-1,-1,-1,,9999,0,0,1,FEW 20,1,0,-1,6,1024,RJOT 120800Z 25006KT 9999 FEW020 00/M06 Q1024 RMK 1CU020     A3024=,
20180112_090000.002,0,RJOT,,,,0,20180112090000,-1,-1,-1,-1,240,-1,5,-1,-1,-1,-1,,9999,0,0,1,FEW 20,-1,1,-1,5,1024,RJOT 120900Z 24005KT 9999 FEW020 M01/M05 Q1024 RMK 1CU020     A3026=,
20180112_100000.002,0,RJOT,,,,0,20180112100000,-1,-1,-1,-1,220,-1,5,-1,-1,-1,-1,,9999,0,0,1,FEW 20,-1,1,-1,5,1025,RJOT 121000Z 22005KT 9999 FEW020 M01/M05 Q1025 RMK 1CU020     A3027=,
20180112_110000.002,0,RJOT,,,,0,20180112110000,-1,-1,-1,-1,230,-1,6,-1,-1,-1,-1,,9999,0,0,2,FEW 20   SCT 35,-1,1,-1,5,1025,RJOT 121100Z 23006KT 9999 FEW020 SCT035 M01/M05 Q1025 RMK     1CU020 3CU035 A3028=,
20180112_120000.002,0,RJOT,,,,0,20180112120000,-1,-1,-1,-1,220,-1,7,-1,-1,-1,-1,,9999,0,0,1,FEW 20,-1,2,-1,5,1025,RJOT 121200Z 22007KT 9999 FEW020 M02/M05 Q1025 RMK 1CU020     A3028=,
20180112_220000.002,0,RJOT,,,,0,20180112220000,-1,-1,-1,-1,230,-1,8,-1,-1,-1,-1,,9999,0,0,1,FEW 20,-1,2,-1,4,1025,RJOT 122200Z 23008KT 9999 FEW020 M02/M04 Q1025 RMK 1CU020     A3029=,
20180112_230000.002,0,RJOT,,,,0,20180112230000,-1,-1,-1,-1,250,-1,8,-1,-1,-1,-1,,9999,0,1,1,FEW 20,-1,2,-1,3,1026,RJOT 122300Z 25008KT 9999 VCSH FEW020 M02/M03 Q1026 RMK 1CU020     A3030=,VC SH
20180113_000000.002,0,RJOT,,,,0,20180113000000,-1,-1,-1,-1,260,-1,8,-1,-1,-1,-1,,9999,0,1,1,FEW 20,1,0,-1,2,1026,RJOT 130000Z 26008KT 9999 VCSH FEW020 00/M02 Q1026 RMK 1CU020     A3032=,VC SH
20180113_010000.003,0,RJOT,,,,0,20180113010000,-1,-1,-1,-1,250,-1,10,-1,-1,-1,-1,,9999,0,1,2,FEW 20   SCT 40,1,1,-1,2,1027,RJOT 130100Z 25010KT 9999 VCSH FEW020 SCT040 01/M02 Q1027 RMK     1CU020 3CU040 A3033=,VC SH
20180113_020000.002,0,RJOT,,,,0,20180113020000,-1,-1,-1,-1,290,-1,13,-1,-1,260,330,,9999,0,0,2,FEW 20   SCT 30,1,2,-1,2,1026,RJOT 130200Z 29013KT 260V330 9999 FEW020 SCT030 02/M02 Q1026     RMK 1CU020 4CU030 A3032=,
20180113_030000.002,0,RJOT,,,,0,20180113030000,-1,-1,-1,-1,240,-1,14,-1,-1,210,270,,9999,0,1,2,FEW 20   BKN 30,1,3,-1,1,1026,RJOT 130300Z 24014KT 210V270 9999 VCSH FEW020 BKN030 03/M01     Q1026 RMK 1CU020 5CU030 A3030=,VC SH
20180113_040000.002,0,RJOT,,,,0,20180113040000,-1,-1,-1,-1,270,-1,15,-1,-1,-1,-1,,9999,0,1,2,FEW 20   SCT 30,1,3,-1,3,1025,RJOT 130400Z 27015KT 9999 VCSH FEW020 SCT030 03/M03 Q1025 RMK     1CU020 4CU030 A3029=,VC SH
20180113_050000.002,0,RJOT,,,,0,20180113050000,-1,-1,-1,-1,250,-1,9,-1,-1,210,290,,9999,0,1,2,FEW 15   BKN 30,1,4,-1,1,1025,RJOT 130500Z 25009KT 210V290 9999 VCSH FEW015 BKN030 04/M01     Q1025 RMK 1CU015 5CU030 A3029=,VC SH
20180113_060000.002,0,RJOT,,,,0,20180113060000,-1,-1,-1,-1,250,-1,7,-1,-1,-1,-1,,9999,0,1,2,FEW 20   BKN 30,1,3,-1,0,1026,RJOT 130600Z 25007KT 9999 VCSH FEW020 BKN030 03/M00 Q1026 RMK     1CU020 6CU030 A3030=,VC SH
20180113_070000.002,0,RJOT,,,,0,20180113070000,-1,-1,-1,-1,260,-1,9,-1,-1,-1,-1,,9999,0,1,2,FEW 20   BKN 30,1,3,-1,1,1026,RJOT 130700Z 26009KT 9999 VCSH FEW020 BKN030 03/M01 Q1026 RMK     1CU020 6CU030 A3030=,VC SH
20180113_080000.002,0,RJOT,,,,0,20180113080000,-1,-1,-1,-1,260,-1,11,-1,-1,-1,-1,,9999,0,1,2,FEW 20   BKN 30,1,3,-1,1,1026,RJOT 130800Z 26011KT 9999 -SHSN FEW020 BKN030 03/M01 Q1026 RMK     1CU020 6CU030 A3032=,- SN SH
20180113_090000.002,0,RJOT,,,,0,20180113090000,-1,-1,-1,-1,270,-1,13,-1,-1,250,320,,9999,0,0,2,FEW 25   SCT 40,1,2,-1,2,1027,RJOT 130900Z 27013KT 250V320 9999 FEW025 SCT040 02/M02 Q1027     RMK 1CU025 3CU040 A3034=,
20180113_100000.002,0,RJOT,,,,0,20180113100000,-1,-1,-1,-1,270,-1,10,-1,-1,-1,-1,,9999,0,0,1,FEW 25,1,1,-1,2,1027,RJOT 131000Z 27010KT 9999 FEW025 01/M02 Q1027 RMK 1CU025     A3035=,
20180113_110000.002,0,RJOT,,,,0,20180113110000,-1,-1,-1,-1,270,-1,11,-1,-1,-1,-1,,9999,0,0,1,FEW 25,1,1,-1,2,1028,RJOT 131100Z 27011KT 9999 FEW025 01/M02 Q1028 RMK 1CU025     A3037=,
20180113_120000.002,0,RJOT,,,,0,20180113120000,-1,-1,-1,-1,260,-1,9,-1,-1,-1,-1,,9999,0,0,1,FEW 25,1,0,-1,2,1029,RJOT 131200Z 26009KT 9999 FEW025 00/M02 Q1029 RMK 1CU025     A3039=,
20180113_220000.002,0,RJOT,,,,0,20180113220000,-1,-1,-1,-1,150,-1,8,-1,-1,-1,-1,,9999,0,0,2,FEW 25   SCT 50,-1,3,-1,3,1030,RJOT 132200Z 15008KT 9999 FEW025 SCT050 M03/M03 Q1030 RMK     1CU025 3SC050 A3042=,
20180113_230000.002,0,RJOT,,,,0,20180113230000,-1,-1,-1,-1,150,-1,6,-1,-1,-1,-1,,9999,0,0,1,FEW 25,-1,3,-1,3,1030,RJOT 132300Z 15006KT 9999 FEW025 M03/M03 Q1030 RMK 1CU025     A3044=,
20180114_000000.003,0,RJOT,,,,0,20180114000000,-1,-1,-1,-1,150,-1,6,-1,-1,-1,-1,,9999,0,0,2,FEW 25   SCT -9999,1,1,-1,0,1031,RJOT 140000Z 15006KT 9999 FEW025 SCT/// 01/M00 Q1031 RMK     1CU025 A3047=,
20180114_010000.002,0,RJOT,,,,0,20180114010000,-1,-1,-1,-1,290,-1,5,-1,-1,260,330,,9999,0,0,2,FEW 25   BKN -9999,1,3,-1,0,1032,RJOT 140100Z 29005KT 260V330 9999 FEW025 BKN/// 03/M00 Q1032     RMK 1CU025 A3049=,
20180114_020000.002,0,RJOT,,,,0,20180114020000,-1,-1,-1,-1,999,-1,2,-1,-1,-1,-1,,9999,0,0,2,FEW 25   BKN -9999,1,3,-1,1,1032,RJOT 140200Z VRB02KT 9999 FEW025 BKN/// 03/M01 Q1032 RMK     1CU025 A3048=,
20180114_030000.002,0,RJOT,,,,0,20180114030000,-1,-1,-1,-1,30,-1,3,-1,-1,300,60,,9999,0,0,3,FEW 25   SCT 30   BKN -9999,1,5,-1,2,1031,RJOT 140300Z 03003KT 300V060 9999 FEW025 SCT030 BKN/// 05/M02     Q1031 RMK 1CU025 4CU030 A3045=,
20180114_040000.002,0,RJOT,,,,0,20180114040000,-1,-1,-1,-1,10,-1,3,-1,-1,310,70,,9999,0,0,2,FEW 25   BKN 40,1,5,-1,4,1029,RJOT 140400Z 01003KT 310V070 9999 FEW025 BKN040 05/M04 Q1029     RMK 1CU025 6SC040 A3041=,
20180114_050000.002,0,RJOT,,,,0,20180114050000,-1,-1,-1,-1,50,-1,5,-1,-1,360,110,,9999,0,0,3,FEW 25   SCT 40   BKN -9999,1,5,-1,2,1029,RJOT 140500Z 05005KT 360V110 9999 FEW025 SCT040 BKN/// 05/M02     Q1029 RMK 1CU025 4SC040 A3039=,
20180114_060000.003,0,RJOT,,,,0,20180114060000,-1,-1,-1,-1,70,-1,5,-1,-1,10,120,,9999,0,0,2,FEW 25   BKN -9999,1,5,-1,3,1028,RJOT 140600Z 07005KT 010V120 9999 FEW025 BKN/// 05/M03 Q1028     RMK 1CU025 A3038=,
20180114_070000.002,0,RJOT,,,,0,20180114070000,-1,-1,-1,-1,60,-1,6,-1,-1,-1,-1,,9999,0,0,2,FEW 25   BKN -9999,1,4,-1,3,1028,RJOT 140700Z 06006KT 9999 FEW025 BKN/// 04/M03 Q1028 RMK     1CU025 A3038=,
20180114_080000.002,0,RJOT,,,,0,20180114080000,-1,-1,-1,-1,70,-1,4,-1,-1,40,100,,9999,0,0,3,FEW 25   SCT 40   BKN -9999,1,3,-1,2,1028,RJOT 140800Z 07004KT 040V100 9999 FEW025 SCT040 BKN/// 03/M02     Q1028 RMK 1CU025 3SC040 A3038=,
20180114_090000.002,0,RJOT,,,,0,20180114090000,-1,-1,-1,-1,130,-1,3,-1,-1,100,170,,9999,0,0,2,FEW 25   BKN -9999,1,2,-1,2,1028,RJOT 140900Z 13003KT 100V170 9999 FEW025 BKN/// 02/M02 Q1028     RMK 1CU025 A3038=,
20180114_100000.002,0,RJOT,,,,0,20180114100000,-1,-1,-1,-1,999,-1,2,-1,-1,-1,-1,,9999,0,0,2,FEW 25   BKN -9999,1,1,-1,2,1028,RJOT 141000Z VRB02KT 9999 FEW025 BKN/// 01/M02 Q1028 RMK     1CU025 A3038=,
20180114_110000.002,0,RJOT,,,,0,20180114110000,-1,-1,-1,-1,150,-1,5,-1,-1,-1,-1,,9999,0,0,3,FEW 25   SCT 170   BKN -9999,-1,0,-1,2,1029,RJOT 141100Z 15005KT 9999 FEW025 SCT170 BKN/// M00/M02 Q1029     RMK 1CU025 3AC170 A3040=,
20180114_120000.002,0,RJOT,,,,0,20180114120000,-1,-1,-1,-1,150,-1,7,-1,-1,-1,-1,,9999,0,0,2,FEW 25   BKN -9999,-1,1,-1,2,1029,RJOT 141200Z 15007KT 9999 FEW025 BKN/// M01/M02 Q1029 RMK     1CU025 A3040=,
20180114_220000.002,0,RJOT,,,,0,20180114220000,-1,-1,-1,-1,130,-1,5,-1,-1,90,180,,9999,0,0,1,FEW 20,-1,1,-1,1,1026,RJOT 142200Z 13005KT 090V180 9999 FEW020 M01/M01 Q1026 RMK     1CU020 A3032=,
20180114_230000.002,0,RJOT,,,,0,20180114230000,-1,-1,-1,-1,150,-1,6,-1,-1,-1,-1,,9999,0,0,1,FEW 20,-1,0,-1,1,1027,RJOT 142300Z 15006KT 9999 FEW020 M00/M01 Q1027 RMK 1CU020     A3035=,
20180115_000000.002,0,RJOT,,,,0,20180115000000,-1,-1,-1,-1,150,-1,3,-1,-1,-1,-1,,9999,0,0,1,FEW 20,1,3,1,0,1028,RJOT 150000Z 15003KT 9999 FEW020 03/00 Q1028 RMK 1CU020 A3036=,
20180115_010000.002,0,RJOT,,,,0,20180115010000,-1,-1,-1,-1,999,-1,1,-1,-1,-1,-1,,9999,0,0,1,FEW 20,1,4,1,0,1028,RJOT 150100Z VRB01KT 9999 FEW020 04/00 Q1028 RMK 1CU020 A3036=,
20180115_020000.002,0,RJOT,,,,0,20180115020000,-1,-1,-1,-1,30,-1,4,-1,-1,350,90,,9999,0,0,2,FEW 20   BKN 70,1,6,1,1,1027,RJOT 150200Z 03004KT 350V090 9999 FEW020 BKN070 06/01 Q1027     RMK 1CU020 7AC070 A3033=,
20180115_030000.002,0,RJOT,,,,0,20180115030000,-1,-1,-1,-1,20,-1,3,-1,-1,340,60,,9999,0,0,2,FEW 20   SCT 70,1,7,1,2,1025,RJOT 150300Z 02003KT 340V060 9999 FEW020 SCT070 07/02 Q1025     RMK 1CU020 3AC070 A3028=,
20180115_040000.002,0,RJOT,,,,0,20180115040000,-1,-1,-1,-1,30,-1,4,-1,-1,350,80,,9999,0,0,1,FEW 20,1,8,1,3,1023,RJOT 150400Z 03004KT 350V080 9999 FEW020 08/03 Q1023 RMK     1CU020 A3022=,
20180115_050000.002,0,RJOT,,,,0,20180115050000,-1,-1,-1,-1,999,-1,2,-1,-1,-1,-1,,9999,0,0,2,FEW 25   SCT 70,1,9,1,3,1022,RJOT 150500Z VRB02KT 9999 FEW025 SCT070 09/03 Q1022 RMK 1CU025     3AC070 A3021=,
20180115_060000.002,0,RJOT,,,,0,20180115060000,-1,-1,-1,-1,360,-1,6,-1,-1,-1,-1,,9999,0,0,3,FEW 25   SCT 50   BKN 70,1,8,1,4,1023,RJOT 150600Z 36006KT 9999 FEW025 SCT050 BKN070 08/04 Q1023 RMK     1CU025 3SC050 7AC070 A3021=,
20180115_070000.003,0,RJOT,,,,0,20180115070000,-1,-1,-1,-1,330,-1,3,-1,-1,290,360,,9999,0,0,2,FEW 25   BKN 50,1,8,1,3,1023,RJOT 150700Z 33003KT 290V360 9999 FEW025 BKN050 08/03 Q1023     RMK 1CU025 6SC050 A3023=,
20180115_080000.002,0,RJOT,,,,0,20180115080000,-1,-1,-1,-1,999,-1,2,-1,-1,-1,-1,,9999,0,0,2,FEW 25   BKN 50,1,7,1,3,1024,RJOT 150800Z VRB02KT 9999 FEW025 BKN050 07/03 Q1024 RMK 1CU025     5SC050 A3024=,
20180115_090000.002,0,RJOT,,,,0,20180115090000,-1,-1,-1,-1,160,-1,3,-1,-1,-1,-1,,9999,0,0,2,FEW 25   SCT 50,1,5,1,3,1024,RJOT 150900Z 16003KT 9999 FEW025 SCT050 05/03 Q1024 RMK 1CU025     3SC050 A3026=,
20180115_100000.002,0,RJOT,,,,0,20180115100000,-1,-1,-1,-1,170,-1,4,-1,-1,-1,-1,,9999,0,0,3,FEW 25   SCT 35   BKN -9999,1,4,1,3,1025,RJOT 151000Z 17004KT 9999 FEW025 SCT035 BKN/// 04/03 Q1025 RMK     1CU025 3CU035 A3027=,
20180115_110000.002,0,RJOT,,,,0,20180115110000,-1,-1,-1,-1,150,-1,7,-1,-1,-1,-1,,9999,0,0,1,FEW 25,1,4,1,3,1024,RJOT 151100Z 15007KT 9999 FEW025 04/03 Q1024 RMK 1CU025 A3025=,
20180115_120000.002,0,RJOT,,,,0,20180115120000,-1,-1,-1,-1,150,-1,8,-1,-1,-1,-1,,9999,0,0,1,FEW 25,1,3,1,3,1025,RJOT 151200Z 15008KT 9999 FEW025 03/03 Q1025 RMK 1CU025 A3027=,
20180115_220000.002,0,RJOT,,,,0,20180115220000,-1,-1,-1,-1,150,-1,7,-1,-1,-1,-1,,9999,0,0,1,FEW 5,1,2,1,2,1023,RJOT 152200Z 15007KT 9999 FEW005 02/02 Q1023 RMK 2ST005 A3021=,
20180115_230000.002,0,RJOT,,,,0,20180115230000,-1,-1,-1,-1,150,-1,6,-1,-1,-1,-1,,9999,0,0,1,FEW 1,1,3,1,3,1022,RJOT 152300Z 15006KT 9999 FEW001 03/03 Q1022 RMK 1ST001 A3021=,
20180116_000000.002,0,RJOT,,,,0,20180116000000,-1,-1,-1,-1,130,-1,3,-1,-1,100,160,,200,1,1,1,VV 1,1,4,1,4,1023,RJOT 160000Z 13003KT 100V160 0200 R26///// FG VV001 04/04     Q1023 RMK A3023=,FG
20180116_010000.002,0,RJOT,,,,0,20180116010000,-1,-1,-1,-1,20,-1,3,-1,-1,340,60,,200,1,1,1,VV 1,1,5,1,5,1023,RJOT 160100Z 02003KT 340V060 0200 R26///// FG VV001 05/05     Q1023 RMK A3023=,FG
20180116_020000.002,0,RJOT,,,,0,20180116020000,-1,-1,-1,-1,40,-1,6,-1,-1,360,80,,1500,1,1,3,FEW 0   SCT 1   BKN 4,1,6,1,6,1023,RJOT 160200Z 04006KT 360V080 1500 R26///// BR FEW000 SCT001     BKN004 06/06 Q1023 RMK 1ST000 3ST001 5ST004 A3021=,BR
20180116_030000.002,0,RJOT,,,,0,20180116030000,-1,-1,-1,-1,999,-1,2,-1,-1,-1,-1,,6000,0,1,2,FEW 2   BKN 60,1,8,1,8,1021,RJOT 160300Z VRB02KT 6000 BR FEW002 BKN060 08/08 Q1021 RMK     1ST002 5SC060 A3016=,BR
20180116_040000.002,0,RJOT,,,,0,20180116040000,-1,-1,-1,-1,10,-1,7,-1,-1,-1,-1,,8000,0,0,1,FEW 5,1,10,1,8,1019,RJOT 160400Z 01007KT 8000 FEW005 10/08 Q1019 RMK 1ST005 A3011=,
20180116_050000.002,0,RJOT,,,,0,20180116050000,-1,-1,-1,-1,40,-1,4,-1,-1,350,90,,8000,0,0,1,FEW 5,1,11,1,8,1018,RJOT 160500Z 04004KT 350V090 8000 FEW005 11/08 Q1018 RMK     1ST005 A3008=,
20180116_060000.002,0,RJOT,,,,0,20180116060000,-1,-1,-1,-1,40,-1,5,-1,-1,10,90,,9999,0,0,1,FEW 30,1,11,1,8,1018,RJOT 160600Z 04005KT 010V090 9999 FEW030 11/08 Q1018 RMK     1CU030 A3006=,
20180116_070000.002,0,RJOT,,,,0,20180116070000,-1,-1,-1,-1,70,-1,5,-1,-1,40,110,,9999,0,0,1,FEW 30,1,10,1,8,1017,RJOT 160700Z 07005KT 040V110 9999 FEW030 10/08 Q1017 RMK     1CU030 A3005=,
20180116_080000.002,0,RJOT,,,,0,20180116080000,-1,-1,-1,-1,60,-1,4,-1,-1,-1,-1,,8000,0,0,1,FEW 30,1,9,1,8,1017,RJOT 160800Z 06004KT 8000 FEW030 09/08 Q1017 RMK 1CU030 A3004=,
20180116_090000.002,0,RJOT,,,,0,20180116090000,-1,-1,-1,-1,999,-1,2,-1,-1,-1,-1,,4500,0,1,1,FEW 20,1,7,1,7,1017,RJOT 160900Z VRB02KT 4500 BR FEW020 07/07 Q1017 RMK 1CU020     A3003=,BR
20180116_100000.002,0,RJOT,,,,0,20180116100000,-1,-1,-1,-1,200,-1,6,-1,-1,160,240,,5000,0,1,2,FEW 20   BKN 50,1,11,1,8,1016,RJOT 161000Z 20006KT 160V240 5000 BR FEW020 BKN050 11/08 Q1016     RMK 1CU020 5SC050 A3001=,BR
20180116_110000.004,0,RJOT,,,,0,20180116110000,-1,-1,-1,-1,20,-1,4,-1,-1,320,120,,7000,0,1,3,FEW 20   SCT 50   BKN 150,1,7,1,7,1015,RJOT 161100Z 02004KT 320V120 7000 BR FEW020 SCT050 BKN150     07/07 Q1015 RMK 1CU020 4SC050 6AC150 A2999=,BR
20180116_120000.002,0,RJOT,,,,0,20180116120000,-1,-1,-1,-1,999,-1,3,-1,-1,-1,-1,,9999,0,0,3,FEW 20   SCT 70   BKN 130,1,9,1,8,1016,RJOT 161200Z VRB03KT 9999 FEW020 SCT070 BKN130 09/08 Q1016 RMK     1CU020 4AC070 6AC130 A3000=,
20180116_220000.002,0,RJOT,,,,0,20180116220000,-1,-1,-1,-1,0,-1,0,-1,-1,-1,-1,,500,1,2,3,FEW 0   SCT 1   BKN 3,1,8,1,8,1011,RJOT 162200Z 00000KT 0500 R26///// FG -SHRA FEW000 SCT001     BKN003 08/08 Q1011 RMK 1ST000 3ST001 5ST003 A2987=,FG; - RA SH
20180116_230000.002,0,RJOT,,,,0,20180116230000,-1,-1,-1,-1,999,-1,2,-1,-1,-1,-1,,1200,1,2,3,FEW 0   SCT 2   BKN 20,1,9,1,9,1011,RJOT 162300Z VRB02KT 1200 R26///// -SHRA BR FEW000 SCT002     BKN020 09/09 Q1011 RMK 1ST000 4ST002 6CU020 A2988=,- RA SH; BR
20180117_000000.002,0,RJOT,,,,0,20180117000000,-1,-1,-1,-1,999,-1,1,-1,-1,-1,-1,,9999,0,1,3,FEW 0   SCT 30   BKN 60,1,10,1,10,1011,RJOT 170000Z VRB01KT 9999 -SHRA FEW000 SCT030 BKN060 10/10     Q1011 RMK 1ST000 3CU030 5SC060 A2987=,- RA SH
20180117_010000.002,0,RJOT,,,,0,20180117010000,-1,-1,-1,-1,10,-1,5,-1,-1,320,40,,800,1,2,3,FEW 0   SCT 1   BKN 3,1,10,1,10,1011,RJOT 170100Z 01005KT 320V040 0800 R26///// FG -SHRA FEW000     SCT001 BKN003 10/10 Q1011 RMK 1ST000 3ST001 5ST003 A2986=,FG; - RA SH
20180117_020000.004,0,RJOT,,,,0,20180117020000,-1,-1,-1,-1,100,-1,4,-1,-1,-1,-1,,2000,0,2,3,FEW 0   SCT 2   BKN 5,1,10,1,10,1009,RJOT 170200Z 10004KT 2000 -SHRA BR FEW000 SCT002 BKN005 10/10     Q1009 RMK 1ST000 3ST002 5ST005 A2982 P/FR=,- RA SH; BR
20180117_030000.002,0,RJOT,,,,0,20180117030000,-1,-1,-1,-1,260,-1,7,-1,-1,-1,-1,,200,1,1,3,FEW 0   SCT 1   BKN 2,1,10,1,10,1009,RJOT 170300Z 26007KT 0200 R26///// FG FEW000 SCT001 BKN002     10/10 Q1009 RMK 2ST000 4ST001 6ST002 A2982=,FG
20180117_040000.003,0,RJOT,,,,0,20180117040000,-1,-1,-1,-1,290,-1,5,-1,-1,260,320,,500,1,1,3,FEW 0   SCT 1   BKN 3,1,11,1,11,1009,RJOT 170400Z 29005KT 260V320 0500 R26///// FG FEW000 SCT001     BKN003 11/11 Q1009 RMK 2ST000 4ST001 6ST003 A2979=,FG
20180117_050000.003,0,RJOT,,,,0,20180117050000,-1,-1,-1,-1,230,-1,4,-1,-1,-1,-1,,4500,0,2,3,FEW 0   SCT 30   BKN 60,1,11,1,11,1008,RJOT 170500Z 23004KT 4500 -SHRA BR FEW000 SCT030 BKN060 11/11     Q1008 RMK 1ST000 4CU030 6SC060 A2979 2000SW-W=,- RA SH; BR
20180117_060000.002,0,RJOT,,,,0,20180117060000,-1,-1,-1,-1,210,-1,3,-1,-1,-1,-1,,6000,0,2,3,FEW 0   SCT 30   BKN 50,1,12,1,12,1008,RJOT 170600Z 21003KT 6000 -SHRA BR FEW000 SCT030 BKN050 12/12     Q1008 RMK 1ST000 4CU030 5SC050 A2979=,- RA SH; BR
20180117_070000.002,0,RJOT,,,,0,20180117070000,-1,-1,-1,-1,300,-1,6,-1,-1,270,330,,1500,1,2,3,FEW 0   SCT 15   BKN 30,1,11,1,11,1009,RJOT 170700Z 30006KT 270V330 1500 R26///// -SHRA BR FEW000     SCT015 BKN030 11/11 Q1009 RMK 1ST000 4CU015 6CU030 A2981=,- RA SH; BR
20180117_080000.002,0,RJOT,,,,0,20180117080000,-1,-1,-1,-1,290,-1,9,-1,-1,-1,-1,,1500,1,2,3,FEW 0   SCT 10   BKN 15,1,11,1,11,1010,RJOT 170800Z 29009KT 1500 R26///// -SHRA BR FEW000 SCT010     BKN015 11/11 Q1010 RMK 1ST000 4CU010 6CU015 A2984=,- RA SH; BR
20180117_090000.003,0,RJOT,,,,0,20180117090000,-1,-1,-1,-1,250,-1,10,-1,-1,-1,-1,,5000,0,2,3,FEW 0   SCT 15   BKN 50,1,11,1,11,1011,RJOT 170900Z 25010KT 5000 BR VCSH FEW000 SCT015 BKN050 11/11     Q1011 RMK 1ST000 3CU015 5SC050 A2987=,BR; VC SH
20180117_100000.002,0,RJOT,,,,0,20180117100000,-1,-1,-1,-1,250,-1,14,-1,-1,-1,-1,,9999,0,1,2,FEW 30   BKN 70,1,11,1,11,1012,RJOT 171000Z 25014KT 9999 VCSH FEW030 BKN070 11/11 Q1012 RMK     1CU030 6AC070 A2990=,VC SH
20180117_110000.003,0,RJOT,,,,0,20180117110000,-1,-1,-1,-1,270,-1,15,-1,-1,-1,-1,,9999,0,0,2,FEW 20   SCT 30,1,11,1,10,1014,RJOT 171100Z 27015KT 9999 FEW020 SCT030 11/10 Q1014 RMK 1CU020     3CU030 A2996=,
20180117_120000.003,0,RJOT,,,,0,20180117120000,-1,-1,-1,-1,250,-1,8,-1,-1,-1,-1,,9999,0,0,2,FEW 20   BKN 30,1,10,1,10,1015,RJOT 171200Z 25008KT 9999 FEW020 BKN030 10/10 Q1015 RMK 1CU020     5CU030 A3000=,
20180117_220000.003,0,RJOT,,,,0,20180117220000,-1,-1,-1,-1,230,-1,9,-1,-1,-1,-1,,9999,0,0,2,FEW 25   SCT -9999,1,5,1,5,1018,RJOT 172200Z 23009KT 9999 FEW025 SCT/// 05/05 Q1018 RMK 1CU025     A3006=,
20180117_230000.002,0,RJOT,,,,0,20180117230000,-1,-1,-1,-1,240,-1,7,-1,-1,-1,-1,,9999,0,0,2,FEW 25   BKN 35,1,6,1,6,1018,RJOT 172300Z 24007KT 9999 FEW025 BKN035 06/06 Q1018 RMK 1CU025     6SC035 A3008=,
20180118_000000.002,0,RJOT,,,,0,20180118000000,-1,-1,-1,-1,250,-1,8,-1,-1,-1,-1,,9999,0,0,2,FEW 25   BKN 35,1,7,1,7,1020,RJOT 180000Z 25008KT 9999 FEW025 BKN035 07/07 Q1020 RMK 1CU025     7SC035 A3012=,
20180118_010000.002,0,RJOT,,,,0,20180118010000,-1,-1,-1,-1,230,-1,7,-1,-1,-1,-1,,9999,0,0,3,FEW 20   SCT 35   BKN 45,1,8,1,8,1020,RJOT 180100Z 23007KT 9999 FEW020 SCT035 BKN045 08/08 Q1020 RMK     1CU020 3CU035 6SC045 A3014=,
20180118_020000.002,0,RJOT,,,,0,20180118020000,-1,-1,-1,-1,240,-1,8,-1,-1,200,260,,9999,0,0,1,FEW 20,1,11,1,6,1019,RJOT 180200Z 24008KT 200V260 9999 FEW020 11/06 Q1019 RMK     1CU020 A3011=,
20180118_030000.003,0,RJOT,,,,0,20180118030000,-1,-1,-1,-1,270,-1,12,-1,-1,-1,-1,,9999,0,0,1,FEW 20,1,12,1,7,1018,RJOT 180300Z 27012KT 9999 FEW020 12/07 Q1018 RMK 1CU020 A3008=,
20180118_040000.002,0,RJOT,,,,0,20180118040000,-1,-1,-1,-1,270,-1,11,-1,-1,250,310,,9999,0,0,2,FEW 25   SCT 50,1,13,1,7,1018,RJOT 180400Z 27011KT 250V310 9999 FEW025 SCT050 13/07 Q1018     RMK 1CU025 4SC050 A3007=,
20180118_050000.002,0,RJOT,,,,0,20180118050000,-1,-1,-1,-1,270,-1,12,-1,-1,-1,-1,,9999,0,0,1,SCT 35,1,13,1,7,1018,RJOT 180500Z 27012KT 9999 SCT035 13/07 Q1018 RMK 3CU035 A3006=,
20180118_060000.002,0,RJOT,,,,0,20180118060000,-1,-1,-1,-1,290,-1,11,-1,-1,-1,-1,,9999,0,0,2,FEW 20   SCT 40,1,12,1,5,1017,RJOT 180600Z 29011KT 9999 FEW020 SCT040 12/05 Q1017 RMK 1CU020     3CU040 A3005=,
20180118_070000.002,0,RJOT,,,,0,20180118070000,-1,-1,-1,-1,290,-1,10,-1,-1,-1,-1,,9999,0,0,1,FEW 25,1,12,1,6,1018,RJOT 180700Z 29010KT 9999 FEW025 12/06 Q1018 RMK 1CU025 A3007=,
20180118_080000.002,0,RJOT,,,,0,20180118080000,-1,-1,-1,-1,290,-1,8,-1,-1,-1,-1,,9999,0,0,2,FEW 25   BKN 50,1,11,1,6,1019,RJOT 180800Z 29008KT 9999 FEW025 BKN050 11/06 Q1019 RMK 1CU025     6SC050 A3009=,
20180118_090000.002,0,RJOT,,,,0,20180118090000,-1,-1,-1,-1,280,-1,7,-1,-1,-1,-1,,9999,0,0,2,FEW 25   BKN 50,1,10,1,6,1019,RJOT 180900Z 28007KT 9999 FEW025 BKN050 10/06 Q1019 RMK 1CU025     6SC050 A3011=,
20180118_100000.002,0,RJOT,,,,0,20180118100000,-1,-1,-1,-1,240,-1,5,-1,-1,-1,-1,,9999,0,0,2,FEW 25   BKN 40,1,9,1,7,1019,RJOT 181000Z 24005KT 9999 FEW025 BKN040 09/07 Q1019 RMK 1CU025     6SC040 A3011=,
20180118_110000.002,0,RJOT,,,,0,20180118110000,-1,-1,-1,-1,230,-1,6,-1,-1,-1,-1,,9999,0,0,2,FEW 25   BKN 45,1,9,1,7,1020,RJOT 181100Z 23006KT 9999 FEW025 BKN045 09/07 Q1020 RMK 1CU025     6SC045 A3013=,
20180118_120000.002,0,RJOT,,,,0,20180118120000,-1,-1,-1,-1,240,-1,7,-1,-1,-1,-1,,9999,0,0,2,FEW 25   BKN 45,1,8,1,7,1020,RJOT 181200Z 24007KT 9999 FEW025 BKN045 08/07 Q1020 RMK 1CU025     5SC045 A3014=,
20180118_220000.002,0,RJOT,,,,0,20180118220000,-1,-1,-1,-1,150,-1,8,-1,-1,-1,-1,,8000,0,0,2,FEW 20   BKN 50,1,3,1,3,1021,RJOT 182200Z 15008KT 8000 FEW020 BKN050 03/03 Q1021 RMK 1CU020     5SC050 A3015=,
20180118_230000.003,0,RJOT,,,,0,20180118230000,-1,-1,-1,-1,150,-1,7,-1,-1,-1,-1,,8000,0,0,1,SCT 30,1,4,1,4,1021,RJOT 182300Z 15007KT 8000 SCT030 04/04 Q1021 RMK 3CU030 A3017=,
20180119_000000.002,0,RJOT,,,,0,20180119000000,-1,-1,-1,-1,150,-1,5,-1,-1,-1,-1,,8000,0,0,2,FEW 30   SCT 50,1,5,1,5,1021,RJOT 190000Z 15005KT 8000 FEW030 SCT050 05/05 Q1021 RMK 1CU030     3SC050 A3017=,
20180119_010000.003,0,RJOT,,,,0,20180119010000,-1,-1,-1,-1,150,-1,3,-1,-1,-1,-1,,8000,0,0,2,FEW 30   SCT 50,1,7,1,5,1021,RJOT 190100Z 15003KT 8000 FEW030 SCT050 07/05 Q1021 RMK 1CU030     3SC050 A3016=,
20180119_020000.002,0,RJOT,,,,0,20180119020000,-1,-1,-1,-1,999,-1,2,-1,-1,-1,-1,,9000,0,0,2,FEW 30   BKN 50,1,8,1,5,1021,RJOT 190200Z VRB02KT 9000 FEW030 BKN050 08/05 Q1021 RMK 1CU030     5SC050 A3015=,
20180119_030000.002,0,RJOT,,,,0,20180119030000,-1,-1,-1,-1,50,-1,4,-1,-1,10,90,,9000,0,0,2,FEW 30   BKN 50,1,9,1,5,1020,RJOT 190300Z 05004KT 010V090 9000 FEW030 BKN050 09/05 Q1020     RMK 1CU030 6SC050 A3012=,
20180119_040000.002,0,RJOT,,,,0,20180119040000,-1,-1,-1,-1,80,-1,6,-1,-1,40,110,,7000,0,0,3,FEW 15   SCT 25   BKN 35,1,8,1,7,1019,RJOT 190400Z 08006KT 040V110 7000 FEW015 SCT025 BKN035 08/07     Q1019 RMK 1CU015 3CU025 5CU035 A3010=,
20180119_050000.003,0,RJOT,,,,0,20180119050000,-1,-1,-1,-1,70,-1,5,-1,-1,60,120,,9000,0,0,2,FEW 15   BKN 35,1,8,1,6,1018,RJOT 190500Z 07005KT 060V120 9000 FEW015 BKN035 08/06 Q1018     RMK 1CU015 6CU035 A3006=,
20180119_060000.002,0,RJOT,,,,0,20180119060000,-1,-1,-1,-1,70,-1,3,-1,-1,10,120,,9999,0,0,2,FEW 20   BKN 45,1,9,1,4,1017,RJOT 190600Z 07003KT 010V120 9999 FEW020 BKN045 09/04 Q1017     RMK 1CU020 6SC045 A3005=,
20180119_070000.002,0,RJOT,,,,0,20180119070000,-1,-1,-1,-1,70,-1,4,-1,-1,-1,-1,,9999,0,0,2,FEW 25   BKN 45,1,8,1,5,1018,RJOT 190700Z 07004KT 9999 FEW025 BKN045 08/05 Q1018 RMK 1CU025     6SC045 A3006=,
20180119_080000.002,0,RJOT,,,,0,20180119080000,-1,-1,-1,-1,140,-1,2,-1,-1,-1,-1,,9999,0,0,2,FEW 25   BKN 50,1,8,1,4,1018,RJOT 190800Z 14002KT 9999 FEW025 BKN050 08/04 Q1018 RMK 1CU025     6SC050 A3007=,
20180119_090000.003,0,RJOT,,,,0,20180119090000,-1,-1,-1,-1,150,-1,6,-1,-1,-1,-1,,9999,0,0,2,FEW 25   BKN 50,1,5,1,4,1018,RJOT 190900Z 15006KT 9999 FEW025 BKN050 05/04 Q1018 RMK 1CU025     5SC050 A3007=,
20180119_100000.002,0,RJOT,,,,0,20180119100000,-1,-1,-1,-1,150,-1,7,-1,-1,-1,-1,,9999,0,0,2,FEW 25   BKN 50,1,5,1,3,1018,RJOT 191000Z 15007KT 9999 FEW025 BKN050 05/03 Q1018 RMK 1CU025     5SC050 A3007=,
20180119_110000.002,0,RJOT,,,,0,20180119110000,-1,-1,-1,-1,150,-1,7,-1,-1,-1,-1,,9999,0,0,2,FEW 25   SCT 50,1,5,1,3,1018,RJOT 191100Z 15007KT 9999 FEW025 SCT050 05/03 Q1018 RMK 1CU025     3SC050 A3007=,
20180119_120000.003,0,RJOT,,,,0,20180119120000,-1,-1,-1,-1,160,-1,8,-1,-1,-1,-1,,9999,0,0,1,FEW 25,1,4,1,3,1018,RJOT 191200Z 16008KT 9999 FEW025 04/03 Q1018 RMK 1CU025 A3008=,
20180119_220000.002,0,RJOT,,,,0,20180119220000,-1,-1,-1,-1,999,-1,1,-1,-1,-1,-1,,6000,0,1,2,FEW 20   BKN 150,1,2,1,2,1018,RJOT 192200Z VRB01KT 6000 BR FEW020 BKN150 02/02 Q1018 RMK     2CU020 6AC150 A3008=,BR
20180119_230000.002,0,RJOT,,,,0,20180119230000,-1,-1,-1,-1,160,-1,5,-1,-1,130,200,,6000,0,1,1,FEW 20,1,5,1,4,1019,RJOT 192300Z 16005KT 130V200 6000 BR FEW020 05/04 Q1019 RMK     1CU020 A3010=,BR
20180120_000000.002,0,RJOT,,,,0,20180120000000,-1,-1,-1,-1,250,-1,5,-1,-1,-1,-1,,6000,0,0,1,FEW 25,1,6,1,5,1019,RJOT 200000Z 25005KT 6000 FEW025 06/05 Q1019 RMK 1CU025 A3010=,
20180120_010000.002,0,RJOT,,,,0,20180120010000,-1,-1,-1,-1,270,-1,8,-1,-1,-1,-1,,6000,0,0,1,FEW 25,1,8,1,6,1019,RJOT 200100Z 27008KT 6000 FEW025 08/06 Q1019 RMK 1CU025 A3010=,
20180120_020000.003,0,RJOT,,,,0,20180120020000,-1,-1,-1,-1,300,-1,5,-1,-1,-1,-1,,9999,0,0,2,FEW 20   SCT 25,1,9,1,4,1018,RJOT 200200Z 30005KT 9999 FEW020 SCT025 09/04 Q1018 RMK 1CU020     3CU025 A3009=,
20180120_030000.002,0,RJOT,,,,0,20180120030000,-1,-1,-1,-1,300,-1,9,-1,-1,-1,-1,,9999,0,0,2,FEW 25   SCT 35,1,9,1,3,1019,RJOT 200300Z 30009KT 9999 FEW025 SCT035 09/03 Q1019 RMK 1CU025     3CU035 A3010=,
20180120_040000.002,0,RJOT,,,,0,20180120040000,-1,-1,-1,-1,280,-1,12,-1,-1,250,310,,9999,0,0,1,FEW 30,1,10,1,4,1019,RJOT 200400Z 28012KT 250V310 9999 FEW030 10/04 Q1019 RMK     1CU030 A3009=,
20180120_050000.002,0,RJOT,,,,0,20180120050000,-1,-1,-1,-1,290,-1,9,-1,-1,-1,-1,,9999,0,0,1,FEW 30,1,10,1,4,1018,RJOT 200500Z 29009KT 9999 FEW030 10/04 Q1018 RMK 1CU030 A3006=,
20180120_060000.002,0,RJOT,,,,0,20180120060000,-1,-1,-1,-1,300,-1,7,-1,-1,260,330,,9999,0,0,1,FEW 30,1,10,1,4,1017,RJOT 200600Z 30007KT 260V330 9999 FEW030 10/04 Q1017 RMK     1CU030 A3003=,
20180120_070000.002,0,RJOT,,,,0,20180120070000,-1,-1,-1,-1,300,-1,8,-1,-1,-1,-1,,9999,0,0,1,FEW 30,1,10,1,2,1017,RJOT 200700Z 30008KT 9999 FEW030 10/02 Q1017 RMK 1CU030 A3005=,
20180120_080000.002,0,RJOT,,,,0,20180120080000,-1,-1,-1,-1,280,-1,7,-1,-1,-1,-1,,9999,0,0,2,FEW 30   BKN -9999,1,7,1,2,1018,RJOT 200800Z 28007KT 9999 FEW030 BKN/// 07/02 Q1018 RMK 1CU030     A3007=,
20180120_090000.002,0,RJOT,,,,0,20180120090000,-1,-1,-1,-1,210,-1,5,-1,-1,-1,-1,,9999,0,0,2,FEW 30   BKN -9999,1,7,1,2,1018,RJOT 200900Z 21005KT 9999 FEW030 BKN/// 07/02 Q1018 RMK 1CU030     A3009=,
20180120_100000.002,0,RJOT,,,,0,20180120100000,-1,-1,-1,-1,200,-1,4,-1,-1,-1,-1,,9999,0,0,2,FEW 30   BKN -9999,1,7,1,2,1018,RJOT 201000Z 20004KT 9999 FEW030 BKN/// 07/02 Q1018 RMK 1CU030     A3009=,
20180120_110000.002,0,RJOT,,,,0,20180120110000,-1,-1,-1,-1,150,-1,7,-1,-1,-1,-1,,9999,0,0,2,FEW 30   SCT -9999,1,6,1,2,1019,RJOT 201100Z 15007KT 9999 FEW030 SCT/// 06/02 Q1019 RMK 1CU030     A3010=,
20180120_120000.002,0,RJOT,,,,0,20180120120000,-1,-1,-1,-1,160,-1,5,-1,-1,-1,-1,,9999,0,0,2,FEW 30   SCT -9999,1,4,1,2,1019,RJOT 201200Z 16005KT 9999 FEW030 SCT/// 04/02 Q1019 RMK 1CU030     A3010=,
20180120_220000.002,0,RJOT,,,,0,20180120220000,-1,-1,-1,-1,220,-1,5,-1,-1,-1,-1,,9999,0,0,2,FEW 25   BKN 45,1,5,1,3,1019,RJOT 202200Z 22005KT 9999 FEW025 BKN045 05/03 Q1019 RMK 1CU025     5SC045 A3012=,
20180120_230000.002,0,RJOT,,,,0,20180120230000,-1,-1,-1,-1,220,-1,6,-1,-1,-1,-1,,9999,0,0,2,FEW 25   BKN 50,1,5,1,3,1020,RJOT 202300Z 22006KT 9999 FEW025 BKN050 05/03 Q1020 RMK 1CU025     6SC050 A3013=,
20180121_000000.002,0,RJOT,,,,0,20180121000000,-1,-1,-1,-1,250,-1,5,-1,-1,-1,-1,,9999,0,0,2,FEW 25   SCT 50,1,6,1,3,1021,RJOT 210000Z 25005KT 9999 FEW025 SCT050 06/03 Q1021 RMK 1CU025     3SC050 A3015=,
20180121_010000.002,0,RJOT,,,,0,20180121010000,-1,-1,-1,-1,250,-1,8,-1,-1,-1,-1,,9999,0,0,1,FEW 25,1,8,1,2,1021,RJOT 210100Z 25008KT 9999 FEW025 08/02 Q1021 RMK 1CU025 A3015=,
20180121_020000.002,0,RJOT,,,,0,20180121020000,-1,-1,-1,-1,280,-1,10,-1,-1,250,320,,9999,0,0,1,FEW 25,1,9,1,3,1020,RJOT 210200Z 28010KT 250V320 9999 FEW025 09/03 Q1020 RMK     1CU025 A3013=,
20180121_030000.002,0,RJOT,,,,0,20180121030000,-1,-1,-1,-1,290,-1,14,-1,-1,-1,-1,,9999,0,0,2,FEW 25   SCT 40,1,9,1,2,1020,RJOT 210300Z 29014KT 9999 FEW025 SCT040 09/02 Q1020 RMK 1CU025     3CU040 A3014=,
20180121_040000.003,0,RJOT,,,,0,20180121040000,-1,-1,-1,-1,290,-1,13,-1,-1,250,310,,9999,0,0,1,FEW 40,1,9,1,1,1019,RJOT 210400Z 29013KT 250V310 9999 FEW040 09/01 Q1019 RMK     1CU040 A3012=,
20180121_050000.002,0,RJOT,,,,0,20180121050000,-1,-1,-1,-1,280,-1,11,-1,-1,250,320,,9999,0,0,1,FEW 40,1,10,1,1,1018,RJOT 210500Z 28011KT 250V320 9999 FEW040 10/01 Q1018 RMK     1CU040 A3009=,
20180121_060000.002,0,RJOT,,,,0,20180121060000,-1,-1,-1,-1,280,-1,10,-1,-1,-1,-1,,9999,0,0,2,FEW 20   SCT 40,1,10,1,1,1019,RJOT 210600Z 28010KT 9999 FEW020 SCT040 10/01 Q1019 RMK 1CU020     4CU040 A3010=,
20180121_070000.002,0,RJOT,,,,0,20180121070000,-1,-1,-1,-1,290,-1,11,-1,-1,260,330,,9999,0,0,2,FEW 40   BKN -9999,1,9,1,1,1019,RJOT 210700Z 29011KT 260V330 9999 FEW040 BKN/// 09/01 Q1019     RMK 2CU040 A3010=,
20180121_080000.002,0,RJOT,,,,0,20180121080000,-1,-1,-1,-1,280,-1,5,-1,-1,-1,-1,,9999,0,0,2,FEW 40   SCT -9999,1,7,1,2,1019,RJOT 210800Z 28005KT 9999 FEW040 SCT/// 07/02 Q1019 RMK 1CU040     A3011=,
20180121_090000.002,0,RJOT,,,,0,20180121090000,-1,-1,-1,-1,230,-1,3,-1,-1,-1,-1,,9999,0,0,2,FEW 40   BKN -9999,1,6,1,2,1020,RJOT 210900Z 23003KT 9999 FEW040 BKN/// 06/02 Q1020 RMK 1CU040     A3012=,
20180121_100000.002,0,RJOT,,,,0,20180121100000,-1,-1,-1,-1,999,-1,2,-1,-1,-1,-1,,9999,0,0,2,FEW 40   BKN -9999,1,6,1,2,1020,RJOT 211000Z VRB02KT 9999 FEW040 BKN/// 06/02 Q1020 RMK 1CU040     A3014=,
20180121_110000.002,0,RJOT,,,,0,20180121110000,-1,-1,-1,-1,140,-1,5,-1,-1,110,170,,9999,0,0,2,FEW 40   BKN -9999,1,6,1,2,1021,RJOT 211100Z 14005KT 110V170 9999 FEW040 BKN/// 06/02 Q1021     RMK 1CU040 A3015=,
20180121_120000.002,0,RJOT,,,,0,20180121120000,-1,-1,-1,-1,140,-1,5,-1,-1,-1,-1,,9999,0,0,3,FEW 30   SCT 150   BKN 170,1,5,1,1,1020,RJOT 211200Z 14005KT 9999 FEW030 SCT150 BKN170 05/01 Q1020 RMK     1CU030 3AC150 5AC170 A3014=,
20180121_220000.002,0,RJOT,,,,0,20180121220000,-1,-1,-1,-1,140,-1,4,-1,-1,-1,-1,,9999,0,0,3,FEW 20   SCT 50   BKN 80,1,3,1,1,1015,RJOT 212200Z 14004KT 9999 FEW020 SCT050 BKN080 03/01 Q1015 RMK     1CU020 3SC050 5AC080 A3000=,
20180121_230000.002,0,RJOT,,,,0,20180121230000,-1,-1,-1,-1,90,-1,4,-1,-1,-1,-1,,9999,0,1,3,FEW 20   SCT 50   BKN 80,1,4,1,3,1016,RJOT 212300Z 09004KT 9999 VCSH FEW020 SCT050 BKN080 04/03     Q1016 RMK 1CU020 3SC050 6AC080 A3001=,VC SH
20180122_000000.002,0,RJOT,,,,0,20180122000000,-1,-1,-1,-1,70,-1,5,-1,-1,-1,-1,,9999,0,1,3,FEW 20   SCT 50   BKN 80,1,4,1,3,1015,RJOT 220000Z 07005KT 9999 -RA FEW020 SCT050 BKN080 04/03 Q1015     RMK 1CU020 4SC050 6AC080 A3000=,- RA
20180122_010000.002,0,RJOT,,,,0,20180122010000,-1,-1,-1,-1,80,-1,5,-1,-1,50,120,,9999,0,1,3,FEW 10   SCT 30   BKN 45,1,5,1,4,1015,RJOT 220100Z 08005KT 050V120 9999 VCSH FEW010 SCT030 BKN045     05/04 Q1015 RMK 1ST010 3CU030 7SC045 A2999=,VC SH
20180122_020000.002,0,RJOT,,,,0,20180122020000,-1,-1,-1,-1,110,-1,6,-1,-1,80,150,,9999,0,1,3,FEW 5   SCT 15   BKN 35,1,4,1,3,1014,RJOT 220200Z 11006KT 080V150 9999 -RASN FEW005 SCT015 BKN035     04/03 Q1014 RMK 1ST005 4ST015 7SC035 A2995=,- RA SN
20180122_030000.002,0,RJOT,,,,0,20180122030000,-1,-1,-1,-1,140,-1,3,-1,-1,40,220,,9999,0,1,3,FEW 5   SCT 10   BKN 15,1,2,1,2,1013,RJOT 220300Z 14003KT 040V220 9999 -RASN FEW005 SCT010 BKN015     02/02 Q1013 RMK 1ST005 3ST010 5ST015 A2992=,- RA SN
20180122_040000.002,0,RJOT,,,,0,20180122040000,-1,-1,-1,-1,100,-1,3,-1,-1,-1,-1,,8000,0,1,3,FEW 5   SCT 10   BKN 15,1,2,1,2,1011,RJOT 220400Z 10003KT 8000 -SNRA FEW005 SCT010 BKN015 02/02     Q1011 RMK 1ST005 3ST010 5ST015 A2986=,- SN RA
20180122_050000.002,0,RJOT,,,,0,20180122050000,-1,-1,-1,-1,60,-1,6,-1,-1,-1,-1,,8000,0,1,3,FEW 2   SCT 5   BKN 15,1,2,1,2,1010,RJOT 220500Z 06006KT 8000 -SNRA FEW002 SCT005 BKN015 02/02     Q1010 RMK 1ST002 3ST005 5ST015 A2984=,- SN RA
20180122_060000.003,0,RJOT,,,,0,20180122060000,-1,-1,-1,-1,30,-1,6,-1,-1,-1,-1,,8000,0,1,3,FEW 2   SCT 5   BKN 8,1,2,1,2,1010,RJOT 220600Z 03006KT 8000 -SNRA FEW002 SCT005 BKN008 02/02     Q1010 RMK 1ST002 3ST005 5ST008 A2984=,- SN RA
20180122_070000.002,0,RJOT,,,,0,20180122070000,-1,-1,-1,-1,340,-1,4,-1,-1,-1,-1,,2000,0,1,3,FEW 1   SCT 2   BKN 3,1,1,1,1,1011,RJOT 220700Z 34004KT 2000 -SN FEW001 SCT002 BKN003 01/01 Q1011     RMK 1ST001 3ST002 5ST003 A2987=,- SN
20180122_080000.003,0,RJOT,,,,0,20180122080000,-1,-1,-1,-1,240,-1,5,-1,-1,-1,-1,,1200,1,2,3,FEW 0   SCT 1   BKN 2,1,1,1,1,1012,RJOT 220800Z 24005KT 1200 R26///// -SN BR FEW000 SCT001 BKN002     01/01 Q1012 RMK 1ST000 3ST001 5ST002 A2989=,- SN; BR
20180122_090000.002,0,RJOT,,,,0,20180122090000,-1,-1,-1,-1,230,-1,5,-1,-1,-1,-1,,8000,0,0,1,FEW 3,1,1,1,1,1012,RJOT 220900Z 23005KT 8000 FEW003 01/01 Q1012 RMK 1ST003 A2988=,
20180122_100000.002,0,RJOT,,,,0,20180122100000,-1,-1,-1,-1,260,-1,7,-1,-1,-1,-1,,7000,0,0,1,FEW 3,-1,0,-1,0,1012,RJOT 221000Z 26007KT 7000 FEW003 M00/M00 Q1012 RMK 1ST003     A2991=,
20180122_110000.003,0,RJOT,,,,0,20180122110000,-1,-1,-1,-1,280,-1,7,-1,-1,-1,-1,,3000,0,1,2,FEW 1   SCT 3,1,0,1,0,1012,RJOT 221100Z 28007KT 3000 BR FEW001 SCT003 00/00 Q1012 RMK     1ST001 3ST003 A2991=,BR
20180122_120000.002,0,RJOT,,,,0,20180122120000,-1,-1,-1,-1,230,-1,7,-1,-1,-1,-1,,9999,0,0,2,FEW 2   SCT 20,1,1,1,1,1012,RJOT 221200Z 23007KT 9999 FEW002 SCT020 01/01 Q1012 RMK 1ST002     3CU020 A2990=,
20180122_220000.002,0,RJOT,,,,0,20180122220000,-1,-1,-1,-1,250,-1,14,-1,-1,-1,-1,,9999,0,1,3,FEW 15   SCT 30   BKN 50,1,6,1,5,1010,RJOT 222200Z 25014KT 9999 VCSH FEW015 SCT030 BKN050 06/05     Q1010 RMK 1CU015 4CU030 6SC050 A2984=,VC SH
20180122_230000.003,0,RJOT,,,,0,20180122230000,-1,-1,-1,-1,260,-1,21,-1,34,-1,-1,,9999,0,1,3,FEW 15   SCT 30   BKN 50,1,7,1,4,1011,RJOT 222300Z 26021G34KT 9999 VCSH FEW015 SCT030 BKN050 07/04     Q1011 RMK 1CU015 4CU030 6SC050 A2986=,VC SH
20180123_000000.002,0,RJOT,,,,0,20180123000000,-1,-1,-1,-1,260,-1,17,-1,27,-1,-1,,9999,0,0,2,FEW 20   SCT 35,1,8,1,3,1011,RJOT 230000Z 26017G27KT 9999 FEW020 SCT035 08/03 Q1011 RMK     1CU020 3CU035 A2988=,
20180123_010000.002,0,RJOT,,,,0,20180123010000,-1,-1,-1,-1,260,-1,23,-1,-1,-1,-1,,9999,0,0,2,FEW 25   SCT 40,1,8,1,2,1012,RJOT 230100Z 26023KT 9999 FEW025 SCT040 08/02 Q1012 RMK 1CU025     3CU040 A2989=,
20180123_020000.002,0,RJOT,,,,0,20180123020000,-1,-1,-1,-1,260,-1,23,-1,-1,-1,-1,,9999,0,0,2,FEW 25   BKN 40,1,7,1,2,1012,RJOT 230200Z 26023KT 9999 FEW025 BKN040 07/02 Q1012 RMK 1CU025     5CU040 A2989=,
20180123_030000.003,0,RJOT,,,,0,20180123030000,-1,-1,-1,-1,260,-1,24,-1,-1,-1,-1,,9999,0,0,2,FEW 20   BKN 40,1,7,-1,0,1011,RJOT 230300Z 26024KT 9999 FEW020 BKN040 07/M00 Q1011 RMK     1CU020 6CU040 A2987 MOD ICE OBS AT 0238Z FM 30NM TO 15NM           W KTE BTN 11000FT AND 5000FT IN DES A320=,
20180123_040000.003,0,RJOT,,,,0,20180123040000,-1,-1,-1,-1,290,-1,19,-1,-1,-1,-1,,9999,0,1,3,FEW 8   SCT 20   BKN 30,1,4,1,2,1012,RJOT 230400Z 29019KT 9999 -SHRASN FEW008 SCT020 BKN030 04/02     Q1012 RMK 1ST008 3CU020 5CU030 A2989=,- RA SN SH
20180123_050000.002,0,RJOT,,,,0,20180123050000,-1,-1,-1,-1,270,-1,22,-1,32,-1,-1,,9999,0,1,3,FEW 15   SCT 50   BKN 80,1,5,-1,0,1012,RJOT 230500Z 27022G32KT 9999 VCSH FEW015 SCT050 BKN080 05/M00     Q1012 RMK 1CU015 3SC050 5AC080 A2989=,VC SH
20180123_060000.003,0,RJOT,,,,0,20180123060000,-1,-1,-1,-1,250,-1,21,-1,31,-1,-1,,9999,0,0,2,FEW 25   BKN 40,1,6,1,1,1012,RJOT 230600Z 25021G31KT 9999 FEW025 BKN040 06/01 Q1012 RMK     1CU025 5CU040 A2989=,
20180123_070000.002,0,RJOT,,,,0,20180123070000,-1,-1,-1,-1,300,-1,14,-1,-1,-1,-1,,7000,0,2,3,FEW 7   SCT 15   BKN 20,1,2,1,1,1013,RJOT 230700Z 30014KT 7000 -SHSN BR FEW007 SCT015 BKN020 02/01     Q1013 RMK 1ST007 3CU015 5CU020 A2994=,- SN SH; BR
20180123_080000.002,0,RJOT,,,,0,20180123080000,-1,-1,-1,-1,290,-1,10,-1,-1,-1,-1,,9999,0,0,3,FEW 15   SCT 30   BKN 60,1,2,-1,1,1014,RJOT 230800Z 29010KT 9999 FEW015 SCT030 BKN060 02/M01 Q1014     RMK 1CU015 3CU030 5SC060 A2995=,
20180123_090000.002,0,RJOT,,,,0,20180123090000,-1,-1,-1,-1,300,-1,12,-1,-1,-1,-1,,9999,0,0,3,FEW 20   SCT 30   BKN 50,1,2,-1,3,1014,RJOT 230900Z 30012KT 9999 FEW020 SCT030 BKN050 02/M03 Q1014     RMK 1CU020 3CU030 5SC050 A2995 MOD TURB OBS AT 0845Z OVER           TAKMA 9000FT B763=,
20180123_100000.002,0,RJOT,,,,0,20180123100000,-1,-1,-1,-1,300,-1,14,-1,-1,-1,-1,,9999,0,0,3,FEW 20   SCT 30   BKN 50,1,1,-1,5,1015,RJOT 231000Z 30014KT 9999 FEW020 SCT030 BKN050 01/M05 Q1015     RMK 1CU020 3CU030 5SC050 A2997=,
20180123_110000.002,0,RJOT,,,,0,20180123110000,-1,-1,-1,-1,290,-1,11,-1,-1,-1,-1,,9999,0,0,2,FEW 25   SCT 50,-1,0,-1,6,1015,RJOT 231100Z 29011KT 9999 FEW025 SCT050 M00/M06 Q1015 RMK     1CU025 3SC050 A2999=,
20180123_120000.002,0,RJOT,,,,0,20180123120000,-1,-1,-1,-1,290,-1,7,-1,-1,-1,-1,,9999,0,0,2,FEW 25   SCT 50,-1,0,-1,6,1016,RJOT 231200Z 29007KT 9999 FEW025 SCT050 M00/M06 Q1016 RMK     1CU025 3SC050 A3000=,
20180123_220000.002,0,RJOT,,,,0,20180123220000,-1,-1,-1,-1,300,-1,12,-1,-1,-1,-1,,9999,0,0,2,FEW 25   SCT 40,-1,2,-1,7,1016,RJOT 232200Z 30012KT 9999 FEW025 SCT040 M02/M07 Q1016 RMK     1CU025 3CU040 A3003=,
20180123_230000.002,0,RJOT,,,,0,20180123230000,-1,-1,-1,-1,290,-1,13,-1,-1,-1,-1,,9999,0,0,1,FEW 25,-1,2,-1,7,1016,RJOT 232300Z 29013KT 9999 FEW025 M02/M07 Q1016 RMK 1CU025     A3002=,
20180124_000000.002,0,RJOT,,,,0,20180124000000,-1,-1,-1,-1,290,-1,19,-1,-1,-1,-1,,9999,0,0,2,FEW 25   SCT 35,-1,1,-1,7,1017,RJOT 240000Z 29019KT 9999 FEW025 SCT035 M01/M07 Q1017 RMK     1CU025 3CU035 A3003=,
20180124_010000.003,0,RJOT,,,,0,20180124010000,-1,-1,-1,-1,300,-1,18,-1,29,-1,-1,,9999,0,0,2,FEW 25   SCT 35,-1,1,-1,7,1017,RJOT 240100Z 30018G29KT 9999 FEW025 SCT035 M01/M07 Q1017 RMK     1CU025 3CU035 A3004=,
20180124_020000.002,0,RJOT,,,,0,20180124020000,-1,-1,-1,-1,290,-1,21,-1,-1,-1,-1,,9999,0,0,2,FEW 25   SCT 40,1,1,-1,7,1016,RJOT 240200Z 29021KT 9999 FEW025 SCT040 01/M07 Q1016 RMK     1CU025 3CU040 A3001=,
20180124_030000.002,0,RJOT,,,,0,20180124030000,-1,-1,-1,-1,300,-1,18,-1,29,-1,-1,,9999,0,1,3,FEW 20   SCT 30   BKN 40,-1,0,-1,7,1015,RJOT 240300Z 30018G29KT 9999 -SHSN FEW020 SCT030 BKN040     M00/M07 Q1015 RMK 1CU020 3CU030 5CU040 A2999=,- SN SH
20180124_040000.002,0,RJOT,,,,0,20180124040000,-1,-1,-1,-1,290,-1,21,-1,-1,-1,-1,,9999,0,1,2,FEW 20   SCT 30,1,0,-1,6,1015,RJOT 240400Z 29021KT 9999 VCSH FEW020 SCT030 00/M06 Q1015 RMK     1CU020 3CU030 A2998=,VC SH
20180124_050000.002,0,RJOT,,,,0,20180124050000,-1,-1,-1,-1,290,-1,22,-1,-1,-1,-1,,9999,0,1,2,FEW 20   BKN 40,1,0,-1,10,1015,RJOT 240500Z 29022KT 9999 VCSH FEW020 BKN040 00/M10 Q1015 RMK     1CU020 5CU040 A2998=,VC SH
20180124_060000.002,0,RJOT,,,,0,20180124060000,-1,-1,-1,-1,280,-1,25,-1,-1,-1,-1,,9999,0,1,2,FEW 20   SCT 40,1,0,-1,11,1015,RJOT 240600Z 28025KT 9999 VCSH FEW020 SCT040 00/M11 Q1015 RMK     1CU020 3CU040 A2999=,VC SH
20180124_070000.002,0,RJOT,,,,0,20180124070000,-1,-1,-1,-1,310,-1,21,-1,-1,-1,-1,,9999,0,1,2,FEW 20   BKN 40,-1,2,-1,10,1016,RJOT 240700Z 31021KT 9999 -SHSN FEW020 BKN040 M02/M10 Q1016     RMK 1CU020 6CU040 A3002=,- SN SH
20180124_080000.002,0,RJOT,,,,0,20180124080000,-1,-1,-1,-1,300,-1,19,-1,-1,-1,-1,,9999,0,1,1,FEW 20,-1,3,-1,9,1017,RJOT 240800Z 30019KT 9999 VCSH FEW020 M03/M09 Q1017 RMK 2CU020     A3004=,VC SH
20180124_090000.003,0,RJOT,,,,0,20180124090000,-1,-1,-1,-1,300,-1,20,-1,-1,-1,-1,,9999,0,1,1,FEW 30,-1,3,-1,10,1017,RJOT 240900Z 30020KT 9999 VCSH FEW030 M03/M10 Q1017 RMK 2CU030     A3005=,VC SH
20180124_100000.002,0,RJOT,,,,0,20180124100000,-1,-1,-1,-1,290,-1,15,-1,-1,-1,-1,,9999,0,0,1,FEW 30,-1,4,-1,8,1018,RJOT 241000Z 29015KT 9999 FEW030 M04/M08 Q1018 RMK 1CU030     A3007=,
20180124_110000.002,0,RJOT,,,,0,20180124110000,-1,-1,-1,-1,290,-1,14,-1,-1,-1,-1,,9999,0,0,1,FEW 30,-1,4,-1,9,1018,RJOT 241100Z 29014KT 9999 FEW030 M04/M09 Q1018 RMK 1CU030     A3007=,
20180124_120000.002,0,RJOT,,,,0,20180124120000,-1,-1,-1,-1,290,-1,16,-1,-1,-1,-1,,9999,0,0,1,FEW 30,-1,4,-1,9,1018,RJOT 241200Z 29016KT 9999 FEW030 M04/M09 Q1018 RMK 1CU030     A3007=,
20180124_220000.002,0,RJOT,,,,0,20180124220000,-1,-1,-1,-1,270,-1,11,-1,-1,-1,-1,,9999,0,0,1,FEW 20,-1,4,-1,7,1019,RJOT 242200Z 27011KT 9999 FEW020 M04/M07 Q1019 RMK 1CU020     A3009=,
20180124_230000.002,0,RJOT,,,,0,20180124230000,-1,-1,-1,-1,270,-1,7,-1,-1,-1,-1,,9999,0,0,1,FEW 20,-1,2,-1,6,1019,RJOT 242300Z 27007KT 9999 FEW020 M02/M06 Q1019 RMK 1CU020     A3011=,
20180125_000000.002,0,RJOT,,,,0,20180125000000,-1,-1,-1,-1,280,-1,13,-1,-1,-1,-1,,9999,0,0,2,FEW 20   SCT 30,-1,1,-1,6,1019,RJOT 250000Z 28013KT 9999 FEW020 SCT030 M01/M06 Q1019 RMK     1CU020 3CU030 A3011=,
20180125_010000.002,0,RJOT,,,,0,20180125010000,-1,-1,-1,-1,280,-1,16,-1,-1,-1,-1,,9999,0,0,1,FEW 20,-1,0,-1,7,1020,RJOT 250100Z 28016KT 9999 FEW020 M00/M07 Q1020 RMK 1CU020     A3012=,
20180125_020000.003,0,RJOT,,,,0,20180125020000,-1,-1,-1,-1,290,-1,15,-1,-1,250,310,,9999,0,0,2,FEW 20   SCT 30,1,2,-1,6,1019,RJOT 250200Z 29015KT 250V310 9999 FEW020 SCT030 02/M06 Q1019     RMK 1CU020 3CU030 A3010=,
20180125_030000.002,0,RJOT,,,,0,20180125030000,-1,-1,-1,-1,290,-1,15,-1,-1,-1,-1,,9999,0,0,2,FEW 20   SCT 35,1,2,-1,6,1018,RJOT 250300Z 29015KT 9999 FEW020 SCT035 02/M06 Q1018 RMK     1CU020 3CU035 A3006=,
20180125_040000.002,0,RJOT,,,,0,20180125040000,-1,-1,-1,-1,290,-1,16,-1,-1,-1,-1,,9999,0,0,2,FEW 20   SCT 35,1,3,-1,5,1017,RJOT 250400Z 29016KT 9999 FEW020 SCT035 03/M05 Q1017 RMK     1CU020 3CU035 A3004=,
20180125_050000.002,0,RJOT,,,,0,20180125050000,-1,-1,-1,-1,280,-1,16,-1,-1,-1,-1,,9999,0,1,2,FEW 20   SCT 35,1,1,-1,6,1016,RJOT 250500Z 28016KT 9999 VCSH FEW020 SCT035 01/M06 Q1016 RMK     1CU020 3CU035 A3003=,VC SH
20180125_060000.002,0,RJOT,,,,0,20180125060000,-1,-1,-1,-1,290,-1,16,-1,-1,-1,-1,,9999,0,1,2,FEW 20   BKN 40,1,2,-1,6,1016,RJOT 250600Z 29016KT 9999 -SHSN FEW020 BKN040 02/M06 Q1016 RMK     1CU020 5CU040 A3003=,- SN SH
20180125_070000.002,0,RJOT,,,,0,20180125070000,-1,-1,-1,-1,270,-1,13,-1,-1,-1,-1,,9999,0,1,2,FEW 20   BKN 40,1,2,-1,5,1016,RJOT 250700Z 27013KT 9999 VCSH FEW020 BKN040 02/M05 Q1016 RMK     2CU020 6CU040 A3002=,VC SH
20180125_080000.002,0,RJOT,,,,0,20180125080000,-1,-1,-1,-1,290,-1,15,-1,-1,-1,-1,,9999,0,1,2,FEW 20   BKN 40,1,1,-1,5,1016,RJOT 250800Z 29015KT 9999 VCSH FEW020 BKN040 01/M05 Q1016 RMK     1CU020 5CU040 A3002=,VC SH
20180125_090000.002,0,RJOT,,,,0,20180125090000,-1,-1,-1,-1,290,-1,9,-1,-1,-1,-1,,9999,0,0,1,FEW 20,1,0,-1,5,1017,RJOT 250900Z 29009KT 9999 FEW020 00/M05 Q1017 RMK 1CU020     A3003=,
20180125_100000.003,0,RJOT,,,,0,20180125100000,-1,-1,-1,-1,280,-1,8,-1,-1,-1,-1,,9999,0,0,2,FEW 20   SCT 35,-1,0,-1,5,1017,RJOT 251000Z 28008KT 9999 FEW020 SCT035 M00/M05 Q1017 RMK     1CU020 3CU035 A3004=,
20180125_110000.003,0,RJOT,,,,0,20180125110000,-1,-1,-1,-1,280,-1,9,-1,-1,-1,-1,,9999,0,0,1,FEW 20,-1,1,-1,6,1017,RJOT 251100Z 28009KT 9999 FEW020 M01/M06 Q1017 RMK 1CU020     A3003=,
20180125_120000.002,0,RJOT,,,,0,20180125120000,-1,-1,-1,-1,280,-1,12,-1,-1,-1,-1,,9999,0,0,3,FEW 20   SCT 170   BKN -9999,-1,1,-1,6,1016,RJOT 251200Z 28012KT 9999 FEW020 SCT170 BKN/// M01/M06 Q1016     RMK 1CU020 3AC170 A3003=,
20180125_220000.002,0,RJOT,,,,0,20180125220000,-1,-1,-1,-1,280,-1,13,-1,-1,-1,-1,,9999,0,0,2,FEW 25   SCT 40,-1,0,-1,6,1014,RJOT 252200Z 28013KT 9999 FEW025 SCT040 M00/M06 Q1014 RMK     1CU025 4CU040 A2997=,
20180125_230000.002,0,RJOT,,,,0,20180125230000,-1,-1,-1,-1,280,-1,14,-1,-1,-1,-1,,9999,0,1,2,FEW 25   BKN 40,1,0,-1,7,1015,RJOT 252300Z 28014KT 9999 VCSH FEW025 BKN040 00/M07 Q1015 RMK     1CU025 6CU040 A2997=,VC SH
20180126_000000.002,0,RJOT,,,,0,20180126000000,-1,-1,-1,-1,290,-1,15,-1,-1,-1,-1,,9999,0,0,2,FEW 25   BKN 35,1,1,-1,6,1015,RJOT 260000Z 29015KT 9999 FEW025 BKN035 01/M06 Q1015 RMK     1CU025 6CU035 A2999=,
20180126_010000.002,0,RJOT,,,,0,20180126010000,-1,-1,-1,-1,290,-1,18,-1,-1,-1,-1,,9999,0,0,2,FEW 20   SCT 30,1,1,-1,5,1016,RJOT 260100Z 29018KT 9999 FEW020 SCT030 01/M05 Q1016 RMK     1CU020 4CU030 A3000=,
20180126_020000.002,0,RJOT,,,,0,20180126020000,-1,-1,-1,-1,290,-1,21,-1,-1,-1,-1,,9999,0,0,2,FEW 20   SCT 30,1,2,-1,6,1015,RJOT 260200Z 29021KT 9999 FEW020 SCT030 02/M06 Q1015 RMK     1CU020 3CU030 A3000=,
20180126_030000.002,0,RJOT,,,,0,20180126030000,-1,-1,-1,-1,280,-1,18,-1,-1,-1,-1,,9999,0,1,2,FEW 20   SCT 35,1,3,-1,6,1015,RJOT 260300Z 28018KT 9999 VCSH FEW020 SCT035 03/M06 Q1015 RMK     1CU020 4CU035 A2997=,VC SH
20180126_040000.002,0,RJOT,,,,0,20180126040000,-1,-1,-1,-1,280,-1,17,-1,-1,-1,-1,,9999,0,1,2,FEW 20   SCT 35,1,2,-1,5,1014,RJOT 260400Z 28017KT 9999 -SHSN FEW020 SCT035 02/M05 Q1014 RMK     1CU020 3CU035 A2995=,- SN SH
20180126_050000.002,0,RJOT,,,,0,20180126050000,-1,-1,-1,-1,290,-1,16,-1,-1,260,320,,9999,0,1,2,FEW 20   BKN 35,1,2,-1,6,1014,RJOT 260500Z 29016KT 260V320 9999 VCSH FEW020 BKN035 02/M06     Q1014 RMK 1CU020 6CU035 A2995=,VC SH
20180126_060000.002,0,RJOT,,,,0,20180126060000,-1,-1,-1,-1,290,-1,20,-1,-1,-1,-1,,9999,0,1,2,FEW 20   BKN 35,1,2,-1,6,1014,RJOT 260600Z 29020KT 9999 VCSH FEW020 BKN035 02/M06 Q1014 RMK     1CU020 6CU035 A2995=,VC SH
20180126_070000.002,0,RJOT,,,,0,20180126070000,-1,-1,-1,-1,290,-1,18,-1,-1,-1,-1,,9999,0,1,2,FEW 20   BKN 35,1,1,-1,4,1015,RJOT 260700Z 29018KT 9999 -SHSN FEW020 BKN035 01/M04 Q1015 RMK     1CU020 6CU035 A2997=,- SN SH
20180126_080000.003,0,RJOT,,,,0,20180126080000,-1,-1,-1,-1,300,-1,12,-1,-1,-1,-1,,9999,0,1,2,FEW 15   SCT 35,1,0,-1,5,1015,RJOT 260800Z 30012KT 9999 VCSH FEW015 SCT035 00/M05 Q1015 RMK     1CU015 3CU035 A2999=,VC SH
20180126_090000.002,0,RJOT,,,,0,20180126090000,-1,-1,-1,-1,290,-1,11,-1,-1,-1,-1,,9999,0,0,1,FEW 20,-1,0,-1,7,1016,RJOT 260900Z 29011KT 9999 FEW020 M00/M07 Q1016 RMK 1CU020     A3002=,
20180126_100000.002,0,RJOT,,,,0,20180126100000,-1,-1,-1,-1,290,-1,12,-1,-1,-1,-1,,9999,0,0,2,FEW 20   SCT 50,-1,1,-1,6,1017,RJOT 261000Z 29012KT 9999 FEW020 SCT050 M01/M06 Q1017 RMK     1CU020 3SC050 A3005=,
20180126_110000.002,0,RJOT,,,,0,20180126110000,-1,-1,-1,-1,280,-1,10,-1,-1,-1,-1,,9999,0,0,2,FEW 20   SCT 30,-1,2,-1,6,1018,RJOT 261100Z 28010KT 9999 FEW020 SCT030 M02/M06 Q1018 RMK     1CU020 3CU030 A3007=,
20180126_120000.002,0,RJOT,,,,0,20180126120000,-1,-1,-1,-1,280,-1,13,-1,-1,-1,-1,,9999,0,0,2,FEW 20   SCT 30,-1,2,-1,6,1018,RJOT 261200Z 28013KT 9999 FEW020 SCT030 M02/M06 Q1018 RMK     1CU020 3CU030 A3009=,
20180126_220000.002,0,RJOT,,,,0,20180126220000,-1,-1,-1,-1,240,-1,8,-1,-1,-1,-1,,9999,0,0,1,FEW 20,-1,2,-1,6,1021,RJOT 262200Z 24008KT 9999 FEW020 M02/M06 Q1021 RMK 1CU020     A3018=,
20180126_230000.002,0,RJOT,,,,0,20180126230000,-1,-1,-1,-1,240,-1,10,-1,-1,-1,-1,,9999,0,0,1,FEW 20,-1,2,-1,6,1022,RJOT 262300Z 24010KT 9999 FEW020 M02/M06 Q1022 RMK 1CU020     A3020=,
20180127_000000.002,0,RJOT,,,,0,20180127000000,-1,-1,-1,-1,250,-1,8,-1,-1,-1,-1,,9999,0,0,1,FEW 20,1,0,-1,5,1023,RJOT 270000Z 25008KT 9999 FEW020 00/M05 Q1023 RMK 1CU020     A3022=,
20180127_010000.002,0,RJOT,,,,0,20180127010000,-1,-1,-1,-1,270,-1,10,-1,-1,-1,-1,,9999,0,0,1,FEW 20,1,2,-1,4,1023,RJOT 270100Z 27010KT 9999 FEW020 02/M04 Q1023 RMK 1CU020     A3022=,
20180127_020000.002,0,RJOT,,,,0,20180127020000,-1,-1,-1,-1,280,-1,11,-1,-1,-1,-1,,9999,0,0,1,FEW 20,1,3,-1,4,1023,RJOT 270200Z 28011KT 9999 FEW020 03/M04 Q1023 RMK 1CU020     A3021=,
20180127_030000.002,0,RJOT,,,,0,20180127030000,-1,-1,-1,-1,300,-1,10,-1,-1,-1,-1,,9999,0,0,2,FEW 25   BKN 35,1,4,-1,4,1022,RJOT 270300Z 30010KT 9999 FEW025 BKN035 04/M04 Q1022 RMK     1CU025 5CU035 A3020=,
20180127_040000.002,0,RJOT,,,,0,20180127040000,-1,-1,-1,-1,290,-1,6,-1,-1,240,320,,9999,0,0,2,FEW 25   BKN 35,1,4,-1,4,1022,RJOT 270400Z 29006KT 240V320 9999 FEW025 BKN035 04/M04 Q1022     RMK 1CU025 5CU035 A3018=,
20180127_050000.002,0,RJOT,,,,0,20180127050000,-1,-1,-1,-1,360,-1,5,-1,-1,310,30,,9999,0,0,2,FEW 25   BKN 35,1,4,-1,4,1022,RJOT 270500Z 36005KT 310V030 9999 FEW025 BKN035 04/M04 Q1022     RMK 1CU025 5CU035 A3018=,
20180127_060000.002,0,RJOT,,,,0,20180127060000,-1,-1,-1,-1,280,-1,7,-1,-1,250,330,,9999,0,0,2,FEW 25   BKN 40,1,4,-1,5,1022,RJOT 270600Z 28007KT 250V330 9999 FEW025 BKN040 04/M05 Q1022     RMK 1CU025 5CU040 A3018=,
20180127_070000.002,0,RJOT,,,,0,20180127070000,-1,-1,-1,-1,300,-1,6,-1,-1,240,340,,9999,0,0,2,FEW 25   SCT 40,1,4,-1,4,1021,RJOT 270700Z 30006KT 240V340 9999 FEW025 SCT040 04/M04 Q1021     RMK 1CU025 3CU040 A3017=,
20180127_080000.002,0,RJOT,,,,0,20180127080000,-1,-1,-1,-1,280,-1,4,-1,-1,-1,-1,,9999,0,0,2,FEW 25   SCT 40,1,2,-1,4,1022,RJOT 270800Z 28004KT 9999 FEW025 SCT040 02/M04 Q1022 RMK     1CU025 3CU040 A3018=,
20180127_090000.003,0,RJOT,,,,0,20180127090000,-1,-1,-1,-1,250,-1,3,-1,-1,-1,-1,,9999,0,0,2,FEW 25   BKN 40,1,2,-1,4,1022,RJOT 270900Z 25003KT 9999 FEW025 BKN040 02/M04 Q1022 RMK     1CU025 6CU040 A3020=,
20180127_100000.002,0,RJOT,,,,0,20180127100000,-1,-1,-1,-1,220,-1,4,-1,-1,-1,-1,,9999,0,0,2,FEW 25   SCT 40,1,1,-1,4,1023,RJOT 271000Z 22004KT 9999 FEW025 SCT040 01/M04 Q1023 RMK     1CU025 3CU040 A3021=,
20180127_110000.002,0,RJOT,,,,0,20180127110000,-1,-1,-1,-1,150,-1,6,-1,-1,-1,-1,,9999,0,0,2,FEW 25   SCT 45,-1,0,-1,4,1022,RJOT 271100Z 15006KT 9999 FEW025 SCT045 M00/M04 Q1022 RMK     1CU025 3SC045 A3021=,
20180127_120000.002,0,RJOT,,,,0,20180127120000,-1,-1,-1,-1,150,-1,7,-1,-1,-1,-1,,9999,0,0,1,FEW 25,-1,1,-1,4,1022,RJOT 271200Z 15007KT 9999 FEW025 M01/M04 Q1022 RMK 1CU025     A3019=,
20180127_220000.002,0,RJOT,,,,0,20180127220000,-1,-1,-1,-1,150,-1,7,-1,-1,-1,-1,,9999,0,0,2,FEW 25   BKN 120,-1,1,-1,4,1019,RJOT 272200Z 15007KT 9999 FEW025 BKN120 M01/M04 Q1019 RMK     1CU025 6AC120 A3010=,
20180127_230000.002,0,RJOT,,,,0,20180127230000,-1,-1,-1,-1,150,-1,4,-1,-1,120,190,,9999,0,0,3,FEW 20   SCT 70   BKN 100,-1,0,-1,4,1019,RJOT 272300Z 15004KT 120V190 9999 FEW020 SCT070 BKN100 M00/M04     Q1019 RMK 1CU020 3AC070 5AC100 A3009=,
20180128_000000.003,0,RJOT,,,,0,20180128000000,-1,-1,-1,-1,150,-1,4,-1,-1,110,170,,9999,0,0,3,FEW 20   BKN 80   BKN 140,1,1,-1,3,1018,RJOT 280000Z 15004KT 110V170 9999 FEW020 BKN080 BKN140 01/M03     Q1018 RMK 1CU020 5AC080 6AC140 A3007=,
20180128_010000.002,0,RJOT,,,,0,20180128010000,-1,-1,-1,-1,999,-1,2,-1,-1,-1,-1,,9999,0,0,3,FEW 20   SCT 50   BKN 70,1,2,-1,2,1018,RJOT 280100Z VRB02KT 9999 FEW020 SCT050 BKN070 02/M02 Q1018     RMK 1CU020 3SC050 5AC070 A3008=,
20180128_020000.002,0,RJOT,,,,0,20180128020000,-1,-1,-1,-1,999,-1,1,-1,-1,-1,-1,,9999,0,1,3,FEW 15   SCT 30   BKN 45,1,2,-1,2,1017,RJOT 280200Z VRB01KT 9999 VCSH FEW015 SCT030 BKN045 02/M02     Q1017 RMK 1CU015 3CU030 5SC045 A3004=,VC SH
20180128_030000.002,0,RJOT,,,,0,20180128030000,-1,-1,-1,-1,999,-1,2,-1,-1,-1,-1,,9999,0,1,3,FEW 20   SCT 30   BKN 60,1,2,-1,2,1016,RJOT 280300Z VRB02KT 9999 VCSH FEW020 SCT030 BKN060 02/M02     Q1016 RMK 1CU020 3CU030 6SC060 A3001=,VC SH
20180128_040000.002,0,RJOT,,,,0,20180128040000,-1,-1,-1,-1,240,-1,4,-1,-1,190,280,,5000,0,1,3,FEW 15   SCT 20   BKN 30,1,2,-1,0,1015,RJOT 280400Z 24004KT 190V280 5000 -SHSN FEW015 SCT020 BKN030     02/M00 Q1015 RMK 1CU015 3CU020 5CU030 A2999=,- SN SH
20180128_050000.002,0,RJOT,,,,0,20180128050000,-1,-1,-1,-1,240,-1,6,-1,-1,-1,-1,,8000,0,1,3,FEW 20   SCT 30   BKN 40,1,2,1,2,1014,RJOT 280500Z 24006KT 8000 -SHRA FEW020 SCT030 BKN040 02/02     Q1014 RMK 1CU020 3CU030 5CU040 A2997=,- RA SH
20180128_060000.002,0,RJOT,,,,0,20180128060000,-1,-1,-1,-1,290,-1,10,-1,-1,250,320,,9999,0,0,3,FEW 15   SCT 20   BKN 25,1,4,1,3,1014,RJOT 280600Z 29010KT 250V320 9999 FEW015 SCT020 BKN025 04/03     Q1014 RMK 1CU015 3CU020 5CU025 A2996=,
20180128_070000.003,0,RJOT,,,,0,20180128070000,-1,-1,-1,-1,260,-1,8,-1,-1,-1,-1,,9999,0,1,3,FEW 10   SCT 15   BKN 20,1,4,1,3,1014,RJOT 280700Z 26008KT 9999 -SHRA FEW010 SCT015 BKN020 04/03     Q1014 RMK 1CU010 3CU015 5CU020 A2997=,- RA SH
20180128_080000.002,0,RJOT,,,,0,20180128080000,-1,-1,-1,-1,220,-1,4,-1,-1,-1,-1,,9999,0,0,3,FEW 8   SCT 15   BKN 20,1,4,1,3,1014,RJOT 280800Z 22004KT 9999 FEW008 SCT015 BKN020 04/03 Q1014 RMK     1ST008 3CU015 6CU020 A2997=,
20180128_090000.002,0,RJOT,,,,0,20180128090000,-1,-1,-1,-1,240,-1,4,-1,-1,-1,-1,,9999,0,0,3,FEW 20   SCT 35   BKN 60,1,4,1,3,1014,RJOT 280900Z 24004KT 9999 FEW020 SCT035 BKN060 04/03 Q1014 RMK     2CU020 4CU035 6SC060 A2996=,
20180128_100000.002,0,RJOT,,,,0,20180128100000,-1,-1,-1,-1,290,-1,4,-1,-1,-1,-1,,9999,0,1,2,FEW 20   BKN 30,1,4,1,3,1014,RJOT 281000Z 29004KT 9999 -SHRA FEW020 BKN030 04/03 Q1014 RMK     2CU020 7CU030 A2997=,- RA SH
20180128_110000.002,0,RJOT,,,,0,20180128110000,-1,-1,-1,-1,260,-1,6,-1,-1,-1,-1,,9999,0,1,2,FEW 15   BKN 25,1,4,1,3,1014,RJOT 281100Z 26006KT 9999 -SHRA FEW015 BKN025 04/03 Q1014 RMK     2CU015 7CU025 A2996=,- RA SH
20180128_120000.002,0,RJOT,,,,0,20180128120000,-1,-1,-1,-1,260,-1,10,-1,-1,-1,-1,,9999,0,1,3,FEW 15   SCT 35   BKN 60,1,4,1,4,1014,RJOT 281200Z 26010KT 9999 VCSH FEW015 SCT035 BKN060 04/04     Q1014 RMK 1CU015 3CU035 7SC060 A2996=,VC SH
20180128_220000.003,0,RJOT,,,,0,20180128220000,-1,-1,-1,-1,280,-1,8,-1,-1,-1,-1,,9999,0,0,2,FEW 25   BKN 50,1,2,-1,0,1013,RJOT 282200Z 28008KT 9999 FEW025 BKN050 02/M00 Q1013 RMK     1CU025 6SC050 A2993=,
20180128_230000.002,0,RJOT,,,,0,20180128230000,-1,-1,-1,-1,290,-1,8,-1,-1,-1,-1,,9999,0,0,3,FEW 25   SCT 35   BKN 50,1,2,-1,1,1014,RJOT 282300Z 29008KT 9999 FEW025 SCT035 BKN050 02/M01 Q1014     RMK 1CU025 3CU035 6SC050 A2994=,
20180129_000000.003,0,RJOT,,,,0,20180129000000,-1,-1,-1,-1,270,-1,6,-1,-1,-1,-1,,9999,0,0,3,FEW 25   SCT 35   BKN 50,1,3,-1,0,1014,RJOT 290000Z 27006KT 9999 FEW025 SCT035 BKN050 03/M00 Q1014     RMK 1CU025 3CU035 5SC050 A2995=,
20180129_010000.002,0,RJOT,,,,0,20180129010000,-1,-1,-1,-1,300,-1,11,-1,-1,-1,-1,,9999,0,0,3,FEW 25   SCT 30   BKN 35,1,3,-1,1,1014,RJOT 290100Z 30011KT 9999 FEW025 SCT030 BKN035 03/M01 Q1014     RMK 1CU025 3CU030 5CU035 A2997=,
20180129_020000.002,0,RJOT,,,,0,20180129020000,-1,-1,-1,-1,290,-1,13,-1,-1,-1,-1,,9999,0,0,3,FEW 25   SCT 30   BKN 35,1,3,-1,2,1014,RJOT 290200Z 29013KT 9999 FEW025 SCT030 BKN035 03/M02 Q1014     RMK 1CU025 3CU030 5CU035 A2995=,
20180129_030000.002,0,RJOT,,,,0,20180129030000,-1,-1,-1,-1,300,-1,12,-1,-1,-1,-1,,9999,0,1,2,FEW 20   BKN 30,1,3,-1,1,1013,RJOT 290300Z 30012KT 9999 VCSH FEW020 BKN030 03/M01 Q1013 RMK     1CU020 6CU030 A2993=,VC SH
20180129_040000.002,0,RJOT,,,,0,20180129040000,-1,-1,-1,-1,290,-1,15,-1,-1,260,320,,9999,0,1,2,FEW 20   BKN 30,1,3,-1,2,1012,RJOT 290400Z 29015KT 260V320 9999 VCSH FEW020 BKN030 03/M02     Q1012 RMK 2CU020 6CU030 A2990=,VC SH
20180129_050000.002,0,RJOT,,,,0,20180129050000,-1,-1,-1,-1,270,-1,16,-1,-1,-1,-1,,9999,0,1,2,FEW 25   BKN 35,1,3,-1,2,1012,RJOT 290500Z 27016KT 9999 VCSH FEW025 BKN035 03/M02 Q1012 RMK     2CU025 6CU035 A2990=,VC SH
20180129_060000.002,0,RJOT,,,,0,20180129060000,-1,-1,-1,-1,280,-1,17,-1,-1,-1,-1,,9999,0,1,2,FEW 15   BKN 30,1,3,-1,2,1012,RJOT 290600Z 28017KT 9999 -SHSN FEW015 BKN030 03/M02 Q1012 RMK     2CU015 6CU030 A2990=,- SN SH
20180129_070000.002,0,RJOT,,,,0,20180129070000,-1,-1,-1,-1,300,-1,16,-1,-1,-1,-1,,9999,0,1,2,FEW 15   BKN 30,1,3,-1,4,1013,RJOT 290700Z 30016KT 9999 -SHSN FEW015 BKN030 03/M04 Q1013 RMK     2CU015 6CU030 A2992=,- SN SH
20180129_080000.002,0,RJOT,,,,0,20180129080000,-1,-1,-1,-1,280,-1,17,-1,27,-1,-1,,9999,0,1,2,FEW 15   SCT 30,1,2,-1,5,1014,RJOT 290800Z 28017G27KT 9999 VCSH FEW015 SCT030 02/M05 Q1014     RMK 1CU015 3CU030 A2995=,VC SH
20180129_090000.002,0,RJOT,,,,0,20180129090000,-1,-1,-1,-1,300,-1,14,-1,-1,-1,-1,,9999,0,1,2,FEW 20   BKN 40,1,1,-1,5,1015,RJOT 290900Z 30014KT 9999 VCSH FEW020 BKN040 01/M05 Q1015 RMK     1CU020 5CU040 A2997=,VC SH
20180129_100000.002,0,RJOT,,,,0,20180129100000,-1,-1,-1,-1,300,-1,15,-1,-1,-1,-1,,9999,0,1,2,FEW 20   BKN 40,1,1,-1,7,1016,RJOT 291000Z 30015KT 9999 VCSH FEW020 BKN040 01/M07 Q1016 RMK     1CU020 6CU040 A3001=,VC SH
20180129_110000.002,0,RJOT,,,,0,20180129110000,-1,-1,-1,-1,300,-1,13,-1,-1,-1,-1,,9999,0,1,3,FEW 20   SCT 30   BKN 50,-1,0,-1,5,1017,RJOT 291100Z 30013KT 9999 VCSH FEW020 SCT030 BKN050 M00/M05     Q1017 RMK 1CU020 3CU030 5SC050 A3003=,VC SH
20180129_120000.002,0,RJOT,,,,0,20180129120000,-1,-1,-1,-1,290,-1,11,-1,-1,-1,-1,,9999,0,1,3,FEW 20   SCT 30   BKN 60,-1,1,-1,5,1017,RJOT 291200Z 29011KT 9999 VCSH FEW020 SCT030 BKN060 M01/M05     Q1017 RMK 1CU020 3CU030 5SC060 A3004=,VC SH
20180129_220000.002,0,RJOT,,,,0,20180129220000,-1,-1,-1,-1,240,-1,8,-1,-1,-1,-1,,9999,0,0,1,FEW 25,-1,2,-1,5,1019,RJOT 292200Z 24008KT 9999 FEW025 M02/M05 Q1019 RMK 1CU025     A3010=,
20180129_230000.002,0,RJOT,,,,0,20180129230000,-1,-1,-1,-1,230,-1,7,-1,-1,-1,-1,,9999,0,0,1,FEW 25,-1,2,-1,4,1020,RJOT 292300Z 23007KT 9999 FEW025 M02/M04 Q1020 RMK 1CU025     A3013=,
20180130_000000.002,0,RJOT,,,,0,20180130000000,-1,-1,-1,-1,260,-1,6,-1,-1,-1,-1,,9999,0,0,1,FEW 30,1,0,-1,4,1020,RJOT 300000Z 26006KT 9999 FEW030 00/M04 Q1020 RMK 1CU030     A3014=,
20180130_010000.002,0,RJOT,,,,0,20180130010000,-1,-1,-1,-1,270,-1,12,-1,-1,-1,-1,,9999,0,1,1,FEW 30,1,2,-1,4,1020,RJOT 300100Z 27012KT 9999 VCSH FEW030 02/M04 Q1020 RMK 2CU030     A3014=,VC SH
20180130_020000.002,0,RJOT,,,,0,20180130020000,-1,-1,-1,-1,270,-1,13,-1,-1,240,320,,9999,0,1,2,FEW 20   SCT 40,1,3,-1,4,1020,RJOT 300200Z 27013KT 240V320 9999 VCSH FEW020 SCT040 03/M04     Q1020 RMK 1CU020 3CU040 A3013=,VC SH
20180130_030000.002,0,RJOT,,,,0,20180130030000,-1,-1,-1,-1,270,-1,12,-1,-1,240,300,,9999,0,1,2,FEW 20   BKN 40,1,2,-1,5,1019,RJOT 300300Z 27012KT 240V300 9999 -SHSN FEW020 BKN040 02/M05     Q1019 RMK 1CU020 5CU040 A3012=,- SN SH
20180130_040000.002,0,RJOT,,,,0,20180130040000,-1,-1,-1,-1,270,-1,14,-1,-1,-1,-1,,9999,0,0,2,FEW 25   BKN 40,1,4,-1,5,1019,RJOT 300400Z 27014KT 9999 FEW025 BKN040 04/M05 Q1019 RMK     1CU025 5CU040 A3010=,
20180130_050000.002,0,RJOT,,,,0,20180130050000,-1,-1,-1,-1,260,-1,14,-1,-1,-1,-1,,9999,0,0,2,FEW 25   SCT 40,1,4,-1,5,1019,RJOT 300500Z 26014KT 9999 FEW025 SCT040 04/M05 Q1019 RMK     1CU025 4CU040 A3010=,
20180130_060000.003,0,RJOT,,,,0,20180130060000,-1,-1,-1,-1,280,-1,11,-1,-1,-1,-1,,9999,0,1,2,FEW 25   BKN 40,1,4,-1,5,1020,RJOT 300600Z 28011KT 9999 VCSH FEW025 BKN040 04/M05 Q1020 RMK     1CU025 6CU040 A3012=,VC SH
20180130_070000.002,0,RJOT,,,,0,20180130070000,-1,-1,-1,-1,260,-1,11,-1,-1,-1,-1,,9999,0,1,2,FEW 25   BKN 40,1,2,-1,5,1020,RJOT 300700Z 26011KT 9999 VCSH FEW025 BKN040 02/M05 Q1020 RMK     1CU025 6CU040 A3013=,VC SH
20180130_080000.002,0,RJOT,,,,0,20180130080000,-1,-1,-1,-1,250,-1,11,-1,-1,-1,-1,,9999,0,1,2,FEW 25   BKN 40,1,2,-1,5,1020,RJOT 300800Z 25011KT 9999 VCSH FEW025 BKN040 02/M05 Q1020 RMK     1CU025 6CU040 A3015=,VC SH
20180130_090000.002,0,RJOT,,,,0,20180130090000,-1,-1,-1,-1,260,-1,12,-1,-1,-1,-1,,9999,0,0,2,FEW 25   BKN 40,1,2,-1,4,1021,RJOT 300900Z 26012KT 9999 FEW025 BKN040 02/M04 Q1021 RMK     1CU025 6CU040 A3018=,
20180130_100000.002,0,RJOT,,,,0,20180130100000,-1,-1,-1,-1,260,-1,11,-1,-1,-1,-1,,9999,0,0,2,FEW 25   BKN 45,1,1,-1,3,1022,RJOT 301000Z 26011KT 9999 FEW025 BKN045 01/M03 Q1022 RMK     1CU025 5CU045 A3020=,
20180130_110000.002,0,RJOT,,,,0,20180130110000,-1,-1,-1,-1,270,-1,4,-1,-1,-1,-1,,9999,0,0,3,FEW 25   SCT 30   BKN 40,1,1,-1,3,1023,RJOT 301100Z 27004KT 9999 FEW025 SCT030 BKN040 01/M03 Q1023     RMK 1CU025 3CU030 5CU040 A3021=,
20180130_120000.002,0,RJOT,,,,0,20180130120000,-1,-1,-1,-1,250,-1,6,-1,-1,220,280,,9999,0,0,2,FEW 25   BKN 30,1,1,-1,3,1023,RJOT 301200Z 25006KT 220V280 9999 FEW025 BKN030 01/M03 Q1023     RMK 1CU025 6CU030 A3023=,
20180130_220000.002,0,RJOT,,,,0,20180130220000,-1,-1,-1,-1,180,-1,4,-1,-1,-1,-1,,9999,0,0,1,FEW 25,-1,1,-1,5,1025,RJOT 302200Z 18004KT 9999 FEW025 M01/M05 Q1025 RMK 1CU025     A3028=,
20180130_230000.002,0,RJOT,,,,0,20180130230000,-1,-1,-1,-1,220,-1,5,-1,-1,-1,-1,,9999,0,0,3,FEW 25   SCT 45   BKN -9999,-1,1,-1,4,1026,RJOT 302300Z 22005KT 9999 FEW025 SCT045 BKN/// M01/M04 Q1026     RMK 1CU025 3SC045 A3031=,
20180131_000000.002,0,RJOT,,,,0,20180131000000,-1,-1,-1,-1,240,-1,3,-1,-1,-1,-1,,9999,0,0,2,FEW 25   BKN -9999,1,2,-1,4,1026,RJOT 310000Z 24003KT 9999 FEW025 BKN/// 02/M04 Q1026 RMK     1CU025 A3032=,
20180131_010000.002,0,RJOT,,,,0,20180131010000,-1,-1,-1,-1,270,-1,8,-1,-1,-1,-1,,9999,0,0,2,FEW 25   BKN -9999,1,4,-1,3,1026,RJOT 310100Z 27008KT 9999 FEW025 BKN/// 04/M03 Q1026 RMK     1CU025 A3031=,
20180131_020000.002,0,RJOT,,,,0,20180131020000,-1,-1,-1,-1,290,-1,8,-1,-1,-1,-1,,9999,0,0,2,FEW 25   BKN -9999,1,5,-1,3,1026,RJOT 310200Z 29008KT 9999 FEW025 BKN/// 05/M03 Q1026 RMK     1CU025 A3031=,
20180131_030000.002,0,RJOT,,,,0,20180131030000,-1,-1,-1,-1,290,-1,10,-1,-1,-1,-1,,9999,0,0,2,FEW 25   BKN -9999,1,5,-1,4,1025,RJOT 310300Z 29010KT 9999 FEW025 BKN/// 05/M04 Q1025 RMK     1CU025 A3029=,
20180131_040000.002,0,RJOT,,,,0,20180131040000,-1,-1,-1,-1,270,-1,10,-1,-1,-1,-1,,9999,0,0,3,FEW 25   SCT 180   BKN -9999,1,5,-1,4,1024,RJOT 310400Z 27010KT 9999 FEW025 SCT180 BKN/// 05/M04 Q1024     RMK 1CU025 3AC180 A3026=,
20180131_050000.002,0,RJOT,,,,0,20180131050000,-1,-1,-1,-1,270,-1,7,-1,-1,240,310,,9999,0,0,3,FEW 25   SCT 180   BKN -9999,1,5,-1,5,1023,RJOT 310500Z 27007KT 240V310 9999 FEW025 SCT180 BKN/// 05/M05     Q1023 RMK 1CU025 3AC180 A3023=,
20180131_060000.002,0,RJOT,,,,0,20180131060000,-1,-1,-1,-1,290,-1,6,-1,-1,250,310,,9999,0,0,2,FEW 25   BKN -9999,1,6,-1,5,1023,RJOT 310600Z 29006KT 250V310 9999 FEW025 BKN/// 06/M05 Q1023     RMK 1CU025 A3022=,
20180131_070000.003,0,RJOT,,,,0,20180131070000,-1,-1,-1,-1,290,-1,7,-1,-1,250,320,,9999,0,0,2,FEW 25   BKN -9999,1,6,-1,5,1023,RJOT 310700Z 29007KT 250V320 9999 FEW025 BKN/// 06/M05 Q1023     RMK 1CU025 A3023=,
20180131_080000.003,0,RJOT,,,,0,20180131080000,-1,-1,-1,-1,310,-1,4,-1,-1,-1,-1,,9999,0,0,1,FEW 25,1,5,-1,5,1024,RJOT 310800Z 31004KT 9999 FEW025 05/M05 Q1024 RMK 1CU025     A3024=,
20180131_090000.002,0,RJOT,,,,0,20180131090000,-1,-1,-1,-1,290,-1,4,-1,-1,-1,-1,,9999,0,0,1,FEW 25,1,3,-1,4,1024,RJOT 310900Z 29004KT 9999 FEW025 03/M04 Q1024 RMK 1CU025     A3026=,
20180131_100000.002,0,RJOT,,,,0,20180131100000,-1,-1,-1,-1,150,-1,7,-1,-1,-1,-1,,9999,0,0,1,FEW 25,1,2,-1,4,1024,RJOT 311000Z 15007KT 9999 FEW025 02/M04 Q1024 RMK 1CU025     A3026=,
20180131_110000.002,0,RJOT,,,,0,20180131110000,-1,-1,-1,-1,150,-1,8,-1,-1,-1,-1,,9999,0,0,2,FEW 25   SCT -9999,1,1,-1,4,1024,RJOT 311100Z 15008KT 9999 FEW025 SCT/// 01/M04 Q1024 RMK     1CU025 A3024=,
20180131_120000.002,0,RJOT,,,,0,20180131120000,-1,-1,-1,-1,150,-1,8,-1,-1,-1,-1,,9999,0,0,2,FEW 25   BKN -9999,1,1,-1,4,1022,RJOT 311200Z 15008KT 9999 FEW025 BKN/// 01/M04 Q1022 RMK     1CU025 A3021=,
20180131_220000.002,0,RJOT,,,,0,20180131220000,-1,-1,-1,-1,130,-1,2,-1,-1,-1,-1,,1500,1,2,3,FEW 7   SCT 10   BKN 20,1,0,-1,0,1024,RJOT 312200Z 13002KT 1500 R26/P2000N -SN BR FEW007 SCT010     BKN020 00/M00 Q1024 RMK 1ST007 3CU010 5CU020 A3026=,- SN; BR
20180131_230000.002,0,RJOT,,,,0,20180131230000,-1,-1,-1,-1,999,-1,1,-1,-1,-1,-1,,2000,0,2,3,FEW 7   SCT 20   BKN 40,1,0,1,0,1025,RJOT 312300Z VRB01KT 2000 -SN BR FEW007 SCT020 BKN040 00/00     Q1025 RMK 1ST007 3CU020 5CU040 A3028=,- SN; BR
20180201_000000.003,0,RJOT,,,,0,20180201000000,-1,-1,-1,-1,90,-1,2,-1,-1,-1,-1,,2500,0,2,3,FEW 10   SCT 20   BKN 40,1,0,-1,0,1025,RJOT 010000Z 09002KT 2500 -SN BR FEW010 SCT020 BKN040 00/M00     Q1025 RMK 1ST010 3CU020 5SC040 A3027 WIND BY EQPT/08=,- SN; BR
20180201_010000.002,0,RJOT,,,,0,20180201010000,-1,-1,-1,-1,60,-1,4,-1,-1,-1,-1,,2000,0,2,3,FEW 1   SCT 10   BKN 25,1,0,1,0,1024,RJOT 010100Z 06004KT 2000 -SN BR FEW001 SCT010 BKN025 00/00     Q1024 RMK 1ST001 3ST010 5CU025 A3026 WIND BY EQPT/08=,- SN; BR
20180201_020000.002,0,RJOT,,,,0,20180201020000,-1,-1,-1,-1,30,-1,4,-1,-1,360,70,,1500,1,2,3,FEW 0   SCT 2   BKN 4,1,0,1,0,1024,RJOT 010200Z 03004KT 360V070 1500 R26/P2000N -SN BR FEW000     SCT002 BKN004 00/00 Q1024 RMK 1ST000 3ST002 5ST004 A3026=,- SN; BR
20180201_030000.003,0,RJOT,,,,0,20180201030000,-1,-1,-1,-1,50,-1,4,-1,-1,-1,-1,,1000,1,2,3,FEW 0   SCT 1   BKN 3,1,0,1,0,1023,RJOT 010300Z 05004KT 1000 R26/P2000N -SN BR FEW000 SCT001     BKN003 00/00 Q1023 RMK 1ST000 3ST001 5ST003 A3022=,- SN; BR
20180201_040000.003,0,RJOT,,,,0,20180201040000,-1,-1,-1,-1,60,-1,2,-1,-1,-1,-1,,1000,1,2,3,FEW 0   SCT 1   BKN 3,1,0,1,0,1022,RJOT 010400Z 06002KT 1000 R26/1500VP2000D -SN BR FEW000 SCT001     BKN003 00/00 Q1022 RMK 1ST000 3ST001 5ST003 A3020=,- SN; BR
20180201_050000.002,0,RJOT,,,,0,20180201050000,-1,-1,-1,-1,999,-1,1,-1,-1,-1,-1,,800,1,2,3,FEW 0   SCT 1   BKN 3,1,0,1,0,1022,RJOT 010500Z VRB01KT 0800 R26/1500VP2000U FG SN FEW000 SCT001     BKN003 00/00 Q1022 RMK 1ST000 3ST001 5ST003 A3018=,FG; SN
20180201_060000.002,0,RJOT,,,,0,20180201060000,-1,-1,-1,-1,0,-1,0,-1,-1,-1,-1,,1500,1,2,3,FEW 0   SCT 1   BKN 3,1,1,1,1,1022,RJOT 010600Z 00000KT 1500 R26/P2000N -SN BR FEW000 SCT001     BKN003 01/01 Q1022 RMK 1ST000 3ST001 5ST003 A3019=,- SN; BR
20180201_070000.002,0,RJOT,,,,0,20180201070000,-1,-1,-1,-1,250,-1,1,-1,-1,-1,-1,,3500,0,2,3,FEW 1   SCT 2   BKN 4,1,1,1,1,1022,RJOT 010700Z 25001KT 3500 -SN BR FEW001 SCT002 BKN004 01/01     Q1022 RMK 1ST001 3ST002 5ST004 A3019=,- SN; BR
20180201_080000.002,0,RJOT,,,,0,20180201080000,-1,-1,-1,-1,240,-1,3,-1,-1,-1,-1,,4000,0,2,3,FEW 1   SCT 3   BKN 6,1,1,1,1,1023,RJOT 010800Z 24003KT 4000 -SNRA BR FEW001 SCT003 BKN006 01/01     Q1023 RMK 1ST001 3ST003 5ST006 A3021=,- SN RA; BR
20180201_090000.002,0,RJOT,,,,0,20180201090000,-1,-1,-1,-1,230,-1,2,-1,-1,-1,-1,,9999,0,0,3,FEW 1   SCT 50   BKN 80,1,1,1,1,1023,RJOT 010900Z 23002KT 9999 FEW001 SCT050 BKN080 01/01 Q1023 RMK     1ST001 3SC050 5AC080 A3022=,
20180201_100000.002,0,RJOT,,,,0,20180201100000,-1,-1,-1,-1,160,-1,4,-1,-1,-1,-1,,9999,0,0,2,FEW 1   SCT 80,1,0,1,0,1023,RJOT 011000Z 16004KT 9999 FEW001 SCT080 00/00 Q1023 RMK 1ST001     3AC080 A3023=,
20180201_110000.002,0,RJOT,,,,0,20180201110000,-1,-1,-1,-1,150,-1,5,-1,-1,-1,-1,,9999,0,0,2,FEW 1   SCT 100,-1,0,-1,0,1024,RJOT 011100Z 15005KT 9999 FEW001 SCT100 M00/M00 Q1024 RMK     1ST001 3AC100 A3024=,
20180201_120000.002,0,RJOT,,,,0,20180201120000,-1,-1,-1,-1,150,-1,6,-1,-1,-1,-1,,9999,0,0,2,FEW 1   SCT 50,-1,1,-1,1,1024,RJOT 011200Z 15006KT 9999 FEW001 SCT050 M01/M01 Q1024 RMK     1ST001 3SC050 A3024=,
20180201_220000.002,0,RJOT,,,,0,20180201220000,-1,-1,-1,-1,150,-1,7,-1,-1,-1,-1,,9999,0,0,1,FEW 25,-1,1,-1,2,1023,RJOT 012200Z 15007KT 9999 FEW025 M01/M02 Q1023 RMK 1CU025     A3021=,
20180201_230000.003,0,RJOT,,,,0,20180201230000,-1,-1,-1,-1,130,-1,4,-1,-1,90,170,,9999,0,0,1,FEW 25,-1,0,-1,1,1022,RJOT 012300Z 13004KT 090V170 9999 FEW025 M00/M01 Q1022 RMK     1CU025 A3020=,
20180202_000000.002,0,RJOT,,,,0,20180202000000,-1,-1,-1,-1,999,-1,2,-1,-1,-1,-1,,9999,0,0,2,FEW 8   BKN -9999,1,1,1,0,1023,RJOT 020000Z VRB02KT 9999 FEW008 BKN/// 01/00 Q1023 RMK 1ST008     A3022=,
20180202_010000.002,0,RJOT,,,,0,20180202010000,-1,-1,-1,-1,999,-1,1,-1,-1,-1,-1,,9999,0,0,2,FEW 10   BKN -9999,1,4,1,1,1023,RJOT 020100Z VRB01KT 9999 FEW010 BKN/// 04/01 Q1023 RMK 1CU010     A3023=,
20180202_020000.002,0,RJOT,,,,0,20180202020000,-1,-1,-1,-1,999,-1,2,-1,-1,-1,-1,,9999,0,0,3,FEW 10   SCT 20   BKN -9999,1,5,1,1,1023,RJOT 020200Z VRB02KT 9999 FEW010 SCT020 BKN/// 05/01 Q1023 RMK     1CU010 3CU020 A3022=,
20180202_030000.002,0,RJOT,,,,0,20180202030000,-1,-1,-1,-1,40,-1,4,-1,-1,360,120,,9999,0,0,3,FEW 25   SCT 180   BKN -9999,1,5,1,1,1022,RJOT 020300Z 04004KT 360V120 9999 FEW025 SCT180 BKN/// 05/01     Q1022 RMK 2CU025 3AC180 A3021=,
20180202_040000.002,0,RJOT,,,,0,20180202040000,-1,-1,-1,-1,999,-1,2,-1,-1,-1,-1,,9999,0,0,3,FEW 15   SCT 25   BKN 140,1,6,-1,1,1022,RJOT 020400Z VRB02KT 9999 FEW015 SCT025 BKN140 06/M01 Q1022     RMK 1CU015 3CU025 5AC140 A3018=,
20180202_050000.001,0,RJOT,,,,0,20180202050000,-1,-1,-1,-1,999,-1,2,-1,-1,-1,-1,,9999,0,0,3,FEW 25   SCT 140   BKN 180,1,6,-1,1,1021,RJOT 020500Z VRB02KT 9999 FEW025 SCT140 BKN180 06/M01 Q1021     RMK 2CU025 4AC140 7AC180 A3017=,
20180202_060000.002,0,RJOT,,,,0,20180202060000,-1,-1,-1,-1,999,-1,3,-1,-1,-1,-1,,9999,0,0,2,FEW 25   BKN 180,1,6,-1,1,1021,RJOT 020600Z VRB03KT 9999 FEW025 BKN180 06/M01 Q1021 RMK     1CU025 7AC180 A3016=,
20180202_070000.002,0,RJOT,,,,0,20180202070000,-1,-1,-1,-1,360,-1,3,-1,-1,320,50,,9999,0,0,3,FEW 25   SCT 180   BKN -9999,1,6,1,0,1021,RJOT 020700Z 36003KT 320V050 9999 FEW025 SCT180 BKN/// 06/00     Q1021 RMK 1CU025 4AC180 A3016=,
20180202_080000.002,0,RJOT,,,,0,20180202080000,-1,-1,-1,-1,280,-1,4,-1,-1,-1,-1,,9999,0,0,3,FEW 25   SCT 180   BKN -9999,1,5,1,1,1021,RJOT 020800Z 28004KT 9999 FEW025 SCT180 BKN/// 05/01 Q1021 RMK     1CU025 4AC180 A3015=,
20180202_090000.002,0,RJOT,,,,0,20180202090000,-1,-1,-1,-1,250,-1,3,-1,-1,-1,-1,,9999,0,0,3,FEW 25   SCT 170   BKN -9999,1,4,1,1,1021,RJOT 020900Z 25003KT 9999 FEW025 SCT170 BKN/// 04/01 Q1021 RMK     1CU025 4AC170 A3015=,
20180202_100000.003,0,RJOT,,,,0,20180202100000,-1,-1,-1,-1,150,-1,5,-1,-1,140,200,,9999,0,0,2,FEW 25   BKN 170,1,2,1,1,1020,RJOT 021000Z 15005KT 140V200 9999 FEW025 BKN170 02/01 Q1020     RMK 1CU025 5AC170 A3014=,
20180202_110000.002,0,RJOT,,,,0,20180202110000,-1,-1,-1,-1,190,-1,4,-1,-1,160,220,,9999,0,0,2,FEW 25   BKN 160,1,2,1,1,1021,RJOT 021100Z 19004KT 160V220 9999 FEW025 BKN160 02/01 Q1021     RMK 1CU025 6AC160 A3015=,
20180202_120000.002,0,RJOT,,,,0,20180202120000,-1,-1,-1,-1,140,-1,6,-1,-1,120,190,,8000,0,0,2,FEW 25   BKN 170,1,1,-1,0,1020,RJOT 021200Z 14006KT 120V190 8000 FEW025 BKN170 01/M00 Q1020     RMK 1CU025 6AC170 A3013=,
20180202_220000.002,0,RJOT,,,,0,20180202220000,-1,-1,-1,-1,230,-1,9,-1,-1,-1,-1,,9999,0,1,3,FEW 10   SCT 20   BKN 40,1,2,1,2,1019,RJOT 022200Z 23009KT 9999 -SHRA FEW010 SCT020 BKN040 02/02     Q1019 RMK 1ST010 3CU020 5CU040 A3010=,- RA SH
20180202_230000.003,0,RJOT,,,,0,20180202230000,-1,-1,-1,-1,220,-1,6,-1,-1,-1,-1,,9999,0,1,3,FEW 10   SCT 40   BKN 50,1,3,1,2,1019,RJOT 022300Z 22006KT 9999 -SHRA FEW010 SCT040 BKN050 03/02     Q1019 RMK 1ST010 4CU040 6SC050 A3010=,- RA SH
20180203_000000.002,0,RJOT,,,,0,20180203000000,-1,-1,-1,-1,260,-1,7,-1,-1,-1,-1,,9999,0,1,3,FEW 20   SCT 40   BKN 60,1,4,1,1,1019,RJOT 030000Z 26007KT 9999 VCSH FEW020 SCT040 BKN060 04/01     Q1019 RMK 1CU020 3CU040 6SC060 A3011=,VC SH
20180203_010000.003,0,RJOT,,,,0,20180203010000,-1,-1,-1,-1,280,-1,6,-1,-1,-1,-1,,9999,0,1,3,FEW 15   SCT 40   BKN 50,1,4,1,0,1019,RJOT 030100Z 28006KT 9999 VCSH FEW015 SCT040 BKN050 04/00     Q1019 RMK 1CU015 4CU040 6SC050 A3011=,VC SH
20180203_020000.002,0,RJOT,,,,0,20180203020000,-1,-1,-1,-1,999,-1,4,-1,-1,-1,-1,,9999,0,0,3,FEW 20   SCT 60   BKN 120,1,5,-1,1,1019,RJOT 030200Z VRB04KT 9999 FEW020 SCT060 BKN120 05/M01 Q1019     RMK 1CU020 3SC060 5AC120 A3009=,
20180203_030000.002,0,RJOT,,,,0,20180203030000,-1,-1,-1,-1,310,-1,4,-1,-1,260,30,,9999,0,1,3,FEW 20   SCT 30   BKN -9999,1,5,-1,2,1018,RJOT 030300Z 31004KT 260V030 9999 VCSH FEW020 SCT030 BKN///     05/M02 Q1018 RMK 1CU020 4CU030 A3006=,VC SH
20180203_040000.002,0,RJOT,,,,0,20180203040000,-1,-1,-1,-1,220,-1,7,-1,-1,180,260,,9999,0,1,2,FEW 20   BKN 30,1,6,1,1,1017,RJOT 030400Z 22007KT 180V260 9999 VCSH FEW020 BKN030 06/01     Q1017 RMK 1CU020 5CU030 A3005=,VC SH
20180203_050000.002,0,RJOT,,,,0,20180203050000,-1,-1,-1,-1,270,-1,10,-1,-1,250,310,,9999,0,1,2,FEW 25   BKN 40,1,7,-1,3,1017,RJOT 030500Z 27010KT 250V310 9999 VCSH FEW025 BKN040 07/M03     Q1017 RMK 1CU025 5CU040 A3003=,VC SH
20180203_060000.002,0,RJOT,,,,0,20180203060000,-1,-1,-1,-1,270,-1,13,-1,-1,250,310,,9999,0,1,2,FEW 25   SCT 40,1,6,-1,2,1017,RJOT 030600Z 27013KT 250V310 9999 VCSH FEW025 SCT040 06/M02     Q1017 RMK 1CU025 4CU040 A3004=,VC SH
20180203_070000.003,0,RJOT,,,,0,20180203070000,-1,-1,-1,-1,280,-1,9,-1,-1,-1,-1,,9999,0,1,2,FEW 25   BKN 35,1,5,-1,1,1017,RJOT 030700Z 28009KT 9999 VCSH FEW025 BKN035 05/M01 Q1017 RMK     2CU025 6CU035 A3004=,VC SH
20180203_080000.002,0,RJOT,,,,0,20180203080000,-1,-1,-1,-1,260,-1,9,-1,-1,-1,-1,,9999,0,1,2,FEW 20   BKN 30,1,4,1,0,1017,RJOT 030800Z 26009KT 9999 -SHRA FEW020 BKN030 04/00 Q1017 RMK     1CU020 6CU030 A3005=,- RA SH
20180203_090000.002,0,RJOT,,,,0,20180203090000,-1,-1,-1,-1,110,-1,3,-1,-1,10,160,,9999,0,0,2,FEW 20   BKN 60,1,2,1,1,1017,RJOT 030900Z 11003KT 010V160 9999 FEW020 BKN060 02/01 Q1017     RMK 1CU020 5SC060 A3004=,
20180203_100000.002,0,RJOT,,,,0,20180203100000,-1,-1,-1,-1,240,-1,7,-1,-1,-1,-1,,9999,0,0,2,FEW 20   SCT 60,1,2,-1,1,1017,RJOT 031000Z 24007KT 9999 FEW020 SCT060 02/M01 Q1017 RMK     1CU020 4SC060 A3004=,
20180203_110000.002,0,RJOT,,,,0,20180203110000,-1,-1,-1,-1,270,-1,8,-1,-1,240,310,,9999,0,1,3,FEW 8   SCT 20   BKN 50,1,2,1,0,1017,RJOT 031100Z 27008KT 240V310 9999 -SHSNRA FEW008 SCT020 BKN050     02/00 Q1017 RMK 1ST008 3CU020 5SC050 A3005=,- SN RA SH
20180203_120000.002,0,RJOT,,,,0,20180203120000,-1,-1,-1,-1,230,-1,8,-1,-1,-1,-1,,9999,0,0,2,FEW 20   BKN 40,1,1,1,0,1017,RJOT 031200Z 23008KT 9999 FEW020 BKN040 01/00 Q1017 RMK 1CU020     6CU040 A3005=,
20180203_220000.002,0,RJOT,,,,0,20180203220000,-1,-1,-1,-1,240,-1,8,-1,-1,-1,-1,,1200,1,2,3,FEW 2   SCT 5   BKN 15,-1,2,-1,2,1017,RJOT 032200Z 24008KT 1200 R26/1100VP2000D -SHSN BR FEW002     SCT005 BKN015 M02/M02 Q1017 RMK 1ST002 3ST005 6CU015           A3003=,- SN SH; BR
20180203_230000.002,0,RJOT,,,,0,20180203230000,-1,-1,-1,-1,270,-1,10,-1,-1,-1,-1,,800,1,1,3,FEW 3   SCT 5   BKN 7,-1,1,-1,2,1017,RJOT 032300Z 27010KT 0800 R26/1200VP2000D SHSN FEW003 SCT005     BKN007 M01/M02 Q1017 RMK 1ST003 3ST005 5ST007 A3005=,SN SH
20180204_000000.002,0,RJOT,,,,0,20180204000000,-1,-1,-1,-1,280,-1,13,-1,-1,-1,-1,,400,1,1,3,FEW 2   SCT 3   BKN 5,-1,2,-1,3,1018,RJOT 040000Z 28013KT 0400 R26/0550V0900U SHSN FEW002 SCT003     BKN005 M02/M03 Q1018 RMK 1ST002 3ST003 6ST005 A3006=,SN SH
20180204_010000.002,0,RJOT,,,,0,20180204010000,-1,-1,-1,-1,270,-1,15,-1,-1,-1,-1,,800,1,1,3,FEW 2   SCT 3   BKN 5,-1,2,-1,3,1018,RJOT 040100Z 27015KT 0800 R26/0900V1600U SHSN FEW002 SCT003     BKN005 M02/M03 Q1018 RMK 1ST002 3ST003 6ST005 A3007=,SN SH
20180204_020000.002,0,RJOT,,,,0,20180204020000,-1,-1,-1,-1,250,-1,15,-1,-1,-1,-1,,5000,1,1,3,FEW 5   SCT 15   BKN 30,-1,2,-1,5,1018,RJOT 040200Z 25015KT 5000 R26/2000N -SHSN FEW005 SCT015 BKN030     M02/M05 Q1018 RMK 1ST005 3CU015 5CU030 A3007=,- SN SH
20180204_030000.002,0,RJOT,,,,0,20180204030000,-1,-1,-1,-1,260,-1,17,-1,-1,-1,-1,,8000,0,1,3,FEW 5   SCT 15   BKN 35,-1,1,-1,5,1017,RJOT 040300Z 26017KT 8000 -SHSN FEW005 SCT015 BKN035 M01/M05     Q1017 RMK 1ST005 3CU015 5CU035 A3004=,- SN SH
20180204_040000.002,0,RJOT,,,,0,20180204040000,-1,-1,-1,-1,250,-1,16,-1,-1,-1,-1,,9999,0,1,2,FEW 25   BKN 45,1,0,-1,6,1016,RJOT 040400Z 25016KT 9999 VCSH FEW025 BKN045 00/M06 Q1016 RMK     1CU025 5CU045 A3002=,VC SH
20180204_050000.002,0,RJOT,,,,0,20180204050000,-1,-1,-1,-1,260,-1,19,-1,-1,-1,-1,,9999,0,1,2,FEW 20   BKN 40,-1,0,-1,7,1016,RJOT 040500Z 26019KT 9999 -SHSN FEW020 BKN040 M00/M07 Q1016     RMK 1CU020 6CU040 A3002=,- SN SH
20180204_060000.002,0,RJOT,,,,0,20180204060000,-1,-1,-1,-1,260,-1,16,-1,-1,-1,-1,,9999,0,1,2,FEW 20   BKN 40,1,0,-1,6,1016,RJOT 040600Z 26016KT 9999 VCSH FEW020 BKN040 00/M06 Q1016 RMK     1CU020 5CU040 A3003=,VC SH
20180204_070000.002,0,RJOT,,,,0,20180204070000,-1,-1,-1,-1,260,-1,18,-1,-1,-1,-1,,9999,0,0,2,FEW 20   SCT 40,-1,1,-1,7,1017,RJOT 040700Z 26018KT 9999 FEW020 SCT040 M01/M07 Q1017 RMK     1CU020 3CU040 A3003=,
20180204_080000.002,0,RJOT,,,,0,20180204080000,-1,-1,-1,-1,260,-1,14,-1,-1,-1,-1,,9999,0,0,1,FEW 25,-1,1,-1,7,1016,RJOT 040800Z 26014KT 9999 FEW025 M01/M07 Q1016 RMK 1CU025     A3003=,
20180204_090000.002,0,RJOT,,,,0,20180204090000,-1,-1,-1,-1,240,-1,10,-1,-1,-1,-1,,9999,0,0,2,FEW 25   SCT 40,-1,1,-1,7,1017,RJOT 040900Z 24010KT 9999 FEW025 SCT040 M01/M07 Q1017 RMK     1CU025 3CU040 A3003=,
20180204_100000.002,0,RJOT,,,,0,20180204100000,-1,-1,-1,-1,250,-1,10,-1,-1,-1,-1,,9999,0,0,2,FEW 25   SCT 40,-1,1,-1,8,1018,RJOT 041000Z 25010KT 9999 FEW025 SCT040 M01/M08 Q1018 RMK     1CU025 3CU040 A3006=,
20180204_110000.003,0,RJOT,,,,0,20180204110000,-1,-1,-1,-1,260,-1,13,-1,-1,-1,-1,,9999,0,0,2,FEW 25   SCT 40,-1,1,-1,9,1018,RJOT 041100Z 26013KT 9999 FEW025 SCT040 M01/M09 Q1018 RMK     1CU025 3CU040 A3006=,
20180204_120000.002,0,RJOT,,,,0,20180204120000,-1,-1,-1,-1,260,-1,12,-1,-1,-1,-1,,9999,0,0,1,FEW 25,-1,2,-1,9,1018,RJOT 041200Z 26012KT 9999 FEW025 M02/M09 Q1018 RMK 1CU025     A3008=,
20180204_220000.002,0,RJOT,,,,0,20180204220000,-1,-1,-1,-1,270,-1,19,-1,-1,-1,-1,,9999,0,0,2,FEW 25   SCT -9999,-1,2,-1,8,1017,RJOT 042200Z 27019KT 9999 FEW025 SCT/// M02/M08 Q1017 RMK     1CU025 A3005=,
20180204_230000.002,0,RJOT,,,,0,20180204230000,-1,-1,-1,-1,270,-1,19,-1,-1,-1,-1,,9999,0,0,2,FEW 25   SCT -9999,-1,2,-1,8,1017,RJOT 042300Z 27019KT 9999 FEW025 SCT/// M02/M08 Q1017 RMK     1CU025 A3005=,
20180205_000000.003,0,RJOT,,,,0,20180205000000,-1,-1,-1,-1,260,-1,19,-1,-1,-1,-1,,9999,0,1,1,FEW 25,-1,1,-1,7,1018,RJOT 050000Z 26019KT 9999 VCSH FEW025 M01/M07 Q1018 RMK 1CU025     A3006 5000SW=,VC SH
20180205_010000.002,0,RJOT,,,,0,20180205010000,-1,-1,-1,-1,270,-1,19,-1,-1,-1,-1,,9999,0,1,2,FEW 20   SCT 35,-1,1,-1,7,1018,RJOT 050100Z 27019KT 9999 VCSH FEW020 SCT035 M01/M07 Q1018 RMK     1CU020 3CU035 A3006=,VC SH
20180205_020000.002,0,RJOT,,,,0,20180205020000,-1,-1,-1,-1,280,-1,18,-1,-1,-1,-1,,9999,0,1,2,FEW 20   BKN 40,-1,0,-1,8,1017,RJOT 050200Z 28018KT 9999 VCSH FEW020 BKN040 M00/M08 Q1017 RMK     1CU020 5CU040 A3005=,VC SH
