20180101_000000.002,1,RJSF,,,,0,20180101000000,-1,-1,-1,-1,340,-1,12,-1,-1,-1,-1,,9999,0,0,2,FEW 25   SCT 35,1,4,-1,2,1011,RJSF 010000Z 34012KT 9999 FEW025 SCT035 04/M02 Q1011 RMK     1CU025 4CU035 A2987=,
20180101_010000.002,1,RJSF,,,,0,20180101010000,-1,-1,-1,-1,330,-1,14,-1,-1,-1,-1,,9999,0,0,2,FEW 25   BKN 40,1,4,-1,1,1011,RJSF 010100Z 33014KT 9999 FEW025 BKN040 04/M01 Q1011 RMK     1CU025 6CU040 A2988=,
20180101_020000.002,1,RJSF,,,,0,20180101020000,-1,-1,-1,-1,320,-1,13,-1,-1,-1,-1,,9999,0,1,2,FEW 25   SCT 40,1,5,-1,3,1011,RJSF 010200Z 32013KT 9999 VCSH FEW025 SCT040 05/M03 Q1011 RMK     1CU025 3CU040 A2986=,VC SH
20180101_030000.002,1,RJSF,,,,0,20180101030000,-1,-1,-1,-1,310,-1,12,-1,-1,270,40,,9999,0,0,2,FEW 30   SCT 40,1,6,-1,3,1010,RJSF 010300Z 31012KT 270V040 9999 FEW030 SCT040 06/M03 Q1010     RMK 2CU030 4CU040 A2983=,
20180101_040000.002,1,RJSF,,,,0,20180101040000,-1,-1,-1,-1,300,-1,13,-1,27,270,340,,9999,0,0,1,FEW 30,1,5,-1,4,1009,RJSF 010400Z 30013G27KT 270V340 9999 FEW030 05/M04 Q1009 RMK     1CU030 A2982=,
20180101_050000.002,1,RJSF,,,,0,20180101050000,-1,-1,-1,-1,310,-1,13,-1,24,270,350,,9999,0,1,3,FEW 20   SCT 25   BKN 30,1,5,-1,3,1010,RJSF 010500Z 31013G24KT 270V350 9999 VCSH FEW020 SCT025 BKN030     05/M03 Q1010 RMK 1CU020 3CU025 6CU030 A2984=,VC SH
20180101_060000.002,1,RJSF,,,,0,20180101060000,-1,-1,-1,-1,320,-1,15,-1,28,280,360,,9999,0,0,2,SCT 30   BKN 40,1,4,-1,5,1010,RJSF 010600Z 32015G28KT 280V360 9999 SCT030 BKN040 04/M05     Q1010 RMK 3CU030 6CU040 A2985=,
20180101_070000.002,1,RJSF,,,,0,20180101070000,-1,-1,-1,-1,320,-1,12,-1,-1,270,10,,9999,0,0,2,SCT 30   BKN 40,1,3,-1,5,1011,RJSF 010700Z 32012KT 270V010 9999 SCT030 BKN040 03/M05 Q1011     RMK 3CU030 6CU040 A2987=,
20180101_080000.002,1,RJSF,,,,0,20180101080000,-1,-1,-1,-1,320,-1,11,-1,-1,290,360,,9999,0,0,3,FEW 25   SCT 35   BKN 40,1,3,-1,5,1011,RJSF 010800Z 32011KT 290V360 9999 FEW025 SCT035 BKN040 03/M05     Q1011 RMK 2CU025 4CU035 6CU040 A2988=,
20180101_090000.002,1,RJSF,,,,0,20180101090000,-1,-1,-1,-1,320,-1,12,-1,-1,250,10,,9999,0,1,2,FEW 30   BKN 35,1,2,-1,5,1012,RJSF 010900Z 32012KT 250V010 9999 -SHSN FEW030 BKN035 02/M05     Q1012 RMK 2CU030 5CU035 A2989=,- SN SH
20180101_100000.002,1,RJSF,,,,0,20180101100000,-1,-1,-1,-1,330,-1,10,-1,-1,290,360,,9999,0,1,2,SCT 30   BKN 40,1,1,-1,5,1012,RJSF 011000Z 33010KT 290V360 9999 -SHSN SCT030 BKN040 01/M05     Q1012 RMK 3CU030 6CU040 A2989=,- SN SH
20180101_110000.002,1,RJSF,,,,0,20180101110000,-1,-1,-1,-1,340,-1,9,-1,-1,-1,-1,,9999,0,1,2,SCT 30   BKN 40,1,1,-1,4,1012,RJSF 011100Z 34009KT 9999 -SHSN SCT030 BKN040 01/M04 Q1012 RMK     4CU030 6CU040 A2990=,- SN SH
20180101_220000.002,1,RJSF,,,,0,20180101220000,-1,-1,-1,-1,320,-1,17,-1,-1,260,340,,9999,0,0,3,FEW 20   SCT 30   BKN 40,1,0,-1,7,1013,RJSF 012200Z 32017KT 260V340 9999 FEW020 SCT030 BKN040 00/M07     Q1013 RMK 1CU020 4CU030 6CU040 A2992=,
20180101_230000.002,1,RJSF,,,,0,20180101230000,-1,-1,-1,-1,320,-1,14,-1,-1,270,340,,9999,0,0,3,FEW 20   SCT 30   BKN 40,1,1,-1,7,1013,RJSF 012300Z 32014KT 270V340 9999 FEW020 SCT030 BKN040 01/M07     Q1013 RMK 1CU020 3CU030 6CU040 A2994=,
20180102_000000.003,1,RJSF,,,,0,20180102000000,-1,-1,-1,-1,290,-1,14,-1,-1,-1,-1,,9999,0,0,2,FEW 20   BKN 40,1,1,-1,7,1014,RJSF 020000Z 29014KT 9999 FEW020 BKN040 01/M07 Q1014 RMK     1CU020 5CU040 A2995=,
20180102_010000.003,1,RJSF,,,,0,20180102010000,-1,-1,-1,-1,300,-1,18,-1,-1,260,340,,9999,0,0,2,FEW 30   SCT 40,1,2,-1,8,1014,RJSF 020100Z 30018KT 260V340 9999 FEW030 SCT040 02/M08 Q1014     RMK 1CU030 4CU040 A2995=,
20180102_020000.002,1,RJSF,,,,0,20180102020000,-1,-1,-1,-1,290,-1,15,-1,-1,-1,-1,,9999,0,0,2,FEW 30   SCT 40,1,3,-1,8,1013,RJSF 020200Z 29015KT 9999 FEW030 SCT040 03/M08 Q1013 RMK     1CU030 3CU040 A2993=,
20180102_030000.002,1,RJSF,,,,0,20180102030000,-1,-1,-1,-1,290,-1,17,-1,29,260,330,,9999,0,0,2,FEW 30   SCT 40,1,3,-1,8,1013,RJSF 020300Z 29017G29KT 260V330 9999 FEW030 SCT040 03/M08     Q1013 RMK 1CU030 4CU040 A2991=,
20180102_040000.002,1,RJSF,,,,0,20180102040000,-1,-1,-1,-1,290,-1,8,-1,-1,250,340,,9999,0,0,2,FEW 30   BKN 40,1,2,-1,8,1013,RJSF 020400Z 29008KT 250V340 9999 FEW030 BKN040 02/M08 Q1013     RMK 1CU030 6CU040 A2992=,
20180102_050000.002,1,RJSF,,,,0,20180102050000,-1,-1,-1,-1,10,-1,8,-1,18,340,40,,9999,0,0,2,SCT 40   BKN 50,1,2,-1,8,1012,RJSF 020500Z 01008G18KT 340V040 9999 SCT040 BKN050 02/M08     Q1012 RMK 3CU040 5CU050 A2991=,
20180102_060000.002,1,RJSF,,,,0,20180102060000,-1,-1,-1,-1,320,-1,10,-1,-1,260,360,,9999,0,0,1,FEW 40,1,3,-1,8,1012,RJSF 020600Z 32010KT 260V360 9999 FEW040 03/M08 Q1012 RMK     2CU040 A2990=,
20180102_070000.002,1,RJSF,,,,0,20180102070000,-1,-1,-1,-1,270,-1,9,-1,-1,230,310,,9999,0,0,1,SCT 40,1,2,-1,8,1012,RJSF 020700Z 27009KT 230V310 9999 SCT040 02/M08 Q1012 RMK     3CU040 A2990=,
20180102_080000.002,1,RJSF,,,,0,20180102080000,-1,-1,-1,-1,999,-1,2,-1,-1,-1,-1,,9999,0,0,1,FEW 40,1,1,-1,7,1012,RJSF 020800Z VRB02KT 9999 FEW040 01/M07 Q1012 RMK 2CU040     A2988=,
20180102_090000.002,1,RJSF,,,,0,20180102090000,-1,-1,-1,-1,999,-1,1,-1,-1,-1,-1,,9999,0,0,2,FEW 40   SCT -9999,-1,1,-1,8,1011,RJSF 020900Z VRB01KT 9999 FEW040 SCT/// M01/M08 Q1011 RMK     1CU040 A2986=,
20180102_100000.002,1,RJSF,,,,0,20180102100000,-1,-1,-1,-1,360,-1,3,-1,-1,310,30,,9999,0,0,3,SCT 50   BKN 70   BKN 80,-1,1,-1,7,1010,RJSF 021000Z 36003KT 310V030 9999 SCT050 BKN070 BKN080 M01/M07     Q1010 RMK 3CU050 5AC070 7AC080 A2983=,
20180102_110000.002,1,RJSF,,,,0,20180102110000,-1,-1,-1,-1,10,-1,6,-1,-1,330,40,,9999,0,1,3,FEW 20   BKN 25   BKN 30,1,0,-1,6,1009,RJSF 021100Z 01006KT 330V040 9999 -SHSN FEW020 BKN025 BKN030     00/M06 Q1009 RMK 1CU020 5CU025 7CU030 A2981=,- SN SH
20180102_220000.002,1,RJSF,,,,0,20180102220000,-1,-1,-1,-1,320,-1,18,-1,-1,-1,-1,,9999,0,1,2,FEW 20   SCT 30,-1,4,-1,6,1009,RJSF 022200Z 32018KT 9999 -SHSN FEW020 SCT030 M04/M06 Q1009     RMK 2CU020 3CU030 A2980=,- SN SH
20180102_230000.002,1,RJSF,,,,0,20180102230000,-1,-1,-1,-1,310,-1,15,-1,27,280,340,,9999,0,0,1,FEW 20,-1,4,-1,7,1009,RJSF 022300Z 31015G27KT 280V340 9999 FEW020 M04/M07 Q1009 RMK     2CU020 A2980=,
20180103_000000.002,1,RJSF,,,,0,20180103000000,-1,-1,-1,-1,300,-1,15,-1,27,270,340,,9999,0,0,1,FEW 20,-1,2,-1,9,1009,RJSF 030000Z 30015G27KT 270V340 9999 FEW020 M02/M09 Q1009 RMK     2CU020 A2981=,
20180103_010000.002,1,RJSF,,,,0,20180103010000,-1,-1,-1,-1,300,-1,13,-1,23,270,340,,9999,0,0,1,FEW 20,-1,1,-1,10,1009,RJSF 030100Z 30013G23KT 270V340 9999 FEW020 M01/M10 Q1009 RMK     2CU020 A2981=,
20180103_020000.002,1,RJSF,,,,0,20180103020000,-1,-1,-1,-1,300,-1,17,-1,28,270,330,,9999,0,0,1,FEW 20,-1,0,-1,8,1008,RJSF 030200Z 30017G28KT 270V330 9999 FEW020 M00/M08 Q1008 RMK     2CU020 A2978=,
20180103_030000.003,1,RJSF,,,,0,20180103030000,-1,-1,-1,-1,310,-1,13,-1,26,280,340,,9999,0,1,2,FEW 30   SCT 40,1,0,-1,7,1008,RJSF 030300Z 31013G26KT 280V340 9999 -SHSN FEW030 SCT040     00/M07 Q1008 RMK 1CU030 4CU040 A2977=,- SN SH
20180103_040000.002,1,RJSF,,,,0,20180103040000,-1,-1,-1,-1,300,-1,13,-1,23,270,340,,4000,1,1,3,FEW 5   SCT 10   BKN 20,-1,1,-1,1,1008,RJSF 030400Z 30013G23KT 270V340 4000 R01/1800U -SHSN FEW005     SCT010 BKN020 M01/M01 Q1008 RMK 2ST005 4CU010 6CU020           A2977=,- SN SH
20180103_050000.002,1,RJSF,,,,0,20180103050000,-1,-1,-1,-1,300,-1,17,-1,27,270,340,,9999,0,1,3,FEW 15   SCT 20   BKN 25,-1,0,-1,4,1008,RJSF 030500Z 30017G27KT 270V340 9999 -SHSN FEW015 SCT020     BKN025 M00/M04 Q1008 RMK 1CU015 4CU020 6CU025 A2979=,- SN SH
20180103_060000.002,1,RJSF,,,,0,20180103060000,-1,-1,-1,-1,300,-1,12,-1,-1,270,340,,3000,0,1,3,FEW 5   SCT 7   BKN 12,-1,1,-1,1,1010,RJSF 030600Z 30012KT 270V340 3000 -SHSN FEW005 SCT007 BKN012     M01/M01 Q1010 RMK 1ST005 3ST007 6ST012 A2982=,- SN SH
20180103_070000.002,1,RJSF,,,,0,20180103070000,-1,-1,-1,-1,350,-1,6,-1,-1,300,20,,9999,0,1,3,FEW 7   SCT 8   BKN 9,-1,1,-1,1,1011,RJSF 030700Z 35006KT 300V020 9999 -SHSN FEW007 SCT008 BKN009     M01/M01 Q1011 RMK 2ST007 4ST008 6ST009 A2987=,- SN SH
20180103_080000.002,1,RJSF,,,,0,20180103080000,-1,-1,-1,-1,310,-1,9,-1,-1,280,340,,2000,0,1,3,FEW 7   SCT 9   BKN 10,-1,1,-1,1,1012,RJSF 030800Z 31009KT 280V340 2000 -SHSN FEW007 SCT009 BKN010     M01/M01 Q1012 RMK 1ST007 3ST009 7ST010 A2989=,- SN SH
20180103_090000.002,1,RJSF,,,,0,20180103090000,-1,-1,-1,-1,310,-1,7,-1,-1,250,350,,4000,0,1,3,FEW 10   BKN 15   BKN 20,-1,1,-1,1,1012,RJSF 030900Z 31007KT 250V350 4000 -SHSN FEW010 BKN015 BKN020     M01/M01 Q1012 RMK 1ST010 5CU015 7CU020 A2990=,- SN SH
20180103_100000.002,1,RJSF,,,,0,20180103100000,-1,-1,-1,-1,330,-1,10,-1,-1,-1,-1,,9999,0,1,2,SCT 15   BKN 25,-1,1,-1,1,1012,RJSF 031000Z 33010KT 9999 -SHSN SCT015 BKN025 M01/M01 Q1012     RMK 4CU015 6CU025 A2991=,- SN SH
20180103_110000.002,1,RJSF,,,,0,20180103110000,-1,-1,-1,-1,10,-1,6,-1,-1,320,40,,9999,0,1,2,SCT 20   BKN 25,-1,2,-1,2,1013,RJSF 031100Z 01006KT 320V040 9999 -SHSN SCT020 BKN025 M02/M02     Q1013 RMK 4CU020 6CU025 A2993=,- SN SH
20180103_220000.002,1,RJSF,,,,0,20180103220000,-1,-1,-1,-1,300,-1,6,-1,-1,270,360,,9999,0,0,2,FEW 30   BKN 40,-1,1,-1,7,1016,RJSF 032200Z 30006KT 270V360 9999 FEW030 BKN040 M01/M07 Q1016     RMK 1CU030 5CU040 A3003=,
20180103_230000.002,1,RJSF,,,,0,20180103230000,-1,-1,-1,-1,320,-1,13,-1,-1,270,350,,9999,0,0,3,FEW 30   SCT 35   BKN 45,-1,1,-1,7,1016,RJSF 032300Z 32013KT 270V350 9999 FEW030 SCT035 BKN045 M01/M07     Q1016 RMK 1CU030 3CU035 5CU045 A3001=,
20180104_000000.002,1,RJSF,,,,0,20180104000000,-1,-1,-1,-1,320,-1,13,-1,23,270,340,,9999,0,0,2,FEW 35   BKN 45,1,0,-1,7,1016,RJSF 040000Z 32013G23KT 270V340 9999 FEW035 BKN045 00/M07     Q1016 RMK 2CU035 5CU045 A3002=,
20180104_010000.002,1,RJSF,,,,0,20180104010000,-1,-1,-1,-1,310,-1,11,-1,-1,270,340,,9999,0,0,2,FEW 35   BKN 45,1,1,-1,7,1017,RJSF 040100Z 31011KT 270V340 9999 FEW035 BKN045 01/M07 Q1017     RMK 1CU035 5CU045 A3003=,
20180104_020000.002,1,RJSF,,,,0,20180104020000,-1,-1,-1,-1,310,-1,13,-1,24,270,340,,9999,0,0,2,FEW 35   BKN 45,1,1,-1,7,1016,RJSF 040200Z 31013G24KT 270V340 9999 FEW035 BKN045 01/M07     Q1016 RMK 1CU035 6CU045 A3001=,
20180104_030000.002,1,RJSF,,,,0,20180104030000,-1,-1,-1,-1,310,-1,12,-1,-1,270,340,,9999,0,0,2,FEW 25   SCT 45,1,1,-1,8,1015,RJSF 040300Z 31012KT 270V340 9999 FEW025 SCT045 01/M08 Q1015     RMK 2CU025 4CU045 A2998=,
20180104_040000.002,1,RJSF,,,,0,20180104040000,-1,-1,-1,-1,290,-1,18,-1,29,-1,-1,,9999,0,0,1,SCT 40,1,1,-1,8,1014,RJSF 040400Z 29018G29KT 9999 SCT040 01/M08 Q1014 RMK 3CU040     A2996=,
20180104_050000.002,1,RJSF,,,,0,20180104050000,-1,-1,-1,-1,320,-1,12,-1,-1,270,350,,9999,0,0,1,FEW 30,1,1,-1,8,1015,RJSF 040500Z 32012KT 270V350 9999 FEW030 01/M08 Q1015 RMK     1CU030 A2997=,
20180104_060000.003,1,RJSF,,,,0,20180104060000,-1,-1,-1,-1,320,-1,10,-1,-1,280,350,,9999,0,0,2,FEW 30   SCT 40,1,0,-1,7,1015,RJSF 040600Z 32010KT 280V350 9999 FEW030 SCT040 00/M07 Q1015     RMK 1CU030 3CU040 A2998=,
20180104_070000.002,1,RJSF,,,,0,20180104070000,-1,-1,-1,-1,290,-1,10,-1,-1,260,340,,9999,0,0,2,FEW 30   SCT 40,-1,0,-1,6,1015,RJSF 040700Z 29010KT 260V340 9999 FEW030 SCT040 M00/M06 Q1015     RMK 1CU030 3CU040 A2998=,
20180104_080000.002,1,RJSF,,,,0,20180104080000,-1,-1,-1,-1,290,-1,15,-1,-1,-1,-1,,9999,0,0,1,FEW 30,-1,1,-1,7,1015,RJSF 040800Z 29015KT 9999 FEW030 M01/M07 Q1015 RMK 1CU030     A2998=,
20180104_090000.002,1,RJSF,,,,0,20180104090000,-1,-1,-1,-1,999,-1,3,-1,-1,-1,-1,,9999,0,0,1,FEW 30,-1,1,-1,7,1016,RJSF 040900Z VRB03KT 9999 FEW030 M01/M07 Q1016 RMK 1CU030     A3001=,
20180104_100000.002,1,RJSF,,,,0,20180104100000,-1,-1,-1,-1,320,-1,9,-1,-1,280,10,,9999,0,0,2,FEW 30   SCT 40,-1,1,-1,8,1016,RJSF 041000Z 32009KT 280V010 9999 FEW030 SCT040 M01/M08 Q1016     RMK 1CU030 3CU040 A3002=,
20180104_110000.002,1,RJSF,,,,0,20180104110000,-1,-1,-1,-1,350,-1,6,-1,-1,280,70,,9999,0,0,2,FEW 30   BKN 40,-1,1,-1,7,1017,RJSF 041100Z 35006KT 280V070 9999 FEW030 BKN040 M01/M07 Q1017     RMK 1CU030 5CU040 A3004=,
20180104_220000.002,1,RJSF,,,,0,20180104220000,-1,-1,-1,-1,10,-1,7,-1,-1,-1,-1,,9999,0,0,1,FEW 40,-1,2,-1,7,1015,RJSF 042200Z 01007KT 9999 FEW040 M02/M07 Q1015 RMK 1CU040     A2999=,
20180104_230000.002,1,RJSF,,,,0,20180104230000,-1,-1,-1,-1,360,-1,6,-1,-1,-1,-1,,9999,0,0,3,FEW 30   SCT 150   BKN -9999,-1,1,-1,6,1015,RJSF 042300Z 36006KT 9999 FEW030 SCT150 BKN/// M01/M06 Q1015     RMK 1CU030 3AC150 A2998=,
20180105_000000.002,1,RJSF,,,,0,20180105000000,-1,-1,-1,-1,10,-1,6,-1,-1,-1,-1,,9999,0,0,2,FEW 30   BKN -9999,1,0,-1,7,1015,RJSF 050000Z 01006KT 9999 FEW030 BKN/// 00/M07 Q1015 RMK     1CU030 A2998=,
20180105_010000.003,1,RJSF,,,,0,20180105010000,-1,-1,-1,-1,350,-1,6,-1,-1,-1,-1,,9999,0,0,3,FEW 30   SCT 140   BKN -9999,1,1,-1,7,1015,RJSF 050100Z 35006KT 9999 FEW030 SCT140 BKN/// 01/M07 Q1015     RMK 1CU030 3AC140 A2998=,
20180105_020000.002,1,RJSF,,,,0,20180105020000,-1,-1,-1,-1,999,-1,3,-1,-1,-1,-1,,9999,0,0,2,FEW 35   BKN -9999,1,2,-1,6,1014,RJSF 050200Z VRB03KT 9999 FEW035 BKN/// 02/M06 Q1014 RMK     1CU035 A2995=,
20180105_030000.002,1,RJSF,,,,0,20180105030000,-1,-1,-1,-1,270,-1,5,-1,-1,200,350,,9999,0,0,2,FEW 35   BKN -9999,1,2,-1,8,1013,RJSF 050300Z 27005KT 200V350 9999 FEW035 BKN/// 02/M08 Q1013     RMK 1CU035 A2993=,
20180105_040000.002,1,RJSF,,,,0,20180105040000,-1,-1,-1,-1,250,-1,4,-1,-1,200,320,,9999,0,0,2,FEW 35   BKN -9999,1,3,-1,8,1012,RJSF 050400Z 25004KT 200V320 9999 FEW035 BKN/// 03/M08 Q1012     RMK 1CU035 A2990=,
20180105_050000.002,1,RJSF,,,,0,20180105050000,-1,-1,-1,-1,999,-1,2,-1,-1,-1,-1,,9999,0,0,2,FEW 35   BKN -9999,1,3,-1,8,1011,RJSF 050500Z VRB02KT 9999 FEW035 BKN/// 03/M08 Q1011 RMK     1CU035 A2988=,
20180105_060000.002,1,RJSF,,,,0,20180105060000,-1,-1,-1,-1,360,-1,8,-1,-1,-1,-1,,9999,0,0,3,FEW 35   SCT 130   BKN -9999,1,3,-1,7,1011,RJSF 050600Z 36008KT 9999 FEW035 SCT130 BKN/// 03/M07 Q1011     RMK 1CU035 4AC130 A2988=,
20180105_070000.002,1,RJSF,,,,0,20180105070000,-1,-1,-1,-1,350,-1,7,-1,-1,-1,-1,,9999,0,0,3,FEW 40   BKN 130   BKN -9999,1,2,-1,7,1011,RJSF 050700Z 35007KT 9999 FEW040 BKN130 BKN/// 02/M07 Q1011     RMK 1CU040 5AC130 A2988=,
20180105_080000.002,1,RJSF,,,,0,20180105080000,-1,-1,-1,-1,350,-1,5,-1,-1,-1,-1,,9999,0,0,3,FEW 30   BKN 140   BKN -9999,1,1,-1,7,1012,RJSF 050800Z 35005KT 9999 FEW030 BKN140 BKN/// 01/M07 Q1012     RMK 1CU030 5AC140 A2988=,
20180105_090000.002,1,RJSF,,,,0,20180105090000,-1,-1,-1,-1,20,-1,3,-1,-1,-1,-1,,9999,0,0,2,FEW 40   BKN 120,1,1,-1,7,1011,RJSF 050900Z 02003KT 9999 FEW040 BKN120 01/M07 Q1011 RMK     1CU040 7AC120 A2988=,
20180105_100000.002,1,RJSF,,,,0,20180105100000,-1,-1,-1,-1,10,-1,5,-1,-1,-1,-1,CAVOK,-1,0,0,0,,-1,0,-1,6,1011,RJSF 051000Z 01005KT CAVOK M00/M06 Q1011 RMK A2987=,
20180105_110000.002,1,RJSF,,,,0,20180105110000,-1,-1,-1,-1,360,-1,6,-1,-1,-1,-1,CAVOK,-1,0,0,0,,-1,0,-1,6,1011,RJSF 051100Z 36006KT CAVOK M00/M06 Q1011 RMK A2986=,
20180105_220000.002,1,RJSF,,,,0,20180105220000,-1,-1,-1,-1,300,-1,4,-1,-1,260,340,,9999,0,0,3,FEW 20   BKN 45   BKN 180,1,1,-1,6,1009,RJSF 052200Z 30004KT 260V340 9999 FEW020 BKN045 BKN180 01/M06     Q1009 RMK 1CU020 5CU045 7AC180 A2980=,
20180105_230000.002,1,RJSF,,,,0,20180105230000,-1,-1,-1,-1,300,-1,6,-1,-1,-1,-1,,9999,0,0,3,FEW 20   SCT 50   BKN -9999,1,1,-1,5,1009,RJSF 052300Z 30006KT 9999 FEW020 SCT050 BKN/// 01/M05 Q1009     RMK 1CU020 3CU050 A2981=,
20180106_000000.002,1,RJSF,,,,0,20180106000000,-1,-1,-1,-1,310,-1,6,-1,-1,280,340,,9999,0,0,3,FEW 20   BKN 160   BKN -9999,1,2,-1,4,1009,RJSF 060000Z 31006KT 280V340 9999 FEW020 BKN160 BKN/// 02/M04     Q1009 RMK 1CU020 5AC160 A2982=,
20180106_010000.002,1,RJSF,,,,0,20180106010000,-1,-1,-1,-1,300,-1,9,-1,-1,270,340,,9999,0,0,3,FEW 20   SCT 160   BKN -9999,1,3,-1,5,1009,RJSF 060100Z 30009KT 270V340 9999 FEW020 SCT160 BKN/// 03/M05     Q1009 RMK 1CU020 3AC160 A2981=,
20180106_020000.002,1,RJSF,,,,0,20180106020000,-1,-1,-1,-1,280,-1,10,-1,-1,250,330,,9999,0,0,2,FEW 20   SCT 45,1,4,-1,5,1009,RJSF 060200Z 28010KT 250V330 9999 FEW020 SCT045 04/M05 Q1009     RMK 1CU020 4CU045 A2980=,
20180106_030000.002,1,RJSF,,,,0,20180106030000,-1,-1,-1,-1,310,-1,11,-1,-1,260,340,,9999,0,0,3,FEW 30   SCT 40   BKN 50,1,4,-1,6,1008,RJSF 060300Z 31011KT 260V340 9999 FEW030 SCT040 BKN050 04/M06     Q1008 RMK 1CU030 3CU040 6CU050 A2978=,
20180106_040000.002,1,RJSF,,,,0,20180106040000,-1,-1,-1,-1,290,-1,7,-1,-1,250,320,,9999,0,0,3,FEW 30   SCT 45   BKN 50,1,4,-1,6,1007,RJSF 060400Z 29007KT 250V320 9999 FEW030 SCT045 BKN050 04/M06     Q1007 RMK 1CU030 4CU045 7CU050 A2976=,
20180106_050000.002,1,RJSF,,,,0,20180106050000,-1,-1,-1,-1,340,-1,3,-1,-1,240,40,,9999,0,0,2,FEW 40   BKN 50,1,5,-1,4,1007,RJSF 060500Z 34003KT 240V040 9999 FEW040 BKN050 05/M04 Q1007     RMK 2CU040 6CU050 A2975=,
20180106_060000.002,1,RJSF,,,,0,20180106060000,-1,-1,-1,-1,290,-1,5,-1,-1,230,350,,9999,0,0,2,FEW 40   SCT 50,1,5,-1,6,1007,RJSF 060600Z 29005KT 230V350 9999 FEW040 SCT050 05/M06 Q1007     RMK 1CU040 3CU050 A2974=,
20180106_070000.002,1,RJSF,,,,0,20180106070000,-1,-1,-1,-1,310,-1,11,-1,-1,270,350,,9999,0,0,3,FEW 25   SCT 30   BKN 50,1,3,-1,4,1007,RJSF 060700Z 31011KT 270V350 9999 FEW025 SCT030 BKN050 03/M04     Q1007 RMK 2CU025 4CU030 6CU050 A2976=,
20180106_080000.002,1,RJSF,,,,0,20180106080000,-1,-1,-1,-1,320,-1,3,-1,-1,260,10,,9999,0,0,3,FEW 10   SCT 20   BKN 45,1,2,-1,3,1008,RJSF 060800Z 32003KT 260V010 9999 FEW010 SCT020 BKN045 02/M03     Q1008 RMK 2CU010 3CU020 5CU045 A2978=,
20180106_090000.002,1,RJSF,,,,0,20180106090000,-1,-1,-1,-1,300,-1,8,-1,-1,270,340,,9999,0,1,2,FEW 20   BKN 25,1,2,1,2,1009,RJSF 060900Z 30008KT 270V340 9999 -SHSN FEW020 BKN025 02/02     Q1009 RMK 2CU020 6CU025 A2980=,- SN SH
20180106_100000.002,1,RJSF,,,,0,20180106100000,-1,-1,-1,-1,330,-1,10,-1,-1,300,10,,9999,0,1,2,SCT 25   BKN 30,1,2,-1,3,1010,RJSF 061000Z 33010KT 300V010 9999 -SHSN SCT025 BKN030 02/M03     Q1010 RMK 3CU025 7CU030 A2983=,- SN SH
20180106_110000.002,1,RJSF,,,,0,20180106110000,-1,-1,-1,-1,340,-1,12,-1,22,290,10,,9999,0,1,3,FEW 25   SCT 30   BKN 40,1,1,-1,6,1011,RJSF 061100Z 34012G22KT 290V010 9999 -SHSN FEW025 SCT030     BKN040 01/M06 Q1011 RMK 2CU025 4CU030 7CU040 A2986=,- SN SH
20180106_220000.002,1,RJSF,,,,0,20180106220000,-1,-1,-1,-1,999,-1,8,-1,18,-1,-1,,9999,0,0,1,BKN 35,1,0,-1,8,1015,RJSF 062200Z VRB08G18KT 9999 BKN035 00/M08 Q1015 RMK 5CU035     A2999=,
20180106_230000.002,1,RJSF,,,,0,20180106230000,-1,-1,-1,-1,999,-1,2,-1,-1,-1,-1,,9999,0,0,1,BKN 30,1,1,-1,8,1017,RJSF 062300Z VRB02KT 9999 BKN030 01/M08 Q1017 RMK 5CU030     A3003=,
20180107_000000.002,1,RJSF,,,,0,20180107000000,-1,-1,-1,-1,330,-1,10,-1,-1,280,30,,9999,0,0,2,FEW 40   SCT 50,1,2,-1,8,1017,RJSF 070000Z 33010KT 280V030 9999 FEW040 SCT050 02/M08 Q1017     RMK 2CU040 4CU050 A3004=,
20180107_010000.003,1,RJSF,,,,0,20180107010000,-1,-1,-1,-1,310,-1,13,-1,-1,280,350,,9999,0,0,2,FEW 35   SCT 40,1,3,-1,8,1018,RJSF 070100Z 31013KT 280V350 9999 FEW035 SCT040 03/M08 Q1018     RMK 1CU035 4CU040 A3006=,
20180107_020000.002,1,RJSF,,,,0,20180107020000,-1,-1,-1,-1,300,-1,13,-1,24,250,340,,9999,0,0,1,SCT 40,1,3,-1,8,1018,RJSF 070200Z 30013G24KT 250V340 9999 SCT040 03/M08 Q1018 RMK     3CU040 A3006=,
20180107_030000.002,1,RJSF,,,,0,20180107030000,-1,-1,-1,-1,310,-1,9,-1,-1,270,360,,9999,0,0,1,SCT 40,1,4,-1,7,1018,RJSF 070300Z 31009KT 270V360 9999 SCT040 04/M07 Q1018 RMK     3CU040 A3006=,
20180107_040000.002,1,RJSF,,,,0,20180107040000,-1,-1,-1,-1,300,-1,14,-1,24,270,330,,9999,0,0,1,FEW 40,1,4,-1,8,1018,RJSF 070400Z 30014G24KT 270V330 9999 FEW040 04/M08 Q1018 RMK     2CU040 A3007=,
20180107_050000.002,1,RJSF,,,,0,20180107050000,-1,-1,-1,-1,310,-1,10,-1,22,260,350,,9999,0,0,2,FEW 45   SCT 50,1,3,-1,8,1019,RJSF 070500Z 31010G22KT 260V350 9999 FEW045 SCT050 03/M08     Q1019 RMK 1CU045 3CU050 A3011=,
20180107_060000.002,1,RJSF,,,,0,20180107060000,-1,-1,-1,-1,330,-1,11,-1,-1,-1,-1,,9999,0,0,1,FEW 45,1,3,-1,7,1020,RJSF 070600Z 33011KT 9999 FEW045 03/M07 Q1020 RMK 1CU045     A3012=,
20180107_070000.002,1,RJSF,,,,0,20180107070000,-1,-1,-1,-1,320,-1,8,-1,-1,-1,-1,,9999,0,0,1,FEW 40,1,2,-1,8,1019,RJSF 070700Z 32008KT 9999 FEW040 02/M08 Q1019 RMK 1CU040     A3011=,
20180107_080000.002,1,RJSF,,,,0,20180107080000,-1,-1,-1,-1,330,-1,10,-1,-1,-1,-1,,9999,0,0,1,FEW 35,1,1,-1,8,1021,RJSF 070800Z 33010KT 9999 FEW035 01/M08 Q1021 RMK 1CU035     A3015=,
20180107_090000.002,1,RJSF,,,,0,20180107090000,-1,-1,-1,-1,360,-1,6,-1,-1,-1,-1,,9999,0,0,1,FEW 30,1,0,-1,7,1022,RJSF 070900Z 36006KT 9999 FEW030 00/M07 Q1022 RMK 1CU030     A3018=,
20180107_100000.002,1,RJSF,,,,0,20180107100000,-1,-1,-1,-1,350,-1,10,-1,-1,-1,-1,,9999,0,0,2,FEW 30   SCT 180,1,0,-1,7,1022,RJSF 071000Z 35010KT 9999 FEW030 SCT180 00/M07 Q1022 RMK     1CU030 3AC180 A3020=,
20180107_110000.002,1,RJSF,,,,0,20180107110000,-1,-1,-1,-1,10,-1,9,-1,-1,-1,-1,,9999,0,0,1,FEW 25,1,0,-1,7,1022,RJSF 071100Z 01009KT 9999 FEW025 00/M07 Q1022 RMK 1CU025     A3019=,
20180107_220000.002,1,RJSF,,,,0,20180107220000,-1,-1,-1,-1,140,-1,4,-1,-1,-1,-1,,9999,0,0,3,SCT 25   BKN 110   BKN -9999,1,2,-1,3,1018,RJSF 072200Z 14004KT 9999 SCT025 BKN110 BKN/// 02/M03 Q1018     RMK 3SC025 5AC110 A3007=,
20180107_230000.002,1,RJSF,,,,0,20180107230000,-1,-1,-1,-1,140,-1,4,-1,-1,110,170,,9999,0,0,2,BKN 25   BKN 30,1,3,-1,2,1018,RJSF 072300Z 14004KT 110V170 9999 BKN025 BKN030 03/M02 Q1018     RMK 5SC025 7SC030 A3007=,
20180108_000000.002,1,RJSF,,,,0,20180108000000,-1,-1,-1,-1,150,-1,5,-1,-1,-1,-1,,9999,0,0,3,SCT 25   BKN 35   BKN 100,1,4,-1,1,1018,RJSF 080000Z 15005KT 9999 SCT025 BKN035 BKN100 04/M01 Q1018     RMK 3SC025 5SC035 7AC100 A3006=,
20180108_010000.002,1,RJSF,,,,0,20180108010000,-1,-1,-1,-1,160,-1,6,-1,-1,130,190,,9999,0,0,3,FEW 25   SCT 100   BKN -9999,1,6,1,0,1017,RJSF 080100Z 16006KT 130V190 9999 FEW025 SCT100 BKN/// 06/00     Q1017 RMK 2SC025 4AC100 A3003=,
20180108_020000.002,1,RJSF,,,,0,20180108020000,-1,-1,-1,-1,170,-1,4,-1,-1,140,210,,9999,0,0,3,FEW 25   BKN 90   BKN -9999,1,7,1,1,1015,RJSF 080200Z 17004KT 140V210 9999 FEW025 BKN090 BKN/// 07/01     Q1015 RMK 1SC025 5AC090 A2999=,
20180108_030000.002,1,RJSF,,,,0,20180108030000,-1,-1,-1,-1,200,-1,8,-1,-1,-1,-1,,9999,0,0,3,FEW 25   SCT 70   BKN -9999,1,8,1,2,1013,RJSF 080300Z 20008KT 9999 FEW025 SCT070 BKN/// 08/02 Q1013 RMK     1SC025 3AC070 A2992 P/FR=,
20180108_040000.002,1,RJSF,,,,0,20180108040000,-1,-1,-1,-1,180,-1,11,-1,-1,-1,-1,,9999,0,0,3,FEW 25   SCT 70   BKN 110,1,8,1,1,1012,RJSF 080400Z 18011KT 9999 FEW025 SCT070 BKN110 08/01 Q1012 RMK     1SC025 3AC070 6AC110 A2989=,
20180108_050000.002,1,RJSF,,,,0,20180108050000,-1,-1,-1,-1,190,-1,11,-1,-1,-1,-1,,9999,0,0,3,FEW 60   BKN 110   BKN -9999,1,9,-1,0,1010,RJSF 080500Z 19011KT 9999 FEW060 BKN110 BKN/// 09/M00 Q1010     RMK 2SC060 5AC110 A2985=,
20180108_060000.003,1,RJSF,,,,0,20180108060000,-1,-1,-1,-1,170,-1,7,-1,-1,-1,-1,,9999,0,1,3,FEW 35   SCT 60   BKN 70,1,7,-1,0,1009,RJSF 080600Z 17007KT 9999 -RA FEW035 SCT060 BKN070 07/M00     Q1009 RMK 1CU035 4SC060 7AC070 A2982=,- RA
20180108_070000.002,1,RJSF,,,,0,20180108070000,-1,-1,-1,-1,180,-1,12,-1,-1,-1,-1,,9999,0,1,3,FEW 25   SCT 60   BKN 70,1,6,1,0,1009,RJSF 080700Z 18012KT 9999 -RA FEW025 SCT060 BKN070 06/00 Q1009     RMK 1CU025 4SC060 7AC070 A2982=,- RA
20180108_080000.002,1,RJSF,,,,0,20180108080000,-1,-1,-1,-1,170,-1,9,-1,-1,-1,-1,,9999,0,1,3,FEW 20   BKN 60   BKN 70,1,4,1,4,1009,RJSF 080800Z 17009KT 9999 -RA FEW020 BKN060 BKN070 04/04 Q1009     RMK 1CU020 5SC060 7AC070 A2979=,- RA
20180108_090000.002,1,RJSF,,,,0,20180108090000,-1,-1,-1,-1,160,-1,6,-1,-1,-1,-1,,9999,0,0,3,FEW 15   SCT 80   BKN 100,1,4,1,4,1008,RJSF 080900Z 16006KT 9999 FEW015 SCT080 BKN100 04/04 Q1008 RMK     1CU015 4AC080 7AC100 A2977=,
20180108_100000.002,1,RJSF,,,,0,20180108100000,-1,-1,-1,-1,170,-1,3,-1,-1,-1,-1,,9999,0,0,3,FEW 15   BKN 80   BKN 100,1,4,1,4,1007,RJSF 081000Z 17003KT 9999 FEW015 BKN080 BKN100 04/04 Q1007 RMK     1CU015 5AC080 7AC100 A2976=,
20180108_110000.002,1,RJSF,,,,0,20180108110000,-1,-1,-1,-1,999,-1,1,-1,-1,-1,-1,,9999,0,0,3,FEW 15   BKN 25   BKN 130,1,4,1,4,1006,RJSF 081100Z VRB01KT 9999 FEW015 BKN025 BKN130 04/04 Q1006 RMK     1CU015 5SC025 7AC130 A2973=,
20180108_220000.002,1,RJSF,,,,0,20180108220000,-1,-1,-1,-1,999,-1,1,-1,-1,-1,-1,,300,1,1,1,VV 2,1,6,1,6,992,RJSF 082200Z VRB01KT 0300 R01/0350V0500N FG VV002 06/06 Q0992     RMK A2930=,FG
20180108_230000.003,1,RJSF,,,,0,20180108230000,-1,-1,-1,-1,20,-1,9,-1,-1,-1,-1,,9999,0,1,2,FEW 4   BKN 50,1,6,1,6,992,RJSF 082300Z 02009KT 9999 PRFG FEW004 BKN050 06/06 Q0992 RMK     1ST004 7CU050 A2931 3000S-SW P/FR=,PR FG
20180109_000000.002,1,RJSF,,,,0,20180109000000,-1,-1,-1,-1,20,-1,9,-1,-1,-1,-1,,9999,0,0,2,FEW 15   BKN 60,1,7,1,7,992,RJSF 090000Z 02009KT 9999 FEW015 BKN060 07/07 Q0992 RMK 1CU015     7SC060 A2931=,
20180109_010000.002,1,RJSF,,,,0,20180109010000,-1,-1,-1,-1,340,-1,12,-1,-1,-1,-1,,9999,0,0,2,FEW 15   BKN 60,1,8,1,6,992,RJSF 090100Z 34012KT 9999 FEW015 BKN060 08/06 Q0992 RMK 1CU015     7SC060 A2931=,
20180109_020000.002,1,RJSF,,,,0,20180109020000,-1,-1,-1,-1,350,-1,16,-1,-1,-1,-1,,9999,0,0,2,FEW 20   BKN 70,1,7,1,3,991,RJSF 090200Z 35016KT 9999 FEW020 BKN070 07/03 Q0991 RMK 1CU020     6AC070 A2928=,
20180109_030000.002,1,RJSF,,,,0,20180109030000,-1,-1,-1,-1,360,-1,15,-1,-1,-1,-1,,9999,0,0,2,FEW 20   BKN 70,1,7,1,5,991,RJSF 090300Z 36015KT 9999 FEW020 BKN070 07/05 Q0991 RMK 1CU020     5AC070 A2926=,
20180109_040000.002,1,RJSF,,,,0,20180109040000,-1,-1,-1,-1,330,-1,15,-1,30,-1,-1,,9999,0,0,2,FEW 20   BKN 70,1,8,1,0,990,RJSF 090400Z 33015G30KT 9999 FEW020 BKN070 08/00 Q0990 RMK     1CU020 5AC070 A2925=,
20180109_050000.002,1,RJSF,,,,0,20180109050000,-1,-1,-1,-1,330,-1,13,-1,24,290,360,,9999,0,0,3,FEW 20   SCT 30   BKN 40,1,7,-1,0,991,RJSF 090500Z 33013G24KT 290V360 9999 FEW020 SCT030 BKN040     07/M00 Q0991 RMK 1CU020 4CU030 6CU040 A2927=,
20180109_060000.002,1,RJSF,,,,0,20180109060000,-1,-1,-1,-1,340,-1,11,-1,-1,300,10,,9999,0,0,3,FEW 20   SCT 35   BKN 45,1,6,-1,1,992,RJSF 090600Z 34011KT 300V010 9999 FEW020 SCT035 BKN045 06/M01     Q0992 RMK 1CU020 3CU035 6CU045 A2930=,
20180109_070000.002,1,RJSF,,,,0,20180109070000,-1,-1,-1,-1,290,-1,14,-1,26,250,320,,9999,0,0,3,FEW 20   SCT 40   BKN 80,1,6,-1,3,993,RJSF 090700Z 29014G26KT 250V320 9999 FEW020 SCT040 BKN080     06/M03 Q0993 RMK 1CU020 3CU040 5AC080 A2932=,
20180109_080000.002,1,RJSF,,,,0,20180109080000,-1,-1,-1,-1,290,-1,29,-1,47,230,320,,9999,0,0,2,FEW 20   SCT 90,1,4,-1,4,994,RJSF 090800Z 29029G47KT 230V320 9999 FEW020 SCT090 04/M04     Q0994 RMK 1CU020 3AC090 A2935=,
20180109_090000.002,1,RJSF,,,,0,20180109090000,-1,-1,-1,-1,280,-1,12,-1,-1,230,310,,9999,0,0,2,FEW 20   SCT 30,1,3,-1,5,996,RJSF 090900Z 28012KT 230V310 9999 FEW020 SCT030 03/M05 Q0996     RMK 1CU020 3CU030 A2944=,
20180109_100000.002,1,RJSF,,,,0,20180109100000,-1,-1,-1,-1,270,-1,14,-1,27,240,310,,9999,0,0,2,FEW 20   SCT 50,1,3,-1,5,999,RJSF 091000Z 27014G27KT 240V310 9999 FEW020 SCT050 03/M05     Q0999 RMK 1CU020 4CU050 A2950=,
20180109_110000.002,1,RJSF,,,,0,20180109110000,-1,-1,-1,-1,270,-1,8,-1,-1,240,310,,9999,0,0,2,FEW 30   BKN 40,1,2,-1,5,999,RJSF 091100Z 27008KT 240V310 9999 FEW030 BKN040 02/M05 Q0999     RMK 1CU030 5CU040 A2951=,
20180109_220000.002,1,RJSF,,,,0,20180109220000,-1,-1,-1,-1,120,-1,3,-1,-1,90,160,,9999,0,0,1,FEW 50,-1,2,-1,7,1003,RJSF 092200Z 12003KT 090V160 9999 FEW050 M02/M07 Q1003 RMK     2CU050 A2964=,
20180109_230000.002,1,RJSF,,,,0,20180109230000,-1,-1,-1,-1,150,-1,4,-1,-1,-1,-1,,9999,0,0,1,FEW 50,-1,0,-1,6,1005,RJSF 092300Z 15004KT 9999 FEW050 M00/M06 Q1005 RMK 2CU050     A2968=,
20180110_000000.002,1,RJSF,,,,0,20180110000000,-1,-1,-1,-1,170,-1,4,-1,-1,130,260,,9999,0,0,1,FEW 30,1,2,-1,7,1005,RJSF 100000Z 17004KT 130V260 9999 FEW030 02/M07 Q1005 RMK     1CU030 A2969=,
20180110_010000.002,1,RJSF,,,,0,20180110010000,-1,-1,-1,-1,220,-1,3,-1,-1,180,270,,9999,0,0,1,FEW 50,1,5,-1,8,1004,RJSF 100100Z 22003KT 180V270 9999 FEW050 05/M08 Q1004 RMK     2CU050 A2966=,
20180110_020000.002,1,RJSF,,,,0,20180110020000,-1,-1,-1,-1,999,-1,7,-1,-1,-1,-1,,9999,0,1,1,SCT 50,1,6,-1,8,1004,RJSF 100200Z VRB07KT 9999 VCSH SCT050 06/M08 Q1004 RMK 3CU050     A2965=,VC SH
20180110_030000.002,1,RJSF,,,,0,20180110030000,-1,-1,-1,-1,270,-1,8,-1,-1,230,300,,9999,0,0,1,FEW 50,1,6,-1,9,1003,RJSF 100300Z 27008KT 230V300 9999 FEW050 06/M09 Q1003 RMK     2CU050 A2962=,
20180110_040000.003,1,RJSF,,,,0,20180110040000,-1,-1,-1,-1,310,-1,9,-1,-1,260,350,,9999,0,0,2,FEW 50   SCT 70,1,7,-1,9,1002,RJSF 100400Z 31009KT 260V350 9999 FEW050 SCT070 07/M09 Q1002     RMK 2CU050 3AC070 A2960=,
20180110_050000.002,1,RJSF,,,,0,20180110050000,-1,-1,-1,-1,250,-1,4,-1,-1,220,300,,9999,0,0,3,FEW 30   SCT 70   BKN 90,1,7,-1,8,1002,RJSF 100500Z 25004KT 220V300 9999 FEW030 SCT070 BKN090 07/M08     Q1002 RMK 1CU030 3AC070 5AC090 A2961=,
20180110_060000.002,1,RJSF,,,,0,20180110060000,-1,-1,-1,-1,20,-1,16,-1,-1,-1,-1,,9999,0,0,3,FEW 20   SCT 50   BKN 70,1,4,-1,4,1003,RJSF 100600Z 02016KT 9999 FEW020 SCT050 BKN070 04/M04 Q1003     RMK 1CU020 3CU050 6AC070 A2962=,
20180110_070000.002,1,RJSF,,,,0,20180110070000,-1,-1,-1,-1,20,-1,14,-1,-1,-1,-1,,9999,0,0,3,FEW 20   SCT 50   BKN 70,1,2,-1,3,1004,RJSF 100700Z 02014KT 9999 FEW020 SCT050 BKN070 02/M03 Q1004     RMK 1CU020 3CU050 5AC070 A2965=,
20180110_080000.002,1,RJSF,,,,0,20180110080000,-1,-1,-1,-1,20,-1,10,-1,-1,-1,-1,,9999,0,0,3,FEW 20   SCT 50   BKN 80,1,1,-1,3,1004,RJSF 100800Z 02010KT 9999 FEW020 SCT050 BKN080 01/M03 Q1004     RMK 1CU020 3CU050 5AC080 A2966=,
20180110_090000.002,1,RJSF,,,,0,20180110090000,-1,-1,-1,-1,30,-1,7,-1,-1,-1,-1,,9999,0,0,2,FEW 50   SCT 100,1,0,-1,3,1005,RJSF 100900Z 03007KT 9999 FEW050 SCT100 00/M03 Q1005 RMK     1CU050 3AC100 A2968=,
20180110_100000.002,1,RJSF,,,,0,20180110100000,-1,-1,-1,-1,30,-1,8,-1,-1,-1,-1,,9999,0,0,2,FEW 50   BKN 80,1,0,-1,3,1005,RJSF 101000Z 03008KT 9999 FEW050 BKN080 00/M03 Q1005 RMK     1CU050 6AC080 A2969=,
20180110_110000.002,1,RJSF,,,,0,20180110110000,-1,-1,-1,-1,10,-1,6,-1,-1,310,30,,9999,0,0,2,FEW 30   BKN 70,1,1,-1,4,1005,RJSF 101100Z 01006KT 310V030 9999 FEW030 BKN070 01/M04 Q1005     RMK 1CU030 6AC070 A2969=,
20180110_220000.002,1,RJSF,,,,0,20180110220000,-1,-1,-1,-1,350,-1,3,-1,-1,310,40,,9999,0,0,1,FEW 30,-1,2,-1,8,1008,RJSF 102200Z 35003KT 310V040 9999 FEW030 M02/M08 Q1008 RMK     1CU030 A2978=,
20180110_230000.003,1,RJSF,,,,0,20180110230000,-1,-1,-1,-1,10,-1,6,-1,-1,-1,-1,,9999,0,0,1,FEW 30,-1,0,-1,7,1009,RJSF 102300Z 01006KT 9999 FEW030 M00/M07 Q1009 RMK 1CU030     A2980=,
20180111_000000.002,1,RJSF,,,,0,20180111000000,-1,-1,-1,-1,999,-1,1,-1,-1,-1,-1,,9999,0,0,1,FEW 30,1,1,-1,8,1009,RJSF 110000Z VRB01KT 9999 FEW030 01/M08 Q1009 RMK 1CU030     A2982=,
20180111_010000.002,1,RJSF,,,,0,20180111010000,-1,-1,-1,-1,310,-1,4,-1,-1,270,350,,9999,0,0,1,FEW 20,1,3,-1,8,1009,RJSF 110100Z 31004KT 270V350 9999 FEW020 03/M08 Q1009 RMK     1CU020 A2981=,
20180111_020000.002,1,RJSF,,,,0,20180111020000,-1,-1,-1,-1,999,-1,4,-1,-1,-1,-1,,9999,0,0,1,FEW 30,1,4,-1,9,1009,RJSF 110200Z VRB04KT 9999 FEW030 04/M09 Q1009 RMK 1CU030     A2980=,
20180111_030000.001,1,RJSF,,,,0,20180111030000,-1,-1,-1,-1,999,-1,4,-1,-1,-1,-1,,9999,0,0,2,FEW 40   SCT 70,1,4,-1,10,1008,RJSF 110300Z VRB04KT 9999 FEW040 SCT070 04/M10 Q1008 RMK     1CU040 3AC070 A2977=,
20180111_040000.002,1,RJSF,,,,0,20180111040000,-1,-1,-1,-1,20,-1,15,-1,-1,-1,-1,,9999,0,0,2,FEW 35   BKN 50,1,2,-1,6,1007,RJSF 110400Z 02015KT 9999 FEW035 BKN050 02/M06 Q1007 RMK     2CU035 5CU050 A2976=,
20180111_050000.002,1,RJSF,,,,0,20180111050000,-1,-1,-1,-1,30,-1,10,-1,-1,-1,-1,,9999,0,0,2,FEW 20   SCT 70,1,2,-1,5,1008,RJSF 110500Z 03010KT 9999 FEW020 SCT070 02/M05 Q1008 RMK     1CU020 4AC070 A2977=,
20180111_060000.002,1,RJSF,,,,0,20180111060000,-1,-1,-1,-1,30,-1,11,-1,-1,-1,-1,,9999,0,0,2,FEW 20   SCT 50,1,2,-1,6,1009,RJSF 110600Z 03011KT 9999 FEW020 SCT050 02/M06 Q1009 RMK     1CU020 3CU050 A2980=,
20180111_070000.002,1,RJSF,,,,0,20180111070000,-1,-1,-1,-1,10,-1,13,-1,-1,-1,-1,,9999,0,0,2,FEW 15   BKN 50,1,1,-1,6,1010,RJSF 110700Z 01013KT 9999 FEW015 BKN050 01/M06 Q1010 RMK     1CU015 6CU050 A2983=,
20180111_080000.002,1,RJSF,,,,0,20180111080000,-1,-1,-1,-1,20,-1,6,-1,-1,-1,-1,,9999,0,0,2,FEW 15   SCT 70,-1,0,-1,6,1010,RJSF 110800Z 02006KT 9999 FEW015 SCT070 M00/M06 Q1010 RMK     1CU015 3AC070 A2984=,
20180111_090000.002,1,RJSF,,,,0,20180111090000,-1,-1,-1,-1,10,-1,9,-1,-1,-1,-1,,9999,0,0,1,FEW 20,-1,2,-1,7,1011,RJSF 110900Z 01009KT 9999 FEW020 M02/M07 Q1011 RMK 1CU020     A2985=,
20180111_100000.002,1,RJSF,,,,0,20180111100000,-1,-1,-1,-1,330,-1,8,-1,-1,290,360,,9999,0,0,1,FEW 20,-1,1,-1,8,1011,RJSF 111000Z 33008KT 290V360 9999 FEW020 M01/M08 Q1011 RMK     1CU020 A2987=,
20180111_110000.002,1,RJSF,,,,0,20180111110000,-1,-1,-1,-1,340,-1,7,-1,-1,290,20,,9999,0,0,1,FEW 20,-1,1,-1,8,1012,RJSF 111100Z 34007KT 290V020 9999 FEW020 M01/M08 Q1012 RMK     1CU020 A2989=,
20180111_220000.002,1,RJSF,,,,0,20180111220000,-1,-1,-1,-1,20,-1,5,-1,-1,-1,-1,,9999,0,0,1,FEW 20,-1,6,-1,9,1016,RJSF 112200Z 02005KT 9999 FEW020 M06/M09 Q1016 RMK 1CU020     A3000=,
20180111_230000.002,1,RJSF,,,,0,20180111230000,-1,-1,-1,-1,20,-1,4,-1,-1,-1,-1,,9999,0,0,1,FEW 20,-1,4,-1,8,1017,RJSF 112300Z 02004KT 9999 FEW020 M04/M08 Q1017 RMK 1CU020     A3003=,
20180112_000000.002,1,RJSF,,,,0,20180112000000,-1,-1,-1,-1,360,-1,5,-1,-1,-1,-1,,9999,0,0,1,FEW 20,-1,3,-1,8,1017,RJSF 120000Z 36005KT 9999 FEW020 M03/M08 Q1017 RMK 1CU020     A3005=,
20180112_010000.003,1,RJSF,,,,0,20180112010000,-1,-1,-1,-1,10,-1,7,-1,-1,340,40,,9999,0,0,1,FEW 25,-1,2,-1,8,1017,RJSF 120100Z 01007KT 340V040 9999 FEW025 M02/M08 Q1017 RMK     1CU025 A3005=,
20180112_020000.002,1,RJSF,,,,0,20180112020000,-1,-1,-1,-1,10,-1,4,-1,-1,310,80,,9999,0,0,2,FEW 30   SCT -9999,-1,1,-1,10,1017,RJSF 120200Z 01004KT 310V080 9999 FEW030 SCT/// M01/M10 Q1017     RMK 1CU030 A3004=,
20180112_030000.002,1,RJSF,,,,0,20180112030000,-1,-1,-1,-1,320,-1,7,-1,-1,270,10,,9999,0,0,1,FEW 35,1,0,-1,10,1016,RJSF 120300Z 32007KT 270V010 9999 FEW035 00/M10 Q1016 RMK     1CU035 A3003=,
20180112_040000.002,1,RJSF,,,,0,20180112040000,-1,-1,-1,-1,350,-1,9,-1,-1,320,30,,9999,0,0,1,FEW 40,1,0,-1,11,1016,RJSF 120400Z 35009KT 320V030 9999 FEW040 00/M11 Q1016 RMK     1CU040 A3002=,
20180112_050000.003,1,RJSF,,,,0,20180112050000,-1,-1,-1,-1,350,-1,8,-1,-1,290,20,,9999,0,0,1,FEW 45,1,1,-1,11,1017,RJSF 120500Z 35008KT 290V020 9999 FEW045 01/M11 Q1017 RMK     1CU045 A3004=,
20180112_060000.002,1,RJSF,,,,0,20180112060000,-1,-1,-1,-1,320,-1,8,-1,-1,270,360,,9999,0,0,1,FEW 45,1,1,-1,10,1017,RJSF 120600Z 32008KT 270V360 9999 FEW045 01/M10 Q1017 RMK     1CU045 A3005=,
20180112_070000.003,1,RJSF,,,,0,20180112070000,-1,-1,-1,-1,320,-1,8,-1,-1,280,350,CAVOK,-1,0,0,0,,-1,0,-1,9,1018,RJSF 120700Z 32008KT 280V350 CAVOK M00/M09 Q1018 RMK A3007=,
20180112_080000.002,1,RJSF,,,,0,20180112080000,-1,-1,-1,-1,360,-1,9,-1,-1,-1,-1,CAVOK,-1,0,0,0,,-1,2,-1,9,1018,RJSF 120800Z 36009KT CAVOK M02/M09 Q1018 RMK A3008=,
20180112_090000.002,1,RJSF,,,,0,20180112090000,-1,-1,-1,-1,350,-1,7,-1,-1,-1,-1,CAVOK,-1,0,0,0,,-1,3,-1,9,1019,RJSF 120900Z 35007KT CAVOK M03/M09 Q1019 RMK A3011=,
20180112_100000.002,1,RJSF,,,,0,20180112100000,-1,-1,-1,-1,10,-1,5,-1,-1,-1,-1,CAVOK,-1,0,0,0,,-1,3,-1,9,1020,RJSF 121000Z 01005KT CAVOK M03/M09 Q1020 RMK A3014=,
20180112_110000.002,1,RJSF,,,,0,20180112110000,-1,-1,-1,-1,10,-1,6,-1,-1,-1,-1,CAVOK,-1,0,0,0,,-1,4,-1,9,1021,RJSF 121100Z 01006KT CAVOK M04/M09 Q1021 RMK A3016=,
20180112_220000.002,1,RJSF,,,,0,20180112220000,-1,-1,-1,-1,999,-1,1,-1,-1,-1,-1,,9999,0,0,1,FEW 5,-1,7,-1,7,1021,RJSF 122200Z VRB01KT 9999 FEW005 M07/M07 Q1021 RMK 1ST005     A3016=,
20180112_230000.002,1,RJSF,,,,0,20180112230000,-1,-1,-1,-1,999,-1,1,-1,-1,-1,-1,,9999,0,0,1,FEW 5,-1,5,-1,5,1021,RJSF 122300Z VRB01KT 9999 FEW005 M05/M05 Q1021 RMK 1ST005     A3015=,
20180113_000000.002,1,RJSF,,,,0,20180113000000,-1,-1,-1,-1,999,-1,1,-1,-1,-1,-1,CAVOK,-1,0,0,0,,-1,3,-1,7,1021,RJSF 130000Z VRB01KT CAVOK M03/M07 Q1021 RMK A3017=,
20180113_010000.003,1,RJSF,,,,0,20180113010000,-1,-1,-1,-1,999,-1,1,-1,-1,-1,-1,CAVOK,-1,0,0,0,,-1,2,-1,8,1021,RJSF 130100Z VRB01KT CAVOK M02/M08 Q1021 RMK A3015=,
20180113_020000.002,1,RJSF,,,,0,20180113020000,-1,-1,-1,-1,999,-1,2,-1,-1,-1,-1,,9999,0,0,1,FEW 40,1,1,-1,8,1020,RJSF 130200Z VRB02KT 9999 FEW040 01/M08 Q1020 RMK 1CU040     A3013=,
20180113_030000.002,1,RJSF,,,,0,20180113030000,-1,-1,-1,-1,40,-1,3,-1,-1,340,140,,9999,0,0,1,FEW 50,1,1,-1,11,1019,RJSF 130300Z 04003KT 340V140 9999 FEW050 01/M11 Q1019 RMK     1CU050 A3010=,
20180113_040000.002,1,RJSF,,,,0,20180113040000,-1,-1,-1,-1,999,-1,3,-1,-1,-1,-1,,9999,0,0,1,FEW 50,1,3,-1,10,1018,RJSF 130400Z VRB03KT 9999 FEW050 03/M10 Q1018 RMK 1CU050     A3008=,
20180113_050000.002,1,RJSF,,,,0,20180113050000,-1,-1,-1,-1,999,-1,2,-1,-1,-1,-1,,9999,0,0,1,FEW 50,1,3,-1,10,1018,RJSF 130500Z VRB02KT 9999 FEW050 03/M10 Q1018 RMK 1CU050     A3007=,
20180113_060000.002,1,RJSF,,,,0,20180113060000,-1,-1,-1,-1,10,-1,6,-1,-1,310,60,,9999,0,0,1,FEW 50,1,3,-1,12,1018,RJSF 130600Z 01006KT 310V060 9999 FEW050 03/M12 Q1018 RMK     1CU050 A3007=,
20180113_070000.002,1,RJSF,,,,0,20180113070000,-1,-1,-1,-1,360,-1,6,-1,-1,-1,-1,,9999,0,0,2,FEW 30   SCT 80,1,2,-1,11,1018,RJSF 130700Z 36006KT 9999 FEW030 SCT080 02/M11 Q1018 RMK     1CU030 4AC080 A3008=,
20180113_080000.002,1,RJSF,,,,0,20180113080000,-1,-1,-1,-1,350,-1,7,-1,-1,-1,-1,,9999,0,0,3,FEW 40   BKN 70   BKN 80,1,1,-1,10,1019,RJSF 130800Z 35007KT 9999 FEW040 BKN070 BKN080 01/M10 Q1019     RMK 1CU040 5AC070 7AC080 A3010=,
20180113_090000.002,1,RJSF,,,,0,20180113090000,-1,-1,-1,-1,360,-1,6,-1,-1,-1,-1,,9999,0,0,3,FEW 35   BKN 70   BKN 80,1,0,-1,8,1020,RJSF 130900Z 36006KT 9999 FEW035 BKN070 BKN080 00/M08 Q1020     RMK 1CU035 5AC070 7AC080 A3012=,
20180113_100000.002,1,RJSF,,,,0,20180113100000,-1,-1,-1,-1,350,-1,13,-1,-1,-1,-1,,9999,0,1,2,FEW 30   BKN 70,-1,1,-1,6,1020,RJSF 131000Z 35013KT 9999 -SHSN FEW030 BKN070 M01/M06 Q1020     RMK 1CU030 7AC070 A3015=,- SN SH
20180113_110000.002,1,RJSF,,,,0,20180113110000,-1,-1,-1,-1,360,-1,13,-1,-1,-1,-1,,5000,0,1,3,FEW 15   BKN 20   BKN 25,-1,2,-1,2,1022,RJSF 131100Z 36013KT 5000 -SHSN FEW015 BKN020 BKN025 M02/M02     Q1022 RMK 1CU015 5CU020 7CU025 A3018=,- SN SH
20180113_220000.002,1,RJSF,,,,0,20180113220000,-1,-1,-1,-1,360,-1,6,-1,-1,-1,-1,,9999,0,0,2,FEW 25   BKN 35,-1,4,-1,8,1025,RJSF 132200Z 36006KT 9999 FEW025 BKN035 M04/M08 Q1025 RMK     1CU025 5CU035 A3028=,
20180113_230000.002,1,RJSF,,,,0,20180113230000,-1,-1,-1,-1,340,-1,15,-1,-1,-1,-1,,9999,0,0,2,FEW 25   SCT 30,-1,2,-1,4,1026,RJSF 132300Z 34015KT 9999 FEW025 SCT030 M02/M04 Q1026 RMK     1CU025 4CU030 A3030=,
20180114_000000.003,1,RJSF,,,,0,20180114000000,-1,-1,-1,-1,340,-1,18,-1,-1,-1,-1,,9999,0,0,2,FEW 25   SCT 30,-1,2,-1,6,1026,RJSF 140000Z 34018KT 9999 FEW025 SCT030 M02/M06 Q1026 RMK     1CU025 3CU030 A3031=,
20180114_010000.002,1,RJSF,,,,0,20180114010000,-1,-1,-1,-1,340,-1,12,-1,-1,-1,-1,,9999,0,0,2,FEW 25   SCT 40,-1,1,-1,5,1027,RJSF 140100Z 34012KT 9999 FEW025 SCT040 M01/M05 Q1027 RMK     1CU025 4CU040 A3035=,
20180114_020000.002,1,RJSF,,,,0,20180114020000,-1,-1,-1,-1,360,-1,12,-1,-1,-1,-1,,9999,0,0,2,FEW 20   SCT 30,1,0,-1,5,1027,RJSF 140200Z 36012KT 9999 FEW020 SCT030 00/M05 Q1027 RMK     1CU020 3CU030 A3035=,
20180114_030000.002,1,RJSF,,,,0,20180114030000,-1,-1,-1,-1,320,-1,10,-1,-1,290,350,,9999,0,0,2,FEW 20   BKN 35,1,1,-1,7,1027,RJSF 140300Z 32010KT 290V350 9999 FEW020 BKN035 01/M07 Q1027     RMK 1CU020 5CU035 A3034=,
20180114_040000.002,1,RJSF,,,,0,20180114040000,-1,-1,-1,-1,350,-1,13,-1,-1,-1,-1,,9999,0,0,2,FEW 25   SCT 30,1,1,-1,8,1026,RJSF 140400Z 35013KT 9999 FEW025 SCT030 01/M08 Q1026 RMK     1CU025 3CU030 A3032=,
20180114_050000.002,1,RJSF,,,,0,20180114050000,-1,-1,-1,-1,330,-1,13,-1,-1,-1,-1,,9999,0,0,1,FEW 35,1,2,-1,9,1027,RJSF 140500Z 33013KT 9999 FEW035 02/M09 Q1027 RMK 1CU035     A3034=,
20180114_060000.003,1,RJSF,,,,0,20180114060000,-1,-1,-1,-1,340,-1,14,-1,-1,-1,-1,,9999,0,0,1,FEW 40,1,2,-1,9,1027,RJSF 140600Z 34014KT 9999 FEW040 02/M09 Q1027 RMK 1CU040     A3035=,
20180114_070000.002,1,RJSF,,,,0,20180114070000,-1,-1,-1,-1,340,-1,12,-1,-1,-1,-1,,9999,0,0,1,FEW 35,1,0,-1,9,1028,RJSF 140700Z 34012KT 9999 FEW035 00/M09 Q1028 RMK 1CU035     A3036=,
20180114_080000.002,1,RJSF,,,,0,20180114080000,-1,-1,-1,-1,350,-1,7,-1,-1,-1,-1,,9999,0,0,1,FEW 30,-1,1,-1,9,1028,RJSF 140800Z 35007KT 9999 FEW030 M01/M09 Q1028 RMK 1CU030     A3038=,
20180114_090000.002,1,RJSF,,,,0,20180114090000,-1,-1,-1,-1,360,-1,9,-1,-1,-1,-1,,9999,0,0,1,FEW 25,-1,3,-1,9,1028,RJSF 140900Z 36009KT 9999 FEW025 M03/M09 Q1028 RMK 1CU025     A3037=,
20180114_100000.002,1,RJSF,,,,0,20180114100000,-1,-1,-1,-1,20,-1,6,-1,-1,-1,-1,,9999,0,0,1,FEW 25,-1,2,-1,8,1028,RJSF 141000Z 02006KT 9999 FEW025 M02/M08 Q1028 RMK 1CU025     A3036=,
20180114_110000.002,1,RJSF,,,,0,20180114110000,-1,-1,-1,-1,40,-1,2,-1,-1,-1,-1,,9999,0,0,1,FEW 20,-1,3,-1,8,1027,RJSF 141100Z 04002KT 9999 FEW020 M03/M08 Q1027 RMK 1CU020     A3035=,
20180114_220000.002,1,RJSF,,,,0,20180114220000,-1,-1,-1,-1,130,-1,3,-1,-1,-1,-1,,9999,0,0,2,FEW 30   SCT 70,-1,6,-1,6,1025,RJSF 142200Z 13003KT 9999 FEW030 SCT070 M06/M06 Q1025 RMK     1CU030 3AC070 A3027=,
20180114_230000.002,1,RJSF,,,,0,20180114230000,-1,-1,-1,-1,999,-1,1,-1,-1,-1,-1,CAVOK,-1,0,0,0,,-1,2,-1,5,1024,RJSF 142300Z VRB01KT CAVOK M02/M05 Q1024 RMK A3026=,
20180115_000000.002,1,RJSF,,,,0,20180115000000,-1,-1,-1,-1,0,-1,0,-1,-1,-1,-1,CAVOK,-1,0,0,0,,-1,0,-1,8,1024,RJSF 150000Z 00000KT CAVOK M00/M08 Q1024 RMK A3026=,
20180115_010000.002,1,RJSF,,,,0,20180115010000,-1,-1,-1,-1,200,-1,2,-1,-1,-1,-1,CAVOK,-1,0,0,0,,1,1,-1,7,1024,RJSF 150100Z 20002KT CAVOK 01/M07 Q1024 RMK A3024=,
20180115_020000.002,1,RJSF,,,,0,20180115020000,-1,-1,-1,-1,999,-1,2,-1,-1,-1,-1,CAVOK,-1,0,0,0,,1,2,-1,8,1023,RJSF 150200Z VRB02KT CAVOK 02/M08 Q1023 RMK A3021=,
20180115_030000.002,1,RJSF,,,,0,20180115030000,-1,-1,-1,-1,210,-1,3,-1,-1,180,250,CAVOK,-1,0,0,0,,1,3,-1,7,1021,RJSF 150300Z 21003KT 180V250 CAVOK 03/M07 Q1021 RMK A3015=,
20180115_040000.002,1,RJSF,,,,0,20180115040000,-1,-1,-1,-1,290,-1,3,-1,-1,240,40,CAVOK,-1,0,0,0,,1,4,-1,7,1019,RJSF 150400Z 29003KT 240V040 CAVOK 04/M07 Q1019 RMK A3012=,
20180115_050000.002,1,RJSF,,,,0,20180115050000,-1,-1,-1,-1,210,-1,5,-1,-1,170,260,,9999,0,0,1,FEW 50,1,5,-1,7,1018,RJSF 150500Z 21005KT 170V260 9999 FEW050 05/M07 Q1018 RMK     1CU050 A3008=,
20180115_060000.002,1,RJSF,,,,0,20180115060000,-1,-1,-1,-1,200,-1,7,-1,-1,-1,-1,,9999,0,0,1,FEW 50,1,6,-1,6,1017,RJSF 150600Z 20007KT 9999 FEW050 06/M06 Q1017 RMK 1CU050     A3006=,
20180115_070000.003,1,RJSF,,,,0,20180115070000,-1,-1,-1,-1,210,-1,5,-1,-1,-1,-1,,9999,0,0,1,FEW 50,1,5,-1,6,1017,RJSF 150700Z 21005KT 9999 FEW050 05/M06 Q1017 RMK 1CU050     A3005=,
20180115_080000.002,1,RJSF,,,,0,20180115080000,-1,-1,-1,-1,190,-1,4,-1,-1,-1,-1,,9999,0,0,1,FEW 50,1,3,-1,6,1017,RJSF 150800Z 19004KT 9999 FEW050 03/M06 Q1017 RMK 1CU050     A3005=,
20180115_090000.002,1,RJSF,,,,0,20180115090000,-1,-1,-1,-1,220,-1,4,-1,-1,-1,-1,,9999,0,0,2,FEW 50   SCT 100,1,1,-1,7,1018,RJSF 150900Z 22004KT 9999 FEW050 SCT100 01/M07 Q1018 RMK     1CU050 3AC100 A3006=,
20180115_100000.002,1,RJSF,,,,0,20180115100000,-1,-1,-1,-1,130,-1,5,-1,-1,-1,-1,,9999,0,0,1,SCT 50,1,2,-1,7,1017,RJSF 151000Z 13005KT 9999 SCT050 02/M07 Q1017 RMK 3CU050     A3003=,
20180115_110000.002,1,RJSF,,,,0,20180115110000,-1,-1,-1,-1,999,-1,2,-1,-1,-1,-1,,9999,0,0,1,SCT 50,1,1,-1,7,1017,RJSF 151100Z VRB02KT 9999 SCT050 01/M07 Q1017 RMK 4CU050     A3004=,
20180115_220000.002,1,RJSF,,,,0,20180115220000,-1,-1,-1,-1,290,-1,15,-1,-1,-1,-1,,9999,0,0,1,FEW 30,1,3,-1,2,1019,RJSF 152200Z 29015KT 9999 FEW030 03/M02 Q1019 RMK 1CU030     A3012=,
20180115_230000.002,1,RJSF,,,,0,20180115230000,-1,-1,-1,-1,350,-1,9,-1,-1,-1,-1,,9999,0,0,2,FEW 30   SCT -9999,1,4,-1,2,1021,RJSF 152300Z 35009KT 9999 FEW030 SCT/// 04/M02 Q1021 RMK     1CU030 A3016=,
20180116_000000.002,1,RJSF,,,,0,20180116000000,-1,-1,-1,-1,10,-1,10,-1,-1,-1,-1,,9999,0,0,1,FEW 30,1,5,-1,2,1021,RJSF 160000Z 01010KT 9999 FEW030 05/M02 Q1021 RMK 1CU030     A3016=,
20180116_010000.002,1,RJSF,,,,0,20180116010000,-1,-1,-1,-1,340,-1,13,-1,-1,-1,-1,,9999,0,0,1,FEW 40,1,7,-1,3,1021,RJSF 160100Z 34013KT 9999 FEW040 07/M03 Q1021 RMK 1CU040     A3016=,
20180116_020000.002,1,RJSF,,,,0,20180116020000,-1,-1,-1,-1,330,-1,12,-1,-1,300,360,,9999,0,0,2,FEW 40   BKN -9999,1,8,-1,2,1020,RJSF 160200Z 33012KT 300V360 9999 FEW040 BKN/// 08/M02 Q1020     RMK 1CU040 A3014=,
20180116_030000.002,1,RJSF,,,,0,20180116030000,-1,-1,-1,-1,360,-1,5,-1,-1,320,30,,9999,0,0,2,FEW 40   BKN -9999,1,8,-1,3,1019,RJSF 160300Z 36005KT 320V030 9999 FEW040 BKN/// 08/M03 Q1019     RMK 1CU040 A3010=,
20180116_040000.002,1,RJSF,,,,0,20180116040000,-1,-1,-1,-1,999,-1,3,-1,-1,-1,-1,CAVOK,-1,0,0,0,,1,8,-1,3,1018,RJSF 160400Z VRB03KT CAVOK 08/M03 Q1018 RMK A3006=,
20180116_050000.002,1,RJSF,,,,0,20180116050000,-1,-1,-1,-1,250,-1,3,-1,-1,180,310,CAVOK,-1,0,0,0,,1,10,-1,3,1018,RJSF 160500Z 25003KT 180V310 CAVOK 10/M03 Q1018 RMK A3006=,
20180116_060000.002,1,RJSF,,,,0,20180116060000,-1,-1,-1,-1,200,-1,4,-1,-1,170,310,CAVOK,-1,0,0,0,,1,9,-1,3,1018,RJSF 160600Z 20004KT 170V310 CAVOK 09/M03 Q1018 RMK A3006=,
20180116_070000.002,1,RJSF,,,,0,20180116070000,-1,-1,-1,-1,999,-1,2,-1,-1,-1,-1,CAVOK,-1,0,0,0,,1,9,-1,3,1017,RJSF 160700Z VRB02KT CAVOK 09/M03 Q1017 RMK A3005=,
20180116_080000.002,1,RJSF,,,,0,20180116080000,-1,-1,-1,-1,190,-1,4,-1,-1,-1,-1,,9999,0,0,3,FEW 30   SCT 150   BKN -9999,1,7,-1,3,1017,RJSF 160800Z 19004KT 9999 FEW030 SCT150 BKN/// 07/M03 Q1017     RMK 1CU030 3AC150 A3004=,
20180116_090000.002,1,RJSF,,,,0,20180116090000,-1,-1,-1,-1,150,-1,4,-1,-1,-1,-1,,9999,0,0,3,FEW 30   SCT 80   BKN -9999,1,6,1,0,1016,RJSF 160900Z 15004KT 9999 FEW030 SCT080 BKN/// 06/00 Q1016 RMK     1CU030 3AC080 A3003=,
20180116_100000.002,1,RJSF,,,,0,20180116100000,-1,-1,-1,-1,140,-1,4,-1,-1,-1,-1,CAVOK,-1,0,0,0,,1,5,1,5,1016,RJSF 161000Z 14004KT CAVOK 05/05 Q1016 RMK A3002=,
20180116_110000.004,1,RJSF,,,,0,20180116110000,-1,-1,-1,-1,150,-1,5,-1,-1,-1,-1,CAVOK,-1,0,0,0,,1,4,1,4,1016,RJSF 161100Z 15005KT CAVOK 04/04 Q1016 RMK A3002=,
20180116_220000.002,1,RJSF,,,,0,20180116220000,-1,-1,-1,-1,30,-1,6,-1,-1,-1,-1,,9999,0,0,2,FEW 3   BKN 130,1,5,1,5,1016,RJSF 162200Z 03006KT 9999 FEW003 BKN130 05/05 Q1016 RMK 1ST003     7AC130 A3001=,
20180116_230000.002,1,RJSF,,,,0,20180116230000,-1,-1,-1,-1,20,-1,9,-1,-1,-1,-1,,9999,0,0,3,FEW 3   BKN 130   BKN -9999,1,5,1,5,1016,RJSF 162300Z 02009KT 9999 FEW003 BKN130 BKN/// 05/05 Q1016 RMK     1ST003 5AC130 A3002=,
20180117_000000.002,1,RJSF,,,,0,20180117000000,-1,-1,-1,-1,20,-1,5,-1,-1,-1,-1,,9999,0,0,2,FEW 20   BKN 70,1,6,1,6,1017,RJSF 170000Z 02005KT 9999 FEW020 BKN070 06/06 Q1017 RMK 1CU020     7AC070 A3003=,
20180117_010000.002,1,RJSF,,,,0,20180117010000,-1,-1,-1,-1,350,-1,3,-1,-1,-1,-1,,9999,0,0,2,FEW 20   BKN 80,1,6,1,6,1016,RJSF 170100Z 35003KT 9999 FEW020 BKN080 06/06 Q1016 RMK 1CU020     7AC080 A3003=,
20180117_020000.004,1,RJSF,,,,0,20180117020000,-1,-1,-1,-1,360,-1,3,-1,-1,-1,-1,,9999,0,2,2,FEW 20   BKN 50,1,6,1,6,1016,RJSF 170200Z 36003KT 9999 -RA VCFG FEW020 BKN050 06/06 Q1016     RMK 1CU020 7SC050 A3000 FG S-W=,- RA; VC FG
20180117_030000.002,1,RJSF,,,,0,20180117030000,-1,-1,-1,-1,350,-1,3,-1,-1,310,20,,9999,0,2,3,FEW 15   BKN 35   BKN 50,1,6,1,6,1014,RJSF 170300Z 35003KT 310V020 9999 -RA VCFG FEW015 BKN035     BKN050 06/06 Q1014 RMK 1CU015 5SC035 7SC050 A2997 FG S-W=,- RA; VC FG
20180117_040000.003,1,RJSF,,,,0,20180117040000,-1,-1,-1,-1,350,-1,3,-1,-1,-1,-1,,9999,0,1,3,FEW 15   BKN 30   BKN 35,1,6,1,6,1013,RJSF 170400Z 35003KT 9999 -RA FEW015 BKN030 BKN035 06/06 Q1013     RMK 1CU015 5SC030 7SC035 A2994=,- RA
20180117_050000.003,1,RJSF,,,,0,20180117050000,-1,-1,-1,-1,999,-1,2,-1,-1,-1,-1,,2500,0,3,3,FEW 10   BKN 15   BKN 20,1,5,1,5,1013,RJSF 170500Z VRB02KT 2500 -RA BCFG BR FEW010 BKN015 BKN020     05/05 Q1013 RMK 2CU010 5SC015 7SC020 A2992=,- RA; BC FG; BR
20180117_060000.002,1,RJSF,,,,0,20180117060000,-1,-1,-1,-1,20,-1,4,-1,-1,-1,-1,,1100,1,3,3,FEW 2   SCT 5   BKN 8,1,5,1,5,1012,RJSF 170600Z 02004KT 1100 R01/1800D RA BCFG BR FEW002 SCT005     BKN008 05/05 Q1012 RMK 2ST002 3ST005 6ST008 A2991=,RA; BC FG; BR
20180117_070000.002,1,RJSF,,,,0,20180117070000,-1,-1,-1,-1,60,-1,3,-1,-1,330,120,,4000,0,3,3,SCT 8   BKN 10   BKN 15,1,5,1,5,1012,RJSF 170700Z 06003KT 330V120 4000 -RA BCFG BR SCT008 BKN010     BKN015 05/05 Q1012 RMK 3ST008 5ST010 6SC015 A2990=,- RA; BC FG; BR
20180117_080000.002,1,RJSF,,,,0,20180117080000,-1,-1,-1,-1,340,-1,5,-1,-1,-1,-1,,5000,0,3,3,FEW 2   SCT 3   BKN 6,1,4,1,4,1012,RJSF 170800Z 34005KT 5000 -RA BCFG BR FEW002 SCT003 BKN006     04/04 Q1012 RMK 1ST002 3ST003 6ST006 A2989=,- RA; BC FG; BR
20180117_090000.003,1,RJSF,,,,0,20180117090000,-1,-1,-1,-1,360,-1,13,-1,-1,-1,-1,,5000,0,2,3,FEW 2   SCT 3   BKN 8,1,2,1,2,1011,RJSF 170900Z 36013KT 5000 RA BR FEW002 SCT003 BKN008 02/02     Q1011 RMK 1ST002 4ST003 6ST008 A2988=,RA; BR
20180117_100000.002,1,RJSF,,,,0,20180117100000,-1,-1,-1,-1,350,-1,13,-1,-1,-1,-1,,3500,0,2,3,FEW 2   BKN 5   BKN 10,1,1,1,1,1011,RJSF 171000Z 35013KT 3500 -RA BR FEW002 BKN005 BKN010 01/01     Q1011 RMK 2ST002 5ST005 7ST010 A2986=,- RA; BR
20180117_110000.003,1,RJSF,,,,0,20180117110000,-1,-1,-1,-1,350,-1,14,-1,-1,-1,-1,,3500,0,2,3,FEW 2   BKN 4   BKN 8,1,1,1,1,1009,RJSF 171100Z 35014KT 3500 -RASN BR FEW002 BKN004 BKN008 01/01     Q1009 RMK 2ST002 5ST004 7ST008 A2982=,- RA SN; BR
20180117_220000.003,1,RJSF,,,,0,20180117220000,-1,-1,-1,-1,360,-1,19,-1,-1,-1,-1,,9999,0,0,3,FEW 5   BKN 20   BKN 25,1,4,1,4,1011,RJSF 172200Z 36019KT 9999 FEW005 BKN020 BKN025 04/04 Q1011 RMK     1ST005 6CU020 7SC025 A2987=,
20180117_230000.002,1,RJSF,,,,0,20180117230000,-1,-1,-1,-1,350,-1,24,-1,-1,-1,-1,,9999,0,0,2,FEW 15   BKN 30,1,5,1,5,1011,RJSF 172300Z 35024KT 9999 FEW015 BKN030 05/05 Q1011 RMK 1CU015     5CU030 A2987=,
20180118_000000.002,1,RJSF,,,,0,20180118000000,-1,-1,-1,-1,340,-1,19,-1,29,-1,-1,,9999,0,0,1,FEW 20,1,6,1,6,1012,RJSF 180000Z 34019G29KT 9999 FEW020 06/06 Q1012 RMK 1CU020     A2989=,
20180118_010000.002,1,RJSF,,,,0,20180118010000,-1,-1,-1,-1,350,-1,12,-1,-1,-1,-1,,9999,0,0,2,FEW 20   SCT 35,1,7,1,3,1012,RJSF 180100Z 35012KT 9999 FEW020 SCT035 07/03 Q1012 RMK 1CU020     4CU035 A2991=,
20180118_020000.002,1,RJSF,,,,0,20180118020000,-1,-1,-1,-1,300,-1,14,-1,-1,-1,-1,,9999,0,0,3,FEW 20   SCT 35   BKN -9999,1,8,1,1,1012,RJSF 180200Z 30014KT 9999 FEW020 SCT035 BKN/// 08/01 Q1012 RMK     1CU020 4CU035 A2989=,
20180118_030000.003,1,RJSF,,,,0,20180118030000,-1,-1,-1,-1,300,-1,10,-1,-1,270,330,,9999,0,0,2,FEW 20   SCT 35,1,8,1,1,1011,RJSF 180300Z 30010KT 270V330 9999 FEW020 SCT035 08/01 Q1011     RMK 1CU020 3CU035 A2987=,
20180118_040000.002,1,RJSF,,,,0,20180118040000,-1,-1,-1,-1,310,-1,11,-1,-1,270,340,,9999,0,0,1,FEW 30,1,9,1,0,1012,RJSF 180400Z 31011KT 270V340 9999 FEW030 09/00 Q1012 RMK     1CU030 A2989=,
20180118_050000.002,1,RJSF,,,,0,20180118050000,-1,-1,-1,-1,320,-1,14,-1,-1,270,350,,9999,0,0,1,FEW 30,1,9,-1,1,1012,RJSF 180500Z 32014KT 270V350 9999 FEW030 09/M01 Q1012 RMK     1CU030 A2989=,
20180118_060000.002,1,RJSF,,,,0,20180118060000,-1,-1,-1,-1,340,-1,5,-1,-1,-1,-1,,9999,0,0,2,FEW 30   BKN -9999,1,8,-1,1,1012,RJSF 180600Z 34005KT 9999 FEW030 BKN/// 08/M01 Q1012 RMK     1CU030 A2989=,
20180118_070000.002,1,RJSF,,,,0,20180118070000,-1,-1,-1,-1,999,-1,1,-1,-1,-1,-1,,9999,0,0,3,FEW 40   SCT 50   BKN 70,1,8,-1,1,1012,RJSF 180700Z VRB01KT 9999 FEW040 SCT050 BKN070 08/M01 Q1012     RMK 1CU040 3CU050 6AC070 A2991=,
20180118_080000.002,1,RJSF,,,,0,20180118080000,-1,-1,-1,-1,70,-1,4,-1,-1,-1,-1,,9999,0,0,2,FEW 40   BKN 50,1,7,-1,0,1013,RJSF 180800Z 07004KT 9999 FEW040 BKN050 07/M00 Q1013 RMK     1CU040 6CU050 A2992=,
20180118_090000.002,1,RJSF,,,,0,20180118090000,-1,-1,-1,-1,10,-1,6,-1,-1,320,40,,9999,0,0,2,FEW 40   BKN -9999,1,6,-1,0,1013,RJSF 180900Z 01006KT 320V040 9999 FEW040 BKN/// 06/M00 Q1013     RMK 1CU040 A2992=,
20180118_100000.002,1,RJSF,,,,0,20180118100000,-1,-1,-1,-1,340,-1,8,-1,-1,-1,-1,,9999,0,0,3,FEW 40   SCT 50   BKN -9999,1,6,1,1,1014,RJSF 181000Z 34008KT 9999 FEW040 SCT050 BKN/// 06/01 Q1014 RMK     1CU040 4CU050 A2994=,
20180118_110000.002,1,RJSF,,,,0,20180118110000,-1,-1,-1,-1,340,-1,6,-1,-1,300,10,,9999,0,0,2,FEW 30   BKN -9999,1,5,1,3,1014,RJSF 181100Z 34006KT 300V010 9999 FEW030 BKN/// 05/03 Q1014     RMK 1CU030 A2997=,
20180118_220000.002,1,RJSF,,,,0,20180118220000,-1,-1,-1,-1,330,-1,11,-1,-1,300,360,,9999,0,0,2,FEW 30   SCT 45,1,1,-1,5,1018,RJSF 182200Z 33011KT 300V360 9999 FEW030 SCT045 01/M05 Q1018     RMK 1CU030 3CU045 A3009=,
20180118_230000.003,1,RJSF,,,,0,20180118230000,-1,-1,-1,-1,330,-1,14,-1,-1,-1,-1,,9999,0,0,3,FEW 30   SCT 35   BKN -9999,1,2,-1,5,1019,RJSF 182300Z 33014KT 9999 FEW030 SCT035 BKN/// 02/M05 Q1019     RMK 1CU030 4CU035 A3010=,
20180119_000000.002,1,RJSF,,,,0,20180119000000,-1,-1,-1,-1,320,-1,15,-1,25,-1,-1,,9999,0,0,2,SCT 40   BKN -9999,1,2,-1,6,1019,RJSF 190000Z 32015G25KT 9999 SCT040 BKN/// 02/M06 Q1019 RMK     3CU040 A3011=,
20180119_010000.003,1,RJSF,,,,0,20180119010000,-1,-1,-1,-1,330,-1,11,-1,-1,290,350,,9999,0,0,2,FEW 45   BKN -9999,1,2,-1,5,1020,RJSF 190100Z 33011KT 290V350 9999 FEW045 BKN/// 02/M05 Q1020     RMK 1CU045 A3012=,
20180119_020000.002,1,RJSF,,,,0,20180119020000,-1,-1,-1,-1,320,-1,13,-1,24,-1,-1,,9999,0,0,2,FEW 40   BKN -9999,1,3,-1,6,1019,RJSF 190200Z 32013G24KT 9999 FEW040 BKN/// 03/M06 Q1019 RMK     1CU040 A3010=,
20180119_030000.002,1,RJSF,,,,0,20180119030000,-1,-1,-1,-1,330,-1,12,-1,-1,-1,-1,,9999,0,0,2,FEW 40   BKN -9999,1,4,-1,6,1018,RJSF 190300Z 33012KT 9999 FEW040 BKN/// 04/M06 Q1018 RMK     1CU040 A3008=,
20180119_040000.002,1,RJSF,,,,0,20180119040000,-1,-1,-1,-1,330,-1,15,-1,-1,-1,-1,,9999,0,0,2,FEW 45   BKN -9999,1,4,-1,7,1018,RJSF 190400Z 33015KT 9999 FEW045 BKN/// 04/M07 Q1018 RMK     1CU045 A3006=,
20180119_050000.003,1,RJSF,,,,0,20180119050000,-1,-1,-1,-1,320,-1,10,-1,-1,290,350,,9999,0,0,2,FEW 45   BKN -9999,1,4,-1,7,1018,RJSF 190500Z 32010KT 290V350 9999 FEW045 BKN/// 04/M07 Q1018     RMK 1CU045 A3006=,
20180119_060000.002,1,RJSF,,,,0,20180119060000,-1,-1,-1,-1,330,-1,12,-1,-1,-1,-1,,9999,0,0,2,FEW 45   BKN -9999,1,4,-1,7,1018,RJSF 190600Z 33012KT 9999 FEW045 BKN/// 04/M07 Q1018 RMK     1CU045 A3007=,
20180119_070000.002,1,RJSF,,,,0,20180119070000,-1,-1,-1,-1,320,-1,6,-1,-1,270,350,,9999,0,0,2,FEW 45   SCT -9999,1,3,-1,8,1018,RJSF 190700Z 32006KT 270V350 9999 FEW045 SCT/// 03/M08 Q1018     RMK 1CU045 A3007=,
20180119_080000.002,1,RJSF,,,,0,20180119080000,-1,-1,-1,-1,360,-1,12,-1,-1,-1,-1,,9999,0,0,2,FEW 35   SCT -9999,1,1,-1,8,1018,RJSF 190800Z 36012KT 9999 FEW035 SCT/// 01/M08 Q1018 RMK     1CU035 A3006=,
20180119_090000.003,1,RJSF,,,,0,20180119090000,-1,-1,-1,-1,30,-1,5,-1,-1,-1,-1,,9999,0,0,2,FEW 30   SCT -9999,1,1,-1,7,1018,RJSF 190900Z 03005KT 9999 FEW030 SCT/// 01/M07 Q1018 RMK     1CU030 A3008=,
20180119_100000.002,1,RJSF,,,,0,20180119100000,-1,-1,-1,-1,30,-1,6,-1,-1,-1,-1,,9999,0,0,2,FEW 30   BKN -9999,1,0,-1,7,1018,RJSF 191000Z 03006KT 9999 FEW030 BKN/// 00/M07 Q1018 RMK     1CU030 A3007=,
20180119_110000.002,1,RJSF,,,,0,20180119110000,-1,-1,-1,-1,30,-1,9,-1,-1,-1,-1,,9999,0,0,2,FEW 30   BKN -9999,1,0,-1,7,1018,RJSF 191100Z 03009KT 9999 FEW030 BKN/// 00/M07 Q1018 RMK     1CU030 A3006=,
20180119_220000.002,1,RJSF,,,,0,20180119220000,-1,-1,-1,-1,90,-1,1,-1,-1,-1,-1,,9999,0,0,2,FEW 5   BKN -9999,-1,3,-1,3,1017,RJSF 192200Z 09001KT 9999 FEW005 BKN/// M03/M03 Q1017 RMK     1ST005 A3005=,
20180119_230000.002,1,RJSF,,,,0,20180119230000,-1,-1,-1,-1,999,-1,2,-1,-1,-1,-1,,9999,0,0,2,FEW 5   BKN -9999,-1,2,-1,2,1017,RJSF 192300Z VRB02KT 9999 FEW005 BKN/// M02/M02 Q1017 RMK     1ST005 A3004=,
20180120_000000.002,1,RJSF,,,,0,20180120000000,-1,-1,-1,-1,999,-1,1,-1,-1,-1,-1,CAVOK,-1,0,0,0,,1,0,-1,4,1017,RJSF 200000Z VRB01KT CAVOK 00/M04 Q1017 RMK A3005=,
20180120_010000.002,1,RJSF,,,,0,20180120010000,-1,-1,-1,-1,210,-1,5,-1,-1,160,240,,9999,0,0,1,FEW 50,1,3,-1,4,1016,RJSF 200100Z 21005KT 160V240 9999 FEW050 03/M04 Q1016 RMK     1CU050 A3003=,
20180120_020000.003,1,RJSF,,,,0,20180120020000,-1,-1,-1,-1,200,-1,6,-1,-1,150,230,,9999,0,0,1,FEW 50,1,5,-1,4,1016,RJSF 200200Z 20006KT 150V230 9999 FEW050 05/M04 Q1016 RMK     1CU050 A3000=,
20180120_030000.002,1,RJSF,,,,0,20180120030000,-1,-1,-1,-1,210,-1,5,-1,-1,130,300,,9999,0,0,1,FEW 50,1,6,-1,3,1014,RJSF 200300Z 21005KT 130V300 9999 FEW050 06/M03 Q1014 RMK     1CU050 A2997=,
20180120_040000.002,1,RJSF,,,,0,20180120040000,-1,-1,-1,-1,230,-1,6,-1,-1,160,290,,9999,0,0,1,FEW 50,1,7,-1,2,1013,RJSF 200400Z 23006KT 160V290 9999 FEW050 07/M02 Q1013 RMK     1CU050 A2994=,
20180120_050000.002,1,RJSF,,,,0,20180120050000,-1,-1,-1,-1,220,-1,6,-1,-1,140,290,,9999,0,0,1,FEW 40,1,8,-1,1,1013,RJSF 200500Z 22006KT 140V290 9999 FEW040 08/M01 Q1013 RMK     1CU040 A2992=,
20180120_060000.002,1,RJSF,,,,0,20180120060000,-1,-1,-1,-1,260,-1,7,-1,-1,220,300,,9999,0,0,1,FEW 35,1,8,-1,1,1014,RJSF 200600Z 26007KT 220V300 9999 FEW035 08/M01 Q1014 RMK     1CU035 A2994=,
20180120_070000.002,1,RJSF,,,,0,20180120070000,-1,-1,-1,-1,260,-1,6,-1,-1,230,290,,9999,0,0,2,FEW 35   BKN 80,1,7,-1,1,1014,RJSF 200700Z 26006KT 230V290 9999 FEW035 BKN080 07/M01 Q1014     RMK 1CU035 5AC080 A2995=,
20180120_080000.002,1,RJSF,,,,0,20180120080000,-1,-1,-1,-1,260,-1,3,-1,-1,-1,-1,,9999,0,1,3,FEW 25   SCT 50   BKN 70,1,6,-1,1,1014,RJSF 200800Z 26003KT 9999 VCSH FEW025 SCT050 BKN070 06/M01     Q1014 RMK 1CU025 3CU050 5AC070 A2997=,VC SH
20180120_090000.002,1,RJSF,,,,0,20180120090000,-1,-1,-1,-1,20,-1,10,-1,-1,-1,-1,,9999,0,1,3,FEW 20   SCT 50   BKN 70,1,4,-1,2,1015,RJSF 200900Z 02010KT 9999 VCSH FEW020 SCT050 BKN070 04/M02     Q1015 RMK 1CU020 4CU050 6AC070 A2999=,VC SH
20180120_100000.002,1,RJSF,,,,0,20180120100000,-1,-1,-1,-1,30,-1,6,-1,-1,-1,-1,,9999,0,0,3,FEW 20   SCT 40   BKN 45,1,4,1,4,1016,RJSF 201000Z 03006KT 9999 FEW020 SCT040 BKN045 04/04 Q1016 RMK     1CU020 4CU040 6CU045 A3000=,
20180120_110000.002,1,RJSF,,,,0,20180120110000,-1,-1,-1,-1,350,-1,7,-1,-1,300,30,,9999,0,0,1,FEW 20,1,3,1,3,1015,RJSF 201100Z 35007KT 300V030 9999 FEW020 03/03 Q1015 RMK     1CU020 A2999=,
20180120_220000.002,1,RJSF,,,,0,20180120220000,-1,-1,-1,-1,350,-1,9,-1,-1,-1,-1,CAVOK,-1,0,0,0,,1,1,-1,0,1014,RJSF 202200Z 35009KT CAVOK 01/M00 Q1014 RMK A2997=,
20180120_230000.002,1,RJSF,,,,0,20180120230000,-1,-1,-1,-1,350,-1,11,-1,-1,-1,-1,,9999,0,0,1,FEW 50,1,2,-1,2,1015,RJSF 202300Z 35011KT 9999 FEW050 02/M02 Q1015 RMK 2CU050     A2998=,
20180121_000000.002,1,RJSF,,,,0,20180121000000,-1,-1,-1,-1,350,-1,5,-1,-1,320,20,,9999,0,0,1,FEW 50,1,3,-1,3,1015,RJSF 210000Z 35005KT 320V020 9999 FEW050 03/M03 Q1015 RMK     1CU050 A2999=,
20180121_010000.002,1,RJSF,,,,0,20180121010000,-1,-1,-1,-1,999,-1,2,-1,-1,-1,-1,,9999,0,0,2,FEW 30   BKN 50,1,5,-1,2,1015,RJSF 210100Z VRB02KT 9999 FEW030 BKN050 05/M02 Q1015 RMK     1CU030 5CU050 A2999=,
20180121_020000.002,1,RJSF,,,,0,20180121020000,-1,-1,-1,-1,210,-1,5,-1,-1,150,250,,9999,0,0,1,FEW 50,1,6,-1,3,1014,RJSF 210200Z 21005KT 150V250 9999 FEW050 06/M03 Q1014 RMK     2CU050 A2996=,
20180121_030000.002,1,RJSF,,,,0,20180121030000,-1,-1,-1,-1,220,-1,6,-1,-1,170,280,,9999,0,0,1,FEW 50,1,8,-1,3,1013,RJSF 210300Z 22006KT 170V280 9999 FEW050 08/M03 Q1013 RMK     2CU050 A2992=,
20180121_040000.003,1,RJSF,,,,0,20180121040000,-1,-1,-1,-1,210,-1,6,-1,-1,170,240,,9999,0,0,3,FEW 30   SCT 50   BKN 70,1,7,-1,4,1012,RJSF 210400Z 21006KT 170V240 9999 FEW030 SCT050 BKN070 07/M04     Q1012 RMK 1CU030 3CU050 6AC070 A2989=,
20180121_050000.002,1,RJSF,,,,0,20180121050000,-1,-1,-1,-1,340,-1,7,-1,-1,300,20,,9999,0,1,2,FEW 30   BKN 40,1,6,-1,2,1013,RJSF 210500Z 34007KT 300V020 9999 -SHRA FEW030 BKN040 06/M02     Q1013 RMK 1CU030 7CU040 A2991=,- RA SH
20180121_060000.002,1,RJSF,,,,0,20180121060000,-1,-1,-1,-1,280,-1,5,-1,-1,240,10,,9999,0,0,2,FEW 30   SCT 50,1,7,-1,3,1012,RJSF 210600Z 28005KT 240V010 9999 FEW030 SCT050 07/M03 Q1012     RMK 1CU030 3CU050 A2991=,
20180121_070000.002,1,RJSF,,,,0,20180121070000,-1,-1,-1,-1,290,-1,3,-1,-1,260,320,,9999,0,0,2,FEW 30   SCT 50,1,7,-1,3,1013,RJSF 210700Z 29003KT 260V320 9999 FEW030 SCT050 07/M03 Q1013     RMK 1CU030 3CU050 A2992=,
20180121_080000.002,1,RJSF,,,,0,20180121080000,-1,-1,-1,-1,330,-1,12,-1,-1,-1,-1,,9999,0,0,2,FEW 30   BKN 45,1,4,-1,1,1014,RJSF 210800Z 33012KT 9999 FEW030 BKN045 04/M01 Q1014 RMK     1CU030 6CU045 A2997=,
20180121_090000.002,1,RJSF,,,,0,20180121090000,-1,-1,-1,-1,350,-1,13,-1,-1,-1,-1,,9999,0,0,2,FEW 50   BKN 60,1,2,-1,3,1016,RJSF 210900Z 35013KT 9999 FEW050 BKN060 02/M03 Q1016 RMK     1CU050 6SC060 A3002=,
20180121_100000.002,1,RJSF,,,,0,20180121100000,-1,-1,-1,-1,340,-1,12,-1,-1,-1,-1,,9999,0,0,2,FEW 50   BKN 60,1,1,-1,3,1017,RJSF 211000Z 34012KT 9999 FEW050 BKN060 01/M03 Q1017 RMK     1CU050 7SC060 A3003=,
20180121_110000.002,1,RJSF,,,,0,20180121110000,-1,-1,-1,-1,350,-1,17,-1,-1,-1,-1,,9999,0,0,1,BKN 60,1,0,-1,4,1018,RJSF 211100Z 35017KT 9999 BKN060 00/M04 Q1018 RMK 6SC060     A3006=,
20180121_220000.002,1,RJSF,,,,0,20180121220000,-1,-1,-1,-1,20,-1,9,-1,-1,-1,-1,CAVOK,-1,0,0,0,,-1,3,-1,7,1020,RJSF 212200Z 02009KT CAVOK M03/M07 Q1020 RMK A3012=,
20180121_230000.002,1,RJSF,,,,0,20180121230000,-1,-1,-1,-1,20,-1,5,-1,-1,-1,-1,,9999,0,0,3,FEW 50   SCT 120   BKN -9999,-1,2,-1,7,1020,RJSF 212300Z 02005KT 9999 FEW050 SCT120 BKN/// M02/M07 Q1020     RMK 1CU050 3AC120 A3014=,
20180122_000000.002,1,RJSF,,,,0,20180122000000,-1,-1,-1,-1,10,-1,6,-1,-1,-1,-1,,9999,0,0,3,FEW 40   SCT 50   BKN -9999,-1,2,-1,8,1021,RJSF 220000Z 01006KT 9999 FEW040 SCT050 BKN/// M02/M08 Q1021     RMK 1CU040 4CU050 A3015=,
20180122_010000.002,1,RJSF,,,,0,20180122010000,-1,-1,-1,-1,999,-1,2,-1,-1,-1,-1,,9999,0,0,3,SCT 40   BKN 50   BKN -9999,-1,1,-1,8,1020,RJSF 220100Z VRB02KT 9999 SCT040 BKN050 BKN/// M01/M08 Q1020     RMK 4CU040 6CU050 A3013=,
20180122_020000.002,1,RJSF,,,,0,20180122020000,-1,-1,-1,-1,350,-1,5,-1,-1,320,20,,9999,0,0,3,SCT 40   BKN 50   BKN -9999,-1,1,-1,8,1019,RJSF 220200Z 35005KT 320V020 9999 SCT040 BKN050 BKN/// M01/M08     Q1019 RMK 3CU040 5CU050 A3010=,
20180122_030000.002,1,RJSF,,,,0,20180122030000,-1,-1,-1,-1,330,-1,3,-1,-1,270,10,,9999,0,0,3,FEW 35   BKN 40   BKN 110,-1,1,-1,8,1017,RJSF 220300Z 33003KT 270V010 9999 FEW035 BKN040 BKN110 M01/M08     Q1017 RMK 1SC035 5SC040 7AC110 A3005=,
20180122_040000.002,1,RJSF,,,,0,20180122040000,-1,-1,-1,-1,130,-1,4,-1,-1,50,190,,9999,0,0,3,FEW 25   BKN 40   BKN 80,-1,1,-1,8,1017,RJSF 220400Z 13004KT 050V190 9999 FEW025 BKN040 BKN080 M01/M08     Q1017 RMK 1SC025 5SC040 7AC080 A3003=,
20180122_050000.002,1,RJSF,,,,0,20180122050000,-1,-1,-1,-1,110,-1,7,-1,-1,-1,-1,,6000,0,1,2,FEW 30   BKN 40,-1,1,-1,8,1015,RJSF 220500Z 11007KT 6000 -SN FEW030 BKN040 M01/M08 Q1015 RMK     1SC030 7SC040 A3000=,- SN
20180122_060000.003,1,RJSF,,,,0,20180122060000,-1,-1,-1,-1,50,-1,8,-1,-1,20,100,,1500,1,1,3,FEW 9   BKN 10   BKN 15,-1,3,-1,3,1015,RJSF 220600Z 05008KT 020V100 1500 R01/P1800U -SN FEW009 BKN010     BKN015 M03/M03 Q1015 RMK 1ST009 5ST010 7SC015 A2999=,- SN
20180122_070000.002,1,RJSF,,,,0,20180122070000,-1,-1,-1,-1,20,-1,8,-1,-1,-1,-1,,1500,1,1,3,FEW 5   SCT 10   BKN 15,-1,4,-1,4,1015,RJSF 220700Z 02008KT 1500 R01/1700U -SN FEW005 SCT010 BKN015     M04/M04 Q1015 RMK 1ST005 3ST010 7SC015 A2997=,- SN
20180122_080000.003,1,RJSF,,,,0,20180122080000,-1,-1,-1,-1,340,-1,12,-1,-1,-1,-1,,2000,0,1,2,BKN 3   BKN 4,-1,4,-1,4,1014,RJSF 220800Z 34012KT 2000 -SN BKN003 BKN004 M04/M04 Q1014 RMK     5ST003 7ST004 A2995=,- SN
20180122_090000.002,1,RJSF,,,,0,20180122090000,-1,-1,-1,-1,340,-1,12,-1,-1,-1,-1,,500,1,1,3,FEW 3   BKN 6   BKN 7,-1,4,-1,4,1014,RJSF 220900Z 34012KT 0500 R01/1200V1600D SN FEW003 BKN006     BKN007 M04/M04 Q1014 RMK 1ST003 5ST006 7ST007 A2994=,SN
20180122_100000.002,1,RJSF,,,,0,20180122100000,-1,-1,-1,-1,350,-1,12,-1,-1,-1,-1,,900,1,1,2,FEW 7   BKN 9,-1,5,-1,5,1012,RJSF 221000Z 35012KT 0900 R01/P1800D SN FEW007 BKN009 M05/M05     Q1012 RMK 1ST007 7ST009 A2990=,SN
20180122_110000.003,1,RJSF,,,,0,20180122110000,-1,-1,-1,-1,360,-1,14,-1,-1,-1,-1,,700,1,1,3,FEW 5   BKN 6   BKN 7,-1,4,-1,4,1011,RJSF 221100Z 36014KT 0700 R01/1500U SN FEW005 BKN006 BKN007     M04/M04 Q1011 RMK 1ST005 5ST006 7ST007 A2987=,SN
20180122_220000.002,1,RJSF,,,,0,20180122220000,-1,-1,-1,-1,999,-1,2,-1,-1,-1,-1,,400,1,1,1,VV 1,-1,5,-1,5,1004,RJSF 222200Z VRB02KT 0400 R01/0250V1000N FZFG VV001 M05/M05     Q1004 RMK A2965 6000E=,FZ FG
20180122_230000.003,1,RJSF,,,,0,20180122230000,-1,-1,-1,-1,150,-1,3,-1,-1,120,190,,600,1,1,2,SCT 1   BKN 2,-1,3,-1,3,1004,RJSF 222300Z 15003KT 120V190 0600 R01/1100V1600D FZFG SCT001     BKN002 M03/M03 Q1004 RMK 4ST001 7ST002 A2967=,FZ FG
20180123_000000.002,1,RJSF,,,,0,20180123000000,-1,-1,-1,-1,150,-1,5,-1,-1,-1,-1,,4000,0,1,2,FEW 1   BKN 2,-1,3,-1,3,1004,RJSF 230000Z 15005KT 4000 BR FEW001 BKN002 M03/M03 Q1004 RMK     1ST001 5ST002 A2965=,BR
20180123_010000.002,1,RJSF,,,,0,20180123010000,-1,-1,-1,-1,190,-1,5,-1,-1,-1,-1,,9999,0,0,2,FEW 10   SCT 30,-1,1,-1,1,1002,RJSF 230100Z 19005KT 9999 FEW010 SCT030 M01/M01 Q1002 RMK     1ST010 3CU030 A2961=,
20180123_020000.002,1,RJSF,,,,0,20180123020000,-1,-1,-1,-1,190,-1,6,-1,-1,-1,-1,,9999,0,0,2,FEW 15   BKN 20,1,1,1,1,1001,RJSF 230200Z 19006KT 9999 FEW015 BKN020 01/01 Q1001 RMK 1CU015     6CU020 A2957=,
20180123_030000.003,1,RJSF,,,,0,20180123030000,-1,-1,-1,-1,210,-1,4,-1,-1,150,250,,9999,0,0,3,FEW 10   SCT 15   BKN 20,1,2,1,2,1000,RJSF 230300Z 21004KT 150V250 9999 FEW010 SCT015 BKN020 02/02     Q1000 RMK 1ST010 4CU015 6CU020 A2954=,
20180123_040000.003,1,RJSF,,,,0,20180123040000,-1,-1,-1,-1,310,-1,6,-1,-1,260,340,,9999,0,1,3,FEW 10   BKN 15   BKN 20,1,1,1,1,1000,RJSF 230400Z 31006KT 260V340 9999 -SHSN FEW010 BKN015 BKN020     01/01 Q1000 RMK 1ST010 5CU015 6CU020 A2953=,- SN SH
20180123_050000.002,1,RJSF,,,,0,20180123050000,-1,-1,-1,-1,200,-1,5,-1,-1,160,240,,9999,0,1,3,FEW 10   SCT 15   BKN 25,1,2,1,2,999,RJSF 230500Z 20005KT 160V240 9999 -SHSN FEW010 SCT015 BKN025     02/02 Q0999 RMK 1ST010 3CU015 6CU025 A2951=,- SN SH
20180123_060000.003,1,RJSF,,,,0,20180123060000,-1,-1,-1,-1,320,-1,3,-1,-1,230,30,,900,1,1,3,FEW 6   SCT 8   BKN 15,1,1,1,1,1000,RJSF 230600Z 32003KT 230V030 0900 R01/0900VP1800D SHSN FEW006     SCT008 BKN015 01/01 Q1000 RMK 1ST006 4ST008 6CU015 A2953=,SN SH
20180123_070000.002,1,RJSF,,,,0,20180123070000,-1,-1,-1,-1,290,-1,6,-1,17,240,340,,8000,0,1,3,FEW 2   SCT 10   BKN 15,1,2,1,2,1000,RJSF 230700Z 29006G17KT 240V340 8000 -SHSN FEW002 SCT010     BKN015 02/02 Q1000 RMK 2ST002 4CU010 6CU015 A2956           3000N-NE=,- SN SH
20180123_080000.002,1,RJSF,,,,0,20180123080000,-1,-1,-1,-1,300,-1,11,-1,22,270,330,,9999,0,1,3,FEW 10   BKN 20   BKN 25,1,1,1,1,1001,RJSF 230800Z 30011G22KT 270V330 9999 -SHSN FEW010 BKN020     BKN025 01/01 Q1001 RMK 1CU010 5CU020 6CU025 A2959=,- SN SH
20180123_090000.002,1,RJSF,,,,0,20180123090000,-1,-1,-1,-1,330,-1,7,-1,-1,300,10,,9999,0,1,3,SCT 9   BKN 20   BKN 35,-1,0,-1,0,1003,RJSF 230900Z 33007KT 300V010 9999 -SHSN SCT009 BKN020 BKN035     M00/M00 Q1003 RMK 3ST009 5CU020 6CU035 A2962=,- SN SH
20180123_100000.002,1,RJSF,,,,0,20180123100000,-1,-1,-1,-1,310,-1,6,-1,-1,230,10,,9999,0,0,2,FEW 10   SCT 40,1,1,-1,7,1003,RJSF 231000Z 31006KT 230V010 9999 FEW010 SCT040 01/M07 Q1003     RMK 1CU010 4CU040 A2963=,
20180123_110000.002,1,RJSF,,,,0,20180123110000,-1,-1,-1,-1,999,-1,2,-1,-1,-1,-1,,9999,0,0,1,FEW 30,-1,3,-1,3,1003,RJSF 231100Z VRB02KT 9999 FEW030 M03/M03 Q1003 RMK 2CU030     A2963=,
20180123_220000.002,1,RJSF,,,,0,20180123220000,-1,-1,-1,-1,110,-1,2,-1,-1,-1,-1,,9999,0,0,2,FEW 5   BKN 50,-1,5,-1,5,1003,RJSF 232200Z 11002KT 9999 FEW005 BKN050 M05/M05 Q1003 RMK     1ST005 6CU050 A2964=,
20180123_230000.002,1,RJSF,,,,0,20180123230000,-1,-1,-1,-1,130,-1,3,-1,-1,-1,-1,,9999,0,0,3,FEW 5   SCT 50   BKN 70,-1,5,-1,5,1003,RJSF 232300Z 13003KT 9999 FEW005 SCT050 BKN070 M05/M05 Q1003     RMK 1ST005 4CU050 7AC070 A2963=,
20180124_000000.002,1,RJSF,,,,0,20180124000000,-1,-1,-1,-1,190,-1,4,-1,-1,140,220,,9999,0,0,3,FEW 5   BKN 50   BKN 70,-1,3,-1,5,1003,RJSF 240000Z 19004KT 140V220 9999 FEW005 BKN050 BKN070 M03/M05     Q1003 RMK 1ST005 5CU050 7AC070 A2963=,
20180124_010000.003,1,RJSF,,,,0,20180124010000,-1,-1,-1,-1,230,-1,5,-1,-1,160,300,,9999,0,0,3,FEW 15   SCT 45   BKN 50,-1,3,-1,6,1002,RJSF 240100Z 23005KT 160V300 9999 FEW015 SCT045 BKN050 M03/M06     Q1002 RMK 1CU015 3CU045 7CU050 A2961=,
20180124_020000.002,1,RJSF,,,,0,20180124020000,-1,-1,-1,-1,270,-1,8,-1,-1,230,310,,9999,0,1,3,FEW 25   BKN 50   BKN 70,-1,1,-1,7,1001,RJSF 240200Z 27008KT 230V310 9999 VCSH FEW025 BKN050 BKN070     M01/M07 Q1001 RMK 1CU025 5CU050 7AC070 A2958=,VC SH
20180124_030000.002,1,RJSF,,,,0,20180124030000,-1,-1,-1,-1,330,-1,11,-1,21,310,40,,6000,0,1,3,FEW 5   SCT 30   BKN 70,-1,3,-1,5,1001,RJSF 240300Z 33011G21KT 310V040 6000 -SHSN FEW005 SCT030     BKN070 M03/M05 Q1001 RMK 1ST005 3CU030 7AC070 A2958=,- SN SH
20180124_040000.002,1,RJSF,,,,0,20180124040000,-1,-1,-1,-1,350,-1,6,-1,-1,310,10,,9999,0,1,3,FEW 25   SCT 50   BKN 100,-1,2,-1,8,999,RJSF 240400Z 35006KT 310V010 9999 VCSH FEW025 SCT050 BKN100     M02/M08 Q0999 RMK 1CU025 3CU050 5AC100 A2953=,VC SH
20180124_050000.002,1,RJSF,,,,0,20180124050000,-1,-1,-1,-1,350,-1,13,-1,-1,-1,-1,,9999,0,1,3,SCT 5   BKN 10   BKN 40,-1,5,-1,5,1000,RJSF 240500Z 35013KT 9999 -SHSN SCT005 BKN010 BKN040 M05/M05     Q1000 RMK 3ST005 5CU010 6CU040 A2955=,- SN SH
20180124_060000.002,1,RJSF,,,,0,20180124060000,-1,-1,-1,-1,320,-1,10,-1,-1,260,350,,9999,0,0,3,FEW 35   SCT 70   BKN 90,-1,4,-1,10,1001,RJSF 240600Z 32010KT 260V350 9999 FEW035 SCT070 BKN090 M04/M10     Q1001 RMK 1CU035 4AC070 6AC090 A2958=,
20180124_070000.002,1,RJSF,,,,0,20180124070000,-1,-1,-1,-1,320,-1,10,-1,-1,270,350,CAVOK,-1,0,0,0,,-1,5,-1,11,1002,RJSF 240700Z 32010KT 270V350 CAVOK M05/M11 Q1002 RMK A2959=,
20180124_080000.002,1,RJSF,,,,0,20180124080000,-1,-1,-1,-1,330,-1,8,-1,-1,290,10,CAVOK,-1,0,0,0,,-1,6,-1,11,1002,RJSF 240800Z 33008KT 290V010 CAVOK M06/M11 Q1002 RMK A2961=,
20180124_090000.003,1,RJSF,,,,0,20180124090000,-1,-1,-1,-1,330,-1,12,-1,-1,-1,-1,,3500,0,1,3,SCT 15   BKN 30   BKN 40,-1,7,-1,7,1003,RJSF 240900Z 33012KT 3500 -SHSN SCT015 BKN030 BKN040 M07/M07     Q1003 RMK 3CU015 5CU030 6CU040 A2964=,- SN SH
20180124_100000.002,1,RJSF,,,,0,20180124100000,-1,-1,-1,-1,320,-1,9,-1,-1,280,350,,9999,0,1,3,FEW 15   SCT 30   BKN 35,-1,7,-1,7,1005,RJSF 241000Z 32009KT 280V350 9999 -SHSN FEW015 SCT030 BKN035     M07/M07 Q1005 RMK 2CU015 3CU030 6CU035 A2968=,- SN SH
20180124_110000.002,1,RJSF,,,,0,20180124110000,-1,-1,-1,-1,290,-1,7,-1,-1,-1,-1,,9999,0,1,3,FEW 25   SCT 30   BKN 35,-1,7,-1,10,1004,RJSF 241100Z 29007KT 9999 -SHSN FEW025 SCT030 BKN035 M07/M10     Q1004 RMK 1CU025 3CU030 6CU035 A2966=,- SN SH
20180124_220000.002,1,RJSF,,,,0,20180124220000,-1,-1,-1,-1,320,-1,9,-1,-1,290,360,,2500,0,1,3,FEW 15   SCT 25   BKN 35,-1,8,-1,8,1006,RJSF 242200Z 32009KT 290V360 2500 -SHSN FEW015 SCT025 BKN035     M08/M08 Q1006 RMK 2CU015 4CU025 6CU035 A2972=,- SN SH
20180124_230000.002,1,RJSF,,,,0,20180124230000,-1,-1,-1,-1,330,-1,14,-1,-1,-1,-1,,3500,0,1,3,FEW 15   SCT 30   BKN 35,-1,7,-1,11,1006,RJSF 242300Z 33014KT 3500 -SHSN FEW015 SCT030 BKN035 M07/M11     Q1006 RMK 2CU015 3CU030 6CU035 A2973 9999NW-NE=,- SN SH
20180125_000000.002,1,RJSF,,,,0,20180125000000,-1,-1,-1,-1,320,-1,14,-1,-1,270,340,,9999,0,0,2,FEW 15   SCT 30,-1,6,-1,13,1007,RJSF 250000Z 32014KT 270V340 9999 FEW015 SCT030 M06/M13 Q1007     RMK 1CU015 3CU030 A2974=,
20180125_010000.002,1,RJSF,,,,0,20180125010000,-1,-1,-1,-1,320,-1,17,-1,-1,-1,-1,,9999,0,0,1,FEW 20,-1,6,-1,13,1007,RJSF 250100Z 32017KT 9999 FEW020 M06/M13 Q1007 RMK 2CU020     A2975=,
20180125_020000.003,1,RJSF,,,,0,20180125020000,-1,-1,-1,-1,310,-1,16,-1,28,270,350,,9999,0,0,1,FEW 30,-1,5,-1,13,1006,RJSF 250200Z 31016G28KT 270V350 9999 FEW030 M05/M13 Q1006 RMK     1CU030 A2973=,
20180125_030000.002,1,RJSF,,,,0,20180125030000,-1,-1,-1,-1,310,-1,19,-1,30,-1,-1,,9999,0,0,1,FEW 30,-1,5,-1,13,1005,RJSF 250300Z 31019G30KT 9999 FEW030 M05/M13 Q1005 RMK 1CU030     A2970=,
20180125_040000.002,1,RJSF,,,,0,20180125040000,-1,-1,-1,-1,310,-1,16,-1,27,270,340,,9999,0,0,1,FEW 30,-1,4,-1,12,1005,RJSF 250400Z 31016G27KT 270V340 9999 FEW030 M04/M12 Q1005 RMK     2CU030 A2970=,
20180125_050000.002,1,RJSF,,,,0,20180125050000,-1,-1,-1,-1,320,-1,14,-1,-1,-1,-1,,9999,0,0,1,FEW 30,-1,4,-1,11,1005,RJSF 250500Z 32014KT 9999 FEW030 M04/M11 Q1005 RMK 1CU030     A2970=,
20180125_060000.002,1,RJSF,,,,0,20180125060000,-1,-1,-1,-1,330,-1,14,-1,25,290,350,,9999,0,0,2,FEW 30   SCT 80,-1,4,-1,10,1005,RJSF 250600Z 33014G25KT 290V350 9999 FEW030 SCT080 M04/M10     Q1005 RMK 1CU030 3AC080 A2970=,
20180125_070000.002,1,RJSF,,,,0,20180125070000,-1,-1,-1,-1,310,-1,10,-1,-1,270,340,,9999,0,0,2,FEW 20   BKN 70,-1,5,-1,9,1006,RJSF 250700Z 31010KT 270V340 9999 FEW020 BKN070 M05/M09 Q1006     RMK 1CU020 5AC070 A2971=,
20180125_080000.002,1,RJSF,,,,0,20180125080000,-1,-1,-1,-1,330,-1,9,-1,-1,-1,-1,,9999,0,1,2,FEW 20   BKN 50,-1,6,-1,6,1005,RJSF 250800Z 33009KT 9999 -SHSN FEW020 BKN050 M06/M06 Q1005     RMK 1CU020 5CU050 A2970=,- SN SH
20180125_090000.002,1,RJSF,,,,0,20180125090000,-1,-1,-1,-1,300,-1,5,-1,-1,-1,-1,,6000,0,1,3,FEW 15   SCT 30   BKN 40,-1,6,-1,6,1006,RJSF 250900Z 30005KT 6000 -SHSN FEW015 SCT030 BKN040 M06/M06     Q1006 RMK 1CU015 3CU030 5CU040 A2972=,- SN SH
20180125_100000.003,1,RJSF,,,,0,20180125100000,-1,-1,-1,-1,340,-1,11,-1,-1,-1,-1,,5000,0,1,3,FEW 10   SCT 20   BKN 30,-1,6,-1,6,1005,RJSF 251000Z 34011KT 5000 -SHSN FEW010 SCT020 BKN030 M06/M06     Q1005 RMK 1ST010 3CU020 5CU030 A2970=,- SN SH
20180125_110000.003,1,RJSF,,,,0,20180125110000,-1,-1,-1,-1,10,-1,7,-1,-1,-1,-1,,9999,0,1,2,FEW 5   SCT 40,-1,7,-1,7,1005,RJSF 251100Z 01007KT 9999 -SHSN FEW005 SCT040 M07/M07 Q1005     RMK 1ST005 4CU040 A2969=,- SN SH
20180125_220000.002,1,RJSF,,,,0,20180125220000,-1,-1,-1,-1,320,-1,7,-1,17,280,360,,5000,0,1,3,FEW 15   BKN 25   BKN 35,-1,7,-1,7,1004,RJSF 252200Z 32007G17KT 280V360 5000 -SHSN FEW015 BKN025     BKN035 M07/M07 Q1004 RMK 1CU015 5CU025 7CU035 A2966=,- SN SH
20180125_230000.002,1,RJSF,,,,0,20180125230000,-1,-1,-1,-1,340,-1,6,-1,-1,-1,-1,,5000,0,1,3,FEW 20   BKN 25   BKN 30,-1,7,-1,7,1004,RJSF 252300Z 34006KT 5000 -SHSN FEW020 BKN025 BKN030 M07/M07     Q1004 RMK 2CU020 5CU025 7CU030 A2966=,- SN SH
20180126_000000.002,1,RJSF,,,,0,20180126000000,-1,-1,-1,-1,10,-1,6,-1,-1,-1,-1,,2000,0,1,3,FEW 15   BKN 20   BKN 25,-1,7,-1,7,1004,RJSF 260000Z 01006KT 2000 -SHSN FEW015 BKN020 BKN025 M07/M07     Q1004 RMK 2CU015 5CU020 7CU025 A2967=,- SN SH
20180126_010000.002,1,RJSF,,,,0,20180126010000,-1,-1,-1,-1,360,-1,5,-1,-1,-1,-1,,2000,0,1,3,FEW 7   BKN 12   BKN 20,-1,6,-1,6,1005,RJSF 260100Z 36005KT 2000 -SHSN FEW007 BKN012 BKN020 M06/M06     Q1005 RMK 1ST007 5ST012 7CU020 A2968=,- SN SH
20180126_020000.002,1,RJSF,,,,0,20180126020000,-1,-1,-1,-1,310,-1,6,-1,-1,280,340,,3000,0,1,3,FEW 8   BKN 15   BKN 20,-1,6,-1,6,1004,RJSF 260200Z 31006KT 280V340 3000 -SHSN FEW008 BKN015 BKN020     M06/M06 Q1004 RMK 1ST008 5CU015 7CU020 A2966=,- SN SH
20180126_030000.002,1,RJSF,,,,0,20180126030000,-1,-1,-1,-1,350,-1,12,-1,-1,-1,-1,,2000,0,1,3,FEW 8   BKN 20   BKN 25,-1,6,-1,6,1003,RJSF 260300Z 35012KT 2000 -SHSN FEW008 BKN020 BKN025 M06/M06     Q1003 RMK 1ST008 5CU020 7CU025 A2964=,- SN SH
20180126_040000.002,1,RJSF,,,,0,20180126040000,-1,-1,-1,-1,330,-1,13,-1,-1,-1,-1,,1500,1,1,3,FEW 10   BKN 15   BKN 20,-1,6,-1,6,1003,RJSF 260400Z 33013KT 1500 R01/P1800N -SHSN FEW010 BKN015     BKN020 M06/M06 Q1003 RMK 2ST010 5CU015 6CU020 A2964=,- SN SH
20180126_050000.002,1,RJSF,,,,0,20180126050000,-1,-1,-1,-1,290,-1,9,-1,-1,270,340,,3000,0,1,3,FEW 15   SCT 35   BKN 40,-1,6,-1,6,1003,RJSF 260500Z 29009KT 270V340 3000 -SHSN FEW015 SCT035 BKN040     M06/M06 Q1003 RMK 1CU015 4CU035 6CU040 A2964 9999NW-NE=,- SN SH
20180126_060000.002,1,RJSF,,,,0,20180126060000,-1,-1,-1,-1,280,-1,6,-1,-1,250,340,,7000,0,1,3,FEW 15   SCT 30   BKN 40,-1,5,-1,9,1004,RJSF 260600Z 28006KT 250V340 7000 -SHSN FEW015 SCT030 BKN040     M05/M09 Q1004 RMK 1CU015 3CU030 5CU040 A2965=,- SN SH
20180126_070000.002,1,RJSF,,,,0,20180126070000,-1,-1,-1,-1,280,-1,9,-1,21,240,320,,9999,0,1,3,FEW 15   SCT 25   BKN 30,-1,5,-1,10,1003,RJSF 260700Z 28009G21KT 240V320 9999 -SHSN FEW015 SCT025     BKN030 M05/M10 Q1003 RMK 1CU015 4CU025 5CU030 A2964=,- SN SH
20180126_080000.003,1,RJSF,,,,0,20180126080000,-1,-1,-1,-1,290,-1,8,-1,-1,240,350,,9999,0,1,3,FEW 15   BKN 30   BKN 35,-1,5,-1,10,1005,RJSF 260800Z 29008KT 240V350 9999 -SHSN FEW015 BKN030 BKN035     M05/M10 Q1005 RMK 2CU015 5CU030 7CU035 A2968=,- SN SH
20180126_090000.002,1,RJSF,,,,0,20180126090000,-1,-1,-1,-1,300,-1,11,-1,-1,270,360,,9999,0,1,3,FEW 25   BKN 35   BKN 40,-1,5,-1,12,1005,RJSF 260900Z 30011KT 270V360 9999 -SHSN FEW025 BKN035 BKN040     M05/M12 Q1005 RMK 1CU025 5CU035 7CU040 A2969=,- SN SH
20180126_100000.002,1,RJSF,,,,0,20180126100000,-1,-1,-1,-1,330,-1,14,-1,24,300,10,,9999,0,1,3,FEW 25   BKN 35   BKN 40,-1,5,-1,11,1006,RJSF 261000Z 33014G24KT 300V010 9999 -SHSN FEW025 BKN035     BKN040 M05/M11 Q1006 RMK 1CU025 5CU035 7CU040 A2971=,- SN SH
20180126_110000.002,1,RJSF,,,,0,20180126110000,-1,-1,-1,-1,310,-1,9,-1,19,270,360,,9999,0,1,3,FEW 25   BKN 40   BKN 45,-1,5,-1,11,1006,RJSF 261100Z 31009G19KT 270V360 9999 -SHSN FEW025 BKN040     BKN045 M05/M11 Q1006 RMK 1CU025 5CU040 7CU045 A2972=,- SN SH
20180126_220000.002,1,RJSF,,,,0,20180126220000,-1,-1,-1,-1,260,-1,5,-1,-1,150,320,,9999,0,0,2,FEW 25   SCT 30,-1,4,-1,9,1009,RJSF 262200Z 26005KT 150V320 9999 FEW025 SCT030 M04/M09 Q1009     RMK 1CU025 3CU030 A2980=,
20180126_230000.002,1,RJSF,,,,0,20180126230000,-1,-1,-1,-1,999,-1,6,-1,17,-1,-1,,9999,0,0,1,FEW 30,-1,3,-1,9,1009,RJSF 262300Z VRB06G17KT 9999 FEW030 M03/M09 Q1009 RMK 2CU030     A2980=,
20180127_000000.002,1,RJSF,,,,0,20180127000000,-1,-1,-1,-1,310,-1,12,-1,24,220,20,,9999,0,0,1,FEW 30,-1,2,-1,10,1009,RJSF 270000Z 31012G24KT 220V020 9999 FEW030 M02/M10 Q1009 RMK     1CU030 A2981=,
20180127_010000.002,1,RJSF,,,,0,20180127010000,-1,-1,-1,-1,310,-1,15,-1,26,270,340,,9999,0,0,1,FEW 30,-1,2,-1,9,1010,RJSF 270100Z 31015G26KT 270V340 9999 FEW030 M02/M09 Q1010 RMK     1CU030 A2982=,
20180127_020000.002,1,RJSF,,,,0,20180127020000,-1,-1,-1,-1,320,-1,16,-1,-1,270,350,,9999,0,0,1,FEW 30,-1,1,-1,10,1010,RJSF 270200Z 32016KT 270V350 9999 FEW030 M01/M10 Q1010 RMK     1CU030 A2984=,
20180127_030000.002,1,RJSF,,,,0,20180127030000,-1,-1,-1,-1,310,-1,17,-1,29,280,350,,9999,0,0,1,FEW 30,-1,1,-1,10,1010,RJSF 270300Z 31017G29KT 280V350 9999 FEW030 M01/M10 Q1010 RMK     1CU030 A2984=,
20180127_040000.002,1,RJSF,,,,0,20180127040000,-1,-1,-1,-1,310,-1,16,-1,29,280,350,,9999,0,0,1,FEW 30,-1,1,-1,10,1010,RJSF 270400Z 31016G29KT 280V350 9999 FEW030 M01/M10 Q1010 RMK     1CU030 A2984=,
20180127_050000.002,1,RJSF,,,,0,20180127050000,-1,-1,-1,-1,310,-1,17,-1,28,280,340,,9999,0,0,1,FEW 30,-1,1,-1,9,1011,RJSF 270500Z 31017G28KT 280V340 9999 FEW030 M01/M09 Q1011 RMK     1CU030 A2986=,
20180127_060000.002,1,RJSF,,,,0,20180127060000,-1,-1,-1,-1,320,-1,18,-1,30,280,350,,9999,0,0,1,FEW 30,-1,2,-1,9,1011,RJSF 270600Z 32018G30KT 280V350 9999 FEW030 M02/M09 Q1011 RMK     1CU030 A2988=,
20180127_070000.002,1,RJSF,,,,0,20180127070000,-1,-1,-1,-1,320,-1,20,-1,31,290,350,,9999,0,0,1,FEW 30,-1,2,-1,9,1012,RJSF 270700Z 32020G31KT 290V350 9999 FEW030 M02/M09 Q1012 RMK     1CU030 A2990=,
20180127_080000.002,1,RJSF,,,,0,20180127080000,-1,-1,-1,-1,320,-1,18,-1,34,290,350,,9999,0,0,1,FEW 30,-1,3,-1,9,1012,RJSF 270800Z 32018G34KT 290V350 9999 FEW030 M03/M09 Q1012 RMK     1CU030 A2991=,
20180127_090000.003,1,RJSF,,,,0,20180127090000,-1,-1,-1,-1,330,-1,19,-1,-1,-1,-1,,9999,0,1,1,FEW 30,-1,3,-1,8,1014,RJSF 270900Z 33019KT 9999 -SHSN FEW030 M03/M08 Q1014 RMK     2CU030 A2994=,- SN SH
20180127_100000.002,1,RJSF,,,,0,20180127100000,-1,-1,-1,-1,320,-1,21,-1,32,-1,-1,,9999,0,1,1,FEW 20,-1,3,-1,9,1014,RJSF 271000Z 32021G32KT 9999 -SHSN FEW020 M03/M09 Q1014 RMK     2CU020 A2995=,- SN SH
20180127_110000.002,1,RJSF,,,,0,20180127110000,-1,-1,-1,-1,330,-1,22,-1,34,-1,-1,,9999,0,0,1,FEW 20,-1,3,-1,10,1014,RJSF 271100Z 33022G34KT 9999 FEW020 M03/M10 Q1014 RMK 1CU020     A2997=,
20180127_220000.002,1,RJSF,,,,0,20180127220000,-1,-1,-1,-1,360,-1,13,-1,-1,-1,-1,CAVOK,-1,0,0,0,,-1,3,-1,10,1017,RJSF 272200Z 36013KT CAVOK M03/M10 Q1017 RMK A3004=,
20180127_230000.002,1,RJSF,,,,0,20180127230000,-1,-1,-1,-1,350,-1,17,-1,-1,-1,-1,CAVOK,-1,0,0,0,,-1,3,-1,10,1017,RJSF 272300Z 35017KT CAVOK M03/M10 Q1017 RMK A3004=,
20180128_000000.003,1,RJSF,,,,0,20180128000000,-1,-1,-1,-1,360,-1,11,-1,-1,-1,-1,CAVOK,-1,0,0,0,,-1,2,-1,10,1016,RJSF 280000Z 36011KT CAVOK M02/M10 Q1016 RMK A3001=,
20180128_010000.002,1,RJSF,,,,0,20180128010000,-1,-1,-1,-1,10,-1,5,-1,-1,-1,-1,CAVOK,-1,0,0,0,,-1,1,-1,9,1016,RJSF 280100Z 01005KT CAVOK M01/M09 Q1016 RMK A3001=,
20180128_020000.002,1,RJSF,,,,0,20180128020000,-1,-1,-1,-1,999,-1,2,-1,-1,-1,-1,CAVOK,-1,0,0,0,,-1,0,-1,10,1015,RJSF 280200Z VRB02KT CAVOK M00/M10 Q1015 RMK A2998=,
20180128_030000.002,1,RJSF,,,,0,20180128030000,-1,-1,-1,-1,999,-1,1,-1,-1,-1,-1,CAVOK,-1,0,0,0,,-1,0,-1,10,1013,RJSF 280300Z VRB01KT CAVOK M00/M10 Q1013 RMK A2994=,
20180128_040000.002,1,RJSF,,,,0,20180128040000,-1,-1,-1,-1,220,-1,5,-1,-1,180,250,,9999,0,0,3,FEW 50   SCT 70   BKN 110,1,0,-1,10,1013,RJSF 280400Z 22005KT 180V250 9999 FEW050 SCT070 BKN110 00/M10     Q1013 RMK 2CU050 3AC070 6AC110 A2992=,
20180128_050000.002,1,RJSF,,,,0,20180128050000,-1,-1,-1,-1,230,-1,4,-1,-1,-1,-1,,9999,0,0,3,SCT 45   BKN 70   BKN -9999,1,1,-1,8,1012,RJSF 280500Z 23004KT 9999 SCT045 BKN070 BKN/// 01/M08 Q1012     RMK 3SC045 5AC070 A2990=,
20180128_060000.002,1,RJSF,,,,0,20180128060000,-1,-1,-1,-1,240,-1,5,-1,-1,210,280,,9999,0,0,2,FEW 45   BKN 90,1,0,-1,8,1012,RJSF 280600Z 24005KT 210V280 9999 FEW045 BKN090 00/M08 Q1012     RMK 2SC045 7AC090 A2990=,
20180128_070000.003,1,RJSF,,,,0,20180128070000,-1,-1,-1,-1,210,-1,6,-1,-1,-1,-1,,9999,0,0,3,FEW 25   BKN 40   BKN 100,1,0,-1,4,1012,RJSF 280700Z 21006KT 9999 FEW025 BKN040 BKN100 00/M04 Q1012     RMK 2CU025 5SC040 7AC100 A2989=,
20180128_080000.002,1,RJSF,,,,0,20180128080000,-1,-1,-1,-1,170,-1,5,-1,-1,-1,-1,,9999,0,0,2,FEW 20   BKN 35,-1,0,-1,0,1011,RJSF 280800Z 17005KT 9999 FEW020 BKN035 M00/M00 Q1011 RMK     1CU020 7SC035 A2986=,
20180128_090000.002,1,RJSF,,,,0,20180128090000,-1,-1,-1,-1,110,-1,1,-1,-1,-1,-1,,9999,0,0,1,BKN 30,-1,0,-1,0,1011,RJSF 280900Z 11001KT 9999 BKN030 M00/M00 Q1011 RMK 7SC030     A2986=,
20180128_100000.002,1,RJSF,,,,0,20180128100000,-1,-1,-1,-1,999,-1,2,-1,-1,-1,-1,,9999,0,0,1,BKN 30,-1,0,-1,0,1010,RJSF 281000Z VRB02KT 9999 BKN030 M00/M00 Q1010 RMK 7SC030     A2984=,
20180128_110000.002,1,RJSF,,,,0,20180128110000,-1,-1,-1,-1,160,-1,2,-1,-1,-1,-1,,9999,0,0,1,BKN 25,-1,1,-1,1,1009,RJSF 281100Z 16002KT 9999 BKN025 M01/M01 Q1009 RMK 7SC025     A2981=,
20180128_220000.003,1,RJSF,,,,0,20180128220000,-1,-1,-1,-1,350,-1,12,-1,-1,-1,-1,,9999,0,0,2,FEW 5   SCT -9999,-1,2,-1,2,1007,RJSF 282200Z 35012KT 9999 FEW005 SCT/// M02/M02 Q1007 RMK     1ST005 A2974=,
20180128_230000.002,1,RJSF,,,,0,20180128230000,-1,-1,-1,-1,360,-1,7,-1,-1,-1,-1,,9999,0,0,2,FEW 15   BKN 100,-1,1,-1,1,1007,RJSF 282300Z 36007KT 9999 FEW015 BKN100 M01/M01 Q1007 RMK     1CU015 6AC100 A2974=,
20180129_000000.003,1,RJSF,,,,0,20180129000000,-1,-1,-1,-1,10,-1,9,-1,-1,-1,-1,,9999,0,0,2,FEW 15   BKN 100,-1,0,-1,5,1007,RJSF 290000Z 01009KT 9999 FEW015 BKN100 M00/M05 Q1007 RMK     1CU015 6AC100 A2975=,
20180129_010000.002,1,RJSF,,,,0,20180129010000,-1,-1,-1,-1,350,-1,11,-1,-1,-1,-1,,9999,0,0,2,FEW 20   BKN 150,1,1,-1,6,1007,RJSF 290100Z 35011KT 9999 FEW020 BKN150 01/M06 Q1007 RMK     1CU020 6AC150 A2974=,
20180129_020000.002,1,RJSF,,,,0,20180129020000,-1,-1,-1,-1,330,-1,13,-1,-1,-1,-1,,9999,0,0,2,FEW 35   SCT 80,1,1,-1,7,1006,RJSF 290200Z 33013KT 9999 FEW035 SCT080 01/M07 Q1006 RMK     1CU035 4AC080 A2972=,
20180129_030000.002,1,RJSF,,,,0,20180129030000,-1,-1,-1,-1,350,-1,14,-1,-1,-1,-1,,9999,0,0,2,FEW 25   BKN -9999,1,1,-1,7,1005,RJSF 290300Z 35014KT 9999 FEW025 BKN/// 01/M07 Q1005 RMK     1CU025 A2969=,
20180129_040000.002,1,RJSF,,,,0,20180129040000,-1,-1,-1,-1,10,-1,11,-1,-1,-1,-1,,9999,0,0,2,FEW 25   BKN -9999,1,1,-1,7,1004,RJSF 290400Z 01011KT 9999 FEW025 BKN/// 01/M07 Q1004 RMK     1CU025 A2966=,
20180129_050000.002,1,RJSF,,,,0,20180129050000,-1,-1,-1,-1,20,-1,9,-1,-1,-1,-1,,9999,0,0,2,FEW 30   SCT -9999,1,2,-1,7,1004,RJSF 290500Z 02009KT 9999 FEW030 SCT/// 02/M07 Q1004 RMK     1CU030 A2965=,
20180129_060000.002,1,RJSF,,,,0,20180129060000,-1,-1,-1,-1,10,-1,5,-1,-1,-1,-1,,9999,0,0,2,FEW 30   BKN 45,1,1,-1,6,1003,RJSF 290600Z 01005KT 9999 FEW030 BKN045 01/M06 Q1003 RMK     1CU030 7CU045 A2964=,
20180129_070000.002,1,RJSF,,,,0,20180129070000,-1,-1,-1,-1,20,-1,9,-1,-1,-1,-1,,9999,0,1,3,FEW 20   SCT 35   BKN 45,1,1,-1,6,1004,RJSF 290700Z 02009KT 9999 VCSH FEW020 SCT035 BKN045 01/M06     Q1004 RMK 1CU020 4CU035 7CU045 A2966=,VC SH
20180129_080000.002,1,RJSF,,,,0,20180129080000,-1,-1,-1,-1,60,-1,3,-1,-1,-1,-1,,1500,1,1,1,BKN 12,-1,1,-1,1,1005,RJSF 290800Z 06003KT 1500 R01/1800U -SHSN BKN012 M01/M01 Q1005     RMK 7ST012 A2968=,- SN SH
20180129_090000.002,1,RJSF,,,,0,20180129090000,-1,-1,-1,-1,360,-1,2,-1,-1,-1,-1,,900,1,1,2,FEW 8   BKN 10,-1,1,-1,1,1005,RJSF 290900Z 36002KT 0900 R01/P1800N SHSN FEW008 BKN010     M01/M01 Q1005 RMK 2ST008 7ST010 A2969=,SN SH
20180129_100000.002,1,RJSF,,,,0,20180129100000,-1,-1,-1,-1,130,-1,7,-1,-1,90,180,,5000,0,1,3,FEW 6   SCT 15   BKN 60,-1,1,-1,1,1005,RJSF 291000Z 13007KT 090V180 5000 -SHSN FEW006 SCT015 BKN060     M01/M01 Q1005 RMK 1ST006 4CU015 7SC060 A2969=,- SN SH
20180129_110000.002,1,RJSF,,,,0,20180129110000,-1,-1,-1,-1,130,-1,5,-1,-1,-1,-1,,9999,0,0,3,FEW 5   SCT 40   BKN 80,-1,3,-1,3,1006,RJSF 291100Z 13005KT 9999 FEW005 SCT040 BKN080 M03/M03 Q1006     RMK 1ST005 3CU040 5AC080 A2971=,
20180129_220000.002,1,RJSF,,,,0,20180129220000,-1,-1,-1,-1,300,-1,6,-1,-1,260,340,,9999,0,0,1,FEW 15,-1,5,-1,9,1013,RJSF 292200Z 30006KT 260V340 9999 FEW015 M05/M09 Q1013 RMK     1CU015 A2991=,
20180129_230000.002,1,RJSF,,,,0,20180129230000,-1,-1,-1,-1,300,-1,4,-1,-1,270,340,,9999,0,0,1,FEW 30,-1,5,-1,10,1013,RJSF 292300Z 30004KT 270V340 9999 FEW030 M05/M10 Q1013 RMK     1CU030 A2993=,
20180130_000000.002,1,RJSF,,,,0,20180130000000,-1,-1,-1,-1,300,-1,7,-1,-1,270,340,,9999,0,0,1,FEW 30,-1,3,-1,10,1013,RJSF 300000Z 30007KT 270V340 9999 FEW030 M03/M10 Q1013 RMK     1CU030 A2994=,
20180130_010000.002,1,RJSF,,,,0,20180130010000,-1,-1,-1,-1,310,-1,8,-1,-1,260,340,,9999,0,0,2,FEW 30   SCT 40,-1,3,-1,10,1014,RJSF 300100Z 31008KT 260V340 9999 FEW030 SCT040 M03/M10 Q1014     RMK 1CU030 4CU040 A2994=,
20180130_020000.002,1,RJSF,,,,0,20180130020000,-1,-1,-1,-1,290,-1,9,-1,-1,260,320,,9999,0,0,2,FEW 25   BKN 40,-1,3,-1,10,1013,RJSF 300200Z 29009KT 260V320 9999 FEW025 BKN040 M03/M10 Q1013     RMK 1CU025 5CU040 A2994=,
20180130_030000.002,1,RJSF,,,,0,20180130030000,-1,-1,-1,-1,320,-1,13,-1,-1,270,360,,9999,0,1,2,FEW 25   BKN 40,-1,3,-1,10,1013,RJSF 300300Z 32013KT 270V360 9999 -SHSN FEW025 BKN040 M03/M10     Q1013 RMK 1CU025 6CU040 A2993=,- SN SH
20180130_040000.002,1,RJSF,,,,0,20180130040000,-1,-1,-1,-1,310,-1,9,-1,-1,270,340,,9999,0,1,2,FEW 30   BKN 50,-1,3,-1,10,1013,RJSF 300400Z 31009KT 270V340 9999 -SHSN FEW030 BKN050 M03/M10     Q1013 RMK 1CU030 6CU050 A2993=,- SN SH
20180130_050000.002,1,RJSF,,,,0,20180130050000,-1,-1,-1,-1,320,-1,11,-1,-1,-1,-1,,9999,0,0,2,FEW 20   SCT 50,-1,3,-1,10,1014,RJSF 300500Z 32011KT 9999 FEW020 SCT050 M03/M10 Q1014 RMK     1CU020 4CU050 A2995=,
20180130_060000.003,1,RJSF,,,,0,20180130060000,-1,-1,-1,-1,320,-1,6,-1,-1,260,350,,9999,0,0,2,FEW 25   SCT 50,-1,3,-1,10,1014,RJSF 300600Z 32006KT 260V350 9999 FEW025 SCT050 M03/M10 Q1014     RMK 1CU025 3CU050 A2997=,
20180130_070000.002,1,RJSF,,,,0,20180130070000,-1,-1,-1,-1,330,-1,10,-1,-1,280,340,,9999,0,1,3,FEW 30   SCT 40   BKN 50,-1,2,-1,10,1015,RJSF 300700Z 33010KT 280V340 9999 -SHSN FEW030 SCT040 BKN050     M02/M10 Q1015 RMK 1CU030 3CU040 6CU050 A2998=,- SN SH
20180130_080000.002,1,RJSF,,,,0,20180130080000,-1,-1,-1,-1,330,-1,10,-1,-1,-1,-1,,9999,0,0,1,FEW 25,-1,3,-1,10,1016,RJSF 300800Z 33010KT 9999 FEW025 M03/M10 Q1016 RMK 1CU025     A3001=,
20180130_090000.002,1,RJSF,,,,0,20180130090000,-1,-1,-1,-1,330,-1,10,-1,-1,-1,-1,,9999,0,0,1,FEW 25,-1,4,-1,10,1016,RJSF 300900Z 33010KT 9999 FEW025 M04/M10 Q1016 RMK 1CU025     A3003=,
20180130_100000.002,1,RJSF,,,,0,20180130100000,-1,-1,-1,-1,340,-1,9,-1,-1,-1,-1,,9999,0,0,2,FEW 20   SCT 50,-1,4,-1,10,1017,RJSF 301000Z 34009KT 9999 FEW020 SCT050 M04/M10 Q1017 RMK     1CU020 3CU050 A3003=,
20180130_110000.002,1,RJSF,,,,0,20180130110000,-1,-1,-1,-1,350,-1,8,-1,-1,-1,-1,,9999,0,0,1,FEW 15,-1,5,-1,10,1017,RJSF 301100Z 35008KT 9999 FEW015 M05/M10 Q1017 RMK 1CU015     A3004=,
20180130_220000.002,1,RJSF,,,,0,20180130220000,-1,-1,-1,-1,999,-1,1,-1,-1,-1,-1,,9999,0,0,3,FEW 5   SCT 45   BKN 60,-1,6,-1,7,1018,RJSF 302200Z VRB01KT 9999 FEW005 SCT045 BKN060 M06/M07 Q1018     RMK 1ST005 3CU045 5SC060 A3007=,
20180130_230000.002,1,RJSF,,,,0,20180130230000,-1,-1,-1,-1,999,-1,1,-1,-1,-1,-1,,9999,0,0,2,FEW 30   BKN 50,-1,8,-1,8,1019,RJSF 302300Z VRB01KT 9999 FEW030 BKN050 M08/M08 Q1019 RMK     1CU030 6CU050 A3011=,
20180131_000000.002,1,RJSF,,,,0,20180131000000,-1,-1,-1,-1,999,-1,2,-1,-1,-1,-1,,9999,0,0,2,FEW 5   BKN 50,-1,6,-1,6,1020,RJSF 310000Z VRB02KT 9999 FEW005 BKN050 M06/M06 Q1020 RMK     1ST005 5CU050 A3013=,
20180131_010000.002,1,RJSF,,,,0,20180131010000,-1,-1,-1,-1,999,-1,1,-1,-1,-1,-1,,9999,0,0,3,FEW 30   SCT 45   BKN 50,-1,2,-1,8,1020,RJSF 310100Z VRB01KT 9999 FEW030 SCT045 BKN050 M02/M08 Q1020     RMK 1CU030 3CU045 5CU050 A3013=,
20180131_020000.002,1,RJSF,,,,0,20180131020000,-1,-1,-1,-1,10,-1,8,-1,-1,-1,-1,,9999,0,0,2,FEW 30   BKN 50,-1,0,-1,7,1020,RJSF 310200Z 01008KT 9999 FEW030 BKN050 M00/M07 Q1020 RMK     1CU030 7CU050 A3012=,
20180131_030000.002,1,RJSF,,,,0,20180131030000,-1,-1,-1,-1,10,-1,6,-1,-1,-1,-1,,9999,0,0,2,FEW 30   BKN 50,1,1,-1,6,1019,RJSF 310300Z 01006KT 9999 FEW030 BKN050 01/M06 Q1019 RMK     1CU030 7CU050 A3010=,
20180131_040000.002,1,RJSF,,,,0,20180131040000,-1,-1,-1,-1,30,-1,6,-1,-1,-1,-1,,9999,0,0,2,FEW 30   SCT 50,1,3,-1,8,1018,RJSF 310400Z 03006KT 9999 FEW030 SCT050 03/M08 Q1018 RMK     1CU030 3CU050 A3008=,
20180131_050000.002,1,RJSF,,,,0,20180131050000,-1,-1,-1,-1,30,-1,3,-1,-1,340,60,,9999,0,0,2,FEW 30   SCT 50,1,3,-1,9,1018,RJSF 310500Z 03003KT 340V060 9999 FEW030 SCT050 03/M09 Q1018     RMK 1CU030 4CU050 A3007=,
20180131_060000.002,1,RJSF,,,,0,20180131060000,-1,-1,-1,-1,999,-1,2,-1,-1,-1,-1,,9999,0,0,1,FEW 30,1,4,-1,11,1018,RJSF 310600Z VRB02KT 9999 FEW030 04/M11 Q1018 RMK 1CU030     A3008=,
20180131_070000.003,1,RJSF,,,,0,20180131070000,-1,-1,-1,-1,300,-1,3,-1,-1,270,330,,9999,0,0,1,FEW 30,1,4,-1,10,1019,RJSF 310700Z 30003KT 270V330 9999 FEW030 04/M10 Q1019 RMK     1CU030 A3009=,
20180131_080000.003,1,RJSF,,,,0,20180131080000,-1,-1,-1,-1,10,-1,9,-1,-1,-1,-1,,9999,0,0,1,FEW 30,1,1,-1,6,1019,RJSF 310800Z 01009KT 9999 FEW030 01/M06 Q1019 RMK 1CU030     A3012=,
20180131_090000.002,1,RJSF,,,,0,20180131090000,-1,-1,-1,-1,10,-1,7,-1,-1,-1,-1,,9999,0,0,1,FEW 30,1,1,-1,7,1020,RJSF 310900Z 01007KT 9999 FEW030 01/M07 Q1020 RMK 1CU030     A3012=,
20180131_100000.002,1,RJSF,,,,0,20180131100000,-1,-1,-1,-1,999,-1,3,-1,-1,-1,-1,,9999,0,0,2,FEW 30   BKN 70,1,1,-1,8,1020,RJSF 311000Z VRB03KT 9999 FEW030 BKN070 01/M08 Q1020 RMK     1CU030 6AC070 A3013=,
20180131_110000.002,1,RJSF,,,,0,20180131110000,-1,-1,-1,-1,20,-1,6,-1,-1,-1,-1,,9999,0,0,2,FEW 25   BKN 70,1,0,-1,5,1021,RJSF 311100Z 02006KT 9999 FEW025 BKN070 00/M05 Q1021 RMK     1CU025 7AC070 A3016=,
20180131_220000.002,1,RJSF,,,,0,20180131220000,-1,-1,-1,-1,10,-1,8,-1,-1,-1,-1,,9999,0,0,2,FEW 30   BKN 110,-1,2,-1,4,1022,RJSF 312200Z 01008KT 9999 FEW030 BKN110 M02/M04 Q1022 RMK     1CU030 7AC110 A3020=,
20180131_230000.002,1,RJSF,,,,0,20180131230000,-1,-1,-1,-1,350,-1,6,-1,-1,-1,-1,,9999,0,0,3,FEW 20   SCT 80   BKN -9999,-1,3,-1,6,1023,RJSF 312300Z 35006KT 9999 FEW020 SCT080 BKN/// M03/M06 Q1023     RMK 1CU020 3AC080 A3023=,
20180201_000000.003,1,RJSF,,,,0,20180201000000,-1,-1,-1,-1,30,-1,8,-1,-1,-1,-1,,9999,0,0,2,FEW 30   BKN -9999,-1,1,-1,7,1024,RJSF 010000Z 03008KT 9999 FEW030 BKN/// M01/M07 Q1024 RMK     1CU030 A3024=,
20180201_010000.002,1,RJSF,,,,0,20180201010000,-1,-1,-1,-1,360,-1,7,-1,-1,-1,-1,,9999,0,0,2,FEW 30   BKN -9999,-1,0,-1,7,1024,RJSF 010100Z 36007KT 9999 FEW030 BKN/// M00/M07 Q1024 RMK     1CU030 A3026=,
20180201_020000.002,1,RJSF,,,,0,20180201020000,-1,-1,-1,-1,30,-1,5,-1,-1,-1,-1,,9999,0,0,2,FEW 40   BKN -9999,1,0,-1,7,1024,RJSF 010200Z 03005KT 9999 FEW040 BKN/// 00/M07 Q1024 RMK     1CU040 A3026=,
20180201_030000.003,1,RJSF,,,,0,20180201030000,-1,-1,-1,-1,10,-1,8,-1,-1,-1,-1,,9999,0,0,2,FEW 40   BKN -9999,1,1,-1,7,1024,RJSF 010300Z 01008KT 9999 FEW040 BKN/// 01/M07 Q1024 RMK     1CU040 A3024=,
20180201_040000.003,1,RJSF,,,,0,20180201040000,-1,-1,-1,-1,10,-1,7,-1,-1,-1,-1,,9999,0,0,3,FEW 50   SCT 70   BKN -9999,1,1,-1,6,1023,RJSF 010400Z 01007KT 9999 FEW050 SCT070 BKN/// 01/M06 Q1023     RMK 1CU050 3AC070 A3022=,
20180201_050000.002,1,RJSF,,,,0,20180201050000,-1,-1,-1,-1,350,-1,6,-1,-1,-1,-1,,9999,0,0,2,FEW 40   BKN -9999,1,2,-1,6,1023,RJSF 010500Z 35006KT 9999 FEW040 BKN/// 02/M06 Q1023 RMK     1CU040 A3022=,
20180201_060000.002,1,RJSF,,,,0,20180201060000,-1,-1,-1,-1,350,-1,6,-1,-1,-1,-1,,9999,0,0,2,FEW 40   BKN -9999,1,2,-1,6,1023,RJSF 010600Z 35006KT 9999 FEW040 BKN/// 02/M06 Q1023 RMK     1CU040 A3022=,
20180201_070000.002,1,RJSF,,,,0,20180201070000,-1,-1,-1,-1,350,-1,7,-1,-1,-1,-1,,9999,0,0,3,FEW 40   SCT 150   BKN -9999,1,1,-1,6,1023,RJSF 010700Z 35007KT 9999 FEW040 SCT150 BKN/// 01/M06 Q1023     RMK 1SC040 4AC150 A3023=,
20180201_080000.002,1,RJSF,,,,0,20180201080000,-1,-1,-1,-1,340,-1,8,-1,-1,-1,-1,,9999,0,0,3,FEW 40   SCT 120   BKN -9999,1,1,-1,6,1024,RJSF 010800Z 34008KT 9999 FEW040 SCT120 BKN/// 01/M06 Q1024     RMK 1SC040 3AC120 A3024=,
20180201_090000.002,1,RJSF,,,,0,20180201090000,-1,-1,-1,-1,60,-1,3,-1,-1,10,90,,9999,0,0,3,FEW 40   SCT 100   BKN 150,-1,0,-1,6,1024,RJSF 010900Z 06003KT 010V090 9999 FEW040 SCT100 BKN150 M00/M06     Q1024 RMK 1SC040 3AC100 6AC150 A3024=,
20180201_100000.002,1,RJSF,,,,0,20180201100000,-1,-1,-1,-1,110,-1,4,-1,-1,80,140,,9999,0,0,3,FEW 40   SCT 100   BKN 150,-1,0,-1,4,1024,RJSF 011000Z 11004KT 080V140 9999 FEW040 SCT100 BKN150 M00/M04     Q1024 RMK 1SC040 4AC100 6AC150 A3025=,
20180201_110000.002,1,RJSF,,,,0,20180201110000,-1,-1,-1,-1,999,-1,1,-1,-1,-1,-1,,9999,0,0,3,FEW 40   SCT 70   BKN 150,-1,1,-1,1,1025,RJSF 011100Z VRB01KT 9999 FEW040 SCT070 BKN150 M01/M01 Q1025     RMK 1SC040 4AC070 6AC150 A3027=,
20180201_220000.002,1,RJSF,,,,0,20180201220000,-1,-1,-1,-1,360,-1,7,-1,-1,-1,-1,,3500,0,1,3,FEW 25   BKN 30   BKN 50,-1,4,-1,4,1025,RJSF 012200Z 36007KT 3500 -SN FEW025 BKN030 BKN050 M04/M04     Q1025 RMK 2SC025 5SC030 7SC050 A3027=,- SN
20180201_230000.003,1,RJSF,,,,0,20180201230000,-1,-1,-1,-1,10,-1,8,-1,-1,-1,-1,,9999,0,1,2,FEW 45   BKN 50,-1,3,-1,3,1025,RJSF 012300Z 01008KT 9999 -SN FEW045 BKN050 M03/M03 Q1025 RMK     2SC045 7SC050 A3028=,- SN
20180202_000000.002,1,RJSF,,,,0,20180202000000,-1,-1,-1,-1,360,-1,8,-1,-1,-1,-1,,9999,0,0,3,FEW 25   SCT 30   BKN 80,-1,3,-1,3,1025,RJSF 020000Z 36008KT 9999 FEW025 SCT030 BKN080 M03/M03 Q1025     RMK 1SC025 3SC030 7AC080 A3027=,
20180202_010000.002,1,RJSF,,,,0,20180202010000,-1,-1,-1,-1,350,-1,7,-1,-1,-1,-1,,9999,0,0,3,SCT 20   BKN 30   BKN 80,-1,1,-1,1,1024,RJSF 020100Z 35007KT 9999 SCT020 BKN030 BKN080 M01/M01 Q1024     RMK 3CU020 5CU030 7AC080 A3025=,
20180202_020000.002,1,RJSF,,,,0,20180202020000,-1,-1,-1,-1,350,-1,8,-1,-1,-1,-1,,9999,0,0,3,FEW 25   SCT 30   BKN 80,-1,1,-1,2,1023,RJSF 020200Z 35008KT 9999 FEW025 SCT030 BKN080 M01/M02 Q1023     RMK 2CU025 4CU030 6AC080 A3023=,
20180202_030000.002,1,RJSF,,,,0,20180202030000,-1,-1,-1,-1,340,-1,6,-1,-1,-1,-1,,9999,0,0,2,SCT 25   BKN 30,-1,0,-1,3,1022,RJSF 020300Z 34006KT 9999 SCT025 BKN030 M00/M03 Q1022 RMK     3CU025 7CU030 A3020=,
20180202_040000.002,1,RJSF,,,,0,20180202040000,-1,-1,-1,-1,360,-1,5,-1,-1,-1,-1,,9999,0,0,2,BKN 15   BKN 20,1,0,-1,3,1022,RJSF 020400Z 36005KT 9999 BKN015 BKN020 00/M03 Q1022 RMK     5CU015 7CU020 A3019=,
20180202_050000.001,1,RJSF,,,,0,20180202050000,-1,-1,-1,-1,999,-1,1,-1,-1,-1,-1,,9999,0,0,3,FEW 15   SCT 20   BKN 25,1,1,-1,4,1022,RJSF 020500Z VRB01KT 9999 FEW015 SCT020 BKN025 01/M04 Q1022     RMK 1CU015 3CU020 6CU025 A3018=,
20180202_060000.002,1,RJSF,,,,0,20180202060000,-1,-1,-1,-1,999,-1,2,-1,-1,-1,-1,,9999,0,0,3,SCT 20   BKN 25   BKN 30,1,1,-1,4,1022,RJSF 020600Z VRB02KT 9999 SCT020 BKN025 BKN030 01/M04 Q1022     RMK 3CU020 5CU025 7CU030 A3018=,
20180202_070000.002,1,RJSF,,,,0,20180202070000,-1,-1,-1,-1,350,-1,3,-1,-1,-1,-1,,9999,0,0,2,BKN 20   BKN 25,1,1,-1,4,1022,RJSF 020700Z 35003KT 9999 BKN020 BKN025 01/M04 Q1022 RMK     5CU020 7CU025 A3018=,
20180202_080000.002,1,RJSF,,,,0,20180202080000,-1,-1,-1,-1,290,-1,3,-1,-1,-1,-1,,9999,0,0,3,FEW 20   BKN 25   BKN 70,1,1,-1,4,1022,RJSF 020800Z 29003KT 9999 FEW020 BKN025 BKN070 01/M04 Q1022     RMK 1CU020 6CU025 7AC070 A3019=,
20180202_090000.002,1,RJSF,,,,0,20180202090000,-1,-1,-1,-1,999,-1,1,-1,-1,-1,-1,,9999,0,0,2,BKN 25   BKN 60,-1,0,-1,1,1022,RJSF 020900Z VRB01KT 9999 BKN025 BKN060 M00/M01 Q1022 RMK     5CU025 7SC060 A3019=,
20180202_100000.003,1,RJSF,,,,0,20180202100000,-1,-1,-1,-1,40,-1,1,-1,-1,-1,-1,,9999,0,0,3,FEW 25   SCT 60   BKN -9999,-1,1,-1,1,1021,RJSF 021000Z 04001KT 9999 FEW025 SCT060 BKN/// M01/M01 Q1021     RMK 1CU025 3SC060 A3016=,
20180202_110000.002,1,RJSF,,,,0,20180202110000,-1,-1,-1,-1,999,-1,1,-1,-1,-1,-1,CAVOK,-1,0,0,0,,-1,1,-1,1,1021,RJSF 021100Z VRB01KT CAVOK M01/M01 Q1021 RMK A3016=,
20180202_220000.002,1,RJSF,,,,0,20180202220000,-1,-1,-1,-1,999,-1,1,-1,-1,-1,-1,,5000,0,2,3,FEW 2   SCT 120   BKN -9999,-1,5,-1,5,1016,RJSF 022200Z VRB01KT 5000 BCFG BR FEW002 SCT120 BKN/// M05/M05     Q1016 RMK 1ST002 3AC120 A3002 2000S=,BC FG; BR
20180202_230000.003,1,RJSF,,,,0,20180202230000,-1,-1,-1,-1,130,-1,1,-1,-1,-1,-1,,5000,1,2,3,FEW 1   SCT 5   BKN -9999,-1,5,-1,5,1016,RJSF 022300Z 13001KT 5000 R01/P1800N BCFG BR FEW001 SCT005     BKN/// M05/M05 Q1016 RMK 2ST001 3ST005 A3001 1500S-SW=,BC FG; BR
20180203_000000.002,1,RJSF,,,,0,20180203000000,-1,-1,-1,-1,340,-1,1,-1,-1,-1,-1,,5000,0,2,3,FEW 5   SCT 70   BKN -9999,-1,3,-1,3,1015,RJSF 030000Z 34001KT 5000 BCFG BR FEW005 SCT070 BKN/// M03/M03     Q1015 RMK 1ST005 3AC070 A3000 2000S-SW=,BC FG; BR
20180203_010000.003,1,RJSF,,,,0,20180203010000,-1,-1,-1,-1,999,-1,1,-1,-1,-1,-1,CAVOK,-1,0,0,0,,-1,2,-1,2,1015,RJSF 030100Z VRB01KT CAVOK M02/M02 Q1015 RMK A2997=,
20180203_020000.002,1,RJSF,,,,0,20180203020000,-1,-1,-1,-1,220,-1,3,-1,-1,-1,-1,CAVOK,-1,0,0,0,,-1,0,-1,0,1014,RJSF 030200Z 22003KT CAVOK M00/M00 Q1014 RMK A2995=,
20180203_030000.002,1,RJSF,,,,0,20180203030000,-1,-1,-1,-1,999,-1,1,-1,-1,-1,-1,CAVOK,-1,0,0,0,,1,1,-1,6,1013,RJSF 030300Z VRB01KT CAVOK 01/M06 Q1013 RMK A2993=,
20180203_040000.002,1,RJSF,,,,0,20180203040000,-1,-1,-1,-1,999,-1,1,-1,-1,-1,-1,,9999,0,0,3,FEW 40   SCT 70   BKN -9999,1,3,-1,11,1012,RJSF 030400Z VRB01KT 9999 FEW040 SCT070 BKN/// 03/M11 Q1012     RMK 2CU040 4AC070 A2990=,
20180203_050000.002,1,RJSF,,,,0,20180203050000,-1,-1,-1,-1,999,-1,2,-1,-1,-1,-1,,9999,0,0,3,FEW 40   SCT 70   BKN -9999,1,4,-1,8,1011,RJSF 030500Z VRB02KT 9999 FEW040 SCT070 BKN/// 04/M08 Q1011     RMK 1CU040 4AC070 A2987=,
20180203_060000.002,1,RJSF,,,,0,20180203060000,-1,-1,-1,-1,10,-1,6,-1,-1,-1,-1,,9999,0,0,3,FEW 40   SCT 70   BKN -9999,1,5,-1,6,1011,RJSF 030600Z 01006KT 9999 FEW040 SCT070 BKN/// 05/M06 Q1011     RMK 1CU040 4AC070 A2988=,
20180203_070000.003,1,RJSF,,,,0,20180203070000,-1,-1,-1,-1,350,-1,10,-1,-1,-1,-1,,9999,0,0,2,FEW 30   BKN 70,1,4,-1,4,1012,RJSF 030700Z 35010KT 9999 FEW030 BKN070 04/M04 Q1012 RMK     1CU030 6AC070 A2989=,
20180203_080000.002,1,RJSF,,,,0,20180203080000,-1,-1,-1,-1,350,-1,10,-1,-1,-1,-1,,9999,0,0,2,FEW 30   BKN 60,1,3,-1,3,1012,RJSF 030800Z 35010KT 9999 FEW030 BKN060 03/M03 Q1012 RMK     2CU030 7SC060 A2990=,
20180203_090000.002,1,RJSF,,,,0,20180203090000,-1,-1,-1,-1,10,-1,15,-1,-1,-1,-1,,9999,0,0,2,FEW 30   BKN 60,1,1,-1,1,1013,RJSF 030900Z 01015KT 9999 FEW030 BKN060 01/M01 Q1013 RMK     1CU030 6SC060 A2992=,
20180203_100000.002,1,RJSF,,,,0,20180203100000,-1,-1,-1,-1,360,-1,10,-1,-1,-1,-1,,9999,0,0,2,FEW 30   BKN 60,1,1,-1,3,1012,RJSF 031000Z 36010KT 9999 FEW030 BKN060 01/M03 Q1012 RMK     1CU030 6SC060 A2991=,
20180203_110000.002,1,RJSF,,,,0,20180203110000,-1,-1,-1,-1,350,-1,10,-1,-1,-1,-1,,9999,0,0,2,FEW 30   BKN 70,1,1,-1,5,1012,RJSF 031100Z 35010KT 9999 FEW030 BKN070 01/M05 Q1012 RMK     1CU030 6AC070 A2990=,
20180203_220000.002,1,RJSF,,,,0,20180203220000,-1,-1,-1,-1,20,-1,7,-1,-1,-1,-1,,9999,0,0,1,FEW 20,-1,3,-1,6,1009,RJSF 032200Z 02007KT 9999 FEW020 M03/M06 Q1009 RMK 1CU020     A2981=,
20180203_230000.002,1,RJSF,,,,0,20180203230000,-1,-1,-1,-1,20,-1,5,-1,-1,-1,-1,,9999,0,0,1,FEW 20,-1,0,-1,6,1009,RJSF 032300Z 02005KT 9999 FEW020 M00/M06 Q1009 RMK 1CU020     A2980=,
20180204_000000.002,1,RJSF,,,,0,20180204000000,-1,-1,-1,-1,10,-1,4,-1,-1,-1,-1,,9999,0,0,1,FEW 25,1,1,-1,7,1009,RJSF 040000Z 01004KT 9999 FEW025 01/M07 Q1009 RMK 1CU025     A2980=,
20180204_010000.002,1,RJSF,,,,0,20180204010000,-1,-1,-1,-1,310,-1,4,-1,-1,220,360,,9999,0,0,1,FEW 35,1,2,-1,7,1008,RJSF 040100Z 31004KT 220V360 9999 FEW035 02/M07 Q1008 RMK     1CU035 A2978=,
20180204_020000.002,1,RJSF,,,,0,20180204020000,-1,-1,-1,-1,999,-1,3,-1,-1,-1,-1,,9999,0,0,1,FEW 40,1,3,-1,8,1007,RJSF 040200Z VRB03KT 9999 FEW040 03/M08 Q1007 RMK 1CU040     A2975=,
20180204_030000.002,1,RJSF,,,,0,20180204030000,-1,-1,-1,-1,260,-1,3,-1,-1,200,360,,9999,0,0,1,FEW 45,1,4,-1,8,1006,RJSF 040300Z 26003KT 200V360 9999 FEW045 04/M08 Q1006 RMK     1CU045 A2971=,
20180204_040000.002,1,RJSF,,,,0,20180204040000,-1,-1,-1,-1,300,-1,5,-1,-1,220,350,,9999,0,0,1,FEW 45,1,4,-1,8,1005,RJSF 040400Z 30005KT 220V350 9999 FEW045 04/M08 Q1005 RMK     2CU045 A2969=,
20180204_050000.002,1,RJSF,,,,0,20180204050000,-1,-1,-1,-1,360,-1,13,-1,-1,-1,-1,,9999,0,0,1,SCT 45,1,4,-1,6,1005,RJSF 040500Z 36013KT 9999 SCT045 04/M06 Q1005 RMK 3CU045     A2969=,
20180204_060000.002,1,RJSF,,,,0,20180204060000,-1,-1,-1,-1,340,-1,12,-1,-1,-1,-1,,9999,0,0,2,FEW 30   BKN 80,1,4,-1,6,1005,RJSF 040600Z 34012KT 9999 FEW030 BKN080 04/M06 Q1005 RMK     2CU030 5AC080 A2970=,
20180204_070000.002,1,RJSF,,,,0,20180204070000,-1,-1,-1,-1,350,-1,15,-1,-1,-1,-1,,9999,0,0,3,FEW 40   SCT 50   BKN 80,1,1,-1,4,1006,RJSF 040700Z 35015KT 9999 FEW040 SCT050 BKN080 01/M04 Q1006     RMK 1CU040 3CU050 6AC080 A2972=,
20180204_080000.002,1,RJSF,,,,0,20180204080000,-1,-1,-1,-1,10,-1,10,-1,-1,-1,-1,,9999,0,0,3,FEW 40   SCT 80   BKN 90,1,0,-1,4,1006,RJSF 040800Z 01010KT 9999 FEW040 SCT080 BKN090 00/M04 Q1006     RMK 2CU040 3AC080 6AC090 A2972=,
20180204_090000.002,1,RJSF,,,,0,20180204090000,-1,-1,-1,-1,20,-1,7,-1,-1,-1,-1,,9999,0,0,3,FEW 30   SCT 70   BKN 90,1,0,-1,5,1006,RJSF 040900Z 02007KT 9999 FEW030 SCT070 BKN090 00/M05 Q1006     RMK 1CU030 3AC070 6AC090 A2973=,
20180204_100000.002,1,RJSF,,,,0,20180204100000,-1,-1,-1,-1,340,-1,8,-1,-1,-1,-1,,9999,0,0,2,FEW 30   SCT 90,-1,0,-1,6,1006,RJSF 041000Z 34008KT 9999 FEW030 SCT090 M00/M06 Q1006 RMK     1CU030 4AC090 A2973=,
20180204_110000.003,1,RJSF,,,,0,20180204110000,-1,-1,-1,-1,20,-1,3,-1,-1,-1,-1,CAVOK,-1,0,0,0,,-1,2,-1,6,1006,RJSF 041100Z 02003KT CAVOK M02/M06 Q1006 RMK A2971=,
20180204_220000.002,1,RJSF,,,,0,20180204220000,-1,-1,-1,-1,360,-1,4,-1,-1,-1,-1,,9999,0,0,1,FEW 15,-1,4,-1,7,1010,RJSF 042200Z 36004KT 9999 FEW015 M04/M07 Q1010 RMK 1CU015     A2984=,
20180204_230000.002,1,RJSF,,,,0,20180204230000,-1,-1,-1,-1,20,-1,3,-1,-1,320,40,,9999,0,0,1,FEW 25,-1,2,-1,8,1010,RJSF 042300Z 02003KT 320V040 9999 FEW025 M02/M08 Q1010 RMK     1CU025 A2984=,
20180205_000000.003,1,RJSF,,,,0,20180205000000,-1,-1,-1,-1,999,-1,4,-1,-1,-1,-1,,9999,0,0,1,FEW 30,-1,1,-1,9,1010,RJSF 050000Z VRB04KT 9999 FEW030 M01/M09 Q1010 RMK 1CU030     A2984=,
20180205_010000.002,1,RJSF,,,,0,20180205010000,-1,-1,-1,-1,310,-1,8,-1,-1,270,350,,9999,0,0,1,FEW 30,-1,0,-1,9,1010,RJSF 050100Z 31008KT 270V350 9999 FEW030 M00/M09 Q1010 RMK     1CU030 A2983=,
20180205_020000.002,1,RJSF,,,,0,20180205020000,-1,-1,-1,-1,300,-1,8,-1,-1,260,340,,9999,0,0,1,FEW 35,1,1,-1,9,1009,RJSF 050200Z 30008KT 260V340 9999 FEW035 01/M09 Q1009 RMK     2CU035 A2981=,
