20180101_000000.002,0,RJSY,,,,0,20180101000000,-1,-1,-1,-1,270,-1,21,-1,31,-1,-1,,9999,0,1,3,FEW 15   SCT 30   BKN 40,1,7,1,1,1011,RJSY 010000Z 27021G31KT 9999 VCSH FEW015 SCT030 BKN040 07/01     Q1011 RMK 1CU015 3CU030 5CU040 A2987=,VC SH
20180101_010000.002,0,RJSY,,,,0,20180101010000,-1,-1,-1,-1,270,-1,23,-1,-1,-1,-1,,9999,0,0,3,FEW 10   SCT 30   BKN 50,1,7,1,2,1012,RJSY 010100Z 27023KT 9999 FEW010 SCT030 BKN050 07/02 Q1012 RMK     1ST010 3CU030 5CU050 A2989=,
20180101_020000.002,0,RJSY,,,,0,20180101020000,-1,-1,-1,-1,270,-1,24,-1,-1,-1,-1,,9999,0,1,3,FEW 15   SCT 30   BKN 40,1,7,1,1,1011,RJSY 010200Z 27024KT 9999 VCSH FEW015 SCT030 BKN040 07/01     Q1011 RMK 1CU015 3CU030 6CU040 A2987=,VC SH
20180101_030000.002,0,RJSY,,,,0,20180101030000,-1,-1,-1,-1,260,-1,23,-1,-1,-1,-1,,9999,0,0,3,FEW 15   SCT 30   BKN 40,1,7,-1,0,1011,RJSY 010300Z 26023KT 9999 FEW015 SCT030 BKN040 07/M00 Q1011     RMK 1CU015 3CU030 5CU040 A2986=,
20180101_040000.002,0,RJSY,,,,0,20180101040000,-1,-1,-1,-1,270,-1,21,-1,32,-1,-1,,9999,0,0,2,FEW 20   BKN 50,1,6,-1,1,1011,RJSY 010400Z 27021G32KT 9999 FEW020 BKN050 06/M01 Q1011 RMK     1CU020 5CU050 A2986=,
20180101_050000.002,0,RJSY,,,,0,20180101050000,-1,-1,-1,-1,260,-1,23,-1,36,-1,-1,,9999,0,1,3,FEW 20   SCT 30   BKN 50,1,6,1,1,1011,RJSY 010500Z 26023G36KT 9999 -SHRA FEW020 SCT030 BKN050 06/01     Q1011 RMK 1CU020 3CU030 6CU050 A2987=,- RA SH
20180101_060000.002,0,RJSY,,,,0,20180101060000,-1,-1,-1,-1,270,-1,23,-1,-1,-1,-1,,9999,0,1,2,FEW 30   SCT 50,1,6,-1,2,1011,RJSY 010600Z 27023KT 9999 VCSH FEW030 SCT050 06/M02 Q1011 RMK     2CU030 4CU050 A2988=,VC SH
20180101_070000.002,0,RJSY,,,,0,20180101070000,-1,-1,-1,-1,260,-1,24,-1,-1,-1,-1,,9999,0,1,3,FEW 15   SCT 30   BKN 50,1,6,-1,1,1012,RJSY 010700Z 26024KT 9999 VCSH FEW015 SCT030 BKN050 06/M01     Q1012 RMK 1CU015 3CU030 5CU050 A2989=,VC SH
20180101_080000.002,0,RJSY,,,,0,20180101080000,-1,-1,-1,-1,240,-1,23,-1,-1,-1,-1,,9999,0,1,3,FEW 20   SCT 35   BKN 50,1,5,-1,1,1012,RJSY 010800Z 24023KT 9999 -SHRA FEW020 SCT035 BKN050 05/M01     Q1012 RMK 1CU020 3CU035 6CU050 A2990=,- RA SH
20180101_090000.002,0,RJSY,,,,0,20180101090000,-1,-1,-1,-1,250,-1,24,-1,-1,-1,-1,,9999,0,0,3,FEW 20   SCT 35   BKN 50,1,6,-1,1,1012,RJSY 010900Z 25024KT 9999 FEW020 SCT035 BKN050 06/M01 Q1012     RMK 1CU020 3CU035 6CU050 A2990=,
20180101_100000.002,0,RJSY,,,,0,20180101100000,-1,-1,-1,-1,270,-1,26,-1,36,-1,-1,,8000,0,1,4,FEW 10   SCT 20   FEW 20 CB  BKN 40,1,4,1,0,1013,RJSY 011000Z 27026G36KT 8000 -SHRA FEW010 SCT020 FEW020CB     BKN040 04/00 Q1013 RMK 1ST010 3CU020 1CB020 6CU040 A2992           CB 30KM NW MOV E=,- RA SH
20180101_110000.002,0,RJSY,,,,0,20180101110000,-1,-1,-1,-1,260,-1,26,-1,-1,-1,-1,,5000,0,2,3,FEW 10   SCT 20   BKN 30,1,4,1,1,1013,RJSY 011100Z 26026KT 5000 -SHRA BR FEW010 SCT020 BKN030 04/01     Q1013 RMK 1ST010 4CU020 5CU030 A2992=,- RA SH; BR
20180101_120000.002,0,RJSY,,,,0,20180101120000,-1,-1,-1,-1,290,-1,21,-1,35,-1,-1,,4000,0,1,4,FEW 5   SCT 8   BKN 10   FEW 20 CB,1,2,1,1,1013,RJSY 011200Z 29021G35KT 4000 -SHGSSNRA FEW005 SCT008 BKN010     FEW020CB 02/01 Q1013 RMK 1ST005 3ST008 6ST010 1CB020           A2993 CB 20KM NE MOV E SNOW PELLETS=,- GS, SN RA SH
20180101_220000.002,0,RJSY,,,,0,20180101220000,-1,-1,-1,-1,280,-1,18,-1,-1,-1,-1,,4000,0,1,3,FEW 4   SCT 7   BKN 15,1,1,-1,0,1017,RJSY 012200Z 28018KT 4000 -SHSN FEW004 SCT007 BKN015 01/M00     Q1017 RMK 1ST004 3ST007 7CU015 A3004=,- SN SH
20180101_230000.002,0,RJSY,,,,0,20180101230000,-1,-1,-1,-1,270,-1,17,-1,28,-1,-1,,9999,0,1,3,FEW 8   SCT 15   BKN 35,1,3,-1,1,1017,RJSY 012300Z 27017G28KT 9999 -SHSNRA FEW008 SCT015 BKN035     03/M01 Q1017 RMK 1ST008 3CU015 6CU035 A3004=,- SN RA SH
20180102_000000.003,0,RJSY,,,,0,20180102000000,-1,-1,-1,-1,270,-1,22,-1,-1,-1,-1,,9999,0,1,3,FEW 10   SCT 40   BKN 50,1,4,-1,3,1017,RJSY 020000Z 27022KT 9999 VCSH FEW010 SCT040 BKN050 04/M03     Q1017 RMK 1ST010 3CU040 6CU050 A3005=,VC SH
20180102_010000.003,0,RJSY,,,,0,20180102010000,-1,-1,-1,-1,270,-1,22,-1,32,-1,-1,,9999,0,1,3,FEW 10   SCT 40   BKN 50,1,4,-1,4,1018,RJSY 020100Z 27022G32KT 9999 -SHSN FEW010 SCT040 BKN050 04/M04     Q1018 RMK 1ST010 3CU040 5CU050 A3006=,- SN SH
20180102_020000.002,0,RJSY,,,,0,20180102020000,-1,-1,-1,-1,270,-1,21,-1,33,-1,-1,,9999,0,1,3,FEW 8   SCT 30   BKN 50,1,4,-1,3,1017,RJSY 020200Z 27021G33KT 9999 VCSH FEW008 SCT030 BKN050 04/M03     Q1017 RMK 1ST008 3CU030 6CU050 A3005=,VC SH
20180102_030000.002,0,RJSY,,,,0,20180102030000,-1,-1,-1,-1,280,-1,19,-1,32,-1,-1,,9999,0,1,3,FEW 8   SCT 15   BKN 35,1,3,-1,4,1017,RJSY 020300Z 28019G32KT 9999 -SHSN FEW008 SCT015 BKN035 03/M04     Q1017 RMK 1ST008 3CU015 6CU035 A3004=,- SN SH
20180102_040000.002,0,RJSY,,,,0,20180102040000,-1,-1,-1,-1,280,-1,18,-1,30,-1,-1,,9999,0,1,3,FEW 8   SCT 30   BKN 40,1,2,-1,2,1017,RJSY 020400Z 28018G30KT 9999 -SHSN FEW008 SCT030 BKN040 02/M02     Q1017 RMK 1ST008 3CU030 6CU040 A3004=,- SN SH
20180102_050000.002,0,RJSY,,,,0,20180102050000,-1,-1,-1,-1,280,-1,21,-1,-1,260,320,,8000,0,1,3,FEW 8   SCT 20   BKN 30,1,2,-1,3,1016,RJSY 020500Z 28021KT 260V320 8000 -SHSN FEW008 SCT020 BKN030     02/M03 Q1016 RMK 1ST008 3CU020 5CU030 A3003=,- SN SH
20180102_060000.002,0,RJSY,,,,0,20180102060000,-1,-1,-1,-1,300,-1,11,-1,-1,270,350,,9999,0,0,3,FEW 15   SCT 35   BKN 50,1,3,-1,5,1016,RJSY 020600Z 30011KT 270V350 9999 FEW015 SCT035 BKN050 03/M05     Q1016 RMK 1CU015 3CU035 5CU050 A3000=,
20180102_070000.002,0,RJSY,,,,0,20180102070000,-1,-1,-1,-1,310,-1,7,-1,-1,260,360,,9999,0,1,3,FEW 10   SCT 25   BKN 40,1,2,-1,4,1014,RJSY 020700Z 31007KT 260V360 9999 -SHSN FEW010 SCT025 BKN040     02/M04 Q1014 RMK 1ST010 3CU025 7CU040 A2996=,- SN SH
20180102_080000.002,0,RJSY,,,,0,20180102080000,-1,-1,-1,-1,330,-1,6,-1,-1,270,10,,3500,0,1,3,FEW 3   SCT 7   BKN 10,1,0,-1,2,1013,RJSY 020800Z 33006KT 270V010 3500 -SHSN FEW003 SCT007 BKN010     00/M02 Q1013 RMK 1ST003 3ST007 6ST010 A2993=,- SN SH
20180102_090000.002,0,RJSY,,,,0,20180102090000,-1,-1,-1,-1,999,-1,4,-1,-1,-1,-1,,8000,0,1,3,FEW 5   SCT 15   BKN 25,1,1,-1,2,1012,RJSY 020900Z VRB04KT 8000 -SHSN FEW005 SCT015 BKN025 01/M02     Q1012 RMK 1ST005 3CU015 5CU025 A2990=,- SN SH
20180102_100000.002,0,RJSY,,,,0,20180102100000,-1,-1,-1,-1,120,-1,5,-1,-1,50,150,,1200,1,1,3,FEW 2   SCT 6   BKN 10,-1,0,-1,2,1012,RJSY 021000Z 12005KT 050V150 1200 R09/P1800N -SHSN FEW002     SCT006 BKN010 M00/M02 Q1012 RMK 1ST002 3ST006 6ST010           A2990=,- SN SH
20180102_110000.002,0,RJSY,,,,0,20180102110000,-1,-1,-1,-1,30,-1,5,-1,-1,330,100,,1500,1,1,3,FEW 2   SCT 4   BKN 5,-1,0,-1,2,1011,RJSY 021100Z 03005KT 330V100 1500 R09/P1800N -SHSN FEW002     SCT004 BKN005 M00/M02 Q1011 RMK 1ST002 4ST004 6ST005           A2987=,- SN SH
20180102_120000.002,0,RJSY,,,,0,20180102120000,-1,-1,-1,-1,310,-1,11,-1,-1,270,350,,2000,0,1,3,FEW 2   SCT 5   BKN 8,1,0,-1,1,1011,RJSY 021200Z 31011KT 270V350 2000 -SHSN FEW002 SCT005 BKN008     00/M01 Q1011 RMK 1ST002 3ST005 5ST008 A2987=,- SN SH
20180102_220000.002,0,RJSY,,,,0,20180102220000,-1,-1,-1,-1,290,-1,18,-1,28,260,330,,8000,0,1,3,FEW 5   SCT 15   BKN 30,-1,1,-1,5,1010,RJSY 022200Z 29018G28KT 260V330 8000 -SHSN FEW005 SCT015     BKN030 M01/M05 Q1010 RMK 1ST005 3CU015 5CU030 A2985=,- SN SH
20180102_230000.002,0,RJSY,,,,0,20180102230000,-1,-1,-1,-1,280,-1,22,-1,33,-1,-1,,6000,1,1,3,FEW 10   SCT 15   BKN 35,1,1,-1,3,1009,RJSY 022300Z 28022G33KT 6000 R09/1000VP1800U -SHSN FEW010     SCT015 BKN035 01/M03 Q1009 RMK 1ST010 3CU015 5CU035           A2981=,- SN SH
20180103_000000.002,0,RJSY,,,,0,20180103000000,-1,-1,-1,-1,280,-1,23,-1,36,-1,-1,,4500,1,1,3,FEW 5   SCT 15   BKN 20,1,1,-1,2,1009,RJSY 030000Z 28023G36KT 4500 R09/1100VP1800D -SHSN FEW005     SCT015 BKN020 01/M02 Q1009 RMK 1ST005 3CU015 6CU020           A2981=,- SN SH
20180103_010000.002,0,RJSY,,,,0,20180103010000,-1,-1,-1,-1,270,-1,31,-1,45,-1,-1,,5000,0,1,3,FEW 10   SCT 20   BKN 30,1,2,-1,2,1008,RJSY 030100Z 27031G45KT 5000 -SHSN FEW010 SCT020 BKN030 02/M02     Q1008 RMK 1ST010 4CU020 6CU030 A2977=,- SN SH
20180103_020000.002,0,RJSY,,,,0,20180103020000,-1,-1,-1,-1,310,-1,22,-1,39,270,350,,2000,0,1,3,FEW 5   SCT 10   BKN 20,1,2,-1,1,1007,RJSY 030200Z 31022G39KT 270V350 2000 -SHSNRA FEW005 SCT010     BKN020 02/M01 Q1007 RMK 1ST005 3ST010 6CU020 A2975=,- SN RA SH
20180103_030000.003,0,RJSY,,,,0,20180103030000,-1,-1,-1,-1,350,-1,14,-1,29,310,20,,9999,0,1,3,FEW 10   SCT 20   BKN 30,1,2,-1,1,1009,RJSY 030300Z 35014G29KT 310V020 9999 VCSH FEW010 SCT020 BKN030     02/M01 Q1009 RMK 1ST010 4CU020 5CU030 A2981 P/RR=,VC SH
20180103_040000.002,0,RJSY,,,,0,20180103040000,-1,-1,-1,-1,350,-1,8,-1,-1,310,20,,9999,0,1,3,FEW 7   SCT 15   BKN 25,1,2,-1,2,1010,RJSY 030400Z 35008KT 310V020 9999 VCSH FEW007 SCT015 BKN025     02/M02 Q1010 RMK 1ST007 3CU015 5CU025 A2985=,VC SH
20180103_050000.002,0,RJSY,,,,0,20180103050000,-1,-1,-1,-1,999,-1,5,-1,-1,-1,-1,,8000,0,1,3,FEW 5   SCT 15   BKN 25,1,1,-1,1,1011,RJSY 030500Z VRB05KT 8000 -SHSNRA FEW005 SCT015 BKN025 01/M01     Q1011 RMK 1ST005 3CU015 6CU025 A2988=,- SN RA SH
20180103_060000.002,0,RJSY,,,,0,20180103060000,-1,-1,-1,-1,320,-1,16,-1,30,280,350,,5000,0,1,4,FEW 5   SCT 10   FEW 20 CB  BKN 25,1,2,-1,2,1012,RJSY 030600Z 32016G30KT 280V350 5000 -TSSNRA FEW005 SCT010     FEW020CB BKN025 02/M02 Q1012 RMK 1ST005 3ST010 1CB020           6CU025 A2990 FBL TS 20KM N MOV SE=,- TS   SN RA
20180103_070000.002,0,RJSY,,,,0,20180103070000,-1,-1,-1,-1,310,-1,13,-1,26,280,360,,2500,0,1,3,FEW 5   SCT 8   BKN 15,1,1,-1,1,1013,RJSY 030700Z 31013G26KT 280V360 2500 -SHSNRA FEW005 SCT008     BKN015 01/M01 Q1013 RMK 1ST005 4ST008 6CU015 A2993=,- SN RA SH
20180103_080000.002,0,RJSY,,,,0,20180103080000,-1,-1,-1,-1,300,-1,20,-1,32,-1,-1,,9999,0,1,3,FEW 8   SCT 20   BKN 30,1,3,-1,0,1014,RJSY 030800Z 30020G32KT 9999 VCSH FEW008 SCT020 BKN030 03/M00     Q1014 RMK 1ST008 3CU020 6CU030 A2994=,VC SH
20180103_090000.002,0,RJSY,,,,0,20180103090000,-1,-1,-1,-1,310,-1,15,-1,26,280,340,,7000,0,1,3,FEW 7   SCT 10   BKN 20,1,2,-1,0,1015,RJSY 030900Z 31015G26KT 280V340 7000 -SHSNRA FEW007 SCT010     BKN020 02/M00 Q1015 RMK 1ST007 3ST010 6CU020 A2998=,- SN RA SH
20180103_100000.002,0,RJSY,,,,0,20180103100000,-1,-1,-1,-1,290,-1,17,-1,29,-1,-1,,9999,0,0,3,FEW 10   SCT 20   BKN 30,1,4,-1,1,1016,RJSY 031000Z 29017G29KT 9999 FEW010 SCT020 BKN030 04/M01 Q1016     RMK 1ST010 3CU020 6CU030 A3001=,
20180103_110000.002,0,RJSY,,,,0,20180103110000,-1,-1,-1,-1,300,-1,14,-1,24,270,330,,9999,0,1,3,FEW 15   SCT 30   BKN 50,1,3,-1,2,1016,RJSY 031100Z 30014G24KT 270V330 9999 -SHSN FEW015 SCT030     BKN050 03/M02 Q1016 RMK 1CU015 3CU030 7CU050 A3002=,- SN SH
20180103_120000.002,0,RJSY,,,,0,20180103120000,-1,-1,-1,-1,300,-1,13,-1,-1,-1,-1,,9999,0,1,3,FEW 15   SCT 30   BKN 40,1,3,-1,3,1016,RJSY 031200Z 30013KT 9999 -SHSN FEW015 SCT030 BKN040 03/M03     Q1016 RMK 1CU015 3CU030 6CU040 A3003=,- SN SH
20180103_220000.002,0,RJSY,,,,0,20180103220000,-1,-1,-1,-1,330,-1,8,-1,-1,290,20,,8000,0,1,3,FEW 8   SCT 20   BKN 30,1,1,-1,3,1019,RJSY 032200Z 33008KT 290V020 8000 -SHSN FEW008 SCT020 BKN030     01/M03 Q1019 RMK 1ST008 3CU020 5CU030 A3009=,- SN SH
20180103_230000.002,0,RJSY,,,,0,20180103230000,-1,-1,-1,-1,310,-1,11,-1,-1,270,350,,9999,0,1,3,FEW 10   SCT 30   BKN 40,1,2,-1,5,1018,RJSY 032300Z 31011KT 270V350 9999 -SHSN FEW010 SCT030 BKN040     02/M05 Q1018 RMK 1ST010 3CU030 5CU040 A3009=,- SN SH
20180104_000000.002,0,RJSY,,,,0,20180104000000,-1,-1,-1,-1,300,-1,11,-1,-1,270,340,,8000,0,1,3,FEW 10   SCT 20   BKN 40,1,1,-1,3,1019,RJSY 040000Z 30011KT 270V340 8000 -SHSN FEW010 SCT020 BKN040     01/M03 Q1019 RMK 1ST010 3CU020 5CU040 A3010=,- SN SH
20180104_010000.002,0,RJSY,,,,0,20180104010000,-1,-1,-1,-1,300,-1,11,-1,-1,270,340,,2000,1,1,3,FEW 3   SCT 7   BKN 10,1,0,-1,2,1019,RJSY 040100Z 30011KT 270V340 2000 R09/0900VP1800U -SHSN FEW003     SCT007 BKN010 00/M02 Q1019 RMK 1ST003 3ST007 5ST010           A3010=,- SN SH
20180104_020000.002,0,RJSY,,,,0,20180104020000,-1,-1,-1,-1,290,-1,9,-1,-1,270,340,,1000,1,1,3,FEW 2   SCT 5   BKN 10,1,0,-1,2,1018,RJSY 040200Z 29009KT 270V340 1000 R09/P1800N -SHSN FEW002     SCT005 BKN010 00/M02 Q1018 RMK 1ST002 3ST005 6ST010           A3008=,- SN SH
20180104_030000.002,0,RJSY,,,,0,20180104030000,-1,-1,-1,-1,310,-1,6,-1,-1,270,350,,4000,0,1,3,FEW 3   SCT 10   BKN 15,1,1,-1,2,1017,RJSY 040300Z 31006KT 270V350 4000 -SHSN FEW003 SCT010 BKN015     01/M02 Q1017 RMK 1ST003 3ST010 6CU015 A3004=,- SN SH
20180104_040000.002,0,RJSY,,,,0,20180104040000,-1,-1,-1,-1,300,-1,7,-1,-1,270,330,,9999,0,1,3,FEW 3   SCT 10   BKN 30,1,1,-1,1,1017,RJSY 040400Z 30007KT 270V330 9999 -SHSN FEW003 SCT010 BKN030     01/M01 Q1017 RMK 1ST003 3ST010 5CU030 A3004=,- SN SH
20180104_050000.002,0,RJSY,,,,0,20180104050000,-1,-1,-1,-1,320,-1,8,-1,-1,270,360,,9999,0,1,3,FEW 5   SCT 20   BKN 40,1,1,-1,2,1017,RJSY 040500Z 32008KT 270V360 9999 VCSH FEW005 SCT020 BKN040     01/M02 Q1017 RMK 1ST005 3CU020 6CU040 A3004=,VC SH
20180104_060000.003,0,RJSY,,,,0,20180104060000,-1,-1,-1,-1,290,-1,7,-1,-1,260,320,,9999,0,1,3,FEW 10   SCT 15   BKN 25,1,2,-1,2,1017,RJSY 040600Z 29007KT 260V320 9999 -SHSN FEW010 SCT015 BKN025     02/M02 Q1017 RMK 1ST010 4CU015 6CU025 A3005=,- SN SH
20180104_070000.002,0,RJSY,,,,0,20180104070000,-1,-1,-1,-1,310,-1,9,-1,-1,270,360,,9999,0,1,3,FEW 5   SCT 25   BKN 40,1,2,-1,4,1018,RJSY 040700Z 31009KT 270V360 9999 VCSH FEW005 SCT025 BKN040     02/M04 Q1018 RMK 1ST005 3CU025 5CU040 A3007=,VC SH
20180104_080000.002,0,RJSY,,,,0,20180104080000,-1,-1,-1,-1,310,-1,10,-1,-1,270,350,,9999,0,0,3,FEW 15   SCT 30   BKN 50,1,2,-1,5,1018,RJSY 040800Z 31010KT 270V350 9999 FEW015 SCT030 BKN050 02/M05     Q1018 RMK 1CU015 4CU030 6CU050 A3008=,
20180104_090000.002,0,RJSY,,,,0,20180104090000,-1,-1,-1,-1,310,-1,9,-1,-1,280,10,,9999,0,0,3,FEW 20   SCT 35   BKN 50,1,2,-1,6,1019,RJSY 040900Z 31009KT 280V010 9999 FEW020 SCT035 BKN050 02/M06     Q1019 RMK 1CU020 3CU035 5CU050 A3010=,
20180104_100000.002,0,RJSY,,,,0,20180104100000,-1,-1,-1,-1,290,-1,8,-1,-1,260,320,,9999,0,0,2,FEW 20   SCT 45,1,2,-1,7,1019,RJSY 041000Z 29008KT 260V320 9999 FEW020 SCT045 02/M07 Q1019     RMK 1CU020 4CU045 A3011=,
20180104_110000.002,0,RJSY,,,,0,20180104110000,-1,-1,-1,-1,290,-1,8,-1,-1,260,350,,9999,0,0,3,FEW 20   SCT 35   BKN 45,1,2,-1,6,1020,RJSY 041100Z 29008KT 260V350 9999 FEW020 SCT035 BKN045 02/M06     Q1020 RMK 1CU020 3CU035 5CU045 A3012=,
20180104_120000.003,0,RJSY,,,,0,20180104120000,-1,-1,-1,-1,310,-1,7,-1,-1,280,360,,9999,0,0,2,FEW 20   BKN 40,1,2,-1,7,1019,RJSY 041200Z 31007KT 280V360 9999 FEW020 BKN040 02/M07 Q1019     RMK 1CU020 6CU040 A3011=,
20180104_220000.002,0,RJSY,,,,0,20180104220000,-1,-1,-1,-1,140,-1,5,-1,-1,-1,-1,,9999,0,0,3,FEW 15   SCT 30   BKN 40,1,0,-1,3,1017,RJSY 042200Z 14005KT 9999 FEW015 SCT030 BKN040 00/M03 Q1017     RMK 1CU015 4CU030 6CU040 A3005=,
20180104_230000.002,0,RJSY,,,,0,20180104230000,-1,-1,-1,-1,90,-1,3,-1,-1,-1,-1,,9999,0,0,3,FEW 20   SCT 35   BKN 50,-1,0,-1,3,1017,RJSY 042300Z 09003KT 9999 FEW020 SCT035 BKN050 M00/M03 Q1017     RMK 1CU020 3CU035 6CU050 A3003=,
20180105_000000.002,0,RJSY,,,,0,20180105000000,-1,-1,-1,-1,120,-1,3,-1,-1,-1,-1,,9999,0,0,3,FEW 20   SCT 35   BKN 50,1,1,-1,2,1017,RJSY 050000Z 12003KT 9999 FEW020 SCT035 BKN050 01/M02 Q1017     RMK 1CU020 3CU035 6CU050 A3003=,
20180105_010000.003,0,RJSY,,,,0,20180105010000,-1,-1,-1,-1,160,-1,5,-1,-1,130,190,,9999,0,0,3,FEW 15   SCT 30   BKN 50,1,2,-1,2,1016,RJSY 050100Z 16005KT 130V190 9999 FEW015 SCT030 BKN050 02/M02     Q1016 RMK 1CU015 3CU030 7CU050 A3003=,
20180105_020000.002,0,RJSY,,,,0,20180105020000,-1,-1,-1,-1,210,-1,8,-1,-1,180,240,,9999,0,1,3,FEW 10   SCT 30   BKN 50,1,3,-1,1,1016,RJSY 050200Z 21008KT 180V240 9999 VCSH FEW010 SCT030 BKN050     03/M01 Q1016 RMK 1ST010 3CU030 7CU050 A3001=,VC SH
20180105_030000.002,0,RJSY,,,,0,20180105030000,-1,-1,-1,-1,210,-1,9,-1,-1,-1,-1,,9999,0,1,3,FEW 10   SCT 20   BKN 50,1,3,-1,1,1015,RJSY 050300Z 21009KT 9999 -SHRA FEW010 SCT020 BKN050 03/M01     Q1015 RMK 1ST010 3CU020 7CU050 A2997=,- RA SH
20180105_040000.002,0,RJSY,,,,0,20180105040000,-1,-1,-1,-1,150,-1,3,-1,-1,120,200,,9999,0,1,3,FEW 10   SCT 30   BKN 50,1,3,-1,1,1013,RJSY 050400Z 15003KT 120V200 9999 -SHRASN FEW010 SCT030 BKN050     03/M01 Q1013 RMK 1ST010 3CU030 7CU050 A2994=,- RA SN SH
20180105_050000.002,0,RJSY,,,,0,20180105050000,-1,-1,-1,-1,150,-1,5,-1,-1,-1,-1,,9999,0,1,3,FEW 20   SCT 30   BKN 45,1,2,-1,1,1013,RJSY 050500Z 15005KT 9999 -SHSNRA FEW020 SCT030 BKN045 02/M01     Q1013 RMK 1CU020 4CU030 7CU045 A2993=,- SN RA SH
20180105_060000.002,0,RJSY,,,,0,20180105060000,-1,-1,-1,-1,110,-1,4,-1,-1,90,160,,9999,0,0,3,FEW 20   SCT 40   BKN 50,1,2,-1,1,1013,RJSY 050600Z 11004KT 090V160 9999 FEW020 SCT040 BKN050 02/M01     Q1013 RMK 1CU020 3CU040 5CU050 A2993=,
20180105_070000.002,0,RJSY,,,,0,20180105070000,-1,-1,-1,-1,180,-1,6,-1,-1,-1,-1,,9999,0,1,3,FEW 20   SCT 30   BKN 50,1,3,-1,1,1013,RJSY 050700Z 18006KT 9999 -SHRA FEW020 SCT030 BKN050 03/M01     Q1013 RMK 1CU020 3CU030 5CU050 A2992=,- RA SH
20180105_080000.002,0,RJSY,,,,0,20180105080000,-1,-1,-1,-1,170,-1,9,-1,-1,-1,-1,,9999,0,0,3,FEW 15   SCT 30   BKN 50,1,3,-1,2,1013,RJSY 050800Z 17009KT 9999 FEW015 SCT030 BKN050 03/M02 Q1013     RMK 1CU015 3CU030 6CU050 A2991=,
20180105_090000.002,0,RJSY,,,,0,20180105090000,-1,-1,-1,-1,210,-1,6,-1,-1,-1,-1,,2500,0,1,3,FEW 3   SCT 6   BKN 15,1,1,-1,1,1013,RJSY 050900Z 21006KT 2500 -SHSN FEW003 SCT006 BKN015 01/M01     Q1013 RMK 1ST003 3ST006 7CU015 A2992=,- SN SH
20180105_100000.002,0,RJSY,,,,0,20180105100000,-1,-1,-1,-1,180,-1,3,-1,-1,150,210,,5000,0,1,3,FEW 5   SCT 10   BKN 15,1,0,-1,1,1012,RJSY 051000Z 18003KT 150V210 5000 -SHSN FEW005 SCT010 BKN015     00/M01 Q1012 RMK 1ST005 3ST010 7CU015 A2991=,- SN SH
20180105_110000.002,0,RJSY,,,,0,20180105110000,-1,-1,-1,-1,160,-1,4,-1,-1,140,200,,1500,1,1,3,FEW 3   SCT 5   BKN 12,1,0,-1,1,1012,RJSY 051100Z 16004KT 140V200 1500 R09/P1800N -SHSN FEW003     SCT005 BKN012 00/M01 Q1012 RMK 1ST003 3ST005 7ST012           A2990=,- SN SH
20180105_120000.002,0,RJSY,,,,0,20180105120000,-1,-1,-1,-1,150,-1,5,-1,-1,-1,-1,,8000,0,1,3,FEW 5   SCT 10   BKN 15,1,1,-1,0,1012,RJSY 051200Z 15005KT 8000 -SHRASN FEW005 SCT010 BKN015 01/M00     Q1012 RMK 1ST005 4ST010 6CU015 A2989=,- RA SN SH
20180105_220000.002,0,RJSY,,,,0,20180105220000,-1,-1,-1,-1,290,-1,10,-1,20,260,330,,9999,0,1,3,FEW 15   SCT 40   BKN 50,1,4,-1,4,1010,RJSY 052200Z 29010G20KT 260V330 9999 -SHSN FEW015 SCT040     BKN050 04/M04 Q1010 RMK 1CU015 4CU040 7CU050 A2984=,- SN SH
20180105_230000.002,0,RJSY,,,,0,20180105230000,-1,-1,-1,-1,290,-1,11,-1,-1,250,320,,9999,0,1,3,FEW 15   SCT 40   BKN 50,1,4,-1,3,1010,RJSY 052300Z 29011KT 250V320 9999 VCSH FEW015 SCT040 BKN050     04/M03 Q1010 RMK 1CU015 3CU040 6CU050 A2984=,VC SH
20180106_000000.002,0,RJSY,,,,0,20180106000000,-1,-1,-1,-1,280,-1,12,-1,-1,-1,-1,,9999,0,0,3,FEW 15   SCT 40   BKN -9999,1,5,-1,5,1010,RJSY 060000Z 28012KT 9999 FEW015 SCT040 BKN/// 05/M05 Q1010     RMK 1CU015 3CU040 A2985=,
20180106_010000.002,0,RJSY,,,,0,20180106010000,-1,-1,-1,-1,280,-1,13,-1,-1,-1,-1,,9999,0,0,3,FEW 15   SCT 40   BKN 70,1,5,-1,3,1010,RJSY 060100Z 28013KT 9999 FEW015 SCT040 BKN070 05/M03 Q1010     RMK 1CU015 3CU040 6AC070 A2985=,
20180106_020000.002,0,RJSY,,,,0,20180106020000,-1,-1,-1,-1,300,-1,9,-1,-1,270,330,,9999,0,0,3,FEW 20   SCT 40   BKN 70,1,5,-1,1,1010,RJSY 060200Z 30009KT 270V330 9999 FEW020 SCT040 BKN070 05/M01     Q1010 RMK 1CU020 3CU040 5AC070 A2983=,
20180106_030000.002,0,RJSY,,,,0,20180106030000,-1,-1,-1,-1,290,-1,11,-1,-1,-1,-1,,9999,0,1,3,FEW 10   SCT 30   BKN 50,1,4,1,1,1009,RJSY 060300Z 29011KT 9999 -SHRA FEW010 SCT030 BKN050 04/01     Q1009 RMK 1ST010 3CU030 5CU050 A2980=,- RA SH
20180106_040000.002,0,RJSY,,,,0,20180106040000,-1,-1,-1,-1,300,-1,15,-1,26,270,330,,9999,0,1,3,FEW 10   SCT 20   BKN 30,1,4,-1,1,1008,RJSY 060400Z 30015G26KT 270V330 9999 -SHRA FEW010 SCT020     BKN030 04/M01 Q1008 RMK 1ST010 3CU020 7CU030 A2979=,- RA SH
20180106_050000.002,0,RJSY,,,,0,20180106050000,-1,-1,-1,-1,300,-1,14,-1,24,270,330,,9999,0,1,3,FEW 10   SCT 20   BKN 30,1,4,-1,1,1008,RJSY 060500Z 30014G24KT 270V330 9999 -SHRA FEW010 SCT020     BKN030 04/M01 Q1008 RMK 1ST010 3CU020 6CU030 A2979=,- RA SH
20180106_060000.002,0,RJSY,,,,0,20180106060000,-1,-1,-1,-1,300,-1,16,-1,-1,-1,-1,,9999,0,1,3,FEW 10   SCT 20   BKN 30,1,4,-1,1,1009,RJSY 060600Z 30016KT 9999 -SHRA FEW010 SCT020 BKN030 04/M01     Q1009 RMK 1ST010 3CU020 6CU030 A2981=,- RA SH
20180106_070000.002,0,RJSY,,,,0,20180106070000,-1,-1,-1,-1,290,-1,16,-1,29,-1,-1,,9999,0,1,3,FEW 20   SCT 30   BKN 40,1,4,-1,3,1010,RJSY 060700Z 29016G29KT 9999 -SHRA FEW020 SCT030 BKN040 04/M03     Q1010 RMK 1CU020 3CU030 6CU040 A2983=,- RA SH
20180106_080000.002,0,RJSY,,,,0,20180106080000,-1,-1,-1,-1,280,-1,15,-1,30,-1,-1,,9999,0,1,3,FEW 20   SCT 30   BKN 40,1,3,-1,3,1011,RJSY 060800Z 28015G30KT 9999 -SHSN FEW020 SCT030 BKN040 03/M03     Q1011 RMK 1CU020 4CU030 7CU040 A2985=,- SN SH
20180106_090000.002,0,RJSY,,,,0,20180106090000,-1,-1,-1,-1,290,-1,13,-1,-1,-1,-1,,9999,0,1,3,FEW 20   SCT 30   BKN 40,1,3,-1,4,1012,RJSY 060900Z 29013KT 9999 -SHSN FEW020 SCT030 BKN040 03/M04     Q1012 RMK 1CU020 3CU030 6CU040 A2989=,- SN SH
20180106_100000.002,0,RJSY,,,,0,20180106100000,-1,-1,-1,-1,290,-1,12,-1,-1,260,340,,9999,0,1,3,FEW 20   SCT 30   BKN 40,1,3,-1,3,1013,RJSY 061000Z 29012KT 260V340 9999 -SHSN FEW020 SCT030 BKN040     03/M03 Q1013 RMK 1CU020 4CU030 7CU040 A2992=,- SN SH
20180106_110000.002,0,RJSY,,,,0,20180106110000,-1,-1,-1,-1,280,-1,15,-1,-1,-1,-1,,3500,0,1,3,FEW 5   SCT 15   BKN 25,1,1,-1,3,1013,RJSY 061100Z 28015KT 3500 -SHSN FEW005 SCT015 BKN025 01/M03     Q1013 RMK 1ST005 3CU015 6CU025 A2993=,- SN SH
20180106_120000.002,0,RJSY,,,,0,20180106120000,-1,-1,-1,-1,290,-1,15,-1,27,260,320,,9999,0,1,3,FEW 15   SCT 25   BKN 50,1,2,-1,3,1014,RJSY 061200Z 29015G27KT 260V320 9999 -SHSN FEW015 SCT025     BKN050 02/M03 Q1014 RMK 1CU015 3CU025 6CU050 A2995=,- SN SH
20180106_220000.002,0,RJSY,,,,0,20180106220000,-1,-1,-1,-1,290,-1,11,-1,-1,260,330,,9999,0,1,3,FEW 10   SCT 30   BKN 50,1,2,-1,5,1020,RJSY 062200Z 29011KT 260V330 9999 -SHSN FEW010 SCT030 BKN050     02/M05 Q1020 RMK 1ST010 3CU030 6CU050 A3013=,- SN SH
20180106_230000.002,0,RJSY,,,,0,20180106230000,-1,-1,-1,-1,290,-1,11,-1,-1,270,330,,9999,0,1,3,FEW 10   SCT 30   BKN 50,1,2,-1,4,1021,RJSY 062300Z 29011KT 270V330 9999 -SHSN FEW010 SCT030 BKN050     02/M04 Q1021 RMK 1ST010 3CU030 6CU050 A3016=,- SN SH
20180107_000000.002,0,RJSY,,,,0,20180107000000,-1,-1,-1,-1,270,-1,16,-1,-1,-1,-1,,9999,0,1,2,FEW 15   BKN 30,1,2,-1,3,1021,RJSY 070000Z 27016KT 9999 -SHSN FEW015 BKN030 02/M03 Q1021 RMK     1CU015 5CU030 A3017=,- SN SH
20180107_010000.003,0,RJSY,,,,0,20180107010000,-1,-1,-1,-1,300,-1,11,-1,-1,270,330,,9999,0,1,2,FEW 15   SCT 30,1,3,-1,3,1022,RJSY 070100Z 30011KT 270V330 9999 VCSH FEW015 SCT030 03/M03     Q1022 RMK 1CU015 3CU030 A3018=,VC SH
20180107_020000.002,0,RJSY,,,,0,20180107020000,-1,-1,-1,-1,300,-1,11,-1,-1,260,340,,9999,0,0,3,FEW 20   SCT 30   BKN 50,1,3,-1,3,1022,RJSY 070200Z 30011KT 260V340 9999 FEW020 SCT030 BKN050 03/M03     Q1022 RMK 1CU020 3CU030 5CU050 A3018=,
20180107_030000.002,0,RJSY,,,,0,20180107030000,-1,-1,-1,-1,290,-1,12,-1,-1,-1,-1,,9999,0,0,3,FEW 25   SCT 40   BKN 70,1,5,-1,4,1021,RJSY 070300Z 29012KT 9999 FEW025 SCT040 BKN070 05/M04 Q1021     RMK 1CU025 3CU040 5AC070 A3017=,
20180107_040000.002,0,RJSY,,,,0,20180107040000,-1,-1,-1,-1,290,-1,10,-1,-1,260,330,,9999,0,0,3,FEW 25   SCT 35   BKN 50,1,4,-1,3,1021,RJSY 070400Z 29010KT 260V330 9999 FEW025 SCT035 BKN050 04/M03     Q1021 RMK 1CU025 3CU035 6CU050 A3016=,
20180107_050000.002,0,RJSY,,,,0,20180107050000,-1,-1,-1,-1,270,-1,13,-1,-1,-1,-1,,9999,0,1,3,FEW 30   SCT 35   BKN 50,1,4,-1,3,1021,RJSY 070500Z 27013KT 9999 VCSH FEW030 SCT035 BKN050 04/M03     Q1021 RMK 1CU030 3CU035 7CU050 A3016=,VC SH
20180107_060000.002,0,RJSY,,,,0,20180107060000,-1,-1,-1,-1,280,-1,13,-1,-1,-1,-1,,9999,0,1,3,FEW 25   SCT 35   BKN 50,1,4,-1,4,1021,RJSY 070600Z 28013KT 9999 VCSH FEW025 SCT035 BKN050 04/M04     Q1021 RMK 1CU025 3CU035 7CU050 A3017=,VC SH
20180107_070000.002,0,RJSY,,,,0,20180107070000,-1,-1,-1,-1,270,-1,11,-1,-1,-1,-1,,9999,0,0,3,FEW 25   SCT 35   BKN 50,1,4,-1,4,1021,RJSY 070700Z 27011KT 9999 FEW025 SCT035 BKN050 04/M04 Q1021     RMK 1CU025 4CU035 7CU050 A3017=,
20180107_080000.002,0,RJSY,,,,0,20180107080000,-1,-1,-1,-1,270,-1,10,-1,-1,250,310,,9999,0,0,3,FEW 30   SCT 40   BKN 50,1,5,-1,4,1021,RJSY 070800Z 27010KT 250V310 9999 FEW030 SCT040 BKN050 05/M04     Q1021 RMK 1CU030 3CU040 7CU050 A3017=,
20180107_090000.002,0,RJSY,,,,0,20180107090000,-1,-1,-1,-1,280,-1,10,-1,-1,-1,-1,,9999,0,0,2,FEW 35   BKN 45,1,5,-1,2,1022,RJSY 070900Z 28010KT 9999 FEW035 BKN045 05/M02 Q1022 RMK     1CU035 6CU045 A3020=,
20180107_100000.002,0,RJSY,,,,0,20180107100000,-1,-1,-1,-1,260,-1,15,-1,-1,-1,-1,,9999,0,0,2,FEW 35   BKN 45,1,5,-1,4,1023,RJSY 071000Z 26015KT 9999 FEW035 BKN045 05/M04 Q1023 RMK     1CU035 7CU045 A3021=,
20180107_110000.002,0,RJSY,,,,0,20180107110000,-1,-1,-1,-1,250,-1,14,-1,-1,-1,-1,,9999,0,0,2,FEW 30   BKN 50,1,5,-1,3,1023,RJSY 071100Z 25014KT 9999 FEW030 BKN050 05/M03 Q1023 RMK     1CU030 7CU050 A3021=,
20180107_120000.003,0,RJSY,,,,0,20180107120000,-1,-1,-1,-1,270,-1,12,-1,-1,-1,-1,,9999,0,0,3,FEW 35   BKN 40   BKN 50,1,5,-1,2,1022,RJSY 071200Z 27012KT 9999 FEW035 BKN040 BKN050 05/M02 Q1022     RMK 2CU035 5CU040 7CU050 A3021=,
20180107_220000.002,0,RJSY,,,,0,20180107220000,-1,-1,-1,-1,100,-1,8,-1,-1,-1,-1,,9999,0,0,3,FEW 15   SCT 130   BKN -9999,-1,2,-1,4,1018,RJSY 072200Z 10008KT 9999 FEW015 SCT130 BKN/// M02/M04 Q1018     RMK 1CU015 3AC130 A3007=,
20180107_230000.002,0,RJSY,,,,0,20180107230000,-1,-1,-1,-1,110,-1,6,-1,-1,-1,-1,,9999,0,0,3,FEW 80   SCT 120   BKN -9999,-1,1,-1,4,1017,RJSY 072300Z 11006KT 9999 FEW080 SCT120 BKN/// M01/M04 Q1017     RMK 1AC080 3AC120 A3005=,
20180108_000000.002,0,RJSY,,,,0,20180108000000,-1,-1,-1,-1,120,-1,4,-1,-1,90,150,,9999,0,0,2,FEW 80   SCT 120,1,1,-1,4,1017,RJSY 080000Z 12004KT 090V150 9999 FEW080 SCT120 01/M04 Q1017     RMK 1AC080 3AC120 A3003=,
20180108_010000.002,0,RJSY,,,,0,20180108010000,-1,-1,-1,-1,100,-1,5,-1,-1,80,140,,9999,0,0,2,FEW 80   SCT 140,1,3,-1,3,1015,RJSY 080100Z 10005KT 080V140 9999 FEW080 SCT140 03/M03 Q1015     RMK 1AC080 3AC140 A3000=,
20180108_020000.002,0,RJSY,,,,0,20180108020000,-1,-1,-1,-1,100,-1,6,-1,-1,-1,-1,,9999,0,0,3,FEW 80   SCT 120   BKN 150,1,4,-1,3,1014,RJSY 080200Z 10006KT 9999 FEW080 SCT120 BKN150 04/M03 Q1014     RMK 1AC080 4AC120 6AC150 A2996=,
20180108_030000.002,0,RJSY,,,,0,20180108030000,-1,-1,-1,-1,110,-1,6,-1,-1,80,150,,9999,0,0,3,FEW 80   SCT 100   BKN 130,1,4,-1,3,1012,RJSY 080300Z 11006KT 080V150 9999 FEW080 SCT100 BKN130 04/M03     Q1012 RMK 2AC080 4AC100 6AC130 A2990=,
20180108_040000.002,0,RJSY,,,,0,20180108040000,-1,-1,-1,-1,90,-1,7,-1,-1,-1,-1,,9999,0,0,3,FEW 60   BKN 70   BKN 90,1,5,-1,2,1010,RJSY 080400Z 09007KT 9999 FEW060 BKN070 BKN090 05/M02 Q1010     RMK 1SC060 5AC070 7AC090 A2985=,
20180108_050000.002,0,RJSY,,,,0,20180108050000,-1,-1,-1,-1,90,-1,10,-1,-1,-1,-1,,9999,0,0,2,SCT 60   BKN 80,1,5,-1,2,1009,RJSY 080500Z 09010KT 9999 SCT060 BKN080 05/M02 Q1009 RMK     4SC060 7AC080 A2982=,
20180108_060000.003,0,RJSY,,,,0,20180108060000,-1,-1,-1,-1,70,-1,9,-1,-1,-1,-1,,9999,0,0,3,FEW 40   BKN 50   BKN 70,1,4,-1,2,1008,RJSY 080600Z 07009KT 9999 FEW040 BKN050 BKN070 04/M02 Q1008     RMK 1SC040 5SC050 7AC070 A2978=,
20180108_070000.002,0,RJSY,,,,0,20180108070000,-1,-1,-1,-1,120,-1,4,-1,-1,60,220,,9999,0,1,2,FEW 40   BKN 50,1,4,-1,2,1008,RJSY 080700Z 12004KT 060V220 9999 -RA FEW040 BKN050 04/M02     Q1008 RMK 1SC040 7SC050 A2977=,- RA
20180108_080000.002,0,RJSY,,,,0,20180108080000,-1,-1,-1,-1,100,-1,10,-1,-1,-1,-1,,9999,0,1,3,FEW 30   SCT 40   BKN 50,1,4,-1,1,1007,RJSY 080800Z 10010KT 9999 -RA FEW030 SCT040 BKN050 04/M01     Q1007 RMK 1SC030 4SC040 7SC050 A2975=,- RA
20180108_090000.002,0,RJSY,,,,0,20180108090000,-1,-1,-1,-1,100,-1,7,-1,-1,-1,-1,,8000,0,1,3,FEW 30   BKN 45   BKN 60,1,3,-1,0,1007,RJSY 080900Z 10007KT 8000 -RA FEW030 BKN045 BKN060 03/M00     Q1007 RMK 1SC030 5SC045 7SC060 A2974=,- RA
20180108_100000.002,0,RJSY,,,,0,20180108100000,-1,-1,-1,-1,70,-1,6,-1,-1,-1,-1,,9999,0,1,3,FEW 30   BKN 50   BKN 70,1,2,1,1,1006,RJSY 081000Z 07006KT 9999 -RA FEW030 BKN050 BKN070 02/01 Q1006     RMK 1SC030 5SC050 7AC070 A2973=,- RA
20180108_110000.002,0,RJSY,,,,0,20180108110000,-1,-1,-1,-1,90,-1,10,-1,-1,-1,-1,,9999,0,1,3,FEW 30   SCT 50   BKN 100,1,2,1,1,1005,RJSY 081100Z 09010KT 9999 -RA FEW030 SCT050 BKN100 02/01 Q1005     RMK 1SC030 3SC050 7AC100 A2968=,- RA
20180108_120000.002,0,RJSY,,,,0,20180108120000,-1,-1,-1,-1,80,-1,10,-1,-1,-1,-1,,9999,0,1,3,FEW 30   SCT 60   BKN 100,1,3,1,1,1002,RJSY 081200Z 08010KT 9999 -RA FEW030 SCT060 BKN100 03/01 Q1002     RMK 1SC030 4SC060 7AC100 A2961 P/FR=,- RA
20180108_220000.002,0,RJSY,,,,0,20180108220000,-1,-1,-1,-1,280,-1,18,-1,28,-1,-1,,7000,0,1,3,FEW 7   SCT 10   BKN 20,1,9,1,7,992,RJSY 082200Z 28018G28KT 7000 -SHRA FEW007 SCT010 BKN020 09/07     Q0992 RMK 1ST007 3ST010 6CU020 A2932=,- RA SH
20180108_230000.003,0,RJSY,,,,0,20180108230000,-1,-1,-1,-1,270,-1,18,-1,29,-1,-1,,6000,0,1,3,FEW 7   SCT 10   BKN 15,1,9,1,6,993,RJSY 082300Z 27018G29KT 6000 -SHRA FEW007 SCT010 BKN015 09/06     Q0993 RMK 1ST007 3ST010 6CU015 A2935=,- RA SH
20180109_000000.002,0,RJSY,,,,0,20180109000000,-1,-1,-1,-1,270,-1,18,-1,28,-1,-1,,8000,0,1,3,FEW 10   SCT 20   BKN 30,1,8,1,5,994,RJSY 090000Z 27018G28KT 8000 -SHRA FEW010 SCT020 BKN030 08/05     Q0994 RMK 1ST010 3CU020 6CU030 A2935=,- RA SH
20180109_010000.002,0,RJSY,,,,0,20180109010000,-1,-1,-1,-1,240,-1,19,-1,30,-1,-1,,9999,0,1,3,FEW 10   SCT 20   BKN 30,1,8,1,5,993,RJSY 090100Z 24019G30KT 9999 -SHRA FEW010 SCT020 BKN030 08/05     Q0993 RMK 1ST010 3CU020 6CU030 A2933=,- RA SH
20180109_020000.002,0,RJSY,,,,0,20180109020000,-1,-1,-1,-1,260,-1,24,-1,-1,-1,-1,,9999,0,1,3,FEW 15   SCT 25   BKN 40,1,7,1,4,993,RJSY 090200Z 26024KT 9999 -SHRA FEW015 SCT025 BKN040 07/04     Q0993 RMK 1CU015 3CU025 6CU040 A2934=,- RA SH
20180109_030000.002,0,RJSY,,,,0,20180109030000,-1,-1,-1,-1,260,-1,21,-1,-1,-1,-1,,9999,0,1,3,FEW 10   SCT 15   BKN 30,1,6,1,3,992,RJSY 090300Z 26021KT 9999 -SHRA FEW010 SCT015 BKN030 06/03     Q0992 RMK 1ST010 3CU015 6CU030 A2932=,- RA SH
20180109_040000.002,0,RJSY,,,,0,20180109040000,-1,-1,-1,-1,260,-1,25,-1,35,-1,-1,,9999,0,1,3,FEW 10   SCT 15   BKN 35,1,7,1,3,991,RJSY 090400Z 26025G35KT 9999 -SHRA FEW010 SCT015 BKN035 07/03     Q0991 RMK 1ST010 3CU015 5CU035 A2929=,- RA SH
20180109_050000.002,0,RJSY,,,,0,20180109050000,-1,-1,-1,-1,260,-1,27,-1,42,-1,-1,,9999,0,1,3,FEW 10   SCT 15   BKN 25,1,6,1,3,992,RJSY 090500Z 26027G42KT 9999 -SHRA FEW010 SCT015 BKN025 06/03     Q0992 RMK 1ST010 3CU015 5CU025 A2931=,- RA SH
20180109_060000.002,0,RJSY,,,,0,20180109060000,-1,-1,-1,-1,260,-1,29,-1,43,-1,-1,,8000,0,1,3,FEW 10   SCT 20   BKN 30,1,5,1,2,992,RJSY 090600Z 26029G43KT 8000 -SHRA FEW010 SCT020 BKN030 05/02     Q0992 RMK 1ST010 3CU020 5CU030 A2932=,- RA SH
20180109_070000.002,0,RJSY,,,,0,20180109070000,-1,-1,-1,-1,260,-1,34,-1,48,-1,-1,,8000,0,1,3,FEW 8   SCT 20   BKN 30,1,4,1,1,994,RJSY 090700Z 26034G48KT 8000 -SHRA FEW008 SCT020 BKN030 04/01     Q0994 RMK 1ST008 3CU020 5CU030 A2937=,- RA SH
20180109_080000.002,0,RJSY,,,,0,20180109080000,-1,-1,-1,-1,260,-1,37,-1,52,-1,-1,,9999,0,1,3,FEW 6   SCT 15   BKN 30,1,4,-1,1,995,RJSY 090800Z 26037G52KT 9999 -SHRASN FEW006 SCT015 BKN030     04/M01 Q0995 RMK 1ST006 3CU015 5CU030 A2941=,- RA SN SH
20180109_090000.002,0,RJSY,,,,0,20180109090000,-1,-1,-1,-1,270,-1,27,-1,39,-1,-1,,9999,0,0,4,FEW 15   FEW 20 CB  SCT 50   BKN 70,1,5,-1,2,997,RJSY 090900Z 27027G39KT 9999 FEW015 FEW020CB SCT050 BKN070     05/M02 Q0997 RMK 1CU015 1CB020 4CU050 6AC070 A2945 CB           20KM S MOV E=,
20180109_100000.002,0,RJSY,,,,0,20180109100000,-1,-1,-1,-1,270,-1,23,-1,33,-1,-1,,9999,0,0,3,FEW 10   SCT 35   BKN 50,1,5,-1,2,997,RJSY 091000Z 27023G33KT 9999 FEW010 SCT035 BKN050 05/M02 Q0997     RMK 1ST010 3CU035 5CU050 A2946=,
20180109_110000.002,0,RJSY,,,,0,20180109110000,-1,-1,-1,-1,280,-1,24,-1,37,-1,-1,,9999,0,0,3,FEW 20   SCT 35   BKN 50,1,5,-1,3,998,RJSY 091100Z 28024G37KT 9999 FEW020 SCT035 BKN050 05/M03 Q0998     RMK 1CU020 3CU035 5CU050 A2950=,
20180109_120000.002,0,RJSY,,,,0,20180109120000,-1,-1,-1,-1,280,-1,27,-1,39,-1,-1,,9999,0,0,3,FEW 20   SCT 40   BKN 50,1,4,-1,5,1000,RJSY 091200Z 28027G39KT 9999 FEW020 SCT040 BKN050 04/M05 Q1000     RMK 1CU020 3CU040 5CU050 A2954=,
20180109_220000.002,0,RJSY,,,,0,20180109220000,-1,-1,-1,-1,270,-1,22,-1,33,250,310,,9999,0,1,3,FEW 8   SCT 20   BKN 30,1,4,-1,0,1002,RJSY 092200Z 27022G33KT 250V310 9999 -SHRASN FEW008 SCT020     BKN030 04/M00 Q1002 RMK 1ST008 3CU020 6CU030 A2961=,- RA SN SH
20180109_230000.002,0,RJSY,,,,0,20180109230000,-1,-1,-1,-1,260,-1,20,-1,-1,-1,-1,,9999,0,1,3,FEW 10   SCT 25   BKN 40,1,4,1,1,1003,RJSY 092300Z 26020KT 9999 VCSH FEW010 SCT025 BKN040 04/01     Q1003 RMK 1ST010 3CU025 5CU040 A2963=,VC SH
20180110_000000.002,0,RJSY,,,,0,20180110000000,-1,-1,-1,-1,260,-1,27,-1,42,-1,-1,,8000,0,1,3,FEW 4   SCT 15   BKN 25,1,3,-1,0,1004,RJSY 100000Z 26027G42KT 8000 -SHRASN FEW004 SCT015 BKN025     03/M00 Q1004 RMK 1ST004 3CU015 5CU025 A2966=,- RA SN SH
20180110_010000.002,0,RJSY,,,,0,20180110010000,-1,-1,-1,-1,280,-1,19,-1,31,-1,-1,,6000,0,1,3,FEW 6   SCT 15   BKN 20,1,3,1,0,1005,RJSY 100100Z 28019G31KT 6000 -SHRASN FEW006 SCT015 BKN020     03/00 Q1005 RMK 1ST006 3CU015 5CU020 A2968=,- RA SN SH
20180110_020000.002,0,RJSY,,,,0,20180110020000,-1,-1,-1,-1,320,-1,13,-1,26,280,360,,4500,0,1,3,FEW 4   SCT 10   BKN 15,1,1,-1,1,1004,RJSY 100200Z 32013G26KT 280V360 4500 -SHSNRA FEW004 SCT010     BKN015 01/M01 Q1004 RMK 1ST004 3ST010 6CU015 A2966=,- SN RA SH
20180110_030000.002,0,RJSY,,,,0,20180110030000,-1,-1,-1,-1,310,-1,10,-1,-1,270,350,,4500,0,1,3,FEW 5   SCT 10   BKN 15,1,2,-1,2,1004,RJSY 100300Z 31010KT 270V350 4500 -SHSNRA FEW005 SCT010 BKN015     02/M02 Q1004 RMK 1ST005 3ST010 5CU015 A2967=,- SN RA SH
20180110_040000.003,0,RJSY,,,,0,20180110040000,-1,-1,-1,-1,300,-1,8,-1,-1,260,340,,500,1,1,3,FEW 2   SCT 5   BKN 10,1,0,-1,1,1005,RJSY 100400Z 30008KT 260V340 0500 R09/1000V1700N SHSN FEW002     SCT005 BKN010 00/M01 Q1005 RMK 2ST002 4ST005 7ST010           A2968=,SN SH
20180110_050000.002,0,RJSY,,,,0,20180110050000,-1,-1,-1,-1,300,-1,12,-1,23,260,340,,9999,0,1,3,FEW 8   SCT 15   BKN 30,1,2,-1,1,1005,RJSY 100500Z 30012G23KT 260V340 9999 -SHSN FEW008 SCT015     BKN030 02/M01 Q1005 RMK 1ST008 3CU015 6CU030 A2968=,- SN SH
20180110_060000.002,0,RJSY,,,,0,20180110060000,-1,-1,-1,-1,290,-1,13,-1,24,250,320,,1000,1,1,3,FEW 3   SCT 6   BKN 10,1,1,-1,1,1005,RJSY 100600Z 29013G24KT 250V320 1000 R09/P1800N -SHSN FEW003     SCT006 BKN010 01/M01 Q1005 RMK 1ST003 3ST006 6ST010           A2969=,- SN SH
20180110_070000.002,0,RJSY,,,,0,20180110070000,-1,-1,-1,-1,330,-1,8,-1,-1,280,80,,7000,0,1,3,FEW 5   SCT 10   BKN 15,1,1,-1,1,1005,RJSY 100700Z 33008KT 280V080 7000 -SHSN FEW005 SCT010 BKN015     01/M01 Q1005 RMK 1ST005 4ST010 6CU015 A2970=,- SN SH
20180110_080000.002,0,RJSY,,,,0,20180110080000,-1,-1,-1,-1,10,-1,3,-1,-1,300,60,,3500,0,1,3,FEW 4   SCT 8   BKN 10,1,0,-1,1,1006,RJSY 100800Z 01003KT 300V060 3500 -SHSN FEW004 SCT008 BKN010     00/M01 Q1006 RMK 1ST004 3ST008 6ST010 A2972=,- SN SH
20180110_090000.002,0,RJSY,,,,0,20180110090000,-1,-1,-1,-1,310,-1,5,-1,-1,250,360,,3000,0,1,3,FEW 3   SCT 8   BKN 15,1,0,-1,1,1007,RJSY 100900Z 31005KT 250V360 3000 -SHSN FEW003 SCT008 BKN015     00/M01 Q1007 RMK 1ST003 4ST008 6CU015 A2974=,- SN SH
20180110_100000.002,0,RJSY,,,,0,20180110100000,-1,-1,-1,-1,999,-1,2,-1,-1,-1,-1,,300,1,1,1,VV 4,-1,1,-1,2,1007,RJSY 101000Z VRB02KT 0300 R09/0900V1700D SHSN VV004 M01/M02     Q1007 RMK A2976=,SN SH
20180110_110000.002,0,RJSY,,,,0,20180110110000,-1,-1,-1,-1,999,-1,3,-1,-1,-1,-1,,1000,1,1,3,FEW 3   SCT 5   BKN 8,-1,1,-1,2,1008,RJSY 101100Z VRB03KT 1000 R09/P1800N -SHSN FEW003 SCT005     BKN008 M01/M02 Q1008 RMK 1ST003 3ST005 6ST008 A2977=,- SN SH
20180110_120000.002,0,RJSY,,,,0,20180110120000,-1,-1,-1,-1,999,-1,5,-1,-1,-1,-1,,1000,1,1,4,FEW 3   SCT 4   BKN 6   FEW 20 CB,-1,0,-1,1,1007,RJSY 101200Z VRB05KT 1000 R09/P1800D -SHSN FEW003 SCT004     BKN006 FEW020CB M00/M01 Q1007 RMK 1ST003 4ST004 6ST006           1CB020 A2976 CB 25KM N MOV E=,- SN SH
20180110_220000.002,0,RJSY,,,,0,20180110220000,-1,-1,-1,-1,40,-1,6,-1,-1,350,70,,600,1,1,3,FEW 2   SCT 3   BKN 5,-1,2,-1,3,1010,RJSY 102200Z 04006KT 350V070 0600 R09/1500VP1800D SHSN FEW002     SCT003 BKN005 M02/M03 Q1010 RMK 1ST002 3ST003 7ST005           A2984=,SN SH
20180110_230000.003,0,RJSY,,,,0,20180110230000,-1,-1,-1,-1,60,-1,8,-1,-1,30,90,,800,1,1,3,FEW 3   SCT 5   BKN 8,-1,2,-1,4,1011,RJSY 102300Z 06008KT 030V090 0800 R09/P1800N SHSN FEW003     SCT005 BKN008 M02/M04 Q1011 RMK 1ST003 4ST005 6ST008           A2987=,SN SH
20180111_000000.002,0,RJSY,,,,0,20180111000000,-1,-1,-1,-1,120,-1,6,-1,-1,-1,-1,,600,1,1,3,FEW 2   SCT 4   BKN 7,-1,2,-1,4,1012,RJSY 110000Z 12006KT 0600 R09/P1800N SHSN FEW002 SCT004 BKN007     M02/M04 Q1012 RMK 1ST002 4ST004 6ST007 A2989=,SN SH
20180111_010000.002,0,RJSY,,,,0,20180111010000,-1,-1,-1,-1,110,-1,6,-1,-1,-1,-1,,1200,1,1,3,FEW 3   SCT 5   BKN 8,-1,2,-1,4,1012,RJSY 110100Z 11006KT 1200 R09/P1800N -SHSN FEW003 SCT005     BKN008 M02/M04 Q1012 RMK 1ST003 3ST005 6ST008 A2989=,- SN SH
20180111_020000.002,0,RJSY,,,,0,20180111020000,-1,-1,-1,-1,110,-1,5,-1,-1,-1,-1,,2000,0,1,3,FEW 4   SCT 6   BKN 10,-1,2,-1,4,1012,RJSY 110200Z 11005KT 2000 -SHSN FEW004 SCT006 BKN010 M02/M04     Q1012 RMK 1ST004 3ST006 6ST010 A2990=,- SN SH
20180111_030000.001,0,RJSY,,,,0,20180111030000,-1,-1,-1,-1,140,-1,5,-1,-1,-1,-1,,300,1,1,1,VV 4,-1,2,-1,4,1012,RJSY 110300Z 14005KT 0300 R09/0900VP1800D SHSN VV004 M02/M04     Q1012 RMK A2990=,SN SH
20180111_040000.002,0,RJSY,,,,0,20180111040000,-1,-1,-1,-1,110,-1,3,-1,-1,-1,-1,,400,1,1,1,VV 5,-1,2,-1,4,1012,RJSY 110400Z 11003KT 0400 R09/1000V1500N SHSN VV005 M02/M04     Q1012 RMK A2990=,SN SH
20180111_050000.002,0,RJSY,,,,0,20180111050000,-1,-1,-1,-1,999,-1,1,-1,-1,-1,-1,,1500,1,1,3,FEW 2   SCT 7   BKN 10,-1,2,-1,4,1013,RJSY 110500Z VRB01KT 1500 R09/P1800N -SHSN FEW002 SCT007     BKN010 M02/M04 Q1013 RMK 1ST002 4ST007 7ST010 A2992=,- SN SH
20180111_060000.002,0,RJSY,,,,0,20180111060000,-1,-1,-1,-1,60,-1,4,-1,-1,360,100,,1500,1,1,3,FEW 3   SCT 6   BKN 15,-1,2,-1,4,1013,RJSY 110600Z 06004KT 360V100 1500 R09/P1800N -SHSN FEW003     SCT006 BKN015 M02/M04 Q1013 RMK 1ST003 4ST006 7CU015           A2992=,- SN SH
20180111_070000.002,0,RJSY,,,,0,20180111070000,-1,-1,-1,-1,999,-1,4,-1,-1,-1,-1,,6000,0,1,3,FEW 10   SCT 25   BKN 30,-1,2,-1,5,1014,RJSY 110700Z VRB04KT 6000 -SHSN FEW010 SCT025 BKN030 M02/M05     Q1014 RMK 1ST010 3CU025 7CU030 A2995=,- SN SH
20180111_080000.002,0,RJSY,,,,0,20180111080000,-1,-1,-1,-1,999,-1,1,-1,-1,-1,-1,,9999,0,1,3,FEW 10   SCT 20   BKN 30,-1,2,-1,6,1015,RJSY 110800Z VRB01KT 9999 -SHSN FEW010 SCT020 BKN030 M02/M06     Q1015 RMK 1ST010 3CU020 7CU030 A2997=,- SN SH
20180111_090000.002,0,RJSY,,,,0,20180111090000,-1,-1,-1,-1,10,-1,4,-1,-1,320,50,,9999,0,1,3,FEW 25   SCT 35   BKN 50,-1,2,-1,5,1015,RJSY 110900Z 01004KT 320V050 9999 -SHSN FEW025 SCT035 BKN050     M02/M05 Q1015 RMK 1CU025 3CU035 6CU050 A2997=,- SN SH
20180111_100000.002,0,RJSY,,,,0,20180111100000,-1,-1,-1,-1,999,-1,2,-1,-1,-1,-1,,9999,0,0,3,FEW 30   SCT 40   BKN 50,-1,3,-1,5,1015,RJSY 111000Z VRB02KT 9999 FEW030 SCT040 BKN050 M03/M05 Q1015     RMK 1CU030 3CU040 7CU050 A3000=,
20180111_110000.002,0,RJSY,,,,0,20180111110000,-1,-1,-1,-1,999,-1,2,-1,-1,-1,-1,,9999,0,0,3,FEW 30   SCT 40   BKN 50,-1,3,-1,6,1015,RJSY 111100Z VRB02KT 9999 FEW030 SCT040 BKN050 M03/M06 Q1015     RMK 1CU030 3CU040 7CU050 A3000=,
20180111_120000.002,0,RJSY,,,,0,20180111120000,-1,-1,-1,-1,999,-1,1,-1,-1,-1,-1,,5000,0,1,3,FEW 10   SCT 20   BKN 30,-1,3,-1,5,1016,RJSY 111200Z VRB01KT 5000 -SHSN FEW010 SCT020 BKN030 M03/M05     Q1016 RMK 1ST010 3CU020 6CU030 A3002=,- SN SH
20180111_220000.002,0,RJSY,,,,0,20180111220000,-1,-1,-1,-1,80,-1,8,-1,-1,-1,-1,,9999,0,1,2,FEW 3   SCT 40,-1,6,-1,8,1018,RJSY 112200Z 08008KT 9999 -SHSN FEW003 SCT040 M06/M08 Q1018     RMK 1ST003 4CU040 A3007=,- SN SH
20180111_230000.002,0,RJSY,,,,0,20180111230000,-1,-1,-1,-1,90,-1,5,-1,-1,-1,-1,,9999,0,0,2,FEW 20   SCT 40,-1,7,-1,8,1019,RJSY 112300Z 09005KT 9999 FEW020 SCT040 M07/M08 Q1019 RMK     1CU020 3CU040 A3010=,
20180112_000000.002,0,RJSY,,,,0,20180112000000,-1,-1,-1,-1,80,-1,8,-1,-1,-1,-1,,9999,0,0,3,FEW 20   SCT 50   BKN 140,-1,5,-1,7,1019,RJSY 120000Z 08008KT 9999 FEW020 SCT050 BKN140 M05/M07 Q1019     RMK 1CU020 3CU050 5AC140 A3011=,
20180112_010000.003,0,RJSY,,,,0,20180112010000,-1,-1,-1,-1,70,-1,6,-1,-1,-1,-1,,9999,0,1,3,FEW 10   SCT 30   BKN 40,-1,4,-1,6,1020,RJSY 120100Z 07006KT 9999 -SHSN FEW010 SCT030 BKN040 M04/M06     Q1020 RMK 1ST010 3CU030 6CU040 A3012=,- SN SH
20180112_020000.002,0,RJSY,,,,0,20180112020000,-1,-1,-1,-1,999,-1,7,-1,-1,-1,-1,,600,1,1,3,FEW 2   SCT 5   BKN 10,-1,2,-1,4,1020,RJSY 120200Z VRB07KT 0600 R09/1100VP1800D SHSN FEW002 SCT005     BKN010 M02/M04 Q1020 RMK 1ST002 3ST005 6ST010 A3013=,SN SH
20180112_030000.002,0,RJSY,,,,0,20180112030000,-1,-1,-1,-1,270,-1,13,-1,-1,230,310,,9999,0,1,3,FEW 8   SCT 15   BKN 30,1,0,-1,4,1019,RJSY 120300Z 27013KT 230V310 9999 -SHSN FEW008 SCT015 BKN030     00/M04 Q1019 RMK 1ST008 3CU015 6CU030 A3011=,- SN SH
20180112_040000.002,0,RJSY,,,,0,20180112040000,-1,-1,-1,-1,300,-1,9,-1,-1,280,340,,9999,0,1,3,FEW 10   SCT 30   BKN 40,1,1,-1,4,1019,RJSY 120400Z 30009KT 280V340 9999 -SHSN FEW010 SCT030 BKN040     01/M04 Q1019 RMK 1ST010 3CU030 6CU040 A3010=,- SN SH
20180112_050000.003,0,RJSY,,,,0,20180112050000,-1,-1,-1,-1,290,-1,14,-1,-1,-1,-1,,9999,0,1,3,FEW 10   SCT 30   BKN 50,1,1,-1,5,1019,RJSY 120500Z 29014KT 9999 -SHSN FEW010 SCT030 BKN050 01/M05     Q1019 RMK 1ST010 3CU030 6CU050 A3010=,- SN SH
20180112_060000.002,0,RJSY,,,,0,20180112060000,-1,-1,-1,-1,300,-1,9,-1,-1,270,330,,9999,0,1,3,FEW 10   SCT 25   BKN 50,1,1,-1,3,1019,RJSY 120600Z 30009KT 270V330 9999 -SHSN FEW010 SCT025 BKN050     01/M03 Q1019 RMK 1ST010 3CU025 6CU050 A3012=,- SN SH
20180112_070000.003,0,RJSY,,,,0,20180112070000,-1,-1,-1,-1,280,-1,14,-1,-1,-1,-1,,9999,0,1,3,FEW 10   SCT 30   BKN 50,1,1,-1,7,1020,RJSY 120700Z 28014KT 9999 -SHSN FEW010 SCT030 BKN050 01/M07     Q1020 RMK 1ST010 3CU030 5CU050 A3013=,- SN SH
20180112_080000.002,0,RJSY,,,,0,20180112080000,-1,-1,-1,-1,290,-1,12,-1,-1,270,330,,9999,0,1,3,FEW 15   SCT 35   BKN 50,1,1,-1,6,1020,RJSY 120800Z 29012KT 270V330 9999 -SHSN FEW015 SCT035 BKN050     01/M06 Q1020 RMK 1CU015 3CU035 6CU050 A3013=,- SN SH
20180112_090000.002,0,RJSY,,,,0,20180112090000,-1,-1,-1,-1,270,-1,14,-1,-1,240,320,,9999,0,1,3,FEW 15   SCT 35   BKN 50,1,1,-1,5,1020,RJSY 120900Z 27014KT 240V320 9999 -SHSN FEW015 SCT035 BKN050     01/M05 Q1020 RMK 1CU015 4CU035 6CU050 A3015=,- SN SH
20180112_100000.002,0,RJSY,,,,0,20180112100000,-1,-1,-1,-1,280,-1,14,-1,-1,260,320,,9999,0,1,3,FEW 15   SCT 40   BKN 50,1,1,-1,6,1021,RJSY 121000Z 28014KT 260V320 9999 -SHSN FEW015 SCT040 BKN050     01/M06 Q1021 RMK 1CU015 3CU040 5CU050 A3017=,- SN SH
20180112_110000.002,0,RJSY,,,,0,20180112110000,-1,-1,-1,-1,270,-1,12,-1,-1,-1,-1,,9999,0,1,3,FEW 15   SCT 40   BKN 50,1,1,-1,7,1022,RJSY 121100Z 27012KT 9999 -SHSN FEW015 SCT040 BKN050 01/M07     Q1022 RMK 1CU015 3CU040 5CU050 A3019=,- SN SH
20180112_120000.002,0,RJSY,,,,0,20180112120000,-1,-1,-1,-1,280,-1,12,-1,-1,-1,-1,,9999,0,1,3,FEW 15   SCT 40   BKN 50,1,1,-1,7,1022,RJSY 121200Z 28012KT 9999 -SHSN FEW015 SCT040 BKN050 01/M07     Q1022 RMK 1CU015 3CU040 6CU050 A3020=,- SN SH
20180112_220000.002,0,RJSY,,,,0,20180112220000,-1,-1,-1,-1,999,-1,3,-1,-1,-1,-1,,9999,0,1,3,FEW 5   BKN 30   BKN 50,-1,1,-1,4,1022,RJSY 122200Z VRB03KT 9999 -SHSN FEW005 BKN030 BKN050 M01/M04     Q1022 RMK 1ST005 5CU030 7CU050 A3020=,- SN SH
20180112_230000.002,0,RJSY,,,,0,20180112230000,-1,-1,-1,-1,120,-1,4,-1,-1,70,170,,9999,0,1,3,FEW 5   SCT 30   BKN 50,-1,1,-1,4,1023,RJSY 122300Z 12004KT 070V170 9999 -SHSN FEW005 SCT030 BKN050     M01/M04 Q1023 RMK 1ST005 3CU030 6CU050 A3021=,- SN SH
20180113_000000.002,0,RJSY,,,,0,20180113000000,-1,-1,-1,-1,100,-1,3,-1,-1,30,150,,9999,0,1,3,FEW 5   SCT 20   BKN 30,-1,1,-1,3,1023,RJSY 130000Z 10003KT 030V150 9999 -SHSN FEW005 SCT020 BKN030     M01/M03 Q1023 RMK 1ST005 3CU020 6CU030 A3022=,- SN SH
20180113_010000.003,0,RJSY,,,,0,20180113010000,-1,-1,-1,-1,160,-1,5,-1,-1,120,190,,9999,0,1,3,FEW 5   SCT 30   BKN 50,-1,1,-1,3,1023,RJSY 130100Z 16005KT 120V190 9999 -SHSN FEW005 SCT030 BKN050     M01/M03 Q1023 RMK 1ST005 3CU030 7CU050 A3021=,- SN SH
20180113_020000.002,0,RJSY,,,,0,20180113020000,-1,-1,-1,-1,160,-1,7,-1,-1,-1,-1,,4000,0,1,3,FEW 5   SCT 20   BKN 30,-1,0,-1,2,1022,RJSY 130200Z 16007KT 4000 -SHSN FEW005 SCT020 BKN030 M00/M02     Q1022 RMK 1ST005 3CU020 6CU030 A3020=,- SN SH
20180113_030000.002,0,RJSY,,,,0,20180113030000,-1,-1,-1,-1,160,-1,5,-1,-1,120,190,,4500,0,1,3,FEW 5   SCT 15   BKN 30,-1,1,-1,2,1022,RJSY 130300Z 16005KT 120V190 4500 -SHSN FEW005 SCT015 BKN030     M01/M02 Q1022 RMK 1ST005 3CU015 6CU030 A3019=,- SN SH
20180113_040000.002,0,RJSY,,,,0,20180113040000,-1,-1,-1,-1,150,-1,6,-1,-1,-1,-1,,9999,0,1,3,FEW 5   SCT 30   BKN 40,-1,0,-1,2,1022,RJSY 130400Z 15006KT 9999 -SHSN FEW005 SCT030 BKN040 M00/M02     Q1022 RMK 1ST005 3CU030 7CU040 A3018=,- SN SH
20180113_050000.002,0,RJSY,,,,0,20180113050000,-1,-1,-1,-1,160,-1,5,-1,-1,-1,-1,,3500,0,1,3,FEW 5   SCT 10   BKN 20,-1,0,-1,2,1022,RJSY 130500Z 16005KT 3500 -SHSN FEW005 SCT010 BKN020 M00/M02     Q1022 RMK 1ST005 3ST010 6CU020 A3018=,- SN SH
20180113_060000.002,0,RJSY,,,,0,20180113060000,-1,-1,-1,-1,110,-1,1,-1,-1,-1,-1,,4000,0,1,3,FEW 5   SCT 15   BKN 25,-1,1,-1,2,1022,RJSY 130600Z 11001KT 4000 -SHSN FEW005 SCT015 BKN025 M01/M02     Q1022 RMK 1ST005 3CU015 6CU025 A3020=,- SN SH
20180113_070000.002,0,RJSY,,,,0,20180113070000,-1,-1,-1,-1,310,-1,4,-1,-1,260,20,,4000,0,1,3,FEW 3   SCT 10   BKN 15,-1,1,-1,3,1023,RJSY 130700Z 31004KT 260V020 4000 -SHSN FEW003 SCT010 BKN015     M01/M03 Q1023 RMK 1ST003 3ST010 5CU015 A3021=,- SN SH
20180113_080000.002,0,RJSY,,,,0,20180113080000,-1,-1,-1,-1,60,-1,6,-1,-1,30,100,,4000,0,1,3,FEW 4   SCT 15   BKN 25,-1,1,-1,3,1023,RJSY 130800Z 06006KT 030V100 4000 -SHSN FEW004 SCT015 BKN025     M01/M03 Q1023 RMK 1ST004 3CU015 6CU025 A3023=,- SN SH
20180113_090000.002,0,RJSY,,,,0,20180113090000,-1,-1,-1,-1,150,-1,4,-1,-1,-1,-1,,9999,0,1,3,FEW 5   SCT 10   BKN 30,-1,1,-1,3,1024,RJSY 130900Z 15004KT 9999 -SHSN FEW005 SCT010 BKN030 M01/M03     Q1024 RMK 1ST005 3ST010 5CU030 A3025=,- SN SH
20180113_100000.002,0,RJSY,,,,0,20180113100000,-1,-1,-1,-1,160,-1,6,-1,-1,-1,-1,,9999,0,1,3,FEW 4   SCT 20   BKN 30,-1,1,-1,3,1024,RJSY 131000Z 16006KT 9999 -SHSN FEW004 SCT020 BKN030 M01/M03     Q1024 RMK 1ST004 3CU020 5CU030 A3025=,- SN SH
20180113_110000.002,0,RJSY,,,,0,20180113110000,-1,-1,-1,-1,150,-1,6,-1,-1,-1,-1,,2500,0,1,3,FEW 4   SCT 10   BKN 15,-1,1,-1,3,1024,RJSY 131100Z 15006KT 2500 -SHSN FEW004 SCT010 BKN015 M01/M03     Q1024 RMK 1ST004 3ST010 7CU015 A3026=,- SN SH
20180113_120000.002,0,RJSY,,,,0,20180113120000,-1,-1,-1,-1,180,-1,6,-1,-1,-1,-1,,5000,0,1,3,FEW 5   SCT 20   BKN 40,-1,1,-1,3,1024,RJSY 131200Z 18006KT 5000 -SHSN FEW005 SCT020 BKN040 M01/M03     Q1024 RMK 1ST005 3CU020 6CU040 A3026=,- SN SH
20180113_220000.002,0,RJSY,,,,0,20180113220000,-1,-1,-1,-1,320,-1,9,-1,-1,290,10,,9999,0,0,3,FEW 30   SCT 40   BKN 50,-1,0,-1,8,1029,RJSY 132200Z 32009KT 290V010 9999 FEW030 SCT040 BKN050 M00/M08     Q1029 RMK 1CU030 4CU040 7CU050 A3041=,
20180113_230000.002,0,RJSY,,,,0,20180113230000,-1,-1,-1,-1,310,-1,9,-1,-1,270,360,,9999,0,1,3,FEW 25   SCT 40   BKN 50,1,0,-1,8,1030,RJSY 132300Z 31009KT 270V360 9999 -SHSN FEW025 SCT040 BKN050     00/M08 Q1030 RMK 1CU025 3CU040 7CU050 A3042=,- SN SH
20180114_000000.003,0,RJSY,,,,0,20180114000000,-1,-1,-1,-1,330,-1,6,-1,-1,300,10,,9999,0,1,3,FEW 25   SCT 35   BKN 45,1,0,-1,7,1030,RJSY 140000Z 33006KT 300V010 9999 -SHSN FEW025 SCT035 BKN045     00/M07 Q1030 RMK 1CU025 4CU035 7CU045 A3044=,- SN SH
20180114_010000.002,0,RJSY,,,,0,20180114010000,-1,-1,-1,-1,320,-1,7,-1,-1,270,360,,9999,0,1,3,FEW 25   SCT 40   BKN 50,1,1,-1,7,1031,RJSY 140100Z 32007KT 270V360 9999 -SHSN FEW025 SCT040 BKN050     01/M07 Q1031 RMK 1CU025 3CU040 7CU050 A3046=,- SN SH
20180114_020000.002,0,RJSY,,,,0,20180114020000,-1,-1,-1,-1,330,-1,4,-1,-1,280,20,,9999,0,1,3,FEW 25   SCT 40   BKN 50,1,1,-1,7,1031,RJSY 140200Z 33004KT 280V020 9999 VCSH FEW025 SCT040 BKN050     01/M07 Q1031 RMK 1CU025 3CU040 6CU050 A3045=,VC SH
20180114_030000.002,0,RJSY,,,,0,20180114030000,-1,-1,-1,-1,300,-1,4,-1,-1,260,10,,9999,0,0,3,FEW 30   SCT 35   BKN 50,1,1,-1,6,1030,RJSY 140300Z 30004KT 260V010 9999 FEW030 SCT035 BKN050 01/M06     Q1030 RMK 1CU030 3CU035 7CU050 A3044=,
20180114_040000.002,0,RJSY,,,,0,20180114040000,-1,-1,-1,-1,310,-1,5,-1,-1,270,360,,9999,0,0,3,FEW 30   SCT 40   BKN 50,1,1,-1,7,1030,RJSY 140400Z 31005KT 270V360 9999 FEW030 SCT040 BKN050 01/M07     Q1030 RMK 1CU030 3CU040 6CU050 A3042=,
20180114_050000.002,0,RJSY,,,,0,20180114050000,-1,-1,-1,-1,290,-1,6,-1,-1,260,330,,9999,0,0,2,FEW 30   BKN 45,1,2,-1,8,1030,RJSY 140500Z 29006KT 260V330 9999 FEW030 BKN045 02/M08 Q1030     RMK 1CU030 7CU045 A3043=,
20180114_060000.003,0,RJSY,,,,0,20180114060000,-1,-1,-1,-1,260,-1,6,-1,-1,-1,-1,,9999,0,0,2,FEW 30   BKN 45,1,2,-1,7,1031,RJSY 140600Z 26006KT 9999 FEW030 BKN045 02/M07 Q1031 RMK     1CU030 6CU045 A3044=,
20180114_070000.002,0,RJSY,,,,0,20180114070000,-1,-1,-1,-1,250,-1,6,-1,-1,220,290,,9999,0,0,2,FEW 30   SCT 45,1,1,-1,8,1030,RJSY 140700Z 25006KT 220V290 9999 FEW030 SCT045 01/M08 Q1030     RMK 1CU030 3CU045 A3044=,
20180114_080000.002,0,RJSY,,,,0,20180114080000,-1,-1,-1,-1,180,-1,5,-1,-1,140,230,,9999,0,0,2,SCT 40   BKN 50,-1,1,-1,7,1030,RJSY 140800Z 18005KT 140V230 9999 SCT040 BKN050 M01/M07 Q1030     RMK 4CU040 6CU050 A3044=,
20180114_090000.002,0,RJSY,,,,0,20180114090000,-1,-1,-1,-1,130,-1,4,-1,-1,100,160,,9999,0,0,2,FEW 35   BKN 45,-1,0,-1,5,1030,RJSY 140900Z 13004KT 100V160 9999 FEW035 BKN045 M00/M05 Q1030     RMK 1CU035 6CU045 A3043=,
20180114_100000.002,0,RJSY,,,,0,20180114100000,-1,-1,-1,-1,100,-1,4,-1,-1,-1,-1,,9999,0,0,2,FEW 35   BKN 40,-1,3,-1,6,1029,RJSY 141000Z 10004KT 9999 FEW035 BKN040 M03/M06 Q1029 RMK     1CU035 7CU040 A3040=,
20180114_110000.002,0,RJSY,,,,0,20180114110000,-1,-1,-1,-1,90,-1,8,-1,-1,-1,-1,,9999,0,0,1,BKN 40,-1,3,-1,5,1029,RJSY 141100Z 09008KT 9999 BKN040 M03/M05 Q1029 RMK 6CU040     A3040=,
20180114_120000.002,0,RJSY,,,,0,20180114120000,-1,-1,-1,-1,120,-1,6,-1,-1,-1,-1,,9999,0,0,1,BKN 40,-1,3,-1,6,1029,RJSY 141200Z 12006KT 9999 BKN040 M03/M06 Q1029 RMK 6CU040     A3039=,
20180114_220000.002,0,RJSY,,,,0,20180114220000,-1,-1,-1,-1,100,-1,6,-1,-1,-1,-1,,9999,0,0,2,FEW 10   SCT 50,-1,5,-1,8,1024,RJSY 142200Z 10006KT 9999 FEW010 SCT050 M05/M08 Q1024 RMK     1ST010 4CU050 A3026=,
20180114_230000.002,0,RJSY,,,,0,20180114230000,-1,-1,-1,-1,90,-1,8,-1,-1,-1,-1,,9999,0,0,2,FEW 10   SCT 50,-1,5,-1,8,1023,RJSY 142300Z 09008KT 9999 FEW010 SCT050 M05/M08 Q1023 RMK     1ST010 3CU050 A3023=,
20180115_000000.002,0,RJSY,,,,0,20180115000000,-1,-1,-1,-1,150,-1,5,-1,-1,-1,-1,,9999,0,0,3,FEW 10   SCT 40   BKN 50,-1,1,-1,6,1023,RJSY 150000Z 15005KT 9999 FEW010 SCT040 BKN050 M01/M06 Q1023     RMK 1ST010 3CU040 6CU050 A3023=,
20180115_010000.002,0,RJSY,,,,0,20180115010000,-1,-1,-1,-1,130,-1,5,-1,-1,90,190,,9999,0,0,3,FEW 30   SCT 40   BKN 70,-1,1,-1,5,1023,RJSY 150100Z 13005KT 090V190 9999 FEW030 SCT040 BKN070 M01/M05     Q1023 RMK 1CU030 3CU040 7AC070 A3021=,
20180115_020000.002,0,RJSY,,,,0,20180115020000,-1,-1,-1,-1,170,-1,7,-1,-1,130,210,,9999,0,0,2,FEW 40   SCT 160,1,5,-1,2,1021,RJSY 150200Z 17007KT 130V210 9999 FEW040 SCT160 05/M02 Q1021     RMK 1CU040 4AC160 A3016=,
20180115_030000.002,0,RJSY,,,,0,20180115030000,-1,-1,-1,-1,160,-1,6,-1,-1,130,200,,9999,0,0,2,FEW 30   BKN 50,1,6,-1,2,1019,RJSY 150300Z 16006KT 130V200 9999 FEW030 BKN050 06/M02 Q1019     RMK 1CU030 6CU050 A3010=,
20180115_040000.002,0,RJSY,,,,0,20180115040000,-1,-1,-1,-1,210,-1,13,-1,-1,170,240,,9999,0,1,2,FEW 30   BKN 50,1,7,-1,2,1018,RJSY 150400Z 21013KT 170V240 9999 -SHRA FEW030 BKN050 07/M02     Q1018 RMK 1CU030 6CU050 A3006=,- RA SH
20180115_050000.002,0,RJSY,,,,0,20180115050000,-1,-1,-1,-1,180,-1,5,-1,-1,150,210,,9999,0,0,2,FEW 30   BKN 50,1,6,-1,1,1017,RJSY 150500Z 18005KT 150V210 9999 FEW030 BKN050 06/M01 Q1017     RMK 1CU030 6CU050 A3003=,
20180115_060000.002,0,RJSY,,,,0,20180115060000,-1,-1,-1,-1,190,-1,8,-1,20,140,230,,9999,0,1,3,FEW 30   SCT 50   BKN 130,1,7,-1,1,1016,RJSY 150600Z 19008G20KT 140V230 9999 -SHRA FEW030 SCT050     BKN130 07/M01 Q1016 RMK 1CU030 3CU050 6AC130 A3001=,- RA SH
20180115_070000.003,0,RJSY,,,,0,20180115070000,-1,-1,-1,-1,210,-1,11,-1,-1,170,240,,9999,0,1,3,FEW 20   SCT 30   BKN 40,1,7,1,0,1016,RJSY 150700Z 21011KT 170V240 9999 -SHRA FEW020 SCT030 BKN040     07/00 Q1016 RMK 1CU020 3CU030 6CU040 A3001=,- RA SH
20180115_080000.002,0,RJSY,,,,0,20180115080000,-1,-1,-1,-1,230,-1,22,-1,35,-1,-1,,6000,0,1,3,FEW 10   SCT 20   BKN 30,1,6,1,2,1016,RJSY 150800Z 23022G35KT 6000 -SHRA FEW010 SCT020 BKN030 06/02     Q1016 RMK 1ST010 4CU020 7CU030 A3003=,- RA SH
20180115_090000.002,0,RJSY,,,,0,20180115090000,-1,-1,-1,-1,240,-1,21,-1,-1,-1,-1,,6000,0,1,3,FEW 6   SCT 15   BKN 25,1,6,1,3,1016,RJSY 150900Z 24021KT 6000 -SHRA FEW006 SCT015 BKN025 06/03     Q1016 RMK 1ST006 3CU015 7CU025 A3001=,- RA SH
20180115_100000.002,0,RJSY,,,,0,20180115100000,-1,-1,-1,-1,270,-1,18,-1,29,-1,-1,,5000,0,2,3,FEW 6   SCT 15   BKN 25,1,6,1,4,1016,RJSY 151000Z 27018G29KT 5000 SHRA BR FEW006 SCT015 BKN025     06/04 Q1016 RMK 1ST006 3CU015 7CU025 A3001=,RA SH; BR
20180115_110000.002,0,RJSY,,,,0,20180115110000,-1,-1,-1,-1,300,-1,18,-1,29,-1,-1,,9999,0,0,3,FEW 10   SCT 20   BKN 30,1,6,1,3,1017,RJSY 151100Z 30018G29KT 9999 FEW010 SCT020 BKN030 06/03 Q1017     RMK 1ST010 3CU020 6CU030 A3003=,
20180115_120000.002,0,RJSY,,,,0,20180115120000,-1,-1,-1,-1,290,-1,17,-1,30,-1,-1,,9999,0,0,3,FEW 10   SCT 30   BKN 40,1,7,1,0,1017,RJSY 151200Z 29017G30KT 9999 FEW010 SCT030 BKN040 07/00 Q1017     RMK 1ST010 3CU030 6CU040 A3005=,
20180115_220000.002,0,RJSY,,,,0,20180115220000,-1,-1,-1,-1,270,-1,9,-1,-1,250,310,,9999,0,0,3,FEW 40   BKN 120   BKN 140,1,5,-1,3,1023,RJSY 152200Z 27009KT 250V310 9999 FEW040 BKN120 BKN140 05/M03     Q1023 RMK 1CU040 5AC120 7AC140 A3022=,
20180115_230000.002,0,RJSY,,,,0,20180115230000,-1,-1,-1,-1,270,-1,6,-1,-1,250,320,,9999,0,0,3,FEW 40   SCT 140   BKN 160,1,5,-1,3,1023,RJSY 152300Z 27006KT 250V320 9999 FEW040 SCT140 BKN160 05/M03     Q1023 RMK 1CU040 4AC140 7AC160 A3021=,
20180116_000000.002,0,RJSY,,,,0,20180116000000,-1,-1,-1,-1,270,-1,6,-1,-1,230,290,,9999,0,0,1,FEW 40,1,5,-1,3,1022,RJSY 160000Z 27006KT 230V290 9999 FEW040 05/M03 Q1022 RMK     1CU040 A3021=,
20180116_010000.002,0,RJSY,,,,0,20180116010000,-1,-1,-1,-1,260,-1,7,-1,-1,-1,-1,,9999,0,0,1,FEW 40,1,6,-1,3,1023,RJSY 160100Z 26007KT 9999 FEW040 06/M03 Q1023 RMK 1CU040     A3021=,
20180116_020000.002,0,RJSY,,,,0,20180116020000,-1,-1,-1,-1,80,-1,5,-1,-1,-1,-1,,9999,0,0,2,FEW 40   BKN -9999,1,3,-1,3,1022,RJSY 160200Z 08005KT 9999 FEW040 BKN/// 03/M03 Q1022 RMK     1CU040 A3018=,
20180116_030000.002,0,RJSY,,,,0,20180116030000,-1,-1,-1,-1,80,-1,8,-1,-1,-1,-1,,9999,0,0,2,FEW 40   BKN -9999,1,4,-1,3,1020,RJSY 160300Z 08008KT 9999 FEW040 BKN/// 04/M03 Q1020 RMK     1CU040 A3014=,
20180116_040000.002,0,RJSY,,,,0,20180116040000,-1,-1,-1,-1,80,-1,6,-1,-1,-1,-1,,9999,0,0,3,FEW 40   BKN 150   BKN 170,1,4,-1,2,1019,RJSY 160400Z 08006KT 9999 FEW040 BKN150 BKN170 04/M02 Q1019     RMK 1CU040 5AC150 7AC170 A3012=,
20180116_050000.002,0,RJSY,,,,0,20180116050000,-1,-1,-1,-1,80,-1,7,-1,-1,-1,-1,,9999,0,0,3,FEW 40   SCT 120   BKN 150,1,4,-1,3,1019,RJSY 160500Z 08007KT 9999 FEW040 SCT120 BKN150 04/M03 Q1019     RMK 1CU040 4AC120 7AC150 A3009=,
20180116_060000.002,0,RJSY,,,,0,20180116060000,-1,-1,-1,-1,90,-1,7,-1,-1,-1,-1,,9999,0,0,3,FEW 40   SCT 100   BKN 120,1,4,-1,2,1018,RJSY 160600Z 09007KT 9999 FEW040 SCT100 BKN120 04/M02 Q1018     RMK 1CU040 3AC100 7AC120 A3007=,
20180116_070000.002,0,RJSY,,,,0,20180116070000,-1,-1,-1,-1,110,-1,5,-1,-1,-1,-1,,9999,0,0,3,FEW 30   SCT 50   BKN 70,1,4,-1,2,1017,RJSY 160700Z 11005KT 9999 FEW030 SCT050 BKN070 04/M02 Q1017     RMK 1CU030 3SC050 6AC070 A3005=,
20180116_080000.002,0,RJSY,,,,0,20180116080000,-1,-1,-1,-1,100,-1,6,-1,-1,-1,-1,,9999,0,0,3,FEW 30   BKN 50   BKN 70,1,3,-1,1,1016,RJSY 160800Z 10006KT 9999 FEW030 BKN050 BKN070 03/M01 Q1016     RMK 1CU030 5SC050 7AC070 A3001=,
20180116_090000.002,0,RJSY,,,,0,20180116090000,-1,-1,-1,-1,100,-1,7,-1,-1,70,140,,9999,0,0,3,FEW 30   BKN 50   BKN 70,1,3,-1,1,1015,RJSY 160900Z 10007KT 070V140 9999 FEW030 BKN050 BKN070 03/M01     Q1015 RMK 1CU030 5SC050 7AC070 A2998=,
20180116_100000.002,0,RJSY,,,,0,20180116100000,-1,-1,-1,-1,90,-1,6,-1,-1,60,190,,9999,0,0,3,FEW 20   SCT 40   BKN 50,1,3,-1,2,1014,RJSY 161000Z 09006KT 060V190 9999 FEW020 SCT040 BKN050 03/M02     Q1014 RMK 1SC020 3SC040 6SC050 A2995=,
20180116_110000.004,0,RJSY,,,,0,20180116110000,-1,-1,-1,-1,100,-1,9,-1,-1,-1,-1,,9999,0,1,3,FEW 20   SCT 40   BKN 50,1,3,-1,1,1013,RJSY 161100Z 10009KT 9999 -RA FEW020 SCT040 BKN050 03/M01     Q1013 RMK 1SC020 3SC040 7SC050 A2994=,- RA
20180116_120000.002,0,RJSY,,,,0,20180116120000,-1,-1,-1,-1,240,-1,20,-1,30,-1,-1,,8000,0,1,3,FEW 10   SCT 30   BKN 40,1,8,1,4,1015,RJSY 161200Z 24020G30KT 8000 -RA FEW010 SCT030 BKN040 08/04     Q1015 RMK 1ST010 3SC030 7SC040 A2997=,- RA
20180116_220000.002,0,RJSY,,,,0,20180116220000,-1,-1,-1,-1,130,-1,3,-1,-1,-1,-1,,8000,0,1,3,FEW 10   SCT 20   BKN 30,1,4,1,3,1017,RJSY 162200Z 13003KT 8000 -SHRA FEW010 SCT020 BKN030 04/03     Q1017 RMK 1ST010 4CU020 7CU030 A3006=,- RA SH
20180116_230000.002,0,RJSY,,,,0,20180116230000,-1,-1,-1,-1,160,-1,5,-1,-1,-1,-1,,9999,0,1,3,FEW 6   SCT 10   BKN 20,1,4,1,3,1017,RJSY 162300Z 16005KT 9999 -SHRA FEW006 SCT010 BKN020 04/03     Q1017 RMK 1ST006 3ST010 6CU020 A3006=,- RA SH
20180117_000000.002,0,RJSY,,,,0,20180117000000,-1,-1,-1,-1,150,-1,4,-1,-1,-1,-1,,9999,0,0,2,FEW 15   BKN 25,1,5,1,3,1018,RJSY 170000Z 15004KT 9999 FEW015 BKN025 05/03 Q1018 RMK 1CU015     7CU025 A3007=,
20180117_010000.002,0,RJSY,,,,0,20180117010000,-1,-1,-1,-1,100,-1,4,-1,-1,-1,-1,,9999,0,0,3,FEW 3   SCT 20   BKN 30,1,4,1,3,1017,RJSY 170100Z 10004KT 9999 FEW003 SCT020 BKN030 04/03 Q1017 RMK     1ST003 3CU020 7CU030 A3005=,
20180117_020000.004,0,RJSY,,,,0,20180117020000,-1,-1,-1,-1,100,-1,5,-1,-1,60,120,,9999,0,0,3,FEW 5   SCT 30   BKN 100,1,5,1,3,1017,RJSY 170200Z 10005KT 060V120 9999 FEW005 SCT030 BKN100 05/03     Q1017 RMK 1ST005 3CU030 6AC100 A3004=,
20180117_030000.002,0,RJSY,,,,0,20180117030000,-1,-1,-1,-1,80,-1,5,-1,-1,-1,-1,,9999,0,0,3,FEW 5   SCT 50   BKN 100,1,5,1,3,1016,RJSY 170300Z 08005KT 9999 FEW005 SCT050 BKN100 05/03 Q1016 RMK     1ST005 4SC050 7AC100 A3000=,
20180117_040000.003,0,RJSY,,,,0,20180117040000,-1,-1,-1,-1,80,-1,7,-1,-1,-1,-1,,9999,0,1,3,FEW 20   BKN 50   BKN 70,1,5,1,3,1014,RJSY 170400Z 08007KT 9999 -RA FEW020 BKN050 BKN070 05/03 Q1014     RMK 1CU020 5SC050 7AC070 A2997=,- RA
20180117_050000.003,0,RJSY,,,,0,20180117050000,-1,-1,-1,-1,90,-1,13,-1,-1,-1,-1,,9999,0,1,3,FEW 10   SCT 30   BKN 50,1,5,1,2,1014,RJSY 170500Z 09013KT 9999 -RA FEW010 SCT030 BKN050 05/02 Q1014     RMK 1ST010 3SC030 7SC050 A2994=,- RA
20180117_060000.002,0,RJSY,,,,0,20180117060000,-1,-1,-1,-1,90,-1,16,-1,-1,-1,-1,,9999,0,1,3,FEW 10   SCT 30   BKN 50,1,4,1,2,1013,RJSY 170600Z 09016KT 9999 -RA FEW010 SCT030 BKN050 04/02 Q1013     RMK 1ST010 3SC030 7SC050 A2991=,- RA
20180117_070000.002,0,RJSY,,,,0,20180117070000,-1,-1,-1,-1,90,-1,16,-1,-1,-1,-1,,9999,0,1,3,FEW 10   SCT 30   BKN 50,1,4,1,2,1012,RJSY 170700Z 09016KT 9999 -RA FEW010 SCT030 BKN050 04/02 Q1012     RMK 1ST010 3SC030 7SC050 A2991=,- RA
20180117_080000.002,0,RJSY,,,,0,20180117080000,-1,-1,-1,-1,90,-1,15,-1,-1,-1,-1,,8000,0,1,3,FEW 10   SCT 25   BKN 45,1,4,1,2,1012,RJSY 170800Z 09015KT 8000 -RA FEW010 SCT025 BKN045 04/02 Q1012     RMK 1ST010 4SC025 7SC045 A2990=,- RA
20180117_090000.003,0,RJSY,,,,0,20180117090000,-1,-1,-1,-1,90,-1,20,-1,-1,-1,-1,,9999,0,1,3,FEW 10   SCT 20   BKN 50,1,3,1,1,1011,RJSY 170900Z 09020KT 9999 -RA FEW010 SCT020 BKN050 03/01 Q1011     RMK 1ST010 3SC020 7SC050 A2988=,- RA
20180117_100000.002,0,RJSY,,,,0,20180117100000,-1,-1,-1,-1,80,-1,19,-1,-1,-1,-1,,9999,0,1,3,FEW 10   SCT 30   BKN 50,1,3,1,1,1011,RJSY 171000Z 08019KT 9999 -RA FEW010 SCT030 BKN050 03/01 Q1011     RMK 1ST010 3SC030 7SC050 A2987=,- RA
20180117_110000.003,0,RJSY,,,,0,20180117110000,-1,-1,-1,-1,80,-1,18,-1,-1,-1,-1,,9999,0,1,3,FEW 10   SCT 20   BKN 30,1,4,1,1,1011,RJSY 171100Z 08018KT 9999 -RA FEW010 SCT020 BKN030 04/01 Q1011     RMK 1ST010 3SC020 7SC030 A2987=,- RA
20180117_120000.003,0,RJSY,,,,0,20180117120000,-1,-1,-1,-1,80,-1,19,-1,-1,-1,-1,,9999,0,1,3,FEW 10   SCT 20   BKN 40,1,4,1,1,1011,RJSY 171200Z 08019KT 9999 -RA FEW010 SCT020 BKN040 04/01 Q1011     RMK 1ST010 4SC020 7SC040 A2988=,- RA
20180117_220000.003,0,RJSY,,,,0,20180117220000,-1,-1,-1,-1,210,-1,6,-1,-1,-1,-1,,7000,0,1,3,FEW 5   SCT 10   BKN 15,1,4,1,3,1015,RJSY 172200Z 21006KT 7000 -SHRA FEW005 SCT010 BKN015 04/03     Q1015 RMK 1ST005 4ST010 6CU015 A2999=,- RA SH
20180117_230000.002,0,RJSY,,,,0,20180117230000,-1,-1,-1,-1,90,-1,8,-1,-1,-1,-1,,4500,1,2,3,FEW 1   SCT 10   BKN 15,1,2,1,1,1014,RJSY 172300Z 09008KT 4500 R09/P1800N PRFG BR FEW001 SCT010     BKN015 02/01 Q1014 RMK 2ST001 3ST010 6CU015 A2997           1000SE-S=,PR FG; BR
20180118_000000.002,0,RJSY,,,,0,20180118000000,-1,-1,-1,-1,90,-1,5,-1,-1,-1,-1,,9999,0,0,3,FEW 5   SCT 20   BKN 40,1,3,1,2,1015,RJSY 180000Z 09005KT 9999 FEW005 SCT020 BKN040 03/02 Q1015 RMK     1ST005 3CU020 7CU040 A2998=,
20180118_010000.002,0,RJSY,,,,0,20180118010000,-1,-1,-1,-1,110,-1,4,-1,-1,-1,-1,,9999,0,1,3,FEW 5   SCT 30   BKN 45,1,5,1,3,1014,RJSY 180100Z 11004KT 9999 -SHRA FEW005 SCT030 BKN045 05/03     Q1014 RMK 1ST005 3CU030 6CU045 A2997=,- RA SH
20180118_020000.002,0,RJSY,,,,0,20180118020000,-1,-1,-1,-1,280,-1,7,-1,-1,-1,-1,,5000,0,2,3,FEW 5   SCT 10   BKN 20,1,6,1,5,1014,RJSY 180200Z 28007KT 5000 -SHRA BR FEW005 SCT010 BKN020 06/05     Q1014 RMK 1ST005 3ST010 6CU020 A2995=,- RA SH; BR
20180118_030000.003,0,RJSY,,,,0,20180118030000,-1,-1,-1,-1,260,-1,7,-1,-1,-1,-1,,9999,0,0,3,FEW 5   SCT 15   BKN 20,1,8,1,6,1013,RJSY 180300Z 26007KT 9999 FEW005 SCT015 BKN020 08/06 Q1013 RMK     1ST005 3CU015 7CU020 A2993=,
20180118_040000.002,0,RJSY,,,,0,20180118040000,-1,-1,-1,-1,240,-1,6,-1,-1,210,270,,9999,0,1,3,FEW 10   SCT 20   BKN 30,1,9,1,5,1012,RJSY 180400Z 24006KT 210V270 9999 -SHRA FEW010 SCT020 BKN030     09/05 Q1012 RMK 1ST010 3CU020 6CU030 A2991=,- RA SH
20180118_050000.002,0,RJSY,,,,0,20180118050000,-1,-1,-1,-1,230,-1,14,-1,-1,-1,-1,,9999,0,1,3,FEW 10   SCT 20   BKN 30,1,8,1,4,1013,RJSY 180500Z 23014KT 9999 -SHRA FEW010 SCT020 BKN030 08/04     Q1013 RMK 1ST010 3CU020 6CU030 A2992=,- RA SH
20180118_060000.002,0,RJSY,,,,0,20180118060000,-1,-1,-1,-1,220,-1,9,-1,-1,-1,-1,,9999,0,1,3,FEW 15   SCT 20   BKN 40,1,7,1,4,1013,RJSY 180600Z 22009KT 9999 -SHRA FEW015 SCT020 BKN040 07/04     Q1013 RMK 1ST015 3CU020 6CU040 A2992=,- RA SH
20180118_070000.002,0,RJSY,,,,0,20180118070000,-1,-1,-1,-1,170,-1,4,-1,-1,130,200,,9999,0,1,3,FEW 15   SCT 20   BKN 30,1,6,1,4,1013,RJSY 180700Z 17004KT 130V200 9999 -SHRA FEW015 SCT020 BKN030     06/04 Q1013 RMK 1ST015 3CU020 6CU030 A2991=,- RA SH
20180118_080000.002,0,RJSY,,,,0,20180118080000,-1,-1,-1,-1,130,-1,4,-1,-1,-1,-1,,9999,0,1,3,FEW 15   SCT 30   BKN 40,1,5,1,3,1013,RJSY 180800Z 13004KT 9999 -SHRA FEW015 SCT030 BKN040 05/03     Q1013 RMK 1ST015 3CU030 6CU040 A2991=,- RA SH
20180118_090000.002,0,RJSY,,,,0,20180118090000,-1,-1,-1,-1,220,-1,13,-1,-1,180,240,,9999,0,1,3,FEW 15   SCT 20   BKN 30,1,7,1,5,1012,RJSY 180900Z 22013KT 180V240 9999 -SHRA FEW015 SCT020 BKN030     07/05 Q1012 RMK 1ST015 4CU020 6CU030 A2991=,- RA SH
20180118_100000.002,0,RJSY,,,,0,20180118100000,-1,-1,-1,-1,270,-1,22,-1,33,-1,-1,,9999,0,0,3,FEW 20   SCT 35   BKN 45,1,8,1,3,1014,RJSY 181000Z 27022G33KT 9999 FEW020 SCT035 BKN045 08/03 Q1014     RMK 1CU020 3CU035 6CU045 A2996 P/RR=,
20180118_110000.002,0,RJSY,,,,0,20180118110000,-1,-1,-1,-1,270,-1,19,-1,-1,-1,-1,,9999,0,0,3,FEW 30   SCT 40   BKN 50,1,8,1,2,1015,RJSY 181100Z 27019KT 9999 FEW030 SCT040 BKN050 08/02 Q1015 RMK     1CU030 3CU040 6CU050 A2998=,
20180118_120000.002,0,RJSY,,,,0,20180118120000,-1,-1,-1,-1,230,-1,14,-1,-1,-1,-1,,9999,0,1,3,FEW 30   SCT 50   BKN 70,1,5,1,1,1016,RJSY 181200Z 23014KT 9999 -SHRA FEW030 SCT050 BKN070 05/01     Q1016 RMK 1CU030 4CU050 7AC070 A3001=,- RA SH
20180118_220000.002,0,RJSY,,,,0,20180118220000,-1,-1,-1,-1,290,-1,10,-1,-1,-1,-1,,9999,0,0,3,FEW 30   SCT 40   BKN 50,1,4,-1,6,1021,RJSY 182200Z 29010KT 9999 FEW030 SCT040 BKN050 04/M06 Q1021     RMK 1CU030 3CU040 5CU050 A3016=,
20180118_230000.003,0,RJSY,,,,0,20180118230000,-1,-1,-1,-1,290,-1,10,-1,-1,260,330,,9999,0,0,2,FEW 30   SCT 40,1,4,-1,5,1021,RJSY 182300Z 29010KT 260V330 9999 FEW030 SCT040 04/M05 Q1021     RMK 1CU030 4CU040 A3018=,
20180119_000000.002,0,RJSY,,,,0,20180119000000,-1,-1,-1,-1,290,-1,9,-1,-1,260,340,,9999,0,0,3,FEW 30   SCT 45   BKN -9999,1,5,-1,5,1022,RJSY 190000Z 29009KT 260V340 9999 FEW030 SCT045 BKN/// 05/M05     Q1022 RMK 1CU030 4CU045 A3018=,
20180119_010000.003,0,RJSY,,,,0,20180119010000,-1,-1,-1,-1,310,-1,10,-1,-1,260,340,,9999,0,0,3,FEW 30   SCT 40   BKN -9999,1,5,-1,3,1022,RJSY 190100Z 31010KT 260V340 9999 FEW030 SCT040 BKN/// 05/M03     Q1022 RMK 1CU030 4CU040 A3019=,
20180119_020000.002,0,RJSY,,,,0,20180119020000,-1,-1,-1,-1,300,-1,10,-1,21,270,340,,9999,0,0,3,FEW 30   SCT 40   BKN -9999,1,4,-1,4,1021,RJSY 190200Z 30010G21KT 270V340 9999 FEW030 SCT040 BKN///     04/M04 Q1021 RMK 1CU030 4CU040 A3017=,
20180119_030000.002,0,RJSY,,,,0,20180119030000,-1,-1,-1,-1,310,-1,9,-1,-1,280,340,,9999,0,0,3,FEW 30   SCT 40   BKN -9999,1,4,-1,4,1021,RJSY 190300Z 31009KT 280V340 9999 FEW030 SCT040 BKN/// 04/M04     Q1021 RMK 1CU030 3CU040 A3016=,
20180119_040000.002,0,RJSY,,,,0,20180119040000,-1,-1,-1,-1,310,-1,9,-1,-1,280,360,,9999,0,0,3,FEW 30   SCT 40   BKN -9999,1,4,-1,5,1021,RJSY 190400Z 31009KT 280V360 9999 FEW030 SCT040 BKN/// 04/M05     Q1021 RMK 1CU030 3CU040 A3016=,
20180119_050000.003,0,RJSY,,,,0,20180119050000,-1,-1,-1,-1,310,-1,8,-1,-1,260,350,,9999,0,0,3,FEW 30   SCT 40   BKN -9999,1,4,-1,6,1021,RJSY 190500Z 31008KT 260V350 9999 FEW030 SCT040 BKN/// 04/M06     Q1021 RMK 1CU030 3CU040 A3017=,
20180119_060000.002,0,RJSY,,,,0,20180119060000,-1,-1,-1,-1,330,-1,6,-1,-1,280,40,,9999,0,0,3,FEW 30   SCT 40   BKN -9999,1,3,-1,5,1021,RJSY 190600Z 33006KT 280V040 9999 FEW030 SCT040 BKN/// 03/M05     Q1021 RMK 1CU030 3CU040 A3017=,
20180119_070000.002,0,RJSY,,,,0,20180119070000,-1,-1,-1,-1,320,-1,5,-1,-1,280,10,,9999,0,0,2,FEW 35   SCT -9999,1,3,-1,6,1021,RJSY 190700Z 32005KT 280V010 9999 FEW035 SCT/// 03/M06 Q1021     RMK 2CU035 A3016=,
20180119_080000.002,0,RJSY,,,,0,20180119080000,-1,-1,-1,-1,350,-1,4,-1,-1,300,60,,9999,0,0,2,FEW 30   BKN 40,1,2,-1,6,1021,RJSY 190800Z 35004KT 300V060 9999 FEW030 BKN040 02/M06 Q1021     RMK 1CU030 5CU040 A3016=,
20180119_090000.003,0,RJSY,,,,0,20180119090000,-1,-1,-1,-1,320,-1,3,-1,-1,280,30,,9999,0,0,2,SCT 40   BKN 50,1,2,-1,6,1021,RJSY 190900Z 32003KT 280V030 9999 SCT040 BKN050 02/M06 Q1021     RMK 3CU040 6CU050 A3017=,
20180119_100000.002,0,RJSY,,,,0,20180119100000,-1,-1,-1,-1,140,-1,3,-1,-1,-1,-1,,9999,0,0,2,FEW 35   BKN 45,1,1,-1,5,1021,RJSY 191000Z 14003KT 9999 FEW035 BKN045 01/M05 Q1021 RMK     1CU035 5CU045 A3017=,
20180119_110000.002,0,RJSY,,,,0,20180119110000,-1,-1,-1,-1,130,-1,4,-1,-1,-1,-1,,9999,0,0,1,SCT 40,1,0,-1,6,1021,RJSY 191100Z 13004KT 9999 SCT040 00/M06 Q1021 RMK 4CU040     A3016=,
20180119_120000.003,0,RJSY,,,,0,20180119120000,-1,-1,-1,-1,100,-1,4,-1,-1,-1,-1,,9999,0,0,1,FEW 40,-1,2,-1,6,1021,RJSY 191200Z 10004KT 9999 FEW040 M02/M06 Q1021 RMK 1CU040     A3016=,
20180119_220000.002,0,RJSY,,,,0,20180119220000,-1,-1,-1,-1,100,-1,12,-1,-1,-1,-1,,9999,0,0,1,FEW 70,-1,2,-1,6,1017,RJSY 192200Z 10012KT 9999 FEW070 M02/M06 Q1017 RMK 1AC070     A3003 P/FR=,
20180119_230000.002,0,RJSY,,,,0,20180119230000,-1,-1,-1,-1,90,-1,3,-1,-1,40,130,,9999,0,0,1,FEW 10,-1,2,-1,5,1016,RJSY 192300Z 09003KT 040V130 9999 FEW010 M02/M05 Q1016 RMK     1ST010 A3003=,
20180120_000000.002,0,RJSY,,,,0,20180120000000,-1,-1,-1,-1,90,-1,6,-1,-1,-1,-1,,9999,0,0,3,FEW 15   SCT 80   BKN 100,-1,0,-1,5,1016,RJSY 200000Z 09006KT 9999 FEW015 SCT080 BKN100 M00/M05 Q1016     RMK 1CU015 3AC080 7AC100 A3002=,
20180120_010000.002,0,RJSY,,,,0,20180120010000,-1,-1,-1,-1,100,-1,6,-1,-1,-1,-1,,9999,0,0,2,SCT 70   BKN 90,1,2,-1,5,1016,RJSY 200100Z 10006KT 9999 SCT070 BKN090 02/M05 Q1016 RMK     3AC070 6AC090 A3002=,
20180120_020000.003,0,RJSY,,,,0,20180120020000,-1,-1,-1,-1,100,-1,6,-1,-1,-1,-1,,9999,0,0,3,FEW 60   SCT 70   BKN 100,1,3,-1,4,1015,RJSY 200200Z 10006KT 9999 FEW060 SCT070 BKN100 03/M04 Q1015     RMK 1SC060 4AC070 7AC100 A3000=,
20180120_030000.002,0,RJSY,,,,0,20180120030000,-1,-1,-1,-1,90,-1,7,-1,-1,-1,-1,,9999,0,0,3,FEW 50   BKN 60   BKN 70,1,4,-1,4,1014,RJSY 200300Z 09007KT 9999 FEW050 BKN060 BKN070 04/M04 Q1014     RMK 1SC050 5SC060 7AC070 A2997=,
20180120_040000.002,0,RJSY,,,,0,20180120040000,-1,-1,-1,-1,160,-1,7,-1,-1,-1,-1,,9999,0,1,3,FEW 10   SCT 30   BKN 40,1,4,-1,3,1014,RJSY 200400Z 16007KT 9999 -SHRA FEW010 SCT030 BKN040 04/M03     Q1014 RMK 1ST010 3CU030 6CU040 A2996=,- RA SH
20180120_050000.002,0,RJSY,,,,0,20180120050000,-1,-1,-1,-1,170,-1,7,-1,-1,140,200,,9999,0,1,3,FEW 15   SCT 30   BKN 45,1,4,-1,0,1014,RJSY 200500Z 17007KT 140V200 9999 -SHRA FEW015 SCT030 BKN045     04/M00 Q1014 RMK 1CU015 3CU030 7CU045 A2995=,- RA SH
20180120_060000.002,0,RJSY,,,,0,20180120060000,-1,-1,-1,-1,240,-1,19,-1,-1,-1,-1,,9999,0,1,3,FEW 15   SCT 20   BKN 30,1,6,1,1,1014,RJSY 200600Z 24019KT 9999 -SHRA FEW015 SCT020 BKN030 06/01     Q1014 RMK 1CU015 3CU020 6CU030 A2997=,- RA SH
20180120_070000.002,0,RJSY,,,,0,20180120070000,-1,-1,-1,-1,290,-1,8,-1,19,250,320,,9999,0,1,3,FEW 8   SCT 15   BKN 25,1,5,1,3,1015,RJSY 200700Z 29008G19KT 250V320 9999 -SHRA FEW008 SCT015     BKN025 05/03 Q1015 RMK 1ST008 3CU015 6CU025 A3000=,- RA SH
20180120_080000.002,0,RJSY,,,,0,20180120080000,-1,-1,-1,-1,300,-1,11,-1,-1,270,340,,9999,0,1,3,FEW 10   SCT 25   BKN 40,1,6,1,0,1016,RJSY 200800Z 30011KT 270V340 9999 VCSH FEW010 SCT025 BKN040     06/00 Q1016 RMK 1ST010 3CU025 6CU040 A3000=,VC SH
20180120_090000.002,0,RJSY,,,,0,20180120090000,-1,-1,-1,-1,310,-1,10,-1,-1,260,340,,9999,0,1,3,FEW 10   SCT 30   BKN 45,1,6,-1,2,1016,RJSY 200900Z 31010KT 260V340 9999 -SHRA FEW010 SCT030 BKN045     06/M02 Q1016 RMK 1ST010 3CU030 7CU045 A3002=,- RA SH
20180120_100000.002,0,RJSY,,,,0,20180120100000,-1,-1,-1,-1,310,-1,8,-1,-1,270,350,,9999,0,1,3,FEW 15   SCT 35   BKN 50,1,6,-1,1,1017,RJSY 201000Z 31008KT 270V350 9999 -SHRA FEW015 SCT035 BKN050     06/M01 Q1017 RMK 1CU015 3CU035 6CU050 A3004=,- RA SH
20180120_110000.002,0,RJSY,,,,0,20180120110000,-1,-1,-1,-1,320,-1,8,-1,-1,280,10,,9999,0,0,3,FEW 15   SCT 35   BKN 50,1,6,-1,2,1017,RJSY 201100Z 32008KT 280V010 9999 FEW015 SCT035 BKN050 06/M02     Q1017 RMK 1CU015 3CU035 6CU050 A3005=,
20180120_120000.002,0,RJSY,,,,0,20180120120000,-1,-1,-1,-1,330,-1,6,-1,-1,290,10,,9999,0,0,3,FEW 20   SCT 35   BKN 45,1,5,-1,2,1017,RJSY 201200Z 33006KT 290V010 9999 FEW020 SCT035 BKN045 05/M02     Q1017 RMK 1CU020 3CU035 5CU045 A3005=,
20180120_220000.002,0,RJSY,,,,0,20180120220000,-1,-1,-1,-1,160,-1,4,-1,-1,-1,-1,,9999,0,0,3,FEW 30   SCT 50   BKN 70,1,2,-1,4,1016,RJSY 202200Z 16004KT 9999 FEW030 SCT050 BKN070 02/M04 Q1016     RMK 1CU030 3CU050 5AC070 A3001=,
20180120_230000.002,0,RJSY,,,,0,20180120230000,-1,-1,-1,-1,999,-1,2,-1,-1,-1,-1,,9999,0,1,3,FEW 20   SCT 30   BKN 40,1,3,-1,4,1016,RJSY 202300Z VRB02KT 9999 -SHSN FEW020 SCT030 BKN040 03/M04     Q1016 RMK 1CU020 4CU030 7CU040 A3002=,- SN SH
20180121_000000.002,0,RJSY,,,,0,20180121000000,-1,-1,-1,-1,230,-1,15,-1,25,-1,-1,,3500,0,2,3,FEW 3   SCT 10   BKN 20,1,2,1,0,1016,RJSY 210000Z 23015G25KT 3500 -SHRASN BR FEW003 SCT010 BKN020     02/00 Q1016 RMK 1ST003 4ST010 6CU020 A3003=,- RA SN SH; BR
20180121_010000.002,0,RJSY,,,,0,20180121010000,-1,-1,-1,-1,999,-1,1,-1,-1,-1,-1,,3500,0,1,3,FEW 3   SCT 6   BKN 10,1,1,-1,1,1017,RJSY 210100Z VRB01KT 3500 -SHSN FEW003 SCT006 BKN010 01/M01     Q1017 RMK 1ST003 4ST006 7ST010 A3004=,- SN SH
20180121_020000.002,0,RJSY,,,,0,20180121020000,-1,-1,-1,-1,160,-1,3,-1,-1,120,180,,4500,0,2,3,FEW 5   BKN 10   BKN 15,1,1,-1,1,1016,RJSY 210200Z 16003KT 120V180 4500 -SHRASN BR FEW005 BKN010     BKN015 01/M01 Q1016 RMK 1ST005 5ST010 7CU015 A3002=,- RA SN SH; BR
20180121_030000.002,0,RJSY,,,,0,20180121030000,-1,-1,-1,-1,350,-1,7,-1,-1,310,40,,3500,0,2,3,FEW 3   SCT 6   BKN 15,1,1,-1,0,1016,RJSY 210300Z 35007KT 310V040 3500 -SHRASN BR FEW003 SCT006     BKN015 01/M00 Q1016 RMK 1ST003 4ST006 6CU015 A3000=,- RA SN SH; BR
20180121_040000.003,0,RJSY,,,,0,20180121040000,-1,-1,-1,-1,340,-1,9,-1,19,310,30,,3000,0,2,3,FEW 3   SCT 7   BKN 10,1,1,-1,0,1015,RJSY 210400Z 34009G19KT 310V030 3000 -SHSNRA BR FEW003 SCT007     BKN010 01/M00 Q1015 RMK 1ST003 3ST007 6ST010 A3000=,- SN RA SH; BR
20180121_050000.002,0,RJSY,,,,0,20180121050000,-1,-1,-1,-1,340,-1,12,-1,22,300,20,,7000,0,1,3,FEW 4   SCT 7   BKN 15,1,1,-1,1,1017,RJSY 210500Z 34012G22KT 300V020 7000 -SHSN FEW004 SCT007     BKN015 01/M01 Q1017 RMK 1ST004 3ST007 5CU015 A3004=,- SN SH
20180121_060000.002,0,RJSY,,,,0,20180121060000,-1,-1,-1,-1,340,-1,9,-1,-1,290,30,,3000,0,1,3,FEW 3   SCT 7   BKN 15,1,0,-1,2,1018,RJSY 210600Z 34009KT 290V030 3000 -SHSN FEW003 SCT007 BKN015     00/M02 Q1018 RMK 1ST003 4ST007 7CU015 A3009=,- SN SH
20180121_070000.002,0,RJSY,,,,0,20180121070000,-1,-1,-1,-1,330,-1,11,-1,-1,300,20,,2000,0,1,3,FEW 3   SCT 6   BKN 10,-1,0,-1,3,1020,RJSY 210700Z 33011KT 300V020 2000 -SHSN FEW003 SCT006 BKN010     M00/M03 Q1020 RMK 1ST003 3ST006 6ST010 A3012=,- SN SH
20180121_080000.002,0,RJSY,,,,0,20180121080000,-1,-1,-1,-1,330,-1,10,-1,-1,300,40,,1500,1,1,3,FEW 3   SCT 7   BKN 10,-1,0,-1,3,1021,RJSY 210800Z 33010KT 300V040 1500 R09/P1800N -SHSN FEW003     SCT007 BKN010 M00/M03 Q1021 RMK 1ST003 3ST007 6ST010           A3016=,- SN SH
20180121_090000.002,0,RJSY,,,,0,20180121090000,-1,-1,-1,-1,330,-1,8,-1,-1,280,30,,2000,0,1,3,FEW 5   SCT 8   BKN 15,-1,1,-1,4,1021,RJSY 210900Z 33008KT 280V030 2000 -SHSN FEW005 SCT008 BKN015     M01/M04 Q1021 RMK 1ST005 3ST008 6CU015 A3018=,- SN SH
20180121_100000.002,0,RJSY,,,,0,20180121100000,-1,-1,-1,-1,310,-1,7,-1,18,260,10,,9999,0,0,3,FEW 10   SCT 30   BKN 40,1,0,-1,7,1022,RJSY 211000Z 31007G18KT 260V010 9999 FEW010 SCT030 BKN040     00/M07 Q1022 RMK 1ST010 3CU030 5CU040 A3018=,
20180121_110000.002,0,RJSY,,,,0,20180121110000,-1,-1,-1,-1,310,-1,6,-1,16,270,360,,9999,0,1,3,FEW 10   SCT 35   BKN 50,1,0,-1,7,1022,RJSY 211100Z 31006G16KT 270V360 9999 -SHSN FEW010 SCT035     BKN050 00/M07 Q1022 RMK 1ST010 3CU035 7CU050 A3019=,- SN SH
20180121_120000.002,0,RJSY,,,,0,20180121120000,-1,-1,-1,-1,290,-1,7,-1,-1,260,360,,9999,0,1,3,FEW 10   SCT 30   BKN 40,1,0,-1,8,1023,RJSY 211200Z 29007KT 260V360 9999 -SHSN FEW010 SCT030 BKN040     00/M08 Q1023 RMK 1ST010 3CU030 6CU040 A3021=,- SN SH
20180121_220000.002,0,RJSY,,,,0,20180121220000,-1,-1,-1,-1,120,-1,5,-1,-1,-1,-1,,9999,0,0,3,FEW 30   SCT 40   BKN -9999,-1,3,-1,8,1023,RJSY 212200Z 12005KT 9999 FEW030 SCT040 BKN/// M03/M08 Q1023     RMK 1CU030 3CU040 A3022=,
20180121_230000.002,0,RJSY,,,,0,20180121230000,-1,-1,-1,-1,140,-1,5,-1,-1,-1,-1,,9999,0,0,3,FEW 40   SCT 170   BKN -9999,-1,3,-1,7,1023,RJSY 212300Z 14005KT 9999 FEW040 SCT170 BKN/// M03/M07 Q1023     RMK 1CU040 3AC170 A3023=,
20180122_000000.002,0,RJSY,,,,0,20180122000000,-1,-1,-1,-1,90,-1,8,-1,-1,-1,-1,,9999,0,0,2,FEW 40   BKN 150,-1,4,-1,7,1023,RJSY 220000Z 09008KT 9999 FEW040 BKN150 M04/M07 Q1023 RMK     1CU040 7AC150 A3023=,
20180122_010000.002,0,RJSY,,,,0,20180122010000,-1,-1,-1,-1,100,-1,10,-1,-1,-1,-1,CAVOK,-1,0,0,0,,-1,3,-1,7,1022,RJSY 220100Z 10010KT CAVOK M03/M07 Q1022 RMK A3019=,
20180122_020000.002,0,RJSY,,,,0,20180122020000,-1,-1,-1,-1,100,-1,13,-1,-1,-1,-1,,9999,0,0,3,FEW 40   SCT 120   BKN 140,-1,2,-1,7,1020,RJSY 220200Z 10013KT 9999 FEW040 SCT120 BKN140 M02/M07 Q1020     RMK 1CU040 3AC120 7AC140 A3014=,
20180122_030000.002,0,RJSY,,,,0,20180122030000,-1,-1,-1,-1,90,-1,13,-1,-1,-1,-1,,9999,0,0,3,FEW 50   SCT 90   BKN 110,-1,1,-1,7,1019,RJSY 220300Z 09013KT 9999 FEW050 SCT090 BKN110 M01/M07 Q1019     RMK 1CU050 3AC090 7AC110 A3009=,
20180122_040000.002,0,RJSY,,,,0,20180122040000,-1,-1,-1,-1,80,-1,14,-1,-1,-1,-1,,9999,0,0,3,FEW 50   SCT 80   BKN 100,-1,1,-1,6,1017,RJSY 220400Z 08014KT 9999 FEW050 SCT080 BKN100 M01/M06 Q1017     RMK 1CU050 3AC080 7AC100 A3004=,
20180122_050000.002,0,RJSY,,,,0,20180122050000,-1,-1,-1,-1,90,-1,13,-1,-1,-1,-1,,9999,0,0,2,FEW 40   BKN 60,-1,1,-1,7,1015,RJSY 220500Z 09013KT 9999 FEW040 BKN060 M01/M07 Q1015 RMK     2SC040 7SC060 A3000=,
20180122_060000.003,0,RJSY,,,,0,20180122060000,-1,-1,-1,-1,90,-1,12,-1,-1,-1,-1,,9999,0,0,3,FEW 30   SCT 50   BKN 70,-1,0,-1,7,1015,RJSY 220600Z 09012KT 9999 FEW030 SCT050 BKN070 M00/M07 Q1015     RMK 1SC030 4SC050 7AC070 A2998=,
20180122_070000.002,0,RJSY,,,,0,20180122070000,-1,-1,-1,-1,100,-1,15,-1,-1,-1,-1,,9999,0,0,3,FEW 20   SCT 30   BKN 50,-1,0,-1,6,1015,RJSY 220700Z 10015KT 9999 FEW020 SCT030 BKN050 M00/M06 Q1015     RMK 1SC020 3SC030 6SC050 A2999=,
20180122_080000.003,0,RJSY,,,,0,20180122080000,-1,-1,-1,-1,100,-1,14,-1,-1,-1,-1,,4000,0,1,3,FEW 10   SCT 15   BKN 30,-1,1,-1,4,1015,RJSY 220800Z 10014KT 4000 -SN FEW010 SCT015 BKN030 M01/M04     Q1015 RMK 1ST010 4ST015 7SC030 A2998=,- SN
20180122_090000.002,0,RJSY,,,,0,20180122090000,-1,-1,-1,-1,110,-1,10,-1,-1,-1,-1,,4500,0,1,3,FEW 7   SCT 15   BKN 30,-1,1,-1,4,1015,RJSY 220900Z 11010KT 4500 -SN FEW007 SCT015 BKN030 M01/M04     Q1015 RMK 1ST007 4ST015 7SC030 A2999=,- SN
20180122_100000.002,0,RJSY,,,,0,20180122100000,-1,-1,-1,-1,120,-1,10,-1,-1,-1,-1,,2500,0,1,3,FEW 5   SCT 10   BKN 20,-1,2,-1,4,1014,RJSY 221000Z 12010KT 2500 -SN FEW005 SCT010 BKN020 M02/M04     Q1014 RMK 1ST005 4ST010 7SC020 A2997=,- SN
20180122_110000.003,0,RJSY,,,,0,20180122110000,-1,-1,-1,-1,100,-1,10,-1,-1,-1,-1,,3000,0,1,3,FEW 5   SCT 8   BKN 15,-1,2,-1,3,1013,RJSY 221100Z 10010KT 3000 -SN FEW005 SCT008 BKN015 M02/M03     Q1013 RMK 1ST005 4ST008 6ST015 A2992=,- SN
20180122_120000.002,0,RJSY,,,,0,20180122120000,-1,-1,-1,-1,100,-1,13,-1,-1,-1,-1,,5000,0,1,3,FEW 5   SCT 10   BKN 20,-1,1,-1,3,1011,RJSY 221200Z 10013KT 5000 -SN FEW005 SCT010 BKN020 M01/M03     Q1011 RMK 1ST005 4ST010 7SC020 A2987=,- SN
20180122_220000.002,0,RJSY,,,,0,20180122220000,-1,-1,-1,-1,110,-1,9,-1,-1,-1,-1,,9999,0,0,3,FEW 25   SCT 30   BKN 50,-1,0,-1,2,1002,RJSY 222200Z 11009KT 9999 FEW025 SCT030 BKN050 M00/M02 Q1002     RMK 1CU025 4CU030 7CU050 A2961=,
20180122_230000.003,0,RJSY,,,,0,20180122230000,-1,-1,-1,-1,90,-1,11,-1,-1,-1,-1,,9999,0,0,3,FEW 25   SCT 35   BKN 90,1,0,-1,2,1001,RJSY 222300Z 09011KT 9999 FEW025 SCT035 BKN090 00/M02 Q1001     RMK 1CU025 3CU035 7AC090 A2957=,
20180123_000000.002,0,RJSY,,,,0,20180123000000,-1,-1,-1,-1,90,-1,7,-1,-1,-1,-1,,9999,0,0,3,FEW 25   SCT 45   BKN 80,1,1,-1,2,1000,RJSY 230000Z 09007KT 9999 FEW025 SCT045 BKN080 01/M02 Q1000     RMK 1CU025 3CU045 7AC080 A2954=,
20180123_010000.002,0,RJSY,,,,0,20180123010000,-1,-1,-1,-1,190,-1,5,-1,-1,150,220,,8000,0,1,3,FEW 10   SCT 15   BKN 25,1,3,1,0,1000,RJSY 230100Z 19005KT 150V220 8000 -SHRA FEW010 SCT015 BKN025     03/00 Q1000 RMK 1ST010 3CU015 7CU025 A2954=,- RA SH
20180123_020000.002,0,RJSY,,,,0,20180123020000,-1,-1,-1,-1,170,-1,10,-1,-1,140,200,,6000,0,1,3,FEW 10   SCT 20   BKN 30,1,2,1,0,999,RJSY 230200Z 17010KT 140V200 6000 -SHRA FEW010 SCT020 BKN030     02/00 Q0999 RMK 1ST010 4CU020 7CU030 A2950=,- RA SH
20180123_030000.003,0,RJSY,,,,0,20180123030000,-1,-1,-1,-1,240,-1,38,-1,-1,-1,-1,,2500,1,2,4,FEW 7   SCT 15   FEW 20 CB  BKN 25,1,4,1,2,998,RJSY 230300Z 24038KT 2500 R09/1400VP1800D -TSRA BR FEW007     SCT015 FEW020CB BKN025 04/02 Q0998 RMK 1ST007 3CU015           1CB020 7CU025 A2947 FBL TS 10KM S MOV NE=,- TS   RA; BR
20180123_040000.003,0,RJSY,,,,0,20180123040000,-1,-1,-1,-1,260,-1,25,-1,37,-1,-1,,9999,0,1,3,FEW 10   SCT 30   BKN 40,1,5,1,0,997,RJSY 230400Z 26025G37KT 9999 VCSH FEW010 SCT030 BKN040 05/00     Q0997 RMK 1ST010 3CU030 6CU040 A2946=,VC SH
20180123_050000.002,0,RJSY,,,,0,20180123050000,-1,-1,-1,-1,270,-1,28,-1,41,-1,-1,,7000,0,1,3,FEW 6   SCT 15   BKN 30,1,2,-1,1,999,RJSY 230500Z 27028G41KT 7000 -SHRASN FEW006 SCT015 BKN030     02/M01 Q0999 RMK 1ST006 3CU015 7CU030 A2951=,- RA SN SH
20180123_060000.003,0,RJSY,,,,0,20180123060000,-1,-1,-1,-1,290,-1,20,-1,32,-1,-1,,8000,0,1,3,FEW 10   SCT 20   BKN 30,1,3,-1,2,1000,RJSY 230600Z 29020G32KT 8000 -SHRASN FEW010 SCT020 BKN030     03/M02 Q1000 RMK 1ST010 3CU020 7CU030 A2956=,- RA SN SH
20180123_070000.002,0,RJSY,,,,0,20180123070000,-1,-1,-1,-1,290,-1,18,-1,29,270,330,,9999,0,1,3,FEW 10   SCT 15   BKN 30,1,2,-1,4,1002,RJSY 230700Z 29018G29KT 270V330 9999 -SHSN FEW010 SCT015     BKN030 02/M04 Q1002 RMK 1ST010 3CU015 6CU030 A2959=,- SN SH
20180123_080000.002,0,RJSY,,,,0,20180123080000,-1,-1,-1,-1,310,-1,13,-1,24,280,360,,9999,0,1,3,FEW 10   SCT 20   BKN 30,1,1,-1,3,1003,RJSY 230800Z 31013G24KT 280V360 9999 -SHSN FEW010 SCT020     BKN030 01/M03 Q1003 RMK 1ST010 3CU020 6CU030 A2963=,- SN SH
20180123_090000.002,0,RJSY,,,,0,20180123090000,-1,-1,-1,-1,300,-1,14,-1,-1,260,340,,2500,0,1,3,FEW 3   SCT 8   BKN 15,1,0,-1,3,1004,RJSY 230900Z 30014KT 260V340 2500 -SHSN FEW003 SCT008 BKN015     00/M03 Q1004 RMK 1ST003 3ST008 6CU015 A2967=,- SN SH
20180123_100000.002,0,RJSY,,,,0,20180123100000,-1,-1,-1,-1,310,-1,16,-1,29,250,330,,5000,0,1,3,FEW 4   SCT 10   BKN 20,1,0,-1,4,1005,RJSY 231000Z 31016G29KT 250V330 5000 -SHSN FEW004 SCT010     BKN020 00/M04 Q1005 RMK 1ST004 3ST010 6CU020 A2969=,- SN SH
20180123_110000.002,0,RJSY,,,,0,20180123110000,-1,-1,-1,-1,310,-1,18,-1,34,280,340,,3000,0,1,3,FEW 3   SCT 10   BKN 15,-1,0,-1,4,1006,RJSY 231100Z 31018G34KT 280V340 3000 -SHSN FEW003 SCT010     BKN015 M00/M04 Q1006 RMK 1ST003 3ST010 6CU015 A2972=,- SN SH
20180123_120000.002,0,RJSY,,,,0,20180123120000,-1,-1,-1,-1,300,-1,20,-1,33,-1,-1,,7000,0,1,3,FEW 8   SCT 15   BKN 30,-1,0,-1,5,1007,RJSY 231200Z 30020G33KT 7000 -SHSN FEW008 SCT015 BKN030     M00/M05 Q1007 RMK 1ST008 3CU015 6CU030 A2974=,- SN SH
20180123_220000.002,0,RJSY,,,,0,20180123220000,-1,-1,-1,-1,310,-1,13,-1,-1,280,350,,6000,0,1,3,FEW 3   SCT 10   BKN 15,-1,2,-1,4,1004,RJSY 232200Z 31013KT 280V350 6000 -SHSN FEW003 SCT010 BKN015     M02/M04 Q1004 RMK 1ST003 3ST010 6CU015 A2967=,- SN SH
20180123_230000.002,0,RJSY,,,,0,20180123230000,-1,-1,-1,-1,310,-1,14,-1,-1,270,340,,5000,0,1,3,FEW 5   SCT 10   BKN 15,-1,1,-1,5,1004,RJSY 232300Z 31014KT 270V340 5000 -SHSN FEW005 SCT010 BKN015     M01/M05 Q1004 RMK 1ST005 3ST010 6CU015 A2965=,- SN SH
20180124_000000.002,0,RJSY,,,,0,20180124000000,-1,-1,-1,-1,300,-1,17,-1,28,270,340,,2000,1,1,3,FEW 3   SCT 10   BKN 20,-1,2,-1,5,1005,RJSY 240000Z 30017G28KT 270V340 2000 R09/1800U -SHSN FEW003     SCT010 BKN020 M02/M05 Q1005 RMK 1ST003 4ST010 6CU020           A2968=,- SN SH
20180124_010000.003,0,RJSY,,,,0,20180124010000,-1,-1,-1,-1,290,-1,20,-1,32,270,340,,3000,1,1,3,FEW 5   SCT 10   BKN 20,-1,3,-1,6,1005,RJSY 240100Z 29020G32KT 270V340 3000 R09/1200VP1800U -SHSN     FEW005 SCT010 BKN020 M03/M06 Q1005 RMK 1ST005 3ST010           6CU020 A2970=,- SN SH
20180124_020000.002,0,RJSY,,,,0,20180124020000,-1,-1,-1,-1,300,-1,18,-1,32,270,340,,3500,1,1,3,FEW 5   SCT 10   BKN 20,-1,3,-1,7,1005,RJSY 240200Z 30018G32KT 270V340 3500 R09/1000VP1800U -SHSN     FEW005 SCT010 BKN020 M03/M07 Q1005 RMK 1ST005 3ST010           6CU020 A2968=,- SN SH
20180124_030000.002,0,RJSY,,,,0,20180124030000,-1,-1,-1,-1,290,-1,18,-1,31,-1,-1,,1000,1,1,3,FEW 1   SCT 5   BKN 10,-1,4,-1,7,1004,RJSY 240300Z 29018G31KT 1000 R09/0800V1600U -SHSN FEW001     SCT005 BKN010 M04/M07 Q1004 RMK 1ST001 3ST005 6ST010           A2967=,- SN SH
20180124_040000.002,0,RJSY,,,,0,20180124040000,-1,-1,-1,-1,290,-1,21,-1,34,-1,-1,,2500,1,1,3,FEW 3   SCT 8   BKN 20,-1,4,-1,9,1004,RJSY 240400Z 29021G34KT 2500 R09/1100VP1800D -SHSN FEW003     SCT008 BKN020 M04/M09 Q1004 RMK 1ST003 3ST008 6CU020           A2966=,- SN SH
20180124_050000.002,0,RJSY,,,,0,20180124050000,-1,-1,-1,-1,290,-1,18,-1,31,260,330,,600,1,1,3,FEW 3   SCT 5   BKN 10,-1,5,-1,8,1004,RJSY 240500Z 29018G31KT 260V330 0600 R09/0550V0900N SHSN     FEW003 SCT005 BKN010 M05/M08 Q1004 RMK 1ST003 3ST005           6ST010 A2966=,SN SH
20180124_060000.002,0,RJSY,,,,0,20180124060000,-1,-1,-1,-1,290,-1,19,-1,34,260,320,,300,1,2,3,FEW 1   SCT 5   BKN 10,-1,5,-1,8,1005,RJSY 240600Z 29019G34KT 260V320 0300 R09/0350VP1800D SHSN BLSN     FEW001 SCT005 BKN010 M05/M08 Q1005 RMK 1ST001 4ST005           6ST010 A2968=,SN SH; BL SN
20180124_070000.002,0,RJSY,,,,0,20180124070000,-1,-1,-1,-1,290,-1,23,-1,36,-1,-1,,1500,1,2,3,FEW 3   SCT 10   BKN 15,-1,5,-1,9,1005,RJSY 240700Z 29023G36KT 1500 R09/0800VP1800U -SHSN BLSN FEW003     SCT010 BKN015 M05/M09 Q1005 RMK 1ST003 3ST010 6CU015           A2970=,- SN SH; BL SN
20180124_080000.002,0,RJSY,,,,0,20180124080000,-1,-1,-1,-1,280,-1,26,-1,45,-1,-1,,7000,0,1,3,FEW 5   SCT 20   BKN 30,-1,4,-1,9,1006,RJSY 240800Z 28026G45KT 7000 -SHSN FEW005 SCT020 BKN030     M04/M09 Q1006 RMK 1ST005 3CU020 6CU030 A2971=,- SN SH
20180124_090000.003,0,RJSY,,,,0,20180124090000,-1,-1,-1,-1,280,-1,29,-1,51,-1,-1,,3500,1,2,3,FEW 10   SCT 20   BKN 30,-1,4,-1,10,1006,RJSY 240900Z 28029G51KT 3500 R09/1000VP1800U -SHSN BLSN FEW010     SCT020 BKN030 M04/M10 Q1006 RMK 1ST010 3CU020 6CU030           A2972=,- SN SH; BL SN
20180124_100000.002,0,RJSY,,,,0,20180124100000,-1,-1,-1,-1,280,-1,24,-1,37,-1,-1,,800,1,2,3,FEW 3   SCT 5   BKN 10,-1,6,-1,9,1007,RJSY 241000Z 28024G37KT 0800 R09/1100VP1800D SHSN BLSN FEW003     SCT005 BKN010 M06/M09 Q1007 RMK 1ST003 3ST005 6ST010           A2974=,SN SH; BL SN
20180124_110000.002,0,RJSY,,,,0,20180124110000,-1,-1,-1,-1,260,-1,27,-1,39,-1,-1,,3000,1,2,3,FEW 10   SCT 20   BKN 30,-1,5,-1,9,1006,RJSY 241100Z 26027G39KT 3000 R09/0900VP1800U -SHSN BLSN FEW010     SCT020 BKN030 M05/M09 Q1006 RMK 1ST010 3CU020 6CU030           A2973=,- SN SH; BL SN
20180124_120000.002,0,RJSY,,,,0,20180124120000,-1,-1,-1,-1,270,-1,27,-1,41,-1,-1,,300,1,2,3,FEW 3   SCT 5   BKN 10,-1,6,-1,10,1007,RJSY 241200Z 27027G41KT 0300 R09/0600VP1800D SHSN BLSN FEW003     SCT005 BKN010 M06/M10 Q1007 RMK 1ST003 3ST005 6ST010           A2974=,SN SH; BL SN
20180124_220000.002,0,RJSY,,,,0,20180124220000,-1,-1,-1,-1,290,-1,16,-1,28,270,330,,4000,0,1,3,FEW 10   SCT 20   BKN 30,-1,3,-1,9,1007,RJSY 242200Z 29016G28KT 270V330 4000 -SHSN FEW010 SCT020     BKN030 M03/M09 Q1007 RMK 1ST010 3CU020 6CU030 A2974=,- SN SH
20180124_230000.002,0,RJSY,,,,0,20180124230000,-1,-1,-1,-1,250,-1,18,-1,-1,-1,-1,,4000,1,1,3,FEW 5   SCT 10   BKN 15,-1,4,-1,7,1007,RJSY 242300Z 25018KT 4000 R09/1400VP1800N -SHSN FEW005 SCT010     BKN015 M04/M07 Q1007 RMK 1ST005 3ST010 6CU015 A2975=,- SN SH
20180125_000000.002,0,RJSY,,,,0,20180125000000,-1,-1,-1,-1,290,-1,21,-1,34,260,330,,3000,1,2,3,FEW 5   SCT 10   BKN 20,-1,3,-1,7,1008,RJSY 250000Z 29021G34KT 260V330 3000 R09/0750VP1800U -SHSN     BLSN FEW005 SCT010 BKN020 M03/M07 Q1008 RMK 1ST005 3ST010           5CU020 A2977=,- SN SH; BL SN
20180125_010000.002,0,RJSY,,,,0,20180125010000,-1,-1,-1,-1,290,-1,16,-1,30,260,330,,1500,1,1,3,FEW 3   SCT 8   BKN 15,-1,3,-1,7,1008,RJSY 250100Z 29016G30KT 260V330 1500 R09/1200VP1800D -SHSN     FEW003 SCT008 BKN015 M03/M07 Q1008 RMK 1ST003 3ST008           6CU015 A2978=,- SN SH
20180125_020000.003,0,RJSY,,,,0,20180125020000,-1,-1,-1,-1,290,-1,19,-1,36,-1,-1,,200,1,2,1,VV 3,-1,3,-1,6,1008,RJSY 250200Z 29019G36KT 0200 R09/0400VP1800D SHSN BLSN VV003     M03/M06 Q1008 RMK A2978=,SN SH; BL SN
20180125_030000.002,0,RJSY,,,,0,20180125030000,-1,-1,-1,-1,290,-1,18,-1,29,250,320,,9999,0,1,3,FEW 15   SCT 30   BKN 50,-1,0,-1,11,1007,RJSY 250300Z 29018G29KT 250V320 9999 VCSH FEW015 SCT030 BKN050     M00/M11 Q1007 RMK 1CU015 3CU030 5CU050 A2974=,VC SH
20180125_040000.002,0,RJSY,,,,0,20180125040000,-1,-1,-1,-1,280,-1,24,-1,36,-1,-1,,200,1,2,1,VV 3,-1,3,-1,6,1007,RJSY 250400Z 28024G36KT 0200 R09/0300V0750U SHSN BLSN VV003     M03/M06 Q1007 RMK A2975=,SN SH; BL SN
20180125_050000.002,0,RJSY,,,,0,20180125050000,-1,-1,-1,-1,280,-1,25,-1,-1,-1,-1,,9999,0,1,3,FEW 10   SCT 30   BKN 50,-1,1,-1,8,1007,RJSY 250500Z 28025KT 9999 VCSH FEW010 SCT030 BKN050 M01/M08     Q1007 RMK 1ST010 3CU030 5CU050 A2974=,VC SH
20180125_060000.002,0,RJSY,,,,0,20180125060000,-1,-1,-1,-1,280,-1,21,-1,33,-1,-1,,9999,0,1,3,FEW 5   SCT 25   BKN 40,-1,1,-1,9,1007,RJSY 250600Z 28021G33KT 9999 -SHSN FEW005 SCT025 BKN040     M01/M09 Q1007 RMK 1ST005 3CU025 6CU040 A2974=,- SN SH
20180125_070000.002,0,RJSY,,,,0,20180125070000,-1,-1,-1,-1,280,-1,21,-1,32,-1,-1,,1000,1,2,3,FEW 2   SCT 10   BKN 15,-1,2,-1,6,1007,RJSY 250700Z 28021G32KT 1000 R09/0700VP1800U -SHSN BLSN FEW002     SCT010 BKN015 M02/M06 Q1007 RMK 1ST002 3ST010 6CU015           A2974=,- SN SH; BL SN
20180125_080000.002,0,RJSY,,,,0,20180125080000,-1,-1,-1,-1,270,-1,26,-1,40,-1,-1,,9999,0,1,3,FEW 4   SCT 25   BKN 40,-1,2,-1,7,1007,RJSY 250800Z 27026G40KT 9999 -SHSN FEW004 SCT025 BKN040     M02/M07 Q1007 RMK 1ST004 3CU025 6CU040 A2975=,- SN SH
20180125_090000.002,0,RJSY,,,,0,20180125090000,-1,-1,-1,-1,260,-1,29,-1,40,-1,-1,,300,1,2,1,VV 4,-1,3,-1,6,1008,RJSY 250900Z 26029G40KT 0300 R09/0500V1100U SHSN BLSN VV004     M03/M06 Q1008 RMK A2977=,SN SH; BL SN
20180125_100000.003,0,RJSY,,,,0,20180125100000,-1,-1,-1,-1,260,-1,30,-1,46,-1,-1,,200,1,2,1,VV 3,-1,4,-1,6,1008,RJSY 251000Z 26030G46KT 0200 R09/0450V1800D SHSN BLSN VV003     M04/M06 Q1008 RMK A2977=,SN SH; BL SN
20180125_110000.003,0,RJSY,,,,0,20180125110000,-1,-1,-1,-1,280,-1,23,-1,34,-1,-1,,7000,0,1,3,FEW 10   SCT 25   BKN 40,-1,3,-1,8,1007,RJSY 251100Z 28023G34KT 7000 -SHSN FEW010 SCT025 BKN040     M03/M08 Q1007 RMK 1ST010 3CU025 6CU040 A2976=,- SN SH
20180125_120000.002,0,RJSY,,,,0,20180125120000,-1,-1,-1,-1,270,-1,24,-1,36,-1,-1,,8000,0,1,3,FEW 4   SCT 20   BKN 30,-1,3,-1,8,1007,RJSY 251200Z 27024G36KT 8000 -SHSN FEW004 SCT020 BKN030     M03/M08 Q1007 RMK 1ST004 3CU020 6CU030 A2974=,- SN SH
20180125_220000.002,0,RJSY,,,,0,20180125220000,-1,-1,-1,-1,260,-1,20,-1,-1,-1,-1,,2000,1,1,3,FEW 5   SCT 10   BKN 20,-1,4,-1,7,1006,RJSY 252200Z 26020KT 2000 R09/0800VP1800U -SHSN FEW005 SCT010     BKN020 M04/M07 Q1006 RMK 1ST005 3ST010 7CU020 A2972=,- SN SH
20180125_230000.002,0,RJSY,,,,0,20180125230000,-1,-1,-1,-1,270,-1,25,-1,38,-1,-1,,7000,1,1,3,FEW 5   SCT 20   BKN 30,-1,3,-1,8,1006,RJSY 252300Z 27025G38KT 7000 R09/1000VP1800U -SHSN FEW005     SCT020 BKN030 M03/M08 Q1006 RMK 1ST005 3CU020 5CU030           A2971=,- SN SH
20180126_000000.002,0,RJSY,,,,0,20180126000000,-1,-1,-1,-1,280,-1,25,-1,37,-1,-1,,5000,0,1,3,FEW 5   SCT 30   BKN 40,-1,3,-1,8,1006,RJSY 260000Z 28025G37KT 5000 -SHSN FEW005 SCT030 BKN040     M03/M08 Q1006 RMK 1ST005 3CU030 6CU040 A2971=,- SN SH
20180126_010000.002,0,RJSY,,,,0,20180126010000,-1,-1,-1,-1,280,-1,24,-1,35,-1,-1,,9999,0,1,3,FEW 5   SCT 30   BKN 40,-1,2,-1,10,1006,RJSY 260100Z 28024G35KT 9999 -SHSN FEW005 SCT030 BKN040     M02/M10 Q1006 RMK 1ST005 3CU030 5CU040 A2972=,- SN SH
20180126_020000.002,0,RJSY,,,,0,20180126020000,-1,-1,-1,-1,280,-1,18,-1,32,-1,-1,,5000,1,1,3,FEW 5   SCT 30   BKN 40,-1,3,-1,8,1006,RJSY 260200Z 28018G32KT 5000 R09/0450VP1800U -SHSN FEW005     SCT030 BKN040 M03/M08 Q1006 RMK 1ST005 3ST030 6CU040           A2971=,- SN SH
20180126_030000.002,0,RJSY,,,,0,20180126030000,-1,-1,-1,-1,270,-1,20,-1,31,250,310,,3000,1,1,3,FEW 5   SCT 10   BKN 20,-1,3,-1,8,1006,RJSY 260300Z 27020G31KT 250V310 3000 R09/1300VP1800U -SHSN     FEW005 SCT010 BKN020 M03/M08 Q1006 RMK 1ST005 3ST010           6CU020 A2971=,- SN SH
20180126_040000.002,0,RJSY,,,,0,20180126040000,-1,-1,-1,-1,250,-1,23,-1,-1,-1,-1,,1000,1,1,3,FEW 5   SCT 10   BKN 15,-1,4,-1,7,1006,RJSY 260400Z 25023KT 1000 R09/1200V1800D -SHSN FEW005 SCT010     BKN015 M04/M07 Q1006 RMK 1ST005 3ST010 6CU015 A2971=,- SN SH
20180126_050000.002,0,RJSY,,,,0,20180126050000,-1,-1,-1,-1,280,-1,17,-1,27,-1,-1,,9999,0,1,3,FEW 10   SCT 25   BKN 50,-1,2,-1,10,1006,RJSY 260500Z 28017G27KT 9999 VCSH FEW010 SCT025 BKN050 M02/M10     Q1006 RMK 1ST010 3CU025 5CU050 A2971=,VC SH
20180126_060000.002,0,RJSY,,,,0,20180126060000,-1,-1,-1,-1,270,-1,17,-1,-1,240,310,,8000,1,1,3,FEW 10   SCT 20   BKN 50,-1,2,-1,8,1006,RJSY 260600Z 27017KT 240V310 8000 R09/0500VP1800U -SHSN FEW010     SCT020 BKN050 M02/M08 Q1006 RMK 1ST010 3CU020 5CU050           A2972=,- SN SH
20180126_070000.002,0,RJSY,,,,0,20180126070000,-1,-1,-1,-1,260,-1,22,-1,-1,-1,-1,,1200,1,1,3,FEW 5   SCT 10   BKN 20,-1,3,-1,6,1007,RJSY 260700Z 26022KT 1200 R09/1200VP1800D -SHSN FEW005 SCT010     BKN020 M03/M06 Q1007 RMK 1ST005 3ST010 6CU020 A2974=,- SN SH
20180126_080000.003,0,RJSY,,,,0,20180126080000,-1,-1,-1,-1,290,-1,15,-1,26,260,330,,8000,0,1,3,FEW 8   SCT 20   BKN 35,-1,2,-1,8,1007,RJSY 260800Z 29015G26KT 260V330 8000 -SHSN FEW008 SCT020     BKN035 M02/M08 Q1007 RMK 1ST008 3CU020 5CU035 A2974=,- SN SH
20180126_090000.002,0,RJSY,,,,0,20180126090000,-1,-1,-1,-1,290,-1,13,-1,-1,250,320,,9999,0,1,3,FEW 10   SCT 25   BKN 45,-1,1,-1,9,1007,RJSY 260900Z 29013KT 250V320 9999 -SHSN FEW010 SCT025 BKN045     M01/M09 Q1007 RMK 1ST010 3CU025 5CU045 A2976=,- SN SH
20180126_100000.002,0,RJSY,,,,0,20180126100000,-1,-1,-1,-1,290,-1,12,-1,22,260,340,,9999,0,1,3,FEW 10   SCT 20   BKN 30,-1,1,-1,7,1008,RJSY 261000Z 29012G22KT 260V340 9999 -SHSN FEW010 SCT020     BKN030 M01/M07 Q1008 RMK 1ST010 3CU020 5CU030 A2978=,- SN SH
20180126_110000.002,0,RJSY,,,,0,20180126110000,-1,-1,-1,-1,280,-1,14,-1,25,250,320,,7000,0,1,3,FEW 7   SCT 20   BKN 35,-1,2,-1,8,1008,RJSY 261100Z 28014G25KT 250V320 7000 -SHSN FEW007 SCT020     BKN035 M02/M08 Q1008 RMK 1ST007 4CU020 7CU035 A2979=,- SN SH
20180126_120000.002,0,RJSY,,,,0,20180126120000,-1,-1,-1,-1,290,-1,15,-1,25,260,340,,9999,0,1,3,FEW 10   SCT 30   BKN 45,-1,1,-1,7,1008,RJSY 261200Z 29015G25KT 260V340 9999 -SHSN FEW010 SCT030     BKN045 M01/M07 Q1008 RMK 1ST010 3CU030 5CU045 A2979=,- SN SH
20180126_220000.002,0,RJSY,,,,0,20180126220000,-1,-1,-1,-1,290,-1,16,-1,28,-1,-1,,9999,0,1,3,FEW 15   SCT 35   BKN 50,-1,0,-1,8,1012,RJSY 262200Z 29016G28KT 9999 VCSH FEW015 SCT035 BKN050 M00/M08     Q1012 RMK 1CU015 3CU035 5CU050 A2988=,VC SH
20180126_230000.002,0,RJSY,,,,0,20180126230000,-1,-1,-1,-1,300,-1,10,-1,-1,270,340,,1500,1,1,3,FEW 5   SCT 10   BKN 15,-1,1,-1,5,1012,RJSY 262300Z 30010KT 270V340 1500 R09/0800VP1800U -SHSN FEW005     SCT010 BKN015 M01/M05 Q1012 RMK 1ST005 3ST010 5CU015           A2991=,- SN SH
20180127_000000.002,0,RJSY,,,,0,20180127000000,-1,-1,-1,-1,290,-1,15,-1,25,260,330,,9999,0,1,3,FEW 15   SCT 35   BKN 45,1,0,-1,7,1013,RJSY 270000Z 29015G25KT 260V330 9999 -SHSN FEW015 SCT035     BKN045 00/M07 Q1013 RMK 1CU015 4CU035 6CU045 A2992=,- SN SH
20180127_010000.002,0,RJSY,,,,0,20180127010000,-1,-1,-1,-1,280,-1,16,-1,-1,260,320,,9999,0,1,3,FEW 10   SCT 20   BKN 30,1,0,-1,6,1013,RJSY 270100Z 28016KT 260V320 9999 -SHSN FEW010 SCT020 BKN030     00/M06 Q1013 RMK 1ST010 3CU020 5CU030 A2993=,- SN SH
20180127_020000.002,0,RJSY,,,,0,20180127020000,-1,-1,-1,-1,290,-1,16,-1,30,-1,-1,,9999,0,1,3,FEW 15   SCT 25   BKN 40,1,1,-1,7,1013,RJSY 270200Z 29016G30KT 9999 -SHSN FEW015 SCT025 BKN040 01/M07     Q1013 RMK 1CU015 3CU025 7CU040 A2993=,- SN SH
20180127_030000.002,0,RJSY,,,,0,20180127030000,-1,-1,-1,-1,280,-1,17,-1,-1,-1,-1,,7000,0,1,3,FEW 10   SCT 25   BKN 35,1,1,-1,8,1013,RJSY 270300Z 28017KT 7000 -SHSN FEW010 SCT025 BKN035 01/M08     Q1013 RMK 1ST010 3CU025 5CU035 A2993=,- SN SH
20180127_040000.002,0,RJSY,,,,0,20180127040000,-1,-1,-1,-1,280,-1,19,-1,29,-1,-1,,800,1,1,3,FEW 2   SCT 5   BKN 15,-1,1,-1,5,1014,RJSY 270400Z 28019G29KT 0800 R09/1100VP1800D SHSN FEW002     SCT005 BKN015 M01/M05 Q1014 RMK 1ST002 3ST005 5CU015           A2994=,SN SH
20180127_050000.002,0,RJSY,,,,0,20180127050000,-1,-1,-1,-1,280,-1,21,-1,33,-1,-1,,6000,1,1,3,FEW 5   SCT 10   BKN 20,-1,0,-1,4,1014,RJSY 270500Z 28021G33KT 6000 R09/1000VP1800U -SHSN FEW005     SCT010 BKN020 M00/M04 Q1014 RMK 1ST005 3ST010 5CU020           A2995=,- SN SH
20180127_060000.002,0,RJSY,,,,0,20180127060000,-1,-1,-1,-1,280,-1,20,-1,32,-1,-1,,8000,0,1,3,FEW 10   SCT 20   BKN 30,1,0,-1,6,1014,RJSY 270600Z 28020G32KT 8000 -SHSN FEW010 SCT020 BKN030 00/M06     Q1014 RMK 1ST010 3CU020 6CU030 A2996=,- SN SH
20180127_070000.002,0,RJSY,,,,0,20180127070000,-1,-1,-1,-1,290,-1,16,-1,28,-1,-1,,9999,0,1,3,FEW 10   SCT 20   BKN 30,-1,1,-1,5,1015,RJSY 270700Z 29016G28KT 9999 -SHSN FEW010 SCT020 BKN030     M01/M05 Q1015 RMK 1ST010 3CU020 5CU030 A2997=,- SN SH
20180127_080000.002,0,RJSY,,,,0,20180127080000,-1,-1,-1,-1,290,-1,17,-1,27,-1,-1,,3500,0,1,3,FEW 3   SCT 10   BKN 20,-1,1,-1,5,1016,RJSY 270800Z 29017G27KT 3500 -SHSN FEW003 SCT010 BKN020     M01/M05 Q1016 RMK 1ST003 3ST010 6CU020 A3000=,- SN SH
20180127_090000.003,0,RJSY,,,,0,20180127090000,-1,-1,-1,-1,270,-1,20,-1,30,-1,-1,,9999,0,1,3,FEW 10   SCT 20   BKN 40,-1,0,-1,7,1016,RJSY 270900Z 27020G30KT 9999 -SHSN FEW010 SCT020 BKN040     M00/M07 Q1016 RMK 1ST010 3CU020 6CU040 A3003=,- SN SH
20180127_100000.002,0,RJSY,,,,0,20180127100000,-1,-1,-1,-1,280,-1,14,-1,-1,250,320,,8000,0,1,3,FEW 10   SCT 20   BKN 30,-1,0,-1,6,1017,RJSY 271000Z 28014KT 250V320 8000 -SHSN FEW010 SCT020 BKN030     M00/M06 Q1017 RMK 1ST010 3CU020 6CU030 A3005=,- SN SH
20180127_110000.002,0,RJSY,,,,0,20180127110000,-1,-1,-1,-1,290,-1,15,-1,29,-1,-1,,9999,0,1,3,FEW 10   SCT 30   BKN 40,1,0,-1,8,1017,RJSY 271100Z 29015G29KT 9999 -SHSN FEW010 SCT030 BKN040 00/M08     Q1017 RMK 1ST010 3CU030 6CU040 A3005=,- SN SH
20180127_120000.002,0,RJSY,,,,0,20180127120000,-1,-1,-1,-1,270,-1,18,-1,-1,-1,-1,,9999,0,1,3,FEW 10   SCT 30   BKN 40,1,1,-1,7,1018,RJSY 271200Z 27018KT 9999 -SHSN FEW010 SCT030 BKN040 01/M07     Q1018 RMK 1ST010 3CU030 6CU040 A3007=,- SN SH
20180127_220000.002,0,RJSY,,,,0,20180127220000,-1,-1,-1,-1,270,-1,12,-1,-1,250,310,,9999,0,1,3,FEW 30   SCT 40   BKN 50,1,1,-1,8,1019,RJSY 272200Z 27012KT 250V310 9999 -SHSN FEW030 SCT040 BKN050     01/M08 Q1019 RMK 1CU030 4CU040 7CU050 A3010=,- SN SH
20180127_230000.002,0,RJSY,,,,0,20180127230000,-1,-1,-1,-1,290,-1,11,-1,-1,250,320,,9999,0,1,3,FEW 15   SCT 20   BKN 35,1,1,-1,6,1019,RJSY 272300Z 29011KT 250V320 9999 -SHSN FEW015 SCT020 BKN035     01/M06 Q1019 RMK 1CU015 3CU020 7CU035 A3011=,- SN SH
20180128_000000.003,0,RJSY,,,,0,20180128000000,-1,-1,-1,-1,270,-1,12,-1,-1,-1,-1,,6000,0,1,3,FEW 10   SCT 30   BKN 40,1,1,-1,5,1018,RJSY 280000Z 27012KT 6000 -SHSN FEW010 SCT030 BKN040 01/M05     Q1018 RMK 1ST010 3CU030 6CU040 A3009=,- SN SH
20180128_010000.002,0,RJSY,,,,0,20180128010000,-1,-1,-1,-1,300,-1,9,-1,-1,270,350,,9999,0,0,3,FEW 15   SCT 35   BKN 50,1,1,-1,5,1018,RJSY 280100Z 30009KT 270V350 9999 FEW015 SCT035 BKN050 01/M05     Q1018 RMK 1CU015 3CU035 6CU050 A3006=,
20180128_020000.002,0,RJSY,,,,0,20180128020000,-1,-1,-1,-1,300,-1,4,-1,-1,220,350,,9999,0,0,3,FEW 15   SCT 35   BKN 50,1,2,-1,6,1016,RJSY 280200Z 30004KT 220V350 9999 FEW015 SCT035 BKN050 02/M06     Q1016 RMK 1CU015 4CU035 7CU050 A3002=,
20180128_030000.002,0,RJSY,,,,0,20180128030000,-1,-1,-1,-1,120,-1,6,-1,-1,90,150,,9999,0,1,3,FEW 15   SCT 25   BKN 40,1,0,-1,5,1015,RJSY 280300Z 12006KT 090V150 9999 -SHSN FEW015 SCT025 BKN040     00/M05 Q1015 RMK 1CU015 3CU025 7CU040 A2998=,- SN SH
20180128_040000.002,0,RJSY,,,,0,20180128040000,-1,-1,-1,-1,140,-1,5,-1,-1,-1,-1,,9999,0,1,3,FEW 15   SCT 30   BKN 40,1,1,-1,5,1014,RJSY 280400Z 14005KT 9999 -SHSN FEW015 SCT030 BKN040 01/M05     Q1014 RMK 1CU015 3CU030 7CU040 A2996=,- SN SH
20180128_050000.002,0,RJSY,,,,0,20180128050000,-1,-1,-1,-1,130,-1,8,-1,-1,-1,-1,,9999,0,1,3,FEW 15   SCT 30   BKN 120,1,1,-1,4,1013,RJSY 280500Z 13008KT 9999 -SHSN FEW015 SCT030 BKN120 01/M04     Q1013 RMK 1CU015 4CU030 7AC120 A2994=,- SN SH
20180128_060000.002,0,RJSY,,,,0,20180128060000,-1,-1,-1,-1,130,-1,6,-1,-1,-1,-1,,9999,0,0,3,FEW 25   SCT 100   BKN -9999,1,1,-1,5,1012,RJSY 280600Z 13006KT 9999 FEW025 SCT100 BKN/// 01/M05 Q1012     RMK 1CU025 3AC100 A2990=,
20180128_070000.003,0,RJSY,,,,0,20180128070000,-1,-1,-1,-1,100,-1,6,-1,-1,-1,-1,,9999,0,0,3,FEW 30   SCT 70   BKN 100,1,1,-1,5,1011,RJSY 280700Z 10006KT 9999 FEW030 SCT070 BKN100 01/M05 Q1011     RMK 1CU030 3AC070 6AC100 A2988=,
20180128_080000.002,0,RJSY,,,,0,20180128080000,-1,-1,-1,-1,110,-1,7,-1,-1,-1,-1,,9999,0,0,3,FEW 30   SCT 50   BKN 70,1,0,-1,4,1011,RJSY 280800Z 11007KT 9999 FEW030 SCT050 BKN070 00/M04 Q1011     RMK 1CU030 4CU050 7AC070 A2986=,
20180128_090000.002,0,RJSY,,,,0,20180128090000,-1,-1,-1,-1,110,-1,8,-1,-1,-1,-1,,9999,0,0,3,FEW 30   SCT 50   BKN 80,1,0,-1,4,1009,RJSY 280900Z 11008KT 9999 FEW030 SCT050 BKN080 00/M04 Q1009     RMK 1CU030 3CU050 5AC080 A2982=,
20180128_100000.002,0,RJSY,,,,0,20180128100000,-1,-1,-1,-1,120,-1,7,-1,-1,-1,-1,,9999,0,0,3,FEW 20   SCT 70   BKN -9999,1,0,-1,5,1008,RJSY 281000Z 12007KT 9999 FEW020 SCT070 BKN/// 00/M05 Q1008     RMK 1CU020 3AC070 A2979=,
20180128_110000.002,0,RJSY,,,,0,20180128110000,-1,-1,-1,-1,110,-1,5,-1,-1,-1,-1,,9999,0,0,3,FEW 20   SCT 50   BKN 100,-1,0,-1,4,1007,RJSY 281100Z 11005KT 9999 FEW020 SCT050 BKN100 M00/M04 Q1007     RMK 1CU020 3CU050 6AC100 A2975=,
20180128_120000.002,0,RJSY,,,,0,20180128120000,-1,-1,-1,-1,100,-1,5,-1,-1,-1,-1,,9999,0,0,3,FEW 20   SCT 50   BKN 70,1,1,-1,4,1006,RJSY 281200Z 10005KT 9999 FEW020 SCT050 BKN070 01/M04 Q1006     RMK 1CU020 3CU050 6AC070 A2971=,
20180128_220000.003,0,RJSY,,,,0,20180128220000,-1,-1,-1,-1,300,-1,9,-1,-1,270,350,,9999,0,1,3,FEW 10   SCT 30   BKN 40,1,0,-1,6,1010,RJSY 282200Z 30009KT 270V350 9999 -SHSN FEW010 SCT030 BKN040     00/M06 Q1010 RMK 1ST010 4CU030 7CU040 A2984=,- SN SH
20180128_230000.002,0,RJSY,,,,0,20180128230000,-1,-1,-1,-1,310,-1,9,-1,-1,270,350,,9999,0,1,3,FEW 10   SCT 25   BKN 30,-1,0,-1,7,1010,RJSY 282300Z 31009KT 270V350 9999 -SHSN FEW010 SCT025 BKN030     M00/M07 Q1010 RMK 1ST010 3CU025 6CU030 A2984=,- SN SH
20180129_000000.003,0,RJSY,,,,0,20180129000000,-1,-1,-1,-1,320,-1,10,-1,20,-1,-1,,5000,0,1,3,FEW 7   SCT 12   BKN 20,1,0,-1,5,1010,RJSY 290000Z 32010G20KT 5000 -SHSN FEW007 SCT012 BKN020 00/M05     Q1010 RMK 1ST007 4ST012 7CU020 A2984=,- SN SH
20180129_010000.002,0,RJSY,,,,0,20180129010000,-1,-1,-1,-1,310,-1,10,-1,-1,270,340,,5000,0,1,3,FEW 7   SCT 12   BKN 20,-1,1,-1,5,1011,RJSY 290100Z 31010KT 270V340 5000 -SHSN FEW007 SCT012 BKN020     M01/M05 Q1011 RMK 1ST007 3ST012 6CU020 A2985=,- SN SH
20180129_020000.002,0,RJSY,,,,0,20180129020000,-1,-1,-1,-1,320,-1,8,-1,-1,290,10,,9999,0,1,3,FEW 10   SCT 25   BKN 35,1,0,-1,7,1010,RJSY 290200Z 32008KT 290V010 9999 -SHSN FEW010 SCT025 BKN035     00/M07 Q1010 RMK 1ST010 3CU025 7CU035 A2983=,- SN SH
20180129_030000.002,0,RJSY,,,,0,20180129030000,-1,-1,-1,-1,330,-1,6,-1,-1,280,30,,9999,0,0,3,FEW 15   SCT 30   BKN 70,1,1,-1,8,1009,RJSY 290300Z 33006KT 280V030 9999 FEW015 SCT030 BKN070 01/M08     Q1009 RMK 1CU015 4CU030 7AC070 A2980=,
20180129_040000.002,0,RJSY,,,,0,20180129040000,-1,-1,-1,-1,330,-1,4,-1,-1,270,40,,9999,0,1,3,FEW 10   SCT 25   BKN 30,-1,0,-1,9,1008,RJSY 290400Z 33004KT 270V040 9999 -SHSN FEW010 SCT025 BKN030     M00/M09 Q1008 RMK 1ST010 4CU025 6CU030 A2978=,- SN SH
20180129_050000.002,0,RJSY,,,,0,20180129050000,-1,-1,-1,-1,360,-1,3,-1,-1,280,50,,8000,0,1,3,FEW 8   SCT 20   BKN 30,-1,0,-1,8,1008,RJSY 290500Z 36003KT 280V050 8000 -SHSN FEW008 SCT020 BKN030     M00/M08 Q1008 RMK 1ST008 3CU020 6CU030 A2977=,- SN SH
20180129_060000.002,0,RJSY,,,,0,20180129060000,-1,-1,-1,-1,999,-1,2,-1,-1,-1,-1,,700,1,1,3,FEW 3   SCT 5   BKN 10,-1,2,-1,5,1008,RJSY 290600Z VRB02KT 0700 R09/0800VP1800D SHSN FEW003 SCT005     BKN010 M02/M05 Q1008 RMK 1ST003 3ST005 6ST010 A2978=,SN SH
20180129_070000.002,0,RJSY,,,,0,20180129070000,-1,-1,-1,-1,110,-1,5,-1,-1,-1,-1,,800,1,1,3,FEW 3   SCT 5   BKN 10,-1,3,-1,5,1007,RJSY 290700Z 11005KT 0800 R09/0800V1400U SHSN FEW003 SCT005     BKN010 M03/M05 Q1007 RMK 1ST003 3ST005 6ST010 A2976=,SN SH
20180129_080000.002,0,RJSY,,,,0,20180129080000,-1,-1,-1,-1,50,-1,4,-1,-1,-1,-1,,4000,0,1,3,FEW 7   SCT 15   BKN 25,-1,3,-1,5,1007,RJSY 290800Z 05004KT 4000 -SHSN FEW007 SCT015 BKN025 M03/M05     Q1007 RMK 1ST007 3CU015 6CU025 A2976=,- SN SH
20180129_090000.002,0,RJSY,,,,0,20180129090000,-1,-1,-1,-1,50,-1,3,-1,-1,350,100,,5000,0,1,3,FEW 7   SCT 20   BKN 40,-1,3,-1,5,1008,RJSY 290900Z 05003KT 350V100 5000 -SHSN FEW007 SCT020 BKN040     M03/M05 Q1008 RMK 1ST007 3CU020 7CU040 A2979=,- SN SH
20180129_100000.002,0,RJSY,,,,0,20180129100000,-1,-1,-1,-1,999,-1,2,-1,-1,-1,-1,,2000,0,1,3,FEW 3   SCT 5   BKN 15,-1,3,-1,5,1008,RJSY 291000Z VRB02KT 2000 -SHSN FEW003 SCT005 BKN015 M03/M05     Q1008 RMK 1ST003 3ST005 7CU015 A2979=,- SN SH
20180129_110000.002,0,RJSY,,,,0,20180129110000,-1,-1,-1,-1,40,-1,4,-1,-1,360,70,,1800,0,1,3,FEW 3   SCT 7   BKN 15,-1,3,-1,5,1010,RJSY 291100Z 04004KT 360V070 1800 -SHSN FEW003 SCT007 BKN015     M03/M05 Q1010 RMK 1ST003 3ST007 7CU015 A2983=,- SN SH
20180129_120000.002,0,RJSY,,,,0,20180129120000,-1,-1,-1,-1,360,-1,6,-1,-1,310,60,,9999,0,1,3,FEW 10   SCT 30   BKN 50,-1,3,-1,7,1010,RJSY 291200Z 36006KT 310V060 9999 -SHSN FEW010 SCT030 BKN050     M03/M07 Q1010 RMK 1ST010 3CU030 6CU050 A2984=,- SN SH
20180129_220000.002,0,RJSY,,,,0,20180129220000,-1,-1,-1,-1,280,-1,20,-1,30,-1,-1,,8000,0,1,3,FEW 20   SCT 30   BKN 50,-1,2,-1,9,1015,RJSY 292200Z 28020G30KT 8000 -SHSN FEW020 SCT030 BKN050     M02/M09 Q1015 RMK 1CU020 3CU030 6CU050 A2997=,- SN SH
20180129_230000.002,0,RJSY,,,,0,20180129230000,-1,-1,-1,-1,290,-1,13,-1,23,-1,-1,,9999,0,1,3,FEW 20   SCT 40   BKN 50,-1,2,-1,8,1015,RJSY 292300Z 29013G23KT 9999 -SHSN FEW020 SCT040 BKN050     M02/M08 Q1015 RMK 1CU020 3CU040 6CU050 A2999=,- SN SH
20180130_000000.002,0,RJSY,,,,0,20180130000000,-1,-1,-1,-1,280,-1,19,-1,33,-1,-1,,3500,1,1,3,FEW 7   SCT 20   BKN 30,-1,2,-1,7,1016,RJSY 300000Z 28019G33KT 3500 R09/0650VP1800U -SHSN FEW007     SCT020 BKN030 M02/M07 Q1016 RMK 1ST007 3CU020 6CU030           A3001=,- SN SH
20180130_010000.002,0,RJSY,,,,0,20180130010000,-1,-1,-1,-1,300,-1,11,-1,-1,270,330,,8000,0,1,3,FEW 10   SCT 25   BKN 50,-1,2,-1,6,1016,RJSY 300100Z 30011KT 270V330 8000 -SHSN FEW010 SCT025 BKN050     M02/M06 Q1016 RMK 1ST010 3CU025 6CU050 A3002=,- SN SH
20180130_020000.002,0,RJSY,,,,0,20180130020000,-1,-1,-1,-1,290,-1,14,-1,-1,260,330,,9999,0,1,3,FEW 15   SCT 35   BKN 50,-1,1,-1,8,1016,RJSY 300200Z 29014KT 260V330 9999 -SHSN FEW015 SCT035 BKN050     M01/M08 Q1016 RMK 1CU015 3CU035 5CU050 A3003=,- SN SH
20180130_030000.002,0,RJSY,,,,0,20180130030000,-1,-1,-1,-1,260,-1,21,-1,33,-1,-1,,8000,1,1,3,FEW 15   SCT 30   BKN 40,-1,1,-1,8,1016,RJSY 300300Z 26021G33KT 8000 R09/1100VP1800D -SHSN FEW015     SCT030 BKN040 M01/M08 Q1016 RMK 1CU015 3CU030 6CU040           A3003=,- SN SH
20180130_040000.002,0,RJSY,,,,0,20180130040000,-1,-1,-1,-1,290,-1,16,-1,-1,260,340,,9999,0,1,3,FEW 30   SCT 40   BKN 50,-1,1,-1,9,1016,RJSY 300400Z 29016KT 260V340 9999 -SHSN FEW030 SCT040 BKN050     M01/M09 Q1016 RMK 1CU030 3CU040 6CU050 A3001=,- SN SH
20180130_050000.002,0,RJSY,,,,0,20180130050000,-1,-1,-1,-1,280,-1,15,-1,26,-1,-1,,9999,0,1,3,FEW 20   SCT 30   BKN 40,-1,1,-1,8,1016,RJSY 300500Z 28015G26KT 9999 -SHSN FEW020 SCT030 BKN040     M01/M08 Q1016 RMK 1CU020 3CU030 5CU040 A3002=,- SN SH
20180130_060000.003,0,RJSY,,,,0,20180130060000,-1,-1,-1,-1,290,-1,16,-1,28,260,330,,9999,0,1,3,FEW 15   SCT 30   BKN 50,-1,1,-1,9,1017,RJSY 300600Z 29016G28KT 260V330 9999 -SHSN FEW015 SCT030     BKN050 M01/M09 Q1017 RMK 1CU015 4CU030 6CU050 A3003=,- SN SH
20180130_070000.002,0,RJSY,,,,0,20180130070000,-1,-1,-1,-1,260,-1,18,-1,31,-1,-1,,8000,0,1,3,FEW 10   SCT 20   BKN 30,-1,2,-1,7,1017,RJSY 300700Z 26018G31KT 8000 -SHSN FEW010 SCT020 BKN030     M02/M07 Q1017 RMK 1ST010 3CU020 6CU030 A3005=,- SN SH
20180130_080000.002,0,RJSY,,,,0,20180130080000,-1,-1,-1,-1,290,-1,15,-1,27,260,330,,9999,0,1,3,FEW 15   SCT 30   BKN 50,-1,1,-1,8,1018,RJSY 300800Z 29015G27KT 260V330 9999 -SHSN FEW015 SCT030     BKN050 M01/M08 Q1018 RMK 1CU015 3CU030 6CU050 A3007=,- SN SH
20180130_090000.002,0,RJSY,,,,0,20180130090000,-1,-1,-1,-1,300,-1,13,-1,23,260,340,,9999,0,0,3,FEW 20   SCT 30   BKN 50,-1,0,-1,8,1018,RJSY 300900Z 30013G23KT 260V340 9999 FEW020 SCT030 BKN050     M00/M08 Q1018 RMK 1CU020 3CU030 6CU050 A3008=,
20180130_100000.002,0,RJSY,,,,0,20180130100000,-1,-1,-1,-1,300,-1,13,-1,23,-1,-1,,9999,0,1,3,FEW 15   SCT 25   BKN 40,-1,0,-1,7,1018,RJSY 301000Z 30013G23KT 9999 -SHSN FEW015 SCT025 BKN040     M00/M07 Q1018 RMK 1CU015 3CU025 6CU040 A3009=,- SN SH
20180130_110000.002,0,RJSY,,,,0,20180130110000,-1,-1,-1,-1,300,-1,12,-1,22,260,330,,7000,0,1,3,FEW 10   SCT 20   BKN 30,-1,0,-1,7,1019,RJSY 301100Z 30012G22KT 260V330 7000 -SHSN FEW010 SCT020     BKN030 M00/M07 Q1019 RMK 1ST010 3CU020 6CU030 A3010=,- SN SH
20180130_120000.002,0,RJSY,,,,0,20180130120000,-1,-1,-1,-1,300,-1,12,-1,-1,260,350,,4500,0,1,3,FEW 5   SCT 10   BKN 20,-1,1,-1,6,1020,RJSY 301200Z 30012KT 260V350 4500 -SHSN FEW005 SCT010 BKN020     M01/M06 Q1020 RMK 1ST005 3ST010 6CU020 A3012=,- SN SH
20180130_220000.002,0,RJSY,,,,0,20180130220000,-1,-1,-1,-1,300,-1,8,-1,-1,270,10,,2500,0,1,3,FEW 5   SCT 10   BKN 20,1,0,-1,3,1020,RJSY 302200Z 30008KT 270V010 2500 -SHSN FEW005 SCT010 BKN020     00/M03 Q1020 RMK 1ST005 3ST010 7CU020 A3013=,- SN SH
20180130_230000.002,0,RJSY,,,,0,20180130230000,-1,-1,-1,-1,340,-1,5,-1,-1,280,30,,8000,0,1,3,FEW 10   SCT 15   BKN 20,-1,0,-1,3,1021,RJSY 302300Z 34005KT 280V030 8000 -SHSN FEW010 SCT015 BKN020     M00/M03 Q1021 RMK 1ST010 3CU015 6CU020 A3015=,- SN SH
20180131_000000.002,0,RJSY,,,,0,20180131000000,-1,-1,-1,-1,110,-1,7,-1,-1,-1,-1,,9999,0,0,3,FEW 5   BKN 20   BKN 40,-1,1,-1,3,1021,RJSY 310000Z 11007KT 9999 FEW005 BKN020 BKN040 M01/M03 Q1021     RMK 1ST005 5CU020 7CU040 A3017=,
20180131_010000.002,0,RJSY,,,,0,20180131010000,-1,-1,-1,-1,130,-1,7,-1,-1,-1,-1,,9999,0,0,3,FEW 5   SCT 40   BKN 70,-1,0,-1,3,1021,RJSY 310100Z 13007KT 9999 FEW005 SCT040 BKN070 M00/M03 Q1021     RMK 1ST005 4CU040 7AC070 A3017=,
20180131_020000.002,0,RJSY,,,,0,20180131020000,-1,-1,-1,-1,120,-1,7,-1,-1,-1,-1,,8000,0,1,3,FEW 5   SCT 25   BKN 40,1,0,-1,3,1021,RJSY 310200Z 12007KT 8000 -SHSN FEW005 SCT025 BKN040 00/M03     Q1021 RMK 1ST005 3CU025 7CU040 A3015=,- SN SH
20180131_030000.002,0,RJSY,,,,0,20180131030000,-1,-1,-1,-1,100,-1,6,-1,-1,-1,-1,,3500,0,1,3,FEW 5   SCT 10   BKN 20,1,0,-1,3,1020,RJSY 310300Z 10006KT 3500 -SHSN FEW005 SCT010 BKN020 00/M03     Q1020 RMK 1ST005 3ST010 7CU020 A3012=,- SN SH
20180131_040000.002,0,RJSY,,,,0,20180131040000,-1,-1,-1,-1,80,-1,5,-1,-1,-1,-1,,1500,1,1,3,FEW 3   SCT 8   BKN 15,-1,0,-1,2,1019,RJSY 310400Z 08005KT 1500 R09/1800D -SHSN FEW003 SCT008 BKN015     M00/M02 Q1019 RMK 1ST003 3ST008 7CU015 A3010=,- SN SH
20180131_050000.002,0,RJSY,,,,0,20180131050000,-1,-1,-1,-1,70,-1,5,-1,-1,-1,-1,,400,1,1,3,FEW 1   SCT 2   BKN 4,-1,0,-1,2,1019,RJSY 310500Z 07005KT 0400 R09/0650V0900D SHSN FEW001 SCT002     BKN004 M00/M02 Q1019 RMK 1ST001 4ST002 7ST004 A3009=,SN SH
20180131_060000.002,0,RJSY,,,,0,20180131060000,-1,-1,-1,-1,180,-1,5,-1,-1,150,240,,4000,1,1,3,FEW 5   SCT 10   BKN 15,1,0,-1,1,1019,RJSY 310600Z 18005KT 150V240 4000 R09/1300VP1800U -SHSN FEW005     SCT010 BKN015 00/M01 Q1019 RMK 2ST005 4ST010 6CU015           A3009=,- SN SH
20180131_070000.003,0,RJSY,,,,0,20180131070000,-1,-1,-1,-1,300,-1,17,-1,30,-1,-1,,9999,0,0,3,FEW 5   SCT 10   BKN 25,1,2,1,0,1020,RJSY 310700Z 30017G30KT 9999 FEW005 SCT010 BKN025 02/00 Q1020     RMK 1ST005 3ST010 5CU025 A3012=,
20180131_080000.003,0,RJSY,,,,0,20180131080000,-1,-1,-1,-1,300,-1,17,-1,30,-1,-1,,9999,0,0,3,FEW 20   SCT 40   BKN 50,1,3,-1,4,1021,RJSY 310800Z 30017G30KT 9999 FEW020 SCT040 BKN050 03/M04 Q1021     RMK 1CU020 4CU040 6CU050 A3016=,
20180131_090000.002,0,RJSY,,,,0,20180131090000,-1,-1,-1,-1,300,-1,16,-1,26,-1,-1,,9999,0,0,3,FEW 30   SCT 40   BKN 50,1,2,-1,4,1022,RJSY 310900Z 30016G26KT 9999 FEW030 SCT040 BKN050 02/M04 Q1022     RMK 1CU030 4CU040 6CU050 A3018=,
20180131_100000.002,0,RJSY,,,,0,20180131100000,-1,-1,-1,-1,290,-1,12,-1,-1,260,320,,9999,0,0,2,SCT 30   BKN 40,1,2,-1,6,1023,RJSY 311000Z 29012KT 260V320 9999 SCT030 BKN040 02/M06 Q1023     RMK 3CU030 6CU040 A3023=,
20180131_110000.002,0,RJSY,,,,0,20180131110000,-1,-1,-1,-1,290,-1,12,-1,-1,260,320,,9999,0,0,2,FEW 35   BKN 45,1,2,-1,6,1024,RJSY 311100Z 29012KT 260V320 9999 FEW035 BKN045 02/M06 Q1024     RMK 2CU035 6CU045 A3024=,
20180131_120000.002,0,RJSY,,,,0,20180131120000,-1,-1,-1,-1,290,-1,10,-1,-1,260,340,,9999,0,0,2,FEW 35   BKN 45,1,1,-1,6,1024,RJSY 311200Z 29010KT 260V340 9999 FEW035 BKN045 01/M06 Q1024     RMK 2CU035 6CU045 A3026=,
20180131_220000.002,0,RJSY,,,,0,20180131220000,-1,-1,-1,-1,300,-1,5,-1,-1,260,330,,9999,0,0,3,FEW 30   SCT 40   BKN 50,1,1,-1,7,1026,RJSY 312200Z 30005KT 260V330 9999 FEW030 SCT040 BKN050 01/M07     Q1026 RMK 1CU030 4CU040 7CU050 A3032=,
20180131_230000.002,0,RJSY,,,,0,20180131230000,-1,-1,-1,-1,320,-1,4,-1,-1,260,10,,9999,0,0,2,SCT 30   BKN 40,1,1,-1,7,1026,RJSY 312300Z 32004KT 260V010 9999 SCT030 BKN040 01/M07 Q1026     RMK 3CU030 6CU040 A3032=,
20180201_000000.003,0,RJSY,,,,0,20180201000000,-1,-1,-1,-1,320,-1,3,-1,-1,240,10,,9999,0,0,2,FEW 20   BKN 40,1,2,-1,8,1027,RJSY 010000Z 32003KT 240V010 9999 FEW020 BKN040 02/M08 Q1027     RMK 1CU020 6CU040 A3034=,
20180201_010000.002,0,RJSY,,,,0,20180201010000,-1,-1,-1,-1,300,-1,4,-1,-1,250,360,,9999,0,0,3,FEW 25   BKN 35   BKN 45,1,2,-1,7,1027,RJSY 010100Z 30004KT 250V360 9999 FEW025 BKN035 BKN045 02/M07     Q1027 RMK 1CU025 5CU035 7CU045 A3035=,
20180201_020000.002,0,RJSY,,,,0,20180201020000,-1,-1,-1,-1,300,-1,3,-1,-1,250,340,,9999,0,0,3,FEW 25   BKN 30   BKN 40,1,2,-1,6,1028,RJSY 010200Z 30003KT 250V340 9999 FEW025 BKN030 BKN040 02/M06     Q1028 RMK 1CU025 5CU030 7CU040 A3036=,
20180201_030000.003,0,RJSY,,,,0,20180201030000,-1,-1,-1,-1,320,-1,4,-1,-1,280,10,,9999,0,0,3,FEW 25   SCT 30   BKN 40,1,2,-1,6,1027,RJSY 010300Z 32004KT 280V010 9999 FEW025 SCT030 BKN040 02/M06     Q1027 RMK 1CU025 4CU030 6CU040 A3034=,
20180201_040000.003,0,RJSY,,,,0,20180201040000,-1,-1,-1,-1,320,-1,4,-1,-1,260,30,,9999,0,0,2,FEW 25   BKN 35,1,2,-1,7,1027,RJSY 010400Z 32004KT 260V030 9999 FEW025 BKN035 02/M07 Q1027     RMK 1CU025 7CU035 A3033=,
20180201_050000.002,0,RJSY,,,,0,20180201050000,-1,-1,-1,-1,340,-1,6,-1,-1,300,30,,9999,0,0,2,FEW 25   BKN 40,1,1,-1,7,1026,RJSY 010500Z 34006KT 300V030 9999 FEW025 BKN040 01/M07 Q1026     RMK 1CU025 6CU040 A3032=,
20180201_060000.002,0,RJSY,,,,0,20180201060000,-1,-1,-1,-1,360,-1,4,-1,-1,300,60,,9999,0,0,2,FEW 25   BKN 40,1,2,-1,7,1027,RJSY 010600Z 36004KT 300V060 9999 FEW025 BKN040 02/M07 Q1027     RMK 1CU025 5CU040 A3033=,
20180201_070000.002,0,RJSY,,,,0,20180201070000,-1,-1,-1,-1,10,-1,3,-1,-1,300,70,,9999,0,0,2,FEW 25   SCT 40,1,1,-1,7,1027,RJSY 010700Z 01003KT 300V070 9999 FEW025 SCT040 01/M07 Q1027     RMK 1CU025 3CU040 A3034=,
20180201_080000.002,0,RJSY,,,,0,20180201080000,-1,-1,-1,-1,50,-1,3,-1,-1,-1,-1,,9999,0,0,2,FEW 25   SCT 40,-1,0,-1,7,1027,RJSY 010800Z 05003KT 9999 FEW025 SCT040 M00/M07 Q1027 RMK     1CU025 3CU040 A3034=,
20180201_090000.002,0,RJSY,,,,0,20180201090000,-1,-1,-1,-1,90,-1,4,-1,-1,-1,-1,,9999,0,0,1,FEW 35,-1,3,-1,8,1027,RJSY 010900Z 09004KT 9999 FEW035 M03/M08 Q1027 RMK 2CU035     A3035=,
20180201_100000.002,0,RJSY,,,,0,20180201100000,-1,-1,-1,-1,90,-1,3,-1,-1,-1,-1,,9999,0,0,1,FEW 35,-1,4,-1,9,1027,RJSY 011000Z 09003KT 9999 FEW035 M04/M09 Q1027 RMK 1CU035     A3035=,
20180201_110000.002,0,RJSY,,,,0,20180201110000,-1,-1,-1,-1,90,-1,3,-1,-1,60,120,,9999,0,0,1,FEW 35,-1,5,-1,9,1027,RJSY 011100Z 09003KT 060V120 9999 FEW035 M05/M09 Q1027 RMK     1CU035 A3035=,
20180201_120000.002,0,RJSY,,,,0,20180201120000,-1,-1,-1,-1,80,-1,9,-1,-1,-1,-1,,9999,0,0,1,FEW 35,-1,8,-1,10,1028,RJSY 011200Z 08009KT 9999 FEW035 M08/M10 Q1028 RMK 1CU035     A3037=,
20180201_220000.002,0,RJSY,,,,0,20180201220000,-1,-1,-1,-1,90,-1,7,-1,-1,-1,-1,,9999,0,0,1,FEW 3,-1,11,-1,13,1028,RJSY 012200Z 09007KT 9999 FEW003 M11/M13 Q1028 RMK 1ST003     A3036=,
20180201_230000.003,0,RJSY,,,,0,20180201230000,-1,-1,-1,-1,90,-1,7,-1,-1,-1,-1,,9999,0,0,1,FEW 2,-1,10,-1,12,1028,RJSY 012300Z 09007KT 9999 FEW002 M10/M12 Q1028 RMK 1ST002     A3037=,
20180202_000000.002,0,RJSY,,,,0,20180202000000,-1,-1,-1,-1,90,-1,8,-1,-1,-1,-1,,9999,0,0,1,FEW 30,-1,8,-1,11,1028,RJSY 020000Z 09008KT 9999 FEW030 M08/M11 Q1028 RMK 1CU030     A3036=,
20180202_010000.002,0,RJSY,,,,0,20180202010000,-1,-1,-1,-1,90,-1,6,-1,-1,-1,-1,,9999,0,0,1,FEW 30,-1,5,-1,8,1027,RJSY 020100Z 09006KT 9999 FEW030 M05/M08 Q1027 RMK 1CU030     A3033=,
20180202_020000.002,0,RJSY,,,,0,20180202020000,-1,-1,-1,-1,80,-1,6,-1,-1,-1,-1,,9999,0,0,1,FEW 40,-1,2,-1,8,1026,RJSY 020200Z 08006KT 9999 FEW040 M02/M08 Q1026 RMK 1CU040     A3031=,
20180202_030000.002,0,RJSY,,,,0,20180202030000,-1,-1,-1,-1,70,-1,5,-1,-1,-1,-1,,9999,0,0,1,FEW 30,-1,0,-1,7,1025,RJSY 020300Z 07005KT 9999 FEW030 M00/M07 Q1025 RMK 1CU030     A3028=,
20180202_040000.002,0,RJSY,,,,0,20180202040000,-1,-1,-1,-1,70,-1,4,-1,-1,-1,-1,,9999,0,0,1,FEW 30,1,1,-1,6,1024,RJSY 020400Z 07004KT 9999 FEW030 01/M06 Q1024 RMK 1CU030     A3026=,
20180202_050000.001,0,RJSY,,,,0,20180202050000,-1,-1,-1,-1,90,-1,6,-1,-1,-1,-1,,9999,0,0,1,FEW 30,1,1,-1,6,1024,RJSY 020500Z 09006KT 9999 FEW030 01/M06 Q1024 RMK 1CU030     A3025=,
20180202_060000.002,0,RJSY,,,,0,20180202060000,-1,-1,-1,-1,999,-1,2,-1,-1,-1,-1,,9999,0,0,1,FEW 30,1,2,-1,6,1025,RJSY 020600Z VRB02KT 9999 FEW030 02/M06 Q1025 RMK 1CU030     A3027=,
20180202_070000.002,0,RJSY,,,,0,20180202070000,-1,-1,-1,-1,999,-1,2,-1,-1,-1,-1,,9999,0,0,1,FEW 30,1,2,-1,5,1024,RJSY 020700Z VRB02KT 9999 FEW030 02/M05 Q1024 RMK 1CU030     A3026=,
20180202_080000.002,0,RJSY,,,,0,20180202080000,-1,-1,-1,-1,30,-1,3,-1,-1,-1,-1,,9999,0,0,2,FEW 40   SCT -9999,1,1,-1,5,1024,RJSY 020800Z 03003KT 9999 FEW040 SCT/// 01/M05 Q1024 RMK     1SC040 A3025=,
20180202_090000.002,0,RJSY,,,,0,20180202090000,-1,-1,-1,-1,90,-1,3,-1,-1,-1,-1,,9999,0,0,2,FEW 40   BKN -9999,-1,2,-1,6,1024,RJSY 020900Z 09003KT 9999 FEW040 BKN/// M02/M06 Q1024 RMK     1SC040 A3025=,
20180202_100000.003,0,RJSY,,,,0,20180202100000,-1,-1,-1,-1,120,-1,3,-1,-1,-1,-1,,9999,0,0,2,FEW 40   SCT -9999,-1,3,-1,7,1023,RJSY 021000Z 12003KT 9999 FEW040 SCT/// M03/M07 Q1023 RMK     1SC040 A3023=,
20180202_110000.002,0,RJSY,,,,0,20180202110000,-1,-1,-1,-1,90,-1,4,-1,-1,-1,-1,,9999,0,0,2,FEW 40   BKN -9999,-1,3,-1,7,1023,RJSY 021100Z 09004KT 9999 FEW040 BKN/// M03/M07 Q1023 RMK     1SC040 A3021=,
20180202_120000.002,0,RJSY,,,,0,20180202120000,-1,-1,-1,-1,100,-1,6,-1,-1,-1,-1,,9999,0,0,3,FEW 40   SCT 160   BKN -9999,-1,4,-1,5,1022,RJSY 021200Z 10006KT 9999 FEW040 SCT160 BKN/// M04/M05 Q1022     RMK 1SC040 3AC160 A3019=,
20180202_220000.002,0,RJSY,,,,0,20180202220000,-1,-1,-1,-1,120,-1,8,-1,-1,-1,-1,,9999,0,0,1,FEW 30,-1,3,-1,8,1017,RJSY 022200Z 12008KT 9999 FEW030 M03/M08 Q1017 RMK 1CU030     A3003=,
20180202_230000.003,0,RJSY,,,,0,20180202230000,-1,-1,-1,-1,120,-1,8,-1,-1,-1,-1,,9999,0,0,1,FEW 10,-1,2,-1,8,1016,RJSY 022300Z 12008KT 9999 FEW010 M02/M08 Q1016 RMK 1ST010     A3002=,
20180203_000000.002,0,RJSY,,,,0,20180203000000,-1,-1,-1,-1,120,-1,7,-1,-1,-1,-1,,9999,0,0,2,FEW 25   SCT -9999,-1,0,-1,7,1016,RJSY 030000Z 12007KT 9999 FEW025 SCT/// M00/M07 Q1016 RMK     1CU025 A3000=,
20180203_010000.003,0,RJSY,,,,0,20180203010000,-1,-1,-1,-1,110,-1,5,-1,-1,80,150,,9999,0,0,2,FEW 40   SCT -9999,1,2,-1,6,1015,RJSY 030100Z 11005KT 080V150 9999 FEW040 SCT/// 02/M06 Q1015     RMK 1CU040 A2999=,
20180203_020000.002,0,RJSY,,,,0,20180203020000,-1,-1,-1,-1,90,-1,7,-1,-1,-1,-1,,9999,0,0,3,FEW 40   SCT 110   BKN -9999,1,3,-1,5,1015,RJSY 030200Z 09007KT 9999 FEW040 SCT110 BKN/// 03/M05 Q1015     RMK 1CU040 3AC110 A2997=,
20180203_030000.002,0,RJSY,,,,0,20180203030000,-1,-1,-1,-1,70,-1,7,-1,-1,-1,-1,,9999,0,0,3,FEW 40   SCT 70   BKN 110,1,3,-1,4,1014,RJSY 030300Z 07007KT 9999 FEW040 SCT070 BKN110 03/M04 Q1014     RMK 1CU040 3AC070 5AC110 A2994=,
20180203_040000.002,0,RJSY,,,,0,20180203040000,-1,-1,-1,-1,70,-1,4,-1,-1,30,150,,9999,0,0,3,FEW 30   SCT 80   BKN 100,1,6,-1,3,1013,RJSY 030400Z 07004KT 030V150 9999 FEW030 SCT080 BKN100 06/M03     Q1013 RMK 1CU030 3AC080 5AC100 A2991=,
20180203_050000.002,0,RJSY,,,,0,20180203050000,-1,-1,-1,-1,240,-1,18,-1,-1,-1,-1,,9999,0,1,3,FEW 20   SCT 30   BKN 50,1,5,1,0,1013,RJSY 030500Z 24018KT 9999 -SHRA FEW020 SCT030 BKN050 05/00     Q1013 RMK 1CU020 3CU030 6CU050 A2991=,- RA SH
20180203_060000.002,0,RJSY,,,,0,20180203060000,-1,-1,-1,-1,160,-1,6,-1,-1,130,200,,9999,0,1,3,FEW 15   SCT 30   BKN 40,1,4,1,0,1013,RJSY 030600Z 16006KT 130V200 9999 -SHRA FEW015 SCT030 BKN040     04/00 Q1013 RMK 1CU015 3CU030 5CU040 A2992=,- RA SH
20180203_070000.003,0,RJSY,,,,0,20180203070000,-1,-1,-1,-1,150,-1,6,-1,-1,-1,-1,,9999,0,1,3,FEW 15   SCT 30   BKN 40,1,3,1,0,1013,RJSY 030700Z 15006KT 9999 -SHRA FEW015 SCT030 BKN040 03/00     Q1013 RMK 1CU015 3CU030 6CU040 A2993=,- RA SH
20180203_080000.002,0,RJSY,,,,0,20180203080000,-1,-1,-1,-1,150,-1,6,-1,-1,100,230,,9999,0,1,3,FEW 15   SCT 40   BKN 50,1,4,-1,0,1013,RJSY 030800Z 15006KT 100V230 9999 -SHRA FEW015 SCT040 BKN050     04/M00 Q1013 RMK 1CU015 4CU040 6CU050 A2992=,- RA SH
20180203_090000.002,0,RJSY,,,,0,20180203090000,-1,-1,-1,-1,170,-1,7,-1,-1,140,300,,9999,0,1,3,FEW 10   SCT 30   BKN 40,1,3,-1,1,1013,RJSY 030900Z 17007KT 140V300 9999 -SHRASN FEW010 SCT030 BKN040     03/M01 Q1013 RMK 1ST010 3CU030 6CU040 A2992=,- RA SN SH
20180203_100000.002,0,RJSY,,,,0,20180203100000,-1,-1,-1,-1,230,-1,23,-1,-1,-1,-1,,9999,0,1,3,FEW 15   SCT 40   BKN 50,1,5,-1,2,1013,RJSY 031000Z 23023KT 9999 -SHRA FEW015 SCT040 BKN050 05/M02     Q1013 RMK 1CU015 3CU040 6CU050 A2992=,- RA SH
20180203_110000.002,0,RJSY,,,,0,20180203110000,-1,-1,-1,-1,220,-1,19,-1,-1,-1,-1,,9999,0,0,3,FEW 10   SCT 30   BKN 40,1,5,-1,3,1012,RJSY 031100Z 22019KT 9999 FEW010 SCT030 BKN040 05/M03 Q1012     RMK 1ST010 3CU030 5CU040 A2991=,
20180203_120000.002,0,RJSY,,,,0,20180203120000,-1,-1,-1,-1,250,-1,24,-1,-1,-1,-1,,9999,0,0,3,FEW 15   SCT 40   BKN 80,1,4,-1,3,1012,RJSY 031200Z 25024KT 9999 FEW015 SCT040 BKN080 04/M03 Q1012     RMK 1CU015 3CU040 5AC080 A2990=,
20180203_220000.002,0,RJSY,,,,0,20180203220000,-1,-1,-1,-1,340,-1,4,-1,-1,270,50,,9999,0,1,3,FEW 15   SCT 35   BKN 50,1,3,-1,4,1010,RJSY 032200Z 34004KT 270V050 9999 -SHSN FEW015 SCT035 BKN050     03/M04 Q1010 RMK 1CU015 4CU035 7CU050 A2982=,- SN SH
20180203_230000.002,0,RJSY,,,,0,20180203230000,-1,-1,-1,-1,160,-1,8,-1,-1,-1,-1,,600,1,1,3,FEW 2   SCT 5   BKN 10,1,0,-1,1,1010,RJSY 032300Z 16008KT 0600 R09/P1800N SHSN FEW002 SCT005 BKN010     00/M01 Q1010 RMK 1ST002 3ST005 6ST010 A2983=,SN SH
20180204_000000.002,0,RJSY,,,,0,20180204000000,-1,-1,-1,-1,150,-1,6,-1,-1,-1,-1,,1500,1,1,3,FEW 2   SCT 7   BKN 10,1,0,-1,1,1010,RJSY 040000Z 15006KT 1500 R09/P1800N -SHSN FEW002 SCT007     BKN010 00/M01 Q1010 RMK 1ST002 3ST007 5ST010 A2982=,- SN SH
20180204_010000.002,0,RJSY,,,,0,20180204010000,-1,-1,-1,-1,110,-1,3,-1,-1,-1,-1,,4000,0,1,3,FEW 3   SCT 5   BKN 20,1,0,-1,1,1009,RJSY 040100Z 11003KT 4000 -SHSN FEW003 SCT005 BKN020 00/M01     Q1009 RMK 1ST003 4ST005 6CU020 A2981=,- SN SH
20180204_020000.002,0,RJSY,,,,0,20180204020000,-1,-1,-1,-1,120,-1,7,-1,-1,-1,-1,,9999,0,1,3,FEW 2   SCT 8   BKN 30,1,1,-1,1,1008,RJSY 040200Z 12007KT 9999 -SHSN FEW002 SCT008 BKN030 01/M01     Q1008 RMK 1ST002 3ST008 6CU030 A2978=,- SN SH
20180204_030000.002,0,RJSY,,,,0,20180204030000,-1,-1,-1,-1,290,-1,17,-1,30,-1,-1,,200,1,1,1,VV 3,1,0,-1,1,1008,RJSY 040300Z 29017G30KT 0200 R09/0350V0900D SHSN VV003 00/M01     Q1008 RMK A2977=,SN SH
20180204_040000.002,0,RJSY,,,,0,20180204040000,-1,-1,-1,-1,150,-1,4,-1,-1,130,190,,4000,1,1,3,FEW 3   SCT 10   BKN 20,1,1,-1,1,1007,RJSY 040400Z 15004KT 130V190 4000 R09/P1800N -SHSN FEW003     SCT010 BKN020 01/M01 Q1007 RMK 1ST003 3ST010 6CU020 A2975           1000SW-W=,- SN SH
20180204_050000.002,0,RJSY,,,,0,20180204050000,-1,-1,-1,-1,300,-1,6,-1,20,220,330,,500,1,1,3,FEW 1   SCT 3   BKN 6,1,0,-1,1,1007,RJSY 040500Z 30006G20KT 220V330 0500 R09/0800V1700D SHSN     FEW001 SCT003 BKN006 00/M01 Q1007 RMK 1ST001 3ST003           6ST006 A2975=,SN SH
20180204_060000.002,0,RJSY,,,,0,20180204060000,-1,-1,-1,-1,230,-1,9,-1,-1,-1,-1,,6000,0,1,3,FEW 3   SCT 8   BKN 15,1,1,-1,0,1007,RJSY 040600Z 23009KT 6000 -SHSN FEW003 SCT008 BKN015 01/M00     Q1007 RMK 1ST003 3ST008 6CU015 A2976=,- SN SH
20180204_070000.002,0,RJSY,,,,0,20180204070000,-1,-1,-1,-1,999,-1,3,-1,-1,-1,-1,,9999,0,1,3,FEW 3   SCT 5   BKN 10,1,2,-1,0,1007,RJSY 040700Z VRB03KT 9999 -SHSN FEW003 SCT005 BKN010 02/M00     Q1007 RMK 1ST003 3ST005 6ST010 A2975=,- SN SH
20180204_080000.002,0,RJSY,,,,0,20180204080000,-1,-1,-1,-1,330,-1,5,-1,-1,300,30,,5000,0,1,3,FEW 6   SCT 12   BKN 20,1,0,-1,1,1007,RJSY 040800Z 33005KT 300V030 5000 -SHSN FEW006 SCT012 BKN020     00/M01 Q1007 RMK 1ST006 3ST012 5CU020 A2976=,- SN SH
20180204_090000.002,0,RJSY,,,,0,20180204090000,-1,-1,-1,-1,999,-1,4,-1,-1,-1,-1,,1500,1,1,3,FEW 2   SCT 4   BKN 8,1,0,-1,1,1008,RJSY 040900Z VRB04KT 1500 R09/P1800N -SHSN FEW002 SCT004     BKN008 00/M01 Q1008 RMK 1ST002 3ST004 6ST008 A2978=,- SN SH
20180204_100000.002,0,RJSY,,,,0,20180204100000,-1,-1,-1,-1,20,-1,4,-1,-1,330,80,,5000,0,1,3,FEW 5   SCT 10   BKN 15,1,1,-1,1,1008,RJSY 041000Z 02004KT 330V080 5000 -SHSN FEW005 SCT010 BKN015     01/M01 Q1008 RMK 1ST005 3ST010 6CU015 A2979=,- SN SH
20180204_110000.003,0,RJSY,,,,0,20180204110000,-1,-1,-1,-1,310,-1,12,-1,-1,280,340,,3000,0,1,4,FEW 4   SCT 7   BKN 15   FEW 20 CB,1,1,-1,1,1008,RJSY 041100Z 31012KT 280V340 3000 -SHSN FEW004 SCT007 BKN015     FEW020CB 01/M01 Q1008 RMK 1ST004 3ST007 6CU015 1CB020           A2979 CB 15KM S MOV SE=,- SN SH
20180204_120000.002,0,RJSY,,,,0,20180204120000,-1,-1,-1,-1,310,-1,11,-1,-1,270,10,,9999,0,0,3,FEW 5   SCT 15   BKN 40,1,2,-1,1,1008,RJSY 041200Z 31011KT 270V010 9999 FEW005 SCT015 BKN040 02/M01     Q1008 RMK 1ST005 3CU015 6CU040 A2979=,
20180204_220000.002,0,RJSY,,,,0,20180204220000,-1,-1,-1,-1,270,-1,24,-1,39,-1,-1,,9999,0,1,3,FEW 15   SCT 40   BKN 50,1,1,-1,8,1010,RJSY 042200Z 27024G39KT 9999 -SHSN FEW015 SCT040 BKN050 01/M08     Q1010 RMK 1CU015 3CU040 6CU050 A2985=,- SN SH
20180204_230000.002,0,RJSY,,,,0,20180204230000,-1,-1,-1,-1,270,-1,21,-1,34,-1,-1,,9999,0,0,3,FEW 20   SCT 40   BKN 50,1,1,-1,8,1011,RJSY 042300Z 27021G34KT 9999 FEW020 SCT040 BKN050 01/M08 Q1011     RMK 1CU020 3CU040 5CU050 A2987=,
20180205_000000.003,0,RJSY,,,,0,20180205000000,-1,-1,-1,-1,280,-1,20,-1,30,-1,-1,,9999,0,1,3,FEW 15   SCT 40   BKN 50,1,1,-1,7,1011,RJSY 050000Z 28020G30KT 9999 -SHSN FEW015 SCT040 BKN050 01/M07     Q1011 RMK 1CU015 3CU040 6CU050 A2987=,- SN SH
20180205_010000.002,0,RJSY,,,,0,20180205010000,-1,-1,-1,-1,270,-1,21,-1,-1,-1,-1,,9999,0,0,3,FEW 20   SCT 30   BKN 50,1,1,-1,7,1011,RJSY 050100Z 27021KT 9999 FEW020 SCT030 BKN050 01/M07 Q1011     RMK 1CU020 3CU030 5CU050 A2987=,
20180205_020000.002,0,RJSY,,,,0,20180205020000,-1,-1,-1,-1,280,-1,19,-1,30,-1,-1,,9999,0,0,3,FEW 20   SCT 35   BKN 50,1,1,-1,7,1011,RJSY 050200Z 28019G30KT 9999 FEW020 SCT035 BKN050 01/M07 Q1011     RMK 1CU020 3CU035 6CU050 A2987=,
