20180101_000000.003,0,RJTC,,,,0,20180101000000,-1,-1,-1,-1,999,-1,1,-1,-1,-1,-1,,9999,0,0,1,FEW 30,1,3,-1,1,1012,RJTC 010000Z VRB01KT 9999 FEW030 03/M01 Q1012 RMK 1CU030     A2990=,
20180101_010000.003,0,RJTC,,,,0,20180101010000,-1,-1,-1,-1,999,-1,2,-1,-1,-1,-1,,9999,0,0,1,FEW 30,1,7,-1,3,1013,RJTC 010100Z VRB02KT 9999 FEW030 07/M03 Q1013 RMK 1CU030     A2991=,
20180101_020000.003,0,RJTC,,,,0,20180101020000,-1,-1,-1,-1,999,-1,3,-1,-1,-1,-1,,9999,0,0,1,FEW 30,1,8,-1,4,1012,RJTC 010200Z VRB03KT 9999 FEW030 08/M04 Q1012 RMK 1CU030     A2989=,
20180101_030000.003,0,RJTC,,,,0,20180101030000,-1,-1,-1,-1,999,-1,2,-1,-1,-1,-1,,9999,0,0,1,FEW 30,1,11,-1,7,1011,RJTC 010300Z VRB02KT 9999 FEW030 11/M07 Q1011 RMK 1CU030     A2986=,
20180101_040000.003,0,RJTC,,,,0,20180101040000,-1,-1,-1,-1,20,-1,9,-1,-1,320,60,,9999,0,0,1,FEW 30,1,12,-1,8,1010,RJTC 010400Z 02009KT 320V060 9999 FEW030 12/M08 Q1010 RMK     1CU030 A2984=,
20180101_050000.003,0,RJTC,,,,0,20180101050000,-1,-1,-1,-1,999,-1,3,-1,-1,-1,-1,,9999,0,0,1,FEW 30,1,13,-1,9,1010,RJTC 010500Z VRB03KT 9999 FEW030 13/M09 Q1010 RMK 1CU030     A2984=,
20180101_060000.003,0,RJTC,,,,0,20180101060000,-1,-1,-1,-1,999,-1,5,-1,-1,-1,-1,,9999,0,0,1,FEW 30,1,14,-1,11,1011,RJTC 010600Z VRB05KT 9999 FEW030 14/M11 Q1011 RMK 1CU030     A2985=,
20180101_070000.003,0,RJTC,,,,0,20180101070000,-1,-1,-1,-1,50,-1,8,-1,-1,10,80,,9999,0,0,2,FEW 30   SCT 100,1,12,-1,10,1011,RJTC 010700Z 05008KT 010V080 9999 FEW030 SCT100 12/M10 Q1011     RMK 1CU030 3AC100 A2986=,
20180101_080000.003,0,RJTC,,,,0,20180101080000,-1,-1,-1,-1,10,-1,10,-1,-1,340,40,,9999,0,0,2,FEW 30   SCT 100,1,10,-1,9,1012,RJTC 010800Z 01010KT 340V040 9999 FEW030 SCT100 10/M09 Q1012     RMK 1CU030 3AC100 A2989=,
20180101_090000.003,0,RJTC,,,,0,20180101090000,-1,-1,-1,-1,-1,-1,-1,-1,-1,-1,-1,,-1,0,0,0,,0,-1,0,-1,-1,RJTC 010900Z NIL=,
20180101_100000.003,0,RJTC,,,,0,20180101100000,-1,-1,-1,-1,-1,-1,-1,-1,-1,-1,-1,,-1,0,0,0,,0,-1,0,-1,-1,RJTC 011000Z NIL=,
20180101_110000.003,0,RJTC,,,,0,20180101110000,-1,-1,-1,-1,-1,-1,-1,-1,-1,-1,-1,,-1,0,0,0,,0,-1,0,-1,-1,RJTC 011100Z NIL=,
20180101_120000.003,0,RJTC,,,,0,20180101120000,-1,-1,-1,-1,-1,-1,-1,-1,-1,-1,-1,,-1,0,0,0,,0,-1,0,-1,-1,RJTC 011200Z NIL=,
20180101_130000.003,0,RJTC,,,,0,20180101130000,-1,-1,-1,-1,-1,-1,-1,-1,-1,-1,-1,,-1,0,0,0,,0,-1,0,-1,-1,RJTC 011300Z NIL=,
20180101_140000.003,0,RJTC,,,,0,20180101140000,-1,-1,-1,-1,-1,-1,-1,-1,-1,-1,-1,,-1,0,0,0,,0,-1,0,-1,-1,RJTC 011400Z NIL=,
20180101_150000.003,0,RJTC,,,,0,20180101150000,-1,-1,-1,-1,-1,-1,-1,-1,-1,-1,-1,,-1,0,0,0,,0,-1,0,-1,-1,RJTC 011500Z NIL=,
20180101_160000.003,0,RJTC,,,,0,20180101160000,-1,-1,-1,-1,-1,-1,-1,-1,-1,-1,-1,,-1,0,0,0,,0,-1,0,-1,-1,RJTC 011600Z NIL=,
20180101_170000.003,0,RJTC,,,,0,20180101170000,-1,-1,-1,-1,-1,-1,-1,-1,-1,-1,-1,,-1,0,0,0,,0,-1,0,-1,-1,RJTC 011700Z NIL=,
20180101_180000.004,0,RJTC,,,,0,20180101180000,-1,-1,-1,-1,-1,-1,-1,-1,-1,-1,-1,,-1,0,0,0,,0,-1,0,-1,-1,RJTC 011800Z NIL=,
20180101_190000.004,0,RJTC,,,,0,20180101190000,-1,-1,-1,-1,-1,-1,-1,-1,-1,-1,-1,,-1,0,0,0,,0,-1,0,-1,-1,RJTC 011900Z NIL=,
20180101_200000.004,0,RJTC,,,,0,20180101200000,-1,-1,-1,-1,-1,-1,-1,-1,-1,-1,-1,,-1,0,0,0,,0,-1,0,-1,-1,RJTC 012000Z NIL=,
20180101_210000.003,0,RJTC,,,,0,20180101210000,-1,-1,-1,-1,-1,-1,-1,-1,-1,-1,-1,,-1,0,0,0,,0,-1,0,-1,-1,RJTC 012100Z NIL=,
20180101_220000.003,0,RJTC,,,,0,20180101220000,-1,-1,-1,-1,360,-1,9,-1,-1,-1,-1,,9999,0,0,1,FEW 30,1,4,-1,10,1016,RJTC 012200Z 36009KT 9999 FEW030 04/M10 Q1016 RMK 1CU030     A3001=,
20180101_230000.003,0,RJTC,,,,0,20180101230000,-1,-1,-1,-1,20,-1,10,-1,-1,-1,-1,,9999,0,0,1,FEW 30,1,5,-1,10,1016,RJTC 012300Z 02010KT 9999 FEW030 05/M10 Q1016 RMK 1CU030     A3002=,
20180102_000000.004,0,RJTC,,,,0,20180102000000,-1,-1,-1,-1,350,-1,10,-1,-1,320,20,,9999,0,0,1,FEW 30,1,7,-1,10,1017,RJTC 020000Z 35010KT 320V020 9999 FEW030 07/M10 Q1017 RMK     1CU030 A3003=,
20180102_010000.004,0,RJTC,,,,0,20180102010000,-1,-1,-1,-1,340,-1,12,-1,-1,300,10,,9999,0,0,1,FEW 30,1,8,-1,11,1016,RJTC 020100Z 34012KT 300V010 9999 FEW030 08/M11 Q1016 RMK     1CU030 A3003=,
20180102_020000.003,0,RJTC,,,,0,20180102020000,-1,-1,-1,-1,360,-1,10,-1,-1,310,30,,9999,0,0,1,FEW 30,1,9,-1,11,1016,RJTC 020200Z 36010KT 310V030 9999 FEW030 09/M11 Q1016 RMK     1CU030 A3000=,
20180102_030000.003,0,RJTC,,,,0,20180102030000,-1,-1,-1,-1,340,-1,9,-1,-1,300,10,,9999,0,0,1,FEW 30,1,10,-1,13,1014,RJTC 020300Z 34009KT 300V010 9999 FEW030 10/M13 Q1014 RMK     1CU030 A2996=,
20180102_040000.003,0,RJTC,,,,0,20180102040000,-1,-1,-1,-1,10,-1,11,-1,-1,330,40,,9999,0,0,1,FEW 30,1,11,-1,13,1013,RJTC 020400Z 01011KT 330V040 9999 FEW030 11/M13 Q1013 RMK     1CU030 A2992=,
20180102_050000.003,0,RJTC,,,,0,20180102050000,-1,-1,-1,-1,40,-1,8,-1,-1,360,70,,9999,0,0,1,FEW 30,1,11,-1,12,1013,RJTC 020500Z 04008KT 360V070 9999 FEW030 11/M12 Q1013 RMK     1CU030 A2991=,
20180102_060000.003,0,RJTC,,,,0,20180102060000,-1,-1,-1,-1,40,-1,10,-1,-1,10,70,,9999,0,0,1,FEW 30,1,10,-1,11,1013,RJTC 020600Z 04010KT 010V070 9999 FEW030 10/M11 Q1013 RMK     1CU030 A2992=,
20180102_070000.003,0,RJTC,,,,0,20180102070000,-1,-1,-1,-1,50,-1,8,-1,-1,-1,-1,,9999,0,0,1,FEW 30,1,8,-1,10,1013,RJTC 020700Z 05008KT 9999 FEW030 08/M10 Q1013 RMK 1CU030     A2993=,
20180102_080000.003,0,RJTC,,,,0,20180102080000,-1,-1,-1,-1,50,-1,3,-1,-1,20,80,,9999,0,0,1,FEW 30,1,7,-1,10,1013,RJTC 020800Z 05003KT 020V080 9999 FEW030 07/M10 Q1013 RMK     2CU030 A2993=,
20180102_090000.003,0,RJTC,,,,0,20180102090000,-1,-1,-1,-1,-1,-1,-1,-1,-1,-1,-1,,-1,0,0,0,,0,-1,0,-1,-1,RJTC 020900Z NIL=,
20180102_100000.003,0,RJTC,,,,0,20180102100000,-1,-1,-1,-1,-1,-1,-1,-1,-1,-1,-1,,-1,0,0,0,,0,-1,0,-1,-1,RJTC 021000Z NIL=,
20180102_110000.003,0,RJTC,,,,0,20180102110000,-1,-1,-1,-1,-1,-1,-1,-1,-1,-1,-1,,-1,0,0,0,,0,-1,0,-1,-1,RJTC 021100Z NIL=,
20180102_120000.003,0,RJTC,,,,0,20180102120000,-1,-1,-1,-1,-1,-1,-1,-1,-1,-1,-1,,-1,0,0,0,,0,-1,0,-1,-1,RJTC 021200Z NIL=,
20180102_130000.004,0,RJTC,,,,0,20180102130000,-1,-1,-1,-1,-1,-1,-1,-1,-1,-1,-1,,-1,0,0,0,,0,-1,0,-1,-1,RJTC 021300Z NIL=,
20180102_140000.004,0,RJTC,,,,0,20180102140000,-1,-1,-1,-1,-1,-1,-1,-1,-1,-1,-1,,-1,0,0,0,,0,-1,0,-1,-1,RJTC 021400Z NIL=,
20180102_150000.003,0,RJTC,,,,0,20180102150000,-1,-1,-1,-1,-1,-1,-1,-1,-1,-1,-1,,-1,0,0,0,,0,-1,0,-1,-1,RJTC 021500Z NIL=,
20180102_160000.003,0,RJTC,,,,0,20180102160000,-1,-1,-1,-1,-1,-1,-1,-1,-1,-1,-1,,-1,0,0,0,,0,-1,0,-1,-1,RJTC 021600Z NIL=,
20180102_170000.003,0,RJTC,,,,0,20180102170000,-1,-1,-1,-1,-1,-1,-1,-1,-1,-1,-1,,-1,0,0,0,,0,-1,0,-1,-1,RJTC 021700Z NIL=,
20180102_180000.004,0,RJTC,,,,0,20180102180000,-1,-1,-1,-1,-1,-1,-1,-1,-1,-1,-1,,-1,0,0,0,,0,-1,0,-1,-1,RJTC 021800Z NIL=,
20180102_190000.003,0,RJTC,,,,0,20180102190000,-1,-1,-1,-1,-1,-1,-1,-1,-1,-1,-1,,-1,0,0,0,,0,-1,0,-1,-1,RJTC 021900Z NIL=,
20180102_200000.004,0,RJTC,,,,0,20180102200000,-1,-1,-1,-1,-1,-1,-1,-1,-1,-1,-1,,-1,0,0,0,,0,-1,0,-1,-1,RJTC 022000Z NIL=,
20180102_210000.003,0,RJTC,,,,0,20180102210000,-1,-1,-1,-1,-1,-1,-1,-1,-1,-1,-1,,-1,0,0,0,,0,-1,0,-1,-1,RJTC 022100Z NIL=,
20180102_220000.003,0,RJTC,,,,0,20180102220000,-1,-1,-1,-1,999,-1,2,-1,-1,-1,-1,,9999,0,0,1,FEW 30,1,1,-1,6,1011,RJTC 022200Z VRB02KT 9999 FEW030 01/M06 Q1011 RMK 1CU030     A2987=,
20180102_230000.003,0,RJTC,,,,0,20180102230000,-1,-1,-1,-1,70,-1,5,-1,-1,360,150,,9999,0,0,1,FEW 30,1,1,-1,6,1012,RJTC 022300Z 07005KT 360V150 9999 FEW030 01/M06 Q1012 RMK     1CU030 A2989=,
20180103_000000.003,0,RJTC,,,,0,20180103000000,-1,-1,-1,-1,350,-1,13,-1,23,-1,-1,,9999,0,0,1,FEW 30,1,5,-1,10,1013,RJTC 030000Z 35013G23KT 9999 FEW030 05/M10 Q1013 RMK 1CU030     A2991=,
20180103_010000.003,0,RJTC,,,,0,20180103010000,-1,-1,-1,-1,350,-1,17,-1,30,310,20,,9999,0,0,1,FEW 30,1,5,-1,12,1013,RJTC 030100Z 35017G30KT 310V020 9999 FEW030 05/M12 Q1013 RMK     1CU030 A2992=,
20180103_020000.003,0,RJTC,,,,0,20180103020000,-1,-1,-1,-1,350,-1,21,-1,37,-1,-1,,9999,0,0,1,FEW 30,1,6,-1,15,1012,RJTC 030200Z 35021G37KT 9999 FEW030 06/M15 Q1012 RMK 1CU030     A2989=,
20180103_030000.004,0,RJTC,,,,0,20180103030000,-1,-1,-1,-1,340,-1,14,-1,25,290,360,,9999,0,0,1,FEW 30,1,7,-1,17,1011,RJTC 030300Z 34014G25KT 290V360 9999 FEW030 07/M17 Q1011 RMK     1CU030 A2988=,
20180103_040000.003,0,RJTC,,,,0,20180103040000,-1,-1,-1,-1,340,-1,16,-1,27,290,20,,9999,0,0,1,FEW 30,1,8,-1,17,1011,RJTC 030400Z 34016G27KT 290V020 9999 FEW030 08/M17 Q1011 RMK     1CU030 A2988=,
20180103_050000.003,0,RJTC,,,,0,20180103050000,-1,-1,-1,-1,340,-1,16,-1,29,300,10,,9999,0,0,1,FEW 30,1,8,-1,17,1011,RJTC 030500Z 34016G29KT 300V010 9999 FEW030 08/M17 Q1011 RMK     1CU030 A2988=,
20180103_060000.003,0,RJTC,,,,0,20180103060000,-1,-1,-1,-1,340,-1,16,-1,27,300,20,,9999,0,0,1,FEW 30,1,8,-1,17,1012,RJTC 030600Z 34016G27KT 300V020 9999 FEW030 08/M17 Q1012 RMK     1CU030 A2991=,
20180103_070000.003,0,RJTC,,,,0,20180103070000,-1,-1,-1,-1,320,-1,12,-1,-1,280,360,,9999,0,0,1,FEW 30,1,7,-1,16,1013,RJTC 030700Z 32012KT 280V360 9999 FEW030 07/M16 Q1013 RMK     1CU030 A2993 MAX WIND 20KT=,
20180103_080000.003,0,RJTC,,,,0,20180103080000,-1,-1,-1,-1,320,-1,9,-1,-1,290,360,,9999,0,0,1,FEW 30,1,6,-1,14,1014,RJTC 030800Z 32009KT 290V360 9999 FEW030 06/M14 Q1014 RMK     1CU030 A2994 MAX WIND 17KT=,
20180103_090000.003,0,RJTC,,,,0,20180103090000,-1,-1,-1,-1,-1,-1,-1,-1,-1,-1,-1,,-1,0,0,0,,0,-1,0,-1,-1,RJTC 030900Z NIL=,
20180103_100000.003,0,RJTC,,,,0,20180103100000,-1,-1,-1,-1,-1,-1,-1,-1,-1,-1,-1,,-1,0,0,0,,0,-1,0,-1,-1,RJTC 031000Z NIL=,
20180103_110000.003,0,RJTC,,,,0,20180103110000,-1,-1,-1,-1,-1,-1,-1,-1,-1,-1,-1,,-1,0,0,0,,0,-1,0,-1,-1,RJTC 031100Z NIL=,
20180103_120000.003,0,RJTC,,,,0,20180103120000,-1,-1,-1,-1,-1,-1,-1,-1,-1,-1,-1,,-1,0,0,0,,0,-1,0,-1,-1,RJTC 031200Z NIL=,
20180103_130000.004,0,RJTC,,,,0,20180103130000,-1,-1,-1,-1,-1,-1,-1,-1,-1,-1,-1,,-1,0,0,0,,0,-1,0,-1,-1,RJTC 031300Z NIL=,
20180103_140000.003,0,RJTC,,,,0,20180103140000,-1,-1,-1,-1,-1,-1,-1,-1,-1,-1,-1,,-1,0,0,0,,0,-1,0,-1,-1,RJTC 031400Z NIL=,
20180103_150000.003,0,RJTC,,,,0,20180103150000,-1,-1,-1,-1,-1,-1,-1,-1,-1,-1,-1,,-1,0,0,0,,0,-1,0,-1,-1,RJTC 031500Z NIL=,
20180103_160000.003,0,RJTC,,,,0,20180103160000,-1,-1,-1,-1,-1,-1,-1,-1,-1,-1,-1,,-1,0,0,0,,0,-1,0,-1,-1,RJTC 031600Z NIL=,
20180103_170000.003,0,RJTC,,,,0,20180103170000,-1,-1,-1,-1,-1,-1,-1,-1,-1,-1,-1,,-1,0,0,0,,0,-1,0,-1,-1,RJTC 031700Z NIL=,
20180103_180000.003,0,RJTC,,,,0,20180103180000,-1,-1,-1,-1,-1,-1,-1,-1,-1,-1,-1,,-1,0,0,0,,0,-1,0,-1,-1,RJTC 031800Z NIL=,
20180103_190000.003,0,RJTC,,,,0,20180103190000,-1,-1,-1,-1,-1,-1,-1,-1,-1,-1,-1,,-1,0,0,0,,0,-1,0,-1,-1,RJTC 031900Z NIL=,
20180103_200000.003,0,RJTC,,,,0,20180103200000,-1,-1,-1,-1,-1,-1,-1,-1,-1,-1,-1,,-1,0,0,0,,0,-1,0,-1,-1,RJTC 032000Z NIL=,
20180103_210000.004,0,RJTC,,,,0,20180103210000,-1,-1,-1,-1,999,-1,1,-1,-1,-1,-1,,9999,0,0,1,NSC -1,-1,2,-1,11,1018,RJTC 032100Z VRB01KT 9999 NSC M02/M11 Q1018 RMK A3006=,
20180103_220000.003,0,RJTC,,,,0,20180103220000,-1,-1,-1,-1,999,-1,1,-1,-1,-1,-1,,9999,0,0,1,FEW 30,-1,3,-1,10,1018,RJTC 032200Z VRB01KT 9999 FEW030 M03/M10 Q1018 RMK 1SC030     A3008=,
20180103_230000.003,0,RJTC,,,,0,20180103230000,-1,-1,-1,-1,999,-1,2,-1,-1,-1,-1,,9999,0,0,1,FEW 30,-1,1,-1,10,1018,RJTC 032300Z VRB02KT 9999 FEW030 M01/M10 Q1018 RMK 1CU030     A3008=,
20180104_000000.003,0,RJTC,,,,0,20180104000000,-1,-1,-1,-1,230,-1,5,-1,-1,190,260,,9999,0,0,1,FEW 30,1,3,-1,12,1019,RJTC 040000Z 23005KT 190V260 9999 FEW030 03/M12 Q1019 RMK     1SC030 A3009=,
20180104_010000.003,0,RJTC,,,,0,20180104010000,-1,-1,-1,-1,360,-1,11,-1,21,-1,-1,,9999,0,0,1,FEW 30,1,7,-1,14,1018,RJTC 040100Z 36011G21KT 9999 FEW030 07/M14 Q1018 RMK 1SC030     A3007=,
20180104_020000.005,0,RJTC,,,,0,20180104020000,-1,-1,-1,-1,10,-1,9,-1,-1,330,50,,9999,0,0,1,FEW 30,1,8,-1,15,1017,RJTC 040200Z 01009KT 330V050 9999 FEW030 08/M15 Q1017 RMK     1SC030 A3005=,
20180104_030000.004,0,RJTC,,,,0,20180104030000,-1,-1,-1,-1,50,-1,11,-1,-1,20,100,,9999,0,0,1,FEW 30,1,8,-1,13,1016,RJTC 040300Z 05011KT 020V100 9999 FEW030 08/M13 Q1016 RMK     1CU030 A3000 MAX WIND 19KT=,
20180104_040000.003,0,RJTC,,,,0,20180104040000,-1,-1,-1,-1,20,-1,11,-1,-1,350,50,,9999,0,0,1,FEW 30,1,10,-1,16,1015,RJTC 040400Z 02011KT 350V050 9999 FEW030 10/M16 Q1015 RMK     1CU030 A2998=,
20180104_050000.003,0,RJTC,,,,0,20180104050000,-1,-1,-1,-1,30,-1,12,-1,-1,-1,-1,,9999,0,0,1,FEW 30,1,9,-1,13,1015,RJTC 040500Z 03012KT 9999 FEW030 09/M13 Q1015 RMK 1CU030     A2999=,
20180104_060000.004,0,RJTC,,,,0,20180104060000,-1,-1,-1,-1,20,-1,13,-1,-1,-1,-1,,9999,0,0,1,FEW 30,1,8,-1,12,1015,RJTC 040600Z 02013KT 9999 FEW030 08/M12 Q1015 RMK 1CU030     A2999=,
20180104_070000.003,0,RJTC,,,,0,20180104070000,-1,-1,-1,-1,30,-1,10,-1,-1,350,50,,9999,0,0,1,FEW 30,1,7,-1,11,1016,RJTC 040700Z 03010KT 350V050 9999 FEW030 07/M11 Q1016 RMK     1CU030 A3000=,
20180104_080000.003,0,RJTC,,,,0,20180104080000,-1,-1,-1,-1,20,-1,7,-1,-1,-1,-1,,9999,0,0,1,FEW 30,1,6,-1,11,1016,RJTC 040800Z 02007KT 9999 FEW030 06/M11 Q1016 RMK 2SC030     A3003=,
20180104_090000.003,0,RJTC,,,,0,20180104090000,-1,-1,-1,-1,-1,-1,-1,-1,-1,-1,-1,,-1,0,0,0,,0,-1,0,-1,-1,RJTC 040900Z NIL=,
20180104_100000.003,0,RJTC,,,,0,20180104100000,-1,-1,-1,-1,-1,-1,-1,-1,-1,-1,-1,,-1,0,0,0,,0,-1,0,-1,-1,RJTC 041000Z NIL=,
20180104_110000.003,0,RJTC,,,,0,20180104110000,-1,-1,-1,-1,-1,-1,-1,-1,-1,-1,-1,,-1,0,0,0,,0,-1,0,-1,-1,RJTC 041100Z NIL=,
20180104_120000.004,0,RJTC,,,,0,20180104120000,-1,-1,-1,-1,-1,-1,-1,-1,-1,-1,-1,,-1,0,0,0,,0,-1,0,-1,-1,RJTC 041200Z NIL=,
20180104_130000.003,0,RJTC,,,,0,20180104130000,-1,-1,-1,-1,-1,-1,-1,-1,-1,-1,-1,,-1,0,0,0,,0,-1,0,-1,-1,RJTC 041300Z NIL=,
20180104_140000.003,0,RJTC,,,,0,20180104140000,-1,-1,-1,-1,-1,-1,-1,-1,-1,-1,-1,,-1,0,0,0,,0,-1,0,-1,-1,RJTC 041400Z NIL=,
20180104_150000.004,0,RJTC,,,,0,20180104150000,-1,-1,-1,-1,-1,-1,-1,-1,-1,-1,-1,,-1,0,0,0,,0,-1,0,-1,-1,RJTC 041500Z NIL=,
20180104_160000.004,0,RJTC,,,,0,20180104160000,-1,-1,-1,-1,-1,-1,-1,-1,-1,-1,-1,,-1,0,0,0,,0,-1,0,-1,-1,RJTC 041600Z NIL=,
20180104_170000.004,0,RJTC,,,,0,20180104170000,-1,-1,-1,-1,-1,-1,-1,-1,-1,-1,-1,,-1,0,0,0,,0,-1,0,-1,-1,RJTC 041700Z NIL=,
20180104_180000.003,0,RJTC,,,,0,20180104180000,-1,-1,-1,-1,-1,-1,-1,-1,-1,-1,-1,,-1,0,0,0,,0,-1,0,-1,-1,RJTC 041800Z NIL=,
20180104_190000.004,0,RJTC,,,,0,20180104190000,-1,-1,-1,-1,-1,-1,-1,-1,-1,-1,-1,,-1,0,0,0,,0,-1,0,-1,-1,RJTC 041900Z NIL=,
20180104_200000.003,0,RJTC,,,,0,20180104200000,-1,-1,-1,-1,-1,-1,-1,-1,-1,-1,-1,,-1,0,0,0,,0,-1,0,-1,-1,RJTC 042000Z NIL=,
20180104_210000.003,0,RJTC,,,,0,20180104210000,-1,-1,-1,-1,999,-1,1,-1,-1,-1,-1,,9999,0,0,2,FEW 60   BKN 150,-1,1,-1,8,1017,RJTC 042100Z VRB01KT 9999 FEW060 BKN150 M01/M08 Q1017 RMK     2SC060 5AC150 A3004=,
20180104_220000.003,0,RJTC,,,,0,20180104220000,-1,-1,-1,-1,999,-1,2,-1,-1,-1,-1,,9999,0,0,3,FEW 30   SCT 60   BKN 150,-1,0,-1,7,1017,RJTC 042200Z VRB02KT 9999 FEW030 SCT060 BKN150 M00/M07 Q1017     RMK 1SC030 4SC060 6AC150 A3005=,
20180104_230000.003,0,RJTC,,,,0,20180104230000,-1,-1,-1,-1,999,-1,1,-1,-1,-1,-1,,9999,0,0,3,FEW 30   SCT 60   BKN 200,-1,0,-1,7,1018,RJTC 042300Z VRB01KT 9999 FEW030 SCT060 BKN200 M00/M07 Q1018     RMK 1CU030 4SC060 7CI200 A3006=,
20180105_000000.004,0,RJTC,,,,0,20180105000000,-1,-1,-1,-1,280,-1,4,-1,-1,-1,-1,,9999,0,0,3,FEW 30   SCT 60   BKN 200,1,2,-1,8,1018,RJTC 050000Z 28004KT 9999 FEW030 SCT060 BKN200 02/M08 Q1018     RMK 1CU030 4SC060 7CI200 A3006=,
20180105_010000.004,0,RJTC,,,,0,20180105010000,-1,-1,-1,-1,999,-1,2,-1,-1,-1,-1,,9999,0,0,3,FEW 30   BKN 60   BKN 180,1,3,-1,8,1017,RJTC 050100Z VRB02KT 9999 FEW030 BKN060 BKN180 03/M08 Q1017     RMK 1CU030 5SC060 7AS180 A3005=,
20180105_020000.003,0,RJTC,,,,0,20180105020000,-1,-1,-1,-1,999,-1,1,-1,-1,-1,-1,,9999,0,0,2,FEW 40   BKN 60,1,4,-1,9,1016,RJTC 050200Z VRB01KT 9999 FEW040 BKN060 04/M09 Q1016 RMK     2SC040 6SC060 A3001=,
20180105_030000.003,0,RJTC,,,,0,20180105030000,-1,-1,-1,-1,330,-1,3,-1,-1,290,50,,9999,0,0,2,FEW 30   BKN 50,1,5,-1,9,1015,RJTC 050300Z 33003KT 290V050 9999 FEW030 BKN050 05/M09 Q1015     RMK 1CU030 6SC050 A2999=,
20180105_040000.003,0,RJTC,,,,0,20180105040000,-1,-1,-1,-1,999,-1,2,-1,-1,-1,-1,,9999,0,0,3,FEW 30   BKN 50   BKN 120,1,5,-1,9,1014,RJTC 050400Z VRB02KT 9999 FEW030 BKN050 BKN120 05/M09 Q1014     RMK 1SC030 5SC050 7AC120 A2995=,
20180105_050000.003,0,RJTC,,,,0,20180105050000,-1,-1,-1,-1,999,-1,3,-1,-1,-1,-1,,9999,0,0,3,FEW 30   BKN 50   BKN 120,1,5,-1,9,1013,RJTC 050500Z VRB03KT 9999 FEW030 BKN050 BKN120 05/M09 Q1013     RMK 1SC030 5SC050 7AC120 A2993=,
20180105_060000.003,0,RJTC,,,,0,20180105060000,-1,-1,-1,-1,20,-1,4,-1,-1,340,40,,9999,0,0,3,FEW 30   SCT 50   BKN 100,1,5,-1,8,1013,RJTC 050600Z 02004KT 340V040 9999 FEW030 SCT050 BKN100 05/M08     Q1013 RMK 1SC030 4SC050 7AC100 A2992=,
20180105_070000.003,0,RJTC,,,,0,20180105070000,-1,-1,-1,-1,999,-1,1,-1,-1,-1,-1,,9999,0,0,3,FEW 30   SCT 50   BKN 100,1,4,-1,7,1013,RJTC 050700Z VRB01KT 9999 FEW030 SCT050 BKN100 04/M07 Q1013     RMK 1SC030 3SC050 7AC100 A2993=,
20180105_080000.003,0,RJTC,,,,0,20180105080000,-1,-1,-1,-1,30,-1,2,-1,-1,-1,-1,,9999,0,0,3,FEW 30   SCT 60   BKN 100,1,4,-1,6,1013,RJTC 050800Z 03002KT 9999 FEW030 SCT060 BKN100 04/M06 Q1013     RMK 1SC030 3SC060 7AC100 A2992=,
20180105_090000.003,0,RJTC,,,,0,20180105090000,-1,-1,-1,-1,-1,-1,-1,-1,-1,-1,-1,,-1,0,0,0,,0,-1,0,-1,-1,RJTC 050900Z NIL=,
20180105_100000.003,0,RJTC,,,,0,20180105100000,-1,-1,-1,-1,-1,-1,-1,-1,-1,-1,-1,,-1,0,0,0,,0,-1,0,-1,-1,RJTC 051000Z NIL=,
20180105_110000.003,0,RJTC,,,,0,20180105110000,-1,-1,-1,-1,-1,-1,-1,-1,-1,-1,-1,,-1,0,0,0,,0,-1,0,-1,-1,RJTC 051100Z NIL=,
20180105_120000.003,0,RJTC,,,,0,20180105120000,-1,-1,-1,-1,-1,-1,-1,-1,-1,-1,-1,,-1,0,0,0,,0,-1,0,-1,-1,RJTC 051200Z NIL=,
20180105_130000.003,0,RJTC,,,,0,20180105130000,-1,-1,-1,-1,-1,-1,-1,-1,-1,-1,-1,,-1,0,0,0,,0,-1,0,-1,-1,RJTC 051300Z NIL=,
20180105_140000.003,0,RJTC,,,,0,20180105140000,-1,-1,-1,-1,-1,-1,-1,-1,-1,-1,-1,,-1,0,0,0,,0,-1,0,-1,-1,RJTC 051400Z NIL=,
20180105_150000.003,0,RJTC,,,,0,20180105150000,-1,-1,-1,-1,-1,-1,-1,-1,-1,-1,-1,,-1,0,0,0,,0,-1,0,-1,-1,RJTC 051500Z NIL=,
20180105_160000.004,0,RJTC,,,,0,20180105160000,-1,-1,-1,-1,-1,-1,-1,-1,-1,-1,-1,,-1,0,0,0,,0,-1,0,-1,-1,RJTC 051600Z NIL=,
20180105_170000.003,0,RJTC,,,,0,20180105170000,-1,-1,-1,-1,-1,-1,-1,-1,-1,-1,-1,,-1,0,0,0,,0,-1,0,-1,-1,RJTC 051700Z NIL=,
20180105_180000.004,0,RJTC,,,,0,20180105180000,-1,-1,-1,-1,-1,-1,-1,-1,-1,-1,-1,,-1,0,0,0,,0,-1,0,-1,-1,RJTC 051800Z NIL=,
20180105_190000.003,0,RJTC,,,,0,20180105190000,-1,-1,-1,-1,-1,-1,-1,-1,-1,-1,-1,,-1,0,0,0,,0,-1,0,-1,-1,RJTC 051900Z NIL=,
20180105_200000.003,0,RJTC,,,,0,20180105200000,-1,-1,-1,-1,-1,-1,-1,-1,-1,-1,-1,,-1,0,0,0,,0,-1,0,-1,-1,RJTC 052000Z NIL=,
20180105_210000.004,0,RJTC,,,,0,20180105210000,-1,-1,-1,-1,-1,-1,-1,-1,-1,-1,-1,,-1,0,0,0,,0,-1,0,-1,-1,RJTC 052100Z NIL=,
20180105_220000.003,0,RJTC,,,,0,20180105220000,-1,-1,-1,-1,999,-1,1,-1,-1,-1,-1,,9999,0,0,1,FEW 20,-1,5,-1,8,1011,RJTC 052200Z VRB01KT 9999 FEW020 M05/M08 Q1011 RMK 1SC020     A2986=,
20180105_230000.003,0,RJTC,,,,0,20180105230000,-1,-1,-1,-1,190,-1,2,-1,-1,-1,-1,,9999,0,0,2,FEW 60   SCT 180,-1,4,-1,8,1011,RJTC 052300Z 19002KT 9999 FEW060 SCT180 M04/M08 Q1011 RMK     1SC060 3CI180 A2987=,
20180106_000000.003,0,RJTC,,,,0,20180106000000,-1,-1,-1,-1,999,-1,2,-1,-1,-1,-1,,9999,0,0,1,FEW 60,1,1,-1,7,1011,RJTC 060000Z VRB02KT 9999 FEW060 01/M07 Q1011 RMK 1SC060     A2987=,
20180106_010000.003,0,RJTC,,,,0,20180106010000,-1,-1,-1,-1,999,-1,1,-1,-1,-1,-1,,9999,0,0,1,FEW 60,1,4,-1,8,1011,RJTC 060100Z VRB01KT 9999 FEW060 04/M08 Q1011 RMK 1SC060     A2988=,
20180106_020000.003,0,RJTC,,,,0,20180106020000,-1,-1,-1,-1,120,-1,5,-1,-1,60,200,,9999,0,0,1,FEW 30,1,6,-1,9,1011,RJTC 060200Z 12005KT 060V200 9999 FEW030 06/M09 Q1011 RMK     1CU030 A2986=,
20180106_030000.003,0,RJTC,,,,0,20180106030000,-1,-1,-1,-1,150,-1,4,-1,-1,80,220,,9999,0,0,1,FEW 30,1,8,-1,8,1010,RJTC 060300Z 15004KT 080V220 9999 FEW030 08/M08 Q1010 RMK     1CU030 A2984=,
20180106_040000.003,0,RJTC,,,,0,20180106040000,-1,-1,-1,-1,200,-1,4,-1,-1,140,250,,9999,0,0,1,FEW 30,1,10,-1,9,1009,RJTC 060400Z 20004KT 140V250 9999 FEW030 10/M09 Q1009 RMK     1CU030 A2980=,
20180106_050000.003,0,RJTC,,,,0,20180106050000,-1,-1,-1,-1,180,-1,5,-1,-1,-1,-1,,9999,0,0,1,FEW 40,1,10,-1,9,1008,RJTC 060500Z 18005KT 9999 FEW040 10/M09 Q1008 RMK 1SC040     A2979=,
20180106_060000.003,0,RJTC,,,,0,20180106060000,-1,-1,-1,-1,200,-1,6,-1,-1,-1,-1,,9999,0,0,1,FEW 30,1,10,-1,8,1008,RJTC 060600Z 20006KT 9999 FEW030 10/M08 Q1008 RMK 1CU030     A2978=,
20180106_070000.003,0,RJTC,,,,0,20180106070000,-1,-1,-1,-1,190,-1,7,-1,-1,160,220,,9999,0,0,1,FEW 30,1,9,-1,6,1008,RJTC 060700Z 19007KT 160V220 9999 FEW030 09/M06 Q1008 RMK     1CU030 A2979=,
20180106_080000.003,0,RJTC,,,,0,20180106080000,-1,-1,-1,-1,230,-1,3,-1,-1,-1,-1,,9999,0,0,1,FEW 40,1,6,-1,4,1009,RJTC 060800Z 23003KT 9999 FEW040 06/M04 Q1009 RMK 1SC040     A2981=,
20180106_090000.003,0,RJTC,,,,0,20180106090000,-1,-1,-1,-1,-1,-1,-1,-1,-1,-1,-1,,-1,0,0,0,,0,-1,0,-1,-1,RJTC 060900Z NIL=,
20180106_100000.003,0,RJTC,,,,0,20180106100000,-1,-1,-1,-1,-1,-1,-1,-1,-1,-1,-1,,-1,0,0,0,,0,-1,0,-1,-1,RJTC 061000Z NIL=,
20180106_110000.003,0,RJTC,,,,0,20180106110000,-1,-1,-1,-1,-1,-1,-1,-1,-1,-1,-1,,-1,0,0,0,,0,-1,0,-1,-1,RJTC 061100Z NIL=,
20180106_120000.003,0,RJTC,,,,0,20180106120000,-1,-1,-1,-1,-1,-1,-1,-1,-1,-1,-1,,-1,0,0,0,,0,-1,0,-1,-1,RJTC 061200Z NIL=,
20180106_130000.005,0,RJTC,,,,0,20180106130000,-1,-1,-1,-1,-1,-1,-1,-1,-1,-1,-1,,-1,0,0,0,,0,-1,0,-1,-1,RJTC 061300Z NIL=,
20180106_140000.004,0,RJTC,,,,0,20180106140000,-1,-1,-1,-1,-1,-1,-1,-1,-1,-1,-1,,-1,0,0,0,,0,-1,0,-1,-1,RJTC 061400Z NIL=,
20180106_150000.003,0,RJTC,,,,0,20180106150000,-1,-1,-1,-1,-1,-1,-1,-1,-1,-1,-1,,-1,0,0,0,,0,-1,0,-1,-1,RJTC 061500Z NIL=,
20180106_160000.003,0,RJTC,,,,0,20180106160000,-1,-1,-1,-1,-1,-1,-1,-1,-1,-1,-1,,-1,0,0,0,,0,-1,0,-1,-1,RJTC 061600Z NIL=,
20180106_170000.003,0,RJTC,,,,0,20180106170000,-1,-1,-1,-1,-1,-1,-1,-1,-1,-1,-1,,-1,0,0,0,,0,-1,0,-1,-1,RJTC 061700Z NIL=,
20180106_180000.004,0,RJTC,,,,0,20180106180000,-1,-1,-1,-1,-1,-1,-1,-1,-1,-1,-1,,-1,0,0,0,,0,-1,0,-1,-1,RJTC 061800Z NIL=,
20180106_190000.003,0,RJTC,,,,0,20180106190000,-1,-1,-1,-1,-1,-1,-1,-1,-1,-1,-1,,-1,0,0,0,,0,-1,0,-1,-1,RJTC 061900Z NIL=,
20180106_200000.003,0,RJTC,,,,0,20180106200000,-1,-1,-1,-1,-1,-1,-1,-1,-1,-1,-1,,-1,0,0,0,,0,-1,0,-1,-1,RJTC 062000Z NIL=,
20180106_210000.003,0,RJTC,,,,0,20180106210000,-1,-1,-1,-1,-1,-1,-1,-1,-1,-1,-1,,-1,0,0,0,,0,-1,0,-1,-1,RJTC 062100Z NIL=,
20180106_220000.003,0,RJTC,,,,0,20180106220000,-1,-1,-1,-1,10,-1,10,-1,-1,-1,-1,,9999,0,0,2,FEW 40   SCT 230,-1,1,-1,9,1017,RJTC 062200Z 01010KT 9999 FEW040 SCT230 M01/M09 Q1017 RMK     1SC040 4CI230 A3004=,
20180106_230000.003,0,RJTC,,,,0,20180106230000,-1,-1,-1,-1,10,-1,13,-1,-1,-1,-1,,9999,0,0,2,FEW 40   SCT 230,1,3,-1,9,1018,RJTC 062300Z 01013KT 9999 FEW040 SCT230 03/M09 Q1018 RMK     1SC040 3CI230 A3006=,
20180107_000000.003,0,RJTC,,,,0,20180107000000,-1,-1,-1,-1,360,-1,13,-1,-1,-1,-1,,9999,0,0,2,FEW 40   BKN 230,1,7,-1,13,1018,RJTC 070000Z 36013KT 9999 FEW040 BKN230 07/M13 Q1018 RMK     1SC040 5CI230 A3008=,
20180107_010000.004,0,RJTC,,,,0,20180107010000,-1,-1,-1,-1,10,-1,11,-1,-1,-1,-1,,9999,0,0,2,FEW 40   SCT 230,1,8,-1,13,1019,RJTC 070100Z 01011KT 9999 FEW040 SCT230 08/M13 Q1019 RMK     1SC040 3CI230 A3010=,
20180107_020000.003,0,RJTC,,,,0,20180107020000,-1,-1,-1,-1,10,-1,7,-1,-1,-1,-1,,9999,0,0,2,FEW 40   SCT 230,1,9,-1,14,1019,RJTC 070200Z 01007KT 9999 FEW040 SCT230 09/M14 Q1019 RMK     1SC040 4CI230 A3009=,
20180107_030000.003,0,RJTC,,,,0,20180107030000,-1,-1,-1,-1,999,-1,4,-1,-1,-1,-1,,9999,0,0,2,FEW 30   SCT 230,1,10,-1,15,1018,RJTC 070300Z VRB04KT 9999 FEW030 SCT230 10/M15 Q1018 RMK     1CU030 3CI230 A3007=,
20180107_040000.003,0,RJTC,,,,0,20180107040000,-1,-1,-1,-1,30,-1,8,-1,-1,-1,-1,,9999,0,0,2,FEW 30   SCT 230,1,11,-1,12,1019,RJTC 070400Z 03008KT 9999 FEW030 SCT230 11/M12 Q1019 RMK     1CU030 4CI230 A3009=,
20180107_050000.003,0,RJTC,,,,0,20180107050000,-1,-1,-1,-1,999,-1,3,-1,-1,-1,-1,,9999,0,0,2,FEW 30   SCT 230,1,11,-1,12,1019,RJTC 070500Z VRB03KT 9999 FEW030 SCT230 11/M12 Q1019 RMK     1CU030 4CI230 A3009=,
20180107_060000.003,0,RJTC,,,,0,20180107060000,-1,-1,-1,-1,999,-1,2,-1,-1,-1,-1,,9999,0,0,2,FEW 30   SCT 230,1,11,-1,12,1019,RJTC 070600Z VRB02KT 9999 FEW030 SCT230 11/M12 Q1019 RMK     1CU030 3CI230 A3010=,
20180107_070000.003,0,RJTC,,,,0,20180107070000,-1,-1,-1,-1,40,-1,4,-1,-1,-1,-1,,9999,0,0,2,FEW 30   SCT 230,1,10,-1,10,1020,RJTC 070700Z 04004KT 9999 FEW030 SCT230 10/M10 Q1020 RMK     1CU030 4CI230 A3012=,
20180107_080000.003,0,RJTC,,,,0,20180107080000,-1,-1,-1,-1,90,-1,3,-1,-1,40,130,,9999,0,0,2,FEW 30   SCT 230,1,7,-1,8,1020,RJTC 070800Z 09003KT 040V130 9999 FEW030 SCT230 07/M08 Q1020     RMK 1CU030 4CI230 A3014=,
20180107_090000.003,0,RJTC,,,,0,20180107090000,-1,-1,-1,-1,-1,-1,-1,-1,-1,-1,-1,,-1,0,0,0,,0,-1,0,-1,-1,RJTC 070900Z NIL=,
20180107_100000.003,0,RJTC,,,,0,20180107100000,-1,-1,-1,-1,-1,-1,-1,-1,-1,-1,-1,,-1,0,0,0,,0,-1,0,-1,-1,RJTC 071000Z NIL=,
20180107_110000.003,0,RJTC,,,,0,20180107110000,-1,-1,-1,-1,-1,-1,-1,-1,-1,-1,-1,,-1,0,0,0,,0,-1,0,-1,-1,RJTC 071100Z NIL=,
20180107_120000.004,0,RJTC,,,,0,20180107120000,-1,-1,-1,-1,-1,-1,-1,-1,-1,-1,-1,,-1,0,0,0,,0,-1,0,-1,-1,RJTC 071200Z NIL=,
20180107_130000.004,0,RJTC,,,,0,20180107130000,-1,-1,-1,-1,-1,-1,-1,-1,-1,-1,-1,,-1,0,0,0,,0,-1,0,-1,-1,RJTC 071300Z NIL=,
20180107_140000.004,0,RJTC,,,,0,20180107140000,-1,-1,-1,-1,-1,-1,-1,-1,-1,-1,-1,,-1,0,0,0,,0,-1,0,-1,-1,RJTC 071400Z NIL=,
20180107_150000.003,0,RJTC,,,,0,20180107150000,-1,-1,-1,-1,-1,-1,-1,-1,-1,-1,-1,,-1,0,0,0,,0,-1,0,-1,-1,RJTC 071500Z NIL=,
20180107_160000.003,0,RJTC,,,,0,20180107160000,-1,-1,-1,-1,-1,-1,-1,-1,-1,-1,-1,,-1,0,0,0,,0,-1,0,-1,-1,RJTC 071600Z NIL=,
20180107_170000.003,0,RJTC,,,,0,20180107170000,-1,-1,-1,-1,-1,-1,-1,-1,-1,-1,-1,,-1,0,0,0,,0,-1,0,-1,-1,RJTC 071700Z NIL=,
20180107_180000.003,0,RJTC,,,,0,20180107180000,-1,-1,-1,-1,-1,-1,-1,-1,-1,-1,-1,,-1,0,0,0,,0,-1,0,-1,-1,RJTC 071800Z NIL=,
20180107_190000.004,0,RJTC,,,,0,20180107190000,-1,-1,-1,-1,-1,-1,-1,-1,-1,-1,-1,,-1,0,0,0,,0,-1,0,-1,-1,RJTC 071900Z NIL=,
20180107_200000.003,0,RJTC,,,,0,20180107200000,-1,-1,-1,-1,-1,-1,-1,-1,-1,-1,-1,,-1,0,0,0,,0,-1,0,-1,-1,RJTC 072000Z NIL=,
20180107_210000.004,0,RJTC,,,,0,20180107210000,-1,-1,-1,-1,-1,-1,-1,-1,-1,-1,-1,,-1,0,0,0,,0,-1,0,-1,-1,RJTC 072100Z NIL=,
20180107_220000.003,0,RJTC,,,,0,20180107220000,-1,-1,-1,-1,0,-1,0,-1,-1,-1,-1,,9999,0,0,2,FEW 30   BKN 180,-1,0,-1,5,1020,RJTC 072200Z 00000KT 9999 FEW030 BKN180 M00/M05 Q1020 RMK     1CU030 5AC180 A3012=,
20180107_230000.003,0,RJTC,,,,0,20180107230000,-1,-1,-1,-1,0,-1,0,-1,-1,-1,-1,,9999,0,0,3,FEW 30   BKN 160   BKN 230,1,1,-1,4,1020,RJTC 072300Z 00000KT 9999 FEW030 BKN160 BKN230 01/M04 Q1020     RMK 1CU030 5AC160 6CI230 A3012=,
20180108_000000.003,0,RJTC,,,,0,20180108000000,-1,-1,-1,-1,0,-1,0,-1,-1,-1,-1,,9999,0,0,3,FEW 30   BKN 160   BKN 230,1,3,-1,4,1020,RJTC 080000Z 00000KT 9999 FEW030 BKN160 BKN230 03/M04 Q1020     RMK 1CU030 6AC160 7CI230 A3012=,
20180108_010000.003,0,RJTC,,,,0,20180108010000,-1,-1,-1,-1,999,-1,1,-1,-1,-1,-1,,9999,0,0,3,FEW 30   SCT 80   BKN 150,1,4,-1,4,1019,RJTC 080100Z VRB01KT 9999 FEW030 SCT080 BKN150 04/M04 Q1019     RMK 1CU030 3AC080 6AC150 A3011=,
20180108_020000.004,0,RJTC,,,,0,20180108020000,-1,-1,-1,-1,999,-1,1,-1,-1,-1,-1,,9999,0,0,3,FEW 30   SCT 80   BKN 140,1,5,-1,5,1017,RJTC 080200Z VRB01KT 9999 FEW030 SCT080 BKN140 05/M05 Q1017     RMK 1CU030 3AC080 6AC140 A3005=,
20180108_030000.003,0,RJTC,,,,0,20180108030000,-1,-1,-1,-1,999,-1,2,-1,-1,-1,-1,,9999,0,0,3,FEW 30   SCT 150   BKN 230,1,7,-1,6,1015,RJTC 080300Z VRB02KT 9999 FEW030 SCT150 BKN230 07/M06 Q1015     RMK 1CU030 4AC150 6CI230 A3000=,
20180108_040000.003,0,RJTC,,,,0,20180108040000,-1,-1,-1,-1,999,-1,2,-1,-1,-1,-1,,9999,0,0,3,FEW 30   BKN 120   BKN 200,1,8,-1,6,1014,RJTC 080400Z VRB02KT 9999 FEW030 BKN120 BKN200 08/M06 Q1014     RMK 1CU030 5AC120 6CI200 A2996=,
20180108_050000.003,0,RJTC,,,,0,20180108050000,-1,-1,-1,-1,180,-1,3,-1,-1,140,200,,9999,0,1,3,FEW 30   BKN 80   BKN 120,1,6,1,1,1013,RJTC 080500Z 18003KT 140V200 9999 -SHRA FEW030 BKN080 BKN120     06/01 Q1013 RMK 2CU030 5AC080 6AC120 A2993=,- RA SH
20180108_060000.004,0,RJTC,,,,0,20180108060000,-1,-1,-1,-1,999,-1,2,-1,-1,-1,-1,,9999,0,1,3,FEW 30   BKN 80   BKN 120,1,7,1,1,1012,RJTC 080600Z VRB02KT 9999 -SHRA FEW030 BKN080 BKN120 07/01     Q1012 RMK 2CU030 5AC080 6AC120 A2990=,- RA SH
20180108_070000.003,0,RJTC,,,,0,20180108070000,-1,-1,-1,-1,999,-1,2,-1,-1,-1,-1,,9999,0,1,3,FEW 30   BKN 80   BKN 100,1,7,1,1,1011,RJTC 080700Z VRB02KT 9999 -SHRA FEW030 BKN080 BKN100 07/01     Q1011 RMK 2CU030 5AC080 6AC100 A2986=,- RA SH
20180108_080000.003,0,RJTC,,,,0,20180108080000,-1,-1,-1,-1,20,-1,5,-1,-1,340,50,,9999,0,1,3,FEW 30   BKN 50   BKN 100,1,6,1,1,1010,RJTC 080800Z 02005KT 340V050 9999 -SHRA FEW030 BKN050 BKN100     06/01 Q1010 RMK 2CU030 5SC050 6AC100 A2985=,- RA SH
20180108_090000.003,0,RJTC,,,,0,20180108090000,-1,-1,-1,-1,-1,-1,-1,-1,-1,-1,-1,,-1,0,0,0,,0,-1,0,-1,-1,RJTC 080900Z NIL=,
20180108_100000.003,0,RJTC,,,,0,20180108100000,-1,-1,-1,-1,-1,-1,-1,-1,-1,-1,-1,,-1,0,0,0,,0,-1,0,-1,-1,RJTC 081000Z NIL=,
20180108_110000.003,0,RJTC,,,,0,20180108110000,-1,-1,-1,-1,-1,-1,-1,-1,-1,-1,-1,,-1,0,0,0,,0,-1,0,-1,-1,RJTC 081100Z NIL=,
20180108_120000.003,0,RJTC,,,,0,20180108120000,-1,-1,-1,-1,-1,-1,-1,-1,-1,-1,-1,,-1,0,0,0,,0,-1,0,-1,-1,RJTC 081200Z NIL=,
20180108_130000.004,0,RJTC,,,,0,20180108130000,-1,-1,-1,-1,-1,-1,-1,-1,-1,-1,-1,,-1,0,0,0,,0,-1,0,-1,-1,RJTC 081300Z NIL=,
20180108_140000.003,0,RJTC,,,,0,20180108140000,-1,-1,-1,-1,-1,-1,-1,-1,-1,-1,-1,,-1,0,0,0,,0,-1,0,-1,-1,RJTC 081400Z NIL=,
20180108_150000.003,0,RJTC,,,,0,20180108150000,-1,-1,-1,-1,-1,-1,-1,-1,-1,-1,-1,,-1,0,0,0,,0,-1,0,-1,-1,RJTC 081500Z NIL=,
20180108_160000.003,0,RJTC,,,,0,20180108160000,-1,-1,-1,-1,-1,-1,-1,-1,-1,-1,-1,,-1,0,0,0,,0,-1,0,-1,-1,RJTC 081600Z NIL=,
20180108_170000.003,0,RJTC,,,,0,20180108170000,-1,-1,-1,-1,-1,-1,-1,-1,-1,-1,-1,,-1,0,0,0,,0,-1,0,-1,-1,RJTC 081700Z NIL=,
20180108_180000.003,0,RJTC,,,,0,20180108180000,-1,-1,-1,-1,-1,-1,-1,-1,-1,-1,-1,,-1,0,0,0,,0,-1,0,-1,-1,RJTC 081800Z NIL=,
20180108_190000.003,0,RJTC,,,,0,20180108190000,-1,-1,-1,-1,-1,-1,-1,-1,-1,-1,-1,,-1,0,0,0,,0,-1,0,-1,-1,RJTC 081900Z NIL=,
20180108_200000.003,0,RJTC,,,,0,20180108200000,-1,-1,-1,-1,-1,-1,-1,-1,-1,-1,-1,,-1,0,0,0,,0,-1,0,-1,-1,RJTC 082000Z NIL=,
20180108_210000.004,0,RJTC,,,,0,20180108210000,-1,-1,-1,-1,999,-1,2,-1,-1,-1,-1,,8000,0,0,3,FEW 10   SCT 30   BKN 80,1,5,1,3,994,RJTC 082100Z VRB02KT 8000 FEW010 SCT030 BKN080 05/03 Q0994 RMK     2ST010 3CU030 5AC080 A2936=,
20180108_220000.003,0,RJTC,,,,0,20180108220000,-1,-1,-1,-1,200,-1,4,-1,-1,-1,-1,,4500,0,1,3,FEW 8   SCT 15   BKN 80,1,5,1,3,994,RJTC 082200Z 20004KT 4500 BR FEW008 SCT015 BKN080 05/03 Q0994     RMK 2ST008 4SC015 6AC080 A2935=,BR
20180108_230000.004,0,RJTC,,,,0,20180108230000,-1,-1,-1,-1,999,-1,2,-1,-1,-1,-1,,4500,0,1,3,FEW 8   SCT 15   BKN 80,1,5,1,4,993,RJTC 082300Z VRB02KT 4500 BR FEW008 SCT015 BKN080 05/04 Q0993     RMK 1ST008 3SC015 5AC080 A2934 P/RR=,BR
20180109_000000.003,0,RJTC,,,,0,20180109000000,-1,-1,-1,-1,999,-1,2,-1,-1,-1,-1,,6000,0,0,3,FEW 8   SCT 15   BKN 100,1,6,1,5,992,RJTC 090000Z VRB02KT 6000 FEW008 SCT015 BKN100 06/05 Q0992 RMK     1ST008 3SC015 5AC100 A2929=,
20180109_010000.003,0,RJTC,,,,0,20180109010000,-1,-1,-1,-1,30,-1,3,-1,-1,360,80,,8000,0,0,3,FEW 10   SCT 30   BKN 100,1,8,1,6,992,RJTC 090100Z 03003KT 360V080 8000 FEW010 SCT030 BKN100 08/06     Q0992 RMK 1ST010 3CU030 5AC100 A2929=,
20180109_020000.003,0,RJTC,,,,0,20180109020000,-1,-1,-1,-1,40,-1,4,-1,-1,-1,-1,,9999,0,0,3,FEW 15   SCT 30   BKN 100,1,9,1,6,991,RJTC 090200Z 04004KT 9999 FEW015 SCT030 BKN100 09/06 Q0991 RMK     1SC015 3CU030 5AC100 A2928=,
20180109_030000.003,0,RJTC,,,,0,20180109030000,-1,-1,-1,-1,180,-1,5,-1,-1,110,220,,9999,0,0,2,FEW 30   SCT 100,1,12,1,7,990,RJTC 090300Z 18005KT 110V220 9999 FEW030 SCT100 12/07 Q0990     RMK 1CU030 4AC100 A2926=,
20180109_040000.003,0,RJTC,,,,0,20180109040000,-1,-1,-1,-1,999,-1,1,-1,-1,-1,-1,,9999,0,0,1,FEW 30,1,15,1,7,990,RJTC 090400Z VRB01KT 9999 FEW030 15/07 Q0990 RMK 1CU030 A2923=,
20180109_050000.003,0,RJTC,,,,0,20180109050000,-1,-1,-1,-1,330,-1,3,-1,-1,290,20,,9999,0,0,1,FEW 30,1,17,1,6,989,RJTC 090500Z 33003KT 290V020 9999 FEW030 17/06 Q0989 RMK     1CU030 A2923=,
20180109_060000.003,0,RJTC,,,,0,20180109060000,-1,-1,-1,-1,360,-1,7,-1,-1,280,20,,9999,0,0,1,FEW 30,1,17,1,1,991,RJTC 090600Z 36007KT 280V020 9999 FEW030 17/01 Q0991 RMK     2CU030 A2927=,
20180109_070000.003,0,RJTC,,,,0,20180109070000,-1,-1,-1,-1,310,-1,5,-1,-1,260,350,,9999,0,0,1,FEW 30,1,14,-1,3,992,RJTC 090700Z 31005KT 260V350 9999 FEW030 14/M03 Q0992 RMK     2CU030 A2932=,
20180109_080000.003,0,RJTC,,,,0,20180109080000,-1,-1,-1,-1,300,-1,6,-1,-1,260,340,,9999,0,0,1,FEW 30,1,12,-1,6,995,RJTC 090800Z 30006KT 260V340 9999 FEW030 12/M06 Q0995 RMK     1CU030 A2940=,
20180109_090000.003,0,RJTC,,,,0,20180109090000,-1,-1,-1,-1,-1,-1,-1,-1,-1,-1,-1,,-1,0,0,0,,0,-1,0,-1,-1,RJTC 090900Z NIL=,
20180109_100000.003,0,RJTC,,,,0,20180109100000,-1,-1,-1,-1,-1,-1,-1,-1,-1,-1,-1,,-1,0,0,0,,0,-1,0,-1,-1,RJTC 091000Z NIL=,
20180109_110000.003,0,RJTC,,,,0,20180109110000,-1,-1,-1,-1,-1,-1,-1,-1,-1,-1,-1,,-1,0,0,0,,0,-1,0,-1,-1,RJTC 091100Z NIL=,
20180109_120000.003,0,RJTC,,,,0,20180109120000,-1,-1,-1,-1,-1,-1,-1,-1,-1,-1,-1,,-1,0,0,0,,0,-1,0,-1,-1,RJTC 091200Z NIL=,
20180109_130000.003,0,RJTC,,,,0,20180109130000,-1,-1,-1,-1,-1,-1,-1,-1,-1,-1,-1,,-1,0,0,0,,0,-1,0,-1,-1,RJTC 091300Z NIL=,
20180109_140000.003,0,RJTC,,,,0,20180109140000,-1,-1,-1,-1,-1,-1,-1,-1,-1,-1,-1,,-1,0,0,0,,0,-1,0,-1,-1,RJTC 091400Z NIL=,
20180109_150000.003,0,RJTC,,,,0,20180109150000,-1,-1,-1,-1,-1,-1,-1,-1,-1,-1,-1,,-1,0,0,0,,0,-1,0,-1,-1,RJTC 091500Z NIL=,
20180109_160000.003,0,RJTC,,,,0,20180109160000,-1,-1,-1,-1,-1,-1,-1,-1,-1,-1,-1,,-1,0,0,0,,0,-1,0,-1,-1,RJTC 091600Z NIL=,
20180109_170000.003,0,RJTC,,,,0,20180109170000,-1,-1,-1,-1,-1,-1,-1,-1,-1,-1,-1,,-1,0,0,0,,0,-1,0,-1,-1,RJTC 091700Z NIL=,
20180109_180000.003,0,RJTC,,,,0,20180109180000,-1,-1,-1,-1,-1,-1,-1,-1,-1,-1,-1,,-1,0,0,0,,0,-1,0,-1,-1,RJTC 091800Z NIL=,
20180109_190000.004,0,RJTC,,,,0,20180109190000,-1,-1,-1,-1,-1,-1,-1,-1,-1,-1,-1,,-1,0,0,0,,0,-1,0,-1,-1,RJTC 091900Z NIL=,
20180109_200000.003,0,RJTC,,,,0,20180109200000,-1,-1,-1,-1,-1,-1,-1,-1,-1,-1,-1,,-1,0,0,0,,0,-1,0,-1,-1,RJTC 092000Z NIL=,
20180109_210000.003,0,RJTC,,,,0,20180109210000,-1,-1,-1,-1,210,-1,4,-1,-1,-1,-1,,9999,0,0,1,FEW 30,-1,1,-1,8,1006,RJTC 092100Z 21004KT 9999 FEW030 M01/M08 Q1006 RMK 1CU030     A2972=,
20180109_220000.003,0,RJTC,,,,0,20180109220000,-1,-1,-1,-1,999,-1,3,-1,-1,-1,-1,,9999,0,0,1,FEW 30,-1,1,-1,9,1007,RJTC 092200Z VRB03KT 9999 FEW030 M01/M09 Q1007 RMK 1CU030     A2975=,
20180109_230000.003,0,RJTC,,,,0,20180109230000,-1,-1,-1,-1,220,-1,8,-1,-1,-1,-1,,9999,0,0,1,FEW 30,1,3,-1,8,1008,RJTC 092300Z 22008KT 9999 FEW030 03/M08 Q1008 RMK 1CU030     A2977=,
20180110_000000.003,0,RJTC,,,,0,20180110000000,-1,-1,-1,-1,220,-1,5,-1,-1,-1,-1,,9999,0,0,1,FEW 30,1,6,-1,11,1008,RJTC 100000Z 22005KT 9999 FEW030 06/M11 Q1008 RMK 1CU030     A2977=,
20180110_010000.003,0,RJTC,,,,0,20180110010000,-1,-1,-1,-1,190,-1,8,-1,-1,-1,-1,,9999,0,0,1,FEW 30,1,7,-1,11,1008,RJTC 100100Z 19008KT 9999 FEW030 07/M11 Q1008 RMK 1CU030     A2977=,
20180110_020000.003,0,RJTC,,,,0,20180110020000,-1,-1,-1,-1,260,-1,9,-1,20,210,300,,9999,0,0,1,FEW 30,1,10,-1,15,1007,RJTC 100200Z 26009G20KT 210V300 9999 FEW030 10/M15 Q1007 RMK     1CU030 A2973=,
20180110_030000.003,0,RJTC,,,,0,20180110030000,-1,-1,-1,-1,250,-1,12,-1,22,200,290,,9999,0,0,1,FEW 30,1,12,-1,15,1006,RJTC 100300Z 25012G22KT 200V290 9999 FEW030 12/M15 Q1006 RMK     1CU030 A2970=,
20180110_040000.004,0,RJTC,,,,0,20180110040000,-1,-1,-1,-1,270,-1,13,-1,23,-1,-1,,9999,0,0,1,FEW 30,1,12,-1,16,1005,RJTC 100400Z 27013G23KT 9999 FEW030 12/M16 Q1005 RMK 1CU030     A2968=,
20180110_050000.003,0,RJTC,,,,0,20180110050000,-1,-1,-1,-1,200,-1,14,-1,-1,170,230,,9999,0,0,1,FEW 30,1,12,-1,9,1005,RJTC 100500Z 20014KT 170V230 9999 FEW030 12/M09 Q1005 RMK     1CU030 A2967=,
20180110_060000.003,0,RJTC,,,,0,20180110060000,-1,-1,-1,-1,210,-1,15,-1,-1,-1,-1,,9999,0,0,1,FEW 30,1,11,-1,8,1005,RJTC 100600Z 21015KT 9999 FEW030 11/M08 Q1005 RMK 1CU030     A2969=,
20180110_070000.003,0,RJTC,,,,0,20180110070000,-1,-1,-1,-1,220,-1,12,-1,-1,-1,-1,,9999,0,0,1,FEW 30,1,10,-1,8,1005,RJTC 100700Z 22012KT 9999 FEW030 10/M08 Q1005 RMK 1CU030 A2970     MAX WIND 20KT=,
20180110_080000.003,0,RJTC,,,,0,20180110080000,-1,-1,-1,-1,200,-1,8,-1,-1,-1,-1,,9999,0,0,1,FEW 30,1,9,-1,7,1005,RJTC 100800Z 20008KT 9999 FEW030 09/M07 Q1005 RMK 1CU030     A2970=,
20180110_090000.003,0,RJTC,,,,0,20180110090000,-1,-1,-1,-1,-1,-1,-1,-1,-1,-1,-1,,-1,0,0,0,,0,-1,0,-1,-1,RJTC 100900Z NIL=,
20180110_100000.003,0,RJTC,,,,0,20180110100000,-1,-1,-1,-1,-1,-1,-1,-1,-1,-1,-1,,-1,0,0,0,,0,-1,0,-1,-1,RJTC 101000Z NIL=,
20180110_110000.003,0,RJTC,,,,0,20180110110000,-1,-1,-1,-1,-1,-1,-1,-1,-1,-1,-1,,-1,0,0,0,,0,-1,0,-1,-1,RJTC 101100Z NIL=,
20180110_120000.003,0,RJTC,,,,0,20180110120000,-1,-1,-1,-1,-1,-1,-1,-1,-1,-1,-1,,-1,0,0,0,,0,-1,0,-1,-1,RJTC 101200Z NIL=,
20180110_130000.003,0,RJTC,,,,0,20180110130000,-1,-1,-1,-1,-1,-1,-1,-1,-1,-1,-1,,-1,0,0,0,,0,-1,0,-1,-1,RJTC 101300Z NIL=,
20180110_140000.003,0,RJTC,,,,0,20180110140000,-1,-1,-1,-1,-1,-1,-1,-1,-1,-1,-1,,-1,0,0,0,,0,-1,0,-1,-1,RJTC 101400Z NIL=,
20180110_150000.003,0,RJTC,,,,0,20180110150000,-1,-1,-1,-1,-1,-1,-1,-1,-1,-1,-1,,-1,0,0,0,,0,-1,0,-1,-1,RJTC 101500Z NIL=,
20180110_160000.003,0,RJTC,,,,0,20180110160000,-1,-1,-1,-1,-1,-1,-1,-1,-1,-1,-1,,-1,0,0,0,,0,-1,0,-1,-1,RJTC 101600Z NIL=,
20180110_170000.003,0,RJTC,,,,0,20180110170000,-1,-1,-1,-1,-1,-1,-1,-1,-1,-1,-1,,-1,0,0,0,,0,-1,0,-1,-1,RJTC 101700Z NIL=,
20180110_180000.003,0,RJTC,,,,0,20180110180000,-1,-1,-1,-1,-1,-1,-1,-1,-1,-1,-1,,-1,0,0,0,,0,-1,0,-1,-1,RJTC 101800Z NIL=,
20180110_190000.003,0,RJTC,,,,0,20180110190000,-1,-1,-1,-1,-1,-1,-1,-1,-1,-1,-1,,-1,0,0,0,,0,-1,0,-1,-1,RJTC 101900Z NIL=,
20180110_200000.003,0,RJTC,,,,0,20180110200000,-1,-1,-1,-1,-1,-1,-1,-1,-1,-1,-1,,-1,0,0,0,,0,-1,0,-1,-1,RJTC 102000Z NIL=,
20180110_210000.003,0,RJTC,,,,0,20180110210000,-1,-1,-1,-1,0,-1,0,-1,-1,-1,-1,,9999,0,0,1,FEW 30,-1,3,-1,7,1010,RJTC 102100Z 00000KT 9999 FEW030 M03/M07 Q1010 RMK 1CU030     A2982=,
20180110_220000.003,0,RJTC,,,,0,20180110220000,-1,-1,-1,-1,200,-1,2,-1,-1,-1,-1,,9999,0,0,1,FEW 30,-1,4,-1,7,1011,RJTC 102200Z 20002KT 9999 FEW030 M04/M07 Q1011 RMK 1CU030     A2986=,
20180110_230000.004,0,RJTC,,,,0,20180110230000,-1,-1,-1,-1,0,-1,0,-1,-1,-1,-1,,9999,0,0,1,FEW 30,-1,3,-1,6,1011,RJTC 102300Z 00000KT 9999 FEW030 M03/M06 Q1011 RMK 1CU030     A2986=,
20180111_000000.003,0,RJTC,,,,0,20180111000000,-1,-1,-1,-1,999,-1,1,-1,-1,-1,-1,,9999,0,0,1,FEW 30,1,2,-1,6,1011,RJTC 110000Z VRB01KT 9999 FEW030 02/M06 Q1011 RMK 1CU030     A2986=,
20180111_010000.003,0,RJTC,,,,0,20180111010000,-1,-1,-1,-1,130,-1,3,-1,-1,70,170,,9999,0,0,1,FEW 30,1,5,-1,6,1011,RJTC 110100Z 13003KT 070V170 9999 FEW030 05/M06 Q1011 RMK     1CU030 A2988=,
20180111_020000.003,0,RJTC,,,,0,20180111020000,-1,-1,-1,-1,999,-1,4,-1,-1,-1,-1,,9999,0,0,1,FEW 30,1,8,-1,12,1011,RJTC 110200Z VRB04KT 9999 FEW030 08/M12 Q1011 RMK 1CU030     A2986=,
20180111_030000.002,0,RJTC,,,,0,20180111030000,-1,-1,-1,-1,999,-1,6,-1,-1,-1,-1,,9999,0,0,1,FEW 30,1,9,-1,15,1010,RJTC 110300Z VRB06KT 9999 FEW030 09/M15 Q1010 RMK 1CU030     A2983=,
20180111_040000.003,0,RJTC,,,,0,20180111040000,-1,-1,-1,-1,999,-1,3,-1,-1,-1,-1,,9999,0,0,1,FEW 30,1,10,-1,13,1009,RJTC 110400Z VRB03KT 9999 FEW030 10/M13 Q1009 RMK 1CU030     A2982=,
20180111_050000.003,0,RJTC,,,,0,20180111050000,-1,-1,-1,-1,260,-1,7,-1,-1,200,320,,9999,0,0,1,FEW 30,1,10,-1,22,1009,RJTC 110500Z 26007KT 200V320 9999 FEW030 10/M22 Q1009 RMK     1CU030 A2980=,
20180111_060000.003,0,RJTC,,,,0,20180111060000,-1,-1,-1,-1,290,-1,6,-1,-1,230,340,,9999,0,0,1,FEW 30,1,10,-1,19,1010,RJTC 110600Z 29006KT 230V340 9999 FEW030 10/M19 Q1010 RMK     1CU030 A2982=,
20180111_070000.003,0,RJTC,,,,0,20180111070000,-1,-1,-1,-1,999,-1,4,-1,-1,-1,-1,,9999,0,0,1,FEW 30,1,9,-1,20,1010,RJTC 110700Z VRB04KT 9999 FEW030 09/M20 Q1010 RMK 1CU030     A2984=,
20180111_080000.003,0,RJTC,,,,0,20180111080000,-1,-1,-1,-1,10,-1,6,-1,-1,340,40,,9999,0,0,1,FEW 30,1,6,-1,12,1011,RJTC 110800Z 01006KT 340V040 9999 FEW030 06/M12 Q1011 RMK     1CU030 A2986=,
20180111_090000.003,0,RJTC,,,,0,20180111090000,-1,-1,-1,-1,-1,-1,-1,-1,-1,-1,-1,,-1,0,0,0,,0,-1,0,-1,-1,RJTC 110900Z NIL=,
20180111_100000.003,0,RJTC,,,,0,20180111100000,-1,-1,-1,-1,-1,-1,-1,-1,-1,-1,-1,,-1,0,0,0,,0,-1,0,-1,-1,RJTC 111000Z NIL=,
20180111_110000.003,0,RJTC,,,,0,20180111110000,-1,-1,-1,-1,-1,-1,-1,-1,-1,-1,-1,,-1,0,0,0,,0,-1,0,-1,-1,RJTC 111100Z NIL=,
20180111_120000.003,0,RJTC,,,,0,20180111120000,-1,-1,-1,-1,-1,-1,-1,-1,-1,-1,-1,,-1,0,0,0,,0,-1,0,-1,-1,RJTC 111200Z NIL=,
20180111_130000.003,0,RJTC,,,,0,20180111130000,-1,-1,-1,-1,-1,-1,-1,-1,-1,-1,-1,,-1,0,0,0,,0,-1,0,-1,-1,RJTC 111300Z NIL=,
20180111_140000.003,0,RJTC,,,,0,20180111140000,-1,-1,-1,-1,-1,-1,-1,-1,-1,-1,-1,,-1,0,0,0,,0,-1,0,-1,-1,RJTC 111400Z NIL=,
20180111_150000.003,0,RJTC,,,,0,20180111150000,-1,-1,-1,-1,-1,-1,-1,-1,-1,-1,-1,,-1,0,0,0,,0,-1,0,-1,-1,RJTC 111500Z NIL=,
20180111_160000.003,0,RJTC,,,,0,20180111160000,-1,-1,-1,-1,-1,-1,-1,-1,-1,-1,-1,,-1,0,0,0,,0,-1,0,-1,-1,RJTC 111600Z NIL=,
20180111_170000.003,0,RJTC,,,,0,20180111170000,-1,-1,-1,-1,-1,-1,-1,-1,-1,-1,-1,,-1,0,0,0,,0,-1,0,-1,-1,RJTC 111700Z NIL=,
20180111_180000.003,0,RJTC,,,,0,20180111180000,-1,-1,-1,-1,-1,-1,-1,-1,-1,-1,-1,,-1,0,0,0,,0,-1,0,-1,-1,RJTC 111800Z NIL=,
20180111_190000.003,0,RJTC,,,,0,20180111190000,-1,-1,-1,-1,-1,-1,-1,-1,-1,-1,-1,,-1,0,0,0,,0,-1,0,-1,-1,RJTC 111900Z NIL=,
20180111_200000.003,0,RJTC,,,,0,20180111200000,-1,-1,-1,-1,-1,-1,-1,-1,-1,-1,-1,,-1,0,0,0,,0,-1,0,-1,-1,RJTC 112000Z NIL=,
20180111_210000.003,0,RJTC,,,,0,20180111210000,-1,-1,-1,-1,999,-1,1,-1,-1,-1,-1,,9999,0,0,1,FEW 30,-1,6,-1,12,1017,RJTC 112100Z VRB01KT 9999 FEW030 M06/M12 Q1017 RMK 1CU030     A3003=,
20180111_220000.004,0,RJTC,,,,0,20180111220000,-1,-1,-1,-1,999,-1,2,-1,-1,-1,-1,,9999,0,0,1,FEW 30,-1,7,-1,12,1017,RJTC 112200Z VRB02KT 9999 FEW030 M07/M12 Q1017 RMK 1CU030     A3005=,
20180111_230000.003,0,RJTC,,,,0,20180111230000,-1,-1,-1,-1,999,-1,3,-1,-1,-1,-1,,9999,0,0,1,FEW 30,-1,5,-1,11,1018,RJTC 112300Z VRB03KT 9999 FEW030 M05/M11 Q1018 RMK 1CU030     A3008=,
20180112_000000.003,0,RJTC,,,,0,20180112000000,-1,-1,-1,-1,999,-1,1,-1,-1,-1,-1,,9999,0,0,1,FEW 30,-1,1,-1,12,1019,RJTC 120000Z VRB01KT 9999 FEW030 M01/M12 Q1019 RMK 1CU030     A3009=,
20180112_010000.004,0,RJTC,,,,0,20180112010000,-1,-1,-1,-1,999,-1,4,-1,-1,-1,-1,,9999,0,0,1,FEW 30,1,2,-1,15,1019,RJTC 120100Z VRB04KT 9999 FEW030 02/M15 Q1019 RMK 1CU030     A3009=,
20180112_020000.003,0,RJTC,,,,0,20180112020000,-1,-1,-1,-1,999,-1,3,-1,-1,-1,-1,,9999,0,0,1,FEW 30,1,3,-1,16,1019,RJTC 120200Z VRB03KT 9999 FEW030 03/M16 Q1019 RMK 1CU030     A3011=,
20180112_030000.003,0,RJTC,,,,0,20180112030000,-1,-1,-1,-1,999,-1,3,-1,-1,-1,-1,,9999,0,0,1,FEW 30,1,4,-1,17,1018,RJTC 120300Z VRB03KT 9999 FEW030 04/M17 Q1018 RMK 1CU030     A3007=,
20180112_040000.003,0,RJTC,,,,0,20180112040000,-1,-1,-1,-1,60,-1,4,-1,-1,360,120,,9999,0,0,1,FEW 30,1,5,-1,19,1017,RJTC 120400Z 06004KT 360V120 9999 FEW030 05/M19 Q1017 RMK     1CU030 A3005=,
20180112_050000.004,0,RJTC,,,,0,20180112050000,-1,-1,-1,-1,170,-1,6,-1,-1,130,210,,9999,0,0,1,FEW 30,1,6,-1,19,1018,RJTC 120500Z 17006KT 130V210 9999 FEW030 06/M19 Q1018 RMK     1CU030 A3006=,
20180112_060000.003,0,RJTC,,,,0,20180112060000,-1,-1,-1,-1,190,-1,5,-1,-1,110,260,,9999,0,0,3,FEW 30   SCT 100   BKN 230,1,6,-1,18,1018,RJTC 120600Z 19005KT 110V260 9999 FEW030 SCT100 BKN230 06/M18     Q1018 RMK 1CU030 3AC100 5CI230 A3007=,
20180112_070000.004,0,RJTC,,,,0,20180112070000,-1,-1,-1,-1,180,-1,6,-1,-1,110,230,,9999,0,0,3,FEW 30   BKN 100   BKN 230,1,6,-1,16,1019,RJTC 120700Z 18006KT 110V230 9999 FEW030 BKN100 BKN230 06/M16     Q1019 RMK 1CU030 5AC100 6CI230 A3009=,
20180112_080000.003,0,RJTC,,,,0,20180112080000,-1,-1,-1,-1,999,-1,1,-1,-1,-1,-1,,9999,0,0,3,FEW 30   BKN 100   BKN 230,1,4,-1,12,1019,RJTC 120800Z VRB01KT 9999 FEW030 BKN100 BKN230 04/M12 Q1019     RMK 1CU030 5AC100 6CI230 A3011=,
20180112_090000.003,0,RJTC,,,,0,20180112090000,-1,-1,-1,-1,-1,-1,-1,-1,-1,-1,-1,,-1,0,0,0,,0,-1,0,-1,-1,RJTC 120900Z NIL=,
20180112_100000.003,0,RJTC,,,,0,20180112100000,-1,-1,-1,-1,-1,-1,-1,-1,-1,-1,-1,,-1,0,0,0,,0,-1,0,-1,-1,RJTC 121000Z NIL=,
20180112_110000.003,0,RJTC,,,,0,20180112110000,-1,-1,-1,-1,-1,-1,-1,-1,-1,-1,-1,,-1,0,0,0,,0,-1,0,-1,-1,RJTC 121100Z NIL=,
20180112_120000.003,0,RJTC,,,,0,20180112120000,-1,-1,-1,-1,-1,-1,-1,-1,-1,-1,-1,,-1,0,0,0,,0,-1,0,-1,-1,RJTC 121200Z NIL=,
20180112_130000.003,0,RJTC,,,,0,20180112130000,-1,-1,-1,-1,-1,-1,-1,-1,-1,-1,-1,,-1,0,0,0,,0,-1,0,-1,-1,RJTC 121300Z NIL=,
20180112_140000.003,0,RJTC,,,,0,20180112140000,-1,-1,-1,-1,-1,-1,-1,-1,-1,-1,-1,,-1,0,0,0,,0,-1,0,-1,-1,RJTC 121400Z NIL=,
20180112_150000.003,0,RJTC,,,,0,20180112150000,-1,-1,-1,-1,-1,-1,-1,-1,-1,-1,-1,,-1,0,0,0,,0,-1,0,-1,-1,RJTC 121500Z NIL=,
20180112_160000.003,0,RJTC,,,,0,20180112160000,-1,-1,-1,-1,-1,-1,-1,-1,-1,-1,-1,,-1,0,0,0,,0,-1,0,-1,-1,RJTC 121600Z NIL=,
20180112_170000.003,0,RJTC,,,,0,20180112170000,-1,-1,-1,-1,-1,-1,-1,-1,-1,-1,-1,,-1,0,0,0,,0,-1,0,-1,-1,RJTC 121700Z NIL=,
20180112_180000.003,0,RJTC,,,,0,20180112180000,-1,-1,-1,-1,-1,-1,-1,-1,-1,-1,-1,,-1,0,0,0,,0,-1,0,-1,-1,RJTC 121800Z NIL=,
20180112_190000.003,0,RJTC,,,,0,20180112190000,-1,-1,-1,-1,-1,-1,-1,-1,-1,-1,-1,,-1,0,0,0,,0,-1,0,-1,-1,RJTC 121900Z NIL=,
20180112_200000.004,0,RJTC,,,,0,20180112200000,-1,-1,-1,-1,-1,-1,-1,-1,-1,-1,-1,,-1,0,0,0,,0,-1,0,-1,-1,RJTC 122000Z NIL=,
20180112_210000.003,0,RJTC,,,,0,20180112210000,-1,-1,-1,-1,-1,-1,-1,-1,-1,-1,-1,,-1,0,0,0,,0,-1,0,-1,-1,RJTC 122100Z NIL=,
20180112_220000.003,0,RJTC,,,,0,20180112220000,-1,-1,-1,-1,999,-1,1,-1,-1,-1,-1,,9999,0,0,1,FEW 30,-1,5,-1,10,1023,RJTC 122200Z VRB01KT 9999 FEW030 M05/M10 Q1023 RMK 1CU030     A3021=,
20180112_230000.003,0,RJTC,,,,0,20180112230000,-1,-1,-1,-1,360,-1,4,-1,-1,-1,-1,,9999,0,0,1,FEW 30,-1,3,-1,10,1023,RJTC 122300Z 36004KT 9999 FEW030 M03/M10 Q1023 RMK 1CU030     A3021=,
20180113_000000.003,0,RJTC,,,,0,20180113000000,-1,-1,-1,-1,20,-1,5,-1,-1,-1,-1,,9999,0,0,1,FEW 30,-1,1,-1,10,1023,RJTC 130000Z 02005KT 9999 FEW030 M01/M10 Q1023 RMK 1CU030     A3022=,
20180113_010000.004,0,RJTC,,,,0,20180113010000,-1,-1,-1,-1,30,-1,6,-1,-1,-1,-1,,9999,0,0,1,FEW 30,1,1,-1,11,1023,RJTC 130100Z 03006KT 9999 FEW030 01/M11 Q1023 RMK 1CU030     A3021=,
20180113_020000.003,0,RJTC,,,,0,20180113020000,-1,-1,-1,-1,30,-1,4,-1,-1,330,90,,9999,0,0,1,FEW 30,1,2,-1,11,1022,RJTC 130200Z 03004KT 330V090 9999 FEW030 02/M11 Q1022 RMK     1CU030 A3019=,
20180113_030000.003,0,RJTC,,,,0,20180113030000,-1,-1,-1,-1,40,-1,4,-1,-1,340,100,,9999,0,0,1,FEW 30,1,5,-1,10,1021,RJTC 130300Z 04004KT 340V100 9999 FEW030 05/M10 Q1021 RMK     1CU030 A3015=,
20180113_040000.003,0,RJTC,,,,0,20180113040000,-1,-1,-1,-1,160,-1,5,-1,-1,70,200,,9999,0,0,1,FEW 30,1,6,-1,12,1020,RJTC 130400Z 16005KT 070V200 9999 FEW030 06/M12 Q1020 RMK     1CU030 A3012=,
20180113_050000.003,0,RJTC,,,,0,20180113050000,-1,-1,-1,-1,180,-1,6,-1,-1,110,220,,9999,0,0,1,FEW 30,1,7,-1,12,1019,RJTC 130500Z 18006KT 110V220 9999 FEW030 07/M12 Q1019 RMK     1CU030 A3010=,
20180113_060000.003,0,RJTC,,,,0,20180113060000,-1,-1,-1,-1,190,-1,5,-1,-1,140,290,,9999,0,0,1,FEW 30,1,8,-1,13,1019,RJTC 130600Z 19005KT 140V290 9999 FEW030 08/M13 Q1019 RMK     1CU030 A3009=,
20180113_070000.003,0,RJTC,,,,0,20180113070000,-1,-1,-1,-1,170,-1,5,-1,-1,130,220,,9999,0,0,1,FEW 30,1,7,-1,10,1019,RJTC 130700Z 17005KT 130V220 9999 FEW030 07/M10 Q1019 RMK     1CU030 A3010=,
20180113_080000.003,0,RJTC,,,,0,20180113080000,-1,-1,-1,-1,170,-1,5,-1,-1,-1,-1,,9999,0,0,1,FEW 30,1,6,-1,9,1019,RJTC 130800Z 17005KT 9999 FEW030 06/M09 Q1019 RMK 1CU030     A3011=,
20180113_090000.003,0,RJTC,,,,0,20180113090000,-1,-1,-1,-1,-1,-1,-1,-1,-1,-1,-1,,-1,0,0,0,,0,-1,0,-1,-1,RJTC 130900Z NIL=,
20180113_100000.003,0,RJTC,,,,0,20180113100000,-1,-1,-1,-1,-1,-1,-1,-1,-1,-1,-1,,-1,0,0,0,,0,-1,0,-1,-1,RJTC 131000Z NIL=,
20180113_110000.003,0,RJTC,,,,0,20180113110000,-1,-1,-1,-1,-1,-1,-1,-1,-1,-1,-1,,-1,0,0,0,,0,-1,0,-1,-1,RJTC 131100Z NIL=,
20180113_120000.003,0,RJTC,,,,0,20180113120000,-1,-1,-1,-1,-1,-1,-1,-1,-1,-1,-1,,-1,0,0,0,,0,-1,0,-1,-1,RJTC 131200Z NIL=,
20180113_130000.003,0,RJTC,,,,0,20180113130000,-1,-1,-1,-1,-1,-1,-1,-1,-1,-1,-1,,-1,0,0,0,,0,-1,0,-1,-1,RJTC 131300Z NIL=,
20180113_140000.004,0,RJTC,,,,0,20180113140000,-1,-1,-1,-1,-1,-1,-1,-1,-1,-1,-1,,-1,0,0,0,,0,-1,0,-1,-1,RJTC 131400Z NIL=,
20180113_150000.003,0,RJTC,,,,0,20180113150000,-1,-1,-1,-1,-1,-1,-1,-1,-1,-1,-1,,-1,0,0,0,,0,-1,0,-1,-1,RJTC 131500Z NIL=,
20180113_160000.003,0,RJTC,,,,0,20180113160000,-1,-1,-1,-1,-1,-1,-1,-1,-1,-1,-1,,-1,0,0,0,,0,-1,0,-1,-1,RJTC 131600Z NIL=,
20180113_170000.003,0,RJTC,,,,0,20180113170000,-1,-1,-1,-1,-1,-1,-1,-1,-1,-1,-1,,-1,0,0,0,,0,-1,0,-1,-1,RJTC 131700Z NIL=,
20180113_180000.003,0,RJTC,,,,0,20180113180000,-1,-1,-1,-1,-1,-1,-1,-1,-1,-1,-1,,-1,0,0,0,,0,-1,0,-1,-1,RJTC 131800Z NIL=,
20180113_190000.004,0,RJTC,,,,0,20180113190000,-1,-1,-1,-1,-1,-1,-1,-1,-1,-1,-1,,-1,0,0,0,,0,-1,0,-1,-1,RJTC 131900Z NIL=,
20180113_200000.004,0,RJTC,,,,0,20180113200000,-1,-1,-1,-1,-1,-1,-1,-1,-1,-1,-1,,-1,0,0,0,,0,-1,0,-1,-1,RJTC 132000Z NIL=,
20180113_210000.003,0,RJTC,,,,0,20180113210000,-1,-1,-1,-1,-1,-1,-1,-1,-1,-1,-1,,-1,0,0,0,,0,-1,0,-1,-1,RJTC 132100Z NIL=,
20180113_220000.003,0,RJTC,,,,0,20180113220000,-1,-1,-1,-1,20,-1,5,-1,-1,-1,-1,,9999,0,0,1,NSC -1,1,1,-1,12,1026,RJTC 132200Z 02005KT 9999 NSC 01/M12 Q1026 RMK A3031=,
20180113_230000.003,0,RJTC,,,,0,20180113230000,-1,-1,-1,-1,30,-1,7,-1,-1,-1,-1,,9999,0,0,1,FEW 30,1,2,-1,13,1027,RJTC 132300Z 03007KT 9999 FEW030 02/M13 Q1027 RMK 1CU030     A3034=,
20180114_000000.004,0,RJTC,,,,0,20180114000000,-1,-1,-1,-1,30,-1,8,-1,-1,350,60,,9999,0,0,1,FEW 30,1,4,-1,13,1028,RJTC 140000Z 03008KT 350V060 9999 FEW030 04/M13 Q1028 RMK     1CU030 A3037=,
20180114_010000.003,0,RJTC,,,,0,20180114010000,-1,-1,-1,-1,360,-1,11,-1,-1,310,50,,9999,0,0,1,FEW 30,1,5,-1,13,1029,RJTC 140100Z 36011KT 310V050 9999 FEW030 05/M13 Q1029 RMK     1CU030 A3039=,
20180114_020000.003,0,RJTC,,,,0,20180114020000,-1,-1,-1,-1,350,-1,8,-1,-1,300,20,,9999,0,0,1,FEW 30,1,6,-1,14,1029,RJTC 140200Z 35008KT 300V020 9999 FEW030 06/M14 Q1029 RMK     1CU030 A3038=,
20180114_030000.003,0,RJTC,,,,0,20180114030000,-1,-1,-1,-1,360,-1,8,-1,-1,340,40,,9999,0,0,1,FEW 30,1,8,-1,15,1028,RJTC 140300Z 36008KT 340V040 9999 FEW030 08/M15 Q1028 RMK     1CU030 A3036=,
20180114_040000.003,0,RJTC,,,,0,20180114040000,-1,-1,-1,-1,50,-1,9,-1,-1,10,90,,9999,0,0,1,FEW 30,1,8,-1,13,1027,RJTC 140400Z 05009KT 010V090 9999 FEW030 08/M13 Q1027 RMK     1CU030 A3033=,
20180114_050000.003,0,RJTC,,,,0,20180114050000,-1,-1,-1,-1,30,-1,7,-1,-1,330,70,,9999,0,0,1,FEW 30,1,9,-1,12,1027,RJTC 140500Z 03007KT 330V070 9999 FEW030 09/M12 Q1027 RMK     1CU030 A3034=,
20180114_060000.004,0,RJTC,,,,0,20180114060000,-1,-1,-1,-1,60,-1,7,-1,-1,30,100,,9999,0,0,1,FEW 30,1,8,-1,13,1028,RJTC 140600Z 06007KT 030V100 9999 FEW030 08/M13 Q1028 RMK     1CU030 A3035=,
20180114_070000.003,0,RJTC,,,,0,20180114070000,-1,-1,-1,-1,50,-1,6,-1,-1,10,90,,9999,0,0,1,FEW 30,1,7,-1,13,1028,RJTC 140700Z 05006KT 010V090 9999 FEW030 07/M13 Q1028 RMK     1CU030 A3037=,
20180114_080000.003,0,RJTC,,,,0,20180114080000,-1,-1,-1,-1,100,-1,3,-1,-1,-1,-1,,9999,0,0,1,FEW 30,1,6,-1,13,1029,RJTC 140800Z 10003KT 9999 FEW030 06/M13 Q1029 RMK 1CU030     A3039=,
20180114_090000.003,0,RJTC,,,,0,20180114090000,-1,-1,-1,-1,-1,-1,-1,-1,-1,-1,-1,,-1,0,0,0,,0,-1,0,-1,-1,RJTC 140900Z NIL=,
20180114_100000.003,0,RJTC,,,,0,20180114100000,-1,-1,-1,-1,-1,-1,-1,-1,-1,-1,-1,,-1,0,0,0,,0,-1,0,-1,-1,RJTC 141000Z NIL=,
20180114_110000.003,0,RJTC,,,,0,20180114110000,-1,-1,-1,-1,-1,-1,-1,-1,-1,-1,-1,,-1,0,0,0,,0,-1,0,-1,-1,RJTC 141100Z NIL=,
20180114_120000.003,0,RJTC,,,,0,20180114120000,-1,-1,-1,-1,-1,-1,-1,-1,-1,-1,-1,,-1,0,0,0,,0,-1,0,-1,-1,RJTC 141200Z NIL=,
20180114_130000.004,0,RJTC,,,,0,20180114130000,-1,-1,-1,-1,-1,-1,-1,-1,-1,-1,-1,,-1,0,0,0,,0,-1,0,-1,-1,RJTC 141300Z NIL=,
20180114_140000.003,0,RJTC,,,,0,20180114140000,-1,-1,-1,-1,-1,-1,-1,-1,-1,-1,-1,,-1,0,0,0,,0,-1,0,-1,-1,RJTC 141400Z NIL=,
20180114_150000.003,0,RJTC,,,,0,20180114150000,-1,-1,-1,-1,-1,-1,-1,-1,-1,-1,-1,,-1,0,0,0,,0,-1,0,-1,-1,RJTC 141500Z NIL=,
20180114_160000.003,0,RJTC,,,,0,20180114160000,-1,-1,-1,-1,-1,-1,-1,-1,-1,-1,-1,,-1,0,0,0,,0,-1,0,-1,-1,RJTC 141600Z NIL=,
20180114_170000.003,0,RJTC,,,,0,20180114170000,-1,-1,-1,-1,-1,-1,-1,-1,-1,-1,-1,,-1,0,0,0,,0,-1,0,-1,-1,RJTC 141700Z NIL=,
20180114_180000.004,0,RJTC,,,,0,20180114180000,-1,-1,-1,-1,-1,-1,-1,-1,-1,-1,-1,,-1,0,0,0,,0,-1,0,-1,-1,RJTC 141800Z NIL=,
20180114_190000.003,0,RJTC,,,,0,20180114190000,-1,-1,-1,-1,-1,-1,-1,-1,-1,-1,-1,,-1,0,0,0,,0,-1,0,-1,-1,RJTC 141900Z NIL=,
20180114_200000.004,0,RJTC,,,,0,20180114200000,-1,-1,-1,-1,-1,-1,-1,-1,-1,-1,-1,,-1,0,0,0,,0,-1,0,-1,-1,RJTC 142000Z NIL=,
20180114_210000.003,0,RJTC,,,,0,20180114210000,-1,-1,-1,-1,0,-1,0,-1,-1,-1,-1,,9999,0,0,1,FEW 30,-1,5,-1,9,1026,RJTC 142100Z 00000KT 9999 FEW030 M05/M09 Q1026 RMK 1CU030     A3031=,
20180114_220000.003,0,RJTC,,,,0,20180114220000,-1,-1,-1,-1,310,-1,1,-1,-1,-1,-1,,9999,0,0,1,FEW 30,-1,5,-1,9,1026,RJTC 142200Z 31001KT 9999 FEW030 M05/M09 Q1026 RMK 2SC030     A3032=,
20180114_230000.003,0,RJTC,,,,0,20180114230000,-1,-1,-1,-1,999,-1,1,-1,-1,-1,-1,,9999,0,0,1,FEW 30,-1,4,-1,8,1026,RJTC 142300Z VRB01KT 9999 FEW030 M04/M08 Q1026 RMK 2SC030     A3031=,
20180115_000000.003,0,RJTC,,,,0,20180115000000,-1,-1,-1,-1,999,-1,1,-1,-1,-1,-1,,9999,0,0,2,FEW 30   BKN 230,1,0,-1,7,1026,RJTC 150000Z VRB01KT 9999 FEW030 BKN230 00/M07 Q1026 RMK     1SC030 5CI230 A3030=,
20180115_010000.003,0,RJTC,,,,0,20180115010000,-1,-1,-1,-1,30,-1,5,-1,-1,340,60,,9999,0,0,2,FEW 30   BKN 230,1,3,-1,9,1025,RJTC 150100Z 03005KT 340V060 9999 FEW030 BKN230 03/M09 Q1025     RMK 1CU030 6CI230 A3029=,
20180115_020000.003,0,RJTC,,,,0,20180115020000,-1,-1,-1,-1,110,-1,4,-1,-1,50,190,,9999,0,0,2,FEW 30   BKN 230,1,5,-1,9,1024,RJTC 150200Z 11004KT 050V190 9999 FEW030 BKN230 05/M09 Q1024     RMK 1CU030 6CI230 A3024=,
20180115_030000.003,0,RJTC,,,,0,20180115030000,-1,-1,-1,-1,50,-1,3,-1,-1,360,120,,9999,0,0,2,FEW 30   BKN 230,1,7,-1,9,1022,RJTC 150300Z 05003KT 360V120 9999 FEW030 BKN230 07/M09 Q1022     RMK 1CU030 6CI230 A3019=,
20180115_040000.003,0,RJTC,,,,0,20180115040000,-1,-1,-1,-1,50,-1,4,-1,-1,350,100,,9999,0,0,2,FEW 30   BKN 230,1,8,-1,8,1021,RJTC 150400Z 05004KT 350V100 9999 FEW030 BKN230 08/M08 Q1021     RMK 1CU030 6CI230 A3015=,
20180115_050000.003,0,RJTC,,,,0,20180115050000,-1,-1,-1,-1,20,-1,5,-1,-1,350,60,,9999,0,0,2,FEW 30   SCT 230,1,8,-1,8,1019,RJTC 150500Z 02005KT 350V060 9999 FEW030 SCT230 08/M08 Q1019     RMK 1CU030 4CI230 A3011=,
20180115_060000.003,0,RJTC,,,,0,20180115060000,-1,-1,-1,-1,30,-1,4,-1,-1,360,80,,9999,0,0,1,FEW 30,1,8,-1,8,1019,RJTC 150600Z 03004KT 360V080 9999 FEW030 08/M08 Q1019 RMK     1CU030 A3009=,
20180115_070000.005,0,RJTC,,,,0,20180115070000,-1,-1,-1,-1,30,-1,5,-1,-1,-1,-1,,9999,0,0,1,FEW 30,1,7,-1,8,1018,RJTC 150700Z 03005KT 9999 FEW030 07/M08 Q1018 RMK 1CU030     A3008=,
20180115_080000.003,0,RJTC,,,,0,20180115080000,-1,-1,-1,-1,10,-1,2,-1,-1,-1,-1,,9999,0,0,1,FEW 30,1,5,-1,6,1019,RJTC 150800Z 01002KT 9999 FEW030 05/M06 Q1019 RMK 1CU030     A3009=,
20180115_090000.003,0,RJTC,,,,0,20180115090000,-1,-1,-1,-1,999,-1,2,-1,-1,-1,-1,,9999,0,0,1,FEW 30,1,3,-1,6,1019,RJTC 150900Z VRB02KT 9999 FEW030 03/M06 Q1019 RMK 1CU030     A3011=,
20180115_100000.003,0,RJTC,,,,0,20180115100000,-1,-1,-1,-1,999,-1,1,-1,-1,-1,-1,,9999,0,0,1,FEW 30,1,1,-1,6,1019,RJTC 151000Z VRB01KT 9999 FEW030 01/M06 Q1019 RMK 1CU030     A3011=,
20180115_110000.003,0,RJTC,,,,0,20180115110000,-1,-1,-1,-1,-1,-1,-1,-1,-1,-1,-1,,-1,0,0,0,,0,-1,0,-1,-1,RJTC 151100Z NIL=,
20180115_120000.003,0,RJTC,,,,0,20180115120000,-1,-1,-1,-1,-1,-1,-1,-1,-1,-1,-1,,-1,0,0,0,,0,-1,0,-1,-1,RJTC 151200Z NIL=,
20180115_130000.003,0,RJTC,,,,0,20180115130000,-1,-1,-1,-1,-1,-1,-1,-1,-1,-1,-1,,-1,0,0,0,,0,-1,0,-1,-1,RJTC 151300Z NIL=,
20180115_140000.003,0,RJTC,,,,0,20180115140000,-1,-1,-1,-1,-1,-1,-1,-1,-1,-1,-1,,-1,0,0,0,,0,-1,0,-1,-1,RJTC 151400Z NIL=,
20180115_150000.003,0,RJTC,,,,0,20180115150000,-1,-1,-1,-1,-1,-1,-1,-1,-1,-1,-1,,-1,0,0,0,,0,-1,0,-1,-1,RJTC 151500Z NIL=,
20180115_160000.003,0,RJTC,,,,0,20180115160000,-1,-1,-1,-1,-1,-1,-1,-1,-1,-1,-1,,-1,0,0,0,,0,-1,0,-1,-1,RJTC 151600Z NIL=,
20180115_170000.003,0,RJTC,,,,0,20180115170000,-1,-1,-1,-1,-1,-1,-1,-1,-1,-1,-1,,-1,0,0,0,,0,-1,0,-1,-1,RJTC 151700Z NIL=,
20180115_180000.003,0,RJTC,,,,0,20180115180000,-1,-1,-1,-1,-1,-1,-1,-1,-1,-1,-1,,-1,0,0,0,,0,-1,0,-1,-1,RJTC 151800Z NIL=,
20180115_190000.003,0,RJTC,,,,0,20180115190000,-1,-1,-1,-1,-1,-1,-1,-1,-1,-1,-1,,-1,0,0,0,,0,-1,0,-1,-1,RJTC 151900Z NIL=,
20180115_200000.003,0,RJTC,,,,0,20180115200000,-1,-1,-1,-1,-1,-1,-1,-1,-1,-1,-1,,-1,0,0,0,,0,-1,0,-1,-1,RJTC 152000Z NIL=,
20180115_210000.003,0,RJTC,,,,0,20180115210000,-1,-1,-1,-1,220,-1,3,-1,-1,190,320,,9999,0,0,1,FEW 30,-1,3,-1,6,1020,RJTC 152100Z 22003KT 190V320 9999 FEW030 M03/M06 Q1020 RMK     1CU030 A3012=,
20180115_220000.003,0,RJTC,,,,0,20180115220000,-1,-1,-1,-1,0,-1,0,-1,-1,-1,-1,,9999,0,0,1,FEW 30,-1,2,-1,6,1020,RJTC 152200Z 00000KT 9999 FEW030 M02/M06 Q1020 RMK 1CU030     A3014=,
20180115_230000.003,0,RJTC,,,,0,20180115230000,-1,-1,-1,-1,40,-1,2,-1,-1,-1,-1,,9999,0,0,2,FEW 30   SCT 230,1,1,-1,6,1021,RJTC 152300Z 04002KT 9999 FEW030 SCT230 01/M06 Q1021 RMK     1CU030 3CI230 A3017=,
20180116_000000.003,0,RJTC,,,,0,20180116000000,-1,-1,-1,-1,999,-1,2,-1,-1,-1,-1,,9999,0,0,2,FEW 30   SCT 230,1,3,-1,5,1022,RJTC 160000Z VRB02KT 9999 FEW030 SCT230 03/M05 Q1022 RMK     1CU030 3CI230 A3019=,
20180116_010000.003,0,RJTC,,,,0,20180116010000,-1,-1,-1,-1,130,-1,3,-1,-1,-1,-1,,9999,0,0,2,FEW 30   SCT 200,1,5,-1,5,1022,RJTC 160100Z 13003KT 9999 FEW030 SCT200 05/M05 Q1022 RMK     1CU030 3CI200 A3019=,
20180116_020000.003,0,RJTC,,,,0,20180116020000,-1,-1,-1,-1,140,-1,3,-1,-1,60,170,,9999,0,0,2,FEW 30   BKN 230,1,7,-1,5,1022,RJTC 160200Z 14003KT 060V170 9999 FEW030 BKN230 07/M05 Q1022     RMK 1CU030 5CI230 A3018=,
20180116_030000.003,0,RJTC,,,,0,20180116030000,-1,-1,-1,-1,100,-1,3,-1,-1,40,160,,9999,0,0,2,FEW 30   BKN 230,1,9,-1,5,1021,RJTC 160300Z 10003KT 040V160 9999 FEW030 BKN230 09/M05 Q1021     RMK 1CU030 5CI230 A3015=,
20180116_040000.003,0,RJTC,,,,0,20180116040000,-1,-1,-1,-1,60,-1,3,-1,-1,330,130,,9999,0,0,2,FEW 30   BKN 220,1,11,-1,5,1019,RJTC 160400Z 06003KT 330V130 9999 FEW030 BKN220 11/M05 Q1019     RMK 1CU030 6CI220 A3010=,
20180116_050000.003,0,RJTC,,,,0,20180116050000,-1,-1,-1,-1,120,-1,3,-1,-1,50,190,,9999,0,0,2,FEW 30   SCT 220,1,12,-1,5,1019,RJTC 160500Z 12003KT 050V190 9999 FEW030 SCT220 12/M05 Q1019     RMK 1CU030 4CI220 A3009=,
20180116_060000.003,0,RJTC,,,,0,20180116060000,-1,-1,-1,-1,130,-1,3,-1,-1,70,180,,9999,0,0,2,FEW 30   BKN 230,1,13,-1,5,1018,RJTC 160600Z 13003KT 070V180 9999 FEW030 BKN230 13/M05 Q1018     RMK 1CU030 5CI230 A3008=,
20180116_070000.003,0,RJTC,,,,0,20180116070000,-1,-1,-1,-1,170,-1,4,-1,-1,80,220,,9999,0,0,2,FEW 30   SCT 230,1,12,-1,6,1018,RJTC 160700Z 17004KT 080V220 9999 FEW030 SCT230 12/M06 Q1018     RMK 1CU030 3CI230 A3008=,
20180116_080000.003,0,RJTC,,,,0,20180116080000,-1,-1,-1,-1,999,-1,2,-1,-1,-1,-1,,9999,0,0,2,FEW 30   SCT 230,1,8,-1,3,1017,RJTC 160800Z VRB02KT 9999 FEW030 SCT230 08/M03 Q1017 RMK     1CU030 3CI230 A3005=,
20180116_090000.003,0,RJTC,,,,0,20180116090000,-1,-1,-1,-1,-1,-1,-1,-1,-1,-1,-1,,-1,0,0,0,,0,-1,0,-1,-1,RJTC 160900Z NIL=,
20180116_100000.003,0,RJTC,,,,0,20180116100000,-1,-1,-1,-1,-1,-1,-1,-1,-1,-1,-1,,-1,0,0,0,,0,-1,0,-1,-1,RJTC 161000Z NIL=,
20180116_110000.005,0,RJTC,,,,0,20180116110000,-1,-1,-1,-1,-1,-1,-1,-1,-1,-1,-1,,-1,0,0,0,,0,-1,0,-1,-1,RJTC 161100Z NIL=,
20180116_120000.003,0,RJTC,,,,0,20180116120000,-1,-1,-1,-1,-1,-1,-1,-1,-1,-1,-1,,-1,0,0,0,,0,-1,0,-1,-1,RJTC 161200Z NIL=,
20180116_130000.003,0,RJTC,,,,0,20180116130000,-1,-1,-1,-1,-1,-1,-1,-1,-1,-1,-1,,-1,0,0,0,,0,-1,0,-1,-1,RJTC 161300Z NIL=,
20180116_140000.003,0,RJTC,,,,0,20180116140000,-1,-1,-1,-1,-1,-1,-1,-1,-1,-1,-1,,-1,0,0,0,,0,-1,0,-1,-1,RJTC 161400Z NIL=,
20180116_150000.003,0,RJTC,,,,0,20180116150000,-1,-1,-1,-1,-1,-1,-1,-1,-1,-1,-1,,-1,0,0,0,,0,-1,0,-1,-1,RJTC 161500Z NIL=,
20180116_160000.003,0,RJTC,,,,0,20180116160000,-1,-1,-1,-1,-1,-1,-1,-1,-1,-1,-1,,-1,0,0,0,,0,-1,0,-1,-1,RJTC 161600Z NIL=,
20180116_170000.003,0,RJTC,,,,0,20180116170000,-1,-1,-1,-1,-1,-1,-1,-1,-1,-1,-1,,-1,0,0,0,,0,-1,0,-1,-1,RJTC 161700Z NIL=,
20180116_180000.003,0,RJTC,,,,0,20180116180000,-1,-1,-1,-1,-1,-1,-1,-1,-1,-1,-1,,-1,0,0,0,,0,-1,0,-1,-1,RJTC 161800Z NIL=,
20180116_190000.003,0,RJTC,,,,0,20180116190000,-1,-1,-1,-1,-1,-1,-1,-1,-1,-1,-1,,-1,0,0,0,,0,-1,0,-1,-1,RJTC 161900Z NIL=,
20180116_200000.003,0,RJTC,,,,0,20180116200000,-1,-1,-1,-1,-1,-1,-1,-1,-1,-1,-1,,-1,0,0,0,,0,-1,0,-1,-1,RJTC 162000Z NIL=,
20180116_210000.003,0,RJTC,,,,0,20180116210000,-1,-1,-1,-1,999,-1,1,-1,-1,-1,-1,,9999,0,0,2,FEW 30   BKN 220,1,1,-1,3,1015,RJTC 162100Z VRB01KT 9999 FEW030 BKN220 01/M03 Q1015 RMK     1CU030 5CI220 A2999=,
20180116_220000.003,0,RJTC,,,,0,20180116220000,-1,-1,-1,-1,999,-1,1,-1,-1,-1,-1,,9999,0,0,3,FEW 20   SCT 60   BKN 230,1,1,-1,2,1016,RJTC 162200Z VRB01KT 9999 FEW020 SCT060 BKN230 01/M02 Q1016     RMK 1CU020 3SC060 7CI230 A3000=,
20180116_230000.003,0,RJTC,,,,0,20180116230000,-1,-1,-1,-1,999,-1,2,-1,-1,-1,-1,,9999,0,0,3,FEW 20   SCT 60   BKN 220,1,3,-1,2,1016,RJTC 162300Z VRB02KT 9999 FEW020 SCT060 BKN220 03/M02 Q1016     RMK 1CU020 4SC060 6CI220 A3002=,
20180117_000000.004,0,RJTC,,,,0,20180117000000,-1,-1,-1,-1,999,-1,2,-1,-1,-1,-1,,9999,0,0,3,FEW 20   BKN 50   BKN 200,1,5,-1,2,1016,RJTC 170000Z VRB02KT 9999 FEW020 BKN050 BKN200 05/M02 Q1016     RMK 1CU020 5SC050 6CI200 A3003=,
20180117_010000.003,0,RJTC,,,,0,20180117010000,-1,-1,-1,-1,360,-1,3,-1,-1,330,30,,9999,0,0,3,FEW 20   BKN 50   BKN 200,1,6,-1,1,1016,RJTC 170100Z 36003KT 330V030 9999 FEW020 BKN050 BKN200 06/M01     Q1016 RMK 1CU020 6SC050 7CI200 A3002=,
20180117_020000.006,0,RJTC,,,,0,20180117020000,-1,-1,-1,-1,350,-1,5,-1,-1,-1,-1,,9999,0,0,3,FEW 20   BKN 50   BKN 180,1,7,1,1,1016,RJTC 170200Z 35005KT 9999 FEW020 BKN050 BKN180 07/01 Q1016 RMK     1CU020 5SC050 7AC180 A3000=,
20180117_030000.004,0,RJTC,,,,0,20180117030000,-1,-1,-1,-1,10,-1,5,-1,-1,330,40,,9999,0,1,3,FEW 20   BKN 50   BKN 150,1,7,1,1,1014,RJTC 170300Z 01005KT 330V040 9999 -RA FEW020 BKN050 BKN150     07/01 Q1014 RMK 1CU020 5SC050 7AC150 A2996=,- RA
20180117_040000.004,0,RJTC,,,,0,20180117040000,-1,-1,-1,-1,20,-1,4,-1,-1,360,60,,9000,0,1,3,FEW 20   BKN 25   BKN 50,1,8,1,2,1013,RJTC 170400Z 02004KT 360V060 9000 -RA FEW020 BKN025 BKN050     08/02 Q1013 RMK 1CU020 5CU025 6SC050 A2992=,- RA
20180117_050000.004,0,RJTC,,,,0,20180117050000,-1,-1,-1,-1,10,-1,5,-1,-1,340,40,,8000,0,1,3,FEW 20   BKN 25   BKN 50,1,8,1,2,1012,RJTC 170500Z 01005KT 340V040 8000 -RA FEW020 BKN025 BKN050     08/02 Q1012 RMK 1CU020 6CU025 7SC050 A2990=,- RA
20180117_060000.003,0,RJTC,,,,0,20180117060000,-1,-1,-1,-1,360,-1,6,-1,-1,340,60,,7000,0,1,3,FEW 20   BKN 25   BKN 50,1,8,1,3,1011,RJTC 170600Z 36006KT 340V060 7000 -SHRA FEW020 BKN025 BKN050     08/03 Q1011 RMK 2CU020 5CU025 7SC050 A2988=,- RA SH
20180117_070000.004,0,RJTC,,,,0,20180117070000,-1,-1,-1,-1,360,-1,5,-1,-1,-1,-1,,4000,0,2,3,FEW 15   BKN 20   BKN 30,1,7,1,4,1011,RJTC 170700Z 36005KT 4000 -SHRA BR FEW015 BKN020 BKN030 07/04     Q1011 RMK 2CU015 5CU020 7CU030 A2986=,- RA SH; BR
20180117_080000.003,0,RJTC,,,,0,20180117080000,-1,-1,-1,-1,360,-1,6,-1,-1,330,30,,2500,0,2,3,SCT 8   BKN 15   BKN 20,1,7,1,5,1010,RJTC 170800Z 36006KT 330V030 2500 SHRA BR SCT008 BKN015 BKN020     07/05 Q1010 RMK 3ST008 5CU015 7CU020 A2984=,RA SH; BR
20180117_090000.004,0,RJTC,,,,0,20180117090000,-1,-1,-1,-1,-1,-1,-1,-1,-1,-1,-1,,-1,0,0,0,,0,-1,0,-1,-1,RJTC 170900Z NIL=,
20180117_100000.003,0,RJTC,,,,0,20180117100000,-1,-1,-1,-1,-1,-1,-1,-1,-1,-1,-1,,-1,0,0,0,,0,-1,0,-1,-1,RJTC 171000Z NIL=,
20180117_110000.004,0,RJTC,,,,0,20180117110000,-1,-1,-1,-1,-1,-1,-1,-1,-1,-1,-1,,-1,0,0,0,,0,-1,0,-1,-1,RJTC 171100Z NIL=,
20180117_120000.004,0,RJTC,,,,0,20180117120000,-1,-1,-1,-1,-1,-1,-1,-1,-1,-1,-1,,-1,0,0,0,,0,-1,0,-1,-1,RJTC 171200Z NIL=,
20180117_130000.003,0,RJTC,,,,0,20180117130000,-1,-1,-1,-1,-1,-1,-1,-1,-1,-1,-1,,-1,0,0,0,,0,-1,0,-1,-1,RJTC 171300Z NIL=,
20180117_140000.003,0,RJTC,,,,0,20180117140000,-1,-1,-1,-1,-1,-1,-1,-1,-1,-1,-1,,-1,0,0,0,,0,-1,0,-1,-1,RJTC 171400Z NIL=,
20180117_150000.003,0,RJTC,,,,0,20180117150000,-1,-1,-1,-1,-1,-1,-1,-1,-1,-1,-1,,-1,0,0,0,,0,-1,0,-1,-1,RJTC 171500Z NIL=,
20180117_160000.003,0,RJTC,,,,0,20180117160000,-1,-1,-1,-1,-1,-1,-1,-1,-1,-1,-1,,-1,0,0,0,,0,-1,0,-1,-1,RJTC 171600Z NIL=,
20180117_170000.003,0,RJTC,,,,0,20180117170000,-1,-1,-1,-1,-1,-1,-1,-1,-1,-1,-1,,-1,0,0,0,,0,-1,0,-1,-1,RJTC 171700Z NIL=,
20180117_180000.003,0,RJTC,,,,0,20180117180000,-1,-1,-1,-1,-1,-1,-1,-1,-1,-1,-1,,-1,0,0,0,,0,-1,0,-1,-1,RJTC 171800Z NIL=,
20180117_190000.004,0,RJTC,,,,0,20180117190000,-1,-1,-1,-1,-1,-1,-1,-1,-1,-1,-1,,-1,0,0,0,,0,-1,0,-1,-1,RJTC 171900Z NIL=,
20180117_200000.003,0,RJTC,,,,0,20180117200000,-1,-1,-1,-1,10,-1,3,-1,-1,270,50,,100,1,1,1,BKN 3,1,5,1,4,1010,RJTC 172000Z 01003KT 270V050 0100 R01///// FG BKN003 05/04     Q1010 RMK 6ST003 A2985=,FG
20180117_210000.003,0,RJTC,,,,0,20180117210000,-1,-1,-1,-1,999,-1,1,-1,-1,-1,-1,,100,1,1,2,SCT 1   BKN 6,1,5,1,4,1011,RJTC 172100Z VRB01KT 0100 R01///// FG SCT001 BKN006 05/04     Q1011 RMK 3ST001 5ST006 A2986=,FG
20180117_220000.004,0,RJTC,,,,0,20180117220000,-1,-1,-1,-1,200,-1,4,-1,-1,180,240,,100,1,1,2,SCT 1   BKN 6,1,5,1,4,1012,RJTC 172200Z 20004KT 180V240 0100 R01///// FG SCT001 BKN006     05/04 Q1012 RMK 3ST001 5ST006 A2988=,FG
20180117_230000.003,0,RJTC,,,,0,20180117230000,-1,-1,-1,-1,190,-1,6,-1,-1,160,230,,100,1,1,2,SCT 1   BKN 6,1,5,1,4,1012,RJTC 172300Z 19006KT 160V230 0100 R01///// FG SCT001 BKN006     05/04 Q1012 RMK 3ST001 5ST006 A2991=,FG
20180118_000000.003,0,RJTC,,,,0,20180118000000,-1,-1,-1,-1,999,-1,1,-1,-1,-1,-1,,200,1,1,2,SCT 2   BKN 6,1,6,1,5,1013,RJTC 180000Z VRB01KT 0200 R01///// FG SCT002 BKN006 06/05     Q1013 RMK 3ST002 5ST006 A2993=,FG
20180118_010000.003,0,RJTC,,,,0,20180118010000,-1,-1,-1,-1,999,-1,2,-1,-1,-1,-1,,6000,0,0,2,SCT 6   BKN 10,1,8,1,7,1014,RJTC 180100Z VRB02KT 6000 SCT006 BKN010 08/07 Q1014 RMK 3ST006     5ST010 A2994=,
20180118_020000.003,0,RJTC,,,,0,20180118020000,-1,-1,-1,-1,200,-1,4,-1,-1,140,270,,9999,0,0,3,SCT 12   BKN 30   BKN 230,1,10,1,7,1013,RJTC 180200Z 20004KT 140V270 9999 SCT012 BKN030 BKN230 10/07     Q1013 RMK 3SC012 5CU030 5CI230 A2993=,
20180118_030000.004,0,RJTC,,,,0,20180118030000,-1,-1,-1,-1,190,-1,7,-1,-1,-1,-1,,9999,0,0,3,FEW 15   BKN 30   BKN 230,1,11,1,6,1012,RJTC 180300Z 19007KT 9999 FEW015 BKN030 BKN230 11/06 Q1012 RMK     1SC015 5CU030 5CI230 A2990=,
20180118_040000.003,0,RJTC,,,,0,20180118040000,-1,-1,-1,-1,170,-1,6,-1,-1,130,210,,9999,0,0,3,FEW 20   BKN 25   BKN 230,1,11,1,6,1012,RJTC 180400Z 17006KT 130V210 9999 FEW020 BKN025 BKN230 11/06     Q1012 RMK 1CU020 5CU025 5CI230 A2989=,
20180118_050000.003,0,RJTC,,,,0,20180118050000,-1,-1,-1,-1,999,-1,2,-1,-1,-1,-1,,9999,0,0,3,FEW 20   BKN 25   BKN 230,1,12,1,6,1012,RJTC 180500Z VRB02KT 9999 FEW020 BKN025 BKN230 12/06 Q1012 RMK     2CU020 5CU025 6CI230 A2989=,
20180118_060000.003,0,RJTC,,,,0,20180118060000,-1,-1,-1,-1,999,-1,2,-1,-1,-1,-1,,9999,0,0,3,FEW 20   BKN 25   BKN 230,1,11,1,7,1013,RJTC 180600Z VRB02KT 9999 FEW020 BKN025 BKN230 11/07 Q1013 RMK     2CU020 5CU025 6CI230 A2992=,
20180118_070000.003,0,RJTC,,,,0,20180118070000,-1,-1,-1,-1,180,-1,7,-1,-1,150,220,,9999,0,0,3,FEW 20   BKN 25   BKN 230,1,11,1,5,1012,RJTC 180700Z 18007KT 150V220 9999 FEW020 BKN025 BKN230 11/05     Q1012 RMK 2CU020 5CU025 6CI230 A2991=,
20180118_080000.003,0,RJTC,,,,0,20180118080000,-1,-1,-1,-1,0,-1,0,-1,-1,-1,-1,,9999,0,0,3,FEW 20   BKN 25   BKN 230,1,10,1,6,1013,RJTC 180800Z 00000KT 9999 FEW020 BKN025 BKN230 10/06 Q1013 RMK     1CU020 5CU025 6CI230 A2993=,
20180118_090000.003,0,RJTC,,,,0,20180118090000,-1,-1,-1,-1,999,-1,2,-1,-1,-1,-1,,9999,0,0,2,FEW 25   BKN 230,1,8,1,5,1014,RJTC 180900Z VRB02KT 9999 FEW025 BKN230 08/05 Q1014 RMK 2CU025     6CI230 A2994=,
20180118_100000.003,0,RJTC,,,,0,20180118100000,-1,-1,-1,-1,-1,-1,-1,-1,-1,-1,-1,,-1,0,0,0,,0,-1,0,-1,-1,RJTC 181000Z NIL=,
20180118_110000.003,0,RJTC,,,,0,20180118110000,-1,-1,-1,-1,-1,-1,-1,-1,-1,-1,-1,,-1,0,0,0,,0,-1,0,-1,-1,RJTC 181100Z NIL=,
20180118_120000.003,0,RJTC,,,,0,20180118120000,-1,-1,-1,-1,-1,-1,-1,-1,-1,-1,-1,,-1,0,0,0,,0,-1,0,-1,-1,RJTC 181200Z NIL=,
20180118_130000.003,0,RJTC,,,,0,20180118130000,-1,-1,-1,-1,-1,-1,-1,-1,-1,-1,-1,,-1,0,0,0,,0,-1,0,-1,-1,RJTC 181300Z NIL=,
20180118_140000.003,0,RJTC,,,,0,20180118140000,-1,-1,-1,-1,-1,-1,-1,-1,-1,-1,-1,,-1,0,0,0,,0,-1,0,-1,-1,RJTC 181400Z NIL=,
20180118_150000.003,0,RJTC,,,,0,20180118150000,-1,-1,-1,-1,-1,-1,-1,-1,-1,-1,-1,,-1,0,0,0,,0,-1,0,-1,-1,RJTC 181500Z NIL=,
20180118_160000.003,0,RJTC,,,,0,20180118160000,-1,-1,-1,-1,-1,-1,-1,-1,-1,-1,-1,,-1,0,0,0,,0,-1,0,-1,-1,RJTC 181600Z NIL=,
20180118_170000.003,0,RJTC,,,,0,20180118170000,-1,-1,-1,-1,-1,-1,-1,-1,-1,-1,-1,,-1,0,0,0,,0,-1,0,-1,-1,RJTC 181700Z NIL=,
20180118_180000.003,0,RJTC,,,,0,20180118180000,-1,-1,-1,-1,-1,-1,-1,-1,-1,-1,-1,,-1,0,0,0,,0,-1,0,-1,-1,RJTC 181800Z NIL=,
20180118_190000.003,0,RJTC,,,,0,20180118190000,-1,-1,-1,-1,-1,-1,-1,-1,-1,-1,-1,,-1,0,0,0,,0,-1,0,-1,-1,RJTC 181900Z NIL=,
20180118_200000.003,0,RJTC,,,,0,20180118200000,-1,-1,-1,-1,-1,-1,-1,-1,-1,-1,-1,,-1,0,0,0,,0,-1,0,-1,-1,RJTC 182000Z NIL=,
20180118_210000.004,0,RJTC,,,,0,20180118210000,-1,-1,-1,-1,20,-1,9,-1,-1,-1,-1,,9999,0,0,2,FEW 30   SCT 230,1,6,-1,3,1017,RJTC 182100Z 02009KT 9999 FEW030 SCT230 06/M03 Q1017 RMK     1CU030 3CI230 A3005=,
20180118_220000.003,0,RJTC,,,,0,20180118220000,-1,-1,-1,-1,20,-1,8,-1,-1,-1,-1,,9999,0,0,1,FEW 30,1,6,-1,4,1018,RJTC 182200Z 02008KT 9999 FEW030 06/M04 Q1018 RMK 1CU030     A3007=,
20180118_230000.004,0,RJTC,,,,0,20180118230000,-1,-1,-1,-1,10,-1,6,-1,-1,340,50,,9999,0,0,1,FEW 30,1,6,-1,3,1019,RJTC 182300Z 01006KT 340V050 9999 FEW030 06/M03 Q1019 RMK     1CU030 A3009=,
20180119_000000.003,0,RJTC,,,,0,20180119000000,-1,-1,-1,-1,20,-1,7,-1,-1,-1,-1,,9999,0,0,2,FEW 30   SCT 60,1,7,-1,3,1019,RJTC 190000Z 02007KT 9999 FEW030 SCT060 07/M03 Q1019 RMK     1CU030 3SC060 A3011=,
20180119_010000.004,0,RJTC,,,,0,20180119010000,-1,-1,-1,-1,20,-1,7,-1,-1,-1,-1,,9999,0,0,2,FEW 30   SCT 60,1,8,-1,4,1019,RJTC 190100Z 02007KT 9999 FEW030 SCT060 08/M04 Q1019 RMK     1CU030 3SC060 A3011=,
20180119_020000.003,0,RJTC,,,,0,20180119020000,-1,-1,-1,-1,30,-1,5,-1,-1,350,100,,9999,0,0,3,FEW 30   SCT 60   BKN 230,1,9,-1,4,1019,RJTC 190200Z 03005KT 350V100 9999 FEW030 SCT060 BKN230 09/M04     Q1019 RMK 1CU030 3SC060 5CI230 A3009=,
20180119_030000.003,0,RJTC,,,,0,20180119030000,-1,-1,-1,-1,90,-1,5,-1,-1,10,120,,9999,0,0,3,FEW 30   SCT 60   BKN 230,1,11,-1,4,1018,RJTC 190300Z 09005KT 010V120 9999 FEW030 SCT060 BKN230 11/M04     Q1018 RMK 1CU030 4SC060 5CI230 A3007=,
20180119_040000.003,0,RJTC,,,,0,20180119040000,-1,-1,-1,-1,90,-1,5,-1,-1,20,120,,9999,0,0,2,FEW 30   BKN 60,1,10,-1,5,1017,RJTC 190400Z 09005KT 020V120 9999 FEW030 BKN060 10/M05 Q1017     RMK 1CU030 6SC060 A3005=,
20180119_050000.004,0,RJTC,,,,0,20180119050000,-1,-1,-1,-1,999,-1,2,-1,-1,-1,-1,,9999,0,0,2,FEW 30   BKN 50,1,11,-1,4,1017,RJTC 190500Z VRB02KT 9999 FEW030 BKN050 11/M04 Q1017 RMK     1CU030 6SC050 A3005=,
20180119_060000.003,0,RJTC,,,,0,20180119060000,-1,-1,-1,-1,90,-1,4,-1,-1,40,140,,9999,0,0,2,FEW 30   BKN 50,1,11,-1,6,1017,RJTC 190600Z 09004KT 040V140 9999 FEW030 BKN050 11/M06 Q1017     RMK 1CU030 7SC050 A3004=,
20180119_070000.003,0,RJTC,,,,0,20180119070000,-1,-1,-1,-1,90,-1,4,-1,-1,-1,-1,,9999,0,0,2,FEW 30   BKN 60,1,10,-1,6,1017,RJTC 190700Z 09004KT 9999 FEW030 BKN060 10/M06 Q1017 RMK     1CU030 7SC060 A3005=,
20180119_080000.003,0,RJTC,,,,0,20180119080000,-1,-1,-1,-1,999,-1,1,-1,-1,-1,-1,,9999,0,0,2,FEW 30   BKN 60,1,9,-1,3,1017,RJTC 190800Z VRB01KT 9999 FEW030 BKN060 09/M03 Q1017 RMK     1CU030 7SC060 A3005=,
20180119_090000.004,0,RJTC,,,,0,20180119090000,-1,-1,-1,-1,-1,-1,-1,-1,-1,-1,-1,,-1,0,0,0,,0,-1,0,-1,-1,RJTC 190900Z NIL=,
20180119_100000.003,0,RJTC,,,,0,20180119100000,-1,-1,-1,-1,-1,-1,-1,-1,-1,-1,-1,,-1,0,0,0,,0,-1,0,-1,-1,RJTC 191000Z NIL=,
20180119_110000.003,0,RJTC,,,,0,20180119110000,-1,-1,-1,-1,-1,-1,-1,-1,-1,-1,-1,,-1,0,0,0,,0,-1,0,-1,-1,RJTC 191100Z NIL=,
20180119_120000.004,0,RJTC,,,,0,20180119120000,-1,-1,-1,-1,-1,-1,-1,-1,-1,-1,-1,,-1,0,0,0,,0,-1,0,-1,-1,RJTC 191200Z NIL=,
20180119_130000.003,0,RJTC,,,,0,20180119130000,-1,-1,-1,-1,-1,-1,-1,-1,-1,-1,-1,,-1,0,0,0,,0,-1,0,-1,-1,RJTC 191300Z NIL=,
20180119_140000.003,0,RJTC,,,,0,20180119140000,-1,-1,-1,-1,-1,-1,-1,-1,-1,-1,-1,,-1,0,0,0,,0,-1,0,-1,-1,RJTC 191400Z NIL=,
20180119_150000.003,0,RJTC,,,,0,20180119150000,-1,-1,-1,-1,-1,-1,-1,-1,-1,-1,-1,,-1,0,0,0,,0,-1,0,-1,-1,RJTC 191500Z NIL=,
20180119_160000.003,0,RJTC,,,,0,20180119160000,-1,-1,-1,-1,-1,-1,-1,-1,-1,-1,-1,,-1,0,0,0,,0,-1,0,-1,-1,RJTC 191600Z NIL=,
20180119_170000.003,0,RJTC,,,,0,20180119170000,-1,-1,-1,-1,-1,-1,-1,-1,-1,-1,-1,,-1,0,0,0,,0,-1,0,-1,-1,RJTC 191700Z NIL=,
20180119_180000.004,0,RJTC,,,,0,20180119180000,-1,-1,-1,-1,-1,-1,-1,-1,-1,-1,-1,,-1,0,0,0,,0,-1,0,-1,-1,RJTC 191800Z NIL=,
20180119_190000.004,0,RJTC,,,,0,20180119190000,-1,-1,-1,-1,-1,-1,-1,-1,-1,-1,-1,,-1,0,0,0,,0,-1,0,-1,-1,RJTC 191900Z NIL=,
20180119_200000.003,0,RJTC,,,,0,20180119200000,-1,-1,-1,-1,-1,-1,-1,-1,-1,-1,-1,,-1,0,0,0,,0,-1,0,-1,-1,RJTC 192000Z NIL=,
20180119_210000.003,0,RJTC,,,,0,20180119210000,-1,-1,-1,-1,-1,-1,-1,-1,-1,-1,-1,,-1,0,0,0,,0,-1,0,-1,-1,RJTC 192100Z NIL=,
20180119_220000.003,0,RJTC,,,,0,20180119220000,-1,-1,-1,-1,360,-1,3,-1,-1,-1,-1,,9999,0,0,3,FEW 20   BKN 25   BKN 50,1,4,-1,4,1019,RJTC 192200Z 36003KT 9999 FEW020 BKN025 BKN050 04/M04 Q1019     RMK 1SC020 6SC025 6SC050 A3009=,
20180119_230000.003,0,RJTC,,,,0,20180119230000,-1,-1,-1,-1,340,-1,4,-1,-1,300,10,,9999,0,0,3,FEW 25   BKN 30   BKN 50,1,5,-1,5,1019,RJTC 192300Z 34004KT 300V010 9999 FEW025 BKN030 BKN050 05/M05     Q1019 RMK 1SC025 6SC030 6SC050 A3010=,
20180120_000000.003,0,RJTC,,,,0,20180120000000,-1,-1,-1,-1,10,-1,4,-1,-1,330,30,,9999,0,0,3,FEW 25   BKN 27   BKN 50,1,5,-1,5,1019,RJTC 200000Z 01004KT 330V030 9999 FEW025 BKN027 BKN050 05/M05     Q1019 RMK 1SC025 6SC027 6SC050 A3010=,
20180120_010000.003,0,RJTC,,,,0,20180120010000,-1,-1,-1,-1,360,-1,4,-1,-1,330,30,,9999,0,0,3,FEW 20   BKN 24   BKN 50,1,6,-1,5,1019,RJTC 200100Z 36004KT 330V030 9999 FEW020 BKN024 BKN050 06/M05     Q1019 RMK 1SC020 6SC024 6SC050 A3010=,
20180120_020000.004,0,RJTC,,,,0,20180120020000,-1,-1,-1,-1,360,-1,4,-1,-1,320,20,,9999,0,0,3,FEW 20   BKN 23   BKN 50,1,6,-1,4,1018,RJTC 200200Z 36004KT 320V020 9999 FEW020 BKN023 BKN050 06/M04     Q1018 RMK 1SC020 6SC023 6SC050 A3007=,
20180120_030000.003,0,RJTC,,,,0,20180120030000,-1,-1,-1,-1,40,-1,4,-1,-1,350,80,,9999,0,0,3,SCT 23   BKN 32   BKN 230,1,7,-1,3,1017,RJTC 200300Z 04004KT 350V080 9999 SCT023 BKN032 BKN230 07/M03     Q1017 RMK 3SC023 5CU032 5CI230 A3003=,
20180120_040000.003,0,RJTC,,,,0,20180120040000,-1,-1,-1,-1,999,-1,1,-1,-1,-1,-1,,9999,0,0,2,FEW 32   BKN 230,1,8,-1,2,1016,RJTC 200400Z VRB01KT 9999 FEW032 BKN230 08/M02 Q1016 RMK     2CU032 5CI230 A3000=,
20180120_050000.003,0,RJTC,,,,0,20180120050000,-1,-1,-1,-1,999,-1,3,-1,-1,-1,-1,,9999,0,0,2,FEW 35   SCT 230,1,10,-1,1,1015,RJTC 200500Z VRB03KT 9999 FEW035 SCT230 10/M01 Q1015 RMK     1CU035 3CI230 A2998=,
20180120_060000.003,0,RJTC,,,,0,20180120060000,-1,-1,-1,-1,999,-1,2,-1,-1,-1,-1,,9999,0,0,1,FEW 30,1,10,-1,1,1015,RJTC 200600Z VRB02KT 9999 FEW030 10/M01 Q1015 RMK 1CU030     A3000=,
20180120_070000.003,0,RJTC,,,,0,20180120070000,-1,-1,-1,-1,999,-1,1,-1,-1,-1,-1,,9999,0,0,1,FEW 30,1,9,-1,1,1015,RJTC 200700Z VRB01KT 9999 FEW030 09/M01 Q1015 RMK 1CU030     A3000=,
20180120_080000.003,0,RJTC,,,,0,20180120080000,-1,-1,-1,-1,999,-1,1,-1,-1,-1,-1,,9999,0,0,2,FEW 30   BKN 230,1,6,1,0,1016,RJTC 200800Z VRB01KT 9999 FEW030 BKN230 06/00 Q1016 RMK 1CU030     5CI230 A3000=,
20180120_090000.003,0,RJTC,,,,0,20180120090000,-1,-1,-1,-1,-1,-1,-1,-1,-1,-1,-1,,-1,0,0,0,,0,-1,0,-1,-1,RJTC 200900Z NIL=,
20180120_100000.003,0,RJTC,,,,0,20180120100000,-1,-1,-1,-1,-1,-1,-1,-1,-1,-1,-1,,-1,0,0,0,,0,-1,0,-1,-1,RJTC 201000Z NIL=,
20180120_110000.003,0,RJTC,,,,0,20180120110000,-1,-1,-1,-1,-1,-1,-1,-1,-1,-1,-1,,-1,0,0,0,,0,-1,0,-1,-1,RJTC 201100Z NIL=,
20180120_120000.003,0,RJTC,,,,0,20180120120000,-1,-1,-1,-1,-1,-1,-1,-1,-1,-1,-1,,-1,0,0,0,,0,-1,0,-1,-1,RJTC 201200Z NIL=,
20180120_130000.003,0,RJTC,,,,0,20180120130000,-1,-1,-1,-1,-1,-1,-1,-1,-1,-1,-1,,-1,0,0,0,,0,-1,0,-1,-1,RJTC 201300Z NIL=,
20180120_140000.003,0,RJTC,,,,0,20180120140000,-1,-1,-1,-1,-1,-1,-1,-1,-1,-1,-1,,-1,0,0,0,,0,-1,0,-1,-1,RJTC 201400Z NIL=,
20180120_150000.003,0,RJTC,,,,0,20180120150000,-1,-1,-1,-1,-1,-1,-1,-1,-1,-1,-1,,-1,0,0,0,,0,-1,0,-1,-1,RJTC 201500Z NIL=,
20180120_160000.003,0,RJTC,,,,0,20180120160000,-1,-1,-1,-1,-1,-1,-1,-1,-1,-1,-1,,-1,0,0,0,,0,-1,0,-1,-1,RJTC 201600Z NIL=,
20180120_170000.003,0,RJTC,,,,0,20180120170000,-1,-1,-1,-1,-1,-1,-1,-1,-1,-1,-1,,-1,0,0,0,,0,-1,0,-1,-1,RJTC 201700Z NIL=,
20180120_180000.003,0,RJTC,,,,0,20180120180000,-1,-1,-1,-1,-1,-1,-1,-1,-1,-1,-1,,-1,0,0,0,,0,-1,0,-1,-1,RJTC 201800Z NIL=,
20180120_190000.004,0,RJTC,,,,0,20180120190000,-1,-1,-1,-1,-1,-1,-1,-1,-1,-1,-1,,-1,0,0,0,,0,-1,0,-1,-1,RJTC 201900Z NIL=,
20180120_200000.003,0,RJTC,,,,0,20180120200000,-1,-1,-1,-1,-1,-1,-1,-1,-1,-1,-1,,-1,0,0,0,,0,-1,0,-1,-1,RJTC 202000Z NIL=,
20180120_210000.003,0,RJTC,,,,0,20180120210000,-1,-1,-1,-1,-1,-1,-1,-1,-1,-1,-1,,-1,0,0,0,,0,-1,0,-1,-1,RJTC 202100Z NIL=,
20180120_220000.003,0,RJTC,,,,0,20180120220000,-1,-1,-1,-1,999,-1,1,-1,-1,-1,-1,,9999,0,0,1,FEW 30,-1,1,-1,3,1016,RJTC 202200Z VRB01KT 9999 FEW030 M01/M03 Q1016 RMK 1CU030     A3002=,
20180120_230000.003,0,RJTC,,,,0,20180120230000,-1,-1,-1,-1,999,-1,1,-1,-1,-1,-1,,9999,0,0,2,FEW 30   BKN 60,1,1,-1,1,1017,RJTC 202300Z VRB01KT 9999 FEW030 BKN060 01/M01 Q1017 RMK     1CU030 6SC060 A3003=,
20180121_000000.003,0,RJTC,,,,0,20180121000000,-1,-1,-1,-1,999,-1,2,-1,-1,-1,-1,,9999,0,0,2,FEW 30   BKN 60,1,4,-1,1,1017,RJTC 210000Z VRB02KT 9999 FEW030 BKN060 04/M01 Q1017 RMK     1CU030 5SC060 A3004=,
20180121_010000.003,0,RJTC,,,,0,20180121010000,-1,-1,-1,-1,999,-1,2,-1,-1,-1,-1,,9999,0,0,2,FEW 30   SCT 60,1,6,-1,2,1017,RJTC 210100Z VRB02KT 9999 FEW030 SCT060 06/M02 Q1017 RMK     1CU030 3SC060 A3004=,
20180121_020000.003,0,RJTC,,,,0,20180121020000,-1,-1,-1,-1,40,-1,4,-1,-1,-1,-1,,9999,0,0,2,FEW 30   SCT 60,1,8,-1,4,1016,RJTC 210200Z 04004KT 9999 FEW030 SCT060 08/M04 Q1016 RMK     1CU030 4SC060 A3001=,
20180121_030000.003,0,RJTC,,,,0,20180121030000,-1,-1,-1,-1,999,-1,3,-1,-1,-1,-1,,9999,0,0,1,FEW 30,1,10,-1,4,1015,RJTC 210300Z VRB03KT 9999 FEW030 10/M04 Q1015 RMK 1CU030     A2998=,
20180121_040000.004,0,RJTC,,,,0,20180121040000,-1,-1,-1,-1,999,-1,3,-1,-1,-1,-1,,9999,0,0,1,FEW 30,1,11,-1,6,1014,RJTC 210400Z VRB03KT 9999 FEW030 11/M06 Q1014 RMK 1CU030     A2994=,
20180121_050000.003,0,RJTC,,,,0,20180121050000,-1,-1,-1,-1,130,-1,4,-1,-1,-1,-1,,9999,0,0,1,FEW 30,1,12,-1,6,1014,RJTC 210500Z 13004KT 9999 FEW030 12/M06 Q1014 RMK 1CU030     A2994=,
20180121_060000.003,0,RJTC,,,,0,20180121060000,-1,-1,-1,-1,160,-1,3,-1,-1,100,200,,9999,0,0,1,FEW 30,1,12,-1,6,1014,RJTC 210600Z 16003KT 100V200 9999 FEW030 12/M06 Q1014 RMK     1CU030 A2994=,
20180121_070000.003,0,RJTC,,,,0,20180121070000,-1,-1,-1,-1,130,-1,6,-1,-1,-1,-1,,9999,0,0,1,FEW 30,1,11,-1,6,1013,RJTC 210700Z 13006KT 9999 FEW030 11/M06 Q1013 RMK 1CU030     A2993=,
20180121_080000.003,0,RJTC,,,,0,20180121080000,-1,-1,-1,-1,170,-1,6,-1,-1,120,190,,9999,0,0,1,FEW 30,1,10,-1,3,1014,RJTC 210800Z 17006KT 120V190 9999 FEW030 10/M03 Q1014 RMK     1CU030 A2995=,
20180121_090000.003,0,RJTC,,,,0,20180121090000,-1,-1,-1,-1,-1,-1,-1,-1,-1,-1,-1,,-1,0,0,0,,0,-1,0,-1,-1,RJTC 210900Z NIL=,
20180121_100000.003,0,RJTC,,,,0,20180121100000,-1,-1,-1,-1,-1,-1,-1,-1,-1,-1,-1,,-1,0,0,0,,0,-1,0,-1,-1,RJTC 211000Z NIL=,
20180121_110000.003,0,RJTC,,,,0,20180121110000,-1,-1,-1,-1,-1,-1,-1,-1,-1,-1,-1,,-1,0,0,0,,0,-1,0,-1,-1,RJTC 211100Z NIL=,
20180121_120000.003,0,RJTC,,,,0,20180121120000,-1,-1,-1,-1,-1,-1,-1,-1,-1,-1,-1,,-1,0,0,0,,0,-1,0,-1,-1,RJTC 211200Z NIL=,
20180121_130000.004,0,RJTC,,,,0,20180121130000,-1,-1,-1,-1,-1,-1,-1,-1,-1,-1,-1,,-1,0,0,0,,0,-1,0,-1,-1,RJTC 211300Z NIL=,
20180121_140000.003,0,RJTC,,,,0,20180121140000,-1,-1,-1,-1,-1,-1,-1,-1,-1,-1,-1,,-1,0,0,0,,0,-1,0,-1,-1,RJTC 211400Z NIL=,
20180121_150000.003,0,RJTC,,,,0,20180121150000,-1,-1,-1,-1,-1,-1,-1,-1,-1,-1,-1,,-1,0,0,0,,0,-1,0,-1,-1,RJTC 211500Z NIL=,
20180121_160000.003,0,RJTC,,,,0,20180121160000,-1,-1,-1,-1,-1,-1,-1,-1,-1,-1,-1,,-1,0,0,0,,0,-1,0,-1,-1,RJTC 211600Z NIL=,
20180121_170000.003,0,RJTC,,,,0,20180121170000,-1,-1,-1,-1,-1,-1,-1,-1,-1,-1,-1,,-1,0,0,0,,0,-1,0,-1,-1,RJTC 211700Z NIL=,
20180121_180000.003,0,RJTC,,,,0,20180121180000,-1,-1,-1,-1,-1,-1,-1,-1,-1,-1,-1,,-1,0,0,0,,0,-1,0,-1,-1,RJTC 211800Z NIL=,
20180121_190000.003,0,RJTC,,,,0,20180121190000,-1,-1,-1,-1,-1,-1,-1,-1,-1,-1,-1,,-1,0,0,0,,0,-1,0,-1,-1,RJTC 211900Z NIL=,
20180121_200000.003,0,RJTC,,,,0,20180121200000,-1,-1,-1,-1,-1,-1,-1,-1,-1,-1,-1,,-1,0,0,0,,0,-1,0,-1,-1,RJTC 212000Z NIL=,
20180121_210000.003,0,RJTC,,,,0,20180121210000,-1,-1,-1,-1,310,-1,3,-1,-1,-1,-1,,9999,0,0,3,FEW 30   BKN 50   BKN 200,1,0,-1,6,1020,RJTC 212100Z 31003KT 9999 FEW030 BKN050 BKN200 00/M06 Q1020     RMK 1CU030 5SC050 6CI200 A3013=,
20180121_220000.003,0,RJTC,,,,0,20180121220000,-1,-1,-1,-1,310,-1,3,-1,-1,270,350,,9999,0,0,3,FEW 30   BKN 45   BKN 200,1,2,-1,5,1020,RJTC 212200Z 31003KT 270V350 9999 FEW030 BKN045 BKN200 02/M05     Q1020 RMK 1CU030 6SC045 7CI200 A3014=,
20180121_230000.003,0,RJTC,,,,0,20180121230000,-1,-1,-1,-1,360,-1,4,-1,-1,-1,-1,,9999,0,0,3,FEW 20   BKN 30   BKN 45,1,3,-1,7,1020,RJTC 212300Z 36004KT 9999 FEW020 BKN030 BKN045 03/M07 Q1020     RMK 1CU020 5CU030 6SC045 A3014=,
20180122_000000.003,0,RJTC,,,,0,20180122000000,-1,-1,-1,-1,20,-1,4,-1,-1,350,50,,9999,0,1,3,FEW 20   BKN 30   BKN 45,1,3,-1,7,1021,RJTC 220000Z 02004KT 350V050 9999 -SN FEW020 BKN030 BKN045     03/M07 Q1021 RMK 2CU020 5CU030 7SC045 A3017=,- SN
20180122_010000.003,0,RJTC,,,,0,20180122010000,-1,-1,-1,-1,350,-1,7,-1,-1,-1,-1,,5000,0,2,3,FEW 20   BKN 25   BKN 40,1,1,-1,4,1021,RJTC 220100Z 35007KT 5000 -SN BR FEW020 BKN025 BKN040 01/M04     Q1021 RMK 2CU020 6CU025 7SC040 A3017=,- SN; BR
20180122_020000.003,0,RJTC,,,,0,20180122020000,-1,-1,-1,-1,340,-1,5,-1,-1,300,360,,1800,0,2,3,FEW 15   BKN 20   BKN 25,1,0,-1,2,1020,RJTC 220200Z 34005KT 300V360 1800 -SN BR FEW015 BKN020 BKN025     00/M02 Q1020 RMK 2CU015 5CU020 7CU025 A3014=,- SN; BR
20180122_030000.003,0,RJTC,,,,0,20180122030000,-1,-1,-1,-1,10,-1,3,-1,-1,-1,-1,,1800,0,2,3,FEW 5   SCT 15   BKN 20,1,1,-1,1,1018,RJTC 220300Z 01003KT 1800 -SN BR FEW005 SCT015 BKN020 01/M01     Q1018 RMK 2ST005 4CU015 7CU020 A3008=,- SN; BR
20180122_040000.003,0,RJTC,,,,0,20180122040000,-1,-1,-1,-1,350,-1,6,-1,-1,-1,-1,,500,1,1,3,SCT 5   BKN 10   BKN 15,1,0,-1,2,1017,RJTC 220400Z 35006KT 0500 R01/1100V1300N SN SCT005 BKN010     BKN015 00/M02 Q1017 RMK 3ST005 5ST010 7CU015 A3005=,SN
20180122_050000.003,0,RJTC,,,,0,20180122050000,-1,-1,-1,-1,360,-1,7,-1,-1,330,30,,1200,1,2,3,SCT 4   BKN 8   BKN 15,1,0,-1,2,1016,RJTC 220500Z 36007KT 330V030 1200 R01/P1800N -SN BR SCT004     BKN008 BKN015 00/M02 Q1016 RMK 3ST004 5ST008 7CU015           A3001=,- SN; BR
20180122_060000.004,0,RJTC,,,,0,20180122060000,-1,-1,-1,-1,350,-1,7,-1,-1,-1,-1,,500,1,1,3,SCT 3   BKN 6   BKN 12,-1,0,-1,2,1016,RJTC 220600Z 35007KT 0500 R01/1800N SN SCT003 BKN006 BKN012     M00/M02 Q1016 RMK 3ST003 6ST006 7CU012 A3001=,SN
20180122_070000.003,0,RJTC,,,,0,20180122070000,-1,-1,-1,-1,350,-1,7,-1,-1,320,20,,300,1,1,2,SCT 3   BKN 6,-1,1,-1,2,1015,RJTC 220700Z 35007KT 320V020 0300 R01/1500V1800N SN SCT003     BKN006 M01/M02 Q1015 RMK 4ST003 7ST006 A2997=,SN
20180122_080000.004,0,RJTC,,,,0,20180122080000,-1,-1,-1,-1,360,-1,9,-1,-1,-1,-1,,300,1,2,2,SCT 3   BKN 6,-1,1,-1,2,1014,RJTC 220800Z 36009KT 0300 R01/1100V1400U SN FG SCT003 BKN006     M01/M02 Q1014 RMK 3ST003 7ST006 A2995=,SN; FG
20180122_090000.003,0,RJTC,,,,0,20180122090000,-1,-1,-1,-1,-1,-1,-1,-1,-1,-1,-1,,-1,0,0,0,,0,-1,0,-1,-1,RJTC 220900Z NIL=,
20180122_100000.003,0,RJTC,,,,0,20180122100000,-1,-1,-1,-1,-1,-1,-1,-1,-1,-1,-1,,-1,0,0,0,,0,-1,0,-1,-1,RJTC 221000Z NIL=,
20180122_110000.004,0,RJTC,,,,0,20180122110000,-1,-1,-1,-1,-1,-1,-1,-1,-1,-1,-1,,-1,0,0,0,,0,-1,0,-1,-1,RJTC 221100Z NIL=,
20180122_120000.003,0,RJTC,,,,0,20180122120000,-1,-1,-1,-1,-1,-1,-1,-1,-1,-1,-1,,-1,0,0,0,,0,-1,0,-1,-1,RJTC 221200Z NIL=,
20180122_130000.004,0,RJTC,,,,0,20180122130000,-1,-1,-1,-1,-1,-1,-1,-1,-1,-1,-1,,-1,0,0,0,,0,-1,0,-1,-1,RJTC 221300Z NIL=,
20180122_140000.004,0,RJTC,,,,0,20180122140000,-1,-1,-1,-1,-1,-1,-1,-1,-1,-1,-1,,-1,0,0,0,,0,-1,0,-1,-1,RJTC 221400Z NIL=,
20180122_150000.003,0,RJTC,,,,0,20180122150000,-1,-1,-1,-1,-1,-1,-1,-1,-1,-1,-1,,-1,0,0,0,,0,-1,0,-1,-1,RJTC 221500Z NIL=,
20180122_160000.003,0,RJTC,,,,0,20180122160000,-1,-1,-1,-1,-1,-1,-1,-1,-1,-1,-1,,-1,0,0,0,,0,-1,0,-1,-1,RJTC 221600Z NIL=,
20180122_170000.003,0,RJTC,,,,0,20180122170000,-1,-1,-1,-1,-1,-1,-1,-1,-1,-1,-1,,-1,0,0,0,,0,-1,0,-1,-1,RJTC 221700Z NIL=,
20180122_180000.003,0,RJTC,,,,0,20180122180000,-1,-1,-1,-1,-1,-1,-1,-1,-1,-1,-1,,-1,0,0,0,,0,-1,0,-1,-1,RJTC 221800Z NIL=,
20180122_190000.003,0,RJTC,,,,0,20180122190000,-1,-1,-1,-1,-1,-1,-1,-1,-1,-1,-1,,-1,0,0,0,,0,-1,0,-1,-1,RJTC 221900Z NIL=,
20180122_200000.003,0,RJTC,,,,0,20180122200000,-1,-1,-1,-1,-1,-1,-1,-1,-1,-1,-1,,-1,0,0,0,,0,-1,0,-1,-1,RJTC 222000Z NIL=,
20180122_210000.004,0,RJTC,,,,0,20180122210000,-1,-1,-1,-1,0,-1,0,-1,-1,-1,-1,,9000,1,1,2,FEW 20   SCT 40,-1,4,-1,5,1007,RJTC 222100Z 00000KT 9000 R01/0350V0750U MIFG FEW020 SCT040     M04/M05 Q1007 RMK 1CU020 3SC040 A2974=,MI FG
20180122_220000.003,0,RJTC,,,,0,20180122220000,-1,-1,-1,-1,0,-1,0,-1,-1,-1,-1,,9999,1,1,1,FEW 20,-1,4,-1,6,1007,RJTC 222200Z 00000KT 9999 R01/0300V0600N MIFG FEW020 M04/M06     Q1007 RMK 1CU020 A2974=,MI FG
20180122_230000.004,0,RJTC,,,,0,20180122230000,-1,-1,-1,-1,150,-1,2,-1,-1,-1,-1,,9999,1,0,1,FEW 20,-1,1,-1,2,1006,RJTC 222300Z 15002KT 9999 R01/P1800 FEW020 M01/M02 Q1006 RMK     1CU020 A2973=,
20180123_000000.003,0,RJTC,,,,0,20180123000000,-1,-1,-1,-1,190,-1,3,-1,-1,-1,-1,,9999,0,0,1,FEW 30,1,0,-1,1,1005,RJTC 230000Z 19003KT 9999 FEW030 00/M01 Q1005 RMK 1CU030     A2970=,
20180123_010000.003,0,RJTC,,,,0,20180123010000,-1,-1,-1,-1,210,-1,7,-1,-1,-1,-1,,9999,0,0,1,FEW 30,1,3,1,1,1005,RJTC 230100Z 21007KT 9999 FEW030 03/01 Q1005 RMK 1CU030 A2968=,
20180123_020000.003,0,RJTC,,,,0,20180123020000,-1,-1,-1,-1,230,-1,4,-1,-1,-1,-1,,9999,0,0,1,FEW 30,1,5,1,1,1003,RJTC 230200Z 23004KT 9999 FEW030 05/01 Q1003 RMK 1CU030 A2962=,
20180123_030000.004,0,RJTC,,,,0,20180123030000,-1,-1,-1,-1,40,-1,4,-1,-1,-1,-1,,9999,0,0,1,FEW 30,1,4,-1,1,1002,RJTC 230300Z 04004KT 9999 FEW030 04/M01 Q1002 RMK 1CU030     A2960=,
20180123_040000.004,0,RJTC,,,,0,20180123040000,-1,-1,-1,-1,999,-1,2,-1,-1,-1,-1,,9999,0,0,1,FEW 30,1,8,1,0,1001,RJTC 230400Z VRB02KT 9999 FEW030 08/00 Q1001 RMK 1CU030 A2957=,
20180123_050000.003,0,RJTC,,,,0,20180123050000,-1,-1,-1,-1,210,-1,11,-1,-1,-1,-1,,9999,0,0,1,SCT 30,1,10,-1,1,1001,RJTC 230500Z 21011KT 9999 SCT030 10/M01 Q1001 RMK 3CU030     A2957=,
20180123_060000.004,0,RJTC,,,,0,20180123060000,-1,-1,-1,-1,999,-1,5,-1,-1,-1,-1,,9999,0,0,1,SCT 30,1,9,-1,2,1002,RJTC 230600Z VRB05KT 9999 SCT030 09/M02 Q1002 RMK 4CU030     A2960=,
20180123_070000.003,0,RJTC,,,,0,20180123070000,-1,-1,-1,-1,999,-1,3,-1,-1,-1,-1,,9999,0,0,1,SCT 30,1,6,-1,0,1002,RJTC 230700Z VRB03KT 9999 SCT030 06/M00 Q1002 RMK 3CU030     A2961=,
20180123_080000.003,0,RJTC,,,,0,20180123080000,-1,-1,-1,-1,999,-1,2,-1,-1,-1,-1,,9999,0,0,1,SCT 30,1,4,1,0,1003,RJTC 230800Z VRB02KT 9999 SCT030 04/00 Q1003 RMK 3CU030 A2962=,
20180123_090000.003,0,RJTC,,,,0,20180123090000,-1,-1,-1,-1,999,-1,2,-1,-1,-1,-1,,9999,0,0,1,FEW 30,1,1,-1,1,1003,RJTC 230900Z VRB02KT 9999 FEW030 01/M01 Q1003 RMK 1CU030     A2963=,
20180123_100000.003,0,RJTC,,,,0,20180123100000,-1,-1,-1,-1,270,-1,4,-1,-1,210,340,,9999,0,0,1,FEW 30,1,1,-1,1,1004,RJTC 231000Z 27004KT 210V340 9999 FEW030 01/M01 Q1004 RMK     1CU030 A2966=,
20180123_110000.003,0,RJTC,,,,0,20180123110000,-1,-1,-1,-1,-1,-1,-1,-1,-1,-1,-1,,-1,0,0,0,,0,-1,0,-1,-1,RJTC 231100Z NIL=,
20180123_120000.003,0,RJTC,,,,0,20180123120000,-1,-1,-1,-1,-1,-1,-1,-1,-1,-1,-1,,-1,0,0,0,,0,-1,0,-1,-1,RJTC 231200Z NIL=,
20180123_130000.003,0,RJTC,,,,0,20180123130000,-1,-1,-1,-1,-1,-1,-1,-1,-1,-1,-1,,-1,0,0,0,,0,-1,0,-1,-1,RJTC 231300Z NIL=,
20180123_140000.003,0,RJTC,,,,0,20180123140000,-1,-1,-1,-1,-1,-1,-1,-1,-1,-1,-1,,-1,0,0,0,,0,-1,0,-1,-1,RJTC 231400Z NIL=,
20180123_150000.003,0,RJTC,,,,0,20180123150000,-1,-1,-1,-1,-1,-1,-1,-1,-1,-1,-1,,-1,0,0,0,,0,-1,0,-1,-1,RJTC 231500Z NIL=,
20180123_160000.003,0,RJTC,,,,0,20180123160000,-1,-1,-1,-1,-1,-1,-1,-1,-1,-1,-1,,-1,0,0,0,,0,-1,0,-1,-1,RJTC 231600Z NIL=,
20180123_170000.003,0,RJTC,,,,0,20180123170000,-1,-1,-1,-1,-1,-1,-1,-1,-1,-1,-1,,-1,0,0,0,,0,-1,0,-1,-1,RJTC 231700Z NIL=,
20180123_180000.003,0,RJTC,,,,0,20180123180000,-1,-1,-1,-1,-1,-1,-1,-1,-1,-1,-1,,-1,0,0,0,,0,-1,0,-1,-1,RJTC 231800Z NIL=,
20180123_190000.003,0,RJTC,,,,0,20180123190000,-1,-1,-1,-1,-1,-1,-1,-1,-1,-1,-1,,-1,0,0,0,,0,-1,0,-1,-1,RJTC 231900Z NIL=,
20180123_200000.003,0,RJTC,,,,0,20180123200000,-1,-1,-1,-1,-1,-1,-1,-1,-1,-1,-1,,-1,0,0,0,,0,-1,0,-1,-1,RJTC 232000Z NIL=,
20180123_210000.003,0,RJTC,,,,0,20180123210000,-1,-1,-1,-1,999,-1,2,-1,-1,-1,-1,,9999,0,0,1,FEW 30,-1,4,-1,9,1006,RJTC 232100Z VRB02KT 9999 FEW030 M04/M09 Q1006 RMK 1CU030     A2973=,
20180123_220000.003,0,RJTC,,,,0,20180123220000,-1,-1,-1,-1,260,-1,6,-1,-1,-1,-1,,9999,0,0,1,FEW 20,-1,1,-1,11,1006,RJTC 232200Z 26006KT 9999 FEW020 M01/M11 Q1006 RMK 1CU020     A2973=,
20180123_230000.003,0,RJTC,,,,0,20180123230000,-1,-1,-1,-1,250,-1,7,-1,-1,-1,-1,,9999,0,0,1,FEW 20,1,1,-1,11,1006,RJTC 232300Z 25007KT 9999 FEW020 01/M11 Q1006 RMK 1CU020     A2973=,
20180124_000000.003,0,RJTC,,,,0,20180124000000,-1,-1,-1,-1,240,-1,9,-1,-1,-1,-1,,9999,0,0,1,FEW 20,1,2,-1,11,1006,RJTC 240000Z 24009KT 9999 FEW020 02/M11 Q1006 RMK 1CU020     A2972=,
20180124_010000.004,0,RJTC,,,,0,20180124010000,-1,-1,-1,-1,230,-1,10,-1,-1,-1,-1,,9999,0,0,1,FEW 20,1,4,-1,12,1005,RJTC 240100Z 23010KT 9999 FEW020 04/M12 Q1005 RMK 2CU020     A2970=,
20180124_020000.003,0,RJTC,,,,0,20180124020000,-1,-1,-1,-1,220,-1,10,-1,-1,-1,-1,,9999,0,0,1,FEW 20,1,5,-1,13,1004,RJTC 240200Z 22010KT 9999 FEW020 05/M13 Q1004 RMK 2CU020     A2966=,
20180124_030000.003,0,RJTC,,,,0,20180124030000,-1,-1,-1,-1,280,-1,9,-1,-1,-1,-1,,9999,0,0,1,FEW 30,1,6,-1,14,1003,RJTC 240300Z 28009KT 9999 FEW030 06/M14 Q1003 RMK 2CU030     A2961=,
20180124_040000.003,0,RJTC,,,,0,20180124040000,-1,-1,-1,-1,310,-1,8,-1,18,250,360,,9999,0,0,1,FEW 30,1,5,-1,17,1001,RJTC 240400Z 31008G18KT 250V360 9999 FEW030 05/M17 Q1001 RMK     2CU030 A2958=,
20180124_050000.003,0,RJTC,,,,0,20180124050000,-1,-1,-1,-1,300,-1,10,-1,-1,260,330,,9999,0,0,2,FEW 25   SCT 30,1,6,-1,16,1001,RJTC 240500Z 30010KT 260V330 9999 FEW025 SCT030 06/M16 Q1001     RMK 1CU025 3CU030 A2957=,
20180124_060000.003,0,RJTC,,,,0,20180124060000,-1,-1,-1,-1,280,-1,10,-1,-1,250,340,,9999,0,0,2,FEW 25   SCT 30,1,6,-1,17,1001,RJTC 240600Z 28010KT 250V340 9999 FEW025 SCT030 06/M17 Q1001     RMK 1CU025 3CU030 A2958=,
20180124_070000.003,0,RJTC,,,,0,20180124070000,-1,-1,-1,-1,290,-1,15,-1,26,250,320,,9999,0,0,2,FEW 30   SCT 60,1,4,-1,17,1003,RJTC 240700Z 29015G26KT 250V320 9999 FEW030 SCT060 04/M17     Q1003 RMK 2CU030 4SC060 A2961=,
20180124_080000.003,0,RJTC,,,,0,20180124080000,-1,-1,-1,-1,290,-1,12,-1,24,230,330,,9999,0,0,2,FEW 30   SCT 60,1,3,-1,17,1004,RJTC 240800Z 29012G24KT 230V330 9999 FEW030 SCT060 03/M17     Q1004 RMK 2CU030 3SC060 A2965=,
20180124_090000.004,0,RJTC,,,,0,20180124090000,-1,-1,-1,-1,290,-1,12,-1,22,260,340,,9999,0,0,2,FEW 30   SCT 60,1,2,-1,20,1005,RJTC 240900Z 29012G22KT 260V340 9999 FEW030 SCT060 02/M20     Q1005 RMK 2CU030 3SC060 A2968=,
20180124_100000.003,0,RJTC,,,,0,20180124100000,-1,-1,-1,-1,-1,-1,-1,-1,-1,-1,-1,,-1,0,0,0,,0,-1,0,-1,-1,RJTC 241000Z NIL=,
20180124_110000.003,0,RJTC,,,,0,20180124110000,-1,-1,-1,-1,-1,-1,-1,-1,-1,-1,-1,,-1,0,0,0,,0,-1,0,-1,-1,RJTC 241100Z NIL=,
20180124_120000.003,0,RJTC,,,,0,20180124120000,-1,-1,-1,-1,-1,-1,-1,-1,-1,-1,-1,,-1,0,0,0,,0,-1,0,-1,-1,RJTC 241200Z NIL=,
20180124_130000.003,0,RJTC,,,,0,20180124130000,-1,-1,-1,-1,-1,-1,-1,-1,-1,-1,-1,,-1,0,0,0,,0,-1,0,-1,-1,RJTC 241300Z NIL=,
20180124_140000.004,0,RJTC,,,,0,20180124140000,-1,-1,-1,-1,-1,-1,-1,-1,-1,-1,-1,,-1,0,0,0,,0,-1,0,-1,-1,RJTC 241400Z NIL=,
20180124_150000.003,0,RJTC,,,,0,20180124150000,-1,-1,-1,-1,-1,-1,-1,-1,-1,-1,-1,,-1,0,0,0,,0,-1,0,-1,-1,RJTC 241500Z NIL=,
20180124_160000.003,0,RJTC,,,,0,20180124160000,-1,-1,-1,-1,-1,-1,-1,-1,-1,-1,-1,,-1,0,0,0,,0,-1,0,-1,-1,RJTC 241600Z NIL=,
20180124_170000.003,0,RJTC,,,,0,20180124170000,-1,-1,-1,-1,-1,-1,-1,-1,-1,-1,-1,,-1,0,0,0,,0,-1,0,-1,-1,RJTC 241700Z NIL=,
20180124_180000.003,0,RJTC,,,,0,20180124180000,-1,-1,-1,-1,-1,-1,-1,-1,-1,-1,-1,,-1,0,0,0,,0,-1,0,-1,-1,RJTC 241800Z NIL=,
20180124_190000.004,0,RJTC,,,,0,20180124190000,-1,-1,-1,-1,-1,-1,-1,-1,-1,-1,-1,,-1,0,0,0,,0,-1,0,-1,-1,RJTC 241900Z NIL=,
20180124_200000.003,0,RJTC,,,,0,20180124200000,-1,-1,-1,-1,-1,-1,-1,-1,-1,-1,-1,,-1,0,0,0,,0,-1,0,-1,-1,RJTC 242000Z NIL=,
20180124_210000.004,0,RJTC,,,,0,20180124210000,-1,-1,-1,-1,999,-1,1,-1,-1,-1,-1,,9999,0,0,1,FEW 30,-1,9,-1,13,1009,RJTC 242100Z VRB01KT 9999 FEW030 M09/M13 Q1009 RMK 1CU030     A2981=,
20180124_220000.003,0,RJTC,,,,0,20180124220000,-1,-1,-1,-1,999,-1,2,-1,-1,-1,-1,,9999,0,0,1,FEW 20,-1,9,-1,13,1010,RJTC 242200Z VRB02KT 9999 FEW020 M09/M13 Q1010 RMK 1CU020     A2984=,
20180124_230000.003,0,RJTC,,,,0,20180124230000,-1,-1,-1,-1,0,-1,0,-1,-1,-1,-1,,9999,0,0,1,FEW 20,-1,7,-1,12,1011,RJTC 242300Z 00000KT 9999 FEW020 M07/M12 Q1011 RMK 1CU020     A2985=,
20180125_000000.003,0,RJTC,,,,0,20180125000000,-1,-1,-1,-1,999,-1,2,-1,-1,-1,-1,,9999,0,0,1,FEW 20,-1,3,-1,13,1011,RJTC 250000Z VRB02KT 9999 FEW020 M03/M13 Q1011 RMK 1CU020     A2986=,
20180125_010000.003,0,RJTC,,,,0,20180125010000,-1,-1,-1,-1,10,-1,4,-1,-1,340,70,,9999,0,0,1,FEW 20,-1,1,-1,15,1011,RJTC 250100Z 01004KT 340V070 9999 FEW020 M01/M15 Q1011 RMK     1CU020 A2986=,
20180125_020000.004,0,RJTC,,,,0,20180125020000,-1,-1,-1,-1,190,-1,3,-1,-1,140,230,,9999,0,0,1,FEW 20,-1,0,-1,20,1010,RJTC 250200Z 19003KT 140V230 9999 FEW020 M00/M20 Q1010 RMK     1CU020 A2984=,
20180125_030000.003,0,RJTC,,,,0,20180125030000,-1,-1,-1,-1,999,-1,1,-1,-1,-1,-1,,9999,0,0,1,FEW 20,1,1,-1,20,1010,RJTC 250300Z VRB01KT 9999 FEW020 01/M20 Q1010 RMK 1CU020     A2983=,
20180125_040000.003,0,RJTC,,,,0,20180125040000,-1,-1,-1,-1,20,-1,3,-1,-1,330,60,,9999,0,0,1,FEW 20,1,2,-1,19,1009,RJTC 250400Z 02003KT 330V060 9999 FEW020 02/M19 Q1009 RMK     1CU020 A2980=,
20180125_050000.003,0,RJTC,,,,0,20180125050000,-1,-1,-1,-1,999,-1,1,-1,-1,-1,-1,,9999,0,0,1,FEW 20,1,3,-1,18,1009,RJTC 250500Z VRB01KT 9999 FEW020 03/M18 Q1009 RMK 1CU020     A2980=,
20180125_060000.003,0,RJTC,,,,0,20180125060000,-1,-1,-1,-1,999,-1,2,-1,-1,-1,-1,,9999,0,0,1,FEW 20,1,4,-1,17,1008,RJTC 250600Z VRB02KT 9999 FEW020 04/M17 Q1008 RMK 1CU020     A2979=,
20180125_070000.003,0,RJTC,,,,0,20180125070000,-1,-1,-1,-1,100,-1,7,-1,-1,70,130,,9999,0,0,1,FEW 20,1,2,-1,14,1009,RJTC 250700Z 10007KT 070V130 9999 FEW020 02/M14 Q1009 RMK     1CU020 A2980=,
20180125_080000.003,0,RJTC,,,,0,20180125080000,-1,-1,-1,-1,100,-1,3,-1,-1,70,140,,9999,0,0,1,FEW 20,1,1,-1,15,1009,RJTC 250800Z 10003KT 070V140 9999 FEW020 01/M15 Q1009 RMK     1CU020 A2980=,
20180125_090000.003,0,RJTC,,,,0,20180125090000,-1,-1,-1,-1,999,-1,3,-1,-1,-1,-1,,9999,0,0,1,FEW 20,1,1,-1,14,1009,RJTC 250900Z VRB03KT 9999 FEW020 01/M14 Q1009 RMK 1CU020     A2981=,
20180125_100000.004,0,RJTC,,,,0,20180125100000,-1,-1,-1,-1,-1,-1,-1,-1,-1,-1,-1,,-1,0,0,0,,0,-1,0,-1,-1,RJTC 251000Z NIL=,
20180125_110000.004,0,RJTC,,,,0,20180125110000,-1,-1,-1,-1,-1,-1,-1,-1,-1,-1,-1,,-1,0,0,0,,0,-1,0,-1,-1,RJTC 251100Z NIL=,
20180125_120000.003,0,RJTC,,,,0,20180125120000,-1,-1,-1,-1,-1,-1,-1,-1,-1,-1,-1,,-1,0,0,0,,0,-1,0,-1,-1,RJTC 251200Z NIL=,
20180125_130000.003,0,RJTC,,,,0,20180125130000,-1,-1,-1,-1,-1,-1,-1,-1,-1,-1,-1,,-1,0,0,0,,0,-1,0,-1,-1,RJTC 251300Z NIL=,
20180125_140000.003,0,RJTC,,,,0,20180125140000,-1,-1,-1,-1,-1,-1,-1,-1,-1,-1,-1,,-1,0,0,0,,0,-1,0,-1,-1,RJTC 251400Z NIL=,
20180125_150000.003,0,RJTC,,,,0,20180125150000,-1,-1,-1,-1,-1,-1,-1,-1,-1,-1,-1,,-1,0,0,0,,0,-1,0,-1,-1,RJTC 251500Z NIL=,
20180125_160000.003,0,RJTC,,,,0,20180125160000,-1,-1,-1,-1,-1,-1,-1,-1,-1,-1,-1,,-1,0,0,0,,0,-1,0,-1,-1,RJTC 251600Z NIL=,
20180125_170000.003,0,RJTC,,,,0,20180125170000,-1,-1,-1,-1,-1,-1,-1,-1,-1,-1,-1,,-1,0,0,0,,0,-1,0,-1,-1,RJTC 251700Z NIL=,
20180125_180000.003,0,RJTC,,,,0,20180125180000,-1,-1,-1,-1,-1,-1,-1,-1,-1,-1,-1,,-1,0,0,0,,0,-1,0,-1,-1,RJTC 251800Z NIL=,
20180125_190000.003,0,RJTC,,,,0,20180125190000,-1,-1,-1,-1,-1,-1,-1,-1,-1,-1,-1,,-1,0,0,0,,0,-1,0,-1,-1,RJTC 251900Z NIL=,
20180125_200000.004,0,RJTC,,,,0,20180125200000,-1,-1,-1,-1,-1,-1,-1,-1,-1,-1,-1,,-1,0,0,0,,0,-1,0,-1,-1,RJTC 252000Z NIL=,
20180125_210000.003,0,RJTC,,,,0,20180125210000,-1,-1,-1,-1,0,-1,0,-1,-1,-1,-1,,9999,0,0,1,FEW 30,-1,8,-1,12,1006,RJTC 252100Z 00000KT 9999 FEW030 M08/M12 Q1006 RMK 1CU030     A2971=,
20180125_220000.003,0,RJTC,,,,0,20180125220000,-1,-1,-1,-1,999,-1,1,-1,-1,-1,-1,,9999,0,0,1,FEW 30,-1,8,-1,12,1006,RJTC 252200Z VRB01KT 9999 FEW030 M08/M12 Q1006 RMK 1CU030     A2972=,
20180125_230000.003,0,RJTC,,,,0,20180125230000,-1,-1,-1,-1,999,-1,2,-1,-1,-1,-1,,9999,0,0,1,FEW 30,-1,5,-1,12,1006,RJTC 252300Z VRB02KT 9999 FEW030 M05/M12 Q1006 RMK 1CU030     A2972=,
20180126_000000.003,0,RJTC,,,,0,20180126000000,-1,-1,-1,-1,999,-1,2,-1,-1,-1,-1,,9999,0,0,1,FEW 30,-1,1,-1,13,1007,RJTC 260000Z VRB02KT 9999 FEW030 M01/M13 Q1007 RMK 1CU030     A2973=,
20180126_010000.003,0,RJTC,,,,0,20180126010000,-1,-1,-1,-1,30,-1,6,-1,-1,360,60,,9999,0,0,1,FEW 30,1,1,-1,14,1007,RJTC 260100Z 03006KT 360V060 9999 FEW030 01/M14 Q1007 RMK     1CU030 A2974=,
20180126_020000.003,0,RJTC,,,,0,20180126020000,-1,-1,-1,-1,30,-1,7,-1,-1,-1,-1,,9999,0,0,1,FEW 30,1,2,-1,12,1006,RJTC 260200Z 03007KT 9999 FEW030 02/M12 Q1006 RMK 1CU030     A2972=,
20180126_030000.003,0,RJTC,,,,0,20180126030000,-1,-1,-1,-1,30,-1,6,-1,-1,360,60,,9999,0,0,1,FEW 30,1,3,-1,12,1005,RJTC 260300Z 03006KT 360V060 9999 FEW030 03/M12 Q1005 RMK     2CU030 A2969=,
20180126_040000.003,0,RJTC,,,,0,20180126040000,-1,-1,-1,-1,50,-1,10,-1,-1,20,90,,9999,0,0,2,FEW 30   SCT 80,1,4,-1,13,1005,RJTC 260400Z 05010KT 020V090 9999 FEW030 SCT080 04/M13 Q1005     RMK 1CU030 3AC080 A2968=,
20180126_050000.003,0,RJTC,,,,0,20180126050000,-1,-1,-1,-1,40,-1,12,-1,-1,10,70,,9999,0,0,3,FEW 30   SCT 80   BKN 230,1,3,-1,12,1005,RJTC 260500Z 04012KT 010V070 9999 FEW030 SCT080 BKN230 03/M12     Q1005 RMK 1CU030 3AC080 5CI230 A2968=,
20180126_060000.003,0,RJTC,,,,0,20180126060000,-1,-1,-1,-1,60,-1,11,-1,-1,20,100,,9999,0,0,2,FEW 30   SCT 80,1,3,-1,13,1005,RJTC 260600Z 06011KT 020V100 9999 FEW030 SCT080 03/M13 Q1005     RMK 1CU030 3AC080 A2969=,
20180126_070000.003,0,RJTC,,,,0,20180126070000,-1,-1,-1,-1,40,-1,14,-1,-1,-1,-1,,9999,0,0,3,FEW 30   SCT 80   BKN 230,1,2,-1,14,1005,RJTC 260700Z 04014KT 9999 FEW030 SCT080 BKN230 02/M14 Q1005     RMK 1CU030 3AC080 5CI230 A2970=,
20180126_080000.004,0,RJTC,,,,0,20180126080000,-1,-1,-1,-1,20,-1,13,-1,-1,-1,-1,,9999,0,0,3,FEW 30   SCT 80   BKN 230,1,1,-1,14,1006,RJTC 260800Z 02013KT 9999 FEW030 SCT080 BKN230 01/M14 Q1006     RMK 1CU030 3AC080 5CI230 A2972=,
20180126_090000.003,0,RJTC,,,,0,20180126090000,-1,-1,-1,-1,-1,-1,-1,-1,-1,-1,-1,,-1,0,0,0,,0,-1,0,-1,-1,RJTC 260900Z NIL=,
20180126_100000.003,0,RJTC,,,,0,20180126100000,-1,-1,-1,-1,-1,-1,-1,-1,-1,-1,-1,,-1,0,0,0,,0,-1,0,-1,-1,RJTC 261000Z NIL=,
20180126_110000.003,0,RJTC,,,,0,20180126110000,-1,-1,-1,-1,-1,-1,-1,-1,-1,-1,-1,,-1,0,0,0,,0,-1,0,-1,-1,RJTC 261100Z NIL=,
20180126_120000.003,0,RJTC,,,,0,20180126120000,-1,-1,-1,-1,-1,-1,-1,-1,-1,-1,-1,,-1,0,0,0,,0,-1,0,-1,-1,RJTC 261200Z NIL=,
20180126_130000.003,0,RJTC,,,,0,20180126130000,-1,-1,-1,-1,-1,-1,-1,-1,-1,-1,-1,,-1,0,0,0,,0,-1,0,-1,-1,RJTC 261300Z NIL=,
20180126_140000.003,0,RJTC,,,,0,20180126140000,-1,-1,-1,-1,-1,-1,-1,-1,-1,-1,-1,,-1,0,0,0,,0,-1,0,-1,-1,RJTC 261400Z NIL=,
20180126_150000.003,0,RJTC,,,,0,20180126150000,-1,-1,-1,-1,-1,-1,-1,-1,-1,-1,-1,,-1,0,0,0,,0,-1,0,-1,-1,RJTC 261500Z NIL=,
20180126_160000.003,0,RJTC,,,,0,20180126160000,-1,-1,-1,-1,-1,-1,-1,-1,-1,-1,-1,,-1,0,0,0,,0,-1,0,-1,-1,RJTC 261600Z NIL=,
20180126_170000.003,0,RJTC,,,,0,20180126170000,-1,-1,-1,-1,-1,-1,-1,-1,-1,-1,-1,,-1,0,0,0,,0,-1,0,-1,-1,RJTC 261700Z NIL=,
20180126_180000.003,0,RJTC,,,,0,20180126180000,-1,-1,-1,-1,-1,-1,-1,-1,-1,-1,-1,,-1,0,0,0,,0,-1,0,-1,-1,RJTC 261800Z NIL=,
20180126_190000.003,0,RJTC,,,,0,20180126190000,-1,-1,-1,-1,-1,-1,-1,-1,-1,-1,-1,,-1,0,0,0,,0,-1,0,-1,-1,RJTC 261900Z NIL=,
20180126_200000.004,0,RJTC,,,,0,20180126200000,-1,-1,-1,-1,-1,-1,-1,-1,-1,-1,-1,,-1,0,0,0,,0,-1,0,-1,-1,RJTC 262000Z NIL=,
20180126_210000.003,0,RJTC,,,,0,20180126210000,-1,-1,-1,-1,999,-1,3,-1,-1,-1,-1,,9999,0,0,1,FEW 20,-1,9,-1,14,1013,RJTC 262100Z VRB03KT 9999 FEW020 M09/M14 Q1013 RMK 1CU020     A2992=,
20180126_220000.003,0,RJTC,,,,0,20180126220000,-1,-1,-1,-1,999,-1,2,-1,-1,-1,-1,,9999,0,0,1,FEW 20,-1,9,-1,14,1014,RJTC 262200Z VRB02KT 9999 FEW020 M09/M14 Q1014 RMK 1CU020     A2995=,
20180126_230000.003,0,RJTC,,,,0,20180126230000,-1,-1,-1,-1,999,-1,2,-1,-1,-1,-1,,9999,0,0,1,FEW 20,-1,5,-1,13,1014,RJTC 262300Z VRB02KT 9999 FEW020 M05/M13 Q1014 RMK 1CU020     A2996=,
20180127_000000.003,0,RJTC,,,,0,20180127000000,-1,-1,-1,-1,190,-1,3,-1,-1,140,220,,9999,0,0,1,FEW 20,-1,1,-1,14,1014,RJTC 270000Z 19003KT 140V220 9999 FEW020 M01/M14 Q1014 RMK     1CU020 A2996=,
20180127_010000.003,0,RJTC,,,,0,20180127010000,-1,-1,-1,-1,350,-1,12,-1,-1,-1,-1,,9999,0,0,1,FEW 20,1,3,-1,16,1014,RJTC 270100Z 35012KT 9999 FEW020 03/M16 Q1014 RMK 1CU020     A2997=,
20180127_020000.003,0,RJTC,,,,0,20180127020000,-1,-1,-1,-1,350,-1,12,-1,-1,310,20,,9999,0,0,1,FEW 30,1,4,-1,17,1014,RJTC 270200Z 35012KT 310V020 9999 FEW030 04/M17 Q1014 RMK     1CU030 A2994=,
20180127_030000.003,0,RJTC,,,,0,20180127030000,-1,-1,-1,-1,10,-1,16,-1,-1,-1,-1,,9999,0,0,1,FEW 30,1,6,-1,16,1013,RJTC 270300Z 01016KT 9999 FEW030 06/M16 Q1013 RMK 1CU030     A2993=,
20180127_040000.003,0,RJTC,,,,0,20180127040000,-1,-1,-1,-1,330,-1,10,-1,-1,280,30,,9999,0,0,1,FEW 30,1,7,-1,18,1012,RJTC 270400Z 33010KT 280V030 9999 FEW030 07/M18 Q1012 RMK     1CU030 A2991=,
20180127_050000.003,0,RJTC,,,,0,20180127050000,-1,-1,-1,-1,330,-1,6,-1,17,290,20,,9999,0,0,1,FEW 30,1,7,-1,19,1013,RJTC 270500Z 33006G17KT 290V020 9999 FEW030 07/M19 Q1013 RMK     1CU030 A2993=,
20180127_060000.003,0,RJTC,,,,0,20180127060000,-1,-1,-1,-1,999,-1,4,-1,-1,-1,-1,,9999,0,0,1,FEW 30,1,7,-1,18,1014,RJTC 270600Z VRB04KT 9999 FEW030 07/M18 Q1014 RMK 1CU030     A2994=,
20180127_070000.003,0,RJTC,,,,0,20180127070000,-1,-1,-1,-1,40,-1,9,-1,-1,-1,-1,,9999,0,0,1,FEW 30,1,5,-1,14,1014,RJTC 270700Z 04009KT 9999 FEW030 05/M14 Q1014 RMK 1CU030     A2996=,
20180127_080000.003,0,RJTC,,,,0,20180127080000,-1,-1,-1,-1,30,-1,10,-1,-1,-1,-1,,9999,0,0,1,FEW 30,1,4,-1,12,1015,RJTC 270800Z 03010KT 9999 FEW030 04/M12 Q1015 RMK 1CU030     A3000=,
20180127_090000.004,0,RJTC,,,,0,20180127090000,-1,-1,-1,-1,-1,-1,-1,-1,-1,-1,-1,,-1,0,0,0,,0,-1,0,-1,-1,RJTC 270900Z NIL=,
20180127_100000.003,0,RJTC,,,,0,20180127100000,-1,-1,-1,-1,-1,-1,-1,-1,-1,-1,-1,,-1,0,0,0,,0,-1,0,-1,-1,RJTC 271000Z NIL=,
20180127_110000.003,0,RJTC,,,,0,20180127110000,-1,-1,-1,-1,-1,-1,-1,-1,-1,-1,-1,,-1,0,0,0,,0,-1,0,-1,-1,RJTC 271100Z NIL=,
20180127_120000.003,0,RJTC,,,,0,20180127120000,-1,-1,-1,-1,-1,-1,-1,-1,-1,-1,-1,,-1,0,0,0,,0,-1,0,-1,-1,RJTC 271200Z NIL=,
20180127_130000.003,0,RJTC,,,,0,20180127130000,-1,-1,-1,-1,-1,-1,-1,-1,-1,-1,-1,,-1,0,0,0,,0,-1,0,-1,-1,RJTC 271300Z NIL=,
20180127_140000.004,0,RJTC,,,,0,20180127140000,-1,-1,-1,-1,-1,-1,-1,-1,-1,-1,-1,,-1,0,0,0,,0,-1,0,-1,-1,RJTC 271400Z NIL=,
20180127_150000.003,0,RJTC,,,,0,20180127150000,-1,-1,-1,-1,-1,-1,-1,-1,-1,-1,-1,,-1,0,0,0,,0,-1,0,-1,-1,RJTC 271500Z NIL=,
20180127_160000.003,0,RJTC,,,,0,20180127160000,-1,-1,-1,-1,-1,-1,-1,-1,-1,-1,-1,,-1,0,0,0,,0,-1,0,-1,-1,RJTC 271600Z NIL=,
20180127_170000.003,0,RJTC,,,,0,20180127170000,-1,-1,-1,-1,-1,-1,-1,-1,-1,-1,-1,,-1,0,0,0,,0,-1,0,-1,-1,RJTC 271700Z NIL=,
20180127_180000.003,0,RJTC,,,,0,20180127180000,-1,-1,-1,-1,-1,-1,-1,-1,-1,-1,-1,,-1,0,0,0,,0,-1,0,-1,-1,RJTC 271800Z NIL=,
20180127_190000.003,0,RJTC,,,,0,20180127190000,-1,-1,-1,-1,-1,-1,-1,-1,-1,-1,-1,,-1,0,0,0,,0,-1,0,-1,-1,RJTC 271900Z NIL=,
20180127_200000.003,0,RJTC,,,,0,20180127200000,-1,-1,-1,-1,-1,-1,-1,-1,-1,-1,-1,,-1,0,0,0,,0,-1,0,-1,-1,RJTC 272000Z NIL=,
20180127_210000.003,0,RJTC,,,,0,20180127210000,-1,-1,-1,-1,-1,-1,-1,-1,-1,-1,-1,,-1,0,0,0,,0,-1,0,-1,-1,RJTC 272100Z NIL=,
20180127_220000.003,0,RJTC,,,,0,20180127220000,-1,-1,-1,-1,0,-1,0,-1,-1,-1,-1,,9999,0,0,2,FEW 30   SCT 160,-1,6,-1,10,1018,RJTC 272200Z 00000KT 9999 FEW030 SCT160 M06/M10 Q1018 RMK     1CU030 4AC160 A3008=,
20180127_230000.003,0,RJTC,,,,0,20180127230000,-1,-1,-1,-1,40,-1,2,-1,-1,-1,-1,,9999,0,0,2,FEW 30   BKN 160,-1,3,-1,10,1018,RJTC 272300Z 04002KT 9999 FEW030 BKN160 M03/M10 Q1018 RMK     1CU030 5AC160 A3008=,
20180128_000000.004,0,RJTC,,,,0,20180128000000,-1,-1,-1,-1,999,-1,2,-1,-1,-1,-1,,9999,0,0,2,FEW 30   BKN 150,-1,1,-1,10,1018,RJTC 280000Z VRB02KT 9999 FEW030 BKN150 M01/M10 Q1018 RMK     2CU030 6AC150 A3008=,
20180128_010000.003,0,RJTC,,,,0,20180128010000,-1,-1,-1,-1,999,-1,1,-1,-1,-1,-1,,9999,0,0,2,FEW 30   BKN 150,1,1,-1,11,1018,RJTC 280100Z VRB01KT 9999 FEW030 BKN150 01/M11 Q1018 RMK     2CU030 6AC150 A3008=,
20180128_020000.003,0,RJTC,,,,0,20180128020000,-1,-1,-1,-1,999,-1,1,-1,-1,-1,-1,,9999,0,0,3,FEW 30   SCT 50   BKN 150,1,2,-1,11,1017,RJTC 280200Z VRB01KT 9999 FEW030 SCT050 BKN150 02/M11 Q1017     RMK 2CU030 3SC050 6AC150 A3005=,
20180128_030000.003,0,RJTC,,,,0,20180128030000,-1,-1,-1,-1,90,-1,5,-1,-1,30,140,,9999,0,0,3,FEW 30   SCT 50   BKN 150,1,3,-1,10,1016,RJTC 280300Z 09005KT 030V140 9999 FEW030 SCT050 BKN150 03/M10     Q1016 RMK 1CU030 4SC050 6AC150 A3000=,
20180128_040000.003,0,RJTC,,,,0,20180128040000,-1,-1,-1,-1,140,-1,5,-1,-1,100,180,,9999,0,0,3,FEW 30   SCT 50   BKN 150,1,4,-1,7,1015,RJTC 280400Z 14005KT 100V180 9999 FEW030 SCT050 BKN150 04/M07     Q1015 RMK 1CU030 3SC050 5AC150 A2997=,
20180128_050000.003,0,RJTC,,,,0,20180128050000,-1,-1,-1,-1,120,-1,4,-1,-1,80,170,,9999,0,0,2,FEW 30   SCT 150,1,4,-1,9,1014,RJTC 280500Z 12004KT 080V170 9999 FEW030 SCT150 04/M09 Q1014     RMK 1CU030 4AC150 A2995=,
20180128_060000.003,0,RJTC,,,,0,20180128060000,-1,-1,-1,-1,110,-1,4,-1,-1,30,170,,9999,0,0,2,FEW 30   SCT 100,1,5,-1,8,1013,RJTC 280600Z 11004KT 030V170 9999 FEW030 SCT100 05/M08 Q1013     RMK 1CU030 3AC100 A2993=,
20180128_070000.004,0,RJTC,,,,0,20180128070000,-1,-1,-1,-1,999,-1,2,-1,-1,-1,-1,,9999,0,0,2,FEW 30   SCT 100,1,4,-1,8,1013,RJTC 280700Z VRB02KT 9999 FEW030 SCT100 04/M08 Q1013 RMK     1CU030 3AC100 A2991=,
20180128_080000.003,0,RJTC,,,,0,20180128080000,-1,-1,-1,-1,60,-1,2,-1,-1,-1,-1,,9999,0,0,2,FEW 30   SCT 100,1,3,-1,7,1012,RJTC 280800Z 06002KT 9999 FEW030 SCT100 03/M07 Q1012 RMK     1CU030 3AC100 A2990=,
20180128_090000.003,0,RJTC,,,,0,20180128090000,-1,-1,-1,-1,-1,-1,-1,-1,-1,-1,-1,,-1,0,0,0,,0,-1,0,-1,-1,RJTC 280900Z NIL=,
20180128_100000.003,0,RJTC,,,,0,20180128100000,-1,-1,-1,-1,-1,-1,-1,-1,-1,-1,-1,,-1,0,0,0,,0,-1,0,-1,-1,RJTC 281000Z NIL=,
20180128_110000.003,0,RJTC,,,,0,20180128110000,-1,-1,-1,-1,-1,-1,-1,-1,-1,-1,-1,,-1,0,0,0,,0,-1,0,-1,-1,RJTC 281100Z NIL=,
20180128_120000.003,0,RJTC,,,,0,20180128120000,-1,-1,-1,-1,-1,-1,-1,-1,-1,-1,-1,,-1,0,0,0,,0,-1,0,-1,-1,RJTC 281200Z NIL=,
20180128_130000.003,0,RJTC,,,,0,20180128130000,-1,-1,-1,-1,-1,-1,-1,-1,-1,-1,-1,,-1,0,0,0,,0,-1,0,-1,-1,RJTC 281300Z NIL=,
20180128_140000.003,0,RJTC,,,,0,20180128140000,-1,-1,-1,-1,-1,-1,-1,-1,-1,-1,-1,,-1,0,0,0,,0,-1,0,-1,-1,RJTC 281400Z NIL=,
20180128_150000.003,0,RJTC,,,,0,20180128150000,-1,-1,-1,-1,-1,-1,-1,-1,-1,-1,-1,,-1,0,0,0,,0,-1,0,-1,-1,RJTC 281500Z NIL=,
20180128_160000.003,0,RJTC,,,,0,20180128160000,-1,-1,-1,-1,-1,-1,-1,-1,-1,-1,-1,,-1,0,0,0,,0,-1,0,-1,-1,RJTC 281600Z NIL=,
20180128_170000.003,0,RJTC,,,,0,20180128170000,-1,-1,-1,-1,-1,-1,-1,-1,-1,-1,-1,,-1,0,0,0,,0,-1,0,-1,-1,RJTC 281700Z NIL=,
20180128_180000.003,0,RJTC,,,,0,20180128180000,-1,-1,-1,-1,-1,-1,-1,-1,-1,-1,-1,,-1,0,0,0,,0,-1,0,-1,-1,RJTC 281800Z NIL=,
20180128_190000.003,0,RJTC,,,,0,20180128190000,-1,-1,-1,-1,-1,-1,-1,-1,-1,-1,-1,,-1,0,0,0,,0,-1,0,-1,-1,RJTC 281900Z NIL=,
20180128_200000.003,0,RJTC,,,,0,20180128200000,-1,-1,-1,-1,-1,-1,-1,-1,-1,-1,-1,,-1,0,0,0,,0,-1,0,-1,-1,RJTC 282000Z NIL=,
20180128_210000.003,0,RJTC,,,,0,20180128210000,-1,-1,-1,-1,999,-1,2,-1,-1,-1,-1,,9999,0,0,1,FEW 30,-1,3,-1,6,1006,RJTC 282100Z VRB02KT 9999 FEW030 M03/M06 Q1006 RMK 1SC030     A2973=,
20180128_220000.004,0,RJTC,,,,0,20180128220000,-1,-1,-1,-1,999,-1,1,-1,-1,-1,-1,,9999,0,0,2,FEW 30   SCT 180,-1,5,-1,7,1007,RJTC 282200Z VRB01KT 9999 FEW030 SCT180 M05/M07 Q1007 RMK     1SC030 3AC180 A2974=,
20180128_230000.003,0,RJTC,,,,0,20180128230000,-1,-1,-1,-1,0,-1,0,-1,-1,-1,-1,,9999,0,0,2,FEW 30   SCT 230,-1,3,-1,6,1007,RJTC 282300Z 00000KT 9999 FEW030 SCT230 M03/M06 Q1007 RMK     1SC030 3CI230 A2975=,
20180129_000000.004,0,RJTC,,,,0,20180129000000,-1,-1,-1,-1,999,-1,1,-1,-1,-1,-1,,9999,0,0,2,FEW 30   SCT 230,1,1,-1,5,1007,RJTC 290000Z VRB01KT 9999 FEW030 SCT230 01/M05 Q1007 RMK     1SC030 3CI230 A2976=,
20180129_010000.003,0,RJTC,,,,0,20180129010000,-1,-1,-1,-1,210,-1,2,-1,-1,-1,-1,,9999,0,0,2,FEW 30   SCT 230,1,4,-1,5,1008,RJTC 290100Z 21002KT 9999 FEW030 SCT230 04/M05 Q1008 RMK     1CU030 3CI230 A2977=,
20180129_020000.003,0,RJTC,,,,0,20180129020000,-1,-1,-1,-1,30,-1,4,-1,-1,350,60,,9999,0,0,2,FEW 30   SCT 230,1,5,-1,6,1007,RJTC 290200Z 03004KT 350V060 9999 FEW030 SCT230 05/M06 Q1007     RMK 1CU030 4CI230 A2974=,
20180129_030000.003,0,RJTC,,,,0,20180129030000,-1,-1,-1,-1,30,-1,5,-1,-1,360,110,,9999,0,0,2,FEW 30   SCT 230,1,7,-1,6,1006,RJTC 290300Z 03005KT 360V110 9999 FEW030 SCT230 07/M06 Q1006     RMK 1CU030 3CI230 A2972=,
20180129_040000.003,0,RJTC,,,,0,20180129040000,-1,-1,-1,-1,50,-1,3,-1,-1,350,140,,9999,0,0,2,FEW 30   BKN 230,1,7,-1,7,1005,RJTC 290400Z 05003KT 350V140 9999 FEW030 BKN230 07/M07 Q1005     RMK 1CU030 5CI230 A2968=,
20180129_050000.003,0,RJTC,,,,0,20180129050000,-1,-1,-1,-1,110,-1,4,-1,-1,50,150,,9999,0,0,2,FEW 30   SCT 230,1,9,-1,6,1004,RJTC 290500Z 11004KT 050V150 9999 FEW030 SCT230 09/M06 Q1004     RMK 1CU030 3CI230 A2966=,
20180129_060000.003,0,RJTC,,,,0,20180129060000,-1,-1,-1,-1,999,-1,2,-1,-1,-1,-1,,9999,0,0,2,FEW 30   SCT 230,1,8,-1,5,1004,RJTC 290600Z VRB02KT 9999 FEW030 SCT230 08/M05 Q1004 RMK     1CU030 3CI230 A2966=,
20180129_070000.003,0,RJTC,,,,0,20180129070000,-1,-1,-1,-1,70,-1,3,-1,-1,30,150,,9999,0,0,1,FEW 30,1,8,-1,5,1004,RJTC 290700Z 07003KT 030V150 9999 FEW030 08/M05 Q1004 RMK     1CU030 A2966=,
20180129_080000.003,0,RJTC,,,,0,20180129080000,-1,-1,-1,-1,999,-1,2,-1,-1,-1,-1,,9999,0,0,1,FEW 30,1,5,-1,4,1004,RJTC 290800Z VRB02KT 9999 FEW030 05/M04 Q1004 RMK 2CU030     A2965=,
20180129_090000.003,0,RJTC,,,,0,20180129090000,-1,-1,-1,-1,90,-1,6,-1,-1,60,120,,9999,0,0,3,FEW 30   SCT 60   BKN 230,1,5,-1,1,1005,RJTC 290900Z 09006KT 060V120 9999 FEW030 SCT060 BKN230 05/M01     Q1005 RMK 1CU030 4SC060 5CI230 A2968=,
20180129_100000.003,0,RJTC,,,,0,20180129100000,-1,-1,-1,-1,60,-1,4,-1,-1,-1,-1,,9999,0,0,3,FEW 25   BKN 60   BKN 230,1,5,-1,1,1006,RJTC 291000Z 06004KT 9999 FEW025 BKN060 BKN230 05/M01 Q1006     RMK 1CU025 5SC060 6CI230 A2971=,
20180129_110000.003,0,RJTC,,,,0,20180129110000,-1,-1,-1,-1,-1,-1,-1,-1,-1,-1,-1,,-1,0,0,0,,0,-1,0,-1,-1,RJTC 291100Z NIL=,
20180129_120000.003,0,RJTC,,,,0,20180129120000,-1,-1,-1,-1,-1,-1,-1,-1,-1,-1,-1,,-1,0,0,0,,0,-1,0,-1,-1,RJTC 291200Z NIL=,
20180129_130000.003,0,RJTC,,,,0,20180129130000,-1,-1,-1,-1,-1,-1,-1,-1,-1,-1,-1,,-1,0,0,0,,0,-1,0,-1,-1,RJTC 291300Z NIL=,
20180129_140000.003,0,RJTC,,,,0,20180129140000,-1,-1,-1,-1,-1,-1,-1,-1,-1,-1,-1,,-1,0,0,0,,0,-1,0,-1,-1,RJTC 291400Z NIL=,
20180129_150000.003,0,RJTC,,,,0,20180129150000,-1,-1,-1,-1,-1,-1,-1,-1,-1,-1,-1,,-1,0,0,0,,0,-1,0,-1,-1,RJTC 291500Z NIL=,
20180129_160000.003,0,RJTC,,,,0,20180129160000,-1,-1,-1,-1,-1,-1,-1,-1,-1,-1,-1,,-1,0,0,0,,0,-1,0,-1,-1,RJTC 291600Z NIL=,
20180129_170000.003,0,RJTC,,,,0,20180129170000,-1,-1,-1,-1,-1,-1,-1,-1,-1,-1,-1,,-1,0,0,0,,0,-1,0,-1,-1,RJTC 291700Z NIL=,
20180129_180000.003,0,RJTC,,,,0,20180129180000,-1,-1,-1,-1,-1,-1,-1,-1,-1,-1,-1,,-1,0,0,0,,0,-1,0,-1,-1,RJTC 291800Z NIL=,
20180129_190000.003,0,RJTC,,,,0,20180129190000,-1,-1,-1,-1,-1,-1,-1,-1,-1,-1,-1,,-1,0,0,0,,0,-1,0,-1,-1,RJTC 291900Z NIL=,
20180129_200000.003,0,RJTC,,,,0,20180129200000,-1,-1,-1,-1,10,-1,6,-1,-1,-1,-1,,9999,0,0,2,FEW 30   BKN 70,1,0,-1,10,1011,RJTC 292000Z 01006KT 9999 FEW030 BKN070 00/M10 Q1011 RMK     1CU030 5AC070 A2985=,
20180129_210000.003,0,RJTC,,,,0,20180129210000,-1,-1,-1,-1,30,-1,6,-1,-1,-1,-1,,9999,0,0,2,FEW 30   BKN 70,1,1,-1,11,1012,RJTC 292100Z 03006KT 9999 FEW030 BKN070 01/M11 Q1012 RMK     1CU030 5AC070 A2989=,
20180129_220000.003,0,RJTC,,,,0,20180129220000,-1,-1,-1,-1,10,-1,9,-1,-1,-1,-1,,9999,0,0,2,FEW 30   BKN 70,1,2,-1,13,1013,RJTC 292200Z 01009KT 9999 FEW030 BKN070 02/M13 Q1013 RMK     1CU030 5AC070 A2991=,
20180129_230000.003,0,RJTC,,,,0,20180129230000,-1,-1,-1,-1,50,-1,5,-1,-1,-1,-1,,9999,0,0,2,FEW 30   BKN 70,1,1,-1,11,1014,RJTC 292300Z 05005KT 9999 FEW030 BKN070 01/M11 Q1014 RMK     1CU030 5AC070 A2994=,
20180130_000000.003,0,RJTC,,,,0,20180130000000,-1,-1,-1,-1,40,-1,11,-1,-1,-1,-1,,9999,0,0,2,FEW 30   SCT 60,1,1,-1,10,1014,RJTC 300000Z 04011KT 9999 FEW030 SCT060 01/M10 Q1014 RMK     1CU030 3SC060 A2996=,
20180130_010000.003,0,RJTC,,,,0,20180130010000,-1,-1,-1,-1,40,-1,10,-1,-1,-1,-1,,9999,0,0,2,FEW 30   SCT 70,1,3,-1,10,1015,RJTC 300100Z 04010KT 9999 FEW030 SCT070 03/M10 Q1015 RMK     1CU030 3AC070 A2997=,
20180130_020000.003,0,RJTC,,,,0,20180130020000,-1,-1,-1,-1,40,-1,10,-1,-1,360,70,,9999,0,0,1,FEW 30,1,4,-1,11,1014,RJTC 300200Z 04010KT 360V070 9999 FEW030 04/M11 Q1014 RMK     1CU030 A2996=,
20180130_030000.003,0,RJTC,,,,0,20180130030000,-1,-1,-1,-1,90,-1,7,-1,-1,40,140,,9999,0,0,2,FEW 30   SCT 70,1,5,-1,11,1014,RJTC 300300Z 09007KT 040V140 9999 FEW030 SCT070 05/M11 Q1014     RMK 1CU030 3AC070 A2995=,
20180130_040000.003,0,RJTC,,,,0,20180130040000,-1,-1,-1,-1,130,-1,6,-1,-1,60,170,,9999,0,0,2,FEW 30   SCT 60,1,6,-1,12,1013,RJTC 300400Z 13006KT 060V170 9999 FEW030 SCT060 06/M12 Q1013     RMK 1CU030 3SC060 A2994=,
20180130_050000.003,0,RJTC,,,,0,20180130050000,-1,-1,-1,-1,140,-1,3,-1,-1,50,210,,9999,0,0,2,FEW 30   SCT 60,1,6,-1,13,1014,RJTC 300500Z 14003KT 050V210 9999 FEW030 SCT060 06/M13 Q1014     RMK 1CU030 3SC060 A2995=,
20180130_060000.004,0,RJTC,,,,0,20180130060000,-1,-1,-1,-1,160,-1,6,-1,-1,120,210,,9999,0,0,2,FEW 30   SCT 60,1,7,-1,12,1015,RJTC 300600Z 16006KT 120V210 9999 FEW030 SCT060 07/M12 Q1015     RMK 1CU030 3SC060 A2997=,
20180130_070000.003,0,RJTC,,,,0,20180130070000,-1,-1,-1,-1,170,-1,7,-1,-1,-1,-1,,9999,0,0,2,FEW 30   BKN 60,1,5,-1,11,1015,RJTC 300700Z 17007KT 9999 FEW030 BKN060 05/M11 Q1015 RMK     1CU030 5SC060 A3000=,
20180130_080000.003,0,RJTC,,,,0,20180130080000,-1,-1,-1,-1,180,-1,6,-1,-1,-1,-1,,9999,0,0,2,FEW 30   BKN 50,1,5,-1,9,1016,RJTC 300800Z 18006KT 9999 FEW030 BKN050 05/M09 Q1016 RMK     1CU030 7SC050 A3002=,
20180130_090000.003,0,RJTC,,,,0,20180130090000,-1,-1,-1,-1,-1,-1,-1,-1,-1,-1,-1,,-1,0,0,0,,0,-1,0,-1,-1,RJTC 300900Z NIL=,
20180130_100000.003,0,RJTC,,,,0,20180130100000,-1,-1,-1,-1,-1,-1,-1,-1,-1,-1,-1,,-1,0,0,0,,0,-1,0,-1,-1,RJTC 301000Z NIL=,
20180130_110000.003,0,RJTC,,,,0,20180130110000,-1,-1,-1,-1,-1,-1,-1,-1,-1,-1,-1,,-1,0,0,0,,0,-1,0,-1,-1,RJTC 301100Z NIL=,
20180130_120000.003,0,RJTC,,,,0,20180130120000,-1,-1,-1,-1,-1,-1,-1,-1,-1,-1,-1,,-1,0,0,0,,0,-1,0,-1,-1,RJTC 301200Z NIL=,
20180130_130000.003,0,RJTC,,,,0,20180130130000,-1,-1,-1,-1,-1,-1,-1,-1,-1,-1,-1,,-1,0,0,0,,0,-1,0,-1,-1,RJTC 301300Z NIL=,
20180130_140000.003,0,RJTC,,,,0,20180130140000,-1,-1,-1,-1,-1,-1,-1,-1,-1,-1,-1,,-1,0,0,0,,0,-1,0,-1,-1,RJTC 301400Z NIL=,
20180130_150000.003,0,RJTC,,,,0,20180130150000,-1,-1,-1,-1,-1,-1,-1,-1,-1,-1,-1,,-1,0,0,0,,0,-1,0,-1,-1,RJTC 301500Z NIL=,
20180130_160000.003,0,RJTC,,,,0,20180130160000,-1,-1,-1,-1,-1,-1,-1,-1,-1,-1,-1,,-1,0,0,0,,0,-1,0,-1,-1,RJTC 301600Z NIL=,
20180130_170000.003,0,RJTC,,,,0,20180130170000,-1,-1,-1,-1,-1,-1,-1,-1,-1,-1,-1,,-1,0,0,0,,0,-1,0,-1,-1,RJTC 301700Z NIL=,
20180130_180000.003,0,RJTC,,,,0,20180130180000,-1,-1,-1,-1,-1,-1,-1,-1,-1,-1,-1,,-1,0,0,0,,0,-1,0,-1,-1,RJTC 301800Z NIL=,
20180130_190000.003,0,RJTC,,,,0,20180130190000,-1,-1,-1,-1,-1,-1,-1,-1,-1,-1,-1,,-1,0,0,0,,0,-1,0,-1,-1,RJTC 301900Z NIL=,
20180130_200000.003,0,RJTC,,,,0,20180130200000,-1,-1,-1,-1,-1,-1,-1,-1,-1,-1,-1,,-1,0,0,0,,0,-1,0,-1,-1,RJTC 302000Z NIL=,
20180130_210000.003,0,RJTC,,,,0,20180130210000,-1,-1,-1,-1,999,-1,1,-1,-1,-1,-1,,9999,0,0,1,FEW 30,-1,4,-1,8,1020,RJTC 302100Z VRB01KT 9999 FEW030 M04/M08 Q1020 RMK 1SC030     A3013=,
20180130_220000.003,0,RJTC,,,,0,20180130220000,-1,-1,-1,-1,999,-1,1,-1,-1,-1,-1,,9999,0,0,1,FEW 40,-1,5,-1,7,1021,RJTC 302200Z VRB01KT 9999 FEW040 M05/M07 Q1021 RMK 1SC040     A3015=,
20180130_230000.003,0,RJTC,,,,0,20180130230000,-1,-1,-1,-1,999,-1,1,-1,-1,-1,-1,,9999,0,0,1,FEW 30,-1,3,-1,7,1022,RJTC 302300Z VRB01KT 9999 FEW030 M03/M07 Q1022 RMK 1CU030     A3018=,
20180131_000000.003,0,RJTC,,,,0,20180131000000,-1,-1,-1,-1,0,-1,0,-1,-1,-1,-1,,9999,0,0,1,FEW 30,1,0,-1,6,1022,RJTC 310000Z 00000KT 9999 FEW030 00/M06 Q1022 RMK 1CU030     A3019=,
20180131_010000.003,0,RJTC,,,,0,20180131010000,-1,-1,-1,-1,999,-1,1,-1,-1,-1,-1,,9999,0,0,1,FEW 30,1,3,-1,8,1022,RJTC 310100Z VRB01KT 9999 FEW030 03/M08 Q1022 RMK 1CU030     A3019=,
20180131_020000.003,0,RJTC,,,,0,20180131020000,-1,-1,-1,-1,999,-1,1,-1,-1,-1,-1,,9999,0,0,2,FEW 30   SCT 230,1,5,-1,9,1021,RJTC 310200Z VRB01KT 9999 FEW030 SCT230 05/M09 Q1021 RMK     1CU030 3CI230 A3017=,
20180131_030000.003,0,RJTC,,,,0,20180131030000,-1,-1,-1,-1,999,-1,2,-1,-1,-1,-1,,9999,0,0,2,FEW 30   SCT 230,1,6,-1,8,1020,RJTC 310300Z VRB02KT 9999 FEW030 SCT230 06/M08 Q1020 RMK     1CU030 3CI230 A3014=,
20180131_040000.003,0,RJTC,,,,0,20180131040000,-1,-1,-1,-1,170,-1,5,-1,-1,80,230,,9999,0,0,2,FEW 30   BKN 230,1,8,-1,8,1020,RJTC 310400Z 17005KT 080V230 9999 FEW030 BKN230 08/M08 Q1020     RMK 1CU030 5CI230 A3012=,
20180131_050000.003,0,RJTC,,,,0,20180131050000,-1,-1,-1,-1,999,-1,3,-1,-1,-1,-1,,9999,0,0,2,FEW 30   BKN 230,1,8,-1,10,1019,RJTC 310500Z VRB03KT 9999 FEW030 BKN230 08/M10 Q1019 RMK     1CU030 7CI230 A3011=,
20180131_060000.003,0,RJTC,,,,0,20180131060000,-1,-1,-1,-1,60,-1,3,-1,-1,330,140,,9999,0,0,2,FEW 30   BKN 230,1,8,-1,10,1020,RJTC 310600Z 06003KT 330V140 9999 FEW030 BKN230 08/M10 Q1020     RMK 1CU030 7CI230 A3012=,
20180131_070000.004,0,RJTC,,,,0,20180131070000,-1,-1,-1,-1,70,-1,4,-1,-1,40,110,,9999,0,0,2,FEW 30   BKN 230,1,8,-1,9,1020,RJTC 310700Z 07004KT 040V110 9999 FEW030 BKN230 08/M09 Q1020     RMK 1CU030 7CI230 A3014=,
20180131_080000.004,0,RJTC,,,,0,20180131080000,-1,-1,-1,-1,110,-1,3,-1,-1,80,150,,9999,0,0,2,FEW 30   BKN 230,1,7,-1,8,1020,RJTC 310800Z 11003KT 080V150 9999 FEW030 BKN230 07/M08 Q1020     RMK 1CU030 7CI230 A3013=,
20180131_090000.003,0,RJTC,,,,0,20180131090000,-1,-1,-1,-1,999,-1,2,-1,-1,-1,-1,,9999,0,0,2,FEW 30   BKN 230,1,4,-1,6,1021,RJTC 310900Z VRB02KT 9999 FEW030 BKN230 04/M06 Q1021 RMK     1CU030 7CI230 A3015=,
20180131_100000.003,0,RJTC,,,,0,20180131100000,-1,-1,-1,-1,999,-1,2,-1,-1,-1,-1,,9999,0,0,2,FEW 30   BKN 230,1,2,-1,6,1021,RJTC 311000Z VRB02KT 9999 FEW030 BKN230 02/M06 Q1021 RMK     1CU030 6CI230 A3017=,
20180131_110000.003,0,RJTC,,,,0,20180131110000,-1,-1,-1,-1,-1,-1,-1,-1,-1,-1,-1,,-1,0,0,0,,0,-1,0,-1,-1,RJTC 311100Z NIL=,
20180131_120000.003,0,RJTC,,,,0,20180131120000,-1,-1,-1,-1,-1,-1,-1,-1,-1,-1,-1,,-1,0,0,0,,0,-1,0,-1,-1,RJTC 311200Z NIL=,
20180131_130000.004,0,RJTC,,,,0,20180131130000,-1,-1,-1,-1,-1,-1,-1,-1,-1,-1,-1,,-1,0,0,0,,0,-1,0,-1,-1,RJTC 311300Z NIL=,
20180131_140000.003,0,RJTC,,,,0,20180131140000,-1,-1,-1,-1,-1,-1,-1,-1,-1,-1,-1,,-1,0,0,0,,0,-1,0,-1,-1,RJTC 311400Z NIL=,
20180131_150000.003,0,RJTC,,,,0,20180131150000,-1,-1,-1,-1,-1,-1,-1,-1,-1,-1,-1,,-1,0,0,0,,0,-1,0,-1,-1,RJTC 311500Z NIL=,
20180131_160000.003,0,RJTC,,,,0,20180131160000,-1,-1,-1,-1,-1,-1,-1,-1,-1,-1,-1,,-1,0,0,0,,0,-1,0,-1,-1,RJTC 311600Z NIL=,
20180131_170000.003,0,RJTC,,,,0,20180131170000,-1,-1,-1,-1,-1,-1,-1,-1,-1,-1,-1,,-1,0,0,0,,0,-1,0,-1,-1,RJTC 311700Z NIL=,
20180131_180000.003,0,RJTC,,,,0,20180131180000,-1,-1,-1,-1,-1,-1,-1,-1,-1,-1,-1,,-1,0,0,0,,0,-1,0,-1,-1,RJTC 311800Z NIL=,
20180131_190000.004,0,RJTC,,,,0,20180131190000,-1,-1,-1,-1,-1,-1,-1,-1,-1,-1,-1,,-1,0,0,0,,0,-1,0,-1,-1,RJTC 311900Z NIL=,
20180131_200000.004,0,RJTC,,,,0,20180131200000,-1,-1,-1,-1,-1,-1,-1,-1,-1,-1,-1,,-1,0,0,0,,0,-1,0,-1,-1,RJTC 312000Z NIL=,
20180131_210000.003,0,RJTC,,,,0,20180131210000,-1,-1,-1,-1,0,-1,0,-1,-1,-1,-1,,9999,0,0,3,FEW 30   SCT 50   BKN 120,-1,2,-1,6,1023,RJTC 312100Z 00000KT 9999 FEW030 SCT050 BKN120 M02/M06 Q1023     RMK 1CU030 3SC050 6AC120 A3021=,
20180131_220000.003,0,RJTC,,,,0,20180131220000,-1,-1,-1,-1,0,-1,0,-1,-1,-1,-1,,9999,0,0,2,FEW 30   SCT 50,-1,2,-1,6,1024,RJTC 312200Z 00000KT 9999 FEW030 SCT050 M02/M06 Q1024 RMK     1CU030 4SC050 A3023=,
20180131_230000.003,0,RJTC,,,,0,20180131230000,-1,-1,-1,-1,999,-1,1,-1,-1,-1,-1,,9999,0,0,2,FEW 30   BKN 200,-1,0,-1,5,1024,RJTC 312300Z VRB01KT 9999 FEW030 BKN200 M00/M05 Q1024 RMK     1CU030 5CI200 A3025=,
20180201_000000.004,0,RJTC,,,,0,20180201000000,-1,-1,-1,-1,320,-1,3,-1,-1,280,360,,9999,0,0,3,FEW 25   BKN 40   BKN 200,1,4,-1,5,1025,RJTC 010000Z 32003KT 280V360 9999 FEW025 BKN040 BKN200 04/M05     Q1025 RMK 2CU025 5SC040 5CI200 A3028=,
20180201_010000.003,0,RJTC,,,,0,20180201010000,-1,-1,-1,-1,30,-1,4,-1,-1,330,90,,9999,0,0,3,SCT 25   BKN 35   BKN 230,1,5,-1,4,1026,RJTC 010100Z 03004KT 330V090 9999 SCT025 BKN035 BKN230 05/M04     Q1026 RMK 3CU025 5SC035 6CI230 A3029=,
20180201_020000.003,0,RJTC,,,,0,20180201020000,-1,-1,-1,-1,60,-1,6,-1,-1,30,110,,9999,0,0,3,FEW 20   BKN 30   BKN 230,1,6,-1,3,1025,RJTC 010200Z 06006KT 030V110 9999 FEW020 BKN030 BKN230 06/M03     Q1025 RMK 1CU020 5SC030 6CI230 A3028=,
20180201_030000.004,0,RJTC,,,,0,20180201030000,-1,-1,-1,-1,60,-1,5,-1,-1,10,120,,9999,0,0,3,FEW 20   BKN 30   BKN 200,1,6,-1,3,1025,RJTC 010300Z 06005KT 010V120 9999 FEW020 BKN030 BKN200 06/M03     Q1025 RMK 1CU020 5SC030 7CI200 A3026=,
20180201_040000.004,0,RJTC,,,,0,20180201040000,-1,-1,-1,-1,50,-1,6,-1,-1,10,100,,9999,0,1,2,BKN 25   BKN 50,1,5,-1,2,1024,RJTC 010400Z 05006KT 010V100 9999 -RA BKN025 BKN050 05/M02     Q1024 RMK 5SC025 7SC050 A3025=,- RA
20180201_050000.003,0,RJTC,,,,0,20180201050000,-1,-1,-1,-1,30,-1,6,-1,-1,-1,-1,,9999,0,1,2,BKN 20   BKN 30,1,3,-1,1,1024,RJTC 010500Z 03006KT 9999 -RA BKN020 BKN030 03/M01 Q1024 RMK     6SC020 7SC030 A3025=,- RA
20180201_060000.003,0,RJTC,,,,0,20180201060000,-1,-1,-1,-1,40,-1,7,-1,-1,-1,-1,,9000,0,1,3,FEW 10   SCT 15   BKN 20,1,3,-1,0,1024,RJTC 010600Z 04007KT 9000 -RA FEW010 SCT015 BKN020 03/M00     Q1024 RMK 2SC010 4SC015 7SC020 A3026=,- RA
20180201_070000.003,0,RJTC,,,,0,20180201070000,-1,-1,-1,-1,10,-1,6,-1,-1,-1,-1,,9000,0,1,3,FEW 6   BKN 9   BKN 15,1,2,-1,0,1024,RJTC 010700Z 01006KT 9000 -RA FEW006 BKN009 BKN015 02/M00     Q1024 RMK 2ST006 5ST009 7SC015 A3026=,- RA
20180201_080000.003,0,RJTC,,,,0,20180201080000,-1,-1,-1,-1,360,-1,4,-1,-1,-1,-1,,5000,0,2,3,FEW 3   BKN 8   BKN 18,1,1,-1,1,1025,RJTC 010800Z 36004KT 5000 -SN BR FEW003 BKN008 BKN018 01/M01     Q1025 RMK 2ST003 6ST008 7SC018 A3028=,- SN; BR
20180201_090000.003,0,RJTC,,,,0,20180201090000,-1,-1,-1,-1,-1,-1,-1,-1,-1,-1,-1,,-1,0,0,0,,0,-1,0,-1,-1,RJTC 010900Z NIL=,
20180201_100000.003,0,RJTC,,,,0,20180201100000,-1,-1,-1,-1,-1,-1,-1,-1,-1,-1,-1,,-1,0,0,0,,0,-1,0,-1,-1,RJTC 011000Z NIL=,
20180201_110000.003,0,RJTC,,,,0,20180201110000,-1,-1,-1,-1,-1,-1,-1,-1,-1,-1,-1,,-1,0,0,0,,0,-1,0,-1,-1,RJTC 011100Z NIL=,
20180201_120000.003,0,RJTC,,,,0,20180201120000,-1,-1,-1,-1,-1,-1,-1,-1,-1,-1,-1,,-1,0,0,0,,0,-1,0,-1,-1,RJTC 011200Z NIL=,
20180201_130000.003,0,RJTC,,,,0,20180201130000,-1,-1,-1,-1,-1,-1,-1,-1,-1,-1,-1,,-1,0,0,0,,0,-1,0,-1,-1,RJTC 011300Z NIL=,
20180201_140000.003,0,RJTC,,,,0,20180201140000,-1,-1,-1,-1,-1,-1,-1,-1,-1,-1,-1,,-1,0,0,0,,0,-1,0,-1,-1,RJTC 011400Z NIL=,
20180201_150000.003,0,RJTC,,,,0,20180201150000,-1,-1,-1,-1,-1,-1,-1,-1,-1,-1,-1,,-1,0,0,0,,0,-1,0,-1,-1,RJTC 011500Z NIL=,
20180201_160000.003,0,RJTC,,,,0,20180201160000,-1,-1,-1,-1,-1,-1,-1,-1,-1,-1,-1,,-1,0,0,0,,0,-1,0,-1,-1,RJTC 011600Z NIL=,
20180201_170000.003,0,RJTC,,,,0,20180201170000,-1,-1,-1,-1,-1,-1,-1,-1,-1,-1,-1,,-1,0,0,0,,0,-1,0,-1,-1,RJTC 011700Z NIL=,
20180201_180000.003,0,RJTC,,,,0,20180201180000,-1,-1,-1,-1,-1,-1,-1,-1,-1,-1,-1,,-1,0,0,0,,0,-1,0,-1,-1,RJTC 011800Z NIL=,
20180201_190000.004,0,RJTC,,,,0,20180201190000,-1,-1,-1,-1,-1,-1,-1,-1,-1,-1,-1,,-1,0,0,0,,0,-1,0,-1,-1,RJTC 011900Z NIL=,
20180201_200000.004,0,RJTC,,,,0,20180201200000,-1,-1,-1,-1,-1,-1,-1,-1,-1,-1,-1,,-1,0,0,0,,0,-1,0,-1,-1,RJTC 012000Z NIL=,
20180201_210000.003,0,RJTC,,,,0,20180201210000,-1,-1,-1,-1,350,-1,6,-1,-1,-1,-1,,2000,0,2,3,SCT 5   BKN 7   BKN 12,1,0,-1,1,1026,RJTC 012100Z 35006KT 2000 -SN BR SCT005 BKN007 BKN012 00/M01     Q1026 RMK 3ST005 6ST007 7SC012 A3030=,- SN; BR
20180201_220000.003,0,RJTC,,,,0,20180201220000,-1,-1,-1,-1,10,-1,7,-1,-1,-1,-1,,1000,1,2,3,SCT 3   BKN 5   BKN 7,1,0,-1,1,1026,RJTC 012200Z 01007KT 1000 R01/1800N -SN BR SCT003 BKN005     BKN007 00/M01 Q1026 RMK 3ST003 5ST005 7ST007 A3029=,- SN; BR
20180201_230000.004,0,RJTC,,,,0,20180201230000,-1,-1,-1,-1,10,-1,8,-1,-1,-1,-1,,3500,0,2,3,FEW 5   BKN 8   BKN 12,1,0,-1,1,1026,RJTC 012300Z 01008KT 3500 -SN BR FEW005 BKN008 BKN012 00/M01     Q1026 RMK 1ST005 5ST008 7SC012 A3031=,- SN; BR
20180202_000000.003,0,RJTC,,,,0,20180202000000,-1,-1,-1,-1,10,-1,7,-1,-1,-1,-1,,2000,0,2,3,SCT 5   BKN 7   BKN 10,1,1,-1,1,1026,RJTC 020000Z 01007KT 2000 -SN BR SCT005 BKN007 BKN010 01/M01     Q1026 RMK 3ST005 6ST007 7ST010 A3031=,- SN; BR
20180202_010000.003,0,RJTC,,,,0,20180202010000,-1,-1,-1,-1,360,-1,7,-1,-1,-1,-1,,2500,0,2,3,FEW 5   BKN 7   BKN 10,1,1,-1,1,1026,RJTC 020100Z 36007KT 2500 -SN BR FEW005 BKN007 BKN010 01/M01     Q1026 RMK 2ST005 6ST007 7ST010 A3030=,- SN; BR
20180202_020000.003,0,RJTC,,,,0,20180202020000,-1,-1,-1,-1,350,-1,8,-1,-1,-1,-1,,7000,0,1,3,FEW 5   BKN 7   BKN 10,1,1,-1,1,1025,RJTC 020200Z 35008KT 7000 -SN FEW005 BKN007 BKN010 01/M01     Q1025 RMK 1ST005 6ST007 7ST010 A3028=,- SN
20180202_030000.003,0,RJTC,,,,0,20180202030000,-1,-1,-1,-1,350,-1,7,-1,-1,-1,-1,,9999,0,1,3,FEW 7   BKN 10   BKN 30,1,2,-1,1,1024,RJTC 020300Z 35007KT 9999 -SN FEW007 BKN010 BKN030 02/M01     Q1024 RMK 1ST007 5ST010 7SC030 A3026=,- SN
20180202_040000.003,0,RJTC,,,,0,20180202040000,-1,-1,-1,-1,350,-1,6,-1,-1,-1,-1,,9999,0,1,3,FEW 10   BKN 20   BKN 30,1,3,-1,1,1024,RJTC 020400Z 35006KT 9999 -SNRA FEW010 BKN020 BKN030 03/M01     Q1024 RMK 1ST010 6SC020 7SC030 A3023=,- SN RA
20180202_050000.002,0,RJTC,,,,0,20180202050000,-1,-1,-1,-1,360,-1,8,-1,-1,-1,-1,,9999,0,0,3,FEW 10   BKN 20   BKN 30,1,3,-1,2,1023,RJTC 020500Z 36008KT 9999 FEW010 BKN020 BKN030 03/M02 Q1023     RMK 1ST010 6SC020 7SC030 A3022=,
20180202_060000.003,0,RJTC,,,,0,20180202060000,-1,-1,-1,-1,10,-1,7,-1,-1,-1,-1,,9999,0,0,3,FEW 10   BKN 30   BKN 40,1,3,-1,2,1024,RJTC 020600Z 01007KT 9999 FEW010 BKN030 BKN040 03/M02 Q1024     RMK 1ST010 5SC030 7SC040 A3023=,
20180202_070000.003,0,RJTC,,,,0,20180202070000,-1,-1,-1,-1,360,-1,6,-1,-1,-1,-1,,9999,0,0,3,FEW 10   BKN 40   BKN 60,1,3,-1,2,1023,RJTC 020700Z 36006KT 9999 FEW010 BKN040 BKN060 03/M02 Q1023     RMK 1SC010 5SC040 6SC060 A3023=,
20180202_080000.003,0,RJTC,,,,0,20180202080000,-1,-1,-1,-1,350,-1,3,-1,-1,-1,-1,,9999,0,0,3,FEW 10   SCT 40   BKN 70,1,2,-1,1,1023,RJTC 020800Z 35003KT 9999 FEW010 SCT040 BKN070 02/M01 Q1023     RMK 1SC010 4SC040 7AC070 A3022=,
20180202_090000.003,0,RJTC,,,,0,20180202090000,-1,-1,-1,-1,-1,-1,-1,-1,-1,-1,-1,,-1,0,0,0,,0,-1,0,-1,-1,RJTC 020900Z NIL=,
20180202_100000.004,0,RJTC,,,,0,20180202100000,-1,-1,-1,-1,-1,-1,-1,-1,-1,-1,-1,,-1,0,0,0,,0,-1,0,-1,-1,RJTC 021000Z NIL=,
20180202_110000.003,0,RJTC,,,,0,20180202110000,-1,-1,-1,-1,-1,-1,-1,-1,-1,-1,-1,,-1,0,0,0,,0,-1,0,-1,-1,RJTC 021100Z NIL=,
20180202_120000.003,0,RJTC,,,,0,20180202120000,-1,-1,-1,-1,-1,-1,-1,-1,-1,-1,-1,,-1,0,0,0,,0,-1,0,-1,-1,RJTC 021200Z NIL=,
20180202_130000.004,0,RJTC,,,,0,20180202130000,-1,-1,-1,-1,-1,-1,-1,-1,-1,-1,-1,,-1,0,0,0,,0,-1,0,-1,-1,RJTC 021300Z NIL=,
20180202_140000.003,0,RJTC,,,,0,20180202140000,-1,-1,-1,-1,-1,-1,-1,-1,-1,-1,-1,,-1,0,0,0,,0,-1,0,-1,-1,RJTC 021400Z NIL=,
20180202_150000.003,0,RJTC,,,,0,20180202150000,-1,-1,-1,-1,-1,-1,-1,-1,-1,-1,-1,,-1,0,0,0,,0,-1,0,-1,-1,RJTC 021500Z NIL=,
20180202_160000.003,0,RJTC,,,,0,20180202160000,-1,-1,-1,-1,-1,-1,-1,-1,-1,-1,-1,,-1,0,0,0,,0,-1,0,-1,-1,RJTC 021600Z NIL=,
20180202_170000.003,0,RJTC,,,,0,20180202170000,-1,-1,-1,-1,-1,-1,-1,-1,-1,-1,-1,,-1,0,0,0,,0,-1,0,-1,-1,RJTC 021700Z NIL=,
20180202_180000.004,0,RJTC,,,,0,20180202180000,-1,-1,-1,-1,-1,-1,-1,-1,-1,-1,-1,,-1,0,0,0,,0,-1,0,-1,-1,RJTC 021800Z NIL=,
20180202_190000.004,0,RJTC,,,,0,20180202190000,-1,-1,-1,-1,-1,-1,-1,-1,-1,-1,-1,,-1,0,0,0,,0,-1,0,-1,-1,RJTC 021900Z NIL=,
20180202_200000.004,0,RJTC,,,,0,20180202200000,-1,-1,-1,-1,-1,-1,-1,-1,-1,-1,-1,,-1,0,0,0,,0,-1,0,-1,-1,RJTC 022000Z NIL=,
20180202_210000.003,0,RJTC,,,,0,20180202210000,-1,-1,-1,-1,-1,-1,-1,-1,-1,-1,-1,,-1,0,0,0,,0,-1,0,-1,-1,RJTC 022100Z NIL=,
20180202_220000.003,0,RJTC,,,,0,20180202220000,-1,-1,-1,-1,999,-1,2,-1,-1,-1,-1,,9999,0,0,3,FEW 20   SCT 40   BKN 230,-1,0,-1,2,1017,RJTC 022200Z VRB02KT 9999 FEW020 SCT040 BKN230 M00/M02 Q1017     RMK 1SC020 3SC040 6CI230 A3005=,
20180202_230000.004,0,RJTC,,,,0,20180202230000,-1,-1,-1,-1,0,-1,0,-1,-1,-1,-1,,9999,0,0,2,FEW 30   BKN 230,1,1,-1,1,1017,RJTC 022300Z 00000KT 9999 FEW030 BKN230 01/M01 Q1017 RMK     1CU030 7CI230 A3005=,
20180203_000000.003,0,RJTC,,,,0,20180203000000,-1,-1,-1,-1,999,-1,1,-1,-1,-1,-1,,9999,0,0,2,FEW 30   BKN 230,1,3,-1,1,1017,RJTC 030000Z VRB01KT 9999 FEW030 BKN230 03/M01 Q1017 RMK     1CU030 6CI230 A3005=,
20180203_010000.004,0,RJTC,,,,0,20180203010000,-1,-1,-1,-1,999,-1,2,-1,-1,-1,-1,,9999,0,0,2,FEW 30   BKN 230,1,4,-1,3,1017,RJTC 030100Z VRB02KT 9999 FEW030 BKN230 04/M03 Q1017 RMK     1CU030 6CI230 A3003=,
20180203_020000.003,0,RJTC,,,,0,20180203020000,-1,-1,-1,-1,999,-1,1,-1,-1,-1,-1,,9999,0,0,2,FEW 30   BKN 230,1,5,-1,2,1016,RJTC 030200Z VRB01KT 9999 FEW030 BKN230 05/M02 Q1016 RMK     1CU030 7CI230 A3000=,
20180203_030000.003,0,RJTC,,,,0,20180203030000,-1,-1,-1,-1,999,-1,1,-1,-1,-1,-1,,9999,0,0,3,FEW 30   SCT 80   BKN 230,1,6,-1,3,1014,RJTC 030300Z VRB01KT 9999 FEW030 SCT080 BKN230 06/M03 Q1014     RMK 1CU030 3AC080 7CI230 A2996=,
20180203_040000.003,0,RJTC,,,,0,20180203040000,-1,-1,-1,-1,80,-1,5,-1,-1,20,110,,9999,0,0,2,FEW 30   BKN 230,1,6,-1,2,1013,RJTC 030400Z 08005KT 020V110 9999 FEW030 BKN230 06/M02 Q1013     RMK 1CU030 7CI230 A2992=,
20180203_050000.003,0,RJTC,,,,0,20180203050000,-1,-1,-1,-1,40,-1,5,-1,-1,360,100,,9999,0,0,2,SCT 30   BKN 230,1,7,-1,1,1012,RJTC 030500Z 04005KT 360V100 9999 SCT030 BKN230 07/M01 Q1012     RMK 3CU030 7CI230 A2990=,
20180203_060000.003,0,RJTC,,,,0,20180203060000,-1,-1,-1,-1,30,-1,5,-1,-1,350,80,,9999,0,0,2,SCT 30   BKN 230,1,7,-1,1,1013,RJTC 030600Z 03005KT 350V080 9999 SCT030 BKN230 07/M01 Q1013     RMK 3CU030 7CI230 A2991=,
20180203_070000.004,0,RJTC,,,,0,20180203070000,-1,-1,-1,-1,40,-1,4,-1,-1,360,80,,9999,0,0,2,FEW 30   BKN 230,1,6,-1,2,1012,RJTC 030700Z 04004KT 360V080 9999 FEW030 BKN230 06/M02 Q1012     RMK 1CU030 6CI230 A2991=,
20180203_080000.003,0,RJTC,,,,0,20180203080000,-1,-1,-1,-1,40,-1,3,-1,-1,-1,-1,,9999,0,0,2,FEW 30   SCT 230,1,6,-1,2,1013,RJTC 030800Z 04003KT 9999 FEW030 SCT230 06/M02 Q1013 RMK     1CU030 3CI230 A2991=,
20180203_090000.003,0,RJTC,,,,0,20180203090000,-1,-1,-1,-1,-1,-1,-1,-1,-1,-1,-1,,-1,0,0,0,,0,-1,0,-1,-1,RJTC 030900Z NIL=,
20180203_100000.003,0,RJTC,,,,0,20180203100000,-1,-1,-1,-1,-1,-1,-1,-1,-1,-1,-1,,-1,0,0,0,,0,-1,0,-1,-1,RJTC 031000Z NIL=,
20180203_110000.003,0,RJTC,,,,0,20180203110000,-1,-1,-1,-1,-1,-1,-1,-1,-1,-1,-1,,-1,0,0,0,,0,-1,0,-1,-1,RJTC 031100Z NIL=,
20180203_120000.003,0,RJTC,,,,0,20180203120000,-1,-1,-1,-1,-1,-1,-1,-1,-1,-1,-1,,-1,0,0,0,,0,-1,0,-1,-1,RJTC 031200Z NIL=,
20180203_130000.003,0,RJTC,,,,0,20180203130000,-1,-1,-1,-1,-1,-1,-1,-1,-1,-1,-1,,-1,0,0,0,,0,-1,0,-1,-1,RJTC 031300Z NIL=,
20180203_140000.003,0,RJTC,,,,0,20180203140000,-1,-1,-1,-1,-1,-1,-1,-1,-1,-1,-1,,-1,0,0,0,,0,-1,0,-1,-1,RJTC 031400Z NIL=,
20180203_150000.003,0,RJTC,,,,0,20180203150000,-1,-1,-1,-1,-1,-1,-1,-1,-1,-1,-1,,-1,0,0,0,,0,-1,0,-1,-1,RJTC 031500Z NIL=,
20180203_160000.003,0,RJTC,,,,0,20180203160000,-1,-1,-1,-1,-1,-1,-1,-1,-1,-1,-1,,-1,0,0,0,,0,-1,0,-1,-1,RJTC 031600Z NIL=,
20180203_170000.003,0,RJTC,,,,0,20180203170000,-1,-1,-1,-1,-1,-1,-1,-1,-1,-1,-1,,-1,0,0,0,,0,-1,0,-1,-1,RJTC 031700Z NIL=,
20180203_180000.004,0,RJTC,,,,0,20180203180000,-1,-1,-1,-1,-1,-1,-1,-1,-1,-1,-1,,-1,0,0,0,,0,-1,0,-1,-1,RJTC 031800Z NIL=,
20180203_190000.003,0,RJTC,,,,0,20180203190000,-1,-1,-1,-1,-1,-1,-1,-1,-1,-1,-1,,-1,0,0,0,,0,-1,0,-1,-1,RJTC 031900Z NIL=,
20180203_200000.003,0,RJTC,,,,0,20180203200000,-1,-1,-1,-1,-1,-1,-1,-1,-1,-1,-1,,-1,0,0,0,,0,-1,0,-1,-1,RJTC 032000Z NIL=,
20180203_210000.003,0,RJTC,,,,0,20180203210000,-1,-1,-1,-1,-1,-1,-1,-1,-1,-1,-1,,-1,0,0,0,,0,-1,0,-1,-1,RJTC 032100Z NIL=,
20180203_220000.003,0,RJTC,,,,0,20180203220000,-1,-1,-1,-1,999,-1,1,-1,-1,-1,-1,,9999,0,0,3,FEW 20   SCT 50   BKN 70,1,1,-1,1,1011,RJTC 032200Z VRB01KT 9999 FEW020 SCT050 BKN070 01/M01 Q1011     RMK 1CU020 3SC050 6AC070 A2986=,
20180203_230000.003,0,RJTC,,,,0,20180203230000,-1,-1,-1,-1,0,-1,0,-1,-1,-1,-1,,9999,0,0,2,FEW 20   BKN 60,1,2,1,0,1011,RJTC 032300Z 00000KT 9999 FEW020 BKN060 02/00 Q1011 RMK 1CU020     6SC060 A2986=,
20180204_000000.003,0,RJTC,,,,0,20180204000000,-1,-1,-1,-1,999,-1,1,-1,-1,-1,-1,,9999,0,0,2,FEW 30   BKN 60,1,3,-1,1,1011,RJTC 040000Z VRB01KT 9999 FEW030 BKN060 03/M01 Q1011 RMK     1CU030 6SC060 A2986=,
20180204_010000.003,0,RJTC,,,,0,20180204010000,-1,-1,-1,-1,180,-1,4,-1,-1,-1,-1,,9999,0,0,2,FEW 30   BKN 60,1,5,-1,1,1010,RJTC 040100Z 18004KT 9999 FEW030 BKN060 05/M01 Q1010 RMK     1CU030 6SC060 A2984=,
20180204_020000.003,0,RJTC,,,,0,20180204020000,-1,-1,-1,-1,180,-1,5,-1,-1,110,220,,9999,0,0,2,FEW 20   BKN 50,1,6,-1,1,1009,RJTC 040200Z 18005KT 110V220 9999 FEW020 BKN050 06/M01 Q1009     RMK 1CU020 5SC050 A2981=,
20180204_030000.003,0,RJTC,,,,0,20180204030000,-1,-1,-1,-1,170,-1,5,-1,-1,140,200,,9999,0,0,2,FEW 20   SCT 50,1,8,-1,3,1008,RJTC 040300Z 17005KT 140V200 9999 FEW020 SCT050 08/M03 Q1008     RMK 1CU020 3SC050 A2976=,
20180204_040000.003,0,RJTC,,,,0,20180204040000,-1,-1,-1,-1,160,-1,8,-1,-1,130,210,,9999,0,0,2,FEW 30   SCT 50,1,8,-1,5,1006,RJTC 040400Z 16008KT 130V210 9999 FEW030 SCT050 08/M05 Q1006     RMK 1CU030 3SC050 A2972=,
20180204_050000.003,0,RJTC,,,,0,20180204050000,-1,-1,-1,-1,210,-1,9,-1,-1,170,240,,9999,0,0,2,FEW 30   SCT 50,1,10,-1,6,1005,RJTC 040500Z 21009KT 170V240 9999 FEW030 SCT050 10/M06 Q1005     RMK 1CU030 3SC050 A2969=,
20180204_060000.003,0,RJTC,,,,0,20180204060000,-1,-1,-1,-1,10,-1,10,-1,-1,-1,-1,,9999,0,0,2,FEW 30   SCT 50,1,7,-1,3,1005,RJTC 040600Z 01010KT 9999 FEW030 SCT050 07/M03 Q1005 RMK     1CU030 3SC050 A2970=,
20180204_070000.003,0,RJTC,,,,0,20180204070000,-1,-1,-1,-1,350,-1,9,-1,-1,-1,-1,,9999,0,0,2,FEW 30   SCT 50,1,6,-1,4,1006,RJTC 040700Z 35009KT 9999 FEW030 SCT050 06/M04 Q1006 RMK     1CU030 4SC050 A2972=,
20180204_080000.003,0,RJTC,,,,0,20180204080000,-1,-1,-1,-1,30,-1,3,-1,-1,360,60,,9999,0,0,3,FEW 20   SCT 30   BKN 50,1,6,-1,5,1006,RJTC 040800Z 03003KT 360V060 9999 FEW020 SCT030 BKN050 06/M05     Q1006 RMK 1CU020 3CU030 6SC050 A2972=,
20180204_090000.003,0,RJTC,,,,0,20180204090000,-1,-1,-1,-1,-1,-1,-1,-1,-1,-1,-1,,-1,0,0,0,,0,-1,0,-1,-1,RJTC 040900Z NIL=,
20180204_100000.003,0,RJTC,,,,0,20180204100000,-1,-1,-1,-1,-1,-1,-1,-1,-1,-1,-1,,-1,0,0,0,,0,-1,0,-1,-1,RJTC 041000Z NIL=,
20180204_110000.004,0,RJTC,,,,0,20180204110000,-1,-1,-1,-1,-1,-1,-1,-1,-1,-1,-1,,-1,0,0,0,,0,-1,0,-1,-1,RJTC 041100Z NIL=,
20180204_120000.003,0,RJTC,,,,0,20180204120000,-1,-1,-1,-1,-1,-1,-1,-1,-1,-1,-1,,-1,0,0,0,,0,-1,0,-1,-1,RJTC 041200Z NIL=,
20180204_130000.003,0,RJTC,,,,0,20180204130000,-1,-1,-1,-1,-1,-1,-1,-1,-1,-1,-1,,-1,0,0,0,,0,-1,0,-1,-1,RJTC 041300Z NIL=,
20180204_140000.003,0,RJTC,,,,0,20180204140000,-1,-1,-1,-1,-1,-1,-1,-1,-1,-1,-1,,-1,0,0,0,,0,-1,0,-1,-1,RJTC 041400Z NIL=,
20180204_150000.003,0,RJTC,,,,0,20180204150000,-1,-1,-1,-1,-1,-1,-1,-1,-1,-1,-1,,-1,0,0,0,,0,-1,0,-1,-1,RJTC 041500Z NIL=,
20180204_160000.003,0,RJTC,,,,0,20180204160000,-1,-1,-1,-1,-1,-1,-1,-1,-1,-1,-1,,-1,0,0,0,,0,-1,0,-1,-1,RJTC 041600Z NIL=,
20180204_170000.003,0,RJTC,,,,0,20180204170000,-1,-1,-1,-1,-1,-1,-1,-1,-1,-1,-1,,-1,0,0,0,,0,-1,0,-1,-1,RJTC 041700Z NIL=,
20180204_180000.004,0,RJTC,,,,0,20180204180000,-1,-1,-1,-1,-1,-1,-1,-1,-1,-1,-1,,-1,0,0,0,,0,-1,0,-1,-1,RJTC 041800Z NIL=,
20180204_190000.003,0,RJTC,,,,0,20180204190000,-1,-1,-1,-1,-1,-1,-1,-1,-1,-1,-1,,-1,0,0,0,,0,-1,0,-1,-1,RJTC 041900Z NIL=,
20180204_200000.003,0,RJTC,,,,0,20180204200000,-1,-1,-1,-1,-1,-1,-1,-1,-1,-1,-1,,-1,0,0,0,,0,-1,0,-1,-1,RJTC 042000Z NIL=,
20180204_210000.003,0,RJTC,,,,0,20180204210000,-1,-1,-1,-1,0,-1,0,-1,-1,-1,-1,,9999,0,0,1,FEW 30,-1,4,-1,8,1011,RJTC 042100Z 00000KT 9999 FEW030 M04/M08 Q1011 RMK 1SC030     A2987=,
20180204_220000.003,0,RJTC,,,,0,20180204220000,-1,-1,-1,-1,999,-1,2,-1,-1,-1,-1,,9999,0,0,1,FEW 30,-1,4,-1,8,1012,RJTC 042200Z VRB02KT 9999 FEW030 M04/M08 Q1012 RMK 1SC030     A2989=,
20180204_230000.003,0,RJTC,,,,0,20180204230000,-1,-1,-1,-1,999,-1,1,-1,-1,-1,-1,,9999,0,0,1,FEW 30,-1,2,-1,7,1012,RJTC 042300Z VRB01KT 9999 FEW030 M02/M07 Q1012 RMK 2SC030     A2990=,
20180205_000000.004,0,RJTC,,,,0,20180205000000,-1,-1,-1,-1,0,-1,0,-1,-1,-1,-1,,9999,0,0,1,FEW 30,1,1,-1,7,1012,RJTC 050000Z 00000KT 9999 FEW030 01/M07 Q1012 RMK 2SC030     A2990=,
20180205_010000.003,0,RJTC,,,,0,20180205010000,-1,-1,-1,-1,80,-1,3,-1,-1,40,180,,9999,0,0,1,FEW 30,1,3,-1,9,1012,RJTC 050100Z 08003KT 040V180 9999 FEW030 03/M09 Q1012 RMK     2SC030 A2989=,
20180205_020000.003,0,RJTC,,,,0,20180205020000,-1,-1,-1,-1,130,-1,5,-1,-1,70,200,,9999,0,0,1,FEW 30,1,5,-1,10,1011,RJTC 050200Z 13005KT 070V200 9999 FEW030 05/M10 Q1011 RMK     2CU030 A2987=,
