20180101_000000.002,0,RJTI,,,,0,20180101000000,-1,-1,-1,-1,350,-1,4,-1,-1,270,80,,9999,0,0,1,FEW 20,1,6,-1,2,1012,RJTI 010000Z 35004KT 270V080 9999 FEW020 06/M02 Q1012 RMK     1CU020 A2990=,
20180101_010000.002,0,RJTI,,,,0,20180101010000,-1,-1,-1,-1,999,-1,3,-1,-1,-1,-1,CAVOK,-1,0,0,0,,1,8,-1,1,1012,RJTI 010100Z VRB03KT CAVOK 08/M01 Q1012 RMK A2990=,
20180101_020000.002,0,RJTI,,,,0,20180101020000,-1,-1,-1,-1,310,-1,5,-1,-1,250,20,CAVOK,-1,0,0,0,,1,10,-1,2,1011,RJTI 010200Z 31005KT 250V020 CAVOK 10/M02 Q1011 RMK A2988=,
20180101_030000.002,0,RJTI,,,,0,20180101030000,-1,-1,-1,-1,999,-1,4,-1,-1,-1,-1,,9999,0,0,1,FEW 30,1,12,-1,5,1011,RJTI 010300Z VRB04KT 9999 FEW030 12/M05 Q1011 RMK 1CU030     A2986=,
20180101_040000.002,0,RJTI,,,,0,20180101040000,-1,-1,-1,-1,320,-1,9,-1,-1,280,10,,9999,0,0,1,FEW 30,1,12,-1,7,1010,RJTI 010400Z 32009KT 280V010 9999 FEW030 12/M07 Q1010 RMK     1CU030 A2984=,
20180101_050000.002,0,RJTI,,,,0,20180101050000,-1,-1,-1,-1,320,-1,8,-1,-1,250,60,,9999,0,0,1,FEW 30,1,13,-1,8,1010,RJTI 010500Z 32008KT 250V060 9999 FEW030 13/M08 Q1010 RMK     1CU030 A2984=,
20180101_060000.002,0,RJTI,,,,0,20180101060000,-1,-1,-1,-1,999,-1,6,-1,-1,-1,-1,,9999,0,0,1,FEW 30,1,13,-1,7,1011,RJTI 010600Z VRB06KT 9999 FEW030 13/M07 Q1011 RMK 1CU030     A2985=,
20180101_070000.002,0,RJTI,,,,0,20180101070000,-1,-1,-1,-1,310,-1,7,-1,-1,270,10,,9999,0,0,1,FEW 30,1,12,-1,8,1011,RJTI 010700Z 31007KT 270V010 9999 FEW030 12/M08 Q1011 RMK     1CU030 A2987=,
20180101_233000.001,0,RJTI,,,,0,20180101230000,-1,-1,-1,-1,280,-1,7,-1,-1,230,320,,9999,0,0,1,FEW 30,1,7,-1,9,1016,RJTI 012330Z 28007KT 230V320 9999 FEW030 07/M09 Q1016 RMK     1CU030 A3003=,
20180102_000000.003,0,RJTI,,,,0,20180102000000,-1,-1,-1,-1,300,-1,13,-1,-1,210,340,,9999,0,0,1,FEW 30,1,7,-1,9,1017,RJTI 020000Z 30013KT 210V340 9999 FEW030 07/M09 Q1017 RMK     1CU030 A3003=,
20180102_010000.003,0,RJTI,,,,0,20180102010000,-1,-1,-1,-1,300,-1,13,-1,24,230,360,,9999,0,0,1,FEW 30,1,9,-1,9,1017,RJTI 020100Z 30013G24KT 230V360 9999 FEW030 09/M09 Q1017 RMK     1CU030 A3003=,
20180102_020000.002,0,RJTI,,,,0,20180102020000,-1,-1,-1,-1,300,-1,10,-1,20,230,340,,9999,0,0,1,FEW 30,1,9,-1,8,1016,RJTI 020200Z 30010G20KT 230V340 9999 FEW030 09/M08 Q1016 RMK     1CU030 A3000=,
20180102_030000.002,0,RJTI,,,,0,20180102030000,-1,-1,-1,-1,320,-1,8,-1,-1,270,20,,9999,0,0,1,FEW 30,1,10,-1,9,1014,RJTI 020300Z 32008KT 270V020 9999 FEW030 10/M09 Q1014 RMK     1CU030 A2997=,
20180102_040000.002,0,RJTI,,,,0,20180102040000,-1,-1,-1,-1,320,-1,7,-1,-1,230,10,,9999,0,0,1,FEW 30,1,10,-1,10,1013,RJTI 020400Z 32007KT 230V010 9999 FEW030 10/M10 Q1013 RMK     1CU030 A2993=,
20180102_050000.002,0,RJTI,,,,0,20180102050000,-1,-1,-1,-1,330,-1,6,-1,-1,270,70,CAVOK,-1,0,0,0,,1,11,-1,9,1013,RJTI 020500Z 33006KT 270V070 CAVOK 11/M09 Q1013 RMK A2992=,
20180102_060000.002,0,RJTI,,,,0,20180102060000,-1,-1,-1,-1,330,-1,7,-1,-1,260,70,,9999,0,0,1,FEW 30,1,10,-1,9,1013,RJTI 020600Z 33007KT 260V070 9999 FEW030 10/M09 Q1013 RMK     1CU030 A2993=,
20180102_070000.002,0,RJTI,,,,0,20180102070000,-1,-1,-1,-1,360,-1,5,-1,-1,290,50,,9999,0,0,1,FEW 30,1,10,-1,10,1013,RJTI 020700Z 36005KT 290V050 9999 FEW030 10/M10 Q1013 RMK     1CU030 A2993=,
20180102_233000.001,0,RJTI,,,,0,20180102230000,-1,-1,-1,-1,330,-1,9,-1,-1,290,360,,9999,0,0,1,FEW 30,1,4,-1,7,1013,RJTI 022330Z 33009KT 290V360 9999 FEW030 04/M07 Q1013 RMK     1CU030 A2992=,
20180103_000000.002,0,RJTI,,,,0,20180103000000,-1,-1,-1,-1,330,-1,11,-1,-1,250,20,,9999,0,0,1,FEW 30,1,5,-1,8,1013,RJTI 030000Z 33011KT 250V020 9999 FEW030 05/M08 Q1013 RMK     1CU030 A2993=,
20180103_010000.002,0,RJTI,,,,0,20180103010000,-1,-1,-1,-1,310,-1,14,-1,-1,260,350,,9999,0,0,1,FEW 30,1,6,-1,10,1013,RJTI 030100Z 31014KT 260V350 9999 FEW030 06/M10 Q1013 RMK     1CU030 A2993=,
20180103_020000.002,0,RJTI,,,,0,20180103020000,-1,-1,-1,-1,300,-1,20,-1,36,-1,-1,,9999,0,0,1,FEW 30,1,7,-1,14,1012,RJTI 030200Z 30020G36KT 9999 FEW030 07/M14 Q1012 RMK 1CU030     A2990=,
20180103_030000.003,0,RJTI,,,,0,20180103030000,-1,-1,-1,-1,310,-1,17,-1,28,280,350,,9999,0,0,1,FEW 30,1,7,-1,14,1011,RJTI 030300Z 31017G28KT 280V350 9999 FEW030 07/M14 Q1011 RMK     1CU030 A2988=,
20180103_040000.002,0,RJTI,,,,0,20180103040000,-1,-1,-1,-1,300,-1,18,-1,33,270,350,,9999,0,0,1,FEW 30,1,8,-1,14,1011,RJTI 030400Z 30018G33KT 270V350 9999 FEW030 08/M14 Q1011 RMK     1CU030 A2987=,
20180103_050000.002,0,RJTI,,,,0,20180103050000,-1,-1,-1,-1,300,-1,23,-1,37,-1,-1,,9999,0,0,1,FEW 30,1,8,-1,14,1011,RJTI 030500Z 30023G37KT 9999 FEW030 08/M14 Q1011 RMK 1CU030     A2986=,
20180103_060000.002,0,RJTI,,,,0,20180103060000,-1,-1,-1,-1,310,-1,16,-1,27,260,80,,9999,0,0,1,FEW 30,1,8,-1,13,1012,RJTI 030600Z 31016G27KT 260V080 9999 FEW030 08/M13 Q1012 RMK     1CU030 A2989=,
20180103_070000.002,0,RJTI,,,,0,20180103070000,-1,-1,-1,-1,310,-1,19,-1,31,250,30,,9999,0,0,1,FEW 30,1,7,-1,11,1012,RJTI 030700Z 31019G31KT 250V030 9999 FEW030 07/M11 Q1012 RMK     1CU030 A2991=,
20180103_233000.001,0,RJTI,,,,0,20180103230000,-1,-1,-1,-1,999,-1,3,-1,-1,-1,-1,,9999,0,0,1,FEW 30,1,5,-1,8,1018,RJTI 032330Z VRB03KT 9999 FEW030 05/M08 Q1018 RMK 1CU030     A3009=,
20180104_000000.002,0,RJTI,,,,0,20180104000000,-1,-1,-1,-1,360,-1,5,-1,-1,320,70,,9999,0,0,1,FEW 30,1,6,-1,8,1019,RJTI 040000Z 36005KT 320V070 9999 FEW030 06/M08 Q1019 RMK     1CU030 A3009=,
20180104_010000.002,0,RJTI,,,,0,20180104010000,-1,-1,-1,-1,320,-1,7,-1,-1,230,10,,9999,0,0,1,FEW 30,1,7,-1,11,1019,RJTI 040100Z 32007KT 230V010 9999 FEW030 07/M11 Q1019 RMK     1CU030 A3009=,
20180104_020000.002,0,RJTI,,,,0,20180104020000,-1,-1,-1,-1,310,-1,13,-1,23,280,350,,9999,0,0,1,FEW 30,1,8,-1,11,1017,RJTI 040200Z 31013G23KT 280V350 9999 FEW030 08/M11 Q1017 RMK     1CU030 A3005=,
20180104_030000.002,0,RJTI,,,,0,20180104030000,-1,-1,-1,-1,999,-1,6,-1,-1,-1,-1,,9999,0,0,1,FEW 30,1,9,-1,12,1016,RJTI 040300Z VRB06KT 9999 FEW030 09/M12 Q1016 RMK 1CU030     A3002=,
20180104_040000.002,0,RJTI,,,,0,20180104040000,-1,-1,-1,-1,300,-1,7,-1,-1,-1,-1,,9999,0,0,1,FEW 30,1,9,-1,11,1015,RJTI 040400Z 30007KT 9999 FEW030 09/M11 Q1015 RMK 1CU030     A2999=,
20180104_050000.002,0,RJTI,,,,0,20180104050000,-1,-1,-1,-1,360,-1,8,-1,18,280,50,,9999,0,0,1,FEW 30,1,9,-1,11,1015,RJTI 040500Z 36008G18KT 280V050 9999 FEW030 09/M11 Q1015 RMK     1CU030 A3000=,
20180104_060000.003,0,RJTI,,,,0,20180104060000,-1,-1,-1,-1,360,-1,7,-1,-1,300,110,,9999,0,0,1,FEW 30,1,9,-1,10,1016,RJTI 040600Z 36007KT 300V110 9999 FEW030 09/M10 Q1016 RMK     1CU030 A3000=,
20180104_070000.002,0,RJTI,,,,0,20180104070000,-1,-1,-1,-1,330,-1,7,-1,-1,240,60,,9999,0,0,1,FEW 30,1,8,-1,11,1016,RJTI 040700Z 33007KT 240V060 9999 FEW030 08/M11 Q1016 RMK     1CU030 A3001=,
20180104_233000.001,0,RJTI,,,,0,20180104230000,-1,-1,-1,-1,350,-1,3,-1,-1,260,30,,9999,0,0,3,FEW 30   BKN 60   BKN -9999,1,3,-1,8,1017,RJTI 042330Z 35003KT 260V030 9999 FEW030 BKN060 BKN/// 03/M08     Q1017 RMK 1CU030 6SC060 A3005=,
20180105_000000.002,0,RJTI,,,,0,20180105000000,-1,-1,-1,-1,350,-1,5,-1,-1,300,40,,9999,0,0,3,FEW 30   SCT 60   BKN 70,1,4,-1,9,1017,RJTI 050000Z 35005KT 300V040 9999 FEW030 SCT060 BKN070 04/M09     Q1017 RMK 1CU030 3SC060 6AC070 A3005=,
20180105_010000.003,0,RJTI,,,,0,20180105010000,-1,-1,-1,-1,10,-1,5,-1,-1,330,50,,9999,0,0,3,FEW 30   SCT 60   BKN 70,1,5,-1,9,1017,RJTI 050100Z 01005KT 330V050 9999 FEW030 SCT060 BKN070 05/M09     Q1017 RMK 1CU030 3SC060 6AC070 A3004=,
20180105_020000.002,0,RJTI,,,,0,20180105020000,-1,-1,-1,-1,999,-1,5,-1,-1,-1,-1,,9999,0,0,2,FEW 30   BKN 60,1,5,-1,9,1016,RJTI 050200Z VRB05KT 9999 FEW030 BKN060 05/M09 Q1016 RMK     1CU030 7SC060 A3000=,
20180105_030000.002,0,RJTI,,,,0,20180105030000,-1,-1,-1,-1,999,-1,4,-1,-1,-1,-1,,9999,0,0,3,FEW 30   BKN 60   BKN 130,1,6,-1,8,1015,RJTI 050300Z VRB04KT 9999 FEW030 BKN060 BKN130 06/M08 Q1015     RMK 1CU030 5SC060 7AC130 A2998=,
20180105_040000.002,0,RJTI,,,,0,20180105040000,-1,-1,-1,-1,20,-1,5,-1,-1,340,60,,9999,0,0,3,FEW 30   BKN 60   BKN 120,1,6,-1,7,1013,RJTI 050400Z 02005KT 340V060 9999 FEW030 BKN060 BKN120 06/M07     Q1013 RMK 1CU030 5SC060 7AC120 A2994=,
20180105_050000.002,0,RJTI,,,,0,20180105050000,-1,-1,-1,-1,20,-1,3,-1,-1,320,100,,9999,0,0,2,FEW 30   BKN 50,1,6,-1,6,1013,RJTI 050500Z 02003KT 320V100 9999 FEW030 BKN050 06/M06 Q1013     RMK 1CU030 7SC050 A2993=,
20180105_060000.002,0,RJTI,,,,0,20180105060000,-1,-1,-1,-1,999,-1,5,-1,-1,-1,-1,,9999,0,0,2,FEW 30   BKN 50,1,6,-1,4,1013,RJTI 050600Z VRB05KT 9999 FEW030 BKN050 06/M04 Q1013 RMK     1CU030 7SC050 A2992=,
20180105_070000.002,0,RJTI,,,,0,20180105070000,-1,-1,-1,-1,120,-1,5,-1,-1,70,170,,9999,0,1,3,FEW 15   SCT 30   BKN 40,1,5,-1,2,1013,RJTI 050700Z 12005KT 070V170 9999 -RA FEW015 SCT030 BKN040     05/M02 Q1013 RMK 1CU015 4CU030 7SC040 A2994=,- RA
20180105_233000.001,0,RJTI,,,,0,20180105230000,-1,-1,-1,-1,999,-1,1,-1,-1,-1,-1,,9999,0,0,1,FEW 30,1,4,-1,5,1011,RJTI 052330Z VRB01KT 9999 FEW030 04/M05 Q1011 RMK 1CU030     A2987=,
20180106_000000.002,0,RJTI,,,,0,20180106000000,-1,-1,-1,-1,999,-1,1,-1,-1,-1,-1,,9999,0,0,1,FEW 30,1,4,-1,4,1011,RJTI 060000Z VRB01KT 9999 FEW030 04/M04 Q1011 RMK 1CU030     A2988=,
20180106_010000.002,0,RJTI,,,,0,20180106010000,-1,-1,-1,-1,230,-1,3,-1,-1,160,330,,9999,0,0,1,FEW 30,1,6,-1,5,1011,RJTI 060100Z 23003KT 160V330 9999 FEW030 06/M05 Q1011 RMK     1CU030 A2988=,
20180106_020000.002,0,RJTI,,,,0,20180106020000,-1,-1,-1,-1,999,-1,2,-1,-1,-1,-1,,9999,0,0,1,FEW 30,1,7,-1,3,1011,RJTI 060200Z VRB02KT 9999 FEW030 07/M03 Q1011 RMK 1CU030     A2986=,
20180106_030000.002,0,RJTI,,,,0,20180106030000,-1,-1,-1,-1,999,-1,4,-1,-1,-1,-1,,9999,0,0,1,FEW 30,1,8,-1,3,1010,RJTI 060300Z VRB04KT 9999 FEW030 08/M03 Q1010 RMK 1CU030     A2984=,
20180106_040000.002,0,RJTI,,,,0,20180106040000,-1,-1,-1,-1,150,-1,7,-1,-1,-1,-1,,9999,0,0,1,FEW 30,1,9,-1,4,1009,RJTI 060400Z 15007KT 9999 FEW030 09/M04 Q1009 RMK 1CU030     A2981=,
20180106_050000.002,0,RJTI,,,,0,20180106050000,-1,-1,-1,-1,150,-1,8,-1,-1,-1,-1,,9999,0,0,1,FEW 30,1,9,-1,2,1009,RJTI 060500Z 15008KT 9999 FEW030 09/M02 Q1009 RMK 1CU030     A2979=,
20180106_060000.002,0,RJTI,,,,0,20180106060000,-1,-1,-1,-1,150,-1,8,-1,-1,-1,-1,,9999,0,0,1,FEW 30,1,9,1,1,1009,RJTI 060600Z 15008KT 9999 FEW030 09/01 Q1009 RMK 1CU030 A2979=,
20180106_070000.002,0,RJTI,,,,0,20180106070000,-1,-1,-1,-1,170,-1,8,-1,-1,-1,-1,,9999,0,0,1,FEW 30,1,9,-1,0,1009,RJTI 060700Z 17008KT 9999 FEW030 09/M00 Q1009 RMK 1CU030     A2980=,
20180106_233000.001,0,RJTI,,,,0,20180106230000,-1,-1,-1,-1,300,-1,13,-1,-1,270,340,,9999,0,0,2,FEW 30   BKN -9999,1,7,-1,10,1018,RJTI 062330Z 30013KT 270V340 9999 FEW030 BKN/// 07/M10 Q1018     RMK 1CU030 A3008=,
20180107_000000.002,0,RJTI,,,,0,20180107000000,-1,-1,-1,-1,310,-1,11,-1,23,210,20,,9999,0,0,2,FEW 30   BKN -9999,1,7,-1,10,1019,RJTI 070000Z 31011G23KT 210V020 9999 FEW030 BKN/// 07/M10     Q1019 RMK 1CU030 A3010=,
20180107_010000.003,0,RJTI,,,,0,20180107010000,-1,-1,-1,-1,310,-1,13,-1,-1,270,10,,9999,0,0,2,FEW 30   SCT -9999,1,8,-1,10,1019,RJTI 070100Z 31013KT 270V010 9999 FEW030 SCT/// 08/M10 Q1019     RMK 1CU030 A3011=,
20180107_020000.002,0,RJTI,,,,0,20180107020000,-1,-1,-1,-1,999,-1,8,-1,18,-1,-1,,9999,0,0,2,FEW 30   BKN -9999,1,9,-1,10,1019,RJTI 070200Z VRB08G18KT 9999 FEW030 BKN/// 09/M10 Q1019 RMK     1CU030 A3009=,
20180107_030000.002,0,RJTI,,,,0,20180107030000,-1,-1,-1,-1,310,-1,7,-1,-1,280,70,,9999,0,0,2,FEW 30   SCT -9999,1,10,-1,10,1018,RJTI 070300Z 31007KT 280V070 9999 FEW030 SCT/// 10/M10 Q1018     RMK 1CU030 A3008=,
20180107_040000.002,0,RJTI,,,,0,20180107040000,-1,-1,-1,-1,340,-1,6,-1,-1,280,80,,9999,0,0,2,FEW 30   BKN -9999,1,11,-1,10,1019,RJTI 070400Z 34006KT 280V080 9999 FEW030 BKN/// 11/M10 Q1019     RMK 1CU030 A3009=,
20180107_050000.002,0,RJTI,,,,0,20180107050000,-1,-1,-1,-1,999,-1,4,-1,-1,-1,-1,,9999,0,0,2,FEW 30   BKN -9999,1,11,-1,9,1019,RJTI 070500Z VRB04KT 9999 FEW030 BKN/// 11/M09 Q1019 RMK     1CU030 A3009=,
20180107_060000.002,0,RJTI,,,,0,20180107060000,-1,-1,-1,-1,140,-1,3,-1,-1,90,180,,9999,0,0,2,FEW 30   SCT -9999,1,11,-1,6,1019,RJTI 070600Z 14003KT 090V180 9999 FEW030 SCT/// 11/M06 Q1019     RMK 1CU030 A3010=,
20180107_070000.002,0,RJTI,,,,0,20180107070000,-1,-1,-1,-1,150,-1,8,-1,-1,-1,-1,,9999,0,0,1,FEW 30,1,10,-1,5,1020,RJTI 070700Z 15008KT 9999 FEW030 10/M05 Q1020 RMK 1CU030     A3012=,
20180107_233000.001,0,RJTI,,,,0,20180107230000,-1,-1,-1,-1,330,-1,5,-1,-1,290,30,,9999,0,0,3,FEW 30   SCT 150   BKN -9999,1,5,-1,6,1020,RJTI 072330Z 33005KT 290V030 9999 FEW030 SCT150 BKN/// 05/M06     Q1020 RMK 1CU030 3AC150 A3012=,
20180108_000000.002,0,RJTI,,,,0,20180108000000,-1,-1,-1,-1,340,-1,3,-1,-1,270,80,,9999,0,0,2,FEW 30   BKN 150,1,5,-1,7,1020,RJTI 080000Z 34003KT 270V080 9999 FEW030 BKN150 05/M07 Q1020     RMK 1CU030 7AC150 A3012=,
20180108_010000.002,0,RJTI,,,,0,20180108010000,-1,-1,-1,-1,310,-1,4,-1,-1,280,350,,9999,0,0,3,FEW 30   SCT 80   BKN 120,1,6,-1,7,1019,RJTI 080100Z 31004KT 280V350 9999 FEW030 SCT080 BKN120 06/M07     Q1019 RMK 1CU030 4AC080 7AC120 A3011=,
20180108_020000.002,0,RJTI,,,,0,20180108020000,-1,-1,-1,-1,999,-1,2,-1,-1,-1,-1,,9999,0,0,3,FEW 30   BKN 70   BKN 100,1,6,-1,6,1017,RJTI 080200Z VRB02KT 9999 FEW030 BKN070 BKN100 06/M06 Q1017     RMK 1CU030 5AC070 7AC100 A3005 P/FR=,
20180108_030000.002,0,RJTI,,,,0,20180108030000,-1,-1,-1,-1,999,-1,2,-1,-1,-1,-1,,9999,0,0,3,FEW 30   SCT 70   BKN 90,1,8,-1,4,1016,RJTI 080300Z VRB02KT 9999 FEW030 SCT070 BKN090 08/M04 Q1016     RMK 1SC030 4AC070 6AC090 A3001=,
20180108_040000.002,0,RJTI,,,,0,20180108040000,-1,-1,-1,-1,110,-1,3,-1,-1,40,160,,9999,0,0,3,FEW 30   BKN 140   BKN -9999,1,7,-1,3,1013,RJTI 080400Z 11003KT 040V160 9999 FEW030 BKN140 BKN/// 07/M03     Q1013 RMK 1SC030 6AC140 A2993 P/FR=,
20180108_050000.002,0,RJTI,,,,0,20180108050000,-1,-1,-1,-1,999,-1,2,-1,-1,-1,-1,,9999,0,0,3,FEW 40   SCT 60   BKN 90,1,7,-1,0,1013,RJTI 080500Z VRB02KT 9999 FEW040 SCT060 BKN090 07/M00 Q1013     RMK 1SC040 3SC060 7AC090 A2994=,
20180108_060000.003,0,RJTI,,,,0,20180108060000,-1,-1,-1,-1,999,-1,3,-1,-1,-1,-1,,9999,0,0,3,FEW 40   BKN 70   BKN 100,1,7,1,3,1012,RJTI 080600Z VRB03KT 9999 FEW040 BKN070 BKN100 07/03 Q1012 RMK     1SC040 5AC070 7AC100 A2989=,
20180108_070000.002,0,RJTI,,,,0,20180108070000,-1,-1,-1,-1,250,-1,7,-1,-1,200,270,,9999,0,1,3,FEW 30   SCT 60   BKN 90,1,10,1,3,1011,RJTI 080700Z 25007KT 200V270 9999 -RA FEW030 SCT060 BKN090     10/03 Q1011 RMK 1SC030 3SC060 7AC090 A2987=,- RA
20180108_233000.001,0,RJTI,,,,0,20180108230000,-1,-1,-1,-1,999,-1,2,-1,-1,-1,-1,,5000,0,1,3,FEW 20   BKN 80   BKN 120,1,8,1,6,993,RJTI 082330Z VRB02KT 5000 BR FEW020 BKN080 BKN120 08/06 Q0993     RMK 1SC020 5AC080 7AC120 A2933=,BR
20180109_000000.002,0,RJTI,,,,0,20180109000000,-1,-1,-1,-1,120,-1,4,-1,-1,-1,-1,,5000,0,1,3,FEW 20   BKN 80   BKN 120,1,8,1,7,991,RJTI 090000Z 12004KT 5000 BR FEW020 BKN080 BKN120 08/07 Q0991     RMK 2SC020 6AC080 7AC120 A2928 P/FR=,BR
20180109_010000.002,0,RJTI,,,,0,20180109010000,-1,-1,-1,-1,210,-1,9,-1,-1,170,340,,9999,0,0,3,FEW 15   SCT 120   BKN -9999,1,15,1,11,991,RJTI 090100Z 21009KT 170V340 9999 FEW015 SCT120 BKN/// 15/11     Q0991 RMK 1CU015 3AC120 A2928=,
20180109_020000.002,0,RJTI,,,,0,20180109020000,-1,-1,-1,-1,280,-1,6,-1,-1,240,320,,9999,0,0,3,FEW 20   SCT 130   BKN -9999,1,14,1,8,991,RJTI 090200Z 28006KT 240V320 9999 FEW020 SCT130 BKN/// 14/08     Q0991 RMK 1CU020 4AC130 A2927=,
20180109_030000.002,0,RJTI,,,,0,20180109030000,-1,-1,-1,-1,10,-1,3,-1,-1,320,30,,7000,0,0,2,FEW 15   BKN -9999,1,11,1,8,990,RJTI 090300Z 01003KT 320V030 7000 FEW015 BKN/// 11/08 Q0990     RMK 1CU015 A2926=,
20180109_040000.002,0,RJTI,,,,0,20180109040000,-1,-1,-1,-1,210,-1,10,-1,-1,170,270,,9999,0,0,1,FEW 20,1,16,1,5,990,RJTI 090400Z 21010KT 170V270 9999 FEW020 16/05 Q0990 RMK     1CU020 A2925=,
20180109_050000.002,0,RJTI,,,,0,20180109050000,-1,-1,-1,-1,230,-1,16,-1,28,180,310,,9999,0,0,1,FEW 30,1,14,1,2,990,RJTI 090500Z 23016G28KT 180V310 9999 FEW030 14/02 Q0990 RMK     1CU030 A2924=,
20180109_060000.002,0,RJTI,,,,0,20180109060000,-1,-1,-1,-1,240,-1,19,-1,29,130,270,,9999,0,0,1,FEW 30,1,14,1,2,991,RJTI 090600Z 24019G29KT 130V270 9999 FEW030 14/02 Q0991 RMK     1CU030 A2927=,
20180109_070000.002,0,RJTI,,,,0,20180109070000,-1,-1,-1,-1,240,-1,18,-1,29,-1,-1,,9999,0,0,1,FEW 30,1,12,1,1,992,RJTI 090700Z 24018G29KT 9999 FEW030 12/01 Q0992 RMK 1CU030     A2932=,
20180109_233000.001,0,RJTI,,,,0,20180109230000,-1,-1,-1,-1,250,-1,11,-1,-1,220,280,CAVOK,-1,0,0,0,,1,7,-1,5,1008,RJTI 092330Z 25011KT 220V280 CAVOK 07/M05 Q1008 RMK A2978=,
20180110_000000.002,0,RJTI,,,,0,20180110000000,-1,-1,-1,-1,250,-1,13,-1,-1,-1,-1,,9999,0,0,1,FEW 30,1,7,-1,6,1008,RJTI 100000Z 25013KT 9999 FEW030 07/M06 Q1008 RMK 1CU030     A2977=,
20180110_010000.002,0,RJTI,,,,0,20180110010000,-1,-1,-1,-1,250,-1,10,-1,-1,220,280,,9999,0,0,1,FEW 30,1,9,-1,5,1008,RJTI 100100Z 25010KT 220V280 9999 FEW030 09/M05 Q1008 RMK     1CU030 A2977=,
20180110_020000.002,0,RJTI,,,,0,20180110020000,-1,-1,-1,-1,240,-1,11,-1,-1,190,270,,9999,0,0,1,FEW 30,1,10,-1,6,1007,RJTI 100200Z 24011KT 190V270 9999 FEW030 10/M06 Q1007 RMK     1CU030 A2974=,
20180110_030000.002,0,RJTI,,,,0,20180110030000,-1,-1,-1,-1,230,-1,13,-1,-1,160,260,,9999,0,0,1,FEW 30,1,10,-1,6,1006,RJTI 100300Z 23013KT 160V260 9999 FEW030 10/M06 Q1006 RMK     1CU030 A2971=,
20180110_040000.003,0,RJTI,,,,0,20180110040000,-1,-1,-1,-1,230,-1,15,-1,27,180,280,,9999,0,0,1,FEW 30,1,10,-1,5,1005,RJTI 100400Z 23015G27KT 180V280 9999 FEW030 10/M05 Q1005 RMK     1CU030 A2969=,
20180110_050000.002,0,RJTI,,,,0,20180110050000,-1,-1,-1,-1,220,-1,14,-1,24,170,260,,9999,0,0,1,FEW 30,1,10,-1,4,1005,RJTI 100500Z 22014G24KT 170V260 9999 FEW030 10/M04 Q1005 RMK     1CU030 A2969=,
20180110_060000.002,0,RJTI,,,,0,20180110060000,-1,-1,-1,-1,230,-1,14,-1,28,130,310,,9999,0,0,1,FEW 30,1,10,-1,4,1005,RJTI 100600Z 23014G28KT 130V310 9999 FEW030 10/M04 Q1005 RMK     1CU030 A2970=,
20180110_070000.002,0,RJTI,,,,0,20180110070000,-1,-1,-1,-1,240,-1,15,-1,26,180,270,,9999,0,0,1,FEW 30,1,10,-1,4,1006,RJTI 100700Z 24015G26KT 180V270 9999 FEW030 10/M04 Q1006 RMK     1CU030 A2971=,
20180110_233000.001,0,RJTI,,,,0,20180110230000,-1,-1,-1,-1,999,-1,4,-1,-1,-1,-1,,9999,0,0,1,FEW 30,1,5,-1,6,1011,RJTI 102330Z VRB04KT 9999 FEW030 05/M06 Q1011 RMK 1CU030     A2988=,
20180111_000000.002,0,RJTI,,,,0,20180111000000,-1,-1,-1,-1,50,-1,5,-1,-1,350,120,,9999,0,0,1,FEW 30,1,6,-1,6,1012,RJTI 110000Z 05005KT 350V120 9999 FEW030 06/M06 Q1012 RMK     1CU030 A2988=,
20180111_010000.002,0,RJTI,,,,0,20180111010000,-1,-1,-1,-1,80,-1,4,-1,-1,40,210,,9999,0,0,1,FEW 30,1,7,-1,6,1012,RJTI 110100Z 08004KT 040V210 9999 FEW030 07/M06 Q1012 RMK     1CU030 A2989=,
20180111_020000.002,0,RJTI,,,,0,20180111020000,-1,-1,-1,-1,250,-1,5,-1,-1,180,360,,9999,0,0,1,FEW 30,1,8,-1,9,1011,RJTI 110200Z 25005KT 180V360 9999 FEW030 08/M09 Q1011 RMK     1CU030 A2987=,
20180111_030000.001,0,RJTI,,,,0,20180111030000,-1,-1,-1,-1,260,-1,6,-1,-1,170,310,,9999,0,0,1,FEW 30,1,9,-1,11,1010,RJTI 110300Z 26006KT 170V310 9999 FEW030 09/M11 Q1010 RMK     1CU030 A2984=,
20180111_040000.002,0,RJTI,,,,0,20180111040000,-1,-1,-1,-1,210,-1,4,-1,-1,120,270,,9999,0,0,1,FEW 30,1,10,-1,12,1009,RJTI 110400Z 21004KT 120V270 9999 FEW030 10/M12 Q1009 RMK     1CU030 A2982=,
20180111_050000.002,0,RJTI,,,,0,20180111050000,-1,-1,-1,-1,999,-1,3,-1,-1,-1,-1,,9999,0,0,1,FEW 30,1,10,-1,11,1009,RJTI 110500Z VRB03KT 9999 FEW030 10/M11 Q1009 RMK 1CU030     A2981=,
20180111_060000.002,0,RJTI,,,,0,20180111060000,-1,-1,-1,-1,210,-1,10,-1,23,160,260,,9999,0,0,1,FEW 30,1,10,-1,11,1010,RJTI 110600Z 21010G23KT 160V260 9999 FEW030 10/M11 Q1010 RMK     1CU030 A2984=,
20180111_070000.002,0,RJTI,,,,0,20180111070000,-1,-1,-1,-1,999,-1,9,-1,-1,-1,-1,,9999,0,0,1,FEW 30,1,8,-1,9,1010,RJTI 110700Z VRB09KT 9999 FEW030 08/M09 Q1010 RMK 1CU030     A2985=,
20180111_233000.001,0,RJTI,,,,0,20180111230000,-1,-1,-1,-1,999,-1,4,-1,-1,-1,-1,,9999,0,0,1,FEW 30,1,3,-1,13,1019,RJTI 112330Z VRB04KT 9999 FEW030 03/M13 Q1019 RMK 1CU030     A3009=,
20180112_000000.002,0,RJTI,,,,0,20180112000000,-1,-1,-1,-1,999,-1,4,-1,-1,-1,-1,,9999,0,0,1,FEW 30,1,3,-1,14,1019,RJTI 120000Z VRB04KT 9999 FEW030 03/M14 Q1019 RMK 1CU030     A3010=,
20180112_010000.003,0,RJTI,,,,0,20180112010000,-1,-1,-1,-1,320,-1,5,-1,-1,240,30,,9999,0,0,1,FEW 30,1,4,-1,14,1019,RJTI 120100Z 32005KT 240V030 9999 FEW030 04/M14 Q1019 RMK     1CU030 A3010=,
20180112_020000.002,0,RJTI,,,,0,20180112020000,-1,-1,-1,-1,999,-1,4,-1,-1,-1,-1,,9999,0,0,1,FEW 30,1,5,-1,15,1019,RJTI 120200Z VRB04KT 9999 FEW030 05/M15 Q1019 RMK 1CU030     A3010=,
20180112_030000.002,0,RJTI,,,,0,20180112030000,-1,-1,-1,-1,999,-1,4,-1,-1,-1,-1,,9999,0,0,2,FEW 30   SCT -9999,1,6,-1,14,1018,RJTI 120300Z VRB04KT 9999 FEW030 SCT/// 06/M14 Q1018 RMK     1CU030 A3008=,
20180112_040000.002,0,RJTI,,,,0,20180112040000,-1,-1,-1,-1,999,-1,3,-1,-1,-1,-1,,9999,0,0,1,FEW 30,1,6,-1,14,1018,RJTI 120400Z VRB03KT 9999 FEW030 06/M14 Q1018 RMK 1CU030     A3006=,
20180112_050000.003,0,RJTI,,,,0,20180112050000,-1,-1,-1,-1,160,-1,5,-1,-1,120,230,,9999,0,0,1,FEW 30,1,6,-1,14,1018,RJTI 120500Z 16005KT 120V230 9999 FEW030 06/M14 Q1018 RMK     1CU030 A3007=,
20180112_060000.002,0,RJTI,,,,0,20180112060000,-1,-1,-1,-1,999,-1,2,-1,-1,-1,-1,,9999,0,0,2,FEW 30   SCT -9999,1,6,-1,16,1018,RJTI 120600Z VRB02KT 9999 FEW030 SCT/// 06/M16 Q1018 RMK     1CU030 A3008=,
20180112_070000.003,0,RJTI,,,,0,20180112070000,-1,-1,-1,-1,999,-1,1,-1,-1,-1,-1,,9999,0,0,2,FEW 30   BKN -9999,1,6,-1,16,1019,RJTI 120700Z VRB01KT 9999 FEW030 BKN/// 06/M16 Q1019 RMK     1CU030 A3010=,
20180112_233000.001,0,RJTI,,,,0,20180112230000,-1,-1,-1,-1,360,-1,6,-1,-1,300,30,,9999,0,0,1,FEW 30,1,1,-1,10,1023,RJTI 122330Z 36006KT 300V030 9999 FEW030 01/M10 Q1023 RMK     1CU030 A3021=,
20180113_000000.002,0,RJTI,,,,0,20180113000000,-1,-1,-1,-1,999,-1,7,-1,-1,-1,-1,,9999,0,0,1,FEW 30,1,2,-1,10,1023,RJTI 130000Z VRB07KT 9999 FEW030 02/M10 Q1023 RMK 1CU030     A3021=,
20180113_010000.003,0,RJTI,,,,0,20180113010000,-1,-1,-1,-1,330,-1,6,-1,-1,280,10,,9999,0,0,1,FEW 30,1,4,-1,9,1023,RJTI 130100Z 33006KT 280V010 9999 FEW030 04/M09 Q1023 RMK     1CU030 A3021=,
20180113_020000.002,0,RJTI,,,,0,20180113020000,-1,-1,-1,-1,999,-1,2,-1,-1,-1,-1,,9999,0,0,1,FEW 30,1,4,-1,9,1022,RJTI 130200Z VRB02KT 9999 FEW030 04/M09 Q1022 RMK 1CU030     A3020=,
20180113_030000.002,0,RJTI,,,,0,20180113030000,-1,-1,-1,-1,999,-1,4,-1,-1,-1,-1,,9999,0,0,1,FEW 30,1,5,-1,9,1021,RJTI 130300Z VRB04KT 9999 FEW030 05/M09 Q1021 RMK 1CU030     A3016=,
20180113_040000.002,0,RJTI,,,,0,20180113040000,-1,-1,-1,-1,140,-1,6,-1,-1,-1,-1,,9999,0,0,1,FEW 30,1,6,-1,7,1020,RJTI 130400Z 14006KT 9999 FEW030 06/M07 Q1020 RMK 1CU030     A3013=,
20180113_050000.002,0,RJTI,,,,0,20180113050000,-1,-1,-1,-1,130,-1,7,-1,-1,80,170,,9999,0,0,1,FEW 30,1,6,-1,8,1019,RJTI 130500Z 13007KT 080V170 9999 FEW030 06/M08 Q1019 RMK     1CU030 A3012=,
20180113_060000.002,0,RJTI,,,,0,20180113060000,-1,-1,-1,-1,140,-1,7,-1,-1,-1,-1,,9999,0,0,1,FEW 30,1,6,-1,8,1019,RJTI 130600Z 14007KT 9999 FEW030 06/M08 Q1019 RMK 1CU030     A3012=,
20180113_070000.002,0,RJTI,,,,0,20180113070000,-1,-1,-1,-1,150,-1,5,-1,-1,-1,-1,,9999,0,0,1,FEW 30,1,6,-1,7,1019,RJTI 130700Z 15005KT 9999 FEW030 06/M07 Q1019 RMK 1CU030     A3012=,
20180113_233000.001,0,RJTI,,,,0,20180113230000,-1,-1,-1,-1,10,-1,7,-1,-1,320,50,,9999,0,0,1,FEW 30,1,3,-1,8,1028,RJTI 132330Z 01007KT 320V050 9999 FEW030 03/M08 Q1028 RMK     1CU030 A3037=,
20180114_000000.003,0,RJTI,,,,0,20180114000000,-1,-1,-1,-1,360,-1,5,-1,-1,300,90,,9999,0,0,1,FEW 30,1,4,-1,9,1029,RJTI 140000Z 36005KT 300V090 9999 FEW030 04/M09 Q1029 RMK     1CU030 A3039=,
20180114_010000.002,0,RJTI,,,,0,20180114010000,-1,-1,-1,-1,350,-1,7,-1,-1,310,30,,9999,0,0,1,FEW 30,1,5,-1,9,1029,RJTI 140100Z 35007KT 310V030 9999 FEW030 05/M09 Q1029 RMK     1CU030 A3040=,
20180114_020000.002,0,RJTI,,,,0,20180114020000,-1,-1,-1,-1,360,-1,8,-1,-1,310,90,,9999,0,0,1,FEW 30,1,6,-1,9,1029,RJTI 140200Z 36008KT 310V090 9999 FEW030 06/M09 Q1029 RMK     1CU030 A3039=,
20180114_030000.002,0,RJTI,,,,0,20180114030000,-1,-1,-1,-1,340,-1,7,-1,-1,270,80,,9999,0,0,1,FEW 30,1,7,-1,11,1028,RJTI 140300Z 34007KT 270V080 9999 FEW030 07/M11 Q1028 RMK     1CU030 A3037=,
20180114_040000.002,0,RJTI,,,,0,20180114040000,-1,-1,-1,-1,340,-1,6,-1,-1,280,90,,9999,0,0,1,FEW 30,1,8,-1,11,1028,RJTI 140400Z 34006KT 280V090 9999 FEW030 08/M11 Q1028 RMK     1CU030 A3036=,
20180114_050000.002,0,RJTI,,,,0,20180114050000,-1,-1,-1,-1,40,-1,6,-1,-1,340,80,,9999,0,0,1,FEW 30,1,8,-1,9,1028,RJTI 140500Z 04006KT 340V080 9999 FEW030 08/M09 Q1028 RMK     1CU030 A3036=,
20180114_060000.003,0,RJTI,,,,0,20180114060000,-1,-1,-1,-1,30,-1,6,-1,-1,340,70,,9999,0,0,1,FEW 30,1,8,-1,12,1028,RJTI 140600Z 03006KT 340V070 9999 FEW030 08/M12 Q1028 RMK     1CU030 A3037=,
20180114_070000.002,0,RJTI,,,,0,20180114070000,-1,-1,-1,-1,40,-1,3,-1,-1,330,120,,9999,0,0,1,FEW 30,1,7,-1,10,1028,RJTI 140700Z 04003KT 330V120 9999 FEW030 07/M10 Q1028 RMK     1CU030 A3038=,
20180114_233000.001,0,RJTI,,,,0,20180114230000,-1,-1,-1,-1,10,-1,4,-1,-1,270,80,,9999,0,0,1,FEW 30,1,2,-1,9,1026,RJTI 142330Z 01004KT 270V080 9999 FEW030 02/M09 Q1026 RMK     1CU030 A3031=,
20180115_000000.002,0,RJTI,,,,0,20180115000000,-1,-1,-1,-1,10,-1,3,-1,-1,280,80,,9999,0,0,1,FEW 30,1,3,-1,9,1026,RJTI 150000Z 01003KT 280V080 9999 FEW030 03/M09 Q1026 RMK     1CU030 A3030=,
20180115_010000.002,0,RJTI,,,,0,20180115010000,-1,-1,-1,-1,350,-1,3,-1,-1,270,80,,9999,0,0,2,FEW 30   BKN -9999,1,5,-1,8,1025,RJTI 150100Z 35003KT 270V080 9999 FEW030 BKN/// 05/M08 Q1025     RMK 1CU030 A3029=,
20180115_020000.002,0,RJTI,,,,0,20180115020000,-1,-1,-1,-1,30,-1,7,-1,-1,350,60,,9999,0,0,2,FEW 30   BKN -9999,1,6,-1,7,1024,RJTI 150200Z 03007KT 350V060 9999 FEW030 BKN/// 06/M07 Q1024     RMK 1CU030 A3024 P/FR=,
20180115_030000.002,0,RJTI,,,,0,20180115030000,-1,-1,-1,-1,360,-1,6,-1,-1,290,80,,9999,0,0,3,FEW 30   SCT 50   BKN -9999,1,8,-1,6,1022,RJTI 150300Z 36006KT 290V080 9999 FEW030 SCT050 BKN/// 08/M06     Q1022 RMK 1CU030 3SC050 A3018=,
20180115_040000.002,0,RJTI,,,,0,20180115040000,-1,-1,-1,-1,230,-1,14,-1,26,180,280,,9999,0,0,3,FEW 30   SCT 150   BKN -9999,1,12,-1,1,1020,RJTI 150400Z 23014G26KT 180V280 9999 FEW030 SCT150 BKN///     12/M01 Q1020 RMK 1CU030 3AC150 A3013 P/FR=,
20180115_050000.002,0,RJTI,,,,0,20180115050000,-1,-1,-1,-1,220,-1,13,-1,24,180,280,,9999,0,0,2,FEW 30   BKN -9999,1,12,-1,2,1019,RJTI 150500Z 22013G24KT 180V280 9999 FEW030 BKN/// 12/M02     Q1019 RMK 1CU030 A3010=,
20180115_060000.002,0,RJTI,,,,0,20180115060000,-1,-1,-1,-1,240,-1,14,-1,-1,210,280,,9999,0,0,2,FEW 30   SCT -9999,1,12,-1,2,1018,RJTI 150600Z 24014KT 210V280 9999 FEW030 SCT/// 12/M02 Q1018     RMK 1CU030 A3008=,
20180115_070000.003,0,RJTI,,,,0,20180115070000,-1,-1,-1,-1,230,-1,11,-1,-1,160,330,,9999,0,0,1,FEW 30,1,12,-1,2,1018,RJTI 150700Z 23011KT 160V330 9999 FEW030 12/M02 Q1018 RMK     1CU030 A3008=,
20180115_233000.001,0,RJTI,,,,0,20180115230000,-1,-1,-1,-1,60,-1,2,-1,-1,-1,-1,CAVOK,-1,0,0,0,,1,6,-1,3,1022,RJTI 152330Z 06002KT CAVOK 06/M03 Q1022 RMK A3018=,
20180116_000000.002,0,RJTI,,,,0,20180116000000,-1,-1,-1,-1,999,-1,2,-1,-1,-1,-1,,9999,0,0,2,FEW 30   SCT -9999,1,7,-1,4,1022,RJTI 160000Z VRB02KT 9999 FEW030 SCT/// 07/M04 Q1022 RMK     1CU030 A3019=,
20180116_010000.002,0,RJTI,,,,0,20180116010000,-1,-1,-1,-1,999,-1,3,-1,-1,-1,-1,,9999,0,0,2,FEW 30   BKN -9999,1,10,-1,3,1022,RJTI 160100Z VRB03KT 9999 FEW030 BKN/// 10/M03 Q1022 RMK     1CU030 A3018=,
20180116_020000.002,0,RJTI,,,,0,20180116020000,-1,-1,-1,-1,999,-1,2,-1,-1,-1,-1,,9999,0,0,2,FEW 30   BKN -9999,1,11,-1,3,1021,RJTI 160200Z VRB02KT 9999 FEW030 BKN/// 11/M03 Q1021 RMK     1CU030 A3015=,
20180116_030000.002,0,RJTI,,,,0,20180116030000,-1,-1,-1,-1,999,-1,4,-1,-1,-1,-1,,9999,0,0,2,FEW 30   BKN -9999,1,12,-1,3,1020,RJTI 160300Z VRB04KT 9999 FEW030 BKN/// 12/M03 Q1020 RMK     1CU030 A3013=,
20180116_040000.002,0,RJTI,,,,0,20180116040000,-1,-1,-1,-1,999,-1,2,-1,-1,-1,-1,,9999,0,0,2,FEW 30   BKN -9999,1,13,-1,3,1019,RJTI 160400Z VRB02KT 9999 FEW030 BKN/// 13/M03 Q1019 RMK     1CU030 A3009=,
20180116_050000.002,0,RJTI,,,,0,20180116050000,-1,-1,-1,-1,150,-1,5,-1,-1,-1,-1,,9999,0,0,2,FEW 30   BKN -9999,1,12,-1,2,1018,RJTI 160500Z 15005KT 9999 FEW030 BKN/// 12/M02 Q1018 RMK     1CU030 A3008=,
20180116_060000.002,0,RJTI,,,,0,20180116060000,-1,-1,-1,-1,999,-1,2,-1,-1,-1,-1,,9999,0,0,2,FEW 30   BKN -9999,1,13,-1,3,1018,RJTI 160600Z VRB02KT 9999 FEW030 BKN/// 13/M03 Q1018 RMK     1CU030 A3008=,
20180116_070000.002,0,RJTI,,,,0,20180116070000,-1,-1,-1,-1,160,-1,3,-1,-1,-1,-1,,9999,0,0,2,FEW 30   BKN -9999,1,13,-1,2,1018,RJTI 160700Z 16003KT 9999 FEW030 BKN/// 13/M02 Q1018 RMK     1CU030 A3008=,
20180116_233000.001,0,RJTI,,,,0,20180116230000,-1,-1,-1,-1,999,-1,4,-1,-1,-1,-1,,9999,0,0,3,FEW 30   SCT 60   BKN 170,1,7,-1,1,1016,RJTI 162330Z VRB04KT 9999 FEW030 SCT060 BKN170 07/M01 Q1016     RMK 1CU030 3SC060 5AC170 A3001=,
20180117_000000.002,0,RJTI,,,,0,20180117000000,-1,-1,-1,-1,999,-1,4,-1,-1,-1,-1,,9999,0,0,3,FEW 30   BKN 50   BKN 170,1,8,-1,1,1016,RJTI 170000Z VRB04KT 9999 FEW030 BKN050 BKN170 08/M01 Q1016     RMK 1CU030 5SC050 7AC170 A3001=,
20180117_010000.002,0,RJTI,,,,0,20180117010000,-1,-1,-1,-1,10,-1,6,-1,-1,300,50,,9999,0,0,2,FEW 30   BKN 50,1,8,-1,1,1016,RJTI 170100Z 01006KT 300V050 9999 FEW030 BKN050 08/M01 Q1016     RMK 1CU030 7SC050 A3000=,
20180117_020000.004,0,RJTI,,,,0,20180117020000,-1,-1,-1,-1,999,-1,5,-1,-1,-1,-1,,9999,0,0,2,FEW 30   BKN 50,1,8,-1,0,1015,RJTI 170200Z VRB05KT 9999 FEW030 BKN050 08/M00 Q1015 RMK     1CU030 7SC050 A2998=,
20180117_030000.002,0,RJTI,,,,0,20180117030000,-1,-1,-1,-1,999,-1,3,-1,-1,-1,-1,,9999,0,0,3,FEW 20   SCT 30   BKN 60,1,8,1,3,1013,RJTI 170300Z VRB03KT 9999 FEW020 SCT030 BKN060 08/03 Q1013 RMK     1CU020 3CU030 6SC060 A2994 P/FR=,
20180117_040000.003,0,RJTI,,,,0,20180117040000,-1,-1,-1,-1,10,-1,4,-1,-1,280,90,,9999,0,1,3,FEW 20   SCT 30   BKN 50,1,8,1,4,1013,RJTI 170400Z 01004KT 280V090 9999 -SHRA FEW020 SCT030 BKN050     08/04 Q1013 RMK 1CU020 3CU030 6SC050 A2991=,- RA SH
20180117_050000.003,0,RJTI,,,,0,20180117050000,-1,-1,-1,-1,999,-1,4,-1,-1,-1,-1,,9999,0,0,3,FEW 20   SCT 25   BKN 50,1,9,1,5,1012,RJTI 170500Z VRB04KT 9999 FEW020 SCT025 BKN050 09/05 Q1012 RMK     1CU020 3CU025 5SC050 A2988=,
20180117_060000.002,0,RJTI,,,,0,20180117060000,-1,-1,-1,-1,999,-1,3,-1,-1,-1,-1,,6000,0,1,3,FEW 20   SCT 35   BKN 50,1,9,1,5,1011,RJTI 170600Z VRB03KT 6000 -SHRA FEW020 SCT035 BKN050 09/05     Q1011 RMK 1CU020 3CU035 5SC050 A2986=,- RA SH
20180117_070000.002,0,RJTI,,,,0,20180117070000,-1,-1,-1,-1,10,-1,5,-1,-1,300,50,,4000,0,2,3,FEW 10   BKN 20   BKN 35,1,8,1,6,1010,RJTI 170700Z 01005KT 300V050 4000 -SHRA BR FEW010 BKN020     BKN035 08/06 Q1010 RMK 2ST010 5CU020 7SC035 A2983=,- RA SH; BR
20180117_233000.001,0,RJTI,,,,0,20180117230000,-1,-1,-1,-1,150,-1,5,-1,-1,-1,-1,,9999,0,0,1,FEW 20,1,7,1,4,1013,RJTI 172330Z 15005KT 9999 FEW020 07/04 Q1013 RMK 1CU020 A2993=,
20180118_000000.002,0,RJTI,,,,0,20180118000000,-1,-1,-1,-1,210,-1,4,-1,-1,160,260,,9999,0,0,1,FEW 20,1,8,1,5,1014,RJTI 180000Z 21004KT 160V260 9999 FEW020 08/05 Q1014 RMK     1CU020 A2995=,
20180118_010000.002,0,RJTI,,,,0,20180118010000,-1,-1,-1,-1,140,-1,3,-1,-1,100,170,,9999,0,0,2,FEW 20   SCT -9999,1,9,1,4,1013,RJTI 180100Z 14003KT 100V170 9999 FEW020 SCT/// 09/04 Q1013     RMK 1CU020 A2993=,
20180118_020000.002,0,RJTI,,,,0,20180118020000,-1,-1,-1,-1,140,-1,4,-1,-1,-1,-1,,9999,0,0,2,FEW 30   BKN -9999,1,10,1,5,1013,RJTI 180200Z 14004KT 9999 FEW030 BKN/// 10/05 Q1013 RMK 1CU030     A2992=,
20180118_030000.003,0,RJTI,,,,0,20180118030000,-1,-1,-1,-1,150,-1,7,-1,-1,-1,-1,,9999,0,0,2,FEW 30   BKN -9999,1,10,1,5,1012,RJTI 180300Z 15007KT 9999 FEW030 BKN/// 10/05 Q1012 RMK 1CU030     A2990=,
20180118_040000.002,0,RJTI,,,,0,20180118040000,-1,-1,-1,-1,150,-1,6,-1,-1,-1,-1,,9999,0,0,2,FEW 30   BKN -9999,1,11,1,5,1012,RJTI 180400Z 15006KT 9999 FEW030 BKN/// 11/05 Q1012 RMK 1CU030     A2989=,
20180118_050000.002,0,RJTI,,,,0,20180118050000,-1,-1,-1,-1,999,-1,2,-1,-1,-1,-1,,9999,0,0,2,FEW 30   BKN -9999,1,10,1,4,1012,RJTI 180500Z VRB02KT 9999 FEW030 BKN/// 10/04 Q1012 RMK 2SC030     A2990=,
20180118_060000.002,0,RJTI,,,,0,20180118060000,-1,-1,-1,-1,999,-1,1,-1,-1,-1,-1,,9999,0,0,2,FEW 30   BKN 35,1,12,1,6,1013,RJTI 180600Z VRB01KT 9999 FEW030 BKN035 12/06 Q1013 RMK 1CU030     7SC035 A2992=,
20180118_070000.002,0,RJTI,,,,0,20180118070000,-1,-1,-1,-1,180,-1,5,-1,-1,-1,-1,,9999,0,0,3,FEW 30   BKN 45   BKN -9999,1,12,1,6,1012,RJTI 180700Z 18005KT 9999 FEW030 BKN045 BKN/// 12/06 Q1012 RMK     1CU030 6SC045 A2990=,
20180118_233000.001,0,RJTI,,,,0,20180118230000,-1,-1,-1,-1,999,-1,7,-1,-1,-1,-1,,9999,0,0,1,FEW 50,1,8,-1,4,1019,RJTI 182330Z VRB07KT 9999 FEW050 08/M04 Q1019 RMK 2SC050     A3011=,
20180119_000000.002,0,RJTI,,,,0,20180119000000,-1,-1,-1,-1,999,-1,8,-1,18,-1,-1,,9999,0,0,2,FEW 30   SCT 60,1,9,-1,4,1019,RJTI 190000Z VRB08G18KT 9999 FEW030 SCT060 09/M04 Q1019 RMK     1CU030 3SC060 A3011=,
20180119_010000.003,0,RJTI,,,,0,20180119010000,-1,-1,-1,-1,10,-1,8,-1,-1,310,50,,9999,0,0,2,FEW 30   BKN 60,1,10,-1,5,1020,RJTI 190100Z 01008KT 310V050 9999 FEW030 BKN060 10/M05 Q1020     RMK 1CU030 5SC060 A3012=,
20180119_020000.002,0,RJTI,,,,0,20180119020000,-1,-1,-1,-1,30,-1,9,-1,-1,340,50,,9999,0,0,2,FEW 30   BKN 60,1,10,-1,5,1019,RJTI 190200Z 03009KT 340V050 9999 FEW030 BKN060 10/M05 Q1019     RMK 1CU030 6SC060 A3010=,
20180119_030000.002,0,RJTI,,,,0,20180119030000,-1,-1,-1,-1,60,-1,7,-1,-1,10,80,,9999,0,0,2,FEW 30   BKN 60,1,10,-1,5,1018,RJTI 190300Z 06007KT 010V080 9999 FEW030 BKN060 10/M05 Q1018     RMK 1CU030 7SC060 A3007=,
20180119_040000.002,0,RJTI,,,,0,20180119040000,-1,-1,-1,-1,140,-1,7,-1,-1,-1,-1,,9999,0,0,3,FEW 30   SCT 60   BKN 70,1,10,-1,0,1017,RJTI 190400Z 14007KT 9999 FEW030 SCT060 BKN070 10/M00 Q1017     RMK 1CU030 4SC060 6AC070 A3005=,
20180119_050000.003,0,RJTI,,,,0,20180119050000,-1,-1,-1,-1,120,-1,9,-1,-1,-1,-1,,9999,0,0,3,FEW 30   SCT 50   BKN 70,1,10,1,0,1017,RJTI 190500Z 12009KT 9999 FEW030 SCT050 BKN070 10/00 Q1017 RMK     1CU030 3SC050 7AC070 A3005=,
20180119_060000.002,0,RJTI,,,,0,20180119060000,-1,-1,-1,-1,120,-1,9,-1,-1,-1,-1,,9999,0,0,3,FEW 30   SCT 50   BKN 70,1,10,-1,1,1017,RJTI 190600Z 12009KT 9999 FEW030 SCT050 BKN070 10/M01 Q1017     RMK 1CU030 3SC050 5AC070 A3005=,
20180119_070000.002,0,RJTI,,,,0,20180119070000,-1,-1,-1,-1,70,-1,7,-1,-1,-1,-1,,9999,0,0,3,FEW 30   SCT 50   BKN 70,1,10,-1,2,1017,RJTI 190700Z 07007KT 9999 FEW030 SCT050 BKN070 10/M02 Q1017     RMK 1CU030 3SC050 7AC070 A3005=,
20180119_233000.001,0,RJTI,,,,0,20180119230000,-1,-1,-1,-1,20,-1,6,-1,-1,330,70,,9999,0,0,2,FEW 20   BKN 25,1,6,-1,1,1019,RJTI 192330Z 02006KT 330V070 9999 FEW020 BKN025 06/M01 Q1019     RMK 1SC020 7SC025 A3009=,
20180120_000000.002,0,RJTI,,,,0,20180120000000,-1,-1,-1,-1,10,-1,5,-1,-1,290,70,,9999,0,0,2,FEW 20   BKN 25,1,6,-1,1,1019,RJTI 200000Z 01005KT 290V070 9999 FEW020 BKN025 06/M01 Q1019     RMK 1SC020 7SC025 A3009=,
20180120_010000.002,0,RJTI,,,,0,20180120010000,-1,-1,-1,-1,20,-1,4,-1,-1,280,80,,9999,0,0,3,FEW 20   BKN 25   BKN 60,1,7,-1,0,1018,RJTI 200100Z 02004KT 280V080 9999 FEW020 BKN025 BKN060 07/M00     Q1018 RMK 1SC020 5SC025 7SC060 A3008=,
20180120_020000.003,0,RJTI,,,,0,20180120020000,-1,-1,-1,-1,20,-1,4,-1,-1,330,70,,9999,0,0,2,FEW 25   BKN 50,1,8,1,0,1017,RJTI 200200Z 02004KT 330V070 9999 FEW025 BKN050 08/00 Q1017     RMK 1SC025 7SC050 A3006=,
20180120_030000.002,0,RJTI,,,,0,20180120030000,-1,-1,-1,-1,999,-1,3,-1,-1,-1,-1,,9999,0,0,2,FEW 30   BKN 50,1,8,1,0,1016,RJTI 200300Z VRB03KT 9999 FEW030 BKN050 08/00 Q1016 RMK 1CU030     7SC050 A3003=,
20180120_040000.002,0,RJTI,,,,0,20180120040000,-1,-1,-1,-1,80,-1,5,-1,-1,50,170,,9999,0,0,2,FEW 30   BKN 50,1,8,1,1,1015,RJTI 200400Z 08005KT 050V170 9999 FEW030 BKN050 08/01 Q1015     RMK 1CU030 7SC050 A2999=,
20180120_050000.002,0,RJTI,,,,0,20180120050000,-1,-1,-1,-1,100,-1,5,-1,-1,50,150,,9999,0,0,3,FEW 30   SCT 45   BKN 60,1,8,1,1,1015,RJTI 200500Z 10005KT 050V150 9999 FEW030 SCT045 BKN060 08/01     Q1015 RMK 1CU030 4SC045 7SC060 A2998=,
20180120_060000.002,0,RJTI,,,,0,20180120060000,-1,-1,-1,-1,110,-1,3,-1,-1,80,140,,9999,0,0,3,FEW 30   SCT 35   BKN 50,1,8,1,1,1015,RJTI 200600Z 11003KT 080V140 9999 FEW030 SCT035 BKN050 08/01     Q1015 RMK 1CU030 3SC035 7SC050 A3000=,
20180120_070000.002,0,RJTI,,,,0,20180120070000,-1,-1,-1,-1,130,-1,6,-1,-1,-1,-1,,9999,0,0,1,FEW 50,1,8,1,2,1015,RJTI 200700Z 13006KT 9999 FEW050 08/02 Q1015 RMK 2SC050 A3000=,
20180120_233000.001,0,RJTI,,,,0,20180120230000,-1,-1,-1,-1,340,-1,4,-1,-1,280,40,CAVOK,-1,0,0,0,,1,6,-1,2,1017,RJTI 202330Z 34004KT 280V040 CAVOK 06/M02 Q1017 RMK A3003=,
20180121_000000.002,0,RJTI,,,,0,20180121000000,-1,-1,-1,-1,340,-1,4,-1,-1,280,50,CAVOK,-1,0,0,0,,1,7,-1,1,1017,RJTI 210000Z 34004KT 280V050 CAVOK 07/M01 Q1017 RMK A3004=,
20180121_010000.002,0,RJTI,,,,0,20180121010000,-1,-1,-1,-1,10,-1,4,-1,-1,330,60,CAVOK,-1,0,0,0,,1,8,-1,2,1017,RJTI 210100Z 01004KT 330V060 CAVOK 08/M02 Q1017 RMK A3003=,
20180121_020000.002,0,RJTI,,,,0,20180121020000,-1,-1,-1,-1,20,-1,5,-1,-1,290,100,,9999,0,0,1,FEW 30,1,10,-1,1,1016,RJTI 210200Z 02005KT 290V100 9999 FEW030 10/M01 Q1016 RMK     1CU030 A3001=,
20180121_030000.002,0,RJTI,,,,0,20180121030000,-1,-1,-1,-1,30,-1,5,-1,-1,350,80,,9999,0,0,2,FEW 30   BKN -9999,1,10,-1,3,1015,RJTI 210300Z 03005KT 350V080 9999 FEW030 BKN/// 10/M03 Q1015     RMK 1CU030 A2998=,
20180121_040000.003,0,RJTI,,,,0,20180121040000,-1,-1,-1,-1,90,-1,4,-1,-1,40,170,,9999,0,0,2,FEW 30   SCT -9999,1,10,-1,2,1014,RJTI 210400Z 09004KT 040V170 9999 FEW030 SCT/// 10/M02 Q1014     RMK 1CU030 A2995=,
20180121_050000.002,0,RJTI,,,,0,20180121050000,-1,-1,-1,-1,120,-1,8,-1,-1,-1,-1,,9999,0,0,1,FEW 30,1,11,1,1,1014,RJTI 210500Z 12008KT 9999 FEW030 11/01 Q1014 RMK 1CU030 A2994=,
20180121_060000.002,0,RJTI,,,,0,20180121060000,-1,-1,-1,-1,140,-1,6,-1,-1,-1,-1,,9999,0,0,1,FEW 30,1,11,1,2,1014,RJTI 210600Z 14006KT 9999 FEW030 11/02 Q1014 RMK 1CU030 A2995=,
20180121_070000.002,0,RJTI,,,,0,20180121070000,-1,-1,-1,-1,140,-1,6,-1,-1,-1,-1,,9999,0,0,1,FEW 30,1,10,1,2,1014,RJTI 210700Z 14006KT 9999 FEW030 10/02 Q1014 RMK 1CU030 A2994=,
20180121_233000.001,0,RJTI,,,,0,20180121230000,-1,-1,-1,-1,20,-1,8,-1,-1,340,140,,9999,0,1,2,FEW 20   BKN 30,1,3,-1,3,1020,RJTI 212330Z 02008KT 340V140 9999 -RASN FEW020 BKN030 03/M03     Q1020 RMK 1SC020 7SC030 A3014=,- RA SN
20180122_000000.002,0,RJTI,,,,0,20180122000000,-1,-1,-1,-1,360,-1,7,-1,-1,300,50,,9999,0,1,2,FEW 20   BKN 30,1,3,-1,2,1021,RJTI 220000Z 36007KT 300V050 9999 -RASN FEW020 BKN030 03/M02     Q1021 RMK 1SC020 7SC030 A3015=,- RA SN
20180122_010000.002,0,RJTI,,,,0,20180122010000,-1,-1,-1,-1,360,-1,6,-1,-1,310,60,,9999,0,1,3,FEW 20   BKN 30   BKN 40,1,3,-1,1,1020,RJTI 220100Z 36006KT 310V060 9999 -RASN FEW020 BKN030 BKN040     03/M01 Q1020 RMK 1CU020 6SC030 7SC040 A3014=,- RA SN
20180122_020000.002,0,RJTI,,,,0,20180122020000,-1,-1,-1,-1,360,-1,8,-1,-1,240,40,,5000,0,1,3,FEW 10   SCT 25   BKN 30,1,2,-1,0,1019,RJTI 220200Z 36008KT 240V040 5000 -SN FEW010 SCT025 BKN030     02/M00 Q1019 RMK 1ST010 3SC025 7SC030 A3011=,- SN
20180122_030000.002,0,RJTI,,,,0,20180122030000,-1,-1,-1,-1,360,-1,8,-1,-1,310,60,,5000,0,1,3,FEW 6   BKN 8   BKN 25,1,2,1,0,1017,RJTI 220300Z 36008KT 310V060 5000 -SHSN FEW006 BKN008 BKN025     02/00 Q1017 RMK 1ST006 5ST008 7SC025 A3005 P/FR=,- SN SH
20180122_040000.002,0,RJTI,,,,0,20180122040000,-1,-1,-1,-1,999,-1,9,-1,-1,-1,-1,,7000,0,1,3,FEW 6   BKN 8   BKN 10,1,2,1,0,1016,RJTI 220400Z VRB09KT 7000 -SHSN FEW006 BKN008 BKN010 02/00     Q1016 RMK 1ST006 5ST008 7ST010 A3003=,- SN SH
20180122_050000.002,0,RJTI,,,,0,20180122050000,-1,-1,-1,-1,10,-1,10,-1,-1,320,40,,800,0,1,3,FEW 3   BKN 5   BKN 7,1,1,1,0,1015,RJTI 220500Z 01010KT 320V040 0800 SN FEW003 BKN005 BKN007     01/00 Q1015 RMK 1ST003 5ST005 7ST007 A2998=,SN
20180122_060000.003,0,RJTI,,,,0,20180122060000,-1,-1,-1,-1,10,-1,11,-1,-1,330,40,,2000,0,1,3,FEW 4   BKN 6   BKN 12,1,1,1,0,1014,RJTI 220600Z 01011KT 330V040 2000 -SN FEW004 BKN006 BKN012     01/00 Q1014 RMK 1ST004 5ST006 7SC012 A2996=,- SN
20180122_070000.002,0,RJTI,,,,0,20180122070000,-1,-1,-1,-1,360,-1,10,-1,-1,330,40,,800,0,1,3,FEW 4   BKN 6   BKN 8,1,1,-1,0,1013,RJTI 220700Z 36010KT 330V040 0800 SN FEW004 BKN006 BKN008     01/M00 Q1013 RMK 1ST004 5ST006 7ST008 A2994=,SN
20180122_233000.001,0,RJTI,,,,0,20180122230000,-1,-1,-1,-1,180,-1,5,-1,-1,130,230,,9999,0,0,1,FEW 20,1,4,1,1,1006,RJTI 222330Z 18005KT 130V230 9999 FEW020 04/01 Q1006 RMK     1CU020 A2973=,
20180123_000000.002,0,RJTI,,,,0,20180123000000,-1,-1,-1,-1,170,-1,7,-1,-1,150,210,,9999,0,0,1,FEW 20,1,5,1,1,1006,RJTI 230000Z 17007KT 150V210 9999 FEW020 05/01 Q1006 RMK     1CU020 A2971=,
20180123_010000.002,0,RJTI,,,,0,20180123010000,-1,-1,-1,-1,180,-1,9,-1,-1,150,220,,9999,0,0,1,FEW 30,1,6,1,3,1005,RJTI 230100Z 18009KT 150V220 9999 FEW030 06/03 Q1005 RMK     1CU030 A2968=,
20180123_020000.002,0,RJTI,,,,0,20180123020000,-1,-1,-1,-1,220,-1,10,-1,23,160,270,,9999,0,0,1,FEW 20,1,8,1,1,1003,RJTI 230200Z 22010G23KT 160V270 9999 FEW020 08/01 Q1003 RMK     1CU020 A2962=,
20180123_030000.003,0,RJTI,,,,0,20180123030000,-1,-1,-1,-1,240,-1,14,-1,-1,190,260,,9999,0,0,1,FEW 30,1,9,1,1,1002,RJTI 230300Z 24014KT 190V260 9999 FEW030 09/01 Q1002 RMK     1CU030 A2959=,
20180123_040000.003,0,RJTI,,,,0,20180123040000,-1,-1,-1,-1,230,-1,11,-1,21,150,270,,9999,0,0,1,FEW 30,1,10,1,1,1001,RJTI 230400Z 23011G21KT 150V270 9999 FEW030 10/01 Q1001 RMK     1CU030 A2956=,
20180123_050000.002,0,RJTI,,,,0,20180123050000,-1,-1,-1,-1,240,-1,15,-1,-1,-1,-1,,9999,0,0,1,FEW 30,1,11,1,1,1001,RJTI 230500Z 24015KT 9999 FEW030 11/01 Q1001 RMK 1CU030 A2957=,
20180123_060000.003,0,RJTI,,,,0,20180123060000,-1,-1,-1,-1,240,-1,16,-1,-1,210,270,,9999,0,0,1,FEW 30,1,11,-1,2,1002,RJTI 230600Z 24016KT 210V270 9999 FEW030 11/M02 Q1002 RMK     1CU030 A2959=,
20180123_070000.002,0,RJTI,,,,0,20180123070000,-1,-1,-1,-1,250,-1,12,-1,-1,200,280,,9999,0,0,1,FEW 30,1,11,-1,1,1002,RJTI 230700Z 25012KT 200V280 9999 FEW030 11/M01 Q1002 RMK     1CU030 A2961=,
20180123_233000.001,0,RJTI,,,,0,20180123230000,-1,-1,-1,-1,240,-1,11,-1,-1,180,290,,9999,0,0,1,FEW 30,1,4,-1,9,1006,RJTI 232330Z 24011KT 180V290 9999 FEW030 04/M09 Q1006 RMK     1CU030 A2973=,
20180124_000000.002,0,RJTI,,,,0,20180124000000,-1,-1,-1,-1,240,-1,12,-1,-1,200,260,,9999,0,0,1,FEW 30,1,4,-1,9,1006,RJTI 240000Z 24012KT 200V260 9999 FEW030 04/M09 Q1006 RMK     1CU030 A2973=,
20180124_010000.003,0,RJTI,,,,0,20180124010000,-1,-1,-1,-1,230,-1,11,-1,-1,190,270,,9999,0,0,1,FEW 30,1,5,-1,9,1005,RJTI 240100Z 23011KT 190V270 9999 FEW030 05/M09 Q1005 RMK     1CU030 A2970=,
20180124_020000.002,0,RJTI,,,,0,20180124020000,-1,-1,-1,-1,260,-1,11,-1,-1,-1,-1,,9999,0,0,1,FEW 30,1,6,-1,11,1004,RJTI 240200Z 26011KT 9999 FEW030 06/M11 Q1004 RMK 1CU030     A2967=,
20180124_030000.002,0,RJTI,,,,0,20180124030000,-1,-1,-1,-1,240,-1,9,-1,-1,190,280,,9999,0,0,1,FEW 30,1,7,-1,14,1002,RJTI 240300Z 24009KT 190V280 9999 FEW030 07/M14 Q1002 RMK     1CU030 A2961=,
20180124_040000.002,0,RJTI,,,,0,20180124040000,-1,-1,-1,-1,250,-1,8,-1,-1,200,270,,9999,0,0,3,FEW 30   SCT 70   BKN 90,1,7,-1,12,1001,RJTI 240400Z 25008KT 200V270 9999 FEW030 SCT070 BKN090 07/M12     Q1001 RMK 1CU030 4AC070 5AC090 A2959=,
20180124_050000.002,0,RJTI,,,,0,20180124050000,-1,-1,-1,-1,240,-1,9,-1,-1,190,290,,9999,0,0,2,FEW 30   BKN 80,1,7,-1,12,1001,RJTI 240500Z 24009KT 190V290 9999 FEW030 BKN080 07/M12 Q1001     RMK 1CU030 5AC080 A2956=,
20180124_060000.002,0,RJTI,,,,0,20180124060000,-1,-1,-1,-1,230,-1,11,-1,-1,180,280,,9999,0,0,2,FEW 30   SCT 90,1,7,-1,9,1001,RJTI 240600Z 23011KT 180V280 9999 FEW030 SCT090 07/M09 Q1001     RMK 1CU030 3AC090 A2958=,
20180124_070000.002,0,RJTI,,,,0,20180124070000,-1,-1,-1,-1,310,-1,7,-1,17,270,360,,9999,0,0,3,FEW 30   SCT 60   BKN 80,1,6,-1,12,1002,RJTI 240700Z 31007G17KT 270V360 9999 FEW030 SCT060 BKN080     06/M12 Q1002 RMK 1CU030 3SC060 6AC080 A2961=,
20180124_233000.001,0,RJTI,,,,0,20180124230000,-1,-1,-1,-1,300,-1,10,-1,-1,-1,-1,,9999,0,0,1,FEW 30,1,0,-1,18,1011,RJTI 242330Z 30010KT 9999 FEW030 00/M18 Q1011 RMK 1CU030     A2986=,
20180125_000000.002,0,RJTI,,,,0,20180125000000,-1,-1,-1,-1,310,-1,9,-1,19,260,50,,9999,0,0,1,FEW 30,1,0,-1,18,1011,RJTI 250000Z 31009G19KT 260V050 9999 FEW030 00/M18 Q1011 RMK     1CU030 A2987=,
20180125_010000.002,0,RJTI,,,,0,20180125010000,-1,-1,-1,-1,300,-1,15,-1,-1,-1,-1,,9999,0,0,1,FEW 30,1,1,-1,19,1011,RJTI 250100Z 30015KT 9999 FEW030 01/M19 Q1011 RMK 1CU030     A2986=,
20180125_020000.003,0,RJTI,,,,0,20180125020000,-1,-1,-1,-1,290,-1,18,-1,-1,250,310,,9999,0,0,1,FEW 30,1,2,-1,18,1010,RJTI 250200Z 29018KT 250V310 9999 FEW030 02/M18 Q1010 RMK     1CU030 A2984=,
20180125_030000.002,0,RJTI,,,,0,20180125030000,-1,-1,-1,-1,999,-1,12,-1,-1,-1,-1,,9999,0,0,1,FEW 30,1,3,-1,17,1010,RJTI 250300Z VRB12KT 9999 FEW030 03/M17 Q1010 RMK 1CU030     A2983=,
20180125_040000.002,0,RJTI,,,,0,20180125040000,-1,-1,-1,-1,999,-1,6,-1,-1,-1,-1,,9999,0,0,1,FEW 30,1,3,-1,17,1009,RJTI 250400Z VRB06KT 9999 FEW030 03/M17 Q1009 RMK 1CU030     A2981=,
20180125_050000.002,0,RJTI,,,,0,20180125050000,-1,-1,-1,-1,340,-1,7,-1,-1,260,50,,9999,0,0,1,FEW 30,1,3,-1,17,1009,RJTI 250500Z 34007KT 260V050 9999 FEW030 03/M17 Q1009 RMK     1CU030 A2980=,
20180125_060000.002,0,RJTI,,,,0,20180125060000,-1,-1,-1,-1,999,-1,8,-1,-1,-1,-1,,9999,0,0,1,FEW 30,1,3,-1,17,1009,RJTI 250600Z VRB08KT 9999 FEW030 03/M17 Q1009 RMK 1CU030     A2980=,
20180125_070000.002,0,RJTI,,,,0,20180125070000,-1,-1,-1,-1,340,-1,6,-1,-1,280,80,,9999,0,0,1,FEW 30,1,3,-1,16,1009,RJTI 250700Z 34006KT 280V080 9999 FEW030 03/M16 Q1009 RMK     1CU030 A2981=,
20180125_233000.001,0,RJTI,,,,0,20180125230000,-1,-1,-1,-1,330,-1,5,-1,-1,270,30,,9999,0,0,1,FEW 30,1,1,-1,15,1006,RJTI 252330Z 33005KT 270V030 9999 FEW030 01/M15 Q1006 RMK     1CU030 A2973=,
20180126_000000.002,0,RJTI,,,,0,20180126000000,-1,-1,-1,-1,310,-1,9,-1,-1,280,20,,9999,0,0,1,FEW 30,1,2,-1,14,1007,RJTI 260000Z 31009KT 280V020 9999 FEW030 02/M14 Q1007 RMK     1CU030 A2974=,
20180126_010000.002,0,RJTI,,,,0,20180126010000,-1,-1,-1,-1,320,-1,8,-1,-1,270,40,,9999,0,0,1,FEW 30,1,4,-1,12,1007,RJTI 260100Z 32008KT 270V040 9999 FEW030 04/M12 Q1007 RMK     1CU030 A2974=,
20180126_020000.002,0,RJTI,,,,0,20180126020000,-1,-1,-1,-1,330,-1,9,-1,-1,240,20,,9999,0,0,1,FEW 30,1,4,-1,13,1006,RJTI 260200Z 33009KT 240V020 9999 FEW030 04/M13 Q1006 RMK     1CU030 A2972=,
20180126_030000.002,0,RJTI,,,,0,20180126030000,-1,-1,-1,-1,340,-1,8,-1,-1,280,60,,9999,0,0,1,FEW 30,1,4,-1,13,1005,RJTI 260300Z 34008KT 280V060 9999 FEW030 04/M13 Q1005 RMK     1CU030 A2969=,
20180126_040000.002,0,RJTI,,,,0,20180126040000,-1,-1,-1,-1,330,-1,7,-1,-1,280,80,,9999,0,0,1,FEW 30,1,5,-1,12,1005,RJTI 260400Z 33007KT 280V080 9999 FEW030 05/M12 Q1005 RMK     1CU030 A2968=,
20180126_050000.002,0,RJTI,,,,0,20180126050000,-1,-1,-1,-1,360,-1,9,-1,-1,300,40,,9999,0,0,2,FEW 30   SCT 70,1,4,-1,14,1005,RJTI 260500Z 36009KT 300V040 9999 FEW030 SCT070 04/M14 Q1005     RMK 1CU030 3AC070 A2969=,
20180126_060000.002,0,RJTI,,,,0,20180126060000,-1,-1,-1,-1,330,-1,9,-1,-1,260,80,,9999,0,0,2,FEW 30   BKN 80,1,4,-1,15,1005,RJTI 260600Z 33009KT 260V080 9999 FEW030 BKN080 04/M15 Q1005     RMK 1CU030 5AC080 A2970=,
20180126_070000.002,0,RJTI,,,,0,20180126070000,-1,-1,-1,-1,330,-1,10,-1,-1,290,10,,9999,0,0,2,FEW 30   BKN 80,1,3,-1,15,1006,RJTI 260700Z 33010KT 290V010 9999 FEW030 BKN080 03/M15 Q1006     RMK 1CU030 5AC080 A2972=,
20180126_233000.001,0,RJTI,,,,0,20180126230000,-1,-1,-1,-1,290,-1,15,-1,27,250,310,,9999,0,0,1,FEW 30,1,3,-1,17,1014,RJTI 262330Z 29015G27KT 250V310 9999 FEW030 03/M17 Q1014 RMK     1CU030 A2995=,
20180127_000000.002,0,RJTI,,,,0,20180127000000,-1,-1,-1,-1,290,-1,15,-1,-1,-1,-1,,9999,0,0,1,FEW 30,1,3,-1,17,1014,RJTI 270000Z 29015KT 9999 FEW030 03/M17 Q1014 RMK 1CU030     A2996=,
20180127_010000.002,0,RJTI,,,,0,20180127010000,-1,-1,-1,-1,310,-1,11,-1,-1,250,360,CAVOK,-1,0,0,0,,1,4,-1,15,1015,RJTI 270100Z 31011KT 250V360 CAVOK 04/M15 Q1015 RMK A2997=,
20180127_020000.002,0,RJTI,,,,0,20180127020000,-1,-1,-1,-1,300,-1,14,-1,24,270,350,CAVOK,-1,0,0,0,,1,6,-1,15,1014,RJTI 270200Z 30014G24KT 270V350 CAVOK 06/M15 Q1014 RMK A2995=,
20180127_030000.002,0,RJTI,,,,0,20180127030000,-1,-1,-1,-1,300,-1,14,-1,25,190,350,,9999,0,0,1,FEW 30,1,6,-1,15,1014,RJTI 270300Z 30014G25KT 190V350 9999 FEW030 06/M15 Q1014 RMK     1CU030 A2994=,
20180127_040000.002,0,RJTI,,,,0,20180127040000,-1,-1,-1,-1,320,-1,11,-1,21,260,30,,9999,0,0,1,FEW 30,1,7,-1,16,1013,RJTI 270400Z 32011G21KT 260V030 9999 FEW030 07/M16 Q1013 RMK     1CU030 A2993=,
20180127_050000.002,0,RJTI,,,,0,20180127050000,-1,-1,-1,-1,320,-1,12,-1,22,230,40,,9999,0,0,1,FEW 30,1,7,-1,16,1013,RJTI 270500Z 32012G22KT 230V040 9999 FEW030 07/M16 Q1013 RMK     1CU030 A2994=,
20180127_060000.002,0,RJTI,,,,0,20180127060000,-1,-1,-1,-1,320,-1,8,-1,-1,240,40,,9999,0,0,1,FEW 30,1,8,-1,13,1014,RJTI 270600Z 32008KT 240V040 9999 FEW030 08/M13 Q1014 RMK     1CU030 A2995=,
20180127_070000.002,0,RJTI,,,,0,20180127070000,-1,-1,-1,-1,310,-1,13,-1,-1,280,360,,9999,0,0,1,FEW 30,1,7,-1,14,1014,RJTI 270700Z 31013KT 280V360 9999 FEW030 07/M14 Q1014 RMK     1CU030 A2997=,
20180127_233000.001,0,RJTI,,,,0,20180127230000,-1,-1,-1,-1,999,-1,3,-1,-1,-1,-1,,9999,0,0,3,FEW 30   SCT 150   BKN -9999,1,2,-1,10,1018,RJTI 272330Z VRB03KT 9999 FEW030 SCT150 BKN/// 02/M10 Q1018     RMK 1CU030 4AC150 A3009=,
20180128_000000.003,0,RJTI,,,,0,20180128000000,-1,-1,-1,-1,999,-1,3,-1,-1,-1,-1,,9999,0,0,3,FEW 30   SCT 140   BKN -9999,1,2,-1,10,1019,RJTI 280000Z VRB03KT 9999 FEW030 SCT140 BKN/// 02/M10 Q1019     RMK 1CU030 4AC140 A3009=,
20180128_010000.002,0,RJTI,,,,0,20180128010000,-1,-1,-1,-1,999,-1,5,-1,-1,-1,-1,,9999,0,0,3,FEW 30   BKN 40   BKN 150,1,3,-1,9,1018,RJTI 280100Z VRB05KT 9999 FEW030 BKN040 BKN150 03/M09 Q1018     RMK 1CU030 6SC040 7AC150 A3008=,
20180128_020000.002,0,RJTI,,,,0,20180128020000,-1,-1,-1,-1,999,-1,3,-1,-1,-1,-1,,9999,0,0,2,FEW 30   BKN 40,1,3,-1,10,1017,RJTI 280200Z VRB03KT 9999 FEW030 BKN040 03/M10 Q1017 RMK     1CU030 7SC040 A3006=,
20180128_030000.002,0,RJTI,,,,0,20180128030000,-1,-1,-1,-1,40,-1,3,-1,-1,340,130,,9999,0,0,2,FEW 20   BKN 35,1,3,-1,9,1015,RJTI 280300Z 04003KT 340V130 9999 FEW020 BKN035 03/M09 Q1015     RMK 1CU020 7SC035 A3000 P/FR=,
20180128_040000.002,0,RJTI,,,,0,20180128040000,-1,-1,-1,-1,999,-1,1,-1,-1,-1,-1,,9999,0,0,2,FEW 25   BKN 40,1,4,-1,9,1015,RJTI 280400Z VRB01KT 9999 FEW025 BKN040 04/M09 Q1015 RMK     1CU025 7SC040 A2998=,
20180128_050000.002,0,RJTI,,,,0,20180128050000,-1,-1,-1,-1,999,-1,2,-1,-1,-1,-1,,9999,0,0,2,FEW 25   BKN 40,1,4,-1,8,1014,RJTI 280500Z VRB02KT 9999 FEW025 BKN040 04/M08 Q1014 RMK     1CU025 7SC040 A2996=,
20180128_060000.002,0,RJTI,,,,0,20180128060000,-1,-1,-1,-1,999,-1,1,-1,-1,-1,-1,,9999,0,0,2,FEW 25   BKN 40,1,4,-1,7,1013,RJTI 280600Z VRB01KT 9999 FEW025 BKN040 04/M07 Q1013 RMK     1CU025 7SC040 A2994=,
20180128_070000.003,0,RJTI,,,,0,20180128070000,-1,-1,-1,-1,110,-1,7,-1,-1,-1,-1,,9999,0,0,3,FEW 25   SCT 35   BKN 90,1,5,-1,4,1012,RJTI 280700Z 11007KT 9999 FEW025 SCT035 BKN090 05/M04 Q1012     RMK 1CU025 4SC035 6AC090 A2991=,
20180128_233000.001,0,RJTI,,,,0,20180128230000,-1,-1,-1,-1,999,-1,2,-1,-1,-1,-1,CAVOK,-1,0,0,0,,1,3,-1,4,1007,RJTI 282330Z VRB02KT CAVOK 03/M04 Q1007 RMK A2975=,
20180129_000000.003,0,RJTI,,,,0,20180129000000,-1,-1,-1,-1,999,-1,1,-1,-1,-1,-1,CAVOK,-1,0,0,0,,1,4,-1,4,1007,RJTI 290000Z VRB01KT CAVOK 04/M04 Q1007 RMK A2976=,
20180129_010000.002,0,RJTI,,,,0,20180129010000,-1,-1,-1,-1,320,-1,3,-1,-1,210,20,CAVOK,-1,0,0,0,,1,6,-1,6,1007,RJTI 290100Z 32003KT 210V020 CAVOK 06/M06 Q1007 RMK A2976=,
20180129_020000.002,0,RJTI,,,,0,20180129020000,-1,-1,-1,-1,999,-1,3,-1,-1,-1,-1,,9999,0,0,2,FEW 30   SCT -9999,1,7,-1,6,1007,RJTI 290200Z VRB03KT 9999 FEW030 SCT/// 07/M06 Q1007 RMK     1CU030 A2974=,
20180129_030000.002,0,RJTI,,,,0,20180129030000,-1,-1,-1,-1,999,-1,4,-1,-1,-1,-1,,9999,0,0,2,FEW 30   SCT -9999,1,9,-1,5,1006,RJTI 290300Z VRB04KT 9999 FEW030 SCT/// 09/M05 Q1006 RMK     1CU030 A2971=,
20180129_040000.002,0,RJTI,,,,0,20180129040000,-1,-1,-1,-1,150,-1,5,-1,-1,-1,-1,,9999,0,0,1,FEW 30,1,8,-1,4,1005,RJTI 290400Z 15005KT 9999 FEW030 08/M04 Q1005 RMK 1CU030     A2968=,
20180129_050000.002,0,RJTI,,,,0,20180129050000,-1,-1,-1,-1,999,-1,4,-1,-1,-1,-1,,9999,0,0,2,FEW 30   BKN 60,1,9,-1,3,1004,RJTI 290500Z VRB04KT 9999 FEW030 BKN060 09/M03 Q1004 RMK     1CU030 5SC060 A2965=,
20180129_060000.002,0,RJTI,,,,0,20180129060000,-1,-1,-1,-1,140,-1,5,-1,-1,-1,-1,,9999,0,0,2,FEW 30   SCT 60,1,9,-1,2,1004,RJTI 290600Z 14005KT 9999 FEW030 SCT060 09/M02 Q1004 RMK     1CU030 3SC060 A2965=,
20180129_070000.002,0,RJTI,,,,0,20180129070000,-1,-1,-1,-1,70,-1,12,-1,-1,-1,-1,,9999,0,0,2,SCT 30   BKN 60,1,8,1,1,1004,RJTI 290700Z 07012KT 9999 SCT030 BKN060 08/01 Q1004 RMK 3CU030     5SC060 A2966=,
20180129_233000.001,0,RJTI,,,,0,20180129230000,-1,-1,-1,-1,20,-1,8,-1,-1,290,60,,9999,0,0,2,FEW 30   BKN 70,1,3,-1,6,1015,RJTI 292330Z 02008KT 290V060 9999 FEW030 BKN070 03/M06 Q1015     RMK 1CU030 6AC070 A2998=,
20180130_000000.002,0,RJTI,,,,0,20180130000000,-1,-1,-1,-1,30,-1,9,-1,-1,340,70,,9999,0,0,2,FEW 30   SCT 70,1,3,-1,6,1015,RJTI 300000Z 03009KT 340V070 9999 FEW030 SCT070 03/M06 Q1015     RMK 1CU030 4AC070 A2998=,
20180130_010000.002,0,RJTI,,,,0,20180130010000,-1,-1,-1,-1,999,-1,9,-1,-1,-1,-1,,9999,0,0,2,FEW 30   BKN 60,1,4,-1,8,1015,RJTI 300100Z VRB09KT 9999 FEW030 BKN060 04/M08 Q1015 RMK     1CU030 6SC060 A2999=,
20180130_020000.002,0,RJTI,,,,0,20180130020000,-1,-1,-1,-1,999,-1,7,-1,-1,-1,-1,,9999,0,0,2,FEW 30   BKN 70,1,5,-1,9,1015,RJTI 300200Z VRB07KT 9999 FEW030 BKN070 05/M09 Q1015 RMK     1CU030 6AC070 A2999=,
20180130_030000.002,0,RJTI,,,,0,20180130030000,-1,-1,-1,-1,999,-1,4,-1,-1,-1,-1,,9999,0,0,2,FEW 30   BKN 70,1,5,-1,10,1015,RJTI 300300Z VRB04KT 9999 FEW030 BKN070 05/M10 Q1015 RMK     1CU030 6AC070 A2998=,
20180130_040000.002,0,RJTI,,,,0,20180130040000,-1,-1,-1,-1,50,-1,6,-1,-1,360,80,,9999,0,0,2,FEW 30   SCT 70,1,5,-1,11,1014,RJTI 300400Z 05006KT 360V080 9999 FEW030 SCT070 05/M11 Q1014     RMK 1CU030 4AC070 A2995=,
20180130_050000.002,0,RJTI,,,,0,20180130050000,-1,-1,-1,-1,50,-1,7,-1,-1,20,150,,9999,0,0,2,FEW 30   BKN 70,1,6,-1,11,1014,RJTI 300500Z 05007KT 020V150 9999 FEW030 BKN070 06/M11 Q1014     RMK 1CU030 5AC070 A2997=,
20180130_060000.003,0,RJTI,,,,0,20180130060000,-1,-1,-1,-1,90,-1,4,-1,-1,-1,-1,,9999,0,0,2,FEW 30   BKN 70,1,6,-1,11,1015,RJTI 300600Z 09004KT 9999 FEW030 BKN070 06/M11 Q1015 RMK     1CU030 6AC070 A3000=,
20180130_070000.002,0,RJTI,,,,0,20180130070000,-1,-1,-1,-1,170,-1,4,-1,-1,140,220,,9999,0,0,2,FEW 30   BKN 60,1,5,-1,10,1016,RJTI 300700Z 17004KT 140V220 9999 FEW030 BKN060 05/M10 Q1016     RMK 1CU030 7SC060 A3000=,
20180130_233000.001,0,RJTI,,,,0,20180130230000,-1,-1,-1,-1,330,-1,5,-1,-1,220,360,,9999,0,0,1,FEW 30,1,3,-1,9,1022,RJTI 302330Z 33005KT 220V360 9999 FEW030 03/M09 Q1022 RMK     1CU030 A3019=,
20180131_000000.002,0,RJTI,,,,0,20180131000000,-1,-1,-1,-1,999,-1,2,-1,-1,-1,-1,,9999,0,0,1,FEW 30,1,3,-1,9,1022,RJTI 310000Z VRB02KT 9999 FEW030 03/M09 Q1022 RMK 1CU030     A3019=,
20180131_010000.002,0,RJTI,,,,0,20180131010000,-1,-1,-1,-1,999,-1,3,-1,-1,-1,-1,,9999,0,0,1,FEW 30,1,5,-1,9,1022,RJTI 310100Z VRB03KT 9999 FEW030 05/M09 Q1022 RMK 1CU030     A3020=,
20180131_020000.002,0,RJTI,,,,0,20180131020000,-1,-1,-1,-1,50,-1,5,-1,-1,320,80,,9999,0,0,2,FEW 30   SCT -9999,1,6,-1,10,1021,RJTI 310200Z 05005KT 320V080 9999 FEW030 SCT/// 06/M10 Q1021     RMK 1CU030 A3018=,
20180131_030000.002,0,RJTI,,,,0,20180131030000,-1,-1,-1,-1,150,-1,4,-1,-1,-1,-1,,9999,0,0,1,FEW 30,1,7,-1,8,1021,RJTI 310300Z 15004KT 9999 FEW030 07/M08 Q1021 RMK 1CU030     A3015=,
20180131_040000.002,0,RJTI,,,,0,20180131040000,-1,-1,-1,-1,130,-1,7,-1,-1,-1,-1,,9999,0,0,2,FEW 30   BKN -9999,1,8,-1,6,1020,RJTI 310400Z 13007KT 9999 FEW030 BKN/// 08/M06 Q1020 RMK     1CU030 A3012=,
20180131_050000.002,0,RJTI,,,,0,20180131050000,-1,-1,-1,-1,999,-1,4,-1,-1,-1,-1,,9999,0,0,2,FEW 30   BKN -9999,1,7,-1,6,1019,RJTI 310500Z VRB04KT 9999 FEW030 BKN/// 07/M06 Q1019 RMK     1CU030 A3011=,
20180131_060000.002,0,RJTI,,,,0,20180131060000,-1,-1,-1,-1,130,-1,5,-1,-1,-1,-1,,9999,0,0,2,FEW 30   BKN -9999,1,7,-1,4,1020,RJTI 310600Z 13005KT 9999 FEW030 BKN/// 07/M04 Q1020 RMK     1CU030 A3013=,
20180131_070000.003,0,RJTI,,,,0,20180131070000,-1,-1,-1,-1,130,-1,3,-1,-1,-1,-1,,9999,0,0,2,FEW 30   BKN -9999,1,7,-1,4,1021,RJTI 310700Z 13003KT 9999 FEW030 BKN/// 07/M04 Q1021 RMK     1CU030 A3015=,
20180131_233000.001,0,RJTI,,,,0,20180131230000,-1,-1,-1,-1,360,-1,6,-1,-1,300,50,,9999,0,0,3,FEW 30   SCT 50   BKN -9999,1,4,-1,4,1024,RJTI 312330Z 36006KT 300V050 9999 FEW030 SCT050 BKN/// 04/M04     Q1024 RMK 1CU030 3SC050 A3026=,
20180201_000000.003,0,RJTI,,,,0,20180201000000,-1,-1,-1,-1,360,-1,5,-1,-1,290,90,,9999,0,0,3,FEW 30   SCT 50   BKN -9999,1,4,-1,3,1025,RJTI 010000Z 36005KT 290V090 9999 FEW030 SCT050 BKN/// 04/M03     Q1025 RMK 1CU030 3SC050 A3027=,
20180201_010000.002,0,RJTI,,,,0,20180201010000,-1,-1,-1,-1,20,-1,6,-1,-1,310,70,,9999,0,0,3,FEW 30   BKN 45   BKN 110,1,5,-1,2,1025,RJTI 010100Z 02006KT 310V070 9999 FEW030 BKN045 BKN110 05/M02     Q1025 RMK 1CU030 5SC045 7AC110 A3028=,
20180201_020000.002,0,RJTI,,,,0,20180201020000,-1,-1,-1,-1,20,-1,7,-1,-1,340,60,,9999,0,0,3,FEW 30   BKN 35   BKN 60,1,6,-1,2,1024,RJTI 010200Z 02007KT 340V060 9999 FEW030 BKN035 BKN060 06/M02     Q1024 RMK 1CU030 5SC035 7SC060 A3026=,
20180201_030000.003,0,RJTI,,,,0,20180201030000,-1,-1,-1,-1,20,-1,7,-1,-1,330,100,,9999,0,1,2,FEW 10   BKN 25,1,6,-1,1,1024,RJTI 010300Z 02007KT 330V100 9999 -RA FEW010 BKN025 06/M01     Q1024 RMK 1ST010 7SC025 A3025=,- RA
20180201_040000.003,0,RJTI,,,,0,20180201040000,-1,-1,-1,-1,30,-1,10,-1,-1,350,50,,8000,0,1,2,FEW 10   BKN 20,1,4,1,1,1024,RJTI 010400Z 03010KT 350V050 8000 -RA FEW010 BKN020 04/01     Q1024 RMK 1ST010 7SC020 A3024=,- RA
20180201_050000.002,0,RJTI,,,,0,20180201050000,-1,-1,-1,-1,30,-1,9,-1,-1,340,60,,9999,0,1,3,FEW 10   BKN 15   BKN 30,1,4,1,2,1024,RJTI 010500Z 03009KT 340V060 9999 -RA FEW010 BKN015 BKN030     04/02 Q1024 RMK 1ST010 6SC015 7SC030 A3024=,- RA
20180201_060000.002,0,RJTI,,,,0,20180201060000,-1,-1,-1,-1,30,-1,9,-1,-1,320,60,,8000,0,1,3,FEW 10   BKN 15   BKN 25,1,4,1,2,1024,RJTI 010600Z 03009KT 320V060 8000 -RA FEW010 BKN015 BKN025     04/02 Q1024 RMK 1ST010 6SC015 7SC025 A3025=,- RA
20180201_070000.002,0,RJTI,,,,0,20180201070000,-1,-1,-1,-1,30,-1,9,-1,-1,340,60,,8000,0,1,3,FEW 10   BKN 15   BKN 25,1,4,1,1,1024,RJTI 010700Z 03009KT 340V060 8000 -RA FEW010 BKN015 BKN025     04/01 Q1024 RMK 1ST010 6SC015 7SC025 A3025=,- RA
20180201_233000.001,0,RJTI,,,,0,20180201230000,-1,-1,-1,-1,360,-1,9,-1,-1,320,40,,2500,0,2,3,FEW 6   BKN 9   BKN 15,1,1,1,0,1026,RJTI 012330Z 36009KT 320V040 2500 -SN BR FEW006 BKN009 BKN015     01/00 Q1026 RMK 1ST006 5ST009 7SC015 A3030=,- SN; BR
20180202_000000.002,0,RJTI,,,,0,20180202000000,-1,-1,-1,-1,350,-1,8,-1,-1,300,30,,2500,0,2,3,FEW 6   BKN 9   BKN 15,1,1,1,0,1025,RJTI 020000Z 35008KT 300V030 2500 -SN BR FEW006 BKN009 BKN015     01/00 Q1025 RMK 1ST006 5ST009 7SC015 A3029=,- SN; BR
20180202_010000.002,0,RJTI,,,,0,20180202010000,-1,-1,-1,-1,360,-1,7,-1,-1,290,110,,5000,0,2,3,FEW 6   SCT 10   BKN 15,1,2,1,1,1025,RJTI 020100Z 36007KT 290V110 5000 -SN BR FEW006 SCT010 BKN015     02/01 Q1025 RMK 1ST006 4ST010 5SC015 A3028=,- SN; BR
20180202_020000.002,0,RJTI,,,,0,20180202020000,-1,-1,-1,-1,350,-1,8,-1,-1,250,50,,6000,0,1,3,FEW 6   SCT 10   BKN 15,1,2,1,1,1024,RJTI 020200Z 35008KT 250V050 6000 -RASN FEW006 SCT010 BKN015     02/01 Q1024 RMK 1ST006 4ST010 5SC015 A3026=,- RA SN
20180202_030000.002,0,RJTI,,,,0,20180202030000,-1,-1,-1,-1,330,-1,5,-1,-1,230,30,,5000,0,2,3,FEW 8   BKN 10   BKN 15,1,2,1,1,1023,RJTI 020300Z 33005KT 230V030 5000 -RASN BR FEW008 BKN010     BKN015 02/01 Q1023 RMK 1ST008 5ST010 6SC015 A3023=,- RA SN; BR
20180202_040000.002,0,RJTI,,,,0,20180202040000,-1,-1,-1,-1,350,-1,7,-1,-1,330,110,,6000,0,1,3,FEW 8   SCT 10   BKN 60,1,3,1,1,1023,RJTI 020400Z 35007KT 330V110 6000 -RA FEW008 SCT010 BKN060     03/01 Q1023 RMK 1ST008 3ST010 7SC060 A3021=,- RA
20180202_050000.001,0,RJTI,,,,0,20180202050000,-1,-1,-1,-1,360,-1,10,-1,-1,320,30,,9999,0,1,3,FEW 10   BKN 15   BKN 60,1,3,1,0,1022,RJTI 020500Z 36010KT 320V030 9999 -RASN FEW010 BKN015 BKN060     03/00 Q1022 RMK 2ST010 5SC015 7SC060 A3021=,- RA SN
20180202_060000.002,0,RJTI,,,,0,20180202060000,-1,-1,-1,-1,360,-1,7,-1,-1,290,50,,9999,0,0,2,FEW 15   BKN 20,1,4,1,0,1023,RJTI 020600Z 36007KT 290V050 9999 FEW015 BKN020 04/00 Q1023     RMK 1SC015 7SC020 A3022=,
20180202_070000.002,0,RJTI,,,,0,20180202070000,-1,-1,-1,-1,360,-1,8,-1,-1,330,50,,9999,0,0,2,FEW 15   BKN 20,1,4,-1,1,1023,RJTI 020700Z 36008KT 330V050 9999 FEW015 BKN020 04/M01 Q1023     RMK 1SC015 7SC020 A3022=,
20180202_233000.001,0,RJTI,,,,0,20180202230000,-1,-1,-1,-1,999,-1,3,-1,-1,-1,-1,,9999,0,0,3,FEW 20   SCT 80   BKN -9999,1,3,-1,1,1017,RJTI 022330Z VRB03KT 9999 FEW020 SCT080 BKN/// 03/M01 Q1017     RMK 1CU020 3AC080 A3005=,
20180203_000000.002,0,RJTI,,,,0,20180203000000,-1,-1,-1,-1,999,-1,4,-1,-1,-1,-1,,9999,0,0,2,FEW 20   BKN -9999,1,4,-1,1,1017,RJTI 030000Z VRB04KT 9999 FEW020 BKN/// 04/M01 Q1017 RMK     1CU020 A3004=,
20180203_010000.003,0,RJTI,,,,0,20180203010000,-1,-1,-1,-1,999,-1,4,-1,-1,-1,-1,,9999,0,0,2,FEW 20   BKN -9999,1,5,-1,0,1016,RJTI 030100Z VRB04KT 9999 FEW020 BKN/// 05/M00 Q1016 RMK     1CU020 A3003=,
20180203_020000.002,0,RJTI,,,,0,20180203020000,-1,-1,-1,-1,50,-1,6,-1,-1,10,150,,9999,0,0,2,FEW 20   BKN -9999,1,6,-1,1,1015,RJTI 030200Z 05006KT 010V150 9999 FEW020 BKN/// 06/M01 Q1015     RMK 1CU020 A2999=,
20180203_030000.002,0,RJTI,,,,0,20180203030000,-1,-1,-1,-1,999,-1,5,-1,-1,-1,-1,,9999,0,0,2,FEW 20   OVC -9999,1,7,-1,1,1014,RJTI 030300Z VRB05KT 9999 FEW020 OVC/// 07/M01 Q1014 RMK     1CU020 A2995=,
20180203_040000.002,0,RJTI,,,,0,20180203040000,-1,-1,-1,-1,20,-1,6,-1,-1,340,60,,9999,0,0,3,FEW 20   BKN 80   BKN -9999,1,7,-1,1,1012,RJTI 030400Z 02006KT 340V060 9999 FEW020 BKN080 BKN/// 07/M01     Q1012 RMK 1CU020 5AC080 A2991=,
20180203_050000.002,0,RJTI,,,,0,20180203050000,-1,-1,-1,-1,999,-1,3,-1,-1,-1,-1,,9999,0,0,3,FEW 20   SCT 80   BKN -9999,1,7,-1,1,1012,RJTI 030500Z VRB03KT 9999 FEW020 SCT080 BKN/// 07/M01 Q1012     RMK 1CU020 3AC080 A2990=,
20180203_060000.002,0,RJTI,,,,0,20180203060000,-1,-1,-1,-1,999,-1,4,-1,-1,-1,-1,,9999,0,0,2,FEW 20   BKN -9999,1,7,-1,1,1012,RJTI 030600Z VRB04KT 9999 FEW020 BKN/// 07/M01 Q1012 RMK     1CU020 A2990=,
20180203_070000.003,0,RJTI,,,,0,20180203070000,-1,-1,-1,-1,999,-1,4,-1,-1,-1,-1,,9999,0,0,3,FEW 20   SCT 40   BKN -9999,1,7,-1,1,1012,RJTI 030700Z VRB04KT 9999 FEW020 SCT040 BKN/// 07/M01 Q1012     RMK 1CU020 3SC040 A2990=,
20180203_233000.001,0,RJTI,,,,0,20180203230000,-1,-1,-1,-1,340,-1,5,-1,-1,290,40,,9999,0,0,2,FEW 30   BKN 60,1,5,-1,7,1011,RJTI 032330Z 34005KT 290V040 9999 FEW030 BKN060 05/M07 Q1011     RMK 1CU030 6SC060 A2986=,
20180204_000000.002,0,RJTI,,,,0,20180204000000,-1,-1,-1,-1,999,-1,4,-1,-1,-1,-1,,9999,0,0,2,FEW 30   BKN 40,1,5,-1,7,1011,RJTI 040000Z VRB04KT 9999 FEW030 BKN040 05/M07 Q1011 RMK     1CU030 6SC040 A2986 VIRGA OHD MOV NE=,
20180204_010000.002,0,RJTI,,,,0,20180204010000,-1,-1,-1,-1,350,-1,4,-1,-1,300,60,,9999,0,0,2,FEW 30   BKN 45,1,6,-1,4,1010,RJTI 040100Z 35004KT 300V060 9999 FEW030 BKN045 06/M04 Q1010     RMK 1CU030 7SC045 A2984=,
20180204_020000.002,0,RJTI,,,,0,20180204020000,-1,-1,-1,-1,999,-1,5,-1,-1,-1,-1,,9999,0,0,2,FEW 30   SCT 60,1,7,-1,4,1009,RJTI 040200Z VRB05KT 9999 FEW030 SCT060 07/M04 Q1009 RMK     1CU030 3SC060 A2981=,
20180204_030000.002,0,RJTI,,,,0,20180204030000,-1,-1,-1,-1,140,-1,4,-1,-1,120,200,,9999,0,0,1,FEW 30,1,8,-1,4,1008,RJTI 040300Z 14004KT 120V200 9999 FEW030 08/M04 Q1008 RMK     1CU030 A2977=,
20180204_040000.002,0,RJTI,,,,0,20180204040000,-1,-1,-1,-1,130,-1,6,-1,-1,-1,-1,,9999,0,0,1,FEW 30,1,8,-1,3,1007,RJTI 040400Z 13006KT 9999 FEW030 08/M03 Q1007 RMK 1CU030     A2974=,
20180204_050000.002,0,RJTI,,,,0,20180204050000,-1,-1,-1,-1,160,-1,9,-1,-1,-1,-1,,9999,0,0,1,FEW 30,1,9,-1,2,1006,RJTI 040500Z 16009KT 9999 FEW030 09/M02 Q1006 RMK 1CU030     A2971=,
20180204_060000.002,0,RJTI,,,,0,20180204060000,-1,-1,-1,-1,150,-1,6,-1,-1,-1,-1,,9999,0,0,1,FEW 30,1,9,-1,4,1005,RJTI 040600Z 15006KT 9999 FEW030 09/M04 Q1005 RMK 1CU030     A2970=,
20180204_070000.002,0,RJTI,,,,0,20180204070000,-1,-1,-1,-1,190,-1,7,-1,-1,150,240,,9999,0,0,2,FEW 30   SCT 70,1,9,-1,6,1005,RJTI 040700Z 19007KT 150V240 9999 FEW030 SCT070 09/M06 Q1005     RMK 1CU030 3AC070 A2969=,
20180204_233000.001,0,RJTI,,,,0,20180204230000,-1,-1,-1,-1,340,-1,7,-1,-1,270,10,,9999,0,0,2,FEW 30   BKN 90,1,3,-1,8,1013,RJTI 042330Z 34007KT 270V010 9999 FEW030 BKN090 03/M08 Q1013     RMK 1CU030 6AC090 A2991=,
20180205_000000.003,0,RJTI,,,,0,20180205000000,-1,-1,-1,-1,340,-1,7,-1,-1,280,100,,9999,0,0,2,FEW 30   BKN 70,1,3,-1,9,1012,RJTI 050000Z 34007KT 280V100 9999 FEW030 BKN070 03/M09 Q1012     RMK 1CU030 5AC070 A2990=,
20180205_010000.002,0,RJTI,,,,0,20180205010000,-1,-1,-1,-1,330,-1,7,-1,-1,240,60,,9999,0,0,2,FEW 30   BKN 70,1,5,-1,9,1012,RJTI 050100Z 33007KT 240V060 9999 FEW030 BKN070 05/M09 Q1012     RMK 1CU030 6AC070 A2990=,
20180205_020000.002,0,RJTI,,,,0,20180205020000,-1,-1,-1,-1,50,-1,6,-1,-1,-1,-1,,9999,0,0,1,FEW 30,1,6,-1,10,1011,RJTI 050200Z 05006KT 9999 FEW030 06/M10 Q1011 RMK 1CU030     A2988=,
