20180101_000000.002,0,RJTO,,,,0,20180101000000,-1,-1,-1,-1,10,-1,4,-1,-1,310,40,,9999,0,0,2,FEW 15   SCT 20,1,9,1,5,1012,RJTO 010000Z 01004KT 310V040 9999 FEW015 SCT020 09/05 Q1012     RMK 1CU015 4CU020 A2990=,
20180101_010000.002,0,RJTO,,,,0,20180101010000,-1,-1,-1,-1,40,-1,6,-1,-1,-1,-1,,9999,0,0,2,FEW 15   BKN 20,1,11,1,6,1012,RJTO 010100Z 04006KT 9999 FEW015 BKN020 11/06 Q1012 RMK 1CU015     5CU020 A2991=,
20180101_020000.002,0,RJTO,,,,0,20180101020000,-1,-1,-1,-1,50,-1,6,-1,-1,10,90,,9999,0,0,2,FEW 15   SCT 20,1,11,1,6,1012,RJTO 010200Z 05006KT 010V090 9999 FEW015 SCT020 11/06 Q1012     RMK 1CU015 3CU020 A2989=,
20180101_030000.002,0,RJTO,,,,0,20180101030000,-1,-1,-1,-1,999,-1,3,-1,-1,-1,-1,,9999,0,0,2,FEW 20   SCT 25,1,10,1,5,1011,RJTO 010300Z VRB03KT 9999 FEW020 SCT025 10/05 Q1011 RMK 1CU020     4CU025 A2987=,
20180101_040000.002,0,RJTO,,,,0,20180101040000,-1,-1,-1,-1,220,-1,7,-1,-1,190,250,,9999,0,0,1,FEW 25,1,12,1,5,1011,RJTO 010400Z 22007KT 190V250 9999 FEW025 12/05 Q1011 RMK     2CU025 A2985=,
20180101_050000.002,0,RJTO,,,,0,20180101050000,-1,-1,-1,-1,210,-1,7,-1,-1,-1,-1,,9999,0,0,1,FEW 25,1,12,1,4,1010,RJTO 010500Z 21007KT 9999 FEW025 12/04 Q1010 RMK 2CU025 A2985=,
20180101_060000.002,0,RJTO,,,,0,20180101060000,-1,-1,-1,-1,220,-1,6,-1,-1,190,280,,9999,0,0,1,FEW 30,1,12,1,3,1010,RJTO 010600Z 22006KT 190V280 9999 FEW030 12/03 Q1010 RMK     1CU030 A2985=,
20180101_070000.002,0,RJTO,,,,0,20180101070000,-1,-1,-1,-1,999,-1,2,-1,-1,-1,-1,,9999,0,0,1,FEW 30,1,11,1,1,1011,RJTO 010700Z VRB02KT 9999 FEW030 11/01 Q1011 RMK 1CU030 A2986=,
20180101_080000.002,0,RJTO,,,,0,20180101080000,-1,-1,-1,-1,-1,-1,-1,-1,-1,-1,-1,,-1,0,0,0,,0,-1,0,-1,-1,RJTO 010800Z NIL=,
20180101_230000.002,0,RJTO,,,,0,20180101230000,-1,-1,-1,-1,80,-1,5,-1,-1,-1,-1,,9999,0,0,1,FEW 30,1,8,-1,1,1016,RJTO 012300Z 08005KT 9999 FEW030 08/M01 Q1016 RMK 1CU030     A3000=,
20180102_000000.003,0,RJTO,,,,0,20180102000000,-1,-1,-1,-1,50,-1,4,-1,-1,-1,-1,,9999,0,0,2,FEW 30   BKN 40,1,9,-1,0,1016,RJTO 020000Z 05004KT 9999 FEW030 BKN040 09/M00 Q1016 RMK     1CU030 5SC040 A3002=,
20180102_010000.003,0,RJTO,,,,0,20180102010000,-1,-1,-1,-1,50,-1,6,-1,-1,10,80,,9999,0,0,2,FEW 30   BKN 40,1,10,-1,2,1016,RJTO 020100Z 05006KT 010V080 9999 FEW030 BKN040 10/M02 Q1016     RMK 1CU030 5SC040 A3002=,
20180102_020000.002,0,RJTO,,,,0,20180102020000,-1,-1,-1,-1,40,-1,6,-1,-1,10,70,,9999,0,0,2,FEW 30   BKN 40,1,9,-1,2,1015,RJTO 020200Z 04006KT 010V070 9999 FEW030 BKN040 09/M02 Q1015     RMK 1CU030 5SC040 A3000=,
20180102_030000.002,0,RJTO,,,,0,20180102030000,-1,-1,-1,-1,20,-1,5,-1,-1,350,50,,9999,0,0,2,FEW 30   SCT 40,1,11,-1,1,1014,RJTO 020300Z 02005KT 350V050 9999 FEW030 SCT040 11/M01 Q1014     RMK 1CU030 4SC040 A2996=,
20180102_040000.002,0,RJTO,,,,0,20180102040000,-1,-1,-1,-1,80,-1,4,-1,-1,40,120,,9999,0,0,2,FEW 30   SCT 40,1,10,-1,1,1014,RJTO 020400Z 08004KT 040V120 9999 FEW030 SCT040 10/M01 Q1014     RMK 1CU030 3SC040 A2995=,
20180102_050000.002,0,RJTO,,,,0,20180102050000,-1,-1,-1,-1,210,-1,7,-1,-1,180,270,,9999,0,0,2,FEW 30   SCT 40,1,11,1,2,1013,RJTO 020500Z 21007KT 180V270 9999 FEW030 SCT040 11/02 Q1013     RMK 1CU030 3SC040 A2993=,
20180102_060000.002,0,RJTO,,,,0,20180102060000,-1,-1,-1,-1,220,-1,9,-1,-1,190,250,,9999,0,0,1,FEW 30,1,11,-1,1,1013,RJTO 020600Z 22009KT 190V250 9999 FEW030 11/M01 Q1013 RMK     1CU030 A2993=,
20180102_070000.002,0,RJTO,,,,0,20180102070000,-1,-1,-1,-1,190,-1,4,-1,-1,170,230,,9999,0,0,1,FEW 30,1,10,-1,2,1013,RJTO 020700Z 19004KT 170V230 9999 FEW030 10/M02 Q1013 RMK     1CU030 A2992=,
20180102_080000.002,0,RJTO,,,,0,20180102080000,-1,-1,-1,-1,-1,-1,-1,-1,-1,-1,-1,,-1,0,0,0,,0,-1,0,-1,-1,RJTO 020800Z NIL=,
20180102_230000.002,0,RJTO,,,,0,20180102230000,-1,-1,-1,-1,360,-1,4,-1,-1,290,50,,9999,0,1,2,FEW 30   BKN 40,1,7,-1,0,1011,RJTO 022300Z 36004KT 290V050 9999 -SHRA FEW030 BKN040 07/M00     Q1011 RMK 1CU030 6CU040 A2988=,- RA SH
20180103_000000.002,0,RJTO,,,,0,20180103000000,-1,-1,-1,-1,50,-1,11,-1,-1,-1,-1,,9999,0,0,2,FEW 30   SCT 40,1,7,-1,1,1012,RJTO 030000Z 05011KT 9999 FEW030 SCT040 07/M01 Q1012 RMK     1CU030 4CU040 A2990=,
20180103_010000.002,0,RJTO,,,,0,20180103010000,-1,-1,-1,-1,60,-1,8,-1,-1,-1,-1,,9999,0,0,2,FEW 30   SCT 40,1,8,-1,0,1012,RJTO 030100Z 06008KT 9999 FEW030 SCT040 08/M00 Q1012 RMK     1CU030 3CU040 A2990=,
20180103_020000.002,0,RJTO,,,,0,20180103020000,-1,-1,-1,-1,50,-1,7,-1,-1,10,90,,9999,0,1,2,FEW 30   BKN 45,1,8,-1,1,1012,RJTO 030200Z 05007KT 010V090 9999 VCSH FEW030 BKN045 08/M01     Q1012 RMK 1CU030 6SC045 A2988=,VC SH
20180103_030000.003,0,RJTO,,,,0,20180103030000,-1,-1,-1,-1,50,-1,9,-1,-1,-1,-1,,9999,0,1,3,FEW 30   SCT 40   BKN 50,1,7,-1,2,1011,RJTO 030300Z 05009KT 9999 -SHRA FEW030 SCT040 BKN050 07/M02     Q1011 RMK 1CU030 3CU040 5SC050 A2986=,- RA SH
20180103_040000.002,0,RJTO,,,,0,20180103040000,-1,-1,-1,-1,40,-1,5,-1,-1,360,80,,9999,0,1,3,FEW 30   SCT 40   BKN 60,1,8,-1,3,1011,RJTO 030400Z 04005KT 360V080 9999 VCSH FEW030 SCT040 BKN060     08/M03 Q1011 RMK 1CU030 3CU040 6SC060 A2987=,VC SH
20180103_050000.002,0,RJTO,,,,0,20180103050000,-1,-1,-1,-1,999,-1,2,-1,-1,-1,-1,,9999,0,0,2,FEW 30   SCT 60,1,9,-1,9,1012,RJTO 030500Z VRB02KT 9999 FEW030 SCT060 09/M09 Q1012 RMK     1CU030 3SC060 A2988=,
20180103_060000.002,0,RJTO,,,,0,20180103060000,-1,-1,-1,-1,360,-1,4,-1,-1,260,50,,9999,0,0,1,FEW 30,1,10,-1,8,1012,RJTO 030600Z 36004KT 260V050 9999 FEW030 10/M08 Q1012 RMK     1CU030 A2989=,
20180103_070000.002,0,RJTO,,,,0,20180103070000,-1,-1,-1,-1,40,-1,5,-1,-1,320,100,,9999,0,0,1,FEW 30,1,8,-1,6,1013,RJTO 030700Z 04005KT 320V100 9999 FEW030 08/M06 Q1013 RMK     1CU030 A2993=,
20180103_080000.002,0,RJTO,,,,0,20180103080000,-1,-1,-1,-1,-1,-1,-1,-1,-1,-1,-1,,-1,0,0,0,,0,-1,0,-1,-1,RJTO 030800Z NIL=,
20180103_230000.002,0,RJTO,,,,0,20180103230000,-1,-1,-1,-1,40,-1,9,-1,-1,-1,-1,,9999,0,0,2,FEW 30   SCT 40,1,7,-1,6,1018,RJTO 032300Z 04009KT 9999 FEW030 SCT040 07/M06 Q1018 RMK     1CU030 3SC040 A3006=,
20180104_000000.002,0,RJTO,,,,0,20180104000000,-1,-1,-1,-1,40,-1,10,-1,-1,-1,-1,,9999,0,0,2,FEW 30   SCT 40,1,8,-1,5,1018,RJTO 040000Z 04010KT 9999 FEW030 SCT040 08/M05 Q1018 RMK     1CU030 3SC040 A3007=,
20180104_010000.002,0,RJTO,,,,0,20180104010000,-1,-1,-1,-1,30,-1,10,-1,-1,-1,-1,,9999,0,0,2,FEW 30   SCT 45,1,9,-1,6,1018,RJTO 040100Z 03010KT 9999 FEW030 SCT045 09/M06 Q1018 RMK     1CU030 3SC045 A3007=,
20180104_020000.002,0,RJTO,,,,0,20180104020000,-1,-1,-1,-1,50,-1,7,-1,-1,10,90,,9999,0,0,2,FEW 30   SCT 50,1,9,-1,6,1017,RJTO 040200Z 05007KT 010V090 9999 FEW030 SCT050 09/M06 Q1017     RMK 1CU030 3SC050 A3004=,
20180104_030000.002,0,RJTO,,,,0,20180104030000,-1,-1,-1,-1,30,-1,7,-1,-1,340,90,,9999,0,0,2,FEW 30   SCT 50,1,9,-1,7,1016,RJTO 040300Z 03007KT 340V090 9999 FEW030 SCT050 09/M07 Q1016     RMK 1CU030 3SC050 A3001=,
20180104_040000.002,0,RJTO,,,,0,20180104040000,-1,-1,-1,-1,50,-1,6,-1,-1,360,120,,9999,0,0,2,FEW 30   SCT 50,1,9,-1,7,1015,RJTO 040400Z 05006KT 360V120 9999 FEW030 SCT050 09/M07 Q1015     RMK 1CU030 4SC050 A2999=,
20180104_050000.002,0,RJTO,,,,0,20180104050000,-1,-1,-1,-1,30,-1,6,-1,-1,360,100,,9999,0,0,2,FEW 30   SCT 50,1,10,-1,6,1015,RJTO 040500Z 03006KT 360V100 9999 FEW030 SCT050 10/M06 Q1015     RMK 1CU030 3SC050 A2999=,
20180104_060000.003,0,RJTO,,,,0,20180104060000,-1,-1,-1,-1,50,-1,6,-1,-1,20,80,,9999,0,0,2,FEW 30   SCT 50,1,9,-1,5,1015,RJTO 040600Z 05006KT 020V080 9999 FEW030 SCT050 09/M05 Q1015     RMK 1CU030 3SC050 A2999=,
20180104_070000.002,0,RJTO,,,,0,20180104070000,-1,-1,-1,-1,80,-1,5,-1,-1,40,120,,9999,0,0,2,FEW 30   SCT 50,1,9,-1,4,1016,RJTO 040700Z 08005KT 040V120 9999 FEW030 SCT050 09/M04 Q1016     RMK 1CU030 3SC050 A3000=,
20180104_080000.002,0,RJTO,,,,0,20180104080000,-1,-1,-1,-1,-1,-1,-1,-1,-1,-1,-1,,-1,0,0,0,,0,-1,0,-1,-1,RJTO 040800Z NIL=,
20180104_230000.002,0,RJTO,,,,0,20180104230000,-1,-1,-1,-1,40,-1,12,-1,-1,-1,-1,,9999,0,0,2,FEW 30   BKN 45,1,6,-1,3,1016,RJTO 042300Z 04012KT 9999 FEW030 BKN045 06/M03 Q1016 RMK     1CU030 7SC045 A3003=,
20180105_000000.002,0,RJTO,,,,0,20180105000000,-1,-1,-1,-1,30,-1,13,-1,-1,-1,-1,,9999,0,0,2,FEW 30   BKN 45,1,6,-1,3,1017,RJTO 050000Z 03013KT 9999 FEW030 BKN045 06/M03 Q1017 RMK     1CU030 7SC045 A3003=,
20180105_010000.003,0,RJTO,,,,0,20180105010000,-1,-1,-1,-1,30,-1,11,-1,-1,-1,-1,,9999,0,0,3,FEW 30   BKN 45   BKN 110,1,7,-1,2,1016,RJTO 050100Z 03011KT 9999 FEW030 BKN045 BKN110 07/M02 Q1016     RMK 1CU030 5SC045 6AC110 A3001=,
20180105_020000.002,0,RJTO,,,,0,20180105020000,-1,-1,-1,-1,30,-1,11,-1,-1,-1,-1,,9999,0,0,3,FEW 30   BKN 45   BKN 50,1,7,-1,2,1015,RJTO 050200Z 03011KT 9999 FEW030 BKN045 BKN050 07/M02 Q1015     RMK 1CU030 5SC045 7SC050 A2998=,
20180105_030000.002,0,RJTO,,,,0,20180105030000,-1,-1,-1,-1,10,-1,6,-1,-1,340,60,,9999,0,0,3,FEW 20   BKN 45   BKN 50,1,7,-1,2,1014,RJTO 050300Z 01006KT 340V060 9999 FEW020 BKN045 BKN050 07/M02     Q1014 RMK 1CU020 5SC045 7SC050 A2996=,
20180105_040000.002,0,RJTO,,,,0,20180105040000,-1,-1,-1,-1,10,-1,8,-1,-1,320,50,,9999,0,1,3,FEW 15   SCT 35   BKN 50,1,7,-1,0,1013,RJTO 050400Z 01008KT 320V050 9999 -RA FEW015 SCT035 BKN050     07/M00 Q1013 RMK 1CU015 3SC035 6SC050 A2992=,- RA
20180105_050000.002,0,RJTO,,,,0,20180105050000,-1,-1,-1,-1,20,-1,7,-1,-1,-1,-1,,9999,0,0,3,FEW 20   BKN 40   BKN 50,1,7,1,0,1012,RJTO 050500Z 02007KT 9999 FEW020 BKN040 BKN050 07/00 Q1012 RMK     1CU020 5SC040 6SC050 A2990=,
20180105_060000.002,0,RJTO,,,,0,20180105060000,-1,-1,-1,-1,40,-1,8,-1,-1,-1,-1,,9999,0,0,3,FEW 20   SCT 40   BKN 50,1,6,1,1,1012,RJTO 050600Z 04008KT 9999 FEW020 SCT040 BKN050 06/01 Q1012 RMK     2CU020 4SC040 6SC050 A2989=,
20180105_070000.002,0,RJTO,,,,0,20180105070000,-1,-1,-1,-1,40,-1,6,-1,-1,-1,-1,,9999,0,1,3,FEW 20   BKN 50   BKN 70,1,6,1,0,1012,RJTO 050700Z 04006KT 9999 -RA FEW020 BKN050 BKN070 06/00 Q1012     RMK 1CU020 5SC050 6AC070 A2990=,- RA
20180105_080000.002,0,RJTO,,,,0,20180105080000,-1,-1,-1,-1,-1,-1,-1,-1,-1,-1,-1,,-1,0,0,0,,0,-1,0,-1,-1,RJTO 050800Z NIL=,
20180105_230000.002,0,RJTO,,,,0,20180105230000,-1,-1,-1,-1,120,-1,3,-1,-1,-1,-1,,9999,0,0,2,FEW 20   SCT -9999,1,4,-1,1,1011,RJTO 052300Z 12003KT 9999 FEW020 SCT/// 04/M01 Q1011 RMK     1CU020 A2987=,
20180106_000000.002,0,RJTO,,,,0,20180106000000,-1,-1,-1,-1,80,-1,3,-1,-1,40,120,,9999,0,0,1,FEW 25,1,7,-1,1,1011,RJTO 060000Z 08003KT 040V120 9999 FEW025 07/M01 Q1011 RMK     1CU025 A2987=,
20180106_010000.002,0,RJTO,,,,0,20180106010000,-1,-1,-1,-1,210,-1,4,-1,-1,160,280,,9999,0,0,1,FEW 30,1,9,-1,2,1011,RJTO 060100Z 21004KT 160V280 9999 FEW030 09/M02 Q1011 RMK     1CU030 A2987=,
20180106_020000.002,0,RJTO,,,,0,20180106020000,-1,-1,-1,-1,210,-1,5,-1,-1,170,280,,9999,0,0,1,FEW 30,1,10,-1,1,1011,RJTO 060200Z 21005KT 170V280 9999 FEW030 10/M01 Q1011 RMK     1CU030 A2985=,
20180106_030000.002,0,RJTO,,,,0,20180106030000,-1,-1,-1,-1,210,-1,11,-1,-1,180,250,,9999,0,0,1,FEW 30,1,11,-1,0,1009,RJTO 060300Z 21011KT 180V250 9999 FEW030 11/M00 Q1009 RMK     1CU030 A2982=,
20180106_040000.002,0,RJTO,,,,0,20180106040000,-1,-1,-1,-1,220,-1,10,-1,-1,190,260,,9999,0,0,1,FEW 30,1,11,-1,0,1009,RJTO 060400Z 22010KT 190V260 9999 FEW030 11/M00 Q1009 RMK     1CU030 A2979=,
20180106_050000.002,0,RJTO,,,,0,20180106050000,-1,-1,-1,-1,230,-1,8,-1,-1,190,260,,9999,0,0,1,FEW 30,1,11,-1,1,1008,RJTO 060500Z 23008KT 190V260 9999 FEW030 11/M01 Q1008 RMK     1CU030 A2978=,
20180106_060000.002,0,RJTO,,,,0,20180106060000,-1,-1,-1,-1,220,-1,5,-1,-1,190,280,,9999,0,0,1,FEW 30,1,11,-1,2,1008,RJTO 060600Z 22005KT 190V280 9999 FEW030 11/M02 Q1008 RMK     1CU030 A2979=,
20180106_070000.002,0,RJTO,,,,0,20180106070000,-1,-1,-1,-1,220,-1,5,-1,-1,180,270,,9999,0,0,1,FEW 30,1,11,-1,2,1008,RJTO 060700Z 22005KT 180V270 9999 FEW030 11/M02 Q1008 RMK     1CU030 A2979=,
20180106_080000.002,0,RJTO,,,,0,20180106080000,-1,-1,-1,-1,-1,-1,-1,-1,-1,-1,-1,,-1,0,0,0,,0,-1,0,-1,-1,RJTO 060800Z NIL=,
20180106_230000.002,0,RJTO,,,,0,20180106230000,-1,-1,-1,-1,90,-1,6,-1,-1,-1,-1,,9999,0,0,2,FEW 30   BKN -9999,1,7,-1,2,1017,RJTO 062300Z 09006KT 9999 FEW030 BKN/// 07/M02 Q1017 RMK     1CU030 A3005=,
20180107_000000.002,0,RJTO,,,,0,20180107000000,-1,-1,-1,-1,70,-1,5,-1,-1,-1,-1,,9999,0,0,2,FEW 30   BKN -9999,1,9,-1,3,1019,RJTO 070000Z 07005KT 9999 FEW030 BKN/// 09/M03 Q1019 RMK     1CU030 A3009=,
20180107_010000.003,0,RJTO,,,,0,20180107010000,-1,-1,-1,-1,70,-1,6,-1,-1,40,120,,9999,0,0,2,FEW 30   BKN -9999,1,10,-1,2,1019,RJTO 070100Z 07006KT 040V120 9999 FEW030 BKN/// 10/M02 Q1019     RMK 1CU030 A3010=,
20180107_020000.002,0,RJTO,,,,0,20180107020000,-1,-1,-1,-1,60,-1,7,-1,-1,30,100,,9999,0,0,2,FEW 30   BKN -9999,1,10,-1,4,1019,RJTO 070200Z 06007KT 030V100 9999 FEW030 BKN/// 10/M04 Q1019     RMK 1CU030 A3009=,
20180107_030000.002,0,RJTO,,,,0,20180107030000,-1,-1,-1,-1,50,-1,5,-1,-1,360,90,,9999,0,0,2,FEW 30   SCT -9999,1,10,-1,3,1018,RJTO 070300Z 05005KT 360V090 9999 FEW030 SCT/// 10/M03 Q1018     RMK 1CU030 A3008=,
20180107_040000.002,0,RJTO,,,,0,20180107040000,-1,-1,-1,-1,10,-1,5,-1,-1,320,70,,9999,0,0,2,FEW 30   SCT -9999,1,11,-1,2,1018,RJTO 070400Z 01005KT 320V070 9999 FEW030 SCT/// 11/M02 Q1018     RMK 1CU030 A3009=,
20180107_050000.002,0,RJTO,,,,0,20180107050000,-1,-1,-1,-1,80,-1,5,-1,-1,10,130,,9999,0,0,2,FEW 30   BKN -9999,1,11,-1,2,1018,RJTO 070500Z 08005KT 010V130 9999 FEW030 BKN/// 11/M02 Q1018     RMK 1CU030 A3009=,
20180107_060000.002,0,RJTO,,,,0,20180107060000,-1,-1,-1,-1,360,-1,5,-1,-1,280,60,,9999,0,0,2,FEW 30   SCT -9999,1,11,1,0,1019,RJTO 070600Z 36005KT 280V060 9999 FEW030 SCT/// 11/00 Q1019     RMK 1CU030 A3009=,
20180107_070000.002,0,RJTO,,,,0,20180107070000,-1,-1,-1,-1,999,-1,2,-1,-1,-1,-1,,9999,0,0,2,FEW 30   BKN -9999,1,10,1,1,1019,RJTO 070700Z VRB02KT 9999 FEW030 BKN/// 10/01 Q1019 RMK 1CU030     A3012=,
20180107_080000.002,0,RJTO,,,,0,20180107080000,-1,-1,-1,-1,-1,-1,-1,-1,-1,-1,-1,,-1,0,0,0,,0,-1,0,-1,-1,RJTO 070800Z NIL=,
20180107_230000.002,0,RJTO,,,,0,20180107230000,-1,-1,-1,-1,60,-1,4,-1,-1,-1,-1,,9999,0,0,3,FEW 20   SCT 100   BKN -9999,1,8,1,6,1020,RJTO 072300Z 06004KT 9999 FEW020 SCT100 BKN/// 08/06 Q1020 RMK     1CU020 3AC100 A3012=,
20180108_000000.002,0,RJTO,,,,0,20180108000000,-1,-1,-1,-1,40,-1,3,-1,-1,-1,-1,,9999,0,0,3,FEW 20   BKN 120   BKN -9999,1,9,1,6,1019,RJTO 080000Z 04003KT 9999 FEW020 BKN120 BKN/// 09/06 Q1019 RMK     1CU020 5AC120 A3012=,
20180108_010000.002,0,RJTO,,,,0,20180108010000,-1,-1,-1,-1,140,-1,3,-1,-1,-1,-1,,9999,0,0,3,FEW 20   BKN 80   BKN -9999,1,9,1,6,1019,RJTO 080100Z 14003KT 9999 FEW020 BKN080 BKN/// 09/06 Q1019 RMK     1CU020 6AC080 A3012=,
20180108_020000.002,0,RJTO,,,,0,20180108020000,-1,-1,-1,-1,999,-1,3,-1,-1,-1,-1,,9999,0,0,3,FEW 20   BKN 100   BKN -9999,1,12,1,6,1018,RJTO 080200Z VRB03KT 9999 FEW020 BKN100 BKN/// 12/06 Q1018 RMK     1CU020 6AC100 A3006=,
20180108_030000.002,0,RJTO,,,,0,20180108030000,-1,-1,-1,-1,210,-1,7,-1,-1,170,250,,9999,0,0,3,FEW 20   SCT 70   BKN 90,1,12,1,7,1016,RJTO 080300Z 21007KT 170V250 9999 FEW020 SCT070 BKN090 12/07     Q1016 RMK 1CU020 3AC070 6AC090 A3000=,
20180108_040000.002,0,RJTO,,,,0,20180108040000,-1,-1,-1,-1,220,-1,6,-1,-1,-1,-1,,9999,0,1,3,FEW 15   SCT 50   OVC 70,1,12,1,8,1014,RJTO 080400Z 22006KT 9999 -RA FEW015 SCT050 OVC070 12/08 Q1014     RMK 1CU015 3SC050 8AS070 A2997=,- RA
20180108_050000.002,0,RJTO,,,,0,20180108050000,-1,-1,-1,-1,250,-1,3,-1,-1,190,330,,9999,0,1,3,FEW 15   SCT 50   OVC 70,1,12,1,7,1013,RJTO 080500Z 25003KT 190V330 9999 -RA FEW015 SCT050 OVC070     12/07 Q1013 RMK 1CU015 3SC050 8AS070 A2992 P/FR=,- RA
20180108_060000.003,0,RJTO,,,,0,20180108060000,-1,-1,-1,-1,999,-1,1,-1,-1,-1,-1,,9999,0,1,3,FEW 15   SCT 70   OVC 90,1,11,1,8,1012,RJTO 080600Z VRB01KT 9999 -RA FEW015 SCT070 OVC090 11/08 Q1012     RMK 1CU015 3AC070 8AS090 A2990=,- RA
20180108_070000.002,0,RJTO,,,,0,20180108070000,-1,-1,-1,-1,80,-1,3,-1,-1,50,110,,9999,0,1,3,FEW 15   BKN 40   OVC 80,1,10,1,9,1011,RJTO 080700Z 08003KT 050V110 9999 -RA FEW015 BKN040 OVC080     10/09 Q1011 RMK 1CU015 5SC040 8AS080 A2986=,- RA
20180108_080000.002,0,RJTO,,,,0,20180108080000,-1,-1,-1,-1,-1,-1,-1,-1,-1,-1,-1,,-1,0,0,0,,0,-1,0,-1,-1,RJTO 080800Z NIL=,
20180108_230000.003,0,RJTO,,,,0,20180108230000,-1,-1,-1,-1,230,-1,19,-1,32,-1,-1,,9999,0,0,3,FEW 8   SCT 40   BKN 170,1,14,1,12,995,RJTO 082300Z 23019G32KT 9999 FEW008 SCT040 BKN170 14/12 Q0995     RMK 1ST008 3SC040 7AC170 A2940=,
20180109_000000.002,0,RJTO,,,,0,20180109000000,-1,-1,-1,-1,230,-1,19,-1,30,-1,-1,,9999,0,0,3,FEW 8   BKN 40   BKN 170,1,14,1,11,994,RJTO 090000Z 23019G30KT 9999 FEW008 BKN040 BKN170 14/11 Q0994     RMK 1ST008 5SC040 7AC170 A2937=,
20180109_010000.002,0,RJTO,,,,0,20180109010000,-1,-1,-1,-1,230,-1,19,-1,31,-1,-1,,9999,0,0,3,FEW 15   SCT 50   BKN -9999,1,14,1,10,994,RJTO 090100Z 23019G31KT 9999 FEW015 SCT050 BKN/// 14/10 Q0994     RMK 1CU015 3SC050 A2938=,
20180109_020000.002,0,RJTO,,,,0,20180109020000,-1,-1,-1,-1,240,-1,18,-1,30,210,280,,9999,0,0,3,FEW 20   BKN 60   BKN -9999,1,14,1,7,995,RJTO 090200Z 24018G30KT 210V280 9999 FEW020 BKN060 BKN///     14/07 Q0995 RMK 1CU020 5SC060 A2939=,
20180109_030000.002,0,RJTO,,,,0,20180109030000,-1,-1,-1,-1,250,-1,20,-1,33,210,280,,9999,0,0,2,FEW 20   BKN -9999,1,13,1,5,995,RJTO 090300Z 25020G33KT 210V280 9999 FEW020 BKN/// 13/05 Q0995     RMK 1CU020 A2938=,
20180109_040000.002,0,RJTO,,,,0,20180109040000,-1,-1,-1,-1,240,-1,20,-1,36,200,270,,9999,0,0,1,FEW 20,1,13,1,4,994,RJTO 090400Z 24020G36KT 200V270 9999 FEW020 13/04 Q0994 RMK     1CU020 A2938=,
20180109_050000.002,0,RJTO,,,,0,20180109050000,-1,-1,-1,-1,240,-1,21,-1,35,-1,-1,,9999,0,0,1,FEW 20,1,12,1,3,995,RJTO 090500Z 24021G35KT 9999 FEW020 12/03 Q0995 RMK 1CU020     A2940=,
20180109_060000.002,0,RJTO,,,,0,20180109060000,-1,-1,-1,-1,240,-1,19,-1,34,210,280,,9999,0,0,1,FEW 20,1,12,1,2,997,RJTO 090600Z 24019G34KT 210V280 9999 FEW020 12/02 Q0997 RMK     1CU020 A2944=,
20180109_070000.002,0,RJTO,,,,0,20180109070000,-1,-1,-1,-1,240,-1,21,-1,37,-1,-1,,9999,0,0,1,FEW 20,1,11,1,2,997,RJTO 090700Z 24021G37KT 9999 FEW020 11/02 Q0997 RMK 1CU020     A2946=,
20180109_080000.002,0,RJTO,,,,0,20180109080000,-1,-1,-1,-1,-1,-1,-1,-1,-1,-1,-1,,-1,0,0,0,,0,-1,0,-1,-1,RJTO 090800Z NIL=,
20180109_230000.002,0,RJTO,,,,0,20180109230000,-1,-1,-1,-1,240,-1,15,-1,26,210,290,,9999,0,0,1,FEW 30,1,7,-1,2,1011,RJTO 092300Z 24015G26KT 210V290 9999 FEW030 07/M02 Q1011 RMK     1CU030 A2986=,
20180110_000000.002,0,RJTO,,,,0,20180110000000,-1,-1,-1,-1,240,-1,13,-1,24,210,290,,9999,0,0,1,FEW 30,1,7,-1,2,1011,RJTO 100000Z 24013G24KT 210V290 9999 FEW030 07/M02 Q1011 RMK     1CU030 A2986=,
20180110_010000.002,0,RJTO,,,,0,20180110010000,-1,-1,-1,-1,240,-1,14,-1,26,210,290,,9999,0,0,1,FEW 30,1,8,-1,3,1011,RJTO 100100Z 24014G26KT 210V290 9999 FEW030 08/M03 Q1011 RMK     1CU030 A2986=,
20180110_020000.002,0,RJTO,,,,0,20180110020000,-1,-1,-1,-1,240,-1,18,-1,29,210,280,,9999,0,0,1,FEW 30,1,9,-1,2,1010,RJTO 100200Z 24018G29KT 210V280 9999 FEW030 09/M02 Q1010 RMK     1CU030 A2983=,
20180110_030000.002,0,RJTO,,,,0,20180110030000,-1,-1,-1,-1,240,-1,17,-1,29,210,280,,9999,0,0,1,FEW 30,1,9,-1,1,1009,RJTO 100300Z 24017G29KT 210V280 9999 FEW030 09/M01 Q1009 RMK     1CU030 A2981=,
20180110_040000.003,0,RJTO,,,,0,20180110040000,-1,-1,-1,-1,250,-1,15,-1,26,210,290,,9999,0,0,1,FEW 30,1,10,-1,1,1008,RJTO 100400Z 25015G26KT 210V290 9999 FEW030 10/M01 Q1008 RMK     1CU030 A2979=,
20180110_050000.002,0,RJTO,,,,0,20180110050000,-1,-1,-1,-1,240,-1,15,-1,27,210,270,,9999,0,0,1,FEW 30,1,10,-1,0,1008,RJTO 100500Z 24015G27KT 210V270 9999 FEW030 10/M00 Q1008 RMK     1CU030 A2977=,
20180110_060000.002,0,RJTO,,,,0,20180110060000,-1,-1,-1,-1,240,-1,12,-1,24,210,270,,9999,0,0,1,FEW 30,1,10,-1,1,1008,RJTO 100600Z 24012G24KT 210V270 9999 FEW030 10/M01 Q1008 RMK     1CU030 A2978=,
20180110_070000.002,0,RJTO,,,,0,20180110070000,-1,-1,-1,-1,250,-1,10,-1,-1,210,290,,9999,0,0,1,FEW 30,1,9,-1,1,1008,RJTO 100700Z 25010KT 210V290 9999 FEW030 09/M01 Q1008 RMK     1CU030 A2977=,
20180110_080000.002,0,RJTO,,,,0,20180110080000,-1,-1,-1,-1,-1,-1,-1,-1,-1,-1,-1,,-1,0,0,0,,0,-1,0,-1,-1,RJTO 100800Z NIL=,
20180110_230000.003,0,RJTO,,,,0,20180110230000,-1,-1,-1,-1,250,-1,14,-1,26,200,290,,9999,0,0,1,FEW 25,1,6,-1,5,1013,RJTO 102300Z 25014G26KT 200V290 9999 FEW025 06/M05 Q1013 RMK     1CU025 A2992=,
20180111_000000.002,0,RJTO,,,,0,20180111000000,-1,-1,-1,-1,250,-1,15,-1,26,220,300,,9999,0,0,1,FEW 30,1,7,-1,6,1013,RJTO 110000Z 25015G26KT 220V300 9999 FEW030 07/M06 Q1013 RMK     1CU030 A2994=,
20180111_010000.002,0,RJTO,,,,0,20180111010000,-1,-1,-1,-1,250,-1,14,-1,26,210,310,,9999,0,0,1,FEW 30,1,7,-1,7,1014,RJTO 110100Z 25014G26KT 210V310 9999 FEW030 07/M07 Q1014 RMK     1CU030 A2995=,
20180111_020000.002,0,RJTO,,,,0,20180111020000,-1,-1,-1,-1,260,-1,16,-1,28,210,290,,9999,0,0,1,FEW 30,1,8,-1,6,1013,RJTO 110200Z 26016G28KT 210V290 9999 FEW030 08/M06 Q1013 RMK     1CU030 A2993=,
20180111_030000.001,0,RJTO,,,,0,20180111030000,-1,-1,-1,-1,240,-1,16,-1,27,210,280,,9999,0,0,1,FEW 30,1,7,-1,6,1012,RJTO 110300Z 24016G27KT 210V280 9999 FEW030 07/M06 Q1012 RMK     1CU030 A2991=,
20180111_040000.002,0,RJTO,,,,0,20180111040000,-1,-1,-1,-1,250,-1,16,-1,28,210,280,,9999,0,0,1,FEW 30,1,8,-1,7,1012,RJTO 110400Z 25016G28KT 210V280 9999 FEW030 08/M07 Q1012 RMK     1CU030 A2989=,
20180111_050000.002,0,RJTO,,,,0,20180111050000,-1,-1,-1,-1,250,-1,17,-1,30,210,300,,9999,0,0,1,FEW 30,1,7,-1,9,1012,RJTO 110500Z 25017G30KT 210V300 9999 FEW030 07/M09 Q1012 RMK     1CU030 A2990=,
20180111_060000.002,0,RJTO,,,,0,20180111060000,-1,-1,-1,-1,240,-1,19,-1,31,210,280,,9999,0,0,1,FEW 30,1,7,-1,8,1013,RJTO 110600Z 24019G31KT 210V280 9999 FEW030 07/M08 Q1013 RMK     1CU030 A2993=,
20180111_070000.002,0,RJTO,,,,0,20180111070000,-1,-1,-1,-1,240,-1,15,-1,26,210,290,,9999,0,0,1,FEW 30,1,6,-1,7,1013,RJTO 110700Z 24015G26KT 210V290 9999 FEW030 06/M07 Q1013 RMK     1CU030 A2994=,
20180111_080000.002,0,RJTO,,,,0,20180111080000,-1,-1,-1,-1,-1,-1,-1,-1,-1,-1,-1,,-1,0,0,0,,0,-1,0,-1,-1,RJTO 110800Z NIL=,
20180111_230000.002,0,RJTO,,,,0,20180111230000,-1,-1,-1,-1,240,-1,10,-1,22,210,280,,9999,0,0,2,FEW 30   BKN -9999,1,3,-1,8,1018,RJTO 112300Z 24010G22KT 210V280 9999 FEW030 BKN/// 03/M08     Q1018 RMK 1CU030 A3008=,
20180112_000000.002,0,RJTO,,,,0,20180112000000,-1,-1,-1,-1,250,-1,9,-1,-1,190,300,,9999,0,0,2,FEW 30   BKN -9999,1,4,-1,8,1019,RJTO 120000Z 25009KT 190V300 9999 FEW030 BKN/// 04/M08 Q1019     RMK 1CU030 A3009=,
20180112_010000.003,0,RJTO,,,,0,20180112010000,-1,-1,-1,-1,250,-1,8,-1,-1,210,280,,9999,0,0,2,FEW 30   SCT -9999,1,5,-1,9,1019,RJTO 120100Z 25008KT 210V280 9999 FEW030 SCT/// 05/M09 Q1019     RMK 1CU030 A3010=,
20180112_020000.002,0,RJTO,,,,0,20180112020000,-1,-1,-1,-1,250,-1,6,-1,-1,180,310,,9999,0,0,1,FEW 30,1,6,-1,9,1019,RJTO 120200Z 25006KT 180V310 9999 FEW030 06/M09 Q1019 RMK     1CU030 A3009=,
20180112_030000.002,0,RJTO,,,,0,20180112030000,-1,-1,-1,-1,310,-1,5,-1,-1,220,20,,9999,0,0,2,FEW 30   SCT -9999,1,6,-1,8,1018,RJTO 120300Z 31005KT 220V020 9999 FEW030 SCT/// 06/M08 Q1018     RMK 1CU030 A3007=,
20180112_040000.002,0,RJTO,,,,0,20180112040000,-1,-1,-1,-1,240,-1,8,-1,-1,180,310,,9999,0,0,2,FEW 30   SCT -9999,1,8,-1,7,1017,RJTO 120400Z 24008KT 180V310 9999 FEW030 SCT/// 08/M07 Q1017     RMK 1CU030 A3005=,
20180112_050000.003,0,RJTO,,,,0,20180112050000,-1,-1,-1,-1,260,-1,6,-1,-1,210,330,,9999,0,0,2,FEW 30   BKN -9999,1,7,-1,8,1018,RJTO 120500Z 26006KT 210V330 9999 FEW030 BKN/// 07/M08 Q1018     RMK 1CU030 A3006=,
20180112_060000.002,0,RJTO,,,,0,20180112060000,-1,-1,-1,-1,250,-1,6,-1,-1,200,340,,9999,0,0,2,FEW 30   BKN -9999,1,7,-1,8,1017,RJTO 120600Z 25006KT 200V340 9999 FEW030 BKN/// 07/M08 Q1017     RMK 1CU030 A3006=,
20180112_070000.003,0,RJTO,,,,0,20180112070000,-1,-1,-1,-1,230,-1,7,-1,-1,200,280,,9999,0,0,2,FEW 30   BKN -9999,1,6,-1,7,1018,RJTO 120700Z 23007KT 200V280 9999 FEW030 BKN/// 06/M07 Q1018     RMK 1CU030 A3007=,
20180112_080000.002,0,RJTO,,,,0,20180112080000,-1,-1,-1,-1,-1,-1,-1,-1,-1,-1,-1,,-1,0,0,0,,0,-1,0,-1,-1,RJTO 120800Z NIL=,
20180112_230000.002,0,RJTO,,,,0,20180112230000,-1,-1,-1,-1,30,-1,9,-1,-1,-1,-1,,9999,0,0,1,FEW 25,1,4,-1,2,1022,RJTO 122300Z 03009KT 9999 FEW025 04/M02 Q1022 RMK 1CU025     A3019=,
20180113_000000.002,0,RJTO,,,,0,20180113000000,-1,-1,-1,-1,20,-1,5,-1,-1,350,50,,9999,0,0,1,FEW 30,1,6,-1,3,1022,RJTO 130000Z 02005KT 350V050 9999 FEW030 06/M03 Q1022 RMK     1CU030 A3019=,
20180113_010000.003,0,RJTO,,,,0,20180113010000,-1,-1,-1,-1,20,-1,4,-1,-1,300,90,,9999,0,0,1,FEW 30,1,6,-1,3,1022,RJTO 130100Z 02004KT 300V090 9999 FEW030 06/M03 Q1022 RMK     1CU030 A3020=,
20180113_020000.002,0,RJTO,,,,0,20180113020000,-1,-1,-1,-1,10,-1,4,-1,-1,290,90,,9999,0,0,1,FEW 30,1,7,-1,2,1022,RJTO 130200Z 01004KT 290V090 9999 FEW030 07/M02 Q1022 RMK     1CU030 A3018=,
20180113_030000.002,0,RJTO,,,,0,20180113030000,-1,-1,-1,-1,999,-1,3,-1,-1,-1,-1,,9999,0,0,1,FEW 30,1,8,-1,2,1021,RJTO 130300Z VRB03KT 9999 FEW030 08/M02 Q1021 RMK 1CU030     A3015=,
20180113_040000.002,0,RJTO,,,,0,20180113040000,-1,-1,-1,-1,240,-1,8,-1,-1,190,300,,9999,0,0,1,FEW 35,1,9,-1,6,1020,RJTO 130400Z 24008KT 190V300 9999 FEW035 09/M06 Q1020 RMK     1CU035 A3012=,
20180113_050000.002,0,RJTO,,,,0,20180113050000,-1,-1,-1,-1,240,-1,9,-1,-1,190,280,,9999,0,0,1,FEW 35,1,9,-1,8,1019,RJTO 130500Z 24009KT 190V280 9999 FEW035 09/M08 Q1019 RMK     1CU035 A3011=,
20180113_060000.002,0,RJTO,,,,0,20180113060000,-1,-1,-1,-1,240,-1,10,-1,-1,200,270,,9999,0,0,1,FEW 35,1,8,-1,8,1019,RJTO 130600Z 24010KT 200V270 9999 FEW035 08/M08 Q1019 RMK     1CU035 A3011=,
20180113_070000.002,0,RJTO,,,,0,20180113070000,-1,-1,-1,-1,240,-1,9,-1,-1,200,290,,9999,0,0,1,FEW 35,1,8,-1,9,1019,RJTO 130700Z 24009KT 200V290 9999 FEW035 08/M09 Q1019 RMK     1CU035 A3011=,
20180113_080000.002,0,RJTO,,,,0,20180113080000,-1,-1,-1,-1,-1,-1,-1,-1,-1,-1,-1,,-1,0,0,0,,0,-1,0,-1,-1,RJTO 130800Z NIL=,
20180113_230000.002,0,RJTO,,,,0,20180113230000,-1,-1,-1,-1,30,-1,10,-1,-1,-1,-1,,9999,0,0,1,FEW 30,1,6,-1,8,1027,RJTO 132300Z 03010KT 9999 FEW030 06/M08 Q1027 RMK 1CU030     A3033=,
20180114_000000.003,0,RJTO,,,,0,20180114000000,-1,-1,-1,-1,20,-1,14,-1,-1,-1,-1,,9999,0,0,1,FEW 30,1,7,-1,7,1028,RJTO 140000Z 02014KT 9999 FEW030 07/M07 Q1028 RMK 1CU030     A3036=,
20180114_010000.002,0,RJTO,,,,0,20180114010000,-1,-1,-1,-1,30,-1,17,-1,-1,-1,-1,,9999,0,0,1,FEW 30,1,8,-1,8,1028,RJTO 140100Z 03017KT 9999 FEW030 08/M08 Q1028 RMK 1CU030     A3038=,
20180114_020000.002,0,RJTO,,,,0,20180114020000,-1,-1,-1,-1,40,-1,15,-1,-1,-1,-1,,9999,0,0,1,FEW 30,1,8,-1,8,1028,RJTO 140200Z 04015KT 9999 FEW030 08/M08 Q1028 RMK 1CU030     A3037=,
20180114_030000.002,0,RJTO,,,,0,20180114030000,-1,-1,-1,-1,30,-1,14,-1,-1,-1,-1,,9999,0,0,1,FEW 30,1,8,-1,8,1027,RJTO 140300Z 03014KT 9999 FEW030 08/M08 Q1027 RMK 1CU030     A3035=,
20180114_040000.002,0,RJTO,,,,0,20180114040000,-1,-1,-1,-1,30,-1,14,-1,-1,360,60,,9999,0,0,1,FEW 30,1,9,-1,7,1027,RJTO 140400Z 03014KT 360V060 9999 FEW030 09/M07 Q1027 RMK     1CU030 A3035=,
20180114_050000.002,0,RJTO,,,,0,20180114050000,-1,-1,-1,-1,50,-1,11,-1,-1,-1,-1,,9999,0,0,1,FEW 30,1,8,-1,6,1028,RJTO 140500Z 05011KT 9999 FEW030 08/M06 Q1028 RMK 1CU030     A3036=,
20180114_060000.003,0,RJTO,,,,0,20180114060000,-1,-1,-1,-1,60,-1,11,-1,-1,-1,-1,,9999,0,0,1,FEW 30,1,8,-1,6,1028,RJTO 140600Z 06011KT 9999 FEW030 08/M06 Q1028 RMK 1CU030     A3036=,
20180114_070000.002,0,RJTO,,,,0,20180114070000,-1,-1,-1,-1,90,-1,7,-1,-1,-1,-1,,9999,0,0,1,FEW 30,1,7,-1,7,1028,RJTO 140700Z 09007KT 9999 FEW030 07/M07 Q1028 RMK 1CU030     A3038=,
20180114_080000.002,0,RJTO,,,,0,20180114080000,-1,-1,-1,-1,-1,-1,-1,-1,-1,-1,-1,,-1,0,0,0,,0,-1,0,-1,-1,RJTO 140800Z NIL=,
20180114_230000.002,0,RJTO,,,,0,20180114230000,-1,-1,-1,-1,250,-1,9,-1,-1,190,280,,9999,0,0,2,FEW 30   BKN 50,1,10,1,1,1026,RJTO 142300Z 25009KT 190V280 9999 FEW030 BKN050 10/01 Q1026     RMK 1CU030 6SC050 A3032=,
20180115_000000.002,0,RJTO,,,,0,20180115000000,-1,-1,-1,-1,240,-1,11,-1,-1,200,270,,9999,0,0,2,FEW 30   SCT -9999,1,10,1,2,1026,RJTO 150000Z 24011KT 200V270 9999 FEW030 SCT/// 10/02 Q1026     RMK 1CU030 A3031=,
20180115_010000.002,0,RJTO,,,,0,20180115010000,-1,-1,-1,-1,240,-1,12,-1,22,200,270,,9999,0,0,1,FEW 30,1,12,1,2,1026,RJTO 150100Z 24012G22KT 200V270 9999 FEW030 12/02 Q1026 RMK     1CU030 A3031=,
20180115_020000.002,0,RJTO,,,,0,20180115020000,-1,-1,-1,-1,230,-1,15,-1,-1,-1,-1,,9999,0,0,1,FEW 40,1,12,1,2,1025,RJTO 150200Z 23015KT 9999 FEW040 12/02 Q1025 RMK 2CU040 A3027=,
20180115_030000.002,0,RJTO,,,,0,20180115030000,-1,-1,-1,-1,240,-1,13,-1,23,210,270,,9999,0,0,2,FEW 40   BKN -9999,1,12,1,2,1023,RJTO 150300Z 24013G23KT 210V270 9999 FEW040 BKN/// 12/02 Q1023     RMK 1CU040 A3023=,
20180115_040000.002,0,RJTO,,,,0,20180115040000,-1,-1,-1,-1,230,-1,14,-1,26,200,270,,9999,0,0,2,FEW 40   BKN -9999,1,13,1,3,1022,RJTO 150400Z 23014G26KT 200V270 9999 FEW040 BKN/// 13/03 Q1022     RMK 1CU040 A3019=,
20180115_050000.002,0,RJTO,,,,0,20180115050000,-1,-1,-1,-1,230,-1,16,-1,26,-1,-1,,9999,0,0,3,FEW 30   SCT 35   BKN -9999,1,12,1,3,1021,RJTO 150500Z 23016G26KT 9999 FEW030 SCT035 BKN/// 12/03 Q1021     RMK 1CU030 3CU035 A3016=,
20180115_060000.002,0,RJTO,,,,0,20180115060000,-1,-1,-1,-1,230,-1,19,-1,31,-1,-1,,9999,0,0,2,FEW 30   SCT 35,1,12,1,3,1020,RJTO 150600Z 23019G31KT 9999 FEW030 SCT035 12/03 Q1020 RMK     1CU030 3CU035 A3013=,
20180115_070000.003,0,RJTO,,,,0,20180115070000,-1,-1,-1,-1,230,-1,22,-1,-1,-1,-1,,9999,0,0,1,FEW 30,1,11,1,3,1019,RJTO 150700Z 23022KT 9999 FEW030 11/03 Q1019 RMK 1CU030 A3011=,
20180115_080000.002,0,RJTO,,,,0,20180115080000,-1,-1,-1,-1,-1,-1,-1,-1,-1,-1,-1,,-1,0,0,0,,0,-1,0,-1,-1,RJTO 150800Z NIL=,
20180115_230000.002,0,RJTO,,,,0,20180115230000,-1,-1,-1,-1,999,-1,2,-1,-1,-1,-1,,9999,0,0,1,FEW 25,1,9,1,4,1021,RJTO 152300Z VRB02KT 9999 FEW025 09/04 Q1021 RMK 1CU025 A3015=,
20180116_000000.002,0,RJTO,,,,0,20180116000000,-1,-1,-1,-1,999,-1,3,-1,-1,-1,-1,,9999,0,0,1,FEW 25,1,12,1,6,1022,RJTO 160000Z VRB03KT 9999 FEW025 12/06 Q1022 RMK 1CU025 A3018=,
20180116_010000.002,0,RJTO,,,,0,20180116010000,-1,-1,-1,-1,200,-1,7,-1,-1,170,230,,9999,0,0,1,FEW 25,1,12,1,5,1022,RJTO 160100Z 20007KT 170V230 9999 FEW025 12/05 Q1022 RMK     1CU025 A3018=,
20180116_020000.002,0,RJTO,,,,0,20180116020000,-1,-1,-1,-1,230,-1,7,-1,-1,200,280,,9999,0,0,1,FEW 25,1,13,1,5,1020,RJTO 160200Z 23007KT 200V280 9999 FEW025 13/05 Q1020 RMK     1CU025 A3014=,
20180116_030000.002,0,RJTO,,,,0,20180116030000,-1,-1,-1,-1,240,-1,6,-1,-1,180,340,,9999,0,0,1,FEW 25,1,13,1,2,1020,RJTO 160300Z 24006KT 180V340 9999 FEW025 13/02 Q1020 RMK     1CU025 A3012=,
20180116_040000.002,0,RJTO,,,,0,20180116040000,-1,-1,-1,-1,999,-1,3,-1,-1,-1,-1,,9999,0,0,2,FEW 30   SCT -9999,1,13,1,2,1019,RJTO 160400Z VRB03KT 9999 FEW030 SCT/// 13/02 Q1019 RMK 1CU030     A3010=,
20180116_050000.002,0,RJTO,,,,0,20180116050000,-1,-1,-1,-1,40,-1,6,-1,-1,350,90,,9999,0,0,2,FEW 30   SCT -9999,1,13,1,4,1018,RJTO 160500Z 04006KT 350V090 9999 FEW030 SCT/// 13/04 Q1018     RMK 1CU030 A3008=,
20180116_060000.002,0,RJTO,,,,0,20180116060000,-1,-1,-1,-1,999,-1,4,-1,-1,-1,-1,,9999,0,0,1,FEW 30,1,13,1,4,1018,RJTO 160600Z VRB04KT 9999 FEW030 13/04 Q1018 RMK 1CU030 A3008=,
20180116_070000.002,0,RJTO,,,,0,20180116070000,-1,-1,-1,-1,60,-1,4,-1,-1,-1,-1,,9999,0,0,2,FEW 30   SCT -9999,1,12,1,3,1018,RJTO 160700Z 06004KT 9999 FEW030 SCT/// 12/03 Q1018 RMK 1CU030     A3007=,
20180116_080000.002,0,RJTO,,,,0,20180116080000,-1,-1,-1,-1,-1,-1,-1,-1,-1,-1,-1,,-1,0,0,0,,0,-1,0,-1,-1,RJTO 160800Z NIL=,
20180116_230000.002,0,RJTO,,,,0,20180116230000,-1,-1,-1,-1,220,-1,20,-1,-1,-1,-1,,9999,0,0,3,FEW 20   SCT 25   BKN 130,1,16,1,11,1016,RJTO 162300Z 22020KT 9999 FEW020 SCT025 BKN130 16/11 Q1016 RMK     1CU020 3CU025 5AC130 A3001=,
20180117_000000.002,0,RJTO,,,,0,20180117000000,-1,-1,-1,-1,220,-1,20,-1,30,-1,-1,,9999,0,0,3,FEW 20   SCT 60   BKN 120,1,16,1,11,1016,RJTO 170000Z 22020G30KT 9999 FEW020 SCT060 BKN120 16/11 Q1016     RMK 1CU020 4SC060 6AC120 A3000=,
20180117_010000.002,0,RJTO,,,,0,20180117010000,-1,-1,-1,-1,220,-1,21,-1,31,-1,-1,,9999,0,1,3,FEW 20   SCT 25   BKN 120,1,18,1,11,1015,RJTO 170100Z 22021G31KT 9999 -SHRA FEW020 SCT025 BKN120 18/11     Q1015 RMK 1CU020 3CU025 5AC120 A2999=,- RA SH
20180117_020000.004,0,RJTO,,,,0,20180117020000,-1,-1,-1,-1,210,-1,21,-1,31,-1,-1,,9999,0,1,3,FEW 20   SCT 30   BKN 60,1,18,1,11,1014,RJTO 170200Z 21021G31KT 9999 -SHRA FEW020 SCT030 BKN060 18/11     Q1014 RMK 1CU020 3CU030 5SC060 A2996=,- RA SH
20180117_030000.002,0,RJTO,,,,0,20180117030000,-1,-1,-1,-1,210,-1,18,-1,-1,-1,-1,,9999,0,1,3,FEW 20   SCT 30   BKN 60,1,16,1,13,1013,RJTO 170300Z 21018KT 9999 -SHRA FEW020 SCT030 BKN060 16/13     Q1013 RMK 1CU020 3CU030 6SC060 A2992=,- RA SH
20180117_040000.003,0,RJTO,,,,0,20180117040000,-1,-1,-1,-1,220,-1,17,-1,28,-1,-1,,9999,0,1,3,FEW 20   SCT 30   BKN 50,1,16,1,13,1012,RJTO 170400Z 22017G28KT 9999 -SHRA FEW020 SCT030 BKN050 16/13     Q1012 RMK 1CU020 3CU030 6SC050 A2990=,- RA SH
20180117_050000.003,0,RJTO,,,,0,20180117050000,-1,-1,-1,-1,220,-1,17,-1,-1,-1,-1,,7000,0,1,3,FEW 15   SCT 25   BKN 50,1,15,1,13,1011,RJTO 170500Z 22017KT 7000 -SHRA FEW015 SCT025 BKN050 15/13     Q1011 RMK 1CU015 3CU025 6SC050 A2987=,- RA SH
20180117_060000.002,0,RJTO,,,,0,20180117060000,-1,-1,-1,-1,210,-1,21,-1,33,-1,-1,,9999,0,1,3,FEW 15   SCT 20   BKN 40,1,15,1,13,1010,RJTO 170600Z 21021G33KT 9999 -SHRA FEW015 SCT020 BKN040 15/13     Q1010 RMK 1CU015 3CU020 5SC040 A2984=,- RA SH
20180117_070000.002,0,RJTO,,,,0,20180117070000,-1,-1,-1,-1,200,-1,23,-1,-1,-1,-1,,8000,0,1,3,FEW 15   SCT 25   BKN 35,1,15,1,14,1009,RJTO 170700Z 20023KT 8000 -SHRA FEW015 SCT025 BKN035 15/14     Q1009 RMK 1CU015 3CU025 5SC035 A2981=,- RA SH
20180117_080000.002,0,RJTO,,,,0,20180117080000,-1,-1,-1,-1,-1,-1,-1,-1,-1,-1,-1,,-1,0,0,0,,0,-1,0,-1,-1,RJTO 170800Z NIL=,
20180117_230000.002,0,RJTO,,,,0,20180117230000,-1,-1,-1,-1,999,-1,1,-1,-1,-1,-1,,9999,0,0,2,FEW 15   BKN 20,1,11,1,9,1012,RJTO 172300Z VRB01KT 9999 FEW015 BKN020 11/09 Q1012 RMK 1CU015     7SC020 A2990=,
20180118_000000.002,0,RJTO,,,,0,20180118000000,-1,-1,-1,-1,70,-1,3,-1,-1,10,110,,9999,0,0,2,FEW 15   BKN 20,1,13,1,9,1012,RJTO 180000Z 07003KT 010V110 9999 FEW015 BKN020 13/09 Q1012     RMK 1CU015 7SC020 A2991=,
20180118_010000.002,0,RJTO,,,,0,20180118010000,-1,-1,-1,-1,200,-1,5,-1,-1,170,230,,9999,0,0,2,FEW 15   BKN 20,1,13,1,9,1012,RJTO 180100Z 20005KT 170V230 9999 FEW015 BKN020 13/09 Q1012     RMK 1CU015 7SC020 A2991=,
20180118_020000.002,0,RJTO,,,,0,20180118020000,-1,-1,-1,-1,100,-1,5,-1,-1,40,190,,9999,0,0,2,FEW 20   BKN 25,1,13,1,8,1013,RJTO 180200Z 10005KT 040V190 9999 FEW020 BKN025 13/08 Q1013     RMK 1CU020 6SC025 A2992=,
20180118_030000.003,0,RJTO,,,,0,20180118030000,-1,-1,-1,-1,330,-1,3,-1,-1,260,60,,9999,0,0,2,FEW 20   BKN 25,1,14,1,9,1012,RJTO 180300Z 33003KT 260V060 9999 FEW020 BKN025 14/09 Q1012     RMK 1CU020 6SC025 A2989=,
20180118_040000.002,0,RJTO,,,,0,20180118040000,-1,-1,-1,-1,190,-1,9,-1,-1,170,250,,9999,0,0,2,FEW 25   BKN 30,1,15,1,9,1012,RJTO 180400Z 19009KT 170V250 9999 FEW025 BKN030 15/09 Q1012     RMK 1CU025 5SC030 A2988=,
20180118_050000.002,0,RJTO,,,,0,20180118050000,-1,-1,-1,-1,200,-1,9,-1,-1,160,250,,9999,0,0,3,FEW 25   BKN 30   BKN -9999,1,15,1,9,1011,RJTO 180500Z 20009KT 160V250 9999 FEW025 BKN030 BKN/// 15/09     Q1011 RMK 1CU025 5SC030 A2988=,
20180118_060000.002,0,RJTO,,,,0,20180118060000,-1,-1,-1,-1,200,-1,12,-1,-1,-1,-1,,9999,0,0,2,FEW 20   SCT -9999,1,15,1,9,1011,RJTO 180600Z 20012KT 9999 FEW020 SCT/// 15/09 Q1011 RMK 1CU020     A2987=,
20180118_070000.002,0,RJTO,,,,0,20180118070000,-1,-1,-1,-1,220,-1,9,-1,-1,-1,-1,,9999,0,0,2,FEW 20   SCT -9999,1,14,1,7,1012,RJTO 180700Z 22009KT 9999 FEW020 SCT/// 14/07 Q1012 RMK 1CU020     A2988=,
20180118_080000.002,0,RJTO,,,,0,20180118080000,-1,-1,-1,-1,-1,-1,-1,-1,-1,-1,-1,,-1,0,0,0,,0,-1,0,-1,-1,RJTO 180800Z NIL=,
20180118_230000.003,0,RJTO,,,,0,20180118230000,-1,-1,-1,-1,40,-1,14,-1,-1,-1,-1,,9999,0,0,2,FEW 30   BKN 45,1,10,1,0,1018,RJTO 182300Z 04014KT 9999 FEW030 BKN045 10/00 Q1018 RMK 1CU030     5SC045 A3008=,
20180119_000000.002,0,RJTO,,,,0,20180119000000,-1,-1,-1,-1,50,-1,10,-1,-1,-1,-1,,9999,0,0,2,FEW 30   BKN 45,1,10,1,0,1019,RJTO 190000Z 05010KT 9999 FEW030 BKN045 10/00 Q1019 RMK 1CU030     5SC045 A3010=,
20180119_010000.003,0,RJTO,,,,0,20180119010000,-1,-1,-1,-1,50,-1,15,-1,-1,-1,-1,,9999,0,0,2,FEW 40   SCT 50,1,12,1,2,1019,RJTO 190100Z 05015KT 9999 FEW040 SCT050 12/02 Q1019 RMK 1CU040     4SC050 A3011=,
20180119_020000.002,0,RJTO,,,,0,20180119020000,-1,-1,-1,-1,50,-1,15,-1,-1,-1,-1,,9999,0,0,1,FEW 30,1,11,1,1,1018,RJTO 190200Z 05015KT 9999 FEW030 11/01 Q1018 RMK 1CU030 A3009=,
20180119_030000.002,0,RJTO,,,,0,20180119030000,-1,-1,-1,-1,40,-1,14,-1,-1,-1,-1,,9999,0,0,1,FEW 30,1,11,1,1,1017,RJTO 190300Z 04014KT 9999 FEW030 11/01 Q1017 RMK 1CU030 A3005=,
20180119_040000.002,0,RJTO,,,,0,20180119040000,-1,-1,-1,-1,30,-1,12,-1,-1,-1,-1,,9999,0,0,1,FEW 30,1,12,1,1,1017,RJTO 190400Z 03012KT 9999 FEW030 12/01 Q1017 RMK 1CU030 A3004=,
20180119_050000.003,0,RJTO,,,,0,20180119050000,-1,-1,-1,-1,30,-1,11,-1,-1,-1,-1,,9999,0,0,1,FEW 30,1,12,1,1,1017,RJTO 190500Z 03011KT 9999 FEW030 12/01 Q1017 RMK 1CU030 A3004=,
20180119_060000.002,0,RJTO,,,,0,20180119060000,-1,-1,-1,-1,60,-1,9,-1,-1,30,90,,9999,0,0,1,FEW 30,1,12,1,2,1016,RJTO 190600Z 06009KT 030V090 9999 FEW030 12/02 Q1016 RMK     1CU030 A3003=,
20180119_070000.002,0,RJTO,,,,0,20180119070000,-1,-1,-1,-1,60,-1,7,-1,-1,40,100,,9999,0,0,2,FEW 30   BKN 40,1,11,1,3,1016,RJTO 190700Z 06007KT 040V100 9999 FEW030 BKN040 11/03 Q1016     RMK 1CU030 5SC040 A3003=,
20180119_080000.002,0,RJTO,,,,0,20180119080000,-1,-1,-1,-1,-1,-1,-1,-1,-1,-1,-1,,-1,0,0,0,,0,-1,0,-1,-1,RJTO 190800Z NIL=,
20180119_230000.002,0,RJTO,,,,0,20180119230000,-1,-1,-1,-1,30,-1,12,-1,-1,-1,-1,,9999,0,0,3,FEW 7   BKN 12   BKN 15,1,8,1,6,1018,RJTO 192300Z 03012KT 9999 FEW007 BKN012 BKN015 08/06 Q1018 RMK     1ST007 5SC012 6SC015 A3006=,
20180120_000000.002,0,RJTO,,,,0,20180120000000,-1,-1,-1,-1,30,-1,12,-1,-1,-1,-1,,9999,0,0,3,FEW 8   BKN 12   BKN 15,1,8,1,6,1018,RJTO 200000Z 03012KT 9999 FEW008 BKN012 BKN015 08/06 Q1018 RMK     1ST008 5SC012 6SC015 A3006=,
20180120_010000.002,0,RJTO,,,,0,20180120010000,-1,-1,-1,-1,30,-1,10,-1,-1,-1,-1,,9999,0,0,3,FEW 8   BKN 13   BKN 15,1,8,1,5,1018,RJTO 200100Z 03010KT 9999 FEW008 BKN013 BKN015 08/05 Q1018 RMK     1ST008 5SC013 6SC015 A3006=,
20180120_020000.003,0,RJTO,,,,0,20180120020000,-1,-1,-1,-1,30,-1,9,-1,-1,-1,-1,,9999,0,0,3,FEW 9   BKN 15   BKN 20,1,8,1,5,1017,RJTO 200200Z 03009KT 9999 FEW009 BKN015 BKN020 08/05 Q1017 RMK     1ST009 5SC015 6SC020 A3004=,
20180120_030000.002,0,RJTO,,,,0,20180120030000,-1,-1,-1,-1,40,-1,8,-1,-1,-1,-1,,9999,0,0,2,FEW 10   BKN 15,1,9,1,5,1016,RJTO 200300Z 04008KT 9999 FEW010 BKN015 09/05 Q1016 RMK 1CU010     7SC015 A3001=,
20180120_040000.002,0,RJTO,,,,0,20180120040000,-1,-1,-1,-1,50,-1,9,-1,-1,-1,-1,,9999,0,0,2,FEW 10   BKN 16,1,10,1,6,1015,RJTO 200400Z 05009KT 9999 FEW010 BKN016 10/06 Q1015 RMK 1CU010     6SC016 A2998=,
20180120_050000.002,0,RJTO,,,,0,20180120050000,-1,-1,-1,-1,50,-1,8,-1,-1,10,100,,9999,0,0,2,FEW 10   SCT 16,1,10,1,6,1014,RJTO 200500Z 05008KT 010V100 9999 FEW010 SCT016 10/06 Q1014     RMK 1CU010 4CU016 A2996=,
20180120_060000.002,0,RJTO,,,,0,20180120060000,-1,-1,-1,-1,30,-1,7,-1,-1,360,60,,9999,0,0,2,FEW 10   SCT 17,1,10,1,5,1015,RJTO 200600Z 03007KT 360V060 9999 FEW010 SCT017 10/05 Q1015     RMK 1CU010 3CU017 A2998=,
20180120_070000.002,0,RJTO,,,,0,20180120070000,-1,-1,-1,-1,70,-1,6,-1,-1,-1,-1,,9999,0,0,2,FEW 10   SCT 16,1,10,1,6,1015,RJTO 200700Z 07006KT 9999 FEW010 SCT016 10/06 Q1015 RMK 1CU010     3CU016 A2999=,
20180120_080000.002,0,RJTO,,,,0,20180120080000,-1,-1,-1,-1,-1,-1,-1,-1,-1,-1,-1,,-1,0,0,0,,0,-1,0,-1,-1,RJTO 200800Z NIL=,
20180120_230000.002,0,RJTO,,,,0,20180120230000,-1,-1,-1,-1,60,-1,8,-1,-1,-1,-1,,9999,0,0,1,FEW 20,1,9,1,1,1016,RJTO 202300Z 06008KT 9999 FEW020 09/01 Q1016 RMK 1CU020 A3001=,
20180121_000000.002,0,RJTO,,,,0,20180121000000,-1,-1,-1,-1,60,-1,9,-1,-1,-1,-1,,9999,0,0,1,FEW 25,1,10,1,1,1016,RJTO 210000Z 06009KT 9999 FEW025 10/01 Q1016 RMK 1CU025 A3002=,
20180121_010000.002,0,RJTO,,,,0,20180121010000,-1,-1,-1,-1,50,-1,12,-1,-1,20,80,,9999,0,0,1,FEW 25,1,11,1,1,1016,RJTO 210100Z 05012KT 020V080 9999 FEW025 11/01 Q1016 RMK     1CU025 A3003=,
20180121_020000.002,0,RJTO,,,,0,20180121020000,-1,-1,-1,-1,30,-1,13,-1,-1,-1,-1,,9999,0,0,2,FEW 25   SCT -9999,1,11,1,1,1016,RJTO 210200Z 03013KT 9999 FEW025 SCT/// 11/01 Q1016 RMK 1CU025     A3001=,
20180121_030000.002,0,RJTO,,,,0,20180121030000,-1,-1,-1,-1,40,-1,8,-1,-1,360,100,,9999,0,0,2,FEW 30   BKN -9999,1,11,1,1,1015,RJTO 210300Z 04008KT 360V100 9999 FEW030 BKN/// 11/01 Q1015     RMK 1CU030 A2998=,
20180121_040000.003,0,RJTO,,,,0,20180121040000,-1,-1,-1,-1,40,-1,7,-1,-1,-1,-1,,9999,0,0,2,FEW 30   BKN -9999,1,11,1,2,1014,RJTO 210400Z 04007KT 9999 FEW030 BKN/// 11/02 Q1014 RMK 1CU030     A2995=,
20180121_050000.002,0,RJTO,,,,0,20180121050000,-1,-1,-1,-1,999,-1,3,-1,-1,-1,-1,,9999,0,0,2,FEW 30   SCT 45,1,11,1,2,1014,RJTO 210500Z VRB03KT 9999 FEW030 SCT045 11/02 Q1014 RMK 1CU030     3SC045 A2995=,
20180121_060000.002,0,RJTO,,,,0,20180121060000,-1,-1,-1,-1,240,-1,4,-1,-1,180,320,,9999,0,0,2,FEW 30   SCT 45,1,12,1,2,1014,RJTO 210600Z 24004KT 180V320 9999 FEW030 SCT045 12/02 Q1014     RMK 1CU030 4SC045 A2996=,
20180121_070000.002,0,RJTO,,,,0,20180121070000,-1,-1,-1,-1,250,-1,3,-1,-1,190,310,,9999,0,0,2,FEW 30   SCT 45,1,11,1,2,1014,RJTO 210700Z 25003KT 190V310 9999 FEW030 SCT045 11/02 Q1014     RMK 1CU030 3SC045 A2995=,
20180121_080000.002,0,RJTO,,,,0,20180121080000,-1,-1,-1,-1,-1,-1,-1,-1,-1,-1,-1,,-1,0,0,0,,0,-1,0,-1,-1,RJTO 210800Z NIL=,
20180121_230000.002,0,RJTO,,,,0,20180121230000,-1,-1,-1,-1,30,-1,17,-1,-1,-1,-1,,9999,0,0,2,FEW 20   BKN 25,1,7,1,2,1019,RJTO 212300Z 03017KT 9999 FEW020 BKN025 07/02 Q1019 RMK 1CU020     7SC025 A3009=,
20180122_000000.002,0,RJTO,,,,0,20180122000000,-1,-1,-1,-1,40,-1,19,-1,-1,-1,-1,,9999,0,1,2,FEW 15   BKN 20,1,7,1,3,1018,RJTO 220000Z 04019KT 9999 -RA FEW015 BKN020 07/03 Q1018 RMK     1CU015 7SC020 A3007=,- RA
20180122_010000.002,0,RJTO,,,,0,20180122010000,-1,-1,-1,-1,30,-1,20,-1,-1,-1,-1,,9999,0,1,3,FEW 11   BKN 14   BKN 16,1,7,1,4,1017,RJTO 220100Z 03020KT 9999 -RA FEW011 BKN014 BKN016 07/04 Q1017     RMK 1CU011 5SC014 7SC016 A3005=,- RA
20180122_020000.002,0,RJTO,,,,0,20180122020000,-1,-1,-1,-1,30,-1,24,-1,-1,-1,-1,,4000,0,2,3,FEW 9   BKN 10   BKN 11,1,6,1,4,1016,RJTO 220200Z 03024KT 4000 -RA BR FEW009 BKN010 BKN011 06/04     Q1016 RMK 1ST009 5SC010 6SC011 A3003=,- RA; BR
20180122_030000.002,0,RJTO,,,,0,20180122030000,-1,-1,-1,-1,40,-1,22,-1,-1,-1,-1,,4000,0,2,3,FEW 6   BKN 8   BKN 10,1,5,1,4,1014,RJTO 220300Z 04022KT 4000 -RA BR FEW006 BKN008 BKN010 05/04     Q1014 RMK 1ST006 5ST008 6SC010 A2997=,- RA; BR
20180122_040000.002,0,RJTO,,,,0,20180122040000,-1,-1,-1,-1,30,-1,26,-1,-1,-1,-1,,3000,0,2,3,FEW 7   BKN 9   BKN 10,1,4,1,2,1014,RJTO 220400Z 03026KT 3000 RA BR FEW007 BKN009 BKN010 04/02     Q1014 RMK 1ST007 5ST009 6SC010 A2994=,RA; BR
20180122_050000.002,0,RJTO,,,,0,20180122050000,-1,-1,-1,-1,10,-1,23,-1,-1,-1,-1,,4000,0,2,3,FEW 3   BKN 5   BKN 8,1,3,1,2,1012,RJTO 220500Z 01023KT 4000 -RA BR FEW003 BKN005 BKN008 03/02     Q1012 RMK 1ST003 5ST005 6ST008 A2991=,- RA; BR
20180122_060000.003,0,RJTO,,,,0,20180122060000,-1,-1,-1,-1,20,-1,28,-1,38,-1,-1,,3500,0,2,3,FEW 3   BKN 6   BKN 9,1,3,1,2,1011,RJTO 220600Z 02028G38KT 3500 -RA BR FEW003 BKN006 BKN009 03/02     Q1011 RMK 1ST003 5ST006 6ST009 A2987=,- RA; BR
20180122_070000.002,0,RJTO,,,,0,20180122070000,-1,-1,-1,-1,20,-1,26,-1,38,-1,-1,,3000,0,2,3,FEW 3   BKN 5   BKN 7,1,2,1,2,1011,RJTO 220700Z 02026G38KT 3000 -RA BR FEW003 BKN005 BKN007 02/02     Q1011 RMK 1ST003 5ST005 6ST007 A2986=,- RA; BR
20180122_080000.003,0,RJTO,,,,0,20180122080000,-1,-1,-1,-1,-1,-1,-1,-1,-1,-1,-1,,-1,0,0,0,,0,-1,0,-1,-1,RJTO 220800Z NIL=,
20180122_230000.003,0,RJTO,,,,0,20180122230000,-1,-1,-1,-1,250,-1,13,-1,23,210,280,,9999,0,0,1,FEW 20,1,8,1,4,1007,RJTO 222300Z 25013G23KT 210V280 9999 FEW020 08/04 Q1007 RMK     1CU020 A2976=,
20180123_000000.002,0,RJTO,,,,0,20180123000000,-1,-1,-1,-1,240,-1,15,-1,26,210,290,,9999,0,0,2,FEW 20   SCT 30,1,9,1,3,1008,RJTO 230000Z 24015G26KT 210V290 9999 FEW020 SCT030 09/03 Q1008     RMK 1CU020 3CU030 A2977=,
20180123_010000.002,0,RJTO,,,,0,20180123010000,-1,-1,-1,-1,250,-1,18,-1,34,210,300,,9999,0,0,2,FEW 25   SCT 35,1,10,1,4,1007,RJTO 230100Z 25018G34KT 210V300 9999 FEW025 SCT035 10/04 Q1007     RMK 1CU025 3CU035 A2975=,
20180123_020000.002,0,RJTO,,,,0,20180123020000,-1,-1,-1,-1,250,-1,17,-1,33,210,280,,9999,0,0,2,FEW 25   SCT 35,1,10,1,3,1006,RJTO 230200Z 25017G33KT 210V280 9999 FEW025 SCT035 10/03 Q1006     RMK 1CU025 4CU035 A2973=,
20180123_030000.003,0,RJTO,,,,0,20180123030000,-1,-1,-1,-1,250,-1,19,-1,32,220,280,,9999,0,0,2,FEW 25   SCT 35,1,11,1,3,1005,RJTO 230300Z 25019G32KT 220V280 9999 FEW025 SCT035 11/03 Q1005     RMK 1CU025 3CU035 A2970=,
20180123_040000.003,0,RJTO,,,,0,20180123040000,-1,-1,-1,-1,250,-1,16,-1,31,220,290,,9999,0,0,1,FEW 30,1,11,1,1,1005,RJTO 230400Z 25016G31KT 220V290 9999 FEW030 11/01 Q1005 RMK     1CU030 A2968=,
20180123_050000.002,0,RJTO,,,,0,20180123050000,-1,-1,-1,-1,240,-1,18,-1,30,210,270,,9999,0,0,1,FEW 30,1,11,-1,1,1004,RJTO 230500Z 24018G30KT 210V270 9999 FEW030 11/M01 Q1004 RMK     1CU030 A2967=,
20180123_060000.003,0,RJTO,,,,0,20180123060000,-1,-1,-1,-1,250,-1,16,-1,27,220,290,,9999,0,0,3,FEW 20   SCT 50   BKN 80,1,11,-1,1,1005,RJTO 230600Z 25016G27KT 220V290 9999 FEW020 SCT050 BKN080     11/M01 Q1005 RMK 1CU020 3SC050 5AC080 A2969=,
20180123_070000.002,0,RJTO,,,,0,20180123070000,-1,-1,-1,-1,250,-1,18,-1,36,220,290,,9999,0,1,3,FEW 15   SCT 40   BKN 60,1,10,-1,0,1006,RJTO 230700Z 25018G36KT 220V290 9999 -SHRA FEW015 SCT040     BKN060 10/M00 Q1006 RMK 1CU015 3CU040 5SC060 A2971=,- RA SH
20180123_080000.002,0,RJTO,,,,0,20180123080000,-1,-1,-1,-1,-1,-1,-1,-1,-1,-1,-1,,-1,0,0,0,,0,-1,0,-1,-1,RJTO 230800Z NIL=,
20180123_230000.002,0,RJTO,,,,0,20180123230000,-1,-1,-1,-1,240,-1,16,-1,30,210,280,,9999,0,0,2,FEW 30   BKN -9999,1,4,-1,5,1009,RJTO 232300Z 24016G30KT 210V280 9999 FEW030 BKN/// 04/M05     Q1009 RMK 1CU030 A2980=,
20180124_000000.002,0,RJTO,,,,0,20180124000000,-1,-1,-1,-1,250,-1,18,-1,32,220,300,,9999,0,0,1,FEW 30,1,4,-1,6,1009,RJTO 240000Z 25018G32KT 220V300 9999 FEW030 04/M06 Q1009 RMK     1CU030 A2979=,
20180124_010000.003,0,RJTO,,,,0,20180124010000,-1,-1,-1,-1,240,-1,16,-1,29,190,270,,9999,0,0,1,FEW 30,1,5,-1,5,1008,RJTO 240100Z 24016G29KT 190V270 9999 FEW030 05/M05 Q1008 RMK     1CU030 A2977=,
20180124_020000.002,0,RJTO,,,,0,20180124020000,-1,-1,-1,-1,240,-1,17,-1,29,210,280,,9999,0,0,1,FEW 35,1,5,-1,5,1006,RJTO 240200Z 24017G29KT 210V280 9999 FEW035 05/M05 Q1006 RMK     1CU035 A2972=,
20180124_030000.002,0,RJTO,,,,0,20180124030000,-1,-1,-1,-1,240,-1,18,-1,32,200,280,,9999,0,0,1,FEW 35,1,5,-1,5,1004,RJTO 240300Z 24018G32KT 200V280 9999 FEW035 05/M05 Q1004 RMK     1CU035 A2967=,
20180124_040000.002,0,RJTO,,,,0,20180124040000,-1,-1,-1,-1,250,-1,19,-1,37,210,280,,9999,0,0,1,FEW 40,1,5,-1,7,1003,RJTO 240400Z 25019G37KT 210V280 9999 FEW040 05/M07 Q1003 RMK     1CU040 A2964=,
20180124_050000.002,0,RJTO,,,,0,20180124050000,-1,-1,-1,-1,250,-1,20,-1,41,220,290,,9999,0,0,1,FEW 40,1,5,-1,7,1003,RJTO 240500Z 25020G41KT 220V290 9999 FEW040 05/M07 Q1003 RMK     1CU040 A2963=,
20180124_060000.002,0,RJTO,,,,0,20180124060000,-1,-1,-1,-1,240,-1,20,-1,36,210,270,,9999,0,0,1,FEW 40,1,5,-1,7,1003,RJTO 240600Z 24020G36KT 210V270 9999 FEW040 05/M07 Q1003 RMK     1CU040 A2964=,
20180124_070000.002,0,RJTO,,,,0,20180124070000,-1,-1,-1,-1,240,-1,18,-1,34,210,280,,9999,0,0,1,FEW 40,1,5,-1,7,1004,RJTO 240700Z 24018G34KT 210V280 9999 FEW040 05/M07 Q1004 RMK     1CU040 A2966=,
20180124_080000.002,0,RJTO,,,,0,20180124080000,-1,-1,-1,-1,-1,-1,-1,-1,-1,-1,-1,,-1,0,0,0,,0,-1,0,-1,-1,RJTO 240800Z NIL=,
20180124_230000.002,0,RJTO,,,,0,20180124230000,-1,-1,-1,-1,270,-1,7,-1,-1,200,340,,9999,0,0,2,FEW 30   SCT 50,1,1,-1,8,1010,RJTO 242300Z 27007KT 200V340 9999 FEW030 SCT050 01/M08 Q1010     RMK 1CU030 3SC050 A2984=,
20180125_000000.002,0,RJTO,,,,0,20180125000000,-1,-1,-1,-1,999,-1,4,-1,-1,-1,-1,,9999,0,0,2,FEW 30   SCT 50,1,2,-1,9,1010,RJTO 250000Z VRB04KT 9999 FEW030 SCT050 02/M09 Q1010 RMK     1CU030 3SC050 A2984=,
20180125_010000.002,0,RJTO,,,,0,20180125010000,-1,-1,-1,-1,999,-1,2,-1,-1,-1,-1,,9999,0,0,2,FEW 30   SCT 50,1,3,-1,9,1010,RJTO 250100Z VRB02KT 9999 FEW030 SCT050 03/M09 Q1010 RMK     1CU030 3SC050 A2985=,
20180125_020000.003,0,RJTO,,,,0,20180125020000,-1,-1,-1,-1,999,-1,4,-1,-1,-1,-1,,9999,0,0,2,FEW 30   SCT 50,1,3,-1,9,1010,RJTO 250200Z VRB04KT 9999 FEW030 SCT050 03/M09 Q1010 RMK     1CU030 3SC050 A2983=,
20180125_030000.002,0,RJTO,,,,0,20180125030000,-1,-1,-1,-1,999,-1,3,-1,-1,-1,-1,,9999,0,0,2,FEW 30   SCT 45,1,4,-1,8,1009,RJTO 250300Z VRB03KT 9999 FEW030 SCT045 04/M08 Q1009 RMK     1CU030 3SC045 A2982=,
20180125_040000.002,0,RJTO,,,,0,20180125040000,-1,-1,-1,-1,240,-1,4,-1,-1,180,320,,9999,0,0,1,FEW 30,1,4,-1,8,1009,RJTO 250400Z 24004KT 180V320 9999 FEW030 04/M08 Q1009 RMK     1CU030 A2979=,
20180125_050000.002,0,RJTO,,,,0,20180125050000,-1,-1,-1,-1,999,-1,5,-1,-1,-1,-1,,9999,0,0,1,FEW 40,1,5,-1,9,1008,RJTO 250500Z VRB05KT 9999 FEW040 05/M09 Q1008 RMK 1CU040     A2978=,
20180125_060000.002,0,RJTO,,,,0,20180125060000,-1,-1,-1,-1,999,-1,1,-1,-1,-1,-1,,9999,0,0,1,FEW 40,1,5,-1,9,1008,RJTO 250600Z VRB01KT 9999 FEW040 05/M09 Q1008 RMK 1CU040     A2979=,
20180125_070000.002,0,RJTO,,,,0,20180125070000,-1,-1,-1,-1,270,-1,3,-1,-1,190,330,,9999,0,0,1,FEW 40,1,5,-1,10,1008,RJTO 250700Z 27003KT 190V330 9999 FEW040 05/M10 Q1008 RMK     1CU040 A2979=,
20180125_080000.002,0,RJTO,,,,0,20180125080000,-1,-1,-1,-1,-1,-1,-1,-1,-1,-1,-1,,-1,0,0,0,,0,-1,0,-1,-1,RJTO 250800Z NIL=,
20180125_230000.002,0,RJTO,,,,0,20180125230000,-1,-1,-1,-1,260,-1,8,-1,-1,190,310,,9999,0,0,2,FEW 30   BKN 40,1,3,-1,4,1005,RJTO 252300Z 26008KT 190V310 9999 FEW030 BKN040 03/M04 Q1005     RMK 1CU030 5SC040 A2970=,
20180126_000000.002,0,RJTO,,,,0,20180126000000,-1,-1,-1,-1,999,-1,4,-1,-1,-1,-1,,9999,0,0,2,FEW 30   BKN 40,1,4,-1,4,1006,RJTO 260000Z VRB04KT 9999 FEW030 BKN040 04/M04 Q1006 RMK     1CU030 5CU040 A2971=,
20180126_010000.002,0,RJTO,,,,0,20180126010000,-1,-1,-1,-1,240,-1,6,-1,-1,200,310,,9999,0,0,2,FEW 30   BKN 40,1,6,-1,3,1006,RJTO 260100Z 24006KT 200V310 9999 FEW030 BKN040 06/M03 Q1006     RMK 1CU030 6CU040 A2972=,
20180126_020000.002,0,RJTO,,,,0,20180126020000,-1,-1,-1,-1,260,-1,6,-1,-1,190,330,,9999,0,0,2,FEW 30   BKN 40,1,5,-1,4,1005,RJTO 260200Z 26006KT 190V330 9999 FEW030 BKN040 05/M04 Q1005     RMK 1CU030 6CU040 A2969=,
20180126_030000.002,0,RJTO,,,,0,20180126030000,-1,-1,-1,-1,360,-1,6,-1,-1,290,30,,9999,0,0,2,FEW 30   BKN 40,1,5,-1,4,1004,RJTO 260300Z 36006KT 290V030 9999 FEW030 BKN040 05/M04 Q1004     RMK 1CU030 6CU040 A2967=,
20180126_040000.002,0,RJTO,,,,0,20180126040000,-1,-1,-1,-1,360,-1,4,-1,-1,280,80,,9999,0,0,3,FEW 30   SCT 40   BKN 60,1,5,-1,4,1004,RJTO 260400Z 36004KT 280V080 9999 FEW030 SCT040 BKN060 05/M04     Q1004 RMK 1CU030 3CU040 6SC060 A2965=,
20180126_050000.002,0,RJTO,,,,0,20180126050000,-1,-1,-1,-1,80,-1,6,-1,-1,50,130,,9999,0,0,2,FEW 30   BKN 60,1,5,-1,4,1004,RJTO 260500Z 08006KT 050V130 9999 FEW030 BKN060 05/M04 Q1004     RMK 1CU030 6SC060 A2966=,
20180126_060000.002,0,RJTO,,,,0,20180126060000,-1,-1,-1,-1,80,-1,10,-1,-1,-1,-1,,9999,0,0,2,FEW 30   SCT 50,1,6,-1,3,1004,RJTO 260600Z 08010KT 9999 FEW030 SCT050 06/M03 Q1004 RMK     1CU030 3SC050 A2965=,
20180126_070000.002,0,RJTO,,,,0,20180126070000,-1,-1,-1,-1,70,-1,9,-1,-1,-1,-1,,9999,0,1,2,FEW 30   BKN 60,1,5,-1,3,1004,RJTO 260700Z 07009KT 9999 VCSH FEW030 BKN060 05/M03 Q1004 RMK     1CU030 5SC060 A2966=,VC SH
20180126_080000.003,0,RJTO,,,,0,20180126080000,-1,-1,-1,-1,-1,-1,-1,-1,-1,-1,-1,,-1,0,0,0,,0,-1,0,-1,-1,RJTO 260800Z NIL=,
20180126_230000.002,0,RJTO,,,,0,20180126230000,-1,-1,-1,-1,999,-1,2,-1,-1,-1,-1,,9999,0,0,1,FEW 30,1,0,-1,5,1014,RJTO 262300Z VRB02KT 9999 FEW030 00/M05 Q1014 RMK 1CU030     A2995=,
20180127_000000.002,0,RJTO,,,,0,20180127000000,-1,-1,-1,-1,10,-1,5,-1,-1,310,50,,9999,0,0,1,FEW 30,1,5,-1,11,1014,RJTO 270000Z 01005KT 310V050 9999 FEW030 05/M11 Q1014 RMK     1CU030 A2997=,
20180127_010000.002,0,RJTO,,,,0,20180127010000,-1,-1,-1,-1,999,-1,3,-1,-1,-1,-1,,9999,0,0,1,FEW 30,1,6,-1,13,1015,RJTO 270100Z VRB03KT 9999 FEW030 06/M13 Q1015 RMK 1CU030     A2997=,
20180127_020000.002,0,RJTO,,,,0,20180127020000,-1,-1,-1,-1,999,-1,3,-1,-1,-1,-1,,9999,0,0,1,FEW 30,1,7,-1,14,1015,RJTO 270200Z VRB03KT 9999 FEW030 07/M14 Q1015 RMK 1CU030     A2997=,
20180127_030000.002,0,RJTO,,,,0,20180127030000,-1,-1,-1,-1,230,-1,4,-1,-1,130,290,,9999,0,0,1,FEW 30,1,7,-1,11,1014,RJTO 270300Z 23004KT 130V290 9999 FEW030 07/M11 Q1014 RMK     1CU030 A2995=,
20180127_040000.002,0,RJTO,,,,0,20180127040000,-1,-1,-1,-1,190,-1,9,-1,-1,-1,-1,,9999,0,0,1,FEW 30,1,8,-1,8,1013,RJTO 270400Z 19009KT 9999 FEW030 08/M08 Q1013 RMK 1CU030     A2994=,
20180127_050000.002,0,RJTO,,,,0,20180127050000,-1,-1,-1,-1,210,-1,9,-1,-1,180,260,,9999,0,0,1,FEW 30,1,8,-1,8,1014,RJTO 270500Z 21009KT 180V260 9999 FEW030 08/M08 Q1014 RMK     1CU030 A2995=,
20180127_060000.002,0,RJTO,,,,0,20180127060000,-1,-1,-1,-1,210,-1,9,-1,-1,180,250,,9999,0,0,1,FEW 30,1,8,-1,6,1014,RJTO 270600Z 21009KT 180V250 9999 FEW030 08/M06 Q1014 RMK     1CU030 A2995=,
20180127_070000.002,0,RJTO,,,,0,20180127070000,-1,-1,-1,-1,190,-1,8,-1,-1,160,250,,9999,0,0,1,FEW 30,1,7,-1,6,1014,RJTO 270700Z 19008KT 160V250 9999 FEW030 07/M06 Q1014 RMK     1CU030 A2996=,
20180127_080000.002,0,RJTO,,,,0,20180127080000,-1,-1,-1,-1,-1,-1,-1,-1,-1,-1,-1,,-1,0,0,0,,0,-1,0,-1,-1,RJTO 270800Z NIL=,
20180127_230000.002,0,RJTO,,,,0,20180127230000,-1,-1,-1,-1,80,-1,7,-1,-1,-1,-1,,9999,0,0,3,FEW 25   SCT 35   BKN 45,1,5,-1,2,1018,RJTO 272300Z 08007KT 9999 FEW025 SCT035 BKN045 05/M02 Q1018     RMK 1CU025 3SC035 6SC045 A3006=,
20180128_000000.003,0,RJTO,,,,0,20180128000000,-1,-1,-1,-1,60,-1,9,-1,-1,-1,-1,,9999,0,0,3,FEW 30   SCT 45   BKN 140,1,7,-1,0,1018,RJTO 280000Z 06009KT 9999 FEW030 SCT045 BKN140 07/M00 Q1018     RMK 1CU030 3SC045 5AC140 A3007=,
20180128_010000.002,0,RJTO,,,,0,20180128010000,-1,-1,-1,-1,50,-1,8,-1,-1,-1,-1,,9999,0,0,3,FEW 30   SCT 35   BKN 50,1,7,-1,0,1018,RJTO 280100Z 05008KT 9999 FEW030 SCT035 BKN050 07/M00 Q1018     RMK 1CU030 3SC035 6SC050 A3007=,
20180128_020000.002,0,RJTO,,,,0,20180128020000,-1,-1,-1,-1,60,-1,8,-1,-1,30,100,,9999,0,0,3,FEW 25   SCT 35   BKN 60,1,8,-1,0,1016,RJTO 280200Z 06008KT 030V100 9999 FEW025 SCT035 BKN060 08/M00     Q1016 RMK 1CU025 3SC035 6SC060 A3002=,
20180128_030000.002,0,RJTO,,,,0,20180128030000,-1,-1,-1,-1,70,-1,10,-1,-1,30,100,,9999,0,0,3,FEW 25   BKN 60   BKN 130,1,7,1,1,1015,RJTO 280300Z 07010KT 030V100 9999 FEW025 BKN060 BKN130 07/01     Q1015 RMK 1CU025 5SC060 6AC130 A2997=,
20180128_040000.002,0,RJTO,,,,0,20180128040000,-1,-1,-1,-1,30,-1,8,-1,-1,350,50,,9999,0,0,3,FEW 18   SCT 35   BKN 50,1,7,1,3,1014,RJTO 280400Z 03008KT 350V050 9999 FEW018 SCT035 BKN050 07/03     Q1014 RMK 1CU018 3SC035 6SC050 A2996=,
20180128_050000.002,0,RJTO,,,,0,20180128050000,-1,-1,-1,-1,10,-1,3,-1,-1,240,50,,9999,0,0,3,FEW 20   SCT 25   BKN 35,1,8,1,2,1013,RJTO 280500Z 01003KT 240V050 9999 FEW020 SCT025 BKN035 08/02     Q1013 RMK 1CU020 3SC025 6SC035 A2994=,
20180128_060000.002,0,RJTO,,,,0,20180128060000,-1,-1,-1,-1,240,-1,7,-1,-1,200,310,,9999,0,0,3,FEW 25   SCT 35   BKN 130,1,9,1,2,1013,RJTO 280600Z 24007KT 200V310 9999 FEW025 SCT035 BKN130 09/02     Q1013 RMK 1CU025 3SC035 5AC130 A2993=,
20180128_070000.003,0,RJTO,,,,0,20180128070000,-1,-1,-1,-1,230,-1,12,-1,-1,-1,-1,,9999,0,0,3,FEW 25   SCT 110   BKN -9999,1,8,-1,1,1012,RJTO 280700Z 23012KT 9999 FEW025 SCT110 BKN/// 08/M01 Q1012     RMK 1CU025 4AC110 A2990=,
20180128_080000.002,0,RJTO,,,,0,20180128080000,-1,-1,-1,-1,-1,-1,-1,-1,-1,-1,-1,,-1,0,0,0,,0,-1,0,-1,-1,RJTO 280800Z NIL=,
20180128_230000.002,0,RJTO,,,,0,20180128230000,-1,-1,-1,-1,230,-1,10,-1,-1,200,270,,9999,0,0,3,FEW 25   SCT 30   BKN 140,1,8,1,2,1007,RJTO 282300Z 23010KT 200V270 9999 FEW025 SCT030 BKN140 08/02     Q1007 RMK 1CU025 3SC030 5AC140 A2975=,
20180129_000000.003,0,RJTO,,,,0,20180129000000,-1,-1,-1,-1,220,-1,12,-1,-1,-1,-1,,9999,0,0,2,FEW 25   BKN -9999,1,8,1,1,1007,RJTO 290000Z 22012KT 9999 FEW025 BKN/// 08/01 Q1007 RMK 1CU025     A2975=,
20180129_010000.002,0,RJTO,,,,0,20180129010000,-1,-1,-1,-1,230,-1,11,-1,-1,200,260,,9999,0,0,2,FEW 25   BKN -9999,1,9,1,1,1007,RJTO 290100Z 23011KT 200V260 9999 FEW025 BKN/// 09/01 Q1007     RMK 1CU025 A2974=,
20180129_020000.002,0,RJTO,,,,0,20180129020000,-1,-1,-1,-1,230,-1,12,-1,-1,200,270,,9999,0,0,3,FEW 25   BKN 180   BKN -9999,1,8,1,1,1006,RJTO 290200Z 23012KT 200V270 9999 FEW025 BKN180 BKN/// 08/01     Q1006 RMK 1CU025 5AC180 A2972=,
20180129_030000.002,0,RJTO,,,,0,20180129030000,-1,-1,-1,-1,240,-1,11,-1,-1,210,290,,9999,0,0,2,FEW 25   SCT -9999,1,10,1,1,1005,RJTO 290300Z 24011KT 210V290 9999 FEW025 SCT/// 10/01 Q1005     RMK 1CU025 A2969=,
20180129_040000.002,0,RJTO,,,,0,20180129040000,-1,-1,-1,-1,240,-1,10,-1,-1,190,280,,9999,0,0,2,FEW 30   SCT -9999,1,10,1,1,1004,RJTO 290400Z 24010KT 190V280 9999 FEW030 SCT/// 10/01 Q1004     RMK 1CU030 A2966=,
20180129_050000.002,0,RJTO,,,,0,20180129050000,-1,-1,-1,-1,240,-1,9,-1,-1,210,270,,9999,0,0,2,FEW 30   SCT -9999,1,11,1,1,1003,RJTO 290500Z 24009KT 210V270 9999 FEW030 SCT/// 11/01 Q1003     RMK 2CU030 A2964=,
20180129_060000.002,0,RJTO,,,,0,20180129060000,-1,-1,-1,-1,240,-1,10,-1,-1,200,280,,9999,0,0,1,FEW 30,1,10,1,1,1003,RJTO 290600Z 24010KT 200V280 9999 FEW030 10/01 Q1003 RMK     1CU030 A2964=,
20180129_070000.002,0,RJTO,,,,0,20180129070000,-1,-1,-1,-1,250,-1,10,-1,-1,210,320,,9999,0,0,2,FEW 25   SCT 35,1,10,1,0,1003,RJTO 290700Z 25010KT 210V320 9999 FEW025 SCT035 10/00 Q1003     RMK 1CU025 4CU035 A2964=,
20180129_080000.002,0,RJTO,,,,0,20180129080000,-1,-1,-1,-1,-1,-1,-1,-1,-1,-1,-1,,-1,0,0,0,,0,-1,0,-1,-1,RJTO 290800Z NIL=,
20180129_230000.002,0,RJTO,,,,0,20180129230000,-1,-1,-1,-1,50,-1,9,-1,-1,-1,-1,,9999,0,1,2,FEW 20   BKN 50,1,5,-1,4,1013,RJTO 292300Z 05009KT 9999 VCSH FEW020 BKN050 05/M04 Q1013 RMK     1CU020 6SC050 A2992=,VC SH
20180130_000000.002,0,RJTO,,,,0,20180130000000,-1,-1,-1,-1,50,-1,12,-1,-1,-1,-1,,9999,0,0,3,FEW 20   SCT 45   BKN 60,1,5,-1,4,1014,RJTO 300000Z 05012KT 9999 FEW020 SCT045 BKN060 05/M04 Q1014     RMK 1CU020 3SC045 5SC060 A2995=,
20180130_010000.002,0,RJTO,,,,0,20180130010000,-1,-1,-1,-1,40,-1,12,-1,-1,10,80,,9999,0,0,3,FEW 20   SCT 45   BKN 60,1,5,-1,4,1014,RJTO 300100Z 04012KT 010V080 9999 FEW020 SCT045 BKN060 05/M04     Q1014 RMK 1CU020 3SC045 5SC060 A2997=,
20180130_020000.002,0,RJTO,,,,0,20180130020000,-1,-1,-1,-1,30,-1,11,-1,-1,350,60,,9999,0,0,3,FEW 20   SCT 40   BKN 50,1,6,-1,4,1014,RJTO 300200Z 03011KT 350V060 9999 FEW020 SCT040 BKN050 06/M04     Q1014 RMK 1CU020 3SC040 5SC050 A2997=,
20180130_030000.002,0,RJTO,,,,0,20180130030000,-1,-1,-1,-1,40,-1,8,-1,-1,360,100,,9999,0,0,3,FEW 25   SCT 45   BKN 50,1,6,-1,3,1014,RJTO 300300Z 04008KT 360V100 9999 FEW025 SCT045 BKN050 06/M03     Q1014 RMK 1CU025 3SC045 5SC050 A2996=,
20180130_040000.002,0,RJTO,,,,0,20180130040000,-1,-1,-1,-1,50,-1,8,-1,-1,20,100,,9999,0,0,3,FEW 25   SCT 40   BKN 50,1,5,-1,4,1014,RJTO 300400Z 05008KT 020V100 9999 FEW025 SCT040 BKN050 05/M04     Q1014 RMK 1CU025 3SC040 6SC050 A2996=,
20180130_050000.002,0,RJTO,,,,0,20180130050000,-1,-1,-1,-1,70,-1,4,-1,-1,40,140,,9999,0,0,3,FEW 25   SCT 45   BKN 50,1,5,-1,4,1015,RJTO 300500Z 07004KT 040V140 9999 FEW025 SCT045 BKN050 05/M04     Q1015 RMK 1CU025 3SC045 6SC050 A2997=,
20180130_060000.003,0,RJTO,,,,0,20180130060000,-1,-1,-1,-1,50,-1,4,-1,-1,10,180,,9999,0,0,3,FEW 30   SCT 50   BKN 60,1,6,-1,3,1015,RJTO 300600Z 05004KT 010V180 9999 FEW030 SCT050 BKN060 06/M03     Q1015 RMK 1CU030 3SC050 5SC060 A2999=,
20180130_070000.002,0,RJTO,,,,0,20180130070000,-1,-1,-1,-1,999,-1,1,-1,-1,-1,-1,,9999,0,0,3,FEW 30   SCT 50   BKN 60,1,6,-1,3,1016,RJTO 300700Z VRB01KT 9999 FEW030 SCT050 BKN060 06/M03 Q1016     RMK 1CU030 3SC050 6SC060 A3000=,
20180130_080000.002,0,RJTO,,,,0,20180130080000,-1,-1,-1,-1,-1,-1,-1,-1,-1,-1,-1,,-1,0,0,0,,0,-1,0,-1,-1,RJTO 300800Z NIL=,
20180130_230000.002,0,RJTO,,,,0,20180130230000,-1,-1,-1,-1,100,-1,3,-1,-1,40,140,,9999,0,0,2,FEW 20   SCT 40,1,5,1,2,1021,RJTO 302300Z 10003KT 040V140 9999 FEW020 SCT040 05/02 Q1021     RMK 1CU020 4SC040 A3016=,
20180131_000000.002,0,RJTO,,,,0,20180131000000,-1,-1,-1,-1,360,-1,4,-1,-1,310,60,,9999,0,0,2,FEW 20   SCT 30,1,7,1,1,1021,RJTO 310000Z 36004KT 310V060 9999 FEW020 SCT030 07/01 Q1021     RMK 1CU020 3CU030 A3018=,
20180131_010000.002,0,RJTO,,,,0,20180131010000,-1,-1,-1,-1,999,-1,1,-1,-1,-1,-1,,9999,0,0,2,FEW 25   SCT 30,1,8,1,1,1022,RJTO 310100Z VRB01KT 9999 FEW025 SCT030 08/01 Q1022 RMK 1CU025     3CU030 A3018=,
20180131_020000.002,0,RJTO,,,,0,20180131020000,-1,-1,-1,-1,230,-1,6,-1,-1,180,350,,9999,0,0,3,FEW 25   SCT 30   BKN -9999,1,9,1,1,1021,RJTO 310200Z 23006KT 180V350 9999 FEW025 SCT030 BKN/// 09/01     Q1021 RMK 1CU025 4CU030 A3016=,
20180131_030000.002,0,RJTO,,,,0,20180131030000,-1,-1,-1,-1,210,-1,7,-1,-1,-1,-1,,9999,0,0,2,FEW 30   BKN -9999,1,9,-1,4,1020,RJTO 310300Z 21007KT 9999 FEW030 BKN/// 09/M04 Q1020 RMK     2CU030 A3013=,
20180131_040000.002,0,RJTO,,,,0,20180131040000,-1,-1,-1,-1,220,-1,4,-1,-1,150,320,,9999,0,0,2,FEW 30   BKN -9999,1,9,-1,2,1019,RJTO 310400Z 22004KT 150V320 9999 FEW030 BKN/// 09/M02 Q1019     RMK 1CU030 A3010=,
20180131_050000.002,0,RJTO,,,,0,20180131050000,-1,-1,-1,-1,240,-1,7,-1,-1,190,310,,9999,0,0,2,FEW 30   BKN -9999,1,9,-1,1,1019,RJTO 310500Z 24007KT 190V310 9999 FEW030 BKN/// 09/M01 Q1019     RMK 1CU030 A3010=,
20180131_060000.002,0,RJTO,,,,0,20180131060000,-1,-1,-1,-1,240,-1,6,-1,-1,200,300,,9999,0,0,2,FEW 30   BKN -9999,1,9,-1,2,1020,RJTO 310600Z 24006KT 200V300 9999 FEW030 BKN/// 09/M02 Q1020     RMK 1CU030 A3012=,
20180131_070000.003,0,RJTO,,,,0,20180131070000,-1,-1,-1,-1,240,-1,5,-1,-1,200,340,,9999,0,0,2,FEW 30   BKN -9999,1,9,-1,3,1020,RJTO 310700Z 24005KT 200V340 9999 FEW030 BKN/// 09/M03 Q1020     RMK 1CU030 A3012=,
20180131_080000.003,0,RJTO,,,,0,20180131080000,-1,-1,-1,-1,-1,-1,-1,-1,-1,-1,-1,,-1,0,0,0,,0,-1,0,-1,-1,RJTO 310800Z NIL=,
20180131_230000.002,0,RJTO,,,,0,20180131230000,-1,-1,-1,-1,50,-1,9,-1,-1,-1,-1,,9999,0,0,3,FEW 30   SCT 80   BKN 140,1,7,-1,1,1023,RJTO 312300Z 05009KT 9999 FEW030 SCT080 BKN140 07/M01 Q1023     RMK 1CU030 3AC080 7AC140 A3022=,
20180201_000000.003,0,RJTO,,,,0,20180201000000,-1,-1,-1,-1,20,-1,12,-1,-1,350,50,,9999,0,0,3,FEW 20   SCT 25   BKN 100,1,8,1,3,1023,RJTO 010000Z 02012KT 350V050 9999 FEW020 SCT025 BKN100 08/03     Q1023 RMK 1CU020 3SC025 7AC100 A3023=,
20180201_010000.002,0,RJTO,,,,0,20180201010000,-1,-1,-1,-1,30,-1,16,-1,-1,-1,-1,,9999,0,0,3,FEW 18   SCT 25   BKN 90,1,8,1,3,1024,RJTO 010100Z 03016KT 9999 FEW018 SCT025 BKN090 08/03 Q1024 RMK     1CU018 4SC025 7AC090 A3024=,
20180201_020000.002,0,RJTO,,,,0,20180201020000,-1,-1,-1,-1,30,-1,13,-1,-1,-1,-1,,9999,0,0,3,FEW 18   SCT 20   BKN 60,1,9,1,4,1023,RJTO 010200Z 03013KT 9999 FEW018 SCT020 BKN060 09/04 Q1023 RMK     1CU018 3SC020 7SC060 A3023=,
20180201_030000.003,0,RJTO,,,,0,20180201030000,-1,-1,-1,-1,20,-1,11,-1,-1,-1,-1,,9999,0,0,3,FEW 15   SCT 20   BKN 60,1,8,1,4,1023,RJTO 010300Z 02011KT 9999 FEW015 SCT020 BKN060 08/04 Q1023 RMK     1CU015 3SC020 7SC060 A3021=,
20180201_040000.003,0,RJTO,,,,0,20180201040000,-1,-1,-1,-1,30,-1,13,-1,-1,-1,-1,,9999,0,0,3,FEW 15   BKN 20   BKN 60,1,8,1,4,1022,RJTO 010400Z 03013KT 9999 FEW015 BKN020 BKN060 08/04 Q1022 RMK     1CU015 5SC020 7SC060 A3019=,
20180201_050000.002,0,RJTO,,,,0,20180201050000,-1,-1,-1,-1,30,-1,17,-1,-1,-1,-1,,9999,0,1,3,FEW 10   BKN 16   BKN 40,1,8,1,4,1022,RJTO 010500Z 03017KT 9999 -RA FEW010 BKN016 BKN040 08/04 Q1022     RMK 1CU010 5SC016 7SC040 A3018=,- RA
20180201_060000.002,0,RJTO,,,,0,20180201060000,-1,-1,-1,-1,30,-1,18,-1,-1,-1,-1,,9999,0,1,3,FEW 8   BKN 12   BKN 30,1,7,1,5,1022,RJTO 010600Z 03018KT 9999 -RA FEW008 BKN012 BKN030 07/05 Q1022     RMK 1ST008 5SC012 7SC030 A3018=,- RA
20180201_070000.002,0,RJTO,,,,0,20180201070000,-1,-1,-1,-1,30,-1,20,-1,-1,-1,-1,,8000,0,1,3,FEW 7   BKN 10   BKN 30,1,6,1,5,1022,RJTO 010700Z 03020KT 8000 -RA FEW007 BKN010 BKN030 06/05 Q1022     RMK 1ST007 5SC010 7SC030 A3019=,- RA
20180201_080000.002,0,RJTO,,,,0,20180201080000,-1,-1,-1,-1,-1,-1,-1,-1,-1,-1,-1,,-1,0,0,0,,0,-1,0,-1,-1,RJTO 010800Z NIL=,
20180201_230000.003,0,RJTO,,,,0,20180201230000,-1,-1,-1,-1,30,-1,28,-1,-1,-1,-1,,9999,0,1,3,FEW 7   BKN 11   BKN 15,1,4,1,2,1023,RJTO 012300Z 03028KT 9999 -SHRA FEW007 BKN011 BKN015 04/02     Q1023 RMK 1ST007 6CU011 7CU015 A3022=,- RA SH
20180202_000000.002,0,RJTO,,,,0,20180202000000,-1,-1,-1,-1,30,-1,26,-1,-1,-1,-1,,9999,0,1,3,FEW 7   BKN 11   BKN 15,1,4,1,2,1023,RJTO 020000Z 03026KT 9999 -SHRA FEW007 BKN011 BKN015 04/02     Q1023 RMK 1ST007 6CU011 7CU015 A3022=,- RA SH
20180202_010000.002,0,RJTO,,,,0,20180202010000,-1,-1,-1,-1,30,-1,28,-1,-1,-1,-1,,9999,0,1,3,FEW 8   BKN 11   BKN 15,1,4,1,2,1023,RJTO 020100Z 03028KT 9999 -SHRA FEW008 BKN011 BKN015 04/02     Q1023 RMK 1ST008 6CU011 7CU015 A3021=,- RA SH
20180202_020000.002,0,RJTO,,,,0,20180202020000,-1,-1,-1,-1,30,-1,27,-1,-1,-1,-1,,9999,0,1,3,FEW 8   BKN 12   BKN 15,1,4,1,2,1022,RJTO 020200Z 03027KT 9999 -SHRA FEW008 BKN012 BKN015 04/02     Q1022 RMK 1ST008 6CU012 7CU015 A3020=,- RA SH
20180202_030000.002,0,RJTO,,,,0,20180202030000,-1,-1,-1,-1,30,-1,23,-1,-1,-1,-1,,9999,0,0,3,FEW 9   BKN 12   BKN 15,1,5,1,2,1022,RJTO 020300Z 03023KT 9999 FEW009 BKN012 BKN015 05/02 Q1022 RMK     1ST009 5CU012 7CU015 A3019=,
20180202_040000.002,0,RJTO,,,,0,20180202040000,-1,-1,-1,-1,30,-1,23,-1,-1,-1,-1,,9999,0,1,3,FEW 9   BKN 12   BKN 15,1,5,1,2,1021,RJTO 020400Z 03023KT 9999 -SHRA FEW009 BKN012 BKN015 05/02     Q1021 RMK 1ST009 5CU012 7CU015 A3015=,- RA SH
20180202_050000.001,0,RJTO,,,,0,20180202050000,-1,-1,-1,-1,30,-1,21,-1,-1,-1,-1,,9999,0,1,3,FEW 9   BKN 12   BKN 20,1,5,1,2,1021,RJTO 020500Z 03021KT 9999 -SHRA FEW009 BKN012 BKN020 05/02     Q1021 RMK 1ST009 5CU012 7CU020 A3017=,- RA SH
20180202_060000.002,0,RJTO,,,,0,20180202060000,-1,-1,-1,-1,30,-1,20,-1,-1,-1,-1,,9999,0,1,3,FEW 9   BKN 13   BKN 20,1,5,1,2,1021,RJTO 020600Z 03020KT 9999 -SHRA FEW009 BKN013 BKN020 05/02     Q1021 RMK 1ST009 5CU013 7CU020 A3018=,- RA SH
20180202_070000.002,0,RJTO,,,,0,20180202070000,-1,-1,-1,-1,40,-1,18,-1,-1,-1,-1,,9999,0,0,3,FEW 9   BKN 15   BKN 20,1,5,1,2,1021,RJTO 020700Z 04018KT 9999 FEW009 BKN015 BKN020 05/02 Q1021 RMK     1ST009 5CU015 7CU020 A3017=,
20180202_080000.002,0,RJTO,,,,0,20180202080000,-1,-1,-1,-1,-1,-1,-1,-1,-1,-1,-1,,-1,0,0,0,,0,-1,0,-1,-1,RJTO 020800Z NIL=,
20180202_230000.003,0,RJTO,,,,0,20180202230000,-1,-1,-1,-1,40,-1,11,-1,-1,-1,-1,,9999,0,0,3,FEW 9   SCT 14   BKN 17,1,6,1,3,1016,RJTO 022300Z 04011KT 9999 FEW009 SCT014 BKN017 06/03 Q1016 RMK     1ST009 3SC014 6SC017 A3003=,
20180203_000000.002,0,RJTO,,,,0,20180203000000,-1,-1,-1,-1,30,-1,10,-1,-1,-1,-1,,9999,0,0,3,FEW 10   SCT 14   BKN 17,1,7,1,4,1016,RJTO 030000Z 03010KT 9999 FEW010 SCT014 BKN017 07/04 Q1016 RMK     1CU010 4SC014 6SC017 A3002=,
20180203_010000.003,0,RJTO,,,,0,20180203010000,-1,-1,-1,-1,30,-1,9,-1,-1,350,60,,9999,0,0,3,FEW 10   BKN 15   BKN 90,1,7,1,4,1016,RJTO 030100Z 03009KT 350V060 9999 FEW010 BKN015 BKN090 07/04     Q1016 RMK 1CU010 5SC015 6AC090 A3001=,
20180203_020000.002,0,RJTO,,,,0,20180203020000,-1,-1,-1,-1,30,-1,11,-1,-1,-1,-1,,9999,0,0,3,FEW 12   BKN 15   BKN 90,1,8,1,4,1015,RJTO 030200Z 03011KT 9999 FEW012 BKN015 BKN090 08/04 Q1015 RMK     1CU012 5SC015 6AC090 A2997=,
20180203_030000.002,0,RJTO,,,,0,20180203030000,-1,-1,-1,-1,20,-1,9,-1,-1,-1,-1,,9999,0,0,3,FEW 12   BKN 15   BKN -9999,1,8,1,4,1013,RJTO 030300Z 02009KT 9999 FEW012 BKN015 BKN/// 08/04 Q1013 RMK     1CU012 5SC015 A2994=,
20180203_040000.002,0,RJTO,,,,0,20180203040000,-1,-1,-1,-1,50,-1,8,-1,-1,-1,-1,,9999,0,0,2,FEW 15   BKN -9999,1,8,1,4,1012,RJTO 030400Z 05008KT 9999 FEW015 BKN/// 08/04 Q1012 RMK 1SC015     A2989=,
20180203_050000.002,0,RJTO,,,,0,20180203050000,-1,-1,-1,-1,40,-1,6,-1,-1,-1,-1,,9999,0,0,2,FEW 20   BKN -9999,1,8,1,4,1011,RJTO 030500Z 04006KT 9999 FEW020 BKN/// 08/04 Q1011 RMK 1CU020     A2988=,
20180203_060000.002,0,RJTO,,,,0,20180203060000,-1,-1,-1,-1,50,-1,3,-1,-1,330,90,,9999,0,0,3,FEW 20   SCT 25   BKN -9999,1,9,1,4,1012,RJTO 030600Z 05003KT 330V090 9999 FEW020 SCT025 BKN/// 09/04     Q1012 RMK 1CU020 3CU025 A2988=,
20180203_070000.003,0,RJTO,,,,0,20180203070000,-1,-1,-1,-1,30,-1,5,-1,-1,360,70,,9999,0,0,3,FEW 20   SCT 25   BKN -9999,1,9,1,4,1011,RJTO 030700Z 03005KT 360V070 9999 FEW020 SCT025 BKN/// 09/04     Q1011 RMK 1CU020 3CU025 A2988=,
20180203_080000.002,0,RJTO,,,,0,20180203080000,-1,-1,-1,-1,-1,-1,-1,-1,-1,-1,-1,,-1,0,0,0,,0,-1,0,-1,-1,RJTO 030800Z NIL=,
20180203_230000.002,0,RJTO,,,,0,20180203230000,-1,-1,-1,-1,240,-1,11,-1,-1,210,270,,9999,0,0,2,FEW 25   SCT 30,1,7,1,2,1011,RJTO 032300Z 24011KT 210V270 9999 FEW025 SCT030 07/02 Q1011     RMK 1CU025 3CU030 A2985=,
20180204_000000.002,0,RJTO,,,,0,20180204000000,-1,-1,-1,-1,240,-1,11,-1,-1,200,300,,9999,0,0,1,FEW 30,1,8,-1,0,1011,RJTO 040000Z 24011KT 200V300 9999 FEW030 08/M00 Q1011 RMK     2CU030 A2986=,
20180204_010000.002,0,RJTO,,,,0,20180204010000,-1,-1,-1,-1,230,-1,12,-1,22,210,270,,9999,0,0,1,FEW 30,1,8,-1,2,1010,RJTO 040100Z 23012G22KT 210V270 9999 FEW030 08/M02 Q1010 RMK     1CU030 A2985=,
20180204_020000.002,0,RJTO,,,,0,20180204020000,-1,-1,-1,-1,230,-1,14,-1,24,-1,-1,,9999,0,0,1,FEW 30,1,8,-1,3,1009,RJTO 040200Z 23014G24KT 9999 FEW030 08/M03 Q1009 RMK 1CU030     A2982=,
20180204_030000.002,0,RJTO,,,,0,20180204030000,-1,-1,-1,-1,230,-1,16,-1,26,-1,-1,,9999,0,0,1,FEW 30,1,8,-1,3,1009,RJTO 040300Z 23016G26KT 9999 FEW030 08/M03 Q1009 RMK 1CU030     A2979=,
20180204_040000.002,0,RJTO,,,,0,20180204040000,-1,-1,-1,-1,240,-1,15,-1,28,-1,-1,,9999,0,0,1,FEW 30,1,9,-1,5,1007,RJTO 040400Z 24015G28KT 9999 FEW030 09/M05 Q1007 RMK 1CU030     A2976=,
20180204_050000.002,0,RJTO,,,,0,20180204050000,-1,-1,-1,-1,230,-1,19,-1,30,-1,-1,,9999,0,0,1,FEW 30,1,8,-1,4,1007,RJTO 040500Z 23019G30KT 9999 FEW030 08/M04 Q1007 RMK 1CU030     A2975=,
20180204_060000.002,0,RJTO,,,,0,20180204060000,-1,-1,-1,-1,240,-1,17,-1,30,210,280,,9999,0,0,1,FEW 30,1,8,-1,5,1007,RJTO 040600Z 24017G30KT 210V280 9999 FEW030 08/M05 Q1007 RMK     1CU030 A2974=,
20180204_070000.002,0,RJTO,,,,0,20180204070000,-1,-1,-1,-1,240,-1,18,-1,31,210,280,,9999,0,0,1,FEW 30,1,7,-1,6,1007,RJTO 040700Z 24018G31KT 210V280 9999 FEW030 07/M06 Q1007 RMK     1CU030 A2974=,
20180204_080000.002,0,RJTO,,,,0,20180204080000,-1,-1,-1,-1,-1,-1,-1,-1,-1,-1,-1,,-1,0,0,0,,0,-1,0,-1,-1,RJTO 040800Z NIL=,
20180204_230000.002,0,RJTO,,,,0,20180204230000,-1,-1,-1,-1,260,-1,10,-1,-1,170,310,,9999,0,0,1,FEW 30,1,6,-1,6,1012,RJTO 042300Z 26010KT 170V310 9999 FEW030 06/M06 Q1012 RMK     1CU030 A2989=,
20180205_000000.003,0,RJTO,,,,0,20180205000000,-1,-1,-1,-1,260,-1,10,-1,-1,210,320,,9999,0,0,2,FEW 35   SCT -9999,1,7,-1,6,1012,RJTO 050000Z 26010KT 210V320 9999 FEW035 SCT/// 07/M06 Q1012     RMK 1CU035 A2989=,
20180205_010000.002,0,RJTO,,,,0,20180205010000,-1,-1,-1,-1,260,-1,9,-1,-1,210,310,,9999,0,0,2,FEW 35   SCT -9999,1,7,-1,8,1012,RJTO 050100Z 26009KT 210V310 9999 FEW035 SCT/// 07/M08 Q1012     RMK 1CU035 A2990=,
20180205_020000.002,0,RJTO,,,,0,20180205020000,-1,-1,-1,-1,240,-1,9,-1,19,200,300,,9999,0,0,2,FEW 35   SCT -9999,1,8,-1,7,1012,RJTO 050200Z 24009G19KT 200V300 9999 FEW035 SCT/// 08/M07     Q1012 RMK 1CU035 A2988=,
