20180101_000000.003,0,RJTS,,,,0,20180101000000,-1,-1,-1,-1,-1,-1,-1,-1,-1,-1,-1,,-1,0,0,0,,0,-1,0,-1,-1,RJTS 010000Z NIL=,
20180101_010000.003,0,RJTS,,,,0,20180101010000,-1,-1,-1,-1,-1,-1,-1,-1,-1,-1,-1,,-1,0,0,0,,0,-1,0,-1,-1,RJTS 010100Z NIL=,
20180101_020000.003,0,RJTS,,,,0,20180101020000,-1,-1,-1,-1,-1,-1,-1,-1,-1,-1,-1,,-1,0,0,0,,0,-1,0,-1,-1,RJTS 010200Z NIL=,
20180101_030000.003,0,RJTS,,,,0,20180101030000,-1,-1,-1,-1,-1,-1,-1,-1,-1,-1,-1,,-1,0,0,0,,0,-1,0,-1,-1,RJTS 010300Z NIL=,
20180101_040000.003,0,RJTS,,,,0,20180101040000,-1,-1,-1,-1,-1,-1,-1,-1,-1,-1,-1,,-1,0,0,0,,0,-1,0,-1,-1,RJTS 010400Z NIL=,
20180101_050000.003,0,RJTS,,,,0,20180101050000,-1,-1,-1,-1,-1,-1,-1,-1,-1,-1,-1,,-1,0,0,0,,0,-1,0,-1,-1,RJTS 010500Z NIL=,
20180101_060000.003,0,RJTS,,,,0,20180101060000,-1,-1,-1,-1,-1,-1,-1,-1,-1,-1,-1,,-1,0,0,0,,0,-1,0,-1,-1,RJTS 010600Z NIL=,
20180101_070000.003,0,RJTS,,,,0,20180101070000,-1,-1,-1,-1,-1,-1,-1,-1,-1,-1,-1,,-1,0,0,0,,0,-1,0,-1,-1,RJTS 010700Z NIL=,
20180101_080000.003,0,RJTS,,,,0,20180101080000,-1,-1,-1,-1,-1,-1,-1,-1,-1,-1,-1,,-1,0,0,0,,0,-1,0,-1,-1,RJTS 010800Z NIL=,
20180101_090000.003,0,RJTS,,,,0,20180101090000,-1,-1,-1,-1,-1,-1,-1,-1,-1,-1,-1,,-1,0,0,0,,0,-1,0,-1,-1,RJTS 010900Z NIL=,
20180101_100000.003,0,RJTS,,,,0,20180101100000,-1,-1,-1,-1,-1,-1,-1,-1,-1,-1,-1,,-1,0,0,0,,0,-1,0,-1,-1,RJTS 011000Z NIL=,
20180101_110000.003,0,RJTS,,,,0,20180101110000,-1,-1,-1,-1,-1,-1,-1,-1,-1,-1,-1,,-1,0,0,0,,0,-1,0,-1,-1,RJTS 011100Z NIL=,
20180101_120000.003,0,RJTS,,,,0,20180101120000,-1,-1,-1,-1,-1,-1,-1,-1,-1,-1,-1,,-1,0,0,0,,0,-1,0,-1,-1,RJTS 011200Z NIL=,
20180101_130000.003,0,RJTS,,,,0,20180101130000,-1,-1,-1,-1,-1,-1,-1,-1,-1,-1,-1,,-1,0,0,0,,0,-1,0,-1,-1,RJTS 011300Z NIL=,
20180101_140000.003,0,RJTS,,,,0,20180101140000,-1,-1,-1,-1,-1,-1,-1,-1,-1,-1,-1,,-1,0,0,0,,0,-1,0,-1,-1,RJTS 011400Z NIL=,
20180101_150000.003,0,RJTS,,,,0,20180101150000,-1,-1,-1,-1,-1,-1,-1,-1,-1,-1,-1,,-1,0,0,0,,0,-1,0,-1,-1,RJTS 011500Z NIL=,
20180101_160000.003,0,RJTS,,,,0,20180101160000,-1,-1,-1,-1,-1,-1,-1,-1,-1,-1,-1,,-1,0,0,0,,0,-1,0,-1,-1,RJTS 011600Z NIL=,
20180101_170000.003,0,RJTS,,,,0,20180101170000,-1,-1,-1,-1,-1,-1,-1,-1,-1,-1,-1,,-1,0,0,0,,0,-1,0,-1,-1,RJTS 011700Z NIL=,
20180101_180000.004,0,RJTS,,,,0,20180101180000,-1,-1,-1,-1,-1,-1,-1,-1,-1,-1,-1,,-1,0,0,0,,0,-1,0,-1,-1,RJTS 011800Z NIL=,
20180101_190000.004,0,RJTS,,,,0,20180101190000,-1,-1,-1,-1,-1,-1,-1,-1,-1,-1,-1,,-1,0,0,0,,0,-1,0,-1,-1,RJTS 011900Z NIL=,
20180101_200000.004,0,RJTS,,,,0,20180101200000,-1,-1,-1,-1,-1,-1,-1,-1,-1,-1,-1,,-1,0,0,0,,0,-1,0,-1,-1,RJTS 012000Z NIL=,
20180101_210000.003,0,RJTS,,,,0,20180101210000,-1,-1,-1,-1,-1,-1,-1,-1,-1,-1,-1,,-1,0,0,0,,0,-1,0,-1,-1,RJTS 012100Z NIL=,
20180101_220000.003,0,RJTS,,,,0,20180101220000,-1,-1,-1,-1,-1,-1,-1,-1,-1,-1,-1,,-1,0,0,0,,0,-1,0,-1,-1,RJTS 012200Z NIL=,
20180101_230000.003,0,RJTS,,,,0,20180101230000,-1,-1,-1,-1,-1,-1,-1,-1,-1,-1,-1,,-1,0,0,0,,0,-1,0,-1,-1,RJTS 012300Z NIL=,
20180102_000000.004,0,RJTS,,,,0,20180102000000,-1,-1,-1,-1,-1,-1,-1,-1,-1,-1,-1,,-1,0,0,0,,0,-1,0,-1,-1,RJTS 020000Z NIL=,
20180102_010000.004,0,RJTS,,,,0,20180102010000,-1,-1,-1,-1,-1,-1,-1,-1,-1,-1,-1,,-1,0,0,0,,0,-1,0,-1,-1,RJTS 020100Z NIL=,
20180102_020000.003,0,RJTS,,,,0,20180102020000,-1,-1,-1,-1,-1,-1,-1,-1,-1,-1,-1,,-1,0,0,0,,0,-1,0,-1,-1,RJTS 020200Z NIL=,
20180102_030000.003,0,RJTS,,,,0,20180102030000,-1,-1,-1,-1,-1,-1,-1,-1,-1,-1,-1,,-1,0,0,0,,0,-1,0,-1,-1,RJTS 020300Z NIL=,
20180102_040000.003,0,RJTS,,,,0,20180102040000,-1,-1,-1,-1,-1,-1,-1,-1,-1,-1,-1,,-1,0,0,0,,0,-1,0,-1,-1,RJTS 020400Z NIL=,
20180102_050000.003,0,RJTS,,,,0,20180102050000,-1,-1,-1,-1,-1,-1,-1,-1,-1,-1,-1,,-1,0,0,0,,0,-1,0,-1,-1,RJTS 020500Z NIL=,
20180102_060000.003,0,RJTS,,,,0,20180102060000,-1,-1,-1,-1,-1,-1,-1,-1,-1,-1,-1,,-1,0,0,0,,0,-1,0,-1,-1,RJTS 020600Z NIL=,
20180102_070000.003,0,RJTS,,,,0,20180102070000,-1,-1,-1,-1,-1,-1,-1,-1,-1,-1,-1,,-1,0,0,0,,0,-1,0,-1,-1,RJTS 020700Z NIL=,
20180102_080000.003,0,RJTS,,,,0,20180102080000,-1,-1,-1,-1,-1,-1,-1,-1,-1,-1,-1,,-1,0,0,0,,0,-1,0,-1,-1,RJTS 020800Z NIL=,
20180102_090000.003,0,RJTS,,,,0,20180102090000,-1,-1,-1,-1,-1,-1,-1,-1,-1,-1,-1,,-1,0,0,0,,0,-1,0,-1,-1,RJTS 020900Z NIL=,
20180102_100000.003,0,RJTS,,,,0,20180102100000,-1,-1,-1,-1,-1,-1,-1,-1,-1,-1,-1,,-1,0,0,0,,0,-1,0,-1,-1,RJTS 021000Z NIL=,
20180102_110000.003,0,RJTS,,,,0,20180102110000,-1,-1,-1,-1,-1,-1,-1,-1,-1,-1,-1,,-1,0,0,0,,0,-1,0,-1,-1,RJTS 021100Z NIL=,
20180102_120000.003,0,RJTS,,,,0,20180102120000,-1,-1,-1,-1,-1,-1,-1,-1,-1,-1,-1,,-1,0,0,0,,0,-1,0,-1,-1,RJTS 021200Z NIL=,
20180102_130000.004,0,RJTS,,,,0,20180102130000,-1,-1,-1,-1,-1,-1,-1,-1,-1,-1,-1,,-1,0,0,0,,0,-1,0,-1,-1,RJTS 021300Z NIL=,
20180102_140000.004,0,RJTS,,,,0,20180102140000,-1,-1,-1,-1,-1,-1,-1,-1,-1,-1,-1,,-1,0,0,0,,0,-1,0,-1,-1,RJTS 021400Z NIL=,
20180102_150000.003,0,RJTS,,,,0,20180102150000,-1,-1,-1,-1,-1,-1,-1,-1,-1,-1,-1,,-1,0,0,0,,0,-1,0,-1,-1,RJTS 021500Z NIL=,
20180102_160000.003,0,RJTS,,,,0,20180102160000,-1,-1,-1,-1,-1,-1,-1,-1,-1,-1,-1,,-1,0,0,0,,0,-1,0,-1,-1,RJTS 021600Z NIL=,
20180102_170000.003,0,RJTS,,,,0,20180102170000,-1,-1,-1,-1,-1,-1,-1,-1,-1,-1,-1,,-1,0,0,0,,0,-1,0,-1,-1,RJTS 021700Z NIL=,
20180102_180000.004,0,RJTS,,,,0,20180102180000,-1,-1,-1,-1,-1,-1,-1,-1,-1,-1,-1,,-1,0,0,0,,0,-1,0,-1,-1,RJTS 021800Z NIL=,
20180102_190000.003,0,RJTS,,,,0,20180102190000,-1,-1,-1,-1,-1,-1,-1,-1,-1,-1,-1,,-1,0,0,0,,0,-1,0,-1,-1,RJTS 021900Z NIL=,
20180102_200000.004,0,RJTS,,,,0,20180102200000,-1,-1,-1,-1,-1,-1,-1,-1,-1,-1,-1,,-1,0,0,0,,0,-1,0,-1,-1,RJTS 022000Z NIL=,
20180102_210000.003,0,RJTS,,,,0,20180102210000,-1,-1,-1,-1,-1,-1,-1,-1,-1,-1,-1,,-1,0,0,0,,0,-1,0,-1,-1,RJTS 022100Z NIL=,
20180102_220000.003,0,RJTS,,,,0,20180102220000,-1,-1,-1,-1,-1,-1,-1,-1,-1,-1,-1,,-1,0,0,0,,0,-1,0,-1,-1,RJTS 022200Z NIL=,
20180102_230000.003,0,RJTS,,,,0,20180102230000,-1,-1,-1,-1,-1,-1,-1,-1,-1,-1,-1,,-1,0,0,0,,0,-1,0,-1,-1,RJTS 022300Z NIL=,
20180103_000000.003,0,RJTS,,,,0,20180103000000,-1,-1,-1,-1,-1,-1,-1,-1,-1,-1,-1,,-1,0,0,0,,0,-1,0,-1,-1,RJTS 030000Z NIL=,
20180103_010000.003,0,RJTS,,,,0,20180103010000,-1,-1,-1,-1,-1,-1,-1,-1,-1,-1,-1,,-1,0,0,0,,0,-1,0,-1,-1,RJTS 030100Z NIL=,
20180103_020000.003,0,RJTS,,,,0,20180103020000,-1,-1,-1,-1,-1,-1,-1,-1,-1,-1,-1,,-1,0,0,0,,0,-1,0,-1,-1,RJTS 030200Z NIL=,
20180103_030000.004,0,RJTS,,,,0,20180103030000,-1,-1,-1,-1,-1,-1,-1,-1,-1,-1,-1,,-1,0,0,0,,0,-1,0,-1,-1,RJTS 030300Z NIL=,
20180103_040000.003,0,RJTS,,,,0,20180103040000,-1,-1,-1,-1,-1,-1,-1,-1,-1,-1,-1,,-1,0,0,0,,0,-1,0,-1,-1,RJTS 030400Z NIL=,
20180103_050000.003,0,RJTS,,,,0,20180103050000,-1,-1,-1,-1,-1,-1,-1,-1,-1,-1,-1,,-1,0,0,0,,0,-1,0,-1,-1,RJTS 030500Z NIL=,
20180103_060000.003,0,RJTS,,,,0,20180103060000,-1,-1,-1,-1,-1,-1,-1,-1,-1,-1,-1,,-1,0,0,0,,0,-1,0,-1,-1,RJTS 030600Z NIL=,
20180103_070000.003,0,RJTS,,,,0,20180103070000,-1,-1,-1,-1,-1,-1,-1,-1,-1,-1,-1,,-1,0,0,0,,0,-1,0,-1,-1,RJTS 030700Z NIL=,
20180103_080000.003,0,RJTS,,,,0,20180103080000,-1,-1,-1,-1,-1,-1,-1,-1,-1,-1,-1,,-1,0,0,0,,0,-1,0,-1,-1,RJTS 030800Z NIL=,
20180103_090000.003,0,RJTS,,,,0,20180103090000,-1,-1,-1,-1,-1,-1,-1,-1,-1,-1,-1,,-1,0,0,0,,0,-1,0,-1,-1,RJTS 030900Z NIL=,
20180103_100000.003,0,RJTS,,,,0,20180103100000,-1,-1,-1,-1,-1,-1,-1,-1,-1,-1,-1,,-1,0,0,0,,0,-1,0,-1,-1,RJTS 031000Z NIL=,
20180103_110000.003,0,RJTS,,,,0,20180103110000,-1,-1,-1,-1,-1,-1,-1,-1,-1,-1,-1,,-1,0,0,0,,0,-1,0,-1,-1,RJTS 031100Z NIL=,
20180103_120000.003,0,RJTS,,,,0,20180103120000,-1,-1,-1,-1,-1,-1,-1,-1,-1,-1,-1,,-1,0,0,0,,0,-1,0,-1,-1,RJTS 031200Z NIL=,
20180103_130000.004,0,RJTS,,,,0,20180103130000,-1,-1,-1,-1,-1,-1,-1,-1,-1,-1,-1,,-1,0,0,0,,0,-1,0,-1,-1,RJTS 031300Z NIL=,
20180103_140000.003,0,RJTS,,,,0,20180103140000,-1,-1,-1,-1,-1,-1,-1,-1,-1,-1,-1,,-1,0,0,0,,0,-1,0,-1,-1,RJTS 031400Z NIL=,
20180103_150000.003,0,RJTS,,,,0,20180103150000,-1,-1,-1,-1,-1,-1,-1,-1,-1,-1,-1,,-1,0,0,0,,0,-1,0,-1,-1,RJTS 031500Z NIL=,
20180103_160000.003,0,RJTS,,,,0,20180103160000,-1,-1,-1,-1,-1,-1,-1,-1,-1,-1,-1,,-1,0,0,0,,0,-1,0,-1,-1,RJTS 031600Z NIL=,
20180103_170000.003,0,RJTS,,,,0,20180103170000,-1,-1,-1,-1,-1,-1,-1,-1,-1,-1,-1,,-1,0,0,0,,0,-1,0,-1,-1,RJTS 031700Z NIL=,
20180103_180000.003,0,RJTS,,,,0,20180103180000,-1,-1,-1,-1,-1,-1,-1,-1,-1,-1,-1,,-1,0,0,0,,0,-1,0,-1,-1,RJTS 031800Z NIL=,
20180103_190000.003,0,RJTS,,,,0,20180103190000,-1,-1,-1,-1,-1,-1,-1,-1,-1,-1,-1,,-1,0,0,0,,0,-1,0,-1,-1,RJTS 031900Z NIL=,
20180103_200000.003,0,RJTS,,,,0,20180103200000,-1,-1,-1,-1,330,-1,3,-1,-1,-1,-1,,9999,0,0,1,FEW 100,-1,5,-1,9,1015,RJTS 032000Z 33003KT 9999 FEW100 M05/M09 Q1015 RMK 1AC100     A2999=,
20180103_210000.004,0,RJTS,,,,0,20180103210000,-1,-1,-1,-1,320,-1,4,-1,-1,-1,-1,,9999,0,0,1,FEW 40,-1,4,-1,9,1016,RJTS 032100Z 32004KT 9999 FEW040 M04/M09 Q1016 RMK 1CU040     A3001=,
20180103_220000.003,0,RJTS,,,,0,20180103220000,-1,-1,-1,-1,300,-1,3,-1,-1,-1,-1,,9999,0,0,1,FEW 30,-1,4,-1,9,1016,RJTS 032200Z 30003KT 9999 FEW030 M04/M09 Q1016 RMK 1CU030     A3002=,
20180103_230000.003,0,RJTS,,,,0,20180103230000,-1,-1,-1,-1,300,-1,2,-1,-1,-1,-1,,9999,0,0,1,FEW 30,-1,1,-1,7,1016,RJTS 032300Z 30002KT 9999 FEW030 M01/M07 Q1016 RMK 1CU030     A3003=,
20180104_000000.003,0,RJTS,,,,0,20180104000000,-1,-1,-1,-1,130,-1,3,-1,-1,-1,-1,,9999,0,0,1,FEW 30,1,2,-1,8,1017,RJTS 040000Z 13003KT 9999 FEW030 02/M08 Q1017 RMK 1CU030     A3003=,
20180104_010000.003,0,RJTS,,,,0,20180104010000,-1,-1,-1,-1,110,-1,4,-1,-1,-1,-1,,9999,0,0,2,FEW 20   SCT 50,1,2,-1,7,1016,RJTS 040100Z 11004KT 9999 FEW020 SCT050 02/M07 Q1016 RMK     1CU020 3CU050 A3003=,
20180104_020000.005,0,RJTS,,,,0,20180104020000,-1,-1,-1,-1,50,-1,8,-1,-1,-1,-1,,9999,0,0,2,FEW 20   SCT 40,1,2,-1,6,1016,RJTS 040200Z 05008KT 9999 FEW020 SCT040 02/M06 Q1016 RMK     1CU020 3CU040 A3001=,
20180104_030000.004,0,RJTS,,,,0,20180104030000,-1,-1,-1,-1,50,-1,9,-1,-1,-1,-1,,9999,0,0,2,FEW 20   SCT 50,1,3,-1,6,1015,RJTS 040300Z 05009KT 9999 FEW020 SCT050 03/M06 Q1015 RMK     1CU020 4CU050 A2997=,
20180104_040000.003,0,RJTS,,,,0,20180104040000,-1,-1,-1,-1,310,-1,6,-1,-1,-1,-1,,9999,0,0,2,FEW 20   SCT 50,1,5,-1,10,1014,RJTS 040400Z 31006KT 9999 FEW020 SCT050 05/M10 Q1014 RMK     1CU020 4CU050 A2996=,
20180104_050000.003,0,RJTS,,,,0,20180104050000,-1,-1,-1,-1,290,-1,8,-1,-1,-1,-1,,9999,0,0,2,FEW 20   SCT 50,1,5,-1,12,1014,RJTS 040500Z 29008KT 9999 FEW020 SCT050 05/M12 Q1014 RMK     1CU020 3CU050 A2997=,
20180104_060000.004,0,RJTS,,,,0,20180104060000,-1,-1,-1,-1,300,-1,6,-1,-1,-1,-1,,9999,0,0,2,FEW 20   SCT 50,1,4,-1,12,1015,RJTS 040600Z 30006KT 9999 FEW020 SCT050 04/M12 Q1015 RMK     1CU020 3CU050 A2997=,
20180104_070000.003,0,RJTS,,,,0,20180104070000,-1,-1,-1,-1,999,-1,2,-1,-1,-1,-1,,9999,0,0,1,FEW 20,1,3,-1,7,1015,RJTS 040700Z VRB02KT 9999 FEW020 03/M07 Q1015 RMK 1CU020     A2998=,
20180104_080000.003,0,RJTS,,,,0,20180104080000,-1,-1,-1,-1,310,-1,3,-1,-1,-1,-1,,9999,0,0,2,FEW 40   SCT 80,1,3,-1,11,1016,RJTS 040800Z 31003KT 9999 FEW040 SCT080 03/M11 Q1016 RMK     1CU040 3AC080 A3000=,
20180104_090000.003,0,RJTS,,,,0,20180104090000,-1,-1,-1,-1,-1,-1,-1,-1,-1,-1,-1,,-1,0,0,0,,0,-1,0,-1,-1,RJTS 040900Z NIL=,
20180104_100000.003,0,RJTS,,,,0,20180104100000,-1,-1,-1,-1,-1,-1,-1,-1,-1,-1,-1,,-1,0,0,0,,0,-1,0,-1,-1,RJTS 041000Z NIL=,
20180104_110000.003,0,RJTS,,,,0,20180104110000,-1,-1,-1,-1,-1,-1,-1,-1,-1,-1,-1,,-1,0,0,0,,0,-1,0,-1,-1,RJTS 041100Z NIL=,
20180104_120000.004,0,RJTS,,,,0,20180104120000,-1,-1,-1,-1,-1,-1,-1,-1,-1,-1,-1,,-1,0,0,0,,0,-1,0,-1,-1,RJTS 041200Z NIL=,
20180104_130000.003,0,RJTS,,,,0,20180104130000,-1,-1,-1,-1,-1,-1,-1,-1,-1,-1,-1,,-1,0,0,0,,0,-1,0,-1,-1,RJTS 041300Z NIL=,
20180104_140000.003,0,RJTS,,,,0,20180104140000,-1,-1,-1,-1,-1,-1,-1,-1,-1,-1,-1,,-1,0,0,0,,0,-1,0,-1,-1,RJTS 041400Z NIL=,
20180104_150000.004,0,RJTS,,,,0,20180104150000,-1,-1,-1,-1,-1,-1,-1,-1,-1,-1,-1,,-1,0,0,0,,0,-1,0,-1,-1,RJTS 041500Z NIL=,
20180104_160000.004,0,RJTS,,,,0,20180104160000,-1,-1,-1,-1,-1,-1,-1,-1,-1,-1,-1,,-1,0,0,0,,0,-1,0,-1,-1,RJTS 041600Z NIL=,
20180104_170000.004,0,RJTS,,,,0,20180104170000,-1,-1,-1,-1,-1,-1,-1,-1,-1,-1,-1,,-1,0,0,0,,0,-1,0,-1,-1,RJTS 041700Z NIL=,
20180104_180000.003,0,RJTS,,,,0,20180104180000,-1,-1,-1,-1,-1,-1,-1,-1,-1,-1,-1,,-1,0,0,0,,0,-1,0,-1,-1,RJTS 041800Z NIL=,
20180104_190000.004,0,RJTS,,,,0,20180104190000,-1,-1,-1,-1,-1,-1,-1,-1,-1,-1,-1,,-1,0,0,0,,0,-1,0,-1,-1,RJTS 041900Z NIL=,
20180104_200000.003,0,RJTS,,,,0,20180104200000,-1,-1,-1,-1,-1,-1,-1,-1,-1,-1,-1,,-1,0,0,0,,0,-1,0,-1,-1,RJTS 042000Z NIL=,
20180104_210000.003,0,RJTS,,,,0,20180104210000,-1,-1,-1,-1,-1,-1,-1,-1,-1,-1,-1,,-1,0,0,0,,0,-1,0,-1,-1,RJTS 042100Z NIL=,
20180104_220000.003,0,RJTS,,,,0,20180104220000,-1,-1,-1,-1,250,-1,2,-1,-1,-1,-1,,9999,0,0,3,FEW 100   SCT 160   BKN 180,-1,3,-1,8,1015,RJTS 042200Z 25002KT 9999 FEW100 SCT160 BKN180 M03/M08 Q1015     RMK 1AC100 4AC160 5CI180 A2997=,
20180104_230000.003,0,RJTS,,,,0,20180104230000,-1,-1,-1,-1,330,-1,2,-1,-1,-1,-1,,9999,0,0,2,FEW 100   BKN 200,-1,2,-1,7,1015,RJTS 042300Z 33002KT 9999 FEW100 BKN200 M02/M07 Q1015 RMK     1AC100 7CI200 A2998=,
20180105_000000.004,0,RJTS,,,,0,20180105000000,-1,-1,-1,-1,40,-1,2,-1,-1,-1,-1,,9999,0,0,3,FEW 40   BKN 200   BKN 230,-1,0,-1,7,1015,RJTS 050000Z 04002KT 9999 FEW040 BKN200 BKN230 M00/M07 Q1015     RMK 1CU040 6CI200 7CI230 A2998=,
20180105_010000.004,0,RJTS,,,,0,20180105010000,-1,-1,-1,-1,160,-1,3,-1,-1,-1,-1,,9999,0,0,3,FEW 40   SCT 150   BKN 200,1,1,-1,8,1015,RJTS 050100Z 16003KT 9999 FEW040 SCT150 BKN200 01/M08 Q1015     RMK 1CU040 3AC150 6CI200 A2998=,
20180105_020000.003,0,RJTS,,,,0,20180105020000,-1,-1,-1,-1,100,-1,2,-1,-1,-1,-1,,9999,0,0,3,FEW 40   SCT 150   BKN 200,1,2,-1,8,1014,RJTS 050200Z 10002KT 9999 FEW040 SCT150 BKN200 02/M08 Q1014     RMK 1CU040 3AC150 6CI200 A2994=,
20180105_030000.003,0,RJTS,,,,0,20180105030000,-1,-1,-1,-1,90,-1,4,-1,-1,-1,-1,,9999,0,0,2,FEW 40   SCT 120,1,4,-1,9,1013,RJTS 050300Z 09004KT 9999 FEW040 SCT120 04/M09 Q1013 RMK     1CU040 3AC120 A2991=,
20180105_040000.003,0,RJTS,,,,0,20180105040000,-1,-1,-1,-1,130,-1,5,-1,-1,-1,-1,,9999,0,0,2,FEW 40   SCT 120,1,4,-1,10,1012,RJTS 050400Z 13005KT 9999 FEW040 SCT120 04/M10 Q1012 RMK     1CU040 4AC120 A2988=,
20180105_050000.003,0,RJTS,,,,0,20180105050000,-1,-1,-1,-1,120,-1,4,-1,-1,-1,-1,,9999,0,0,2,FEW 40   SCT 120,1,4,-1,10,1011,RJTS 050500Z 12004KT 9999 FEW040 SCT120 04/M10 Q1011 RMK     1CU040 4AC120 A2987=,
20180105_060000.003,0,RJTS,,,,0,20180105060000,-1,-1,-1,-1,120,-1,4,-1,-1,-1,-1,,9999,0,0,3,FEW 40   SCT 120   BKN 200,1,3,-1,9,1011,RJTS 050600Z 12004KT 9999 FEW040 SCT120 BKN200 03/M09 Q1011     RMK 1CU040 4AC120 5CI200 A2985=,
20180105_070000.003,0,RJTS,,,,0,20180105070000,-1,-1,-1,-1,100,-1,2,-1,-1,-1,-1,,9999,0,0,3,FEW 40   SCT 120   BKN 200,1,3,-1,10,1011,RJTS 050700Z 10002KT 9999 FEW040 SCT120 BKN200 03/M10 Q1011     RMK 1CU040 3AC120 6CI200 A2986=,
20180105_080000.003,0,RJTS,,,,0,20180105080000,-1,-1,-1,-1,330,-1,2,-1,-1,-1,-1,,9999,0,0,3,FEW 40   BKN 140   BKN 200,1,0,-1,8,1011,RJTS 050800Z 33002KT 9999 FEW040 BKN140 BKN200 00/M08 Q1011     RMK 1CU040 5AC140 6CI200 A2987=,
20180105_090000.003,0,RJTS,,,,0,20180105090000,-1,-1,-1,-1,-1,-1,-1,-1,-1,-1,-1,,-1,0,0,0,,0,-1,0,-1,-1,RJTS 050900Z NIL=,
20180105_100000.003,0,RJTS,,,,0,20180105100000,-1,-1,-1,-1,-1,-1,-1,-1,-1,-1,-1,,-1,0,0,0,,0,-1,0,-1,-1,RJTS 051000Z NIL=,
20180105_110000.003,0,RJTS,,,,0,20180105110000,-1,-1,-1,-1,-1,-1,-1,-1,-1,-1,-1,,-1,0,0,0,,0,-1,0,-1,-1,RJTS 051100Z NIL=,
20180105_120000.003,0,RJTS,,,,0,20180105120000,-1,-1,-1,-1,-1,-1,-1,-1,-1,-1,-1,,-1,0,0,0,,0,-1,0,-1,-1,RJTS 051200Z NIL=,
20180105_130000.003,0,RJTS,,,,0,20180105130000,-1,-1,-1,-1,-1,-1,-1,-1,-1,-1,-1,,-1,0,0,0,,0,-1,0,-1,-1,RJTS 051300Z NIL=,
20180105_140000.003,0,RJTS,,,,0,20180105140000,-1,-1,-1,-1,-1,-1,-1,-1,-1,-1,-1,,-1,0,0,0,,0,-1,0,-1,-1,RJTS 051400Z NIL=,
20180105_150000.003,0,RJTS,,,,0,20180105150000,-1,-1,-1,-1,-1,-1,-1,-1,-1,-1,-1,,-1,0,0,0,,0,-1,0,-1,-1,RJTS 051500Z NIL=,
20180105_160000.004,0,RJTS,,,,0,20180105160000,-1,-1,-1,-1,-1,-1,-1,-1,-1,-1,-1,,-1,0,0,0,,0,-1,0,-1,-1,RJTS 051600Z NIL=,
20180105_170000.003,0,RJTS,,,,0,20180105170000,-1,-1,-1,-1,-1,-1,-1,-1,-1,-1,-1,,-1,0,0,0,,0,-1,0,-1,-1,RJTS 051700Z NIL=,
20180105_180000.004,0,RJTS,,,,0,20180105180000,-1,-1,-1,-1,-1,-1,-1,-1,-1,-1,-1,,-1,0,0,0,,0,-1,0,-1,-1,RJTS 051800Z NIL=,
20180105_190000.003,0,RJTS,,,,0,20180105190000,-1,-1,-1,-1,-1,-1,-1,-1,-1,-1,-1,,-1,0,0,0,,0,-1,0,-1,-1,RJTS 051900Z NIL=,
20180105_200000.003,0,RJTS,,,,0,20180105200000,-1,-1,-1,-1,-1,-1,-1,-1,-1,-1,-1,,-1,0,0,0,,0,-1,0,-1,-1,RJTS 052000Z NIL=,
20180105_210000.004,0,RJTS,,,,0,20180105210000,-1,-1,-1,-1,-1,-1,-1,-1,-1,-1,-1,,-1,0,0,0,,0,-1,0,-1,-1,RJTS 052100Z NIL=,
20180105_220000.003,0,RJTS,,,,0,20180105220000,-1,-1,-1,-1,-1,-1,-1,-1,-1,-1,-1,,-1,0,0,0,,0,-1,0,-1,-1,RJTS 052200Z NIL=,
20180105_230000.003,0,RJTS,,,,0,20180105230000,-1,-1,-1,-1,-1,-1,-1,-1,-1,-1,-1,,-1,0,0,0,,0,-1,0,-1,-1,RJTS 052300Z NIL=,
20180106_000000.003,0,RJTS,,,,0,20180106000000,-1,-1,-1,-1,-1,-1,-1,-1,-1,-1,-1,,-1,0,0,0,,0,-1,0,-1,-1,RJTS 060000Z NIL=,
20180106_010000.003,0,RJTS,,,,0,20180106010000,-1,-1,-1,-1,-1,-1,-1,-1,-1,-1,-1,,-1,0,0,0,,0,-1,0,-1,-1,RJTS 060100Z NIL=,
20180106_020000.003,0,RJTS,,,,0,20180106020000,-1,-1,-1,-1,-1,-1,-1,-1,-1,-1,-1,,-1,0,0,0,,0,-1,0,-1,-1,RJTS 060200Z NIL=,
20180106_030000.003,0,RJTS,,,,0,20180106030000,-1,-1,-1,-1,-1,-1,-1,-1,-1,-1,-1,,-1,0,0,0,,0,-1,0,-1,-1,RJTS 060300Z NIL=,
20180106_040000.003,0,RJTS,,,,0,20180106040000,-1,-1,-1,-1,-1,-1,-1,-1,-1,-1,-1,,-1,0,0,0,,0,-1,0,-1,-1,RJTS 060400Z NIL=,
20180106_050000.003,0,RJTS,,,,0,20180106050000,-1,-1,-1,-1,-1,-1,-1,-1,-1,-1,-1,,-1,0,0,0,,0,-1,0,-1,-1,RJTS 060500Z NIL=,
20180106_060000.003,0,RJTS,,,,0,20180106060000,-1,-1,-1,-1,-1,-1,-1,-1,-1,-1,-1,,-1,0,0,0,,0,-1,0,-1,-1,RJTS 060600Z NIL=,
20180106_070000.003,0,RJTS,,,,0,20180106070000,-1,-1,-1,-1,-1,-1,-1,-1,-1,-1,-1,,-1,0,0,0,,0,-1,0,-1,-1,RJTS 060700Z NIL=,
20180106_080000.003,0,RJTS,,,,0,20180106080000,-1,-1,-1,-1,-1,-1,-1,-1,-1,-1,-1,,-1,0,0,0,,0,-1,0,-1,-1,RJTS 060800Z NIL=,
20180106_090000.003,0,RJTS,,,,0,20180106090000,-1,-1,-1,-1,-1,-1,-1,-1,-1,-1,-1,,-1,0,0,0,,0,-1,0,-1,-1,RJTS 060900Z NIL=,
20180106_100000.003,0,RJTS,,,,0,20180106100000,-1,-1,-1,-1,-1,-1,-1,-1,-1,-1,-1,,-1,0,0,0,,0,-1,0,-1,-1,RJTS 061000Z NIL=,
20180106_110000.003,0,RJTS,,,,0,20180106110000,-1,-1,-1,-1,-1,-1,-1,-1,-1,-1,-1,,-1,0,0,0,,0,-1,0,-1,-1,RJTS 061100Z NIL=,
20180106_120000.003,0,RJTS,,,,0,20180106120000,-1,-1,-1,-1,-1,-1,-1,-1,-1,-1,-1,,-1,0,0,0,,0,-1,0,-1,-1,RJTS 061200Z NIL=,
20180106_130000.005,0,RJTS,,,,0,20180106130000,-1,-1,-1,-1,-1,-1,-1,-1,-1,-1,-1,,-1,0,0,0,,0,-1,0,-1,-1,RJTS 061300Z NIL=,
20180106_140000.004,0,RJTS,,,,0,20180106140000,-1,-1,-1,-1,-1,-1,-1,-1,-1,-1,-1,,-1,0,0,0,,0,-1,0,-1,-1,RJTS 061400Z NIL=,
20180106_150000.003,0,RJTS,,,,0,20180106150000,-1,-1,-1,-1,-1,-1,-1,-1,-1,-1,-1,,-1,0,0,0,,0,-1,0,-1,-1,RJTS 061500Z NIL=,
20180106_160000.003,0,RJTS,,,,0,20180106160000,-1,-1,-1,-1,-1,-1,-1,-1,-1,-1,-1,,-1,0,0,0,,0,-1,0,-1,-1,RJTS 061600Z NIL=,
20180106_170000.003,0,RJTS,,,,0,20180106170000,-1,-1,-1,-1,-1,-1,-1,-1,-1,-1,-1,,-1,0,0,0,,0,-1,0,-1,-1,RJTS 061700Z NIL=,
20180106_180000.004,0,RJTS,,,,0,20180106180000,-1,-1,-1,-1,-1,-1,-1,-1,-1,-1,-1,,-1,0,0,0,,0,-1,0,-1,-1,RJTS 061800Z NIL=,
20180106_190000.003,0,RJTS,,,,0,20180106190000,-1,-1,-1,-1,-1,-1,-1,-1,-1,-1,-1,,-1,0,0,0,,0,-1,0,-1,-1,RJTS 061900Z NIL=,
20180106_200000.003,0,RJTS,,,,0,20180106200000,-1,-1,-1,-1,-1,-1,-1,-1,-1,-1,-1,,-1,0,0,0,,0,-1,0,-1,-1,RJTS 062000Z NIL=,
20180106_210000.003,0,RJTS,,,,0,20180106210000,-1,-1,-1,-1,-1,-1,-1,-1,-1,-1,-1,,-1,0,0,0,,0,-1,0,-1,-1,RJTS 062100Z NIL=,
20180106_220000.003,0,RJTS,,,,0,20180106220000,-1,-1,-1,-1,-1,-1,-1,-1,-1,-1,-1,,-1,0,0,0,,0,-1,0,-1,-1,RJTS 062200Z NIL=,
20180106_230000.003,0,RJTS,,,,0,20180106230000,-1,-1,-1,-1,-1,-1,-1,-1,-1,-1,-1,,-1,0,0,0,,0,-1,0,-1,-1,RJTS 062300Z NIL=,
20180107_000000.003,0,RJTS,,,,0,20180107000000,-1,-1,-1,-1,-1,-1,-1,-1,-1,-1,-1,,-1,0,0,0,,0,-1,0,-1,-1,RJTS 070000Z NIL=,
20180107_010000.004,0,RJTS,,,,0,20180107010000,-1,-1,-1,-1,-1,-1,-1,-1,-1,-1,-1,,-1,0,0,0,,0,-1,0,-1,-1,RJTS 070100Z NIL=,
20180107_020000.003,0,RJTS,,,,0,20180107020000,-1,-1,-1,-1,-1,-1,-1,-1,-1,-1,-1,,-1,0,0,0,,0,-1,0,-1,-1,RJTS 070200Z NIL=,
20180107_030000.003,0,RJTS,,,,0,20180107030000,-1,-1,-1,-1,-1,-1,-1,-1,-1,-1,-1,,-1,0,0,0,,0,-1,0,-1,-1,RJTS 070300Z NIL=,
20180107_040000.003,0,RJTS,,,,0,20180107040000,-1,-1,-1,-1,-1,-1,-1,-1,-1,-1,-1,,-1,0,0,0,,0,-1,0,-1,-1,RJTS 070400Z NIL=,
20180107_050000.003,0,RJTS,,,,0,20180107050000,-1,-1,-1,-1,-1,-1,-1,-1,-1,-1,-1,,-1,0,0,0,,0,-1,0,-1,-1,RJTS 070500Z NIL=,
20180107_060000.003,0,RJTS,,,,0,20180107060000,-1,-1,-1,-1,-1,-1,-1,-1,-1,-1,-1,,-1,0,0,0,,0,-1,0,-1,-1,RJTS 070600Z NIL=,
20180107_070000.003,0,RJTS,,,,0,20180107070000,-1,-1,-1,-1,-1,-1,-1,-1,-1,-1,-1,,-1,0,0,0,,0,-1,0,-1,-1,RJTS 070700Z NIL=,
20180107_080000.003,0,RJTS,,,,0,20180107080000,-1,-1,-1,-1,-1,-1,-1,-1,-1,-1,-1,,-1,0,0,0,,0,-1,0,-1,-1,RJTS 070800Z NIL=,
20180107_090000.003,0,RJTS,,,,0,20180107090000,-1,-1,-1,-1,-1,-1,-1,-1,-1,-1,-1,,-1,0,0,0,,0,-1,0,-1,-1,RJTS 070900Z NIL=,
20180107_100000.003,0,RJTS,,,,0,20180107100000,-1,-1,-1,-1,-1,-1,-1,-1,-1,-1,-1,,-1,0,0,0,,0,-1,0,-1,-1,RJTS 071000Z NIL=,
20180107_110000.003,0,RJTS,,,,0,20180107110000,-1,-1,-1,-1,-1,-1,-1,-1,-1,-1,-1,,-1,0,0,0,,0,-1,0,-1,-1,RJTS 071100Z NIL=,
20180107_120000.004,0,RJTS,,,,0,20180107120000,-1,-1,-1,-1,-1,-1,-1,-1,-1,-1,-1,,-1,0,0,0,,0,-1,0,-1,-1,RJTS 071200Z NIL=,
20180107_130000.004,0,RJTS,,,,0,20180107130000,-1,-1,-1,-1,-1,-1,-1,-1,-1,-1,-1,,-1,0,0,0,,0,-1,0,-1,-1,RJTS 071300Z NIL=,
20180107_140000.004,0,RJTS,,,,0,20180107140000,-1,-1,-1,-1,-1,-1,-1,-1,-1,-1,-1,,-1,0,0,0,,0,-1,0,-1,-1,RJTS 071400Z NIL=,
20180107_150000.003,0,RJTS,,,,0,20180107150000,-1,-1,-1,-1,-1,-1,-1,-1,-1,-1,-1,,-1,0,0,0,,0,-1,0,-1,-1,RJTS 071500Z NIL=,
20180107_160000.003,0,RJTS,,,,0,20180107160000,-1,-1,-1,-1,-1,-1,-1,-1,-1,-1,-1,,-1,0,0,0,,0,-1,0,-1,-1,RJTS 071600Z NIL=,
20180107_170000.003,0,RJTS,,,,0,20180107170000,-1,-1,-1,-1,-1,-1,-1,-1,-1,-1,-1,,-1,0,0,0,,0,-1,0,-1,-1,RJTS 071700Z NIL=,
20180107_180000.003,0,RJTS,,,,0,20180107180000,-1,-1,-1,-1,-1,-1,-1,-1,-1,-1,-1,,-1,0,0,0,,0,-1,0,-1,-1,RJTS 071800Z NIL=,
20180107_190000.004,0,RJTS,,,,0,20180107190000,-1,-1,-1,-1,-1,-1,-1,-1,-1,-1,-1,,-1,0,0,0,,0,-1,0,-1,-1,RJTS 071900Z NIL=,
20180107_200000.003,0,RJTS,,,,0,20180107200000,-1,-1,-1,-1,-1,-1,-1,-1,-1,-1,-1,,-1,0,0,0,,0,-1,0,-1,-1,RJTS 072000Z NIL=,
20180107_210000.004,0,RJTS,,,,0,20180107210000,-1,-1,-1,-1,-1,-1,-1,-1,-1,-1,-1,,-1,0,0,0,,0,-1,0,-1,-1,RJTS 072100Z NIL=,
20180107_220000.003,0,RJTS,,,,0,20180107220000,-1,-1,-1,-1,-1,-1,-1,-1,-1,-1,-1,,-1,0,0,0,,0,-1,0,-1,-1,RJTS 072200Z NIL=,
20180107_230000.003,0,RJTS,,,,0,20180107230000,-1,-1,-1,-1,-1,-1,-1,-1,-1,-1,-1,,-1,0,0,0,,0,-1,0,-1,-1,RJTS 072300Z NIL=,
20180108_000000.003,0,RJTS,,,,0,20180108000000,-1,-1,-1,-1,-1,-1,-1,-1,-1,-1,-1,,-1,0,0,0,,0,-1,0,-1,-1,RJTS 080000Z NIL=,
20180108_010000.003,0,RJTS,,,,0,20180108010000,-1,-1,-1,-1,-1,-1,-1,-1,-1,-1,-1,,-1,0,0,0,,0,-1,0,-1,-1,RJTS 080100Z NIL=,
20180108_020000.004,0,RJTS,,,,0,20180108020000,-1,-1,-1,-1,-1,-1,-1,-1,-1,-1,-1,,-1,0,0,0,,0,-1,0,-1,-1,RJTS 080200Z NIL=,
20180108_030000.003,0,RJTS,,,,0,20180108030000,-1,-1,-1,-1,-1,-1,-1,-1,-1,-1,-1,,-1,0,0,0,,0,-1,0,-1,-1,RJTS 080300Z NIL=,
20180108_040000.003,0,RJTS,,,,0,20180108040000,-1,-1,-1,-1,-1,-1,-1,-1,-1,-1,-1,,-1,0,0,0,,0,-1,0,-1,-1,RJTS 080400Z NIL=,
20180108_050000.003,0,RJTS,,,,0,20180108050000,-1,-1,-1,-1,-1,-1,-1,-1,-1,-1,-1,,-1,0,0,0,,0,-1,0,-1,-1,RJTS 080500Z NIL=,
20180108_060000.004,0,RJTS,,,,0,20180108060000,-1,-1,-1,-1,-1,-1,-1,-1,-1,-1,-1,,-1,0,0,0,,0,-1,0,-1,-1,RJTS 080600Z NIL=,
20180108_070000.003,0,RJTS,,,,0,20180108070000,-1,-1,-1,-1,-1,-1,-1,-1,-1,-1,-1,,-1,0,0,0,,0,-1,0,-1,-1,RJTS 080700Z NIL=,
20180108_080000.003,0,RJTS,,,,0,20180108080000,-1,-1,-1,-1,-1,-1,-1,-1,-1,-1,-1,,-1,0,0,0,,0,-1,0,-1,-1,RJTS 080800Z NIL=,
20180108_090000.003,0,RJTS,,,,0,20180108090000,-1,-1,-1,-1,-1,-1,-1,-1,-1,-1,-1,,-1,0,0,0,,0,-1,0,-1,-1,RJTS 080900Z NIL=,
20180108_100000.003,0,RJTS,,,,0,20180108100000,-1,-1,-1,-1,-1,-1,-1,-1,-1,-1,-1,,-1,0,0,0,,0,-1,0,-1,-1,RJTS 081000Z NIL=,
20180108_110000.003,0,RJTS,,,,0,20180108110000,-1,-1,-1,-1,-1,-1,-1,-1,-1,-1,-1,,-1,0,0,0,,0,-1,0,-1,-1,RJTS 081100Z NIL=,
20180108_120000.003,0,RJTS,,,,0,20180108120000,-1,-1,-1,-1,-1,-1,-1,-1,-1,-1,-1,,-1,0,0,0,,0,-1,0,-1,-1,RJTS 081200Z NIL=,
20180108_130000.004,0,RJTS,,,,0,20180108130000,-1,-1,-1,-1,-1,-1,-1,-1,-1,-1,-1,,-1,0,0,0,,0,-1,0,-1,-1,RJTS 081300Z NIL=,
20180108_140000.003,0,RJTS,,,,0,20180108140000,-1,-1,-1,-1,-1,-1,-1,-1,-1,-1,-1,,-1,0,0,0,,0,-1,0,-1,-1,RJTS 081400Z NIL=,
20180108_150000.003,0,RJTS,,,,0,20180108150000,-1,-1,-1,-1,-1,-1,-1,-1,-1,-1,-1,,-1,0,0,0,,0,-1,0,-1,-1,RJTS 081500Z NIL=,
20180108_160000.003,0,RJTS,,,,0,20180108160000,-1,-1,-1,-1,-1,-1,-1,-1,-1,-1,-1,,-1,0,0,0,,0,-1,0,-1,-1,RJTS 081600Z NIL=,
20180108_170000.003,0,RJTS,,,,0,20180108170000,-1,-1,-1,-1,-1,-1,-1,-1,-1,-1,-1,,-1,0,0,0,,0,-1,0,-1,-1,RJTS 081700Z NIL=,
20180108_180000.003,0,RJTS,,,,0,20180108180000,-1,-1,-1,-1,-1,-1,-1,-1,-1,-1,-1,,-1,0,0,0,,0,-1,0,-1,-1,RJTS 081800Z NIL=,
20180108_190000.003,0,RJTS,,,,0,20180108190000,-1,-1,-1,-1,-1,-1,-1,-1,-1,-1,-1,,-1,0,0,0,,0,-1,0,-1,-1,RJTS 081900Z NIL=,
20180108_200000.003,0,RJTS,,,,0,20180108200000,-1,-1,-1,-1,-1,-1,-1,-1,-1,-1,-1,,-1,0,0,0,,0,-1,0,-1,-1,RJTS 082000Z NIL=,
20180108_210000.004,0,RJTS,,,,0,20180108210000,-1,-1,-1,-1,-1,-1,-1,-1,-1,-1,-1,,-1,0,0,0,,0,-1,0,-1,-1,RJTS 082100Z NIL=,
20180108_220000.003,0,RJTS,,,,0,20180108220000,-1,-1,-1,-1,310,-1,4,-1,-1,-1,-1,,9999,0,0,3,FEW 0   SCT 70   BKN 100,1,8,1,7,992,RJTS 082200Z 31004KT 9999 FEW000 SCT070 BKN100 08/07 Q0992 RMK     1ST000 3AC070 6AC100 A2930=,
20180108_230000.004,0,RJTS,,,,0,20180108230000,-1,-1,-1,-1,220,-1,6,-1,-1,-1,-1,,9999,0,0,3,FEW 0   SCT 70   BKN 100,1,12,1,6,992,RJTS 082300Z 22006KT 9999 FEW000 SCT070 BKN100 12/06 Q0992 RMK     1ST000 3AC070 6AC100 A2930=,
20180109_000000.003,0,RJTS,,,,0,20180109000000,-1,-1,-1,-1,160,-1,4,-1,-1,-1,-1,,9999,0,0,3,FEW 0   SCT 70   BKN 120,1,10,1,6,992,RJTS 090000Z 16004KT 9999 FEW000 SCT070 BKN120 10/06 Q0992 RMK     1ST000 3AC070 5AC120 A2930=,
20180109_010000.003,0,RJTS,,,,0,20180109010000,-1,-1,-1,-1,100,-1,7,-1,-1,-1,-1,,9999,0,0,3,FEW 50   SCT 80   BKN 100,1,10,1,4,992,RJTS 090100Z 10007KT 9999 FEW050 SCT080 BKN100 10/04 Q0992 RMK     1CU050 3AC080 6AC100 A2931=,
20180109_020000.003,0,RJTS,,,,0,20180109020000,-1,-1,-1,-1,260,-1,5,-1,15,-1,-1,,9999,0,0,1,FEW 50,1,12,1,4,992,RJTS 090200Z 26005G15KT 9999 FEW050 12/04 Q0992 RMK 1CU050     A2929=,
20180109_030000.003,0,RJTS,,,,0,20180109030000,-1,-1,-1,-1,250,-1,9,-1,21,-1,-1,,9999,0,0,2,FEW 40   SCT 50,1,13,-1,3,990,RJTS 090300Z 25009G21KT 9999 FEW040 SCT050 13/M03 Q0990 RMK     1CU040 3CU050 A2925=,
20180109_040000.003,0,RJTS,,,,0,20180109040000,-1,-1,-1,-1,330,-1,14,-1,26,-1,-1,,9999,0,0,2,FEW 40   SCT 50,1,12,-1,2,990,RJTS 090400Z 33014G26KT 9999 FEW040 SCT050 12/M02 Q0990 RMK     1CU040 3CU050 A2926=,
20180109_050000.003,0,RJTS,,,,0,20180109050000,-1,-1,-1,-1,310,-1,10,-1,21,-1,-1,,9999,0,0,2,FEW 40   SCT 50,1,11,-1,5,991,RJTS 090500Z 31010G21KT 9999 FEW040 SCT050 11/M05 Q0991 RMK     1CU040 3CU050 A2927=,
20180109_060000.003,0,RJTS,,,,0,20180109060000,-1,-1,-1,-1,310,-1,10,-1,20,-1,-1,,9999,0,0,2,FEW 40   SCT 80,1,10,-1,5,992,RJTS 090600Z 31010G20KT 9999 FEW040 SCT080 10/M05 Q0992 RMK     1CU040 4AC080 A2931=,
20180109_070000.003,0,RJTS,,,,0,20180109070000,-1,-1,-1,-1,290,-1,7,-1,17,-1,-1,,9999,0,0,2,FEW 45   SCT 80,1,8,-1,6,994,RJTS 090700Z 29007G17KT 9999 FEW045 SCT080 08/M06 Q0994 RMK     1CU045 3AC080 A2936=,
20180109_080000.003,0,RJTS,,,,0,20180109080000,-1,-1,-1,-1,290,-1,8,-1,-1,-1,-1,,9999,0,0,2,FEW 40   SCT 80,1,7,-1,7,995,RJTS 090800Z 29008KT 9999 FEW040 SCT080 07/M07 Q0995 RMK     1CU040 3AC080 A2940=,
20180109_090000.003,0,RJTS,,,,0,20180109090000,-1,-1,-1,-1,-1,-1,-1,-1,-1,-1,-1,,-1,0,0,0,,0,-1,0,-1,-1,RJTS 090900Z NIL=,
20180109_100000.003,0,RJTS,,,,0,20180109100000,-1,-1,-1,-1,-1,-1,-1,-1,-1,-1,-1,,-1,0,0,0,,0,-1,0,-1,-1,RJTS 091000Z NIL=,
20180109_110000.003,0,RJTS,,,,0,20180109110000,-1,-1,-1,-1,-1,-1,-1,-1,-1,-1,-1,,-1,0,0,0,,0,-1,0,-1,-1,RJTS 091100Z NIL=,
20180109_120000.003,0,RJTS,,,,0,20180109120000,-1,-1,-1,-1,-1,-1,-1,-1,-1,-1,-1,,-1,0,0,0,,0,-1,0,-1,-1,RJTS 091200Z NIL=,
20180109_130000.003,0,RJTS,,,,0,20180109130000,-1,-1,-1,-1,-1,-1,-1,-1,-1,-1,-1,,-1,0,0,0,,0,-1,0,-1,-1,RJTS 091300Z NIL=,
20180109_140000.003,0,RJTS,,,,0,20180109140000,-1,-1,-1,-1,-1,-1,-1,-1,-1,-1,-1,,-1,0,0,0,,0,-1,0,-1,-1,RJTS 091400Z NIL=,
20180109_150000.003,0,RJTS,,,,0,20180109150000,-1,-1,-1,-1,-1,-1,-1,-1,-1,-1,-1,,-1,0,0,0,,0,-1,0,-1,-1,RJTS 091500Z NIL=,
20180109_160000.003,0,RJTS,,,,0,20180109160000,-1,-1,-1,-1,-1,-1,-1,-1,-1,-1,-1,,-1,0,0,0,,0,-1,0,-1,-1,RJTS 091600Z NIL=,
20180109_170000.003,0,RJTS,,,,0,20180109170000,-1,-1,-1,-1,-1,-1,-1,-1,-1,-1,-1,,-1,0,0,0,,0,-1,0,-1,-1,RJTS 091700Z NIL=,
20180109_180000.003,0,RJTS,,,,0,20180109180000,-1,-1,-1,-1,-1,-1,-1,-1,-1,-1,-1,,-1,0,0,0,,0,-1,0,-1,-1,RJTS 091800Z NIL=,
20180109_190000.004,0,RJTS,,,,0,20180109190000,-1,-1,-1,-1,-1,-1,-1,-1,-1,-1,-1,,-1,0,0,0,,0,-1,0,-1,-1,RJTS 091900Z NIL=,
20180109_200000.003,0,RJTS,,,,0,20180109200000,-1,-1,-1,-1,-1,-1,-1,-1,-1,-1,-1,,-1,0,0,0,,0,-1,0,-1,-1,RJTS 092000Z NIL=,
20180109_210000.003,0,RJTS,,,,0,20180109210000,-1,-1,-1,-1,270,-1,4,-1,-1,-1,-1,,9999,0,0,1,FEW 30,1,2,-1,9,1004,RJTS 092100Z 27004KT 9999 FEW030 02/M09 Q1004 RMK 1CU030     A2966=,
20180109_220000.003,0,RJTS,,,,0,20180109220000,-1,-1,-1,-1,280,-1,6,-1,-1,-1,-1,,9999,0,0,1,FEW 40,1,2,-1,9,1005,RJTS 092200Z 28006KT 9999 FEW040 02/M09 Q1005 RMK 1CU040     A2967=,
20180109_230000.003,0,RJTS,,,,0,20180109230000,-1,-1,-1,-1,270,-1,4,-1,-1,-1,-1,,9999,0,0,1,FEW 40,1,3,-1,9,1005,RJTS 092300Z 27004KT 9999 FEW040 03/M09 Q1005 RMK 1CU040     A2970=,
20180110_000000.003,0,RJTS,,,,0,20180110000000,-1,-1,-1,-1,240,-1,5,-1,-1,-1,-1,,9999,0,0,1,FEW 40,1,5,-1,10,1005,RJTS 100000Z 24005KT 9999 FEW040 05/M10 Q1005 RMK 1CU040     A2970=,
20180110_010000.003,0,RJTS,,,,0,20180110010000,-1,-1,-1,-1,250,-1,7,-1,-1,-1,-1,,9999,0,0,1,FEW 40,1,6,-1,10,1005,RJTS 100100Z 25007KT 9999 FEW040 06/M10 Q1005 RMK 1CU040     A2969=,
20180110_020000.003,0,RJTS,,,,0,20180110020000,-1,-1,-1,-1,250,-1,10,-1,20,-1,-1,,9999,0,0,1,FEW 40,1,7,-1,10,1004,RJTS 100200Z 25010G20KT 9999 FEW040 07/M10 Q1004 RMK 1CU040     A2967=,
20180110_030000.003,0,RJTS,,,,0,20180110030000,-1,-1,-1,-1,240,-1,10,-1,20,-1,-1,,9999,0,0,1,FEW 50,1,8,-1,10,1003,RJTS 100300Z 24010G20KT 9999 FEW050 08/M10 Q1003 RMK 2CU050     A2963=,
20180110_040000.004,0,RJTS,,,,0,20180110040000,-1,-1,-1,-1,240,-1,9,-1,-1,-1,-1,,9999,0,0,2,FEW 50   SCT 70,1,8,-1,11,1002,RJTS 100400Z 24009KT 9999 FEW050 SCT070 08/M11 Q1002 RMK     1CU050 3AC070 A2961 MAX WIND 17KT=,
20180110_050000.003,0,RJTS,,,,0,20180110050000,-1,-1,-1,-1,260,-1,10,-1,-1,-1,-1,,9999,0,0,1,FEW 50,1,8,-1,11,1002,RJTS 100500Z 26010KT 9999 FEW050 08/M11 Q1002 RMK 1CU050 A2961     MAX WIND 19KT=,
20180110_060000.003,0,RJTS,,,,0,20180110060000,-1,-1,-1,-1,250,-1,10,-1,-1,-1,-1,,9999,0,0,1,FEW 70,1,7,-1,11,1003,RJTS 100600Z 25010KT 9999 FEW070 07/M11 Q1003 RMK 2AC070 A2963     MAX WIND 18KT=,
20180110_070000.003,0,RJTS,,,,0,20180110070000,-1,-1,-1,-1,260,-1,7,-1,-1,-1,-1,,9999,0,0,1,FEW 70,1,6,-1,12,1003,RJTS 100700Z 26007KT 9999 FEW070 06/M12 Q1003 RMK 2AC070     A2964=,
20180110_080000.003,0,RJTS,,,,0,20180110080000,-1,-1,-1,-1,280,-1,3,-1,-1,-1,-1,,9999,0,0,1,FEW 40,1,5,-1,12,1004,RJTS 100800Z 28003KT 9999 FEW040 05/M12 Q1004 RMK 1CU040     A2964=,
20180110_090000.003,0,RJTS,,,,0,20180110090000,-1,-1,-1,-1,-1,-1,-1,-1,-1,-1,-1,,-1,0,0,0,,0,-1,0,-1,-1,RJTS 100900Z NIL=,
20180110_100000.003,0,RJTS,,,,0,20180110100000,-1,-1,-1,-1,-1,-1,-1,-1,-1,-1,-1,,-1,0,0,0,,0,-1,0,-1,-1,RJTS 101000Z NIL=,
20180110_110000.003,0,RJTS,,,,0,20180110110000,-1,-1,-1,-1,-1,-1,-1,-1,-1,-1,-1,,-1,0,0,0,,0,-1,0,-1,-1,RJTS 101100Z NIL=,
20180110_120000.003,0,RJTS,,,,0,20180110120000,-1,-1,-1,-1,-1,-1,-1,-1,-1,-1,-1,,-1,0,0,0,,0,-1,0,-1,-1,RJTS 101200Z NIL=,
20180110_130000.003,0,RJTS,,,,0,20180110130000,-1,-1,-1,-1,-1,-1,-1,-1,-1,-1,-1,,-1,0,0,0,,0,-1,0,-1,-1,RJTS 101300Z NIL=,
20180110_140000.003,0,RJTS,,,,0,20180110140000,-1,-1,-1,-1,-1,-1,-1,-1,-1,-1,-1,,-1,0,0,0,,0,-1,0,-1,-1,RJTS 101400Z NIL=,
20180110_150000.003,0,RJTS,,,,0,20180110150000,-1,-1,-1,-1,-1,-1,-1,-1,-1,-1,-1,,-1,0,0,0,,0,-1,0,-1,-1,RJTS 101500Z NIL=,
20180110_160000.003,0,RJTS,,,,0,20180110160000,-1,-1,-1,-1,-1,-1,-1,-1,-1,-1,-1,,-1,0,0,0,,0,-1,0,-1,-1,RJTS 101600Z NIL=,
20180110_170000.003,0,RJTS,,,,0,20180110170000,-1,-1,-1,-1,-1,-1,-1,-1,-1,-1,-1,,-1,0,0,0,,0,-1,0,-1,-1,RJTS 101700Z NIL=,
20180110_180000.003,0,RJTS,,,,0,20180110180000,-1,-1,-1,-1,-1,-1,-1,-1,-1,-1,-1,,-1,0,0,0,,0,-1,0,-1,-1,RJTS 101800Z NIL=,
20180110_190000.003,0,RJTS,,,,0,20180110190000,-1,-1,-1,-1,-1,-1,-1,-1,-1,-1,-1,,-1,0,0,0,,0,-1,0,-1,-1,RJTS 101900Z NIL=,
20180110_200000.003,0,RJTS,,,,0,20180110200000,-1,-1,-1,-1,310,-1,3,-1,-1,-1,-1,,9999,0,0,1,FEW 80,-1,3,-1,8,1007,RJTS 102000Z 31003KT 9999 FEW080 M03/M08 Q1007 RMK 1AC080     A2975=,
20180110_210000.003,0,RJTS,,,,0,20180110210000,-1,-1,-1,-1,310,-1,3,-1,-1,-1,-1,,9999,0,0,1,FEW 80,-1,3,-1,8,1007,RJTS 102100Z 31003KT 9999 FEW080 M03/M08 Q1007 RMK 1AC080     A2976=,
20180110_220000.003,0,RJTS,,,,0,20180110220000,-1,-1,-1,-1,330,-1,3,-1,-1,-1,-1,,9999,0,0,1,FEW 50,-1,5,-1,9,1008,RJTS 102200Z 33003KT 9999 FEW050 M05/M09 Q1008 RMK 1CU050     A2978=,
20180110_230000.004,0,RJTS,,,,0,20180110230000,-1,-1,-1,-1,330,-1,2,-1,-1,-1,-1,,9999,0,0,1,FEW 50,-1,1,-1,8,1009,RJTS 102300Z 33002KT 9999 FEW050 M01/M08 Q1009 RMK 1CU050     A2981=,
20180111_000000.003,0,RJTS,,,,0,20180111000000,-1,-1,-1,-1,100,-1,3,-1,-1,-1,-1,,9999,0,0,1,FEW 50,1,3,-1,10,1009,RJTS 110000Z 10003KT 9999 FEW050 03/M10 Q1009 RMK 1CU050     A2981=,
20180111_010000.003,0,RJTS,,,,0,20180111010000,-1,-1,-1,-1,270,-1,9,-1,21,-1,-1,,9999,0,0,1,FEW 50,1,4,-1,13,1010,RJTS 110100Z 27009G21KT 9999 FEW050 04/M13 Q1010 RMK 1CU050     A2982=,
20180111_020000.003,0,RJTS,,,,0,20180111020000,-1,-1,-1,-1,280,-1,10,-1,-1,-1,-1,,9999,0,0,1,FEW 50,1,4,-1,14,1009,RJTS 110200Z 28010KT 9999 FEW050 04/M14 Q1009 RMK 1CU050 A2982     MAX WIND 18KT=,
20180111_030000.002,0,RJTS,,,,0,20180111030000,-1,-1,-1,-1,270,-1,10,-1,20,-1,-1,,9999,0,0,1,FEW 50,1,4,-1,15,1009,RJTS 110300Z 27010G20KT 9999 FEW050 04/M15 Q1009 RMK 1CU050     A2980=,
20180111_040000.003,0,RJTS,,,,0,20180111040000,-1,-1,-1,-1,240,-1,8,-1,18,-1,-1,,9999,0,0,1,FEW 70,1,5,-1,16,1008,RJTS 110400Z 24008G18KT 9999 FEW070 05/M16 Q1008 RMK 2AC070     A2978=,
20180111_050000.003,0,RJTS,,,,0,20180111050000,-1,-1,-1,-1,250,-1,11,-1,22,-1,-1,,9999,0,0,1,FEW 70,1,4,-1,17,1008,RJTS 110500Z 25011G22KT 9999 FEW070 04/M17 Q1008 RMK 2AC070     A2978=,
20180111_060000.003,0,RJTS,,,,0,20180111060000,-1,-1,-1,-1,240,-1,11,-1,-1,-1,-1,,9999,0,0,1,FEW 80,1,4,-1,16,1009,RJTS 110600Z 24011KT 9999 FEW080 04/M16 Q1009 RMK 2AC080 A2980     MAX WIND 19KT=,
20180111_070000.003,0,RJTS,,,,0,20180111070000,-1,-1,-1,-1,260,-1,10,-1,-1,-1,-1,,9999,0,0,1,FEW 70,1,3,-1,15,1010,RJTS 110700Z 26010KT 9999 FEW070 03/M15 Q1010 RMK 2AC070     A2983=,
20180111_080000.003,0,RJTS,,,,0,20180111080000,-1,-1,-1,-1,250,-1,5,-1,-1,-1,-1,,9999,0,0,1,FEW 70,1,1,-1,15,1010,RJTS 110800Z 25005KT 9999 FEW070 01/M15 Q1010 RMK 1AC070     A2985=,
20180111_090000.003,0,RJTS,,,,0,20180111090000,-1,-1,-1,-1,250,-1,4,-1,-1,-1,-1,,9999,0,0,1,FEW 70,1,0,-1,15,1011,RJTS 110900Z 25004KT 9999 FEW070 00/M15 Q1011 RMK 1AC070     A2986=,
20180111_100000.003,0,RJTS,,,,0,20180111100000,-1,-1,-1,-1,270,-1,7,-1,-1,-1,-1,,9999,0,0,1,FEW 50,1,0,-1,15,1012,RJTS 111000Z 27007KT 9999 FEW050 00/M15 Q1012 RMK 1SC050     A2988=,
20180111_110000.003,0,RJTS,,,,0,20180111110000,-1,-1,-1,-1,-1,-1,-1,-1,-1,-1,-1,,-1,0,0,0,,0,-1,0,-1,-1,RJTS 111100Z NIL=,
20180111_120000.003,0,RJTS,,,,0,20180111120000,-1,-1,-1,-1,-1,-1,-1,-1,-1,-1,-1,,-1,0,0,0,,0,-1,0,-1,-1,RJTS 111200Z NIL=,
20180111_130000.003,0,RJTS,,,,0,20180111130000,-1,-1,-1,-1,-1,-1,-1,-1,-1,-1,-1,,-1,0,0,0,,0,-1,0,-1,-1,RJTS 111300Z NIL=,
20180111_140000.003,0,RJTS,,,,0,20180111140000,-1,-1,-1,-1,-1,-1,-1,-1,-1,-1,-1,,-1,0,0,0,,0,-1,0,-1,-1,RJTS 111400Z NIL=,
20180111_150000.003,0,RJTS,,,,0,20180111150000,-1,-1,-1,-1,-1,-1,-1,-1,-1,-1,-1,,-1,0,0,0,,0,-1,0,-1,-1,RJTS 111500Z NIL=,
20180111_160000.003,0,RJTS,,,,0,20180111160000,-1,-1,-1,-1,-1,-1,-1,-1,-1,-1,-1,,-1,0,0,0,,0,-1,0,-1,-1,RJTS 111600Z NIL=,
20180111_170000.003,0,RJTS,,,,0,20180111170000,-1,-1,-1,-1,-1,-1,-1,-1,-1,-1,-1,,-1,0,0,0,,0,-1,0,-1,-1,RJTS 111700Z NIL=,
20180111_180000.003,0,RJTS,,,,0,20180111180000,-1,-1,-1,-1,-1,-1,-1,-1,-1,-1,-1,,-1,0,0,0,,0,-1,0,-1,-1,RJTS 111800Z NIL=,
20180111_190000.003,0,RJTS,,,,0,20180111190000,-1,-1,-1,-1,-1,-1,-1,-1,-1,-1,-1,,-1,0,0,0,,0,-1,0,-1,-1,RJTS 111900Z NIL=,
20180111_200000.003,0,RJTS,,,,0,20180111200000,-1,-1,-1,-1,-1,-1,-1,-1,-1,-1,-1,,-1,0,0,0,,0,-1,0,-1,-1,RJTS 112000Z NIL=,
20180111_210000.003,0,RJTS,,,,0,20180111210000,-1,-1,-1,-1,310,-1,4,-1,-1,-1,-1,,9999,0,0,1,FEW 180,-1,6,-1,14,1014,RJTS 112100Z 31004KT 9999 FEW180 M06/M14 Q1014 RMK 1AC180     A2995=,
20180111_220000.004,0,RJTS,,,,0,20180111220000,-1,-1,-1,-1,320,-1,4,-1,-1,-1,-1,,9999,0,0,1,FEW 180,-1,7,-1,14,1015,RJTS 112200Z 32004KT 9999 FEW180 M07/M14 Q1015 RMK 1AC180     A2997=,
20180111_230000.003,0,RJTS,,,,0,20180111230000,-1,-1,-1,-1,340,-1,2,-1,-1,-1,-1,,9999,0,0,1,FEW 180,-1,5,-1,12,1015,RJTS 112300Z 34002KT 9999 FEW180 M05/M12 Q1015 RMK 1AC180     A2999=,
20180112_000000.003,0,RJTS,,,,0,20180112000000,-1,-1,-1,-1,110,-1,2,-1,-1,-1,-1,,9999,0,0,1,FEW 80,-1,1,-1,15,1016,RJTS 120000Z 11002KT 9999 FEW080 M01/M15 Q1016 RMK 1AC080     A3002=,
20180112_010000.004,0,RJTS,,,,0,20180112010000,-1,-1,-1,-1,80,-1,4,-1,-1,-1,-1,,9999,0,0,1,FEW 80,1,1,-1,14,1016,RJTS 120100Z 08004KT 9999 FEW080 01/M14 Q1016 RMK 1AC080     A3002=,
20180112_020000.003,0,RJTS,,,,0,20180112020000,-1,-1,-1,-1,70,-1,6,-1,-1,-1,-1,,9999,0,0,1,FEW 60,1,3,-1,13,1016,RJTS 120200Z 07006KT 9999 FEW060 03/M13 Q1016 RMK 1CU060     A3001=,
20180112_030000.003,0,RJTS,,,,0,20180112030000,-1,-1,-1,-1,60,-1,5,-1,-1,-1,-1,,9999,0,0,1,FEW 70,1,2,-1,14,1015,RJTS 120300Z 06005KT 9999 FEW070 02/M14 Q1015 RMK 2AC070     A2999=,
20180112_040000.003,0,RJTS,,,,0,20180112040000,-1,-1,-1,-1,60,-1,7,-1,-1,-1,-1,,9999,0,0,2,FEW 50   SCT 70,1,3,-1,13,1015,RJTS 120400Z 06007KT 9999 FEW050 SCT070 03/M13 Q1015 RMK     1CU050 4AC070 A2998=,
20180112_050000.004,0,RJTS,,,,0,20180112050000,-1,-1,-1,-1,20,-1,6,-1,-1,-1,-1,,9999,0,0,3,FEW 15   SCT 35   BKN 70,1,2,-1,13,1015,RJTS 120500Z 02006KT 9999 FEW015 SCT035 BKN070 02/M13 Q1015     RMK 2CU015 4CU035 5AC070 A2999=,
20180112_060000.003,0,RJTS,,,,0,20180112060000,-1,-1,-1,-1,350,-1,8,-1,-1,-1,-1,,9999,0,0,2,FEW 20   SCT 40,1,2,-1,14,1016,RJTS 120600Z 35008KT 9999 FEW020 SCT040 02/M14 Q1016 RMK     1CU020 3CU040 A3001=,
20180112_070000.004,0,RJTS,,,,0,20180112070000,-1,-1,-1,-1,330,-1,9,-1,-1,-1,-1,,9999,0,0,2,FEW 20   SCT 40,1,2,-1,16,1016,RJTS 120700Z 33009KT 9999 FEW020 SCT040 02/M16 Q1016 RMK     1CU020 3CU040 A3001 MAX WIND 18KT=,
20180112_080000.003,0,RJTS,,,,0,20180112080000,-1,-1,-1,-1,350,-1,4,-1,-1,-1,-1,,9999,0,0,2,FEW 40   SCT 70,1,1,-1,14,1017,RJTS 120800Z 35004KT 9999 FEW040 SCT070 01/M14 Q1017 RMK     2CU040 3AC070 A3003=,
20180112_090000.003,0,RJTS,,,,0,20180112090000,-1,-1,-1,-1,-1,-1,-1,-1,-1,-1,-1,,-1,0,0,0,,0,-1,0,-1,-1,RJTS 120900Z NIL=,
20180112_100000.003,0,RJTS,,,,0,20180112100000,-1,-1,-1,-1,-1,-1,-1,-1,-1,-1,-1,,-1,0,0,0,,0,-1,0,-1,-1,RJTS 121000Z NIL=,
20180112_110000.003,0,RJTS,,,,0,20180112110000,-1,-1,-1,-1,-1,-1,-1,-1,-1,-1,-1,,-1,0,0,0,,0,-1,0,-1,-1,RJTS 121100Z NIL=,
20180112_120000.003,0,RJTS,,,,0,20180112120000,-1,-1,-1,-1,-1,-1,-1,-1,-1,-1,-1,,-1,0,0,0,,0,-1,0,-1,-1,RJTS 121200Z NIL=,
20180112_130000.003,0,RJTS,,,,0,20180112130000,-1,-1,-1,-1,-1,-1,-1,-1,-1,-1,-1,,-1,0,0,0,,0,-1,0,-1,-1,RJTS 121300Z NIL=,
20180112_140000.003,0,RJTS,,,,0,20180112140000,-1,-1,-1,-1,-1,-1,-1,-1,-1,-1,-1,,-1,0,0,0,,0,-1,0,-1,-1,RJTS 121400Z NIL=,
20180112_150000.003,0,RJTS,,,,0,20180112150000,-1,-1,-1,-1,-1,-1,-1,-1,-1,-1,-1,,-1,0,0,0,,0,-1,0,-1,-1,RJTS 121500Z NIL=,
20180112_160000.003,0,RJTS,,,,0,20180112160000,-1,-1,-1,-1,-1,-1,-1,-1,-1,-1,-1,,-1,0,0,0,,0,-1,0,-1,-1,RJTS 121600Z NIL=,
20180112_170000.003,0,RJTS,,,,0,20180112170000,-1,-1,-1,-1,-1,-1,-1,-1,-1,-1,-1,,-1,0,0,0,,0,-1,0,-1,-1,RJTS 121700Z NIL=,
20180112_180000.003,0,RJTS,,,,0,20180112180000,-1,-1,-1,-1,-1,-1,-1,-1,-1,-1,-1,,-1,0,0,0,,0,-1,0,-1,-1,RJTS 121800Z NIL=,
20180112_190000.003,0,RJTS,,,,0,20180112190000,-1,-1,-1,-1,-1,-1,-1,-1,-1,-1,-1,,-1,0,0,0,,0,-1,0,-1,-1,RJTS 121900Z NIL=,
20180112_200000.004,0,RJTS,,,,0,20180112200000,-1,-1,-1,-1,-1,-1,-1,-1,-1,-1,-1,,-1,0,0,0,,0,-1,0,-1,-1,RJTS 122000Z NIL=,
20180112_210000.003,0,RJTS,,,,0,20180112210000,-1,-1,-1,-1,-1,-1,-1,-1,-1,-1,-1,,-1,0,0,0,,0,-1,0,-1,-1,RJTS 122100Z NIL=,
20180112_220000.003,0,RJTS,,,,0,20180112220000,-1,-1,-1,-1,-1,-1,-1,-1,-1,-1,-1,,-1,0,0,0,,0,-1,0,-1,-1,RJTS 122200Z NIL=,
20180112_230000.003,0,RJTS,,,,0,20180112230000,-1,-1,-1,-1,-1,-1,-1,-1,-1,-1,-1,,-1,0,0,0,,0,-1,0,-1,-1,RJTS 122300Z NIL=,
20180113_000000.003,0,RJTS,,,,0,20180113000000,-1,-1,-1,-1,-1,-1,-1,-1,-1,-1,-1,,-1,0,0,0,,0,-1,0,-1,-1,RJTS 130000Z NIL=,
20180113_010000.004,0,RJTS,,,,0,20180113010000,-1,-1,-1,-1,-1,-1,-1,-1,-1,-1,-1,,-1,0,0,0,,0,-1,0,-1,-1,RJTS 130100Z NIL=,
20180113_020000.003,0,RJTS,,,,0,20180113020000,-1,-1,-1,-1,-1,-1,-1,-1,-1,-1,-1,,-1,0,0,0,,0,-1,0,-1,-1,RJTS 130200Z NIL=,
20180113_030000.003,0,RJTS,,,,0,20180113030000,-1,-1,-1,-1,-1,-1,-1,-1,-1,-1,-1,,-1,0,0,0,,0,-1,0,-1,-1,RJTS 130300Z NIL=,
20180113_040000.003,0,RJTS,,,,0,20180113040000,-1,-1,-1,-1,-1,-1,-1,-1,-1,-1,-1,,-1,0,0,0,,0,-1,0,-1,-1,RJTS 130400Z NIL=,
20180113_050000.003,0,RJTS,,,,0,20180113050000,-1,-1,-1,-1,-1,-1,-1,-1,-1,-1,-1,,-1,0,0,0,,0,-1,0,-1,-1,RJTS 130500Z NIL=,
20180113_060000.003,0,RJTS,,,,0,20180113060000,-1,-1,-1,-1,-1,-1,-1,-1,-1,-1,-1,,-1,0,0,0,,0,-1,0,-1,-1,RJTS 130600Z NIL=,
20180113_070000.003,0,RJTS,,,,0,20180113070000,-1,-1,-1,-1,-1,-1,-1,-1,-1,-1,-1,,-1,0,0,0,,0,-1,0,-1,-1,RJTS 130700Z NIL=,
20180113_080000.003,0,RJTS,,,,0,20180113080000,-1,-1,-1,-1,-1,-1,-1,-1,-1,-1,-1,,-1,0,0,0,,0,-1,0,-1,-1,RJTS 130800Z NIL=,
20180113_090000.003,0,RJTS,,,,0,20180113090000,-1,-1,-1,-1,-1,-1,-1,-1,-1,-1,-1,,-1,0,0,0,,0,-1,0,-1,-1,RJTS 130900Z NIL=,
20180113_100000.003,0,RJTS,,,,0,20180113100000,-1,-1,-1,-1,-1,-1,-1,-1,-1,-1,-1,,-1,0,0,0,,0,-1,0,-1,-1,RJTS 131000Z NIL=,
20180113_110000.003,0,RJTS,,,,0,20180113110000,-1,-1,-1,-1,-1,-1,-1,-1,-1,-1,-1,,-1,0,0,0,,0,-1,0,-1,-1,RJTS 131100Z NIL=,
20180113_120000.003,0,RJTS,,,,0,20180113120000,-1,-1,-1,-1,-1,-1,-1,-1,-1,-1,-1,,-1,0,0,0,,0,-1,0,-1,-1,RJTS 131200Z NIL=,
20180113_130000.003,0,RJTS,,,,0,20180113130000,-1,-1,-1,-1,-1,-1,-1,-1,-1,-1,-1,,-1,0,0,0,,0,-1,0,-1,-1,RJTS 131300Z NIL=,
20180113_140000.004,0,RJTS,,,,0,20180113140000,-1,-1,-1,-1,-1,-1,-1,-1,-1,-1,-1,,-1,0,0,0,,0,-1,0,-1,-1,RJTS 131400Z NIL=,
20180113_150000.003,0,RJTS,,,,0,20180113150000,-1,-1,-1,-1,-1,-1,-1,-1,-1,-1,-1,,-1,0,0,0,,0,-1,0,-1,-1,RJTS 131500Z NIL=,
20180113_160000.003,0,RJTS,,,,0,20180113160000,-1,-1,-1,-1,-1,-1,-1,-1,-1,-1,-1,,-1,0,0,0,,0,-1,0,-1,-1,RJTS 131600Z NIL=,
20180113_170000.003,0,RJTS,,,,0,20180113170000,-1,-1,-1,-1,-1,-1,-1,-1,-1,-1,-1,,-1,0,0,0,,0,-1,0,-1,-1,RJTS 131700Z NIL=,
20180113_180000.003,0,RJTS,,,,0,20180113180000,-1,-1,-1,-1,-1,-1,-1,-1,-1,-1,-1,,-1,0,0,0,,0,-1,0,-1,-1,RJTS 131800Z NIL=,
20180113_190000.004,0,RJTS,,,,0,20180113190000,-1,-1,-1,-1,-1,-1,-1,-1,-1,-1,-1,,-1,0,0,0,,0,-1,0,-1,-1,RJTS 131900Z NIL=,
20180113_200000.004,0,RJTS,,,,0,20180113200000,-1,-1,-1,-1,-1,-1,-1,-1,-1,-1,-1,,-1,0,0,0,,0,-1,0,-1,-1,RJTS 132000Z NIL=,
20180113_210000.003,0,RJTS,,,,0,20180113210000,-1,-1,-1,-1,-1,-1,-1,-1,-1,-1,-1,,-1,0,0,0,,0,-1,0,-1,-1,RJTS 132100Z NIL=,
20180113_220000.003,0,RJTS,,,,0,20180113220000,-1,-1,-1,-1,-1,-1,-1,-1,-1,-1,-1,,-1,0,0,0,,0,-1,0,-1,-1,RJTS 132200Z NIL=,
20180113_230000.003,0,RJTS,,,,0,20180113230000,-1,-1,-1,-1,-1,-1,-1,-1,-1,-1,-1,,-1,0,0,0,,0,-1,0,-1,-1,RJTS 132300Z NIL=,
20180114_000000.004,0,RJTS,,,,0,20180114000000,-1,-1,-1,-1,-1,-1,-1,-1,-1,-1,-1,,-1,0,0,0,,0,-1,0,-1,-1,RJTS 140000Z NIL=,
20180114_010000.003,0,RJTS,,,,0,20180114010000,-1,-1,-1,-1,-1,-1,-1,-1,-1,-1,-1,,-1,0,0,0,,0,-1,0,-1,-1,RJTS 140100Z NIL=,
20180114_020000.003,0,RJTS,,,,0,20180114020000,-1,-1,-1,-1,-1,-1,-1,-1,-1,-1,-1,,-1,0,0,0,,0,-1,0,-1,-1,RJTS 140200Z NIL=,
20180114_030000.003,0,RJTS,,,,0,20180114030000,-1,-1,-1,-1,-1,-1,-1,-1,-1,-1,-1,,-1,0,0,0,,0,-1,0,-1,-1,RJTS 140300Z NIL=,
20180114_040000.003,0,RJTS,,,,0,20180114040000,-1,-1,-1,-1,-1,-1,-1,-1,-1,-1,-1,,-1,0,0,0,,0,-1,0,-1,-1,RJTS 140400Z NIL=,
20180114_050000.003,0,RJTS,,,,0,20180114050000,-1,-1,-1,-1,-1,-1,-1,-1,-1,-1,-1,,-1,0,0,0,,0,-1,0,-1,-1,RJTS 140500Z NIL=,
20180114_060000.004,0,RJTS,,,,0,20180114060000,-1,-1,-1,-1,-1,-1,-1,-1,-1,-1,-1,,-1,0,0,0,,0,-1,0,-1,-1,RJTS 140600Z NIL=,
20180114_070000.003,0,RJTS,,,,0,20180114070000,-1,-1,-1,-1,-1,-1,-1,-1,-1,-1,-1,,-1,0,0,0,,0,-1,0,-1,-1,RJTS 140700Z NIL=,
20180114_080000.003,0,RJTS,,,,0,20180114080000,-1,-1,-1,-1,-1,-1,-1,-1,-1,-1,-1,,-1,0,0,0,,0,-1,0,-1,-1,RJTS 140800Z NIL=,
20180114_090000.003,0,RJTS,,,,0,20180114090000,-1,-1,-1,-1,-1,-1,-1,-1,-1,-1,-1,,-1,0,0,0,,0,-1,0,-1,-1,RJTS 140900Z NIL=,
20180114_100000.003,0,RJTS,,,,0,20180114100000,-1,-1,-1,-1,-1,-1,-1,-1,-1,-1,-1,,-1,0,0,0,,0,-1,0,-1,-1,RJTS 141000Z NIL=,
20180114_110000.003,0,RJTS,,,,0,20180114110000,-1,-1,-1,-1,-1,-1,-1,-1,-1,-1,-1,,-1,0,0,0,,0,-1,0,-1,-1,RJTS 141100Z NIL=,
20180114_120000.003,0,RJTS,,,,0,20180114120000,-1,-1,-1,-1,-1,-1,-1,-1,-1,-1,-1,,-1,0,0,0,,0,-1,0,-1,-1,RJTS 141200Z NIL=,
20180114_130000.004,0,RJTS,,,,0,20180114130000,-1,-1,-1,-1,-1,-1,-1,-1,-1,-1,-1,,-1,0,0,0,,0,-1,0,-1,-1,RJTS 141300Z NIL=,
20180114_140000.003,0,RJTS,,,,0,20180114140000,-1,-1,-1,-1,-1,-1,-1,-1,-1,-1,-1,,-1,0,0,0,,0,-1,0,-1,-1,RJTS 141400Z NIL=,
20180114_150000.003,0,RJTS,,,,0,20180114150000,-1,-1,-1,-1,-1,-1,-1,-1,-1,-1,-1,,-1,0,0,0,,0,-1,0,-1,-1,RJTS 141500Z NIL=,
20180114_160000.003,0,RJTS,,,,0,20180114160000,-1,-1,-1,-1,-1,-1,-1,-1,-1,-1,-1,,-1,0,0,0,,0,-1,0,-1,-1,RJTS 141600Z NIL=,
20180114_170000.003,0,RJTS,,,,0,20180114170000,-1,-1,-1,-1,-1,-1,-1,-1,-1,-1,-1,,-1,0,0,0,,0,-1,0,-1,-1,RJTS 141700Z NIL=,
20180114_180000.004,0,RJTS,,,,0,20180114180000,-1,-1,-1,-1,-1,-1,-1,-1,-1,-1,-1,,-1,0,0,0,,0,-1,0,-1,-1,RJTS 141800Z NIL=,
20180114_190000.003,0,RJTS,,,,0,20180114190000,-1,-1,-1,-1,-1,-1,-1,-1,-1,-1,-1,,-1,0,0,0,,0,-1,0,-1,-1,RJTS 141900Z NIL=,
20180114_200000.004,0,RJTS,,,,0,20180114200000,-1,-1,-1,-1,-1,-1,-1,-1,-1,-1,-1,,-1,0,0,0,,0,-1,0,-1,-1,RJTS 142000Z NIL=,
20180114_210000.003,0,RJTS,,,,0,20180114210000,-1,-1,-1,-1,310,-1,5,-1,-1,-1,-1,,9999,0,0,1,NSC -1,-1,5,-1,11,1024,RJTS 142100Z 31005KT 9999 NSC M05/M11 Q1024 RMK A3024=,
20180114_220000.003,0,RJTS,,,,0,20180114220000,-1,-1,-1,-1,310,-1,5,-1,-1,-1,-1,,9999,0,0,1,FEW 80,-1,5,-1,11,1024,RJTS 142200Z 31005KT 9999 FEW080 M05/M11 Q1024 RMK 1AC080     A3024=,
20180114_230000.003,0,RJTS,,,,0,20180114230000,-1,-1,-1,-1,330,-1,2,-1,-1,-1,-1,,9999,0,0,2,FEW 100   SCT 200,-1,2,-1,8,1023,RJTS 142300Z 33002KT 9999 FEW100 SCT200 M02/M08 Q1023 RMK     1AC100 4CI200 A3023=,
20180115_000000.003,0,RJTS,,,,0,20180115000000,-1,-1,-1,-1,80,-1,3,-1,-1,-1,-1,,9999,0,0,2,FEW 100   SCT 200,-1,1,-1,9,1023,RJTS 150000Z 08003KT 9999 FEW100 SCT200 M01/M09 Q1023 RMK     1AC100 3CI200 A3023=,
20180115_010000.003,0,RJTS,,,,0,20180115010000,-1,-1,-1,-1,999,-1,2,-1,-1,-1,-1,,9999,0,0,2,FEW 100   SCT 200,1,3,-1,10,1023,RJTS 150100Z VRB02KT 9999 FEW100 SCT200 03/M10 Q1023 RMK     1AC100 3CI200 A3021=,
20180115_020000.003,0,RJTS,,,,0,20180115020000,-1,-1,-1,-1,130,-1,3,-1,-1,-1,-1,,9999,0,0,2,FEW 120   SCT 200,1,3,-1,10,1021,RJTS 150200Z 13003KT 9999 FEW120 SCT200 03/M10 Q1021 RMK     1AC120 3CI200 A3017=,
20180115_030000.003,0,RJTS,,,,0,20180115030000,-1,-1,-1,-1,140,-1,4,-1,-1,-1,-1,,9999,0,0,2,FEW 150   SCT 200,1,4,-1,11,1020,RJTS 150300Z 14004KT 9999 FEW150 SCT200 04/M11 Q1020 RMK     1AC150 3CI200 A3013=,
20180115_040000.003,0,RJTS,,,,0,20180115040000,-1,-1,-1,-1,120,-1,4,-1,-1,-1,-1,,9999,0,0,1,FEW 150,1,5,-1,11,1018,RJTS 150400Z 12004KT 9999 FEW150 05/M11 Q1018 RMK 1AC150     A3008=,
20180115_050000.003,0,RJTS,,,,0,20180115050000,-1,-1,-1,-1,90,-1,3,-1,-1,-1,-1,,9999,0,0,1,FEW 150,1,5,-1,11,1018,RJTS 150500Z 09003KT 9999 FEW150 05/M11 Q1018 RMK 1AC150     A3006=,
20180115_060000.003,0,RJTS,,,,0,20180115060000,-1,-1,-1,-1,130,-1,2,-1,-1,-1,-1,,9999,0,0,1,FEW 150,1,5,-1,11,1017,RJTS 150600Z 13002KT 9999 FEW150 05/M11 Q1017 RMK 1AC150     A3005=,
20180115_070000.005,0,RJTS,,,,0,20180115070000,-1,-1,-1,-1,150,-1,2,-1,-1,-1,-1,,9999,0,0,1,FEW 150,1,5,-1,10,1017,RJTS 150700Z 15002KT 9999 FEW150 05/M10 Q1017 RMK 1AC150     A3004=,
20180115_080000.003,0,RJTS,,,,0,20180115080000,-1,-1,-1,-1,330,-1,3,-1,-1,-1,-1,,9999,0,0,1,FEW 80,1,1,-1,9,1018,RJTS 150800Z 33003KT 9999 FEW080 01/M09 Q1018 RMK 1AC080     A3006=,
20180115_090000.003,0,RJTS,,,,0,20180115090000,-1,-1,-1,-1,-1,-1,-1,-1,-1,-1,-1,,-1,0,0,0,,0,-1,0,-1,-1,RJTS 150900Z NIL=,
20180115_100000.003,0,RJTS,,,,0,20180115100000,-1,-1,-1,-1,-1,-1,-1,-1,-1,-1,-1,,-1,0,0,0,,0,-1,0,-1,-1,RJTS 151000Z NIL=,
20180115_110000.003,0,RJTS,,,,0,20180115110000,-1,-1,-1,-1,-1,-1,-1,-1,-1,-1,-1,,-1,0,0,0,,0,-1,0,-1,-1,RJTS 151100Z NIL=,
20180115_120000.003,0,RJTS,,,,0,20180115120000,-1,-1,-1,-1,-1,-1,-1,-1,-1,-1,-1,,-1,0,0,0,,0,-1,0,-1,-1,RJTS 151200Z NIL=,
20180115_130000.003,0,RJTS,,,,0,20180115130000,-1,-1,-1,-1,-1,-1,-1,-1,-1,-1,-1,,-1,0,0,0,,0,-1,0,-1,-1,RJTS 151300Z NIL=,
20180115_140000.003,0,RJTS,,,,0,20180115140000,-1,-1,-1,-1,-1,-1,-1,-1,-1,-1,-1,,-1,0,0,0,,0,-1,0,-1,-1,RJTS 151400Z NIL=,
20180115_150000.003,0,RJTS,,,,0,20180115150000,-1,-1,-1,-1,-1,-1,-1,-1,-1,-1,-1,,-1,0,0,0,,0,-1,0,-1,-1,RJTS 151500Z NIL=,
20180115_160000.003,0,RJTS,,,,0,20180115160000,-1,-1,-1,-1,-1,-1,-1,-1,-1,-1,-1,,-1,0,0,0,,0,-1,0,-1,-1,RJTS 151600Z NIL=,
20180115_170000.003,0,RJTS,,,,0,20180115170000,-1,-1,-1,-1,-1,-1,-1,-1,-1,-1,-1,,-1,0,0,0,,0,-1,0,-1,-1,RJTS 151700Z NIL=,
20180115_180000.003,0,RJTS,,,,0,20180115180000,-1,-1,-1,-1,-1,-1,-1,-1,-1,-1,-1,,-1,0,0,0,,0,-1,0,-1,-1,RJTS 151800Z NIL=,
20180115_190000.003,0,RJTS,,,,0,20180115190000,-1,-1,-1,-1,-1,-1,-1,-1,-1,-1,-1,,-1,0,0,0,,0,-1,0,-1,-1,RJTS 151900Z NIL=,
20180115_200000.003,0,RJTS,,,,0,20180115200000,-1,-1,-1,-1,-1,-1,-1,-1,-1,-1,-1,,-1,0,0,0,,0,-1,0,-1,-1,RJTS 152000Z NIL=,
20180115_210000.003,0,RJTS,,,,0,20180115210000,-1,-1,-1,-1,310,-1,4,-1,-1,-1,-1,,9999,0,0,1,FEW 180,1,2,-1,4,1018,RJTS 152100Z 31004KT 9999 FEW180 02/M04 Q1018 RMK 1AC180     A3008=,
20180115_220000.003,0,RJTS,,,,0,20180115220000,-1,-1,-1,-1,300,-1,5,-1,-1,-1,-1,,9999,0,0,1,FEW 200,1,1,-1,4,1019,RJTS 152200Z 30005KT 9999 FEW200 01/M04 Q1019 RMK 1CI200     A3009=,
20180115_230000.003,0,RJTS,,,,0,20180115230000,-1,-1,-1,-1,290,-1,2,-1,-1,-1,-1,,9999,0,0,1,FEW 200,1,4,-1,4,1020,RJTS 152300Z 29002KT 9999 FEW200 04/M04 Q1020 RMK 2CI200     A3012=,
20180116_000000.003,0,RJTS,,,,0,20180116000000,-1,-1,-1,-1,180,-1,2,-1,-1,-1,-1,,9999,0,0,1,FEW 200,1,7,-1,3,1020,RJTS 160000Z 18002KT 9999 FEW200 07/M03 Q1020 RMK 1CI200     A3012=,
20180116_010000.003,0,RJTS,,,,0,20180116010000,-1,-1,-1,-1,250,-1,1,-1,-1,-1,-1,,9999,0,0,1,SCT 200,1,9,-1,4,1020,RJTS 160100Z 25001KT 9999 SCT200 09/M04 Q1020 RMK 3CI200     A3012=,
20180116_020000.003,0,RJTS,,,,0,20180116020000,-1,-1,-1,-1,110,-1,6,-1,-1,-1,-1,,9999,0,0,1,BKN 200,1,9,-1,4,1019,RJTS 160200Z 11006KT 9999 BKN200 09/M04 Q1019 RMK 5CI200     A3011=,
20180116_030000.003,0,RJTS,,,,0,20180116030000,-1,-1,-1,-1,80,-1,4,-1,-1,-1,-1,,9999,0,0,1,BKN 200,1,8,-1,4,1019,RJTS 160300Z 08004KT 9999 BKN200 08/M04 Q1019 RMK 6CI200     A3009=,
20180116_040000.003,0,RJTS,,,,0,20180116040000,-1,-1,-1,-1,90,-1,4,-1,-1,-1,-1,,9999,0,0,1,BKN 200,1,9,-1,4,1018,RJTS 160400Z 09004KT 9999 BKN200 09/M04 Q1018 RMK 5CI200     A3006=,
20180116_050000.003,0,RJTS,,,,0,20180116050000,-1,-1,-1,-1,80,-1,4,-1,-1,-1,-1,,9999,0,0,1,BKN 200,1,9,-1,3,1017,RJTS 160500Z 08004KT 9999 BKN200 09/M03 Q1017 RMK 6CI200     A3005=,
20180116_060000.003,0,RJTS,,,,0,20180116060000,-1,-1,-1,-1,100,-1,2,-1,-1,-1,-1,,9999,0,0,2,FEW 40   BKN 200,1,9,-1,5,1017,RJTS 160600Z 10002KT 9999 FEW040 BKN200 09/M05 Q1017 RMK     1CU040 6CI200 A3005=,
20180116_070000.003,0,RJTS,,,,0,20180116070000,-1,-1,-1,-1,190,-1,3,-1,-1,-1,-1,,9999,0,0,2,FEW 40   BKN 200,1,9,-1,4,1017,RJTS 160700Z 19003KT 9999 FEW040 BKN200 09/M04 Q1017 RMK     1CU040 6CI200 A3003=,
20180116_080000.003,0,RJTS,,,,0,20180116080000,-1,-1,-1,-1,350,-1,2,-1,-1,-1,-1,,9999,0,0,2,FEW 40   BKN 200,1,5,-1,3,1016,RJTS 160800Z 35002KT 9999 FEW040 BKN200 05/M03 Q1016 RMK     1CU040 6CI200 A3002=,
20180116_090000.003,0,RJTS,,,,0,20180116090000,-1,-1,-1,-1,-1,-1,-1,-1,-1,-1,-1,,-1,0,0,0,,0,-1,0,-1,-1,RJTS 160900Z NIL=,
20180116_100000.003,0,RJTS,,,,0,20180116100000,-1,-1,-1,-1,-1,-1,-1,-1,-1,-1,-1,,-1,0,0,0,,0,-1,0,-1,-1,RJTS 161000Z NIL=,
20180116_110000.005,0,RJTS,,,,0,20180116110000,-1,-1,-1,-1,-1,-1,-1,-1,-1,-1,-1,,-1,0,0,0,,0,-1,0,-1,-1,RJTS 161100Z NIL=,
20180116_120000.003,0,RJTS,,,,0,20180116120000,-1,-1,-1,-1,-1,-1,-1,-1,-1,-1,-1,,-1,0,0,0,,0,-1,0,-1,-1,RJTS 161200Z NIL=,
20180116_130000.003,0,RJTS,,,,0,20180116130000,-1,-1,-1,-1,-1,-1,-1,-1,-1,-1,-1,,-1,0,0,0,,0,-1,0,-1,-1,RJTS 161300Z NIL=,
20180116_140000.003,0,RJTS,,,,0,20180116140000,-1,-1,-1,-1,-1,-1,-1,-1,-1,-1,-1,,-1,0,0,0,,0,-1,0,-1,-1,RJTS 161400Z NIL=,
20180116_150000.003,0,RJTS,,,,0,20180116150000,-1,-1,-1,-1,-1,-1,-1,-1,-1,-1,-1,,-1,0,0,0,,0,-1,0,-1,-1,RJTS 161500Z NIL=,
20180116_160000.003,0,RJTS,,,,0,20180116160000,-1,-1,-1,-1,-1,-1,-1,-1,-1,-1,-1,,-1,0,0,0,,0,-1,0,-1,-1,RJTS 161600Z NIL=,
20180116_170000.003,0,RJTS,,,,0,20180116170000,-1,-1,-1,-1,-1,-1,-1,-1,-1,-1,-1,,-1,0,0,0,,0,-1,0,-1,-1,RJTS 161700Z NIL=,
20180116_180000.003,0,RJTS,,,,0,20180116180000,-1,-1,-1,-1,-1,-1,-1,-1,-1,-1,-1,,-1,0,0,0,,0,-1,0,-1,-1,RJTS 161800Z NIL=,
20180116_190000.003,0,RJTS,,,,0,20180116190000,-1,-1,-1,-1,-1,-1,-1,-1,-1,-1,-1,,-1,0,0,0,,0,-1,0,-1,-1,RJTS 161900Z NIL=,
20180116_200000.003,0,RJTS,,,,0,20180116200000,-1,-1,-1,-1,-1,-1,-1,-1,-1,-1,-1,,-1,0,0,0,,0,-1,0,-1,-1,RJTS 162000Z NIL=,
20180116_210000.003,0,RJTS,,,,0,20180116210000,-1,-1,-1,-1,310,-1,3,-1,-1,-1,-1,,9999,0,0,2,BKN 150   BKN 200,1,4,-1,2,1014,RJTS 162100Z 31003KT 9999 BKN150 BKN200 04/M02 Q1014 RMK     5AC150 7CI200 A2994=,
20180116_220000.003,0,RJTS,,,,0,20180116220000,-1,-1,-1,-1,310,-1,4,-1,-1,-1,-1,,9999,0,0,3,FEW 70   BKN 150   BKN 200,1,4,-1,2,1014,RJTS 162200Z 31004KT 9999 FEW070 BKN150 BKN200 04/M02 Q1014     RMK 1AC070 5AC150 7CI200 A2996=,
20180116_230000.003,0,RJTS,,,,0,20180116230000,-1,-1,-1,-1,270,-1,3,-1,-1,-1,-1,,9999,0,0,3,FEW 50   BKN 100   BKN 150,1,5,-1,2,1015,RJTS 162300Z 27003KT 9999 FEW050 BKN100 BKN150 05/M02 Q1015     RMK 1SC050 5AC100 5AC150 A2997=,
20180117_000000.004,0,RJTS,,,,0,20180117000000,-1,-1,-1,-1,20,-1,3,-1,-1,-1,-1,,9999,0,0,3,FEW 50   BKN 100   BKN 120,1,6,-1,2,1015,RJTS 170000Z 02003KT 9999 FEW050 BKN100 BKN120 06/M02 Q1015     RMK 1SC050 5AC100 5AC120 A2997=,
20180117_010000.003,0,RJTS,,,,0,20180117010000,-1,-1,-1,-1,40,-1,3,-1,-1,-1,-1,,9999,0,0,3,FEW 50   SCT 70   BKN 100,1,7,-1,2,1015,RJTS 170100Z 04003KT 9999 FEW050 SCT070 BKN100 07/M02 Q1015     RMK 1SC050 3AC070 5AC100 A2998=,
20180117_020000.006,0,RJTS,,,,0,20180117020000,-1,-1,-1,-1,120,-1,2,-1,-1,-1,-1,,9999,0,0,3,FEW 40   BKN 70   BKN 150,1,8,-1,3,1014,RJTS 170200Z 12002KT 9999 FEW040 BKN070 BKN150 08/M03 Q1014     RMK 1SC040 5AC070 6AC150 A2996=,
20180117_030000.004,0,RJTS,,,,0,20180117030000,-1,-1,-1,-1,220,-1,3,-1,-1,-1,-1,,9999,0,0,3,FEW 40   BKN 70   BKN 150,1,8,-1,3,1013,RJTS 170300Z 22003KT 9999 FEW040 BKN070 BKN150 08/M03 Q1013     RMK 1SC040 5AC070 6AC150 A2992=,
20180117_040000.004,0,RJTS,,,,0,20180117040000,-1,-1,-1,-1,210,-1,4,-1,-1,-1,-1,,9999,0,1,3,FEW 30   BKN 70   BKN 100,1,8,-1,2,1012,RJTS 170400Z 21004KT 9999 -RA FEW030 BKN070 BKN100 08/M02     Q1012 RMK 2SC030 6AC070 7AC100 A2989=,- RA
20180117_050000.004,0,RJTS,,,,0,20180117050000,-1,-1,-1,-1,280,-1,3,-1,-1,-1,-1,,9999,0,1,3,FEW 25   BKN 40   BKN 70,1,8,-1,1,1011,RJTS 170500Z 28003KT 9999 -RA FEW025 BKN040 BKN070 08/M01     Q1011 RMK 2SC025 6SC040 7AC070 A2987=,- RA
20180117_060000.003,0,RJTS,,,,0,20180117060000,-1,-1,-1,-1,40,-1,3,-1,-1,-1,-1,,9999,0,1,3,FEW 20   BKN 30   BKN 40,1,7,1,1,1011,RJTS 170600Z 04003KT 9999 -RA FEW020 BKN030 BKN040 07/01 Q1011     RMK 2SC020 5SC030 7SC040 A2985=,- RA
20180117_070000.004,0,RJTS,,,,0,20180117070000,-1,-1,-1,-1,320,-1,1,-1,-1,-1,-1,,5000,0,2,3,FEW 0   BKN 25   BKN 40,1,5,1,4,1011,RJTS 170700Z 32001KT 5000 -RA BR FEW000 BKN025 BKN040 05/04     Q1011 RMK 1ST000 5SC025 7SC040 A2986=,- RA; BR
20180117_080000.003,0,RJTS,,,,0,20180117080000,-1,-1,-1,-1,240,-1,1,-1,-1,-1,-1,,3000,0,2,3,FEW 0   BKN 20   BKN 30,1,5,1,4,1009,RJTS 170800Z 24001KT 3000 -RA BR FEW000 BKN020 BKN030 05/04     Q1009 RMK 2ST000 5SC020 7SC030 A2981=,- RA; BR
20180117_090000.004,0,RJTS,,,,0,20180117090000,-1,-1,-1,-1,-1,-1,-1,-1,-1,-1,-1,,-1,0,0,0,,0,-1,0,-1,-1,RJTS 170900Z NIL=,
20180117_100000.003,0,RJTS,,,,0,20180117100000,-1,-1,-1,-1,-1,-1,-1,-1,-1,-1,-1,,-1,0,0,0,,0,-1,0,-1,-1,RJTS 171000Z NIL=,
20180117_110000.004,0,RJTS,,,,0,20180117110000,-1,-1,-1,-1,-1,-1,-1,-1,-1,-1,-1,,-1,0,0,0,,0,-1,0,-1,-1,RJTS 171100Z NIL=,
20180117_120000.004,0,RJTS,,,,0,20180117120000,-1,-1,-1,-1,-1,-1,-1,-1,-1,-1,-1,,-1,0,0,0,,0,-1,0,-1,-1,RJTS 171200Z NIL=,
20180117_130000.003,0,RJTS,,,,0,20180117130000,-1,-1,-1,-1,-1,-1,-1,-1,-1,-1,-1,,-1,0,0,0,,0,-1,0,-1,-1,RJTS 171300Z NIL=,
20180117_140000.003,0,RJTS,,,,0,20180117140000,-1,-1,-1,-1,-1,-1,-1,-1,-1,-1,-1,,-1,0,0,0,,0,-1,0,-1,-1,RJTS 171400Z NIL=,
20180117_150000.003,0,RJTS,,,,0,20180117150000,-1,-1,-1,-1,-1,-1,-1,-1,-1,-1,-1,,-1,0,0,0,,0,-1,0,-1,-1,RJTS 171500Z NIL=,
20180117_160000.003,0,RJTS,,,,0,20180117160000,-1,-1,-1,-1,-1,-1,-1,-1,-1,-1,-1,,-1,0,0,0,,0,-1,0,-1,-1,RJTS 171600Z NIL=,
20180117_170000.003,0,RJTS,,,,0,20180117170000,-1,-1,-1,-1,-1,-1,-1,-1,-1,-1,-1,,-1,0,0,0,,0,-1,0,-1,-1,RJTS 171700Z NIL=,
20180117_180000.003,0,RJTS,,,,0,20180117180000,-1,-1,-1,-1,-1,-1,-1,-1,-1,-1,-1,,-1,0,0,0,,0,-1,0,-1,-1,RJTS 171800Z NIL=,
20180117_190000.004,0,RJTS,,,,0,20180117190000,-1,-1,-1,-1,-1,-1,-1,-1,-1,-1,-1,,-1,0,0,0,,0,-1,0,-1,-1,RJTS 171900Z NIL=,
20180117_200000.003,0,RJTS,,,,0,20180117200000,-1,-1,-1,-1,-1,-1,-1,-1,-1,-1,-1,,-1,0,0,0,,0,-1,0,-1,-1,RJTS 172000Z NIL=,
20180117_210000.003,0,RJTS,,,,0,20180117210000,-1,-1,-1,-1,320,-1,3,-1,-1,-1,-1,,9999,0,0,1,FEW 230,1,2,1,0,1011,RJTS 172100Z 32003KT 9999 FEW230 02/00 Q1011 RMK 2CI230 A2986=,
20180117_220000.004,0,RJTS,,,,0,20180117220000,-1,-1,-1,-1,320,-1,7,-1,-1,-1,-1,,9999,0,0,1,SCT 200,1,5,-1,3,1012,RJTS 172200Z 32007KT 9999 SCT200 05/M03 Q1012 RMK 4CI200     A2989=,
20180117_230000.003,0,RJTS,,,,0,20180117230000,-1,-1,-1,-1,330,-1,5,-1,-1,-1,-1,,9999,0,0,1,FEW 200,1,8,-1,2,1012,RJTS 172300Z 33005KT 9999 FEW200 08/M02 Q1012 RMK 2CI200     A2989=,
20180118_000000.003,0,RJTS,,,,0,20180118000000,-1,-1,-1,-1,340,-1,7,-1,-1,-1,-1,,9999,0,0,1,FEW 200,1,9,-1,2,1012,RJTS 180000Z 34007KT 9999 FEW200 09/M02 Q1012 RMK 2CI200     A2990=,
20180118_010000.003,0,RJTS,,,,0,20180118010000,-1,-1,-1,-1,20,-1,10,-1,20,-1,-1,,9999,0,0,1,SCT 200,1,10,-1,1,1012,RJTS 180100Z 02010G20KT 9999 SCT200 10/M01 Q1012 RMK 3CI200     A2989=,
20180118_020000.003,0,RJTS,,,,0,20180118020000,-1,-1,-1,-1,40,-1,11,-1,-1,-1,-1,,9999,0,0,1,BKN 200,1,10,1,0,1011,RJTS 180200Z 04011KT 9999 BKN200 10/00 Q1011 RMK 6CI200 A2987=,
20180118_030000.004,0,RJTS,,,,0,20180118030000,-1,-1,-1,-1,30,-1,9,-1,-1,-1,-1,,9999,0,0,2,FEW 100   BKN 200,1,11,-1,0,1010,RJTS 180300Z 03009KT 9999 FEW100 BKN200 11/M00 Q1010 RMK     1AC100 6CI200 A2984 MAX WIND 17KT=,
20180118_040000.003,0,RJTS,,,,0,20180118040000,-1,-1,-1,-1,240,-1,3,-1,-1,-1,-1,,9999,0,0,2,FEW 80   BKN 200,1,12,1,1,1010,RJTS 180400Z 24003KT 9999 FEW080 BKN200 12/01 Q1010 RMK 1AC080     7CI200 A2984=,
20180118_050000.003,0,RJTS,,,,0,20180118050000,-1,-1,-1,-1,170,-1,4,-1,-1,-1,-1,,9999,0,0,2,FEW 70   BKN 200,1,12,-1,1,1010,RJTS 180500Z 17004KT 9999 FEW070 BKN200 12/M01 Q1010 RMK     1AC070 7CI200 A2985=,
20180118_060000.003,0,RJTS,,,,0,20180118060000,-1,-1,-1,-1,70,-1,4,-1,-1,-1,-1,,9999,0,0,3,FEW 40   SCT 100   BKN 200,1,12,-1,2,1011,RJTS 180600Z 07004KT 9999 FEW040 SCT100 BKN200 12/M02 Q1011     RMK 1SC040 3AC100 7CI200 A2986=,
20180118_070000.003,0,RJTS,,,,0,20180118070000,-1,-1,-1,-1,30,-1,8,-1,-1,-1,-1,,9999,0,0,3,FEW 40   SCT 100   BKN 200,1,11,-1,2,1012,RJTS 180700Z 03008KT 9999 FEW040 SCT100 BKN200 11/M02 Q1012     RMK 1SC040 3AC100 7CI200 A2988=,
20180118_080000.003,0,RJTS,,,,0,20180118080000,-1,-1,-1,-1,40,-1,5,-1,-1,-1,-1,,9999,0,0,2,FEW 40   BKN 200,1,9,-1,1,1012,RJTS 180800Z 04005KT 9999 FEW040 BKN200 09/M01 Q1012 RMK     1SC040 7CI200 A2989=,
20180118_090000.003,0,RJTS,,,,0,20180118090000,-1,-1,-1,-1,-1,-1,-1,-1,-1,-1,-1,,-1,0,0,0,,0,-1,0,-1,-1,RJTS 180900Z NIL=,
20180118_100000.003,0,RJTS,,,,0,20180118100000,-1,-1,-1,-1,-1,-1,-1,-1,-1,-1,-1,,-1,0,0,0,,0,-1,0,-1,-1,RJTS 181000Z NIL=,
20180118_110000.003,0,RJTS,,,,0,20180118110000,-1,-1,-1,-1,-1,-1,-1,-1,-1,-1,-1,,-1,0,0,0,,0,-1,0,-1,-1,RJTS 181100Z NIL=,
20180118_120000.003,0,RJTS,,,,0,20180118120000,-1,-1,-1,-1,-1,-1,-1,-1,-1,-1,-1,,-1,0,0,0,,0,-1,0,-1,-1,RJTS 181200Z NIL=,
20180118_130000.003,0,RJTS,,,,0,20180118130000,-1,-1,-1,-1,-1,-1,-1,-1,-1,-1,-1,,-1,0,0,0,,0,-1,0,-1,-1,RJTS 181300Z NIL=,
20180118_140000.003,0,RJTS,,,,0,20180118140000,-1,-1,-1,-1,-1,-1,-1,-1,-1,-1,-1,,-1,0,0,0,,0,-1,0,-1,-1,RJTS 181400Z NIL=,
20180118_150000.003,0,RJTS,,,,0,20180118150000,-1,-1,-1,-1,-1,-1,-1,-1,-1,-1,-1,,-1,0,0,0,,0,-1,0,-1,-1,RJTS 181500Z NIL=,
20180118_160000.003,0,RJTS,,,,0,20180118160000,-1,-1,-1,-1,-1,-1,-1,-1,-1,-1,-1,,-1,0,0,0,,0,-1,0,-1,-1,RJTS 181600Z NIL=,
20180118_170000.003,0,RJTS,,,,0,20180118170000,-1,-1,-1,-1,-1,-1,-1,-1,-1,-1,-1,,-1,0,0,0,,0,-1,0,-1,-1,RJTS 181700Z NIL=,
20180118_180000.003,0,RJTS,,,,0,20180118180000,-1,-1,-1,-1,-1,-1,-1,-1,-1,-1,-1,,-1,0,0,0,,0,-1,0,-1,-1,RJTS 181800Z NIL=,
20180118_190000.003,0,RJTS,,,,0,20180118190000,-1,-1,-1,-1,-1,-1,-1,-1,-1,-1,-1,,-1,0,0,0,,0,-1,0,-1,-1,RJTS 181900Z NIL=,
20180118_200000.003,0,RJTS,,,,0,20180118200000,-1,-1,-1,-1,-1,-1,-1,-1,-1,-1,-1,,-1,0,0,0,,0,-1,0,-1,-1,RJTS 182000Z NIL=,
20180118_210000.004,0,RJTS,,,,0,20180118210000,-1,-1,-1,-1,330,-1,7,-1,-1,-1,-1,,9999,0,0,1,FEW 230,1,4,-1,6,1017,RJTS 182100Z 33007KT 9999 FEW230 04/M06 Q1017 RMK 1CI230     A3003=,
20180118_220000.003,0,RJTS,,,,0,20180118220000,-1,-1,-1,-1,350,-1,8,-1,-1,-1,-1,,9999,0,0,1,FEW 30,1,4,-1,6,1018,RJTS 182200Z 35008KT 9999 FEW030 04/M06 Q1018 RMK 1CU030     A3006=,
20180118_230000.004,0,RJTS,,,,0,20180118230000,-1,-1,-1,-1,330,-1,4,-1,-1,-1,-1,,9999,0,0,2,FEW 30   SCT 230,1,4,-1,6,1018,RJTS 182300Z 33004KT 9999 FEW030 SCT230 04/M06 Q1018 RMK     1CU030 3CI230 A3007=,
20180119_000000.003,0,RJTS,,,,0,20180119000000,-1,-1,-1,-1,320,-1,4,-1,-1,-1,-1,,9999,0,0,2,FEW 30   BKN 230,1,5,-1,6,1019,RJTS 190000Z 32004KT 9999 FEW030 BKN230 05/M06 Q1019 RMK     1CU030 6CI230 A3009=,
20180119_010000.004,0,RJTS,,,,0,20180119010000,-1,-1,-1,-1,180,-1,4,-1,-1,-1,-1,,9999,0,0,2,FEW 30   BKN 230,1,5,-1,5,1018,RJTS 190100Z 18004KT 9999 FEW030 BKN230 05/M05 Q1018 RMK     1CU030 7CI230 A3008=,
20180119_020000.003,0,RJTS,,,,0,20180119020000,-1,-1,-1,-1,999,-1,2,-1,-1,-1,-1,,9999,0,0,2,FEW 40   BKN 230,1,7,-1,6,1018,RJTS 190200Z VRB02KT 9999 FEW040 BKN230 07/M06 Q1018 RMK     1CU040 6CI230 A3006=,
20180119_030000.003,0,RJTS,,,,0,20180119030000,-1,-1,-1,-1,30,-1,8,-1,-1,-1,-1,,9999,0,0,2,FEW 40   BKN 230,1,8,-1,6,1017,RJTS 190300Z 03008KT 9999 FEW040 BKN230 08/M06 Q1017 RMK     1CU040 5CI230 A3003=,
20180119_040000.003,0,RJTS,,,,0,20180119040000,-1,-1,-1,-1,30,-1,11,-1,-1,-1,-1,,9999,0,0,1,FEW 40,1,8,-1,7,1015,RJTS 190400Z 03011KT 9999 FEW040 08/M07 Q1015 RMK 1CU040     A3000=,
20180119_050000.004,0,RJTS,,,,0,20180119050000,-1,-1,-1,-1,10,-1,4,-1,-1,-1,-1,,9999,0,0,1,FEW 40,1,9,-1,7,1015,RJTS 190500Z 01004KT 9999 FEW040 09/M07 Q1015 RMK 1CU040     A2998=,
20180119_060000.003,0,RJTS,,,,0,20180119060000,-1,-1,-1,-1,60,-1,10,-1,-1,-1,-1,,9999,0,0,1,FEW 50,1,8,-1,9,1015,RJTS 190600Z 06010KT 9999 FEW050 08/M09 Q1015 RMK 1CU050     A2999=,
20180119_070000.003,0,RJTS,,,,0,20180119070000,-1,-1,-1,-1,40,-1,9,-1,-1,-1,-1,,9999,0,0,2,FEW 50   SCT 100,1,7,-1,9,1015,RJTS 190700Z 04009KT 9999 FEW050 SCT100 07/M09 Q1015 RMK     1CU050 3AC100 A2999=,
20180119_080000.003,0,RJTS,,,,0,20180119080000,-1,-1,-1,-1,20,-1,8,-1,-1,-1,-1,,9999,0,0,2,FEW 50   BKN 230,1,6,-1,8,1016,RJTS 190800Z 02008KT 9999 FEW050 BKN230 06/M08 Q1016 RMK     2SC050 5CI230 A3000=,
20180119_090000.004,0,RJTS,,,,0,20180119090000,-1,-1,-1,-1,-1,-1,-1,-1,-1,-1,-1,,-1,0,0,0,,0,-1,0,-1,-1,RJTS 190900Z NIL=,
20180119_100000.003,0,RJTS,,,,0,20180119100000,-1,-1,-1,-1,-1,-1,-1,-1,-1,-1,-1,,-1,0,0,0,,0,-1,0,-1,-1,RJTS 191000Z NIL=,
20180119_110000.003,0,RJTS,,,,0,20180119110000,-1,-1,-1,-1,-1,-1,-1,-1,-1,-1,-1,,-1,0,0,0,,0,-1,0,-1,-1,RJTS 191100Z NIL=,
20180119_120000.004,0,RJTS,,,,0,20180119120000,-1,-1,-1,-1,-1,-1,-1,-1,-1,-1,-1,,-1,0,0,0,,0,-1,0,-1,-1,RJTS 191200Z NIL=,
20180119_130000.003,0,RJTS,,,,0,20180119130000,-1,-1,-1,-1,-1,-1,-1,-1,-1,-1,-1,,-1,0,0,0,,0,-1,0,-1,-1,RJTS 191300Z NIL=,
20180119_140000.003,0,RJTS,,,,0,20180119140000,-1,-1,-1,-1,-1,-1,-1,-1,-1,-1,-1,,-1,0,0,0,,0,-1,0,-1,-1,RJTS 191400Z NIL=,
20180119_150000.003,0,RJTS,,,,0,20180119150000,-1,-1,-1,-1,-1,-1,-1,-1,-1,-1,-1,,-1,0,0,0,,0,-1,0,-1,-1,RJTS 191500Z NIL=,
20180119_160000.003,0,RJTS,,,,0,20180119160000,-1,-1,-1,-1,-1,-1,-1,-1,-1,-1,-1,,-1,0,0,0,,0,-1,0,-1,-1,RJTS 191600Z NIL=,
20180119_170000.003,0,RJTS,,,,0,20180119170000,-1,-1,-1,-1,-1,-1,-1,-1,-1,-1,-1,,-1,0,0,0,,0,-1,0,-1,-1,RJTS 191700Z NIL=,
20180119_180000.004,0,RJTS,,,,0,20180119180000,-1,-1,-1,-1,-1,-1,-1,-1,-1,-1,-1,,-1,0,0,0,,0,-1,0,-1,-1,RJTS 191800Z NIL=,
20180119_190000.004,0,RJTS,,,,0,20180119190000,-1,-1,-1,-1,-1,-1,-1,-1,-1,-1,-1,,-1,0,0,0,,0,-1,0,-1,-1,RJTS 191900Z NIL=,
20180119_200000.003,0,RJTS,,,,0,20180119200000,-1,-1,-1,-1,-1,-1,-1,-1,-1,-1,-1,,-1,0,0,0,,0,-1,0,-1,-1,RJTS 192000Z NIL=,
20180119_210000.003,0,RJTS,,,,0,20180119210000,-1,-1,-1,-1,-1,-1,-1,-1,-1,-1,-1,,-1,0,0,0,,0,-1,0,-1,-1,RJTS 192100Z NIL=,
20180119_220000.003,0,RJTS,,,,0,20180119220000,-1,-1,-1,-1,-1,-1,-1,-1,-1,-1,-1,,-1,0,0,0,,0,-1,0,-1,-1,RJTS 192200Z NIL=,
20180119_230000.003,0,RJTS,,,,0,20180119230000,-1,-1,-1,-1,-1,-1,-1,-1,-1,-1,-1,,-1,0,0,0,,0,-1,0,-1,-1,RJTS 192300Z NIL=,
20180120_000000.003,0,RJTS,,,,0,20180120000000,-1,-1,-1,-1,-1,-1,-1,-1,-1,-1,-1,,-1,0,0,0,,0,-1,0,-1,-1,RJTS 200000Z NIL=,
20180120_010000.003,0,RJTS,,,,0,20180120010000,-1,-1,-1,-1,-1,-1,-1,-1,-1,-1,-1,,-1,0,0,0,,0,-1,0,-1,-1,RJTS 200100Z NIL=,
20180120_020000.004,0,RJTS,,,,0,20180120020000,-1,-1,-1,-1,-1,-1,-1,-1,-1,-1,-1,,-1,0,0,0,,0,-1,0,-1,-1,RJTS 200200Z NIL=,
20180120_030000.003,0,RJTS,,,,0,20180120030000,-1,-1,-1,-1,-1,-1,-1,-1,-1,-1,-1,,-1,0,0,0,,0,-1,0,-1,-1,RJTS 200300Z NIL=,
20180120_040000.003,0,RJTS,,,,0,20180120040000,-1,-1,-1,-1,-1,-1,-1,-1,-1,-1,-1,,-1,0,0,0,,0,-1,0,-1,-1,RJTS 200400Z NIL=,
20180120_050000.003,0,RJTS,,,,0,20180120050000,-1,-1,-1,-1,-1,-1,-1,-1,-1,-1,-1,,-1,0,0,0,,0,-1,0,-1,-1,RJTS 200500Z NIL=,
20180120_060000.003,0,RJTS,,,,0,20180120060000,-1,-1,-1,-1,-1,-1,-1,-1,-1,-1,-1,,-1,0,0,0,,0,-1,0,-1,-1,RJTS 200600Z NIL=,
20180120_070000.003,0,RJTS,,,,0,20180120070000,-1,-1,-1,-1,-1,-1,-1,-1,-1,-1,-1,,-1,0,0,0,,0,-1,0,-1,-1,RJTS 200700Z NIL=,
20180120_080000.003,0,RJTS,,,,0,20180120080000,-1,-1,-1,-1,-1,-1,-1,-1,-1,-1,-1,,-1,0,0,0,,0,-1,0,-1,-1,RJTS 200800Z NIL=,
20180120_090000.003,0,RJTS,,,,0,20180120090000,-1,-1,-1,-1,-1,-1,-1,-1,-1,-1,-1,,-1,0,0,0,,0,-1,0,-1,-1,RJTS 200900Z NIL=,
20180120_100000.003,0,RJTS,,,,0,20180120100000,-1,-1,-1,-1,-1,-1,-1,-1,-1,-1,-1,,-1,0,0,0,,0,-1,0,-1,-1,RJTS 201000Z NIL=,
20180120_110000.003,0,RJTS,,,,0,20180120110000,-1,-1,-1,-1,-1,-1,-1,-1,-1,-1,-1,,-1,0,0,0,,0,-1,0,-1,-1,RJTS 201100Z NIL=,
20180120_120000.003,0,RJTS,,,,0,20180120120000,-1,-1,-1,-1,-1,-1,-1,-1,-1,-1,-1,,-1,0,0,0,,0,-1,0,-1,-1,RJTS 201200Z NIL=,
20180120_130000.003,0,RJTS,,,,0,20180120130000,-1,-1,-1,-1,-1,-1,-1,-1,-1,-1,-1,,-1,0,0,0,,0,-1,0,-1,-1,RJTS 201300Z NIL=,
20180120_140000.003,0,RJTS,,,,0,20180120140000,-1,-1,-1,-1,-1,-1,-1,-1,-1,-1,-1,,-1,0,0,0,,0,-1,0,-1,-1,RJTS 201400Z NIL=,
20180120_150000.003,0,RJTS,,,,0,20180120150000,-1,-1,-1,-1,-1,-1,-1,-1,-1,-1,-1,,-1,0,0,0,,0,-1,0,-1,-1,RJTS 201500Z NIL=,
20180120_160000.003,0,RJTS,,,,0,20180120160000,-1,-1,-1,-1,-1,-1,-1,-1,-1,-1,-1,,-1,0,0,0,,0,-1,0,-1,-1,RJTS 201600Z NIL=,
20180120_170000.003,0,RJTS,,,,0,20180120170000,-1,-1,-1,-1,-1,-1,-1,-1,-1,-1,-1,,-1,0,0,0,,0,-1,0,-1,-1,RJTS 201700Z NIL=,
20180120_180000.003,0,RJTS,,,,0,20180120180000,-1,-1,-1,-1,-1,-1,-1,-1,-1,-1,-1,,-1,0,0,0,,0,-1,0,-1,-1,RJTS 201800Z NIL=,
20180120_190000.004,0,RJTS,,,,0,20180120190000,-1,-1,-1,-1,-1,-1,-1,-1,-1,-1,-1,,-1,0,0,0,,0,-1,0,-1,-1,RJTS 201900Z NIL=,
20180120_200000.003,0,RJTS,,,,0,20180120200000,-1,-1,-1,-1,-1,-1,-1,-1,-1,-1,-1,,-1,0,0,0,,0,-1,0,-1,-1,RJTS 202000Z NIL=,
20180120_210000.003,0,RJTS,,,,0,20180120210000,-1,-1,-1,-1,-1,-1,-1,-1,-1,-1,-1,,-1,0,0,0,,0,-1,0,-1,-1,RJTS 202100Z NIL=,
20180120_220000.003,0,RJTS,,,,0,20180120220000,-1,-1,-1,-1,-1,-1,-1,-1,-1,-1,-1,,-1,0,0,0,,0,-1,0,-1,-1,RJTS 202200Z NIL=,
20180120_230000.003,0,RJTS,,,,0,20180120230000,-1,-1,-1,-1,-1,-1,-1,-1,-1,-1,-1,,-1,0,0,0,,0,-1,0,-1,-1,RJTS 202300Z NIL=,
20180121_000000.003,0,RJTS,,,,0,20180121000000,-1,-1,-1,-1,-1,-1,-1,-1,-1,-1,-1,,-1,0,0,0,,0,-1,0,-1,-1,RJTS 210000Z NIL=,
20180121_010000.003,0,RJTS,,,,0,20180121010000,-1,-1,-1,-1,-1,-1,-1,-1,-1,-1,-1,,-1,0,0,0,,0,-1,0,-1,-1,RJTS 210100Z NIL=,
20180121_020000.003,0,RJTS,,,,0,20180121020000,-1,-1,-1,-1,-1,-1,-1,-1,-1,-1,-1,,-1,0,0,0,,0,-1,0,-1,-1,RJTS 210200Z NIL=,
20180121_030000.003,0,RJTS,,,,0,20180121030000,-1,-1,-1,-1,-1,-1,-1,-1,-1,-1,-1,,-1,0,0,0,,0,-1,0,-1,-1,RJTS 210300Z NIL=,
20180121_040000.004,0,RJTS,,,,0,20180121040000,-1,-1,-1,-1,-1,-1,-1,-1,-1,-1,-1,,-1,0,0,0,,0,-1,0,-1,-1,RJTS 210400Z NIL=,
20180121_050000.003,0,RJTS,,,,0,20180121050000,-1,-1,-1,-1,-1,-1,-1,-1,-1,-1,-1,,-1,0,0,0,,0,-1,0,-1,-1,RJTS 210500Z NIL=,
20180121_060000.003,0,RJTS,,,,0,20180121060000,-1,-1,-1,-1,-1,-1,-1,-1,-1,-1,-1,,-1,0,0,0,,0,-1,0,-1,-1,RJTS 210600Z NIL=,
20180121_070000.003,0,RJTS,,,,0,20180121070000,-1,-1,-1,-1,-1,-1,-1,-1,-1,-1,-1,,-1,0,0,0,,0,-1,0,-1,-1,RJTS 210700Z NIL=,
20180121_080000.003,0,RJTS,,,,0,20180121080000,-1,-1,-1,-1,-1,-1,-1,-1,-1,-1,-1,,-1,0,0,0,,0,-1,0,-1,-1,RJTS 210800Z NIL=,
20180121_090000.003,0,RJTS,,,,0,20180121090000,-1,-1,-1,-1,-1,-1,-1,-1,-1,-1,-1,,-1,0,0,0,,0,-1,0,-1,-1,RJTS 210900Z NIL=,
20180121_100000.003,0,RJTS,,,,0,20180121100000,-1,-1,-1,-1,-1,-1,-1,-1,-1,-1,-1,,-1,0,0,0,,0,-1,0,-1,-1,RJTS 211000Z NIL=,
20180121_110000.003,0,RJTS,,,,0,20180121110000,-1,-1,-1,-1,-1,-1,-1,-1,-1,-1,-1,,-1,0,0,0,,0,-1,0,-1,-1,RJTS 211100Z NIL=,
20180121_120000.003,0,RJTS,,,,0,20180121120000,-1,-1,-1,-1,-1,-1,-1,-1,-1,-1,-1,,-1,0,0,0,,0,-1,0,-1,-1,RJTS 211200Z NIL=,
20180121_130000.004,0,RJTS,,,,0,20180121130000,-1,-1,-1,-1,-1,-1,-1,-1,-1,-1,-1,,-1,0,0,0,,0,-1,0,-1,-1,RJTS 211300Z NIL=,
20180121_140000.003,0,RJTS,,,,0,20180121140000,-1,-1,-1,-1,-1,-1,-1,-1,-1,-1,-1,,-1,0,0,0,,0,-1,0,-1,-1,RJTS 211400Z NIL=,
20180121_150000.003,0,RJTS,,,,0,20180121150000,-1,-1,-1,-1,-1,-1,-1,-1,-1,-1,-1,,-1,0,0,0,,0,-1,0,-1,-1,RJTS 211500Z NIL=,
20180121_160000.003,0,RJTS,,,,0,20180121160000,-1,-1,-1,-1,-1,-1,-1,-1,-1,-1,-1,,-1,0,0,0,,0,-1,0,-1,-1,RJTS 211600Z NIL=,
20180121_170000.003,0,RJTS,,,,0,20180121170000,-1,-1,-1,-1,-1,-1,-1,-1,-1,-1,-1,,-1,0,0,0,,0,-1,0,-1,-1,RJTS 211700Z NIL=,
20180121_180000.003,0,RJTS,,,,0,20180121180000,-1,-1,-1,-1,-1,-1,-1,-1,-1,-1,-1,,-1,0,0,0,,0,-1,0,-1,-1,RJTS 211800Z NIL=,
20180121_190000.003,0,RJTS,,,,0,20180121190000,-1,-1,-1,-1,-1,-1,-1,-1,-1,-1,-1,,-1,0,0,0,,0,-1,0,-1,-1,RJTS 211900Z NIL=,
20180121_200000.003,0,RJTS,,,,0,20180121200000,-1,-1,-1,-1,-1,-1,-1,-1,-1,-1,-1,,-1,0,0,0,,0,-1,0,-1,-1,RJTS 212000Z NIL=,
20180121_210000.003,0,RJTS,,,,0,20180121210000,-1,-1,-1,-1,340,-1,2,-1,-1,-1,-1,,9999,0,0,3,FEW 40   SCT 100   BKN 150,-1,2,-1,8,1018,RJTS 212100Z 34002KT 9999 FEW040 SCT100 BKN150 M02/M08 Q1018     RMK 1SC040 3AC100 7AC150 A3006=,
20180121_220000.003,0,RJTS,,,,0,20180121220000,-1,-1,-1,-1,330,-1,2,-1,-1,-1,-1,,9999,0,0,3,FEW 50   SCT 100   BKN 150,-1,2,-1,8,1019,RJTS 212200Z 33002KT 9999 FEW050 SCT100 BKN150 M02/M08 Q1019     RMK 1SC050 3AC100 7AC150 A3009=,
20180121_230000.003,0,RJTS,,,,0,20180121230000,-1,-1,-1,-1,999,-1,2,-1,-1,-1,-1,,9999,0,0,3,FEW 40   SCT 100   BKN 150,-1,1,-1,7,1018,RJTS 212300Z VRB02KT 9999 FEW040 SCT100 BKN150 M01/M07 Q1018     RMK 2SC040 3AC100 7AC150 A3009=,
20180122_000000.003,0,RJTS,,,,0,20180122000000,-1,-1,-1,-1,290,-1,1,-1,-1,-1,-1,,9999,0,0,3,FEW 30   BKN 40   BKN 100,1,1,-1,8,1019,RJTS 220000Z 29001KT 9999 FEW030 BKN040 BKN100 01/M08 Q1019     RMK 1SC030 5SC040 6AC100 A3010=,
20180122_010000.003,0,RJTS,,,,0,20180122010000,-1,-1,-1,-1,999,-1,1,-1,-1,-1,-1,,9999,0,0,3,FEW 30   BKN 40   BKN 100,1,1,-1,8,1019,RJTS 220100Z VRB01KT 9999 FEW030 BKN040 BKN100 01/M08 Q1019     RMK 1SC030 5SC040 7AC100 A3010=,
20180122_020000.003,0,RJTS,,,,0,20180122020000,-1,-1,-1,-1,180,-1,2,-1,-1,-1,-1,,9999,0,0,3,FEW 25   BKN 35   BKN 100,1,1,-1,7,1018,RJTS 220200Z 18002KT 9999 FEW025 BKN035 BKN100 01/M07 Q1018     RMK 1SC025 5SC035 7AC100 A3006=,
20180122_030000.003,0,RJTS,,,,0,20180122030000,-1,-1,-1,-1,160,-1,4,-1,-1,-1,-1,,9999,0,0,3,FEW 25   BKN 35   BKN 80,1,1,-1,8,1016,RJTS 220300Z 16004KT 9999 FEW025 BKN035 BKN080 01/M08 Q1016     RMK 1SC025 6SC035 7AC080 A3001=,
20180122_040000.003,0,RJTS,,,,0,20180122040000,-1,-1,-1,-1,140,-1,4,-1,-1,-1,-1,,9000,0,1,3,FEW 10   BKN 30   BKN 80,1,1,-1,7,1015,RJTS 220400Z 14004KT 9000 -SHSN FEW010 BKN030 BKN080 01/M07     Q1015 RMK 1ST010 6SC030 7AC080 A2997=,- SN SH
20180122_050000.003,0,RJTS,,,,0,20180122050000,-1,-1,-1,-1,140,-1,3,-1,-1,-1,-1,,1000,0,2,3,SCT 0   SCT 3   BKN 8,-1,2,-1,3,1013,RJTS 220500Z 14003KT 1000 -SN BR SCT000 SCT003 BKN008 M02/M03     Q1013 RMK 3ST000 4ST003 7ST008 A2994=,- SN; BR
20180122_060000.004,0,RJTS,,,,0,20180122060000,-1,-1,-1,-1,170,-1,4,-1,-1,-1,-1,,800,0,2,3,SCT 0   SCT 3   BKN 8,-1,2,-1,3,1013,RJTS 220600Z 17004KT 0800 SN FG SCT000 SCT003 BKN008 M02/M03     Q1013 RMK 3ST000 4ST003 7ST008 A2993=,SN; FG
20180122_070000.003,0,RJTS,,,,0,20180122070000,-1,-1,-1,-1,170,-1,2,-1,-1,-1,-1,,300,0,2,3,SCT 0   SCT 3   BKN 8,-1,2,-1,3,1012,RJTS 220700Z 17002KT 0300 SN FG SCT000 SCT003 BKN008 M02/M03     Q1012 RMK 3ST000 4ST003 7ST008 A2991=,SN; FG
20180122_080000.004,0,RJTS,,,,0,20180122080000,-1,-1,-1,-1,200,-1,2,-1,-1,-1,-1,,300,0,2,3,SCT 0   SCT 3   BKN 8,-1,3,-1,4,1012,RJTS 220800Z 20002KT 0300 SN FG SCT000 SCT003 BKN008 M03/M04     Q1012 RMK 3ST000 4ST003 7ST008 A2991=,SN; FG
20180122_090000.003,0,RJTS,,,,0,20180122090000,-1,-1,-1,-1,-1,-1,-1,-1,-1,-1,-1,,-1,0,0,0,,0,-1,0,-1,-1,RJTS 220900Z NIL=,
20180122_100000.003,0,RJTS,,,,0,20180122100000,-1,-1,-1,-1,-1,-1,-1,-1,-1,-1,-1,,-1,0,0,0,,0,-1,0,-1,-1,RJTS 221000Z NIL=,
20180122_110000.004,0,RJTS,,,,0,20180122110000,-1,-1,-1,-1,-1,-1,-1,-1,-1,-1,-1,,-1,0,0,0,,0,-1,0,-1,-1,RJTS 221100Z NIL=,
20180122_120000.003,0,RJTS,,,,0,20180122120000,-1,-1,-1,-1,-1,-1,-1,-1,-1,-1,-1,,-1,0,0,0,,0,-1,0,-1,-1,RJTS 221200Z NIL=,
20180122_130000.004,0,RJTS,,,,0,20180122130000,-1,-1,-1,-1,-1,-1,-1,-1,-1,-1,-1,,-1,0,0,0,,0,-1,0,-1,-1,RJTS 221300Z NIL=,
20180122_140000.004,0,RJTS,,,,0,20180122140000,-1,-1,-1,-1,-1,-1,-1,-1,-1,-1,-1,,-1,0,0,0,,0,-1,0,-1,-1,RJTS 221400Z NIL=,
20180122_150000.003,0,RJTS,,,,0,20180122150000,-1,-1,-1,-1,-1,-1,-1,-1,-1,-1,-1,,-1,0,0,0,,0,-1,0,-1,-1,RJTS 221500Z NIL=,
20180122_160000.003,0,RJTS,,,,0,20180122160000,-1,-1,-1,-1,-1,-1,-1,-1,-1,-1,-1,,-1,0,0,0,,0,-1,0,-1,-1,RJTS 221600Z NIL=,
20180122_170000.003,0,RJTS,,,,0,20180122170000,-1,-1,-1,-1,-1,-1,-1,-1,-1,-1,-1,,-1,0,0,0,,0,-1,0,-1,-1,RJTS 221700Z NIL=,
20180122_180000.003,0,RJTS,,,,0,20180122180000,-1,-1,-1,-1,-1,-1,-1,-1,-1,-1,-1,,-1,0,0,0,,0,-1,0,-1,-1,RJTS 221800Z NIL=,
20180122_190000.003,0,RJTS,,,,0,20180122190000,-1,-1,-1,-1,-1,-1,-1,-1,-1,-1,-1,,-1,0,0,0,,0,-1,0,-1,-1,RJTS 221900Z NIL=,
20180122_200000.003,0,RJTS,,,,0,20180122200000,-1,-1,-1,-1,-1,-1,-1,-1,-1,-1,-1,,-1,0,0,0,,0,-1,0,-1,-1,RJTS 222000Z NIL=,
20180122_210000.004,0,RJTS,,,,0,20180122210000,-1,-1,-1,-1,310,-1,3,-1,-1,-1,-1,,9999,0,0,1,FEW 30,-1,4,-1,5,1004,RJTS 222100Z 31003KT 9999 FEW030 M04/M05 Q1004 RMK 1CU030     A2965=,
20180122_220000.003,0,RJTS,,,,0,20180122220000,-1,-1,-1,-1,340,-1,2,-1,-1,-1,-1,,9999,0,0,1,FEW 0,-1,5,-1,7,1004,RJTS 222200Z 34002KT 9999 FEW000 M05/M07 Q1004 RMK 1ST000     A2967=,
20180122_230000.004,0,RJTS,,,,0,20180122230000,-1,-1,-1,-1,320,-1,3,-1,-1,-1,-1,,9999,0,0,1,FEW 0,-1,3,-1,4,1004,RJTS 222300Z 32003KT 9999 FEW000 M03/M04 Q1004 RMK 2ST000     A2965=,
20180123_000000.003,0,RJTS,,,,0,20180123000000,-1,-1,-1,-1,999,-1,1,-1,-1,-1,-1,,9999,0,0,1,FEW 10,1,0,-1,3,1004,RJTS 230000Z VRB01KT 9999 FEW010 00/M03 Q1004 RMK 2ST010     A2964=,
20180123_010000.003,0,RJTS,,,,0,20180123010000,-1,-1,-1,-1,160,-1,4,-1,-1,-1,-1,,9999,0,0,1,FEW 10,1,1,-1,2,1003,RJTS 230100Z 16004KT 9999 FEW010 01/M02 Q1003 RMK 2ST010     A2962=,
20180123_020000.003,0,RJTS,,,,0,20180123020000,-1,-1,-1,-1,30,-1,1,-1,-1,-1,-1,,9999,0,0,1,FEW 30,1,1,-1,1,1001,RJTS 230200Z 03001KT 9999 FEW030 01/M01 Q1001 RMK 2CU030     A2958=,
20180123_030000.004,0,RJTS,,,,0,20180123030000,-1,-1,-1,-1,100,-1,3,-1,-1,-1,-1,,9999,0,0,1,FEW 35,1,3,-1,1,1000,RJTS 230300Z 10003KT 9999 FEW035 03/M01 Q1000 RMK 2CU035     A2954=,
20180123_040000.004,0,RJTS,,,,0,20180123040000,-1,-1,-1,-1,300,-1,3,-1,-1,-1,-1,,9999,0,0,2,FEW 35   SCT 50,1,4,-1,0,999,RJTS 230400Z 30003KT 9999 FEW035 SCT050 04/M00 Q0999 RMK     2CU035 4CU050 A2951=,
20180123_050000.003,0,RJTS,,,,0,20180123050000,-1,-1,-1,-1,280,-1,12,-1,22,-1,-1,,9999,0,0,3,FEW 10   SCT 40   BKN 70,1,6,-1,5,999,RJTS 230500Z 28012G22KT 9999 FEW010 SCT040 BKN070 06/M05 Q0999     RMK 1CU010 3CU040 5AC070 A2952=,
20180123_060000.004,0,RJTS,,,,0,20180123060000,-1,-1,-1,-1,250,-1,6,-1,-1,-1,-1,,9999,0,0,3,FEW 5   SCT 40   BKN 80,1,5,-1,4,1000,RJTS 230600Z 25006KT 9999 FEW005 SCT040 BKN080 05/M04 Q1000     RMK 1ST005 3CU040 5AC080 A2953=,
20180123_070000.003,0,RJTS,,,,0,20180123070000,-1,-1,-1,-1,280,-1,7,-1,-1,-1,-1,,9999,0,0,3,FEW 5   SCT 30   BKN 80,1,5,-1,7,1000,RJTS 230700Z 28007KT 9999 FEW005 SCT030 BKN080 05/M07 Q1000     RMK 1ST005 3CU030 5AC080 A2955=,
20180123_080000.003,0,RJTS,,,,0,20180123080000,-1,-1,-1,-1,999,-1,2,-1,-1,-1,-1,,9999,0,0,2,FEW 30   SCT 80,1,3,-1,6,1001,RJTS 230800Z VRB02KT 9999 FEW030 SCT080 03/M06 Q1001 RMK     2CU030 4AC080 A2957=,
20180123_090000.003,0,RJTS,,,,0,20180123090000,-1,-1,-1,-1,300,-1,3,-1,-1,-1,-1,,9999,0,0,2,FEW 30   SCT 80,1,3,-1,9,1002,RJTS 230900Z 30003KT 9999 FEW030 SCT080 03/M09 Q1002 RMK     2CU030 3AC080 A2960=,
20180123_100000.003,0,RJTS,,,,0,20180123100000,-1,-1,-1,-1,300,-1,8,-1,-1,-1,-1,,9999,0,0,2,FEW 30   SCT 80,1,2,-1,12,1003,RJTS 231000Z 30008KT 9999 FEW030 SCT080 02/M12 Q1003 RMK     2CU030 3AC080 A2964=,
20180123_110000.003,0,RJTS,,,,0,20180123110000,-1,-1,-1,-1,-1,-1,-1,-1,-1,-1,-1,,-1,0,0,0,,0,-1,0,-1,-1,RJTS 231100Z NIL=,
20180123_120000.003,0,RJTS,,,,0,20180123120000,-1,-1,-1,-1,-1,-1,-1,-1,-1,-1,-1,,-1,0,0,0,,0,-1,0,-1,-1,RJTS 231200Z NIL=,
20180123_130000.003,0,RJTS,,,,0,20180123130000,-1,-1,-1,-1,-1,-1,-1,-1,-1,-1,-1,,-1,0,0,0,,0,-1,0,-1,-1,RJTS 231300Z NIL=,
20180123_140000.003,0,RJTS,,,,0,20180123140000,-1,-1,-1,-1,-1,-1,-1,-1,-1,-1,-1,,-1,0,0,0,,0,-1,0,-1,-1,RJTS 231400Z NIL=,
20180123_150000.003,0,RJTS,,,,0,20180123150000,-1,-1,-1,-1,-1,-1,-1,-1,-1,-1,-1,,-1,0,0,0,,0,-1,0,-1,-1,RJTS 231500Z NIL=,
20180123_160000.003,0,RJTS,,,,0,20180123160000,-1,-1,-1,-1,-1,-1,-1,-1,-1,-1,-1,,-1,0,0,0,,0,-1,0,-1,-1,RJTS 231600Z NIL=,
20180123_170000.003,0,RJTS,,,,0,20180123170000,-1,-1,-1,-1,-1,-1,-1,-1,-1,-1,-1,,-1,0,0,0,,0,-1,0,-1,-1,RJTS 231700Z NIL=,
20180123_180000.003,0,RJTS,,,,0,20180123180000,-1,-1,-1,-1,-1,-1,-1,-1,-1,-1,-1,,-1,0,0,0,,0,-1,0,-1,-1,RJTS 231800Z NIL=,
20180123_190000.003,0,RJTS,,,,0,20180123190000,-1,-1,-1,-1,-1,-1,-1,-1,-1,-1,-1,,-1,0,0,0,,0,-1,0,-1,-1,RJTS 231900Z NIL=,
20180123_200000.003,0,RJTS,,,,0,20180123200000,-1,-1,-1,-1,-1,-1,-1,-1,-1,-1,-1,,-1,0,0,0,,0,-1,0,-1,-1,RJTS 232000Z NIL=,
20180123_210000.003,0,RJTS,,,,0,20180123210000,-1,-1,-1,-1,320,-1,5,-1,-1,-1,-1,,9999,0,0,1,FEW 50,-1,7,-1,12,1004,RJTS 232100Z 32005KT 9999 FEW050 M07/M12 Q1004 RMK 1SC050     A2965=,
20180123_220000.003,0,RJTS,,,,0,20180123220000,-1,-1,-1,-1,290,-1,7,-1,-1,-1,-1,,9999,0,0,1,FEW 50,-1,3,-1,11,1004,RJTS 232200Z 29007KT 9999 FEW050 M03/M11 Q1004 RMK 1SC050     A2966=,
20180123_230000.003,0,RJTS,,,,0,20180123230000,-1,-1,-1,-1,270,-1,6,-1,-1,-1,-1,,9999,0,0,1,FEW 40,-1,1,-1,11,1004,RJTS 232300Z 27006KT 9999 FEW040 M01/M11 Q1004 RMK 1CU040     A2964=,
20180124_000000.003,0,RJTS,,,,0,20180124000000,-1,-1,-1,-1,270,-1,7,-1,-1,-1,-1,,9999,0,0,1,FEW 40,1,0,-1,10,1004,RJTS 240000Z 27007KT 9999 FEW040 00/M10 Q1004 RMK 1CU040     A2964=,
20180124_010000.004,0,RJTS,,,,0,20180124010000,-1,-1,-1,-1,250,-1,5,-1,-1,-1,-1,,9999,0,0,2,FEW 30   SCT 70,1,1,-1,10,1003,RJTS 240100Z 25005KT 9999 FEW030 SCT070 01/M10 Q1003 RMK     1CU030 3AC070 A2962=,
20180124_020000.003,0,RJTS,,,,0,20180124020000,-1,-1,-1,-1,140,-1,5,-1,-1,-1,-1,,9999,0,0,3,FEW 20   SCT 50   BKN 70,1,1,-1,8,1002,RJTS 240200Z 14005KT 9999 FEW020 SCT050 BKN070 01/M08 Q1002     RMK 1CU020 4CU050 5AC070 A2960=,
20180124_030000.003,0,RJTS,,,,0,20180124030000,-1,-1,-1,-1,340,-1,8,-1,19,-1,-1,,9999,0,0,3,FEW 30   SCT 50   BKN 70,1,1,-1,12,1001,RJTS 240300Z 34008G19KT 9999 FEW030 SCT050 BKN070 01/M12 Q1001     RMK 1CU030 3CU050 5AC070 A2956=,
20180124_040000.003,0,RJTS,,,,0,20180124040000,-1,-1,-1,-1,300,-1,10,-1,-1,-1,-1,,9999,0,0,3,FEW 5   SCT 50   BKN 70,1,1,-1,12,1000,RJTS 240400Z 30010KT 9999 FEW005 SCT050 BKN070 01/M12 Q1000     RMK 1ST005 4CU050 6AC070 A2954=,
20180124_050000.003,0,RJTS,,,,0,20180124050000,-1,-1,-1,-1,320,-1,9,-1,19,-1,-1,,9999,0,1,3,FEW 5   SCT 40   BKN 70,1,1,-1,14,999,RJTS 240500Z 32009G19KT 9999 -SHSN FEW005 SCT040 BKN070 01/M14     Q0999 RMK 1ST005 4CU040 6AC070 A2952=,- SN SH
20180124_060000.003,0,RJTS,,,,0,20180124060000,-1,-1,-1,-1,310,-1,9,-1,19,-1,-1,,9999,0,0,3,FEW 5   SCT 40   BKN 70,1,1,-1,15,1000,RJTS 240600Z 31009G19KT 9999 FEW005 SCT040 BKN070 01/M15 Q1000     RMK 1ST005 4CU040 6AC070 A2954=,
20180124_070000.003,0,RJTS,,,,0,20180124070000,-1,-1,-1,-1,340,-1,12,-1,22,-1,-1,,9999,0,1,3,FEW 5   SCT 10   BKN 35,-1,3,-1,9,1001,RJTS 240700Z 34012G22KT 9999 -SHSN FEW005 SCT010 BKN035     M03/M09 Q1001 RMK 1ST005 3ST010 5CU035 A2958=,- SN SH
20180124_080000.003,0,RJTS,,,,0,20180124080000,-1,-1,-1,-1,310,-1,9,-1,-1,-1,-1,,9999,0,1,3,FEW 5   SCT 50   BKN 70,-1,2,-1,11,1002,RJTS 240800Z 31009KT 9999 -SHSN FEW005 SCT050 BKN070 M02/M11     Q1002 RMK 1ST005 3CU050 6AC070 A2960=,- SN SH
20180124_090000.004,0,RJTS,,,,0,20180124090000,-1,-1,-1,-1,-1,-1,-1,-1,-1,-1,-1,,-1,0,0,0,,0,-1,0,-1,-1,RJTS 240900Z NIL=,
20180124_100000.003,0,RJTS,,,,0,20180124100000,-1,-1,-1,-1,-1,-1,-1,-1,-1,-1,-1,,-1,0,0,0,,0,-1,0,-1,-1,RJTS 241000Z NIL=,
20180124_110000.003,0,RJTS,,,,0,20180124110000,-1,-1,-1,-1,-1,-1,-1,-1,-1,-1,-1,,-1,0,0,0,,0,-1,0,-1,-1,RJTS 241100Z NIL=,
20180124_120000.003,0,RJTS,,,,0,20180124120000,-1,-1,-1,-1,-1,-1,-1,-1,-1,-1,-1,,-1,0,0,0,,0,-1,0,-1,-1,RJTS 241200Z NIL=,
20180124_130000.003,0,RJTS,,,,0,20180124130000,-1,-1,-1,-1,-1,-1,-1,-1,-1,-1,-1,,-1,0,0,0,,0,-1,0,-1,-1,RJTS 241300Z NIL=,
20180124_140000.004,0,RJTS,,,,0,20180124140000,-1,-1,-1,-1,-1,-1,-1,-1,-1,-1,-1,,-1,0,0,0,,0,-1,0,-1,-1,RJTS 241400Z NIL=,
20180124_150000.003,0,RJTS,,,,0,20180124150000,-1,-1,-1,-1,-1,-1,-1,-1,-1,-1,-1,,-1,0,0,0,,0,-1,0,-1,-1,RJTS 241500Z NIL=,
20180124_160000.003,0,RJTS,,,,0,20180124160000,-1,-1,-1,-1,-1,-1,-1,-1,-1,-1,-1,,-1,0,0,0,,0,-1,0,-1,-1,RJTS 241600Z NIL=,
20180124_170000.003,0,RJTS,,,,0,20180124170000,-1,-1,-1,-1,-1,-1,-1,-1,-1,-1,-1,,-1,0,0,0,,0,-1,0,-1,-1,RJTS 241700Z NIL=,
20180124_180000.003,0,RJTS,,,,0,20180124180000,-1,-1,-1,-1,-1,-1,-1,-1,-1,-1,-1,,-1,0,0,0,,0,-1,0,-1,-1,RJTS 241800Z NIL=,
20180124_190000.004,0,RJTS,,,,0,20180124190000,-1,-1,-1,-1,-1,-1,-1,-1,-1,-1,-1,,-1,0,0,0,,0,-1,0,-1,-1,RJTS 241900Z NIL=,
20180124_200000.003,0,RJTS,,,,0,20180124200000,-1,-1,-1,-1,-1,-1,-1,-1,-1,-1,-1,,-1,0,0,0,,0,-1,0,-1,-1,RJTS 242000Z NIL=,
20180124_210000.004,0,RJTS,,,,0,20180124210000,-1,-1,-1,-1,320,-1,5,-1,-1,-1,-1,,9999,0,0,1,FEW 100,-1,6,-1,16,1006,RJTS 242100Z 32005KT 9999 FEW100 M06/M16 Q1006 RMK 1AC100     A2971=,
20180124_220000.003,0,RJTS,,,,0,20180124220000,-1,-1,-1,-1,300,-1,3,-1,-1,-1,-1,,9999,0,0,1,FEW 30,-1,6,-1,17,1006,RJTS 242200Z 30003KT 9999 FEW030 M06/M17 Q1006 RMK 1CU030     A2972=,
20180124_230000.003,0,RJTS,,,,0,20180124230000,-1,-1,-1,-1,310,-1,6,-1,-1,-1,-1,,9999,0,0,1,FEW 30,-1,4,-1,18,1007,RJTS 242300Z 31006KT 9999 FEW030 M04/M18 Q1007 RMK 1CU030     A2974=,
20180125_000000.003,0,RJTS,,,,0,20180125000000,-1,-1,-1,-1,350,-1,11,-1,25,-1,-1,,9999,0,0,1,FEW 30,-1,3,-1,18,1007,RJTS 250000Z 35011G25KT 9999 FEW030 M03/M18 Q1007 RMK 1CU030     A2975=,
20180125_010000.003,0,RJTS,,,,0,20180125010000,-1,-1,-1,-1,330,-1,13,-1,26,-1,-1,,9999,0,0,1,FEW 30,-1,2,-1,18,1008,RJTS 250100Z 33013G26KT 9999 FEW030 M02/M18 Q1008 RMK 1CU030     A2976=,
20180125_020000.004,0,RJTS,,,,0,20180125020000,-1,-1,-1,-1,320,-1,9,-1,19,-1,-1,,9999,0,0,2,FEW 30   SCT 70,-1,2,-1,18,1007,RJTS 250200Z 32009G19KT 9999 FEW030 SCT070 M02/M18 Q1007 RMK     1CU030 3AC070 A2975=,
20180125_030000.003,0,RJTS,,,,0,20180125030000,-1,-1,-1,-1,330,-1,15,-1,26,-1,-1,,9999,0,0,1,FEW 30,-1,2,-1,18,1007,RJTS 250300Z 33015G26KT 9999 FEW030 M02/M18 Q1007 RMK 1CU030     A2975=,
20180125_040000.003,0,RJTS,,,,0,20180125040000,-1,-1,-1,-1,340,-1,10,-1,20,-1,-1,,9999,0,0,1,FEW 40,-1,1,-1,17,1006,RJTS 250400Z 34010G20KT 9999 FEW040 M01/M17 Q1006 RMK 1CU040     A2972=,
20180125_050000.003,0,RJTS,,,,0,20180125050000,-1,-1,-1,-1,320,-1,11,-1,22,-1,-1,,9999,0,0,1,FEW 40,-1,1,-1,16,1006,RJTS 250500Z 32011G22KT 9999 FEW040 M01/M16 Q1006 RMK 1CU040     A2972=,
20180125_060000.003,0,RJTS,,,,0,20180125060000,-1,-1,-1,-1,290,-1,8,-1,18,-1,-1,,9999,0,0,1,FEW 50,-1,1,-1,17,1007,RJTS 250600Z 29008G18KT 9999 FEW050 M01/M17 Q1007 RMK 1CU050     A2973=,
20180125_070000.003,0,RJTS,,,,0,20180125070000,-1,-1,-1,-1,310,-1,7,-1,-1,-1,-1,,9999,0,0,1,FEW 40,-1,2,-1,16,1007,RJTS 250700Z 31007KT 9999 FEW040 M02/M16 Q1007 RMK 1CU040     A2975=,
20180125_080000.003,0,RJTS,,,,0,20180125080000,-1,-1,-1,-1,330,-1,9,-1,-1,-1,-1,,9999,0,0,1,FEW 40,-1,2,-1,16,1007,RJTS 250800Z 33009KT 9999 FEW040 M02/M16 Q1007 RMK 1CU040     A2974=,
20180125_090000.003,0,RJTS,,,,0,20180125090000,-1,-1,-1,-1,-1,-1,-1,-1,-1,-1,-1,,-1,0,0,0,,0,-1,0,-1,-1,RJTS 250900Z NIL=,
20180125_100000.004,0,RJTS,,,,0,20180125100000,-1,-1,-1,-1,-1,-1,-1,-1,-1,-1,-1,,-1,0,0,0,,0,-1,0,-1,-1,RJTS 251000Z NIL=,
20180125_110000.004,0,RJTS,,,,0,20180125110000,-1,-1,-1,-1,-1,-1,-1,-1,-1,-1,-1,,-1,0,0,0,,0,-1,0,-1,-1,RJTS 251100Z NIL=,
20180125_120000.003,0,RJTS,,,,0,20180125120000,-1,-1,-1,-1,-1,-1,-1,-1,-1,-1,-1,,-1,0,0,0,,0,-1,0,-1,-1,RJTS 251200Z NIL=,
20180125_130000.003,0,RJTS,,,,0,20180125130000,-1,-1,-1,-1,-1,-1,-1,-1,-1,-1,-1,,-1,0,0,0,,0,-1,0,-1,-1,RJTS 251300Z NIL=,
20180125_140000.003,0,RJTS,,,,0,20180125140000,-1,-1,-1,-1,-1,-1,-1,-1,-1,-1,-1,,-1,0,0,0,,0,-1,0,-1,-1,RJTS 251400Z NIL=,
20180125_150000.003,0,RJTS,,,,0,20180125150000,-1,-1,-1,-1,-1,-1,-1,-1,-1,-1,-1,,-1,0,0,0,,0,-1,0,-1,-1,RJTS 251500Z NIL=,
20180125_160000.003,0,RJTS,,,,0,20180125160000,-1,-1,-1,-1,-1,-1,-1,-1,-1,-1,-1,,-1,0,0,0,,0,-1,0,-1,-1,RJTS 251600Z NIL=,
20180125_170000.003,0,RJTS,,,,0,20180125170000,-1,-1,-1,-1,-1,-1,-1,-1,-1,-1,-1,,-1,0,0,0,,0,-1,0,-1,-1,RJTS 251700Z NIL=,
20180125_180000.003,0,RJTS,,,,0,20180125180000,-1,-1,-1,-1,-1,-1,-1,-1,-1,-1,-1,,-1,0,0,0,,0,-1,0,-1,-1,RJTS 251800Z NIL=,
20180125_190000.003,0,RJTS,,,,0,20180125190000,-1,-1,-1,-1,-1,-1,-1,-1,-1,-1,-1,,-1,0,0,0,,0,-1,0,-1,-1,RJTS 251900Z NIL=,
20180125_200000.004,0,RJTS,,,,0,20180125200000,-1,-1,-1,-1,-1,-1,-1,-1,-1,-1,-1,,-1,0,0,0,,0,-1,0,-1,-1,RJTS 252000Z NIL=,
20180125_210000.003,0,RJTS,,,,0,20180125210000,-1,-1,-1,-1,320,-1,5,-1,-1,-1,-1,,9999,0,0,1,FEW 180,-1,3,-1,13,1003,RJTS 252100Z 32005KT 9999 FEW180 M03/M13 Q1003 RMK 2AC180     A2963=,
20180125_220000.003,0,RJTS,,,,0,20180125220000,-1,-1,-1,-1,310,-1,4,-1,-1,-1,-1,,9999,0,0,1,FEW 180,-1,5,-1,13,1003,RJTS 252200Z 31004KT 9999 FEW180 M05/M13 Q1003 RMK 2AC180     A2964=,
20180125_230000.003,0,RJTS,,,,0,20180125230000,-1,-1,-1,-1,330,-1,11,-1,-1,-1,-1,,9999,0,0,1,FEW 40,-1,2,-1,14,1004,RJTS 252300Z 33011KT 9999 FEW040 M02/M14 Q1004 RMK 1SC040     A2964 MAX WIND 19KT=,
20180126_000000.003,0,RJTS,,,,0,20180126000000,-1,-1,-1,-1,320,-1,12,-1,-1,-1,-1,,9999,0,0,1,FEW 40,-1,1,-1,14,1004,RJTS 260000Z 32012KT 9999 FEW040 M01/M14 Q1004 RMK 1CU040     A2966 MAX WIND 21KT=,
20180126_010000.003,0,RJTS,,,,0,20180126010000,-1,-1,-1,-1,340,-1,11,-1,-1,-1,-1,,9999,0,0,1,FEW 40,-1,1,-1,14,1004,RJTS 260100Z 34011KT 9999 FEW040 M01/M14 Q1004 RMK 1CU040     A2966=,
20180126_020000.003,0,RJTS,,,,0,20180126020000,-1,-1,-1,-1,290,-1,11,-1,22,-1,-1,,9999,0,0,2,FEW 40   SCT 60,1,0,-1,15,1004,RJTS 260200Z 29011G22KT 9999 FEW040 SCT060 00/M15 Q1004 RMK     1CU040 4SC060 A2966=,
20180126_030000.003,0,RJTS,,,,0,20180126030000,-1,-1,-1,-1,290,-1,12,-1,22,-1,-1,,9999,0,0,2,FEW 50   SCT 60,-1,1,-1,15,1003,RJTS 260300Z 29012G22KT 9999 FEW050 SCT060 M01/M15 Q1003 RMK     1CU050 4SC060 A2964=,
20180126_040000.003,0,RJTS,,,,0,20180126040000,-1,-1,-1,-1,310,-1,14,-1,26,-1,-1,,9999,0,0,2,FEW 40   SCT 60,-1,0,-1,16,1003,RJTS 260400Z 31014G26KT 9999 FEW040 SCT060 M00/M16 Q1003 RMK     2CU040 4SC060 A2963=,
20180126_050000.003,0,RJTS,,,,0,20180126050000,-1,-1,-1,-1,280,-1,12,-1,25,-1,-1,,9999,0,0,2,FEW 40   SCT 60,-1,1,-1,16,1003,RJTS 260500Z 28012G25KT 9999 FEW040 SCT060 M01/M16 Q1003 RMK     1CU040 3SC060 A2963=,
20180126_060000.003,0,RJTS,,,,0,20180126060000,-1,-1,-1,-1,300,-1,13,-1,23,-1,-1,,9999,0,0,2,FEW 30   BKN 50,-1,2,-1,16,1004,RJTS 260600Z 30013G23KT 9999 FEW030 BKN050 M02/M16 Q1004 RMK     2SC030 5SC050 A2966=,
20180126_070000.003,0,RJTS,,,,0,20180126070000,-1,-1,-1,-1,350,-1,8,-1,-1,-1,-1,,9999,0,0,2,FEW 30   SCT 50,-1,2,-1,15,1005,RJTS 260700Z 35008KT 9999 FEW030 SCT050 M02/M15 Q1005 RMK     1SC030 4SC050 A2968=,
20180126_080000.004,0,RJTS,,,,0,20180126080000,-1,-1,-1,-1,320,-1,5,-1,-1,-1,-1,,9999,0,0,2,FEW 30   SCT 50,-1,3,-1,16,1005,RJTS 260800Z 32005KT 9999 FEW030 SCT050 M03/M16 Q1005 RMK     1SC030 3SC050 A2970=,
20180126_090000.003,0,RJTS,,,,0,20180126090000,-1,-1,-1,-1,-1,-1,-1,-1,-1,-1,-1,,-1,0,0,0,,0,-1,0,-1,-1,RJTS 260900Z NIL=,
20180126_100000.003,0,RJTS,,,,0,20180126100000,-1,-1,-1,-1,-1,-1,-1,-1,-1,-1,-1,,-1,0,0,0,,0,-1,0,-1,-1,RJTS 261000Z NIL=,
20180126_110000.003,0,RJTS,,,,0,20180126110000,-1,-1,-1,-1,-1,-1,-1,-1,-1,-1,-1,,-1,0,0,0,,0,-1,0,-1,-1,RJTS 261100Z NIL=,
20180126_120000.003,0,RJTS,,,,0,20180126120000,-1,-1,-1,-1,-1,-1,-1,-1,-1,-1,-1,,-1,0,0,0,,0,-1,0,-1,-1,RJTS 261200Z NIL=,
20180126_130000.003,0,RJTS,,,,0,20180126130000,-1,-1,-1,-1,-1,-1,-1,-1,-1,-1,-1,,-1,0,0,0,,0,-1,0,-1,-1,RJTS 261300Z NIL=,
20180126_140000.003,0,RJTS,,,,0,20180126140000,-1,-1,-1,-1,-1,-1,-1,-1,-1,-1,-1,,-1,0,0,0,,0,-1,0,-1,-1,RJTS 261400Z NIL=,
20180126_150000.003,0,RJTS,,,,0,20180126150000,-1,-1,-1,-1,-1,-1,-1,-1,-1,-1,-1,,-1,0,0,0,,0,-1,0,-1,-1,RJTS 261500Z NIL=,
20180126_160000.003,0,RJTS,,,,0,20180126160000,-1,-1,-1,-1,-1,-1,-1,-1,-1,-1,-1,,-1,0,0,0,,0,-1,0,-1,-1,RJTS 261600Z NIL=,
20180126_170000.003,0,RJTS,,,,0,20180126170000,-1,-1,-1,-1,-1,-1,-1,-1,-1,-1,-1,,-1,0,0,0,,0,-1,0,-1,-1,RJTS 261700Z NIL=,
20180126_180000.003,0,RJTS,,,,0,20180126180000,-1,-1,-1,-1,-1,-1,-1,-1,-1,-1,-1,,-1,0,0,0,,0,-1,0,-1,-1,RJTS 261800Z NIL=,
20180126_190000.003,0,RJTS,,,,0,20180126190000,-1,-1,-1,-1,-1,-1,-1,-1,-1,-1,-1,,-1,0,0,0,,0,-1,0,-1,-1,RJTS 261900Z NIL=,
20180126_200000.004,0,RJTS,,,,0,20180126200000,-1,-1,-1,-1,-1,-1,-1,-1,-1,-1,-1,,-1,0,0,0,,0,-1,0,-1,-1,RJTS 262000Z NIL=,
20180126_210000.003,0,RJTS,,,,0,20180126210000,-1,-1,-1,-1,-1,-1,-1,-1,-1,-1,-1,,-1,0,0,0,,0,-1,0,-1,-1,RJTS 262100Z NIL=,
20180126_220000.003,0,RJTS,,,,0,20180126220000,-1,-1,-1,-1,-1,-1,-1,-1,-1,-1,-1,,-1,0,0,0,,0,-1,0,-1,-1,RJTS 262200Z NIL=,
20180126_230000.003,0,RJTS,,,,0,20180126230000,-1,-1,-1,-1,-1,-1,-1,-1,-1,-1,-1,,-1,0,0,0,,0,-1,0,-1,-1,RJTS 262300Z NIL=,
20180127_000000.003,0,RJTS,,,,0,20180127000000,-1,-1,-1,-1,-1,-1,-1,-1,-1,-1,-1,,-1,0,0,0,,0,-1,0,-1,-1,RJTS 270000Z NIL=,
20180127_010000.003,0,RJTS,,,,0,20180127010000,-1,-1,-1,-1,-1,-1,-1,-1,-1,-1,-1,,-1,0,0,0,,0,-1,0,-1,-1,RJTS 270100Z NIL=,
20180127_020000.003,0,RJTS,,,,0,20180127020000,-1,-1,-1,-1,-1,-1,-1,-1,-1,-1,-1,,-1,0,0,0,,0,-1,0,-1,-1,RJTS 270200Z NIL=,
20180127_030000.003,0,RJTS,,,,0,20180127030000,-1,-1,-1,-1,-1,-1,-1,-1,-1,-1,-1,,-1,0,0,0,,0,-1,0,-1,-1,RJTS 270300Z NIL=,
20180127_040000.003,0,RJTS,,,,0,20180127040000,-1,-1,-1,-1,-1,-1,-1,-1,-1,-1,-1,,-1,0,0,0,,0,-1,0,-1,-1,RJTS 270400Z NIL=,
20180127_050000.003,0,RJTS,,,,0,20180127050000,-1,-1,-1,-1,-1,-1,-1,-1,-1,-1,-1,,-1,0,0,0,,0,-1,0,-1,-1,RJTS 270500Z NIL=,
20180127_060000.003,0,RJTS,,,,0,20180127060000,-1,-1,-1,-1,-1,-1,-1,-1,-1,-1,-1,,-1,0,0,0,,0,-1,0,-1,-1,RJTS 270600Z NIL=,
20180127_070000.003,0,RJTS,,,,0,20180127070000,-1,-1,-1,-1,-1,-1,-1,-1,-1,-1,-1,,-1,0,0,0,,0,-1,0,-1,-1,RJTS 270700Z NIL=,
20180127_080000.003,0,RJTS,,,,0,20180127080000,-1,-1,-1,-1,-1,-1,-1,-1,-1,-1,-1,,-1,0,0,0,,0,-1,0,-1,-1,RJTS 270800Z NIL=,
20180127_090000.004,0,RJTS,,,,0,20180127090000,-1,-1,-1,-1,-1,-1,-1,-1,-1,-1,-1,,-1,0,0,0,,0,-1,0,-1,-1,RJTS 270900Z NIL=,
20180127_100000.003,0,RJTS,,,,0,20180127100000,-1,-1,-1,-1,-1,-1,-1,-1,-1,-1,-1,,-1,0,0,0,,0,-1,0,-1,-1,RJTS 271000Z NIL=,
20180127_110000.003,0,RJTS,,,,0,20180127110000,-1,-1,-1,-1,-1,-1,-1,-1,-1,-1,-1,,-1,0,0,0,,0,-1,0,-1,-1,RJTS 271100Z NIL=,
20180127_120000.003,0,RJTS,,,,0,20180127120000,-1,-1,-1,-1,-1,-1,-1,-1,-1,-1,-1,,-1,0,0,0,,0,-1,0,-1,-1,RJTS 271200Z NIL=,
20180127_130000.003,0,RJTS,,,,0,20180127130000,-1,-1,-1,-1,-1,-1,-1,-1,-1,-1,-1,,-1,0,0,0,,0,-1,0,-1,-1,RJTS 271300Z NIL=,
20180127_140000.004,0,RJTS,,,,0,20180127140000,-1,-1,-1,-1,-1,-1,-1,-1,-1,-1,-1,,-1,0,0,0,,0,-1,0,-1,-1,RJTS 271400Z NIL=,
20180127_150000.003,0,RJTS,,,,0,20180127150000,-1,-1,-1,-1,-1,-1,-1,-1,-1,-1,-1,,-1,0,0,0,,0,-1,0,-1,-1,RJTS 271500Z NIL=,
20180127_160000.003,0,RJTS,,,,0,20180127160000,-1,-1,-1,-1,-1,-1,-1,-1,-1,-1,-1,,-1,0,0,0,,0,-1,0,-1,-1,RJTS 271600Z NIL=,
20180127_170000.003,0,RJTS,,,,0,20180127170000,-1,-1,-1,-1,-1,-1,-1,-1,-1,-1,-1,,-1,0,0,0,,0,-1,0,-1,-1,RJTS 271700Z NIL=,
20180127_180000.003,0,RJTS,,,,0,20180127180000,-1,-1,-1,-1,-1,-1,-1,-1,-1,-1,-1,,-1,0,0,0,,0,-1,0,-1,-1,RJTS 271800Z NIL=,
20180127_190000.003,0,RJTS,,,,0,20180127190000,-1,-1,-1,-1,-1,-1,-1,-1,-1,-1,-1,,-1,0,0,0,,0,-1,0,-1,-1,RJTS 271900Z NIL=,
20180127_200000.003,0,RJTS,,,,0,20180127200000,-1,-1,-1,-1,-1,-1,-1,-1,-1,-1,-1,,-1,0,0,0,,0,-1,0,-1,-1,RJTS 272000Z NIL=,
20180127_210000.003,0,RJTS,,,,0,20180127210000,-1,-1,-1,-1,-1,-1,-1,-1,-1,-1,-1,,-1,0,0,0,,0,-1,0,-1,-1,RJTS 272100Z NIL=,
20180127_220000.003,0,RJTS,,,,0,20180127220000,-1,-1,-1,-1,-1,-1,-1,-1,-1,-1,-1,,-1,0,0,0,,0,-1,0,-1,-1,RJTS 272200Z NIL=,
20180127_230000.003,0,RJTS,,,,0,20180127230000,-1,-1,-1,-1,-1,-1,-1,-1,-1,-1,-1,,-1,0,0,0,,0,-1,0,-1,-1,RJTS 272300Z NIL=,
20180128_000000.004,0,RJTS,,,,0,20180128000000,-1,-1,-1,-1,-1,-1,-1,-1,-1,-1,-1,,-1,0,0,0,,0,-1,0,-1,-1,RJTS 280000Z NIL=,
20180128_010000.003,0,RJTS,,,,0,20180128010000,-1,-1,-1,-1,-1,-1,-1,-1,-1,-1,-1,,-1,0,0,0,,0,-1,0,-1,-1,RJTS 280100Z NIL=,
20180128_020000.003,0,RJTS,,,,0,20180128020000,-1,-1,-1,-1,-1,-1,-1,-1,-1,-1,-1,,-1,0,0,0,,0,-1,0,-1,-1,RJTS 280200Z NIL=,
20180128_030000.003,0,RJTS,,,,0,20180128030000,-1,-1,-1,-1,-1,-1,-1,-1,-1,-1,-1,,-1,0,0,0,,0,-1,0,-1,-1,RJTS 280300Z NIL=,
20180128_040000.003,0,RJTS,,,,0,20180128040000,-1,-1,-1,-1,-1,-1,-1,-1,-1,-1,-1,,-1,0,0,0,,0,-1,0,-1,-1,RJTS 280400Z NIL=,
20180128_050000.003,0,RJTS,,,,0,20180128050000,-1,-1,-1,-1,-1,-1,-1,-1,-1,-1,-1,,-1,0,0,0,,0,-1,0,-1,-1,RJTS 280500Z NIL=,
20180128_060000.003,0,RJTS,,,,0,20180128060000,-1,-1,-1,-1,-1,-1,-1,-1,-1,-1,-1,,-1,0,0,0,,0,-1,0,-1,-1,RJTS 280600Z NIL=,
20180128_070000.004,0,RJTS,,,,0,20180128070000,-1,-1,-1,-1,-1,-1,-1,-1,-1,-1,-1,,-1,0,0,0,,0,-1,0,-1,-1,RJTS 280700Z NIL=,
20180128_080000.003,0,RJTS,,,,0,20180128080000,-1,-1,-1,-1,-1,-1,-1,-1,-1,-1,-1,,-1,0,0,0,,0,-1,0,-1,-1,RJTS 280800Z NIL=,
20180128_090000.003,0,RJTS,,,,0,20180128090000,-1,-1,-1,-1,-1,-1,-1,-1,-1,-1,-1,,-1,0,0,0,,0,-1,0,-1,-1,RJTS 280900Z NIL=,
20180128_100000.003,0,RJTS,,,,0,20180128100000,-1,-1,-1,-1,-1,-1,-1,-1,-1,-1,-1,,-1,0,0,0,,0,-1,0,-1,-1,RJTS 281000Z NIL=,
20180128_110000.003,0,RJTS,,,,0,20180128110000,-1,-1,-1,-1,-1,-1,-1,-1,-1,-1,-1,,-1,0,0,0,,0,-1,0,-1,-1,RJTS 281100Z NIL=,
20180128_120000.003,0,RJTS,,,,0,20180128120000,-1,-1,-1,-1,-1,-1,-1,-1,-1,-1,-1,,-1,0,0,0,,0,-1,0,-1,-1,RJTS 281200Z NIL=,
20180128_130000.003,0,RJTS,,,,0,20180128130000,-1,-1,-1,-1,-1,-1,-1,-1,-1,-1,-1,,-1,0,0,0,,0,-1,0,-1,-1,RJTS 281300Z NIL=,
20180128_140000.003,0,RJTS,,,,0,20180128140000,-1,-1,-1,-1,-1,-1,-1,-1,-1,-1,-1,,-1,0,0,0,,0,-1,0,-1,-1,RJTS 281400Z NIL=,
20180128_150000.003,0,RJTS,,,,0,20180128150000,-1,-1,-1,-1,-1,-1,-1,-1,-1,-1,-1,,-1,0,0,0,,0,-1,0,-1,-1,RJTS 281500Z NIL=,
20180128_160000.003,0,RJTS,,,,0,20180128160000,-1,-1,-1,-1,-1,-1,-1,-1,-1,-1,-1,,-1,0,0,0,,0,-1,0,-1,-1,RJTS 281600Z NIL=,
20180128_170000.003,0,RJTS,,,,0,20180128170000,-1,-1,-1,-1,-1,-1,-1,-1,-1,-1,-1,,-1,0,0,0,,0,-1,0,-1,-1,RJTS 281700Z NIL=,
20180128_180000.003,0,RJTS,,,,0,20180128180000,-1,-1,-1,-1,-1,-1,-1,-1,-1,-1,-1,,-1,0,0,0,,0,-1,0,-1,-1,RJTS 281800Z NIL=,
20180128_190000.003,0,RJTS,,,,0,20180128190000,-1,-1,-1,-1,-1,-1,-1,-1,-1,-1,-1,,-1,0,0,0,,0,-1,0,-1,-1,RJTS 281900Z NIL=,
20180128_200000.003,0,RJTS,,,,0,20180128200000,-1,-1,-1,-1,-1,-1,-1,-1,-1,-1,-1,,-1,0,0,0,,0,-1,0,-1,-1,RJTS 282000Z NIL=,
20180128_210000.003,0,RJTS,,,,0,20180128210000,-1,-1,-1,-1,320,-1,4,-1,-1,-1,-1,,9999,0,0,1,FEW 70,-1,2,-1,7,1005,RJTS 282100Z 32004KT 9999 FEW070 M02/M07 Q1005 RMK 1AC070     A2968=,
20180128_220000.004,0,RJTS,,,,0,20180128220000,-1,-1,-1,-1,340,-1,7,-1,-1,-1,-1,,9999,0,0,2,FEW 70   SCT 200,1,2,-1,7,1005,RJTS 282200Z 34007KT 9999 FEW070 SCT200 02/M07 Q1005 RMK     1AC070 4CI200 A2968=,
20180128_230000.003,0,RJTS,,,,0,20180128230000,-1,-1,-1,-1,350,-1,14,-1,-1,-1,-1,,9999,0,0,2,FEW 100   SCT 220,1,3,-1,7,1005,RJTS 282300Z 35014KT 9999 FEW100 SCT220 03/M07 Q1005 RMK     1AC100 4CI220 A2969=,
20180129_000000.004,0,RJTS,,,,0,20180129000000,-1,-1,-1,-1,360,-1,4,-1,-1,-1,-1,,9999,0,0,1,FEW 80,1,4,-1,7,1005,RJTS 290000Z 36004KT 9999 FEW080 04/M07 Q1005 RMK 1AC080     A2969=,
20180129_010000.003,0,RJTS,,,,0,20180129010000,-1,-1,-1,-1,180,-1,5,-1,-1,-1,-1,,9999,0,0,1,FEW 5,1,6,-1,6,1005,RJTS 290100Z 18005KT 9999 FEW005 06/M06 Q1005 RMK 1ST005     A2968=,
20180129_020000.003,0,RJTS,,,,0,20180129020000,-1,-1,-1,-1,80,-1,7,-1,-1,-1,-1,,9999,0,0,1,FEW 70,1,6,-1,7,1004,RJTS 290200Z 08007KT 9999 FEW070 06/M07 Q1004 RMK 1AC070     A2966=,
20180129_030000.003,0,RJTS,,,,0,20180129030000,-1,-1,-1,-1,130,-1,7,-1,-1,-1,-1,,9999,0,0,1,FEW 60,1,6,-1,5,1003,RJTS 290300Z 13007KT 9999 FEW060 06/M05 Q1003 RMK 1SC060     A2964=,
20180129_040000.003,0,RJTS,,,,0,20180129040000,-1,-1,-1,-1,110,-1,5,-1,-1,-1,-1,,9999,0,0,1,FEW 50,1,7,-1,5,1003,RJTS 290400Z 11005KT 9999 FEW050 07/M05 Q1003 RMK 1CU050     A2962=,
20180129_050000.003,0,RJTS,,,,0,20180129050000,-1,-1,-1,-1,130,-1,5,-1,-1,-1,-1,,9999,0,0,2,FEW 50   SCT 230,1,6,-1,5,1002,RJTS 290500Z 13005KT 9999 FEW050 SCT230 06/M05 Q1002 RMK     1CU050 3CI230 A2961=,
20180129_060000.003,0,RJTS,,,,0,20180129060000,-1,-1,-1,-1,130,-1,6,-1,-1,-1,-1,,9999,0,0,1,FEW 40,1,6,-1,5,1002,RJTS 290600Z 13006KT 9999 FEW040 06/M05 Q1002 RMK 1CU040     A2961=,
20180129_070000.003,0,RJTS,,,,0,20180129070000,-1,-1,-1,-1,130,-1,5,-1,-1,-1,-1,,9999,0,0,1,FEW 40,1,5,-1,5,1002,RJTS 290700Z 13005KT 9999 FEW040 05/M05 Q1002 RMK 1CU040     A2960=,
20180129_080000.003,0,RJTS,,,,0,20180129080000,-1,-1,-1,-1,80,-1,3,-1,-1,-1,-1,,9999,0,0,1,FEW 50,1,4,-1,4,1003,RJTS 290800Z 08003KT 9999 FEW050 04/M04 Q1003 RMK 1SC050     A2962=,
20180129_090000.003,0,RJTS,,,,0,20180129090000,-1,-1,-1,-1,350,-1,4,-1,-1,-1,-1,,9999,0,0,2,FEW 40   SCT 70,1,1,-1,4,1003,RJTS 290900Z 35004KT 9999 FEW040 SCT070 01/M04 Q1003 RMK     1SC040 3AC070 A2964=,
20180129_100000.003,0,RJTS,,,,0,20180129100000,-1,-1,-1,-1,20,-1,5,-1,-1,-1,-1,,9999,0,0,2,FEW 40   BKN 60,1,3,-1,5,1004,RJTS 291000Z 02005KT 9999 FEW040 BKN060 03/M05 Q1004 RMK     2SC040 6SC060 A2966=,
20180129_110000.003,0,RJTS,,,,0,20180129110000,-1,-1,-1,-1,-1,-1,-1,-1,-1,-1,-1,,-1,0,0,0,,0,-1,0,-1,-1,RJTS 291100Z NIL=,
20180129_120000.003,0,RJTS,,,,0,20180129120000,-1,-1,-1,-1,-1,-1,-1,-1,-1,-1,-1,,-1,0,0,0,,0,-1,0,-1,-1,RJTS 291200Z NIL=,
20180129_130000.003,0,RJTS,,,,0,20180129130000,-1,-1,-1,-1,-1,-1,-1,-1,-1,-1,-1,,-1,0,0,0,,0,-1,0,-1,-1,RJTS 291300Z NIL=,
20180129_140000.003,0,RJTS,,,,0,20180129140000,-1,-1,-1,-1,-1,-1,-1,-1,-1,-1,-1,,-1,0,0,0,,0,-1,0,-1,-1,RJTS 291400Z NIL=,
20180129_150000.003,0,RJTS,,,,0,20180129150000,-1,-1,-1,-1,-1,-1,-1,-1,-1,-1,-1,,-1,0,0,0,,0,-1,0,-1,-1,RJTS 291500Z NIL=,
20180129_160000.003,0,RJTS,,,,0,20180129160000,-1,-1,-1,-1,-1,-1,-1,-1,-1,-1,-1,,-1,0,0,0,,0,-1,0,-1,-1,RJTS 291600Z NIL=,
20180129_170000.003,0,RJTS,,,,0,20180129170000,-1,-1,-1,-1,-1,-1,-1,-1,-1,-1,-1,,-1,0,0,0,,0,-1,0,-1,-1,RJTS 291700Z NIL=,
20180129_180000.003,0,RJTS,,,,0,20180129180000,-1,-1,-1,-1,-1,-1,-1,-1,-1,-1,-1,,-1,0,0,0,,0,-1,0,-1,-1,RJTS 291800Z NIL=,
20180129_190000.003,0,RJTS,,,,0,20180129190000,-1,-1,-1,-1,-1,-1,-1,-1,-1,-1,-1,,-1,0,0,0,,0,-1,0,-1,-1,RJTS 291900Z NIL=,
20180129_200000.003,0,RJTS,,,,0,20180129200000,-1,-1,-1,-1,-1,-1,-1,-1,-1,-1,-1,,-1,0,0,0,,0,-1,0,-1,-1,RJTS 292000Z NIL=,
20180129_210000.003,0,RJTS,,,,0,20180129210000,-1,-1,-1,-1,330,-1,3,-1,-1,-1,-1,,9999,0,0,1,FEW 50,-1,5,-1,11,1010,RJTS 292100Z 33003KT 9999 FEW050 M05/M11 Q1010 RMK 1SC050     A2985=,
20180129_220000.003,0,RJTS,,,,0,20180129220000,-1,-1,-1,-1,340,-1,6,-1,-1,-1,-1,,9999,0,0,1,FEW 45,-1,2,-1,11,1012,RJTS 292200Z 34006KT 9999 FEW045 M02/M11 Q1012 RMK 1SC045     A2989=,
20180129_230000.003,0,RJTS,,,,0,20180129230000,-1,-1,-1,-1,360,-1,6,-1,-1,-1,-1,,9999,0,0,1,FEW 45,-1,1,-1,11,1012,RJTS 292300Z 36006KT 9999 FEW045 M01/M11 Q1012 RMK 1SC045     A2990=,
20180130_000000.003,0,RJTS,,,,0,20180130000000,-1,-1,-1,-1,999,-1,2,-1,-1,-1,-1,,9999,0,0,1,FEW 40,-1,0,-1,11,1013,RJTS 300000Z VRB02KT 9999 FEW040 M00/M11 Q1013 RMK 1CU040     A2991=,
20180130_010000.003,0,RJTS,,,,0,20180130010000,-1,-1,-1,-1,70,-1,4,-1,-1,-1,-1,,9999,0,0,2,FEW 40   SCT 50,1,1,-1,10,1013,RJTS 300100Z 07004KT 9999 FEW040 SCT050 01/M10 Q1013 RMK     1CU040 3CU050 A2992=,
20180130_020000.003,0,RJTS,,,,0,20180130020000,-1,-1,-1,-1,130,-1,7,-1,-1,-1,-1,,9999,0,0,2,FEW 40   SCT 50,1,2,-1,10,1013,RJTS 300200Z 13007KT 9999 FEW040 SCT050 02/M10 Q1013 RMK     1CU040 4CU050 A2991=,
20180130_030000.003,0,RJTS,,,,0,20180130030000,-1,-1,-1,-1,180,-1,5,-1,-1,-1,-1,,9999,0,0,2,FEW 40   SCT 70,1,3,-1,10,1012,RJTS 300300Z 18005KT 9999 FEW040 SCT070 03/M10 Q1012 RMK     1CU040 3AC070 A2989=,
20180130_040000.003,0,RJTS,,,,0,20180130040000,-1,-1,-1,-1,340,-1,6,-1,-1,-1,-1,,9999,0,0,1,SCT 70,1,4,-1,15,1011,RJTS 300400Z 34006KT 9999 SCT070 04/M15 Q1011 RMK 3AC070 A2988     MAX WIND 14KT=,
20180130_050000.003,0,RJTS,,,,0,20180130050000,-1,-1,-1,-1,280,-1,8,-1,-1,-1,-1,,9999,0,0,2,FEW 40   SCT 70,1,4,-1,15,1011,RJTS 300500Z 28008KT 9999 FEW040 SCT070 04/M15 Q1011 RMK     1CU040 3AC070 A2988=,
20180130_060000.004,0,RJTS,,,,0,20180130060000,-1,-1,-1,-1,290,-1,5,-1,-1,-1,-1,,9999,0,0,1,FEW 40,1,4,-1,14,1012,RJTS 300600Z 29005KT 9999 FEW040 04/M14 Q1012 RMK 1CU040     A2989=,
20180130_070000.003,0,RJTS,,,,0,20180130070000,-1,-1,-1,-1,10,-1,15,-1,-1,-1,-1,,9999,0,0,1,FEW 40,1,2,-1,11,1012,RJTS 300700Z 01015KT 9999 FEW040 02/M11 Q1012 RMK 1CU040     A2990=,
20180130_080000.003,0,RJTS,,,,0,20180130080000,-1,-1,-1,-1,90,-1,8,-1,-1,-1,-1,,9999,0,0,1,FEW 50,1,1,-1,11,1013,RJTS 300800Z 09008KT 9999 FEW050 01/M11 Q1013 RMK 1CU050     A2994=,
20180130_090000.003,0,RJTS,,,,0,20180130090000,-1,-1,-1,-1,-1,-1,-1,-1,-1,-1,-1,,-1,0,0,0,,0,-1,0,-1,-1,RJTS 300900Z NIL=,
20180130_100000.003,0,RJTS,,,,0,20180130100000,-1,-1,-1,-1,-1,-1,-1,-1,-1,-1,-1,,-1,0,0,0,,0,-1,0,-1,-1,RJTS 301000Z NIL=,
20180130_110000.003,0,RJTS,,,,0,20180130110000,-1,-1,-1,-1,-1,-1,-1,-1,-1,-1,-1,,-1,0,0,0,,0,-1,0,-1,-1,RJTS 301100Z NIL=,
20180130_120000.003,0,RJTS,,,,0,20180130120000,-1,-1,-1,-1,-1,-1,-1,-1,-1,-1,-1,,-1,0,0,0,,0,-1,0,-1,-1,RJTS 301200Z NIL=,
20180130_130000.003,0,RJTS,,,,0,20180130130000,-1,-1,-1,-1,-1,-1,-1,-1,-1,-1,-1,,-1,0,0,0,,0,-1,0,-1,-1,RJTS 301300Z NIL=,
20180130_140000.003,0,RJTS,,,,0,20180130140000,-1,-1,-1,-1,-1,-1,-1,-1,-1,-1,-1,,-1,0,0,0,,0,-1,0,-1,-1,RJTS 301400Z NIL=,
20180130_150000.003,0,RJTS,,,,0,20180130150000,-1,-1,-1,-1,-1,-1,-1,-1,-1,-1,-1,,-1,0,0,0,,0,-1,0,-1,-1,RJTS 301500Z NIL=,
20180130_160000.003,0,RJTS,,,,0,20180130160000,-1,-1,-1,-1,-1,-1,-1,-1,-1,-1,-1,,-1,0,0,0,,0,-1,0,-1,-1,RJTS 301600Z NIL=,
20180130_170000.003,0,RJTS,,,,0,20180130170000,-1,-1,-1,-1,-1,-1,-1,-1,-1,-1,-1,,-1,0,0,0,,0,-1,0,-1,-1,RJTS 301700Z NIL=,
20180130_180000.003,0,RJTS,,,,0,20180130180000,-1,-1,-1,-1,-1,-1,-1,-1,-1,-1,-1,,-1,0,0,0,,0,-1,0,-1,-1,RJTS 301800Z NIL=,
20180130_190000.003,0,RJTS,,,,0,20180130190000,-1,-1,-1,-1,-1,-1,-1,-1,-1,-1,-1,,-1,0,0,0,,0,-1,0,-1,-1,RJTS 301900Z NIL=,
20180130_200000.003,0,RJTS,,,,0,20180130200000,-1,-1,-1,-1,-1,-1,-1,-1,-1,-1,-1,,-1,0,0,0,,0,-1,0,-1,-1,RJTS 302000Z NIL=,
20180130_210000.003,0,RJTS,,,,0,20180130210000,-1,-1,-1,-1,290,-1,4,-1,-1,-1,-1,,9999,0,0,1,FEW 100,-1,5,-1,13,1017,RJTS 302100Z 29004KT 9999 FEW100 M05/M13 Q1017 RMK 1AC100     A3005=,
20180130_220000.003,0,RJTS,,,,0,20180130220000,-1,-1,-1,-1,310,-1,4,-1,-1,-1,-1,,9999,0,0,1,FEW 60,-1,5,-1,11,1018,RJTS 302200Z 31004KT 9999 FEW060 M05/M11 Q1018 RMK 1SC060     A3007=,
20180130_230000.003,0,RJTS,,,,0,20180130230000,-1,-1,-1,-1,999,-1,1,-1,-1,-1,-1,,9999,0,0,1,FEW 60,-1,1,-1,12,1018,RJTS 302300Z VRB01KT 9999 FEW060 M01/M12 Q1018 RMK 1SC060     A3008=,
20180131_000000.003,0,RJTS,,,,0,20180131000000,-1,-1,-1,-1,999,-1,1,-1,-1,-1,-1,,9999,0,0,1,FEW 30,1,0,-1,12,1019,RJTS 310000Z VRB01KT 9999 FEW030 00/M12 Q1019 RMK 1CU030     A3011=,
20180131_010000.003,0,RJTS,,,,0,20180131010000,-1,-1,-1,-1,130,-1,3,-1,-1,-1,-1,,9999,0,0,1,FEW 80,1,2,-1,11,1019,RJTS 310100Z 13003KT 9999 FEW080 02/M11 Q1019 RMK 1AC080     A3011=,
20180131_020000.003,0,RJTS,,,,0,20180131020000,-1,-1,-1,-1,60,-1,2,-1,-1,-1,-1,,9999,0,0,2,FEW 40   SCT 230,1,4,-1,12,1019,RJTS 310200Z 06002KT 9999 FEW040 SCT230 04/M12 Q1019 RMK     1CU040 3CI230 A3010=,
20180131_030000.003,0,RJTS,,,,0,20180131030000,-1,-1,-1,-1,130,-1,3,-1,-1,-1,-1,,9999,0,0,2,FEW 40   SCT 230,1,6,-1,11,1019,RJTS 310300Z 13003KT 9999 FEW040 SCT230 06/M11 Q1019 RMK     1CU040 3CI230 A3009=,
20180131_040000.003,0,RJTS,,,,0,20180131040000,-1,-1,-1,-1,999,-1,2,-1,-1,-1,-1,,9999,0,0,2,FEW 40   SCT 230,1,6,-1,12,1017,RJTS 310400Z VRB02KT 9999 FEW040 SCT230 06/M12 Q1017 RMK     1CU040 3CI230 A3004=,
20180131_050000.003,0,RJTS,,,,0,20180131050000,-1,-1,-1,-1,120,-1,5,-1,-1,-1,-1,,9999,0,0,1,FEW 40,1,6,-1,12,1017,RJTS 310500Z 12005KT 9999 FEW040 06/M12 Q1017 RMK 1CU040     A3004=,
20180131_060000.003,0,RJTS,,,,0,20180131060000,-1,-1,-1,-1,150,-1,4,-1,-1,-1,-1,,9999,0,0,2,FEW 50   SCT 230,1,7,-1,12,1017,RJTS 310600Z 15004KT 9999 FEW050 SCT230 07/M12 Q1017 RMK     1CU050 3CI230 A3005=,
20180131_070000.004,0,RJTS,,,,0,20180131070000,-1,-1,-1,-1,150,-1,3,-1,-1,-1,-1,,9999,0,0,2,FEW 50   BKN 230,1,6,-1,12,1018,RJTS 310700Z 15003KT 9999 FEW050 BKN230 06/M12 Q1018 RMK     1CU050 6CI230 A3006=,
20180131_080000.004,0,RJTS,,,,0,20180131080000,-1,-1,-1,-1,130,-1,4,-1,-1,-1,-1,,9999,0,0,2,FEW 50   BKN 230,1,5,-1,11,1018,RJTS 310800Z 13004KT 9999 FEW050 BKN230 05/M11 Q1018 RMK     1CU050 6CI230 A3008=,
20180131_090000.003,0,RJTS,,,,0,20180131090000,-1,-1,-1,-1,-1,-1,-1,-1,-1,-1,-1,,-1,0,0,0,,0,-1,0,-1,-1,RJTS 310900Z NIL=,
20180131_100000.003,0,RJTS,,,,0,20180131100000,-1,-1,-1,-1,-1,-1,-1,-1,-1,-1,-1,,-1,0,0,0,,0,-1,0,-1,-1,RJTS 311000Z NIL=,
20180131_110000.003,0,RJTS,,,,0,20180131110000,-1,-1,-1,-1,-1,-1,-1,-1,-1,-1,-1,,-1,0,0,0,,0,-1,0,-1,-1,RJTS 311100Z NIL=,
20180131_120000.003,0,RJTS,,,,0,20180131120000,-1,-1,-1,-1,-1,-1,-1,-1,-1,-1,-1,,-1,0,0,0,,0,-1,0,-1,-1,RJTS 311200Z NIL=,
20180131_130000.004,0,RJTS,,,,0,20180131130000,-1,-1,-1,-1,-1,-1,-1,-1,-1,-1,-1,,-1,0,0,0,,0,-1,0,-1,-1,RJTS 311300Z NIL=,
20180131_140000.003,0,RJTS,,,,0,20180131140000,-1,-1,-1,-1,-1,-1,-1,-1,-1,-1,-1,,-1,0,0,0,,0,-1,0,-1,-1,RJTS 311400Z NIL=,
20180131_150000.003,0,RJTS,,,,0,20180131150000,-1,-1,-1,-1,-1,-1,-1,-1,-1,-1,-1,,-1,0,0,0,,0,-1,0,-1,-1,RJTS 311500Z NIL=,
20180131_160000.003,0,RJTS,,,,0,20180131160000,-1,-1,-1,-1,-1,-1,-1,-1,-1,-1,-1,,-1,0,0,0,,0,-1,0,-1,-1,RJTS 311600Z NIL=,
20180131_170000.003,0,RJTS,,,,0,20180131170000,-1,-1,-1,-1,-1,-1,-1,-1,-1,-1,-1,,-1,0,0,0,,0,-1,0,-1,-1,RJTS 311700Z NIL=,
20180131_180000.003,0,RJTS,,,,0,20180131180000,-1,-1,-1,-1,-1,-1,-1,-1,-1,-1,-1,,-1,0,0,0,,0,-1,0,-1,-1,RJTS 311800Z NIL=,
20180131_190000.004,0,RJTS,,,,0,20180131190000,-1,-1,-1,-1,-1,-1,-1,-1,-1,-1,-1,,-1,0,0,0,,0,-1,0,-1,-1,RJTS 311900Z NIL=,
20180131_200000.004,0,RJTS,,,,0,20180131200000,-1,-1,-1,-1,-1,-1,-1,-1,-1,-1,-1,,-1,0,0,0,,0,-1,0,-1,-1,RJTS 312000Z NIL=,
20180131_210000.003,0,RJTS,,,,0,20180131210000,-1,-1,-1,-1,320,-1,3,-1,-1,-1,-1,,9999,0,0,2,FEW 40   BKN 170,-1,2,-1,7,1020,RJTS 312100Z 32003KT 9999 FEW040 BKN170 M02/M07 Q1020 RMK     1CU040 5AC170 A3014=,
20180131_220000.003,0,RJTS,,,,0,20180131220000,-1,-1,-1,-1,310,-1,3,-1,-1,-1,-1,,9999,0,0,2,FEW 40   SCT 170,-1,2,-1,8,1021,RJTS 312200Z 31003KT 9999 FEW040 SCT170 M02/M08 Q1021 RMK     1CU040 4AC170 A3015=,
20180131_230000.003,0,RJTS,,,,0,20180131230000,-1,-1,-1,-1,190,-1,1,-1,-1,-1,-1,,9999,0,0,2,FEW 60   BKN 120,1,0,-1,7,1022,RJTS 312300Z 19001KT 9999 FEW060 BKN120 00/M07 Q1022 RMK     1SC060 5AC120 A3018=,
20180201_000000.004,0,RJTS,,,,0,20180201000000,-1,-1,-1,-1,70,-1,4,-1,-1,-1,-1,,9999,0,0,3,FEW 60   BKN 120   BKN 200,1,1,-1,7,1023,RJTS 010000Z 07004KT 9999 FEW060 BKN120 BKN200 01/M07 Q1023     RMK 1SC060 5AC120 7CI200 A3021=,
20180201_010000.003,0,RJTS,,,,0,20180201010000,-1,-1,-1,-1,50,-1,6,-1,-1,-1,-1,,9999,0,0,3,FEW 60   BKN 100   BKN 200,1,1,-1,7,1023,RJTS 010100Z 05006KT 9999 FEW060 BKN100 BKN200 01/M07 Q1023     RMK 1SC060 6AC100 7CI200 A3023=,
20180201_020000.003,0,RJTS,,,,0,20180201020000,-1,-1,-1,-1,50,-1,4,-1,-1,-1,-1,,9999,0,0,3,FEW 40   SCT 80   BKN 100,1,1,-1,7,1023,RJTS 010200Z 05004KT 9999 FEW040 SCT080 BKN100 01/M07 Q1023     RMK 1CU040 3AC080 7AC100 A3023=,
20180201_030000.004,0,RJTS,,,,0,20180201030000,-1,-1,-1,-1,110,-1,2,-1,-1,-1,-1,,9999,0,0,3,FEW 15   BKN 50   BKN 80,1,2,-1,7,1023,RJTS 010300Z 11002KT 9999 FEW015 BKN050 BKN080 02/M07 Q1023     RMK 1SC015 5SC050 7AC080 A3021=,
20180201_040000.004,0,RJTS,,,,0,20180201040000,-1,-1,-1,-1,150,-1,4,-1,-1,-1,-1,,6000,0,1,3,FEW 10   BKN 35   BKN 50,1,1,-1,4,1022,RJTS 010400Z 15004KT 6000 -SHSN FEW010 BKN035 BKN050 01/M04     Q1022 RMK 2SC010 5SC035 7SC050 A3020=,- SN SH
20180201_050000.003,0,RJTS,,,,0,20180201050000,-1,-1,-1,-1,999,-1,2,-1,-1,-1,-1,,1500,0,2,3,FEW 0   SCT 5   BKN 15,-1,0,-1,1,1022,RJTS 010500Z VRB02KT 1500 -SHSN BR FEW000 SCT005 BKN015     M00/M01 Q1022 RMK 2ST000 3ST005 5SC015 A3020=,- SN SH; BR
20180201_060000.003,0,RJTS,,,,0,20180201060000,-1,-1,-1,-1,30,-1,5,-1,-1,-1,-1,,1000,0,2,3,FEW 0   SCT 5   BKN 10,1,0,-1,1,1022,RJTS 010600Z 03005KT 1000 -SHSN BR FEW000 SCT005 BKN010 00/M01     Q1022 RMK 2ST000 4ST005 6ST010 A3019=,- SN SH; BR
20180201_070000.003,0,RJTS,,,,0,20180201070000,-1,-1,-1,-1,210,-1,2,-1,-1,-1,-1,,1000,0,2,3,FEW 0   SCT 5   BKN 8,-1,0,-1,1,1022,RJTS 010700Z 21002KT 1000 -SHSN BR FEW000 SCT005 BKN008     M00/M01 Q1022 RMK 2ST000 4ST005 6ST008 A3019=,- SN SH; BR
20180201_080000.003,0,RJTS,,,,0,20180201080000,-1,-1,-1,-1,200,-1,1,-1,-1,-1,-1,,800,0,2,3,SCT 0   BKN 5   BKN 8,-1,0,-1,1,1022,RJTS 010800Z 20001KT 0800 SHSN FG SCT000 BKN005 BKN008 M00/M01     Q1022 RMK 3ST000 5ST005 7ST008 A3020=,SN SH; FG
20180201_090000.003,0,RJTS,,,,0,20180201090000,-1,-1,-1,-1,-1,-1,-1,-1,-1,-1,-1,,-1,0,0,0,,0,-1,0,-1,-1,RJTS 010900Z NIL=,
20180201_100000.003,0,RJTS,,,,0,20180201100000,-1,-1,-1,-1,-1,-1,-1,-1,-1,-1,-1,,-1,0,0,0,,0,-1,0,-1,-1,RJTS 011000Z NIL=,
20180201_110000.003,0,RJTS,,,,0,20180201110000,-1,-1,-1,-1,-1,-1,-1,-1,-1,-1,-1,,-1,0,0,0,,0,-1,0,-1,-1,RJTS 011100Z NIL=,
20180201_120000.003,0,RJTS,,,,0,20180201120000,-1,-1,-1,-1,-1,-1,-1,-1,-1,-1,-1,,-1,0,0,0,,0,-1,0,-1,-1,RJTS 011200Z NIL=,
20180201_130000.003,0,RJTS,,,,0,20180201130000,-1,-1,-1,-1,-1,-1,-1,-1,-1,-1,-1,,-1,0,0,0,,0,-1,0,-1,-1,RJTS 011300Z NIL=,
20180201_140000.003,0,RJTS,,,,0,20180201140000,-1,-1,-1,-1,-1,-1,-1,-1,-1,-1,-1,,-1,0,0,0,,0,-1,0,-1,-1,RJTS 011400Z NIL=,
20180201_150000.003,0,RJTS,,,,0,20180201150000,-1,-1,-1,-1,-1,-1,-1,-1,-1,-1,-1,,-1,0,0,0,,0,-1,0,-1,-1,RJTS 011500Z NIL=,
20180201_160000.003,0,RJTS,,,,0,20180201160000,-1,-1,-1,-1,-1,-1,-1,-1,-1,-1,-1,,-1,0,0,0,,0,-1,0,-1,-1,RJTS 011600Z NIL=,
20180201_170000.003,0,RJTS,,,,0,20180201170000,-1,-1,-1,-1,-1,-1,-1,-1,-1,-1,-1,,-1,0,0,0,,0,-1,0,-1,-1,RJTS 011700Z NIL=,
20180201_180000.003,0,RJTS,,,,0,20180201180000,-1,-1,-1,-1,-1,-1,-1,-1,-1,-1,-1,,-1,0,0,0,,0,-1,0,-1,-1,RJTS 011800Z NIL=,
20180201_190000.004,0,RJTS,,,,0,20180201190000,-1,-1,-1,-1,-1,-1,-1,-1,-1,-1,-1,,-1,0,0,0,,0,-1,0,-1,-1,RJTS 011900Z NIL=,
20180201_200000.004,0,RJTS,,,,0,20180201200000,-1,-1,-1,-1,-1,-1,-1,-1,-1,-1,-1,,-1,0,0,0,,0,-1,0,-1,-1,RJTS 012000Z NIL=,
20180201_210000.003,0,RJTS,,,,0,20180201210000,-1,-1,-1,-1,200,-1,2,-1,-1,-1,-1,,400,0,2,3,FEW 0   SCT 1   BKN 2,-1,2,-1,2,1023,RJTS 012100Z 20002KT 0400 SHSN FG FEW000 SCT001 BKN002 M02/M02     Q1023 RMK 2ST000 3ST001 6ST002 A3023=,SN SH; FG
20180201_220000.003,0,RJTS,,,,0,20180201220000,-1,-1,-1,-1,220,-1,2,-1,-1,-1,-1,,400,0,2,3,FEW 0   BKN 2   BKN 4,-1,2,-1,2,1023,RJTS 012200Z 22002KT 0400 SHSN FG FEW000 BKN002 BKN004 M02/M02     Q1023 RMK 1ST000 6ST002 6ST004 A3023=,SN SH; FG
20180201_230000.004,0,RJTS,,,,0,20180201230000,-1,-1,-1,-1,230,-1,3,-1,-1,-1,-1,,1500,0,2,3,FEW 0   BKN 4   BKN 20,-1,1,-1,2,1024,RJTS 012300Z 23003KT 1500 -SHSN BR FEW000 BKN004 BKN020     M01/M02 Q1024 RMK 2ST000 5ST004 6SC020 A3024=,- SN SH; BR
20180202_000000.003,0,RJTS,,,,0,20180202000000,-1,-1,-1,-1,220,-1,3,-1,-1,-1,-1,,2000,0,2,3,FEW 0   BKN 5   BKN 30,-1,1,-1,2,1024,RJTS 020000Z 22003KT 2000 -SHSN BR FEW000 BKN005 BKN030     M01/M02 Q1024 RMK 2ST000 5ST005 7SC030 A3024=,- SN SH; BR
20180202_010000.003,0,RJTS,,,,0,20180202010000,-1,-1,-1,-1,210,-1,3,-1,-1,-1,-1,,4000,0,2,3,FEW 0   SCT 5   BKN 35,-1,0,-1,2,1023,RJTS 020100Z 21003KT 4000 -SHSN BR FEW000 SCT005 BKN035     M00/M02 Q1023 RMK 2ST000 4ST005 7SC035 A3022=,- SN SH; BR
20180202_020000.003,0,RJTS,,,,0,20180202020000,-1,-1,-1,-1,210,-1,5,-1,-1,-1,-1,,6000,0,1,3,FEW 0   SCT 5   BKN 35,1,0,-1,1,1023,RJTS 020200Z 21005KT 6000 -SHSN FEW000 SCT005 BKN035 00/M01     Q1023 RMK 1ST000 3ST005 6SC035 A3022=,- SN SH
20180202_030000.003,0,RJTS,,,,0,20180202030000,-1,-1,-1,-1,220,-1,3,-1,-1,-1,-1,,4000,0,2,3,FEW 0   BKN 5   BKN 35,1,0,-1,1,1022,RJTS 020300Z 22003KT 4000 -SHSN BR FEW000 BKN005 BKN035 00/M01     Q1022 RMK 2ST000 5ST005 7SC035 A3019=,- SN SH; BR
20180202_040000.003,0,RJTS,,,,0,20180202040000,-1,-1,-1,-1,220,-1,4,-1,-1,-1,-1,,7000,0,1,3,FEW 5   BKN 35   BKN 60,1,1,-1,0,1021,RJTS 020400Z 22004KT 7000 -SHSN FEW005 BKN035 BKN060 01/M00     Q1021 RMK 2ST005 5SC035 7SC060 A3017=,- SN SH
20180202_050000.002,0,RJTS,,,,0,20180202050000,-1,-1,-1,-1,230,-1,3,-1,-1,-1,-1,,9999,0,0,3,FEW 0   SCT 35   BKN 60,1,2,-1,2,1021,RJTS 020500Z 23003KT 9999 FEW000 SCT035 BKN060 02/M02 Q1021     RMK 1ST000 3SC035 6SC060 A3016=,
20180202_060000.003,0,RJTS,,,,0,20180202060000,-1,-1,-1,-1,200,-1,3,-1,-1,-1,-1,,9999,0,0,3,FEW 10   SCT 40   BKN 70,1,2,-1,3,1021,RJTS 020600Z 20003KT 9999 FEW010 SCT040 BKN070 02/M03 Q1021     RMK 1ST010 3SC040 6AC070 A3016=,
20180202_070000.003,0,RJTS,,,,0,20180202070000,-1,-1,-1,-1,210,-1,3,-1,-1,-1,-1,,9999,0,0,3,FEW 10   SCT 40   BKN 70,1,1,-1,2,1021,RJTS 020700Z 21003KT 9999 FEW010 SCT040 BKN070 01/M02 Q1021     RMK 1ST010 3SC040 6AC070 A3016=,
20180202_080000.003,0,RJTS,,,,0,20180202080000,-1,-1,-1,-1,210,-1,1,-1,-1,-1,-1,,9999,0,0,3,FEW 10   SCT 30   BKN 70,1,1,-1,2,1021,RJTS 020800Z 21001KT 9999 FEW010 SCT030 BKN070 01/M02 Q1021     RMK 1ST010 3SC030 5AC070 A3016=,
20180202_090000.003,0,RJTS,,,,0,20180202090000,-1,-1,-1,-1,-1,-1,-1,-1,-1,-1,-1,,-1,0,0,0,,0,-1,0,-1,-1,RJTS 020900Z NIL=,
20180202_100000.004,0,RJTS,,,,0,20180202100000,-1,-1,-1,-1,-1,-1,-1,-1,-1,-1,-1,,-1,0,0,0,,0,-1,0,-1,-1,RJTS 021000Z NIL=,
20180202_110000.003,0,RJTS,,,,0,20180202110000,-1,-1,-1,-1,-1,-1,-1,-1,-1,-1,-1,,-1,0,0,0,,0,-1,0,-1,-1,RJTS 021100Z NIL=,
20180202_120000.003,0,RJTS,,,,0,20180202120000,-1,-1,-1,-1,-1,-1,-1,-1,-1,-1,-1,,-1,0,0,0,,0,-1,0,-1,-1,RJTS 021200Z NIL=,
20180202_130000.004,0,RJTS,,,,0,20180202130000,-1,-1,-1,-1,-1,-1,-1,-1,-1,-1,-1,,-1,0,0,0,,0,-1,0,-1,-1,RJTS 021300Z NIL=,
20180202_140000.003,0,RJTS,,,,0,20180202140000,-1,-1,-1,-1,-1,-1,-1,-1,-1,-1,-1,,-1,0,0,0,,0,-1,0,-1,-1,RJTS 021400Z NIL=,
20180202_150000.003,0,RJTS,,,,0,20180202150000,-1,-1,-1,-1,-1,-1,-1,-1,-1,-1,-1,,-1,0,0,0,,0,-1,0,-1,-1,RJTS 021500Z NIL=,
20180202_160000.003,0,RJTS,,,,0,20180202160000,-1,-1,-1,-1,-1,-1,-1,-1,-1,-1,-1,,-1,0,0,0,,0,-1,0,-1,-1,RJTS 021600Z NIL=,
20180202_170000.003,0,RJTS,,,,0,20180202170000,-1,-1,-1,-1,-1,-1,-1,-1,-1,-1,-1,,-1,0,0,0,,0,-1,0,-1,-1,RJTS 021700Z NIL=,
20180202_180000.004,0,RJTS,,,,0,20180202180000,-1,-1,-1,-1,-1,-1,-1,-1,-1,-1,-1,,-1,0,0,0,,0,-1,0,-1,-1,RJTS 021800Z NIL=,
20180202_190000.004,0,RJTS,,,,0,20180202190000,-1,-1,-1,-1,-1,-1,-1,-1,-1,-1,-1,,-1,0,0,0,,0,-1,0,-1,-1,RJTS 021900Z NIL=,
20180202_200000.004,0,RJTS,,,,0,20180202200000,-1,-1,-1,-1,-1,-1,-1,-1,-1,-1,-1,,-1,0,0,0,,0,-1,0,-1,-1,RJTS 022000Z NIL=,
20180202_210000.003,0,RJTS,,,,0,20180202210000,-1,-1,-1,-1,-1,-1,-1,-1,-1,-1,-1,,-1,0,0,0,,0,-1,0,-1,-1,RJTS 022100Z NIL=,
20180202_220000.003,0,RJTS,,,,0,20180202220000,-1,-1,-1,-1,-1,-1,-1,-1,-1,-1,-1,,-1,0,0,0,,0,-1,0,-1,-1,RJTS 022200Z NIL=,
20180202_230000.004,0,RJTS,,,,0,20180202230000,-1,-1,-1,-1,-1,-1,-1,-1,-1,-1,-1,,-1,0,0,0,,0,-1,0,-1,-1,RJTS 022300Z NIL=,
20180203_000000.003,0,RJTS,,,,0,20180203000000,-1,-1,-1,-1,-1,-1,-1,-1,-1,-1,-1,,-1,0,0,0,,0,-1,0,-1,-1,RJTS 030000Z NIL=,
20180203_010000.004,0,RJTS,,,,0,20180203010000,-1,-1,-1,-1,-1,-1,-1,-1,-1,-1,-1,,-1,0,0,0,,0,-1,0,-1,-1,RJTS 030100Z NIL=,
20180203_020000.003,0,RJTS,,,,0,20180203020000,-1,-1,-1,-1,-1,-1,-1,-1,-1,-1,-1,,-1,0,0,0,,0,-1,0,-1,-1,RJTS 030200Z NIL=,
20180203_030000.003,0,RJTS,,,,0,20180203030000,-1,-1,-1,-1,-1,-1,-1,-1,-1,-1,-1,,-1,0,0,0,,0,-1,0,-1,-1,RJTS 030300Z NIL=,
20180203_040000.003,0,RJTS,,,,0,20180203040000,-1,-1,-1,-1,-1,-1,-1,-1,-1,-1,-1,,-1,0,0,0,,0,-1,0,-1,-1,RJTS 030400Z NIL=,
20180203_050000.003,0,RJTS,,,,0,20180203050000,-1,-1,-1,-1,-1,-1,-1,-1,-1,-1,-1,,-1,0,0,0,,0,-1,0,-1,-1,RJTS 030500Z NIL=,
20180203_060000.003,0,RJTS,,,,0,20180203060000,-1,-1,-1,-1,-1,-1,-1,-1,-1,-1,-1,,-1,0,0,0,,0,-1,0,-1,-1,RJTS 030600Z NIL=,
20180203_070000.004,0,RJTS,,,,0,20180203070000,-1,-1,-1,-1,-1,-1,-1,-1,-1,-1,-1,,-1,0,0,0,,0,-1,0,-1,-1,RJTS 030700Z NIL=,
20180203_080000.003,0,RJTS,,,,0,20180203080000,-1,-1,-1,-1,-1,-1,-1,-1,-1,-1,-1,,-1,0,0,0,,0,-1,0,-1,-1,RJTS 030800Z NIL=,
20180203_090000.003,0,RJTS,,,,0,20180203090000,-1,-1,-1,-1,-1,-1,-1,-1,-1,-1,-1,,-1,0,0,0,,0,-1,0,-1,-1,RJTS 030900Z NIL=,
20180203_100000.003,0,RJTS,,,,0,20180203100000,-1,-1,-1,-1,-1,-1,-1,-1,-1,-1,-1,,-1,0,0,0,,0,-1,0,-1,-1,RJTS 031000Z NIL=,
20180203_110000.003,0,RJTS,,,,0,20180203110000,-1,-1,-1,-1,-1,-1,-1,-1,-1,-1,-1,,-1,0,0,0,,0,-1,0,-1,-1,RJTS 031100Z NIL=,
20180203_120000.003,0,RJTS,,,,0,20180203120000,-1,-1,-1,-1,-1,-1,-1,-1,-1,-1,-1,,-1,0,0,0,,0,-1,0,-1,-1,RJTS 031200Z NIL=,
20180203_130000.003,0,RJTS,,,,0,20180203130000,-1,-1,-1,-1,-1,-1,-1,-1,-1,-1,-1,,-1,0,0,0,,0,-1,0,-1,-1,RJTS 031300Z NIL=,
20180203_140000.003,0,RJTS,,,,0,20180203140000,-1,-1,-1,-1,-1,-1,-1,-1,-1,-1,-1,,-1,0,0,0,,0,-1,0,-1,-1,RJTS 031400Z NIL=,
20180203_150000.003,0,RJTS,,,,0,20180203150000,-1,-1,-1,-1,-1,-1,-1,-1,-1,-1,-1,,-1,0,0,0,,0,-1,0,-1,-1,RJTS 031500Z NIL=,
20180203_160000.003,0,RJTS,,,,0,20180203160000,-1,-1,-1,-1,-1,-1,-1,-1,-1,-1,-1,,-1,0,0,0,,0,-1,0,-1,-1,RJTS 031600Z NIL=,
20180203_170000.003,0,RJTS,,,,0,20180203170000,-1,-1,-1,-1,-1,-1,-1,-1,-1,-1,-1,,-1,0,0,0,,0,-1,0,-1,-1,RJTS 031700Z NIL=,
20180203_180000.004,0,RJTS,,,,0,20180203180000,-1,-1,-1,-1,-1,-1,-1,-1,-1,-1,-1,,-1,0,0,0,,0,-1,0,-1,-1,RJTS 031800Z NIL=,
20180203_190000.003,0,RJTS,,,,0,20180203190000,-1,-1,-1,-1,-1,-1,-1,-1,-1,-1,-1,,-1,0,0,0,,0,-1,0,-1,-1,RJTS 031900Z NIL=,
20180203_200000.003,0,RJTS,,,,0,20180203200000,-1,-1,-1,-1,-1,-1,-1,-1,-1,-1,-1,,-1,0,0,0,,0,-1,0,-1,-1,RJTS 032000Z NIL=,
20180203_210000.003,0,RJTS,,,,0,20180203210000,-1,-1,-1,-1,-1,-1,-1,-1,-1,-1,-1,,-1,0,0,0,,0,-1,0,-1,-1,RJTS 032100Z NIL=,
20180203_220000.003,0,RJTS,,,,0,20180203220000,-1,-1,-1,-1,-1,-1,-1,-1,-1,-1,-1,,-1,0,0,0,,0,-1,0,-1,-1,RJTS 032200Z NIL=,
20180203_230000.003,0,RJTS,,,,0,20180203230000,-1,-1,-1,-1,-1,-1,-1,-1,-1,-1,-1,,-1,0,0,0,,0,-1,0,-1,-1,RJTS 032300Z NIL=,
20180204_000000.003,0,RJTS,,,,0,20180204000000,-1,-1,-1,-1,-1,-1,-1,-1,-1,-1,-1,,-1,0,0,0,,0,-1,0,-1,-1,RJTS 040000Z NIL=,
20180204_010000.003,0,RJTS,,,,0,20180204010000,-1,-1,-1,-1,-1,-1,-1,-1,-1,-1,-1,,-1,0,0,0,,0,-1,0,-1,-1,RJTS 040100Z NIL=,
20180204_020000.003,0,RJTS,,,,0,20180204020000,-1,-1,-1,-1,-1,-1,-1,-1,-1,-1,-1,,-1,0,0,0,,0,-1,0,-1,-1,RJTS 040200Z NIL=,
20180204_030000.003,0,RJTS,,,,0,20180204030000,-1,-1,-1,-1,-1,-1,-1,-1,-1,-1,-1,,-1,0,0,0,,0,-1,0,-1,-1,RJTS 040300Z NIL=,
20180204_040000.003,0,RJTS,,,,0,20180204040000,-1,-1,-1,-1,-1,-1,-1,-1,-1,-1,-1,,-1,0,0,0,,0,-1,0,-1,-1,RJTS 040400Z NIL=,
20180204_050000.003,0,RJTS,,,,0,20180204050000,-1,-1,-1,-1,-1,-1,-1,-1,-1,-1,-1,,-1,0,0,0,,0,-1,0,-1,-1,RJTS 040500Z NIL=,
20180204_060000.003,0,RJTS,,,,0,20180204060000,-1,-1,-1,-1,-1,-1,-1,-1,-1,-1,-1,,-1,0,0,0,,0,-1,0,-1,-1,RJTS 040600Z NIL=,
20180204_070000.003,0,RJTS,,,,0,20180204070000,-1,-1,-1,-1,-1,-1,-1,-1,-1,-1,-1,,-1,0,0,0,,0,-1,0,-1,-1,RJTS 040700Z NIL=,
20180204_080000.003,0,RJTS,,,,0,20180204080000,-1,-1,-1,-1,-1,-1,-1,-1,-1,-1,-1,,-1,0,0,0,,0,-1,0,-1,-1,RJTS 040800Z NIL=,
20180204_090000.003,0,RJTS,,,,0,20180204090000,-1,-1,-1,-1,-1,-1,-1,-1,-1,-1,-1,,-1,0,0,0,,0,-1,0,-1,-1,RJTS 040900Z NIL=,
20180204_100000.003,0,RJTS,,,,0,20180204100000,-1,-1,-1,-1,-1,-1,-1,-1,-1,-1,-1,,-1,0,0,0,,0,-1,0,-1,-1,RJTS 041000Z NIL=,
20180204_110000.004,0,RJTS,,,,0,20180204110000,-1,-1,-1,-1,-1,-1,-1,-1,-1,-1,-1,,-1,0,0,0,,0,-1,0,-1,-1,RJTS 041100Z NIL=,
20180204_120000.003,0,RJTS,,,,0,20180204120000,-1,-1,-1,-1,-1,-1,-1,-1,-1,-1,-1,,-1,0,0,0,,0,-1,0,-1,-1,RJTS 041200Z NIL=,
20180204_130000.003,0,RJTS,,,,0,20180204130000,-1,-1,-1,-1,-1,-1,-1,-1,-1,-1,-1,,-1,0,0,0,,0,-1,0,-1,-1,RJTS 041300Z NIL=,
20180204_140000.003,0,RJTS,,,,0,20180204140000,-1,-1,-1,-1,-1,-1,-1,-1,-1,-1,-1,,-1,0,0,0,,0,-1,0,-1,-1,RJTS 041400Z NIL=,
20180204_150000.003,0,RJTS,,,,0,20180204150000,-1,-1,-1,-1,-1,-1,-1,-1,-1,-1,-1,,-1,0,0,0,,0,-1,0,-1,-1,RJTS 041500Z NIL=,
20180204_160000.003,0,RJTS,,,,0,20180204160000,-1,-1,-1,-1,-1,-1,-1,-1,-1,-1,-1,,-1,0,0,0,,0,-1,0,-1,-1,RJTS 041600Z NIL=,
20180204_170000.003,0,RJTS,,,,0,20180204170000,-1,-1,-1,-1,-1,-1,-1,-1,-1,-1,-1,,-1,0,0,0,,0,-1,0,-1,-1,RJTS 041700Z NIL=,
20180204_180000.004,0,RJTS,,,,0,20180204180000,-1,-1,-1,-1,-1,-1,-1,-1,-1,-1,-1,,-1,0,0,0,,0,-1,0,-1,-1,RJTS 041800Z NIL=,
20180204_190000.003,0,RJTS,,,,0,20180204190000,-1,-1,-1,-1,-1,-1,-1,-1,-1,-1,-1,,-1,0,0,0,,0,-1,0,-1,-1,RJTS 041900Z NIL=,
20180204_200000.003,0,RJTS,,,,0,20180204200000,-1,-1,-1,-1,-1,-1,-1,-1,-1,-1,-1,,-1,0,0,0,,0,-1,0,-1,-1,RJTS 042000Z NIL=,
20180204_210000.003,0,RJTS,,,,0,20180204210000,-1,-1,-1,-1,320,-1,2,-1,-1,-1,-1,,9999,0,0,1,FEW 40,-1,6,-1,9,1009,RJTS 042100Z 32002KT 9999 FEW040 M06/M09 Q1009 RMK 1SC040     A2982=,
20180204_220000.003,0,RJTS,,,,0,20180204220000,-1,-1,-1,-1,340,-1,3,-1,-1,-1,-1,,9999,0,0,1,FEW 40,-1,4,-1,7,1010,RJTS 042200Z 34003KT 9999 FEW040 M04/M07 Q1010 RMK 1SC040     A2984=,
20180204_230000.003,0,RJTS,,,,0,20180204230000,-1,-1,-1,-1,330,-1,1,-1,-1,-1,-1,,9999,0,0,1,FEW 45,-1,3,-1,8,1010,RJTS 042300Z 33001KT 9999 FEW045 M03/M08 Q1010 RMK 1SC045     A2984=,
20180205_000000.004,0,RJTS,,,,0,20180205000000,-1,-1,-1,-1,50,-1,3,-1,-1,-1,-1,,9999,0,0,1,FEW 45,-1,0,-1,8,1010,RJTS 050000Z 05003KT 9999 FEW045 M00/M08 Q1010 RMK 1SC045     A2984=,
20180205_010000.003,0,RJTS,,,,0,20180205010000,-1,-1,-1,-1,40,-1,7,-1,-1,-1,-1,,9999,0,0,1,FEW 45,1,1,-1,10,1010,RJTS 050100Z 04007KT 9999 FEW045 01/M10 Q1010 RMK 1CU045     A2982=,
20180205_020000.003,0,RJTS,,,,0,20180205020000,-1,-1,-1,-1,70,-1,5,-1,-1,-1,-1,,9999,0,0,1,FEW 45,1,3,-1,9,1009,RJTS 050200Z 07005KT 9999 FEW045 03/M09 Q1009 RMK 1CU045     A2980=,
