20180101_000000.003,0,RJTU,,,,0,20180101000000,-1,-1,-1,-1,-1,-1,-1,-1,-1,-1,-1,,-1,0,0,0,,0,-1,0,-1,-1,RJTU 010000Z NIL=,
20180101_010000.003,0,RJTU,,,,0,20180101010000,-1,-1,-1,-1,-1,-1,-1,-1,-1,-1,-1,,-1,0,0,0,,0,-1,0,-1,-1,RJTU 010100Z NIL=,
20180101_020000.003,0,RJTU,,,,0,20180101020000,-1,-1,-1,-1,-1,-1,-1,-1,-1,-1,-1,,-1,0,0,0,,0,-1,0,-1,-1,RJTU 010200Z NIL=,
20180101_030000.003,0,RJTU,,,,0,20180101030000,-1,-1,-1,-1,-1,-1,-1,-1,-1,-1,-1,,-1,0,0,0,,0,-1,0,-1,-1,RJTU 010300Z NIL=,
20180101_040000.003,0,RJTU,,,,0,20180101040000,-1,-1,-1,-1,-1,-1,-1,-1,-1,-1,-1,,-1,0,0,0,,0,-1,0,-1,-1,RJTU 010400Z NIL=,
20180101_050000.003,0,RJTU,,,,0,20180101050000,-1,-1,-1,-1,-1,-1,-1,-1,-1,-1,-1,,-1,0,0,0,,0,-1,0,-1,-1,RJTU 010500Z NIL=,
20180101_060000.003,0,RJTU,,,,0,20180101060000,-1,-1,-1,-1,-1,-1,-1,-1,-1,-1,-1,,-1,0,0,0,,0,-1,0,-1,-1,RJTU 010600Z NIL=,
20180101_070000.003,0,RJTU,,,,0,20180101070000,-1,-1,-1,-1,-1,-1,-1,-1,-1,-1,-1,,-1,0,0,0,,0,-1,0,-1,-1,RJTU 010700Z NIL=,
20180101_080000.003,0,RJTU,,,,0,20180101080000,-1,-1,-1,-1,-1,-1,-1,-1,-1,-1,-1,,-1,0,0,0,,0,-1,0,-1,-1,RJTU 010800Z NIL=,
20180101_090000.003,0,RJTU,,,,0,20180101090000,-1,-1,-1,-1,-1,-1,-1,-1,-1,-1,-1,,-1,0,0,0,,0,-1,0,-1,-1,RJTU 010900Z NIL=,
20180101_100000.003,0,RJTU,,,,0,20180101100000,-1,-1,-1,-1,-1,-1,-1,-1,-1,-1,-1,,-1,0,0,0,,0,-1,0,-1,-1,RJTU 011000Z NIL=,
20180101_110000.003,0,RJTU,,,,0,20180101110000,-1,-1,-1,-1,-1,-1,-1,-1,-1,-1,-1,,-1,0,0,0,,0,-1,0,-1,-1,RJTU 011100Z NIL=,
20180101_120000.003,0,RJTU,,,,0,20180101120000,-1,-1,-1,-1,-1,-1,-1,-1,-1,-1,-1,,-1,0,0,0,,0,-1,0,-1,-1,RJTU 011200Z NIL=,
20180101_130000.003,0,RJTU,,,,0,20180101130000,-1,-1,-1,-1,-1,-1,-1,-1,-1,-1,-1,,-1,0,0,0,,0,-1,0,-1,-1,RJTU 011300Z NIL=,
20180101_140000.003,0,RJTU,,,,0,20180101140000,-1,-1,-1,-1,-1,-1,-1,-1,-1,-1,-1,,-1,0,0,0,,0,-1,0,-1,-1,RJTU 011400Z NIL=,
20180101_150000.003,0,RJTU,,,,0,20180101150000,-1,-1,-1,-1,-1,-1,-1,-1,-1,-1,-1,,-1,0,0,0,,0,-1,0,-1,-1,RJTU 011500Z NIL=,
20180101_160000.003,0,RJTU,,,,0,20180101160000,-1,-1,-1,-1,-1,-1,-1,-1,-1,-1,-1,,-1,0,0,0,,0,-1,0,-1,-1,RJTU 011600Z NIL=,
20180101_170000.003,0,RJTU,,,,0,20180101170000,-1,-1,-1,-1,-1,-1,-1,-1,-1,-1,-1,,-1,0,0,0,,0,-1,0,-1,-1,RJTU 011700Z NIL=,
20180101_180000.004,0,RJTU,,,,0,20180101180000,-1,-1,-1,-1,-1,-1,-1,-1,-1,-1,-1,,-1,0,0,0,,0,-1,0,-1,-1,RJTU 011800Z NIL=,
20180101_190000.004,0,RJTU,,,,0,20180101190000,-1,-1,-1,-1,-1,-1,-1,-1,-1,-1,-1,,-1,0,0,0,,0,-1,0,-1,-1,RJTU 011900Z NIL=,
20180101_200000.004,0,RJTU,,,,0,20180101200000,-1,-1,-1,-1,-1,-1,-1,-1,-1,-1,-1,,-1,0,0,0,,0,-1,0,-1,-1,RJTU 012000Z NIL=,
20180101_210000.003,0,RJTU,,,,0,20180101210000,-1,-1,-1,-1,-1,-1,-1,-1,-1,-1,-1,,-1,0,0,0,,0,-1,0,-1,-1,RJTU 012100Z NIL=,
20180101_220000.003,0,RJTU,,,,0,20180101220000,-1,-1,-1,-1,-1,-1,-1,-1,-1,-1,-1,,-1,0,0,0,,0,-1,0,-1,-1,RJTU 012200Z NIL=,
20180101_230000.003,0,RJTU,,,,0,20180101230000,-1,-1,-1,-1,-1,-1,-1,-1,-1,-1,-1,,-1,0,0,0,,0,-1,0,-1,-1,RJTU 012300Z NIL=,
20180102_000000.004,0,RJTU,,,,0,20180102000000,-1,-1,-1,-1,-1,-1,-1,-1,-1,-1,-1,,-1,0,0,0,,0,-1,0,-1,-1,RJTU 020000Z NIL=,
20180102_010000.004,0,RJTU,,,,0,20180102010000,-1,-1,-1,-1,-1,-1,-1,-1,-1,-1,-1,,-1,0,0,0,,0,-1,0,-1,-1,RJTU 020100Z NIL=,
20180102_020000.003,0,RJTU,,,,0,20180102020000,-1,-1,-1,-1,-1,-1,-1,-1,-1,-1,-1,,-1,0,0,0,,0,-1,0,-1,-1,RJTU 020200Z NIL=,
20180102_030000.003,0,RJTU,,,,0,20180102030000,-1,-1,-1,-1,-1,-1,-1,-1,-1,-1,-1,,-1,0,0,0,,0,-1,0,-1,-1,RJTU 020300Z NIL=,
20180102_040000.003,0,RJTU,,,,0,20180102040000,-1,-1,-1,-1,-1,-1,-1,-1,-1,-1,-1,,-1,0,0,0,,0,-1,0,-1,-1,RJTU 020400Z NIL=,
20180102_050000.003,0,RJTU,,,,0,20180102050000,-1,-1,-1,-1,-1,-1,-1,-1,-1,-1,-1,,-1,0,0,0,,0,-1,0,-1,-1,RJTU 020500Z NIL=,
20180102_060000.003,0,RJTU,,,,0,20180102060000,-1,-1,-1,-1,-1,-1,-1,-1,-1,-1,-1,,-1,0,0,0,,0,-1,0,-1,-1,RJTU 020600Z NIL=,
20180102_070000.003,0,RJTU,,,,0,20180102070000,-1,-1,-1,-1,-1,-1,-1,-1,-1,-1,-1,,-1,0,0,0,,0,-1,0,-1,-1,RJTU 020700Z NIL=,
20180102_080000.003,0,RJTU,,,,0,20180102080000,-1,-1,-1,-1,-1,-1,-1,-1,-1,-1,-1,,-1,0,0,0,,0,-1,0,-1,-1,RJTU 020800Z NIL=,
20180102_090000.003,0,RJTU,,,,0,20180102090000,-1,-1,-1,-1,-1,-1,-1,-1,-1,-1,-1,,-1,0,0,0,,0,-1,0,-1,-1,RJTU 020900Z NIL=,
20180102_100000.003,0,RJTU,,,,0,20180102100000,-1,-1,-1,-1,-1,-1,-1,-1,-1,-1,-1,,-1,0,0,0,,0,-1,0,-1,-1,RJTU 021000Z NIL=,
20180102_110000.003,0,RJTU,,,,0,20180102110000,-1,-1,-1,-1,-1,-1,-1,-1,-1,-1,-1,,-1,0,0,0,,0,-1,0,-1,-1,RJTU 021100Z NIL=,
20180102_120000.003,0,RJTU,,,,0,20180102120000,-1,-1,-1,-1,-1,-1,-1,-1,-1,-1,-1,,-1,0,0,0,,0,-1,0,-1,-1,RJTU 021200Z NIL=,
20180102_130000.004,0,RJTU,,,,0,20180102130000,-1,-1,-1,-1,-1,-1,-1,-1,-1,-1,-1,,-1,0,0,0,,0,-1,0,-1,-1,RJTU 021300Z NIL=,
20180102_140000.004,0,RJTU,,,,0,20180102140000,-1,-1,-1,-1,-1,-1,-1,-1,-1,-1,-1,,-1,0,0,0,,0,-1,0,-1,-1,RJTU 021400Z NIL=,
20180102_150000.003,0,RJTU,,,,0,20180102150000,-1,-1,-1,-1,-1,-1,-1,-1,-1,-1,-1,,-1,0,0,0,,0,-1,0,-1,-1,RJTU 021500Z NIL=,
20180102_160000.003,0,RJTU,,,,0,20180102160000,-1,-1,-1,-1,-1,-1,-1,-1,-1,-1,-1,,-1,0,0,0,,0,-1,0,-1,-1,RJTU 021600Z NIL=,
20180102_170000.003,0,RJTU,,,,0,20180102170000,-1,-1,-1,-1,-1,-1,-1,-1,-1,-1,-1,,-1,0,0,0,,0,-1,0,-1,-1,RJTU 021700Z NIL=,
20180102_180000.004,0,RJTU,,,,0,20180102180000,-1,-1,-1,-1,-1,-1,-1,-1,-1,-1,-1,,-1,0,0,0,,0,-1,0,-1,-1,RJTU 021800Z NIL=,
20180102_190000.003,0,RJTU,,,,0,20180102190000,-1,-1,-1,-1,-1,-1,-1,-1,-1,-1,-1,,-1,0,0,0,,0,-1,0,-1,-1,RJTU 021900Z NIL=,
20180102_200000.004,0,RJTU,,,,0,20180102200000,-1,-1,-1,-1,-1,-1,-1,-1,-1,-1,-1,,-1,0,0,0,,0,-1,0,-1,-1,RJTU 022000Z NIL=,
20180102_210000.003,0,RJTU,,,,0,20180102210000,-1,-1,-1,-1,-1,-1,-1,-1,-1,-1,-1,,-1,0,0,0,,0,-1,0,-1,-1,RJTU 022100Z NIL=,
20180102_220000.003,0,RJTU,,,,0,20180102220000,-1,-1,-1,-1,-1,-1,-1,-1,-1,-1,-1,,-1,0,0,0,,0,-1,0,-1,-1,RJTU 022200Z NIL=,
20180102_230000.003,0,RJTU,,,,0,20180102230000,-1,-1,-1,-1,-1,-1,-1,-1,-1,-1,-1,,-1,0,0,0,,0,-1,0,-1,-1,RJTU 022300Z NIL=,
20180103_000000.003,0,RJTU,,,,0,20180103000000,-1,-1,-1,-1,-1,-1,-1,-1,-1,-1,-1,,-1,0,0,0,,0,-1,0,-1,-1,RJTU 030000Z NIL=,
20180103_010000.003,0,RJTU,,,,0,20180103010000,-1,-1,-1,-1,-1,-1,-1,-1,-1,-1,-1,,-1,0,0,0,,0,-1,0,-1,-1,RJTU 030100Z NIL=,
20180103_020000.003,0,RJTU,,,,0,20180103020000,-1,-1,-1,-1,-1,-1,-1,-1,-1,-1,-1,,-1,0,0,0,,0,-1,0,-1,-1,RJTU 030200Z NIL=,
20180103_030000.004,0,RJTU,,,,0,20180103030000,-1,-1,-1,-1,-1,-1,-1,-1,-1,-1,-1,,-1,0,0,0,,0,-1,0,-1,-1,RJTU 030300Z NIL=,
20180103_040000.003,0,RJTU,,,,0,20180103040000,-1,-1,-1,-1,-1,-1,-1,-1,-1,-1,-1,,-1,0,0,0,,0,-1,0,-1,-1,RJTU 030400Z NIL=,
20180103_050000.003,0,RJTU,,,,0,20180103050000,-1,-1,-1,-1,-1,-1,-1,-1,-1,-1,-1,,-1,0,0,0,,0,-1,0,-1,-1,RJTU 030500Z NIL=,
20180103_060000.003,0,RJTU,,,,0,20180103060000,-1,-1,-1,-1,-1,-1,-1,-1,-1,-1,-1,,-1,0,0,0,,0,-1,0,-1,-1,RJTU 030600Z NIL=,
20180103_070000.003,0,RJTU,,,,0,20180103070000,-1,-1,-1,-1,-1,-1,-1,-1,-1,-1,-1,,-1,0,0,0,,0,-1,0,-1,-1,RJTU 030700Z NIL=,
20180103_080000.003,0,RJTU,,,,0,20180103080000,-1,-1,-1,-1,-1,-1,-1,-1,-1,-1,-1,,-1,0,0,0,,0,-1,0,-1,-1,RJTU 030800Z NIL=,
20180103_090000.003,0,RJTU,,,,0,20180103090000,-1,-1,-1,-1,-1,-1,-1,-1,-1,-1,-1,,-1,0,0,0,,0,-1,0,-1,-1,RJTU 030900Z NIL=,
20180103_100000.003,0,RJTU,,,,0,20180103100000,-1,-1,-1,-1,-1,-1,-1,-1,-1,-1,-1,,-1,0,0,0,,0,-1,0,-1,-1,RJTU 031000Z NIL=,
20180103_110000.003,0,RJTU,,,,0,20180103110000,-1,-1,-1,-1,-1,-1,-1,-1,-1,-1,-1,,-1,0,0,0,,0,-1,0,-1,-1,RJTU 031100Z NIL=,
20180103_120000.003,0,RJTU,,,,0,20180103120000,-1,-1,-1,-1,-1,-1,-1,-1,-1,-1,-1,,-1,0,0,0,,0,-1,0,-1,-1,RJTU 031200Z NIL=,
20180103_130000.004,0,RJTU,,,,0,20180103130000,-1,-1,-1,-1,-1,-1,-1,-1,-1,-1,-1,,-1,0,0,0,,0,-1,0,-1,-1,RJTU 031300Z NIL=,
20180103_140000.003,0,RJTU,,,,0,20180103140000,-1,-1,-1,-1,-1,-1,-1,-1,-1,-1,-1,,-1,0,0,0,,0,-1,0,-1,-1,RJTU 031400Z NIL=,
20180103_150000.003,0,RJTU,,,,0,20180103150000,-1,-1,-1,-1,-1,-1,-1,-1,-1,-1,-1,,-1,0,0,0,,0,-1,0,-1,-1,RJTU 031500Z NIL=,
20180103_160000.003,0,RJTU,,,,0,20180103160000,-1,-1,-1,-1,-1,-1,-1,-1,-1,-1,-1,,-1,0,0,0,,0,-1,0,-1,-1,RJTU 031600Z NIL=,
20180103_170000.003,0,RJTU,,,,0,20180103170000,-1,-1,-1,-1,-1,-1,-1,-1,-1,-1,-1,,-1,0,0,0,,0,-1,0,-1,-1,RJTU 031700Z NIL=,
20180103_180000.003,0,RJTU,,,,0,20180103180000,-1,-1,-1,-1,-1,-1,-1,-1,-1,-1,-1,,-1,0,0,0,,0,-1,0,-1,-1,RJTU 031800Z NIL=,
20180103_190000.003,0,RJTU,,,,0,20180103190000,-1,-1,-1,-1,-1,-1,-1,-1,-1,-1,-1,,-1,0,0,0,,0,-1,0,-1,-1,RJTU 031900Z NIL=,
20180103_200000.003,0,RJTU,,,,0,20180103200000,-1,-1,-1,-1,999,-1,2,-1,-1,-1,-1,,9999,0,0,1,FEW 30,-1,3,-1,8,1018,RJTU 032000Z VRB02KT 9999 FEW030 M03/M08 Q1018 RMK 1CU030     A3006=,
20180103_210000.004,0,RJTU,,,,0,20180103210000,-1,-1,-1,-1,330,-1,3,-1,-1,-1,-1,,9999,0,0,1,FEW 30,-1,4,-1,9,1018,RJTU 032100Z 33003KT 9999 FEW030 M04/M09 Q1018 RMK 1CU030     A3008=,
20180103_220000.003,0,RJTU,,,,0,20180103220000,-1,-1,-1,-1,320,-1,3,-1,-1,-1,-1,,9999,0,0,1,FEW 30,-1,4,-1,9,1019,RJTU 032200Z 32003KT 9999 FEW030 M04/M09 Q1019 RMK 1CU030     A3010=,
20180103_230000.003,0,RJTU,,,,0,20180103230000,-1,-1,-1,-1,300,-1,3,-1,-1,-1,-1,,9999,0,0,1,FEW 30,-1,3,-1,8,1019,RJTU 032300Z 30003KT 9999 FEW030 M03/M08 Q1019 RMK 1CU030     A3009=,
20180104_000000.003,0,RJTU,,,,0,20180104000000,-1,-1,-1,-1,999,-1,1,-1,-1,-1,-1,,9999,0,0,1,FEW 30,1,0,-1,6,1019,RJTU 040000Z VRB01KT 9999 FEW030 00/M06 Q1019 RMK 1CU030     A3009=,
20180104_010000.003,0,RJTU,,,,0,20180104010000,-1,-1,-1,-1,999,-1,2,-1,-1,-1,-1,,9999,0,0,1,FEW 30,1,3,-1,7,1019,RJTU 040100Z VRB02KT 9999 FEW030 03/M07 Q1019 RMK 1CU030     A3010=,
20180104_020000.005,0,RJTU,,,,0,20180104020000,-1,-1,-1,-1,110,-1,5,-1,-1,60,170,,9999,0,0,2,FEW 30   SCT 80,1,4,-1,8,1018,RJTU 040200Z 11005KT 060V170 9999 FEW030 SCT080 04/M08 Q1018     RMK 1CU030 3AC080 A3007=,
20180104_030000.004,0,RJTU,,,,0,20180104030000,-1,-1,-1,-1,120,-1,5,-1,-1,70,180,,9999,0,0,2,FEW 30   SCT 80,1,6,-1,8,1017,RJTU 040300Z 12005KT 070V180 9999 FEW030 SCT080 06/M08 Q1017     RMK 1CU030 4AC080 A3004=,
20180104_040000.003,0,RJTU,,,,0,20180104040000,-1,-1,-1,-1,999,-1,4,-1,-1,-1,-1,,9999,0,0,2,FEW 30   SCT 80,1,7,-1,9,1016,RJTU 040400Z VRB04KT 9999 FEW030 SCT080 07/M09 Q1016 RMK     1CU030 3AC080 A3002=,
20180104_050000.003,0,RJTU,,,,0,20180104050000,-1,-1,-1,-1,50,-1,5,-1,-1,-1,-1,,9999,0,0,2,FEW 30   BKN 80,1,7,-1,9,1016,RJTU 040500Z 05005KT 9999 FEW030 BKN080 07/M09 Q1016 RMK     1CU030 5AC080 A3002=,
20180104_060000.004,0,RJTU,,,,0,20180104060000,-1,-1,-1,-1,50,-1,6,-1,-1,-1,-1,,9999,0,0,2,FEW 30   BKN 80,1,6,-1,9,1016,RJTU 040600Z 05006KT 9999 FEW030 BKN080 06/M09 Q1016 RMK     1CU030 6AC080 A3003=,
20180104_070000.003,0,RJTU,,,,0,20180104070000,-1,-1,-1,-1,60,-1,7,-1,-1,-1,-1,,9999,0,0,2,FEW 30   BKN 70,1,5,-1,7,1017,RJTU 040700Z 06007KT 9999 FEW030 BKN070 05/M07 Q1017 RMK     1CU030 5AC070 A3003=,
20180104_080000.003,0,RJTU,,,,0,20180104080000,-1,-1,-1,-1,70,-1,8,-1,-1,-1,-1,,9999,0,0,2,FEW 30   BKN 70,1,5,-1,8,1017,RJTU 040800Z 07008KT 9999 FEW030 BKN070 05/M08 Q1017 RMK     1CU030 5AC070 A3004=,
20180104_090000.003,0,RJTU,,,,0,20180104090000,-1,-1,-1,-1,-1,-1,-1,-1,-1,-1,-1,,-1,0,0,0,,0,-1,0,-1,-1,RJTU 040900Z NIL=,
20180104_100000.003,0,RJTU,,,,0,20180104100000,-1,-1,-1,-1,-1,-1,-1,-1,-1,-1,-1,,-1,0,0,0,,0,-1,0,-1,-1,RJTU 041000Z NIL=,
20180104_110000.003,0,RJTU,,,,0,20180104110000,-1,-1,-1,-1,-1,-1,-1,-1,-1,-1,-1,,-1,0,0,0,,0,-1,0,-1,-1,RJTU 041100Z NIL=,
20180104_120000.004,0,RJTU,,,,0,20180104120000,-1,-1,-1,-1,-1,-1,-1,-1,-1,-1,-1,,-1,0,0,0,,0,-1,0,-1,-1,RJTU 041200Z NIL=,
20180104_130000.003,0,RJTU,,,,0,20180104130000,-1,-1,-1,-1,-1,-1,-1,-1,-1,-1,-1,,-1,0,0,0,,0,-1,0,-1,-1,RJTU 041300Z NIL=,
20180104_140000.003,0,RJTU,,,,0,20180104140000,-1,-1,-1,-1,-1,-1,-1,-1,-1,-1,-1,,-1,0,0,0,,0,-1,0,-1,-1,RJTU 041400Z NIL=,
20180104_150000.004,0,RJTU,,,,0,20180104150000,-1,-1,-1,-1,-1,-1,-1,-1,-1,-1,-1,,-1,0,0,0,,0,-1,0,-1,-1,RJTU 041500Z NIL=,
20180104_160000.004,0,RJTU,,,,0,20180104160000,-1,-1,-1,-1,-1,-1,-1,-1,-1,-1,-1,,-1,0,0,0,,0,-1,0,-1,-1,RJTU 041600Z NIL=,
20180104_170000.004,0,RJTU,,,,0,20180104170000,-1,-1,-1,-1,-1,-1,-1,-1,-1,-1,-1,,-1,0,0,0,,0,-1,0,-1,-1,RJTU 041700Z NIL=,
20180104_180000.003,0,RJTU,,,,0,20180104180000,-1,-1,-1,-1,-1,-1,-1,-1,-1,-1,-1,,-1,0,0,0,,0,-1,0,-1,-1,RJTU 041800Z NIL=,
20180104_190000.004,0,RJTU,,,,0,20180104190000,-1,-1,-1,-1,-1,-1,-1,-1,-1,-1,-1,,-1,0,0,0,,0,-1,0,-1,-1,RJTU 041900Z NIL=,
20180104_200000.003,0,RJTU,,,,0,20180104200000,-1,-1,-1,-1,-1,-1,-1,-1,-1,-1,-1,,-1,0,0,0,,0,-1,0,-1,-1,RJTU 042000Z NIL=,
20180104_210000.003,0,RJTU,,,,0,20180104210000,-1,-1,-1,-1,270,-1,3,-1,-1,-1,-1,,9999,0,0,1,BKN 180,-1,3,-1,7,1017,RJTU 042100Z 27003KT 9999 BKN180 M03/M07 Q1017 RMK 7AC180     A3006=,
20180104_220000.003,0,RJTU,,,,0,20180104220000,-1,-1,-1,-1,300,-1,3,-1,-1,-1,-1,,9999,0,0,2,SCT 180   BKN 240,-1,3,-1,8,1018,RJTU 042200Z 30003KT 9999 SCT180 BKN240 M03/M08 Q1018 RMK     4AC180 6CI240 A3006=,
20180104_230000.003,0,RJTU,,,,0,20180104230000,-1,-1,-1,-1,999,-1,1,-1,-1,-1,-1,,9999,0,0,2,SCT 180   BKN 240,-1,2,-1,8,1018,RJTU 042300Z VRB01KT 9999 SCT180 BKN240 M02/M08 Q1018 RMK     3AC180 7CI240 A3006=,
20180105_000000.004,0,RJTU,,,,0,20180105000000,-1,-1,-1,-1,999,-1,1,-1,-1,-1,-1,,9999,0,0,2,SCT 180   BKN 240,-1,1,-1,7,1018,RJTU 050000Z VRB01KT 9999 SCT180 BKN240 M01/M07 Q1018 RMK     3AC180 7CI240 A3007=,
20180105_010000.004,0,RJTU,,,,0,20180105010000,-1,-1,-1,-1,999,-1,1,-1,-1,-1,-1,,9999,0,0,2,FEW 150   BKN 200,1,2,-1,7,1018,RJTU 050100Z VRB01KT 9999 FEW150 BKN200 02/M07 Q1018 RMK     1AC150 7CI200 A3007=,
20180105_020000.003,0,RJTU,,,,0,20180105020000,-1,-1,-1,-1,999,-1,2,-1,-1,-1,-1,,9999,0,0,2,FEW 150   BKN 240,1,4,-1,9,1016,RJTU 050200Z VRB02KT 9999 FEW150 BKN240 04/M09 Q1016 RMK     1AC150 6CI240 A3003=,
20180105_030000.003,0,RJTU,,,,0,20180105030000,-1,-1,-1,-1,999,-1,4,-1,-1,-1,-1,,9999,0,0,2,FEW 60   BKN 240,1,5,-1,9,1016,RJTU 050300Z VRB04KT 9999 FEW060 BKN240 05/M09 Q1016 RMK     1SC060 6CI240 A3001=,
20180105_040000.003,0,RJTU,,,,0,20180105040000,-1,-1,-1,-1,170,-1,3,-1,-1,100,230,,9999,0,0,3,FEW 30   SCT 120   BKN 160,1,5,-1,10,1014,RJTU 050400Z 17003KT 100V230 9999 FEW030 SCT120 BKN160 05/M10     Q1014 RMK 1CU030 3AC120 6AC160 A2997=,
20180105_050000.003,0,RJTU,,,,0,20180105050000,-1,-1,-1,-1,999,-1,3,-1,-1,-1,-1,,9999,0,0,3,FEW 30   SCT 120   BKN 160,1,5,-1,10,1014,RJTU 050500Z VRB03KT 9999 FEW030 SCT120 BKN160 05/M10 Q1014     RMK 1CU030 3AC120 7AC160 A2995=,
20180105_060000.003,0,RJTU,,,,0,20180105060000,-1,-1,-1,-1,999,-1,2,-1,-1,-1,-1,,9999,0,0,2,FEW 30   BKN 140,1,5,-1,11,1013,RJTU 050600Z VRB02KT 9999 FEW030 BKN140 05/M11 Q1013 RMK     1CU030 7AC140 A2994=,
20180105_070000.003,0,RJTU,,,,0,20180105070000,-1,-1,-1,-1,999,-1,2,-1,-1,-1,-1,,9999,0,0,3,FEW 30   SCT 120   BKN 140,1,5,-1,9,1013,RJTU 050700Z VRB02KT 9999 FEW030 SCT120 BKN140 05/M09 Q1013     RMK 1CU030 4AC120 6AC140 A2994=,
20180105_080000.003,0,RJTU,,,,0,20180105080000,-1,-1,-1,-1,300,-1,1,-1,-1,-1,-1,,9999,0,0,3,FEW 70   BKN 120   BKN 140,1,4,-1,9,1013,RJTU 050800Z 30001KT 9999 FEW070 BKN120 BKN140 04/M09 Q1013     RMK 1AC070 5AC120 7AC140 A2994=,
20180105_090000.003,0,RJTU,,,,0,20180105090000,-1,-1,-1,-1,-1,-1,-1,-1,-1,-1,-1,,-1,0,0,0,,0,-1,0,-1,-1,RJTU 050900Z NIL=,
20180105_100000.003,0,RJTU,,,,0,20180105100000,-1,-1,-1,-1,-1,-1,-1,-1,-1,-1,-1,,-1,0,0,0,,0,-1,0,-1,-1,RJTU 051000Z NIL=,
20180105_110000.003,0,RJTU,,,,0,20180105110000,-1,-1,-1,-1,-1,-1,-1,-1,-1,-1,-1,,-1,0,0,0,,0,-1,0,-1,-1,RJTU 051100Z NIL=,
20180105_120000.003,0,RJTU,,,,0,20180105120000,-1,-1,-1,-1,-1,-1,-1,-1,-1,-1,-1,,-1,0,0,0,,0,-1,0,-1,-1,RJTU 051200Z NIL=,
20180105_130000.003,0,RJTU,,,,0,20180105130000,-1,-1,-1,-1,-1,-1,-1,-1,-1,-1,-1,,-1,0,0,0,,0,-1,0,-1,-1,RJTU 051300Z NIL=,
20180105_140000.003,0,RJTU,,,,0,20180105140000,-1,-1,-1,-1,-1,-1,-1,-1,-1,-1,-1,,-1,0,0,0,,0,-1,0,-1,-1,RJTU 051400Z NIL=,
20180105_150000.003,0,RJTU,,,,0,20180105150000,-1,-1,-1,-1,-1,-1,-1,-1,-1,-1,-1,,-1,0,0,0,,0,-1,0,-1,-1,RJTU 051500Z NIL=,
20180105_160000.004,0,RJTU,,,,0,20180105160000,-1,-1,-1,-1,-1,-1,-1,-1,-1,-1,-1,,-1,0,0,0,,0,-1,0,-1,-1,RJTU 051600Z NIL=,
20180105_170000.003,0,RJTU,,,,0,20180105170000,-1,-1,-1,-1,-1,-1,-1,-1,-1,-1,-1,,-1,0,0,0,,0,-1,0,-1,-1,RJTU 051700Z NIL=,
20180105_180000.004,0,RJTU,,,,0,20180105180000,-1,-1,-1,-1,-1,-1,-1,-1,-1,-1,-1,,-1,0,0,0,,0,-1,0,-1,-1,RJTU 051800Z NIL=,
20180105_190000.003,0,RJTU,,,,0,20180105190000,-1,-1,-1,-1,-1,-1,-1,-1,-1,-1,-1,,-1,0,0,0,,0,-1,0,-1,-1,RJTU 051900Z NIL=,
20180105_200000.003,0,RJTU,,,,0,20180105200000,-1,-1,-1,-1,-1,-1,-1,-1,-1,-1,-1,,-1,0,0,0,,0,-1,0,-1,-1,RJTU 052000Z NIL=,
20180105_210000.004,0,RJTU,,,,0,20180105210000,-1,-1,-1,-1,-1,-1,-1,-1,-1,-1,-1,,-1,0,0,0,,0,-1,0,-1,-1,RJTU 052100Z NIL=,
20180105_220000.003,0,RJTU,,,,0,20180105220000,-1,-1,-1,-1,-1,-1,-1,-1,-1,-1,-1,,-1,0,0,0,,0,-1,0,-1,-1,RJTU 052200Z NIL=,
20180105_230000.003,0,RJTU,,,,0,20180105230000,-1,-1,-1,-1,-1,-1,-1,-1,-1,-1,-1,,-1,0,0,0,,0,-1,0,-1,-1,RJTU 052300Z NIL=,
20180106_000000.003,0,RJTU,,,,0,20180106000000,-1,-1,-1,-1,-1,-1,-1,-1,-1,-1,-1,,-1,0,0,0,,0,-1,0,-1,-1,RJTU 060000Z NIL=,
20180106_010000.003,0,RJTU,,,,0,20180106010000,-1,-1,-1,-1,-1,-1,-1,-1,-1,-1,-1,,-1,0,0,0,,0,-1,0,-1,-1,RJTU 060100Z NIL=,
20180106_020000.003,0,RJTU,,,,0,20180106020000,-1,-1,-1,-1,999,-1,2,-1,-1,-1,-1,,9999,0,0,1,FEW 30,1,5,-1,7,1011,RJTU 060200Z VRB02KT 9999 FEW030 05/M07 Q1011 RMK 1CU030     A2987=,
20180106_030000.003,0,RJTU,,,,0,20180106030000,-1,-1,-1,-1,160,-1,4,-1,-1,100,230,,9999,0,0,1,FEW 50,1,7,-1,8,1010,RJTU 060300Z 16004KT 100V230 9999 FEW050 07/M08 Q1010 RMK     1SC050 A2984=,
20180106_040000.003,0,RJTU,,,,0,20180106040000,-1,-1,-1,-1,-1,-1,-1,-1,-1,-1,-1,,-1,0,0,0,,0,-1,0,-1,-1,RJTU 060400Z NIL=,
20180106_050000.003,0,RJTU,,,,0,20180106050000,-1,-1,-1,-1,-1,-1,-1,-1,-1,-1,-1,,-1,0,0,0,,0,-1,0,-1,-1,RJTU 060500Z NIL=,
20180106_060000.003,0,RJTU,,,,0,20180106060000,-1,-1,-1,-1,-1,-1,-1,-1,-1,-1,-1,,-1,0,0,0,,0,-1,0,-1,-1,RJTU 060600Z NIL=,
20180106_070000.003,0,RJTU,,,,0,20180106070000,-1,-1,-1,-1,-1,-1,-1,-1,-1,-1,-1,,-1,0,0,0,,0,-1,0,-1,-1,RJTU 060700Z NIL=,
20180106_080000.003,0,RJTU,,,,0,20180106080000,-1,-1,-1,-1,-1,-1,-1,-1,-1,-1,-1,,-1,0,0,0,,0,-1,0,-1,-1,RJTU 060800Z NIL=,
20180106_090000.003,0,RJTU,,,,0,20180106090000,-1,-1,-1,-1,-1,-1,-1,-1,-1,-1,-1,,-1,0,0,0,,0,-1,0,-1,-1,RJTU 060900Z NIL=,
20180106_100000.003,0,RJTU,,,,0,20180106100000,-1,-1,-1,-1,-1,-1,-1,-1,-1,-1,-1,,-1,0,0,0,,0,-1,0,-1,-1,RJTU 061000Z NIL=,
20180106_110000.003,0,RJTU,,,,0,20180106110000,-1,-1,-1,-1,-1,-1,-1,-1,-1,-1,-1,,-1,0,0,0,,0,-1,0,-1,-1,RJTU 061100Z NIL=,
20180106_120000.003,0,RJTU,,,,0,20180106120000,-1,-1,-1,-1,-1,-1,-1,-1,-1,-1,-1,,-1,0,0,0,,0,-1,0,-1,-1,RJTU 061200Z NIL=,
20180106_130000.005,0,RJTU,,,,0,20180106130000,-1,-1,-1,-1,-1,-1,-1,-1,-1,-1,-1,,-1,0,0,0,,0,-1,0,-1,-1,RJTU 061300Z NIL=,
20180106_140000.004,0,RJTU,,,,0,20180106140000,-1,-1,-1,-1,-1,-1,-1,-1,-1,-1,-1,,-1,0,0,0,,0,-1,0,-1,-1,RJTU 061400Z NIL=,
20180106_150000.003,0,RJTU,,,,0,20180106150000,-1,-1,-1,-1,-1,-1,-1,-1,-1,-1,-1,,-1,0,0,0,,0,-1,0,-1,-1,RJTU 061500Z NIL=,
20180106_160000.003,0,RJTU,,,,0,20180106160000,-1,-1,-1,-1,-1,-1,-1,-1,-1,-1,-1,,-1,0,0,0,,0,-1,0,-1,-1,RJTU 061600Z NIL=,
20180106_170000.003,0,RJTU,,,,0,20180106170000,-1,-1,-1,-1,-1,-1,-1,-1,-1,-1,-1,,-1,0,0,0,,0,-1,0,-1,-1,RJTU 061700Z NIL=,
20180106_180000.004,0,RJTU,,,,0,20180106180000,-1,-1,-1,-1,-1,-1,-1,-1,-1,-1,-1,,-1,0,0,0,,0,-1,0,-1,-1,RJTU 061800Z NIL=,
20180106_190000.003,0,RJTU,,,,0,20180106190000,-1,-1,-1,-1,-1,-1,-1,-1,-1,-1,-1,,-1,0,0,0,,0,-1,0,-1,-1,RJTU 061900Z NIL=,
20180106_200000.003,0,RJTU,,,,0,20180106200000,-1,-1,-1,-1,-1,-1,-1,-1,-1,-1,-1,,-1,0,0,0,,0,-1,0,-1,-1,RJTU 062000Z NIL=,
20180106_210000.003,0,RJTU,,,,0,20180106210000,-1,-1,-1,-1,-1,-1,-1,-1,-1,-1,-1,,-1,0,0,0,,0,-1,0,-1,-1,RJTU 062100Z NIL=,
20180106_220000.003,0,RJTU,,,,0,20180106220000,-1,-1,-1,-1,-1,-1,-1,-1,-1,-1,-1,,-1,0,0,0,,0,-1,0,-1,-1,RJTU 062200Z NIL=,
20180106_230000.003,0,RJTU,,,,0,20180106230000,-1,-1,-1,-1,-1,-1,-1,-1,-1,-1,-1,,-1,0,0,0,,0,-1,0,-1,-1,RJTU 062300Z NIL=,
20180107_000000.003,0,RJTU,,,,0,20180107000000,-1,-1,-1,-1,-1,-1,-1,-1,-1,-1,-1,,-1,0,0,0,,0,-1,0,-1,-1,RJTU 070000Z NIL=,
20180107_010000.004,0,RJTU,,,,0,20180107010000,-1,-1,-1,-1,-1,-1,-1,-1,-1,-1,-1,,-1,0,0,0,,0,-1,0,-1,-1,RJTU 070100Z NIL=,
20180107_020000.003,0,RJTU,,,,0,20180107020000,-1,-1,-1,-1,-1,-1,-1,-1,-1,-1,-1,,-1,0,0,0,,0,-1,0,-1,-1,RJTU 070200Z NIL=,
20180107_030000.003,0,RJTU,,,,0,20180107030000,-1,-1,-1,-1,-1,-1,-1,-1,-1,-1,-1,,-1,0,0,0,,0,-1,0,-1,-1,RJTU 070300Z NIL=,
20180107_040000.003,0,RJTU,,,,0,20180107040000,-1,-1,-1,-1,-1,-1,-1,-1,-1,-1,-1,,-1,0,0,0,,0,-1,0,-1,-1,RJTU 070400Z NIL=,
20180107_050000.003,0,RJTU,,,,0,20180107050000,-1,-1,-1,-1,-1,-1,-1,-1,-1,-1,-1,,-1,0,0,0,,0,-1,0,-1,-1,RJTU 070500Z NIL=,
20180107_060000.003,0,RJTU,,,,0,20180107060000,-1,-1,-1,-1,-1,-1,-1,-1,-1,-1,-1,,-1,0,0,0,,0,-1,0,-1,-1,RJTU 070600Z NIL=,
20180107_070000.003,0,RJTU,,,,0,20180107070000,-1,-1,-1,-1,-1,-1,-1,-1,-1,-1,-1,,-1,0,0,0,,0,-1,0,-1,-1,RJTU 070700Z NIL=,
20180107_080000.003,0,RJTU,,,,0,20180107080000,-1,-1,-1,-1,-1,-1,-1,-1,-1,-1,-1,,-1,0,0,0,,0,-1,0,-1,-1,RJTU 070800Z NIL=,
20180107_090000.003,0,RJTU,,,,0,20180107090000,-1,-1,-1,-1,-1,-1,-1,-1,-1,-1,-1,,-1,0,0,0,,0,-1,0,-1,-1,RJTU 070900Z NIL=,
20180107_100000.003,0,RJTU,,,,0,20180107100000,-1,-1,-1,-1,-1,-1,-1,-1,-1,-1,-1,,-1,0,0,0,,0,-1,0,-1,-1,RJTU 071000Z NIL=,
20180107_110000.003,0,RJTU,,,,0,20180107110000,-1,-1,-1,-1,-1,-1,-1,-1,-1,-1,-1,,-1,0,0,0,,0,-1,0,-1,-1,RJTU 071100Z NIL=,
20180107_120000.004,0,RJTU,,,,0,20180107120000,-1,-1,-1,-1,-1,-1,-1,-1,-1,-1,-1,,-1,0,0,0,,0,-1,0,-1,-1,RJTU 071200Z NIL=,
20180107_130000.004,0,RJTU,,,,0,20180107130000,-1,-1,-1,-1,-1,-1,-1,-1,-1,-1,-1,,-1,0,0,0,,0,-1,0,-1,-1,RJTU 071300Z NIL=,
20180107_140000.004,0,RJTU,,,,0,20180107140000,-1,-1,-1,-1,-1,-1,-1,-1,-1,-1,-1,,-1,0,0,0,,0,-1,0,-1,-1,RJTU 071400Z NIL=,
20180107_150000.003,0,RJTU,,,,0,20180107150000,-1,-1,-1,-1,-1,-1,-1,-1,-1,-1,-1,,-1,0,0,0,,0,-1,0,-1,-1,RJTU 071500Z NIL=,
20180107_160000.003,0,RJTU,,,,0,20180107160000,-1,-1,-1,-1,-1,-1,-1,-1,-1,-1,-1,,-1,0,0,0,,0,-1,0,-1,-1,RJTU 071600Z NIL=,
20180107_170000.003,0,RJTU,,,,0,20180107170000,-1,-1,-1,-1,-1,-1,-1,-1,-1,-1,-1,,-1,0,0,0,,0,-1,0,-1,-1,RJTU 071700Z NIL=,
20180107_180000.003,0,RJTU,,,,0,20180107180000,-1,-1,-1,-1,-1,-1,-1,-1,-1,-1,-1,,-1,0,0,0,,0,-1,0,-1,-1,RJTU 071800Z NIL=,
20180107_190000.004,0,RJTU,,,,0,20180107190000,-1,-1,-1,-1,-1,-1,-1,-1,-1,-1,-1,,-1,0,0,0,,0,-1,0,-1,-1,RJTU 071900Z NIL=,
20180107_200000.003,0,RJTU,,,,0,20180107200000,-1,-1,-1,-1,-1,-1,-1,-1,-1,-1,-1,,-1,0,0,0,,0,-1,0,-1,-1,RJTU 072000Z NIL=,
20180107_210000.004,0,RJTU,,,,0,20180107210000,-1,-1,-1,-1,-1,-1,-1,-1,-1,-1,-1,,-1,0,0,0,,0,-1,0,-1,-1,RJTU 072100Z NIL=,
20180107_220000.003,0,RJTU,,,,0,20180107220000,-1,-1,-1,-1,-1,-1,-1,-1,-1,-1,-1,,-1,0,0,0,,0,-1,0,-1,-1,RJTU 072200Z NIL=,
20180107_230000.003,0,RJTU,,,,0,20180107230000,-1,-1,-1,-1,-1,-1,-1,-1,-1,-1,-1,,-1,0,0,0,,0,-1,0,-1,-1,RJTU 072300Z NIL=,
20180108_000000.003,0,RJTU,,,,0,20180108000000,-1,-1,-1,-1,-1,-1,-1,-1,-1,-1,-1,,-1,0,0,0,,0,-1,0,-1,-1,RJTU 080000Z NIL=,
20180108_010000.003,0,RJTU,,,,0,20180108010000,-1,-1,-1,-1,-1,-1,-1,-1,-1,-1,-1,,-1,0,0,0,,0,-1,0,-1,-1,RJTU 080100Z NIL=,
20180108_020000.004,0,RJTU,,,,0,20180108020000,-1,-1,-1,-1,-1,-1,-1,-1,-1,-1,-1,,-1,0,0,0,,0,-1,0,-1,-1,RJTU 080200Z NIL=,
20180108_030000.003,0,RJTU,,,,0,20180108030000,-1,-1,-1,-1,-1,-1,-1,-1,-1,-1,-1,,-1,0,0,0,,0,-1,0,-1,-1,RJTU 080300Z NIL=,
20180108_040000.003,0,RJTU,,,,0,20180108040000,-1,-1,-1,-1,-1,-1,-1,-1,-1,-1,-1,,-1,0,0,0,,0,-1,0,-1,-1,RJTU 080400Z NIL=,
20180108_050000.003,0,RJTU,,,,0,20180108050000,-1,-1,-1,-1,-1,-1,-1,-1,-1,-1,-1,,-1,0,0,0,,0,-1,0,-1,-1,RJTU 080500Z NIL=,
20180108_060000.004,0,RJTU,,,,0,20180108060000,-1,-1,-1,-1,-1,-1,-1,-1,-1,-1,-1,,-1,0,0,0,,0,-1,0,-1,-1,RJTU 080600Z NIL=,
20180108_070000.003,0,RJTU,,,,0,20180108070000,-1,-1,-1,-1,-1,-1,-1,-1,-1,-1,-1,,-1,0,0,0,,0,-1,0,-1,-1,RJTU 080700Z NIL=,
20180108_080000.003,0,RJTU,,,,0,20180108080000,-1,-1,-1,-1,-1,-1,-1,-1,-1,-1,-1,,-1,0,0,0,,0,-1,0,-1,-1,RJTU 080800Z NIL=,
20180108_090000.003,0,RJTU,,,,0,20180108090000,-1,-1,-1,-1,-1,-1,-1,-1,-1,-1,-1,,-1,0,0,0,,0,-1,0,-1,-1,RJTU 080900Z NIL=,
20180108_100000.003,0,RJTU,,,,0,20180108100000,-1,-1,-1,-1,-1,-1,-1,-1,-1,-1,-1,,-1,0,0,0,,0,-1,0,-1,-1,RJTU 081000Z NIL=,
20180108_110000.003,0,RJTU,,,,0,20180108110000,-1,-1,-1,-1,-1,-1,-1,-1,-1,-1,-1,,-1,0,0,0,,0,-1,0,-1,-1,RJTU 081100Z NIL=,
20180108_120000.003,0,RJTU,,,,0,20180108120000,-1,-1,-1,-1,-1,-1,-1,-1,-1,-1,-1,,-1,0,0,0,,0,-1,0,-1,-1,RJTU 081200Z NIL=,
20180108_130000.004,0,RJTU,,,,0,20180108130000,-1,-1,-1,-1,-1,-1,-1,-1,-1,-1,-1,,-1,0,0,0,,0,-1,0,-1,-1,RJTU 081300Z NIL=,
20180108_140000.003,0,RJTU,,,,0,20180108140000,-1,-1,-1,-1,-1,-1,-1,-1,-1,-1,-1,,-1,0,0,0,,0,-1,0,-1,-1,RJTU 081400Z NIL=,
20180108_150000.003,0,RJTU,,,,0,20180108150000,-1,-1,-1,-1,-1,-1,-1,-1,-1,-1,-1,,-1,0,0,0,,0,-1,0,-1,-1,RJTU 081500Z NIL=,
20180108_160000.003,0,RJTU,,,,0,20180108160000,-1,-1,-1,-1,-1,-1,-1,-1,-1,-1,-1,,-1,0,0,0,,0,-1,0,-1,-1,RJTU 081600Z NIL=,
20180108_170000.003,0,RJTU,,,,0,20180108170000,-1,-1,-1,-1,-1,-1,-1,-1,-1,-1,-1,,-1,0,0,0,,0,-1,0,-1,-1,RJTU 081700Z NIL=,
20180108_180000.003,0,RJTU,,,,0,20180108180000,-1,-1,-1,-1,-1,-1,-1,-1,-1,-1,-1,,-1,0,0,0,,0,-1,0,-1,-1,RJTU 081800Z NIL=,
20180108_190000.003,0,RJTU,,,,0,20180108190000,-1,-1,-1,-1,-1,-1,-1,-1,-1,-1,-1,,-1,0,0,0,,0,-1,0,-1,-1,RJTU 081900Z NIL=,
20180108_200000.003,0,RJTU,,,,0,20180108200000,-1,-1,-1,-1,-1,-1,-1,-1,-1,-1,-1,,-1,0,0,0,,0,-1,0,-1,-1,RJTU 082000Z NIL=,
20180108_210000.004,0,RJTU,,,,0,20180108210000,-1,-1,-1,-1,999,-1,2,-1,-1,-1,-1,,5000,0,1,2,FEW 5   BKN 80,1,4,1,3,994,RJTU 082100Z VRB02KT 5000 BR FEW005 BKN080 04/03 Q0994 RMK     1ST005 7AC080 A2936=,BR
20180108_220000.003,0,RJTU,,,,0,20180108220000,-1,-1,-1,-1,999,-1,2,-1,-1,-1,-1,,5000,0,1,3,FEW 3   BKN 80   BKN 120,1,4,1,3,993,RJTU 082200Z VRB02KT 5000 BR FEW003 BKN080 BKN120 04/03 Q0993     RMK 1ST003 5AC080 7AC120 A2935=,BR
20180108_230000.004,0,RJTU,,,,0,20180108230000,-1,-1,-1,-1,999,-1,2,-1,-1,-1,-1,,6000,0,0,3,FEW 3   BKN 120   BKN 180,1,4,1,3,993,RJTU 082300Z VRB02KT 6000 FEW003 BKN120 BKN180 04/03 Q0993 RMK     1ST003 6AC120 7CI180 A2934=,
20180109_000000.003,0,RJTU,,,,0,20180109000000,-1,-1,-1,-1,140,-1,6,-1,-1,-1,-1,,5000,0,1,2,FEW 5   BKN 130,1,4,1,3,993,RJTU 090000Z 14006KT 5000 BR FEW005 BKN130 04/03 Q0993 RMK     1ST005 6AC130 A2935=,BR
20180109_010000.003,0,RJTU,,,,0,20180109010000,-1,-1,-1,-1,999,-1,2,-1,-1,-1,-1,,5000,0,1,2,FEW 5   BKN 80,1,5,1,3,993,RJTU 090100Z VRB02KT 5000 BR FEW005 BKN080 05/03 Q0993 RMK     1ST005 5AC080 A2932 4500SE-S=,BR
20180109_020000.003,0,RJTU,,,,0,20180109020000,-1,-1,-1,-1,999,-1,2,-1,-1,-1,-1,,4500,0,1,3,FEW 6   SCT 30   BKN 70,1,5,1,3,992,RJTU 090200Z VRB02KT 4500 BR FEW006 SCT030 BKN070 05/03 Q0992     RMK 1ST006 3CU030 5AC070 A2932=,BR
20180109_030000.003,0,RJTU,,,,0,20180109030000,-1,-1,-1,-1,999,-1,2,-1,-1,-1,-1,,9999,0,0,2,FEW 6   SCT 80,1,7,1,4,991,RJTU 090300Z VRB02KT 9999 FEW006 SCT080 07/04 Q0991 RMK 1ST006     3AC080 A2927 4500SE-SW=,
20180109_040000.003,0,RJTU,,,,0,20180109040000,-1,-1,-1,-1,110,-1,5,-1,-1,70,160,,9999,0,0,2,FEW 20   SCT 80,1,10,1,5,990,RJTU 090400Z 11005KT 070V160 9999 FEW020 SCT080 10/05 Q0990     RMK 1CU020 3AC080 A2926=,
20180109_050000.003,0,RJTU,,,,0,20180109050000,-1,-1,-1,-1,90,-1,7,-1,-1,-1,-1,,9999,0,0,2,FEW 30   SCT 70,1,13,1,5,991,RJTU 090500Z 09007KT 9999 FEW030 SCT070 13/05 Q0991 RMK 1CU030     3AC070 A2927=,
20180109_060000.003,0,RJTU,,,,0,20180109060000,-1,-1,-1,-1,90,-1,3,-1,-1,30,150,,9999,0,0,2,FEW 30   SCT 70,1,13,1,5,992,RJTU 090600Z 09003KT 030V150 9999 FEW030 SCT070 13/05 Q0992     RMK 1CU030 3AC070 A2930=,
20180109_070000.003,0,RJTU,,,,0,20180109070000,-1,-1,-1,-1,280,-1,13,-1,-1,-1,-1,,9999,0,0,1,FEW 30,1,13,-1,4,993,RJTU 090700Z 28013KT 9999 FEW030 13/M04 Q0993 RMK 1CU030 A2933     MAX WIND 22KT P/RR=,
20180109_080000.003,0,RJTU,,,,0,20180109080000,-1,-1,-1,-1,280,-1,6,-1,-1,-1,-1,,9999,0,0,1,FEW 30,1,10,-1,3,995,RJTU 090800Z 28006KT 9999 FEW030 10/M03 Q0995 RMK 1CU030     A2939=,
20180109_090000.003,0,RJTU,,,,0,20180109090000,-1,-1,-1,-1,-1,-1,-1,-1,-1,-1,-1,,-1,0,0,0,,0,-1,0,-1,-1,RJTU 090900Z NIL=,
20180109_100000.003,0,RJTU,,,,0,20180109100000,-1,-1,-1,-1,-1,-1,-1,-1,-1,-1,-1,,-1,0,0,0,,0,-1,0,-1,-1,RJTU 091000Z NIL=,
20180109_110000.003,0,RJTU,,,,0,20180109110000,-1,-1,-1,-1,-1,-1,-1,-1,-1,-1,-1,,-1,0,0,0,,0,-1,0,-1,-1,RJTU 091100Z NIL=,
20180109_120000.003,0,RJTU,,,,0,20180109120000,-1,-1,-1,-1,-1,-1,-1,-1,-1,-1,-1,,-1,0,0,0,,0,-1,0,-1,-1,RJTU 091200Z NIL=,
20180109_130000.003,0,RJTU,,,,0,20180109130000,-1,-1,-1,-1,-1,-1,-1,-1,-1,-1,-1,,-1,0,0,0,,0,-1,0,-1,-1,RJTU 091300Z NIL=,
20180109_140000.003,0,RJTU,,,,0,20180109140000,-1,-1,-1,-1,-1,-1,-1,-1,-1,-1,-1,,-1,0,0,0,,0,-1,0,-1,-1,RJTU 091400Z NIL=,
20180109_150000.003,0,RJTU,,,,0,20180109150000,-1,-1,-1,-1,-1,-1,-1,-1,-1,-1,-1,,-1,0,0,0,,0,-1,0,-1,-1,RJTU 091500Z NIL=,
20180109_160000.003,0,RJTU,,,,0,20180109160000,-1,-1,-1,-1,-1,-1,-1,-1,-1,-1,-1,,-1,0,0,0,,0,-1,0,-1,-1,RJTU 091600Z NIL=,
20180109_170000.003,0,RJTU,,,,0,20180109170000,-1,-1,-1,-1,-1,-1,-1,-1,-1,-1,-1,,-1,0,0,0,,0,-1,0,-1,-1,RJTU 091700Z NIL=,
20180109_180000.003,0,RJTU,,,,0,20180109180000,-1,-1,-1,-1,-1,-1,-1,-1,-1,-1,-1,,-1,0,0,0,,0,-1,0,-1,-1,RJTU 091800Z NIL=,
20180109_190000.004,0,RJTU,,,,0,20180109190000,-1,-1,-1,-1,-1,-1,-1,-1,-1,-1,-1,,-1,0,0,0,,0,-1,0,-1,-1,RJTU 091900Z NIL=,
20180109_200000.003,0,RJTU,,,,0,20180109200000,-1,-1,-1,-1,-1,-1,-1,-1,-1,-1,-1,,-1,0,0,0,,0,-1,0,-1,-1,RJTU 092000Z NIL=,
20180109_210000.003,0,RJTU,,,,0,20180109210000,-1,-1,-1,-1,250,-1,5,-1,-1,-1,-1,,9999,0,0,1,FEW 30,1,4,-1,10,1006,RJTU 092100Z 25005KT 9999 FEW030 04/M10 Q1006 RMK 1CU030     A2971=,
20180109_220000.003,0,RJTU,,,,0,20180109220000,-1,-1,-1,-1,240,-1,4,-1,-1,-1,-1,,9999,0,0,1,FEW 50,1,3,-1,9,1006,RJTU 092200Z 24004KT 9999 FEW050 03/M09 Q1006 RMK 1SC050     A2973=,
20180109_230000.003,0,RJTU,,,,0,20180109230000,-1,-1,-1,-1,230,-1,5,-1,-1,-1,-1,,9999,0,0,1,FEW 30,1,3,-1,8,1007,RJTU 092300Z 23005KT 9999 FEW030 03/M08 Q1007 RMK 1CU030     A2975=,
20180110_000000.003,0,RJTU,,,,0,20180110000000,-1,-1,-1,-1,220,-1,6,-1,-1,-1,-1,,9999,0,0,1,FEW 30,1,5,-1,8,1007,RJTU 100000Z 22006KT 9999 FEW030 05/M08 Q1007 RMK 1CU030     A2976=,
20180110_010000.003,0,RJTU,,,,0,20180110010000,-1,-1,-1,-1,220,-1,11,-1,-1,-1,-1,,9999,0,0,1,FEW 30,1,7,-1,9,1007,RJTU 100100Z 22011KT 9999 FEW030 07/M09 Q1007 RMK 1CU030     A2974=,
20180110_020000.003,0,RJTU,,,,0,20180110020000,-1,-1,-1,-1,220,-1,12,-1,-1,-1,-1,,9999,0,0,1,FEW 30,1,9,-1,9,1006,RJTU 100200Z 22012KT 9999 FEW030 09/M09 Q1006 RMK 1CU030     A2972=,
20180110_030000.003,0,RJTU,,,,0,20180110030000,-1,-1,-1,-1,220,-1,11,-1,22,-1,-1,,9999,0,0,1,FEW 30,1,9,-1,9,1005,RJTU 100300Z 22011G22KT 9999 FEW030 09/M09 Q1005 RMK 1CU030     A2969=,
20180110_040000.004,0,RJTU,,,,0,20180110040000,-1,-1,-1,-1,260,-1,13,-1,25,-1,-1,,9999,0,0,1,FEW 30,1,11,-1,13,1004,RJTU 100400Z 26013G25KT 9999 FEW030 11/M13 Q1004 RMK 1CU030     A2966=,
20180110_050000.003,0,RJTU,,,,0,20180110050000,-1,-1,-1,-1,260,-1,10,-1,-1,-1,-1,,9999,0,0,1,FEW 30,1,11,-1,13,1004,RJTU 100500Z 26010KT 9999 FEW030 11/M13 Q1004 RMK 1CU030 A2966     MAX WIND 18KT=,
20180110_060000.003,0,RJTU,,,,0,20180110060000,-1,-1,-1,-1,270,-1,11,-1,-1,-1,-1,,9999,0,0,1,FEW 30,1,11,-1,13,1004,RJTU 100600Z 27011KT 9999 FEW030 11/M13 Q1004 RMK 1CU030 A2966     MAX WIND 20KT=,
20180110_070000.003,0,RJTU,,,,0,20180110070000,-1,-1,-1,-1,250,-1,13,-1,-1,-1,-1,,9999,0,0,1,FEW 30,1,10,-1,13,1005,RJTU 100700Z 25013KT 9999 FEW030 10/M13 Q1005 RMK 1CU030 A2968     MAX WIND 22KT=,
20180110_080000.003,0,RJTU,,,,0,20180110080000,-1,-1,-1,-1,250,-1,8,-1,-1,-1,-1,,9999,0,0,1,FEW 30,1,9,-1,13,1005,RJTU 100800Z 25008KT 9999 FEW030 09/M13 Q1005 RMK 1CU030     A2968=,
20180110_090000.003,0,RJTU,,,,0,20180110090000,-1,-1,-1,-1,-1,-1,-1,-1,-1,-1,-1,,-1,0,0,0,,0,-1,0,-1,-1,RJTU 100900Z NIL=,
20180110_100000.003,0,RJTU,,,,0,20180110100000,-1,-1,-1,-1,-1,-1,-1,-1,-1,-1,-1,,-1,0,0,0,,0,-1,0,-1,-1,RJTU 101000Z NIL=,
20180110_110000.003,0,RJTU,,,,0,20180110110000,-1,-1,-1,-1,-1,-1,-1,-1,-1,-1,-1,,-1,0,0,0,,0,-1,0,-1,-1,RJTU 101100Z NIL=,
20180110_120000.003,0,RJTU,,,,0,20180110120000,-1,-1,-1,-1,-1,-1,-1,-1,-1,-1,-1,,-1,0,0,0,,0,-1,0,-1,-1,RJTU 101200Z NIL=,
20180110_130000.003,0,RJTU,,,,0,20180110130000,-1,-1,-1,-1,-1,-1,-1,-1,-1,-1,-1,,-1,0,0,0,,0,-1,0,-1,-1,RJTU 101300Z NIL=,
20180110_140000.003,0,RJTU,,,,0,20180110140000,-1,-1,-1,-1,-1,-1,-1,-1,-1,-1,-1,,-1,0,0,0,,0,-1,0,-1,-1,RJTU 101400Z NIL=,
20180110_150000.003,0,RJTU,,,,0,20180110150000,-1,-1,-1,-1,-1,-1,-1,-1,-1,-1,-1,,-1,0,0,0,,0,-1,0,-1,-1,RJTU 101500Z NIL=,
20180110_160000.003,0,RJTU,,,,0,20180110160000,-1,-1,-1,-1,-1,-1,-1,-1,-1,-1,-1,,-1,0,0,0,,0,-1,0,-1,-1,RJTU 101600Z NIL=,
20180110_170000.003,0,RJTU,,,,0,20180110170000,-1,-1,-1,-1,-1,-1,-1,-1,-1,-1,-1,,-1,0,0,0,,0,-1,0,-1,-1,RJTU 101700Z NIL=,
20180110_180000.003,0,RJTU,,,,0,20180110180000,-1,-1,-1,-1,-1,-1,-1,-1,-1,-1,-1,,-1,0,0,0,,0,-1,0,-1,-1,RJTU 101800Z NIL=,
20180110_190000.003,0,RJTU,,,,0,20180110190000,-1,-1,-1,-1,-1,-1,-1,-1,-1,-1,-1,,-1,0,0,0,,0,-1,0,-1,-1,RJTU 101900Z NIL=,
20180110_200000.003,0,RJTU,,,,0,20180110200000,-1,-1,-1,-1,-1,-1,-1,-1,-1,-1,-1,,-1,0,0,0,,0,-1,0,-1,-1,RJTU 102000Z NIL=,
20180110_210000.003,0,RJTU,,,,0,20180110210000,-1,-1,-1,-1,280,-1,3,-1,-1,-1,-1,,9999,0,0,1,FEW 20,-1,3,-1,7,1010,RJTU 102100Z 28003KT 9999 FEW020 M03/M07 Q1010 RMK 1CU020     A2983=,
20180110_220000.003,0,RJTU,,,,0,20180110220000,-1,-1,-1,-1,340,-1,4,-1,-1,-1,-1,,9999,0,0,1,FEW 20,-1,2,-1,7,1010,RJTU 102200Z 34004KT 9999 FEW020 M02/M07 Q1010 RMK 1CU020     A2985=,
20180110_230000.004,0,RJTU,,,,0,20180110230000,-1,-1,-1,-1,330,-1,5,-1,-1,-1,-1,,9999,0,0,1,FEW 25,-1,2,-1,7,1011,RJTU 102300Z 33005KT 9999 FEW025 M02/M07 Q1011 RMK 1CU025     A2986=,
20180111_000000.003,0,RJTU,,,,0,20180111000000,-1,-1,-1,-1,999,-1,2,-1,-1,-1,-1,,9999,0,0,1,FEW 25,1,1,-1,6,1011,RJTU 110000Z VRB02KT 9999 FEW025 01/M06 Q1011 RMK 1CU025     A2988=,
20180111_010000.003,0,RJTU,,,,0,20180111010000,-1,-1,-1,-1,240,-1,6,-1,-1,180,300,,9999,0,0,1,FEW 30,1,6,-1,9,1011,RJTU 110100Z 24006KT 180V300 9999 FEW030 06/M09 Q1011 RMK     1CU030 A2988=,
20180111_020000.003,0,RJTU,,,,0,20180111020000,-1,-1,-1,-1,260,-1,12,-1,23,-1,-1,,9999,0,0,1,FEW 30,1,7,-1,15,1011,RJTU 110200Z 26012G23KT 9999 FEW030 07/M15 Q1011 RMK 1CU030     A2986=,
20180111_030000.002,0,RJTU,,,,0,20180111030000,-1,-1,-1,-1,250,-1,9,-1,-1,-1,-1,,9999,0,0,1,FEW 30,1,8,-1,15,1010,RJTU 110300Z 25009KT 9999 FEW030 08/M15 Q1010 RMK 1CU030     A2983=,
20180111_040000.003,0,RJTU,,,,0,20180111040000,-1,-1,-1,-1,270,-1,10,-1,-1,-1,-1,,9999,0,0,1,FEW 30,1,8,-1,18,1009,RJTU 110400Z 27010KT 9999 FEW030 08/M18 Q1009 RMK 1CU030 A2982     MAX WIND 17KT=,
20180111_050000.003,0,RJTU,,,,0,20180111050000,-1,-1,-1,-1,260,-1,10,-1,-1,-1,-1,,9999,0,0,1,FEW 30,1,8,-1,17,1009,RJTU 110500Z 26010KT 9999 FEW030 08/M17 Q1009 RMK 1CU030 A2982     MAX WIND 17KT=,
20180111_060000.003,0,RJTU,,,,0,20180111060000,-1,-1,-1,-1,270,-1,9,-1,-1,-1,-1,,9999,0,0,1,FEW 30,1,8,-1,16,1010,RJTU 110600Z 27009KT 9999 FEW030 08/M16 Q1010 RMK 1CU030     A2984=,
20180111_070000.003,0,RJTU,,,,0,20180111070000,-1,-1,-1,-1,280,-1,12,-1,-1,-1,-1,,9999,0,0,1,FEW 30,1,7,-1,17,1011,RJTU 110700Z 28012KT 9999 FEW030 07/M17 Q1011 RMK 1CU030 A2987     MAX WIND 19KT=,
20180111_080000.003,0,RJTU,,,,0,20180111080000,-1,-1,-1,-1,280,-1,7,-1,-1,-1,-1,,9999,0,0,1,FEW 30,1,6,-1,16,1011,RJTU 110800Z 28007KT 9999 FEW030 06/M16 Q1011 RMK 1CU030     A2988=,
20180111_090000.003,0,RJTU,,,,0,20180111090000,-1,-1,-1,-1,-1,-1,-1,-1,-1,-1,-1,,-1,0,0,0,,0,-1,0,-1,-1,RJTU 110900Z NIL=,
20180111_100000.003,0,RJTU,,,,0,20180111100000,-1,-1,-1,-1,-1,-1,-1,-1,-1,-1,-1,,-1,0,0,0,,0,-1,0,-1,-1,RJTU 111000Z NIL=,
20180111_110000.003,0,RJTU,,,,0,20180111110000,-1,-1,-1,-1,-1,-1,-1,-1,-1,-1,-1,,-1,0,0,0,,0,-1,0,-1,-1,RJTU 111100Z NIL=,
20180111_120000.003,0,RJTU,,,,0,20180111120000,-1,-1,-1,-1,-1,-1,-1,-1,-1,-1,-1,,-1,0,0,0,,0,-1,0,-1,-1,RJTU 111200Z NIL=,
20180111_130000.003,0,RJTU,,,,0,20180111130000,-1,-1,-1,-1,-1,-1,-1,-1,-1,-1,-1,,-1,0,0,0,,0,-1,0,-1,-1,RJTU 111300Z NIL=,
20180111_140000.003,0,RJTU,,,,0,20180111140000,-1,-1,-1,-1,-1,-1,-1,-1,-1,-1,-1,,-1,0,0,0,,0,-1,0,-1,-1,RJTU 111400Z NIL=,
20180111_150000.003,0,RJTU,,,,0,20180111150000,-1,-1,-1,-1,-1,-1,-1,-1,-1,-1,-1,,-1,0,0,0,,0,-1,0,-1,-1,RJTU 111500Z NIL=,
20180111_160000.003,0,RJTU,,,,0,20180111160000,-1,-1,-1,-1,-1,-1,-1,-1,-1,-1,-1,,-1,0,0,0,,0,-1,0,-1,-1,RJTU 111600Z NIL=,
20180111_170000.003,0,RJTU,,,,0,20180111170000,-1,-1,-1,-1,-1,-1,-1,-1,-1,-1,-1,,-1,0,0,0,,0,-1,0,-1,-1,RJTU 111700Z NIL=,
20180111_180000.003,0,RJTU,,,,0,20180111180000,-1,-1,-1,-1,-1,-1,-1,-1,-1,-1,-1,,-1,0,0,0,,0,-1,0,-1,-1,RJTU 111800Z NIL=,
20180111_190000.003,0,RJTU,,,,0,20180111190000,-1,-1,-1,-1,-1,-1,-1,-1,-1,-1,-1,,-1,0,0,0,,0,-1,0,-1,-1,RJTU 111900Z NIL=,
20180111_200000.003,0,RJTU,,,,0,20180111200000,-1,-1,-1,-1,-1,-1,-1,-1,-1,-1,-1,,-1,0,0,0,,0,-1,0,-1,-1,RJTU 112000Z NIL=,
20180111_210000.003,0,RJTU,,,,0,20180111210000,-1,-1,-1,-1,10,-1,5,-1,-1,-1,-1,,9999,0,0,1,FEW 30,-1,2,-1,9,1017,RJTU 112100Z 01005KT 9999 FEW030 M02/M09 Q1017 RMK 1CU030     A3004=,
20180111_220000.004,0,RJTU,,,,0,20180111220000,-1,-1,-1,-1,30,-1,3,-1,-1,-1,-1,,9999,0,0,1,FEW 30,-1,3,-1,9,1018,RJTU 112200Z 03003KT 9999 FEW030 M03/M09 Q1018 RMK 1CU030     A3007=,
20180111_230000.003,0,RJTU,,,,0,20180111230000,-1,-1,-1,-1,40,-1,5,-1,-1,-1,-1,,9999,0,0,1,FEW 30,-1,2,-1,8,1018,RJTU 112300Z 04005KT 9999 FEW030 M02/M08 Q1018 RMK 1CU030     A3009=,
20180112_000000.003,0,RJTU,,,,0,20180112000000,-1,-1,-1,-1,30,-1,6,-1,-1,-1,-1,,9999,0,0,1,FEW 30,-1,0,-1,8,1019,RJTU 120000Z 03006KT 9999 FEW030 M00/M08 Q1019 RMK 1CU030     A3011=,
20180112_010000.004,0,RJTU,,,,0,20180112010000,-1,-1,-1,-1,50,-1,7,-1,-1,-1,-1,,9999,0,0,1,FEW 30,1,1,-1,9,1019,RJTU 120100Z 05007KT 9999 FEW030 01/M09 Q1019 RMK 1CU030     A3011=,
20180112_020000.003,0,RJTU,,,,0,20180112020000,-1,-1,-1,-1,80,-1,4,-1,-1,-1,-1,,9999,0,0,1,FEW 30,1,3,-1,10,1019,RJTU 120200Z 08004KT 9999 FEW030 03/M10 Q1019 RMK 1CU030     A3011=,
20180112_030000.003,0,RJTU,,,,0,20180112030000,-1,-1,-1,-1,999,-1,3,-1,-1,-1,-1,,9999,0,0,1,FEW 30,1,4,-1,11,1019,RJTU 120300Z VRB03KT 9999 FEW030 04/M11 Q1019 RMK 1CU030     A3009=,
20180112_040000.003,0,RJTU,,,,0,20180112040000,-1,-1,-1,-1,999,-1,2,-1,-1,-1,-1,,9999,0,0,1,FEW 30,1,4,-1,12,1018,RJTU 120400Z VRB02KT 9999 FEW030 04/M12 Q1018 RMK 1CU030     A3008=,
20180112_050000.004,0,RJTU,,,,0,20180112050000,-1,-1,-1,-1,999,-1,2,-1,-1,-1,-1,,9999,0,0,2,FEW 10   SCT 50,1,5,-1,13,1018,RJTU 120500Z VRB02KT 9999 FEW010 SCT050 05/M13 Q1018 RMK     1ST010 3SC050 A3008=,
20180112_060000.003,0,RJTU,,,,0,20180112060000,-1,-1,-1,-1,999,-1,6,-1,-1,-1,-1,,9999,0,0,2,FEW 10   SCT 80,1,6,-1,13,1018,RJTU 120600Z VRB06KT 9999 FEW010 SCT080 06/M13 Q1018 RMK     1ST010 3AC080 A3009=,
20180112_070000.004,0,RJTU,,,,0,20180112070000,-1,-1,-1,-1,350,-1,9,-1,-1,-1,-1,,9999,0,0,2,FEW 10   SCT 80,1,4,-1,10,1019,RJTU 120700Z 35009KT 9999 FEW010 SCT080 04/M10 Q1019 RMK     1ST010 3AC080 A3011=,
20180112_080000.003,0,RJTU,,,,0,20180112080000,-1,-1,-1,-1,40,-1,5,-1,-1,-1,-1,,9999,0,0,2,FEW 15   SCT 80,1,3,-1,9,1020,RJTU 120800Z 04005KT 9999 FEW015 SCT080 03/M09 Q1020 RMK     1SC015 3AC080 A3014=,
20180112_090000.003,0,RJTU,,,,0,20180112090000,-1,-1,-1,-1,-1,-1,-1,-1,-1,-1,-1,,-1,0,0,0,,0,-1,0,-1,-1,RJTU 120900Z NIL=,
20180112_100000.003,0,RJTU,,,,0,20180112100000,-1,-1,-1,-1,-1,-1,-1,-1,-1,-1,-1,,-1,0,0,0,,0,-1,0,-1,-1,RJTU 121000Z NIL=,
20180112_110000.003,0,RJTU,,,,0,20180112110000,-1,-1,-1,-1,-1,-1,-1,-1,-1,-1,-1,,-1,0,0,0,,0,-1,0,-1,-1,RJTU 121100Z NIL=,
20180112_120000.003,0,RJTU,,,,0,20180112120000,-1,-1,-1,-1,-1,-1,-1,-1,-1,-1,-1,,-1,0,0,0,,0,-1,0,-1,-1,RJTU 121200Z NIL=,
20180112_130000.003,0,RJTU,,,,0,20180112130000,-1,-1,-1,-1,-1,-1,-1,-1,-1,-1,-1,,-1,0,0,0,,0,-1,0,-1,-1,RJTU 121300Z NIL=,
20180112_140000.003,0,RJTU,,,,0,20180112140000,-1,-1,-1,-1,-1,-1,-1,-1,-1,-1,-1,,-1,0,0,0,,0,-1,0,-1,-1,RJTU 121400Z NIL=,
20180112_150000.003,0,RJTU,,,,0,20180112150000,-1,-1,-1,-1,-1,-1,-1,-1,-1,-1,-1,,-1,0,0,0,,0,-1,0,-1,-1,RJTU 121500Z NIL=,
20180112_160000.003,0,RJTU,,,,0,20180112160000,-1,-1,-1,-1,-1,-1,-1,-1,-1,-1,-1,,-1,0,0,0,,0,-1,0,-1,-1,RJTU 121600Z NIL=,
20180112_170000.003,0,RJTU,,,,0,20180112170000,-1,-1,-1,-1,-1,-1,-1,-1,-1,-1,-1,,-1,0,0,0,,0,-1,0,-1,-1,RJTU 121700Z NIL=,
20180112_180000.003,0,RJTU,,,,0,20180112180000,-1,-1,-1,-1,-1,-1,-1,-1,-1,-1,-1,,-1,0,0,0,,0,-1,0,-1,-1,RJTU 121800Z NIL=,
20180112_190000.003,0,RJTU,,,,0,20180112190000,-1,-1,-1,-1,-1,-1,-1,-1,-1,-1,-1,,-1,0,0,0,,0,-1,0,-1,-1,RJTU 121900Z NIL=,
20180112_200000.004,0,RJTU,,,,0,20180112200000,-1,-1,-1,-1,-1,-1,-1,-1,-1,-1,-1,,-1,0,0,0,,0,-1,0,-1,-1,RJTU 122000Z NIL=,
20180112_210000.003,0,RJTU,,,,0,20180112210000,-1,-1,-1,-1,-1,-1,-1,-1,-1,-1,-1,,-1,0,0,0,,0,-1,0,-1,-1,RJTU 122100Z NIL=,
20180112_220000.003,0,RJTU,,,,0,20180112220000,-1,-1,-1,-1,-1,-1,-1,-1,-1,-1,-1,,-1,0,0,0,,0,-1,0,-1,-1,RJTU 122200Z NIL=,
20180112_230000.003,0,RJTU,,,,0,20180112230000,-1,-1,-1,-1,-1,-1,-1,-1,-1,-1,-1,,-1,0,0,0,,0,-1,0,-1,-1,RJTU 122300Z NIL=,
20180113_000000.003,0,RJTU,,,,0,20180113000000,-1,-1,-1,-1,-1,-1,-1,-1,-1,-1,-1,,-1,0,0,0,,0,-1,0,-1,-1,RJTU 130000Z NIL=,
20180113_010000.004,0,RJTU,,,,0,20180113010000,-1,-1,-1,-1,-1,-1,-1,-1,-1,-1,-1,,-1,0,0,0,,0,-1,0,-1,-1,RJTU 130100Z NIL=,
20180113_020000.003,0,RJTU,,,,0,20180113020000,-1,-1,-1,-1,-1,-1,-1,-1,-1,-1,-1,,-1,0,0,0,,0,-1,0,-1,-1,RJTU 130200Z NIL=,
20180113_030000.003,0,RJTU,,,,0,20180113030000,-1,-1,-1,-1,-1,-1,-1,-1,-1,-1,-1,,-1,0,0,0,,0,-1,0,-1,-1,RJTU 130300Z NIL=,
20180113_040000.003,0,RJTU,,,,0,20180113040000,-1,-1,-1,-1,-1,-1,-1,-1,-1,-1,-1,,-1,0,0,0,,0,-1,0,-1,-1,RJTU 130400Z NIL=,
20180113_050000.003,0,RJTU,,,,0,20180113050000,-1,-1,-1,-1,-1,-1,-1,-1,-1,-1,-1,,-1,0,0,0,,0,-1,0,-1,-1,RJTU 130500Z NIL=,
20180113_060000.003,0,RJTU,,,,0,20180113060000,-1,-1,-1,-1,-1,-1,-1,-1,-1,-1,-1,,-1,0,0,0,,0,-1,0,-1,-1,RJTU 130600Z NIL=,
20180113_070000.003,0,RJTU,,,,0,20180113070000,-1,-1,-1,-1,-1,-1,-1,-1,-1,-1,-1,,-1,0,0,0,,0,-1,0,-1,-1,RJTU 130700Z NIL=,
20180113_080000.003,0,RJTU,,,,0,20180113080000,-1,-1,-1,-1,-1,-1,-1,-1,-1,-1,-1,,-1,0,0,0,,0,-1,0,-1,-1,RJTU 130800Z NIL=,
20180113_090000.003,0,RJTU,,,,0,20180113090000,-1,-1,-1,-1,-1,-1,-1,-1,-1,-1,-1,,-1,0,0,0,,0,-1,0,-1,-1,RJTU 130900Z NIL=,
20180113_100000.003,0,RJTU,,,,0,20180113100000,-1,-1,-1,-1,-1,-1,-1,-1,-1,-1,-1,,-1,0,0,0,,0,-1,0,-1,-1,RJTU 131000Z NIL=,
20180113_110000.003,0,RJTU,,,,0,20180113110000,-1,-1,-1,-1,-1,-1,-1,-1,-1,-1,-1,,-1,0,0,0,,0,-1,0,-1,-1,RJTU 131100Z NIL=,
20180113_120000.003,0,RJTU,,,,0,20180113120000,-1,-1,-1,-1,-1,-1,-1,-1,-1,-1,-1,,-1,0,0,0,,0,-1,0,-1,-1,RJTU 131200Z NIL=,
20180113_130000.003,0,RJTU,,,,0,20180113130000,-1,-1,-1,-1,-1,-1,-1,-1,-1,-1,-1,,-1,0,0,0,,0,-1,0,-1,-1,RJTU 131300Z NIL=,
20180113_140000.004,0,RJTU,,,,0,20180113140000,-1,-1,-1,-1,-1,-1,-1,-1,-1,-1,-1,,-1,0,0,0,,0,-1,0,-1,-1,RJTU 131400Z NIL=,
20180113_150000.003,0,RJTU,,,,0,20180113150000,-1,-1,-1,-1,-1,-1,-1,-1,-1,-1,-1,,-1,0,0,0,,0,-1,0,-1,-1,RJTU 131500Z NIL=,
20180113_160000.003,0,RJTU,,,,0,20180113160000,-1,-1,-1,-1,-1,-1,-1,-1,-1,-1,-1,,-1,0,0,0,,0,-1,0,-1,-1,RJTU 131600Z NIL=,
20180113_170000.003,0,RJTU,,,,0,20180113170000,-1,-1,-1,-1,-1,-1,-1,-1,-1,-1,-1,,-1,0,0,0,,0,-1,0,-1,-1,RJTU 131700Z NIL=,
20180113_180000.003,0,RJTU,,,,0,20180113180000,-1,-1,-1,-1,-1,-1,-1,-1,-1,-1,-1,,-1,0,0,0,,0,-1,0,-1,-1,RJTU 131800Z NIL=,
20180113_190000.004,0,RJTU,,,,0,20180113190000,-1,-1,-1,-1,-1,-1,-1,-1,-1,-1,-1,,-1,0,0,0,,0,-1,0,-1,-1,RJTU 131900Z NIL=,
20180113_200000.004,0,RJTU,,,,0,20180113200000,-1,-1,-1,-1,-1,-1,-1,-1,-1,-1,-1,,-1,0,0,0,,0,-1,0,-1,-1,RJTU 132000Z NIL=,
20180113_210000.003,0,RJTU,,,,0,20180113210000,-1,-1,-1,-1,-1,-1,-1,-1,-1,-1,-1,,-1,0,0,0,,0,-1,0,-1,-1,RJTU 132100Z NIL=,
20180113_220000.003,0,RJTU,,,,0,20180113220000,-1,-1,-1,-1,-1,-1,-1,-1,-1,-1,-1,,-1,0,0,0,,0,-1,0,-1,-1,RJTU 132200Z NIL=,
20180113_230000.003,0,RJTU,,,,0,20180113230000,-1,-1,-1,-1,-1,-1,-1,-1,-1,-1,-1,,-1,0,0,0,,0,-1,0,-1,-1,RJTU 132300Z NIL=,
20180114_000000.004,0,RJTU,,,,0,20180114000000,-1,-1,-1,-1,-1,-1,-1,-1,-1,-1,-1,,-1,0,0,0,,0,-1,0,-1,-1,RJTU 140000Z NIL=,
20180114_010000.003,0,RJTU,,,,0,20180114010000,-1,-1,-1,-1,-1,-1,-1,-1,-1,-1,-1,,-1,0,0,0,,0,-1,0,-1,-1,RJTU 140100Z NIL=,
20180114_020000.003,0,RJTU,,,,0,20180114020000,-1,-1,-1,-1,-1,-1,-1,-1,-1,-1,-1,,-1,0,0,0,,0,-1,0,-1,-1,RJTU 140200Z NIL=,
20180114_030000.003,0,RJTU,,,,0,20180114030000,-1,-1,-1,-1,-1,-1,-1,-1,-1,-1,-1,,-1,0,0,0,,0,-1,0,-1,-1,RJTU 140300Z NIL=,
20180114_040000.003,0,RJTU,,,,0,20180114040000,-1,-1,-1,-1,-1,-1,-1,-1,-1,-1,-1,,-1,0,0,0,,0,-1,0,-1,-1,RJTU 140400Z NIL=,
20180114_050000.003,0,RJTU,,,,0,20180114050000,-1,-1,-1,-1,-1,-1,-1,-1,-1,-1,-1,,-1,0,0,0,,0,-1,0,-1,-1,RJTU 140500Z NIL=,
20180114_060000.004,0,RJTU,,,,0,20180114060000,-1,-1,-1,-1,-1,-1,-1,-1,-1,-1,-1,,-1,0,0,0,,0,-1,0,-1,-1,RJTU 140600Z NIL=,
20180114_070000.003,0,RJTU,,,,0,20180114070000,-1,-1,-1,-1,-1,-1,-1,-1,-1,-1,-1,,-1,0,0,0,,0,-1,0,-1,-1,RJTU 140700Z NIL=,
20180114_080000.003,0,RJTU,,,,0,20180114080000,-1,-1,-1,-1,-1,-1,-1,-1,-1,-1,-1,,-1,0,0,0,,0,-1,0,-1,-1,RJTU 140800Z NIL=,
20180114_090000.003,0,RJTU,,,,0,20180114090000,-1,-1,-1,-1,-1,-1,-1,-1,-1,-1,-1,,-1,0,0,0,,0,-1,0,-1,-1,RJTU 140900Z NIL=,
20180114_100000.003,0,RJTU,,,,0,20180114100000,-1,-1,-1,-1,-1,-1,-1,-1,-1,-1,-1,,-1,0,0,0,,0,-1,0,-1,-1,RJTU 141000Z NIL=,
20180114_110000.003,0,RJTU,,,,0,20180114110000,-1,-1,-1,-1,-1,-1,-1,-1,-1,-1,-1,,-1,0,0,0,,0,-1,0,-1,-1,RJTU 141100Z NIL=,
20180114_120000.003,0,RJTU,,,,0,20180114120000,-1,-1,-1,-1,-1,-1,-1,-1,-1,-1,-1,,-1,0,0,0,,0,-1,0,-1,-1,RJTU 141200Z NIL=,
20180114_130000.004,0,RJTU,,,,0,20180114130000,-1,-1,-1,-1,-1,-1,-1,-1,-1,-1,-1,,-1,0,0,0,,0,-1,0,-1,-1,RJTU 141300Z NIL=,
20180114_140000.003,0,RJTU,,,,0,20180114140000,-1,-1,-1,-1,-1,-1,-1,-1,-1,-1,-1,,-1,0,0,0,,0,-1,0,-1,-1,RJTU 141400Z NIL=,
20180114_150000.003,0,RJTU,,,,0,20180114150000,-1,-1,-1,-1,-1,-1,-1,-1,-1,-1,-1,,-1,0,0,0,,0,-1,0,-1,-1,RJTU 141500Z NIL=,
20180114_160000.003,0,RJTU,,,,0,20180114160000,-1,-1,-1,-1,-1,-1,-1,-1,-1,-1,-1,,-1,0,0,0,,0,-1,0,-1,-1,RJTU 141600Z NIL=,
20180114_170000.003,0,RJTU,,,,0,20180114170000,-1,-1,-1,-1,-1,-1,-1,-1,-1,-1,-1,,-1,0,0,0,,0,-1,0,-1,-1,RJTU 141700Z NIL=,
20180114_180000.004,0,RJTU,,,,0,20180114180000,-1,-1,-1,-1,-1,-1,-1,-1,-1,-1,-1,,-1,0,0,0,,0,-1,0,-1,-1,RJTU 141800Z NIL=,
20180114_190000.003,0,RJTU,,,,0,20180114190000,-1,-1,-1,-1,-1,-1,-1,-1,-1,-1,-1,,-1,0,0,0,,0,-1,0,-1,-1,RJTU 141900Z NIL=,
20180114_200000.004,0,RJTU,,,,0,20180114200000,-1,-1,-1,-1,-1,-1,-1,-1,-1,-1,-1,,-1,0,0,0,,0,-1,0,-1,-1,RJTU 142000Z NIL=,
20180114_210000.003,0,RJTU,,,,0,20180114210000,-1,-1,-1,-1,10,-1,3,-1,-1,-1,-1,,9999,0,0,1,NSC -1,-1,4,-1,9,1027,RJTU 142100Z 01003KT 9999 NSC M04/M09 Q1027 RMK A3033=,
20180114_220000.003,0,RJTU,,,,0,20180114220000,-1,-1,-1,-1,30,-1,4,-1,-1,-1,-1,,9999,0,0,1,FEW 50,-1,4,-1,9,1027,RJTU 142200Z 03004KT 9999 FEW050 M04/M09 Q1027 RMK 1SC050     A3033=,
20180114_230000.003,0,RJTU,,,,0,20180114230000,-1,-1,-1,-1,999,-1,1,-1,-1,-1,-1,,9999,0,0,2,FEW 50   SCT 180,-1,4,-1,9,1026,RJTU 142300Z VRB01KT 9999 FEW050 SCT180 M04/M09 Q1026 RMK     1SC050 3AC180 A3032=,
20180115_000000.003,0,RJTU,,,,0,20180115000000,-1,-1,-1,-1,300,-1,1,-1,-1,-1,-1,,9999,0,0,2,FEW 50   BKN 220,-1,1,-1,8,1026,RJTU 150000Z 30001KT 9999 FEW050 BKN220 M01/M08 Q1026 RMK     1SC050 6CI220 A3032=,
20180115_010000.003,0,RJTU,,,,0,20180115010000,-1,-1,-1,-1,60,-1,4,-1,-1,-1,-1,,9999,0,0,2,FEW 50   BKN 220,1,2,-1,8,1026,RJTU 150100Z 06004KT 9999 FEW050 BKN220 02/M08 Q1026 RMK     1SC050 7CI220 A3031=,
20180115_020000.003,0,RJTU,,,,0,20180115020000,-1,-1,-1,-1,80,-1,3,-1,-1,-1,-1,,9999,0,0,2,FEW 50   BKN 230,1,4,-1,7,1024,RJTU 150200Z 08003KT 9999 FEW050 BKN230 04/M07 Q1024 RMK     1SC050 7CI230 A3026 P/FR=,
20180115_030000.003,0,RJTU,,,,0,20180115030000,-1,-1,-1,-1,999,-1,1,-1,-1,-1,-1,,9999,0,0,3,FEW 50   SCT 160   BKN 220,1,5,-1,8,1023,RJTU 150300Z VRB01KT 9999 FEW050 SCT160 BKN220 05/M08 Q1023     RMK 1SC050 3AC160 7CI220 A3022=,
20180115_040000.003,0,RJTU,,,,0,20180115040000,-1,-1,-1,-1,999,-1,1,-1,-1,-1,-1,,9999,0,0,3,FEW 100   SCT 200   BKN 230,1,6,-1,9,1021,RJTU 150400Z VRB01KT 9999 FEW100 SCT200 BKN230 06/M09 Q1021     RMK 1AC100 3CI200 7CI230 A3018=,
20180115_050000.003,0,RJTU,,,,0,20180115050000,-1,-1,-1,-1,999,-1,2,-1,-1,-1,-1,,9999,0,0,2,FEW 90   BKN 200,1,7,-1,9,1020,RJTU 150500Z VRB02KT 9999 FEW090 BKN200 07/M09 Q1020 RMK     1AC090 5CI200 A3014=,
20180115_060000.003,0,RJTU,,,,0,20180115060000,-1,-1,-1,-1,999,-1,1,-1,-1,-1,-1,,9999,0,0,1,FEW 90,1,7,-1,9,1020,RJTU 150600Z VRB01KT 9999 FEW090 07/M09 Q1020 RMK 1AC090     A3013=,
20180115_070000.005,0,RJTU,,,,0,20180115070000,-1,-1,-1,-1,270,-1,2,-1,-1,-1,-1,,9999,0,0,1,FEW 90,1,7,-1,9,1019,RJTU 150700Z 27002KT 9999 FEW090 07/M09 Q1019 RMK 1AC090     A3011=,
20180115_080000.003,0,RJTU,,,,0,20180115080000,-1,-1,-1,-1,340,-1,2,-1,-1,-1,-1,,9999,0,0,1,FEW 90,1,7,-1,9,1019,RJTU 150800Z 34002KT 9999 FEW090 07/M09 Q1019 RMK 1AC090     A3011=,
20180115_090000.003,0,RJTU,,,,0,20180115090000,-1,-1,-1,-1,-1,-1,-1,-1,-1,-1,-1,,-1,0,0,0,,0,-1,0,-1,-1,RJTU 150900Z NIL=,
20180115_100000.003,0,RJTU,,,,0,20180115100000,-1,-1,-1,-1,-1,-1,-1,-1,-1,-1,-1,,-1,0,0,0,,0,-1,0,-1,-1,RJTU 151000Z NIL=,
20180115_110000.003,0,RJTU,,,,0,20180115110000,-1,-1,-1,-1,-1,-1,-1,-1,-1,-1,-1,,-1,0,0,0,,0,-1,0,-1,-1,RJTU 151100Z NIL=,
20180115_120000.003,0,RJTU,,,,0,20180115120000,-1,-1,-1,-1,-1,-1,-1,-1,-1,-1,-1,,-1,0,0,0,,0,-1,0,-1,-1,RJTU 151200Z NIL=,
20180115_130000.003,0,RJTU,,,,0,20180115130000,-1,-1,-1,-1,-1,-1,-1,-1,-1,-1,-1,,-1,0,0,0,,0,-1,0,-1,-1,RJTU 151300Z NIL=,
20180115_140000.003,0,RJTU,,,,0,20180115140000,-1,-1,-1,-1,-1,-1,-1,-1,-1,-1,-1,,-1,0,0,0,,0,-1,0,-1,-1,RJTU 151400Z NIL=,
20180115_150000.003,0,RJTU,,,,0,20180115150000,-1,-1,-1,-1,-1,-1,-1,-1,-1,-1,-1,,-1,0,0,0,,0,-1,0,-1,-1,RJTU 151500Z NIL=,
20180115_160000.003,0,RJTU,,,,0,20180115160000,-1,-1,-1,-1,-1,-1,-1,-1,-1,-1,-1,,-1,0,0,0,,0,-1,0,-1,-1,RJTU 151600Z NIL=,
20180115_170000.003,0,RJTU,,,,0,20180115170000,-1,-1,-1,-1,-1,-1,-1,-1,-1,-1,-1,,-1,0,0,0,,0,-1,0,-1,-1,RJTU 151700Z NIL=,
20180115_180000.003,0,RJTU,,,,0,20180115180000,-1,-1,-1,-1,-1,-1,-1,-1,-1,-1,-1,,-1,0,0,0,,0,-1,0,-1,-1,RJTU 151800Z NIL=,
20180115_190000.003,0,RJTU,,,,0,20180115190000,-1,-1,-1,-1,-1,-1,-1,-1,-1,-1,-1,,-1,0,0,0,,0,-1,0,-1,-1,RJTU 151900Z NIL=,
20180115_200000.003,0,RJTU,,,,0,20180115200000,-1,-1,-1,-1,-1,-1,-1,-1,-1,-1,-1,,-1,0,0,0,,0,-1,0,-1,-1,RJTU 152000Z NIL=,
20180115_210000.003,0,RJTU,,,,0,20180115210000,-1,-1,-1,-1,330,-1,3,-1,-1,-1,-1,,9999,0,0,1,FEW 100,-1,3,-1,7,1020,RJTU 152100Z 33003KT 9999 FEW100 M03/M07 Q1020 RMK 1AC100     A3014=,
20180115_220000.003,0,RJTU,,,,0,20180115220000,-1,-1,-1,-1,360,-1,4,-1,-1,-1,-1,,9999,0,0,2,FEW 80   BKN 240,-1,2,-1,7,1021,RJTU 152200Z 36004KT 9999 FEW080 BKN240 M02/M07 Q1021 RMK     1AC080 7CI240 A3016=,
20180115_230000.003,0,RJTU,,,,0,20180115230000,-1,-1,-1,-1,360,-1,3,-1,-1,-1,-1,,9999,0,0,2,FEW 100   BKN 240,1,0,-1,6,1021,RJTU 152300Z 36003KT 9999 FEW100 BKN240 00/M06 Q1021 RMK     1AC100 7CI240 A3018=,
20180116_000000.003,0,RJTU,,,,0,20180116000000,-1,-1,-1,-1,100,-1,3,-1,-1,-1,-1,,9999,0,0,1,FEW 150,1,3,-1,5,1022,RJTU 160000Z 10003KT 9999 FEW150 03/M05 Q1022 RMK 1AC150     A3020=,
20180116_010000.003,0,RJTU,,,,0,20180116010000,-1,-1,-1,-1,90,-1,5,-1,-1,-1,-1,,9999,0,0,1,FEW 120,1,7,-1,3,1022,RJTU 160100Z 09005KT 9999 FEW120 07/M03 Q1022 RMK 1AC120     A3020=,
20180116_020000.003,0,RJTU,,,,0,20180116020000,-1,-1,-1,-1,80,-1,4,-1,-1,20,120,,9999,0,0,2,FEW 150   BKN 240,1,10,-1,3,1022,RJTU 160200Z 08004KT 020V120 9999 FEW150 BKN240 10/M03 Q1022     RMK 1AC150 5CI240 A3019=,
20180116_030000.003,0,RJTU,,,,0,20180116030000,-1,-1,-1,-1,999,-1,2,-1,-1,-1,-1,,9999,0,0,2,FEW 150   BKN 210,1,10,-1,3,1021,RJTU 160300Z VRB02KT 9999 FEW150 BKN210 10/M03 Q1021 RMK     1AC150 7CI210 A3016=,
20180116_040000.003,0,RJTU,,,,0,20180116040000,-1,-1,-1,-1,270,-1,2,-1,-1,-1,-1,,9999,0,0,2,FEW 150   BKN 210,1,11,-1,3,1019,RJTU 160400Z 27002KT 9999 FEW150 BKN210 11/M03 Q1019 RMK     1AC150 7CI210 A3011 P/FR=,
20180116_050000.003,0,RJTU,,,,0,20180116050000,-1,-1,-1,-1,290,-1,3,-1,-1,-1,-1,,9999,0,0,2,FEW 60   BKN 210,1,12,-1,3,1019,RJTU 160500Z 29003KT 9999 FEW060 BKN210 12/M03 Q1019 RMK     1SC060 7CI210 A3011=,
20180116_060000.003,0,RJTU,,,,0,20180116060000,-1,-1,-1,-1,220,-1,3,-1,-1,-1,-1,,9999,0,0,2,FEW 60   BKN 190,1,12,-1,2,1019,RJTU 160600Z 22003KT 9999 FEW060 BKN190 12/M02 Q1019 RMK     1SC060 7CI190 A3011=,
20180116_070000.003,0,RJTU,,,,0,20180116070000,-1,-1,-1,-1,180,-1,4,-1,-1,-1,-1,,9999,0,0,2,FEW 30   BKN 200,1,11,-1,0,1019,RJTU 160700Z 18004KT 9999 FEW030 BKN200 11/M00 Q1019 RMK     1CU030 7CI200 A3010=,
20180116_080000.003,0,RJTU,,,,0,20180116080000,-1,-1,-1,-1,270,-1,3,-1,-1,-1,-1,,9999,0,0,2,FEW 40   BKN 200,1,9,-1,1,1018,RJTU 160800Z 27003KT 9999 FEW040 BKN200 09/M01 Q1018 RMK     1SC040 7CI200 A3008=,
20180116_090000.003,0,RJTU,,,,0,20180116090000,-1,-1,-1,-1,10,-1,3,-1,-1,-1,-1,,9999,0,0,2,FEW 35   BKN 200,1,8,-1,2,1018,RJTU 160900Z 01003KT 9999 FEW035 BKN200 08/M02 Q1018 RMK     1CU035 7CI200 A3008=,
20180116_100000.003,0,RJTU,,,,0,20180116100000,-1,-1,-1,-1,330,-1,3,-1,-1,-1,-1,,9999,0,0,2,FEW 30   BKN 200,1,7,-1,2,1018,RJTU 161000Z 33003KT 9999 FEW030 BKN200 07/M02 Q1018 RMK     1CU030 7CI200 A3008=,
20180116_110000.005,0,RJTU,,,,0,20180116110000,-1,-1,-1,-1,-1,-1,-1,-1,-1,-1,-1,,-1,0,0,0,,0,-1,0,-1,-1,RJTU 161100Z NIL=,
20180116_120000.003,0,RJTU,,,,0,20180116120000,-1,-1,-1,-1,-1,-1,-1,-1,-1,-1,-1,,-1,0,0,0,,0,-1,0,-1,-1,RJTU 161200Z NIL=,
20180116_130000.003,0,RJTU,,,,0,20180116130000,-1,-1,-1,-1,-1,-1,-1,-1,-1,-1,-1,,-1,0,0,0,,0,-1,0,-1,-1,RJTU 161300Z NIL=,
20180116_140000.003,0,RJTU,,,,0,20180116140000,-1,-1,-1,-1,-1,-1,-1,-1,-1,-1,-1,,-1,0,0,0,,0,-1,0,-1,-1,RJTU 161400Z NIL=,
20180116_150000.003,0,RJTU,,,,0,20180116150000,-1,-1,-1,-1,-1,-1,-1,-1,-1,-1,-1,,-1,0,0,0,,0,-1,0,-1,-1,RJTU 161500Z NIL=,
20180116_160000.003,0,RJTU,,,,0,20180116160000,-1,-1,-1,-1,-1,-1,-1,-1,-1,-1,-1,,-1,0,0,0,,0,-1,0,-1,-1,RJTU 161600Z NIL=,
20180116_170000.003,0,RJTU,,,,0,20180116170000,-1,-1,-1,-1,-1,-1,-1,-1,-1,-1,-1,,-1,0,0,0,,0,-1,0,-1,-1,RJTU 161700Z NIL=,
20180116_180000.003,0,RJTU,,,,0,20180116180000,-1,-1,-1,-1,-1,-1,-1,-1,-1,-1,-1,,-1,0,0,0,,0,-1,0,-1,-1,RJTU 161800Z NIL=,
20180116_190000.003,0,RJTU,,,,0,20180116190000,-1,-1,-1,-1,-1,-1,-1,-1,-1,-1,-1,,-1,0,0,0,,0,-1,0,-1,-1,RJTU 161900Z NIL=,
20180116_200000.003,0,RJTU,,,,0,20180116200000,-1,-1,-1,-1,-1,-1,-1,-1,-1,-1,-1,,-1,0,0,0,,0,-1,0,-1,-1,RJTU 162000Z NIL=,
20180116_210000.003,0,RJTU,,,,0,20180116210000,-1,-1,-1,-1,340,-1,3,-1,-1,-1,-1,,9999,0,0,2,FEW 30   BKN 130,1,3,-1,2,1016,RJTU 162100Z 34003KT 9999 FEW030 BKN130 03/M02 Q1016 RMK     1CU030 5AC130 A3002=,
20180116_220000.003,0,RJTU,,,,0,20180116220000,-1,-1,-1,-1,360,-1,3,-1,-1,-1,-1,,9999,0,0,2,FEW 30   BKN 130,1,4,-1,1,1017,RJTU 162200Z 36003KT 9999 FEW030 BKN130 04/M01 Q1017 RMK     1CU030 7AC130 A3003=,
20180116_230000.003,0,RJTU,,,,0,20180116230000,-1,-1,-1,-1,10,-1,2,-1,-1,-1,-1,,9999,0,0,2,FEW 30   BKN 150,1,5,-1,1,1017,RJTU 162300Z 01002KT 9999 FEW030 BKN150 05/M01 Q1017 RMK     1CU030 7AC150 A3003=,
20180117_000000.004,0,RJTU,,,,0,20180117000000,-1,-1,-1,-1,40,-1,5,-1,-1,-1,-1,,9999,0,0,3,FEW 30   BKN 150   BKN 220,1,7,1,1,1017,RJTU 170000Z 04005KT 9999 FEW030 BKN150 BKN220 07/01 Q1017 RMK     1CU030 6AC150 7CI220 A3005=,
20180117_010000.003,0,RJTU,,,,0,20180117010000,-1,-1,-1,-1,30,-1,8,-1,-1,-1,-1,,9999,0,0,3,FEW 30   BKN 150   BKN 220,1,8,1,1,1017,RJTU 170100Z 03008KT 9999 FEW030 BKN150 BKN220 08/01 Q1017 RMK     1CU030 5AC150 7CI220 A3005=,
20180117_020000.006,0,RJTU,,,,0,20180117020000,-1,-1,-1,-1,30,-1,6,-1,-1,-1,-1,,9999,0,0,3,FEW 30   BKN 70   BKN 150,1,9,1,2,1017,RJTU 170200Z 03006KT 9999 FEW030 BKN070 BKN150 09/02 Q1017 RMK     1CU030 5AC070 6AC150 A3003=,
20180117_030000.004,0,RJTU,,,,0,20180117030000,-1,-1,-1,-1,30,-1,7,-1,-1,-1,-1,,9999,0,0,3,FEW 30   BKN 40   BKN 60,1,10,1,2,1015,RJTU 170300Z 03007KT 9999 FEW030 BKN040 BKN060 10/02 Q1015 RMK     1CU030 6SC040 7SC060 A3000=,
20180117_040000.004,0,RJTU,,,,0,20180117040000,-1,-1,-1,-1,30,-1,6,-1,-1,-1,-1,,9999,0,0,3,FEW 30   BKN 40   BKN 60,1,10,1,2,1014,RJTU 170400Z 03006KT 9999 FEW030 BKN040 BKN060 10/02 Q1014 RMK     1SC030 5SC040 7SC060 A2996=,
20180117_050000.004,0,RJTU,,,,0,20180117050000,-1,-1,-1,-1,30,-1,6,-1,-1,-1,-1,,9999,0,1,3,FEW 25   BKN 30   BKN 50,1,9,1,3,1013,RJTU 170500Z 03006KT 9999 -RA FEW025 BKN030 BKN050 09/03 Q1013     RMK 1SC025 5SC030 7SC050 A2993=,- RA
20180117_060000.003,0,RJTU,,,,0,20180117060000,-1,-1,-1,-1,30,-1,7,-1,-1,-1,-1,,7000,0,1,3,FEW 10   BKN 20   BKN 40,1,8,1,4,1013,RJTU 170600Z 03007KT 7000 -RA FEW010 BKN020 BKN040 08/04 Q1013     RMK 1ST010 6SC020 7SC040 A2992=,- RA
20180117_070000.004,0,RJTU,,,,0,20180117070000,-1,-1,-1,-1,20,-1,6,-1,-1,-1,-1,,3000,0,2,3,FEW 5   SCT 8   BKN 13,1,7,1,5,1012,RJTU 170700Z 02006KT 3000 -RA BR FEW005 SCT008 BKN013 07/05     Q1012 RMK 1ST005 3ST008 6SC013 A2991=,- RA; BR
20180117_080000.003,0,RJTU,,,,0,20180117080000,-1,-1,-1,-1,20,-1,5,-1,-1,-1,-1,,3000,0,2,3,FEW 5   SCT 8   BKN 13,1,7,1,5,1012,RJTU 170800Z 02005KT 3000 RA BR FEW005 SCT008 BKN013 07/05     Q1012 RMK 1ST005 4ST008 6SC013 A2990=,RA; BR
20180117_090000.004,0,RJTU,,,,0,20180117090000,-1,-1,-1,-1,-1,-1,-1,-1,-1,-1,-1,,-1,0,0,0,,0,-1,0,-1,-1,RJTU 170900Z NIL=,
20180117_100000.003,0,RJTU,,,,0,20180117100000,-1,-1,-1,-1,-1,-1,-1,-1,-1,-1,-1,,-1,0,0,0,,0,-1,0,-1,-1,RJTU 171000Z NIL=,
20180117_110000.004,0,RJTU,,,,0,20180117110000,-1,-1,-1,-1,-1,-1,-1,-1,-1,-1,-1,,-1,0,0,0,,0,-1,0,-1,-1,RJTU 171100Z NIL=,
20180117_120000.004,0,RJTU,,,,0,20180117120000,-1,-1,-1,-1,-1,-1,-1,-1,-1,-1,-1,,-1,0,0,0,,0,-1,0,-1,-1,RJTU 171200Z NIL=,
20180117_130000.003,0,RJTU,,,,0,20180117130000,-1,-1,-1,-1,-1,-1,-1,-1,-1,-1,-1,,-1,0,0,0,,0,-1,0,-1,-1,RJTU 171300Z NIL=,
20180117_140000.003,0,RJTU,,,,0,20180117140000,-1,-1,-1,-1,-1,-1,-1,-1,-1,-1,-1,,-1,0,0,0,,0,-1,0,-1,-1,RJTU 171400Z NIL=,
20180117_150000.003,0,RJTU,,,,0,20180117150000,-1,-1,-1,-1,-1,-1,-1,-1,-1,-1,-1,,-1,0,0,0,,0,-1,0,-1,-1,RJTU 171500Z NIL=,
20180117_160000.003,0,RJTU,,,,0,20180117160000,-1,-1,-1,-1,-1,-1,-1,-1,-1,-1,-1,,-1,0,0,0,,0,-1,0,-1,-1,RJTU 171600Z NIL=,
20180117_170000.003,0,RJTU,,,,0,20180117170000,-1,-1,-1,-1,-1,-1,-1,-1,-1,-1,-1,,-1,0,0,0,,0,-1,0,-1,-1,RJTU 171700Z NIL=,
20180117_180000.003,0,RJTU,,,,0,20180117180000,-1,-1,-1,-1,-1,-1,-1,-1,-1,-1,-1,,-1,0,0,0,,0,-1,0,-1,-1,RJTU 171800Z NIL=,
20180117_190000.004,0,RJTU,,,,0,20180117190000,-1,-1,-1,-1,-1,-1,-1,-1,-1,-1,-1,,-1,0,0,0,,0,-1,0,-1,-1,RJTU 171900Z NIL=,
20180117_200000.003,0,RJTU,,,,0,20180117200000,-1,-1,-1,-1,-1,-1,-1,-1,-1,-1,-1,,-1,0,0,0,,0,-1,0,-1,-1,RJTU 172000Z NIL=,
20180117_210000.003,0,RJTU,,,,0,20180117210000,-1,-1,-1,-1,80,-1,2,-1,-1,-1,-1,,9999,0,0,1,FEW 15,1,2,1,0,1011,RJTU 172100Z 08002KT 9999 FEW015 02/00 Q1011 RMK 1SC015 A2988=,
20180117_220000.004,0,RJTU,,,,0,20180117220000,-1,-1,-1,-1,340,-1,3,-1,-1,-1,-1,,9999,0,0,1,FEW 10,1,1,1,0,1012,RJTU 172200Z 34003KT 9999 FEW010 01/00 Q1012 RMK 1ST010 A2989=,
20180117_230000.003,0,RJTU,,,,0,20180117230000,-1,-1,-1,-1,300,-1,3,-1,-1,-1,-1,,9999,0,0,1,FEW 20,1,2,1,0,1012,RJTU 172300Z 30003KT 9999 FEW020 02/00 Q1012 RMK 1CU020 A2990=,
20180118_000000.003,0,RJTU,,,,0,20180118000000,-1,-1,-1,-1,999,-1,1,-1,-1,-1,-1,,9999,0,0,1,FEW 20,1,5,1,2,1013,RJTU 180000Z VRB01KT 9999 FEW020 05/02 Q1013 RMK 1CU020 A2994=,
20180118_010000.003,0,RJTU,,,,0,20180118010000,-1,-1,-1,-1,999,-1,3,-1,-1,-1,-1,,9999,0,0,1,FEW 20,1,7,1,3,1013,RJTU 180100Z VRB03KT 9999 FEW020 07/03 Q1013 RMK 1CU020 A2994=,
20180118_020000.003,0,RJTU,,,,0,20180118020000,-1,-1,-1,-1,999,-1,3,-1,-1,-1,-1,,9999,0,0,2,FEW 30   BKN 210,1,9,1,2,1013,RJTU 180200Z VRB03KT 9999 FEW030 BKN210 09/02 Q1013 RMK 1CU030     7CI210 A2993=,
20180118_030000.004,0,RJTU,,,,0,20180118030000,-1,-1,-1,-1,160,-1,7,-1,-1,-1,-1,,9999,0,0,2,FEW 30   BKN 210,1,10,1,2,1012,RJTU 180300Z 16007KT 9999 FEW030 BKN210 10/02 Q1012 RMK 1CU030     6CI210 A2990=,
20180118_040000.003,0,RJTU,,,,0,20180118040000,-1,-1,-1,-1,140,-1,5,-1,-1,-1,-1,,9999,0,0,2,FEW 30   BKN 220,1,11,1,2,1012,RJTU 180400Z 14005KT 9999 FEW030 BKN220 11/02 Q1012 RMK 1CU030     7CI220 A2991=,
20180118_050000.003,0,RJTU,,,,0,20180118050000,-1,-1,-1,-1,150,-1,5,-1,-1,-1,-1,,9999,0,0,2,FEW 30   BKN 250,1,12,1,4,1012,RJTU 180500Z 15005KT 9999 FEW030 BKN250 12/04 Q1012 RMK 1CU030     7CI250 A2991=,
20180118_060000.003,0,RJTU,,,,0,20180118060000,-1,-1,-1,-1,160,-1,3,-1,-1,-1,-1,,9999,0,0,3,FEW 30   SCT 180   BKN 230,1,12,1,2,1013,RJTU 180600Z 16003KT 9999 FEW030 SCT180 BKN230 12/02 Q1013 RMK     1CU030 4AC180 7CI230 A2993=,
20180118_070000.003,0,RJTU,,,,0,20180118070000,-1,-1,-1,-1,140,-1,3,-1,-1,-1,-1,,9999,0,0,3,FEW 30   SCT 160   BKN 230,1,11,1,2,1013,RJTU 180700Z 14003KT 9999 FEW030 SCT160 BKN230 11/02 Q1013 RMK     1CU030 4AC160 7CI230 A2993=,
20180118_080000.003,0,RJTU,,,,0,20180118080000,-1,-1,-1,-1,210,-1,1,-1,-1,-1,-1,,9999,0,0,2,FEW 30   BKN 250,1,10,1,2,1014,RJTU 180800Z 21001KT 9999 FEW030 BKN250 10/02 Q1014 RMK 1CU030     7CI250 A2995=,
20180118_090000.003,0,RJTU,,,,0,20180118090000,-1,-1,-1,-1,-1,-1,-1,-1,-1,-1,-1,,-1,0,0,0,,0,-1,0,-1,-1,RJTU 180900Z NIL=,
20180118_100000.003,0,RJTU,,,,0,20180118100000,-1,-1,-1,-1,-1,-1,-1,-1,-1,-1,-1,,-1,0,0,0,,0,-1,0,-1,-1,RJTU 181000Z NIL=,
20180118_110000.003,0,RJTU,,,,0,20180118110000,-1,-1,-1,-1,-1,-1,-1,-1,-1,-1,-1,,-1,0,0,0,,0,-1,0,-1,-1,RJTU 181100Z NIL=,
20180118_120000.003,0,RJTU,,,,0,20180118120000,-1,-1,-1,-1,-1,-1,-1,-1,-1,-1,-1,,-1,0,0,0,,0,-1,0,-1,-1,RJTU 181200Z NIL=,
20180118_130000.003,0,RJTU,,,,0,20180118130000,-1,-1,-1,-1,-1,-1,-1,-1,-1,-1,-1,,-1,0,0,0,,0,-1,0,-1,-1,RJTU 181300Z NIL=,
20180118_140000.003,0,RJTU,,,,0,20180118140000,-1,-1,-1,-1,-1,-1,-1,-1,-1,-1,-1,,-1,0,0,0,,0,-1,0,-1,-1,RJTU 181400Z NIL=,
20180118_150000.003,0,RJTU,,,,0,20180118150000,-1,-1,-1,-1,-1,-1,-1,-1,-1,-1,-1,,-1,0,0,0,,0,-1,0,-1,-1,RJTU 181500Z NIL=,
20180118_160000.003,0,RJTU,,,,0,20180118160000,-1,-1,-1,-1,-1,-1,-1,-1,-1,-1,-1,,-1,0,0,0,,0,-1,0,-1,-1,RJTU 181600Z NIL=,
20180118_170000.003,0,RJTU,,,,0,20180118170000,-1,-1,-1,-1,-1,-1,-1,-1,-1,-1,-1,,-1,0,0,0,,0,-1,0,-1,-1,RJTU 181700Z NIL=,
20180118_180000.003,0,RJTU,,,,0,20180118180000,-1,-1,-1,-1,-1,-1,-1,-1,-1,-1,-1,,-1,0,0,0,,0,-1,0,-1,-1,RJTU 181800Z NIL=,
20180118_190000.003,0,RJTU,,,,0,20180118190000,-1,-1,-1,-1,-1,-1,-1,-1,-1,-1,-1,,-1,0,0,0,,0,-1,0,-1,-1,RJTU 181900Z NIL=,
20180118_200000.003,0,RJTU,,,,0,20180118200000,-1,-1,-1,-1,-1,-1,-1,-1,-1,-1,-1,,-1,0,0,0,,0,-1,0,-1,-1,RJTU 182000Z NIL=,
20180118_210000.004,0,RJTU,,,,0,20180118210000,-1,-1,-1,-1,300,-1,2,-1,-1,-1,-1,,9999,0,0,1,FEW 230,1,0,-1,2,1018,RJTU 182100Z 30002KT 9999 FEW230 00/M02 Q1018 RMK 2CI230     A3007=,
20180118_220000.003,0,RJTU,,,,0,20180118220000,-1,-1,-1,-1,320,-1,2,-1,-1,-1,-1,,9999,0,0,1,FEW 50,-1,0,-1,2,1019,RJTU 182200Z 32002KT 9999 FEW050 M00/M02 Q1019 RMK 1SC050     A3009=,
20180118_230000.004,0,RJTU,,,,0,20180118230000,-1,-1,-1,-1,330,-1,2,-1,-1,-1,-1,,9999,0,0,1,FEW 40,1,0,-1,2,1019,RJTU 182300Z 33002KT 9999 FEW040 00/M02 Q1019 RMK 1CU040     A3011=,
20180119_000000.003,0,RJTU,,,,0,20180119000000,-1,-1,-1,-1,300,-1,2,-1,-1,-1,-1,,9999,0,0,2,FEW 40   BKN 230,1,4,1,1,1020,RJTU 190000Z 30002KT 9999 FEW040 BKN230 04/01 Q1020 RMK 1CU040     6CI230 A3014=,
20180119_010000.004,0,RJTU,,,,0,20180119010000,-1,-1,-1,-1,999,-1,1,-1,-1,-1,-1,,9999,0,0,2,FEW 40   BKN 230,1,6,-1,1,1020,RJTU 190100Z VRB01KT 9999 FEW040 BKN230 06/M01 Q1020 RMK     1CU040 7CI230 A3013=,
20180119_020000.003,0,RJTU,,,,0,20180119020000,-1,-1,-1,-1,360,-1,2,-1,-1,-1,-1,,9999,0,0,2,FEW 40   BKN 230,1,8,-1,3,1019,RJTU 190200Z 36002KT 9999 FEW040 BKN230 08/M03 Q1019 RMK     1CU040 6CI230 A3012=,
20180119_030000.003,0,RJTU,,,,0,20180119030000,-1,-1,-1,-1,10,-1,3,-1,-1,310,70,,9999,0,0,1,FEW 40,1,9,-1,5,1018,RJTU 190300Z 01003KT 310V070 9999 FEW040 09/M05 Q1018 RMK     1CU040 A3009=,
20180119_040000.003,0,RJTU,,,,0,20180119040000,-1,-1,-1,-1,999,-1,4,-1,-1,-1,-1,,9999,0,0,1,FEW 40,1,10,-1,6,1018,RJTU 190400Z VRB04KT 9999 FEW040 10/M06 Q1018 RMK 1CU040     A3007=,
20180119_050000.004,0,RJTU,,,,0,20180119050000,-1,-1,-1,-1,999,-1,5,-1,-1,-1,-1,,9999,0,0,1,FEW 40,1,11,-1,6,1018,RJTU 190500Z VRB05KT 9999 FEW040 11/M06 Q1018 RMK 1CU040     A3007=,
20180119_060000.003,0,RJTU,,,,0,20180119060000,-1,-1,-1,-1,999,-1,2,-1,-1,-1,-1,,9999,0,0,1,FEW 40,1,11,-1,7,1018,RJTU 190600Z VRB02KT 9999 FEW040 11/M07 Q1018 RMK 1CU040     A3007=,
20180119_070000.003,0,RJTU,,,,0,20180119070000,-1,-1,-1,-1,110,-1,3,-1,-1,50,210,,9999,0,0,1,FEW 40,1,10,-1,7,1018,RJTU 190700Z 11003KT 050V210 9999 FEW040 10/M07 Q1018 RMK     1SC040 A3007=,
20180119_080000.003,0,RJTU,,,,0,20180119080000,-1,-1,-1,-1,120,-1,7,-1,-1,60,170,,9999,0,0,2,FEW 40   SCT 230,1,9,-1,3,1018,RJTU 190800Z 12007KT 060V170 9999 FEW040 SCT230 09/M03 Q1018     RMK 1SC040 3CI230 A3008=,
20180119_090000.004,0,RJTU,,,,0,20180119090000,-1,-1,-1,-1,-1,-1,-1,-1,-1,-1,-1,,-1,0,0,0,,0,-1,0,-1,-1,RJTU 190900Z NIL=,
20180119_100000.003,0,RJTU,,,,0,20180119100000,-1,-1,-1,-1,-1,-1,-1,-1,-1,-1,-1,,-1,0,0,0,,0,-1,0,-1,-1,RJTU 191000Z NIL=,
20180119_110000.003,0,RJTU,,,,0,20180119110000,-1,-1,-1,-1,-1,-1,-1,-1,-1,-1,-1,,-1,0,0,0,,0,-1,0,-1,-1,RJTU 191100Z NIL=,
20180119_120000.004,0,RJTU,,,,0,20180119120000,-1,-1,-1,-1,-1,-1,-1,-1,-1,-1,-1,,-1,0,0,0,,0,-1,0,-1,-1,RJTU 191200Z NIL=,
20180119_130000.003,0,RJTU,,,,0,20180119130000,-1,-1,-1,-1,-1,-1,-1,-1,-1,-1,-1,,-1,0,0,0,,0,-1,0,-1,-1,RJTU 191300Z NIL=,
20180119_140000.003,0,RJTU,,,,0,20180119140000,-1,-1,-1,-1,-1,-1,-1,-1,-1,-1,-1,,-1,0,0,0,,0,-1,0,-1,-1,RJTU 191400Z NIL=,
20180119_150000.003,0,RJTU,,,,0,20180119150000,-1,-1,-1,-1,-1,-1,-1,-1,-1,-1,-1,,-1,0,0,0,,0,-1,0,-1,-1,RJTU 191500Z NIL=,
20180119_160000.003,0,RJTU,,,,0,20180119160000,-1,-1,-1,-1,-1,-1,-1,-1,-1,-1,-1,,-1,0,0,0,,0,-1,0,-1,-1,RJTU 191600Z NIL=,
20180119_170000.003,0,RJTU,,,,0,20180119170000,-1,-1,-1,-1,-1,-1,-1,-1,-1,-1,-1,,-1,0,0,0,,0,-1,0,-1,-1,RJTU 191700Z NIL=,
20180119_180000.004,0,RJTU,,,,0,20180119180000,-1,-1,-1,-1,-1,-1,-1,-1,-1,-1,-1,,-1,0,0,0,,0,-1,0,-1,-1,RJTU 191800Z NIL=,
20180119_190000.004,0,RJTU,,,,0,20180119190000,-1,-1,-1,-1,-1,-1,-1,-1,-1,-1,-1,,-1,0,0,0,,0,-1,0,-1,-1,RJTU 191900Z NIL=,
20180119_200000.003,0,RJTU,,,,0,20180119200000,-1,-1,-1,-1,-1,-1,-1,-1,-1,-1,-1,,-1,0,0,0,,0,-1,0,-1,-1,RJTU 192000Z NIL=,
20180119_210000.003,0,RJTU,,,,0,20180119210000,-1,-1,-1,-1,-1,-1,-1,-1,-1,-1,-1,,-1,0,0,0,,0,-1,0,-1,-1,RJTU 192100Z NIL=,
20180119_220000.003,0,RJTU,,,,0,20180119220000,-1,-1,-1,-1,-1,-1,-1,-1,-1,-1,-1,,-1,0,0,0,,0,-1,0,-1,-1,RJTU 192200Z NIL=,
20180119_230000.003,0,RJTU,,,,0,20180119230000,-1,-1,-1,-1,-1,-1,-1,-1,-1,-1,-1,,-1,0,0,0,,0,-1,0,-1,-1,RJTU 192300Z NIL=,
20180120_000000.003,0,RJTU,,,,0,20180120000000,-1,-1,-1,-1,-1,-1,-1,-1,-1,-1,-1,,-1,0,0,0,,0,-1,0,-1,-1,RJTU 200000Z NIL=,
20180120_010000.003,0,RJTU,,,,0,20180120010000,-1,-1,-1,-1,-1,-1,-1,-1,-1,-1,-1,,-1,0,0,0,,0,-1,0,-1,-1,RJTU 200100Z NIL=,
20180120_020000.004,0,RJTU,,,,0,20180120020000,-1,-1,-1,-1,-1,-1,-1,-1,-1,-1,-1,,-1,0,0,0,,0,-1,0,-1,-1,RJTU 200200Z NIL=,
20180120_030000.003,0,RJTU,,,,0,20180120030000,-1,-1,-1,-1,-1,-1,-1,-1,-1,-1,-1,,-1,0,0,0,,0,-1,0,-1,-1,RJTU 200300Z NIL=,
20180120_040000.003,0,RJTU,,,,0,20180120040000,-1,-1,-1,-1,-1,-1,-1,-1,-1,-1,-1,,-1,0,0,0,,0,-1,0,-1,-1,RJTU 200400Z NIL=,
20180120_050000.003,0,RJTU,,,,0,20180120050000,-1,-1,-1,-1,-1,-1,-1,-1,-1,-1,-1,,-1,0,0,0,,0,-1,0,-1,-1,RJTU 200500Z NIL=,
20180120_060000.003,0,RJTU,,,,0,20180120060000,-1,-1,-1,-1,-1,-1,-1,-1,-1,-1,-1,,-1,0,0,0,,0,-1,0,-1,-1,RJTU 200600Z NIL=,
20180120_070000.003,0,RJTU,,,,0,20180120070000,-1,-1,-1,-1,-1,-1,-1,-1,-1,-1,-1,,-1,0,0,0,,0,-1,0,-1,-1,RJTU 200700Z NIL=,
20180120_080000.003,0,RJTU,,,,0,20180120080000,-1,-1,-1,-1,-1,-1,-1,-1,-1,-1,-1,,-1,0,0,0,,0,-1,0,-1,-1,RJTU 200800Z NIL=,
20180120_090000.003,0,RJTU,,,,0,20180120090000,-1,-1,-1,-1,-1,-1,-1,-1,-1,-1,-1,,-1,0,0,0,,0,-1,0,-1,-1,RJTU 200900Z NIL=,
20180120_100000.003,0,RJTU,,,,0,20180120100000,-1,-1,-1,-1,-1,-1,-1,-1,-1,-1,-1,,-1,0,0,0,,0,-1,0,-1,-1,RJTU 201000Z NIL=,
20180120_110000.003,0,RJTU,,,,0,20180120110000,-1,-1,-1,-1,-1,-1,-1,-1,-1,-1,-1,,-1,0,0,0,,0,-1,0,-1,-1,RJTU 201100Z NIL=,
20180120_120000.003,0,RJTU,,,,0,20180120120000,-1,-1,-1,-1,-1,-1,-1,-1,-1,-1,-1,,-1,0,0,0,,0,-1,0,-1,-1,RJTU 201200Z NIL=,
20180120_130000.003,0,RJTU,,,,0,20180120130000,-1,-1,-1,-1,-1,-1,-1,-1,-1,-1,-1,,-1,0,0,0,,0,-1,0,-1,-1,RJTU 201300Z NIL=,
20180120_140000.003,0,RJTU,,,,0,20180120140000,-1,-1,-1,-1,-1,-1,-1,-1,-1,-1,-1,,-1,0,0,0,,0,-1,0,-1,-1,RJTU 201400Z NIL=,
20180120_150000.003,0,RJTU,,,,0,20180120150000,-1,-1,-1,-1,-1,-1,-1,-1,-1,-1,-1,,-1,0,0,0,,0,-1,0,-1,-1,RJTU 201500Z NIL=,
20180120_160000.003,0,RJTU,,,,0,20180120160000,-1,-1,-1,-1,-1,-1,-1,-1,-1,-1,-1,,-1,0,0,0,,0,-1,0,-1,-1,RJTU 201600Z NIL=,
20180120_170000.003,0,RJTU,,,,0,20180120170000,-1,-1,-1,-1,-1,-1,-1,-1,-1,-1,-1,,-1,0,0,0,,0,-1,0,-1,-1,RJTU 201700Z NIL=,
20180120_180000.003,0,RJTU,,,,0,20180120180000,-1,-1,-1,-1,-1,-1,-1,-1,-1,-1,-1,,-1,0,0,0,,0,-1,0,-1,-1,RJTU 201800Z NIL=,
20180120_190000.004,0,RJTU,,,,0,20180120190000,-1,-1,-1,-1,-1,-1,-1,-1,-1,-1,-1,,-1,0,0,0,,0,-1,0,-1,-1,RJTU 201900Z NIL=,
20180120_200000.003,0,RJTU,,,,0,20180120200000,-1,-1,-1,-1,-1,-1,-1,-1,-1,-1,-1,,-1,0,0,0,,0,-1,0,-1,-1,RJTU 202000Z NIL=,
20180120_210000.003,0,RJTU,,,,0,20180120210000,-1,-1,-1,-1,-1,-1,-1,-1,-1,-1,-1,,-1,0,0,0,,0,-1,0,-1,-1,RJTU 202100Z NIL=,
20180120_220000.003,0,RJTU,,,,0,20180120220000,-1,-1,-1,-1,-1,-1,-1,-1,-1,-1,-1,,-1,0,0,0,,0,-1,0,-1,-1,RJTU 202200Z NIL=,
20180120_230000.003,0,RJTU,,,,0,20180120230000,-1,-1,-1,-1,-1,-1,-1,-1,-1,-1,-1,,-1,0,0,0,,0,-1,0,-1,-1,RJTU 202300Z NIL=,
20180121_000000.003,0,RJTU,,,,0,20180121000000,-1,-1,-1,-1,-1,-1,-1,-1,-1,-1,-1,,-1,0,0,0,,0,-1,0,-1,-1,RJTU 210000Z NIL=,
20180121_010000.003,0,RJTU,,,,0,20180121010000,-1,-1,-1,-1,-1,-1,-1,-1,-1,-1,-1,,-1,0,0,0,,0,-1,0,-1,-1,RJTU 210100Z NIL=,
20180121_020000.003,0,RJTU,,,,0,20180121020000,-1,-1,-1,-1,-1,-1,-1,-1,-1,-1,-1,,-1,0,0,0,,0,-1,0,-1,-1,RJTU 210200Z NIL=,
20180121_030000.003,0,RJTU,,,,0,20180121030000,-1,-1,-1,-1,-1,-1,-1,-1,-1,-1,-1,,-1,0,0,0,,0,-1,0,-1,-1,RJTU 210300Z NIL=,
20180121_040000.004,0,RJTU,,,,0,20180121040000,-1,-1,-1,-1,-1,-1,-1,-1,-1,-1,-1,,-1,0,0,0,,0,-1,0,-1,-1,RJTU 210400Z NIL=,
20180121_050000.003,0,RJTU,,,,0,20180121050000,-1,-1,-1,-1,-1,-1,-1,-1,-1,-1,-1,,-1,0,0,0,,0,-1,0,-1,-1,RJTU 210500Z NIL=,
20180121_060000.003,0,RJTU,,,,0,20180121060000,-1,-1,-1,-1,-1,-1,-1,-1,-1,-1,-1,,-1,0,0,0,,0,-1,0,-1,-1,RJTU 210600Z NIL=,
20180121_070000.003,0,RJTU,,,,0,20180121070000,-1,-1,-1,-1,-1,-1,-1,-1,-1,-1,-1,,-1,0,0,0,,0,-1,0,-1,-1,RJTU 210700Z NIL=,
20180121_080000.003,0,RJTU,,,,0,20180121080000,-1,-1,-1,-1,-1,-1,-1,-1,-1,-1,-1,,-1,0,0,0,,0,-1,0,-1,-1,RJTU 210800Z NIL=,
20180121_090000.003,0,RJTU,,,,0,20180121090000,-1,-1,-1,-1,-1,-1,-1,-1,-1,-1,-1,,-1,0,0,0,,0,-1,0,-1,-1,RJTU 210900Z NIL=,
20180121_100000.003,0,RJTU,,,,0,20180121100000,-1,-1,-1,-1,-1,-1,-1,-1,-1,-1,-1,,-1,0,0,0,,0,-1,0,-1,-1,RJTU 211000Z NIL=,
20180121_110000.003,0,RJTU,,,,0,20180121110000,-1,-1,-1,-1,-1,-1,-1,-1,-1,-1,-1,,-1,0,0,0,,0,-1,0,-1,-1,RJTU 211100Z NIL=,
20180121_120000.003,0,RJTU,,,,0,20180121120000,-1,-1,-1,-1,-1,-1,-1,-1,-1,-1,-1,,-1,0,0,0,,0,-1,0,-1,-1,RJTU 211200Z NIL=,
20180121_130000.004,0,RJTU,,,,0,20180121130000,-1,-1,-1,-1,-1,-1,-1,-1,-1,-1,-1,,-1,0,0,0,,0,-1,0,-1,-1,RJTU 211300Z NIL=,
20180121_140000.003,0,RJTU,,,,0,20180121140000,-1,-1,-1,-1,-1,-1,-1,-1,-1,-1,-1,,-1,0,0,0,,0,-1,0,-1,-1,RJTU 211400Z NIL=,
20180121_150000.003,0,RJTU,,,,0,20180121150000,-1,-1,-1,-1,-1,-1,-1,-1,-1,-1,-1,,-1,0,0,0,,0,-1,0,-1,-1,RJTU 211500Z NIL=,
20180121_160000.003,0,RJTU,,,,0,20180121160000,-1,-1,-1,-1,-1,-1,-1,-1,-1,-1,-1,,-1,0,0,0,,0,-1,0,-1,-1,RJTU 211600Z NIL=,
20180121_170000.003,0,RJTU,,,,0,20180121170000,-1,-1,-1,-1,-1,-1,-1,-1,-1,-1,-1,,-1,0,0,0,,0,-1,0,-1,-1,RJTU 211700Z NIL=,
20180121_180000.003,0,RJTU,,,,0,20180121180000,-1,-1,-1,-1,-1,-1,-1,-1,-1,-1,-1,,-1,0,0,0,,0,-1,0,-1,-1,RJTU 211800Z NIL=,
20180121_190000.003,0,RJTU,,,,0,20180121190000,-1,-1,-1,-1,-1,-1,-1,-1,-1,-1,-1,,-1,0,0,0,,0,-1,0,-1,-1,RJTU 211900Z NIL=,
20180121_200000.003,0,RJTU,,,,0,20180121200000,-1,-1,-1,-1,-1,-1,-1,-1,-1,-1,-1,,-1,0,0,0,,0,-1,0,-1,-1,RJTU 212000Z NIL=,
20180121_210000.003,0,RJTU,,,,0,20180121210000,-1,-1,-1,-1,50,-1,3,-1,-1,-1,-1,,9999,0,0,3,FEW 30   BKN 140   BKN 170,-1,0,-1,7,1021,RJTU 212100Z 05003KT 9999 FEW030 BKN140 BKN170 M00/M07 Q1021     RMK 1SC030 5AC140 7CI170 A3016=,
20180121_220000.003,0,RJTU,,,,0,20180121220000,-1,-1,-1,-1,10,-1,4,-1,-1,-1,-1,,9999,0,0,3,FEW 30   SCT 60   BKN 140,1,0,-1,8,1021,RJTU 212200Z 01004KT 9999 FEW030 SCT060 BKN140 00/M08 Q1021     RMK 1SC030 3SC060 5AC140 A3017=,
20180121_230000.003,0,RJTU,,,,0,20180121230000,-1,-1,-1,-1,360,-1,5,-1,-1,-1,-1,,9999,0,0,3,FEW 30   BKN 35   BKN 60,1,1,-1,8,1022,RJTU 212300Z 36005KT 9999 FEW030 BKN035 BKN060 01/M08 Q1022     RMK 1SC030 5SC035 6SC060 A3018=,
20180122_000000.003,0,RJTU,,,,0,20180122000000,-1,-1,-1,-1,20,-1,5,-1,-1,-1,-1,,9999,0,0,3,FEW 25   BKN 35   BKN 60,1,1,-1,7,1022,RJTU 220000Z 02005KT 9999 FEW025 BKN035 BKN060 01/M07 Q1022     RMK 1SC025 5SC035 6SC060 A3020=,
20180122_010000.003,0,RJTU,,,,0,20180122010000,-1,-1,-1,-1,40,-1,8,-1,-1,-1,-1,,9999,0,0,3,FEW 30   BKN 35   BKN 60,1,2,-1,8,1021,RJTU 220100Z 04008KT 9999 FEW030 BKN035 BKN060 02/M08 Q1021     RMK 1SC030 5SC035 6SC060 A3017=,
20180122_020000.003,0,RJTU,,,,0,20180122020000,-1,-1,-1,-1,50,-1,8,-1,-1,-1,-1,,9999,0,0,3,FEW 30   BKN 40   BKN 50,1,2,-1,7,1020,RJTU 220200Z 05008KT 9999 FEW030 BKN040 BKN050 02/M07 Q1020     RMK 1SC030 6SC040 7SC050 A3014=,
20180122_030000.003,0,RJTU,,,,0,20180122030000,-1,-1,-1,-1,50,-1,7,-1,-1,-1,-1,,9999,0,0,3,FEW 30   BKN 40   BKN 50,1,2,-1,7,1019,RJTU 220300Z 05007KT 9999 FEW030 BKN040 BKN050 02/M07 Q1019     RMK 1SC030 6SC040 7SC050 A3011=,
20180122_040000.003,0,RJTU,,,,0,20180122040000,-1,-1,-1,-1,30,-1,6,-1,-1,-1,-1,,8000,0,1,3,FEW 30   BKN 35   OVC 50,1,2,-1,7,1018,RJTU 220400Z 03006KT 8000 -SN FEW030 BKN035 OVC050 02/M07     Q1018 RMK 1SC030 7SC035 8SC050 A3008=,- SN
20180122_050000.003,0,RJTU,,,,0,20180122050000,-1,-1,-1,-1,70,-1,7,-1,-1,-1,-1,,1000,0,2,3,SCT 8   BKN 15   OVC 20,-1,0,-1,3,1017,RJTU 220500Z 07007KT 1000 -SN BR SCT008 BKN015 OVC020 M00/M03     Q1017 RMK 3ST008 7SC015 8SC020 A3006=,- SN; BR
20180122_060000.004,0,RJTU,,,,0,20180122060000,-1,-1,-1,-1,10,-1,5,-1,-1,-1,-1,,1200,0,2,3,FEW 4   BKN 8   OVC 20,-1,0,-1,2,1017,RJTU 220600Z 01005KT 1200 -SN BR FEW004 BKN008 OVC020 M00/M02     Q1017 RMK 2ST004 6ST008 8SC020 A3004=,- SN; BR
20180122_070000.003,0,RJTU,,,,0,20180122070000,-1,-1,-1,-1,30,-1,7,-1,-1,-1,-1,,1000,0,2,3,FEW 5   BKN 8   OVC 20,-1,1,-1,3,1016,RJTU 220700Z 03007KT 1000 -SN BR FEW005 BKN008 OVC020 M01/M03     Q1016 RMK 1ST005 6ST008 8SC020 A3000=,- SN; BR
20180122_080000.004,0,RJTU,,,,0,20180122080000,-1,-1,-1,-1,360,-1,7,-1,-1,-1,-1,,800,0,2,3,FEW 5   BKN 7   OVC 15,-1,1,-1,3,1016,RJTU 220800Z 36007KT 0800 SN FG FEW005 BKN007 OVC015 M01/M03     Q1016 RMK 1ST005 6ST007 8SC015 A3002=,SN; FG
20180122_090000.003,0,RJTU,,,,0,20180122090000,-1,-1,-1,-1,-1,-1,-1,-1,-1,-1,-1,,-1,0,0,0,,0,-1,0,-1,-1,RJTU 220900Z NIL=,
20180122_100000.003,0,RJTU,,,,0,20180122100000,-1,-1,-1,-1,-1,-1,-1,-1,-1,-1,-1,,-1,0,0,0,,0,-1,0,-1,-1,RJTU 221000Z NIL=,
20180122_110000.004,0,RJTU,,,,0,20180122110000,-1,-1,-1,-1,-1,-1,-1,-1,-1,-1,-1,,-1,0,0,0,,0,-1,0,-1,-1,RJTU 221100Z NIL=,
20180122_120000.003,0,RJTU,,,,0,20180122120000,-1,-1,-1,-1,-1,-1,-1,-1,-1,-1,-1,,-1,0,0,0,,0,-1,0,-1,-1,RJTU 221200Z NIL=,
20180122_130000.004,0,RJTU,,,,0,20180122130000,-1,-1,-1,-1,-1,-1,-1,-1,-1,-1,-1,,-1,0,0,0,,0,-1,0,-1,-1,RJTU 221300Z NIL=,
20180122_140000.004,0,RJTU,,,,0,20180122140000,-1,-1,-1,-1,-1,-1,-1,-1,-1,-1,-1,,-1,0,0,0,,0,-1,0,-1,-1,RJTU 221400Z NIL=,
20180122_150000.003,0,RJTU,,,,0,20180122150000,-1,-1,-1,-1,-1,-1,-1,-1,-1,-1,-1,,-1,0,0,0,,0,-1,0,-1,-1,RJTU 221500Z NIL=,
20180122_160000.003,0,RJTU,,,,0,20180122160000,-1,-1,-1,-1,-1,-1,-1,-1,-1,-1,-1,,-1,0,0,0,,0,-1,0,-1,-1,RJTU 221600Z NIL=,
20180122_170000.003,0,RJTU,,,,0,20180122170000,-1,-1,-1,-1,-1,-1,-1,-1,-1,-1,-1,,-1,0,0,0,,0,-1,0,-1,-1,RJTU 221700Z NIL=,
20180122_180000.003,0,RJTU,,,,0,20180122180000,-1,-1,-1,-1,-1,-1,-1,-1,-1,-1,-1,,-1,0,0,0,,0,-1,0,-1,-1,RJTU 221800Z NIL=,
20180122_190000.003,0,RJTU,,,,0,20180122190000,-1,-1,-1,-1,-1,-1,-1,-1,-1,-1,-1,,-1,0,0,0,,0,-1,0,-1,-1,RJTU 221900Z NIL=,
20180122_200000.003,0,RJTU,,,,0,20180122200000,-1,-1,-1,-1,-1,-1,-1,-1,-1,-1,-1,,-1,0,0,0,,0,-1,0,-1,-1,RJTU 222000Z NIL=,
20180122_210000.004,0,RJTU,,,,0,20180122210000,-1,-1,-1,-1,290,-1,4,-1,-1,-1,-1,,5000,0,1,2,FEW 1   SCT 70,-1,2,-1,4,1007,RJTU 222100Z 29004KT 5000 BR FEW001 SCT070 M02/M04 Q1007 RMK     1ST001 3AC070 A2974=,BR
20180122_220000.003,0,RJTU,,,,0,20180122220000,-1,-1,-1,-1,180,-1,4,-1,-1,-1,-1,,300,0,1,3,FEW 1   BKN 2   BKN 5,-1,3,-1,4,1007,RJTU 222200Z 18004KT 0300 FG FEW001 BKN002 BKN005 M03/M04     Q1007 RMK 1ST001 5ST002 6ST005 A2975=,FG
20180122_230000.004,0,RJTU,,,,0,20180122230000,-1,-1,-1,-1,999,-1,1,-1,-1,-1,-1,,300,0,1,3,FEW 1   BKN 2   BKN 6,-1,4,-1,5,1007,RJTU 222300Z VRB01KT 0300 FG FEW001 BKN002 BKN006 M04/M05     Q1007 RMK 1ST001 5ST002 6ST006 A2975=,FG
20180123_000000.003,0,RJTU,,,,0,20180123000000,-1,-1,-1,-1,110,-1,2,-1,-1,-1,-1,,500,0,1,3,FEW 1   SCT 2   BKN 6,-1,3,-1,4,1006,RJTU 230000Z 11002KT 0500 FG FEW001 SCT002 BKN006 M03/M04     Q1006 RMK 1ST001 3ST002 6ST006 A2973=,FG
20180123_010000.003,0,RJTU,,,,0,20180123010000,-1,-1,-1,-1,120,-1,3,-1,-1,-1,-1,,1500,0,1,2,FEW 2   SCT 6,-1,1,-1,2,1006,RJTU 230100Z 12003KT 1500 BR FEW002 SCT006 M01/M02 Q1006 RMK     1ST002 3ST006 A2971=,BR
20180123_020000.003,0,RJTU,,,,0,20180123020000,-1,-1,-1,-1,140,-1,2,-1,-1,-1,-1,,5000,0,1,2,SCT 6   BKN 25,1,1,-1,0,1004,RJTU 230200Z 14002KT 5000 BR SCT006 BKN025 01/M00 Q1004 RMK     3ST006 7SC025 A2966=,BR
20180123_030000.004,0,RJTU,,,,0,20180123030000,-1,-1,-1,-1,140,-1,2,-1,-1,-1,-1,,9999,0,0,2,FEW 10   BKN 18,1,3,-1,1,1002,RJTU 230300Z 14002KT 9999 FEW010 BKN018 03/M01 Q1002 RMK     1ST010 7CU018 A2961 P/FR=,
20180123_040000.004,0,RJTU,,,,0,20180123040000,-1,-1,-1,-1,190,-1,6,-1,-1,160,250,,9999,0,0,2,FEW 10   SCT 15,1,5,-1,1,1001,RJTU 230400Z 19006KT 160V250 9999 FEW010 SCT015 05/M01 Q1001     RMK 1ST010 4CU015 A2957=,
20180123_050000.003,0,RJTU,,,,0,20180123050000,-1,-1,-1,-1,200,-1,10,-1,-1,-1,-1,,9999,0,0,2,FEW 10   SCT 15,1,4,-1,1,1001,RJTU 230500Z 20010KT 9999 FEW010 SCT015 04/M01 Q1001 RMK     1ST010 3CU015 A2957=,
20180123_060000.004,0,RJTU,,,,0,20180123060000,-1,-1,-1,-1,210,-1,8,-1,-1,-1,-1,,9000,0,0,2,FEW 10   SCT 15,1,4,-1,1,1001,RJTU 230600Z 21008KT 9000 FEW010 SCT015 04/M01 Q1001 RMK     1ST010 3CU015 A2958=,
20180123_070000.003,0,RJTU,,,,0,20180123070000,-1,-1,-1,-1,310,-1,4,-1,-1,260,350,,9000,0,0,1,FEW 10,1,5,-1,1,1002,RJTU 230700Z 31004KT 260V350 9000 FEW010 05/M01 Q1002 RMK     1ST010 A2960=,
20180123_080000.003,0,RJTU,,,,0,20180123080000,-1,-1,-1,-1,999,-1,2,-1,-1,-1,-1,,9999,0,0,1,FEW 10,1,4,-1,0,1003,RJTU 230800Z VRB02KT 9999 FEW010 04/M00 Q1003 RMK 1ST010     A2962=,
20180123_090000.003,0,RJTU,,,,0,20180123090000,-1,-1,-1,-1,-1,-1,-1,-1,-1,-1,-1,,-1,0,0,0,,0,-1,0,-1,-1,RJTU 230900Z NIL=,
20180123_100000.003,0,RJTU,,,,0,20180123100000,-1,-1,-1,-1,350,-1,3,-1,-1,280,60,,9000,0,0,1,FEW 10,1,2,-1,0,1005,RJTU 231000Z 35003KT 280V060 9000 FEW010 02/M00 Q1005 RMK     1ST010 A2968=,
20180123_110000.003,0,RJTU,,,,0,20180123110000,-1,-1,-1,-1,-1,-1,-1,-1,-1,-1,-1,,-1,0,0,0,,0,-1,0,-1,-1,RJTU 231100Z NIL=,
20180123_120000.003,0,RJTU,,,,0,20180123120000,-1,-1,-1,-1,-1,-1,-1,-1,-1,-1,-1,,-1,0,0,0,,0,-1,0,-1,-1,RJTU 231200Z NIL=,
20180123_130000.003,0,RJTU,,,,0,20180123130000,-1,-1,-1,-1,-1,-1,-1,-1,-1,-1,-1,,-1,0,0,0,,0,-1,0,-1,-1,RJTU 231300Z NIL=,
20180123_140000.003,0,RJTU,,,,0,20180123140000,-1,-1,-1,-1,-1,-1,-1,-1,-1,-1,-1,,-1,0,0,0,,0,-1,0,-1,-1,RJTU 231400Z NIL=,
20180123_150000.003,0,RJTU,,,,0,20180123150000,-1,-1,-1,-1,-1,-1,-1,-1,-1,-1,-1,,-1,0,0,0,,0,-1,0,-1,-1,RJTU 231500Z NIL=,
20180123_160000.003,0,RJTU,,,,0,20180123160000,-1,-1,-1,-1,-1,-1,-1,-1,-1,-1,-1,,-1,0,0,0,,0,-1,0,-1,-1,RJTU 231600Z NIL=,
20180123_170000.003,0,RJTU,,,,0,20180123170000,-1,-1,-1,-1,-1,-1,-1,-1,-1,-1,-1,,-1,0,0,0,,0,-1,0,-1,-1,RJTU 231700Z NIL=,
20180123_180000.003,0,RJTU,,,,0,20180123180000,-1,-1,-1,-1,-1,-1,-1,-1,-1,-1,-1,,-1,0,0,0,,0,-1,0,-1,-1,RJTU 231800Z NIL=,
20180123_190000.003,0,RJTU,,,,0,20180123190000,-1,-1,-1,-1,-1,-1,-1,-1,-1,-1,-1,,-1,0,0,0,,0,-1,0,-1,-1,RJTU 231900Z NIL=,
20180123_200000.003,0,RJTU,,,,0,20180123200000,-1,-1,-1,-1,-1,-1,-1,-1,-1,-1,-1,,-1,0,0,0,,0,-1,0,-1,-1,RJTU 232000Z NIL=,
20180123_210000.003,0,RJTU,,,,0,20180123210000,-1,-1,-1,-1,160,-1,3,-1,-1,-1,-1,,9999,0,0,1,FEW 20,-1,5,-1,8,1006,RJTU 232100Z 16003KT 9999 FEW020 M05/M08 Q1006 RMK 1CU020     A2973=,
20180123_220000.003,0,RJTU,,,,0,20180123220000,-1,-1,-1,-1,999,-1,1,-1,-1,-1,-1,,9999,0,0,1,FEW 20,-1,5,-1,8,1006,RJTU 232200Z VRB01KT 9999 FEW020 M05/M08 Q1006 RMK 1CU020     A2973=,
20180123_230000.003,0,RJTU,,,,0,20180123230000,-1,-1,-1,-1,350,-1,2,-1,-1,-1,-1,,9999,0,0,1,FEW 20,-1,3,-1,7,1006,RJTU 232300Z 35002KT 9999 FEW020 M03/M07 Q1006 RMK 1CU020     A2973=,
20180124_000000.003,0,RJTU,,,,0,20180124000000,-1,-1,-1,-1,130,-1,5,-1,-1,-1,-1,,9999,0,0,1,FEW 25,-1,2,-1,7,1006,RJTU 240000Z 13005KT 9999 FEW025 M02/M07 Q1006 RMK 1CU025     A2972=,
20180124_010000.004,0,RJTU,,,,0,20180124010000,-1,-1,-1,-1,170,-1,3,-1,-1,120,250,,9999,0,0,1,FEW 30,1,1,-1,8,1005,RJTU 240100Z 17003KT 120V250 9999 FEW030 01/M08 Q1005 RMK     2CU030 A2970=,
20180124_020000.003,0,RJTU,,,,0,20180124020000,-1,-1,-1,-1,210,-1,7,-1,-1,-1,-1,,9999,0,0,2,FEW 30   SCT 50,1,2,-1,9,1004,RJTU 240200Z 21007KT 9999 FEW030 SCT050 02/M09 Q1004 RMK     1CU030 4SC050 A2967=,
20180124_030000.003,0,RJTU,,,,0,20180124030000,-1,-1,-1,-1,240,-1,10,-1,-1,-1,-1,,9999,0,0,2,FEW 20   BKN 50,1,2,-1,7,1003,RJTU 240300Z 24010KT 9999 FEW020 BKN050 02/M07 Q1003 RMK     1SC020 5SC050 A2963=,
20180124_040000.003,0,RJTU,,,,0,20180124040000,-1,-1,-1,-1,270,-1,11,-1,-1,-1,-1,,9999,0,0,2,FEW 20   SCT 50,1,4,-1,12,1002,RJTU 240400Z 27011KT 9999 FEW020 SCT050 04/M12 Q1002 RMK     1SC020 3SC050 A2960 MAX WIND 17KT=,
20180124_050000.003,0,RJTU,,,,0,20180124050000,-1,-1,-1,-1,250,-1,8,-1,-1,-1,-1,,9999,0,0,3,FEW 20   BKN 50   BKN 80,1,4,-1,12,1001,RJTU 240500Z 25008KT 9999 FEW020 BKN050 BKN080 04/M12 Q1001     RMK 1SC020 5SC050 6AC080 A2958=,
20180124_060000.003,0,RJTU,,,,0,20180124060000,-1,-1,-1,-1,310,-1,8,-1,-1,-1,-1,,9999,0,0,2,FEW 20   SCT 50,1,2,-1,11,1002,RJTU 240600Z 31008KT 9999 FEW020 SCT050 02/M11 Q1002 RMK     1SC020 3SC050 A2960=,
20180124_070000.003,0,RJTU,,,,0,20180124070000,-1,-1,-1,-1,340,-1,12,-1,22,-1,-1,,9999,0,0,2,FEW 20   SCT 50,1,1,-1,11,1003,RJTU 240700Z 34012G22KT 9999 FEW020 SCT050 01/M11 Q1003 RMK     1SC020 3SC050 A2963=,
20180124_080000.003,0,RJTU,,,,0,20180124080000,-1,-1,-1,-1,350,-1,5,-1,-1,-1,-1,,9999,0,0,2,FEW 20   SCT 50,-1,1,-1,10,1004,RJTU 240800Z 35005KT 9999 FEW020 SCT050 M01/M10 Q1004 RMK     1SC020 3SC050 A2966=,
20180124_090000.004,0,RJTU,,,,0,20180124090000,-1,-1,-1,-1,-1,-1,-1,-1,-1,-1,-1,,-1,0,0,0,,0,-1,0,-1,-1,RJTU 240900Z NIL=,
20180124_100000.003,0,RJTU,,,,0,20180124100000,-1,-1,-1,-1,-1,-1,-1,-1,-1,-1,-1,,-1,0,0,0,,0,-1,0,-1,-1,RJTU 241000Z NIL=,
20180124_110000.003,0,RJTU,,,,0,20180124110000,-1,-1,-1,-1,-1,-1,-1,-1,-1,-1,-1,,-1,0,0,0,,0,-1,0,-1,-1,RJTU 241100Z NIL=,
20180124_120000.003,0,RJTU,,,,0,20180124120000,-1,-1,-1,-1,-1,-1,-1,-1,-1,-1,-1,,-1,0,0,0,,0,-1,0,-1,-1,RJTU 241200Z NIL=,
20180124_130000.003,0,RJTU,,,,0,20180124130000,-1,-1,-1,-1,-1,-1,-1,-1,-1,-1,-1,,-1,0,0,0,,0,-1,0,-1,-1,RJTU 241300Z NIL=,
20180124_140000.004,0,RJTU,,,,0,20180124140000,-1,-1,-1,-1,-1,-1,-1,-1,-1,-1,-1,,-1,0,0,0,,0,-1,0,-1,-1,RJTU 241400Z NIL=,
20180124_150000.003,0,RJTU,,,,0,20180124150000,-1,-1,-1,-1,-1,-1,-1,-1,-1,-1,-1,,-1,0,0,0,,0,-1,0,-1,-1,RJTU 241500Z NIL=,
20180124_160000.003,0,RJTU,,,,0,20180124160000,-1,-1,-1,-1,-1,-1,-1,-1,-1,-1,-1,,-1,0,0,0,,0,-1,0,-1,-1,RJTU 241600Z NIL=,
20180124_170000.003,0,RJTU,,,,0,20180124170000,-1,-1,-1,-1,-1,-1,-1,-1,-1,-1,-1,,-1,0,0,0,,0,-1,0,-1,-1,RJTU 241700Z NIL=,
20180124_180000.003,0,RJTU,,,,0,20180124180000,-1,-1,-1,-1,-1,-1,-1,-1,-1,-1,-1,,-1,0,0,0,,0,-1,0,-1,-1,RJTU 241800Z NIL=,
20180124_190000.004,0,RJTU,,,,0,20180124190000,-1,-1,-1,-1,-1,-1,-1,-1,-1,-1,-1,,-1,0,0,0,,0,-1,0,-1,-1,RJTU 241900Z NIL=,
20180124_200000.003,0,RJTU,,,,0,20180124200000,-1,-1,-1,-1,-1,-1,-1,-1,-1,-1,-1,,-1,0,0,0,,0,-1,0,-1,-1,RJTU 242000Z NIL=,
20180124_210000.004,0,RJTU,,,,0,20180124210000,-1,-1,-1,-1,260,-1,6,-1,-1,-1,-1,,9999,0,0,1,FEW 30,-1,4,-1,15,1008,RJTU 242100Z 26006KT 9999 FEW030 M04/M15 Q1008 RMK 1CU030     A2979=,
20180124_220000.003,0,RJTU,,,,0,20180124220000,-1,-1,-1,-1,250,-1,9,-1,-1,-1,-1,,9999,0,0,1,FEW 10,-1,4,-1,15,1008,RJTU 242200Z 25009KT 9999 FEW010 M04/M15 Q1008 RMK 1ST010     A2979=,
20180124_230000.003,0,RJTU,,,,0,20180124230000,-1,-1,-1,-1,270,-1,7,-1,-1,-1,-1,,9999,0,0,1,FEW 20,-1,3,-1,14,1009,RJTU 242300Z 27007KT 9999 FEW020 M03/M14 Q1009 RMK 2CU020     A2980=,
20180125_000000.003,0,RJTU,,,,0,20180125000000,-1,-1,-1,-1,290,-1,8,-1,-1,-1,-1,,9999,0,0,1,FEW 20,-1,1,-1,15,1009,RJTU 250000Z 29008KT 9999 FEW020 M01/M15 Q1009 RMK 2CU020     A2982=,
20180125_010000.003,0,RJTU,,,,0,20180125010000,-1,-1,-1,-1,290,-1,9,-1,-1,-1,-1,,9999,0,0,1,FEW 20,1,0,-1,15,1009,RJTU 250100Z 29009KT 9999 FEW020 00/M15 Q1009 RMK 1CU020     A2982=,
20180125_020000.004,0,RJTU,,,,0,20180125020000,-1,-1,-1,-1,290,-1,13,-1,-1,-1,-1,,9999,0,0,1,FEW 20,1,1,-1,16,1009,RJTU 250200Z 29013KT 9999 FEW020 01/M16 Q1009 RMK 1CU020 A2981     MAX WIND 20KT=,
20180125_030000.003,0,RJTU,,,,0,20180125030000,-1,-1,-1,-1,290,-1,12,-1,-1,-1,-1,,9999,0,0,2,FEW 20   SCT 80,1,2,-1,16,1008,RJTU 250300Z 29012KT 9999 FEW020 SCT080 02/M16 Q1008 RMK     1CU020 3AC080 A2979 MAX WIND 21KT=,
20180125_040000.003,0,RJTU,,,,0,20180125040000,-1,-1,-1,-1,280,-1,12,-1,22,-1,-1,,9999,0,0,1,FEW 30,1,2,-1,17,1008,RJTU 250400Z 28012G22KT 9999 FEW030 02/M17 Q1008 RMK 1CU030     A2977=,
20180125_050000.003,0,RJTU,,,,0,20180125050000,-1,-1,-1,-1,300,-1,11,-1,-1,-1,-1,,9999,0,0,1,FEW 30,1,2,-1,16,1008,RJTU 250500Z 30011KT 9999 FEW030 02/M16 Q1008 RMK 1CU030 A2977     MAX WIND 18KT=,
20180125_060000.003,0,RJTU,,,,0,20180125060000,-1,-1,-1,-1,280,-1,12,-1,23,-1,-1,,9999,0,0,1,FEW 30,1,2,-1,17,1008,RJTU 250600Z 28012G23KT 9999 FEW030 02/M17 Q1008 RMK 1CU030     A2977=,
20180125_070000.003,0,RJTU,,,,0,20180125070000,-1,-1,-1,-1,290,-1,13,-1,-1,-1,-1,,9999,0,0,1,FEW 30,1,1,-1,16,1008,RJTU 250700Z 29013KT 9999 FEW030 01/M16 Q1008 RMK 1CU030 A2978     MAX WIND 19KT=,
20180125_080000.003,0,RJTU,,,,0,20180125080000,-1,-1,-1,-1,280,-1,14,-1,-1,-1,-1,,9999,0,0,1,FEW 30,1,0,-1,15,1008,RJTU 250800Z 28014KT 9999 FEW030 00/M15 Q1008 RMK 1CU030 A2979     MAX WIND 21KT=,
20180125_090000.003,0,RJTU,,,,0,20180125090000,-1,-1,-1,-1,-1,-1,-1,-1,-1,-1,-1,,-1,0,0,0,,0,-1,0,-1,-1,RJTU 250900Z NIL=,
20180125_100000.004,0,RJTU,,,,0,20180125100000,-1,-1,-1,-1,-1,-1,-1,-1,-1,-1,-1,,-1,0,0,0,,0,-1,0,-1,-1,RJTU 251000Z NIL=,
20180125_110000.004,0,RJTU,,,,0,20180125110000,-1,-1,-1,-1,-1,-1,-1,-1,-1,-1,-1,,-1,0,0,0,,0,-1,0,-1,-1,RJTU 251100Z NIL=,
20180125_120000.003,0,RJTU,,,,0,20180125120000,-1,-1,-1,-1,-1,-1,-1,-1,-1,-1,-1,,-1,0,0,0,,0,-1,0,-1,-1,RJTU 251200Z NIL=,
20180125_130000.003,0,RJTU,,,,0,20180125130000,-1,-1,-1,-1,-1,-1,-1,-1,-1,-1,-1,,-1,0,0,0,,0,-1,0,-1,-1,RJTU 251300Z NIL=,
20180125_140000.003,0,RJTU,,,,0,20180125140000,-1,-1,-1,-1,-1,-1,-1,-1,-1,-1,-1,,-1,0,0,0,,0,-1,0,-1,-1,RJTU 251400Z NIL=,
20180125_150000.003,0,RJTU,,,,0,20180125150000,-1,-1,-1,-1,-1,-1,-1,-1,-1,-1,-1,,-1,0,0,0,,0,-1,0,-1,-1,RJTU 251500Z NIL=,
20180125_160000.003,0,RJTU,,,,0,20180125160000,-1,-1,-1,-1,-1,-1,-1,-1,-1,-1,-1,,-1,0,0,0,,0,-1,0,-1,-1,RJTU 251600Z NIL=,
20180125_170000.003,0,RJTU,,,,0,20180125170000,-1,-1,-1,-1,-1,-1,-1,-1,-1,-1,-1,,-1,0,0,0,,0,-1,0,-1,-1,RJTU 251700Z NIL=,
20180125_180000.003,0,RJTU,,,,0,20180125180000,-1,-1,-1,-1,-1,-1,-1,-1,-1,-1,-1,,-1,0,0,0,,0,-1,0,-1,-1,RJTU 251800Z NIL=,
20180125_190000.003,0,RJTU,,,,0,20180125190000,-1,-1,-1,-1,-1,-1,-1,-1,-1,-1,-1,,-1,0,0,0,,0,-1,0,-1,-1,RJTU 251900Z NIL=,
20180125_200000.004,0,RJTU,,,,0,20180125200000,-1,-1,-1,-1,-1,-1,-1,-1,-1,-1,-1,,-1,0,0,0,,0,-1,0,-1,-1,RJTU 252000Z NIL=,
20180125_210000.003,0,RJTU,,,,0,20180125210000,-1,-1,-1,-1,30,-1,4,-1,-1,-1,-1,,9999,0,0,1,FEW 30,-1,5,-1,13,1005,RJTU 252100Z 03004KT 9999 FEW030 M05/M13 Q1005 RMK 1CU030     A2971=,
20180125_220000.003,0,RJTU,,,,0,20180125220000,-1,-1,-1,-1,50,-1,5,-1,-1,-1,-1,,9999,0,0,1,FEW 30,-1,5,-1,13,1006,RJTU 252200Z 05005KT 9999 FEW030 M05/M13 Q1006 RMK 1CU030     A2972=,
20180125_230000.003,0,RJTU,,,,0,20180125230000,-1,-1,-1,-1,999,-1,2,-1,-1,-1,-1,,9999,0,0,1,FEW 30,-1,5,-1,12,1006,RJTU 252300Z VRB02KT 9999 FEW030 M05/M12 Q1006 RMK 1CU030     A2973=,
20180126_000000.003,0,RJTU,,,,0,20180126000000,-1,-1,-1,-1,999,-1,2,-1,-1,-1,-1,,9999,0,0,1,FEW 30,-1,2,-1,11,1006,RJTU 260000Z VRB02KT 9999 FEW030 M02/M11 Q1006 RMK 1CU030     A2973=,
20180126_010000.003,0,RJTU,,,,0,20180126010000,-1,-1,-1,-1,130,-1,6,-1,-1,-1,-1,,9999,0,0,2,FEW 30   SCT 80,-1,0,-1,11,1007,RJTU 260100Z 13006KT 9999 FEW030 SCT080 M00/M11 Q1007 RMK     1CU030 3AC080 A2974=,
20180126_020000.003,0,RJTU,,,,0,20180126020000,-1,-1,-1,-1,200,-1,6,-1,18,-1,-1,,9999,0,0,2,FEW 30   SCT 80,1,2,-1,15,1006,RJTU 260200Z 20006G18KT 9999 FEW030 SCT080 02/M15 Q1006 RMK     1CU030 4AC080 A2972=,
20180126_030000.003,0,RJTU,,,,0,20180126030000,-1,-1,-1,-1,280,-1,14,-1,31,-1,-1,,9999,0,0,2,FEW 30   SCT 80,1,2,-1,16,1005,RJTU 260300Z 28014G31KT 9999 FEW030 SCT080 02/M16 Q1005 RMK     1CU030 3AC080 A2969=,
20180126_040000.003,0,RJTU,,,,0,20180126040000,-1,-1,-1,-1,310,-1,15,-1,27,-1,-1,,9999,0,0,2,FEW 30   SCT 70,1,3,-1,16,1005,RJTU 260400Z 31015G27KT 9999 FEW030 SCT070 03/M16 Q1005 RMK     1CU030 3AC070 A2970=,
20180126_050000.003,0,RJTU,,,,0,20180126050000,-1,-1,-1,-1,290,-1,10,-1,20,-1,-1,,9999,0,0,2,FEW 30   SCT 90,1,2,-1,17,1006,RJTU 260500Z 29010G20KT 9999 FEW030 SCT090 02/M17 Q1006 RMK     1CU030 3AC090 A2971=,
20180126_060000.003,0,RJTU,,,,0,20180126060000,-1,-1,-1,-1,290,-1,11,-1,-1,-1,-1,,9999,0,0,1,FEW 30,1,1,-1,15,1006,RJTU 260600Z 29011KT 9999 FEW030 01/M15 Q1006 RMK 1CU030 A2973     MAX WIND 17KT=,
20180126_070000.003,0,RJTU,,,,0,20180126070000,-1,-1,-1,-1,280,-1,12,-1,-1,-1,-1,,9999,0,0,1,FEW 30,1,0,-1,16,1007,RJTU 260700Z 28012KT 9999 FEW030 00/M16 Q1007 RMK 1CU030 A2974     MAX WIND 20KT=,
20180126_080000.004,0,RJTU,,,,0,20180126080000,-1,-1,-1,-1,290,-1,9,-1,-1,-1,-1,,9999,0,0,1,FEW 30,-1,0,-1,15,1007,RJTU 260800Z 29009KT 9999 FEW030 M00/M15 Q1007 RMK 1CU030     A2975=,
20180126_090000.003,0,RJTU,,,,0,20180126090000,-1,-1,-1,-1,-1,-1,-1,-1,-1,-1,-1,,-1,0,0,0,,0,-1,0,-1,-1,RJTU 260900Z NIL=,
20180126_100000.003,0,RJTU,,,,0,20180126100000,-1,-1,-1,-1,-1,-1,-1,-1,-1,-1,-1,,-1,0,0,0,,0,-1,0,-1,-1,RJTU 261000Z NIL=,
20180126_110000.003,0,RJTU,,,,0,20180126110000,-1,-1,-1,-1,-1,-1,-1,-1,-1,-1,-1,,-1,0,0,0,,0,-1,0,-1,-1,RJTU 261100Z NIL=,
20180126_120000.003,0,RJTU,,,,0,20180126120000,-1,-1,-1,-1,-1,-1,-1,-1,-1,-1,-1,,-1,0,0,0,,0,-1,0,-1,-1,RJTU 261200Z NIL=,
20180126_130000.003,0,RJTU,,,,0,20180126130000,-1,-1,-1,-1,-1,-1,-1,-1,-1,-1,-1,,-1,0,0,0,,0,-1,0,-1,-1,RJTU 261300Z NIL=,
20180126_140000.003,0,RJTU,,,,0,20180126140000,-1,-1,-1,-1,-1,-1,-1,-1,-1,-1,-1,,-1,0,0,0,,0,-1,0,-1,-1,RJTU 261400Z NIL=,
20180126_150000.003,0,RJTU,,,,0,20180126150000,-1,-1,-1,-1,-1,-1,-1,-1,-1,-1,-1,,-1,0,0,0,,0,-1,0,-1,-1,RJTU 261500Z NIL=,
20180126_160000.003,0,RJTU,,,,0,20180126160000,-1,-1,-1,-1,-1,-1,-1,-1,-1,-1,-1,,-1,0,0,0,,0,-1,0,-1,-1,RJTU 261600Z NIL=,
20180126_170000.003,0,RJTU,,,,0,20180126170000,-1,-1,-1,-1,-1,-1,-1,-1,-1,-1,-1,,-1,0,0,0,,0,-1,0,-1,-1,RJTU 261700Z NIL=,
20180126_180000.003,0,RJTU,,,,0,20180126180000,-1,-1,-1,-1,-1,-1,-1,-1,-1,-1,-1,,-1,0,0,0,,0,-1,0,-1,-1,RJTU 261800Z NIL=,
20180126_190000.003,0,RJTU,,,,0,20180126190000,-1,-1,-1,-1,-1,-1,-1,-1,-1,-1,-1,,-1,0,0,0,,0,-1,0,-1,-1,RJTU 261900Z NIL=,
20180126_200000.004,0,RJTU,,,,0,20180126200000,-1,-1,-1,-1,-1,-1,-1,-1,-1,-1,-1,,-1,0,0,0,,0,-1,0,-1,-1,RJTU 262000Z NIL=,
20180126_210000.003,0,RJTU,,,,0,20180126210000,-1,-1,-1,-1,-1,-1,-1,-1,-1,-1,-1,,-1,0,0,0,,0,-1,0,-1,-1,RJTU 262100Z NIL=,
20180126_220000.003,0,RJTU,,,,0,20180126220000,-1,-1,-1,-1,280,-1,3,-1,-1,-1,-1,,9999,0,0,1,FEW 30,-1,8,-1,13,1012,RJTU 262200Z 28003KT 9999 FEW030 M08/M13 Q1012 RMK 1CU030     A2991=,
20180126_230000.003,0,RJTU,,,,0,20180126230000,-1,-1,-1,-1,999,-1,1,-1,-1,-1,-1,,9999,0,0,1,FEW 30,-1,6,-1,12,1013,RJTU 262300Z VRB01KT 9999 FEW030 M06/M12 Q1013 RMK 1CU030     A2992=,
20180127_000000.003,0,RJTU,,,,0,20180127000000,-1,-1,-1,-1,999,-1,2,-1,-1,-1,-1,,9999,0,0,1,FEW 30,-1,3,-1,12,1013,RJTU 270000Z VRB02KT 9999 FEW030 M03/M12 Q1013 RMK 1CU030     A2994=,
20180127_010000.003,0,RJTU,,,,0,20180127010000,-1,-1,-1,-1,999,-1,1,-1,-1,-1,-1,,9999,0,0,1,FEW 30,-1,0,-1,11,1014,RJTU 270100Z VRB01KT 9999 FEW030 M00/M11 Q1014 RMK 1CU030     A2995=,
20180127_020000.003,0,RJTU,,,,0,20180127020000,-1,-1,-1,-1,999,-1,2,-1,-1,-1,-1,,9999,0,0,1,FEW 30,1,4,-1,11,1013,RJTU 270200Z VRB02KT 9999 FEW030 04/M11 Q1013 RMK 1CU030     A2994=,
20180127_030000.003,0,RJTU,,,,0,20180127030000,-1,-1,-1,-1,-1,-1,-1,-1,-1,-1,-1,,-1,0,0,0,,0,-1,0,-1,-1,RJTU 270300Z NIL=,
20180127_040000.003,0,RJTU,,,,0,20180127040000,-1,-1,-1,-1,-1,-1,-1,-1,-1,-1,-1,,-1,0,0,0,,0,-1,0,-1,-1,RJTU 270400Z NIL=,
20180127_050000.003,0,RJTU,,,,0,20180127050000,-1,-1,-1,-1,-1,-1,-1,-1,-1,-1,-1,,-1,0,0,0,,0,-1,0,-1,-1,RJTU 270500Z NIL=,
20180127_060000.003,0,RJTU,,,,0,20180127060000,-1,-1,-1,-1,-1,-1,-1,-1,-1,-1,-1,,-1,0,0,0,,0,-1,0,-1,-1,RJTU 270600Z NIL=,
20180127_070000.003,0,RJTU,,,,0,20180127070000,-1,-1,-1,-1,-1,-1,-1,-1,-1,-1,-1,,-1,0,0,0,,0,-1,0,-1,-1,RJTU 270700Z NIL=,
20180127_080000.003,0,RJTU,,,,0,20180127080000,-1,-1,-1,-1,-1,-1,-1,-1,-1,-1,-1,,-1,0,0,0,,0,-1,0,-1,-1,RJTU 270800Z NIL=,
20180127_090000.004,0,RJTU,,,,0,20180127090000,-1,-1,-1,-1,-1,-1,-1,-1,-1,-1,-1,,-1,0,0,0,,0,-1,0,-1,-1,RJTU 270900Z NIL=,
20180127_100000.003,0,RJTU,,,,0,20180127100000,-1,-1,-1,-1,-1,-1,-1,-1,-1,-1,-1,,-1,0,0,0,,0,-1,0,-1,-1,RJTU 271000Z NIL=,
20180127_110000.003,0,RJTU,,,,0,20180127110000,-1,-1,-1,-1,-1,-1,-1,-1,-1,-1,-1,,-1,0,0,0,,0,-1,0,-1,-1,RJTU 271100Z NIL=,
20180127_120000.003,0,RJTU,,,,0,20180127120000,-1,-1,-1,-1,-1,-1,-1,-1,-1,-1,-1,,-1,0,0,0,,0,-1,0,-1,-1,RJTU 271200Z NIL=,
20180127_130000.003,0,RJTU,,,,0,20180127130000,-1,-1,-1,-1,-1,-1,-1,-1,-1,-1,-1,,-1,0,0,0,,0,-1,0,-1,-1,RJTU 271300Z NIL=,
20180127_140000.004,0,RJTU,,,,0,20180127140000,-1,-1,-1,-1,-1,-1,-1,-1,-1,-1,-1,,-1,0,0,0,,0,-1,0,-1,-1,RJTU 271400Z NIL=,
20180127_150000.003,0,RJTU,,,,0,20180127150000,-1,-1,-1,-1,-1,-1,-1,-1,-1,-1,-1,,-1,0,0,0,,0,-1,0,-1,-1,RJTU 271500Z NIL=,
20180127_160000.003,0,RJTU,,,,0,20180127160000,-1,-1,-1,-1,-1,-1,-1,-1,-1,-1,-1,,-1,0,0,0,,0,-1,0,-1,-1,RJTU 271600Z NIL=,
20180127_170000.003,0,RJTU,,,,0,20180127170000,-1,-1,-1,-1,-1,-1,-1,-1,-1,-1,-1,,-1,0,0,0,,0,-1,0,-1,-1,RJTU 271700Z NIL=,
20180127_180000.003,0,RJTU,,,,0,20180127180000,-1,-1,-1,-1,-1,-1,-1,-1,-1,-1,-1,,-1,0,0,0,,0,-1,0,-1,-1,RJTU 271800Z NIL=,
20180127_190000.003,0,RJTU,,,,0,20180127190000,-1,-1,-1,-1,-1,-1,-1,-1,-1,-1,-1,,-1,0,0,0,,0,-1,0,-1,-1,RJTU 271900Z NIL=,
20180127_200000.003,0,RJTU,,,,0,20180127200000,-1,-1,-1,-1,-1,-1,-1,-1,-1,-1,-1,,-1,0,0,0,,0,-1,0,-1,-1,RJTU 272000Z NIL=,
20180127_210000.003,0,RJTU,,,,0,20180127210000,-1,-1,-1,-1,-1,-1,-1,-1,-1,-1,-1,,-1,0,0,0,,0,-1,0,-1,-1,RJTU 272100Z NIL=,
20180127_220000.003,0,RJTU,,,,0,20180127220000,-1,-1,-1,-1,-1,-1,-1,-1,-1,-1,-1,,-1,0,0,0,,0,-1,0,-1,-1,RJTU 272200Z NIL=,
20180127_230000.003,0,RJTU,,,,0,20180127230000,-1,-1,-1,-1,-1,-1,-1,-1,-1,-1,-1,,-1,0,0,0,,0,-1,0,-1,-1,RJTU 272300Z NIL=,
20180128_000000.004,0,RJTU,,,,0,20180128000000,-1,-1,-1,-1,-1,-1,-1,-1,-1,-1,-1,,-1,0,0,0,,0,-1,0,-1,-1,RJTU 280000Z NIL=,
20180128_010000.003,0,RJTU,,,,0,20180128010000,-1,-1,-1,-1,-1,-1,-1,-1,-1,-1,-1,,-1,0,0,0,,0,-1,0,-1,-1,RJTU 280100Z NIL=,
20180128_020000.003,0,RJTU,,,,0,20180128020000,-1,-1,-1,-1,-1,-1,-1,-1,-1,-1,-1,,-1,0,0,0,,0,-1,0,-1,-1,RJTU 280200Z NIL=,
20180128_030000.003,0,RJTU,,,,0,20180128030000,-1,-1,-1,-1,-1,-1,-1,-1,-1,-1,-1,,-1,0,0,0,,0,-1,0,-1,-1,RJTU 280300Z NIL=,
20180128_040000.003,0,RJTU,,,,0,20180128040000,-1,-1,-1,-1,-1,-1,-1,-1,-1,-1,-1,,-1,0,0,0,,0,-1,0,-1,-1,RJTU 280400Z NIL=,
20180128_050000.003,0,RJTU,,,,0,20180128050000,-1,-1,-1,-1,-1,-1,-1,-1,-1,-1,-1,,-1,0,0,0,,0,-1,0,-1,-1,RJTU 280500Z NIL=,
20180128_060000.003,0,RJTU,,,,0,20180128060000,-1,-1,-1,-1,-1,-1,-1,-1,-1,-1,-1,,-1,0,0,0,,0,-1,0,-1,-1,RJTU 280600Z NIL=,
20180128_070000.004,0,RJTU,,,,0,20180128070000,-1,-1,-1,-1,-1,-1,-1,-1,-1,-1,-1,,-1,0,0,0,,0,-1,0,-1,-1,RJTU 280700Z NIL=,
20180128_080000.003,0,RJTU,,,,0,20180128080000,-1,-1,-1,-1,-1,-1,-1,-1,-1,-1,-1,,-1,0,0,0,,0,-1,0,-1,-1,RJTU 280800Z NIL=,
20180128_090000.003,0,RJTU,,,,0,20180128090000,-1,-1,-1,-1,-1,-1,-1,-1,-1,-1,-1,,-1,0,0,0,,0,-1,0,-1,-1,RJTU 280900Z NIL=,
20180128_100000.003,0,RJTU,,,,0,20180128100000,-1,-1,-1,-1,-1,-1,-1,-1,-1,-1,-1,,-1,0,0,0,,0,-1,0,-1,-1,RJTU 281000Z NIL=,
20180128_110000.003,0,RJTU,,,,0,20180128110000,-1,-1,-1,-1,-1,-1,-1,-1,-1,-1,-1,,-1,0,0,0,,0,-1,0,-1,-1,RJTU 281100Z NIL=,
20180128_120000.003,0,RJTU,,,,0,20180128120000,-1,-1,-1,-1,-1,-1,-1,-1,-1,-1,-1,,-1,0,0,0,,0,-1,0,-1,-1,RJTU 281200Z NIL=,
20180128_130000.003,0,RJTU,,,,0,20180128130000,-1,-1,-1,-1,-1,-1,-1,-1,-1,-1,-1,,-1,0,0,0,,0,-1,0,-1,-1,RJTU 281300Z NIL=,
20180128_140000.003,0,RJTU,,,,0,20180128140000,-1,-1,-1,-1,-1,-1,-1,-1,-1,-1,-1,,-1,0,0,0,,0,-1,0,-1,-1,RJTU 281400Z NIL=,
20180128_150000.003,0,RJTU,,,,0,20180128150000,-1,-1,-1,-1,-1,-1,-1,-1,-1,-1,-1,,-1,0,0,0,,0,-1,0,-1,-1,RJTU 281500Z NIL=,
20180128_160000.003,0,RJTU,,,,0,20180128160000,-1,-1,-1,-1,-1,-1,-1,-1,-1,-1,-1,,-1,0,0,0,,0,-1,0,-1,-1,RJTU 281600Z NIL=,
20180128_170000.003,0,RJTU,,,,0,20180128170000,-1,-1,-1,-1,-1,-1,-1,-1,-1,-1,-1,,-1,0,0,0,,0,-1,0,-1,-1,RJTU 281700Z NIL=,
20180128_180000.003,0,RJTU,,,,0,20180128180000,-1,-1,-1,-1,-1,-1,-1,-1,-1,-1,-1,,-1,0,0,0,,0,-1,0,-1,-1,RJTU 281800Z NIL=,
20180128_190000.003,0,RJTU,,,,0,20180128190000,-1,-1,-1,-1,-1,-1,-1,-1,-1,-1,-1,,-1,0,0,0,,0,-1,0,-1,-1,RJTU 281900Z NIL=,
20180128_200000.003,0,RJTU,,,,0,20180128200000,-1,-1,-1,-1,20,-1,2,-1,-1,-1,-1,,9999,0,0,1,FEW 30,-1,4,-1,8,1007,RJTU 282000Z 02002KT 9999 FEW030 M04/M08 Q1007 RMK 1SC030     A2974=,
20180128_210000.003,0,RJTU,,,,0,20180128210000,-1,-1,-1,-1,340,-1,2,-1,-1,-1,-1,,9999,0,0,1,FEW 30,-1,5,-1,9,1007,RJTU 282100Z 34002KT 9999 FEW030 M05/M09 Q1007 RMK 1SC030     A2975=,
20180128_220000.004,0,RJTU,,,,0,20180128220000,-1,-1,-1,-1,10,-1,2,-1,-1,-1,-1,,9999,0,0,1,FEW 30,-1,5,-1,9,1007,RJTU 282200Z 01002KT 9999 FEW030 M05/M09 Q1007 RMK 1CU030     A2976=,
20180128_230000.003,0,RJTU,,,,0,20180128230000,-1,-1,-1,-1,330,-1,4,-1,-1,-1,-1,,9999,0,0,2,FEW 30   BKN 250,-1,3,-1,8,1008,RJTU 282300Z 33004KT 9999 FEW030 BKN250 M03/M08 Q1008 RMK     1CU030 5CI250 A2977=,
20180129_000000.004,0,RJTU,,,,0,20180129000000,-1,-1,-1,-1,40,-1,8,-1,-1,-1,-1,,9999,0,0,2,FEW 30   BKN 250,1,2,-1,6,1008,RJTU 290000Z 04008KT 9999 FEW030 BKN250 02/M06 Q1008 RMK     1CU030 5CI250 A2977=,
20180129_010000.003,0,RJTU,,,,0,20180129010000,-1,-1,-1,-1,60,-1,5,-1,-1,-1,-1,,9999,0,0,1,FEW 30,1,4,-1,5,1008,RJTU 290100Z 06005KT 9999 FEW030 04/M05 Q1008 RMK 1CU030     A2977=,
20180129_020000.003,0,RJTU,,,,0,20180129020000,-1,-1,-1,-1,999,-1,2,-1,-1,-1,-1,,9999,0,0,1,FEW 30,1,5,-1,5,1007,RJTU 290200Z VRB02KT 9999 FEW030 05/M05 Q1007 RMK 1CU030     A2975=,
20180129_030000.003,0,RJTU,,,,0,20180129030000,-1,-1,-1,-1,90,-1,5,-1,-1,-1,-1,,9999,0,0,1,FEW 30,1,7,-1,6,1006,RJTU 290300Z 09005KT 9999 FEW030 07/M06 Q1006 RMK 1CU030     A2972=,
20180129_040000.003,0,RJTU,,,,0,20180129040000,-1,-1,-1,-1,999,-1,2,-1,-1,-1,-1,,9999,0,0,1,FEW 30,1,7,-1,6,1005,RJTU 290400Z VRB02KT 9999 FEW030 07/M06 Q1005 RMK 1CU030     A2970=,
20180129_050000.003,0,RJTU,,,,0,20180129050000,-1,-1,-1,-1,170,-1,8,-1,-1,130,220,,9999,0,0,2,FEW 30   BKN 240,1,8,-1,5,1005,RJTU 290500Z 17008KT 130V220 9999 FEW030 BKN240 08/M05 Q1005     RMK 1CU030 7CI240 A2968=,
20180129_060000.003,0,RJTU,,,,0,20180129060000,-1,-1,-1,-1,180,-1,7,-1,-1,-1,-1,,9999,0,0,1,FEW 30,1,8,-1,3,1005,RJTU 290600Z 18007KT 9999 FEW030 08/M03 Q1005 RMK 1CU030     A2968=,
20180129_070000.003,0,RJTU,,,,0,20180129070000,-1,-1,-1,-1,120,-1,9,-1,-1,-1,-1,,9999,0,0,2,FEW 30   SCT 35,1,7,-1,2,1005,RJTU 290700Z 12009KT 9999 FEW030 SCT035 07/M02 Q1005 RMK     1CU030 4CU035 A2968=,
20180129_080000.003,0,RJTU,,,,0,20180129080000,-1,-1,-1,-1,130,-1,7,-1,-1,-1,-1,,9999,0,0,1,FEW 30,1,5,-1,2,1005,RJTU 290800Z 13007KT 9999 FEW030 05/M02 Q1005 RMK 1CU030     A2969=,
20180129_090000.003,0,RJTU,,,,0,20180129090000,-1,-1,-1,-1,-1,-1,-1,-1,-1,-1,-1,,-1,0,0,0,,0,-1,0,-1,-1,RJTU 290900Z NIL=,
20180129_100000.003,0,RJTU,,,,0,20180129100000,-1,-1,-1,-1,-1,-1,-1,-1,-1,-1,-1,,-1,0,0,0,,0,-1,0,-1,-1,RJTU 291000Z NIL=,
20180129_110000.003,0,RJTU,,,,0,20180129110000,-1,-1,-1,-1,-1,-1,-1,-1,-1,-1,-1,,-1,0,0,0,,0,-1,0,-1,-1,RJTU 291100Z NIL=,
20180129_120000.003,0,RJTU,,,,0,20180129120000,-1,-1,-1,-1,-1,-1,-1,-1,-1,-1,-1,,-1,0,0,0,,0,-1,0,-1,-1,RJTU 291200Z NIL=,
20180129_130000.003,0,RJTU,,,,0,20180129130000,-1,-1,-1,-1,-1,-1,-1,-1,-1,-1,-1,,-1,0,0,0,,0,-1,0,-1,-1,RJTU 291300Z NIL=,
20180129_140000.003,0,RJTU,,,,0,20180129140000,-1,-1,-1,-1,-1,-1,-1,-1,-1,-1,-1,,-1,0,0,0,,0,-1,0,-1,-1,RJTU 291400Z NIL=,
20180129_150000.003,0,RJTU,,,,0,20180129150000,-1,-1,-1,-1,-1,-1,-1,-1,-1,-1,-1,,-1,0,0,0,,0,-1,0,-1,-1,RJTU 291500Z NIL=,
20180129_160000.003,0,RJTU,,,,0,20180129160000,-1,-1,-1,-1,-1,-1,-1,-1,-1,-1,-1,,-1,0,0,0,,0,-1,0,-1,-1,RJTU 291600Z NIL=,
20180129_170000.003,0,RJTU,,,,0,20180129170000,-1,-1,-1,-1,-1,-1,-1,-1,-1,-1,-1,,-1,0,0,0,,0,-1,0,-1,-1,RJTU 291700Z NIL=,
20180129_180000.003,0,RJTU,,,,0,20180129180000,-1,-1,-1,-1,-1,-1,-1,-1,-1,-1,-1,,-1,0,0,0,,0,-1,0,-1,-1,RJTU 291800Z NIL=,
20180129_190000.003,0,RJTU,,,,0,20180129190000,-1,-1,-1,-1,-1,-1,-1,-1,-1,-1,-1,,-1,0,0,0,,0,-1,0,-1,-1,RJTU 291900Z NIL=,
20180129_200000.003,0,RJTU,,,,0,20180129200000,-1,-1,-1,-1,-1,-1,-1,-1,-1,-1,-1,,-1,0,0,0,,0,-1,0,-1,-1,RJTU 292000Z NIL=,
20180129_210000.003,0,RJTU,,,,0,20180129210000,-1,-1,-1,-1,310,-1,2,-1,-1,-1,-1,,9999,0,0,2,FEW 30   SCT 60,-1,2,-1,5,1013,RJTU 292100Z 31002KT 9999 FEW030 SCT060 M02/M05 Q1013 RMK     1CU030 3SC060 A2992=,
20180129_220000.003,0,RJTU,,,,0,20180129220000,-1,-1,-1,-1,999,-1,2,-1,-1,-1,-1,,9999,0,0,1,FEW 30,-1,3,-1,6,1014,RJTU 292200Z VRB02KT 9999 FEW030 M03/M06 Q1014 RMK 1CU030     A2996=,
20180129_230000.003,0,RJTU,,,,0,20180129230000,-1,-1,-1,-1,999,-1,1,-1,-1,-1,-1,,9999,0,0,1,FEW 30,-1,1,-1,6,1015,RJTU 292300Z VRB01KT 9999 FEW030 M01/M06 Q1015 RMK 1CU030     A2999=,
20180130_000000.003,0,RJTU,,,,0,20180130000000,-1,-1,-1,-1,50,-1,5,-1,-1,-1,-1,,9999,0,0,1,FEW 30,1,0,-1,8,1015,RJTU 300000Z 05005KT 9999 FEW030 00/M08 Q1015 RMK 1CU030     A3000=,
20180130_010000.003,0,RJTU,,,,0,20180130010000,-1,-1,-1,-1,40,-1,4,-1,-1,300,80,,9999,0,0,1,FEW 30,1,1,-1,9,1016,RJTU 300100Z 04004KT 300V080 9999 FEW030 01/M09 Q1016 RMK     1CU030 A3001=,
20180130_020000.003,0,RJTU,,,,0,20180130020000,-1,-1,-1,-1,50,-1,5,-1,-1,-1,-1,,9999,0,0,1,FEW 30,1,3,-1,10,1016,RJTU 300200Z 05005KT 9999 FEW030 03/M10 Q1016 RMK 1CU030     A3000=,
20180130_030000.003,0,RJTU,,,,0,20180130030000,-1,-1,-1,-1,110,-1,4,-1,-1,-1,-1,,9999,0,0,1,FEW 30,1,3,-1,10,1015,RJTU 300300Z 11004KT 9999 FEW030 03/M10 Q1015 RMK 1CU030     A2998=,
20180130_040000.003,0,RJTU,,,,0,20180130040000,-1,-1,-1,-1,130,-1,4,-1,-1,40,180,,9999,0,0,1,FEW 30,1,4,-1,10,1014,RJTU 300400Z 13004KT 040V180 9999 FEW030 04/M10 Q1014 RMK     1CU030 A2997=,
20180130_050000.003,0,RJTU,,,,0,20180130050000,-1,-1,-1,-1,90,-1,6,-1,-1,-1,-1,,9999,0,0,1,FEW 30,1,4,-1,11,1014,RJTU 300500Z 09006KT 9999 FEW030 04/M11 Q1014 RMK 1CU030     A2997=,
20180130_060000.004,0,RJTU,,,,0,20180130060000,-1,-1,-1,-1,80,-1,7,-1,-1,-1,-1,,9999,0,0,1,FEW 30,1,4,-1,11,1015,RJTU 300600Z 08007KT 9999 FEW030 04/M11 Q1015 RMK 1CU030     A2999=,
20180130_070000.003,0,RJTU,,,,0,20180130070000,-1,-1,-1,-1,70,-1,9,-1,-1,-1,-1,,9999,0,0,1,FEW 30,1,4,-1,11,1016,RJTU 300700Z 07009KT 9999 FEW030 04/M11 Q1016 RMK 1CU030     A3001=,
20180130_080000.003,0,RJTU,,,,0,20180130080000,-1,-1,-1,-1,80,-1,8,-1,-1,-1,-1,,9999,0,0,1,FEW 30,1,3,-1,10,1017,RJTU 300800Z 08008KT 9999 FEW030 03/M10 Q1017 RMK 1CU030     A3004=,
20180130_090000.003,0,RJTU,,,,0,20180130090000,-1,-1,-1,-1,70,-1,6,-1,-1,-1,-1,,9999,0,0,2,FEW 30   BKN 80,1,2,-1,10,1018,RJTU 300900Z 07006KT 9999 FEW030 BKN080 02/M10 Q1018 RMK     1CU030 5AC080 A3008=,
20180130_100000.003,0,RJTU,,,,0,20180130100000,-1,-1,-1,-1,60,-1,5,-1,-1,-1,-1,,9999,0,0,2,FEW 30   BKN 80,1,2,-1,11,1018,RJTU 301000Z 06005KT 9999 FEW030 BKN080 02/M11 Q1018 RMK     1CU030 6AC080 A3009=,
20180130_110000.003,0,RJTU,,,,0,20180130110000,-1,-1,-1,-1,-1,-1,-1,-1,-1,-1,-1,,-1,0,0,0,,0,-1,0,-1,-1,RJTU 301100Z NIL=,
20180130_120000.003,0,RJTU,,,,0,20180130120000,-1,-1,-1,-1,-1,-1,-1,-1,-1,-1,-1,,-1,0,0,0,,0,-1,0,-1,-1,RJTU 301200Z NIL=,
20180130_130000.003,0,RJTU,,,,0,20180130130000,-1,-1,-1,-1,-1,-1,-1,-1,-1,-1,-1,,-1,0,0,0,,0,-1,0,-1,-1,RJTU 301300Z NIL=,
20180130_140000.003,0,RJTU,,,,0,20180130140000,-1,-1,-1,-1,-1,-1,-1,-1,-1,-1,-1,,-1,0,0,0,,0,-1,0,-1,-1,RJTU 301400Z NIL=,
20180130_150000.003,0,RJTU,,,,0,20180130150000,-1,-1,-1,-1,-1,-1,-1,-1,-1,-1,-1,,-1,0,0,0,,0,-1,0,-1,-1,RJTU 301500Z NIL=,
20180130_160000.003,0,RJTU,,,,0,20180130160000,-1,-1,-1,-1,-1,-1,-1,-1,-1,-1,-1,,-1,0,0,0,,0,-1,0,-1,-1,RJTU 301600Z NIL=,
20180130_170000.003,0,RJTU,,,,0,20180130170000,-1,-1,-1,-1,-1,-1,-1,-1,-1,-1,-1,,-1,0,0,0,,0,-1,0,-1,-1,RJTU 301700Z NIL=,
20180130_180000.003,0,RJTU,,,,0,20180130180000,-1,-1,-1,-1,-1,-1,-1,-1,-1,-1,-1,,-1,0,0,0,,0,-1,0,-1,-1,RJTU 301800Z NIL=,
20180130_190000.003,0,RJTU,,,,0,20180130190000,-1,-1,-1,-1,-1,-1,-1,-1,-1,-1,-1,,-1,0,0,0,,0,-1,0,-1,-1,RJTU 301900Z NIL=,
20180130_200000.003,0,RJTU,,,,0,20180130200000,-1,-1,-1,-1,-1,-1,-1,-1,-1,-1,-1,,-1,0,0,0,,0,-1,0,-1,-1,RJTU 302000Z NIL=,
20180130_210000.003,0,RJTU,,,,0,20180130210000,-1,-1,-1,-1,300,-1,2,-1,-1,-1,-1,,9999,0,0,1,FEW 30,-1,6,-1,9,1020,RJTU 302100Z 30002KT 9999 FEW030 M06/M09 Q1020 RMK 1CU030     A3015=,
20180130_220000.003,0,RJTU,,,,0,20180130220000,-1,-1,-1,-1,360,-1,2,-1,-1,-1,-1,,9999,0,0,1,FEW 40,-1,5,-1,10,1021,RJTU 302200Z 36002KT 9999 FEW040 M05/M10 Q1021 RMK 1CU040     A3016=,
20180130_230000.003,0,RJTU,,,,0,20180130230000,-1,-1,-1,-1,999,-1,1,-1,-1,-1,-1,,9999,0,0,1,FEW 40,-1,4,-1,9,1022,RJTU 302300Z VRB01KT 9999 FEW040 M04/M09 Q1022 RMK 1CU040     A3018=,
20180131_000000.003,0,RJTU,,,,0,20180131000000,-1,-1,-1,-1,999,-1,1,-1,-1,-1,-1,,9999,0,0,1,FEW 40,-1,2,-1,9,1022,RJTU 310000Z VRB01KT 9999 FEW040 M02/M09 Q1022 RMK 1CU040     A3021=,
20180131_010000.003,0,RJTU,,,,0,20180131010000,-1,-1,-1,-1,130,-1,2,-1,-1,-1,-1,,9999,0,0,1,FEW 40,1,1,-1,8,1022,RJTU 310100Z 13002KT 9999 FEW040 01/M08 Q1022 RMK 1CU040     A3020=,
20180131_020000.003,0,RJTU,,,,0,20180131020000,-1,-1,-1,-1,140,-1,5,-1,-1,-1,-1,,9999,0,0,1,FEW 40,1,3,-1,8,1022,RJTU 310200Z 14005KT 9999 FEW040 03/M08 Q1022 RMK 1CU040     A3019=,
20180131_030000.003,0,RJTU,,,,0,20180131030000,-1,-1,-1,-1,190,-1,4,-1,-1,-1,-1,,9999,0,0,1,FEW 40,1,5,-1,7,1021,RJTU 310300Z 19004KT 9999 FEW040 05/M07 Q1021 RMK 1CU040     A3017=,
20180131_040000.003,0,RJTU,,,,0,20180131040000,-1,-1,-1,-1,999,-1,3,-1,-1,-1,-1,,9999,0,0,1,FEW 40,1,6,-1,8,1020,RJTU 310400Z VRB03KT 9999 FEW040 06/M08 Q1020 RMK 1CU040     A3013=,
20180131_050000.003,0,RJTU,,,,0,20180131050000,-1,-1,-1,-1,180,-1,4,-1,-1,140,230,,9999,0,0,1,FEW 40,1,9,-1,11,1019,RJTU 310500Z 18004KT 140V230 9999 FEW040 09/M11 Q1019 RMK     1CU040 A3011=,
20180131_060000.003,0,RJTU,,,,0,20180131060000,-1,-1,-1,-1,220,-1,5,-1,-1,170,270,,9999,0,0,1,FEW 40,1,9,-1,12,1019,RJTU 310600Z 22005KT 170V270 9999 FEW040 09/M12 Q1019 RMK     1CU040 A3011=,
20180131_070000.004,0,RJTU,,,,0,20180131070000,-1,-1,-1,-1,160,-1,10,-1,-1,-1,-1,,9999,0,0,2,FEW 40   BKN 240,1,7,-1,7,1020,RJTU 310700Z 16010KT 9999 FEW040 BKN240 07/M07 Q1020 RMK     1CU040 6CI240 A3014=,
20180131_080000.004,0,RJTU,,,,0,20180131080000,-1,-1,-1,-1,180,-1,8,-1,-1,-1,-1,,9999,0,0,2,FEW 40   BKN 240,1,6,-1,8,1021,RJTU 310800Z 18008KT 9999 FEW040 BKN240 06/M08 Q1021 RMK     1CU040 6CI240 A3015=,
20180131_090000.003,0,RJTU,,,,0,20180131090000,-1,-1,-1,-1,300,-1,2,-1,-1,-1,-1,,9999,0,0,2,FEW 40   BKN 240,1,5,-1,7,1021,RJTU 310900Z 30002KT 9999 FEW040 BKN240 05/M07 Q1021 RMK     1SC040 7CI240 A3017=,
20180131_100000.003,0,RJTU,,,,0,20180131100000,-1,-1,-1,-1,350,-1,2,-1,-1,-1,-1,,9999,0,0,2,FEW 40   BKN 240,1,4,-1,7,1022,RJTU 311000Z 35002KT 9999 FEW040 BKN240 04/M07 Q1022 RMK     1SC040 7CI240 A3018=,
20180131_110000.003,0,RJTU,,,,0,20180131110000,-1,-1,-1,-1,-1,-1,-1,-1,-1,-1,-1,,-1,0,0,0,,0,-1,0,-1,-1,RJTU 311100Z NIL=,
20180131_120000.003,0,RJTU,,,,0,20180131120000,-1,-1,-1,-1,-1,-1,-1,-1,-1,-1,-1,,-1,0,0,0,,0,-1,0,-1,-1,RJTU 311200Z NIL=,
20180131_130000.004,0,RJTU,,,,0,20180131130000,-1,-1,-1,-1,-1,-1,-1,-1,-1,-1,-1,,-1,0,0,0,,0,-1,0,-1,-1,RJTU 311300Z NIL=,
20180131_140000.003,0,RJTU,,,,0,20180131140000,-1,-1,-1,-1,-1,-1,-1,-1,-1,-1,-1,,-1,0,0,0,,0,-1,0,-1,-1,RJTU 311400Z NIL=,
20180131_150000.003,0,RJTU,,,,0,20180131150000,-1,-1,-1,-1,-1,-1,-1,-1,-1,-1,-1,,-1,0,0,0,,0,-1,0,-1,-1,RJTU 311500Z NIL=,
20180131_160000.003,0,RJTU,,,,0,20180131160000,-1,-1,-1,-1,-1,-1,-1,-1,-1,-1,-1,,-1,0,0,0,,0,-1,0,-1,-1,RJTU 311600Z NIL=,
20180131_170000.003,0,RJTU,,,,0,20180131170000,-1,-1,-1,-1,-1,-1,-1,-1,-1,-1,-1,,-1,0,0,0,,0,-1,0,-1,-1,RJTU 311700Z NIL=,
20180131_180000.003,0,RJTU,,,,0,20180131180000,-1,-1,-1,-1,-1,-1,-1,-1,-1,-1,-1,,-1,0,0,0,,0,-1,0,-1,-1,RJTU 311800Z NIL=,
20180131_190000.004,0,RJTU,,,,0,20180131190000,-1,-1,-1,-1,-1,-1,-1,-1,-1,-1,-1,,-1,0,0,0,,0,-1,0,-1,-1,RJTU 311900Z NIL=,
20180131_200000.004,0,RJTU,,,,0,20180131200000,-1,-1,-1,-1,-1,-1,-1,-1,-1,-1,-1,,-1,0,0,0,,0,-1,0,-1,-1,RJTU 312000Z NIL=,
20180131_210000.003,0,RJTU,,,,0,20180131210000,-1,-1,-1,-1,10,-1,4,-1,-1,-1,-1,,9999,0,0,2,FEW 30   BKN 60,1,1,-1,6,1024,RJTU 312100Z 01004KT 9999 FEW030 BKN060 01/M06 Q1024 RMK     1CU030 5SC060 A3024=,
20180131_220000.003,0,RJTU,,,,0,20180131220000,-1,-1,-1,-1,10,-1,9,-1,-1,-1,-1,,9999,0,0,3,FEW 30   BKN 70   BKN 240,1,1,-1,5,1024,RJTU 312200Z 01009KT 9999 FEW030 BKN070 BKN240 01/M05 Q1024     RMK 1CU030 6AC070 7CI240 A3025=,
20180131_230000.003,0,RJTU,,,,0,20180131230000,-1,-1,-1,-1,60,-1,3,-1,-1,-1,-1,,9999,0,0,3,FEW 30   BKN 70   BKN 240,1,1,-1,5,1025,RJTU 312300Z 06003KT 9999 FEW030 BKN070 BKN240 01/M05 Q1025     RMK 1CU030 6AC070 7CI240 A3028=,
20180201_000000.004,0,RJTU,,,,0,20180201000000,-1,-1,-1,-1,30,-1,7,-1,-1,-1,-1,,9999,0,0,2,FEW 50   BKN 230,1,2,-1,5,1025,RJTU 010000Z 03007KT 9999 FEW050 BKN230 02/M05 Q1025 RMK     1SC050 7CI230 A3030=,
20180201_010000.003,0,RJTU,,,,0,20180201010000,-1,-1,-1,-1,50,-1,5,-1,-1,-1,-1,,9999,0,0,2,FEW 50   BKN 200,1,3,-1,5,1026,RJTU 010100Z 05005KT 9999 FEW050 BKN200 03/M05 Q1026 RMK     1SC050 7CI200 A3031=,
20180201_020000.003,0,RJTU,,,,0,20180201020000,-1,-1,-1,-1,60,-1,4,-1,-1,-1,-1,,9999,0,0,3,FEW 50   BKN 70   BKN 200,1,4,-1,5,1026,RJTU 010200Z 06004KT 9999 FEW050 BKN070 BKN200 04/M05 Q1026     RMK 1SC050 5AC070 7CI200 A3032=,
20180201_030000.004,0,RJTU,,,,0,20180201030000,-1,-1,-1,-1,70,-1,5,-1,-1,-1,-1,,9999,0,0,3,FEW 30   SCT 50   BKN 70,1,4,-1,6,1025,RJTU 010300Z 07005KT 9999 FEW030 SCT050 BKN070 04/M06 Q1025     RMK 1CU030 3SC050 6AC070 A3030=,
20180201_040000.004,0,RJTU,,,,0,20180201040000,-1,-1,-1,-1,20,-1,3,-1,-1,-1,-1,,9999,0,0,3,FEW 25   BKN 50   BKN 60,1,5,-1,5,1025,RJTU 010400Z 02003KT 9999 FEW025 BKN050 BKN060 05/M05 Q1025     RMK 1CU025 5SC050 7SC060 A3028=,
20180201_050000.003,0,RJTU,,,,0,20180201050000,-1,-1,-1,-1,30,-1,3,-1,-1,-1,-1,,9999,0,0,3,FEW 25   BKN 50   BKN 60,1,5,-1,6,1025,RJTU 010500Z 03003KT 9999 FEW025 BKN050 BKN060 05/M06 Q1025     RMK 1SC025 5SC050 6SC060 A3027=,
20180201_060000.003,0,RJTU,,,,0,20180201060000,-1,-1,-1,-1,999,-1,2,-1,-1,-1,-1,,9999,0,0,3,FEW 25   SCT 50   BKN 60,1,5,-1,5,1024,RJTU 010600Z VRB02KT 9999 FEW025 SCT050 BKN060 05/M05 Q1024     RMK 1SC025 4SC050 5SC060 A3027=,
20180201_070000.003,0,RJTU,,,,0,20180201070000,-1,-1,-1,-1,60,-1,2,-1,-1,-1,-1,,9999,0,0,3,FEW 25   SCT 60   BKN 90,1,5,-1,6,1025,RJTU 010700Z 06002KT 9999 FEW025 SCT060 BKN090 05/M06 Q1025     RMK 1SC025 4SC060 7AC090 A3028=,
20180201_080000.003,0,RJTU,,,,0,20180201080000,-1,-1,-1,-1,150,-1,2,-1,-1,-1,-1,,9999,0,0,3,FEW 20   SCT 50   OVC 70,1,5,-1,5,1025,RJTU 010800Z 15002KT 9999 FEW020 SCT050 OVC070 05/M05 Q1025     RMK 1SC020 3SC050 8AC070 A3028=,
20180201_090000.003,0,RJTU,,,,0,20180201090000,-1,-1,-1,-1,-1,-1,-1,-1,-1,-1,-1,,-1,0,0,0,,0,-1,0,-1,-1,RJTU 010900Z NIL=,
20180201_100000.003,0,RJTU,,,,0,20180201100000,-1,-1,-1,-1,-1,-1,-1,-1,-1,-1,-1,,-1,0,0,0,,0,-1,0,-1,-1,RJTU 011000Z NIL=,
20180201_110000.003,0,RJTU,,,,0,20180201110000,-1,-1,-1,-1,-1,-1,-1,-1,-1,-1,-1,,-1,0,0,0,,0,-1,0,-1,-1,RJTU 011100Z NIL=,
20180201_120000.003,0,RJTU,,,,0,20180201120000,-1,-1,-1,-1,-1,-1,-1,-1,-1,-1,-1,,-1,0,0,0,,0,-1,0,-1,-1,RJTU 011200Z NIL=,
20180201_130000.003,0,RJTU,,,,0,20180201130000,-1,-1,-1,-1,-1,-1,-1,-1,-1,-1,-1,,-1,0,0,0,,0,-1,0,-1,-1,RJTU 011300Z NIL=,
20180201_140000.003,0,RJTU,,,,0,20180201140000,-1,-1,-1,-1,-1,-1,-1,-1,-1,-1,-1,,-1,0,0,0,,0,-1,0,-1,-1,RJTU 011400Z NIL=,
20180201_150000.003,0,RJTU,,,,0,20180201150000,-1,-1,-1,-1,-1,-1,-1,-1,-1,-1,-1,,-1,0,0,0,,0,-1,0,-1,-1,RJTU 011500Z NIL=,
20180201_160000.003,0,RJTU,,,,0,20180201160000,-1,-1,-1,-1,-1,-1,-1,-1,-1,-1,-1,,-1,0,0,0,,0,-1,0,-1,-1,RJTU 011600Z NIL=,
20180201_170000.003,0,RJTU,,,,0,20180201170000,-1,-1,-1,-1,-1,-1,-1,-1,-1,-1,-1,,-1,0,0,0,,0,-1,0,-1,-1,RJTU 011700Z NIL=,
20180201_180000.003,0,RJTU,,,,0,20180201180000,-1,-1,-1,-1,-1,-1,-1,-1,-1,-1,-1,,-1,0,0,0,,0,-1,0,-1,-1,RJTU 011800Z NIL=,
20180201_190000.004,0,RJTU,,,,0,20180201190000,-1,-1,-1,-1,-1,-1,-1,-1,-1,-1,-1,,-1,0,0,0,,0,-1,0,-1,-1,RJTU 011900Z NIL=,
20180201_200000.004,0,RJTU,,,,0,20180201200000,-1,-1,-1,-1,-1,-1,-1,-1,-1,-1,-1,,-1,0,0,0,,0,-1,0,-1,-1,RJTU 012000Z NIL=,
20180201_210000.003,0,RJTU,,,,0,20180201210000,-1,-1,-1,-1,360,-1,6,-1,-1,-1,-1,,1200,0,2,3,FEW 4   SCT 7   BKN 15,-1,0,-1,2,1027,RJTU 012100Z 36006KT 1200 -SN BR FEW004 SCT007 BKN015 M00/M02     Q1027 RMK 2ST004 3ST007 5SC015 A3033=,- SN; BR
20180201_220000.003,0,RJTU,,,,0,20180201220000,-1,-1,-1,-1,20,-1,8,-1,-1,-1,-1,,2500,0,2,3,FEW 8   SCT 25   BKN 30,-1,0,-1,2,1027,RJTU 012200Z 02008KT 2500 -SN BR FEW008 SCT025 BKN030 M00/M02     Q1027 RMK 1ST008 4SC025 6SC030 A3033=,- SN; BR
20180201_230000.004,0,RJTU,,,,0,20180201230000,-1,-1,-1,-1,20,-1,6,-1,-1,-1,-1,,9999,0,1,3,FEW 10   SCT 30   BKN 40,1,0,-1,2,1027,RJTU 012300Z 02006KT 9999 -SN FEW010 SCT030 BKN040 00/M02     Q1027 RMK 1ST010 3SC030 5SC040 A3034=,- SN
20180202_000000.003,0,RJTU,,,,0,20180202000000,-1,-1,-1,-1,20,-1,8,-1,-1,-1,-1,,4500,0,2,3,FEW 10   SCT 30   BKN 40,1,0,-1,2,1027,RJTU 020000Z 02008KT 4500 -SN BR FEW010 SCT030 BKN040 00/M02     Q1027 RMK 1ST010 4SC030 7SC040 A3033=,- SN; BR
20180202_010000.003,0,RJTU,,,,0,20180202010000,-1,-1,-1,-1,20,-1,9,-1,-1,-1,-1,,9999,0,1,3,FEW 10   BKN 40   BKN 60,1,1,-1,2,1026,RJTU 020100Z 02009KT 9999 -SN FEW010 BKN040 BKN060 01/M02     Q1026 RMK 1ST010 6SC040 7SC060 A3031=,- SN
20180202_020000.003,0,RJTU,,,,0,20180202020000,-1,-1,-1,-1,10,-1,9,-1,-1,-1,-1,,9999,0,1,3,FEW 12   BKN 40   BKN 70,1,2,-1,3,1025,RJTU 020200Z 01009KT 9999 -SN FEW012 BKN040 BKN070 02/M03     Q1025 RMK 1ST012 6SC040 7AC070 A3030=,- SN
20180202_030000.003,0,RJTU,,,,0,20180202030000,-1,-1,-1,-1,20,-1,6,-1,-1,-1,-1,,9999,0,0,3,FEW 12   BKN 40   BKN 70,1,3,-1,3,1024,RJTU 020300Z 02006KT 9999 FEW012 BKN040 BKN070 03/M03 Q1024     RMK 1ST012 5SC040 7AC070 A3027=,
20180202_040000.003,0,RJTU,,,,0,20180202040000,-1,-1,-1,-1,30,-1,7,-1,-1,-1,-1,,9999,0,0,3,FEW 15   SCT 45   BKN 80,1,3,-1,3,1024,RJTU 020400Z 03007KT 9999 FEW015 SCT045 BKN080 03/M03 Q1024     RMK 1CU015 3SC045 7AC080 A3025=,
20180202_050000.002,0,RJTU,,,,0,20180202050000,-1,-1,-1,-1,40,-1,5,-1,-1,-1,-1,,9999,0,0,3,FEW 15   SCT 45   BKN 90,1,4,-1,3,1024,RJTU 020500Z 04005KT 9999 FEW015 SCT045 BKN090 04/M03 Q1024     RMK 1CU015 3SC045 7AC090 A3025=,
20180202_060000.003,0,RJTU,,,,0,20180202060000,-1,-1,-1,-1,10,-1,4,-1,-1,-1,-1,,9999,0,0,3,FEW 20   SCT 50   BKN 70,1,4,-1,3,1024,RJTU 020600Z 01004KT 9999 FEW020 SCT050 BKN070 04/M03 Q1024     RMK 1CU020 3SC050 7AC070 A3024=,
20180202_070000.003,0,RJTU,,,,0,20180202070000,-1,-1,-1,-1,40,-1,3,-1,-1,-1,-1,,9999,0,0,3,FEW 20   SCT 50   BKN 70,1,4,-1,2,1024,RJTU 020700Z 04003KT 9999 FEW020 SCT050 BKN070 04/M02 Q1024     RMK 1CU020 3SC050 6AC070 A3024=,
20180202_080000.003,0,RJTU,,,,0,20180202080000,-1,-1,-1,-1,10,-1,3,-1,-1,-1,-1,,9999,0,0,3,FEW 20   BKN 70   BKN 90,1,4,-1,2,1024,RJTU 020800Z 01003KT 9999 FEW020 BKN070 BKN090 04/M02 Q1024     RMK 1CU020 6AC070 7AC090 A3024=,
20180202_090000.003,0,RJTU,,,,0,20180202090000,-1,-1,-1,-1,-1,-1,-1,-1,-1,-1,-1,,-1,0,0,0,,0,-1,0,-1,-1,RJTU 020900Z NIL=,
20180202_100000.004,0,RJTU,,,,0,20180202100000,-1,-1,-1,-1,-1,-1,-1,-1,-1,-1,-1,,-1,0,0,0,,0,-1,0,-1,-1,RJTU 021000Z NIL=,
20180202_110000.003,0,RJTU,,,,0,20180202110000,-1,-1,-1,-1,-1,-1,-1,-1,-1,-1,-1,,-1,0,0,0,,0,-1,0,-1,-1,RJTU 021100Z NIL=,
20180202_120000.003,0,RJTU,,,,0,20180202120000,-1,-1,-1,-1,-1,-1,-1,-1,-1,-1,-1,,-1,0,0,0,,0,-1,0,-1,-1,RJTU 021200Z NIL=,
20180202_130000.004,0,RJTU,,,,0,20180202130000,-1,-1,-1,-1,-1,-1,-1,-1,-1,-1,-1,,-1,0,0,0,,0,-1,0,-1,-1,RJTU 021300Z NIL=,
20180202_140000.003,0,RJTU,,,,0,20180202140000,-1,-1,-1,-1,-1,-1,-1,-1,-1,-1,-1,,-1,0,0,0,,0,-1,0,-1,-1,RJTU 021400Z NIL=,
20180202_150000.003,0,RJTU,,,,0,20180202150000,-1,-1,-1,-1,-1,-1,-1,-1,-1,-1,-1,,-1,0,0,0,,0,-1,0,-1,-1,RJTU 021500Z NIL=,
20180202_160000.003,0,RJTU,,,,0,20180202160000,-1,-1,-1,-1,-1,-1,-1,-1,-1,-1,-1,,-1,0,0,0,,0,-1,0,-1,-1,RJTU 021600Z NIL=,
20180202_170000.003,0,RJTU,,,,0,20180202170000,-1,-1,-1,-1,-1,-1,-1,-1,-1,-1,-1,,-1,0,0,0,,0,-1,0,-1,-1,RJTU 021700Z NIL=,
20180202_180000.004,0,RJTU,,,,0,20180202180000,-1,-1,-1,-1,-1,-1,-1,-1,-1,-1,-1,,-1,0,0,0,,0,-1,0,-1,-1,RJTU 021800Z NIL=,
20180202_190000.004,0,RJTU,,,,0,20180202190000,-1,-1,-1,-1,-1,-1,-1,-1,-1,-1,-1,,-1,0,0,0,,0,-1,0,-1,-1,RJTU 021900Z NIL=,
20180202_200000.004,0,RJTU,,,,0,20180202200000,-1,-1,-1,-1,-1,-1,-1,-1,-1,-1,-1,,-1,0,0,0,,0,-1,0,-1,-1,RJTU 022000Z NIL=,
20180202_210000.003,0,RJTU,,,,0,20180202210000,-1,-1,-1,-1,-1,-1,-1,-1,-1,-1,-1,,-1,0,0,0,,0,-1,0,-1,-1,RJTU 022100Z NIL=,
20180202_220000.003,0,RJTU,,,,0,20180202220000,-1,-1,-1,-1,50,-1,5,-1,-1,-1,-1,,9999,0,0,3,FEW 50   BKN 150   BKN 250,1,0,-1,3,1018,RJTU 022200Z 05005KT 9999 FEW050 BKN150 BKN250 00/M03 Q1018     RMK 1SC050 5AC150 7CI250 A3007=,
20180202_230000.004,0,RJTU,,,,0,20180202230000,-1,-1,-1,-1,360,-1,4,-1,-1,-1,-1,,9999,0,0,2,FEW 40   BKN 230,1,1,-1,3,1018,RJTU 022300Z 36004KT 9999 FEW040 BKN230 01/M03 Q1018 RMK     1SC040 7CI230 A3007=,
20180203_000000.003,0,RJTU,,,,0,20180203000000,-1,-1,-1,-1,10,-1,3,-1,-1,-1,-1,,9999,0,0,2,FEW 40   BKN 240,1,2,-1,3,1017,RJTU 030000Z 01003KT 9999 FEW040 BKN240 02/M03 Q1017 RMK     1SC040 7CI240 A3006=,
20180203_010000.004,0,RJTU,,,,0,20180203010000,-1,-1,-1,-1,-1,-1,-1,-1,-1,-1,-1,,-1,0,0,0,,0,-1,0,-1,-1,RJTU 030100Z NIL=,
20180203_020000.003,0,RJTU,,,,0,20180203020000,-1,-1,-1,-1,-1,-1,-1,-1,-1,-1,-1,,-1,0,0,0,,0,-1,0,-1,-1,RJTU 030200Z NIL=,
20180203_030000.003,0,RJTU,,,,0,20180203030000,-1,-1,-1,-1,-1,-1,-1,-1,-1,-1,-1,,-1,0,0,0,,0,-1,0,-1,-1,RJTU 030300Z NIL=,
20180203_040000.003,0,RJTU,,,,0,20180203040000,-1,-1,-1,-1,-1,-1,-1,-1,-1,-1,-1,,-1,0,0,0,,0,-1,0,-1,-1,RJTU 030400Z NIL=,
20180203_050000.003,0,RJTU,,,,0,20180203050000,-1,-1,-1,-1,-1,-1,-1,-1,-1,-1,-1,,-1,0,0,0,,0,-1,0,-1,-1,RJTU 030500Z NIL=,
20180203_060000.003,0,RJTU,,,,0,20180203060000,-1,-1,-1,-1,-1,-1,-1,-1,-1,-1,-1,,-1,0,0,0,,0,-1,0,-1,-1,RJTU 030600Z NIL=,
20180203_070000.004,0,RJTU,,,,0,20180203070000,-1,-1,-1,-1,-1,-1,-1,-1,-1,-1,-1,,-1,0,0,0,,0,-1,0,-1,-1,RJTU 030700Z NIL=,
20180203_080000.003,0,RJTU,,,,0,20180203080000,-1,-1,-1,-1,-1,-1,-1,-1,-1,-1,-1,,-1,0,0,0,,0,-1,0,-1,-1,RJTU 030800Z NIL=,
20180203_090000.003,0,RJTU,,,,0,20180203090000,-1,-1,-1,-1,-1,-1,-1,-1,-1,-1,-1,,-1,0,0,0,,0,-1,0,-1,-1,RJTU 030900Z NIL=,
20180203_100000.003,0,RJTU,,,,0,20180203100000,-1,-1,-1,-1,-1,-1,-1,-1,-1,-1,-1,,-1,0,0,0,,0,-1,0,-1,-1,RJTU 031000Z NIL=,
20180203_110000.003,0,RJTU,,,,0,20180203110000,-1,-1,-1,-1,-1,-1,-1,-1,-1,-1,-1,,-1,0,0,0,,0,-1,0,-1,-1,RJTU 031100Z NIL=,
20180203_120000.003,0,RJTU,,,,0,20180203120000,-1,-1,-1,-1,-1,-1,-1,-1,-1,-1,-1,,-1,0,0,0,,0,-1,0,-1,-1,RJTU 031200Z NIL=,
20180203_130000.003,0,RJTU,,,,0,20180203130000,-1,-1,-1,-1,-1,-1,-1,-1,-1,-1,-1,,-1,0,0,0,,0,-1,0,-1,-1,RJTU 031300Z NIL=,
20180203_140000.003,0,RJTU,,,,0,20180203140000,-1,-1,-1,-1,-1,-1,-1,-1,-1,-1,-1,,-1,0,0,0,,0,-1,0,-1,-1,RJTU 031400Z NIL=,
20180203_150000.003,0,RJTU,,,,0,20180203150000,-1,-1,-1,-1,-1,-1,-1,-1,-1,-1,-1,,-1,0,0,0,,0,-1,0,-1,-1,RJTU 031500Z NIL=,
20180203_160000.003,0,RJTU,,,,0,20180203160000,-1,-1,-1,-1,-1,-1,-1,-1,-1,-1,-1,,-1,0,0,0,,0,-1,0,-1,-1,RJTU 031600Z NIL=,
20180203_170000.003,0,RJTU,,,,0,20180203170000,-1,-1,-1,-1,-1,-1,-1,-1,-1,-1,-1,,-1,0,0,0,,0,-1,0,-1,-1,RJTU 031700Z NIL=,
20180203_180000.004,0,RJTU,,,,0,20180203180000,-1,-1,-1,-1,-1,-1,-1,-1,-1,-1,-1,,-1,0,0,0,,0,-1,0,-1,-1,RJTU 031800Z NIL=,
20180203_190000.003,0,RJTU,,,,0,20180203190000,-1,-1,-1,-1,-1,-1,-1,-1,-1,-1,-1,,-1,0,0,0,,0,-1,0,-1,-1,RJTU 031900Z NIL=,
20180203_200000.003,0,RJTU,,,,0,20180203200000,-1,-1,-1,-1,-1,-1,-1,-1,-1,-1,-1,,-1,0,0,0,,0,-1,0,-1,-1,RJTU 032000Z NIL=,
20180203_210000.003,0,RJTU,,,,0,20180203210000,-1,-1,-1,-1,-1,-1,-1,-1,-1,-1,-1,,-1,0,0,0,,0,-1,0,-1,-1,RJTU 032100Z NIL=,
20180203_220000.003,0,RJTU,,,,0,20180203220000,-1,-1,-1,-1,-1,-1,-1,-1,-1,-1,-1,,-1,0,0,0,,0,-1,0,-1,-1,RJTU 032200Z NIL=,
20180203_230000.003,0,RJTU,,,,0,20180203230000,-1,-1,-1,-1,-1,-1,-1,-1,-1,-1,-1,,-1,0,0,0,,0,-1,0,-1,-1,RJTU 032300Z NIL=,
20180204_000000.003,0,RJTU,,,,0,20180204000000,-1,-1,-1,-1,-1,-1,-1,-1,-1,-1,-1,,-1,0,0,0,,0,-1,0,-1,-1,RJTU 040000Z NIL=,
20180204_010000.003,0,RJTU,,,,0,20180204010000,-1,-1,-1,-1,-1,-1,-1,-1,-1,-1,-1,,-1,0,0,0,,0,-1,0,-1,-1,RJTU 040100Z NIL=,
20180204_020000.003,0,RJTU,,,,0,20180204020000,-1,-1,-1,-1,-1,-1,-1,-1,-1,-1,-1,,-1,0,0,0,,0,-1,0,-1,-1,RJTU 040200Z NIL=,
20180204_030000.003,0,RJTU,,,,0,20180204030000,-1,-1,-1,-1,-1,-1,-1,-1,-1,-1,-1,,-1,0,0,0,,0,-1,0,-1,-1,RJTU 040300Z NIL=,
20180204_040000.003,0,RJTU,,,,0,20180204040000,-1,-1,-1,-1,-1,-1,-1,-1,-1,-1,-1,,-1,0,0,0,,0,-1,0,-1,-1,RJTU 040400Z NIL=,
20180204_050000.003,0,RJTU,,,,0,20180204050000,-1,-1,-1,-1,-1,-1,-1,-1,-1,-1,-1,,-1,0,0,0,,0,-1,0,-1,-1,RJTU 040500Z NIL=,
20180204_060000.003,0,RJTU,,,,0,20180204060000,-1,-1,-1,-1,-1,-1,-1,-1,-1,-1,-1,,-1,0,0,0,,0,-1,0,-1,-1,RJTU 040600Z NIL=,
20180204_070000.003,0,RJTU,,,,0,20180204070000,-1,-1,-1,-1,-1,-1,-1,-1,-1,-1,-1,,-1,0,0,0,,0,-1,0,-1,-1,RJTU 040700Z NIL=,
20180204_080000.003,0,RJTU,,,,0,20180204080000,-1,-1,-1,-1,-1,-1,-1,-1,-1,-1,-1,,-1,0,0,0,,0,-1,0,-1,-1,RJTU 040800Z NIL=,
20180204_090000.003,0,RJTU,,,,0,20180204090000,-1,-1,-1,-1,-1,-1,-1,-1,-1,-1,-1,,-1,0,0,0,,0,-1,0,-1,-1,RJTU 040900Z NIL=,
20180204_100000.003,0,RJTU,,,,0,20180204100000,-1,-1,-1,-1,-1,-1,-1,-1,-1,-1,-1,,-1,0,0,0,,0,-1,0,-1,-1,RJTU 041000Z NIL=,
20180204_110000.004,0,RJTU,,,,0,20180204110000,-1,-1,-1,-1,-1,-1,-1,-1,-1,-1,-1,,-1,0,0,0,,0,-1,0,-1,-1,RJTU 041100Z NIL=,
20180204_120000.003,0,RJTU,,,,0,20180204120000,-1,-1,-1,-1,-1,-1,-1,-1,-1,-1,-1,,-1,0,0,0,,0,-1,0,-1,-1,RJTU 041200Z NIL=,
20180204_130000.003,0,RJTU,,,,0,20180204130000,-1,-1,-1,-1,-1,-1,-1,-1,-1,-1,-1,,-1,0,0,0,,0,-1,0,-1,-1,RJTU 041300Z NIL=,
20180204_140000.003,0,RJTU,,,,0,20180204140000,-1,-1,-1,-1,-1,-1,-1,-1,-1,-1,-1,,-1,0,0,0,,0,-1,0,-1,-1,RJTU 041400Z NIL=,
20180204_150000.003,0,RJTU,,,,0,20180204150000,-1,-1,-1,-1,-1,-1,-1,-1,-1,-1,-1,,-1,0,0,0,,0,-1,0,-1,-1,RJTU 041500Z NIL=,
20180204_160000.003,0,RJTU,,,,0,20180204160000,-1,-1,-1,-1,-1,-1,-1,-1,-1,-1,-1,,-1,0,0,0,,0,-1,0,-1,-1,RJTU 041600Z NIL=,
20180204_170000.003,0,RJTU,,,,0,20180204170000,-1,-1,-1,-1,-1,-1,-1,-1,-1,-1,-1,,-1,0,0,0,,0,-1,0,-1,-1,RJTU 041700Z NIL=,
20180204_180000.004,0,RJTU,,,,0,20180204180000,-1,-1,-1,-1,-1,-1,-1,-1,-1,-1,-1,,-1,0,0,0,,0,-1,0,-1,-1,RJTU 041800Z NIL=,
20180204_190000.003,0,RJTU,,,,0,20180204190000,-1,-1,-1,-1,-1,-1,-1,-1,-1,-1,-1,,-1,0,0,0,,0,-1,0,-1,-1,RJTU 041900Z NIL=,
20180204_200000.003,0,RJTU,,,,0,20180204200000,-1,-1,-1,-1,-1,-1,-1,-1,-1,-1,-1,,-1,0,0,0,,0,-1,0,-1,-1,RJTU 042000Z NIL=,
20180204_210000.003,0,RJTU,,,,0,20180204210000,-1,-1,-1,-1,350,-1,2,-1,-1,-1,-1,,9999,0,0,1,FEW 40,-1,3,-1,8,1011,RJTU 042100Z 35002KT 9999 FEW040 M03/M08 Q1011 RMK 1SC040     A2988=,
20180204_220000.003,0,RJTU,,,,0,20180204220000,-1,-1,-1,-1,310,-1,4,-1,-1,-1,-1,,9999,0,0,1,FEW 40,-1,3,-1,7,1012,RJTU 042200Z 31004KT 9999 FEW040 M03/M07 Q1012 RMK 1SC040     A2990=,
20180204_230000.003,0,RJTU,,,,0,20180204230000,-1,-1,-1,-1,340,-1,2,-1,-1,-1,-1,,9999,0,0,1,FEW 40,-1,1,-1,7,1012,RJTU 042300Z 34002KT 9999 FEW040 M01/M07 Q1012 RMK 1SC040     A2991=,
20180205_000000.004,0,RJTU,,,,0,20180205000000,-1,-1,-1,-1,10,-1,3,-1,-1,-1,-1,,9999,0,0,1,FEW 30,1,2,-1,9,1012,RJTU 050000Z 01003KT 9999 FEW030 02/M09 Q1012 RMK 1CU030     A2991=,
20180205_010000.003,0,RJTU,,,,0,20180205010000,-1,-1,-1,-1,150,-1,5,-1,-1,-1,-1,,9999,0,0,1,FEW 30,1,4,-1,7,1012,RJTU 050100Z 15005KT 9999 FEW030 04/M07 Q1012 RMK 1CU030     A2990=,
20180205_020000.003,0,RJTU,,,,0,20180205020000,-1,-1,-1,-1,160,-1,5,-1,-1,-1,-1,,9999,0,0,1,FEW 30,1,5,-1,9,1011,RJTU 050200Z 16005KT 9999 FEW030 05/M09 Q1011 RMK 1CU030     A2988=,
