20180101_000000.004,0,RJTY,,,,1,20171231230000,-1,-1,-1,-1,0,-1,0,-1,-1,-1,-1,,-1,0,0,0,,1,5,-1,1,1014,RJTY 312356Z AUTO 00000KT 10SM CLR 05/M01 A2994 RMK AO2 SLP149     T00451007 10045 21040 52009 FZRANO $=,
20180101_010000.002,0,RJTY,,,,1,20180101000000,-1,-1,-1,-1,0,-1,0,-1,-1,-1,-1,,-1,0,0,0,,1,8,-1,2,1014,RJTY 010056Z AUTO 00000KT 10SM CLR 08/M02 A2994 RMK AO2 SLP148     T00771018 FZRANO $=,
20180101_020000.002,0,RJTY,,,,1,20180101010000,-1,-1,-1,-1,90,-1,4,-1,-1,-1,-1,,-1,0,0,0,,1,10,-1,3,1013,RJTY 010156Z AUTO 09004KT 10SM CLR 10/M03 A2991 RMK AO2 SLP138     T00971026 FZRANO $=,
20180101_030000.002,0,RJTY,,,,1,20180101020000,-1,-1,-1,-1,120,-1,3,-1,-1,-1,-1,,-1,0,0,0,,1,11,-1,5,1012,RJTY 010256Z AUTO 12003KT 10SM CLR 11/M05 A2989 RMK AO2 SLP131     T01091048 58015 FZRANO $=,
20180101_040000.002,0,RJTY,,,,1,20180101030000,-1,-1,-1,-1,70,-1,9,-1,-1,-1,-1,,-1,0,0,1,SCT 90,1,13,-1,5,1011,RJTY 010356Z AUTO 07009KT 10SM SCT090 13/M05 A2987 RMK AO2     SLP124 T01261054 FZRANO $=,
20180101_050000.002,0,RJTY,,,,1,20180101040000,-1,-1,-1,-1,190,-1,4,-1,-1,-1,-1,,-1,0,0,1,OVC 90,1,13,-1,6,1011,RJTY 010456Z AUTO 19004KT 10SM OVC090 13/M06 A2987 RMK AO2     SLP124 T01281057 FZRANO $=,
20180101_060000.002,0,RJTY,,,,1,20180101050000,-1,-1,-1,-1,210,-1,7,-1,-1,-1,-1,,-1,0,0,1,OVC 85,1,13,-1,7,1012,RJTY 010556Z AUTO 21007KT 10SM OVC085 13/M07 A2988 RMK AO2     SLP127 T01261069 10130 20046 55003 FZRANO $=,
20180101_070000.002,0,RJTY,,,,1,20180101060000,-1,-1,-1,-1,140,-1,3,-1,-1,-1,-1,,-1,0,0,1,FEW 80,1,12,-1,8,1012,RJTY 010656Z AUTO 14003KT 10SM FEW080 12/M08 A2989 RMK AO2     SLP130 T01181076 FZRANO $=,
20180101_080000.002,0,RJTY,,,,1,20180101070000,-1,-1,-1,-1,30,-1,16,-1,20,-1,-1,,-1,0,0,1,SCT 80,1,9,-1,6,1013,RJTY 010756Z AUTO 03016G20KT 10SM SCT080 09/M06 A2991 RMK AO2     SLP139 T00851057 FZRANO $=,
20180101_090000.002,0,RJTY,,,,1,20180101080000,-1,-1,-1,-1,10,-1,13,-1,-1,-1,-1,,-1,0,0,1,BKN 80,1,7,-1,5,1014,RJTY 010856Z AUTO 01013KT 10SM BKN080 07/M05 A2994 RMK AO2     SLP150 T00671047 52018 FZRANO $=,
20180101_100000.002,0,RJTY,,,,1,20180101090000,-1,-1,-1,-1,20,-1,8,-1,-1,-1,-1,,-1,0,0,1,OVC 80,1,4,-1,5,1014,RJTY 010956Z AUTO 02008KT 10SM OVC080 04/M05 A2995 RMK AO2     SLP154 T00411046 FZRANO $=,
20180101_110000.002,0,RJTY,,,,1,20180101100000,-1,-1,-1,-1,0,-1,0,-1,-1,-1,-1,,-1,0,0,1,BKN 75,1,7,-1,6,1015,RJTY 011056Z AUTO 00000KT 10SM BKN075 07/M06 A2996 RMK AO2     SLP156 T00691061 FZRANO $=,
20180101_120000.002,0,RJTY,,,,1,20180101110000,-1,-1,-1,-1,20,-1,9,-1,-1,-1,-1,,-1,0,0,1,BKN 75,1,4,-1,5,1015,RJTY 011156Z AUTO 02009KT 10SM BKN075 04/M05 A2997 RMK AO2     SLP159 T00441046 10128 20038 52013 FZRANO $=,
20180101_130000.002,0,RJTY,,,,1,20180101120000,-1,-1,-1,-1,340,-1,6,-1,-1,-1,-1,,-1,0,0,0,,1,3,-1,4,1016,RJTY 011256Z AUTO 34006KT 10SM CLR 03/M04 A2999 RMK AO2 SLP165     T00251040 FZRANO $=,
20180101_140000.002,0,RJTY,,,,1,20180101130000,-1,-1,-1,-1,330,-1,5,-1,-1,-1,-1,,-1,0,0,0,,1,3,-1,4,1016,RJTY 011356Z AUTO 33005KT 10SM CLR 03/M04 A2999 RMK AO2 SLP164     T00261040 FZRANO $=,
20180101_150000.002,0,RJTY,,,,1,20180101140000,-1,-1,-1,-1,0,-1,0,-1,-1,-1,-1,,-1,0,0,0,,1,2,-1,4,1016,RJTY 011456Z AUTO 00000KT 10SM CLR 02/M04 A3000 RMK AO2 SLP168     T00191042 401301040 50007 FZRANO $=,
20180101_160000.002,0,RJTY,,,,1,20180101150000,-1,-1,-1,-1,0,-1,0,-1,-1,-1,-1,,-1,0,0,0,,1,2,-1,5,1016,RJTY 011556Z AUTO 00000KT 10SM CLR 02/M05 A3000 RMK AO2 SLP167     T00171048 FZRANO $=,
20180101_170000.002,0,RJTY,,,,1,20180101160000,-1,-1,-1,-1,270,-1,3,-1,-1,-1,-1,,-1,0,0,0,,1,1,-1,5,1016,RJTY 011656Z AUTO 27003KT 10SM CLR 01/M05 A3000 RMK AO2 SLP167     T00121051 FZRANO $=,
20180101_180000.001,0,RJTY,,,,1,20180101170000,-1,-1,-1,-1,280,-1,4,-1,-1,-1,-1,,-1,0,0,0,,1,1,-1,5,1016,RJTY 011756Z AUTO 28004KT 10SM CLR 01/M05 A3000 RMK AO2 SLP167     T00141053 10043 20001 53002 FZRANO $=,
20180101_190000.001,0,RJTY,,,,1,20180101180000,-1,-1,-1,-1,290,-1,5,-1,-1,-1,-1,,-1,0,0,0,,1,0,-1,5,1016,RJTY 011856Z AUTO 29005KT 10SM CLR 00/M05 A2999 RMK AO2 SLP164     T00021054 FZRANO $=,
20180101_200000.001,0,RJTY,,,,1,20180101190000,-1,-1,-1,-1,330,-1,6,-1,-1,-1,-1,,-1,0,0,0,,1,3,-1,7,1016,RJTY 011956Z AUTO 33006KT 10SM CLR 03/M07 A3000 RMK AO2 SLP168     T00291070 FZRANO $=,
20180101_210000.002,0,RJTY,,,,1,20180101200000,-1,-1,-1,-1,360,-1,9,-1,-1,-1,-1,,-1,0,0,0,,1,2,-1,7,1017,RJTY 012056Z AUTO 36009KT 10SM CLR 02/M07 A3003 RMK AO2 SLP179     T00191074 53008 FZRANO $=,
20180101_220000.002,0,RJTY,,,,1,20180101210000,-1,-1,-1,-1,340,-1,7,-1,-1,-1,-1,,-1,0,0,0,,1,2,-1,8,1017,RJTY 012156Z AUTO 34007KT 10SM CLR 02/M08 A3004 RMK AO2 SLP183     T00201076 FZRANO $=,
20180101_230000.002,0,RJTY,,,,1,20180101220000,-1,-1,-1,-1,20,-1,11,-1,-1,-1,-1,,-1,0,0,0,,1,4,-1,7,1018,RJTY 012256Z AUTO 02011KT 10SM CLR 04/M07 A3005 RMK AO2 SLP185     T00391073 FZRANO $=,
20180102_000000.005,0,RJTY,,,,1,20180101230000,-1,-1,-1,-1,350,-1,13,-1,-1,-1,-1,,-1,0,0,0,,1,7,-1,9,1018,RJTY 012356Z AUTO 35013KT 10SM CLR 07/M09 A3007 RMK AO2 SLP192     T00691087 10069 20001 52013 FZRANO $=,
20180102_010000.001,0,RJTY,,,,1,20180102000000,-1,-1,-1,-1,360,-1,13,-1,20,-1,-1,,-1,0,0,0,,1,8,-1,9,1018,RJTY 020056Z AUTO 36013G20KT 10SM CLR 08/M09 A3006 RMK AO2     SLP189 T00831092 FZRANO $=,
20180102_020000.002,0,RJTY,,,,1,20180102010000,-1,-1,-1,-1,360,-1,8,-1,-1,-1,-1,,-1,0,0,0,,1,9,-1,10,1017,RJTY 020156Z AUTO 36008KT 10SM CLR 09/M10 A3003 RMK AO2 SLP178     T00941097 FZRANO $=,
20180102_030000.002,0,RJTY,,,,1,20180102020000,-1,-1,-1,-1,320,-1,3,-1,-1,-1,-1,,-1,0,0,0,,1,10,-1,11,1016,RJTY 020256Z AUTO 32003KT 10SM CLR 10/M11 A2999 RMK AO2 SLP164     T01011113 58024 FZRANO $=,
20180102_040000.002,0,RJTY,,,,1,20180102030000,-1,-1,-1,-1,360,-1,10,-1,16,-1,-1,,-1,0,0,0,,1,11,-1,11,1015,RJTY 020356Z AUTO 36010G16KT 10SM CLR 11/M11 A2996 RMK AO2     SLP154 T01081107 FZRANO $=,
20180102_050000.002,0,RJTY,,,,1,20180102040000,-1,-1,-1,-1,60,-1,5,-1,-1,-1,-1,,-1,0,0,0,,1,11,-1,10,1014,RJTY 020456Z AUTO 06005KT 10SM CLR 11/M10 A2995 RMK AO2 SLP151     T01051103 FZRANO $=,
20180102_060000.002,0,RJTY,,,,1,20180102050000,-1,-1,-1,-1,60,-1,11,-1,-1,-1,-1,,-1,0,0,0,,1,10,-1,8,1014,RJTY 020556Z AUTO 06011KT 10SM CLR 10/M08 A2995 RMK AO2 SLP151     T00971079 10109 20070 55013 FZRANO $=,
20180102_070000.002,0,RJTY,,,,1,20180102060000,-1,-1,-1,-1,50,-1,8,-1,-1,-1,-1,,-1,0,0,0,,1,8,-1,8,1015,RJTY 020656Z AUTO 05008KT 10SM CLR 08/M08 A2996 RMK AO2 SLP156     T00801077 FZRANO $=,
20180102_080000.002,0,RJTY,,,,1,20180102070000,-1,-1,-1,-1,80,-1,4,-1,-1,-1,-1,,-1,0,0,0,,1,7,-1,8,1015,RJTY 020756Z AUTO 08004KT 10SM CLR 07/M08 A2996 RMK AO2 SLP155     T00671077 FZRANO $=,
20180102_090000.002,0,RJTY,,,,1,20180102080000,-1,-1,-1,-1,0,-1,0,-1,-1,-1,-1,,-1,0,0,0,,1,6,-1,8,1015,RJTY 020856Z AUTO 00000KT 10SM CLR 06/M08 A2996 RMK AO2 SLP156     T00601080 50002 FZRANO $=,
20180102_100000.002,0,RJTY,,,,1,20180102090000,-1,-1,-1,-1,250,-1,3,-1,-1,-1,-1,,-1,0,0,0,,1,5,-1,6,1014,RJTY 020956Z AUTO 25003KT 10SM CLR 05/M06 A2993 RMK AO2 SLP145     T00481064 FZRANO $=,
20180102_110000.002,0,RJTY,,,,1,20180102100000,-1,-1,-1,-1,210,-1,5,-1,-1,-1,-1,,-1,0,0,0,,1,4,-1,7,1012,RJTY 021056Z AUTO 21005KT 10SM CLR 04/M07 A2989 RMK AO2 SLP132     T00411068 FZRANO $=,
20180102_120000.002,0,RJTY,,,,1,20180102110000,-1,-1,-1,-1,210,-1,3,-1,-1,-1,-1,,-1,0,0,0,,1,2,-1,6,1011,RJTY 021156Z AUTO 21003KT 10SM CLR 02/M06 A2987 RMK AO2 SLP124     T00221057 10096 20018 57028 FZRANO $=,
20180102_130000.001,0,RJTY,,,,1,20180102120000,-1,-1,-1,-1,0,-1,0,-1,-1,-1,-1,,-1,0,0,0,,1,2,-1,6,1011,RJTY 021256Z AUTO 00000KT 10SM CLR 02/M06 A2986 RMK AO2 SLP121     T00161056 FZRANO $=,
20180102_140000.001,0,RJTY,,,,1,20180102130000,-1,-1,-1,-1,10,-1,9,-1,-1,-1,-1,,-1,0,0,0,,1,2,-1,5,1011,RJTY 021356Z AUTO 01009KT 10SM CLR 02/M05 A2986 RMK AO2 SLP120     T00201050 FZRANO $=,
20180102_150000.002,0,RJTY,,,,1,20180102140000,-1,-1,-1,-1,20,-1,8,-1,-1,-1,-1,,-1,0,0,0,,1,3,-1,6,1010,RJTY 021456Z AUTO 02008KT 10SM CLR 03/M06 A2984 RMK AO2 SLP113     T00341063 401090001 56011 FZRANO $=,
20180102_160000.002,0,RJTY,,,,1,20180102150000,-1,-1,-1,-1,10,-1,8,-1,-1,-1,-1,,-1,0,0,1,FEW 100,1,2,-1,5,1010,RJTY 021556Z AUTO 01008KT 10SM FEW100 02/M05 A2983 RMK AO2     SLP110 T00201052 FZRANO $=,
20180102_170000.002,0,RJTY,,,,1,20180102160000,-1,-1,-1,-1,360,-1,6,-1,-1,-1,-1,,-1,0,0,0,,1,1,-1,5,1010,RJTY 021656Z AUTO 36006KT 10SM CLR 01/M05 A2984 RMK AO2 SLP113     T00051051 FZRANO $=,
20180102_180000.001,0,RJTY,,,,1,20180102170000,-1,-1,-1,-1,360,-1,13,-1,18,-1,-1,,-1,0,0,0,,1,3,-1,4,1011,RJTY 021756Z AUTO 36013G18KT 10SM CLR 03/M04 A2985 RMK AO2     SLP117 T00291041 10038 20000 53003 FZRANO $=,
20180102_190000.002,0,RJTY,,,,1,20180102180000,-1,-1,-1,-1,350,-1,15,-1,25,-1,-1,,-1,0,0,0,,1,4,-1,5,1010,RJTY 021856Z AUTO 35015G25KT 10SM CLR 04/M05 A2984 RMK AO2     SLP113 T00361048 FZRANO $=,
20180102_200000.001,0,RJTY,,,,1,20180102190000,-1,-1,-1,-1,20,-1,13,-1,-1,-1,-1,,-1,0,0,0,,1,1,-1,5,1011,RJTY 021956Z AUTO 02013KT 10SM CLR 01/M05 A2985 RMK AO2 SLP118     T00131052 FZRANO $=,
20180102_210000.002,0,RJTY,,,,1,20180102200000,-1,-1,-1,-1,20,-1,14,-1,-1,-1,-1,,-1,0,0,0,,1,0,-1,5,1011,RJTY 022056Z AUTO 02014KT 10SM CLR 00/M05 A2986 RMK AO2 SLP122     T00031047 53005 FZRANO $=,
20180102_220000.002,0,RJTY,,,,1,20180102210000,-1,-1,-1,-1,10,-1,13,-1,-1,-1,-1,,-1,0,0,0,,1,0,-1,5,1012,RJTY 022156Z AUTO 01013KT 10SM CLR 00/M05 A2989 RMK AO2 SLP133     T10011049 FZRANO $=,
20180102_230000.002,0,RJTY,,,,1,20180102220000,-1,-1,-1,-1,10,-1,17,-1,22,-1,-1,,-1,0,0,0,,1,3,-1,7,1013,RJTY 022256Z AUTO 01017G22KT 10SM CLR 03/M07 A2991 RMK AO2     SLP139 T00291068 FZRANO $=,
20180103_000000.004,0,RJTY,,,,1,20180102230000,-1,-1,-1,-1,360,-1,21,-1,27,-1,-1,,-1,0,0,0,,1,5,-1,9,1014,RJTY 022356Z AUTO 36021G27KT 10SM CLR 05/M09 A2994 RMK AO2 PK     WND 34030/45 SLP149 T00471088 10047 21002 52025 FZRANO $=,
20180103_010000.002,0,RJTY,,,,1,20180103000000,-1,-1,-1,-1,330,-1,24,-1,32,-1,-1,,-1,0,0,0,,1,5,-1,10,1014,RJTY 030056Z AUTO 33024G32KT 10SM CLR 05/M10 A2995 RMK AO2 PK     WND 33033/31 SLP153 T00541104 FZRANO $=,
20180103_020000.002,0,RJTY,,,,1,20180103010000,-1,-1,-1,-1,340,-1,25,-1,34,-1,-1,,-1,0,0,0,,1,6,-1,12,1014,RJTY 030156Z AUTO 34025G34KT 10SM CLR 06/M12 A2993 RMK AO2 PK     WND 32036/12 SLP145 T00621124 FZRANO $=,
20180103_030000.003,0,RJTY,,,,1,20180103020000,-1,-1,-1,-1,350,-1,17,-1,30,-1,-1,,-1,0,0,0,,1,7,-1,15,1013,RJTY 030256Z AUTO 35017G30KT 10SM CLR 07/M15 A2991 RMK AO2 PK     WND 32034/00 SLP138 T00701151 58010 FZRANO $=,
20180103_040000.002,0,RJTY,,,,1,20180103030000,-1,-1,-1,-1,320,-1,20,-1,32,-1,-1,,-1,0,0,0,,1,8,-1,17,1013,RJTY 030356Z AUTO 32020G32KT 10SM CLR 08/M17 A2991 RMK AO2 PK     WND 34035/13 SLP138 T00751167 FZRANO $=,
20180103_050000.002,0,RJTY,,,,1,20180103040000,-1,-1,-1,-1,360,-1,20,-1,31,-1,-1,,-1,0,0,0,,1,8,-1,15,1013,RJTY 030456Z AUTO 36020G31KT 10SM CLR 08/M15 A2992 RMK AO2 PK     WND 33033/14 SLP142 T00781151 FZRANO $=,
20180103_060000.002,0,RJTY,,,,1,20180103050000,-1,-1,-1,-1,350,-1,23,-1,32,-1,-1,,-1,0,0,0,,1,7,-1,14,1014,RJTY 030556Z AUTO 35023G32KT 10SM CLR 07/M14 A2994 RMK AO2 PK     WND 34035/28 SLP148 T00721143 10081 20047 53012 FZRANO $=,
20180103_070000.002,0,RJTY,,,,1,20180103060000,-1,-1,-1,-1,340,-1,20,-1,29,-1,-1,,-1,0,0,0,,1,7,-1,14,1015,RJTY 030656Z AUTO 34020G29KT 10SM CLR 07/M14 A2997 RMK AO2 PK     WND 35030/35 SLP158 T00661136 FZRANO $=,
20180103_080000.002,0,RJTY,,,,1,20180103070000,-1,-1,-1,-1,310,-1,17,-1,24,-1,-1,,-1,0,0,0,,1,6,-1,13,1015,RJTY 030756Z AUTO 31017G24KT 10SM CLR 06/M13 A2998 RMK AO2 PK     WND 33028/07 SLP162 T00561129 FZRANO $=,
20180103_090000.002,0,RJTY,,,,1,20180103080000,-1,-1,-1,-1,330,-1,16,-1,26,-1,-1,,-1,0,0,0,,1,5,-1,12,1016,RJTY 030856Z AUTO 33016G26KT 10SM CLR 05/M12 A2999 RMK AO2 PK     WND 31026/46 SLP166 T00511119 52015 FZRANO $=,
20180103_100000.002,0,RJTY,,,,1,20180103090000,-1,-1,-1,-1,330,-1,7,-1,-1,-1,-1,,-1,0,0,0,,1,5,-1,12,1016,RJTY 030956Z AUTO 33007KT 10SM CLR 05/M12 A3000 RMK AO2 PK WND     33028/15 SLP170 T00471123 FZRANO $=,
20180103_110000.002,0,RJTY,,,,1,20180103100000,-1,-1,-1,-1,20,-1,6,-1,-1,-1,-1,,-1,0,0,0,,1,3,-1,12,1017,RJTY 031056Z AUTO 02006KT 10SM CLR 03/M12 A3002 RMK AO2 SLP177     T00301117 FZRANO $=,
20180103_120000.002,0,RJTY,,,,1,20180103110000,-1,-1,-1,-1,350,-1,8,-1,-1,-1,-1,,-1,0,0,0,,1,5,-1,12,1017,RJTY 031156Z AUTO 35008KT 10SM CLR 05/M12 A3003 RMK AO2 SLP179     T00461119 10072 20030 52015 FZRANO $=,
20180103_130000.001,0,RJTY,,,,1,20180103120000,-1,-1,-1,-1,320,-1,9,-1,16,-1,-1,,-1,1,0,0,,1,5,-1,12,1017,RJTY 031256Z AUTO 32009G16KT 10SM R36/4500FT CLR 05/M12 A3004     RMK AO2 SLP182 T00451125 FZRANO $=,
20180103_140000.002,0,RJTY,,,,1,20180103130000,-1,-1,-1,-1,340,-1,4,-1,-1,-1,-1,,-1,1,0,0,,1,3,-1,12,1018,RJTY 031356Z AUTO 34004KT 10SM R36/4500FT CLR 03/M12 A3006 RMK     AO2 SLP189 T00311124 FZRANO $=,
20180103_150000.002,0,RJTY,,,,1,20180103140000,-1,-1,-1,-1,350,-1,11,-1,-1,-1,-1,,-1,0,0,0,,1,2,-1,13,1017,RJTY 031456Z AUTO 35011KT 10SM CLR 02/M13 A3004 RMK AO2 SLP182     T00201130 400811002 50004 FZRANO $=,
20180103_160000.002,0,RJTY,,,,1,20180103150000,-1,-1,-1,-1,360,-1,10,-1,-1,-1,-1,,-1,0,0,0,,1,2,-1,11,1018,RJTY 031556Z AUTO 36010KT 10SM CLR 02/M11 A3005 RMK AO2 SLP185     T00211114 FZRANO $=,
20180103_170000.002,0,RJTY,,,,1,20180103160000,-1,-1,-1,-1,180,-1,4,-1,-1,-1,-1,,-1,0,0,0,,1,0,-1,11,1018,RJTY 031656Z AUTO 18004KT 10SM CLR 00/M11 A3006 RMK AO2 SLP190     T10041112 FZRANO $=,
20180103_180000.002,0,RJTY,,,,1,20180103170000,-1,-1,-1,-1,0,-1,0,-1,-1,-1,-1,,-1,0,0,0,,-1,2,-1,12,1018,RJTY 031756Z AUTO 00000KT 10SM CLR M02/M12 A3006 RMK AO2 SLP190     T10191117 10047 21019 50005 FZRANO $=,
20180103_190000.002,0,RJTY,,,,1,20180103180000,-1,-1,-1,-1,0,-1,0,-1,-1,-1,-1,,-1,0,0,0,,1,0,-1,12,1018,RJTY 031856Z AUTO 00000KT 10SM CLR 00/M12 A3007 RMK AO2 SLP194     T10011118 FZRANO $=,
20180103_200000.002,0,RJTY,,,,1,20180103190000,-1,-1,-1,-1,360,-1,7,-1,-1,-1,-1,,-1,0,0,0,,-1,1,-1,11,1019,RJTY 031956Z AUTO 36007KT 10SM CLR M01/M11 A3008 RMK AO2 SLP198     T10091108 FZRANO $=,
20180103_210000.001,0,RJTY,,,,1,20180103200000,-1,-1,-1,-1,320,-1,3,-1,-1,-1,-1,,-1,0,0,0,,-1,1,-1,11,1019,RJTY 032056Z AUTO 32003KT 10SM CLR M01/M11 A3010 RMK AO2 SLP204     T10101109 52014 FZRANO $=,
20180103_220000.002,0,RJTY,,,,1,20180103210000,-1,-1,-1,-1,0,-1,0,-1,-1,-1,-1,,-1,0,0,0,,-1,3,-1,11,1020,RJTY 032156Z AUTO 00000KT 10SM CLR M03/M11 A3011 RMK AO2 SLP209     T10281106 FZRANO $=,
20180103_230000.002,0,RJTY,,,,1,20180103220000,-1,-1,-1,-1,330,-1,7,-1,-1,-1,-1,,-1,0,0,0,,1,2,-1,11,1020,RJTY 032256Z AUTO 33007KT 10SM CLR 02/M11 A3011 RMK AO2 SLP207     T00151107 FZRANO $=,
20180104_000000.004,0,RJTY,,,,1,20180103230000,-1,-1,-1,-1,290,-1,4,-1,-1,-1,-1,,-1,0,0,0,,1,5,-1,11,1020,RJTY 032356Z AUTO 29004KT 10SM CLR 05/M11 A3012 RMK AO2 SLP209     T00501107 10050 21032 FZRANO $=,
20180104_010000.002,0,RJTY,,,,1,20180104000000,-1,-1,-1,-1,10,-1,15,-1,-1,-1,-1,,-1,0,0,0,,1,8,-1,12,1019,RJTY 040056Z AUTO 01015KT 10SM CLR 08/M12 A3009 RMK AO2 SLP198     T00761122 FZRANO $=,
20180104_020000.002,0,RJTY,,,,1,20180104010000,-1,-1,-1,-1,30,-1,10,-1,-1,-1,-1,,-1,0,0,0,,1,8,-1,12,1018,RJTY 040156Z AUTO 03010KT 10SM CLR 08/M12 A3007 RMK AO2 SLP192     T00831122 FZRANO $=,
20180104_030000.002,0,RJTY,,,,1,20180104020000,-1,-1,-1,-1,10,-1,17,-1,-1,-1,-1,,-1,0,0,0,,1,9,-1,13,1017,RJTY 040256Z AUTO 01017KT 10SM CLR 09/M13 A3003 RMK AO2 PK WND     02026/39 SLP178 T00891135 57030 FZRANO $=,
20180104_040000.002,0,RJTY,,,,1,20180104030000,-1,-1,-1,-1,30,-1,14,-1,-1,-1,-1,,-1,0,0,0,,1,9,-1,13,1016,RJTY 040356Z AUTO 03014KT 10SM CLR 09/M13 A3001 RMK AO2 SLP172     T00921133 FZRANO $=,
20180104_050000.002,0,RJTY,,,,1,20180104040000,-1,-1,-1,-1,40,-1,16,-1,24,-1,-1,,-1,0,0,0,,1,9,-1,10,1016,RJTY 040456Z AUTO 04016G24KT 10SM CLR 09/M10 A3001 RMK AO2     SLP173 T00861098 FZRANO $=,
20180104_060000.003,0,RJTY,,,,1,20180104050000,-1,-1,-1,-1,30,-1,15,-1,23,-1,-1,,-1,0,0,0,,1,8,-1,9,1017,RJTY 040556Z AUTO 03015G23KT 10SM CLR 08/M09 A3002 RMK AO2     SLP177 T00781091 10095 20051 55004 FZRANO $=,
20180104_070000.002,0,RJTY,,,,1,20180104060000,-1,-1,-1,-1,10,-1,12,-1,-1,-1,-1,,-1,0,0,0,,1,7,-1,9,1017,RJTY 040656Z AUTO 01012KT 10SM CLR 07/M09 A3003 RMK AO2 SLP180     T00651086 FZRANO $=,
20180104_080000.002,0,RJTY,,,,1,20180104070000,-1,-1,-1,-1,50,-1,6,-1,-1,-1,-1,,-1,0,0,0,,1,4,-1,9,1018,RJTY 040756Z AUTO 05006KT 10SM CLR 04/M09 A3006 RMK AO2 SLPNO     T00431088 FZRANO $=,
20180104_090000.002,0,RJTY,,,,1,20180104080000,-1,-1,-1,-1,10,-1,8,-1,-1,-1,-1,,-1,1,0,0,,1,3,-1,9,1018,RJTY 040856Z AUTO 01008KT 10SM R36/4500FT CLR 03/M09 A3007 RMK     AO2 SLPNO T00261087 52017 FZRANO $=,
20180104_100000.002,0,RJTY,,,,1,20180104090000,-1,-1,-1,-1,10,-1,3,-1,-1,-1,-1,,-1,1,0,0,,1,3,-1,9,1019,RJTY 040956Z AUTO 01003KT 10SM R36/4500FT CLR 03/M09 A3009 RMK     AO2 SLPNO T00291091 FZRANO $=,
20180104_110000.002,0,RJTY,,,,1,20180104100000,-1,-1,-1,-1,0,-1,0,-1,-1,-1,-1,,-1,1,0,0,,1,2,-1,7,1019,RJTY 041056Z AUTO 00000KT 10SM R36/4500FT CLR 02/M07 A3010 RMK     AO2 SLP204 T00181075 FZRANO $=,
20180104_120000.001,0,RJTY,,,,1,20180104110000,-1,-1,-1,-1,280,-1,3,-1,-1,-1,-1,,-1,1,0,1,OVC 65,1,1,-1,7,1020,RJTY 041156Z AUTO 28003KT 10SM R36/4500FT OVC065 01/M07 A3011     RMK AO2 SLP207 T00141069 10077 21015 52014 FZRANO $=,
20180104_130000.002,0,RJTY,,,,1,20180104120000,-1,-1,-1,-1,290,-1,3,-1,-1,-1,-1,,-1,1,0,0,,1,1,-1,7,1020,RJTY 041256Z AUTO 29003KT 10SM R36/4500FT CLR 01/M07 A3011 RMK     AO2 SLP207 T00051075 FZRANO $=,
20180104_140000.002,0,RJTY,,,,1,20180104130000,-1,-1,-1,-1,300,-1,3,-1,-1,-1,-1,,-1,0,0,1,SCT 200,-1,2,-1,9,1019,RJTY 041356Z AUTO 30003KT 10SM SCT200 M02/M09 A3009 RMK AO2     SLP200 T10161088 FZRANO $=,
20180104_150000.001,0,RJTY,,,,1,20180104140000,-1,-1,-1,-1,0,-1,0,-1,-1,-1,-1,,-1,0,0,0,,-1,1,-1,8,1019,RJTY 041456Z AUTO 00000KT 10SM CLR M01/M08 A3009 RMK AO2 SLP200     T10121082 400951032 58006 FZRANO $=,
20180104_160000.001,0,RJTY,,,,1,20180104150000,-1,-1,-1,-1,350,-1,3,-1,-1,-1,-1,,-1,0,0,1,OVC 170,1,0,-1,8,1018,RJTY 041556Z AUTO 35003KT 10SM OVC170 00/M08 A3007 RMK AO2     SLP192 T00011076 FZRANO $=,
20180104_170000.003,1,RJTY,,,,1,20180104160000,-1,-1,-1,-1,360,-1,4,-1,-1,-1,-1,,-1,0,0,1,OVC 160,1,0,-1,7,1018,RJTY 041656Z AUTO 36004KT 10SM OVC160 00/M07 A3007 RMK AO2     SLP193 T00031075 FZRANO $=,
20180104_180000.002,0,RJTY,,,,1,20180104170000,-1,-1,-1,-1,240,-1,4,-1,-1,-1,-1,,-1,0,0,1,OVC 160,1,0,-1,7,1018,RJTY 041756Z AUTO 24004KT 10SM OVC160 00/M07 A3006 RMK AO2     SLP190 T00041071 10015 21029 55011 FZRANO $=,
20180104_190000.003,0,RJTY,,,,1,20180104180000,-1,-1,-1,-1,10,-1,4,-1,-1,-1,-1,,-1,0,0,1,OVC 160,1,0,-1,7,1018,RJTY 041856Z AUTO 01004KT 10SM OVC160 00/M07 A3006 RMK AO2     SLP190 T10011072 FZRANO $=,
20180104_200000.002,0,RJTY,,,,1,20180104190000,-1,-1,-1,-1,0,-1,0,-1,-1,-1,-1,,-1,0,0,1,OVC 150,1,0,-1,7,1018,RJTY 041956Z AUTO 00000KT 10SM OVC150 00/M07 A3005 RMK AO2     SLP187 T00011070 FZRANO $=,
20180104_210000.002,0,RJTY,,,,1,20180104200000,-1,-1,-1,-1,0,-1,0,-1,-1,-1,-1,,-1,0,0,1,FEW 140,1,0,-1,7,1019,RJTY 042056Z AUTO 00000KT 10SM FEW140 00/M07 A3008 RMK AO2     SLP198 T10021068 50007 FZRANO $=,
20180104_220000.002,0,RJTY,,,,1,20180104210000,-1,-1,-1,-1,0,-1,0,-1,-1,-1,-1,,-1,0,0,1,BKN 65,-1,1,-1,7,1019,RJTY 042156Z AUTO 00000KT 10SM BKN065 M01/M07 A3008 RMK AO2     SLP198 T10081068 FZRANO $=,
20180104_230000.002,0,RJTY,,,,1,20180104220000,-1,-1,-1,-1,270,-1,3,-1,-1,-1,-1,,-1,0,0,0,,1,0,-1,6,1019,RJTY 042256Z AUTO 27003KT 10SM CLR 00/M06 A3009 RMK AO2 SLP202     T00011061 FZRANO $=,
20180105_000000.006,0,RJTY,,,,1,20180104230000,-1,-1,-1,-1,270,-1,4,-1,-1,-1,-1,,-1,0,0,1,BKN 60,1,1,-1,6,1019,RJTY 042356Z AUTO 27004KT 10SM BKN060 01/M06 A3009 RMK AO2     SLP202 T00141062 10014 21013 53004 FZRANO $=,
20180105_010000.001,0,RJTY,,,,1,20180105000000,-1,-1,-1,-1,0,-1,0,-1,-1,-1,-1,,-1,0,0,2,FEW 70   SCT 190,1,3,-1,8,1019,RJTY 050056Z AUTO 00000KT 10SM FEW070 SCT190 03/M08 A3008 RMK     AO2 SLP198 T00271078 FZRANO $=,
20180105_020000.002,0,RJTY,,,,1,20180105010000,-1,-1,-1,-1,0,-1,0,-1,-1,-1,-1,,-1,0,0,1,BKN 60,1,4,-1,8,1017,RJTY 050156Z AUTO 00000KT 10SM BKN060 04/M08 A3004 RMK AO2     SLP185 T00361078 FZRANO $=,
20180105_030000.002,0,RJTY,,,,1,20180105020000,-1,-1,-1,-1,0,-1,0,-1,-1,-1,-1,,-1,0,0,1,OVC 55,1,4,-1,8,1017,RJTY 050256Z AUTO 00000KT 10SM OVC055 04/M08 A3002 RMK AO2     SLP178 T00421082 57023 FZRANO $=,
20180105_040000.002,0,RJTY,,,,1,20180105030000,-1,-1,-1,-1,0,-1,0,-1,-1,-1,-1,,-1,0,0,2,FEW 55   BKN 110,1,5,-1,9,1016,RJTY 050356Z AUTO 00000KT 10SM FEW055 BKN110 05/M09 A2999 RMK     AO2 SLP166 T00451086 FZRANO $=,
20180105_050000.002,0,RJTY,,,,1,20180105040000,-1,-1,-1,-1,0,-1,0,-1,-1,-1,-1,,-1,0,0,1,OVC 100,1,5,-1,7,1015,RJTY 050456Z AUTO 00000KT 10SM OVC100 05/M07 A2996 RMK AO2     SLP156 T00481074 FZRANO $=,
20180105_060000.002,0,RJTY,,,,1,20180105050000,-1,-1,-1,-1,50,-1,4,-1,-1,-1,-1,,-1,0,0,2,SCT 70   OVC 95,1,4,-1,7,1014,RJTY 050556Z AUTO 05004KT 10SM SCT070 OVC095 04/M07 A2995 RMK     AO2 SLP153 T00441068 10050 20014 56023 FZRANO $=,
20180105_070000.002,0,RJTY,,,,1,20180105060000,-1,-1,-1,-1,0,-1,0,-1,-1,-1,-1,,-1,0,0,1,OVC 85,1,4,-1,7,1014,RJTY 050656Z AUTO 00000KT 10SM OVC085 04/M07 A2995 RMK AO2     SLP153 T00431066 FZRANO $=,
20180105_080000.002,0,RJTY,,,,1,20180105070000,-1,-1,-1,-1,0,-1,0,-1,-1,-1,-1,,-1,0,0,1,BKN 95,1,4,-1,6,1014,RJTY 050756Z AUTO 00000KT 10SM BKN095 04/M06 A2995 RMK AO2     SLP153 T00391058 FZRANO $=,
20180105_090000.002,0,RJTY,,,,1,20180105080000,-1,-1,-1,-1,0,-1,0,-1,-1,-1,-1,,-1,1,0,2,SCT 60   OVC 95,1,3,-1,6,1014,RJTY 050856Z AUTO 00000KT 10SM R36/4500FT SCT060 OVC095 03/M06     A2994 RMK AO2 SLP151 T00341063 58004 FZRANO $=,
20180105_100000.002,0,RJTY,,,,1,20180105090000,-1,-1,-1,-1,0,-1,0,-1,-1,-1,-1,,-1,1,0,1,OVC 95,1,1,-1,7,1014,RJTY 050956Z AUTO 00000KT 10SM R36/4500FT OVC095 01/M07 A2994     RMK AO2 SLP151 T00061067 FZRANO $=,
20180105_110000.002,0,RJTY,,,,1,20180105100000,-1,-1,-1,-1,290,-1,3,-1,-1,-1,-1,,-1,1,0,0,,1,1,-1,5,1014,RJTY 051056Z AUTO 29003KT 10SM R36/4500FT CLR 01/M05 A2994 RMK     AO2 SLP151 T00121051 FZRANO $=,
20180105_120000.002,0,RJTY,,,,1,20180105110000,-1,-1,-1,-1,280,-1,3,-1,-1,-1,-1,,-1,1,0,0,,1,0,-1,5,1014,RJTY 051156Z AUTO 28003KT 10SM R36/4500FT CLR 00/M05 A2993 RMK     AO2 SLP147 T00011055 10045 21004 58005 FZRANO $=,
20180105_130000.002,0,RJTY,,,,1,20180105120000,-1,-1,-1,-1,0,-1,0,-1,-1,-1,-1,,-1,1,0,0,,1,0,-1,6,1013,RJTY 051256Z AUTO 00000KT 10SM R36/4500FT CLR 00/M06 A2991 RMK     AO2 SLP141 T10011057 FZRANO $=,
20180105_140000.002,0,RJTY,,,,1,20180105130000,-1,-1,-1,-1,290,-1,3,-1,-1,-1,-1,,-1,0,0,0,,-1,1,-1,6,1013,RJTY 051356Z AUTO 29003KT 10SM CLR M01/M06 A2990 RMK AO2 SLP137     T10101058 FZRANO $=,
20180105_150000.002,0,RJTY,,,,1,20180105140000,-1,-1,-1,-1,0,-1,0,-1,-1,-1,-1,,-1,0,0,0,,-1,2,-1,6,1012,RJTY 051456Z AUTO 00000KT 10SM CLR M02/M06 A2988 RMK AO2 SLP130     T10191065 400501019 57017 FZRANO $=,
20180105_160000.001,0,RJTY,,,,1,20180105150000,-1,-1,-1,-1,260,-1,4,-1,-1,-1,-1,,-1,0,0,0,,-1,2,-1,6,1012,RJTY 051556Z AUTO 26004KT 10SM CLR M02/M06 A2988 RMK AO2 SLP130     T10191063 FZRANO $=,
20180105_170000.002,0,RJTY,,,,1,20180105160000,-1,-1,-1,-1,0,-1,0,-1,-1,-1,-1,,-1,0,0,0,,-1,2,-1,6,1012,RJTY 051656Z AUTO 00000KT 10SM CLR M02/M06 A2989 RMK AO2 SLP134     T10191065 FZRANO $=,
20180105_180000.001,0,RJTY,,,,1,20180105170000,-1,-1,-1,-1,0,-1,0,-1,-1,-1,-1,,-1,0,0,0,,-1,2,-1,7,1011,RJTY 051756Z AUTO 00000KT 10SM CLR M02/M07 A2987 RMK AO2 SLP127     T10181066 10003 21027 58002 FZRANO $=,
20180105_190000.002,0,RJTY,,,,1,20180105180000,-1,-1,-1,-1,0,-1,0,-1,-1,-1,-1,,-1,0,0,0,,-1,2,-1,7,1011,RJTY 051856Z AUTO 00000KT 10SM CLR M02/M07 A2987 RMK AO2 SLP127     T10181067 FZRANO $=,
20180105_200000.002,0,RJTY,,,,1,20180105190000,-1,-1,-1,-1,0,-1,0,-1,-1,-1,-1,,-1,0,0,0,,-1,2,-1,7,1011,RJTY 051956Z AUTO 00000KT 10SM CLR M02/M07 A2987 RMK AO2 SLP127     T10241069 FZRANO $=,
20180105_210000.003,0,RJTY,,,,1,20180105200000,-1,-1,-1,-1,0,-1,0,-1,-1,-1,-1,,-1,0,0,0,,-1,2,-1,7,1012,RJTY 052056Z AUTO 00000KT 10SM CLR M02/M07 A2988 RMK AO2 SLP130     T10191074 53004 FZRANO $=,
20180105_220000.002,0,RJTY,,,,1,20180105210000,-1,-1,-1,-1,0,-1,0,-1,-1,-1,-1,,-1,0,0,0,,-1,3,-1,8,1012,RJTY 052156Z AUTO 00000KT 10SM CLR M03/M08 A2989 RMK AO2 SLP135     T10281079 FZRANO $=,
20180105_230000.002,0,RJTY,,,,1,20180105220000,-1,-1,-1,-1,0,-1,0,-1,-1,-1,-1,,-1,0,0,0,,-1,1,-1,8,1013,RJTY 052256Z AUTO 00000KT 10SM CLR M01/M08 A2990 RMK AO2 SLP138     T10151081 FZRANO $=,
20180106_000000.004,0,RJTY,,,,1,20180105230000,-1,-1,-1,-1,0,-1,0,-1,-1,-1,-1,,-1,0,0,0,,1,3,-1,7,1013,RJTY 052356Z AUTO 00000KT 10SM CLR 03/M07 A2990 RMK AO2 SLP136     T00271072 10027 21032 51005 FZRANO $=,
20180106_010000.002,0,RJTY,,,,1,20180106000000,-1,-1,-1,-1,0,-1,0,-1,-1,-1,-1,,-1,0,0,0,,1,6,-1,7,1013,RJTY 060056Z AUTO 00000KT 10SM CLR 06/M07 A2990 RMK AO2 SLP136     T00581071 FZRANO $=,
20180106_020000.002,0,RJTY,,,,1,20180106010000,-1,-1,-1,-1,110,-1,5,-1,-1,-1,-1,,-1,0,0,0,,1,8,-1,7,1012,RJTY 060156Z AUTO 11005KT 10SM CLR 08/M07 A2989 RMK AO2 SLP132     T00801069 FZRANO $=,
20180106_030000.002,0,RJTY,,,,1,20180106020000,-1,-1,-1,-1,160,-1,4,-1,-1,-1,-1,,-1,0,0,0,,1,9,-1,7,1011,RJTY 060256Z AUTO 16004KT 10SM CLR 09/M07 A2986 RMK AO2 SLP122     T00861068 58012 FZRANO $=,
20180106_040000.004,0,RJTY,,,,1,20180106030000,-1,-1,-1,-1,180,-1,5,-1,-1,-1,-1,,-1,0,0,0,,1,10,-1,7,1010,RJTY 060356Z AUTO 18005KT 10SM CLR 10/M07 A2983 RMK AO2 SLP111     T00951072 FZRANO $=,
20180106_050000.002,0,RJTY,,,,1,20180106040000,-1,-1,-1,-1,170,-1,5,-1,-1,-1,-1,,-1,0,0,0,,1,10,-1,7,1010,RJTY 060456Z AUTO 17005KT 10SM CLR 10/M07 A2982 RMK AO2 SLP108     T00991069 FZRANO $=,
20180106_060000.002,0,RJTY,,,,1,20180106050000,-1,-1,-1,-1,150,-1,9,-1,-1,-1,-1,,-1,0,0,0,,1,10,-1,5,1009,RJTY 060556Z AUTO 15009KT 10SM CLR 10/M05 A2981 RMK AO2 SLP105     T01011051 10102 20028 56016 FZRANO $=,
20180106_070000.002,0,RJTY,,,,1,20180106060000,-1,-1,-1,-1,160,-1,5,-1,-1,-1,-1,,-1,0,0,0,,1,9,-1,5,1010,RJTY 060656Z AUTO 16005KT 10SM CLR 09/M05 A2982 RMK AO2 SLP108     T00891047 FZRANO $=,
20180106_080000.002,0,RJTY,,,,1,20180106070000,-1,-1,-1,-1,180,-1,6,-1,-1,-1,-1,,-1,0,0,0,,1,6,-1,2,1011,RJTY 060756Z AUTO 18006KT 10SM CLR 06/M02 A2985 RMK AO2 SLP119     T00621024 FZRANO $=,
20180106_090000.002,0,RJTY,,,,1,20180106080000,-1,-1,-1,-1,0,-1,0,-1,-1,-1,-1,,-1,1,0,0,,1,6,-1,2,1011,RJTY 060856Z AUTO 00000KT 10SM R18/4500FT CLR 06/M02 A2987 RMK     AO2 SLP126 T00621019 52018 FZRANO $=,
20180106_100000.002,0,RJTY,,,,1,20180106090000,-1,-1,-1,-1,300,-1,6,-1,-1,-1,-1,,-1,1,0,0,,1,4,-1,2,1012,RJTY 060956Z AUTO 30006KT 10SM R18/4500FT CLR 04/M02 A2989 RMK     AO2 SLP134 T00431023 FZRANO $=,
20180106_110000.002,0,RJTY,,,,1,20180106100000,-1,-1,-1,-1,350,-1,4,-1,-1,-1,-1,,-1,1,0,0,,1,1,-1,5,1013,RJTY 061056Z AUTO 35004KT 10SM R18/4500FT CLR 01/M05 A2990 RMK     AO2 SLP138 T00131046 FZRANO $=,
20180106_120000.002,0,RJTY,,,,1,20180106110000,-1,-1,-1,-1,20,-1,10,-1,-1,-1,-1,,-1,1,0,0,,1,3,-1,4,1013,RJTY 061156Z AUTO 02010KT 10SM R18/4500FT CLR 03/M04 A2992 RMK     AO2 SLP143 T00321040 10100 21004 52019 FZRANO $=,
20180106_130000.002,0,RJTY,,,,1,20180106120000,-1,-1,-1,-1,360,-1,6,-1,-1,-1,-1,,-1,1,0,0,,1,2,-1,4,1015,RJTY 061256Z AUTO 36006KT 10SM R18/4500FT CLR 02/M04 A2996 RMK     AO2 SLP156 T00161039 FZRANO $=,
20180106_140000.001,0,RJTY,,,,1,20180106130000,-1,-1,-1,-1,0,-1,0,-1,-1,-1,-1,,-1,0,0,0,,1,1,-1,4,1015,RJTY 061356Z AUTO 00000KT 10SM CLR 01/M04 A2997 RMK AO2 SLP158     T00121039 FZRANO $=,
20180106_150000.002,0,RJTY,,,,1,20180106140000,-1,-1,-1,-1,340,-1,5,-1,-1,-1,-1,,-1,0,0,0,,-1,1,-1,5,1015,RJTY 061456Z AUTO 34005KT 10SM CLR M01/M05 A2997 RMK AO2 SLP159     T10141054 401021032 51016 FZRANO $=,
20180106_160000.002,0,RJTY,,,,1,20180106150000,-1,-1,-1,-1,340,-1,12,-1,-1,-1,-1,,-1,0,0,0,,1,2,-1,7,1015,RJTY 061556Z AUTO 34012KT 10SM CLR 02/M07 A2998 RMK AO2 SLP161     T00221066 FZRANO $=,
20180106_170000.002,0,RJTY,,,,1,20180106160000,-1,-1,-1,-1,360,-1,12,-1,-1,-1,-1,,-1,0,0,0,,1,1,-1,6,1016,RJTY 061656Z AUTO 36012KT 10SM CLR 01/M06 A2999 RMK AO2 SLP164     T00111063 FZRANO $=,
20180106_180000.001,0,RJTY,,,,1,20180106170000,-1,-1,-1,-1,350,-1,13,-1,-1,-1,-1,,-1,0,0,0,,1,3,-1,9,1016,RJTY 061756Z AUTO 35013KT 10SM CLR 03/M09 A3000 RMK AO2 SLP167     T00331087 10034 21018 52009 FZRANO $=,
20180106_190000.002,0,RJTY,,,,1,20180106180000,-1,-1,-1,-1,350,-1,13,-1,-1,-1,-1,,-1,0,0,0,,1,0,-1,7,1016,RJTY 061856Z AUTO 35013KT 10SM CLR 00/M07 A3001 RMK AO2 SLP173     T00031068 FZRANO $=,
20180106_200000.002,0,RJTY,,,,1,20180106190000,-1,-1,-1,-1,10,-1,13,-1,21,-1,-1,,-1,0,0,0,,1,3,-1,10,1017,RJTY 061956Z AUTO 01013G21KT 10SM CLR 03/M10 A3002 RMK AO2     SLP175 T00311105 FZRANO $=,
20180106_210000.002,0,RJTY,,,,1,20180106200000,-1,-1,-1,-1,10,-1,12,-1,-1,-1,-1,,-1,0,0,0,,-1,1,-1,7,1018,RJTY 062056Z AUTO 01012KT 10SM CLR M01/M07 A3005 RMK AO2 SLP187     T10061074 52019 FZRANO $=,
20180106_220000.002,0,RJTY,,,,1,20180106210000,-1,-1,-1,-1,270,-1,3,-1,-1,-1,-1,,-1,0,0,0,,-1,1,-1,8,1018,RJTY 062156Z AUTO 27003KT 10SM CLR M01/M08 A3007 RMK AO2 SLP194     T10121076 FZRANO $=,
20180106_230000.002,0,RJTY,,,,1,20180106220000,-1,-1,-1,-1,270,-1,4,-1,-1,-1,-1,,-1,0,0,0,,1,1,-1,8,1019,RJTY 062256Z AUTO 27004KT 10SM CLR 01/M08 A3009 RMK AO2 SLP202     T00081077 FZRANO $=,
20180107_000000.004,0,RJTY,,,,1,20180106230000,-1,-1,-1,-1,330,-1,3,-1,-1,-1,-1,,-1,0,0,0,,1,5,-1,8,1020,RJTY 062356Z AUTO 33003KT 10SM CLR 05/M08 A3012 RMK AO2 SLP210     T00461082 10046 21012 52022 FZRANO $=,
20180107_010000.001,0,RJTY,,,,1,20180107000000,-1,-1,-1,-1,20,-1,13,-1,-1,-1,-1,,-1,0,0,0,,1,9,-1,11,1020,RJTY 070056Z AUTO 02013KT 10SM CLR 09/M11 A3013 RMK AO2 SLP213     T00861109 FZRANO $=,
20180107_020000.002,0,RJTY,,,,1,20180107010000,-1,-1,-1,-1,10,-1,7,-1,-1,-1,-1,,-1,0,0,0,,1,10,-1,12,1020,RJTY 070156Z AUTO 01007KT 10SM CLR 10/M12 A3012 RMK AO2 SLP209     T00971116 FZRANO $=,
20180107_030000.002,0,RJTY,,,,1,20180107020000,-1,-1,-1,-1,10,-1,5,-1,-1,-1,-1,,-1,0,0,0,,1,10,-1,12,1020,RJTY 070256Z AUTO 01005KT 10SM CLR 10/M12 A3011 RMK AO2 SLP207     T00971122 58003 FZRANO $=,
20180107_040000.002,0,RJTY,,,,1,20180107030000,-1,-1,-1,-1,100,-1,5,-1,-1,-1,-1,,-1,0,0,0,,1,11,-1,9,1020,RJTY 070356Z AUTO 10005KT 10SM CLR 11/M09 A3012 RMK AO2 SLP208     T01091094 FZRANO $=,
20180107_050000.002,0,RJTY,,,,1,20180107040000,-1,-1,-1,-1,90,-1,9,-1,-1,-1,-1,,-1,0,0,0,,1,11,-1,9,1020,RJTY 070456Z AUTO 09009KT 10SM CLR 11/M09 A3012 RMK AO2 SLP209     T01131086 FZRANO $=,
20180107_060000.002,0,RJTY,,,,1,20180107050000,-1,-1,-1,-1,60,-1,8,-1,-1,-1,-1,,-1,0,0,0,,1,11,-1,8,1020,RJTY 070556Z AUTO 06008KT 10SM CLR 11/M08 A3013 RMK AO2 SLP211     T01061076 10113 20048 50007 FZRANO $=,
20180107_070000.002,0,RJTY,,,,1,20180107060000,-1,-1,-1,-1,60,-1,5,-1,-1,-1,-1,,-1,0,0,0,,1,9,-1,7,1021,RJTY 070656Z AUTO 06005KT 10SM CLR 09/M07 A3016 RMK AO2 SLP223     T00901072 FZRANO $=,
20180107_080000.002,0,RJTY,,,,1,20180107070000,-1,-1,-1,-1,80,-1,3,-1,-1,-1,-1,,-1,0,0,0,,1,6,-1,7,1022,RJTY 070756Z AUTO 08003KT 10SM CLR 06/M07 A3018 RMK AO2 SLP230     T00631073 FZRANO $=,
20180107_090000.002,0,RJTY,,,,1,20180107080000,-1,-1,-1,-1,40,-1,4,-1,-1,-1,-1,,-1,0,0,0,,1,5,-1,7,1023,RJTY 070856Z AUTO 04004KT 10SM CLR 05/M07 A3021 RMK AO2 SLP242     T00531069 52026 FZRANO $=,
20180107_100000.002,0,RJTY,,,,1,20180107090000,-1,-1,-1,-1,0,-1,0,-1,-1,-1,-1,,-1,0,0,1,FEW 200,1,5,-1,6,1024,RJTY 070956Z AUTO 00000KT 10SM FEW200 05/M06 A3024 RMK AO2     SLP252 T00451064 FZRANO $=,
20180107_110000.002,0,RJTY,,,,1,20180107100000,-1,-1,-1,-1,280,-1,3,-1,-1,-1,-1,,-1,0,0,1,FEW 180,1,5,-1,5,1024,RJTY 071056Z AUTO 28003KT 10SM FEW180 05/M05 A3024 RMK AO2     SLP251 T00471051 FZRANO $=,
20180107_120000.001,0,RJTY,,,,1,20180107110000,-1,-1,-1,-1,0,-1,0,-1,-1,-1,-1,,-1,0,0,2,FEW 38   BKN 170,1,4,-1,5,1024,RJTY 071156Z AUTO 00000KT 10SM FEW038 BKN170 04/M05 A3025 RMK     AO2 SLP254 T00391051 10105 20031 51014 FZRANO $=,
20180107_130000.001,0,RJTY,,,,1,20180107120000,-1,-1,-1,-1,10,-1,4,-1,-1,-1,-1,,-1,1,0,0,,1,3,-1,5,1025,RJTY 071256Z AUTO 01004KT 10SM R36/4500FT CLR 03/M05 A3026 RMK     AO2 SLP256 T00251052 FZRANO $=,
20180107_140000.001,0,RJTY,,,,1,20180107130000,-1,-1,-1,-1,280,-1,4,-1,-1,-1,-1,,-1,0,0,2,SCT 40   SCT 60,1,4,-1,5,1024,RJTY 071356Z AUTO 28004KT 10SM SCT040 SCT060 04/M05 A3025 RMK     AO2 SLP252 T00361051 FZRANO $=,
20180107_150000.002,0,RJTY,,,,1,20180107140000,-1,-1,-1,-1,0,-1,0,-1,-1,-1,-1,,-1,0,0,1,OVC 41,1,3,-1,4,1024,RJTY 071456Z AUTO 00000KT 10SM OVC041 03/M04 A3023 RMK AO2     SLP246 T00341043 401131013 58006 FZRANO $=,
20180107_160000.002,0,RJTY,,,,1,20180107150000,-1,-1,-1,-1,0,-1,0,-1,-1,-1,-1,,-1,0,0,3,SCT 35   SCT 60   OVC 170,1,3,-1,4,1024,RJTY 071556Z AUTO 00000KT 10SM SCT035 SCT060 OVC170 03/M04     A3023 RMK AO2 SLP245 T00321040 FZRANO $=,
20180107_170000.002,0,RJTY,,,,1,20180107160000,-1,-1,-1,-1,360,-1,6,-1,-1,-1,-1,,-1,0,0,2,BKN 43   OVC 170,1,2,-1,5,1023,RJTY 071656Z AUTO 36006KT 10SM BKN043 OVC170 02/M05 A3022 RMK     AO2 SLP242 T00191046 FZRANO $=,
20180107_180000.002,0,RJTY,,,,1,20180107170000,-1,-1,-1,-1,360,-1,3,-1,-1,-1,-1,,-1,0,0,1,BKN 120,1,1,-1,5,1023,RJTY 071756Z AUTO 36003KT 10SM BKN120 01/M05 A3021 RMK AO2     SLP239 T00111054 10038 20009 58007 FZRANO $=,
20180107_190000.001,0,RJTY,,,,1,20180107180000,-1,-1,-1,-1,0,-1,0,-1,-1,-1,-1,,-1,0,0,2,FEW 38   SCT 160,1,2,-1,5,1023,RJTY 071856Z AUTO 00000KT 10SM FEW038 SCT160 02/M05 A3020 RMK     AO2 SLP236 T00171048 FZRANO $=,
20180107_200000.002,0,RJTY,,,,1,20180107190000,-1,-1,-1,-1,0,-1,0,-1,-1,-1,-1,,-1,0,0,1,OVC 130,1,0,-1,5,1022,RJTY 071956Z AUTO 00000KT 10SM OVC130 00/M05 A3018 RMK AO2     SLP231 T00011051 FZRANO $=,
20180107_210000.001,0,RJTY,,,,1,20180107200000,-1,-1,-1,-1,0,-1,0,-1,-1,-1,-1,,-1,0,0,0,,1,1,-1,4,1021,RJTY 072056Z AUTO 00000KT 10SM CLR 01/M04 A3016 RMK AO2 SLP224     T00051043 57017 FZRANO $=,
20180107_220000.002,0,RJTY,,,,1,20180107210000,-1,-1,-1,-1,0,-1,0,-1,-1,-1,-1,,-1,0,0,1,SCT 180,1,0,-1,5,1021,RJTY 072156Z AUTO 00000KT 10SM SCT180 00/M05 A3015 RMK AO2     SLP221 T10021046 FZRANO $=,
20180107_230000.002,0,RJTY,,,,1,20180107220000,-1,-1,-1,-1,0,-1,0,-1,-1,-1,-1,,-1,0,0,1,FEW 150,1,2,-1,3,1021,RJTY 072256Z AUTO 00000KT 10SM FEW150 02/M03 A3015 RMK AO2     SLP221 T00221035 FZRANO $=,
20180108_000000.004,0,RJTY,,,,1,20180107230000,-1,-1,-1,-1,0,-1,0,-1,-1,-1,-1,,-1,0,0,1,SCT 140,1,4,-1,3,1021,RJTY 072356Z AUTO 00000KT 10SM SCT140 04/M03 A3015 RMK AO2     SLP220 T00371033 10037 21002 55004 FZRANO $=,
20180108_010000.002,0,RJTY,,,,1,20180108000000,-1,-1,-1,-1,0,-1,0,-1,-1,-1,-1,,-1,0,0,2,FEW 80   SCT 140,1,4,-1,3,1021,RJTY 080056Z AUTO 00000KT 10SM FEW080 SCT140 04/M03 A3014 RMK     AO2 SLP217 T00431026 FZRANO $=,
20180108_020000.002,0,RJTY,,,,0,20180108010000,-1,-1,-1,-1,0,-1,0,-1,-1,-1,-1,,-1,0,0,2,SCT 130   OVC 180,1,5,-1,4,1019,RJTY 080156Z 00000KT 10SM SCT130 OVC180 05/M04 A3009 RMK AO2A     SLP200 T00531038 FZRANO $=,
20180108_030000.002,0,RJTY,,,,0,20180108020000,-1,-1,-1,-1,0,-1,0,-1,-1,-1,-1,,-1,0,0,3,FEW 80   SCT 170   BKN 230,1,6,-1,5,1017,RJTY 080256Z 00000KT 10SM FEW080 SCT170 BKN230 06/M05 A3002 RMK     AO2A PRESFR SLP175 T00631048 58042 FZRANO $=,
20180108_040000.002,0,RJTY,,,,0,20180108030000,-1,-1,-1,-1,0,-1,0,-1,-1,-1,-1,,-1,0,0,3,FEW 130   BKN 180   OVC 230,1,8,-1,4,1016,RJTY 080356Z 00000KT 10SM FEW130 BKN180 OVC230 08/M04 A2999 RMK     AO2A SLP164 T00781040 FZRANO $=,
20180108_050000.002,0,RJTY,,,,1,20180108040000,-1,-1,-1,-1,140,-1,4,-1,-1,-1,-1,,-1,0,1,1,FEW 85,1,7,1,0,1014,RJTY 080456Z AUTO 14004KT 10SM -DZ FEW085 07/00 A2995 RMK AO2     RAB18E42DZB54 SLP152 P0000 T00650000 FZRANO $=,- DZ
20180108_060000.003,0,RJTY,,,,1,20180108050000,-1,-1,-1,-1,0,-1,0,-1,-1,-1,-1,,-1,0,1,1,FEW 180,1,7,1,1,1014,RJTY 080556Z AUTO 00000KT 10SM -RA FEW180 07/01 A2993 RMK AO2     DZE02RAB47 SLP145 P0000 60000 T00710005 10081 20035 57033           FZRANO $=,- RA
20180108_060000.005,1,RJTY,,,,1,20180108050000,-1,-1,-1,-1,0,-1,0,-1,-1,-1,-1,,-1,0,1,3,FEW 30   BKN 55   BKN 130,1,7,1,1,1014,RJTY 080556Z AUTO 00000KT 10SM -RA FEW030 BKN055 BKN130     07/01 A2993 RMK AO2A DZE02RAB47 SLP145 P0000 60000           T00710005 10081 20035 57033 FZRANO $ COR 0601=,- RA
20180108_070000.002,0,RJTY,,,,0,20180108060000,-1,-1,-1,-1,20,-1,4,-1,-1,-1,-1,,-1,0,0,3,FEW 30   SCT 50   BKN 100,1,6,1,3,1012,RJTY 080656Z 02004KT 10SM FEW030 SCT050 BKN100 06/03 A2989 RMK     AO2A RAE14DZB14E16RAB32 SLP132 P0001 T00640027 FZRANO $=,
20180108_070000.005,1,RJTY,,,,0,20180108060000,-1,-1,-1,-1,20,-1,4,-1,-1,-1,-1,,-1,0,1,3,FEW 30   SCT 50   BKN 100,1,6,1,3,1012,RJTY 080656Z 02004KT 10SM -RA FEW030 SCT050 BKN100 06/03     A2989 RMK AO2A RAE14DZB14E16RAB32 SLP132 P0001 T00640027           FZRANO $ COR 0707=,- RA
20180108_080000.002,0,RJTY,,,,0,20180108070000,-1,-1,-1,-1,350,-1,6,-1,-1,-1,-1,,-1,0,2,2,SCT 47   OVC 80,1,5,1,1,1012,RJTY 080756Z 35006KT 5SM -RA BR SCT047 OVC080 05/01 A2988 RMK     AO2A RAE06RAB25 SLP129 P0000 T00450012 FZRANO $=,- RA; BR
20180108_090000.002,0,RJTY,,,,0,20180108080000,-1,-1,-1,-1,10,-1,5,-1,-1,-1,-1,,-1,0,2,2,BKN 48   OVC 60,1,4,1,1,1011,RJTY 080858Z 01005KT 3SM -RA BR BKN048 OVC060 04/01 A2987 RMK     AO2A SLP126 P0002 60003 T00410006 57019 FZRANO $=,- RA; BR
20180108_100000.002,0,RJTY,,,,0,20180108090000,-1,-1,-1,-1,0,-1,0,-1,-1,-1,-1,,-1,0,1,1,OVC 38,1,4,1,2,1011,RJTY 080957Z 00000KT 3SM -RA OVC038 04/02 A2985 RMK AO2A SLP119     P0003 T00440018 FZRANO $=,- RA
20180108_100000.002,0,RJTY,,,,0,20180108090000,-1,-1,-1,-1,0,-1,0,-1,-1,-1,-1,,-1,0,2,1,OVC 38,1,4,1,2,1011,RJTY 080957Z 00000KT 3SM -RA BR OVC038 04/02 A2985 RMK AO2A     SLP119 P0003 T00440018 FZRANO $ COR 59=,- RA; BR
20180108_110000.002,0,RJTY,,,,0,20180108100000,-1,-1,-1,-1,20,-1,4,-1,-1,-1,-1,,-1,0,2,2,BKN 35   OVC 70,1,4,1,3,1009,RJTY 081059Z 02004KT 4SM -RA BR BKN035 OVC070 04/03 A2980 RMK     AO2A SLP102 P0002 T00440031 FZRANO $=,- RA; BR
20180108_120000.002,0,RJTY,,,,0,20180108110000,-1,-1,-1,-1,20,-1,4,-1,-1,-1,-1,,-1,0,2,2,BKN 15   OVC 30,1,4,1,3,1007,RJTY 081159Z 02004KT 3SM -RA BR BKN015 OVC030 04/03 A2973 RMK     AO2A CIG 013V030 PRESFR SLP077 P0002 60010 T00440029 10071           20040 57048 FZRANO $=,- RA; BR
20180108_130000.001,0,RJTY,,,,0,20180108120000,-1,-1,-1,-1,20,-1,4,-1,-1,-1,-1,,-1,0,2,2,BKN 14   OVC 21,1,4,1,2,1005,RJTY 081256Z 02004KT 3SM -RA BR BKN014 OVC021 04/02 A2969 RMK     AO2A CIG 014V022 SLP064 P0004 T00400024 FZRANO $=,- RA; BR
20180108_140000.002,0,RJTY,,,,1,20180108130000,-1,-1,-1,-1,30,-1,3,-1,-1,-1,-1,,-1,0,1,1,OVC 15,1,4,1,3,1003,RJTY 081356Z AUTO 03003KT 9SM -RA OVC015 04/03 A2963 RMK AO2     PRESFR SLP043 P0004 T00380025 FZRANO $=,- RA
20180108_150000.002,0,RJTY,,,,1,20180108140000,-1,-1,-1,-1,0,-1,0,-1,-1,-1,-1,,-1,0,1,1,OVC 17,1,4,1,3,1002,RJTY 081456Z AUTO 00000KT 8SM -RA OVC017 04/03 A2959 RMK AO2     SLP029 P0004 60012 T00380025 400811002 57044 FZRANO $=,- RA
20180108_160000.002,0,RJTY,,,,1,20180108150000,-1,-1,-1,-1,0,-1,0,-1,-1,-1,-1,,-1,0,2,1,OVC 16,1,4,1,3,1001,RJTY 081556Z AUTO 00000KT 6SM -RA BR OVC016 04/03 A2956 RMK AO2     CIG 015 RWY36 SLP018 P0006 T00360026 FZRANO $=,- RA; BR
20180108_170000.002,0,RJTY,,,,1,20180108160000,-1,-1,-1,-1,120,-1,3,-1,-1,-1,-1,,-1,0,2,1,BKN 15,1,4,1,3,999,RJTY 081656Z AUTO 12003KT 4SM -RA BR BKN015 04/03 A2951 RMK AO2     CIG 014 RWY36 SLP002 P0005 T00380032 FZRANO $=,- RA; BR
20180108_180000.002,0,RJTY,,,,1,20180108170000,-1,-1,-1,-1,0,-1,0,-1,-1,-1,-1,,-1,0,2,2,SCT 3   BKN 14,1,4,1,4,998,RJTY 081756Z AUTO 00000KT 4SM -RA BR SCT003 BKN014 04/04 A2948     RMK AO2 CIG 013 RWY36 SLP991 P0003 60026 T00400036 10043           20036 57040 FZRANO $=,- RA; BR
20180108_190000.002,0,RJTY,,,,1,20180108180000,-1,-1,-1,-1,0,-1,0,-1,-1,-1,-1,,-1,0,2,1,OVC 13,1,4,1,4,997,RJTY 081856Z AUTO 00000KT 4SM -RA BR OVC013 04/04 A2944 RMK AO2     CIG 012 RWY36 SLP978 P0002 T00420039 FZRANO $=,- RA; BR
20180108_200000.002,0,RJTY,,,,1,20180108190000,-1,-1,-1,-1,120,-1,3,-1,-1,-1,-1,,-1,0,1,1,FEW 100,1,4,1,4,994,RJTY 081956Z AUTO 12003KT 4SM BR FEW100 04/04 A2936 RMK AO2     RAE1856DZB1856E1859 SLP952 P0000 T00440043 FZRANO $=,BR
20180108_210000.001,0,RJTY,,,,1,20180108200000,-1,-1,-1,-1,0,-1,0,-1,-1,-1,-1,,-1,0,1,1,FEW 41,1,4,1,4,995,METAR RJTY 082056Z AUTO 00000KT 4SM BR FEW041 04/04 A2939 RMK AO2           DZB29E39 PRESRR SLP962 P0000 60002 T00440043 55028 FZRANO,BR
20180108_220000.002,0,RJTY,,,,0,20180108210000,-1,-1,-1,-1,140,-1,3,-1,-1,-1,-1,,-1,0,1,1,SCT 110,1,5,1,5,995,RJTY 082156Z 14003KT 3SM BR SCT110 05/05 A2937 RMK AO2A SLP954     T00480047 FZRANO $=,BR
20180108_230000.003,0,RJTY,,,,0,20180108220000,-1,-1,-1,-1,0,-1,0,-1,-1,-1,-1,,-1,0,1,1,SCT 85,1,6,1,5,995,RJTY 082256Z 00000KT 4SM BR SCT085 06/05 A2938 RMK AO2A SLP958     T00550054 FZRANO $=,BR
20180109_000000.004,0,RJTY,,,,0,20180108230000,-1,-1,-1,-1,0,-1,0,-1,-1,-1,-1,,-1,0,1,0,,1,6,1,6,993,RJTY 082356Z 00000KT 5SM BR CLR 06/06 A2933 RMK AO2A SLP941     60002 70038 T00600059 10060 20040 55020 FZRANO $=,BR
20180109_010000.002,0,RJTY,,,,1,20180109000000,-1,-1,-1,-1,30,-1,6,-1,-1,-1,-1,,-1,0,0,0,,1,8,1,8,993,RJTY 090056Z AUTO 03006KT 10SM CLR 08/08 A2933 RMK AO2 SLP940     T00840083 FZRANO $=,
20180109_020000.002,0,RJTY,,,,1,20180109010000,-1,-1,-1,-1,10,-1,6,-1,-1,-1,-1,,-1,0,0,0,,1,8,1,8,993,RJTY 090156Z AUTO 01006KT 10SM CLR 08/08 A2933 RMK AO2 SLP940     T00840078 FZRANO $=,
20180109_030000.002,0,RJTY,,,,1,20180109020000,-1,-1,-1,-1,200,-1,3,-1,-1,-1,-1,,-1,0,0,0,,1,12,1,9,992,RJTY 090256Z AUTO 20003KT 10SM CLR 12/09 A2929 RMK AO2 SLP925     T01230088 56013 FZRANO $=,
20180109_040000.002,0,RJTY,,,,1,20180109030000,-1,-1,-1,-1,0,-1,0,-1,-1,-1,-1,,-1,0,0,0,,1,14,1,9,991,RJTY 090356Z AUTO 00000KT 10SM CLR 14/09 A2927 RMK AO2 SLP918     T01410085 FZRANO $=,
20180109_050000.002,0,RJTY,,,,0,20180109040000,-1,-1,-1,-1,0,-1,0,-1,-1,-1,-1,,-1,0,0,0,,1,16,1,7,991,RJTY 090456Z 00000KT 10SM CLR 16/07 A2927 RMK AO2 SLP917     T01600070 FZRANO $ COR 0459=,
20180109_050000.002,0,RJTY,,,,1,20180109040000,-1,-1,-1,-1,0,-1,0,-1,-1,-1,-1,,-1,0,0,0,,1,16,1,7,-1,RJTY 090456Z AUTO 00000KT 10SM CLR 16/07 M RMK AO2 SLPNO     T01600070 FZRANO $=,
20180109_060000.002,0,RJTY,,,,1,20180109050000,-1,-1,-1,-1,10,-1,11,-1,-1,-1,-1,,-1,0,0,0,,1,16,1,1,993,RJTY 090556Z AUTO 01011KT 10SM CLR 16/01 A2931 RMK AO2 SLP931     T01610006 10171 20061 FZRANO $=,
20180109_070000.002,0,RJTY,,,,0,20180109060000,-1,-1,-1,-1,290,-1,10,-1,-1,-1,-1,,-1,0,0,1,FEW 30,1,15,-1,3,994,RJTY 090656Z 29010KT 10SM FEW030 15/M03 A2936 RMK AO2A SLP948     T01481035 FZRANO $=,
20180109_080000.002,0,RJTY,,,,0,20180109070000,-1,-1,-1,-1,310,-1,11,-1,17,-1,-1,,-1,0,0,1,FEW 30,1,12,-1,6,997,RJTY 090756Z 31011G17KT 10SM FEW030 12/M06 A2944 RMK AO2A     PRESRR SLP976 T01201060 FZRANO $=,
20180109_090000.004,1,RJTY,,,,0,20180109080000,-1,-1,-1,-1,300,-1,11,-1,16,-1,-1,,-1,0,0,1,FEW 30,1,11,-1,7,999,RJTY 090856Z 30011G16KT 10SM FEW030 11/M07 A2950 RMK AO2A     PRESRR SLP997 T01051073 52065 FZRANO $=,
20180109_100000.004,1,RJTY,,,,0,20180109090000,-1,-1,-1,-1,280,-1,10,-1,-1,-1,-1,,-1,0,0,0,,1,9,-1,10,1001,RJTY 090956Z 28010KT 10SM CLR 09/M10 A2957 RMK AO2A SLP021     T00941102 FZRANO $=,
20180109_110000.004,1,RJTY,,,,0,20180109100000,-1,-1,-1,-1,290,-1,9,-1,15,-1,-1,,-1,0,0,0,,1,8,-1,12,1002,RJTY 091056Z 29009G15KT 10SM CLR 08/M12 A2958 RMK AO2A SLP024     T00821117 FZRANO $=,
20180109_120000.004,1,RJTY,,,,0,20180109110000,-1,-1,-1,-1,300,-1,10,-1,16,-1,-1,,-1,0,0,0,,1,8,-1,12,1003,RJTY 091156Z 30010G16KT 10SM CLR 08/M12 A2963 RMK AO2A SLP041     T00751118 10164 20075 52044 FZRANO $=,
20180109_130000.004,1,RJTY,,,,0,20180109120000,-1,-1,-1,-1,270,-1,5,-1,-1,-1,-1,,-1,0,0,0,,1,7,-1,13,1004,RJTY 091256Z 27005KT 10SM CLR 07/M13 A2965 RMK AO2A SLP048     T00711132 FZRANO $=,
20180109_140000.002,0,RJTY,,,,1,20180109130000,-1,-1,-1,-1,220,-1,8,-1,-1,-1,-1,,-1,0,0,0,,1,6,-1,12,1005,RJTY 091356Z AUTO 22008KT 10SM CLR 06/M12 A2967 RMK AO2 SLP055     T00611125 FZRANO $=,
20180109_150000.002,0,RJTY,,,,1,20180109140000,-1,-1,-1,-1,250,-1,8,-1,-1,-1,-1,,-1,0,0,0,,1,7,-1,14,1005,RJTY 091456Z AUTO 25008KT 10SM CLR 07/M14 A2968 RMK AO2 SLP056     T00651143 401710036 52016 FZRANO $=,
20180109_160000.002,0,RJTY,,,,1,20180109150000,-1,-1,-1,-1,210,-1,5,-1,-1,-1,-1,,-1,0,0,0,,1,4,-1,12,1006,RJTY 091556Z AUTO 21005KT 10SM CLR 04/M12 A2971 RMK AO2 SLP067     T00441117 FZRANO $=,
20180109_170000.002,0,RJTY,,,,1,20180109160000,-1,-1,-1,-1,250,-1,5,-1,-1,-1,-1,,-1,0,0,0,,1,5,-1,13,1006,RJTY 091656Z AUTO 25005KT 10SM CLR 05/M13 A2972 RMK AO2 SLP069     T00521128 FZRANO $=,
20180109_180000.002,0,RJTY,,,,1,20180109170000,-1,-1,-1,-1,240,-1,8,-1,-1,-1,-1,,-1,0,0,0,,1,5,-1,12,1006,RJTY 091756Z AUTO 24008KT 10SM CLR 05/M12 A2972 RMK AO2 SLP069     T00451116 10075 20039 51014 FZRANO $=,
20180109_190000.001,0,RJTY,,,,1,20180109180000,-1,-1,-1,-1,230,-1,8,-1,-1,-1,-1,,-1,0,0,0,,1,5,-1,11,1007,RJTY 091856Z AUTO 23008KT 10SM CLR 05/M11 A2973 RMK AO2 SLP073     T00461111 FZRANO $=,
20180109_200000.002,0,RJTY,,,,1,20180109190000,-1,-1,-1,-1,260,-1,4,-1,-1,-1,-1,,-1,0,0,0,,1,4,-1,11,1007,RJTY 091956Z AUTO 26004KT 10SM CLR 04/M11 A2973 RMK AO2 SLP075     T00371107 FZRANO $=,
20180109_210000.002,0,RJTY,,,,1,20180109200000,-1,-1,-1,-1,250,-1,7,-1,-1,-1,-1,,-1,0,0,0,,1,3,-1,10,1008,RJTY 092056Z AUTO 25007KT 10SM CLR 03/M10 A2976 RMK AO2 SLP086     T00341099 53011 FZRANO $=,
20180109_220000.002,0,RJTY,,,,1,20180109210000,-1,-1,-1,-1,260,-1,4,-1,-1,-1,-1,,-1,0,0,0,,1,4,-1,11,1008,RJTY 092156Z AUTO 26004KT 10SM CLR 04/M11 A2977 RMK AO2 SLP089     T00441109 FZRANO $=,
20180109_230000.002,0,RJTY,,,,1,20180109220000,-1,-1,-1,-1,240,-1,6,-1,-1,-1,-1,,-1,0,0,0,,1,4,-1,9,1009,RJTY 092256Z AUTO 24006KT 10SM CLR 04/M09 A2980 RMK AO2 SLP100     T00391088 FZRANO $=,
20180110_000000.004,0,RJTY,,,,1,20180109230000,-1,-1,-1,-1,190,-1,4,-1,-1,-1,-1,,-1,0,0,0,,1,8,-1,10,1009,RJTY 092356Z AUTO 19004KT 10SM CLR 08/M10 A2980 RMK AO2 SLP099     T00751103 10075 20023 50014 FZRANO $=,
20180110_010000.002,0,RJTY,,,,1,20180110000000,-1,-1,-1,-1,160,-1,6,-1,-1,-1,-1,,-1,0,0,0,,1,8,-1,9,1009,RJTY 100056Z AUTO 16006KT 10SM CLR 08/M09 A2979 RMK AO2 SLP095     T00821088 FZRANO $=,
20180110_020000.002,0,RJTY,,,,1,20180110010000,-1,-1,-1,-1,260,-1,13,-1,20,-1,-1,,-1,0,0,0,,1,11,-1,13,1008,RJTY 100156Z AUTO 26013G20KT 10SM CLR 11/M13 A2976 RMK AO2     SLP084 T01071127 FZRANO $=,
20180110_030000.002,0,RJTY,,,,1,20180110020000,-1,-1,-1,-1,230,-1,17,-1,21,-1,-1,,-1,0,0,0,,1,11,-1,14,1007,RJTY 100256Z AUTO 23017G21KT 10SM CLR 11/M14 A2973 RMK AO2     SLP074 T01121145 58023 FZRANO $=,
20180110_040000.003,0,RJTY,,,,1,20180110030000,-1,-1,-1,-1,250,-1,13,-1,23,-1,-1,,-1,0,0,0,,1,12,-1,15,1006,RJTY 100356Z AUTO 25013G23KT 10SM CLR 12/M15 A2971 RMK AO2     SLP068 T01191148 FZRANO $=,
20180110_050000.002,0,RJTY,,,,1,20180110040000,-1,-1,-1,-1,260,-1,12,-1,19,-1,-1,,-1,0,0,0,,1,12,-1,6,1006,RJTY 100456Z AUTO 26012G19KT 10SM CLR 12/M06 A2970 RMK AO2 PK     WND 28026/39 SLP064 T01191065 FZRANO $=,
20180110_060000.002,0,RJTY,,,,1,20180110050000,-1,-1,-1,-1,200,-1,14,-1,22,-1,-1,,-1,0,0,0,,1,10,-1,6,1006,RJTY 100556Z AUTO 20014G22KT 10SM CLR 10/M06 A2971 RMK AO2     SLP069 T01041064 10124 20076 55007 FZRANO $=,
20180110_070000.002,0,RJTY,,,,1,20180110060000,-1,-1,-1,-1,230,-1,14,-1,20,-1,-1,,-1,0,0,0,,1,9,-1,8,1007,RJTY 100656Z AUTO 23014G20KT 10SM CLR 09/M08 A2973 RMK AO2 PK     WND 25026/14 SLP075 T00941082 FZRANO $=,
20180110_080000.002,0,RJTY,,,,1,20180110070000,-1,-1,-1,-1,200,-1,10,-1,-1,-1,-1,,-1,0,0,0,,1,8,-1,7,1007,RJTY 100756Z AUTO 20010KT 10SM CLR 08/M07 A2973 RMK AO2 SLP076     T00791070 FZRANO $=,
20180110_090000.002,0,RJTY,,,,0,20180110080000,-1,-1,-1,-1,220,-1,10,-1,-1,-1,-1,,-1,0,0,1,FEW 30,1,7,-1,7,1007,RJTY 100856Z 22010KT 10SM FEW030 07/M07 A2974 RMK AO2A SLP080     T00691072 52012 FZRANO $=,
20180110_100000.004,1,RJTY,,,,1,20180110090000,-1,-1,-1,-1,220,-1,9,-1,-1,-1,-1,,-1,0,0,0,,1,6,-1,7,1008,RJTY 100956Z AUTO 22009KT 10SM CLR 06/M07 A2976 RMK AO2 SLP087     T00591067 FZRANO $=,
20180110_110000.002,0,RJTY,,,,0,20180110100000,-1,-1,-1,-1,230,-1,7,-1,-1,-1,-1,,-1,0,0,0,,1,4,-1,7,1008,RJTY 101056Z 23007KT 10SM CLR 04/M07 A2976 RMK AO2A SLP088     T00411071 FZRANO $=,
20180110_120000.002,0,RJTY,,,,0,20180110110000,-1,-1,-1,-1,190,-1,8,-1,-1,-1,-1,,-1,0,0,0,,1,4,-1,7,1008,RJTY 101156Z 19008KT 10SM CLR 04/M07 A2976 RMK AO2A SLP086     T00351070 10105 20026 51006 FZRANO $=,
20180110_130000.002,0,RJTY,,,,0,20180110120000,-1,-1,-1,-1,220,-1,7,-1,-1,-1,-1,,-1,0,0,0,,1,4,-1,7,1008,RJTY 101256Z 22007KT 10SM CLR 04/M07 A2977 RMK AO2A SLP090     T00371066 FZRANO $=,
20180110_140000.002,0,RJTY,,,,1,20180110130000,-1,-1,-1,-1,0,-1,0,-1,-1,-1,-1,,-1,0,0,0,,1,3,-1,6,1008,RJTY 101356Z AUTO 00000KT 10SM CLR 03/M06 A2977 RMK AO2 SLP089     T00281061 FZRANO $=,
20180110_150000.002,0,RJTY,,,,1,20180110140000,-1,-1,-1,-1,0,-1,0,-1,-1,-1,-1,,-1,0,0,0,,1,0,-1,6,1008,RJTY 101456Z AUTO 00000KT 10SM CLR 00/M06 A2978 RMK AO2 SLP093     T00001064 401241010 51005 FZRANO $=,
20180110_160000.002,0,RJTY,,,,1,20180110150000,-1,-1,-1,-1,350,-1,3,-1,-1,-1,-1,,-1,0,0,0,,1,2,-1,7,1009,RJTY 101556Z AUTO 35003KT 10SM CLR 02/M07 A2979 RMK AO2 SLP096     T00221072 FZRANO $=,
20180110_170000.002,0,RJTY,,,,1,20180110160000,-1,-1,-1,-1,220,-1,4,-1,-1,-1,-1,,-1,0,0,0,,1,1,-1,6,1009,RJTY 101656Z AUTO 22004KT 10SM CLR 01/M06 A2980 RMK AO2 SLP100     T00111065 FZRANO $=,
20180110_180000.002,0,RJTY,,,,1,20180110170000,-1,-1,-1,-1,0,-1,0,-1,-1,-1,-1,,-1,0,0,0,,-1,1,-1,6,1009,RJTY 101756Z AUTO 00000KT 10SM CLR M01/M06 A2981 RMK AO2 SLP104     T10081062 10038 21010 52010 FZRANO $=,
20180110_190000.004,0,RJTY,,,,1,20180110180000,-1,-1,-1,-1,280,-1,5,-1,-1,-1,-1,,-1,0,0,0,,-1,2,-1,6,1010,RJTY 101856Z AUTO 28005KT 10SM CLR M02/M06 A2982 RMK AO2 SLP108     T10171063 FZRANO $=,
20180110_200000.002,0,RJTY,,,,1,20180110190000,-1,-1,-1,-1,0,-1,0,-1,-1,-1,-1,,-1,0,0,0,,-1,3,-1,7,1010,RJTY 101956Z AUTO 00000KT 10SM CLR M03/M07 A2983 RMK AO2 SLP113     T10281072 FZRANO $=,
20180110_210000.002,0,RJTY,,,,1,20180110200000,-1,-1,-1,-1,270,-1,3,-1,-1,-1,-1,,-1,0,0,0,,-1,2,-1,6,1011,RJTY 102056Z AUTO 27003KT 10SM CLR M02/M06 A2985 RMK AO2 SLP119     T10221062 52014 FZRANO $=,
20180110_220000.002,0,RJTY,,,,1,20180110210000,-1,-1,-1,-1,0,-1,0,-1,-1,-1,-1,,-1,0,0,0,,-1,2,-1,6,1012,RJTY 102156Z AUTO 00000KT 10SM CLR M02/M06 A2988 RMK AO2 SLP130     T10251065 FZRANO $=,
20180110_230000.001,0,RJTY,,,,1,20180110220000,-1,-1,-1,-1,0,-1,0,-1,-1,-1,-1,,-1,0,0,0,,-1,1,-1,5,1013,RJTY 102256Z AUTO 00000KT 10SM CLR M01/M05 A2990 RMK AO2 SLP136     T10101049 FZRANO $=,
20180111_000000.004,0,RJTY,,,,1,20180110230000,-1,-1,-1,-1,180,-1,3,-1,-1,-1,-1,,-1,0,0,0,,1,3,-1,5,1013,RJTY 102356Z AUTO 18003KT 10SM CLR 03/M05 A2991 RMK AO2 SLP139     T00261055 10026 21035 52018 FZRANO $=,
20180111_010000.002,0,RJTY,,,,1,20180111000000,-1,-1,-1,-1,110,-1,3,-1,-1,-1,-1,,-1,0,0,0,,1,5,-1,6,-1,RJTY 110056Z AUTO 11003KT 10SM CLR 05/M06 M RMK AO2 SLPNO     T00531060 FZRANO CHINO RWY36 $=,
20180111_010000.004,1,RJTY,,,,0,20180111000000,-1,-1,-1,-1,110,-1,3,-1,-1,-1,-1,,-1,0,0,0,,1,5,-1,6,1013,RJTY 110056Z 11003KT 10SM CLR 05/M06 A2990 RMK AO2 SLP135     T00531060 FZRANO CHINO RWY36 $ COR 0106=,
20180111_020000.002,0,RJTY,,,,1,20180111010000,-1,-1,-1,-1,80,-1,4,-1,-1,-1,-1,,-1,0,0,0,,1,8,-1,9,1012,RJTY 110156Z AUTO 08004KT 10SM CLR 08/M09 A2989 RMK AO2 SLP131     T00791091 FZRANO $=,
20180111_030000.001,0,RJTY,,,,1,20180111020000,-1,-1,-1,-1,40,-1,8,-1,-1,-1,-1,,-1,0,0,0,,1,9,-1,8,1011,RJTY 110256Z AUTO 04008KT 10SM CLR 09/M08 A2985 RMK AO2 SLP117     T00871084 FZRANO $=,
20180111_040000.002,0,RJTY,,,,1,20180111030000,-1,-1,-1,-1,290,-1,3,-1,-1,-1,-1,,-1,0,0,1,FEW 80,1,9,-1,13,1011,RJTY 110356Z AUTO 29003KT 10SM FEW080 09/M13 A2985 RMK AO2     SLP117 T00891129 FZRANO $=,
20180111_050000.002,0,RJTY,,,,1,20180111040000,-1,-1,-1,-1,120,-1,3,-1,-1,-1,-1,,-1,0,0,1,FEW 70,1,10,-1,16,1010,RJTY 110456Z AUTO 12003KT 10SM FEW070 10/M16 A2983 RMK AO2     SLP110 T00981165 FZRANO $=,
20180111_060000.002,0,RJTY,,,,1,20180111050000,-1,-1,-1,-1,290,-1,4,-1,-1,-1,-1,,-1,0,0,0,,1,9,-1,13,1011,RJTY 110556Z AUTO 29004KT 10SM CLR 09/M13 A2986 RMK AO2 SLP122     T00911127 10098 20027 53003 FZRANO $=,
20180111_070000.002,0,RJTY,,,,1,20180111060000,-1,-1,-1,-1,340,-1,7,-1,-1,-1,-1,,-1,0,0,0,,1,8,-1,11,1012,RJTY 110656Z AUTO 34007KT 10SM CLR 08/M11 A2988 RMK AO2 SLP129     T00821107 FZRANO $=,
20180111_080000.002,0,RJTY,,,,1,20180111070000,-1,-1,-1,-1,20,-1,8,-1,-1,-1,-1,,-1,0,0,0,,1,4,-1,14,1012,RJTY 110756Z AUTO 02008KT 10SM CLR 04/M14 A2989 RMK AO2 SLP134     T00411137 FZRANO $=,
20180111_090000.002,0,RJTY,,,,0,20180111080000,-1,-1,-1,-1,330,-1,7,-1,-1,-1,-1,,-1,0,0,1,FEW 30,1,5,-1,17,1014,RJTY 110856Z 33007KT 10SM FEW030 05/M17 A2993 RMK AO2A SLP147     T00491168 52022 FZRANO $=,
20180111_100000.002,0,RJTY,,,,0,20180111090000,-1,-1,-1,-1,170,-1,3,-1,-1,-1,-1,,-1,0,0,0,,1,4,-1,16,1015,RJTY 110956Z 17003KT 10SM CLR 04/M16 A2998 RMK AO2A SLP164     T00351163 FZRANO $=,
20180111_110000.002,0,RJTY,,,,0,20180111100000,-1,-1,-1,-1,0,-1,0,-1,-1,-1,-1,,-1,0,0,0,,1,1,-1,14,1016,RJTY 111056Z 00000KT 10SM CLR 01/M14 A3000 RMK AO2A SLP172     T00121137 FZRANO $=,
20180111_120000.004,1,RJTY,,,,0,20180111110000,-1,-1,-1,-1,280,-1,3,-1,-1,-1,-1,,-1,0,0,0,,-1,1,-1,11,1016,RJTY 111156Z 28003KT 10SM CLR M01/M11 A3000 RMK AO2A SLP171     T10071115 10092 21008 51026 FZRANO $=,
20180111_130000.002,0,RJTY,,,,0,20180111120000,-1,-1,-1,-1,0,-1,0,-1,-1,-1,-1,,-1,0,0,0,,1,0,-1,12,1017,RJTY 111256Z 00000KT 10SM CLR 00/M12 A3002 RMK AO2A SLP177     T10031120 FZRANO $=,
20180111_140000.002,0,RJTY,,,,1,20180111130000,-1,-1,-1,-1,0,-1,0,-1,-1,-1,-1,,-1,0,0,0,,-1,3,-1,11,1016,RJTY 111356Z AUTO 00000KT 10SM CLR M03/M11 A3001 RMK AO2 SLP174     T10261114 FZRANO $=,
20180111_150000.002,0,RJTY,,,,1,20180111140000,-1,-1,-1,-1,0,-1,0,-1,-1,-1,-1,,-1,0,0,0,,-1,3,-1,12,1016,RJTY 111456Z AUTO 00000KT 10SM CLR M03/M12 A3001 RMK AO2 SLP173     T10291119 400981046 50002 FZRANO $=,
20180111_160000.002,0,RJTY,,,,1,20180111150000,-1,-1,-1,-1,350,-1,4,-1,-1,-1,-1,,-1,0,0,0,,-1,6,-1,11,1016,RJTY 111556Z AUTO 35004KT 10SM CLR M06/M11 A3001 RMK AO2 SLP174     T10571112 FZRANO $=,
20180111_170000.002,0,RJTY,,,,1,20180111160000,-1,-1,-1,-1,0,-1,0,-1,-1,-1,-1,,-1,0,0,0,,-1,3,-1,12,1017,RJTY 111656Z AUTO 00000KT 10SM CLR M03/M12 A3003 RMK AO2 SLP180     T10341123 FZRANO $=,
20180111_180000.002,0,RJTY,,,,1,20180111170000,-1,-1,-1,-1,280,-1,3,-1,-1,-1,-1,,-1,0,0,0,,-1,3,-1,12,1017,RJTY 111756Z AUTO 28003KT 10SM CLR M03/M12 A3004 RMK AO2 SLP183     T10301122 11002 21059 52010 FZRANO $=,
20180111_190000.002,0,RJTY,,,,1,20180111180000,-1,-1,-1,-1,0,-1,0,-1,-1,-1,-1,,-1,0,0,0,,-1,5,-1,12,1017,RJTY 111856Z AUTO 00000KT 10SM CLR M05/M12 A3003 RMK AO2 SLP181     T10521122 FZRANO $=,
20180111_200000.002,0,RJTY,,,,1,20180111190000,-1,-1,-1,-1,0,-1,0,-1,-1,-1,-1,,-1,0,0,0,,-1,5,-1,12,1018,RJTY 111956Z AUTO 00000KT 10SM CLR M05/M12 A3005 RMK AO2 SLP189     T10531119 FZRANO $=,
20180111_210000.002,0,RJTY,,,,1,20180111200000,-1,-1,-1,-1,0,-1,0,-1,-1,-1,-1,,-1,0,0,0,,-1,6,-1,12,1018,RJTY 112056Z AUTO 00000KT 10SM CLR M06/M12 A3006 RMK AO2 SLP193     T10591120 53008 FZRANO $=,
20180111_220000.002,0,RJTY,,,,1,20180111210000,-1,-1,-1,-1,0,-1,0,-1,-1,-1,-1,,-1,0,0,0,,-1,7,-1,13,1019,RJTY 112156Z AUTO 00000KT 10SM CLR M07/M13 A3008 RMK AO2 SLP200     T10721127 FZRANO $=,
20180111_230000.002,0,RJTY,,,,1,20180111220000,-1,-1,-1,-1,0,-1,0,-1,-1,-1,-1,,-1,0,0,0,,-1,4,-1,10,1019,RJTY 112256Z AUTO 00000KT 10SM CLR M04/M10 A3010 RMK AO2 SLP206     T10451097 FZRANO $=,
20180112_000000.004,0,RJTY,,,,1,20180111230000,-1,-1,-1,-1,0,-1,0,-1,-1,-1,-1,,-1,0,0,0,,1,0,-1,10,1020,RJTY 112356Z AUTO 00000KT 10SM CLR 00/M10 A3012 RMK AO2 SLP213     T10051099 11005 21073 52020 FZRANO $=,
20180112_010000.001,0,RJTY,,,,1,20180112000000,-1,-1,-1,-1,100,-1,5,-1,-1,-1,-1,,-1,0,0,0,,1,2,-1,13,1020,RJTY 120056Z AUTO 10005KT 10SM CLR 02/M13 A3012 RMK AO2     UPB05E12 SLP212 P0000 T00241126 FZRANO $=,
20180112_020000.002,0,RJTY,,,,1,20180112010000,-1,-1,-1,-1,140,-1,5,-1,-1,-1,-1,,-1,0,0,0,,1,4,-1,14,1020,RJTY 120156Z AUTO 14005KT 10SM CLR 04/M14 A3013 RMK AO2 SLP215     T00361137 FZRANO $=,
20180112_030000.002,0,RJTY,,,,1,20180112020000,-1,-1,-1,-1,60,-1,3,-1,-1,-1,-1,,-1,0,0,0,,1,4,-1,14,1019,RJTY 120256Z AUTO 06003KT 10SM CLR 04/M14 A3010 RMK AO2     RAB38E52 SLP205 P0000 60000 T00411142 58007 FZRANO $=,
20180112_030000.004,1,RJTY,,,,1,20180112020000,-1,-1,-1,-1,60,-1,3,-1,-1,-1,-1,,-1,0,0,0,,1,4,-1,14,1019,RJTY 120256Z AUTO 06003KT 10SM CLR 04/M14 A3010 RMK AO2A     SLP205 T00411142 58007 FZRANO $ COR 0300=,
20180112_040000.002,0,RJTY,,,,1,20180112030000,-1,-1,-1,-1,150,-1,3,-1,-1,-1,-1,,-1,0,0,0,,1,5,-1,15,1019,RJTY 120356Z AUTO 15003KT 10SM CLR 05/M15 A3008 RMK AO2 SLP199     T00501150 FZRANO $=,
20180112_050000.003,0,RJTY,,,,1,20180112040000,-1,-1,-1,-1,0,-1,0,-1,-1,-1,-1,,-1,0,0,0,,1,5,-1,15,1019,RJTY 120456Z AUTO 00000KT 10SM CLR 05/M15 A3009 RMK AO2 SLP202     T00541152 FZRANO $=,
20180112_060000.002,0,RJTY,,,,1,20180112050000,-1,-1,-1,-1,0,-1,0,-1,-1,-1,-1,,-1,0,0,1,SCT 90,1,6,-1,15,1019,RJTY 120556Z AUTO 00000KT 10SM SCT090 06/M15 A3010 RMK AO2     SLP205 60000 T00581155 10060 21004 53000 FZRANO $=,
20180112_063000.001,1,RJTY,,,,0,20180112050000,-1,-1,-1,-1,0,-1,0,-1,-1,-1,-1,,-1,0,0,1,SCT 90,1,6,-1,15,1019,RJTY 120556Z 00000KT 10SM SCT090 06/M15 A3010 RMK AO2A     SLP205 T00581155 10060 21004 53000 FZRANO $ COR 0627=,
20180112_070000.001,0,RJTY,,,,1,20180112060000,-1,-1,-1,-1,170,-1,5,-1,-1,-1,-1,,-1,0,0,1,OVC 70,1,5,-1,15,1020,RJTY 120656Z AUTO 17005KT 10SM OVC070 05/M15 A3012 RMK AO2     SLP213 T00481146 FZRANO $=,
20180112_080000.002,0,RJTY,,,,1,20180112070000,-1,-1,-1,-1,20,-1,4,-1,-1,-1,-1,,-1,0,0,0,,1,4,-1,13,1020,RJTY 120756Z AUTO 02004KT 10SM CLR 04/M13 A3013 RMK AO2 SLP217     T00391130 FZRANO $=,
20180112_090000.002,0,RJTY,,,,0,20180112080000,-1,-1,-1,-1,330,-1,6,-1,-1,-1,-1,,-1,0,0,2,FEW 100   SCT 230,1,2,-1,13,1022,RJTY 120856Z 33006KT 10SM FEW100 SCT230 02/M13 A3017 RMK AO2A     SLP231 T00171129 52021 FZRANO $=,
20180112_100000.002,0,RJTY,,,,0,20180112090000,-1,-1,-1,-1,320,-1,5,-1,-1,-1,-1,,-1,0,0,1,SCT 230,1,3,-1,11,1022,RJTY 120956Z 32005KT 10SM SCT230 03/M11 A3019 RMK AO2A SLP238     T00311113 FZRANO $=,
20180112_110000.002,0,RJTY,,,,0,20180112100000,-1,-1,-1,-1,270,-1,3,-1,-1,-1,-1,,-1,0,0,1,FEW 100,1,2,-1,10,1023,RJTY 121056Z 27003KT 10SM FEW100 02/M10 A3020 RMK AO2A SLP240     T00191100 FZRANO $=,
20180112_120000.002,0,RJTY,,,,0,20180112110000,-1,-1,-1,-1,20,-1,4,-1,-1,-1,-1,,-1,0,0,1,FEW 100,-1,1,-1,10,1023,RJTY 121156Z 02004KT 10SM FEW100 M01/M10 A3021 RMK AO2A SLP244     T10131104 10062 21020 52014 FZRANO $=,
20180112_130000.002,0,RJTY,,,,0,20180112120000,-1,-1,-1,-1,0,-1,0,-1,-1,-1,-1,,-1,0,0,0,,-1,1,-1,10,1024,RJTY 121256Z 00000KT 10SM CLR M01/M10 A3023 RMK AO2A SLP249     T10091100 FZRANO $=,
20180112_140000.002,0,RJTY,,,,1,20180112130000,-1,-1,-1,-1,280,-1,4,-1,-1,-1,-1,,-1,0,0,0,,-1,1,-1,9,1023,RJTY 121356Z AUTO 28004KT 10SM CLR M01/M09 A3022 RMK AO2 SLP246     T10101087 FZRANO $=,
20180112_150000.002,0,RJTY,,,,1,20180112140000,-1,-1,-1,-1,0,-1,0,-1,-1,-1,-1,,-1,0,0,0,,-1,2,-1,8,1024,RJTY 121456Z AUTO 00000KT 10SM CLR M02/M08 A3023 RMK AO2 SLP249     T10181085 400621073 50006 FZRANO $=,
20180112_160000.002,0,RJTY,,,,1,20180112150000,-1,-1,-1,-1,0,-1,0,-1,-1,-1,-1,,-1,0,0,0,,-1,2,-1,9,1024,RJTY 121556Z AUTO 00000KT 10SM CLR M02/M09 A3023 RMK AO2 SLP249     T10201087 FZRANO $=,
20180112_170000.002,0,RJTY,,,,1,20180112160000,-1,-1,-1,-1,0,-1,0,-1,-1,-1,-1,,-1,0,0,0,,-1,2,-1,8,1024,RJTY 121656Z AUTO 00000KT 10SM CLR M02/M08 A3024 RMK AO2 SLP252     T10221081 FZRANO $=,
20180112_180000.002,0,RJTY,,,,1,20180112170000,-1,-1,-1,-1,0,-1,0,-1,-1,-1,-1,,-1,0,0,0,,-1,3,-1,9,1024,RJTY 121756Z AUTO 00000KT 10SM CLR M03/M09 A3023 RMK AO2 SLP249     T10301087 11001 21032 50001 FZRANO $=,
20180112_190000.002,0,RJTY,,,,1,20180112180000,-1,-1,-1,-1,340,-1,3,-1,-1,-1,-1,,-1,0,0,0,,-1,4,-1,9,1023,RJTY 121856Z AUTO 34003KT 10SM CLR M04/M09 A3022 RMK AO2 SLP247     T10361087 FZRANO $=,
20180112_200000.001,0,RJTY,,,,1,20180112190000,-1,-1,-1,-1,0,-1,0,-1,-1,-1,-1,,-1,0,0,0,,-1,5,-1,10,1023,RJTY 121956Z AUTO 00000KT 10SM CLR M05/M10 A3022 RMK AO2 SLP247     T10541098 FZRANO $=,
20180112_210000.002,0,RJTY,,,,1,20180112200000,-1,-1,-1,-1,0,-1,0,-1,-1,-1,-1,,-1,0,0,0,,-1,4,-1,9,1024,RJTY 122056Z AUTO 00000KT 10SM CLR M04/M09 A3023 RMK AO2 SLP251     T10431088 55001 FZRANO $=,
20180112_220000.002,0,RJTY,,,,1,20180112210000,-1,-1,-1,-1,0,-1,0,-1,-1,-1,-1,,-1,0,0,0,,-1,5,-1,9,1024,RJTY 122156Z AUTO 00000KT 10SM CLR M05/M09 A3023 RMK AO2 SLP251     T10501091 FZRANO $=,
20180112_230000.002,0,RJTY,,,,1,20180112220000,-1,-1,-1,-1,340,-1,5,-1,-1,-1,-1,,-1,0,0,0,,-1,4,-1,8,1024,RJTY 122256Z AUTO 34005KT 10SM CLR M04/M08 A3024 RMK AO2 SLP254     T10361077 FZRANO $=,
20180113_000000.004,0,RJTY,,,,1,20180112230000,-1,-1,-1,-1,0,-1,0,-1,-1,-1,-1,,-1,0,0,0,,-1,1,-1,7,1024,RJTY 122356Z AUTO 00000KT 10SM CLR M01/M07 A3025 RMK AO2 SLP257     T10081074 11008 21068 52007 FZRANO $=,
20180113_010000.001,0,RJTY,,,,1,20180113000000,-1,-1,-1,-1,10,-1,4,-1,-1,-1,-1,,-1,0,0,0,,1,2,-1,9,1024,RJTY 130056Z AUTO 01004KT 10SM CLR 02/M09 A3024 RMK AO2 SLP253     T00171087 FZRANO $=,
20180113_020000.002,0,RJTY,,,,1,20180113010000,-1,-1,-1,-1,60,-1,3,-1,-1,-1,-1,,-1,0,0,0,,1,3,-1,9,1023,RJTY 130156Z AUTO 06003KT 10SM CLR 03/M09 A3022 RMK AO2 SLP246     T00321088 FZRANO $=,
20180113_030000.002,0,RJTY,,,,1,20180113020000,-1,-1,-1,-1,170,-1,5,-1,-1,-1,-1,,-1,0,0,0,,1,5,-1,9,1022,RJTY 130256Z AUTO 17005KT 10SM CLR 05/M09 A3018 RMK AO2     RAB33E40 SLP232 P0000 60000 T00451093 58022 FZRANO $=,
20180113_040000.002,0,RJTY,,,,1,20180113030000,-1,-1,-1,-1,140,-1,6,-1,-1,-1,-1,,-1,0,0,0,,1,6,-1,10,1021,RJTY 130356Z AUTO 14006KT 10SM CLR 06/M10 A3015 RMK AO2     RAB0257E00 SLP221 P0000 T00621097 FZRANO $=,
20180113_050000.002,0,RJTY,,,,1,20180113040000,-1,-1,-1,-1,150,-1,3,-1,-1,-1,-1,,-1,0,0,0,,1,7,-1,9,1020,RJTY 130456Z AUTO 15003KT 10SM CLR 07/M09 A3013 RMK AO2 SLP215     T00691095 FZRANO $=,
20180113_060000.002,0,RJTY,,,,1,20180113050000,-1,-1,-1,-1,160,-1,3,-1,-1,-1,-1,,-1,0,0,0,,1,7,-1,10,1020,RJTY 130556Z AUTO 16003KT 10SM CLR 07/M10 A3013 RMK AO2 SLP215     60000 T00701098 10072 21007 56019 FZRANO $=,
20180113_060000.005,1,RJTY,,,,0,20180113050000,-1,-1,-1,-1,160,-1,3,-1,-1,-1,-1,,-1,0,0,0,,1,7,-1,10,1020,RJTY 130556Z 16003KT 10SM CLR 07/M10 A3013 RMK AO2 SLP215     T00701098 10072 21007 56019 FZRANO $ COR 0647=,
20180113_070000.002,0,RJTY,,,,1,20180113060000,-1,-1,-1,-1,150,-1,5,-1,-1,-1,-1,,-1,0,0,0,,1,6,-1,9,1020,RJTY 130656Z AUTO 15005KT 10SM CLR 06/M09 A3013 RMK AO2 SLP215     T00641091 FZRANO $=,
20180113_080000.002,0,RJTY,,,,1,20180113070000,-1,-1,-1,-1,130,-1,3,-1,-1,-1,-1,,-1,0,0,0,,1,5,-1,7,1021,RJTY 130756Z AUTO 13003KT 10SM CLR 05/M07 A3014 RMK AO2 SLP219     T00461072 FZRANO $=,
20180113_090000.002,0,RJTY,,,,1,20180113080000,-1,-1,-1,-1,0,-1,0,-1,-1,-1,-1,,-1,1,0,0,,1,4,-1,7,1021,RJTY 130856Z AUTO 00000KT 10SM R18/4500FT CLR 04/M07 A3016 RMK     AO2 SLP226 T00381068 52010 FZRANO $=,
20180113_100000.002,0,RJTY,,,,1,20180113090000,-1,-1,-1,-1,340,-1,5,-1,-1,-1,-1,,-1,1,0,0,,1,3,-1,8,1022,RJTY 130956Z AUTO 34005KT 10SM R18/4500FT CLR 03/M08 A3018 RMK     AO2 SLP234 T00291079 FZRANO $=,
20180113_110000.002,0,RJTY,,,,1,20180113100000,-1,-1,-1,-1,300,-1,4,-1,-1,-1,-1,,-1,1,0,0,,1,2,-1,8,1022,RJTY 131056Z AUTO 30004KT 10SM R36/4500FT CLR 02/M08 A3019 RMK     AO2 SLP237 T00191077 FZRANO $=,
20180113_120000.002,0,RJTY,,,,1,20180113110000,-1,-1,-1,-1,0,-1,0,-1,-1,-1,-1,,-1,1,0,0,,1,0,-1,8,1023,RJTY 131156Z AUTO 00000KT 10SM R36/4500FT CLR 00/M08 A3022 RMK     AO2 SLP247 T10011078 10072 21019 52019 FZRANO $=,
20180113_130000.002,0,RJTY,,,,1,20180113120000,-1,-1,-1,-1,10,-1,8,-1,-1,-1,-1,,-1,1,0,0,,-1,1,-1,8,1024,RJTY 131256Z AUTO 01008KT 10SM R36/4500FT CLR M01/M08 A3024 RMK     AO2 SLP253 T10131081 FZRANO $=,
20180113_140000.001,0,RJTY,,,,1,20180113130000,-1,-1,-1,-1,30,-1,9,-1,-1,-1,-1,,-1,0,0,0,,1,0,-1,8,1025,RJTY 131356Z AUTO 03009KT 10SM CLR 00/M08 A3026 RMK AO2 SLP259     T10051078 FZRANO $=,
20180113_150000.002,0,RJTY,,,,1,20180113140000,-1,-1,-1,-1,10,-1,8,-1,-1,-1,-1,,-1,0,0,0,,-1,1,-1,9,1025,RJTY 131456Z AUTO 01008KT 10SM CLR M01/M09 A3026 RMK AO2 SLP259     T10111090 400721068 51016 FZRANO $=,
20180113_160000.002,0,RJTY,,,,1,20180113150000,-1,-1,-1,-1,40,-1,6,-1,-1,-1,-1,,-1,0,0,0,,-1,1,-1,9,1025,RJTY 131556Z AUTO 04006KT 10SM CLR M01/M09 A3027 RMK AO2 SLP262     T10101091 FZRANO $=,
20180113_170000.002,0,RJTY,,,,1,20180113160000,-1,-1,-1,-1,10,-1,5,-1,-1,-1,-1,,-1,0,0,0,,-1,4,-1,10,1025,RJTY 131656Z AUTO 01005KT 10SM CLR M04/M10 A3027 RMK AO2 SLP263     T10371099 FZRANO $=,
20180113_180000.002,0,RJTY,,,,1,20180113170000,-1,-1,-1,-1,310,-1,4,-1,-1,-1,-1,,-1,0,0,0,,-1,2,-1,9,1026,RJTY 131756Z AUTO 31004KT 10SM CLR M02/M09 A3029 RMK AO2 SLP268     T10201092 10004 21042 52009 FZRANO $=,
20180113_190000.001,0,RJTY,,,,1,20180113180000,-1,-1,-1,-1,360,-1,7,-1,-1,-1,-1,,-1,0,0,0,,-1,2,-1,9,1026,RJTY 131856Z AUTO 36007KT 10SM CLR M02/M09 A3030 RMK AO2 SLP272     T10171091 FZRANO $=,
20180113_200000.001,0,RJTY,,,,1,20180113190000,-1,-1,-1,-1,10,-1,3,-1,-1,-1,-1,,-1,0,0,0,,-1,1,-1,10,1026,RJTY 131956Z AUTO 01003KT 10SM CLR M01/M10 A3031 RMK AO2 SLP276     T10131102 FZRANO $=,
20180113_210000.002,0,RJTY,,,,1,20180113200000,-1,-1,-1,-1,10,-1,12,-1,-1,-1,-1,,-1,0,0,0,,-1,2,-1,9,1027,RJTY 132056Z AUTO 01012KT 10SM CLR M02/M09 A3032 RMK AO2 SLP280     T10191095 52010 FZRANO $=,
20180113_220000.002,0,RJTY,,,,1,20180113210000,-1,-1,-1,-1,360,-1,9,-1,-1,-1,-1,,-1,0,0,0,,1,0,-1,10,1027,RJTY 132156Z AUTO 36009KT 10SM CLR 00/M10 A3034 RMK AO2 SLP287     T10051104 FZRANO $=,
20180113_230000.002,0,RJTY,,,,1,20180113220000,-1,-1,-1,-1,10,-1,10,-1,-1,-1,-1,,-1,0,0,0,,1,1,-1,10,1028,RJTY 132256Z AUTO 01010KT 10SM CLR 01/M10 A3036 RMK AO2 SLP294     T00131105 FZRANO $=,
20180114_000000.001,0,RJTY,,,,1,20180113230000,-1,-1,-1,-1,360,-1,11,-1,15,-1,-1,,-1,0,0,0,,1,4,-1,11,1029,RJTY 132356Z AUTO 36011G15KT 10SM CLR 04/M11 A3040 RMK AO2     SLP306 T00441113 10044 21035 52027 FZRANO $=,
20180114_010000.002,0,RJTY,,,,1,20180114000000,-1,-1,-1,-1,360,-1,12,-1,-1,-1,-1,,-1,0,0,0,,1,6,-1,12,1030,RJTY 140056Z AUTO 36012KT 10SM CLR 06/M12 A3041 RMK AO2 SLP310     T00571119 FZRANO $=,
20180114_020000.002,0,RJTY,,,,1,20180114010000,-1,-1,-1,-1,10,-1,13,-1,20,-1,-1,,-1,0,0,0,,1,7,-1,12,1030,RJTY 140156Z AUTO 01013G20KT 10SM CLR 07/M12 A3041 RMK AO2     SLP309 T00671120 FZRANO $=,
20180114_030000.002,0,RJTY,,,,1,20180114020000,-1,-1,-1,-1,360,-1,10,-1,-1,-1,-1,,-1,0,0,0,,1,8,-1,13,1029,RJTY 140256Z AUTO 36010KT 10SM CLR 08/M13 A3039 RMK AO2 SLP302     T00771127 58005 FZRANO $=,
20180114_040000.002,0,RJTY,,,,1,20180114030000,-1,-1,-1,-1,40,-1,8,-1,-1,-1,-1,,-1,0,0,0,,1,8,-1,11,1028,RJTY 140356Z AUTO 04008KT 10SM CLR 08/M11 A3036 RMK AO2 SLP292     T00821112 FZRANO $=,
20180114_050000.002,0,RJTY,,,,1,20180114040000,-1,-1,-1,-1,60,-1,7,-1,-1,-1,-1,,-1,0,0,0,,1,8,-1,11,1028,RJTY 140456Z AUTO 06007KT 10SM CLR 08/M11 A3037 RMK AO2 SLP296     T00811108 FZRANO $=,
20180114_060000.001,0,RJTY,,,,1,20180114050000,-1,-1,-1,-1,80,-1,6,-1,-1,-1,-1,,-1,0,0,0,,1,8,-1,10,1029,RJTY 140556Z AUTO 08006KT 10SM CLR 08/M10 A3038 RMK AO2 SLP299     T00801104 10083 20045 55000 FZRANO $=,
20180114_070000.002,0,RJTY,,,,1,20180114060000,-1,-1,-1,-1,60,-1,6,-1,-1,-1,-1,,-1,0,0,0,,1,7,-1,10,1030,RJTY 140656Z AUTO 06006KT 10SM CLR 07/M10 A3041 RMK AO2 SLP309     T00701098 FZRANO $=,
20180114_080000.002,0,RJTY,,,,1,20180114070000,-1,-1,-1,-1,110,-1,3,-1,-1,-1,-1,,-1,0,0,0,,1,4,-1,10,1030,RJTY 140756Z AUTO 11003KT 10SM CLR 04/M10 A3042 RMK AO2 SLP314     T00431098 FZRANO $=,
20180114_090000.002,0,RJTY,,,,1,20180114080000,-1,-1,-1,-1,0,-1,0,-1,-1,-1,-1,,-1,1,0,0,,1,4,-1,10,1030,RJTY 140856Z AUTO 00000KT 10SM R36/4500FT CLR 04/M10 A3043 RMK     AO2 SLP317 T00401101 52014 FZRANO $=,
20180114_100000.002,0,RJTY,,,,1,20180114090000,-1,-1,-1,-1,0,-1,0,-1,-1,-1,-1,,-1,1,0,0,,1,3,-1,7,1030,RJTY 140956Z AUTO 00000KT 10SM R18/4500FT CLR 03/M07 A3043 RMK     AO2 SLP317 T00281074 FZRANO $=,
20180114_110000.002,0,RJTY,,,,1,20180114100000,-1,-1,-1,-1,0,-1,0,-1,-1,-1,-1,,-1,1,0,0,,1,1,-1,8,1031,RJTY 141056Z AUTO 00000KT 10SM R18/4500FT CLR 01/M08 A3044 RMK     AO2 SLP321 T00111077 FZRANO $=,
20180114_120000.002,0,RJTY,,,,1,20180114110000,-1,-1,-1,-1,0,-1,0,-1,-1,-1,-1,,-1,1,0,0,,1,0,-1,8,1031,RJTY 141156Z AUTO 00000KT 10SM R18/4500FT CLR 00/M08 A3044 RMK     AO2 SLP320 T00041076 10080 20004 53004 FZRANO $=,
20180114_130000.001,0,RJTY,,,,1,20180114120000,-1,-1,-1,-1,0,-1,0,-1,-1,-1,-1,,-1,1,0,0,,-1,1,-1,8,1031,RJTY 141256Z AUTO 00000KT 10SM R36/4500FT CLR M01/M08 A3044 RMK     AO2 SLP320 T10061081 FZRANO $=,
20180114_140000.002,0,RJTY,,,,1,20180114130000,-1,-1,-1,-1,280,-1,3,-1,-1,-1,-1,,-1,0,0,0,,-1,1,-1,8,1031,RJTY 141356Z AUTO 28003KT 10SM CLR M01/M08 A3044 RMK AO2 SLP319     T10071079 FZRANO $=,
20180114_150000.002,0,RJTY,,,,1,20180114140000,-1,-1,-1,-1,280,-1,3,-1,-1,-1,-1,,-1,0,0,0,,-1,1,-1,8,1030,RJTY 141456Z AUTO 28003KT 10SM CLR M01/M08 A3043 RMK AO2 SLP316     T10121080 400831042 58004 FZRANO $=,
20180114_160000.002,0,RJTY,,,,1,20180114150000,-1,-1,-1,-1,0,-1,0,-1,-1,-1,-1,,-1,0,0,0,,-1,1,-1,8,1030,RJTY 141556Z AUTO 00000KT 10SM CLR M01/M08 A3041 RMK AO2 SLP309     T10151085 FZRANO $=,
20180114_170000.002,0,RJTY,,,,1,20180114160000,-1,-1,-1,-1,0,-1,0,-1,-1,-1,-1,,-1,0,0,0,,-1,4,-1,9,1030,RJTY 141656Z AUTO 00000KT 10SM CLR M04/M09 A3041 RMK AO2 SLP310     T10371091 FZRANO $=,
20180114_180000.001,0,RJTY,,,,1,20180114170000,-1,-1,-1,-1,340,-1,3,-1,-1,-1,-1,,-1,0,0,0,,-1,5,-1,9,1029,RJTY 141756Z AUTO 34003KT 10SM CLR M05/M09 A3038 RMK AO2 SLP300     T10471090 10004 21052 57014 FZRANO $=,
20180114_190000.002,0,RJTY,,,,1,20180114180000,-1,-1,-1,-1,0,-1,0,-1,-1,-1,-1,,-1,0,0,0,,-1,5,-1,10,1028,RJTY 141856Z AUTO 00000KT 10SM CLR M05/M10 A3037 RMK AO2 SLP297     T10541097 FZRANO $=,
20180114_200000.001,0,RJTY,,,,1,20180114190000,-1,-1,-1,-1,290,-1,3,-1,-1,-1,-1,,-1,0,0,0,,-1,3,-1,8,1028,RJTY 141956Z AUTO 29003KT 10SM CLR M03/M08 A3035 RMK AO2 SLP290     T10321083 FZRANO $=,
20180114_210000.002,0,RJTY,,,,1,20180114200000,-1,-1,-1,-1,0,-1,0,-1,-1,-1,-1,,-1,0,0,0,,-1,4,-1,9,1027,RJTY 142056Z AUTO 00000KT 10SM CLR M04/M09 A3034 RMK AO2 SLP287     T10361088 57013 FZRANO $=,
20180114_220000.002,0,RJTY,,,,1,20180114210000,-1,-1,-1,-1,0,-1,0,-1,-1,-1,-1,,-1,0,0,0,,-1,5,-1,10,1027,RJTY 142156Z AUTO 00000KT 10SM CLR M05/M10 A3034 RMK AO2 SLP288     T10511096 FZRANO $=,
20180114_230000.002,0,RJTY,,,,1,20180114220000,-1,-1,-1,-1,0,-1,0,-1,-1,-1,-1,,-1,0,0,0,,-1,3,-1,7,1027,RJTY 142256Z AUTO 00000KT 10SM CLR M03/M07 A3033 RMK AO2 SLP285     T10321074 FZRANO $=,
20180115_000000.004,0,RJTY,,,,1,20180114230000,-1,-1,-1,-1,0,-1,0,-1,-1,-1,-1,,-1,0,0,0,,1,1,-1,6,1027,RJTY 142356Z AUTO 00000KT 10SM CLR 01/M06 A3033 RMK AO2 SLP283     T00081061 10008 21059 58005 FZRANO $=,
20180115_010000.002,0,RJTY,,,,1,20180115000000,-1,-1,-1,-1,10,-1,5,-1,-1,-1,-1,,-1,0,0,0,,1,4,-1,8,1027,RJTY 150056Z AUTO 01005KT 10SM CLR 04/M08 A3032 RMK AO2 SLP279     T00401084 FZRANO $=,
20180115_020000.002,0,RJTY,,,,1,20180115010000,-1,-1,-1,-1,70,-1,5,-1,-1,-1,-1,,-1,0,0,0,,1,5,-1,8,1025,RJTY 150156Z AUTO 07005KT 10SM CLR 05/M08 A3027 RMK AO2 SLP262     T00531079 FZRANO $=,
20180115_020000.006,1,RJTY,,,,1,20180115010000,-1,-1,-1,-1,70,-1,5,-1,-1,-1,-1,,-1,0,0,1,OVC 170,1,5,-1,8,1025,RJTY 150156Z AUTO 07005KT 10SM OVC170 05/M08 A3027 RMK AO2     SLP262 T00531079 FZRANO $ COR 0237=,
20180115_030000.002,0,RJTY,,,,0,20180115020000,-1,-1,-1,-1,70,-1,3,-1,-1,-1,-1,,-1,0,0,1,BKN 170,1,7,-1,7,1023,RJTY 150256Z 07003KT 10SM BKN170 07/M07 A3022 RMK AO2A SLP245     T00661071 57037 FZRANO $=,
20180115_040000.002,0,RJTY,,,,0,20180115030000,-1,-1,-1,-1,0,-1,0,-1,-1,-1,-1,,-1,0,0,1,BKN 170,1,7,-1,7,1022,RJTY 150356Z 00000KT 10SM BKN170 07/M07 A3018 RMK AO2A SLP231     T00711066 FZRANO $=,
20180115_050000.005,1,RJTY,,,,1,20180115040000,-1,-1,-1,-1,20,-1,9,-1,-1,-1,-1,,-1,0,0,0,,1,8,-1,6,1021,RJTY 150456Z AUTO 02009KT 10SM CLR 08/M06 A3014 RMK AO2 SLP218     T00761065 FZRANO $=,
20180115_050000.005,1,RJTY,,,,1,20180115040000,-1,-1,-1,-1,20,-1,9,-1,-1,-1,-1,,-1,0,0,1,SCT 200,1,8,-1,6,1021,RJTY 150456Z AUTO 02009KT 10SM SCT200 08/M06 A3014 RMK AO2     SLP218 T00761065 FZRANO $ COR 0509=,
20180115_060000.002,0,RJTY,,,,0,20180115050000,-1,-1,-1,-1,40,-1,5,-1,-1,-1,-1,,-1,0,0,1,FEW 200,1,8,-1,6,1020,RJTY 150556Z 04005KT 10SM FEW200 08/M06 A3012 RMK AO2A SLP211     T00761062 10079 20009 57033 FZRANO $=,
20180115_070000.003,0,RJTY,,,,1,20180115060000,-1,-1,-1,-1,50,-1,6,-1,-1,-1,-1,,-1,0,0,0,,1,8,-1,6,1020,RJTY 150656Z AUTO 05006KT 10SM CLR 08/M06 A3011 RMK AO2 SLP209     T00751059 FZRANO $=,
20180115_080000.002,0,RJTY,,,,1,20180115070000,-1,-1,-1,-1,10,-1,4,-1,-1,-1,-1,,-1,0,0,0,,1,4,-1,7,1020,RJTY 150756Z AUTO 01004KT 10SM CLR 04/M07 A3012 RMK AO2 SLP213     T00361067 FZRANO $=,
20180115_090000.002,0,RJTY,,,,1,20180115080000,-1,-1,-1,-1,320,-1,4,-1,-1,-1,-1,,-1,1,0,0,,1,5,-1,6,1021,RJTY 150856Z AUTO 32004KT 10SM R36/4500FT CLR 05/M06 A3014 RMK     AO2 SLP219 T00481064 53007 FZRANO $=,
20180115_100000.002,0,RJTY,,,,1,20180115090000,-1,-1,-1,-1,280,-1,3,-1,-1,-1,-1,,-1,1,0,0,,1,3,-1,5,1021,RJTY 150956Z AUTO 28003KT 10SM R36/4500FT CLR 03/M05 A3014 RMK     AO2 SLP220 T00341046 FZRANO $=,
20180115_110000.002,0,RJTY,,,,1,20180115100000,-1,-1,-1,-1,0,-1,0,-1,-1,-1,-1,,-1,1,0,0,,1,0,-1,6,1021,RJTY 151056Z AUTO 00000KT 10SM R36/4500FT CLR 00/M06 A3015 RMK     AO2 SLP224 T00031057 FZRANO $=,
20180115_120000.002,0,RJTY,,,,1,20180115110000,-1,-1,-1,-1,270,-1,4,-1,-1,-1,-1,,-1,1,0,0,,1,1,-1,4,1021,RJTY 151156Z AUTO 27004KT 10SM R36/4500FT CLR 01/M04 A3014 RMK     AO2 UPB09E19 SLP219 P0000 60000 T00091041 10079 20000           55001 FZRANO $=,
20180115_120000.004,1,RJTY,,,,0,20180115110000,-1,-1,-1,-1,270,-1,4,-1,-1,-1,-1,,-1,1,0,0,,1,1,-1,4,1021,RJTY 151156Z 27004KT 10SM R36/4500FT CLR 01/M04 A3014 RMK     AO2 UPB09E19 SLP219 T00091041 10079 20000 55001 FZRANO $           COR 1205=,
20180115_130000.002,0,RJTY,,,,1,20180115120000,-1,-1,-1,-1,0,-1,0,-1,-1,-1,-1,,-1,1,0,0,,-1,1,-1,6,1021,RJTY 151256Z AUTO 00000KT 10SM R36/4500FT CLR M01/M06 A3014 RMK     AO2 SLP218 T10071057 FZRANO $=,
20180115_140000.002,0,RJTY,,,,1,20180115130000,-1,-1,-1,-1,0,-1,0,-1,-1,-1,-1,,-1,0,0,0,,-1,1,-1,5,1020,RJTY 151356Z AUTO 00000KT 10SM CLR M01/M05 A3013 RMK AO2 SLP215     T10061052 FZRANO $=,
20180115_150000.002,0,RJTY,,,,1,20180115140000,-1,-1,-1,-1,260,-1,3,-1,-1,-1,-1,,-1,0,0,0,,1,0,-1,5,1020,RJTY 151456Z AUTO 26003KT 10SM CLR 00/M05 A3012 RMK AO2 SLP211     T00041046 400791059 57005 FZRANO $=,
20180115_160000.002,0,RJTY,,,,1,20180115150000,-1,-1,-1,-1,0,-1,0,-1,-1,-1,-1,,-1,0,0,0,,-1,2,-1,6,1021,RJTY 151556Z AUTO 00000KT 10SM CLR M02/M06 A3014 RMK AO2 SLP217     T10171057 FZRANO $=,
20180115_170000.002,0,RJTY,,,,1,20180115160000,-1,-1,-1,-1,0,-1,0,-1,-1,-1,-1,,-1,0,0,0,,1,0,-1,5,1021,RJTY 151656Z AUTO 00000KT 10SM CLR 00/M05 A3015 RMK AO2 SLP220     T10021054 FZRANO $=,
20180115_180000.002,0,RJTY,,,,1,20180115170000,-1,-1,-1,-1,0,-1,0,-1,-1,-1,-1,,-1,0,0,0,,1,0,-1,5,1021,RJTY 151756Z AUTO 00000KT 10SM CLR 00/M05 A3014 RMK AO2 SLP217     T00031055 10021 21023 50005 FZRANO $=,
20180115_190000.002,0,RJTY,,,,1,20180115180000,-1,-1,-1,-1,300,-1,5,-1,-1,-1,-1,,-1,0,0,0,,1,0,-1,6,1021,RJTY 151856Z AUTO 30005KT 10SM CLR 00/M06 A3014 RMK AO2 SLP217     T10011063 FZRANO $=,
20180115_200000.002,0,RJTY,,,,1,20180115190000,-1,-1,-1,-1,0,-1,0,-1,-1,-1,-1,,-1,0,0,0,,1,0,-1,6,1021,RJTY 151956Z AUTO 00000KT 10SM CLR 00/M06 A3014 RMK AO2 SLP218     T00041058 FZRANO $=,
20180115_210000.002,0,RJTY,,,,1,20180115200000,-1,-1,-1,-1,0,-1,0,-1,-1,-1,-1,,-1,0,0,0,,1,1,-1,6,1021,RJTY 152056Z AUTO 00000KT 10SM CLR 01/M06 A3015 RMK AO2 SLP221     T00111058 50004 FZRANO $=,
20180115_220000.002,0,RJTY,,,,1,20180115210000,-1,-1,-1,-1,0,-1,0,-1,-1,-1,-1,,-1,0,0,0,,1,1,-1,6,1022,RJTY 152156Z AUTO 00000KT 10SM CLR 01/M06 A3017 RMK AO2 SLP228     T00111056 FZRANO $=,
20180115_230000.002,0,RJTY,,,,1,20180115220000,-1,-1,-1,-1,0,-1,0,-1,-1,-1,-1,,-1,0,0,0,,1,1,-1,4,1023,RJTY 152256Z AUTO 00000KT 10SM CLR 01/M04 A3020 RMK AO2 SLP239     T00101042 FZRANO $=,
20180116_000000.004,0,RJTY,,,,1,20180115230000,-1,-1,-1,-1,120,-1,3,-1,-1,-1,-1,,-1,0,0,0,,1,4,-1,3,1023,RJTY 152356Z AUTO 12003KT 10SM CLR 04/M03 A3022 RMK AO2 SLP245     T00401035 10040 21014 52023 FZRANO $=,
20180116_010000.002,0,RJTY,,,,1,20180116000000,-1,-1,-1,-1,180,-1,5,-1,-1,-1,-1,,-1,0,0,0,,1,6,-1,3,1023,RJTY 160057Z AUTO 18005KT 10SM CLR 06/M03 A3022 RMK AO2 SLP245     T00571034 FZRANO $=,
20180116_010000.004,1,RJTY,,,,1,20180116000000,-1,-1,-1,-1,180,-1,5,-1,-1,-1,-1,,-1,0,0,1,SCT 200,1,6,-1,3,1023,RJTY 160057Z AUTO 18005KT 10SM SCT200 06/M03 A3022 RMK AO2     SLP245 T00571034 FZRANO $ COR 0144=,
20180116_020000.002,0,RJTY,,,,0,20180116010000,-1,-1,-1,-1,110,-1,4,-1,-1,-1,-1,,-1,0,0,1,SCT 200,1,8,-1,3,1023,RJTY 160156Z 11004KT 10SM SCT200 08/M03 A3020 RMK AO2A SLP237     T00791033 FZRANO $=,
20180116_030000.002,0,RJTY,,,,0,20180116020000,-1,-1,-1,-1,130,-1,5,-1,-1,-1,-1,,-1,0,0,1,SCT 200,1,10,-1,3,1022,RJTY 160256Z 13005KT 10SM SCT200 10/M03 A3017 RMK AO2A SLP226     T00991034 58018 FZRANO $=,
20180116_040000.002,0,RJTY,,,,0,20180116030000,-1,-1,-1,-1,120,-1,4,-1,-1,-1,-1,,-1,0,0,1,BKN 200,1,11,-1,3,1020,RJTY 160356Z 12004KT 10SM BKN200 11/M03 A3013 RMK AO2A SLP213     T01081033 FZRANO $=,
20180116_050000.004,1,RJTY,,,,0,20180116040000,-1,-1,-1,-1,130,-1,4,-1,-1,-1,-1,,-1,0,0,1,BKN 200,1,12,-1,3,1020,RJTY 160456Z 13004KT 10SM BKN200 12/M03 A3012 RMK AO2A SLP209     T01171033 FZRANO $=,
20180116_060000.002,0,RJTY,,,,0,20180116050000,-1,-1,-1,-1,0,-1,0,-1,-1,-1,-1,,-1,0,0,1,SCT 200,1,12,-1,3,1020,RJTY 160556Z 00000KT 10SM SCT200 12/M03 A3011 RMK AO2A SLP205     T01231031 10125 20041 56018 FZRANO $=,
20180116_070000.002,0,RJTY,,,,0,20180116060000,-1,-1,-1,-1,170,-1,4,-1,-1,-1,-1,,-1,0,0,1,SCT 200,1,12,-1,4,1020,RJTY 160656Z 17004KT 10SM SCT200 12/M04 A3012 RMK AO2A SLP209     T01181040 FZRANO $=,
20180116_080000.002,0,RJTY,,,,0,20180116070000,-1,-1,-1,-1,180,-1,4,-1,-1,-1,-1,,-1,0,0,1,BKN 200,1,9,-1,4,1019,RJTY 160756Z 18004KT 10SM BKN200 09/M04 A3008 RMK AO2A SLP196     T00931036 FZRANO $=,
20180116_090000.002,0,RJTY,,,,1,20180116080000,-1,-1,-1,-1,280,-1,6,-1,-1,-1,-1,,-1,1,0,0,,1,9,-1,2,1019,RJTY 160856Z AUTO 28006KT 10SM R36/4500FT CLR 09/M02 A3009 RMK     AO2 SLP199 T00881019 58008 FZRANO $=,
20180116_100000.002,0,RJTY,,,,1,20180116090000,-1,-1,-1,-1,0,-1,0,-1,-1,-1,-1,,-1,1,0,0,,1,7,-1,2,1019,RJTY 160956Z AUTO 00000KT 10SM R36/4500FT CLR 07/M02 A3009 RMK     AO2 SLP200 T00661020 FZRANO $=,
20180116_110000.004,0,RJTY,,,,1,20180116100000,-1,-1,-1,-1,0,-1,0,-1,-1,-1,-1,,-1,1,0,0,,1,6,-1,2,1019,RJTY 161056Z AUTO 00000KT 10SM R36/4500FT CLR 06/M02 A3008 RMK     AO2 SLP196 T00581018 FZRANO $=,
20180116_120000.002,0,RJTY,,,,1,20180116110000,-1,-1,-1,-1,0,-1,0,-1,-1,-1,-1,,-1,1,0,0,,1,4,-1,2,1018,RJTY 161156Z AUTO 00000KT 10SM R36/4500FT CLR 04/M02 A3007 RMK     AO2 SLP193 T00421020 10124 20042 58007 FZRANO $=,
20180116_130000.002,0,RJTY,,,,1,20180116120000,-1,-1,-1,-1,0,-1,0,-1,-1,-1,-1,,-1,1,0,0,,1,4,-1,2,1019,RJTY 161256Z AUTO 00000KT 10SM R36/4500FT CLR 04/M02 A3008 RMK     AO2 SLP196 T00351021 FZRANO $=,
20180116_140000.002,0,RJTY,,,,1,20180116130000,-1,-1,-1,-1,280,-1,7,-1,-1,-1,-1,,-1,0,0,0,,1,4,-1,2,1018,RJTY 161356Z AUTO 28007KT 10SM CLR 04/M02 A3007 RMK AO2 SLP192     T00421018 FZRANO $=,
20180116_150000.004,0,RJTY,,,,1,20180116140000,-1,-1,-1,-1,0,-1,0,-1,-1,-1,-1,,-1,0,0,0,,1,3,-1,2,1018,RJTY 161456Z AUTO 00000KT 10SM CLR 03/M02 A3005 RMK AO2 SLP185     T00321021 401251023 58007 FZRANO $=,
20180116_160000.002,0,RJTY,,,,1,20180116150000,-1,-1,-1,-1,350,-1,3,-1,-1,-1,-1,,-1,0,0,0,,1,3,-1,2,1018,RJTY 161556Z AUTO 35003KT 10SM CLR 03/M02 A3005 RMK AO2 SLP184     T00301019 FZRANO $=,
20180116_170000.002,0,RJTY,,,,1,20180116160000,-1,-1,-1,-1,0,-1,0,-1,-1,-1,-1,,-1,0,0,0,,1,1,-1,2,1018,RJTY 161656Z AUTO 00000KT 10SM CLR 01/M02 A3005 RMK AO2 SLP185     T00141025 FZRANO $=,
20180116_180000.002,0,RJTY,,,,1,20180116170000,-1,-1,-1,-1,0,-1,0,-1,-1,-1,-1,,-1,0,0,0,,1,3,-1,2,1017,RJTY 161756Z AUTO 00000KT 10SM CLR 03/M02 A3002 RMK AO2 SLP173     T00251019 10050 21004 55008 FZRANO $=,
20180116_190000.002,0,RJTY,,,,1,20180116180000,-1,-1,-1,-1,0,-1,0,-1,-1,-1,-1,,-1,0,0,1,FEW 180,1,3,-1,2,1017,RJTY 161856Z AUTO 00000KT 10SM FEW180 03/M02 A3003 RMK AO2     SLP177 T00271020 FZRANO $=,
20180116_200000.002,0,RJTY,,,,1,20180116190000,-1,-1,-1,-1,0,-1,0,-1,-1,-1,-1,,-1,0,0,0,,1,3,-1,2,1016,RJTY 161956Z AUTO 00000KT 10SM CLR 03/M02 A3001 RMK AO2 SLP171     T00311016 FZRANO $=,
20180116_210000.002,0,RJTY,,,,1,20180116200000,-1,-1,-1,-1,40,-1,4,-1,-1,-1,-1,,-1,0,0,1,FEW 65,1,3,-1,2,1017,RJTY 162056Z AUTO 04004KT 10SM FEW065 03/M02 A3002 RMK AO2     SLP175 T00281017 58002 FZRANO $=,
20180116_220000.002,0,RJTY,,,,0,20180116210000,-1,-1,-1,-1,350,-1,6,-1,-1,-1,-1,,-1,0,0,2,FEW 30   SCT 150,1,3,-1,1,1017,RJTY 162156Z 35006KT 10SM FEW030 SCT150 03/M01 A3003 RMK AO2A     SLP179 T00301014 FZRANO $=,
20180116_230000.005,1,RJTY,,,,0,20180116220000,-1,-1,-1,-1,340,-1,4,-1,-1,-1,-1,,-1,0,0,1,BKN 60,1,4,1,0,1018,RJTY 162256Z 34004KT 10SM BKN060 04/00 A3006 RMK AO2A SLP189     T00361004 FZRANO $=,
20180116_230000.006,1,RJTY,,,,0,20180116220000,-1,-1,-1,-1,340,-1,4,-1,-1,-1,-1,,-1,0,0,3,FEW 30   BKN 60   BKN 150,1,4,1,0,1018,RJTY 162256Z 34004KT 10SM FEW030 BKN060 BKN150 04/00 A3006     RMK AO2A SLP189 T00361004 FZRANO $ COR 2311=,
20180117_000000.005,0,RJTY,,,,0,20180116230000,-1,-1,-1,-1,20,-1,5,-1,-1,-1,-1,,-1,0,0,2,BKN 55   BKN 190,1,5,-1,1,1018,RJTY 162356Z 02005KT 10SM BKN055 BKN190 05/M01 A3006 RMK AO2A     SLP190 T00491009 10051 20012 51013 FZRANO $=,
20180117_010000.002,0,RJTY,,,,0,20180117000000,-1,-1,-1,-1,360,-1,6,-1,-1,-1,-1,,-1,0,0,1,OVC 50,1,6,1,1,1018,RJTY 170056Z 36006KT 10SM OVC050 06/01 A3005 RMK AO2A SLP185     T00640011 FZRANO $=,
20180117_020000.004,0,RJTY,,,,0,20180117010000,-1,-1,-1,-1,10,-1,7,-1,-1,-1,-1,,-1,0,0,1,OVC 46,1,7,1,1,1017,RJTY 170156Z 01007KT 10SM OVC046 07/01 A3003 RMK AO2A SLP178     T00700013 FZRANO $=,
20180117_030000.002,0,RJTY,,,,0,20180117020000,-1,-1,-1,-1,30,-1,8,-1,-1,-1,-1,,-1,0,1,2,FEW 26   OVC 46,1,8,1,2,1016,RJTY 170256Z 03008KT 6SM BR FEW026 OVC046 08/02 A2999 RMK AO2A     SLP164 T00790024 58022 FZRANO $=,BR
20180117_040000.003,0,RJTY,,,,0,20180117030000,-1,-1,-1,-1,30,-1,7,-1,-1,-1,-1,,-1,0,2,2,BKN 22   OVC 45,1,8,1,3,1014,RJTY 170356Z 03007KT 6SM -RA BR BKN022 OVC045 08/03 A2995 RMK     AO2A RAB05 CIG 021 RWY18 SLP151 P0000 T00780033 FZRANO $=,- RA; BR
20180117_050000.005,1,RJTY,,,,0,20180117040000,-1,-1,-1,-1,20,-1,7,-1,-1,-1,-1,,-1,0,2,2,BKN 21   OVC 40,1,8,1,4,1014,RJTY 170456Z 02007KT 3SM -RA BR BKN021 OVC040 08/04 A2994 RMK     AO2A SLP148 P0000 T00770043 FZRANO $=,- RA; BR
20180117_060000.002,0,RJTY,,,,0,20180117050000,-1,-1,-1,-1,10,-1,6,-1,-1,-1,-1,,-1,0,1,1,BKN 24,1,8,1,4,1013,RJTY 170556Z 01006KT 5SM HZ BKN024 08/04 A2991 RMK AO2A     RAE0456RAB33E51DZB51E53 SLP138 P0000 60000 T00800044 10083           20050 57028 FZRANO $=,HZ
20180117_070000.002,0,RJTY,,,,0,20180117060000,-1,-1,-1,-1,360,-1,7,-1,-1,-1,-1,,-1,0,1,1,OVC 26,1,7,1,5,1013,RJTY 170656Z 36007KT 5SM -RA OVC026 07/05 A2990 RMK AO2A RAB16     SLP134 P0002 T00740050 FZRANO $=,- RA
20180117_080000.002,0,RJTY,,,,0,20180117070000,-1,-1,-1,-1,30,-1,7,-1,-1,-1,-1,,-1,0,2,2,FEW 11   BKN 31,1,7,1,6,1011,RJTY 170756Z 03007KT 3SM -RA BR FEW011 BKN031 07/06 A2987 RMK     AO2A TWR VIS 2 SLP124 P0017 T00690057 FZRANO $=,- RA; BR
20180117_090000.003,0,RJTY,,,,0,20180117080000,-1,-1,-1,-1,10,-1,6,-1,-1,-1,-1,,-1,0,1,2,SCT 7   OVC 17,1,7,1,6,1010,RJTY 170856Z 01006KT 5SM BR SCT007 OVC017 07/06 A2983 RMK AO2A     RAE26RAB27E42 CIG 007V017 SLP111 P0006 60025 T00670060           57026 FZRANO $=,BR
20180117_100000.005,1,RJTY,,,,1,20180117090000,-1,-1,-1,-1,10,-1,10,-1,-1,-1,-1,,-1,0,2,3,FEW 6   BKN 11   OVC 18,1,7,1,6,1010,RJTY 170956Z AUTO 01010KT 5SM -RA BR FEW006 BKN011 OVC018 07/06     A2983 RMK AO2 RAB11E21RAB24E40DZB40E42RAB49 CIG 011V020           CIG 009 RWY18 SLP111 P0001 T00660062 FZRANO $=,- RA; BR
20180117_100000.006,1,RJTY,,,,0,20180117100000,-1,-1,-1,-1,20,-1,10,-1,-1,-1,-1,,-1,0,2,2,SCT 8   OVC 18,0,-1,0,-1,-1,RJTY 171014Z 02010KT 4SM -DZ BR SCT008 OVC018 RMK AO2A     RAE04RAB07 SLPNO RVRNO FZRANO $=,- DZ; BR
20180117_100000.007,1,RJTY,,,,0,20180117100000,-1,-1,-1,-1,20,-1,10,-1,-1,-1,-1,,-1,0,2,2,SCT 8   OVC 18,1,7,1,6,1009,RJTY 171014Z 02010KT 4SM -DZ BR SCT008 OVC018 07/06 A2981     RMK AO2A RAE04RAB07 SLPNO RVRNO FZRANO $ COR 1043=,- DZ; BR
20180117_110000.005,1,RJTY,,,,0,20180117110000,-1,-1,-1,-1,350,-1,6,-1,-1,-1,-1,,-1,0,1,2,BKN 17   OVC 24,1,7,1,7,1010,RJTY 171102Z 35006KT 6SM BR BKN017 OVC024 07/07 A2982 RMK AO2A     SLPNO 10083 20065 RVRNO FZRANO $=,BR
20180117_110000.005,1,RJTY,,,,1,20180117100000,-1,-1,-1,-1,340,-1,7,-1,-1,-1,-1,,-1,0,1,2,BKN 17   OVC 24,1,7,1,6,1009,RJTY 171056Z AUTO 34007KT 6SM BR BKN017 OVC024 07/06 A2981 RMK     AO2 DZE14RAB14E34 CIG 017V024 CIG 016 RWY18 SLP104 P0000           T00680064 FZRANO $=,BR
20180117_120000.003,0,RJTY,,,,0,20180117110000,-1,-1,-1,-1,10,-1,3,-1,-1,-1,-1,,-1,0,2,1,OVC 15,1,7,1,6,1009,RJTY 171156Z 01003KT 4SM -RA BR OVC015 07/06 A2980 RMK AO2A     RAB43 PRESRR SLP100 P0002 60028 T00690060 10081 20065           FZRANO $=,- RA; BR
20180117_130000.004,1,RJTY,,,,0,20180117120000,-1,-1,-1,-1,30,-1,4,-1,-1,-1,-1,,-1,0,1,1,OVC 14,1,7,1,6,1009,RJTY 171256Z 03004KT 6SM BR OVC014 07/06 A2979 RMK AO2A RAE15     SLP096 P0000 T00690063 FZRANO $=,BR
20180117_140000.002,0,RJTY,,,,1,20180117130000,-1,-1,-1,-1,0,-1,0,-1,-1,-1,-1,,-1,0,1,2,BKN 17   OVC 32,1,7,1,6,1008,RJTY 171356Z AUTO 00000KT 6SM BR BKN017 OVC032 07/06 A2978 RMK     AO2 CIG 013V019 SLP092 T00690063 FZRANO $=,BR
20180117_150000.002,0,RJTY,,,,1,20180117140000,-1,-1,-1,-1,350,-1,3,-1,-1,-1,-1,,-1,0,1,2,BKN 5   OVC 22,1,7,1,6,1009,RJTY 171456Z AUTO 35003KT 3SM BR BKN005 OVC022 07/06 A2980 RMK     AO2 VIS 2 1/4 RWY18 CIG 005V022 BKN V SCT SLP099 60000           T00650061 400831004 53001 FZRANO $=,BR
20180117_160000.002,0,RJTY,,,,1,20180117150000,-1,-1,-1,-1,10,-1,8,-1,-1,-1,-1,,-1,0,1,1,OVC 2,1,6,1,6,1009,RJTY 171556Z AUTO 01008KT 1 1/4SM BR OVC002 06/06 A2980 RMK AO2     SLP099 T00600059 FZRANO $=,BR
20180117_170000.002,0,RJTY,,,,1,20180117160000,-1,-1,-1,-1,360,-1,5,-1,-1,-1,-1,,-1,0,1,1,VV 2,1,6,1,6,1010,RJTY 171656Z AUTO 36005KT 5/8SM BR VV002 06/06 A2982 RMK AO2     SLP106 T00590058 RVRNO FZRANO $=,BR
20180117_180000.002,0,RJTY,,,,1,20180117170000,-1,-1,-1,-1,320,-1,3,-1,-1,-1,-1,,-1,0,1,1,VV 2,1,6,1,6,1010,RJTY 171756Z AUTO 32003KT 1/2SM FG VV002 06/06 A2983 RMK AO2     SLP109 60000 T00580057 10071 20057 53010 RVRNO FZRANO $=,FG
20180117_190000.001,0,RJTY,,,,1,20180117180000,-1,-1,-1,-1,250,-1,4,-1,-1,-1,-1,,-1,0,2,1,VV 2,1,6,1,5,1011,RJTY 171856Z AUTO 25004KT 5/8SM -DZ BR VV002 06/05 A2986 RMK     AO2 DZB52 SLP120 P0000 T00550054 RVRNO FZRANO $=,- DZ; BR
20180117_200000.002,0,RJTY,,,,1,20180117190000,-1,-1,-1,-1,0,-1,0,-1,-1,-1,-1,,-1,0,1,1,VV 0,1,5,1,5,1012,RJTY 171956Z AUTO 00000KT 1/4SM FG VV000 05/05 A2988 RMK AO2     DZE01 SLP127 P0000 T00470046 RVRNO FZRANO $=,FG
20180117_210000.002,0,RJTY,,,,1,20180117200000,-1,-1,-1,-1,0,-1,0,-1,-1,-1,-1,,-1,0,1,1,VV 1,1,4,1,4,1012,RJTY 172056Z AUTO 00000KT 1/4SM FG VV001 04/04 A2989 RMK AO2     CIG 000 RWY18 SLP131 60000 T00410040 52022 RVRNO FZRANO $=,FG
20180117_220000.005,1,RJTY,,,,0,20180117210000,-1,-1,-1,-1,200,-1,6,-1,-1,-1,-1,,-1,1,1,1,VV 1,1,4,1,4,1013,RJTY 172158Z 20006KT 1/8SM R36/0600V1000FT FG VV001 04/04 A2991     RMK AO2A CIG 000 RWY18 SLP138 T00430043 FZRANO $=,FG
20180117_220000.006,1,RJTY,,,,1,20180117210000,-1,-1,-1,-1,200,-1,6,-1,-1,-1,-1,,-1,1,1,1,VV 1,1,4,1,4,1013,RJTY 172156Z AUTO 20006KT 1/8SM R36/0600V1000FT FG VV001 04/04     A2991 RMK AO2 RAB18E31RAB37E47 CIG 000 RWY18 SLP138 P0000           T00430043 FZRANO $=,FG
20180117_230000.004,1,RJTY,,,,1,20180117220000,-1,-1,-1,-1,220,-1,5,-1,-1,-1,-1,,-1,1,1,1,VV 1,1,5,1,5,1014,RJTY 172256Z AUTO 22005KT 1/8SM R36/1200V1800FT FG VV001 05/05     A2994 RMK AO2 CIG 000 RWY18 SLPNO T00480048 FZRANO $=,FG
20180118_000000.004,1,RJTY,,,,0,20180117230000,-1,-1,-1,-1,0,-1,0,-1,-1,-1,-1,,-1,1,1,1,VV 1,1,6,1,6,1015,RJTY 172356Z 00000KT 1/8SM R36/1400V1600FT FG VV001 06/06 A2997     RMK AO2A CIG 000 RWY18 SLP158 60000 70028 T00590059 10059           20035 52026 FZRANO $=,FG
20180118_010000.004,1,RJTY,,,,0,20180118000000,-1,-1,-1,-1,0,-1,0,-1,-1,-1,-1,,-1,0,1,1,OVC 2,1,7,1,7,1015,RJTY 180056Z 00000KT 1 1/2SM BR OVC002 07/07 A2997 RMK AO2A     SLP157 T00720072 FZRANO $=,BR
20180118_020000.004,1,RJTY,,,,1,20180118010000,-1,-1,-1,-1,0,-1,0,-1,-1,-1,-1,,-1,0,1,1,OVC 6,1,8,1,8,1014,RJTY 180156Z AUTO 00000KT 4SM BR OVC006 08/08 A2995 RMK AO2 CIG     005 RWY18 SLP150 T00830083 FZRANO $=,BR
20180118_020000.005,1,RJTY,,,,0,20180118010000,-1,-1,-1,-1,0,-1,0,-1,-1,-1,-1,,-1,0,1,1,OVC 6,1,8,1,8,1014,RJTY 180156Z 00000KT 3SM BR OVC006 08/08 A2995 RMK AO2A     SLP150 T00830083 FZRANO $ COR 0211=,BR
20180118_030000.005,1,RJTY,,,,1,20180118020000,-1,-1,-1,-1,190,-1,6,-1,-1,-1,-1,,-1,0,0,1,BKN 11,1,10,1,10,1014,RJTY 180256Z AUTO 19006KT 7SM BKN011 10/10 A2993 RMK AO2 SLP143     T01010101 FZRANO $=,
20180118_040000.005,1,RJTY,,,,1,20180118030000,-1,-1,-1,-1,150,-1,7,-1,-1,-1,-1,,-1,0,0,1,BKN 20,1,11,1,9,1013,RJTY 180356Z AUTO 15007KT 10SM BKN020 11/09 A2992 RMK AO2 CIG     019 RWY36 SLP139 T01070085 FZRANO $=,
20180118_050000.005,1,RJTY,,,,1,20180118040000,-1,-1,-1,-1,50,-1,3,-1,-1,-1,-1,,-1,0,0,2,BKN 22   OVC 27,1,11,1,7,1014,RJTY 180456Z AUTO 05003KT 10SM BKN022 OVC027 11/07 A2993 RMK     AO2 SLP142 T01140071 FZRANO $=,
20180118_060000.002,0,RJTY,,,,1,20180118050000,-1,-1,-1,-1,0,-1,0,-1,-1,-1,-1,,-1,0,0,1,OVC 25,1,11,1,7,1014,RJTY 180556Z AUTO 00000KT 10SM OVC025 11/07 A2995 RMK AO2 CIG     023 RWY36 SLP149 T01120067 10114 20059 53006 FZRANO $=,
20180118_070000.002,0,RJTY,,,,1,20180118060000,-1,-1,-1,-1,190,-1,5,-1,-1,-1,-1,,-1,0,0,2,BKN 22   BKN 28,1,11,1,8,1014,RJTY 180656Z AUTO 19005KT 10SM BKN022 BKN028 11/08 A2994 RMK     AO2 CIG 021 RWY36 SLP146 T01120075 FZRANO $=,
20180118_080000.002,0,RJTY,,,,1,20180118070000,-1,-1,-1,-1,0,-1,0,-1,-1,-1,-1,,-1,0,0,1,SCT 28,1,11,1,7,1015,RJTY 180756Z AUTO 00000KT 10SM SCT028 11/07 A2997 RMK AO2     SLP156 T01050072 FZRANO $=,
20180118_090000.002,0,RJTY,,,,1,20180118080000,-1,-1,-1,-1,0,-1,0,-1,-1,-1,-1,,-1,0,0,0,,1,9,1,8,1015,RJTY 180856Z AUTO 00000KT 10SM CLR 09/08 A2998 RMK AO2 SLP160     T00870076 53012 FZRANO $=,
20180118_100000.002,0,RJTY,,,,1,20180118090000,-1,-1,-1,-1,0,-1,0,-1,-1,-1,-1,,-1,0,0,0,,1,8,1,8,1016,RJTY 180956Z AUTO 00000KT 9SM CLR 08/08 A3000 RMK AO2 SLP168     T00800077 FZRANO $=,
20180118_110000.002,0,RJTY,,,,1,20180118100000,-1,-1,-1,-1,260,-1,3,-1,-1,-1,-1,,-1,0,0,0,,1,7,1,7,1016,RJTY 181056Z AUTO 26003KT 9SM CLR 07/07 A3001 RMK AO2 SLP171     T00720071 FZRANO $=,
20180118_120000.002,0,RJTY,,,,1,20180118110000,-1,-1,-1,-1,330,-1,6,-1,-1,-1,-1,,-1,0,0,0,,1,6,1,6,1017,RJTY 181156Z AUTO 33006KT 10SM CLR 06/06 A3002 RMK AO2 SLP175     T00580057 10114 20057 52013 FZRANO $=,
20180118_130000.002,0,RJTY,,,,1,20180118120000,-1,-1,-1,-1,10,-1,4,-1,-1,-1,-1,,-1,0,0,0,,1,6,1,6,1017,RJTY 181256Z AUTO 01004KT 10SM CLR 06/06 A3003 RMK AO2 SLP177     T00600059 FZRANO $=,
20180118_140000.002,0,RJTY,,,,1,20180118130000,-1,-1,-1,-1,310,-1,4,-1,-1,-1,-1,,-1,0,0,0,,1,6,1,5,1017,RJTY 181356Z AUTO 31004KT 10SM CLR 06/05 A3003 RMK AO2 SLPNO     T00570051 FZRANO $=,
20180118_150000.002,0,RJTY,,,,1,20180118140000,-1,-1,-1,-1,330,-1,3,-1,-1,-1,-1,,-1,0,0,0,,1,5,1,4,1017,RJTY 181456Z AUTO 33003KT 10SM CLR 05/04 A3004 RMK AO2 SLP180     T00450038 401140035 52006 FZRANO $=,
20180118_160000.002,0,RJTY,,,,1,20180118150000,-1,-1,-1,-1,0,-1,0,-1,-1,-1,-1,,-1,0,0,0,,1,3,1,3,1017,RJTY 181556Z AUTO 00000KT 10SM CLR 03/03 A3004 RMK AO2 SLP181     T00290028 FZRANO $=,
20180118_170000.002,0,RJTY,,,,1,20180118160000,-1,-1,-1,-1,340,-1,5,-1,-1,-1,-1,,-1,0,0,0,,1,5,1,4,1018,RJTY 181656Z AUTO 34005KT 10SM CLR 05/04 A3005 RMK AO2 SLP183     T00460036 FZRANO $=,
20180118_180000.002,0,RJTY,,,,1,20180118170000,-1,-1,-1,-1,0,-1,0,-1,-1,-1,-1,,-1,0,0,0,,1,3,1,3,1018,RJTY 181756Z AUTO 00000KT 10SM CLR 03/03 A3005 RMK AO2 SLP184     T00270026 10066 20020 52004 FZRANO $=,
20180118_190000.002,0,RJTY,,,,1,20180118180000,-1,-1,-1,-1,-1,-1,-1,-1,-1,-1,-1,,-1,0,0,0,,1,4,1,0,-1,RJTY 181856Z AUTO M M M M 04/00 M RMK AO2 SLPNO T00420000 RVRNO     FZRANO VISNO RWY36 CHINO RWY36 $=,
20180118_190000.005,1,RJTY,,,,0,20180118180000,-1,-1,-1,-1,20,-1,9,-1,-1,-1,-1,,-1,0,0,0,,1,4,1,0,1018,RJTY 181856Z 02009KT 10SM CLR 04/00 A3006 RMK AO2A SLPNO     ALSTG/SLP ESTMD T00420000 RVRNO FZRANO VISNO RWY36 CHINO           RWY36 $ COR 1929=,
20180118_200000.002,0,RJTY,,,,1,20180118190000,-1,-1,-1,-1,20,-1,11,-1,-1,-1,-1,,-1,0,0,0,,1,4,1,0,-1,RJTY 181956Z AUTO 02011KT M M M 04/00 M RMK AO2 SLPNO T00431003     RVRNO FZRANO CHINO RWY36 $=,
20180118_200000.004,1,RJTY,,,,0,20180118190000,-1,-1,-1,-1,20,-1,11,-1,-1,-1,-1,,-1,0,0,0,,1,4,1,0,1017,RJTY 181956Z 02011KT 10SM CLR 04/00 A3004 RMK AO2A SLPNO     ALSTG/SLP ESTMD T00431003 RVRNO FZRANO CHINO RWY36 $ COR           2004=,
20180118_200000.004,1,RJTY,,,,0,20180118190000,-1,-1,-1,-1,20,-1,11,-1,-1,-1,-1,,-1,0,0,0,,1,4,1,0,1017,RJTY 181956Z 02011KT 10SM CLR 04/00 A3004 RMK AO2A SLPNO     T00431003 RVRNO FZRANO CHINO RWY36 $ COR 1958=,
20180118_210000.006,1,RJTY,,,,1,20180118200000,-1,-1,-1,-1,20,-1,13,-1,-1,-1,-1,,-1,1,0,0,,1,4,-1,1,1018,RJTY 182056Z AUTO 02013KT 10SM R36/4500FT CLR 04/M01 A3007 RMK     AO2 SLP192 T00431013 FZRANO $=,
20180118_220000.005,1,RJTY,,,,1,20180118210000,-1,-1,-1,-1,330,-1,4,-1,-1,-1,-1,,-1,0,0,0,,1,4,-1,2,1019,RJTY 182156Z AUTO 33004KT 10SM CLR 04/M02 A3010 RMK AO2 SLP202     T00441020 FZRANO $=,
20180118_230000.006,1,RJTY,,,,1,20180118220000,-1,-1,-1,-1,280,-1,3,-1,-1,-1,-1,,-1,0,0,0,,1,3,1,1,1020,RJTY 182256Z AUTO 28003KT 10SM CLR 03/01 A3012 RMK AO2 SLP209     T00330010 FZRANO $=,
20180119_000000.005,1,RJTY,,,,1,20180118230000,-1,-1,-1,-1,10,-1,5,-1,-1,-1,-1,,-1,0,0,0,,1,7,-1,1,1021,RJTY 182356Z AUTO 01005KT 10SM CLR 07/M01 A3014 RMK AO2 SLP215     T00651007 10065 20027 52021 FZRANO $=,
20180119_010000.006,1,RJTY,,,,1,20180119000000,-1,-1,-1,-1,50,-1,3,-1,-1,-1,-1,,-1,0,0,1,FEW 60,1,9,-1,1,1021,RJTY 190056Z AUTO 05003KT 10SM FEW060 09/M01 A3014 RMK AO2     SLP214 T00861015 FZRANO $=,
20180119_020000.004,1,RJTY,,,,1,20180119010000,-1,-1,-1,-1,170,-1,4,-1,-1,-1,-1,,-1,0,0,0,,1,10,-1,2,1020,RJTY 190156Z AUTO 17004KT 10SM CLR 10/M02 A3012 RMK AO2 SLP207     T01001017 FZRANO $=,
20180119_030000.004,1,RJTY,,,,1,20180119020000,-1,-1,-1,-1,140,-1,6,-1,-1,-1,-1,,-1,0,0,1,SCT 55,1,10,-1,2,1019,RJTY 190256Z AUTO 14006KT 10SM SCT055 10/M02 A3010 RMK AO2     SLP201 T01031024 58014 FZRANO $=,
20180119_040000.004,1,RJTY,,,,1,20180119030000,-1,-1,-1,-1,0,-1,0,-1,-1,-1,-1,,-1,0,0,2,FEW 50   BKN 60,1,10,-1,3,1019,RJTY 190356Z AUTO 00000KT 10SM FEW050 BKN060 10/M03 A3009 RMK     AO2 SLP198 T01011026 FZRANO $=,
20180119_050000.006,1,RJTY,,,,1,20180119040000,-1,-1,-1,-1,0,-1,0,-1,-1,-1,-1,,-1,0,0,1,BKN 48,1,10,-1,2,1019,RJTY 190456Z AUTO 00000KT 10SM BKN048 10/M02 A3008 RMK AO2     SLP194 T01001023 FZRANO $=,
20180119_060000.004,1,RJTY,,,,1,20180119050000,-1,-1,-1,-1,90,-1,5,-1,-1,-1,-1,,-1,0,0,1,BKN 49,1,10,-1,3,1019,RJTY 190556Z AUTO 09005KT 10SM BKN049 10/M03 A3008 RMK AO2     SLP195 T00971026 10107 20066 57007 FZRANO $=,
20180119_070000.005,1,RJTY,,,,1,20180119060000,-1,-1,-1,-1,0,-1,0,-1,-1,-1,-1,,-1,0,0,2,BKN 49   OVC 65,1,10,-1,4,1019,RJTY 190656Z AUTO 00000KT 10SM BKN049 OVC065 10/M04 A3008 RMK     AO2 SLP194 T00951041 FZRANO $=,
20180119_080000.005,1,RJTY,,,,1,20180119070000,-1,-1,-1,-1,0,-1,0,-1,-1,-1,-1,,-1,0,0,2,BKN 50   OVC 65,1,9,-1,4,1019,RJTY 190756Z AUTO 00000KT 10SM BKN050 OVC065 09/M04 A3009 RMK     AO2 SLP198 T00901042 FZRANO $=,
20180119_090000.006,1,RJTY,,,,1,20180119080000,-1,-1,-1,-1,160,-1,5,-1,-1,-1,-1,,-1,1,0,1,OVC 65,1,8,-1,2,1019,RJTY 190856Z AUTO 16005KT 10SM R36/4500FT OVC065 08/M02 A3010     RMK AO2 SLP202 T00831024 52007 FZRANO $=,
20180119_100000.005,1,RJTY,,,,1,20180119090000,-1,-1,-1,-1,240,-1,3,-1,-1,-1,-1,,-1,1,0,1,OVC 50,1,8,-1,2,1019,RJTY 190956Z AUTO 24003KT 10SM R36/4500FT OVC050 08/M02 A3010     RMK AO2 SLP202 T00821019 FZRANO $=,
20180119_110000.005,1,RJTY,,,,1,20180119100000,-1,-1,-1,-1,170,-1,6,-1,-1,-1,-1,,-1,1,0,2,FEW 29   BKN 55,1,8,1,2,1020,RJTY 191056Z AUTO 17006KT 10SM R36/4500FT FEW029 BKN055 08/02     A3011 RMK AO2 SLP205 T00780016 FZRANO $=,
20180119_120000.005,1,RJTY,,,,1,20180119110000,-1,-1,-1,-1,190,-1,5,-1,-1,-1,-1,,-1,1,0,1,OVC 31,1,7,1,1,1020,RJTY 191156Z AUTO 19005KT 10SM R36/4500FT OVC031 07/01 A3011     RMK AO2 SLP205 T00730012 10098 20073 52005 FZRANO $=,
20180119_130000.004,1,RJTY,,,,0,20180119120000,-1,-1,-1,-1,0,-1,0,-1,-1,-1,-1,,-1,1,0,1,OVC 36,1,6,1,0,1020,RJTY 191256Z 00000KT 10SM R36/4500FT OVC036 06/00 A3012 RMK     AO2A SLP208 T00630004 FZRANO $=,
20180119_140000.002,0,RJTY,,,,1,20180119130000,-1,-1,-1,-1,0,-1,0,-1,-1,-1,-1,,-1,0,0,1,OVC 37,1,7,1,0,1020,RJTY 191356Z AUTO 00000KT 10SM OVC037 07/00 A3012 RMK AO2     SLP207 T00680000 FZRANO $=,
20180119_150000.002,0,RJTY,,,,1,20180119140000,-1,-1,-1,-1,0,-1,0,-1,-1,-1,-1,,-1,0,0,2,BKN 37   OVC 65,1,6,1,0,1020,RJTY 191456Z AUTO 00000KT 10SM BKN037 OVC065 06/00 A3011 RMK     AO2 SLP204 T00601003 401070020 58002 FZRANO $=,
20180119_160000.002,0,RJTY,,,,1,20180119150000,-1,-1,-1,-1,0,-1,0,-1,-1,-1,-1,,-1,0,0,1,OVC 39,1,6,1,0,1019,RJTY 191556Z AUTO 00000KT 10SM OVC039 06/00 A3010 RMK AO2     SLP200 T00591004 FZRANO $=,
20180119_170000.002,0,RJTY,,,,1,20180119160000,-1,-1,-1,-1,70,-1,4,-1,-1,-1,-1,,-1,0,0,1,OVC 38,1,5,-1,2,1019,RJTY 191656Z AUTO 07004KT 10SM OVC038 05/M02 A3010 RMK AO2     SLP200 T00481021 FZRANO $=,
20180119_180000.001,0,RJTY,,,,1,20180119170000,-1,-1,-1,-1,50,-1,3,-1,-1,-1,-1,,-1,0,0,1,OVC 39,1,5,-1,3,1019,RJTY 191756Z AUTO 05003KT 10SM OVC039 05/M03 A3009 RMK AO2     SLP198 T00501028 10073 20048 55005 FZRANO $=,
20180119_190000.001,0,RJTY,,,,1,20180119180000,-1,-1,-1,-1,350,-1,6,-1,-1,-1,-1,,-1,0,0,1,OVC 38,1,5,-1,2,1019,RJTY 191856Z AUTO 35006KT 10SM OVC038 05/M02 A3009 RMK AO2     SLP198 T00451024 FZRANO $=,
20180119_200000.002,0,RJTY,,,,1,20180119190000,-1,-1,-1,-1,20,-1,3,-1,-1,-1,-1,,-1,0,0,1,OVC 32,1,4,-1,2,1019,RJTY 191956Z AUTO 02003KT 10SM OVC032 04/M02 A3010 RMK AO2     SLP201 T00391025 FZRANO $=,
20180119_210000.002,0,RJTY,,,,1,20180119200000,-1,-1,-1,-1,10,-1,7,-1,-1,-1,-1,,-1,0,0,1,OVC 31,1,4,-1,3,1019,RJTY 192056Z AUTO 01007KT 10SM OVC031 04/M03 A3010 RMK AO2     SLP202 T00391034 53003 FZRANO $=,
20180119_220000.002,0,RJTY,,,,1,20180119210000,-1,-1,-1,-1,20,-1,6,-1,-1,-1,-1,,-1,0,0,1,OVC 29,1,4,-1,4,1020,RJTY 192156Z AUTO 02006KT 10SM OVC029 04/M04 A3013 RMK AO2     SLP212 T00391041 FZRANO $=,
20180119_230000.002,0,RJTY,,,,1,20180119220000,-1,-1,-1,-1,10,-1,5,-1,-1,-1,-1,,-1,0,0,1,OVC 28,1,4,-1,4,1020,RJTY 192256Z AUTO 01005KT 10SM OVC028 04/M04 A3013 RMK AO2     SLP212 T00411039 FZRANO $=,
20180120_000000.004,0,RJTY,,,,1,20180119230000,-1,-1,-1,-1,20,-1,5,-1,-1,-1,-1,,-1,0,0,1,OVC 27,1,5,-1,4,1020,RJTY 192356Z AUTO 02005KT 10SM OVC027 05/M04 A3012 RMK AO2     SLP209 T00471041 10050 20037 50008 FZRANO $=,
20180120_010000.002,0,RJTY,,,,1,20180120000000,-1,-1,-1,-1,10,-1,5,-1,-1,-1,-1,,-1,0,0,1,OVC 26,1,5,-1,4,1020,RJTY 200056Z AUTO 01005KT 10SM OVC026 05/M04 A3013 RMK AO2     SLP212 T00511040 FZRANO $=,
20180120_020000.003,0,RJTY,,,,1,20180120010000,-1,-1,-1,-1,20,-1,4,-1,-1,-1,-1,,-1,0,0,1,OVC 23,1,6,-1,4,1019,RJTY 200156Z AUTO 02004KT 10SM OVC023 06/M04 A3010 RMK AO2     SLP202 T00551036 FZRANO $=,
20180120_030000.002,0,RJTY,,,,1,20180120020000,-1,-1,-1,-1,40,-1,4,-1,-1,-1,-1,,-1,0,0,2,BKN 23   OVC 30,1,7,-1,2,1018,RJTY 200256Z AUTO 04004KT 10SM BKN023 OVC030 07/M02 A3006 RMK     AO2 SLP188 T00661018 58020 FZRANO $=,
20180120_040000.002,0,RJTY,,,,1,20180120030000,-1,-1,-1,-1,0,-1,0,-1,-1,-1,-1,,-1,0,0,2,FEW 27   BKN 55,1,7,1,0,1017,RJTY 200356Z AUTO 00000KT 10SM FEW027 BKN055 07/00 A3003 RMK     AO2 SLP178 T00711004 FZRANO VISNO RWY18 $=,
20180120_050000.002,0,RJTY,,,,1,20180120040000,-1,-1,-1,-1,110,-1,4,-1,-1,-1,-1,,-1,0,0,0,,1,8,1,0,1016,RJTY 200456Z AUTO 11004KT 10SM CLR 08/00 A3001 RMK AO2 SLP171     T00841004 FZRANO $=,
20180120_060000.002,0,RJTY,,,,1,20180120050000,-1,-1,-1,-1,0,-1,0,-1,-1,-1,-1,,-1,0,0,1,FEW 60,1,8,1,0,1017,RJTY 200556Z AUTO 00000KT 10SM FEW060 08/00 A3003 RMK AO2     SLP177 T00791003 10088 20047 55012 FZRANO $=,
20180120_070000.002,0,RJTY,,,,1,20180120060000,-1,-1,-1,-1,0,-1,0,-1,-1,-1,-1,,-1,0,0,0,,1,8,1,0,1017,RJTY 200656Z AUTO 00000KT 10SM CLR 08/00 A3002 RMK AO2 SLP175     T00781002 FZRANO $=,
20180120_080000.002,0,RJTY,,,,1,20180120070000,-1,-1,-1,-1,0,-1,0,-1,-1,-1,-1,,-1,0,0,0,,1,8,1,0,1017,RJTY 200756Z AUTO 00000KT 10SM CLR 08/00 A3003 RMK AO2 SLP178     T00751002 FZRANO $=,
20180120_090000.002,0,RJTY,,,,1,20180120080000,-1,-1,-1,-1,0,-1,0,-1,-1,-1,-1,,-1,1,0,0,,1,6,1,0,1017,RJTY 200856Z AUTO 00000KT 10SM R36/4500FT CLR 06/00 A3004 RMK     AO2 SLP182 T00641001 53004 FZRANO $=,
20180120_100000.002,0,RJTY,,,,1,20180120090000,-1,-1,-1,-1,260,-1,5,-1,-1,-1,-1,,-1,1,0,0,,1,4,1,1,1017,RJTY 200956Z AUTO 26005KT 10SM R36/4500FT CLR 04/01 A3004 RMK     AO2 SLP183 T00420005 FZRANO $=,
20180120_110000.002,0,RJTY,,,,1,20180120100000,-1,-1,-1,-1,260,-1,3,-1,-1,-1,-1,,-1,1,0,0,,1,4,1,1,1017,RJTY 201056Z AUTO 26003KT 10SM R36/4500FT CLR 04/01 A3004 RMK     AO2 SLP183 T00440009 FZRANO $=,
20180120_120000.002,0,RJTY,,,,1,20180120110000,-1,-1,-1,-1,0,-1,0,-1,-1,-1,-1,,-1,1,0,0,,1,4,1,1,1018,RJTY 201156Z AUTO 00000KT 10SM R36/4500FT CLR 04/01 A3005 RMK     AO2 SLP186 T00350005 10083 20034 53002 FZRANO $=,
20180120_130000.002,0,RJTY,,,,1,20180120120000,-1,-1,-1,-1,0,-1,0,-1,-1,-1,-1,,-1,1,0,0,,1,3,1,1,1018,RJTY 201256Z AUTO 00000KT 10SM R36/4500FT CLR 03/01 A3006 RMK     AO2 SLP190 T00310007 FZRANO $=,
20180120_140000.002,0,RJTY,,,,1,20180120130000,-1,-1,-1,-1,290,-1,3,-1,-1,-1,-1,,-1,0,0,0,,1,2,1,0,1018,RJTY 201356Z AUTO 29003KT 10SM CLR 02/00 A3006 RMK AO2 SLP190     T00230004 FZRANO $=,
20180120_150000.002,0,RJTY,,,,1,20180120140000,-1,-1,-1,-1,0,-1,0,-1,-1,-1,-1,,-1,0,0,0,,1,2,1,0,1018,RJTY 201456Z AUTO 00000KT 10SM CLR 02/00 A3005 RMK AO2 SLP186     T00210000 400880006 50001 FZRANO $=,
20180120_160000.002,0,RJTY,,,,1,20180120150000,-1,-1,-1,-1,290,-1,4,-1,-1,-1,-1,,-1,0,0,0,,1,2,1,0,1017,RJTY 201556Z AUTO 29004KT 10SM CLR 02/00 A3003 RMK AO2 SLP179     T00201003 FZRANO $=,
20180120_170000.002,0,RJTY,,,,1,20180120160000,-1,-1,-1,-1,0,-1,0,-1,-1,-1,-1,,-1,0,0,0,,1,0,-1,2,1017,RJTY 201656Z AUTO 00000KT 10SM CLR 00/M02 A3004 RMK AO2 SLP183     T00021017 FZRANO $=,
20180120_180000.002,0,RJTY,,,,1,20180120170000,-1,-1,-1,-1,290,-1,3,-1,-1,-1,-1,,-1,0,0,0,,1,1,-1,1,1017,RJTY 201756Z AUTO 29003KT 10SM CLR 01/M01 A3003 RMK AO2 SLP179     T00121006 10035 21007 55006 FZRANO $=,
20180120_190000.001,0,RJTY,,,,1,20180120180000,-1,-1,-1,-1,0,-1,0,-1,-1,-1,-1,,-1,0,0,0,,1,0,-1,1,1017,RJTY 201856Z AUTO 00000KT 10SM CLR 00/M01 A3002 RMK AO2 SLP176     T00041011 FZRANO $=,
20180120_200000.002,0,RJTY,,,,1,20180120190000,-1,-1,-1,-1,290,-1,3,-1,-1,-1,-1,,-1,0,0,0,,1,0,-1,1,1016,RJTY 201956Z AUTO 29003KT 10SM CLR 00/M01 A3001 RMK AO2 SLP173     T00031012 FZRANO $=,
20180120_210000.002,0,RJTY,,,,1,20180120200000,-1,-1,-1,-1,0,-1,0,-1,-1,-1,-1,,-1,0,0,0,,-1,1,-1,2,1017,RJTY 202056Z AUTO 00000KT 10SM CLR M01/M02 A3003 RMK AO2 SLP180     T10101023 53001 FZRANO $=,
20180120_220000.002,0,RJTY,,,,1,20180120210000,-1,-1,-1,-1,0,-1,0,-1,-1,-1,-1,,-1,0,0,0,,-1,1,-1,3,1018,RJTY 202156Z AUTO 00000KT 10SM CLR M01/M03 A3005 RMK AO2 SLP187     T10121026 FZRANO $=,
20180120_230000.002,0,RJTY,,,,1,20180120220000,-1,-1,-1,-1,0,-1,0,-1,-1,-1,-1,,-1,0,0,1,OVC 55,1,1,1,0,1018,RJTY 202256Z AUTO 00000KT 10SM OVC055 01/00 A3006 RMK AO2     SLP190 T00091004 FZRANO $=,
20180121_000000.004,0,RJTY,,,,1,20180120230000,-1,-1,-1,-1,0,-1,0,-1,-1,-1,-1,,-1,0,0,1,BKN 60,1,4,1,1,1018,RJTY 202356Z AUTO 00000KT 10SM BKN060 04/01 A3007 RMK AO2     SLP193 T00370007 10037 21016 52012 FZRANO $=,
20180121_010000.004,0,RJTY,,,,1,20180121000000,-1,-1,-1,-1,100,-1,3,-1,-1,-1,-1,,-1,0,0,1,BKN 55,1,6,1,1,1018,RJTY 210056Z AUTO 10003KT 10SM BKN055 06/01 A3007 RMK AO2     SLP192 T00580006 FZRANO $=,
20180121_020000.002,0,RJTY,,,,1,20180121010000,-1,-1,-1,-1,0,-1,0,-1,-1,-1,-1,,-1,0,0,1,OVC 55,1,8,-1,1,1018,RJTY 210156Z AUTO 00000KT 10SM OVC055 08/M01 A3005 RMK AO2     SLP185 T00791014 FZRANO $=,
20180121_030000.002,0,RJTY,,,,1,20180121020000,-1,-1,-1,-1,0,-1,0,-1,-1,-1,-1,,-1,0,0,1,FEW 55,1,10,-1,3,1016,RJTY 210256Z AUTO 00000KT 10SM FEW055 10/M03 A3001 RMK AO2     SLP171 T00971033 58019 FZRANO $=,
20180121_040000.003,0,RJTY,,,,1,20180121030000,-1,-1,-1,-1,130,-1,4,-1,-1,-1,-1,,-1,0,0,0,,1,11,-1,3,1015,RJTY 210356Z AUTO 13004KT 10SM CLR 11/M03 A2998 RMK AO2 SLP160     T01111027 FZRANO $=,
20180121_050000.002,0,RJTY,,,,1,20180121040000,-1,-1,-1,-1,100,-1,4,-1,-1,-1,-1,,-1,0,0,0,,1,11,-1,4,1015,RJTY 210456Z AUTO 10004KT 10SM CLR 11/M04 A2998 RMK AO2 SLP161     T01091044 FZRANO $=,
20180121_060000.002,0,RJTY,,,,1,20180121050000,-1,-1,-1,-1,130,-1,6,-1,-1,-1,-1,,-1,0,0,0,,1,11,-1,4,1015,RJTY 210556Z AUTO 13006KT 10SM CLR 11/M04 A2997 RMK AO2 SLP158     T01111042 10114 20037 56013 FZRANO $=,
20180121_070000.002,0,RJTY,,,,1,20180121060000,-1,-1,-1,-1,150,-1,5,-1,-1,-1,-1,,-1,0,0,0,,1,11,-1,4,1015,RJTY 210656Z AUTO 15005KT 10SM CLR 11/M04 A2997 RMK AO2 SLP158     T01071038 FZRANO $=,
20180121_080000.002,0,RJTY,,,,1,20180121070000,-1,-1,-1,-1,200,-1,7,-1,-1,-1,-1,,-1,0,0,0,,1,9,-1,1,1015,RJTY 210756Z AUTO 20007KT 10SM CLR 09/M01 A2998 RMK AO2 SLP162     T00871014 FZRANO $=,
20180121_090000.002,0,RJTY,,,,1,20180121080000,-1,-1,-1,-1,190,-1,3,-1,-1,-1,-1,,-1,1,0,0,,1,7,-1,2,1016,RJTY 210856Z AUTO 19003KT 10SM R36/4500FT CLR 07/M02 A3001 RMK     AO2 SLP173 T00741021 53011 FZRANO $=,
20180121_100000.002,0,RJTY,,,,1,20180121090000,-1,-1,-1,-1,320,-1,4,-1,-1,-1,-1,,-1,0,0,0,,1,7,-1,1,1017,RJTY 210956Z AUTO 32004KT 10SM CLR 07/M01 A3003 RMK AO2 SLP180     T00681009 FZRANO $=,
20180121_110000.002,0,RJTY,,,,1,20180121100000,-1,-1,-1,-1,20,-1,8,-1,-1,-1,-1,,-1,1,0,0,,1,4,-1,2,1019,RJTY 211056Z AUTO 02008KT 10SM R36/4500FT CLR 04/M02 A3008 RMK     AO2 SLP197 T00371021 FZRANO $=,
20180121_120000.002,0,RJTY,,,,1,20180121110000,-1,-1,-1,-1,20,-1,11,-1,-1,-1,-1,,-1,1,0,0,,1,4,-1,4,1019,RJTY 211156Z AUTO 02011KT 10SM R36/4500FT CLR 04/M04 A3008 RMK     AO2 SLP196 T00431044 10111 20019 51024 FZRANO $=,
20180121_130000.001,0,RJTY,,,,1,20180121120000,-1,-1,-1,-1,40,-1,13,-1,-1,-1,-1,,-1,1,0,0,,1,5,-1,6,1019,RJTY 211256Z AUTO 04013KT 10SM R36/4500FT CLR 05/M06 A3008 RMK     AO2 SLP196 T00451056 FZRANO $=,
20180121_140000.002,0,RJTY,,,,1,20180121130000,-1,-1,-1,-1,40,-1,11,-1,-1,-1,-1,,-1,0,0,0,,1,4,-1,7,1019,RJTY 211356Z AUTO 04011KT 10SM CLR 04/M07 A3010 RMK AO2 SLP202     T00411068 FZRANO $=,
20180121_150000.002,0,RJTY,,,,1,20180121140000,-1,-1,-1,-1,50,-1,9,-1,-1,-1,-1,,-1,0,0,0,,1,3,-1,6,1019,RJTY 211456Z AUTO 05009KT 10SM CLR 03/M06 A3010 RMK AO2 SLP202     T00331064 401141016 53007 FZRANO $=,
20180121_160000.002,0,RJTY,,,,1,20180121150000,-1,-1,-1,-1,0,-1,0,-1,-1,-1,-1,,-1,0,0,0,,1,2,-1,6,1020,RJTY 211556Z AUTO 00000KT 10SM CLR 02/M06 A3011 RMK AO2 SLP205     T00241062 FZRANO $=,
20180121_170000.002,0,RJTY,,,,1,20180121160000,-1,-1,-1,-1,0,-1,0,-1,-1,-1,-1,,-1,0,0,1,BKN 170,1,2,-1,2,1020,RJTY 211656Z AUTO 00000KT 10SM BKN170 02/M02 A3012 RMK AO2     SLP209 T00151025 FZRANO $=,
20180121_180000.002,0,RJTY,,,,1,20180121170000,-1,-1,-1,-1,0,-1,0,-1,-1,-1,-1,,-1,0,0,0,,1,1,-1,3,1020,RJTY 211756Z AUTO 00000KT 10SM CLR 01/M03 A3011 RMK AO2 SLP205     T00121035 10047 20008 50005 FZRANO $=,
20180121_190000.002,0,RJTY,,,,1,20180121180000,-1,-1,-1,-1,0,-1,0,-1,-1,-1,-1,,-1,0,0,0,,1,1,-1,6,1020,RJTY 211856Z AUTO 00000KT 10SM CLR 01/M06 A3012 RMK AO2 SLP209     T00071062 FZRANO $=,
20180121_200000.002,0,RJTY,,,,1,20180121190000,-1,-1,-1,-1,0,-1,0,-1,-1,-1,-1,,-1,0,0,0,,1,1,-1,4,1021,RJTY 211956Z AUTO 00000KT 10SM CLR 01/M04 A3014 RMK AO2 SLP216     T00071036 FZRANO $=,
20180121_210000.002,0,RJTY,,,,1,20180121200000,-1,-1,-1,-1,270,-1,5,-1,-1,-1,-1,,-1,0,0,0,,1,1,-1,4,1021,RJTY 212056Z AUTO 27005KT 10SM CLR 01/M04 A3016 RMK AO2 SLP224     T00091038 53016 FZRANO $=,
20180121_220000.002,0,RJTY,,,,1,20180121210000,-1,-1,-1,-1,310,-1,4,-1,-1,-1,-1,,-1,0,0,1,OVC 48,1,2,-1,5,1022,RJTY 212156Z AUTO 31004KT 10SM OVC048 02/M05 A3018 RMK AO2     SLP230 T00181049 FZRANO $=,
20180121_230000.002,0,RJTY,,,,1,20180121220000,-1,-1,-1,-1,350,-1,3,-1,-1,-1,-1,,-1,0,0,2,BKN 30   OVC 47,1,3,-1,6,1022,RJTY 212256Z AUTO 35003KT 10SM BKN030 OVC047 03/M06 A3018 RMK     AO2 SLP231 T00261060 FZRANO $=,
20180122_000000.002,0,RJTY,,,,0,20180121230000,-1,-1,-1,-1,30,-1,7,-1,-1,-1,-1,,-1,0,1,1,OVC 28,1,2,-1,4,1023,RJTY 212356Z 03007KT 3SM -SN OVC028 02/M04 A3020 RMK AO2A     UPB45E48SNB48 SLPNO P0000 60000 T00201039 10028 21001           FZRANO $=,- SN
20180122_010000.004,0,RJTY,,,,0,20180122000000,-1,-1,-1,-1,20,-1,8,-1,-1,-1,-1,,-1,0,1,2,SCT 21   OVC 26,1,0,-1,2,1022,RJTY 220056Z 02008KT 2SM -SN SCT021 OVC026 00/M02 A3019 RMK     AO2A SNE13SNB28E38SNB49 SLP235 P0000 T00031024 FZRANO $=,- SN
20180122_020000.002,0,RJTY,,,,0,20180122010000,-1,-1,-1,-1,330,-1,6,-1,-1,-1,-1,,-1,0,2,1,OVC 8,1,0,-1,1,1021,RJTY 220156Z 33006KT 1SM -SN BR OVC008 00/M01 A3016 RMK AO2A     VIS 2 1/2V3 CIG 010 RWY18 SLP225 P0000 T00001009 FZRANO $=,- SN; BR
20180122_030000.004,1,RJTY,,,,0,20180122020000,-1,-1,-1,-1,20,-1,8,-1,-1,-1,-1,,-1,0,1,2,SCT 6   OVC 8,1,1,1,0,1020,RJTY 220256Z 02008KT 1SM -SN SCT006 OVC008 01/00 A3011 RMK AO2A     SNE41 CIG 007 RWY18 SLP208 P0001 60001 T00061001 FZRANO $=,- SN
20180122_040000.004,1,RJTY,,,,0,20180122030000,-1,-1,-1,-1,330,-1,7,-1,-1,-1,-1,,-1,0,1,2,SCT 5   OVC 8,1,0,1,0,1019,RJTY 220356Z 33007KT M1/4SM +SN SCT005 OVC008 00/00 A3008 RMK     AO2A SNE0256SNB0259 CIG 005 RWY18 SLP198 P0000 T10011002           FZRANO $=,+ SN
20180122_050000.004,1,RJTY,,,,0,20180122040000,-1,-1,-1,-1,10,-1,8,-1,-1,-1,-1,,-1,0,2,1,OVC 5,1,0,1,0,1017,RJTY 220456Z 01008KT M1/4SM +SN BR OVC005 00/00 A3004 RMK AO2A     VIS 1 1/8 RWY18 SLP185 P0001 T10021003 FZRANO $=,+ SN; BR
20180122_060000.005,1,RJTY,,,,0,20180122050000,-1,-1,-1,-1,350,-1,9,-1,-1,-1,-1,,-1,0,2,1,OVC 5,-1,1,-1,1,1017,RJTY 220556Z 35009KT 1/8SM +SN BR OVC005 M01/M01 A3003 RMK AO2A     VIS 3/4 RWY18 SLP182 P0000 60002 4/004 T10071008 10020           21008 57027 FZRANO $=,+ SN; BR
20180122_070000.005,1,RJTY,,,,0,20180122060000,-1,-1,-1,-1,350,-1,10,-1,-1,-1,-1,,-1,0,2,1,OVC 4,-1,1,-1,1,1016,RJTY 220656Z 35010KT 1/8SM +SN BR OVC004 M01/M01 A3000 RMK AO2A     PRESFR SLP172 P0000 T10081009 FZRANO $=,+ SN; BR
20180122_080000.003,0,RJTY,,,,0,20180122070000,-1,-1,-1,-1,350,-1,11,-1,-1,-1,-1,,-1,0,0,1,VV 5,-1,1,-1,1,1016,RJTY 220756Z 35011KT 1/8SM VV005 M01/M01 A2999 RMK AO2A SLP168     P0000 T10101011 PWINO FZRANO $=,
20180122_090000.002,0,RJTY,,,,0,20180122080000,-1,-1,-1,-1,360,-1,9,-1,-1,-1,-1,,-1,0,1,1,OVC 6,-1,1,-1,1,1015,RJTY 220856Z 36009KT 1/8SM SN OVC006 M01/M01 A2996 RMK AO2A     SLP158 P0001 60001 T10111012 57023 PWINO FZRANO $=,SN
20180122_100000.002,0,RJTY,,,,0,20180122090000,-1,-1,-1,-1,340,-1,13,-1,-1,-1,-1,,-1,0,2,1,OVC 8,-1,1,-1,1,1013,RJTY 220956Z 34013KT 1/8SM -SN BR OVC008 M01/M01 A2992 RMK AO2A     SLP145 P0001 T10101011 FZRANO $=,- SN; BR
20180122_110000.003,0,RJTY,,,,0,20180122100000,-1,-1,-1,-1,330,-1,10,-1,-1,-1,-1,,-1,0,2,1,OVC 7,-1,1,-1,1,1012,RJTY 221056Z 33010KT 1/8SM -SN BR OVC007 M01/M01 A2989 RMK AO2A     SLP134 P0000 T10081009 FZRANO $=,- SN; BR
20180122_120000.002,0,RJTY,,,,0,20180122110000,-1,-1,-1,-1,340,-1,8,-1,-1,-1,-1,,-1,0,2,1,OVC 7,1,0,1,0,1011,RJTY 221156Z 34008KT 1/8SM -SN BR OVC007 00/00 A2985 RMK AO2A     SLP120 P0001 60003 4/012 T10041005 11003 21011 57037           FZRANO $=,- SN; BR
20180122_130000.001,0,RJTY,,,,0,20180122120000,-1,-1,-1,-1,360,-1,7,-1,-1,-1,-1,,-1,0,1,1,OVC 17,1,0,1,0,1009,RJTY 221256Z 36007KT 2SM -SN OVC017 00/00 A2981 RMK AO2A SLP107     P0000 T00010000 FZRANO $=,- SN
20180122_140000.001,0,RJTY,,,,1,20180122130000,-1,-1,-1,-1,350,-1,6,-1,-1,-1,-1,,-1,0,1,1,OVC 20,1,1,1,1,1009,RJTY 221356Z AUTO 35006KT 10SM -RA OVC020 01/01 A2980 RMK AO2     SNE41RAB41 SLP103 P0000 T00060005 FZRANO $=,- RA
20180122_150000.002,0,RJTY,,,,1,20180122140000,-1,-1,-1,-1,340,-1,8,-1,-1,-1,-1,,-1,0,0,1,OVC 16,1,1,1,1,1008,RJTY 221456Z AUTO 34008KT 10SM OVC016 01/01 A2978 RMK AO2     RAE07SNB07E17RAB17E43 SLP096 P0000 60000 T00120005           400321011 57023 FZRANO $=,
20180122_160000.002,0,RJTY,,,,1,20180122150000,-1,-1,-1,-1,320,-1,4,-1,-1,-1,-1,,-1,0,0,3,FEW 55   BKN 75   BKN 95,1,1,1,0,1008,RJTY 221556Z AUTO 32004KT 10SM FEW055 BKN075 BKN095 01/00 A2977     RMK AO2 SLP094 P0001 T00120003 FZRANO $=,
20180122_170000.002,0,RJTY,,,,1,20180122160000,-1,-1,-1,-1,0,-1,0,-1,-1,-1,-1,,-1,0,0,2,FEW 45   FEW 75,1,0,-1,1,1008,RJTY 221656Z AUTO 00000KT 8SM FEW045 FEW075 00/M01 A2977 RMK     AO2 SLP094 T10031006 FZRANO $=,
20180122_180000.002,0,RJTY,,,,1,20180122170000,-1,-1,-1,-1,200,-1,4,-1,-1,-1,-1,,-1,1,1,1,OVC 65,-1,2,-1,2,1008,RJTY 221756Z AUTO 20004KT 1 1/8SM R36/5000FT BR OVC065 M02/M02     A2978 RMK AO2 SLP098 60001 T10181019 10012 21035 55002           FZRANO $=,BR
20180122_190000.004,1,RJTY,,,,1,20180122180000,-1,-1,-1,-1,0,-1,0,-1,-1,-1,-1,,-1,1,1,0,,-1,2,-1,2,1008,RJTY 221856Z AUTO 00000KT 7/8SM R36/1400VP6000FT BR CLR M02/M02     A2977 RMK AO2 VIS 1/4V7/8 SLP094 T10221023 FZRANO $=,BR
20180122_200000.002,0,RJTY,,,,1,20180122190000,-1,-1,-1,-1,170,-1,4,-1,-1,-1,-1,,-1,1,1,0,,-1,3,-1,3,1007,RJTY 221956Z AUTO 17004KT 5/8SM R36/1400V2800FT BR CLR M03/M03     A2975 RMK AO2 VIS 5/8V7 SLP088 T10301031 FZRANO $=,BR
20180122_210000.003,0,RJTY,,,,1,20180122200000,-1,-1,-1,-1,0,-1,0,-1,-1,-1,-1,,-1,1,0,1,BKN 2,-1,4,-1,4,1008,RJTY 222056Z AUTO 00000KT 3/8SM R36/1800V3000FT M BKN002     M04/M04 A2977 RMK AO2 SLP096 T10371038 55002 FZRANO $=,
20180122_220000.002,0,RJTY,,,,0,20180122210000,-1,-1,-1,-1,0,-1,0,-1,-1,-1,-1,,-1,0,1,0,,-1,5,-1,5,1008,RJTY 222156Z 00000KT 3SM BR CLR M05/M05 A2977 RMK AO2A VIS 1/8     RWY18 SLP096 T10481049 FZRANO $=,BR
20180122_230000.005,1,RJTY,,,,0,20180122220000,-1,-1,-1,-1,0,-1,0,-1,-1,-1,-1,,-1,0,1,1,FEW 0,-1,2,-1,2,1007,RJTY 222256Z 00000KT 3SM BR FEW000 M02/M02 A2975 RMK AO2A VIS 1     3/4 RWY18 SLP087 T10201021 FZRANO $=,BR
20180123_000000.005,1,RJTY,,,,1,20180122230000,-1,-1,-1,-1,0,-1,0,-1,-1,-1,-1,,-1,0,0,0,,-1,1,-1,1,1006,RJTY 222356Z AUTO 00000KT 8SM CLR M01/M01 A2972 RMK AO2 SLP077     70006 T10071008 11003 21057 58016 FZRANO $=,
20180123_010000.002,0,RJTY,,,,0,20180123000000,-1,-1,-1,-1,210,-1,10,-1,-1,-1,-1,,-1,0,0,0,,1,3,1,3,1006,RJTY 230056Z 21010KT 10SM CLR 03/03 A2970 RMK AO2A SLP068     T00330033 FZRANO $=,
20180123_020000.002,0,RJTY,,,,0,20180123010000,-1,-1,-1,-1,360,-1,12,-1,-1,-1,-1,,-1,0,0,0,,1,2,1,2,1004,RJTY 230156Z 36012KT 7SM CLR 02/02 A2966 RMK AO2A SLP056     T00220019 FZRANO $=,
20180123_030000.003,0,RJTY,,,,1,20180123020000,-1,-1,-1,-1,360,-1,5,-1,-1,-1,-1,,-1,0,1,0,,1,2,1,1,1003,RJTY 230256Z AUTO 36005KT 4SM BR CLR 02/01 A2963 RMK AO2 SLP045     P0001 60001 T00210009 FZRANO $=,BR
20180123_030000.006,1,RJTY,,,,1,20180123020000,-1,-1,-1,-1,360,-1,5,-1,-1,-1,-1,,-1,0,1,0,,1,2,1,1,1003,RJTY 230256Z AUTO 36005KT 4SM BR CLR 02/01 A2963 RMK AO2     SLP045 T00210009 FZRANO $ COR 0314=,BR
20180123_040000.005,1,RJTY,,,,1,20180123030000,-1,-1,-1,-1,0,-1,0,-1,-1,-1,-1,,-1,0,0,0,,1,5,1,2,1002,RJTY 230356Z AUTO 00000KT 8SM CLR 05/02 A2960 RMK AO2 SLP034     T00460021 FZRANO $=,
20180123_050000.002,0,RJTY,,,,1,20180123040000,-1,-1,-1,-1,220,-1,9,-1,-1,-1,-1,,-1,0,0,1,FEW 100,1,8,-1,1,1002,RJTY 230456Z AUTO 22009KT 10SM FEW100 08/M01 A2960 RMK AO2     SLP033 T00841006 FZRANO $=,
20180123_060000.003,0,RJTY,,,,1,20180123050000,-1,-1,-1,-1,20,-1,8,-1,-1,-1,-1,,-1,0,0,0,,1,4,1,1,1004,RJTY 230556Z AUTO 02008KT 10SM CLR 04/01 A2964 RMK AO2 SLP049     T00440009 10089 21007 53003 FZRANO $=,
20180123_070000.005,0,RJTY,,,,1,20180123060000,-1,-1,-1,-1,0,-1,0,-1,-1,-1,-1,,-1,0,0,0,,1,5,1,1,1004,RJTY 230656Z AUTO 00000KT 10SM CLR 05/01 A2964 RMK AO2 SLP049     T00530010 FZRANO $=,
20180123_080000.002,0,RJTY,,,,1,20180123070000,-1,-1,-1,-1,0,-1,0,-1,-1,-1,-1,,-1,0,0,0,,1,5,1,1,1004,RJTY 230756Z AUTO 00000KT 10SM CLR 05/01 A2965 RMK AO2 SLP052     T00470006 FZRANO $=,
20180123_090000.002,0,RJTY,,,,1,20180123080000,-1,-1,-1,-1,240,-1,6,-1,-1,-1,-1,,-1,1,0,0,,1,4,1,1,1004,RJTY 230856Z AUTO 24006KT 10SM R36/4500FT CLR 04/01 A2966 RMK     AO2 SLP056 T00380012 52009 FZRANO $=,
20180123_100000.002,0,RJTY,,,,1,20180123090000,-1,-1,-1,-1,270,-1,6,-1,-1,-1,-1,,-1,1,0,0,,1,4,-1,2,1005,RJTY 230956Z AUTO 27006KT 10SM R36/4500FT CLR 04/M02 A2969 RMK     AO2 SLP066 T00351017 FZRANO $=,
20180123_110000.002,0,RJTY,,,,1,20180123100000,-1,-1,-1,-1,20,-1,5,-1,-1,-1,-1,,-1,1,0,0,,1,3,-1,6,1006,RJTY 231056Z AUTO 02005KT 10SM R36/4500FT CLR 03/M06 A2971 RMK     AO2 SLP073 T00301059 FZRANO $=,
20180123_233000.001,1,RJTY,,,,0,20180123220000,-1,-1,-1,-1,260,-1,7,-1,-1,-1,-1,,-1,0,0,1,FEW 40,1,0,-1,12,1008,RJTY 232258Z 26007KT 7SM FEW040 00/M12 A2978 RMK AO2 SLP080     T00000000 FZRANO $=,
20180124_000000.005,1,RJTY,,,,0,20180123230000,-1,-1,-1,-1,240,-1,7,-1,-1,-1,-1,,-1,0,0,0,,1,2,-1,13,1008,RJTY 232358Z 24007KT 7SM CLR 02/M13 A2977 RMK AO2A SLP088 WND     DATA ESTMD=,
20180124_010000.006,1,RJTY,,,,0,20180124000000,-1,-1,-1,-1,240,-1,9,-1,15,-1,-1,,-1,0,0,0,,1,3,-1,12,1007,RJTY 240055Z 24009G15KT 7SM CLR 03/M12 A2974 RMK AO2A SLP079     WND DATA ESTMD P0035 1119=,
20180124_020000.004,1,RJTY,,,,0,20180124010000,-1,-1,-1,-1,220,-1,10,-1,17,-1,-1,,-1,0,0,0,,1,4,-1,15,1006,RJTY 240155Z 22010G17KT 7SM CLR 04/M15 A2971 RMK AO2A SLP067     WND DATA ESTMD T00431145=,
20180124_030000.002,0,RJTY,,,,1,20180124020000,-1,-1,-1,-1,280,-1,10,-1,19,-1,-1,,-1,0,0,0,,1,6,-1,16,1004,RJTY 240256Z AUTO 28010G19KT 10SM M 06/M16 A2964 RMK AO2 PRESFR     SLPNO T00561156 FZRANO CHINO RWY36 $=,
20180124_030000.005,1,RJTY,,,,1,20180124020000,-1,-1,-1,-1,280,-1,10,-1,19,-1,-1,,-1,0,0,0,,1,6,-1,16,1004,RJTY 240256Z AUTO 28010G19KT 10SM CLR 06/M16 A2964 RMK AO2A     PRESFR SLPNO T00561156 FZRANO CHINO RWY36 $ COR 0304=,
20180124_040000.002,0,RJTY,,,,1,20180124030000,-1,-1,-1,-1,310,-1,11,-1,19,-1,-1,,-1,0,0,0,,1,5,-1,15,1003,RJTY 240356Z AUTO 31011G19KT 10SM CLR 05/M15 A2962 RMK AO2 PK     WND 32030/07 SLPNO T00531153 FZRANO $=,
20180124_050000.004,0,RJTY,,,,1,20180124040000,-1,-1,-1,-1,300,-1,8,-1,21,-1,-1,,-1,0,0,0,,1,5,-1,16,1002,RJTY 240456Z AUTO 30008G21KT 10SM CLR 05/M16 A2960 RMK AO2 PK     WND 29028/36 SLPNO T00531159 FZRANO $=,
20180124_060000.002,0,RJTY,,,,0,20180124050000,-1,-1,-1,-1,270,-1,10,-1,21,-1,-1,,-1,0,0,0,,1,5,-1,14,1003,RJTY 240556Z 27010G21KT 10SM CLR 05/M14 A2962 RMK AO2A PK     WND 30029/03 SLPNO 4/006 T00511144 10058 20047 55008           FZRANO $ COR 0559=,
20180124_060000.002,0,RJTY,,,,1,20180124050000,-1,-1,-1,-1,270,-1,10,-1,21,-1,-1,,-1,0,0,0,,1,5,-1,14,1003,RJTY 240556Z AUTO 27010G21KT 10SM CLR 05/M14 A2962 RMK AO2 PK     WND 30029/03 SLPNO T00511144 10058 20047 55008 FZRANO $=,
20180124_070000.002,0,RJTY,,,,1,20180124060000,-1,-1,-1,-1,280,-1,12,-1,23,-1,-1,,-1,0,0,0,,1,4,-1,15,1004,RJTY 240656Z AUTO 28012G23KT 10SM CLR 04/M15 A2965 RMK AO2 PK     WND 28028/39 SLPNO T00351152 FZRANO $=,
20180124_080000.002,0,RJTY,,,,1,20180124070000,-1,-1,-1,-1,290,-1,13,-1,28,-1,-1,,-1,0,0,0,,1,3,-1,16,1005,RJTY 240756Z AUTO 29013G28KT 10SM CLR 03/M16 A2968 RMK AO2 PK     WND 29030/43 SLPNO T00251161 FZRANO $=,
20180124_090000.003,0,RJTY,,,,1,20180124080000,-1,-1,-1,-1,290,-1,15,-1,27,-1,-1,,-1,1,0,0,,1,2,-1,18,1006,RJTY 240856Z AUTO 29015G27KT 10SM R36/4500FT CLR 02/M18 A2971     RMK AO2 PK WND 28027/47 SLPNO T00171183 52031 FZRANO $=,
20180124_100000.002,0,RJTY,,,,1,20180124090000,-1,-1,-1,-1,290,-1,5,-1,-1,-1,-1,,-1,1,0,0,,1,1,-1,17,1007,RJTY 240956Z AUTO 29005KT 10SM R36/4500FT CLR 01/M17 A2974 RMK     AO2 SLPNO T00071171 FZRANO $=,
20180124_110000.002,0,RJTY,,,,1,20180124100000,-1,-1,-1,-1,20,-1,10,-1,-1,-1,-1,,-1,1,0,0,,-1,2,-1,10,1008,RJTY 241056Z AUTO 02010KT 10SM R36/4500FT CLR M02/M10 A2976 RMK     AO2 SLPNO T10171105 FZRANO $=,
20180124_120000.002,0,RJTY,,,,0,20180124110000,-1,-1,-1,-1,350,-1,9,-1,-1,-1,-1,,-1,0,0,0,,-1,1,-1,9,1008,RJTY 241156Z 35009KT 10SM CLR M01/M09 A2977 RMK AO2A SLPNO     4/006 T10141095 10051 21022 52022 FZRANO $=,
20180124_130000.002,0,RJTY,,,,1,20180124120000,-1,-1,-1,-1,340,-1,6,-1,-1,-1,-1,,-1,1,0,0,,-1,2,-1,10,1008,RJTY 241256Z AUTO 34006KT 10SM R36/4500FT CLR M02/M10 A2978 RMK     AO2 SLPNO T10191098 FZRANO $=,
20180124_140000.001,0,RJTY,,,,1,20180124130000,-1,-1,-1,-1,20,-1,10,-1,-1,-1,-1,,-1,0,0,0,,-1,4,-1,11,1009,RJTY 241356Z AUTO 02010KT 10SM CLR M04/M11 A2979 RMK AO2 SLPNO     T10371112 FZRANO $=,
20180124_150000.002,0,RJTY,,,,1,20180124140000,-1,-1,-1,-1,350,-1,7,-1,-1,-1,-1,,-1,0,0,0,,-1,3,-1,11,1009,RJTY 241456Z AUTO 35007KT 10SM CLR M03/M11 A2979 RMK AO2 SLP100     T10291114 400581043 52006 FZRANO $=,
20180124_160000.002,0,RJTY,,,,1,20180124150000,-1,-1,-1,-1,40,-1,6,-1,-1,-1,-1,,-1,0,0,0,,-1,5,-1,12,1009,RJTY 241556Z AUTO 04006KT 10SM CLR M05/M12 A2980 RMK AO2 SLP104     T10531121 FZRANO $=,
20180124_170000.002,0,RJTY,,,,1,20180124160000,-1,-1,-1,-1,20,-1,6,-1,-1,-1,-1,,-1,0,0,0,,-1,7,-1,13,1010,RJTY 241656Z AUTO 02006KT 10SM CLR M07/M13 A2982 RMK AO2 SLP111     T10751130 FZRANO $=,
20180124_180000.002,0,RJTY,,,,1,20180124170000,-1,-1,-1,-1,10,-1,7,-1,-1,-1,-1,,-1,0,0,0,,-1,9,-1,14,1010,RJTY 241756Z AUTO 01007KT 10SM CLR M09/M14 A2982 RMK AO2 SLP112     T10911138 11015 21092 50009 FZRANO $=,
20180124_190000.001,0,RJTY,,,,1,20180124180000,-1,-1,-1,-1,360,-1,5,-1,-1,-1,-1,,-1,0,0,0,,-1,8,-1,13,1010,RJTY 241856Z AUTO 36005KT 10SM CLR M08/M13 A2983 RMK AO2 SLP115     T10781134 FZRANO $=,
20180124_200000.002,0,RJTY,,,,1,20180124190000,-1,-1,-1,-1,0,-1,0,-1,-1,-1,-1,,-1,0,0,0,,-1,6,-1,12,1010,RJTY 241956Z AUTO 00000KT 10SM CLR M06/M12 A2984 RMK AO2 SLP119     T10631124 FZRANO $=,
20180124_200000.005,1,RJTY,,,,0,20180124190000,-1,-1,-1,-1,220,-1,2,-1,-1,-1,-1,,-1,0,0,0,,-1,6,-1,13,1011,RJTY 241955Z 22002KT 10SM CLR M06/M13 A2986 RMK AO2 SLP122 WND     DATA ESTMD P10651135=,
20180124_210000.005,0,RJTY,,,,1,20180124200000,-1,-1,-1,-1,220,-1,4,-1,-1,-1,-1,,-1,0,0,0,,-1,7,-1,11,1010,RJTY 242056Z AUTO 22004KT 10SM CLR M07/M11 A2984 RMK AO2 SLP119     T10661114 52007 FZRANO $=,
20180124_210000.005,1,RJTY,,,,0,20180124200000,-1,-1,-1,-1,200,-1,3,-1,-1,-1,-1,,-1,0,0,0,,-1,7,-1,14,1011,RJTY 242055Z 20003KT 10SM CLR M07/M14 A2987 RMK AO2A SLP124 WND     DATA ESTMD T10761139 52007=,
20180124_220000.002,0,RJTY,,,,1,20180124210000,-1,-1,-1,-1,0,-1,0,-1,-1,-1,-1,,-1,0,0,0,,-1,8,-1,11,1011,RJTY 242156Z AUTO 00000KT 10SM CLR M08/M11 A2986 RMK AO2 SLP127     T10771112 FZRANO $=,
20180124_220000.005,1,RJTY,,,,0,20180124210000,-1,-1,-1,-1,230,-1,1,-1,-1,-1,-1,,-1,0,0,0,,-1,8,-1,12,1012,RJTY 242155Z 23001KT 10SM CLR M08/M12 A2988 RMK AO2A SLP131 WND     DATA ESTMD T10781123=,
20180124_230000.002,0,RJTY,,,,1,20180124220000,-1,-1,-1,-1,280,-1,3,-1,-1,-1,-1,,-1,0,0,0,,-1,5,-1,11,1012,RJTY 242256Z AUTO 28003KT 10SM CLR M05/M11 A2988 RMK AO2 SLP133     T10501114 FZRANO $=,
20180125_000000.004,0,RJTY,,,,1,20180124230000,-1,-1,-1,-1,0,-1,0,-1,-1,-1,-1,,-1,0,0,0,,-1,5,-1,11,1012,RJTY 242356Z AUTO 00000KT 10SM CLR M05/M11 A2988 RMK AO2 SLP133     T10511107 11040 21093 52014 FZRANO $=,
20180125_010000.002,0,RJTY,,,,1,20180125000000,-1,-1,-1,-1,20,-1,3,-1,-1,-1,-1,,-1,0,0,0,,-1,2,-1,12,1012,RJTY 250056Z AUTO 02003KT 10SM CLR M02/M12 A2988 RMK AO2 SLP132     T10231118 FZRANO $=,
20180125_020000.003,0,RJTY,,,,1,20180125010000,-1,-1,-1,-1,60,-1,3,-1,-1,-1,-1,,-1,0,0,0,,1,0,-1,18,1011,RJTY 250156Z AUTO 06003KT 10SM CLR 00/M18 A2987 RMK AO2 SLP129     T10041185 FZRANO $=,
20180125_030000.002,0,RJTY,,,,1,20180125020000,-1,-1,-1,-1,140,-1,3,-1,-1,-1,-1,,-1,0,0,0,,1,1,-1,18,1011,RJTY 250256Z AUTO 14003KT 10SM CLR 01/M18 A2986 RMK AO2     UPB45E48 SLP125 P0000 60000 T00051178 58009 FZRANO $=,
20180125_040000.002,0,RJTY,,,,1,20180125030000,-1,-1,-1,-1,0,-1,0,-1,-1,-1,-1,,-1,0,0,0,,1,1,-1,18,1010,RJTY 250356Z AUTO 00000KT 10SM CLR 01/M18 A2983 RMK AO2 SLP115     T00141180 FZRANO $=,
20180125_050000.002,0,RJTY,,,,1,20180125040000,-1,-1,-1,-1,120,-1,3,-1,-1,-1,-1,,-1,0,0,0,,1,2,-1,16,1010,RJTY 250456Z AUTO 12003KT 10SM CLR 02/M16 A2982 RMK AO2 SLP113     T00181157 FZRANO $=,
20180125_060000.002,0,RJTY,,,,1,20180125050000,-1,-1,-1,-1,0,-1,0,-1,-1,-1,-1,,-1,0,0,0,,1,2,-1,15,1010,RJTY 250556Z AUTO 00000KT 10SM CLR 02/M15 A2982 RMK AO2 SLP113     60000 T00221154 10025 21049 55013 FZRANO $=,
20180125_060000.005,1,RJTY,,,,0,20180125050000,-1,-1,-1,-1,0,-1,0,-1,-1,-1,-1,,-1,0,0,0,,1,2,-1,15,1010,RJTY 250556Z 00000KT 10SM CLR 02/M15 A2982 RMK AO2A SLP113     60000 4/005 T00221154 10025 21049 55013 FZRANO $ COR 0630=,
20180125_070000.002,0,RJTY,,,,1,20180125060000,-1,-1,-1,-1,120,-1,7,-1,-1,-1,-1,,-1,0,0,0,,1,2,-1,14,1010,RJTY 250656Z AUTO 12007KT 10SM CLR 02/M14 A2983 RMK AO2     UPB35E46 SLP116 P0000 T00181136 FZRANO $=,
20180125_070000.004,1,RJTY,,,,0,20180125060000,-1,-1,-1,-1,120,-1,7,-1,-1,-1,-1,,-1,0,0,0,,1,2,-1,14,1010,RJTY 250656Z 12007KT 10SM CLR 02/M14 A2983 RMK AO2A SLP116     T00181136 FZRANO $ COR 0708=,
20180125_080000.002,0,RJTY,,,,1,20180125070000,-1,-1,-1,-1,110,-1,5,-1,-1,-1,-1,,-1,0,0,0,,1,1,-1,14,1010,RJTY 250756Z AUTO 11005KT 10SM CLR 01/M14 A2984 RMK AO2 SLP119     T00101139 FZRANO $=,
20180125_090000.002,0,RJTY,,,,0,20180125080000,-1,-1,-1,-1,80,-1,4,-1,-1,-1,-1,,-1,0,0,0,,-1,1,-1,12,1010,RJTY 250856Z 08004KT 10SM CLR M01/M12 A2984 RMK AO2A SLP120     T10061119 52007 FZRANO $ COR 0859=,
20180125_090000.002,0,RJTY,,,,1,20180125080000,-1,-1,-1,-1,80,-1,4,-1,-1,-1,-1,,-1,1,0,0,,-1,1,-1,12,1010,RJTY 250856Z AUTO 08004KT 10SM R36/4500FT CLR M01/M12 A2984 RMK     AO2 SLP120 60000 T10061119 52007 FZRANO $=,
20180125_100000.003,0,RJTY,,,,0,20180125090000,-1,-1,-1,-1,50,-1,3,-1,-1,-1,-1,,-1,0,0,0,,-1,3,-1,12,1010,RJTY 250956Z 05003KT 10SM CLR M03/M12 A2984 RMK AO2A SLP121     T10301120 FZRANO $=,
20180125_110000.003,0,RJTY,,,,0,20180125100000,-1,-1,-1,-1,270,-1,4,-1,-1,-1,-1,,-1,0,0,0,,-1,2,-1,10,1010,RJTY 251056Z 27004KT 10SM CLR M02/M10 A2984 RMK AO2A SLP119     T10191098 FZRANO $=,
20180125_120000.002,0,RJTY,,,,0,20180125110000,-1,-1,-1,-1,0,-1,0,-1,-1,-1,-1,,-1,0,0,0,,-1,3,-1,10,1010,RJTY 251156Z 00000KT 10SM CLR M03/M10 A2984 RMK AO2A SLP120     4/005 T10261102 10025 21033 57003 FZRANO $=,
20180125_130000.002,0,RJTY,,,,1,20180125120000,-1,-1,-1,-1,0,-1,0,-1,-1,-1,-1,,-1,1,0,0,,-1,5,-1,11,1009,RJTY 251256Z AUTO 00000KT 10SM R36/4500FT CLR M05/M11 A2981 RMK     AO2 SLP110 T10461110 FZRANO $=,
20180125_140000.002,0,RJTY,,,,1,20180125130000,-1,-1,-1,-1,0,-1,0,-1,-1,-1,-1,,-1,0,0,0,,-1,5,-1,10,1009,RJTY 251356Z AUTO 00000KT 10SM CLR M05/M10 A2979 RMK AO2 SLP102     T10481100 FZRANO $=,
20180125_150000.002,0,RJTY,,,,1,20180125140000,-1,-1,-1,-1,0,-1,0,-1,-1,-1,-1,,-1,0,0,0,,-1,5,-1,9,1008,RJTY 251456Z AUTO 00000KT 10SM CLR M05/M09 A2978 RMK AO2 SLP098     T10501095 400251093 57019 FZRANO $=,
20180125_160000.002,0,RJTY,,,,1,20180125150000,-1,-1,-1,-1,270,-1,3,-1,-1,-1,-1,,-1,0,0,0,,-1,5,-1,11,1008,RJTY 251556Z AUTO 27003KT 10SM CLR M05/M11 A2976 RMK AO2 SLP092     T10461106 FZRANO $=,
20180125_170000.002,0,RJTY,,,,1,20180125160000,-1,-1,-1,-1,0,-1,0,-1,-1,-1,-1,,-1,0,0,0,,-1,7,-1,11,1007,RJTY 251656Z AUTO 00000KT 10SM CLR M07/M11 A2975 RMK AO2 SLP089     T10671113 FZRANO $=,
20180125_180000.002,0,RJTY,,,,1,20180125170000,-1,-1,-1,-1,0,-1,0,-1,-1,-1,-1,,-1,0,0,0,,-1,6,-1,11,1007,RJTY 251756Z AUTO 00000KT 10SM CLR M06/M11 A2974 RMK AO2 SLP085     T10561115 11028 21077 57012 FZRANO $=,
20180125_190000.002,0,RJTY,,,,1,20180125180000,-1,-1,-1,-1,0,-1,0,-1,-1,-1,-1,,-1,0,0,0,,-1,7,-1,12,1007,RJTY 251856Z AUTO 00000KT 10SM CLR M07/M12 A2973 RMK AO2 SLP082     T10691118 FZRANO $=,
20180125_200000.001,0,RJTY,,,,1,20180125190000,-1,-1,-1,-1,0,-1,0,-1,-1,-1,-1,,-1,0,0,0,,-1,5,-1,11,1007,RJTY 251956Z AUTO 00000KT 10SM CLR M05/M11 A2973 RMK AO2 SLP081     T10551111 FZRANO $=,
20180125_210000.002,0,RJTY,,,,1,20180125200000,-1,-1,-1,-1,260,-1,4,-1,-1,-1,-1,,-1,0,0,0,,-1,6,-1,12,1007,RJTY 252056Z AUTO 26004KT 10SM CLR M06/M12 A2974 RMK AO2 SLP085     T10591120 55001 FZRANO $=,
20180125_220000.002,0,RJTY,,,,1,20180125210000,-1,-1,-1,-1,290,-1,7,-1,-1,-1,-1,,-1,0,0,0,,-1,6,-1,12,1007,RJTY 252156Z AUTO 29007KT 10SM CLR M06/M12 A2974 RMK AO2 SLP087     T10581119 FZRANO $=,
20180125_230000.003,0,RJTY,,,,1,20180125220000,-1,-1,-1,-1,300,-1,3,-1,-1,-1,-1,,-1,0,0,0,,-1,5,-1,12,1007,RJTY 252256Z AUTO 30003KT 10SM CLR M05/M12 A2975 RMK AO2 SLP089     T10521120 FZRANO $=,
20180126_000000.004,0,RJTY,,,,1,20180125230000,-1,-1,-1,-1,0,-1,0,-1,-1,-1,-1,,-1,0,0,0,,-1,3,-1,11,1008,RJTY 252356Z AUTO 00000KT 10SM CLR M03/M11 A2976 RMK AO2 SLP092     T10291114 11029 21094 52008 FZRANO $=,
20180126_010000.002,0,RJTY,,,,1,20180126000000,-1,-1,-1,-1,90,-1,4,-1,-1,-1,-1,,-1,0,0,0,,1,1,-1,13,1008,RJTY 260056Z AUTO 09004KT 10SM CLR 01/M13 A2976 RMK AO2     UPB08E17 SLP092 P0000 T00051129 FZRANO $=,
20180126_010000.004,1,RJTY,,,,0,20180126000000,-1,-1,-1,-1,90,-1,4,-1,-1,-1,-1,,-1,0,0,0,,1,1,-1,13,1008,RJTY 260056Z 09004KT 10SM CLR 01/M13 A2976 RMK AO2 SLP092     T00051129 $ COR 0111=,
20180126_020000.002,0,RJTY,,,,1,20180126010000,-1,-1,-1,-1,70,-1,6,-1,-1,-1,-1,,-1,0,0,0,,1,2,-1,10,1007,RJTY 260156Z AUTO 07006KT 10SM CLR 02/M10 A2974 RMK AO2 SLP084     T00171105 FZRANO $=,
20180126_030000.002,0,RJTY,,,,1,20180126020000,-1,-1,-1,-1,110,-1,5,-1,-1,-1,-1,,-1,0,0,1,FEW 85,1,2,-1,11,1006,RJTY 260256Z AUTO 11005KT 10SM FEW085 02/M11 A2972 RMK AO2     SLP077 60000 T00191113 58014 FZRANO $=,
20180126_040000.002,0,RJTY,,,,1,20180126030000,-1,-1,-1,-1,60,-1,13,-1,-1,-1,-1,,-1,0,0,1,OVC 60,1,2,-1,10,1006,RJTY 260356Z AUTO 06013KT 10SM OVC060 02/M10 A2970 RMK AO2     SLP070 T00231102 FZRANO $=,
20180126_050000.002,0,RJTY,,,,1,20180126040000,-1,-1,-1,-1,50,-1,16,-1,21,-1,-1,,-1,0,0,2,SCT 65   BKN 80,1,2,-1,10,1006,RJTY 260456Z AUTO 05016G21KT 10SM SCT065 BKN080 02/M10 A2970     RMK AO2 SLP071 T00191103 FZRANO $=,
20180126_060000.002,0,RJTY,,,,1,20180126050000,-1,-1,-1,-1,60,-1,9,-1,-1,-1,-1,,-1,0,0,0,,1,2,-1,11,1006,RJTY 260556Z AUTO 06009KT 10SM CLR 02/M11 A2972 RMK AO2 SLP078     60000 T00191109 10028 21028 55000 FZRANO $=,
20180126_060000.004,1,RJTY,,,,0,20180126050000,-1,-1,-1,-1,60,-1,9,-1,-1,-1,-1,,-1,0,0,0,,1,2,-1,11,1006,RJTY 260556Z 06009KT 10SM CLR 02/M11 A2972 RMK AO2A SLP078     T00191109 10028 21028 55000 FZRANO $ COR 0603=,
20180126_060000.005,1,RJTY,,,,0,20180126050000,-1,-1,-1,-1,60,-1,9,-1,-1,-1,-1,,-1,0,0,0,,1,2,-1,11,1006,RJTY 260556Z 06009KT 10SM CLR 02/M11 A2972 RMK AO2A SLP078     4/005 T00191109 10028 21028 55000 FZRANO $ COR 0619=,
20180126_070000.002,0,RJTY,,,,1,20180126060000,-1,-1,-1,-1,40,-1,15,-1,20,-1,-1,,-1,0,0,0,,1,1,-1,11,1006,RJTY 260656Z AUTO 04015G20KT 10SM CLR 01/M11 A2972 RMK AO2     SLP079 T00101114 FZRANO $=,
20180126_080000.003,0,RJTY,,,,1,20180126070000,-1,-1,-1,-1,10,-1,14,-1,-1,-1,-1,,-1,0,0,0,,1,0,-1,12,1007,RJTY 260756Z AUTO 01014KT 10SM CLR 00/M12 A2975 RMK AO2 SLP089     T00031117 FZRANO $=,
20180126_090000.002,0,RJTY,,,,0,20180126080000,-1,-1,-1,-1,20,-1,16,-1,-1,-1,-1,,-1,0,0,1,FEW 60,-1,1,-1,12,1008,RJTY 260856Z 02016KT 10SM FEW060 M01/M12 A2978 RMK AO2A SLP099     T10111118 52020 FZRANO $=,
20180126_100000.002,0,RJTY,,,,0,20180126090000,-1,-1,-1,-1,20,-1,14,-1,-1,-1,-1,,-1,0,0,0,,-1,2,-1,11,1010,RJTY 260956Z 02014KT 10SM CLR M02/M11 A2982 RMK AO2A SLP113     T10211109 FZRANO $=,
20180126_110000.002,0,RJTY,,,,0,20180126100000,-1,-1,-1,-1,360,-1,11,-1,-1,-1,-1,,-1,0,0,0,,-1,1,-1,13,1010,RJTY 261056Z 36011KT 10SM CLR M01/M13 A2984 RMK AO2A SLP119     T10081134 FZRANO $=,
20180126_120000.002,0,RJTY,,,,0,20180126110000,-1,-1,-1,-1,10,-1,11,-1,-1,-1,-1,,-1,0,0,0,,-1,4,-1,13,1010,RJTY 261156Z 01011KT 10SM CLR M04/M13 A2983 RMK AO2A SLP116     4/005 T10441130 10019 21046 50019 FZRANO $=,
20180126_130000.002,0,RJTY,,,,1,20180126120000,-1,-1,-1,-1,340,-1,5,-1,-1,-1,-1,,-1,1,0,0,,-1,4,-1,15,1010,RJTY 261256Z AUTO 34005KT 10SM R36/4500FT CLR M04/M15 A2984 RMK     AO2 SLP119 T10381146 FZRANO $=,
20180126_140000.002,0,RJTY,,,,1,20180126130000,-1,-1,-1,-1,260,-1,6,-1,-1,-1,-1,,-1,0,0,0,,-1,3,-1,12,1010,RJTY 261356Z AUTO 26006KT 10SM CLR M03/M12 A2983 RMK AO2 SLP115     T10281120 FZRANO $=,
20180126_150000.002,0,RJTY,,,,1,20180126140000,-1,-1,-1,-1,0,-1,0,-1,-1,-1,-1,,-1,0,0,0,,-1,3,-1,13,1010,RJTY 261456Z AUTO 00000KT 10SM CLR M03/M13 A2984 RMK AO2 SLP118     T10351129 400281094 50003 FZRANO $=,
20180126_160000.002,0,RJTY,,,,1,20180126150000,-1,-1,-1,-1,240,-1,3,-1,-1,-1,-1,,-1,0,0,0,,-1,4,-1,14,1011,RJTY 261556Z AUTO 24003KT 10SM CLR M04/M14 A2986 RMK AO2 SLP125     T10411140 FZRANO $=,
20180126_170000.002,0,RJTY,,,,1,20180126160000,-1,-1,-1,-1,280,-1,7,-1,-1,-1,-1,,-1,0,0,0,,-1,4,-1,13,1012,RJTY 261656Z AUTO 28007KT 10SM CLR M04/M13 A2989 RMK AO2 SLP135     T10451129 FZRANO $=,
20180126_180000.002,0,RJTY,,,,1,20180126170000,-1,-1,-1,-1,0,-1,0,-1,-1,-1,-1,,-1,0,0,0,,-1,7,-1,13,1013,RJTY 261756Z AUTO 00000KT 10SM CLR M07/M13 A2990 RMK AO2 SLP140     T10701135 11022 21070 FZRANO $=,
20180126_190000.002,0,RJTY,,,,1,20180126180000,-1,-1,-1,-1,270,-1,6,-1,-1,-1,-1,,-1,0,0,0,,-1,5,-1,13,1013,RJTY 261856Z AUTO 27006KT 10SM CLR M05/M13 A2991 RMK AO2 SLP143     T10551129 FZRANO $=,
20180126_200000.001,0,RJTY,,,,1,20180126190000,-1,-1,-1,-1,0,-1,0,-1,-1,-1,-1,,-1,0,0,0,,-1,6,-1,13,1013,RJTY 261956Z AUTO 00000KT 10SM CLR M06/M13 A2992 RMK AO2     SLP147=,
20180126_210000.002,0,RJTY,,,,1,20180126200000,-1,-1,-1,-1,270,-1,3,-1,-1,-1,-1,,-1,0,0,0,,-1,6,-1,14,1014,RJTY 262056Z AUTO 27003KT 10SM CLR M06/M14 A2994 RMK AO2     SLP154=,
20180126_220000.005,1,RJTY,,,,0,20180126210000,-1,-1,-1,-1,280,-1,7,-1,-1,-1,-1,,-1,0,0,0,,-1,7,-1,13,1015,RJTY 262156Z 28007KT 10SM CLR M07/M13 A2997 RMK SLP165=,
20180126_230000.005,1,RJTY,,,,0,20180126220000,-1,-1,-1,-1,310,-1,4,-1,-1,-1,-1,,-1,0,0,0,,-1,3,-1,13,1015,RJTY 262256Z 31004KT 10SM CLR M03/M13 A2998 RMK SLP166=,
20180127_000000.004,0,RJTY,,,,0,20180126230000,-1,-1,-1,-1,310,-1,6,-1,-1,-1,-1,,-1,0,0,0,,-1,2,-1,12,1016,RJTY 262356Z 31006KT 10SM CLR M02/M12 A2999 RMK SLP170 4/005=,
20180127_010000.006,1,RJTY,,,,0,20180127000000,-1,-1,-1,-1,360,-1,15,-1,20,-1,-1,,-1,0,0,0,,1,3,-1,11,1016,RJTY 270056Z 36015G20KT 10SM CLR 03/M11 A2999 RMK SLP168=,
20180127_020000.002,0,RJTY,,,,0,20180127010000,-1,-1,-1,-1,20,-1,17,-1,22,-1,-1,,-1,0,0,0,,1,4,-1,11,1015,RJTY 270156Z 02017G22KT 10SM CLR 04/M11 A2997 RMK SLP161=,
20180127_030000.002,0,RJTY,,,,0,20180127020000,-1,-1,-1,-1,350,-1,11,-1,-1,-1,-1,,-1,0,0,0,,1,5,-1,14,1014,RJTY 270256Z 35011KT 10SM CLR 05/M14 A2995 RMK SLP154=,
20180127_040000.002,0,RJTY,,,,0,20180127030000,-1,-1,-1,-1,999,-1,4,-1,-1,-1,-1,,-1,0,0,0,,1,6,-1,15,1014,RJTY 270356Z VRB04KT 10SM CLR 06/M15 A2994 RMK SLP151=,
20180127_050000.002,0,RJTY,,,,0,20180127040000,-1,-1,-1,-1,190,-1,10,-1,-1,-1,-1,,-1,0,0,0,,1,6,-1,15,1014,RJTY 270458Z 19010KT 10SM CLR 06/M15 A2994 RMK AO2A SLP151=,
20180127_060000.004,1,RJTY,,,,0,20180127050000,-1,-1,-1,-1,180,-1,4,-1,-1,-1,-1,,-1,0,0,0,,1,5,-1,12,1015,RJTY 270556Z 18004KT 10SM CLR 05/M12 A2998 RMK AO2A SLP166     4/003 T00541117 10062 21024 FZRANO $=,
20180127_070000.002,0,RJTY,,,,1,20180127060000,-1,-1,-1,-1,160,-1,5,-1,-1,-1,-1,,-1,0,0,0,,1,5,-1,12,1016,RJTY 270656Z AUTO 16005KT 10SM CLR 05/M12 A2999 RMK AO2 SLP168     T00501116 FZRANO $=,
20180127_080000.002,0,RJTY,,,,1,20180127070000,-1,-1,-1,-1,30,-1,11,-1,-1,-1,-1,,-1,0,0,0,,1,3,-1,9,1017,RJTY 270756Z AUTO 03011KT 10SM CLR 03/M09 A3002 RMK AO2 SLPNO     T00281095 FZRANO $=,
20180127_090000.003,0,RJTY,,,,1,20180127080000,-1,-1,-1,-1,30,-1,14,-1,-1,-1,-1,,-1,1,0,0,,1,2,-1,9,1017,RJTY 270856Z AUTO 03014KT 10SM R36/4500FT CLR 02/M09 A3004 RMK     AO2 SLPNO T00151094 52022 FZRANO $=,
20180127_100000.002,0,RJTY,,,,1,20180127090000,-1,-1,-1,-1,20,-1,11,-1,-1,-1,-1,,-1,1,0,0,,1,0,-1,9,1018,RJTY 270956Z AUTO 02011KT 10SM R36/4500FT CLR 00/M09 A3007 RMK     AO2 SLPNO T10011090 FZRANO $=,
20180127_110000.002,0,RJTY,,,,1,20180127100000,-1,-1,-1,-1,10,-1,11,-1,-1,-1,-1,,-1,1,0,0,,-1,2,-1,9,1019,RJTY 271056Z AUTO 01011KT 10SM R36/4500FT CLR M02/M09 A3008 RMK     AO2 SLPNO T10181094 FZRANO $=,
20180127_120000.002,0,RJTY,,,,0,20180127110000,-1,-1,-1,-1,340,-1,10,-1,-1,-1,-1,,-1,1,0,0,,-1,1,-1,11,1019,RJTY 271156Z 34010KT 10SM R36/4500FT CLR M01/M11 A3008 RMK AO2A     SLPNO 4/003 T10131107 10056 21023 50012 FZRANO $=,
20180127_130000.002,0,RJTY,,,,1,20180127120000,-1,-1,-1,-1,290,-1,4,-1,-1,-1,-1,,-1,1,0,0,,1,0,-1,11,1019,RJTY 271256Z AUTO 29004KT 10SM R36/4500FT CLR 00/M11 A3009 RMK     AO2 SLPNO T00001114 FZRANO $=,
20180127_140000.001,0,RJTY,,,,1,20180127130000,-1,-1,-1,-1,290,-1,5,-1,-1,-1,-1,,-1,0,0,0,,-1,2,-1,9,1019,RJTY 271356Z AUTO 29005KT 10SM CLR M02/M09 A3010 RMK AO2 SLPNO     T10161088 FZRANO $=,
20180127_150000.002,0,RJTY,,,,1,20180127140000,-1,-1,-1,-1,310,-1,4,-1,-1,-1,-1,,-1,0,0,0,,-1,2,-1,11,1019,RJTY 271456Z AUTO 31004KT 10SM CLR M02/M11 A3010 RMK AO2 SLPNO     T10251108 400621077 51007 FZRANO $=,
20180127_160000.002,0,RJTY,,,,1,20180127150000,-1,-1,-1,-1,0,-1,0,-1,-1,-1,-1,,-1,0,0,0,,-1,3,-1,9,1020,RJTY 271556Z AUTO 00000KT 10SM CLR M03/M09 A3011 RMK AO2 SLPNO     T10271094 FZRANO $=,
20180127_170000.002,0,RJTY,,,,1,20180127160000,-1,-1,-1,-1,0,-1,0,-1,-1,-1,-1,,-1,0,0,0,,-1,3,-1,9,1020,RJTY 271656Z AUTO 00000KT 10SM CLR M03/M09 A3012 RMK AO2 SLPNO     T10341092 FZRANO $=,
20180127_180000.002,0,RJTY,,,,1,20180127170000,-1,-1,-1,-1,290,-1,6,-1,-1,-1,-1,,-1,0,0,0,,-1,3,-1,9,1020,RJTY 271756Z AUTO 29006KT 10SM CLR M03/M09 A3011 RMK AO2 SLP209     T10291092 10008 21068 50003 FZRANO $=,
20180127_190000.002,0,RJTY,,,,1,20180127180000,-1,-1,-1,-1,0,-1,0,-1,-1,-1,-1,,-1,0,0,0,,-1,5,-1,10,1020,RJTY 271856Z AUTO 00000KT 10SM CLR M05/M10 A3011 RMK AO2 SLP209     T10471097 FZRANO $=,
20180127_200000.002,0,RJTY,,,,1,20180127190000,-1,-1,-1,-1,280,-1,4,-1,-1,-1,-1,,-1,0,0,0,,-1,5,-1,10,1019,RJTY 271956Z AUTO 28004KT 10SM CLR M05/M10 A3010 RMK AO2 SLP206     T10491097 FZRANO $=,
20180127_210000.002,0,RJTY,,,,1,20180127200000,-1,-1,-1,-1,320,-1,3,-1,-1,-1,-1,,-1,0,0,1,OVC 170,-1,6,-1,11,1019,RJTY 272056Z AUTO 32003KT 10SM OVC170 M06/M11 A3010 RMK AO2     SLP207 T10651113 55003 FZRANO $=,
20180127_220000.002,0,RJTY,,,,1,20180127210000,-1,-1,-1,-1,270,-1,4,-1,-1,-1,-1,,-1,0,0,0,,-1,4,-1,10,1019,RJTY 272156Z AUTO 27004KT 10SM CLR M04/M10 A3010 RMK AO2 SLP207     T10411097 FZRANO $=,
20180127_230000.002,0,RJTY,,,,1,20180127220000,-1,-1,-1,-1,0,-1,0,-1,-1,-1,-1,,-1,0,0,0,,-1,2,-1,9,1019,RJTY 272256Z AUTO 00000KT 10SM CLR M02/M09 A3010 RMK AO2 SLP207     T10201092 FZRANO $=,
20180128_000000.005,0,RJTY,,,,0,20180127230000,-1,-1,-1,-1,0,-1,0,-1,-1,-1,-1,,-1,0,0,1,OVC 150,-1,2,-1,8,1020,RJTY 272356Z 00000KT 10SM OVC150 M02/M08 A3011 RMK AO2A SLP211     4/003 T10181085 11018 21070 50002 FZRANO $=,
20180128_010000.002,0,RJTY,,,,0,20180128000000,-1,-1,-1,-1,0,-1,0,-1,-1,-1,-1,,-1,0,0,1,SCT 140,1,0,-1,9,1020,RJTY 280056Z 00000KT 10SM SCT140 00/M09 A3011 RMK AO2A SLP209     T00021088 FZRANO $=,
20180128_020000.002,0,RJTY,,,,1,20180128010000,-1,-1,-1,-1,0,-1,0,-1,-1,-1,-1,,-1,0,0,2,SCT 60   OVC 120,1,2,-1,9,1019,RJTY 280156Z AUTO 00000KT 10SM SCT060 OVC120 02/M09 A3008 RMK     AO2 SLP199 T00161091 FZRANO $=,
20180128_030000.002,0,RJTY,,,,1,20180128020000,-1,-1,-1,-1,130,-1,4,-1,-1,-1,-1,,-1,0,0,1,OVC 110,1,2,-1,9,1017,RJTY 280256Z AUTO 13004KT 10SM OVC110 02/M09 A3002 RMK AO2     PRESFR SLP179 T00211089 58029 FZRANO $=,
20180128_040000.002,0,RJTY,,,,1,20180128030000,-1,-1,-1,-1,100,-1,5,-1,-1,-1,-1,,-1,0,0,2,FEW 110   SCT 140,1,2,-1,9,1016,RJTY 280356Z AUTO 10005KT 10SM FEW110 SCT140 02/M09 A3000 RMK     AO2 SLP172 T00231087 FZRANO $=,
20180128_050000.002,0,RJTY,,,,1,20180128040000,-1,-1,-1,-1,180,-1,3,-1,-1,-1,-1,,-1,0,0,1,FEW 50,1,3,-1,6,1015,RJTY 280456Z AUTO 18003KT 10SM FEW050 03/M06 A2998 RMK AO2     SLP165 T00271057 FZRANO $=,
20180128_060000.002,0,RJTY,,,,1,20180128050000,-1,-1,-1,-1,60,-1,5,-1,-1,-1,-1,,-1,0,0,1,FEW 95,1,3,-1,6,1015,RJTY 280556Z AUTO 06005KT 10SM FEW095 03/M06 A2996 RMK AO2     SLP158 T00321057 10032 21019 57021 FZRANO $=,
20180128_060000.004,1,RJTY,,,,0,20180128050000,-1,-1,-1,-1,60,-1,5,-1,-1,-1,-1,,-1,0,0,1,FEW 95,1,3,-1,6,1015,RJTY 280556Z 06005KT 10SM FEW095 03/M06 A2996 RMK AO2A     SLP158 4/003 T00321057 10032 21019 57021 FZRANO $ COR           0612=,
20180128_070000.001,0,RJTY,,,,1,20180128060000,-1,-1,-1,-1,40,-1,3,-1,-1,-1,-1,,-1,0,0,2,FEW 200   SCT 220,1,3,-1,5,1014,RJTY 280656Z AUTO 04003KT 10SM FEW200 SCT220 03/M05 A2994 RMK     AO2 SLP152 T00341053 FZRANO $=,
20180128_080000.002,0,RJTY,,,,1,20180128070000,-1,-1,-1,-1,30,-1,6,-1,-1,-1,-1,,-1,0,0,0,,1,2,-1,6,1014,RJTY 280756Z AUTO 03006KT 10SM CLR 02/M06 A2993 RMK AO2 SLP149     T00161056 FZRANO $=,
20180128_090000.002,0,RJTY,,,,1,20180128080000,-1,-1,-1,-1,40,-1,3,-1,-1,-1,-1,,-1,1,0,1,FEW 29,1,1,-1,6,1014,RJTY 280856Z AUTO 04003KT 10SM R36/4500FT FEW029 01/M06 A2994     RMK AO2 SLP153 T00081059 55006 FZRANO $=,
20180128_100000.002,0,RJTY,,,,1,20180128090000,-1,-1,-1,-1,20,-1,3,-1,-1,-1,-1,,-1,1,0,0,,1,0,-1,6,1014,RJTY 280956Z AUTO 02003KT 10SM R36/4500FT CLR 00/M06 A2993 RMK     AO2 SLP149 T10051065 FZRANO $=,
20180128_110000.002,0,RJTY,,,,1,20180128100000,-1,-1,-1,-1,0,-1,0,-1,-1,-1,-1,,-1,0,0,0,,1,0,-1,7,1013,RJTY 281056Z AUTO 00000KT 10SM CLR 00/M07 A2991 RMK AO2 SLP142     T00021071 FZRANO $=,
20180128_120000.002,0,RJTY,,,,0,20180128110000,-1,-1,-1,-1,0,-1,0,-1,-1,-1,-1,,-1,0,0,0,,-1,1,-1,6,1012,RJTY 281156Z 00000KT 10SM CLR M01/M06 A2988 RMK AO2A SLP132     4/003 T10151065 10035 21023 57019 FZRANO $ COR 1157=,
20180128_120000.002,0,RJTY,,,,1,20180128110000,-1,-1,-1,-1,0,-1,0,-1,-1,-1,-1,,-1,0,0,0,,-1,1,-1,6,1012,RJTY 281156Z AUTO 00000KT 10SM CLR M01/M06 A2988 RMK AO2 SLP132     T10151065 10035 21023 57019 FZRANO $=,
20180128_130000.002,0,RJTY,,,,1,20180128120000,-1,-1,-1,-1,310,-1,3,-1,-1,-1,-1,,-1,0,0,0,,-1,1,-1,6,1011,RJTY 281256Z AUTO 31003KT 10SM CLR M01/M06 A2985 RMK AO2 SLP121     T10111059 FZRANO $=,
20180128_140000.002,0,RJTY,,,,1,20180128130000,-1,-1,-1,-1,0,-1,0,-1,-1,-1,-1,,-1,0,0,0,,-1,2,-1,6,1011,RJTY 281356Z AUTO 00000KT 10SM CLR M02/M06 A2985 RMK AO2 SLP121     T10181064 FZRANO $=,
20180128_150000.002,0,RJTY,,,,1,20180128140000,-1,-1,-1,-1,0,-1,0,-1,-1,-1,-1,,-1,0,0,0,,-1,3,-1,6,1009,RJTY 281456Z AUTO 00000KT 10SM CLR M03/M06 A2981 RMK AO2 SLP107     T10281064 400351070 57025 FZRANO $=,
20180128_160000.002,0,RJTY,,,,1,20180128150000,-1,-1,-1,-1,0,-1,0,-1,-1,-1,-1,,-1,0,0,0,,-1,3,-1,6,1009,RJTY 281556Z AUTO 00000KT 10SM CLR M03/M06 A2979 RMK AO2 SLP100     T10291062 FZRANO $=,
20180128_170000.002,0,RJTY,,,,1,20180128160000,-1,-1,-1,-1,0,-1,0,-1,-1,-1,-1,,-1,0,0,0,,-1,3,-1,6,1008,RJTY 281656Z AUTO 00000KT 10SM CLR M03/M06 A2978 RMK AO2 SLP097     T10291059 FZRANO $=,
20180128_180000.002,0,RJTY,,,,1,20180128170000,-1,-1,-1,-1,280,-1,4,-1,-1,-1,-1,,-1,0,0,0,,-1,2,-1,5,1007,RJTY 281756Z AUTO 28004KT 10SM CLR M02/M05 A2975 RMK AO2 SLP086     T10221055 11008 21046 57019 FZRANO $=,
20180128_190000.001,0,RJTY,,,,1,20180128180000,-1,-1,-1,-1,0,-1,0,-1,-1,-1,-1,,-1,0,0,0,,-1,3,-1,6,1007,RJTY 281856Z AUTO 00000KT 10SM CLR M03/M06 A2975 RMK AO2 SLP087     T10311059 FZRANO $=,
20180128_200000.002,0,RJTY,,,,1,20180128190000,-1,-1,-1,-1,0,-1,0,-1,-1,-1,-1,,-1,0,0,0,,-1,5,-1,7,1007,RJTY 281956Z AUTO 00000KT 10SM CLR M05/M07 A2974 RMK AO2 SLP085     T10491074 FZRANO $=,
20180128_210000.002,0,RJTY,,,,1,20180128200000,-1,-1,-1,-1,0,-1,0,-1,-1,-1,-1,,-1,0,0,0,,-1,4,-1,6,1008,RJTY 282056Z AUTO 00000KT 10SM CLR M04/M06 A2976 RMK AO2 SLP092     T10391062 50002 FZRANO $=,
20180128_220000.003,0,RJTY,,,,1,20180128210000,-1,-1,-1,-1,210,-1,3,-1,-1,-1,-1,,-1,0,0,1,SCT 160,-1,4,-1,7,1008,RJTY 282156Z AUTO 21003KT 10SM SCT160 M04/M07 A2977 RMK AO2     SLP095 T10441067 FZRANO $=,
20180128_230000.002,0,RJTY,,,,1,20180128220000,-1,-1,-1,-1,0,-1,0,-1,-1,-1,-1,,-1,0,0,1,BKN 160,1,0,-1,5,1008,RJTY 282256Z AUTO 00000KT 10SM BKN160 00/M05 A2978 RMK AO2     SLP097 T00011047 FZRANO $=,
20180129_000000.001,0,RJTY,,,,0,20180128230000,-1,-1,-1,-1,0,-1,0,-1,-1,-1,-1,,-1,0,0,0,,1,0,-1,4,1008,RJTY 282356Z 00000KT 10SM CLR 00/M04 A2978 RMK AO2A SLP098     4/002 T00001044 10001 21050 51008 FZRANO $ COR 2358=,
20180129_000000.001,0,RJTY,,,,1,20180128230000,-1,-1,-1,-1,0,-1,0,-1,-1,-1,-1,,-1,0,0,0,,1,0,-1,4,1008,RJTY 282356Z AUTO 00000KT 10SM CLR 00/M04 A2978 RMK AO2 SLP098     T00001044 10001 21050 51008 FZRANO $=,
20180129_010000.002,0,RJTY,,,,1,20180129000000,-1,-1,-1,-1,0,-1,0,-1,-1,-1,-1,,-1,0,0,0,,1,4,-1,4,1009,RJTY 290056Z AUTO 00000KT 10SM CLR 04/M04 A2979 RMK AO2 SLP100     T00411039 FZRANO $=,
20180129_020000.002,0,RJTY,,,,1,20180129010000,-1,-1,-1,-1,40,-1,5,-1,-1,-1,-1,,-1,0,0,0,,1,4,-1,4,1008,RJTY 290156Z AUTO 04005KT 10SM CLR 04/M04 A2977 RMK AO2 SLP093     T00401040 FZRANO $=,
20180129_030000.002,0,RJTY,,,,1,20180129020000,-1,-1,-1,-1,20,-1,4,-1,-1,-1,-1,,-1,0,0,0,,1,6,-1,4,1007,RJTY 290256Z AUTO 02004KT 10SM CLR 06/M04 A2974 RMK AO2 SLP082     T00551041 58013 FZRANO $=,
20180129_040000.002,0,RJTY,,,,1,20180129030000,-1,-1,-1,-1,50,-1,3,-1,-1,-1,-1,,-1,0,0,0,,1,6,-1,5,1006,RJTY 290356Z AUTO 05003KT 10SM CLR 06/M05 A2971 RMK AO2 SLP072     T00621049 FZRANO $=,
20180129_050000.002,0,RJTY,,,,1,20180129040000,-1,-1,-1,-1,0,-1,0,-1,-1,-1,-1,,-1,0,0,0,,1,7,-1,5,1005,RJTY 290456Z AUTO 00000KT 10SM CLR 07/M05 A2969 RMK AO2 SLP065     T00691051 FZRANO $=,
20180129_060000.002,0,RJTY,,,,0,20180129050000,-1,-1,-1,-1,140,-1,3,-1,-1,-1,-1,,-1,0,0,0,,1,7,-1,4,1005,RJTY 290556Z 14003KT 10SM CLR 07/M04 A2969 RMK AO2A SLP065     4/002 T00741044 10074 20001 55018 FZRANO $=,
20180129_070000.002,0,RJTY,,,,1,20180129060000,-1,-1,-1,-1,100,-1,3,-1,-1,-1,-1,,-1,0,0,0,,1,8,-1,4,1005,RJTY 290656Z AUTO 10003KT 10SM CLR 08/M04 A2969 RMK AO2 SLP065     T00751037 FZRANO $=,
20180129_080000.002,0,RJTY,,,,1,20180129070000,-1,-1,-1,-1,0,-1,0,-1,-1,-1,-1,,-1,0,0,0,,1,7,-1,4,1005,RJTY 290756Z AUTO 00000KT 10SM CLR 07/M04 A2968 RMK AO2 SLP062     T00691036 FZRANO $=,
20180129_090000.002,0,RJTY,,,,1,20180129080000,-1,-1,-1,-1,110,-1,4,-1,-1,-1,-1,,-1,1,0,1,OVC 60,1,5,1,1,1006,METAR RJTY 290856Z AUTO 11004KT 10SM R36/4500FT OVC060 05/01 A2971           RMK AO2 RAB22E41 SLP073 P0000 60000 T00530005 53007 FZRANO,
20180129_093000.001,1,RJTY,,,,0,20180129080000,-1,-1,-1,-1,110,-1,4,-1,-1,-1,-1,,-1,0,0,1,OVC 60,1,5,1,1,1006,RJTY 290856Z 11004KT 10SM OVC060 05/01 A2971 RMK AO2A     SLP073 T00530005 53007 FZRANO $ COR 0924=,
20180129_100000.002,0,RJTY,,,,0,20180129090000,-1,-1,-1,-1,60,-1,4,-1,-1,-1,-1,,-1,0,0,2,BKN 25   OVC 60,1,5,1,1,1007,RJTY 290956Z 06004KT 10SM BKN025 OVC060 05/01 A2974 RMK AO2A     CIG 025V060 BKN V SCT SLP083 T00460006 FZRANO $=,
20180129_110000.002,0,RJTY,,,,1,20180129100000,-1,-1,-1,-1,30,-1,5,-1,-1,-1,-1,,-1,0,0,2,BKN 25   OVC 41,1,4,1,1,1008,RJTY 291056Z AUTO 03005KT 10SM BKN025 OVC041 04/01 A2976 RMK     AO2 SLP089 T00360005 FZRANO $=,
20180129_120000.002,0,RJTY,,,,0,20180129110000,-1,-1,-1,-1,10,-1,7,-1,-1,-1,-1,,-1,0,0,1,OVC 22,1,4,1,0,1008,RJTY 291156Z 01007KT 10SM OVC022 04/00 A2978 RMK AO2A SLP096     4/001 T00390004 10075 20028 52021 FZRANO $=,
20180129_130000.002,0,RJTY,,,,1,20180129120000,-1,-1,-1,-1,330,-1,4,-1,-1,-1,-1,,-1,1,0,2,FEW 26   FEW 37,1,3,1,0,1008,RJTY 291256Z AUTO 33004KT 10SM R36/4500FT FEW026 FEW037 03/00     A2978 RMK AO2 SLP094 T00271001 FZRANO $=,
20180129_140000.002,0,RJTY,,,,1,20180129130000,-1,-1,-1,-1,10,-1,7,-1,-1,-1,-1,,-1,0,0,0,,1,1,1,0,1009,RJTY 291356Z AUTO 01007KT 10SM CLR 01/00 A2979 RMK AO2 SLP099     T00111002 FZRANO $=,
20180129_150000.002,0,RJTY,,,,1,20180129140000,-1,-1,-1,-1,20,-1,5,-1,-1,-1,-1,,-1,0,0,0,,1,0,1,0,1009,RJTY 291456Z AUTO 02005KT 10SM CLR 00/00 A2980 RMK AO2 SLP102     T00031004 400751050 52007 FZRANO $=,
20180129_160000.002,0,RJTY,,,,1,20180129150000,-1,-1,-1,-1,20,-1,3,-1,-1,-1,-1,,-1,0,0,0,,1,0,-1,1,1009,RJTY 291556Z AUTO 02003KT 8SM CLR 00/M01 A2980 RMK AO2 SLP102     T10031006 FZRANO $=,
20180129_170000.002,0,RJTY,,,,1,20180129160000,-1,-1,-1,-1,360,-1,4,-1,-1,-1,-1,,-1,0,0,0,,1,0,-1,4,1010,RJTY 291656Z AUTO 36004KT 10SM CLR 00/M04 A2982 RMK AO2 SLP109     T00001041 FZRANO $=,
20180129_180000.002,0,RJTY,,,,1,20180129170000,-1,-1,-1,-1,10,-1,8,-1,-1,-1,-1,,-1,0,0,0,,-1,2,-1,6,1010,RJTY 291756Z AUTO 01008KT 10SM CLR M02/M06 A2983 RMK AO2 SLP112     T10211061 10040 21021 52009 FZRANO $=,
20180129_190000.002,0,RJTY,,,,1,20180129180000,-1,-1,-1,-1,360,-1,9,-1,-1,-1,-1,,-1,0,0,0,,-1,2,-1,8,1011,RJTY 291856Z AUTO 36009KT 10SM CLR M02/M08 A2985 RMK AO2 SLP119     T10201077 FZRANO $=,
20180129_200000.002,0,RJTY,,,,1,20180129190000,-1,-1,-1,-1,360,-1,8,-1,-1,-1,-1,,-1,0,0,1,BKN 75,1,0,-1,9,1012,RJTY 291956Z AUTO 36008KT 10SM BKN075 00/M09 A2988 RMK AO2     SLP129 T00011091 FZRANO $=,
20180129_210000.002,0,RJTY,,,,1,20180129200000,-1,-1,-1,-1,10,-1,10,-1,-1,-1,-1,,-1,0,0,1,OVC 65,-1,1,-1,8,1013,RJTY 292056Z AUTO 01010KT 10SM OVC065 M01/M08 A2991 RMK AO2     SLP140 T10061083 52029 FZRANO $=,
20180129_220000.002,0,RJTY,,,,1,20180129210000,-1,-1,-1,-1,10,-1,9,-1,-1,-1,-1,,-1,0,0,1,OVC 65,-1,1,-1,9,1014,RJTY 292156Z AUTO 01009KT 10SM OVC065 M01/M09 A2995 RMK AO2     SLP153 T10111088 FZRANO $=,
20180129_230000.002,0,RJTY,,,,1,20180129220000,-1,-1,-1,-1,20,-1,8,-1,-1,-1,-1,,-1,0,0,1,BKN 60,-1,1,-1,9,1015,RJTY 292256Z AUTO 02008KT 10SM BKN060 M01/M09 A2997 RMK AO2     SLP161 T10061095 FZRANO $=,
20180130_000000.005,0,RJTY,,,,1,20180129230000,-1,-1,-1,-1,30,-1,13,-1,-1,-1,-1,,-1,0,0,0,,1,2,-1,8,1016,RJTY 292356Z AUTO 03013KT 10SM CLR 02/M08 A2999 RMK AO2 SLP166     T00171084 10017 21031 52024 FZRANO $=,
20180130_010000.002,0,RJTY,,,,1,20180130000000,-1,-1,-1,-1,50,-1,11,-1,-1,-1,-1,,-1,0,0,1,SCT 70,1,3,-1,9,1016,RJTY 300056Z AUTO 05011KT 10SM SCT070 03/M09 A3000 RMK AO2     SLP170 T00311086 FZRANO $=,
20180130_020000.002,0,RJTY,,,,1,20180130010000,-1,-1,-1,-1,40,-1,12,-1,-1,-1,-1,,-1,0,0,1,FEW 70,1,4,-1,9,1016,RJTY 300156Z AUTO 04012KT 10SM FEW070 04/M09 A2999 RMK AO2     SLP166 T00431088 FZRANO $=,
20180130_030000.002,0,RJTY,,,,1,20180130020000,-1,-1,-1,-1,80,-1,8,-1,-1,-1,-1,,-1,0,0,1,BKN 75,1,5,-1,10,1015,RJTY 300256Z AUTO 08008KT 10SM BKN075 05/M10 A2998 RMK AO2     SLP163 T00461096 58003 FZRANO $=,
20180130_040000.002,0,RJTY,,,,1,20180130030000,-1,-1,-1,-1,140,-1,7,-1,-1,-1,-1,,-1,0,0,0,,1,5,-1,8,1015,RJTY 300356Z AUTO 14007KT 10SM CLR 05/M08 A2997 RMK AO2 SLP160     T00501085 FZRANO $=,
20180130_050000.002,0,RJTY,,,,1,20180130040000,-1,-1,-1,-1,170,-1,8,-1,-1,-1,-1,,-1,0,1,0,,1,6,-1,8,1015,RJTY 300456Z AUTO 17008KT 4SM HZ CLR 06/M08 A2998 RMK AO2     SLP163 T00571082 FZRANO $=,HZ
20180130_050000.005,1,RJTY,,,,0,20180130040000,-1,-1,-1,-1,170,-1,8,-1,-1,-1,-1,,-1,0,0,0,,1,6,-1,8,1015,RJTY 300456Z 17008KT 7SM CLR 06/M08 A2998 RMK AO2A SLP163     T00571082 FZRANO $ COR 0459=,
20180130_060000.003,0,RJTY,,,,0,20180130050000,-1,-1,-1,-1,170,-1,7,-1,-1,-1,-1,,-1,0,0,0,,1,5,-1,8,1016,RJTY 300556Z 17007KT 7SM CLR 05/M08 A3000 RMK AO2A SLP171     T00511081 10059 20018 53009 FZRANO $=,
20180130_070000.005,1,RJTY,,,,1,20180130060000,-1,-1,-1,-1,180,-1,9,-1,-1,-1,-1,,-1,0,0,1,BKN 65,1,4,-1,8,1017,RJTY 300656Z AUTO 18009KT 10SM BKN065 04/M08 A3002 RMK AO2     SLP178 T00401081 FZRANO $=,
20180130_080000.002,0,RJTY,,,,1,20180130070000,-1,-1,-1,-1,180,-1,7,-1,-1,-1,-1,,-1,0,0,1,OVC 50,1,4,-1,5,1018,RJTY 300756Z AUTO 18007KT 10SM OVC050 04/M05 A3005 RMK AO2     SLP187 T00361053 FZRANO $=,
20180130_090000.002,0,RJTY,,,,1,20180130080000,-1,-1,-1,-1,180,-1,4,-1,-1,-1,-1,,-1,0,0,2,FEW 28   BKN 41,1,4,-1,4,1019,RJTY 300856Z AUTO 18004KT 10SM FEW028 BKN041 04/M04 A3008 RMK     AO2 SLP198 T00391036 52026 FZRANO $=,
20180130_100000.002,0,RJTY,,,,0,20180130090000,-1,-1,-1,-1,110,-1,3,-1,-1,-1,-1,,-1,0,0,2,BKN 43   OVC 70,1,4,-1,6,1019,RJTY 300956Z 11003KT 10SM BKN043 OVC070 04/M06 A3009 RMK AO2A     RAB02E13 SLP202 P0000 T00361056 FZRANO $=,
20180130_110000.002,0,RJTY,,,,0,20180130100000,-1,-1,-1,-1,0,-1,0,-1,-1,-1,-1,,-1,0,0,3,SCT 43   BKN 55   BKN 70,1,4,-1,6,1020,RJTY 301056Z 00000KT 10SM SCT043 BKN055 BKN070 04/M06 A3011 RMK     AO2A SLP208 T00351065 FZRANO $=,
20180130_120000.002,0,RJTY,,,,0,20180130110000,-1,-1,-1,-1,0,-1,0,-1,-1,-1,-1,,-1,0,0,0,,1,2,-1,4,1020,RJTY 301156Z 00000KT 10SM CLR 02/M04 A3013 RMK AO2A SLP215     60000 T00211038 10051 20021 52015 FZRANO $=,
20180130_130000.002,0,RJTY,,,,1,20180130120000,-1,-1,-1,-1,0,-1,0,-1,-1,-1,-1,,-1,1,0,1,SCT 70,1,1,-1,5,1021,RJTY 301256Z AUTO 00000KT 10SM R36/4500FT SCT070 01/M05 A3014     RMK AO2 SLP218 T00091047 FZRANO $=,
20180130_140000.002,0,RJTY,,,,1,20180130130000,-1,-1,-1,-1,10,-1,5,-1,-1,-1,-1,,-1,0,0,0,,-1,2,-1,6,1021,RJTY 301356Z AUTO 01005KT 10SM CLR M02/M06 A3014 RMK AO2 SLP219     T10201057 FZRANO $=,
20180130_150000.002,0,RJTY,,,,1,20180130140000,-1,-1,-1,-1,360,-1,5,-1,-1,-1,-1,,-1,0,0,0,,-1,1,-1,7,1021,RJTY 301456Z AUTO 36005KT 10SM CLR M01/M07 A3014 RMK AO2 SLP218     T10081066 400591031 50004 FZRANO $=,
20180130_160000.002,0,RJTY,,,,1,20180130150000,-1,-1,-1,-1,360,-1,5,-1,-1,-1,-1,,-1,0,0,0,,1,0,-1,8,1021,RJTY 301556Z AUTO 36005KT 10SM CLR 00/M08 A3016 RMK AO2 SLP224     T10011076 FZRANO $=,
20180130_170000.002,0,RJTY,,,,1,20180130160000,-1,-1,-1,-1,360,-1,3,-1,-1,-1,-1,,-1,0,0,0,,-1,2,-1,8,1022,RJTY 301656Z AUTO 36003KT 10SM CLR M02/M08 A3017 RMK AO2 SLP228     T10171082 FZRANO $=,
20180130_180000.002,0,RJTY,,,,1,20180130170000,-1,-1,-1,-1,0,-1,0,-1,-1,-1,-1,,-1,0,0,0,,-1,2,-1,6,1021,RJTY 301756Z AUTO 00000KT 10SM CLR M02/M06 A3015 RMK AO2 SLP221     T10221064 10020 21039 50003 FZRANO $=,
20180130_190000.002,0,RJTY,,,,1,20180130180000,-1,-1,-1,-1,0,-1,0,-1,-1,-1,-1,,-1,0,0,0,,-1,3,-1,7,1021,RJTY 301856Z AUTO 00000KT 10SM CLR M03/M07 A3015 RMK AO2 SLP222     T10291069 FZRANO $=,
20180130_200000.002,0,RJTY,,,,1,20180130190000,-1,-1,-1,-1,240,-1,3,-1,-1,-1,-1,,-1,0,0,0,,-1,4,-1,7,1021,RJTY 301956Z AUTO 24003KT 10SM CLR M04/M07 A3015 RMK AO2 SLP223     T10401073 FZRANO $=,
20180130_210000.002,0,RJTY,,,,1,20180130200000,-1,-1,-1,-1,0,-1,0,-1,-1,-1,-1,,-1,0,0,0,,-1,3,-1,7,1021,RJTY 302056Z AUTO 00000KT 10SM CLR M03/M07 A3016 RMK AO2 SLP226     T10311066 51003 FZRANO $=,
20180130_220000.002,0,RJTY,,,,1,20180130210000,-1,-1,-1,-1,290,-1,5,-1,-1,-1,-1,,-1,0,0,0,,-1,3,-1,7,1022,RJTY 302156Z AUTO 29005KT 10SM CLR M03/M07 A3018 RMK AO2 SLP233     T10301066 FZRANO $=,
20180130_230000.002,0,RJTY,,,,1,20180130220000,-1,-1,-1,-1,0,-1,0,-1,-1,-1,-1,,-1,0,0,0,,-1,3,-1,6,1023,RJTY 302256Z AUTO 00000KT 10SM CLR M03/M06 A3021 RMK AO2 SLP243     T10321063 FZRANO $=,
20180131_000000.004,0,RJTY,,,,1,20180130230000,-1,-1,-1,-1,0,-1,0,-1,-1,-1,-1,,-1,0,0,0,,1,2,-1,6,1023,RJTY 302356Z AUTO 00000KT 10SM CLR 02/M06 A3022 RMK AO2 SLP245     T00201063 10020 21054 52020 FZRANO $=,
20180131_010000.002,0,RJTY,,,,1,20180131000000,-1,-1,-1,-1,0,-1,0,-1,-1,-1,-1,,-1,0,0,0,,1,3,-1,6,1023,RJTY 310056Z AUTO 00000KT 10SM CLR 03/M06 A3022 RMK AO2 SLP245     T00331061 FZRANO $=,
20180131_020000.002,0,RJTY,,,,1,20180131010000,-1,-1,-1,-1,0,-1,0,-1,-1,-1,-1,,-1,0,0,0,,1,5,-1,6,1023,RJTY 310156Z AUTO 00000KT 10SM CLR 05/M06 A3020 RMK AO2 SLP238     T00491063 FZRANO $=,
20180131_030000.002,0,RJTY,,,,1,20180131020000,-1,-1,-1,-1,130,-1,3,-1,-1,-1,-1,,-1,0,0,0,,1,6,-1,6,1022,RJTY 310256Z AUTO 13003KT 10SM CLR 06/M06 A3017 RMK AO2 SLP228     T00601060 58017 FZRANO $=,
20180131_040000.002,0,RJTY,,,,1,20180131030000,-1,-1,-1,-1,0,-1,0,-1,-1,-1,-1,,-1,0,0,0,,1,7,-1,6,1021,RJTY 310356Z AUTO 00000KT 10SM CLR 07/M06 A3015 RMK AO2 SLP221     T00691058 FZRANO $=,
20180131_050000.002,0,RJTY,,,,1,20180131040000,-1,-1,-1,-1,100,-1,4,-1,-1,-1,-1,,-1,0,0,0,,1,7,-1,6,1021,RJTY 310456Z AUTO 10004KT 10SM CLR 07/M06 A3014 RMK AO2 SLP217     T00721058 FZRANO $=,
20180131_060000.002,0,RJTY,,,,1,20180131050000,-1,-1,-1,-1,0,-1,0,-1,-1,-1,-1,,-1,0,0,0,,1,7,-1,6,1021,RJTY 310556Z AUTO 00000KT 10SM CLR 07/M06 A3016 RMK AO2 SLP225     T00721065 10076 20012 55003 FZRANO $=,
20180131_070000.003,0,RJTY,,,,1,20180131060000,-1,-1,-1,-1,120,-1,3,-1,-1,-1,-1,,-1,0,0,0,,1,7,-1,7,1022,RJTY 310656Z AUTO 12003KT 10SM CLR 07/M07 A3017 RMK AO2 SLP228     T00701067 FZRANO $=,
20180131_080000.003,0,RJTY,,,,1,20180131070000,-1,-1,-1,-1,50,-1,3,-1,-1,-1,-1,,-1,0,0,0,,1,6,-1,6,1022,RJTY 310756Z AUTO 05003KT 10SM CLR 06/M06 A3017 RMK AO2 SLP229     T00611065 FZRANO $=,
20180131_090000.002,0,RJTY,,,,0,20180131080000,-1,-1,-1,-1,0,-1,0,-1,-1,-1,-1,,-1,0,0,0,,1,6,-1,7,1022,RJTY 310856Z 00000KT 10SM CLR 06/M07 A3018 RMK AO2A SLP232     T00621074 50008 FZRANO $=,
20180131_100000.002,0,RJTY,,,,0,20180131090000,-1,-1,-1,-1,270,-1,5,-1,-1,-1,-1,,-1,0,0,0,,1,4,-1,5,1023,RJTY 310956Z 27005KT 10SM CLR 04/M05 A3020 RMK AO2A SLP239     T00371048 FZRANO $ COR 0958=,
20180131_100000.002,0,RJTY,,,,1,20180131090000,-1,-1,-1,-1,270,-1,5,-1,-1,-1,-1,,-1,1,0,0,,1,4,-1,5,1023,RJTY 310956Z AUTO 27005KT 10SM R36/4500FT CLR 04/M05 A3020 RMK     AO2 SLP239 T00371048 FZRANO $=,
20180131_110000.002,0,RJTY,,,,0,20180131100000,-1,-1,-1,-1,290,-1,4,-1,-1,-1,-1,,-1,0,0,0,,1,3,-1,5,1023,RJTY 311056Z 29004KT 10SM CLR 03/M05 A3021 RMK AO2A SLP243     T00301054 FZRANO $=,
20180131_120000.002,0,RJTY,,,,1,20180131110000,-1,-1,-1,-1,260,-1,4,-1,-1,-1,-1,,-1,0,0,1,BKN 150,1,3,-1,5,1023,RJTY 311156Z AUTO 26004KT 10SM BKN150 03/M05 A3020 RMK AO2     SLP238 T00251052 10073 20025 50006 FZRANO $=,
20180131_130000.001,0,RJTY,,,,1,20180131120000,-1,-1,-1,-1,0,-1,0,-1,-1,-1,-1,,-1,1,0,2,BKN 120   BKN 140,1,2,-1,5,1023,RJTY 311256Z AUTO 00000KT 10SM R36/4500FT BKN120 BKN140 02/M05     A3022 RMK AO2 SLP245 T00201047 FZRANO $=,
20180131_140000.002,0,RJTY,,,,1,20180131130000,-1,-1,-1,-1,330,-1,4,-1,-1,-1,-1,,-1,0,0,0,,1,2,-1,5,1023,RJTY 311356Z AUTO 33004KT 10SM CLR 02/M05 A3020 RMK AO2 SLP238     T00201054 FZRANO $=,
20180131_150000.002,0,RJTY,,,,1,20180131140000,-1,-1,-1,-1,0,-1,0,-1,-1,-1,-1,,-1,0,0,1,SCT 120,1,1,-1,5,1023,RJTY 311456Z AUTO 00000KT 10SM SCT120 01/M05 A3022 RMK AO2     SLP244 T00131046 400761054 50005 FZRANO $=,
20180131_160000.002,0,RJTY,,,,1,20180131150000,-1,-1,-1,-1,360,-1,4,-1,-1,-1,-1,,-1,0,0,2,SCT 46   BKN 140,1,1,-1,4,1023,RJTY 311556Z AUTO 36004KT 10SM SCT046 BKN140 01/M04 A3022 RMK     AO2 SLP244 T00091040 FZRANO $=,
20180131_170000.002,0,RJTY,,,,1,20180131160000,-1,-1,-1,-1,0,-1,0,-1,-1,-1,-1,,-1,0,0,1,OVC 43,1,1,-1,4,1023,RJTY 311656Z AUTO 00000KT 10SM OVC043 01/M04 A3021 RMK AO2     SLP241 T00111043 FZRANO $=,
20180131_180000.002,0,RJTY,,,,1,20180131170000,-1,-1,-1,-1,0,-1,0,-1,-1,-1,-1,,-1,0,0,1,SCT 49,1,1,-1,4,1023,RJTY 311756Z AUTO 00000KT 10SM SCT049 01/M04 A3022 RMK AO2     SLP244 T00081042 10030 21001 55001 FZRANO $=,
20180131_190000.001,0,RJTY,,,,1,20180131180000,-1,-1,-1,-1,0,-1,0,-1,-1,-1,-1,,-1,0,0,0,,1,0,-1,5,1023,RJTY 311856Z AUTO 00000KT 10SM CLR 00/M05 A3021 RMK AO2 SLP241     T10051047 FZRANO $=,
20180131_200000.001,0,RJTY,,,,1,20180131190000,-1,-1,-1,-1,0,-1,0,-1,-1,-1,-1,,-1,0,0,1,BKN 45,-1,1,-1,5,1024,RJTY 311956Z AUTO 00000KT 10SM BKN045 M01/M05 A3023 RMK AO2     SLP248 T10091050 FZRANO $=,
20180131_210000.002,0,RJTY,,,,1,20180131200000,-1,-1,-1,-1,0,-1,0,-1,-1,-1,-1,,-1,0,0,0,,1,0,-1,5,1024,RJTY 312056Z AUTO 00000KT 10SM CLR 00/M05 A3024 RMK AO2 SLP251     T00011055 53008 FZRANO $=,
20180131_220000.002,0,RJTY,,,,1,20180131210000,-1,-1,-1,-1,280,-1,3,-1,-1,-1,-1,,-1,0,0,2,FEW 44   BKN 55,1,1,-1,4,1025,RJTY 312156Z AUTO 28003KT 10SM FEW044 BKN055 01/M04 A3027 RMK     AO2 SLP262 T00071043 FZRANO $=,
20180131_230000.002,0,RJTY,,,,1,20180131220000,-1,-1,-1,-1,290,-1,3,-1,-1,-1,-1,,-1,0,0,1,BKN 55,1,2,-1,4,1025,RJTY 312256Z AUTO 29003KT 10SM BKN055 02/M04 A3028 RMK AO2     SLP265 T00191042 FZRANO $=,
20180201_000000.005,0,RJTY,,,,1,20180131230000,-1,-1,-1,-1,310,-1,3,-1,-1,-1,-1,,-1,0,0,2,BKN 24   OVC 33,1,4,-1,4,1026,RJTY 312356Z AUTO 31003KT 10SM BKN024 OVC033 04/M04 A3031 RMK     AO2 SLP275 T00391041 10039 21021 FZRANO $=,
20180201_010000.002,0,RJTY,,,,1,20180201000000,-1,-1,-1,-1,50,-1,6,-1,-1,-1,-1,,-1,0,0,2,BKN 26   OVC 38,1,4,-1,3,1027,RJTY 010056Z AUTO 05006KT 10SM BKN026 OVC038 04/M03 A3033 RMK     AO2 CIG 024 RWY18 SLP282 T00421027 FZRANO $=,
20180201_020000.002,0,RJTY,,,,1,20180201010000,-1,-1,-1,-1,50,-1,4,-1,-1,-1,-1,,-1,0,0,2,FEW 37   SCT 44,1,6,-1,2,1027,RJTY 010156Z AUTO 05004KT 10SM FEW037 SCT044 06/M02 A3032 RMK     AO2 SLP278 T00551017 FZRANO $=,
20180201_030000.003,0,RJTY,,,,1,20180201020000,-1,-1,-1,-1,60,-1,6,-1,-1,-1,-1,,-1,0,0,1,OVC 30,1,6,-1,2,1026,RJTY 010256Z AUTO 06006KT 10SM OVC030 06/M02 A3030 RMK AO2     SLP271 T00551017 58006 FZRANO $=,
20180201_040000.003,0,RJTY,,,,1,20180201030000,-1,-1,-1,-1,40,-1,5,-1,-1,-1,-1,,-1,0,0,1,OVC 30,1,5,-1,2,1025,RJTY 010356Z AUTO 04005KT 10SM OVC030 05/M02 A3028 RMK AO2     SLP265 T00461021 FZRANO $=,
20180201_050000.002,0,RJTY,,,,1,20180201040000,-1,-1,-1,-1,60,-1,6,-1,-1,-1,-1,,-1,0,1,1,OVC 24,1,3,1,0,1025,RJTY 010456Z AUTO 06006KT 10SM -RA OVC024 03/00 A3028 RMK AO2     DZB04E29RAB29 SLP266 P0000 T00310002 FZRANO $=,- RA
20180201_060000.002,0,RJTY,,,,1,20180201050000,-1,-1,-1,-1,40,-1,8,-1,-1,-1,-1,,-1,0,1,2,SCT 14   OVC 21,1,2,1,1,1026,RJTY 010556Z AUTO 04008KT 8SM -RA SCT014 OVC021 02/01 A3029 RMK     AO2 SLP270 P0000 60000 T00240009 10056 20023 FZRANO $=,- RA
20180201_070000.002,0,RJTY,,,,1,20180201060000,-1,-1,-1,-1,20,-1,5,-1,-1,-1,-1,,-1,0,2,1,OVC 7,1,1,1,1,1026,RJTY 010656Z AUTO 02005KT 6SM -SN BR OVC007 01/01 A3030 RMK AO2     RAE11UPB11E12RAB12E22SNB22E38UPB38E42RAB42E48SNB48 SLP274           P0002 T00130009 FZRANO $=,- SN; BR
20180201_080000.002,0,RJTY,,,,0,20180201070000,-1,-1,-1,-1,10,-1,6,-1,-1,-1,-1,,-1,0,2,1,OVC 6,1,1,1,1,1026,RJTY 010756Z 01006KT 2 1/2SM -SN BR OVC006 01/01 A3031 RMK AO2A     TWR VIS 2 SNE32UPB32E33RAB33E39SNB39 CIG 004 RWY18 SLP277           P0002 T00090008 FZRANO $=,- SN; BR
20180201_090000.002,0,RJTY,,,,0,20180201080000,-1,-1,-1,-1,10,-1,5,-1,-1,-1,-1,,-1,0,2,2,BKN 6   OVC 11,1,1,1,0,1026,RJTY 010856Z 01005KT 1 3/4SM -SN BR BKN006 OVC011 01/00 A3031     RMK AO2A SLP277 P0002 60006 T00050004 52009 FZRANO $=,- SN; BR
20180201_100000.004,1,RJTY,,,,0,20180201090000,-1,-1,-1,-1,360,-1,5,-1,-1,-1,-1,,-1,0,2,1,OVC 16,1,1,1,0,1027,RJTY 010956Z 36005KT 2SM -SN BR OVC016 01/00 A3032 RMK AO2A     SLPNO P0001 T00050004 FZRANO $=,- SN; BR
20180201_100000.004,1,RJTY,,,,0,20180201090000,-1,-1,-1,-1,360,-1,5,-1,-1,-1,-1,,-1,0,2,2,BKN 6   OVC 16,1,1,1,0,1027,RJTY 010956Z 36005KT 2SM -SN BR BKN006 OVC016 01/00 A3032     RMK AO2A SLPNO P0001 T00050004 FZRANO $ COR 1001=,- SN; BR
20180201_110000.002,0,RJTY,,,,0,20180201100000,-1,-1,-1,-1,320,-1,4,-1,-1,-1,-1,,-1,0,2,2,BKN 5   BKN 11,1,1,1,1,1027,METAR RJTY 011056Z 32004KT 2SM -SN BR BKN005 BKN011 01/01 A3033 RMK           AO2A CIG 005V013 BKN V OVC SLP283 P0002 T00100009 FZRANO,- SN; BR
20180201_120000.004,1,RJTY,,,,0,20180201110000,-1,-1,-1,-1,330,-1,5,-1,-1,-1,-1,,-1,0,2,2,BKN 5   OVC 10,1,1,1,1,1027,METAR RJTY 011156Z 33005KT 3SM -SN BR BKN005 OVC010 01/01 A3034 RMK           AO2A SLP286 P0004 60013 T00070006 10019 20005 52009 FZRANO,- SN; BR
20180201_120000.005,1,RJTY,,,,0,20180201110000,-1,-1,-1,-1,330,-1,5,-1,-1,-1,-1,,-1,0,2,2,BKN 5   OVC 10,1,1,1,1,1027,RJTY 011156Z 33005KT 2SM -SN BR BKN005 OVC010 01/01 A3034     RMK AO2A SLP286 P0004 60013 T00070006 10019 20005 52009           FZRANO $ COR 1204=,- SN; BR
20180201_130000.002,0,RJTY,,,,0,20180201120000,-1,-1,-1,-1,340,-1,6,-1,-1,-1,-1,,-1,0,2,2,BKN 6   OVC 10,1,1,1,1,1027,RJTY 011256Z 34006KT 2SM -SN BR BKN006 OVC010 01/01 A3033 RMK     AO2A SLP282 P0004 T00070006 FZRANO $=,- SN; BR
20180201_140000.004,1,RJTY,,,,0,20180201130000,-1,-1,-1,-1,340,-1,7,-1,-1,-1,-1,,-1,0,1,2,BKN 10   OVC 14,1,1,1,1,1027,RJTY 011356Z 34007KT 2SM -SN BKN010 OVC014 01/01 A3032 RMK AO2A     SLPNO P0002 T00100009 FZRANO $=,- SN
20180201_150000.002,0,RJTY,,,,0,20180201140000,-1,-1,-1,-1,350,-1,8,-1,-1,-1,-1,,-1,0,1,2,BKN 7   OVC 12,1,1,1,1,1026,RJTY 011456Z 35008KT 1 3/4SM -SN BKN007 OVC012 01/01 A3031 RMK     AO2A CIG 007 RWY18 SLPNO P0003 60009 T00080007 400561021           57011 FZRANO $=,- SN
20180201_160000.002,0,RJTY,,,,0,20180201150000,-1,-1,-1,-1,30,-1,10,-1,-1,-1,-1,,-1,0,2,2,BKN 5   OVC 9,1,0,1,0,1026,RJTY 011556Z 03010KT 1 1/2SM -SN BR BKN005 OVC009 00/00 A3031     RMK AO2A CIG 004V008 CIG 004 RWY18 SLPNO P0001 T00020001           FZRANO $=,- SN; BR
20180201_170000.004,1,RJTY,,,,0,20180201160000,-1,-1,-1,-1,10,-1,11,-1,-1,-1,-1,,-1,0,2,1,OVC 7,1,0,1,0,1026,RJTY 011656Z 01011KT 1 1/2SM -SN BR OVC007 00/00 A3031 RMK AO2A     CIG 005 RWY18 SLPNO P0000 T00001001 FZRANO $=,- SN; BR
20180201_180000.002,0,RJTY,,,,0,20180201170000,-1,-1,-1,-1,10,-1,11,-1,-1,-1,-1,,-1,0,2,1,OVC 8,1,0,1,0,1026,RJTY 011756Z 01011KT 1 1/2SM -SN BR OVC008 00/00 A3031 RMK AO2A     CIG 006 RWY18 SLP277 P0000 60010 4/001 T00001001 10010           20000 57002 FZRANO $=,- SN; BR
20180201_190000.001,0,RJTY,,,,0,20180201180000,-1,-1,-1,-1,10,-1,10,-1,-1,-1,-1,,-1,0,2,2,BKN 7   OVC 12,1,0,1,0,1026,RJTY 011856Z 01010KT 1 1/2SM -SN BR BKN007 OVC012 00/00 A3031     RMK AO2A CIG 007V010 SLP277 P0000 T00001001 FZRANO $=,- SN; BR
20180201_200000.001,0,RJTY,,,,0,20180201190000,-1,-1,-1,-1,10,-1,10,-1,-1,-1,-1,,-1,0,2,2,BKN 5   OVC 11,1,0,1,0,1026,RJTY 011956Z 01010KT 1 1/2SM -SN BR BKN005 OVC011 00/00 A3031     RMK AO2A CIG 006 RWY18 SLP277 P0001 T00001001 FZRANO $=,- SN; BR
20180201_200000.005,1,RJTY,,,,0,20180201190000,-1,-1,-1,-1,10,-1,10,-1,-1,-1,-1,,-1,0,2,2,BKN 5   OVC 11,1,0,1,0,1026,RJTY 011956Z 01010KT 1 1/2SM -SN BR BKN005 OVC011 00/00     A3031 RMK AO2A CIG 006 RWY18 SLP277 P0005 T00001001 FZRANO           $ COR 2009=,- SN; BR
20180201_210000.002,0,RJTY,,,,0,20180201200000,-1,-1,-1,-1,350,-1,9,-1,-1,-1,-1,,-1,0,2,2,SCT 6   OVC 11,1,0,1,0,1027,RJTY 012056Z 35009KT 1SM -SN BR SCT006 OVC011 00/00 A3033 RMK     AO2A CIG 006 RWY18 SLP284 P0005 60001 T00001001 50007           FZRANO $=,- SN; BR
20180201_220000.002,0,RJTY,,,,0,20180201210000,-1,-1,-1,-1,10,-1,9,-1,-1,-1,-1,,-1,0,2,1,OVC 8,1,0,1,0,1027,RJTY 012156Z 01009KT 1/2SM -SN BR OVC008 00/00 A3032 RMK AO2A     VIS 2 RWY18 CIG 006V008 CIG 005 RWY18 SLP281 P0005           T10011002 FZRANO $=,- SN; BR
20180201_230000.003,0,RJTY,,,,0,20180201220000,-1,-1,-1,-1,20,-1,12,-1,-1,-1,-1,,-1,0,2,1,OVC 6,1,0,1,0,1027,RJTY 012256Z 02012KT 2 1/2SM -SN BR OVC006 00/00 A3034 RMK AO2A     SLP287 P0000 T00001001 FZRANO $=,- SN; BR
20180202_000000.004,0,RJTY,,,,0,20180201230000,-1,-1,-1,-1,20,-1,9,-1,-1,-1,-1,,-1,0,1,1,OVC 7,1,0,1,0,1027,RJTY 012356Z 02009KT 2 1/2SM -SN OVC007 00/00 A3033 RMK AO2A     SLP284 P0000 60001 70025 T00010000 10001 21001 53001           FZRANO $=,- SN
20180202_010000.002,0,RJTY,,,,0,20180202000000,-1,-1,-1,-1,360,-1,9,-1,-1,-1,-1,,-1,0,2,2,BKN 7   OVC 13,1,0,1,0,1027,RJTY 020056Z 36009KT 1 1/2SM -SN BR BKN007 OVC013 00/00 A3032     RMK AO2A CIG 007V013 BKN V SCT SLP281 P0000 T00030002           FZRANO $=,- SN; BR
20180202_020000.004,1,RJTY,,,,1,20180202010000,-1,-1,-1,-1,350,-1,8,-1,-1,-1,-1,,-1,0,1,1,OVC 9,1,1,1,0,1026,RJTY 020156Z AUTO 35008KT 10SM -RA OVC009 01/00 A3031 RMK AO2     SNE54RAB54 CIG 007V009 SLP277 P0000 T00080001 FZRANO $=,- RA
20180202_030000.005,1,RJTY,,,,1,20180202020000,-1,-1,-1,-1,350,-1,9,-1,-1,-1,-1,,-1,0,0,2,FEW 13   OVC 32,1,2,1,0,1025,RJTY 020256Z AUTO 35009KT 10SM FEW013 OVC032 02/00 A3028 RMK     AO2 RAE04 SLP266 P0000 60000 T00161003 57016 FZRANO $=,
20180202_040000.004,1,RJTY,,,,1,20180202030000,-1,-1,-1,-1,20,-1,8,-1,-1,-1,-1,,-1,0,0,1,OVC 35,1,2,1,0,1025,RJTY 020356Z AUTO 02008KT 10SM OVC035 02/00 A3026 RMK AO2A     SLP260 P0005 T00181001 FZRANO $ COR 0406=,
20180202_040000.004,1,RJTY,,,,1,20180202030000,-1,-1,-1,-1,20,-1,8,-1,-1,-1,-1,,-1,0,1,1,OVC 35,1,2,1,0,1025,RJTY 020356Z AUTO 02008KT 10SM -RA OVC035 02/00 A3026 RMK AO2     RAB03E27RAB50 SLP260 P0005 T00181001 FZRANO $=,- RA
20180202_050000.003,1,RJTY,,,,0,20180202040000,-1,-1,-1,-1,10,-1,9,-1,-1,-1,-1,,-1,0,0,2,FEW 26   BKN 35,1,2,1,0,1024,RJTY 020456Z 01009KT 10SM FEW026 BKN035 02/00 A3025 RMK AO2A     SLP256 P0005 T00201004 FZRANO $=,
20180202_060000.005,1,RJTY,,,,0,20180202050000,-1,-1,-1,-1,20,-1,7,-1,-1,-1,-1,,-1,0,0,2,FEW 28   OVC 36,1,2,-1,1,1025,RJTY 020556Z 02007KT 10SM FEW028 OVC036 02/M01 A3026 RMK AO2A     RAB16E33 SLP260 P0001 60011 4/001 T00231008 10023 20001           55006 FZRANO $=,
20180202_070000.002,0,RJTY,,,,1,20180202060000,-1,-1,-1,-1,20,-1,7,-1,-1,-1,-1,,-1,0,0,1,OVC 41,1,2,1,0,1024,RJTY 020656Z AUTO 02007KT 10SM OVC041 02/00 A3025 RMK AO2     SLP256 P0001 T00191004 FZRANO $=,
20180202_080000.002,0,RJTY,,,,1,20180202070000,-1,-1,-1,-1,350,-1,6,-1,-1,-1,-1,,-1,0,0,2,FEW 41   OVC 70,1,2,-1,1,1024,RJTY 020756Z AUTO 35006KT 10SM FEW041 OVC070 02/M01 A3025 RMK     AO2 SLP256 T00201009 FZRANO $=,
20180202_090000.002,0,RJTY,,,,1,20180202080000,-1,-1,-1,-1,360,-1,6,-1,-1,-1,-1,,-1,1,0,2,FEW 40   OVC 60,1,2,-1,1,1024,RJTY 020856Z AUTO 36006KT 10SM R36/4500FT FEW040 OVC060 02/M01     A3025 RMK AO2 SLP256 60001 T00221011 55004 FZRANO $=,
20180202_100000.003,0,RJTY,,,,1,20180202090000,-1,-1,-1,-1,320,-1,4,-1,-1,-1,-1,,-1,1,0,1,OVC 55,1,2,1,0,1024,RJTY 020956Z AUTO 32004KT 10SM R36/4500FT OVC055 02/00 A3025     RMK AO2 SLP256 T00231001 FZRANO $=,
20180202_110000.002,0,RJTY,,,,1,20180202100000,-1,-1,-1,-1,300,-1,3,-1,-1,-1,-1,,-1,1,0,1,OVC 50,1,2,-1,1,1024,RJTY 021056Z AUTO 30003KT 10SM R36/4500FT OVC050 02/M01 A3025     RMK AO2 SLP256 T00231006 FZRANO $=,
20180202_120000.002,0,RJTY,,,,1,20180202110000,-1,-1,-1,-1,0,-1,0,-1,-1,-1,-1,,-1,1,0,1,OVC 50,1,2,1,0,1024,RJTY 021156Z AUTO 00000KT 10SM R36/4500FT OVC050 02/00 A3025     RMK AO2 SLP256 60001 T00191002 10025 20017 58003 FZRANO $=,
20180202_120000.004,1,RJTY,,,,1,20180202110000,-1,-1,-1,-1,0,-1,0,-1,-1,-1,-1,,-1,1,0,1,OVC 50,1,2,1,0,1024,RJTY 021156Z AUTO 00000KT 10SM R36/4500FT OVC050 02/00     A3025 RMK AO2 SLP256 60001 4/001 T00191002 10025 20017           58003 FZRANO $ COR 1213=,
20180202_130000.001,0,RJTY,,,,1,20180202120000,-1,-1,-1,-1,0,-1,0,-1,-1,-1,-1,,-1,1,0,1,OVC 49,1,2,1,0,1023,RJTY 021256Z AUTO 00000KT 10SM R36/4500FT OVC049 02/00 A3022     RMK AO2 SLP246 T00191002 FZRANO $=,
20180202_140000.002,0,RJTY,,,,1,20180202130000,-1,-1,-1,-1,310,-1,3,-1,-1,-1,-1,,-1,0,0,1,OVC 46,1,2,-1,1,1023,RJTY 021356Z AUTO 31003KT 10SM OVC046 02/M01 A3020 RMK AO2     SLP239 T00181006 FZRANO $=,
20180202_150000.002,0,RJTY,,,,1,20180202140000,-1,-1,-1,-1,290,-1,3,-1,-1,-1,-1,,-1,0,0,3,SCT 48   BKN 70   OVC 120,1,1,1,0,1022,RJTY 021456Z AUTO 29003KT 10SM SCT048 BKN070 OVC120 01/00 A3017     RMK AO2 SLP229 T00141002 400251001 57024 FZRANO $=,
20180202_160000.002,0,RJTY,,,,1,20180202150000,-1,-1,-1,-1,0,-1,0,-1,-1,-1,-1,,-1,0,0,3,FEW 47   SCT 130   BKN 160,1,1,1,0,1022,RJTY 021556Z AUTO 00000KT 10SM FEW047 SCT130 BKN160 01/00 A3017     RMK AO2 SLP229 T00081004 FZRANO $=,
20180202_170000.002,0,RJTY,,,,1,20180202160000,-1,-1,-1,-1,350,-1,3,-1,-1,-1,-1,,-1,0,0,1,OVC 34,1,1,1,0,1022,RJTY 021656Z AUTO 35003KT 10SM OVC034 01/00 A3017 RMK AO2     SLP228 T00141002 FZRANO $=,
20180202_180000.001,0,RJTY,,,,1,20180202170000,-1,-1,-1,-1,340,-1,4,-1,-1,-1,-1,,-1,0,0,1,OVC 32,1,1,1,0,1021,RJTY 021756Z AUTO 34004KT 10SM OVC032 01/00 A3016 RMK AO2     SLP225 T00080001 10020 20006 56006 FZRANO $=,
20180202_190000.001,0,RJTY,,,,1,20180202180000,-1,-1,-1,-1,360,-1,3,-1,-1,-1,-1,,-1,0,0,1,OVC 31,1,1,1,0,1020,RJTY 021856Z AUTO 36003KT 10SM OVC031 01/00 A3013 RMK AO2     SLP215 T00081005 FZRANO $=,
20180202_200000.001,0,RJTY,,,,1,20180202190000,-1,-1,-1,-1,0,-1,0,-1,-1,-1,-1,,-1,0,0,1,OVC 30,1,1,1,0,1020,RJTY 021956Z AUTO 00000KT 10SM OVC030 01/00 A3011 RMK AO2     SLP208 T00101003 FZRANO $=,
20180202_210000.002,0,RJTY,,,,1,20180202200000,-1,-1,-1,-1,0,-1,0,-1,-1,-1,-1,,-1,0,0,2,FEW 32   FEW 230,1,0,-1,1,1019,RJTY 022056Z AUTO 00000KT 10SM FEW032 FEW230 00/M01 A3009 RMK     AO2 SLP202 T00001007 57021 FZRANO $=,
20180202_220000.004,1,RJTY,,,,0,20180202210000,-1,-1,-1,-1,0,-1,0,-1,-1,-1,-1,,-1,0,0,3,FEW 30   SCT 120   BKN 230,1,0,-1,1,1019,RJTY 022156Z 00000KT 10SM FEW030 SCT120 BKN230 00/M01 A3008 RMK     AO2A SLP198 T10051011 FZRANO $=,
20180202_230000.001,0,RJTY,,,,0,20180202220000,-1,-1,-1,-1,0,-1,0,-1,-1,-1,-1,,-1,0,0,3,FEW 30   FEW 100   BKN 230,1,0,-1,1,1019,RJTY 022256Z 00000KT 10SM FEW030 FEW100 BKN230 00/M01 A3008 RMK     AO2A SLP198 T10051009 FZRANO $=,
20180203_000000.004,0,RJTY,,,,1,20180202230000,-1,-1,-1,-1,0,-1,0,-1,-1,-1,-1,,-1,0,0,0,,1,2,1,0,1018,RJTY 022356Z AUTO 00000KT 10SM CLR 02/00 A3007 RMK AO2 SLP194     70012 T00181005 10018 21011 57007 FZRANO $=,
20180203_000000.005,1,RJTY,,,,0,20180202230000,-1,-1,-1,-1,0,-1,0,-1,-1,-1,-1,,-1,0,0,0,,1,2,1,0,1018,RJTY 022356Z 00000KT 10SM CLR 02/00 A3007 RMK AO2A SLP194     70012 4/000 T00181005 10018 21011 57007 FZRANO $ COR 0022=,
20180203_010000.001,0,RJTY,,,,1,20180203000000,-1,-1,-1,-1,0,-1,0,-1,-1,-1,-1,,-1,0,0,0,,1,3,-1,1,1018,RJTY 030056Z AUTO 00000KT 10SM CLR 03/M01 A3006 RMK AO2 SLP191     T00331013 FZRANO $=,
20180203_020000.002,0,RJTY,,,,1,20180203010000,-1,-1,-1,-1,0,-1,0,-1,-1,-1,-1,,-1,0,0,0,,1,5,-1,1,1017,RJTY 030156Z AUTO 00000KT 10SM CLR 05/M01 A3003 RMK AO2 SLP180     T00451011 FZRANO $=,
20180203_030000.002,0,RJTY,,,,1,20180203020000,-1,-1,-1,-1,0,-1,0,-1,-1,-1,-1,,-1,0,0,2,SCT 85   SCT 230,1,5,-1,1,1016,RJTY 030256Z AUTO 00000KT 10SM SCT085 SCT230 05/M01 A2999 RMK     AO2 SLP166 T00511009 57028 FZRANO $=,
20180203_040000.002,0,RJTY,,,,1,20180203030000,-1,-1,-1,-1,70,-1,5,-1,-1,-1,-1,,-1,0,0,0,,1,5,1,0,1014,RJTY 030356Z AUTO 07005KT 10SM CLR 05/00 A2995 RMK AO2 SLP153     T00531001 FZRANO $=,
20180203_050000.002,0,RJTY,,,,1,20180203040000,-1,-1,-1,-1,70,-1,4,-1,-1,-1,-1,,-1,0,0,0,,1,6,1,1,1014,RJTY 030456Z AUTO 07004KT 10SM CLR 06/01 A2994 RMK AO2 SLP149     T00630006 FZRANO $=,
20180203_060000.002,0,RJTY,,,,1,20180203050000,-1,-1,-1,-1,70,-1,5,-1,-1,-1,-1,,-1,0,0,1,BKN 28,1,6,1,0,1014,RJTY 030556Z AUTO 07005KT 10SM BKN028 06/00 A2994 RMK AO2     SLP149 T00590004 10065 20019 55016 FZRANO $=,
20180203_070000.003,0,RJTY,,,,1,20180203060000,-1,-1,-1,-1,60,-1,3,-1,-1,-1,-1,,-1,0,0,0,,1,6,1,0,1014,RJTY 030656Z AUTO 06003KT 10SM CLR 06/00 A2994 RMK AO2 SLP149     T00581001 FZRANO $=,
20180203_080000.002,0,RJTY,,,,1,20180203070000,-1,-1,-1,-1,60,-1,5,-1,-1,-1,-1,,-1,0,0,0,,1,5,1,0,1014,RJTY 030756Z AUTO 06005KT 10SM CLR 05/00 A2994 RMK AO2 SLP149     T00471003 FZRANO $=,
20180203_090000.002,0,RJTY,,,,0,20180203080000,-1,-1,-1,-1,50,-1,3,-1,-1,-1,-1,,-1,0,0,1,SCT 27,1,4,1,0,1014,RJTY 030856Z 05003KT 10SM SCT027 04/00 A2995 RMK AO2A SLP153     T00381002 53005 FZRANO $=,
20180203_100000.002,0,RJTY,,,,0,20180203090000,-1,-1,-1,-1,260,-1,3,-1,-1,-1,-1,,-1,0,0,1,BKN 45,1,3,1,0,1014,RJTY 030956Z 26003KT 10SM BKN045 03/00 A2995 RMK AO2A SLP154     T00331005 FZRANO $=,
20180203_110000.002,0,RJTY,,,,0,20180203100000,-1,-1,-1,-1,320,-1,3,-1,-1,-1,-1,,-1,0,0,0,,1,4,1,1,1014,RJTY 031056Z 32003KT 10SM CLR 04/01 A2994 RMK AO2A SLP150     T00350009 FZRANO $=,
20180203_120000.002,0,RJTY,,,,0,20180203110000,-1,-1,-1,-1,20,-1,5,-1,-1,-1,-1,,-1,0,0,2,SCT 45   OVC 50,1,2,1,0,1014,RJTY 031156Z 02005KT 9SM SCT045 OVC050 02/00 A2994 RMK AO2A     SLP150 T00170004 10060 20017 58006 FZRANO $=,
20180203_130000.002,0,RJTY,,,,1,20180203120000,-1,-1,-1,-1,250,-1,4,-1,-1,-1,-1,,-1,1,0,1,OVC 49,1,3,1,1,1014,RJTY 031256Z AUTO 25004KT 10SM R36/4500FT OVC049 03/01 A2994     RMK AO2 SLP149 T00280012 FZRANO $=,
20180203_140000.002,0,RJTY,,,,1,20180203130000,-1,-1,-1,-1,0,-1,0,-1,-1,-1,-1,,-1,0,0,2,SCT 47   OVC 80,1,3,1,1,1014,RJTY 031356Z AUTO 00000KT 10SM SCT047 OVC080 03/01 A2993 RMK     AO2 SLP145 T00300007 FZRANO $=,
20180203_150000.002,0,RJTY,,,,1,20180203140000,-1,-1,-1,-1,0,-1,0,-1,-1,-1,-1,,-1,0,0,1,OVC 44,1,3,1,1,1013,RJTY 031456Z AUTO 00000KT 10SM OVC044 03/01 A2991 RMK AO2     SLP139 T00300006 400651011 58010 FZRANO $=,
20180203_160000.002,0,RJTY,,,,1,20180203150000,-1,-1,-1,-1,0,-1,0,-1,-1,-1,-1,,-1,0,1,1,OVC 47,1,3,1,1,1013,RJTY 031556Z AUTO 00000KT 10SM -RA OVC047 03/01 A2991 RMK AO2     UPB45E47RAB47 SLP139 P0000 T00250006 FZRANO $=,- RA
20180203_170000.002,0,RJTY,,,,1,20180203160000,-1,-1,-1,-1,0,-1,0,-1,-1,-1,-1,,-1,0,0,2,BKN 47   OVC 60,1,2,1,1,1013,RJTY 031656Z AUTO 00000KT 10SM BKN047 OVC060 02/01 A2990 RMK     AO2 RAE1559DZB1559E00 SLP135 P0000 T00210008 FZRANO $=,
20180203_180000.001,0,RJTY,,,,1,20180203170000,-1,-1,-1,-1,0,-1,0,-1,-1,-1,-1,,-1,0,0,1,OVC 46,1,2,1,1,1012,RJTY 031756Z AUTO 00000KT 10SM OVC046 02/01 A2989 RMK AO2     SLP132 60000 T00230008 10033 20017 58005 FZRANO $=,
20180203_190000.002,0,RJTY,,,,1,20180203180000,-1,-1,-1,-1,0,-1,0,-1,-1,-1,-1,,-1,0,0,2,BKN 48   OVC 60,1,2,1,1,1012,RJTY 031856Z AUTO 00000KT 10SM BKN048 OVC060 02/01 A2988 RMK     AO2 SLP128 T00180008 FZRANO $=,
20180203_200000.002,0,RJTY,,,,1,20180203190000,-1,-1,-1,-1,230,-1,3,-1,-1,-1,-1,,-1,0,0,1,BKN 48,1,2,1,1,1012,RJTY 031956Z AUTO 23003KT 10SM BKN048 02/01 A2988 RMK AO2     SLP129 T00180009 FZRANO $=,
20180203_210000.002,0,RJTY,,,,1,20180203200000,-1,-1,-1,-1,0,-1,0,-1,-1,-1,-1,,-1,0,0,1,SCT 75,1,2,1,1,1012,RJTY 032056Z AUTO 00000KT 10SM SCT075 02/01 A2988 RMK AO2     SLP129 T00150008 57005 FZRANO $=,
20180203_220000.002,0,RJTY,,,,1,20180203210000,-1,-1,-1,-1,0,-1,0,-1,-1,-1,-1,,-1,0,0,2,FEW 45   OVC 70,1,1,1,0,1012,RJTY 032156Z AUTO 00000KT 10SM FEW045 OVC070 01/00 A2989 RMK     AO2 SLP133 T00110004 FZRANO $=,
20180203_230000.002,0,RJTY,,,,1,20180203220000,-1,-1,-1,-1,0,-1,0,-1,-1,-1,-1,,-1,0,0,2,FEW 46   OVC 65,1,1,1,0,1012,RJTY 032256Z AUTO 00000KT 10SM FEW046 OVC065 01/00 A2989 RMK     AO2 SLP133 T00130004 FZRANO $=,
20180204_000000.004,0,RJTY,,,,1,20180203230000,-1,-1,-1,-1,0,-1,0,-1,-1,-1,-1,,-1,0,0,1,OVC 65,1,4,1,0,1012,RJTY 032356Z AUTO 00000KT 10SM OVC065 04/00 A2988 RMK AO2     SLP129 T00350004 10036 21008 50002 FZRANO $=,
20180204_010000.002,0,RJTY,,,,1,20180204000000,-1,-1,-1,-1,160,-1,5,-1,-1,-1,-1,,-1,0,0,1,OVC 60,1,4,1,0,1011,RJTY 040056Z AUTO 16005KT 10SM OVC060 04/00 A2987 RMK AO2     SLP126 T00430003 FZRANO $=,
20180204_020000.002,0,RJTY,,,,1,20180204010000,-1,-1,-1,-1,170,-1,4,-1,-1,-1,-1,,-1,0,0,2,BKN 60   OVC 70,1,5,1,1,1010,RJTY 040156Z AUTO 17004KT 10SM BKN060 OVC070 05/01 A2984 RMK     AO2 SLP115 T00510005 FZRANO $=,
20180204_030000.002,0,RJTY,,,,1,20180204020000,-1,-1,-1,-1,140,-1,7,-1,-1,-1,-1,,-1,0,0,1,FEW 36,1,7,1,1,1009,RJTY 040256Z AUTO 14007KT 10SM FEW036 07/01 A2979 RMK AO2     SLP097 T00680005 57031 FZRANO $=,
20180204_040000.002,0,RJTY,,,,1,20180204030000,-1,-1,-1,-1,180,-1,10,-1,-1,-1,-1,,-1,0,0,1,BKN 46,1,9,-1,2,1007,RJTY 040356Z AUTO 18010KT 10SM BKN046 09/M02 A2975 RMK AO2     SLP083 T00861021 FZRANO $=,
20180204_050000.002,0,RJTY,,,,1,20180204040000,-1,-1,-1,-1,210,-1,9,-1,-1,-1,-1,,-1,0,0,0,,1,9,-1,4,1006,RJTY 040456Z AUTO 21009KT 10SM CLR 09/M04 A2972 RMK AO2 SLP073     T00891043 FZRANO $=,
20180204_060000.002,0,RJTY,,,,1,20180204050000,-1,-1,-1,-1,10,-1,15,-1,-1,-1,-1,,-1,0,0,0,,1,5,1,0,1007,RJTY 040556Z AUTO 01015KT 10SM CLR 05/00 A2973 RMK AO2 SLP077     T00521002 10095 20036 55018 FZRANO $=,
20180204_070000.002,0,RJTY,,,,1,20180204060000,-1,-1,-1,-1,10,-1,11,-1,-1,-1,-1,,-1,0,0,1,BKN 65,1,5,-1,1,1007,RJTY 040656Z AUTO 01011KT 10SM BKN065 05/M01 A2975 RMK AO2     SLP085 T00531014 FZRANO $=,
20180204_080000.002,0,RJTY,,,,1,20180204070000,-1,-1,-1,-1,360,-1,5,-1,-1,-1,-1,,-1,0,0,1,OVC 55,1,5,-1,4,1008,RJTY 040756Z AUTO 36005KT 10SM OVC055 05/M04 A2976 RMK AO2     SLP088 T00491041 FZRANO $=,
20180204_090000.002,0,RJTY,,,,0,20180204080000,-1,-1,-1,-1,250,-1,4,-1,-1,-1,-1,,-1,0,0,1,OVC 70,1,5,-1,3,1008,RJTY 040856Z 25004KT 10SM OVC070 05/M03 A2978 RMK AO2A SLP095     T00491029 52015 FZRANO $=,
20180204_100000.002,0,RJTY,,,,0,20180204090000,-1,-1,-1,-1,0,-1,0,-1,-1,-1,-1,,-1,0,0,0,,1,4,-1,2,1009,RJTY 040956Z 00000KT 10SM CLR 04/M02 A2979 RMK AO2A SLP098     T00381018 FZRANO $=,
20180204_110000.001,0,RJTY,,,,0,20180204100000,-1,-1,-1,-1,300,-1,5,-1,-1,-1,-1,,-1,0,0,0,,1,2,-1,2,1009,RJTY 041056Z 30005KT 10SM CLR 02/M02 A2980 RMK AO2A SLP102     T00231020 FZRANO $=,
20180204_120000.002,0,RJTY,,,,0,20180204110000,-1,-1,-1,-1,280,-1,3,-1,-1,-1,-1,,-1,0,0,0,,1,3,-1,6,1009,RJTY 041156Z 28003KT 10SM CLR 03/M06 A2981 RMK AO2A SLP105     T00251056 10056 20020 52010 FZRANO $=,
20180204_130000.002,0,RJTY,,,,1,20180204120000,-1,-1,-1,-1,280,-1,5,-1,-1,-1,-1,,-1,1,0,0,,1,1,-1,6,1010,RJTY 041256Z AUTO 28005KT 10SM R36/4500FT CLR 01/M06 A2982 RMK     AO2 SLP109 T00121062 FZRANO $=,
20180204_140000.002,0,RJTY,,,,1,20180204130000,-1,-1,-1,-1,0,-1,0,-1,-1,-1,-1,,-1,0,0,0,,1,1,-1,6,1010,RJTY 041356Z AUTO 00000KT 10SM CLR 01/M06 A2984 RMK AO2 SLP115     T00061063 FZRANO $=,
20180204_150000.002,0,RJTY,,,,1,20180204140000,-1,-1,-1,-1,0,-1,0,-1,-1,-1,-1,,-1,0,0,0,,1,0,-1,8,1010,RJTY 041456Z AUTO 00000KT 10SM CLR 00/M08 A2984 RMK AO2 SLP115     T10011078 400951014 52011 FZRANO $=,
20180204_160000.002,0,RJTY,,,,1,20180204150000,-1,-1,-1,-1,330,-1,4,-1,-1,-1,-1,,-1,0,0,0,,1,1,-1,8,1010,RJTY 041556Z AUTO 33004KT 10SM CLR 01/M08 A2984 RMK AO2 SLP114     T00091081 FZRANO $=,
20180204_170000.002,0,RJTY,,,,1,20180204160000,-1,-1,-1,-1,340,-1,5,-1,-1,-1,-1,,-1,0,0,0,,1,0,-1,8,1011,RJTY 041656Z AUTO 34005KT 10SM CLR 00/M08 A2987 RMK AO2 SLP125     T00021080 FZRANO $=,
20180204_180000.001,0,RJTY,,,,1,20180204170000,-1,-1,-1,-1,280,-1,5,-1,-1,-1,-1,,-1,0,0,0,,-1,1,-1,7,1011,RJTY 041756Z AUTO 28005KT 10SM CLR M01/M07 A2987 RMK AO2 SLP126     T10061072 10025 21029 50010 FZRANO $=,
20180204_190000.002,0,RJTY,,,,1,20180204180000,-1,-1,-1,-1,310,-1,5,-1,-1,-1,-1,,-1,0,0,0,,-1,1,-1,7,1011,RJTY 041856Z AUTO 31005KT 10SM CLR M01/M07 A2987 RMK AO2 SLP126     T10141069 FZRANO $=,
20180204_200000.002,0,RJTY,,,,1,20180204190000,-1,-1,-1,-1,0,-1,0,-1,-1,-1,-1,,-1,0,0,0,,-1,1,-1,8,1012,RJTY 041956Z AUTO 00000KT 10SM CLR M01/M08 A2988 RMK AO2 SLP130     T10111079 FZRANO $=,
20180204_210000.002,0,RJTY,,,,1,20180204200000,-1,-1,-1,-1,280,-1,4,-1,-1,-1,-1,,-1,0,0,0,,-1,3,-1,7,1013,RJTY 042056Z AUTO 28004KT 10SM CLR M03/M07 A2990 RMK AO2 SLP137     T10291072 53009 FZRANO $=,
20180204_220000.004,1,RJTY,,,,0,20180204220000,-1,-1,-1,-1,250,-1,5,-1,-1,-1,-1,,-1,0,0,2,FEW 30   FEW 250,-1,2,-1,7,1013,RJTY 042202Z 25005KT 10SM FEW030 FEW250 M02/M07 A2992 RMK AO2A     SLP144 T10241069 FZRANO $=,
20180204_230000.002,0,RJTY,,,,1,20180204220000,-1,-1,-1,-1,0,-1,0,-1,-1,-1,-1,,-1,0,0,0,,1,0,-1,7,1014,RJTY 042256Z AUTO 00000KT 10SM CLR 00/M07 A2993 RMK AO2 SLP147     T10021068 FZRANO $=,
20180205_000000.001,1,RJTY,,,,1,20180204230000,-1,-1,-1,-1,0,-1,0,-1,-1,-1,-1,,-1,0,0,0,,1,2,-1,6,1013,RJTY 042356Z AUTO 00000KT 10SM CLR 02/M06 A2992 RMK AO2 SLP143     T00171064 10017 21042 50007 FZRANO $=,
20180205_010000.002,0,RJTY,,,,1,20180205000000,-1,-1,-1,-1,130,-1,4,-1,-1,-1,-1,,-1,0,0,0,,1,4,-1,8,1013,RJTY 050056Z AUTO 13004KT 10SM CLR 04/M08 A2991 RMK AO2 SLP139     T00401081 FZRANO $=,
20180205_020000.002,0,RJTY,,,,1,20180205010000,-1,-1,-1,-1,120,-1,5,-1,-1,-1,-1,,-1,0,0,0,,1,6,-1,8,1012,RJTY 050156Z AUTO 12005KT 10SM CLR 06/M08 A2989 RMK AO2 SLP132     T00581081 FZRANO $=,
