20180101_000000.002,0,ROAH,,,,0,20180101000000,-1,-1,-1,-1,60,-1,7,-1,-1,40,110,,9999,0,0,1,SCT 40,1,17,1,7,1023,ROAH 010000Z 06007KT 040V110 9999 SCT040 17/07 Q1023 RMK     4SC040 A3023=,
20180101_003000.001,0,ROAH,,,,0,20180101000000,-1,-1,-1,-1,50,-1,7,-1,-1,20,80,,9999,0,0,1,SCT 40,1,18,1,7,1023,ROAH 010030Z 05007KT 020V080 9999 SCT040 18/07 Q1023 RMK     3SC040 A3023=,
20180101_010000.002,0,ROAH,,,,0,20180101010000,-1,-1,-1,-1,50,-1,10,-1,-1,10,80,,9999,0,0,1,SCT 40,1,19,1,7,1023,ROAH 010100Z 05010KT 010V080 9999 SCT040 19/07 Q1023 RMK     3SC040 A3023=,
20180101_013000.001,0,ROAH,,,,0,20180101010000,-1,-1,-1,-1,20,-1,13,-1,-1,360,60,,9999,0,0,1,SCT 40,1,19,1,8,1023,ROAH 010130Z 02013KT 360V060 9999 SCT040 19/08 Q1023 RMK     3SC040 A3023=,
20180101_020000.002,0,ROAH,,,,0,20180101020000,-1,-1,-1,-1,30,-1,12,-1,-1,-1,-1,,9999,0,0,1,FEW 40,1,19,1,7,1023,ROAH 010200Z 03012KT 9999 FEW040 19/07 Q1023 RMK 1SC040 A3022=,
20180101_023000.001,0,ROAH,,,,0,20180101020000,-1,-1,-1,-1,40,-1,12,-1,-1,360,140,,9999,0,0,1,FEW 40,1,19,1,5,1023,ROAH 010230Z 04012KT 360V140 9999 FEW040 19/05 Q1023 RMK     1SC040 A3021=,
20180101_030000.002,0,ROAH,,,,0,20180101030000,-1,-1,-1,-1,20,-1,13,-1,-1,-1,-1,,9999,0,0,1,FEW 45,1,20,1,7,1022,ROAH 010300Z 02013KT 9999 FEW045 20/07 Q1022 RMK 1SC045 A3020=,
20180101_033000.001,0,ROAH,,,,0,20180101030000,-1,-1,-1,-1,10,-1,12,-1,-1,340,50,,9999,0,0,1,SCT 40,1,20,1,8,1022,ROAH 010330Z 01012KT 340V050 9999 SCT040 20/08 Q1022 RMK     3SC040 A3019=,
20180101_040000.002,0,ROAH,,,,0,20180101040000,-1,-1,-1,-1,10,-1,15,-1,-1,-1,-1,,9999,0,0,1,FEW 35,1,20,1,9,1021,ROAH 010400Z 01015KT 9999 FEW035 20/09 Q1021 RMK 2CU035 A3017=,
20180101_043000.001,0,ROAH,,,,0,20180101040000,-1,-1,-1,-1,20,-1,16,-1,-1,-1,-1,,9999,0,0,1,FEW 35,1,19,1,8,1021,ROAH 010430Z 02016KT 9999 FEW035 19/08 Q1021 RMK 2CU035 A3016=,
20180101_050000.002,0,ROAH,,,,0,20180101050000,-1,-1,-1,-1,40,-1,12,-1,-1,10,80,,9999,0,0,1,FEW 35,1,20,1,7,1021,ROAH 010500Z 04012KT 010V080 9999 FEW035 20/07 Q1021 RMK     2CU035 A3015=,
20180101_053000.001,0,ROAH,,,,0,20180101050000,-1,-1,-1,-1,20,-1,16,-1,-1,-1,-1,,9999,0,0,1,FEW 40,1,20,1,9,1021,ROAH 010530Z 02016KT 9999 FEW040 20/09 Q1021 RMK 2SC040 A3015=,
20180101_060000.002,0,ROAH,,,,0,20180101060000,-1,-1,-1,-1,20,-1,15,-1,-1,-1,-1,,9999,0,0,1,SCT 38,1,19,1,9,1021,ROAH 010600Z 02015KT 9999 SCT038 19/09 Q1021 RMK 3CU038 A3015=,
20180101_063000.001,0,ROAH,,,,0,20180101060000,-1,-1,-1,-1,20,-1,15,-1,-1,360,60,,9999,0,0,1,SCT 38,1,19,1,8,1021,ROAH 010630Z 02015KT 360V060 9999 SCT038 19/08 Q1021 RMK     3CU038 A3015=,
20180101_070000.002,0,ROAH,,,,0,20180101070000,-1,-1,-1,-1,20,-1,15,-1,-1,-1,-1,,9999,0,0,1,SCT 45,1,19,1,8,1021,ROAH 010700Z 02015KT 9999 SCT045 19/08 Q1021 RMK 3SC045 A3015=,
20180101_073000.001,0,ROAH,,,,0,20180101070000,-1,-1,-1,-1,20,-1,15,-1,-1,-1,-1,,9999,0,0,1,SCT 45,1,19,1,7,1021,ROAH 010730Z 02015KT 9999 SCT045 19/07 Q1021 RMK 3SC045 A3016=,
20180101_080000.002,0,ROAH,,,,0,20180101080000,-1,-1,-1,-1,20,-1,13,-1,-1,-1,-1,,9999,0,0,1,FEW 45,1,18,1,7,1021,ROAH 010800Z 02013KT 9999 FEW045 18/07 Q1021 RMK 2SC045 A3016=,
20180101_083000.001,0,ROAH,,,,0,20180101080000,-1,-1,-1,-1,40,-1,10,-1,-1,360,70,,9999,0,0,1,SCT 45,1,18,1,6,1021,ROAH 010830Z 04010KT 360V070 9999 SCT045 18/06 Q1021 RMK     3SC045 A3017=,
20180101_090000.002,0,ROAH,,,,0,20180101090000,-1,-1,-1,-1,40,-1,10,-1,-1,-1,-1,,9999,0,0,1,SCT 45,1,17,1,7,1021,ROAH 010900Z 04010KT 9999 SCT045 17/07 Q1021 RMK 3SC045 A3017=,
20180101_093000.001,0,ROAH,,,,0,20180101090000,-1,-1,-1,-1,40,-1,11,-1,-1,-1,-1,,9999,0,0,1,FEW 45,1,17,1,7,1021,ROAH 010930Z 04011KT 9999 FEW045 17/07 Q1021 RMK 2SC045 A3017=,
20180101_100000.002,0,ROAH,,,,0,20180101100000,-1,-1,-1,-1,40,-1,8,-1,-1,-1,-1,,9999,0,0,1,SCT 45,1,17,1,7,1022,ROAH 011000Z 04008KT 9999 SCT045 17/07 Q1022 RMK 3SC045 A3018=,
20180101_103000.001,0,ROAH,,,,0,20180101100000,-1,-1,-1,-1,40,-1,9,-1,-1,10,70,,9999,0,0,1,FEW 40,1,17,1,8,1022,ROAH 011030Z 04009KT 010V070 9999 FEW040 17/08 Q1022 RMK     2SC040 A3019=,
20180101_110000.002,0,ROAH,,,,0,20180101110000,-1,-1,-1,-1,50,-1,7,-1,-1,30,90,,9999,0,0,1,FEW 40,1,17,1,8,1022,ROAH 011100Z 05007KT 030V090 9999 FEW040 17/08 Q1022 RMK     2SC040 A3019=,
20180101_113000.001,0,ROAH,,,,0,20180101110000,-1,-1,-1,-1,40,-1,10,-1,-1,-1,-1,,9999,0,0,1,FEW 40,1,17,1,7,1022,ROAH 011130Z 04010KT 9999 FEW040 17/07 Q1022 RMK 2SC040 A3020=,
20180101_120000.002,0,ROAH,,,,0,20180101120000,-1,-1,-1,-1,40,-1,7,-1,-1,-1,-1,,9999,0,0,1,FEW 40,1,17,1,5,1022,ROAH 011200Z 04007KT 9999 FEW040 17/05 Q1022 RMK 1SC040 A3021=,
20180101_123000.001,0,ROAH,,,,0,20180101120000,-1,-1,-1,-1,60,-1,5,-1,-1,-1,-1,,9999,0,0,1,FEW 40,1,16,1,5,1022,ROAH 011230Z 06005KT 9999 FEW040 16/05 Q1022 RMK 1SC040 A3021=,
20180101_130000.002,0,ROAH,,,,0,20180101130000,-1,-1,-1,-1,50,-1,6,-1,-1,20,100,,9999,0,0,1,FEW 40,1,16,1,6,1023,ROAH 011300Z 05006KT 020V100 9999 FEW040 16/06 Q1023 RMK     1SC040 A3021=,
20180101_133000.001,0,ROAH,,,,0,20180101130000,-1,-1,-1,-1,60,-1,6,-1,-1,20,80,,9999,0,0,1,FEW 40,1,16,1,7,1023,ROAH 011330Z 06006KT 020V080 9999 FEW040 16/07 Q1023 RMK     1SC040 A3021=,
20180101_140000.002,0,ROAH,,,,0,20180101140000,-1,-1,-1,-1,60,-1,6,-1,-1,30,90,,9999,0,0,1,FEW 40,1,16,1,7,1023,ROAH 011400Z 06006KT 030V090 9999 FEW040 16/07 Q1023 RMK     1SC040 A3022=,
20180101_143000.001,0,ROAH,,,,0,20180101140000,-1,-1,-1,-1,60,-1,8,-1,-1,-1,-1,,9999,0,0,1,FEW 40,1,16,1,7,1023,ROAH 011430Z 06008KT 9999 FEW040 16/07 Q1023 RMK 1SC040 A3021=,
20180101_150000.002,0,ROAH,,,,0,20180101150000,-1,-1,-1,-1,50,-1,6,-1,-1,-1,-1,,9999,0,0,1,FEW 40,1,16,1,7,1023,ROAH 011500Z 05006KT 9999 FEW040 16/07 Q1023 RMK 1SC040 A3021=,
20180101_153000.001,0,ROAH,,,,0,20180101150000,-1,-1,-1,-1,60,-1,5,-1,-1,30,120,,9999,0,0,1,FEW 40,1,16,1,7,1023,ROAH 011530Z 06005KT 030V120 9999 FEW040 16/07 Q1023 RMK     1SC040 A3023=,
20180101_160000.002,0,ROAH,,,,0,20180101160000,-1,-1,-1,-1,40,-1,7,-1,-1,10,70,,9999,0,0,1,FEW 40,1,16,1,7,1023,ROAH 011600Z 04007KT 010V070 9999 FEW040 16/07 Q1023 RMK     1SC040 A3023=,
20180101_163000.001,0,ROAH,,,,0,20180101160000,-1,-1,-1,-1,40,-1,9,-1,-1,-1,-1,,9999,0,0,1,FEW 40,1,16,1,7,1023,ROAH 011630Z 04009KT 9999 FEW040 16/07 Q1023 RMK 1SC040 A3023=,
20180101_170000.002,0,ROAH,,,,0,20180101170000,-1,-1,-1,-1,30,-1,7,-1,-1,-1,-1,,9999,0,0,1,FEW 40,1,16,1,7,1023,ROAH 011700Z 03007KT 9999 FEW040 16/07 Q1023 RMK 1SC040 A3022=,
20180101_173000.001,0,ROAH,,,,0,20180101170000,-1,-1,-1,-1,30,-1,6,-1,-1,-1,-1,,9999,0,0,1,FEW 40,1,16,1,7,1023,ROAH 011730Z 03006KT 9999 FEW040 16/07 Q1023 RMK 1SC040 A3023=,
20180101_180000.003,0,ROAH,,,,0,20180101180000,-1,-1,-1,-1,30,-1,5,-1,-1,-1,-1,,9999,0,0,2,FEW 40   SCT 50,1,16,1,7,1023,ROAH 011800Z 03005KT 9999 FEW040 SCT050 16/07 Q1023 RMK 1SC040     3SC050 A3023=,
20180101_183000.001,0,ROAH,,,,0,20180101180000,-1,-1,-1,-1,40,-1,4,-1,-1,-1,-1,,9999,0,0,1,FEW 40,1,16,1,8,1023,ROAH 011830Z 04004KT 9999 FEW040 16/08 Q1023 RMK 1SC040 A3022=,
20180101_190000.003,0,ROAH,,,,0,20180101190000,-1,-1,-1,-1,40,-1,5,-1,-1,-1,-1,CAVOK,-1,0,0,0,,1,16,1,9,1023,ROAH 011900Z 04005KT CAVOK 16/09 Q1023 RMK A3022=,
20180101_193000.001,0,ROAH,,,,0,20180101190000,-1,-1,-1,-1,40,-1,5,-1,-1,-1,-1,,9999,0,0,2,SCT 40   SCT 50,1,16,1,8,1023,ROAH 011930Z 04005KT 9999 SCT040 SCT050 16/08 Q1023 RMK 3SC040     4SC050 A3022=,
20180101_200000.003,0,ROAH,,,,0,20180101200000,-1,-1,-1,-1,50,-1,7,-1,-1,-1,-1,,9999,0,0,1,FEW 40,1,16,1,7,1023,ROAH 012000Z 05007KT 9999 FEW040 16/07 Q1023 RMK 2SC040 A3021=,
20180101_203000.001,0,ROAH,,,,0,20180101200000,-1,-1,-1,-1,50,-1,8,-1,-1,-1,-1,,9999,0,0,1,FEW 40,1,16,1,7,1023,ROAH 012030Z 05008KT 9999 FEW040 16/07 Q1023 RMK 1SC040 A3022=,
20180101_210000.002,0,ROAH,,,,0,20180101210000,-1,-1,-1,-1,50,-1,10,-1,-1,-1,-1,,9999,0,0,1,FEW 40,1,16,1,6,1023,ROAH 012100Z 05010KT 9999 FEW040 16/06 Q1023 RMK 1SC040 A3022=,
20180101_213000.001,0,ROAH,,,,0,20180101210000,-1,-1,-1,-1,50,-1,8,-1,-1,-1,-1,,9999,0,0,1,FEW 40,1,16,1,6,1023,ROAH 012130Z 05008KT 9999 FEW040 16/06 Q1023 RMK 1SC040 A3023=,
20180101_220000.002,0,ROAH,,,,0,20180101220000,-1,-1,-1,-1,60,-1,7,-1,-1,10,80,,9999,0,0,1,FEW 40,1,16,1,6,1023,ROAH 012200Z 06007KT 010V080 9999 FEW040 16/06 Q1023 RMK     1SC040 A3023=,
20180101_223000.002,0,ROAH,,,,0,20180101220000,-1,-1,-1,-1,50,-1,7,-1,-1,-1,-1,,9999,0,0,1,FEW 40,1,16,1,6,1024,ROAH 012230Z 05007KT 9999 FEW040 16/06 Q1024 RMK 1SC040 A3024=,
20180101_230000.002,0,ROAH,,,,0,20180101230000,-1,-1,-1,-1,50,-1,6,-1,-1,20,90,,9999,0,0,1,FEW 40,1,16,1,6,1024,ROAH 012300Z 05006KT 020V090 9999 FEW040 16/06 Q1024 RMK     1SC040 A3024=,
20180101_233000.001,0,ROAH,,,,0,20180101230000,-1,-1,-1,-1,30,-1,7,-1,-1,-1,-1,,9999,0,0,1,FEW 40,1,16,1,7,1024,ROAH 012330Z 03007KT 9999 FEW040 16/07 Q1024 RMK 2SC040 A3025=,
20180102_000000.003,0,ROAH,,,,0,20180102000000,-1,-1,-1,-1,40,-1,6,-1,-1,-1,-1,,9999,0,0,1,FEW 40,1,17,1,7,1024,ROAH 020000Z 04006KT 9999 FEW040 17/07 Q1024 RMK 2SC040 A3026=,
20180102_003000.001,0,ROAH,,,,0,20180102000000,-1,-1,-1,-1,40,-1,6,-1,-1,10,80,,9999,0,0,1,SCT 40,1,17,1,7,1025,ROAH 020030Z 04006KT 010V080 9999 SCT040 17/07 Q1025 RMK     3SC040 A3027=,
20180102_010000.003,0,ROAH,,,,0,20180102010000,-1,-1,-1,-1,40,-1,7,-1,-1,10,70,,9999,0,0,1,FEW 40,1,18,1,6,1025,ROAH 020100Z 04007KT 010V070 9999 FEW040 18/06 Q1025 RMK     2SC040 A3027=,
20180102_013000.001,0,ROAH,,,,0,20180102010000,-1,-1,-1,-1,50,-1,5,-1,-1,10,110,,9999,0,0,1,FEW 40,1,19,1,8,1024,ROAH 020130Z 05005KT 010V110 9999 FEW040 19/08 Q1024 RMK     2SC040 A3026=,
20180102_020000.002,0,ROAH,,,,0,20180102020000,-1,-1,-1,-1,60,-1,8,-1,-1,10,110,,9999,0,0,1,FEW 40,1,19,1,8,1024,ROAH 020200Z 06008KT 010V110 9999 FEW040 19/08 Q1024 RMK     2SC040 A3025=,
20180102_023000.001,0,ROAH,,,,0,20180102020000,-1,-1,-1,-1,40,-1,8,-1,-1,10,90,,9999,0,0,1,FEW 40,1,19,1,7,1024,ROAH 020230Z 04008KT 010V090 9999 FEW040 19/07 Q1024 RMK     2SC040 A3024=,
20180102_030000.002,0,ROAH,,,,0,20180102030000,-1,-1,-1,-1,40,-1,10,-1,-1,10,70,,9999,0,0,1,FEW 40,1,19,1,7,1023,ROAH 020300Z 04010KT 010V070 9999 FEW040 19/07 Q1023 RMK     2SC040 A3023=,
20180102_033000.001,0,ROAH,,,,0,20180102030000,-1,-1,-1,-1,50,-1,8,-1,-1,360,80,,9999,0,0,1,FEW 40,1,19,1,7,1023,ROAH 020330Z 05008KT 360V080 9999 FEW040 19/07 Q1023 RMK     1SC040 A3021=,
20180102_040000.002,0,ROAH,,,,0,20180102040000,-1,-1,-1,-1,60,-1,10,-1,-1,20,90,,9999,0,0,1,FEW 40,1,19,1,6,1022,ROAH 020400Z 06010KT 020V090 9999 FEW040 19/06 Q1022 RMK     2SC040 A3020=,
20180102_043000.001,0,ROAH,,,,0,20180102040000,-1,-1,-1,-1,60,-1,9,-1,-1,30,120,,9999,0,0,1,FEW 45,1,19,1,7,1022,ROAH 020430Z 06009KT 030V120 9999 FEW045 19/07 Q1022 RMK     2SC045 A3018=,
20180102_050000.002,0,ROAH,,,,0,20180102050000,-1,-1,-1,-1,70,-1,10,-1,-1,40,110,,9999,0,0,1,FEW 45,1,19,1,8,1021,ROAH 020500Z 07010KT 040V110 9999 FEW045 19/08 Q1021 RMK     2SC045 A3018=,
20180102_053000.001,0,ROAH,,,,0,20180102050000,-1,-1,-1,-1,60,-1,9,-1,-1,30,100,,9999,0,0,1,SCT 45,1,20,1,8,1021,ROAH 020530Z 06009KT 030V100 9999 SCT045 20/08 Q1021 RMK     3SC045 A3017=,
20180102_060000.002,0,ROAH,,,,0,20180102060000,-1,-1,-1,-1,80,-1,8,-1,-1,40,130,,9999,0,0,1,SCT 45,1,20,1,8,1021,ROAH 020600Z 08008KT 040V130 9999 SCT045 20/08 Q1021 RMK     4SC045 A3017=,
20180102_063000.001,0,ROAH,,,,0,20180102060000,-1,-1,-1,-1,70,-1,8,-1,-1,20,120,,9999,0,0,1,SCT 45,1,19,1,8,1021,ROAH 020630Z 07008KT 020V120 9999 SCT045 19/08 Q1021 RMK     3SC045 A3017=,
20180102_070000.002,0,ROAH,,,,0,20180102070000,-1,-1,-1,-1,70,-1,9,-1,-1,40,100,,9999,0,0,1,FEW 45,1,19,1,8,1021,ROAH 020700Z 07009KT 040V100 9999 FEW045 19/08 Q1021 RMK     2SC045 A3017=,
20180102_073000.001,0,ROAH,,,,0,20180102070000,-1,-1,-1,-1,80,-1,9,-1,-1,50,110,,9999,0,0,1,FEW 45,1,19,1,8,1021,ROAH 020730Z 08009KT 050V110 9999 FEW045 19/08 Q1021 RMK     2SC045 A3017=,
20180102_080000.002,0,ROAH,,,,0,20180102080000,-1,-1,-1,-1,60,-1,8,-1,-1,-1,-1,,9999,0,0,1,FEW 45,1,18,1,7,1021,ROAH 020800Z 06008KT 9999 FEW045 18/07 Q1021 RMK 2SC045 A3017=,
20180102_083000.001,0,ROAH,,,,0,20180102080000,-1,-1,-1,-1,80,-1,7,-1,-1,40,110,,9999,0,0,1,FEW 40,1,18,1,8,1022,ROAH 020830Z 08007KT 040V110 9999 FEW040 18/08 Q1022 RMK     2SC040 A3018=,
20180102_090000.002,0,ROAH,,,,0,20180102090000,-1,-1,-1,-1,70,-1,7,-1,-1,-1,-1,,9999,0,0,1,FEW 40,1,18,1,8,1021,ROAH 020900Z 07007KT 9999 FEW040 18/08 Q1021 RMK 2SC040 A3018=,
20180102_093000.001,0,ROAH,,,,0,20180102090000,-1,-1,-1,-1,50,-1,5,-1,-1,-1,-1,,9999,0,0,1,BKN 42,1,18,1,8,1022,ROAH 020930Z 05005KT 9999 BKN042 18/08 Q1022 RMK 5SC042 A3018=,
20180102_100000.002,0,ROAH,,,,0,20180102100000,-1,-1,-1,-1,30,-1,5,-1,-1,360,80,,9999,0,0,1,FEW 40,1,17,1,9,1022,ROAH 021000Z 03005KT 360V080 9999 FEW040 17/09 Q1022 RMK     2SC040 A3018=,
20180102_103000.001,0,ROAH,,,,0,20180102100000,-1,-1,-1,-1,40,-1,7,-1,-1,10,90,,9999,0,0,1,FEW 40,1,17,1,9,1022,ROAH 021030Z 04007KT 010V090 9999 FEW040 17/09 Q1022 RMK     2SC040 A3018=,
20180102_110000.002,0,ROAH,,,,0,20180102110000,-1,-1,-1,-1,40,-1,7,-1,-1,-1,-1,,9999,0,0,1,SCT 42,1,17,1,9,1022,ROAH 021100Z 04007KT 9999 SCT042 17/09 Q1022 RMK 3SC042 A3019=,
20180102_113000.001,0,ROAH,,,,0,20180102110000,-1,-1,-1,-1,30,-1,11,-1,-1,360,70,,9999,0,0,1,BKN 42,1,17,1,9,1022,ROAH 021130Z 03011KT 360V070 9999 BKN042 17/09 Q1022 RMK     6SC042 A3019=,
20180102_120000.002,0,ROAH,,,,0,20180102120000,-1,-1,-1,-1,30,-1,8,-1,-1,350,90,,9999,0,0,1,BKN 42,1,17,1,9,1022,ROAH 021200Z 03008KT 350V090 9999 BKN042 17/09 Q1022 RMK     6SC042 A3020=,
20180102_123000.001,0,ROAH,,,,0,20180102120000,-1,-1,-1,-1,30,-1,8,-1,-1,-1,-1,,9999,0,0,1,SCT 45,1,17,1,9,1022,ROAH 021230Z 03008KT 9999 SCT045 17/09 Q1022 RMK 3SC045 A3020=,
20180102_130000.003,0,ROAH,,,,0,20180102130000,-1,-1,-1,-1,30,-1,7,-1,-1,-1,-1,,9999,0,0,1,BKN 39,1,17,1,9,1022,ROAH 021300Z 03007KT 9999 BKN039 17/09 Q1022 RMK 5SC039 A3020=,
20180102_133000.001,0,ROAH,,,,0,20180102130000,-1,-1,-1,-1,30,-1,8,-1,-1,-1,-1,,9999,0,0,1,BKN 37,1,17,1,9,1022,ROAH 021330Z 03008KT 9999 BKN037 17/09 Q1022 RMK 5SC037 A3020=,
20180102_140000.003,0,ROAH,,,,0,20180102140000,-1,-1,-1,-1,30,-1,8,-1,-1,-1,-1,,9999,0,0,1,FEW 45,1,17,1,10,1022,ROAH 021400Z 03008KT 9999 FEW045 17/10 Q1022 RMK 2SC045 A3021=,
20180102_143000.001,0,ROAH,,,,0,20180102140000,-1,-1,-1,-1,30,-1,7,-1,-1,-1,-1,CAVOK,-1,0,0,0,,1,17,1,10,1022,ROAH 021430Z 03007KT CAVOK 17/10 Q1022 RMK A3020=,
20180102_150000.002,0,ROAH,,,,0,20180102150000,-1,-1,-1,-1,30,-1,7,-1,-1,-1,-1,CAVOK,-1,0,0,0,,1,17,1,10,1022,ROAH 021500Z 03007KT CAVOK 17/10 Q1022 RMK A3021=,
20180102_153000.001,0,ROAH,,,,0,20180102150000,-1,-1,-1,-1,30,-1,7,-1,-1,-1,-1,CAVOK,-1,0,0,0,,1,17,1,10,1023,ROAH 021530Z 03007KT CAVOK 17/10 Q1023 RMK A3021=,
20180102_160000.002,0,ROAH,,,,0,20180102160000,-1,-1,-1,-1,30,-1,7,-1,-1,-1,-1,CAVOK,-1,0,0,0,,1,17,1,10,1023,ROAH 021600Z 03007KT CAVOK 17/10 Q1023 RMK A3021=,
20180102_163000.001,0,ROAH,,,,0,20180102160000,-1,-1,-1,-1,40,-1,8,-1,-1,-1,-1,CAVOK,-1,0,0,0,,1,17,1,9,1022,ROAH 021630Z 04008KT CAVOK 17/09 Q1022 RMK A3021=,
20180102_170000.002,0,ROAH,,,,0,20180102170000,-1,-1,-1,-1,40,-1,7,-1,-1,-1,-1,CAVOK,-1,0,0,0,,1,17,1,9,1022,ROAH 021700Z 04007KT CAVOK 17/09 Q1022 RMK A3020=,
20180102_173000.001,0,ROAH,,,,0,20180102170000,-1,-1,-1,-1,40,-1,7,-1,-1,-1,-1,CAVOK,-1,0,0,0,,1,16,1,9,1022,ROAH 021730Z 04007KT CAVOK 16/09 Q1022 RMK A3020=,
20180102_180000.003,0,ROAH,,,,0,20180102180000,-1,-1,-1,-1,50,-1,6,-1,-1,-1,-1,CAVOK,-1,0,0,0,,1,17,1,8,1022,ROAH 021800Z 05006KT CAVOK 17/08 Q1022 RMK A3019=,
20180102_183000.001,0,ROAH,,,,0,20180102180000,-1,-1,-1,-1,30,-1,8,-1,-1,-1,-1,CAVOK,-1,0,0,0,,1,16,1,8,1022,ROAH 021830Z 03008KT CAVOK 16/08 Q1022 RMK A3020=,
20180102_190000.002,0,ROAH,,,,0,20180102190000,-1,-1,-1,-1,50,-1,6,-1,-1,-1,-1,CAVOK,-1,0,0,0,,1,16,1,8,1022,ROAH 021900Z 05006KT CAVOK 16/08 Q1022 RMK A3019=,
20180102_193000.001,0,ROAH,,,,0,20180102190000,-1,-1,-1,-1,50,-1,5,-1,-1,-1,-1,CAVOK,-1,0,0,0,,1,16,1,7,1022,ROAH 021930Z 05005KT CAVOK 16/07 Q1022 RMK A3018=,
20180102_200000.003,0,ROAH,,,,0,20180102200000,-1,-1,-1,-1,60,-1,4,-1,-1,-1,-1,CAVOK,-1,0,0,0,,1,16,1,7,1022,ROAH 022000Z 06004KT CAVOK 16/07 Q1022 RMK A3018=,
20180102_203000.001,0,ROAH,,,,0,20180102200000,-1,-1,-1,-1,70,-1,4,-1,-1,-1,-1,CAVOK,-1,0,0,0,,1,16,1,7,1022,ROAH 022030Z 07004KT CAVOK 16/07 Q1022 RMK A3019=,
20180102_210000.002,0,ROAH,,,,0,20180102210000,-1,-1,-1,-1,80,-1,3,-1,-1,60,120,CAVOK,-1,0,0,0,,1,16,1,7,1022,ROAH 022100Z 08003KT 060V120 CAVOK 16/07 Q1022 RMK A3020=,
20180102_213000.001,0,ROAH,,,,0,20180102210000,-1,-1,-1,-1,50,-1,4,-1,-1,-1,-1,CAVOK,-1,0,0,0,,1,15,1,8,1023,ROAH 022130Z 05004KT CAVOK 15/08 Q1023 RMK A3021=,
20180102_220000.002,0,ROAH,,,,0,20180102220000,-1,-1,-1,-1,60,-1,4,-1,-1,-1,-1,CAVOK,-1,0,0,0,,1,16,1,9,1022,ROAH 022200Z 06004KT CAVOK 16/09 Q1022 RMK A3021=,
20180102_223000.002,0,ROAH,,,,0,20180102220000,-1,-1,-1,-1,50,-1,4,-1,-1,-1,-1,CAVOK,-1,0,0,0,,1,16,1,9,1023,ROAH 022230Z 05004KT CAVOK 16/09 Q1023 RMK A3021=,
20180102_230000.002,0,ROAH,,,,0,20180102230000,-1,-1,-1,-1,50,-1,4,-1,-1,-1,-1,CAVOK,-1,0,0,0,,1,16,1,9,1023,ROAH 022300Z 05004KT CAVOK 16/09 Q1023 RMK A3022=,
20180102_233000.001,0,ROAH,,,,0,20180102230000,-1,-1,-1,-1,40,-1,5,-1,-1,-1,-1,,9999,0,0,2,FEW 40   SCT -9999,1,17,1,9,1023,ROAH 022330Z 04005KT 9999 FEW040 SCT/// 17/09 Q1023 RMK 1SC040     A3022=,
20180103_000000.002,0,ROAH,,,,0,20180103000000,-1,-1,-1,-1,40,-1,6,-1,-1,-1,-1,,9999,0,0,2,FEW 40   SCT -9999,1,18,1,9,1023,ROAH 030000Z 04006KT 9999 FEW040 SCT/// 18/09 Q1023 RMK 1SC040     A3023=,
20180103_003000.001,0,ROAH,,,,0,20180103000000,-1,-1,-1,-1,30,-1,7,-1,-1,-1,-1,,9999,0,0,2,FEW 40   SCT -9999,1,19,1,9,1023,ROAH 030030Z 03007KT 9999 FEW040 SCT/// 19/09 Q1023 RMK 1SC040     A3023=,
20180103_010000.002,0,ROAH,,,,0,20180103010000,-1,-1,-1,-1,50,-1,6,-1,-1,20,90,,9999,0,0,2,FEW 40   SCT -9999,1,19,1,10,1023,ROAH 030100Z 05006KT 020V090 9999 FEW040 SCT/// 19/10 Q1023     RMK 1SC040 A3023=,
20180103_013000.001,0,ROAH,,,,0,20180103010000,-1,-1,-1,-1,50,-1,6,-1,-1,20,90,,9999,0,0,2,FEW 40   SCT -9999,1,20,1,10,1023,ROAH 030130Z 05006KT 020V090 9999 FEW040 SCT/// 20/10 Q1023     RMK 1SC040 A3023=,
20180103_020000.002,0,ROAH,,,,0,20180103020000,-1,-1,-1,-1,50,-1,8,-1,-1,10,80,,9999,0,0,1,FEW 40,1,20,1,10,1023,ROAH 030200Z 05008KT 010V080 9999 FEW040 20/10 Q1023 RMK     1SC040 A3022=,
20180103_023000.001,0,ROAH,,,,0,20180103020000,-1,-1,-1,-1,80,-1,8,-1,-1,20,120,,9999,0,0,2,FEW 40   SCT -9999,1,20,1,10,1023,ROAH 030230Z 08008KT 020V120 9999 FEW040 SCT/// 20/10 Q1023     RMK 1SC040 A3021=,
20180103_030000.003,0,ROAH,,,,0,20180103030000,-1,-1,-1,-1,60,-1,8,-1,-1,20,120,,9999,0,0,1,FEW 40,1,21,1,10,1022,ROAH 030300Z 06008KT 020V120 9999 FEW040 21/10 Q1022 RMK     1SC040 A3019=,
20180103_033000.001,0,ROAH,,,,0,20180103030000,-1,-1,-1,-1,80,-1,8,-1,-1,40,130,,9999,0,0,1,FEW 40,1,21,1,11,1022,ROAH 030330Z 08008KT 040V130 9999 FEW040 21/11 Q1022 RMK     1SC040 A3018=,
20180103_040000.002,0,ROAH,,,,0,20180103040000,-1,-1,-1,-1,70,-1,7,-1,-1,20,120,,9999,0,0,2,FEW 40   SCT -9999,1,21,1,10,1021,ROAH 030400Z 07007KT 020V120 9999 FEW040 SCT/// 21/10 Q1021     RMK 1SC040 A3017=,
20180103_043000.001,0,ROAH,,,,0,20180103040000,-1,-1,-1,-1,100,-1,9,-1,-1,50,140,,9999,0,0,1,FEW 40,1,21,1,10,1021,ROAH 030430Z 10009KT 050V140 9999 FEW040 21/10 Q1021 RMK     1SC040 A3016=,
20180103_050000.002,0,ROAH,,,,0,20180103050000,-1,-1,-1,-1,50,-1,9,-1,19,20,90,,9999,0,0,1,FEW 40,1,21,1,10,1021,ROAH 030500Z 05009G19KT 020V090 9999 FEW040 21/10 Q1021 RMK     2SC040 A3016=,
20180103_053000.001,0,ROAH,,,,0,20180103050000,-1,-1,-1,-1,80,-1,7,-1,-1,40,120,,9999,0,0,2,FEW 40   BKN 50,1,20,1,10,1021,ROAH 030530Z 08007KT 040V120 9999 FEW040 BKN050 20/10 Q1021     RMK 2SC040 6SC050 A3015=,
20180103_060000.002,0,ROAH,,,,0,20180103060000,-1,-1,-1,-1,90,-1,10,-1,-1,50,120,,9999,0,0,2,FEW 40   BKN 50,1,20,1,10,1020,ROAH 030600Z 09010KT 050V120 9999 FEW040 BKN050 20/10 Q1020     RMK 1SC040 5SC050 A3014=,
20180103_063000.001,0,ROAH,,,,0,20180103060000,-1,-1,-1,-1,70,-1,8,-1,-1,50,120,,9999,0,0,1,FEW 40,1,20,1,10,1020,ROAH 030630Z 07008KT 050V120 9999 FEW040 20/10 Q1020 RMK     2SC040 A3014=,
20180103_070000.002,0,ROAH,,,,0,20180103070000,-1,-1,-1,-1,80,-1,8,-1,-1,50,120,,9999,0,0,2,FEW 40   SCT -9999,1,20,1,10,1020,ROAH 030700Z 08008KT 050V120 9999 FEW040 SCT/// 20/10 Q1020     RMK 1SC040 A3015=,
20180103_073000.001,0,ROAH,,,,0,20180103070000,-1,-1,-1,-1,70,-1,9,-1,-1,50,110,,9999,0,0,2,FEW 40   BKN -9999,1,20,1,10,1020,ROAH 030730Z 07009KT 050V110 9999 FEW040 BKN/// 20/10 Q1020     RMK 1SC040 A3015=,
20180103_080000.002,0,ROAH,,,,0,20180103080000,-1,-1,-1,-1,50,-1,10,-1,-1,-1,-1,,9999,0,0,2,FEW 40   BKN -9999,1,19,1,10,1021,ROAH 030800Z 05010KT 9999 FEW040 BKN/// 19/10 Q1021 RMK 2SC040     A3016=,
20180103_083000.001,0,ROAH,,,,0,20180103080000,-1,-1,-1,-1,60,-1,8,-1,-1,30,110,,9999,0,0,2,FEW 40   SCT -9999,1,19,1,10,1021,ROAH 030830Z 06008KT 030V110 9999 FEW040 SCT/// 19/10 Q1021     RMK 2SC040 A3016=,
20180103_090000.002,0,ROAH,,,,0,20180103090000,-1,-1,-1,-1,70,-1,9,-1,-1,40,160,,9999,0,0,1,FEW 40,1,19,1,10,1021,ROAH 030900Z 07009KT 040V160 9999 FEW040 19/10 Q1021 RMK     2SC040 A3016=,
20180103_093000.001,0,ROAH,,,,0,20180103090000,-1,-1,-1,-1,60,-1,8,-1,-1,-1,-1,,9999,0,0,1,FEW 40,1,19,1,10,1021,ROAH 030930Z 06008KT 9999 FEW040 19/10 Q1021 RMK 2SC040 A3016=,
20180103_100000.002,0,ROAH,,,,0,20180103100000,-1,-1,-1,-1,60,-1,7,-1,-1,40,110,,9999,0,0,1,FEW 35,1,18,1,10,1021,ROAH 031000Z 06007KT 040V110 9999 FEW035 18/10 Q1021 RMK     1CU035 A3017=,
20180103_103000.001,0,ROAH,,,,0,20180103100000,-1,-1,-1,-1,60,-1,6,-1,-1,40,100,,9999,0,0,2,FEW 35   SCT -9999,1,19,1,11,1022,ROAH 031030Z 06006KT 040V100 9999 FEW035 SCT/// 19/11 Q1022     RMK 1CU035 A3018=,
20180103_110000.002,0,ROAH,,,,0,20180103110000,-1,-1,-1,-1,60,-1,6,-1,-1,-1,-1,,9999,0,0,2,FEW 35   BKN -9999,1,18,1,10,1022,ROAH 031100Z 06006KT 9999 FEW035 BKN/// 18/10 Q1022 RMK 1CU035     A3019=,
20180103_113000.001,0,ROAH,,,,0,20180103110000,-1,-1,-1,-1,60,-1,4,-1,-1,-1,-1,,9999,0,0,2,FEW 35   BKN 50,1,18,1,11,1022,ROAH 031130Z 06004KT 9999 FEW035 BKN050 18/11 Q1022 RMK 1CU035     6SC050 A3019=,
20180103_120000.002,0,ROAH,,,,0,20180103120000,-1,-1,-1,-1,999,-1,5,-1,-1,-1,-1,,9999,0,0,2,FEW 35   BKN 50,1,19,1,10,1022,ROAH 031200Z VRB05KT 9999 FEW035 BKN050 19/10 Q1022 RMK 1CU035     7SC050 A3019=,
20180103_123000.001,0,ROAH,,,,0,20180103120000,-1,-1,-1,-1,70,-1,6,-1,-1,50,130,,9999,0,0,2,FEW 35   BKN 50,1,19,1,11,1022,ROAH 031230Z 07006KT 050V130 9999 FEW035 BKN050 19/11 Q1022     RMK 1CU035 7SC050 A3019=,
20180103_130000.003,0,ROAH,,,,0,20180103130000,-1,-1,-1,-1,80,-1,6,-1,-1,40,110,,9999,0,0,2,FEW 35   BKN 50,1,19,1,11,1022,ROAH 031300Z 08006KT 040V110 9999 FEW035 BKN050 19/11 Q1022     RMK 1CU035 7SC050 A3020=,
20180103_133000.001,0,ROAH,,,,0,20180103130000,-1,-1,-1,-1,70,-1,7,-1,-1,50,110,,9999,0,0,2,FEW 35   BKN 50,1,19,1,11,1022,ROAH 031330Z 07007KT 050V110 9999 FEW035 BKN050 19/11 Q1022     RMK 1CU035 7SC050 A3019=,
20180103_140000.002,0,ROAH,,,,0,20180103140000,-1,-1,-1,-1,70,-1,6,-1,-1,40,110,,9999,0,0,2,FEW 35   BKN 50,1,19,1,11,1022,ROAH 031400Z 07006KT 040V110 9999 FEW035 BKN050 19/11 Q1022     RMK 1CU035 7SC050 A3019=,
20180103_143000.001,0,ROAH,,,,0,20180103140000,-1,-1,-1,-1,70,-1,6,-1,-1,50,110,,9999,0,0,2,FEW 35   BKN 50,1,19,1,11,1022,ROAH 031430Z 07006KT 050V110 9999 FEW035 BKN050 19/11 Q1022     RMK 1CU035 7SC050 A3019=,
20180103_150000.002,0,ROAH,,,,0,20180103150000,-1,-1,-1,-1,80,-1,3,-1,-1,40,120,,9999,0,0,2,FEW 35   BKN 50,1,19,1,11,1022,ROAH 031500Z 08003KT 040V120 9999 FEW035 BKN050 19/11 Q1022     RMK 1CU035 7SC050 A3019=,
20180103_153000.001,0,ROAH,,,,0,20180103150000,-1,-1,-1,-1,110,-1,3,-1,-1,60,150,,9999,0,0,2,FEW 35   BKN 50,1,19,1,11,1022,ROAH 031530Z 11003KT 060V150 9999 FEW035 BKN050 19/11 Q1022     RMK 1CU035 7SC050 A3019=,
20180103_160000.002,0,ROAH,,,,0,20180103160000,-1,-1,-1,-1,100,-1,3,-1,-1,50,140,,9999,0,0,2,FEW 35   BKN 40,1,19,1,11,1022,ROAH 031600Z 10003KT 050V140 9999 FEW035 BKN040 19/11 Q1022     RMK 1CU035 7SC040 A3019=,
20180103_163000.001,0,ROAH,,,,0,20180103160000,-1,-1,-1,-1,70,-1,5,-1,-1,-1,-1,,9999,0,0,2,FEW 35   BKN 40,1,19,1,11,1022,ROAH 031630Z 07005KT 9999 FEW035 BKN040 19/11 Q1022 RMK 1CU035     7SC040 A3019=,
20180103_170000.002,0,ROAH,,,,0,20180103170000,-1,-1,-1,-1,80,-1,4,-1,-1,50,120,,9999,0,0,2,FEW 35   BKN 50,1,19,1,11,1022,ROAH 031700Z 08004KT 050V120 9999 FEW035 BKN050 19/11 Q1022     RMK 1CU035 7SC050 A3018=,
20180103_173000.001,0,ROAH,,,,0,20180103170000,-1,-1,-1,-1,100,-1,4,-1,-1,60,130,,9999,0,0,2,FEW 35   BKN 50,1,19,1,11,1021,ROAH 031730Z 10004KT 060V130 9999 FEW035 BKN050 19/11 Q1021     RMK 1CU035 7SC050 A3017=,
20180103_180000.002,0,ROAH,,,,0,20180103180000,-1,-1,-1,-1,110,-1,4,-1,-1,-1,-1,,9999,0,0,2,FEW 35   BKN 60,1,19,1,11,1021,ROAH 031800Z 11004KT 9999 FEW035 BKN060 19/11 Q1021 RMK 1CU035     7SC060 A3016=,
20180103_183000.001,0,ROAH,,,,0,20180103180000,-1,-1,-1,-1,999,-1,2,-1,-1,-1,-1,,9999,0,0,2,FEW 35   BKN 60,1,19,1,11,1021,ROAH 031830Z VRB02KT 9999 FEW035 BKN060 19/11 Q1021 RMK 1CU035     6SC060 A3015=,
20180103_190000.002,0,ROAH,,,,0,20180103190000,-1,-1,-1,-1,70,-1,3,-1,-1,-1,-1,,9999,0,0,3,FEW 35   SCT 60   BKN -9999,1,18,1,11,1020,ROAH 031900Z 07003KT 9999 FEW035 SCT060 BKN/// 18/11 Q1020 RMK     1CU035 3SC060 A3014=,
20180103_193000.001,0,ROAH,,,,0,20180103190000,-1,-1,-1,-1,80,-1,3,-1,-1,-1,-1,,9999,0,0,2,FEW 30   BKN -9999,1,18,1,11,1020,ROAH 031930Z 08003KT 9999 FEW030 BKN/// 18/11 Q1020 RMK 1CU030     A3014=,
20180103_200000.002,0,ROAH,,,,0,20180103200000,-1,-1,-1,-1,60,-1,4,-1,-1,-1,-1,,9999,0,0,2,FEW 30   BKN -9999,1,18,1,11,1020,ROAH 032000Z 06004KT 9999 FEW030 BKN/// 18/11 Q1020 RMK 1CU030     A3014=,
20180103_203000.001,0,ROAH,,,,0,20180103200000,-1,-1,-1,-1,80,-1,4,-1,-1,50,120,,9999,0,0,2,FEW 30   BKN -9999,1,18,1,11,1020,ROAH 032030Z 08004KT 050V120 9999 FEW030 BKN/// 18/11 Q1020     RMK 1CU030 A3013=,
20180103_210000.003,0,ROAH,,,,0,20180103210000,-1,-1,-1,-1,90,-1,3,-1,-1,60,120,,9999,0,0,2,FEW 30   SCT -9999,1,18,1,12,1020,ROAH 032100Z 09003KT 060V120 9999 FEW030 SCT/// 18/12 Q1020     RMK 1CU030 A3013=,
20180103_213000.001,0,ROAH,,,,0,20180103210000,-1,-1,-1,-1,120,-1,4,-1,-1,-1,-1,,9999,0,0,2,FEW 25   BKN 60,1,18,1,12,1020,ROAH 032130Z 12004KT 9999 FEW025 BKN060 18/12 Q1020 RMK 1CU025     6SC060 A3013=,
20180103_220000.002,0,ROAH,,,,0,20180103220000,-1,-1,-1,-1,999,-1,2,-1,-1,-1,-1,,9999,0,0,2,FEW 25   BKN 60,1,18,1,12,1020,ROAH 032200Z VRB02KT 9999 FEW025 BKN060 18/12 Q1020 RMK 1CU025     6SC060 A3013=,
20180103_223000.002,0,ROAH,,,,0,20180103220000,-1,-1,-1,-1,120,-1,3,-1,-1,60,140,,9999,0,0,2,FEW 25   BKN 60,1,19,1,12,1020,ROAH 032230Z 12003KT 060V140 9999 FEW025 BKN060 19/12 Q1020     RMK 1CU025 6SC060 A3014=,
20180103_230000.002,0,ROAH,,,,0,20180103230000,-1,-1,-1,-1,120,-1,5,-1,-1,90,190,,9999,0,0,2,FEW 25   BKN 60,1,19,1,12,1020,ROAH 032300Z 12005KT 090V190 9999 FEW025 BKN060 19/12 Q1020     RMK 1CU025 6SC060 A3014=,
20180103_233000.001,0,ROAH,,,,0,20180103230000,-1,-1,-1,-1,100,-1,4,-1,-1,60,150,,9999,0,0,2,FEW 25   BKN 60,1,19,1,13,1020,ROAH 032330Z 10004KT 060V150 9999 FEW025 BKN060 19/13 Q1020     RMK 1CU025 7SC060 A3015=,
20180104_000000.002,0,ROAH,,,,0,20180104000000,-1,-1,-1,-1,90,-1,4,-1,-1,50,140,,9999,0,0,3,FEW 25   SCT 60   BKN 100,1,20,1,13,1021,ROAH 040000Z 09004KT 050V140 9999 FEW025 SCT060 BKN100 20/13     Q1021 RMK 1CU025 3SC060 6AC100 A3015=,
20180104_003000.001,0,ROAH,,,,0,20180104000000,-1,-1,-1,-1,120,-1,8,-1,-1,90,150,,9999,0,0,1,FEW 25,1,21,1,13,1021,ROAH 040030Z 12008KT 090V150 9999 FEW025 21/13 Q1021 RMK     1CU025 A3015=,
20180104_010000.002,0,ROAH,,,,0,20180104010000,-1,-1,-1,-1,120,-1,10,-1,-1,-1,-1,,9999,0,0,1,SCT 30,1,21,1,13,1020,ROAH 040100Z 12010KT 9999 SCT030 21/13 Q1020 RMK 3CU030 A3015=,
20180104_013000.001,0,ROAH,,,,0,20180104010000,-1,-1,-1,-1,110,-1,7,-1,-1,70,150,,9999,0,0,2,FEW 30   BKN 39,1,21,1,13,1021,ROAH 040130Z 11007KT 070V150 9999 FEW030 BKN039 21/13 Q1021     RMK 2CU030 5SC039 A3015=,
20180104_020000.002,0,ROAH,,,,0,20180104020000,-1,-1,-1,-1,130,-1,7,-1,-1,-1,-1,,9999,0,0,3,FEW 30   SCT 40   BKN 60,1,21,1,13,1021,ROAH 040200Z 13007KT 9999 FEW030 SCT040 BKN060 21/13 Q1021 RMK     2CU030 3SC040 5SC060 A3015=,
20180104_023000.001,0,ROAH,,,,0,20180104020000,-1,-1,-1,-1,110,-1,5,-1,-1,40,170,,9999,0,0,2,FEW 30   SCT 60,1,22,1,13,1020,ROAH 040230Z 11005KT 040V170 9999 FEW030 SCT060 22/13 Q1020     RMK 2CU030 3SC060 A3013=,
20180104_030000.002,0,ROAH,,,,0,20180104030000,-1,-1,-1,-1,90,-1,8,-1,-1,40,140,,9999,0,0,3,FEW 29   SCT 50   BKN -9999,1,22,1,13,1019,ROAH 040300Z 09008KT 040V140 9999 FEW029 SCT050 BKN/// 22/13     Q1019 RMK 2CU029 4SC050 A3011=,
20180104_033000.001,0,ROAH,,,,0,20180104030000,-1,-1,-1,-1,130,-1,9,-1,-1,90,170,,9999,0,0,3,FEW 26   SCT 50   BKN -9999,1,21,1,14,1019,ROAH 040330Z 13009KT 090V170 9999 FEW026 SCT050 BKN/// 21/14     Q1019 RMK 2CU026 4SC050 A3009=,
20180104_040000.002,0,ROAH,,,,0,20180104040000,-1,-1,-1,-1,100,-1,8,-1,-1,50,160,,9999,0,0,3,FEW 28   SCT 40   BKN 60,1,21,1,15,1018,ROAH 040400Z 10008KT 050V160 9999 FEW028 SCT040 BKN060 21/15     Q1018 RMK 2CU028 3SC040 6SC060 A3008=,
20180104_043000.001,0,ROAH,,,,0,20180104040000,-1,-1,-1,-1,140,-1,11,-1,-1,110,170,,9999,0,0,3,FEW 28   SCT 60   BKN -9999,1,22,1,14,1018,ROAH 040430Z 14011KT 110V170 9999 FEW028 SCT060 BKN/// 22/14     Q1018 RMK 2CU028 3SC060 A3008=,
20180104_050000.002,0,ROAH,,,,0,20180104050000,-1,-1,-1,-1,130,-1,9,-1,-1,-1,-1,,9999,0,0,2,FEW 28   BKN -9999,1,22,1,14,1018,ROAH 040500Z 13009KT 9999 FEW028 BKN/// 22/14 Q1018 RMK 2CU028     A3006=,
20180104_053000.001,0,ROAH,,,,0,20180104050000,-1,-1,-1,-1,130,-1,9,-1,-1,100,160,,9999,0,0,2,FEW 28   BKN -9999,1,21,1,14,1017,ROAH 040530Z 13009KT 100V160 9999 FEW028 BKN/// 21/14 Q1017     RMK 2CU028 A3005=,
20180104_060000.003,0,ROAH,,,,0,20180104060000,-1,-1,-1,-1,130,-1,9,-1,-1,110,170,,9999,0,0,2,FEW 28   BKN -9999,1,22,1,13,1017,ROAH 040600Z 13009KT 110V170 9999 FEW028 BKN/// 22/13 Q1017     RMK 2CU028 A3005=,
20180104_063000.001,0,ROAH,,,,0,20180104060000,-1,-1,-1,-1,140,-1,11,-1,-1,-1,-1,,9999,0,0,2,FEW 30   BKN -9999,1,22,1,14,1017,ROAH 040630Z 14011KT 9999 FEW030 BKN/// 22/14 Q1017 RMK 2CU030     A3004=,
20180104_070000.002,0,ROAH,,,,0,20180104070000,-1,-1,-1,-1,140,-1,9,-1,-1,110,170,,9999,0,0,2,FEW 30   BKN -9999,1,21,1,13,1017,ROAH 040700Z 14009KT 110V170 9999 FEW030 BKN/// 21/13 Q1017     RMK 1CU030 A3005=,
20180104_073000.001,0,ROAH,,,,0,20180104070000,-1,-1,-1,-1,140,-1,8,-1,-1,-1,-1,,9999,0,0,2,FEW 30   BKN -9999,1,21,1,14,1017,ROAH 040730Z 14008KT 9999 FEW030 BKN/// 21/14 Q1017 RMK 1CU030     A3005=,
20180104_080000.002,0,ROAH,,,,0,20180104080000,-1,-1,-1,-1,140,-1,7,-1,-1,-1,-1,,9999,0,0,2,FEW 30   BKN -9999,1,21,1,14,1017,ROAH 040800Z 14007KT 9999 FEW030 BKN/// 21/14 Q1017 RMK 1CU030     A3005=,
20180104_083000.001,0,ROAH,,,,0,20180104080000,-1,-1,-1,-1,140,-1,8,-1,-1,-1,-1,,9999,0,0,2,FEW 30   BKN -9999,1,21,1,14,1017,ROAH 040830Z 14008KT 9999 FEW030 BKN/// 21/14 Q1017 RMK 1CU030     A3005=,
20180104_090000.002,0,ROAH,,,,0,20180104090000,-1,-1,-1,-1,140,-1,7,-1,-1,110,170,,9999,0,0,2,FEW 30   BKN -9999,1,21,1,14,1017,ROAH 040900Z 14007KT 110V170 9999 FEW030 BKN/// 21/14 Q1017     RMK 1CU030 A3004=,
20180104_093000.001,0,ROAH,,,,0,20180104090000,-1,-1,-1,-1,140,-1,7,-1,-1,-1,-1,,9999,0,0,2,FEW 30   BKN -9999,1,21,1,14,1017,ROAH 040930Z 14007KT 9999 FEW030 BKN/// 21/14 Q1017 RMK 1CU030     A3004=,
20180104_100000.002,0,ROAH,,,,0,20180104100000,-1,-1,-1,-1,140,-1,8,-1,-1,-1,-1,,9999,0,0,2,FEW 25   BKN -9999,1,21,1,15,1017,ROAH 041000Z 14008KT 9999 FEW025 BKN/// 21/15 Q1017 RMK 1CU025     A3003=,
20180104_103000.001,0,ROAH,,,,0,20180104100000,-1,-1,-1,-1,150,-1,8,-1,-1,-1,-1,,9999,0,0,2,FEW 25   BKN -9999,1,21,1,15,1017,ROAH 041030Z 15008KT 9999 FEW025 BKN/// 21/15 Q1017 RMK 1CU025     A3003=,
20180104_110000.002,0,ROAH,,,,0,20180104110000,-1,-1,-1,-1,150,-1,7,-1,-1,-1,-1,,9999,0,0,2,FEW 25   BKN -9999,1,21,1,15,1017,ROAH 041100Z 15007KT 9999 FEW025 BKN/// 21/15 Q1017 RMK 1CU025     A3004=,
20180104_113000.001,0,ROAH,,,,0,20180104110000,-1,-1,-1,-1,140,-1,7,-1,-1,-1,-1,,9999,0,0,2,FEW 25   BKN -9999,1,21,1,15,1017,ROAH 041130Z 14007KT 9999 FEW025 BKN/// 21/15 Q1017 RMK 1CU025     A3004=,
20180104_120000.003,0,ROAH,,,,0,20180104120000,-1,-1,-1,-1,150,-1,7,-1,-1,-1,-1,,9999,0,0,2,FEW 25   BKN 200,1,21,1,15,1017,ROAH 041200Z 15007KT 9999 FEW025 BKN200 21/15 Q1017 RMK 1CU025     7AC200 A3004=,
20180104_123000.001,0,ROAH,,,,0,20180104120000,-1,-1,-1,-1,140,-1,8,-1,-1,-1,-1,,9999,0,0,2,FEW 25   BKN 200,1,21,1,15,1016,ROAH 041230Z 14008KT 9999 FEW025 BKN200 21/15 Q1016 RMK 1CU025     7AC200 A3003=,
20180104_130000.002,0,ROAH,,,,0,20180104130000,-1,-1,-1,-1,150,-1,9,-1,-1,-1,-1,,9999,0,0,2,FEW 25   BKN 200,1,21,1,15,1016,ROAH 041300Z 15009KT 9999 FEW025 BKN200 21/15 Q1016 RMK 1CU025     7AC200 A3002=,
20180104_133000.001,0,ROAH,,,,0,20180104130000,-1,-1,-1,-1,150,-1,10,-1,-1,-1,-1,,9999,0,1,2,FEW 25   BKN 140,1,21,1,15,1016,ROAH 041330Z 15010KT 9999 -RA FEW025 BKN140 21/15 Q1016 RMK     1CU025 7AC140 A3001=,- RA
20180104_140000.002,0,ROAH,,,,0,20180104140000,-1,-1,-1,-1,150,-1,9,-1,-1,-1,-1,,9999,0,0,2,FEW 25   BKN 140,1,21,1,15,1016,ROAH 041400Z 15009KT 9999 FEW025 BKN140 21/15 Q1016 RMK 1CU025     7AC140 A3001=,
20180104_143000.001,0,ROAH,,,,0,20180104140000,-1,-1,-1,-1,160,-1,10,-1,-1,-1,-1,,9999,0,1,2,FEW 25   BKN 200,1,21,1,15,1015,ROAH 041430Z 16010KT 9999 -RA FEW025 BKN200 21/15 Q1015 RMK     1CU025 6AC200 A3000=,- RA
20180104_150000.003,0,ROAH,,,,0,20180104150000,-1,-1,-1,-1,150,-1,10,-1,-1,-1,-1,,9999,0,0,2,FEW 25   BKN 200,1,21,1,16,1015,ROAH 041500Z 15010KT 9999 FEW025 BKN200 21/16 Q1015 RMK 1CU025     7AC200 A2998=,
20180104_153000.001,0,ROAH,,,,0,20180104150000,-1,-1,-1,-1,160,-1,10,-1,-1,-1,-1,,9999,0,0,2,FEW 25   BKN 180,1,21,1,16,1015,ROAH 041530Z 16010KT 9999 FEW025 BKN180 21/16 Q1015 RMK 1CU025     7AC180 A2997=,
20180104_160000.003,0,ROAH,,,,0,20180104160000,-1,-1,-1,-1,160,-1,12,-1,-1,-1,-1,,9999,0,0,2,FEW 25   BKN 110,1,21,1,16,1014,ROAH 041600Z 16012KT 9999 FEW025 BKN110 21/16 Q1014 RMK 1CU025     7AC110 A2996=,
20180104_163000.001,0,ROAH,,,,0,20180104160000,-1,-1,-1,-1,170,-1,10,-1,-1,-1,-1,,9999,0,1,2,FEW 20   BKN 80,1,21,1,17,1014,ROAH 041630Z 17010KT 9999 -RA FEW020 BKN080 21/17 Q1014 RMK     1CU020 7AS080 A2996=,- RA
20180104_170000.003,0,ROAH,,,,0,20180104170000,-1,-1,-1,-1,180,-1,14,-1,-1,-1,-1,,9999,0,1,2,SCT 20   BKN 80,1,22,1,17,1014,ROAH 041700Z 18014KT 9999 -RA SCT020 BKN080 22/17 Q1014 RMK     3CU020 7AS080 A2995=,- RA
20180104_173000.001,0,ROAH,,,,0,20180104170000,-1,-1,-1,-1,190,-1,16,-1,-1,-1,-1,,9999,0,0,2,FEW 20   BKN 80,1,22,1,17,1013,ROAH 041730Z 19016KT 9999 FEW020 BKN080 22/17 Q1013 RMK 1CU020     7AS080 A2994=,
20180104_180000.002,0,ROAH,,,,0,20180104180000,-1,-1,-1,-1,190,-1,17,-1,-1,-1,-1,,9999,0,0,2,FEW 20   BKN 80,1,22,1,16,1013,ROAH 041800Z 19017KT 9999 FEW020 BKN080 22/16 Q1013 RMK 2CU020     7AS080 A2992=,
20180104_183000.001,0,ROAH,,,,0,20180104180000,-1,-1,-1,-1,190,-1,15,-1,-1,-1,-1,,9999,0,0,2,FEW 20   BKN 80,1,22,1,17,1013,ROAH 041830Z 19015KT 9999 FEW020 BKN080 22/17 Q1013 RMK 1CU020     7AS080 A2992=,
20180104_190000.003,0,ROAH,,,,0,20180104190000,-1,-1,-1,-1,200,-1,15,-1,-1,-1,-1,,9999,0,0,2,FEW 20   BKN 80,1,22,1,17,1013,ROAH 041900Z 20015KT 9999 FEW020 BKN080 22/17 Q1013 RMK 2CU020     7AS080 A2992=,
20180104_193000.001,0,ROAH,,,,0,20180104190000,-1,-1,-1,-1,200,-1,15,-1,-1,-1,-1,,9999,0,0,3,FEW 20   BKN 60   BKN 80,1,22,1,16,1012,ROAH 041930Z 20015KT 9999 FEW020 BKN060 BKN080 22/16 Q1012 RMK     1CU020 5SC060 7AS080 A2991=,
20180104_200000.002,0,ROAH,,,,0,20180104200000,-1,-1,-1,-1,200,-1,13,-1,-1,-1,-1,,9999,0,0,2,FEW 20   BKN 50,1,22,1,17,1012,ROAH 042000Z 20013KT 9999 FEW020 BKN050 22/17 Q1012 RMK 1CU020     7SC050 A2990=,
20180104_203000.001,0,ROAH,,,,0,20180104200000,-1,-1,-1,-1,190,-1,14,-1,-1,-1,-1,,9999,0,0,2,FEW 20   BKN 60,1,22,1,16,1012,ROAH 042030Z 19014KT 9999 FEW020 BKN060 22/16 Q1012 RMK 1CU020     7SC060 A2989=,
20180104_210000.002,0,ROAH,,,,0,20180104210000,-1,-1,-1,-1,190,-1,15,-1,-1,-1,-1,,9999,0,0,2,FEW 20   BKN 60,1,22,1,16,1012,ROAH 042100Z 19015KT 9999 FEW020 BKN060 22/16 Q1012 RMK 1CU020     7SC060 A2989=,
20180104_213000.001,0,ROAH,,,,0,20180104210000,-1,-1,-1,-1,180,-1,13,-1,-1,-1,-1,,9999,0,1,3,FEW 15   SCT 35   BKN 60,1,21,1,18,1012,ROAH 042130Z 18013KT 9999 -SHRA FEW015 SCT035 BKN060 21/18     Q1012 RMK 1CU015 3CU035 7SC060 A2989=,- RA SH
20180104_220000.002,0,ROAH,,,,0,20180104220000,-1,-1,-1,-1,200,-1,18,-1,-1,-1,-1,,9999,0,0,3,FEW 20   SCT 30   BKN 50,1,22,1,17,1012,ROAH 042200Z 20018KT 9999 FEW020 SCT030 BKN050 22/17 Q1012 RMK     1CU020 3CU030 7SC050 A2989=,
20180104_223000.002,0,ROAH,,,,0,20180104220000,-1,-1,-1,-1,200,-1,18,-1,-1,-1,-1,,9999,0,0,2,FEW 20   BKN 50,1,22,1,17,1012,ROAH 042230Z 20018KT 9999 FEW020 BKN050 22/17 Q1012 RMK 1CU020     7SC050 A2989=,
20180104_230000.002,0,ROAH,,,,0,20180104230000,-1,-1,-1,-1,200,-1,19,-1,-1,-1,-1,,9999,0,1,2,FEW 30   BKN 50,1,23,1,17,1012,ROAH 042300Z 20019KT 9999 VCSH FEW030 BKN050 23/17 Q1012 RMK     2CU030 7SC050 A2989=,VC SH
20180104_233000.001,0,ROAH,,,,0,20180104230000,-1,-1,-1,-1,200,-1,20,-1,-1,-1,-1,,9999,0,1,3,FEW 20   SCT 35   BKN 50,1,23,1,18,1012,ROAH 042330Z 20020KT 9999 -SHRA FEW020 SCT035 BKN050 23/18     Q1012 RMK 1CU020 3CU035 7SC050 A2989=,- RA SH
20180105_000000.002,0,ROAH,,,,0,20180105000000,-1,-1,-1,-1,200,-1,22,-1,-1,-1,-1,,6000,0,1,3,SCT 20   SCT 30   BKN 50,1,22,1,18,1012,ROAH 050000Z 20022KT 6000 SHRA SCT020 SCT030 BKN050 22/18     Q1012 RMK 3CU020 4CU030 7SC050 A2991=,RA SH
20180105_003000.001,0,ROAH,,,,0,20180105000000,-1,-1,-1,-1,240,-1,18,-1,-1,-1,-1,,3000,1,1,4,FEW 10   FEW 20 TCU  SCT 30   BKN 40,1,20,1,18,1013,ROAH 050030Z 24018KT 3000 R18/P1800N SHRA FEW010 FEW020TCU     SCT030 BKN040 20/18 Q1013 RMK 1CU010 1TCU020 4CU030           6SC040 A2994 TCU 10KM SE MOV NE=,RA SH
20180105_010000.003,0,ROAH,,,,0,20180105010000,-1,-1,-1,-1,270,-1,17,-1,-1,-1,-1,,4000,0,1,4,FEW 5   SCT 12   FEW 20 TCU  BKN 40,1,20,1,19,1014,ROAH 050100Z 27017KT 4000 SHRA FEW005 SCT012 FEW020TCU BKN040     20/19 Q1014 RMK 2ST005 4CU012 1TCU020 6SC040 A2995 TCU           SE=,RA SH
20180105_013000.001,0,ROAH,,,,0,20180105010000,-1,-1,-1,-1,280,-1,13,-1,-1,-1,-1,,9999,0,0,2,SCT 12   BKN 60,1,21,1,19,1014,ROAH 050130Z 28013KT 9999 SCT012 BKN060 21/19 Q1014 RMK 4CU012     6SC060 A2995=,
20180105_020000.002,0,ROAH,,,,0,20180105020000,-1,-1,-1,-1,300,-1,13,-1,-1,-1,-1,,9999,0,1,2,BKN 13   BKN 70,1,22,1,19,1014,ROAH 050200Z 30013KT 9999 -SHRA BKN013 BKN070 22/19 Q1014 RMK     5CU013 7AC070 A2995=,- RA SH
20180105_023000.001,0,ROAH,,,,0,20180105020000,-1,-1,-1,-1,300,-1,13,-1,-1,-1,-1,,9999,0,1,3,SCT 13   BKN 40   BKN 90,1,22,1,19,1013,ROAH 050230Z 30013KT 9999 -SHRA SCT013 BKN040 BKN090 22/19     Q1013 RMK 4CU013 5SC040 7AC090 A2994=,- RA SH
20180105_030000.002,0,ROAH,,,,0,20180105030000,-1,-1,-1,-1,310,-1,12,-1,-1,-1,-1,,9999,0,0,3,SCT 15   SCT 40   BKN 80,1,22,1,19,1013,ROAH 050300Z 31012KT 9999 SCT015 SCT040 BKN080 22/19 Q1013 RMK     3CU015 4SC040 7AC080 A2993=,
20180105_033000.001,0,ROAH,,,,0,20180105030000,-1,-1,-1,-1,310,-1,14,-1,-1,-1,-1,,9999,0,0,2,BKN 15   BKN 80,1,22,1,18,1013,ROAH 050330Z 31014KT 9999 BKN015 BKN080 22/18 Q1013 RMK 6CU015     7AC080 A2992=,
20180105_040000.002,0,ROAH,,,,0,20180105040000,-1,-1,-1,-1,330,-1,20,-1,-1,-1,-1,,9999,0,1,2,SCT 15   BKN 80,1,21,1,18,1013,ROAH 050400Z 33020KT 9999 -RA SCT015 BKN080 21/18 Q1013 RMK     3CU015 7AS080 A2992=,- RA
20180105_043000.001,0,ROAH,,,,0,20180105040000,-1,-1,-1,-1,340,-1,21,-1,-1,-1,-1,,9999,0,1,3,FEW 15   SCT 30   BKN 80,1,21,1,17,1013,ROAH 050430Z 34021KT 9999 -RA FEW015 SCT030 BKN080 21/17 Q1013     RMK 2CU015 4CU030 7AS080 A2992=,- RA
20180105_050000.002,0,ROAH,,,,0,20180105050000,-1,-1,-1,-1,340,-1,19,-1,-1,-1,-1,,9999,0,1,3,SCT 15   BKN 25   BKN 80,1,21,1,17,1013,ROAH 050500Z 34019KT 9999 -RA SCT015 BKN025 BKN080 21/17 Q1013     RMK 3CU015 5CU025 7AS080 A2991=,- RA
20180105_053000.001,0,ROAH,,,,0,20180105050000,-1,-1,-1,-1,350,-1,19,-1,-1,-1,-1,,9999,0,1,3,FEW 15   SCT 30   BKN 120,1,21,1,16,1012,ROAH 050530Z 35019KT 9999 VCSH FEW015 SCT030 BKN120 21/16     Q1012 RMK 2CU015 3CU030 7AS120 A2991=,VC SH
20180105_060000.002,0,ROAH,,,,0,20180105060000,-1,-1,-1,-1,350,-1,20,-1,-1,-1,-1,,9999,0,0,3,FEW 15   BKN 30   BKN 120,1,21,1,16,1013,ROAH 050600Z 35020KT 9999 FEW015 BKN030 BKN120 21/16 Q1013 RMK     2CU015 5CU030 7AS120 A2991=,
20180105_063000.001,0,ROAH,,,,0,20180105060000,-1,-1,-1,-1,350,-1,17,-1,-1,-1,-1,,9999,0,1,3,FEW 18   BKN 35   BKN 120,1,20,1,16,1013,ROAH 050630Z 35017KT 9999 -RA FEW018 BKN035 BKN120 20/16 Q1013     RMK 1CU018 5CU035 7AS120 A2992=,- RA
20180105_070000.002,0,ROAH,,,,0,20180105070000,-1,-1,-1,-1,350,-1,19,-1,-1,-1,-1,,9999,0,1,3,FEW 18   SCT 35   BKN 120,1,20,1,15,1013,ROAH 050700Z 35019KT 9999 -RA FEW018 SCT035 BKN120 20/15 Q1013     RMK 1CU018 3CU035 7AS120 A2992=,- RA
20180105_073000.001,0,ROAH,,,,0,20180105070000,-1,-1,-1,-1,360,-1,20,-1,-1,-1,-1,,9999,0,1,3,FEW 20   BKN 30   BKN 120,1,21,1,15,1013,ROAH 050730Z 36020KT 9999 -RA FEW020 BKN030 BKN120 21/15 Q1013     RMK 2CU020 5CU030 7AS120 A2993=,- RA
20180105_080000.002,0,ROAH,,,,0,20180105080000,-1,-1,-1,-1,360,-1,19,-1,-1,-1,-1,,9999,0,1,2,FEW 20   BKN 40,1,20,1,15,1014,ROAH 050800Z 36019KT 9999 -RA FEW020 BKN040 20/15 Q1014 RMK     2CU020 7SC040 A2994=,- RA
20180105_083000.001,0,ROAH,,,,0,20180105080000,-1,-1,-1,-1,360,-1,20,-1,-1,-1,-1,,9999,0,0,2,FEW 18   BKN 38,1,20,1,15,1014,ROAH 050830Z 36020KT 9999 FEW018 BKN038 20/15 Q1014 RMK 2CU018     6SC038 A2995=,
20180105_090000.002,0,ROAH,,,,0,20180105090000,-1,-1,-1,-1,360,-1,20,-1,-1,-1,-1,,9999,0,1,3,FEW 18   SCT 30   BKN 38,1,19,1,15,1014,ROAH 050900Z 36020KT 9999 -RA FEW018 SCT030 BKN038 19/15 Q1014     RMK 2CU018 4CU030 7SC038 A2997=,- RA
20180105_093000.001,0,ROAH,,,,0,20180105090000,-1,-1,-1,-1,20,-1,20,-1,-1,-1,-1,,9999,0,1,3,FEW 18   SCT 30   BKN 38,1,19,1,15,1015,ROAH 050930Z 02020KT 9999 -RA FEW018 SCT030 BKN038 19/15 Q1015     RMK 1CU018 4CU030 7SC038 A2998=,- RA
20180105_100000.002,0,ROAH,,,,0,20180105100000,-1,-1,-1,-1,10,-1,20,-1,-1,-1,-1,,9999,0,0,3,FEW 18   SCT 30   BKN 38,1,19,1,15,1015,ROAH 051000Z 01020KT 9999 FEW018 SCT030 BKN038 19/15 Q1015 RMK     2CU018 4CU030 7SC038 A2999=,
20180105_103000.001,0,ROAH,,,,0,20180105100000,-1,-1,-1,-1,10,-1,19,-1,-1,-1,-1,,9999,0,0,3,FEW 18   SCT 25   BKN 38,1,20,1,14,1016,ROAH 051030Z 01019KT 9999 FEW018 SCT025 BKN038 20/14 Q1016 RMK     1CU018 4CU025 7SC038 A3000=,
20180105_110000.002,0,ROAH,,,,0,20180105110000,-1,-1,-1,-1,10,-1,21,-1,-1,-1,-1,,9999,0,0,2,SCT 20   BKN 38,1,19,1,13,1016,ROAH 051100Z 01021KT 9999 SCT020 BKN038 19/13 Q1016 RMK 3CU020     7SC038 A3001=,
20180105_113000.001,0,ROAH,,,,0,20180105110000,-1,-1,-1,-1,360,-1,21,-1,-1,-1,-1,,9999,0,0,2,SCT 18   BKN 50,1,19,1,14,1016,ROAH 051130Z 36021KT 9999 SCT018 BKN050 19/14 Q1016 RMK 3CU018     6SC050 A3002=,
20180105_120000.002,0,ROAH,,,,0,20180105120000,-1,-1,-1,-1,10,-1,19,-1,-1,-1,-1,,9999,0,0,3,FEW 18   SCT 30   BKN 50,1,19,1,13,1017,ROAH 051200Z 01019KT 9999 FEW018 SCT030 BKN050 19/13 Q1017 RMK     2CU018 3CU030 6SC050 A3003=,
20180105_123000.001,0,ROAH,,,,0,20180105120000,-1,-1,-1,-1,10,-1,18,-1,-1,360,60,,9999,0,0,3,SCT 25   BKN 39   BKN 50,1,19,1,12,1017,ROAH 051230Z 01018KT 360V060 9999 SCT025 BKN039 BKN050 19/12     Q1017 RMK 3CU025 5SC039 7SC050 A3004=,
20180105_130000.002,0,ROAH,,,,0,20180105130000,-1,-1,-1,-1,360,-1,17,-1,-1,-1,-1,,9999,0,0,3,FEW 25   SCT 30   BKN 50,1,19,1,12,1017,ROAH 051300Z 36017KT 9999 FEW025 SCT030 BKN050 19/12 Q1017 RMK     2CU025 3CU030 7SC050 A3004=,
20180105_133000.001,0,ROAH,,,,0,20180105130000,-1,-1,-1,-1,360,-1,16,-1,-1,-1,-1,,9999,0,0,3,FEW 25   SCT 30   BKN 50,1,19,1,12,1017,ROAH 051330Z 36016KT 9999 FEW025 SCT030 BKN050 19/12 Q1017 RMK     2CU025 3CU030 7SC050 A3004=,
20180105_140000.002,0,ROAH,,,,0,20180105140000,-1,-1,-1,-1,10,-1,15,-1,-1,-1,-1,,9999,0,0,2,FEW 25   BKN 50,1,18,1,12,1017,ROAH 051400Z 01015KT 9999 FEW025 BKN050 18/12 Q1017 RMK 2CU025     7SC050 A3003=,
20180105_143000.001,0,ROAH,,,,0,20180105140000,-1,-1,-1,-1,10,-1,17,-1,-1,-1,-1,,9999,0,0,2,FEW 25   BKN 50,1,18,1,12,1017,ROAH 051430Z 01017KT 9999 FEW025 BKN050 18/12 Q1017 RMK 2CU025     7SC050 A3004=,
20180105_150000.002,0,ROAH,,,,0,20180105150000,-1,-1,-1,-1,10,-1,17,-1,-1,-1,-1,,9999,0,0,3,FEW 25   SCT 30   BKN 50,1,18,1,11,1017,ROAH 051500Z 01017KT 9999 FEW025 SCT030 BKN050 18/11 Q1017 RMK     2CU025 4CU030 6SC050 A3004=,
20180105_153000.001,0,ROAH,,,,0,20180105150000,-1,-1,-1,-1,360,-1,17,-1,-1,-1,-1,,9999,0,0,3,FEW 25   BKN 30   BKN 50,1,18,1,11,1017,ROAH 051530Z 36017KT 9999 FEW025 BKN030 BKN050 18/11 Q1017 RMK     2CU025 5CU030 7SC050 A3006=,
20180105_160000.003,0,ROAH,,,,0,20180105160000,-1,-1,-1,-1,360,-1,16,-1,-1,-1,-1,,9999,0,0,3,FEW 25   SCT 34   BKN 50,1,18,1,11,1017,ROAH 051600Z 36016KT 9999 FEW025 SCT034 BKN050 18/11 Q1017 RMK     2CU025 3CU034 7SC050 A3005=,
20180105_163000.001,0,ROAH,,,,0,20180105160000,-1,-1,-1,-1,360,-1,16,-1,-1,-1,-1,,9999,0,0,2,SCT 29   BKN 50,1,18,1,11,1017,ROAH 051630Z 36016KT 9999 SCT029 BKN050 18/11 Q1017 RMK 3CU029     7SC050 A3004=,
20180105_170000.002,0,ROAH,,,,0,20180105170000,-1,-1,-1,-1,360,-1,17,-1,-1,-1,-1,,9999,0,0,2,SCT 30   BKN 50,1,18,1,11,1017,ROAH 051700Z 36017KT 9999 SCT030 BKN050 18/11 Q1017 RMK 3CU030     7SC050 A3005=,
20180105_173000.001,0,ROAH,,,,0,20180105170000,-1,-1,-1,-1,360,-1,17,-1,-1,-1,-1,,9999,0,0,2,SCT 30   BKN 50,1,17,1,10,1017,ROAH 051730Z 36017KT 9999 SCT030 BKN050 17/10 Q1017 RMK 3CU030     7SC050 A3004=,
20180105_180000.003,0,ROAH,,,,0,20180105180000,-1,-1,-1,-1,10,-1,16,-1,-1,-1,-1,,9999,0,0,2,FEW 30   BKN 45,1,18,1,10,1017,ROAH 051800Z 01016KT 9999 FEW030 BKN045 18/10 Q1017 RMK 2CU030     7SC045 A3005=,
20180105_183000.001,0,ROAH,,,,0,20180105180000,-1,-1,-1,-1,10,-1,17,-1,-1,-1,-1,,9999,0,0,2,FEW 30   BKN 50,1,17,1,10,1017,ROAH 051830Z 01017KT 9999 FEW030 BKN050 17/10 Q1017 RMK 1CU030     6SC050 A3005=,
20180105_190000.002,0,ROAH,,,,0,20180105190000,-1,-1,-1,-1,10,-1,17,-1,-1,-1,-1,,9999,0,0,2,FEW 35   BKN 45,1,17,1,9,1017,ROAH 051900Z 01017KT 9999 FEW035 BKN045 17/09 Q1017 RMK 1CU035     6SC045 A3005=,
20180105_193000.001,0,ROAH,,,,0,20180105190000,-1,-1,-1,-1,360,-1,14,-1,-1,-1,-1,,9999,0,0,2,FEW 35   BKN 48,1,17,1,8,1017,ROAH 051930Z 36014KT 9999 FEW035 BKN048 17/08 Q1017 RMK 1CU035     6SC048 A3006=,
20180105_200000.002,0,ROAH,,,,0,20180105200000,-1,-1,-1,-1,10,-1,14,-1,-1,-1,-1,,9999,0,0,2,FEW 33   BKN 48,1,17,1,9,1017,ROAH 052000Z 01014KT 9999 FEW033 BKN048 17/09 Q1017 RMK 1CU033     7SC048 A3005=,
20180105_203000.001,0,ROAH,,,,0,20180105200000,-1,-1,-1,-1,360,-1,16,-1,-1,-1,-1,,9999,0,0,2,FEW 33   BKN 45,1,17,1,9,1018,ROAH 052030Z 36016KT 9999 FEW033 BKN045 17/09 Q1018 RMK 2CU033     7SC045 A3006=,
20180105_210000.003,0,ROAH,,,,0,20180105210000,-1,-1,-1,-1,10,-1,15,-1,-1,-1,-1,,9999,0,0,2,FEW 33   BKN 45,1,17,1,8,1017,ROAH 052100Z 01015KT 9999 FEW033 BKN045 17/08 Q1017 RMK 2CU033     7SC045 A3006=,
20180105_213000.001,0,ROAH,,,,0,20180105210000,-1,-1,-1,-1,10,-1,15,-1,-1,-1,-1,,9999,0,0,3,FEW 33   SCT 38   BKN 45,1,17,1,8,1018,ROAH 052130Z 01015KT 9999 FEW033 SCT038 BKN045 17/08 Q1018 RMK     1CU033 4SC038 7SC045 A3008=,
20180105_220000.002,0,ROAH,,,,0,20180105220000,-1,-1,-1,-1,30,-1,12,-1,-1,-1,-1,,9999,0,0,1,BKN 38,1,17,1,9,1018,ROAH 052200Z 03012KT 9999 BKN038 17/09 Q1018 RMK 6SC038 A3007=,
20180105_223000.002,0,ROAH,,,,0,20180105220000,-1,-1,-1,-1,20,-1,12,-1,-1,-1,-1,,9999,0,0,1,SCT 38,1,17,1,7,1018,ROAH 052230Z 02012KT 9999 SCT038 17/07 Q1018 RMK 4SC038 A3008=,
20180105_230000.002,0,ROAH,,,,0,20180105230000,-1,-1,-1,-1,50,-1,10,-1,-1,-1,-1,,9999,0,0,1,BKN 38,1,17,1,8,1019,ROAH 052300Z 05010KT 9999 BKN038 17/08 Q1019 RMK 5SC038 A3010=,
20180105_233000.001,0,ROAH,,,,0,20180105230000,-1,-1,-1,-1,60,-1,8,-1,-1,360,100,,9999,0,0,2,FEW 38   BKN 43,1,18,1,7,1019,ROAH 052330Z 06008KT 360V100 9999 FEW038 BKN043 18/07 Q1019     RMK 1SC038 5SC043 A3010=,
20180106_000000.002,0,ROAH,,,,0,20180106000000,-1,-1,-1,-1,60,-1,7,-1,-1,-1,-1,,9999,0,0,2,FEW 38   BKN 43,1,17,1,8,1019,ROAH 060000Z 06007KT 9999 FEW038 BKN043 17/08 Q1019 RMK 1SC038     6SC043 A3011=,
20180106_003000.001,0,ROAH,,,,0,20180106000000,-1,-1,-1,-1,50,-1,9,-1,-1,-1,-1,,9999,0,0,2,FEW 38   SCT 45,1,19,1,9,1019,ROAH 060030Z 05009KT 9999 FEW038 SCT045 19/09 Q1019 RMK 1SC038     3SC045 A3012=,
20180106_010000.002,0,ROAH,,,,0,20180106010000,-1,-1,-1,-1,30,-1,11,-1,-1,-1,-1,,9999,0,0,2,FEW 40   SCT 45,1,19,1,8,1020,ROAH 060100Z 03011KT 9999 FEW040 SCT045 19/08 Q1020 RMK 2SC040     4SC045 A3013=,
20180106_013000.001,0,ROAH,,,,0,20180106010000,-1,-1,-1,-1,50,-1,8,-1,-1,10,90,,9999,0,0,2,SCT 43   BKN 130,1,18,1,8,1020,ROAH 060130Z 05008KT 010V090 9999 SCT043 BKN130 18/08 Q1020     RMK 3SC043 5AC130 A3013=,
20180106_020000.002,0,ROAH,,,,0,20180106020000,-1,-1,-1,-1,20,-1,10,-1,-1,-1,-1,,9999,0,0,3,SCT 40   SCT 45   BKN 120,1,18,1,8,1020,ROAH 060200Z 02010KT 9999 SCT040 SCT045 BKN120 18/08 Q1020 RMK     3SC040 4SC045 5AC120 A3013=,
20180106_023000.001,0,ROAH,,,,0,20180106020000,-1,-1,-1,-1,20,-1,10,-1,-1,-1,-1,,9999,0,0,3,FEW 40   SCT 50   BKN 110,1,18,1,8,1019,ROAH 060230Z 02010KT 9999 FEW040 SCT050 BKN110 18/08 Q1019 RMK     2SC040 3SC050 5AC110 A3011=,
20180106_030000.002,0,ROAH,,,,0,20180106030000,-1,-1,-1,-1,10,-1,7,-1,-1,340,70,,9999,0,0,3,FEW 40   SCT 50   BKN 110,1,18,1,8,1020,ROAH 060300Z 01007KT 340V070 9999 FEW040 SCT050 BKN110 18/08     Q1020 RMK 2SC040 4SC050 6AC110 A3013=,
20180106_033000.001,0,ROAH,,,,0,20180106030000,-1,-1,-1,-1,50,-1,6,-1,-1,10,120,,9999,0,0,3,FEW 40   SCT 50   BKN 90,1,19,1,9,1019,ROAH 060330Z 05006KT 010V120 9999 FEW040 SCT050 BKN090 19/09     Q1019 RMK 2SC040 3SC050 5AC090 A3009 P/FR=,
20180106_040000.002,0,ROAH,,,,0,20180106040000,-1,-1,-1,-1,30,-1,8,-1,-1,10,90,,9999,0,0,2,FEW 38   BKN 43,1,19,1,8,1018,ROAH 060400Z 03008KT 010V090 9999 FEW038 BKN043 19/08 Q1018     RMK 1SC038 6SC043 A3008=,
20180106_043000.001,0,ROAH,,,,0,20180106040000,-1,-1,-1,-1,20,-1,9,-1,-1,340,60,,9999,0,0,1,BKN 40,1,19,1,8,1018,ROAH 060430Z 02009KT 340V060 9999 BKN040 19/08 Q1018 RMK     7SC040 A3006=,
20180106_050000.002,0,ROAH,,,,0,20180106050000,-1,-1,-1,-1,10,-1,11,-1,-1,-1,-1,,9999,0,0,2,BKN 38   BKN 90,1,19,1,9,1017,ROAH 060500Z 01011KT 9999 BKN038 BKN090 19/09 Q1017 RMK 6SC038     7AC090 A3006=,
20180106_060000.002,0,ROAH,,,,0,20180106060000,-1,-1,-1,-1,30,-1,11,-1,-1,-1,-1,,9999,0,0,2,FEW 36   BKN 80,1,19,1,10,1017,ROAH 060600Z 03011KT 9999 FEW036 BKN080 19/10 Q1017 RMK 1SC036     7AC080 A3005=,
20180106_063000.001,0,ROAH,,,,0,20180106060000,-1,-1,-1,-1,30,-1,10,-1,-1,360,90,,9999,0,0,2,FEW 36   BKN 80,1,19,1,10,1017,ROAH 060630Z 03010KT 360V090 9999 FEW036 BKN080 19/10 Q1017     RMK 1SC036 7AC080 A3004=,
20180106_070000.002,0,ROAH,,,,0,20180106070000,-1,-1,-1,-1,30,-1,11,-1,-1,360,70,,9999,0,0,2,FEW 36   BKN -9999,1,18,1,10,1017,ROAH 060700Z 03011KT 360V070 9999 FEW036 BKN/// 18/10 Q1017     RMK 1SC036 A3003=,
20180106_073000.001,0,ROAH,,,,0,20180106070000,-1,-1,-1,-1,20,-1,11,-1,-1,-1,-1,,9999,0,0,2,FEW 36   BKN -9999,1,18,1,10,1017,ROAH 060730Z 02011KT 9999 FEW036 BKN/// 18/10 Q1017 RMK 1SC036     A3005=,
20180106_080000.002,0,ROAH,,,,0,20180106080000,-1,-1,-1,-1,20,-1,12,-1,-1,-1,-1,,9999,0,0,3,FEW 30   SCT 40   BKN -9999,1,18,1,10,1018,ROAH 060800Z 02012KT 9999 FEW030 SCT040 BKN/// 18/10 Q1018 RMK     2CU030 4SC040 A3007=,
20180106_083000.001,0,ROAH,,,,0,20180106080000,-1,-1,-1,-1,40,-1,10,-1,-1,10,70,,9999,0,0,2,FEW 30   BKN 120,1,18,1,10,1018,ROAH 060830Z 04010KT 010V070 9999 FEW030 BKN120 18/10 Q1018     RMK 1CU030 6AC120 A3007=,
20180106_090000.002,0,ROAH,,,,0,20180106090000,-1,-1,-1,-1,40,-1,10,-1,-1,-1,-1,,9999,0,1,3,FEW 30   SCT 80   BKN 120,1,18,1,10,1018,ROAH 060900Z 04010KT 9999 -RA FEW030 SCT080 BKN120 18/10 Q1018     RMK 1CU030 4AC080 6AC120 A3008=,- RA
20180106_093000.001,0,ROAH,,,,0,20180106090000,-1,-1,-1,-1,30,-1,8,-1,-1,10,80,,9999,0,1,2,FEW 30   BKN 100,1,17,1,11,1018,ROAH 060930Z 03008KT 010V080 9999 -RA FEW030 BKN100 17/11     Q1018 RMK 1CU030 7AS100 A3008=,- RA
20180106_100000.002,0,ROAH,,,,0,20180106100000,-1,-1,-1,-1,40,-1,10,-1,-1,350,70,,9999,0,0,2,FEW 30   BKN 100,1,17,1,11,1019,ROAH 061000Z 04010KT 350V070 9999 FEW030 BKN100 17/11 Q1019     RMK 1CU030 7AS100 A3009=,
20180106_103000.001,0,ROAH,,,,0,20180106100000,-1,-1,-1,-1,50,-1,9,-1,-1,-1,-1,,9999,0,0,2,FEW 30   BKN 100,1,17,1,10,1018,ROAH 061030Z 05009KT 9999 FEW030 BKN100 17/10 Q1018 RMK 1CU030     7AS100 A3008=,
20180106_110000.002,0,ROAH,,,,0,20180106110000,-1,-1,-1,-1,40,-1,9,-1,-1,-1,-1,,9999,0,1,2,FEW 30   BKN 80,1,17,1,11,1018,ROAH 061100Z 04009KT 9999 VCSH FEW030 BKN080 17/11 Q1018 RMK     1CU030 7AC080 A3009=,VC SH
20180106_113000.001,0,ROAH,,,,0,20180106110000,-1,-1,-1,-1,50,-1,8,-1,-1,20,80,,9999,0,1,2,FEW 30   BKN 80,1,17,1,11,1019,ROAH 061130Z 05008KT 020V080 9999 -RA FEW030 BKN080 17/11     Q1019 RMK 1CU030 7AS080 A3009=,- RA
20180106_120000.002,0,ROAH,,,,0,20180106120000,-1,-1,-1,-1,40,-1,7,-1,-1,10,80,,9999,0,1,2,FEW 30   BKN 80,1,17,1,11,1019,ROAH 061200Z 04007KT 010V080 9999 -RA FEW030 BKN080 17/11     Q1019 RMK 1CU030 7AS080 A3011=,- RA
20180106_123000.001,0,ROAH,,,,0,20180106120000,-1,-1,-1,-1,30,-1,7,-1,-1,-1,-1,,9999,0,0,2,FEW 25   BKN 90,1,17,1,11,1019,ROAH 061230Z 03007KT 9999 FEW025 BKN090 17/11 Q1019 RMK 1CU025     7AS090 A3012=,
20180106_130000.002,0,ROAH,,,,0,20180106130000,-1,-1,-1,-1,60,-1,6,-1,-1,20,90,,9999,0,0,2,FEW 25   BKN 90,1,17,1,11,1019,ROAH 061300Z 06006KT 020V090 9999 FEW025 BKN090 17/11 Q1019     RMK 1CU025 7AS090 A3011=,
20180106_133000.001,0,ROAH,,,,0,20180106130000,-1,-1,-1,-1,60,-1,7,-1,-1,-1,-1,,9999,0,1,2,FEW 25   BKN 130,1,17,1,11,1018,ROAH 061330Z 06007KT 9999 -RA FEW025 BKN130 17/11 Q1018 RMK     1CU025 7AS130 A3008=,- RA
20180106_140000.003,0,ROAH,,,,0,20180106140000,-1,-1,-1,-1,60,-1,8,-1,-1,40,100,,9999,0,1,2,FEW 25   BKN 120,1,17,1,11,1017,ROAH 061400Z 06008KT 040V100 9999 -RA FEW025 BKN120 17/11     Q1017 RMK 1CU025 7AS120 A3005=,- RA
20180106_143000.001,0,ROAH,,,,0,20180106140000,-1,-1,-1,-1,30,-1,7,-1,-1,350,60,,9999,0,0,2,FEW 25   BKN 130,1,16,1,12,1018,ROAH 061430Z 03007KT 350V060 9999 FEW025 BKN130 16/12 Q1018     RMK 1CU025 7AS130 A3008=,
20180106_150000.002,0,ROAH,,,,0,20180106150000,-1,-1,-1,-1,30,-1,8,-1,-1,-1,-1,,9999,0,0,2,FEW 25   BKN 90,1,17,1,12,1018,ROAH 061500Z 03008KT 9999 FEW025 BKN090 17/12 Q1018 RMK 1CU025     7AS090 A3008=,
20180106_153000.001,0,ROAH,,,,0,20180106150000,-1,-1,-1,-1,50,-1,7,-1,-1,-1,-1,,9999,0,1,2,FEW 25   BKN 90,1,16,1,12,1018,ROAH 061530Z 05007KT 9999 -RA FEW025 BKN090 16/12 Q1018 RMK     1CU025 7AS090 A3007=,- RA
20180106_160000.002,0,ROAH,,,,0,20180106160000,-1,-1,-1,-1,30,-1,6,-1,-1,-1,-1,,9999,0,1,2,FEW 25   BKN 90,1,16,1,12,1018,ROAH 061600Z 03006KT 9999 -RA FEW025 BKN090 16/12 Q1018 RMK     1CU025 7AS090 A3008=,- RA
20180106_163000.001,0,ROAH,,,,0,20180106160000,-1,-1,-1,-1,50,-1,7,-1,-1,-1,-1,,9999,0,0,2,FEW 25   BKN 90,1,16,1,12,1018,ROAH 061630Z 05007KT 9999 FEW025 BKN090 16/12 Q1018 RMK 1CU025     7AS090 A3007=,
20180106_170000.002,0,ROAH,,,,0,20180106170000,-1,-1,-1,-1,40,-1,7,-1,-1,10,70,,9999,0,0,2,FEW 20   BKN 100,1,17,1,12,1018,ROAH 061700Z 04007KT 010V070 9999 FEW020 BKN100 17/12 Q1018     RMK 1CU020 7AS100 A3008=,
20180106_173000.001,0,ROAH,,,,0,20180106170000,-1,-1,-1,-1,30,-1,8,-1,-1,-1,-1,,9999,0,1,2,FEW 20   BKN 100,1,16,1,12,1018,ROAH 061730Z 03008KT 9999 -RA FEW020 BKN100 16/12 Q1018 RMK     1CU020 7AS100 A3009=,- RA
20180106_180000.003,0,ROAH,,,,0,20180106180000,-1,-1,-1,-1,50,-1,5,-1,-1,20,80,,9999,0,1,3,FEW 20   SCT 50   BKN 100,1,16,1,12,1018,ROAH 061800Z 05005KT 020V080 9999 -RA FEW020 SCT050 BKN100     16/12 Q1018 RMK 1CU020 3SC050 7AS100 A3008=,- RA
20180106_183000.001,0,ROAH,,,,0,20180106180000,-1,-1,-1,-1,50,-1,5,-1,-1,-1,-1,,9999,0,1,2,FEW 20   BKN 100,1,16,1,12,1018,ROAH 061830Z 05005KT 9999 -RA FEW020 BKN100 16/12 Q1018 RMK     1CU020 7AS100 A3007=,- RA
20180106_190000.002,0,ROAH,,,,0,20180106190000,-1,-1,-1,-1,90,-1,5,-1,-1,-1,-1,,9999,0,1,2,FEW 20   BKN 110,1,16,1,11,1017,ROAH 061900Z 09005KT 9999 -RA FEW020 BKN110 16/11 Q1017 RMK     1CU020 7AS110 A3005=,- RA
20180106_193000.001,0,ROAH,,,,0,20180106190000,-1,-1,-1,-1,60,-1,5,-1,-1,-1,-1,,9999,0,1,2,FEW 20   BKN 110,1,16,1,12,1017,ROAH 061930Z 06005KT 9999 -RA FEW020 BKN110 16/12 Q1017 RMK     1CU020 7AS110 A3005=,- RA
20180106_200000.002,0,ROAH,,,,0,20180106200000,-1,-1,-1,-1,110,-1,4,-1,-1,-1,-1,,9999,0,1,2,FEW 20   BKN 110,1,16,1,12,1017,ROAH 062000Z 11004KT 9999 -RA FEW020 BKN110 16/12 Q1017 RMK     1CU020 7AS110 A3003=,- RA
20180106_203000.001,0,ROAH,,,,0,20180106200000,-1,-1,-1,-1,999,-1,2,-1,-1,-1,-1,,9999,0,1,2,FEW 20   BKN 100,1,16,1,13,1017,ROAH 062030Z VRB02KT 9999 -RA FEW020 BKN100 16/13 Q1017 RMK     1CU020 7AS100 A3005=,- RA
20180106_210000.002,0,ROAH,,,,0,20180106210000,-1,-1,-1,-1,100,-1,4,-1,-1,50,140,,9999,0,1,2,FEW 20   BKN 110,1,16,1,13,1017,ROAH 062100Z 10004KT 050V140 9999 -RA FEW020 BKN110 16/13     Q1017 RMK 1CU020 7AS110 A3004=,- RA
20180106_213000.001,0,ROAH,,,,0,20180106210000,-1,-1,-1,-1,20,-1,6,-1,-1,-1,-1,,9999,0,1,2,SCT 20   BKN 100,1,16,1,14,1018,ROAH 062130Z 02006KT 9999 -RA SCT020 BKN100 16/14 Q1018 RMK     3CU020 7AS100 A3007=,- RA
20180106_220000.002,0,ROAH,,,,0,20180106220000,-1,-1,-1,-1,0,-1,0,-1,-1,-1,-1,,9999,0,1,3,FEW 20   SCT 25   BKN 100,1,16,1,14,1019,ROAH 062200Z 00000KT 9999 -RA FEW020 SCT025 BKN100 16/14 Q1019     RMK 1CU020 3CU025 7AS100 A3009=,- RA
20180106_223000.002,0,ROAH,,,,0,20180106220000,-1,-1,-1,-1,40,-1,4,-1,-1,10,90,,9999,0,1,3,FEW 20   SCT 25   BKN 110,1,16,1,14,1018,ROAH 062230Z 04004KT 010V090 9999 -RA FEW020 SCT025 BKN110     16/14 Q1018 RMK 1CU020 3CU025 7AS110 A3008=,- RA
20180106_230000.002,0,ROAH,,,,0,20180106230000,-1,-1,-1,-1,20,-1,4,-1,-1,360,70,,9999,0,1,3,FEW 20   SCT 70   BKN 100,1,16,1,14,1019,ROAH 062300Z 02004KT 360V070 9999 -RA FEW020 SCT070 BKN100     16/14 Q1019 RMK 1CU020 3AC070 7AS100 A3010=,- RA
20180106_233000.001,0,ROAH,,,,0,20180106230000,-1,-1,-1,-1,70,-1,6,-1,-1,50,120,,9999,0,1,3,FEW 20   SCT 70   BKN 100,1,16,1,15,1018,ROAH 062330Z 07006KT 050V120 9999 -RA FEW020 SCT070 BKN100     16/15 Q1018 RMK 1CU020 3AC070 7AS100 A3008=,- RA
20180107_000000.002,0,ROAH,,,,0,20180107000000,-1,-1,-1,-1,100,-1,4,-1,-1,50,130,,9999,0,1,3,FEW 20   SCT 30   BKN 100,1,17,1,15,1018,ROAH 070000Z 10004KT 050V130 9999 -RA FEW020 SCT030 BKN100     17/15 Q1018 RMK 1CU020 3CU030 7AS100 A3008=,- RA
20180107_003000.001,0,ROAH,,,,0,20180107000000,-1,-1,-1,-1,100,-1,7,-1,-1,60,130,,9999,0,1,3,FEW 10   SCT 30   BKN 100,1,17,1,14,1018,ROAH 070030Z 10007KT 060V130 9999 RA FEW010 SCT030 BKN100     17/14 Q1018 RMK 1CU010 3CU030 7AS100 A3007=,RA
20180107_010000.003,0,ROAH,,,,0,20180107010000,-1,-1,-1,-1,110,-1,5,-1,-1,70,140,,9999,0,1,3,FEW 20   SCT 70   BKN 100,1,17,1,15,1019,ROAH 070100Z 11005KT 070V140 9999 -RA FEW020 SCT070 BKN100     17/15 Q1019 RMK 1CU020 3AC070 7AS100 A3011=,- RA
20180107_013000.001,0,ROAH,,,,0,20180107010000,-1,-1,-1,-1,110,-1,6,-1,-1,60,130,,9999,0,1,3,FEW 20   SCT 70   BKN 100,1,18,1,15,1019,ROAH 070130Z 11006KT 060V130 9999 -RA FEW020 SCT070 BKN100     18/15 Q1019 RMK 1CU020 3AC070 7AS100 A3009=,- RA
20180107_020000.002,0,ROAH,,,,0,20180107020000,-1,-1,-1,-1,120,-1,6,-1,-1,-1,-1,,9999,0,1,3,FEW 20   SCT 60   BKN 100,1,18,1,15,1018,ROAH 070200Z 12006KT 9999 -RA FEW020 SCT060 BKN100 18/15 Q1018     RMK 1CU020 3SC060 7AS100 A3008=,- RA
20180107_023000.001,0,ROAH,,,,0,20180107020000,-1,-1,-1,-1,120,-1,7,-1,-1,-1,-1,,9999,0,1,3,FEW 20   SCT 70   BKN 100,1,18,1,15,1018,ROAH 070230Z 12007KT 9999 -RA FEW020 SCT070 BKN100 18/15 Q1018     RMK 1CU020 3AC070 7AS100 A3008=,- RA
20180107_030000.002,0,ROAH,,,,0,20180107030000,-1,-1,-1,-1,140,-1,6,-1,-1,-1,-1,,9999,0,1,3,FEW 20   SCT 70   BKN 100,1,18,1,15,1018,ROAH 070300Z 14006KT 9999 -RA FEW020 SCT070 BKN100 18/15 Q1018     RMK 1CU020 3AC070 7AS100 A3008=,- RA
20180107_033000.001,0,ROAH,,,,0,20180107030000,-1,-1,-1,-1,120,-1,7,-1,-1,-1,-1,,9999,0,1,3,FEW 20   SCT 50   BKN 100,1,18,1,15,1017,ROAH 070330Z 12007KT 9999 -RA FEW020 SCT050 BKN100 18/15 Q1017     RMK 1CU020 3SC050 7AS100 A3005 P/FR=,- RA
20180107_040000.002,0,ROAH,,,,0,20180107040000,-1,-1,-1,-1,130,-1,7,-1,-1,-1,-1,,9999,0,1,3,FEW 10   SCT 80   BKN 100,1,19,1,16,1017,ROAH 070400Z 13007KT 9999 -RA FEW010 SCT080 BKN100 19/16 Q1017     RMK 1CU010 3AC080 7AS100 A3005=,- RA
20180107_043000.001,0,ROAH,,,,0,20180107040000,-1,-1,-1,-1,130,-1,7,-1,-1,-1,-1,,9999,0,1,2,FEW 10   OVC 90,1,19,1,16,1017,ROAH 070430Z 13007KT 9999 -RA FEW010 OVC090 19/16 Q1017 RMK     1CU010 8AS090 A3003=,- RA
20180107_050000.002,0,ROAH,,,,0,20180107050000,-1,-1,-1,-1,140,-1,5,-1,-1,-1,-1,,9999,0,1,2,FEW 10   OVC 90,1,19,1,16,1017,ROAH 070500Z 14005KT 9999 -RA FEW010 OVC090 19/16 Q1017 RMK     1CU010 8AS090 A3005=,- RA
20180107_053000.001,0,ROAH,,,,0,20180107050000,-1,-1,-1,-1,150,-1,3,-1,-1,110,180,,7000,0,1,3,FEW 15   SCT 50   OVC 90,1,19,1,17,1018,ROAH 070530Z 15003KT 110V180 7000 RA FEW015 SCT050 OVC090     19/17 Q1018 RMK 1CU015 3SC050 8AS090 A3006=,RA
20180107_060000.002,0,ROAH,,,,0,20180107060000,-1,-1,-1,-1,130,-1,4,-1,-1,-1,-1,,9999,0,1,2,FEW 15   OVC 90,1,19,1,17,1017,ROAH 070600Z 13004KT 9999 -RA FEW015 OVC090 19/17 Q1017 RMK     1CU015 8AS090 A3003 P/FR=,- RA
20180107_063000.001,0,ROAH,,,,0,20180107060000,-1,-1,-1,-1,150,-1,5,-1,-1,-1,-1,,9999,0,1,2,FEW 15   OVC 90,1,19,1,17,1017,ROAH 070630Z 15005KT 9999 RA FEW015 OVC090 19/17 Q1017 RMK     1CU015 8AS090 A3004=,RA
20180107_070000.002,0,ROAH,,,,0,20180107070000,-1,-1,-1,-1,140,-1,8,-1,-1,-1,-1,,9999,0,1,2,FEW 15   OVC 90,1,19,1,17,1016,ROAH 070700Z 14008KT 9999 -RA FEW015 OVC090 19/17 Q1016 RMK     1CU015 8AS090 A3002=,- RA
20180107_073000.001,0,ROAH,,,,0,20180107070000,-1,-1,-1,-1,150,-1,9,-1,-1,-1,-1,,9999,0,1,2,FEW 15   OVC 90,1,19,1,17,1016,ROAH 070730Z 15009KT 9999 -RA FEW015 OVC090 19/17 Q1016 RMK     1CU015 8AS090 A3003=,- RA
20180107_080000.002,0,ROAH,,,,0,20180107080000,-1,-1,-1,-1,140,-1,11,-1,-1,-1,-1,,9999,0,0,2,FEW 15   OVC 80,1,19,1,16,1016,ROAH 070800Z 14011KT 9999 FEW015 OVC080 19/16 Q1016 RMK 1CU015     8AS080 A3001=,
20180107_083000.001,0,ROAH,,,,0,20180107080000,-1,-1,-1,-1,150,-1,11,-1,-1,-1,-1,,9999,0,1,2,FEW 15   OVC 80,1,19,1,16,1016,ROAH 070830Z 15011KT 9999 -RA FEW015 OVC080 19/16 Q1016 RMK     1CU015 8AS080 A3003=,- RA
20180107_090000.002,0,ROAH,,,,0,20180107090000,-1,-1,-1,-1,150,-1,8,-1,-1,-1,-1,,9999,0,1,2,FEW 15   OVC 80,1,19,1,16,1017,ROAH 070900Z 15008KT 9999 -RA FEW015 OVC080 19/16 Q1017 RMK     1CU015 8AS080 A3005=,- RA
20180107_093000.001,0,ROAH,,,,0,20180107090000,-1,-1,-1,-1,140,-1,8,-1,-1,-1,-1,,9999,0,1,2,FEW 15   OVC 80,1,19,1,16,1017,ROAH 070930Z 14008KT 9999 -RA FEW015 OVC080 19/16 Q1017 RMK     1CU015 8AS080 A3005=,- RA
20180107_100000.002,0,ROAH,,,,0,20180107100000,-1,-1,-1,-1,150,-1,7,-1,-1,-1,-1,,9999,0,1,2,FEW 15   OVC 80,1,19,1,16,1018,ROAH 071000Z 15007KT 9999 -RA FEW015 OVC080 19/16 Q1018 RMK     1CU015 8AS080 A3007=,- RA
20180107_103000.001,0,ROAH,,,,0,20180107100000,-1,-1,-1,-1,150,-1,8,-1,-1,-1,-1,,9999,0,1,2,FEW 15   OVC 80,1,19,1,16,1018,ROAH 071030Z 15008KT 9999 -RA FEW015 OVC080 19/16 Q1018 RMK     1CU015 8AS080 A3007=,- RA
20180107_110000.002,0,ROAH,,,,0,20180107110000,-1,-1,-1,-1,150,-1,9,-1,-1,-1,-1,,9999,0,1,2,FEW 15   OVC 80,1,19,1,17,1018,ROAH 071100Z 15009KT 9999 -RA FEW015 OVC080 19/17 Q1018 RMK     1CU015 8AS080 A3006=,- RA
20180107_113000.001,0,ROAH,,,,0,20180107110000,-1,-1,-1,-1,140,-1,9,-1,-1,-1,-1,,9999,0,1,2,FEW 15   OVC 80,1,20,1,17,1017,ROAH 071130Z 14009KT 9999 -RA FEW015 OVC080 20/17 Q1017 RMK     1CU015 8AS080 A3005=,- RA
20180107_120000.003,0,ROAH,,,,0,20180107120000,-1,-1,-1,-1,150,-1,10,-1,-1,-1,-1,,9999,0,1,2,FEW 12   OVC 100,1,19,1,16,1017,ROAH 071200Z 15010KT 9999 -RA FEW012 OVC100 19/16 Q1017 RMK     1CU012 8AS100 A3004=,- RA
20180107_123000.001,0,ROAH,,,,0,20180107120000,-1,-1,-1,-1,160,-1,12,-1,-1,-1,-1,,9999,0,1,2,FEW 12   OVC 90,1,20,1,17,1017,ROAH 071230Z 16012KT 9999 -RA FEW012 OVC090 20/17 Q1017 RMK     1CU012 8AS090 A3005=,- RA
20180107_130000.003,0,ROAH,,,,0,20180107130000,-1,-1,-1,-1,150,-1,13,-1,-1,-1,-1,,9999,0,1,3,FEW 12   SCT 60   OVC 100,1,19,1,16,1017,ROAH 071300Z 15013KT 9999 -RA FEW012 SCT060 OVC100 19/16 Q1017     RMK 1CU012 3SC060 8AC100 A3004=,- RA
20180107_133000.001,0,ROAH,,,,0,20180107130000,-1,-1,-1,-1,150,-1,17,-1,-1,-1,-1,,9999,0,1,3,FEW 12   SCT 60   OVC 100,1,20,1,16,1015,ROAH 071330Z 15017KT 9999 -RA FEW012 SCT060 OVC100 20/16 Q1015     RMK 1CU012 3SC060 8AC100 A3000 P/FR=,- RA
20180107_140000.003,0,ROAH,,,,0,20180107140000,-1,-1,-1,-1,150,-1,15,-1,-1,-1,-1,,9999,0,1,2,FEW 12   OVC 100,1,20,1,16,1016,ROAH 071400Z 15015KT 9999 -RA FEW012 OVC100 20/16 Q1016 RMK     1CU012 8AC100 A3001=,- RA
20180107_143000.001,0,ROAH,,,,0,20180107140000,-1,-1,-1,-1,160,-1,17,-1,-1,-1,-1,,9999,0,1,2,FEW 12   OVC 100,1,20,1,16,1015,ROAH 071430Z 16017KT 9999 -RA FEW012 OVC100 20/16 Q1015 RMK     1CU012 8AC100 A2999=,- RA
20180107_150000.002,0,ROAH,,,,0,20180107150000,-1,-1,-1,-1,160,-1,20,-1,-1,-1,-1,,9999,0,1,2,FEW 12   OVC 100,1,20,1,16,1014,ROAH 071500Z 16020KT 9999 -RA FEW012 OVC100 20/16 Q1014 RMK     1CU012 8AS100 A2997=,- RA
20180107_153000.001,0,ROAH,,,,0,20180107150000,-1,-1,-1,-1,150,-1,17,-1,-1,-1,-1,,9999,0,1,3,FEW 12   SCT 80   OVC 100,1,21,1,17,1014,ROAH 071530Z 15017KT 9999 -RA FEW012 SCT080 OVC100 21/17 Q1014     RMK 1CU012 3AC080 8AS100 A2994=,- RA
20180107_160000.002,0,ROAH,,,,0,20180107160000,-1,-1,-1,-1,160,-1,18,-1,-1,-1,-1,,9999,0,1,3,FEW 12   SCT 60   OVC 100,1,21,1,16,1013,ROAH 071600Z 16018KT 9999 -RA FEW012 SCT060 OVC100 21/16 Q1013     RMK 1CU012 3SC060 8AS100 A2994=,- RA
20180107_163000.001,0,ROAH,,,,0,20180107160000,-1,-1,-1,-1,150,-1,16,-1,-1,-1,-1,,9999,0,0,2,FEW 12   OVC 120,1,21,1,16,1013,ROAH 071630Z 15016KT 9999 FEW012 OVC120 21/16 Q1013 RMK 1CU012     8AS120 A2992=,
20180107_170000.002,0,ROAH,,,,0,20180107170000,-1,-1,-1,-1,150,-1,17,-1,-1,-1,-1,,9999,0,0,2,FEW 12   BKN 130,1,22,1,16,1013,ROAH 071700Z 15017KT 9999 FEW012 BKN130 22/16 Q1013 RMK 1CU012     7AS130 A2993=,
20180107_173000.001,0,ROAH,,,,0,20180107170000,-1,-1,-1,-1,150,-1,17,-1,-1,-1,-1,,9999,0,0,2,FEW 15   BKN 130,1,21,1,17,1012,ROAH 071730Z 15017KT 9999 FEW015 BKN130 21/17 Q1012 RMK 1CU015     6AC130 A2990=,
20180107_180000.002,0,ROAH,,,,0,20180107180000,-1,-1,-1,-1,150,-1,18,-1,-1,-1,-1,,9999,0,0,2,FEW 15   BKN 120,1,21,1,17,1012,ROAH 071800Z 15018KT 9999 FEW015 BKN120 21/17 Q1012 RMK 1CU015     5AC120 A2989=,
20180107_183000.001,0,ROAH,,,,0,20180107180000,-1,-1,-1,-1,150,-1,15,-1,-1,-1,-1,,9999,0,0,2,FEW 15   SCT 120,1,21,1,17,1012,ROAH 071830Z 15015KT 9999 FEW015 SCT120 21/17 Q1012 RMK 1CU015     4AC120 A2988=,
20180107_190000.003,0,ROAH,,,,0,20180107190000,-1,-1,-1,-1,150,-1,17,-1,-1,-1,-1,CAVOK,-1,0,0,0,,1,22,1,17,1011,ROAH 071900Z 15017KT CAVOK 22/17 Q1011 RMK A2988=,
20180107_193000.001,0,ROAH,,,,0,20180107190000,-1,-1,-1,-1,160,-1,16,-1,-1,-1,-1,CAVOK,-1,0,0,0,,1,22,1,17,1011,ROAH 071930Z 16016KT CAVOK 22/17 Q1011 RMK A2987=,
20180107_200000.002,0,ROAH,,,,0,20180107200000,-1,-1,-1,-1,150,-1,20,-1,-1,-1,-1,CAVOK,-1,0,0,0,,1,22,1,17,1011,ROAH 072000Z 15020KT CAVOK 22/17 Q1011 RMK A2986=,
20180107_203000.001,0,ROAH,,,,0,20180107200000,-1,-1,-1,-1,150,-1,17,-1,-1,-1,-1,,9999,0,0,2,FEW 20   BKN 150,1,22,1,16,1011,ROAH 072030Z 15017KT 9999 FEW020 BKN150 22/16 Q1011 RMK 1CU020     7AC150 A2987=,
20180107_210000.003,0,ROAH,,,,0,20180107210000,-1,-1,-1,-1,150,-1,17,-1,-1,-1,-1,CAVOK,-1,0,0,0,,1,22,1,16,1011,ROAH 072100Z 15017KT CAVOK 22/16 Q1011 RMK 7AC080 A2986=,
20180107_213000.001,0,ROAH,,,,0,20180107210000,-1,-1,-1,-1,150,-1,19,-1,-1,-1,-1,,9999,0,1,1,NSC -1,1,22,1,16,1012,ROAH 072130Z 15019KT 9999 -RA NSC 22/16 Q1012 RMK 6SC050     8AS070 A2989=,- RA
20180107_220000.002,0,ROAH,,,,0,20180107220000,-1,-1,-1,-1,140,-1,17,-1,-1,-1,-1,CAVOK,-1,0,0,0,,1,22,1,16,1012,ROAH 072200Z 14017KT CAVOK 22/16 Q1012 RMK 7AC080 A2989=,
20180107_223000.002,0,ROAH,,,,0,20180107220000,-1,-1,-1,-1,150,-1,19,-1,-1,-1,-1,,9999,0,1,3,FEW 20   SCT 40   BKN 80,1,22,1,17,1012,ROAH 072230Z 15019KT 9999 VCSH FEW020 SCT040 BKN080 22/17     Q1012 RMK 2CU020 4SC040 7AC080 A2990=,VC SH
20180107_230000.002,0,ROAH,,,,0,20180107230000,-1,-1,-1,-1,160,-1,11,-1,-1,-1,-1,,2000,0,1,3,FEW 14   SCT 19   BKN 28,1,21,1,18,1013,ROAH 072300Z 16011KT 2000 +SHRA FEW014 SCT019 BKN028 21/18     Q1013 RMK 2CU014 4CU019 7CU028 A2993 P/RR RI++=,+ RA SH
20180107_233000.001,0,ROAH,,,,0,20180107230000,-1,-1,-1,-1,140,-1,6,-1,-1,80,170,,8000,0,1,2,BKN 12   BKN 18,1,21,1,19,1013,ROAH 072330Z 14006KT 080V170 8000 SHRA BKN012 BKN018 21/19     Q1013 RMK 6CU012 7CU018 A2993=,RA SH
20180108_000000.002,0,ROAH,,,,0,20180108000000,-1,-1,-1,-1,150,-1,8,-1,-1,-1,-1,,9999,0,1,3,SCT 10   BKN 25   BKN 40,1,21,1,19,1013,ROAH 080000Z 15008KT 9999 -SHRA SCT010 BKN025 BKN040 21/19     Q1013 RMK 3CU010 5CU025 7SC040 A2992=,- RA SH
20180108_003000.001,0,ROAH,,,,0,20180108000000,-1,-1,-1,-1,160,-1,11,-1,-1,-1,-1,,9999,0,1,3,FEW 15   BKN 20   BKN 40,1,22,1,19,1013,ROAH 080030Z 16011KT 9999 -SHRA FEW015 BKN020 BKN040 22/19     Q1013 RMK 2CU015 5CU020 7SC040 A2992=,- RA SH
20180108_010000.002,0,ROAH,,,,0,20180108010000,-1,-1,-1,-1,160,-1,12,-1,-1,-1,-1,,9999,0,1,3,SCT 15   BKN 20   BKN 50,1,22,1,20,1012,ROAH 080100Z 16012KT 9999 -SHRA SCT015 BKN020 BKN050 22/20     Q1012 RMK 3CU015 5CU020 7SC050 A2991=,- RA SH
20180108_013000.001,0,ROAH,,,,0,20180108010000,-1,-1,-1,-1,160,-1,10,-1,-1,-1,-1,,9999,0,1,3,FEW 9   BKN 20   BKN 50,1,22,1,20,1012,ROAH 080130Z 16010KT 9999 VCSH FEW009 BKN020 BKN050 22/20     Q1012 RMK 1ST009 6CU020 7SC050 A2990=,VC SH
20180108_020000.002,0,ROAH,,,,0,20180108020000,-1,-1,-1,-1,160,-1,10,-1,-1,-1,-1,,9999,0,1,3,FEW 7   BKN 9   BKN 30,1,22,1,20,1011,ROAH 080200Z 16010KT 9999 -SHRA FEW007 BKN009 BKN030 22/20     Q1011 RMK 1ST007 5ST009 7CU030 A2988=,- RA SH
20180108_023000.001,0,ROAH,,,,0,20180108020000,-1,-1,-1,-1,160,-1,10,-1,-1,-1,-1,,9999,0,1,3,FEW 6   SCT 20   BKN 30,1,22,1,20,1011,ROAH 080230Z 16010KT 9999 SHRA FEW006 SCT020 BKN030 22/20     Q1011 RMK 1ST006 3CU020 5CU030 A2986 3000S=,RA SH
20180108_030000.002,0,ROAH,,,,0,20180108030000,-1,-1,-1,-1,150,-1,5,-1,-1,100,180,,9999,0,1,3,FEW 8   SCT 20   BKN 30,1,22,1,21,1010,ROAH 080300Z 15005KT 100V180 9999 -SHRA FEW008 SCT020 BKN030     22/21 Q1010 RMK 1ST008 3CU020 6CU030 A2983 MOD TURB OBS           AT 0247Z ON DEP COURSE RWY18 BLW 2000FT B788=,- RA SH
20180108_033000.001,0,ROAH,,,,0,20180108030000,-1,-1,-1,-1,200,-1,12,-1,-1,-1,-1,,9999,0,1,3,FEW 6   BKN 8   BKN 20,1,23,1,21,1009,ROAH 080330Z 20012KT 9999 -SHRA FEW006 BKN008 BKN020 23/21     Q1009 RMK 1ST006 5ST008 7CU020 A2980=,- RA SH
20180108_040000.002,0,ROAH,,,,0,20180108040000,-1,-1,-1,-1,180,-1,12,-1,-1,-1,-1,,9999,0,1,3,FEW 8   SCT 10   BKN 20,1,23,1,21,1008,ROAH 080400Z 18012KT 9999 VCSH FEW008 SCT010 BKN020 23/21     Q1008 RMK 1ST008 4ST010 7CU020 A2979=,VC SH
20180108_043000.001,0,ROAH,,,,0,20180108040000,-1,-1,-1,-1,200,-1,13,-1,-1,-1,-1,,9999,0,1,3,FEW 8   SCT 25   BKN 100,1,24,1,22,1008,ROAH 080430Z 20013KT 9999 VCSH FEW008 SCT025 BKN100 24/22     Q1008 RMK 1ST008 3CU025 5AC100 A2977=,VC SH
20180108_050000.002,0,ROAH,,,,0,20180108050000,-1,-1,-1,-1,220,-1,14,-1,-1,-1,-1,,9999,0,0,3,FEW 10   SCT 15   BKN 30,1,24,1,21,1008,ROAH 080500Z 22014KT 9999 FEW010 SCT015 BKN030 24/21 Q1008 RMK     2CU010 4CU015 5CU030 A2979=,
20180108_053000.001,0,ROAH,,,,0,20180108050000,-1,-1,-1,-1,230,-1,13,-1,-1,-1,-1,,9999,0,1,3,FEW 10   SCT 20   BKN 50,1,23,1,21,1008,ROAH 080530Z 23013KT 9999 -SHRA FEW010 SCT020 BKN050 23/21     Q1008 RMK 1CU010 3CU020 6SC050 A2977=,- RA SH
20180108_060000.003,0,ROAH,,,,0,20180108060000,-1,-1,-1,-1,230,-1,14,-1,-1,-1,-1,,9999,0,0,3,FEW 10   SCT 50   BKN 90,1,24,1,21,1008,ROAH 080600Z 23014KT 9999 FEW010 SCT050 BKN090 24/21 Q1008 RMK     2CU010 3SC050 6AC090 A2977=,
20180108_063000.001,0,ROAH,,,,0,20180108060000,-1,-1,-1,-1,240,-1,12,-1,-1,-1,-1,,9999,0,1,3,FEW 10   SCT 15   BKN 30,1,23,1,21,1008,ROAH 080630Z 24012KT 9999 -SHRA FEW010 SCT015 BKN030 23/21     Q1008 RMK 2CU010 3CU015 5CU030 A2977=,- RA SH
20180108_070000.002,0,ROAH,,,,0,20180108070000,-1,-1,-1,-1,240,-1,13,-1,-1,-1,-1,,9999,0,1,3,FEW 9   SCT 15   BKN 50,1,23,1,21,1007,ROAH 080700Z 24013KT 9999 -SHRA FEW009 SCT015 BKN050 23/21     Q1007 RMK 1CU009 3CU015 6SC050 A2976=,- RA SH
20180108_073000.001,0,ROAH,,,,0,20180108070000,-1,-1,-1,-1,250,-1,12,-1,-1,-1,-1,,3500,0,1,3,FEW 8   SCT 15   BKN 45,1,22,1,21,1008,ROAH 080730Z 25012KT 3500 +SHRA FEW008 SCT015 BKN045 22/21     Q1008 RMK 1ST008 4CU015 6SC045 A2978 RI++=,+ RA SH
20180108_080000.002,0,ROAH,,,,0,20180108080000,-1,-1,-1,-1,290,-1,14,-1,-1,-1,-1,,4000,0,1,3,FEW 5   SCT 15   BKN 40,1,21,1,20,1008,ROAH 080800Z 29014KT 4000 -SHRA FEW005 SCT015 BKN040 21/20     Q1008 RMK 1ST005 4CU015 7SC040 A2979=,- RA SH
20180108_083000.001,0,ROAH,,,,0,20180108080000,-1,-1,-1,-1,350,-1,21,-1,-1,310,10,,4500,0,1,3,FEW 5   SCT 10   BKN 40,1,20,1,18,1009,ROAH 080830Z 35021KT 310V010 4500 SHRA FEW005 SCT010 BKN040     20/18 Q1009 RMK 2ST005 4CU010 7SC040 A2982=,RA SH
20180108_090000.002,0,ROAH,,,,0,20180108090000,-1,-1,-1,-1,360,-1,21,-1,-1,-1,-1,,3000,0,1,3,FEW 5   SCT 10   BKN 15,1,20,1,18,1010,ROAH 080900Z 36021KT 3000 SHRA FEW005 SCT010 BKN015 20/18     Q1010 RMK 1ST005 4CU010 6CU015 A2984=,RA SH
20180108_093000.001,0,ROAH,,,,0,20180108090000,-1,-1,-1,-1,360,-1,20,-1,-1,-1,-1,,4500,0,2,3,FEW 7   SCT 15   BKN 80,1,20,1,17,1010,ROAH 080930Z 36020KT 4500 -SHRA BR FEW007 SCT015 BKN080 20/17     Q1010 RMK 1ST007 4CU015 6AC080 A2982=,- RA SH; BR
20180108_100000.002,0,ROAH,,,,0,20180108100000,-1,-1,-1,-1,20,-1,15,-1,-1,-1,-1,,9999,0,0,3,FEW 7   SCT 12   BKN 90,1,20,1,17,1009,ROAH 081000Z 02015KT 9999 FEW007 SCT012 BKN090 20/17 Q1009 RMK     1ST007 3CU012 6AC090 A2982=,
20180108_103000.001,0,ROAH,,,,0,20180108100000,-1,-1,-1,-1,360,-1,16,-1,-1,-1,-1,,9999,0,0,3,FEW 10   BKN 15   BKN 70,1,20,1,17,1010,ROAH 081030Z 36016KT 9999 FEW010 BKN015 BKN070 20/17 Q1010 RMK     1CU010 5CU015 6AC070 A2985 MOD TURB OBS AT 1012Z 35NM SW           ROAH BTN 6000FT AND 8000FT B738=,
20180108_110000.002,0,ROAH,,,,0,20180108110000,-1,-1,-1,-1,350,-1,15,-1,-1,-1,-1,,9999,0,0,2,FEW 10   BKN 15,1,20,1,17,1012,ROAH 081100Z 35015KT 9999 FEW010 BKN015 20/17 Q1012 RMK 1CU010     6CU015 A2989 P/RR=,
20180108_113000.001,0,ROAH,,,,0,20180108110000,-1,-1,-1,-1,340,-1,17,-1,-1,-1,-1,,9999,0,0,2,FEW 10   BKN 15,1,20,1,17,1012,ROAH 081130Z 34017KT 9999 FEW010 BKN015 20/17 Q1012 RMK 1CU010     6CU015 A2990=,
20180108_120000.002,0,ROAH,,,,0,20180108120000,-1,-1,-1,-1,340,-1,19,-1,-1,-1,-1,,9999,0,1,2,FEW 15   BKN 20,1,20,1,16,1013,ROAH 081200Z 34019KT 9999 -SHRA FEW015 BKN020 20/16 Q1013 RMK     1CU015 6CU020 A2992=,- RA SH
20180108_123000.001,0,ROAH,,,,0,20180108120000,-1,-1,-1,-1,330,-1,19,-1,-1,-1,-1,,9999,0,1,3,FEW 15   SCT 20   BKN 30,1,20,1,16,1013,ROAH 081230Z 33019KT 9999 -SHRA FEW015 SCT020 BKN030 20/16     Q1013 RMK 1CU015 4CU020 6CU030 A2994=,- RA SH
20180108_130000.003,0,ROAH,,,,0,20180108130000,-1,-1,-1,-1,330,-1,17,-1,-1,-1,-1,,9999,0,1,3,SCT 12   BKN 20   BKN 30,1,19,1,16,1014,ROAH 081300Z 33017KT 9999 -SHRA SCT012 BKN020 BKN030 19/16     Q1014 RMK 3CU012 5CU020 6CU030 A2995=,- RA SH
20180108_133000.001,0,ROAH,,,,0,20180108130000,-1,-1,-1,-1,340,-1,16,-1,-1,-1,-1,,9999,0,1,3,FEW 15   SCT 20   BKN 30,1,19,1,16,1014,ROAH 081330Z 34016KT 9999 -SHRA FEW015 SCT020 BKN030 19/16     Q1014 RMK 2CU015 3CU020 6CU030 A2994=,- RA SH
20180108_140000.002,0,ROAH,,,,0,20180108140000,-1,-1,-1,-1,330,-1,15,-1,-1,-1,-1,,9999,0,0,3,FEW 15   SCT 20   BKN 30,1,19,1,15,1013,ROAH 081400Z 33015KT 9999 FEW015 SCT020 BKN030 19/15 Q1013 RMK     2CU015 3CU020 6CU030 A2994=,
20180108_143000.001,0,ROAH,,,,0,20180108140000,-1,-1,-1,-1,330,-1,16,-1,-1,-1,-1,,9999,0,0,3,FEW 15   SCT 20   BKN 30,1,19,1,15,1014,ROAH 081430Z 33016KT 9999 FEW015 SCT020 BKN030 19/15 Q1014 RMK     2CU015 4CU020 6CU030 A2995=,
20180108_150000.002,0,ROAH,,,,0,20180108150000,-1,-1,-1,-1,330,-1,18,-1,-1,-1,-1,,9999,0,0,2,FEW 15   BKN 30,1,18,1,14,1014,ROAH 081500Z 33018KT 9999 FEW015 BKN030 18/14 Q1014 RMK 2CU015     6CU030 A2994=,
20180108_153000.001,0,ROAH,,,,0,20180108150000,-1,-1,-1,-1,330,-1,18,-1,-1,-1,-1,,9999,0,1,3,FEW 15   BKN 30   BKN 80,1,18,1,14,1014,ROAH 081530Z 33018KT 9999 -SHRA FEW015 BKN030 BKN080 18/14     Q1014 RMK 2CU015 5CU030 6AC080 A2995=,- RA SH
20180108_160000.002,0,ROAH,,,,0,20180108160000,-1,-1,-1,-1,330,-1,18,-1,-1,-1,-1,,9999,0,1,3,FEW 15   BKN 25   BKN 80,1,18,1,14,1014,ROAH 081600Z 33018KT 9999 -SHRA FEW015 BKN025 BKN080 18/14     Q1014 RMK 2CU015 5CU025 6AC080 A2996=,- RA SH
20180108_163000.001,0,ROAH,,,,0,20180108160000,-1,-1,-1,-1,330,-1,17,-1,-1,-1,-1,,9999,0,0,2,FEW 15   BKN 25,1,18,1,13,1014,ROAH 081630Z 33017KT 9999 FEW015 BKN025 18/13 Q1014 RMK 2CU015     6CU025 A2997=,
20180108_170000.002,0,ROAH,,,,0,20180108170000,-1,-1,-1,-1,330,-1,18,-1,-1,-1,-1,,9999,0,1,2,FEW 15   BKN 25,1,18,1,14,1015,ROAH 081700Z 33018KT 9999 -SHRA FEW015 BKN025 18/14 Q1015 RMK     2CU015 6CU025 A2998=,- RA SH
20180108_173000.001,0,ROAH,,,,0,20180108170000,-1,-1,-1,-1,330,-1,16,-1,-1,-1,-1,,9999,0,1,2,FEW 20   BKN 30,1,18,1,13,1015,ROAH 081730Z 33016KT 9999 -SHRA FEW020 BKN030 18/13 Q1015 RMK     2CU020 6CU030 A2997=,- RA SH
20180108_180000.002,0,ROAH,,,,0,20180108180000,-1,-1,-1,-1,330,-1,19,-1,-1,-1,-1,,9999,0,1,2,FEW 20   BKN 30,1,18,1,13,1015,ROAH 081800Z 33019KT 9999 -SHRA FEW020 BKN030 18/13 Q1015 RMK     2CU020 6CU030 A2999=,- RA SH
20180108_183000.001,0,ROAH,,,,0,20180108180000,-1,-1,-1,-1,330,-1,20,-1,30,-1,-1,,9999,0,1,2,FEW 20   BKN 30,1,17,1,13,1016,ROAH 081830Z 33020G30KT 9999 -SHRA FEW020 BKN030 17/13 Q1016     RMK 2CU020 6CU030 A3001=,- RA SH
20180108_190000.002,0,ROAH,,,,0,20180108190000,-1,-1,-1,-1,330,-1,21,-1,-1,-1,-1,,9999,0,1,2,FEW 20   BKN 30,1,16,1,12,1016,ROAH 081900Z 33021KT 9999 -SHRA FEW020 BKN030 16/12 Q1016 RMK     2CU020 6CU030 A3002=,- RA SH
20180108_193000.001,0,ROAH,,,,0,20180108190000,-1,-1,-1,-1,330,-1,19,-1,-1,-1,-1,,9999,0,1,2,FEW 15   BKN 30,1,16,1,12,1016,ROAH 081930Z 33019KT 9999 -SHRA FEW015 BKN030 16/12 Q1016 RMK     2CU015 6CU030 A3001=,- RA SH
20180108_200000.002,0,ROAH,,,,0,20180108200000,-1,-1,-1,-1,330,-1,19,-1,-1,-1,-1,,9999,0,1,2,FEW 15   BKN 30,1,16,1,12,1016,ROAH 082000Z 33019KT 9999 -SHRA FEW015 BKN030 16/12 Q1016 RMK     2CU015 6CU030 A3003 P/RR=,- RA SH
20180108_203000.001,0,ROAH,,,,0,20180108200000,-1,-1,-1,-1,330,-1,21,-1,-1,-1,-1,,9999,0,1,2,FEW 20   BKN 30,1,16,1,12,1016,ROAH 082030Z 33021KT 9999 -SHRA FEW020 BKN030 16/12 Q1016 RMK     2CU020 6CU030 A3003=,- RA SH
20180108_210000.003,0,ROAH,,,,0,20180108210000,-1,-1,-1,-1,330,-1,21,-1,-1,-1,-1,,9999,0,1,2,FEW 20   BKN 30,1,16,1,12,1017,ROAH 082100Z 33021KT 9999 -SHRA FEW020 BKN030 16/12 Q1017 RMK     2CU020 6CU030 A3005=,- RA SH
20180108_213000.001,0,ROAH,,,,0,20180108210000,-1,-1,-1,-1,330,-1,20,-1,-1,-1,-1,,9999,0,1,2,FEW 20   BKN 30,1,15,1,12,1018,ROAH 082130Z 33020KT 9999 -SHRA FEW020 BKN030 15/12 Q1018 RMK     2CU020 6CU030 A3008=,- RA SH
20180108_220000.002,0,ROAH,,,,0,20180108220000,-1,-1,-1,-1,340,-1,24,-1,-1,-1,-1,,9999,0,1,2,SCT 15   BKN 30,1,15,1,12,1018,ROAH 082200Z 34024KT 9999 -SHRA SCT015 BKN030 15/12 Q1018 RMK     3CU015 6CU030 A3008=,- RA SH
20180108_223000.001,0,ROAH,,,,0,20180108220000,-1,-1,-1,-1,330,-1,23,-1,-1,-1,-1,,9999,0,1,2,SCT 15   BKN 30,1,15,1,10,1019,ROAH 082230Z 33023KT 9999 -SHRA SCT015 BKN030 15/10 Q1019 RMK     3CU015 6CU030 A3009=,- RA SH
20180108_230000.003,0,ROAH,,,,0,20180108230000,-1,-1,-1,-1,340,-1,20,-1,-1,-1,-1,,9999,0,1,3,FEW 15   SCT 25   OVC 110,1,15,1,11,1019,ROAH 082300Z 34020KT 9999 -SHRA FEW015 SCT025 OVC110 15/11     Q1019 RMK 1CU015 4CU025 8AS110 A3010=,- RA SH
20180108_233000.001,0,ROAH,,,,0,20180108230000,-1,-1,-1,-1,340,-1,21,-1,-1,-1,-1,,9999,0,1,3,FEW 15   BKN 20   OVC 110,1,14,1,11,1020,ROAH 082330Z 34021KT 9999 -SHRA FEW015 BKN020 OVC110 14/11     Q1020 RMK 1CU015 5CU020 8AS110 A3013=,- RA SH
20180109_000000.002,0,ROAH,,,,0,20180109000000,-1,-1,-1,-1,330,-1,20,-1,-1,-1,-1,,9999,0,1,3,FEW 15   BKN 20   OVC 110,1,14,1,10,1020,ROAH 090000Z 33020KT 9999 -SHRA FEW015 BKN020 OVC110 14/10     Q1020 RMK 1CU015 6CU020 8AS110 A3013=,- RA SH
20180109_003000.001,0,ROAH,,,,0,20180109000000,-1,-1,-1,-1,330,-1,16,-1,-1,-1,-1,,9999,0,1,3,FEW 20   SCT 30   OVC 110,1,14,1,10,1020,ROAH 090030Z 33016KT 9999 -SHRA FEW020 SCT030 OVC110 14/10     Q1020 RMK 1CU020 3CU030 8AS110 A3014=,- RA SH
20180109_010000.002,0,ROAH,,,,0,20180109010000,-1,-1,-1,-1,340,-1,15,-1,-1,-1,-1,,9999,0,0,3,FEW 25   SCT 30   OVC 110,1,15,1,10,1020,ROAH 090100Z 34015KT 9999 FEW025 SCT030 OVC110 15/10 Q1020 RMK     1CU025 3CU030 8AS110 A3014=,
20180109_013000.001,0,ROAH,,,,0,20180109010000,-1,-1,-1,-1,330,-1,17,-1,-1,-1,-1,,9999,0,0,2,SCT 25   BKN 38,1,15,1,9,1020,ROAH 090130Z 33017KT 9999 SCT025 BKN038 15/09 Q1020 RMK 3CU025     6SC038 A3013=,
20180109_020000.002,0,ROAH,,,,0,20180109020000,-1,-1,-1,-1,330,-1,15,-1,-1,-1,-1,,8000,0,1,2,SCT 25   BKN 38,1,15,1,9,1020,ROAH 090200Z 33015KT 8000 -RA SCT025 BKN038 15/09 Q1020 RMK     4CU025 7SC038 A3014 MOD TURB OBS AT 0152Z 35NM NE NHC BTN           13000FT AND 11000FT B734=,- RA
20180109_023000.001,0,ROAH,,,,0,20180109020000,-1,-1,-1,-1,330,-1,17,-1,-1,-1,-1,,6000,0,1,2,SCT 25   BKN 38,1,15,1,9,1019,ROAH 090230Z 33017KT 6000 -RA SCT025 BKN038 15/09 Q1019 RMK     3CU025 7SC038 A3010 P/FR=,- RA
20180109_030000.002,0,ROAH,,,,0,20180109030000,-1,-1,-1,-1,330,-1,16,-1,-1,-1,-1,,6000,0,1,2,FEW 30   BKN 40,1,15,1,8,1019,ROAH 090300Z 33016KT 6000 -RA FEW030 BKN040 15/08 Q1019 RMK     2CU030 7SC040 A3010=,- RA
20180109_033000.001,0,ROAH,,,,0,20180109030000,-1,-1,-1,-1,320,-1,16,-1,-1,-1,-1,,7000,0,1,2,FEW 30   BKN 43,1,15,1,7,1019,ROAH 090330Z 32016KT 7000 -RA FEW030 BKN043 15/07 Q1019 RMK     2CU030 7SC043 A3009=,- RA
20180109_040000.002,0,ROAH,,,,0,20180109040000,-1,-1,-1,-1,330,-1,17,-1,-1,-1,-1,,9999,0,0,3,FEW 30   BKN 35   BKN 120,1,15,1,7,1018,ROAH 090400Z 33017KT 9999 FEW030 BKN035 BKN120 15/07 Q1018 RMK     1CU030 5SC035 7AC120 A3006 MOD ICE OBS AT 0336Z 33NM FM E           TO SE NHC BTN 10000FT AND FL200 C130=,
20180109_043000.001,0,ROAH,,,,0,20180109040000,-1,-1,-1,-1,330,-1,17,-1,-1,-1,-1,,9999,0,0,3,FEW 30   BKN 35   BKN 120,1,15,1,7,1018,ROAH 090430Z 33017KT 9999 FEW030 BKN035 BKN120 15/07 Q1018 RMK     1CU030 5SC035 7AC120 A3007=,
20180109_050000.002,0,ROAH,,,,0,20180109050000,-1,-1,-1,-1,330,-1,17,-1,-1,-1,-1,,9999,0,0,3,FEW 30   SCT 35   BKN 110,1,15,1,6,1018,ROAH 090500Z 33017KT 9999 FEW030 SCT035 BKN110 15/06 Q1018 RMK     1CU030 4SC035 7AC110 A3006=,
20180109_053000.001,0,ROAH,,,,0,20180109050000,-1,-1,-1,-1,330,-1,16,-1,-1,-1,-1,,9999,0,0,2,SCT 32   BKN 40,1,15,1,7,1018,ROAH 090530Z 33016KT 9999 SCT032 BKN040 15/07 Q1018 RMK 3CU032     6SC040 A3006=,
20180109_060000.002,0,ROAH,,,,0,20180109060000,-1,-1,-1,-1,330,-1,19,-1,-1,-1,-1,,9999,0,0,3,FEW 30   SCT 38   BKN 110,1,15,1,5,1017,ROAH 090600Z 33019KT 9999 FEW030 SCT038 BKN110 15/05 Q1017 RMK     1CU030 3SC038 7AC110 A3005=,
20180109_063000.001,0,ROAH,,,,0,20180109060000,-1,-1,-1,-1,340,-1,18,-1,-1,-1,-1,,9999,0,0,2,SCT 31   BKN 43,1,14,1,7,1018,ROAH 090630Z 34018KT 9999 SCT031 BKN043 14/07 Q1018 RMK 3CU031     6SC043 A3006=,
20180109_070000.002,0,ROAH,,,,0,20180109070000,-1,-1,-1,-1,330,-1,17,-1,-1,-1,-1,,9999,0,0,2,SCT 31   BKN 45,1,14,1,6,1018,ROAH 090700Z 33017KT 9999 SCT031 BKN045 14/06 Q1018 RMK 3CU031     6SC045 A3007=,
20180109_073000.001,0,ROAH,,,,0,20180109070000,-1,-1,-1,-1,340,-1,17,-1,-1,-1,-1,,9999,0,0,2,SCT 32   BKN 42,1,14,1,6,1018,ROAH 090730Z 34017KT 9999 SCT032 BKN042 14/06 Q1018 RMK 4CU032     6SC042 A3008=,
20180109_080000.002,0,ROAH,,,,0,20180109080000,-1,-1,-1,-1,340,-1,17,-1,-1,-1,-1,,9999,0,0,2,SCT 35   BKN 45,1,14,1,5,1019,ROAH 090800Z 34017KT 9999 SCT035 BKN045 14/05 Q1019 RMK 3CU035     5SC045 A3009=,
20180109_083000.001,0,ROAH,,,,0,20180109080000,-1,-1,-1,-1,340,-1,15,-1,-1,-1,-1,,9999,0,0,2,FEW 35   BKN 45,1,14,1,6,1019,ROAH 090830Z 34015KT 9999 FEW035 BKN045 14/06 Q1019 RMK 2CU035     6SC045 A3010=,
20180109_090000.002,0,ROAH,,,,0,20180109090000,-1,-1,-1,-1,340,-1,17,-1,-1,-1,-1,,9999,0,0,2,FEW 35   BKN 50,1,14,1,6,1019,ROAH 090900Z 34017KT 9999 FEW035 BKN050 14/06 Q1019 RMK 2CU035     5SC050 A3012=,
20180109_093000.001,0,ROAH,,,,0,20180109090000,-1,-1,-1,-1,340,-1,16,-1,-1,-1,-1,,9999,0,0,3,FEW 35   BKN 50   OVC 110,1,14,1,6,1020,ROAH 090930Z 34016KT 9999 FEW035 BKN050 OVC110 14/06 Q1020 RMK     2CU035 5SC050 8AS110 A3013=,
20180109_100000.002,0,ROAH,,,,0,20180109100000,-1,-1,-1,-1,340,-1,18,-1,-1,-1,-1,,9999,0,0,3,FEW 40   SCT 50   OVC 100,1,14,1,6,1020,ROAH 091000Z 34018KT 9999 FEW040 SCT050 OVC100 14/06 Q1020 RMK     2SC040 4SC050 8AS100 A3013=,
20180109_103000.001,0,ROAH,,,,0,20180109100000,-1,-1,-1,-1,340,-1,15,-1,-1,-1,-1,,9999,0,0,2,SCT 45   OVC 100,1,14,1,6,1020,ROAH 091030Z 34015KT 9999 SCT045 OVC100 14/06 Q1020 RMK 3SC045     8AS100 A3015=,
20180109_110000.002,0,ROAH,,,,0,20180109110000,-1,-1,-1,-1,330,-1,16,-1,27,-1,-1,,9999,0,0,2,FEW 40   OVC 100,1,14,1,5,1021,ROAH 091100Z 33016G27KT 9999 FEW040 OVC100 14/05 Q1021 RMK     2SC040 8AS100 A3015=,
20180109_113000.001,0,ROAH,,,,0,20180109110000,-1,-1,-1,-1,340,-1,13,-1,-1,-1,-1,,9999,0,0,2,FEW 40   OVC 100,1,14,1,6,1020,ROAH 091130Z 34013KT 9999 FEW040 OVC100 14/06 Q1020 RMK 1SC040     8AS100 A3015=,
20180109_120000.002,0,ROAH,,,,0,20180109120000,-1,-1,-1,-1,330,-1,13,-1,-1,-1,-1,,9999,0,0,2,FEW 40   OVC 100,1,14,1,7,1021,ROAH 091200Z 33013KT 9999 FEW040 OVC100 14/07 Q1021 RMK 2SC040     8AS100 A3017=,
20180109_123000.001,0,ROAH,,,,0,20180109120000,-1,-1,-1,-1,340,-1,14,-1,-1,-1,-1,,9999,0,0,3,FEW 30   BKN 40   OVC 100,1,14,1,7,1021,ROAH 091230Z 34014KT 9999 FEW030 BKN040 OVC100 14/07 Q1021 RMK     1CU030 5SC040 8AS100 A3016 MOD TURB OBS AT 1213Z 30NM N           ROAH BTN 11000FT AND 13000FT B773=,
20180109_130000.002,0,ROAH,,,,0,20180109130000,-1,-1,-1,-1,340,-1,15,-1,-1,-1,-1,,9999,0,0,2,BKN 40   OVC 100,1,14,1,6,1021,ROAH 091300Z 34015KT 9999 BKN040 OVC100 14/06 Q1021 RMK 5SC040     8AS100 A3015=,
20180109_133000.001,0,ROAH,,,,0,20180109130000,-1,-1,-1,-1,350,-1,16,-1,-1,-1,-1,,9999,0,0,2,BKN 40   OVC 100,1,14,1,5,1021,ROAH 091330Z 35016KT 9999 BKN040 OVC100 14/05 Q1021 RMK 5SC040     8AS100 A3016=,
20180109_140000.002,0,ROAH,,,,0,20180109140000,-1,-1,-1,-1,340,-1,14,-1,-1,-1,-1,,9999,0,0,2,FEW 40   OVC 100,1,14,1,4,1020,ROAH 091400Z 34014KT 9999 FEW040 OVC100 14/04 Q1020 RMK 1SC040     8AS100 A3014=,
20180109_143000.001,0,ROAH,,,,0,20180109140000,-1,-1,-1,-1,340,-1,13,-1,-1,-1,-1,,9999,0,0,2,FEW 40   OVC 100,1,14,1,6,1021,ROAH 091430Z 34013KT 9999 FEW040 OVC100 14/06 Q1021 RMK 2SC040     8AS100 A3016=,
20180109_150000.002,0,ROAH,,,,0,20180109150000,-1,-1,-1,-1,330,-1,11,-1,-1,-1,-1,,9999,0,0,2,FEW 40   OVC 100,1,14,1,4,1021,ROAH 091500Z 33011KT 9999 FEW040 OVC100 14/04 Q1021 RMK 1SC040     8AS100 A3016=,
20180109_153000.001,0,ROAH,,,,0,20180109150000,-1,-1,-1,-1,340,-1,10,-1,-1,-1,-1,,9999,0,0,2,FEW 40   OVC 100,1,14,1,6,1021,ROAH 091530Z 34010KT 9999 FEW040 OVC100 14/06 Q1021 RMK 1SC040     8AS100 A3015=,
20180109_160000.002,0,ROAH,,,,0,20180109160000,-1,-1,-1,-1,340,-1,11,-1,-1,-1,-1,,9999,0,0,2,FEW 40   OVC 100,1,14,1,6,1021,ROAH 091600Z 34011KT 9999 FEW040 OVC100 14/06 Q1021 RMK 2SC040     8AS100 A3015=,
20180109_163000.001,0,ROAH,,,,0,20180109160000,-1,-1,-1,-1,340,-1,13,-1,-1,-1,-1,,9999,0,0,2,FEW 40   OVC 100,1,14,1,6,1021,ROAH 091630Z 34013KT 9999 FEW040 OVC100 14/06 Q1021 RMK 1SC040     8AS100 A3015=,
20180109_170000.002,0,ROAH,,,,0,20180109170000,-1,-1,-1,-1,340,-1,12,-1,-1,-1,-1,,9999,0,0,2,SCT 45   OVC 100,1,14,1,6,1021,ROAH 091700Z 34012KT 9999 SCT045 OVC100 14/06 Q1021 RMK 3SC045     8AS100 A3016=,
20180109_173000.001,0,ROAH,,,,0,20180109170000,-1,-1,-1,-1,340,-1,12,-1,-1,-1,-1,,9999,0,0,2,BKN 40   OVC 100,1,14,1,6,1021,ROAH 091730Z 34012KT 9999 BKN040 OVC100 14/06 Q1021 RMK 5SC040     8AS100 A3016=,
20180109_180000.002,0,ROAH,,,,0,20180109180000,-1,-1,-1,-1,340,-1,13,-1,-1,-1,-1,,9999,0,0,2,BKN 40   OVC 100,1,14,1,6,1020,ROAH 091800Z 34013KT 9999 BKN040 OVC100 14/06 Q1020 RMK 6SC040     8AS100 A3015=,
20180109_183000.001,0,ROAH,,,,0,20180109180000,-1,-1,-1,-1,330,-1,12,-1,-1,-1,-1,,9999,0,0,2,BKN 40   OVC 100,1,15,1,6,1021,ROAH 091830Z 33012KT 9999 BKN040 OVC100 15/06 Q1021 RMK 5SC040     8AS100 A3016=,
20180109_190000.003,0,ROAH,,,,0,20180109190000,-1,-1,-1,-1,330,-1,14,-1,-1,-1,-1,,9999,0,0,2,BKN 40   OVC 100,1,14,1,6,1021,ROAH 091900Z 33014KT 9999 BKN040 OVC100 14/06 Q1021 RMK 5SC040     8AS100 A3015=,
20180109_193000.001,0,ROAH,,,,0,20180109190000,-1,-1,-1,-1,330,-1,15,-1,-1,-1,-1,,9999,0,0,3,SCT 40   BKN 50   OVC 100,1,15,1,7,1021,ROAH 091930Z 33015KT 9999 SCT040 BKN050 OVC100 15/07 Q1021 RMK     3SC040 5SC050 8AS100 A3016=,
20180109_200000.002,0,ROAH,,,,0,20180109200000,-1,-1,-1,-1,330,-1,15,-1,-1,-1,-1,,9999,0,0,2,FEW 40   OVC 100,1,15,1,4,1021,ROAH 092000Z 33015KT 9999 FEW040 OVC100 15/04 Q1021 RMK 2SC040     8AS100 A3016=,
20180109_203000.001,0,ROAH,,,,0,20180109200000,-1,-1,-1,-1,330,-1,17,-1,-1,-1,-1,,9999,0,0,3,FEW 40   BKN 50   OVC 100,1,14,1,6,1021,ROAH 092030Z 33017KT 9999 FEW040 BKN050 OVC100 14/06 Q1021 RMK     2SC040 5SC050 8AS100 A3016=,
20180109_210000.002,0,ROAH,,,,0,20180109210000,-1,-1,-1,-1,330,-1,16,-1,-1,-1,-1,,9999,0,0,3,FEW 40   SCT 50   OVC 100,1,14,1,6,1021,ROAH 092100Z 33016KT 9999 FEW040 SCT050 OVC100 14/06 Q1021 RMK     1SC040 3SC050 8AS100 A3017=,
20180109_213000.001,0,ROAH,,,,0,20180109210000,-1,-1,-1,-1,330,-1,17,-1,-1,-1,-1,,9999,0,0,3,FEW 40   SCT 50   OVC 100,1,14,1,6,1022,ROAH 092130Z 33017KT 9999 FEW040 SCT050 OVC100 14/06 Q1022 RMK     1SC040 3SC050 8AS100 A3019=,
20180109_220000.002,0,ROAH,,,,0,20180109220000,-1,-1,-1,-1,330,-1,16,-1,-1,-1,-1,,9999,0,0,3,FEW 40   BKN 50   OVC 100,1,14,1,5,1022,ROAH 092200Z 33016KT 9999 FEW040 BKN050 OVC100 14/05 Q1022 RMK     1SC040 5SC050 8AS100 A3019=,
20180109_223000.002,0,ROAH,,,,0,20180109220000,-1,-1,-1,-1,330,-1,15,-1,-1,-1,-1,,9999,0,0,2,FEW 40   OVC 100,1,14,1,3,1023,ROAH 092230Z 33015KT 9999 FEW040 OVC100 14/03 Q1023 RMK 1SC040     8AS100 A3021=,
20180109_230000.002,0,ROAH,,,,0,20180109230000,-1,-1,-1,-1,340,-1,15,-1,-1,-1,-1,,9999,0,0,3,FEW 40   BKN 50   OVC 100,1,14,1,6,1022,ROAH 092300Z 34015KT 9999 FEW040 BKN050 OVC100 14/06 Q1022 RMK     1SC040 5SC050 8AS100 A3021=,
20180109_233000.001,0,ROAH,,,,0,20180109230000,-1,-1,-1,-1,340,-1,15,-1,-1,-1,-1,,9999,0,0,3,FEW 40   SCT 50   OVC 100,1,15,1,5,1023,ROAH 092330Z 34015KT 9999 FEW040 SCT050 OVC100 15/05 Q1023 RMK     2SC040 4SC050 8AS100 A3021=,
20180110_000000.002,0,ROAH,,,,0,20180110000000,-1,-1,-1,-1,330,-1,14,-1,-1,-1,-1,,9999,0,0,3,FEW 40   SCT 50   BKN 100,1,15,1,4,1023,ROAH 100000Z 33014KT 9999 FEW040 SCT050 BKN100 15/04 Q1023 RMK     2SC040 4SC050 7AS100 A3022=,
20180110_003000.001,0,ROAH,,,,0,20180110000000,-1,-1,-1,-1,330,-1,14,-1,-1,-1,-1,,9999,0,0,3,FEW 40   SCT 50   BKN 100,1,15,1,6,1023,ROAH 100030Z 33014KT 9999 FEW040 SCT050 BKN100 15/06 Q1023 RMK     2SC040 4SC050 7AS100 A3022=,
20180110_010000.002,0,ROAH,,,,0,20180110010000,-1,-1,-1,-1,330,-1,14,-1,-1,-1,-1,,9999,0,0,3,FEW 40   SCT 50   BKN 140,1,15,1,4,1023,ROAH 100100Z 33014KT 9999 FEW040 SCT050 BKN140 15/04 Q1023 RMK     1SC040 3SC050 6AC140 A3023=,
20180110_013000.001,0,ROAH,,,,0,20180110010000,-1,-1,-1,-1,340,-1,14,-1,-1,-1,-1,,9999,0,0,3,FEW 38   BKN 50   BKN 120,1,15,1,6,1023,ROAH 100130Z 34014KT 9999 FEW038 BKN050 BKN120 15/06 Q1023 RMK     2SC038 5SC050 6AC120 A3022=,
20180110_020000.002,0,ROAH,,,,0,20180110020000,-1,-1,-1,-1,340,-1,15,-1,-1,-1,-1,,9999,0,0,3,FEW 38   BKN 50   BKN 120,1,15,1,5,1023,ROAH 100200Z 34015KT 9999 FEW038 BKN050 BKN120 15/05 Q1023 RMK     2SC038 5SC050 6AC120 A3022=,
20180110_023000.001,0,ROAH,,,,0,20180110020000,-1,-1,-1,-1,340,-1,15,-1,-1,-1,-1,,9999,0,0,3,FEW 40   SCT 50   BKN 120,1,16,1,6,1022,ROAH 100230Z 34015KT 9999 FEW040 SCT050 BKN120 16/06 Q1022 RMK     2SC040 3SC050 6AC120 A3020=,
20180110_030000.002,0,ROAH,,,,0,20180110030000,-1,-1,-1,-1,330,-1,15,-1,-1,-1,-1,,9999,0,0,2,FEW 39   BKN 50,1,15,1,5,1023,ROAH 100300Z 33015KT 9999 FEW039 BKN050 15/05 Q1023 RMK 2SC039     6SC050 A3023=,
20180110_033000.001,0,ROAH,,,,0,20180110030000,-1,-1,-1,-1,330,-1,17,-1,-1,-1,-1,,9999,0,0,2,FEW 38   BKN 60,1,15,1,5,1022,ROAH 100330Z 33017KT 9999 FEW038 BKN060 15/05 Q1022 RMK 2SC038     6SC060 A3019 P/FR=,
20180110_040000.003,0,ROAH,,,,0,20180110040000,-1,-1,-1,-1,330,-1,15,-1,-1,-1,-1,,9999,0,0,2,FEW 38   BKN 50,1,15,1,5,1022,ROAH 100400Z 33015KT 9999 FEW038 BKN050 15/05 Q1022 RMK 2SC038     6SC050 A3019=,
20180110_043000.001,0,ROAH,,,,0,20180110040000,-1,-1,-1,-1,330,-1,16,-1,-1,-1,-1,,9999,0,0,2,FEW 35   BKN 50,1,15,1,5,1021,ROAH 100430Z 33016KT 9999 FEW035 BKN050 15/05 Q1021 RMK 2SC035     6SC050 A3015 P/FR=,
20180110_050000.002,0,ROAH,,,,0,20180110050000,-1,-1,-1,-1,320,-1,16,-1,-1,-1,-1,,9999,0,0,3,SCT 40   BKN 50   BKN 140,1,15,1,5,1021,ROAH 100500Z 32016KT 9999 SCT040 BKN050 BKN140 15/05 Q1021 RMK     4SC040 6SC050 7AC140 A3018=,
20180110_053000.001,0,ROAH,,,,0,20180110050000,-1,-1,-1,-1,330,-1,16,-1,-1,-1,-1,,9999,0,0,2,SCT 40   BKN 60,1,16,1,6,1021,ROAH 100530Z 33016KT 9999 SCT040 BKN060 16/06 Q1021 RMK 3SC040     5SC060 A3017=,
20180110_060000.002,0,ROAH,,,,0,20180110060000,-1,-1,-1,-1,330,-1,17,-1,-1,-1,-1,,9999,0,0,2,SCT 40   BKN 60,1,15,1,5,1021,ROAH 100600Z 33017KT 9999 SCT040 BKN060 15/05 Q1021 RMK 4SC040     6SC060 A3016=,
20180110_063000.001,0,ROAH,,,,0,20180110060000,-1,-1,-1,-1,340,-1,17,-1,-1,-1,-1,,9999,0,0,2,SCT 40   BKN 60,1,15,1,5,1021,ROAH 100630Z 34017KT 9999 SCT040 BKN060 15/05 Q1021 RMK 4SC040     6SC060 A3016=,
20180110_070000.002,0,ROAH,,,,0,20180110070000,-1,-1,-1,-1,340,-1,20,-1,-1,-1,-1,,9999,0,0,2,SCT 40   BKN 60,1,15,1,5,1021,ROAH 100700Z 34020KT 9999 SCT040 BKN060 15/05 Q1021 RMK 4SC040     6SC060 A3016=,
20180110_073000.001,0,ROAH,,,,0,20180110070000,-1,-1,-1,-1,330,-1,18,-1,-1,-1,-1,,9999,0,0,2,BKN 45   BKN 60,1,15,1,5,1021,ROAH 100730Z 33018KT 9999 BKN045 BKN060 15/05 Q1021 RMK 5SC045     6SC060 A3017=,
20180110_080000.002,0,ROAH,,,,0,20180110080000,-1,-1,-1,-1,340,-1,20,-1,-1,-1,-1,,9999,0,0,2,BKN 40   BKN 60,1,15,1,5,1022,ROAH 100800Z 34020KT 9999 BKN040 BKN060 15/05 Q1022 RMK 5SC040     7SC060 A3018=,
20180110_083000.001,0,ROAH,,,,0,20180110080000,-1,-1,-1,-1,330,-1,20,-1,-1,-1,-1,,9999,0,0,2,SCT 45   BKN 50,1,14,1,4,1022,ROAH 100830Z 33020KT 9999 SCT045 BKN050 14/04 Q1022 RMK 3SC045     7SC050 A3018=,
20180110_090000.002,0,ROAH,,,,0,20180110090000,-1,-1,-1,-1,330,-1,19,-1,-1,-1,-1,,9999,0,0,2,BKN 42   BKN 60,1,14,1,4,1022,ROAH 100900Z 33019KT 9999 BKN042 BKN060 14/04 Q1022 RMK 5SC042     7SC060 A3020=,
20180110_093000.001,0,ROAH,,,,0,20180110090000,-1,-1,-1,-1,330,-1,17,-1,-1,-1,-1,,9999,0,0,2,SCT 45   BKN 50,1,14,1,3,1022,ROAH 100930Z 33017KT 9999 SCT045 BKN050 14/03 Q1022 RMK 4SC045     7SC050 A3020=,
20180110_100000.002,0,ROAH,,,,0,20180110100000,-1,-1,-1,-1,340,-1,18,-1,-1,-1,-1,,9999,0,0,2,SCT 45   BKN 50,1,14,1,4,1022,ROAH 101000Z 34018KT 9999 SCT045 BKN050 14/04 Q1022 RMK 4SC045     6SC050 A3021=,
20180110_103000.001,0,ROAH,,,,0,20180110100000,-1,-1,-1,-1,340,-1,18,-1,-1,-1,-1,,9999,0,0,2,SCT 41   BKN 50,1,14,1,5,1023,ROAH 101030Z 34018KT 9999 SCT041 BKN050 14/05 Q1023 RMK 4SC041     6SC050 A3021=,
20180110_110000.002,0,ROAH,,,,0,20180110110000,-1,-1,-1,-1,340,-1,20,-1,-1,-1,-1,,9999,0,0,3,FEW 40   SCT 50   BKN 180,1,14,1,3,1023,ROAH 101100Z 34020KT 9999 FEW040 SCT050 BKN180 14/03 Q1023 RMK     2SC040 4SC050 7AC180 A3022 MOD TURB OBS AT 1045Z 30NM NNW           NHC BTN 13000FT AND 16000FT B738=,
20180110_113000.001,0,ROAH,,,,0,20180110110000,-1,-1,-1,-1,340,-1,19,-1,-1,-1,-1,,9999,0,0,3,FEW 40   BKN 50   BKN 180,1,14,1,4,1023,ROAH 101130Z 34019KT 9999 FEW040 BKN050 BKN180 14/04 Q1023 RMK     2SC040 5SC050 7AC180 A3023=,
20180110_120000.002,0,ROAH,,,,0,20180110120000,-1,-1,-1,-1,340,-1,21,-1,-1,-1,-1,,9999,0,0,2,FEW 40   BKN 180,1,14,1,2,1024,ROAH 101200Z 34021KT 9999 FEW040 BKN180 14/02 Q1024 RMK 2SC040     7AC180 A3024 MOD TURB OBS AT 1136Z 25NM NNW NHC BTN           13000FT AND 15000FT B738=,
20180110_123000.001,0,ROAH,,,,0,20180110120000,-1,-1,-1,-1,340,-1,18,-1,-1,-1,-1,,9999,0,0,2,FEW 40   BKN 180,1,14,1,4,1024,ROAH 101230Z 34018KT 9999 FEW040 BKN180 14/04 Q1024 RMK 2SC040     7AC180 A3024=,
20180110_130000.002,0,ROAH,,,,0,20180110130000,-1,-1,-1,-1,330,-1,19,-1,-1,-1,-1,,9999,0,0,2,FEW 43   BKN 170,1,14,1,2,1024,ROAH 101300Z 33019KT 9999 FEW043 BKN170 14/02 Q1024 RMK 2SC043     7AC170 A3024=,
20180110_133000.001,0,ROAH,,,,0,20180110130000,-1,-1,-1,-1,330,-1,19,-1,-1,-1,-1,,9999,0,0,3,FEW 43   SCT 50   BKN 170,1,14,1,1,1024,ROAH 101330Z 33019KT 9999 FEW043 SCT050 BKN170 14/01 Q1024 RMK     1SC043 3SC050 7AC170 A3024=,
20180110_140000.002,0,ROAH,,,,0,20180110140000,-1,-1,-1,-1,340,-1,15,-1,-1,-1,-1,,9999,0,0,2,FEW 43   BKN 170,1,14,1,3,1023,ROAH 101400Z 34015KT 9999 FEW043 BKN170 14/03 Q1023 RMK 1SC043     7AC170 A3023=,
20180110_143000.001,0,ROAH,,,,0,20180110140000,-1,-1,-1,-1,350,-1,18,-1,-1,-1,-1,,9999,0,0,3,FEW 43   SCT 50   BKN 170,1,14,1,3,1023,ROAH 101430Z 35018KT 9999 FEW043 SCT050 BKN170 14/03 Q1023 RMK     2SC043 4SC050 7AC170 A3023=,
20180110_150000.002,0,ROAH,,,,0,20180110150000,-1,-1,-1,-1,340,-1,19,-1,-1,-1,-1,,9999,0,0,3,FEW 43   SCT 60   BKN 170,1,14,1,3,1023,ROAH 101500Z 34019KT 9999 FEW043 SCT060 BKN170 14/03 Q1023 RMK     1SC043 4SC060 7AC170 A3022=,
20180110_153000.001,0,ROAH,,,,0,20180110150000,-1,-1,-1,-1,340,-1,19,-1,-1,-1,-1,,9999,0,0,2,FEW 45   SCT 170,1,14,1,2,1023,ROAH 101530Z 34019KT 9999 FEW045 SCT170 14/02 Q1023 RMK 1SC045     3AC170 A3022=,
20180110_160000.002,0,ROAH,,,,0,20180110160000,-1,-1,-1,-1,340,-1,16,-1,-1,-1,-1,,9999,0,0,2,FEW 40   SCT 48,1,14,1,6,1023,ROAH 101600Z 34016KT 9999 FEW040 SCT048 14/06 Q1023 RMK 2SC040     4SC048 A3023=,
20180110_163000.001,0,ROAH,,,,0,20180110160000,-1,-1,-1,-1,340,-1,19,-1,-1,-1,-1,,9999,0,0,2,SCT 40   BKN 48,1,14,1,4,1023,ROAH 101630Z 34019KT 9999 SCT040 BKN048 14/04 Q1023 RMK 4SC040     7SC048 A3023=,
20180110_170000.002,0,ROAH,,,,0,20180110170000,-1,-1,-1,-1,330,-1,19,-1,-1,-1,-1,,9999,0,0,2,FEW 43   BKN 50,1,14,1,3,1023,ROAH 101700Z 33019KT 9999 FEW043 BKN050 14/03 Q1023 RMK 2SC043     7SC050 A3022=,
20180110_173000.001,0,ROAH,,,,0,20180110170000,-1,-1,-1,-1,340,-1,19,-1,-1,-1,-1,,9999,0,0,2,FEW 43   BKN 60,1,14,1,3,1023,ROAH 101730Z 34019KT 9999 FEW043 BKN060 14/03 Q1023 RMK 2SC043     7SC060 A3023=,
20180110_180000.002,0,ROAH,,,,0,20180110180000,-1,-1,-1,-1,340,-1,21,-1,31,-1,-1,,9999,0,0,2,FEW 43   BKN 160,1,14,1,3,1023,ROAH 101800Z 34021G31KT 9999 FEW043 BKN160 14/03 Q1023 RMK     1SC043 7AC160 A3023=,
20180110_183000.001,0,ROAH,,,,0,20180110180000,-1,-1,-1,-1,340,-1,19,-1,-1,-1,-1,,9999,0,0,3,FEW 43   SCT 60   BKN 160,1,13,1,3,1023,ROAH 101830Z 34019KT 9999 FEW043 SCT060 BKN160 13/03 Q1023 RMK     1SC043 3SC060 7AC160 A3023=,
20180110_190000.002,0,ROAH,,,,0,20180110190000,-1,-1,-1,-1,340,-1,17,-1,-1,-1,-1,,9999,0,0,3,FEW 45   SCT 60   BKN 160,1,13,1,3,1023,ROAH 101900Z 34017KT 9999 FEW045 SCT060 BKN160 13/03 Q1023 RMK     1SC045 3SC060 7AC160 A3022=,
20180110_193000.001,0,ROAH,,,,0,20180110190000,-1,-1,-1,-1,350,-1,17,-1,-1,-1,-1,,9999,0,0,2,SCT 39   BKN 50,1,13,1,4,1023,ROAH 101930Z 35017KT 9999 SCT039 BKN050 13/04 Q1023 RMK 3SC039     6SC050 A3022=,
20180110_200000.002,0,ROAH,,,,0,20180110200000,-1,-1,-1,-1,340,-1,18,-1,-1,-1,-1,,9999,0,0,2,SCT 45   BKN 60,1,13,1,3,1023,ROAH 102000Z 34018KT 9999 SCT045 BKN060 13/03 Q1023 RMK 3SC045     7SC060 A3023=,
20180110_203000.001,0,ROAH,,,,0,20180110200000,-1,-1,-1,-1,340,-1,19,-1,-1,-1,-1,,9999,0,0,2,FEW 45   BKN 50,1,13,1,3,1024,ROAH 102030Z 34019KT 9999 FEW045 BKN050 13/03 Q1024 RMK 2SC045     7SC050 A3024=,
20180110_210000.002,0,ROAH,,,,0,20180110210000,-1,-1,-1,-1,340,-1,18,-1,28,-1,-1,,9999,0,0,2,FEW 40   BKN 70,1,13,1,3,1024,ROAH 102100Z 34018G28KT 9999 FEW040 BKN070 13/03 Q1024 RMK     2SC040 7AC070 A3025=,
20180110_213000.001,0,ROAH,,,,0,20180110210000,-1,-1,-1,-1,340,-1,17,-1,-1,-1,-1,,9999,0,0,2,SCT 40   BKN 50,1,13,1,2,1024,ROAH 102130Z 34017KT 9999 SCT040 BKN050 13/02 Q1024 RMK 3SC040     7SC050 A3026=,
20180110_220000.002,0,ROAH,,,,0,20180110220000,-1,-1,-1,-1,340,-1,17,-1,-1,-1,-1,,9999,0,1,2,SCT 40   BKN 50,1,13,1,3,1024,ROAH 102200Z 34017KT 9999 -RA SCT040 BKN050 13/03 Q1024 RMK     3SC040 7SC050 A3026=,- RA
20180110_223000.002,0,ROAH,,,,0,20180110220000,-1,-1,-1,-1,350,-1,17,-1,-1,-1,-1,,9999,0,0,2,SCT 40   BKN 50,1,13,1,3,1025,ROAH 102230Z 35017KT 9999 SCT040 BKN050 13/03 Q1025 RMK 3SC040     7SC050 A3027=,
20180110_230000.003,0,ROAH,,,,0,20180110230000,-1,-1,-1,-1,350,-1,17,-1,-1,-1,-1,,9999,0,0,2,SCT 40   BKN 60,1,13,1,3,1025,ROAH 102300Z 35017KT 9999 SCT040 BKN060 13/03 Q1025 RMK 3SC040     7SC060 A3028=,
20180110_233000.001,0,ROAH,,,,0,20180110230000,-1,-1,-1,-1,340,-1,15,-1,-1,-1,-1,,9999,0,0,2,FEW 40   BKN 60,1,13,1,3,1025,ROAH 102330Z 34015KT 9999 FEW040 BKN060 13/03 Q1025 RMK 2SC040     7SC060 A3028=,
20180111_000000.002,0,ROAH,,,,0,20180111000000,-1,-1,-1,-1,350,-1,14,-1,-1,-1,-1,,9999,0,0,2,SCT 45   BKN 60,1,13,1,3,1025,ROAH 110000Z 35014KT 9999 SCT045 BKN060 13/03 Q1025 RMK 3SC045     6SC060 A3027=,
20180111_003000.001,0,ROAH,,,,0,20180111000000,-1,-1,-1,-1,350,-1,16,-1,-1,-1,-1,,9999,0,0,2,SCT 40   BKN 60,1,13,1,3,1026,ROAH 110030Z 35016KT 9999 SCT040 BKN060 13/03 Q1026 RMK 3SC040     6SC060 A3030 P/RR=,
20180111_010000.002,0,ROAH,,,,0,20180111010000,-1,-1,-1,-1,330,-1,15,-1,-1,-1,-1,,9999,0,0,2,SCT 40   BKN 50,1,14,1,4,1026,ROAH 110100Z 33015KT 9999 SCT040 BKN050 14/04 Q1026 RMK 4SC040     6SC050 A3031=,
20180111_013000.001,0,ROAH,,,,0,20180111010000,-1,-1,-1,-1,330,-1,14,-1,-1,-1,-1,,9999,0,1,2,BKN 39   BKN 50,1,13,1,4,1026,ROAH 110130Z 33014KT 9999 -RA BKN039 BKN050 13/04 Q1026 RMK     5SC039 7SC050 A3031=,- RA
20180111_020000.002,0,ROAH,,,,0,20180111020000,-1,-1,-1,-1,350,-1,14,-1,-1,-1,-1,,9999,0,0,2,SCT 40   BKN 60,1,14,1,4,1025,ROAH 110200Z 35014KT 9999 SCT040 BKN060 14/04 Q1025 RMK 3SC040     7SC060 A3028=,
20180111_023000.001,0,ROAH,,,,0,20180111020000,-1,-1,-1,-1,340,-1,15,-1,-1,-1,-1,,9999,0,0,2,SCT 45   BKN 70,1,15,1,2,1025,ROAH 110230Z 34015KT 9999 SCT045 BKN070 15/02 Q1025 RMK 3SC045     7AC070 A3028=,
20180111_030000.001,0,ROAH,,,,0,20180111030000,-1,-1,-1,-1,340,-1,15,-1,-1,-1,-1,,9999,0,0,2,SCT 45   BKN 50,1,14,1,2,1025,ROAH 110300Z 34015KT 9999 SCT045 BKN050 14/02 Q1025 RMK 3SC045     7SC050 A3027=,
20180111_033000.001,0,ROAH,,,,0,20180111030000,-1,-1,-1,-1,340,-1,16,-1,-1,-1,-1,,9999,0,0,1,SCT 45,1,15,1,2,1024,ROAH 110330Z 34016KT 9999 SCT045 15/02 Q1024 RMK 3SC045 A3025=,
20180111_040000.002,0,ROAH,,,,0,20180111040000,-1,-1,-1,-1,340,-1,16,-1,-1,-1,-1,,9999,0,0,2,SCT 40   SCT 50,1,15,1,3,1024,ROAH 110400Z 34016KT 9999 SCT040 SCT050 15/03 Q1024 RMK 3SC040     4SC050 A3024=,
20180111_043000.001,0,ROAH,,,,0,20180111040000,-1,-1,-1,-1,340,-1,20,-1,-1,-1,-1,,9999,0,0,2,FEW 35   SCT 50,1,14,1,4,1024,ROAH 110430Z 34020KT 9999 FEW035 SCT050 14/04 Q1024 RMK 2CU035     4SC050 A3025=,
20180111_050000.002,0,ROAH,,,,0,20180111050000,-1,-1,-1,-1,340,-1,18,-1,-1,-1,-1,,9999,0,0,2,FEW 35   BKN 50,1,14,1,4,1023,ROAH 110500Z 34018KT 9999 FEW035 BKN050 14/04 Q1023 RMK 2CU035     5SC050 A3023=,
20180111_053000.000,0,ROAH,,,,0,20180111050000,-1,-1,-1,-1,340,-1,19,-1,-1,-1,-1,,9999,0,0,2,SCT 38   BKN 50,1,14,1,5,1023,ROAH 110530Z 34019KT 9999 SCT038 BKN050 14/05 Q1023 RMK 3CU038     5SC050 A3023=,
20180111_060000.002,0,ROAH,,,,0,20180111060000,-1,-1,-1,-1,340,-1,19,-1,-1,-1,-1,,9999,0,0,2,SCT 38   BKN 50,1,14,1,3,1023,ROAH 110600Z 34019KT 9999 SCT038 BKN050 14/03 Q1023 RMK 3CU038     5SC050 A3021=,
20180111_063000.001,0,ROAH,,,,0,20180111060000,-1,-1,-1,-1,340,-1,19,-1,-1,-1,-1,,9999,0,0,2,SCT 38   SCT 50,1,14,1,4,1023,ROAH 110630Z 34019KT 9999 SCT038 SCT050 14/04 Q1023 RMK 3CU038     4SC050 A3022=,
20180111_070000.002,0,ROAH,,,,0,20180111070000,-1,-1,-1,-1,340,-1,19,-1,-1,-1,-1,,9999,0,0,2,SCT 38   BKN 50,1,14,1,2,1023,ROAH 110700Z 34019KT 9999 SCT038 BKN050 14/02 Q1023 RMK 3CU038     6SC050 A3022=,
20180111_073000.001,0,ROAH,,,,0,20180111070000,-1,-1,-1,-1,340,-1,19,-1,-1,-1,-1,,9999,0,0,2,FEW 38   BKN 60,1,14,1,2,1023,ROAH 110730Z 34019KT 9999 FEW038 BKN060 14/02 Q1023 RMK 2CU038     5SC060 A3023=,
20180111_080000.002,0,ROAH,,,,0,20180111080000,-1,-1,-1,-1,340,-1,19,-1,-1,-1,-1,,9999,0,0,1,SCT 45,1,14,1,2,1023,ROAH 110800Z 34019KT 9999 SCT045 14/02 Q1023 RMK 3CU045 A3023=,
20180111_083000.001,0,ROAH,,,,0,20180111080000,-1,-1,-1,-1,340,-1,18,-1,-1,-1,-1,,9999,0,0,2,FEW 45   BKN 160,1,13,1,2,1023,ROAH 110830Z 34018KT 9999 FEW045 BKN160 13/02 Q1023 RMK 2SC045     6AC160 A3023=,
20180111_090000.002,0,ROAH,,,,0,20180111090000,-1,-1,-1,-1,350,-1,17,-1,-1,-1,-1,,9999,0,1,3,SCT 30   SCT 40   BKN 60,1,13,1,6,1023,ROAH 110900Z 35017KT 9999 -SHRA SCT030 SCT040 BKN060 13/06     Q1023 RMK 3CU030 4CU040 5SC060 A3023=,- RA SH
20180111_093000.001,0,ROAH,,,,0,20180111090000,-1,-1,-1,-1,360,-1,20,-1,-1,-1,-1,,9999,0,0,2,FEW 30   BKN 70,1,13,1,5,1024,ROAH 110930Z 36020KT 9999 FEW030 BKN070 13/05 Q1024 RMK 1CU030     5AC070 A3024=,
20180111_100000.002,0,ROAH,,,,0,20180111100000,-1,-1,-1,-1,350,-1,20,-1,-1,-1,-1,,9999,0,0,3,SCT 40   SCT 60   BKN 70,1,14,1,4,1024,ROAH 111000Z 35020KT 9999 SCT040 SCT060 BKN070 14/04 Q1024 RMK     3CU040 4SC060 5AC070 A3025=,
20180111_103000.001,0,ROAH,,,,0,20180111100000,-1,-1,-1,-1,350,-1,21,-1,-1,-1,-1,,9999,0,0,2,SCT 40   BKN 70,1,14,1,4,1025,ROAH 111030Z 35021KT 9999 SCT040 BKN070 14/04 Q1025 RMK 4CU040     5AC070 A3027=,
20180111_110000.002,0,ROAH,,,,0,20180111110000,-1,-1,-1,-1,340,-1,21,-1,-1,-1,-1,,9999,0,0,2,FEW 40   BKN 70,1,13,1,3,1025,ROAH 111100Z 34021KT 9999 FEW040 BKN070 13/03 Q1025 RMK 2CU040     6AC070 A3029=,
20180111_113000.001,0,ROAH,,,,0,20180111110000,-1,-1,-1,-1,350,-1,22,-1,-1,-1,-1,,9999,0,0,2,SCT 35   BKN 80,1,13,1,4,1026,ROAH 111130Z 35022KT 9999 SCT035 BKN080 13/04 Q1026 RMK 3CU035     6AC080 A3030=,
20180111_120000.002,0,ROAH,,,,0,20180111120000,-1,-1,-1,-1,360,-1,22,-1,-1,-1,-1,,9999,0,0,3,FEW 30   SCT 35   BKN 70,1,13,1,5,1026,ROAH 111200Z 36022KT 9999 FEW030 SCT035 BKN070 13/05 Q1026 RMK     1CU030 3CU035 6AC070 A3031=,
20180111_123000.001,0,ROAH,,,,0,20180111120000,-1,-1,-1,-1,360,-1,22,-1,-1,-1,-1,,9999,0,0,3,FEW 30   SCT 50   BKN 70,1,13,1,3,1026,ROAH 111230Z 36022KT 9999 FEW030 SCT050 BKN070 13/03 Q1026 RMK     1CU030 3SC050 6AC070 A3031=,
20180111_130000.002,0,ROAH,,,,0,20180111130000,-1,-1,-1,-1,350,-1,20,-1,-1,-1,-1,,9999,0,0,3,FEW 40   SCT 60   BKN 180,1,13,1,3,1026,ROAH 111300Z 35020KT 9999 FEW040 SCT060 BKN180 13/03 Q1026 RMK     2SC040 4SC060 7AC180 A3031=,
20180111_133000.001,0,ROAH,,,,0,20180111130000,-1,-1,-1,-1,350,-1,19,-1,30,-1,-1,,9999,0,0,3,SCT 40   BKN 50   BKN 70,1,13,1,2,1026,ROAH 111330Z 35019G30KT 9999 SCT040 BKN050 BKN070 13/02 Q1026     RMK 3SC040 5SC050 6AC070 A3031=,
20180111_140000.002,0,ROAH,,,,0,20180111140000,-1,-1,-1,-1,350,-1,20,-1,-1,-1,-1,,9999,0,0,2,SCT 40   BKN 50,1,13,1,1,1026,ROAH 111400Z 35020KT 9999 SCT040 BKN050 13/01 Q1026 RMK 3SC040     6SC050 A3031=,
20180111_143000.001,0,ROAH,,,,0,20180111140000,-1,-1,-1,-1,350,-1,21,-1,-1,-1,-1,,9999,0,0,3,FEW 40   SCT 50   BKN 70,1,13,1,2,1026,ROAH 111430Z 35021KT 9999 FEW040 SCT050 BKN070 13/02 Q1026 RMK     1SC040 3SC050 6AC070 A3031=,
20180111_150000.002,0,ROAH,,,,0,20180111150000,-1,-1,-1,-1,350,-1,19,-1,-1,-1,-1,,9999,0,0,3,FEW 40   SCT 50   BKN 70,1,13,1,2,1026,ROAH 111500Z 35019KT 9999 FEW040 SCT050 BKN070 13/02 Q1026 RMK     2SC040 4SC050 6AC070 A3031=,
20180111_153000.001,0,ROAH,,,,0,20180111150000,-1,-1,-1,-1,350,-1,19,-1,-1,-1,-1,,9999,0,0,3,FEW 40   SCT 50   BKN 70,1,13,1,1,1026,ROAH 111530Z 35019KT 9999 FEW040 SCT050 BKN070 13/01 Q1026 RMK     2SC040 3SC050 5AC070 A3031=,
20180111_160000.002,0,ROAH,,,,0,20180111160000,-1,-1,-1,-1,350,-1,19,-1,-1,-1,-1,,9999,0,0,3,FEW 40   SCT 50   BKN 70,1,13,1,2,1026,ROAH 111600Z 35019KT 9999 FEW040 SCT050 BKN070 13/02 Q1026 RMK     1SC040 3SC050 6AC070 A3031=,
20180111_163000.001,0,ROAH,,,,0,20180111160000,-1,-1,-1,-1,350,-1,19,-1,-1,-1,-1,,9999,0,0,2,FEW 40   BKN 70,1,12,1,3,1026,ROAH 111630Z 35019KT 9999 FEW040 BKN070 12/03 Q1026 RMK 2SC040     6AC070 A3030=,
20180111_170000.002,0,ROAH,,,,0,20180111170000,-1,-1,-1,-1,350,-1,20,-1,-1,-1,-1,,9999,0,1,2,FEW 40   BKN 70,1,12,1,3,1026,ROAH 111700Z 35020KT 9999 -SHRA FEW040 BKN070 12/03 Q1026 RMK     2SC040 6AC070 A3030=,- RA SH
20180111_173000.001,0,ROAH,,,,0,20180111170000,-1,-1,-1,-1,350,-1,22,-1,-1,-1,-1,,9999,0,0,3,FEW 35   SCT 40   BKN 50,1,13,1,4,1025,ROAH 111730Z 35022KT 9999 FEW035 SCT040 BKN050 13/04 Q1025 RMK     1CU035 4SC040 6SC050 A3028=,
20180111_180000.002,0,ROAH,,,,0,20180111180000,-1,-1,-1,-1,350,-1,23,-1,-1,-1,-1,,9999,0,0,2,FEW 40   BKN 80,1,12,1,2,1025,ROAH 111800Z 35023KT 9999 FEW040 BKN080 12/02 Q1025 RMK 2SC040     6AC080 A3028=,
20180111_183000.001,0,ROAH,,,,0,20180111180000,-1,-1,-1,-1,360,-1,21,-1,-1,-1,-1,,9999,0,0,3,SCT 35   SCT 50   BKN 70,1,12,1,4,1025,ROAH 111830Z 36021KT 9999 SCT035 SCT050 BKN070 12/04 Q1025 RMK     3CU035 4SC050 5AC070 A3028=,
20180111_190000.002,0,ROAH,,,,0,20180111190000,-1,-1,-1,-1,350,-1,21,-1,-1,-1,-1,,9999,0,0,3,FEW 35   SCT 50   BKN 70,1,12,1,3,1025,ROAH 111900Z 35021KT 9999 FEW035 SCT050 BKN070 12/03 Q1025 RMK     2CU035 3SC050 6AC070 A3028=,
20180111_193000.001,0,ROAH,,,,0,20180111190000,-1,-1,-1,-1,350,-1,19,-1,-1,-1,-1,,9999,0,0,2,SCT 45   BKN 60,1,13,1,2,1025,ROAH 111930Z 35019KT 9999 SCT045 BKN060 13/02 Q1025 RMK 4SC045     5SC060 A3028=,
20180111_200000.002,0,ROAH,,,,0,20180111200000,-1,-1,-1,-1,340,-1,18,-1,-1,-1,-1,,9999,0,0,2,SCT 45   BKN 60,1,13,1,2,1025,ROAH 112000Z 34018KT 9999 SCT045 BKN060 13/02 Q1025 RMK 3SC045     5SC060 A3029=,
20180111_203000.001,0,ROAH,,,,0,20180111200000,-1,-1,-1,-1,350,-1,20,-1,-1,-1,-1,,9999,0,0,3,FEW 35   SCT 40   BKN 70,1,12,1,4,1025,ROAH 112030Z 35020KT 9999 FEW035 SCT040 BKN070 12/04 Q1025 RMK     1CU035 4SC040 6AC070 A3028=,
20180111_210000.002,0,ROAH,,,,0,20180111210000,-1,-1,-1,-1,350,-1,19,-1,32,-1,-1,,9999,0,1,3,SCT 30   SCT 40   BKN 70,1,11,1,5,1026,ROAH 112100Z 35019G32KT 9999 SHRA SCT030 SCT040 BKN070 11/05     Q1026 RMK 3CU030 4SC040 6AC070 A3030=,RA SH
20180111_213000.001,0,ROAH,,,,0,20180111210000,-1,-1,-1,-1,330,-1,17,-1,-1,-1,-1,,9999,0,0,3,FEW 28   BKN 40   BKN 70,1,12,1,4,1026,ROAH 112130Z 33017KT 9999 FEW028 BKN040 BKN070 12/04 Q1026 RMK     2CU028 5SC040 6AC070 A3031=,
20180111_220000.002,0,ROAH,,,,0,20180111220000,-1,-1,-1,-1,350,-1,18,-1,-1,-1,-1,,9999,0,0,3,FEW 35   BKN 40   BKN 70,1,11,1,4,1026,ROAH 112200Z 35018KT 9999 FEW035 BKN040 BKN070 11/04 Q1026 RMK     1CU035 5SC040 6AC070 A3031=,
20180111_223000.002,0,ROAH,,,,0,20180111220000,-1,-1,-1,-1,350,-1,19,-1,-1,-1,-1,,9999,0,1,3,FEW 30   BKN 40   BKN 70,1,12,1,4,1026,ROAH 112230Z 35019KT 9999 -SHRA FEW030 BKN040 BKN070 12/04     Q1026 RMK 1CU030 5SC040 6AC070 A3031=,- RA SH
20180111_230000.002,0,ROAH,,,,0,20180111230000,-1,-1,-1,-1,350,-1,20,-1,-1,-1,-1,,9999,0,1,3,FEW 35   SCT 40   BKN 60,1,12,1,3,1026,ROAH 112300Z 35020KT 9999 -SHRA FEW035 SCT040 BKN060 12/03     Q1026 RMK 1CU035 4CU040 6SC060 A3032=,- RA SH
20180111_233000.001,0,ROAH,,,,0,20180111230000,-1,-1,-1,-1,340,-1,18,-1,-1,-1,-1,,9999,0,0,2,BKN 40   BKN 70,1,13,1,3,1027,ROAH 112330Z 34018KT 9999 BKN040 BKN070 13/03 Q1027 RMK 5CU040     6AC070 A3033=,
20180112_000000.002,0,ROAH,,,,0,20180112000000,-1,-1,-1,-1,350,-1,19,-1,-1,-1,-1,,9999,0,0,2,SCT 40   BKN 60,1,13,1,2,1027,ROAH 120000Z 35019KT 9999 SCT040 BKN060 13/02 Q1027 RMK 4CU040     6SC060 A3034=,
20180112_003000.001,0,ROAH,,,,0,20180112000000,-1,-1,-1,-1,350,-1,21,-1,-1,-1,-1,,9999,0,0,2,SCT 40   BKN 60,1,12,1,3,1027,ROAH 120030Z 35021KT 9999 SCT040 BKN060 12/03 Q1027 RMK 4CU040     6SC060 A3034=,
20180112_010000.003,0,ROAH,,,,0,20180112010000,-1,-1,-1,-1,340,-1,19,-1,-1,-1,-1,,9999,0,0,2,SCT 40   BKN 60,1,13,1,1,1027,ROAH 120100Z 34019KT 9999 SCT040 BKN060 13/01 Q1027 RMK 4CU040     6SC060 A3035=,
20180112_013000.001,0,ROAH,,,,0,20180112010000,-1,-1,-1,-1,350,-1,19,-1,-1,-1,-1,,9999,0,0,2,FEW 45   BKN 60,1,13,1,3,1027,ROAH 120130Z 35019KT 9999 FEW045 BKN060 13/03 Q1027 RMK 2SC045     5SC060 A3034=,
20180112_020000.002,0,ROAH,,,,0,20180112020000,-1,-1,-1,-1,340,-1,18,-1,-1,-1,-1,,9999,0,1,2,FEW 40   BKN 60,1,13,1,3,1027,ROAH 120200Z 34018KT 9999 VCSH FEW040 BKN060 13/03 Q1027 RMK     2SC040 6SC060 A3034=,VC SH
20180112_023000.001,0,ROAH,,,,0,20180112020000,-1,-1,-1,-1,350,-1,17,-1,-1,-1,-1,,9999,0,1,2,SCT 35   BKN 70,1,11,1,5,1027,ROAH 120230Z 35017KT 9999 -SHRA SCT035 BKN070 11/05 Q1027 RMK     4CU035 6AC070 A3034=,- RA SH
20180112_030000.002,0,ROAH,,,,0,20180112030000,-1,-1,-1,-1,340,-1,15,-1,25,-1,-1,,9999,0,1,2,FEW 35   BKN 70,1,12,1,5,1026,ROAH 120300Z 34015G25KT 9999 VCSH FEW035 BKN070 12/05 Q1026     RMK 2CU035 5AC070 A3032=,VC SH
20180112_033000.001,0,ROAH,,,,0,20180112030000,-1,-1,-1,-1,340,-1,15,-1,-1,-1,-1,,9999,0,0,2,SCT 40   BKN 70,1,14,1,6,1026,ROAH 120330Z 34015KT 9999 SCT040 BKN070 14/06 Q1026 RMK 3CU040     5AC070 A3031=,
20180112_040000.002,0,ROAH,,,,0,20180112040000,-1,-1,-1,-1,360,-1,17,-1,-1,-1,-1,,9999,0,1,2,SCT 30   BKN 70,1,13,1,6,1025,ROAH 120400Z 36017KT 9999 VCSH SCT030 BKN070 13/06 Q1025 RMK     3CU030 5AC070 A3028=,VC SH
20180112_043000.001,0,ROAH,,,,0,20180112040000,-1,-1,-1,-1,340,-1,22,-1,-1,-1,-1,,9999,0,0,1,FEW 30,1,13,1,5,1025,ROAH 120430Z 34022KT 9999 FEW030 13/05 Q1025 RMK 2CU030 A3027=,
20180112_050000.003,0,ROAH,,,,0,20180112050000,-1,-1,-1,-1,350,-1,21,-1,-1,-1,-1,,9999,0,1,2,FEW 30   SCT 50,1,14,1,4,1025,ROAH 120500Z 35021KT 9999 VCSH FEW030 SCT050 14/04 Q1025 RMK     2CU030 3SC050 A3027=,VC SH
20180112_053000.001,0,ROAH,,,,0,20180112050000,-1,-1,-1,-1,350,-1,24,-1,-1,-1,-1,,9999,0,1,2,SCT 20   BKN 50,1,12,1,6,1025,ROAH 120530Z 35024KT 9999 -SHRA SCT020 BKN050 12/06 Q1025 RMK     3CU020 5SC050 A3028=,- RA SH
20180112_060000.002,0,ROAH,,,,0,20180112060000,-1,-1,-1,-1,350,-1,14,-1,-1,320,30,,9999,0,1,3,FEW 15   SCT 30   BKN 40,1,11,1,6,1025,ROAH 120600Z 35014KT 320V030 9999 SHRA FEW015 SCT030 BKN040     11/06 Q1025 RMK 2CU015 4CU030 6SC040 A3028=,RA SH
20180112_063000.001,0,ROAH,,,,0,20180112060000,-1,-1,-1,-1,340,-1,19,-1,-1,-1,-1,,9999,0,1,3,FEW 15   SCT 30   BKN 40,1,12,1,4,1025,ROAH 120630Z 34019KT 9999 VCSH FEW015 SCT030 BKN040 12/04     Q1025 RMK 2CU015 4CU030 5SC040 A3028=,VC SH
20180112_070000.003,0,ROAH,,,,0,20180112070000,-1,-1,-1,-1,330,-1,20,-1,-1,-1,-1,,9999,0,0,3,FEW 30   SCT 40   BKN 70,1,13,1,3,1025,ROAH 120700Z 33020KT 9999 FEW030 SCT040 BKN070 13/03 Q1025 RMK     2CU030 4SC040 5AC070 A3029=,
20180112_073000.001,0,ROAH,,,,0,20180112070000,-1,-1,-1,-1,340,-1,19,-1,-1,-1,-1,,9999,0,0,2,FEW 30   SCT 45,1,13,1,3,1025,ROAH 120730Z 34019KT 9999 FEW030 SCT045 13/03 Q1025 RMK 2CU030     3SC045 A3028=,
20180112_080000.002,0,ROAH,,,,0,20180112080000,-1,-1,-1,-1,340,-1,20,-1,-1,-1,-1,,9999,0,0,1,SCT 30,1,12,1,4,1025,ROAH 120800Z 34020KT 9999 SCT030 12/04 Q1025 RMK 3CU030 A3029=,
20180112_083000.001,0,ROAH,,,,0,20180112080000,-1,-1,-1,-1,340,-1,22,-1,-1,-1,-1,,9999,0,0,1,SCT 30,1,12,1,4,1025,ROAH 120830Z 34022KT 9999 SCT030 12/04 Q1025 RMK 3CU030 A3028=,
20180112_090000.002,0,ROAH,,,,0,20180112090000,-1,-1,-1,-1,340,-1,19,-1,-1,-1,-1,,9999,0,1,1,FEW 30,1,12,1,3,1025,ROAH 120900Z 34019KT 9999 VCSH FEW030 12/03 Q1025 RMK 2CU030     A3029=,VC SH
20180112_093000.001,0,ROAH,,,,0,20180112090000,-1,-1,-1,-1,350,-1,18,-1,-1,-1,-1,,9999,0,1,4,FEW 20   FEW 25 TCU  SCT 30   BKN 45,1,11,1,5,1026,ROAH 120930Z 35018KT 9999 SHRA FEW020 FEW025TCU SCT030 BKN045     11/05 Q1026 RMK 1CU020 1TCU025 3CU030 6SC045 A3031 TCU           7KM N MOV S=,RA SH
20180112_100000.002,0,ROAH,,,,0,20180112100000,-1,-1,-1,-1,330,-1,15,-1,-1,-1,-1,,9999,0,1,3,FEW 20   SCT 30   BKN 40,1,11,1,6,1026,ROAH 121000Z 33015KT 9999 -SHRA FEW020 SCT030 BKN040 11/06     Q1026 RMK 1CU020 3CU030 6SC040 A3032=,- RA SH
20180112_103000.001,0,ROAH,,,,0,20180112100000,-1,-1,-1,-1,350,-1,16,-1,-1,-1,-1,,9999,0,1,1,FEW 30,1,11,1,4,1026,ROAH 121030Z 35016KT 9999 VCSH FEW030 11/04 Q1026 RMK 2CU030     A3031=,VC SH
20180112_110000.002,0,ROAH,,,,0,20180112110000,-1,-1,-1,-1,360,-1,17,-1,-1,-1,-1,,9999,0,1,2,FEW 30   SCT 40,1,12,1,6,1026,ROAH 121100Z 36017KT 9999 VCSH FEW030 SCT040 12/06 Q1026 RMK     2CU030 3SC040 A3032=,VC SH
20180112_113000.001,0,ROAH,,,,0,20180112110000,-1,-1,-1,-1,10,-1,13,-1,-1,-1,-1,,9999,0,1,3,FEW 25   SCT 30   BKN 50,1,11,1,5,1026,ROAH 121130Z 01013KT 9999 VCSH FEW025 SCT030 BKN050 11/05     Q1026 RMK 1CU025 3CU030 7SC050 A3032=,VC SH
20180112_120000.002,0,ROAH,,,,0,20180112120000,-1,-1,-1,-1,30,-1,12,-1,-1,-1,-1,,9999,0,1,3,FEW 30   BKN 40   BKN 50,1,12,1,4,1026,ROAH 121200Z 03012KT 9999 -SHRA FEW030 BKN040 BKN050 12/04     Q1026 RMK 2CU030 5SC040 7SC050 A3032=,- RA SH
20180112_123000.001,0,ROAH,,,,0,20180112120000,-1,-1,-1,-1,20,-1,17,-1,-1,-1,-1,,9999,0,1,3,FEW 30   BKN 42   BKN 50,1,12,1,4,1027,ROAH 121230Z 02017KT 9999 -SHRA FEW030 BKN042 BKN050 12/04     Q1027 RMK 2CU030 5SC042 7SC050 A3033=,- RA SH
20180112_130000.002,0,ROAH,,,,0,20180112130000,-1,-1,-1,-1,10,-1,17,-1,-1,-1,-1,,9999,0,1,2,BKN 44   BKN 50,1,12,1,2,1027,ROAH 121300Z 01017KT 9999 VCSH BKN044 BKN050 12/02 Q1027 RMK     5SC044 6SC050 A3034=,VC SH
20180112_133000.001,0,ROAH,,,,0,20180112130000,-1,-1,-1,-1,350,-1,13,-1,-1,320,30,,9999,0,1,1,NSC -1,1,12,1,1,1027,ROAH 121330Z 35013KT 320V030 9999 VCSH NSC 12/01 Q1027 RMK     3SC050 4AC070 A3034=,VC SH
20180112_140000.002,0,ROAH,,,,0,20180112140000,-1,-1,-1,-1,360,-1,17,-1,-1,-1,-1,,9999,0,1,2,SCT 45   SCT 60,1,12,1,1,1027,ROAH 121400Z 36017KT 9999 VCSH SCT045 SCT060 12/01 Q1027 RMK     3SC045 4SC060 A3034=,VC SH
20180112_143000.001,0,ROAH,,,,0,20180112140000,-1,-1,-1,-1,10,-1,17,-1,-1,-1,-1,,9999,0,1,2,FEW 40   SCT 70,1,12,1,3,1027,ROAH 121430Z 01017KT 9999 VCSH FEW040 SCT070 12/03 Q1027 RMK     2SC040 3AC070 A3034=,VC SH
20180112_150000.002,0,ROAH,,,,0,20180112150000,-1,-1,-1,-1,20,-1,15,-1,-1,-1,-1,,9999,0,1,2,FEW 40   SCT 60,1,12,1,3,1027,ROAH 121500Z 02015KT 9999 VCSH FEW040 SCT060 12/03 Q1027 RMK     2SC040 3SC060 A3033=,VC SH
20180112_153000.001,0,ROAH,,,,0,20180112150000,-1,-1,-1,-1,360,-1,14,-1,-1,-1,-1,,9999,0,0,2,FEW 35   SCT 70,1,12,1,2,1026,ROAH 121530Z 36014KT 9999 FEW035 SCT070 12/02 Q1026 RMK 2SC035     4AC070 A3032=,
20180112_160000.002,0,ROAH,,,,0,20180112160000,-1,-1,-1,-1,10,-1,14,-1,-1,350,70,,9999,0,1,2,SCT 40   SCT 60,1,12,1,3,1026,ROAH 121600Z 01014KT 350V070 9999 VCSH SCT040 SCT060 12/03     Q1026 RMK 3SC040 4SC060 A3032=,VC SH
20180112_163000.001,0,ROAH,,,,0,20180112160000,-1,-1,-1,-1,50,-1,8,-1,-1,10,70,,9999,0,1,2,FEW 35   SCT 60,1,11,1,4,1026,ROAH 121630Z 05008KT 010V070 9999 -SHRA FEW035 SCT060 11/04     Q1026 RMK 2SC035 4SC060 A3032=,- RA SH
20180112_170000.002,0,ROAH,,,,0,20180112170000,-1,-1,-1,-1,50,-1,10,-1,-1,-1,-1,,9999,0,1,3,SCT 30   BKN 40   BKN 50,1,10,1,6,1026,ROAH 121700Z 05010KT 9999 -SHRA SCT030 BKN040 BKN050 10/06     Q1026 RMK 3SC030 5SC040 7SC050 A3032=,- RA SH
20180112_173000.001,0,ROAH,,,,0,20180112170000,-1,-1,-1,-1,80,-1,7,-1,-1,-1,-1,,9999,0,1,2,FEW 30   SCT 60,1,10,1,6,1026,ROAH 121730Z 08007KT 9999 -SHRA FEW030 SCT060 10/06 Q1026 RMK     2CU030 4SC060 A3032=,- RA SH
20180112_180000.002,0,ROAH,,,,0,20180112180000,-1,-1,-1,-1,10,-1,14,-1,-1,-1,-1,,9999,0,1,2,FEW 30   SCT 50,1,11,1,4,1026,ROAH 121800Z 01014KT 9999 -SHRA FEW030 SCT050 11/04 Q1026 RMK     2CU030 4SC050 A3031=,- RA SH
20180112_183000.001,0,ROAH,,,,0,20180112180000,-1,-1,-1,-1,60,-1,6,-1,-1,-1,-1,,9999,0,1,3,FEW 30   SCT 40   BKN 50,1,11,1,5,1026,ROAH 121830Z 06006KT 9999 VCSH FEW030 SCT040 BKN050 11/05     Q1026 RMK 2CU030 3SC040 6SC050 A3031=,VC SH
20180112_190000.002,0,ROAH,,,,0,20180112190000,-1,-1,-1,-1,50,-1,9,-1,-1,-1,-1,,9999,0,1,3,SCT 30   BKN 50   BKN 70,1,11,1,5,1026,ROAH 121900Z 05009KT 9999 -SHRA SCT030 BKN050 BKN070 11/05     Q1026 RMK 3CU030 5SC050 6AC070 A3031=,- RA SH
20180112_193000.001,0,ROAH,,,,0,20180112190000,-1,-1,-1,-1,60,-1,7,-1,-1,20,80,,9999,0,1,3,SCT 30   BKN 45   BKN 60,1,10,1,6,1026,ROAH 121930Z 06007KT 020V080 9999 -SHRA SCT030 BKN045 BKN060     10/06 Q1026 RMK 3CU030 5SC045 7SC060 A3031=,- RA SH
20180112_200000.003,0,ROAH,,,,0,20180112200000,-1,-1,-1,-1,70,-1,4,-1,-1,30,120,,9999,0,1,3,SCT 30   BKN 40   BKN 50,1,11,1,6,1026,ROAH 122000Z 07004KT 030V120 9999 -SHRA SCT030 BKN040 BKN050     11/06 Q1026 RMK 3CU030 5SC040 7SC050 A3030=,- RA SH
20180112_203000.001,0,ROAH,,,,0,20180112200000,-1,-1,-1,-1,60,-1,4,-1,-1,320,120,,9999,0,1,3,FEW 30   SCT 40   BKN 50,1,12,1,5,1026,ROAH 122030Z 06004KT 320V120 9999 -SHRA FEW030 SCT040 BKN050     12/05 Q1026 RMK 2CU030 3SC040 6SC050 A3030=,- RA SH
20180112_210000.002,0,ROAH,,,,0,20180112210000,-1,-1,-1,-1,360,-1,14,-1,-1,-1,-1,,9999,0,1,3,FEW 30   SCT 45   BKN 50,1,12,1,5,1026,ROAH 122100Z 36014KT 9999 VCSH FEW030 SCT045 BKN050 12/05     Q1026 RMK 1CU030 3SC045 5SC050 A3031=,VC SH
20180112_213000.001,0,ROAH,,,,0,20180112210000,-1,-1,-1,-1,30,-1,11,-1,-1,350,70,,9999,0,1,3,FEW 35   SCT 45   BKN 50,1,13,1,4,1026,ROAH 122130Z 03011KT 350V070 9999 VCSH FEW035 SCT045 BKN050     13/04 Q1026 RMK 1CU035 3SC045 5SC050 A3032=,VC SH
20180112_220000.002,0,ROAH,,,,0,20180112220000,-1,-1,-1,-1,60,-1,7,-1,-1,-1,-1,,9999,0,0,2,FEW 30   BKN -9999,1,11,1,5,1026,ROAH 122200Z 06007KT 9999 FEW030 BKN/// 11/05 Q1026 RMK 2CU030     A3032=,
20180112_223000.002,0,ROAH,,,,0,20180112220000,-1,-1,-1,-1,70,-1,6,-1,-1,10,90,,9999,0,1,2,FEW 30   BKN -9999,1,11,1,5,1027,ROAH 122230Z 07006KT 010V090 9999 VCSH FEW030 BKN/// 11/05     Q1027 RMK 2CU030 A3033=,VC SH
20180112_230000.002,0,ROAH,,,,0,20180112230000,-1,-1,-1,-1,80,-1,6,-1,-1,50,120,,9999,0,1,3,FEW 34   SCT 40   BKN -9999,1,12,1,5,1027,ROAH 122300Z 08006KT 050V120 9999 VCSH FEW034 SCT040 BKN///     12/05 Q1027 RMK 2CU034 3SC040 A3033=,VC SH
20180112_233000.001,0,ROAH,,,,0,20180112230000,-1,-1,-1,-1,40,-1,11,-1,-1,360,80,,9999,0,1,3,FEW 25   SCT 30   BKN 60,1,12,1,7,1027,ROAH 122330Z 04011KT 360V080 9999 -SHRA FEW025 SCT030 BKN060     12/07 Q1027 RMK 2CU025 3CU030 5AC060 A3035=,- RA SH
20180113_000000.002,0,ROAH,,,,0,20180113000000,-1,-1,-1,-1,350,-1,10,-1,-1,330,60,,9999,0,1,3,FEW 25   SCT 30   BKN 50,1,13,1,7,1028,ROAH 130000Z 35010KT 330V060 9999 -SHRA FEW025 SCT030 BKN050     13/07 Q1028 RMK 1CU025 4CU030 5SC050 A3036=,- RA SH
20180113_003000.001,0,ROAH,,,,0,20180113000000,-1,-1,-1,-1,40,-1,7,-1,-1,350,80,,9999,0,1,2,FEW 30   BKN 70,1,13,1,7,1028,ROAH 130030Z 04007KT 350V080 9999 VCSH FEW030 BKN070 13/07     Q1028 RMK 2CU030 6AC070 A3037=,VC SH
20180113_010000.003,0,ROAH,,,,0,20180113010000,-1,-1,-1,-1,60,-1,6,-1,-1,20,120,,9999,0,1,2,FEW 30   BKN 70,1,14,1,7,1028,ROAH 130100Z 06006KT 020V120 9999 VCSH FEW030 BKN070 14/07     Q1028 RMK 2CU030 5AC070 A3038=,VC SH
20180113_013000.001,0,ROAH,,,,0,20180113010000,-1,-1,-1,-1,50,-1,10,-1,-1,-1,-1,,9999,0,0,1,FEW 30,1,14,1,6,1028,ROAH 130130Z 05010KT 9999 FEW030 14/06 Q1028 RMK 2CU030 A3037=,
20180113_020000.002,0,ROAH,,,,0,20180113020000,-1,-1,-1,-1,50,-1,11,-1,-1,20,90,,9999,0,1,1,FEW 30,1,15,1,6,1028,ROAH 130200Z 05011KT 020V090 9999 VCSH FEW030 15/06 Q1028 RMK     2CU030 A3036=,VC SH
20180113_023000.001,0,ROAH,,,,0,20180113020000,-1,-1,-1,-1,40,-1,11,-1,-1,10,70,,9999,0,1,2,FEW 30   SCT 80,1,15,1,6,1027,ROAH 130230Z 04011KT 010V070 9999 VCSH FEW030 SCT080 15/06     Q1027 RMK 2CU030 4AC080 A3034=,VC SH
20180113_030000.002,0,ROAH,,,,0,20180113030000,-1,-1,-1,-1,40,-1,10,-1,-1,350,120,,9999,0,0,2,FEW 30   SCT 40,1,16,1,7,1027,ROAH 130300Z 04010KT 350V120 9999 FEW030 SCT040 16/07 Q1027     RMK 2CU030 4SC040 A3034=,
20180113_033000.001,0,ROAH,,,,0,20180113030000,-1,-1,-1,-1,30,-1,12,-1,-1,360,70,,9999,0,0,2,FEW 30   SCT 40,1,15,1,6,1026,ROAH 130330Z 03012KT 360V070 9999 FEW030 SCT040 15/06 Q1026     RMK 2CU030 4SC040 A3032=,
20180113_040000.002,0,ROAH,,,,0,20180113040000,-1,-1,-1,-1,30,-1,13,-1,-1,360,70,,9999,0,0,2,FEW 30   SCT -9999,1,16,1,7,1026,ROAH 130400Z 03013KT 360V070 9999 FEW030 SCT/// 16/07 Q1026     RMK 1CU030 A3031=,
20180113_043000.001,0,ROAH,,,,0,20180113040000,-1,-1,-1,-1,10,-1,13,-1,-1,-1,-1,,9999,0,0,2,FEW 30   BKN -9999,1,17,1,7,1027,ROAH 130430Z 01013KT 9999 FEW030 BKN/// 17/07 Q1027 RMK 1CU030     A3033=,
20180113_050000.002,0,ROAH,,,,0,20180113050000,-1,-1,-1,-1,30,-1,12,-1,-1,360,60,,9999,0,0,2,FEW 30   BKN -9999,1,17,1,6,1026,ROAH 130500Z 03012KT 360V060 9999 FEW030 BKN/// 17/06 Q1026     RMK 1CU030 A3031=,
20180113_053000.001,0,ROAH,,,,0,20180113050000,-1,-1,-1,-1,10,-1,14,-1,-1,-1,-1,,9999,0,0,2,FEW 35   BKN -9999,1,17,1,5,1027,ROAH 130530Z 01014KT 9999 FEW035 BKN/// 17/05 Q1027 RMK 1CU035     A3034=,
20180113_060000.002,0,ROAH,,,,0,20180113060000,-1,-1,-1,-1,20,-1,13,-1,-1,-1,-1,,9999,0,0,2,FEW 35   BKN -9999,1,17,1,5,1026,ROAH 130600Z 02013KT 9999 FEW035 BKN/// 17/05 Q1026 RMK 1CU035     A3030 P/FR=,
20180113_063000.001,0,ROAH,,,,0,20180113060000,-1,-1,-1,-1,30,-1,13,-1,-1,350,70,,9999,0,0,2,FEW 35   BKN -9999,1,17,1,6,1025,ROAH 130630Z 03013KT 350V070 9999 FEW035 BKN/// 17/06 Q1025     RMK 1CU035 A3029=,
20180113_070000.002,0,ROAH,,,,0,20180113070000,-1,-1,-1,-1,30,-1,14,-1,-1,360,80,,9999,0,0,2,FEW 35   BKN -9999,1,16,1,5,1026,ROAH 130700Z 03014KT 360V080 9999 FEW035 BKN/// 16/05 Q1026     RMK 1CU035 A3030=,
20180113_073000.001,0,ROAH,,,,0,20180113070000,-1,-1,-1,-1,50,-1,11,-1,21,10,80,,9999,0,0,2,FEW 40   BKN -9999,1,16,1,4,1025,ROAH 130730Z 05011G21KT 010V080 9999 FEW040 BKN/// 16/04 Q1025     RMK 1SC040 A3028=,
20180113_080000.002,0,ROAH,,,,0,20180113080000,-1,-1,-1,-1,40,-1,14,-1,-1,-1,-1,,9999,0,0,2,FEW 40   BKN -9999,1,15,1,5,1025,ROAH 130800Z 04014KT 9999 FEW040 BKN/// 15/05 Q1025 RMK 1SC040     A3028=,
20180113_083000.001,0,ROAH,,,,0,20180113080000,-1,-1,-1,-1,50,-1,11,-1,-1,-1,-1,,9999,0,0,1,FEW 40,1,15,1,5,1025,ROAH 130830Z 05011KT 9999 FEW040 15/05 Q1025 RMK 2SC040 A3028=,
20180113_090000.002,0,ROAH,,,,0,20180113090000,-1,-1,-1,-1,40,-1,14,-1,-1,-1,-1,,9999,0,0,1,FEW 40,1,15,1,5,1025,ROAH 130900Z 04014KT 9999 FEW040 15/05 Q1025 RMK 2SC040 A3029=,
20180113_093000.001,0,ROAH,,,,0,20180113090000,-1,-1,-1,-1,50,-1,13,-1,-1,10,80,,9999,0,0,1,FEW 35,1,14,1,5,1025,ROAH 130930Z 05013KT 010V080 9999 FEW035 14/05 Q1025 RMK     1CU035 A3029=,
20180113_100000.002,0,ROAH,,,,0,20180113100000,-1,-1,-1,-1,60,-1,11,-1,-1,30,90,,9999,0,0,1,FEW 35,1,14,1,5,1026,ROAH 131000Z 06011KT 030V090 9999 FEW035 14/05 Q1026 RMK     1CU035 A3030=,
20180113_103000.001,0,ROAH,,,,0,20180113100000,-1,-1,-1,-1,50,-1,9,-1,-1,360,90,,9999,0,0,1,FEW 35,1,14,1,4,1026,ROAH 131030Z 05009KT 360V090 9999 FEW035 14/04 Q1026 RMK     1CU035 A3031=,
20180113_110000.002,0,ROAH,,,,0,20180113110000,-1,-1,-1,-1,40,-1,11,-1,-1,-1,-1,,9999,0,0,1,FEW 40,1,14,1,4,1026,ROAH 131100Z 04011KT 9999 FEW040 14/04 Q1026 RMK 1SC040 A3031=,
20180113_113000.001,0,ROAH,,,,0,20180113110000,-1,-1,-1,-1,50,-1,10,-1,-1,20,110,,9999,0,0,1,FEW 35,1,14,1,5,1026,ROAH 131130Z 05010KT 020V110 9999 FEW035 14/05 Q1026 RMK     1CU035 A3032=,
20180113_120000.002,0,ROAH,,,,0,20180113120000,-1,-1,-1,-1,50,-1,9,-1,-1,20,100,,9999,0,0,1,FEW 35,1,14,1,5,1027,ROAH 131200Z 05009KT 020V100 9999 FEW035 14/05 Q1027 RMK     1CU035 A3033=,
20180113_123000.001,0,ROAH,,,,0,20180113120000,-1,-1,-1,-1,40,-1,9,-1,-1,-1,-1,,9999,0,0,1,FEW 35,1,14,1,5,1026,ROAH 131230Z 04009KT 9999 FEW035 14/05 Q1026 RMK 1CU035 A3032=,
20180113_130000.002,0,ROAH,,,,0,20180113130000,-1,-1,-1,-1,40,-1,9,-1,-1,10,100,,9999,0,0,1,FEW 35,1,14,1,5,1026,ROAH 131300Z 04009KT 010V100 9999 FEW035 14/05 Q1026 RMK     1CU035 A3032=,
20180113_133000.001,0,ROAH,,,,0,20180113130000,-1,-1,-1,-1,50,-1,10,-1,-1,-1,-1,,9999,0,0,1,FEW 40,1,14,1,6,1026,ROAH 131330Z 05010KT 9999 FEW040 14/06 Q1026 RMK 1SC040 A3031=,
20180113_140000.003,0,ROAH,,,,0,20180113140000,-1,-1,-1,-1,40,-1,10,-1,-1,-1,-1,,9999,0,0,2,FEW 40   SCT 50,1,14,1,5,1026,ROAH 131400Z 04010KT 9999 FEW040 SCT050 14/05 Q1026 RMK 1SC040     3SC050 A3032=,
20180113_143000.001,0,ROAH,,,,0,20180113140000,-1,-1,-1,-1,40,-1,10,-1,-1,-1,-1,,9999,0,0,2,FEW 40   SCT 60,1,14,1,5,1027,ROAH 131430Z 04010KT 9999 FEW040 SCT060 14/05 Q1027 RMK 1SC040     4SC060 A3033=,
20180113_150000.002,0,ROAH,,,,0,20180113150000,-1,-1,-1,-1,40,-1,11,-1,-1,-1,-1,CAVOK,-1,0,0,0,,1,14,1,5,1026,ROAH 131500Z 04011KT CAVOK 14/05 Q1026 RMK A3032=,
20180113_153000.001,0,ROAH,,,,0,20180113150000,-1,-1,-1,-1,30,-1,12,-1,-1,-1,-1,CAVOK,-1,0,0,0,,1,14,1,5,1026,ROAH 131530Z 03012KT CAVOK 14/05 Q1026 RMK A3031=,
20180113_160000.002,0,ROAH,,,,0,20180113160000,-1,-1,-1,-1,30,-1,13,-1,-1,-1,-1,CAVOK,-1,0,0,0,,1,14,1,5,1026,ROAH 131600Z 03013KT CAVOK 14/05 Q1026 RMK A3031=,
20180113_163000.001,0,ROAH,,,,0,20180113160000,-1,-1,-1,-1,40,-1,11,-1,-1,-1,-1,CAVOK,-1,0,0,0,,1,14,1,5,1026,ROAH 131630Z 04011KT CAVOK 14/05 Q1026 RMK A3030=,
20180113_170000.002,0,ROAH,,,,0,20180113170000,-1,-1,-1,-1,50,-1,9,-1,-1,-1,-1,,9999,0,1,1,NSC -1,1,14,1,5,1025,ROAH 131700Z 05009KT 9999 VCSH NSC 14/05 Q1025 RMK 1SC050     A3029=,VC SH
20180113_173000.001,0,ROAH,,,,0,20180113170000,-1,-1,-1,-1,50,-1,11,-1,-1,-1,-1,,9999,0,1,1,NSC -1,1,14,1,5,1025,ROAH 131730Z 05011KT 9999 VCSH NSC 14/05 Q1025 RMK 1SC050     A3029=,VC SH
20180113_180000.002,0,ROAH,,,,0,20180113180000,-1,-1,-1,-1,50,-1,9,-1,-1,10,70,CAVOK,-1,0,0,0,,1,14,1,5,1025,ROAH 131800Z 05009KT 010V070 CAVOK 14/05 Q1025 RMK A3028=,
20180113_183000.001,0,ROAH,,,,0,20180113180000,-1,-1,-1,-1,40,-1,8,-1,-1,-1,-1,,9999,0,0,2,FEW 40   BKN 60,1,14,1,5,1025,ROAH 131830Z 04008KT 9999 FEW040 BKN060 14/05 Q1025 RMK 1SC040     5SC060 A3028=,
20180113_190000.003,0,ROAH,,,,0,20180113190000,-1,-1,-1,-1,40,-1,9,-1,-1,-1,-1,,9999,0,0,2,FEW 40   BKN 50,1,14,1,5,1025,ROAH 131900Z 04009KT 9999 FEW040 BKN050 14/05 Q1025 RMK 1SC040     6SC050 A3028=,
20180113_193000.001,0,ROAH,,,,0,20180113190000,-1,-1,-1,-1,30,-1,10,-1,-1,-1,-1,,9999,0,0,3,FEW 40   SCT 50   BKN 70,1,14,1,5,1025,ROAH 131930Z 03010KT 9999 FEW040 SCT050 BKN070 14/05 Q1025 RMK     1SC040 3SC050 5AC070 A3028=,
20180113_200000.003,0,ROAH,,,,0,20180113200000,-1,-1,-1,-1,30,-1,12,-1,-1,-1,-1,,9999,0,0,3,FEW 40   SCT 70   BKN -9999,1,14,1,6,1025,ROAH 132000Z 03012KT 9999 FEW040 SCT070 BKN/// 14/06 Q1025 RMK     1SC040 3AC070 A3028=,
20180113_203000.001,0,ROAH,,,,0,20180113200000,-1,-1,-1,-1,30,-1,10,-1,-1,-1,-1,,9999,0,0,2,FEW 35   BKN -9999,1,14,1,7,1025,ROAH 132030Z 03010KT 9999 FEW035 BKN/// 14/07 Q1025 RMK 1CU035     A3027=,
20180113_210000.002,0,ROAH,,,,0,20180113210000,-1,-1,-1,-1,40,-1,11,-1,-1,-1,-1,,9999,0,0,1,FEW 40,1,14,1,7,1025,ROAH 132100Z 04011KT 9999 FEW040 14/07 Q1025 RMK 1SC040 A3027=,
20180113_213000.001,0,ROAH,,,,0,20180113210000,-1,-1,-1,-1,40,-1,11,-1,-1,-1,-1,,9999,0,0,1,FEW 40,1,14,1,7,1025,ROAH 132130Z 04011KT 9999 FEW040 14/07 Q1025 RMK 1SC040 A3028=,
20180113_220000.002,0,ROAH,,,,0,20180113220000,-1,-1,-1,-1,40,-1,9,-1,-1,-1,-1,,9999,0,0,1,FEW 30,1,14,1,7,1025,ROAH 132200Z 04009KT 9999 FEW030 14/07 Q1025 RMK 1CU030 A3028=,
20180113_223000.002,0,ROAH,,,,0,20180113220000,-1,-1,-1,-1,30,-1,11,-1,-1,-1,-1,,9999,0,0,1,FEW 25,1,14,1,8,1025,ROAH 132230Z 03011KT 9999 FEW025 14/08 Q1025 RMK 1CU025 A3028=,
20180113_230000.002,0,ROAH,,,,0,20180113230000,-1,-1,-1,-1,30,-1,9,-1,-1,-1,-1,,9999,0,0,1,FEW 25,1,14,1,10,1025,ROAH 132300Z 03009KT 9999 FEW025 14/10 Q1025 RMK 1CU025 A3028=,
20180113_233000.001,0,ROAH,,,,0,20180113230000,-1,-1,-1,-1,20,-1,10,-1,-1,-1,-1,,9999,0,0,1,FEW 25,1,15,1,10,1025,ROAH 132330Z 02010KT 9999 FEW025 15/10 Q1025 RMK 1CU025 A3029=,
20180114_000000.003,0,ROAH,,,,0,20180114000000,-1,-1,-1,-1,30,-1,10,-1,-1,-1,-1,,9999,0,0,1,FEW 25,1,16,1,9,1025,ROAH 140000Z 03010KT 9999 FEW025 16/09 Q1025 RMK 2CU025 A3029=,
20180114_003000.001,0,ROAH,,,,0,20180114000000,-1,-1,-1,-1,40,-1,9,-1,-1,-1,-1,,9999,0,0,1,FEW 25,1,16,1,10,1025,ROAH 140030Z 04009KT 9999 FEW025 16/10 Q1025 RMK 1CU025 A3029=,
20180114_010000.002,0,ROAH,,,,0,20180114010000,-1,-1,-1,-1,50,-1,7,-1,-1,10,90,,9999,0,0,1,FEW 30,1,18,1,9,1025,ROAH 140100Z 05007KT 010V090 9999 FEW030 18/09 Q1025 RMK     1CU030 A3029=,
20180114_013000.001,0,ROAH,,,,0,20180114010000,-1,-1,-1,-1,70,-1,11,-1,-1,30,130,,9999,0,0,2,FEW 35   SCT 90,1,19,1,6,1025,ROAH 140130Z 07011KT 030V130 9999 FEW035 SCT090 19/06 Q1025     RMK 1CU035 3AC090 A3027=,
20180114_020000.002,0,ROAH,,,,0,20180114020000,-1,-1,-1,-1,90,-1,11,-1,-1,50,120,,9999,0,0,2,FEW 40   SCT 90,1,19,1,6,1024,ROAH 140200Z 09011KT 050V120 9999 FEW040 SCT090 19/06 Q1024     RMK 1SC040 3AC090 A3026=,
20180114_023000.001,0,ROAH,,,,0,20180114020000,-1,-1,-1,-1,80,-1,10,-1,21,50,120,,9999,0,0,2,FEW 45   BKN 100,1,19,1,7,1024,ROAH 140230Z 08010G21KT 050V120 9999 FEW045 BKN100 19/07 Q1024     RMK 1SC045 5AC100 A3024=,
20180114_030000.002,0,ROAH,,,,0,20180114030000,-1,-1,-1,-1,80,-1,10,-1,-1,40,130,,9999,0,0,2,FEW 45   BKN 100,1,18,1,7,1023,ROAH 140300Z 08010KT 040V130 9999 FEW045 BKN100 18/07 Q1023     RMK 1SC045 5AC100 A3023=,
20180114_033000.001,0,ROAH,,,,0,20180114030000,-1,-1,-1,-1,70,-1,11,-1,-1,50,130,,9999,0,0,2,FEW 45   BKN 100,1,19,1,8,1023,ROAH 140330Z 07011KT 050V130 9999 FEW045 BKN100 19/08 Q1023     RMK 1SC045 6AC100 A3022=,
20180114_040000.002,0,ROAH,,,,0,20180114040000,-1,-1,-1,-1,70,-1,13,-1,-1,20,100,,9999,0,0,2,FEW 45   BKN 100,1,19,1,8,1023,ROAH 140400Z 07013KT 020V100 9999 FEW045 BKN100 19/08 Q1023     RMK 1SC045 6AC100 A3021=,
20180114_043000.001,0,ROAH,,,,0,20180114040000,-1,-1,-1,-1,80,-1,10,-1,-1,50,130,,9999,0,0,2,FEW 40   BKN 90,1,19,1,8,1022,ROAH 140430Z 08010KT 050V130 9999 FEW040 BKN090 19/08 Q1022     RMK 1SC040 6AC090 A3020=,
20180114_050000.002,0,ROAH,,,,0,20180114050000,-1,-1,-1,-1,70,-1,11,-1,-1,20,140,,9999,0,0,2,FEW 40   BKN 90,1,19,1,9,1022,ROAH 140500Z 07011KT 020V140 9999 FEW040 BKN090 19/09 Q1022     RMK 2SC040 6AC090 A3019=,
20180114_053000.001,0,ROAH,,,,0,20180114050000,-1,-1,-1,-1,80,-1,9,-1,-1,50,130,,9999,0,0,2,FEW 40   BKN 80,1,19,1,9,1022,ROAH 140530Z 08009KT 050V130 9999 FEW040 BKN080 19/09 Q1022     RMK 1SC040 7AC080 A3018=,
20180114_060000.003,0,ROAH,,,,0,20180114060000,-1,-1,-1,-1,70,-1,11,-1,-1,40,140,,9999,0,0,2,FEW 38   BKN 80,1,19,1,8,1021,ROAH 140600Z 07011KT 040V140 9999 FEW038 BKN080 19/08 Q1021     RMK 1SC038 7AC080 A3018=,
20180114_063000.001,0,ROAH,,,,0,20180114060000,-1,-1,-1,-1,80,-1,11,-1,-1,40,110,,9999,0,0,2,FEW 38   BKN 80,1,19,1,8,1021,ROAH 140630Z 08011KT 040V110 9999 FEW038 BKN080 19/08 Q1021     RMK 1SC038 6AC080 A3016=,
20180114_070000.002,0,ROAH,,,,0,20180114070000,-1,-1,-1,-1,70,-1,12,-1,-1,50,130,,9999,0,0,1,FEW 38,1,19,1,8,1021,ROAH 140700Z 07012KT 050V130 9999 FEW038 19/08 Q1021 RMK     1SC038 A3016=,
20180114_073000.001,0,ROAH,,,,0,20180114070000,-1,-1,-1,-1,80,-1,10,-1,-1,50,120,,9999,0,0,1,FEW 38,1,19,1,9,1021,ROAH 140730Z 08010KT 050V120 9999 FEW038 19/09 Q1021 RMK     1SC038 A3017=,
20180114_080000.002,0,ROAH,,,,0,20180114080000,-1,-1,-1,-1,70,-1,10,-1,-1,50,110,,9999,0,0,1,FEW 40,1,19,1,9,1021,ROAH 140800Z 07010KT 050V110 9999 FEW040 19/09 Q1021 RMK     1SC040 A3017=,
20180114_083000.001,0,ROAH,,,,0,20180114080000,-1,-1,-1,-1,70,-1,10,-1,-1,50,120,,9999,0,0,1,FEW 40,1,19,1,9,1022,ROAH 140830Z 07010KT 050V120 9999 FEW040 19/09 Q1022 RMK     1SC040 A3018=,
20180114_090000.002,0,ROAH,,,,0,20180114090000,-1,-1,-1,-1,70,-1,8,-1,-1,50,120,CAVOK,-1,0,0,0,,1,18,1,9,1022,ROAH 140900Z 07008KT 050V120 CAVOK 18/09 Q1022 RMK A3018=,
20180114_093000.001,0,ROAH,,,,0,20180114090000,-1,-1,-1,-1,70,-1,9,-1,-1,20,120,CAVOK,-1,0,0,0,,1,18,1,9,1022,ROAH 140930Z 07009KT 020V120 CAVOK 18/09 Q1022 RMK A3018=,
20180114_100000.002,0,ROAH,,,,0,20180114100000,-1,-1,-1,-1,70,-1,7,-1,-1,30,120,CAVOK,-1,0,0,0,,1,18,1,9,1022,ROAH 141000Z 07007KT 030V120 CAVOK 18/09 Q1022 RMK A3019 MOD     TURB OBS AT 0945Z 20NM E ROAH BTN 10000FT AND 8500FT           B738=,
20180114_103000.001,0,ROAH,,,,0,20180114100000,-1,-1,-1,-1,60,-1,8,-1,-1,20,130,,9999,0,0,1,FEW 40,1,18,1,9,1022,ROAH 141030Z 06008KT 020V130 9999 FEW040 18/09 Q1022 RMK     1SC040 A3020=,
20180114_110000.002,0,ROAH,,,,0,20180114110000,-1,-1,-1,-1,70,-1,8,-1,-1,50,110,,9999,0,1,1,FEW 40,1,18,1,9,1022,ROAH 141100Z 07008KT 050V110 9999 VCSH FEW040 18/09 Q1022 RMK     1SC040 A3020=,VC SH
20180114_113000.001,0,ROAH,,,,0,20180114110000,-1,-1,-1,-1,70,-1,5,-1,-1,30,110,,9999,0,0,2,FEW 40   BKN 80,1,18,1,9,1023,ROAH 141130Z 07005KT 030V110 9999 FEW040 BKN080 18/09 Q1023     RMK 1SC040 6AC080 A3021=,
20180114_120000.002,0,ROAH,,,,0,20180114120000,-1,-1,-1,-1,70,-1,6,-1,-1,40,140,,9999,0,0,1,FEW 40,1,18,1,9,1023,ROAH 141200Z 07006KT 040V140 9999 FEW040 18/09 Q1023 RMK     1SC040 A3021=,
20180114_123000.001,0,ROAH,,,,0,20180114120000,-1,-1,-1,-1,80,-1,4,-1,-1,50,140,,9999,0,0,1,FEW 40,1,18,1,9,1023,ROAH 141230Z 08004KT 050V140 9999 FEW040 18/09 Q1023 RMK     1SC040 A3021=,
20180114_130000.003,0,ROAH,,,,0,20180114130000,-1,-1,-1,-1,70,-1,5,-1,-1,40,110,,9999,0,0,1,FEW 40,1,18,1,9,1022,ROAH 141300Z 07005KT 040V110 9999 FEW040 18/09 Q1022 RMK     1SC040 A3021=,
20180114_133000.001,0,ROAH,,,,0,20180114130000,-1,-1,-1,-1,100,-1,4,-1,-1,60,130,,9999,0,0,1,FEW 40,1,17,1,9,1023,ROAH 141330Z 10004KT 060V130 9999 FEW040 17/09 Q1023 RMK     1SC040 A3021=,
20180114_140000.002,0,ROAH,,,,0,20180114140000,-1,-1,-1,-1,90,-1,4,-1,-1,40,130,,9999,0,0,1,FEW 40,1,17,1,9,1023,ROAH 141400Z 09004KT 040V130 9999 FEW040 17/09 Q1023 RMK     1SC040 A3021=,
20180114_143000.001,0,ROAH,,,,0,20180114140000,-1,-1,-1,-1,80,-1,5,-1,-1,-1,-1,,9999,0,0,1,FEW 40,1,17,1,10,1022,ROAH 141430Z 08005KT 9999 FEW040 17/10 Q1022 RMK 2SC040 A3020=,
20180114_150000.002,0,ROAH,,,,0,20180114150000,-1,-1,-1,-1,80,-1,6,-1,-1,50,110,,9999,0,0,1,FEW 40,1,18,1,10,1022,ROAH 141500Z 08006KT 050V110 9999 FEW040 18/10 Q1022 RMK     1SC040 A3018=,
20180114_153000.001,0,ROAH,,,,0,20180114150000,-1,-1,-1,-1,120,-1,4,-1,-1,-1,-1,,9999,0,0,1,FEW 40,1,17,1,10,1022,ROAH 141530Z 12004KT 9999 FEW040 17/10 Q1022 RMK 1SC040 A3019=,
20180114_160000.002,0,ROAH,,,,0,20180114160000,-1,-1,-1,-1,80,-1,3,-1,-1,50,130,,9999,0,0,1,FEW 40,1,17,1,9,1022,ROAH 141600Z 08003KT 050V130 9999 FEW040 17/09 Q1022 RMK     1SC040 A3018=,
20180114_163000.001,0,ROAH,,,,0,20180114160000,-1,-1,-1,-1,60,-1,4,-1,-1,-1,-1,,9999,0,0,1,FEW 40,1,17,1,9,1022,ROAH 141630Z 06004KT 9999 FEW040 17/09 Q1022 RMK 1SC040 A3018=,
20180114_170000.002,0,ROAH,,,,0,20180114170000,-1,-1,-1,-1,50,-1,4,-1,-1,-1,-1,,9999,0,0,1,FEW 40,1,16,1,9,1022,ROAH 141700Z 05004KT 9999 FEW040 16/09 Q1022 RMK 1SC040 A3018=,
20180114_173000.001,0,ROAH,,,,0,20180114170000,-1,-1,-1,-1,50,-1,3,-1,-1,-1,-1,,9999,0,0,1,FEW 40,1,16,1,9,1021,ROAH 141730Z 05003KT 9999 FEW040 16/09 Q1021 RMK 1SC040 A3017=,
20180114_180000.003,0,ROAH,,,,0,20180114180000,-1,-1,-1,-1,20,-1,3,-1,-1,-1,-1,,9999,0,0,1,FEW 40,1,15,1,9,1021,ROAH 141800Z 02003KT 9999 FEW040 15/09 Q1021 RMK 1SC040 A3017=,
20180114_183000.001,0,ROAH,,,,0,20180114180000,-1,-1,-1,-1,50,-1,2,-1,-1,-1,-1,,9999,0,0,2,FEW 40   SCT 90,1,15,1,10,1021,ROAH 141830Z 05002KT 9999 FEW040 SCT090 15/10 Q1021 RMK 1SC040     3AC090 A3016=,
20180114_190000.002,0,ROAH,,,,0,20180114190000,-1,-1,-1,-1,50,-1,5,-1,-1,-1,-1,,9999,0,0,2,FEW 40   BKN 90,1,16,1,10,1021,ROAH 141900Z 05005KT 9999 FEW040 BKN090 16/10 Q1021 RMK 1SC040     5AC090 A3015=,
20180114_193000.001,0,ROAH,,,,0,20180114190000,-1,-1,-1,-1,50,-1,4,-1,-1,-1,-1,,9999,0,0,2,FEW 40   BKN 160,1,16,1,9,1020,ROAH 141930Z 05004KT 9999 FEW040 BKN160 16/09 Q1020 RMK 1SC040     7AC160 A3014=,
20180114_200000.003,0,ROAH,,,,0,20180114200000,-1,-1,-1,-1,50,-1,4,-1,-1,-1,-1,,9999,0,0,2,FEW 40   BKN 160,1,17,1,10,1020,ROAH 142000Z 05004KT 9999 FEW040 BKN160 17/10 Q1020 RMK 1SC040     7AC160 A3013=,
20180114_203000.001,0,ROAH,,,,0,20180114200000,-1,-1,-1,-1,60,-1,3,-1,-1,-1,-1,,9999,0,0,2,FEW 40   BKN 160,1,17,1,10,1020,ROAH 142030Z 06003KT 9999 FEW040 BKN160 17/10 Q1020 RMK 1SC040     7AC160 A3013=,
20180114_210000.002,0,ROAH,,,,0,20180114210000,-1,-1,-1,-1,20,-1,4,-1,-1,-1,-1,,9999,0,0,2,FEW 40   BKN 160,1,16,1,11,1020,ROAH 142100Z 02004KT 9999 FEW040 BKN160 16/11 Q1020 RMK 1SC040     7AC160 A3014=,
20180114_213000.001,0,ROAH,,,,0,20180114210000,-1,-1,-1,-1,30,-1,6,-1,-1,-1,-1,,9999,0,0,2,FEW 40   BKN 160,1,17,1,12,1020,ROAH 142130Z 03006KT 9999 FEW040 BKN160 17/12 Q1020 RMK 1SC040     7AC160 A3015=,
20180114_220000.002,0,ROAH,,,,0,20180114220000,-1,-1,-1,-1,60,-1,4,-1,-1,-1,-1,,9999,0,0,2,FEW 40   BKN 160,1,16,1,11,1020,ROAH 142200Z 06004KT 9999 FEW040 BKN160 16/11 Q1020 RMK 1SC040     7AC160 A3015=,
20180114_223000.002,0,ROAH,,,,0,20180114220000,-1,-1,-1,-1,40,-1,3,-1,-1,350,70,,9999,0,0,2,FEW 40   BKN 160,1,17,1,11,1021,ROAH 142230Z 04003KT 350V070 9999 FEW040 BKN160 17/11 Q1021     RMK 1SC040 6AC160 A3016=,
20180114_230000.002,0,ROAH,,,,0,20180114230000,-1,-1,-1,-1,40,-1,4,-1,-1,20,90,,9999,0,0,2,FEW 40   BKN 160,1,17,1,11,1021,ROAH 142300Z 04004KT 020V090 9999 FEW040 BKN160 17/11 Q1021     RMK 1SC040 5AC160 A3017=,
20180114_233000.001,0,ROAH,,,,0,20180114230000,-1,-1,-1,-1,40,-1,4,-1,-1,10,70,,9999,0,0,2,FEW 40   BKN 160,1,18,1,11,1022,ROAH 142330Z 04004KT 010V070 9999 FEW040 BKN160 18/11 Q1022     RMK 1SC040 5AC160 A3018=,
20180115_000000.002,0,ROAH,,,,0,20180115000000,-1,-1,-1,-1,40,-1,4,-1,-1,10,70,,9999,0,0,2,FEW 40   SCT 160,1,18,1,10,1022,ROAH 150000Z 04004KT 010V070 9999 FEW040 SCT160 18/10 Q1022     RMK 1SC040 3AC160 A3019=,
20180115_003000.001,0,ROAH,,,,0,20180115000000,-1,-1,-1,-1,999,-1,2,-1,-1,-1,-1,,9999,0,0,1,FEW 40,1,19,1,11,1022,ROAH 150030Z VRB02KT 9999 FEW040 19/11 Q1022 RMK 1SC040 A3020=,
20180115_010000.002,0,ROAH,,,,0,20180115010000,-1,-1,-1,-1,70,-1,6,-1,-1,40,120,,9999,0,0,1,FEW 40,1,21,1,11,1022,ROAH 150100Z 07006KT 040V120 9999 FEW040 21/11 Q1022 RMK     1CU040 A3020=,
20180115_013000.001,0,ROAH,,,,0,20180115010000,-1,-1,-1,-1,70,-1,9,-1,-1,40,110,,9999,0,0,1,FEW 40,1,21,1,10,1022,ROAH 150130Z 07009KT 040V110 9999 FEW040 21/10 Q1022 RMK     1CU040 A3020=,
20180115_020000.002,0,ROAH,,,,0,20180115020000,-1,-1,-1,-1,70,-1,10,-1,-1,40,130,,9999,0,0,1,FEW 40,1,22,1,11,1022,ROAH 150200Z 07010KT 040V130 9999 FEW040 22/11 Q1022 RMK     2CU040 A3019=,
20180115_023000.001,0,ROAH,,,,0,20180115020000,-1,-1,-1,-1,70,-1,11,-1,-1,40,100,,9999,0,0,1,SCT 35,1,22,1,12,1021,ROAH 150230Z 07011KT 040V100 9999 SCT035 22/12 Q1021 RMK     3CU035 A3017=,
20180115_030000.002,0,ROAH,,,,0,20180115030000,-1,-1,-1,-1,80,-1,11,-1,-1,50,140,,9999,0,0,1,FEW 35,1,21,1,11,1021,ROAH 150300Z 08011KT 050V140 9999 FEW035 21/11 Q1021 RMK     2CU035 A3015=,
20180115_033000.001,0,ROAH,,,,0,20180115030000,-1,-1,-1,-1,80,-1,12,-1,-1,40,110,,9999,0,0,1,FEW 35,1,21,1,11,1020,ROAH 150330Z 08012KT 040V110 9999 FEW035 21/11 Q1020 RMK     2CU035 A3013=,
20180115_040000.002,0,ROAH,,,,0,20180115040000,-1,-1,-1,-1,80,-1,11,-1,-1,20,120,,9999,0,0,1,SCT 35,1,22,1,11,1020,ROAH 150400Z 08011KT 020V120 9999 SCT035 22/11 Q1020 RMK     3CU035 A3012=,
20180115_043000.001,0,ROAH,,,,0,20180115040000,-1,-1,-1,-1,90,-1,11,-1,-1,30,120,,9999,0,0,1,SCT 35,1,22,1,12,1019,ROAH 150430Z 09011KT 030V120 9999 SCT035 22/12 Q1019 RMK     4CU035 A3011=,
20180115_050000.002,0,ROAH,,,,0,20180115050000,-1,-1,-1,-1,100,-1,13,-1,-1,40,130,,9999,0,0,1,SCT 30,1,21,1,12,1019,ROAH 150500Z 10013KT 040V130 9999 SCT030 21/12 Q1019 RMK     4CU030 A3010=,
20180115_053000.001,0,ROAH,,,,0,20180115050000,-1,-1,-1,-1,80,-1,10,-1,-1,20,120,,9999,0,0,1,SCT 30,1,21,1,13,1018,ROAH 150530Z 08010KT 020V120 9999 SCT030 21/13 Q1018 RMK     3CU030 A3009=,
20180115_060000.002,0,ROAH,,,,0,20180115060000,-1,-1,-1,-1,90,-1,10,-1,-1,30,130,,9999,0,0,1,SCT 35,1,21,1,13,1019,ROAH 150600Z 09010KT 030V130 9999 SCT035 21/13 Q1019 RMK     3CU035 A3009=,
20180115_063000.001,0,ROAH,,,,0,20180115060000,-1,-1,-1,-1,90,-1,10,-1,-1,50,120,,9999,0,0,1,SCT 35,1,22,1,12,1019,ROAH 150630Z 09010KT 050V120 9999 SCT035 22/12 Q1019 RMK     3CU035 A3009=,
20180115_070000.003,0,ROAH,,,,0,20180115070000,-1,-1,-1,-1,80,-1,9,-1,19,40,140,,9999,0,0,1,SCT 32,1,21,1,12,1019,ROAH 150700Z 08009G19KT 040V140 9999 SCT032 21/12 Q1019 RMK     3CU032 A3009=,
20180115_073000.001,0,ROAH,,,,0,20180115070000,-1,-1,-1,-1,90,-1,11,-1,-1,50,120,,9999,0,0,1,FEW 32,1,21,1,12,1019,ROAH 150730Z 09011KT 050V120 9999 FEW032 21/12 Q1019 RMK     2CU032 A3010=,
20180115_080000.002,0,ROAH,,,,0,20180115080000,-1,-1,-1,-1,80,-1,10,-1,-1,40,130,,9999,0,0,1,FEW 32,1,21,1,12,1019,ROAH 150800Z 08010KT 040V130 9999 FEW032 21/12 Q1019 RMK     2CU032 A3010=,
20180115_083000.001,0,ROAH,,,,0,20180115080000,-1,-1,-1,-1,90,-1,7,-1,-1,30,140,,9999,0,0,1,FEW 32,1,20,1,12,1019,ROAH 150830Z 09007KT 030V140 9999 FEW032 20/12 Q1019 RMK     2CU032 A3010=,
20180115_090000.002,0,ROAH,,,,0,20180115090000,-1,-1,-1,-1,90,-1,8,-1,-1,50,130,,9999,0,0,1,FEW 32,1,20,1,12,1019,ROAH 150900Z 09008KT 050V130 9999 FEW032 20/12 Q1019 RMK     2CU032 A3010=,
20180115_093000.001,0,ROAH,,,,0,20180115090000,-1,-1,-1,-1,100,-1,8,-1,-1,50,140,,9999,0,0,1,FEW 32,1,21,1,13,1019,ROAH 150930Z 10008KT 050V140 9999 FEW032 21/13 Q1019 RMK     2CU032 A3010=,
20180115_100000.002,0,ROAH,,,,0,20180115100000,-1,-1,-1,-1,90,-1,7,-1,-1,50,140,,9999,0,0,1,FEW 32,1,20,1,13,1019,ROAH 151000Z 09007KT 050V140 9999 FEW032 20/13 Q1019 RMK     2CU032 A3011=,
20180115_103000.001,0,ROAH,,,,0,20180115100000,-1,-1,-1,-1,100,-1,7,-1,-1,50,140,,9999,0,0,1,FEW 32,1,20,1,12,1019,ROAH 151030Z 10007KT 050V140 9999 FEW032 20/12 Q1019 RMK     2CU032 A3011=,
20180115_110000.002,0,ROAH,,,,0,20180115110000,-1,-1,-1,-1,100,-1,6,-1,-1,60,130,,9999,0,0,1,FEW 32,1,20,1,13,1020,ROAH 151100Z 10006KT 060V130 9999 FEW032 20/13 Q1020 RMK     2CU032 A3012=,
20180115_113000.001,0,ROAH,,,,0,20180115110000,-1,-1,-1,-1,100,-1,6,-1,-1,70,130,,9999,0,0,1,FEW 30,1,20,1,13,1020,ROAH 151130Z 10006KT 070V130 9999 FEW030 20/13 Q1020 RMK     1CU030 A3013=,
20180115_120000.002,0,ROAH,,,,0,20180115120000,-1,-1,-1,-1,100,-1,6,-1,-1,60,150,,9999,0,0,1,FEW 30,1,20,1,12,1020,ROAH 151200Z 10006KT 060V150 9999 FEW030 20/12 Q1020 RMK     1CU030 A3014=,
20180115_123000.001,0,ROAH,,,,0,20180115120000,-1,-1,-1,-1,90,-1,4,-1,-1,50,120,,9999,0,0,1,FEW 30,1,20,1,13,1020,ROAH 151230Z 09004KT 050V120 9999 FEW030 20/13 Q1020 RMK     1CU030 A3013=,
20180115_130000.002,0,ROAH,,,,0,20180115130000,-1,-1,-1,-1,100,-1,5,-1,-1,70,130,,9999,0,1,2,FEW 25   SCT 30,1,20,1,13,1020,ROAH 151300Z 10005KT 070V130 9999 -SHRA FEW025 SCT030 20/13     Q1020 RMK 1CU025 3CU030 A3014=,- RA SH
20180115_133000.001,0,ROAH,,,,0,20180115130000,-1,-1,-1,-1,110,-1,5,-1,-1,50,140,,9999,0,1,2,FEW 25   SCT 30,1,20,1,12,1020,ROAH 151330Z 11005KT 050V140 9999 -SHRA FEW025 SCT030 20/12     Q1020 RMK 1CU025 3CU030 A3014=,- RA SH
20180115_140000.002,0,ROAH,,,,0,20180115140000,-1,-1,-1,-1,100,-1,4,-1,-1,60,130,,9999,0,1,3,FEW 25   SCT 30   BKN 60,1,20,1,13,1020,ROAH 151400Z 10004KT 060V130 9999 -SHRA FEW025 SCT030 BKN060     20/13 Q1020 RMK 1CU025 3CU030 6SC060 A3013=,- RA SH
20180115_143000.001,0,ROAH,,,,0,20180115140000,-1,-1,-1,-1,110,-1,8,-1,-1,-1,-1,,9999,0,0,2,FEW 30   BKN 60,1,20,1,13,1020,ROAH 151430Z 11008KT 9999 FEW030 BKN060 20/13 Q1020 RMK 2CU030     6SC060 A3013=,
20180115_150000.002,0,ROAH,,,,0,20180115150000,-1,-1,-1,-1,100,-1,6,-1,-1,70,130,,9999,0,0,2,FEW 30   BKN 80,1,20,1,13,1020,ROAH 151500Z 10006KT 070V130 9999 FEW030 BKN080 20/13 Q1020     RMK 1CU030 5AC080 A3013=,
20180115_153000.001,0,ROAH,,,,0,20180115150000,-1,-1,-1,-1,110,-1,6,-1,-1,-1,-1,,9999,0,0,1,FEW 30,1,20,1,12,1020,ROAH 151530Z 11006KT 9999 FEW030 20/12 Q1020 RMK 1CU030 A3012=,
20180115_160000.002,0,ROAH,,,,0,20180115160000,-1,-1,-1,-1,110,-1,5,-1,-1,70,130,,9999,0,0,1,FEW 30,1,19,1,13,1019,ROAH 151600Z 11005KT 070V130 9999 FEW030 19/13 Q1019 RMK     1CU030 A3012=,
20180115_163000.001,0,ROAH,,,,0,20180115160000,-1,-1,-1,-1,90,-1,7,-1,-1,40,120,,9999,0,0,1,FEW 30,1,19,1,13,1019,ROAH 151630Z 09007KT 040V120 9999 FEW030 19/13 Q1019 RMK     1CU030 A3011=,
20180115_170000.002,0,ROAH,,,,0,20180115170000,-1,-1,-1,-1,110,-1,6,-1,-1,-1,-1,,9999,0,0,2,FEW 30   SCT 70,1,19,1,13,1019,ROAH 151700Z 11006KT 9999 FEW030 SCT070 19/13 Q1019 RMK 1CU030     3AC070 A3011=,
20180115_173000.001,0,ROAH,,,,0,20180115170000,-1,-1,-1,-1,110,-1,5,-1,-1,60,140,,9999,0,0,2,FEW 30   SCT 70,1,19,1,12,1019,ROAH 151730Z 11005KT 060V140 9999 FEW030 SCT070 19/12 Q1019     RMK 1CU030 3AC070 A3010=,
20180115_180000.002,0,ROAH,,,,0,20180115180000,-1,-1,-1,-1,100,-1,4,-1,-1,-1,-1,,9999,0,0,1,FEW 30,1,19,1,13,1019,ROAH 151800Z 10004KT 9999 FEW030 19/13 Q1019 RMK 1CU030 A3009=,
20180115_183000.001,0,ROAH,,,,0,20180115180000,-1,-1,-1,-1,100,-1,6,-1,-1,-1,-1,,9999,0,0,1,FEW 30,1,19,1,13,1018,ROAH 151830Z 10006KT 9999 FEW030 19/13 Q1018 RMK 1CU030 A3008=,
20180115_190000.002,0,ROAH,,,,0,20180115190000,-1,-1,-1,-1,110,-1,7,-1,-1,70,130,,9999,0,0,1,FEW 30,1,19,1,12,1018,ROAH 151900Z 11007KT 070V130 9999 FEW030 19/12 Q1018 RMK     1CU030 A3007=,
20180115_193000.001,0,ROAH,,,,0,20180115190000,-1,-1,-1,-1,110,-1,6,-1,-1,-1,-1,,9999,0,0,1,FEW 30,1,19,1,12,1018,ROAH 151930Z 11006KT 9999 FEW030 19/12 Q1018 RMK 1CU030 A3007=,
20180115_200000.002,0,ROAH,,,,0,20180115200000,-1,-1,-1,-1,100,-1,6,-1,-1,-1,-1,,9999,0,0,1,FEW 30,1,19,1,12,1018,ROAH 152000Z 10006KT 9999 FEW030 19/12 Q1018 RMK 1CU030 A3006=,
20180115_203000.001,0,ROAH,,,,0,20180115200000,-1,-1,-1,-1,110,-1,6,-1,-1,80,140,,9999,0,0,1,FEW 30,1,19,1,12,1018,ROAH 152030Z 11006KT 080V140 9999 FEW030 19/12 Q1018 RMK     1CU030 A3006=,
20180115_210000.002,0,ROAH,,,,0,20180115210000,-1,-1,-1,-1,110,-1,6,-1,-1,-1,-1,,9999,0,0,1,FEW 30,1,19,1,12,1018,ROAH 152100Z 11006KT 9999 FEW030 19/12 Q1018 RMK 1CU030 A3006=,
20180115_213000.001,0,ROAH,,,,0,20180115210000,-1,-1,-1,-1,110,-1,7,-1,-1,-1,-1,,9999,0,0,1,FEW 32,1,19,1,12,1018,ROAH 152130Z 11007KT 9999 FEW032 19/12 Q1018 RMK 1CU032 A3007=,
20180115_220000.002,0,ROAH,,,,0,20180115220000,-1,-1,-1,-1,100,-1,6,-1,-1,70,130,,9999,0,0,1,FEW 35,1,19,1,12,1018,ROAH 152200Z 10006KT 070V130 9999 FEW035 19/12 Q1018 RMK     1CU035 A3008=,
20180115_223000.002,0,ROAH,,,,0,20180115220000,-1,-1,-1,-1,110,-1,10,-1,-1,70,140,,9999,0,0,1,FEW 35,1,19,1,12,1018,ROAH 152230Z 11010KT 070V140 9999 FEW035 19/12 Q1018 RMK     2SC035 A3008=,
20180115_230000.002,0,ROAH,,,,0,20180115230000,-1,-1,-1,-1,110,-1,6,-1,-1,-1,-1,,9999,0,0,1,FEW 35,1,20,1,12,1018,ROAH 152300Z 11006KT 9999 FEW035 20/12 Q1018 RMK 2SC035 A3008=,
20180115_233000.001,0,ROAH,,,,0,20180115230000,-1,-1,-1,-1,120,-1,11,-1,-1,-1,-1,,9999,0,0,1,SCT 35,1,20,1,12,1018,ROAH 152330Z 12011KT 9999 SCT035 20/12 Q1018 RMK 3SC035 A3008=,
20180116_000000.002,0,ROAH,,,,0,20180116000000,-1,-1,-1,-1,120,-1,13,-1,-1,-1,-1,,9999,0,0,1,FEW 35,1,21,1,12,1018,ROAH 160000Z 12013KT 9999 FEW035 21/12 Q1018 RMK 2SC035 A3008=,
20180116_003000.001,0,ROAH,,,,0,20180116000000,-1,-1,-1,-1,120,-1,13,-1,-1,-1,-1,,9999,0,0,1,FEW 35,1,21,1,11,1019,ROAH 160030Z 12013KT 9999 FEW035 21/11 Q1019 RMK 1SC035 A3009=,
20180116_010000.002,0,ROAH,,,,0,20180116010000,-1,-1,-1,-1,120,-1,12,-1,-1,90,150,,9999,0,0,1,FEW 35,1,22,1,11,1019,ROAH 160100Z 12012KT 090V150 9999 FEW035 22/11 Q1019 RMK     2CU035 A3010=,
20180116_013000.001,0,ROAH,,,,0,20180116010000,-1,-1,-1,-1,120,-1,13,-1,-1,70,150,,9999,0,0,1,FEW 38,1,22,1,12,1018,ROAH 160130Z 12013KT 070V150 9999 FEW038 22/12 Q1018 RMK     2CU038 A3008=,
20180116_020000.002,0,ROAH,,,,0,20180116020000,-1,-1,-1,-1,120,-1,15,-1,-1,-1,-1,,9999,0,0,1,SCT 35,1,22,1,12,1018,ROAH 160200Z 12015KT 9999 SCT035 22/12 Q1018 RMK 3CU035 A3008=,
20180116_023000.001,0,ROAH,,,,0,20180116020000,-1,-1,-1,-1,110,-1,15,-1,-1,70,150,,9999,0,0,1,FEW 35,1,22,1,12,1018,ROAH 160230Z 11015KT 070V150 9999 FEW035 22/12 Q1018 RMK     2CU035 A3006=,
20180116_030000.002,0,ROAH,,,,0,20180116030000,-1,-1,-1,-1,120,-1,15,-1,-1,-1,-1,,9999,0,0,1,SCT 35,1,23,1,12,1018,ROAH 160300Z 12015KT 9999 SCT035 23/12 Q1018 RMK 3CU035 A3006=,
20180116_033000.001,0,ROAH,,,,0,20180116030000,-1,-1,-1,-1,130,-1,14,-1,-1,90,160,,9999,0,0,1,SCT 38,1,22,1,12,1017,ROAH 160330Z 13014KT 090V160 9999 SCT038 22/12 Q1017 RMK     3CU038 A3004=,
20180116_040000.002,0,ROAH,,,,0,20180116040000,-1,-1,-1,-1,130,-1,16,-1,-1,-1,-1,,9999,0,0,1,SCT 35,1,23,1,13,1016,ROAH 160400Z 13016KT 9999 SCT035 23/13 Q1016 RMK 3CU035 A3002=,
20180116_043000.001,0,ROAH,,,,0,20180116040000,-1,-1,-1,-1,130,-1,15,-1,-1,-1,-1,,9999,0,0,1,SCT 30,1,23,1,14,1016,ROAH 160430Z 13015KT 9999 SCT030 23/14 Q1016 RMK 3CU030 A3000=,
20180116_050000.002,0,ROAH,,,,0,20180116050000,-1,-1,-1,-1,130,-1,16,-1,-1,100,160,,9999,0,0,1,SCT 30,1,23,1,13,1015,ROAH 160500Z 13016KT 100V160 9999 SCT030 23/13 Q1015 RMK     4CU030 A2999=,
20180116_053000.001,0,ROAH,,,,0,20180116050000,-1,-1,-1,-1,130,-1,14,-1,24,-1,-1,,9999,0,0,2,FEW 33   BKN 130,1,23,1,13,1015,ROAH 160530Z 13014G24KT 9999 FEW033 BKN130 23/13 Q1015 RMK     2CU033 7AC130 A2998=,
20180116_060000.002,0,ROAH,,,,0,20180116060000,-1,-1,-1,-1,130,-1,15,-1,-1,90,160,,9999,0,0,1,SCT 33,1,23,1,14,1014,ROAH 160600Z 13015KT 090V160 9999 SCT033 23/14 Q1014 RMK     3CU033 A2996=,
20180116_063000.001,0,ROAH,,,,0,20180116060000,-1,-1,-1,-1,130,-1,16,-1,-1,-1,-1,,9999,0,0,1,FEW 33,1,23,1,13,1014,ROAH 160630Z 13016KT 9999 FEW033 23/13 Q1014 RMK 2CU033 A2996=,
20180116_070000.002,0,ROAH,,,,0,20180116070000,-1,-1,-1,-1,140,-1,15,-1,-1,-1,-1,,9999,0,0,1,FEW 35,1,23,1,12,1014,ROAH 160700Z 14015KT 9999 FEW035 23/12 Q1014 RMK 2CU035 A2996=,
20180116_073000.001,0,ROAH,,,,0,20180116070000,-1,-1,-1,-1,140,-1,13,-1,-1,110,180,,9999,0,0,1,FEW 35,1,23,1,13,1014,ROAH 160730Z 14013KT 110V180 9999 FEW035 23/13 Q1014 RMK     2CU035 A2997=,
20180116_080000.002,0,ROAH,,,,0,20180116080000,-1,-1,-1,-1,140,-1,14,-1,-1,-1,-1,,9999,0,0,1,SCT 35,1,23,1,13,1014,ROAH 160800Z 14014KT 9999 SCT035 23/13 Q1014 RMK 3CU035 A2996=,
20180116_083000.001,0,ROAH,,,,0,20180116080000,-1,-1,-1,-1,150,-1,14,-1,-1,-1,-1,,9999,0,0,1,SCT 35,1,22,1,13,1014,ROAH 160830Z 15014KT 9999 SCT035 22/13 Q1014 RMK 3CU035 A2996=,
20180116_090000.002,0,ROAH,,,,0,20180116090000,-1,-1,-1,-1,140,-1,10,-1,-1,-1,-1,,9999,0,0,1,FEW 35,1,22,1,13,1014,ROAH 160900Z 14010KT 9999 FEW035 22/13 Q1014 RMK 1CU035 A2996=,
20180116_093000.001,0,ROAH,,,,0,20180116090000,-1,-1,-1,-1,140,-1,9,-1,-1,-1,-1,,9999,0,0,1,FEW 35,1,22,1,14,1014,ROAH 160930Z 14009KT 9999 FEW035 22/14 Q1014 RMK 1CU035 A2997=,
20180116_100000.002,0,ROAH,,,,0,20180116100000,-1,-1,-1,-1,140,-1,9,-1,-1,-1,-1,,9999,0,0,1,FEW 35,1,22,1,14,1014,ROAH 161000Z 14009KT 9999 FEW035 22/14 Q1014 RMK 1CU035 A2997=,
20180116_103000.001,0,ROAH,,,,0,20180116100000,-1,-1,-1,-1,140,-1,8,-1,-1,-1,-1,,9999,0,0,2,FEW 35   BKN 130,1,22,1,14,1014,ROAH 161030Z 14008KT 9999 FEW035 BKN130 22/14 Q1014 RMK 1CU035     6AC130 A2997=,
20180116_110000.004,0,ROAH,,,,0,20180116110000,-1,-1,-1,-1,150,-1,9,-1,-1,-1,-1,,9999,0,0,2,FEW 35   BKN 130,1,22,1,14,1015,ROAH 161100Z 15009KT 9999 FEW035 BKN130 22/14 Q1015 RMK 1CU035     6AC130 A2998=,
20180116_113000.001,0,ROAH,,,,0,20180116110000,-1,-1,-1,-1,150,-1,9,-1,-1,-1,-1,,9999,0,0,2,FEW 30   BKN 130,1,22,1,14,1015,ROAH 161130Z 15009KT 9999 FEW030 BKN130 22/14 Q1015 RMK 1CU030     6AC130 A2999=,
20180116_120000.002,0,ROAH,,,,0,20180116120000,-1,-1,-1,-1,150,-1,9,-1,-1,-1,-1,,9999,0,0,2,FEW 30   BKN 110,1,22,1,14,1015,ROAH 161200Z 15009KT 9999 FEW030 BKN110 22/14 Q1015 RMK 1CU030     7AC110 A2998=,
20180116_123000.001,0,ROAH,,,,0,20180116120000,-1,-1,-1,-1,140,-1,7,-1,-1,-1,-1,,9999,0,0,2,FEW 30   BKN 100,1,22,1,14,1015,ROAH 161230Z 14007KT 9999 FEW030 BKN100 22/14 Q1015 RMK 1CU030     7AC100 A2998=,
20180116_130000.002,0,ROAH,,,,0,20180116130000,-1,-1,-1,-1,140,-1,8,-1,-1,-1,-1,,9999,0,0,2,FEW 30   BKN 100,1,22,1,15,1015,ROAH 161300Z 14008KT 9999 FEW030 BKN100 22/15 Q1015 RMK 1CU030     7AC100 A2997=,
20180116_133000.001,0,ROAH,,,,0,20180116130000,-1,-1,-1,-1,140,-1,7,-1,-1,-1,-1,,9999,0,0,2,FEW 30   SCT 100,1,21,1,15,1015,ROAH 161330Z 14007KT 9999 FEW030 SCT100 21/15 Q1015 RMK 1CU030     4AC100 A2997=,
20180116_140000.002,0,ROAH,,,,0,20180116140000,-1,-1,-1,-1,140,-1,6,-1,-1,-1,-1,,9999,0,0,2,FEW 30   SCT 100,1,21,1,15,1015,ROAH 161400Z 14006KT 9999 FEW030 SCT100 21/15 Q1015 RMK 1CU030     4AC100 A2997=,
20180116_143000.001,0,ROAH,,,,0,20180116140000,-1,-1,-1,-1,150,-1,5,-1,-1,-1,-1,,9999,0,0,2,FEW 25   BKN 100,1,21,1,15,1014,ROAH 161430Z 15005KT 9999 FEW025 BKN100 21/15 Q1014 RMK 1CU025     6AC100 A2997=,
20180116_150000.002,0,ROAH,,,,0,20180116150000,-1,-1,-1,-1,140,-1,6,-1,-1,-1,-1,,9999,0,0,2,FEW 25   BKN 100,1,21,1,15,1014,ROAH 161500Z 14006KT 9999 FEW025 BKN100 21/15 Q1014 RMK 1CU025     6AC100 A2996=,
20180116_153000.001,0,ROAH,,,,0,20180116150000,-1,-1,-1,-1,150,-1,7,-1,-1,-1,-1,,9999,0,0,2,FEW 25   BKN 100,1,21,1,16,1014,ROAH 161530Z 15007KT 9999 FEW025 BKN100 21/16 Q1014 RMK 1CU025     6AC100 A2995=,
20180116_160000.002,0,ROAH,,,,0,20180116160000,-1,-1,-1,-1,150,-1,6,-1,-1,-1,-1,,9999,0,0,2,FEW 25   BKN 100,1,21,1,16,1014,ROAH 161600Z 15006KT 9999 FEW025 BKN100 21/16 Q1014 RMK 2CU025     6AC100 A2995=,
20180116_163000.001,0,ROAH,,,,0,20180116160000,-1,-1,-1,-1,170,-1,8,-1,-1,-1,-1,,9999,0,0,2,FEW 25   BKN 100,1,22,1,16,1014,ROAH 161630Z 17008KT 9999 FEW025 BKN100 22/16 Q1014 RMK 2CU025     6AC100 A2995=,
20180116_170000.002,0,ROAH,,,,0,20180116170000,-1,-1,-1,-1,170,-1,10,-1,-1,-1,-1,,9999,0,1,2,SCT 25   BKN 100,1,22,1,17,1014,ROAH 161700Z 17010KT 9999 VCSH SCT025 BKN100 22/17 Q1014 RMK     3CU025 6AC100 A2994=,VC SH
20180116_173000.001,0,ROAH,,,,0,20180116170000,-1,-1,-1,-1,180,-1,7,-1,-1,-1,-1,,9999,0,1,2,SCT 20   BKN 70,1,21,1,18,1013,ROAH 161730Z 18007KT 9999 -SHRA SCT020 BKN070 21/18 Q1013 RMK     3CU020 6AC070 A2994=,- RA SH
20180116_180000.002,0,ROAH,,,,0,20180116180000,-1,-1,-1,-1,130,-1,6,-1,-1,-1,-1,,9999,0,1,2,SCT 20   BKN 40,1,20,1,17,1013,ROAH 161800Z 13006KT 9999 -SHRA SCT020 BKN040 20/17 Q1013 RMK     3CU020 6SC040 A2993=,- RA SH
20180116_183000.001,0,ROAH,,,,0,20180116180000,-1,-1,-1,-1,180,-1,11,-1,-1,-1,-1,,9999,0,1,3,FEW 25   SCT 50   BKN 90,1,21,1,17,1013,ROAH 161830Z 18011KT 9999 VCSH FEW025 SCT050 BKN090 21/17     Q1013 RMK 2CU025 4SC050 7AC090 A2993=,VC SH
20180116_190000.002,0,ROAH,,,,0,20180116190000,-1,-1,-1,-1,180,-1,10,-1,-1,-1,-1,,9999,0,0,2,FEW 25   BKN 90,1,21,1,17,1013,ROAH 161900Z 18010KT 9999 FEW025 BKN090 21/17 Q1013 RMK 1CU025     7AC090 A2993=,
20180116_193000.001,0,ROAH,,,,0,20180116190000,-1,-1,-1,-1,180,-1,10,-1,-1,-1,-1,,9999,0,0,2,FEW 25   BKN 90,1,21,1,16,1013,ROAH 161930Z 18010KT 9999 FEW025 BKN090 21/16 Q1013 RMK 1CU025     7AC090 A2992=,
20180116_200000.002,0,ROAH,,,,0,20180116200000,-1,-1,-1,-1,160,-1,8,-1,-1,-1,-1,,9999,0,0,2,FEW 25   BKN 80,1,21,1,17,1013,ROAH 162000Z 16008KT 9999 FEW025 BKN080 21/17 Q1013 RMK 1CU025     7AC080 A2992=,
20180116_203000.001,0,ROAH,,,,0,20180116200000,-1,-1,-1,-1,160,-1,6,-1,-1,-1,-1,,9999,0,0,2,FEW 25   BKN 80,1,21,1,17,1013,ROAH 162030Z 16006KT 9999 FEW025 BKN080 21/17 Q1013 RMK 1CU025     7AC080 A2992=,
20180116_210000.002,0,ROAH,,,,0,20180116210000,-1,-1,-1,-1,160,-1,6,-1,-1,-1,-1,,9999,0,0,2,FEW 25   BKN 70,1,21,1,17,1013,ROAH 162100Z 16006KT 9999 FEW025 BKN070 21/17 Q1013 RMK 1CU025     7AC070 A2993=,
20180116_213000.001,0,ROAH,,,,0,20180116210000,-1,-1,-1,-1,170,-1,6,-1,-1,-1,-1,,9999,0,1,2,FEW 25   BKN 70,1,21,1,17,1014,ROAH 162130Z 17006KT 9999 VCSH FEW025 BKN070 21/17 Q1014 RMK     1CU025 7AC070 A2995=,VC SH
20180116_220000.002,0,ROAH,,,,0,20180116220000,-1,-1,-1,-1,200,-1,13,-1,-1,-1,-1,,9999,0,1,2,FEW 24   BKN 60,1,21,1,16,1014,ROAH 162200Z 20013KT 9999 -SHRA FEW024 BKN060 21/16 Q1014 RMK     2CU024 7SC060 A2995=,- RA SH
20180116_223000.002,0,ROAH,,,,0,20180116220000,-1,-1,-1,-1,140,-1,6,-1,-1,-1,-1,,9999,0,1,3,FEW 24   SCT 30   BKN 50,1,20,1,15,1014,ROAH 162230Z 14006KT 9999 -SHRA FEW024 SCT030 BKN050 20/15     Q1014 RMK 1CU024 3CU030 6SC050 A2996=,- RA SH
20180116_230000.002,0,ROAH,,,,0,20180116230000,-1,-1,-1,-1,140,-1,5,-1,-1,-1,-1,,9999,0,1,2,SCT 24   BKN 70,1,20,1,17,1014,ROAH 162300Z 14005KT 9999 -SHRA SCT024 BKN070 20/17 Q1014 RMK     4CU024 7AC070 A2996=,- RA SH
20180116_233000.001,0,ROAH,,,,0,20180116230000,-1,-1,-1,-1,130,-1,6,-1,-1,-1,-1,,9999,0,1,2,SCT 22   BKN 70,1,20,1,18,1015,ROAH 162330Z 13006KT 9999 -SHRA SCT022 BKN070 20/18 Q1015 RMK     4CU022 7AC070 A2997=,- RA SH
20180117_000000.002,0,ROAH,,,,0,20180117000000,-1,-1,-1,-1,999,-1,3,-1,-1,-1,-1,,9999,0,1,3,FEW 18   SCT 25   BKN 50,1,19,1,17,1015,ROAH 170000Z VRB03KT 9999 -SHRA FEW018 SCT025 BKN050 19/17     Q1015 RMK 1CU018 3CU025 6SC050 A2998=,- RA SH
20180117_003000.001,0,ROAH,,,,0,20180117000000,-1,-1,-1,-1,20,-1,4,-1,-1,340,50,,9999,0,1,2,FEW 25   BKN 50,1,20,1,17,1015,ROAH 170030Z 02004KT 340V050 9999 -RA FEW025 BKN050 20/17     Q1015 RMK 1CU025 7SC050 A2999=,- RA
20180117_010000.002,0,ROAH,,,,0,20180117010000,-1,-1,-1,-1,60,-1,3,-1,-1,20,100,,9999,0,0,3,FEW 25   BKN 60   BKN 80,1,21,1,17,1015,ROAH 170100Z 06003KT 020V100 9999 FEW025 BKN060 BKN080 21/17     Q1015 RMK 1CU025 6SC060 7AC080 A3000=,
20180117_013000.001,0,ROAH,,,,0,20180117010000,-1,-1,-1,-1,10,-1,6,-1,-1,-1,-1,,9999,0,1,2,FEW 25   BKN 60,1,21,1,17,1016,ROAH 170130Z 01006KT 9999 -RA FEW025 BKN060 21/17 Q1016 RMK     1CU025 7SC060 A3001=,- RA
20180117_020000.004,0,ROAH,,,,0,20180117020000,-1,-1,-1,-1,20,-1,7,-1,-1,-1,-1,,9999,0,1,2,FEW 30   BKN 60,1,21,1,17,1016,ROAH 170200Z 02007KT 9999 -RA FEW030 BKN060 21/17 Q1016 RMK     2CU030 7SC060 A3001=,- RA
20180117_023000.001,0,ROAH,,,,0,20180117020000,-1,-1,-1,-1,350,-1,13,-1,-1,-1,-1,,9999,0,1,3,FEW 9   SCT 30   BKN 50,1,20,1,18,1016,ROAH 170230Z 35013KT 9999 -RA FEW009 SCT030 BKN050 20/18 Q1016     RMK 1ST009 3CU030 7SC050 A3001=,- RA
20180117_030000.002,0,ROAH,,,,0,20180117030000,-1,-1,-1,-1,350,-1,15,-1,-1,-1,-1,,3500,0,1,3,FEW 4   SCT 10   BKN 20,1,20,1,18,1016,ROAH 170300Z 35015KT 3500 SHRA FEW004 SCT010 BKN020 20/18     Q1016 RMK 1ST004 3CU010 5CU020 A3000=,RA SH
20180117_033000.001,0,ROAH,,,,0,20180117030000,-1,-1,-1,-1,340,-1,11,-1,-1,-1,-1,,6000,0,1,3,FEW 4   SCT 6   BKN 10,1,19,1,18,1016,ROAH 170330Z 34011KT 6000 SHRA FEW004 SCT006 BKN010 19/18     Q1016 RMK 1ST004 3ST006 6CU010 A3000=,RA SH
20180117_040000.003,0,ROAH,,,,0,20180117040000,-1,-1,-1,-1,330,-1,9,-1,-1,-1,-1,,3000,0,1,3,SCT 3   BKN 5   BKN 10,1,19,1,18,1015,ROAH 170400Z 33009KT 3000 SHRA SCT003 BKN005 BKN010 19/18     Q1015 RMK 3ST003 6ST005 7CU010 A2999=,RA SH
20180117_043000.001,0,ROAH,,,,0,20180117040000,-1,-1,-1,-1,350,-1,9,-1,-1,-1,-1,,9999,0,1,3,SCT 5   BKN 10   BKN 20,1,19,1,18,1015,ROAH 170430Z 35009KT 9999 SHRA SCT005 BKN010 BKN020 19/18     Q1015 RMK 3ST005 5CU010 7CU020 A2999 4000E=,RA SH
20180117_050000.003,0,ROAH,,,,0,20180117050000,-1,-1,-1,-1,350,-1,11,-1,-1,-1,-1,,3000,0,1,3,SCT 5   BKN 8   BKN 12,1,19,1,18,1015,ROAH 170500Z 35011KT 3000 SHRA SCT005 BKN008 BKN012 19/18     Q1015 RMK 3ST005 5ST008 7CU012 A2999=,RA SH
20180117_053000.001,0,ROAH,,,,0,20180117050000,-1,-1,-1,-1,350,-1,14,-1,-1,-1,-1,,9999,0,1,3,FEW 4   SCT 8   BKN 12,1,19,1,18,1015,ROAH 170530Z 35014KT 9999 -SHRA FEW004 SCT008 BKN012 19/18     Q1015 RMK 2ST004 4ST008 7CU012 A2998=,- RA SH
20180117_060000.002,0,ROAH,,,,0,20180117060000,-1,-1,-1,-1,10,-1,12,-1,-1,-1,-1,,5000,0,1,3,FEW 4   SCT 8   BKN 12,1,19,1,18,1015,ROAH 170600Z 01012KT 5000 -SHRA FEW004 SCT008 BKN012 19/18     Q1015 RMK 1ST004 4ST008 7CU012 A2998=,- RA SH
20180117_063000.001,0,ROAH,,,,0,20180117060000,-1,-1,-1,-1,20,-1,8,-1,-1,360,70,,8000,0,1,3,FEW 5   SCT 12   BKN 35,1,19,1,18,1015,ROAH 170630Z 02008KT 360V070 8000 -SHRA FEW005 SCT012 BKN035     19/18 Q1015 RMK 1ST005 3CU012 6CU035 A2998=,- RA SH
20180117_070000.002,0,ROAH,,,,0,20180117070000,-1,-1,-1,-1,20,-1,8,-1,-1,360,60,,4000,0,1,3,FEW 5   SCT 10   BKN 30,1,19,1,18,1015,ROAH 170700Z 02008KT 360V060 4000 SHRA FEW005 SCT010 BKN030     19/18 Q1015 RMK 2ST005 3CU010 6CU030 A2998=,RA SH
20180117_073000.001,0,ROAH,,,,0,20180117070000,-1,-1,-1,-1,20,-1,7,-1,-1,350,60,,9999,0,1,3,FEW 5   SCT 8   BKN 50,1,19,1,18,1015,ROAH 170730Z 02007KT 350V060 9999 -SHRA FEW005 SCT008 BKN050     19/18 Q1015 RMK 1ST005 3ST008 6SC050 A2998=,- RA SH
20180117_080000.002,0,ROAH,,,,0,20180117080000,-1,-1,-1,-1,50,-1,5,-1,-1,20,90,,9999,0,1,2,FEW 5   BKN 48,1,19,1,18,1015,ROAH 170800Z 05005KT 020V090 9999 VCSH FEW005 BKN048 19/18     Q1015 RMK 1ST005 7SC048 A2998=,VC SH
20180117_083000.001,0,ROAH,,,,0,20180117080000,-1,-1,-1,-1,90,-1,3,-1,-1,30,120,,9999,0,1,2,FEW 5   BKN 43,1,20,1,18,1015,ROAH 170830Z 09003KT 030V120 9999 VCSH FEW005 BKN043 20/18     Q1015 RMK 1ST005 7SC043 A2998=,VC SH
20180117_090000.003,0,ROAH,,,,0,20180117090000,-1,-1,-1,-1,100,-1,4,-1,-1,60,130,,9999,0,1,2,FEW 8   BKN 38,1,20,1,18,1015,ROAH 170900Z 10004KT 060V130 9999 VCSH FEW008 BKN038 20/18     Q1015 RMK 1ST008 7SC038 A2999=,VC SH
20180117_093000.001,0,ROAH,,,,0,20180117090000,-1,-1,-1,-1,20,-1,8,-1,-1,-1,-1,,7000,0,1,3,SCT 5   BKN 7   BKN 20,1,19,1,18,1016,ROAH 170930Z 02008KT 7000 -RA SCT005 BKN007 BKN020 19/18 Q1016     RMK 3ST005 5ST007 7CU020 A3000=,- RA
20180117_100000.002,0,ROAH,,,,0,20180117100000,-1,-1,-1,-1,20,-1,10,-1,-1,-1,-1,,4000,0,1,3,SCT 4   BKN 10   BKN 15,1,19,1,18,1016,ROAH 171000Z 02010KT 4000 -RA SCT004 BKN010 BKN015 19/18 Q1016     RMK 3ST004 5CU010 7CU015 A3002=,- RA
20180117_103000.001,0,ROAH,,,,0,20180117100000,-1,-1,-1,-1,30,-1,9,-1,-1,-1,-1,,9999,0,0,3,FEW 6   BKN 10   BKN 15,1,19,1,17,1016,ROAH 171030Z 03009KT 9999 FEW006 BKN010 BKN015 19/17 Q1016 RMK     2ST006 5CU010 7CU015 A3003=,
20180117_110000.003,0,ROAH,,,,0,20180117110000,-1,-1,-1,-1,40,-1,8,-1,-1,20,90,,9999,0,0,2,FEW 10   BKN 20,1,19,1,17,1017,ROAH 171100Z 04008KT 020V090 9999 FEW010 BKN020 19/17 Q1017     RMK 2CU010 7CU020 A3003=,
20180117_113000.001,0,ROAH,,,,0,20180117110000,-1,-1,-1,-1,40,-1,5,-1,-1,-1,-1,,9999,0,0,2,FEW 10   BKN 22,1,20,1,17,1017,ROAH 171130Z 04005KT 9999 FEW010 BKN022 20/17 Q1017 RMK 1CU010     7CU022 A3004=,
20180117_120000.003,0,ROAH,,,,0,20180117120000,-1,-1,-1,-1,50,-1,7,-1,-1,-1,-1,,9999,0,0,2,FEW 10   BKN 25,1,20,1,17,1017,ROAH 171200Z 05007KT 9999 FEW010 BKN025 20/17 Q1017 RMK 1CU010     6CU025 A3004=,
20180117_123000.001,0,ROAH,,,,0,20180117120000,-1,-1,-1,-1,50,-1,6,-1,-1,-1,-1,,9999,0,0,3,FEW 10   SCT 20   BKN 90,1,20,1,17,1017,ROAH 171230Z 05006KT 9999 FEW010 SCT020 BKN090 20/17 Q1017 RMK     1CU010 3CU020 6AC090 A3004=,
20180117_130000.002,0,ROAH,,,,0,20180117130000,-1,-1,-1,-1,50,-1,8,-1,-1,20,80,,9999,0,0,3,FEW 10   SCT 25   BKN 90,1,20,1,17,1017,ROAH 171300Z 05008KT 020V080 9999 FEW010 SCT025 BKN090 20/17     Q1017 RMK 2CU010 4CU025 6AC090 A3004=,
20180117_133000.001,0,ROAH,,,,0,20180117130000,-1,-1,-1,-1,40,-1,10,-1,-1,-1,-1,,9999,0,0,2,FEW 10   BKN 25,1,19,1,17,1017,ROAH 171330Z 04010KT 9999 FEW010 BKN025 19/17 Q1017 RMK 2CU010     6CU025 A3005=,
20180117_140000.002,0,ROAH,,,,0,20180117140000,-1,-1,-1,-1,50,-1,9,-1,-1,-1,-1,,9999,0,0,3,FEW 10   SCT 23   BKN 30,1,19,1,16,1017,ROAH 171400Z 05009KT 9999 FEW010 SCT023 BKN030 19/16 Q1017 RMK     1CU010 3CU023 6CU030 A3004=,
20180117_143000.001,0,ROAH,,,,0,20180117140000,-1,-1,-1,-1,50,-1,8,-1,-1,-1,-1,,9999,0,0,3,FEW 10   SCT 23   BKN 30,1,19,1,16,1017,ROAH 171430Z 05008KT 9999 FEW010 SCT023 BKN030 19/16 Q1017 RMK     1CU010 3CU023 6CU030 A3005=,
20180117_150000.002,0,ROAH,,,,0,20180117150000,-1,-1,-1,-1,50,-1,8,-1,-1,-1,-1,,9999,0,0,2,FEW 10   BKN 28,1,19,1,16,1017,ROAH 171500Z 05008KT 9999 FEW010 BKN028 19/16 Q1017 RMK 1CU010     6CU028 A3005=,
20180117_153000.001,0,ROAH,,,,0,20180117150000,-1,-1,-1,-1,50,-1,8,-1,-1,-1,-1,,9999,0,0,2,FEW 15   BKN 28,1,19,1,15,1017,ROAH 171530Z 05008KT 9999 FEW015 BKN028 19/15 Q1017 RMK 1CU015     6CU028 A3005=,
20180117_160000.002,0,ROAH,,,,0,20180117160000,-1,-1,-1,-1,50,-1,8,-1,-1,-1,-1,,9999,0,0,2,FEW 15   BKN 28,1,19,1,16,1017,ROAH 171600Z 05008KT 9999 FEW015 BKN028 19/16 Q1017 RMK 1CU015     7CU028 A3005=,
20180117_163000.001,0,ROAH,,,,0,20180117160000,-1,-1,-1,-1,50,-1,7,-1,-1,-1,-1,,9999,0,0,2,FEW 15   BKN 28,1,19,1,16,1017,ROAH 171630Z 05007KT 9999 FEW015 BKN028 19/16 Q1017 RMK 1CU015     7CU028 A3004=,
20180117_170000.002,0,ROAH,,,,0,20180117170000,-1,-1,-1,-1,60,-1,8,-1,-1,-1,-1,,9999,0,0,2,FEW 15   BKN 28,1,20,1,16,1016,ROAH 171700Z 06008KT 9999 FEW015 BKN028 20/16 Q1016 RMK 1CU015     6CU028 A3003=,
20180117_173000.001,0,ROAH,,,,0,20180117170000,-1,-1,-1,-1,60,-1,8,-1,-1,-1,-1,,9999,0,0,3,FEW 15   SCT 28   BKN 100,1,20,1,16,1017,ROAH 171730Z 06008KT 9999 FEW015 SCT028 BKN100 20/16 Q1017 RMK     1CU015 3CU028 5AC100 A3003=,
20180117_180000.002,0,ROAH,,,,0,20180117180000,-1,-1,-1,-1,40,-1,7,-1,-1,-1,-1,,9999,0,0,2,FEW 15   BKN 28,1,19,1,16,1016,ROAH 171800Z 04007KT 9999 FEW015 BKN028 19/16 Q1016 RMK 1CU015     6CU028 A3002=,
20180117_183000.001,0,ROAH,,,,0,20180117180000,-1,-1,-1,-1,40,-1,8,-1,-1,-1,-1,,9999,0,0,2,FEW 15   BKN 30,1,19,1,16,1016,ROAH 171830Z 04008KT 9999 FEW015 BKN030 19/16 Q1016 RMK 1CU015     7CU030 A3003=,
20180117_190000.003,0,ROAH,,,,0,20180117190000,-1,-1,-1,-1,50,-1,7,-1,-1,-1,-1,,9999,0,0,2,FEW 15   BKN 30,1,19,1,16,1016,ROAH 171900Z 05007KT 9999 FEW015 BKN030 19/16 Q1016 RMK 1CU015     7CU030 A3002=,
20180117_193000.001,0,ROAH,,,,0,20180117190000,-1,-1,-1,-1,60,-1,7,-1,-1,-1,-1,,9999,0,0,2,FEW 15   BKN 29,1,19,1,16,1016,ROAH 171930Z 06007KT 9999 FEW015 BKN029 19/16 Q1016 RMK 1CU015     7CU029 A3003=,
20180117_200000.002,0,ROAH,,,,0,20180117200000,-1,-1,-1,-1,60,-1,8,-1,-1,-1,-1,,9999,0,0,2,FEW 15   BKN 28,1,20,1,16,1016,ROAH 172000Z 06008KT 9999 FEW015 BKN028 20/16 Q1016 RMK 1CU015     7CU028 A3003=,
20180117_203000.001,0,ROAH,,,,0,20180117200000,-1,-1,-1,-1,60,-1,8,-1,-1,-1,-1,,9999,0,0,2,FEW 15   BKN 28,1,20,1,16,1017,ROAH 172030Z 06008KT 9999 FEW015 BKN028 20/16 Q1017 RMK 1CU015     7CU028 A3003=,
20180117_210000.002,0,ROAH,,,,0,20180117210000,-1,-1,-1,-1,60,-1,9,-1,-1,-1,-1,,9999,0,0,2,FEW 15   BKN 28,1,20,1,16,1017,ROAH 172100Z 06009KT 9999 FEW015 BKN028 20/16 Q1017 RMK 1CU015     7CU028 A3004=,
20180117_213000.001,0,ROAH,,,,0,20180117210000,-1,-1,-1,-1,60,-1,9,-1,-1,-1,-1,,9999,0,0,2,FEW 15   BKN 35,1,20,1,16,1017,ROAH 172130Z 06009KT 9999 FEW015 BKN035 20/16 Q1017 RMK 1CU015     7SC035 A3004=,
20180117_220000.003,0,ROAH,,,,0,20180117220000,-1,-1,-1,-1,60,-1,9,-1,-1,-1,-1,,9999,0,0,2,FEW 15   BKN 35,1,20,1,16,1017,ROAH 172200Z 06009KT 9999 FEW015 BKN035 20/16 Q1017 RMK 1CU015     7SC035 A3005=,
20180117_223000.002,0,ROAH,,,,0,20180117220000,-1,-1,-1,-1,70,-1,8,-1,-1,50,120,,9999,0,0,1,BKN 35,1,20,1,16,1018,ROAH 172230Z 07008KT 050V120 9999 BKN035 20/16 Q1018 RMK     7SC035 A3006=,
20180117_230000.002,0,ROAH,,,,0,20180117230000,-1,-1,-1,-1,50,-1,8,-1,-1,20,130,,9999,0,0,1,BKN 37,1,20,1,16,1018,ROAH 172300Z 05008KT 020V130 9999 BKN037 20/16 Q1018 RMK     7SC037 A3007=,
20180117_233000.001,0,ROAH,,,,0,20180117230000,-1,-1,-1,-1,50,-1,7,-1,-1,-1,-1,,9999,0,0,1,BKN 40,1,21,1,17,1018,ROAH 172330Z 05007KT 9999 BKN040 21/17 Q1018 RMK 7SC040 A3008=,
20180118_000000.002,0,ROAH,,,,0,20180118000000,-1,-1,-1,-1,50,-1,7,-1,-1,10,90,,9999,0,0,1,BKN 39,1,21,1,17,1019,ROAH 180000Z 05007KT 010V090 9999 BKN039 21/17 Q1019 RMK     7SC039 A3010=,
20180118_003000.001,0,ROAH,,,,0,20180118000000,-1,-1,-1,-1,30,-1,7,-1,-1,360,70,,9999,0,0,1,BKN 40,1,21,1,16,1019,ROAH 180030Z 03007KT 360V070 9999 BKN040 21/16 Q1019 RMK     7SC040 A3010=,
20180118_010000.002,0,ROAH,,,,0,20180118010000,-1,-1,-1,-1,20,-1,8,-1,-1,-1,-1,,9999,0,0,1,BKN 45,1,21,1,17,1019,ROAH 180100Z 02008KT 9999 BKN045 21/17 Q1019 RMK 7SC045 A3011=,
20180118_013000.001,0,ROAH,,,,0,20180118010000,-1,-1,-1,-1,20,-1,8,-1,-1,360,70,,9999,0,0,2,FEW 15   BKN 45,1,21,1,16,1020,ROAH 180130Z 02008KT 360V070 9999 FEW015 BKN045 21/16 Q1020     RMK 1CU015 7SC045 A3012=,
20180118_020000.002,0,ROAH,,,,0,20180118020000,-1,-1,-1,-1,40,-1,7,-1,-1,350,120,,9999,0,0,2,FEW 20   BKN 45,1,21,1,16,1019,ROAH 180200Z 04007KT 350V120 9999 FEW020 BKN045 21/16 Q1019     RMK 2CU020 7SC045 A3011=,
20180118_023000.001,0,ROAH,,,,0,20180118020000,-1,-1,-1,-1,999,-1,7,-1,-1,-1,-1,,9999,0,0,2,FEW 20   BKN 50,1,22,1,17,1019,ROAH 180230Z VRB07KT 9999 FEW020 BKN050 22/17 Q1019 RMK 2CU020     7SC050 A3010=,
20180118_030000.003,0,ROAH,,,,0,20180118030000,-1,-1,-1,-1,50,-1,9,-1,-1,350,130,,9999,0,0,2,SCT 20   BKN 50,1,22,1,17,1018,ROAH 180300Z 05009KT 350V130 9999 SCT020 BKN050 22/17 Q1018     RMK 4CU020 7SC050 A3008=,
20180118_033000.001,0,ROAH,,,,0,20180118030000,-1,-1,-1,-1,60,-1,8,-1,-1,20,130,,9999,0,0,2,BKN 20   BKN 50,1,22,1,17,1018,ROAH 180330Z 06008KT 020V130 9999 BKN020 BKN050 22/17 Q1018     RMK 5CU020 7SC050 A3007=,
20180118_040000.002,0,ROAH,,,,0,20180118040000,-1,-1,-1,-1,50,-1,8,-1,-1,340,140,,9999,0,0,2,BKN 20   BKN 50,1,22,1,17,1017,ROAH 180400Z 05008KT 340V140 9999 BKN020 BKN050 22/17 Q1017     RMK 6CU020 7SC050 A3006=,
20180118_043000.001,0,ROAH,,,,0,20180118040000,-1,-1,-1,-1,80,-1,8,-1,-1,40,170,,9999,0,0,2,SCT 20   BKN 50,1,22,1,17,1017,ROAH 180430Z 08008KT 040V170 9999 SCT020 BKN050 22/17 Q1017     RMK 3CU020 6SC050 A3005=,
20180118_050000.002,0,ROAH,,,,0,20180118050000,-1,-1,-1,-1,70,-1,9,-1,-1,50,110,,9999,0,0,1,SCT 20,1,22,1,17,1017,ROAH 180500Z 07009KT 050V110 9999 SCT020 22/17 Q1017 RMK     4CU020 A3004=,
20180118_053000.001,0,ROAH,,,,0,20180118050000,-1,-1,-1,-1,80,-1,8,-1,-1,40,120,,9999,0,0,1,SCT 20,1,23,1,16,1017,ROAH 180530Z 08008KT 040V120 9999 SCT020 23/16 Q1017 RMK     4CU020 A3003=,
20180118_060000.002,0,ROAH,,,,0,20180118060000,-1,-1,-1,-1,60,-1,10,-1,-1,40,110,,9999,0,0,2,FEW 20   SCT -9999,1,23,1,16,1017,ROAH 180600Z 06010KT 040V110 9999 FEW020 SCT/// 23/16 Q1017     RMK 2CU020 A3003=,
20180118_063000.001,0,ROAH,,,,0,20180118060000,-1,-1,-1,-1,70,-1,8,-1,-1,40,120,,9999,0,0,2,FEW 20   BKN -9999,1,22,1,16,1016,ROAH 180630Z 07008KT 040V120 9999 FEW020 BKN/// 22/16 Q1016     RMK 1CU020 A3003=,
20180118_070000.002,0,ROAH,,,,0,20180118070000,-1,-1,-1,-1,80,-1,8,-1,-1,40,140,,9999,0,0,2,FEW 20   BKN 48,1,22,1,16,1017,ROAH 180700Z 08008KT 040V140 9999 FEW020 BKN048 22/16 Q1017     RMK 1CU020 7SC048 A3003=,
20180118_073000.001,0,ROAH,,,,0,20180118070000,-1,-1,-1,-1,70,-1,8,-1,-1,-1,-1,,9999,0,0,3,FEW 20   SCT 48   BKN 90,1,22,1,16,1017,ROAH 180730Z 07008KT 9999 FEW020 SCT048 BKN090 22/16 Q1017 RMK     1CU020 3SC048 6AC090 A3004=,
20180118_080000.002,0,ROAH,,,,0,20180118080000,-1,-1,-1,-1,60,-1,8,-1,-1,20,140,,9999,0,0,2,FEW 20   BKN 45,1,21,1,16,1017,ROAH 180800Z 06008KT 020V140 9999 FEW020 BKN045 21/16 Q1017     RMK 1CU020 6SC045 A3005=,
20180118_083000.001,0,ROAH,,,,0,20180118080000,-1,-1,-1,-1,70,-1,7,-1,-1,50,120,,9999,0,0,2,FEW 20   BKN 45,1,21,1,16,1018,ROAH 180830Z 07007KT 050V120 9999 FEW020 BKN045 21/16 Q1018     RMK 1CU020 5SC045 A3006=,
20180118_090000.002,0,ROAH,,,,0,20180118090000,-1,-1,-1,-1,60,-1,10,-1,-1,20,90,,9999,0,0,3,FEW 20   SCT 45   BKN 80,1,21,1,16,1018,ROAH 180900Z 06010KT 020V090 9999 FEW020 SCT045 BKN080 21/16     Q1018 RMK 1CU020 3SC045 5AC080 A3006=,
20180118_093000.001,0,ROAH,,,,0,20180118090000,-1,-1,-1,-1,60,-1,10,-1,-1,40,100,,9999,0,0,2,FEW 20   BKN 80,1,21,1,16,1018,ROAH 180930Z 06010KT 040V100 9999 FEW020 BKN080 21/16 Q1018     RMK 1CU020 6AC080 A3007=,
20180118_100000.002,0,ROAH,,,,0,20180118100000,-1,-1,-1,-1,60,-1,11,-1,-1,30,90,,9999,0,0,2,FEW 20   BKN 80,1,21,1,16,1018,ROAH 181000Z 06011KT 030V090 9999 FEW020 BKN080 21/16 Q1018     RMK 1CU020 7AC080 A3007=,
20180118_103000.001,0,ROAH,,,,0,20180118100000,-1,-1,-1,-1,60,-1,12,-1,-1,-1,-1,,9999,0,0,2,FEW 20   BKN 100,1,21,1,16,1018,ROAH 181030Z 06012KT 9999 FEW020 BKN100 21/16 Q1018 RMK 1CU020     6AC100 A3007=,
20180118_110000.002,0,ROAH,,,,0,20180118110000,-1,-1,-1,-1,60,-1,9,-1,-1,30,100,,9999,0,0,2,FEW 15   BKN 100,1,21,1,16,1018,ROAH 181100Z 06009KT 030V100 9999 FEW015 BKN100 21/16 Q1018     RMK 1CU015 6AC100 A3009=,
20180118_113000.001,0,ROAH,,,,0,20180118110000,-1,-1,-1,-1,60,-1,9,-1,-1,30,100,,9999,0,0,3,FEW 15   SCT 45   BKN 100,1,20,1,16,1019,ROAH 181130Z 06009KT 030V100 9999 FEW015 SCT045 BKN100 20/16     Q1019 RMK 1CU015 3SC045 6AC100 A3010=,
20180118_120000.002,0,ROAH,,,,0,20180118120000,-1,-1,-1,-1,50,-1,10,-1,-1,-1,-1,,9999,0,0,2,FEW 15   BKN 45,1,20,1,15,1019,ROAH 181200Z 05010KT 9999 FEW015 BKN045 20/15 Q1019 RMK 1CU015     6SC045 A3010=,
20180118_123000.001,0,ROAH,,,,0,20180118120000,-1,-1,-1,-1,60,-1,8,-1,-1,30,90,,9999,0,0,2,FEW 20   BKN 45,1,20,1,15,1019,ROAH 181230Z 06008KT 030V090 9999 FEW020 BKN045 20/15 Q1019     RMK 1CU020 6SC045 A3010=,
20180118_130000.002,0,ROAH,,,,0,20180118130000,-1,-1,-1,-1,50,-1,6,-1,-1,-1,-1,,9999,0,0,2,FEW 20   BKN 45,1,20,1,15,1019,ROAH 181300Z 05006KT 9999 FEW020 BKN045 20/15 Q1019 RMK 1CU020     6SC045 A3010=,
20180118_133000.001,0,ROAH,,,,0,20180118130000,-1,-1,-1,-1,60,-1,10,-1,-1,-1,-1,,9999,0,0,2,FEW 20   BKN 45,1,20,1,15,1019,ROAH 181330Z 06010KT 9999 FEW020 BKN045 20/15 Q1019 RMK 1CU020     6SC045 A3011=,
20180118_140000.002,0,ROAH,,,,0,20180118140000,-1,-1,-1,-1,60,-1,9,-1,-1,-1,-1,,9999,0,0,2,FEW 20   BKN 45,1,20,1,15,1019,ROAH 181400Z 06009KT 9999 FEW020 BKN045 20/15 Q1019 RMK 1CU020     6SC045 A3010=,
20180118_143000.001,0,ROAH,,,,0,20180118140000,-1,-1,-1,-1,60,-1,8,-1,-1,-1,-1,,9999,0,0,2,FEW 20   BKN 45,1,20,1,15,1019,ROAH 181430Z 06008KT 9999 FEW020 BKN045 20/15 Q1019 RMK 1CU020     6SC045 A3010=,
20180118_150000.002,0,ROAH,,,,0,20180118150000,-1,-1,-1,-1,60,-1,8,-1,-1,-1,-1,,9999,0,1,2,FEW 20   BKN 45,1,20,1,15,1019,ROAH 181500Z 06008KT 9999 VCSH FEW020 BKN045 20/15 Q1019 RMK     1CU020 6SC045 A3010=,VC SH
20180118_153000.001,0,ROAH,,,,0,20180118150000,-1,-1,-1,-1,70,-1,6,-1,-1,30,120,,9999,0,1,2,FEW 20   BKN 45,1,20,1,16,1019,ROAH 181530Z 07006KT 030V120 9999 -RA FEW020 BKN045 20/16     Q1019 RMK 1CU020 6SC045 A3010=,- RA
20180118_160000.002,0,ROAH,,,,0,20180118160000,-1,-1,-1,-1,80,-1,6,-1,-1,40,110,,9999,0,1,3,FEW 20   BKN 45   BKN 70,1,20,1,16,1019,ROAH 181600Z 08006KT 040V110 9999 -RA FEW020 BKN045 BKN070     20/16 Q1019 RMK 1CU020 5SC045 6AC070 A3010=,- RA
20180118_163000.001,0,ROAH,,,,0,20180118160000,-1,-1,-1,-1,70,-1,7,-1,-1,-1,-1,,9999,0,1,2,FEW 20   BKN 60,1,20,1,16,1019,ROAH 181630Z 07007KT 9999 -RA FEW020 BKN060 20/16 Q1019 RMK     1CU020 6SC060 A3009=,- RA
20180118_170000.002,0,ROAH,,,,0,20180118170000,-1,-1,-1,-1,60,-1,9,-1,-1,-1,-1,,9999,0,0,2,FEW 20   BKN 60,1,20,1,16,1018,ROAH 181700Z 06009KT 9999 FEW020 BKN060 20/16 Q1018 RMK 1CU020     6SC060 A3008=,
20180118_173000.001,0,ROAH,,,,0,20180118170000,-1,-1,-1,-1,70,-1,6,-1,-1,40,120,,9999,0,0,2,FEW 20   BKN 50,1,20,1,16,1018,ROAH 181730Z 07006KT 040V120 9999 FEW020 BKN050 20/16 Q1018     RMK 1CU020 6SC050 A3007=,
20180118_180000.002,0,ROAH,,,,0,20180118180000,-1,-1,-1,-1,90,-1,5,-1,-1,40,140,,9999,0,0,2,FEW 20   BKN 50,1,20,1,16,1018,ROAH 181800Z 09005KT 040V140 9999 FEW020 BKN050 20/16 Q1018     RMK 1CU020 6SC050 A3007=,
20180118_183000.001,0,ROAH,,,,0,20180118180000,-1,-1,-1,-1,80,-1,5,-1,-1,40,120,,9999,0,0,2,FEW 20   BKN 50,1,20,1,16,1018,ROAH 181830Z 08005KT 040V120 9999 FEW020 BKN050 20/16 Q1018     RMK 1CU020 6SC050 A3006=,
20180118_190000.002,0,ROAH,,,,0,20180118190000,-1,-1,-1,-1,80,-1,5,-1,-1,20,140,,9999,0,0,2,FEW 20   BKN 50,1,21,1,16,1017,ROAH 181900Z 08005KT 020V140 9999 FEW020 BKN050 21/16 Q1017     RMK 1CU020 6SC050 A3005=,
20180118_193000.001,0,ROAH,,,,0,20180118190000,-1,-1,-1,-1,100,-1,4,-1,-1,50,150,,9999,0,0,2,FEW 20   BKN 40,1,21,1,16,1017,ROAH 181930Z 10004KT 050V150 9999 FEW020 BKN040 21/16 Q1017     RMK 1CU020 6SC040 A3006=,
20180118_200000.002,0,ROAH,,,,0,20180118200000,-1,-1,-1,-1,100,-1,5,-1,-1,60,120,,9999,0,0,2,FEW 20   BKN 40,1,21,1,16,1017,ROAH 182000Z 10005KT 060V120 9999 FEW020 BKN040 21/16 Q1017     RMK 1CU020 6SC040 A3006=,
20180118_203000.001,0,ROAH,,,,0,20180118200000,-1,-1,-1,-1,70,-1,6,-1,-1,40,100,,9999,0,0,2,FEW 20   BKN 40,1,21,1,16,1018,ROAH 182030Z 07006KT 040V100 9999 FEW020 BKN040 21/16 Q1018     RMK 1CU020 6SC040 A3006=,
20180118_210000.003,0,ROAH,,,,0,20180118210000,-1,-1,-1,-1,80,-1,7,-1,-1,-1,-1,,9999,0,1,2,SCT 20   BKN 40,1,21,1,16,1018,ROAH 182100Z 08007KT 9999 -SHRA SCT020 BKN040 21/16 Q1018 RMK     3CU020 6SC040 A3006=,- RA SH
20180118_213000.001,0,ROAH,,,,0,20180118210000,-1,-1,-1,-1,80,-1,7,-1,-1,50,120,,8000,0,1,2,FEW 15   BKN 20,1,20,1,17,1018,ROAH 182130Z 08007KT 050V120 8000 -SHRA FEW015 BKN020 20/17     Q1018 RMK 1CU015 7CU020 A3006=,- RA SH
20180118_220000.002,0,ROAH,,,,0,20180118220000,-1,-1,-1,-1,80,-1,7,-1,-1,40,120,,8000,0,1,3,FEW 15   SCT 20   BKN 35,1,20,1,17,1018,ROAH 182200Z 08007KT 040V120 8000 -RA FEW015 SCT020 BKN035     20/17 Q1018 RMK 1CU015 4CU020 6SC035 A3007=,- RA
20180118_223000.002,0,ROAH,,,,0,20180118220000,-1,-1,-1,-1,100,-1,5,-1,-1,40,160,,9999,0,1,3,FEW 20   SCT 25   BKN 35,1,20,1,17,1018,ROAH 182230Z 10005KT 040V160 9999 -RA FEW020 SCT025 BKN035     20/17 Q1018 RMK 1CU020 4CU025 6SC035 A3007=,- RA
20180118_230000.003,0,ROAH,,,,0,20180118230000,-1,-1,-1,-1,80,-1,4,-1,-1,360,120,,4000,0,1,3,FEW 10   BKN 20   BKN 35,1,20,1,17,1018,ROAH 182300Z 08004KT 360V120 4000 SHRA FEW010 BKN020 BKN035     20/17 Q1018 RMK 2CU010 5CU020 6SC035 A3008=,RA SH
20180118_233000.001,0,ROAH,,,,0,20180118230000,-1,-1,-1,-1,20,-1,3,-1,-1,350,70,,3000,0,1,2,FEW 8   BKN 15,1,19,1,18,1019,ROAH 182330Z 02003KT 350V070 3000 SHRA FEW008 BKN015 19/18     Q1019 RMK 2ST008 6CU015 A3009=,RA SH
20180119_000000.002,0,ROAH,,,,0,20180119000000,-1,-1,-1,-1,10,-1,5,-1,-1,-1,-1,,2500,0,1,2,FEW 5   BKN 15,1,19,1,18,1019,ROAH 190000Z 01005KT 2500 SHRA FEW005 BKN015 19/18 Q1019 RMK     2ST005 6CU015 A3010=,RA SH
20180119_003000.001,0,ROAH,,,,0,20180119000000,-1,-1,-1,-1,50,-1,4,-1,-1,-1,-1,,4000,0,1,2,FEW 5   BKN 15,1,19,1,18,1019,ROAH 190030Z 05004KT 4000 SHRA FEW005 BKN015 19/18 Q1019 RMK     1ST005 6CU015 A3011=,RA SH
20180119_010000.003,0,ROAH,,,,0,20180119010000,-1,-1,-1,-1,60,-1,8,-1,-1,20,90,,6000,0,1,2,FEW 5   BKN 40,1,20,1,18,1019,ROAH 190100Z 06008KT 020V090 6000 -RA FEW005 BKN040 20/18     Q1019 RMK 2ST005 7SC040 A3011=,- RA
20180119_013000.001,0,ROAH,,,,0,20180119010000,-1,-1,-1,-1,70,-1,6,-1,-1,30,140,,7000,0,1,2,FEW 5   BKN 38,1,20,1,18,1019,ROAH 190130Z 07006KT 030V140 7000 -RA FEW005 BKN038 20/18     Q1019 RMK 1ST005 7SC038 A3010=,- RA
20180119_020000.002,0,ROAH,,,,0,20180119020000,-1,-1,-1,-1,60,-1,10,-1,-1,-1,-1,,6000,0,1,3,FEW 8   SCT 27   BKN 38,1,20,1,18,1019,ROAH 190200Z 06010KT 6000 -RA FEW008 SCT027 BKN038 20/18 Q1019     RMK 1ST008 3CU027 7SC038 A3009=,- RA
20180119_023000.001,0,ROAH,,,,0,20180119020000,-1,-1,-1,-1,60,-1,9,-1,-1,40,100,,6000,0,1,2,FEW 6   BKN 38,1,20,1,18,1018,ROAH 190230Z 06009KT 040V100 6000 -RA FEW006 BKN038 20/18     Q1018 RMK 2ST006 7SC038 A3007=,- RA
20180119_030000.002,0,ROAH,,,,0,20180119030000,-1,-1,-1,-1,70,-1,9,-1,-1,50,110,,9999,0,0,2,FEW 8   BKN 35,1,20,1,18,1017,ROAH 190300Z 07009KT 050V110 9999 FEW008 BKN035 20/18 Q1017     RMK 1ST008 7SC035 A3005=,
20180119_033000.001,0,ROAH,,,,0,20180119030000,-1,-1,-1,-1,80,-1,10,-1,-1,-1,-1,,9999,0,0,2,FEW 10   BKN 35,1,20,1,18,1017,ROAH 190330Z 08010KT 9999 FEW010 BKN035 20/18 Q1017 RMK 2CU010     7SC035 A3004=,
20180119_040000.002,0,ROAH,,,,0,20180119040000,-1,-1,-1,-1,60,-1,10,-1,-1,40,100,,9999,0,0,3,FEW 10   SCT 30   BKN 35,1,21,1,18,1017,ROAH 190400Z 06010KT 040V100 9999 FEW010 SCT030 BKN035 21/18     Q1017 RMK 2CU010 4CU030 7SC035 A3004=,
20180119_043000.001,0,ROAH,,,,0,20180119040000,-1,-1,-1,-1,60,-1,9,-1,-1,20,130,,9999,0,1,3,FEW 10   SCT 20   BKN 29,1,20,1,18,1016,ROAH 190430Z 06009KT 020V130 9999 VCSH FEW010 SCT020 BKN029     20/18 Q1016 RMK 2CU010 3CU020 6CU029 A3002=,VC SH
20180119_050000.003,0,ROAH,,,,0,20180119050000,-1,-1,-1,-1,10,-1,7,-1,-1,340,60,,2000,0,1,3,FEW 7   SCT 10   BKN 15,1,20,1,18,1017,ROAH 190500Z 01007KT 340V060 2000 SHRA FEW007 SCT010 BKN015     20/18 Q1017 RMK 2CU007 3CU010 6CU015 A3003=,RA SH
20180119_053000.001,0,ROAH,,,,0,20180119050000,-1,-1,-1,-1,30,-1,13,-1,-1,-1,-1,,3500,0,1,2,BKN 5   BKN 15,1,19,1,18,1016,ROAH 190530Z 03013KT 3500 SHRA BKN005 BKN015 19/18 Q1016 RMK     5ST005 6CU015 A3002=,RA SH
20180119_060000.002,0,ROAH,,,,0,20180119060000,-1,-1,-1,-1,30,-1,15,-1,-1,-1,-1,,7000,0,1,2,BKN 5   BKN 15,1,19,1,17,1016,ROAH 190600Z 03015KT 7000 -SHRA BKN005 BKN015 19/17 Q1016 RMK     6ST005 7CU015 A3001=,- RA SH
20180119_063000.001,0,ROAH,,,,0,20180119060000,-1,-1,-1,-1,30,-1,16,-1,-1,-1,-1,,7000,0,1,3,FEW 5   SCT 8   BKN 25,1,18,1,16,1016,ROAH 190630Z 03016KT 7000 -SHRA FEW005 SCT008 BKN025 18/16     Q1016 RMK 2ST005 4ST008 6CU025 A3001=,- RA SH
20180119_070000.002,0,ROAH,,,,0,20180119070000,-1,-1,-1,-1,30,-1,16,-1,26,-1,-1,,4000,0,1,3,SCT 7   BKN 15   BKN 30,1,18,1,16,1016,ROAH 190700Z 03016G26KT 4000 -SHRA SCT007 BKN015 BKN030 18/16     Q1016 RMK 3ST007 5CU015 6CU030 A3001=,- RA SH
20180119_073000.001,0,ROAH,,,,0,20180119070000,-1,-1,-1,-1,30,-1,15,-1,-1,10,80,,5000,0,1,3,SCT 6   BKN 7   BKN 15,1,18,1,16,1016,ROAH 190730Z 03015KT 010V080 5000 -SHRA SCT006 BKN007 BKN015     18/16 Q1016 RMK 3ST006 5ST007 6CU015 A3003=,- RA SH
20180119_080000.002,0,ROAH,,,,0,20180119080000,-1,-1,-1,-1,20,-1,15,-1,-1,10,80,,5000,0,1,3,SCT 6   BKN 7   BKN 15,1,17,1,15,1017,ROAH 190800Z 02015KT 010V080 5000 -SHRA SCT006 BKN007 BKN015     17/15 Q1017 RMK 3ST006 5ST007 6CU015 A3004=,- RA SH
20180119_083000.001,0,ROAH,,,,0,20180119080000,-1,-1,-1,-1,30,-1,13,-1,-1,10,70,,3500,0,1,3,SCT 5   BKN 7   BKN 15,1,17,1,15,1017,ROAH 190830Z 03013KT 010V070 3500 SHRA SCT005 BKN007 BKN015     17/15 Q1017 RMK 3ST005 5ST007 6CU015 A3005=,RA SH
20180119_090000.003,0,ROAH,,,,0,20180119090000,-1,-1,-1,-1,40,-1,11,-1,-1,340,90,,3500,0,1,3,FEW 5   BKN 7   BKN 25,1,16,1,15,1017,ROAH 190900Z 04011KT 340V090 3500 SHRA FEW005 BKN007 BKN025     16/15 Q1017 RMK 2ST005 5ST007 6CU025 A3005=,RA SH
20180119_093000.001,0,ROAH,,,,0,20180119090000,-1,-1,-1,-1,30,-1,12,-1,-1,-1,-1,,5000,0,1,3,FEW 5   SCT 7   BKN 30,1,17,1,15,1018,ROAH 190930Z 03012KT 5000 SHRA FEW005 SCT007 BKN030 17/15     Q1018 RMK 1ST005 4ST007 5CU030 A3006=,RA SH
20180119_100000.002,0,ROAH,,,,0,20180119100000,-1,-1,-1,-1,30,-1,12,-1,-1,350,80,,5000,0,1,3,FEW 5   SCT 7   BKN 30,1,16,1,15,1018,ROAH 191000Z 03012KT 350V080 5000 SHRA FEW005 SCT007 BKN030     16/15 Q1018 RMK 2ST005 4ST007 6CU030 A3007=,RA SH
20180119_103000.001,0,ROAH,,,,0,20180119100000,-1,-1,-1,-1,50,-1,9,-1,-1,20,90,,5000,0,1,3,FEW 5   SCT 7   BKN 30,1,16,1,15,1018,ROAH 191030Z 05009KT 020V090 5000 SHRA FEW005 SCT007 BKN030     16/15 Q1018 RMK 2ST005 4ST007 6CU030 A3007=,RA SH
20180119_110000.002,0,ROAH,,,,0,20180119110000,-1,-1,-1,-1,50,-1,8,-1,-1,-1,-1,,9999,0,1,3,FEW 5   SCT 15   BKN 35,1,16,1,15,1018,ROAH 191100Z 05008KT 9999 -SHRA FEW005 SCT015 BKN035 16/15     Q1018 RMK 2ST005 4CU015 5CU035 A3008=,- RA SH
20180119_113000.001,0,ROAH,,,,0,20180119110000,-1,-1,-1,-1,60,-1,8,-1,-1,30,90,,6000,0,1,3,FEW 8   SCT 15   BKN 30,1,16,1,15,1018,ROAH 191130Z 06008KT 030V090 6000 -SHRA FEW008 SCT015 BKN030     16/15 Q1018 RMK 1ST008 3CU015 5CU030 A3008=,- RA SH
20180119_120000.003,0,ROAH,,,,0,20180119120000,-1,-1,-1,-1,60,-1,9,-1,-1,-1,-1,,9999,0,1,3,FEW 8   SCT 15   BKN 30,1,16,1,15,1018,ROAH 191200Z 06009KT 9999 -SHRA FEW008 SCT015 BKN030 16/15     Q1018 RMK 1ST008 3CU015 5CU030 A3008=,- RA SH
20180119_123000.001,0,ROAH,,,,0,20180119120000,-1,-1,-1,-1,70,-1,5,-1,-1,50,160,,9999,0,1,3,FEW 10   SCT 30   BKN 45,1,17,1,15,1018,ROAH 191230Z 07005KT 050V160 9999 -SHRA FEW010 SCT030 BKN045     17/15 Q1018 RMK 1CU010 3CU030 7SC045 A3008=,- RA SH
20180119_130000.002,0,ROAH,,,,0,20180119130000,-1,-1,-1,-1,70,-1,7,-1,-1,-1,-1,,9999,0,1,2,FEW 30   BKN 45,1,17,1,15,1018,ROAH 191300Z 07007KT 9999 VCSH FEW030 BKN045 17/15 Q1018 RMK     2CU030 7SC045 A3008=,VC SH
20180119_133000.001,0,ROAH,,,,0,20180119130000,-1,-1,-1,-1,80,-1,7,-1,-1,40,100,,9999,0,1,2,SCT 30   BKN 45,1,17,1,15,1018,ROAH 191330Z 08007KT 040V100 9999 VCSH SCT030 BKN045 17/15     Q1018 RMK 4CU030 7SC045 A3008=,VC SH
20180119_140000.002,0,ROAH,,,,0,20180119140000,-1,-1,-1,-1,70,-1,6,-1,-1,30,110,,9999,0,1,2,SCT 30   BKN 45,1,17,1,15,1018,ROAH 191400Z 07006KT 030V110 9999 -SHRA SCT030 BKN045 17/15     Q1018 RMK 3CU030 7SC045 A3007=,- RA SH
20180119_143000.001,0,ROAH,,,,0,20180119140000,-1,-1,-1,-1,50,-1,6,-1,-1,-1,-1,,9999,0,1,2,SCT 30   BKN 45,1,17,1,15,1018,ROAH 191430Z 05006KT 9999 -SHRA SCT030 BKN045 17/15 Q1018 RMK     4CU030 7SC045 A3007=,- RA SH
20180119_150000.002,0,ROAH,,,,0,20180119150000,-1,-1,-1,-1,50,-1,8,-1,-1,10,70,,9999,0,0,1,BKN 25,1,17,1,14,1018,ROAH 191500Z 05008KT 010V070 9999 BKN025 17/14 Q1018 RMK     7CU025 A3007=,
20180119_153000.001,0,ROAH,,,,0,20180119150000,-1,-1,-1,-1,50,-1,7,-1,-1,-1,-1,,6000,0,1,1,BKN 25,1,17,1,14,1018,ROAH 191530Z 05007KT 6000 -SHRA BKN025 17/14 Q1018 RMK 6CU025     A3007=,- RA SH
20180119_160000.002,0,ROAH,,,,0,20180119160000,-1,-1,-1,-1,40,-1,6,-1,-1,10,70,,6000,0,1,2,FEW 9   BKN 30,1,17,1,15,1018,ROAH 191600Z 04006KT 010V070 6000 -SHRA FEW009 BKN030 17/15     Q1018 RMK 1ST009 7CU030 A3007=,- RA SH
20180119_163000.001,0,ROAH,,,,0,20180119160000,-1,-1,-1,-1,60,-1,6,-1,-1,-1,-1,,9999,0,1,3,FEW 9   BKN 30   BKN 40,1,17,1,15,1017,ROAH 191630Z 06006KT 9999 -SHRA FEW009 BKN030 BKN040 17/15     Q1017 RMK 1ST009 6CU030 7SC040 A3006=,- RA SH
20180119_170000.002,0,ROAH,,,,0,20180119170000,-1,-1,-1,-1,60,-1,7,-1,-1,20,90,,9999,0,0,2,SCT 30   BKN 40,1,17,1,15,1017,ROAH 191700Z 06007KT 020V090 9999 SCT030 BKN040 17/15 Q1017     RMK 3CU030 7SC040 A3005=,
20180119_173000.001,0,ROAH,,,,0,20180119170000,-1,-1,-1,-1,60,-1,8,-1,-1,-1,-1,,8000,0,1,1,BKN 30,1,17,1,15,1017,ROAH 191730Z 06008KT 8000 -SHRA BKN030 17/15 Q1017 RMK 7CU030     A3005=,- RA SH
20180119_180000.003,0,ROAH,,,,0,20180119180000,-1,-1,-1,-1,60,-1,8,-1,-1,-1,-1,,3000,0,1,2,FEW 25   BKN 35,1,17,1,15,1017,ROAH 191800Z 06008KT 3000 -SHRA FEW025 BKN035 17/15 Q1017 RMK     1CU025 7CU035 A3004=,- RA SH
20180119_183000.001,0,ROAH,,,,0,20180119180000,-1,-1,-1,-1,60,-1,7,-1,-1,-1,-1,,8000,0,1,2,FEW 20   BKN 40,1,17,1,15,1017,ROAH 191830Z 06007KT 8000 -SHRA FEW020 BKN040 17/15 Q1017 RMK     2CU020 7SC040 A3004=,- RA SH
20180119_190000.003,0,ROAH,,,,0,20180119190000,-1,-1,-1,-1,50,-1,7,-1,-1,-1,-1,,8000,0,1,2,FEW 6   BKN 40,1,17,1,15,1017,ROAH 191900Z 05007KT 8000 -RA FEW006 BKN040 17/15 Q1017 RMK     1ST006 7SC040 A3003=,- RA
20180119_193000.001,0,ROAH,,,,0,20180119190000,-1,-1,-1,-1,30,-1,7,-1,-1,-1,-1,,8000,0,1,2,FEW 6   BKN 40,1,16,1,15,1016,ROAH 191930Z 03007KT 8000 -RA FEW006 BKN040 16/15 Q1016 RMK     1ST006 6SC040 A3003=,- RA
20180119_200000.002,0,ROAH,,,,0,20180119200000,-1,-1,-1,-1,80,-1,5,-1,-1,40,110,,9999,0,0,2,SCT 40   BKN 50,1,17,1,15,1016,ROAH 192000Z 08005KT 040V110 9999 SCT040 BKN050 17/15 Q1016     RMK 3SC040 7SC050 A3003=,
20180119_203000.001,0,ROAH,,,,0,20180119200000,-1,-1,-1,-1,60,-1,7,-1,-1,-1,-1,,9999,0,0,2,SCT 40   BKN 50,1,17,1,15,1016,ROAH 192030Z 06007KT 9999 SCT040 BKN050 17/15 Q1016 RMK 3SC040     7SC050 A3003=,
20180119_210000.002,0,ROAH,,,,0,20180119210000,-1,-1,-1,-1,50,-1,5,-1,-1,-1,-1,,9999,0,1,2,SCT 40   BKN 50,1,17,1,15,1017,ROAH 192100Z 05005KT 9999 -RA SCT040 BKN050 17/15 Q1017 RMK     4SC040 7SC050 A3004=,- RA
20180119_213000.001,0,ROAH,,,,0,20180119210000,-1,-1,-1,-1,70,-1,6,-1,-1,30,100,,9999,0,0,2,FEW 40   BKN 50,1,17,1,15,1017,ROAH 192130Z 07006KT 030V100 9999 FEW040 BKN050 17/15 Q1017     RMK 2SC040 6SC050 A3003=,
20180119_220000.002,0,ROAH,,,,0,20180119220000,-1,-1,-1,-1,50,-1,7,-1,-1,-1,-1,,9999,0,0,2,FEW 40   BKN 50,1,18,1,15,1017,ROAH 192200Z 05007KT 9999 FEW040 BKN050 18/15 Q1017 RMK 1SC040     7SC050 A3004=,
20180119_223000.002,0,ROAH,,,,0,20180119220000,-1,-1,-1,-1,60,-1,5,-1,-1,10,100,,9999,0,0,1,BKN 45,1,18,1,14,1017,ROAH 192230Z 06005KT 010V100 9999 BKN045 18/14 Q1017 RMK     7SC045 A3004=,
20180119_230000.002,0,ROAH,,,,0,20180119230000,-1,-1,-1,-1,70,-1,9,-1,-1,40,130,,9999,0,0,1,BKN 45,1,18,1,15,1017,ROAH 192300Z 07009KT 040V130 9999 BKN045 18/15 Q1017 RMK     6SC045 A3005=,
20180119_233000.001,0,ROAH,,,,0,20180119230000,-1,-1,-1,-1,70,-1,8,-1,-1,-1,-1,,9999,0,0,1,BKN 45,1,18,1,15,1018,ROAH 192330Z 07008KT 9999 BKN045 18/15 Q1018 RMK 6SC045 A3006=,
20180120_000000.002,0,ROAH,,,,0,20180120000000,-1,-1,-1,-1,70,-1,8,-1,-1,40,120,,9999,0,0,2,FEW 40   BKN 45,1,19,1,15,1018,ROAH 200000Z 07008KT 040V120 9999 FEW040 BKN045 19/15 Q1018     RMK 1SC040 6SC045 A3007=,
20180120_003000.001,0,ROAH,,,,0,20180120000000,-1,-1,-1,-1,60,-1,8,-1,-1,-1,-1,,9999,0,0,2,SCT 40   BKN 50,1,19,1,15,1018,ROAH 200030Z 06008KT 9999 SCT040 BKN050 19/15 Q1018 RMK 3SC040     7SC050 A3008=,
20180120_010000.002,0,ROAH,,,,0,20180120010000,-1,-1,-1,-1,30,-1,7,-1,-1,10,80,,9999,0,0,2,FEW 20   BKN 50,1,20,1,16,1018,ROAH 200100Z 03007KT 010V080 9999 FEW020 BKN050 20/16 Q1018     RMK 1CU020 7SC050 A3008=,
20180120_013000.001,0,ROAH,,,,0,20180120010000,-1,-1,-1,-1,40,-1,8,-1,-1,10,110,,9999,0,0,2,FEW 20   BKN 45,1,20,1,16,1018,ROAH 200130Z 04008KT 010V110 9999 FEW020 BKN045 20/16 Q1018     RMK 1CU020 7SC045 A3008=,
20180120_020000.003,0,ROAH,,,,0,20180120020000,-1,-1,-1,-1,10,-1,8,-1,-1,350,60,,9999,0,0,2,FEW 16   BKN 43,1,20,1,16,1018,ROAH 200200Z 01008KT 350V060 9999 FEW016 BKN043 20/16 Q1018     RMK 1CU016 7SC043 A3007=,
20180120_023000.001,0,ROAH,,,,0,20180120020000,-1,-1,-1,-1,50,-1,7,-1,-1,10,100,,9999,0,0,2,FEW 20   BKN 50,1,21,1,15,1017,ROAH 200230Z 05007KT 010V100 9999 FEW020 BKN050 21/15 Q1017     RMK 1CU020 7SC050 A3006=,
20180120_030000.002,0,ROAH,,,,0,20180120030000,-1,-1,-1,-1,70,-1,7,-1,-1,40,150,,9999,0,0,2,FEW 25   BKN 45,1,21,1,13,1017,ROAH 200300Z 07007KT 040V150 9999 FEW025 BKN045 21/13 Q1017     RMK 1CU025 7SC045 A3005=,
20180120_033000.001,0,ROAH,,,,0,20180120030000,-1,-1,-1,-1,70,-1,7,-1,-1,30,110,,9999,0,0,2,FEW 25   BKN 45,1,21,1,14,1017,ROAH 200330Z 07007KT 030V110 9999 FEW025 BKN045 21/14 Q1017     RMK 1CU025 7SC045 A3004=,
20180120_040000.002,0,ROAH,,,,0,20180120040000,-1,-1,-1,-1,60,-1,8,-1,-1,40,100,,9999,0,0,2,FEW 30   BKN 45,1,21,1,13,1016,ROAH 200400Z 06008KT 040V100 9999 FEW030 BKN045 21/13 Q1016     RMK 1CU030 7SC045 A3002=,
20180120_043000.001,0,ROAH,,,,0,20180120040000,-1,-1,-1,-1,70,-1,6,-1,-1,30,130,,9999,0,0,2,FEW 30   BKN 45,1,21,1,13,1016,ROAH 200430Z 07006KT 030V130 9999 FEW030 BKN045 21/13 Q1016     RMK 1CU030 7SC045 A3000=,
20180120_050000.002,0,ROAH,,,,0,20180120050000,-1,-1,-1,-1,70,-1,7,-1,-1,30,140,,9999,0,0,2,FEW 30   BKN 45,1,22,1,13,1015,ROAH 200500Z 07007KT 030V140 9999 FEW030 BKN045 22/13 Q1015     RMK 1CU030 6SC045 A2999=,
20180120_053000.001,0,ROAH,,,,0,20180120050000,-1,-1,-1,-1,70,-1,8,-1,-1,20,120,,9999,0,0,2,FEW 30   BKN 50,1,21,1,13,1015,ROAH 200530Z 07008KT 020V120 9999 FEW030 BKN050 21/13 Q1015     RMK 1CU030 7SC050 A2999=,
20180120_060000.002,0,ROAH,,,,0,20180120060000,-1,-1,-1,-1,90,-1,7,-1,-1,50,130,,9999,0,0,2,FEW 30   BKN 50,1,22,1,14,1015,ROAH 200600Z 09007KT 050V130 9999 FEW030 BKN050 22/14 Q1015     RMK 1CU030 7SC050 A2998=,
20180120_063000.001,0,ROAH,,,,0,20180120060000,-1,-1,-1,-1,70,-1,9,-1,-1,40,120,,9999,0,0,2,FEW 30   BKN 50,1,22,1,14,1015,ROAH 200630Z 07009KT 040V120 9999 FEW030 BKN050 22/14 Q1015     RMK 1CU030 7SC050 A2998=,
20180120_070000.002,0,ROAH,,,,0,20180120070000,-1,-1,-1,-1,80,-1,7,-1,-1,50,140,,9999,0,0,2,FEW 30   BKN 50,1,21,1,13,1015,ROAH 200700Z 08007KT 050V140 9999 FEW030 BKN050 21/13 Q1015     RMK 2CU030 7SC050 A2998=,
20180120_073000.001,0,ROAH,,,,0,20180120070000,-1,-1,-1,-1,70,-1,9,-1,-1,40,100,,9999,0,0,2,FEW 30   BKN 50,1,21,1,14,1015,ROAH 200730Z 07009KT 040V100 9999 FEW030 BKN050 21/14 Q1015     RMK 1CU030 7SC050 A2998=,
20180120_080000.002,0,ROAH,,,,0,20180120080000,-1,-1,-1,-1,60,-1,8,-1,-1,40,110,,9999,0,0,2,FEW 30   BKN 48,1,21,1,14,1015,ROAH 200800Z 06008KT 040V110 9999 FEW030 BKN048 21/14 Q1015     RMK 1CU030 7SC048 A3000=,
20180120_083000.001,0,ROAH,,,,0,20180120080000,-1,-1,-1,-1,50,-1,7,-1,-1,10,90,,9999,0,0,2,FEW 30   BKN 45,1,21,1,14,1015,ROAH 200830Z 05007KT 010V090 9999 FEW030 BKN045 21/14 Q1015     RMK 2CU030 7SC045 A3000=,
20180120_090000.002,0,ROAH,,,,0,20180120090000,-1,-1,-1,-1,40,-1,8,-1,-1,-1,-1,,9999,0,0,2,SCT 34   BKN 45,1,21,1,13,1016,ROAH 200900Z 04008KT 9999 SCT034 BKN045 21/13 Q1016 RMK 3CU034     7SC045 A3000=,
20180120_093000.001,0,ROAH,,,,0,20180120090000,-1,-1,-1,-1,60,-1,7,-1,-1,30,90,,9999,0,0,2,BKN 35   BKN 45,1,21,1,13,1016,ROAH 200930Z 06007KT 030V090 9999 BKN035 BKN045 21/13 Q1016     RMK 5SC035 7SC045 A3001=,
20180120_100000.002,0,ROAH,,,,0,20180120100000,-1,-1,-1,-1,50,-1,8,-1,-1,-1,-1,,9999,0,0,2,FEW 35   BKN 50,1,21,1,14,1016,ROAH 201000Z 05008KT 9999 FEW035 BKN050 21/14 Q1016 RMK 2SC035     7SC050 A3002=,
20180120_103000.001,0,ROAH,,,,0,20180120100000,-1,-1,-1,-1,40,-1,9,-1,-1,-1,-1,,9999,0,0,2,FEW 35   BKN 50,1,20,1,15,1017,ROAH 201030Z 04009KT 9999 FEW035 BKN050 20/15 Q1017 RMK 1SC035     7SC050 A3004=,
20180120_110000.002,0,ROAH,,,,0,20180120110000,-1,-1,-1,-1,60,-1,6,-1,-1,30,90,,9999,0,0,2,FEW 35   BKN 50,1,20,1,14,1017,ROAH 201100Z 06006KT 030V090 9999 FEW035 BKN050 20/14 Q1017     RMK 1SC035 7SC050 A3004=,
20180120_113000.001,0,ROAH,,,,0,20180120110000,-1,-1,-1,-1,40,-1,6,-1,-1,10,180,,9999,0,0,2,FEW 35   BKN 50,1,20,1,14,1017,ROAH 201130Z 04006KT 010V180 9999 FEW035 BKN050 20/14 Q1017     RMK 1SC035 7SC050 A3005=,
20180120_120000.002,0,ROAH,,,,0,20180120120000,-1,-1,-1,-1,50,-1,7,-1,-1,-1,-1,,9999,0,0,2,FEW 35   BKN 50,1,20,1,14,1017,ROAH 201200Z 05007KT 9999 FEW035 BKN050 20/14 Q1017 RMK 1SC035     7SC050 A3005=,
20180120_123000.001,0,ROAH,,,,0,20180120120000,-1,-1,-1,-1,50,-1,6,-1,-1,-1,-1,,9999,0,0,2,FEW 35   BKN 50,1,20,1,14,1017,ROAH 201230Z 05006KT 9999 FEW035 BKN050 20/14 Q1017 RMK 1SC035     7SC050 A3005=,
20180120_130000.002,0,ROAH,,,,0,20180120130000,-1,-1,-1,-1,60,-1,6,-1,-1,10,90,,9999,0,0,2,FEW 35   BKN 50,1,20,1,15,1017,ROAH 201300Z 06006KT 010V090 9999 FEW035 BKN050 20/15 Q1017     RMK 1SC035 7SC050 A3005=,
20180120_133000.001,0,ROAH,,,,0,20180120130000,-1,-1,-1,-1,40,-1,4,-1,-1,350,90,,9999,0,0,2,FEW 20   BKN 50,1,20,1,15,1017,ROAH 201330Z 04004KT 350V090 9999 FEW020 BKN050 20/15 Q1017     RMK 1CU020 7SC050 A3005=,
20180120_140000.002,0,ROAH,,,,0,20180120140000,-1,-1,-1,-1,80,-1,5,-1,-1,50,110,,9999,0,0,2,FEW 20   BKN 60,1,20,1,15,1017,ROAH 201400Z 08005KT 050V110 9999 FEW020 BKN060 20/15 Q1017     RMK 1CU020 7SC060 A3004=,
20180120_143000.001,0,ROAH,,,,0,20180120140000,-1,-1,-1,-1,80,-1,5,-1,-1,30,120,,9999,0,0,2,FEW 20   BKN 60,1,20,1,15,1017,ROAH 201430Z 08005KT 030V120 9999 FEW020 BKN060 20/15 Q1017     RMK 1CU020 6SC060 A3004=,
20180120_150000.002,0,ROAH,,,,0,20180120150000,-1,-1,-1,-1,60,-1,6,-1,-1,-1,-1,,9999,0,0,2,FEW 20   BKN 100,1,20,1,15,1017,ROAH 201500Z 06006KT 9999 FEW020 BKN100 20/15 Q1017 RMK 1CU020     6AC100 A3004=,
20180120_153000.001,0,ROAH,,,,0,20180120150000,-1,-1,-1,-1,10,-1,6,-1,-1,-1,-1,,9999,0,0,2,FEW 20   BKN 100,1,20,1,15,1017,ROAH 201530Z 01006KT 9999 FEW020 BKN100 20/15 Q1017 RMK 2CU020     6AC100 A3004=,
20180120_160000.002,0,ROAH,,,,0,20180120160000,-1,-1,-1,-1,20,-1,9,-1,-1,-1,-1,,9999,0,0,2,FEW 23   BKN 100,1,19,1,15,1017,ROAH 201600Z 02009KT 9999 FEW023 BKN100 19/15 Q1017 RMK 1CU023     5AC100 A3003=,
20180120_163000.001,0,ROAH,,,,0,20180120160000,-1,-1,-1,-1,50,-1,5,-1,-1,-1,-1,,9999,0,0,1,FEW 23,1,19,1,15,1016,ROAH 201630Z 05005KT 9999 FEW023 19/15 Q1016 RMK 1CU023 A3003=,
20180120_170000.002,0,ROAH,,,,0,20180120170000,-1,-1,-1,-1,20,-1,6,-1,-1,-1,-1,,9999,0,0,2,FEW 23   SCT 70,1,19,1,15,1017,ROAH 201700Z 02006KT 9999 FEW023 SCT070 19/15 Q1017 RMK 1CU023     3AC070 A3003=,
20180120_173000.001,0,ROAH,,,,0,20180120170000,-1,-1,-1,-1,20,-1,7,-1,-1,-1,-1,,9999,0,0,1,FEW 23,1,19,1,15,1016,ROAH 201730Z 02007KT 9999 FEW023 19/15 Q1016 RMK 1CU023 A3002=,
20180120_180000.002,0,ROAH,,,,0,20180120180000,-1,-1,-1,-1,50,-1,4,-1,-1,-1,-1,,9999,0,0,1,FEW 23,1,18,1,15,1016,ROAH 201800Z 05004KT 9999 FEW023 18/15 Q1016 RMK 1CU023 A3001=,
20180120_183000.001,0,ROAH,,,,0,20180120180000,-1,-1,-1,-1,50,-1,3,-1,-1,-1,-1,,9999,0,0,1,FEW 23,1,18,1,15,1016,ROAH 201830Z 05003KT 9999 FEW023 18/15 Q1016 RMK 1CU023 A3001=,
20180120_190000.003,0,ROAH,,,,0,20180120190000,-1,-1,-1,-1,30,-1,5,-1,-1,-1,-1,,9999,0,0,1,FEW 23,1,18,1,15,1016,ROAH 201900Z 03005KT 9999 FEW023 18/15 Q1016 RMK 1CU023 A3001=,
20180120_193000.001,0,ROAH,,,,0,20180120190000,-1,-1,-1,-1,30,-1,5,-1,-1,-1,-1,,9999,0,0,1,FEW 20,1,18,1,14,1016,ROAH 201930Z 03005KT 9999 FEW020 18/14 Q1016 RMK 1CU020 A3001=,
20180120_200000.002,0,ROAH,,,,0,20180120200000,-1,-1,-1,-1,30,-1,6,-1,-1,-1,-1,,9999,0,0,1,FEW 20,1,18,1,15,1016,ROAH 202000Z 03006KT 9999 FEW020 18/15 Q1016 RMK 1CU020 A3001=,
20180120_203000.001,0,ROAH,,,,0,20180120200000,-1,-1,-1,-1,40,-1,6,-1,-1,-1,-1,,9999,0,0,1,FEW 20,1,18,1,15,1016,ROAH 202030Z 04006KT 9999 FEW020 18/15 Q1016 RMK 1CU020 A3001=,
20180120_210000.002,0,ROAH,,,,0,20180120210000,-1,-1,-1,-1,50,-1,4,-1,-1,30,90,,9999,0,0,1,FEW 20,1,18,1,15,1016,ROAH 202100Z 05004KT 030V090 9999 FEW020 18/15 Q1016 RMK     1CU020 A3001=,
20180120_213000.001,0,ROAH,,,,0,20180120210000,-1,-1,-1,-1,999,-1,2,-1,-1,-1,-1,,9999,0,0,1,FEW 20,1,18,1,14,1016,ROAH 202130Z VRB02KT 9999 FEW020 18/14 Q1016 RMK 1CU020 A3003=,
20180120_220000.002,0,ROAH,,,,0,20180120220000,-1,-1,-1,-1,40,-1,4,-1,-1,-1,-1,,9999,0,0,1,FEW 20,1,18,1,15,1017,ROAH 202200Z 04004KT 9999 FEW020 18/15 Q1017 RMK 1CU020 A3003=,
20180120_223000.001,0,ROAH,,,,0,20180120220000,-1,-1,-1,-1,30,-1,6,-1,-1,-1,-1,,9999,0,0,1,FEW 20,1,18,1,15,1017,ROAH 202230Z 03006KT 9999 FEW020 18/15 Q1017 RMK 1CU020 A3003=,
20180120_230000.002,0,ROAH,,,,0,20180120230000,-1,-1,-1,-1,999,-1,1,-1,-1,-1,-1,,9999,0,0,1,FEW 20,1,18,1,15,1017,ROAH 202300Z VRB01KT 9999 FEW020 18/15 Q1017 RMK 1CU020 A3004=,
20180120_233000.001,0,ROAH,,,,0,20180120230000,-1,-1,-1,-1,50,-1,4,-1,-1,10,80,,9999,0,0,2,FEW 20   SCT 130,1,19,1,15,1017,ROAH 202330Z 05004KT 010V080 9999 FEW020 SCT130 19/15 Q1017     RMK 1CU020 3AC130 A3005=,
20180121_000000.002,0,ROAH,,,,0,20180121000000,-1,-1,-1,-1,40,-1,5,-1,-1,360,70,,9999,0,0,2,FEW 20   SCT 130,1,20,1,15,1017,ROAH 210000Z 04005KT 360V070 9999 FEW020 SCT130 20/15 Q1017     RMK 1CU020 3AC130 A3006=,
20180121_003000.001,0,ROAH,,,,0,20180121000000,-1,-1,-1,-1,40,-1,6,-1,-1,10,90,,9999,0,0,2,FEW 20   BKN 130,1,20,1,15,1018,ROAH 210030Z 04006KT 010V090 9999 FEW020 BKN130 20/15 Q1018     RMK 1CU020 5AC130 A3007=,
20180121_010000.002,0,ROAH,,,,0,20180121010000,-1,-1,-1,-1,20,-1,8,-1,-1,350,60,,9999,0,0,2,FEW 20   SCT 130,1,21,1,15,1018,ROAH 210100Z 02008KT 350V060 9999 FEW020 SCT130 21/15 Q1018     RMK 1CU020 3AC130 A3007=,
20180121_013000.001,0,ROAH,,,,0,20180121010000,-1,-1,-1,-1,50,-1,7,-1,-1,360,80,,9999,0,0,2,FEW 20   SCT -9999,1,22,1,16,1018,ROAH 210130Z 05007KT 360V080 9999 FEW020 SCT/// 22/16 Q1018     RMK 1CU020 A3007=,
20180121_020000.002,0,ROAH,,,,0,20180121020000,-1,-1,-1,-1,60,-1,10,-1,-1,-1,-1,,9999,0,0,2,FEW 20   BKN -9999,1,22,1,15,1017,ROAH 210200Z 06010KT 9999 FEW020 BKN/// 22/15 Q1017 RMK 1CU020     A3004 P/FR=,
20180121_023000.001,0,ROAH,,,,0,20180121020000,-1,-1,-1,-1,50,-1,10,-1,-1,-1,-1,,9999,0,0,2,SCT 20   BKN -9999,1,22,1,15,1017,ROAH 210230Z 05010KT 9999 SCT020 BKN/// 22/15 Q1017 RMK 3CU020     A3005=,
20180121_030000.002,0,ROAH,,,,0,20180121030000,-1,-1,-1,-1,70,-1,8,-1,-1,30,120,,9999,0,0,2,FEW 20   BKN -9999,1,22,1,15,1016,ROAH 210300Z 07008KT 030V120 9999 FEW020 BKN/// 22/15 Q1016     RMK 2CU020 A3003=,
20180121_033000.001,0,ROAH,,,,0,20180121030000,-1,-1,-1,-1,60,-1,8,-1,-1,20,110,,9999,0,0,2,FEW 20   BKN -9999,1,22,1,15,1016,ROAH 210330Z 06008KT 020V110 9999 FEW020 BKN/// 22/15 Q1016     RMK 2CU020 A3000=,
20180121_040000.003,0,ROAH,,,,0,20180121040000,-1,-1,-1,-1,60,-1,8,-1,-1,20,100,,9999,0,0,2,FEW 20   BKN -9999,1,22,1,15,1015,ROAH 210400Z 06008KT 020V100 9999 FEW020 BKN/// 22/15 Q1015     RMK 2CU020 A2998=,
20180121_043000.001,0,ROAH,,,,0,20180121040000,-1,-1,-1,-1,70,-1,8,-1,-1,40,100,,9999,0,0,2,FEW 25   BKN -9999,1,22,1,14,1014,ROAH 210430Z 07008KT 040V100 9999 FEW025 BKN/// 22/14 Q1014     RMK 1CU025 A2997=,
20180121_050000.002,0,ROAH,,,,0,20180121050000,-1,-1,-1,-1,70,-1,7,-1,-1,20,150,,9999,0,0,3,FEW 25   BKN 110   BKN -9999,1,22,1,14,1014,ROAH 210500Z 07007KT 020V150 9999 FEW025 BKN110 BKN/// 22/14     Q1014 RMK 1CU025 5AC110 A2995=,
20180121_053000.001,0,ROAH,,,,0,20180121050000,-1,-1,-1,-1,100,-1,7,-1,-1,40,130,,9999,0,0,2,FEW 25   BKN 100,1,22,1,15,1014,ROAH 210530Z 10007KT 040V130 9999 FEW025 BKN100 22/15 Q1014     RMK 1CU025 6AC100 A2995=,
20180121_060000.002,0,ROAH,,,,0,20180121060000,-1,-1,-1,-1,60,-1,9,-1,-1,-1,-1,,9999,0,0,2,FEW 25   BKN 100,1,21,1,15,1014,ROAH 210600Z 06009KT 9999 FEW025 BKN100 21/15 Q1014 RMK 2CU025     6AC100 A2995=,
20180121_063000.001,0,ROAH,,,,0,20180121060000,-1,-1,-1,-1,60,-1,10,-1,-1,-1,-1,,9999,0,0,2,FEW 22   BKN 110,1,22,1,15,1014,ROAH 210630Z 06010KT 9999 FEW022 BKN110 22/15 Q1014 RMK 2CU022     6AC110 A2995=,
20180121_070000.002,0,ROAH,,,,0,20180121070000,-1,-1,-1,-1,80,-1,8,-1,-1,40,130,,9999,0,0,2,SCT 22   BKN 90,1,21,1,15,1014,ROAH 210700Z 08008KT 040V130 9999 SCT022 BKN090 21/15 Q1014     RMK 3CU022 6AC090 A2995=,
20180121_073000.001,0,ROAH,,,,0,20180121070000,-1,-1,-1,-1,70,-1,7,-1,-1,40,120,,9999,0,0,2,SCT 22   BKN 90,1,21,1,15,1014,ROAH 210730Z 07007KT 040V120 9999 SCT022 BKN090 21/15 Q1014     RMK 3CU022 6AC090 A2996=,
20180121_080000.002,0,ROAH,,,,0,20180121080000,-1,-1,-1,-1,80,-1,7,-1,-1,50,120,,9999,0,0,2,FEW 22   BKN 80,1,21,1,15,1014,ROAH 210800Z 08007KT 050V120 9999 FEW022 BKN080 21/15 Q1014     RMK 1CU022 6AC080 A2995=,
20180121_083000.001,0,ROAH,,,,0,20180121080000,-1,-1,-1,-1,90,-1,7,-1,-1,50,150,,9999,0,0,2,FEW 20   BKN 120,1,21,1,15,1014,ROAH 210830Z 09007KT 050V150 9999 FEW020 BKN120 21/15 Q1014     RMK 1CU020 6AC120 A2995=,
20180121_090000.002,0,ROAH,,,,0,20180121090000,-1,-1,-1,-1,90,-1,6,-1,-1,50,140,,9999,0,0,2,FEW 20   BKN 100,1,21,1,15,1014,ROAH 210900Z 09006KT 050V140 9999 FEW020 BKN100 21/15 Q1014     RMK 1CU020 6AC100 A2996=,
20180121_093000.001,0,ROAH,,,,0,20180121090000,-1,-1,-1,-1,90,-1,6,-1,-1,30,140,,9999,0,0,2,FEW 20   BKN 90,1,21,1,15,1014,ROAH 210930Z 09006KT 030V140 9999 FEW020 BKN090 21/15 Q1014     RMK 1CU020 6AC090 A2996=,
20180121_100000.002,0,ROAH,,,,0,20180121100000,-1,-1,-1,-1,80,-1,6,-1,-1,40,120,,9999,0,0,2,FEW 20   BKN 100,1,21,1,15,1014,ROAH 211000Z 08006KT 040V120 9999 FEW020 BKN100 21/15 Q1014     RMK 1CU020 6AC100 A2997=,
20180121_103000.001,0,ROAH,,,,0,20180121100000,-1,-1,-1,-1,70,-1,6,-1,-1,40,110,,9999,0,0,2,SCT 20   BKN 120,1,21,1,16,1014,ROAH 211030Z 07006KT 040V110 9999 SCT020 BKN120 21/16 Q1014     RMK 4CU020 6AC120 A2997=,
20180121_110000.002,0,ROAH,,,,0,20180121110000,-1,-1,-1,-1,60,-1,8,-1,-1,30,90,,9999,0,0,2,SCT 20   BKN 150,1,21,1,16,1014,ROAH 211100Z 06008KT 030V090 9999 SCT020 BKN150 21/16 Q1014     RMK 4CU020 6AC150 A2996=,
20180121_113000.001,0,ROAH,,,,0,20180121110000,-1,-1,-1,-1,60,-1,7,-1,-1,30,130,,9999,0,0,3,FEW 20   SCT 30   BKN 140,1,21,1,16,1014,ROAH 211130Z 06007KT 030V130 9999 FEW020 SCT030 BKN140 21/16     Q1014 RMK 2CU020 3CU030 6AC140 A2997=,
20180121_120000.002,0,ROAH,,,,0,20180121120000,-1,-1,-1,-1,60,-1,7,-1,-1,-1,-1,,9999,0,1,3,SCT 17   BKN 30   BKN 40,1,21,1,16,1015,ROAH 211200Z 06007KT 9999 -SHRA SCT017 BKN030 BKN040 21/16     Q1015 RMK 3CU017 5CU030 6SC040 A2997=,- RA SH
20180121_123000.001,0,ROAH,,,,0,20180121120000,-1,-1,-1,-1,70,-1,7,-1,-1,30,110,,9999,0,0,3,FEW 17   SCT 30   BKN 40,1,21,1,16,1014,ROAH 211230Z 07007KT 030V110 9999 FEW017 SCT030 BKN040 21/16     Q1014 RMK 2CU017 4CU030 6SC040 A2997=,
20180121_130000.003,0,ROAH,,,,0,20180121130000,-1,-1,-1,-1,90,-1,7,-1,-1,30,130,,9999,0,1,3,FEW 17   SCT 30   BKN 40,1,21,1,16,1014,ROAH 211300Z 09007KT 030V130 9999 VCSH FEW017 SCT030 BKN040     21/16 Q1014 RMK 1CU017 3CU030 6SC040 A2996=,VC SH
20180121_133000.001,0,ROAH,,,,0,20180121130000,-1,-1,-1,-1,80,-1,7,-1,-1,50,120,,9999,0,1,3,FEW 17   SCT 50   BKN 100,1,21,1,16,1014,ROAH 211330Z 08007KT 050V120 9999 VCSH FEW017 SCT050 BKN100     21/16 Q1014 RMK 1CU017 4SC050 7AC100 A2995=,VC SH
20180121_140000.002,0,ROAH,,,,0,20180121140000,-1,-1,-1,-1,90,-1,6,-1,-1,50,120,,9999,0,0,3,FEW 17   SCT 45   BKN 90,1,21,1,17,1013,ROAH 211400Z 09006KT 050V120 9999 FEW017 SCT045 BKN090 21/17     Q1013 RMK 1CU017 3SC045 7AC090 A2994=,
20180121_143000.001,0,ROAH,,,,0,20180121140000,-1,-1,-1,-1,100,-1,6,-1,-1,-1,-1,,8000,0,1,3,FEW 17   BKN 50   BKN 70,1,20,1,17,1013,ROAH 211430Z 10006KT 8000 RA FEW017 BKN050 BKN070 20/17 Q1013     RMK 1CU017 5SC050 7AC070 A2993=,RA
20180121_150000.002,0,ROAH,,,,0,20180121150000,-1,-1,-1,-1,110,-1,6,-1,-1,-1,-1,,9999,0,1,2,FEW 17   BKN 100,1,20,1,17,1013,ROAH 211500Z 11006KT 9999 -RA FEW017 BKN100 20/17 Q1013 RMK     1CU017 7AC100 A2992=,- RA
20180121_153000.001,0,ROAH,,,,0,20180121150000,-1,-1,-1,-1,100,-1,6,-1,-1,50,140,,9999,0,1,2,FEW 15   BKN 100,1,20,1,17,1013,ROAH 211530Z 10006KT 050V140 9999 -RA FEW015 BKN100 20/17     Q1013 RMK 1CU015 7AS100 A2991=,- RA
20180121_160000.002,0,ROAH,,,,0,20180121160000,-1,-1,-1,-1,110,-1,5,-1,-1,80,150,,9999,0,1,2,FEW 15   BKN 90,1,20,1,17,1013,ROAH 211600Z 11005KT 080V150 9999 -RA FEW015 BKN090 20/17     Q1013 RMK 1CU015 7AS090 A2991=,- RA
20180121_163000.001,0,ROAH,,,,0,20180121160000,-1,-1,-1,-1,110,-1,6,-1,-1,70,140,,9999,0,1,2,FEW 15   BKN 80,1,20,1,17,1012,ROAH 211630Z 11006KT 070V140 9999 -RA FEW015 BKN080 20/17     Q1012 RMK 1CU015 7AS080 A2990=,- RA
20180121_170000.002,0,ROAH,,,,0,20180121170000,-1,-1,-1,-1,120,-1,7,-1,-1,-1,-1,,9999,0,1,3,FEW 18   SCT 40   BKN 90,1,20,1,17,1012,ROAH 211700Z 12007KT 9999 -RA FEW018 SCT040 BKN090 20/17 Q1012     RMK 1CU018 3SC040 7AS090 A2989=,- RA
20180121_173000.001,0,ROAH,,,,0,20180121170000,-1,-1,-1,-1,110,-1,6,-1,-1,-1,-1,,9999,0,0,2,FEW 10   BKN 70,1,20,1,18,1011,ROAH 211730Z 11006KT 9999 FEW010 BKN070 20/18 Q1011 RMK 1CU010     7AC070 A2988=,
20180121_180000.002,0,ROAH,,,,0,20180121180000,-1,-1,-1,-1,110,-1,5,-1,-1,70,140,,9999,0,1,2,FEW 10   BKN 60,1,20,1,18,1011,ROAH 211800Z 11005KT 070V140 9999 -RA FEW010 BKN060 20/18     Q1011 RMK 1CU010 7SC060 A2988=,- RA
20180121_183000.001,0,ROAH,,,,0,20180121180000,-1,-1,-1,-1,100,-1,4,-1,-1,50,140,,9999,0,1,2,FEW 7   BKN 50,1,20,1,18,1011,ROAH 211830Z 10004KT 050V140 9999 -RA FEW007 BKN050 20/18     Q1011 RMK 1ST007 7SC050 A2987=,- RA
20180121_190000.002,0,ROAH,,,,0,20180121190000,-1,-1,-1,-1,90,-1,4,-1,-1,50,130,,9999,0,0,2,FEW 7   BKN 50,1,20,1,18,1011,ROAH 211900Z 09004KT 050V130 9999 FEW007 BKN050 20/18 Q1011     RMK 1ST007 7SC050 A2986=,
20180121_193000.001,0,ROAH,,,,0,20180121190000,-1,-1,-1,-1,130,-1,4,-1,-1,-1,-1,,9999,0,0,2,FEW 20   BKN 50,1,20,1,18,1011,ROAH 211930Z 13004KT 9999 FEW020 BKN050 20/18 Q1011 RMK 1CU020     7SC050 A2986=,
20180121_200000.002,0,ROAH,,,,0,20180121200000,-1,-1,-1,-1,140,-1,5,-1,-1,-1,-1,,9999,0,0,2,FEW 20   BKN 50,1,20,1,18,1010,ROAH 212000Z 14005KT 9999 FEW020 BKN050 20/18 Q1010 RMK 1CU020     7SC050 A2984=,
20180121_203000.001,0,ROAH,,,,0,20180121200000,-1,-1,-1,-1,140,-1,4,-1,-1,-1,-1,,9999,0,0,2,FEW 15   BKN 45,1,21,1,17,1010,ROAH 212030Z 14004KT 9999 FEW015 BKN045 21/17 Q1010 RMK 1CU015     7SC045 A2984=,
20180121_210000.002,0,ROAH,,,,0,20180121210000,-1,-1,-1,-1,140,-1,4,-1,-1,-1,-1,,9999,0,0,2,FEW 15   BKN 40,1,20,1,17,1010,ROAH 212100Z 14004KT 9999 FEW015 BKN040 20/17 Q1010 RMK 1CU015     7SC040 A2984=,
20180121_213000.001,0,ROAH,,,,0,20180121210000,-1,-1,-1,-1,130,-1,4,-1,-1,-1,-1,,9999,0,1,3,FEW 15   SCT 20   BKN 40,1,21,1,17,1010,ROAH 212130Z 13004KT 9999 SHRA FEW015 SCT020 BKN040 21/17     Q1010 RMK 1CU015 3CU020 7SC040 A2984=,RA SH
20180121_220000.002,0,ROAH,,,,0,20180121220000,-1,-1,-1,-1,330,-1,8,-1,-1,-1,-1,,8000,0,1,3,FEW 8   BKN 15   BKN 40,1,20,1,17,1011,ROAH 212200Z 33008KT 8000 -SHRA FEW008 BKN015 BKN040 20/17     Q1011 RMK 1ST008 5CU015 7SC040 A2986=,- RA SH
20180121_223000.002,0,ROAH,,,,0,20180121220000,-1,-1,-1,-1,350,-1,8,-1,-1,-1,-1,,4000,0,1,3,SCT 5   BKN 10   BKN 40,1,19,1,18,1011,ROAH 212230Z 35008KT 4000 SHRA SCT005 BKN010 BKN040 19/18     Q1011 RMK 3ST005 5CU010 7SC040 A2986=,RA SH
20180121_230000.002,0,ROAH,,,,0,20180121230000,-1,-1,-1,-1,340,-1,8,-1,-1,310,70,,500,1,1,3,SCT 5   BKN 10   BKN 40,1,20,1,18,1011,ROAH 212300Z 34008KT 310V070 0500 R36/P1800N +SHRA SCT005     BKN010 BKN040 20/18 Q1011 RMK 3ST005 5CU010 7SC040 A2987           MOD TURB OBS AT 2235Z FM 30NM TO 50NM NE NHC BTN FL235           AND FL260 B763 RI++=,+ RA SH
20180121_233000.001,0,ROAH,,,,0,20180121230000,-1,-1,-1,-1,350,-1,4,-1,-1,320,20,,2500,0,1,3,FEW 5   SCT 15   BKN 40,1,20,1,19,1011,ROAH 212330Z 35004KT 320V020 2500 SHRA FEW005 SCT015 BKN040     20/19 Q1011 RMK 2ST005 4CU015 7SC040 A2987=,RA SH
20180122_000000.002,0,ROAH,,,,0,20180122000000,-1,-1,-1,-1,350,-1,9,-1,-1,-1,-1,,5000,0,1,3,FEW 3   SCT 5   BKN 40,1,20,1,19,1011,ROAH 220000Z 35009KT 5000 -SHRA FEW003 SCT005 BKN040 20/19     Q1011 RMK 1ST003 4ST005 6SC040 A2986=,- RA SH
20180122_003000.001,0,ROAH,,,,0,20180122000000,-1,-1,-1,-1,290,-1,4,-1,-1,230,350,,9999,0,1,3,FEW 5   SCT 8   BKN 50,1,20,1,19,1011,ROAH 220030Z 29004KT 230V350 9999 -RA FEW005 SCT008 BKN050     20/19 Q1011 RMK 1ST005 4ST008 6SC050 A2986=,- RA
20180122_010000.002,0,ROAH,,,,0,20180122010000,-1,-1,-1,-1,260,-1,10,-1,-1,-1,-1,,9999,0,1,3,FEW 8   SCT 15   BKN 50,1,21,1,18,1011,ROAH 220100Z 26010KT 9999 -RA FEW008 SCT015 BKN050 21/18 Q1011     RMK 2ST008 3CU015 6SC050 A2987=,- RA
20180122_013000.001,0,ROAH,,,,0,20180122010000,-1,-1,-1,-1,250,-1,10,-1,-1,230,310,,9999,0,1,3,FEW 8   BKN 15   BKN 50,1,21,1,19,1011,ROAH 220130Z 25010KT 230V310 9999 -SHRA FEW008 BKN015 BKN050     21/19 Q1011 RMK 1ST008 5CU015 6SC050 A2988=,- RA SH
20180122_020000.002,0,ROAH,,,,0,20180122020000,-1,-1,-1,-1,330,-1,27,-1,-1,-1,-1,,9999,0,1,3,FEW 6   BKN 12   BKN 50,1,19,1,17,1012,ROAH 220200Z 33027KT 9999 -SHRA FEW006 BKN012 BKN050 19/17     Q1012 RMK 1ST006 5CU012 6SC050 A2990=,- RA SH
20180122_023000.001,0,ROAH,,,,0,20180122020000,-1,-1,-1,-1,340,-1,23,-1,-1,-1,-1,,9999,0,1,3,FEW 10   SCT 15   BKN 60,1,20,1,16,1012,ROAH 220230Z 34023KT 9999 -SHRA FEW010 SCT015 BKN060 20/16     Q1012 RMK 1CU010 4CU015 6SC060 A2990=,- RA SH
20180122_030000.002,0,ROAH,,,,0,20180122030000,-1,-1,-1,-1,340,-1,23,-1,-1,-1,-1,,9999,0,1,3,FEW 15   SCT 20   BKN 60,1,20,1,16,1012,ROAH 220300Z 34023KT 9999 -SHRA FEW015 SCT020 BKN060 20/16     Q1012 RMK 1CU015 4CU020 6SC060 A2989=,- RA SH
20180122_033000.001,0,ROAH,,,,0,20180122030000,-1,-1,-1,-1,330,-1,21,-1,-1,-1,-1,,9999,0,1,3,FEW 20   BKN 25   BKN 90,1,20,1,15,1011,ROAH 220330Z 33021KT 9999 VCSH FEW020 BKN025 BKN090 20/15     Q1011 RMK 1CU020 6CU025 7AC090 A2988=,VC SH
20180122_040000.002,0,ROAH,,,,0,20180122040000,-1,-1,-1,-1,340,-1,21,-1,-1,-1,-1,,9999,0,0,3,FEW 20   BKN 25   BKN 90,1,20,1,15,1011,ROAH 220400Z 34021KT 9999 FEW020 BKN025 BKN090 20/15 Q1011 RMK     1CU020 6CU025 7AC090 A2987=,
20180122_043000.001,0,ROAH,,,,0,20180122040000,-1,-1,-1,-1,350,-1,23,-1,-1,-1,-1,,9999,0,0,3,FEW 20   BKN 30   BKN 90,1,20,1,14,1011,ROAH 220430Z 35023KT 9999 FEW020 BKN030 BKN090 20/14 Q1011 RMK     2CU020 5CU030 7AC090 A2986=,
20180122_050000.002,0,ROAH,,,,0,20180122050000,-1,-1,-1,-1,350,-1,18,-1,-1,-1,-1,,9999,0,0,2,FEW 25   BKN 100,1,19,1,14,1011,ROAH 220500Z 35018KT 9999 FEW025 BKN100 19/14 Q1011 RMK 2CU025     6AC100 A2986=,
20180122_053000.001,0,ROAH,,,,0,20180122050000,-1,-1,-1,-1,350,-1,18,-1,-1,-1,-1,,9999,0,1,2,SCT 25   BKN 100,1,20,1,14,1011,ROAH 220530Z 35018KT 9999 -SHRA SCT025 BKN100 20/14 Q1011 RMK     3CU025 6AC100 A2986=,- RA SH
20180122_060000.003,0,ROAH,,,,0,20180122060000,-1,-1,-1,-1,360,-1,20,-1,-1,-1,-1,,9999,0,0,3,FEW 25   SCT 30   BKN 120,1,19,1,13,1011,ROAH 220600Z 36020KT 9999 FEW025 SCT030 BKN120 19/13 Q1011 RMK     1CU025 3CU030 6AC120 A2986=,
20180122_063000.001,0,ROAH,,,,0,20180122060000,-1,-1,-1,-1,360,-1,19,-1,-1,-1,-1,,9999,0,0,2,SCT 25   BKN 120,1,19,1,13,1011,ROAH 220630Z 36019KT 9999 SCT025 BKN120 19/13 Q1011 RMK 3CU025     6AC120 A2987=,
20180122_070000.002,0,ROAH,,,,0,20180122070000,-1,-1,-1,-1,360,-1,18,-1,-1,-1,-1,,9999,0,0,3,FEW 25   SCT 35   BKN 120,1,19,1,12,1012,ROAH 220700Z 36018KT 9999 FEW025 SCT035 BKN120 19/12 Q1012 RMK     2CU025 3CU035 6AC120 A2989=,
20180122_073000.001,0,ROAH,,,,0,20180122070000,-1,-1,-1,-1,10,-1,19,-1,-1,-1,-1,,9999,0,0,3,FEW 25   SCT 30   BKN 120,1,19,1,13,1012,ROAH 220730Z 01019KT 9999 FEW025 SCT030 BKN120 19/13 Q1012 RMK     1CU025 3CU030 6AC120 A2989=,
20180122_080000.003,0,ROAH,,,,0,20180122080000,-1,-1,-1,-1,10,-1,18,-1,-1,-1,-1,,9999,0,0,3,FEW 28   SCT 40   BKN 130,1,19,1,12,1012,ROAH 220800Z 01018KT 9999 FEW028 SCT040 BKN130 19/12 Q1012 RMK     2CU028 3SC040 5AC130 A2990=,
20180122_083000.001,0,ROAH,,,,0,20180122080000,-1,-1,-1,-1,30,-1,11,-1,-1,340,80,,9999,0,0,3,SCT 28   SCT 40   BKN 130,1,19,1,12,1013,ROAH 220830Z 03011KT 340V080 9999 SCT028 SCT040 BKN130 19/12     Q1013 RMK 3CU028 4SC040 5AC130 A2993 P/RR=,
20180122_090000.002,0,ROAH,,,,0,20180122090000,-1,-1,-1,-1,30,-1,14,-1,-1,350,80,,9999,0,0,3,FEW 28   SCT 40   BKN 130,1,19,1,11,1013,ROAH 220900Z 03014KT 350V080 9999 FEW028 SCT040 BKN130 19/11     Q1013 RMK 1CU028 3SC040 5AC130 A2992=,
20180122_093000.001,0,ROAH,,,,0,20180122090000,-1,-1,-1,-1,20,-1,15,-1,-1,-1,-1,,9999,0,0,3,FEW 30   SCT 40   BKN 130,1,19,1,11,1013,ROAH 220930Z 02015KT 9999 FEW030 SCT040 BKN130 19/11 Q1013 RMK     1CU030 3SC040 5AC130 A2994=,
20180122_100000.002,0,ROAH,,,,0,20180122100000,-1,-1,-1,-1,20,-1,15,-1,-1,-1,-1,,9999,0,0,3,FEW 30   SCT 40   BKN 140,1,18,1,11,1014,ROAH 221000Z 02015KT 9999 FEW030 SCT040 BKN140 18/11 Q1014 RMK     1CU030 3SC040 6AC140 A2995=,
20180122_103000.001,0,ROAH,,,,0,20180122100000,-1,-1,-1,-1,20,-1,14,-1,-1,350,50,,9999,0,0,3,FEW 30   SCT 40   BKN 140,1,18,1,10,1014,ROAH 221030Z 02014KT 350V050 9999 FEW030 SCT040 BKN140 18/10     Q1014 RMK 1CU030 3SC040 6AC140 A2996 MOD TURB OBS AT           1016Z CRUXS BTN FL180 AND 13000FT B738=,
20180122_110000.003,0,ROAH,,,,0,20180122110000,-1,-1,-1,-1,40,-1,9,-1,-1,320,90,,9999,0,0,3,FEW 30   SCT 40   BKN 160,1,18,1,10,1014,ROAH 221100Z 04009KT 320V090 9999 FEW030 SCT040 BKN160 18/10     Q1014 RMK 1CU030 3SC040 5AC160 A2997=,
20180122_113000.001,0,ROAH,,,,0,20180122110000,-1,-1,-1,-1,40,-1,12,-1,-1,-1,-1,,9999,0,0,2,FEW 30   BKN 160,1,18,1,10,1015,ROAH 221130Z 04012KT 9999 FEW030 BKN160 18/10 Q1015 RMK 2CU030     7AC160 A2998=,
20180122_120000.002,0,ROAH,,,,0,20180122120000,-1,-1,-1,-1,50,-1,9,-1,-1,-1,-1,,9999,0,0,3,FEW 30   BKN 35   BKN 160,1,18,1,10,1015,ROAH 221200Z 05009KT 9999 FEW030 BKN035 BKN160 18/10 Q1015 RMK     1CU030 5SC035 7AC160 A2999=,
20180122_123000.001,0,ROAH,,,,0,20180122120000,-1,-1,-1,-1,50,-1,8,-1,-1,20,80,,9999,0,0,3,FEW 30   SCT 40   BKN 160,1,18,1,9,1015,ROAH 221230Z 05008KT 020V080 9999 FEW030 SCT040 BKN160 18/09     Q1015 RMK 1CU030 3SC040 7AC160 A3000=,
20180122_130000.003,0,ROAH,,,,0,20180122130000,-1,-1,-1,-1,50,-1,6,-1,-1,-1,-1,,9999,0,0,2,FEW 30   BKN 40,1,18,1,10,1016,ROAH 221300Z 05006KT 9999 FEW030 BKN040 18/10 Q1016 RMK 1CU030     7SC040 A3000=,
20180122_133000.001,0,ROAH,,,,0,20180122130000,-1,-1,-1,-1,50,-1,5,-1,-1,-1,-1,,9999,0,0,2,SCT 45   BKN -9999,1,18,1,10,1016,ROAH 221330Z 05005KT 9999 SCT045 BKN/// 18/10 Q1016 RMK 4SC045     A3002=,
20180122_140000.003,0,ROAH,,,,0,20180122140000,-1,-1,-1,-1,30,-1,6,-1,-1,-1,-1,,9999,0,0,2,BKN 45   BKN -9999,1,18,1,10,1016,ROAH 221400Z 03006KT 9999 BKN045 BKN/// 18/10 Q1016 RMK 5SC045     A3001=,
20180122_143000.001,0,ROAH,,,,0,20180122140000,-1,-1,-1,-1,30,-1,8,-1,-1,10,70,,9999,0,0,2,BKN 40   BKN -9999,1,18,1,10,1015,ROAH 221430Z 03008KT 010V070 9999 BKN040 BKN/// 18/10 Q1015     RMK 5SC040 A3000=,
20180122_150000.002,0,ROAH,,,,0,20180122150000,-1,-1,-1,-1,40,-1,6,-1,-1,-1,-1,,9999,0,0,2,BKN 40   BKN -9999,1,18,1,10,1016,ROAH 221500Z 04006KT 9999 BKN040 BKN/// 18/10 Q1016 RMK 6SC040     A3000=,
20180122_153000.001,0,ROAH,,,,0,20180122150000,-1,-1,-1,-1,30,-1,6,-1,-1,-1,-1,,9999,0,0,2,BKN 40   BKN -9999,1,18,1,10,1016,ROAH 221530Z 03006KT 9999 BKN040 BKN/// 18/10 Q1016 RMK 6SC040     A3001=,
20180122_160000.002,0,ROAH,,,,0,20180122160000,-1,-1,-1,-1,30,-1,7,-1,-1,-1,-1,,9999,0,0,2,BKN 45   BKN -9999,1,18,1,9,1016,ROAH 221600Z 03007KT 9999 BKN045 BKN/// 18/09 Q1016 RMK 6SC045     A3001=,
20180122_163000.001,0,ROAH,,,,0,20180122160000,-1,-1,-1,-1,30,-1,9,-1,-1,-1,-1,,9999,0,0,2,FEW 45   BKN -9999,1,18,1,10,1015,ROAH 221630Z 03009KT 9999 FEW045 BKN/// 18/10 Q1015 RMK 2SC045     A2999=,
20180122_170000.002,0,ROAH,,,,0,20180122170000,-1,-1,-1,-1,30,-1,9,-1,-1,-1,-1,,9999,0,0,2,FEW 45   BKN -9999,1,18,1,9,1015,ROAH 221700Z 03009KT 9999 FEW045 BKN/// 18/09 Q1015 RMK 1SC045     A2999=,
20180122_173000.001,0,ROAH,,,,0,20180122170000,-1,-1,-1,-1,40,-1,7,-1,-1,-1,-1,,9999,0,0,2,FEW 45   BKN -9999,1,17,1,9,1015,ROAH 221730Z 04007KT 9999 FEW045 BKN/// 17/09 Q1015 RMK 1SC045     A2998=,
20180122_180000.002,0,ROAH,,,,0,20180122180000,-1,-1,-1,-1,50,-1,5,-1,-1,-1,-1,,9999,0,0,2,FEW 45   BKN -9999,1,17,1,9,1015,ROAH 221800Z 05005KT 9999 FEW045 BKN/// 17/09 Q1015 RMK 1SC045     A2998=,
20180122_183000.001,0,ROAH,,,,0,20180122180000,-1,-1,-1,-1,50,-1,7,-1,-1,-1,-1,,9999,0,0,2,FEW 45   SCT -9999,1,17,1,9,1015,ROAH 221830Z 05007KT 9999 FEW045 SCT/// 17/09 Q1015 RMK 1SC045     A2998=,
20180122_190000.002,0,ROAH,,,,0,20180122190000,-1,-1,-1,-1,40,-1,9,-1,-1,-1,-1,,9999,0,0,2,FEW 45   BKN 50,1,17,1,9,1015,ROAH 221900Z 04009KT 9999 FEW045 BKN050 17/09 Q1015 RMK 1SC045     5SC050 A2999=,
20180122_193000.001,0,ROAH,,,,0,20180122190000,-1,-1,-1,-1,30,-1,8,-1,-1,-1,-1,,9999,0,0,2,FEW 45   BKN 50,1,17,1,9,1015,ROAH 221930Z 03008KT 9999 FEW045 BKN050 17/09 Q1015 RMK 1SC045     6SC050 A2999=,
20180122_200000.002,0,ROAH,,,,0,20180122200000,-1,-1,-1,-1,30,-1,9,-1,-1,-1,-1,CAVOK,-1,0,0,0,,1,17,1,10,1015,ROAH 222000Z 03009KT CAVOK 17/10 Q1015 RMK A2999=,
20180122_203000.001,0,ROAH,,,,0,20180122200000,-1,-1,-1,-1,30,-1,10,-1,-1,-1,-1,CAVOK,-1,0,0,0,,1,17,1,10,1015,ROAH 222030Z 03010KT CAVOK 17/10 Q1015 RMK A2999=,
20180122_210000.003,0,ROAH,,,,0,20180122210000,-1,-1,-1,-1,30,-1,9,-1,-1,-1,-1,CAVOK,-1,0,0,0,,1,17,1,9,1015,ROAH 222100Z 03009KT CAVOK 17/09 Q1015 RMK A3000=,
20180122_213000.001,0,ROAH,,,,0,20180122210000,-1,-1,-1,-1,40,-1,8,-1,-1,-1,-1,CAVOK,-1,0,0,0,,1,17,1,9,1016,ROAH 222130Z 04008KT CAVOK 17/09 Q1016 RMK 6SC050 A3001=,
20180122_220000.002,0,ROAH,,,,0,20180122220000,-1,-1,-1,-1,40,-1,9,-1,-1,-1,-1,CAVOK,-1,0,0,0,,1,17,1,9,1016,ROAH 222200Z 04009KT CAVOK 17/09 Q1016 RMK 6SC050 A3002=,
20180122_223000.002,0,ROAH,,,,0,20180122220000,-1,-1,-1,-1,50,-1,7,-1,-1,20,90,CAVOK,-1,0,0,0,,1,17,1,8,1016,ROAH 222230Z 05007KT 020V090 CAVOK 17/08 Q1016 RMK 6SC050     A3002=,
20180122_230000.003,0,ROAH,,,,0,20180122230000,-1,-1,-1,-1,50,-1,8,-1,-1,-1,-1,CAVOK,-1,0,0,0,,1,18,1,8,1016,ROAH 222300Z 05008KT CAVOK 18/08 Q1016 RMK 6SC050 A3003=,
20180122_233000.001,0,ROAH,,,,0,20180122230000,-1,-1,-1,-1,60,-1,8,-1,-1,-1,-1,CAVOK,-1,0,0,0,,1,18,1,8,1016,ROAH 222330Z 06008KT CAVOK 18/08 Q1016 RMK A3003=,
20180123_000000.002,0,ROAH,,,,0,20180123000000,-1,-1,-1,-1,40,-1,9,-1,-1,-1,-1,CAVOK,-1,0,0,0,,1,18,1,8,1017,ROAH 230000Z 04009KT CAVOK 18/08 Q1017 RMK A3003=,
20180123_003000.001,0,ROAH,,,,0,20180123000000,-1,-1,-1,-1,50,-1,9,-1,-1,20,90,CAVOK,-1,0,0,0,,1,18,1,8,1017,ROAH 230030Z 05009KT 020V090 CAVOK 18/08 Q1017 RMK A3004=,
20180123_010000.002,0,ROAH,,,,0,20180123010000,-1,-1,-1,-1,40,-1,9,-1,-1,360,70,,9999,0,0,2,FEW 45   BKN 50,1,18,1,9,1017,ROAH 230100Z 04009KT 360V070 9999 FEW045 BKN050 18/09 Q1017     RMK 1SC045 6SC050 A3004=,
20180123_013000.001,0,ROAH,,,,0,20180123010000,-1,-1,-1,-1,60,-1,10,-1,-1,-1,-1,,9999,0,0,2,FEW 45   SCT 60,1,20,1,9,1016,ROAH 230130Z 06010KT 9999 FEW045 SCT060 20/09 Q1016 RMK 1SC045     4SC060 A3002=,
20180123_020000.002,0,ROAH,,,,0,20180123020000,-1,-1,-1,-1,70,-1,11,-1,-1,30,100,CAVOK,-1,0,0,0,,1,20,1,10,1016,ROAH 230200Z 07011KT 030V100 CAVOK 20/10 Q1016 RMK 5SC060     A3002=,
20180123_023000.001,0,ROAH,,,,0,20180123020000,-1,-1,-1,-1,70,-1,9,-1,-1,40,110,CAVOK,-1,0,0,0,,1,20,1,10,1016,ROAH 230230Z 07009KT 040V110 CAVOK 20/10 Q1016 RMK 6SC060     A3001=,
20180123_030000.003,0,ROAH,,,,0,20180123030000,-1,-1,-1,-1,80,-1,9,-1,-1,50,110,,9999,0,0,2,FEW 45   BKN 60,1,20,1,10,1015,ROAH 230300Z 08009KT 050V110 9999 FEW045 BKN060 20/10 Q1015     RMK 2SC045 7SC060 A3000=,
20180123_033000.001,0,ROAH,,,,0,20180123030000,-1,-1,-1,-1,70,-1,8,-1,-1,30,130,,9999,0,0,1,BKN 45,1,20,1,10,1015,ROAH 230330Z 07008KT 030V130 9999 BKN045 20/10 Q1015 RMK     7SC045 A2999=,
20180123_040000.003,0,ROAH,,,,0,20180123040000,-1,-1,-1,-1,70,-1,9,-1,-1,40,120,,9999,0,0,1,BKN 45,1,20,1,10,1015,ROAH 230400Z 07009KT 040V120 9999 BKN045 20/10 Q1015 RMK     7SC045 A2998=,
20180123_043000.001,0,ROAH,,,,0,20180123040000,-1,-1,-1,-1,60,-1,9,-1,-1,-1,-1,,9999,0,0,1,BKN 45,1,19,1,10,1015,ROAH 230430Z 06009KT 9999 BKN045 19/10 Q1015 RMK 7SC045 A2997=,
20180123_050000.002,0,ROAH,,,,0,20180123050000,-1,-1,-1,-1,60,-1,8,-1,-1,40,110,,9999,0,0,1,BKN 45,1,20,1,11,1014,ROAH 230500Z 06008KT 040V110 9999 BKN045 20/11 Q1014 RMK     7SC045 A2996=,
20180123_053000.001,0,ROAH,,,,0,20180123050000,-1,-1,-1,-1,60,-1,8,-1,-1,360,110,,9999,0,0,1,BKN 45,1,19,1,11,1014,ROAH 230530Z 06008KT 360V110 9999 BKN045 19/11 Q1014 RMK     7SC045 A2997=,
20180123_060000.003,0,ROAH,,,,0,20180123060000,-1,-1,-1,-1,50,-1,7,-1,-1,360,100,,9999,0,0,1,BKN 45,1,19,1,11,1014,ROAH 230600Z 05007KT 360V100 9999 BKN045 19/11 Q1014 RMK     7SC045 A2996=,
20180123_063000.001,0,ROAH,,,,0,20180123060000,-1,-1,-1,-1,50,-1,7,-1,-1,360,90,,9999,0,0,1,BKN 40,1,19,1,11,1014,ROAH 230630Z 05007KT 360V090 9999 BKN040 19/11 Q1014 RMK     7SC040 A2997=,
20180123_070000.002,0,ROAH,,,,0,20180123070000,-1,-1,-1,-1,50,-1,7,-1,-1,360,100,,9999,0,0,1,BKN 40,1,19,1,10,1015,ROAH 230700Z 05007KT 360V100 9999 BKN040 19/10 Q1015 RMK     7SC040 A2998=,
20180123_073000.001,0,ROAH,,,,0,20180123070000,-1,-1,-1,-1,60,-1,6,-1,-1,20,130,,9999,0,0,1,BKN 45,1,19,1,11,1015,ROAH 230730Z 06006KT 020V130 9999 BKN045 19/11 Q1015 RMK     7SC045 A2998=,
20180123_080000.002,0,ROAH,,,,0,20180123080000,-1,-1,-1,-1,30,-1,8,-1,-1,360,70,,9999,0,0,2,FEW 35   BKN 45,1,19,1,11,1015,ROAH 230800Z 03008KT 360V070 9999 FEW035 BKN045 19/11 Q1015     RMK 1SC035 7SC045 A2999=,
20180123_083000.001,0,ROAH,,,,0,20180123080000,-1,-1,-1,-1,40,-1,7,-1,-1,-1,-1,,9999,0,0,2,FEW 35   BKN 45,1,19,1,10,1015,ROAH 230830Z 04007KT 9999 FEW035 BKN045 19/10 Q1015 RMK 1SC035     6SC045 A3000=,
20180123_090000.002,0,ROAH,,,,0,20180123090000,-1,-1,-1,-1,30,-1,10,-1,-1,-1,-1,,9999,0,1,2,FEW 35   BKN 45,1,18,1,11,1016,ROAH 230900Z 03010KT 9999 VCSH FEW035 BKN045 18/11 Q1016 RMK     1SC035 6SC045 A3000=,VC SH
20180123_093000.001,0,ROAH,,,,0,20180123090000,-1,-1,-1,-1,40,-1,9,-1,-1,10,70,,9999,0,1,2,FEW 30   BKN 45,1,18,1,11,1016,ROAH 230930Z 04009KT 010V070 9999 -RA FEW030 BKN045 18/11     Q1016 RMK 1SC030 6SC045 A3001=,- RA
20180123_100000.002,0,ROAH,,,,0,20180123100000,-1,-1,-1,-1,999,-1,5,-1,-1,-1,-1,,9999,0,0,3,FEW 30   SCT 45   BKN 70,1,18,1,11,1016,ROAH 231000Z VRB05KT 9999 FEW030 SCT045 BKN070 18/11 Q1016 RMK     1CU030 3SC045 6AC070 A3002=,
20180123_103000.001,0,ROAH,,,,0,20180123100000,-1,-1,-1,-1,50,-1,8,-1,-1,20,120,,9999,0,0,2,FEW 30   BKN 80,1,17,1,11,1016,ROAH 231030Z 05008KT 020V120 9999 FEW030 BKN080 17/11 Q1016     RMK 1CU030 5AC080 A3003=,
20180123_110000.002,0,ROAH,,,,0,20180123110000,-1,-1,-1,-1,40,-1,7,-1,-1,-1,-1,,9999,0,0,2,FEW 30   SCT 80,1,17,1,11,1017,ROAH 231100Z 04007KT 9999 FEW030 SCT080 17/11 Q1017 RMK 1CU030     3AC080 A3003=,
20180123_113000.001,0,ROAH,,,,0,20180123110000,-1,-1,-1,-1,40,-1,7,-1,-1,350,60,,9999,0,0,1,FEW 30,1,17,1,11,1017,ROAH 231130Z 04007KT 350V060 9999 FEW030 17/11 Q1017 RMK     1CU030 A3004=,
20180123_120000.002,0,ROAH,,,,0,20180123120000,-1,-1,-1,-1,50,-1,8,-1,-1,-1,-1,,9999,0,0,2,FEW 30   BKN 90,1,17,1,11,1017,ROAH 231200Z 05008KT 9999 FEW030 BKN090 17/11 Q1017 RMK 1CU030     6AC090 A3004=,
20180123_123000.001,0,ROAH,,,,0,20180123120000,-1,-1,-1,-1,40,-1,8,-1,-1,10,80,,9999,0,0,2,FEW 30   BKN 90,1,17,1,11,1017,ROAH 231230Z 04008KT 010V080 9999 FEW030 BKN090 17/11 Q1017     RMK 1CU030 6AC090 A3005=,
20180123_130000.002,0,ROAH,,,,0,20180123130000,-1,-1,-1,-1,30,-1,8,-1,-1,-1,-1,,9999,0,0,2,FEW 30   BKN 80,1,17,1,11,1017,ROAH 231300Z 03008KT 9999 FEW030 BKN080 17/11 Q1017 RMK 1CU030     6AC080 A3004=,
20180123_133000.001,0,ROAH,,,,0,20180123130000,-1,-1,-1,-1,40,-1,8,-1,-1,-1,-1,,9999,0,0,2,FEW 30   BKN 80,1,17,1,11,1017,ROAH 231330Z 04008KT 9999 FEW030 BKN080 17/11 Q1017 RMK 1CU030     5AC080 A3004=,
20180123_140000.002,0,ROAH,,,,0,20180123140000,-1,-1,-1,-1,50,-1,8,-1,-1,-1,-1,,9999,0,0,2,FEW 30   SCT 50,1,17,1,12,1017,ROAH 231400Z 05008KT 9999 FEW030 SCT050 17/12 Q1017 RMK 1CU030     3SC050 A3004=,
20180123_143000.001,0,ROAH,,,,0,20180123140000,-1,-1,-1,-1,40,-1,9,-1,-1,-1,-1,,9999,0,0,2,FEW 30   SCT 100,1,17,1,12,1017,ROAH 231430Z 04009KT 9999 FEW030 SCT100 17/12 Q1017 RMK 1CU030     4AC100 A3004=,
20180123_150000.002,0,ROAH,,,,0,20180123150000,-1,-1,-1,-1,40,-1,8,-1,-1,-1,-1,,9999,0,0,2,FEW 30   BKN 70,1,17,1,12,1017,ROAH 231500Z 04008KT 9999 FEW030 BKN070 17/12 Q1017 RMK 1CU030     6AC070 A3004=,
20180123_153000.001,0,ROAH,,,,0,20180123150000,-1,-1,-1,-1,30,-1,8,-1,-1,-1,-1,,9999,0,0,2,FEW 30   BKN 70,1,17,1,12,1017,ROAH 231530Z 03008KT 9999 FEW030 BKN070 17/12 Q1017 RMK 1CU030     6AC070 A3004=,
20180123_160000.002,0,ROAH,,,,0,20180123160000,-1,-1,-1,-1,30,-1,9,-1,-1,-1,-1,CAVOK,-1,0,0,0,,1,17,1,12,1017,ROAH 231600Z 03009KT CAVOK 17/12 Q1017 RMK A3004=,
20180123_163000.001,0,ROAH,,,,0,20180123160000,-1,-1,-1,-1,40,-1,8,-1,-1,-1,-1,CAVOK,-1,0,0,0,,1,17,1,12,1016,ROAH 231630Z 04008KT CAVOK 17/12 Q1016 RMK A3003=,
20180123_170000.002,0,ROAH,,,,0,20180123170000,-1,-1,-1,-1,20,-1,7,-1,-1,-1,-1,,9999,0,0,2,FEW 45   BKN 100,1,17,1,12,1017,ROAH 231700Z 02007KT 9999 FEW045 BKN100 17/12 Q1017 RMK 1SC045     6AC100 A3004=,
20180123_173000.001,0,ROAH,,,,0,20180123170000,-1,-1,-1,-1,40,-1,8,-1,-1,-1,-1,,9999,0,0,2,FEW 45   BKN 100,1,18,1,12,1017,ROAH 231730Z 04008KT 9999 FEW045 BKN100 18/12 Q1017 RMK 1SC045     6AC100 A3003=,
20180123_180000.002,0,ROAH,,,,0,20180123180000,-1,-1,-1,-1,50,-1,8,-1,-1,-1,-1,,9999,0,0,2,FEW 45   BKN 90,1,18,1,12,1016,ROAH 231800Z 05008KT 9999 FEW045 BKN090 18/12 Q1016 RMK 1SC045     6AC090 A3002=,
20180123_183000.001,0,ROAH,,,,0,20180123180000,-1,-1,-1,-1,20,-1,10,-1,-1,-1,-1,,9999,0,0,2,FEW 20   BKN 100,1,18,1,12,1016,ROAH 231830Z 02010KT 9999 FEW020 BKN100 18/12 Q1016 RMK 1CU020     6AC100 A3003=,
20180123_190000.002,0,ROAH,,,,0,20180123190000,-1,-1,-1,-1,50,-1,9,-1,-1,-1,-1,,9999,0,0,2,FEW 20   BKN 100,1,17,1,12,1016,ROAH 231900Z 05009KT 9999 FEW020 BKN100 17/12 Q1016 RMK 1CU020     6AC100 A3002=,
20180123_193000.001,0,ROAH,,,,0,20180123190000,-1,-1,-1,-1,30,-1,12,-1,-1,-1,-1,,9999,0,0,2,FEW 20   BKN 100,1,18,1,12,1016,ROAH 231930Z 03012KT 9999 FEW020 BKN100 18/12 Q1016 RMK 1CU020     6AC100 A3001=,
20180123_200000.002,0,ROAH,,,,0,20180123200000,-1,-1,-1,-1,30,-1,9,-1,-1,-1,-1,,9999,0,0,3,FEW 20   SCT 45   BKN 100,1,18,1,13,1017,ROAH 232000Z 03009KT 9999 FEW020 SCT045 BKN100 18/13 Q1017 RMK     1CU020 3SC045 6AC100 A3004=,
20180123_203000.001,0,ROAH,,,,0,20180123200000,-1,-1,-1,-1,40,-1,13,-1,-1,-1,-1,,9999,0,0,3,FEW 20   SCT 45   BKN 100,1,18,1,13,1016,ROAH 232030Z 04013KT 9999 FEW020 SCT045 BKN100 18/13 Q1016 RMK     1CU020 3SC045 6AC100 A3003=,
20180123_210000.002,0,ROAH,,,,0,20180123210000,-1,-1,-1,-1,50,-1,10,-1,-1,-1,-1,,9999,0,0,3,FEW 20   SCT 45   BKN 100,1,18,1,13,1017,ROAH 232100Z 05010KT 9999 FEW020 SCT045 BKN100 18/13 Q1017 RMK     2CU020 3SC045 6AC100 A3004=,
20180123_213000.001,0,ROAH,,,,0,20180123210000,-1,-1,-1,-1,30,-1,13,-1,-1,-1,-1,,9999,0,0,2,SCT 20   BKN 100,1,18,1,13,1017,ROAH 232130Z 03013KT 9999 SCT020 BKN100 18/13 Q1017 RMK 4CU020     6AC100 A3005=,
20180123_220000.002,0,ROAH,,,,0,20180123220000,-1,-1,-1,-1,20,-1,20,-1,-1,-1,-1,,9999,0,0,3,FEW 20   SCT 30   BKN 40,1,17,1,13,1018,ROAH 232200Z 02020KT 9999 FEW020 SCT030 BKN040 17/13 Q1018 RMK     2CU020 4CU030 6SC040 A3007=,
20180123_223000.002,0,ROAH,,,,0,20180123220000,-1,-1,-1,-1,20,-1,19,-1,-1,-1,-1,,9999,0,0,3,FEW 20   BKN 30   BKN 40,1,18,1,12,1018,ROAH 232230Z 02019KT 9999 FEW020 BKN030 BKN040 18/12 Q1018 RMK     2CU020 5CU030 6SC040 A3008=,
20180123_230000.002,0,ROAH,,,,0,20180123230000,-1,-1,-1,-1,30,-1,18,-1,-1,-1,-1,,9999,0,0,3,FEW 20   BKN 30   BKN 40,1,17,1,12,1018,ROAH 232300Z 03018KT 9999 FEW020 BKN030 BKN040 17/12 Q1018 RMK     2CU020 5CU030 6SC040 A3009=,
20180123_233000.001,0,ROAH,,,,0,20180123230000,-1,-1,-1,-1,30,-1,15,-1,-1,360,60,,9999,0,0,2,SCT 20   BKN 30,1,17,1,12,1019,ROAH 232330Z 03015KT 360V060 9999 SCT020 BKN030 17/12 Q1019     RMK 3CU020 6CU030 A3010=,
20180124_000000.002,0,ROAH,,,,0,20180124000000,-1,-1,-1,-1,30,-1,13,-1,-1,-1,-1,,9999,0,1,2,SCT 20   BKN 30,1,16,1,12,1019,ROAH 240000Z 03013KT 9999 -SHRA SCT020 BKN030 16/12 Q1019 RMK     4CU020 6CU030 A3010=,- RA SH
20180124_003000.001,0,ROAH,,,,0,20180124000000,-1,-1,-1,-1,40,-1,12,-1,-1,10,70,,9999,0,0,2,SCT 19   BKN 25,1,17,1,12,1019,ROAH 240030Z 04012KT 010V070 9999 SCT019 BKN025 17/12 Q1019     RMK 3CU019 6CU025 A3011=,
20180124_010000.003,0,ROAH,,,,0,20180124010000,-1,-1,-1,-1,40,-1,11,-1,-1,360,80,,9999,0,0,2,FEW 20   BKN 30,1,17,1,12,1019,ROAH 240100Z 04011KT 360V080 9999 FEW020 BKN030 17/12 Q1019     RMK 2CU020 6CU030 A3010=,
20180124_013000.001,0,ROAH,,,,0,20180124010000,-1,-1,-1,-1,40,-1,10,-1,-1,360,90,,9999,0,0,3,FEW 20   BKN 30   BKN 45,1,17,1,12,1019,ROAH 240130Z 04010KT 360V090 9999 FEW020 BKN030 BKN045 17/12     Q1019 RMK 2CU020 5CU030 7SC045 A3011=,
20180124_020000.002,0,ROAH,,,,0,20180124020000,-1,-1,-1,-1,30,-1,14,-1,-1,-1,-1,,9999,0,0,3,FEW 20   SCT 30   BKN 39,1,17,1,11,1018,ROAH 240200Z 03014KT 9999 FEW020 SCT030 BKN039 17/11 Q1018 RMK     1CU020 3CU030 6SC039 A3009=,
20180124_023000.001,0,ROAH,,,,0,20180124020000,-1,-1,-1,-1,20,-1,15,-1,-1,-1,-1,,9999,0,0,2,FEW 20   BKN 39,1,18,1,12,1019,ROAH 240230Z 02015KT 9999 FEW020 BKN039 18/12 Q1019 RMK 1CU020     6SC039 A3009=,
20180124_030000.002,0,ROAH,,,,0,20180124030000,-1,-1,-1,-1,20,-1,16,-1,-1,-1,-1,,9999,0,0,3,FEW 20   BKN 30   BKN 40,1,18,1,11,1018,ROAH 240300Z 02016KT 9999 FEW020 BKN030 BKN040 18/11 Q1018 RMK     1CU020 5CU030 7SC040 A3008=,
20180124_033000.001,0,ROAH,,,,0,20180124030000,-1,-1,-1,-1,20,-1,17,-1,-1,-1,-1,,9999,0,0,3,FEW 23   BKN 32   BKN 40,1,18,1,11,1017,ROAH 240330Z 02017KT 9999 FEW023 BKN032 BKN040 18/11 Q1017 RMK     1CU023 5CU032 7SC040 A3005=,
20180124_040000.002,0,ROAH,,,,0,20180124040000,-1,-1,-1,-1,30,-1,13,-1,-1,360,80,,9999,0,0,3,FEW 25   SCT 32   BKN 42,1,18,1,11,1017,ROAH 240400Z 03013KT 360V080 9999 FEW025 SCT032 BKN042 18/11     Q1017 RMK 2CU025 3CU032 6SC042 A3005=,
20180124_043000.001,0,ROAH,,,,0,20180124040000,-1,-1,-1,-1,20,-1,12,-1,-1,320,80,,9999,0,0,3,FEW 25   SCT 32   BKN 42,1,18,1,11,1017,ROAH 240430Z 02012KT 320V080 9999 FEW025 SCT032 BKN042 18/11     Q1017 RMK 2CU025 4CU032 7SC042 A3004=,
20180124_050000.002,0,ROAH,,,,0,20180124050000,-1,-1,-1,-1,20,-1,14,-1,-1,360,70,,9999,0,0,3,FEW 26   SCT 35   BKN 40,1,18,1,11,1017,ROAH 240500Z 02014KT 360V070 9999 FEW026 SCT035 BKN040 18/11     Q1017 RMK 1CU026 3CU035 7SC040 A3003=,
20180124_053000.001,0,ROAH,,,,0,20180124050000,-1,-1,-1,-1,30,-1,12,-1,-1,350,90,,9999,0,0,2,SCT 26   BKN 40,1,18,1,10,1016,ROAH 240530Z 03012KT 350V090 9999 SCT026 BKN040 18/10 Q1016     RMK 3CU026 6SC040 A3003=,
20180124_060000.002,0,ROAH,,,,0,20180124060000,-1,-1,-1,-1,30,-1,15,-1,-1,360,70,,9999,0,0,2,SCT 26   BKN 40,1,17,1,10,1016,ROAH 240600Z 03015KT 360V070 9999 SCT026 BKN040 17/10 Q1016     RMK 4CU026 6SC040 A3002=,
20180124_063000.001,0,ROAH,,,,0,20180124060000,-1,-1,-1,-1,40,-1,10,-1,-1,350,80,,9999,0,0,2,BKN 27   BKN 40,1,17,1,11,1016,ROAH 240630Z 04010KT 350V080 9999 BKN027 BKN040 17/11 Q1016     RMK 5CU027 7SC040 A3002=,
20180124_070000.002,0,ROAH,,,,0,20180124070000,-1,-1,-1,-1,30,-1,13,-1,-1,360,90,,9999,0,0,3,FEW 27   BKN 40   BKN 50,1,17,1,10,1016,ROAH 240700Z 03013KT 360V090 9999 FEW027 BKN040 BKN050 17/10     Q1016 RMK 2CU027 5SC040 7SC050 A3002=,
20180124_073000.001,0,ROAH,,,,0,20180124070000,-1,-1,-1,-1,30,-1,14,-1,-1,350,60,,9999,0,0,2,FEW 29   BKN 40,1,17,1,10,1016,ROAH 240730Z 03014KT 350V060 9999 FEW029 BKN040 17/10 Q1016     RMK 2CU029 6SC040 A3003=,
20180124_080000.002,0,ROAH,,,,0,20180124080000,-1,-1,-1,-1,30,-1,13,-1,-1,-1,-1,,9999,0,0,2,SCT 30   BKN 40,1,17,1,11,1017,ROAH 240800Z 03013KT 9999 SCT030 BKN040 17/11 Q1017 RMK 3CU030     6SC040 A3003=,
20180124_083000.001,0,ROAH,,,,0,20180124080000,-1,-1,-1,-1,20,-1,18,-1,-1,-1,-1,,9999,0,0,2,SCT 25   BKN 40,1,16,1,10,1017,ROAH 240830Z 02018KT 9999 SCT025 BKN040 16/10 Q1017 RMK 4CU025     7SC040 A3005=,
20180124_090000.003,0,ROAH,,,,0,20180124090000,-1,-1,-1,-1,20,-1,18,-1,-1,-1,-1,,9999,0,0,2,BKN 25   BKN 40,1,17,1,10,1017,ROAH 240900Z 02018KT 9999 BKN025 BKN040 17/10 Q1017 RMK 5CU025     7SC040 A3005=,
20180124_093000.001,0,ROAH,,,,0,20180124090000,-1,-1,-1,-1,30,-1,16,-1,-1,10,70,,9999,0,0,2,BKN 30   BKN 40,1,16,1,9,1017,ROAH 240930Z 03016KT 010V070 9999 BKN030 BKN040 16/09 Q1017     RMK 6CU030 7SC040 A3006=,
20180124_100000.002,0,ROAH,,,,0,20180124100000,-1,-1,-1,-1,40,-1,14,-1,-1,-1,-1,,9999,0,0,2,BKN 30   BKN 40,1,16,1,9,1017,ROAH 241000Z 04014KT 9999 BKN030 BKN040 16/09 Q1017 RMK 6CU030     7SC040 A3006=,
20180124_103000.001,0,ROAH,,,,0,20180124100000,-1,-1,-1,-1,40,-1,12,-1,-1,-1,-1,,9999,0,0,2,BKN 30   BKN 40,1,16,1,9,1018,ROAH 241030Z 04012KT 9999 BKN030 BKN040 16/09 Q1018 RMK 6CU030     7SC040 A3008=,
20180124_110000.002,0,ROAH,,,,0,20180124110000,-1,-1,-1,-1,40,-1,14,-1,-1,-1,-1,,9999,0,0,2,SCT 30   BKN 45,1,16,1,9,1019,ROAH 241100Z 04014KT 9999 SCT030 BKN045 16/09 Q1019 RMK 4CU030     7SC045 A3009=,
20180124_113000.001,0,ROAH,,,,0,20180124110000,-1,-1,-1,-1,40,-1,12,-1,-1,-1,-1,,9999,0,0,2,FEW 30   BKN 45,1,16,1,8,1019,ROAH 241130Z 04012KT 9999 FEW030 BKN045 16/08 Q1019 RMK 2CU030     7SC045 A3009=,
20180124_120000.002,0,ROAH,,,,0,20180124120000,-1,-1,-1,-1,30,-1,13,-1,-1,10,80,,9999,0,0,2,FEW 30   BKN 45,1,16,1,8,1019,ROAH 241200Z 03013KT 010V080 9999 FEW030 BKN045 16/08 Q1019     RMK 1CU030 6SC045 A3010=,
20180124_123000.001,0,ROAH,,,,0,20180124120000,-1,-1,-1,-1,50,-1,12,-1,-1,-1,-1,,9999,0,0,2,FEW 30   BKN 50,1,16,1,7,1019,ROAH 241230Z 05012KT 9999 FEW030 BKN050 16/07 Q1019 RMK 1CU030     6SC050 A3010=,
20180124_130000.002,0,ROAH,,,,0,20180124130000,-1,-1,-1,-1,30,-1,12,-1,-1,360,80,,9999,0,0,2,FEW 30   BKN 50,1,16,1,7,1019,ROAH 241300Z 03012KT 360V080 9999 FEW030 BKN050 16/07 Q1019     RMK 1CU030 6SC050 A3011=,
20180124_133000.001,0,ROAH,,,,0,20180124130000,-1,-1,-1,-1,30,-1,13,-1,-1,-1,-1,CAVOK,-1,0,0,0,,1,16,1,7,1019,ROAH 241330Z 03013KT CAVOK 16/07 Q1019 RMK A3010=,
20180124_140000.003,0,ROAH,,,,0,20180124140000,-1,-1,-1,-1,40,-1,12,-1,-1,-1,-1,CAVOK,-1,0,0,0,,1,16,1,8,1019,ROAH 241400Z 04012KT CAVOK 16/08 Q1019 RMK A3010=,
20180124_143000.001,0,ROAH,,,,0,20180124140000,-1,-1,-1,-1,50,-1,9,-1,-1,-1,-1,CAVOK,-1,0,0,0,,1,16,1,8,1019,ROAH 241430Z 05009KT CAVOK 16/08 Q1019 RMK A3010=,
20180124_150000.002,0,ROAH,,,,0,20180124150000,-1,-1,-1,-1,50,-1,9,-1,-1,-1,-1,CAVOK,-1,0,0,0,,1,16,1,8,1019,ROAH 241500Z 05009KT CAVOK 16/08 Q1019 RMK A3010=,
20180124_153000.001,0,ROAH,,,,0,20180124150000,-1,-1,-1,-1,40,-1,9,-1,-1,-1,-1,CAVOK,-1,0,0,0,,1,15,1,7,1019,ROAH 241530Z 04009KT CAVOK 15/07 Q1019 RMK A3010=,
20180124_160000.002,0,ROAH,,,,0,20180124160000,-1,-1,-1,-1,40,-1,9,-1,-1,-1,-1,,9999,0,0,2,FEW 45   BKN 120,1,15,1,8,1019,ROAH 241600Z 04009KT 9999 FEW045 BKN120 15/08 Q1019 RMK 1SC045     6AC120 A3010=,
20180124_163000.001,0,ROAH,,,,0,20180124160000,-1,-1,-1,-1,30,-1,10,-1,-1,360,70,,9999,0,0,2,FEW 45   BKN 120,1,15,1,8,1019,ROAH 241630Z 03010KT 360V070 9999 FEW045 BKN120 15/08 Q1019     RMK 1SC045 6AC120 A3010=,
20180124_170000.002,0,ROAH,,,,0,20180124170000,-1,-1,-1,-1,50,-1,8,-1,-1,-1,-1,,9999,0,0,3,FEW 45   SCT 60   BKN 120,1,15,1,8,1019,ROAH 241700Z 05008KT 9999 FEW045 SCT060 BKN120 15/08 Q1019 RMK     1SC045 3SC060 6AC120 A3009=,
20180124_173000.001,0,ROAH,,,,0,20180124170000,-1,-1,-1,-1,50,-1,8,-1,-1,-1,-1,CAVOK,-1,0,0,0,,1,15,1,8,1018,ROAH 241730Z 05008KT CAVOK 15/08 Q1018 RMK A3009=,
20180124_180000.002,0,ROAH,,,,0,20180124180000,-1,-1,-1,-1,50,-1,7,-1,-1,-1,-1,CAVOK,-1,0,0,0,,1,15,1,8,1018,ROAH 241800Z 05007KT CAVOK 15/08 Q1018 RMK A3008=,
20180124_183000.001,0,ROAH,,,,0,20180124180000,-1,-1,-1,-1,50,-1,8,-1,-1,-1,-1,CAVOK,-1,0,0,0,,1,15,1,8,1018,ROAH 241830Z 05008KT CAVOK 15/08 Q1018 RMK A3007=,
20180124_190000.003,0,ROAH,,,,0,20180124190000,-1,-1,-1,-1,40,-1,10,-1,-1,-1,-1,CAVOK,-1,0,0,0,,1,15,1,8,1018,ROAH 241900Z 04010KT CAVOK 15/08 Q1018 RMK A3006=,
20180124_193000.001,0,ROAH,,,,0,20180124190000,-1,-1,-1,-1,30,-1,10,-1,-1,-1,-1,CAVOK,-1,0,0,0,,1,15,1,9,1018,ROAH 241930Z 03010KT CAVOK 15/09 Q1018 RMK A3007=,
20180124_200000.002,0,ROAH,,,,0,20180124200000,-1,-1,-1,-1,40,-1,11,-1,-1,-1,-1,CAVOK,-1,0,0,0,,1,15,1,9,1018,ROAH 242000Z 04011KT CAVOK 15/09 Q1018 RMK A3007=,
20180124_203000.001,0,ROAH,,,,0,20180124200000,-1,-1,-1,-1,40,-1,10,-1,-1,-1,-1,CAVOK,-1,0,0,0,,1,15,1,8,1018,ROAH 242030Z 04010KT CAVOK 15/08 Q1018 RMK A3006=,
20180124_210000.002,0,ROAH,,,,0,20180124210000,-1,-1,-1,-1,40,-1,8,-1,-1,-1,-1,CAVOK,-1,0,0,0,,1,15,1,8,1018,ROAH 242100Z 04008KT CAVOK 15/08 Q1018 RMK A3008=,
20180124_213000.001,0,ROAH,,,,0,20180124210000,-1,-1,-1,-1,50,-1,7,-1,-1,-1,-1,CAVOK,-1,0,0,0,,1,15,1,8,1019,ROAH 242130Z 05007KT CAVOK 15/08 Q1019 RMK A3010=,
20180124_220000.002,0,ROAH,,,,0,20180124220000,-1,-1,-1,-1,50,-1,8,-1,-1,-1,-1,CAVOK,-1,0,0,0,,1,15,1,8,1019,ROAH 242200Z 05008KT CAVOK 15/08 Q1019 RMK A3010=,
20180124_223000.002,0,ROAH,,,,0,20180124220000,-1,-1,-1,-1,50,-1,9,-1,-1,-1,-1,CAVOK,-1,0,0,0,,1,15,1,8,1019,ROAH 242230Z 05009KT CAVOK 15/08 Q1019 RMK A3010=,
20180124_230000.002,0,ROAH,,,,0,20180124230000,-1,-1,-1,-1,60,-1,6,-1,-1,-1,-1,CAVOK,-1,0,0,0,,1,15,1,9,1019,ROAH 242300Z 06006KT CAVOK 15/09 Q1019 RMK A3011=,
20180124_233000.001,0,ROAH,,,,0,20180124230000,-1,-1,-1,-1,50,-1,7,-1,-1,20,110,,9999,0,0,1,BKN 45,1,16,1,9,1020,ROAH 242330Z 05007KT 020V110 9999 BKN045 16/09 Q1020 RMK     5SC045 A3012=,
20180125_000000.002,0,ROAH,,,,0,20180125000000,-1,-1,-1,-1,50,-1,6,-1,-1,-1,-1,,9999,0,1,1,BKN 45,1,16,1,10,1020,ROAH 250000Z 05006KT 9999 VCSH BKN045 16/10 Q1020 RMK 7SC045     A3013=,VC SH
20180125_003000.001,0,ROAH,,,,0,20180125000000,-1,-1,-1,-1,40,-1,9,-1,-1,20,80,,9999,0,0,3,FEW 25   SCT 35   BKN 50,1,16,1,10,1020,ROAH 250030Z 04009KT 020V080 9999 FEW025 SCT035 BKN050 16/10     Q1020 RMK 1CU025 4SC035 6SC050 A3014=,
20180125_010000.002,0,ROAH,,,,0,20180125010000,-1,-1,-1,-1,40,-1,11,-1,-1,10,120,,9999,0,0,2,FEW 25   BKN 45,1,17,1,10,1020,ROAH 250100Z 04011KT 010V120 9999 FEW025 BKN045 17/10 Q1020     RMK 1CU025 5SC045 A3012=,
20180125_013000.001,0,ROAH,,,,0,20180125010000,-1,-1,-1,-1,50,-1,11,-1,-1,10,80,,9999,0,0,1,FEW 25,1,17,1,10,1020,ROAH 250130Z 05011KT 010V080 9999 FEW025 17/10 Q1020 RMK     1CU025 A3013=,
20180125_020000.003,0,ROAH,,,,0,20180125020000,-1,-1,-1,-1,40,-1,10,-1,-1,-1,-1,,9999,0,0,1,FEW 30,1,18,1,9,1020,ROAH 250200Z 04010KT 9999 FEW030 18/09 Q1020 RMK 1CU030 A3012=,
20180125_023000.001,0,ROAH,,,,0,20180125020000,-1,-1,-1,-1,30,-1,11,-1,-1,360,70,,9999,0,0,2,FEW 30   BKN 50,1,18,1,10,1019,ROAH 250230Z 03011KT 360V070 9999 FEW030 BKN050 18/10 Q1019     RMK 1CU030 5SC050 A3011=,
20180125_030000.002,0,ROAH,,,,0,20180125030000,-1,-1,-1,-1,40,-1,9,-1,-1,350,70,,9999,0,0,2,FEW 30   BKN 50,1,18,1,10,1019,ROAH 250300Z 04009KT 350V070 9999 FEW030 BKN050 18/10 Q1019     RMK 2CU030 6SC050 A3010=,
20180125_033000.001,0,ROAH,,,,0,20180125030000,-1,-1,-1,-1,40,-1,7,-1,-1,360,100,,9999,0,0,2,SCT 30   BKN 50,1,18,1,9,1018,ROAH 250330Z 04007KT 360V100 9999 SCT030 BKN050 18/09 Q1018     RMK 3CU030 7SC050 A3008=,
20180125_040000.002,0,ROAH,,,,0,20180125040000,-1,-1,-1,-1,60,-1,8,-1,-1,30,120,,9999,0,0,2,FEW 30   BKN 50,1,18,1,10,1018,ROAH 250400Z 06008KT 030V120 9999 FEW030 BKN050 18/10 Q1018     RMK 2CU030 7SC050 A3006=,
20180125_043000.001,0,ROAH,,,,0,20180125040000,-1,-1,-1,-1,60,-1,10,-1,-1,-1,-1,,9999,0,0,2,FEW 30   BKN 40,1,17,1,9,1017,ROAH 250430Z 06010KT 9999 FEW030 BKN040 17/09 Q1017 RMK 2CU030     7SC040 A3006=,
20180125_050000.002,0,ROAH,,,,0,20180125050000,-1,-1,-1,-1,30,-1,9,-1,-1,340,90,,9999,0,0,2,FEW 35   BKN 50,1,17,1,9,1017,ROAH 250500Z 03009KT 340V090 9999 FEW035 BKN050 17/09 Q1017     RMK 2CU035 7SC050 A3004=,
20180125_053000.001,0,ROAH,,,,0,20180125050000,-1,-1,-1,-1,20,-1,11,-1,-1,360,90,,9999,0,0,2,FEW 35   BKN 50,1,17,1,9,1017,ROAH 250530Z 02011KT 360V090 9999 FEW035 BKN050 17/09 Q1017     RMK 1CU035 7SC050 A3004=,
20180125_060000.002,0,ROAH,,,,0,20180125060000,-1,-1,-1,-1,30,-1,12,-1,-1,-1,-1,,9999,0,0,2,FEW 35   BKN 45,1,17,1,9,1016,ROAH 250600Z 03012KT 9999 FEW035 BKN045 17/09 Q1016 RMK 1CU035     7SC045 A3003=,
20180125_063000.001,0,ROAH,,,,0,20180125060000,-1,-1,-1,-1,40,-1,10,-1,-1,-1,-1,,9999,0,0,2,FEW 35   BKN 45,1,17,1,9,1017,ROAH 250630Z 04010KT 9999 FEW035 BKN045 17/09 Q1017 RMK 1CU035     7SC045 A3003=,
20180125_070000.002,0,ROAH,,,,0,20180125070000,-1,-1,-1,-1,40,-1,9,-1,-1,10,90,,9999,0,0,2,FEW 35   BKN 50,1,17,1,9,1017,ROAH 250700Z 04009KT 010V090 9999 FEW035 BKN050 17/09 Q1017     RMK 1CU035 7SC050 A3003=,
20180125_073000.001,0,ROAH,,,,0,20180125070000,-1,-1,-1,-1,40,-1,9,-1,-1,360,80,,9999,0,0,2,FEW 30   BKN 50,1,17,1,9,1017,ROAH 250730Z 04009KT 360V080 9999 FEW030 BKN050 17/09 Q1017     RMK 1CU030 7SC050 A3003 MOD TURB OBS AT 0705Z 40NM S           LANCL BTN 13000FT AND 18000FT B738=,
20180125_080000.002,0,ROAH,,,,0,20180125080000,-1,-1,-1,-1,40,-1,10,-1,-1,350,70,,9999,0,0,2,FEW 30   BKN 50,1,17,1,9,1017,ROAH 250800Z 04010KT 350V070 9999 FEW030 BKN050 17/09 Q1017     RMK 1CU030 7SC050 A3004=,
20180125_083000.001,0,ROAH,,,,0,20180125080000,-1,-1,-1,-1,40,-1,10,-1,-1,360,80,,9999,0,0,2,FEW 30   BKN 50,1,16,1,10,1017,ROAH 250830Z 04010KT 360V080 9999 FEW030 BKN050 16/10 Q1017     RMK 1CU030 6SC050 A3004=,
20180125_090000.002,0,ROAH,,,,0,20180125090000,-1,-1,-1,-1,50,-1,9,-1,-1,-1,-1,,9999,0,0,2,FEW 30   BKN 60,1,16,1,9,1017,ROAH 250900Z 05009KT 9999 FEW030 BKN060 16/09 Q1017 RMK 1CU030     7SC060 A3005=,
20180125_093000.001,0,ROAH,,,,0,20180125090000,-1,-1,-1,-1,50,-1,9,-1,-1,10,100,,9999,0,0,2,FEW 30   BKN 60,1,16,1,10,1017,ROAH 250930Z 05009KT 010V100 9999 FEW030 BKN060 16/10 Q1017     RMK 1CU030 7SC060 A3006=,
20180125_100000.003,0,ROAH,,,,0,20180125100000,-1,-1,-1,-1,50,-1,7,-1,-1,20,100,,9999,0,0,2,FEW 25   BKN 60,1,16,1,9,1018,ROAH 251000Z 05007KT 020V100 9999 FEW025 BKN060 16/09 Q1018     RMK 1CU025 7SC060 A3006=,
20180125_103000.001,0,ROAH,,,,0,20180125100000,-1,-1,-1,-1,60,-1,8,-1,-1,-1,-1,,9999,0,0,2,FEW 25   BKN 60,1,16,1,9,1018,ROAH 251030Z 06008KT 9999 FEW025 BKN060 16/09 Q1018 RMK 1CU025     7SC060 A3007=,
20180125_110000.003,0,ROAH,,,,0,20180125110000,-1,-1,-1,-1,60,-1,5,-1,-1,-1,-1,,9999,0,0,2,FEW 25   BKN 60,1,16,1,9,1018,ROAH 251100Z 06005KT 9999 FEW025 BKN060 16/09 Q1018 RMK 1CU025     7SC060 A3007=,
20180125_113000.001,0,ROAH,,,,0,20180125110000,-1,-1,-1,-1,60,-1,7,-1,-1,20,110,,9999,0,0,2,FEW 25   BKN 70,1,16,1,9,1018,ROAH 251130Z 06007KT 020V110 9999 FEW025 BKN070 16/09 Q1018     RMK 1CU025 7AC070 A3008=,
20180125_120000.002,0,ROAH,,,,0,20180125120000,-1,-1,-1,-1,60,-1,8,-1,-1,20,90,,9999,0,0,2,FEW 25   BKN 70,1,16,1,10,1018,ROAH 251200Z 06008KT 020V090 9999 FEW025 BKN070 16/10 Q1018     RMK 1CU025 7AC070 A3008=,
20180125_123000.002,0,ROAH,,,,0,20180125120000,-1,-1,-1,-1,50,-1,8,-1,-1,-1,-1,,9999,0,0,2,FEW 25   BKN 70,1,16,1,10,1018,ROAH 251230Z 05008KT 9999 FEW025 BKN070 16/10 Q1018 RMK 1CU025     7AC070 A3008=,
20180125_130000.002,0,ROAH,,,,0,20180125130000,-1,-1,-1,-1,50,-1,6,-1,-1,-1,-1,,9999,0,0,3,FEW 25   SCT 45   BKN 70,1,16,1,10,1019,ROAH 251300Z 05006KT 9999 FEW025 SCT045 BKN070 16/10 Q1019 RMK     1CU025 3SC045 7AC070 A3009=,
20180125_133000.001,0,ROAH,,,,0,20180125130000,-1,-1,-1,-1,40,-1,8,-1,-1,-1,-1,,9999,0,0,3,FEW 25   SCT 45   BKN 80,1,16,1,10,1018,ROAH 251330Z 04008KT 9999 FEW025 SCT045 BKN080 16/10 Q1018 RMK     1CU025 4SC045 6AC080 A3008=,
20180125_140000.002,0,ROAH,,,,0,20180125140000,-1,-1,-1,-1,40,-1,7,-1,-1,-1,-1,,9999,0,0,2,FEW 25   BKN 60,1,16,1,9,1018,ROAH 251400Z 04007KT 9999 FEW025 BKN060 16/09 Q1018 RMK 1CU025     6SC060 A3009=,
20180125_143000.001,0,ROAH,,,,0,20180125140000,-1,-1,-1,-1,40,-1,6,-1,-1,-1,-1,,9999,0,0,2,FEW 25   BKN 45,1,16,1,10,1019,ROAH 251430Z 04006KT 9999 FEW025 BKN045 16/10 Q1019 RMK 1CU025     7SC045 A3009=,
20180125_150000.002,0,ROAH,,,,0,20180125150000,-1,-1,-1,-1,40,-1,6,-1,-1,-1,-1,,9999,0,0,2,FEW 25   BKN 90,1,16,1,9,1018,ROAH 251500Z 04006KT 9999 FEW025 BKN090 16/09 Q1018 RMK 1CU025     6AC090 A3008=,
20180125_153000.001,0,ROAH,,,,0,20180125150000,-1,-1,-1,-1,30,-1,6,-1,-1,-1,-1,,9999,0,0,2,FEW 25   BKN 100,1,16,1,10,1018,ROAH 251530Z 03006KT 9999 FEW025 BKN100 16/10 Q1018 RMK 1CU025     6AC100 A3008=,
20180125_160000.002,0,ROAH,,,,0,20180125160000,-1,-1,-1,-1,30,-1,7,-1,-1,-1,-1,,9999,0,0,2,FEW 25   SCT 100,1,15,1,10,1018,ROAH 251600Z 03007KT 9999 FEW025 SCT100 15/10 Q1018 RMK 1CU025     3AC100 A3008=,
20180125_163000.001,0,ROAH,,,,0,20180125160000,-1,-1,-1,-1,30,-1,8,-1,-1,-1,-1,,9999,0,0,2,FEW 25   BKN 100,1,15,1,10,1018,ROAH 251630Z 03008KT 9999 FEW025 BKN100 15/10 Q1018 RMK 1CU025     7AC100 A3008=,
20180125_170000.002,0,ROAH,,,,0,20180125170000,-1,-1,-1,-1,40,-1,5,-1,-1,-1,-1,,9999,0,0,3,FEW 25   SCT 40   BKN 100,1,15,1,10,1018,ROAH 251700Z 04005KT 9999 FEW025 SCT040 BKN100 15/10 Q1018 RMK     1CU025 3SC040 7AC100 A3008=,
20180125_173000.001,0,ROAH,,,,0,20180125170000,-1,-1,-1,-1,30,-1,8,-1,-1,-1,-1,,9999,0,0,2,FEW 25   BKN 100,1,15,1,10,1018,ROAH 251730Z 03008KT 9999 FEW025 BKN100 15/10 Q1018 RMK 1CU025     7AC100 A3006=,
20180125_180000.002,0,ROAH,,,,0,20180125180000,-1,-1,-1,-1,40,-1,8,-1,-1,-1,-1,,9999,0,0,1,FEW 20,1,15,1,10,1017,ROAH 251800Z 04008KT 9999 FEW020 15/10 Q1017 RMK 1CU020 A3005=,
20180125_183000.001,0,ROAH,,,,0,20180125180000,-1,-1,-1,-1,30,-1,10,-1,-1,-1,-1,,9999,0,0,2,FEW 20   BKN 100,1,15,1,11,1017,ROAH 251830Z 03010KT 9999 FEW020 BKN100 15/11 Q1017 RMK 1CU020     6AC100 A3004=,
20180125_190000.002,0,ROAH,,,,0,20180125190000,-1,-1,-1,-1,30,-1,9,-1,-1,-1,-1,,9999,0,0,2,FEW 20   BKN 100,1,15,1,11,1017,ROAH 251900Z 03009KT 9999 FEW020 BKN100 15/11 Q1017 RMK 1CU020     7AC100 A3005=,
20180125_193000.001,0,ROAH,,,,0,20180125190000,-1,-1,-1,-1,30,-1,10,-1,-1,-1,-1,,9999,0,0,3,FEW 20   SCT 50   BKN 80,1,16,1,12,1017,ROAH 251930Z 03010KT 9999 FEW020 SCT050 BKN080 16/12 Q1017 RMK     1CU020 3SC050 6AC080 A3005=,
20180125_200000.003,0,ROAH,,,,0,20180125200000,-1,-1,-1,-1,50,-1,7,-1,-1,-1,-1,,9999,0,0,3,FEW 20   SCT 40   BKN 80,1,16,1,11,1017,ROAH 252000Z 05007KT 9999 FEW020 SCT040 BKN080 16/11 Q1017 RMK     1CU020 3SC040 6AC080 A3004=,
20180125_203000.001,0,ROAH,,,,0,20180125200000,-1,-1,-1,-1,40,-1,7,-1,-1,-1,-1,,9999,0,0,2,FEW 20   BKN 40,1,15,1,11,1017,ROAH 252030Z 04007KT 9999 FEW020 BKN040 15/11 Q1017 RMK 1CU020     6SC040 A3005=,
20180125_210000.002,0,ROAH,,,,0,20180125210000,-1,-1,-1,-1,30,-1,9,-1,-1,-1,-1,,9999,0,1,2,FEW 18   BKN 30,1,16,1,11,1017,ROAH 252100Z 03009KT 9999 -SHRA FEW018 BKN030 16/11 Q1017 RMK     1CU018 6CU030 A3005=,- RA SH
20180125_213000.001,0,ROAH,,,,0,20180125210000,-1,-1,-1,-1,50,-1,11,-1,-1,-1,-1,,9999,0,0,2,SCT 16   BKN 30,1,15,1,12,1018,ROAH 252130Z 05011KT 9999 SCT016 BKN030 15/12 Q1018 RMK 3CU016     6CU030 A3007=,
20180125_220000.002,0,ROAH,,,,0,20180125220000,-1,-1,-1,-1,50,-1,8,-1,-1,-1,-1,,9999,0,0,2,FEW 20   BKN 35,1,16,1,12,1018,ROAH 252200Z 05008KT 9999 FEW020 BKN035 16/12 Q1018 RMK 2CU020     6SC035 A3007=,
20180125_223000.002,0,ROAH,,,,0,20180125220000,-1,-1,-1,-1,40,-1,8,-1,-1,10,90,,9999,0,0,2,FEW 20   BKN 35,1,16,1,12,1018,ROAH 252230Z 04008KT 010V090 9999 FEW020 BKN035 16/12 Q1018     RMK 2CU020 6SC035 A3008=,
20180125_230000.002,0,ROAH,,,,0,20180125230000,-1,-1,-1,-1,40,-1,11,-1,-1,-1,-1,,9000,0,1,2,SCT 12   BKN 38,1,15,1,12,1019,ROAH 252300Z 04011KT 9000 -SHRA SCT012 BKN038 15/12 Q1019 RMK     4CU012 6SC038 A3009=,- RA SH
20180125_233000.001,0,ROAH,,,,0,20180125230000,-1,-1,-1,-1,30,-1,12,-1,-1,-1,-1,,9999,0,1,3,FEW 8   SCT 15   BKN 40,1,15,1,13,1019,ROAH 252330Z 03012KT 9999 -SHRA FEW008 SCT015 BKN040 15/13     Q1019 RMK 1ST008 3CU015 6SC040 A3010=,- RA SH
20180126_000000.002,0,ROAH,,,,0,20180126000000,-1,-1,-1,-1,30,-1,13,-1,-1,10,70,,8000,0,1,3,FEW 8   SCT 30   BKN 40,1,15,1,13,1019,ROAH 260000Z 03013KT 010V070 8000 -SHRA FEW008 SCT030 BKN040     15/13 Q1019 RMK 2ST008 3CU030 6SC040 A3010=,- RA SH
20180126_003000.001,0,ROAH,,,,0,20180126000000,-1,-1,-1,-1,30,-1,13,-1,-1,10,70,,8000,0,1,3,FEW 8   SCT 12   BKN 20,1,15,1,13,1020,ROAH 260030Z 03013KT 010V070 8000 -SHRA FEW008 SCT012 BKN020     15/13 Q1020 RMK 2ST008 3CU012 5CU020 A3012=,- RA SH
20180126_010000.002,0,ROAH,,,,0,20180126010000,-1,-1,-1,-1,20,-1,16,-1,-1,360,70,,9999,0,1,3,FEW 12   SCT 20   BKN 35,1,16,1,12,1020,ROAH 260100Z 02016KT 360V070 9999 -SHRA FEW012 SCT020 BKN035     16/12 Q1020 RMK 2CU012 4CU020 6SC035 A3013=,- RA SH
20180126_013000.001,0,ROAH,,,,0,20180126010000,-1,-1,-1,-1,30,-1,16,-1,-1,-1,-1,,9999,0,1,3,FEW 15   SCT 22   BKN 35,1,16,1,11,1020,ROAH 260130Z 03016KT 9999 -SHRA FEW015 SCT022 BKN035 16/11     Q1020 RMK 2CU015 4CU022 6SC035 A3014=,- RA SH
20180126_020000.002,0,ROAH,,,,0,20180126020000,-1,-1,-1,-1,20,-1,18,-1,29,-1,-1,,9999,0,1,3,FEW 15   SCT 25   BKN 35,1,15,1,12,1020,ROAH 260200Z 02018G29KT 9999 -SHRA FEW015 SCT025 BKN035 15/12     Q1020 RMK 2CU015 4CU025 6SC035 A3013=,- RA SH
20180126_023000.001,0,ROAH,,,,0,20180126020000,-1,-1,-1,-1,30,-1,14,-1,-1,10,80,,9999,0,1,3,FEW 12   SCT 25   BKN 35,1,15,1,12,1020,ROAH 260230Z 03014KT 010V080 9999 SHRA FEW012 SCT025 BKN035     15/12 Q1020 RMK 2CU012 4CU025 6SC035 A3013 4000N=,RA SH
20180126_030000.002,0,ROAH,,,,0,20180126030000,-1,-1,-1,-1,10,-1,20,-1,-1,-1,-1,,6000,0,1,3,FEW 9   SCT 25   BKN 35,1,14,1,12,1020,ROAH 260300Z 01020KT 6000 SHRA FEW009 SCT025 BKN035 14/12     Q1020 RMK 2CU009 4CU025 6SC035 A3012=,RA SH
20180126_033000.001,0,ROAH,,,,0,20180126030000,-1,-1,-1,-1,20,-1,17,-1,-1,-1,-1,,9999,0,1,3,FEW 12   BKN 25   BKN 35,1,15,1,12,1019,ROAH 260330Z 02017KT 9999 -SHRA FEW012 BKN025 BKN035 15/12     Q1019 RMK 1CU012 5CU025 6SC035 A3011=,- RA SH
20180126_040000.002,0,ROAH,,,,0,20180126040000,-1,-1,-1,-1,20,-1,16,-1,-1,340,50,,9999,0,1,3,FEW 12   SCT 20   BKN 35,1,15,1,11,1019,ROAH 260400Z 02016KT 340V050 9999 -SHRA FEW012 SCT020 BKN035     15/11 Q1019 RMK 1CU012 4CU020 6SC035 A3010=,- RA SH
20180126_043000.001,0,ROAH,,,,0,20180126040000,-1,-1,-1,-1,10,-1,21,-1,-1,-1,-1,,9999,0,1,3,FEW 12   SCT 20   BKN 35,1,15,1,11,1019,ROAH 260430Z 01021KT 9999 -SHRA FEW012 SCT020 BKN035 15/11     Q1019 RMK 2CU012 4CU020 6SC035 A3009=,- RA SH
20180126_050000.002,0,ROAH,,,,0,20180126050000,-1,-1,-1,-1,20,-1,18,-1,29,-1,-1,,9999,0,1,3,SCT 12   BKN 20   BKN 35,1,15,1,11,1019,ROAH 260500Z 02018G29KT 9999 -SHRA SCT012 BKN020 BKN035 15/11     Q1019 RMK 3CU012 6CU020 7SC035 A3009=,- RA SH
20180126_053000.001,0,ROAH,,,,0,20180126050000,-1,-1,-1,-1,20,-1,19,-1,-1,-1,-1,,9999,0,1,3,SCT 12   BKN 20   BKN 35,1,15,1,10,1018,ROAH 260530Z 02019KT 9999 -SHRA SCT012 BKN020 BKN035 15/10     Q1018 RMK 3CU012 6CU020 7SC035 A3008=,- RA SH
20180126_060000.002,0,ROAH,,,,0,20180126060000,-1,-1,-1,-1,20,-1,18,-1,-1,-1,-1,,9999,0,1,3,SCT 15   BKN 20   BKN 30,1,14,1,10,1018,ROAH 260600Z 02018KT 9999 -SHRA SCT015 BKN020 BKN030 14/10     Q1018 RMK 3CU015 6CU020 7CU030 A3009=,- RA SH
20180126_063000.001,0,ROAH,,,,0,20180126060000,-1,-1,-1,-1,360,-1,22,-1,-1,-1,-1,,9999,0,1,2,BKN 22   BKN 30,1,14,1,10,1019,ROAH 260630Z 36022KT 9999 -SHRA BKN022 BKN030 14/10 Q1019 RMK     6CU022 7CU030 A3009=,- RA SH
20180126_070000.002,0,ROAH,,,,0,20180126070000,-1,-1,-1,-1,10,-1,21,-1,-1,-1,-1,,9999,0,1,3,SCT 21   BKN 27   BKN 32,1,15,1,10,1019,ROAH 260700Z 01021KT 9999 -SHRA SCT021 BKN027 BKN032 15/10     Q1019 RMK 3CU021 5CU027 7CU032 A3009=,- RA SH
20180126_073000.001,0,ROAH,,,,0,20180126070000,-1,-1,-1,-1,20,-1,19,-1,-1,-1,-1,,9999,0,1,2,BKN 18   BKN 25,1,14,1,10,1019,ROAH 260730Z 02019KT 9999 -SHRA BKN018 BKN025 14/10 Q1019 RMK     5CU018 7CU025 A3010=,- RA SH
20180126_080000.003,0,ROAH,,,,0,20180126080000,-1,-1,-1,-1,10,-1,21,-1,-1,-1,-1,,9999,0,1,2,SCT 22   BKN 35,1,15,1,9,1019,ROAH 260800Z 01021KT 9999 -SHRA SCT022 BKN035 15/09 Q1019 RMK     3CU022 7CU035 A3010=,- RA SH
20180126_083000.001,0,ROAH,,,,0,20180126080000,-1,-1,-1,-1,10,-1,22,-1,-1,-1,-1,,9999,0,1,2,SCT 20   BKN 30,1,14,1,9,1019,ROAH 260830Z 01022KT 9999 -SHRA SCT020 BKN030 14/09 Q1019 RMK     3CU020 7CU030 A3011=,- RA SH
20180126_090000.002,0,ROAH,,,,0,20180126090000,-1,-1,-1,-1,10,-1,21,-1,-1,-1,-1,,9999,0,1,2,SCT 20   BKN 30,1,14,1,10,1020,ROAH 260900Z 01021KT 9999 -SHRA SCT020 BKN030 14/10 Q1020 RMK     4CU020 7CU030 A3012=,- RA SH
20180126_093000.001,0,ROAH,,,,0,20180126090000,-1,-1,-1,-1,10,-1,22,-1,-1,-1,-1,,9999,0,1,3,FEW 14   SCT 22   BKN 40,1,13,1,10,1020,ROAH 260930Z 01022KT 9999 -SHRA FEW014 SCT022 BKN040 13/10     Q1020 RMK 1CU014 3CU022 7SC040 A3013=,- RA SH
20180126_100000.002,0,ROAH,,,,0,20180126100000,-1,-1,-1,-1,20,-1,21,-1,-1,-1,-1,,9999,0,1,3,FEW 14   SCT 20   BKN 40,1,13,1,10,1020,ROAH 261000Z 02021KT 9999 -SHRA FEW014 SCT020 BKN040 13/10     Q1020 RMK 2CU014 3CU020 7SC040 A3014=,- RA SH
20180126_103000.001,0,ROAH,,,,0,20180126100000,-1,-1,-1,-1,20,-1,18,-1,-1,-1,-1,,9999,0,1,3,FEW 18   SCT 25   BKN 40,1,14,1,9,1020,ROAH 261030Z 02018KT 9999 -SHRA FEW018 SCT025 BKN040 14/09     Q1020 RMK 1CU018 3CU025 7SC040 A3014=,- RA SH
20180126_110000.002,0,ROAH,,,,0,20180126110000,-1,-1,-1,-1,20,-1,19,-1,-1,-1,-1,,9999,0,1,3,FEW 25   BKN 30   BKN 40,1,15,1,8,1020,ROAH 261100Z 02019KT 9999 -SHRA FEW025 BKN030 BKN040 15/08     Q1020 RMK 1CU025 5CU030 7SC040 A3014=,- RA SH
20180126_113000.001,0,ROAH,,,,0,20180126110000,-1,-1,-1,-1,10,-1,21,-1,-1,-1,-1,,9999,0,1,2,FEW 25   BKN 35,1,14,1,9,1021,ROAH 261130Z 01021KT 9999 -SHRA FEW025 BKN035 14/09 Q1021 RMK     2CU025 7CU035 A3016=,- RA SH
20180126_120000.002,0,ROAH,,,,0,20180126120000,-1,-1,-1,-1,20,-1,15,-1,-1,-1,-1,,9999,0,0,2,FEW 25   BKN 30,1,15,1,8,1021,ROAH 261200Z 02015KT 9999 FEW025 BKN030 15/08 Q1021 RMK 2CU025     6CU030 A3016=,
20180126_123000.001,0,ROAH,,,,0,20180126120000,-1,-1,-1,-1,10,-1,19,-1,-1,-1,-1,,9999,0,0,2,SCT 25   BKN 35,1,14,1,8,1021,ROAH 261230Z 01019KT 9999 SCT025 BKN035 14/08 Q1021 RMK 4CU025     6CU035 A3016=,
20180126_130000.002,0,ROAH,,,,0,20180126130000,-1,-1,-1,-1,20,-1,15,-1,-1,350,60,,9999,0,0,2,SCT 27   BKN 37,1,14,1,7,1021,ROAH 261300Z 02015KT 350V060 9999 SCT027 BKN037 14/07 Q1021     RMK 4CU027 6CU037 A3016=,
20180126_133000.001,0,ROAH,,,,0,20180126130000,-1,-1,-1,-1,20,-1,16,-1,-1,-1,-1,,9999,0,0,2,SCT 30   BKN 37,1,14,1,7,1021,ROAH 261330Z 02016KT 9999 SCT030 BKN037 14/07 Q1021 RMK 3CU030     6CU037 A3016=,
20180126_140000.002,0,ROAH,,,,0,20180126140000,-1,-1,-1,-1,30,-1,12,-1,-1,-1,-1,,9999,0,0,1,BKN 30,1,14,1,7,1021,ROAH 261400Z 03012KT 9999 BKN030 14/07 Q1021 RMK 6CU030 A3016=,
20180126_143000.001,0,ROAH,,,,0,20180126140000,-1,-1,-1,-1,20,-1,15,-1,-1,360,60,,9999,0,0,1,BKN 30,1,14,1,7,1021,ROAH 261430Z 02015KT 360V060 9999 BKN030 14/07 Q1021 RMK     6CU030 A3016=,
20180126_150000.002,0,ROAH,,,,0,20180126150000,-1,-1,-1,-1,30,-1,13,-1,-1,360,60,,9999,0,0,1,BKN 35,1,14,1,6,1021,ROAH 261500Z 03013KT 360V060 9999 BKN035 14/06 Q1021 RMK     6CU035 A3016=,
20180126_153000.001,0,ROAH,,,,0,20180126150000,-1,-1,-1,-1,50,-1,12,-1,-1,-1,-1,,9999,0,0,2,BKN 33   BKN 40,1,14,1,7,1021,ROAH 261530Z 05012KT 9999 BKN033 BKN040 14/07 Q1021 RMK 5CU033     6SC040 A3015=,
20180126_160000.002,0,ROAH,,,,0,20180126160000,-1,-1,-1,-1,60,-1,7,-1,-1,-1,-1,,9999,0,0,2,BKN 30   BKN 40,1,14,1,7,1020,ROAH 261600Z 06007KT 9999 BKN030 BKN040 14/07 Q1020 RMK 6CU030     7SC040 A3015=,
20180126_163000.001,0,ROAH,,,,0,20180126160000,-1,-1,-1,-1,50,-1,6,-1,-1,-1,-1,,9999,0,0,1,BKN 35,1,14,1,6,1021,ROAH 261630Z 05006KT 9999 BKN035 14/06 Q1021 RMK 6CU035 A3015=,
20180126_170000.002,0,ROAH,,,,0,20180126170000,-1,-1,-1,-1,40,-1,9,-1,-1,-1,-1,,9999,0,0,1,BKN 45,1,14,1,5,1021,ROAH 261700Z 04009KT 9999 BKN045 14/05 Q1021 RMK 7SC045 A3015=,
20180126_173000.001,0,ROAH,,,,0,20180126170000,-1,-1,-1,-1,50,-1,7,-1,-1,350,100,,9999,0,0,1,BKN 45,1,14,1,6,1020,ROAH 261730Z 05007KT 350V100 9999 BKN045 14/06 Q1020 RMK     6SC045 A3015=,
20180126_180000.002,0,ROAH,,,,0,20180126180000,-1,-1,-1,-1,60,-1,5,-1,-1,-1,-1,,9999,0,1,2,SCT 30   BKN 35,1,14,1,6,1020,ROAH 261800Z 06005KT 9999 -SHRA SCT030 BKN035 14/06 Q1020 RMK     3CU030 6CU035 A3013=,- RA SH
20180126_183000.001,0,ROAH,,,,0,20180126180000,-1,-1,-1,-1,30,-1,10,-1,-1,-1,-1,,9999,0,1,2,SCT 30   BKN 40,1,14,1,8,1020,ROAH 261830Z 03010KT 9999 -SHRA SCT030 BKN040 14/08 Q1020 RMK     3CU030 7SC040 A3013=,- RA SH
20180126_190000.002,0,ROAH,,,,0,20180126190000,-1,-1,-1,-1,60,-1,6,-1,-1,30,90,,9999,0,0,2,FEW 30   BKN 40,1,14,1,7,1020,ROAH 261900Z 06006KT 030V090 9999 FEW030 BKN040 14/07 Q1020     RMK 2CU030 7SC040 A3012=,
20180126_193000.001,0,ROAH,,,,0,20180126190000,-1,-1,-1,-1,60,-1,5,-1,-1,-1,-1,,9999,0,1,2,FEW 30   BKN 35,1,14,1,7,1020,ROAH 261930Z 06005KT 9999 VCSH FEW030 BKN035 14/07 Q1020 RMK     1CU030 7SC035 A3013=,VC SH
20180126_200000.003,0,ROAH,,,,0,20180126200000,-1,-1,-1,-1,60,-1,6,-1,-1,-1,-1,,9999,0,1,2,FEW 30   BKN 35,1,14,1,7,1020,ROAH 262000Z 06006KT 9999 VCSH FEW030 BKN035 14/07 Q1020 RMK     1CU030 7SC035 A3013=,VC SH
20180126_203000.001,0,ROAH,,,,0,20180126200000,-1,-1,-1,-1,40,-1,7,-1,-1,10,70,,9999,0,1,2,FEW 30   BKN 35,1,14,1,7,1020,ROAH 262030Z 04007KT 010V070 9999 VCSH FEW030 BKN035 14/07     Q1020 RMK 1CU030 7SC035 A3014=,VC SH
20180126_210000.002,0,ROAH,,,,0,20180126210000,-1,-1,-1,-1,50,-1,6,-1,-1,-1,-1,,9999,0,1,2,FEW 30   BKN 35,1,14,1,7,1020,ROAH 262100Z 05006KT 9999 VCSH FEW030 BKN035 14/07 Q1020 RMK     1CU030 7SC035 A3015=,VC SH
20180126_213000.001,0,ROAH,,,,0,20180126210000,-1,-1,-1,-1,50,-1,6,-1,-1,20,100,,9999,0,0,2,FEW 30   BKN 35,1,14,1,7,1021,ROAH 262130Z 05006KT 020V100 9999 FEW030 BKN035 14/07 Q1021     RMK 1CU030 7SC035 A3016=,
20180126_220000.002,0,ROAH,,,,0,20180126220000,-1,-1,-1,-1,50,-1,5,-1,-1,30,90,,9999,0,1,2,FEW 30   BKN 35,1,14,1,7,1021,ROAH 262200Z 05005KT 030V090 9999 VCSH FEW030 BKN035 14/07     Q1021 RMK 1CU030 7SC035 A3017=,VC SH
20180126_223000.002,0,ROAH,,,,0,20180126220000,-1,-1,-1,-1,60,-1,5,-1,-1,20,110,,9999,0,1,3,FEW 30   SCT 35   BKN 40,1,15,1,7,1021,ROAH 262230Z 06005KT 020V110 9999 VCSH FEW030 SCT035 BKN040     15/07 Q1021 RMK 1CU030 4CU035 7SC040 A3017=,VC SH
20180126_230000.002,0,ROAH,,,,0,20180126230000,-1,-1,-1,-1,50,-1,6,-1,-1,20,100,,9999,0,0,2,FEW 30   BKN 38,1,14,1,7,1021,ROAH 262300Z 05006KT 020V100 9999 FEW030 BKN038 14/07 Q1021     RMK 1CU030 7SC038 A3018=,
20180126_233000.001,0,ROAH,,,,0,20180126230000,-1,-1,-1,-1,60,-1,6,-1,-1,20,90,,9999,0,0,2,FEW 30   BKN 38,1,15,1,7,1022,ROAH 262330Z 06006KT 020V090 9999 FEW030 BKN038 15/07 Q1022     RMK 1CU030 7SC038 A3019=,
20180127_000000.002,0,ROAH,,,,0,20180127000000,-1,-1,-1,-1,70,-1,8,-1,-1,30,100,,9999,0,0,2,FEW 30   BKN 38,1,15,1,6,1022,ROAH 270000Z 07008KT 030V100 9999 FEW030 BKN038 15/06 Q1022     RMK 1CU030 7SC038 A3020=,
20180127_003000.001,0,ROAH,,,,0,20180127000000,-1,-1,-1,-1,60,-1,6,-1,-1,30,100,,9999,0,0,2,FEW 30   BKN 40,1,15,1,6,1022,ROAH 270030Z 06006KT 030V100 9999 FEW030 BKN040 15/06 Q1022     RMK 1CU030 7SC040 A3020=,
20180127_010000.002,0,ROAH,,,,0,20180127010000,-1,-1,-1,-1,70,-1,7,-1,-1,40,100,,9999,0,0,2,FEW 30   BKN 40,1,15,1,6,1022,ROAH 270100Z 07007KT 040V100 9999 FEW030 BKN040 15/06 Q1022     RMK 1CU030 7SC040 A3020=,
20180127_013000.001,0,ROAH,,,,0,20180127010000,-1,-1,-1,-1,60,-1,8,-1,-1,30,130,,9999,0,0,2,FEW 30   BKN 40,1,15,1,6,1022,ROAH 270130Z 06008KT 030V130 9999 FEW030 BKN040 15/06 Q1022     RMK 1CU030 7SC040 A3020=,
20180127_020000.002,0,ROAH,,,,0,20180127020000,-1,-1,-1,-1,70,-1,6,-1,-1,30,90,,9999,0,0,2,FEW 35   BKN 45,1,16,1,6,1022,ROAH 270200Z 07006KT 030V090 9999 FEW035 BKN045 16/06 Q1022     RMK 1CU035 7SC045 A3018=,
20180127_023000.001,0,ROAH,,,,0,20180127020000,-1,-1,-1,-1,50,-1,6,-1,-1,10,90,,9999,0,0,2,FEW 35   BKN 50,1,16,1,6,1021,ROAH 270230Z 05006KT 010V090 9999 FEW035 BKN050 16/06 Q1021     RMK 1CU035 7SC050 A3017=,
20180127_030000.002,0,ROAH,,,,0,20180127030000,-1,-1,-1,-1,40,-1,8,-1,-1,350,90,,9999,0,0,2,FEW 35   BKN 50,1,17,1,6,1021,ROAH 270300Z 04008KT 350V090 9999 FEW035 BKN050 17/06 Q1021     RMK 1CU035 7SC050 A3016=,
20180127_033000.001,0,ROAH,,,,0,20180127030000,-1,-1,-1,-1,50,-1,10,-1,-1,-1,-1,,9999,0,0,2,FEW 35   BKN 50,1,17,1,7,1020,ROAH 270330Z 05010KT 9999 FEW035 BKN050 17/07 Q1020 RMK 1CU035     7SC050 A3013=,
20180127_040000.002,0,ROAH,,,,0,20180127040000,-1,-1,-1,-1,60,-1,8,-1,-1,20,80,,9999,0,0,2,FEW 35   BKN 50,1,17,1,7,1020,ROAH 270400Z 06008KT 020V080 9999 FEW035 BKN050 17/07 Q1020     RMK 1CU035 6SC050 A3012=,
20180127_043000.001,0,ROAH,,,,0,20180127040000,-1,-1,-1,-1,40,-1,7,-1,-1,360,120,,9999,0,0,2,FEW 35   BKN 45,1,17,1,7,1019,ROAH 270430Z 04007KT 360V120 9999 FEW035 BKN045 17/07 Q1019     RMK 1CU035 7SC045 A3011=,
20180127_050000.002,0,ROAH,,,,0,20180127050000,-1,-1,-1,-1,20,-1,7,-1,-1,350,60,,9999,0,0,2,FEW 35   BKN 45,1,17,1,7,1019,ROAH 270500Z 02007KT 350V060 9999 FEW035 BKN045 17/07 Q1019     RMK 1CU035 7SC045 A3009=,
20180127_053000.001,0,ROAH,,,,0,20180127050000,-1,-1,-1,-1,70,-1,5,-1,-1,20,120,,9999,0,0,2,FEW 35   BKN 45,1,17,1,7,1018,ROAH 270530Z 07005KT 020V120 9999 FEW035 BKN045 17/07 Q1018     RMK 1CU035 7SC045 A3008=,
20180127_060000.002,0,ROAH,,,,0,20180127060000,-1,-1,-1,-1,30,-1,8,-1,-1,-1,-1,,9999,0,0,2,FEW 35   BKN 45,1,17,1,8,1018,ROAH 270600Z 03008KT 9999 FEW035 BKN045 17/08 Q1018 RMK 1CU035     7SC045 A3008=,
20180127_063000.001,0,ROAH,,,,0,20180127060000,-1,-1,-1,-1,50,-1,7,-1,-1,360,100,,9999,0,0,2,FEW 35   BKN 45,1,17,1,7,1018,ROAH 270630Z 05007KT 360V100 9999 FEW035 BKN045 17/07 Q1018     RMK 1CU035 7SC045 A3008=,
20180127_070000.002,0,ROAH,,,,0,20180127070000,-1,-1,-1,-1,40,-1,6,-1,-1,-1,-1,,9999,0,0,2,FEW 35   BKN 50,1,17,1,7,1018,ROAH 270700Z 04006KT 9999 FEW035 BKN050 17/07 Q1018 RMK 1CU035     7SC050 A3008=,
20180127_073000.001,0,ROAH,,,,0,20180127070000,-1,-1,-1,-1,50,-1,7,-1,-1,360,80,,9999,0,0,2,FEW 40   BKN 50,1,17,1,7,1018,ROAH 270730Z 05007KT 360V080 9999 FEW040 BKN050 17/07 Q1018     RMK 1CU040 7SC050 A3007=,
20180127_080000.002,0,ROAH,,,,0,20180127080000,-1,-1,-1,-1,40,-1,7,-1,-1,10,80,,9999,0,0,2,FEW 40   BKN 50,1,17,1,7,1018,ROAH 270800Z 04007KT 010V080 9999 FEW040 BKN050 17/07 Q1018     RMK 1CU040 7SC050 A3008=,
20180127_083000.001,0,ROAH,,,,0,20180127080000,-1,-1,-1,-1,40,-1,5,-1,-1,20,80,,9999,0,0,2,FEW 40   BKN 50,1,17,1,7,1018,ROAH 270830Z 04005KT 020V080 9999 FEW040 BKN050 17/07 Q1018     RMK 1CU040 7SC050 A3008=,
20180127_090000.003,0,ROAH,,,,0,20180127090000,-1,-1,-1,-1,50,-1,5,-1,-1,20,100,,9999,0,0,2,FEW 40   BKN 50,1,16,1,7,1018,ROAH 270900Z 05005KT 020V100 9999 FEW040 BKN050 16/07 Q1018     RMK 1CU040 7SC050 A3008=,
20180127_093000.001,0,ROAH,,,,0,20180127090000,-1,-1,-1,-1,50,-1,5,-1,-1,20,90,,9999,0,0,2,FEW 40   BKN 50,1,16,1,7,1019,ROAH 270930Z 05005KT 020V090 9999 FEW040 BKN050 16/07 Q1019     RMK 1CU040 7SC050 A3009=,
20180127_100000.002,0,ROAH,,,,0,20180127100000,-1,-1,-1,-1,40,-1,5,-1,-1,10,120,,9999,0,0,2,FEW 40   BKN 50,1,16,1,7,1019,ROAH 271000Z 04005KT 010V120 9999 FEW040 BKN050 16/07 Q1019     RMK 1CU040 7SC050 A3010=,
20180127_103000.001,0,ROAH,,,,0,20180127100000,-1,-1,-1,-1,40,-1,6,-1,-1,10,80,,9999,0,0,2,FEW 40   BKN 50,1,16,1,8,1019,ROAH 271030Z 04006KT 010V080 9999 FEW040 BKN050 16/08 Q1019     RMK 1CU040 7SC050 A3011=,
20180127_110000.002,0,ROAH,,,,0,20180127110000,-1,-1,-1,-1,40,-1,6,-1,-1,-1,-1,,9999,0,0,2,FEW 40   BKN 50,1,16,1,8,1019,ROAH 271100Z 04006KT 9999 FEW040 BKN050 16/08 Q1019 RMK 1CU040     7SC050 A3011=,
20180127_113000.001,0,ROAH,,,,0,20180127110000,-1,-1,-1,-1,60,-1,5,-1,-1,-1,-1,,9999,0,0,2,FEW 40   BKN 50,1,16,1,9,1019,ROAH 271130Z 06005KT 9999 FEW040 BKN050 16/09 Q1019 RMK 1CU040     7SC050 A3010=,
20180127_120000.002,0,ROAH,,,,0,20180127120000,-1,-1,-1,-1,50,-1,6,-1,-1,10,90,,9999,0,0,2,FEW 40   BKN 50,1,16,1,9,1019,ROAH 271200Z 05006KT 010V090 9999 FEW040 BKN050 16/09 Q1019     RMK 1CU040 7SC050 A3011=,
20180127_123000.001,0,ROAH,,,,0,20180127120000,-1,-1,-1,-1,60,-1,7,-1,-1,40,100,,9999,0,0,2,FEW 35   BKN 50,1,16,1,9,1019,ROAH 271230Z 06007KT 040V100 9999 FEW035 BKN050 16/09 Q1019     RMK 1CU035 7SC050 A3010=,
20180127_130000.002,0,ROAH,,,,0,20180127130000,-1,-1,-1,-1,60,-1,6,-1,-1,30,110,,9999,0,0,2,FEW 35   BKN 45,1,16,1,9,1019,ROAH 271300Z 06006KT 030V110 9999 FEW035 BKN045 16/09 Q1019     RMK 1CU035 6SC045 A3010=,
20180127_133000.001,0,ROAH,,,,0,20180127130000,-1,-1,-1,-1,80,-1,7,-1,-1,-1,-1,,9999,0,0,2,FEW 30   BKN 40,1,16,1,10,1018,ROAH 271330Z 08007KT 9999 FEW030 BKN040 16/10 Q1018 RMK 1CU030     6SC040 A3009=,
20180127_140000.003,0,ROAH,,,,0,20180127140000,-1,-1,-1,-1,60,-1,7,-1,-1,40,100,,9999,0,0,2,FEW 30   BKN 45,1,16,1,10,1018,ROAH 271400Z 06007KT 040V100 9999 FEW030 BKN045 16/10 Q1018     RMK 1CU030 6SC045 A3008=,
20180127_143000.001,0,ROAH,,,,0,20180127140000,-1,-1,-1,-1,80,-1,3,-1,-1,40,110,,9999,0,0,2,FEW 30   BKN 45,1,16,1,10,1018,ROAH 271430Z 08003KT 040V110 9999 FEW030 BKN045 16/10 Q1018     RMK 1CU030 6SC045 A3009=,
20180127_150000.002,0,ROAH,,,,0,20180127150000,-1,-1,-1,-1,50,-1,3,-1,-1,-1,-1,,9999,0,0,2,FEW 30   BKN 50,1,16,1,10,1018,ROAH 271500Z 05003KT 9999 FEW030 BKN050 16/10 Q1018 RMK 1CU030     7SC050 A3009=,
20180127_153000.001,0,ROAH,,,,0,20180127150000,-1,-1,-1,-1,60,-1,2,-1,-1,-1,-1,,9999,0,0,2,FEW 30   BKN 45,1,16,1,10,1018,ROAH 271530Z 06002KT 9999 FEW030 BKN045 16/10 Q1018 RMK 1CU030     6SC045 A3008=,
20180127_160000.002,0,ROAH,,,,0,20180127160000,-1,-1,-1,-1,30,-1,3,-1,-1,-1,-1,,9999,0,0,2,FEW 30   BKN 40,1,16,1,10,1018,ROAH 271600Z 03003KT 9999 FEW030 BKN040 16/10 Q1018 RMK 1CU030     6SC040 A3008=,
20180127_163000.001,0,ROAH,,,,0,20180127160000,-1,-1,-1,-1,10,-1,3,-1,-1,-1,-1,,9999,0,0,2,FEW 30   BKN 40,1,16,1,10,1018,ROAH 271630Z 01003KT 9999 FEW030 BKN040 16/10 Q1018 RMK 1CU030     6SC040 A3007=,
20180127_170000.002,0,ROAH,,,,0,20180127170000,-1,-1,-1,-1,999,-1,2,-1,-1,-1,-1,,9999,0,0,3,FEW 25   SCT 38   BKN 50,1,16,1,10,1017,ROAH 271700Z VRB02KT 9999 FEW025 SCT038 BKN050 16/10 Q1017 RMK     1CU025 3SC038 6SC050 A3005=,
20180127_173000.001,0,ROAH,,,,0,20180127170000,-1,-1,-1,-1,70,-1,3,-1,-1,-1,-1,,9999,0,0,2,FEW 25   BKN 50,1,16,1,10,1017,ROAH 271730Z 07003KT 9999 FEW025 BKN050 16/10 Q1017 RMK 1CU025     6SC050 A3003=,
20180127_180000.002,0,ROAH,,,,0,20180127180000,-1,-1,-1,-1,60,-1,4,-1,-1,-1,-1,CAVOK,-1,0,0,0,,1,16,1,10,1016,ROAH 271800Z 06004KT CAVOK 16/10 Q1016 RMK A3002=,
20180127_183000.001,0,ROAH,,,,0,20180127180000,-1,-1,-1,-1,40,-1,3,-1,-1,-1,-1,CAVOK,-1,0,0,0,,1,15,1,10,1016,ROAH 271830Z 04003KT CAVOK 15/10 Q1016 RMK A3002=,
20180127_190000.002,0,ROAH,,,,0,20180127190000,-1,-1,-1,-1,50,-1,4,-1,-1,-1,-1,,9999,0,0,2,BKN 30   BKN 35,1,15,1,11,1016,ROAH 271900Z 05004KT 9999 BKN030 BKN035 15/11 Q1016 RMK 5CU030     7SC035 A3001=,
20180127_193000.001,0,ROAH,,,,0,20180127190000,-1,-1,-1,-1,50,-1,4,-1,-1,-1,-1,,9999,0,0,2,BKN 35   BKN 45,1,16,1,11,1016,ROAH 271930Z 05004KT 9999 BKN035 BKN045 16/11 Q1016 RMK 5SC035     7SC045 A3001=,
20180127_200000.002,0,ROAH,,,,0,20180127200000,-1,-1,-1,-1,20,-1,2,-1,-1,-1,-1,,9999,0,0,2,BKN 30   BKN 35,1,16,1,11,1016,ROAH 272000Z 02002KT 9999 BKN030 BKN035 16/11 Q1016 RMK 5CU030     7SC035 A3000=,
20180127_203000.001,0,ROAH,,,,0,20180127200000,-1,-1,-1,-1,20,-1,3,-1,-1,-1,-1,,9999,0,0,2,FEW 30   BKN 40,1,16,1,11,1016,ROAH 272030Z 02003KT 9999 FEW030 BKN040 16/11 Q1016 RMK 2CU030     7SC040 A3000=,
20180127_210000.002,0,ROAH,,,,0,20180127210000,-1,-1,-1,-1,40,-1,3,-1,-1,-1,-1,,9999,0,0,2,FEW 30   BKN 35,1,16,1,11,1016,ROAH 272100Z 04003KT 9999 FEW030 BKN035 16/11 Q1016 RMK 2CU030     7SC035 A3001=,
20180127_213000.001,0,ROAH,,,,0,20180127210000,-1,-1,-1,-1,70,-1,4,-1,-1,-1,-1,,9999,0,0,2,SCT 30   BKN 50,1,17,1,11,1015,ROAH 272130Z 07004KT 9999 SCT030 BKN050 17/11 Q1015 RMK 3CU030     5SC050 A3000=,
20180127_220000.002,0,ROAH,,,,0,20180127220000,-1,-1,-1,-1,120,-1,5,-1,-1,-1,-1,,9999,0,0,2,SCT 30   BKN 50,1,17,1,11,1015,ROAH 272200Z 12005KT 9999 SCT030 BKN050 17/11 Q1015 RMK 3CU030     5SC050 A2998=,
20180127_223000.002,0,ROAH,,,,0,20180127220000,-1,-1,-1,-1,130,-1,6,-1,-1,100,160,,9999,0,0,2,FEW 30   SCT 80,1,17,1,12,1015,ROAH 272230Z 13006KT 100V160 9999 FEW030 SCT080 17/12 Q1015     RMK 1CU030 3AC080 A2998=,
20180127_230000.002,0,ROAH,,,,0,20180127230000,-1,-1,-1,-1,130,-1,6,-1,-1,90,150,,9999,0,0,3,FEW 30   SCT 70   BKN -9999,1,18,1,12,1015,ROAH 272300Z 13006KT 090V150 9999 FEW030 SCT070 BKN/// 18/12     Q1015 RMK 1CU030 3AC070 A2998=,
20180127_233000.001,0,ROAH,,,,0,20180127230000,-1,-1,-1,-1,130,-1,8,-1,-1,-1,-1,,9999,0,0,2,FEW 30   SCT 70,1,19,1,12,1014,ROAH 272330Z 13008KT 9999 FEW030 SCT070 19/12 Q1014 RMK 1CU030     3AC070 A2997=,
20180128_000000.003,0,ROAH,,,,0,20180128000000,-1,-1,-1,-1,140,-1,12,-1,-1,-1,-1,,9999,0,0,2,FEW 30   BKN 60,1,19,1,13,1014,ROAH 280000Z 14012KT 9999 FEW030 BKN060 19/13 Q1014 RMK 1CU030     7SC060 A2997=,
20180128_003000.001,0,ROAH,,,,0,20180128000000,-1,-1,-1,-1,150,-1,13,-1,-1,-1,-1,,9999,0,0,2,FEW 30   BKN 70,1,20,1,13,1014,ROAH 280030Z 15013KT 9999 FEW030 BKN070 20/13 Q1014 RMK 1CU030     7AC070 A2997=,
20180128_010000.002,0,ROAH,,,,0,20180128010000,-1,-1,-1,-1,160,-1,13,-1,-1,-1,-1,,9999,0,0,2,FEW 30   BKN 80,1,21,1,14,1015,ROAH 280100Z 16013KT 9999 FEW030 BKN080 21/14 Q1015 RMK 1CU030     7AC080 A2997=,
20180128_013000.001,0,ROAH,,,,0,20180128010000,-1,-1,-1,-1,160,-1,15,-1,-1,-1,-1,,9999,0,1,3,FEW 30   SCT 50   BKN 80,1,20,1,13,1015,ROAH 280130Z 16015KT 9999 VCSH FEW030 SCT050 BKN080 20/13     Q1015 RMK 1CU030 3SC050 7AC080 A2999=,VC SH
20180128_020000.002,0,ROAH,,,,0,20180128020000,-1,-1,-1,-1,160,-1,14,-1,-1,-1,-1,,9999,0,0,3,FEW 30   SCT 50   BKN 80,1,21,1,14,1015,ROAH 280200Z 16014KT 9999 FEW030 SCT050 BKN080 21/14 Q1015 RMK     1CU030 4SC050 7AC080 A2998=,
20180128_023000.001,0,ROAH,,,,0,20180128020000,-1,-1,-1,-1,160,-1,14,-1,-1,-1,-1,,9999,0,0,3,FEW 30   BKN 60   BKN 80,1,22,1,14,1014,ROAH 280230Z 16014KT 9999 FEW030 BKN060 BKN080 22/14 Q1014 RMK     1CU030 5SC060 7AC080 A2996=,
20180128_030000.002,0,ROAH,,,,0,20180128030000,-1,-1,-1,-1,170,-1,15,-1,-1,-1,-1,,9999,0,0,2,SCT 25   BKN 60,1,21,1,14,1014,ROAH 280300Z 17015KT 9999 SCT025 BKN060 21/14 Q1014 RMK 3CU025     7SC060 A2995=,
20180128_033000.001,0,ROAH,,,,0,20180128030000,-1,-1,-1,-1,170,-1,15,-1,-1,-1,-1,,9999,0,0,3,FEW 25   BKN 50   BKN 70,1,22,1,13,1013,ROAH 280330Z 17015KT 9999 FEW025 BKN050 BKN070 22/13 Q1013 RMK     1CU025 5SC050 7AC070 A2992=,
20180128_040000.002,0,ROAH,,,,0,20180128040000,-1,-1,-1,-1,170,-1,18,-1,-1,-1,-1,,9999,0,0,3,FEW 30   SCT 50   BKN 70,1,22,1,14,1012,ROAH 280400Z 17018KT 9999 FEW030 SCT050 BKN070 22/14 Q1012 RMK     1CU030 3SC050 7AC070 A2990=,
20180128_043000.001,0,ROAH,,,,0,20180128040000,-1,-1,-1,-1,170,-1,17,-1,-1,-1,-1,,9999,0,0,2,FEW 30   BKN 60,1,22,1,14,1012,ROAH 280430Z 17017KT 9999 FEW030 BKN060 22/14 Q1012 RMK 2CU030     6SC060 A2989=,
20180128_050000.002,0,ROAH,,,,0,20180128050000,-1,-1,-1,-1,160,-1,16,-1,-1,-1,-1,,9999,0,0,2,FEW 30   BKN 60,1,22,1,13,1011,ROAH 280500Z 16016KT 9999 FEW030 BKN060 22/13 Q1011 RMK 1CU030     6SC060 A2986=,
20180128_053000.001,0,ROAH,,,,0,20180128050000,-1,-1,-1,-1,170,-1,17,-1,-1,-1,-1,,9999,0,0,2,FEW 30   BKN 50,1,22,1,15,1010,ROAH 280530Z 17017KT 9999 FEW030 BKN050 22/15 Q1010 RMK 1CU030     5SC050 A2985=,
20180128_060000.002,0,ROAH,,,,0,20180128060000,-1,-1,-1,-1,170,-1,17,-1,-1,-1,-1,,9999,0,1,2,FEW 30   BKN 50,1,21,1,15,1010,ROAH 280600Z 17017KT 9999 -RA FEW030 BKN050 21/15 Q1010 RMK     1CU030 7SC050 A2984=,- RA
20180128_063000.001,0,ROAH,,,,0,20180128060000,-1,-1,-1,-1,180,-1,18,-1,-1,-1,-1,,9999,0,1,2,FEW 30   BKN 50,1,21,1,14,1010,ROAH 280630Z 18018KT 9999 -RA FEW030 BKN050 21/14 Q1010 RMK     1CU030 7SC050 A2984=,- RA
20180128_070000.003,0,ROAH,,,,0,20180128070000,-1,-1,-1,-1,170,-1,18,-1,-1,-1,-1,,9999,0,1,2,FEW 30   BKN 50,1,21,1,15,1010,ROAH 280700Z 17018KT 9999 -RA FEW030 BKN050 21/15 Q1010 RMK     1CU030 7SC050 A2984=,- RA
20180128_073000.001,0,ROAH,,,,0,20180128070000,-1,-1,-1,-1,170,-1,19,-1,-1,-1,-1,,9999,0,0,2,FEW 30   BKN 50,1,21,1,15,1010,ROAH 280730Z 17019KT 9999 FEW030 BKN050 21/15 Q1010 RMK 2CU030     6SC050 A2982=,
20180128_080000.002,0,ROAH,,,,0,20180128080000,-1,-1,-1,-1,180,-1,20,-1,-1,-1,-1,,9999,0,0,2,SCT 25   BKN 50,1,21,1,15,1010,ROAH 280800Z 18020KT 9999 SCT025 BKN050 21/15 Q1010 RMK 3CU025     6SC050 A2982=,
20180128_083000.001,0,ROAH,,,,0,20180128080000,-1,-1,-1,-1,180,-1,22,-1,-1,-1,-1,,9999,0,0,2,SCT 25   BKN 50,1,22,1,16,1009,ROAH 280830Z 18022KT 9999 SCT025 BKN050 22/16 Q1009 RMK 3CU025     6SC050 A2982=,
20180128_090000.002,0,ROAH,,,,0,20180128090000,-1,-1,-1,-1,190,-1,22,-1,-1,-1,-1,,9999,0,0,2,FEW 25   BKN 50,1,22,1,16,1009,ROAH 280900Z 19022KT 9999 FEW025 BKN050 22/16 Q1009 RMK 1CU025     6SC050 A2981=,
20180128_093000.001,0,ROAH,,,,0,20180128090000,-1,-1,-1,-1,190,-1,22,-1,-1,-1,-1,,9999,0,0,2,FEW 30   BKN 45,1,22,1,16,1009,ROAH 280930Z 19022KT 9999 FEW030 BKN045 22/16 Q1009 RMK 1CU030     6SC045 A2982=,
20180128_100000.002,0,ROAH,,,,0,20180128100000,-1,-1,-1,-1,200,-1,21,-1,-1,-1,-1,,9999,0,1,2,FEW 20   BKN 35,1,22,1,16,1010,ROAH 281000Z 20021KT 9999 VCSH FEW020 BKN035 22/16 Q1010 RMK     1CU020 6SC035 A2983=,VC SH
20180128_103000.001,0,ROAH,,,,0,20180128100000,-1,-1,-1,-1,200,-1,22,-1,-1,-1,-1,,9999,0,1,2,FEW 20   BKN 40,1,22,1,16,1010,ROAH 281030Z 20022KT 9999 -SHRA FEW020 BKN040 22/16 Q1010 RMK     2CU020 6SC040 A2984=,- RA SH
20180128_110000.002,0,ROAH,,,,0,20180128110000,-1,-1,-1,-1,210,-1,21,-1,-1,-1,-1,,8000,0,1,2,SCT 20   BKN 35,1,21,1,16,1010,ROAH 281100Z 21021KT 8000 -SHRA SCT020 BKN035 21/16 Q1010 RMK     3CU020 6CU035 A2985=,- RA SH
20180128_113000.001,0,ROAH,,,,0,20180128110000,-1,-1,-1,-1,210,-1,18,-1,-1,-1,-1,,4000,0,1,3,FEW 15   SCT 20   BKN 30,1,20,1,17,1011,ROAH 281130Z 21018KT 4000 SHRA FEW015 SCT020 BKN030 20/17     Q1011 RMK 1CU015 3CU020 6CU030 A2987=,RA SH
20180128_120000.002,0,ROAH,,,,0,20180128120000,-1,-1,-1,-1,230,-1,19,-1,-1,-1,-1,,3000,0,1,2,FEW 9   BKN 15,1,19,1,17,1012,ROAH 281200Z 23019KT 3000 +SHRA FEW009 BKN015 19/17 Q1012 RMK     1CU009 6CU015 A2989 RI++=,+ RA SH
20180128_123000.001,0,ROAH,,,,0,20180128120000,-1,-1,-1,-1,230,-1,19,-1,-1,-1,-1,,4000,0,1,3,FEW 5   SCT 20   BKN 30,1,19,1,18,1012,ROAH 281230Z 23019KT 4000 SHRA FEW005 SCT020 BKN030 19/18     Q1012 RMK 2ST005 4CU020 6CU030 A2989=,RA SH
20180128_130000.002,0,ROAH,,,,0,20180128130000,-1,-1,-1,-1,240,-1,9,-1,-1,-1,-1,,7000,0,1,3,FEW 6   SCT 20   BKN 60,1,19,1,18,1012,ROAH 281300Z 24009KT 7000 -SHRA FEW006 SCT020 BKN060 19/18     Q1012 RMK 2ST006 3CU020 6SC060 A2989=,- RA SH
20180128_133000.001,0,ROAH,,,,0,20180128130000,-1,-1,-1,-1,250,-1,11,-1,-1,220,330,,7000,0,1,3,SCT 10   SCT 20   BKN 40,1,19,1,18,1012,ROAH 281330Z 25011KT 220V330 7000 -SHRA SCT010 SCT020 BKN040     19/18 Q1012 RMK 3CU010 4CU020 6SC040 A2989=,- RA SH
20180128_140000.002,0,ROAH,,,,0,20180128140000,-1,-1,-1,-1,360,-1,30,-1,-1,-1,-1,,8000,0,1,2,SCT 12   BKN 20,1,18,1,16,1012,ROAH 281400Z 36030KT 8000 -SHRA SCT012 BKN020 18/16 Q1012 RMK     3CU012 6CU020 A2990=,- RA SH
20180128_143000.001,0,ROAH,,,,0,20180128140000,-1,-1,-1,-1,10,-1,26,-1,-1,-1,-1,,9000,0,1,2,SCT 12   BKN 20,1,17,1,15,1013,ROAH 281430Z 01026KT 9000 -SHRA SCT012 BKN020 17/15 Q1013 RMK     3CU012 6CU020 A2992=,- RA SH
20180128_150000.002,0,ROAH,,,,0,20180128150000,-1,-1,-1,-1,10,-1,27,-1,-1,-1,-1,,9999,0,1,3,FEW 15   SCT 20   BKN 30,1,17,1,14,1012,ROAH 281500Z 01027KT 9999 -SHRA FEW015 SCT020 BKN030 17/14     Q1012 RMK 2CU015 4CU020 6CU030 A2991=,- RA SH
20180128_153000.001,0,ROAH,,,,0,20180128150000,-1,-1,-1,-1,10,-1,24,-1,-1,-1,-1,,9999,0,1,2,SCT 12   BKN 20,1,17,1,14,1012,ROAH 281530Z 01024KT 9999 -SHRA SCT012 BKN020 17/14 Q1012 RMK     3CU012 6CU020 A2990=,- RA SH
20180128_160000.002,0,ROAH,,,,0,20180128160000,-1,-1,-1,-1,10,-1,22,-1,-1,-1,-1,,9999,0,1,2,SCT 13   BKN 20,1,17,1,14,1013,ROAH 281600Z 01022KT 9999 -SHRA SCT013 BKN020 17/14 Q1013 RMK     3CU013 6CU020 A2991=,- RA SH
20180128_163000.001,0,ROAH,,,,0,20180128160000,-1,-1,-1,-1,10,-1,23,-1,-1,-1,-1,,9999,0,1,2,FEW 13   BKN 20,1,17,1,15,1013,ROAH 281630Z 01023KT 9999 -SHRA FEW013 BKN020 17/15 Q1013 RMK     2CU013 6CU020 A2992=,- RA SH
20180128_170000.002,0,ROAH,,,,0,20180128170000,-1,-1,-1,-1,10,-1,26,-1,-1,-1,-1,,9999,0,1,2,SCT 13   BKN 20,1,17,1,14,1013,ROAH 281700Z 01026KT 9999 -SHRA SCT013 BKN020 17/14 Q1013 RMK     3CU013 6CU020 A2992=,- RA SH
20180128_173000.001,0,ROAH,,,,0,20180128170000,-1,-1,-1,-1,360,-1,24,-1,-1,-1,-1,,9999,0,1,3,FEW 10   SCT 15   BKN 20,1,16,1,14,1013,ROAH 281730Z 36024KT 9999 -SHRA FEW010 SCT015 BKN020 16/14     Q1013 RMK 2CU010 3CU015 6CU020 A2994=,- RA SH
20180128_180000.002,0,ROAH,,,,0,20180128180000,-1,-1,-1,-1,360,-1,25,-1,-1,-1,-1,,9999,0,1,3,FEW 10   SCT 15   BKN 20,1,16,1,14,1013,ROAH 281800Z 36025KT 9999 -SHRA FEW010 SCT015 BKN020 16/14     Q1013 RMK 2CU010 3CU015 6CU020 A2992=,- RA SH
20180128_183000.001,0,ROAH,,,,0,20180128180000,-1,-1,-1,-1,10,-1,25,-1,-1,-1,-1,,9999,0,1,3,FEW 8   SCT 15   BKN 20,1,16,1,14,1013,ROAH 281830Z 01025KT 9999 VCSH FEW008 SCT015 BKN020 16/14     Q1013 RMK 1ST008 3CU015 6CU020 A2993=,VC SH
20180128_190000.002,0,ROAH,,,,0,20180128190000,-1,-1,-1,-1,360,-1,23,-1,-1,-1,-1,,9999,0,1,3,FEW 10   SCT 15   BKN 20,1,16,1,13,1013,ROAH 281900Z 36023KT 9999 VCSH FEW010 SCT015 BKN020 16/13     Q1013 RMK 1CU010 3CU015 6CU020 A2993=,VC SH
20180128_193000.001,0,ROAH,,,,0,20180128190000,-1,-1,-1,-1,20,-1,24,-1,-1,-1,-1,,9999,0,1,3,FEW 8   SCT 15   BKN 20,1,15,1,13,1013,ROAH 281930Z 02024KT 9999 VCSH FEW008 SCT015 BKN020 15/13     Q1013 RMK 1ST008 3CU015 6CU020 A2992=,VC SH
20180128_200000.002,0,ROAH,,,,0,20180128200000,-1,-1,-1,-1,10,-1,26,-1,-1,-1,-1,,9999,0,1,2,FEW 10   BKN 20,1,16,1,13,1013,ROAH 282000Z 01026KT 9999 VCSH FEW010 BKN020 16/13 Q1013 RMK     1CU010 6CU020 A2992=,VC SH
20180128_203000.001,0,ROAH,,,,0,20180128200000,-1,-1,-1,-1,10,-1,25,-1,-1,-1,-1,,9999,0,1,2,FEW 10   BKN 20,1,16,1,13,1013,ROAH 282030Z 01025KT 9999 -SHRA FEW010 BKN020 16/13 Q1013 RMK     2CU010 6CU020 A2994=,- RA SH
20180128_210000.002,0,ROAH,,,,0,20180128210000,-1,-1,-1,-1,10,-1,22,-1,-1,-1,-1,,9999,0,1,2,FEW 10   BKN 20,1,16,1,13,1014,ROAH 282100Z 01022KT 9999 -SHRA FEW010 BKN020 16/13 Q1014 RMK     2CU010 6CU020 A2995=,- RA SH
20180128_213000.001,0,ROAH,,,,0,20180128210000,-1,-1,-1,-1,20,-1,25,-1,-1,-1,-1,,8000,0,1,2,SCT 10   BKN 15,1,15,1,13,1015,ROAH 282130Z 02025KT 8000 -SHRA SCT010 BKN015 15/13 Q1015 RMK     3CU010 6CU015 A2997=,- RA SH
20180128_220000.003,0,ROAH,,,,0,20180128220000,-1,-1,-1,-1,10,-1,24,-1,-1,-1,-1,,9999,0,1,2,FEW 15   BKN 30,1,16,1,12,1015,ROAH 282200Z 01024KT 9999 -SHRA FEW015 BKN030 16/12 Q1015 RMK     1CU015 5CU030 A3000=,- RA SH
20180128_223000.002,0,ROAH,,,,0,20180128220000,-1,-1,-1,-1,360,-1,23,-1,-1,-1,-1,,9999,0,1,2,FEW 15   BKN 25,1,16,1,12,1016,ROAH 282230Z 36023KT 9999 -SHRA FEW015 BKN025 16/12 Q1016 RMK     1CU015 5CU025 A3001=,- RA SH
20180128_230000.002,0,ROAH,,,,0,20180128230000,-1,-1,-1,-1,360,-1,21,-1,-1,-1,-1,,9999,0,1,2,FEW 15   BKN 25,1,16,1,12,1016,ROAH 282300Z 36021KT 9999 VCSH FEW015 BKN025 16/12 Q1016 RMK     1CU015 6CU025 A3002=,VC SH
20180128_233000.001,0,ROAH,,,,0,20180128230000,-1,-1,-1,-1,10,-1,20,-1,-1,-1,-1,,9999,0,1,2,FEW 20   BKN 25,1,16,1,12,1016,ROAH 282330Z 01020KT 9999 -SHRA FEW020 BKN025 16/12 Q1016 RMK     1CU020 6CU025 A3002=,- RA SH
20180129_000000.003,0,ROAH,,,,0,20180129000000,-1,-1,-1,-1,10,-1,22,-1,-1,-1,-1,,9999,0,0,2,FEW 20   BKN 25,1,17,1,11,1016,ROAH 290000Z 01022KT 9999 FEW020 BKN025 17/11 Q1016 RMK 1CU020     6CU025 A3001=,
20180129_003000.001,0,ROAH,,,,0,20180129000000,-1,-1,-1,-1,10,-1,19,-1,-1,-1,-1,,9999,0,0,2,FEW 20   BKN 25,1,16,1,11,1017,ROAH 290030Z 01019KT 9999 FEW020 BKN025 16/11 Q1017 RMK 1CU020     6CU025 A3004=,
20180129_010000.002,0,ROAH,,,,0,20180129010000,-1,-1,-1,-1,10,-1,20,-1,-1,-1,-1,,9000,0,1,2,FEW 15   BKN 25,1,15,1,12,1017,ROAH 290100Z 01020KT 9000 -SHRA FEW015 BKN025 15/12 Q1017 RMK     1CU015 6CU025 A3004=,- RA SH
20180129_013000.001,0,ROAH,,,,0,20180129010000,-1,-1,-1,-1,360,-1,19,-1,-1,-1,-1,,9000,0,1,2,FEW 15   BKN 28,1,15,1,12,1018,ROAH 290130Z 36019KT 9000 -SHRA FEW015 BKN028 15/12 Q1018 RMK     1CU015 6CU028 A3006=,- RA SH
20180129_020000.002,0,ROAH,,,,0,20180129020000,-1,-1,-1,-1,10,-1,18,-1,-1,-1,-1,,6000,0,1,3,FEW 12   SCT 20   BKN 30,1,15,1,12,1018,ROAH 290200Z 01018KT 6000 -SHRA FEW012 SCT020 BKN030 15/12     Q1018 RMK 1CU012 4CU020 6CU030 A3007=,- RA SH
20180129_023000.001,0,ROAH,,,,0,20180129020000,-1,-1,-1,-1,360,-1,20,-1,-1,-1,-1,,9000,0,1,2,FEW 12   BKN 28,1,15,1,12,1018,ROAH 290230Z 36020KT 9000 -SHRA FEW012 BKN028 15/12 Q1018 RMK     1CU012 6CU028 A3007=,- RA SH
20180129_030000.002,0,ROAH,,,,0,20180129030000,-1,-1,-1,-1,350,-1,22,-1,-1,-1,-1,,9999,0,1,2,FEW 15   BKN 35,1,15,1,12,1017,ROAH 290300Z 35022KT 9999 -SHRA FEW015 BKN035 15/12 Q1017 RMK     2CU015 7SC035 A3006=,- RA SH
20180129_033000.001,0,ROAH,,,,0,20180129030000,-1,-1,-1,-1,360,-1,21,-1,-1,-1,-1,,9999,0,1,2,SCT 15   BKN 38,1,15,1,12,1017,ROAH 290330Z 36021KT 9999 -SHRA SCT015 BKN038 15/12 Q1017 RMK     3CU015 7SC038 A3004=,- RA SH
20180129_040000.002,0,ROAH,,,,0,20180129040000,-1,-1,-1,-1,10,-1,19,-1,-1,-1,-1,,9999,0,1,2,FEW 18   BKN 35,1,15,1,11,1017,ROAH 290400Z 01019KT 9999 -SHRA FEW018 BKN035 15/11 Q1017 RMK     2CU018 7SC035 A3004=,- RA SH
20180129_043000.001,0,ROAH,,,,0,20180129040000,-1,-1,-1,-1,10,-1,15,-1,-1,-1,-1,,9999,0,1,2,SCT 20   BKN 35,1,15,1,10,1016,ROAH 290430Z 01015KT 9999 -SHRA SCT020 BKN035 15/10 Q1016 RMK     3CU020 7SC035 A3002=,- RA SH
20180129_050000.002,0,ROAH,,,,0,20180129050000,-1,-1,-1,-1,10,-1,18,-1,-1,-1,-1,,9999,0,1,3,FEW 20   BKN 27   BKN 35,1,15,1,10,1016,ROAH 290500Z 01018KT 9999 -SHRA FEW020 BKN027 BKN035 15/10     Q1016 RMK 2CU020 5CU027 7SC035 A3001=,- RA SH
20180129_053000.001,0,ROAH,,,,0,20180129050000,-1,-1,-1,-1,10,-1,19,-1,-1,-1,-1,,9999,0,1,3,FEW 20   BKN 25   BKN 30,1,15,1,11,1016,ROAH 290530Z 01019KT 9999 -SHRA FEW020 BKN025 BKN030 15/11     Q1016 RMK 2CU020 5CU025 7CU030 A3001=,- RA SH
20180129_060000.002,0,ROAH,,,,0,20180129060000,-1,-1,-1,-1,10,-1,14,-1,-1,340,50,,9999,0,1,3,FEW 20   BKN 25   BKN 30,1,15,1,11,1016,ROAH 290600Z 01014KT 340V050 9999 -SHRA FEW020 BKN025 BKN030     15/11 Q1016 RMK 2CU020 5CU025 7CU030 A3001=,- RA SH
20180129_063000.001,0,ROAH,,,,0,20180129060000,-1,-1,-1,-1,360,-1,20,-1,-1,-1,-1,,6000,0,1,3,FEW 19   SCT 25   BKN 30,1,14,1,11,1016,ROAH 290630Z 36020KT 6000 -SHRA FEW019 SCT025 BKN030 14/11     Q1016 RMK 2CU019 3CU025 7CU030 A3003=,- RA SH
20180129_070000.002,0,ROAH,,,,0,20180129070000,-1,-1,-1,-1,10,-1,18,-1,-1,-1,-1,,9000,0,1,3,FEW 16   BKN 25   BKN 30,1,14,1,10,1017,ROAH 290700Z 01018KT 9000 -SHRA FEW016 BKN025 BKN030 14/10     Q1017 RMK 1CU016 5CU025 7CU030 A3004=,- RA SH
20180129_073000.001,0,ROAH,,,,0,20180129070000,-1,-1,-1,-1,360,-1,19,-1,-1,-1,-1,,9000,0,1,3,FEW 20   SCT 25   BKN 35,1,15,1,9,1017,ROAH 290730Z 36019KT 9000 VCSH FEW020 SCT025 BKN035 15/09     Q1017 RMK 1CU020 4CU025 7SC035 A3004=,VC SH
20180129_080000.002,0,ROAH,,,,0,20180129080000,-1,-1,-1,-1,10,-1,16,-1,-1,350,50,,9000,0,1,2,SCT 25   BKN 40,1,15,1,9,1017,ROAH 290800Z 01016KT 350V050 9000 -SHRA SCT025 BKN040 15/09     Q1017 RMK 3CU025 7SC040 A3005=,- RA SH
20180129_083000.001,0,ROAH,,,,0,20180129080000,-1,-1,-1,-1,10,-1,18,-1,-1,-1,-1,,9000,0,1,3,FEW 20   SCT 25   BKN 40,1,15,1,10,1017,ROAH 290830Z 01018KT 9000 -SHRA FEW020 SCT025 BKN040 15/10     Q1017 RMK 2CU020 4CU025 7SC040 A3006=,- RA SH
20180129_090000.002,0,ROAH,,,,0,20180129090000,-1,-1,-1,-1,20,-1,17,-1,-1,-1,-1,,9000,0,1,3,FEW 20   BKN 25   BKN 40,1,14,1,10,1018,ROAH 290900Z 02017KT 9000 -SHRA FEW020 BKN025 BKN040 14/10     Q1018 RMK 2CU020 5CU025 7SC040 A3006=,- RA SH
20180129_093000.001,0,ROAH,,,,0,20180129090000,-1,-1,-1,-1,20,-1,18,-1,-1,-1,-1,,9000,0,0,3,FEW 20   SCT 25   BKN 35,1,15,1,9,1017,ROAH 290930Z 02018KT 9000 FEW020 SCT025 BKN035 15/09 Q1017 RMK     2CU020 4CU025 7SC035 A3006=,
20180129_100000.002,0,ROAH,,,,0,20180129100000,-1,-1,-1,-1,30,-1,14,-1,24,350,60,,9000,0,1,2,FEW 25   BKN 30,1,14,1,9,1018,ROAH 291000Z 03014G24KT 350V060 9000 -SHRA FEW025 BKN030 14/09     Q1018 RMK 2CU025 6CU030 A3007=,- RA SH
20180129_103000.001,0,ROAH,,,,0,20180129100000,-1,-1,-1,-1,20,-1,15,-1,25,-1,-1,,9000,0,1,2,FEW 25   BKN 30,1,15,1,9,1019,ROAH 291030Z 02015G25KT 9000 -SHRA FEW025 BKN030 15/09 Q1019     RMK 2CU025 6CU030 A3009=,- RA SH
20180129_110000.002,0,ROAH,,,,0,20180129110000,-1,-1,-1,-1,20,-1,15,-1,-1,350,70,,9999,0,1,2,FEW 25   BKN 30,1,15,1,9,1019,ROAH 291100Z 02015KT 350V070 9999 VCSH FEW025 BKN030 15/09     Q1019 RMK 1CU025 6CU030 A3010=,VC SH
20180129_113000.001,0,ROAH,,,,0,20180129110000,-1,-1,-1,-1,360,-1,19,-1,-1,-1,-1,,9999,0,1,2,BKN 30   BKN 40,1,15,1,9,1019,ROAH 291130Z 36019KT 9999 VCSH BKN030 BKN040 15/09 Q1019 RMK     6CU030 7SC040 A3010=,VC SH
20180129_120000.002,0,ROAH,,,,0,20180129120000,-1,-1,-1,-1,30,-1,13,-1,-1,10,110,,8000,0,1,2,FEW 25   BKN 35,1,14,1,9,1019,ROAH 291200Z 03013KT 010V110 8000 -SHRA FEW025 BKN035 14/09     Q1019 RMK 1CU025 7CU035 A3010=,- RA SH
20180129_123000.001,0,ROAH,,,,0,20180129120000,-1,-1,-1,-1,10,-1,18,-1,-1,-1,-1,,9000,0,1,2,SCT 30   BKN 40,1,15,1,8,1019,ROAH 291230Z 01018KT 9000 -SHRA SCT030 BKN040 15/08 Q1019 RMK     3CU030 7SC040 A3010 ROUGH AIR OBS AT 1222Z ON SHORT FNA           RWY36 B767=,- RA SH
20180129_130000.002,0,ROAH,,,,0,20180129130000,-1,-1,-1,-1,20,-1,16,-1,-1,-1,-1,,9999,0,1,2,FEW 25   BKN 35,1,15,1,8,1019,ROAH 291300Z 02016KT 9999 -SHRA FEW025 BKN035 15/08 Q1019 RMK     1CU025 6CU035 A3010=,- RA SH
20180129_133000.001,0,ROAH,,,,0,20180129130000,-1,-1,-1,-1,20,-1,16,-1,-1,350,60,,9999,0,0,2,BKN 30   BKN 40,1,15,1,7,1019,ROAH 291330Z 02016KT 350V060 9999 BKN030 BKN040 15/07 Q1019     RMK 5CU030 7SC040 A3010=,
20180129_140000.002,0,ROAH,,,,0,20180129140000,-1,-1,-1,-1,20,-1,16,-1,-1,-1,-1,,9999,0,0,2,BKN 30   BKN 40,1,15,1,8,1019,ROAH 291400Z 02016KT 9999 BKN030 BKN040 15/08 Q1019 RMK 6CU030     7SC040 A3010=,
20180129_143000.001,0,ROAH,,,,0,20180129140000,-1,-1,-1,-1,50,-1,10,-1,-1,10,80,,9999,0,0,2,BKN 30   BKN 45,1,15,1,7,1019,ROAH 291430Z 05010KT 010V080 9999 BKN030 BKN045 15/07 Q1019     RMK 5CU030 7SC045 A3011=,
20180129_150000.002,0,ROAH,,,,0,20180129150000,-1,-1,-1,-1,40,-1,11,-1,-1,360,70,,9999,0,0,2,SCT 30   BKN 45,1,15,1,7,1019,ROAH 291500Z 04011KT 360V070 9999 SCT030 BKN045 15/07 Q1019     RMK 4CU030 7SC045 A3010=,
20180129_153000.001,0,ROAH,,,,0,20180129150000,-1,-1,-1,-1,30,-1,11,-1,-1,-1,-1,,9999,0,0,2,BKN 35   BKN 45,1,15,1,8,1019,ROAH 291530Z 03011KT 9999 BKN035 BKN045 15/08 Q1019 RMK 5CU035     7SC045 A3012=,
20180129_160000.002,0,ROAH,,,,0,20180129160000,-1,-1,-1,-1,40,-1,10,-1,-1,-1,-1,,9999,0,0,2,BKN 35   BKN 45,1,15,1,7,1019,ROAH 291600Z 04010KT 9999 BKN035 BKN045 15/07 Q1019 RMK 5CU035     7SC045 A3012=,
20180129_163000.001,0,ROAH,,,,0,20180129160000,-1,-1,-1,-1,40,-1,13,-1,-1,-1,-1,,9999,0,1,2,BKN 35   BKN 45,1,15,1,8,1019,ROAH 291630Z 04013KT 9999 -SHRA BKN035 BKN045 15/08 Q1019 RMK     5CU035 7SC045 A3011=,- RA SH
20180129_170000.002,0,ROAH,,,,0,20180129170000,-1,-1,-1,-1,30,-1,12,-1,-1,360,70,,9999,0,1,2,BKN 30   BKN 45,1,15,1,7,1019,ROAH 291700Z 03012KT 360V070 9999 -SHRA BKN030 BKN045 15/07     Q1019 RMK 5CU030 7SC045 A3011=,- RA SH
20180129_173000.001,0,ROAH,,,,0,20180129170000,-1,-1,-1,-1,40,-1,11,-1,-1,-1,-1,,9999,0,0,2,BKN 30   BKN 45,1,15,1,8,1019,ROAH 291730Z 04011KT 9999 BKN030 BKN045 15/08 Q1019 RMK 5CU030     7SC045 A3012=,
20180129_180000.002,0,ROAH,,,,0,20180129180000,-1,-1,-1,-1,50,-1,8,-1,-1,-1,-1,,9999,0,0,2,BKN 30   BKN 45,1,15,1,8,1019,ROAH 291800Z 05008KT 9999 BKN030 BKN045 15/08 Q1019 RMK 5CU030     7SC045 A3012=,
20180129_183000.001,0,ROAH,,,,0,20180129180000,-1,-1,-1,-1,40,-1,9,-1,20,10,90,,9999,0,0,3,FEW 30   BKN 35   BKN 45,1,15,1,7,1019,ROAH 291830Z 04009G20KT 010V090 9999 FEW030 BKN035 BKN045     15/07 Q1019 RMK 2CU030 5SC035 7SC045 A3011=,
20180129_190000.002,0,ROAH,,,,0,20180129190000,-1,-1,-1,-1,20,-1,13,-1,-1,360,60,,9999,0,1,2,FEW 35   BKN 45,1,15,1,6,1019,ROAH 291900Z 02013KT 360V060 9999 -RA FEW035 BKN045 15/06     Q1019 RMK 2SC035 7SC045 A3011=,- RA
20180129_193000.001,0,ROAH,,,,0,20180129190000,-1,-1,-1,-1,40,-1,8,-1,-1,-1,-1,,9999,0,0,2,SCT 35   BKN 45,1,15,1,7,1019,ROAH 291930Z 04008KT 9999 SCT035 BKN045 15/07 Q1019 RMK 3SC035     7SC045 A3011=,
20180129_200000.002,0,ROAH,,,,0,20180129200000,-1,-1,-1,-1,50,-1,8,-1,-1,20,80,,9999,0,0,2,FEW 35   BKN 45,1,15,1,7,1020,ROAH 292000Z 05008KT 020V080 9999 FEW035 BKN045 15/07 Q1020     RMK 2SC035 7SC045 A3013=,
20180129_203000.001,0,ROAH,,,,0,20180129200000,-1,-1,-1,-1,50,-1,9,-1,-1,-1,-1,,9999,0,0,2,SCT 35   BKN 45,1,15,1,6,1020,ROAH 292030Z 05009KT 9999 SCT035 BKN045 15/06 Q1020 RMK 3SC035     7SC045 A3013=,
20180129_210000.002,0,ROAH,,,,0,20180129210000,-1,-1,-1,-1,50,-1,7,-1,-1,360,70,,9999,0,0,2,SCT 35   BKN 40,1,15,1,7,1020,ROAH 292100Z 05007KT 360V070 9999 SCT035 BKN040 15/07 Q1020     RMK 3SC035 7SC040 A3014=,
20180129_213000.001,0,ROAH,,,,0,20180129210000,-1,-1,-1,-1,50,-1,10,-1,-1,20,90,,9999,0,0,2,BKN 35   BKN 40,1,15,1,6,1020,ROAH 292130Z 05010KT 020V090 9999 BKN035 BKN040 15/06 Q1020     RMK 5SC035 7SC040 A3013=,
20180129_220000.002,0,ROAH,,,,0,20180129220000,-1,-1,-1,-1,50,-1,10,-1,-1,-1,-1,,9999,0,0,1,BKN 35,1,15,1,7,1021,ROAH 292200Z 05010KT 9999 BKN035 15/07 Q1021 RMK 6SC035 A3016=,
20180129_223000.002,0,ROAH,,,,0,20180129220000,-1,-1,-1,-1,50,-1,10,-1,-1,20,80,,9999,0,0,2,BKN 35   BKN 40,1,15,1,6,1021,ROAH 292230Z 05010KT 020V080 9999 BKN035 BKN040 15/06 Q1021     RMK 5SC035 7SC040 A3017=,
20180129_230000.002,0,ROAH,,,,0,20180129230000,-1,-1,-1,-1,50,-1,11,-1,-1,20,80,,9999,0,1,2,BKN 40   BKN 45,1,15,1,6,1021,ROAH 292300Z 05011KT 020V080 9999 -RA BKN040 BKN045 15/06     Q1021 RMK 5SC040 7SC045 A3017=,- RA
20180129_233000.001,0,ROAH,,,,0,20180129230000,-1,-1,-1,-1,50,-1,9,-1,-1,-1,-1,,9999,0,0,2,BKN 40   BKN 50,1,15,1,6,1022,ROAH 292330Z 05009KT 9999 BKN040 BKN050 15/06 Q1022 RMK 5SC040     7SC050 A3018=,
20180130_000000.002,0,ROAH,,,,0,20180130000000,-1,-1,-1,-1,50,-1,9,-1,-1,20,80,,9999,0,0,2,BKN 40   BKN 50,1,15,1,6,1022,ROAH 300000Z 05009KT 020V080 9999 BKN040 BKN050 15/06 Q1022     RMK 5SC040 7SC050 A3020=,
20180130_003000.001,0,ROAH,,,,0,20180130000000,-1,-1,-1,-1,40,-1,12,-1,-1,-1,-1,,9999,0,0,2,SCT 34   BKN 40,1,15,1,6,1023,ROAH 300030Z 04012KT 9999 SCT034 BKN040 15/06 Q1023 RMK 3CU034     7SC040 A3021=,
20180130_010000.002,0,ROAH,,,,0,20180130010000,-1,-1,-1,-1,40,-1,11,-1,-1,-1,-1,,9999,0,0,2,FEW 35   BKN 40,1,15,1,6,1023,ROAH 300100Z 04011KT 9999 FEW035 BKN040 15/06 Q1023 RMK 1CU035     7SC040 A3021=,
20180130_013000.001,0,ROAH,,,,0,20180130010000,-1,-1,-1,-1,40,-1,10,-1,-1,360,80,,9999,0,0,2,FEW 35   BKN 45,1,15,1,6,1022,ROAH 300130Z 04010KT 360V080 9999 FEW035 BKN045 15/06 Q1022     RMK 1CU035 7SC045 A3020=,
20180130_020000.002,0,ROAH,,,,0,20180130020000,-1,-1,-1,-1,40,-1,12,-1,-1,-1,-1,,9999,0,0,2,FEW 40   BKN 50,1,16,1,6,1022,ROAH 300200Z 04012KT 9999 FEW040 BKN050 16/06 Q1022 RMK 2SC040     7SC050 A3021=,
20180130_023000.001,0,ROAH,,,,0,20180130020000,-1,-1,-1,-1,40,-1,13,-1,-1,-1,-1,,9999,0,0,2,FEW 40   BKN 100,1,16,1,5,1022,ROAH 300230Z 04013KT 9999 FEW040 BKN100 16/05 Q1022 RMK 2SC040     6AC100 A3018=,
20180130_030000.002,0,ROAH,,,,0,20180130030000,-1,-1,-1,-1,40,-1,12,-1,-1,10,80,,9999,0,0,2,FEW 45   SCT 100,1,17,1,6,1020,ROAH 300300Z 04012KT 010V080 9999 FEW045 SCT100 17/06 Q1020     RMK 1SC045 3AC100 A3015=,
20180130_033000.001,0,ROAH,,,,0,20180130030000,-1,-1,-1,-1,30,-1,12,-1,-1,10,90,,9999,0,0,1,FEW 45,1,17,1,5,1019,ROAH 300330Z 03012KT 010V090 9999 FEW045 17/05 Q1019 RMK     1SC045 A3012=,
20180130_040000.002,0,ROAH,,,,0,20180130040000,-1,-1,-1,-1,20,-1,11,-1,-1,-1,-1,,9999,0,0,1,FEW 45,1,17,1,5,1018,ROAH 300400Z 02011KT 9999 FEW045 17/05 Q1018 RMK 2SC045 A3008     P/FR=,
20180130_043000.001,0,ROAH,,,,0,20180130040000,-1,-1,-1,-1,20,-1,9,-1,-1,340,80,CAVOK,-1,0,0,0,,1,17,1,5,1019,ROAH 300430Z 02009KT 340V080 CAVOK 17/05 Q1019 RMK A3010=,
20180130_050000.002,0,ROAH,,,,0,20180130050000,-1,-1,-1,-1,350,-1,9,-1,-1,310,40,,9999,0,0,1,BKN 45,1,17,1,5,1019,ROAH 300500Z 35009KT 310V040 9999 BKN045 17/05 Q1019 RMK     5SC045 A3011=,
20180130_053000.001,0,ROAH,,,,0,20180130050000,-1,-1,-1,-1,360,-1,12,-1,-1,-1,-1,,9999,0,0,2,FEW 45   BKN 50,1,17,1,6,1020,ROAH 300530Z 36012KT 9999 FEW045 BKN050 17/06 Q1020 RMK 2SC045     5SC050 A3012=,
20180130_060000.003,0,ROAH,,,,0,20180130060000,-1,-1,-1,-1,10,-1,15,-1,-1,-1,-1,,9999,0,0,2,FEW 40   BKN 50,1,16,1,7,1020,ROAH 300600Z 01015KT 9999 FEW040 BKN050 16/07 Q1020 RMK 2CU040     5SC050 A3012=,
20180130_063000.001,0,ROAH,,,,0,20180130060000,-1,-1,-1,-1,10,-1,14,-1,-1,-1,-1,,9999,0,0,2,FEW 40   BKN 60,1,16,1,7,1020,ROAH 300630Z 01014KT 9999 FEW040 BKN060 16/07 Q1020 RMK 1CU040     6SC060 A3013=,
20180130_070000.002,0,ROAH,,,,0,20180130070000,-1,-1,-1,-1,30,-1,9,-1,-1,340,100,,9999,0,0,2,FEW 40   BKN 60,1,16,1,6,1020,ROAH 300700Z 03009KT 340V100 9999 FEW040 BKN060 16/06 Q1020     RMK 1CU040 7SC060 A3013=,
20180130_073000.001,0,ROAH,,,,0,20180130070000,-1,-1,-1,-1,30,-1,12,-1,-1,330,70,,9999,0,0,2,SCT 38   BKN 60,1,16,1,7,1020,ROAH 300730Z 03012KT 330V070 9999 SCT038 BKN060 16/07 Q1020     RMK 3CU038 7SC060 A3014=,
20180130_080000.002,0,ROAH,,,,0,20180130080000,-1,-1,-1,-1,30,-1,14,-1,-1,360,70,,9999,0,0,2,FEW 35   BKN 45,1,16,1,7,1020,ROAH 300800Z 03014KT 360V070 9999 FEW035 BKN045 16/07 Q1020     RMK 2CU035 7SC045 A3013=,
20180130_083000.001,0,ROAH,,,,0,20180130080000,-1,-1,-1,-1,40,-1,13,-1,-1,-1,-1,,9999,0,0,2,FEW 35   BKN 50,1,16,1,6,1020,ROAH 300830Z 04013KT 9999 FEW035 BKN050 16/06 Q1020 RMK 2CU035     7SC050 A3013=,
20180130_090000.002,0,ROAH,,,,0,20180130090000,-1,-1,-1,-1,40,-1,9,-1,-1,10,80,,9999,0,0,2,FEW 35   BKN 60,1,15,1,6,1020,ROAH 300900Z 04009KT 010V080 9999 FEW035 BKN060 15/06 Q1020     RMK 1CU035 7SC060 A3014=,
20180130_093000.001,0,ROAH,,,,0,20180130090000,-1,-1,-1,-1,50,-1,9,-1,-1,20,110,,9999,0,0,2,FEW 35   BKN 50,1,16,1,6,1020,ROAH 300930Z 05009KT 020V110 9999 FEW035 BKN050 16/06 Q1020     RMK 1CU035 7SC050 A3015=,
20180130_100000.002,0,ROAH,,,,0,20180130100000,-1,-1,-1,-1,60,-1,8,-1,-1,30,110,,9999,0,0,2,FEW 35   BKN 50,1,15,1,6,1021,ROAH 301000Z 06008KT 030V110 9999 FEW035 BKN050 15/06 Q1021     RMK 1CU035 7SC050 A3016=,
20180130_103000.001,0,ROAH,,,,0,20180130100000,-1,-1,-1,-1,50,-1,10,-1,-1,20,80,,9999,0,0,2,FEW 35   BKN 45,1,15,1,6,1021,ROAH 301030Z 05010KT 020V080 9999 FEW035 BKN045 15/06 Q1021     RMK 1CU035 7SC045 A3017=,
20180130_110000.002,0,ROAH,,,,0,20180130110000,-1,-1,-1,-1,40,-1,11,-1,-1,-1,-1,,9999,0,0,2,FEW 35   BKN 50,1,15,1,6,1021,ROAH 301100Z 04011KT 9999 FEW035 BKN050 15/06 Q1021 RMK 1CU035     7SC050 A3018=,
20180130_113000.001,0,ROAH,,,,0,20180130110000,-1,-1,-1,-1,20,-1,13,-1,-1,-1,-1,,9999,0,0,2,FEW 35   BKN 50,1,15,1,6,1021,ROAH 301130Z 02013KT 9999 FEW035 BKN050 15/06 Q1021 RMK 1CU035     7SC050 A3017=,
20180130_120000.002,0,ROAH,,,,0,20180130120000,-1,-1,-1,-1,40,-1,10,-1,-1,10,70,,9999,0,0,2,FEW 35   BKN 60,1,16,1,7,1022,ROAH 301200Z 04010KT 010V070 9999 FEW035 BKN060 16/07 Q1022     RMK 1CU035 7SC060 A3018=,
20180130_123000.001,0,ROAH,,,,0,20180130120000,-1,-1,-1,-1,60,-1,8,-1,-1,20,80,,9999,0,0,2,FEW 30   BKN 60,1,15,1,6,1021,ROAH 301230Z 06008KT 020V080 9999 FEW030 BKN060 15/06 Q1021     RMK 1CU030 7SC060 A3018=,
20180130_130000.002,0,ROAH,,,,0,20180130130000,-1,-1,-1,-1,60,-1,10,-1,-1,30,100,,9999,0,0,3,FEW 30   SCT 70   BKN 100,1,15,1,6,1022,ROAH 301300Z 06010KT 030V100 9999 FEW030 SCT070 BKN100 15/06     Q1022 RMK 1CU030 4AC070 7AC100 A3018=,
20180130_133000.001,0,ROAH,,,,0,20180130130000,-1,-1,-1,-1,50,-1,7,-1,-1,20,80,,9999,0,0,2,FEW 30   BKN 70,1,15,1,6,1022,ROAH 301330Z 05007KT 020V080 9999 FEW030 BKN070 15/06 Q1022     RMK 1CU030 7AC070 A3018=,
20180130_140000.002,0,ROAH,,,,0,20180130140000,-1,-1,-1,-1,40,-1,9,-1,-1,-1,-1,,9999,0,0,2,FEW 30   BKN 70,1,15,1,6,1022,ROAH 301400Z 04009KT 9999 FEW030 BKN070 15/06 Q1022 RMK 1CU030     7AC070 A3018=,
20180130_143000.001,0,ROAH,,,,0,20180130140000,-1,-1,-1,-1,40,-1,7,-1,-1,-1,-1,,9999,0,0,2,FEW 30   BKN 60,1,15,1,6,1022,ROAH 301430Z 04007KT 9999 FEW030 BKN060 15/06 Q1022 RMK 1CU030     6SC060 A3019=,
20180130_150000.002,0,ROAH,,,,0,20180130150000,-1,-1,-1,-1,40,-1,6,-1,-1,-1,-1,,9999,0,0,2,FEW 35   BKN 100,1,15,1,6,1022,ROAH 301500Z 04006KT 9999 FEW035 BKN100 15/06 Q1022 RMK 1CU035     7AC100 A3020=,
20180130_153000.001,0,ROAH,,,,0,20180130150000,-1,-1,-1,-1,40,-1,6,-1,-1,-1,-1,,9999,0,0,2,FEW 35   SCT 110,1,15,1,6,1022,ROAH 301530Z 04006KT 9999 FEW035 SCT110 15/06 Q1022 RMK 1CU035     3AC110 A3018=,
20180130_160000.002,0,ROAH,,,,0,20180130160000,-1,-1,-1,-1,40,-1,8,-1,-1,-1,-1,,9999,0,0,1,FEW 40,1,15,1,6,1021,ROAH 301600Z 04008KT 9999 FEW040 15/06 Q1021 RMK 1SC040 A3016=,
20180130_163000.001,0,ROAH,,,,0,20180130160000,-1,-1,-1,-1,30,-1,6,-1,-1,10,70,,9999,0,0,2,FEW 45   BKN 60,1,15,1,6,1022,ROAH 301630Z 03006KT 010V070 9999 FEW045 BKN060 15/06 Q1022     RMK 2SC045 6SC060 A3018=,
20180130_170000.002,0,ROAH,,,,0,20180130170000,-1,-1,-1,-1,30,-1,10,-1,-1,-1,-1,,9999,0,0,2,FEW 45   BKN 50,1,15,1,7,1021,ROAH 301700Z 03010KT 9999 FEW045 BKN050 15/07 Q1021 RMK 1SC045     7SC050 A3017=,
20180130_173000.001,0,ROAH,,,,0,20180130170000,-1,-1,-1,-1,40,-1,10,-1,-1,-1,-1,CAVOK,-1,0,0,0,,1,15,1,7,1021,ROAH 301730Z 04010KT CAVOK 15/07 Q1021 RMK A3016=,
20180130_180000.002,0,ROAH,,,,0,20180130180000,-1,-1,-1,-1,40,-1,10,-1,-1,-1,-1,,9999,0,0,2,FEW 48   BKN 170,1,15,1,7,1020,ROAH 301800Z 04010KT 9999 FEW048 BKN170 15/07 Q1020 RMK 1SC048     7AC170 A3014=,
20180130_183000.001,0,ROAH,,,,0,20180130180000,-1,-1,-1,-1,40,-1,9,-1,-1,-1,-1,,9999,0,0,2,FEW 48   BKN 170,1,15,1,7,1021,ROAH 301830Z 04009KT 9999 FEW048 BKN170 15/07 Q1021 RMK 1SC048     7AC170 A3016=,
20180130_190000.002,0,ROAH,,,,0,20180130190000,-1,-1,-1,-1,30,-1,10,-1,-1,-1,-1,,9999,0,0,3,FEW 48   SCT 100   BKN 180,1,15,1,7,1021,ROAH 301900Z 03010KT 9999 FEW048 SCT100 BKN180 15/07 Q1021 RMK     1SC048 3AC100 7AC180 A3015=,
20180130_193000.001,0,ROAH,,,,0,20180130190000,-1,-1,-1,-1,40,-1,9,-1,-1,-1,-1,CAVOK,-1,0,0,0,,1,15,1,7,1020,ROAH 301930Z 04009KT CAVOK 15/07 Q1020 RMK A3014=,
20180130_200000.002,0,ROAH,,,,0,20180130200000,-1,-1,-1,-1,50,-1,8,-1,-1,-1,-1,CAVOK,-1,0,0,0,,1,15,1,7,1020,ROAH 302000Z 05008KT CAVOK 15/07 Q1020 RMK A3013=,
20180130_203000.001,0,ROAH,,,,0,20180130200000,-1,-1,-1,-1,50,-1,9,-1,-1,-1,-1,CAVOK,-1,0,0,0,,1,15,1,7,1020,ROAH 302030Z 05009KT CAVOK 15/07 Q1020 RMK 7AC090 A3013=,
20180130_210000.002,0,ROAH,,,,0,20180130210000,-1,-1,-1,-1,30,-1,8,-1,-1,-1,-1,CAVOK,-1,0,0,0,,1,15,1,7,1020,ROAH 302100Z 03008KT CAVOK 15/07 Q1020 RMK A3014=,
20180130_213000.001,0,ROAH,,,,0,20180130210000,-1,-1,-1,-1,30,-1,8,-1,-1,-1,-1,,9999,0,0,2,FEW 45   BKN 100,1,15,1,8,1021,ROAH 302130Z 03008KT 9999 FEW045 BKN100 15/08 Q1021 RMK 1SC045     7AC100 A3015=,
20180130_220000.002,0,ROAH,,,,0,20180130220000,-1,-1,-1,-1,30,-1,9,-1,-1,-1,-1,,9999,0,0,2,FEW 45   BKN 90,1,15,1,8,1021,ROAH 302200Z 03009KT 9999 FEW045 BKN090 15/08 Q1021 RMK 1SC045     7AC090 A3016=,
20180130_223000.002,0,ROAH,,,,0,20180130220000,-1,-1,-1,-1,40,-1,7,-1,-1,20,80,,9999,0,0,2,FEW 45   BKN 90,1,16,1,8,1021,ROAH 302230Z 04007KT 020V080 9999 FEW045 BKN090 16/08 Q1021     RMK 1SC045 6AC090 A3017=,
20180130_230000.002,0,ROAH,,,,0,20180130230000,-1,-1,-1,-1,50,-1,5,-1,-1,350,130,,9999,0,1,2,FEW 35   BKN 90,1,16,1,9,1021,ROAH 302300Z 05005KT 350V130 9999 -RA FEW035 BKN090 16/09     Q1021 RMK 1CU035 6AC090 A3017=,- RA
20180130_233000.001,0,ROAH,,,,0,20180130230000,-1,-1,-1,-1,30,-1,6,-1,-1,-1,-1,,9999,0,0,2,FEW 35   BKN 80,1,16,1,9,1022,ROAH 302330Z 03006KT 9999 FEW035 BKN080 16/09 Q1022 RMK 1CU035     7AC080 A3018=,
20180131_000000.002,0,ROAH,,,,0,20180131000000,-1,-1,-1,-1,20,-1,9,-1,-1,-1,-1,,9999,0,0,2,FEW 30   BKN 70,1,16,1,10,1022,ROAH 310000Z 02009KT 9999 FEW030 BKN070 16/10 Q1022 RMK 1CU030     7AC070 A3020=,
20180131_003000.001,0,ROAH,,,,0,20180131000000,-1,-1,-1,-1,40,-1,10,-1,-1,-1,-1,,9999,0,0,2,FEW 30   BKN 60,1,17,1,10,1022,ROAH 310030Z 04010KT 9999 FEW030 BKN060 17/10 Q1022 RMK 1CU030     7SC060 A3018=,
20180131_010000.002,0,ROAH,,,,0,20180131010000,-1,-1,-1,-1,30,-1,9,-1,-1,-1,-1,,9999,0,0,2,FEW 30   BKN 60,1,17,1,10,1022,ROAH 310100Z 03009KT 9999 FEW030 BKN060 17/10 Q1022 RMK 1CU030     7SC060 A3019=,
20180131_013000.001,0,ROAH,,,,0,20180131010000,-1,-1,-1,-1,40,-1,9,-1,-1,-1,-1,,9999,0,0,2,FEW 30   BKN 60,1,17,1,10,1021,ROAH 310130Z 04009KT 9999 FEW030 BKN060 17/10 Q1021 RMK 1CU030     7SC060 A3018=,
20180131_020000.002,0,ROAH,,,,0,20180131020000,-1,-1,-1,-1,70,-1,7,-1,-1,-1,-1,,9999,0,0,2,FEW 30   BKN 50,1,18,1,11,1021,ROAH 310200Z 07007KT 9999 FEW030 BKN050 18/11 Q1021 RMK 1CU030     7SC050 A3016=,
20180131_023000.001,0,ROAH,,,,0,20180131020000,-1,-1,-1,-1,60,-1,11,-1,-1,40,130,,9999,0,0,3,FEW 30   BKN 50   BKN 80,1,19,1,12,1020,ROAH 310230Z 06011KT 040V130 9999 FEW030 BKN050 BKN080 19/12     Q1020 RMK 1CU030 6SC050 7AC080 A3013=,
20180131_030000.002,0,ROAH,,,,0,20180131030000,-1,-1,-1,-1,60,-1,11,-1,-1,-1,-1,,9999,0,0,2,FEW 30   BKN 70,1,19,1,12,1019,ROAH 310300Z 06011KT 9999 FEW030 BKN070 19/12 Q1019 RMK 1CU030     7AC070 A3011=,
20180131_033000.001,0,ROAH,,,,0,20180131030000,-1,-1,-1,-1,70,-1,10,-1,-1,40,110,,9999,0,0,3,SCT 20   BKN 50   BKN 70,1,19,1,12,1019,ROAH 310330Z 07010KT 040V110 9999 SCT020 BKN050 BKN070 19/12     Q1019 RMK 3CU020 5SC050 7AC070 A3010=,
20180131_040000.002,0,ROAH,,,,0,20180131040000,-1,-1,-1,-1,70,-1,10,-1,-1,40,120,,9999,0,0,2,SCT 20   BKN 80,1,19,1,12,1018,ROAH 310400Z 07010KT 040V120 9999 SCT020 BKN080 19/12 Q1018     RMK 3CU020 7AS080 A3008=,
20180131_043000.001,0,ROAH,,,,0,20180131040000,-1,-1,-1,-1,60,-1,11,-1,-1,-1,-1,,9999,0,0,3,FEW 20   SCT 25   BKN 50,1,19,1,13,1018,ROAH 310430Z 06011KT 9999 FEW020 SCT025 BKN050 19/13 Q1018 RMK     1CU020 3CU025 5SC050 A3006=,
20180131_050000.002,0,ROAH,,,,0,20180131050000,-1,-1,-1,-1,80,-1,8,-1,-1,50,140,,9999,0,0,3,FEW 22   SCT 50   BKN 70,1,19,1,12,1017,ROAH 310500Z 08008KT 050V140 9999 FEW022 SCT050 BKN070 19/12     Q1017 RMK 1CU022 3SC050 6AC070 A3006=,
20180131_053000.001,0,ROAH,,,,0,20180131050000,-1,-1,-1,-1,60,-1,12,-1,-1,-1,-1,,9999,0,0,2,FEW 25   BKN 90,1,20,1,13,1017,ROAH 310530Z 06012KT 9999 FEW025 BKN090 20/13 Q1017 RMK 2CU025     5AC090 A3003=,
20180131_060000.002,0,ROAH,,,,0,20180131060000,-1,-1,-1,-1,90,-1,9,-1,-1,50,130,,9999,0,0,3,FEW 22   SCT 45   BKN 80,1,19,1,13,1016,ROAH 310600Z 09009KT 050V130 9999 FEW022 SCT045 BKN080 19/13     Q1016 RMK 2CU022 3SC045 5AC080 A3002=,
20180131_063000.001,0,ROAH,,,,0,20180131060000,-1,-1,-1,-1,100,-1,8,-1,-1,40,140,,9999,0,0,3,FEW 22   SCT 50   BKN 90,1,20,1,14,1016,ROAH 310630Z 10008KT 040V140 9999 FEW022 SCT050 BKN090 20/14     Q1016 RMK 2CU022 3SC050 6AC090 A3002=,
20180131_070000.003,0,ROAH,,,,0,20180131070000,-1,-1,-1,-1,70,-1,9,-1,-1,50,150,,9999,0,0,2,FEW 22   BKN 50,1,19,1,14,1016,ROAH 310700Z 07009KT 050V150 9999 FEW022 BKN050 19/14 Q1016     RMK 2CU022 6SC050 A3000=,
20180131_073000.001,0,ROAH,,,,0,20180131070000,-1,-1,-1,-1,80,-1,8,-1,-1,50,130,,9999,0,0,2,FEW 25   BKN 50,1,20,1,13,1016,ROAH 310730Z 08008KT 050V130 9999 FEW025 BKN050 20/13 Q1016     RMK 1CU025 7SC050 A3000=,
20180131_080000.003,0,ROAH,,,,0,20180131080000,-1,-1,-1,-1,80,-1,7,-1,-1,50,110,,9999,0,0,2,FEW 25   BKN 60,1,20,1,13,1016,ROAH 310800Z 08007KT 050V110 9999 FEW025 BKN060 20/13 Q1016     RMK 1CU025 7SC060 A3000=,
20180131_083000.001,0,ROAH,,,,0,20180131080000,-1,-1,-1,-1,80,-1,6,-1,-1,50,130,,9999,0,0,2,FEW 25   BKN 40,1,19,1,14,1015,ROAH 310830Z 08006KT 050V130 9999 FEW025 BKN040 19/14 Q1015     RMK 1CU025 7SC040 A3000=,
20180131_090000.002,0,ROAH,,,,0,20180131090000,-1,-1,-1,-1,90,-1,7,-1,-1,60,130,,9999,0,0,2,FEW 25   SCT 50,1,19,1,13,1015,ROAH 310900Z 09007KT 060V130 9999 FEW025 SCT050 19/13 Q1015     RMK 1CU025 4SC050 A2999=,
20180131_093000.001,0,ROAH,,,,0,20180131090000,-1,-1,-1,-1,100,-1,7,-1,-1,-1,-1,,9999,0,0,3,FEW 25   BKN 32   BKN 45,1,19,1,14,1015,ROAH 310930Z 10007KT 9999 FEW025 BKN032 BKN045 19/14 Q1015 RMK     1CU025 5CU032 7SC045 A2998=,
20180131_100000.002,0,ROAH,,,,0,20180131100000,-1,-1,-1,-1,110,-1,6,-1,-1,70,150,,9999,0,0,3,FEW 25   BKN 30   BKN 40,1,20,1,13,1015,ROAH 311000Z 11006KT 070V150 9999 FEW025 BKN030 BKN040 20/13     Q1015 RMK 1CU025 5CU030 7SC040 A2997=,
20180131_103000.001,0,ROAH,,,,0,20180131100000,-1,-1,-1,-1,140,-1,9,-1,-1,-1,-1,,9999,0,0,3,FEW 25   SCT 30   BKN 40,1,20,1,13,1015,ROAH 311030Z 14009KT 9999 FEW025 SCT030 BKN040 20/13 Q1015 RMK     1CU025 4CU030 7SC040 A2997=,
20180131_110000.002,0,ROAH,,,,0,20180131110000,-1,-1,-1,-1,140,-1,9,-1,-1,-1,-1,,9999,0,0,3,FEW 25   BKN 40   BKN 90,1,20,1,13,1015,ROAH 311100Z 14009KT 9999 FEW025 BKN040 BKN090 20/13 Q1015 RMK     1CU025 5SC040 7AC090 A2998=,
20180131_113000.001,0,ROAH,,,,0,20180131110000,-1,-1,-1,-1,140,-1,10,-1,-1,-1,-1,,9999,0,0,3,FEW 25   SCT 30   BKN 70,1,20,1,13,1015,ROAH 311130Z 14010KT 9999 FEW025 SCT030 BKN070 20/13 Q1015 RMK     1CU025 4CU030 6AC070 A2998=,
20180131_120000.002,0,ROAH,,,,0,20180131120000,-1,-1,-1,-1,140,-1,11,-1,-1,-1,-1,,9999,0,0,2,FEW 25   BKN 50,1,21,1,13,1015,ROAH 311200Z 14011KT 9999 FEW025 BKN050 21/13 Q1015 RMK 1CU025     6SC050 A2997=,
20180131_123000.001,0,ROAH,,,,0,20180131120000,-1,-1,-1,-1,140,-1,11,-1,-1,-1,-1,,9999,0,1,2,FEW 30   BKN 50,1,21,1,13,1015,ROAH 311230Z 14011KT 9999 VCSH FEW030 BKN050 21/13 Q1015 RMK     1CU030 7SC050 A2997=,VC SH
20180131_130000.003,0,ROAH,,,,0,20180131130000,-1,-1,-1,-1,140,-1,14,-1,-1,-1,-1,,9999,0,1,2,FEW 30   BKN 50,1,21,1,14,1014,ROAH 311300Z 14014KT 9999 VCSH FEW030 BKN050 21/14 Q1014 RMK     1CU030 7SC050 A2996=,VC SH
20180131_133000.001,0,ROAH,,,,0,20180131130000,-1,-1,-1,-1,130,-1,14,-1,-1,-1,-1,,9999,0,1,2,FEW 30   BKN 50,1,20,1,15,1014,ROAH 311330Z 13014KT 9999 VCSH FEW030 BKN050 20/15 Q1014 RMK     1CU030 7SC050 A2995=,VC SH
20180131_140000.002,0,ROAH,,,,0,20180131140000,-1,-1,-1,-1,140,-1,14,-1,-1,-1,-1,,9999,0,1,2,SCT 25   BKN 45,1,21,1,15,1014,ROAH 311400Z 14014KT 9999 -SHRA SCT025 BKN045 21/15 Q1014 RMK     3CU025 7SC045 A2995=,- RA SH
20180131_143000.001,0,ROAH,,,,0,20180131140000,-1,-1,-1,-1,150,-1,14,-1,-1,120,180,,8000,0,1,3,FEW 20   SCT 25   BKN 40,1,20,1,15,1014,ROAH 311430Z 15014KT 120V180 8000 -SHRA FEW020 SCT025 BKN040     20/15 Q1014 RMK 1CU020 4CU025 7SC040 A2995=,- RA SH
20180131_150000.002,0,ROAH,,,,0,20180131150000,-1,-1,-1,-1,150,-1,18,-1,-1,-1,-1,,9999,0,1,3,FEW 25   BKN 30   BKN 50,1,20,1,15,1013,ROAH 311500Z 15018KT 9999 -SHRA FEW025 BKN030 BKN050 20/15     Q1013 RMK 1CU025 5CU030 7SC050 A2993=,- RA SH
20180131_153000.001,0,ROAH,,,,0,20180131150000,-1,-1,-1,-1,150,-1,18,-1,-1,-1,-1,,9999,0,1,2,FEW 25   BKN 60,1,20,1,15,1013,ROAH 311530Z 15018KT 9999 -SHRA FEW025 BKN060 20/15 Q1013 RMK     2CU025 7SC060 A2992=,- RA SH
20180131_160000.002,0,ROAH,,,,0,20180131160000,-1,-1,-1,-1,160,-1,21,-1,-1,-1,-1,,9999,0,1,2,FEW 25   BKN 50,1,20,1,15,1013,ROAH 311600Z 16021KT 9999 -SHRA FEW025 BKN050 20/15 Q1013 RMK     2CU025 7SC050 A2992=,- RA SH
20180131_163000.001,0,ROAH,,,,0,20180131160000,-1,-1,-1,-1,170,-1,16,-1,-1,-1,-1,,9000,0,1,3,FEW 18   SCT 30   BKN 50,1,19,1,16,1013,ROAH 311630Z 17016KT 9000 SHRA FEW018 SCT030 BKN050 19/16     Q1013 RMK 1CU018 4CU030 7SC050 A2992=,RA SH
20180131_170000.002,0,ROAH,,,,0,20180131170000,-1,-1,-1,-1,170,-1,13,-1,-1,-1,-1,,9000,0,1,2,FEW 18   BKN 25,1,19,1,17,1013,ROAH 311700Z 17013KT 9000 SHRA FEW018 BKN025 19/17 Q1013 RMK     1CU018 6CU025 A2992=,RA SH
20180131_173000.001,0,ROAH,,,,0,20180131170000,-1,-1,-1,-1,180,-1,16,-1,-1,-1,-1,,8000,0,1,3,FEW 12   SCT 25   BKN 45,1,19,1,17,1013,ROAH 311730Z 18016KT 8000 SHRA FEW012 SCT025 BKN045 19/17     Q1013 RMK 1CU012 4CU025 7SC045 A2992=,RA SH
20180131_180000.002,0,ROAH,,,,0,20180131180000,-1,-1,-1,-1,140,-1,7,-1,-1,-1,-1,,7000,0,1,4,FEW 12   SCT 25   FEW 30 TCU  BKN 40,1,20,1,17,1012,ROAH 311800Z 14007KT 7000 SHRA FEW012 SCT025 FEW030TCU BKN040     20/17 Q1012 RMK 1CU012 4CU025 1TCU030 7SC040 A2989 TCU           15KM W-N MOV NE=,RA SH
20180131_183000.001,0,ROAH,,,,0,20180131180000,-1,-1,-1,-1,180,-1,13,-1,25,-1,-1,,6000,0,1,4,FEW 12   BKN 20   FEW 30 TCU  BKN 40,1,20,1,17,1012,ROAH 311830Z 18013G25KT 6000 +SHRA FEW012 BKN020 FEW030TCU     BKN040 20/17 Q1012 RMK 1CU012 5CU020 2TCU030 7SC040 A2990           TCU OHD MOV NE=,+ RA SH
20180131_190000.003,0,ROAH,,,,0,20180131190000,-1,-1,-1,-1,170,-1,7,-1,18,130,210,,6000,0,1,4,SCT 15   BKN 20   FEW 30 TCU  BKN 40,1,20,1,17,1013,ROAH 311900Z 17007G18KT 130V210 6000 +SHRA SCT015 BKN020     FEW030TCU BKN040 20/17 Q1013 RMK 3CU015 5CU020 1TCU030           7SC040 A2991 TCU OHD MOV NE=,+ RA SH
20180131_193000.001,0,ROAH,,,,0,20180131190000,-1,-1,-1,-1,360,-1,24,-1,-1,-1,-1,,5000,0,1,4,SCT 7   BKN 12   FEW 30 TCU  BKN 40,1,17,1,16,1012,ROAH 311930Z 36024KT 5000 SHRA SCT007 BKN012 FEW030TCU BKN040     17/16 Q1012 RMK 4ST007 5CU012 1TCU030 7SC040 A2990 TCU           15KM S MOV NE=,RA SH
20180131_200000.003,0,ROAH,,,,0,20180131200000,-1,-1,-1,-1,350,-1,25,-1,-1,-1,-1,,4000,0,1,4,FEW 8   BKN 18   FEW 30 TCU  BKN 40,1,17,1,15,1013,ROAH 312000Z 35025KT 4000 SHRA FEW008 BKN018 FEW030TCU BKN040     17/15 Q1013 RMK 2ST008 5CU018 1TCU030 7SC040 A2992 TCU           20KM SE MOV NE=,RA SH
20180131_203000.001,0,ROAH,,,,0,20180131200000,-1,-1,-1,-1,350,-1,24,-1,-1,-1,-1,,6000,0,1,3,FEW 8   SCT 15   BKN 30,1,17,1,15,1013,ROAH 312030Z 35024KT 6000 -SHRA FEW008 SCT015 BKN030 17/15     Q1013 RMK 2ST008 3CU015 6CU030 A2993=,- RA SH
20180131_210000.002,0,ROAH,,,,0,20180131210000,-1,-1,-1,-1,350,-1,23,-1,-1,-1,-1,,9999,0,0,2,SCT 10   BKN 40,1,17,1,15,1013,ROAH 312100Z 35023KT 9999 SCT010 BKN040 17/15 Q1013 RMK 4CU010     5SC040 A2994=,
20180131_213000.001,0,ROAH,,,,0,20180131210000,-1,-1,-1,-1,350,-1,24,-1,-1,-1,-1,,9999,0,1,3,SCT 10   BKN 25   BKN 40,1,17,1,14,1014,ROAH 312130Z 35024KT 9999 -SHRA SCT010 BKN025 BKN040 17/14     Q1014 RMK 3CU010 5CU025 6SC040 A2995=,- RA SH
20180131_220000.002,0,ROAH,,,,0,20180131220000,-1,-1,-1,-1,360,-1,25,-1,-1,-1,-1,,8000,0,1,2,SCT 8   BKN 15,1,17,1,15,1014,ROAH 312200Z 36025KT 8000 -SHRA SCT008 BKN015 17/15 Q1014 RMK     4CU008 5CU015 A2996=,- RA SH
20180131_223000.002,0,ROAH,,,,0,20180131220000,-1,-1,-1,-1,10,-1,28,-1,38,-1,-1,,9999,0,0,2,SCT 12   BKN 20,1,17,1,14,1014,ROAH 312230Z 01028G38KT 9999 SCT012 BKN020 17/14 Q1014 RMK     3CU012 5CU020 A2997=,
20180131_230000.002,0,ROAH,,,,0,20180131230000,-1,-1,-1,-1,10,-1,26,-1,-1,-1,-1,,9999,0,0,2,SCT 15   BKN 20,1,17,1,13,1015,ROAH 312300Z 01026KT 9999 SCT015 BKN020 17/13 Q1015 RMK 4CU015     5CU020 A2998=,
20180131_233000.001,0,ROAH,,,,0,20180131230000,-1,-1,-1,-1,10,-1,26,-1,-1,-1,-1,,9999,0,0,2,BKN 20   BKN 140,1,17,1,13,1015,ROAH 312330Z 01026KT 9999 BKN020 BKN140 17/13 Q1015 RMK 5CU020     6AC140 A2999=,
20180201_000000.003,0,ROAH,,,,0,20180201000000,-1,-1,-1,-1,10,-1,26,-1,-1,-1,-1,,9999,0,0,2,SCT 18   BKN 25,1,17,1,13,1015,ROAH 010000Z 01026KT 9999 SCT018 BKN025 17/13 Q1015 RMK 4CU018     5CU025 A3000=,
20180201_003000.001,0,ROAH,,,,0,20180201000000,-1,-1,-1,-1,10,-1,26,-1,-1,-1,-1,,9999,0,0,2,FEW 15   BKN 20,1,17,1,13,1016,ROAH 010030Z 01026KT 9999 FEW015 BKN020 17/13 Q1016 RMK 2CU015     6CU020 A3002=,
20180201_010000.002,0,ROAH,,,,0,20180201010000,-1,-1,-1,-1,10,-1,23,-1,-1,-1,-1,,9999,0,0,2,FEW 20   BKN 25,1,17,1,12,1016,ROAH 010100Z 01023KT 9999 FEW020 BKN025 17/12 Q1016 RMK 2CU020     6CU025 A3003=,
20180201_013000.001,0,ROAH,,,,0,20180201010000,-1,-1,-1,-1,20,-1,20,-1,-1,-1,-1,,9999,0,0,2,FEW 20   BKN 25,1,18,1,12,1016,ROAH 010130Z 02020KT 9999 FEW020 BKN025 18/12 Q1016 RMK 1CU020     5CU025 A3003=,
20180201_020000.002,0,ROAH,,,,0,20180201020000,-1,-1,-1,-1,10,-1,22,-1,-1,-1,-1,,9999,0,0,2,BKN 30   BKN -9999,1,18,1,12,1016,ROAH 010200Z 01022KT 9999 BKN030 BKN/// 18/12 Q1016 RMK 5CU030     A3003=,
20180201_023000.001,0,ROAH,,,,0,20180201020000,-1,-1,-1,-1,10,-1,19,-1,-1,-1,-1,,9999,0,0,2,FEW 25   BKN 30,1,18,1,12,1016,ROAH 010230Z 01019KT 9999 FEW025 BKN030 18/12 Q1016 RMK 1CU025     5CU030 A3002=,
20180201_030000.003,0,ROAH,,,,0,20180201030000,-1,-1,-1,-1,10,-1,20,-1,-1,-1,-1,,9999,0,1,2,FEW 20   BKN 25,1,18,1,12,1016,ROAH 010300Z 01020KT 9999 VCSH FEW020 BKN025 18/12 Q1016 RMK     1CU020 5CU025 A3003=,VC SH
20180201_033000.001,0,ROAH,,,,0,20180201030000,-1,-1,-1,-1,10,-1,21,-1,-1,-1,-1,,9999,0,1,2,FEW 15   BKN 25,1,17,1,13,1017,ROAH 010330Z 01021KT 9999 -SHRA FEW015 BKN025 17/13 Q1017 RMK     2CU015 6CU025 A3004=,- RA SH
20180201_040000.003,0,ROAH,,,,0,20180201040000,-1,-1,-1,-1,360,-1,23,-1,-1,-1,-1,,9999,0,1,2,FEW 15   BKN 25,1,17,1,13,1016,ROAH 010400Z 36023KT 9999 -SHRA FEW015 BKN025 17/13 Q1016 RMK     2CU015 6CU025 A3003=,- RA SH
20180201_043000.001,0,ROAH,,,,0,20180201040000,-1,-1,-1,-1,360,-1,22,-1,-1,-1,-1,,9999,0,1,2,FEW 20   BKN 30,1,17,1,12,1017,ROAH 010430Z 36022KT 9999 -SHRA FEW020 BKN030 17/12 Q1017 RMK     2CU020 6CU030 A3003=,- RA SH
20180201_050000.002,0,ROAH,,,,0,20180201050000,-1,-1,-1,-1,360,-1,20,-1,-1,-1,-1,,9999,0,1,2,FEW 20   BKN 35,1,18,1,13,1016,ROAH 010500Z 36020KT 9999 VCSH FEW020 BKN035 18/13 Q1016 RMK     2CU020 6CU035 A3003=,VC SH
20180201_053000.001,0,ROAH,,,,0,20180201050000,-1,-1,-1,-1,360,-1,24,-1,-1,-1,-1,,9999,0,1,2,SCT 20   BKN 35,1,17,1,12,1017,ROAH 010530Z 36024KT 9999 -SHRA SCT020 BKN035 17/12 Q1017 RMK     3CU020 6CU035 A3003=,- RA SH
20180201_060000.002,0,ROAH,,,,0,20180201060000,-1,-1,-1,-1,360,-1,22,-1,-1,-1,-1,,9999,0,1,3,FEW 15   SCT 20   BKN 30,1,16,1,13,1017,ROAH 010600Z 36022KT 9999 -SHRA FEW015 SCT020 BKN030 16/13     Q1017 RMK 2CU015 3CU020 6CU030 A3003=,- RA SH
20180201_063000.001,0,ROAH,,,,0,20180201060000,-1,-1,-1,-1,10,-1,21,-1,-1,-1,-1,,9999,0,1,3,FEW 20   SCT 30   BKN 40,1,17,1,13,1017,ROAH 010630Z 01021KT 9999 VCSH FEW020 SCT030 BKN040 17/13     Q1017 RMK 2CU020 3CU030 5SC040 A3004=,VC SH
20180201_070000.002,0,ROAH,,,,0,20180201070000,-1,-1,-1,-1,360,-1,19,-1,-1,-1,-1,,9999,0,1,3,FEW 20   SCT 25   BKN 60,1,18,1,12,1017,ROAH 010700Z 36019KT 9999 VCSH FEW020 SCT025 BKN060 18/12     Q1017 RMK 2CU020 3CU025 5SC060 A3004=,VC SH
20180201_073000.001,0,ROAH,,,,0,20180201070000,-1,-1,-1,-1,30,-1,14,-1,-1,340,70,,9999,0,1,3,FEW 20   SCT 30   BKN 60,1,16,1,13,1017,ROAH 010730Z 03014KT 340V070 9999 VCSH FEW020 SCT030 BKN060     16/13 Q1017 RMK 2CU020 4CU030 5SC060 A3005=,VC SH
20180201_080000.002,0,ROAH,,,,0,20180201080000,-1,-1,-1,-1,20,-1,16,-1,-1,360,70,,9999,0,1,3,FEW 20   SCT 25   BKN 50,1,17,1,12,1017,ROAH 010800Z 02016KT 360V070 9999 VCSH FEW020 SCT025 BKN050     17/12 Q1017 RMK 2CU020 3CU025 5SC050 A3005=,VC SH
20180201_083000.001,0,ROAH,,,,0,20180201080000,-1,-1,-1,-1,30,-1,11,-1,-1,350,80,,9999,0,1,3,FEW 15   SCT 25   BKN 50,1,16,1,13,1018,ROAH 010830Z 03011KT 350V080 9999 -SHRA FEW015 SCT025 BKN050     16/13 Q1018 RMK 2CU015 3CU025 5SC050 A3006=,- RA SH
20180201_090000.002,0,ROAH,,,,0,20180201090000,-1,-1,-1,-1,40,-1,10,-1,-1,-1,-1,,9999,0,1,3,FEW 15   SCT 20   BKN 50,1,16,1,13,1018,ROAH 010900Z 04010KT 9999 -SHRA FEW015 SCT020 BKN050 16/13     Q1018 RMK 1CU015 3CU020 5SC050 A3007=,- RA SH
20180201_093000.001,0,ROAH,,,,0,20180201090000,-1,-1,-1,-1,40,-1,9,-1,-1,-1,-1,,9999,0,1,3,FEW 15   SCT 25   BKN 40,1,16,1,13,1018,ROAH 010930Z 04009KT 9999 -SHRA FEW015 SCT025 BKN040 16/13     Q1018 RMK 2CU015 4CU025 5SC040 A3008=,- RA SH
20180201_100000.002,0,ROAH,,,,0,20180201100000,-1,-1,-1,-1,50,-1,6,-1,-1,30,100,,9999,0,1,3,FEW 15   SCT 25   BKN 40,1,16,1,13,1019,ROAH 011000Z 05006KT 030V100 9999 SHRA FEW015 SCT025 BKN040     16/13 Q1019 RMK 2CU015 4CU025 5SC040 A3010=,RA SH
20180201_103000.001,0,ROAH,,,,0,20180201100000,-1,-1,-1,-1,60,-1,5,-1,-1,20,110,,9999,0,1,2,FEW 20   BKN 40,1,16,1,13,1019,ROAH 011030Z 06005KT 020V110 9999 SHRA FEW020 BKN040 16/13     Q1019 RMK 2CU020 6SC040 A3010=,RA SH
20180201_110000.002,0,ROAH,,,,0,20180201110000,-1,-1,-1,-1,40,-1,10,-1,-1,-1,-1,,9999,0,1,3,FEW 15   SCT 20   BKN 45,1,16,1,13,1019,ROAH 011100Z 04010KT 9999 -SHRA FEW015 SCT020 BKN045 16/13     Q1019 RMK 1CU015 3CU020 6SC045 A3011=,- RA SH
20180201_113000.001,0,ROAH,,,,0,20180201110000,-1,-1,-1,-1,50,-1,9,-1,-1,-1,-1,,9999,0,0,2,SCT 25   SCT 70,1,16,1,12,1019,ROAH 011130Z 05009KT 9999 SCT025 SCT070 16/12 Q1019 RMK 3CU025     4AC070 A3011=,
20180201_120000.002,0,ROAH,,,,0,20180201120000,-1,-1,-1,-1,50,-1,8,-1,-1,-1,-1,,9999,0,0,2,FEW 30   SCT 70,1,16,1,11,1019,ROAH 011200Z 05008KT 9999 FEW030 SCT070 16/11 Q1019 RMK 2CU030     3AC070 A3011=,
20180201_123000.001,0,ROAH,,,,0,20180201120000,-1,-1,-1,-1,60,-1,7,-1,-1,30,90,,9999,0,0,2,SCT 40   SCT 70,1,16,1,11,1019,ROAH 011230Z 06007KT 030V090 9999 SCT040 SCT070 16/11 Q1019     RMK 3CU040 4AC070 A3012=,
20180201_130000.002,0,ROAH,,,,0,20180201130000,-1,-1,-1,-1,50,-1,7,-1,-1,-1,-1,,9999,0,1,2,SCT 40   BKN 60,1,16,1,11,1020,ROAH 011300Z 05007KT 9999 -SHRA SCT040 BKN060 16/11 Q1020 RMK     3CU040 7SC060 A3012=,- RA SH
20180201_133000.001,0,ROAH,,,,0,20180201130000,-1,-1,-1,-1,60,-1,6,-1,-1,20,90,,9999,0,1,2,SCT 40   BKN 50,1,16,1,11,1019,ROAH 011330Z 06006KT 020V090 9999 -SHRA SCT040 BKN050 16/11     Q1019 RMK 3CU040 7SC050 A3011=,- RA SH
20180201_140000.002,0,ROAH,,,,0,20180201140000,-1,-1,-1,-1,50,-1,8,-1,-1,-1,-1,,9999,0,0,2,FEW 40   SCT 60,1,16,1,11,1019,ROAH 011400Z 05008KT 9999 FEW040 SCT060 16/11 Q1019 RMK 2CU040     4SC060 A3012=,
20180201_143000.001,0,ROAH,,,,0,20180201140000,-1,-1,-1,-1,50,-1,7,-1,-1,-1,-1,,9999,0,0,2,FEW 40   SCT 60,1,16,1,10,1019,ROAH 011430Z 05007KT 9999 FEW040 SCT060 16/10 Q1019 RMK 2CU040     4SC060 A3012=,
20180201_150000.002,0,ROAH,,,,0,20180201150000,-1,-1,-1,-1,50,-1,7,-1,-1,-1,-1,,9999,0,0,2,FEW 40   BKN 60,1,16,1,10,1020,ROAH 011500Z 05007KT 9999 FEW040 BKN060 16/10 Q1020 RMK 2CU040     7SC060 A3012=,
20180201_153000.001,0,ROAH,,,,0,20180201150000,-1,-1,-1,-1,40,-1,9,-1,-1,-1,-1,,9999,0,0,2,FEW 40   BKN 60,1,16,1,10,1020,ROAH 011530Z 04009KT 9999 FEW040 BKN060 16/10 Q1020 RMK 1CU040     7SC060 A3013=,
20180201_160000.002,0,ROAH,,,,0,20180201160000,-1,-1,-1,-1,50,-1,7,-1,-1,-1,-1,,9999,0,0,2,FEW 40   BKN 70,1,16,1,10,1020,ROAH 011600Z 05007KT 9999 FEW040 BKN070 16/10 Q1020 RMK 1CU040     7AC070 A3013=,
20180201_163000.001,0,ROAH,,,,0,20180201160000,-1,-1,-1,-1,50,-1,8,-1,-1,-1,-1,,9999,0,0,2,FEW 40   BKN 50,1,16,1,10,1020,ROAH 011630Z 05008KT 9999 FEW040 BKN050 16/10 Q1020 RMK 1CU040     7SC050 A3013=,
20180201_170000.002,0,ROAH,,,,0,20180201170000,-1,-1,-1,-1,50,-1,7,-1,-1,-1,-1,,9999,0,0,2,FEW 40   BKN 60,1,16,1,9,1020,ROAH 011700Z 05007KT 9999 FEW040 BKN060 16/09 Q1020 RMK 1CU040     7SC060 A3013=,
20180201_173000.001,0,ROAH,,,,0,20180201170000,-1,-1,-1,-1,50,-1,8,-1,-1,-1,-1,,9999,0,0,2,FEW 40   BKN 60,1,16,1,9,1020,ROAH 011730Z 05008KT 9999 FEW040 BKN060 16/09 Q1020 RMK 1CU040     7SC060 A3012=,
20180201_180000.002,0,ROAH,,,,0,20180201180000,-1,-1,-1,-1,50,-1,8,-1,-1,-1,-1,,9999,0,0,2,FEW 40   BKN 60,1,16,1,9,1020,ROAH 011800Z 05008KT 9999 FEW040 BKN060 16/09 Q1020 RMK 1CU040     7SC060 A3013=,
20180201_183000.001,0,ROAH,,,,0,20180201180000,-1,-1,-1,-1,50,-1,7,-1,-1,360,80,,9999,0,0,2,FEW 40   BKN 60,1,16,1,9,1020,ROAH 011830Z 05007KT 360V080 9999 FEW040 BKN060 16/09 Q1020     RMK 1CU040 7SC060 A3013=,
20180201_190000.003,0,ROAH,,,,0,20180201190000,-1,-1,-1,-1,50,-1,9,-1,-1,-1,-1,,9999,0,0,2,FEW 30   BKN 50,1,16,1,9,1020,ROAH 011900Z 05009KT 9999 FEW030 BKN050 16/09 Q1020 RMK 1CU030     7SC050 A3012=,
20180201_193000.001,0,ROAH,,,,0,20180201190000,-1,-1,-1,-1,40,-1,10,-1,-1,-1,-1,,9999,0,0,2,FEW 30   BKN 50,1,16,1,9,1020,ROAH 011930Z 04010KT 9999 FEW030 BKN050 16/09 Q1020 RMK 1CU030     7SC050 A3013=,
20180201_200000.003,0,ROAH,,,,0,20180201200000,-1,-1,-1,-1,40,-1,10,-1,-1,360,70,,9999,0,0,2,FEW 30   BKN 60,1,16,1,10,1020,ROAH 012000Z 04010KT 360V070 9999 FEW030 BKN060 16/10 Q1020     RMK 1CU030 6SC060 A3013=,
20180201_203000.001,0,ROAH,,,,0,20180201200000,-1,-1,-1,-1,50,-1,8,-1,-1,-1,-1,,9999,0,0,2,FEW 30   BKN 60,1,16,1,9,1020,ROAH 012030Z 05008KT 9999 FEW030 BKN060 16/09 Q1020 RMK 1CU030     6SC060 A3014=,
20180201_210000.002,0,ROAH,,,,0,20180201210000,-1,-1,-1,-1,40,-1,8,-1,-1,-1,-1,CAVOK,-1,0,0,0,,1,16,1,9,1020,ROAH 012100Z 04008KT CAVOK 16/09 Q1020 RMK A3015=,
20180201_213000.001,0,ROAH,,,,0,20180201210000,-1,-1,-1,-1,30,-1,9,-1,-1,-1,-1,CAVOK,-1,0,0,0,,1,16,1,10,1021,ROAH 012130Z 03009KT CAVOK 16/10 Q1021 RMK A3016=,
20180201_220000.002,0,ROAH,,,,0,20180201220000,-1,-1,-1,-1,40,-1,9,-1,-1,-1,-1,,9999,0,0,2,FEW 30   BKN 50,1,16,1,9,1021,ROAH 012200Z 04009KT 9999 FEW030 BKN050 16/09 Q1021 RMK 2CU030     5SC050 A3017=,
20180201_223000.002,0,ROAH,,,,0,20180201220000,-1,-1,-1,-1,30,-1,11,-1,-1,-1,-1,,9999,0,0,2,FEW 32   BKN 60,1,16,1,9,1021,ROAH 012230Z 03011KT 9999 FEW032 BKN060 16/09 Q1021 RMK 1CU032     6SC060 A3017=,
20180201_230000.003,0,ROAH,,,,0,20180201230000,-1,-1,-1,-1,50,-1,10,-1,-1,360,100,,9999,0,0,1,FEW 32,1,16,1,9,1021,ROAH 012300Z 05010KT 360V100 9999 FEW032 16/09 Q1021 RMK     1CU032 A3017=,
20180201_233000.001,0,ROAH,,,,0,20180201230000,-1,-1,-1,-1,40,-1,8,-1,-1,20,100,,9999,0,0,1,FEW 35,1,16,1,9,1022,ROAH 012330Z 04008KT 020V100 9999 FEW035 16/09 Q1022 RMK     1CU035 A3018=,
20180202_000000.002,0,ROAH,,,,0,20180202000000,-1,-1,-1,-1,50,-1,8,-1,-1,10,90,,9999,0,0,1,FEW 35,1,17,1,8,1021,ROAH 020000Z 05008KT 010V090 9999 FEW035 17/08 Q1021 RMK     1CU035 A3017=,
20180202_003000.001,0,ROAH,,,,0,20180202000000,-1,-1,-1,-1,50,-1,9,-1,-1,-1,-1,,9999,0,0,1,FEW 35,1,17,1,7,1021,ROAH 020030Z 05009KT 9999 FEW035 17/07 Q1021 RMK 1CU035 A3016=,
20180202_010000.002,0,ROAH,,,,0,20180202010000,-1,-1,-1,-1,30,-1,9,-1,-1,300,70,,9999,0,0,1,FEW 35,1,18,1,7,1021,ROAH 020100Z 03009KT 300V070 9999 FEW035 18/07 Q1021 RMK     1CU035 A3016=,
20180202_013000.001,0,ROAH,,,,0,20180202010000,-1,-1,-1,-1,30,-1,12,-1,23,-1,-1,,9999,0,0,1,FEW 35,1,18,1,6,1021,ROAH 020130Z 03012G23KT 9999 FEW035 18/06 Q1021 RMK 1CU035     A3016=,
20180202_020000.002,0,ROAH,,,,0,20180202020000,-1,-1,-1,-1,10,-1,14,-1,-1,-1,-1,,9999,0,0,1,FEW 40,1,19,1,7,1021,ROAH 020200Z 01014KT 9999 FEW040 19/07 Q1021 RMK 1SC040 A3016=,
20180202_023000.001,0,ROAH,,,,0,20180202020000,-1,-1,-1,-1,20,-1,12,-1,-1,350,80,,9999,0,0,1,FEW 40,1,19,1,9,1020,ROAH 020230Z 02012KT 350V080 9999 FEW040 19/09 Q1020 RMK     1SC040 A3015=,
20180202_030000.002,0,ROAH,,,,0,20180202030000,-1,-1,-1,-1,20,-1,14,-1,-1,350,80,,9999,0,0,2,FEW 40   SCT 50,1,19,1,9,1020,ROAH 020300Z 02014KT 350V080 9999 FEW040 SCT050 19/09 Q1020     RMK 1SC040 3SC050 A3013=,
20180202_033000.001,0,ROAH,,,,0,20180202030000,-1,-1,-1,-1,360,-1,13,-1,-1,340,40,,9999,0,0,2,FEW 40   BKN 50,1,19,1,9,1020,ROAH 020330Z 36013KT 340V040 9999 FEW040 BKN050 19/09 Q1020     RMK 2SC040 5SC050 A3013=,
20180202_040000.002,0,ROAH,,,,0,20180202040000,-1,-1,-1,-1,20,-1,15,-1,-1,-1,-1,,9999,0,0,2,FEW 35   BKN 50,1,18,1,9,1019,ROAH 020400Z 02015KT 9999 FEW035 BKN050 18/09 Q1019 RMK 2SC035     5SC050 A3011=,
20180202_043000.001,0,ROAH,,,,0,20180202040000,-1,-1,-1,-1,10,-1,14,-1,-1,-1,-1,,9999,0,0,2,FEW 35   BKN 50,1,19,1,9,1019,ROAH 020430Z 01014KT 9999 FEW035 BKN050 19/09 Q1019 RMK 2SC035     6SC050 A3010=,
20180202_050000.001,0,ROAH,,,,0,20180202050000,-1,-1,-1,-1,30,-1,11,-1,-1,350,60,,9999,0,0,2,FEW 35   BKN 50,1,18,1,9,1019,ROAH 020500Z 03011KT 350V060 9999 FEW035 BKN050 18/09 Q1019     RMK 2SC035 6SC050 A3010=,
20180202_053000.001,0,ROAH,,,,0,20180202050000,-1,-1,-1,-1,30,-1,10,-1,-1,360,60,,9999,0,0,3,FEW 35   SCT 40   BKN 50,1,18,1,9,1019,ROAH 020530Z 03010KT 360V060 9999 FEW035 SCT040 BKN050 18/09     Q1019 RMK 2SC035 3SC040 6SC050 A3010=,
20180202_060000.002,0,ROAH,,,,0,20180202060000,-1,-1,-1,-1,40,-1,11,-1,-1,360,100,,9999,0,0,2,FEW 35   BKN 46,1,18,1,9,1019,ROAH 020600Z 04011KT 360V100 9999 FEW035 BKN046 18/09 Q1019     RMK 2SC035 6SC046 A3010=,
20180202_063000.001,0,ROAH,,,,0,20180202060000,-1,-1,-1,-1,40,-1,8,-1,-1,360,80,,9999,0,0,2,FEW 35   BKN 50,1,18,1,9,1019,ROAH 020630Z 04008KT 360V080 9999 FEW035 BKN050 18/09 Q1019     RMK 1SC035 6SC050 A3010=,
20180202_070000.002,0,ROAH,,,,0,20180202070000,-1,-1,-1,-1,30,-1,9,-1,-1,350,90,,9999,0,1,3,FEW 30   SCT 40   BKN 50,1,18,1,9,1019,ROAH 020700Z 03009KT 350V090 9999 -RA FEW030 SCT040 BKN050     18/09 Q1019 RMK 1CU030 3SC040 6SC050 A3010=,- RA
20180202_073000.001,0,ROAH,,,,0,20180202070000,-1,-1,-1,-1,50,-1,6,-1,-1,10,80,,9999,0,1,3,FEW 30   SCT 35   BKN 50,1,17,1,9,1019,ROAH 020730Z 05006KT 010V080 9999 VCSH FEW030 SCT035 BKN050     17/09 Q1019 RMK 1CU030 3SC035 6SC050 A3010=,VC SH
20180202_080000.002,0,ROAH,,,,0,20180202080000,-1,-1,-1,-1,20,-1,11,-1,-1,-1,-1,,7000,0,1,3,FEW 25   SCT 30   BKN 50,1,15,1,11,1020,ROAH 020800Z 02011KT 7000 SHRA FEW025 SCT030 BKN050 15/11     Q1020 RMK 2CU025 4CU030 6SC050 A3012=,RA SH
20180202_083000.001,0,ROAH,,,,0,20180202080000,-1,-1,-1,-1,40,-1,10,-1,-1,10,130,,9999,0,1,3,FEW 25   BKN 30   BKN 40,1,15,1,12,1020,ROAH 020830Z 04010KT 010V130 9999 -SHRA FEW025 BKN030 BKN040     15/12 Q1020 RMK 2CU025 5CU030 6SC040 A3012=,- RA SH
20180202_090000.002,0,ROAH,,,,0,20180202090000,-1,-1,-1,-1,40,-1,11,-1,-1,-1,-1,,9999,0,1,3,FEW 15   SCT 20   BKN 30,1,15,1,12,1020,ROAH 020900Z 04011KT 9999 -SHRA FEW015 SCT020 BKN030 15/12     Q1020 RMK 2CU015 3CU020 6CU030 A3013=,- RA SH
20180202_093000.001,0,ROAH,,,,0,20180202090000,-1,-1,-1,-1,40,-1,12,-1,-1,-1,-1,,9999,0,1,3,FEW 15   SCT 30   BKN 45,1,15,1,11,1020,ROAH 020930Z 04012KT 9999 -SHRA FEW015 SCT030 BKN045 15/11     Q1020 RMK 2CU015 4CU030 6SC045 A3013=,- RA SH
20180202_100000.003,0,ROAH,,,,0,20180202100000,-1,-1,-1,-1,40,-1,13,-1,-1,360,90,,8000,0,1,3,FEW 20   SCT 30   BKN 45,1,15,1,12,1020,ROAH 021000Z 04013KT 360V090 8000 SHRA FEW020 SCT030 BKN045     15/12 Q1020 RMK 2CU020 4CU030 6SC045 A3014=,RA SH
20180202_103000.001,0,ROAH,,,,0,20180202100000,-1,-1,-1,-1,40,-1,9,-1,-1,20,80,,9999,0,1,3,FEW 15   SCT 30   BKN 45,1,15,1,12,1021,ROAH 021030Z 04009KT 020V080 9999 -SHRA FEW015 SCT030 BKN045     15/12 Q1021 RMK 2CU015 4CU030 6SC045 A3016=,- RA SH
20180202_110000.002,0,ROAH,,,,0,20180202110000,-1,-1,-1,-1,40,-1,10,-1,-1,10,70,,9999,0,1,3,FEW 15   SCT 20   BKN 30,1,15,1,12,1021,ROAH 021100Z 04010KT 010V070 9999 -SHRA FEW015 SCT020 BKN030     15/12 Q1021 RMK 2CU015 4CU020 6CU030 A3017=,- RA SH
20180202_113000.001,0,ROAH,,,,0,20180202110000,-1,-1,-1,-1,40,-1,10,-1,-1,-1,-1,,9999,0,1,3,FEW 15   SCT 25   BKN 40,1,15,1,12,1021,ROAH 021130Z 04010KT 9999 -SHRA FEW015 SCT025 BKN040 15/12     Q1021 RMK 2CU015 4CU025 6SC040 A3018=,- RA SH
20180202_120000.002,0,ROAH,,,,0,20180202120000,-1,-1,-1,-1,50,-1,10,-1,-1,10,80,,9999,0,1,3,FEW 15   SCT 30   BKN 40,1,14,1,12,1021,ROAH 021200Z 05010KT 010V080 9999 -SHRA FEW015 SCT030 BKN040     14/12 Q1021 RMK 2CU015 4CU030 6SC040 A3018=,- RA SH
20180202_123000.001,0,ROAH,,,,0,20180202120000,-1,-1,-1,-1,40,-1,8,-1,-1,10,90,,6000,0,1,3,FEW 10   BKN 30   BKN 40,1,14,1,11,1022,ROAH 021230Z 04008KT 010V090 6000 -SHRA FEW010 BKN030 BKN040     14/11 Q1022 RMK 2CU010 5CU030 7SC040 A3018=,- RA SH
20180202_130000.003,0,ROAH,,,,0,20180202130000,-1,-1,-1,-1,50,-1,8,-1,-1,-1,-1,,9000,0,1,3,FEW 10   SCT 30   BKN 40,1,14,1,12,1022,ROAH 021300Z 05008KT 9000 -SHRA FEW010 SCT030 BKN040 14/12     Q1022 RMK 1CU010 4CU030 7SC040 A3018=,- RA SH
20180202_133000.001,0,ROAH,,,,0,20180202130000,-1,-1,-1,-1,40,-1,7,-1,-1,10,70,,9999,0,1,3,FEW 10   SCT 20   BKN 40,1,14,1,12,1022,ROAH 021330Z 04007KT 010V070 9999 -SHRA FEW010 SCT020 BKN040     14/12 Q1022 RMK 1CU010 4CU020 6SC040 A3018=,- RA SH
20180202_140000.002,0,ROAH,,,,0,20180202140000,-1,-1,-1,-1,60,-1,8,-1,-1,-1,-1,,9999,0,1,3,FEW 10   SCT 20   BKN 40,1,14,1,12,1021,ROAH 021400Z 06008KT 9999 -SHRA FEW010 SCT020 BKN040 14/12     Q1021 RMK 1CU010 4CU020 6SC040 A3017=,- RA SH
20180202_143000.001,0,ROAH,,,,0,20180202140000,-1,-1,-1,-1,30,-1,7,-1,-1,-1,-1,,9999,0,1,3,FEW 15   SCT 30   BKN 40,1,14,1,12,1021,ROAH 021430Z 03007KT 9999 -SHRA FEW015 SCT030 BKN040 14/12     Q1021 RMK 1CU015 3CU030 6SC040 A3018=,- RA SH
20180202_150000.002,0,ROAH,,,,0,20180202150000,-1,-1,-1,-1,50,-1,9,-1,-1,-1,-1,,8000,0,1,3,FEW 15   SCT 25   BKN 40,1,14,1,12,1021,ROAH 021500Z 05009KT 8000 SHRA FEW015 SCT025 BKN040 14/12     Q1021 RMK 1CU015 4CU025 6SC040 A3017=,RA SH
20180202_153000.001,0,ROAH,,,,0,20180202150000,-1,-1,-1,-1,60,-1,13,-1,-1,-1,-1,,9999,0,1,3,FEW 15   SCT 25   BKN 40,1,14,1,11,1021,ROAH 021530Z 06013KT 9999 -SHRA FEW015 SCT025 BKN040 14/11     Q1021 RMK 1CU015 3CU025 6SC040 A3016=,- RA SH
20180202_160000.002,0,ROAH,,,,0,20180202160000,-1,-1,-1,-1,40,-1,7,-1,-1,350,80,,9999,0,1,3,FEW 15   SCT 25   BKN 40,1,15,1,10,1021,ROAH 021600Z 04007KT 350V080 9999 VCSH FEW015 SCT025 BKN040     15/10 Q1021 RMK 1CU015 3CU025 6SC040 A3016=,VC SH
20180202_163000.001,0,ROAH,,,,0,20180202160000,-1,-1,-1,-1,10,-1,18,-1,-1,-1,-1,,9999,0,1,3,FEW 15   SCT 25   BKN 40,1,15,1,10,1021,ROAH 021630Z 01018KT 9999 VCSH FEW015 SCT025 BKN040 15/10     Q1021 RMK 1CU015 4CU025 6SC040 A3016=,VC SH
20180202_170000.002,0,ROAH,,,,0,20180202170000,-1,-1,-1,-1,360,-1,18,-1,-1,-1,-1,,9999,0,0,2,SCT 25   BKN 40,1,15,1,10,1021,ROAH 021700Z 36018KT 9999 SCT025 BKN040 15/10 Q1021 RMK 4CU025     6SC040 A3016=,
20180202_173000.001,0,ROAH,,,,0,20180202170000,-1,-1,-1,-1,360,-1,20,-1,-1,-1,-1,,9999,0,0,2,SCT 30   BKN 50,1,15,1,9,1020,ROAH 021730Z 36020KT 9999 SCT030 BKN050 15/09 Q1020 RMK 4CU030     6SC050 A3015=,
20180202_180000.003,0,ROAH,,,,0,20180202180000,-1,-1,-1,-1,360,-1,20,-1,-1,-1,-1,,9999,0,0,2,SCT 30   BKN 45,1,15,1,9,1021,ROAH 021800Z 36020KT 9999 SCT030 BKN045 15/09 Q1021 RMK 3CU030     6SC045 A3015=,
20180202_183000.001,0,ROAH,,,,0,20180202180000,-1,-1,-1,-1,20,-1,18,-1,-1,-1,-1,,9999,0,1,2,SCT 25   BKN 40,1,15,1,9,1020,ROAH 021830Z 02018KT 9999 -SHRA SCT025 BKN040 15/09 Q1020 RMK     3CU025 6SC040 A3015=,- RA SH
20180202_190000.003,0,ROAH,,,,0,20180202190000,-1,-1,-1,-1,10,-1,20,-1,-1,-1,-1,,9999,0,1,2,SCT 25   BKN 35,1,14,1,9,1020,ROAH 021900Z 01020KT 9999 -SHRA SCT025 BKN035 14/09 Q1020 RMK     3CU025 6CU035 A3015=,- RA SH
20180202_193000.001,0,ROAH,,,,0,20180202190000,-1,-1,-1,-1,10,-1,19,-1,-1,-1,-1,,9999,0,1,3,FEW 25   SCT 30   BKN 40,1,14,1,9,1020,ROAH 021930Z 01019KT 9999 -SHRA FEW025 SCT030 BKN040 14/09     Q1020 RMK 2CU025 4CU030 6SC040 A3014=,- RA SH
20180202_200000.003,0,ROAH,,,,0,20180202200000,-1,-1,-1,-1,10,-1,20,-1,-1,-1,-1,,9999,0,0,2,FEW 30   BKN 40,1,14,1,8,1020,ROAH 022000Z 01020KT 9999 FEW030 BKN040 14/08 Q1020 RMK 2CU030     6SC040 A3014=,
20180202_203000.001,0,ROAH,,,,0,20180202200000,-1,-1,-1,-1,360,-1,20,-1,-1,-1,-1,,9999,0,0,2,FEW 30   BKN 40,1,15,1,7,1020,ROAH 022030Z 36020KT 9999 FEW030 BKN040 15/07 Q1020 RMK 2CU030     6SC040 A3014=,
20180202_210000.002,0,ROAH,,,,0,20180202210000,-1,-1,-1,-1,360,-1,20,-1,-1,-1,-1,,9999,0,0,2,FEW 30   BKN 50,1,14,1,8,1021,ROAH 022100Z 36020KT 9999 FEW030 BKN050 14/08 Q1021 RMK 2CU030     6SC050 A3015=,
20180202_213000.001,0,ROAH,,,,0,20180202210000,-1,-1,-1,-1,360,-1,20,-1,-1,-1,-1,,9999,0,0,2,FEW 30   BKN 50,1,14,1,7,1021,ROAH 022130Z 36020KT 9999 FEW030 BKN050 14/07 Q1021 RMK 2CU030     6SC050 A3017=,
20180202_220000.002,0,ROAH,,,,0,20180202220000,-1,-1,-1,-1,360,-1,19,-1,-1,-1,-1,,9999,0,1,2,FEW 30   BKN 45,1,14,1,6,1021,ROAH 022200Z 36019KT 9999 VCSH FEW030 BKN045 14/06 Q1021 RMK     2CU030 6SC045 A3017=,VC SH
20180202_223000.002,0,ROAH,,,,0,20180202220000,-1,-1,-1,-1,360,-1,18,-1,-1,-1,-1,,9999,0,1,3,FEW 25   SCT 30   BKN 45,1,14,1,7,1022,ROAH 022230Z 36018KT 9999 -SHRA FEW025 SCT030 BKN045 14/07     Q1022 RMK 2CU025 3CU030 6SC045 A3018=,- RA SH
20180202_230000.003,0,ROAH,,,,0,20180202230000,-1,-1,-1,-1,360,-1,20,-1,-1,-1,-1,,9999,0,0,3,FEW 25   SCT 30   BKN 45,1,14,1,8,1022,ROAH 022300Z 36020KT 9999 FEW025 SCT030 BKN045 14/08 Q1022 RMK     2CU025 3CU030 6SC045 A3019=,
20180202_233000.001,0,ROAH,,,,0,20180202230000,-1,-1,-1,-1,360,-1,19,-1,-1,-1,-1,,9999,0,0,3,FEW 25   SCT 30   BKN 45,1,14,1,8,1022,ROAH 022330Z 36019KT 9999 FEW025 SCT030 BKN045 14/08 Q1022 RMK     2CU025 4CU030 6SC045 A3020=,
20180203_000000.002,0,ROAH,,,,0,20180203000000,-1,-1,-1,-1,350,-1,22,-1,-1,-1,-1,,9999,0,1,3,FEW 25   SCT 30   BKN 45,1,14,1,8,1023,ROAH 030000Z 35022KT 9999 -SHRA FEW025 SCT030 BKN045 14/08     Q1023 RMK 2CU025 3CU030 6SC045 A3022=,- RA SH
20180203_003000.001,0,ROAH,,,,0,20180203000000,-1,-1,-1,-1,10,-1,20,-1,-1,-1,-1,,9999,0,1,3,SCT 25   SCT 30   BKN 45,1,13,1,9,1023,ROAH 030030Z 01020KT 9999 -SHRA SCT025 SCT030 BKN045 13/09     Q1023 RMK 3CU025 4CU030 6SC045 A3021=,- RA SH
20180203_010000.003,0,ROAH,,,,0,20180203010000,-1,-1,-1,-1,360,-1,21,-1,-1,-1,-1,,9999,0,0,3,FEW 25   BKN 30   BKN 40,1,14,1,8,1022,ROAH 030100Z 36021KT 9999 FEW025 BKN030 BKN040 14/08 Q1022 RMK     2CU025 5CU030 7SC040 A3020=,
20180203_013000.001,0,ROAH,,,,0,20180203010000,-1,-1,-1,-1,10,-1,20,-1,-1,-1,-1,,9999,0,0,3,FEW 25   SCT 30   BKN 50,1,15,1,8,1023,ROAH 030130Z 01020KT 9999 FEW025 SCT030 BKN050 15/08 Q1023 RMK     2CU025 3CU030 6SC050 A3021=,
20180203_020000.002,0,ROAH,,,,0,20180203020000,-1,-1,-1,-1,360,-1,21,-1,-1,-1,-1,,9999,0,0,3,FEW 25   SCT 30   BKN 40,1,14,1,7,1022,ROAH 030200Z 36021KT 9999 FEW025 SCT030 BKN040 14/07 Q1022 RMK     2CU025 4CU030 7SC040 A3020=,
20180203_023000.001,0,ROAH,,,,0,20180203020000,-1,-1,-1,-1,10,-1,20,-1,-1,-1,-1,,9999,0,0,3,SCT 28   BKN 40   BKN 70,1,14,1,7,1022,ROAH 030230Z 01020KT 9999 SCT028 BKN040 BKN070 14/07 Q1022 RMK     3CU028 5SC040 7AC070 A3020=,
20180203_030000.002,0,ROAH,,,,0,20180203030000,-1,-1,-1,-1,10,-1,19,-1,-1,-1,-1,,9999,0,0,2,FEW 30   BKN 70,1,15,1,6,1022,ROAH 030300Z 01019KT 9999 FEW030 BKN070 15/06 Q1022 RMK 2CU030     7AC070 A3019=,
20180203_033000.001,0,ROAH,,,,0,20180203030000,-1,-1,-1,-1,350,-1,20,-1,-1,-1,-1,,9999,0,0,3,SCT 30   BKN 40   BKN 70,1,14,1,7,1022,ROAH 030330Z 35020KT 9999 SCT030 BKN040 BKN070 14/07 Q1022 RMK     3CU030 5SC040 7AC070 A3018=,
20180203_040000.002,0,ROAH,,,,0,20180203040000,-1,-1,-1,-1,350,-1,18,-1,-1,-1,-1,,9999,0,0,3,FEW 30   SCT 40   BKN 70,1,15,1,7,1021,ROAH 030400Z 35018KT 9999 FEW030 SCT040 BKN070 15/07 Q1021 RMK     2CU030 3SC040 7AC070 A3017=,
20180203_043000.001,0,ROAH,,,,0,20180203040000,-1,-1,-1,-1,360,-1,19,-1,-1,-1,-1,,9999,0,0,3,FEW 30   SCT 40   BKN 70,1,14,1,7,1021,ROAH 030430Z 36019KT 9999 FEW030 SCT040 BKN070 14/07 Q1021 RMK     1CU030 4SC040 7AC070 A3016=,
20180203_050000.002,0,ROAH,,,,0,20180203050000,-1,-1,-1,-1,360,-1,20,-1,-1,-1,-1,,9999,0,0,2,SCT 28   BKN 40,1,14,1,7,1021,ROAH 030500Z 36020KT 9999 SCT028 BKN040 14/07 Q1021 RMK 3CU028     6SC040 A3015=,
20180203_053000.001,0,ROAH,,,,0,20180203050000,-1,-1,-1,-1,350,-1,20,-1,-1,-1,-1,,9999,0,0,2,FEW 28   BKN 40,1,14,1,8,1021,ROAH 030530Z 35020KT 9999 FEW028 BKN040 14/08 Q1021 RMK 2CU028     6SC040 A3015=,
20180203_060000.002,0,ROAH,,,,0,20180203060000,-1,-1,-1,-1,360,-1,21,-1,-1,-1,-1,,9999,0,0,2,FEW 28   BKN 40,1,14,1,7,1020,ROAH 030600Z 36021KT 9999 FEW028 BKN040 14/07 Q1020 RMK 2CU028     6SC040 A3014=,
20180203_063000.001,0,ROAH,,,,0,20180203060000,-1,-1,-1,-1,350,-1,20,-1,-1,-1,-1,,9999,0,0,2,FEW 30   BKN 40,1,14,1,6,1020,ROAH 030630Z 35020KT 9999 FEW030 BKN040 14/06 Q1020 RMK 2CU030     6SC040 A3014=,
20180203_070000.003,0,ROAH,,,,0,20180203070000,-1,-1,-1,-1,350,-1,20,-1,-1,-1,-1,,9999,0,0,2,FEW 30   BKN 40,1,14,1,7,1020,ROAH 030700Z 35020KT 9999 FEW030 BKN040 14/07 Q1020 RMK 1CU030     6SC040 A3014=,
20180203_073000.001,0,ROAH,,,,0,20180203070000,-1,-1,-1,-1,360,-1,18,-1,-1,-1,-1,,9999,0,0,2,SCT 33   BKN 40,1,14,1,6,1020,ROAH 030730Z 36018KT 9999 SCT033 BKN040 14/06 Q1020 RMK 3CU033     6SC040 A3014=,
20180203_080000.002,0,ROAH,,,,0,20180203080000,-1,-1,-1,-1,360,-1,22,-1,-1,-1,-1,,9999,0,0,2,SCT 35   BKN 45,1,14,1,6,1020,ROAH 030800Z 36022KT 9999 SCT035 BKN045 14/06 Q1020 RMK 4CU035     7SC045 A3013=,
20180203_083000.001,0,ROAH,,,,0,20180203080000,-1,-1,-1,-1,360,-1,21,-1,-1,-1,-1,,9999,0,0,2,SCT 35   BKN 40,1,14,1,6,1020,ROAH 030830Z 36021KT 9999 SCT035 BKN040 14/06 Q1020 RMK 3CU035     7SC040 A3014=,
20180203_090000.002,0,ROAH,,,,0,20180203090000,-1,-1,-1,-1,360,-1,19,-1,-1,-1,-1,,9999,0,0,2,SCT 35   BKN 45,1,14,1,7,1020,ROAH 030900Z 36019KT 9999 SCT035 BKN045 14/07 Q1020 RMK 3CU035     6SC045 A3014=,
20180203_093000.001,0,ROAH,,,,0,20180203090000,-1,-1,-1,-1,360,-1,21,-1,-1,-1,-1,,9999,0,0,2,FEW 30   BKN 40,1,14,1,6,1020,ROAH 030930Z 36021KT 9999 FEW030 BKN040 14/06 Q1020 RMK 2CU030     7SC040 A3014=,
20180203_100000.002,0,ROAH,,,,0,20180203100000,-1,-1,-1,-1,10,-1,18,-1,-1,-1,-1,,9999,0,0,2,FEW 30   BKN 40,1,14,1,7,1021,ROAH 031000Z 01018KT 9999 FEW030 BKN040 14/07 Q1021 RMK 2CU030     7SC040 A3015=,
20180203_103000.001,0,ROAH,,,,0,20180203100000,-1,-1,-1,-1,10,-1,21,-1,-1,-1,-1,,9999,0,0,2,SCT 30   BKN 40,1,14,1,8,1021,ROAH 031030Z 01021KT 9999 SCT030 BKN040 14/08 Q1021 RMK 3CU030     6SC040 A3015=,
20180203_110000.002,0,ROAH,,,,0,20180203110000,-1,-1,-1,-1,10,-1,19,-1,-1,-1,-1,,9999,0,0,2,SCT 30   BKN 40,1,14,1,7,1021,ROAH 031100Z 01019KT 9999 SCT030 BKN040 14/07 Q1021 RMK 4CU030     6SC040 A3016=,
20180203_113000.001,0,ROAH,,,,0,20180203110000,-1,-1,-1,-1,360,-1,21,-1,-1,-1,-1,,9999,0,0,2,FEW 30   BKN 50,1,14,1,8,1021,ROAH 031130Z 36021KT 9999 FEW030 BKN050 14/08 Q1021 RMK 2CU030     6SC050 A3016=,
20180203_120000.002,0,ROAH,,,,0,20180203120000,-1,-1,-1,-1,360,-1,20,-1,-1,-1,-1,,9999,0,0,2,FEW 30   BKN 45,1,14,1,8,1021,ROAH 031200Z 36020KT 9999 FEW030 BKN045 14/08 Q1021 RMK 1CU030     5SC045 A3017=,
20180203_123000.001,0,ROAH,,,,0,20180203120000,-1,-1,-1,-1,360,-1,21,-1,-1,-1,-1,,9999,0,1,2,FEW 30   BKN 45,1,14,1,8,1021,ROAH 031230Z 36021KT 9999 -RA FEW030 BKN045 14/08 Q1021 RMK     1CU030 5SC045 A3017=,- RA
20180203_130000.002,0,ROAH,,,,0,20180203130000,-1,-1,-1,-1,360,-1,20,-1,-1,-1,-1,,9999,0,1,2,FEW 30   BKN 45,1,14,1,7,1021,ROAH 031300Z 36020KT 9999 -RA FEW030 BKN045 14/07 Q1021 RMK     2CU030 5SC045 A3018=,- RA
20180203_133000.001,0,ROAH,,,,0,20180203130000,-1,-1,-1,-1,360,-1,19,-1,-1,-1,-1,,9999,0,1,2,FEW 30   BKN 45,1,14,1,8,1022,ROAH 031330Z 36019KT 9999 -RA FEW030 BKN045 14/08 Q1022 RMK     1CU030 5SC045 A3018=,- RA
20180203_140000.002,0,ROAH,,,,0,20180203140000,-1,-1,-1,-1,360,-1,21,-1,-1,-1,-1,,9999,0,1,2,FEW 30   BKN 45,1,14,1,7,1022,ROAH 031400Z 36021KT 9999 -RA FEW030 BKN045 14/07 Q1022 RMK     1CU030 6SC045 A3018=,- RA
20180203_143000.001,0,ROAH,,,,0,20180203140000,-1,-1,-1,-1,360,-1,20,-1,-1,-1,-1,,9999,0,1,2,FEW 25   BKN 45,1,13,1,8,1022,ROAH 031430Z 36020KT 9999 -RA FEW025 BKN045 13/08 Q1022 RMK     1CU025 5SC045 A3018=,- RA
20180203_150000.002,0,ROAH,,,,0,20180203150000,-1,-1,-1,-1,360,-1,17,-1,-1,-1,-1,,9999,0,1,2,SCT 25   BKN 45,1,13,1,8,1022,ROAH 031500Z 36017KT 9999 -RA SCT025 BKN045 13/08 Q1022 RMK     3CU025 5SC045 A3018=,- RA
20180203_153000.001,0,ROAH,,,,0,20180203150000,-1,-1,-1,-1,360,-1,18,-1,-1,-1,-1,,9999,0,1,2,SCT 30   BKN 45,1,13,1,8,1021,ROAH 031530Z 36018KT 9999 -RA SCT030 BKN045 13/08 Q1021 RMK     3CU030 6SC045 A3017=,- RA
20180203_160000.002,0,ROAH,,,,0,20180203160000,-1,-1,-1,-1,350,-1,18,-1,-1,-1,-1,,9999,0,1,2,SCT 30   BKN 45,1,13,1,7,1022,ROAH 031600Z 35018KT 9999 -RA SCT030 BKN045 13/07 Q1022 RMK     4CU030 6SC045 A3018=,- RA
20180203_163000.001,0,ROAH,,,,0,20180203160000,-1,-1,-1,-1,360,-1,18,-1,-1,-1,-1,,9999,0,1,2,SCT 30   BKN 45,1,13,1,8,1021,ROAH 031630Z 36018KT 9999 -RA SCT030 BKN045 13/08 Q1021 RMK     4CU030 6SC045 A3017=,- RA
20180203_170000.002,0,ROAH,,,,0,20180203170000,-1,-1,-1,-1,10,-1,19,-1,-1,-1,-1,,9999,0,1,2,SCT 30   BKN 40,1,13,1,7,1021,ROAH 031700Z 01019KT 9999 -RA SCT030 BKN040 13/07 Q1021 RMK     3CU030 6SC040 A3017=,- RA
20180203_173000.001,0,ROAH,,,,0,20180203170000,-1,-1,-1,-1,10,-1,17,-1,-1,-1,-1,,9999,0,1,2,FEW 30   BKN 45,1,13,1,8,1021,ROAH 031730Z 01017KT 9999 -RA FEW030 BKN045 13/08 Q1021 RMK     2CU030 6SC045 A3016=,- RA
20180203_180000.003,0,ROAH,,,,0,20180203180000,-1,-1,-1,-1,360,-1,20,-1,-1,-1,-1,,9999,0,1,2,FEW 30   BKN 40,1,13,1,8,1021,ROAH 031800Z 36020KT 9999 -RA FEW030 BKN040 13/08 Q1021 RMK     2CU030 6SC040 A3016=,- RA
20180203_183000.001,0,ROAH,,,,0,20180203180000,-1,-1,-1,-1,360,-1,21,-1,-1,-1,-1,,9999,0,1,2,SCT 30   BKN 45,1,13,1,8,1021,ROAH 031830Z 36021KT 9999 -RA SCT030 BKN045 13/08 Q1021 RMK     4CU030 7SC045 A3016=,- RA
20180203_190000.002,0,ROAH,,,,0,20180203190000,-1,-1,-1,-1,350,-1,20,-1,-1,-1,-1,,9999,0,1,2,BKN 30   BKN 45,1,13,1,8,1021,ROAH 031900Z 35020KT 9999 -RA BKN030 BKN045 13/08 Q1021 RMK     5CU030 7SC045 A3016=,- RA
20180203_193000.001,0,ROAH,,,,0,20180203190000,-1,-1,-1,-1,350,-1,20,-1,-1,-1,-1,,9999,0,1,2,SCT 25   BKN 40,1,13,1,7,1021,ROAH 031930Z 35020KT 9999 -RA SCT025 BKN040 13/07 Q1021 RMK     4CU025 7SC040 A3017=,- RA
20180203_200000.002,0,ROAH,,,,0,20180203200000,-1,-1,-1,-1,360,-1,21,-1,-1,-1,-1,,9999,0,1,2,SCT 25   BKN 40,1,12,1,8,1021,ROAH 032000Z 36021KT 9999 -RA SCT025 BKN040 12/08 Q1021 RMK     3CU025 6SC040 A3017=,- RA
20180203_203000.001,0,ROAH,,,,0,20180203200000,-1,-1,-1,-1,10,-1,21,-1,-1,-1,-1,,9999,0,1,2,SCT 25   BKN 40,1,12,1,8,1021,ROAH 032030Z 01021KT 9999 -RA SCT025 BKN040 12/08 Q1021 RMK     4CU025 7SC040 A3016=,- RA
20180203_210000.002,0,ROAH,,,,0,20180203210000,-1,-1,-1,-1,360,-1,21,-1,-1,-1,-1,,9999,0,1,2,SCT 25   BKN 40,1,12,1,8,1021,ROAH 032100Z 36021KT 9999 -RA SCT025 BKN040 12/08 Q1021 RMK     4CU025 7SC040 A3017=,- RA
20180203_213000.001,0,ROAH,,,,0,20180203210000,-1,-1,-1,-1,10,-1,18,-1,-1,-1,-1,,9999,0,1,2,BKN 30   BKN 40,1,12,1,7,1022,ROAH 032130Z 01018KT 9999 -RA BKN030 BKN040 12/07 Q1022 RMK     5CU030 7SC040 A3018=,- RA
20180203_220000.002,0,ROAH,,,,0,20180203220000,-1,-1,-1,-1,360,-1,19,-1,-1,-1,-1,,9999,0,1,2,SCT 30   BKN 40,1,13,1,7,1022,ROAH 032200Z 36019KT 9999 -RA SCT030 BKN040 13/07 Q1022 RMK     4CU030 6SC040 A3019=,- RA
20180203_223000.002,0,ROAH,,,,0,20180203220000,-1,-1,-1,-1,20,-1,13,-1,-1,-1,-1,,9999,0,1,2,BKN 30   BKN 40,1,13,1,7,1022,ROAH 032230Z 02013KT 9999 -RA BKN030 BKN040 13/07 Q1022 RMK     6CU030 7SC040 A3018=,- RA
20180203_230000.002,0,ROAH,,,,0,20180203230000,-1,-1,-1,-1,360,-1,20,-1,-1,-1,-1,,9999,0,1,2,BKN 30   BKN 50,1,13,1,8,1022,ROAH 032300Z 36020KT 9999 -RA BKN030 BKN050 13/08 Q1022 RMK     5CU030 7SC050 A3019=,- RA
20180203_233000.001,0,ROAH,,,,0,20180203230000,-1,-1,-1,-1,360,-1,20,-1,-1,-1,-1,,9999,0,1,2,BKN 30   BKN 50,1,13,1,7,1022,ROAH 032330Z 36020KT 9999 -RA BKN030 BKN050 13/07 Q1022 RMK     6CU030 7SC050 A3020 MOD TURB OBS AT 2310Z 20NM SW ROAH           BTN 6000FT AND 5000FT A320=,- RA
20180204_000000.002,0,ROAH,,,,0,20180204000000,-1,-1,-1,-1,10,-1,18,-1,-1,-1,-1,,9999,0,1,2,BKN 30   BKN 50,1,13,1,6,1022,ROAH 040000Z 01018KT 9999 -RA BKN030 BKN050 13/06 Q1022 RMK     6CU030 7SC050 A3021=,- RA
20180204_003000.001,0,ROAH,,,,0,20180204000000,-1,-1,-1,-1,10,-1,18,-1,-1,-1,-1,,9999,0,1,2,BKN 30   BKN 45,1,13,1,6,1023,ROAH 040030Z 01018KT 9999 -RA BKN030 BKN045 13/06 Q1023 RMK     5CU030 7SC045 A3021=,- RA
20180204_010000.002,0,ROAH,,,,0,20180204010000,-1,-1,-1,-1,10,-1,18,-1,-1,-1,-1,,9999,0,1,2,SCT 30   BKN 50,1,13,1,6,1023,ROAH 040100Z 01018KT 9999 -RA SCT030 BKN050 13/06 Q1023 RMK     4CU030 7SC050 A3022=,- RA
20180204_013000.001,0,ROAH,,,,0,20180204010000,-1,-1,-1,-1,10,-1,17,-1,-1,-1,-1,,9999,0,1,2,BKN 28   BKN 40,1,13,1,8,1023,ROAH 040130Z 01017KT 9999 -RA BKN028 BKN040 13/08 Q1023 RMK     5CU028 7SC040 A3021=,- RA
20180204_020000.002,0,ROAH,,,,0,20180204020000,-1,-1,-1,-1,10,-1,18,-1,-1,-1,-1,,9999,0,1,2,SCT 30   BKN 45,1,13,1,6,1022,ROAH 040200Z 01018KT 9999 -RA SCT030 BKN045 13/06 Q1022 RMK     4CU030 7SC045 A3021=,- RA
20180204_023000.001,0,ROAH,,,,0,20180204020000,-1,-1,-1,-1,360,-1,17,-1,-1,-1,-1,,9999,0,1,2,SCT 30   BKN 50,1,13,1,7,1022,ROAH 040230Z 36017KT 9999 -RA SCT030 BKN050 13/07 Q1022 RMK     4CU030 7SC050 A3020=,- RA
20180204_030000.002,0,ROAH,,,,0,20180204030000,-1,-1,-1,-1,360,-1,16,-1,-1,-1,-1,,9999,0,0,3,SCT 30   BKN 50   BKN 70,1,13,1,7,1022,ROAH 040300Z 36016KT 9999 SCT030 BKN050 BKN070 13/07 Q1022 RMK     4CU030 5SC050 7AC070 A3019=,
20180204_033000.001,0,ROAH,,,,0,20180204030000,-1,-1,-1,-1,10,-1,19,-1,-1,-1,-1,,9999,0,1,2,SCT 25   BKN 40,1,13,1,6,1022,ROAH 040330Z 01019KT 9999 -RA SCT025 BKN040 13/06 Q1022 RMK     4CU025 7SC040 A3019=,- RA
20180204_040000.002,0,ROAH,,,,0,20180204040000,-1,-1,-1,-1,10,-1,19,-1,-1,-1,-1,,9999,0,1,2,SCT 25   BKN 45,1,13,1,7,1021,ROAH 040400Z 01019KT 9999 -RA SCT025 BKN045 13/07 Q1021 RMK     4CU025 7SC045 A3018=,- RA
20180204_043000.001,0,ROAH,,,,0,20180204040000,-1,-1,-1,-1,360,-1,20,-1,-1,-1,-1,,9999,0,1,3,FEW 25   SCT 30   BKN 50,1,13,1,8,1021,ROAH 040430Z 36020KT 9999 -RA FEW025 SCT030 BKN050 13/08 Q1021     RMK 2CU025 3CU030 7SC050 A3016=,- RA
20180204_050000.002,0,ROAH,,,,0,20180204050000,-1,-1,-1,-1,360,-1,20,-1,-1,-1,-1,,9999,0,0,3,FEW 24   SCT 30   BKN 40,1,13,1,6,1021,ROAH 040500Z 36020KT 9999 FEW024 SCT030 BKN040 13/06 Q1021 RMK     1CU024 4CU030 6SC040 A3016 MOD TURB OBS AT 0440Z 20NM SW           NHC BTN 7000FT AND 5000FT B738=,
20180204_053000.001,0,ROAH,,,,0,20180204050000,-1,-1,-1,-1,360,-1,20,-1,-1,-1,-1,,9999,0,1,3,FEW 24   SCT 30   BKN 45,1,13,1,6,1021,ROAH 040530Z 36020KT 9999 VCSH FEW024 SCT030 BKN045 13/06     Q1021 RMK 1CU024 3CU030 7SC045 A3015=,VC SH
20180204_060000.002,0,ROAH,,,,0,20180204060000,-1,-1,-1,-1,360,-1,20,-1,-1,-1,-1,,9999,0,1,3,FEW 25   SCT 30   BKN 45,1,13,1,6,1021,ROAH 040600Z 36020KT 9999 -RA FEW025 SCT030 BKN045 13/06 Q1021     RMK 1CU025 3CU030 7SC045 A3016=,- RA
20180204_063000.001,0,ROAH,,,,0,20180204060000,-1,-1,-1,-1,360,-1,19,-1,-1,-1,-1,,9999,0,1,3,FEW 25   SCT 30   BKN 45,1,13,1,6,1021,ROAH 040630Z 36019KT 9999 -RA FEW025 SCT030 BKN045 13/06 Q1021     RMK 1CU025 3CU030 7SC045 A3016=,- RA
20180204_070000.002,0,ROAH,,,,0,20180204070000,-1,-1,-1,-1,360,-1,21,-1,-1,-1,-1,,9999,0,1,3,FEW 25   SCT 35   BKN 60,1,13,1,6,1021,ROAH 040700Z 36021KT 9999 -RA FEW025 SCT035 BKN060 13/06 Q1021     RMK 1CU025 3CU035 7SC060 A3017=,- RA
20180204_073000.001,0,ROAH,,,,0,20180204070000,-1,-1,-1,-1,360,-1,22,-1,-1,-1,-1,,9999,0,1,3,FEW 25   SCT 35   BKN 50,1,12,1,6,1021,ROAH 040730Z 36022KT 9999 -RA FEW025 SCT035 BKN050 12/06     Q1021 RMK 2CU025 3CU035 7SC050 A3017=,- RA
20180204_073000.001,2,ROAH,,,,0,20180204070000,-1,-1,-1,-1,360,-1,22,-1,-1,-1,-1,,9999,0,1,3,FEW 25   SCT 35   BKN 50,1,12,1,6,1021,ROAH 040730Z 36022KT 9999 -RA FEW025 SCT035 BKN050 12/06     Q1021 RMK 2CU025 3CU035 7SC050 A3017=,- RA
20180204_080000.002,0,ROAH,,,,0,20180204080000,-1,-1,-1,-1,350,-1,23,-1,-1,-1,-1,,9999,0,1,3,FEW 25   SCT 30   BKN 50,1,12,1,6,1022,ROAH 040800Z 35023KT 9999 -RA FEW025 SCT030 BKN050 12/06 Q1022     RMK 1CU025 3CU030 7SC050 A3018=,- RA
20180204_083000.001,0,ROAH,,,,0,20180204080000,-1,-1,-1,-1,10,-1,19,-1,-1,-1,-1,,9999,0,1,3,FEW 25   BKN 30   BKN 50,1,12,1,5,1022,ROAH 040830Z 01019KT 9999 -RA FEW025 BKN030 BKN050 12/05 Q1022     RMK 1CU025 5CU030 7SC050 A3018=,- RA
20180204_090000.002,0,ROAH,,,,0,20180204090000,-1,-1,-1,-1,350,-1,21,-1,-1,-1,-1,,9999,0,0,2,BKN 30   BKN 50,1,12,1,5,1022,ROAH 040900Z 35021KT 9999 BKN030 BKN050 12/05 Q1022 RMK 5CU030     7SC050 A3019=,
20180204_093000.001,0,ROAH,,,,0,20180204090000,-1,-1,-1,-1,10,-1,21,-1,-1,-1,-1,,9999,0,1,2,BKN 30   BKN 50,1,12,1,6,1022,ROAH 040930Z 01021KT 9999 -RA BKN030 BKN050 12/06 Q1022 RMK     5CU030 7SC050 A3020=,- RA
20180204_100000.002,0,ROAH,,,,0,20180204100000,-1,-1,-1,-1,10,-1,20,-1,-1,-1,-1,,9999,0,1,2,SCT 32   BKN 50,1,12,1,4,1022,ROAH 041000Z 01020KT 9999 -RA SCT032 BKN050 12/04 Q1022 RMK     4CU032 7SC050 A3020=,- RA
20180204_103000.001,0,ROAH,,,,0,20180204100000,-1,-1,-1,-1,10,-1,19,-1,-1,-1,-1,,9999,0,1,2,BKN 38   BKN 50,1,12,1,4,1022,ROAH 041030Z 01019KT 9999 -RA BKN038 BKN050 12/04 Q1022 RMK     5SC038 7SC050 A3020=,- RA
20180204_110000.003,0,ROAH,,,,0,20180204110000,-1,-1,-1,-1,360,-1,20,-1,-1,-1,-1,,9999,0,1,2,BKN 35   BKN 50,1,12,1,4,1022,ROAH 041100Z 36020KT 9999 -RA BKN035 BKN050 12/04 Q1022 RMK     5SC035 7SC050 A3021=,- RA
20180204_113000.001,0,ROAH,,,,0,20180204110000,-1,-1,-1,-1,10,-1,20,-1,-1,-1,-1,,9999,0,1,2,BKN 35   BKN 44,1,12,1,5,1023,ROAH 041130Z 01020KT 9999 -RA BKN035 BKN044 12/05 Q1023 RMK     5SC035 7SC044 A3021=,- RA
20180204_120000.002,0,ROAH,,,,0,20180204120000,-1,-1,-1,-1,360,-1,20,-1,-1,-1,-1,,9999,0,1,2,SCT 35   BKN 45,1,13,1,4,1023,ROAH 041200Z 36020KT 9999 -RA SCT035 BKN045 13/04 Q1023 RMK     3SC035 6SC045 A3021 MOD TURB OBS AT 1141Z 25NM SW NHC BTN           8000FT AND 4000FT A320=,- RA
20180204_123000.001,0,ROAH,,,,0,20180204120000,-1,-1,-1,-1,10,-1,18,-1,-1,-1,-1,,9999,0,1,2,SCT 35   BKN 45,1,12,1,5,1023,ROAH 041230Z 01018KT 9999 -RA SCT035 BKN045 12/05 Q1023 RMK     3SC035 7SC045 A3022=,- RA
20180204_130000.002,0,ROAH,,,,0,20180204130000,-1,-1,-1,-1,10,-1,16,-1,-1,-1,-1,,9999,0,1,3,FEW 35   BKN 40   BKN 50,1,12,1,4,1023,ROAH 041300Z 01016KT 9999 -RA FEW035 BKN040 BKN050 12/04 Q1023     RMK 2SC035 5SC040 7SC050 A3023=,- RA
20180204_133000.001,0,ROAH,,,,0,20180204130000,-1,-1,-1,-1,10,-1,17,-1,-1,-1,-1,,9999,0,1,3,FEW 35   SCT 40   BKN 50,1,12,1,4,1023,ROAH 041330Z 01017KT 9999 -RA FEW035 SCT040 BKN050 12/04 Q1023     RMK 2SC035 3SC040 7SC050 A3021=,- RA
20180204_140000.002,0,ROAH,,,,0,20180204140000,-1,-1,-1,-1,360,-1,19,-1,-1,-1,-1,,9999,0,1,3,FEW 35   SCT 40   BKN 90,1,12,1,4,1023,ROAH 041400Z 36019KT 9999 -RA FEW035 SCT040 BKN090 12/04 Q1023     RMK 1SC035 3SC040 7AC090 A3021=,- RA
20180204_143000.001,0,ROAH,,,,0,20180204140000,-1,-1,-1,-1,10,-1,18,-1,-1,-1,-1,,9999,0,1,3,FEW 30   SCT 40   BKN 50,1,12,1,4,1023,ROAH 041430Z 01018KT 9999 VCSH FEW030 SCT040 BKN050 12/04     Q1023 RMK 2CU030 3SC040 6SC050 A3022=,VC SH
20180204_150000.002,0,ROAH,,,,0,20180204150000,-1,-1,-1,-1,20,-1,15,-1,-1,-1,-1,,9999,0,1,3,SCT 30   BKN 40   BKN 50,1,12,1,6,1023,ROAH 041500Z 02015KT 9999 -RA SCT030 BKN040 BKN050 12/06 Q1023     RMK 3CU030 5SC040 7SC050 A3021=,- RA
20180204_153000.001,0,ROAH,,,,0,20180204150000,-1,-1,-1,-1,10,-1,16,-1,-1,-1,-1,,9999,0,1,3,SCT 30   BKN 40   BKN 50,1,12,1,5,1022,ROAH 041530Z 01016KT 9999 -RA SCT030 BKN040 BKN050 12/05 Q1022     RMK 3CU030 5SC040 7SC050 A3020=,- RA
20180204_160000.002,0,ROAH,,,,0,20180204160000,-1,-1,-1,-1,40,-1,11,-1,-1,-1,-1,,9999,0,1,3,SCT 30   BKN 35   BKN 45,1,12,1,5,1022,ROAH 041600Z 04011KT 9999 -RA SCT030 BKN035 BKN045 12/05 Q1022     RMK 3CU030 5SC035 7SC045 A3020=,- RA
20180204_163000.001,0,ROAH,,,,0,20180204160000,-1,-1,-1,-1,10,-1,20,-1,-1,-1,-1,,9999,0,1,3,FEW 30   SCT 35   BKN 45,1,11,1,5,1022,ROAH 041630Z 01020KT 9999 -RA FEW030 SCT035 BKN045 11/05 Q1022     RMK 2CU030 3SC035 6SC045 A3019=,- RA
20180204_170000.002,0,ROAH,,,,0,20180204170000,-1,-1,-1,-1,360,-1,19,-1,-1,-1,-1,,9999,0,1,3,FEW 30   SCT 35   BKN 45,1,11,1,5,1022,ROAH 041700Z 36019KT 9999 -RA FEW030 SCT035 BKN045 11/05 Q1022     RMK 1CU030 3SC035 5SC045 A3018=,- RA
20180204_173000.001,0,ROAH,,,,0,20180204170000,-1,-1,-1,-1,10,-1,19,-1,-1,-1,-1,,9999,0,1,3,FEW 30   SCT 35   BKN 80,1,12,1,4,1022,ROAH 041730Z 01019KT 9999 -RA FEW030 SCT035 BKN080 12/04 Q1022     RMK 1CU030 4SC035 7AC080 A3019=,- RA
20180204_180000.003,0,ROAH,,,,0,20180204180000,-1,-1,-1,-1,360,-1,19,-1,-1,-1,-1,,9999,0,1,3,FEW 30   SCT 40   BKN 50,1,12,1,4,1022,ROAH 041800Z 36019KT 9999 -RA FEW030 SCT040 BKN050 12/04 Q1022     RMK 1CU030 4SC040 6SC050 A3019=,- RA
20180204_183000.001,0,ROAH,,,,0,20180204180000,-1,-1,-1,-1,10,-1,19,-1,-1,-1,-1,,9999,0,1,3,FEW 30   SCT 35   BKN 50,1,12,1,4,1022,ROAH 041830Z 01019KT 9999 -RA FEW030 SCT035 BKN050 12/04 Q1022     RMK 1CU030 3SC035 6SC050 A3018=,- RA
20180204_190000.002,0,ROAH,,,,0,20180204190000,-1,-1,-1,-1,10,-1,18,-1,-1,-1,-1,,9999,0,1,3,FEW 30   SCT 35   BKN 50,1,11,1,5,1022,ROAH 041900Z 01018KT 9999 -RA FEW030 SCT035 BKN050 11/05 Q1022     RMK 1CU030 4SC035 6SC050 A3018=,- RA
20180204_193000.001,0,ROAH,,,,0,20180204190000,-1,-1,-1,-1,350,-1,17,-1,-1,-1,-1,,9999,0,1,3,FEW 30   SCT 35   BKN 50,1,12,1,5,1021,ROAH 041930Z 35017KT 9999 -RA FEW030 SCT035 BKN050 12/05 Q1021     RMK 1CU030 4SC035 6SC050 A3018=,- RA
20180204_200000.002,0,ROAH,,,,0,20180204200000,-1,-1,-1,-1,10,-1,20,-1,-1,-1,-1,,9999,0,1,3,FEW 30   SCT 38   BKN 50,1,12,1,5,1022,ROAH 042000Z 01020KT 9999 -RA FEW030 SCT038 BKN050 12/05 Q1022     RMK 2CU030 3SC038 6SC050 A3018=,- RA
20180204_203000.001,0,ROAH,,,,0,20180204200000,-1,-1,-1,-1,360,-1,18,-1,-1,-1,-1,,9999,0,1,3,FEW 30   SCT 35   BKN 50,1,11,1,6,1022,ROAH 042030Z 36018KT 9999 -RA FEW030 SCT035 BKN050 11/06 Q1022     RMK 2CU030 4SC035 6SC050 A3018=,- RA
20180204_210000.002,0,ROAH,,,,0,20180204210000,-1,-1,-1,-1,360,-1,20,-1,-1,-1,-1,,9999,0,1,3,FEW 28   BKN 50   BKN 70,1,11,1,5,1022,ROAH 042100Z 36020KT 9999 -RA FEW028 BKN050 BKN070 11/05 Q1022     RMK 1CU028 5SC050 7AC070 A3018=,- RA
20180204_213000.001,0,ROAH,,,,0,20180204210000,-1,-1,-1,-1,360,-1,18,-1,28,-1,-1,,9999,0,1,3,SCT 26   SCT 60   BKN 70,1,11,1,6,1022,ROAH 042130Z 36018G28KT 9999 -RA SCT026 SCT060 BKN070 11/06     Q1022 RMK 3CU026 4SC060 7AC070 A3018=,- RA
20180204_220000.002,0,ROAH,,,,0,20180204220000,-1,-1,-1,-1,360,-1,20,-1,-1,-1,-1,,9999,0,1,2,SCT 26   BKN 50,1,11,1,5,1022,ROAH 042200Z 36020KT 9999 -RA SCT026 BKN050 11/05 Q1022 RMK     4CU026 6SC050 A3019=,- RA
20180204_223000.002,0,ROAH,,,,0,20180204220000,-1,-1,-1,-1,10,-1,18,-1,-1,-1,-1,,9999,0,1,2,SCT 30   BKN 50,1,12,1,5,1022,ROAH 042230Z 01018KT 9999 -RA SCT030 BKN050 12/05 Q1022 RMK     3CU030 6SC050 A3020=,- RA
20180204_230000.002,0,ROAH,,,,0,20180204230000,-1,-1,-1,-1,10,-1,16,-1,-1,-1,-1,,9999,0,1,2,SCT 34   BKN 50,1,11,1,5,1022,ROAH 042300Z 01016KT 9999 -RA SCT034 BKN050 11/05 Q1022 RMK     3CU034 7SC050 A3021=,- RA
20180204_233000.001,0,ROAH,,,,0,20180204230000,-1,-1,-1,-1,360,-1,17,-1,-1,-1,-1,,9999,0,1,2,SCT 37   BKN 50,1,11,1,5,1023,ROAH 042330Z 36017KT 9999 -RA SCT037 BKN050 11/05 Q1023 RMK     3SC037 6SC050 A3021=,- RA
20180205_000000.003,0,ROAH,,,,0,20180205000000,-1,-1,-1,-1,20,-1,16,-1,-1,-1,-1,,9999,0,1,3,FEW 35   SCT 40   BKN 50,1,11,1,5,1023,ROAH 050000Z 02016KT 9999 -RA FEW035 SCT040 BKN050 11/05 Q1023     RMK 1CU035 3SC040 6SC050 A3021=,- RA
20180205_003000.001,0,ROAH,,,,0,20180205000000,-1,-1,-1,-1,360,-1,16,-1,-1,-1,-1,,9999,0,1,3,FEW 30   SCT 40   BKN 50,1,12,1,5,1023,ROAH 050030Z 36016KT 9999 -RA FEW030 SCT040 BKN050 12/05 Q1023     RMK 2CU030 3SC040 6SC050 A3021=,- RA
20180205_010000.002,0,ROAH,,,,0,20180205010000,-1,-1,-1,-1,360,-1,13,-1,-1,-1,-1,,9999,0,1,3,FEW 30   SCT 40   BKN 50,1,11,1,5,1023,ROAH 050100Z 36013KT 9999 -RA FEW030 SCT040 BKN050 11/05 Q1023     RMK 2CU030 3SC040 6SC050 A3021=,- RA
20180205_013000.001,0,ROAH,,,,0,20180205010000,-1,-1,-1,-1,350,-1,21,-1,-1,-1,-1,,9999,0,1,3,FEW 30   SCT 40   BKN 50,1,12,1,6,1023,ROAH 050130Z 35021KT 9999 -RA FEW030 SCT040 BKN050 12/06 Q1023     RMK 2CU030 3SC040 6SC050 A3021=,- RA
20180205_020000.002,0,ROAH,,,,0,20180205020000,-1,-1,-1,-1,350,-1,18,-1,-1,-1,-1,,9999,0,1,3,FEW 30   SCT 40   BKN 50,1,12,1,5,1022,ROAH 050200Z 35018KT 9999 -RA FEW030 SCT040 BKN050 12/05 Q1022     RMK 2CU030 3SC040 6SC050 A3021=,- RA
20180205_023000.001,0,ROAH,,,,0,20180205020000,-1,-1,-1,-1,350,-1,19,-1,-1,-1,-1,,9999,0,1,3,FEW 30   SCT 40   BKN 70,1,13,1,6,1022,ROAH 050230Z 35019KT 9999 -RA FEW030 SCT040 BKN070 13/06 Q1022     RMK 2CU030 3SC040 6AC070 A3020 MOD TURB OBS AT 0215Z 10NM           W ROAH BTN 8000FT AND 9000FT B738=,- RA
