20180101_000000.004,0,RODN,,,,1,20171231230000,-1,-1,-1,-1,50,-1,6,-1,-1,-1,-1,,-1,0,0,1,FEW 49,1,16,1,9,1024,RODN 312356Z AUTO 05006KT 10SM FEW049 16/09 A3023 RMK AO2     SLP244 70004 T01590093 10159 20086 52020=,
20180101_010000.002,0,RODN,,,,1,20180101000000,-1,-1,-1,-1,40,-1,15,-1,-1,-1,-1,,-1,0,0,1,SCT 45,1,19,1,9,1024,RODN 010056Z AUTO 04015KT 10SM SCT045 19/09 A3024 RMK AO2     SLP247 T01870086=,
20180101_020000.002,0,RODN,,,,1,20180101010000,-1,-1,-1,-1,30,-1,11,-1,-1,-1,-1,,-1,0,0,0,,1,19,1,7,1024,RODN 010156Z AUTO 03011KT 10SM CLR 19/07 A3023 RMK AO2 SLP244     T01900065=,
20180101_030000.002,0,RODN,,,,1,20180101020000,-1,-1,-1,-1,30,-1,12,-1,-1,-1,-1,,-1,0,0,0,,1,20,1,8,1023,RODN 010256Z AUTO 03012KT 10SM CLR 20/08 A3021 RMK AO2 SLP237     T01950082 58007=,
20180101_040000.002,0,RODN,,,,1,20180101030000,-1,-1,-1,-1,20,-1,14,-1,-1,-1,-1,,-1,0,0,2,SCT 42   BKN 50,1,19,1,9,1022,RODN 010356Z AUTO 02014KT 10SM SCT042 BKN050 19/09 A3019 RMK     AO2 SLP231 T01930089=,
20180101_050000.002,0,RODN,,,,1,20180101040000,-1,-1,-1,-1,10,-1,11,-1,18,-1,-1,,-1,0,0,1,FEW 49,1,20,1,9,1022,RODN 010456Z AUTO 01011G18KT 10SM FEW049 20/09 A3017 RMK AO2     SLP224 T01970087=,
20180101_060000.002,0,RODN,,,,1,20180101050000,-1,-1,-1,-1,20,-1,13,-1,21,-1,-1,,-1,0,0,1,FEW 42,1,19,1,9,1021,RODN 010556Z AUTO 02013G21KT 10SM FEW042 19/09 A3016 RMK AO2     SLP221 T01930089 10200 20160 56017=,
20180101_070000.002,0,RODN,,,,1,20180101060000,-1,-1,-1,-1,10,-1,10,-1,-1,-1,-1,,-1,0,0,1,FEW 47,1,19,1,8,1021,RODN 010656Z AUTO 01010KT 10SM FEW047 19/08 A3016 RMK AO2     SLP220 T01850076=,
20180101_080000.002,0,RODN,,,,1,20180101070000,-1,-1,-1,-1,30,-1,10,-1,-1,-1,-1,,-1,0,0,0,,1,18,1,7,1022,RODN 010756Z AUTO 03010KT 10SM CLR 18/07 A3017 RMK AO2 SLP224     T01750067=,
20180101_090000.002,0,RODN,,,,1,20180101080000,-1,-1,-1,-1,40,-1,9,-1,-1,-1,-1,,-1,0,0,0,,1,15,1,8,1022,RODN 010856Z AUTO 04009KT 10SM CLR 15/08 A3018 RMK AO2 SLP228     T01540077 53008=,
20180101_100000.002,0,RODN,,,,1,20180101090000,-1,-1,-1,-1,50,-1,8,-1,-1,-1,-1,,-1,0,0,1,FEW 42,1,13,1,8,1022,RODN 010956Z AUTO 05008KT 10SM FEW042 13/08 A3019 RMK AO2     SLP232 T01310077=,
20180101_110000.002,0,RODN,,,,1,20180101100000,-1,-1,-1,-1,40,-1,10,-1,-1,-1,-1,,-1,0,0,0,,1,14,1,7,1023,RODN 011056Z AUTO 04010KT 10SM CLR 14/07 A3020 RMK AO2 SLP235     T01390074=,
20180101_120000.002,0,RODN,,,,1,20180101110000,-1,-1,-1,-1,70,-1,4,-1,-1,-1,-1,,-1,0,0,0,,1,10,1,6,1023,RODN 011156Z AUTO 07004KT 10SM CLR 10/06 A3021 RMK AO2 SLP238     T00990061 10193 20097 53008=,
20180101_130000.002,0,RODN,,,,1,20180101120000,-1,-1,-1,-1,60,-1,7,-1,-1,-1,-1,,-1,0,0,0,,1,10,1,7,1023,RODN 011256Z AUTO 06007KT 10SM CLR 10/07 A3022 RMK AO2 SLP241     T01000065=,
20180101_140000.002,0,RODN,,,,1,20180101130000,-1,-1,-1,-1,60,-1,8,-1,-1,-1,-1,,-1,0,0,0,,1,10,1,7,1023,RODN 011356Z AUTO 06008KT 10SM CLR 10/07 A3022 RMK AO2 SLP241     T00970068=,
20180101_150000.002,0,RODN,,,,1,20180101140000,-1,-1,-1,-1,40,-1,6,-1,-1,-1,-1,,-1,0,0,1,BKN 47,1,11,1,8,1023,RODN 011456Z AUTO 04006KT 10SM BKN047 11/08 A3022 RMK AO2     SLP241 T01080080 402000086 50004=,
20180101_160000.002,0,RODN,,,,1,20180101150000,-1,-1,-1,-1,50,-1,5,-1,-1,-1,-1,,-1,0,0,0,,1,9,1,7,1024,RODN 011556Z AUTO 05005KT 10SM CLR 09/07 A3023 RMK AO2 SLP245     T00910065=,
20180101_170000.002,0,RODN,,,,1,20180101160000,-1,-1,-1,-1,60,-1,3,-1,-1,-1,-1,,-1,0,0,1,FEW 50,1,10,1,7,1024,RODN 011656Z AUTO 06003KT 10SM FEW050 10/07 A3023 RMK AO2     SLP245 T01020067=,
20180101_180000.001,0,RODN,,,,1,20180101170000,-1,-1,-1,-1,70,-1,3,-1,-1,-1,-1,,-1,0,0,2,FEW 40   SCT 50,1,9,1,7,1024,RODN 011756Z AUTO 07003KT 10SM FEW040 SCT050 09/07 A3023 RMK     AO2 SLP245 T00890065 10115 20086 50003=,
20180101_190000.001,0,RODN,,,,1,20180101180000,-1,-1,-1,-1,70,-1,5,-1,-1,-1,-1,,-1,0,0,1,BKN 50,1,10,1,8,1023,RODN 011856Z AUTO 07005KT 10SM BKN050 10/08 A3022 RMK AO2     SLP241 T01000078=,
20180101_200000.001,0,RODN,,,,1,20180101190000,-1,-1,-1,-1,60,-1,8,-1,-1,-1,-1,,-1,0,0,1,FEW 55,1,10,1,8,1023,RODN 011956Z AUTO 06008KT 10SM FEW055 10/08 A3022 RMK AO2     SLP241 T01020076=,
20180101_210000.002,0,RODN,,,,1,20180101200000,-1,-1,-1,-1,70,-1,8,-1,-1,-1,-1,,-1,0,0,0,,1,10,1,7,1024,RODN 012056Z AUTO 07008KT 10SM CLR 10/07 A3023 RMK AO2 SLP245     T01000072 53001=,
20180101_220000.002,0,RODN,,,,1,20180101210000,-1,-1,-1,-1,60,-1,6,-1,-1,-1,-1,,-1,0,0,1,FEW 47,1,9,1,7,1024,RODN 012156Z AUTO 06006KT 10SM FEW047 09/07 A3024 RMK AO2     SLP249 T00940067=,
20180101_230000.002,0,RODN,,,,1,20180101220000,-1,-1,-1,-1,50,-1,6,-1,-1,-1,-1,,-1,0,0,1,BKN 47,1,12,1,9,1024,RODN 012256Z AUTO 05006KT 10SM BKN047 12/09 A3025 RMK AO2     SLP252 T01170091=,
20180102_000000.005,0,RODN,,,,1,20180101230000,-1,-1,-1,-1,50,-1,8,-1,-1,-1,-1,,-1,0,0,1,FEW 49,1,16,1,9,1025,RODN 012356Z AUTO 05008KT 10SM FEW049 16/09 A3027 RMK AO2     SLP259 T01580090 10158 20086 52013=,
20180102_010000.001,0,RODN,,,,1,20180102000000,-1,-1,-1,-1,70,-1,12,-1,-1,-1,-1,,-1,0,0,1,SCT 50,1,18,1,9,1025,RODN 020056Z AUTO 07012KT 10SM SCT050 18/09 A3027 RMK AO2     SLP258 T01800088=,
20180102_020000.002,0,RODN,,,,1,20180102010000,-1,-1,-1,-1,70,-1,10,-1,-1,-1,-1,,-1,0,0,0,,1,19,1,8,1025,RODN 020156Z AUTO 07010KT 10SM CLR 19/08 A3027 RMK AO2 SLP258     T01900077=,
20180102_030000.002,0,RODN,,,,1,20180102020000,-1,-1,-1,-1,80,-1,9,-1,-1,-1,-1,,-1,0,0,1,FEW 47,1,20,1,8,1024,RODN 020256Z AUTO 08009KT 10SM FEW047 20/08 A3024 RMK AO2     SLP248 T01950076 58010=,
20180102_040000.002,0,RODN,,,,1,20180102030000,-1,-1,-1,-1,80,-1,11,-1,16,-1,-1,,-1,0,0,0,,1,20,1,9,1023,RODN 020356Z AUTO 08011G16KT 10SM CLR 20/09 A3021 RMK AO2     SLP238 T01980088=,
20180102_050000.002,0,RODN,,,,1,20180102040000,-1,-1,-1,-1,60,-1,8,-1,-1,-1,-1,,-1,0,0,1,SCT 48,1,20,1,9,1022,RODN 020456Z AUTO 06008KT 10SM SCT048 20/09 A3019 RMK AO2     SLP231 T01980091=,
20180102_060000.002,0,RODN,,,,1,20180102050000,-1,-1,-1,-1,70,-1,12,-1,18,-1,-1,,-1,0,0,1,OVC 41,1,19,1,9,1022,RODN 020556Z AUTO 07012G18KT 10SM OVC041 19/09 A3018 RMK AO2     SLP228 T01930092 10203 20158 57020=,
20180102_070000.002,0,RODN,,,,1,20180102060000,-1,-1,-1,-1,60,-1,6,-1,-1,-1,-1,,-1,0,0,0,,1,18,1,9,1022,RODN 020656Z AUTO 06006KT 10SM CLR 18/09 A3018 RMK AO2 SLP228     T01820085=,
20180102_080000.002,0,RODN,,,,1,20180102070000,-1,-1,-1,-1,80,-1,11,-1,-1,-1,-1,,-1,0,0,0,,1,18,1,8,1022,RODN 020756Z AUTO 08011KT 10SM CLR 18/08 A3018 RMK AO2 SLP228     T01780078=,
20180102_090000.002,0,RODN,,,,1,20180102080000,-1,-1,-1,-1,70,-1,6,-1,-1,-1,-1,,-1,0,0,1,FEW 43,1,15,1,9,1022,RODN 020856Z AUTO 07006KT 10SM FEW043 15/09 A3019 RMK AO2     SLP231 T01520087 53003=,
20180102_100000.002,0,RODN,,,,1,20180102090000,-1,-1,-1,-1,20,-1,7,-1,-1,-1,-1,,-1,0,0,1,FEW 44,1,15,1,9,1022,RODN 020956Z AUTO 02007KT 10SM FEW044 15/09 A3019 RMK AO2     SLP232 T01480087=,
20180102_110000.002,0,RODN,,,,1,20180102100000,-1,-1,-1,-1,30,-1,8,-1,-1,-1,-1,,-1,0,0,1,BKN 43,1,14,1,8,1023,RODN 021056Z AUTO 03008KT 10SM BKN043 14/08 A3020 RMK AO2     SLP235 T01360084=,
20180102_120000.002,0,RODN,,,,1,20180102110000,-1,-1,-1,-1,40,-1,5,-1,-1,-1,-1,,-1,0,0,0,,1,12,1,8,1023,RODN 021156Z AUTO 04005KT 10SM CLR 12/08 A3020 RMK AO2 SLP235     T01220083 10192 20121 52005=,
20180102_130000.001,0,RODN,,,,1,20180102120000,-1,-1,-1,-1,60,-1,4,-1,-1,-1,-1,,-1,0,0,2,FEW 39   BKN 47,1,12,1,9,1023,RODN 021256Z AUTO 06004KT 10SM FEW039 BKN047 12/09 A3021 RMK     AO2 SLP238 T01220087=,
20180102_140000.001,0,RODN,,,,1,20180102130000,-1,-1,-1,-1,60,-1,5,-1,-1,-1,-1,,-1,0,0,1,BKN 45,1,12,1,9,1023,RODN 021356Z AUTO 06005KT 10SM BKN045 12/09 A3021 RMK AO2     SLP238 T01150087=,
20180102_150000.002,0,RODN,,,,1,20180102140000,-1,-1,-1,-1,50,-1,4,-1,-1,-1,-1,,-1,0,0,0,,1,10,1,8,1023,RODN 021456Z AUTO 05004KT 10SM CLR 10/08 A3021 RMK AO2 SLP238     T01030079 402030086 51002=,
20180102_160000.002,0,RODN,,,,1,20180102150000,-1,-1,-1,-1,60,-1,6,-1,-1,-1,-1,,-1,0,0,0,,1,10,1,8,1023,RODN 021556Z AUTO 06006KT 10SM CLR 10/08 A3022 RMK AO2 SLP241     T00990077=,
20180102_170000.002,0,RODN,,,,1,20180102160000,-1,-1,-1,-1,50,-1,6,-1,-1,-1,-1,,-1,0,0,0,,1,10,1,8,1023,RODN 021656Z AUTO 05006KT 10SM CLR 10/08 A3021 RMK AO2 SLP238     T00990078=,
20180102_180000.001,0,RODN,,,,1,20180102170000,-1,-1,-1,-1,60,-1,7,-1,-1,-1,-1,,-1,0,0,0,,1,11,1,8,1023,RODN 021756Z AUTO 06007KT 10SM CLR 11/08 A3020 RMK AO2 SLP234     T01090078 10125 20095 58004=,
20180102_190000.002,0,RODN,,,,1,20180102180000,-1,-1,-1,-1,70,-1,6,-1,-1,-1,-1,,-1,0,0,0,,1,11,1,7,1023,RODN 021856Z AUTO 07006KT 10SM CLR 11/07 A3020 RMK AO2 SLP234     T01070074=,
20180102_200000.001,0,RODN,,,,1,20180102190000,-1,-1,-1,-1,70,-1,6,-1,-1,-1,-1,,-1,0,0,0,,1,9,1,7,1022,RODN 021956Z AUTO 07006KT 10SM CLR 09/07 A3019 RMK AO2 SLP231     T00890067=,
20180102_210000.002,0,RODN,,,,1,20180102200000,-1,-1,-1,-1,40,-1,7,-1,-1,-1,-1,,-1,0,0,0,,1,9,1,7,1023,RODN 022056Z AUTO 04007KT 10SM CLR 09/07 A3020 RMK AO2 SLP235     T00940070 50002=,
20180102_220000.002,0,RODN,,,,1,20180102210000,-1,-1,-1,-1,70,-1,6,-1,-1,-1,-1,,-1,0,0,0,,1,10,1,7,1023,RODN 022156Z AUTO 07006KT 10SM CLR 10/07 A3021 RMK AO2 SLP238     T00970068=,
20180102_230000.002,0,RODN,,,,1,20180102220000,-1,-1,-1,-1,60,-1,7,-1,-1,-1,-1,,-1,0,0,0,,1,10,1,8,1023,RODN 022256Z AUTO 06007KT 10SM CLR 10/08 A3022 RMK AO2 SLP242     T01030081=,
20180103_000000.004,0,RODN,,,,1,20180102230000,-1,-1,-1,-1,40,-1,5,-1,-1,-1,-1,,-1,0,0,0,,1,16,1,11,1024,RODN 022356Z AUTO 04005KT 10SM CLR 16/11 A3024 RMK AO2 SLP248     T01570111 10157 20084 52011=,
20180103_010000.002,0,RODN,,,,1,20180103000000,-1,-1,-1,-1,70,-1,7,-1,-1,-1,-1,,-1,0,0,0,,1,19,1,11,1024,RODN 030056Z AUTO 07007KT 10SM CLR 19/11 A3024 RMK AO2 SLP248     T01880114=,
20180103_020000.002,0,RODN,,,,1,20180103010000,-1,-1,-1,-1,80,-1,10,-1,16,-1,-1,,-1,0,0,0,,1,20,1,11,1024,RODN 030156Z AUTO 08010G16KT 10SM CLR 20/11 A3024 RMK AO2     SLP248 T02010113=,
20180103_030000.003,0,RODN,,,,1,20180103020000,-1,-1,-1,-1,70,-1,10,-1,-1,-1,-1,,-1,0,0,0,,1,21,1,11,1023,RODN 030256Z AUTO 07010KT 10SM CLR 21/11 A3021 RMK AO2 SLP238     T02060110 58008=,
20180103_040000.002,0,RODN,,,,1,20180103030000,-1,-1,-1,-1,90,-1,9,-1,-1,-1,-1,,-1,0,0,0,,1,21,1,11,1022,RODN 030356Z AUTO 09009KT 10SM CLR 21/11 A3018 RMK AO2 SLP228     T02110111=,
20180103_050000.002,0,RODN,,,,1,20180103040000,-1,-1,-1,-1,60,-1,9,-1,-1,-1,-1,,-1,0,0,2,FEW 39   BKN 48,1,21,1,11,1022,RODN 030456Z AUTO 06009KT 10SM FEW039 BKN048 21/11 A3017 RMK     AO2 SLP224 T02060112=,
20180103_060000.002,0,RODN,,,,1,20180103050000,-1,-1,-1,-1,80,-1,10,-1,-1,-1,-1,,-1,0,0,2,SCT 40   BKN 50,1,20,1,11,1021,RODN 030556Z AUTO 08010KT 10SM SCT040 BKN050 20/11 A3016 RMK     AO2 SLP221 T02040110 10211 20158 57019=,
20180103_070000.002,0,RODN,,,,1,20180103060000,-1,-1,-1,-1,80,-1,7,-1,-1,-1,-1,,-1,0,0,0,,1,20,1,11,1021,RODN 030656Z AUTO 08007KT 10SM CLR 20/11 A3016 RMK AO2 SLP221     T01980108=,
20180103_080000.002,0,RODN,,,,1,20180103070000,-1,-1,-1,-1,70,-1,9,-1,-1,-1,-1,,-1,0,0,1,SCT 41,1,19,1,11,1021,RODN 030756Z AUTO 07009KT 10SM SCT041 19/11 A3016 RMK AO2     SLP221 T01880106=,
20180103_090000.002,0,RODN,,,,1,20180103080000,-1,-1,-1,-1,70,-1,9,-1,-1,-1,-1,,-1,0,0,1,FEW 44,1,17,1,11,1022,RODN 030856Z AUTO 07009KT 10SM FEW044 17/11 A3017 RMK AO2     SLP225 T01720106 52004=,
20180103_100000.002,0,RODN,,,,1,20180103090000,-1,-1,-1,-1,60,-1,7,-1,-1,-1,-1,,-1,0,0,0,,1,14,1,10,1022,RODN 030956Z AUTO 06007KT 10SM CLR 14/10 A3018 RMK AO2 SLP228     T01400104=,
20180103_110000.002,0,RODN,,,,1,20180103100000,-1,-1,-1,-1,60,-1,4,-1,-1,-1,-1,,-1,0,0,1,BKN 55,1,13,1,10,1023,RODN 031056Z AUTO 06004KT 10SM BKN055 13/10 A3020 RMK AO2     SLP235 T01340104=,
20180103_120000.002,0,RODN,,,,1,20180103110000,-1,-1,-1,-1,60,-1,4,-1,-1,-1,-1,,-1,0,0,2,FEW 35   OVC 48,1,15,1,12,1023,RODN 031156Z AUTO 06004KT 10SM FEW035 OVC048 15/12 A3020 RMK     AO2 SLP234 T01520120 10204 20130 50009=,
20180103_130000.001,0,RODN,,,,1,20180103120000,-1,-1,-1,-1,80,-1,9,-1,-1,-1,-1,,-1,0,0,1,OVC 49,1,18,1,11,1023,RODN 031256Z AUTO 08009KT 10SM OVC049 18/11 A3021 RMK AO2     SLP237 T01760112=,
20180103_140000.002,0,RODN,,,,1,20180103130000,-1,-1,-1,-1,40,-1,6,-1,-1,-1,-1,,-1,0,0,2,BKN 39   OVC 50,1,17,1,12,1023,RODN 031356Z AUTO 04006KT 10SM BKN039 OVC050 17/12 A3020 RMK     AO2 SLP234 T01710118=,
20180103_150000.002,0,RODN,,,,1,20180103140000,-1,-1,-1,-1,70,-1,8,-1,-1,-1,-1,,-1,0,0,2,SCT 42   OVC 50,1,18,1,12,1023,RODN 031456Z AUTO 07008KT 10SM SCT042 OVC050 18/12 A3020 RMK     AO2 SLP234 T01800118 402110084 50002=,
20180103_160000.002,0,RODN,,,,1,20180103150000,-1,-1,-1,-1,60,-1,3,-1,-1,-1,-1,,-1,0,0,1,OVC 55,1,17,1,12,1023,RODN 031556Z AUTO 06003KT 10SM OVC055 17/12 A3020 RMK AO2     SLP234 T01720119=,
20180103_170000.002,0,RODN,,,,1,20180103160000,-1,-1,-1,-1,0,-1,0,-1,-1,-1,-1,,-1,0,0,1,OVC 60,1,16,1,12,1022,RODN 031656Z AUTO 00000KT 10SM OVC060 16/12 A3019 RMK AO2     SLP230 T01630124=,
20180103_180000.002,0,RODN,,,,1,20180103170000,-1,-1,-1,-1,80,-1,5,-1,-1,-1,-1,,-1,0,0,1,FEW 65,1,17,1,11,1021,RODN 031756Z AUTO 08005KT 10SM FEW065 17/11 A3016 RMK AO2     SLP220 T01650114 10181 20153 58013=,
20180103_190000.002,0,RODN,,,,1,20180103180000,-1,-1,-1,-1,0,-1,0,-1,-1,-1,-1,,-1,0,0,0,,1,13,1,11,1021,RODN 031856Z AUTO 00000KT 10SM CLR 13/11 A3015 RMK AO2 SLP217     T01320106=,
20180103_200000.002,0,RODN,,,,1,20180103190000,-1,-1,-1,-1,70,-1,4,-1,-1,-1,-1,,-1,0,0,1,BKN 65,1,13,1,11,1021,RODN 031956Z AUTO 07004KT 10SM BKN065 13/11 A3014 RMK AO2     SLP214 T01260107=,
20180103_210000.001,0,RODN,,,,1,20180103200000,-1,-1,-1,-1,70,-1,6,-1,-1,-1,-1,,-1,0,0,1,OVC 60,1,15,1,12,1021,RODN 032056Z AUTO 07006KT 10SM OVC060 15/12 A3014 RMK AO2     SLP214 T01460123 57008=,
20180103_220000.002,0,RODN,,,,1,20180103210000,-1,-1,-1,-1,40,-1,4,-1,-1,-1,-1,,-1,0,0,1,OVC 60,1,16,1,13,1021,RODN 032156Z AUTO 04004KT 10SM OVC060 16/13 A3015 RMK AO2     SLP217 T01600129=,
20180103_230000.002,0,RODN,,,,1,20180103220000,-1,-1,-1,-1,80,-1,6,-1,-1,-1,-1,,-1,0,0,2,FEW 27   OVC 60,1,18,1,14,1021,RODN 032256Z AUTO 08006KT 10SM FEW027 OVC060 18/14 A3015 RMK     AO2 SLP217 T01780139=,
20180104_000000.004,0,RODN,,,,1,20180103230000,-1,-1,-1,-1,80,-1,7,-1,-1,-1,-1,,-1,0,0,1,OVC 65,1,19,1,14,1021,RODN 032356Z AUTO 08007KT 10SM OVC065 19/14 A3016 RMK AO2     SLP220 T01910141 10191 20129=,
20180104_010000.002,0,RODN,,,,1,20180104000000,-1,-1,-1,-1,80,-1,10,-1,-1,-1,-1,,-1,0,0,2,BKN 22   OVC 27,1,19,1,14,1022,RODN 040056Z AUTO 08010KT 10SM BKN022 OVC027 19/14 A3017 RMK     AO2 BKN V OVC SLP224 T01940144=,
20180104_020000.002,0,RODN,,,,1,20180104010000,-1,-1,-1,-1,70,-1,6,-1,-1,-1,-1,,-1,0,0,2,SCT 29   OVC 35,1,19,1,15,1022,RODN 040156Z AUTO 07006KT 10SM SCT029 OVC035 19/15 A3017 RMK     AO2 SLP224 T01890146=,
20180104_030000.002,0,RODN,,,,1,20180104020000,-1,-1,-1,-1,100,-1,10,-1,-1,-1,-1,,-1,0,0,2,FEW 40   BKN 60,1,20,1,15,1020,RODN 040256Z AUTO 10010KT 10SM FEW040 BKN060 20/15 A3013 RMK     AO2 SLP210 T02040147 58013=,
20180104_040000.002,0,RODN,,,,1,20180104030000,-1,-1,-1,-1,100,-1,10,-1,-1,-1,-1,,-1,0,0,2,FEW 46   FEW 170,1,21,1,15,1019,RODN 040356Z AUTO 10010KT 10SM FEW046 FEW170 21/15 A3009 RMK     AO2 SLP196 T02080147=,
20180104_050000.002,0,RODN,,,,1,20180104040000,-1,-1,-1,-1,100,-1,10,-1,-1,-1,-1,,-1,0,0,2,SCT 25   OVC 65,1,21,1,14,1019,RODN 040456Z AUTO 10010KT 10SM SCT025 OVC065 21/14 A3008 RMK     AO2 SLP193 T02080144=,
20180104_060000.003,0,RODN,,,,1,20180104050000,-1,-1,-1,-1,130,-1,10,-1,16,-1,-1,,-1,0,0,0,,1,21,1,15,1018,RODN 040556Z AUTO 13010G16KT 10SM CLR 21/15 A3006 RMK AO2     SLP186 T02090145 10215 20189 57024=,
20180104_070000.002,0,RODN,,,,1,20180104060000,-1,-1,-1,-1,140,-1,9,-1,-1,-1,-1,,-1,0,0,1,FEW 220,1,21,1,14,1018,RODN 040656Z AUTO 14009KT 10SM FEW220 21/14 A3005 RMK AO2     SLP183 T02060142=,
20180104_080000.002,0,RODN,,,,1,20180104070000,-1,-1,-1,-1,140,-1,6,-1,-1,-1,-1,,-1,0,0,1,SCT 210,1,20,1,14,1018,RODN 040756Z AUTO 14006KT 10SM SCT210 20/14 A3006 RMK AO2 SLPNO     T02010142=,
20180104_090000.002,0,RODN,,,,1,20180104080000,-1,-1,-1,-1,150,-1,7,-1,-1,-1,-1,,-1,0,0,0,,1,20,1,14,1018,RODN 040856Z AUTO 15007KT 10SM CLR 20/14 A3005 RMK AO2 SLPNO     T01970143 55003=,
20180104_100000.002,0,RODN,,,,1,20180104090000,-1,-1,-1,-1,140,-1,8,-1,-1,-1,-1,,-1,0,0,0,,1,20,1,15,1017,RODN 040956Z AUTO 14008KT 10SM CLR 20/15 A3004 RMK AO2 SLPNO     T01950145=,
20180104_110000.002,0,RODN,,,,1,20180104100000,-1,-1,-1,-1,150,-1,8,-1,-1,-1,-1,,-1,0,0,1,SCT 200,1,20,1,15,1018,RODN 041056Z AUTO 15008KT 10SM SCT200 20/15 A3005 RMK AO2     SLP183 T01960150=,
20180104_120000.001,0,RODN,,,,1,20180104110000,-1,-1,-1,-1,160,-1,5,-1,-1,-1,-1,,-1,0,0,1,FEW 200,1,20,1,15,1018,RODN 041156Z AUTO 16005KT 10SM FEW200 20/15 A3005 RMK AO2     SLP182 T01960154 10208 20194 53001=,
20180104_130000.002,0,RODN,,,,1,20180104120000,-1,-1,-1,-1,140,-1,7,-1,-1,-1,-1,,-1,0,0,0,,1,20,1,15,1017,RODN 041256Z AUTO 14007KT 10SM CLR 20/15 A3003 RMK AO2 SLP176     T02000154=,
20180104_140000.002,0,RODN,,,,1,20180104130000,-1,-1,-1,-1,150,-1,7,-1,-1,-1,-1,,-1,0,0,1,SCT 200,1,20,1,15,1017,RODN 041356Z AUTO 15007KT 10SM SCT200 20/15 A3002 RMK AO2     SLP172 T02040154=,
20180104_150000.001,0,RODN,,,,1,20180104140000,-1,-1,-1,-1,150,-1,6,-1,-1,-1,-1,,-1,0,0,2,FEW 190   FEW 210,1,20,1,15,1016,RODN 041456Z AUTO 15006KT 10SM FEW190 FEW210 20/15 A3000 RMK     AO2 SLP165 T02030153 402150129 57019=,
20180104_160000.001,0,RODN,,,,1,20180104150000,-1,-1,-1,-1,150,-1,9,-1,-1,-1,-1,,-1,0,0,2,SCT 110   BKN 210,1,21,1,16,1015,RODN 041556Z AUTO 15009KT 10SM SCT110 BKN210 21/16 A2997 RMK     AO2 SLP155 T02050161=,
20180104_170000.003,1,RODN,,,,1,20180104160000,-1,-1,-1,-1,170,-1,7,-1,-1,-1,-1,,-1,0,0,2,FEW 70   SCT 90,1,21,1,17,1015,RODN 041656Z AUTO 17007KT 10SM FEW070 SCT090 21/17 A2996 RMK     AO2 SLP152 T02070167=,
20180104_180000.002,0,RODN,,,,1,20180104170000,-1,-1,-1,-1,190,-1,9,-1,-1,-1,-1,,-1,0,0,1,BKN 70,1,21,1,17,1014,RODN 041756Z AUTO 19009KT 10SM BKN070 21/17 A2994 RMK AO2     SLP145 T02090171 10209 20195 57019=,
20180104_190000.003,0,RODN,,,,1,20180104180000,-1,-1,-1,-1,200,-1,9,-1,-1,-1,-1,,-1,0,0,1,BKN 65,1,21,1,17,1013,RODN 041856Z AUTO 20009KT 10SM BKN065 21/17 A2992 RMK AO2     SLP138 T02100168=,
20180104_200000.002,0,RODN,,,,1,20180104190000,-1,-1,-1,-1,200,-1,9,-1,-1,-1,-1,,-1,0,0,1,OVC 55,1,21,1,17,1013,RODN 041956Z AUTO 20009KT 10SM OVC055 21/17 A2991 RMK AO2     SLP135 T02110173=,
20180104_210000.002,0,RODN,,,,1,20180104200000,-1,-1,-1,-1,190,-1,5,-1,-1,-1,-1,,-1,0,1,1,OVC 55,1,21,1,18,1012,RODN 042056Z AUTO 19005KT 10SM -RA OVC055 21/18 A2989 RMK AO2     RAB51 SLP128 P0000 60000 T02080176 57016=,- RA
20180104_220000.002,0,RODN,,,,1,20180104210000,-1,-1,-1,-1,190,-1,8,-1,-1,-1,-1,,-1,0,0,4,FEW 24   BKN 31   BKN 44   OVC 60,1,21,1,17,1013,RODN 042156Z AUTO 19008KT 10SM FEW024 BKN031 BKN044 OVC060     21/17 A2991 RMK AO2 RAE00DZB00E01 SLP135 P0000 T02050173=,
20180104_230000.002,0,RODN,,,,1,20180104220000,-1,-1,-1,-1,200,-1,11,-1,-1,-1,-1,,-1,0,0,2,SCT 40   OVC 60,1,22,1,18,1013,RODN 042256Z AUTO 20011KT 10SM SCT040 OVC060 22/18 A2991 RMK     AO2 SLP135 T02170175=,
20180105_000000.006,0,RODN,,,,0,20180104230000,-1,-1,-1,-1,210,-1,10,-1,17,-1,-1,,-1,0,2,3,SCT 2   SCT 20   OVC 27,1,21,1,19,1013,RODN 042356Z 21010G17KT 2SM -SHRA BR SCT002 SCT020 OVC027     21/19 A2992 RMK AO2A VIS 2V7 CIG 027V033 CIG 023 RWY23           SLP138 P0007 60007 70007 T02060187 10217 20204 52010 COR           2357=,- RA SH; BR
20180105_000000.006,0,RODN,,,,0,20180104230000,-1,-1,-1,-1,210,-1,10,-1,17,-1,-1,,-1,0,2,3,SCT 2   SCT 20   OVC 27,1,21,1,19,1013,RODN 042356Z 21010G17KT 2SM -SHRA BR SCT002 SCT020 OVC027 21/19     A2992 RMK AO2A VIS 2V7 RAB00E09RAB33E42 CIG 027V033 CIG           023 RWY23 SLP138 P0007 60007 70007 T02060187 10217 20204           52010=,- RA SH; BR
20180105_010000.001,0,RODN,,,,1,20180105000000,-1,-1,-1,-1,260,-1,20,-1,35,-1,-1,,-1,0,2,2,BKN 2   OVC 6,1,20,1,19,1014,RODN 050056Z AUTO 26020G35KT 2 1/4SM -RA BR BKN002 OVC006 20/19     A2993 RMK AO2 PK WND 23040/19 VIS 1 1/2V2 1/4           SHRAE2356RAB13 BKN V OVC SLP142 P0008 T02030191=,- RA; BR
20180105_020000.002,0,RODN,,,,1,20180105010000,-1,-1,-1,-1,310,-1,11,-1,-1,-1,-1,,-1,0,0,3,BKN 14   BKN 21   BKN 65,1,20,1,18,1015,RODN 050156Z AUTO 31011KT 10SM BKN014 BKN021 BKN065 20/18 A2996     RMK AO2 PK WND 29029/03 RAE05RAB06E07RAB08E27 CIG 014V070           BKN014 V SCT SLP152 P0001 T02040183=,
20180105_030000.002,0,RODN,,,,1,20180105020000,-1,-1,-1,-1,310,-1,9,-1,-1,-1,-1,,-1,0,0,4,SCT 14   SCT 21   BKN 38   BKN 47,1,21,1,19,1014,RODN 050256Z AUTO 31009KT 10SM SCT014 SCT021 BKN038 BKN047     21/19 A2993 RMK AO2 SLP142 60009 T02130192 50002=,
20180105_040000.002,0,RODN,,,,1,20180105030000,-1,-1,-1,-1,330,-1,13,-1,22,-1,-1,,-1,0,1,3,FEW 13   BKN 35   OVC 80,1,20,1,18,1014,RODN 050356Z AUTO 33013G22KT 9SM -RA FEW013 BKN035 OVC080 20/18     A2993 RMK AO2 DZB07E08RAB08E25DZB25E26DZB35E36RAB36 SLP142           P0004 T02040183=,- RA
20180105_050000.002,0,RODN,,,,1,20180105040000,-1,-1,-1,-1,330,-1,13,-1,18,-1,-1,,-1,0,0,4,FEW 17   BKN 25   BKN 32   BKN 140,1,20,1,17,1013,RODN 050456Z AUTO 33013G18KT 10SM FEW017 BKN025 BKN032 BKN140     20/17 A2992 RMK AO2 RAE45DZB45E47 SLP138 P0001 T02010173=,
20180105_060000.002,0,RODN,,,,1,20180105050000,-1,-1,-1,-1,340,-1,16,-1,22,-1,-1,,-1,0,1,3,FEW 19   SCT 31   BKN 95,1,20,1,17,1013,RODN 050556Z AUTO 34016G22KT 10SM -RA FEW019 SCT031 BKN095     20/17 A2991 RMK AO2 DZB0458E01RAB46 SLP135 P0000 60014           T02010167 10213 20200 58006=,- RA
20180105_070000.002,0,RODN,,,,1,20180105060000,-1,-1,-1,-1,10,-1,11,-1,17,-1,-1,,-1,0,0,3,FEW 19   BKN 29   BKN 36,1,20,1,16,1013,RODN 050656Z AUTO 01011G17KT 10SM FEW019 BKN029 BKN036 20/16     A2992 RMK AO2 RAE05DZB05E11RAB35E45 SLP138 P0000           T01970161=,
20180105_080000.002,0,RODN,,,,1,20180105070000,-1,-1,-1,-1,360,-1,12,-1,-1,-1,-1,,-1,0,0,3,BKN 26   BKN 35   OVC 49,1,19,1,15,1014,RODN 050756Z AUTO 36012KT 10SM BKN026 BKN035 OVC049 19/15 A2995     RMK AO2 SLP149 T01940150=,
20180105_090000.002,0,RODN,,,,1,20180105080000,-1,-1,-1,-1,10,-1,14,-1,20,-1,-1,,-1,0,0,3,SCT 20   SCT 28   OVC 42,1,19,1,15,1015,RODN 050856Z AUTO 01014G20KT 10SM SCT020 SCT028 OVC042 19/15     A2998 RMK AO2 DZB11E20 SLP159 P0000 60000 T01860151 52023=,
20180105_100000.002,0,RODN,,,,1,20180105090000,-1,-1,-1,-1,20,-1,16,-1,22,-1,-1,,-1,0,1,4,FEW 17   BKN 32   BKN 44   OVC 55,1,18,1,15,1016,RODN 050956Z AUTO 02016G22KT 10SM -RA FEW017 BKN032 BKN044     OVC055 18/15 A3000 RMK AO2 RAB09E22RAB50 SLP166 P0000           T01760149=,- RA
20180105_110000.002,0,RODN,,,,1,20180105100000,-1,-1,-1,-1,10,-1,14,-1,21,-1,-1,,-1,0,0,4,SCT 23   BKN 32   BKN 43   OVC 55,1,18,1,14,1017,RODN 051056Z AUTO 01014G21KT 10SM SCT023 BKN032 BKN043 OVC055     18/14 A3002 RMK AO2 RAE01RAB11E27 SLP172 P0001 T01760141=,
20180105_120000.002,0,RODN,,,,1,20180105110000,-1,-1,-1,-1,20,-1,11,-1,-1,-1,-1,,-1,0,0,3,FEW 25   SCT 35   OVC 47,1,17,1,14,1017,RODN 051156Z AUTO 02011KT 10SM FEW025 SCT035 OVC047 17/14 A3004     RMK AO2 DZB30E31RAB31E42 SLP179 P0000 60001 T01680144           10201 20168 52021=,
20180105_130000.002,0,RODN,,,,1,20180105120000,-1,-1,-1,-1,360,-1,10,-1,-1,-1,-1,,-1,0,0,2,BKN 28   OVC 34,1,17,1,13,1018,RODN 051256Z AUTO 36010KT 10SM BKN028 OVC034 17/13 A3005 RMK     AO2 RAB1158E15 SLP183 P0000 T01730130=,
20180105_140000.002,0,RODN,,,,1,20180105130000,-1,-1,-1,-1,10,-1,13,-1,-1,-1,-1,,-1,0,0,3,SCT 25   BKN 35   OVC 50,1,17,1,13,1018,RODN 051356Z AUTO 01013KT 10SM SCT025 BKN035 OVC050 17/13 A3005     RMK AO2 SLP183 T01710126=,
20180105_150000.002,0,RODN,,,,1,20180105140000,-1,-1,-1,-1,10,-1,12,-1,-1,-1,-1,,-1,0,0,3,SCT 30   BKN 37   OVC 45,1,17,1,12,1017,RODN 051456Z AUTO 01012KT 10SM SCT030 BKN037 OVC045 17/12 A3004     RMK AO2 SLP179 60000 T01710116 402170167 50001=,
20180105_160000.001,0,RODN,,,,1,20180105150000,-1,-1,-1,-1,360,-1,11,-1,-1,-1,-1,,-1,0,0,2,BKN 41   OVC 48,1,17,1,11,1018,RODN 051556Z AUTO 36011KT 10SM BKN041 OVC048 17/11 A3005 RMK     AO2 SLP183 T01690105=,
20180105_170000.002,0,RODN,,,,1,20180105160000,-1,-1,-1,-1,10,-1,10,-1,-1,-1,-1,,-1,0,0,2,SCT 34   OVC 47,1,17,1,10,1018,RODN 051656Z AUTO 01010KT 10SM SCT034 OVC047 17/10 A3006 RMK     AO2 SLP186 T01660104=,
20180105_180000.001,0,RODN,,,,1,20180105170000,-1,-1,-1,-1,10,-1,10,-1,-1,-1,-1,,-1,0,0,1,OVC 49,1,16,1,10,1018,RODN 051756Z AUTO 01010KT 10SM OVC049 16/10 A3006 RMK AO2     SLP186 60000 T01630097 10173 20163 50004=,
20180105_190000.002,0,RODN,,,,1,20180105180000,-1,-1,-1,-1,360,-1,8,-1,-1,-1,-1,,-1,0,0,1,OVC 42,1,16,1,9,1018,RODN 051856Z AUTO 36008KT 10SM OVC042 16/09 A3006 RMK AO2     SLP186 T01620089=,
20180105_200000.002,0,RODN,,,,1,20180105190000,-1,-1,-1,-1,10,-1,9,-1,-1,-1,-1,,-1,0,0,2,SCT 36   BKN 45,1,16,1,10,1018,RODN 051956Z AUTO 01009KT 10SM SCT036 BKN045 16/10 A3007 RMK     AO2 SLP190 T01580095=,
20180105_210000.003,0,RODN,,,,1,20180105200000,-1,-1,-1,-1,10,-1,8,-1,-1,-1,-1,,-1,0,0,1,OVC 40,1,16,1,9,1019,RODN 052056Z AUTO 01008KT 10SM OVC040 16/09 A3008 RMK AO2     SLP193 T01610093 53007=,
20180105_220000.002,0,RODN,,,,1,20180105210000,-1,-1,-1,-1,30,-1,8,-1,-1,-1,-1,,-1,0,0,1,OVC 41,1,16,1,8,1019,RODN 052156Z AUTO 03008KT 10SM OVC041 16/08 A3008 RMK AO2     SLP193 T01580083=,
20180105_230000.002,0,RODN,,,,1,20180105220000,-1,-1,-1,-1,20,-1,5,-1,-1,-1,-1,,-1,0,0,1,OVC 43,1,16,1,8,1020,RODN 052256Z AUTO 02005KT 10SM OVC043 16/08 A3011 RMK AO2     SLP203 T01580078=,
20180106_000000.004,0,RODN,,,,1,20180105230000,-1,-1,-1,-1,30,-1,3,-1,-1,-1,-1,,-1,0,0,1,BKN 42,1,17,1,9,1020,RODN 052356Z AUTO 03003KT 10SM BKN042 17/09 A3012 RMK AO2     SLP207 70016 T01650089 10167 20150 52014=,
20180106_010000.002,0,RODN,,,,1,20180106000000,-1,-1,-1,-1,30,-1,9,-1,-1,-1,-1,,-1,0,0,1,BKN 130,1,18,1,9,1021,RODN 060056Z AUTO 03009KT 10SM BKN130 18/09 A3014 RMK AO2     SLP213 T01840089=,
20180106_020000.002,0,RODN,,,,1,20180106010000,-1,-1,-1,-1,10,-1,10,-1,-1,-1,-1,,-1,0,0,1,OVC 43,1,18,1,9,1021,RODN 060156Z AUTO 01010KT 10SM OVC043 18/09 A3014 RMK AO2     SLP213 T01810089=,
20180106_030000.002,0,RODN,,,,1,20180106020000,-1,-1,-1,-1,360,-1,5,-1,-1,-1,-1,,-1,0,0,2,BKN 46   BKN 110,1,18,1,9,1020,RODN 060256Z AUTO 36005KT 10SM BKN046 BKN110 18/09 A3013 RMK     AO2 SLP210 T01790087 50005=,
20180106_040000.004,0,RODN,,,,1,20180106030000,-1,-1,-1,-1,40,-1,6,-1,-1,-1,-1,,-1,0,0,1,OVC 41,1,18,1,9,1019,RODN 060356Z AUTO 04006KT 10SM OVC041 18/09 A3009 RMK AO2     SLP197 T01790093=,
20180106_050000.002,0,RODN,,,,1,20180106040000,-1,-1,-1,-1,60,-1,5,-1,-1,-1,-1,,-1,0,0,1,OVC 36,1,17,1,10,1018,RODN 060456Z AUTO 06005KT 10SM OVC036 17/10 A3007 RMK AO2     SLP190 T01740103=,
20180106_060000.002,0,RODN,,,,1,20180106050000,-1,-1,-1,-1,20,-1,7,-1,-1,-1,-1,,-1,0,0,1,OVC 36,1,17,1,10,1018,RODN 060556Z AUTO 02007KT 10SM OVC036 17/10 A3006 RMK AO2     SLP186 T01730104 10186 20165 56024=,
20180106_070000.002,0,RODN,,,,1,20180106060000,-1,-1,-1,-1,40,-1,10,-1,-1,-1,-1,,-1,0,0,2,BKN 41   BKN 95,1,17,1,11,1017,RODN 060656Z AUTO 04010KT 10SM BKN041 BKN095 17/11 A3004 RMK     AO2 SLP180 T01740105=,
20180106_080000.002,0,RODN,,,,1,20180106070000,-1,-1,-1,-1,20,-1,9,-1,-1,-1,-1,,-1,0,0,2,FEW 50   BKN 120,1,17,1,11,1019,RODN 060756Z AUTO 02009KT 10SM FEW050 BKN120 17/11 A3008 RMK     AO2 SLP194 T01710105=,
20180106_090000.002,0,RODN,,,,1,20180106080000,-1,-1,-1,-1,40,-1,6,-1,-1,-1,-1,,-1,0,1,1,BKN 110,1,16,1,12,1019,RODN 060856Z AUTO 04006KT 10SM -RA BKN110 16/12 A3008 RMK AO2     DZB46E47RAB47 SLP194 P0000 60000 T01600116 53006=,- RA
20180106_100000.002,0,RODN,,,,1,20180106090000,-1,-1,-1,-1,40,-1,7,-1,-1,-1,-1,,-1,0,0,2,FEW 11   OVC 100,1,15,1,12,1019,RODN 060956Z AUTO 04007KT 10SM FEW011 OVC100 15/12 A3009 RMK     AO2 RAE0858DZB0858E01RAB27E47 SLP197 P0000 T01540121=,
20180106_110000.002,0,RODN,,,,1,20180106100000,-1,-1,-1,-1,50,-1,9,-1,-1,-1,-1,,-1,0,0,1,BKN 85,1,15,1,12,1019,RODN 061056Z AUTO 05009KT 10SM BKN085 15/12 A3008 RMK AO2     SLP194 T01510119=,
20180106_120000.002,0,RODN,,,,1,20180106110000,-1,-1,-1,-1,40,-1,3,-1,-1,-1,-1,,-1,0,1,2,FEW 75   OVC 90,1,15,1,12,1020,RODN 061156Z AUTO 04003KT 10SM -RA FEW075 OVC090 15/12 A3012     RMK AO2 RAB53 SLP207 P0000 60000 T01510119 10176 20149           50014=,- RA
20180106_130000.002,0,RODN,,,,1,20180106120000,-1,-1,-1,-1,50,-1,4,-1,-1,-1,-1,,-1,0,0,1,FEW 100,1,15,1,12,1020,RODN 061256Z AUTO 05004KT 10SM FEW100 15/12 A3011 RMK AO2 RAE03     SLP203 P0000 T01480123=,
20180106_140000.001,0,RODN,,,,1,20180106130000,-1,-1,-1,-1,70,-1,6,-1,-1,-1,-1,,-1,0,0,2,SCT 35   BKN 75,1,14,1,13,1019,RODN 061356Z AUTO 07006KT 10SM SCT035 BKN075 14/13 A3008 RMK     AO2 RAB14E42DZB42E49 SLP194 P0001 T01440128=,
20180106_150000.002,0,RODN,,,,1,20180106140000,-1,-1,-1,-1,40,-1,6,-1,-1,-1,-1,,-1,0,0,1,BKN 100,1,15,1,13,1019,RODN 061456Z AUTO 04006KT 10SM BKN100 15/13 A3010 RMK AO2     RAB1356E19DZB19E20 SLP200 P0000 60001 T01470126 401860144           55008=,
20180106_160000.002,0,RODN,,,,1,20180106150000,-1,-1,-1,-1,30,-1,5,-1,-1,-1,-1,,-1,0,1,2,FEW 8   BKN 95,1,14,1,13,1019,RODN 061556Z AUTO 03005KT 10SM -RA FEW008 BKN095 14/13 A3009     RMK AO2 RAB45 SLP197 P0000 T01420126=,- RA
20180106_170000.002,0,RODN,,,,1,20180106160000,-1,-1,-1,-1,50,-1,6,-1,-1,-1,-1,,-1,0,0,1,BKN 100,1,14,1,13,1019,RODN 061656Z AUTO 05006KT 10SM BKN100 14/13 A3009 RMK AO2     RAE11DZB11E12 SLP197 P0001 T01410126=,
20180106_180000.001,0,RODN,,,,1,20180106170000,-1,-1,-1,-1,50,-1,6,-1,-1,-1,-1,,-1,0,0,1,OVC 85,1,14,1,12,1019,RODN 061756Z AUTO 05006KT 10SM OVC085 14/12 A3009 RMK AO2     RAB02E23DZB23E25 SLP197 P0000 60002 T01410123 10151 20141           55001=,
20180106_190000.002,0,RODN,,,,1,20180106180000,-1,-1,-1,-1,100,-1,7,-1,-1,-1,-1,,-1,0,1,2,SCT 35   BKN 100,1,15,1,12,1018,RODN 061856Z AUTO 10007KT 10SM -RA SCT035 BKN100 15/12 A3006     RMK AO2 DZB15E16RAB16E39DZB39E43RAB43 SLP187 P0001           T01460123=,- RA
20180106_200000.002,0,RODN,,,,1,20180106190000,-1,-1,-1,-1,110,-1,6,-1,-1,-1,-1,,-1,0,1,2,BKN 33   OVC 95,1,15,1,13,1017,RODN 061956Z AUTO 11006KT 10SM -RA BKN033 OVC095 15/13 A3004     RMK AO2 RAE1857RAB07 SLP180 P0001 T01480128=,- RA
20180106_210000.002,0,RODN,,,,1,20180106200000,-1,-1,-1,-1,40,-1,6,-1,-1,-1,-1,,-1,0,1,1,OVC 85,1,15,1,13,1018,RODN 062056Z AUTO 04006KT 10SM -RA OVC085 15/13 A3007 RMK AO2     RAE1957DZB1957E1959DZB01E03RAB03E24DZB24E27RAB27 SLP190           P0002 60004 T01500134 55009=,- RA
20180106_220000.002,0,RODN,,,,1,20180106210000,-1,-1,-1,-1,50,-1,3,-1,-1,-1,-1,,-1,0,1,2,SCT 41   OVC 95,1,15,1,13,1019,RODN 062156Z AUTO 05003KT 10SM -DZ SCT041 OVC095 15/13 A3009     RMK AO2 RAE41DZB41 SLP197 P0002 T01490134=,- DZ
20180106_230000.002,0,RODN,,,,1,20180106220000,-1,-1,-1,-1,30,-1,4,-1,-1,-1,-1,,-1,0,1,2,BKN 55   OVC 95,1,15,1,14,1020,RODN 062256Z AUTO 03004KT 9SM -RA BKN055 OVC095 15/14 A3011 RMK     AO2 DZE2156RAB2156E49DZB49E53RAB53 SLP204 P0003 T01490139=,- RA
20180107_000000.004,0,RODN,,,,1,20180106230000,-1,-1,-1,-1,90,-1,8,-1,-1,-1,-1,,-1,0,1,1,BKN 75,1,16,1,14,1019,RODN 062356Z AUTO 09008KT 10SM -RA BKN075 16/14 A3009 RMK AO2     SLP197 P0002 60011 70013 T01580142 10158 20141 50008=,- RA
20180107_010000.001,0,RODN,,,,1,20180107000000,-1,-1,-1,-1,120,-1,7,-1,-1,-1,-1,,-1,0,1,2,FEW 27   BKN 100,1,17,1,15,1020,RODN 070056Z AUTO 12007KT 10SM -RA FEW027 BKN100 17/15 A3012     RMK AO2 RAE2357DZB2357E01RAB01E24DZB24E27RAB44 PRESRR           SLP207 P0001 T01680146=,- RA
20180107_020000.002,0,RODN,,,,1,20180107010000,-1,-1,-1,-1,90,-1,6,-1,-1,-1,-1,,-1,0,1,2,SCT 49   BKN 95,1,18,1,16,1019,RODN 070156Z AUTO 09006KT 10SM -RA SCT049 BKN095 18/16 A3009     RMK AO2 RAE00RAB04 SLP197 P0001 T01770157=,- RA
20180107_030000.002,0,RODN,,,,1,20180107020000,-1,-1,-1,-1,130,-1,6,-1,-1,-1,-1,,-1,0,1,3,BKN 47   BKN 70   OVC 95,1,18,1,16,1019,RODN 070256Z AUTO 13006KT 10SM -RA BKN047 BKN070 OVC095 18/16     A3009 RMK AO2           RAE0156DZB0156E0158DZB00E01RAB01E34DZB34E36RAB38 SLP197           P0002 60004 T01800158 50000=,- RA
20180107_040000.002,0,RODN,,,,1,20180107030000,-1,-1,-1,-1,120,-1,7,-1,-1,-1,-1,,-1,0,0,2,FEW 60   BKN 95,1,18,1,16,1018,RODN 070356Z AUTO 12007KT 10SM FEW060 BKN095 18/16 A3005 RMK     AO2 RAE0256DZB0256E0257RAB0257E41DZB41E43 SLP183 P0002           T01820160=,
20180107_050000.002,0,RODN,,,,1,20180107040000,-1,-1,-1,-1,120,-1,6,-1,-1,-1,-1,,-1,0,0,4,FEW 19   SCT 47   BKN 55   OVC 70,1,19,1,16,1017,RODN 070456Z AUTO 12006KT 10SM FEW019 SCT047 BKN055 OVC070     19/16 A3004 RMK AO2 SLP180 T01860164=,
20180107_060000.002,0,RODN,,,,1,20180107050000,-1,-1,-1,-1,130,-1,4,-1,-1,-1,-1,,-1,0,1,2,SCT 2   OVC 70,1,18,1,17,1017,RODN 070556Z AUTO 13004KT 7SM -RA SCT002 OVC070 18/17 A3004 RMK     AO2 DZB10E19RAB19 SLP180 P0003 60009 T01820165 10186 20159           55015=,- RA
20180107_070000.002,0,RODN,,,,1,20180107060000,-1,-1,-1,-1,140,-1,8,-1,-1,-1,-1,,-1,0,1,2,BKN 65   OVC 85,1,18,1,17,1017,RODN 070656Z AUTO 14008KT 7SM -RA BKN065 OVC085 18/17 A3003 RMK     AO2 RAE05RAB36 SLP177 P0002 T01830168=,- RA
20180107_080000.002,0,RODN,,,,1,20180107070000,-1,-1,-1,-1,140,-1,8,-1,-1,-1,-1,,-1,0,0,2,SCT 60   BKN 90,1,18,1,17,1017,RODN 070756Z AUTO 14008KT 10SM SCT060 BKN090 18/17 A3002 RMK     AO2 RAE0659RAB28E50 SLP173 P0002 T01830168=,
20180107_090000.002,0,RODN,,,,1,20180107080000,-1,-1,-1,-1,140,-1,9,-1,-1,-1,-1,,-1,0,1,3,BKN 49   BKN 65   OVC 85,1,18,1,16,1017,RODN 070856Z AUTO 14009KT 8SM -RA BKN049 BKN065 OVC085 18/16     A3002 RMK AO2 RAB44 PRESFR SLP173 P0000 60004 T01840162           56007=,- RA
20180107_100000.002,0,RODN,,,,1,20180107090000,-1,-1,-1,-1,180,-1,6,-1,-1,-1,-1,,-1,0,1,2,FEW 43   BKN 75,1,19,1,17,1018,RODN 070956Z AUTO 18006KT 10SM -RA FEW043 BKN075 19/17 A3007     RMK AO2 RAE0859DZB0859E01RAB49 SLP190 P0001 T01850166=,- RA
20180107_110000.002,0,RODN,,,,1,20180107100000,-1,-1,-1,-1,150,-1,10,-1,-1,-1,-1,,-1,0,1,2,BKN 36   OVC 80,1,19,1,17,1018,RODN 071056Z AUTO 15010KT 10SM -RA BKN036 OVC080 19/17 A3007     RMK AO2 RAE35DZB35E36RAB36 SLP190 P0002 T01850166=,- RA
20180107_120000.001,0,RODN,,,,1,20180107110000,-1,-1,-1,-1,150,-1,12,-1,-1,-1,-1,,-1,0,0,2,FEW 45   BKN 95,1,19,1,17,1017,RODN 071156Z AUTO 15012KT 10SM FEW045 BKN095 19/17 A3004 RMK     AO2 RAE11DZB11E27RAB34E46 SLP180 P0001 60008 T01900166           10190 20182 50004=,
20180107_130000.001,0,RODN,,,,1,20180107120000,-1,-1,-1,-1,150,-1,17,-1,21,-1,-1,,-1,0,0,2,SCT 16   OVC 80,1,19,1,17,1017,RODN 071256Z AUTO 15017G21KT 10SM SCT016 OVC080 19/17 A3003 RMK     AO2 SLP176 T01930172=,
20180107_140000.001,0,RODN,,,,1,20180107130000,-1,-1,-1,-1,150,-1,19,-1,26,-1,-1,,-1,0,0,2,FEW 70   BKN 90,1,20,1,17,1015,RODN 071356Z AUTO 15019G26KT 10SM FEW070 BKN090 20/17 A2998 RMK     AO2 PK WND 13030/53 SLP159 T01960168=,
20180107_150000.002,0,RODN,,,,1,20180107140000,-1,-1,-1,-1,150,-1,17,-1,22,-1,-1,,-1,0,0,1,SCT 100,1,20,1,17,1015,RODN 071456Z AUTO 15017G22KT 10SM SCT100 20/17 A2998 RMK AO2 PK     WND 14032/03 RAB13E26 SLP159 P0000 60000 T01970169           401980141 57021=,
20180107_160000.002,0,RODN,,,,1,20180107150000,-1,-1,-1,-1,150,-1,18,-1,26,-1,-1,,-1,0,0,1,BKN 100,1,20,1,17,1014,RODN 071556Z AUTO 15018G26KT 10SM BKN100 20/17 A2993 RMK AO2 PK     WND 13028/06 SLP142 T02040168=,
20180107_170000.002,0,RODN,,,,1,20180107160000,-1,-1,-1,-1,150,-1,8,-1,-1,-1,-1,,-1,0,0,2,SCT 120   BKN 140,1,21,1,17,1014,RODN 071656Z AUTO 15008KT 10SM SCT120 BKN140 21/17 A2994 RMK     AO2 PK WND 13027/11 SLP145 T02100166=,
20180107_180000.002,0,RODN,,,,1,20180107170000,-1,-1,-1,-1,140,-1,10,-1,20,-1,-1,,-1,0,0,1,FEW 120,1,21,1,17,1013,RODN 071756Z AUTO 14010G20KT 10SM FEW120 21/17 A2992 RMK AO2     SLP138 60000 T02100172 10212 20190 55019=,
20180107_190000.001,0,RODN,,,,1,20180107180000,-1,-1,-1,-1,160,-1,10,-1,19,-1,-1,,-1,0,0,1,FEW 170,1,21,1,17,1013,RODN 071856Z AUTO 16010G19KT 10SM FEW170 21/17 A2990 RMK AO2 PK     WND 12027/04 SLP132 T02100172=,
20180107_200000.002,0,RODN,,,,1,20180107190000,-1,-1,-1,-1,150,-1,15,-1,21,-1,-1,,-1,0,0,3,FEW 70   FEW 150   SCT 180,1,21,1,18,1012,RODN 071956Z AUTO 15015G21KT 10SM FEW070 FEW150 SCT180 21/18     A2989 RMK AO2 PK WND 12026/39 SLP128 T02130179=,
20180107_210000.001,0,RODN,,,,1,20180107200000,-1,-1,-1,-1,150,-1,19,-1,26,-1,-1,,-1,0,0,2,FEW 80   FEW 160,1,22,1,17,1012,RODN 072056Z AUTO 15019G26KT 10SM FEW080 FEW160 22/17 A2988 RMK     AO2 PK WND 12032/55 SLP125 T02160170 57013=,
20180107_220000.002,0,RODN,,,,1,20180107210000,-1,-1,-1,-1,150,-1,19,-1,25,-1,-1,,-1,0,0,1,BKN 80,1,22,1,17,1013,RODN 072156Z AUTO 15019G25KT 10SM BKN080 22/17 A2990 RMK AO2 PK     WND 13032/40 SLP132 T02190172=,
20180107_230000.002,0,RODN,,,,1,20180107220000,-1,-1,-1,-1,130,-1,13,-1,24,-1,-1,,-1,0,1,1,FEW 70,1,21,1,17,1014,RODN 072256Z AUTO 13013G24KT 10SM -RA FEW070 21/17 A2993 RMK     AO2 PK WND 14033/05 RAB54 SLP142 P0000 T02120174=,- RA
20180108_000000.004,0,RODN,,,,1,20180107230000,-1,-1,-1,-1,130,-1,12,-1,18,-1,-1,,-1,0,2,1,BKN 13,1,21,1,19,1014,RODN 072356Z AUTO 13012G18KT 5SM -RA BR BKN013 21/19 A2994 RMK     AO2 RAE03RAB05 SLP145 P0005 60005 70022 T02050191 10219           20204 52021=,- RA; BR
20180108_010000.002,0,RODN,,,,1,20180108000000,-1,-1,-1,-1,180,-1,8,-1,-1,-1,-1,,-1,0,0,2,BKN 14   OVC 22,1,21,1,20,1014,RODN 080056Z AUTO 18008KT 10SM BKN014 OVC022 21/20 A2993 RMK     AO2 RAE01RAB13E25 SLP142 P0003 T02140197=,
20180108_020000.002,0,RODN,,,,1,20180108010000,-1,-1,-1,-1,160,-1,9,-1,-1,-1,-1,,-1,0,0,1,BKN 13,1,22,1,20,1012,RODN 080156Z AUTO 16009KT 10SM BKN013 22/20 A2989 RMK AO2 BKN V     OVC SLP128 T02230204=,
20180108_030000.002,0,RODN,,,,1,20180108020000,-1,-1,-1,-1,150,-1,9,-1,-1,-1,-1,,-1,0,2,4,FEW 1   BKN 12   BKN 38   BKN 60,1,22,1,21,1011,RODN 080256Z AUTO 15009KT 5SM -RA BR FEW001 BKN012 BKN038     BKN060 22/21 A2985 RMK AO2 RAB50 CIG 011 RWY23 SLP114           P0001 60004 T02240207 58030=,- RA; BR
20180108_040000.002,0,RODN,,,,1,20180108030000,-1,-1,-1,-1,200,-1,7,-1,-1,-1,-1,,-1,0,0,3,BKN 13   BKN 70   OVC 85,1,23,1,21,1009,RODN 080356Z AUTO 20007KT 10SM BKN013 BKN070 OVC085 23/21 A2981     RMK AO2 RAE03RAB07E24 CIG 013V018 BKN013 V SCT SLP101           P0002 T02300214=,
20180108_050000.002,0,RODN,,,,1,20180108040000,-1,-1,-1,-1,220,-1,14,-1,-1,-1,-1,,-1,0,0,3,FEW 1   SCT 8   OVC 13,1,23,1,22,1009,RODN 080456Z AUTO 22014KT 9SM FEW001 SCT008 OVC013 23/22 A2979     RMK AO2 RAB20E48 CIG 013V019 SLP094 P0029 T02270217=,
20180108_060000.003,0,RODN,,,,1,20180108050000,-1,-1,-1,-1,220,-1,13,-1,-1,-1,-1,,-1,0,0,3,SCT 10   SCT 15   BKN 29,1,23,1,22,1008,RODN 080556Z AUTO 22013KT 10SM SCT010 SCT015 BKN029 23/22 A2978     RMK AO2 BKN V SCT CIG 013 RWY05 SLP090 60035 T02290215           10236 20205 56022=,
20180108_070000.002,0,RODN,,,,1,20180108060000,-1,-1,-1,-1,220,-1,12,-1,-1,-1,-1,,-1,0,0,1,FEW 13,1,23,1,22,1008,RODN 080656Z AUTO 22012KT 10SM FEW013 23/22 A2978 RMK AO2     SLP090 T02270215=,
20180108_080000.002,0,RODN,,,,1,20180108070000,-1,-1,-1,-1,250,-1,16,-1,22,-1,-1,,-1,0,1,3,SCT 4   SCT 10   OVC 14,1,22,1,21,1009,RODN 080756Z AUTO 25016G22KT 4SM BR SCT004 SCT010 OVC014 22/21     A2980 RMK AO2 PK WND 27028/54 RAB04E16 OVC V BKN CIG 002           RWY05 SLP097 P0002 T02180208=,BR
20180108_090000.002,0,RODN,,,,1,20180108080000,-1,-1,-1,-1,360,-1,14,-1,21,-1,-1,,-1,0,2,3,FEW 2   BKN 10   OVC 17,1,19,1,18,1010,RODN 080856Z AUTO 36014G21KT 4SM RA BR FEW002 BKN010 OVC017     19/18 A2984 RMK AO2 PK WND 33028/15 RAB0759 CIG 008V010           SLP111 P0012 60013 T01900178 53020=,RA; BR
20180108_100000.002,0,RODN,,,,1,20180108090000,-1,-1,-1,-1,20,-1,12,-1,-1,-1,-1,,-1,0,0,3,SCT 12   SCT 29   OVC 90,1,19,1,17,1010,RODN 080956Z AUTO 02012KT 10SM SCT012 SCT029 OVC090 19/17 A2982     RMK AO2 RAE32 SLP104 P0001 T01870174=,
20180108_110000.002,0,RODN,,,,1,20180108100000,-1,-1,-1,-1,350,-1,11,-1,-1,-1,-1,,-1,0,0,2,BKN 13   OVC 18,1,19,1,18,1011,RODN 081056Z AUTO 35011KT 10SM BKN013 OVC018 19/18 A2987 RMK     AO2 SLP121 T01920175=,
20180108_120000.002,0,RODN,,,,1,20180108110000,-1,-1,-1,-1,330,-1,13,-1,18,-1,-1,,-1,0,1,2,BKN 14   OVC 21,1,19,1,17,1013,RODN 081156Z AUTO 33013G18KT 10SM -RA BKN014 OVC021 19/17 A2992     RMK AO2 RAB53 SLP138 P0000 60014 T01910169 10231 20187           53028=,- RA
20180108_130000.001,0,RODN,,,,1,20180108120000,-1,-1,-1,-1,330,-1,13,-1,21,-1,-1,,-1,0,0,4,SCT 9   BKN 14   BKN 20   OVC 28,1,18,1,17,1014,RODN 081256Z AUTO 33013G21KT 10SM SCT009 BKN014 BKN020 OVC028     18/17 A2995 RMK AO2 RAE05DZB05E12RAB12E46 SLP149 P0001           T01800165=,
20180108_140000.002,0,RODN,,,,1,20180108130000,-1,-1,-1,-1,330,-1,11,-1,-1,-1,-1,,-1,0,0,2,SCT 14   OVC 22,1,18,1,15,1014,RODN 081356Z AUTO 33011KT 10SM SCT014 OVC022 18/15 A2995 RMK     AO2 CIG 015V022 CIG 017 RWY23 SLP149 T01780152=,
20180108_150000.002,0,RODN,,,,1,20180108140000,-1,-1,-1,-1,320,-1,13,-1,21,-1,-1,,-1,0,0,2,BKN 21   OVC 27,1,18,1,15,1015,RODN 081456Z AUTO 32013G21KT 10SM BKN021 OVC027 18/15 A2996 RMK     AO2 SLP152 60001 T01770146 402360177 50011=,
20180108_160000.002,0,RODN,,,,1,20180108150000,-1,-1,-1,-1,330,-1,15,-1,-1,-1,-1,,-1,0,0,2,BKN 16   OVC 24,1,17,1,15,1015,RODN 081556Z AUTO 33015KT 10SM BKN016 OVC024 17/15 A2996 RMK     AO2 RAB22E34DZB40E49 CIG 016V024 SLP152 P0000 T01710145=,
20180108_170000.002,0,RODN,,,,1,20180108160000,-1,-1,-1,-1,330,-1,15,-1,20,-1,-1,,-1,0,0,1,OVC 21,1,17,1,13,1015,RODN 081656Z AUTO 33015G20KT 10SM OVC021 17/13 A2997 RMK AO2     RAB02E12 SLP155 P0000 T01670132=,
20180108_180000.002,0,RODN,,,,1,20180108170000,-1,-1,-1,-1,330,-1,15,-1,21,-1,-1,,-1,0,0,1,OVC 18,1,16,1,13,1016,RODN 081756Z AUTO 33015G21KT 10SM OVC018 16/13 A2999 RMK AO2     DZB01E02RAB02E12RAB14E33 OVC V BKN SLP162 P0000 60001           T01620131 10190 20160 52013=,
20180108_190000.002,0,RODN,,,,1,20180108180000,-1,-1,-1,-1,340,-1,15,-1,23,-1,-1,,-1,0,1,3,FEW 2   SCT 19   OVC 29,1,16,1,13,1017,RODN 081856Z AUTO 34015G23KT 10SM -RA FEW002 SCT019 OVC029     16/13 A3002 RMK AO2 PK WND 31028/41           DZB03E04RAB04E16DZB16E17RAB34 CIG 018V029 CIG 023 RWY23           SLP172 P0000 T01560125=,- RA
20180108_200000.002,0,RODN,,,,1,20180108190000,-1,-1,-1,-1,340,-1,15,-1,20,-1,-1,,-1,0,0,1,OVC 23,1,15,1,12,1016,RODN 081956Z AUTO 34015G20KT 10SM OVC023 15/12 A3001 RMK AO2 PK     WND 34030/01 RAE21DZB21E23DZB24E31 CIG 022 RWY23 SLP169           P0001 T01520118=,
20180108_210000.001,0,RODN,,,,1,20180108200000,-1,-1,-1,-1,330,-1,16,-1,23,-1,-1,,-1,0,1,2,BKN 24   OVC 29,1,15,1,11,1018,RODN 082056Z AUTO 33016G23KT 10SM -RA BKN024 OVC029 15/11 A3005     RMK AO2 DZB28E31RAB31E41DZB41E50RAB50 SLP183 P0000 60001           T01480108 50022=,- RA
20180108_220000.002,0,RODN,,,,1,20180108210000,-1,-1,-1,-1,340,-1,17,-1,31,-1,-1,,-1,0,1,3,SCT 20   BKN 26   OVC 32,1,14,1,11,1019,RODN 082156Z AUTO 34017G31KT 10SM -RA SCT020 BKN026 OVC032     14/11 A3008 RMK AO2 PK WND 35031/46 RAE01RAB12 SLP194           P0001 T01380106=,- RA
20180108_230000.003,0,RODN,,,,1,20180108220000,-1,-1,-1,-1,340,-1,15,-1,20,-1,-1,,-1,0,1,2,SCT 25   OVC 35,1,14,1,10,1019,RODN 082256Z AUTO 34015G20KT 10SM -RA SCT025 OVC035 14/10 A3010     RMK AO2 PK WND 33029/02 RAE31DZB31E39RAB39 SLP200 P0000           T01370095=,- RA
20180109_000000.004,0,RODN,,,,1,20180108230000,-1,-1,-1,-1,330,-1,13,-1,20,-1,-1,,-1,0,1,2,BKN 23   OVC 30,1,13,1,10,1021,RODN 082356Z AUTO 33013G20KT 10SM -RA BKN023 OVC030 13/10 A3014     RMK AO2 SLP214 P0001 60003 70053 T01340100 10163 20134           52028=,- RA
20180109_010000.002,0,RODN,,,,1,20180109000000,-1,-1,-1,-1,330,-1,12,-1,-1,-1,-1,,-1,0,1,3,BKN 24   BKN 29   OVC 35,1,14,1,10,1020,RODN 090056Z AUTO 33012KT 10SM -RA BKN024 BKN029 OVC035 14/10     A3013 RMK AO2 RAE00DZB00E05RAB08E17DZB28E29RAB31 SLP210           P0000 T01370099=,- RA
20180109_020000.002,0,RODN,,,,1,20180109010000,-1,-1,-1,-1,330,-1,11,-1,-1,-1,-1,,-1,0,1,2,SCT 32   BKN 44,1,14,1,9,1020,RODN 090156Z AUTO 33011KT 5SM HZ SCT032 BKN044 14/09 A3013 RMK     AO2 RAE0056DZB0056E0057 SLP210 P0000 T01430087=,HZ
20180109_030000.002,0,RODN,,,,1,20180109020000,-1,-1,-1,-1,320,-1,10,-1,17,-1,-1,,-1,0,1,2,BKN 24   OVC 31,1,15,1,9,1019,RODN 090256Z AUTO 32010G17KT 5SM HZ BKN024 OVC031 15/09 A3009     RMK AO2 RAB27E47DZB47E52 SLP197 P0000 60000 T01460090           55015=,HZ
20180109_040000.002,0,RODN,,,,1,20180109030000,-1,-1,-1,-1,330,-1,14,-1,18,-1,-1,,-1,0,0,3,FEW 0   SCT 38   SCT 180,1,15,1,8,1018,RODN 090356Z AUTO 33014G18KT 7SM FEW000 SCT038 SCT180 15/08     A3007 RMK AO2 RAB05E13DZB13E15 SLP190 P0000 T01500075=,
20180109_050000.002,0,RODN,,,,1,20180109040000,-1,-1,-1,-1,330,-1,14,-1,21,-1,-1,,-1,0,0,3,FEW 37   FEW 46   SCT 140,1,15,1,6,1018,RODN 090456Z AUTO 33014G21KT 10SM FEW037 FEW046 SCT140 15/06     A3006 RMK AO2 SLP187 T01470063=,
20180109_060000.002,0,RODN,,,,1,20180109050000,-1,-1,-1,-1,320,-1,14,-1,20,-1,-1,,-1,0,0,1,BKN 36,1,14,1,6,1018,RODN 090556Z AUTO 32014G20KT 10SM BKN036 14/06 A3006 RMK AO2     SLP187 60000 T01400061 10151 20133 56010=,
20180109_070000.002,0,RODN,,,,1,20180109060000,-1,-1,-1,-1,340,-1,13,-1,-1,-1,-1,,-1,0,0,2,SCT 40   SCT 120,1,14,1,6,1018,RODN 090656Z AUTO 34013KT 10SM SCT040 SCT120 14/06 A3007 RMK     AO2 SLP190 T01350056=,
20180109_080000.002,0,RODN,,,,1,20180109070000,-1,-1,-1,-1,340,-1,13,-1,21,-1,-1,,-1,0,0,1,BKN 44,1,13,1,5,1019,RODN 090756Z AUTO 34013G21KT 10SM BKN044 13/05 A3009 RMK AO2     SLP197 T01340048=,
20180109_090000.002,0,RODN,,,,1,20180109080000,-1,-1,-1,-1,340,-1,10,-1,-1,-1,-1,,-1,0,0,2,BKN 44   BKN 120,1,13,1,5,1020,RODN 090856Z AUTO 34010KT 10SM BKN044 BKN120 13/05 A3012 RMK     AO2 SLP208 T01330052 53021=,
20180109_100000.002,0,RODN,,,,1,20180109090000,-1,-1,-1,-1,330,-1,11,-1,-1,-1,-1,,-1,0,0,1,BKN 39,1,14,1,5,1021,RODN 090956Z AUTO 33011KT 10SM BKN039 14/05 A3014 RMK AO2     SLP214 T01360050=,
20180109_110000.002,0,RODN,,,,1,20180109100000,-1,-1,-1,-1,330,-1,10,-1,-1,-1,-1,,-1,0,0,2,FEW 37   BKN 47,1,14,1,5,1021,RODN 091056Z AUTO 33010KT 10SM FEW037 BKN047 14/05 A3015 RMK     AO2 SLP218 T01350054=,
20180109_120000.002,0,RODN,,,,1,20180109110000,-1,-1,-1,-1,350,-1,11,-1,-1,-1,-1,,-1,0,0,1,OVC 39,1,14,1,6,1021,RODN 091156Z AUTO 35011KT 10SM OVC039 14/06 A3016 RMK AO2     SLP221 T01350059 10141 20133 52014=,
20180109_130000.002,0,RODN,,,,1,20180109120000,-1,-1,-1,-1,330,-1,11,-1,-1,-1,-1,,-1,0,0,1,OVC 43,1,14,1,5,1021,RODN 091256Z AUTO 33011KT 10SM OVC043 14/05 A3016 RMK AO2     SLP221 T01350049=,
20180109_140000.002,0,RODN,,,,1,20180109130000,-1,-1,-1,-1,340,-1,8,-1,-1,-1,-1,,-1,0,0,0,,1,13,1,5,1021,RODN 091356Z AUTO 34008KT 10SM CLR 13/05 A3016 RMK AO2 SLP221     T01340045=,
20180109_150000.002,0,RODN,,,,1,20180109140000,-1,-1,-1,-1,330,-1,7,-1,-1,-1,-1,,-1,0,0,1,SCT 43,1,13,1,6,1022,RODN 091456Z AUTO 33007KT 10SM SCT043 13/06 A3017 RMK AO2     SLP224 T01340055 401760133 53001=,
20180109_160000.002,0,RODN,,,,1,20180109150000,-1,-1,-1,-1,340,-1,8,-1,-1,-1,-1,,-1,0,0,2,FEW 42   SCT 110,1,13,1,5,1021,RODN 091556Z AUTO 34008KT 10SM FEW042 SCT110 13/05 A3015 RMK     AO2 SLP218 T01340053=,
20180109_170000.002,0,RODN,,,,1,20180109160000,-1,-1,-1,-1,330,-1,8,-1,-1,-1,-1,,-1,0,0,3,FEW 42   SCT 50   BKN 110,1,13,1,5,1021,RODN 091656Z AUTO 33008KT 10SM FEW042 SCT050 BKN110 13/05 A3016     RMK AO2 SLP221 T01340051=,
20180109_180000.002,0,RODN,,,,1,20180109170000,-1,-1,-1,-1,340,-1,9,-1,-1,-1,-1,,-1,0,0,2,SCT 50   BKN 110,1,13,1,6,1021,RODN 091756Z AUTO 34009KT 10SM SCT050 BKN110 13/06 A3015 RMK     AO2 SLP218 T01340055 10136 20134 55004=,
20180109_190000.001,0,RODN,,,,1,20180109180000,-1,-1,-1,-1,330,-1,8,-1,-1,-1,-1,,-1,0,0,3,FEW 40   BKN 50   BKN 110,1,14,1,5,1021,RODN 091856Z AUTO 33008KT 10SM FEW040 BKN050 BKN110 14/05 A3016     RMK AO2 SLP221 T01350054=,
20180109_200000.002,0,RODN,,,,1,20180109190000,-1,-1,-1,-1,330,-1,9,-1,-1,-1,-1,,-1,0,0,3,SCT 41   BKN 55   OVC 110,1,14,1,5,1021,RODN 091956Z AUTO 33009KT 10SM SCT041 BKN055 OVC110 14/05 A3016     RMK AO2 SLP221 T01360050=,
20180109_210000.002,0,RODN,,,,1,20180109200000,-1,-1,-1,-1,330,-1,14,-1,22,-1,-1,,-1,0,0,3,BKN 42   BKN 55   OVC 110,1,14,1,6,1022,RODN 092056Z AUTO 33014G22KT 10SM BKN042 BKN055 OVC110 14/06     A3018 RMK AO2 SLP228 T01370056 52009=,
20180109_220000.002,0,RODN,,,,1,20180109210000,-1,-1,-1,-1,330,-1,12,-1,-1,-1,-1,,-1,0,0,2,SCT 47   BKN 110,1,14,1,4,1023,RODN 092156Z AUTO 33012KT 10SM SCT047 BKN110 14/04 A3020 RMK     AO2 SLP235 T01370035=,
20180109_230000.002,0,RODN,,,,1,20180109220000,-1,-1,-1,-1,340,-1,13,-1,-1,-1,-1,,-1,0,0,2,FEW 45   SCT 110,1,14,1,5,1023,RODN 092256Z AUTO 34013KT 10SM FEW045 SCT110 14/05 A3021 RMK     AO2 SLP238 T01360045=,
20180110_000000.004,0,RODN,,,,1,20180109230000,-1,-1,-1,-1,330,-1,9,-1,-1,-1,-1,,-1,0,0,2,SCT 45   SCT 120,1,14,1,4,1023,RODN 092356Z AUTO 33009KT 10SM SCT045 SCT120 14/04 A3021 RMK     AO2 SLP238 T01400037 10140 20134 51010=,
20180110_010000.002,0,RODN,,,,1,20180110000000,-1,-1,-1,-1,330,-1,12,-1,-1,-1,-1,,-1,0,0,1,SCT 43,1,15,1,5,1024,RODN 100056Z AUTO 33012KT 10SM SCT043 15/05 A3023 RMK AO2     SLP245 T01480050=,
20180110_020000.002,0,RODN,,,,1,20180110010000,-1,-1,-1,-1,320,-1,13,-1,-1,-1,-1,,-1,0,0,2,FEW 46   SCT 140,1,16,1,5,1023,RODN 100156Z AUTO 32013KT 10SM FEW046 SCT140 16/05 A3020 RMK     AO2 SLP234 T01550045=,
20180110_030000.002,0,RODN,,,,1,20180110020000,-1,-1,-1,-1,330,-1,16,-1,21,-1,-1,,-1,0,0,1,BKN 45,1,15,1,5,1023,RODN 100256Z AUTO 33016G21KT 10SM BKN045 15/05 A3022 RMK AO2     SLP241 T01480053 50002=,
20180110_040000.003,0,RODN,,,,1,20180110030000,-1,-1,-1,-1,330,-1,10,-1,19,-1,-1,,-1,0,0,2,SCT 47   BKN 60,1,15,1,5,1022,RODN 100356Z AUTO 33010G19KT 10SM SCT047 BKN060 15/05 A3019 RMK     AO2 SLP231 T01480048=,
20180110_050000.002,0,RODN,,,,1,20180110040000,-1,-1,-1,-1,310,-1,13,-1,21,-1,-1,,-1,0,0,3,FEW 42   BKN 55   BKN 140,1,15,1,5,1022,RODN 100456Z AUTO 31013G21KT 10SM FEW042 BKN055 BKN140 15/05     A3017 RMK AO2 SLP224 T01520054=,
20180110_060000.002,0,RODN,,,,1,20180110050000,-1,-1,-1,-1,310,-1,14,-1,18,-1,-1,,-1,0,0,3,FEW 48   SCT 60   BKN 140,1,15,1,4,1021,RODN 100556Z AUTO 31014G18KT 10SM FEW048 SCT060 BKN140 15/04     A3016 RMK AO2 SLP221 T01450039 10158 20140 56020=,
20180110_070000.002,0,RODN,,,,1,20180110060000,-1,-1,-1,-1,320,-1,17,-1,25,-1,-1,,-1,0,0,3,FEW 44   BKN 55   BKN 140,1,14,1,4,1021,RODN 100656Z AUTO 32017G25KT 10SM FEW044 BKN055 BKN140 14/04     A3016 RMK AO2 SLP221 T01420039=,
20180110_080000.002,0,RODN,,,,1,20180110070000,-1,-1,-1,-1,330,-1,13,-1,20,-1,-1,,-1,0,0,3,SCT 43   BKN 50   BKN 170,1,14,1,4,1022,RODN 100756Z AUTO 33013G20KT 10SM SCT043 BKN050 BKN170 14/04     A3018 RMK AO2 SLP228 T01380044=,
20180110_090000.002,0,RODN,,,,1,20180110080000,-1,-1,-1,-1,330,-1,10,-1,23,-1,-1,,-1,0,0,2,BKN 45   BKN 55,1,14,1,4,1022,RODN 100856Z AUTO 33010G23KT 10SM BKN045 BKN055 14/04 A3019 RMK     AO2 SLP231 T01350038 53010=,
20180110_100000.002,0,RODN,,,,1,20180110090000,-1,-1,-1,-1,340,-1,14,-1,19,-1,-1,,-1,0,0,3,SCT 45   BKN 55   BKN 140,1,13,1,4,1023,RODN 100956Z AUTO 34014G19KT 10SM SCT045 BKN055 BKN140 13/04     A3020 RMK AO2 SLP235 T01340040=,
20180110_110000.002,0,RODN,,,,1,20180110100000,-1,-1,-1,-1,340,-1,15,-1,22,-1,-1,,-1,0,0,3,FEW 49   SCT 60   BKN 180,1,13,1,2,1023,RODN 101056Z AUTO 34015G22KT 10SM FEW049 SCT060 BKN180 13/02     A3022 RMK AO2 SLP242 T01340023=,
20180110_120000.002,0,RODN,,,,1,20180110110000,-1,-1,-1,-1,330,-1,13,-1,17,-1,-1,,-1,0,0,3,SCT 47   BKN 60   BKN 180,1,13,1,3,1024,RODN 101156Z AUTO 33013G17KT 10SM SCT047 BKN060 BKN180 13/03     A3024 RMK AO2 SLP248 T01340026 10148 20134 53014=,
20180110_130000.002,0,RODN,,,,1,20180110120000,-1,-1,-1,-1,340,-1,14,-1,-1,-1,-1,,-1,0,0,2,BKN 49   OVC 60,1,13,1,3,1024,RODN 101256Z AUTO 34014KT 10SM BKN049 OVC060 13/03 A3024 RMK     AO2 SLP248 T01340032=,
20180110_140000.002,0,RODN,,,,1,20180110130000,-1,-1,-1,-1,340,-1,10,-1,18,-1,-1,,-1,0,0,2,FEW 41   BKN 60,1,13,1,4,1024,RODN 101356Z AUTO 34010G18KT 10SM FEW041 BKN060 13/04 A3023 RMK     AO2 SLP245 T01330039=,
20180110_150000.002,0,RODN,,,,1,20180110140000,-1,-1,-1,-1,340,-1,14,-1,20,-1,-1,,-1,0,0,1,SCT 60,1,13,1,4,1023,RODN 101456Z AUTO 34014G20KT 10SM SCT060 13/04 A3022 RMK AO2     SLP241 T01290035 401580129 58004=,
20180110_160000.002,0,RODN,,,,1,20180110150000,-1,-1,-1,-1,340,-1,13,-1,19,-1,-1,,-1,0,0,2,SCT 40   BKN 50,1,13,1,4,1024,RODN 101556Z AUTO 34013G19KT 10SM SCT040 BKN050 13/04 A3023 RMK     AO2 SLP245 T01300042=,
20180110_170000.002,0,RODN,,,,1,20180110160000,-1,-1,-1,-1,350,-1,16,-1,21,-1,-1,,-1,0,0,1,OVC 60,1,13,1,4,1024,RODN 101656Z AUTO 35016G21KT 10SM OVC060 13/04 A3023 RMK AO2     SLP245 T01300036=,
20180110_180000.002,0,RODN,,,,1,20180110170000,-1,-1,-1,-1,330,-1,13,-1,20,-1,-1,,-1,0,0,3,FEW 45   SCT 60   BKN 160,1,13,1,3,1024,RODN 101756Z AUTO 33013G20KT 10SM FEW045 SCT060 BKN160 13/03     A3023 RMK AO2 SLP245 T01270028 10135 20125 50003=,
20180110_190000.004,0,RODN,,,,1,20180110180000,-1,-1,-1,-1,340,-1,14,-1,19,-1,-1,,-1,0,0,2,FEW 43   BKN 60,1,12,1,3,1023,RODN 101856Z AUTO 34014G19KT 10SM FEW043 BKN060 12/03 A3022 RMK     AO2 SLP242 T01240031=,
20180110_200000.002,0,RODN,,,,1,20180110190000,-1,-1,-1,-1,330,-1,10,-1,-1,-1,-1,,-1,0,0,2,BKN 47   OVC 60,1,12,1,3,1024,RODN 101956Z AUTO 33010KT 10SM BKN047 OVC060 12/03 A3024 RMK     AO2 SLP248 T01230027=,
20180110_210000.002,0,RODN,,,,1,20180110200000,-1,-1,-1,-1,340,-1,13,-1,21,-1,-1,,-1,0,0,3,FEW 45   BKN 55   OVC 65,1,12,1,3,1024,RODN 102056Z AUTO 34013G21KT 10SM FEW045 BKN055 OVC065 12/03     A3024 RMK AO2 SLP248 T01220029 53004=,
20180110_220000.002,0,RODN,,,,1,20180110210000,-1,-1,-1,-1,330,-1,10,-1,20,-1,-1,,-1,0,0,3,SCT 46   BKN 60   OVC 75,1,12,1,2,1025,RODN 102156Z AUTO 33010G20KT 10SM SCT046 BKN060 OVC075 12/02     A3027 RMK AO2 SLP259 T01220024=,
20180110_230000.001,0,RODN,,,,1,20180110220000,-1,-1,-1,-1,10,-1,10,-1,19,-1,-1,,-1,0,0,2,BKN 45   OVC 65,1,12,1,4,1025,RODN 102256Z AUTO 01010G19KT 10SM BKN045 OVC065 12/04 A3028 RMK     AO2 SLP262 T01200035=,
20180111_000000.004,0,RODN,,,,1,20180110230000,-1,-1,-1,-1,350,-1,9,-1,-1,-1,-1,,-1,0,0,1,SCT 70,1,13,1,4,1025,RODN 102356Z AUTO 35009KT 10SM SCT070 13/04 A3027 RMK AO2     SLP259 T01290035 10130 20120 50007=,
20180111_010000.002,0,RODN,,,,1,20180111000000,-1,-1,-1,-1,340,-1,9,-1,-1,-1,-1,,-1,0,0,3,FEW 45   BKN 55   OVC 70,1,13,1,3,1026,RODN 110056Z AUTO 34009KT 10SM FEW045 BKN055 OVC070 13/03 A3031     RMK AO2 SLP272 T01290027=,
20180111_020000.002,0,RODN,,,,1,20180111010000,-1,-1,-1,-1,340,-1,9,-1,-1,-1,-1,,-1,0,0,2,BKN 47   OVC 60,1,13,1,3,1026,RODN 110156Z AUTO 34009KT 10SM BKN047 OVC060 13/03 A3030 RMK     AO2 SLP269 T01260033=,
20180111_030000.001,0,RODN,,,,1,20180111020000,-1,-1,-1,-1,330,-1,12,-1,19,-1,-1,,-1,0,0,1,FEW 75,1,15,1,2,1025,RODN 110256Z AUTO 33012G19KT 10SM FEW075 15/02 A3027 RMK AO2     SLP258 T01480023 50001=,
20180111_040000.002,0,RODN,,,,1,20180111030000,-1,-1,-1,-1,350,-1,15,-1,21,-1,-1,,-1,0,0,2,SCT 43   SCT 60,1,15,1,5,1024,RODN 110356Z AUTO 35015G21KT 10SM SCT043 SCT060 15/05 A3025 RMK     AO2 SLP252 T01490046=,
20180111_050000.002,0,RODN,,,,1,20180111040000,-1,-1,-1,-1,330,-1,15,-1,-1,-1,-1,,-1,0,0,2,BKN 47   BKN 60,1,14,1,3,1024,RODN 110456Z AUTO 33015KT 10SM BKN047 BKN060 14/03 A3024 RMK     AO2 SLP248 T01360025=,
20180111_060000.002,0,RODN,,,,1,20180111050000,-1,-1,-1,-1,340,-1,14,-1,23,-1,-1,,-1,0,0,3,SCT 45   SCT 50   BKN 70,1,14,1,3,1024,RODN 110556Z AUTO 34014G23KT 10SM SCT045 SCT050 BKN070 14/03     A3023 RMK AO2 SLP245 T01370029 10157 20125 57013=,
20180111_070000.002,0,RODN,,,,1,20180111060000,-1,-1,-1,-1,350,-1,16,-1,23,-1,-1,,-1,0,0,2,SCT 50   BKN 60,1,13,1,2,1023,RODN 110656Z AUTO 35016G23KT 10SM SCT050 BKN060 13/02 A3022 RMK     AO2 SLP242 T01340023=,
20180111_080000.002,0,RODN,,,,1,20180111070000,-1,-1,-1,-1,330,-1,13,-1,22,-1,-1,,-1,0,0,1,FEW 55,1,14,1,2,1024,RODN 110756Z AUTO 33013G22KT 10SM FEW055 14/02 A3023 RMK AO2     SLP245 T01360016=,
20180111_090000.002,0,RODN,,,,1,20180111080000,-1,-1,-1,-1,340,-1,7,-1,-1,-1,-1,,-1,0,0,3,BKN 42   BKN 65   OVC 150,1,12,1,5,1024,RODN 110856Z AUTO 34007KT 10SM BKN042 BKN065 OVC150 12/05 A3025     RMK AO2 SLP252 T01180050 53007=,
20180111_100000.002,0,RODN,,,,1,20180111090000,-1,-1,-1,-1,350,-1,15,-1,24,-1,-1,,-1,0,0,2,FEW 41   OVC 65,1,13,1,4,1025,RODN 110956Z AUTO 35015G24KT 10SM FEW041 OVC065 13/04 A3026 RMK     AO2 SLP255 T01280037=,
20180111_110000.002,0,RODN,,,,1,20180111100000,-1,-1,-1,-1,350,-1,15,-1,-1,-1,-1,,-1,0,0,4,FEW 37   FEW 48   BKN 70   BKN 170,1,12,1,4,1026,RODN 111056Z AUTO 35015KT 10SM FEW037 FEW048 BKN070 BKN170     12/04 A3029 RMK AO2 PK WND 32026/00 SLP266 T01240044=,
20180111_120000.002,0,RODN,,,,1,20180111110000,-1,-1,-1,-1,360,-1,11,-1,18,-1,-1,,-1,0,0,4,FEW 28   BKN 40   BKN 55   BKN 180,1,12,1,3,1026,RODN 111156Z AUTO 36011G18KT 10SM FEW028 BKN040 BKN055 BKN180     12/03 A3031 RMK AO2 PK WND 33028/26 SLP272 T01170032 10143           20115 52023=,
20180111_130000.002,0,RODN,,,,1,20180111120000,-1,-1,-1,-1,350,-1,16,-1,20,-1,-1,,-1,0,0,3,BKN 44   BKN 55   OVC 75,1,12,1,3,1027,RODN 111256Z AUTO 35016G20KT 10SM BKN044 BKN055 OVC075 12/03     A3032 RMK AO2 PK WND 35026/08 RAB27E37 SLP276 P0000           T01210028=,
20180111_140000.002,0,RODN,,,,1,20180111130000,-1,-1,-1,-1,350,-1,15,-1,21,-1,-1,,-1,0,0,3,FEW 43   BKN 60   OVC 70,1,12,1,2,1027,RODN 111356Z AUTO 35015G21KT 10SM FEW043 BKN060 OVC070 12/02     A3032 RMK AO2 SLP276 T01210020=,
20180111_150000.002,0,RODN,,,,1,20180111140000,-1,-1,-1,-1,360,-1,10,-1,19,-1,-1,,-1,0,0,2,SCT 49   OVC 65,1,12,1,1,1027,RODN 111456Z AUTO 36010G19KT 10SM SCT049 OVC065 12/01 A3032 RMK     AO2 SLP276 60000 T01200010 401570115 50003=,
20180111_160000.002,0,RODN,,,,1,20180111150000,-1,-1,-1,-1,350,-1,17,-1,23,-1,-1,,-1,0,0,2,FEW 47   BKN 70,1,12,1,2,1027,RODN 111556Z AUTO 35017G23KT 10SM FEW047 BKN070 12/02 A3032 RMK     AO2 SLP276 T01180020=,
20180111_170000.002,0,RODN,,,,1,20180111160000,-1,-1,-1,-1,340,-1,13,-1,19,-1,-1,,-1,0,1,2,BKN 39   OVC 65,1,11,1,4,1026,RODN 111656Z AUTO 34013G19KT 10SM -RA BKN039 OVC065 11/04 A3030     RMK AO2 RAB41 SLP269 P0000 T01140044=,- RA
20180111_180000.002,0,RODN,,,,1,20180111170000,-1,-1,-1,-1,340,-1,18,-1,23,-1,-1,,-1,0,0,2,FEW 41   FEW 75,1,11,1,2,1026,RODN 111756Z AUTO 34018G23KT 10SM FEW041 FEW075 11/02 A3029 RMK     AO2 RAE1658 SLP266 P0000 60000 T01130023 10123 20113           58011=,
20180111_190000.002,0,RODN,,,,1,20180111180000,-1,-1,-1,-1,340,-1,13,-1,20,-1,-1,,-1,0,0,3,FEW 39   BKN 47   BKN 70,1,12,1,1,1025,RODN 111856Z AUTO 34013G20KT 10SM FEW039 BKN047 BKN070 12/01     A3028 RMK AO2 SLP262 T01160010=,
20180111_200000.002,0,RODN,,,,1,20180111190000,-1,-1,-1,-1,340,-1,14,-1,22,-1,-1,,-1,0,0,2,FEW 46   OVC 70,1,12,1,2,1026,RODN 111956Z AUTO 34014G22KT 10SM FEW046 OVC070 12/02 A3029 RMK     AO2 SLP265 T01180020=,
20180111_210000.002,0,RODN,,,,1,20180111200000,-1,-1,-1,-1,20,-1,8,-1,-1,-1,-1,,-1,0,1,2,BKN 35   OVC 60,1,11,1,5,1026,RODN 112056Z AUTO 02008KT 10SM -RA BKN035 OVC060 11/05 A3030     RMK AO2 RAB50 SLP269 P0000 60000 T01130045 53004=,- RA
20180111_220000.002,0,RODN,,,,1,20180111210000,-1,-1,-1,-1,330,-1,12,-1,-1,-1,-1,,-1,0,1,2,FEW 44   OVC 70,1,11,1,4,1027,RODN 112156Z AUTO 33012KT 10SM -RA FEW044 OVC070 11/04 A3032     RMK AO2 RAE06RAB49 SLP276 P0000 T01110039=,- RA
20180111_230000.002,0,RODN,,,,1,20180111220000,-1,-1,-1,-1,350,-1,10,-1,-1,-1,-1,,-1,0,0,3,BKN 49   BKN 60   OVC 80,1,12,1,3,1027,RODN 112256Z AUTO 35010KT 10SM BKN049 BKN060 OVC080 12/03 A3032     RMK AO2 RAE2158 SLP276 P0000 T01170027=,
20180112_000000.004,0,RODN,,,,1,20180111230000,-1,-1,-1,-1,340,-1,13,-1,22,-1,-1,,-1,0,0,2,FEW 45   OVC 75,1,12,1,2,1027,RODN 112356Z AUTO 34013G22KT 10SM FEW045 OVC075 12/02 A3034 RMK     AO2 SLP283 60000 T01200022 10120 20104 52014=,
20180112_010000.001,0,RODN,,,,1,20180112000000,-1,-1,-1,-1,350,-1,12,-1,21,-1,-1,,-1,0,0,2,FEW 50   OVC 80,1,13,1,1,1028,RODN 120056Z AUTO 35012G21KT 10SM FEW050 OVC080 13/01 A3035 RMK     AO2 SLP286 T01280012=,
20180112_020000.002,0,RODN,,,,1,20180112010000,-1,-1,-1,-1,330,-1,14,-1,-1,-1,-1,,-1,0,0,1,OVC 75,1,13,1,2,1027,RODN 120156Z AUTO 33014KT 10SM OVC075 13/02 A3034 RMK AO2     SLP282 T01290019=,
20180112_030000.002,0,RODN,,,,1,20180112020000,-1,-1,-1,-1,330,-1,12,-1,-1,-1,-1,,-1,0,0,3,FEW 45   BKN 60   OVC 80,1,12,1,2,1027,RODN 120256Z AUTO 33012KT 10SM FEW045 BKN060 OVC080 12/02 A3032     RMK AO2 DZB42E51 SLP276 P0000 60000 T01220024 58007=,
20180112_040000.002,0,RODN,,,,1,20180112030000,-1,-1,-1,-1,360,-1,13,-1,17,-1,-1,,-1,0,1,5,FEW 2   SCT 33   BKN 41   BKN 60   OVC 80,1,11,1,6,1026,RODN 120356Z AUTO 36013G17KT 9SM RA FEW002 SCT033 BKN041 BKN060     OVC080 11/06 A3030 RMK AO2 RAB09E21RAB49 SLP269 P0000           T01130060=,RA
20180112_050000.003,0,RODN,,,,1,20180112040000,-1,-1,-1,-1,320,-1,12,-1,-1,-1,-1,,-1,0,1,2,FEW 38   SCT 90,1,12,1,6,1025,RODN 120456Z AUTO 32012KT 10SM -RA FEW038 SCT090 12/06 A3028     RMK AO2 RAE19RAB51 SLP262 P0001 T01190057=,- RA
20180112_060000.002,0,RODN,,,,1,20180112050000,-1,-1,-1,-1,340,-1,15,-1,20,-1,-1,,-1,0,0,2,BKN 41   OVC 50,1,11,1,4,1025,RODN 120556Z AUTO 34015G20KT 10SM BKN041 OVC050 11/04 A3028 RMK     AO2 RAE17DZB17E20RAB20E33DZB33E35 SLP262 P0000 60001           T01130041 10139 20102 56015=,
20180112_070000.001,0,RODN,,,,1,20180112060000,-1,-1,-1,-1,340,-1,16,-1,22,-1,-1,,-1,0,0,2,FEW 47   SCT 60,1,13,1,2,1026,RODN 120656Z AUTO 34016G22KT 10SM FEW047 SCT060 13/02 A3029 RMK     AO2 PK WND 31026/44 RAB0556E09 SLP266 P0000 T01290016=,
20180112_080000.002,0,RODN,,,,1,20180112070000,-1,-1,-1,-1,350,-1,11,-1,21,-1,-1,,-1,0,0,1,FEW 34,1,12,1,3,1026,RODN 120756Z AUTO 35011G21KT 10SM FEW034 12/03 A3030 RMK AO2     SLP269 T01170027=,
20180112_090000.002,0,RODN,,,,1,20180112080000,-1,-1,-1,-1,360,-1,13,-1,23,-1,-1,,-1,0,1,3,FEW 2   FEW 25   OVC 39,1,9,1,6,1026,RODN 120856Z AUTO 36013G23KT 9SM RA FEW002 FEW025 OVC039 09/06     A3030 RMK AO2 PK WND 35026/41 RAB41 SLP269 P0003 60003           T00940061 52008=,RA
20180112_100000.002,0,RODN,,,,1,20180112090000,-1,-1,-1,-1,60,-1,4,-1,-1,-1,-1,,-1,0,0,3,SCT 39   BKN 55   BKN 70,1,9,1,6,1027,RODN 120956Z AUTO 06004KT 10SM SCT039 BKN055 BKN070 09/06 A3032     RMK AO2 RAE07 SLP276 P0001 T00890058=,
20180112_110000.002,0,RODN,,,,1,20180112100000,-1,-1,-1,-1,330,-1,11,-1,15,-1,-1,,-1,0,1,3,FEW 1   BKN 37   BKN 48,1,9,1,7,1027,RODN 121056Z AUTO 33011G15KT 8SM +RA FEW001 BKN037 BKN048 09/07     A3033 RMK AO2 RAB01E10RAB49 SLP280 P0003 T00910065=,+ RA
20180112_120000.002,0,RODN,,,,1,20180112110000,-1,-1,-1,-1,10,-1,13,-1,19,-1,-1,,-1,0,0,3,SCT 40   SCT 48   BKN 65,1,10,1,4,1027,RODN 121156Z AUTO 01013G19KT 10SM SCT040 SCT048 BKN065 10/04     A3032 RMK AO2 RAE19 SLP276 P0002 60009 T01040043 10132           20087 50007=,
20180112_130000.002,0,RODN,,,,1,20180112120000,-1,-1,-1,-1,360,-1,8,-1,-1,-1,-1,,-1,0,0,2,FEW 48   SCT 60,1,11,1,3,1027,RODN 121256Z AUTO 36008KT 10SM FEW048 SCT060 11/03 A3034 RMK     AO2 SLP283 T01050028=,
20180112_140000.002,0,RODN,,,,1,20180112130000,-1,-1,-1,-1,360,-1,10,-1,-1,-1,-1,,-1,0,0,2,SCT 46   SCT 60,1,11,1,3,1028,RODN 121356Z AUTO 36010KT 10SM SCT046 SCT060 11/03 A3035 RMK     AO2 SLP286 T01060032=,
20180112_150000.002,0,RODN,,,,1,20180112140000,-1,-1,-1,-1,20,-1,9,-1,-1,-1,-1,,-1,0,1,2,SCT 38   SCT 46,1,10,1,4,1027,RODN 121456Z AUTO 02009KT 10SM -RA SCT038 SCT046 10/04 A3034     RMK AO2 RAB13E22RAB48 SLP283 P0000 60000 T01010040           401390087 50006=,- RA
20180112_160000.002,0,RODN,,,,1,20180112150000,-1,-1,-1,-1,40,-1,9,-1,-1,-1,-1,,-1,0,1,2,BKN 39   OVC 50,1,9,1,6,1027,RODN 121556Z AUTO 04009KT 10SM -RA BKN039 OVC050 09/06 A3033     RMK AO2 RAE1458RAB36 SLP280 P0001 T00930062=,- RA
20180112_170000.002,0,RODN,,,,1,20180112160000,-1,-1,-1,-1,10,-1,7,-1,-1,-1,-1,,-1,0,0,3,FEW 36   SCT 49   BKN 70,1,9,1,6,1027,RODN 121656Z AUTO 01007KT 10SM FEW036 SCT049 BKN070 09/06 A3033     RMK AO2 RAE27 SLP280 P0006 T00890056=,
20180112_180000.002,0,RODN,,,,1,20180112170000,-1,-1,-1,-1,30,-1,9,-1,-1,-1,-1,,-1,0,1,3,FEW 39   SCT 48   SCT 70,1,9,1,5,1027,RODN 121756Z AUTO 03009KT 10SM -RA FEW039 SCT048 SCT070 09/05     A3032 RMK AO2 RAB55 SLP276 60007 T00870053 10109 20087           56006=,- RA
20180112_190000.002,0,RODN,,,,1,20180112180000,-1,-1,-1,-1,50,-1,5,-1,-1,-1,-1,,-1,0,1,2,BKN 39   BKN 48,1,9,1,6,1027,RODN 121856Z AUTO 05005KT 10SM -RA BKN039 BKN048 09/06 A3032     RMK AO2 RAE09RAB21E45RAB49 SLP276 P0002 T00870063=,- RA
20180112_200000.001,0,RODN,,,,1,20180112190000,-1,-1,-1,-1,360,-1,8,-1,-1,-1,-1,,-1,0,1,3,FEW 37   BKN 46   OVC 60,1,10,1,6,1026,RODN 121956Z AUTO 36008KT 10SM -RA FEW037 BKN046 OVC060 10/06     A3030 RMK AO2 RAE03DZB03E05RAB40 SLP269 P0001 T01030063=,- RA
20180112_210000.002,0,RODN,,,,1,20180112200000,-1,-1,-1,-1,70,-1,5,-1,-1,-1,-1,,-1,0,0,1,BKN 47,1,9,1,6,1027,RODN 122056Z AUTO 07005KT 10SM BKN047 09/06 A3032 RMK AO2 RAE05     SLP276 P0000 60003 T00870063 55000=,
20180112_220000.002,0,RODN,,,,1,20180112210000,-1,-1,-1,-1,60,-1,4,-1,-1,-1,-1,,-1,0,0,0,,1,8,1,6,1027,RODN 122156Z AUTO 06004KT 10SM CLR 08/06 A3033 RMK AO2 RAB10E23     SLP280 P0002 T00840060=,
20180112_230000.002,0,RODN,,,,1,20180112220000,-1,-1,-1,-1,330,-1,4,-1,-1,-1,-1,,-1,0,0,3,SCT 33   BKN 43   BKN 55,1,9,1,7,1027,RODN 122256Z AUTO 33004KT 10SM SCT033 BKN043 BKN055 09/07 A3034     RMK AO2 SLP283 T00940070=,
20180113_000000.004,0,RODN,,,,1,20180112230000,-1,-1,-1,-1,40,-1,8,-1,-1,-1,-1,,-1,0,0,0,,1,12,1,8,1028,RODN 122356Z AUTO 04008KT 10SM CLR 12/08 A3036 RMK AO2 SLP290     60005 70022 T01180077 10118 20080 52015=,
20180113_010000.001,0,RODN,,,,1,20180113000000,-1,-1,-1,-1,50,-1,9,-1,-1,-1,-1,,-1,0,0,1,FEW 200,1,13,1,8,1029,RODN 130056Z AUTO 05009KT 10SM FEW200 13/08 A3038 RMK AO2     SLP296 T01320076=,
20180113_020000.002,0,RODN,,,,1,20180113010000,-1,-1,-1,-1,50,-1,12,-1,-1,-1,-1,,-1,0,0,1,FEW 85,1,15,1,8,1029,RODN 130156Z AUTO 05012KT 10SM FEW085 15/08 A3038 RMK AO2     SLP296 T01460081=,
20180113_030000.002,0,RODN,,,,1,20180113020000,-1,-1,-1,-1,10,-1,11,-1,-1,-1,-1,,-1,0,0,1,BKN 33,1,15,1,7,1027,RODN 130256Z AUTO 01011KT 10SM BKN033 15/07 A3034 RMK AO2     SLP282 T01530073 58007=,
20180113_040000.002,0,RODN,,,,1,20180113030000,-1,-1,-1,-1,50,-1,11,-1,16,-1,-1,,-1,0,0,1,FEW 36,1,16,1,7,1027,RODN 130356Z AUTO 05011G16KT 10SM FEW036 16/07 A3032 RMK AO2     SLP276 T01590069=,
20180113_050000.002,0,RODN,,,,1,20180113040000,-1,-1,-1,-1,40,-1,11,-1,-1,-1,-1,,-1,0,0,2,SCT 36   SCT 65,1,16,1,7,1027,RODN 130456Z AUTO 04011KT 10SM SCT036 SCT065 16/07 A3033 RMK     AO2 SLP279 T01580065=,
20180113_060000.002,0,RODN,,,,1,20180113050000,-1,-1,-1,-1,20,-1,15,-1,20,-1,-1,,-1,0,0,1,SCT 41,1,16,1,7,1026,RODN 130556Z AUTO 02015G20KT 10SM SCT041 16/07 A3030 RMK AO2     SLP269 T01610065 10165 20119 55013=,
20180113_070000.002,0,RODN,,,,1,20180113060000,-1,-1,-1,-1,30,-1,15,-1,21,-1,-1,,-1,0,0,1,FEW 95,1,16,1,6,1026,RODN 130656Z AUTO 03015G21KT 10SM FEW095 16/06 A3031 RMK AO2     SLP272 T01560058=,
20180113_080000.002,0,RODN,,,,1,20180113070000,-1,-1,-1,-1,40,-1,13,-1,-1,-1,-1,,-1,0,0,0,,1,14,1,6,1026,RODN 130756Z AUTO 04013KT 10SM CLR 14/06 A3029 RMK AO2 SLP266     T01430064=,
20180113_090000.002,0,RODN,,,,1,20180113080000,-1,-1,-1,-1,50,-1,10,-1,-1,-1,-1,,-1,0,0,0,,1,13,1,7,1026,RODN 130856Z AUTO 05010KT 10SM CLR 13/07 A3031 RMK AO2 SLP273     T01260066 50001=,
20180113_100000.002,0,RODN,,,,1,20180113090000,-1,-1,-1,-1,50,-1,11,-1,-1,-1,-1,,-1,0,0,0,,1,12,1,6,1026,RODN 130956Z AUTO 05011KT 10SM CLR 12/06 A3031 RMK AO2 SLP273     T01170060=,
20180113_110000.002,0,RODN,,,,1,20180113100000,-1,-1,-1,-1,50,-1,10,-1,-1,-1,-1,,-1,0,0,1,FEW 42,1,12,1,6,1027,RODN 131056Z AUTO 05010KT 10SM FEW042 12/06 A3032 RMK AO2     SLP276 T01210064=,
20180113_120000.002,0,RODN,,,,1,20180113110000,-1,-1,-1,-1,40,-1,6,-1,-1,-1,-1,,-1,0,0,0,,1,11,1,6,1027,RODN 131156Z AUTO 04006KT 10SM CLR 11/06 A3033 RMK AO2 SLP279     T01100063 10161 20110 52009=,
20180113_130000.002,0,RODN,,,,1,20180113120000,-1,-1,-1,-1,40,-1,10,-1,-1,-1,-1,,-1,0,0,0,,1,9,1,6,1027,RODN 131256Z AUTO 04010KT 10SM CLR 09/06 A3033 RMK AO2 SLP279     T00910057=,
20180113_140000.001,0,RODN,,,,1,20180113130000,-1,-1,-1,-1,40,-1,8,-1,-1,-1,-1,,-1,0,0,1,FEW 65,1,10,1,5,1027,RODN 131356Z AUTO 04008KT 10SM FEW065 10/05 A3032 RMK AO2     SLP276 T01010047=,
20180113_150000.002,0,RODN,,,,1,20180113140000,-1,-1,-1,-1,40,-1,5,-1,-1,-1,-1,,-1,0,0,1,BKN 65,1,10,1,5,1027,RODN 131456Z AUTO 04005KT 10SM BKN065 10/05 A3034 RMK AO2     SLP282 T00990049 401650080 53003=,
20180113_160000.002,0,RODN,,,,1,20180113150000,-1,-1,-1,-1,40,-1,11,-1,-1,-1,-1,,-1,0,0,1,FEW 70,1,11,1,5,1027,RODN 131556Z AUTO 04011KT 10SM FEW070 11/05 A3032 RMK AO2     SLP276 T01100053=,
20180113_170000.002,0,RODN,,,,1,20180113160000,-1,-1,-1,-1,50,-1,8,-1,-1,-1,-1,,-1,0,0,1,FEW 65,1,11,1,6,1026,RODN 131656Z AUTO 05008KT 10SM FEW065 11/06 A3031 RMK AO2     SLP272 T01100059=,
20180113_180000.002,0,RODN,,,,1,20180113170000,-1,-1,-1,-1,40,-1,8,-1,-1,-1,-1,,-1,0,0,1,BKN 75,1,12,1,6,1026,RODN 131756Z AUTO 04008KT 10SM BKN075 12/06 A3030 RMK AO2     SLP269 T01170058 10122 20081 57015=,
20180113_190000.001,0,RODN,,,,1,20180113180000,-1,-1,-1,-1,50,-1,7,-1,-1,-1,-1,,-1,0,0,0,,1,9,1,5,1026,RODN 131856Z AUTO 05007KT 10SM CLR 09/05 A3029 RMK AO2 SLP266     T00890049=,
20180113_200000.001,0,RODN,,,,1,20180113190000,-1,-1,-1,-1,40,-1,6,-1,-1,-1,-1,,-1,0,0,2,FEW 27   BKN 65,1,9,1,6,1026,RODN 131956Z AUTO 04006KT 10SM FEW027 BKN065 09/06 A3029 RMK     AO2 SLP266 T00920063=,
20180113_210000.002,0,RODN,,,,1,20180113200000,-1,-1,-1,-1,40,-1,10,-1,-1,-1,-1,,-1,0,0,1,FEW 75,1,11,1,7,1025,RODN 132056Z AUTO 04010KT 10SM FEW075 11/07 A3028 RMK AO2     SLP262 T01100073 56006=,
20180113_220000.002,0,RODN,,,,1,20180113210000,-1,-1,-1,-1,60,-1,7,-1,-1,-1,-1,,-1,0,0,0,,1,10,1,8,1026,RODN 132156Z AUTO 06007KT 10SM CLR 10/08 A3029 RMK AO2 SLP266     T01020078=,
20180113_230000.002,0,RODN,,,,1,20180113220000,-1,-1,-1,-1,60,-1,8,-1,-1,-1,-1,,-1,0,0,0,,1,10,1,8,1026,RODN 132256Z AUTO 06008KT 10SM CLR 10/08 A3029 RMK AO2 SLP266     T01030084=,
20180114_000000.001,0,RODN,,,,1,20180113230000,-1,-1,-1,-1,40,-1,8,-1,-1,-1,-1,,-1,0,0,0,,1,14,1,10,1026,RODN 132356Z AUTO 04008KT 10SM CLR 14/10 A3030 RMK AO2 SLP269     T01430099 10144 20083 50006=,
20180114_010000.002,0,RODN,,,,1,20180114000000,-1,-1,-1,-1,60,-1,18,-1,22,-1,-1,,-1,0,0,0,,1,18,1,8,1026,RODN 140056Z AUTO 06018G22KT 10SM CLR 18/08 A3030 RMK AO2     SLP269 T01760084=,
20180114_020000.002,0,RODN,,,,1,20180114010000,-1,-1,-1,-1,70,-1,14,-1,-1,-1,-1,,-1,0,0,0,,1,19,1,7,1025,RODN 140156Z AUTO 07014KT 10SM CLR 19/07 A3027 RMK AO2 PK WND     05029/0059 SLP258 T01900074=,
20180114_030000.002,0,RODN,,,,1,20180114020000,-1,-1,-1,-1,70,-1,20,-1,26,-1,-1,,-1,0,0,3,SCT 40   BKN 48   BKN 60,1,19,1,10,1024,RODN 140256Z AUTO 07020G26KT 10SM SCT040 BKN048 BKN060 19/10     A3025 RMK AO2 SLP252 T01930100 58018=,
20180114_040000.002,0,RODN,,,,1,20180114030000,-1,-1,-1,-1,80,-1,18,-1,24,-1,-1,,-1,0,0,0,,1,19,1,9,1023,RODN 140356Z AUTO 08018G24KT 10SM CLR 19/09 A3022 RMK AO2 PK     WND 08028/35 SLP241 T01930089=,
20180114_050000.002,0,RODN,,,,1,20180114040000,-1,-1,-1,-1,80,-1,15,-1,22,-1,-1,,-1,0,0,1,FEW 50,1,18,1,9,1023,RODN 140456Z AUTO 08015G22KT 10SM FEW050 18/09 A3021 RMK AO2     SLP238 T01810092=,
20180114_060000.001,0,RODN,,,,1,20180114050000,-1,-1,-1,-1,70,-1,16,-1,22,-1,-1,,-1,0,0,2,FEW 36   BKN 90,1,18,1,9,1022,RODN 140556Z AUTO 07016G22KT 10SM FEW036 BKN090 18/09 A3019 RMK     AO2 SLP231 T01790093 10198 20142 57019=,
20180114_070000.002,0,RODN,,,,1,20180114060000,-1,-1,-1,-1,80,-1,14,-1,-1,-1,-1,,-1,0,0,1,BKN 100,1,19,1,10,1022,RODN 140656Z AUTO 08014KT 10SM BKN100 19/10 A3018 RMK AO2     SLP228 T01900095=,
20180114_080000.002,0,RODN,,,,1,20180114070000,-1,-1,-1,-1,70,-1,15,-1,-1,-1,-1,,-1,0,0,0,,1,18,1,10,1022,RODN 140756Z AUTO 07015KT 10SM CLR 18/10 A3019 RMK AO2 SLP231     T01800096=,
20180114_090000.002,0,RODN,,,,1,20180114080000,-1,-1,-1,-1,70,-1,16,-1,-1,-1,-1,,-1,0,0,1,FEW 34,1,17,1,10,1022,RODN 140856Z AUTO 07016KT 10SM FEW034 17/10 A3019 RMK AO2     SLP231 T01680099 53002=,
20180114_100000.002,0,RODN,,,,1,20180114090000,-1,-1,-1,-1,80,-1,8,-1,-1,-1,-1,,-1,0,0,0,,1,16,1,9,1023,RODN 140956Z AUTO 08008KT 10SM CLR 16/09 A3020 RMK AO2 SLP235     T01610090=,
20180114_110000.002,0,RODN,,,,1,20180114100000,-1,-1,-1,-1,90,-1,7,-1,-1,-1,-1,,-1,0,0,0,,1,15,1,9,1023,RODN 141056Z AUTO 09007KT 10SM CLR 15/09 A3022 RMK AO2 SLP242     T01500089=,
20180114_120000.002,0,RODN,,,,1,20180114110000,-1,-1,-1,-1,70,-1,6,-1,-1,-1,-1,,-1,0,0,0,,1,13,1,9,1023,RODN 141156Z AUTO 07006KT 10SM CLR 13/09 A3022 RMK AO2 SLP241     T01250086 10190 20125 52009=,
20180114_130000.001,0,RODN,,,,1,20180114120000,-1,-1,-1,-1,80,-1,9,-1,-1,-1,-1,,-1,0,0,0,,1,15,1,10,1023,RODN 141256Z AUTO 08009KT 10SM CLR 15/10 A3022 RMK AO2 SLP241     T01520098=,
20180114_140000.002,0,RODN,,,,1,20180114130000,-1,-1,-1,-1,80,-1,7,-1,-1,-1,-1,,-1,0,0,0,,1,15,1,10,1023,RODN 141356Z AUTO 08007KT 10SM CLR 15/10 A3022 RMK AO2 SLP241     T01470095=,
20180114_150000.002,0,RODN,,,,1,20180114140000,-1,-1,-1,-1,80,-1,8,-1,-1,-1,-1,,-1,0,0,0,,1,15,1,10,1023,RODN 141456Z AUTO 08008KT 10SM CLR 15/10 A3020 RMK AO2 SLP234     T01490097 401980081 58008=,
20180114_160000.002,0,RODN,,,,1,20180114150000,-1,-1,-1,-1,90,-1,7,-1,-1,-1,-1,,-1,0,0,0,,1,15,1,9,1022,RODN 141556Z AUTO 09007KT 10SM CLR 15/09 A3019 RMK AO2 SLP231     T01470093=,
20180114_170000.002,0,RODN,,,,1,20180114160000,-1,-1,-1,-1,80,-1,5,-1,-1,-1,-1,,-1,0,0,0,,1,13,1,9,1022,RODN 141656Z AUTO 08005KT 10SM CLR 13/09 A3019 RMK AO2 SLP231     T01330092=,
20180114_180000.001,0,RODN,,,,1,20180114170000,-1,-1,-1,-1,50,-1,5,-1,-1,-1,-1,,-1,0,0,0,,1,10,1,8,1022,RODN 141756Z AUTO 05005KT 10SM CLR 10/08 A3017 RMK AO2 SLP224     T00960079 10154 20094 55010=,
20180114_190000.002,0,RODN,,,,1,20180114180000,-1,-1,-1,-1,50,-1,8,-1,-1,-1,-1,,-1,0,0,0,,1,10,1,8,1022,RODN 141856Z AUTO 05008KT 10SM CLR 10/08 A3017 RMK AO2 SLP224     T01010082=,
20180114_200000.001,0,RODN,,,,1,20180114190000,-1,-1,-1,-1,60,-1,7,-1,-1,-1,-1,,-1,0,0,1,OVC 150,1,13,1,11,1021,RODN 141956Z AUTO 06007KT 10SM OVC150 13/11 A3014 RMK AO2     SLP214 T01300105=,
20180114_210000.002,0,RODN,,,,1,20180114200000,-1,-1,-1,-1,50,-1,7,-1,-1,-1,-1,,-1,0,0,2,SCT 130   OVC 160,1,13,1,11,1021,RODN 142056Z AUTO 05007KT 10SM SCT130 OVC160 13/11 A3015 RMK     AO2 SLP217 T01340114 55006=,
20180114_220000.002,0,RODN,,,,1,20180114210000,-1,-1,-1,-1,70,-1,8,-1,-1,-1,-1,,-1,0,0,1,BKN 160,1,12,1,11,1021,RODN 142156Z AUTO 07008KT 10SM BKN160 12/11 A3015 RMK AO2     SLP218 T01240108=,
20180114_230000.002,0,RODN,,,,1,20180114220000,-1,-1,-1,-1,50,-1,8,-1,-1,-1,-1,,-1,0,0,1,BKN 160,1,13,1,11,1022,RODN 142256Z AUTO 05008KT 10SM BKN160 13/11 A3019 RMK AO2     SLP231 T01260107=,
20180115_000000.004,0,RODN,,,,1,20180114230000,-1,-1,-1,-1,50,-1,6,-1,-1,-1,-1,,-1,0,0,1,FEW 38,1,17,1,14,1023,RODN 142356Z AUTO 05006KT 10SM FEW038 17/14 A3020 RMK AO2     SLP234 T01720135 10172 20095 53016=,
20180115_010000.002,0,RODN,,,,1,20180115000000,-1,-1,-1,-1,70,-1,13,-1,-1,-1,-1,,-1,0,0,0,,1,20,1,13,1023,RODN 150056Z AUTO 07013KT 10SM CLR 20/13 A3021 RMK AO2 SLP237     T01990126=,
20180115_020000.002,0,RODN,,,,1,20180115010000,-1,-1,-1,-1,60,-1,17,-1,22,-1,-1,,-1,0,0,1,FEW 34,1,21,1,12,1023,RODN 150156Z AUTO 06017G22KT 10SM FEW034 21/12 A3020 RMK AO2     SLP234 T02080122=,
20180115_030000.002,0,RODN,,,,1,20180115020000,-1,-1,-1,-1,70,-1,17,-1,20,-1,-1,,-1,0,0,0,,1,21,1,12,1021,RODN 150256Z AUTO 07017G20KT 10SM CLR 21/12 A3016 RMK AO2     SLP220 T02120118 58012=,
20180115_040000.002,0,RODN,,,,1,20180115030000,-1,-1,-1,-1,60,-1,15,-1,-1,-1,-1,,-1,0,0,1,FEW 36,1,22,1,13,1021,RODN 150356Z AUTO 06015KT 10SM FEW036 22/13 A3014 RMK AO2     SLP213 T02170128=,
20180115_050000.002,0,RODN,,,,1,20180115040000,-1,-1,-1,-1,70,-1,16,-1,22,-1,-1,,-1,0,0,1,SCT 34,1,21,1,13,1020,RODN 150456Z AUTO 07016G22KT 10SM SCT034 21/13 A3011 RMK AO2     SLP203 T02080127=,
20180115_060000.002,0,RODN,,,,1,20180115050000,-1,-1,-1,-1,70,-1,17,-1,-1,-1,-1,,-1,0,0,1,SCT 36,1,21,1,13,1019,RODN 150556Z AUTO 07017KT 10SM SCT036 21/13 A3010 RMK AO2     SLP201 T02090128 10217 20174 57022=,
20180115_070000.003,0,RODN,,,,1,20180115060000,-1,-1,-1,-1,70,-1,16,-1,20,-1,-1,,-1,0,0,1,BKN 33,1,21,1,13,1019,RODN 150656Z AUTO 07016G20KT 10SM BKN033 21/13 A3010 RMK AO2     SLP200 T02090128=,
20180115_080000.002,0,RODN,,,,1,20180115070000,-1,-1,-1,-1,80,-1,11,-1,-1,-1,-1,,-1,0,0,0,,1,20,1,12,1020,RODN 150756Z AUTO 08011KT 10SM CLR 20/12 A3011 RMK AO2 SLP203     T02010121=,
20180115_090000.002,0,RODN,,,,1,20180115080000,-1,-1,-1,-1,90,-1,10,-1,-1,-1,-1,,-1,0,0,0,,1,19,1,13,1020,RODN 150856Z AUTO 09010KT 10SM CLR 19/13 A3012 RMK AO2 SLP207     T01900125 53005=,
20180115_100000.002,0,RODN,,,,1,20180115090000,-1,-1,-1,-1,90,-1,10,-1,-1,-1,-1,,-1,0,0,0,,1,19,1,12,1020,RODN 150956Z AUTO 09010KT 10SM CLR 19/12 A3012 RMK AO2 SLP207     T01870122=,
20180115_110000.002,0,RODN,,,,1,20180115100000,-1,-1,-1,-1,90,-1,9,-1,-1,-1,-1,,-1,0,0,0,,1,19,1,13,1020,RODN 151056Z AUTO 09009KT 10SM CLR 19/13 A3013 RMK AO2 SLP210     T01850127=,
20180115_120000.002,0,RODN,,,,1,20180115110000,-1,-1,-1,-1,90,-1,8,-1,-1,-1,-1,,-1,0,0,0,,1,18,1,13,1021,RODN 151156Z AUTO 09008KT 10SM CLR 18/13 A3015 RMK AO2 SLP217     T01810125 10212 20181 52010=,
20180115_130000.002,0,RODN,,,,1,20180115120000,-1,-1,-1,-1,90,-1,8,-1,-1,-1,-1,,-1,0,0,0,,1,18,1,13,1021,RODN 151256Z AUTO 09008KT 10SM CLR 18/13 A3015 RMK AO2 SLP217     T01810127=,
20180115_140000.002,0,RODN,,,,1,20180115130000,-1,-1,-1,-1,90,-1,8,-1,-1,-1,-1,,-1,0,0,0,,1,18,1,13,1021,RODN 151356Z AUTO 09008KT 10SM CLR 18/13 A3014 RMK AO2 SLP213     T01840126=,
20180115_150000.002,0,RODN,,,,1,20180115140000,-1,-1,-1,-1,110,-1,9,-1,-1,-1,-1,,-1,0,0,0,,1,19,1,12,1021,RODN 151456Z AUTO 11009KT 10SM CLR 19/12 A3014 RMK AO2 SLP213     T01870124 402170094 58003=,
20180115_160000.002,0,RODN,,,,1,20180115150000,-1,-1,-1,-1,100,-1,7,-1,-1,-1,-1,,-1,0,0,1,FEW 33,1,19,1,13,1020,RODN 151556Z AUTO 10007KT 10SM FEW033 19/13 A3013 RMK AO2     SLP210 T01870127=,
20180115_170000.002,0,RODN,,,,1,20180115160000,-1,-1,-1,-1,90,-1,11,-1,-1,-1,-1,,-1,0,1,2,SCT 29   BKN 43,1,18,1,15,1020,RODN 151656Z AUTO 09011KT 10SM -RA SCT029 BKN043 18/15 A3012     RMK AO2 RAB39 SLP206 P0000 T01800145=,- RA
20180115_180000.002,0,RODN,,,,1,20180115170000,-1,-1,-1,-1,70,-1,9,-1,-1,-1,-1,,-1,0,0,3,FEW 33   FEW 55   OVC 75,1,17,1,15,1019,RODN 151756Z AUTO 07009KT 10SM FEW033 FEW055 OVC075 17/15 A3010     RMK AO2 RAE11DZB11E12 SLP200 P0000 60000 T01680146 10188           20168 57011=,
20180115_190000.002,0,RODN,,,,1,20180115180000,-1,-1,-1,-1,80,-1,10,-1,-1,-1,-1,,-1,0,0,0,,1,18,1,14,1019,RODN 151856Z AUTO 08010KT 10SM CLR 18/14 A3009 RMK AO2 SLP196     T01750142=,
20180115_200000.002,0,RODN,,,,1,20180115190000,-1,-1,-1,-1,80,-1,11,-1,-1,-1,-1,,-1,0,0,1,FEW 34,1,17,1,14,1018,RODN 151956Z AUTO 08011KT 10SM FEW034 17/14 A3007 RMK AO2     SLP189 T01710142=,
20180115_210000.002,0,RODN,,,,1,20180115200000,-1,-1,-1,-1,80,-1,8,-1,-1,-1,-1,,-1,0,0,1,FEW 37,1,17,1,14,1018,RODN 152056Z AUTO 08008KT 10SM FEW037 17/14 A3007 RMK AO2     SLP190 T01740139 56010=,
20180115_220000.002,0,RODN,,,,1,20180115210000,-1,-1,-1,-1,90,-1,11,-1,-1,-1,-1,,-1,0,0,2,SCT 36   BKN 45,1,18,1,14,1019,RODN 152156Z AUTO 09011KT 10SM SCT036 BKN045 18/14 A3008 RMK     AO2 SLP193 T01820135=,
20180115_230000.002,0,RODN,,,,1,20180115220000,-1,-1,-1,-1,90,-1,11,-1,-1,-1,-1,,-1,0,0,2,BKN 38   BKN 46,1,19,1,13,1019,RODN 152256Z AUTO 09011KT 10SM BKN038 BKN046 19/13 A3009 RMK     AO2 SLP196 T01880128=,
20180116_000000.004,0,RODN,,,,1,20180115230000,-1,-1,-1,-1,110,-1,13,-1,18,-1,-1,,-1,0,0,2,FEW 37   FEW 46,1,20,1,12,1019,RODN 152356Z AUTO 11013G18KT 10SM FEW037 FEW046 20/12 A3009 RMK     AO2 SLP196 T02000122 10200 20169 52005=,
20180116_010000.002,0,RODN,,,,1,20180116000000,-1,-1,-1,-1,120,-1,15,-1,22,-1,-1,,-1,0,0,1,FEW 41,1,21,1,12,1020,RODN 160056Z AUTO 12015G22KT 10SM FEW041 21/12 A3011 RMK AO2     SLP203 T02120115=,
20180116_020000.002,0,RODN,,,,1,20180116010000,-1,-1,-1,-1,110,-1,15,-1,23,-1,-1,,-1,0,0,0,,1,22,1,13,1019,RODN 160156Z AUTO 11015G23KT 10SM CLR 22/13 A3009 RMK AO2     SLP196 T02180129=,
20180116_030000.002,0,RODN,,,,1,20180116020000,-1,-1,-1,-1,100,-1,14,-1,-1,-1,-1,,-1,0,0,0,,1,23,1,13,1018,RODN 160256Z AUTO 10014KT 10SM CLR 23/13 A3007 RMK AO2 SLP189     T02260125 58008=,
20180116_040000.002,0,RODN,,,,1,20180116030000,-1,-1,-1,-1,130,-1,14,-1,22,-1,-1,,-1,0,0,1,FEW 37,1,23,1,14,1017,RODN 160356Z AUTO 13014G22KT 10SM FEW037 23/14 A3004 RMK AO2     SLP179 T02280138=,
20180116_050000.002,0,RODN,,,,1,20180116040000,-1,-1,-1,-1,130,-1,16,-1,22,-1,-1,,-1,0,0,0,,1,23,1,14,1016,RODN 160456Z AUTO 13016G22KT 10SM CLR 23/14 A3001 RMK AO2 PK     WND 10026/04 SLP169 T02300140=,
20180116_060000.002,0,RODN,,,,1,20180116050000,-1,-1,-1,-1,130,-1,16,-1,21,-1,-1,,-1,0,0,1,SCT 130,1,23,1,14,1016,RODN 160556Z AUTO 13016G21KT 10SM SCT130 23/14 A2999 RMK AO2     SLP162 T02260136 10230 20198 57028=,
20180116_070000.002,0,RODN,,,,1,20180116060000,-1,-1,-1,-1,120,-1,14,-1,21,-1,-1,,-1,0,0,0,,1,22,1,14,1015,RODN 160656Z AUTO 12014G21KT 10SM CLR 22/14 A2998 RMK AO2     SLP159 T02200141=,
20180116_080000.002,0,RODN,,,,1,20180116070000,-1,-1,-1,-1,130,-1,13,-1,20,-1,-1,,-1,0,0,1,FEW 36,1,22,1,15,1015,RODN 160756Z AUTO 13013G20KT 10SM FEW036 22/15 A2997 RMK AO2     SLP155 T02170146=,
20180116_090000.002,0,RODN,,,,1,20180116080000,-1,-1,-1,-1,130,-1,11,-1,-1,-1,-1,,-1,0,0,0,,1,21,1,15,1015,RODN 160856Z AUTO 13011KT 10SM CLR 21/15 A2997 RMK AO2 SLP156     T02060149 57005=,
20180116_100000.002,0,RODN,,,,1,20180116090000,-1,-1,-1,-1,130,-1,7,-1,-1,-1,-1,,-1,0,0,2,FEW 33   SCT 110,1,20,1,15,1015,RODN 160956Z AUTO 13007KT 10SM FEW033 SCT110 20/15 A2998 RMK     AO2 SLP159 T02040154=,
20180116_110000.004,0,RODN,,,,1,20180116100000,-1,-1,-1,-1,150,-1,9,-1,-1,-1,-1,,-1,0,0,2,FEW 100   BKN 130,1,21,1,15,1016,RODN 161056Z AUTO 15009KT 10SM FEW100 BKN130 21/15 A2999 RMK     AO2 SLP162 T02090145=,
20180116_120000.002,0,RODN,,,,1,20180116110000,-1,-1,-1,-1,150,-1,8,-1,-1,-1,-1,,-1,0,0,0,,1,21,1,15,1016,RODN 161156Z AUTO 15008KT 10SM CLR 21/15 A2999 RMK AO2 SLP162     T02100146 10227 20201 52008=,
20180116_130000.002,0,RODN,,,,1,20180116120000,-1,-1,-1,-1,140,-1,9,-1,-1,-1,-1,,-1,0,0,1,FEW 100,1,21,1,15,1016,RODN 161256Z AUTO 14009KT 10SM FEW100 21/15 A2999 RMK AO2     SLP162 T02110149=,
20180116_140000.002,0,RODN,,,,1,20180116130000,-1,-1,-1,-1,140,-1,7,-1,-1,-1,-1,,-1,0,0,0,,1,20,1,15,1015,RODN 161356Z AUTO 14007KT 10SM CLR 20/15 A2998 RMK AO2 SLP159     T02030153=,
20180116_150000.004,0,RODN,,,,1,20180116140000,-1,-1,-1,-1,160,-1,4,-1,-1,-1,-1,,-1,0,0,2,FEW 100   FEW 120,1,20,1,16,1015,RODN 161456Z AUTO 16004KT 10SM FEW100 FEW120 20/16 A2997 RMK     AO2 SLP155 T02010155 402300168 57007=,
20180116_160000.002,0,RODN,,,,1,20180116150000,-1,-1,-1,-1,160,-1,4,-1,-1,-1,-1,,-1,0,0,0,,1,20,1,16,1014,RODN 161556Z AUTO 16004KT 10SM CLR 20/16 A2995 RMK AO2 SLP148     T01990157=,
20180116_170000.002,0,RODN,,,,1,20180116160000,-1,-1,-1,-1,160,-1,6,-1,-1,-1,-1,,-1,0,0,1,BKN 85,1,21,1,16,1014,RODN 161656Z AUTO 16006KT 10SM BKN085 21/16 A2995 RMK AO2     SLP148 T02080162=,
20180116_180000.002,0,RODN,,,,1,20180116170000,-1,-1,-1,-1,160,-1,4,-1,-1,-1,-1,,-1,0,0,3,SCT 23   BKN 50   BKN 60,1,20,1,17,1014,RODN 161756Z AUTO 16004KT 10SM SCT023 BKN050 BKN060 20/17 A2995     RMK AO2 SLP148 T02000172 10212 20197 56008=,
20180116_190000.002,0,RODN,,,,1,20180116180000,-1,-1,-1,-1,150,-1,5,-1,-1,-1,-1,,-1,0,0,2,SCT 31   OVC 40,1,20,1,17,1014,RODN 161856Z AUTO 15005KT 10SM SCT031 OVC040 20/17 A2994 RMK     AO2 RAB15E25 SLP145 P0000 T01960172=,
20180116_200000.002,0,RODN,,,,1,20180116190000,-1,-1,-1,-1,170,-1,4,-1,-1,-1,-1,,-1,0,0,2,SCT 55   BKN 90,1,20,1,17,1014,RODN 161956Z AUTO 17004KT 10SM SCT055 BKN090 20/17 A2994 RMK     AO2 SLP145 T01980168=,
20180116_210000.002,0,RODN,,,,1,20180116200000,-1,-1,-1,-1,0,-1,0,-1,-1,-1,-1,,-1,0,0,2,BKN 65   OVC 80,1,20,1,17,1014,RODN 162056Z AUTO 00000KT 10SM BKN065 OVC080 20/17 A2994 RMK     AO2 SLP145 60000 T01990165 55003=,
20180116_220000.002,0,RODN,,,,1,20180116210000,-1,-1,-1,-1,170,-1,4,-1,-1,-1,-1,,-1,0,0,1,OVC 70,1,20,1,17,1015,RODN 162156Z AUTO 17004KT 10SM OVC070 20/17 A2996 RMK AO2     SLP152 T01970167=,
20180116_230000.002,0,RODN,,,,1,20180116220000,-1,-1,-1,-1,200,-1,6,-1,-1,-1,-1,,-1,0,0,1,OVC 55,1,20,1,18,1015,RODN 162256Z AUTO 20006KT 10SM OVC055 20/18 A2998 RMK AO2     SLP159 T02040176=,
20180117_000000.005,0,RODN,,,,1,20180116230000,-1,-1,-1,-1,200,-1,9,-1,-1,-1,-1,,-1,0,0,1,BKN 49,1,21,1,18,1016,RODN 162356Z AUTO 20009KT 10SM BKN049 21/18 A2999 RMK AO2     DZB07E17DZB25E34 SLP162 P0000 60000 T02100180 10210 20194           52017=,
20180117_010000.002,0,RODN,,,,1,20180117000000,-1,-1,-1,-1,260,-1,5,-1,-1,-1,-1,,-1,0,1,2,BKN 22   BKN 28,1,20,1,17,1016,RODN 170056Z AUTO 26005KT 10SM -DZ BKN022 BKN028 20/17 A3001     RMK AO2 RAB04E15DZB31E36RAB36E47DZB47E48DZB49 CIG 022V039           BKN022 V SCT SLP169 P0000 T01960174=,- DZ
20180117_020000.004,0,RODN,,,,1,20180117010000,-1,-1,-1,-1,290,-1,4,-1,-1,-1,-1,,-1,0,1,1,BKN 29,1,20,1,18,1017,RODN 170156Z AUTO 29004KT 10SM -RA BKN029 20/18 A3003 RMK AO2     DZE00RAB00E09RAB22 BKN V SCT SLP176 P0004 T01980179=,- RA
20180117_030000.002,0,RODN,,,,1,20180117020000,-1,-1,-1,-1,310,-1,9,-1,-1,-1,-1,,-1,0,1,2,FEW 7   BKN 22,1,19,1,18,1017,RODN 170256Z AUTO 31009KT 10SM -RA FEW007 BKN022 19/18 A3002     RMK AO2 RAE40DZB40E41RAB41 SLP172 P0008 60012 T01940180           50008=,- RA
20180117_040000.003,0,RODN,,,,1,20180117030000,-1,-1,-1,-1,320,-1,10,-1,20,-1,-1,,-1,0,1,2,SCT 6   OVC 17,1,19,1,18,1016,RODN 170356Z AUTO 32010G20KT 7SM -RA SCT006 OVC017 19/18 A3000     RMK AO2 CIG 003 RWY05 SLP166 P0004 T01900178=,- RA
20180117_050000.006,1,RODN,,,,0,20180117040000,-1,-1,-1,-1,300,-1,8,-1,-1,-1,-1,,-1,0,1,2,FEW 4   OVC 17,1,19,1,18,1016,RODN 170456Z 30008KT 3SM -RA FEW004 OVC017 19/18 A3000 RMK AO2A     TWR VIS 1 1/2 RAB0405 CIG 002 RWY05 SLP165=,- RA
20180117_050000.007,1,RODN,,,,0,20180117040000,-1,-1,-1,-1,300,-1,8,-1,-1,-1,-1,,-1,0,1,2,FEW 4   OVC 17,1,19,1,18,1016,RODN 170456Z 30008KT 3SM -RA FEW004 OVC017 19/18 A2999 RMK A02A     TWR VIS 1 1/2 CIG 002 RWY05 SLP162 P0006 60025 T01900182           10210 20189 56012 COR 0520=,- RA
20180117_060000.002,0,RODN,,,,0,20180117050000,-1,-1,-1,-1,320,-1,5,-1,-1,-1,-1,,-1,0,1,2,FEW 4   BKN 17,1,19,1,18,1015,RODN 170556Z 32005KT 2SM -RA FEW004 BKN017 19/18 A2998 RMK AO2A     TWR VIS 1 1/2 RAE51DZB51E52RAB52 BKN V OVC CIG 003 RWY05           SLP159 P0005 60028 T01910181 10209 20189 57011=,- RA
20180117_070000.002,0,RODN,,,,1,20180117060000,-1,-1,-1,-1,330,-1,4,-1,-1,-1,-1,,-1,0,1,1,SCT 22,1,20,1,18,1016,RODN 170656Z AUTO 33004KT 7SM -RA SCT022 20/18 A2999 RMK AO2     RAE04DZB04E10DZB13E27RAB51 SLP162 P0001 T01960181=,- RA
20180117_080000.002,0,RODN,,,,1,20180117070000,-1,-1,-1,-1,120,-1,4,-1,-1,-1,-1,,-1,0,0,1,FEW 46,1,20,1,18,1015,RODN 170756Z AUTO 12004KT 10SM FEW046 20/18 A2998 RMK AO2 RAE12     SLP159 P0000 T01950178=,
20180117_090000.003,0,RODN,,,,1,20180117080000,-1,-1,-1,-1,10,-1,7,-1,-1,-1,-1,,-1,0,1,2,FEW 28   OVC 41,1,20,1,18,1016,RODN 170856Z AUTO 01007KT 10SM -RA FEW028 OVC041 20/18 A3001     RMK AO2 RAB52 SLP169 P0000 60001 T01950183 50008=,- RA
20180117_100000.002,0,RODN,,,,1,20180117090000,-1,-1,-1,-1,40,-1,8,-1,-1,-1,-1,,-1,0,0,3,FEW 6   BKN 20   OVC 38,1,19,1,17,1017,RODN 170956Z AUTO 04008KT 10SM FEW006 BKN020 OVC038 19/17 A3002     RMK AO2 RAE03DZB03E06 SLP172 P0001 T01890174=,
20180117_110000.003,0,RODN,,,,1,20180117100000,-1,-1,-1,-1,50,-1,6,-1,-1,-1,-1,,-1,0,0,1,OVC 35,1,19,1,17,1017,RODN 171056Z AUTO 05006KT 10SM OVC035 19/17 A3004 RMK AO2     SLP179 T01860174=,
20180117_120000.003,0,RODN,,,,1,20180117110000,-1,-1,-1,-1,40,-1,9,-1,-1,-1,-1,,-1,0,0,2,FEW 24   OVC 32,1,19,1,17,1018,RODN 171156Z AUTO 04009KT 10SM FEW024 OVC032 19/17 A3005 RMK     AO2 SLP182 60002 T01890174 10197 20186=,
20180117_130000.002,0,RODN,,,,1,20180117120000,-1,-1,-1,-1,40,-1,10,-1,-1,-1,-1,,-1,0,0,2,FEW 22   OVC 29,1,18,1,17,1018,RODN 171256Z AUTO 04010KT 10SM FEW022 OVC029 18/17 A3005 RMK     AO2 CIG 024 RWY23 SLP183 T01830168=,
20180117_140000.002,0,RODN,,,,1,20180117130000,-1,-1,-1,-1,50,-1,7,-1,-1,-1,-1,,-1,0,0,1,OVC 30,1,17,1,16,1018,RODN 171356Z AUTO 05007KT 10SM OVC030 17/16 A3005 RMK AO2     SLP183 T01740159=,
20180117_150000.002,0,RODN,,,,1,20180117140000,-1,-1,-1,-1,60,-1,6,-1,-1,-1,-1,,-1,0,0,1,OVC 28,1,18,1,16,1018,RODN 171456Z AUTO 06006KT 10SM OVC028 18/16 A3006 RMK AO2 CIG     026 RWY23 SLP186 T01790159 402100173 52003=,
20180117_160000.002,0,RODN,,,,1,20180117150000,-1,-1,-1,-1,40,-1,6,-1,-1,-1,-1,,-1,0,0,1,OVC 27,1,18,1,16,1018,RODN 171556Z AUTO 04006KT 10SM OVC027 18/16 A3006 RMK AO2     SLP186 T01770159=,
20180117_170000.002,0,RODN,,,,1,20180117160000,-1,-1,-1,-1,40,-1,9,-1,-1,-1,-1,,-1,0,0,1,OVC 28,1,18,1,16,1017,RODN 171656Z AUTO 04009KT 10SM OVC028 18/16 A3004 RMK AO2     SLP179 T01750155=,
20180117_180000.002,0,RODN,,,,1,20180117170000,-1,-1,-1,-1,50,-1,7,-1,-1,-1,-1,,-1,0,0,2,BKN 32   BKN 100,1,17,1,15,1017,RODN 171756Z AUTO 05007KT 10SM BKN032 BKN100 17/15 A3004 RMK     AO2 SLP179 T01680153 10189 20168 57007=,
20180117_190000.001,0,RODN,,,,1,20180117180000,-1,-1,-1,-1,50,-1,9,-1,-1,-1,-1,,-1,0,0,1,OVC 31,1,17,1,16,1017,RODN 171856Z AUTO 05009KT 10SM OVC031 17/16 A3003 RMK AO2     SLP176 T01720155=,
20180117_200000.002,0,RODN,,,,1,20180117190000,-1,-1,-1,-1,60,-1,9,-1,-1,-1,-1,,-1,0,0,1,OVC 26,1,18,1,16,1017,RODN 171956Z AUTO 06009KT 10SM OVC026 18/16 A3004 RMK AO2     SLP179 T01800156=,
20180117_210000.002,0,RODN,,,,1,20180117200000,-1,-1,-1,-1,60,-1,9,-1,-1,-1,-1,,-1,0,0,1,OVC 28,1,18,1,16,1018,RODN 172056Z AUTO 06009KT 10SM OVC028 18/16 A3005 RMK AO2 CIG     027 RWY23 SLP183 T01800156 53005=,
20180117_220000.003,0,RODN,,,,1,20180117210000,-1,-1,-1,-1,50,-1,9,-1,-1,-1,-1,,-1,0,0,1,OVC 30,1,18,1,16,1018,RODN 172156Z AUTO 05009KT 10SM OVC030 18/16 A3006 RMK AO2     SLP186 T01790157=,
20180117_230000.002,0,RODN,,,,1,20180117220000,-1,-1,-1,-1,60,-1,12,-1,-1,-1,-1,,-1,0,0,1,OVC 33,1,18,1,16,1019,RODN 172256Z AUTO 06012KT 10SM OVC033 18/16 A3008 RMK AO2 SLPNO     T01840160=,
20180118_000000.004,0,RODN,,,,1,20180117230000,-1,-1,-1,-1,50,-1,9,-1,-1,-1,-1,,-1,0,0,1,OVC 33,1,19,1,16,1019,RODN 172356Z AUTO 05009KT 10SM OVC033 19/16 A3010 RMK AO2     SLP200 70030 T01900162 10190 20165 52018=,
20180118_010000.002,0,RODN,,,,1,20180118000000,-1,-1,-1,-1,40,-1,7,-1,-1,-1,-1,,-1,0,0,1,OVC 35,1,20,1,17,1020,RODN 180056Z AUTO 04007KT 10SM OVC035 20/17 A3012 RMK AO2     SLP206 T01980166=,
20180118_020000.003,0,RODN,,,,1,20180118010000,-1,-1,-1,-1,30,-1,9,-1,-1,-1,-1,,-1,0,0,1,OVC 43,1,20,1,17,1020,RODN 180156Z AUTO 03009KT 10SM OVC043 20/17 A3012 RMK AO2     SLP206 T02030165=,
20180118_030000.003,0,RODN,,,,1,20180118020000,-1,-1,-1,-1,20,-1,9,-1,-1,-1,-1,,-1,0,0,1,OVC 16,1,21,1,17,1019,RODN 180256Z AUTO 02009KT 10SM OVC016 21/17 A3010 RMK AO2 OVC V     BKN SLP200 T02050165=,
20180118_040000.002,0,RODN,,,,1,20180118030000,-1,-1,-1,-1,50,-1,9,-1,-1,-1,-1,,-1,0,0,2,BKN 16   OVC 47,1,22,1,17,1018,RODN 180356Z AUTO 05009KT 10SM BKN016 OVC047 22/17 A3007 RMK     AO2 SLP189 T02150171=,
20180118_050000.002,0,RODN,,,,1,20180118040000,-1,-1,-1,-1,60,-1,9,-1,-1,-1,-1,,-1,0,0,1,BKN 18,1,22,1,17,1018,RODN 180456Z AUTO 06009KT 10SM BKN018 22/17 A3006 RMK AO2 BKN V     SCT SLP186 T02240173=,
20180118_060000.002,0,RODN,,,,1,20180118050000,-1,-1,-1,-1,60,-1,9,-1,-1,-1,-1,,-1,0,0,0,,1,22,1,17,1017,RODN 180556Z AUTO 06009KT 10SM CLR 22/17 A3004 RMK AO2 SLP179     T02240166 10227 20190 57021=,
20180118_070000.002,0,RODN,,,,1,20180118060000,-1,-1,-1,-1,80,-1,8,-1,-1,-1,-1,,-1,0,0,0,,1,22,1,16,1017,RODN 180656Z AUTO 08008KT 10SM CLR 22/16 A3004 RMK AO2 SLP179     T02210164=,
20180118_080000.002,0,RODN,,,,1,20180118070000,-1,-1,-1,-1,70,-1,8,-1,-1,-1,-1,,-1,0,0,1,FEW 22,1,21,1,17,1018,RODN 180756Z AUTO 07008KT 10SM FEW022 21/17 A3006 RMK AO2     SLP186 T02100166=,
20180118_090000.002,0,RODN,,,,1,20180118080000,-1,-1,-1,-1,60,-1,8,-1,-1,-1,-1,,-1,0,0,2,FEW 30   BKN 47,1,20,1,16,1019,RODN 180856Z AUTO 06008KT 10SM FEW030 BKN047 20/16 A3008 RMK     AO2 SLP193 T02000162 53013=,
20180118_100000.002,0,RODN,,,,1,20180118090000,-1,-1,-1,-1,40,-1,9,-1,-1,-1,-1,,-1,0,0,2,SCT 75   BKN 90,1,19,1,16,1019,RODN 180956Z AUTO 04009KT 10SM SCT075 BKN090 19/16 A3008 RMK     AO2 SLP193 T01870159=,
20180118_110000.002,0,RODN,,,,1,20180118100000,-1,-1,-1,-1,50,-1,10,-1,-1,-1,-1,,-1,0,0,1,BKN 75,1,19,1,16,1019,RODN 181056Z AUTO 05010KT 10SM BKN075 19/16 A3009 RMK AO2     SLP196 T01860156=,
20180118_120000.002,0,RODN,,,,1,20180118110000,-1,-1,-1,-1,50,-1,7,-1,-1,-1,-1,,-1,0,0,1,OVC 46,1,19,1,15,1020,RODN 181156Z AUTO 05007KT 10SM OVC046 19/15 A3011 RMK AO2     SLP203 T01850154 10226 20185 52010=,
20180118_130000.002,0,RODN,,,,1,20180118120000,-1,-1,-1,-1,50,-1,9,-1,-1,-1,-1,,-1,0,0,1,OVC 46,1,18,1,15,1020,RODN 181256Z AUTO 05009KT 10SM OVC046 18/15 A3011 RMK AO2     SLP203 T01830150=,
20180118_140000.002,0,RODN,,,,1,20180118130000,-1,-1,-1,-1,50,-1,7,-1,-1,-1,-1,,-1,0,0,1,OVC 46,1,18,1,15,1020,RODN 181356Z AUTO 05007KT 10SM OVC046 18/15 A3011 RMK AO2 SLPNO     T01760149=,
20180118_150000.002,0,RODN,,,,1,20180118140000,-1,-1,-1,-1,50,-1,7,-1,-1,-1,-1,,-1,0,0,1,SCT 85,1,18,1,15,1020,RODN 181456Z AUTO 05007KT 10SM SCT085 18/15 A3011 RMK AO2     SLP203 T01820153 402270165 58001=,
20180118_160000.002,0,RODN,,,,1,20180118150000,-1,-1,-1,-1,40,-1,5,-1,-1,-1,-1,,-1,0,0,1,OVC 44,1,18,1,15,1020,RODN 181556Z AUTO 04005KT 10SM OVC044 18/15 A3011 RMK AO2     SLP203 T01810152=,
20180118_170000.002,0,RODN,,,,1,20180118160000,-1,-1,-1,-1,50,-1,6,-1,-1,-1,-1,,-1,0,0,2,FEW 42   BKN 70,1,18,1,16,1019,RODN 181656Z AUTO 05006KT 10SM FEW042 BKN070 18/16 A3010 RMK     AO2 SLP199 T01810155=,
20180118_180000.002,0,RODN,,,,1,20180118170000,-1,-1,-1,-1,80,-1,9,-1,-1,-1,-1,,-1,0,0,1,OVC 60,1,19,1,16,1018,RODN 181756Z AUTO 08009KT 10SM OVC060 19/16 A3007 RMK AO2     SLP189 T01920157 10192 20176 58012=,
20180118_190000.002,0,RODN,,,,1,20180118180000,-1,-1,-1,-1,80,-1,7,-1,-1,-1,-1,,-1,0,0,2,BKN 50   OVC 60,1,20,1,16,1018,RODN 181856Z AUTO 08007KT 10SM BKN050 OVC060 20/16 A3007 RMK     AO2 SLP189 T01950159=,
20180118_200000.002,0,RODN,,,,1,20180118190000,-1,-1,-1,-1,80,-1,5,-1,-1,-1,-1,,-1,0,0,1,BKN 41,1,20,1,16,1018,RODN 181956Z AUTO 08005KT 10SM BKN041 20/16 A3007 RMK AO2     SLP189 T01960162 $=,
20180118_210000.001,0,RODN,,,,1,20180118200000,-1,-1,-1,-1,70,-1,13,-1,-1,-1,-1,,-1,0,0,2,BKN 24   OVC 30,1,20,1,17,1018,RODN 182056Z AUTO 07013KT 10SM BKN024 OVC030 20/17 A3007 RMK     AO2 SLP189 T01970167 53000 $=,
20180118_220000.002,0,RODN,,,,1,20180118210000,-1,-1,-1,-1,50,-1,7,-1,-1,-1,-1,,-1,0,0,1,OVC 33,1,20,1,17,1018,RODN 182156Z AUTO 05007KT 10SM OVC033 20/17 A3007 RMK AO2     SLP189 T01960168 CHINO RWY23 $=,
20180118_230000.003,0,RODN,,,,1,20180118220000,-1,-1,-1,-1,20,-1,5,-1,-1,-1,-1,,-1,0,0,2,FEW 21   OVC 29,1,19,1,18,1019,RODN 182256Z AUTO 02005KT 8SM FEW021 OVC029 19/18 A3009 RMK AO2     RAB11E34DZB34E36RAB36E46DZB46E53 CIG 024 RWY23 SLP196           P0000 T01920175 $=,
20180119_000000.004,0,RODN,,,,1,20180118230000,-1,-1,-1,-1,40,-1,6,-1,-1,-1,-1,,-1,0,2,2,BKN 2   BKN 7,1,19,1,18,1020,RODN 182356Z AUTO 04006KT 2SM RA BR BKN002 BKN007 19/18 A3011     RMK AO2 VIS 2V3 DZB2259E02RAB02 SLP203 P0015 60015 70015           T01860176 10197 20186 53012 $=,RA; BR
20180119_010000.003,0,RODN,,,,1,20180119000000,-1,-1,-1,-1,60,-1,8,-1,-1,-1,-1,,-1,0,2,3,BKN 2   BKN 7   OVC 23,1,19,1,18,1020,RODN 190056Z AUTO 06008KT 2 1/2SM RA BR BKN002 BKN007 OVC023     19/18 A3012 RMK AO2 VIS 2 1/2V4 SLP206 P0007 T01870179 $=,RA; BR
20180119_020000.002,0,RODN,,,,1,20180119010000,-1,-1,-1,-1,70,-1,12,-1,-1,-1,-1,,-1,0,1,1,OVC 6,1,19,1,18,1019,RODN 190156Z AUTO 07012KT 9SM -RA OVC006 19/18 A3010 RMK AO2     RAE34RAB53 OVC V BKN SLP200 P0002 T01930181 $=,- RA
20180119_030000.002,0,RODN,,,,0,20180119020000,-1,-1,-1,-1,80,-1,12,-1,-1,-1,-1,,-1,0,0,2,BKN 7   OVC 42,1,20,1,18,1018,RODN 190257Z 08012KT 4SM BKN007 OVC042 20/18 A3006 RMK AO2A     RAE16DZB16E17 CIG 007V012 BKN V SCT SLP186 P0001 60010           T01970182 58016 $=,
20180119_040000.002,0,RODN,,,,0,20180119030000,-1,-1,-1,-1,50,-1,11,-1,-1,-1,-1,,-1,0,0,3,SCT 9   BKN 10   OVC 37,1,19,1,18,1018,RODN 190356Z 05011KT 6SM SCT009 BKN010 OVC037 19/18 A3005 RMK     AO2A SLP183 T01940179 $=,
20180119_050000.001,0,RODN,,,,1,20180119040000,-1,-1,-1,-1,30,-1,10,-1,-1,-1,-1,,-1,0,2,4,FEW 2   FEW 6   BKN 12   OVC 37,1,19,1,18,1017,METAR RODN 190456Z AUTO 03010KT 4SM RA BR FEW002 FEW006 BKN012 OVC037           19/18 A3004 RMK AO2 RAB0356E35RAB45 SLP179 P0002 T01870175,RA; BR
20180119_060000.002,0,RODN,,,,0,20180119050000,-1,-1,-1,-1,30,-1,14,-1,-1,-1,-1,,-1,0,1,1,BKN 3,1,17,1,16,1017,RODN 190556Z 03014KT 4SM BR BKN003 17/16 A3004 RMK AO2A     RAE06RAB07E50 SLP179 P0014 60026 T01740164 10197 20173           56010 $=,BR
20180119_070000.002,0,RODN,,,,0,20180119060000,-1,-1,-1,-1,40,-1,14,-1,-1,-1,-1,,-1,0,2,1,BKN 8,1,17,1,16,1017,RODN 190656Z 04014KT 5SM -RA BR BKN008 17/16 A3003 RMK AO2A     RAB09E21RAB46 SLP176 T01730161 $=,- RA; BR
20180119_080000.002,0,RODN,,,,0,20180119070000,-1,-1,-1,-1,40,-1,12,-1,-1,-1,-1,,-1,0,1,2,BKN 10   OVC 15,1,16,1,15,1018,RODN 190756Z 04012KT 3SM BR BKN010 OVC015 16/15 A3005 RMK AO2A     TWR VIS 1 1/2 RAE16RAB19E31RAB40E50 SLP183 P0000           T01640151=,BR
20180119_090000.005,1,RODN,,,,0,20180119080000,-1,-1,-1,-1,50,-1,11,-1,-1,-1,-1,,-1,0,2,1,OVC 10,1,16,1,15,1018,RODN 190856Z 05011KT 2SM RA BR OVC010 16/15 A3006 RMK AO2A VIS     2 1/4V2 3/4 RAB0756E04RAB50 SLP186 P0004 60005 T01580148           53010=,RA; BR
20180119_100000.002,0,RODN,,,,0,20180119090000,-1,-1,-1,-1,50,-1,10,-1,-1,-1,-1,,-1,0,1,1,OVC 13,1,16,1,15,1019,RODN 190956Z 05010KT 5SM -RA OVC013 16/15 A3008 RMK AO2A     RAE05RAB10 SLP193 P0003 T01590149=,- RA
20180119_110000.002,0,RODN,,,,0,20180119100000,-1,-1,-1,-1,50,-1,8,-1,-1,-1,-1,,-1,0,2,2,FEW 2   OVC 11,1,16,1,15,1019,RODN 191056Z 05008KT 4SM -RA BR FEW002 OVC011 16/15 A3008 RMK     AO2A RAE24RAB30 SLP193 P0004 T01570147=,- RA; BR
20180119_120000.001,0,RODN,,,,0,20180119110000,-1,-1,-1,-1,80,-1,8,-1,-1,-1,-1,,-1,0,1,2,FEW 1   OVC 13,1,16,1,15,1019,RODN 191156Z 08008KT 6SM -RA FEW001 OVC013 16/15 A3009 RMK AO2A     SLP197 P0008 60020 T01570146 10174 20157 51008=,- RA
20180119_130000.002,0,RODN,,,,0,20180119120000,-1,-1,-1,-1,60,-1,7,-1,-1,-1,-1,,-1,0,0,2,BKN 16   OVC 20,1,16,1,15,1019,RODN 191256Z 06007KT 10SM BKN016 OVC020 16/15 A3009 RMK AO2A     RAE02DZB02E05 SLP197 P0000 T01630153=,
20180119_140000.002,0,RODN,,,,0,20180119130000,-1,-1,-1,-1,60,-1,4,-1,-1,-1,-1,,-1,0,2,2,BKN 17   OVC 25,1,16,1,15,1019,RODN 191356Z 06004KT 4SM -RA BR BKN017 OVC025 16/15 A3008 RMK     AO2A RAB37 SLP193 P0002 T01620152=,- RA; BR
20180119_150000.002,0,RODN,,,,0,20180119140000,-1,-1,-1,-1,70,-1,7,-1,-1,-1,-1,,-1,0,0,2,BKN 18   OVC 36,1,16,1,15,1019,RODN 191456Z 07007KT 10SM BKN018 OVC036 16/15 A3008 RMK AO2A     RAE02DZB02E03RAB03E22DZB22E23 SLP193 P0002 60004 T01640151           401970157 57005=,
20180119_160000.002,0,RODN,,,,0,20180119150000,-1,-1,-1,-1,50,-1,7,-1,-1,-1,-1,,-1,0,1,2,BKN 24   OVC 33,1,16,1,15,1019,RODN 191556Z 05007KT 6SM BR BKN024 OVC033 16/15 A3008 RMK AO2A     DZB16E20RAB20E52DZB52E53 SLP193 P0000 T01590146=,BR
20180119_170000.002,0,RODN,,,,1,20180119160000,-1,-1,-1,-1,60,-1,7,-1,-1,-1,-1,,-1,0,0,2,FEW 29   OVC 38,1,16,1,15,1018,RODN 191656Z AUTO 06007KT 9SM FEW029 OVC038 16/15 A3007 RMK AO2     SLP190 P0001 T01580147=,
20180119_180000.001,0,RODN,,,,1,20180119170000,-1,-1,-1,-1,50,-1,8,-1,-1,-1,-1,,-1,0,1,3,BKN 2   BKN 22   OVC 28,1,16,1,15,1018,RODN 191756Z AUTO 05008KT 2 1/4SM BR BKN002 BKN022 OVC028 16/15     A3006 RMK AO2 VIS 2 1/4V3 RAB37E47 CIG 002V033 BKN002 V           SCT SLP186 P0001 60006 T01580148 10166 20157 58006=,BR
20180119_190000.001,0,RODN,,,,1,20180119180000,-1,-1,-1,-1,70,-1,7,-1,-1,-1,-1,,-1,0,1,2,BKN 27   OVC 37,1,16,1,15,1017,RODN 191856Z AUTO 07007KT 10SM -DZ BKN027 OVC037 16/15 A3004     RMK AO2 RAB1759E10RAB18E30DZB53 SLP180 P0001 T01590149=,- DZ
20180119_200000.002,0,RODN,,,,1,20180119190000,-1,-1,-1,-1,70,-1,10,-1,-1,-1,-1,,-1,0,0,1,OVC 42,1,16,1,15,1017,RODN 191956Z AUTO 07010KT 10SM OVC042 16/15 A3003 RMK AO2 DZE04     SLP177 P0000 T01630152=,
20180119_210000.002,0,RODN,,,,1,20180119200000,-1,-1,-1,-1,60,-1,10,-1,-1,-1,-1,,-1,0,0,1,OVC 46,1,16,1,14,1017,RODN 192056Z AUTO 06010KT 10SM OVC046 16/14 A3004 RMK AO2     SLP180 60001 T01630143 55005=,
20180119_220000.002,0,RODN,,,,1,20180119210000,-1,-1,-1,-1,70,-1,7,-1,-1,-1,-1,,-1,0,0,1,OVC 47,1,17,1,15,1018,RODN 192156Z AUTO 07007KT 10SM OVC047 17/15 A3005 RMK AO2     SLP183 T01660146=,
20180119_230000.002,0,RODN,,,,1,20180119220000,-1,-1,-1,-1,60,-1,7,-1,-1,-1,-1,,-1,0,0,1,OVC 48,1,17,1,16,1018,RODN 192256Z AUTO 06007KT 10SM OVC048 17/16 A3005 RMK AO2     SLP183 T01680155=,
20180120_000000.004,0,RODN,,,,1,20180119230000,-1,-1,-1,-1,60,-1,8,-1,-1,-1,-1,,-1,0,0,1,OVC 46,1,18,1,16,1019,RODN 192356Z AUTO 06008KT 10SM OVC046 18/16 A3008 RMK AO2     SLP193 60001 70054 T01760161 10176 20158 53014=,
20180120_010000.002,0,RODN,,,,1,20180120000000,-1,-1,-1,-1,40,-1,9,-1,-1,-1,-1,,-1,0,0,1,SCT 43,1,19,1,16,1019,RODN 200056Z AUTO 04009KT 10SM SCT043 19/16 A3009 RMK AO2     SLP196 T01890161=,
20180120_020000.003,0,RODN,,,,1,20180120010000,-1,-1,-1,-1,30,-1,9,-1,-1,-1,-1,,-1,0,0,2,BKN 47   OVC 55,1,20,1,15,1019,RODN 200156Z AUTO 03009KT 10SM BKN047 OVC055 20/15 A3008 RMK     AO2 SLP193 T02020148=,
20180120_030000.002,0,RODN,,,,1,20180120020000,-1,-1,-1,-1,50,-1,10,-1,-1,-1,-1,,-1,0,0,1,OVC 48,1,21,1,15,1018,RODN 200256Z AUTO 05010KT 10SM OVC048 21/15 A3006 RMK AO2     SLP186 T02060151 58007=,
20180120_040000.002,0,RODN,,,,1,20180120030000,-1,-1,-1,-1,70,-1,9,-1,-1,-1,-1,,-1,0,0,1,OVC 47,1,21,1,14,1017,RODN 200356Z AUTO 07009KT 10SM OVC047 21/14 A3004 RMK AO2     SLP179 T02100142=,
20180120_050000.002,0,RODN,,,,1,20180120040000,-1,-1,-1,-1,80,-1,10,-1,-1,-1,-1,,-1,0,0,2,FEW 48   FEW 120,1,21,1,14,1016,RODN 200456Z AUTO 08010KT 10SM FEW048 FEW120 21/14 A3000 RMK     AO2 SLP166 T02120143=,
20180120_060000.002,0,RODN,,,,1,20180120050000,-1,-1,-1,-1,80,-1,8,-1,-1,-1,-1,,-1,0,0,1,OVC 50,1,22,1,14,1016,RODN 200556Z AUTO 08008KT 10SM OVC050 22/14 A2999 RMK AO2     SLP162 T02150144 10218 20177 57022=,
20180120_070000.002,0,RODN,,,,1,20180120060000,-1,-1,-1,-1,60,-1,11,-1,-1,-1,-1,,-1,0,0,2,BKN 30   BKN 48,1,21,1,14,1016,RODN 200656Z AUTO 06011KT 10SM BKN030 BKN048 21/14 A2999 RMK     AO2 SLP163 T02090141=,
20180120_080000.002,0,RODN,,,,1,20180120070000,-1,-1,-1,-1,50,-1,9,-1,-1,-1,-1,,-1,0,0,1,OVC 31,1,20,1,14,1016,RODN 200756Z AUTO 05009KT 10SM OVC031 20/14 A3001 RMK AO2     SLP169 T01960142=,
20180120_090000.002,0,RODN,,,,1,20180120080000,-1,-1,-1,-1,50,-1,8,-1,-1,-1,-1,,-1,0,0,1,BKN 39,1,19,1,14,1016,RODN 200856Z AUTO 05008KT 10SM BKN039 19/14 A3001 RMK AO2     SLP169 T01920144 53006=,
20180120_100000.002,0,RODN,,,,1,20180120090000,-1,-1,-1,-1,50,-1,6,-1,-1,-1,-1,,-1,0,0,1,OVC 50,1,19,1,15,1017,RODN 200956Z AUTO 05006KT 10SM OVC050 19/15 A3004 RMK AO2     SLP179 T01910148=,
20180120_110000.002,0,RODN,,,,1,20180120100000,-1,-1,-1,-1,60,-1,6,-1,-1,-1,-1,,-1,0,0,1,OVC 50,1,18,1,15,1018,RODN 201056Z AUTO 06006KT 10SM OVC050 18/15 A3005 RMK AO2     SLP183 T01800149=,
20180120_120000.002,0,RODN,,,,1,20180120110000,-1,-1,-1,-1,50,-1,6,-1,-1,-1,-1,,-1,0,0,1,OVC 55,1,18,1,15,1018,RODN 201156Z AUTO 05006KT 10SM OVC055 18/15 A3006 RMK AO2     SLP186 T01760145 10214 20176 52017=,
20180120_130000.002,0,RODN,,,,1,20180120120000,-1,-1,-1,-1,50,-1,5,-1,-1,-1,-1,,-1,0,0,1,OVC 60,1,17,1,14,1018,RODN 201256Z AUTO 05005KT 10SM OVC060 17/14 A3006 RMK AO2     SLP186 T01730144=,
20180120_140000.002,0,RODN,,,,1,20180120130000,-1,-1,-1,-1,80,-1,7,-1,-1,-1,-1,,-1,0,0,2,FEW 65   OVC 100,1,18,1,15,1018,RODN 201356Z AUTO 08007KT 10SM FEW065 OVC100 18/15 A3006 RMK     AO2 SLP186 T01800145=,
20180120_150000.002,0,RODN,,,,1,20180120140000,-1,-1,-1,-1,40,-1,6,-1,-1,-1,-1,,-1,0,0,1,OVC 100,1,17,1,15,1018,RODN 201456Z AUTO 04006KT 9SM OVC100 17/15 A3005 RMK AO2 SLP183     T01720146 402180157 58004=,
20180120_160000.002,0,RODN,,,,1,20180120150000,-1,-1,-1,-1,30,-1,6,-1,-1,-1,-1,,-1,0,0,1,OVC 100,1,17,1,15,1018,RODN 201556Z AUTO 03006KT 10SM OVC100 17/15 A3005 RMK AO2     SLP183 T01740145=,
20180120_170000.002,0,RODN,,,,1,20180120160000,-1,-1,-1,-1,50,-1,6,-1,-1,-1,-1,,-1,0,0,2,SCT 80   OVC 100,1,17,1,15,1017,RODN 201656Z AUTO 05006KT 8SM SCT080 OVC100 17/15 A3004 RMK AO2     SLP179 T01650145=,
20180120_180000.002,0,RODN,,,,1,20180120170000,-1,-1,-1,-1,60,-1,6,-1,-1,-1,-1,,-1,0,0,0,,1,15,1,13,1017,RODN 201756Z AUTO 06006KT 7SM CLR 15/13 A3002 RMK AO2 SLP173     T01470134 10180 20146 58009=,
20180120_190000.001,0,RODN,,,,1,20180120180000,-1,-1,-1,-1,0,-1,0,-1,-1,-1,-1,,-1,0,0,1,SCT 100,1,14,1,13,1017,RODN 201856Z AUTO 00000KT 7SM SCT100 14/13 A3002 RMK AO2 SLP173     T01410126=,
20180120_200000.002,0,RODN,,,,1,20180120190000,-1,-1,-1,-1,60,-1,5,-1,-1,-1,-1,,-1,0,0,0,,1,14,1,13,1017,RODN 201956Z AUTO 06005KT 7SM CLR 14/13 A3002 RMK AO2 SLP173     T01390128=,
20180120_210000.002,0,RODN,,,,1,20180120200000,-1,-1,-1,-1,50,-1,7,-1,-1,-1,-1,,-1,0,1,0,,1,15,1,13,1017,RODN 202056Z AUTO 05007KT 6SM BR CLR 15/13 A3002 RMK AO2 SLP173     T01450132 55000=,BR
20180120_220000.002,0,RODN,,,,1,20180120210000,-1,-1,-1,-1,60,-1,6,-1,-1,-1,-1,,-1,0,1,0,,1,14,1,13,1017,RODN 202156Z AUTO 06006KT 6SM BR CLR 14/13 A3004 RMK AO2 SLP180     T01400130=,BR
20180120_230000.002,0,RODN,,,,1,20180120220000,-1,-1,-1,-1,50,-1,7,-1,-1,-1,-1,,-1,0,1,0,,1,15,1,14,1018,RODN 202256Z AUTO 05007KT 4SM BR CLR 15/14 A3005 RMK AO2 SLP183     T01540141=,BR
20180121_000000.004,0,RODN,,,,1,20180120230000,-1,-1,-1,-1,50,-1,6,-1,-1,-1,-1,,-1,0,0,0,,1,18,1,16,1018,RODN 202356Z AUTO 05006KT 8SM CLR 18/16 A3007 RMK AO2 SLP190     T01830161 10183 20131 52015=,
20180121_010000.004,0,RODN,,,,1,20180121000000,-1,-1,-1,-1,50,-1,9,-1,-1,-1,-1,,-1,0,0,1,FEW 140,1,21,1,16,1019,RODN 210056Z AUTO 05009KT 10SM FEW140 21/16 A3008 RMK AO2     SLP193 T02080158=,
20180121_020000.002,0,RODN,,,,1,20180121010000,-1,-1,-1,-1,70,-1,9,-1,-1,-1,-1,,-1,0,0,1,SCT 24,1,22,1,16,1018,RODN 210156Z AUTO 07009KT 10SM SCT024 22/16 A3007 RMK AO2     SLP189 T02190159=,
20180121_030000.002,0,RODN,,,,1,20180121020000,-1,-1,-1,-1,50,-1,6,-1,-1,-1,-1,,-1,0,0,2,FEW 25   SCT 130,1,22,1,16,1018,RODN 210256Z AUTO 05006KT 10SM FEW025 SCT130 22/16 A3005 RMK     AO2 SLP182 T02190157 58006=,
20180121_040000.003,0,RODN,,,,1,20180121030000,-1,-1,-1,-1,70,-1,9,-1,-1,-1,-1,,-1,0,0,2,FEW 26   FEW 120,1,22,1,16,1016,RODN 210356Z AUTO 07009KT 10SM FEW026 FEW120 22/16 A3000 RMK     AO2 SLP165 T02170155=,
20180121_050000.002,0,RODN,,,,1,20180121040000,-1,-1,-1,-1,70,-1,10,-1,-1,-1,-1,,-1,0,0,2,FEW 26   BKN 100,1,21,1,16,1015,RODN 210456Z AUTO 07010KT 10SM FEW026 BKN100 21/16 A2996 RMK     AO2 SLP152 T02120155=,
20180121_060000.002,0,RODN,,,,1,20180121050000,-1,-1,-1,-1,90,-1,10,-1,-1,-1,-1,,-1,0,0,2,FEW 23   BKN 95,1,21,1,16,1015,RODN 210556Z AUTO 09010KT 10SM FEW023 BKN095 21/16 A2996 RMK     AO2 SLP152 T02090156 10220 20184 56031=,
20180121_070000.002,0,RODN,,,,1,20180121060000,-1,-1,-1,-1,70,-1,10,-1,-1,-1,-1,,-1,0,1,2,FEW 65   BKN 95,1,20,1,16,1015,RODN 210656Z AUTO 07010KT 10SM -DZ FEW065 BKN095 20/16 A2996     RMK AO2 DZB54 SLP153 P0000 T02040160=,- DZ
20180121_080000.002,0,RODN,,,,1,20180121070000,-1,-1,-1,-1,60,-1,10,-1,-1,-1,-1,,-1,0,0,2,FEW 60   BKN 80,1,20,1,16,1015,RODN 210756Z AUTO 06010KT 10SM FEW060 BKN080 20/16 A2997 RMK     AO2 DZE11DZB27E36 SLP156 P0000 T01980160=,
20180121_090000.002,0,RODN,,,,1,20180121080000,-1,-1,-1,-1,60,-1,9,-1,-1,-1,-1,,-1,0,0,1,SCT 100,1,19,1,16,1015,RODN 210856Z AUTO 06009KT 9SM SCT100 19/16 A2997 RMK AO2 SLP156     60000 T01930161 52005=,
20180121_100000.002,0,RODN,,,,1,20180121090000,-1,-1,-1,-1,70,-1,10,-1,-1,-1,-1,,-1,0,0,1,FEW 110,1,19,1,16,1015,RODN 210956Z AUTO 07010KT 10SM FEW110 19/16 A2998 RMK AO2     SLP159 T01920160=,
20180121_110000.002,0,RODN,,,,1,20180121100000,-1,-1,-1,-1,70,-1,11,-1,-1,-1,-1,,-1,0,0,1,SCT 120,1,19,1,16,1015,RODN 211056Z AUTO 07011KT 10SM SCT120 19/16 A2998 RMK AO2     SLP159 T01940160=,
20180121_120000.002,0,RODN,,,,1,20180121110000,-1,-1,-1,-1,70,-1,9,-1,-1,-1,-1,,-1,0,0,2,SCT 130   SCT 150,1,19,1,16,1015,RODN 211156Z AUTO 07009KT 10SM SCT130 SCT150 19/16 A2998 RMK     AO2 SLP159 60000 T01940162 10212 20191 50002=,
20180121_130000.001,0,RODN,,,,1,20180121120000,-1,-1,-1,-1,90,-1,10,-1,-1,-1,-1,,-1,0,0,3,BKN 49   BKN 65   BKN 80,1,20,1,16,1015,RODN 211256Z AUTO 09010KT 10SM BKN049 BKN065 BKN080 20/16 A2997     RMK AO2 SLP155 T01970163=,
20180121_140000.002,0,RODN,,,,1,20180121130000,-1,-1,-1,-1,100,-1,7,-1,-1,-1,-1,,-1,0,0,2,SCT 46   OVC 80,1,20,1,17,1014,RODN 211356Z AUTO 10007KT 10SM SCT046 OVC080 20/17 A2995 RMK     AO2 DZB03E13 SLP148 P0000 T01990167=,
20180121_150000.002,0,RODN,,,,1,20180121140000,-1,-1,-1,-1,90,-1,8,-1,-1,-1,-1,,-1,0,1,1,OVC 55,1,19,1,17,1014,RODN 211456Z AUTO 09008KT 7SM -RA OVC055 19/17 A2994 RMK AO2     RAB25 SLP145 P0002 60002 T01930171 402200131 57014=,- RA
20180121_160000.002,0,RODN,,,,1,20180121150000,-1,-1,-1,-1,90,-1,6,-1,-1,-1,-1,,-1,0,0,1,BKN 95,1,19,1,17,1013,RODN 211556Z AUTO 09006KT 9SM BKN095 19/17 A2992 RMK AO2     RAE38DZB38E39 SLP138 P0000 T01910172=,
20180121_170000.002,0,RODN,,,,1,20180121160000,-1,-1,-1,-1,110,-1,6,-1,-1,-1,-1,,-1,0,0,2,SCT 49   BKN 85,1,20,1,17,1013,RODN 211656Z AUTO 11006KT 9SM SCT049 BKN085 20/17 A2990 RMK AO2     RAB1556E08DZB08E09 SLP131 P0001 T01950174=,
20180121_180000.002,0,RODN,,,,1,20180121170000,-1,-1,-1,-1,120,-1,8,-1,-1,-1,-1,,-1,0,0,4,SCT 9   SCT 15   BKN 25   BKN 35,1,20,1,18,1012,RODN 211756Z AUTO 12008KT 9SM SCT009 SCT015 BKN025 BKN035 20/18     A2989 RMK AO2 CIG 014V029 SLP128 60003 T01980179 10199           20191 57014=,
20180121_190000.002,0,RODN,,,,1,20180121180000,-1,-1,-1,-1,100,-1,6,-1,-1,-1,-1,,-1,0,1,3,FEW 7   SCT 20   OVC 55,1,20,1,18,1011,RODN 211856Z AUTO 10006KT 8SM -RA FEW007 SCT020 OVC055 20/18     A2987 RMK AO2 DZB06E16DZB37E47DZB50E55RAB55 SLP121 P0000           T01970182=,- RA
20180121_200000.002,0,RODN,,,,1,20180121190000,-1,-1,-1,-1,110,-1,6,-1,-1,-1,-1,,-1,0,1,1,OVC 47,1,20,1,18,1011,RODN 211956Z AUTO 11006KT 7SM -RA OVC047 20/18 A2985 RMK AO2     RAE09DZB09E10RAB53 SLP115 P0000 T01960184=,- RA
20180121_210000.002,0,RODN,,,,1,20180121200000,-1,-1,-1,-1,0,-1,0,-1,-1,-1,-1,,-1,0,0,1,OVC 44,1,20,1,18,1011,RODN 212056Z AUTO 00000KT 10SM OVC044 20/18 A2985 RMK AO2     RAE06DZB06E08 SLP115 P0001 60001 T01980183 55014=,
20180121_220000.002,0,RODN,,,,1,20180121210000,-1,-1,-1,-1,270,-1,4,-1,-1,-1,-1,,-1,0,2,3,SCT 1   BKN 26   OVC 35,1,19,1,18,1011,RODN 212156Z AUTO 27004KT 2SM +RA BR SCT001 BKN026 OVC035 19/18     A2987 RMK AO2 RAB33 CIG 021 RWY23 SLP122 P0018 T01940179=,+ RA; BR
20180121_230000.002,0,RODN,,,,1,20180121220000,-1,-1,-1,-1,20,-1,4,-1,-1,-1,-1,,-1,0,2,1,SCT 1,1,19,1,18,1011,RODN 212256Z AUTO 02004KT 1 3/8SM +RA BR SCT001 19/18 A2987 RMK     AO2 SLP122 P0056 T01860179=,+ RA; BR
20180122_000000.002,0,RODN,,,,1,20180121230000,-1,-1,-1,-1,350,-1,7,-1,-1,-1,-1,,-1,0,2,2,BKN 1   OVC 5,1,19,1,18,1011,RODN 212356Z AUTO 35007KT 3SM -RA BR BKN001 OVC005 19/18 A2986     RMK AO2 SLP118 P0028 60103 70106 T01880181 10200 20185           50004=,- RA; BR
20180122_010000.004,0,RODN,,,,1,20180122000000,-1,-1,-1,-1,280,-1,3,-1,-1,-1,-1,,-1,0,1,2,BKN 10   BKN 95,1,20,1,19,1011,RODN 220056Z AUTO 28003KT 7SM -RA BKN010 BKN095 20/19 A2987 RMK     AO2 RAE18RAB46 CIG 010V100 SLP121 P0002 T01970187=,- RA
20180122_020000.002,0,RODN,,,,1,20180122010000,-1,-1,-1,-1,330,-1,16,-1,27,-1,-1,,-1,0,2,1,BKN 5,1,19,1,18,1013,RODN 220156Z AUTO 33016G27KT 3SM -RA BR BKN005 19/18 A2991 RMK     AO2 PK WND 30027/49 RAE03RAB23 BKN V OVC SLP135 P0005           T01920177=,- RA; BR
20180122_030000.002,0,RODN,,,,1,20180122020000,-1,-1,-1,-1,330,-1,16,-1,22,-1,-1,,-1,0,0,3,SCT 20   BKN 26   OVC 31,1,19,1,16,1013,RODN 220256Z AUTO 33016G22KT 10SM SCT020 BKN026 OVC031 19/16     A2990 RMK AO2 RAE06 CIG 019V026 BKN V OVC SLP132 P0001           60008 T01920158 50012=,
20180122_040000.002,0,RODN,,,,1,20180122030000,-1,-1,-1,-1,330,-1,12,-1,22,-1,-1,,-1,0,0,2,BKN 23   OVC 32,1,20,1,15,1012,RODN 220356Z AUTO 33012G22KT 10SM BKN023 OVC032 20/15 A2988 RMK     AO2 SLP125 T01950149=,
20180122_050000.002,0,RODN,,,,1,20180122040000,-1,-1,-1,-1,350,-1,14,-1,20,-1,-1,,-1,0,0,3,FEW 23   FEW 34   SCT 120,1,19,1,15,1011,RODN 220456Z AUTO 35014G20KT 10SM FEW023 FEW034 SCT120 19/15     A2986 RMK AO2 SLP118 T01900145=,
20180122_060000.003,0,RODN,,,,1,20180122050000,-1,-1,-1,-1,360,-1,11,-1,19,-1,-1,,-1,0,0,3,SCT 24   BKN 33   BKN 120,1,19,1,14,1011,RODN 220556Z AUTO 36011G19KT 10SM SCT024 BKN033 BKN120 19/14     A2987 RMK AO2 SLP122 60008 T01910137 10201 20188 55010=,
20180122_070000.002,0,RODN,,,,1,20180122060000,-1,-1,-1,-1,360,-1,14,-1,22,-1,-1,,-1,0,0,2,FEW 26   BKN 35,1,19,1,13,1012,RODN 220656Z AUTO 36014G22KT 10SM FEW026 BKN035 19/13 A2988 RMK     AO2 SLP125 T01880128=,
20180122_080000.003,0,RODN,,,,1,20180122070000,-1,-1,-1,-1,10,-1,8,-1,-1,-1,-1,,-1,0,0,3,FEW 31   BKN 39   BKN 130,1,18,1,12,1013,RODN 220756Z AUTO 01008KT 10SM FEW031 BKN039 BKN130 18/12 A2992     RMK AO2 SLP139 T01820124=,
20180122_090000.002,0,RODN,,,,1,20180122080000,-1,-1,-1,-1,20,-1,12,-1,-1,-1,-1,,-1,0,0,2,SCT 40   BKN 130,1,18,1,11,1014,RODN 220856Z AUTO 02012KT 10SM SCT040 BKN130 18/11 A2995 RMK     AO2 SLP149 T01750111 52027=,
20180122_100000.002,0,RODN,,,,1,20180122090000,-1,-1,-1,-1,30,-1,11,-1,-1,-1,-1,,-1,0,0,2,BKN 38   OVC 140,1,17,1,11,1015,RODN 220956Z AUTO 03011KT 10SM BKN038 OVC140 17/11 A2996 RMK     AO2 SLP152 T01730109=,
20180122_110000.003,0,RODN,,,,1,20180122100000,-1,-1,-1,-1,30,-1,14,-1,-1,-1,-1,,-1,0,0,2,SCT 40   BKN 170,1,17,1,10,1015,RODN 221056Z AUTO 03014KT 10SM SCT040 BKN170 17/10 A2998 RMK     AO2 SLP159 T01690103=,
20180122_120000.002,0,RODN,,,,1,20180122110000,-1,-1,-1,-1,40,-1,11,-1,-1,-1,-1,,-1,0,0,2,BKN 40   BKN 210,1,17,1,10,1016,RODN 221156Z AUTO 04011KT 10SM BKN040 BKN210 17/10 A3000 RMK     AO2 SLP166 T01680099 10191 20167 52015=,
20180122_130000.001,0,RODN,,,,1,20180122120000,-1,-1,-1,-1,40,-1,8,-1,-1,-1,-1,,-1,0,0,1,OVC 44,1,17,1,10,1016,RODN 221256Z AUTO 04008KT 10SM OVC044 17/10 A3001 RMK AO2     SLP169 T01650101=,
20180122_140000.001,0,RODN,,,,1,20180122130000,-1,-1,-1,-1,30,-1,6,-1,-1,-1,-1,,-1,0,0,1,OVC 45,1,16,1,11,1016,RODN 221356Z AUTO 03006KT 10SM OVC045 16/11 A3001 RMK AO2     SLP169 T01560110=,
20180122_150000.002,0,RODN,,,,1,20180122140000,-1,-1,-1,-1,20,-1,7,-1,-1,-1,-1,,-1,0,0,1,SCT 46,1,15,1,10,1016,RODN 221456Z AUTO 02007KT 10SM SCT046 15/10 A3001 RMK AO2     SLP169 T01510099 402010151 50006=,
20180122_160000.002,0,RODN,,,,1,20180122150000,-1,-1,-1,-1,60,-1,4,-1,-1,-1,-1,,-1,0,0,1,OVC 46,1,15,1,11,1017,RODN 221556Z AUTO 06004KT 10SM OVC046 15/11 A3002 RMK AO2     SLP173 T01490109=,
20180122_170000.002,0,RODN,,,,1,20180122160000,-1,-1,-1,-1,30,-1,8,-1,-1,-1,-1,,-1,0,0,1,BKN 220,1,15,1,9,1016,RODN 221656Z AUTO 03008KT 10SM BKN220 15/09 A3000 RMK AO2     SLP166 T01520091=,
20180122_180000.002,0,RODN,,,,1,20180122170000,-1,-1,-1,-1,80,-1,6,-1,-1,-1,-1,,-1,0,0,0,,1,13,1,10,1016,RODN 221756Z AUTO 08006KT 10SM CLR 13/10 A2999 RMK AO2 SLP163     T01280096 10168 20128 58008=,
20180122_190000.004,0,RODN,,,,1,20180122180000,-1,-1,-1,-1,70,-1,5,-1,-1,-1,-1,,-1,0,0,0,,1,12,1,9,1016,RODN 221856Z AUTO 07005KT 10SM CLR 12/09 A3000 RMK AO2 SLP167     T01220092=,
20180122_200000.002,0,RODN,,,,1,20180122190000,-1,-1,-1,-1,40,-1,5,-1,-1,-1,-1,,-1,0,0,1,OVC 49,1,13,1,11,1016,RODN 221956Z AUTO 04005KT 10SM OVC049 13/11 A3000 RMK AO2     SLP166 T01310106=,
20180122_210000.003,0,RODN,,,,1,20180122200000,-1,-1,-1,-1,50,-1,8,-1,-1,-1,-1,,-1,0,0,1,FEW 50,1,13,1,10,1016,RODN 222056Z AUTO 05008KT 10SM FEW050 13/10 A3001 RMK AO2     SLP170 T01250100 52007=,
20180122_220000.002,0,RODN,,,,1,20180122210000,-1,-1,-1,-1,60,-1,6,-1,-1,-1,-1,,-1,0,0,0,,1,12,1,9,1017,RODN 222156Z AUTO 06006KT 10SM CLR 12/09 A3003 RMK AO2 SLP177     T01210091=,
20180122_230000.003,0,RODN,,,,1,20180122220000,-1,-1,-1,-1,70,-1,8,-1,-1,-1,-1,,-1,0,0,2,BKN 60   OVC 120,1,14,1,10,1017,RODN 222256Z AUTO 07008KT 10SM BKN060 OVC120 14/10 A3003 RMK     AO2 SLP177 T01420102=,
20180123_000000.004,0,RODN,,,,1,20180122230000,-1,-1,-1,-1,50,-1,8,-1,-1,-1,-1,,-1,0,0,1,SCT 55,1,17,1,11,1017,RODN 222356Z AUTO 05008KT 9SM SCT055 17/11 A3004 RMK AO2 SLP180     70008 T01690105 10169 20110 51008=,
20180123_010000.002,0,RODN,,,,1,20180123000000,-1,-1,-1,-1,50,-1,11,-1,-1,-1,-1,,-1,0,0,1,OVC 55,1,18,1,10,1017,RODN 230056Z AUTO 05011KT 10SM OVC055 18/10 A3004 RMK AO2     SLP180 T01780099=,
20180123_020000.002,0,RODN,,,,1,20180123010000,-1,-1,-1,-1,70,-1,12,-1,-1,-1,-1,,-1,0,0,1,SCT 60,1,20,1,10,1017,RODN 230156Z AUTO 07012KT 10SM SCT060 20/10 A3002 RMK AO2     SLP173 T01970104=,
20180123_030000.003,0,RODN,,,,1,20180123020000,-1,-1,-1,-1,80,-1,12,-1,19,-1,-1,,-1,0,0,1,OVC 55,1,20,1,11,1016,RODN 230256Z AUTO 08012G19KT 10SM OVC055 20/11 A3001 RMK AO2     SLP169 T02000109=,
20180123_040000.005,1,RODN,,,,1,20180123030000,-1,-1,-1,-1,70,-1,10,-1,-1,-1,-1,,-1,0,0,2,BKN 46   OVC 60,1,19,1,11,1016,RODN 230356Z AUTO 07010KT 10SM BKN046 OVC060 19/11 A2999 RMK     AO2 SLP163 T01910109=,
20180123_050000.002,0,RODN,,,,1,20180123040000,-1,-1,-1,-1,50,-1,11,-1,-1,-1,-1,,-1,0,0,2,BKN 46   OVC 65,1,19,1,12,1015,RODN 230456Z AUTO 05011KT 10SM BKN046 OVC065 19/12 A2997 RMK     AO2 SLP156 T01930116=,
20180123_060000.003,0,RODN,,,,1,20180123050000,-1,-1,-1,-1,50,-1,7,-1,-1,-1,-1,,-1,0,0,1,OVC 44,1,19,1,11,1015,RODN 230556Z AUTO 05007KT 10SM OVC044 19/11 A2997 RMK AO2     SLP156 T01850111 10201 20166 56012=,
20180123_070000.005,0,RODN,,,,1,20180123060000,-1,-1,-1,-1,30,-1,7,-1,-1,-1,-1,,-1,0,0,1,OVC 42,1,18,1,11,1016,RODN 230656Z AUTO 03007KT 10SM OVC042 18/11 A2999 RMK AO2     SLP163 T01820110=,
20180123_080000.002,0,RODN,,,,1,20180123070000,-1,-1,-1,-1,20,-1,7,-1,-1,-1,-1,,-1,0,0,2,BKN 44   OVC 50,1,18,1,11,1016,RODN 230756Z AUTO 02007KT 10SM BKN044 OVC050 18/11 A3000 RMK     AO2 SLP166 T01790110=,
20180123_090000.002,0,RODN,,,,1,20180123080000,-1,-1,-1,-1,50,-1,7,-1,-1,-1,-1,,-1,0,0,1,OVC 45,1,17,1,11,1016,RODN 230856Z AUTO 05007KT 10SM OVC045 17/11 A3001 RMK AO2     SLP170 T01680113 52014=,
20180123_100000.002,0,RODN,,,,1,20180123090000,-1,-1,-1,-1,50,-1,7,-1,-1,-1,-1,,-1,0,0,3,BKN 50   BKN 75   BKN 85,1,16,1,12,1017,RODN 230956Z AUTO 05007KT 10SM BKN050 BKN075 BKN085 16/12 A3003     RMK AO2 SLP177 T01580120=,
20180123_110000.002,0,RODN,,,,1,20180123100000,-1,-1,-1,-1,50,-1,8,-1,-1,-1,-1,,-1,0,0,1,SCT 85,1,14,1,11,1017,RODN 231056Z AUTO 05008KT 10SM SCT085 14/11 A3004 RMK AO2     SLP180 T01430113=,
20180123_120000.002,0,RODN,,,,1,20180123110000,-1,-1,-1,-1,50,-1,7,-1,-1,-1,-1,,-1,0,0,0,,1,12,1,10,1018,RODN 231156Z AUTO 05007KT 10SM CLR 12/10 A3005 RMK AO2 SLPNO     T01210102 10185 20121 52013=,
20180123_210000.004,0,RODN,,,,1,20180123200000,-1,-1,-1,-1,10,-1,10,-1,-1,-1,-1,,-1,0,0,3,SCT 21   BKN 31   BKN 40,1,17,1,13,1018,RODN 232056Z AUTO 01010KT 10SM SCT021 BKN031 BKN040 17/13 A3005     RMK AO2 SLP183 T01670128 53006=,
20180123_220000.006,0,RODN,,,,1,20180123210000,-1,-1,-1,-1,20,-1,12,-1,20,-1,-1,,-1,0,0,2,BKN 18   OVC 25,1,16,1,13,1019,RODN 232156Z AUTO 02012G20KT 10SM BKN018 OVC025 16/13 A3008 RMK     AO2 SLP194 T01640127=,
20180123_223000.002,0,RODN,,,,1,20180123190000,-1,-1,-1,-1,20,-1,11,-1,-1,-1,-1,,-1,0,0,1,BKN 100,1,16,1,13,1017,RODN 231956Z AUTO 02011KT 9SM BKN100 16/13 A3003 RMK AO2 SLP176     T01630128=,
20180123_230000.004,0,RODN,,,,1,20180123220000,-1,-1,-1,-1,20,-1,13,-1,-1,-1,-1,,-1,0,0,2,BKN 23   OVC 30,1,16,1,12,1019,RODN 232256Z AUTO 02013KT 10SM BKN023 OVC030 16/12 A3010 RMK     AO2 CIG 023V030 SLP201 T01630119=,
20180124_000000.004,0,RODN,,,,1,20180123230000,-1,-1,-1,-1,30,-1,11,-1,-1,-1,-1,,-1,0,1,1,OVC 32,1,16,1,12,1020,RODN 232356Z AUTO 03011KT 10SM -RA OVC032 16/12 A3011 RMK AO2     RAB47 SLP204 P0000 60000 T01570117 10168 20151 51020=,- RA
20180124_010000.001,0,RODN,,,,1,20180124000000,-1,-1,-1,-1,30,-1,11,-1,-1,-1,-1,,-1,0,0,3,FEW 21   SCT 26   OVC 35,1,16,1,12,1020,RODN 240056Z AUTO 03011KT 10SM FEW021 SCT026 OVC035 16/12 A3012     RMK AO2 RAE2357RAB2359E08 SLP207 P0000 T01610119=,
20180124_020000.002,0,RODN,,,,1,20180124010000,-1,-1,-1,-1,30,-1,10,-1,-1,-1,-1,,-1,0,0,3,FEW 24   BKN 30   OVC 37,1,16,1,12,1020,RODN 240156Z AUTO 03010KT 10SM FEW024 BKN030 OVC037 16/12 A3012     RMK AO2 SLP207 T01640115=,
20180124_030000.002,0,RODN,,,,1,20180124020000,-1,-1,-1,-1,30,-1,10,-1,-1,-1,-1,,-1,0,0,2,BKN 27   OVC 32,1,16,1,11,1019,RODN 240256Z AUTO 03010KT 10SM BKN027 OVC032 16/11 A3009 RMK     AO2 SLP197 60000 T01640113 58008=,
20180124_040000.002,0,RODN,,,,1,20180124030000,-1,-1,-1,-1,30,-1,14,-1,-1,-1,-1,,-1,0,0,4,FEW 26   SCT 36   SCT 43   BKN 55,1,19,1,11,1018,RODN 240356Z AUTO 03014KT 10SM FEW026 SCT036 SCT043 BKN055     19/11 A3005 RMK AO2 SLP183 T01850113=,
20180124_050000.004,0,RODN,,,,1,20180124040000,-1,-1,-1,-1,20,-1,13,-1,-1,-1,-1,,-1,0,0,3,BKN 29   BKN 37   OVC 47,1,17,1,11,1017,RODN 240456Z AUTO 02013KT 10SM BKN029 BKN037 OVC047 17/11 A3004     RMK AO2 CIG 029V038 SLP180 T01680109=,
20180124_060000.002,0,RODN,,,,1,20180124050000,-1,-1,-1,-1,30,-1,14,-1,20,-1,-1,,-1,0,0,2,BKN 28   OVC 35,1,16,1,10,1017,RODN 240556Z AUTO 03014G20KT 10SM BKN028 OVC035 16/10 A3003 RMK     AO2 CIG 028V035 SLP177 60000 T01630102 10186 20156 57021=,
20180124_070000.002,0,RODN,,,,1,20180124060000,-1,-1,-1,-1,20,-1,14,-1,18,-1,-1,,-1,0,0,2,SCT 30   OVC 37,1,16,1,10,1017,RODN 240656Z AUTO 02014G18KT 10SM SCT030 OVC037 16/10 A3004 RMK     AO2 SLP180 T01640103=,
20180124_080000.002,0,RODN,,,,1,20180124070000,-1,-1,-1,-1,30,-1,17,-1,24,-1,-1,,-1,0,0,2,BKN 27   OVC 37,1,16,1,10,1017,RODN 240756Z AUTO 03017G24KT 10SM BKN027 OVC037 16/10 A3003 RMK     AO2 CIG 027V037 SLP177 T01600103=,
20180124_090000.003,0,RODN,,,,1,20180124080000,-1,-1,-1,-1,30,-1,12,-1,-1,-1,-1,,-1,0,0,1,OVC 35,1,15,1,9,1018,RODN 240856Z AUTO 03012KT 10SM OVC035 15/09 A3007 RMK AO2     SLP190 T01540093 50015=,
20180124_100000.002,0,RODN,,,,1,20180124090000,-1,-1,-1,-1,30,-1,12,-1,-1,-1,-1,,-1,0,0,1,BKN 42,1,15,1,9,1018,RODN 240956Z AUTO 03012KT 10SM BKN042 15/09 A3007 RMK AO2     SLP190 T01500087=,
20180124_110000.002,0,RODN,,,,1,20180124100000,-1,-1,-1,-1,30,-1,13,-1,-1,-1,-1,,-1,0,0,1,OVC 35,1,15,1,9,1019,RODN 241056Z AUTO 03013KT 10SM OVC035 15/09 A3010 RMK AO2     SLP200 T01500085=,
20180124_120000.002,0,RODN,,,,1,20180124110000,-1,-1,-1,-1,40,-1,10,-1,-1,-1,-1,,-1,0,0,1,OVC 39,1,15,1,8,1019,RODN 241156Z AUTO 04010KT 10SM OVC039 15/08 A3010 RMK AO2     SLP201 T01470077 10167 20147 53008=,
20180124_130000.002,0,RODN,,,,1,20180124120000,-1,-1,-1,-1,40,-1,10,-1,-1,-1,-1,,-1,0,0,2,BKN 46   OVC 120,1,15,1,7,1020,RODN 241256Z AUTO 04010KT 10SM BKN046 OVC120 15/07 A3012 RMK     AO2 SLP207 T01450071=,
20180124_140000.001,0,RODN,,,,1,20180124130000,-1,-1,-1,-1,20,-1,10,-1,-1,-1,-1,,-1,0,0,1,OVC 120,1,14,1,8,1020,RODN 241356Z AUTO 02010KT 10SM OVC120 14/08 A3012 RMK AO2     SLP207 T01430076=,
20180124_150000.002,0,RODN,,,,1,20180124140000,-1,-1,-1,-1,50,-1,6,-1,-1,-1,-1,,-1,0,0,2,BKN 47   OVC 120,1,14,1,8,1020,RODN 241456Z AUTO 05006KT 10SM BKN047 OVC120 14/08 A3011 RMK     AO2 SLP204 T01360080 401860136 50002=,
20180124_160000.002,0,RODN,,,,1,20180124150000,-1,-1,-1,-1,40,-1,9,-1,-1,-1,-1,,-1,0,0,1,OVC 43,1,14,1,8,1019,RODN 241556Z AUTO 04009KT 10SM OVC043 14/08 A3010 RMK AO2     SLP200 T01420082=,
20180124_170000.002,0,RODN,,,,1,20180124160000,-1,-1,-1,-1,50,-1,6,-1,-1,-1,-1,,-1,0,0,1,BKN 50,1,13,1,9,1019,RODN 241656Z AUTO 05006KT 10SM BKN050 13/09 A3010 RMK AO2     SLP201 T01280089=,
20180124_180000.002,0,RODN,,,,1,20180124170000,-1,-1,-1,-1,60,-1,6,-1,-1,-1,-1,,-1,0,0,1,OVC 50,1,11,1,9,1019,RODN 241756Z AUTO 06006KT 10SM OVC050 11/09 A3009 RMK AO2     SLP197 T01060085 10148 20102 57007=,
20180124_190000.001,0,RODN,,,,1,20180124180000,-1,-1,-1,-1,40,-1,8,-1,-1,-1,-1,,-1,0,0,1,OVC 49,1,11,1,9,1018,RODN 241856Z AUTO 04008KT 10SM OVC049 11/09 A3007 RMK AO2     SLP191 T01050086=,
20180124_200000.002,0,RODN,,,,1,20180124190000,-1,-1,-1,-1,40,-1,7,-1,-1,-1,-1,,-1,0,0,0,,1,12,1,9,1019,RODN 241956Z AUTO 04007KT 10SM CLR 12/09 A3008 RMK AO2 SLP194     T01240085=,
20180124_210000.005,0,RODN,,,,1,20180124200000,-1,-1,-1,-1,50,-1,7,-1,-1,-1,-1,,-1,0,0,0,,1,9,1,7,1019,RODN 242056Z AUTO 05007KT 10SM CLR 09/07 A3008 RMK AO2 SLP194     T00940073 55001=,
20180124_220000.002,0,RODN,,,,1,20180124210000,-1,-1,-1,-1,60,-1,7,-1,-1,-1,-1,,-1,0,0,1,FEW 55,1,11,1,8,1020,RODN 242156Z AUTO 06007KT 10SM FEW055 11/08 A3011 RMK AO2     SLP204 T01070081=,
20180124_230000.002,0,RODN,,,,1,20180124220000,-1,-1,-1,-1,60,-1,7,-1,-1,-1,-1,,-1,0,0,2,BKN 47   OVC 55,1,13,1,10,1020,RODN 242256Z AUTO 06007KT 10SM BKN047 OVC055 13/10 A3012 RMK     AO2 SLP208 T01250099=,
20180125_000000.004,0,RODN,,,,1,20180124230000,-1,-1,-1,-1,40,-1,12,-1,-1,-1,-1,,-1,0,0,2,BKN 38   OVC 48,1,15,1,11,1021,RODN 242356Z AUTO 04012KT 10SM BKN038 OVC048 15/11 A3014 RMK     AO2 SLP214 T01450105 10145 20093 52019=,
20180125_010000.002,0,RODN,,,,1,20180125000000,-1,-1,-1,-1,40,-1,13,-1,-1,-1,-1,,-1,0,0,1,BKN 55,1,16,1,11,1021,RODN 250056Z AUTO 04013KT 10SM BKN055 16/11 A3014 RMK AO2     SLP214 T01560108=,
20180125_020000.003,0,RODN,,,,1,20180125010000,-1,-1,-1,-1,20,-1,12,-1,-1,-1,-1,,-1,0,0,2,SCT 26   BKN 55,1,18,1,10,1020,RODN 250156Z AUTO 02012KT 10SM SCT026 BKN055 18/10 A3013 RMK     AO2 SLP210 T01770103=,
20180125_030000.002,0,RODN,,,,1,20180125020000,-1,-1,-1,-1,40,-1,11,-1,-1,-1,-1,,-1,0,0,3,SCT 29   SCT 36   OVC 50,1,17,1,10,1020,RODN 250256Z AUTO 04011KT 10SM SCT029 SCT036 OVC050 17/10 A3011     RMK AO2 SLP204 T01740098 58009=,
20180125_040000.002,0,RODN,,,,1,20180125030000,-1,-1,-1,-1,30,-1,12,-1,-1,-1,-1,,-1,0,0,1,OVC 49,1,17,1,9,1019,RODN 250356Z AUTO 03012KT 10SM OVC049 17/09 A3008 RMK AO2     SLP194 T01710093=,
20180125_050000.002,0,RODN,,,,1,20180125040000,-1,-1,-1,-1,30,-1,12,-1,-1,-1,-1,,-1,0,0,1,OVC 46,1,16,1,9,1018,RODN 250456Z AUTO 03012KT 10SM OVC046 16/09 A3006 RMK AO2     SLP187 T01640093=,
20180125_060000.002,0,RODN,,,,1,20180125050000,-1,-1,-1,-1,50,-1,13,-1,-1,-1,-1,,-1,0,0,1,OVC 44,1,16,1,10,1017,RODN 250556Z AUTO 05013KT 10SM OVC044 16/10 A3004 RMK AO2     SLP181 T01600099 10184 20142 57024=,
20180125_070000.002,0,RODN,,,,1,20180125060000,-1,-1,-1,-1,50,-1,10,-1,-1,-1,-1,,-1,0,0,2,BKN 47   BKN 55,1,16,1,10,1017,RODN 250656Z AUTO 05010KT 10SM BKN047 BKN055 16/10 A3004 RMK     AO2 SLP181 T01620098=,
20180125_080000.002,0,RODN,,,,1,20180125070000,-1,-1,-1,-1,40,-1,11,-1,-1,-1,-1,,-1,0,0,1,OVC 45,1,16,1,10,1018,RODN 250756Z AUTO 04011KT 10SM OVC045 16/10 A3005 RMK AO2     SLP184 T01570098=,
20180125_090000.002,0,RODN,,,,1,20180125080000,-1,-1,-1,-1,50,-1,9,-1,-1,-1,-1,,-1,0,0,2,BKN 46   OVC 70,1,15,1,10,1018,RODN 250856Z AUTO 05009KT 10SM BKN046 OVC070 15/10 A3006 RMK     AO2 SLP188 T01510099 52006=,
20180125_100000.003,0,RODN,,,,1,20180125090000,-1,-1,-1,-1,40,-1,7,-1,-1,-1,-1,,-1,0,0,2,BKN 50   OVC 60,1,14,1,10,1018,RODN 250956Z AUTO 04007KT 10SM BKN050 OVC060 14/10 A3007 RMK     AO2 SLP191 T01420102=,
20180125_110000.003,0,RODN,,,,1,20180125100000,-1,-1,-1,-1,50,-1,7,-1,-1,-1,-1,,-1,0,0,1,OVC 70,1,14,1,10,1019,RODN 251056Z AUTO 05007KT 10SM OVC070 14/10 A3008 RMK AO2     SLP194 T01430103=,
20180125_120000.002,0,RODN,,,,1,20180125110000,-1,-1,-1,-1,50,-1,10,-1,-1,-1,-1,,-1,0,0,1,OVC 60,1,14,1,10,1019,RODN 251156Z AUTO 05010KT 10SM OVC060 14/10 A3008 RMK AO2     SLP194 T01440100 10164 20131 51007=,
20180125_130000.002,0,RODN,,,,1,20180125120000,-1,-1,-1,-1,50,-1,6,-1,-1,-1,-1,,-1,0,0,2,FEW 46   OVC 80,1,14,1,10,1019,RODN 251256Z AUTO 05006KT 10SM FEW046 OVC080 14/10 A3009 RMK     AO2 SLP197 T01440100=,
20180125_140000.002,0,RODN,,,,1,20180125130000,-1,-1,-1,-1,60,-1,7,-1,-1,-1,-1,,-1,0,0,3,FEW 49   SCT 60   BKN 80,1,14,1,10,1019,RODN 251356Z AUTO 06007KT 10SM FEW049 SCT060 BKN080 14/10 A3009     RMK AO2 SLP197 T01430101=,
20180125_150000.002,0,RODN,,,,1,20180125140000,-1,-1,-1,-1,50,-1,5,-1,-1,-1,-1,,-1,0,0,2,FEW 44   OVC 85,1,13,1,10,1019,RODN 251456Z AUTO 05005KT 10SM FEW044 OVC085 13/10 A3009 RMK     AO2 SLP197 T01320102 401840093 50005=,
20180125_160000.002,0,RODN,,,,1,20180125150000,-1,-1,-1,-1,50,-1,7,-1,-1,-1,-1,,-1,0,0,2,BKN 49   OVC 100,1,12,1,10,1019,RODN 251556Z AUTO 05007KT 10SM BKN049 OVC100 12/10 A3008 RMK     AO2 SLP194 T01230102=,
20180125_170000.002,0,RODN,,,,1,20180125160000,-1,-1,-1,-1,40,-1,5,-1,-1,-1,-1,,-1,0,0,1,OVC 50,1,13,1,11,1019,RODN 251656Z AUTO 04005KT 10SM OVC050 13/11 A3008 RMK AO2     SLP194 T01330110=,
20180125_180000.002,0,RODN,,,,1,20180125170000,-1,-1,-1,-1,40,-1,5,-1,-1,-1,-1,,-1,0,0,2,BKN 48   OVC 100,1,13,1,11,1018,RODN 251756Z AUTO 04005KT 10SM BKN048 OVC100 13/11 A3007 RMK     AO2 SLP190 T01340111 10145 20119 57009=,
20180125_190000.002,0,RODN,,,,1,20180125180000,-1,-1,-1,-1,50,-1,6,-1,-1,-1,-1,,-1,0,0,3,FEW 41   SCT 75   OVC 95,1,14,1,11,1018,RODN 251856Z AUTO 05006KT 10SM FEW041 SCT075 OVC095 14/11 A3005     RMK AO2 SLP184 T01350112=,
20180125_200000.001,0,RODN,,,,1,20180125190000,-1,-1,-1,-1,60,-1,6,-1,-1,-1,-1,,-1,0,0,2,BKN 37   BKN 95,1,14,1,12,1018,RODN 251956Z AUTO 06006KT 10SM BKN037 BKN095 14/12 A3005 RMK     AO2 SLP184 T01400115=,
20180125_210000.002,0,RODN,,,,1,20180125200000,-1,-1,-1,-1,40,-1,6,-1,-1,-1,-1,,-1,0,0,1,OVC 18,1,14,1,12,1018,RODN 252056Z AUTO 04006KT 10SM OVC018 14/12 A3007 RMK AO2     DZB28E31RAB31E41 SLP190 P0000 60000 T01440117 55000=,
20180125_220000.002,0,RODN,,,,1,20180125210000,-1,-1,-1,-1,50,-1,7,-1,-1,-1,-1,,-1,0,0,2,FEW 19   OVC 32,1,14,1,12,1019,RODN 252156Z AUTO 05007KT 10SM FEW019 OVC032 14/12 A3008 RMK     AO2 SLP194 T01430118=,
20180125_230000.003,0,RODN,,,,1,20180125220000,-1,-1,-1,-1,30,-1,6,-1,-1,-1,-1,,-1,0,2,3,SCT 2   BKN 11   OVC 17,1,14,1,12,1020,RODN 252256Z AUTO 03006KT 3SM -RA BR SCT002 BKN011 OVC017 14/12     A3011 RMK AO2 RAB06E30RAB41 CIG 011V016 SLP204 P0001           T01390124=,- RA; BR
20180126_000000.004,0,RODN,,,,1,20180125230000,-1,-1,-1,-1,30,-1,12,-1,-1,-1,-1,,-1,0,2,2,BKN 2   BKN 6,1,14,1,13,1020,RODN 252356Z AUTO 03012KT 4SM -RA BR BKN002 BKN006 14/13 A3012     RMK AO2 RAE32RAB40E44RAB45 CIG 002V008 BKN002 V SCT SLP208           P0004 60005 70005 T01390126 10145 20133 52017=,- RA; BR
20180126_010000.002,0,RODN,,,,1,20180126000000,-1,-1,-1,-1,20,-1,14,-1,-1,-1,-1,,-1,0,1,3,SCT 2   BKN 15   OVC 27,1,14,1,12,1021,RODN 260056Z AUTO 02014KT 4SM BR SCT002 BKN015 OVC027 14/12     A3014 RMK AO2 RAE2358RAB01E11RAB23E37 SLP214 P0002           T01400122=,BR
20180126_020000.002,0,RODN,,,,1,20180126010000,-1,-1,-1,-1,30,-1,15,-1,21,-1,-1,,-1,0,1,3,FEW 2   SCT 25   OVC 33,1,14,1,12,1021,RODN 260156Z AUTO 03015G21KT 8SM -RA FEW002 SCT025 OVC033 14/12     A3014 RMK AO2 RAB0058E33RAB44E46RAB48 SLP214 P0002           T01380118=,- RA
20180126_030000.002,0,RODN,,,,0,20180126020000,-1,-1,-1,-1,20,-1,10,-1,23,-1,-1,,-1,0,2,3,FEW 1   BKN 13   OVC 22,1,14,1,12,1020,RODN 260256Z 02010G23KT 4SM -RA BR FEW001 BKN013 OVC022 14/12     A3013 RMK AO2A TWR VIS 2 RAE00RAB06E34RAB39 SLP211 P0001           60005 T01350117 50006=,- RA; BR
20180126_040000.002,0,RODN,,,,1,20180126030000,-1,-1,-1,-1,20,-1,16,-1,21,-1,-1,,-1,0,1,3,BKN 18   BKN 24   OVC 32,1,14,1,11,1020,RODN 260356Z AUTO 02016G21KT 10SM -RA BKN018 BKN024 OVC032     14/11 A3011 RMK AO2 RAE18RAB33 SLP204 P0001 T01370112=,- RA
20180126_050000.002,0,RODN,,,,1,20180126040000,-1,-1,-1,-1,360,-1,15,-1,20,-1,-1,,-1,0,0,2,FEW 20   OVC 30,1,14,1,10,1019,RODN 260456Z AUTO 36015G20KT 10SM FEW020 OVC030 14/10 A3010 RMK     AO2 PK WND 02026/25 RAE0358 SLP201 P0000 T01380100=,
20180126_060000.002,0,RODN,,,,1,20180126050000,-1,-1,-1,-1,10,-1,14,-1,23,-1,-1,,-1,0,1,2,SCT 23   OVC 32,1,14,1,9,1019,RODN 260556Z AUTO 01014G23KT 10SM -RA SCT023 OVC032 14/09 A3009     RMK AO2 RAB27E36RAB42E47RAB50E52RAB55 SLP197 P0000 60006           T01360094 10144 20135 56013=,- RA
20180126_070000.002,0,RODN,,,,1,20180126060000,-1,-1,-1,-1,10,-1,15,-1,24,-1,-1,,-1,0,0,3,FEW 22   SCT 30   OVC 41,1,14,1,9,1019,RODN 260656Z AUTO 01015G24KT 10SM FEW022 SCT030 OVC041 14/09     A3010 RMK AO2 PK WND 34028/08 RAE10 SLP201 P0000           T01360092=,
20180126_080000.003,0,RODN,,,,1,20180126070000,-1,-1,-1,-1,10,-1,13,-1,19,-1,-1,,-1,0,0,3,FEW 24   BKN 33   OVC 43,1,13,1,9,1019,RODN 260756Z AUTO 01013G19KT 10SM FEW024 BKN033 OVC043 13/09     A3010 RMK AO2 RAB10E20 SLP201 P0000 T01310086=,
20180126_090000.002,0,RODN,,,,1,20180126080000,-1,-1,-1,-1,10,-1,12,-1,17,-1,-1,,-1,0,1,2,BKN 26   OVC 35,1,13,1,9,1020,RODN 260856Z AUTO 01012G17KT 10SM -RA BKN026 OVC035 13/09 A3013     RMK AO2 RAB39E48RAB54 CIG 026V035 BKN V SCT SLP211 P0000           60000 T01260091 53011=,- RA
20180126_100000.002,0,RODN,,,,1,20180126090000,-1,-1,-1,-1,10,-1,13,-1,-1,-1,-1,,-1,0,0,3,FEW 23   BKN 36   OVC 44,1,12,1,9,1021,RODN 260956Z AUTO 01013KT 10SM FEW023 BKN036 OVC044 12/09 A3014     RMK AO2 RAE05RAB16E25RAB34E45 SLP214 P0001 T01230091=,
20180126_110000.002,0,RODN,,,,1,20180126100000,-1,-1,-1,-1,10,-1,14,-1,-1,-1,-1,,-1,0,0,2,BKN 28   OVC 35,1,13,1,8,1021,RODN 261056Z AUTO 01014KT 10SM BKN028 OVC035 13/08 A3015 RMK     AO2 CIG 028V033 SLP218 T01310084=,
20180126_120000.002,0,RODN,,,,1,20180126110000,-1,-1,-1,-1,10,-1,13,-1,-1,-1,-1,,-1,0,0,1,OVC 33,1,13,1,8,1021,RODN 261156Z AUTO 01013KT 10SM OVC033 13/08 A3016 RMK AO2     SLP221 60001 T01330079 10138 20122 52012=,
20180126_130000.002,0,RODN,,,,1,20180126120000,-1,-1,-1,-1,10,-1,11,-1,-1,-1,-1,,-1,0,0,2,BKN 35   OVC 43,1,13,1,7,1022,RODN 261256Z AUTO 01011KT 10SM BKN035 OVC043 13/07 A3017 RMK     AO2 SLP224 T01330071=,
20180126_140000.002,0,RODN,,,,1,20180126130000,-1,-1,-1,-1,10,-1,9,-1,-1,-1,-1,,-1,0,0,1,OVC 35,1,13,1,7,1022,RODN 261356Z AUTO 01009KT 10SM OVC035 13/07 A3017 RMK AO2     SLP225 T01320068=,
20180126_150000.002,0,RODN,,,,1,20180126140000,-1,-1,-1,-1,40,-1,9,-1,-1,-1,-1,,-1,0,0,2,BKN 30   OVC 39,1,13,1,7,1021,RODN 261456Z AUTO 04009KT 10SM BKN030 OVC039 13/07 A3016 RMK     AO2 SLP221 T01300070 401450119 50001=,
20180126_160000.002,0,RODN,,,,1,20180126150000,-1,-1,-1,-1,40,-1,6,-1,-1,-1,-1,,-1,0,0,1,OVC 37,1,13,1,7,1021,RODN 261556Z AUTO 04006KT 10SM OVC037 13/07 A3016 RMK AO2     SLP221 T01260068=,
20180126_170000.002,0,RODN,,,,1,20180126160000,-1,-1,-1,-1,50,-1,6,-1,-1,-1,-1,,-1,0,0,1,OVC 48,1,10,1,7,1021,RODN 261656Z AUTO 05006KT 10SM OVC048 10/07 A3015 RMK AO2     SLP218 T01030068=,
20180126_180000.002,0,RODN,,,,1,20180126170000,-1,-1,-1,-1,60,-1,5,-1,-1,-1,-1,,-1,0,0,1,OVC 34,1,13,1,9,1021,RODN 261756Z AUTO 06005KT 10SM OVC034 13/09 A3014 RMK AO2     SLP214 T01260085 10134 20103 57007=,
20180126_190000.002,0,RODN,,,,1,20180126180000,-1,-1,-1,-1,50,-1,5,-1,-1,-1,-1,,-1,0,0,1,OVC 37,1,13,1,8,1020,RODN 261856Z AUTO 05005KT 10SM OVC037 13/08 A3012 RMK AO2     SLP208 T01250084=,
20180126_200000.001,0,RODN,,,,1,20180126190000,-1,-1,-1,-1,50,-1,6,-1,-1,-1,-1,,-1,0,0,1,OVC 34,1,13,1,8,1020,RODN 261956Z AUTO 05006KT 10SM OVC034 13/08 A3013 RMK AO2     SLP211 T01280081=,
20180126_210000.002,0,RODN,,,,1,20180126200000,-1,-1,-1,-1,50,-1,6,-1,-1,-1,-1,,-1,0,0,1,OVC 35,1,13,1,8,1021,RODN 262056Z AUTO 05006KT 10SM OVC035 13/08 A3015 RMK AO2     SLP218 T01280075 53003=,
20180126_220000.002,0,RODN,,,,1,20180126210000,-1,-1,-1,-1,40,-1,7,-1,-1,-1,-1,,-1,0,0,1,OVC 36,1,13,1,7,1022,RODN 262156Z AUTO 04007KT 10SM OVC036 13/07 A3017 RMK AO2     SLP225 T01330073=,
20180126_230000.002,0,RODN,,,,1,20180126220000,-1,-1,-1,-1,50,-1,8,-1,-1,-1,-1,,-1,0,0,1,OVC 36,1,13,1,8,1022,RODN 262256Z AUTO 05008KT 10SM OVC036 13/08 A3018 RMK AO2     SLP228 T01310077=,
20180127_000000.004,0,RODN,,,,1,20180126230000,-1,-1,-1,-1,50,-1,6,-1,-1,-1,-1,,-1,0,0,1,OVC 39,1,14,1,8,1023,RODN 262356Z AUTO 05006KT 10SM OVC039 14/08 A3020 RMK AO2     SLP235 70007 T01370075 10137 20123 52018=,
20180127_010000.002,0,RODN,,,,1,20180127000000,-1,-1,-1,-1,50,-1,8,-1,-1,-1,-1,,-1,0,0,1,OVC 42,1,15,1,8,1023,RODN 270056Z AUTO 05008KT 10SM OVC042 15/08 A3020 RMK AO2     SLP235 T01480078=,
20180127_020000.002,0,RODN,,,,1,20180127010000,-1,-1,-1,-1,50,-1,7,-1,-1,-1,-1,,-1,0,0,1,OVC 49,1,16,1,8,1022,RODN 270156Z AUTO 05007KT 10SM OVC049 16/08 A3019 RMK AO2     SLP231 T01570075=,
20180127_030000.002,0,RODN,,,,1,20180127020000,-1,-1,-1,-1,50,-1,9,-1,-1,-1,-1,,-1,0,0,2,BKN 43   OVC 50,1,16,1,8,1022,RODN 270256Z AUTO 05009KT 10SM BKN043 OVC050 16/08 A3017 RMK     AO2 SLP224 T01550080 58011=,
20180127_040000.002,0,RODN,,,,1,20180127030000,-1,-1,-1,-1,50,-1,8,-1,-1,-1,-1,,-1,0,0,2,FEW 37   OVC 47,1,16,1,8,1020,RODN 270356Z AUTO 05008KT 10SM FEW037 OVC047 16/08 A3013 RMK     AO2 SLP211 T01620079=,
20180127_050000.002,0,RODN,,,,1,20180127040000,-1,-1,-1,-1,60,-1,9,-1,-1,-1,-1,,-1,0,0,2,SCT 38   OVC 48,1,17,1,8,1019,RODN 270456Z AUTO 06009KT 10SM SCT038 OVC048 17/08 A3010 RMK     AO2 SLP201 T01660080=,
20180127_060000.002,0,RODN,,,,1,20180127050000,-1,-1,-1,-1,50,-1,7,-1,-1,-1,-1,,-1,0,0,2,FEW 36   OVC 49,1,17,1,8,1019,RODN 270556Z AUTO 05007KT 10SM FEW036 OVC049 17/08 A3009 RMK     AO2 SLP197 T01670079 10169 20136 56025=,
20180127_070000.002,0,RODN,,,,1,20180127060000,-1,-1,-1,-1,50,-1,8,-1,-1,-1,-1,,-1,0,0,1,OVC 49,1,16,1,8,1019,RODN 270656Z AUTO 05008KT 10SM OVC049 16/08 A3009 RMK AO2     SLP197 T01620082=,
20180127_080000.002,0,RODN,,,,1,20180127070000,-1,-1,-1,-1,40,-1,8,-1,-1,-1,-1,,-1,0,0,1,OVC 44,1,16,1,8,1019,RODN 270756Z AUTO 04008KT 10SM OVC044 16/08 A3008 RMK AO2 SLPNO     T01560081=,
20180127_090000.003,0,RODN,,,,1,20180127080000,-1,-1,-1,-1,60,-1,6,-1,-1,-1,-1,,-1,0,0,1,OVC 46,1,15,1,9,1019,RODN 270856Z AUTO 06006KT 10SM OVC046 15/09 A3009 RMK AO2     SLP197 T01510088 55001=,
20180127_100000.002,0,RODN,,,,1,20180127090000,-1,-1,-1,-1,60,-1,7,-1,-1,-1,-1,,-1,0,0,1,OVC 47,1,14,1,9,1019,RODN 270956Z AUTO 06007KT 10SM OVC047 14/09 A3010 RMK AO2     SLP201 T01390091=,
20180127_110000.002,0,RODN,,,,1,20180127100000,-1,-1,-1,-1,40,-1,7,-1,-1,-1,-1,,-1,0,0,1,OVC 46,1,14,1,9,1020,RODN 271056Z AUTO 04007KT 10SM OVC046 14/09 A3012 RMK AO2     SLP208 T01410089=,
20180127_120000.002,0,RODN,,,,1,20180127110000,-1,-1,-1,-1,70,-1,5,-1,-1,-1,-1,,-1,0,0,1,OVC 45,1,14,1,9,1020,RODN 271156Z AUTO 07005KT 10SM OVC045 14/09 A3011 RMK AO2     SLP204 T01370091 10167 20136 50005=,
20180127_130000.002,0,RODN,,,,1,20180127120000,-1,-1,-1,-1,50,-1,4,-1,-1,-1,-1,,-1,0,0,1,OVC 50,1,14,1,10,1020,RODN 271256Z AUTO 05004KT 10SM OVC050 14/10 A3011 RMK AO2     SLP204 T01380098=,
20180127_140000.001,0,RODN,,,,1,20180127130000,-1,-1,-1,-1,80,-1,6,-1,-1,-1,-1,,-1,0,0,1,OVC 38,1,15,1,10,1019,RODN 271356Z AUTO 08006KT 10SM OVC038 15/10 A3009 RMK AO2     SLP197 T01520098=,
20180127_150000.002,0,RODN,,,,1,20180127140000,-1,-1,-1,-1,0,-1,0,-1,-1,-1,-1,,-1,0,0,1,OVC 35,1,15,1,11,1019,RODN 271456Z AUTO 00000KT 10SM OVC035 15/11 A3010 RMK AO2     SLP201 T01480106 401690103 58002=,
20180127_160000.002,0,RODN,,,,1,20180127150000,-1,-1,-1,-1,50,-1,7,-1,-1,-1,-1,,-1,0,0,2,BKN 37   OVC 46,1,14,1,11,1019,RODN 271556Z AUTO 05007KT 10SM BKN037 OVC046 14/11 A3008 RMK     AO2 SLP194 T01420110=,
20180127_170000.002,0,RODN,,,,1,20180127160000,-1,-1,-1,-1,70,-1,4,-1,-1,-1,-1,,-1,0,0,1,OVC 50,1,14,1,11,1018,RODN 271656Z AUTO 07004KT 10SM OVC050 14/11 A3006 RMK AO2     SLP187 T01400112=,
20180127_180000.002,0,RODN,,,,1,20180127170000,-1,-1,-1,-1,50,-1,5,-1,-1,-1,-1,,-1,0,0,1,OVC 50,1,14,1,11,1017,RODN 271756Z AUTO 05005KT 10SM OVC050 14/11 A3003 RMK AO2     SLP177 T01400113 10152 20135 57024=,
20180127_190000.002,0,RODN,,,,1,20180127180000,-1,-1,-1,-1,70,-1,4,-1,-1,-1,-1,,-1,0,0,0,,1,11,1,10,1017,RODN 271856Z AUTO 07004KT 10SM CLR 11/10 A3002 RMK AO2 SLP174     T01120096=,
20180127_200000.002,0,RODN,,,,1,20180127190000,-1,-1,-1,-1,50,-1,5,-1,-1,-1,-1,,-1,0,0,2,FEW 34   OVC 44,1,13,1,11,1016,RODN 271956Z AUTO 05005KT 10SM FEW034 OVC044 13/11 A3001 RMK     AO2 SLP170 T01280112=,
20180127_210000.002,0,RODN,,,,1,20180127200000,-1,-1,-1,-1,40,-1,4,-1,-1,-1,-1,,-1,0,0,1,OVC 45,1,14,1,12,1017,RODN 272056Z AUTO 04004KT 10SM OVC045 14/12 A3002 RMK AO2     SLP173 T01390118 55005=,
20180127_220000.002,0,RODN,,,,1,20180127210000,-1,-1,-1,-1,120,-1,6,-1,-1,-1,-1,,-1,0,0,1,BKN 75,1,16,1,11,1016,RODN 272156Z AUTO 12006KT 10SM BKN075 16/11 A2999 RMK AO2     SLP163 T01560114=,
20180127_230000.002,0,RODN,,,,1,20180127220000,-1,-1,-1,-1,120,-1,7,-1,-1,-1,-1,,-1,0,0,1,FEW 90,1,17,1,12,1016,RODN 272256Z AUTO 12007KT 10SM FEW090 17/12 A2999 RMK AO2     SLP163 T01660123=,
20180128_000000.005,0,RODN,,,,1,20180127230000,-1,-1,-1,-1,140,-1,12,-1,-1,-1,-1,,-1,0,0,1,BKN 90,1,19,1,13,1015,RODN 272356Z AUTO 14012KT 10SM BKN090 19/13 A2997 RMK AO2     SLP156 T01880134 10189 20108 57017=,
20180128_010000.002,0,RODN,,,,1,20180128000000,-1,-1,-1,-1,150,-1,13,-1,-1,-1,-1,,-1,0,0,1,SCT 100,1,20,1,13,1015,RODN 280056Z AUTO 15013KT 10SM SCT100 20/13 A2998 RMK AO2     SLP159 T02000134=,
20180128_020000.002,0,RODN,,,,1,20180128010000,-1,-1,-1,-1,160,-1,10,-1,-1,-1,-1,,-1,0,0,3,SCT 29   BKN 39   OVC 47,1,20,1,14,1016,RODN 280156Z AUTO 16010KT 10SM SCT029 BKN039 OVC047 20/14 A2999     RMK AO2 SLP163 T02000139=,
20180128_030000.002,0,RODN,,,,1,20180128020000,-1,-1,-1,-1,150,-1,11,-1,-1,-1,-1,,-1,0,0,1,BKN 55,1,20,1,15,1015,RODN 280256Z AUTO 15011KT 10SM BKN055 20/15 A2996 RMK AO2     SLP153 T02040145 58001=,
20180128_040000.002,0,RODN,,,,1,20180128030000,-1,-1,-1,-1,160,-1,15,-1,-1,-1,-1,,-1,0,0,1,BKN 65,1,21,1,15,1013,RODN 280356Z AUTO 16015KT 10SM BKN065 21/15 A2991 RMK AO2     SLP135 T02100151=,
20180128_050000.002,0,RODN,,,,1,20180128040000,-1,-1,-1,-1,150,-1,13,-1,-1,-1,-1,,-1,0,0,1,FEW 26,1,21,1,16,1011,RODN 280456Z AUTO 15013KT 10SM FEW026 21/16 A2987 RMK AO2     SLP122 T02070155=,
20180128_060000.002,0,RODN,,,,1,20180128050000,-1,-1,-1,-1,150,-1,12,-1,18,-1,-1,,-1,0,1,1,FEW 24,1,21,1,15,1011,RODN 280556Z AUTO 15012G18KT 10SM -RA FEW024 21/15 A2986 RMK     AO2 RAB49 SLP118 P0000 60000 T02070150 10215 20189 56036=,- RA
20180128_070000.001,0,RODN,,,,1,20180128060000,-1,-1,-1,-1,160,-1,9,-1,-1,-1,-1,,-1,0,1,1,BKN 32,1,19,1,16,1010,RODN 280656Z AUTO 16009KT 10SM -RA BKN032 19/16 A2984 RMK AO2     RAE0558RAB21E36RAB41E50RAB55 SLP112 P0001 T01910157=,- RA
20180128_080000.002,0,RODN,,,,1,20180128070000,-1,-1,-1,-1,150,-1,9,-1,-1,-1,-1,,-1,0,0,1,SCT 48,1,20,1,16,1010,RODN 280756Z AUTO 15009KT 10SM SCT048 20/16 A2983 RMK AO2     RAE08DZB08E09 SLP109 P0000 T02000156=,
20180128_090000.002,0,RODN,,,,1,20180128080000,-1,-1,-1,-1,160,-1,12,-1,19,-1,-1,,-1,0,0,2,BKN 32   BKN 49,1,20,1,16,1010,RODN 280856Z AUTO 16012G19KT 10SM BKN032 BKN049 20/16 A2983 RMK     AO2 SLP108 60001 T02030155 56010=,
20180128_100000.002,0,RODN,,,,1,20180128090000,-1,-1,-1,-1,180,-1,14,-1,19,-1,-1,,-1,0,0,1,SCT 43,1,21,1,16,1010,RODN 280956Z AUTO 18014G19KT 10SM SCT043 21/16 A2984 RMK AO2     SLP112 T02070159=,
20180128_110000.002,0,RODN,,,,1,20180128100000,-1,-1,-1,-1,190,-1,12,-1,-1,-1,-1,,-1,0,0,1,SCT 23,1,20,1,17,1011,RODN 281056Z AUTO 19012KT 10SM SCT023 20/17 A2986 RMK AO2     SLP118 T02040172=,
20180128_120000.002,0,RODN,,,,1,20180128110000,-1,-1,-1,-1,220,-1,17,-1,24,-1,-1,,-1,0,2,2,FEW 2   FEW 6,1,19,1,18,1012,RODN 281156Z AUTO 22017G24KT 3SM -RA BR FEW002 FEW006 19/18     A2989 RMK AO2 PK WND 20029/31 VIS 2 1/4 RWY05           RAB06E19RAB29E37RAB44 SLP128 P0009 60010 T01930180 10208           20190 52021=,- RA; BR
20180128_130000.002,0,RODN,,,,1,20180128120000,-1,-1,-1,-1,200,-1,15,-1,-1,-1,-1,,-1,0,1,1,OVC 29,1,19,1,18,1012,RODN 281256Z AUTO 20015KT 5SM BR OVC029 19/18 A2989 RMK AO2 PK     WND 21030/25 RAE20RAB27E41 OVC V BKN CIG 001 RWY05 SLP128           P0018 T01920180=,BR
20180128_140000.002,0,RODN,,,,1,20180128130000,-1,-1,-1,-1,10,-1,18,-1,25,-1,-1,,-1,0,1,2,SCT 1   OVC 8,1,17,1,16,1013,RODN 281356Z AUTO 01018G25KT 9SM -RA SCT001 OVC008 17/16 A2991     RMK AO2 PK WND 34029/50 RAB19E31RAB35E48RAB48 SLP135 P0016           T01700155=,- RA
20180128_150000.002,0,RODN,,,,1,20180128140000,-1,-1,-1,-1,10,-1,21,-1,29,-1,-1,,-1,0,1,2,BKN 13   OVC 21,1,16,1,15,1013,RODN 281456Z AUTO 01021G29KT 10SM -RA BKN013 OVC021 16/15 A2991     RMK AO2 PK WND 35032/1359 RAE12RAB14 BKN V OVC CIG 011           RWY23 SLP135 P0003 60037 T01630145 402150108 53008=,- RA
20180128_160000.002,0,RODN,,,,1,20180128150000,-1,-1,-1,-1,20,-1,13,-1,22,-1,-1,,-1,0,1,4,FEW 2   SCT 11   BKN 18   BKN 26,1,16,1,14,1013,RODN 281556Z AUTO 02013G22KT 8SM RA FEW002 SCT011 BKN018 BKN026     16/14 A2991 RMK AO2 PK WND 02028/11 RAE39RAB42 CIG 011V018           SLP135 P0001 T01600144=,RA
20180128_170000.002,0,RODN,,,,1,20180128160000,-1,-1,-1,-1,360,-1,14,-1,22,-1,-1,,-1,0,1,2,FEW 2   OVC 16,1,16,1,14,1013,RODN 281656Z AUTO 36014G22KT 10SM -RA FEW002 OVC016 16/14 A2992     RMK AO2 RAE12RAB17 OVC V BKN SLP139 P0002 T01570139=,- RA
20180128_180000.002,0,RODN,,,,1,20180128170000,-1,-1,-1,-1,10,-1,15,-1,24,-1,-1,,-1,0,1,2,SCT 2   BKN 7,1,15,1,14,1014,RODN 281756Z AUTO 01015G24KT 7SM -RA SCT002 BKN007 15/14 A2994     RMK AO2 PK WND 35029/30 RAE05RAB09E30RAB45 CIG 002V007           SLP146 P0002 60042 T01500137 10192 20150 53006=,- RA
20180128_190000.001,0,RODN,,,,1,20180128180000,-1,-1,-1,-1,360,-1,19,-1,25,-1,-1,,-1,0,0,4,FEW 12   BKN 25   BKN 29   BKN 36,1,15,1,13,1014,RODN 281856Z AUTO 36019G25KT 9SM FEW012 BKN025 BKN029 BKN036     15/13 A2994 RMK AO2 PK WND 35026/32 RAE08RAB22E26RAB34E49           CIG 020 RWY23 SLP146 P0001 T01480128=,
20180128_200000.002,0,RODN,,,,1,20180128190000,-1,-1,-1,-1,360,-1,17,-1,23,-1,-1,,-1,0,0,3,FEW 15   BKN 26   OVC 32,1,15,1,13,1014,RODN 281956Z AUTO 36017G23KT 10SM FEW015 BKN026 OVC032 15/13     A2993 RMK AO2 BKN V OVC CIG 017 RWY23 SLP142 T01500125=,
20180128_210000.002,0,RODN,,,,1,20180128200000,-1,-1,-1,-1,10,-1,18,-1,24,-1,-1,,-1,0,1,5,FEW 2   SCT 14   BKN 23   BKN 28   OVC 33,1,15,1,12,1015,RODN 282056Z AUTO 01018G24KT 10SM -RA FEW002 SCT014 BKN023     BKN028 OVC033 15/12 A2996 RMK AO2 PK WND 35028/07           RAB21E30RAB54 CIG 012 RWY23 SLP152 P0000 60001 T01450124           53009=,- RA
20180128_220000.003,0,RODN,,,,1,20180128210000,-1,-1,-1,-1,360,-1,14,-1,20,-1,-1,,-1,0,1,2,SCT 24   OVC 32,1,15,1,12,1016,RODN 282156Z AUTO 36014G20KT 10SM -RA SCT024 OVC032 15/12 A2999     RMK AO2 PK WND 35026/07 RAE03DZB26E27RAB27 SLP163 P0000           T01470117=,- RA
20180128_230000.002,0,RODN,,,,1,20180128220000,-1,-1,-1,-1,10,-1,11,-1,-1,-1,-1,,-1,0,0,2,BKN 26   OVC 32,1,15,1,11,1017,RODN 282256Z AUTO 01011KT 10SM BKN026 OVC032 15/11 A3002 RMK     AO2 RAE15 SLP173 P0000 T01520114=,
20180129_000000.001,0,RODN,,,,1,20180128230000,-1,-1,-1,-1,10,-1,16,-1,-1,-1,-1,,-1,0,0,1,OVC 26,1,15,1,11,1016,RODN 282356Z AUTO 01016KT 10SM OVC026 15/11 A3001 RMK AO2     RAB08E16 OVC V BKN SLP169 P0000 60001 70053 T01530109           10153 20144 50016=,
20180129_010000.002,0,RODN,,,,1,20180129000000,-1,-1,-1,-1,10,-1,12,-1,21,-1,-1,,-1,0,0,1,OVC 25,1,15,1,11,1017,RODN 290056Z AUTO 01012G21KT 10SM OVC025 15/11 A3004 RMK AO2     RAB43E53 SLP180 P0000 T01500108=,
20180129_020000.002,0,RODN,,,,1,20180129010000,-1,-1,-1,-1,10,-1,14,-1,20,-1,-1,,-1,0,1,2,FEW 22   OVC 31,1,15,1,11,1019,RODN 290156Z AUTO 01014G20KT 9SM -RA FEW022 OVC031 15/11 A3008     RMK AO2 RAB03E14RAB53 SLP194 P0000 T01450113=,- RA
20180129_030000.002,0,RODN,,,,1,20180129020000,-1,-1,-1,-1,360,-1,16,-1,22,-1,-1,,-1,0,1,3,FEW 17   SCT 26   OVC 33,1,14,1,11,1018,RODN 290256Z AUTO 36016G22KT 7SM -RA FEW017 SCT026 OVC033 14/11     A3007 RMK AO2 RAE23RAB30 SLP190 P0001 60001 T01380113           50018=,- RA
20180129_040000.002,0,RODN,,,,1,20180129030000,-1,-1,-1,-1,20,-1,10,-1,-1,-1,-1,,-1,0,1,2,SCT 20   OVC 36,1,14,1,11,1017,RODN 290356Z AUTO 02010KT 8SM -RA SCT020 OVC036 14/11 A3004 RMK     AO2 RAE19RAB24E27RAB33E34RAB35E43RAB54 SLP180 P0001           T01380110=,- RA
20180129_050000.002,0,RODN,,,,1,20180129040000,-1,-1,-1,-1,40,-1,10,-1,-1,-1,-1,,-1,0,0,2,FEW 21   OVC 32,1,14,1,11,1016,RODN 290456Z AUTO 04010KT 10SM FEW021 OVC032 14/11 A3001 RMK     AO2 RAE04RAB23E32 SLP170 P0000 T01420106=,
20180129_060000.002,0,RODN,,,,1,20180129050000,-1,-1,-1,-1,10,-1,12,-1,-1,-1,-1,,-1,0,1,2,FEW 22   OVC 31,1,14,1,11,1017,RODN 290556Z AUTO 01012KT 6SM -RA FEW022 OVC031 14/11 A3002 RMK     AO2 RAB17E29RAB33E49RAB55 SLP173 P0000 60002 T01350105           10155 20135 55016=,- RA
20180129_070000.002,0,RODN,,,,1,20180129060000,-1,-1,-1,-1,10,-1,12,-1,-1,-1,-1,,-1,0,0,3,SCT 22   BKN 29   OVC 36,1,13,1,10,1017,RODN 290656Z AUTO 01012KT 7SM SCT022 BKN029 OVC036 13/10 A3003     RMK AO2 RAE39 CIG 029V034 BKN V SCT CIG 027 RWY23 SLP177           P0002 T01340102=,
20180129_080000.002,0,RODN,,,,1,20180129070000,-1,-1,-1,-1,10,-1,13,-1,-1,-1,-1,,-1,0,1,1,OVC 31,1,14,1,10,1018,RODN 290756Z AUTO 01013KT 7SM -RA OVC031 14/10 A3005 RMK AO2     DZB54E55RAB55 SLP184 P0000 T01350095=,- RA
20180129_090000.002,0,RODN,,,,1,20180129080000,-1,-1,-1,-1,10,-1,12,-1,-1,-1,-1,,-1,0,1,2,FEW 26   OVC 35,1,14,1,9,1018,RODN 290856Z AUTO 01012KT 8SM -DZ FEW026 OVC035 14/09 A3007 RMK     AO2 RAE07RAB46E51DZB53 SLP191 P0000 60002 T01350092 52017=,- DZ
20180129_100000.002,0,RODN,,,,1,20180129090000,-1,-1,-1,-1,20,-1,9,-1,18,-1,-1,,-1,0,0,3,FEW 26   BKN 32   OVC 40,1,14,1,9,1019,RODN 290956Z AUTO 02009G18KT 9SM FEW026 BKN032 OVC040 14/09     A3008 RMK AO2 DZE03 SLP194 P0000 T01360092=,
20180129_110000.002,0,RODN,,,,1,20180129100000,-1,-1,-1,-1,10,-1,12,-1,-1,-1,-1,,-1,0,0,1,OVC 34,1,14,1,9,1019,RODN 291056Z AUTO 01012KT 10SM OVC034 14/09 A3010 RMK AO2     RAB01E11 SLP201 P0000 T01390085=,
20180129_120000.002,0,RODN,,,,1,20180129110000,-1,-1,-1,-1,10,-1,13,-1,16,-1,-1,,-1,0,1,1,OVC 38,1,13,1,9,1020,RODN 291156Z AUTO 01013G16KT 10SM -RA OVC038 13/09 A3011 RMK     AO2 RAB1057E06RAB19E26RAB27E46RAB52 SLP204 P0000 60002           T01340091 10139 20131 52015=,- RA
20180129_130000.002,0,RODN,,,,1,20180129120000,-1,-1,-1,-1,10,-1,11,-1,-1,-1,-1,,-1,0,0,2,SCT 34   OVC 43,1,14,1,9,1020,RODN 291256Z AUTO 01011KT 10SM SCT034 OVC043 14/09 A3011 RMK     AO2 RAE01DZB10E13RAB13E23 SLP204 P0000 T01350085=,
20180129_140000.002,0,RODN,,,,1,20180129130000,-1,-1,-1,-1,10,-1,12,-1,-1,-1,-1,,-1,0,0,2,BKN 32   OVC 47,1,14,1,8,1020,RODN 291356Z AUTO 01012KT 10SM BKN032 OVC047 14/08 A3012 RMK     AO2 SLP208 T01390077=,
20180129_150000.002,0,RODN,,,,1,20180129140000,-1,-1,-1,-1,20,-1,9,-1,-1,-1,-1,,-1,0,0,1,OVC 40,1,14,1,7,1020,RODN 291456Z AUTO 02009KT 10SM OVC040 14/07 A3012 RMK AO2     SLP208 60000 T01390067 401630131 53005=,
20180129_160000.002,0,RODN,,,,1,20180129150000,-1,-1,-1,-1,20,-1,11,-1,-1,-1,-1,,-1,0,0,2,BKN 38   OVC 47,1,14,1,7,1020,RODN 291556Z AUTO 02011KT 10SM BKN038 OVC047 14/07 A3013 RMK     AO2 SLP211 T01390072=,
20180129_170000.002,0,RODN,,,,1,20180129160000,-1,-1,-1,-1,30,-1,12,-1,-1,-1,-1,,-1,0,1,1,OVC 38,1,13,1,8,1020,RODN 291656Z AUTO 03012KT 10SM -RA OVC038 13/08 A3012 RMK AO2     RAB51 SLP208 P0000 T01330081=,- RA
20180129_180000.002,0,RODN,,,,1,20180129170000,-1,-1,-1,-1,20,-1,8,-1,-1,-1,-1,,-1,0,0,1,OVC 37,1,13,1,8,1020,RODN 291756Z AUTO 02008KT 10SM OVC037 13/08 A3013 RMK AO2 RAE08     SLP211 P0000 60000 T01320076 10140 20128 50002=,
20180129_190000.002,0,RODN,,,,1,20180129180000,-1,-1,-1,-1,30,-1,11,-1,-1,-1,-1,,-1,0,0,1,OVC 35,1,13,1,7,1020,RODN 291856Z AUTO 03011KT 10SM OVC035 13/07 A3012 RMK AO2     SLP208 T01340072=,
20180129_200000.002,0,RODN,,,,1,20180129190000,-1,-1,-1,-1,30,-1,9,-1,-1,-1,-1,,-1,0,0,1,OVC 37,1,13,1,7,1020,RODN 291956Z AUTO 03009KT 10SM OVC037 13/07 A3013 RMK AO2     SLP211 T01340067=,
20180129_210000.002,0,RODN,,,,1,20180129200000,-1,-1,-1,-1,40,-1,9,-1,-1,-1,-1,,-1,0,0,2,BKN 38   OVC 50,1,13,1,7,1021,RODN 292056Z AUTO 04009KT 10SM BKN038 OVC050 13/07 A3014 RMK     AO2 SLP214 T01340070 53003=,
20180129_220000.002,0,RODN,,,,1,20180129210000,-1,-1,-1,-1,40,-1,10,-1,-1,-1,-1,,-1,0,0,2,BKN 39   OVC 46,1,13,1,7,1021,RODN 292156Z AUTO 04010KT 10SM BKN039 OVC046 13/07 A3016 RMK     AO2 SLP221 T01340065=,
20180129_230000.002,0,RODN,,,,1,20180129220000,-1,-1,-1,-1,50,-1,9,-1,-1,-1,-1,,-1,0,0,3,SCT 40   BKN 48   OVC 55,1,14,1,7,1022,RODN 292256Z AUTO 05009KT 10SM SCT040 BKN048 OVC055 14/07 A3019     RMK AO2 SLP231 T01350066=,
20180130_000000.005,0,RODN,,,,1,20180129230000,-1,-1,-1,-1,30,-1,7,-1,-1,-1,-1,,-1,0,0,2,BKN 43   OVC 50,1,14,1,7,1023,RODN 292356Z AUTO 03007KT 10SM BKN043 OVC050 14/07 A3020 RMK     AO2 SLP235 70004 T01390072 10139 20132 52021=,
20180130_010000.002,0,RODN,,,,1,20180130000000,-1,-1,-1,-1,30,-1,9,-1,-1,-1,-1,,-1,0,0,1,OVC 47,1,14,1,7,1023,RODN 300056Z AUTO 03009KT 10SM OVC047 14/07 A3021 RMK AO2     SLP238 T01420065=,
20180130_020000.002,0,RODN,,,,1,20180130010000,-1,-1,-1,-1,30,-1,11,-1,-1,-1,-1,,-1,0,0,2,FEW 40   OVC 49,1,15,1,7,1023,RODN 300156Z AUTO 03011KT 10SM FEW040 OVC049 15/07 A3021 RMK     AO2 SLP238 T01470065=,
20180130_030000.002,0,RODN,,,,1,20180130020000,-1,-1,-1,-1,40,-1,13,-1,20,-1,-1,,-1,0,0,2,FEW 110   FEW 140,1,17,1,7,1021,RODN 300256Z AUTO 04013G20KT 10SM FEW110 FEW140 17/07 A3015 RMK     AO2 PRESFR SLP217 T01670065 58017=,
20180130_040000.002,0,RODN,,,,1,20180130030000,-1,-1,-1,-1,30,-1,12,-1,-1,-1,-1,,-1,0,0,0,,1,17,1,6,1019,RODN 300356Z AUTO 03012KT 10SM CLR 17/06 A3009 RMK AO2 PRESFR     SLP197 T01720061=,
20180130_050000.002,0,RODN,,,,1,20180130040000,-1,-1,-1,-1,10,-1,11,-1,15,-1,-1,,-1,0,0,1,BKN 46,1,17,1,6,1020,RODN 300456Z AUTO 01011G15KT 10SM BKN046 17/06 A3012 RMK AO2     SLP207 T01680063=,
20180130_060000.003,0,RODN,,,,1,20180130050000,-1,-1,-1,-1,10,-1,11,-1,17,-1,-1,,-1,0,0,1,OVC 55,1,17,1,7,1020,RODN 300556Z AUTO 01011G17KT 10SM OVC055 17/07 A3013 RMK AO2     SLP211 T01700065 10181 20140 55008=,
20180130_070000.002,0,RODN,,,,1,20180130060000,-1,-1,-1,-1,20,-1,14,-1,18,-1,-1,,-1,0,0,1,OVC 60,1,16,1,6,1020,RODN 300656Z AUTO 02014G18KT 10SM OVC060 16/06 A3013 RMK AO2     SLP211 T01570064=,
20180130_080000.002,0,RODN,,,,1,20180130070000,-1,-1,-1,-1,40,-1,12,-1,-1,-1,-1,,-1,0,0,1,OVC 42,1,15,1,7,1021,RODN 300756Z AUTO 04012KT 10SM OVC042 15/07 A3015 RMK AO2     SLP218 T01470068=,
20180130_090000.002,0,RODN,,,,1,20180130080000,-1,-1,-1,-1,40,-1,10,-1,-1,-1,-1,,-1,0,0,1,OVC 60,1,14,1,6,1021,RODN 300856Z AUTO 04010KT 10SM OVC060 14/06 A3014 RMK AO2     SLP214 T01410064 50005=,
20180130_100000.002,0,RODN,,,,1,20180130090000,-1,-1,-1,-1,30,-1,8,-1,-1,-1,-1,,-1,0,0,1,OVC 48,1,14,1,7,1021,RODN 300956Z AUTO 03008KT 10SM OVC048 14/07 A3016 RMK AO2     SLP221 T01420068=,
20180130_110000.002,0,RODN,,,,1,20180130100000,-1,-1,-1,-1,40,-1,10,-1,-1,-1,-1,,-1,0,0,1,OVC 50,1,14,1,7,1022,RODN 301056Z AUTO 04010KT 10SM OVC050 14/07 A3019 RMK AO2     SLP231 T01420065=,
20180130_120000.002,0,RODN,,,,1,20180130110000,-1,-1,-1,-1,30,-1,10,-1,-1,-1,-1,,-1,0,0,1,OVC 50,1,14,1,7,1022,RODN 301156Z AUTO 03010KT 10SM OVC050 14/07 A3019 RMK AO2     SLP231 T01430066 10172 20137 50015=,
20180130_130000.002,0,RODN,,,,1,20180130120000,-1,-1,-1,-1,70,-1,9,-1,-1,-1,-1,,-1,0,0,2,FEW 60   OVC 100,1,14,1,7,1022,RODN 301256Z AUTO 07009KT 10SM FEW060 OVC100 14/07 A3018 RMK     AO2 SLP228 T01390067=,
20180130_140000.002,0,RODN,,,,1,20180130130000,-1,-1,-1,-1,50,-1,7,-1,-1,-1,-1,,-1,0,0,2,SCT 70   OVC 100,1,13,1,8,1022,RODN 301356Z AUTO 05007KT 10SM SCT070 OVC100 13/08 A3019 RMK     AO2 SLP231 T01290076=,
20180130_150000.002,0,RODN,,,,1,20180130140000,-1,-1,-1,-1,40,-1,7,-1,-1,-1,-1,,-1,0,0,2,SCT 70   OVC 100,1,13,1,7,1023,RODN 301456Z AUTO 04007KT 10SM SCT070 OVC100 13/07 A3020 RMK     AO2 SLP234 T01300074 401810127 53004=,
20180130_160000.002,0,RODN,,,,1,20180130150000,-1,-1,-1,-1,40,-1,8,-1,-1,-1,-1,,-1,0,0,0,,1,10,1,7,1022,RODN 301556Z AUTO 04008KT 10SM CLR 10/07 A3018 RMK AO2 SLP228     T00950066=,
20180130_170000.002,0,RODN,,,,1,20180130160000,-1,-1,-1,-1,30,-1,5,-1,-1,-1,-1,,-1,0,0,1,BKN 55,1,12,1,7,1022,RODN 301656Z AUTO 03005KT 10SM BKN055 12/07 A3019 RMK AO2     SLP231 T01220073=,
20180130_180000.002,0,RODN,,,,1,20180130170000,-1,-1,-1,-1,60,-1,8,-1,-1,-1,-1,,-1,0,0,2,FEW 55   SCT 160,1,10,1,7,1021,RODN 301756Z AUTO 06008KT 10SM FEW055 SCT160 10/07 A3016 RMK     AO2 SLP221 T01020069 10143 20092 55014=,
20180130_190000.002,0,RODN,,,,1,20180130180000,-1,-1,-1,-1,50,-1,7,-1,-1,-1,-1,,-1,0,0,1,OVC 170,1,11,1,8,1021,RODN 301856Z AUTO 05007KT 10SM OVC170 11/08 A3016 RMK AO2     SLP221 T01120077=,
20180130_200000.002,0,RODN,,,,1,20180130190000,-1,-1,-1,-1,60,-1,8,-1,-1,-1,-1,,-1,0,0,1,OVC 180,1,12,1,8,1021,RODN 301956Z AUTO 06008KT 10SM OVC180 12/08 A3015 RMK AO2     SLP218 T01150078=,
20180130_210000.002,0,RODN,,,,1,20180130200000,-1,-1,-1,-1,40,-1,8,-1,-1,-1,-1,,-1,0,0,2,BKN 120   BKN 180,1,12,1,8,1021,RODN 302056Z AUTO 04008KT 10SM BKN120 BKN180 12/08 A3015 RMK     AO2 SLP218 T01210078 58003=,
20180130_220000.002,0,RODN,,,,1,20180130210000,-1,-1,-1,-1,50,-1,9,-1,-1,-1,-1,,-1,0,0,1,OVC 95,1,13,1,9,1021,RODN 302156Z AUTO 05009KT 10SM OVC095 13/09 A3016 RMK AO2     SLP221 T01300085=,
20180130_230000.002,0,RODN,,,,1,20180130220000,-1,-1,-1,-1,40,-1,7,-1,-1,-1,-1,,-1,0,0,1,OVC 90,1,14,1,9,1022,RODN 302256Z AUTO 04007KT 10SM OVC090 14/09 A3018 RMK AO2     SLP228 T01360094=,
20180131_000000.004,0,RODN,,,,1,20180130230000,-1,-1,-1,-1,40,-1,6,-1,-1,-1,-1,,-1,0,0,1,OVC 65,1,14,1,11,1023,RODN 302356Z AUTO 04006KT 10SM OVC065 14/11 A3020 RMK AO2     SLP235 T01420108 10143 20101 52018=,
20180131_010000.002,0,RODN,,,,1,20180131000000,-1,-1,-1,-1,40,-1,12,-1,-1,-1,-1,,-1,0,0,1,OVC 75,1,16,1,11,1022,RODN 310056Z AUTO 04012KT 10SM OVC075 16/11 A3019 RMK AO2     SLP231 T01610108=,
20180131_020000.002,0,RODN,,,,1,20180131010000,-1,-1,-1,-1,50,-1,12,-1,-1,-1,-1,,-1,0,0,1,OVC 70,1,17,1,12,1022,RODN 310156Z AUTO 05012KT 10SM OVC070 17/12 A3017 RMK AO2     SLP224 T01690116=,
20180131_030000.002,0,RODN,,,,1,20180131020000,-1,-1,-1,-1,60,-1,13,-1,-1,-1,-1,,-1,0,0,3,FEW 55   BKN 90   BKN 200,1,19,1,13,1020,RODN 310256Z AUTO 06013KT 10SM FEW055 BKN090 BKN200 19/13 A3012     RMK AO2 SLP207 T01860130 57026=,
20180131_040000.002,0,RODN,,,,1,20180131030000,-1,-1,-1,-1,80,-1,13,-1,-1,-1,-1,,-1,0,0,2,SCT 24   BKN 80,1,19,1,13,1019,RODN 310356Z AUTO 08013KT 10SM SCT024 BKN080 19/13 A3009 RMK     AO2 SLP197 T01890126=,
20180131_050000.002,0,RODN,,,,1,20180131040000,-1,-1,-1,-1,80,-1,14,-1,-1,-1,-1,,-1,0,0,3,FEW 25   SCT 47   BKN 80,1,19,1,13,1018,RODN 310456Z AUTO 08014KT 10SM FEW025 SCT047 BKN080 19/13 A3007     RMK AO2 SLP190 T01890129=,
20180131_060000.002,0,RODN,,,,1,20180131050000,-1,-1,-1,-1,70,-1,12,-1,-1,-1,-1,,-1,0,0,2,FEW 75   BKN 90,1,20,1,14,1017,RODN 310556Z AUTO 07012KT 10SM FEW075 BKN090 20/14 A3004 RMK     AO2 SLP180 T01960135 10197 20143 57030=,
20180131_070000.003,0,RODN,,,,1,20180131060000,-1,-1,-1,-1,80,-1,11,-1,-1,-1,-1,,-1,0,0,3,FEW 40   SCT 48   BKN 75,1,18,1,13,1017,RODN 310656Z AUTO 08011KT 10SM FEW040 SCT048 BKN075 18/13 A3003     RMK AO2 SLP177 T01830129=,
20180131_080000.003,0,RODN,,,,1,20180131070000,-1,-1,-1,-1,70,-1,11,-1,-1,-1,-1,,-1,0,0,1,BKN 60,1,18,1,14,1017,RODN 310756Z AUTO 07011KT 10SM BKN060 18/14 A3002 RMK AO2     SLP173 T01830142=,
20180131_090000.002,0,RODN,,,,1,20180131080000,-1,-1,-1,-1,80,-1,9,-1,-1,-1,-1,,-1,0,0,1,OVC 60,1,18,1,14,1016,RODN 310856Z AUTO 08009KT 10SM OVC060 18/14 A3000 RMK AO2     SLP167 T01810140 57012=,
20180131_100000.002,0,RODN,,,,1,20180131090000,-1,-1,-1,-1,90,-1,9,-1,-1,-1,-1,,-1,0,0,2,FEW 28   BKN 39,1,18,1,15,1015,RODN 310956Z AUTO 09009KT 10SM FEW028 BKN039 18/15 A2998 RMK     AO2 SLP160 T01820149=,
20180131_110000.002,0,RODN,,,,1,20180131100000,-1,-1,-1,-1,120,-1,7,-1,-1,-1,-1,,-1,0,0,2,BKN 30   OVC 40,1,19,1,14,1016,RODN 311056Z AUTO 12007KT 10SM BKN030 OVC040 19/14 A2999 RMK     AO2 DZB24E25RAB25E36 SLP163 P0000 T01880143=,
20180131_120000.002,0,RODN,,,,1,20180131110000,-1,-1,-1,-1,140,-1,11,-1,-1,-1,-1,,-1,0,0,2,BKN 44   OVC 65,1,20,1,14,1016,RODN 311156Z AUTO 14011KT 10SM BKN044 OVC065 20/14 A2999 RMK     AO2 SLP163 60000 T01990140 10199 20178 55004=,
20180131_130000.001,0,RODN,,,,1,20180131120000,-1,-1,-1,-1,130,-1,12,-1,-1,-1,-1,,-1,0,0,2,FEW 31   OVC 50,1,20,1,14,1015,RODN 311256Z AUTO 13012KT 10SM FEW031 OVC050 20/14 A2998 RMK     AO2 SLP159 T02020141=,
20180131_140000.002,0,RODN,,,,1,20180131130000,-1,-1,-1,-1,140,-1,12,-1,18,-1,-1,,-1,0,0,2,FEW 27   OVC 40,1,20,1,14,1015,RODN 311356Z AUTO 14012G18KT 10SM FEW027 OVC040 20/14 A2997 RMK     AO2 SLP156 T02040143=,
20180131_150000.002,0,RODN,,,,1,20180131140000,-1,-1,-1,-1,140,-1,11,-1,17,-1,-1,,-1,0,1,2,BKN 1   OVC 40,1,19,1,16,1015,RODN 311456Z AUTO 14011G17KT 3SM HZ BKN001 OVC040 19/16 A2997     RMK AO2 DZB12E24RAB24E53 CIG 001V040 SLP156 P0005 60005           T01860158 402040092 57008=,HZ
20180131_160000.002,0,RODN,,,,1,20180131150000,-1,-1,-1,-1,130,-1,8,-1,-1,-1,-1,,-1,0,1,2,FEW 2   OVC 44,1,19,1,16,1014,RODN 311556Z AUTO 13008KT 8SM -RA FEW002 OVC044 19/16 A2994 RMK     AO2 RAB02E04RAB08E27RAB29 SLP145 P0009 T01880160=,- RA
20180131_170000.002,0,RODN,,,,1,20180131160000,-1,-1,-1,-1,140,-1,4,-1,-1,-1,-1,,-1,0,2,3,SCT 2   SCT 20   OVC 35,1,19,1,17,1014,RODN 311656Z AUTO 14004KT 6SM -RA BR SCT002 SCT020 OVC035 19/17     A2993 RMK AO2 SLP142 P0005 T01860166=,- RA; BR
20180131_180000.002,0,RODN,,,,1,20180131170000,-1,-1,-1,-1,270,-1,7,-1,-1,-1,-1,,-1,0,2,2,BKN 1   OVC 17,1,18,1,17,1013,RODN 311756Z AUTO 27007KT 2 1/2SM RA BR BKN001 OVC017 18/17     A2992 RMK AO2 PK WND 26026/18 VIS 2V2 1/2 SLP139 P0058           60077 T01830171 10204 20181 56014=,RA; BR
20180131_190000.001,0,RODN,,,,1,20180131180000,-1,-1,-1,-1,360,-1,15,-1,20,-1,-1,,-1,0,2,0,,1,18,1,17,1013,RODN 311856Z AUTO 36015G20KT 2 1/2SM +RA BR CLR 18/17 A2990 RMK     AO2 VIS 1 1/8V2 1/2 SLP132 P0062 T01760166=,+ RA; BR
20180131_200000.001,0,RODN,,,,1,20180131190000,-1,-1,-1,-1,360,-1,15,-1,20,-1,-1,,-1,0,1,3,BKN 7   BKN 12   OVC 24,1,16,1,15,1013,RODN 311956Z AUTO 36015G20KT 10SM -RA BKN007 BKN012 OVC024     16/15 A2991 RMK AO2 RAE44RAB49 SLP136 P0023 T01630150=,- RA
20180131_210000.002,0,RODN,,,,1,20180131200000,-1,-1,-1,-1,360,-1,13,-1,18,-1,-1,,-1,0,1,1,OVC 5,1,16,1,15,1014,RODN 312056Z AUTO 36013G18KT 8SM -RA OVC005 16/15 A2993 RMK AO2     RAE23RAB24 SLP142 P0005 60090 T01610150 53002=,- RA
20180131_220000.002,0,RODN,,,,1,20180131210000,-1,-1,-1,-1,360,-1,19,-1,26,-1,-1,,-1,0,0,5,FEW 2   SCT 9   SCT 13   BKN 26   BKN 31,1,16,1,14,1015,RODN 312156Z AUTO 36019G26KT 9SM FEW002 SCT009 SCT013 BKN026     BKN031 OVC046 16/14 A2996 RMK AO2 PK WND 35028/2057 RAE10           CIG 012 RWY23 SLP153 P0001 T01620144=,
20180131_230000.002,0,RODN,,,,1,20180131220000,-1,-1,-1,-1,10,-1,19,-1,31,-1,-1,,-1,0,0,3,BKN 17   BKN 25   OVC 130,1,16,1,13,1016,RODN 312256Z AUTO 01019G31KT 10SM BKN017 BKN025 OVC130 16/13     A2999 RMK AO2 PK WND 02031/45 CIG 016 RWY23 SLP163 P0000           T01590130=,
20180201_000000.005,0,RODN,,,,1,20180131230000,-1,-1,-1,-1,10,-1,19,-1,25,-1,-1,,-1,0,0,2,BKN 21   OVC 28,1,17,1,13,1016,RODN 312356Z AUTO 01019G25KT 10SM BKN021 OVC028 17/13 A3000 RMK     AO2 PK WND 01026/40 SLP166 60091 70168 T01650126 10183           20156=,
20180201_010000.002,0,RODN,,,,1,20180201000000,-1,-1,-1,-1,10,-1,18,-1,25,-1,-1,,-1,0,0,1,OVC 22,1,16,1,12,1017,RODN 010056Z AUTO 01018G25KT 10SM OVC022 16/12 A3003 RMK AO2 PK     WND 01031/17 SLP176 T01620120=,
20180201_020000.002,0,RODN,,,,1,20180201010000,-1,-1,-1,-1,20,-1,18,-1,23,-1,-1,,-1,0,0,2,BKN 20   OVC 28,1,17,1,12,1017,RODN 010156Z AUTO 02018G23KT 10SM BKN020 OVC028 17/12 A3003 RMK     AO2 PK WND 03027/27 SLP176 T01730124=,
20180201_030000.003,0,RODN,,,,1,20180201020000,-1,-1,-1,-1,10,-1,16,-1,22,-1,-1,,-1,0,0,1,OVC 26,1,17,1,12,1017,RODN 010256Z AUTO 01016G22KT 10SM OVC026 17/12 A3004 RMK AO2 PK     WND 35027/0159 OVC V BKN CIG 025 RWY23 SLP179 T01740119           50012=,
20180201_040000.003,0,RODN,,,,1,20180201030000,-1,-1,-1,-1,10,-1,17,-1,23,-1,-1,,-1,0,0,3,FEW 18   BKN 27   OVC 33,1,16,1,13,1017,RODN 010356Z AUTO 01017G23KT 10SM FEW018 BKN027 OVC033 16/13     A3003 RMK AO2 RAB30E40DZB40E42RAB44E55 CIG 022 RWY23           SLP176 P0000 T01610130=,
20180201_050000.002,0,RODN,,,,1,20180201040000,-1,-1,-1,-1,360,-1,14,-1,19,-1,-1,,-1,0,0,2,SCT 25   OVC 34,1,16,1,13,1017,RODN 010456Z AUTO 36014G19KT 10SM SCT025 OVC034 16/13 A3003 RMK     AO2 RAB00E14RAB23E33 SLP176 P0000 T01630126=,
20180201_060000.002,0,RODN,,,,1,20180201050000,-1,-1,-1,-1,350,-1,15,-1,23,-1,-1,,-1,0,1,5,FEW 15   FEW 20   FEW 27   BKN 37   OVC 49,1,16,1,13,1017,RODN 010556Z AUTO 35015G23KT 8SM -RA FEW015 FEW020 FEW027     BKN037 OVC049 16/13 A3004 RMK AO2 PK WND 34028/28 RAB46           SLP180 P0000 60000 T01600131 10184 20160=,- RA
20180201_070000.002,0,RODN,,,,1,20180201060000,-1,-1,-1,-1,10,-1,15,-1,19,-1,-1,,-1,0,0,3,SCT 20   BKN 37   BKN 65,1,17,1,13,1017,RODN 010656Z AUTO 01015G19KT 10SM SCT020 BKN037 BKN065 17/13     A3004 RMK AO2 RAE0556RAB0559E10 SLP180 P0000 T01740127=,
20180201_080000.002,0,RODN,,,,1,20180201070000,-1,-1,-1,-1,20,-1,11,-1,24,-1,-1,,-1,0,1,4,FEW 2   FEW 26   BKN 43   OVC 55,1,16,1,13,1018,RODN 010756Z AUTO 02011G24KT 9SM -RA FEW002 FEW026 BKN043     OVC055 16/13 A3006 RMK AO2 RAB03E08RAB38 SLP187 P0000           T01560131=,- RA
20180201_090000.002,0,RODN,,,,1,20180201080000,-1,-1,-1,-1,30,-1,9,-1,-1,-1,-1,,-1,0,1,4,FEW 16   BKN 21   BKN 29   OVC 36,1,15,1,13,1019,RODN 010856Z AUTO 03009KT 9SM -RA FEW016 BKN021 BKN029 OVC036     15/13 A3008 RMK AO2 RAE0758RAB14E36RAB51 CIG 021V032           BKN021 V SCT SLP194 P0002 60002 T01500130 53013=,- RA
20180201_100000.002,0,RODN,,,,1,20180201090000,-1,-1,-1,-1,50,-1,7,-1,-1,-1,-1,,-1,0,0,4,FEW 20   SCT 26   SCT 34   OVC 60,1,15,1,13,1019,RODN 010956Z AUTO 05007KT 10SM FEW020 SCT026 SCT034 OVC060     15/13 A3009 RMK AO2 RAE07DZB07E08 SLPNO P0000 T01500127=,
20180201_110000.002,0,RODN,,,,1,20180201100000,-1,-1,-1,-1,30,-1,10,-1,-1,-1,-1,,-1,0,0,4,FEW 1   SCT 26   BKN 40   OVC 60,1,15,1,12,1020,RODN 011056Z AUTO 03010KT 10SM FEW001 SCT026 BKN040 OVC060     15/12 A3011 RMK AO2 RAB26E41 SLP204 P0001 T01520118=,
20180201_120000.002,0,RODN,,,,1,20180201110000,-1,-1,-1,-1,40,-1,10,-1,-1,-1,-1,,-1,0,0,0,,1,14,1,11,1020,RODN 011156Z AUTO 04010KT 10SM CLR 14/11 A3011 RMK AO2 SLP204     60003 T01400112 10177 20140 50010=,
20180201_130000.002,0,RODN,,,,1,20180201120000,-1,-1,-1,-1,30,-1,9,-1,-1,-1,-1,,-1,0,0,1,OVC 60,1,15,1,11,1020,RODN 011256Z AUTO 03009KT 10SM OVC060 15/11 A3012 RMK AO2     SLP207 T01470113=,
20180201_140000.004,0,RODN,,,,1,20180201130000,-1,-1,-1,-1,40,-1,7,-1,-1,-1,-1,,-1,0,0,1,BKN 65,1,14,1,11,1020,RODN 011356Z AUTO 04007KT 10SM BKN065 14/11 A3012 RMK AO2 SLPNO     T01380110=,
20180201_150000.002,0,RODN,,,,1,20180201140000,-1,-1,-1,-1,50,-1,6,-1,-1,-1,-1,,-1,0,0,2,FEW 45   SCT 60,1,12,1,10,1020,RODN 011456Z AUTO 05006KT 10SM FEW045 SCT060 12/10 A3012 RMK     AO2 SLPNO T01240101 401900124 50002=,
20180201_160000.002,0,RODN,,,,1,20180201150000,-1,-1,-1,-1,50,-1,8,-1,-1,-1,-1,,-1,0,0,2,FEW 43   OVC 70,1,14,1,11,1021,RODN 011556Z AUTO 05008KT 10SM FEW043 OVC070 14/11 A3014 RMK     AO2 SLPNO T01370105=,
20180201_170000.002,0,RODN,,,,1,20180201160000,-1,-1,-1,-1,50,-1,8,-1,-1,-1,-1,,-1,0,0,1,BKN 70,1,14,1,11,1020,RODN 011656Z AUTO 05008KT 10SM BKN070 14/11 A3013 RMK AO2 SLPNO     T01350105=,
20180201_180000.002,0,RODN,,,,1,20180201170000,-1,-1,-1,-1,50,-1,7,-1,-1,-1,-1,,-1,0,0,1,OVC 70,1,14,1,10,1020,RODN 011756Z AUTO 05007KT 10SM OVC070 14/10 A3013 RMK AO2     SLP211 T01400102 10150 20119 50003=,
20180201_190000.001,0,RODN,,,,1,20180201180000,-1,-1,-1,-1,40,-1,8,-1,-1,-1,-1,,-1,0,0,1,OVC 60,1,14,1,10,1020,RODN 011856Z AUTO 04008KT 10SM OVC060 14/10 A3013 RMK AO2     SLP210 T01430103=,
20180201_200000.001,0,RODN,,,,1,20180201190000,-1,-1,-1,-1,30,-1,11,-1,-1,-1,-1,,-1,0,0,2,FEW 42   OVC 70,1,14,1,10,1021,RODN 011956Z AUTO 03011KT 10SM FEW042 OVC070 14/10 A3014 RMK     AO2 SLP214 T01440098=,
20180201_210000.002,0,RODN,,,,1,20180201200000,-1,-1,-1,-1,30,-1,10,-1,-1,-1,-1,,-1,0,0,1,FEW 65,1,14,1,9,1021,RODN 012056Z AUTO 03010KT 10SM FEW065 14/09 A3015 RMK AO2     SLP217 T01390091 52007=,
20180201_220000.002,0,RODN,,,,1,20180201210000,-1,-1,-1,-1,20,-1,7,-1,-1,-1,-1,,-1,0,0,1,OVC 65,1,14,1,9,1022,RODN 012156Z AUTO 02007KT 10SM OVC065 14/09 A3018 RMK AO2     SLP228 T01410091=,
20180201_230000.003,0,RODN,,,,1,20180201220000,-1,-1,-1,-1,40,-1,6,-1,-1,-1,-1,,-1,0,0,1,OVC 65,1,15,1,9,1022,RODN 012256Z AUTO 04006KT 10SM OVC065 15/09 A3018 RMK AO2     SLP228 T01450091=,
20180202_000000.004,0,RODN,,,,1,20180201230000,-1,-1,-1,-1,40,-1,5,-1,-1,-1,-1,,-1,0,0,0,,1,16,1,9,1022,RODN 012356Z AUTO 04005KT 10SM CLR 16/09 A3019 RMK AO2 SLP231     70003 T01580092 10158 20131 52015=,
20180202_010000.002,0,RODN,,,,1,20180202000000,-1,-1,-1,-1,40,-1,12,-1,-1,-1,-1,,-1,0,0,0,,1,17,1,7,1022,RODN 020056Z AUTO 04012KT 10SM CLR 17/07 A3017 RMK AO2 SLP224     T01740072=,
20180202_020000.002,0,RODN,,,,1,20180202010000,-1,-1,-1,-1,20,-1,11,-1,-1,-1,-1,,-1,0,0,0,,1,19,1,8,1021,RODN 020156Z AUTO 02011KT 10SM CLR 19/08 A3016 RMK AO2 SLP221     T01850079=,
20180202_030000.002,0,RODN,,,,1,20180202020000,-1,-1,-1,-1,10,-1,11,-1,-1,-1,-1,,-1,0,0,2,SCT 45   SCT 55,1,19,1,9,1021,RODN 020256Z AUTO 01011KT 10SM SCT045 SCT055 19/09 A3014 RMK     AO2 SLP214 T01890094 57017=,
20180202_040000.002,0,RODN,,,,1,20180202030000,-1,-1,-1,-1,30,-1,15,-1,18,-1,-1,,-1,0,0,2,BKN 41   BKN 65,1,19,1,8,1020,RODN 020356Z AUTO 03015G18KT 10SM BKN041 BKN065 19/08 A3012 RMK     AO2 SLP207 T01860083=,
20180202_050000.001,0,RODN,,,,1,20180202040000,-1,-1,-1,-1,10,-1,10,-1,-1,-1,-1,,-1,0,0,2,FEW 46   BKN 60,1,18,1,9,1019,RODN 020456Z AUTO 01010KT 10SM FEW046 BKN060 18/09 A3010 RMK     AO2 SLP200 T01820087=,
20180202_060000.002,0,RODN,,,,1,20180202050000,-1,-1,-1,-1,10,-1,9,-1,-1,-1,-1,,-1,0,0,1,OVC 48,1,17,1,9,1020,RODN 020556Z AUTO 01009KT 10SM OVC048 17/09 A3011 RMK AO2     SLP204 T01730092 10193 20159 55012=,
20180202_070000.002,0,RODN,,,,1,20180202060000,-1,-1,-1,-1,50,-1,6,-1,-1,-1,-1,,-1,0,0,2,BKN 40   OVC 48,1,16,1,10,1020,RODN 020656Z AUTO 05006KT 10SM BKN040 OVC048 16/10 A3011 RMK     AO2 DZB34E44 SLP204 P0000 T01600099=,
20180202_080000.002,0,RODN,,,,1,20180202070000,-1,-1,-1,-1,50,-1,9,-1,-1,-1,-1,,-1,0,1,3,SCT 2   BKN 24   OVC 50,1,15,1,12,1020,RODN 020756Z AUTO 05009KT 4SM -RA SCT002 BKN024 OVC050 15/12     A3012 RMK AO2 RAB22E33RAB43 CIG 024V040 BKN V SCT SLP207           P0001 T01460121=,- RA
20180202_090000.002,0,RODN,,,,1,20180202080000,-1,-1,-1,-1,50,-1,7,-1,-1,-1,-1,,-1,0,0,2,FEW 2   OVC 34,1,14,1,12,1020,RODN 020856Z AUTO 05007KT 9SM FEW002 OVC034 14/12 A3013 RMK AO2     RAE41 SLP211 P0004 60005 T01390121 52007=,
20180202_100000.003,0,RODN,,,,1,20180202090000,-1,-1,-1,-1,20,-1,11,-1,-1,-1,-1,,-1,0,1,4,SCT 2   SCT 22   BKN 33   OVC 41,1,14,1,12,1021,RODN 020956Z AUTO 02011KT 5SM RA SCT002 SCT022 BKN033 OVC041     14/12 A3014 RMK AO2 RAB0857E07RAB33 SLP214 P0001           T01390116=,RA
20180202_110000.002,0,RODN,,,,1,20180202100000,-1,-1,-1,-1,30,-1,9,-1,-1,-1,-1,,-1,0,1,5,FEW 15   SCT 20   SCT 26   BKN 40   OVC 49,1,14,1,12,1022,RODN 021056Z AUTO 03009KT 8SM -RA FEW015 SCT020 SCT026 BKN040     OVC049 14/12 A3017 RMK AO2 RAE08RAB32E47RAB51 SLP224 P0001           T01380118=,- RA
20180202_120000.002,0,RODN,,,,1,20180202110000,-1,-1,-1,-1,40,-1,8,-1,-1,-1,-1,,-1,0,2,2,FEW 2   OVC 42,1,13,1,12,1022,RODN 021156Z AUTO 04008KT 4SM -RA BR FEW002 OVC042 13/12 A3018     RMK AO2 RAE09RAB39 SLP228 P0002 60009 T01340116 10172           20134 52018=,- RA; BR
20180202_130000.001,0,RODN,,,,1,20180202120000,-1,-1,-1,-1,50,-1,7,-1,-1,-1,-1,,-1,0,1,4,FEW 2   BKN 25   BKN 31   OVC 42,1,13,1,12,1022,RODN 021256Z AUTO 05007KT 8SM -RA FEW002 BKN025 BKN031 OVC042     13/12 A3019 RMK AO2 CIG 025V032 BKN025 V SCT SLP231 P0002           T01320118=,- RA
20180202_140000.002,0,RODN,,,,1,20180202130000,-1,-1,-1,-1,50,-1,5,-1,-1,-1,-1,,-1,0,2,3,FEW 2   SCT 21   OVC 36,1,13,1,12,1022,RODN 021356Z AUTO 05005KT 4SM -RA BR FEW002 SCT021 OVC036 13/12     A3018 RMK AO2 RAE03RAB09E43RAB45 SLP227 P0002 T01330119=,- RA; BR
20180202_150000.002,0,RODN,,,,1,20180202140000,-1,-1,-1,-1,30,-1,9,-1,-1,-1,-1,,-1,0,1,2,BKN 25   OVC 32,1,13,1,11,1022,RODN 021456Z AUTO 03009KT 9SM -RA BKN025 OVC032 13/11 A3018 RMK     AO2 RAE25RAB32 CIG 025V032 BKN V SCT SLP227 P0002 60006           T01330113 401930119 58002=,- RA
20180202_160000.002,0,RODN,,,,1,20180202150000,-1,-1,-1,-1,10,-1,9,-1,-1,-1,-1,,-1,0,0,3,FEW 27   SCT 35   OVC 47,1,14,1,11,1021,RODN 021556Z AUTO 01009KT 10SM FEW027 SCT035 OVC047 14/11 A3016     RMK AO2 RAE18RAB20E46DZB46E47 SLP221 P0002 T01370105=,
20180202_170000.002,0,RODN,,,,1,20180202160000,-1,-1,-1,-1,10,-1,12,-1,-1,-1,-1,,-1,0,0,3,FEW 30   BKN 41   OVC 50,1,14,1,10,1021,RODN 021656Z AUTO 01012KT 10SM FEW030 BKN041 OVC050 14/10 A3016     RMK AO2 SLP221 T01410097=,
20180202_180000.001,0,RODN,,,,1,20180202170000,-1,-1,-1,-1,10,-1,11,-1,-1,-1,-1,,-1,0,0,4,FEW 25   SCT 35   BKN 48   OVC 60,1,14,1,9,1021,RODN 021756Z AUTO 01011KT 10SM FEW025 SCT035 BKN048 OVC060     14/09 A3016 RMK AO2 SLP221 60008 T01380094 10141 20131           55007=,
20180202_190000.001,0,RODN,,,,1,20180202180000,-1,-1,-1,-1,360,-1,11,-1,-1,-1,-1,,-1,0,0,1,OVC 37,1,13,1,9,1021,RODN 021856Z AUTO 36011KT 10SM OVC037 13/09 A3015 RMK AO2     SLP217 T01340085=,
20180202_200000.001,0,RODN,,,,1,20180202190000,-1,-1,-1,-1,360,-1,14,-1,-1,-1,-1,,-1,0,0,2,BKN 36   OVC 47,1,14,1,7,1021,RODN 021956Z AUTO 36014KT 10SM BKN036 OVC047 14/07 A3015 RMK     AO2 SLP218 T01360074=,
20180202_210000.002,0,RODN,,,,1,20180202200000,-1,-1,-1,-1,360,-1,11,-1,-1,-1,-1,,-1,0,0,2,BKN 42   OVC 55,1,14,1,7,1021,RODN 022056Z AUTO 36011KT 10SM BKN042 OVC055 14/07 A3015 RMK     AO2 SLP218 T01360071 55001=,
20180202_220000.002,0,RODN,,,,1,20180202210000,-1,-1,-1,-1,360,-1,12,-1,-1,-1,-1,,-1,0,1,2,FEW 36   OVC 47,1,13,1,7,1022,RODN 022156Z AUTO 36012KT 10SM -RA FEW036 OVC047 13/07 A3018     RMK AO2 RAB47 SLP228 P0000 T01330071=,- RA
20180202_230000.001,0,RODN,,,,1,20180202220000,-1,-1,-1,-1,10,-1,12,-1,-1,-1,-1,,-1,0,0,2,SCT 35   OVC 48,1,13,1,8,1023,RODN 022256Z AUTO 01012KT 10SM SCT035 OVC048 13/08 A3020 RMK     AO2 RAE2158RAB07E43DZB43E48 SLP235 P0001 T01270078=,
20180203_000000.004,0,RODN,,,,1,20180202230000,-1,-1,-1,-1,360,-1,10,-1,-1,-1,-1,,-1,0,0,2,BKN 33   OVC 41,1,13,1,7,1023,RODN 022356Z AUTO 36010KT 10SM BKN033 OVC041 13/07 A3022 RMK     AO2 RAB42E52 SLP242 P0000 60001 70018 T01300074 10138           20124 52022=,
20180203_010000.001,0,RODN,,,,1,20180203000000,-1,-1,-1,-1,360,-1,13,-1,21,-1,-1,,-1,0,0,2,FEW 27   OVC 38,1,13,1,9,1023,RODN 030056Z AUTO 36013G21KT 10SM FEW027 OVC038 13/09 A3021 RMK     AO2 RAB14E27DZB27E32RAB34E45 SLP238 P0000 T01320085=,
20180203_020000.002,0,RODN,,,,1,20180203010000,-1,-1,-1,-1,360,-1,12,-1,22,-1,-1,,-1,0,0,2,SCT 28   OVC 37,1,13,1,7,1023,RODN 030156Z AUTO 36012G22KT 10SM SCT028 OVC037 13/07 A3021 RMK     AO2 SLP238 T01340074=,
20180203_030000.002,0,RODN,,,,1,20180203020000,-1,-1,-1,-1,360,-1,14,-1,19,-1,-1,,-1,0,0,3,BKN 32   BKN 41   OVC 80,1,14,1,7,1023,RODN 030256Z AUTO 36014G19KT 10SM BKN032 BKN041 OVC080 14/07     A3020 RMK AO2 SLP235 60000 T01410074 57008=,
20180203_040000.002,0,RODN,,,,1,20180203030000,-1,-1,-1,-1,340,-1,14,-1,19,-1,-1,,-1,0,0,2,SCT 37   OVC 75,1,15,1,6,1022,RODN 030356Z AUTO 34014G19KT 10SM SCT037 OVC075 15/06 A3017 RMK     AO2 SLP224 T01450058=,
20180203_050000.002,0,RODN,,,,1,20180203040000,-1,-1,-1,-1,10,-1,13,-1,-1,-1,-1,,-1,0,0,3,SCT 29   BKN 40   OVC 47,1,14,1,8,1021,RODN 030456Z AUTO 01013KT 10SM SCT029 BKN040 OVC047 14/08 A3016     RMK AO2 SLP221 T01370075=,
20180203_060000.002,0,RODN,,,,1,20180203050000,-1,-1,-1,-1,360,-1,13,-1,18,-1,-1,,-1,0,0,2,BKN 28   OVC 36,1,13,1,7,1021,RODN 030556Z AUTO 36013G18KT 10SM BKN028 OVC036 13/07 A3015 RMK     AO2 SLP218 60000 T01340067 10147 20128 57016=,
20180203_070000.003,0,RODN,,,,1,20180203060000,-1,-1,-1,-1,360,-1,10,-1,19,-1,-1,,-1,0,0,2,BKN 35   OVC 45,1,14,1,6,1021,RODN 030656Z AUTO 36010G19KT 10SM BKN035 OVC045 14/06 A3014 RMK     AO2 SLP214 T01370058=,
20180203_080000.002,0,RODN,,,,1,20180203070000,-1,-1,-1,-1,360,-1,13,-1,20,-1,-1,,-1,0,0,1,OVC 39,1,13,1,5,1021,RODN 030756Z AUTO 36013G20KT 10SM OVC039 13/05 A3014 RMK AO2     SLP214 T01340053=,
20180203_090000.002,0,RODN,,,,1,20180203080000,-1,-1,-1,-1,360,-1,14,-1,20,-1,-1,,-1,0,0,1,BKN 39,1,13,1,6,1021,RODN 030856Z AUTO 36014G20KT 10SM BKN039 13/06 A3015 RMK AO2     SLP218 T01340058 55000=,
20180203_100000.002,0,RODN,,,,1,20180203090000,-1,-1,-1,-1,360,-1,13,-1,19,-1,-1,,-1,0,0,2,BKN 37   OVC 46,1,13,1,6,1021,RODN 030956Z AUTO 36013G19KT 10SM BKN037 OVC046 13/06 A3015 RMK     AO2 SLP218 T01330059=,
20180203_110000.002,0,RODN,,,,1,20180203100000,-1,-1,-1,-1,10,-1,14,-1,19,-1,-1,,-1,0,0,2,BKN 27   OVC 38,1,13,1,8,1021,RODN 031056Z AUTO 01014G19KT 10SM BKN027 OVC038 13/08 A3015 RMK     AO2 CIG 027V038 SLP218 T01340076=,
20180203_120000.002,0,RODN,,,,1,20180203110000,-1,-1,-1,-1,350,-1,14,-1,-1,-1,-1,,-1,0,0,2,BKN 32   OVC 40,1,14,1,7,1022,RODN 031156Z AUTO 35014KT 10SM BKN032 OVC040 14/07 A3017 RMK     AO2 RAB1057E07 SLP224 P0000 60000 T01360071 10139 20132           53007=,
20180203_130000.002,0,RODN,,,,1,20180203120000,-1,-1,-1,-1,360,-1,10,-1,-1,-1,-1,,-1,0,1,2,BKN 34   OVC 46,1,13,1,8,1022,RODN 031256Z AUTO 36010KT 10SM -RA BKN034 OVC046 13/08 A3018     RMK AO2 DZB06E21RAB21E46DZB46E47DZB49E50RAB50 SLP228 P0000           T01270080=,- RA
20180203_140000.002,0,RODN,,,,1,20180203130000,-1,-1,-1,-1,360,-1,8,-1,19,-1,-1,,-1,0,0,2,BKN 29   OVC 39,1,13,1,8,1022,RODN 031356Z AUTO 36008G19KT 10SM BKN029 OVC039 13/08 A3019 RMK     AO2 RAE00DZB00E02 SLP231 P0000 T01280077=,
20180203_150000.002,0,RODN,,,,1,20180203140000,-1,-1,-1,-1,360,-1,9,-1,-1,-1,-1,,-1,0,1,3,FEW 30   BKN 39   OVC 48,1,12,1,8,1022,RODN 031456Z AUTO 36009KT 10SM -RA FEW030 BKN039 OVC048 12/08     A3019 RMK AO2 RAB37 SLP231 P0000 60000 T01220081 401470122           50006=,- RA
20180203_160000.002,0,RODN,,,,1,20180203150000,-1,-1,-1,-1,360,-1,10,-1,-1,-1,-1,,-1,0,1,3,FEW 26   SCT 37   OVC 49,1,12,1,8,1022,RODN 031556Z AUTO 36010KT 10SM -RA FEW026 SCT037 OVC049 12/08     A3018 RMK AO2 RAE25DZB25E37RAB45 SLP228 P0001 T01200077=,- RA
20180203_170000.002,0,RODN,,,,1,20180203160000,-1,-1,-1,-1,360,-1,8,-1,-1,-1,-1,,-1,0,1,3,SCT 30   BKN 40   OVC 49,1,12,1,8,1022,RODN 031656Z AUTO 36008KT 10SM -RA SCT030 BKN040 OVC049 12/08     A3018 RMK AO2 RAE24DZB24E36RAB36 SLP228 P0000 T01170080=,- RA
20180203_180000.001,0,RODN,,,,1,20180203170000,-1,-1,-1,-1,10,-1,10,-1,-1,-1,-1,,-1,0,1,3,BKN 26   BKN 40   OVC 48,1,12,1,8,1022,RODN 031756Z AUTO 01010KT 10SM -RA BKN026 BKN040 OVC048 12/08     A3017 RMK AO2 RAE15DZB15E19DZB22E23RAB23 SLP225 P0001           60002 T01160081 10136 20116 57007=,- RA
20180203_190000.002,0,RODN,,,,1,20180203180000,-1,-1,-1,-1,350,-1,11,-1,16,-1,-1,,-1,0,1,3,FEW 2   BKN 26   OVC 33,1,11,1,8,1022,RODN 031856Z AUTO 35011G16KT 10SM -RA FEW002 BKN026 OVC033     11/08 A3017 RMK AO2 RAE09RAB24 BKN V OVC SLP225 P0002           T01140081=,- RA
20180203_200000.002,0,RODN,,,,1,20180203190000,-1,-1,-1,-1,10,-1,12,-1,-1,-1,-1,,-1,0,1,4,FEW 2   FEW 25   SCT 34   OVC 42,1,11,1,8,1022,RODN 031956Z AUTO 01012KT 10SM -RA FEW002 FEW025 SCT034 OVC042     11/08 A3018 RMK AO2 SLP228 P0003 T01090083=,- RA
20180203_210000.002,0,RODN,,,,1,20180203200000,-1,-1,-1,-1,10,-1,12,-1,-1,-1,-1,,-1,0,1,3,SCT 25   BKN 35   BKN 44,1,11,1,7,1022,RODN 032056Z AUTO 01012KT 10SM -RA SCT025 BKN035 BKN044 11/07     A3018 RMK AO2 RAE22DZB22E24DZB26E27RAB27E40DZB45E46RAB46           SLP228 P0001 60006 T01080071 52004=,- RA
20180203_220000.002,0,RODN,,,,1,20180203210000,-1,-1,-1,-1,10,-1,11,-1,-1,-1,-1,,-1,0,0,4,FEW 28   BKN 40   BKN 49   OVC 75,1,11,1,7,1022,RODN 032156Z AUTO 01011KT 10SM FEW028 BKN040 BKN049 OVC075     11/07 A3019 RMK AO2 RAE00DZB00E04RAB17E41RAB46E55 SLP232           P0000 T01100069=,
20180203_230000.002,0,RODN,,,,1,20180203220000,-1,-1,-1,-1,360,-1,11,-1,-1,-1,-1,,-1,0,1,2,BKN 33   OVC 47,1,12,1,7,1023,RODN 032256Z AUTO 36011KT 10SM -RA BKN033 OVC047 12/07 A3020     RMK AO2 RAB43 SLP235 P0001 T01150068=,- RA
20180204_000000.004,0,RODN,,,,1,20180203230000,-1,-1,-1,-1,20,-1,11,-1,-1,-1,-1,,-1,0,0,3,BKN 28   BKN 36   OVC 46,1,11,1,7,1023,RODN 032356Z AUTO 02011KT 10SM BKN028 BKN036 OVC046 11/07 A3021     RMK AO2 RAE15RAB37E50 CIG 028V037 SLP238 P0000 60007 70009           T01130074 10118 20107 52011=,
20180204_010000.002,0,RODN,,,,1,20180204000000,-1,-1,-1,-1,10,-1,9,-1,-1,-1,-1,,-1,0,1,3,FEW 32   BKN 46   OVC 60,1,12,1,7,1023,RODN 040056Z AUTO 01009KT 10SM -RA FEW032 BKN046 OVC060 12/07     A3022 RMK AO2 RAB03E14DZB14E15RAB33 SLP242 P0000           T01170072=,- RA
20180204_020000.002,0,RODN,,,,1,20180204010000,-1,-1,-1,-1,10,-1,11,-1,-1,-1,-1,,-1,0,0,3,FEW 30   SCT 37   OVC 50,1,12,1,7,1023,RODN 040156Z AUTO 01011KT 10SM FEW030 SCT037 OVC050 12/07 A3021     RMK AO2 RAE13DZB13E17 SLP238 P0000 T01240069=,
20180204_030000.002,0,RODN,,,,1,20180204020000,-1,-1,-1,-1,360,-1,8,-1,-1,-1,-1,,-1,0,1,3,SCT 35   BKN 49   OVC 60,1,12,1,7,1023,RODN 040256Z AUTO 36008KT 10SM -RA SCT035 BKN049 OVC060 12/07     A3020 RMK AO2 DZB15E16RAB16 SLP235 P0000 60000 T01210074           58004=,- RA
20180204_040000.002,0,RODN,,,,1,20180204030000,-1,-1,-1,-1,360,-1,10,-1,19,-1,-1,,-1,0,1,4,FEW 25   FEW 30   SCT 37   OVC 65,1,12,1,8,1022,RODN 040356Z AUTO 36010G19KT 10SM -RA FEW025 FEW030 SCT037     OVC065 12/08 A3019 RMK AO2 RAE02DZB02E03RAB25E35RAB38           SLP232 P0000 T01160077=,- RA
20180204_050000.002,0,RODN,,,,1,20180204040000,-1,-1,-1,-1,360,-1,12,-1,19,-1,-1,,-1,0,0,3,SCT 28   BKN 39   OVC 70,1,12,1,7,1022,RODN 040456Z AUTO 36012G19KT 10SM SCT028 BKN039 OVC070 12/07     A3017 RMK AO2 RAE09 SLP225 P0000 T01180071=,
20180204_060000.002,0,RODN,,,,1,20180204050000,-1,-1,-1,-1,350,-1,14,-1,19,-1,-1,,-1,0,1,3,SCT 35   BKN 43   OVC 70,1,12,1,6,1021,RODN 040556Z AUTO 35014G19KT 10SM -RA SCT035 BKN043 OVC070     12/06 A3016 RMK AO2 DZB54E55RAB55 SLP221 P0000 60000           T01220060 10125 20111 57014=,- RA
20180204_070000.002,0,RODN,,,,1,20180204060000,-1,-1,-1,-1,360,-1,10,-1,18,-1,-1,,-1,0,1,3,SCT 32   BKN 43   OVC 55,1,11,1,6,1022,RODN 040656Z AUTO 36010G18KT 10SM -RA SCT032 BKN043 OVC055     11/06 A3017 RMK AO2 RAE07RAB22 SLP225 P0001 T01090060=,- RA
20180204_080000.002,0,RODN,,,,1,20180204070000,-1,-1,-1,-1,360,-1,11,-1,20,-1,-1,,-1,0,1,2,SCT 32   OVC 55,1,11,1,6,1022,RODN 040756Z AUTO 36011G20KT 10SM -RA SCT032 OVC055 11/06 A3018     RMK AO2 RAE06RAB13 SLP228 P0000 T01070063=,- RA
20180204_090000.002,0,RODN,,,,1,20180204080000,-1,-1,-1,-1,350,-1,11,-1,20,-1,-1,,-1,0,0,3,SCT 39   BKN 49   OVC 80,1,11,1,5,1022,RODN 040856Z AUTO 35011G20KT 10SM SCT039 BKN049 OVC080 11/05     A3019 RMK AO2 RAE13DZB21E30 SLP232 P0001 60002 T01120051           52012=,
20180204_100000.002,0,RODN,,,,1,20180204090000,-1,-1,-1,-1,20,-1,10,-1,-1,-1,-1,,-1,0,0,2,BKN 39   OVC 50,1,11,1,5,1023,RODN 040956Z AUTO 02010KT 10SM BKN039 OVC050 11/05 A3021 RMK     AO2 RAB09E54 SLP239 P0000 T01070050=,
20180204_110000.001,0,RODN,,,,1,20180204100000,-1,-1,-1,-1,360,-1,10,-1,-1,-1,-1,,-1,0,0,2,SCT 41   BKN 50,1,11,1,4,1023,RODN 041056Z AUTO 36010KT 10SM SCT041 BKN050 11/04 A3021 RMK     AO2 SLP239 T01120040=,
20180204_120000.002,0,RODN,,,,1,20180204110000,-1,-1,-1,-1,360,-1,11,-1,-1,-1,-1,,-1,0,0,2,BKN 46   BKN 55,1,11,1,4,1023,RODN 041156Z AUTO 36011KT 10SM BKN046 BKN055 11/04 A3021 RMK     AO2 DZB04E05RAB05E44 SLP239 P0000 60002 T01110036 10121           20106 51007=,
20180204_130000.002,0,RODN,,,,1,20180204120000,-1,-1,-1,-1,10,-1,13,-1,-1,-1,-1,,-1,0,0,2,SCT 35   BKN 45,1,11,1,5,1024,RODN 041256Z AUTO 01013KT 10SM SCT035 BKN045 11/05 A3023 RMK     AO2 RAB15E28 SLP245 P0000 T01140046=,
20180204_140000.002,0,RODN,,,,1,20180204130000,-1,-1,-1,-1,10,-1,10,-1,-1,-1,-1,,-1,0,0,3,SCT 42   BKN 50   OVC 100,1,11,1,3,1023,RODN 041356Z AUTO 01010KT 10SM SCT042 BKN050 OVC100 11/03 A3022     RMK AO2 SLP242 T01130033=,
20180204_150000.002,0,RODN,,,,1,20180204140000,-1,-1,-1,-1,10,-1,10,-1,-1,-1,-1,,-1,0,0,1,FEW 49,1,11,1,4,1023,RODN 041456Z AUTO 01010KT 10SM FEW049 11/04 A3022 RMK AO2     SLP242 60000 T01130043 401250106 50001=,
20180204_160000.002,0,RODN,,,,1,20180204150000,-1,-1,-1,-1,350,-1,11,-1,18,-1,-1,,-1,0,0,2,BKN 43   OVC 90,1,11,1,5,1023,RODN 041556Z AUTO 35011G18KT 10SM BKN043 OVC090 11/05 A3020 RMK     AO2 DZB11E12RAB13E42 SLP235 P0000 T01130052=,
20180204_170000.002,0,RODN,,,,1,20180204160000,-1,-1,-1,-1,360,-1,12,-1,19,-1,-1,,-1,0,0,5,FEW 35   SCT 42   BKN 50   BKN 90   OVC 100,1,11,1,4,1022,RODN 041656Z AUTO 36012G19KT 10SM FEW035 SCT042 BKN050 BKN090     OVC100 11/04 A3019 RMK AO2 RAB00E09 SLP232 P0000           T01120040=,
20180204_180000.001,0,RODN,,,,1,20180204170000,-1,-1,-1,-1,360,-1,11,-1,18,-1,-1,,-1,0,0,2,BKN 50   OVC 90,1,11,1,3,1022,RODN 041756Z AUTO 36011G18KT 10SM BKN050 OVC090 11/03 A3019 RMK     AO2 SLP232 60000 T01120025 10116 20110 56008=,
20180204_190000.002,0,RODN,,,,1,20180204180000,-1,-1,-1,-1,360,-1,10,-1,16,-1,-1,,-1,0,1,2,FEW 36   BKN 46,1,10,1,5,1022,RODN 041856Z AUTO 36010G16KT 10SM -RA FEW036 BKN046 10/05 A3019     RMK AO2 DZB17E19RAB19E36DZB38E40RAB40 SLP232 P0000           T01040047=,- RA
20180204_200000.002,0,RODN,,,,1,20180204190000,-1,-1,-1,-1,360,-1,7,-1,-1,-1,-1,,-1,0,0,2,SCT 33   SCT 60,1,11,1,4,1022,RODN 041956Z AUTO 36007KT 10SM SCT033 SCT060 11/04 A3018 RMK     AO2 RAE08RAB11E26 SLP228 P0000 T01060043=,
20180204_210000.002,0,RODN,,,,1,20180204200000,-1,-1,-1,-1,360,-1,7,-1,-1,-1,-1,,-1,0,1,2,BKN 37   BKN 44,1,10,1,5,1022,RODN 042056Z AUTO 36007KT 10SM -RA BKN037 BKN044 10/05 A3019     RMK AO2 RAB09 SLP232 P0000 60000 T00990049 55002=,- RA
20180204_220000.002,0,RODN,,,,1,20180204210000,-1,-1,-1,-1,360,-1,8,-1,-1,-1,-1,,-1,0,0,3,FEW 31   SCT 41   BKN 100,1,10,1,6,1022,RODN 042156Z AUTO 36008KT 10SM FEW031 SCT041 BKN100 10/06 A3019     RMK AO2 RAE40 SLP232 P0001 T00980058=,
20180204_230000.002,0,RODN,,,,1,20180204220000,-1,-1,-1,-1,10,-1,9,-1,-1,-1,-1,,-1,0,1,1,BKN 39,1,11,1,5,1023,RODN 042256Z AUTO 01009KT 10SM -RA BKN039 11/05 A3020 RMK AO2     RAB38E48RAB55 SLP235 P0000 T01080053=,- RA
20180205_000000.001,1,RODN,,,,1,20180204230000,-1,-1,-1,-1,10,-1,10,-1,-1,-1,-1,,-1,0,1,2,SCT 35   BKN 45,1,11,1,6,1023,RODN 042356Z AUTO 01010KT 10SM -RA SCT035 BKN045 11/06 A3021     RMK AO2 RAE31RAB34E47DZB47E50DZB53E54RAB54 SLP239 P0000           60001 70003 T01080055 10112 20096 52007=,- RA
20180205_010000.002,0,RODN,,,,1,20180205000000,-1,-1,-1,-1,10,-1,9,-1,-1,-1,-1,,-1,0,1,2,FEW 34   BKN 46,1,11,1,6,1023,RODN 050056Z AUTO 01009KT 10SM -RA FEW034 BKN046 11/06 A3022     RMK AO2 RAE38DZB50E52RAB52 SLP242 P0001 T01120061=,- RA
20180205_020000.002,0,RODN,,,,1,20180205010000,-1,-1,-1,-1,20,-1,15,-1,-1,-1,-1,,-1,0,1,3,SCT 29   BKN 42   BKN 50,1,11,1,7,1023,RODN 050156Z AUTO 02015KT 10SM -RA SCT029 BKN042 BKN050 11/07     A3021 RMK AO2 RAE14RAB45 SLP239 P0000 T01120067=,- RA
