20180101_000000.002,1,ROIG,,,,0,20180101000000,-1,-1,-1,-1,40,-1,15,-1,-1,-1,-1,,9999,0,0,3,SCT 23   BKN 28   BKN 40,1,18,1,13,1022,ROIG 010000Z 04015KT 9999 SCT023 BKN028 BKN040 18/13 Q1022 RMK     3CU023 5CU028 7SC040 A3020=,
20180101_010000.002,1,ROIG,,,,0,20180101010000,-1,-1,-1,-1,30,-1,17,-1,-1,-1,-1,,9999,0,0,3,FEW 22   BKN 28   BKN 40,1,19,1,12,1023,ROIG 010100Z 03017KT 9999 FEW022 BKN028 BKN040 19/12 Q1023 RMK     2CU022 5CU028 7SC040 A3021=,
20180101_020000.002,1,ROIG,,,,0,20180101020000,-1,-1,-1,-1,50,-1,17,-1,-1,-1,-1,,9999,0,0,2,BKN 29   BKN 42,1,19,1,12,1023,ROIG 010200Z 05017KT 9999 BKN029 BKN042 19/12 Q1023 RMK 5CU029     7SC042 A3021=,
20180101_030000.002,1,ROIG,,,,0,20180101030000,-1,-1,-1,-1,50,-1,15,-1,-1,-1,-1,,9999,0,0,2,BKN 30   BKN 45,1,20,1,12,1022,ROIG 010300Z 05015KT 9999 BKN030 BKN045 20/12 Q1022 RMK 5CU030     7SC045 A3019=,
20180101_040000.002,1,ROIG,,,,0,20180101040000,-1,-1,-1,-1,40,-1,17,-1,-1,-1,-1,,9999,0,0,2,SCT 33   BKN 45,1,20,1,12,1021,ROIG 010400Z 04017KT 9999 SCT033 BKN045 20/12 Q1021 RMK 4CU033     7SC045 A3017=,
20180101_050000.002,1,ROIG,,,,0,20180101050000,-1,-1,-1,-1,50,-1,17,-1,-1,-1,-1,,9999,0,0,2,FEW 34   BKN 60,1,21,1,11,1020,ROIG 010500Z 05017KT 9999 FEW034 BKN060 21/11 Q1020 RMK 1CU034     5SC060 A3014=,
20180101_060000.002,1,ROIG,,,,0,20180101060000,-1,-1,-1,-1,50,-1,17,-1,-1,-1,-1,,9999,0,0,2,FEW 34   SCT 50,1,20,1,11,1020,ROIG 010600Z 05017KT 9999 FEW034 SCT050 20/11 Q1020 RMK 1CU034     4SC050 A3013=,
20180101_070000.002,1,ROIG,,,,0,20180101070000,-1,-1,-1,-1,50,-1,17,-1,-1,-1,-1,,9999,0,0,2,SCT 33   BKN 42,1,19,1,12,1020,ROIG 010700Z 05017KT 9999 SCT033 BKN042 19/12 Q1020 RMK 4CU033     6SC042 A3013=,
20180101_080000.002,1,ROIG,,,,0,20180101080000,-1,-1,-1,-1,60,-1,16,-1,-1,-1,-1,,9999,0,0,2,FEW 33   BKN 40,1,19,1,11,1020,ROIG 010800Z 06016KT 9999 FEW033 BKN040 19/11 Q1020 RMK 1CU033     6SC040 A3013=,
20180101_090000.002,1,ROIG,,,,0,20180101090000,-1,-1,-1,-1,60,-1,16,-1,-1,-1,-1,,9999,0,0,2,FEW 33   SCT 45,1,18,1,10,1020,ROIG 010900Z 06016KT 9999 FEW033 SCT045 18/10 Q1020 RMK 1CU033     4SC045 A3013=,
20180101_100000.002,1,ROIG,,,,0,20180101100000,-1,-1,-1,-1,60,-1,17,-1,-1,-1,-1,,9999,0,0,2,FEW 36   BKN 45,1,19,1,11,1020,ROIG 011000Z 06017KT 9999 FEW036 BKN045 19/11 Q1020 RMK 1CU036     7SC045 A3014=,
20180101_110000.002,1,ROIG,,,,0,20180101110000,-1,-1,-1,-1,60,-1,18,-1,-1,-1,-1,,9999,0,0,2,FEW 34   BKN 45,1,18,1,11,1021,ROIG 011100Z 06018KT 9999 FEW034 BKN045 18/11 Q1021 RMK 1CU034     6SC045 A3016=,
20180101_210000.002,0,ROIG,,,,0,20180101210000,-1,-1,-1,-1,70,-1,16,-1,-1,-1,-1,,9999,0,0,1,FEW 37,1,19,1,11,1020,ROIG 012100Z 07016KT 9999 FEW037 19/11 Q1020 RMK 1SC037 A3015=,
20180101_220000.002,1,ROIG,,,,0,20180101220000,-1,-1,-1,-1,60,-1,17,-1,-1,-1,-1,,9999,0,0,1,FEW 38,1,19,1,11,1021,ROIG 012200Z 06017KT 9999 FEW038 19/11 Q1021 RMK 1SC038 A3016=,
20180101_230000.002,1,ROIG,,,,0,20180101230000,-1,-1,-1,-1,60,-1,15,-1,-1,-1,-1,,9999,0,0,1,FEW 38,1,19,1,10,1022,ROIG 012300Z 06015KT 9999 FEW038 19/10 Q1022 RMK 1SC038 A3018=,
20180102_000000.003,1,ROIG,,,,0,20180102000000,-1,-1,-1,-1,70,-1,16,-1,-1,-1,-1,,9999,0,0,1,FEW 38,1,20,1,12,1022,ROIG 020000Z 07016KT 9999 FEW038 20/12 Q1022 RMK 1SC038 A3020=,
20180102_010000.003,1,ROIG,,,,0,20180102010000,-1,-1,-1,-1,70,-1,15,-1,-1,-1,-1,,9999,0,0,1,FEW 39,1,21,1,11,1023,ROIG 020100Z 07015KT 9999 FEW039 21/11 Q1023 RMK 1SC039 A3021=,
20180102_020000.002,1,ROIG,,,,0,20180102020000,-1,-1,-1,-1,80,-1,16,-1,-1,-1,-1,,9999,0,0,1,FEW 39,1,22,1,11,1022,ROIG 020200Z 08016KT 9999 FEW039 22/11 Q1022 RMK 1SC039 A3020=,
20180102_030000.002,1,ROIG,,,,0,20180102030000,-1,-1,-1,-1,80,-1,15,-1,-1,-1,-1,,9999,0,0,1,FEW 40,1,23,1,12,1022,ROIG 020300Z 08015KT 9999 FEW040 23/12 Q1022 RMK 1SC040 A3018=,
20180102_040000.002,1,ROIG,,,,0,20180102040000,-1,-1,-1,-1,90,-1,14,-1,-1,-1,-1,,9999,0,0,1,SCT 36,1,22,1,12,1021,ROIG 020400Z 09014KT 9999 SCT036 22/12 Q1021 RMK 3CU036 A3016=,
20180102_050000.002,1,ROIG,,,,0,20180102050000,-1,-1,-1,-1,90,-1,14,-1,-1,-1,-1,,9999,0,0,1,FEW 38,1,22,1,11,1020,ROIG 020500Z 09014KT 9999 FEW038 22/11 Q1020 RMK 2CU038 A3015=,
20180102_060000.002,1,ROIG,,,,0,20180102060000,-1,-1,-1,-1,90,-1,13,-1,-1,-1,-1,,9999,0,0,1,SCT 38,1,21,1,11,1020,ROIG 020600Z 09013KT 9999 SCT038 21/11 Q1020 RMK 3CU038 A3013=,
20180102_070000.002,1,ROIG,,,,0,20180102070000,-1,-1,-1,-1,80,-1,10,-1,-1,-1,-1,,9999,0,0,1,FEW 41,1,22,1,12,1020,ROIG 020700Z 08010KT 9999 FEW041 22/12 Q1020 RMK 2SC041 A3012=,
20180102_080000.002,1,ROIG,,,,0,20180102080000,-1,-1,-1,-1,90,-1,12,-1,-1,-1,-1,,9999,0,0,1,SCT 37,1,21,1,11,1019,ROIG 020800Z 09012KT 9999 SCT037 21/11 Q1019 RMK 3CU037 A3012=,
20180102_090000.002,1,ROIG,,,,0,20180102090000,-1,-1,-1,-1,90,-1,11,-1,-1,-1,-1,,9999,0,0,1,FEW 40,1,20,1,12,1020,ROIG 020900Z 09011KT 9999 FEW040 20/12 Q1020 RMK 2SC040 A3012=,
20180102_100000.002,1,ROIG,,,,0,20180102100000,-1,-1,-1,-1,80,-1,11,-1,-1,-1,-1,,9999,0,0,1,FEW 38,1,19,1,11,1020,ROIG 021000Z 08011KT 9999 FEW038 19/11 Q1020 RMK 2CU038 A3013=,
20180102_110000.002,1,ROIG,,,,0,20180102110000,-1,-1,-1,-1,80,-1,12,-1,-1,-1,-1,,9999,0,0,1,SCT 38,1,20,1,12,1020,ROIG 021100Z 08012KT 9999 SCT038 20/12 Q1020 RMK 4CU038 A3013=,
20180102_210000.002,0,ROIG,,,,0,20180102210000,-1,-1,-1,-1,60,-1,13,-1,-1,-1,-1,,9999,0,0,2,FEW 30   BKN 42,1,20,1,13,1021,ROIG 022100Z 06013KT 9999 FEW030 BKN042 20/13 Q1021 RMK 2CU030     7SC042 A3015=,
20180102_220000.002,1,ROIG,,,,0,20180102220000,-1,-1,-1,-1,90,-1,12,-1,-1,-1,-1,,9999,0,0,2,FEW 30   BKN -9999,1,20,1,12,1020,ROIG 022200Z 09012KT 9999 FEW030 BKN/// 20/12 Q1020 RMK 1CU030     A3014=,
20180102_230000.002,1,ROIG,,,,0,20180102230000,-1,-1,-1,-1,80,-1,11,-1,-1,-1,-1,,9999,0,0,2,BKN 30   BKN -9999,1,20,1,13,1021,ROIG 022300Z 08011KT 9999 BKN030 BKN/// 20/13 Q1021 RMK 5CU030     A3016=,
20180103_000000.002,1,ROIG,,,,0,20180103000000,-1,-1,-1,-1,70,-1,11,-1,-1,-1,-1,,9999,0,0,1,BKN 33,1,21,1,14,1022,ROIG 030000Z 07011KT 9999 BKN033 21/14 Q1022 RMK 6CU033 A3018=,
20180103_010000.002,1,ROIG,,,,0,20180103010000,-1,-1,-1,-1,70,-1,11,-1,-1,-1,-1,,9999,0,0,1,BKN 33,1,22,1,13,1022,ROIG 030100Z 07011KT 9999 BKN033 22/13 Q1022 RMK 5CU033 A3019=,
20180103_020000.002,1,ROIG,,,,0,20180103020000,-1,-1,-1,-1,60,-1,11,-1,-1,-1,-1,,9999,0,0,1,FEW 36,1,23,1,13,1022,ROIG 030200Z 06011KT 9999 FEW036 23/13 Q1022 RMK 2CU036 A3019=,
20180103_030000.003,1,ROIG,,,,0,20180103030000,-1,-1,-1,-1,60,-1,9,-1,-1,-1,-1,,9999,0,0,2,FEW 37   BKN 48,1,23,1,13,1021,ROIG 030300Z 06009KT 9999 FEW037 BKN048 23/13 Q1021 RMK 1CU037     6SC048 A3017=,
20180103_040000.002,1,ROIG,,,,0,20180103040000,-1,-1,-1,-1,60,-1,11,-1,-1,-1,-1,,9999,0,0,2,FEW 36   SCT 50,1,23,1,13,1020,ROIG 030400Z 06011KT 9999 FEW036 SCT050 23/13 Q1020 RMK 1CU036     3SC050 A3015=,
20180103_050000.002,1,ROIG,,,,0,20180103050000,-1,-1,-1,-1,70,-1,9,-1,-1,-1,-1,,9999,0,0,2,FEW 36   SCT -9999,1,23,1,13,1019,ROIG 030500Z 07009KT 9999 FEW036 SCT/// 23/13 Q1019 RMK 1CU036     A3012=,
20180103_060000.002,1,ROIG,,,,0,20180103060000,-1,-1,-1,-1,70,-1,9,-1,-1,-1,-1,,9999,0,0,2,FEW 36   SCT -9999,1,23,1,12,1019,ROIG 030600Z 07009KT 9999 FEW036 SCT/// 23/12 Q1019 RMK 1CU036     A3010=,
20180103_070000.002,1,ROIG,,,,0,20180103070000,-1,-1,-1,-1,80,-1,10,-1,-1,-1,-1,,9999,0,0,2,FEW 35   SCT 50,1,22,1,14,1018,ROIG 030700Z 08010KT 9999 FEW035 SCT050 22/14 Q1018 RMK 1CU035     4SC050 A3009=,
20180103_080000.002,1,ROIG,,,,0,20180103080000,-1,-1,-1,-1,80,-1,11,-1,-1,-1,-1,,9999,0,0,2,FEW 31   BKN 48,1,21,1,14,1019,ROIG 030800Z 08011KT 9999 FEW031 BKN048 21/14 Q1019 RMK 1CU031     6SC048 A3009=,
20180103_090000.002,1,ROIG,,,,0,20180103090000,-1,-1,-1,-1,80,-1,10,-1,-1,-1,-1,,9999,0,0,2,FEW 29   BKN 49,1,21,1,13,1019,ROIG 030900Z 08010KT 9999 FEW029 BKN049 21/13 Q1019 RMK 1CU029     6SC049 A3010=,
20180103_100000.002,1,ROIG,,,,0,20180103100000,-1,-1,-1,-1,80,-1,11,-1,-1,-1,-1,,9999,0,0,2,FEW 29   SCT -9999,1,20,1,14,1019,ROIG 031000Z 08011KT 9999 FEW029 SCT/// 20/14 Q1019 RMK 1CU029     A3012=,
20180103_110000.002,1,ROIG,,,,0,20180103110000,-1,-1,-1,-1,70,-1,11,-1,-1,-1,-1,,9999,0,0,2,FEW 28   BKN -9999,1,20,1,14,1020,ROIG 031100Z 07011KT 9999 FEW028 BKN/// 20/14 Q1020 RMK 1CU028     A3014=,
20180103_210000.003,0,ROIG,,,,0,20180103210000,-1,-1,-1,-1,90,-1,12,-1,-1,-1,-1,,9999,0,0,1,SCT 27,1,20,1,15,1019,ROIG 032100Z 09012KT 9999 SCT027 20/15 Q1019 RMK 3CU027 A3009=,
20180103_220000.002,1,ROIG,,,,0,20180103220000,-1,-1,-1,-1,100,-1,11,-1,-1,-1,-1,,9999,0,0,2,FEW 28   BKN -9999,1,20,1,15,1019,ROIG 032200Z 10011KT 9999 FEW028 BKN/// 20/15 Q1019 RMK 1CU028     A3010=,
20180103_230000.002,1,ROIG,,,,0,20180103230000,-1,-1,-1,-1,100,-1,11,-1,-1,-1,-1,,9999,0,0,2,FEW 28   BKN -9999,1,21,1,15,1019,ROIG 032300Z 10011KT 9999 FEW028 BKN/// 21/15 Q1019 RMK 1CU028     A3010=,
20180104_000000.002,1,ROIG,,,,0,20180104000000,-1,-1,-1,-1,100,-1,10,-1,-1,-1,-1,,9999,0,0,2,FEW 27   BKN -9999,1,22,1,15,1019,ROIG 040000Z 10010KT 9999 FEW027 BKN/// 22/15 Q1019 RMK 1CU027     A3012=,
20180104_010000.002,1,ROIG,,,,0,20180104010000,-1,-1,-1,-1,110,-1,11,-1,-1,-1,-1,,9999,0,0,1,FEW 30,1,23,1,15,1019,ROIG 040100Z 11011KT 9999 FEW030 23/15 Q1019 RMK 1CU030 A3011=,
20180104_020000.002,1,ROIG,,,,0,20180104020000,-1,-1,-1,-1,110,-1,12,-1,-1,-1,-1,,9999,0,0,2,FEW 30   SCT -9999,1,23,1,16,1019,ROIG 040200Z 11012KT 9999 FEW030 SCT/// 23/16 Q1019 RMK 1CU030     A3010=,
20180104_030000.002,1,ROIG,,,,0,20180104030000,-1,-1,-1,-1,120,-1,12,-1,-1,-1,-1,,9999,0,0,1,FEW 25,1,24,1,16,1018,ROIG 040300Z 12012KT 9999 FEW025 24/16 Q1018 RMK 2CU025 A3009=,
20180104_040000.002,1,ROIG,,,,0,20180104040000,-1,-1,-1,-1,110,-1,11,-1,-1,-1,-1,,9999,0,0,2,SCT 25   BKN 50,1,23,1,16,1017,ROIG 040400Z 11011KT 9999 SCT025 BKN050 23/16 Q1017 RMK 3CU025     5SC050 A3005=,
20180104_050000.002,1,ROIG,,,,0,20180104050000,-1,-1,-1,-1,120,-1,11,-1,-1,-1,-1,,9999,0,0,2,SCT 25   BKN -9999,1,24,1,16,1016,ROIG 040500Z 12011KT 9999 SCT025 BKN/// 24/16 Q1016 RMK 3CU025     A3002=,
20180104_060000.003,1,ROIG,,,,0,20180104060000,-1,-1,-1,-1,120,-1,10,-1,-1,-1,-1,,9999,0,0,2,FEW 24   BKN 60,1,23,1,16,1016,ROIG 040600Z 12010KT 9999 FEW024 BKN060 23/16 Q1016 RMK 2CU024     6SC060 A3001=,
20180104_070000.002,1,ROIG,,,,0,20180104070000,-1,-1,-1,-1,120,-1,11,-1,-1,-1,-1,,9999,0,0,2,FEW 24   BKN 70,1,22,1,16,1015,ROIG 040700Z 12011KT 9999 FEW024 BKN070 22/16 Q1015 RMK 2CU024     7AC070 A3000=,
20180104_080000.002,1,ROIG,,,,0,20180104080000,-1,-1,-1,-1,110,-1,11,-1,-1,-1,-1,,9999,0,1,3,FEW 24   SCT 45   BKN 60,1,22,1,16,1015,ROIG 040800Z 11011KT 9999 -SHRA FEW024 SCT045 BKN060 22/16     Q1015 RMK 1CU024 3SC045 7SC060 A2999=,- RA SH
20180104_090000.002,1,ROIG,,,,0,20180104090000,-1,-1,-1,-1,110,-1,11,-1,-1,-1,-1,,9999,0,0,2,FEW 20   BKN 45,1,22,1,17,1015,ROIG 040900Z 11011KT 9999 FEW020 BKN045 22/17 Q1015 RMK 2CU020     7SC045 A3000=,
20180104_100000.002,1,ROIG,,,,0,20180104100000,-1,-1,-1,-1,110,-1,10,-1,-1,80,140,,9999,0,0,2,FEW 21   BKN 50,1,22,1,18,1015,ROIG 041000Z 11010KT 080V140 9999 FEW021 BKN050 22/18 Q1015     RMK 1CU021 7SC050 A3000=,
20180104_110000.002,1,ROIG,,,,0,20180104110000,-1,-1,-1,-1,130,-1,11,-1,-1,-1,-1,,9999,0,1,2,FEW 21   BKN 40,1,22,1,18,1015,ROIG 041100Z 13011KT 9999 VCSH FEW021 BKN040 22/18 Q1015 RMK     2CU021 7SC040 A3000=,VC SH
20180104_210000.002,0,ROIG,,,,0,20180104210000,-1,-1,-1,-1,270,-1,7,-1,-1,-1,-1,,9999,0,1,3,FEW 17   BKN 28   BKN 50,1,20,1,19,1013,ROIG 042100Z 27007KT 9999 -SHRA FEW017 BKN028 BKN050 20/19     Q1013 RMK 2CU017 6CU028 7SC050 A2993=,- RA SH
20180104_220000.002,1,ROIG,,,,0,20180104220000,-1,-1,-1,-1,270,-1,6,-1,-1,230,300,,9999,0,1,3,FEW 7   SCT 15   BKN 34,1,20,1,19,1014,ROIG 042200Z 27006KT 230V300 9999 -SHRA FEW007 SCT015 BKN034     20/19 Q1014 RMK 1ST007 4CU015 7CU034 A2995=,- RA SH
20180104_230000.002,1,ROIG,,,,0,20180104230000,-1,-1,-1,-1,270,-1,7,-1,-1,-1,-1,,9999,1,1,3,FEW 9   BKN 17   BKN 37,1,20,1,19,1014,ROIG 042300Z 27007KT 9999 R04/1700D -SHRA FEW009 BKN017 BKN037     20/19 Q1014 RMK 2CU009 5CU017 7SC037 A2997=,- RA SH
20180105_000000.002,1,ROIG,,,,0,20180105000000,-1,-1,-1,-1,340,-1,7,-1,-1,310,20,,9999,0,1,3,FEW 18   BKN 28   BKN 60,1,20,1,18,1015,ROIG 050000Z 34007KT 310V020 9999 -SHRA FEW018 BKN028 BKN060     20/18 Q1015 RMK 2CU018 6CU028 7SC060 A2998=,- RA SH
20180105_010000.003,1,ROIG,,,,0,20180105010000,-1,-1,-1,-1,350,-1,11,-1,-1,-1,-1,,9999,0,1,3,FEW 15   BKN 21   BKN 33,1,21,1,18,1015,ROIG 050100Z 35011KT 9999 -SHRA FEW015 BKN021 BKN033 21/18     Q1015 RMK 2CU015 5CU021 7SC033 A3000=,- RA SH
20180105_020000.002,1,ROIG,,,,0,20180105020000,-1,-1,-1,-1,340,-1,10,-1,-1,-1,-1,,9999,0,1,3,SCT 12   BKN 22   BKN 34,1,20,1,19,1016,ROIG 050200Z 34010KT 9999 -SHRA SCT012 BKN022 BKN034 20/19     Q1016 RMK 3CU012 6CU022 7SC034 A3002=,- RA SH
20180105_030000.002,1,ROIG,,,,0,20180105030000,-1,-1,-1,-1,340,-1,9,-1,19,-1,-1,,9999,0,1,3,FEW 15   BKN 21   BKN 50,1,20,1,18,1016,ROIG 050300Z 34009G19KT 9999 -SHRA FEW015 BKN021 BKN050 20/18     Q1016 RMK 2CU015 5CU021 7SC050 A3000=,- RA SH
20180105_040000.002,1,ROIG,,,,0,20180105040000,-1,-1,-1,-1,360,-1,8,-1,-1,-1,-1,,9999,0,1,3,SCT 9   BKN 15   BKN 40,1,20,1,19,1015,ROIG 050400Z 36008KT 9999 -SHRA SCT009 BKN015 BKN040 20/19     Q1015 RMK 3CU009 6CU015 7SC040 A2998=,- RA SH
20180105_050000.002,1,ROIG,,,,0,20180105050000,-1,-1,-1,-1,10,-1,11,-1,-1,-1,-1,,9999,0,1,2,BKN 15   BKN 50,1,20,1,18,1014,ROIG 050500Z 01011KT 9999 -SHRA BKN015 BKN050 20/18 Q1014 RMK     5CU015 7SC050 A2996=,- RA SH
20180105_060000.002,1,ROIG,,,,0,20180105060000,-1,-1,-1,-1,10,-1,11,-1,-1,-1,-1,,9999,0,1,2,BKN 17   BKN 60,1,19,1,17,1014,ROIG 050600Z 01011KT 9999 -SHRA BKN017 BKN060 19/17 Q1014 RMK     6CU017 7SC060 A2996=,- RA SH
20180105_070000.002,1,ROIG,,,,0,20180105070000,-1,-1,-1,-1,10,-1,13,-1,-1,-1,-1,,9999,0,0,3,FEW 16   BKN 22   BKN 60,1,19,1,17,1014,ROIG 050700Z 01013KT 9999 FEW016 BKN022 BKN060 19/17 Q1014 RMK     2CU016 5CU022 7SC060 A2996=,
20180105_080000.002,1,ROIG,,,,0,20180105080000,-1,-1,-1,-1,20,-1,15,-1,-1,-1,-1,,9999,0,1,3,FEW 16   BKN 22   BKN 60,1,19,1,16,1015,ROIG 050800Z 02015KT 9999 -SHRA FEW016 BKN022 BKN060 19/16     Q1015 RMK 2CU016 6CU022 7SC060 A2997=,- RA SH
20180105_090000.002,1,ROIG,,,,0,20180105090000,-1,-1,-1,-1,20,-1,13,-1,-1,-1,-1,,9999,0,1,2,SCT 20   BKN 30,1,19,1,15,1015,ROIG 050900Z 02013KT 9999 -SHRA SCT020 BKN030 19/15 Q1015 RMK     3CU020 7CU030 A3000=,- RA SH
20180105_100000.002,1,ROIG,,,,0,20180105100000,-1,-1,-1,-1,20,-1,13,-1,-1,-1,-1,,9999,0,0,3,FEW 20   BKN 27   BKN 60,1,19,1,15,1016,ROIG 051000Z 02013KT 9999 FEW020 BKN027 BKN060 19/15 Q1016 RMK     2CU020 6CU027 7SC060 A3001=,
20180105_110000.002,1,ROIG,,,,0,20180105110000,-1,-1,-1,-1,20,-1,13,-1,-1,-1,-1,,9999,0,0,2,SCT 20   BKN 30,1,18,1,15,1017,ROIG 051100Z 02013KT 9999 SCT020 BKN030 18/15 Q1017 RMK 3CU020     7CU030 A3004=,
20180105_210000.003,0,ROIG,,,,0,20180105210000,-1,-1,-1,-1,30,-1,14,-1,-1,-1,-1,,9999,0,0,2,SCT 24   BKN 30,1,18,1,14,1017,ROIG 052100Z 03014KT 9999 SCT024 BKN030 18/14 Q1017 RMK 3CU024     7CU030 A3005=,
20180105_220000.002,1,ROIG,,,,0,20180105220000,-1,-1,-1,-1,50,-1,16,-1,-1,-1,-1,,9999,0,1,2,SCT 23   BKN 30,1,19,1,14,1018,ROIG 052200Z 05016KT 9999 -SHRA SCT023 BKN030 19/14 Q1018 RMK     4CU023 7CU030 A3006=,- RA SH
20180105_230000.002,1,ROIG,,,,0,20180105230000,-1,-1,-1,-1,40,-1,17,-1,-1,-1,-1,,9999,0,0,2,BKN 26   BKN 30,1,19,1,14,1018,ROIG 052300Z 04017KT 9999 BKN026 BKN030 19/14 Q1018 RMK 5CU026     7CU030 A3007=,
20180106_000000.002,1,ROIG,,,,0,20180106000000,-1,-1,-1,-1,40,-1,15,-1,-1,-1,-1,,9999,0,0,2,BKN 27   BKN 32,1,19,1,14,1019,ROIG 060000Z 04015KT 9999 BKN027 BKN032 19/14 Q1019 RMK 5CU027     7CU032 A3010=,
20180106_010000.002,1,ROIG,,,,0,20180106010000,-1,-1,-1,-1,50,-1,15,-1,-1,-1,-1,,9999,0,0,2,BKN 27   BKN 35,1,19,1,14,1019,ROIG 060100Z 05015KT 9999 BKN027 BKN035 19/14 Q1019 RMK 6CU027     7SC035 A3010=,
20180106_020000.002,1,ROIG,,,,0,20180106020000,-1,-1,-1,-1,50,-1,15,-1,-1,-1,-1,,9999,0,0,2,BKN 27   BKN 35,1,20,1,14,1019,ROIG 060200Z 05015KT 9999 BKN027 BKN035 20/14 Q1019 RMK 6CU027     7SC035 A3011=,
20180106_030000.002,1,ROIG,,,,0,20180106030000,-1,-1,-1,-1,60,-1,14,-1,-1,-1,-1,,9999,0,0,2,BKN 25   BKN 35,1,20,1,14,1018,ROIG 060300Z 06014KT 9999 BKN025 BKN035 20/14 Q1018 RMK 6CU025     7SC035 A3008=,
20180106_040000.002,1,ROIG,,,,0,20180106040000,-1,-1,-1,-1,50,-1,15,-1,-1,-1,-1,,9999,0,0,2,BKN 26   BKN 36,1,20,1,14,1017,ROIG 060400Z 05015KT 9999 BKN026 BKN036 20/14 Q1017 RMK 6CU026     7SC036 A3005=,
20180106_050000.002,1,ROIG,,,,0,20180106050000,-1,-1,-1,-1,50,-1,15,-1,-1,-1,-1,,9999,0,0,2,BKN 25   BKN 33,1,19,1,14,1016,ROIG 060500Z 05015KT 9999 BKN025 BKN033 19/14 Q1016 RMK 5CU025     7CU033 A3003=,
20180106_060000.002,1,ROIG,,,,0,20180106060000,-1,-1,-1,-1,60,-1,15,-1,-1,-1,-1,,9999,0,0,2,BKN 24   BKN 30,1,19,1,14,1016,ROIG 060600Z 06015KT 9999 BKN024 BKN030 19/14 Q1016 RMK 5CU024     7CU030 A3000=,
20180106_070000.002,1,ROIG,,,,0,20180106070000,-1,-1,-1,-1,60,-1,15,-1,-1,-1,-1,,9999,0,0,2,BKN 24   BKN 30,1,19,1,14,1016,ROIG 060700Z 06015KT 9999 BKN024 BKN030 19/14 Q1016 RMK 5CU024     7CU030 A3001=,
20180106_080000.002,1,ROIG,,,,0,20180106080000,-1,-1,-1,-1,60,-1,14,-1,-1,-1,-1,,9999,0,0,2,BKN 23   BKN 30,1,19,1,14,1016,ROIG 060800Z 06014KT 9999 BKN023 BKN030 19/14 Q1016 RMK 5CU023     7CU030 A3001=,
20180106_090000.002,1,ROIG,,,,0,20180106090000,-1,-1,-1,-1,50,-1,17,-1,-1,-1,-1,,9999,0,0,2,BKN 25   BKN 33,1,19,1,14,1016,ROIG 060900Z 05017KT 9999 BKN025 BKN033 19/14 Q1016 RMK 5CU025     7CU033 A3001=,
20180106_100000.002,1,ROIG,,,,0,20180106100000,-1,-1,-1,-1,50,-1,18,-1,-1,-1,-1,,9999,0,1,3,FEW 13   SCT 20   BKN 50,1,17,1,16,1017,ROIG 061000Z 05018KT 9999 -SHRA FEW013 SCT020 BKN050 17/16     Q1017 RMK 2CU013 4CU020 7SC050 A3004=,- RA SH
20180106_110000.002,1,ROIG,,,,0,20180106110000,-1,-1,-1,-1,50,-1,18,-1,-1,-1,-1,,7000,0,1,2,SCT 7   BKN 15,1,17,1,16,1017,ROIG 061100Z 05018KT 7000 -SHRA SCT007 BKN015 17/16 Q1017 RMK     3ST007 6CU015 A3005=,- RA SH
20180106_210000.002,0,ROIG,,,,0,20180106210000,-1,-1,-1,-1,60,-1,13,-1,-1,-1,-1,,7000,0,1,3,SCT 7   BKN 13   BKN 47,1,18,1,17,1016,ROIG 062100Z 06013KT 7000 -RA SCT007 BKN013 BKN047 18/17 Q1016     RMK 3ST007 5CU013 7SC047 A3001=,- RA
20180106_220000.002,1,ROIG,,,,0,20180106220000,-1,-1,-1,-1,50,-1,17,-1,-1,-1,-1,,7000,0,1,2,SCT 7   BKN 15,1,18,1,17,1016,ROIG 062200Z 05017KT 7000 -RA SCT007 BKN015 18/17 Q1016 RMK     3ST007 7CU015 A3002=,- RA
20180106_230000.002,1,ROIG,,,,0,20180106230000,-1,-1,-1,-1,50,-1,15,-1,-1,-1,-1,,8000,0,1,3,SCT 7   BKN 13   BKN 50,1,18,1,18,1017,ROIG 062300Z 05015KT 8000 -RA SCT007 BKN013 BKN050 18/18 Q1017     RMK 4ST007 6CU013 7SC050 A3003=,- RA
20180107_000000.002,1,ROIG,,,,0,20180107000000,-1,-1,-1,-1,60,-1,16,-1,-1,-1,-1,,6000,0,1,3,SCT 7   BKN 12   BKN 40,1,19,1,18,1017,ROIG 070000Z 06016KT 6000 RA SCT007 BKN012 BKN040 19/18 Q1017     RMK 3ST007 5CU012 7SC040 A3006=,RA
20180107_010000.003,1,ROIG,,,,0,20180107010000,-1,-1,-1,-1,60,-1,21,-1,-1,-1,-1,,8000,0,1,3,SCT 8   BKN 15   BKN 40,1,18,1,17,1018,ROIG 070100Z 06021KT 8000 -RA SCT008 BKN015 BKN040 18/17 Q1018     RMK 3CU008 5CU015 7SC040 A3007=,- RA
20180107_020000.002,1,ROIG,,,,0,20180107020000,-1,-1,-1,-1,50,-1,16,-1,-1,-1,-1,,8000,0,1,3,SCT 7   BKN 14   BKN 35,1,19,1,18,1018,ROIG 070200Z 05016KT 8000 -RA SCT007 BKN014 BKN035 19/18 Q1018     RMK 3ST007 5CU014 7SC035 A3009=,- RA
20180107_030000.002,1,ROIG,,,,0,20180107030000,-1,-1,-1,-1,40,-1,16,-1,-1,-1,-1,,8000,0,1,3,FEW 7   SCT 13   BKN 35,1,18,1,17,1018,ROIG 070300Z 04016KT 8000 -RA FEW007 SCT013 BKN035 18/17 Q1018     RMK 2ST007 4CU013 7SC035 A3007=,- RA
20180107_040000.002,1,ROIG,,,,0,20180107040000,-1,-1,-1,-1,50,-1,16,-1,-1,-1,-1,,9999,0,1,3,FEW 7   BKN 15   BKN 35,1,18,1,17,1017,ROIG 070400Z 05016KT 9999 -RA FEW007 BKN015 BKN035 18/17 Q1017     RMK 2ST007 5CU015 7SC035 A3005=,- RA
20180107_050000.002,1,ROIG,,,,0,20180107050000,-1,-1,-1,-1,60,-1,16,-1,-1,-1,-1,,9999,0,0,3,FEW 12   BKN 20   BKN 45,1,19,1,18,1016,ROIG 070500Z 06016KT 9999 FEW012 BKN020 BKN045 19/18 Q1016 RMK     1CU012 5CU020 7SC045 A3001=,
20180107_060000.002,1,ROIG,,,,0,20180107060000,-1,-1,-1,-1,70,-1,20,-1,-1,-1,-1,,9999,0,0,3,FEW 12   SCT 50   OVC 70,1,19,1,17,1015,ROIG 070600Z 07020KT 9999 FEW012 SCT050 OVC070 19/17 Q1015 RMK     2CU012 3SC050 8AS070 A2999=,
20180107_070000.002,1,ROIG,,,,0,20180107070000,-1,-1,-1,-1,80,-1,17,-1,-1,-1,-1,,9999,0,0,2,FEW 12   BKN 60,1,20,1,17,1015,ROIG 070700Z 08017KT 9999 FEW012 BKN060 20/17 Q1015 RMK 1CU012     7SC060 A2998=,
20180107_080000.002,1,ROIG,,,,0,20180107080000,-1,-1,-1,-1,90,-1,16,-1,-1,-1,-1,,9999,0,0,3,FEW 15   SCT 50   OVC 70,1,20,1,17,1016,ROIG 070800Z 09016KT 9999 FEW015 SCT050 OVC070 20/17 Q1016 RMK     1CU015 4SC050 8AS070 A3001=,
20180107_090000.002,1,ROIG,,,,0,20180107090000,-1,-1,-1,-1,90,-1,14,-1,-1,-1,-1,,9999,0,0,3,FEW 17   SCT 50   BKN 60,1,20,1,17,1016,ROIG 070900Z 09014KT 9999 FEW017 SCT050 BKN060 20/17 Q1016 RMK     1CU017 3SC050 7SC060 A3001=,
20180107_100000.002,1,ROIG,,,,0,20180107100000,-1,-1,-1,-1,80,-1,17,-1,-1,-1,-1,,9999,0,0,3,FEW 17   SCT 50   BKN 60,1,21,1,16,1016,ROIG 071000Z 08017KT 9999 FEW017 SCT050 BKN060 21/16 Q1016 RMK     1CU017 3SC050 7SC060 A3000=,
20180107_110000.002,1,ROIG,,,,0,20180107110000,-1,-1,-1,-1,70,-1,16,-1,-1,-1,-1,,9999,0,1,2,FEW 17   BKN 42,1,21,1,17,1016,ROIG 071100Z 07016KT 9999 -RA FEW017 BKN042 21/17 Q1016 RMK     1CU017 7SC042 A3003=,- RA
20180107_210000.003,0,ROIG,,,,0,20180107210000,-1,-1,-1,-1,130,-1,12,-1,-1,-1,-1,,9999,0,0,2,SCT 7   BKN 15,1,21,1,20,1012,ROIG 072100Z 13012KT 9999 SCT007 BKN015 21/20 Q1012 RMK 4ST007     7CU015 A2989=,
20180107_220000.002,1,ROIG,,,,0,20180107220000,-1,-1,-1,-1,130,-1,6,-1,-1,100,160,,7000,0,1,2,SCT 7   BKN 13,1,22,1,21,1012,ROIG 072200Z 13006KT 100V160 7000 -SHRA SCT007 BKN013 22/21     Q1012 RMK 4ST007 7CU013 A2991=,- RA SH
20180107_230000.002,1,ROIG,,,,0,20180107230000,-1,-1,-1,-1,140,-1,5,-1,-1,-1,-1,,8000,0,1,2,SCT 8   BKN 11,1,22,1,21,1012,ROIG 072300Z 14005KT 8000 -SHRA SCT008 BKN011 22/21 Q1012 RMK     3ST008 7CU011 A2991=,- RA SH
20180108_000000.002,1,ROIG,,,,0,20180108000000,-1,-1,-1,-1,999,-1,7,-1,-1,-1,-1,,6000,0,1,2,SCT 4   BKN 11,1,22,1,22,1012,ROIG 080000Z VRB07KT 6000 -RA SCT004 BKN011 22/22 Q1012 RMK     4ST004 7CU011 A2990=,- RA
20180108_010000.002,1,ROIG,,,,0,20180108010000,-1,-1,-1,-1,160,-1,8,-1,-1,-1,-1,,4000,0,2,2,SCT 4   BKN 11,1,22,1,22,1012,ROIG 080100Z 16008KT 4000 -RA BR SCT004 BKN011 22/22 Q1012 RMK     4ST004 7CU011 A2990=,- RA; BR
20180108_020000.002,1,ROIG,,,,0,20180108020000,-1,-1,-1,-1,180,-1,10,-1,-1,150,230,,9999,0,1,3,SCT 5   BKN 13   BKN 25,1,23,1,23,1011,ROIG 080200Z 18010KT 150V230 9999 -RA SCT005 BKN013 BKN025     23/23 Q1011 RMK 3ST005 5CU013 7CU025 A2988=,- RA
20180108_030000.002,1,ROIG,,,,0,20180108030000,-1,-1,-1,-1,220,-1,12,-1,-1,-1,-1,,9999,0,1,3,FEW 6   SCT 11   BKN 17,1,24,1,23,1011,ROIG 080300Z 22012KT 9999 -SHRA FEW006 SCT011 BKN017 24/23     Q1011 RMK 1ST006 4CU011 7CU017 A2986=,- RA SH
20180108_040000.002,1,ROIG,,,,0,20180108040000,-1,-1,-1,-1,250,-1,8,-1,-1,-1,-1,,9999,0,1,3,FEW 7   SCT 14   BKN 17,1,23,1,22,1010,ROIG 080400Z 25008KT 9999 -SHRA FEW007 SCT014 BKN017 23/22     Q1010 RMK 2ST007 4CU014 7CU017 A2985=,- RA SH
20180108_050000.002,1,ROIG,,,,0,20180108050000,-1,-1,-1,-1,270,-1,10,-1,21,230,300,,9999,0,1,3,FEW 13   BKN 20   BKN 47,1,22,1,21,1010,ROIG 080500Z 27010G21KT 230V300 9999 -SHRA FEW013 BKN020     BKN047 22/21 Q1010 RMK 2CU013 5CU020 7SC047 A2984=,- RA SH
20180108_060000.003,1,ROIG,,,,0,20180108060000,-1,-1,-1,-1,300,-1,11,-1,-1,-1,-1,,9999,0,1,2,FEW 18   BKN 50,1,22,1,19,1010,ROIG 080600Z 30011KT 9999 -RA FEW018 BKN050 22/19 Q1010 RMK     1CU018 7SC050 A2984=,- RA
20180108_070000.002,1,ROIG,,,,0,20180108070000,-1,-1,-1,-1,310,-1,10,-1,20,-1,-1,,9999,0,1,2,SCT 15   BKN 50,1,21,1,19,1010,ROIG 080700Z 31010G20KT 9999 -RA SCT015 BKN050 21/19 Q1010 RMK     4CU015 7SC050 A2985=,- RA
20180108_080000.002,1,ROIG,,,,0,20180108080000,-1,-1,-1,-1,330,-1,8,-1,-1,300,30,,9999,0,1,3,FEW 13   SCT 21   BKN 50,1,21,1,19,1011,ROIG 080800Z 33008KT 300V030 9999 -RA FEW013 SCT021 BKN050     21/19 Q1011 RMK 2CU013 3CU021 7SC050 A2987=,- RA
20180108_090000.002,1,ROIG,,,,0,20180108090000,-1,-1,-1,-1,10,-1,4,-1,-1,330,40,,9999,0,1,3,SCT 10   BKN 21   BKN 50,1,21,1,19,1012,ROIG 080900Z 01004KT 330V040 9999 -SHRA SCT010 BKN021 BKN050     21/19 Q1012 RMK 3CU010 6CU021 7SC050 A2990=,- RA SH
20180108_100000.002,1,ROIG,,,,0,20180108100000,-1,-1,-1,-1,360,-1,10,-1,-1,-1,-1,,9999,0,0,3,FEW 15   SCT 20   BKN 60,1,20,1,18,1013,ROIG 081000Z 36010KT 9999 FEW015 SCT020 BKN060 20/18 Q1013 RMK     1CU015 3CU020 7SC060 A2992=,
20180108_110000.002,1,ROIG,,,,0,20180108110000,-1,-1,-1,-1,10,-1,12,-1,-1,-1,-1,,9999,0,1,3,FEW 13   BKN 21   BKN 70,1,19,1,18,1014,ROIG 081100Z 01012KT 9999 -SHRA FEW013 BKN021 BKN070 19/18     Q1014 RMK 2CU013 6CU021 7AC070 A2996=,- RA SH
20180108_210000.003,0,ROIG,,,,0,20180108210000,-1,-1,-1,-1,10,-1,15,-1,-1,-1,-1,,7000,0,1,2,SCT 15   BKN 21,1,14,1,13,1019,ROIG 082100Z 01015KT 7000 -SHRA SCT015 BKN021 14/13 Q1019 RMK     3CU015 7CU021 A3009=,- RA SH
20180108_220000.002,1,ROIG,,,,0,20180108220000,-1,-1,-1,-1,10,-1,14,-1,-1,-1,-1,,9999,0,1,2,SCT 16   BKN 25,1,14,1,13,1020,ROIG 082200Z 01014KT 9999 -SHRA SCT016 BKN025 14/13 Q1020 RMK     3CU016 7CU025 A3013=,- RA SH
20180108_230000.003,1,ROIG,,,,0,20180108230000,-1,-1,-1,-1,10,-1,17,-1,-1,-1,-1,,9999,0,1,2,SCT 15   BKN 23,1,14,1,12,1020,ROIG 082300Z 01017KT 9999 -SHRA SCT015 BKN023 14/12 Q1020 RMK     3CU015 7CU023 A3014=,- RA SH
20180109_000000.002,1,ROIG,,,,0,20180109000000,-1,-1,-1,-1,10,-1,16,-1,-1,-1,-1,,9999,0,1,2,SCT 17   BKN 25,1,14,1,11,1021,ROIG 090000Z 01016KT 9999 -SHRA SCT017 BKN025 14/11 Q1021 RMK     3CU017 7CU025 A3016=,- RA SH
20180109_010000.002,1,ROIG,,,,0,20180109010000,-1,-1,-1,-1,10,-1,15,-1,-1,-1,-1,,9999,0,1,2,SCT 19   BKN 27,1,14,1,11,1022,ROIG 090100Z 01015KT 9999 -SHRA SCT019 BKN027 14/11 Q1022 RMK     4CU019 7CU027 A3018=,- RA SH
20180109_020000.002,1,ROIG,,,,0,20180109020000,-1,-1,-1,-1,10,-1,14,-1,-1,-1,-1,,9999,0,1,3,FEW 19   BKN 25   BKN 90,1,13,1,11,1021,ROIG 090200Z 01014KT 9999 -SHRA FEW019 BKN025 BKN090 13/11     Q1021 RMK 2CU019 5CU025 7AS090 A3017=,- RA SH
20180109_030000.002,1,ROIG,,,,0,20180109030000,-1,-1,-1,-1,10,-1,15,-1,-1,-1,-1,,9999,0,1,3,FEW 19   BKN 25   BKN 90,1,13,1,10,1021,ROIG 090300Z 01015KT 9999 -SHRA FEW019 BKN025 BKN090 13/10     Q1021 RMK 2CU019 5CU025 7AS090 A3015=,- RA SH
20180109_040000.002,1,ROIG,,,,0,20180109040000,-1,-1,-1,-1,20,-1,16,-1,26,-1,-1,,9999,0,1,3,SCT 25   BKN 60   OVC 90,1,13,1,10,1019,ROIG 090400Z 02016G26KT 9999 -RA SCT025 BKN060 OVC090 13/10     Q1019 RMK 4CU025 5SC060 8AS090 A3011=,- RA
20180109_050000.002,1,ROIG,,,,0,20180109050000,-1,-1,-1,-1,20,-1,15,-1,-1,-1,-1,,9999,0,1,2,BKN 27   OVC 80,1,13,1,9,1019,ROIG 090500Z 02015KT 9999 -RA BKN027 OVC080 13/09 Q1019 RMK     5CU027 8AS080 A3009=,- RA
20180109_060000.002,1,ROIG,,,,0,20180109060000,-1,-1,-1,-1,10,-1,13,-1,-1,350,50,,9999,0,0,3,SCT 27   BKN 35   OVC 80,1,14,1,8,1019,ROIG 090600Z 01013KT 350V050 9999 SCT027 BKN035 OVC080 14/08     Q1019 RMK 3CU027 5SC035 8AS080 A3009=,
20180109_070000.002,1,ROIG,,,,0,20180109070000,-1,-1,-1,-1,10,-1,17,-1,-1,-1,-1,,9999,0,0,2,SCT 27   BKN 70,1,14,1,8,1018,ROIG 090700Z 01017KT 9999 SCT027 BKN070 14/08 Q1018 RMK 4CU027     7AC070 A3007=,
20180109_080000.002,1,ROIG,,,,0,20180109080000,-1,-1,-1,-1,10,-1,12,-1,-1,-1,-1,,9999,0,0,2,BKN 32   OVC 80,1,13,1,8,1019,ROIG 090800Z 01012KT 9999 BKN032 OVC080 13/08 Q1019 RMK 5CU032     8AS080 A3012=,
20180109_090000.002,1,ROIG,,,,0,20180109090000,-1,-1,-1,-1,10,-1,12,-1,-1,-1,-1,,9999,0,0,2,BKN 29   BKN 80,1,13,1,8,1020,ROIG 090900Z 01012KT 9999 BKN029 BKN080 13/08 Q1020 RMK 5CU029     7AC080 A3015=,
20180109_100000.002,1,ROIG,,,,0,20180109100000,-1,-1,-1,-1,10,-1,12,-1,-1,-1,-1,,9999,0,0,3,SCT 28   BKN 35   BKN 80,1,13,1,8,1021,ROIG 091000Z 01012KT 9999 SCT028 BKN035 BKN080 13/08 Q1021 RMK     3CU028 5CU035 7AC080 A3016=,
20180109_110000.002,1,ROIG,,,,0,20180109110000,-1,-1,-1,-1,20,-1,12,-1,-1,-1,-1,,9999,0,0,3,FEW 27   BKN 34   BKN 80,1,13,1,9,1022,ROIG 091100Z 02012KT 9999 FEW027 BKN034 BKN080 13/09 Q1022 RMK     2CU027 5CU034 7AC080 A3018=,
20180109_210000.002,0,ROIG,,,,0,20180109210000,-1,-1,-1,-1,350,-1,6,-1,-1,-1,-1,,9999,0,1,2,BKN 36   BKN 70,1,12,1,8,1023,ROIG 092100Z 35006KT 9999 -SHRA BKN036 BKN070 12/08 Q1023 RMK     5CU036 7AC070 A3023=,- RA SH
20180109_220000.002,1,ROIG,,,,0,20180109220000,-1,-1,-1,-1,10,-1,10,-1,-1,-1,-1,,9999,0,1,2,BKN 33   BKN 70,1,12,1,9,1023,ROIG 092200Z 01010KT 9999 -SHRA BKN033 BKN070 12/09 Q1023 RMK     5CU033 7AC070 A3023=,- RA SH
20180109_230000.002,1,ROIG,,,,0,20180109230000,-1,-1,-1,-1,10,-1,10,-1,-1,-1,-1,,9999,0,1,2,SCT 36   BKN 120,1,13,1,8,1024,ROIG 092300Z 01010KT 9999 -SHRA SCT036 BKN120 13/08 Q1024 RMK     3CU036 6AC120 A3024=,- RA SH
20180110_000000.002,1,ROIG,,,,0,20180110000000,-1,-1,-1,-1,20,-1,10,-1,-1,-1,-1,,9999,0,1,2,FEW 40   BKN 90,1,14,1,8,1024,ROIG 100000Z 02010KT 9999 -SHRA FEW040 BKN090 14/08 Q1024 RMK     2CU040 7AC090 A3026=,- RA SH
20180110_010000.002,1,ROIG,,,,0,20180110010000,-1,-1,-1,-1,20,-1,8,-1,-1,-1,-1,,9999,0,1,2,SCT 39   BKN 100,1,15,1,8,1025,ROIG 100100Z 02008KT 9999 -SHRA SCT039 BKN100 15/08 Q1025 RMK     4CU039 7AC100 A3028=,- RA SH
20180110_020000.002,1,ROIG,,,,0,20180110020000,-1,-1,-1,-1,20,-1,11,-1,-1,-1,-1,,9999,0,0,2,SCT 38   BKN 100,1,15,1,8,1024,ROIG 100200Z 02011KT 9999 SCT038 BKN100 15/08 Q1024 RMK 3CU038     7AC100 A3025=,
20180110_030000.002,1,ROIG,,,,0,20180110030000,-1,-1,-1,-1,10,-1,12,-1,-1,-1,-1,,9999,0,0,2,BKN 38   BKN 120,1,16,1,7,1023,ROIG 100300Z 01012KT 9999 BKN038 BKN120 16/07 Q1023 RMK 5CU038     7AC120 A3023=,
20180110_040000.003,1,ROIG,,,,0,20180110040000,-1,-1,-1,-1,10,-1,11,-1,-1,340,40,,9999,0,0,2,BKN 36   BKN 120,1,16,1,8,1023,ROIG 100400Z 01011KT 340V040 9999 BKN036 BKN120 16/08 Q1023     RMK 6CU036 7AC120 A3022=,
20180110_050000.002,1,ROIG,,,,0,20180110050000,-1,-1,-1,-1,10,-1,9,-1,-1,-1,-1,,9999,0,0,3,SCT 37   BKN 45   BKN 120,1,16,1,8,1022,ROIG 100500Z 01009KT 9999 SCT037 BKN045 BKN120 16/08 Q1022 RMK     4CU037 5SC045 7AC120 A3019=,
20180110_060000.002,1,ROIG,,,,0,20180110060000,-1,-1,-1,-1,10,-1,9,-1,-1,-1,-1,,9999,0,0,3,SCT 35   BKN 43   BKN 120,1,15,1,8,1022,ROIG 100600Z 01009KT 9999 SCT035 BKN043 BKN120 15/08 Q1022 RMK     4CU035 5SC043 7AC120 A3019=,
20180110_070000.002,1,ROIG,,,,0,20180110070000,-1,-1,-1,-1,10,-1,10,-1,-1,320,30,,9999,0,0,2,BKN 37   BKN 120,1,15,1,8,1022,ROIG 100700Z 01010KT 320V030 9999 BKN037 BKN120 15/08 Q1022     RMK 5CU037 7AC120 A3018=,
20180110_080000.002,1,ROIG,,,,0,20180110080000,-1,-1,-1,-1,10,-1,9,-1,-1,340,40,,9999,0,0,3,SCT 37   BKN 47   BKN 150,1,15,1,7,1022,ROIG 100800Z 01009KT 340V040 9999 SCT037 BKN047 BKN150 15/07     Q1022 RMK 3CU037 5SC047 7AC150 A3020=,
20180110_090000.002,1,ROIG,,,,0,20180110090000,-1,-1,-1,-1,10,-1,11,-1,-1,-1,-1,,9999,0,0,2,SCT 35   BKN 43,1,14,1,7,1023,ROIG 100900Z 01011KT 9999 SCT035 BKN043 14/07 Q1023 RMK 4CU035     6SC043 A3021=,
20180110_100000.002,1,ROIG,,,,0,20180110100000,-1,-1,-1,-1,10,-1,11,-1,-1,-1,-1,,9999,0,0,2,SCT 40   BKN 150,1,14,1,6,1023,ROIG 101000Z 01011KT 9999 SCT040 BKN150 14/06 Q1023 RMK 3SC040     7AC150 A3023=,
20180110_110000.002,1,ROIG,,,,0,20180110110000,-1,-1,-1,-1,10,-1,11,-1,-1,-1,-1,,9999,0,0,2,SCT 45   BKN 160,1,14,1,6,1024,ROIG 101100Z 01011KT 9999 SCT045 BKN160 14/06 Q1024 RMK 3SC045     7AC160 A3024=,
20180110_210000.002,0,ROIG,,,,0,20180110210000,-1,-1,-1,-1,20,-1,15,-1,-1,350,50,,9999,0,0,1,SCT 43,1,13,1,5,1025,ROIG 102100Z 02015KT 350V050 9999 SCT043 13/05 Q1025 RMK     4SC043 A3028=,
20180110_220000.002,1,ROIG,,,,0,20180110220000,-1,-1,-1,-1,20,-1,15,-1,-1,350,50,,9999,0,0,1,BKN 37,1,13,1,5,1025,ROIG 102200Z 02015KT 350V050 9999 BKN037 13/05 Q1025 RMK     5CU037 A3028=,
20180110_230000.003,1,ROIG,,,,0,20180110230000,-1,-1,-1,-1,30,-1,15,-1,-1,-1,-1,,9999,0,0,2,FEW 37   BKN 60,1,13,1,5,1025,ROIG 102300Z 03015KT 9999 FEW037 BKN060 13/05 Q1025 RMK 2CU037     5SC060 A3028=,
20180111_000000.002,1,ROIG,,,,0,20180111000000,-1,-1,-1,-1,20,-1,14,-1,-1,-1,-1,,9999,0,0,2,FEW 38   BKN 50,1,14,1,5,1026,ROIG 110000Z 02014KT 9999 FEW038 BKN050 14/05 Q1026 RMK 2CU038     5SC050 A3031=,
20180111_010000.002,1,ROIG,,,,0,20180111010000,-1,-1,-1,-1,20,-1,16,-1,-1,-1,-1,,9999,0,0,2,FEW 40   SCT 60,1,15,1,6,1026,ROIG 110100Z 02016KT 9999 FEW040 SCT060 15/06 Q1026 RMK 1CU040     3SC060 A3031=,
20180111_020000.002,1,ROIG,,,,0,20180111020000,-1,-1,-1,-1,30,-1,16,-1,-1,-1,-1,,9999,0,0,2,SCT 38   BKN 60,1,15,1,6,1026,ROIG 110200Z 03016KT 9999 SCT038 BKN060 15/06 Q1026 RMK 3CU038     5SC060 A3031=,
20180111_030000.001,1,ROIG,,,,0,20180111030000,-1,-1,-1,-1,20,-1,16,-1,-1,-1,-1,,9999,0,0,2,SCT 36   BKN 50,1,15,1,6,1025,ROIG 110300Z 02016KT 9999 SCT036 BKN050 15/06 Q1025 RMK 3CU036     6SC050 A3029=,
20180111_040000.002,1,ROIG,,,,0,20180111040000,-1,-1,-1,-1,10,-1,15,-1,-1,-1,-1,,9999,0,0,2,SCT 37   BKN 50,1,15,1,6,1024,ROIG 110400Z 01015KT 9999 SCT037 BKN050 15/06 Q1024 RMK 3CU037     6SC050 A3026=,
20180111_050000.002,1,ROIG,,,,0,20180111050000,-1,-1,-1,-1,10,-1,15,-1,-1,-1,-1,,9999,0,0,2,SCT 39   BKN 150,1,15,1,6,1023,ROIG 110500Z 01015KT 9999 SCT039 BKN150 15/06 Q1023 RMK 3CU039     7AC150 A3023=,
20180111_060000.002,1,ROIG,,,,0,20180111060000,-1,-1,-1,-1,20,-1,14,-1,-1,-1,-1,,9999,0,0,2,SCT 39   BKN 45,1,14,1,5,1023,ROIG 110600Z 02014KT 9999 SCT039 BKN045 14/05 Q1023 RMK 3CU039     6SC045 A3022=,
20180111_070000.002,1,ROIG,,,,0,20180111070000,-1,-1,-1,-1,10,-1,16,-1,-1,-1,-1,,9999,0,0,2,SCT 39   BKN 45,1,14,1,5,1023,ROIG 110700Z 01016KT 9999 SCT039 BKN045 14/05 Q1023 RMK 3CU039     7SC045 A3023=,
20180111_080000.002,1,ROIG,,,,0,20180111080000,-1,-1,-1,-1,10,-1,14,-1,-1,-1,-1,,9999,0,0,2,SCT 44   BKN 50,1,14,1,4,1024,ROIG 110800Z 01014KT 9999 SCT044 BKN050 14/04 Q1024 RMK 3SC044     7SC050 A3024=,
20180111_090000.002,1,ROIG,,,,0,20180111090000,-1,-1,-1,-1,10,-1,13,-1,-1,-1,-1,,9999,0,0,3,FEW 44   SCT 50   BKN 150,1,13,1,4,1025,ROIG 110900Z 01013KT 9999 FEW044 SCT050 BKN150 13/04 Q1025 RMK     2SC044 4SC050 6AC150 A3027=,
20180111_100000.002,1,ROIG,,,,0,20180111100000,-1,-1,-1,-1,20,-1,15,-1,-1,-1,-1,,9999,0,0,2,BKN 42   BKN 60,1,13,1,4,1025,ROIG 111000Z 02015KT 9999 BKN042 BKN060 13/04 Q1025 RMK 5SC042     7SC060 A3029=,
20180111_110000.002,1,ROIG,,,,0,20180111110000,-1,-1,-1,-1,10,-1,16,-1,-1,-1,-1,,9999,0,0,2,SCT 41   BKN 60,1,13,1,4,1026,ROIG 111100Z 01016KT 9999 SCT041 BKN060 13/04 Q1026 RMK 4SC041     7SC060 A3031=,
20180111_210000.002,0,ROIG,,,,0,20180111210000,-1,-1,-1,-1,10,-1,12,-1,-1,-1,-1,,9999,0,0,2,FEW 38   BKN 130,1,12,1,5,1026,ROIG 112100Z 01012KT 9999 FEW038 BKN130 12/05 Q1026 RMK 2SC038     7AC130 A3031=,
20180111_220000.002,1,ROIG,,,,0,20180111220000,-1,-1,-1,-1,360,-1,10,-1,-1,-1,-1,CAVOK,-1,0,0,0,,1,13,1,3,1027,ROIG 112200Z 36010KT CAVOK 13/03 Q1027 RMK A3034=,
20180111_230000.002,1,ROIG,,,,0,20180111230000,-1,-1,-1,-1,360,-1,11,-1,-1,-1,-1,CAVOK,-1,0,0,0,,1,13,1,2,1027,ROIG 112300Z 36011KT CAVOK 13/02 Q1027 RMK A3034=,
20180112_000000.002,1,ROIG,,,,0,20180112000000,-1,-1,-1,-1,20,-1,13,-1,-1,-1,-1,,9999,0,0,2,FEW 49   BKN 60,1,14,1,3,1028,ROIG 120000Z 02013KT 9999 FEW049 BKN060 14/03 Q1028 RMK 1SC049     5SC060 A3036=,
20180112_010000.003,1,ROIG,,,,0,20180112010000,-1,-1,-1,-1,20,-1,12,-1,-1,-1,-1,CAVOK,-1,0,0,0,,1,13,1,4,1028,ROIG 120100Z 02012KT CAVOK 13/04 Q1028 RMK 7SC060 A3036=,
20180112_020000.002,1,ROIG,,,,0,20180112020000,-1,-1,-1,-1,10,-1,12,-1,-1,-1,-1,CAVOK,-1,0,0,0,,1,14,1,2,1028,ROIG 120200Z 01012KT CAVOK 14/02 Q1028 RMK 7SC060 A3036=,
20180112_030000.002,1,ROIG,,,,0,20180112030000,-1,-1,-1,-1,10,-1,10,-1,-1,-1,-1,CAVOK,-1,0,0,0,,1,13,1,3,1027,ROIG 120300Z 01010KT CAVOK 13/03 Q1027 RMK 7SC060 A3035=,
20180112_040000.002,1,ROIG,,,,0,20180112040000,-1,-1,-1,-1,30,-1,14,-1,-1,-1,-1,,9999,0,0,2,FEW 48   BKN 60,1,14,1,4,1026,ROIG 120400Z 03014KT 9999 FEW048 BKN060 14/04 Q1026 RMK 2SC048     7SC060 A3031=,
20180112_050000.003,1,ROIG,,,,0,20180112050000,-1,-1,-1,-1,10,-1,13,-1,-1,-1,-1,,9999,0,0,2,BKN 40   BKN 60,1,14,1,4,1026,ROIG 120500Z 01013KT 9999 BKN040 BKN060 14/04 Q1026 RMK 5SC040     7SC060 A3030=,
20180112_060000.002,1,ROIG,,,,0,20180112060000,-1,-1,-1,-1,10,-1,13,-1,-1,-1,-1,,9999,0,0,2,FEW 45   BKN 60,1,15,1,4,1025,ROIG 120600Z 01013KT 9999 FEW045 BKN060 15/04 Q1025 RMK 2SC045     6SC060 A3028=,
20180112_070000.003,1,ROIG,,,,0,20180112070000,-1,-1,-1,-1,10,-1,11,-1,-1,-1,-1,,9999,0,0,2,SCT 41   BKN 60,1,14,1,3,1025,ROIG 120700Z 01011KT 9999 SCT041 BKN060 14/03 Q1025 RMK 3SC041     5SC060 A3028=,
20180112_080000.002,1,ROIG,,,,0,20180112080000,-1,-1,-1,-1,20,-1,16,-1,-1,-1,-1,,9999,0,0,2,SCT 40   BKN 60,1,13,1,5,1026,ROIG 120800Z 02016KT 9999 SCT040 BKN060 13/05 Q1026 RMK 4SC040     7SC060 A3030=,
20180112_090000.002,1,ROIG,,,,0,20180112090000,-1,-1,-1,-1,20,-1,14,-1,-1,-1,-1,,9999,0,0,2,FEW 43   BKN 60,1,13,1,4,1026,ROIG 120900Z 02014KT 9999 FEW043 BKN060 13/04 Q1026 RMK 2SC043     5SC060 A3031=,
20180112_100000.002,1,ROIG,,,,0,20180112100000,-1,-1,-1,-1,20,-1,16,-1,-1,-1,-1,,9999,0,0,2,FEW 40   BKN 60,1,13,1,5,1026,ROIG 121000Z 02016KT 9999 FEW040 BKN060 13/05 Q1026 RMK 2SC040     7SC060 A3032=,
20180112_110000.002,1,ROIG,,,,0,20180112110000,-1,-1,-1,-1,10,-1,16,-1,27,-1,-1,,9999,0,0,2,FEW 38   SCT 60,1,12,1,4,1027,ROIG 121100Z 01016G27KT 9999 FEW038 SCT060 12/04 Q1027 RMK     1CU038 4SC060 A3034=,
20180112_210000.002,0,ROIG,,,,0,20180112210000,-1,-1,-1,-1,360,-1,9,-1,-1,-1,-1,,9999,0,0,1,SCT 35,1,12,1,5,1027,ROIG 122100Z 36009KT 9999 SCT035 12/05 Q1027 RMK 3CU035 A3034=,
20180112_220000.002,1,ROIG,,,,0,20180112220000,-1,-1,-1,-1,10,-1,8,-1,-1,340,40,,9999,0,1,2,FEW 35   SCT 60,1,12,1,5,1027,ROIG 122200Z 01008KT 340V040 9999 -SHRA FEW035 SCT060 12/05     Q1027 RMK 1CU035 3SC060 A3034=,- RA SH
20180112_230000.002,1,ROIG,,,,0,20180112230000,-1,-1,-1,-1,10,-1,9,-1,-1,-1,-1,,9999,0,0,1,FEW 30,1,12,1,5,1027,ROIG 122300Z 01009KT 9999 FEW030 12/05 Q1027 RMK 1CU030 A3034=,
20180113_000000.002,1,ROIG,,,,0,20180113000000,-1,-1,-1,-1,20,-1,12,-1,-1,-1,-1,,9999,0,0,1,SCT 32,1,13,1,5,1028,ROIG 130000Z 02012KT 9999 SCT032 13/05 Q1028 RMK 3CU032 A3036=,
20180113_010000.003,1,ROIG,,,,0,20180113010000,-1,-1,-1,-1,20,-1,12,-1,-1,350,60,,9999,0,0,2,FEW 35   SCT 45,1,15,1,5,1028,ROIG 130100Z 02012KT 350V060 9999 FEW035 SCT045 15/05 Q1028     RMK 2CU035 3SC045 A3036=,
20180113_020000.002,1,ROIG,,,,0,20180113020000,-1,-1,-1,-1,10,-1,12,-1,-1,-1,-1,,9999,0,0,1,SCT 35,1,15,1,6,1028,ROIG 130200Z 01012KT 9999 SCT035 15/06 Q1028 RMK 4CU035 A3036=,
20180113_030000.002,1,ROIG,,,,0,20180113030000,-1,-1,-1,-1,20,-1,15,-1,-1,-1,-1,,9999,0,0,2,SCT 35   BKN 45,1,15,1,6,1027,ROIG 130300Z 02015KT 9999 SCT035 BKN045 15/06 Q1027 RMK 3CU035     5SC045 A3035=,
20180113_040000.002,1,ROIG,,,,0,20180113040000,-1,-1,-1,-1,30,-1,18,-1,-1,-1,-1,,9999,0,0,1,SCT 36,1,17,1,7,1027,ROIG 130400Z 03018KT 9999 SCT036 17/07 Q1027 RMK 3CU036 A3033=,
20180113_050000.002,1,ROIG,,,,0,20180113050000,-1,-1,-1,-1,30,-1,17,-1,-1,-1,-1,,9999,0,0,1,SCT 36,1,17,1,6,1025,ROIG 130500Z 03017KT 9999 SCT036 17/06 Q1025 RMK 4CU036 A3029=,
20180113_060000.002,1,ROIG,,,,0,20180113060000,-1,-1,-1,-1,20,-1,16,-1,26,-1,-1,,9999,0,0,2,FEW 36   SCT 46,1,17,1,8,1024,ROIG 130600Z 02016G26KT 9999 FEW036 SCT046 17/08 Q1024 RMK     2CU036 4SC046 A3026=,
20180113_070000.002,1,ROIG,,,,0,20180113070000,-1,-1,-1,-1,50,-1,19,-1,-1,-1,-1,,9999,0,1,2,SCT 33   BKN 45,1,15,1,9,1024,ROIG 130700Z 05019KT 9999 -SHRA SCT033 BKN045 15/09 Q1024 RMK     4CU033 7SC045 A3025=,- RA SH
20180113_080000.002,1,ROIG,,,,0,20180113080000,-1,-1,-1,-1,40,-1,18,-1,-1,-1,-1,,9999,0,1,2,BKN 32   BKN 45,1,15,1,9,1024,ROIG 130800Z 04018KT 9999 -SHRA BKN032 BKN045 15/09 Q1024 RMK     5CU032 6SC045 A3026=,- RA SH
20180113_090000.002,1,ROIG,,,,0,20180113090000,-1,-1,-1,-1,40,-1,17,-1,-1,-1,-1,,9999,0,0,1,BKN 33,1,15,1,9,1025,ROIG 130900Z 04017KT 9999 BKN033 15/09 Q1025 RMK 6CU033 A3027=,
20180113_100000.002,1,ROIG,,,,0,20180113100000,-1,-1,-1,-1,50,-1,15,-1,-1,-1,-1,,9999,0,0,1,SCT 38,1,15,1,7,1025,ROIG 131000Z 05015KT 9999 SCT038 15/07 Q1025 RMK 3CU038 A3028=,
20180113_110000.002,1,ROIG,,,,0,20180113110000,-1,-1,-1,-1,30,-1,14,-1,-1,-1,-1,,9999,0,0,2,SCT 33   BKN 70,1,15,1,9,1025,ROIG 131100Z 03014KT 9999 SCT033 BKN070 15/09 Q1025 RMK 3CU033     7AC070 A3028=,
20180113_210000.002,0,ROIG,,,,0,20180113210000,-1,-1,-1,-1,350,-1,7,-1,-1,310,20,,9999,0,1,2,SCT 32   BKN 45,1,15,1,12,1023,ROIG 132100Z 35007KT 310V020 9999 -SHRA SCT032 BKN045 15/12     Q1023 RMK 4CU032 7SC045 A3021=,- RA SH
20180113_220000.002,1,ROIG,,,,0,20180113220000,-1,-1,-1,-1,80,-1,10,-1,-1,-1,-1,,9999,0,1,2,SCT 25   BKN 70,1,16,1,11,1023,ROIG 132200Z 08010KT 9999 -SHRA SCT025 BKN070 16/11 Q1023 RMK     3CU025 5AC070 A3022=,- RA SH
20180113_230000.002,1,ROIG,,,,0,20180113230000,-1,-1,-1,-1,60,-1,12,-1,-1,-1,-1,,9999,0,1,3,FEW 20   BKN 50   BKN 80,1,16,1,13,1023,ROIG 132300Z 06012KT 9999 VCSH FEW020 BKN050 BKN080 16/13     Q1023 RMK 1CU020 5SC050 7AC080 A3023=,VC SH
20180114_000000.003,1,ROIG,,,,0,20180114000000,-1,-1,-1,-1,70,-1,12,-1,-1,-1,-1,,9999,0,0,3,FEW 20   SCT 50   BKN 90,1,18,1,12,1023,ROIG 140000Z 07012KT 9999 FEW020 SCT050 BKN090 18/12 Q1023 RMK     2CU020 3SC050 5AC090 A3023=,
20180114_010000.002,1,ROIG,,,,0,20180114010000,-1,-1,-1,-1,90,-1,16,-1,-1,-1,-1,,9999,0,1,3,SCT 20   BKN 45   BKN 90,1,18,1,13,1024,ROIG 140100Z 09016KT 9999 -SHRA SCT020 BKN045 BKN090 18/13     Q1024 RMK 4CU020 5SC045 6AC090 A3025=,- RA SH
20180114_020000.002,1,ROIG,,,,0,20180114020000,-1,-1,-1,-1,70,-1,14,-1,-1,-1,-1,,9999,0,1,3,FEW 22   SCT 32   BKN 70,1,19,1,13,1023,ROIG 140200Z 07014KT 9999 VCSH FEW022 SCT032 BKN070 19/13     Q1023 RMK 2CU022 4CU032 5AC070 A3023=,VC SH
20180114_030000.002,1,ROIG,,,,0,20180114030000,-1,-1,-1,-1,80,-1,12,-1,-1,-1,-1,,9999,0,0,3,FEW 23   SCT 45   BKN 70,1,20,1,14,1022,ROIG 140300Z 08012KT 9999 FEW023 SCT045 BKN070 20/14 Q1022 RMK     2CU023 3SC045 6AC070 A3021=,
20180114_040000.002,1,ROIG,,,,0,20180114040000,-1,-1,-1,-1,70,-1,12,-1,-1,-1,-1,,9999,0,0,2,FEW 26   SCT 50,1,21,1,14,1021,ROIG 140400Z 07012KT 9999 FEW026 SCT050 21/14 Q1021 RMK 2CU026     4SC050 A3017=,
20180114_050000.002,1,ROIG,,,,0,20180114050000,-1,-1,-1,-1,90,-1,16,-1,-1,-1,-1,,9999,0,1,3,FEW 26   SCT 30   BKN 45,1,20,1,14,1020,ROIG 140500Z 09016KT 9999 -SHRA FEW026 SCT030 BKN045 20/14     Q1020 RMK 2CU026 3CU030 5SC045 A3014=,- RA SH
20180114_060000.003,1,ROIG,,,,0,20180114060000,-1,-1,-1,-1,100,-1,12,-1,-1,-1,-1,,9999,0,0,1,FEW 18,1,20,1,13,1019,ROIG 140600Z 10012KT 9999 FEW018 20/13 Q1019 RMK 2CU018 A3012=,
20180114_070000.002,1,ROIG,,,,0,20180114070000,-1,-1,-1,-1,60,-1,13,-1,-1,-1,-1,,9999,0,0,2,FEW 20   SCT 25,1,20,1,14,1019,ROIG 140700Z 06013KT 9999 FEW020 SCT025 20/14 Q1019 RMK 1CU020     3CU025 A3011=,
20180114_080000.002,1,ROIG,,,,0,20180114080000,-1,-1,-1,-1,70,-1,11,-1,-1,-1,-1,,9999,0,0,2,FEW 21   SCT 25,1,20,1,15,1019,ROIG 140800Z 07011KT 9999 FEW021 SCT025 20/15 Q1019 RMK 1CU021     3CU025 A3011=,
20180114_090000.002,1,ROIG,,,,0,20180114090000,-1,-1,-1,-1,80,-1,12,-1,-1,-1,-1,,9999,0,0,1,FEW 21,1,18,1,14,1019,ROIG 140900Z 08012KT 9999 FEW021 18/14 Q1019 RMK 2CU021 A3011=,
20180114_100000.002,1,ROIG,,,,0,20180114100000,-1,-1,-1,-1,90,-1,12,-1,-1,-1,-1,,9999,0,0,1,FEW 24,1,19,1,14,1019,ROIG 141000Z 09012KT 9999 FEW024 19/14 Q1019 RMK 2CU024 A3012=,
20180114_110000.002,1,ROIG,,,,0,20180114110000,-1,-1,-1,-1,70,-1,15,-1,-1,-1,-1,,9999,0,0,2,SCT 25   BKN 50,1,19,1,15,1020,ROIG 141100Z 07015KT 9999 SCT025 BKN050 19/15 Q1020 RMK 3CU025     7SC050 A3013=,
20180114_210000.002,0,ROIG,,,,0,20180114210000,-1,-1,-1,-1,100,-1,9,-1,-1,-1,-1,,9999,0,0,1,FEW 25,1,20,1,14,1018,ROIG 142100Z 10009KT 9999 FEW025 20/14 Q1018 RMK 2CU025 A3008=,
20180114_220000.002,1,ROIG,,,,0,20180114220000,-1,-1,-1,-1,100,-1,9,-1,-1,-1,-1,,9999,0,0,1,BKN 27,1,20,1,15,1018,ROIG 142200Z 10009KT 9999 BKN027 20/15 Q1018 RMK 5CU027 A3009=,
20180114_230000.002,1,ROIG,,,,0,20180114230000,-1,-1,-1,-1,100,-1,10,-1,-1,-1,-1,,9999,0,0,1,SCT 27,1,20,1,15,1019,ROIG 142300Z 10010KT 9999 SCT027 20/15 Q1019 RMK 3CU027 A3010=,
20180115_000000.002,1,ROIG,,,,0,20180115000000,-1,-1,-1,-1,100,-1,10,-1,-1,-1,-1,,9999,0,0,2,FEW 28   SCT 45,1,21,1,15,1020,ROIG 150000Z 10010KT 9999 FEW028 SCT045 21/15 Q1020 RMK 2CU028     3SC045 A3012=,
20180115_010000.002,1,ROIG,,,,0,20180115010000,-1,-1,-1,-1,100,-1,11,-1,-1,-1,-1,,9999,0,0,1,SCT 25,1,23,1,15,1020,ROIG 150100Z 10011KT 9999 SCT025 23/15 Q1020 RMK 3CU025 A3013=,
20180115_020000.002,1,ROIG,,,,0,20180115020000,-1,-1,-1,-1,90,-1,14,-1,-1,-1,-1,,9999,0,0,1,SCT 24,1,23,1,15,1019,ROIG 150200Z 09014KT 9999 SCT024 23/15 Q1019 RMK 4CU024 A3012=,
20180115_030000.002,1,ROIG,,,,0,20180115030000,-1,-1,-1,-1,90,-1,14,-1,-1,-1,-1,,9999,0,0,1,SCT 25,1,23,1,15,1019,ROIG 150300Z 09014KT 9999 SCT025 23/15 Q1019 RMK 4CU025 A3010=,
20180115_040000.002,1,ROIG,,,,0,20180115040000,-1,-1,-1,-1,90,-1,13,-1,-1,-1,-1,,9999,0,0,1,SCT 27,1,24,1,16,1018,ROIG 150400Z 09013KT 9999 SCT027 24/16 Q1018 RMK 4CU027 A3006=,
20180115_050000.002,1,ROIG,,,,0,20180115050000,-1,-1,-1,-1,90,-1,13,-1,-1,-1,-1,,9999,0,1,2,SCT 25   BKN 60,1,22,1,15,1017,ROIG 150500Z 09013KT 9999 VCSH SCT025 BKN060 22/15 Q1017 RMK     3CU025 5SC060 A3004=,VC SH
20180115_060000.002,1,ROIG,,,,0,20180115060000,-1,-1,-1,-1,90,-1,12,-1,-1,-1,-1,,9999,0,0,3,FEW 25   SCT 60   BKN 80,1,23,1,15,1016,ROIG 150600Z 09012KT 9999 FEW025 SCT060 BKN080 23/15 Q1016 RMK     2CU025 4SC060 6AC080 A3003=,
20180115_070000.003,1,ROIG,,,,0,20180115070000,-1,-1,-1,-1,90,-1,15,-1,-1,-1,-1,,9999,0,0,2,FEW 20   BKN 70,1,23,1,17,1016,ROIG 150700Z 09015KT 9999 FEW020 BKN070 23/17 Q1016 RMK 2CU020     6AC070 A3002=,
20180115_080000.002,1,ROIG,,,,0,20180115080000,-1,-1,-1,-1,120,-1,13,-1,-1,90,150,,9999,0,1,2,SCT 21   BKN 80,1,21,1,17,1016,ROIG 150800Z 12013KT 090V150 9999 VCSH SCT021 BKN080 21/17     Q1016 RMK 4CU021 6AC080 A3003=,VC SH
20180115_090000.002,1,ROIG,,,,0,20180115090000,-1,-1,-1,-1,90,-1,14,-1,-1,-1,-1,,9999,0,1,1,SCT 23,1,21,1,16,1017,ROIG 150900Z 09014KT 9999 VCSH SCT023 21/16 Q1017 RMK 3CU023     A3003=,VC SH
20180115_100000.002,1,ROIG,,,,0,20180115100000,-1,-1,-1,-1,100,-1,16,-1,-1,-1,-1,,9999,0,0,2,SCT 22   SCT 80,1,21,1,15,1017,ROIG 151000Z 10016KT 9999 SCT022 SCT080 21/15 Q1017 RMK 3CU022     4AC080 A3004=,
20180115_110000.002,1,ROIG,,,,0,20180115110000,-1,-1,-1,-1,100,-1,14,-1,-1,-1,-1,,9999,0,1,2,FEW 20   SCT 37,1,21,1,17,1017,ROIG 151100Z 10014KT 9999 VCSH FEW020 SCT037 21/17 Q1017 RMK     1CU020 3SC037 A3005=,VC SH
20180115_210000.002,0,ROIG,,,,0,20180115210000,-1,-1,-1,-1,120,-1,13,-1,-1,-1,-1,,9999,0,1,2,SCT 24   BKN 80,1,22,1,17,1015,ROIG 152100Z 12013KT 9999 VCSH SCT024 BKN080 22/17 Q1015 RMK     3CU024 7AC080 A2998=,VC SH
20180115_220000.002,1,ROIG,,,,0,20180115220000,-1,-1,-1,-1,120,-1,12,-1,-1,-1,-1,,9999,0,0,2,FEW 24   BKN 70,1,22,1,16,1015,ROIG 152200Z 12012KT 9999 FEW024 BKN070 22/16 Q1015 RMK 1CU024     7AC070 A2999=,
20180115_230000.002,1,ROIG,,,,0,20180115230000,-1,-1,-1,-1,120,-1,13,-1,-1,-1,-1,,9999,0,0,2,FEW 24   BKN 90,1,22,1,17,1015,ROIG 152300Z 12013KT 9999 FEW024 BKN090 22/17 Q1015 RMK 2CU024     7AC090 A2999=,
20180116_000000.002,1,ROIG,,,,0,20180116000000,-1,-1,-1,-1,120,-1,12,-1,-1,-1,-1,,9999,0,1,2,FEW 23   BKN 70,1,22,1,17,1016,ROIG 160000Z 12012KT 9999 VCSH FEW023 BKN070 22/17 Q1016 RMK     1CU023 7AC070 A3001=,VC SH
20180116_010000.002,1,ROIG,,,,0,20180116010000,-1,-1,-1,-1,120,-1,11,-1,-1,-1,-1,,9999,0,1,2,SCT 22   BKN 60,1,22,1,18,1016,ROIG 160100Z 12011KT 9999 -SHRA SCT022 BKN060 22/18 Q1016 RMK     4CU022 7SC060 A3002=,- RA SH
20180116_020000.002,1,ROIG,,,,0,20180116020000,-1,-1,-1,-1,120,-1,14,-1,-1,-1,-1,,9999,0,0,2,SCT 20   BKN 60,1,23,1,18,1016,ROIG 160200Z 12014KT 9999 SCT020 BKN060 23/18 Q1016 RMK 3CU020     7SC060 A3001=,
20180116_030000.002,1,ROIG,,,,0,20180116030000,-1,-1,-1,-1,120,-1,13,-1,-1,-1,-1,,9999,0,1,2,SCT 21   BKN 60,1,23,1,18,1015,ROIG 160300Z 12013KT 9999 VCSH SCT021 BKN060 23/18 Q1015 RMK     4CU021 7SC060 A2999=,VC SH
20180116_040000.002,1,ROIG,,,,0,20180116040000,-1,-1,-1,-1,120,-1,15,-1,-1,-1,-1,,9999,0,0,3,FEW 22   SCT 35   BKN 60,1,23,1,17,1014,ROIG 160400Z 12015KT 9999 FEW022 SCT035 BKN060 23/17 Q1014 RMK     2CU022 4CU035 7SC060 A2995=,
20180116_050000.002,1,ROIG,,,,0,20180116050000,-1,-1,-1,-1,120,-1,13,-1,-1,-1,-1,,9999,0,1,3,FEW 21   SCT 32   BKN 60,1,23,1,17,1013,ROIG 160500Z 12013KT 9999 VCSH FEW021 SCT032 BKN060 23/17     Q1013 RMK 2CU021 3CU032 7SC060 A2992=,VC SH
20180116_060000.002,1,ROIG,,,,0,20180116060000,-1,-1,-1,-1,120,-1,14,-1,-1,-1,-1,,9999,0,1,3,FEW 22   BKN 30   BKN 60,1,23,1,18,1012,ROIG 160600Z 12014KT 9999 VCSH FEW022 BKN030 BKN060 23/18     Q1012 RMK 2CU022 5CU030 7SC060 A2990=,VC SH
20180116_070000.002,1,ROIG,,,,0,20180116070000,-1,-1,-1,-1,110,-1,12,-1,-1,-1,-1,,9999,0,1,3,FEW 17   SCT 23   BKN 45,1,21,1,19,1012,ROIG 160700Z 11012KT 9999 -SHRA FEW017 SCT023 BKN045 21/19     Q1012 RMK 2CU017 4CU023 7SC045 A2989=,- RA SH
20180116_080000.002,1,ROIG,,,,0,20180116080000,-1,-1,-1,-1,110,-1,13,-1,-1,-1,-1,,9999,0,1,3,FEW 19   SCT 25   BKN 45,1,22,1,18,1012,ROIG 160800Z 11013KT 9999 -SHRA FEW019 SCT025 BKN045 22/18     Q1012 RMK 2CU019 4CU025 6SC045 A2988=,- RA SH
20180116_090000.002,1,ROIG,,,,0,20180116090000,-1,-1,-1,-1,160,-1,10,-1,-1,-1,-1,,5000,0,1,3,FEW 16   BKN 20   BKN 35,1,21,1,19,1012,ROIG 160900Z 16010KT 5000 SHRA FEW016 BKN020 BKN035 21/19     Q1012 RMK 2CU016 5CU020 7SC035 A2990=,RA SH
20180116_100000.002,1,ROIG,,,,0,20180116100000,-1,-1,-1,-1,999,-1,4,-1,-1,-1,-1,,4000,0,2,4,FEW 8   BKN 11   BKN 18   FEW 25 CB,1,20,1,19,1012,ROIG 161000Z VRB04KT 4000 +SHRA BR FEW008 BKN011 BKN018     FEW025CB 20/19 Q1012 RMK 2ST008 5CU011 7CU018 1CB025           A2989 CB 15KM SW MOV N=,+ RA SH; BR
20180116_110000.004,1,ROIG,,,,0,20180116110000,-1,-1,-1,-1,150,-1,13,-1,-1,-1,-1,,9999,0,1,2,BKN 17   BKN 24,1,22,1,20,1011,ROIG 161100Z 15013KT 9999 -SHRA BKN017 BKN024 22/20 Q1011 RMK     5CU017 7CU024 A2988=,- RA SH
20180116_210000.002,0,ROIG,,,,0,20180116210000,-1,-1,-1,-1,190,-1,13,-1,-1,-1,-1,,7000,1,1,3,FEW 15   BKN 22   BKN 44,1,21,1,20,1012,ROIG 162100Z 19013KT 7000 R04/1800U SHRA FEW015 BKN022 BKN044     21/20 Q1012 RMK 2CU015 6CU022 7SC044 A2989=,RA SH
20180116_220000.002,1,ROIG,,,,0,20180116220000,-1,-1,-1,-1,280,-1,4,-1,-1,180,330,,9999,0,1,3,FEW 14   SCT 22   BKN 50,1,21,1,21,1012,ROIG 162200Z 28004KT 180V330 9999 -SHRA FEW014 SCT022 BKN050     21/21 Q1012 RMK 1CU014 4CU022 7SC050 A2991=,- RA SH
20180116_230000.002,1,ROIG,,,,0,20180116230000,-1,-1,-1,-1,330,-1,6,-1,-1,280,10,,9999,0,1,3,FEW 6   SCT 11   BKN 21,1,20,1,19,1013,ROIG 162300Z 33006KT 280V010 9999 -SHRA FEW006 SCT011 BKN021     20/19 Q1013 RMK 1ST006 4CU011 7CU021 A2994=,- RA SH
20180117_000000.002,1,ROIG,,,,0,20180117000000,-1,-1,-1,-1,340,-1,7,-1,-1,-1,-1,,8000,0,1,3,FEW 8   SCT 16   BKN 22,1,20,1,19,1014,ROIG 170000Z 34007KT 8000 SHRA FEW008 SCT016 BKN022 20/19     Q1014 RMK 1ST008 4CU016 7CU022 A2997=,RA SH
20180117_010000.002,1,ROIG,,,,0,20180117010000,-1,-1,-1,-1,340,-1,9,-1,-1,-1,-1,,9999,0,1,3,FEW 10   BKN 30   BKN 40,1,18,1,16,1015,ROIG 170100Z 34009KT 9999 -SHRA FEW010 BKN030 BKN040 18/16     Q1015 RMK 1CU010 5CU030 7SC040 A3000=,- RA SH
20180117_020000.004,1,ROIG,,,,0,20180117020000,-1,-1,-1,-1,10,-1,5,-1,-1,-1,-1,,9999,0,1,2,SCT 28   BKN 36,1,20,1,17,1016,ROIG 170200Z 01005KT 9999 -SHRA SCT028 BKN036 20/17 Q1016 RMK     4CU028 7SC036 A3000=,- RA SH
20180117_030000.002,1,ROIG,,,,0,20180117030000,-1,-1,-1,-1,360,-1,5,-1,-1,300,30,,9999,0,1,3,FEW 16   SCT 33   BKN 48,1,20,1,18,1015,ROIG 170300Z 36005KT 300V030 9999 -SHRA FEW016 SCT033 BKN048     20/18 Q1015 RMK 1CU016 3CU033 7SC048 A2999=,- RA SH
20180117_040000.003,1,ROIG,,,,0,20180117040000,-1,-1,-1,-1,30,-1,8,-1,-1,-1,-1,,9999,0,1,3,FEW 9   SCT 38   BKN 50,1,21,1,20,1014,ROIG 170400Z 03008KT 9999 -SHRA FEW009 SCT038 BKN050 21/20     Q1014 RMK 1CU009 3CU038 7SC050 A2997=,- RA SH
20180117_050000.003,1,ROIG,,,,0,20180117050000,-1,-1,-1,-1,70,-1,5,-1,-1,-1,-1,,9999,0,1,2,FEW 10   BKN 45,1,21,1,20,1014,ROIG 170500Z 07005KT 9999 -RA FEW010 BKN045 21/20 Q1014 RMK     1CU010 7SC045 A2995=,- RA
20180117_060000.002,1,ROIG,,,,0,20180117060000,-1,-1,-1,-1,30,-1,9,-1,-1,-1,-1,,9999,0,1,3,FEW 10   BKN 22   BKN 45,1,21,1,20,1014,ROIG 170600Z 03009KT 9999 -RA FEW010 BKN022 BKN045 21/20 Q1014     RMK 2CU010 5CU022 7SC045 A2995=,- RA
20180117_070000.002,1,ROIG,,,,0,20180117070000,-1,-1,-1,-1,30,-1,9,-1,-1,-1,-1,,9999,0,1,3,FEW 7   SCT 22   BKN 50,1,21,1,20,1014,ROIG 170700Z 03009KT 9999 -RA FEW007 SCT022 BKN050 21/20 Q1014     RMK 2ST007 4CU022 7SC050 A2995=,- RA
20180117_080000.002,1,ROIG,,,,0,20180117080000,-1,-1,-1,-1,40,-1,12,-1,-1,-1,-1,,9999,0,0,2,FEW 12   BKN 50,1,21,1,20,1014,ROIG 170800Z 04012KT 9999 FEW012 BKN050 21/20 Q1014 RMK 2CU012     7SC050 A2995=,
20180117_090000.003,1,ROIG,,,,0,20180117090000,-1,-1,-1,-1,40,-1,14,-1,-1,-1,-1,,9999,0,0,3,FEW 10   SCT 50   BKN 80,1,21,1,20,1014,ROIG 170900Z 04014KT 9999 FEW010 SCT050 BKN080 21/20 Q1014 RMK     2CU010 4SC050 7AC080 A2996=,
20180117_100000.002,1,ROIG,,,,0,20180117100000,-1,-1,-1,-1,40,-1,14,-1,-1,-1,-1,,9999,0,0,2,FEW 10   BKN 50,1,21,1,20,1014,ROIG 171000Z 04014KT 9999 FEW010 BKN050 21/20 Q1014 RMK 2CU010     7SC050 A2996=,
20180117_110000.003,1,ROIG,,,,0,20180117110000,-1,-1,-1,-1,40,-1,12,-1,-1,-1,-1,,9999,0,0,2,SCT 10   BKN 50,1,21,1,20,1015,ROIG 171100Z 04012KT 9999 SCT010 BKN050 21/20 Q1015 RMK 4CU010     7SC050 A3000=,
20180117_210000.002,0,ROIG,,,,0,20180117210000,-1,-1,-1,-1,70,-1,12,-1,-1,-1,-1,,9999,0,0,2,FEW 11   BKN 16,1,21,1,20,1015,ROIG 172100Z 07012KT 9999 FEW011 BKN016 21/20 Q1015 RMK 2CU011     7CU016 A3000=,
20180117_220000.003,1,ROIG,,,,0,20180117220000,-1,-1,-1,-1,60,-1,12,-1,-1,-1,-1,,9999,0,0,2,FEW 10   BKN 17,1,21,1,20,1016,ROIG 172200Z 06012KT 9999 FEW010 BKN017 21/20 Q1016 RMK 2CU010     7CU017 A3001=,
20180117_230000.002,1,ROIG,,,,0,20180117230000,-1,-1,-1,-1,50,-1,9,-1,-1,-1,-1,,9999,0,0,2,FEW 8   BKN 24,1,21,1,20,1017,ROIG 172300Z 05009KT 9999 FEW008 BKN024 21/20 Q1017 RMK 1ST008     7CU024 A3003=,
20180118_000000.002,1,ROIG,,,,0,20180118000000,-1,-1,-1,-1,50,-1,9,-1,-1,-1,-1,,9999,0,0,2,FEW 8   BKN 28,1,22,1,21,1017,ROIG 180000Z 05009KT 9999 FEW008 BKN028 22/21 Q1017 RMK 1ST008     7CU028 A3005=,
20180118_010000.002,1,ROIG,,,,0,20180118010000,-1,-1,-1,-1,50,-1,8,-1,-1,-1,-1,,9999,0,0,2,FEW 13   BKN 90,1,23,1,21,1018,ROIG 180100Z 05008KT 9999 FEW013 BKN090 23/21 Q1018 RMK 2CU013     7AC090 A3007=,
20180118_020000.002,1,ROIG,,,,0,20180118020000,-1,-1,-1,-1,60,-1,8,-1,-1,-1,-1,,9999,0,1,3,FEW 16   SCT 21   BKN 47,1,23,1,20,1018,ROIG 180200Z 06008KT 9999 VCSH FEW016 SCT021 BKN047 23/20     Q1018 RMK 1CU016 3CU021 7SC047 A3007=,VC SH
20180118_030000.003,1,ROIG,,,,0,20180118030000,-1,-1,-1,-1,999,-1,2,-1,-1,-1,-1,,9999,0,1,3,FEW 7   BKN 21   BKN 41,1,23,1,21,1017,ROIG 180300Z VRB02KT 9999 -SHRA FEW007 BKN021 BKN041 23/21     Q1017 RMK 1ST007 5CU021 7SC041 A3004=,- RA SH
20180118_040000.002,1,ROIG,,,,0,20180118040000,-1,-1,-1,-1,70,-1,3,-1,-1,20,100,,9999,0,1,3,FEW 7   BKN 24   BKN 30,1,23,1,21,1016,ROIG 180400Z 07003KT 020V100 9999 VCSH FEW007 BKN024 BKN030     23/21 Q1016 RMK 1ST007 5CU024 7CU030 A3002=,VC SH
20180118_050000.002,1,ROIG,,,,0,20180118050000,-1,-1,-1,-1,70,-1,3,-1,-1,30,140,,9999,0,0,3,FEW 11   BKN 28   BKN 41,1,23,1,21,1016,ROIG 180500Z 07003KT 030V140 9999 FEW011 BKN028 BKN041 23/21     Q1016 RMK 1CU011 5CU028 7SC041 A3000=,
20180118_060000.002,1,ROIG,,,,0,20180118060000,-1,-1,-1,-1,70,-1,5,-1,-1,-1,-1,,9999,0,0,3,FEW 15   SCT 28   BKN 47,1,24,1,21,1015,ROIG 180600Z 07005KT 9999 FEW015 SCT028 BKN047 24/21 Q1015 RMK     1CU015 3CU028 7SC047 A2999=,
20180118_070000.002,1,ROIG,,,,0,20180118070000,-1,-1,-1,-1,160,-1,8,-1,-1,-1,-1,,9999,0,1,3,FEW 3   BKN 11   BKN 28,1,22,1,21,1015,ROIG 180700Z 16008KT 9999 -SHRA FEW003 BKN011 BKN028 22/21     Q1015 RMK 1ST003 5CU011 7CU028 A2999=,- RA SH
20180118_080000.002,1,ROIG,,,,0,20180118080000,-1,-1,-1,-1,180,-1,9,-1,-1,160,220,,8000,0,1,3,FEW 3   BKN 31   BKN 50,1,22,1,21,1016,ROIG 180800Z 18009KT 160V220 8000 -SHRA FEW003 BKN031 BKN050     22/21 Q1016 RMK 1ST003 5CU031 7SC050 A3000=,- RA SH
20180118_090000.002,1,ROIG,,,,0,20180118090000,-1,-1,-1,-1,270,-1,4,-1,-1,240,300,,9999,0,0,3,FEW 5   BKN 36   BKN 50,1,21,1,21,1016,ROIG 180900Z 27004KT 240V300 9999 FEW005 BKN036 BKN050 21/21     Q1016 RMK 1ST005 5CU036 7SC050 A3001=,
20180118_100000.002,1,ROIG,,,,0,20180118100000,-1,-1,-1,-1,320,-1,5,-1,-1,-1,-1,,9999,0,0,2,FEW 47   BKN 70,1,21,1,20,1016,ROIG 181000Z 32005KT 9999 FEW047 BKN070 21/20 Q1016 RMK 2SC047     7AC070 A3002=,
20180118_110000.002,1,ROIG,,,,0,20180118110000,-1,-1,-1,-1,30,-1,5,-1,-1,-1,-1,,9999,0,0,2,BKN 17   BKN 100,1,21,1,20,1017,ROIG 181100Z 03005KT 9999 BKN017 BKN100 21/20 Q1017 RMK 5CU017     7AC100 A3004=,
20180118_210000.003,0,ROIG,,,,0,20180118210000,-1,-1,-1,-1,90,-1,5,-1,-1,-1,-1,,9999,0,0,3,FEW 7   BKN 11   BKN 50,1,22,1,22,1016,ROIG 182100Z 09005KT 9999 FEW007 BKN011 BKN050 22/22 Q1016 RMK     1ST007 5CU011 7SC050 A3001=,
20180118_220000.002,1,ROIG,,,,0,20180118220000,-1,-1,-1,-1,100,-1,5,-1,-1,-1,-1,,9999,0,0,3,SCT 12   BKN 48   BKN 80,1,22,1,21,1016,ROIG 182200Z 10005KT 9999 SCT012 BKN048 BKN080 22/21 Q1016 RMK     3CU012 5SC048 7AC080 A3003=,
20180118_230000.003,1,ROIG,,,,0,20180118230000,-1,-1,-1,-1,90,-1,4,-1,-1,-1,-1,,9999,0,0,2,SCT 10   BKN 45,1,22,1,21,1017,ROIG 182300Z 09004KT 9999 SCT010 BKN045 22/21 Q1017 RMK 3CU010     7SC045 A3004=,
20180119_000000.002,1,ROIG,,,,0,20180119000000,-1,-1,-1,-1,80,-1,5,-1,-1,-1,-1,,9999,0,1,3,SCT 11   BKN 21   BKN 45,1,22,1,22,1017,ROIG 190000Z 08005KT 9999 -SHRA SCT011 BKN021 BKN045 22/22     Q1017 RMK 3CU011 5CU021 7SC045 A3005=,- RA SH
20180119_010000.003,1,ROIG,,,,0,20180119010000,-1,-1,-1,-1,30,-1,3,-1,-1,-1,-1,,9999,0,1,3,FEW 7   SCT 12   BKN 45,1,22,1,22,1018,ROIG 190100Z 03003KT 9999 -SHRA FEW007 SCT012 BKN045 22/22     Q1018 RMK 1ST007 4CU012 7SC045 A3008=,- RA SH
20180119_020000.002,1,ROIG,,,,0,20180119020000,-1,-1,-1,-1,20,-1,4,-1,-1,-1,-1,,9999,0,1,3,FEW 4   SCT 11   BKN 60,1,24,1,23,1018,ROIG 190200Z 02004KT 9999 -SHRA FEW004 SCT011 BKN060 24/23     Q1018 RMK 1ST004 4CU011 7SC060 A3006=,- RA SH
20180119_030000.002,1,ROIG,,,,0,20180119030000,-1,-1,-1,-1,10,-1,5,-1,-1,-1,-1,,4000,1,2,3,FEW 10   BKN 15   BKN 35,1,22,1,22,1017,ROIG 190300Z 01005KT 4000 R04/1200VP1800D SHRA BR FEW010     BKN015 BKN035 22/22 Q1017 RMK 2CU010 5CU015 7SC035 A3005=,RA SH; BR
20180119_040000.002,1,ROIG,,,,0,20180119040000,-1,-1,-1,-1,290,-1,5,-1,-1,-1,-1,,8000,0,1,3,FEW 5   BKN 18   BKN 37,1,21,1,21,1017,ROIG 190400Z 29005KT 8000 -SHRA FEW005 BKN018 BKN037 21/21     Q1017 RMK 1ST005 6CU018 7SC037 A3003=,- RA SH
20180119_050000.003,1,ROIG,,,,0,20180119050000,-1,-1,-1,-1,999,-1,1,-1,-1,-1,-1,,9999,0,0,2,FEW 15   BKN 60,1,22,1,20,1016,ROIG 190500Z VRB01KT 9999 FEW015 BKN060 22/20 Q1016 RMK 1CU015     7SC060 A3000=,
20180119_060000.002,1,ROIG,,,,0,20180119060000,-1,-1,-1,-1,270,-1,7,-1,-1,240,310,,9999,0,1,3,FEW 8   BKN 15   BKN 40,1,22,1,21,1015,ROIG 190600Z 27007KT 240V310 9999 -SHRA FEW008 BKN015 BKN040     22/21 Q1015 RMK 1ST008 6CU015 7SC040 A2998=,- RA SH
20180119_070000.002,1,ROIG,,,,0,20180119070000,-1,-1,-1,-1,350,-1,8,-1,-1,310,10,,9999,0,1,3,FEW 6   BKN 15   BKN 40,1,21,1,20,1015,ROIG 190700Z 35008KT 310V010 9999 -SHRA FEW006 BKN015 BKN040     21/20 Q1015 RMK 1ST006 6CU015 7SC040 A2999=,- RA SH
20180119_080000.002,1,ROIG,,,,0,20180119080000,-1,-1,-1,-1,360,-1,8,-1,-1,-1,-1,,9999,0,1,3,FEW 7   BKN 15   BKN 44,1,21,1,20,1015,ROIG 190800Z 36008KT 9999 -SHRA FEW007 BKN015 BKN044 21/20     Q1015 RMK 2ST007 6CU015 7SC044 A2999=,- RA SH
20180119_090000.003,1,ROIG,,,,0,20180119090000,-1,-1,-1,-1,10,-1,11,-1,-1,-1,-1,,9999,0,1,3,FEW 5   BKN 14   BKN 24,1,20,1,19,1016,ROIG 190900Z 01011KT 9999 -SHRA FEW005 BKN014 BKN024 20/19     Q1016 RMK 2ST005 6CU014 7CU024 A3001=,- RA SH
20180119_100000.002,1,ROIG,,,,0,20180119100000,-1,-1,-1,-1,30,-1,18,-1,-1,-1,-1,,9999,0,1,3,FEW 8   BKN 21   BKN 45,1,20,1,19,1016,ROIG 191000Z 03018KT 9999 -SHRA FEW008 BKN021 BKN045 20/19     Q1016 RMK 2ST008 6CU021 7SC045 A3002=,- RA SH
20180119_110000.002,1,ROIG,,,,0,20180119110000,-1,-1,-1,-1,40,-1,19,-1,-1,-1,-1,,9999,0,0,3,FEW 11   BKN 21   BKN 50,1,20,1,19,1017,ROIG 191100Z 04019KT 9999 FEW011 BKN021 BKN050 20/19 Q1017 RMK     2CU011 6CU021 7SC050 A3003=,
20180119_210000.002,0,ROIG,,,,0,20180119210000,-1,-1,-1,-1,60,-1,14,-1,-1,-1,-1,,9999,0,1,2,SCT 13   BKN 35,1,20,1,18,1015,ROIG 192100Z 06014KT 9999 -RA SCT013 BKN035 20/18 Q1015 RMK     3CU013 6SC035 A3000=,- RA
20180119_220000.002,1,ROIG,,,,0,20180119220000,-1,-1,-1,-1,50,-1,14,-1,-1,-1,-1,,9999,0,1,2,SCT 14   BKN 120,1,20,1,18,1016,ROIG 192200Z 05014KT 9999 -SHRA SCT014 BKN120 20/18 Q1016 RMK     4CU014 7AC120 A3001=,- RA SH
20180119_230000.002,1,ROIG,,,,0,20180119230000,-1,-1,-1,-1,60,-1,14,-1,-1,-1,-1,,9999,0,0,3,SCT 15   BKN 33   BKN 150,1,21,1,18,1016,ROIG 192300Z 06014KT 9999 SCT015 BKN033 BKN150 21/18 Q1016 RMK     3CU015 5SC033 7AC150 A3003=,
20180120_000000.002,1,ROIG,,,,0,20180120000000,-1,-1,-1,-1,70,-1,13,-1,-1,-1,-1,,9999,0,0,3,FEW 17   SCT 24   BKN 170,1,22,1,18,1017,ROIG 200000Z 07013KT 9999 FEW017 SCT024 BKN170 22/18 Q1017 RMK     2CU017 4CU024 6AC170 A3005=,
20180120_010000.002,1,ROIG,,,,0,20180120010000,-1,-1,-1,-1,60,-1,14,-1,-1,-1,-1,,9999,0,0,3,FEW 19   SCT 60   BKN 150,1,23,1,18,1018,ROIG 200100Z 06014KT 9999 FEW019 SCT060 BKN150 23/18 Q1018 RMK     2CU019 3SC060 6AC150 A3007=,
20180120_020000.003,1,ROIG,,,,0,20180120020000,-1,-1,-1,-1,50,-1,14,-1,-1,-1,-1,,9999,0,0,2,FEW 18   BKN 70,1,23,1,18,1017,ROIG 200200Z 05014KT 9999 FEW018 BKN070 23/18 Q1017 RMK 2CU018     6AC070 A3006=,
20180120_030000.002,1,ROIG,,,,0,20180120030000,-1,-1,-1,-1,50,-1,13,-1,-1,-1,-1,,9999,0,0,2,FEW 18   SCT 70,1,24,1,18,1017,ROIG 200300Z 05013KT 9999 FEW018 SCT070 24/18 Q1017 RMK 2CU018     3AC070 A3004=,
20180120_040000.002,1,ROIG,,,,0,20180120040000,-1,-1,-1,-1,60,-1,15,-1,-1,-1,-1,,9999,0,0,1,FEW 20,1,24,1,18,1016,ROIG 200400Z 06015KT 9999 FEW020 24/18 Q1016 RMK 1CU020 A3000=,
20180120_050000.002,1,ROIG,,,,0,20180120050000,-1,-1,-1,-1,60,-1,15,-1,-1,-1,-1,,9999,0,0,1,FEW 20,1,24,1,16,1015,ROIG 200500Z 06015KT 9999 FEW020 24/16 Q1015 RMK 1CU020 A2997=,
20180120_060000.002,1,ROIG,,,,0,20180120060000,-1,-1,-1,-1,50,-1,15,-1,-1,-1,-1,,9999,0,0,1,FEW 19,1,24,1,17,1014,ROIG 200600Z 05015KT 9999 FEW019 24/17 Q1014 RMK 2CU019 A2995=,
20180120_070000.002,1,ROIG,,,,0,20180120070000,-1,-1,-1,-1,50,-1,15,-1,-1,-1,-1,,9999,0,0,1,FEW 21,1,23,1,17,1014,ROIG 200700Z 05015KT 9999 FEW021 23/17 Q1014 RMK 2CU021 A2995=,
20180120_080000.002,1,ROIG,,,,0,20180120080000,-1,-1,-1,-1,60,-1,13,-1,-1,-1,-1,,9999,0,0,1,FEW 19,1,22,1,17,1014,ROIG 200800Z 06013KT 9999 FEW019 22/17 Q1014 RMK 2CU019 A2996=,
20180120_090000.002,1,ROIG,,,,0,20180120090000,-1,-1,-1,-1,50,-1,13,-1,-1,-1,-1,,9999,0,0,2,FEW 24   SCT -9999,1,21,1,16,1015,ROIG 200900Z 05013KT 9999 FEW024 SCT/// 21/16 Q1015 RMK 2CU024     A2998=,
20180120_100000.002,1,ROIG,,,,0,20180120100000,-1,-1,-1,-1,40,-1,12,-1,-1,-1,-1,,9999,0,0,2,FEW 18   BKN 35,1,21,1,17,1015,ROIG 201000Z 04012KT 9999 FEW018 BKN035 21/17 Q1015 RMK 2CU018     7SC035 A3000=,
20180120_110000.002,1,ROIG,,,,0,20180120110000,-1,-1,-1,-1,30,-1,12,-1,-1,-1,-1,,9999,0,0,2,FEW 18   BKN 37,1,21,1,18,1016,ROIG 201100Z 03012KT 9999 FEW018 BKN037 21/18 Q1016 RMK 2CU018     7SC037 A3002=,
20180120_210000.002,0,ROIG,,,,0,20180120210000,-1,-1,-1,-1,40,-1,11,-1,-1,-1,-1,,9999,0,0,2,FEW 18   BKN 60,1,21,1,18,1015,ROIG 202100Z 04011KT 9999 FEW018 BKN060 21/18 Q1015 RMK 1CU018     7SC060 A2998=,
20180120_220000.002,1,ROIG,,,,0,20180120220000,-1,-1,-1,-1,50,-1,14,-1,-1,-1,-1,,9999,0,0,3,FEW 16   SCT 50   BKN 80,1,21,1,18,1015,ROIG 202200Z 05014KT 9999 FEW016 SCT050 BKN080 21/18 Q1015 RMK     1CU016 3SC050 7AC080 A2999=,
20180120_230000.002,1,ROIG,,,,0,20180120230000,-1,-1,-1,-1,50,-1,13,-1,-1,-1,-1,,9999,0,0,2,FEW 15   SCT 80,1,21,1,19,1015,ROIG 202300Z 05013KT 9999 FEW015 SCT080 21/19 Q1015 RMK 2CU015     4AC080 A3000=,
20180121_000000.002,1,ROIG,,,,0,20180121000000,-1,-1,-1,-1,60,-1,13,-1,-1,-1,-1,,9999,0,0,2,FEW 18   BKN 80,1,22,1,18,1016,ROIG 210000Z 06013KT 9999 FEW018 BKN080 22/18 Q1016 RMK 2CU018     7AC080 A3001=,
20180121_010000.002,1,ROIG,,,,0,20180121010000,-1,-1,-1,-1,60,-1,11,-1,-1,-1,-1,,9999,0,0,2,FEW 17   BKN 80,1,22,1,18,1016,ROIG 210100Z 06011KT 9999 FEW017 BKN080 22/18 Q1016 RMK 1CU017     7AC080 A3003=,
20180121_020000.002,1,ROIG,,,,0,20180121020000,-1,-1,-1,-1,50,-1,12,-1,-1,-1,-1,,9999,0,0,2,FEW 17   BKN 70,1,23,1,18,1016,ROIG 210200Z 05012KT 9999 FEW017 BKN070 23/18 Q1016 RMK 2CU017     7AC070 A3002=,
20180121_030000.002,1,ROIG,,,,0,20180121030000,-1,-1,-1,-1,60,-1,13,-1,-1,-1,-1,,9999,0,0,3,FEW 18   BKN 60   BKN 80,1,23,1,18,1015,ROIG 210300Z 06013KT 9999 FEW018 BKN060 BKN080 23/18 Q1015 RMK     2CU018 5SC060 7AC080 A3000=,
20180121_040000.003,1,ROIG,,,,0,20180121040000,-1,-1,-1,-1,50,-1,12,-1,-1,-1,-1,,9999,0,0,2,SCT 20   BKN 60,1,24,1,19,1014,ROIG 210400Z 05012KT 9999 SCT020 BKN060 24/19 Q1014 RMK 3CU020     7SC060 A2996=,
20180121_050000.002,1,ROIG,,,,0,20180121050000,-1,-1,-1,-1,50,-1,12,-1,-1,-1,-1,,9999,0,0,2,FEW 19   BKN 60,1,23,1,18,1014,ROIG 210500Z 05012KT 9999 FEW019 BKN060 23/18 Q1014 RMK 2CU019     7SC060 A2994=,
20180121_060000.002,1,ROIG,,,,0,20180121060000,-1,-1,-1,-1,50,-1,13,-1,-1,-1,-1,,9999,0,1,3,FEW 18   SCT 32   BKN 50,1,22,1,19,1013,ROIG 210600Z 05013KT 9999 -SHRA FEW018 SCT032 BKN050 22/19     Q1013 RMK 2CU018 4CU032 7SC050 A2992=,- RA SH
20180121_070000.002,1,ROIG,,,,0,20180121070000,-1,-1,-1,-1,60,-1,11,-1,-1,-1,-1,,9999,0,0,3,SCT 18   BKN 40   BKN 60,1,23,1,19,1013,ROIG 210700Z 06011KT 9999 SCT018 BKN040 BKN060 23/19 Q1013 RMK     3CU018 5SC040 7SC060 A2991=,
20180121_080000.002,1,ROIG,,,,0,20180121080000,-1,-1,-1,-1,60,-1,13,-1,-1,-1,-1,,9999,0,0,3,SCT 18   BKN 30   BKN 50,1,22,1,19,1013,ROIG 210800Z 06013KT 9999 SCT018 BKN030 BKN050 22/19 Q1013 RMK     3CU018 5CU030 7SC050 A2992=,
20180121_090000.002,1,ROIG,,,,0,20180121090000,-1,-1,-1,-1,90,-1,11,-1,-1,-1,-1,,9999,0,0,2,SCT 20   BKN 50,1,23,1,19,1013,ROIG 210900Z 09011KT 9999 SCT020 BKN050 23/19 Q1013 RMK 4CU020     7SC050 A2992=,
20180121_100000.002,1,ROIG,,,,0,20180121100000,-1,-1,-1,-1,90,-1,9,-1,-1,-1,-1,,9999,0,0,2,FEW 20   BKN 45,1,23,1,18,1013,ROIG 211000Z 09009KT 9999 FEW020 BKN045 23/18 Q1013 RMK 2CU020     7SC045 A2992=,
20180121_110000.002,1,ROIG,,,,0,20180121110000,-1,-1,-1,-1,100,-1,10,-1,-1,-1,-1,,9999,0,0,2,FEW 20   BKN 40,1,23,1,18,1013,ROIG 211100Z 10010KT 9999 FEW020 BKN040 23/18 Q1013 RMK 1CU020     7SC040 A2993=,
20180121_210000.002,0,ROIG,,,,0,20180121210000,-1,-1,-1,-1,200,-1,2,-1,-1,-1,-1,,9999,0,1,2,SCT 35   BKN 50,1,21,1,21,1010,ROIG 212100Z 20002KT 9999 VCSH SCT035 BKN050 21/21 Q1010 RMK     3CU035 7SC050 A2985=,VC SH
20180121_220000.002,1,ROIG,,,,0,20180121220000,-1,-1,-1,-1,999,-1,1,-1,-1,-1,-1,,3000,1,1,3,FEW 9   BKN 15   BKN 25,1,21,1,21,1011,ROIG 212200Z VRB01KT 3000 R04/0900VP1800U SHRA FEW009 BKN015     BKN025 21/21 Q1011 RMK 1ST009 5CU015 6CU025 A2987=,RA SH
20180121_230000.002,1,ROIG,,,,0,20180121230000,-1,-1,-1,-1,320,-1,6,-1,-1,-1,-1,,9999,0,1,3,FEW 7   SCT 20   BKN 37,1,21,1,21,1011,ROIG 212300Z 32006KT 9999 -SHRA FEW007 SCT020 BKN037 21/21     Q1011 RMK 1ST007 3CU020 7SC037 A2988=,- RA SH
20180122_000000.002,1,ROIG,,,,0,20180122000000,-1,-1,-1,-1,300,-1,10,-1,-1,260,340,,9999,0,1,3,FEW 11   SCT 17   BKN 50,1,21,1,20,1012,ROIG 220000Z 30010KT 260V340 9999 VCSH FEW011 SCT017 BKN050     21/20 Q1012 RMK 2CU011 3CU017 7SC050 A2990=,VC SH
20180122_010000.002,1,ROIG,,,,0,20180122010000,-1,-1,-1,-1,340,-1,17,-1,-1,-1,-1,,9999,0,1,3,SCT 11   BKN 20   BKN 60,1,22,1,19,1013,ROIG 220100Z 34017KT 9999 -SHRA SCT011 BKN020 BKN060 22/19     Q1013 RMK 3CU011 5CU020 7SC060 A2992=,- RA SH
20180122_020000.002,1,ROIG,,,,0,20180122020000,-1,-1,-1,-1,350,-1,12,-1,24,320,30,,9999,0,0,3,SCT 14   BKN 23   BKN 60,1,21,1,18,1013,ROIG 220200Z 35012G24KT 320V030 9999 SCT014 BKN023 BKN060     21/18 Q1013 RMK 3CU014 5CU023 7SC060 A2992=,
20180122_030000.002,1,ROIG,,,,0,20180122030000,-1,-1,-1,-1,10,-1,12,-1,-1,300,70,,9999,0,0,3,SCT 14   BKN 20   BKN 70,1,20,1,17,1013,ROIG 220300Z 01012KT 300V070 9999 SCT014 BKN020 BKN070 20/17     Q1013 RMK 3CU014 5CU020 7AC070 A2992=,
20180122_040000.002,1,ROIG,,,,0,20180122040000,-1,-1,-1,-1,20,-1,10,-1,-1,-1,-1,,9999,0,0,3,SCT 18   BKN 24   BKN 70,1,20,1,16,1012,ROIG 220400Z 02010KT 9999 SCT018 BKN024 BKN070 20/16 Q1012 RMK     3CU018 5CU024 7AC070 A2990=,
20180122_050000.002,1,ROIG,,,,0,20180122050000,-1,-1,-1,-1,10,-1,15,-1,-1,-1,-1,,9999,0,0,3,FEW 18   BKN 24   BKN 80,1,20,1,16,1011,ROIG 220500Z 01015KT 9999 FEW018 BKN024 BKN080 20/16 Q1011 RMK     2CU018 5CU024 7AC080 A2988=,
20180122_060000.003,1,ROIG,,,,0,20180122060000,-1,-1,-1,-1,20,-1,13,-1,-1,-1,-1,,9999,0,0,2,SCT 21   BKN 80,1,20,1,16,1011,ROIG 220600Z 02013KT 9999 SCT021 BKN080 20/16 Q1011 RMK 4CU021     7AC080 A2987=,
20180122_070000.002,1,ROIG,,,,0,20180122070000,-1,-1,-1,-1,20,-1,13,-1,-1,-1,-1,,9999,0,0,3,FEW 19   SCT 24   BKN 90,1,19,1,16,1011,ROIG 220700Z 02013KT 9999 FEW019 SCT024 BKN090 19/16 Q1011 RMK     1CU019 4CU024 7AC090 A2987=,
20180122_080000.003,1,ROIG,,,,0,20180122080000,-1,-1,-1,-1,20,-1,18,-1,-1,-1,-1,,9999,0,1,3,FEW 21   SCT 28   BKN 90,1,19,1,15,1012,ROIG 220800Z 02018KT 9999 VCSH FEW021 SCT028 BKN090 19/15     Q1012 RMK 2CU021 3CU028 7AC090 A2989=,VC SH
20180122_090000.002,1,ROIG,,,,0,20180122090000,-1,-1,-1,-1,20,-1,14,-1,-1,-1,-1,,9999,0,1,3,FEW 23   SCT 32   BKN 80,1,18,1,15,1013,ROIG 220900Z 02014KT 9999 -SHRA FEW023 SCT032 BKN080 18/15     Q1013 RMK 2CU023 4CU032 7AC080 A2992=,- RA SH
20180122_100000.002,1,ROIG,,,,0,20180122100000,-1,-1,-1,-1,30,-1,20,-1,-1,-1,-1,,9999,0,1,3,FEW 23   SCT 33   BKN 100,1,18,1,15,1014,ROIG 221000Z 03020KT 9999 -SHRA FEW023 SCT033 BKN100 18/15     Q1014 RMK 2CU023 3CU033 7AC100 A2994=,- RA SH
20180122_110000.003,1,ROIG,,,,0,20180122110000,-1,-1,-1,-1,40,-1,19,-1,-1,-1,-1,,9999,0,0,3,FEW 24   SCT 32   BKN 90,1,18,1,14,1014,ROIG 221100Z 04019KT 9999 FEW024 SCT032 BKN090 18/14 Q1014 RMK     2CU024 3CU032 7AC090 A2996=,
20180122_210000.003,0,ROIG,,,,0,20180122210000,-1,-1,-1,-1,40,-1,14,-1,-1,-1,-1,,9999,0,0,2,BKN 30   BKN 50,1,19,1,14,1014,ROIG 222100Z 04014KT 9999 BKN030 BKN050 19/14 Q1014 RMK 5CU030     7SC050 A2997=,
20180122_220000.002,1,ROIG,,,,0,20180122220000,-1,-1,-1,-1,50,-1,13,-1,-1,-1,-1,,9999,0,0,3,FEW 30   SCT 40   BKN 70,1,19,1,14,1015,ROIG 222200Z 05013KT 9999 FEW030 SCT040 BKN070 19/14 Q1015 RMK     1CU030 3SC040 7AC070 A2999=,
20180122_230000.003,1,ROIG,,,,0,20180122230000,-1,-1,-1,-1,50,-1,13,-1,-1,-1,-1,,9999,0,0,3,FEW 28   SCT 40   BKN 90,1,19,1,14,1016,ROIG 222300Z 05013KT 9999 FEW028 SCT040 BKN090 19/14 Q1016 RMK     1CU028 4SC040 7AC090 A3000=,
20180123_000000.002,1,ROIG,,,,0,20180123000000,-1,-1,-1,-1,40,-1,12,-1,-1,-1,-1,,9999,0,0,3,FEW 30   BKN 38   BKN 90,1,20,1,14,1016,ROIG 230000Z 04012KT 9999 FEW030 BKN038 BKN090 20/14 Q1016 RMK     1CU030 5SC038 7AC090 A3001=,
20180123_010000.002,1,ROIG,,,,0,20180123010000,-1,-1,-1,-1,50,-1,12,-1,-1,-1,-1,,9999,0,0,2,SCT 30   BKN 43,1,21,1,14,1016,ROIG 230100Z 05012KT 9999 SCT030 BKN043 21/14 Q1016 RMK 3CU030     7SC043 A3002=,
20180123_020000.002,1,ROIG,,,,0,20180123020000,-1,-1,-1,-1,50,-1,11,-1,-1,-1,-1,,9999,0,0,2,SCT 34   BKN 43,1,22,1,14,1016,ROIG 230200Z 05011KT 9999 SCT034 BKN043 22/14 Q1016 RMK 3CU034     6SC043 A3001=,
20180123_030000.003,1,ROIG,,,,0,20180123030000,-1,-1,-1,-1,60,-1,11,-1,-1,-1,-1,,9999,0,0,2,FEW 32   BKN 43,1,23,1,15,1015,ROIG 230300Z 06011KT 9999 FEW032 BKN043 23/15 Q1015 RMK 2CU032     5SC043 A2998=,
20180123_040000.003,1,ROIG,,,,0,20180123040000,-1,-1,-1,-1,50,-1,10,-1,-1,-1,-1,,9999,0,0,2,FEW 32   BKN 100,1,23,1,15,1014,ROIG 230400Z 05010KT 9999 FEW032 BKN100 23/15 Q1014 RMK 2CU032     7AC100 A2996=,
20180123_050000.002,1,ROIG,,,,0,20180123050000,-1,-1,-1,-1,50,-1,10,-1,-1,-1,-1,,9999,0,0,2,FEW 30   SCT 100,1,23,1,15,1013,ROIG 230500Z 05010KT 9999 FEW030 SCT100 23/15 Q1013 RMK 2CU030     4AC100 A2994=,
20180123_060000.003,1,ROIG,,,,0,20180123060000,-1,-1,-1,-1,30,-1,12,-1,-1,-1,-1,,9999,0,0,1,FEW 27,1,23,1,15,1013,ROIG 230600Z 03012KT 9999 FEW027 23/15 Q1013 RMK 2CU027 A2993=,
20180123_070000.002,1,ROIG,,,,0,20180123070000,-1,-1,-1,-1,40,-1,12,-1,-1,-1,-1,,9999,0,0,1,FEW 26,1,22,1,15,1013,ROIG 230700Z 04012KT 9999 FEW026 22/15 Q1013 RMK 1CU026 A2993=,
20180123_080000.002,1,ROIG,,,,0,20180123080000,-1,-1,-1,-1,40,-1,12,-1,-1,-1,-1,,9999,0,0,1,FEW 26,1,21,1,15,1014,ROIG 230800Z 04012KT 9999 FEW026 21/15 Q1014 RMK 2CU026 A2994=,
20180123_090000.002,1,ROIG,,,,0,20180123090000,-1,-1,-1,-1,40,-1,11,-1,-1,-1,-1,,9999,0,0,2,FEW 26   SCT 90,1,20,1,15,1014,ROIG 230900Z 04011KT 9999 FEW026 SCT090 20/15 Q1014 RMK 2CU026     4AC090 A2996=,
20180123_100000.002,1,ROIG,,,,0,20180123100000,-1,-1,-1,-1,40,-1,12,-1,-1,-1,-1,,9999,0,0,2,SCT 26   BKN 90,1,20,1,15,1015,ROIG 231000Z 04012KT 9999 SCT026 BKN090 20/15 Q1015 RMK 4CU026     7AC090 A2998=,
20180123_110000.002,1,ROIG,,,,0,20180123110000,-1,-1,-1,-1,20,-1,8,-1,-1,-1,-1,,9999,0,0,2,SCT 26   BKN 32,1,20,1,15,1015,ROIG 231100Z 02008KT 9999 SCT026 BKN032 20/15 Q1015 RMK 3CU026     7CU032 A3000=,
20180123_210000.002,0,ROIG,,,,0,20180123210000,-1,-1,-1,-1,30,-1,19,-1,-1,-1,-1,,9999,0,1,2,FEW 14   BKN 22,1,18,1,16,1015,ROIG 232100Z 03019KT 9999 -SHRA FEW014 BKN022 18/16 Q1015 RMK     2CU014 7CU022 A2999=,- RA SH
20180123_220000.002,1,ROIG,,,,0,20180123220000,-1,-1,-1,-1,30,-1,21,-1,-1,-1,-1,,9999,0,1,2,FEW 13   BKN 21,1,18,1,17,1016,ROIG 232200Z 03021KT 9999 -SHRA FEW013 BKN021 18/17 Q1016 RMK     2CU013 7CU021 A3002=,- RA SH
20180123_230000.002,1,ROIG,,,,0,20180123230000,-1,-1,-1,-1,30,-1,20,-1,-1,-1,-1,,3000,1,1,3,FEW 7   BKN 15   BKN 21,1,17,1,17,1017,ROIG 232300Z 03020KT 3000 R04/0900VP1800D +SHRA FEW007 BKN015     BKN021 17/17 Q1017 RMK 2ST007 6CU015 7CU021 A3004 RI++=,+ RA SH
20180124_000000.002,1,ROIG,,,,0,20180124000000,-1,-1,-1,-1,30,-1,24,-1,-1,-1,-1,,9999,0,1,2,BKN 19   BKN 26,1,17,1,16,1017,ROIG 240000Z 03024KT 9999 -SHRA BKN019 BKN026 17/16 Q1017 RMK     6CU019 7CU026 A3005=,- RA SH
20180124_010000.003,1,ROIG,,,,0,20180124010000,-1,-1,-1,-1,30,-1,22,-1,-1,-1,-1,,9999,0,0,2,BKN 20   BKN 27,1,18,1,15,1018,ROIG 240100Z 03022KT 9999 BKN020 BKN027 18/15 Q1018 RMK 6CU020     7CU027 A3007=,
20180124_020000.002,1,ROIG,,,,0,20180124020000,-1,-1,-1,-1,40,-1,24,-1,-1,-1,-1,,9999,0,0,3,SCT 20   BKN 27   BKN 38,1,20,1,16,1017,ROIG 240200Z 04024KT 9999 SCT020 BKN027 BKN038 20/16 Q1017 RMK     4CU020 6CU027 7SC038 A3005=,
20180124_030000.002,1,ROIG,,,,0,20180124030000,-1,-1,-1,-1,40,-1,22,-1,-1,-1,-1,,9999,0,0,3,SCT 21   BKN 27   BKN 38,1,20,1,15,1017,ROIG 240300Z 04022KT 9999 SCT021 BKN027 BKN038 20/15 Q1017 RMK     3CU021 6CU027 7SC038 A3003=,
20180124_040000.002,1,ROIG,,,,0,20180124040000,-1,-1,-1,-1,40,-1,22,-1,-1,-1,-1,,9999,0,0,3,FEW 21   SCT 29   BKN 41,1,20,1,15,1016,ROIG 240400Z 04022KT 9999 FEW021 SCT029 BKN041 20/15 Q1016 RMK     1CU021 4CU029 7SC041 A3001=,
20180124_050000.002,1,ROIG,,,,0,20180124050000,-1,-1,-1,-1,40,-1,21,-1,-1,-1,-1,,9999,0,0,2,SCT 20   BKN 28,1,19,1,15,1015,ROIG 240500Z 04021KT 9999 SCT020 BKN028 19/15 Q1015 RMK 3CU020     7CU028 A2999=,
20180124_060000.002,1,ROIG,,,,0,20180124060000,-1,-1,-1,-1,50,-1,22,-1,-1,-1,-1,,9999,0,0,2,SCT 22   BKN 33,1,19,1,15,1015,ROIG 240600Z 05022KT 9999 SCT022 BKN033 19/15 Q1015 RMK 3CU022     7CU033 A2997=,
20180124_070000.002,1,ROIG,,,,0,20180124070000,-1,-1,-1,-1,40,-1,20,-1,-1,-1,-1,,9999,0,1,2,SCT 22   BKN 33,1,18,1,15,1015,ROIG 240700Z 04020KT 9999 -SHRA SCT022 BKN033 18/15 Q1015 RMK     3CU022 7CU033 A2997=,- RA SH
20180124_080000.002,1,ROIG,,,,0,20180124080000,-1,-1,-1,-1,40,-1,21,-1,-1,-1,-1,,9999,0,0,3,FEW 25   BKN 33   BKN 40,1,19,1,14,1015,ROIG 240800Z 04021KT 9999 FEW025 BKN033 BKN040 19/14 Q1015 RMK     2CU025 5CU033 7SC040 A2998=,
20180124_090000.003,1,ROIG,,,,0,20180124090000,-1,-1,-1,-1,40,-1,24,-1,-1,-1,-1,,9999,0,0,3,FEW 23   BKN 35   BKN 45,1,19,1,14,1015,ROIG 240900Z 04024KT 9999 FEW023 BKN035 BKN045 19/14 Q1015 RMK     2CU023 5CU035 7SC045 A2999=,
20180124_100000.002,1,ROIG,,,,0,20180124100000,-1,-1,-1,-1,40,-1,24,-1,-1,-1,-1,,9999,0,0,2,BKN 22   BKN 33,1,19,1,14,1016,ROIG 241000Z 04024KT 9999 BKN022 BKN033 19/14 Q1016 RMK 5CU022     7CU033 A3001=,
20180124_110000.002,1,ROIG,,,,0,20180124110000,-1,-1,-1,-1,40,-1,24,-1,-1,-1,-1,,9999,0,0,2,SCT 23   BKN 35,1,18,1,14,1016,ROIG 241100Z 04024KT 9999 SCT023 BKN035 18/14 Q1016 RMK 4CU023     7CU035 A3002=,
20180124_210000.002,0,ROIG,,,,0,20180124210000,-1,-1,-1,-1,-1,-1,-1,-1,-1,-1,-1,,-1,0,0,0,,0,-1,0,-1,-1,ROIG 242100Z NIL=,
20180124_210000.005,1,ROIG,,,,0,20180124210000,-1,-1,-1,-1,50,-1,21,-1,-1,-1,-1,,9999,0,1,2,SCT 35   BKN 40,0,-1,0,-1,-1,ROIG 242100Z 05021KT 9999 -SHRA SCT035 BKN040 17/13Q1016 RMK 4CU035 7SC040 A3001=,- RA SH
20180124_220000.002,1,ROIG,,,,0,20180124220000,-1,-1,-1,-1,50,-1,20,-1,-1,-1,-1,,9999,0,1,2,SCT 25   BKN 35,1,18,1,14,1016,ROIG 242200Z 05020KT 9999 -SHRA SCT025 BKN035 18/14 Q1016 RMK     3CU025 7SC035 A3003=,- RA SH
20180124_230000.002,1,ROIG,,,,0,20180124230000,-1,-1,-1,-1,50,-1,21,-1,-1,-1,-1,,9999,0,1,2,FEW 26   BKN 45,1,17,1,14,1017,ROIG 242300Z 05021KT 9999 -RA FEW026 BKN045 17/14 Q1017 RMK     2CU026 7SC045 A3004=,- RA
20180125_000000.002,1,ROIG,,,,0,20180125000000,-1,-1,-1,-1,50,-1,21,-1,-1,-1,-1,,9999,0,0,2,FEW 25   BKN 45,1,18,1,13,1018,ROIG 250000Z 05021KT 9999 FEW025 BKN045 18/13 Q1018 RMK 2CU025     7SC045 A3006=,
20180125_010000.002,1,ROIG,,,,0,20180125010000,-1,-1,-1,-1,50,-1,19,-1,-1,-1,-1,,9999,0,1,2,SCT 28   BKN 45,1,19,1,13,1018,ROIG 250100Z 05019KT 9999 -RA SCT028 BKN045 19/13 Q1018 RMK     3CU028 7SC045 A3008=,- RA
20180125_020000.003,1,ROIG,,,,0,20180125020000,-1,-1,-1,-1,70,-1,18,-1,-1,-1,-1,,9999,0,0,2,FEW 27   BKN 45,1,19,1,13,1018,ROIG 250200Z 07018KT 9999 FEW027 BKN045 19/13 Q1018 RMK 2CU027     7SC045 A3007=,
20180125_030000.002,1,ROIG,,,,0,20180125030000,-1,-1,-1,-1,60,-1,17,-1,-1,-1,-1,,9999,0,0,2,FEW 30   BKN 47,1,20,1,13,1017,ROIG 250300Z 06017KT 9999 FEW030 BKN047 20/13 Q1017 RMK 2CU030     7SC047 A3005=,
20180125_040000.002,1,ROIG,,,,0,20180125040000,-1,-1,-1,-1,60,-1,16,-1,-1,-1,-1,,9999,0,0,3,FEW 30   SCT 45   BKN 60,1,20,1,13,1016,ROIG 250400Z 06016KT 9999 FEW030 SCT045 BKN060 20/13 Q1016 RMK     1CU030 3SC045 7SC060 A3002=,
20180125_050000.002,1,ROIG,,,,0,20180125050000,-1,-1,-1,-1,70,-1,14,-1,-1,-1,-1,,9999,0,1,2,SCT 28   BKN 45,1,19,1,15,1015,ROIG 250500Z 07014KT 9999 -RA SCT028 BKN045 19/15 Q1015 RMK     3CU028 7SC045 A2998=,- RA
20180125_060000.002,1,ROIG,,,,0,20180125060000,-1,-1,-1,-1,70,-1,14,-1,-1,-1,-1,,9999,0,0,3,FEW 28   BKN 33   BKN 40,1,20,1,14,1014,ROIG 250600Z 07014KT 9999 FEW028 BKN033 BKN040 20/14 Q1014 RMK     2CU028 5CU033 7SC040 A2997=,
20180125_070000.002,1,ROIG,,,,0,20180125070000,-1,-1,-1,-1,60,-1,12,-1,-1,-1,-1,,9999,0,0,3,FEW 28   BKN 35   BKN 40,1,20,1,14,1014,ROIG 250700Z 06012KT 9999 FEW028 BKN035 BKN040 20/14 Q1014 RMK     2CU028 5CU035 7SC040 A2997=,
20180125_080000.002,1,ROIG,,,,0,20180125080000,-1,-1,-1,-1,60,-1,13,-1,-1,-1,-1,,9999,0,0,3,FEW 28   BKN 33   BKN 40,1,20,1,14,1014,ROIG 250800Z 06013KT 9999 FEW028 BKN033 BKN040 20/14 Q1014 RMK     2CU028 5CU033 7SC040 A2996=,
20180125_090000.002,1,ROIG,,,,0,20180125090000,-1,-1,-1,-1,60,-1,13,-1,-1,-1,-1,,9999,0,1,2,FEW 28   BKN 34,1,20,1,14,1015,ROIG 250900Z 06013KT 9999 VCSH FEW028 BKN034 20/14 Q1015 RMK     2CU028 7CU034 A2998=,VC SH
20180125_100000.003,1,ROIG,,,,0,20180125100000,-1,-1,-1,-1,60,-1,12,-1,-1,-1,-1,,9999,0,0,2,BKN 26   BKN 34,1,20,1,15,1016,ROIG 251000Z 06012KT 9999 BKN026 BKN034 20/15 Q1016 RMK 5CU026     7CU034 A3000=,
20180125_110000.003,1,ROIG,,,,0,20180125110000,-1,-1,-1,-1,70,-1,14,-1,-1,-1,-1,,9999,0,0,2,BKN 25   BKN 34,1,20,1,15,1016,ROIG 251100Z 07014KT 9999 BKN025 BKN034 20/15 Q1016 RMK 5CU025     7CU034 A3001=,
20180125_210000.002,0,ROIG,,,,0,20180125210000,-1,-1,-1,-1,30,-1,5,-1,-1,-1,-1,,9999,0,0,3,FEW 11   BKN 35   BKN 50,1,18,1,17,1015,ROIG 252100Z 03005KT 9999 FEW011 BKN035 BKN050 18/17 Q1015 RMK     1CU011 5CU035 7SC050 A3000=,
20180125_220000.002,1,ROIG,,,,0,20180125220000,-1,-1,-1,-1,350,-1,7,-1,-1,-1,-1,,9999,0,0,3,FEW 15   BKN 40   BKN 60,1,18,1,17,1016,ROIG 252200Z 35007KT 9999 FEW015 BKN040 BKN060 18/17 Q1016 RMK     1CU015 6SC040 7SC060 A3002=,
20180125_230000.002,1,ROIG,,,,0,20180125230000,-1,-1,-1,-1,350,-1,6,-1,-1,-1,-1,,9999,0,1,3,SCT 15   BKN 40   BKN 80,1,18,1,17,1017,ROIG 252300Z 35006KT 9999 VCSH SCT015 BKN040 BKN080 18/17     Q1017 RMK 3CU015 5SC040 6AC080 A3004=,VC SH
20180126_000000.002,1,ROIG,,,,0,20180126000000,-1,-1,-1,-1,30,-1,18,-1,-1,-1,-1,,9999,0,1,3,FEW 6   BKN 13   BKN 25,1,18,1,17,1018,ROIG 260000Z 03018KT 9999 -SHRA FEW006 BKN013 BKN025 18/17     Q1018 RMK 1ST006 5CU013 7CU025 A3007=,- RA SH
20180126_010000.002,1,ROIG,,,,0,20180126010000,-1,-1,-1,-1,20,-1,20,-1,-1,-1,-1,,9999,0,1,3,SCT 6   BKN 12   BKN 21,1,18,1,18,1018,ROIG 260100Z 02020KT 9999 -SHRA SCT006 BKN012 BKN021 18/18     Q1018 RMK 3ST006 5CU012 7CU021 A3009=,- RA SH
20180126_020000.002,1,ROIG,,,,0,20180126020000,-1,-1,-1,-1,20,-1,22,-1,33,-1,-1,,9999,0,1,3,FEW 7   BKN 14   BKN 20,1,18,1,17,1019,ROIG 260200Z 02022G33KT 9999 -SHRA FEW007 BKN014 BKN020 18/17     Q1019 RMK 2ST007 5CU014 7CU020 A3010=,- RA SH
20180126_030000.002,1,ROIG,,,,0,20180126030000,-1,-1,-1,-1,20,-1,24,-1,-1,-1,-1,,9999,0,1,3,FEW 8   BKN 12   BKN 21,1,17,1,16,1018,ROIG 260300Z 02024KT 9999 VCSH FEW008 BKN012 BKN021 17/16     Q1018 RMK 2ST008 6CU012 7CU021 A3009=,VC SH
20180126_040000.002,1,ROIG,,,,0,20180126040000,-1,-1,-1,-1,30,-1,23,-1,36,-1,-1,,9999,0,1,3,FEW 8   BKN 12   BKN 21,1,17,1,16,1018,ROIG 260400Z 03023G36KT 9999 -SHRA FEW008 BKN012 BKN021 17/16     Q1018 RMK 1ST008 6CU012 7CU021 A3007=,- RA SH
20180126_050000.002,1,ROIG,,,,0,20180126050000,-1,-1,-1,-1,20,-1,21,-1,32,-1,-1,,9999,0,1,2,BKN 12   BKN 21,1,17,1,15,1017,ROIG 260500Z 02021G32KT 9999 -SHRA BKN012 BKN021 17/15 Q1017     RMK 6CU012 7CU021 A3005=,- RA SH
20180126_060000.002,1,ROIG,,,,0,20180126060000,-1,-1,-1,-1,30,-1,21,-1,-1,-1,-1,,9999,0,1,2,BKN 12   BKN 20,1,16,1,15,1017,ROIG 260600Z 03021KT 9999 -SHRA BKN012 BKN020 16/15 Q1017 RMK     6CU012 7CU020 A3005=,- RA SH
20180126_070000.002,1,ROIG,,,,0,20180126070000,-1,-1,-1,-1,30,-1,20,-1,-1,-1,-1,,9999,0,1,2,FEW 12   BKN 20,1,16,1,15,1018,ROIG 260700Z 03020KT 9999 -SHRA FEW012 BKN020 16/15 Q1018 RMK     2CU012 7CU020 A3006=,- RA SH
20180126_080000.003,1,ROIG,,,,0,20180126080000,-1,-1,-1,-1,30,-1,19,-1,-1,-1,-1,,9999,0,1,2,SCT 13   BKN 20,1,16,1,14,1018,ROIG 260800Z 03019KT 9999 -SHRA SCT013 BKN020 16/14 Q1018 RMK     4CU013 7CU020 A3006=,- RA SH
20180126_090000.002,1,ROIG,,,,0,20180126090000,-1,-1,-1,-1,20,-1,20,-1,-1,-1,-1,,9999,0,1,3,FEW 8   SCT 13   BKN 20,1,15,1,14,1018,ROIG 260900Z 02020KT 9999 -SHRA FEW008 SCT013 BKN020 15/14     Q1018 RMK 1ST008 3CU013 7CU020 A3008=,- RA SH
20180126_100000.002,1,ROIG,,,,0,20180126100000,-1,-1,-1,-1,20,-1,19,-1,-1,-1,-1,,9999,0,1,3,FEW 8   SCT 11   BKN 20,1,15,1,14,1019,ROIG 261000Z 02019KT 9999 -SHRA FEW008 SCT011 BKN020 15/14     Q1019 RMK 1ST008 4CU011 7CU020 A3010=,- RA SH
20180126_110000.002,1,ROIG,,,,0,20180126110000,-1,-1,-1,-1,30,-1,22,-1,-1,-1,-1,,9999,0,1,3,FEW 8   SCT 11   BKN 20,1,15,1,14,1020,ROIG 261100Z 03022KT 9999 -SHRA FEW008 SCT011 BKN020 15/14     Q1020 RMK 1ST008 3CU011 7CU020 A3012=,- RA SH
20180126_210000.002,0,ROIG,,,,0,20180126210000,-1,-1,-1,-1,50,-1,21,-1,-1,-1,-1,,8000,0,1,2,SCT 16   BKN 22,1,16,1,14,1019,ROIG 262100Z 05021KT 8000 -SHRA SCT016 BKN022 16/14 Q1019 RMK     4CU016 7CU022 A3010=,- RA SH
20180126_220000.002,1,ROIG,,,,0,20180126220000,-1,-1,-1,-1,40,-1,18,-1,-1,-1,-1,,9999,0,0,2,FEW 18   BKN 30,1,16,1,13,1019,ROIG 262200Z 04018KT 9999 FEW018 BKN030 16/13 Q1019 RMK 2CU018     7CU030 A3011=,
20180126_230000.002,1,ROIG,,,,0,20180126230000,-1,-1,-1,-1,40,-1,17,-1,-1,-1,-1,,9999,0,0,2,FEW 22   BKN 28,1,16,1,13,1020,ROIG 262300Z 04017KT 9999 FEW022 BKN028 16/13 Q1020 RMK 1CU022     7CU028 A3013=,
20180127_000000.002,1,ROIG,,,,0,20180127000000,-1,-1,-1,-1,40,-1,15,-1,-1,-1,-1,,9999,0,0,1,BKN 24,1,17,1,13,1021,ROIG 270000Z 04015KT 9999 BKN024 17/13 Q1021 RMK 7CU024 A3015=,
20180127_010000.002,1,ROIG,,,,0,20180127010000,-1,-1,-1,-1,50,-1,20,-1,-1,-1,-1,,9999,0,1,2,BKN 22   BKN 30,1,17,1,14,1021,ROIG 270100Z 05020KT 9999 -SHRA BKN022 BKN030 17/14 Q1021 RMK     5CU022 7CU030 A3016=,- RA SH
20180127_020000.002,1,ROIG,,,,0,20180127020000,-1,-1,-1,-1,50,-1,17,-1,-1,-1,-1,,9999,0,0,2,FEW 23   BKN 30,1,18,1,13,1021,ROIG 270200Z 05017KT 9999 FEW023 BKN030 18/13 Q1021 RMK 2CU023     7CU030 A3016=,
20180127_030000.002,1,ROIG,,,,0,20180127030000,-1,-1,-1,-1,60,-1,14,-1,-1,-1,-1,,9999,0,0,2,SCT 23   BKN 35,1,18,1,14,1020,ROIG 270300Z 06014KT 9999 SCT023 BKN035 18/14 Q1020 RMK 4CU023     7SC035 A3013=,
20180127_040000.002,1,ROIG,,,,0,20180127040000,-1,-1,-1,-1,60,-1,16,-1,-1,-1,-1,,9999,0,0,2,BKN 23   BKN 35,1,18,1,13,1019,ROIG 270400Z 06016KT 9999 BKN023 BKN035 18/13 Q1019 RMK 5CU023     7SC035 A3010=,
20180127_050000.002,1,ROIG,,,,0,20180127050000,-1,-1,-1,-1,70,-1,11,-1,-1,-1,-1,,9999,0,0,2,SCT 25   BKN 37,1,19,1,13,1018,ROIG 270500Z 07011KT 9999 SCT025 BKN037 19/13 Q1018 RMK 4CU025     7SC037 A3007=,
20180127_060000.002,1,ROIG,,,,0,20180127060000,-1,-1,-1,-1,80,-1,12,-1,-1,-1,-1,,9999,0,0,2,FEW 27   BKN 50,1,20,1,13,1017,ROIG 270600Z 08012KT 9999 FEW027 BKN050 20/13 Q1017 RMK 2CU027     5SC050 A3004=,
20180127_070000.002,1,ROIG,,,,0,20180127070000,-1,-1,-1,-1,80,-1,10,-1,-1,50,120,,9999,0,0,1,SCT 27,1,19,1,13,1016,ROIG 270700Z 08010KT 050V120 9999 SCT027 19/13 Q1016 RMK     3CU027 A3003=,
20180127_080000.002,1,ROIG,,,,0,20180127080000,-1,-1,-1,-1,70,-1,10,-1,-1,-1,-1,,9999,0,0,1,SCT 27,1,20,1,13,1016,ROIG 270800Z 07010KT 9999 SCT027 20/13 Q1016 RMK 4CU027 A3003=,
20180127_090000.003,1,ROIG,,,,0,20180127090000,-1,-1,-1,-1,80,-1,10,-1,-1,-1,-1,,9999,0,0,2,BKN 26   BKN 38,1,19,1,14,1017,ROIG 270900Z 08010KT 9999 BKN026 BKN038 19/14 Q1017 RMK 5CU026     7SC038 A3003=,
20180127_100000.002,1,ROIG,,,,0,20180127100000,-1,-1,-1,-1,80,-1,9,-1,-1,-1,-1,,9999,0,0,2,SCT 25   BKN 35,1,19,1,14,1017,ROIG 271000Z 08009KT 9999 SCT025 BKN035 19/14 Q1017 RMK 3CU025     7SC035 A3004=,
20180127_110000.002,1,ROIG,,,,0,20180127110000,-1,-1,-1,-1,90,-1,9,-1,-1,-1,-1,,9999,0,0,2,SCT 26   BKN 35,1,19,1,13,1017,ROIG 271100Z 09009KT 9999 SCT026 BKN035 19/13 Q1017 RMK 4CU026     7SC035 A3004=,
20180127_210000.002,0,ROIG,,,,0,20180127210000,-1,-1,-1,-1,130,-1,9,-1,-1,-1,-1,,9999,0,0,2,SCT 24   BKN 50,1,20,1,16,1013,ROIG 272100Z 13009KT 9999 SCT024 BKN050 20/16 Q1013 RMK 3CU024     5SC050 A2992=,
20180127_220000.002,1,ROIG,,,,0,20180127220000,-1,-1,-1,-1,130,-1,10,-1,-1,-1,-1,,9999,0,0,1,SCT 24,1,20,1,16,1012,ROIG 272200Z 13010KT 9999 SCT024 20/16 Q1012 RMK 3CU024 A2991=,
20180127_230000.002,1,ROIG,,,,0,20180127230000,-1,-1,-1,-1,140,-1,10,-1,-1,-1,-1,,9999,0,0,2,SCT 22   BKN 45,1,21,1,17,1013,ROIG 272300Z 14010KT 9999 SCT022 BKN045 21/17 Q1013 RMK 3CU022     6SC045 A2992=,
20180128_000000.003,1,ROIG,,,,0,20180128000000,-1,-1,-1,-1,140,-1,8,-1,-1,100,180,,9999,0,1,1,BKN 21,1,21,1,17,1013,ROIG 280000Z 14008KT 100V180 9999 -SHRA BKN021 21/17 Q1013 RMK     7CU021 A2994=,- RA SH
20180128_010000.002,1,ROIG,,,,0,20180128010000,-1,-1,-1,-1,150,-1,11,-1,-1,-1,-1,,9999,0,0,2,BKN 24   BKN 40,1,22,1,17,1014,ROIG 280100Z 15011KT 9999 BKN024 BKN040 22/17 Q1014 RMK 5CU024     7SC040 A2995=,
20180128_020000.002,1,ROIG,,,,0,20180128020000,-1,-1,-1,-1,160,-1,10,-1,-1,-1,-1,,9999,0,1,2,BKN 23   BKN 35,1,22,1,17,1014,ROIG 280200Z 16010KT 9999 -SHRA BKN023 BKN035 22/17 Q1014 RMK     5CU023 7SC035 A2996=,- RA SH
20180128_030000.002,1,ROIG,,,,0,20180128030000,-1,-1,-1,-1,160,-1,11,-1,-1,-1,-1,,9999,0,1,3,FEW 15   SCT 24   BKN 43,1,22,1,19,1013,ROIG 280300Z 16011KT 9999 -SHRA FEW015 SCT024 BKN043 22/19     Q1013 RMK 2CU015 4CU024 6SC043 A2992=,- RA SH
20180128_040000.002,1,ROIG,,,,0,20180128040000,-1,-1,-1,-1,160,-1,13,-1,-1,-1,-1,,9999,0,0,3,FEW 18   BKN 23   BKN 45,1,22,1,18,1012,ROIG 280400Z 16013KT 9999 FEW018 BKN023 BKN045 22/18 Q1012 RMK     1CU018 5CU023 7SC045 A2989=,
20180128_050000.002,1,ROIG,,,,0,20180128050000,-1,-1,-1,-1,180,-1,18,-1,-1,-1,-1,,9999,0,1,3,FEW 18   BKN 24   BKN 38,1,22,1,19,1011,ROIG 280500Z 18018KT 9999 VCSH FEW018 BKN024 BKN038 22/19     Q1011 RMK 1CU018 5CU024 7SC038 A2986=,VC SH
20180128_060000.002,1,ROIG,,,,0,20180128060000,-1,-1,-1,-1,180,-1,19,-1,-1,-1,-1,,9999,0,1,2,SCT 21   BKN 35,1,22,1,18,1010,ROIG 280600Z 18019KT 9999 -SHRA SCT021 BKN035 22/18 Q1010 RMK     4CU021 7SC035 A2983=,- RA SH
20180128_070000.003,1,ROIG,,,,0,20180128070000,-1,-1,-1,-1,210,-1,14,-1,-1,-1,-1,,4000,0,1,3,FEW 7   BKN 16   FEW 25 TCU,1,21,1,19,1010,ROIG 280700Z 21014KT 4000 SHRA FEW007 BKN016 FEW025TCU 21/19     Q1010 RMK 2ST007 6CU016 1TCU025 A2984 TCU 15KM NW MOV E=,RA SH
20180128_080000.002,1,ROIG,,,,0,20180128080000,-1,-1,-1,-1,300,-1,7,-1,-1,240,360,,2000,1,1,4,SCT 4   BKN 9   BKN 15   FEW 20 CB,1,20,1,19,1011,ROIG 280800Z 30007KT 240V360 2000 R04/0900V1500N +SHRA SCT004     BKN009 BKN015 FEW020CB 20/19 Q1011 RMK 4ST004 5CU009           7CU015 2CB020 A2986 CB OHD MOV E=,+ RA SH
20180128_090000.002,1,ROIG,,,,0,20180128090000,-1,-1,-1,-1,350,-1,12,-1,-1,-1,-1,,6000,0,1,3,SCT 7   BKN 11   BKN 18,1,19,1,18,1011,ROIG 280900Z 35012KT 6000 -SHRA SCT007 BKN011 BKN018 19/18     Q1011 RMK 3ST007 5CU011 7CU018 A2987=,- RA SH
20180128_100000.002,1,ROIG,,,,0,20180128100000,-1,-1,-1,-1,360,-1,14,-1,-1,-1,-1,,6000,0,1,3,FEW 7   BKN 13   BKN 40,1,18,1,17,1012,ROIG 281000Z 36014KT 6000 -SHRA FEW007 BKN013 BKN040 18/17     Q1012 RMK 2ST007 5CU013 7SC040 A2990=,- RA SH
20180128_110000.002,1,ROIG,,,,0,20180128110000,-1,-1,-1,-1,10,-1,15,-1,-1,-1,-1,,8000,0,1,3,FEW 8   BKN 16   BKN 43,1,18,1,17,1012,ROIG 281100Z 01015KT 8000 -SHRA FEW008 BKN016 BKN043 18/17     Q1012 RMK 2ST008 5CU016 7SC043 A2991=,- RA SH
20180128_210000.002,0,ROIG,,,,0,20180128210000,-1,-1,-1,-1,20,-1,17,-1,28,-1,-1,,9999,0,1,3,FEW 8   SCT 15   BKN 24,1,14,1,13,1016,ROIG 282100Z 02017G28KT 9999 -SHRA FEW008 SCT015 BKN024 14/13     Q1016 RMK 1ST008 4CU015 7CU024 A3000=,- RA SH
20180128_220000.003,1,ROIG,,,,0,20180128220000,-1,-1,-1,-1,20,-1,16,-1,-1,-1,-1,,9999,0,0,2,BKN 19   BKN 25,1,15,1,13,1016,ROIG 282200Z 02016KT 9999 BKN019 BKN025 15/13 Q1016 RMK 5CU019     7CU025 A3003=,
20180128_230000.002,1,ROIG,,,,0,20180128230000,-1,-1,-1,-1,20,-1,18,-1,-1,-1,-1,,9999,0,1,2,SCT 20   BKN 25,1,15,1,12,1017,ROIG 282300Z 02018KT 9999 -SHRA SCT020 BKN025 15/12 Q1017 RMK     4CU020 7CU025 A3004=,- RA SH
20180129_000000.003,1,ROIG,,,,0,20180129000000,-1,-1,-1,-1,10,-1,17,-1,-1,-1,-1,,9999,0,0,3,FEW 19   BKN 25   BKN 30,1,15,1,12,1018,ROIG 290000Z 01017KT 9999 FEW019 BKN025 BKN030 15/12 Q1018 RMK     2CU019 5CU025 7CU030 A3006=,
20180129_010000.002,1,ROIG,,,,0,20180129010000,-1,-1,-1,-1,20,-1,17,-1,27,-1,-1,,9999,0,1,2,SCT 25   BKN 28,1,15,1,12,1018,ROIG 290100Z 02017G27KT 9999 -SHRA SCT025 BKN028 15/12 Q1018     RMK 3CU025 7CU028 A3009=,- RA SH
20180129_020000.002,1,ROIG,,,,0,20180129020000,-1,-1,-1,-1,20,-1,16,-1,-1,-1,-1,,9999,0,1,2,SCT 14   BKN 30,1,15,1,13,1018,ROIG 290200Z 02016KT 9999 -SHRA SCT014 BKN030 15/13 Q1018 RMK     3CU014 7CU030 A3008=,- RA SH
20180129_030000.002,1,ROIG,,,,0,20180129030000,-1,-1,-1,-1,20,-1,17,-1,-1,-1,-1,,9999,0,1,2,SCT 21   BKN 30,1,15,1,12,1018,ROIG 290300Z 02017KT 9999 -SHRA SCT021 BKN030 15/12 Q1018 RMK     4CU021 7CU030 A3009=,- RA SH
20180129_040000.002,1,ROIG,,,,0,20180129040000,-1,-1,-1,-1,20,-1,16,-1,-1,350,50,,9999,0,0,2,BKN 22   BKN 40,1,16,1,11,1018,ROIG 290400Z 02016KT 350V050 9999 BKN022 BKN040 16/11 Q1018     RMK 5CU022 7SC040 A3007=,
20180129_050000.002,1,ROIG,,,,0,20180129050000,-1,-1,-1,-1,20,-1,16,-1,28,-1,-1,,9999,0,1,3,FEW 21   SCT 28   BKN 80,1,17,1,11,1017,ROIG 290500Z 02016G28KT 9999 VCSH FEW021 SCT028 BKN080 17/11     Q1017 RMK 1CU021 4CU028 6AC080 A3004=,VC SH
20180129_060000.002,1,ROIG,,,,0,20180129060000,-1,-1,-1,-1,20,-1,13,-1,-1,-1,-1,,9999,0,1,3,SCT 21   BKN 30   BKN 80,1,15,1,11,1017,ROIG 290600Z 02013KT 9999 -SHRA SCT021 BKN030 BKN080 15/11     Q1017 RMK 3CU021 6CU030 7AC080 A3005=,- RA SH
20180129_070000.002,1,ROIG,,,,0,20180129070000,-1,-1,-1,-1,20,-1,15,-1,-1,-1,-1,,9999,0,1,2,SCT 20   BKN 27,1,15,1,11,1017,ROIG 290700Z 02015KT 9999 VCSH SCT020 BKN027 15/11 Q1017 RMK     3CU020 7CU027 A3004=,VC SH
20180129_080000.002,1,ROIG,,,,0,20180129080000,-1,-1,-1,-1,10,-1,14,-1,-1,-1,-1,,9999,0,1,3,FEW 18   BKN 27   BKN 40,1,15,1,11,1017,ROIG 290800Z 01014KT 9999 VCSH FEW018 BKN027 BKN040 15/11     Q1017 RMK 1CU018 5CU027 7SC040 A3005=,VC SH
20180129_090000.002,1,ROIG,,,,0,20180129090000,-1,-1,-1,-1,10,-1,12,-1,-1,-1,-1,,9999,0,1,2,SCT 20   BKN 28,1,15,1,11,1018,ROIG 290900Z 01012KT 9999 -SHRA SCT020 BKN028 15/11 Q1018 RMK     4CU020 7CU028 A3007=,- RA SH
20180129_100000.002,1,ROIG,,,,0,20180129100000,-1,-1,-1,-1,10,-1,13,-1,-1,-1,-1,,9999,0,1,2,FEW 20   BKN 30,1,14,1,11,1019,ROIG 291000Z 01013KT 9999 VCSH FEW020 BKN030 14/11 Q1019 RMK     2CU020 7CU030 A3009=,VC SH
20180129_110000.002,1,ROIG,,,,0,20180129110000,-1,-1,-1,-1,10,-1,15,-1,-1,-1,-1,,9999,0,1,2,FEW 18   BKN 30,1,14,1,11,1019,ROIG 291100Z 01015KT 9999 -SHRA FEW018 BKN030 14/11 Q1019 RMK     2CU018 7CU030 A3010=,- RA SH
20180129_210000.002,0,ROIG,,,,0,20180129210000,-1,-1,-1,-1,10,-1,13,-1,-1,-1,-1,,9999,0,1,2,BKN 25   BKN 31,1,14,1,11,1020,ROIG 292100Z 01013KT 9999 -SHRA BKN025 BKN031 14/11 Q1020 RMK     5CU025 7CU031 A3013=,- RA SH
20180129_220000.002,1,ROIG,,,,0,20180129220000,-1,-1,-1,-1,20,-1,15,-1,-1,-1,-1,,9999,0,1,2,SCT 20   BKN 28,1,14,1,12,1021,ROIG 292200Z 02015KT 9999 -SHRA SCT020 BKN028 14/12 Q1021 RMK     4CU020 7CU028 A3015=,- RA SH
20180129_230000.002,1,ROIG,,,,0,20180129230000,-1,-1,-1,-1,20,-1,16,-1,-1,-1,-1,,9999,0,1,3,SCT 20   BKN 30   BKN 45,1,15,1,12,1020,ROIG 292300Z 02016KT 9999 -SHRA SCT020 BKN030 BKN045 15/12     Q1020 RMK 3CU020 5CU030 6SC045 A3014=,- RA SH
20180130_000000.002,1,ROIG,,,,0,20180130000000,-1,-1,-1,-1,20,-1,16,-1,-1,-1,-1,,9999,0,1,2,SCT 21   BKN 30,1,15,1,12,1022,ROIG 300000Z 02016KT 9999 -SHRA SCT021 BKN030 15/12 Q1022 RMK     3CU021 7CU030 A3018=,- RA SH
20180130_010000.002,1,ROIG,,,,0,20180130010000,-1,-1,-1,-1,10,-1,13,-1,-1,-1,-1,,9999,0,1,3,SCT 13   BKN 20   BKN 30,1,14,1,13,1022,ROIG 300100Z 01013KT 9999 -SHRA SCT013 BKN020 BKN030 14/13     Q1022 RMK 3CU013 5CU020 7CU030 A3019=,- RA SH
20180130_020000.002,1,ROIG,,,,0,20180130020000,-1,-1,-1,-1,50,-1,19,-1,-1,-1,-1,,9999,0,1,3,FEW 15   BKN 20   BKN 30,1,16,1,13,1021,ROIG 300200Z 05019KT 9999 -SHRA FEW015 BKN020 BKN030 16/13     Q1021 RMK 2CU015 5CU020 7CU030 A3015 P/FR=,- RA SH
20180130_030000.002,1,ROIG,,,,0,20180130030000,-1,-1,-1,-1,40,-1,16,-1,-1,-1,-1,,9999,0,1,2,BKN 22   BKN 30,1,16,1,13,1020,ROIG 300300Z 04016KT 9999 -SHRA BKN022 BKN030 16/13 Q1020 RMK     5CU022 7CU030 A3013=,- RA SH
20180130_040000.002,1,ROIG,,,,0,20180130040000,-1,-1,-1,-1,50,-1,16,-1,-1,-1,-1,,9999,0,1,2,SCT 22   BKN 33,1,17,1,12,1019,ROIG 300400Z 05016KT 9999 -SHRA SCT022 BKN033 17/12 Q1019 RMK     3CU022 7CU033 A3011=,- RA SH
20180130_050000.002,1,ROIG,,,,0,20180130050000,-1,-1,-1,-1,40,-1,15,-1,-1,-1,-1,,9999,0,0,3,FEW 15   BKN 20   BKN 30,1,17,1,13,1018,ROIG 300500Z 04015KT 9999 FEW015 BKN020 BKN030 17/13 Q1018 RMK     2CU015 5CU020 7CU030 A3008=,
20180130_060000.003,1,ROIG,,,,0,20180130060000,-1,-1,-1,-1,30,-1,14,-1,-1,-1,-1,,9999,0,1,3,FEW 9   SCT 35   BKN 50,1,17,1,14,1018,ROIG 300600Z 03014KT 9999 VCSH FEW009 SCT035 BKN050 17/14     Q1018 RMK 1CU009 3CU035 6SC050 A3008=,VC SH
20180130_070000.002,1,ROIG,,,,0,20180130070000,-1,-1,-1,-1,30,-1,15,-1,-1,-1,-1,,9999,0,1,2,SCT 11   BKN 50,1,16,1,14,1018,ROIG 300700Z 03015KT 9999 VCSH SCT011 BKN050 16/14 Q1018 RMK     3CU011 7SC050 A3007=,VC SH
20180130_080000.002,1,ROIG,,,,0,20180130080000,-1,-1,-1,-1,40,-1,17,-1,-1,-1,-1,,9999,0,0,3,SCT 13   BKN 25   BKN 60,1,17,1,13,1018,ROIG 300800Z 04017KT 9999 SCT013 BKN025 BKN060 17/13 Q1018 RMK     3CU013 5CU025 7SC060 A3007=,
20180130_090000.002,1,ROIG,,,,0,20180130090000,-1,-1,-1,-1,40,-1,20,-1,-1,-1,-1,,9999,0,1,2,BKN 13   BKN 30,1,16,1,14,1018,ROIG 300900Z 04020KT 9999 -SHRA BKN013 BKN030 16/14 Q1018 RMK     5CU013 7CU030 A3008=,- RA SH
20180130_100000.002,1,ROIG,,,,0,20180130100000,-1,-1,-1,-1,50,-1,20,-1,-1,-1,-1,,9999,0,1,2,BKN 11   BKN 25,1,16,1,14,1018,ROIG 301000Z 05020KT 9999 -SHRA BKN011 BKN025 16/14 Q1018 RMK     5CU011 7CU025 A3008=,- RA SH
20180130_110000.002,1,ROIG,,,,0,20180130110000,-1,-1,-1,-1,60,-1,17,-1,-1,-1,-1,,9999,0,1,2,SCT 16   BKN 40,1,17,1,14,1019,ROIG 301100Z 06017KT 9999 VCSH SCT016 BKN040 17/14 Q1019 RMK     4CU016 7SC040 A3010=,VC SH
20180130_210000.002,0,ROIG,,,,0,20180130210000,-1,-1,-1,-1,90,-1,14,-1,-1,-1,-1,,9999,0,0,2,SCT 27   BKN 50,1,20,1,15,1017,ROIG 302100Z 09014KT 9999 SCT027 BKN050 20/15 Q1017 RMK 4CU027     7SC050 A3004=,
20180130_220000.002,1,ROIG,,,,0,20180130220000,-1,-1,-1,-1,100,-1,15,-1,-1,-1,-1,,9999,0,0,2,SCT 26   BKN 40,1,20,1,15,1017,ROIG 302200Z 10015KT 9999 SCT026 BKN040 20/15 Q1017 RMK 4CU026     7SC040 A3005=,
20180130_230000.002,1,ROIG,,,,0,20180130230000,-1,-1,-1,-1,100,-1,15,-1,-1,-1,-1,,9999,0,0,2,SCT 25   BKN 40,1,20,1,15,1017,ROIG 302300Z 10015KT 9999 SCT025 BKN040 20/15 Q1017 RMK 4CU025     7SC040 A3005=,
20180131_000000.002,1,ROIG,,,,0,20180131000000,-1,-1,-1,-1,90,-1,18,-1,-1,-1,-1,,9999,0,1,2,BKN 23   BKN 35,1,20,1,16,1017,ROIG 310000Z 09018KT 9999 -SHRA BKN023 BKN035 20/16 Q1017 RMK     6CU023 7SC035 A3006=,- RA SH
20180131_010000.002,1,ROIG,,,,0,20180131010000,-1,-1,-1,-1,90,-1,16,-1,-1,-1,-1,,7000,0,1,3,FEW 17   BKN 21   BKN 34,1,19,1,17,1018,ROIG 310100Z 09016KT 7000 SHRA FEW017 BKN021 BKN034 19/17     Q1018 RMK 2CU017 5CU021 7SC034 A3008=,RA SH
20180131_020000.002,1,ROIG,,,,0,20180131020000,-1,-1,-1,-1,100,-1,13,-1,-1,-1,-1,,8000,0,1,3,SCT 11   BKN 18   BKN 35,1,19,1,17,1018,ROIG 310200Z 10013KT 8000 SHRA SCT011 BKN018 BKN035 19/17     Q1018 RMK 3CU011 5CU018 7SC035 A3007=,RA SH
20180131_030000.002,1,ROIG,,,,0,20180131030000,-1,-1,-1,-1,90,-1,14,-1,-1,-1,-1,,6000,1,1,3,SCT 8   BKN 15   FEW 25 TCU,1,19,1,18,1017,ROIG 310300Z 09014KT 6000 R04/0900VP1800U SHRA SCT008 BKN015     FEW025TCU 19/18 Q1017 RMK 3CU008 6CU015 1TCU025 A3004 TCU           5KM SW MOV NE=,RA SH
20180131_040000.002,1,ROIG,,,,0,20180131040000,-1,-1,-1,-1,999,-1,2,-1,-1,-1,-1,,9999,1,1,4,FEW 7   SCT 9   BKN 15   FEW 25 TCU,1,19,1,18,1015,ROIG 310400Z VRB02KT 9999 R04/1100VP1800U SHRA FEW007 SCT009     BKN015 FEW025TCU 19/18 Q1015 RMK 1ST007 4CU009 6CU015           2TCU025 A3000 TCU OHD MOV NE=,RA SH
20180131_050000.002,1,ROIG,,,,0,20180131050000,-1,-1,-1,-1,130,-1,13,-1,-1,100,160,,9999,0,1,3,FEW 14   BKN 20   FEW 25 TCU,1,20,1,18,1014,ROIG 310500Z 13013KT 100V160 9999 -SHRA FEW014 BKN020     FEW025TCU 20/18 Q1014 RMK 1CU014 6CU020 1TCU025 A2995 TCU           15KM N MOV NE=,- RA SH
20180131_060000.002,1,ROIG,,,,0,20180131060000,-1,-1,-1,-1,130,-1,11,-1,-1,80,150,,9999,0,1,3,SCT 14   BKN 20   FEW 25 TCU,1,20,1,19,1013,ROIG 310600Z 13011KT 080V150 9999 -SHRA SCT014 BKN020     FEW025TCU 20/19 Q1013 RMK 3CU014 6CU020 1TCU025 A2993 TCU           15KM SW MOV NE=,- RA SH
20180131_070000.003,1,ROIG,,,,0,20180131070000,-1,-1,-1,-1,160,-1,9,-1,-1,130,210,,7000,1,1,4,FEW 7   SCT 9   BKN 15   FEW 25 TCU,1,20,1,20,1013,ROIG 310700Z 16009KT 130V210 7000 R04/1800U SHRA FEW007 SCT009     BKN015 FEW025TCU 20/20 Q1013 RMK 1ST007 3CU009 6CU015           1TCU025 A2992 TCU 8KM W MOV NE=,RA SH
20180131_080000.003,1,ROIG,,,,0,20180131080000,-1,-1,-1,-1,200,-1,10,-1,-1,-1,-1,,8000,1,1,3,FEW 9   BKN 20   FEW 25 TCU,1,20,1,19,1013,ROIG 310800Z 20010KT 8000 R04/1100VP1800U SHRA FEW009 BKN020     FEW025TCU 20/19 Q1013 RMK 1CU009 6CU020 1TCU025 A2993 TCU           5KM S MOV NE=,RA SH
20180131_090000.002,1,ROIG,,,,0,20180131090000,-1,-1,-1,-1,170,-1,9,-1,-1,-1,-1,,9999,0,1,3,FEW 7   SCT 10   BKN 20,1,20,1,19,1013,ROIG 310900Z 17009KT 9999 -SHRA FEW007 SCT010 BKN020 20/19     Q1013 RMK 1ST007 4CU010 7CU020 A2993=,- RA SH
20180131_100000.002,1,ROIG,,,,0,20180131100000,-1,-1,-1,-1,210,-1,6,-1,-1,-1,-1,,9999,0,0,2,FEW 12   SCT 34,1,20,1,19,1014,ROIG 311000Z 21006KT 9999 FEW012 SCT034 20/19 Q1014 RMK 2CU012     3SC034 A2994=,
20180131_110000.002,1,ROIG,,,,0,20180131110000,-1,-1,-1,-1,260,-1,3,-1,-1,-1,-1,,9999,0,0,2,SCT 16   BKN 170,1,20,1,19,1014,ROIG 311100Z 26003KT 9999 SCT016 BKN170 20/19 Q1014 RMK 3CU016     7AC170 A2995=,
20180131_210000.002,0,ROIG,,,,0,20180131210000,-1,-1,-1,-1,360,-1,16,-1,26,-1,-1,,7000,0,1,3,FEW 7   BKN 12   BKN 21,1,14,1,13,1017,ROIG 312100Z 36016G26KT 7000 -SHRA FEW007 BKN012 BKN021 14/13     Q1017 RMK 2ST007 5CU012 7CU021 A3005=,- RA SH
20180131_220000.002,1,ROIG,,,,0,20180131220000,-1,-1,-1,-1,10,-1,18,-1,28,-1,-1,,7000,0,1,3,FEW 8   BKN 18   BKN 24,1,14,1,13,1018,ROIG 312200Z 01018G28KT 7000 -SHRA FEW008 BKN018 BKN024 14/13     Q1018 RMK 2ST008 5CU018 7CU024 A3007=,- RA SH
20180131_230000.002,1,ROIG,,,,0,20180131230000,-1,-1,-1,-1,10,-1,16,-1,-1,-1,-1,,9999,0,1,2,SCT 15   BKN 21,1,14,1,13,1018,ROIG 312300Z 01016KT 9999 -SHRA SCT015 BKN021 14/13 Q1018 RMK     4CU015 6CU021 A3008=,- RA SH
20180201_000000.003,1,ROIG,,,,0,20180201000000,-1,-1,-1,-1,10,-1,16,-1,-1,-1,-1,,9999,0,1,2,SCT 18   BKN 23,1,14,1,13,1019,ROIG 010000Z 01016KT 9999 -SHRA SCT018 BKN023 14/13 Q1019 RMK     4CU018 6CU023 A3010=,- RA SH
20180201_010000.002,1,ROIG,,,,0,20180201010000,-1,-1,-1,-1,10,-1,15,-1,-1,-1,-1,,9999,0,1,2,SCT 19   BKN 25,1,15,1,13,1020,ROIG 010100Z 01015KT 9999 -SHRA SCT019 BKN025 15/13 Q1020 RMK     4CU019 7CU025 A3013=,- RA SH
20180201_020000.002,1,ROIG,,,,0,20180201020000,-1,-1,-1,-1,360,-1,11,-1,22,-1,-1,,9999,0,1,2,SCT 21   BKN 35,1,16,1,12,1020,ROIG 010200Z 36011G22KT 9999 -SHRA SCT021 BKN035 16/12 Q1020     RMK 4CU021 7SC035 A3013=,- RA SH
20180201_030000.003,1,ROIG,,,,0,20180201030000,-1,-1,-1,-1,10,-1,15,-1,-1,-1,-1,,9999,0,1,2,SCT 21   BKN 32,1,16,1,12,1020,ROIG 010300Z 01015KT 9999 VCSH SCT021 BKN032 16/12 Q1020 RMK     3CU021 6CU032 A3013=,VC SH
20180201_040000.003,1,ROIG,,,,0,20180201040000,-1,-1,-1,-1,10,-1,17,-1,-1,-1,-1,,9999,0,1,2,SCT 20   BKN 35,1,16,1,13,1019,ROIG 010400Z 01017KT 9999 -SHRA SCT020 BKN035 16/13 Q1019 RMK     3CU020 6CU035 A3012=,- RA SH
20180201_050000.002,1,ROIG,,,,0,20180201050000,-1,-1,-1,-1,10,-1,15,-1,-1,-1,-1,,9999,0,1,2,SCT 24   BKN 35,1,17,1,14,1018,ROIG 010500Z 01015KT 9999 -SHRA SCT024 BKN035 17/14 Q1018 RMK     3CU024 6CU035 A3008=,- RA SH
20180201_060000.002,1,ROIG,,,,0,20180201060000,-1,-1,-1,-1,30,-1,13,-1,-1,-1,-1,,9999,0,1,2,SCT 20   BKN 30,1,15,1,12,1018,ROIG 010600Z 03013KT 9999 -SHRA SCT020 BKN030 15/12 Q1018 RMK     3CU020 7CU030 A3008=,- RA SH
20180201_070000.002,1,ROIG,,,,0,20180201070000,-1,-1,-1,-1,10,-1,14,-1,-1,-1,-1,,9999,0,0,2,SCT 20   BKN 40,1,15,1,12,1018,ROIG 010700Z 01014KT 9999 SCT020 BKN040 15/12 Q1018 RMK 3CU020     6SC040 A3008=,
20180201_080000.002,1,ROIG,,,,0,20180201080000,-1,-1,-1,-1,10,-1,12,-1,-1,-1,-1,,9999,0,1,3,FEW 20   BKN 32   BKN 40,1,15,1,12,1019,ROIG 010800Z 01012KT 9999 -SHRA FEW020 BKN032 BKN040 15/12     Q1019 RMK 1CU020 5CU032 6SC040 A3009=,- RA SH
20180201_090000.002,1,ROIG,,,,0,20180201090000,-1,-1,-1,-1,360,-1,9,-1,-1,-1,-1,,9999,0,0,3,FEW 20   SCT 30   BKN 40,1,15,1,12,1019,ROIG 010900Z 36009KT 9999 FEW020 SCT030 BKN040 15/12 Q1019 RMK     1CU020 3CU030 7SC040 A3011=,
20180201_100000.002,1,ROIG,,,,0,20180201100000,-1,-1,-1,-1,20,-1,16,-1,-1,-1,-1,,9999,0,1,3,FEW 17   SCT 25   BKN 30,1,15,1,12,1019,ROIG 011000Z 02016KT 9999 -SHRA FEW017 SCT025 BKN030 15/12     Q1019 RMK 1CU017 4CU025 6CU030 A3011=,- RA SH
20180201_110000.002,1,ROIG,,,,0,20180201110000,-1,-1,-1,-1,20,-1,15,-1,-1,-1,-1,,9999,0,1,3,FEW 23   SCT 33   BKN 40,1,15,1,12,1019,ROIG 011100Z 02015KT 9999 -SHRA FEW023 SCT033 BKN040 15/12     Q1019 RMK 2CU023 3CU033 6SC040 A3012=,- RA SH
20180201_210000.002,0,ROIG,,,,0,20180201210000,-1,-1,-1,-1,360,-1,8,-1,-1,-1,-1,,9999,0,0,2,FEW 30   BKN 60,1,16,1,11,1020,ROIG 012100Z 36008KT 9999 FEW030 BKN060 16/11 Q1020 RMK 2CU030     7SC060 A3015=,
20180201_220000.002,1,ROIG,,,,0,20180201220000,-1,-1,-1,-1,30,-1,10,-1,-1,-1,-1,,9999,0,1,3,FEW 30   BKN 100   BKN -9999,1,17,1,12,1020,ROIG 012200Z 03010KT 9999 -SHRA FEW030 BKN100 BKN/// 17/12     Q1020 RMK 1CU030 6AC100 A3015=,- RA SH
20180201_230000.003,1,ROIG,,,,0,20180201230000,-1,-1,-1,-1,60,-1,16,-1,-1,-1,-1,,9999,0,0,1,FEW 30,1,18,1,12,1019,ROIG 012300Z 06016KT 9999 FEW030 18/12 Q1019 RMK 1CU030 A3011=,
20180202_000000.002,1,ROIG,,,,0,20180202000000,-1,-1,-1,-1,10,-1,10,-1,-1,300,30,,9999,0,0,1,BKN 28,1,19,1,13,1021,ROIG 020000Z 01010KT 300V030 9999 BKN028 19/13 Q1021 RMK     5CU028 A3016=,
20180202_010000.002,1,ROIG,,,,0,20180202010000,-1,-1,-1,-1,10,-1,10,-1,-1,-1,-1,,9999,0,0,2,FEW 30   SCT 40,1,19,1,13,1021,ROIG 020100Z 01010KT 9999 FEW030 SCT040 19/13 Q1021 RMK 2CU030     4SC040 A3017=,
20180202_020000.002,1,ROIG,,,,0,20180202020000,-1,-1,-1,-1,20,-1,16,-1,-1,-1,-1,,9999,0,0,1,FEW 24,1,20,1,14,1021,ROIG 020200Z 02016KT 9999 FEW024 20/14 Q1021 RMK 2CU024 A3015=,
20180202_030000.002,1,ROIG,,,,0,20180202030000,-1,-1,-1,-1,30,-1,17,-1,-1,-1,-1,,9999,0,0,1,SCT 22,1,20,1,14,1020,ROIG 020300Z 03017KT 9999 SCT022 20/14 Q1020 RMK 3CU022 A3014=,
20180202_040000.002,1,ROIG,,,,0,20180202040000,-1,-1,-1,-1,30,-1,15,-1,-1,-1,-1,,9999,0,0,2,SCT 22   BKN 40,1,20,1,14,1020,ROIG 020400Z 03015KT 9999 SCT022 BKN040 20/14 Q1020 RMK 4CU022     5SC040 A3012=,
20180202_050000.001,1,ROIG,,,,0,20180202050000,-1,-1,-1,-1,20,-1,13,-1,-1,-1,-1,,9999,0,0,3,SCT 21   BKN 30   BKN 40,1,19,1,14,1019,ROIG 020500Z 02013KT 9999 SCT021 BKN030 BKN040 19/14 Q1019 RMK     4CU021 5CU030 7SC040 A3010=,
20180202_060000.002,1,ROIG,,,,0,20180202060000,-1,-1,-1,-1,20,-1,14,-1,-1,-1,-1,,9999,0,0,3,FEW 21   BKN 30   BKN 40,1,20,1,14,1018,ROIG 020600Z 02014KT 9999 FEW021 BKN030 BKN040 20/14 Q1018 RMK     2CU021 5CU030 6SC040 A3008=,
20180202_070000.002,1,ROIG,,,,0,20180202070000,-1,-1,-1,-1,10,-1,14,-1,-1,-1,-1,,9999,0,0,2,FEW 20   BKN 35,1,18,1,13,1018,ROIG 020700Z 01014KT 9999 FEW020 BKN035 18/13 Q1018 RMK 2CU020     6CU035 A3009=,
20180202_080000.002,1,ROIG,,,,0,20180202080000,-1,-1,-1,-1,10,-1,14,-1,-1,-1,-1,,9999,0,1,2,SCT 20   BKN 28,1,17,1,13,1019,ROIG 020800Z 01014KT 9999 VCSH SCT020 BKN028 17/13 Q1019 RMK     4CU020 6CU028 A3011=,VC SH
20180202_090000.002,1,ROIG,,,,0,20180202090000,-1,-1,-1,-1,10,-1,17,-1,-1,-1,-1,,9999,0,1,3,SCT 15   BKN 20   BKN 35,1,16,1,14,1020,ROIG 020900Z 01017KT 9999 -SHRA SCT015 BKN020 BKN035 16/14     Q1020 RMK 3CU015 5CU020 7SC035 A3012=,- RA SH
20180202_100000.003,1,ROIG,,,,0,20180202100000,-1,-1,-1,-1,10,-1,17,-1,-1,-1,-1,,9999,0,0,3,SCT 13   BKN 21   BKN 33,1,15,1,13,1020,ROIG 021000Z 01017KT 9999 SCT013 BKN021 BKN033 15/13 Q1020 RMK     3CU013 5CU021 7SC033 A3013=,
20180202_110000.002,1,ROIG,,,,0,20180202110000,-1,-1,-1,-1,20,-1,14,-1,25,-1,-1,,9999,0,0,2,FEW 16   BKN 21,1,16,1,12,1021,ROIG 021100Z 02014G25KT 9999 FEW016 BKN021 16/12 Q1021 RMK     2CU016 6CU021 A3016=,
20180202_210000.002,0,ROIG,,,,0,20180202210000,-1,-1,-1,-1,10,-1,16,-1,-1,-1,-1,,9999,0,1,2,SCT 16   BKN 50,1,13,1,11,1022,ROIG 022100Z 01016KT 9999 -SHRA SCT016 BKN050 13/11 Q1022 RMK     4CU016 7SC050 A3018=,- RA SH
20180202_220000.002,1,ROIG,,,,0,20180202220000,-1,-1,-1,-1,20,-1,16,-1,-1,-1,-1,,9999,0,1,2,SCT 20   BKN 40,1,13,1,10,1022,ROIG 022200Z 02016KT 9999 VCSH SCT020 BKN040 13/10 Q1022 RMK     3CU020 7SC040 A3019=,VC SH
20180202_230000.003,1,ROIG,,,,0,20180202230000,-1,-1,-1,-1,10,-1,13,-1,-1,-1,-1,,9999,0,0,2,SCT 20   BKN 40,1,13,1,10,1023,ROIG 022300Z 01013KT 9999 SCT020 BKN040 13/10 Q1023 RMK 3CU020     7SC040 A3021=,
20180203_000000.002,1,ROIG,,,,0,20180203000000,-1,-1,-1,-1,20,-1,15,-1,-1,-1,-1,,9999,0,1,2,SCT 24   BKN 40,1,14,1,10,1023,ROIG 030000Z 02015KT 9999 VCSH SCT024 BKN040 14/10 Q1023 RMK     4CU024 7SC040 A3021=,VC SH
20180203_010000.003,1,ROIG,,,,0,20180203010000,-1,-1,-1,-1,20,-1,16,-1,26,-1,-1,,9999,0,1,2,SCT 16   BKN 30,1,13,1,11,1024,ROIG 030100Z 02016G26KT 9999 -SHRA SCT016 BKN030 13/11 Q1024     RMK 4CU016 7CU030 A3024=,- RA SH
20180203_020000.002,1,ROIG,,,,0,20180203020000,-1,-1,-1,-1,20,-1,15,-1,-1,-1,-1,,9999,0,1,3,FEW 13   BKN 30   BKN 45,1,13,1,11,1023,ROIG 030200Z 02015KT 9999 VCSH FEW013 BKN030 BKN045 13/11     Q1023 RMK 1CU013 5CU030 7SC045 A3023=,VC SH
20180203_030000.002,1,ROIG,,,,0,20180203030000,-1,-1,-1,-1,10,-1,14,-1,-1,-1,-1,,9999,0,0,3,FEW 17   BKN 30   BKN 50,1,14,1,10,1022,ROIG 030300Z 01014KT 9999 FEW017 BKN030 BKN050 14/10 Q1022 RMK     1CU017 5CU030 7SC050 A3021=,
20180203_040000.002,1,ROIG,,,,0,20180203040000,-1,-1,-1,-1,20,-1,14,-1,-1,-1,-1,,9999,0,0,3,FEW 20   BKN 30   BKN 45,1,14,1,9,1022,ROIG 030400Z 02014KT 9999 FEW020 BKN030 BKN045 14/09 Q1022 RMK     1CU020 5CU030 7SC045 A3018=,
20180203_050000.002,1,ROIG,,,,0,20180203050000,-1,-1,-1,-1,20,-1,14,-1,-1,-1,-1,,9999,0,1,3,FEW 16   BKN 27   BKN 45,1,14,1,10,1021,ROIG 030500Z 02014KT 9999 VCSH FEW016 BKN027 BKN045 14/10     Q1021 RMK 2CU016 5CU027 7SC045 A3016=,VC SH
20180203_060000.002,1,ROIG,,,,0,20180203060000,-1,-1,-1,-1,10,-1,16,-1,-1,-1,-1,,8000,0,1,3,FEW 11   BKN 17   BKN 35,1,12,1,11,1021,ROIG 030600Z 01016KT 8000 -SHRA FEW011 BKN017 BKN035 12/11     Q1021 RMK 2CU011 5CU017 7SC035 A3015=,- RA SH
20180203_070000.003,1,ROIG,,,,0,20180203070000,-1,-1,-1,-1,20,-1,13,-1,-1,-1,-1,,9999,0,1,3,FEW 15   SCT 25   BKN 45,1,13,1,10,1021,ROIG 030700Z 02013KT 9999 VCSH FEW015 SCT025 BKN045 13/10     Q1021 RMK 1CU015 4CU025 7SC045 A3015=,VC SH
20180203_080000.002,1,ROIG,,,,0,20180203080000,-1,-1,-1,-1,10,-1,16,-1,-1,-1,-1,,9999,0,1,3,FEW 15   SCT 32   BKN 42,1,13,1,10,1020,ROIG 030800Z 01016KT 9999 -SHRA FEW015 SCT032 BKN042 13/10     Q1020 RMK 2CU015 4CU032 7SC042 A3015=,- RA SH
20180203_090000.002,1,ROIG,,,,0,20180203090000,-1,-1,-1,-1,10,-1,16,-1,27,-1,-1,,9999,0,1,3,FEW 18   SCT 24   BKN 40,1,13,1,10,1021,ROIG 030900Z 01016G27KT 9999 VCSH FEW018 SCT024 BKN040 13/10     Q1021 RMK 1CU018 4CU024 7SC040 A3016=,VC SH
20180203_100000.002,1,ROIG,,,,0,20180203100000,-1,-1,-1,-1,10,-1,15,-1,-1,-1,-1,,9999,0,0,2,SCT 23   BKN 30,1,13,1,8,1021,ROIG 031000Z 01015KT 9999 SCT023 BKN030 13/08 Q1021 RMK 3CU023     6CU030 A3017=,
20180203_110000.002,1,ROIG,,,,0,20180203110000,-1,-1,-1,-1,20,-1,15,-1,-1,-1,-1,,9999,0,1,3,FEW 16   SCT 24   BKN 40,1,13,1,11,1021,ROIG 031100Z 02015KT 9999 VCSH FEW016 SCT024 BKN040 13/11     Q1021 RMK 2CU016 4CU024 7SC040 A3017=,VC SH
20180203_210000.002,0,ROIG,,,,0,20180203210000,-1,-1,-1,-1,20,-1,16,-1,-1,-1,-1,,9999,0,0,2,FEW 19   BKN 60,1,12,1,9,1022,ROIG 032100Z 02016KT 9999 FEW019 BKN060 12/09 Q1022 RMK 2CU019     7SC060 A3018=,
20180203_220000.002,1,ROIG,,,,0,20180203220000,-1,-1,-1,-1,10,-1,15,-1,-1,-1,-1,,9999,0,0,2,FEW 19   BKN 40,1,12,1,9,1022,ROIG 032200Z 01015KT 9999 FEW019 BKN040 12/09 Q1022 RMK 2CU019     7SC040 A3020=,
20180203_230000.002,1,ROIG,,,,0,20180203230000,-1,-1,-1,-1,10,-1,14,-1,-1,-1,-1,,9999,0,1,3,FEW 14   BKN 25   BKN 50,1,12,1,10,1023,ROIG 032300Z 01014KT 9999 -SHRA FEW014 BKN025 BKN050 12/10     Q1023 RMK 1CU014 5CU025 7SC050 A3021=,- RA SH
20180204_000000.002,1,ROIG,,,,0,20180204000000,-1,-1,-1,-1,10,-1,16,-1,-1,-1,-1,,9999,0,1,3,FEW 12   SCT 26   BKN 50,1,11,1,10,1023,ROIG 040000Z 01016KT 9999 -SHRA FEW012 SCT026 BKN050 11/10     Q1023 RMK 1CU012 4CU026 7SC050 A3021=,- RA SH
20180204_010000.002,1,ROIG,,,,0,20180204010000,-1,-1,-1,-1,20,-1,14,-1,-1,-1,-1,,9999,0,1,2,BKN 30   BKN 47,1,12,1,9,1023,ROIG 040100Z 02014KT 9999 -SHRA BKN030 BKN047 12/09 Q1023 RMK     5CU030 7SC047 A3022=,- RA SH
20180204_020000.002,1,ROIG,,,,0,20180204020000,-1,-1,-1,-1,10,-1,16,-1,-1,-1,-1,,9999,0,1,3,FEW 21   BKN 30   BKN 47,1,13,1,9,1023,ROIG 040200Z 01016KT 9999 -SHRA FEW021 BKN030 BKN047 13/09     Q1023 RMK 1CU021 6CU030 7SC047 A3022=,- RA SH
20180204_030000.002,1,ROIG,,,,0,20180204030000,-1,-1,-1,-1,20,-1,13,-1,-1,-1,-1,,9999,0,0,2,BKN 30   BKN 45,1,13,1,9,1022,ROIG 040300Z 02013KT 9999 BKN030 BKN045 13/09 Q1022 RMK 5CU030     7SC045 A3021=,
20180204_040000.002,1,ROIG,,,,0,20180204040000,-1,-1,-1,-1,10,-1,16,-1,-1,-1,-1,,9999,0,1,3,FEW 18   BKN 25   BKN 50,1,13,1,10,1022,ROIG 040400Z 01016KT 9999 -SHRA FEW018 BKN025 BKN050 13/10     Q1022 RMK 2CU018 5CU025 7SC050 A3019=,- RA SH
20180204_050000.002,1,ROIG,,,,0,20180204050000,-1,-1,-1,-1,20,-1,15,-1,27,-1,-1,,9999,0,1,3,FEW 12   SCT 20   BKN 40,1,12,1,9,1021,ROIG 040500Z 02015G27KT 9999 VCSH FEW012 SCT020 BKN040 12/09     Q1021 RMK 1CU012 3CU020 7SC040 A3016=,VC SH
20180204_060000.002,1,ROIG,,,,0,20180204060000,-1,-1,-1,-1,20,-1,16,-1,-1,-1,-1,,9999,0,1,2,BKN 28   BKN 45,1,13,1,9,1021,ROIG 040600Z 02016KT 9999 -SHRA BKN028 BKN045 13/09 Q1021 RMK     5CU028 7SC045 A3015=,- RA SH
20180204_070000.002,1,ROIG,,,,0,20180204070000,-1,-1,-1,-1,10,-1,15,-1,-1,-1,-1,,9999,0,1,2,BKN 22   BKN 50,1,12,1,8,1021,ROIG 040700Z 01015KT 9999 -SHRA BKN022 BKN050 12/08 Q1021 RMK     5CU022 7SC050 A3016=,- RA SH
20180204_080000.002,1,ROIG,,,,0,20180204080000,-1,-1,-1,-1,20,-1,14,-1,-1,-1,-1,,9999,0,1,3,FEW 15   BKN 32   BKN 50,1,12,1,10,1021,ROIG 040800Z 02014KT 9999 -SHRA FEW015 BKN032 BKN050 12/10     Q1021 RMK 1CU015 5CU032 7SC050 A3017=,- RA SH
20180204_090000.002,1,ROIG,,,,0,20180204090000,-1,-1,-1,-1,20,-1,15,-1,-1,-1,-1,,9999,0,1,3,FEW 13   BKN 28   BKN 50,1,11,1,10,1022,ROIG 040900Z 02015KT 9999 -SHRA FEW013 BKN028 BKN050 11/10     Q1022 RMK 1CU013 5CU028 7SC050 A3018=,- RA SH
20180204_100000.002,1,ROIG,,,,0,20180204100000,-1,-1,-1,-1,20,-1,19,-1,-1,-1,-1,,9999,0,1,2,SCT 15   BKN 22,1,12,1,10,1022,ROIG 041000Z 02019KT 9999 -SHRA SCT015 BKN022 12/10 Q1022 RMK     3CU015 7CU022 A3020=,- RA SH
20180204_110000.003,1,ROIG,,,,0,20180204110000,-1,-1,-1,-1,20,-1,17,-1,-1,-1,-1,,9999,0,1,2,FEW 18   BKN 26,1,12,1,9,1023,ROIG 041100Z 02017KT 9999 -SHRA FEW018 BKN026 12/09 Q1023 RMK     2CU018 7CU026 A3021=,- RA SH
20180204_210000.002,0,ROIG,,,,0,20180204210000,-1,-1,-1,-1,20,-1,16,-1,-1,-1,-1,,9999,0,1,2,SCT 13   BKN 40,1,10,1,9,1022,ROIG 042100Z 02016KT 9999 -SHRA SCT013 BKN040 10/09 Q1022 RMK     3CU013 7SC040 A3020=,- RA SH
20180204_220000.002,1,ROIG,,,,0,20180204220000,-1,-1,-1,-1,10,-1,14,-1,-1,-1,-1,,9999,0,1,3,FEW 18   SCT 30   BKN 50,1,11,1,9,1023,ROIG 042200Z 01014KT 9999 -SHRA FEW018 SCT030 BKN050 11/09     Q1023 RMK 1CU018 3CU030 7SC050 A3021=,- RA SH
20180204_230000.002,1,ROIG,,,,0,20180204230000,-1,-1,-1,-1,10,-1,12,-1,-1,-1,-1,,9999,0,1,3,FEW 15   SCT 21   BKN 60,1,10,1,9,1023,ROIG 042300Z 01012KT 9999 -RA FEW015 SCT021 BKN060 10/09 Q1023     RMK 1CU015 3CU021 7SC060 A3021=,- RA
20180205_000000.003,1,ROIG,,,,0,20180205000000,-1,-1,-1,-1,10,-1,14,-1,-1,-1,-1,,9999,0,1,3,FEW 16   SCT 22   BKN 42,1,11,1,8,1023,ROIG 050000Z 01014KT 9999 -RA FEW016 SCT022 BKN042 11/08 Q1023     RMK 1CU016 4CU022 7SC042 A3023=,- RA
20180205_010000.002,1,ROIG,,,,0,20180205010000,-1,-1,-1,-1,10,-1,13,-1,-1,-1,-1,,9999,0,1,3,FEW 13   BKN 22   BKN 40,1,11,1,9,1024,ROIG 050100Z 01013KT 9999 -RA FEW013 BKN022 BKN040 11/09 Q1024     RMK 1CU013 5CU022 7SC040 A3025=,- RA
20180205_020000.002,1,ROIG,,,,0,20180205020000,-1,-1,-1,-1,10,-1,14,-1,-1,-1,-1,,9999,0,1,3,FEW 17   SCT 32   BKN 45,1,11,1,9,1023,ROIG 050200Z 01014KT 9999 -RA FEW017 SCT032 BKN045 11/09 Q1023     RMK 1CU017 4CU032 7SC045 A3023=,- RA
