20180101_000000.002,0,ROMY,,,,0,20180101000000,-1,-1,-1,-1,40,-1,13,-1,-1,-1,-1,,9999,0,0,2,FEW 36   BKN 50,1,19,1,10,1022,ROMY 010000Z 04013KT 9999 FEW036 BKN050 19/10 Q1022 RMK 2CU036     5SC050 A3021=,
20180101_010000.002,0,ROMY,,,,0,20180101010000,-1,-1,-1,-1,40,-1,15,-1,-1,-1,-1,,9999,0,0,2,SCT 32   BKN 50,1,18,1,11,1023,ROMY 010100Z 04015KT 9999 SCT032 BKN050 18/11 Q1023 RMK 3CU032     5SC050 A3021=,
20180101_020000.002,0,ROMY,,,,0,20180101020000,-1,-1,-1,-1,40,-1,13,-1,-1,10,70,,9999,0,0,1,SCT 34,1,19,1,10,1023,ROMY 010200Z 04013KT 010V070 9999 SCT034 19/10 Q1023 RMK     3CU034 A3022=,
20180101_030000.002,0,ROMY,,,,0,20180101030000,-1,-1,-1,-1,50,-1,14,-1,-1,-1,-1,,9999,0,0,1,FEW 40,1,20,1,9,1022,ROMY 010300Z 05014KT 9999 FEW040 20/09 Q1022 RMK 2SC040 A3020=,
20180101_040000.002,0,ROMY,,,,0,20180101040000,-1,-1,-1,-1,50,-1,14,-1,-1,10,80,,9999,0,0,1,FEW 43,1,20,1,8,1021,ROMY 010400Z 05014KT 010V080 9999 FEW043 20/08 Q1021 RMK     2SC043 A3017=,
20180101_050000.002,0,ROMY,,,,0,20180101050000,-1,-1,-1,-1,60,-1,15,-1,-1,-1,-1,,9999,0,0,1,SCT 34,1,20,1,10,1020,ROMY 010500Z 06015KT 9999 SCT034 20/10 Q1020 RMK 3CU034 A3015=,
20180101_060000.002,0,ROMY,,,,0,20180101060000,-1,-1,-1,-1,40,-1,11,-1,-1,-1,-1,,9999,0,0,2,FEW 34   BKN 60,1,20,1,11,1020,ROMY 010600Z 04011KT 9999 FEW034 BKN060 20/11 Q1020 RMK 2CU034     6SC060 A3014=,
20180101_070000.002,0,ROMY,,,,0,20180101070000,-1,-1,-1,-1,50,-1,13,-1,-1,-1,-1,,9999,0,0,1,SCT 36,1,19,1,10,1020,ROMY 010700Z 05013KT 9999 SCT036 19/10 Q1020 RMK 3CU036 A3013=,
20180101_080000.002,0,ROMY,,,,0,20180101080000,-1,-1,-1,-1,40,-1,14,-1,-1,-1,-1,,9999,0,0,1,FEW 38,1,19,1,10,1020,ROMY 010800Z 04014KT 9999 FEW038 19/10 Q1020 RMK 2CU038 A3014=,
20180101_090000.002,0,ROMY,,,,0,20180101090000,-1,-1,-1,-1,50,-1,13,-1,-1,-1,-1,,9999,0,0,1,FEW 38,1,18,1,9,1020,ROMY 010900Z 05013KT 9999 FEW038 18/09 Q1020 RMK 1CU038 A3015=,
20180101_100000.002,0,ROMY,,,,0,20180101100000,-1,-1,-1,-1,50,-1,14,-1,-1,-1,-1,,9999,0,0,1,FEW 38,1,18,1,10,1021,ROMY 011000Z 05014KT 9999 FEW038 18/10 Q1021 RMK 1CU038 A3015=,
20180101_110000.002,0,ROMY,,,,0,20180101110000,-1,-1,-1,-1,60,-1,14,-1,-1,-1,-1,,9999,0,0,1,FEW 38,1,18,1,9,1021,ROMY 011100Z 06014KT 9999 FEW038 18/09 Q1021 RMK 1CU038 A3016=,
20180101_213000.001,0,ROMY,,,,0,20180101210000,-1,-1,-1,-1,70,-1,9,-1,-1,-1,-1,,9999,0,0,1,FEW 40,1,17,1,9,1022,ROMY 012130Z 07009KT 9999 FEW040 17/09 Q1022 RMK 1SC040 A3018=,
20180101_220000.002,0,ROMY,,,,0,20180101220000,-1,-1,-1,-1,60,-1,11,-1,-1,-1,-1,,9999,0,0,1,FEW 40,1,17,1,9,1022,ROMY 012200Z 06011KT 9999 FEW040 17/09 Q1022 RMK 1SC040 A3019=,
20180101_230000.002,0,ROMY,,,,0,20180101230000,-1,-1,-1,-1,70,-1,8,-1,-1,-1,-1,,9999,0,0,1,FEW 40,1,17,1,9,1023,ROMY 012300Z 07008KT 9999 FEW040 17/09 Q1023 RMK 1SC040 A3021=,
20180102_000000.003,0,ROMY,,,,0,20180102000000,-1,-1,-1,-1,60,-1,11,-1,-1,-1,-1,,9999,0,0,1,FEW 40,1,19,1,10,1023,ROMY 020000Z 06011KT 9999 FEW040 19/10 Q1023 RMK 1SC040 A3022=,
20180102_010000.003,0,ROMY,,,,0,20180102010000,-1,-1,-1,-1,60,-1,12,-1,-1,-1,-1,,9999,0,0,1,FEW 40,1,20,1,10,1023,ROMY 020100Z 06012KT 9999 FEW040 20/10 Q1023 RMK 1SC040 A3021=,
20180102_020000.002,0,ROMY,,,,0,20180102020000,-1,-1,-1,-1,80,-1,13,-1,-1,-1,-1,,9999,0,0,1,FEW 40,1,21,1,10,1023,ROMY 020200Z 08013KT 9999 FEW040 21/10 Q1023 RMK 1SC040 A3021=,
20180102_030000.002,0,ROMY,,,,0,20180102030000,-1,-1,-1,-1,70,-1,13,-1,-1,-1,-1,,9999,0,0,1,FEW 38,1,21,1,11,1022,ROMY 020300Z 07013KT 9999 FEW038 21/11 Q1022 RMK 2SC038 A3019=,
20180102_040000.002,0,ROMY,,,,0,20180102040000,-1,-1,-1,-1,80,-1,12,-1,-1,30,120,,9999,0,0,1,SCT 38,1,22,1,11,1021,ROMY 020400Z 08012KT 030V120 9999 SCT038 22/11 Q1021 RMK     3SC038 A3017=,
20180102_050000.002,0,ROMY,,,,0,20180102050000,-1,-1,-1,-1,80,-1,13,-1,-1,-1,-1,,9999,0,0,1,SCT 35,1,20,1,11,1021,ROMY 020500Z 08013KT 9999 SCT035 20/11 Q1021 RMK 4CU035 A3015=,
20180102_060000.002,0,ROMY,,,,0,20180102060000,-1,-1,-1,-1,80,-1,13,-1,-1,-1,-1,,9999,0,0,1,SCT 37,1,21,1,11,1020,ROMY 020600Z 08013KT 9999 SCT037 21/11 Q1020 RMK 3CU037 A3014=,
20180102_070000.002,0,ROMY,,,,0,20180102070000,-1,-1,-1,-1,80,-1,12,-1,-1,-1,-1,,9999,0,0,1,SCT 37,1,20,1,11,1020,ROMY 020700Z 08012KT 9999 SCT037 20/11 Q1020 RMK 4CU037 A3013=,
20180102_080000.002,0,ROMY,,,,0,20180102080000,-1,-1,-1,-1,80,-1,10,-1,-1,-1,-1,,9999,0,0,1,SCT 36,1,20,1,11,1020,ROMY 020800Z 08010KT 9999 SCT036 20/11 Q1020 RMK 3CU036 A3013=,
20180102_090000.002,0,ROMY,,,,0,20180102090000,-1,-1,-1,-1,70,-1,11,-1,-1,-1,-1,,9999,0,0,1,SCT 37,1,19,1,11,1020,ROMY 020900Z 07011KT 9999 SCT037 19/11 Q1020 RMK 3CU037 A3013=,
20180102_100000.002,0,ROMY,,,,0,20180102100000,-1,-1,-1,-1,70,-1,10,-1,-1,-1,-1,,9999,0,0,1,SCT 35,1,19,1,12,1020,ROMY 021000Z 07010KT 9999 SCT035 19/12 Q1020 RMK 3CU035 A3014=,
20180102_110000.002,0,ROMY,,,,0,20180102110000,-1,-1,-1,-1,70,-1,8,-1,-1,-1,-1,,9999,0,0,1,FEW 37,1,18,1,11,1021,ROMY 021100Z 07008KT 9999 FEW037 18/11 Q1021 RMK 2CU037 A3015=,
20180102_213000.001,0,ROMY,,,,0,20180102210000,-1,-1,-1,-1,110,-1,5,-1,-1,-1,-1,,9999,0,0,2,FEW 38   BKN 48,1,17,1,11,1021,ROMY 022130Z 11005KT 9999 FEW038 BKN048 17/11 Q1021 RMK 1CU038     5SC048 A3016=,
20180102_220000.002,0,ROMY,,,,0,20180102220000,-1,-1,-1,-1,110,-1,5,-1,-1,-1,-1,,9999,0,0,2,FEW 36   SCT 48,1,16,1,12,1021,ROMY 022200Z 11005KT 9999 FEW036 SCT048 16/12 Q1021 RMK 1CU036     4SC048 A3016=,
20180102_230000.002,0,ROMY,,,,0,20180102230000,-1,-1,-1,-1,110,-1,5,-1,-1,-1,-1,,9999,0,0,2,FEW 38   SCT -9999,1,17,1,12,1021,ROMY 022300Z 11005KT 9999 FEW038 SCT/// 17/12 Q1021 RMK 1CU038     A3016=,
20180103_000000.002,0,ROMY,,,,0,20180103000000,-1,-1,-1,-1,90,-1,6,-1,-1,30,110,,9999,0,0,2,FEW 38   SCT -9999,1,20,1,13,1022,ROMY 030000Z 09006KT 030V110 9999 FEW038 SCT/// 20/13 Q1022     RMK 1CU038 A3018=,
20180103_010000.002,0,ROMY,,,,0,20180103010000,-1,-1,-1,-1,70,-1,9,-1,-1,-1,-1,,9999,0,0,1,FEW 39,1,22,1,12,1022,ROMY 030100Z 07009KT 9999 FEW039 22/12 Q1022 RMK 1CU039 A3020=,
20180103_020000.002,0,ROMY,,,,0,20180103020000,-1,-1,-1,-1,70,-1,9,-1,-1,-1,-1,,9999,0,0,1,SCT 39,1,22,1,12,1022,ROMY 030200Z 07009KT 9999 SCT039 22/12 Q1022 RMK 4CU039 A3019=,
20180103_030000.003,0,ROMY,,,,0,20180103030000,-1,-1,-1,-1,80,-1,10,-1,-1,-1,-1,,9999,0,0,1,SCT 39,1,21,1,12,1021,ROMY 030300Z 08010KT 9999 SCT039 21/12 Q1021 RMK 3CU039 A3018=,
20180103_040000.002,0,ROMY,,,,0,20180103040000,-1,-1,-1,-1,80,-1,9,-1,-1,-1,-1,,9999,0,0,1,FEW 39,1,22,1,11,1021,ROMY 030400Z 08009KT 9999 FEW039 22/11 Q1021 RMK 2CU039 A3015=,
20180103_050000.002,0,ROMY,,,,0,20180103050000,-1,-1,-1,-1,60,-1,10,-1,-1,40,100,,9999,0,0,1,FEW 36,1,22,1,12,1020,ROMY 030500Z 06010KT 040V100 9999 FEW036 22/12 Q1020 RMK     2CU036 A3013=,
20180103_060000.002,0,ROMY,,,,0,20180103060000,-1,-1,-1,-1,70,-1,11,-1,-1,-1,-1,,9999,0,0,1,FEW 30,1,21,1,13,1019,ROMY 030600Z 07011KT 9999 FEW030 21/13 Q1019 RMK 2CU030 A3012=,
20180103_070000.002,0,ROMY,,,,0,20180103070000,-1,-1,-1,-1,70,-1,10,-1,-1,-1,-1,,9999,0,0,1,SCT 28,1,21,1,14,1019,ROMY 030700Z 07010KT 9999 SCT028 21/14 Q1019 RMK 3CU028 A3011=,
20180103_080000.002,0,ROMY,,,,0,20180103080000,-1,-1,-1,-1,70,-1,10,-1,-1,-1,-1,,9999,0,0,1,SCT 27,1,21,1,14,1019,ROMY 030800Z 07010KT 9999 SCT027 21/14 Q1019 RMK 4CU027 A3010=,
20180103_090000.002,0,ROMY,,,,0,20180103090000,-1,-1,-1,-1,80,-1,9,-1,-1,-1,-1,,9999,0,0,2,FEW 29   SCT 42,1,20,1,14,1019,ROMY 030900Z 08009KT 9999 FEW029 SCT042 20/14 Q1019 RMK 2CU029     4SC042 A3011=,
20180103_100000.002,0,ROMY,,,,0,20180103100000,-1,-1,-1,-1,90,-1,9,-1,-1,40,120,,9999,0,0,2,SCT 35   BKN 43,1,20,1,13,1020,ROMY 031000Z 09009KT 040V120 9999 SCT035 BKN043 20/13 Q1020     RMK 3CU035 6SC043 A3013=,
20180103_110000.002,0,ROMY,,,,0,20180103110000,-1,-1,-1,-1,80,-1,10,-1,-1,-1,-1,,9999,0,0,2,SCT 32   BKN 42,1,20,1,14,1020,ROMY 031100Z 08010KT 9999 SCT032 BKN042 20/14 Q1020 RMK 3CU032     7SC042 A3014=,
20180103_213000.001,0,ROMY,,,,0,20180103210000,-1,-1,-1,-1,120,-1,6,-1,-1,-1,-1,,9999,0,0,2,FEW 30   SCT -9999,1,17,1,13,1019,ROMY 032130Z 12006KT 9999 FEW030 SCT/// 17/13 Q1019 RMK 1CU030     A3011=,
20180103_220000.002,0,ROMY,,,,0,20180103220000,-1,-1,-1,-1,120,-1,6,-1,-1,-1,-1,,9999,0,0,2,FEW 25   BKN -9999,1,17,1,13,1019,ROMY 032200Z 12006KT 9999 FEW025 BKN/// 17/13 Q1019 RMK 1CU025     A3011=,
20180103_230000.002,0,ROMY,,,,0,20180103230000,-1,-1,-1,-1,100,-1,5,-1,-1,-1,-1,,9999,0,0,2,FEW 27   BKN -9999,1,18,1,13,1020,ROMY 032300Z 10005KT 9999 FEW027 BKN/// 18/13 Q1020 RMK 1CU027     A3012=,
20180104_000000.002,0,ROMY,,,,0,20180104000000,-1,-1,-1,-1,100,-1,5,-1,-1,-1,-1,,9999,0,0,2,FEW 27   SCT -9999,1,19,1,14,1020,ROMY 040000Z 10005KT 9999 FEW027 SCT/// 19/14 Q1020 RMK 1CU027     A3013=,
20180104_010000.002,0,ROMY,,,,0,20180104010000,-1,-1,-1,-1,120,-1,10,-1,-1,-1,-1,,9999,0,0,2,FEW 30   BKN -9999,1,22,1,14,1020,ROMY 040100Z 12010KT 9999 FEW030 BKN/// 22/14 Q1020 RMK 1CU030     A3012=,
20180104_020000.002,0,ROMY,,,,0,20180104020000,-1,-1,-1,-1,110,-1,12,-1,-1,50,130,,9999,0,0,2,FEW 30   BKN -9999,1,23,1,15,1019,ROMY 040200Z 11012KT 050V130 9999 FEW030 BKN/// 23/15 Q1019     RMK 1CU030 A3011=,
20180104_030000.002,0,ROMY,,,,0,20180104030000,-1,-1,-1,-1,120,-1,12,-1,-1,-1,-1,,9999,0,0,2,FEW 31   BKN -9999,1,23,1,15,1018,ROMY 040300Z 12012KT 9999 FEW031 BKN/// 23/15 Q1018 RMK 1CU031     A3009=,
20180104_040000.002,0,ROMY,,,,0,20180104040000,-1,-1,-1,-1,130,-1,11,-1,-1,-1,-1,,9999,0,0,3,FEW 32   SCT 50   BKN 180,1,22,1,15,1018,ROMY 040400Z 13011KT 9999 FEW032 SCT050 BKN180 22/15 Q1018 RMK     1CU032 4SC050 7AC180 A3007=,
20180104_050000.002,0,ROMY,,,,0,20180104050000,-1,-1,-1,-1,130,-1,13,-1,-1,-1,-1,,9999,0,0,2,FEW 30   BKN 50,1,22,1,15,1017,ROMY 040500Z 13013KT 9999 FEW030 BKN050 22/15 Q1017 RMK 1CU030     7SC050 A3004=,
20180104_060000.003,0,ROMY,,,,0,20180104060000,-1,-1,-1,-1,130,-1,12,-1,-1,-1,-1,,9999,0,0,2,FEW 28   BKN 60,1,22,1,16,1016,ROMY 040600Z 13012KT 9999 FEW028 BKN060 22/16 Q1016 RMK 1CU028     7SC060 A3003=,
20180104_070000.002,0,ROMY,,,,0,20180104070000,-1,-1,-1,-1,120,-1,10,-1,-1,-1,-1,,9999,0,0,2,FEW 30   BKN 50,1,22,1,16,1016,ROMY 040700Z 12010KT 9999 FEW030 BKN050 22/16 Q1016 RMK 1CU030     7SC050 A3001=,
20180104_080000.002,0,ROMY,,,,0,20180104080000,-1,-1,-1,-1,130,-1,8,-1,-1,-1,-1,CAVOK,-1,0,0,0,,1,21,1,16,1016,ROMY 040800Z 13008KT CAVOK 21/16 Q1016 RMK 7SC050 A3001=,
20180104_090000.002,0,ROMY,,,,0,20180104090000,-1,-1,-1,-1,120,-1,9,-1,-1,-1,-1,,9999,0,0,3,FEW 35   BKN 50   BKN -9999,1,21,1,17,1016,ROMY 040900Z 12009KT 9999 FEW035 BKN050 BKN/// 21/17 Q1016 RMK     1CU035 5SC050 A3000=,
20180104_100000.002,0,ROMY,,,,0,20180104100000,-1,-1,-1,-1,120,-1,7,-1,-1,-1,-1,,9999,0,0,2,FEW 35   BKN 70,1,21,1,17,1016,ROMY 041000Z 12007KT 9999 FEW035 BKN070 21/17 Q1016 RMK 1CU035     7AC070 A3001=,
20180104_110000.002,0,ROMY,,,,0,20180104110000,-1,-1,-1,-1,130,-1,9,-1,-1,-1,-1,,9999,0,0,2,FEW 30   BKN 50,1,21,1,18,1016,ROMY 041100Z 13009KT 9999 FEW030 BKN050 21/18 Q1016 RMK 1CU030     7SC050 A3001=,
20180104_213000.001,0,ROMY,,,,0,20180104210000,-1,-1,-1,-1,250,-1,12,-1,-1,-1,-1,,4000,0,2,3,FEW 5   SCT 11   BKN 25,1,20,1,20,1013,ROMY 042130Z 25012KT 4000 -SHRA BR FEW005 SCT011 BKN025 20/20     Q1013 RMK 1ST005 4CU011 6CU025 A2993=,- RA SH; BR
20180104_220000.002,0,ROMY,,,,0,20180104220000,-1,-1,-1,-1,250,-1,9,-1,-1,-1,-1,,8000,0,1,3,FEW 5   SCT 11   BKN 20,1,20,1,19,1013,ROMY 042200Z 25009KT 8000 -SHRA FEW005 SCT011 BKN020 20/19     Q1013 RMK 1ST005 3CU011 5CU020 A2994=,- RA SH
20180104_230000.002,0,ROMY,,,,0,20180104230000,-1,-1,-1,-1,270,-1,10,-1,-1,-1,-1,,9999,0,1,2,FEW 7   BKN 25,1,21,1,20,1014,ROMY 042300Z 27010KT 9999 VCSH FEW007 BKN025 21/20 Q1014 RMK     1ST007 7CU025 A2995=,VC SH
20180105_000000.002,0,ROMY,,,,0,20180105000000,-1,-1,-1,-1,330,-1,11,-1,-1,-1,-1,,2000,0,2,2,SCT 4   BKN 9,1,20,1,19,1015,ROMY 050000Z 33011KT 2000 SHRA BR SCT004 BKN009 20/19 Q1015     RMK 4ST004 7CU009 A2998=,RA SH; BR
20180105_010000.003,0,ROMY,,,,0,20180105010000,-1,-1,-1,-1,330,-1,12,-1,-1,-1,-1,,9999,0,1,2,FEW 15   BKN 25,1,21,1,18,1015,ROMY 050100Z 33012KT 9999 -SHRA FEW015 BKN025 21/18 Q1015 RMK     2CU015 6CU025 A3000=,- RA SH
20180105_020000.002,0,ROMY,,,,0,20180105020000,-1,-1,-1,-1,330,-1,12,-1,-1,-1,-1,,3500,0,2,3,FEW 6   SCT 20   BKN 25,1,20,1,19,1016,ROMY 050200Z 33012KT 3500 -SHRA BR FEW006 SCT020 BKN025 20/19     Q1016 RMK 1ST006 4CU020 6CU025 A3001=,- RA SH; BR
20180105_030000.002,0,ROMY,,,,0,20180105030000,-1,-1,-1,-1,340,-1,11,-1,-1,-1,-1,,9999,0,1,2,FEW 15   BKN 25,1,21,1,18,1015,ROMY 050300Z 34011KT 9999 -SHRA FEW015 BKN025 21/18 Q1015 RMK     2CU015 7CU025 A2999=,- RA SH
20180105_040000.002,0,ROMY,,,,0,20180105040000,-1,-1,-1,-1,350,-1,13,-1,-1,-1,-1,,9999,0,1,2,FEW 16   BKN 25,1,21,1,17,1015,ROMY 050400Z 35013KT 9999 -SHRA FEW016 BKN025 21/17 Q1015 RMK     1CU016 6CU025 A2997=,- RA SH
20180105_050000.002,0,ROMY,,,,0,20180105050000,-1,-1,-1,-1,350,-1,12,-1,-1,-1,-1,,9999,0,0,2,SCT 17   BKN 25,1,20,1,17,1014,ROMY 050500Z 35012KT 9999 SCT017 BKN025 20/17 Q1014 RMK 4CU017     7CU025 A2996=,
20180105_060000.002,0,ROMY,,,,0,20180105060000,-1,-1,-1,-1,360,-1,12,-1,-1,-1,-1,,9999,0,1,3,FEW 18   BKN 25   BKN 70,1,20,1,16,1014,ROMY 050600Z 36012KT 9999 VCSH FEW018 BKN025 BKN070 20/16     Q1014 RMK 2CU018 5CU025 7AS070 A2996=,VC SH
20180105_070000.002,0,ROMY,,,,0,20180105070000,-1,-1,-1,-1,10,-1,10,-1,-1,330,50,,9999,0,1,3,SCT 18   BKN 28   BKN 70,1,19,1,16,1014,ROMY 050700Z 01010KT 330V050 9999 -SHRA SCT018 BKN028 BKN070     19/16 Q1014 RMK 3CU018 5CU028 7AS070 A2997=,- RA SH
20180105_080000.002,0,ROMY,,,,0,20180105080000,-1,-1,-1,-1,10,-1,11,-1,-1,-1,-1,,9999,0,1,2,SCT 20   BKN 30,1,19,1,15,1015,ROMY 050800Z 01011KT 9999 VCSH SCT020 BKN030 19/15 Q1015 RMK     3CU020 7CU030 A2998=,VC SH
20180105_090000.002,0,ROMY,,,,0,20180105090000,-1,-1,-1,-1,10,-1,14,-1,-1,-1,-1,,9999,0,0,2,SCT 20   BKN 28,1,19,1,16,1015,ROMY 050900Z 01014KT 9999 SCT020 BKN028 19/16 Q1015 RMK 3CU020     7CU028 A2998=,
20180105_100000.002,0,ROMY,,,,0,20180105100000,-1,-1,-1,-1,10,-1,15,-1,26,-1,-1,,9999,0,0,2,SCT 20   BKN 28,1,19,1,15,1015,ROMY 051000Z 01015G26KT 9999 SCT020 BKN028 19/15 Q1015 RMK     3CU020 7CU028 A2999=,
20180105_110000.002,0,ROMY,,,,0,20180105110000,-1,-1,-1,-1,20,-1,13,-1,24,-1,-1,,9999,0,1,2,FEW 18   BKN 28,1,19,1,15,1016,ROMY 051100Z 02013G24KT 9999 -SHRA FEW018 BKN028 19/15 Q1016     RMK 2CU018 7CU028 A3003=,- RA SH
20180105_213000.001,0,ROMY,,,,0,20180105210000,-1,-1,-1,-1,30,-1,11,-1,-1,340,50,,9999,0,0,2,BKN 20   BKN 41,1,18,1,13,1018,ROMY 052130Z 03011KT 340V050 9999 BKN020 BKN041 18/13 Q1018     RMK 5CU020 7SC041 A3006=,
20180105_220000.002,0,ROMY,,,,0,20180105220000,-1,-1,-1,-1,30,-1,11,-1,-1,360,60,,9999,0,0,2,SCT 26   BKN 38,1,18,1,13,1018,ROMY 052200Z 03011KT 360V060 9999 SCT026 BKN038 18/13 Q1018     RMK 4CU026 7SC038 A3007=,
20180105_230000.002,0,ROMY,,,,0,20180105230000,-1,-1,-1,-1,40,-1,12,-1,-1,-1,-1,,9999,0,0,2,SCT 28   BKN 40,1,18,1,13,1018,ROMY 052300Z 04012KT 9999 SCT028 BKN040 18/13 Q1018 RMK 4CU028     7SC040 A3008=,
20180106_000000.002,0,ROMY,,,,0,20180106000000,-1,-1,-1,-1,40,-1,11,-1,-1,-1,-1,,9999,0,0,2,BKN 28   BKN 35,1,18,1,13,1019,ROMY 060000Z 04011KT 9999 BKN028 BKN035 18/13 Q1019 RMK 5CU028     7SC035 A3011=,
20180106_010000.002,0,ROMY,,,,0,20180106010000,-1,-1,-1,-1,40,-1,12,-1,-1,-1,-1,,9999,0,0,2,BKN 28   BKN 34,1,18,1,12,1020,ROMY 060100Z 04012KT 9999 BKN028 BKN034 18/12 Q1020 RMK 6CU028     7SC034 A3012=,
20180106_020000.002,0,ROMY,,,,0,20180106020000,-1,-1,-1,-1,50,-1,13,-1,-1,-1,-1,,9999,0,0,2,BKN 30   BKN 38,1,19,1,12,1020,ROMY 060200Z 05013KT 9999 BKN030 BKN038 19/12 Q1020 RMK 6CU030     7SC038 A3012=,
20180106_030000.002,0,ROMY,,,,0,20180106030000,-1,-1,-1,-1,50,-1,12,-1,-1,-1,-1,,9999,0,0,3,FEW 30   SCT 38   BKN 60,1,19,1,12,1019,ROMY 060300Z 05012KT 9999 FEW030 SCT038 BKN060 19/12 Q1019 RMK     2CU030 4SC038 7SC060 A3009=,
20180106_040000.002,0,ROMY,,,,0,20180106040000,-1,-1,-1,-1,50,-1,14,-1,-1,-1,-1,,9999,0,0,2,FEW 29   BKN 70,1,20,1,13,1017,ROMY 060400Z 05014KT 9999 FEW029 BKN070 20/13 Q1017 RMK 2CU029     6AC070 A3005=,
20180106_050000.002,0,ROMY,,,,0,20180106050000,-1,-1,-1,-1,40,-1,13,-1,-1,-1,-1,,9999,0,0,2,SCT 26   BKN 70,1,19,1,13,1017,ROMY 060500Z 04013KT 9999 SCT026 BKN070 19/13 Q1017 RMK 3CU026     7AS070 A3003=,
20180106_060000.002,0,ROMY,,,,0,20180106060000,-1,-1,-1,-1,40,-1,14,-1,-1,-1,-1,,9999,0,0,2,SCT 28   BKN 60,1,19,1,13,1016,ROMY 060600Z 04014KT 9999 SCT028 BKN060 19/13 Q1016 RMK 3CU028     7SC060 A3003=,
20180106_070000.002,0,ROMY,,,,0,20180106070000,-1,-1,-1,-1,60,-1,13,-1,-1,-1,-1,,9999,0,0,3,SCT 26   BKN 50   BKN 80,1,19,1,13,1016,ROMY 060700Z 06013KT 9999 SCT026 BKN050 BKN080 19/13 Q1016 RMK     3CU026 5SC050 6AC080 A3001=,
20180106_080000.002,0,ROMY,,,,0,20180106080000,-1,-1,-1,-1,40,-1,13,-1,-1,-1,-1,,9999,0,0,2,SCT 26   BKN 60,1,18,1,14,1017,ROMY 060800Z 04013KT 9999 SCT026 BKN060 18/14 Q1017 RMK 3CU026     7SC060 A3003=,
20180106_090000.002,0,ROMY,,,,0,20180106090000,-1,-1,-1,-1,50,-1,13,-1,-1,-1,-1,,8000,0,1,3,FEW 15   SCT 30   BKN 50,1,16,1,15,1017,ROMY 060900Z 05013KT 8000 -RA FEW015 SCT030 BKN050 16/15 Q1017     RMK 2CU015 3CU030 7SC050 A3004=,- RA
20180106_100000.002,0,ROMY,,,,0,20180106100000,-1,-1,-1,-1,60,-1,12,-1,-1,-1,-1,,9000,0,1,3,FEW 10   SCT 25   BKN 50,1,16,1,15,1017,ROMY 061000Z 06012KT 9000 -RA FEW010 SCT025 BKN050 16/15 Q1017     RMK 2CU010 3CU025 7SC050 A3005=,- RA
20180106_110000.002,0,ROMY,,,,0,20180106110000,-1,-1,-1,-1,60,-1,10,-1,-1,-1,-1,,6000,0,1,3,FEW 8   BKN 22   BKN 40,1,16,1,16,1018,ROMY 061100Z 06010KT 6000 -RA FEW008 BKN022 BKN040 16/16 Q1018     RMK 2CU008 5CU022 7SC040 A3007=,- RA
20180106_213000.001,0,ROMY,,,,0,20180106210000,-1,-1,-1,-1,50,-1,10,-1,-1,-1,-1,,6000,0,1,3,FEW 9   BKN 18   BKN 40,1,18,1,17,1017,ROMY 062130Z 05010KT 6000 -RA FEW009 BKN018 BKN040 18/17 Q1017     RMK 2CU009 5CU018 7SC040 A3003=,- RA
20180106_220000.002,0,ROMY,,,,0,20180106220000,-1,-1,-1,-1,50,-1,11,-1,-1,-1,-1,,6000,0,1,3,SCT 7   BKN 15   BKN 40,1,18,1,17,1017,ROMY 062200Z 05011KT 6000 -RA SCT007 BKN015 BKN040 18/17 Q1017     RMK 3ST007 5CU015 7SC040 A3005=,- RA
20180106_230000.002,0,ROMY,,,,0,20180106230000,-1,-1,-1,-1,50,-1,9,-1,-1,-1,-1,,5000,0,2,3,SCT 5   BKN 8   BKN 40,1,18,1,17,1018,ROMY 062300Z 05009KT 5000 -RA BR SCT005 BKN008 BKN040 18/17     Q1018 RMK 3ST005 5CU008 7SC040 A3006=,- RA; BR
20180107_000000.002,0,ROMY,,,,0,20180107000000,-1,-1,-1,-1,70,-1,9,-1,-1,-1,-1,,3500,0,2,3,SCT 6   BKN 12   BKN 35,1,18,1,17,1018,ROMY 070000Z 07009KT 3500 RA BR SCT006 BKN012 BKN035 18/17     Q1018 RMK 3ST006 5CU012 7SC035 A3006=,RA; BR
20180107_010000.003,0,ROMY,,,,0,20180107010000,-1,-1,-1,-1,80,-1,11,-1,-1,-1,-1,,4500,0,2,3,FEW 6   BKN 15   BKN 35,1,18,1,17,1018,ROMY 070100Z 08011KT 4500 -RA BR FEW006 BKN015 BKN035 18/17     Q1018 RMK 2ST006 5CU015 7SC035 A3008=,- RA; BR
20180107_020000.002,0,ROMY,,,,0,20180107020000,-1,-1,-1,-1,70,-1,10,-1,-1,-1,-1,,6000,0,1,3,FEW 8   SCT 18   BKN 35,1,18,1,17,1018,ROMY 070200Z 07010KT 6000 -RA FEW008 SCT018 BKN035 18/17 Q1018     RMK 2CU008 4CU018 6SC035 A3009=,- RA
20180107_030000.002,0,ROMY,,,,0,20180107030000,-1,-1,-1,-1,70,-1,11,-1,-1,-1,-1,,7000,0,1,3,FEW 10   SCT 20   BKN 40,1,18,1,17,1018,ROMY 070300Z 07011KT 7000 -RA FEW010 SCT020 BKN040 18/17 Q1018     RMK 2CU010 4CU020 7SC040 A3008=,- RA
20180107_040000.002,0,ROMY,,,,0,20180107040000,-1,-1,-1,-1,60,-1,8,-1,-1,-1,-1,,9999,0,1,3,FEW 8   SCT 12   BKN 50,1,19,1,18,1017,ROMY 070400Z 06008KT 9999 -RA FEW008 SCT012 BKN050 19/18 Q1017     RMK 2ST008 3CU012 7SC050 A3005=,- RA
20180107_050000.002,0,ROMY,,,,0,20180107050000,-1,-1,-1,-1,70,-1,9,-1,-1,-1,-1,,9999,0,1,3,FEW 8   SCT 20   BKN 40,1,19,1,17,1017,ROMY 070500Z 07009KT 9999 -RA FEW008 SCT020 BKN040 19/17 Q1017     RMK 1CU008 4CU020 7SC040 A3004=,- RA
20180107_060000.002,0,ROMY,,,,0,20180107060000,-1,-1,-1,-1,80,-1,13,-1,-1,-1,-1,,9999,0,0,3,FEW 10   SCT 30   BKN 50,1,19,1,17,1016,ROMY 070600Z 08013KT 9999 FEW010 SCT030 BKN050 19/17 Q1016 RMK     1CU010 3CU030 6SC050 A3002=,
20180107_070000.002,0,ROMY,,,,0,20180107070000,-1,-1,-1,-1,90,-1,13,-1,-1,-1,-1,,9999,0,0,2,FEW 10   BKN 50,1,19,1,17,1016,ROMY 070700Z 09013KT 9999 FEW010 BKN050 19/17 Q1016 RMK 1CU010     7SC050 A3000=,
20180107_080000.002,0,ROMY,,,,0,20180107080000,-1,-1,-1,-1,90,-1,12,-1,-1,-1,-1,,9999,0,0,2,FEW 10   BKN 50,1,19,1,17,1016,ROMY 070800Z 09012KT 9999 FEW010 BKN050 19/17 Q1016 RMK 1CU010     7SC050 A3003=,
20180107_090000.002,0,ROMY,,,,0,20180107090000,-1,-1,-1,-1,90,-1,12,-1,-1,-1,-1,,9999,0,0,3,FEW 10   BKN 50   BKN 70,1,19,1,17,1017,ROMY 070900Z 09012KT 9999 FEW010 BKN050 BKN070 19/17 Q1017 RMK     1CU010 5SC050 7AS070 A3004=,
20180107_100000.002,0,ROMY,,,,0,20180107100000,-1,-1,-1,-1,100,-1,12,-1,-1,-1,-1,,9999,0,0,3,FEW 10   BKN 50   BKN 70,1,19,1,17,1017,ROMY 071000Z 10012KT 9999 FEW010 BKN050 BKN070 19/17 Q1017 RMK     1CU010 5SC050 7AS070 A3003=,
20180107_110000.002,0,ROMY,,,,0,20180107110000,-1,-1,-1,-1,90,-1,12,-1,-1,-1,-1,,9999,0,1,3,FEW 10   BKN 50   BKN 70,1,19,1,16,1017,ROMY 071100Z 09012KT 9999 -RA FEW010 BKN050 BKN070 19/16 Q1017     RMK 1CU010 5SC050 7AS070 A3005=,- RA
20180107_213000.001,0,ROMY,,,,0,20180107210000,-1,-1,-1,-1,140,-1,11,-1,-1,-1,-1,,9999,0,0,2,SCT 10   BKN 32,1,22,1,20,1012,ROMY 072130Z 14011KT 9999 SCT010 BKN032 22/20 Q1012 RMK 4CU010     7CU032 A2990=,
20180107_220000.002,0,ROMY,,,,0,20180107220000,-1,-1,-1,-1,190,-1,9,-1,-1,-1,-1,,9999,0,1,2,BKN 10   BKN 25,1,22,1,20,1013,ROMY 072200Z 19009KT 9999 -SHRA BKN010 BKN025 22/20 Q1013 RMK     5CU010 7CU025 A2992=,- RA SH
20180107_230000.002,0,ROMY,,,,0,20180107230000,-1,-1,-1,-1,170,-1,11,-1,-1,-1,-1,,9999,0,0,2,SCT 12   BKN 70,1,21,1,20,1012,ROMY 072300Z 17011KT 9999 SCT012 BKN070 21/20 Q1012 RMK 3CU012     7AC070 A2991=,
20180108_000000.002,0,ROMY,,,,0,20180108000000,-1,-1,-1,-1,170,-1,11,-1,-1,-1,-1,,9999,0,0,2,FEW 8   BKN 90,1,22,1,21,1012,ROMY 080000Z 17011KT 9999 FEW008 BKN090 22/21 Q1012 RMK 2ST008     7AC090 A2990=,
20180108_010000.002,0,ROMY,,,,0,20180108010000,-1,-1,-1,-1,180,-1,14,-1,-1,-1,-1,,9999,0,0,2,SCT 8   BKN 80,1,23,1,21,1012,ROMY 080100Z 18014KT 9999 SCT008 BKN080 23/21 Q1012 RMK 3ST008     6AC080 A2991=,
20180108_020000.002,0,ROMY,,,,0,20180108020000,-1,-1,-1,-1,180,-1,12,-1,-1,-1,-1,,9999,0,0,2,FEW 7   BKN 50,1,23,1,22,1012,ROMY 080200Z 18012KT 9999 FEW007 BKN050 23/22 Q1012 RMK 2ST007     6SC050 A2988=,
20180108_030000.002,0,ROMY,,,,0,20180108030000,-1,-1,-1,-1,190,-1,15,-1,-1,-1,-1,,9999,0,0,2,SCT 7   BKN 70,1,24,1,22,1010,ROMY 080300Z 19015KT 9999 SCT007 BKN070 24/22 Q1010 RMK 3ST007     5AC070 A2984=,
20180108_040000.002,0,ROMY,,,,0,20180108040000,-1,-1,-1,-1,190,-1,15,-1,-1,-1,-1,,9999,0,0,2,BKN 7   BKN 35,1,24,1,22,1009,ROMY 080400Z 19015KT 9999 BKN007 BKN035 24/22 Q1009 RMK 5ST007     6SC035 A2982=,
20180108_050000.002,0,ROMY,,,,0,20180108050000,-1,-1,-1,-1,290,-1,12,-1,-1,260,320,,3500,0,1,3,FEW 4   BKN 8   BKN 15,1,20,1,19,1010,ROMY 080500Z 29012KT 260V320 3500 SHRA FEW004 BKN008 BKN015     20/19 Q1010 RMK 1ST004 5ST008 7CU015 A2984 P/RR=,RA SH
20180108_060000.003,0,ROMY,,,,0,20180108060000,-1,-1,-1,-1,290,-1,9,-1,-1,-1,-1,,9999,0,0,2,FEW 10   BKN 35,1,21,1,19,1010,ROMY 080600Z 29009KT 9999 FEW010 BKN035 21/19 Q1010 RMK 1CU010     7SC035 A2982=,
20180108_070000.002,0,ROMY,,,,0,20180108070000,-1,-1,-1,-1,330,-1,16,-1,-1,-1,-1,,9999,0,1,3,FEW 5   BKN 12   BKN 35,1,21,1,19,1010,ROMY 080700Z 33016KT 9999 -SHRA FEW005 BKN012 BKN035 21/19     Q1010 RMK 1ST005 5CU012 7SC035 A2984=,- RA SH
20180108_080000.002,0,ROMY,,,,0,20180108080000,-1,-1,-1,-1,350,-1,8,-1,-1,310,20,,9000,0,1,3,FEW 10   SCT 30   BKN 50,1,20,1,19,1011,ROMY 080800Z 35008KT 310V020 9000 -RA FEW010 SCT030 BKN050     20/19 Q1011 RMK 1CU010 3CU030 7SC050 A2986=,- RA
20180108_090000.002,0,ROMY,,,,0,20180108090000,-1,-1,-1,-1,350,-1,9,-1,-1,330,30,,9999,0,1,2,SCT 13   BKN 60,1,20,1,18,1011,ROMY 080900Z 35009KT 330V030 9999 -RA SCT013 BKN060 20/18     Q1011 RMK 3CU013 7SC060 A2988=,- RA
20180108_100000.002,0,ROMY,,,,0,20180108100000,-1,-1,-1,-1,360,-1,7,-1,-1,-1,-1,,9999,0,1,2,SCT 13   BKN 70,1,19,1,18,1012,ROMY 081000Z 36007KT 9999 -RA SCT013 BKN070 19/18 Q1012 RMK     3CU013 7AS070 A2990=,- RA
20180108_110000.002,0,ROMY,,,,0,20180108110000,-1,-1,-1,-1,350,-1,11,-1,21,-1,-1,,9999,0,0,3,SCT 13   BKN 20   BKN 70,1,19,1,18,1014,ROMY 081100Z 35011G21KT 9999 SCT013 BKN020 BKN070 19/18 Q1014     RMK 3CU013 5CU020 7AS070 A2995=,
20180108_213000.001,0,ROMY,,,,0,20180108210000,-1,-1,-1,-1,350,-1,15,-1,25,-1,-1,,9999,0,0,2,BKN 20   BKN 30,1,15,1,11,1019,ROMY 082130Z 35015G25KT 9999 BKN020 BKN030 15/11 Q1019 RMK     5CU020 7SC030 A3010=,
20180108_220000.002,0,ROMY,,,,0,20180108220000,-1,-1,-1,-1,360,-1,15,-1,-1,-1,-1,,9999,0,0,2,SCT 20   BKN 30,1,15,1,11,1020,ROMY 082200Z 36015KT 9999 SCT020 BKN030 15/11 Q1020 RMK 4CU020     7SC030 A3013=,
20180108_230000.003,0,ROMY,,,,0,20180108230000,-1,-1,-1,-1,360,-1,12,-1,-1,330,40,,9999,0,0,2,SCT 20   BKN 35,1,15,1,11,1020,ROMY 082300Z 36012KT 330V040 9999 SCT020 BKN035 15/11 Q1020     RMK 3CU020 7SC035 A3014=,
20180109_000000.002,0,ROMY,,,,0,20180109000000,-1,-1,-1,-1,360,-1,10,-1,-1,-1,-1,,9999,0,1,2,SCT 20   BKN 28,1,14,1,11,1021,ROMY 090000Z 36010KT 9999 -SHRA SCT020 BKN028 14/11 Q1021 RMK     3CU020 7CU028 A3016=,- RA SH
20180109_010000.002,0,ROMY,,,,0,20180109010000,-1,-1,-1,-1,350,-1,10,-1,20,-1,-1,,9999,0,1,2,BKN 23   BKN 90,1,14,1,10,1022,ROMY 090100Z 35010G20KT 9999 -SHRA BKN023 BKN090 14/10 Q1022     RMK 5CU023 7AS090 A3019=,- RA SH
20180109_020000.002,0,ROMY,,,,0,20180109020000,-1,-1,-1,-1,350,-1,12,-1,-1,-1,-1,,9999,0,1,2,SCT 22   OVC 100,1,14,1,10,1021,ROMY 090200Z 35012KT 9999 -SHRA SCT022 OVC100 14/10 Q1021 RMK     3CU022 8AS100 A3017=,- RA SH
20180109_030000.002,0,ROMY,,,,0,20180109030000,-1,-1,-1,-1,360,-1,11,-1,-1,-1,-1,,9999,0,1,3,FEW 22   BKN 28   OVC 90,1,13,1,10,1021,ROMY 090300Z 36011KT 9999 -SHRA FEW022 BKN028 OVC090 13/10     Q1021 RMK 2CU022 6CU028 8AS090 A3015=,- RA SH
20180109_040000.002,0,ROMY,,,,0,20180109040000,-1,-1,-1,-1,360,-1,11,-1,-1,320,30,,9999,0,1,3,SCT 25   BKN 35   OVC 90,1,14,1,9,1019,ROMY 090400Z 36011KT 320V030 9999 -SHRA SCT025 BKN035 OVC090     14/09 Q1019 RMK 4CU025 6SC035 8AS090 A3011=,- RA SH
20180109_050000.002,0,ROMY,,,,0,20180109050000,-1,-1,-1,-1,360,-1,11,-1,-1,330,30,,9999,0,1,2,SCT 26   OVC 80,1,14,1,7,1019,ROMY 090500Z 36011KT 330V030 9999 -RA SCT026 OVC080 14/07     Q1019 RMK 3CU026 8AS080 A3009=,- RA
20180109_060000.002,0,ROMY,,,,0,20180109060000,-1,-1,-1,-1,360,-1,12,-1,-1,330,40,,9999,0,0,2,SCT 27   BKN 40,1,14,1,8,1019,ROMY 090600Z 36012KT 330V040 9999 SCT027 BKN040 14/08 Q1019     RMK 4CU027 7SC040 A3009=,
20180109_070000.002,0,ROMY,,,,0,20180109070000,-1,-1,-1,-1,350,-1,10,-1,-1,-1,-1,,9999,0,0,2,SCT 33   OVC 80,1,14,1,7,1019,ROMY 090700Z 35010KT 9999 SCT033 OVC080 14/07 Q1019 RMK 3CU033     8AS080 A3010=,
20180109_080000.002,0,ROMY,,,,0,20180109080000,-1,-1,-1,-1,10,-1,10,-1,20,-1,-1,,9999,0,0,2,BKN 34   OVC 80,1,13,1,7,1019,ROMY 090800Z 01010G20KT 9999 BKN034 OVC080 13/07 Q1019 RMK     5CU034 8AS080 A3010=,
20180109_090000.002,0,ROMY,,,,0,20180109090000,-1,-1,-1,-1,360,-1,10,-1,-1,330,30,,9999,0,0,2,BKN 29   BKN 90,1,13,1,8,1020,ROMY 090900Z 36010KT 330V030 9999 BKN029 BKN090 13/08 Q1020     RMK 5CU029 7AC090 A3014=,
20180109_100000.002,0,ROMY,,,,0,20180109100000,-1,-1,-1,-1,360,-1,10,-1,-1,-1,-1,,9999,0,1,2,SCT 33   BKN 90,1,14,1,7,1021,ROMY 091000Z 36010KT 9999 VCSH SCT033 BKN090 14/07 Q1021 RMK     4CU033 7AC090 A3015=,VC SH
20180109_110000.002,0,ROMY,,,,0,20180109110000,-1,-1,-1,-1,360,-1,10,-1,-1,-1,-1,,9999,0,0,2,BKN 30   BKN 90,1,14,1,8,1021,ROMY 091100Z 36010KT 9999 BKN030 BKN090 14/08 Q1021 RMK 5CU030     7AC090 A3018=,
20180109_213000.001,0,ROMY,,,,0,20180109210000,-1,-1,-1,-1,360,-1,10,-1,-1,-1,-1,,9999,0,0,2,FEW 32   BKN 70,1,14,1,6,1023,ROMY 092130Z 36010KT 9999 FEW032 BKN070 14/06 Q1023 RMK 2CU032     7AS070 A3021=,
20180109_220000.002,0,ROMY,,,,0,20180109220000,-1,-1,-1,-1,360,-1,7,-1,-1,-1,-1,,9999,0,0,2,FEW 35   OVC 80,1,14,1,6,1023,ROMY 092200Z 36007KT 9999 FEW035 OVC080 14/06 Q1023 RMK 2CU035     8AS080 A3022=,
20180109_230000.002,0,ROMY,,,,0,20180109230000,-1,-1,-1,-1,360,-1,8,-1,-1,330,40,,9999,0,1,2,SCT 35   BKN 90,1,14,1,7,1023,ROMY 092300Z 36008KT 330V040 9999 -RA SCT035 BKN090 14/07     Q1023 RMK 3SC035 7AS090 A3023=,- RA
20180110_000000.002,0,ROMY,,,,0,20180110000000,-1,-1,-1,-1,360,-1,7,-1,-1,330,40,,9999,0,0,2,SCT 38   BKN 100,1,14,1,6,1024,ROMY 100000Z 36007KT 330V040 9999 SCT038 BKN100 14/06 Q1024     RMK 3SC038 7AS100 A3025=,
20180110_010000.002,0,ROMY,,,,0,20180110010000,-1,-1,-1,-1,350,-1,9,-1,-1,320,30,,9999,0,0,2,SCT 35   BKN 100,1,15,1,7,1024,ROMY 100100Z 35009KT 320V030 9999 SCT035 BKN100 15/07 Q1024     RMK 4SC035 7AS100 A3026=,
20180110_020000.002,0,ROMY,,,,0,20180110020000,-1,-1,-1,-1,360,-1,9,-1,-1,330,30,,9999,0,1,2,BKN 35   BKN 100,1,15,1,7,1024,ROMY 100200Z 36009KT 330V030 9999 VCSH BKN035 BKN100 15/07     Q1024 RMK 5SC035 7AS100 A3026=,VC SH
20180110_030000.002,0,ROMY,,,,0,20180110030000,-1,-1,-1,-1,360,-1,9,-1,-1,320,30,,9999,0,1,2,SCT 35   BKN 100,1,15,1,7,1024,ROMY 100300Z 36009KT 320V030 9999 VCSH SCT035 BKN100 15/07     Q1024 RMK 4SC035 7AS100 A3024=,VC SH
20180110_040000.003,0,ROMY,,,,0,20180110040000,-1,-1,-1,-1,360,-1,8,-1,-1,320,30,,9999,0,0,2,BKN 40   BKN 120,1,15,1,7,1022,ROMY 100400Z 36008KT 320V030 9999 BKN040 BKN120 15/07 Q1022     RMK 5SC040 7AS120 A3021=,
20180110_050000.002,0,ROMY,,,,0,20180110050000,-1,-1,-1,-1,350,-1,10,-1,-1,-1,-1,CAVOK,-1,0,0,0,,1,15,1,7,1022,ROMY 100500Z 35010KT CAVOK 15/07 Q1022 RMK A3019=,
20180110_060000.002,0,ROMY,,,,0,20180110060000,-1,-1,-1,-1,10,-1,10,-1,-1,320,30,,9999,0,0,3,FEW 38   SCT 46   BKN 120,1,15,1,7,1021,ROMY 100600Z 01010KT 320V030 9999 FEW038 SCT046 BKN120 15/07     Q1021 RMK 1SC038 4SC046 7AS120 A3018=,
20180110_070000.002,0,ROMY,,,,0,20180110070000,-1,-1,-1,-1,360,-1,10,-1,-1,-1,-1,,9999,0,0,2,BKN 38   BKN 48,1,15,1,6,1022,ROMY 100700Z 36010KT 9999 BKN038 BKN048 15/06 Q1022 RMK 5SC038     7SC048 A3019=,
20180110_080000.002,0,ROMY,,,,0,20180110080000,-1,-1,-1,-1,350,-1,11,-1,-1,320,30,,9999,0,0,3,FEW 36   BKN 50   BKN 120,1,14,1,6,1022,ROMY 100800Z 35011KT 320V030 9999 FEW036 BKN050 BKN120 14/06     Q1022 RMK 2SC036 5SC050 7AS120 A3021=,
20180110_090000.002,0,ROMY,,,,0,20180110090000,-1,-1,-1,-1,360,-1,10,-1,-1,-1,-1,,9999,0,0,3,FEW 40   BKN 50   BKN 150,1,14,1,5,1022,ROMY 100900Z 36010KT 9999 FEW040 BKN050 BKN150 14/05 Q1022 RMK     2SC040 5SC050 7AC150 A3020=,
20180110_100000.002,0,ROMY,,,,0,20180110100000,-1,-1,-1,-1,360,-1,9,-1,-1,320,30,,9999,0,0,3,FEW 41   SCT 50   BKN 150,1,14,1,5,1023,ROMY 101000Z 36009KT 320V030 9999 FEW041 SCT050 BKN150 14/05     Q1023 RMK 2SC041 4SC050 7AC150 A3023=,
20180110_110000.002,0,ROMY,,,,0,20180110110000,-1,-1,-1,-1,360,-1,10,-1,-1,-1,-1,,9999,0,0,2,FEW 42   BKN 150,1,14,1,5,1024,ROMY 101100Z 36010KT 9999 FEW042 BKN150 14/05 Q1024 RMK 2SC042     7AC150 A3024=,
20180110_213000.001,0,ROMY,,,,0,20180110210000,-1,-1,-1,-1,350,-1,11,-1,-1,320,20,,9999,0,0,1,BKN 40,1,12,1,4,1025,ROMY 102130Z 35011KT 320V020 9999 BKN040 12/04 Q1025 RMK     5SC040 A3029=,
20180110_220000.002,0,ROMY,,,,0,20180110220000,-1,-1,-1,-1,10,-1,12,-1,22,-1,-1,,9999,0,0,2,SCT 41   BKN 60,1,13,1,4,1025,ROMY 102200Z 01012G22KT 9999 SCT041 BKN060 13/04 Q1025 RMK     3SC041 6SC060 A3027=,
20180110_230000.003,0,ROMY,,,,0,20180110230000,-1,-1,-1,-1,10,-1,11,-1,-1,340,40,,9999,0,0,2,SCT 43   BKN 60,1,13,1,4,1025,ROMY 102300Z 01011KT 340V040 9999 SCT043 BKN060 13/04 Q1025     RMK 3SC043 6SC060 A3028=,
20180111_000000.002,0,ROMY,,,,0,20180111000000,-1,-1,-1,-1,10,-1,10,-1,-1,-1,-1,,9999,0,0,2,SCT 39   BKN 50,1,13,1,4,1027,ROMY 110000Z 01010KT 9999 SCT039 BKN050 13/04 Q1027 RMK 3CU039     6SC050 A3033 P/RR=,
20180111_010000.002,0,ROMY,,,,0,20180111010000,-1,-1,-1,-1,360,-1,11,-1,-1,-1,-1,,9999,0,0,2,FEW 40   BKN 60,1,14,1,4,1026,ROMY 110100Z 36011KT 9999 FEW040 BKN060 14/04 Q1026 RMK 2CU040     5SC060 A3032=,
20180111_020000.002,0,ROMY,,,,0,20180111020000,-1,-1,-1,-1,360,-1,12,-1,-1,320,30,,9999,0,0,2,SCT 41   BKN 60,1,15,1,4,1026,ROMY 110200Z 36012KT 320V030 9999 SCT041 BKN060 15/04 Q1026     RMK 3SC041 5SC060 A3031=,
20180111_030000.001,0,ROMY,,,,0,20180111030000,-1,-1,-1,-1,360,-1,12,-1,-1,330,40,,9999,0,0,2,SCT 40   BKN 50,1,14,1,4,1025,ROMY 110300Z 36012KT 330V040 9999 SCT040 BKN050 14/04 Q1025     RMK 3SC040 5SC050 A3029=,
20180111_040000.002,0,ROMY,,,,0,20180111040000,-1,-1,-1,-1,360,-1,12,-1,22,-1,-1,,9999,0,0,2,SCT 42   BKN 50,1,14,1,4,1025,ROMY 110400Z 36012G22KT 9999 SCT042 BKN050 14/04 Q1025 RMK     3SC042 7SC050 A3028=,
20180111_050000.002,0,ROMY,,,,0,20180111050000,-1,-1,-1,-1,360,-1,12,-1,-1,320,30,,9999,0,0,2,SCT 42   BKN 50,1,15,1,4,1024,ROMY 110500Z 36012KT 320V030 9999 SCT042 BKN050 15/04 Q1024     RMK 4SC042 6SC050 A3026=,
20180111_060000.002,0,ROMY,,,,0,20180111060000,-1,-1,-1,-1,10,-1,12,-1,-1,-1,-1,,9999,0,0,3,FEW 43   SCT 50   BKN 140,1,14,1,3,1023,ROMY 110600Z 01012KT 9999 FEW043 SCT050 BKN140 14/03 Q1023 RMK     2SC043 4SC050 6AC140 A3023=,
20180111_070000.002,0,ROMY,,,,0,20180111070000,-1,-1,-1,-1,360,-1,12,-1,-1,320,30,,9999,0,0,2,SCT 46   BKN 150,1,14,1,3,1023,ROMY 110700Z 36012KT 320V030 9999 SCT046 BKN150 14/03 Q1023     RMK 4SC046 6AC150 A3023=,
20180111_080000.002,0,ROMY,,,,0,20180111080000,-1,-1,-1,-1,360,-1,14,-1,26,330,40,,9999,0,0,2,SCT 44   BKN 150,1,14,1,4,1024,ROMY 110800Z 36014G26KT 330V040 9999 SCT044 BKN150 14/04 Q1024     RMK 4SC044 7AC150 A3025=,
20180111_090000.002,0,ROMY,,,,0,20180111090000,-1,-1,-1,-1,360,-1,12,-1,-1,-1,-1,,9999,0,0,2,BKN 45   BKN 140,1,13,1,3,1025,ROMY 110900Z 36012KT 9999 BKN045 BKN140 13/03 Q1025 RMK 5SC045     7AC140 A3028=,
20180111_100000.002,0,ROMY,,,,0,20180111100000,-1,-1,-1,-1,360,-1,12,-1,-1,-1,-1,,9999,0,0,2,SCT 44   BKN 140,1,13,1,3,1025,ROMY 111000Z 36012KT 9999 SCT044 BKN140 13/03 Q1025 RMK 4SC044     7AC140 A3028=,
20180111_110000.002,0,ROMY,,,,0,20180111110000,-1,-1,-1,-1,350,-1,12,-1,22,330,30,,9999,0,0,2,BKN 44   BKN 150,1,13,1,2,1026,ROMY 111100Z 35012G22KT 330V030 9999 BKN044 BKN150 13/02 Q1026     RMK 5SC044 7AC150 A3032=,
20180111_213000.001,0,ROMY,,,,0,20180111210000,-1,-1,-1,-1,360,-1,10,-1,-1,-1,-1,,9999,0,0,3,FEW 46   SCT 60   BKN 130,1,13,1,2,1026,ROMY 112130Z 36010KT 9999 FEW046 SCT060 BKN130 13/02 Q1026 RMK     1SC046 3SC060 5AC130 A3031=,
20180111_220000.002,0,ROMY,,,,0,20180111220000,-1,-1,-1,-1,10,-1,11,-1,-1,330,40,,9999,0,0,3,FEW 49   SCT 60   BKN 130,1,13,1,3,1026,ROMY 112200Z 01011KT 330V040 9999 FEW049 SCT060 BKN130 13/03     Q1026 RMK 2SC049 4SC060 5AC130 A3032=,
20180111_230000.002,0,ROMY,,,,0,20180111230000,-1,-1,-1,-1,360,-1,10,-1,-1,-1,-1,,9999,0,0,2,BKN 43   BKN 140,1,13,1,3,1027,ROMY 112300Z 36010KT 9999 BKN043 BKN140 13/03 Q1027 RMK 5SC043     6AC140 A3034=,
20180112_000000.002,0,ROMY,,,,0,20180112000000,-1,-1,-1,-1,360,-1,10,-1,-1,310,30,,9999,0,0,2,SCT 43   BKN 60,1,13,1,3,1027,ROMY 120000Z 36010KT 310V030 9999 SCT043 BKN060 13/03 Q1027     RMK 3SC043 5SC060 A3034=,
20180112_010000.003,0,ROMY,,,,0,20180112010000,-1,-1,-1,-1,350,-1,12,-1,-1,330,30,,9999,0,0,2,FEW 49   BKN 60,1,14,1,3,1028,ROMY 120100Z 35012KT 330V030 9999 FEW049 BKN060 14/03 Q1028     RMK 2SC049 6SC060 A3036=,
20180112_020000.002,0,ROMY,,,,0,20180112020000,-1,-1,-1,-1,350,-1,10,-1,-1,320,30,,9999,0,0,2,FEW 45   BKN 60,1,14,1,3,1027,ROMY 120200Z 35010KT 320V030 9999 FEW045 BKN060 14/03 Q1027     RMK 1SC045 6SC060 A3035=,
20180112_030000.002,0,ROMY,,,,0,20180112030000,-1,-1,-1,-1,360,-1,11,-1,21,330,30,,9999,0,0,2,SCT 44   BKN 60,1,14,1,4,1027,ROMY 120300Z 36011G21KT 330V030 9999 SCT044 BKN060 14/04 Q1027     RMK 3SC044 5SC060 A3033=,
20180112_040000.002,0,ROMY,,,,0,20180112040000,-1,-1,-1,-1,350,-1,11,-1,-1,-1,-1,,9999,0,0,2,FEW 41   BKN 60,1,13,1,4,1026,ROMY 120400Z 35011KT 9999 FEW041 BKN060 13/04 Q1026 RMK 2SC041     6SC060 A3031=,
20180112_050000.003,0,ROMY,,,,0,20180112050000,-1,-1,-1,-1,360,-1,11,-1,-1,-1,-1,,9999,0,0,2,SCT 40   BKN 50,1,14,1,4,1025,ROMY 120500Z 36011KT 9999 SCT040 BKN050 14/04 Q1025 RMK 3SC040     6SC050 A3029=,
20180112_060000.002,0,ROMY,,,,0,20180112060000,-1,-1,-1,-1,350,-1,12,-1,-1,310,30,,9999,0,0,2,FEW 40   BKN 50,1,14,1,4,1025,ROMY 120600Z 35012KT 310V030 9999 FEW040 BKN050 14/04 Q1025     RMK 2SC040 6SC050 A3029=,
20180112_070000.003,0,ROMY,,,,0,20180112070000,-1,-1,-1,-1,350,-1,13,-1,23,320,30,,9999,0,0,2,FEW 40   BKN 50,1,14,1,3,1025,ROMY 120700Z 35013G23KT 320V030 9999 FEW040 BKN050 14/03 Q1025     RMK 1SC040 5SC050 A3028=,
20180112_080000.002,0,ROMY,,,,0,20180112080000,-1,-1,-1,-1,360,-1,12,-1,-1,-1,-1,,9999,0,0,2,SCT 40   BKN 60,1,13,1,4,1025,ROMY 120800Z 36012KT 9999 SCT040 BKN060 13/04 Q1025 RMK 3SC040     5SC060 A3029=,
20180112_090000.002,0,ROMY,,,,0,20180112090000,-1,-1,-1,-1,360,-1,11,-1,-1,320,30,,9999,0,0,2,SCT 38   BKN 50,1,13,1,4,1026,ROMY 120900Z 36011KT 320V030 9999 SCT038 BKN050 13/04 Q1026     RMK 3SC038 6SC050 A3030=,
20180112_100000.002,0,ROMY,,,,0,20180112100000,-1,-1,-1,-1,10,-1,13,-1,-1,-1,-1,,9999,0,0,2,FEW 40   BKN 70,1,12,1,4,1026,ROMY 121000Z 01013KT 9999 FEW040 BKN070 12/04 Q1026 RMK 2SC040     5AC070 A3032=,
20180112_110000.002,0,ROMY,,,,0,20180112110000,-1,-1,-1,-1,360,-1,9,-1,-1,330,30,,9999,0,0,3,FEW 40   SCT 50   BKN 70,1,12,1,3,1027,ROMY 121100Z 36009KT 330V030 9999 FEW040 SCT050 BKN070 12/03     Q1027 RMK 2SC040 4SC050 6AC070 A3035=,
20180112_213000.001,0,ROMY,,,,0,20180112210000,-1,-1,-1,-1,80,-1,5,-1,-1,50,120,,9999,0,1,2,FEW 25   BKN 40,1,10,1,8,1027,ROMY 122130Z 08005KT 050V120 9999 -SHRA FEW025 BKN040 10/08     Q1027 RMK 2CU025 7SC040 A3034=,- RA SH
20180112_220000.002,0,ROMY,,,,0,20180112220000,-1,-1,-1,-1,30,-1,6,-1,17,330,140,,9999,0,1,2,SCT 30   BKN 50,1,11,1,8,1027,ROMY 122200Z 03006G17KT 330V140 9999 -SHRA SCT030 BKN050 11/08     Q1027 RMK 3CU030 5SC050 A3034=,- RA SH
20180112_230000.002,0,ROMY,,,,0,20180112230000,-1,-1,-1,-1,30,-1,7,-1,-1,360,60,,9999,0,1,2,SCT 34   BKN -9999,1,11,1,7,1027,ROMY 122300Z 03007KT 360V060 9999 VCSH SCT034 BKN/// 11/07     Q1027 RMK 3CU034 A3035=,VC SH
20180113_000000.002,0,ROMY,,,,0,20180113000000,-1,-1,-1,-1,50,-1,4,-1,-1,10,90,,9999,0,1,3,SCT 35   SCT 50   BKN -9999,1,12,1,9,1028,ROMY 130000Z 05004KT 010V090 9999 VCSH SCT035 SCT050 BKN///     12/09 Q1028 RMK 3CU035 4SC050 A3037=,VC SH
20180113_010000.003,0,ROMY,,,,0,20180113010000,-1,-1,-1,-1,10,-1,13,-1,-1,-1,-1,,9999,0,0,1,SCT 33,1,14,1,7,1028,ROMY 130100Z 01013KT 9999 SCT033 14/07 Q1028 RMK 3CU033 A3037=,
20180113_020000.002,0,ROMY,,,,0,20180113020000,-1,-1,-1,-1,40,-1,14,-1,-1,-1,-1,,9999,0,1,2,FEW 20   SCT 30,1,13,1,10,1027,ROMY 130200Z 04014KT 9999 VCSH FEW020 SCT030 13/10 Q1027 RMK     1CU020 4CU030 A3035=,VC SH
20180113_030000.002,0,ROMY,,,,0,20180113030000,-1,-1,-1,-1,30,-1,10,-1,-1,-1,-1,,9999,0,0,1,BKN 35,1,15,1,7,1027,ROMY 130300Z 03010KT 9999 BKN035 15/07 Q1027 RMK 5CU035 A3034=,
20180113_040000.002,0,ROMY,,,,0,20180113040000,-1,-1,-1,-1,20,-1,13,-1,-1,340,50,,9999,0,0,1,SCT 34,1,17,1,7,1026,ROMY 130400Z 02013KT 340V050 9999 SCT034 17/07 Q1026 RMK     3CU034 A3031=,
20180113_050000.002,0,ROMY,,,,0,20180113050000,-1,-1,-1,-1,30,-1,12,-1,-1,360,60,,9999,0,0,2,SCT 38   SCT -9999,1,16,1,7,1026,ROMY 130500Z 03012KT 360V060 9999 SCT038 SCT/// 16/07 Q1026     RMK 3CU038 A3030=,
20180113_060000.002,0,ROMY,,,,0,20180113060000,-1,-1,-1,-1,40,-1,11,-1,-1,360,60,,9999,0,0,2,SCT 40   BKN -9999,1,17,1,7,1024,ROMY 130600Z 04011KT 360V060 9999 SCT040 BKN/// 17/07 Q1024     RMK 3CU040 A3026=,
20180113_070000.002,0,ROMY,,,,0,20180113070000,-1,-1,-1,-1,40,-1,15,-1,25,-1,-1,,9999,0,0,2,SCT 38   BKN -9999,1,16,1,7,1024,ROMY 130700Z 04015G25KT 9999 SCT038 BKN/// 16/07 Q1024 RMK     4CU038 A3025=,
20180113_080000.002,0,ROMY,,,,0,20180113080000,-1,-1,-1,-1,40,-1,15,-1,-1,-1,-1,,9999,0,0,1,BKN 35,1,16,1,7,1024,ROMY 130800Z 04015KT 9999 BKN035 16/07 Q1024 RMK 5CU035 A3026=,
20180113_090000.002,0,ROMY,,,,0,20180113090000,-1,-1,-1,-1,40,-1,13,-1,-1,-1,-1,,9999,0,0,1,SCT 35,1,15,1,7,1025,ROMY 130900Z 04013KT 9999 SCT035 15/07 Q1025 RMK 3CU035 A3027=,
20180113_100000.002,0,ROMY,,,,0,20180113100000,-1,-1,-1,-1,80,-1,5,-1,-1,40,110,,9999,0,1,2,SCT 32   BKN 50,1,13,1,10,1025,ROMY 131000Z 08005KT 040V110 9999 -SHRA SCT032 BKN050 13/10     Q1025 RMK 4CU032 6SC050 A3028=,- RA SH
20180113_110000.002,0,ROMY,,,,0,20180113110000,-1,-1,-1,-1,40,-1,13,-1,-1,-1,-1,,9999,0,1,2,FEW 32   SCT 50,1,15,1,10,1025,ROMY 131100Z 04013KT 9999 VCSH FEW032 SCT050 15/10 Q1025 RMK     2CU032 4SC050 A3028=,VC SH
20180113_213000.001,0,ROMY,,,,0,20180113210000,-1,-1,-1,-1,50,-1,13,-1,-1,-1,-1,,9999,0,0,2,FEW 25   BKN 90,1,16,1,11,1023,ROMY 132130Z 05013KT 9999 FEW025 BKN090 16/11 Q1023 RMK 1CU025     5AC090 A3022=,
20180113_220000.002,0,ROMY,,,,0,20180113220000,-1,-1,-1,-1,60,-1,11,-1,-1,-1,-1,,9999,0,1,2,SCT 30   SCT 100,1,16,1,11,1023,ROMY 132200Z 06011KT 9999 VCSH SCT030 SCT100 16/11 Q1023 RMK     3CU030 4AC100 A3022=,VC SH
20180113_230000.002,0,ROMY,,,,0,20180113230000,-1,-1,-1,-1,70,-1,13,-1,-1,-1,-1,,9999,0,1,3,FEW 20   SCT 30   BKN 60,1,16,1,12,1024,ROMY 132300Z 07013KT 9999 -SHRA FEW020 SCT030 BKN060 16/12     Q1024 RMK 1CU020 3CU030 6SC060 A3024=,- RA SH
20180114_000000.003,0,ROMY,,,,0,20180114000000,-1,-1,-1,-1,60,-1,11,-1,-1,-1,-1,,9999,0,1,2,SCT 25   BKN 50,1,17,1,11,1024,ROMY 140000Z 06011KT 9999 -SHRA SCT025 BKN050 17/11 Q1024 RMK     3CU025 6SC050 A3025=,- RA SH
20180114_010000.002,0,ROMY,,,,0,20180114010000,-1,-1,-1,-1,60,-1,14,-1,-1,-1,-1,,9999,0,1,3,FEW 18   SCT 30   BKN 70,1,17,1,14,1024,ROMY 140100Z 06014KT 9999 VCSH FEW018 SCT030 BKN070 17/14     Q1024 RMK 1CU018 3CU030 5AC070 A3025=,VC SH
20180114_020000.002,0,ROMY,,,,0,20180114020000,-1,-1,-1,-1,60,-1,14,-1,-1,-1,-1,,9999,0,0,2,FEW 20   BKN 50,1,18,1,13,1023,ROMY 140200Z 06014KT 9999 FEW020 BKN050 18/13 Q1023 RMK 1CU020     6SC050 A3023=,
20180114_030000.002,0,ROMY,,,,0,20180114030000,-1,-1,-1,-1,100,-1,14,-1,-1,-1,-1,,9999,0,1,3,FEW 30   SCT 40   BKN 60,1,18,1,12,1022,ROMY 140300Z 10014KT 9999 VCSH FEW030 SCT040 BKN060 18/12     Q1022 RMK 2CU030 3SC040 6SC060 A3020=,VC SH
20180114_040000.002,0,ROMY,,,,0,20180114040000,-1,-1,-1,-1,100,-1,12,-1,22,70,130,,9999,0,1,3,FEW 30   SCT 40   BKN 70,1,19,1,13,1021,ROMY 140400Z 10012G22KT 070V130 9999 VCSH FEW030 SCT040 BKN070     19/13 Q1021 RMK 2CU030 4SC040 6AC070 A3018=,VC SH
20180114_050000.002,0,ROMY,,,,0,20180114050000,-1,-1,-1,-1,80,-1,11,-1,-1,-1,-1,,9999,0,1,2,SCT 28   BKN 50,1,19,1,13,1020,ROMY 140500Z 08011KT 9999 VCSH SCT028 BKN050 19/13 Q1020 RMK     3CU028 6SC050 A3014=,VC SH
20180114_060000.003,0,ROMY,,,,0,20180114060000,-1,-1,-1,-1,100,-1,11,-1,-1,-1,-1,,9999,0,1,2,SCT 20   BKN 40,1,19,1,14,1020,ROMY 140600Z 10011KT 9999 VCSH SCT020 BKN040 19/14 Q1020 RMK     4CU020 6SC040 A3013=,VC SH
20180114_070000.002,0,ROMY,,,,0,20180114070000,-1,-1,-1,-1,80,-1,14,-1,-1,-1,-1,,9999,0,1,2,SCT 25   SCT 60,1,18,1,13,1019,ROMY 140700Z 08014KT 9999 VCSH SCT025 SCT060 18/13 Q1019 RMK     3CU025 4SC060 A3012=,VC SH
20180114_080000.002,0,ROMY,,,,0,20180114080000,-1,-1,-1,-1,80,-1,12,-1,-1,-1,-1,,9999,0,0,1,FEW 30,1,19,1,13,1020,ROMY 140800Z 08012KT 9999 FEW030 19/13 Q1020 RMK 2CU030 A3012=,
20180114_090000.002,0,ROMY,,,,0,20180114090000,-1,-1,-1,-1,90,-1,11,-1,-1,-1,-1,,9999,0,0,1,SCT 25,1,18,1,13,1020,ROMY 140900Z 09011KT 9999 SCT025 18/13 Q1020 RMK 3CU025 A3013=,
20180114_100000.002,0,ROMY,,,,0,20180114100000,-1,-1,-1,-1,90,-1,16,-1,-1,-1,-1,,9999,0,0,1,SCT 20,1,17,1,14,1020,ROMY 141000Z 09016KT 9999 SCT020 17/14 Q1020 RMK 3CU020 A3013=,
20180114_110000.002,0,ROMY,,,,0,20180114110000,-1,-1,-1,-1,80,-1,13,-1,-1,-1,-1,,9999,0,0,1,SCT 25,1,18,1,14,1021,ROMY 141100Z 08013KT 9999 SCT025 18/14 Q1021 RMK 3CU025 A3015=,
20180114_213000.001,0,ROMY,,,,0,20180114210000,-1,-1,-1,-1,100,-1,8,-1,-1,-1,-1,,9999,0,0,1,FEW 28,1,17,1,14,1019,ROMY 142130Z 10008KT 9999 FEW028 17/14 Q1019 RMK 1CU028 A3010=,
20180114_220000.002,0,ROMY,,,,0,20180114220000,-1,-1,-1,-1,100,-1,9,-1,-1,-1,-1,,9999,0,0,2,SCT 28   SCT -9999,1,18,1,14,1019,ROMY 142200Z 10009KT 9999 SCT028 SCT/// 18/14 Q1019 RMK 3CU028     A3010=,
20180114_230000.002,0,ROMY,,,,0,20180114230000,-1,-1,-1,-1,100,-1,11,-1,-1,-1,-1,,9999,0,0,2,SCT 28   BKN 150,1,19,1,15,1020,ROMY 142300Z 10011KT 9999 SCT028 BKN150 19/15 Q1020 RMK 3CU028     5AC150 A3012=,
20180115_000000.002,0,ROMY,,,,0,20180115000000,-1,-1,-1,-1,90,-1,12,-1,-1,-1,-1,,9999,0,0,2,SCT 30   BKN 160,1,20,1,15,1020,ROMY 150000Z 09012KT 9999 SCT030 BKN160 20/15 Q1020 RMK 3CU030     6AC160 A3014=,
20180115_010000.002,0,ROMY,,,,0,20180115010000,-1,-1,-1,-1,90,-1,14,-1,-1,-1,-1,,9999,0,0,2,FEW 30   BKN 160,1,21,1,15,1020,ROMY 150100Z 09014KT 9999 FEW030 BKN160 21/15 Q1020 RMK 2CU030     6AC160 A3015=,
20180115_020000.002,0,ROMY,,,,0,20180115020000,-1,-1,-1,-1,80,-1,14,-1,-1,-1,-1,,9999,0,0,2,SCT 30   BKN 160,1,21,1,15,1020,ROMY 150200Z 08014KT 9999 SCT030 BKN160 21/15 Q1020 RMK 4CU030     5AC160 A3014=,
20180115_030000.002,0,ROMY,,,,0,20180115030000,-1,-1,-1,-1,80,-1,15,-1,-1,-1,-1,,9999,0,0,2,SCT 30   BKN 50,1,23,1,15,1019,ROMY 150300Z 08015KT 9999 SCT030 BKN050 23/15 Q1019 RMK 4CU030     5SC050 A3011=,
20180115_040000.002,0,ROMY,,,,0,20180115040000,-1,-1,-1,-1,80,-1,17,-1,-1,-1,-1,,9999,0,0,2,FEW 30   SCT 160,1,23,1,14,1018,ROMY 150400Z 08017KT 9999 FEW030 SCT160 23/14 Q1018 RMK 2CU030     3AC160 A3008=,
20180115_050000.002,0,ROMY,,,,0,20180115050000,-1,-1,-1,-1,90,-1,15,-1,-1,-1,-1,,9999,0,0,1,FEW 30,1,23,1,15,1017,ROMY 150500Z 09015KT 9999 FEW030 23/15 Q1017 RMK 2CU030 A3005=,
20180115_060000.002,0,ROMY,,,,0,20180115060000,-1,-1,-1,-1,90,-1,16,-1,-1,-1,-1,,9999,0,0,1,SCT 30,1,21,1,14,1017,ROMY 150600Z 09016KT 9999 SCT030 21/14 Q1017 RMK 3CU030 A3004=,
20180115_070000.003,0,ROMY,,,,0,20180115070000,-1,-1,-1,-1,80,-1,13,-1,-1,-1,-1,,9999,0,0,2,SCT 30   BKN 80,1,22,1,14,1017,ROMY 150700Z 08013KT 9999 SCT030 BKN080 22/14 Q1017 RMK 3CU030     6AC080 A3005=,
20180115_080000.002,0,ROMY,,,,0,20180115080000,-1,-1,-1,-1,90,-1,13,-1,-1,-1,-1,,9999,0,1,2,SCT 28   BKN 80,1,21,1,15,1017,ROMY 150800Z 09013KT 9999 VCSH SCT028 BKN080 21/15 Q1017 RMK     3CU028 6AC080 A3005=,VC SH
20180115_090000.002,0,ROMY,,,,0,20180115090000,-1,-1,-1,-1,90,-1,12,-1,-1,-1,-1,,9999,0,0,2,FEW 29   SCT 50,1,20,1,15,1017,ROMY 150900Z 09012KT 9999 FEW029 SCT050 20/15 Q1017 RMK 2CU029     3SC050 A3006=,
20180115_100000.002,0,ROMY,,,,0,20180115100000,-1,-1,-1,-1,90,-1,13,-1,-1,-1,-1,,9999,0,0,1,FEW 29,1,20,1,14,1018,ROMY 151000Z 09013KT 9999 FEW029 20/14 Q1018 RMK 1CU029 A3006=,
20180115_110000.002,0,ROMY,,,,0,20180115110000,-1,-1,-1,-1,100,-1,10,-1,-1,-1,-1,,9999,0,0,1,FEW 29,1,20,1,15,1018,ROMY 151100Z 10010KT 9999 FEW029 20/15 Q1018 RMK 1CU029 A3008=,
20180115_213000.001,0,ROMY,,,,0,20180115210000,-1,-1,-1,-1,120,-1,9,-1,-1,-1,-1,,9999,0,0,2,FEW 26   SCT 130,1,20,1,16,1016,ROMY 152130Z 12009KT 9999 FEW026 SCT130 20/16 Q1016 RMK 2CU026     3AC130 A3000=,
20180115_220000.002,0,ROMY,,,,0,20180115220000,-1,-1,-1,-1,120,-1,9,-1,-1,-1,-1,,9999,0,0,2,FEW 26   BKN 140,1,20,1,15,1016,ROMY 152200Z 12009KT 9999 FEW026 BKN140 20/15 Q1016 RMK 1CU026     5AC140 A3001=,
20180115_230000.002,0,ROMY,,,,0,20180115230000,-1,-1,-1,-1,120,-1,9,-1,-1,-1,-1,,9999,0,1,3,FEW 26   SCT 100   BKN 130,1,21,1,16,1016,ROMY 152300Z 12009KT 9999 VCSH FEW026 SCT100 BKN130 21/16     Q1016 RMK 2CU026 4AC100 6AC130 A3002=,VC SH
20180116_000000.002,0,ROMY,,,,0,20180116000000,-1,-1,-1,-1,130,-1,12,-1,-1,-1,-1,,9999,0,1,2,SCT 25   BKN 90,1,21,1,17,1016,ROMY 160000Z 13012KT 9999 VCSH SCT025 BKN090 21/17 Q1016 RMK     3CU025 6AC090 A3003=,VC SH
20180116_010000.002,0,ROMY,,,,0,20180116010000,-1,-1,-1,-1,130,-1,13,-1,-1,-1,-1,,9999,0,0,2,SCT 24   BKN 80,1,23,1,17,1017,ROMY 160100Z 13013KT 9999 SCT024 BKN080 23/17 Q1017 RMK 3CU024     6AC080 A3004=,
20180116_020000.002,0,ROMY,,,,0,20180116020000,-1,-1,-1,-1,130,-1,15,-1,-1,-1,-1,,9999,0,1,2,SCT 26   BKN 80,1,23,1,16,1017,ROMY 160200Z 13015KT 9999 VCSH SCT026 BKN080 23/16 Q1017 RMK     4CU026 6AC080 A3004=,VC SH
20180116_030000.002,0,ROMY,,,,0,20180116030000,-1,-1,-1,-1,130,-1,16,-1,-1,-1,-1,,9999,0,0,2,FEW 26   BKN 80,1,23,1,16,1016,ROMY 160300Z 13016KT 9999 FEW026 BKN080 23/16 Q1016 RMK 2CU026     7AC080 A3001=,
20180116_040000.002,0,ROMY,,,,0,20180116040000,-1,-1,-1,-1,130,-1,18,-1,-1,-1,-1,,9999,0,0,2,SCT 24   BKN 90,1,23,1,17,1015,ROMY 160400Z 13018KT 9999 SCT024 BKN090 23/17 Q1015 RMK 4CU024     6AC090 A2997=,
20180116_050000.002,0,ROMY,,,,0,20180116050000,-1,-1,-1,-1,140,-1,17,-1,-1,-1,-1,,9999,0,0,3,FEW 25   SCT 40   BKN 90,1,24,1,17,1014,ROMY 160500Z 14017KT 9999 FEW025 SCT040 BKN090 24/17 Q1014 RMK     2CU025 3SC040 5AC090 A2995=,
20180116_060000.002,0,ROMY,,,,0,20180116060000,-1,-1,-1,-1,130,-1,16,-1,-1,-1,-1,,9999,0,0,2,SCT 24   BKN 80,1,23,1,17,1013,ROMY 160600Z 13016KT 9999 SCT024 BKN080 23/17 Q1013 RMK 4CU024     6AC080 A2992=,
20180116_070000.002,0,ROMY,,,,0,20180116070000,-1,-1,-1,-1,140,-1,15,-1,-1,-1,-1,,9999,0,1,2,BKN 22   BKN 80,1,22,1,17,1013,ROMY 160700Z 14015KT 9999 VCSH BKN022 BKN080 22/17 Q1013 RMK     5CU022 7AC080 A2992=,VC SH
20180116_080000.002,0,ROMY,,,,0,20180116080000,-1,-1,-1,-1,130,-1,14,-1,-1,-1,-1,,9999,0,1,3,SCT 21   BKN 50   BKN 80,1,22,1,17,1013,ROMY 160800Z 13014KT 9999 -RA SCT021 BKN050 BKN080 22/17 Q1013     RMK 4CU021 5SC050 7AS080 A2992=,- RA
20180116_090000.002,0,ROMY,,,,0,20180116090000,-1,-1,-1,-1,140,-1,14,-1,-1,-1,-1,,9999,0,0,2,SCT 22   BKN 80,1,21,1,17,1013,ROMY 160900Z 14014KT 9999 SCT022 BKN080 21/17 Q1013 RMK 3CU022     6AC080 A2992=,
20180116_100000.002,0,ROMY,,,,0,20180116100000,-1,-1,-1,-1,130,-1,14,-1,-1,-1,-1,,9999,0,0,2,FEW 20   BKN 80,1,21,1,17,1013,ROMY 161000Z 13014KT 9999 FEW020 BKN080 21/17 Q1013 RMK 2CU020     5AC080 A2992=,
20180116_110000.004,0,ROMY,,,,0,20180116110000,-1,-1,-1,-1,140,-1,11,-1,-1,-1,-1,,9999,0,0,2,FEW 20   BKN 70,1,21,1,17,1013,ROMY 161100Z 14011KT 9999 FEW020 BKN070 21/17 Q1013 RMK 2CU020     6AC070 A2993=,
20180116_213000.001,0,ROMY,,,,0,20180116210000,-1,-1,-1,-1,160,-1,12,-1,-1,-1,-1,,9999,0,0,2,FEW 16   BKN 50,1,22,1,20,1012,ROMY 162130Z 16012KT 9999 FEW016 BKN050 22/20 Q1012 RMK 2CU016     7SC050 A2989=,
20180116_220000.002,0,ROMY,,,,0,20180116220000,-1,-1,-1,-1,160,-1,14,-1,-1,-1,-1,,9999,0,0,3,FEW 17   BKN 37   BKN 45,1,22,1,20,1012,ROMY 162200Z 16014KT 9999 FEW017 BKN037 BKN045 22/20 Q1012 RMK     2CU017 5SC037 7SC045 A2990=,
20180116_230000.002,0,ROMY,,,,0,20180116230000,-1,-1,-1,-1,170,-1,8,-1,-1,-1,-1,,3200,0,2,3,FEW 9   BKN 18   BKN 38,1,21,1,21,1013,ROMY 162300Z 17008KT 3200 SHRA BR FEW009 BKN018 BKN038 21/21     Q1013 RMK 1CU009 5CU018 7SC038 A2992=,RA SH; BR
20180117_000000.002,0,ROMY,,,,0,20180117000000,-1,-1,-1,-1,180,-1,9,-1,-1,-1,-1,,6000,0,1,2,SCT 22   BKN 40,1,22,1,21,1014,ROMY 170000Z 18009KT 6000 -SHRA SCT022 BKN040 22/21 Q1014 RMK     3CU022 7SC040 A2994=,- RA SH
20180117_010000.002,0,ROMY,,,,0,20180117010000,-1,-1,-1,-1,320,-1,8,-1,-1,-1,-1,,5000,0,1,2,SCT 5   BKN 10,1,21,1,20,1015,ROMY 170100Z 32008KT 5000 -SHRA SCT005 BKN010 21/20 Q1015 RMK     3ST005 7CU010 A2998=,- RA SH
20180117_020000.004,0,ROMY,,,,0,20180117020000,-1,-1,-1,-1,300,-1,5,-1,-1,270,330,,7000,0,1,3,SCT 3   BKN 5   BKN 15,1,21,1,21,1015,ROMY 170200Z 30005KT 270V330 7000 -SHRA SCT003 BKN005 BKN015     21/21 Q1015 RMK 4ST003 5ST005 7CU015 A3000=,- RA SH
20180117_030000.002,0,ROMY,,,,0,20180117030000,-1,-1,-1,-1,320,-1,9,-1,-1,-1,-1,,9999,0,1,3,SCT 5   SCT 25   BKN 30,1,21,1,20,1015,ROMY 170300Z 32009KT 9999 -SHRA SCT005 SCT025 BKN030 21/20     Q1015 RMK 3ST005 4CU025 6CU030 A2998=,- RA SH
20180117_040000.003,0,ROMY,,,,0,20180117040000,-1,-1,-1,-1,320,-1,7,-1,-1,300,360,,9999,0,1,2,FEW 5   BKN 21,1,22,1,20,1014,ROMY 170400Z 32007KT 300V360 9999 VCSH FEW005 BKN021 22/20     Q1014 RMK 1ST005 7CU021 A2996=,VC SH
20180117_050000.003,0,ROMY,,,,0,20180117050000,-1,-1,-1,-1,330,-1,5,-1,-1,300,10,,9999,0,1,3,SCT 5   BKN 10   BKN 25,1,22,1,20,1014,ROMY 170500Z 33005KT 300V010 9999 -SHRA SCT005 BKN010 BKN025     22/20 Q1014 RMK 3ST005 5CU010 6CU025 A2995=,- RA SH
20180117_060000.002,0,ROMY,,,,0,20180117060000,-1,-1,-1,-1,40,-1,8,-1,-1,10,70,,9999,0,1,3,SCT 5   BKN 10   BKN 15,1,21,1,20,1014,ROMY 170600Z 04008KT 010V070 9999 -SHRA SCT005 BKN010 BKN015     21/20 Q1014 RMK 4ST005 5CU010 6CU015 A2995=,- RA SH
20180117_070000.002,0,ROMY,,,,0,20180117070000,-1,-1,-1,-1,50,-1,11,-1,-1,-1,-1,,9999,0,0,3,SCT 6   SCT 32   BKN 50,1,21,1,20,1014,ROMY 170700Z 05011KT 9999 SCT006 SCT032 BKN050 21/20 Q1014 RMK     3ST006 4CU032 6SC050 A2995=,
20180117_080000.002,0,ROMY,,,,0,20180117080000,-1,-1,-1,-1,60,-1,10,-1,-1,-1,-1,,9999,0,1,2,SCT 6   BKN 50,1,21,1,20,1014,ROMY 170800Z 06010KT 9999 -RA SCT006 BKN050 21/20 Q1014 RMK     3ST006 7SC050 A2996=,- RA
20180117_090000.003,0,ROMY,,,,0,20180117090000,-1,-1,-1,-1,40,-1,7,-1,-1,-1,-1,,9999,0,1,3,FEW 7   BKN 10   BKN 45,1,21,1,20,1015,ROMY 170900Z 04007KT 9999 VCSH FEW007 BKN010 BKN045 21/20     Q1015 RMK 2ST007 5CU010 7SC045 A2998=,VC SH
20180117_100000.002,0,ROMY,,,,0,20180117100000,-1,-1,-1,-1,40,-1,9,-1,-1,-1,-1,,9999,0,0,3,FEW 7   BKN 10   BKN 50,1,21,1,20,1015,ROMY 171000Z 04009KT 9999 FEW007 BKN010 BKN050 21/20 Q1015 RMK     2ST007 5CU010 7SC050 A2999=,
20180117_110000.003,0,ROMY,,,,0,20180117110000,-1,-1,-1,-1,40,-1,11,-1,-1,-1,-1,,9999,0,0,2,BKN 10   BKN 80,1,21,1,19,1015,ROMY 171100Z 04011KT 9999 BKN010 BKN080 21/19 Q1015 RMK 5CU010     7AC080 A2999=,
20180117_213000.001,0,ROMY,,,,0,20180117210000,-1,-1,-1,-1,80,-1,9,-1,-1,-1,-1,,9999,0,1,2,SCT 5   BKN 12,1,21,1,21,1016,ROMY 172130Z 08009KT 9999 VCSH SCT005 BKN012 21/21 Q1016 RMK     3ST005 5CU012 A3001=,VC SH
20180117_220000.003,0,ROMY,,,,0,20180117220000,-1,-1,-1,-1,80,-1,8,-1,-1,-1,-1,,8000,0,1,2,SCT 5   BKN 12,1,21,1,21,1016,ROMY 172200Z 08008KT 8000 -RA SCT005 BKN012 21/21 Q1016 RMK     4ST005 6CU012 A3002=,- RA
20180117_230000.002,0,ROMY,,,,0,20180117230000,-1,-1,-1,-1,90,-1,5,-1,-1,-1,-1,,9000,0,1,3,SCT 4   BKN 6   BKN 12,1,21,1,21,1017,ROMY 172300Z 09005KT 9000 -RA SCT004 BKN006 BKN012 21/21 Q1017     RMK 3ST004 5ST006 6CU012 A3004=,- RA
20180118_000000.002,0,ROMY,,,,0,20180118000000,-1,-1,-1,-1,120,-1,6,-1,-1,80,170,,3000,0,1,2,FEW 5   BKN 12,1,21,1,21,1018,ROMY 180000Z 12006KT 080V170 3000 SHRA FEW005 BKN012 21/21     Q1018 RMK 2ST005 7CU012 A3006=,RA SH
20180118_010000.002,0,ROMY,,,,0,20180118010000,-1,-1,-1,-1,60,-1,4,-1,-1,360,80,,9999,0,1,3,FEW 6   SCT 10   BKN 23,1,21,1,21,1018,ROMY 180100Z 06004KT 360V080 9999 -SHRA FEW006 SCT010 BKN023     21/21 Q1018 RMK 2ST006 3CU010 6CU023 A3008 4000NE=,- RA SH
20180118_020000.002,0,ROMY,,,,0,20180118020000,-1,-1,-1,-1,50,-1,5,-1,-1,30,90,,9999,0,1,3,FEW 2   SCT 6   BKN 11,1,22,1,22,1018,ROMY 180200Z 05005KT 030V090 9999 -SHRA FEW002 SCT006 BKN011     22/22 Q1018 RMK 2ST002 3ST006 5CU011 A3008 4000NE=,- RA SH
20180118_030000.003,0,ROMY,,,,0,20180118030000,-1,-1,-1,-1,50,-1,8,-1,-1,-1,-1,,9999,0,1,3,FEW 4   BKN 15   BKN 70,1,22,1,21,1017,ROMY 180300Z 05008KT 9999 VCSH FEW004 BKN015 BKN070 22/21     Q1017 RMK 2ST004 5CU015 6AC070 A3005=,VC SH
20180118_040000.002,0,ROMY,,,,0,20180118040000,-1,-1,-1,-1,70,-1,7,-1,-1,-1,-1,,9999,0,0,2,FEW 6   BKN 17,1,22,1,21,1016,ROMY 180400Z 07007KT 9999 FEW006 BKN017 22/21 Q1016 RMK 2ST006     6CU017 A3003=,
20180118_050000.002,0,ROMY,,,,0,20180118050000,-1,-1,-1,-1,100,-1,3,-1,-1,40,170,,8000,0,2,3,SCT 3   BKN 6   BKN 15,1,22,1,21,1016,ROMY 180500Z 10003KT 040V170 8000 -SHRA BR SCT003 BKN006     BKN015 22/21 Q1016 RMK 3ST003 5ST006 6CU015 A3001           4000N-E=,- RA SH; BR
20180118_060000.002,0,ROMY,,,,0,20180118060000,-1,-1,-1,-1,60,-1,7,-1,-1,-1,-1,,9999,0,1,3,SCT 4   BKN 8   BKN 35,1,22,1,21,1015,ROMY 180600Z 06007KT 9999 -SHRA SCT004 BKN008 BKN035 22/21     Q1015 RMK 3ST004 5ST008 6SC035 A3000=,- RA SH
20180118_070000.002,0,ROMY,,,,0,20180118070000,-1,-1,-1,-1,999,-1,2,-1,-1,-1,-1,,9999,0,2,3,SCT 4   BKN 12   BKN 35,1,22,1,21,1015,ROMY 180700Z VRB02KT 9999 -SHRA BR SCT004 BKN012 BKN035 22/21     Q1015 RMK 3ST004 5CU012 7SC035 A3000 4500N-E=,- RA SH; BR
20180118_080000.002,0,ROMY,,,,0,20180118080000,-1,-1,-1,-1,130,-1,4,-1,-1,-1,-1,,9999,0,2,3,SCT 5   SCT 14   BKN 35,1,22,1,21,1016,ROMY 180800Z 13004KT 9999 -SHRA BR SCT005 SCT014 BKN035 22/21     Q1016 RMK 3ST005 4CU014 6SC035 A3001 4000N-E=,- RA SH; BR
20180118_090000.002,0,ROMY,,,,0,20180118090000,-1,-1,-1,-1,60,-1,4,-1,-1,-1,-1,,9999,0,1,3,FEW 10   SCT 25   BKN 45,1,21,1,20,1016,ROMY 180900Z 06004KT 9999 VCSH FEW010 SCT025 BKN045 21/20     Q1016 RMK 1CU010 3CU025 6SC045 A3003=,VC SH
20180118_100000.002,0,ROMY,,,,0,20180118100000,-1,-1,-1,-1,60,-1,4,-1,-1,-1,-1,,9999,0,0,3,FEW 10   SCT 45   BKN 80,1,21,1,21,1017,ROMY 181000Z 06004KT 9999 FEW010 SCT045 BKN080 21/21 Q1017 RMK     1CU010 4SC045 6AC080 A3004=,
20180118_110000.002,0,ROMY,,,,0,20180118110000,-1,-1,-1,-1,60,-1,6,-1,-1,-1,-1,,9999,0,0,2,FEW 5   BKN 80,1,21,1,21,1017,ROMY 181100Z 06006KT 9999 FEW005 BKN080 21/21 Q1017 RMK 2ST005     7AC080 A3005=,
20180118_213000.001,0,ROMY,,,,0,20180118210000,-1,-1,-1,-1,100,-1,5,-1,-1,-1,-1,,9999,0,1,3,FEW 8   BKN 30   BKN 70,1,21,1,21,1016,ROMY 182130Z 10005KT 9999 VCSH FEW008 BKN030 BKN070 21/21     Q1016 RMK 1ST008 5CU030 7AC070 A3003=,VC SH
20180118_220000.002,0,ROMY,,,,0,20180118220000,-1,-1,-1,-1,130,-1,3,-1,-1,-1,-1,,9999,0,1,3,FEW 8   SCT 18   BKN 70,1,21,1,21,1017,ROMY 182200Z 13003KT 9999 VCSH FEW008 SCT018 BKN070 21/21     Q1017 RMK 1ST008 4CU018 7AC070 A3003=,VC SH
20180118_230000.003,0,ROMY,,,,0,20180118230000,-1,-1,-1,-1,0,-1,0,-1,-1,-1,-1,,9999,0,1,3,FEW 8   SCT 50   BKN 80,1,21,1,21,1017,ROMY 182300Z 00000KT 9999 VCSH FEW008 SCT050 BKN080 21/21     Q1017 RMK 2CU008 4SC050 7AC080 A3005=,VC SH
20180119_000000.002,0,ROMY,,,,0,20180119000000,-1,-1,-1,-1,999,-1,1,-1,-1,-1,-1,,9999,0,1,3,FEW 8   SCT 40   BKN 70,1,22,1,21,1018,ROMY 190000Z VRB01KT 9999 -SHRA FEW008 SCT040 BKN070 22/21     Q1018 RMK 2CU008 3SC040 7AC070 A3006=,- RA SH
20180119_010000.003,0,ROMY,,,,0,20180119010000,-1,-1,-1,-1,210,-1,3,-1,-1,-1,-1,,9000,0,1,3,FEW 4   SCT 12   BKN 35,1,22,1,21,1018,ROMY 190100Z 21003KT 9000 -SHRA FEW004 SCT012 BKN035 22/21     Q1018 RMK 2ST004 4CU012 7SC035 A3008=,- RA SH
20180119_020000.002,0,ROMY,,,,0,20180119020000,-1,-1,-1,-1,999,-1,2,-1,-1,-1,-1,,4000,1,2,3,SCT 5   BKN 12   BKN 25,1,22,1,22,1018,ROMY 190200Z VRB02KT 4000 R22/1400VP1800U SHRA BR SCT005     BKN012 BKN025 22/22 Q1018 RMK 3ST005 5CU012 7CU025 A3007           9999SE-S=,RA SH; BR
20180119_030000.002,0,ROMY,,,,0,20180119030000,-1,-1,-1,-1,320,-1,4,-1,-1,270,10,,9999,0,1,3,SCT 4   BKN 10   BKN 25,1,22,1,21,1017,ROMY 190300Z 32004KT 270V010 9999 -SHRA SCT004 BKN010 BKN025     22/21 Q1017 RMK 3ST004 5CU010 6CU025 A3005=,- RA SH
20180119_040000.002,0,ROMY,,,,0,20180119040000,-1,-1,-1,-1,290,-1,3,-1,-1,250,320,,9999,0,1,3,SCT 4   BKN 7   BKN 18,1,22,1,21,1016,ROMY 190400Z 29003KT 250V320 9999 -SHRA SCT004 BKN007 BKN018     22/21 Q1016 RMK 3ST004 5ST007 6CU018 A3003=,- RA SH
20180119_050000.003,0,ROMY,,,,0,20180119050000,-1,-1,-1,-1,340,-1,5,-1,-1,-1,-1,,4000,0,2,3,SCT 3   BKN 7   BKN 16,1,21,1,21,1016,ROMY 190500Z 34005KT 4000 -SHRA BR SCT003 BKN007 BKN016 21/21     Q1016 RMK 4ST003 5ST007 6CU016 A3001=,- RA SH; BR
20180119_060000.002,0,ROMY,,,,0,20180119060000,-1,-1,-1,-1,10,-1,6,-1,-1,-1,-1,,2500,0,2,3,SCT 3   BKN 6   BKN 13,1,21,1,20,1015,ROMY 190600Z 01006KT 2500 -SHRA BR SCT003 BKN006 BKN013 21/20     Q1015 RMK 4ST003 5ST006 6CU013 A3000=,- RA SH; BR
20180119_070000.002,0,ROMY,,,,0,20180119070000,-1,-1,-1,-1,40,-1,10,-1,-1,-1,-1,,2000,0,2,3,SCT 2   BKN 6   BKN 10,1,20,1,20,1015,ROMY 190700Z 04010KT 2000 SHRA BR SCT002 BKN006 BKN010 20/20     Q1015 RMK 3ST002 5ST006 6CU010 A3000=,RA SH; BR
20180119_080000.002,0,ROMY,,,,0,20180119080000,-1,-1,-1,-1,40,-1,11,-1,-1,-1,-1,,2500,0,2,3,FEW 3   BKN 7   BKN 10,1,20,1,20,1015,ROMY 190800Z 04011KT 2500 -SHRA BR FEW003 BKN007 BKN010 20/20     Q1015 RMK 2ST003 5ST007 6CU010 A3000=,- RA SH; BR
20180119_090000.003,0,ROMY,,,,0,20180119090000,-1,-1,-1,-1,40,-1,10,-1,-1,-1,-1,,5000,0,2,3,SCT 4   BKN 8   BKN 13,1,20,1,19,1016,ROMY 190900Z 04010KT 5000 -SHRA BR SCT004 BKN008 BKN013 20/19     Q1016 RMK 3ST004 5ST008 6CU013 A3001=,- RA SH; BR
20180119_100000.002,0,ROMY,,,,0,20180119100000,-1,-1,-1,-1,40,-1,13,-1,-1,-1,-1,,6000,0,1,3,FEW 8   BKN 10   BKN 15,1,20,1,19,1016,ROMY 191000Z 04013KT 6000 -SHRA FEW008 BKN010 BKN015 20/19     Q1016 RMK 2ST008 5CU010 6CU015 A3003=,- RA SH
20180119_110000.002,0,ROMY,,,,0,20180119110000,-1,-1,-1,-1,30,-1,15,-1,-1,-1,-1,,6000,0,1,3,FEW 5   SCT 7   BKN 10,1,19,1,19,1017,ROMY 191100Z 03015KT 6000 -SHRA FEW005 SCT007 BKN010 19/19     Q1017 RMK 2ST005 4ST007 6CU010 A3004=,- RA SH
20180119_213000.001,0,ROMY,,,,0,20180119210000,-1,-1,-1,-1,50,-1,11,-1,-1,-1,-1,,9999,0,0,3,SCT 12   SCT 70   BKN 120,1,20,1,18,1016,ROMY 192130Z 05011KT 9999 SCT012 SCT070 BKN120 20/18 Q1016 RMK     3CU012 4AC070 7AC120 A3002=,
20180119_220000.002,0,ROMY,,,,0,20180119220000,-1,-1,-1,-1,60,-1,11,-1,-1,-1,-1,,9999,0,1,3,SCT 12   BKN 20   BKN 70,1,20,1,18,1016,ROMY 192200Z 06011KT 9999 -SHRA SCT012 BKN020 BKN070 20/18     Q1016 RMK 3CU012 5CU020 6AC070 A3003=,- RA SH
20180119_230000.002,0,ROMY,,,,0,20180119230000,-1,-1,-1,-1,50,-1,10,-1,-1,-1,-1,,9999,0,1,2,SCT 10   BKN 110,1,19,1,18,1017,ROMY 192300Z 05010KT 9999 -SHRA SCT010 BKN110 19/18 Q1017 RMK     3CU010 6AC110 A3003=,- RA SH
20180120_000000.002,0,ROMY,,,,0,20180120000000,-1,-1,-1,-1,50,-1,8,-1,-1,-1,-1,,9999,0,1,3,SCT 10   BKN 22   BKN 70,1,20,1,18,1017,ROMY 200000Z 05008KT 9999 -SHRA SCT010 BKN022 BKN070 20/18     Q1017 RMK 3CU010 5CU022 6AC070 A3006=,- RA SH
20180120_010000.002,0,ROMY,,,,0,20180120010000,-1,-1,-1,-1,50,-1,9,-1,-1,-1,-1,,9999,0,0,2,FEW 13   BKN 60,1,21,1,18,1018,ROMY 200100Z 05009KT 9999 FEW013 BKN060 21/18 Q1018 RMK 2CU013     7SC060 A3007=,
20180120_020000.003,0,ROMY,,,,0,20180120020000,-1,-1,-1,-1,50,-1,10,-1,-1,-1,-1,,9999,0,0,2,SCT 14   BKN 60,1,22,1,18,1018,ROMY 200200Z 05010KT 9999 SCT014 BKN060 22/18 Q1018 RMK 3CU014     6SC060 A3007=,
20180120_030000.002,0,ROMY,,,,0,20180120030000,-1,-1,-1,-1,50,-1,12,-1,-1,10,70,,9999,0,0,3,FEW 15   SCT 40   BKN 70,1,21,1,16,1017,ROMY 200300Z 05012KT 010V070 9999 FEW015 SCT040 BKN070 21/16     Q1017 RMK 1CU015 4SC040 5AC070 A3005=,
20180120_040000.002,0,ROMY,,,,0,20180120040000,-1,-1,-1,-1,70,-1,13,-1,-1,-1,-1,,9999,0,0,2,FEW 16   BKN 70,1,22,1,17,1016,ROMY 200400Z 07013KT 9999 FEW016 BKN070 22/17 Q1016 RMK 1CU016     5AC070 A3000=,
20180120_050000.002,0,ROMY,,,,0,20180120050000,-1,-1,-1,-1,50,-1,13,-1,-1,-1,-1,,9999,0,0,2,FEW 19   BKN 70,1,21,1,16,1015,ROMY 200500Z 05013KT 9999 FEW019 BKN070 21/16 Q1015 RMK 1CU019     6AC070 A2998=,
20180120_060000.002,0,ROMY,,,,0,20180120060000,-1,-1,-1,-1,70,-1,12,-1,-1,-1,-1,,9999,0,0,2,FEW 16   SCT 70,1,22,1,16,1014,ROMY 200600Z 07012KT 9999 FEW016 SCT070 22/16 Q1014 RMK 1CU016     3AC070 A2997=,
20180120_070000.002,0,ROMY,,,,0,20180120070000,-1,-1,-1,-1,60,-1,10,-1,-1,-1,-1,,9999,0,0,1,SCT 17,1,22,1,17,1014,ROMY 200700Z 06010KT 9999 SCT017 22/17 Q1014 RMK 3CU017 A2996=,
20180120_080000.002,0,ROMY,,,,0,20180120080000,-1,-1,-1,-1,60,-1,9,-1,-1,-1,-1,,9999,0,0,1,BKN 13,1,21,1,17,1014,ROMY 200800Z 06009KT 9999 BKN013 21/17 Q1014 RMK 5CU013 A2997=,
20180120_090000.002,0,ROMY,,,,0,20180120090000,-1,-1,-1,-1,50,-1,5,-1,-1,-1,-1,,9999,0,0,1,SCT 16,1,20,1,17,1015,ROMY 200900Z 05005KT 9999 SCT016 20/17 Q1015 RMK 4CU016 A2999=,
20180120_100000.002,0,ROMY,,,,0,20180120100000,-1,-1,-1,-1,50,-1,7,-1,-1,-1,-1,,9999,0,0,2,SCT 13   BKN 28,1,20,1,18,1016,ROMY 201000Z 05007KT 9999 SCT013 BKN028 20/18 Q1016 RMK 4CU013     6CU028 A3000=,
20180120_110000.002,0,ROMY,,,,0,20180120110000,-1,-1,-1,-1,50,-1,7,-1,-1,-1,-1,,9999,0,0,2,SCT 13   BKN 35,1,20,1,18,1016,ROMY 201100Z 05007KT 9999 SCT013 BKN035 20/18 Q1016 RMK 4CU013     6SC035 A3002=,
20180120_213000.001,0,ROMY,,,,0,20180120210000,-1,-1,-1,-1,50,-1,8,-1,-1,-1,-1,,9999,0,0,2,FEW 14   BKN -9999,1,20,1,18,1016,ROMY 202130Z 05008KT 9999 FEW014 BKN/// 20/18 Q1016 RMK 1CU014     A3000=,
20180120_220000.002,0,ROMY,,,,0,20180120220000,-1,-1,-1,-1,50,-1,8,-1,-1,-1,-1,,9999,0,0,2,FEW 14   BKN -9999,1,20,1,18,1016,ROMY 202200Z 05008KT 9999 FEW014 BKN/// 20/18 Q1016 RMK 1CU014     A3001=,
20180120_230000.002,0,ROMY,,,,0,20180120230000,-1,-1,-1,-1,70,-1,9,-1,-1,-1,-1,,9999,0,0,2,FEW 16   SCT -9999,1,20,1,18,1016,ROMY 202300Z 07009KT 9999 FEW016 SCT/// 20/18 Q1016 RMK 2CU016     A3002=,
20180121_000000.002,0,ROMY,,,,0,20180121000000,-1,-1,-1,-1,80,-1,11,-1,-1,-1,-1,,9999,0,0,3,FEW 15   SCT 90   BKN -9999,1,22,1,18,1016,ROMY 210000Z 08011KT 9999 FEW015 SCT090 BKN/// 22/18 Q1016 RMK     1CU015 3AC090 A3003=,
20180121_010000.002,0,ROMY,,,,0,20180121010000,-1,-1,-1,-1,60,-1,13,-1,-1,-1,-1,,9999,0,0,2,FEW 15   SCT -9999,1,22,1,18,1016,ROMY 210100Z 06013KT 9999 FEW015 SCT/// 22/18 Q1016 RMK 2CU015     A3003=,
20180121_020000.002,0,ROMY,,,,0,20180121020000,-1,-1,-1,-1,60,-1,12,-1,-1,-1,-1,,9999,0,0,2,FEW 15   SCT 90,1,23,1,18,1016,ROMY 210200Z 06012KT 9999 FEW015 SCT090 23/18 Q1016 RMK 2CU015     4AC090 A3003=,
20180121_030000.002,0,ROMY,,,,0,20180121030000,-1,-1,-1,-1,70,-1,11,-1,-1,-1,-1,,9999,0,0,3,SCT 17   SCT 70   BKN 90,1,23,1,18,1016,ROMY 210300Z 07011KT 9999 SCT017 SCT070 BKN090 23/18 Q1016 RMK     3CU017 4AC070 5AC090 A3000=,
20180121_040000.003,0,ROMY,,,,0,20180121040000,-1,-1,-1,-1,70,-1,12,-1,-1,-1,-1,,9999,0,0,2,SCT 18   BKN 80,1,22,1,18,1015,ROMY 210400Z 07012KT 9999 SCT018 BKN080 22/18 Q1015 RMK 4CU018     5AC080 A2997=,
20180121_050000.002,0,ROMY,,,,0,20180121050000,-1,-1,-1,-1,60,-1,12,-1,-1,-1,-1,,9999,0,0,3,FEW 17   SCT 32   BKN 80,1,23,1,18,1014,ROMY 210500Z 06012KT 9999 FEW017 SCT032 BKN080 23/18 Q1014 RMK     1CU017 3CU032 6AC080 A2995=,
20180121_060000.002,0,ROMY,,,,0,20180121060000,-1,-1,-1,-1,70,-1,11,-1,-1,-1,-1,,9999,0,0,2,FEW 18   BKN 70,1,23,1,18,1013,ROMY 210600Z 07011KT 9999 FEW018 BKN070 23/18 Q1013 RMK 1CU018     6AC070 A2994=,
20180121_070000.002,0,ROMY,,,,0,20180121070000,-1,-1,-1,-1,70,-1,11,-1,-1,-1,-1,,9999,0,0,2,FEW 17   BKN 70,1,22,1,18,1013,ROMY 210700Z 07011KT 9999 FEW017 BKN070 22/18 Q1013 RMK 1CU017     6AC070 A2993=,
20180121_080000.002,0,ROMY,,,,0,20180121080000,-1,-1,-1,-1,70,-1,10,-1,-1,-1,-1,,9999,0,0,2,FEW 17   BKN 70,1,22,1,18,1013,ROMY 210800Z 07010KT 9999 FEW017 BKN070 22/18 Q1013 RMK 1CU017     7AC070 A2993=,
20180121_090000.002,0,ROMY,,,,0,20180121090000,-1,-1,-1,-1,90,-1,9,-1,-1,-1,-1,,9999,0,0,2,FEW 20   BKN 70,1,21,1,18,1013,ROMY 210900Z 09009KT 9999 FEW020 BKN070 21/18 Q1013 RMK 2CU020     7AC070 A2993=,
20180121_100000.002,0,ROMY,,,,0,20180121100000,-1,-1,-1,-1,100,-1,9,-1,-1,-1,-1,,9999,0,0,2,FEW 20   BKN 70,1,21,1,18,1013,ROMY 211000Z 10009KT 9999 FEW020 BKN070 21/18 Q1013 RMK 1CU020     7AC070 A2993=,
20180121_110000.002,0,ROMY,,,,0,20180121110000,-1,-1,-1,-1,100,-1,6,-1,-1,-1,-1,,9999,0,0,2,FEW 18   BKN 60,1,21,1,18,1014,ROMY 211100Z 10006KT 9999 FEW018 BKN060 21/18 Q1014 RMK 1CU018     7SC060 A2994=,
20180121_213000.001,0,ROMY,,,,0,20180121210000,-1,-1,-1,-1,160,-1,4,-1,-1,-1,-1,,9999,0,0,3,FEW 15   SCT 45   BKN 80,1,21,1,20,1011,ROMY 212130Z 16004KT 9999 FEW015 SCT045 BKN080 21/20 Q1011 RMK     1CU015 3SC045 5AC080 A2986=,
20180121_220000.002,0,ROMY,,,,0,20180121220000,-1,-1,-1,-1,130,-1,3,-1,-1,-1,-1,,9999,0,0,3,FEW 15   SCT 45   BKN 130,1,21,1,20,1011,ROMY 212200Z 13003KT 9999 FEW015 SCT045 BKN130 21/20 Q1011 RMK     1CU015 3SC045 5AC130 A2986=,
20180121_230000.002,0,ROMY,,,,0,20180121230000,-1,-1,-1,-1,140,-1,4,-1,-1,80,170,,9999,0,1,3,FEW 15   SCT 40   BKN 70,1,22,1,21,1010,ROMY 212300Z 14004KT 080V170 9999 VCSH FEW015 SCT040 BKN070     22/21 Q1010 RMK 1CU015 3SC040 5AC070 A2985=,VC SH
20180122_000000.002,0,ROMY,,,,0,20180122000000,-1,-1,-1,-1,999,-1,2,-1,-1,-1,-1,,1500,1,2,3,FEW 5   SCT 7   BKN 10,1,21,1,21,1012,ROMY 220000Z VRB02KT 1500 R22///// +SHRA BR FEW005 SCT007     BKN010 21/21 Q1012 RMK 1ST005 3ST007 6CU010 A2988 RI++=,+ RA SH; BR
20180122_010000.002,0,ROMY,,,,0,20180122010000,-1,-1,-1,-1,340,-1,10,-1,22,-1,-1,,9999,0,1,3,FEW 5   SCT 10   BKN 15,1,21,1,20,1012,ROMY 220100Z 34010G22KT 9999 -SHRA FEW005 SCT010 BKN015 21/20     Q1012 RMK 1ST005 3CU010 6CU015 A2991=,- RA SH
20180122_020000.002,0,ROMY,,,,0,20180122020000,-1,-1,-1,-1,350,-1,16,-1,26,-1,-1,,9999,0,1,3,FEW 8   BKN 15   BKN 25,1,21,1,19,1013,ROMY 220200Z 35016G26KT 9999 -SHRA FEW008 BKN015 BKN025 21/19     Q1013 RMK 1CU008 5CU015 6CU025 A2992=,- RA SH
20180122_030000.002,0,ROMY,,,,0,20180122030000,-1,-1,-1,-1,350,-1,15,-1,25,-1,-1,,9999,0,1,3,FEW 11   BKN 15   BKN 20,1,20,1,17,1013,ROMY 220300Z 35015G25KT 9999 VCSH FEW011 BKN015 BKN020 20/17     Q1013 RMK 1CU011 5CU015 6CU020 A2992=,VC SH
20180122_040000.002,0,ROMY,,,,0,20180122040000,-1,-1,-1,-1,360,-1,13,-1,-1,-1,-1,,9999,0,0,3,SCT 15   BKN 25   BKN 80,1,20,1,16,1012,ROMY 220400Z 36013KT 9999 SCT015 BKN025 BKN080 20/16 Q1012 RMK     4CU015 6CU025 7AS080 A2990=,
20180122_050000.002,0,ROMY,,,,0,20180122050000,-1,-1,-1,-1,10,-1,12,-1,-1,-1,-1,,9999,0,0,3,FEW 17   SCT 23   BKN 28,1,20,1,16,1011,ROMY 220500Z 01012KT 9999 FEW017 SCT023 BKN028 20/16 Q1011 RMK     2CU017 4CU023 7CU028 A2988=,
20180122_060000.003,0,ROMY,,,,0,20180122060000,-1,-1,-1,-1,20,-1,8,-1,-1,-1,-1,,9999,0,0,2,SCT 18   BKN 90,1,19,1,16,1012,ROMY 220600Z 02008KT 9999 SCT018 BKN090 19/16 Q1012 RMK 3CU018     7AS090 A2989=,
20180122_070000.002,0,ROMY,,,,0,20180122070000,-1,-1,-1,-1,20,-1,12,-1,-1,-1,-1,,9999,0,0,3,FEW 20   SCT 30   BKN 100,1,20,1,15,1011,ROMY 220700Z 02012KT 9999 FEW020 SCT030 BKN100 20/15 Q1011 RMK     2CU020 4CU030 7AS100 A2988=,
20180122_080000.003,0,ROMY,,,,0,20180122080000,-1,-1,-1,-1,30,-1,14,-1,-1,-1,-1,,9999,0,0,2,FEW 22   BKN 100,1,19,1,14,1012,ROMY 220800Z 03014KT 9999 FEW022 BKN100 19/14 Q1012 RMK 2CU022     7AS100 A2989=,
20180122_090000.002,0,ROMY,,,,0,20180122090000,-1,-1,-1,-1,30,-1,13,-1,-1,-1,-1,,9999,0,1,3,FEW 25   BKN 30   BKN 100,1,18,1,15,1013,ROMY 220900Z 03013KT 9999 -SHRA FEW025 BKN030 BKN100 18/15     Q1013 RMK 1CU025 5CU030 7AS100 A2992=,- RA SH
20180122_100000.002,0,ROMY,,,,0,20180122100000,-1,-1,-1,-1,30,-1,10,-1,-1,-1,-1,,9999,0,1,2,SCT 30   BKN 90,1,17,1,14,1013,ROMY 221000Z 03010KT 9999 -SHRA SCT030 BKN090 17/14 Q1013 RMK     4CU030 7AS090 A2994=,- RA SH
20180122_110000.003,0,ROMY,,,,0,20180122110000,-1,-1,-1,-1,30,-1,12,-1,-1,360,70,,9999,0,1,2,SCT 26   BKN 110,1,18,1,14,1015,ROMY 221100Z 03012KT 360V070 9999 VCSH SCT026 BKN110 18/14     Q1015 RMK 4CU026 6AS110 A2997=,VC SH
20180122_213000.001,0,ROMY,,,,0,20180122210000,-1,-1,-1,-1,40,-1,10,-1,-1,-1,-1,,9999,0,0,2,FEW 30   BKN 48,1,19,1,14,1015,ROMY 222130Z 04010KT 9999 FEW030 BKN048 19/14 Q1015 RMK 1CU030     6SC048 A2999=,
20180122_220000.002,0,ROMY,,,,0,20180122220000,-1,-1,-1,-1,50,-1,10,-1,-1,-1,-1,,9999,0,0,2,SCT 30   BKN 47,1,19,1,13,1015,ROMY 222200Z 05010KT 9999 SCT030 BKN047 19/13 Q1015 RMK 3CU030     6SC047 A2999=,
20180122_230000.003,0,ROMY,,,,0,20180122230000,-1,-1,-1,-1,50,-1,7,-1,-1,-1,-1,,9999,0,0,3,SCT 30   BKN 47   BKN 90,1,19,1,13,1016,ROMY 222300Z 05007KT 9999 SCT030 BKN047 BKN090 19/13 Q1016 RMK     3CU030 6SC047 7AC090 A3001=,
20180123_000000.002,0,ROMY,,,,0,20180123000000,-1,-1,-1,-1,50,-1,7,-1,-1,-1,-1,,9999,0,0,2,SCT 30   BKN 46,1,19,1,14,1016,ROMY 230000Z 05007KT 9999 SCT030 BKN046 19/14 Q1016 RMK 4CU030     7SC046 A3002=,
20180123_010000.002,0,ROMY,,,,0,20180123010000,-1,-1,-1,-1,50,-1,9,-1,-1,-1,-1,,9999,0,0,2,FEW 26   BKN 42,1,20,1,15,1016,ROMY 230100Z 05009KT 9999 FEW026 BKN042 20/15 Q1016 RMK 2CU026     7SC042 A3002=,
20180123_020000.002,0,ROMY,,,,0,20180123020000,-1,-1,-1,-1,60,-1,11,-1,-1,-1,-1,,9999,0,0,2,FEW 27   BKN 45,1,21,1,14,1016,ROMY 230200Z 06011KT 9999 FEW027 BKN045 21/14 Q1016 RMK 2CU027     7SC045 A3001=,
20180123_030000.003,0,ROMY,,,,0,20180123030000,-1,-1,-1,-1,60,-1,12,-1,-1,-1,-1,,9999,0,0,2,FEW 26   SCT -9999,1,22,1,15,1015,ROMY 230300Z 06012KT 9999 FEW026 SCT/// 22/15 Q1015 RMK 2CU026     A2998=,
20180123_040000.003,0,ROMY,,,,0,20180123040000,-1,-1,-1,-1,60,-1,11,-1,-1,-1,-1,,9999,0,0,2,FEW 24   BKN 110,1,22,1,15,1014,ROMY 230400Z 06011KT 9999 FEW024 BKN110 22/15 Q1014 RMK 2CU024     5AC110 A2996=,
20180123_050000.002,0,ROMY,,,,0,20180123050000,-1,-1,-1,-1,60,-1,10,-1,-1,-1,-1,,9999,0,0,2,FEW 25   BKN 40,1,22,1,15,1014,ROMY 230500Z 06010KT 9999 FEW025 BKN040 22/15 Q1014 RMK 2CU025     6SC040 A2994=,
20180123_060000.003,0,ROMY,,,,0,20180123060000,-1,-1,-1,-1,40,-1,11,-1,-1,-1,-1,,9999,0,0,3,FEW 23   SCT 40   BKN 110,1,22,1,16,1014,ROMY 230600Z 04011KT 9999 FEW023 SCT040 BKN110 22/16 Q1014 RMK     2CU023 4SC040 5AC110 A2994=,
20180123_070000.002,0,ROMY,,,,0,20180123070000,-1,-1,-1,-1,50,-1,10,-1,-1,-1,-1,,9999,0,0,2,FEW 23   SCT 100,1,21,1,15,1014,ROMY 230700Z 05010KT 9999 FEW023 SCT100 21/15 Q1014 RMK 2CU023     4AC100 A2995=,
20180123_080000.002,0,ROMY,,,,0,20180123080000,-1,-1,-1,-1,60,-1,11,-1,-1,-1,-1,,9999,0,0,2,FEW 25   SCT 100,1,21,1,16,1014,ROMY 230800Z 06011KT 9999 FEW025 SCT100 21/16 Q1014 RMK 1CU025     3AC100 A2995=,
20180123_090000.002,0,ROMY,,,,0,20180123090000,-1,-1,-1,-1,50,-1,9,-1,-1,-1,-1,,9999,0,0,2,FEW 25   SCT 100,1,19,1,15,1015,ROMY 230900Z 05009KT 9999 FEW025 SCT100 19/15 Q1015 RMK 1CU025     3AC100 A2997=,
20180123_100000.002,0,ROMY,,,,0,20180123100000,-1,-1,-1,-1,50,-1,9,-1,-1,-1,-1,,9999,0,0,2,FEW 23   SCT 100,1,19,1,15,1015,ROMY 231000Z 05009KT 9999 FEW023 SCT100 19/15 Q1015 RMK 1CU023     3AC100 A2999=,
20180123_110000.002,0,ROMY,,,,0,20180123110000,-1,-1,-1,-1,50,-1,9,-1,-1,-1,-1,,9999,0,0,2,SCT 20   BKN -9999,1,19,1,15,1016,ROMY 231100Z 05009KT 9999 SCT020 BKN/// 19/15 Q1016 RMK 3CU020     A3001=,
20180123_213000.001,0,ROMY,,,,0,20180123210000,-1,-1,-1,-1,50,-1,13,-1,-1,-1,-1,,9999,0,0,3,FEW 23   SCT 60   BKN 100,1,19,1,15,1016,ROMY 232130Z 05013KT 9999 FEW023 SCT060 BKN100 19/15 Q1016 RMK     1CU023 3SC060 7AC100 A3002=,
20180123_220000.002,0,ROMY,,,,0,20180123220000,-1,-1,-1,-1,40,-1,14,-1,-1,-1,-1,,9999,0,0,3,FEW 22   SCT 30   BKN 40,1,19,1,15,1017,ROMY 232200Z 04014KT 9999 FEW022 SCT030 BKN040 19/15 Q1017 RMK     1CU022 4CU030 6SC040 A3003=,
20180123_230000.002,0,ROMY,,,,0,20180123230000,-1,-1,-1,-1,30,-1,15,-1,-1,-1,-1,,5000,0,1,3,FEW 11   SCT 20   BKN 30,1,18,1,16,1017,ROMY 232300Z 03015KT 5000 -SHRA FEW011 SCT020 BKN030 18/16     Q1017 RMK 2CU011 4CU020 7CU030 A3005=,- RA SH
20180124_000000.002,0,ROMY,,,,0,20180124000000,-1,-1,-1,-1,30,-1,18,-1,-1,-1,-1,,6000,0,1,3,SCT 11   BKN 20   BKN 25,1,17,1,15,1018,ROMY 240000Z 03018KT 6000 -SHRA SCT011 BKN020 BKN025 17/15     Q1018 RMK 4CU011 5CU020 7CU025 A3007=,- RA SH
20180124_010000.003,0,ROMY,,,,0,20180124010000,-1,-1,-1,-1,40,-1,16,-1,-1,-1,-1,,9000,0,1,2,SCT 18   BKN 23,1,18,1,14,1018,ROMY 240100Z 04016KT 9000 VCSH SCT018 BKN023 18/14 Q1018 RMK     4CU018 7CU023 A3008=,VC SH
20180124_020000.002,0,ROMY,,,,0,20180124020000,-1,-1,-1,-1,40,-1,17,-1,-1,-1,-1,,9999,0,0,3,SCT 20   BKN 26   BKN 32,1,19,1,14,1018,ROMY 240200Z 04017KT 9999 SCT020 BKN026 BKN032 19/14 Q1018 RMK     3CU020 5CU026 7CU032 A3008=,
20180124_030000.002,0,ROMY,,,,0,20180124030000,-1,-1,-1,-1,40,-1,19,-1,-1,-1,-1,,9999,0,0,2,SCT 20   BKN 31,1,20,1,14,1017,ROMY 240300Z 04019KT 9999 SCT020 BKN031 20/14 Q1017 RMK 3CU020     6CU031 A3004=,
20180124_040000.002,0,ROMY,,,,0,20180124040000,-1,-1,-1,-1,40,-1,16,-1,-1,-1,-1,,9999,0,0,2,SCT 20   BKN 31,1,19,1,14,1016,ROMY 240400Z 04016KT 9999 SCT020 BKN031 19/14 Q1016 RMK 4CU020     6CU031 A3002=,
20180124_050000.002,0,ROMY,,,,0,20180124050000,-1,-1,-1,-1,50,-1,17,-1,-1,-1,-1,,9999,0,0,2,SCT 20   BKN 32,1,19,1,14,1016,ROMY 240500Z 05017KT 9999 SCT020 BKN032 19/14 Q1016 RMK 3CU020     6CU032 A3000=,
20180124_060000.002,0,ROMY,,,,0,20180124060000,-1,-1,-1,-1,30,-1,16,-1,-1,-1,-1,,9999,0,0,2,SCT 22   BKN 40,1,19,1,14,1015,ROMY 240600Z 03016KT 9999 SCT022 BKN040 19/14 Q1015 RMK 4CU022     6SC040 A2999=,
20180124_070000.002,0,ROMY,,,,0,20180124070000,-1,-1,-1,-1,40,-1,16,-1,-1,-1,-1,,9999,0,0,2,SCT 23   SCT 70,1,19,1,13,1015,ROMY 240700Z 04016KT 9999 SCT023 SCT070 19/13 Q1015 RMK 3CU023     4AC070 A2999=,
20180124_080000.002,0,ROMY,,,,0,20180124080000,-1,-1,-1,-1,40,-1,16,-1,-1,-1,-1,,9999,0,0,2,FEW 24   SCT 35,1,18,1,13,1016,ROMY 240800Z 04016KT 9999 FEW024 SCT035 18/13 Q1016 RMK 2CU024     4CU035 A3001=,
20180124_090000.003,0,ROMY,,,,0,20180124090000,-1,-1,-1,-1,40,-1,15,-1,-1,-1,-1,,9999,0,0,2,SCT 22   BKN 32,1,18,1,13,1016,ROMY 240900Z 04015KT 9999 SCT022 BKN032 18/13 Q1016 RMK 3CU022     5CU032 A3002=,
20180124_100000.002,0,ROMY,,,,0,20180124100000,-1,-1,-1,-1,40,-1,17,-1,28,-1,-1,,9999,0,0,3,FEW 22   SCT 32   BKN 100,1,18,1,12,1017,ROMY 241000Z 04017G28KT 9999 FEW022 SCT032 BKN100 18/12 Q1017     RMK 2CU022 4CU032 5AC100 A3003=,
20180124_110000.002,0,ROMY,,,,0,20180124110000,-1,-1,-1,-1,40,-1,18,-1,-1,-1,-1,,9999,0,0,2,FEW 24   BKN 100,1,17,1,12,1017,ROMY 241100Z 04018KT 9999 FEW024 BKN100 17/12 Q1017 RMK 2CU024     5AC100 A3004=,
20180124_213000.001,0,ROMY,,,,0,20180124210000,-1,-1,-1,-1,50,-1,14,-1,-1,-1,-1,,9999,0,0,2,FEW 28   BKN 50,1,18,1,11,1017,ROMY 242130Z 05014KT 9999 FEW028 BKN050 18/11 Q1017 RMK 2CU028     7SC050 A3005=,
20180124_220000.002,0,ROMY,,,,0,20180124220000,-1,-1,-1,-1,50,-1,14,-1,-1,-1,-1,,9999,0,0,2,FEW 29   BKN 50,1,18,1,11,1017,ROMY 242200Z 05014KT 9999 FEW029 BKN050 18/11 Q1017 RMK 2CU029     7SC050 A3005=,
20180124_230000.002,0,ROMY,,,,0,20180124230000,-1,-1,-1,-1,50,-1,15,-1,-1,-1,-1,,9999,0,0,3,FEW 28   SCT 45   BKN 110,1,18,1,13,1017,ROMY 242300Z 05015KT 9999 FEW028 SCT045 BKN110 18/13 Q1017 RMK     1CU028 4SC045 6AC110 A3006=,
20180125_000000.002,0,ROMY,,,,0,20180125000000,-1,-1,-1,-1,50,-1,15,-1,-1,-1,-1,,9999,0,0,3,FEW 28   SCT 35   BKN 48,1,18,1,12,1018,ROMY 250000Z 05015KT 9999 FEW028 SCT035 BKN048 18/12 Q1018 RMK     2CU028 3CU035 5SC048 A3008=,
20180125_010000.002,0,ROMY,,,,0,20180125010000,-1,-1,-1,-1,50,-1,14,-1,-1,-1,-1,,9999,0,0,2,SCT 30   BKN 80,1,19,1,12,1019,ROMY 250100Z 05014KT 9999 SCT030 BKN080 19/12 Q1019 RMK 3CU030     6AC080 A3009=,
20180125_020000.003,0,ROMY,,,,0,20180125020000,-1,-1,-1,-1,60,-1,16,-1,-1,-1,-1,,9999,0,0,3,FEW 29   SCT 50   BKN 100,1,20,1,13,1019,ROMY 250200Z 06016KT 9999 FEW029 SCT050 BKN100 20/13 Q1019 RMK     2CU029 4SC050 5AC100 A3009=,
20180125_030000.002,0,ROMY,,,,0,20180125030000,-1,-1,-1,-1,60,-1,16,-1,-1,-1,-1,,9999,0,0,2,FEW 28   SCT 110,1,20,1,12,1018,ROMY 250300Z 06016KT 9999 FEW028 SCT110 20/12 Q1018 RMK 2CU028     4AC110 A3007=,
20180125_040000.002,0,ROMY,,,,0,20180125040000,-1,-1,-1,-1,70,-1,16,-1,-1,-1,-1,,9999,0,0,1,SCT 28,1,20,1,13,1017,ROMY 250400Z 07016KT 9999 SCT028 20/13 Q1017 RMK 3CU028 A3003=,
20180125_050000.002,0,ROMY,,,,0,20180125050000,-1,-1,-1,-1,70,-1,15,-1,-1,-1,-1,,9999,0,0,1,SCT 27,1,20,1,12,1015,ROMY 250500Z 07015KT 9999 SCT027 20/12 Q1015 RMK 3CU027 A2999=,
20180125_060000.002,0,ROMY,,,,0,20180125060000,-1,-1,-1,-1,70,-1,15,-1,-1,-1,-1,,9999,0,0,1,SCT 27,1,21,1,13,1015,ROMY 250600Z 07015KT 9999 SCT027 21/13 Q1015 RMK 3CU027 A2998=,
20180125_070000.002,0,ROMY,,,,0,20180125070000,-1,-1,-1,-1,60,-1,13,-1,-1,-1,-1,,9999,0,0,1,SCT 28,1,20,1,13,1015,ROMY 250700Z 06013KT 9999 SCT028 20/13 Q1015 RMK 3CU028 A2998=,
20180125_080000.002,0,ROMY,,,,0,20180125080000,-1,-1,-1,-1,60,-1,11,-1,-1,-1,-1,,9999,0,0,2,FEW 27   SCT 70,1,20,1,14,1015,ROMY 250800Z 06011KT 9999 FEW027 SCT070 20/14 Q1015 RMK 2CU027     4AC070 A2999=,
20180125_090000.002,0,ROMY,,,,0,20180125090000,-1,-1,-1,-1,60,-1,11,-1,-1,-1,-1,,9999,0,0,1,FEW 28,1,19,1,13,1016,ROMY 250900Z 06011KT 9999 FEW028 19/13 Q1016 RMK 2CU028 A3000=,
20180125_100000.003,0,ROMY,,,,0,20180125100000,-1,-1,-1,-1,80,-1,10,-1,-1,-1,-1,,9999,0,0,2,FEW 27   BKN 100,1,19,1,13,1016,ROMY 251000Z 08010KT 9999 FEW027 BKN100 19/13 Q1016 RMK 1CU027     5AC100 A3001=,
20180125_110000.003,0,ROMY,,,,0,20180125110000,-1,-1,-1,-1,80,-1,9,-1,-1,-1,-1,,9999,0,0,2,FEW 27   BKN 48,1,19,1,13,1017,ROMY 251100Z 08009KT 9999 FEW027 BKN048 19/13 Q1017 RMK 1CU027     7SC048 A3003=,
20180125_213000.001,0,ROMY,,,,0,20180125210000,-1,-1,-1,-1,50,-1,11,-1,-1,-1,-1,,8000,0,1,3,SCT 7   BKN 10   BKN 40,1,18,1,17,1016,ROMY 252130Z 05011KT 8000 -SHRA SCT007 BKN010 BKN040 18/17     Q1016 RMK 3ST007 5CU010 7SC040 A3002=,- RA SH
20180125_220000.002,0,ROMY,,,,0,20180125220000,-1,-1,-1,-1,50,-1,13,-1,-1,-1,-1,,9999,0,1,3,FEW 8   BKN 12   BKN 38,1,17,1,16,1017,ROMY 252200Z 05013KT 9999 -SHRA FEW008 BKN012 BKN038 17/16     Q1017 RMK 2ST008 5CU012 7SC038 A3003=,- RA SH
20180125_230000.002,0,ROMY,,,,0,20180125230000,-1,-1,-1,-1,50,-1,11,-1,-1,-1,-1,,7000,0,1,2,SCT 12   BKN 20,1,18,1,16,1017,ROMY 252300Z 05011KT 7000 -SHRA SCT012 BKN020 18/16 Q1017 RMK     4CU012 7CU020 A3005=,- RA SH
20180126_000000.002,0,ROMY,,,,0,20180126000000,-1,-1,-1,-1,50,-1,9,-1,-1,-1,-1,,4000,0,2,3,SCT 10   BKN 25   BKN 35,1,17,1,16,1018,ROMY 260000Z 05009KT 4000 -SHRA BR SCT010 BKN025 BKN035 17/16     Q1018 RMK 3CU010 5CU025 7SC035 A3008 9000SE=,- RA SH; BR
20180126_010000.002,0,ROMY,,,,0,20180126010000,-1,-1,-1,-1,40,-1,12,-1,-1,-1,-1,,9999,0,1,2,SCT 13   BKN 25,1,18,1,16,1019,ROMY 260100Z 04012KT 9999 VCSH SCT013 BKN025 18/16 Q1019 RMK     3CU013 7CU025 A3010=,VC SH
20180126_020000.002,0,ROMY,,,,0,20180126020000,-1,-1,-1,-1,30,-1,13,-1,23,-1,-1,,9999,0,1,2,SCT 10   BKN 22,1,18,1,16,1019,ROMY 260200Z 03013G23KT 9999 -SHRA SCT010 BKN022 18/16 Q1019     RMK 4CU010 7CU022 A3011=,- RA SH
20180126_030000.002,0,ROMY,,,,0,20180126030000,-1,-1,-1,-1,20,-1,16,-1,-1,-1,-1,,8000,0,1,3,FEW 7   BKN 10   BKN 20,1,17,1,15,1019,ROMY 260300Z 02016KT 8000 -SHRA FEW007 BKN010 BKN020 17/15     Q1019 RMK 2ST007 5CU010 7CU020 A3010=,- RA SH
20180126_040000.002,0,ROMY,,,,0,20180126040000,-1,-1,-1,-1,30,-1,15,-1,27,-1,-1,,9999,0,1,3,FEW 10   SCT 15   BKN 25,1,17,1,14,1018,ROMY 260400Z 03015G27KT 9999 VCSH FEW010 SCT015 BKN025 17/14     Q1018 RMK 2CU010 4CU015 7CU025 A3008=,VC SH
20180126_050000.002,0,ROMY,,,,0,20180126050000,-1,-1,-1,-1,40,-1,18,-1,28,-1,-1,,8000,0,1,2,BKN 14   BKN 25,1,16,1,14,1018,ROMY 260500Z 04018G28KT 8000 -SHRA BKN014 BKN025 16/14 Q1018     RMK 5CU014 7CU025 A3007=,- RA SH
20180126_060000.002,0,ROMY,,,,0,20180126060000,-1,-1,-1,-1,20,-1,16,-1,-1,-1,-1,,9999,0,1,2,SCT 18   BKN 26,1,17,1,14,1018,ROMY 260600Z 02016KT 9999 -SHRA SCT018 BKN026 17/14 Q1018 RMK     4CU018 7CU026 A3006=,- RA SH
20180126_070000.002,0,ROMY,,,,0,20180126070000,-1,-1,-1,-1,20,-1,17,-1,27,-1,-1,,9999,0,1,2,SCT 16   BKN 28,1,17,1,13,1018,ROMY 260700Z 02017G27KT 9999 VCSH SCT016 BKN028 17/13 Q1018     RMK 4CU016 7CU028 A3006=,VC SH
20180126_080000.003,0,ROMY,,,,0,20180126080000,-1,-1,-1,-1,30,-1,15,-1,26,-1,-1,,9999,0,1,3,SCT 18   BKN 28   BKN 40,1,16,1,13,1018,ROMY 260800Z 03015G26KT 9999 VCSH SCT018 BKN028 BKN040 16/13     Q1018 RMK 3CU018 5CU028 6SC040 A3007=,VC SH
20180126_090000.002,0,ROMY,,,,0,20180126090000,-1,-1,-1,-1,30,-1,15,-1,-1,-1,-1,,9999,0,1,2,SCT 16   BKN 26,1,16,1,12,1018,ROMY 260900Z 03015KT 9999 VCSH SCT016 BKN026 16/12 Q1018 RMK     4CU016 7CU026 A3009=,VC SH
20180126_100000.002,0,ROMY,,,,0,20180126100000,-1,-1,-1,-1,20,-1,15,-1,28,-1,-1,,9999,0,1,2,BKN 15   BKN 30,1,15,1,12,1019,ROMY 261000Z 02015G28KT 9999 VCSH BKN015 BKN030 15/12 Q1019     RMK 5CU015 7CU030 A3011=,VC SH
20180126_110000.002,0,ROMY,,,,0,20180126110000,-1,-1,-1,-1,30,-1,18,-1,-1,-1,-1,,9999,0,1,2,BKN 15   BKN 26,1,15,1,13,1020,ROMY 261100Z 03018KT 9999 -SHRA BKN015 BKN026 15/13 Q1020 RMK     5CU015 7CU026 A3013=,- RA SH
20180126_213000.001,0,ROMY,,,,0,20180126210000,-1,-1,-1,-1,40,-1,15,-1,-1,-1,-1,,9999,0,0,2,SCT 23   BKN 50,1,16,1,12,1020,ROMY 262130Z 04015KT 9999 SCT023 BKN050 16/12 Q1020 RMK 3CU023     5SC050 A3012=,
20180126_220000.002,0,ROMY,,,,0,20180126220000,-1,-1,-1,-1,40,-1,16,-1,-1,-1,-1,,9999,0,0,2,SCT 25   BKN 50,1,16,1,11,1020,ROMY 262200Z 04016KT 9999 SCT025 BKN050 16/11 Q1020 RMK 3CU025     6SC050 A3012=,
20180126_230000.002,0,ROMY,,,,0,20180126230000,-1,-1,-1,-1,40,-1,14,-1,-1,-1,-1,,9999,0,0,2,SCT 24   BKN 45,1,16,1,11,1020,ROMY 262300Z 04014KT 9999 SCT024 BKN045 16/11 Q1020 RMK 4CU024     7SC045 A3015=,
20180127_000000.002,0,ROMY,,,,0,20180127000000,-1,-1,-1,-1,50,-1,12,-1,-1,-1,-1,,9999,0,0,2,SCT 24   BKN 40,1,17,1,11,1021,ROMY 270000Z 05012KT 9999 SCT024 BKN040 17/11 Q1021 RMK 4CU024     7SC040 A3016=,
20180127_010000.002,0,ROMY,,,,0,20180127010000,-1,-1,-1,-1,50,-1,15,-1,-1,-1,-1,,9999,0,0,2,BKN 27   BKN 45,1,17,1,11,1021,ROMY 270100Z 05015KT 9999 BKN027 BKN045 17/11 Q1021 RMK 5CU027     7SC045 A3016=,
20180127_020000.002,0,ROMY,,,,0,20180127020000,-1,-1,-1,-1,60,-1,12,-1,-1,-1,-1,,9999,0,0,2,BKN 26   BKN 40,1,17,1,11,1021,ROMY 270200Z 06012KT 9999 BKN026 BKN040 17/11 Q1021 RMK 5CU026     7SC040 A3017=,
20180127_030000.002,0,ROMY,,,,0,20180127030000,-1,-1,-1,-1,60,-1,14,-1,-1,-1,-1,,9999,0,0,2,SCT 28   BKN 50,1,19,1,12,1020,ROMY 270300Z 06014KT 9999 SCT028 BKN050 19/12 Q1020 RMK 4CU028     7SC050 A3014=,
20180127_040000.002,0,ROMY,,,,0,20180127040000,-1,-1,-1,-1,50,-1,13,-1,-1,-1,-1,,9999,0,0,2,SCT 26   BKN 50,1,19,1,12,1019,ROMY 270400Z 05013KT 9999 SCT026 BKN050 19/12 Q1019 RMK 3CU026     5SC050 A3011=,
20180127_050000.002,0,ROMY,,,,0,20180127050000,-1,-1,-1,-1,50,-1,13,-1,-1,-1,-1,,9999,0,0,2,FEW 27   BKN 47,1,19,1,12,1018,ROMY 270500Z 05013KT 9999 FEW027 BKN047 19/12 Q1018 RMK 1CU027     5SC047 A3008=,
20180127_060000.002,0,ROMY,,,,0,20180127060000,-1,-1,-1,-1,70,-1,13,-1,-1,-1,-1,,9999,0,0,2,FEW 29   BKN 48,1,19,1,11,1017,ROMY 270600Z 07013KT 9999 FEW029 BKN048 19/11 Q1017 RMK 1CU029     6SC048 A3006=,
20180127_070000.002,0,ROMY,,,,0,20180127070000,-1,-1,-1,-1,70,-1,11,-1,-1,-1,-1,,9999,0,0,2,FEW 29   SCT 46,1,19,1,11,1017,ROMY 270700Z 07011KT 9999 FEW029 SCT046 19/11 Q1017 RMK 1CU029     4SC046 A3004=,
20180127_080000.002,0,ROMY,,,,0,20180127080000,-1,-1,-1,-1,60,-1,9,-1,-1,-1,-1,,9999,0,0,2,FEW 29   BKN 46,1,18,1,11,1017,ROMY 270800Z 06009KT 9999 FEW029 BKN046 18/11 Q1017 RMK 1CU029     7SC046 A3004=,
20180127_090000.003,0,ROMY,,,,0,20180127090000,-1,-1,-1,-1,60,-1,10,-1,-1,-1,-1,,9999,0,0,1,BKN 45,1,17,1,11,1017,ROMY 270900Z 06010KT 9999 BKN045 17/11 Q1017 RMK 7SC045 A3005=,
20180127_100000.002,0,ROMY,,,,0,20180127100000,-1,-1,-1,-1,70,-1,9,-1,-1,-1,-1,,9999,0,0,1,BKN 46,1,17,1,12,1018,ROMY 271000Z 07009KT 9999 BKN046 17/12 Q1018 RMK 7SC046 A3006=,
20180127_110000.002,0,ROMY,,,,0,20180127110000,-1,-1,-1,-1,80,-1,9,-1,-1,-1,-1,,9999,0,0,1,BKN 45,1,17,1,12,1018,ROMY 271100Z 08009KT 9999 BKN045 17/12 Q1018 RMK 7SC045 A3007=,
20180127_213000.001,0,ROMY,,,,0,20180127210000,-1,-1,-1,-1,130,-1,8,-1,-1,-1,-1,,9999,0,0,2,SCT 26   BKN 38,1,19,1,15,1014,ROMY 272130Z 13008KT 9999 SCT026 BKN038 19/15 Q1014 RMK 3CU026     7SC038 A2995=,
20180127_220000.002,0,ROMY,,,,0,20180127220000,-1,-1,-1,-1,130,-1,9,-1,-1,-1,-1,,9999,0,0,2,FEW 26   BKN 45,1,19,1,16,1013,ROMY 272200Z 13009KT 9999 FEW026 BKN045 19/16 Q1013 RMK 2CU026     5SC045 A2993=,
20180127_230000.002,0,ROMY,,,,0,20180127230000,-1,-1,-1,-1,140,-1,10,-1,-1,-1,-1,,9999,0,0,3,FEW 26   SCT 50   BKN 90,1,20,1,16,1013,ROMY 272300Z 14010KT 9999 FEW026 SCT050 BKN090 20/16 Q1013 RMK     1CU026 4SC050 5AC090 A2993=,
20180128_000000.003,0,ROMY,,,,0,20180128000000,-1,-1,-1,-1,140,-1,14,-1,-1,-1,-1,,9999,0,0,2,FEW 23   SCT 90,1,21,1,16,1013,ROMY 280000Z 14014KT 9999 FEW023 SCT090 21/16 Q1013 RMK 2CU023     3AC090 A2994=,
20180128_010000.002,0,ROMY,,,,0,20180128010000,-1,-1,-1,-1,150,-1,14,-1,-1,-1,-1,,9999,0,0,3,FEW 24   SCT 36   BKN 90,1,22,1,16,1014,ROMY 280100Z 15014KT 9999 FEW024 SCT036 BKN090 22/16 Q1014 RMK     2CU024 4SC036 6AC090 A2995=,
20180128_020000.002,0,ROMY,,,,0,20180128020000,-1,-1,-1,-1,150,-1,13,-1,-1,-1,-1,,9999,0,0,3,FEW 24   SCT 50   BKN 90,1,23,1,16,1014,ROMY 280200Z 15013KT 9999 FEW024 SCT050 BKN090 23/16 Q1014 RMK     2CU024 4SC050 6AC090 A2995=,
20180128_030000.002,0,ROMY,,,,0,20180128030000,-1,-1,-1,-1,160,-1,17,-1,-1,-1,-1,,9999,0,0,3,FEW 24   SCT 50   BKN 100,1,23,1,16,1013,ROMY 280300Z 16017KT 9999 FEW024 SCT050 BKN100 23/16 Q1013 RMK     1CU024 3SC050 5AC100 A2992=,
20180128_040000.002,0,ROMY,,,,0,20180128040000,-1,-1,-1,-1,170,-1,20,-1,-1,-1,-1,,9999,0,0,2,FEW 22   SCT 100,1,23,1,16,1011,ROMY 280400Z 17020KT 9999 FEW022 SCT100 23/16 Q1011 RMK 2CU022     3AC100 A2987=,
20180128_050000.002,0,ROMY,,,,0,20180128050000,-1,-1,-1,-1,190,-1,20,-1,-1,-1,-1,,9999,0,0,2,SCT 24   SCT 100,1,23,1,17,1011,ROMY 280500Z 19020KT 9999 SCT024 SCT100 23/17 Q1011 RMK 3CU024     4AC100 A2986=,
20180128_060000.002,0,ROMY,,,,0,20180128060000,-1,-1,-1,-1,180,-1,18,-1,-1,-1,-1,,9999,0,0,2,SCT 24   BKN 47,1,23,1,16,1010,ROMY 280600Z 18018KT 9999 SCT024 BKN047 23/16 Q1010 RMK 4CU024     7SC047 A2984=,
20180128_070000.003,0,ROMY,,,,0,20180128070000,-1,-1,-1,-1,180,-1,20,-1,-1,-1,-1,,9999,0,0,2,SCT 24   BKN 42,1,22,1,17,1009,ROMY 280700Z 18020KT 9999 SCT024 BKN042 22/17 Q1009 RMK 3CU024     7SC042 A2982=,
20180128_080000.002,0,ROMY,,,,0,20180128080000,-1,-1,-1,-1,180,-1,18,-1,-1,-1,-1,,6000,0,1,2,SCT 22   BKN 28,1,22,1,18,1009,ROMY 280800Z 18018KT 6000 -SHRA SCT022 BKN028 22/18 Q1009 RMK     4CU022 7CU028 A2982=,- RA SH
20180128_090000.002,0,ROMY,,,,0,20180128090000,-1,-1,-1,-1,190,-1,15,-1,-1,-1,-1,,2000,0,2,2,FEW 16   BKN 20,1,20,1,19,1010,ROMY 280900Z 19015KT 2000 SHRA BR FEW016 BKN020 20/19 Q1010     RMK 1CU016 7CU020 A2984=,RA SH; BR
20180128_100000.002,0,ROMY,,,,0,20180128100000,-1,-1,-1,-1,340,-1,11,-1,-1,-1,-1,,3000,0,2,3,FEW 3   BKN 10   FEW 15 TCU,1,19,1,18,1012,ROMY 281000Z 34011KT 3000 SHRA BR FEW003 BKN010 FEW015TCU     19/18 Q1012 RMK 2ST003 6CU010 1TCU015 A2990 TCU 5KM NE           MOV E=,RA SH; BR
20180128_110000.002,0,ROMY,,,,0,20180128110000,-1,-1,-1,-1,360,-1,11,-1,-1,-1,-1,,8000,0,1,3,FEW 7   SCT 11   BKN 15,1,19,1,17,1013,ROMY 281100Z 36011KT 8000 -SHRA FEW007 SCT011 BKN015 19/17     Q1013 RMK 2ST007 3CU011 6CU015 A2991=,- RA SH
20180128_213000.001,0,ROMY,,,,0,20180128210000,-1,-1,-1,-1,10,-1,19,-1,30,-1,-1,,5000,0,1,3,FEW 16   BKN 20   BKN 25,1,15,1,14,1015,ROMY 282130Z 01019G30KT 5000 -SHRA FEW016 BKN020 BKN025 15/14     Q1015 RMK 2CU016 5CU020 7CU025 A3000=,- RA SH
20180128_220000.003,0,ROMY,,,,0,20180128220000,-1,-1,-1,-1,10,-1,17,-1,27,-1,-1,,9999,0,1,3,FEW 13   SCT 23   BKN 30,1,15,1,13,1016,ROMY 282200Z 01017G27KT 9999 -SHRA FEW013 SCT023 BKN030 15/13     Q1016 RMK 1CU013 4CU023 7CU030 A3002=,- RA SH
20180128_230000.002,0,ROMY,,,,0,20180128230000,-1,-1,-1,-1,10,-1,16,-1,-1,-1,-1,,9999,0,1,2,FEW 20   BKN 25,1,16,1,13,1017,ROMY 282300Z 01016KT 9999 VCSH FEW020 BKN025 16/13 Q1017 RMK     2CU020 7CU025 A3004=,VC SH
20180129_000000.003,0,ROMY,,,,0,20180129000000,-1,-1,-1,-1,10,-1,14,-1,24,-1,-1,,9999,0,1,2,BKN 22   BKN 27,1,16,1,12,1017,ROMY 290000Z 01014G24KT 9999 -SHRA BKN022 BKN027 16/12 Q1017     RMK 5CU022 7CU027 A3004=,- RA SH
20180129_010000.002,0,ROMY,,,,0,20180129010000,-1,-1,-1,-1,10,-1,15,-1,25,-1,-1,,9999,0,0,2,SCT 22   BKN 28,1,16,1,13,1018,ROMY 290100Z 01015G25KT 9999 SCT022 BKN028 16/13 Q1018 RMK     3CU022 7CU028 A3008=,
20180129_020000.002,0,ROMY,,,,0,20180129020000,-1,-1,-1,-1,10,-1,15,-1,25,-1,-1,,9999,0,1,3,FEW 16   BKN 28   BKN 34,1,16,1,13,1018,ROMY 290200Z 01015G25KT 9999 VCSH FEW016 BKN028 BKN034 16/13     Q1018 RMK 1CU016 5CU028 7SC034 A3008=,VC SH
20180129_030000.002,0,ROMY,,,,0,20180129030000,-1,-1,-1,-1,10,-1,17,-1,-1,-1,-1,,9999,0,1,3,FEW 23   SCT 29   BKN 34,1,16,1,12,1018,ROMY 290300Z 01017KT 9999 VCSH FEW023 SCT029 BKN034 16/12     Q1018 RMK 2CU023 4CU029 7SC034 A3008=,VC SH
20180129_040000.002,0,ROMY,,,,0,20180129040000,-1,-1,-1,-1,10,-1,16,-1,26,-1,-1,,9999,0,0,3,FEW 20   SCT 24   BKN 32,1,15,1,11,1017,ROMY 290400Z 01016G26KT 9999 FEW020 SCT024 BKN032 15/11 Q1017     RMK 1CU020 3CU024 7SC032 A3005=,
20180129_050000.002,0,ROMY,,,,0,20180129050000,-1,-1,-1,-1,10,-1,13,-1,-1,340,40,,9999,0,0,3,SCT 24   BKN 29   BKN 34,1,15,1,11,1017,ROMY 290500Z 01013KT 340V040 9999 SCT024 BKN029 BKN034 15/11     Q1017 RMK 3CU024 5CU029 7SC034 A3003=,
20180129_060000.002,0,ROMY,,,,0,20180129060000,-1,-1,-1,-1,20,-1,13,-1,-1,340,50,,9000,0,0,2,SCT 22   BKN 34,1,15,1,11,1017,ROMY 290600Z 02013KT 340V050 9000 SCT022 BKN034 15/11 Q1017     RMK 4CU022 7SC034 A3003=,
20180129_070000.002,0,ROMY,,,,0,20180129070000,-1,-1,-1,-1,10,-1,14,-1,24,-1,-1,,9999,0,1,2,SCT 24   BKN 35,1,15,1,12,1017,ROMY 290700Z 01014G24KT 9999 -SHRA SCT024 BKN035 15/12 Q1017     RMK 4CU024 7SC035 A3003=,- RA SH
20180129_080000.002,0,ROMY,,,,0,20180129080000,-1,-1,-1,-1,10,-1,14,-1,-1,-1,-1,,9999,0,1,2,SCT 23   BKN 35,1,15,1,11,1017,ROMY 290800Z 01014KT 9999 -SHRA SCT023 BKN035 15/11 Q1017 RMK     4CU023 7SC035 A3004=,- RA SH
20180129_090000.002,0,ROMY,,,,0,20180129090000,-1,-1,-1,-1,20,-1,15,-1,-1,-1,-1,,9999,0,1,2,SCT 19   BKN 34,1,15,1,11,1018,ROMY 290900Z 02015KT 9999 VCSH SCT019 BKN034 15/11 Q1018 RMK     4CU019 7SC034 A3006=,VC SH
20180129_100000.002,0,ROMY,,,,0,20180129100000,-1,-1,-1,-1,20,-1,14,-1,24,-1,-1,,9999,0,1,2,SCT 21   BKN 34,1,15,1,11,1018,ROMY 291000Z 02014G24KT 9999 -SHRA SCT021 BKN034 15/11 Q1018     RMK 4CU021 7SC034 A3008=,- RA SH
20180129_110000.002,0,ROMY,,,,0,20180129110000,-1,-1,-1,-1,10,-1,15,-1,25,-1,-1,,9999,0,1,2,SCT 22   BKN 35,1,15,1,11,1019,ROMY 291100Z 01015G25KT 9999 -SHRA SCT022 BKN035 15/11 Q1019     RMK 4CU022 7SC035 A3010=,- RA SH
20180129_213000.001,0,ROMY,,,,0,20180129210000,-1,-1,-1,-1,20,-1,12,-1,-1,-1,-1,,9999,0,1,3,FEW 21   SCT 27   BKN 40,1,15,1,10,1020,ROMY 292130Z 02012KT 9999 -SHRA FEW021 SCT027 BKN040 15/10     Q1020 RMK 2CU021 4CU027 7SC040 A3013=,- RA SH
20180129_220000.002,0,ROMY,,,,0,20180129220000,-1,-1,-1,-1,20,-1,12,-1,-1,-1,-1,,9999,0,1,2,SCT 26   BKN 38,1,15,1,11,1020,ROMY 292200Z 02012KT 9999 -SHRA SCT026 BKN038 15/11 Q1020 RMK     4CU026 7SC038 A3014=,- RA SH
20180129_230000.002,0,ROMY,,,,0,20180129230000,-1,-1,-1,-1,10,-1,14,-1,24,-1,-1,,9999,0,1,2,BKN 23   BKN 39,1,15,1,11,1021,ROMY 292300Z 01014G24KT 9999 -SHRA BKN023 BKN039 15/11 Q1021     RMK 5CU023 7SC039 A3017=,- RA SH
20180130_000000.002,0,ROMY,,,,0,20180130000000,-1,-1,-1,-1,30,-1,15,-1,-1,-1,-1,,9999,0,1,3,FEW 20   SCT 26   BKN 45,1,16,1,11,1021,ROMY 300000Z 03015KT 9999 VCSH FEW020 SCT026 BKN045 16/11     Q1021 RMK 1CU020 4CU026 7SC045 A3017=,VC SH
20180130_010000.002,0,ROMY,,,,0,20180130010000,-1,-1,-1,-1,40,-1,14,-1,-1,-1,-1,,9999,0,1,3,FEW 14   SCT 27   BKN 40,1,14,1,13,1022,ROMY 300100Z 04014KT 9999 -SHRA FEW014 SCT027 BKN040 14/13     Q1022 RMK 1CU014 4CU027 7SC040 A3019=,- RA SH
20180130_020000.002,0,ROMY,,,,0,20180130020000,-1,-1,-1,-1,40,-1,13,-1,-1,-1,-1,,9999,0,1,2,SCT 27   BKN 43,1,17,1,11,1021,ROMY 300200Z 04013KT 9999 VCSH SCT027 BKN043 17/11 Q1021 RMK     4CU027 7SC043 A3017=,VC SH
20180130_030000.002,0,ROMY,,,,0,20180130030000,-1,-1,-1,-1,50,-1,14,-1,-1,-1,-1,,9999,0,0,3,SCT 26   BKN 40   BKN 60,1,18,1,11,1019,ROMY 300300Z 05014KT 9999 SCT026 BKN040 BKN060 18/11 Q1019 RMK     3CU026 5SC040 6SC060 A3011=,
20180130_040000.002,0,ROMY,,,,0,20180130040000,-1,-1,-1,-1,40,-1,12,-1,-1,-1,-1,,9999,0,0,2,SCT 28   BKN 40,1,17,1,11,1019,ROMY 300400Z 04012KT 9999 SCT028 BKN040 17/11 Q1019 RMK 4CU028     7SC040 A3010=,
20180130_050000.002,0,ROMY,,,,0,20180130050000,-1,-1,-1,-1,50,-1,13,-1,-1,-1,-1,,9999,0,0,2,SCT 28   BKN 50,1,17,1,11,1019,ROMY 300500Z 05013KT 9999 SCT028 BKN050 17/11 Q1019 RMK 3CU028     7SC050 A3009=,
20180130_060000.003,0,ROMY,,,,0,20180130060000,-1,-1,-1,-1,50,-1,11,-1,-1,-1,-1,,9999,0,0,2,SCT 27   BKN 45,1,17,1,11,1018,ROMY 300600Z 05011KT 9999 SCT027 BKN045 17/11 Q1018 RMK 3CU027     7SC045 A3008=,
20180130_070000.002,0,ROMY,,,,0,20180130070000,-1,-1,-1,-1,20,-1,11,-1,-1,-1,-1,,9999,0,1,3,SCT 20   BKN 28   BKN 40,1,16,1,12,1018,ROMY 300700Z 02011KT 9999 -SHRA SCT020 BKN028 BKN040 16/12     Q1018 RMK 3CU020 5CU028 7SC040 A3008=,- RA SH
20180130_080000.002,0,ROMY,,,,0,20180130080000,-1,-1,-1,-1,40,-1,13,-1,-1,-1,-1,,9999,0,1,3,SCT 18   BKN 28   BKN 40,1,16,1,12,1018,ROMY 300800Z 04013KT 9999 -SHRA SCT018 BKN028 BKN040 16/12     Q1018 RMK 3CU018 5CU028 7SC040 A3008=,- RA SH
20180130_090000.002,0,ROMY,,,,0,20180130090000,-1,-1,-1,-1,50,-1,14,-1,-1,-1,-1,,9999,0,1,3,FEW 20   BKN 30   BKN 45,1,16,1,12,1018,ROMY 300900Z 05014KT 9999 -SHRA FEW020 BKN030 BKN045 16/12     Q1018 RMK 2CU020 5CU030 7SC045 A3008=,- RA SH
20180130_100000.002,0,ROMY,,,,0,20180130100000,-1,-1,-1,-1,50,-1,13,-1,-1,-1,-1,,9999,0,1,2,SCT 24   BKN 30,1,16,1,12,1019,ROMY 301000Z 05013KT 9999 -SHRA SCT024 BKN030 16/12 Q1019 RMK     4CU024 7CU030 A3010=,- RA SH
20180130_110000.002,0,ROMY,,,,0,20180130110000,-1,-1,-1,-1,50,-1,11,-1,-1,-1,-1,,9999,0,1,2,SCT 22   BKN 27,1,16,1,12,1020,ROMY 301100Z 05011KT 9999 -SHRA SCT022 BKN027 16/12 Q1020 RMK     3CU022 7CU027 A3013=,- RA SH
20180130_213000.001,0,ROMY,,,,0,20180130210000,-1,-1,-1,-1,90,-1,14,-1,-1,-1,-1,,9999,0,0,2,FEW 25   BKN 80,1,18,1,13,1018,ROMY 302130Z 09014KT 9999 FEW025 BKN080 18/13 Q1018 RMK 2CU025     5AC080 A3008=,
20180130_220000.002,0,ROMY,,,,0,20180130220000,-1,-1,-1,-1,90,-1,15,-1,-1,-1,-1,,9999,0,0,2,FEW 25   BKN 70,1,18,1,13,1018,ROMY 302200Z 09015KT 9999 FEW025 BKN070 18/13 Q1018 RMK 2CU025     6AC070 A3008=,
20180130_230000.002,0,ROMY,,,,0,20180130230000,-1,-1,-1,-1,90,-1,14,-1,-1,-1,-1,,9999,0,0,2,SCT 27   BKN 40,1,19,1,14,1019,ROMY 302300Z 09014KT 9999 SCT027 BKN040 19/14 Q1019 RMK 3CU027     7SC040 A3010=,
20180131_000000.002,0,ROMY,,,,0,20180131000000,-1,-1,-1,-1,90,-1,14,-1,-1,-1,-1,,9999,0,1,2,SCT 24   BKN 60,1,19,1,14,1019,ROMY 310000Z 09014KT 9999 VCSH SCT024 BKN060 19/14 Q1019 RMK     4CU024 7SC060 A3009=,VC SH
20180131_010000.002,0,ROMY,,,,0,20180131010000,-1,-1,-1,-1,100,-1,15,-1,-1,-1,-1,,9999,0,1,3,SCT 22   BKN 28   BKN 50,1,19,1,15,1019,ROMY 310100Z 10015KT 9999 -SHRA SCT022 BKN028 BKN050 19/15     Q1019 RMK 3CU022 5CU028 7SC050 A3010=,- RA SH
20180131_020000.002,0,ROMY,,,,0,20180131020000,-1,-1,-1,-1,100,-1,13,-1,-1,-1,-1,,9999,0,1,2,SCT 20   BKN 50,1,20,1,16,1018,ROMY 310200Z 10013KT 9999 -SHRA SCT020 BKN050 20/16 Q1018 RMK     4CU020 7SC050 A3008=,- RA SH
20180131_030000.002,0,ROMY,,,,0,20180131030000,-1,-1,-1,-1,100,-1,12,-1,-1,-1,-1,,8000,0,1,2,BKN 20   BKN 45,1,19,1,17,1017,ROMY 310300Z 10012KT 8000 -SHRA BKN020 BKN045 19/17 Q1017 RMK     5CU020 7SC045 A3006=,- RA SH
20180131_040000.002,0,ROMY,,,,0,20180131040000,-1,-1,-1,-1,120,-1,10,-1,-1,-1,-1,,9999,0,1,2,SCT 15   BKN 40,1,19,1,17,1016,ROMY 310400Z 12010KT 9999 -SHRA SCT015 BKN040 19/17 Q1016 RMK     3CU015 7SC040 A3002=,- RA SH
20180131_050000.002,0,ROMY,,,,0,20180131050000,-1,-1,-1,-1,110,-1,11,-1,-1,-1,-1,,9999,0,0,3,SCT 28   BKN 60   BKN 70,1,21,1,17,1015,ROMY 310500Z 11011KT 9999 SCT028 BKN060 BKN070 21/17 Q1015 RMK     3CU028 5SC060 7AC070 A2997=,
20180131_060000.002,0,ROMY,,,,0,20180131060000,-1,-1,-1,-1,130,-1,15,-1,-1,-1,-1,,9999,0,0,2,SCT 21   BKN 40,1,22,1,17,1013,ROMY 310600Z 13015KT 9999 SCT021 BKN040 22/17 Q1013 RMK 4CU021     6SC040 A2994=,
20180131_070000.003,0,ROMY,,,,0,20180131070000,-1,-1,-1,-1,130,-1,17,-1,-1,-1,-1,,9999,0,0,3,SCT 21   SCT 44   BKN 60,1,21,1,17,1013,ROMY 310700Z 13017KT 9999 SCT021 SCT044 BKN060 21/17 Q1013 RMK     3CU021 4SC044 7SC060 A2993=,
20180131_080000.003,0,ROMY,,,,0,20180131080000,-1,-1,-1,-1,140,-1,14,-1,-1,-1,-1,,8000,0,1,3,SCT 22   BKN 30   BKN 45,1,20,1,17,1013,ROMY 310800Z 14014KT 8000 -SHRA SCT022 BKN030 BKN045 20/17     Q1013 RMK 3CU022 5CU030 7SC045 A2993=,- RA SH
20180131_090000.002,0,ROMY,,,,0,20180131090000,-1,-1,-1,-1,150,-1,16,-1,-1,-1,-1,,9999,0,1,3,SCT 23   SCT 30   BKN 50,1,20,1,17,1013,ROMY 310900Z 15016KT 9999 -SHRA SCT023 SCT030 BKN050 20/17     Q1013 RMK 3CU023 4CU030 7SC050 A2993=,- RA SH
20180131_100000.002,0,ROMY,,,,0,20180131100000,-1,-1,-1,-1,150,-1,13,-1,-1,-1,-1,,9999,0,1,3,FEW 22   BKN 50   BKN 80,1,20,1,17,1013,ROMY 311000Z 15013KT 9999 -SHRA FEW022 BKN050 BKN080 20/17     Q1013 RMK 2CU022 5SC050 7AC080 A2993=,- RA SH
20180131_110000.002,0,ROMY,,,,0,20180131110000,-1,-1,-1,-1,160,-1,15,-1,-1,-1,-1,,9999,0,1,3,SCT 20   SCT 27   BKN 45,1,21,1,17,1013,ROMY 311100Z 16015KT 9999 -SHRA SCT020 SCT027 BKN045 21/17     Q1013 RMK 3CU020 4CU027 7SC045 A2994=,- RA SH
20180131_213000.001,0,ROMY,,,,0,20180131210000,-1,-1,-1,-1,360,-1,16,-1,29,320,30,,9999,0,1,2,FEW 10   BKN 15,1,15,1,14,1016,ROMY 312130Z 36016G29KT 320V030 9999 -SHRA FEW010 BKN015 15/14     Q1016 RMK 2CU010 6CU015 A3002=,- RA SH
20180131_220000.002,0,ROMY,,,,0,20180131220000,-1,-1,-1,-1,360,-1,14,-1,24,-1,-1,,8000,0,1,2,SCT 11   BKN 15,1,15,1,14,1017,ROMY 312200Z 36014G24KT 8000 -SHRA SCT011 BKN015 15/14 Q1017     RMK 3CU011 7CU015 A3004=,- RA SH
20180131_230000.002,0,ROMY,,,,0,20180131230000,-1,-1,-1,-1,360,-1,15,-1,27,-1,-1,,9999,0,1,2,SCT 13   BKN 20,1,15,1,13,1018,ROMY 312300Z 36015G27KT 9999 -SHRA SCT013 BKN020 15/13 Q1018     RMK 3CU013 7CU020 A3007=,- RA SH
20180201_000000.003,0,ROMY,,,,0,20180201000000,-1,-1,-1,-1,10,-1,14,-1,28,-1,-1,,9999,0,1,2,SCT 10   BKN 16,1,15,1,14,1018,ROMY 010000Z 01014G28KT 9999 -SHRA SCT010 BKN016 15/14 Q1018     RMK 3CU010 7CU016 A3007=,- RA SH
20180201_010000.002,0,ROMY,,,,0,20180201010000,-1,-1,-1,-1,360,-1,13,-1,23,-1,-1,,9999,0,1,2,SCT 13   BKN 20,1,15,1,13,1019,ROMY 010100Z 36013G23KT 9999 -SHRA SCT013 BKN020 15/13 Q1019     RMK 3CU013 7CU020 A3009=,- RA SH
20180201_020000.002,0,ROMY,,,,0,20180201020000,-1,-1,-1,-1,350,-1,14,-1,-1,320,20,,9999,0,1,2,SCT 15   BKN 25,1,15,1,13,1019,ROMY 010200Z 35014KT 320V020 9999 -SHRA SCT015 BKN025 15/13     Q1019 RMK 3CU015 7CU025 A3011=,- RA SH
20180201_030000.003,0,ROMY,,,,0,20180201030000,-1,-1,-1,-1,10,-1,15,-1,25,330,40,,9999,0,1,3,FEW 17   BKN 27   BKN 38,1,16,1,13,1019,ROMY 010300Z 01015G25KT 330V040 9999 VCSH FEW017 BKN027 BKN038     16/13 Q1019 RMK 2CU017 5CU027 7SC038 A3010=,VC SH
20180201_040000.003,0,ROMY,,,,0,20180201040000,-1,-1,-1,-1,360,-1,13,-1,23,-1,-1,,9999,0,1,2,BKN 18   BKN 45,1,16,1,13,1019,ROMY 010400Z 36013G23KT 9999 VCSH BKN018 BKN045 16/13 Q1019     RMK 5CU018 7SC045 A3009=,VC SH
20180201_050000.002,0,ROMY,,,,0,20180201050000,-1,-1,-1,-1,360,-1,13,-1,-1,-1,-1,,9999,0,1,2,SCT 14   BKN 25,1,15,1,13,1018,ROMY 010500Z 36013KT 9999 -SHRA SCT014 BKN025 15/13 Q1018 RMK     4CU014 7CU025 A3008=,- RA SH
20180201_060000.002,0,ROMY,,,,0,20180201060000,-1,-1,-1,-1,10,-1,13,-1,23,-1,-1,,9999,0,1,2,SCT 22   BKN 35,1,17,1,12,1018,ROMY 010600Z 01013G23KT 9999 VCSH SCT022 BKN035 17/12 Q1018     RMK 4CU022 6CU035 A3006=,VC SH
20180201_070000.002,0,ROMY,,,,0,20180201070000,-1,-1,-1,-1,10,-1,13,-1,-1,-1,-1,,9999,0,1,2,SCT 25   BKN 45,1,17,1,12,1018,ROMY 010700Z 01013KT 9999 VCSH SCT025 BKN045 17/12 Q1018 RMK     4CU025 6SC045 A3006=,VC SH
20180201_080000.002,0,ROMY,,,,0,20180201080000,-1,-1,-1,-1,10,-1,11,-1,-1,-1,-1,,9999,0,1,2,SCT 23   BKN 42,1,17,1,12,1018,ROMY 010800Z 01011KT 9999 VCSH SCT023 BKN042 17/12 Q1018 RMK     4CU023 6SC042 A3008=,VC SH
20180201_090000.002,0,ROMY,,,,0,20180201090000,-1,-1,-1,-1,10,-1,11,-1,-1,340,40,,9999,0,0,2,SCT 27   BKN 40,1,16,1,11,1019,ROMY 010900Z 01011KT 340V040 9999 SCT027 BKN040 16/11 Q1019     RMK 3CU027 6SC040 A3010=,
20180201_100000.002,0,ROMY,,,,0,20180201100000,-1,-1,-1,-1,10,-1,11,-1,-1,-1,-1,,9999,0,1,2,SCT 28   BKN 40,1,16,1,11,1019,ROMY 011000Z 01011KT 9999 -SHRA SCT028 BKN040 16/11 Q1019 RMK     4CU028 6SC040 A3011=,- RA SH
20180201_110000.002,0,ROMY,,,,0,20180201110000,-1,-1,-1,-1,20,-1,11,-1,-1,-1,-1,,9999,0,1,2,SCT 30   BKN 43,1,17,1,11,1019,ROMY 011100Z 02011KT 9999 VCSH SCT030 BKN043 17/11 Q1019 RMK     4CU030 6SC043 A3012=,VC SH
20180201_213000.001,0,ROMY,,,,0,20180201210000,-1,-1,-1,-1,20,-1,7,-1,-1,320,50,,9999,0,0,2,FEW 32   BKN 90,1,17,1,11,1020,ROMY 012130Z 02007KT 320V050 9999 FEW032 BKN090 17/11 Q1020     RMK 1CU032 7AC090 A3014=,
20180201_220000.002,0,ROMY,,,,0,20180201220000,-1,-1,-1,-1,20,-1,10,-1,-1,-1,-1,,9999,0,0,2,FEW 30   BKN 90,1,17,1,12,1020,ROMY 012200Z 02010KT 9999 FEW030 BKN090 17/12 Q1020 RMK 1CU030     7AC090 A3014=,
20180201_230000.003,0,ROMY,,,,0,20180201230000,-1,-1,-1,-1,50,-1,8,-1,-1,-1,-1,,9999,0,0,2,SCT 26   BKN 90,1,18,1,13,1020,ROMY 012300Z 05008KT 9999 SCT026 BKN090 18/13 Q1020 RMK 3CU026     6AC090 A3013=,
20180202_000000.002,0,ROMY,,,,0,20180202000000,-1,-1,-1,-1,50,-1,11,-1,-1,-1,-1,,9999,0,0,1,BKN 22,1,19,1,13,1020,ROMY 020000Z 05011KT 9999 BKN022 19/13 Q1020 RMK 5CU022 A3014=,
20180202_010000.002,0,ROMY,,,,0,20180202010000,-1,-1,-1,-1,40,-1,12,-1,-1,10,70,,9999,0,0,2,FEW 26   SCT 40,1,19,1,12,1021,ROMY 020100Z 04012KT 010V070 9999 FEW026 SCT040 19/12 Q1021     RMK 2CU026 3SC040 A3015=,
20180202_020000.002,0,ROMY,,,,0,20180202020000,-1,-1,-1,-1,50,-1,13,-1,-1,-1,-1,,9999,0,1,2,SCT 28   BKN 40,1,20,1,13,1021,ROMY 020200Z 05013KT 9999 VCSH SCT028 BKN040 20/13 Q1021 RMK     3CU028 5SC040 A3016=,VC SH
20180202_030000.002,0,ROMY,,,,0,20180202030000,-1,-1,-1,-1,40,-1,11,-1,-1,-1,-1,,9999,0,1,2,SCT 27   BKN 45,1,19,1,13,1020,ROMY 020300Z 04011KT 9999 VCSH SCT027 BKN045 19/13 Q1020 RMK     4CU027 6SC045 A3013=,VC SH
20180202_040000.002,0,ROMY,,,,0,20180202040000,-1,-1,-1,-1,10,-1,12,-1,22,-1,-1,,9999,0,1,3,FEW 15   SCT 28   BKN 50,1,17,1,15,1020,ROMY 020400Z 01012G22KT 9999 -SHRA FEW015 SCT028 BKN050 17/15     Q1020 RMK 1CU015 4CU028 6SC050 A3012=,- RA SH
20180202_050000.001,0,ROMY,,,,0,20180202050000,-1,-1,-1,-1,30,-1,13,-1,-1,350,50,,9999,0,0,2,FEW 16   BKN 60,1,18,1,14,1019,ROMY 020500Z 03013KT 350V050 9999 FEW016 BKN060 18/14 Q1019     RMK 2CU016 7SC060 A3010=,
20180202_060000.002,0,ROMY,,,,0,20180202060000,-1,-1,-1,-1,30,-1,11,-1,-1,-1,-1,,9999,0,0,2,FEW 20   BKN 40,1,19,1,13,1019,ROMY 020600Z 03011KT 9999 FEW020 BKN040 19/13 Q1019 RMK 2CU020     6SC040 A3009=,
20180202_070000.002,0,ROMY,,,,0,20180202070000,-1,-1,-1,-1,40,-1,13,-1,-1,-1,-1,,9999,0,0,2,SCT 25   BKN 50,1,19,1,13,1018,ROMY 020700Z 04013KT 9999 SCT025 BKN050 19/13 Q1018 RMK 4CU025     6SC050 A3008=,
20180202_080000.002,0,ROMY,,,,0,20180202080000,-1,-1,-1,-1,40,-1,10,-1,-1,-1,-1,,9999,0,1,2,SCT 28   BKN 41,1,18,1,12,1019,ROMY 020800Z 04010KT 9999 VCSH SCT028 BKN041 18/12 Q1019 RMK     4CU028 7SC041 A3009=,VC SH
20180202_090000.002,0,ROMY,,,,0,20180202090000,-1,-1,-1,-1,20,-1,12,-1,-1,-1,-1,,9000,0,1,3,SCT 25   BKN 30   BKN 40,1,17,1,14,1019,ROMY 020900Z 02012KT 9000 -SHRA SCT025 BKN030 BKN040 17/14     Q1019 RMK 3CU025 5CU030 7SC040 A3011=,- RA SH
20180202_100000.003,0,ROMY,,,,0,20180202100000,-1,-1,-1,-1,10,-1,13,-1,-1,-1,-1,,9000,0,1,3,FEW 10   SCT 16   BKN 35,1,15,1,14,1020,ROMY 021000Z 01013KT 9000 -SHRA FEW010 SCT016 BKN035 15/14     Q1020 RMK 2CU010 3CU016 7SC035 A3013=,- RA SH
20180202_110000.002,0,ROMY,,,,0,20180202110000,-1,-1,-1,-1,10,-1,14,-1,24,-1,-1,,8000,0,1,3,SCT 14   BKN 20   BKN 25,1,16,1,14,1020,ROMY 021100Z 01014G24KT 8000 -SHRA SCT014 BKN020 BKN025 16/14     Q1020 RMK 3CU014 5CU020 7CU025 A3015=,- RA SH
20180202_213000.001,0,ROMY,,,,0,20180202210000,-1,-1,-1,-1,360,-1,15,-1,-1,-1,-1,,9999,0,1,3,FEW 12   BKN 23   BKN 35,1,13,1,11,1022,ROMY 022130Z 36015KT 9999 -SHRA FEW012 BKN023 BKN035 13/11     Q1022 RMK 2CU012 5CU023 6SC035 A3019=,- RA SH
20180202_220000.002,0,ROMY,,,,0,20180202220000,-1,-1,-1,-1,10,-1,17,-1,-1,-1,-1,,9999,0,1,3,FEW 13   BKN 26   BKN 40,1,13,1,11,1022,ROMY 022200Z 01017KT 9999 -SHRA FEW013 BKN026 BKN040 13/11     Q1022 RMK 2CU013 5CU026 7SC040 A3019=,- RA SH
20180202_230000.003,0,ROMY,,,,0,20180202230000,-1,-1,-1,-1,10,-1,13,-1,24,330,40,,9999,0,1,3,FEW 18   BKN 27   BKN 38,1,13,1,11,1022,ROMY 022300Z 01013G24KT 330V040 9999 -SHRA FEW018 BKN027     BKN038 13/11 Q1022 RMK 2CU018 5CU027 7SC038 A3020=,- RA SH
20180203_000000.002,0,ROMY,,,,0,20180203000000,-1,-1,-1,-1,20,-1,17,-1,-1,-1,-1,,6000,0,1,3,FEW 20   BKN 28   BKN 40,1,13,1,11,1023,ROMY 030000Z 02017KT 6000 -SHRA FEW020 BKN028 BKN040 13/11     Q1023 RMK 2CU020 5CU028 7SC040 A3021=,- RA SH
20180203_010000.003,0,ROMY,,,,0,20180203010000,-1,-1,-1,-1,10,-1,15,-1,28,-1,-1,,9999,0,1,3,FEW 13   BKN 25   BKN 40,1,13,1,11,1023,ROMY 030100Z 01015G28KT 9999 -SHRA FEW013 BKN025 BKN040 13/11     Q1023 RMK 1CU013 5CU025 7SC040 A3022=,- RA SH
20180203_020000.002,0,ROMY,,,,0,20180203020000,-1,-1,-1,-1,10,-1,13,-1,-1,-1,-1,,9999,0,1,2,SCT 20   BKN 40,1,14,1,11,1023,ROMY 030200Z 01013KT 9999 -SHRA SCT020 BKN040 14/11 Q1023 RMK     4CU020 7SC040 A3022=,- RA SH
20180203_030000.002,0,ROMY,,,,0,20180203030000,-1,-1,-1,-1,10,-1,13,-1,-1,-1,-1,,9999,0,1,3,FEW 14   BKN 25   BKN 36,1,13,1,11,1023,ROMY 030300Z 01013KT 9999 -SHRA FEW014 BKN025 BKN036 13/11     Q1023 RMK 2CU014 5CU025 7SC036 A3021=,- RA SH
20180203_040000.002,0,ROMY,,,,0,20180203040000,-1,-1,-1,-1,10,-1,14,-1,-1,-1,-1,,9999,0,1,3,FEW 13   SCT 23   BKN 40,1,14,1,11,1021,ROMY 030400Z 01014KT 9999 -SHRA FEW013 SCT023 BKN040 14/11     Q1021 RMK 1CU013 4CU023 7SC040 A3017=,- RA SH
20180203_050000.002,0,ROMY,,,,0,20180203050000,-1,-1,-1,-1,10,-1,15,-1,25,350,50,,9999,0,1,2,SCT 20   BKN 25,1,14,1,10,1021,ROMY 030500Z 01015G25KT 350V050 9999 -SHRA SCT020 BKN025 14/10     Q1021 RMK 4CU020 7CU025 A3015=,- RA SH
20180203_060000.002,0,ROMY,,,,0,20180203060000,-1,-1,-1,-1,10,-1,13,-1,-1,-1,-1,,9999,0,1,2,SCT 20   BKN 27,1,14,1,10,1020,ROMY 030600Z 01013KT 9999 -SHRA SCT020 BKN027 14/10 Q1020 RMK     3CU020 7CU027 A3014=,- RA SH
20180203_070000.003,0,ROMY,,,,0,20180203070000,-1,-1,-1,-1,360,-1,13,-1,-1,-1,-1,,8000,0,1,2,SCT 18   BKN 25,1,13,1,10,1020,ROMY 030700Z 36013KT 8000 -SHRA SCT018 BKN025 13/10 Q1020 RMK     4CU018 7CU025 A3014=,- RA SH
20180203_080000.002,0,ROMY,,,,0,20180203080000,-1,-1,-1,-1,360,-1,13,-1,-1,-1,-1,,8000,0,1,3,FEW 18   BKN 23   BKN 30,1,13,1,10,1020,ROMY 030800Z 36013KT 8000 VCSH FEW018 BKN023 BKN030 13/10     Q1020 RMK 2CU018 5CU023 7CU030 A3015=,VC SH
20180203_090000.002,0,ROMY,,,,0,20180203090000,-1,-1,-1,-1,10,-1,12,-1,23,-1,-1,,7000,0,1,2,SCT 17   BKN 25,1,13,1,10,1021,ROMY 030900Z 01012G23KT 7000 -SHRA SCT017 BKN025 13/10 Q1021     RMK 4CU017 7CU025 A3015=,- RA SH
20180203_100000.002,0,ROMY,,,,0,20180203100000,-1,-1,-1,-1,10,-1,14,-1,-1,340,40,,9999,0,1,3,SCT 28   BKN 33   BKN 43,1,14,1,9,1021,ROMY 031000Z 01014KT 340V040 9999 VCSH SCT028 BKN033 BKN043     14/09 Q1021 RMK 3CU028 5CU033 7SC043 A3016=,VC SH
20180203_110000.002,0,ROMY,,,,0,20180203110000,-1,-1,-1,-1,30,-1,15,-1,-1,-1,-1,,7000,0,1,3,FEW 10   BKN 17   BKN 23,1,13,1,11,1021,ROMY 031100Z 03015KT 7000 -SHRA FEW010 BKN017 BKN023 13/11     Q1021 RMK 1CU010 5CU017 7CU023 A3017=,- RA SH
20180203_213000.001,0,ROMY,,,,0,20180203210000,-1,-1,-1,-1,10,-1,15,-1,-1,-1,-1,,9999,0,1,2,FEW 18   BKN 28,1,12,1,9,1022,ROMY 032130Z 01015KT 9999 -SHRA FEW018 BKN028 12/09 Q1022 RMK     2CU018 7CU028 A3018=,- RA SH
20180203_220000.002,0,ROMY,,,,0,20180203220000,-1,-1,-1,-1,10,-1,12,-1,-1,330,60,,6000,0,1,2,SCT 20   BKN 28,1,12,1,10,1022,ROMY 032200Z 01012KT 330V060 6000 -SHRA SCT020 BKN028 12/10     Q1022 RMK 4CU020 7CU028 A3019=,- RA SH
20180203_230000.002,0,ROMY,,,,0,20180203230000,-1,-1,-1,-1,10,-1,14,-1,24,330,30,,9999,0,1,3,FEW 21   BKN 27   BKN 42,1,12,1,10,1022,ROMY 032300Z 01014G24KT 330V030 9999 VCSH FEW021 BKN027 BKN042     12/10 Q1022 RMK 2CU021 5CU027 7SC042 A3020=,VC SH
20180204_000000.002,0,ROMY,,,,0,20180204000000,-1,-1,-1,-1,10,-1,15,-1,-1,-1,-1,,9999,0,1,3,FEW 17   SCT 20   BKN 27,1,12,1,9,1023,ROMY 040000Z 01015KT 9999 -SHRA FEW017 SCT020 BKN027 12/09     Q1023 RMK 2CU017 4CU020 7CU027 A3021=,- RA SH
20180204_010000.002,0,ROMY,,,,0,20180204010000,-1,-1,-1,-1,10,-1,16,-1,28,-1,-1,,8000,0,1,3,FEW 16   BKN 20   BKN 27,1,12,1,10,1023,ROMY 040100Z 01016G28KT 8000 -SHRA FEW016 BKN020 BKN027 12/10     Q1023 RMK 2CU016 5CU020 7CU027 A3022=,- RA SH
20180204_020000.002,0,ROMY,,,,0,20180204020000,-1,-1,-1,-1,20,-1,16,-1,26,330,50,,9999,0,1,3,SCT 20   BKN 28   BKN 33,1,12,1,10,1023,ROMY 040200Z 02016G26KT 330V050 9999 -SHRA SCT020 BKN028     BKN033 12/10 Q1023 RMK 3CU020 5CU028 7CU033 A3021=,- RA SH
20180204_030000.002,0,ROMY,,,,0,20180204030000,-1,-1,-1,-1,10,-1,15,-1,25,-1,-1,,9999,0,1,3,FEW 22   SCT 28   BKN 33,1,13,1,9,1022,ROMY 040300Z 01015G25KT 9999 -SHRA FEW022 SCT028 BKN033 13/09     Q1022 RMK 2CU022 4CU028 7CU033 A3020=,- RA SH
20180204_040000.002,0,ROMY,,,,0,20180204040000,-1,-1,-1,-1,10,-1,15,-1,-1,-1,-1,,7000,0,1,3,FEW 18   BKN 24   BKN 30,1,12,1,9,1022,ROMY 040400Z 01015KT 7000 -SHRA FEW018 BKN024 BKN030 12/09     Q1022 RMK 2CU018 5CU024 7CU030 A3018=,- RA SH
20180204_050000.002,0,ROMY,,,,0,20180204050000,-1,-1,-1,-1,20,-1,15,-1,-1,-1,-1,,9999,0,1,3,FEW 14   SCT 18   BKN 30,1,12,1,10,1021,ROMY 040500Z 02015KT 9999 -SHRA FEW014 SCT018 BKN030 12/10     Q1021 RMK 2CU014 4CU018 7CU030 A3016 4500N=,- RA SH
20180204_060000.002,0,ROMY,,,,0,20180204060000,-1,-1,-1,-1,30,-1,16,-1,-1,-1,-1,,9999,0,1,3,FEW 15   SCT 20   BKN 35,1,12,1,10,1021,ROMY 040600Z 03016KT 9999 -SHRA FEW015 SCT020 BKN035 12/10     Q1021 RMK 1CU015 4CU020 7CU035 A3015=,- RA SH
20180204_070000.002,0,ROMY,,,,0,20180204070000,-1,-1,-1,-1,30,-1,16,-1,27,-1,-1,,9999,0,1,3,FEW 15   SCT 18   BKN 30,1,12,1,10,1021,ROMY 040700Z 03016G27KT 9999 -SHRA FEW015 SCT018 BKN030 12/10     Q1021 RMK 1CU015 4CU018 7CU030 A3015=,- RA SH
20180204_080000.002,0,ROMY,,,,0,20180204080000,-1,-1,-1,-1,20,-1,17,-1,27,-1,-1,,9000,0,1,3,SCT 18   BKN 28   BKN 40,1,12,1,10,1021,ROMY 040800Z 02017G27KT 9000 -SHRA SCT018 BKN028 BKN040 12/10     Q1021 RMK 3CU018 5CU028 7SC040 A3016=,- RA SH
20180204_090000.002,0,ROMY,,,,0,20180204090000,-1,-1,-1,-1,10,-1,16,-1,-1,340,50,,9999,0,1,2,SCT 20   BKN 30,1,12,1,9,1021,ROMY 040900Z 01016KT 340V050 9999 -SHRA SCT020 BKN030 12/09     Q1021 RMK 4CU020 7CU030 A3018=,- RA SH
20180204_100000.002,0,ROMY,,,,0,20180204100000,-1,-1,-1,-1,10,-1,16,-1,29,-1,-1,,9999,0,1,2,SCT 24   BKN 32,1,12,1,9,1022,ROMY 041000Z 01016G29KT 9999 -SHRA SCT024 BKN032 12/09 Q1022     RMK 4CU024 7CU032 A3019=,- RA SH
20180204_110000.003,0,ROMY,,,,0,20180204110000,-1,-1,-1,-1,20,-1,16,-1,26,340,50,,9999,0,1,2,SCT 22   BKN 32,1,12,1,8,1022,ROMY 041100Z 02016G26KT 340V050 9999 -SHRA SCT022 BKN032 12/08     Q1022 RMK 3CU022 7CU032 A3021=,- RA SH
20180204_213000.001,0,ROMY,,,,0,20180204210000,-1,-1,-1,-1,10,-1,14,-1,24,-1,-1,,9999,0,1,3,SCT 21   BKN 30   BKN 39,1,11,1,8,1022,ROMY 042130Z 01014G24KT 9999 -SHRA SCT021 BKN030 BKN039 11/08     Q1022 RMK 3CU021 5CU030 7SC039 A3019=,- RA SH
20180204_220000.002,0,ROMY,,,,0,20180204220000,-1,-1,-1,-1,10,-1,13,-1,-1,-1,-1,,9999,0,1,3,FEW 18   SCT 25   BKN 39,1,10,1,9,1023,ROMY 042200Z 01013KT 9999 -SHRA FEW018 SCT025 BKN039 10/09     Q1023 RMK 2CU018 4CU025 7SC039 A3021=,- RA SH
20180204_230000.002,0,ROMY,,,,0,20180204230000,-1,-1,-1,-1,10,-1,15,-1,-1,-1,-1,,9999,0,1,3,FEW 18   BKN 37   BKN 45,1,11,1,8,1023,ROMY 042300Z 01015KT 9999 -RA FEW018 BKN037 BKN045 11/08 Q1023     RMK 2CU018 5SC037 7SC045 A3021=,- RA
20180205_000000.003,0,ROMY,,,,0,20180205000000,-1,-1,-1,-1,10,-1,14,-1,-1,340,50,,9999,0,1,3,FEW 22   SCT 28   BKN 45,1,11,1,8,1023,ROMY 050000Z 01014KT 340V050 9999 VCSH FEW022 SCT028 BKN045     11/08 Q1023 RMK 2CU022 3CU028 7SC045 A3022=,VC SH
20180205_010000.002,0,ROMY,,,,0,20180205010000,-1,-1,-1,-1,20,-1,14,-1,-1,-1,-1,,7000,0,1,3,SCT 20   BKN 30   BKN 40,1,11,1,9,1023,ROMY 050100Z 02014KT 7000 -SHRA SCT020 BKN030 BKN040 11/09     Q1023 RMK 3CU020 5CU030 7SC040 A3023=,- RA SH
20180205_020000.002,0,ROMY,,,,0,20180205020000,-1,-1,-1,-1,20,-1,16,-1,-1,-1,-1,,7000,0,1,3,FEW 20   BKN 27   BKN 37,1,11,1,9,1023,ROMY 050200Z 02016KT 7000 -SHRA FEW020 BKN027 BKN037 11/09     Q1023 RMK 1CU020 5CU027 7SC037 A3022=,- RA SH
