20180101_000000.002,0,RORS,,,,0,20180101000000,-1,-1,-1,-1,40,-1,21,-1,-1,-1,-1,,9999,0,0,3,SCT 33   BKN 41   BKN 70,1,19,1,12,1022,RORS 010000Z 04021KT 9999 SCT033 BKN041 BKN070 19/12 Q1022 RMK     3CU033 5SC041 6AC070 A3020=,
20180101_010000.002,0,RORS,,,,0,20180101010000,-1,-1,-1,-1,40,-1,22,-1,-1,-1,-1,,9999,0,0,1,FEW 33,1,19,1,11,1023,RORS 010100Z 04022KT 9999 FEW033 19/11 Q1023 RMK 1CU033 A3021=,
20180101_020000.002,0,RORS,,,,0,20180101020000,-1,-1,-1,-1,50,-1,18,-1,-1,-1,-1,,9999,0,0,1,FEW 40,1,20,1,10,1023,RORS 010200Z 05018KT 9999 FEW040 20/10 Q1023 RMK 1SC040 A3022=,
20180101_030000.002,0,RORS,,,,0,20180101030000,-1,-1,-1,-1,50,-1,18,-1,-1,-1,-1,,9999,0,0,1,FEW 39,1,20,1,10,1022,RORS 010300Z 05018KT 9999 FEW039 20/10 Q1022 RMK 1CU039 A3020=,
20180101_040000.002,0,RORS,,,,0,20180101040000,-1,-1,-1,-1,60,-1,18,-1,-1,-1,-1,,9999,0,0,1,FEW 43,1,21,1,11,1021,RORS 010400Z 06018KT 9999 FEW043 21/11 Q1021 RMK 2SC043 A3017=,
20180101_050000.002,0,RORS,,,,0,20180101050000,-1,-1,-1,-1,50,-1,15,-1,-1,-1,-1,,9999,0,0,2,FEW 40   SCT 60,1,21,1,10,1021,RORS 010500Z 05015KT 9999 FEW040 SCT060 21/10 Q1021 RMK 2SC040     4SC060 A3015=,
20180101_060000.002,0,RORS,,,,0,20180101060000,-1,-1,-1,-1,50,-1,15,-1,-1,-1,-1,,9999,0,0,2,FEW 40   BKN 70,1,21,1,10,1020,RORS 010600Z 05015KT 9999 FEW040 BKN070 21/10 Q1020 RMK 1SC040     6AC070 A3014=,
20180101_070000.002,0,RORS,,,,0,20180101070000,-1,-1,-1,-1,50,-1,17,-1,-1,-1,-1,,9999,0,0,1,SCT 37,1,20,1,11,1020,RORS 010700Z 05017KT 9999 SCT037 20/11 Q1020 RMK 3CU037 A3013=,
20180101_080000.002,0,RORS,,,,0,20180101080000,-1,-1,-1,-1,50,-1,19,-1,-1,-1,-1,,9999,0,0,1,FEW 40,1,19,1,10,1020,RORS 010800Z 05019KT 9999 FEW040 19/10 Q1020 RMK 2SC040 A3014=,
20180101_090000.002,0,RORS,,,,0,20180101090000,-1,-1,-1,-1,50,-1,17,-1,-1,-1,-1,,9999,0,0,1,FEW 43,1,18,1,10,1020,RORS 010900Z 05017KT 9999 FEW043 18/10 Q1020 RMK 1SC043 A3014=,
20180101_100000.002,0,RORS,,,,0,20180101100000,-1,-1,-1,-1,60,-1,19,-1,-1,-1,-1,,9999,0,0,1,FEW 36,1,19,1,11,1021,RORS 011000Z 06019KT 9999 FEW036 19/11 Q1021 RMK 2CU036 A3015=,
20180101_110000.002,0,RORS,,,,0,20180101110000,-1,-1,-1,-1,-1,-1,-1,-1,-1,-1,-1,,-1,0,0,0,,0,-1,0,-1,-1,RORS 011100Z NIL=,
20180101_220000.002,0,RORS,,,,0,20180101220000,-1,-1,-1,-1,70,-1,12,-1,-1,-1,-1,,9999,0,0,1,FEW 41,1,17,1,9,1022,RORS 012200Z 07012KT 9999 FEW041 17/09 Q1022 RMK 1SC041 A3019=,
20180101_230000.002,0,RORS,,,,0,20180101230000,-1,-1,-1,-1,70,-1,14,-1,-1,-1,-1,,9999,0,0,1,FEW 41,1,18,1,9,1023,RORS 012300Z 07014KT 9999 FEW041 18/09 Q1023 RMK 1SC041 A3021=,
20180102_000000.003,0,RORS,,,,0,20180102000000,-1,-1,-1,-1,60,-1,16,-1,-1,-1,-1,,9999,0,0,1,FEW 41,1,20,1,11,1023,RORS 020000Z 06016KT 9999 FEW041 20/11 Q1023 RMK 1SC041 A3022=,
20180102_010000.003,0,RORS,,,,0,20180102010000,-1,-1,-1,-1,70,-1,17,-1,-1,-1,-1,,9999,0,0,1,FEW 41,1,21,1,11,1023,RORS 020100Z 07017KT 9999 FEW041 21/11 Q1023 RMK 1SC041 A3021=,
20180102_020000.002,0,RORS,,,,0,20180102020000,-1,-1,-1,-1,80,-1,17,-1,-1,-1,-1,,9999,0,0,1,FEW 41,1,21,1,10,1023,RORS 020200Z 08017KT 9999 FEW041 21/10 Q1023 RMK 1SC041 A3021=,
20180102_030000.002,0,RORS,,,,0,20180102030000,-1,-1,-1,-1,80,-1,16,-1,-1,-1,-1,,9999,0,0,1,FEW 41,1,21,1,11,1022,RORS 020300Z 08016KT 9999 FEW041 21/11 Q1022 RMK 1SC041 A3019=,
20180102_040000.002,0,RORS,,,,0,20180102040000,-1,-1,-1,-1,90,-1,16,-1,-1,-1,-1,,9999,0,0,1,FEW 42,1,23,1,12,1021,RORS 020400Z 09016KT 9999 FEW042 23/12 Q1021 RMK 2SC042 A3017=,
20180102_050000.002,0,RORS,,,,0,20180102050000,-1,-1,-1,-1,80,-1,14,-1,-1,-1,-1,,9999,0,0,1,FEW 40,1,22,1,12,1021,RORS 020500Z 08014KT 9999 FEW040 22/12 Q1021 RMK 2SC040 A3015=,
20180102_060000.002,0,RORS,,,,0,20180102060000,-1,-1,-1,-1,80,-1,16,-1,-1,-1,-1,,9999,0,0,1,SCT 40,1,22,1,12,1020,RORS 020600Z 08016KT 9999 SCT040 22/12 Q1020 RMK 3SC040 A3013=,
20180102_070000.002,0,RORS,,,,0,20180102070000,-1,-1,-1,-1,90,-1,14,-1,-1,-1,-1,,9999,0,0,1,FEW 41,1,21,1,11,1020,RORS 020700Z 09014KT 9999 FEW041 21/11 Q1020 RMK 2SC041 A3013=,
20180102_080000.002,0,RORS,,,,0,20180102080000,-1,-1,-1,-1,80,-1,14,-1,-1,-1,-1,,9999,0,0,1,FEW 40,1,20,1,11,1020,RORS 020800Z 08014KT 9999 FEW040 20/11 Q1020 RMK 2SC040 A3013=,
20180102_090000.002,0,RORS,,,,0,20180102090000,-1,-1,-1,-1,80,-1,14,-1,-1,-1,-1,,9999,0,0,1,FEW 39,1,19,1,11,1020,RORS 020900Z 08014KT 9999 FEW039 19/11 Q1020 RMK 2SC039 A3013=,
20180102_100000.002,0,RORS,,,,0,20180102100000,-1,-1,-1,-1,70,-1,13,-1,-1,-1,-1,,9999,0,0,1,FEW 39,1,19,1,12,1020,RORS 021000Z 07013KT 9999 FEW039 19/12 Q1020 RMK 1SC039 A3015=,
20180102_110000.002,0,RORS,,,,0,20180102110000,-1,-1,-1,-1,-1,-1,-1,-1,-1,-1,-1,,-1,0,0,0,,0,-1,0,-1,-1,RORS 021100Z NIL=,
20180102_220000.002,0,RORS,,,,0,20180102220000,-1,-1,-1,-1,80,-1,7,-1,-1,-1,-1,,9999,0,0,2,FEW 37   BKN 45,1,17,1,14,1021,RORS 022200Z 08007KT 9999 FEW037 BKN045 17/14 Q1021 RMK 2CU037     6SC045 A3016=,
20180102_230000.002,0,RORS,,,,0,20180102230000,-1,-1,-1,-1,90,-1,5,-1,-1,-1,-1,,9999,0,0,2,FEW 37   SCT -9999,1,17,1,13,1021,RORS 022300Z 09005KT 9999 FEW037 SCT/// 17/13 Q1021 RMK 1CU037     A3016=,
20180103_000000.002,0,RORS,,,,0,20180103000000,-1,-1,-1,-1,100,-1,5,-1,-1,-1,-1,,9999,0,0,1,FEW 37,1,20,1,14,1022,RORS 030000Z 10005KT 9999 FEW037 20/14 Q1022 RMK 1CU037 A3018=,
20180103_010000.002,0,RORS,,,,0,20180103010000,-1,-1,-1,-1,90,-1,10,-1,-1,-1,-1,,9999,0,0,1,FEW 38,1,22,1,12,1022,RORS 030100Z 09010KT 9999 FEW038 22/12 Q1022 RMK 1CU038 A3020=,
20180103_020000.002,0,RORS,,,,0,20180103020000,-1,-1,-1,-1,80,-1,11,-1,-1,-1,-1,,9999,0,0,1,FEW 41,1,23,1,12,1022,RORS 030200Z 08011KT 9999 FEW041 23/12 Q1022 RMK 2SC041 A3019=,
20180103_030000.003,0,RORS,,,,0,20180103030000,-1,-1,-1,-1,80,-1,9,-1,-1,-1,-1,,9999,0,0,1,FEW 43,1,23,1,11,1021,RORS 030300Z 08009KT 9999 FEW043 23/11 Q1021 RMK 2SC043 A3017=,
20180103_040000.002,0,RORS,,,,0,20180103040000,-1,-1,-1,-1,70,-1,11,-1,-1,-1,-1,,9999,0,0,1,FEW 42,1,23,1,12,1021,RORS 030400Z 07011KT 9999 FEW042 23/12 Q1021 RMK 2SC042 A3015=,
20180103_050000.002,0,RORS,,,,0,20180103050000,-1,-1,-1,-1,80,-1,12,-1,-1,-1,-1,,9999,0,0,2,FEW 40   SCT -9999,1,24,1,14,1020,RORS 030500Z 08012KT 9999 FEW040 SCT/// 24/14 Q1020 RMK 2SC040     A3012=,
20180103_060000.002,0,RORS,,,,0,20180103060000,-1,-1,-1,-1,90,-1,12,-1,-1,-1,-1,,9999,0,0,2,FEW 35   SCT -9999,1,22,1,13,1019,RORS 030600Z 09012KT 9999 FEW035 SCT/// 22/13 Q1019 RMK 2CU035     A3012=,
20180103_070000.002,0,RORS,,,,0,20180103070000,-1,-1,-1,-1,80,-1,13,-1,-1,-1,-1,,9999,0,0,2,SCT 33   SCT -9999,1,23,1,14,1019,RORS 030700Z 08013KT 9999 SCT033 SCT/// 23/14 Q1019 RMK 3CU033     A3011=,
20180103_080000.002,0,RORS,,,,0,20180103080000,-1,-1,-1,-1,80,-1,13,-1,-1,-1,-1,,9999,0,0,1,SCT 30,1,21,1,14,1019,RORS 030800Z 08013KT 9999 SCT030 21/14 Q1019 RMK 3CU030 A3011=,
20180103_090000.002,0,RORS,,,,0,20180103090000,-1,-1,-1,-1,70,-1,14,-1,-1,-1,-1,,9999,0,0,1,SCT 29,1,20,1,14,1019,RORS 030900Z 07014KT 9999 SCT029 20/14 Q1019 RMK 3CU029 A3011=,
20180103_100000.002,0,RORS,,,,0,20180103100000,-1,-1,-1,-1,100,-1,10,-1,-1,-1,-1,,9999,0,0,2,SCT 35   BKN 46,1,21,1,14,1020,RORS 031000Z 10010KT 9999 SCT035 BKN046 21/14 Q1020 RMK 4CU035     5SC046 A3013=,
20180103_110000.002,0,RORS,,,,0,20180103110000,-1,-1,-1,-1,-1,-1,-1,-1,-1,-1,-1,,-1,0,0,0,,0,-1,0,-1,-1,RORS 031100Z NIL=,
20180103_220000.002,0,RORS,,,,0,20180103220000,-1,-1,-1,-1,120,-1,7,-1,-1,-1,-1,,9999,0,0,2,FEW 30   BKN -9999,1,17,1,14,1019,RORS 032200Z 12007KT 9999 FEW030 BKN/// 17/14 Q1019 RMK 1CU030     A3011=,
20180103_230000.002,0,RORS,,,,0,20180103230000,-1,-1,-1,-1,110,-1,8,-1,-1,-1,-1,,9999,0,0,2,FEW 25   BKN -9999,1,19,1,14,1019,RORS 032300Z 11008KT 9999 FEW025 BKN/// 19/14 Q1019 RMK 1CU025     A3012=,
20180104_000000.002,0,RORS,,,,0,20180104000000,-1,-1,-1,-1,110,-1,9,-1,-1,-1,-1,,9999,0,0,2,FEW 40   SCT -9999,1,21,1,15,1020,RORS 040000Z 11009KT 9999 FEW040 SCT/// 21/15 Q1020 RMK 1SC040     A3012=,
20180104_010000.002,0,RORS,,,,0,20180104010000,-1,-1,-1,-1,120,-1,14,-1,-1,-1,-1,,9999,0,0,2,FEW 40   BKN -9999,1,23,1,15,1019,RORS 040100Z 12014KT 9999 FEW040 BKN/// 23/15 Q1019 RMK 1SC040     A3012=,
20180104_020000.002,0,RORS,,,,0,20180104020000,-1,-1,-1,-1,130,-1,15,-1,-1,-1,-1,,9999,0,0,2,FEW 35   BKN -9999,1,24,1,16,1019,RORS 040200Z 13015KT 9999 FEW035 BKN/// 24/16 Q1019 RMK 1CU035     A3011=,
20180104_030000.002,0,RORS,,,,0,20180104030000,-1,-1,-1,-1,140,-1,16,-1,-1,-1,-1,,9999,0,0,3,FEW 35   SCT 60   BKN -9999,1,23,1,15,1018,RORS 040300Z 14016KT 9999 FEW035 SCT060 BKN/// 23/15 Q1018 RMK     1CU035 4SC060 A3008=,
20180104_040000.002,0,RORS,,,,0,20180104040000,-1,-1,-1,-1,140,-1,16,-1,-1,-1,-1,,9999,0,0,2,FEW 35   BKN 50,1,23,1,15,1018,RORS 040400Z 14016KT 9999 FEW035 BKN050 23/15 Q1018 RMK 1CU035     7SC050 A3006=,
20180104_050000.002,0,RORS,,,,0,20180104050000,-1,-1,-1,-1,130,-1,14,-1,-1,-1,-1,,9999,0,0,2,FEW 35   BKN 50,1,24,1,16,1017,RORS 040500Z 13014KT 9999 FEW035 BKN050 24/16 Q1017 RMK 1CU035     6SC050 A3003=,
20180104_060000.003,0,RORS,,,,0,20180104060000,-1,-1,-1,-1,140,-1,15,-1,-1,-1,-1,,9999,0,0,2,FEW 35   BKN 50,1,23,1,16,1016,RORS 040600Z 14015KT 9999 FEW035 BKN050 23/16 Q1016 RMK 1CU035     7SC050 A3003=,
20180104_070000.002,0,RORS,,,,0,20180104070000,-1,-1,-1,-1,130,-1,13,-1,-1,-1,-1,,9999,0,0,2,FEW 35   BKN 50,1,22,1,16,1016,RORS 040700Z 13013KT 9999 FEW035 BKN050 22/16 Q1016 RMK 1CU035     7SC050 A3000=,
20180104_080000.002,0,RORS,,,,0,20180104080000,-1,-1,-1,-1,130,-1,14,-1,-1,-1,-1,,9999,0,0,3,FEW 35   BKN 50   BKN 190,1,22,1,16,1016,RORS 040800Z 13014KT 9999 FEW035 BKN050 BKN190 22/16 Q1016 RMK     1CU035 5SC050 7AC190 A3000=,
20180104_090000.002,0,RORS,,,,0,20180104090000,-1,-1,-1,-1,130,-1,14,-1,-1,-1,-1,,9999,0,0,3,FEW 30   SCT 60   BKN 150,1,22,1,17,1015,RORS 040900Z 13014KT 9999 FEW030 SCT060 BKN150 22/17 Q1015 RMK     1CU030 4SC060 7AC150 A3000=,
20180104_100000.002,0,RORS,,,,0,20180104100000,-1,-1,-1,-1,120,-1,10,-1,-1,-1,-1,,9999,0,0,3,FEW 24   BKN 70   BKN 170,1,22,1,17,1016,RORS 041000Z 12010KT 9999 FEW024 BKN070 BKN170 22/17 Q1016 RMK     1CU024 5AC070 7AC170 A3000=,
20180104_110000.002,0,RORS,,,,0,20180104110000,-1,-1,-1,-1,-1,-1,-1,-1,-1,-1,-1,,-1,0,0,0,,0,-1,0,-1,-1,RORS 041100Z NIL=,
20180104_220000.002,0,RORS,,,,0,20180104220000,-1,-1,-1,-1,240,-1,19,-1,-1,-1,-1,,9999,0,1,3,FEW 9   SCT 28   BKN 38,1,21,1,19,1013,RORS 042200Z 24019KT 9999 -SHRA FEW009 SCT028 BKN038 21/19     Q1013 RMK 1CU009 4CU028 7SC038 A2993=,- RA SH
20180104_230000.002,0,RORS,,,,0,20180104230000,-1,-1,-1,-1,270,-1,14,-1,-1,-1,-1,,3500,0,2,2,SCT 5   BKN 22,1,21,1,20,1014,RORS 042300Z 27014KT 3500 -SHRA BR SCT005 BKN022 21/20 Q1014     RMK 4ST005 6CU022 A2995=,- RA SH; BR
20180105_000000.002,0,RORS,,,,0,20180105000000,-1,-1,-1,-1,320,-1,19,-1,-1,-1,-1,,5000,0,1,2,SCT 11   BKN 22,1,20,1,19,1015,RORS 050000Z 32019KT 5000 -SHRA SCT011 BKN022 20/19 Q1015 RMK     4CU011 7CU022 A2998=,- RA SH
20180105_010000.003,0,RORS,,,,0,20180105010000,-1,-1,-1,-1,320,-1,20,-1,-1,-1,-1,,9999,0,1,2,FEW 20   BKN 40,1,21,1,18,1015,RORS 050100Z 32020KT 9999 -SHRA FEW020 BKN040 21/18 Q1015 RMK     2CU020 7SC040 A3000=,- RA SH
20180105_020000.002,0,RORS,,,,0,20180105020000,-1,-1,-1,-1,330,-1,18,-1,-1,-1,-1,,3000,0,2,2,FEW 13   BKN 22,1,20,1,19,1016,RORS 050200Z 33018KT 3000 -SHRA BR FEW013 BKN022 20/19 Q1016     RMK 2CU013 7CU022 A3001=,- RA SH; BR
20180105_030000.002,0,RORS,,,,0,20180105030000,-1,-1,-1,-1,350,-1,23,-1,-1,-1,-1,,9999,0,0,2,SCT 18   BKN 25,1,21,1,18,1015,RORS 050300Z 35023KT 9999 SCT018 BKN025 21/18 Q1015 RMK 3CU018     6CU025 A3000=,
20180105_040000.002,0,RORS,,,,0,20180105040000,-1,-1,-1,-1,350,-1,24,-1,-1,-1,-1,,9999,0,0,3,FEW 18   SCT 25   BKN 70,1,21,1,17,1015,RORS 050400Z 35024KT 9999 FEW018 SCT025 BKN070 21/17 Q1015 RMK     2CU018 3CU025 7AS070 A2997=,
20180105_050000.002,0,RORS,,,,0,20180105050000,-1,-1,-1,-1,350,-1,24,-1,-1,-1,-1,,9999,0,0,3,FEW 18   BKN 26   BKN 80,1,21,1,17,1014,RORS 050500Z 35024KT 9999 FEW018 BKN026 BKN080 21/17 Q1014 RMK     2CU018 5CU026 7AS080 A2996=,
20180105_060000.002,0,RORS,,,,0,20180105060000,-1,-1,-1,-1,10,-1,24,-1,-1,-1,-1,,9999,0,1,2,FEW 20   BKN 25,1,20,1,17,1014,RORS 050600Z 01024KT 9999 -SHRA FEW020 BKN025 20/17 Q1014 RMK     2CU020 7CU025 A2996=,- RA SH
20180105_070000.002,0,RORS,,,,0,20180105070000,-1,-1,-1,-1,10,-1,23,-1,-1,-1,-1,,9999,0,1,2,FEW 19   BKN 27,1,20,1,16,1014,RORS 050700Z 01023KT 9999 -SHRA FEW019 BKN027 20/16 Q1014 RMK     2CU019 7CU027 A2997=,- RA SH
20180105_080000.002,0,RORS,,,,0,20180105080000,-1,-1,-1,-1,10,-1,24,-1,-1,-1,-1,,9999,0,0,2,FEW 20   BKN 27,1,20,1,16,1015,RORS 050800Z 01024KT 9999 FEW020 BKN027 20/16 Q1015 RMK 2CU020     7CU027 A2998=,
20180105_090000.002,0,RORS,,,,0,20180105090000,-1,-1,-1,-1,10,-1,26,-1,-1,-1,-1,,9999,0,1,2,FEW 21   BKN 29,1,19,1,15,1015,RORS 050900Z 01026KT 9999 -SHRA FEW021 BKN029 19/15 Q1015 RMK     2CU021 7CU029 A2999=,- RA SH
20180105_100000.002,0,RORS,,,,0,20180105100000,-1,-1,-1,-1,20,-1,26,-1,-1,-1,-1,,9999,0,0,2,FEW 21   BKN 29,1,20,1,15,1015,RORS 051000Z 02026KT 9999 FEW021 BKN029 20/15 Q1015 RMK 2CU021     7CU029 A3000=,
20180105_110000.002,0,RORS,,,,0,20180105110000,-1,-1,-1,-1,-1,-1,-1,-1,-1,-1,-1,,-1,0,0,0,,0,-1,0,-1,-1,RORS 051100Z NIL=,
20180105_220000.002,0,RORS,,,,0,20180105220000,-1,-1,-1,-1,40,-1,18,-1,-1,-1,-1,,9999,0,0,2,SCT 29   BKN 35,1,19,1,13,1018,RORS 052200Z 04018KT 9999 SCT029 BKN035 19/13 Q1018 RMK 4CU029     7SC035 A3007=,
20180105_230000.002,0,RORS,,,,0,20180105230000,-1,-1,-1,-1,40,-1,18,-1,-1,-1,-1,,9999,0,0,2,FEW 31   BKN 35,1,19,1,12,1018,RORS 052300Z 04018KT 9999 FEW031 BKN035 19/12 Q1018 RMK 1CU031     6SC035 A3008=,
20180106_000000.002,0,RORS,,,,0,20180106000000,-1,-1,-1,-1,40,-1,18,-1,-1,-1,-1,,9999,0,0,2,SCT 30   BKN 35,1,19,1,13,1019,RORS 060000Z 04018KT 9999 SCT030 BKN035 19/13 Q1019 RMK 4CU030     7SC035 A3011=,
20180106_010000.002,0,RORS,,,,0,20180106010000,-1,-1,-1,-1,50,-1,17,-1,-1,-1,-1,,9999,0,0,2,SCT 30   BKN 37,1,19,1,12,1020,RORS 060100Z 05017KT 9999 SCT030 BKN037 19/12 Q1020 RMK 4CU030     7SC037 A3012=,
20180106_020000.002,0,RORS,,,,0,20180106020000,-1,-1,-1,-1,50,-1,17,-1,-1,-1,-1,,9999,0,0,2,SCT 30   BKN 35,1,19,1,12,1020,RORS 060200Z 05017KT 9999 SCT030 BKN035 19/12 Q1020 RMK 3CU030     7SC035 A3012=,
20180106_030000.002,0,RORS,,,,0,20180106030000,-1,-1,-1,-1,50,-1,17,-1,-1,-1,-1,,9999,0,0,3,FEW 31   SCT 40   BKN 120,1,21,1,13,1018,RORS 060300Z 05017KT 9999 FEW031 SCT040 BKN120 21/13 Q1018 RMK     1CU031 3SC040 7AC120 A3008=,
20180106_040000.002,0,RORS,,,,0,20180106040000,-1,-1,-1,-1,50,-1,16,-1,-1,-1,-1,,9999,0,0,3,FEW 31   SCT 40   BKN 70,1,20,1,13,1018,RORS 060400Z 05016KT 9999 FEW031 SCT040 BKN070 20/13 Q1018 RMK     1CU031 3SC040 6AS070 A3006=,
20180106_050000.002,0,RORS,,,,0,20180106050000,-1,-1,-1,-1,40,-1,18,-1,-1,-1,-1,,9999,0,0,2,SCT 28   BKN 70,1,20,1,13,1017,RORS 060500Z 04018KT 9999 SCT028 BKN070 20/13 Q1017 RMK 3CU028     6AS070 A3003=,
20180106_060000.002,0,RORS,,,,0,20180106060000,-1,-1,-1,-1,50,-1,17,-1,-1,-1,-1,,9999,0,0,2,FEW 29   BKN 60,1,20,1,13,1016,RORS 060600Z 05017KT 9999 FEW029 BKN060 20/13 Q1016 RMK 2CU029     6SC060 A3002=,
20180106_070000.002,0,RORS,,,,0,20180106070000,-1,-1,-1,-1,50,-1,17,-1,-1,-1,-1,,9999,0,0,2,FEW 30   BKN 90,1,19,1,13,1016,RORS 060700Z 05017KT 9999 FEW030 BKN090 19/13 Q1016 RMK 2CU030     7AC090 A3001=,
20180106_080000.002,0,RORS,,,,0,20180106080000,-1,-1,-1,-1,40,-1,17,-1,-1,-1,-1,,9999,0,0,2,FEW 33   BKN 60,1,17,1,14,1017,RORS 060800Z 04017KT 9999 FEW033 BKN060 17/14 Q1017 RMK 1CU033     6SC060 A3004=,
20180106_090000.002,0,RORS,,,,0,20180106090000,-1,-1,-1,-1,50,-1,17,-1,-1,-1,-1,,9999,0,1,3,FEW 18   BKN 50   BKN 70,1,17,1,14,1017,RORS 060900Z 05017KT 9999 -RA FEW018 BKN050 BKN070 17/14 Q1017     RMK 2CU018 5SC050 7AS070 A3004=,- RA
20180106_100000.002,0,RORS,,,,0,20180106100000,-1,-1,-1,-1,70,-1,15,-1,-1,-1,-1,,9999,0,1,3,FEW 18   BKN 39   BKN 60,1,17,1,14,1017,RORS 061000Z 07015KT 9999 -RA FEW018 BKN039 BKN060 17/14 Q1017     RMK 1CU018 5SC039 6SC060 A3005=,- RA
20180106_110000.002,0,RORS,,,,0,20180106110000,-1,-1,-1,-1,-1,-1,-1,-1,-1,-1,-1,,-1,0,0,0,,0,-1,0,-1,-1,RORS 061100Z NIL=,
20180106_220000.002,0,RORS,,,,0,20180106220000,-1,-1,-1,-1,60,-1,15,-1,-1,-1,-1,,6000,0,1,3,FEW 6   SCT 9   BKN 12,1,18,1,17,1017,RORS 062200Z 06015KT 6000 -SHRA FEW006 SCT009 BKN012 18/17     Q1017 RMK 1ST006 3ST009 5CU012 A3004=,- RA SH
20180106_230000.002,0,RORS,,,,0,20180106230000,-1,-1,-1,-1,70,-1,15,-1,-1,-1,-1,,6000,0,1,2,FEW 6   BKN 13,1,18,1,17,1017,RORS 062300Z 07015KT 6000 -SHRA FEW006 BKN013 18/17 Q1017 RMK     1ST006 7CU013 A3004=,- RA SH
20180107_000000.002,0,RORS,,,,0,20180107000000,-1,-1,-1,-1,70,-1,10,-1,-1,-1,-1,,6000,0,1,3,FEW 11   BKN 20   BKN 50,1,18,1,17,1018,RORS 070000Z 07010KT 6000 -SHRA FEW011 BKN020 BKN050 18/17     Q1018 RMK 1CU011 5CU020 7SC050 A3007=,- RA SH
20180107_010000.003,0,RORS,,,,0,20180107010000,-1,-1,-1,-1,80,-1,14,-1,-1,-1,-1,,9000,0,1,3,FEW 7   BKN 15   BKN 50,1,18,1,17,1018,RORS 070100Z 08014KT 9000 -SHRA FEW007 BKN015 BKN050 18/17     Q1018 RMK 1ST007 5CU015 7SC050 A3009=,- RA SH
20180107_020000.002,0,RORS,,,,0,20180107020000,-1,-1,-1,-1,80,-1,12,-1,-1,-1,-1,,7000,0,1,3,FEW 8   SCT 29   BKN 40,1,19,1,17,1018,RORS 070200Z 08012KT 7000 -RA FEW008 SCT029 BKN040 19/17 Q1018     RMK 1ST008 3CU029 7SC040 A3008=,- RA
20180107_030000.002,0,RORS,,,,0,20180107030000,-1,-1,-1,-1,80,-1,13,-1,-1,-1,-1,,7000,0,1,3,FEW 9   SCT 25   BKN 41,1,19,1,18,1018,RORS 070300Z 08013KT 7000 -RA FEW009 SCT025 BKN041 19/18 Q1018     RMK 1CU009 3CU025 7SC041 A3008=,- RA
20180107_040000.002,0,RORS,,,,0,20180107040000,-1,-1,-1,-1,80,-1,15,-1,-1,-1,-1,,8000,0,1,2,FEW 8   BKN 50,1,19,1,17,1017,RORS 070400Z 08015KT 8000 -RA FEW008 BKN050 19/17 Q1017 RMK     2ST008 7SC050 A3005=,- RA
20180107_050000.002,0,RORS,,,,0,20180107050000,-1,-1,-1,-1,80,-1,12,-1,-1,-1,-1,,9999,0,1,2,FEW 10   BKN 50,1,19,1,18,1017,RORS 070500Z 08012KT 9999 -RA FEW010 BKN050 19/18 Q1017 RMK     2CU010 7SC050 A3004=,- RA
20180107_060000.002,0,RORS,,,,0,20180107060000,-1,-1,-1,-1,90,-1,17,-1,-1,-1,-1,,9999,0,0,3,FEW 10   BKN 60   BKN 80,1,19,1,17,1016,RORS 070600Z 09017KT 9999 FEW010 BKN060 BKN080 19/17 Q1016 RMK     1CU010 5SC060 7AC080 A3002=,
20180107_070000.002,0,RORS,,,,0,20180107070000,-1,-1,-1,-1,100,-1,18,-1,-1,-1,-1,,9999,0,0,2,FEW 10   BKN 60,1,19,1,17,1015,RORS 070700Z 10018KT 9999 FEW010 BKN060 19/17 Q1015 RMK 1CU010     7SC060 A3000=,
20180107_080000.002,0,RORS,,,,0,20180107080000,-1,-1,-1,-1,100,-1,16,-1,-1,-1,-1,,9999,0,1,2,FEW 10   BKN 50,1,19,1,17,1016,RORS 070800Z 10016KT 9999 VCSH FEW010 BKN050 19/17 Q1016 RMK     1CU010 7SC050 A3002=,VC SH
20180107_090000.002,0,RORS,,,,0,20180107090000,-1,-1,-1,-1,100,-1,14,-1,-1,-1,-1,,9999,0,0,2,FEW 10   BKN 50,1,20,1,17,1017,RORS 070900Z 10014KT 9999 FEW010 BKN050 20/17 Q1017 RMK 1CU010     7SC050 A3004=,
20180107_100000.002,0,RORS,,,,0,20180107100000,-1,-1,-1,-1,100,-1,17,-1,-1,-1,-1,,9999,0,0,2,FEW 10   BKN 50,1,20,1,17,1016,RORS 071000Z 10017KT 9999 FEW010 BKN050 20/17 Q1016 RMK 1CU010     7SC050 A3003=,
20180107_110000.002,0,RORS,,,,0,20180107110000,-1,-1,-1,-1,-1,-1,-1,-1,-1,-1,-1,,-1,0,0,0,,0,-1,0,-1,-1,RORS 071100Z NIL=,
20180107_220000.002,0,RORS,,,,0,20180107220000,-1,-1,-1,-1,170,-1,12,-1,-1,-1,-1,,9999,0,1,1,BKN 12,1,22,1,20,1013,RORS 072200Z 17012KT 9999 -SHRA BKN012 22/20 Q1013 RMK 7CU012     A2992=,- RA SH
20180107_230000.002,0,RORS,,,,0,20180107230000,-1,-1,-1,-1,160,-1,15,-1,-1,-1,-1,,9999,0,1,2,FEW 10   BKN 80,1,22,1,20,1012,RORS 072300Z 16015KT 9999 VCSH FEW010 BKN080 22/20 Q1012 RMK     2CU010 7AC080 A2991=,VC SH
20180108_000000.002,0,RORS,,,,0,20180108000000,-1,-1,-1,-1,160,-1,14,-1,-1,-1,-1,,9999,0,0,2,FEW 9   BKN 80,1,22,1,21,1012,RORS 080000Z 16014KT 9999 FEW009 BKN080 22/21 Q1012 RMK 1CU009     7AC080 A2990=,
20180108_010000.002,0,RORS,,,,0,20180108010000,-1,-1,-1,-1,170,-1,14,-1,-1,-1,-1,,9999,0,0,2,FEW 8   BKN 70,1,23,1,21,1012,RORS 080100Z 17014KT 9999 FEW008 BKN070 23/21 Q1012 RMK 1ST008     6AC070 A2990=,
20180108_020000.002,0,RORS,,,,0,20180108020000,-1,-1,-1,-1,170,-1,15,-1,-1,-1,-1,,9999,0,0,2,FEW 7   BKN 70,1,24,1,22,1011,RORS 080200Z 17015KT 9999 FEW007 BKN070 24/22 Q1011 RMK 1ST007     6AC070 A2988=,
20180108_030000.002,0,RORS,,,,0,20180108030000,-1,-1,-1,-1,180,-1,18,-1,-1,-1,-1,,9999,0,0,3,FEW 7   SCT 41   BKN 70,1,23,1,21,1010,RORS 080300Z 18018KT 9999 FEW007 SCT041 BKN070 23/21 Q1010 RMK     2ST007 4SC041 6AC070 A2984=,
20180108_040000.002,0,RORS,,,,0,20180108040000,-1,-1,-1,-1,190,-1,13,-1,-1,-1,-1,,9999,0,1,3,FEW 8   SCT 35   BKN 45,1,24,1,22,1009,RORS 080400Z 19013KT 9999 VCSH FEW008 SCT035 BKN045 24/22     Q1009 RMK 2ST008 4SC035 6SC045 A2982=,VC SH
20180108_050000.002,0,RORS,,,,0,20180108050000,-1,-1,-1,-1,270,-1,19,-1,-1,-1,-1,,3500,1,1,3,FEW 4   SCT 15   BKN 28,1,21,1,20,1010,RORS 080500Z 27019KT 3500 R35/1300VP1800U SHRA FEW004 SCT015     BKN028 21/20 Q1010 RMK 1ST004 4CU015 7CU028 A2983=,RA SH
20180108_060000.003,0,RORS,,,,0,20180108060000,-1,-1,-1,-1,290,-1,13,-1,-1,-1,-1,,9999,0,1,2,FEW 8   BKN 47,1,22,1,20,1010,RORS 080600Z 29013KT 9999 VCSH FEW008 BKN047 22/20 Q1010 RMK     1ST008 7SC047 A2982=,VC SH
20180108_070000.002,0,RORS,,,,0,20180108070000,-1,-1,-1,-1,340,-1,25,-1,-1,-1,-1,,9999,0,1,3,FEW 9   SCT 15   BKN 45,1,21,1,19,1010,RORS 080700Z 34025KT 9999 -RA FEW009 SCT015 BKN045 21/19 Q1010     RMK 1CU009 3CU015 7SC045 A2984=,- RA
20180108_080000.002,0,RORS,,,,0,20180108080000,-1,-1,-1,-1,350,-1,21,-1,-1,-1,-1,,9999,0,1,3,FEW 10   SCT 15   BKN 45,1,20,1,19,1011,RORS 080800Z 35021KT 9999 -SHRA FEW010 SCT015 BKN045 20/19     Q1011 RMK 2CU010 4CU015 7SC045 A2988=,- RA SH
20180108_090000.002,0,RORS,,,,0,20180108090000,-1,-1,-1,-1,350,-1,19,-1,-1,-1,-1,,9999,0,1,3,FEW 11   BKN 20   BKN 70,1,20,1,18,1011,RORS 080900Z 35019KT 9999 -SHRA FEW011 BKN020 BKN070 20/18     Q1011 RMK 2CU011 5CU020 7AS070 A2988=,- RA SH
20180108_100000.002,0,RORS,,,,0,20180108100000,-1,-1,-1,-1,350,-1,20,-1,-1,-1,-1,,9999,0,1,2,SCT 13   BKN 70,1,20,1,18,1013,RORS 081000Z 35020KT 9999 -SHRA SCT013 BKN070 20/18 Q1013 RMK     3CU013 7AS070 A2992=,- RA SH
20180108_110000.002,0,RORS,,,,0,20180108110000,-1,-1,-1,-1,-1,-1,-1,-1,-1,-1,-1,,-1,0,0,0,,0,-1,0,-1,-1,RORS 081100Z NIL=,
20180108_220000.002,0,RORS,,,,0,20180108220000,-1,-1,-1,-1,360,-1,29,-1,-1,-1,-1,,9999,0,0,2,SCT 21   BKN 30,1,15,1,12,1020,RORS 082200Z 36029KT 9999 SCT021 BKN030 15/12 Q1020 RMK 4CU021     7CU030 A3013=,
20180108_230000.003,0,RORS,,,,0,20180108230000,-1,-1,-1,-1,10,-1,27,-1,-1,-1,-1,,9999,0,1,2,SCT 20   BKN 30,1,15,1,11,1020,RORS 082300Z 01027KT 9999 -SHRA SCT020 BKN030 15/11 Q1020 RMK     4CU020 6CU030 A3015=,- RA SH
20180109_000000.002,0,RORS,,,,0,20180109000000,-1,-1,-1,-1,360,-1,25,-1,-1,-1,-1,,9999,0,1,2,SCT 20   BKN 30,1,14,1,11,1021,RORS 090000Z 36025KT 9999 -SHRA SCT020 BKN030 14/11 Q1021 RMK     4CU020 7CU030 A3016=,- RA SH
20180109_010000.002,0,RORS,,,,0,20180109010000,-1,-1,-1,-1,360,-1,25,-1,-1,-1,-1,,9999,0,1,2,BKN 20   BKN 30,1,14,1,11,1022,RORS 090100Z 36025KT 9999 -SHRA BKN020 BKN030 14/11 Q1022 RMK     5CU020 7CU030 A3018=,- RA SH
20180109_020000.002,0,RORS,,,,0,20180109020000,-1,-1,-1,-1,360,-1,24,-1,-1,-1,-1,,9999,0,1,2,SCT 23   BKN 30,1,14,1,10,1021,RORS 090200Z 36024KT 9999 -SHRA SCT023 BKN030 14/10 Q1021 RMK     3CU023 6CU030 A3018=,- RA SH
20180109_030000.002,0,RORS,,,,0,20180109030000,-1,-1,-1,-1,350,-1,23,-1,-1,-1,-1,,9999,0,1,2,SCT 25   BKN 35,1,14,1,9,1021,RORS 090300Z 35023KT 9999 -SHRA SCT025 BKN035 14/09 Q1021 RMK     3CU025 7SC035 A3016=,- RA SH
20180109_040000.002,0,RORS,,,,0,20180109040000,-1,-1,-1,-1,360,-1,23,-1,-1,-1,-1,,9999,0,1,3,SCT 30   BKN 38   BKN 90,1,15,1,8,1020,RORS 090400Z 36023KT 9999 -SHRA SCT030 BKN038 BKN090 15/08     Q1020 RMK 3CU030 6SC038 7AC090 A3012=,- RA SH
20180109_050000.002,0,RORS,,,,0,20180109050000,-1,-1,-1,-1,360,-1,25,-1,-1,-1,-1,,9999,0,0,3,FEW 30   SCT 39   BKN 80,1,14,1,9,1019,RORS 090500Z 36025KT 9999 FEW030 SCT039 BKN080 14/09 Q1019 RMK     2CU030 4SC039 7AC080 A3009=,
20180109_060000.002,0,RORS,,,,0,20180109060000,-1,-1,-1,-1,350,-1,23,-1,-1,-1,-1,,9999,0,0,3,FEW 30   SCT 41   BKN 80,1,14,1,8,1019,RORS 090600Z 35023KT 9999 FEW030 SCT041 BKN080 14/08 Q1019 RMK     2CU030 4SC041 7AC080 A3010=,
20180109_070000.002,0,RORS,,,,0,20180109070000,-1,-1,-1,-1,360,-1,22,-1,-1,-1,-1,,9999,0,1,3,FEW 31   BKN 39   BKN 80,1,14,1,7,1019,RORS 090700Z 36022KT 9999 -SHRA FEW031 BKN039 BKN080 14/07     Q1019 RMK 2CU031 5SC039 7AS080 A3010=,- RA SH
20180109_080000.002,0,RORS,,,,0,20180109080000,-1,-1,-1,-1,360,-1,24,-1,-1,-1,-1,,9999,0,0,3,FEW 30   BKN 40   BKN 90,1,14,1,7,1019,RORS 090800Z 36024KT 9999 FEW030 BKN040 BKN090 14/07 Q1019 RMK     2CU030 5SC040 7AC090 A3010=,
20180109_090000.002,0,RORS,,,,0,20180109090000,-1,-1,-1,-1,10,-1,21,-1,-1,-1,-1,,9999,0,0,3,FEW 32   SCT 40   BKN 90,1,14,1,8,1021,RORS 090900Z 01021KT 9999 FEW032 SCT040 BKN090 14/08 Q1021 RMK     2CU032 4SC040 7AC090 A3015=,
20180109_100000.002,0,RORS,,,,0,20180109100000,-1,-1,-1,-1,360,-1,20,-1,-1,-1,-1,,9999,0,0,3,SCT 30   BKN 39   BKN 90,1,14,1,8,1021,RORS 091000Z 36020KT 9999 SCT030 BKN039 BKN090 14/08 Q1021 RMK     3CU030 5SC039 7AC090 A3016=,
20180109_110000.002,0,RORS,,,,0,20180109110000,-1,-1,-1,-1,-1,-1,-1,-1,-1,-1,-1,,-1,0,0,0,,0,-1,0,-1,-1,RORS 091100Z NIL=,
20180109_220000.002,0,RORS,,,,0,20180109220000,-1,-1,-1,-1,360,-1,22,-1,-1,-1,-1,,9999,0,1,2,SCT 34   BKN 90,1,14,1,9,1023,RORS 092200Z 36022KT 9999 -SHRA SCT034 BKN090 14/09 Q1023 RMK     4CU034 7AS090 A3022=,- RA SH
20180109_230000.002,0,RORS,,,,0,20180109230000,-1,-1,-1,-1,10,-1,20,-1,-1,-1,-1,,9999,0,1,2,SCT 40   BKN 90,1,15,1,7,1023,RORS 092300Z 01020KT 9999 VCSH SCT040 BKN090 15/07 Q1023 RMK     4SC040 6AS090 A3023=,VC SH
20180110_000000.002,0,RORS,,,,0,20180110000000,-1,-1,-1,-1,360,-1,19,-1,-1,-1,-1,,9999,0,0,3,FEW 33   SCT 40   BKN 120,1,15,1,8,1024,RORS 100000Z 36019KT 9999 FEW033 SCT040 BKN120 15/08 Q1024 RMK     1CU033 4SC040 7AS120 A3026=,
20180110_010000.002,0,RORS,,,,0,20180110010000,-1,-1,-1,-1,10,-1,17,-1,-1,-1,-1,,9999,0,0,2,SCT 38   BKN 90,1,15,1,7,1024,RORS 100100Z 01017KT 9999 SCT038 BKN090 15/07 Q1024 RMK 4SC038     7AS090 A3026=,
20180110_020000.002,0,RORS,,,,0,20180110020000,-1,-1,-1,-1,360,-1,15,-1,-1,-1,-1,,9999,0,0,2,SCT 40   BKN 110,1,15,1,6,1024,RORS 100200Z 36015KT 9999 SCT040 BKN110 15/06 Q1024 RMK 3SC040     7AS110 A3026=,
20180110_030000.002,0,RORS,,,,0,20180110030000,-1,-1,-1,-1,350,-1,18,-1,-1,-1,-1,,9999,0,0,2,SCT 39   BKN 110,1,16,1,7,1024,RORS 100300Z 35018KT 9999 SCT039 BKN110 16/07 Q1024 RMK 4SC039     6AS110 A3024=,
20180110_040000.003,0,RORS,,,,0,20180110040000,-1,-1,-1,-1,360,-1,19,-1,-1,-1,-1,,9999,0,0,3,SCT 39   BKN 50   BKN 130,1,16,1,7,1023,RORS 100400Z 36019KT 9999 SCT039 BKN050 BKN130 16/07 Q1023 RMK     3SC039 5SC050 7AS130 A3021=,
20180110_050000.002,0,RORS,,,,0,20180110050000,-1,-1,-1,-1,360,-1,19,-1,-1,-1,-1,,9999,0,0,3,SCT 39   BKN 50   BKN 120,1,15,1,7,1022,RORS 100500Z 36019KT 9999 SCT039 BKN050 BKN120 15/07 Q1022 RMK     4SC039 5SC050 7AS120 A3019=,
20180110_060000.002,0,RORS,,,,0,20180110060000,-1,-1,-1,-1,350,-1,20,-1,-1,-1,-1,,9999,0,0,2,FEW 35   BKN 49,1,15,1,8,1022,RORS 100600Z 35020KT 9999 FEW035 BKN049 15/08 Q1022 RMK 2CU035     6SC049 A3018=,
20180110_070000.002,0,RORS,,,,0,20180110070000,-1,-1,-1,-1,350,-1,22,-1,-1,-1,-1,,9999,0,0,2,SCT 35   BKN 49,1,15,1,7,1022,RORS 100700Z 35022KT 9999 SCT035 BKN049 15/07 Q1022 RMK 3CU035     6SC049 A3019=,
20180110_080000.002,0,RORS,,,,0,20180110080000,-1,-1,-1,-1,360,-1,21,-1,-1,-1,-1,,9999,0,0,3,FEW 39   BKN 50   BKN 130,1,15,1,7,1023,RORS 100800Z 36021KT 9999 FEW039 BKN050 BKN130 15/07 Q1023 RMK     1SC039 5SC050 7AS130 A3021=,
20180110_090000.002,0,RORS,,,,0,20180110090000,-1,-1,-1,-1,10,-1,22,-1,-1,-1,-1,,9999,0,0,2,SCT 40   BKN 150,1,14,1,6,1023,RORS 100900Z 01022KT 9999 SCT040 BKN150 14/06 Q1023 RMK 3SC040     7AC150 A3021=,
20180110_100000.002,0,RORS,,,,0,20180110100000,-1,-1,-1,-1,350,-1,21,-1,-1,-1,-1,,9999,0,0,3,FEW 45   SCT 50   BKN 150,1,14,1,6,1023,RORS 101000Z 35021KT 9999 FEW045 SCT050 BKN150 14/06 Q1023 RMK     1SC045 4SC050 7AC150 A3023=,
20180110_110000.002,0,RORS,,,,0,20180110110000,-1,-1,-1,-1,-1,-1,-1,-1,-1,-1,-1,,-1,0,0,0,,0,-1,0,-1,-1,RORS 101100Z NIL=,
20180110_220000.002,0,RORS,,,,0,20180110220000,-1,-1,-1,-1,10,-1,24,-1,-1,-1,-1,,9999,0,0,2,FEW 42   BKN 50,1,13,1,4,1025,RORS 102200Z 01024KT 9999 FEW042 BKN050 13/04 Q1025 RMK 2SC042     6SC050 A3029=,
20180110_230000.003,0,RORS,,,,0,20180110230000,-1,-1,-1,-1,20,-1,23,-1,-1,-1,-1,,9999,0,0,2,SCT 42   BKN 60,1,13,1,5,1025,RORS 102300Z 02023KT 9999 SCT042 BKN060 13/05 Q1025 RMK 3SC042     6SC060 A3028=,
20180111_000000.002,0,RORS,,,,0,20180111000000,-1,-1,-1,-1,10,-1,20,-1,-1,-1,-1,,9999,0,0,2,FEW 42   BKN 50,1,14,1,4,1027,RORS 110000Z 01020KT 9999 FEW042 BKN050 14/04 Q1027 RMK 2SC042     6SC050 A3033=,
20180111_010000.002,0,RORS,,,,0,20180111010000,-1,-1,-1,-1,20,-1,19,-1,-1,-1,-1,,9999,0,0,2,FEW 45   BKN 60,1,15,1,5,1026,RORS 110100Z 02019KT 9999 FEW045 BKN060 15/05 Q1026 RMK 2SC045     6SC060 A3032=,
20180111_020000.002,0,RORS,,,,0,20180111020000,-1,-1,-1,-1,10,-1,22,-1,-1,-1,-1,,9999,0,0,2,FEW 43   BKN 50,1,15,1,6,1026,RORS 110200Z 01022KT 9999 FEW043 BKN050 15/06 Q1026 RMK 2SC043     6SC050 A3031=,
20180111_030000.001,0,RORS,,,,0,20180111030000,-1,-1,-1,-1,10,-1,20,-1,-1,-1,-1,,9999,0,0,2,SCT 41   BKN 50,1,14,1,6,1026,RORS 110300Z 01020KT 9999 SCT041 BKN050 14/06 Q1026 RMK 3SC041     7SC050 A3030=,
20180111_040000.002,0,RORS,,,,0,20180111040000,-1,-1,-1,-1,360,-1,25,-1,-1,-1,-1,,9999,0,0,2,SCT 41   BKN 50,1,14,1,5,1025,RORS 110400Z 36025KT 9999 SCT041 BKN050 14/05 Q1025 RMK 4SC041     7SC050 A3028=,
20180111_050000.002,0,RORS,,,,0,20180111050000,-1,-1,-1,-1,360,-1,23,-1,-1,-1,-1,,9999,0,0,2,SCT 41   BKN 60,1,15,1,5,1024,RORS 110500Z 36023KT 9999 SCT041 BKN060 15/05 Q1024 RMK 4SC041     7SC060 A3026=,
20180111_060000.002,0,RORS,,,,0,20180111060000,-1,-1,-1,-1,360,-1,25,-1,-1,-1,-1,,9999,0,0,2,SCT 44   BKN 50,1,15,1,5,1023,RORS 110600Z 36025KT 9999 SCT044 BKN050 15/05 Q1023 RMK 4SC044     6SC050 A3023=,
20180111_070000.002,0,RORS,,,,0,20180111070000,-1,-1,-1,-1,360,-1,26,-1,-1,-1,-1,,9999,0,0,2,SCT 44   BKN 150,1,14,1,4,1023,RORS 110700Z 36026KT 9999 SCT044 BKN150 14/04 Q1023 RMK 3SC044     5AC150 A3023=,
20180111_080000.002,0,RORS,,,,0,20180111080000,-1,-1,-1,-1,10,-1,25,-1,-1,-1,-1,,9999,0,0,2,SCT 44   BKN 140,1,14,1,6,1024,RORS 110800Z 01025KT 9999 SCT044 BKN140 14/06 Q1024 RMK 4SC044     7AC140 A3026=,
20180111_090000.002,0,RORS,,,,0,20180111090000,-1,-1,-1,-1,360,-1,25,-1,-1,-1,-1,,9999,0,0,3,SCT 41   BKN 50   BKN 150,1,14,1,4,1025,RORS 110900Z 36025KT 9999 SCT041 BKN050 BKN150 14/04 Q1025 RMK     3SC041 5SC050 7AC150 A3028=,
20180111_100000.002,0,RORS,,,,0,20180111100000,-1,-1,-1,-1,360,-1,27,-1,38,-1,-1,,9999,0,0,2,SCT 42   BKN 150,1,13,1,5,1025,RORS 111000Z 36027G38KT 9999 SCT042 BKN150 13/05 Q1025 RMK     4SC042 7AC150 A3029=,
20180111_110000.002,0,RORS,,,,0,20180111110000,-1,-1,-1,-1,-1,-1,-1,-1,-1,-1,-1,,-1,0,0,0,,0,-1,0,-1,-1,RORS 111100Z NIL=,
20180111_220000.002,0,RORS,,,,0,20180111220000,-1,-1,-1,-1,10,-1,25,-1,-1,-1,-1,,9999,0,0,2,FEW 40   BKN 50,1,14,1,6,1027,RORS 112200Z 01025KT 9999 FEW040 BKN050 14/06 Q1027 RMK 1SC040     6SC050 A3033=,
20180111_230000.002,0,RORS,,,,0,20180111230000,-1,-1,-1,-1,360,-1,24,-1,-1,-1,-1,,9999,0,0,2,FEW 44   BKN 60,1,14,1,5,1027,RORS 112300Z 36024KT 9999 FEW044 BKN060 14/05 Q1027 RMK 2SC044     6SC060 A3034=,
20180112_000000.002,0,RORS,,,,0,20180112000000,-1,-1,-1,-1,360,-1,24,-1,-1,-1,-1,,9999,0,0,2,SCT 45   BKN 50,1,14,1,5,1027,RORS 120000Z 36024KT 9999 SCT045 BKN050 14/05 Q1027 RMK 4SC045     6SC050 A3035=,
20180112_010000.003,0,RORS,,,,0,20180112010000,-1,-1,-1,-1,360,-1,21,-1,-1,-1,-1,,9999,0,0,2,SCT 46   BKN 70,1,14,1,4,1028,RORS 120100Z 36021KT 9999 SCT046 BKN070 14/04 Q1028 RMK 4SC046     6AC070 A3037=,
20180112_020000.002,0,RORS,,,,0,20180112020000,-1,-1,-1,-1,10,-1,23,-1,-1,-1,-1,,9999,0,1,2,SCT 41   BKN 50,1,14,1,4,1028,RORS 120200Z 01023KT 9999 -RA SCT041 BKN050 14/04 Q1028 RMK     4SC041 7SC050 A3036=,- RA
20180112_030000.002,0,RORS,,,,0,20180112030000,-1,-1,-1,-1,10,-1,26,-1,-1,-1,-1,,9999,0,1,3,FEW 35   SCT 44   BKN 60,1,14,1,5,1027,RORS 120300Z 01026KT 9999 -RA FEW035 SCT044 BKN060 14/05 Q1027     RMK 1SC035 4SC044 7SC060 A3034=,- RA
20180112_040000.002,0,RORS,,,,0,20180112040000,-1,-1,-1,-1,360,-1,24,-1,-1,-1,-1,,9999,0,1,2,SCT 39   BKN 50,1,13,1,5,1026,RORS 120400Z 36024KT 9999 -RA SCT039 BKN050 13/05 Q1026 RMK     4SC039 6SC050 A3032=,- RA
20180112_050000.003,0,RORS,,,,0,20180112050000,-1,-1,-1,-1,350,-1,22,-1,-1,-1,-1,,9999,0,0,2,SCT 40   BKN 60,1,14,1,5,1026,RORS 120500Z 35022KT 9999 SCT040 BKN060 14/05 Q1026 RMK 4SC040     6SC060 A3030=,
20180112_060000.002,0,RORS,,,,0,20180112060000,-1,-1,-1,-1,360,-1,22,-1,-1,-1,-1,,9999,0,0,2,SCT 41   BKN 50,1,14,1,5,1025,RORS 120600Z 36022KT 9999 SCT041 BKN050 14/05 Q1025 RMK 4SC041     6SC050 A3029=,
20180112_070000.003,0,RORS,,,,0,20180112070000,-1,-1,-1,-1,350,-1,22,-1,-1,-1,-1,,9999,0,0,2,FEW 45   BKN 50,1,14,1,3,1025,RORS 120700Z 35022KT 9999 FEW045 BKN050 14/03 Q1025 RMK 2SC045     5SC050 A3029=,
20180112_080000.002,0,RORS,,,,0,20180112080000,-1,-1,-1,-1,10,-1,22,-1,-1,-1,-1,,9999,0,0,2,SCT 43   BKN 50,1,14,1,4,1025,RORS 120800Z 01022KT 9999 SCT043 BKN050 14/04 Q1025 RMK 3SC043     6SC050 A3029=,
20180112_090000.002,0,RORS,,,,0,20180112090000,-1,-1,-1,-1,360,-1,25,-1,-1,-1,-1,,9999,0,0,2,FEW 39   BKN 47,1,13,1,6,1026,RORS 120900Z 36025KT 9999 FEW039 BKN047 13/06 Q1026 RMK 2SC039     5SC047 A3030=,
20180112_100000.002,0,RORS,,,,0,20180112100000,-1,-1,-1,-1,10,-1,22,-1,-1,-1,-1,,9999,0,0,2,SCT 40   BKN 50,1,13,1,5,1026,RORS 121000Z 01022KT 9999 SCT040 BKN050 13/05 Q1026 RMK 3SC040     6SC050 A3032=,
20180112_110000.002,0,RORS,,,,0,20180112110000,-1,-1,-1,-1,-1,-1,-1,-1,-1,-1,-1,,-1,0,0,0,,0,-1,0,-1,-1,RORS 121100Z NIL=,
20180112_220000.002,0,RORS,,,,0,20180112220000,-1,-1,-1,-1,30,-1,19,-1,-1,-1,-1,,9999,0,1,2,SCT 34   BKN 44,1,12,1,6,1027,RORS 122200Z 03019KT 9999 -SHRA SCT034 BKN044 12/06 Q1027 RMK     3CU034 5SC044 A3034=,- RA SH
20180112_230000.002,0,RORS,,,,0,20180112230000,-1,-1,-1,-1,10,-1,19,-1,-1,-1,-1,,9999,0,0,2,FEW 38   SCT 50,1,13,1,7,1027,RORS 122300Z 01019KT 9999 FEW038 SCT050 13/07 Q1027 RMK 2SC038     4SC050 A3035=,
20180113_000000.002,0,RORS,,,,0,20180113000000,-1,-1,-1,-1,30,-1,19,-1,-1,-1,-1,,9999,0,1,1,SCT 44,1,14,1,6,1028,RORS 130000Z 03019KT 9999 VCSH SCT044 14/06 Q1028 RMK 4SC044     A3037=,VC SH
20180113_010000.003,0,RORS,,,,0,20180113010000,-1,-1,-1,-1,30,-1,21,-1,-1,-1,-1,,9999,0,0,1,FEW 37,1,15,1,7,1028,RORS 130100Z 03021KT 9999 FEW037 15/07 Q1028 RMK 2SC037 A3037=,
20180113_020000.002,0,RORS,,,,0,20180113020000,-1,-1,-1,-1,30,-1,23,-1,-1,-1,-1,,9999,0,0,1,FEW 30,1,16,1,8,1028,RORS 130200Z 03023KT 9999 FEW030 16/08 Q1028 RMK 1CU030 A3036=,
20180113_030000.002,0,RORS,,,,0,20180113030000,-1,-1,-1,-1,20,-1,20,-1,-1,-1,-1,,9999,0,0,1,FEW 33,1,17,1,8,1027,RORS 130300Z 02020KT 9999 FEW033 17/08 Q1027 RMK 1CU033 A3035=,
20180113_040000.002,0,RORS,,,,0,20180113040000,-1,-1,-1,-1,30,-1,19,-1,-1,-1,-1,,9999,0,1,2,FEW 31   SCT 60,1,17,1,8,1026,RORS 130400Z 03019KT 9999 VCSH FEW031 SCT060 17/08 Q1026 RMK     2CU031 3SC060 A3032=,VC SH
20180113_050000.002,0,RORS,,,,0,20180113050000,-1,-1,-1,-1,40,-1,18,-1,-1,-1,-1,,9999,0,0,2,SCT 38   BKN -9999,1,16,1,6,1026,RORS 130500Z 04018KT 9999 SCT038 BKN/// 16/06 Q1026 RMK 3CU038     A3030=,
20180113_060000.002,0,RORS,,,,0,20180113060000,-1,-1,-1,-1,40,-1,19,-1,-1,-1,-1,,9999,0,0,2,SCT 40   BKN -9999,1,17,1,7,1025,RORS 130600Z 04019KT 9999 SCT040 BKN/// 17/07 Q1025 RMK 4SC040     A3027=,
20180113_070000.002,0,RORS,,,,0,20180113070000,-1,-1,-1,-1,30,-1,20,-1,-1,-1,-1,,9999,0,0,2,FEW 40   BKN 50,1,17,1,8,1024,RORS 130700Z 03020KT 9999 FEW040 BKN050 17/08 Q1024 RMK 2SC040     5SC050 A3026=,
20180113_080000.002,0,RORS,,,,0,20180113080000,-1,-1,-1,-1,50,-1,19,-1,-1,-1,-1,,9999,0,0,1,SCT 42,1,16,1,7,1024,RORS 130800Z 05019KT 9999 SCT042 16/07 Q1024 RMK 3SC042 A3026=,
20180113_090000.002,0,RORS,,,,0,20180113090000,-1,-1,-1,-1,50,-1,18,-1,-1,-1,-1,,9999,0,0,1,SCT 37,1,16,1,6,1025,RORS 130900Z 05018KT 9999 SCT037 16/06 Q1025 RMK 3CU037 A3027=,
20180113_100000.002,0,RORS,,,,0,20180113100000,-1,-1,-1,-1,60,-1,21,-1,-1,-1,-1,,9999,0,1,2,FEW 35   SCT 60,1,16,1,8,1025,RORS 131000Z 06021KT 9999 VCSH FEW035 SCT060 16/08 Q1025 RMK     2CU035 3SC060 A3028=,VC SH
20180113_110000.002,0,RORS,,,,0,20180113110000,-1,-1,-1,-1,-1,-1,-1,-1,-1,-1,-1,,-1,0,0,0,,0,-1,0,-1,-1,RORS 131100Z NIL=,
20180113_220000.002,0,RORS,,,,0,20180113220000,-1,-1,-1,-1,70,-1,14,-1,-1,-1,-1,,9999,0,0,2,FEW 24   SCT 80,1,16,1,11,1023,RORS 132200Z 07014KT 9999 FEW024 SCT080 16/11 Q1023 RMK 1CU024     3AC080 A3023=,
20180113_230000.002,0,RORS,,,,0,20180113230000,-1,-1,-1,-1,90,-1,19,-1,-1,-1,-1,,9999,0,1,3,FEW 22   SCT 29   BKN 40,1,16,1,13,1024,RORS 132300Z 09019KT 9999 -SHRA FEW022 SCT029 BKN040 16/13     Q1024 RMK 2CU022 3CU029 5SC040 A3024=,- RA SH
20180114_000000.003,0,RORS,,,,0,20180114000000,-1,-1,-1,-1,80,-1,15,-1,-1,-1,-1,,9999,0,1,2,FEW 27   BKN 60,1,17,1,12,1024,RORS 140000Z 08015KT 9999 VCSH FEW027 BKN060 17/12 Q1024 RMK     1CU027 6SC060 A3025=,VC SH
20180114_010000.002,0,RORS,,,,0,20180114010000,-1,-1,-1,-1,90,-1,19,-1,-1,-1,-1,,9999,0,1,2,FEW 29   BKN 60,1,17,1,13,1024,RORS 140100Z 09019KT 9999 -RA FEW029 BKN060 17/13 Q1024 RMK     1CU029 5SC060 A3025=,- RA
20180114_020000.002,0,RORS,,,,0,20180114020000,-1,-1,-1,-1,70,-1,16,-1,-1,-1,-1,,9999,0,0,2,FEW 29   BKN 60,1,19,1,13,1023,RORS 140200Z 07016KT 9999 FEW029 BKN060 19/13 Q1023 RMK 1CU029     5SC060 A3023=,
20180114_030000.002,0,RORS,,,,0,20180114030000,-1,-1,-1,-1,70,-1,18,-1,-1,-1,-1,,9999,0,0,2,FEW 38   BKN 60,1,20,1,13,1022,RORS 140300Z 07018KT 9999 FEW038 BKN060 20/13 Q1022 RMK 1SC038     5SC060 A3020=,
20180114_040000.002,0,RORS,,,,0,20180114040000,-1,-1,-1,-1,100,-1,17,-1,-1,-1,-1,,9999,0,0,2,FEW 34   BKN 60,1,20,1,13,1022,RORS 140400Z 10017KT 9999 FEW034 BKN060 20/13 Q1022 RMK 2CU034     7SC060 A3018=,
20180114_050000.002,0,RORS,,,,0,20180114050000,-1,-1,-1,-1,90,-1,17,-1,-1,-1,-1,,9999,0,1,2,SCT 31   BKN 50,1,20,1,12,1020,RORS 140500Z 09017KT 9999 -SHRA SCT031 BKN050 20/12 Q1020 RMK     3CU031 6SC050 A3014=,- RA SH
20180114_060000.003,0,RORS,,,,0,20180114060000,-1,-1,-1,-1,70,-1,17,-1,-1,-1,-1,,9999,0,1,3,FEW 33   SCT 50   BKN 80,1,20,1,14,1020,RORS 140600Z 07017KT 9999 -SHRA FEW033 SCT050 BKN080 20/14     Q1020 RMK 2CU033 4SC050 6AC080 A3012=,- RA SH
20180114_070000.002,0,RORS,,,,0,20180114070000,-1,-1,-1,-1,80,-1,13,-1,-1,-1,-1,,9999,0,1,2,FEW 21   BKN 50,1,19,1,15,1019,RORS 140700Z 08013KT 9999 -SHRA FEW021 BKN050 19/15 Q1019 RMK     2CU021 5SC050 A3012=,- RA SH
20180114_080000.002,0,RORS,,,,0,20180114080000,-1,-1,-1,-1,90,-1,15,-1,-1,-1,-1,,9999,0,0,1,FEW 28,1,19,1,13,1020,RORS 140800Z 09015KT 9999 FEW028 19/13 Q1020 RMK 1CU028 A3013=,
20180114_090000.002,0,RORS,,,,0,20180114090000,-1,-1,-1,-1,80,-1,17,-1,-1,-1,-1,,9999,0,0,1,FEW 22,1,18,1,13,1020,RORS 140900Z 08017KT 9999 FEW022 18/13 Q1020 RMK 2CU022 A3012=,
20180114_100000.002,0,RORS,,,,0,20180114100000,-1,-1,-1,-1,90,-1,17,-1,-1,-1,-1,,9999,0,0,1,FEW 19,1,18,1,14,1020,RORS 141000Z 09017KT 9999 FEW019 18/14 Q1020 RMK 2CU019 A3013=,
20180114_110000.002,0,RORS,,,,0,20180114110000,-1,-1,-1,-1,-1,-1,-1,-1,-1,-1,-1,,-1,0,0,0,,0,-1,0,-1,-1,RORS 141100Z NIL=,
20180114_220000.002,0,RORS,,,,0,20180114220000,-1,-1,-1,-1,100,-1,5,-1,-1,-1,-1,,9999,0,0,2,FEW 30   BKN 160,1,16,1,14,1019,RORS 142200Z 10005KT 9999 FEW030 BKN160 16/14 Q1019 RMK 1CU030     6AC160 A3011=,
20180114_230000.002,0,RORS,,,,0,20180114230000,-1,-1,-1,-1,90,-1,11,-1,-1,-1,-1,,9999,0,0,3,FEW 30   SCT 50   BKN 160,1,18,1,15,1020,RORS 142300Z 09011KT 9999 FEW030 SCT050 BKN160 18/15 Q1020 RMK     1CU030 3SC050 6AC160 A3012=,
20180115_000000.002,0,RORS,,,,0,20180115000000,-1,-1,-1,-1,100,-1,13,-1,-1,-1,-1,,9999,0,0,2,FEW 28   BKN 160,1,21,1,15,1020,RORS 150000Z 10013KT 9999 FEW028 BKN160 21/15 Q1020 RMK 2CU028     6AC160 A3014=,
20180115_010000.002,0,RORS,,,,0,20180115010000,-1,-1,-1,-1,100,-1,16,-1,-1,-1,-1,,9999,0,0,2,FEW 28   BKN 150,1,21,1,15,1021,RORS 150100Z 10016KT 9999 FEW028 BKN150 21/15 Q1021 RMK 1CU028     6AC150 A3015=,
20180115_020000.002,0,RORS,,,,0,20180115020000,-1,-1,-1,-1,90,-1,16,-1,-1,-1,-1,,9999,0,0,2,SCT 27   BKN 160,1,23,1,16,1020,RORS 150200Z 09016KT 9999 SCT027 BKN160 23/16 Q1020 RMK 4CU027     5AC160 A3013=,
20180115_030000.002,0,RORS,,,,0,20180115030000,-1,-1,-1,-1,90,-1,20,-1,-1,-1,-1,,9999,0,0,2,SCT 31   SCT 160,1,22,1,15,1019,RORS 150300Z 09020KT 9999 SCT031 SCT160 22/15 Q1019 RMK 3CU031     4AC160 A3011=,
20180115_040000.002,0,RORS,,,,0,20180115040000,-1,-1,-1,-1,80,-1,19,-1,-1,-1,-1,,9999,0,0,2,FEW 32   SCT 160,1,23,1,14,1018,RORS 150400Z 08019KT 9999 FEW032 SCT160 23/14 Q1018 RMK 2CU032     4AC160 A3008=,
20180115_050000.002,0,RORS,,,,0,20180115050000,-1,-1,-1,-1,100,-1,19,-1,-1,-1,-1,,9999,0,0,1,FEW 32,1,24,1,14,1017,RORS 150500Z 10019KT 9999 FEW032 24/14 Q1017 RMK 2CU032 A3005=,
20180115_060000.002,0,RORS,,,,0,20180115060000,-1,-1,-1,-1,90,-1,18,-1,-1,-1,-1,,9999,0,0,1,SCT 30,1,23,1,14,1017,RORS 150600Z 09018KT 9999 SCT030 23/14 Q1017 RMK 4CU030 A3004=,
20180115_070000.003,0,RORS,,,,0,20180115070000,-1,-1,-1,-1,90,-1,19,-1,-1,-1,-1,,9999,0,0,2,FEW 32   SCT 90,1,22,1,14,1017,RORS 150700Z 09019KT 9999 FEW032 SCT090 22/14 Q1017 RMK 2CU032     4AC090 A3004=,
20180115_080000.002,0,RORS,,,,0,20180115080000,-1,-1,-1,-1,100,-1,17,-1,-1,-1,-1,,9999,0,0,2,FEW 31   BKN 80,1,22,1,14,1017,RORS 150800Z 10017KT 9999 FEW031 BKN080 22/14 Q1017 RMK 2CU031     6AC080 A3005=,
20180115_090000.002,0,RORS,,,,0,20180115090000,-1,-1,-1,-1,90,-1,15,-1,-1,-1,-1,,9999,0,0,1,FEW 32,1,21,1,15,1017,RORS 150900Z 09015KT 9999 FEW032 21/15 Q1017 RMK 1CU032 A3005=,
20180115_100000.002,0,RORS,,,,0,20180115100000,-1,-1,-1,-1,90,-1,15,-1,-1,-1,-1,,9999,0,0,2,FEW 32   SCT 80,1,21,1,15,1017,RORS 151000Z 09015KT 9999 FEW032 SCT080 21/15 Q1017 RMK 1CU032     4AC080 A3006=,
20180115_110000.002,0,RORS,,,,0,20180115110000,-1,-1,-1,-1,-1,-1,-1,-1,-1,-1,-1,,-1,0,0,0,,0,-1,0,-1,-1,RORS 151100Z NIL=,
20180115_220000.002,0,RORS,,,,0,20180115220000,-1,-1,-1,-1,110,-1,10,-1,-1,-1,-1,,9999,0,0,2,FEW 28   BKN 130,1,20,1,16,1016,RORS 152200Z 11010KT 9999 FEW028 BKN130 20/16 Q1016 RMK 1CU028     6AC130 A3001=,
20180115_230000.002,0,RORS,,,,0,20180115230000,-1,-1,-1,-1,120,-1,9,-1,-1,-1,-1,,9999,0,1,2,FEW 28   BKN 100,1,21,1,17,1016,RORS 152300Z 12009KT 9999 -RA FEW028 BKN100 21/17 Q1016 RMK     1CU028 6AS100 A3002=,- RA
20180116_000000.002,0,RORS,,,,0,20180116000000,-1,-1,-1,-1,120,-1,13,-1,-1,-1,-1,,9999,0,1,2,FEW 26   BKN 90,1,22,1,17,1016,RORS 160000Z 12013KT 9999 -RA FEW026 BKN090 22/17 Q1016 RMK     1CU026 6AS090 A3003=,- RA
20180116_010000.002,0,RORS,,,,0,20180116010000,-1,-1,-1,-1,130,-1,17,-1,-1,-1,-1,,9999,0,0,2,FEW 23   BKN 80,1,23,1,17,1017,RORS 160100Z 13017KT 9999 FEW023 BKN080 23/17 Q1017 RMK 2CU023     7AC080 A3004=,
20180116_020000.002,0,RORS,,,,0,20180116020000,-1,-1,-1,-1,130,-1,18,-1,-1,-1,-1,,9999,0,1,2,SCT 25   BKN 80,1,23,1,17,1017,RORS 160200Z 13018KT 9999 VCSH SCT025 BKN080 23/17 Q1017 RMK     3CU025 7AC080 A3003=,VC SH
20180116_030000.002,0,RORS,,,,0,20180116030000,-1,-1,-1,-1,130,-1,18,-1,-1,-1,-1,,9999,0,0,2,FEW 25   BKN 80,1,24,1,17,1016,RORS 160300Z 13018KT 9999 FEW025 BKN080 24/17 Q1016 RMK 1CU025     6AC080 A3001=,
20180116_040000.002,0,RORS,,,,0,20180116040000,-1,-1,-1,-1,130,-1,20,-1,-1,-1,-1,,9999,0,0,3,FEW 28   SCT 49   BKN 80,1,24,1,18,1015,RORS 160400Z 13020KT 9999 FEW028 SCT049 BKN080 24/18 Q1015 RMK     1CU028 3SC049 6AC080 A2997=,
20180116_050000.002,0,RORS,,,,0,20180116050000,-1,-1,-1,-1,130,-1,20,-1,-1,-1,-1,,9999,0,0,3,FEW 25   SCT 35   BKN 70,1,24,1,17,1013,RORS 160500Z 13020KT 9999 FEW025 SCT035 BKN070 24/17 Q1013 RMK     1CU025 3CU035 6AC070 A2994=,
20180116_060000.002,0,RORS,,,,0,20180116060000,-1,-1,-1,-1,130,-1,20,-1,-1,-1,-1,,9999,0,0,3,FEW 24   SCT 30   BKN 70,1,24,1,17,1013,RORS 160600Z 13020KT 9999 FEW024 SCT030 BKN070 24/17 Q1013 RMK     1CU024 3CU030 5AC070 A2992=,
20180116_070000.002,0,RORS,,,,0,20180116070000,-1,-1,-1,-1,130,-1,19,-1,-1,-1,-1,,9999,0,0,2,SCT 24   BKN 48,1,23,1,17,1013,RORS 160700Z 13019KT 9999 SCT024 BKN048 23/17 Q1013 RMK 3CU024     7SC048 A2991=,
20180116_080000.002,0,RORS,,,,0,20180116080000,-1,-1,-1,-1,130,-1,18,-1,-1,-1,-1,,9999,0,1,3,FEW 22   SCT 30   BKN 50,1,22,1,18,1013,RORS 160800Z 13018KT 9999 -RA FEW022 SCT030 BKN050 22/18 Q1013     RMK 1CU022 3CU030 7SC050 A2991=,- RA
20180116_090000.002,0,RORS,,,,0,20180116090000,-1,-1,-1,-1,140,-1,17,-1,-1,-1,-1,,9999,0,0,2,FEW 23   BKN 80,1,22,1,18,1013,RORS 160900Z 14017KT 9999 FEW023 BKN080 22/18 Q1013 RMK 2CU023     7AS080 A2991=,
20180116_100000.002,0,RORS,,,,0,20180116100000,-1,-1,-1,-1,130,-1,15,-1,-1,-1,-1,,9999,0,0,2,FEW 22   BKN 70,1,22,1,17,1013,RORS 161000Z 13015KT 9999 FEW022 BKN070 22/17 Q1013 RMK 2CU022     7AS070 A2991=,
20180116_110000.004,0,RORS,,,,0,20180116110000,-1,-1,-1,-1,-1,-1,-1,-1,-1,-1,-1,,-1,0,0,0,,0,-1,0,-1,-1,RORS 161100Z NIL=,
20180116_220000.002,0,RORS,,,,0,20180116220000,-1,-1,-1,-1,160,-1,15,-1,-1,-1,-1,,9999,0,1,3,FEW 15   SCT 49   BKN 80,1,22,1,20,1012,RORS 162200Z 16015KT 9999 -RA FEW015 SCT049 BKN080 22/20 Q1012     RMK 2CU015 4SC049 7AC080 A2989=,- RA
20180116_230000.002,0,RORS,,,,0,20180116230000,-1,-1,-1,-1,150,-1,6,-1,-1,-1,-1,,1500,1,1,3,FEW 5   SCT 12   BKN 20,1,22,1,21,1013,RORS 162300Z 15006KT 1500 R17/1300VP1800N +SHRA FEW005 SCT012     BKN020 22/21 Q1013 RMK 2ST005 4CU012 6CU020 A2992 RI++=,+ RA SH
20180117_000000.002,0,RORS,,,,0,20180117000000,-1,-1,-1,-1,310,-1,15,-1,-1,-1,-1,,5000,0,1,2,FEW 4   BKN 12,1,21,1,20,1014,RORS 170000Z 31015KT 5000 -SHRA FEW004 BKN012 21/20 Q1014 RMK     2ST004 6CU012 A2995=,- RA SH
20180117_010000.002,0,RORS,,,,0,20180117010000,-1,-1,-1,-1,320,-1,11,-1,-1,-1,-1,,5000,1,2,2,SCT 4   BKN 12,1,21,1,20,1015,RORS 170100Z 32011KT 5000 R35/1300VP1800U -SHRA BR SCT004     BKN012 21/20 Q1015 RMK 3ST004 6CU012 A2998=,- RA SH; BR
20180117_020000.004,0,RORS,,,,0,20180117020000,-1,-1,-1,-1,320,-1,11,-1,-1,-1,-1,,5000,0,1,2,FEW 6   BKN 15,1,21,1,20,1015,RORS 170200Z 32011KT 5000 -SHRA FEW006 BKN015 21/20 Q1015 RMK     2ST006 6CU015 A3000=,- RA SH
20180117_030000.002,0,RORS,,,,0,20180117030000,-1,-1,-1,-1,320,-1,13,-1,-1,-1,-1,,9999,0,1,2,FEW 5   BKN 20,1,21,1,20,1015,RORS 170300Z 32013KT 9999 -SHRA FEW005 BKN020 21/20 Q1015 RMK     2ST005 6CU020 A2998=,- RA SH
20180117_040000.003,0,RORS,,,,0,20180117040000,-1,-1,-1,-1,320,-1,8,-1,-1,-1,-1,,9999,0,0,2,FEW 5   BKN 30,1,22,1,20,1014,RORS 170400Z 32008KT 9999 FEW005 BKN030 22/20 Q1014 RMK 2ST005     6CU030 A2996=,
20180117_050000.003,0,RORS,,,,0,20180117050000,-1,-1,-1,-1,10,-1,13,-1,-1,-1,-1,,6000,1,1,2,FEW 4   BKN 11,1,21,1,20,1014,RORS 170500Z 01013KT 6000 R35/1300VP1800U -SHRA FEW004 BKN011     21/20 Q1014 RMK 1ST004 6CU011 A2995=,- RA SH
20180117_060000.002,0,RORS,,,,0,20180117060000,-1,-1,-1,-1,50,-1,12,-1,-1,-1,-1,,9999,0,1,3,FEW 6   SCT 10   BKN 32,1,22,1,20,1014,RORS 170600Z 05012KT 9999 VCSH FEW006 SCT010 BKN032 22/20     Q1014 RMK 1ST006 3CU010 6CU032 A2994=,VC SH
20180117_070000.002,0,RORS,,,,0,20180117070000,-1,-1,-1,-1,60,-1,13,-1,-1,-1,-1,,9999,0,0,2,FEW 9   BKN 60,1,21,1,19,1014,RORS 170700Z 06013KT 9999 FEW009 BKN060 21/19 Q1014 RMK 2CU009     6SC060 A2994=,
20180117_080000.002,0,RORS,,,,0,20180117080000,-1,-1,-1,-1,50,-1,12,-1,-1,-1,-1,,9999,0,1,2,SCT 9   BKN 50,1,21,1,20,1014,RORS 170800Z 05012KT 9999 -SHRA SCT009 BKN050 21/20 Q1014 RMK     4CU009 6SC050 A2995=,- RA SH
20180117_090000.003,0,RORS,,,,0,20180117090000,-1,-1,-1,-1,40,-1,14,-1,-1,-1,-1,,9999,0,1,2,SCT 9   BKN 50,1,21,1,19,1015,RORS 170900Z 04014KT 9999 -SHRA SCT009 BKN050 21/19 Q1015 RMK     3CU009 5SC050 A2997=,- RA SH
20180117_100000.002,0,RORS,,,,0,20180117100000,-1,-1,-1,-1,40,-1,16,-1,-1,-1,-1,,9999,0,0,3,FEW 9   SCT 14   BKN 60,1,21,1,19,1015,RORS 171000Z 04016KT 9999 FEW009 SCT014 BKN060 21/19 Q1015 RMK     1CU009 4CU014 6SC060 A2999=,
20180117_110000.003,0,RORS,,,,0,20180117110000,-1,-1,-1,-1,-1,-1,-1,-1,-1,-1,-1,,-1,0,0,0,,0,-1,0,-1,-1,RORS 171100Z NIL=,
20180117_220000.003,0,RORS,,,,0,20180117220000,-1,-1,-1,-1,70,-1,12,-1,-1,-1,-1,,9999,0,1,2,FEW 5   BKN 15,1,21,1,20,1016,RORS 172200Z 07012KT 9999 -SHRA FEW005 BKN015 21/20 Q1016 RMK     2ST005 5CU015 A3001=,- RA SH
20180117_230000.002,0,RORS,,,,0,20180117230000,-1,-1,-1,-1,80,-1,12,-1,-1,-1,-1,,3000,0,2,2,SCT 6   BKN 12,1,21,1,20,1017,RORS 172300Z 08012KT 3000 -SHRA BR SCT006 BKN012 21/20 Q1017     RMK 3ST006 6CU012 A3003=,- RA SH; BR
20180118_000000.002,0,RORS,,,,0,20180118000000,-1,-1,-1,-1,120,-1,10,-1,-1,-1,-1,,2000,1,1,2,SCT 4   BKN 10,1,21,1,20,1017,RORS 180000Z 12010KT 2000 R35/P1800N SHRA SCT004 BKN010 21/20     Q1017 RMK 3ST004 6CU010 A3006 5000S=,RA SH
20180118_010000.002,0,RORS,,,,0,20180118010000,-1,-1,-1,-1,70,-1,8,-1,-1,-1,-1,,9999,0,1,2,SCT 27   BKN 37,1,22,1,21,1018,RORS 180100Z 07008KT 9999 -SHRA SCT027 BKN037 22/21 Q1018 RMK     3CU027 6SC037 A3007=,- RA SH
20180118_020000.002,0,RORS,,,,0,20180118020000,-1,-1,-1,-1,60,-1,9,-1,-1,-1,-1,,9999,0,0,3,FEW 10   SCT 17   BKN 37,1,23,1,22,1018,RORS 180200Z 06009KT 9999 FEW010 SCT017 BKN037 23/22 Q1018 RMK     1CU010 3CU017 5SC037 A3007=,
20180118_030000.003,0,RORS,,,,0,20180118030000,-1,-1,-1,-1,60,-1,11,-1,-1,-1,-1,,9999,0,0,3,SCT 8   SCT 10   BKN 18,1,23,1,21,1017,RORS 180300Z 06011KT 9999 SCT008 SCT010 BKN018 23/21 Q1017 RMK     3ST008 4CU010 5CU018 A3005=,
20180118_040000.002,0,RORS,,,,0,20180118040000,-1,-1,-1,-1,50,-1,10,-1,-1,-1,-1,,9999,0,0,2,FEW 4   BKN 14,1,23,1,21,1016,RORS 180400Z 05010KT 9999 FEW004 BKN014 23/21 Q1016 RMK 2ST004     6CU014 A3003=,
20180118_050000.002,0,RORS,,,,0,20180118050000,-1,-1,-1,-1,50,-1,8,-1,-1,-1,-1,,9999,0,1,3,FEW 3   SCT 5   BKN 39,1,23,1,21,1016,RORS 180500Z 05008KT 9999 -SHRA FEW003 SCT005 BKN039 23/21     Q1016 RMK 1ST003 3ST005 6SC039 A3001=,- RA SH
20180118_060000.002,0,RORS,,,,0,20180118060000,-1,-1,-1,-1,60,-1,8,-1,-1,-1,-1,,9999,0,1,3,FEW 3   SCT 9   BKN 38,1,24,1,21,1015,RORS 180600Z 06008KT 9999 -SHRA FEW003 SCT009 BKN038 24/21     Q1015 RMK 1ST003 4ST009 6SC038 A2999=,- RA SH
20180118_070000.002,0,RORS,,,,0,20180118070000,-1,-1,-1,-1,50,-1,8,-1,-1,-1,-1,,3000,1,2,2,FEW 3   BKN 5,1,22,1,21,1015,RORS 180700Z 05008KT 3000 R35/1000VP1800D -RA BR FEW003 BKN005     22/21 Q1015 RMK 1ST003 5ST005 A2999=,- RA; BR
20180118_080000.002,0,RORS,,,,0,20180118080000,-1,-1,-1,-1,40,-1,8,-1,-1,-1,-1,,9999,0,1,2,FEW 4   BKN 37,1,22,1,21,1016,RORS 180800Z 04008KT 9999 -RA FEW004 BKN037 22/21 Q1016 RMK     1ST004 6SC037 A3001=,- RA
20180118_090000.002,0,RORS,,,,0,20180118090000,-1,-1,-1,-1,70,-1,8,-1,-1,-1,-1,,9999,0,0,3,FEW 5   SCT 46   BKN 80,1,22,1,21,1016,RORS 180900Z 07008KT 9999 FEW005 SCT046 BKN080 22/21 Q1016 RMK     1ST005 4SC046 6AC080 A3002=,
20180118_100000.002,0,RORS,,,,0,20180118100000,-1,-1,-1,-1,60,-1,10,-1,-1,-1,-1,,9999,0,0,2,FEW 6   BKN 43,1,21,1,21,1017,RORS 181000Z 06010KT 9999 FEW006 BKN043 21/21 Q1017 RMK 1ST006     6SC043 A3003=,
20180118_110000.002,0,RORS,,,,0,20180118110000,-1,-1,-1,-1,-1,-1,-1,-1,-1,-1,-1,,-1,0,0,0,,0,-1,0,-1,-1,RORS 181100Z NIL=,
20180118_220000.002,0,RORS,,,,0,20180118220000,-1,-1,-1,-1,80,-1,4,-1,-1,-1,-1,,9999,0,1,3,FEW 10   BKN 50   BKN 70,1,21,1,20,1017,RORS 182200Z 08004KT 9999 VCSH FEW010 BKN050 BKN070 21/20     Q1017 RMK 1CU010 5SC050 6AC070 A3003=,VC SH
20180118_230000.003,0,RORS,,,,0,20180118230000,-1,-1,-1,-1,90,-1,3,-1,-1,-1,-1,,9999,0,1,3,FEW 11   SCT 17   BKN 50,1,21,1,21,1017,RORS 182300Z 09003KT 9999 -SHRA FEW011 SCT017 BKN050 21/21     Q1017 RMK 2CU011 4CU017 6SC050 A3004=,- RA SH
20180119_000000.002,0,RORS,,,,0,20180119000000,-1,-1,-1,-1,350,-1,1,-1,-1,-1,-1,,9999,0,1,3,FEW 33   SCT 46   BKN 70,1,22,1,21,1017,RORS 190000Z 35001KT 9999 -RA FEW033 SCT046 BKN070 22/21 Q1017     RMK 1CU033 3SC046 7AS070 A3006=,- RA
20180119_010000.003,0,RORS,,,,0,20180119010000,-1,-1,-1,-1,999,-1,1,-1,-1,-1,-1,,9999,0,0,2,FEW 10   BKN 70,1,22,1,21,1018,RORS 190100Z VRB01KT 9999 FEW010 BKN070 22/21 Q1018 RMK 1CU010     6AC070 A3007=,
20180119_020000.002,0,RORS,,,,0,20180119020000,-1,-1,-1,-1,350,-1,2,-1,-1,-1,-1,,9999,0,1,3,FEW 3   SCT 17   BKN 70,1,23,1,22,1018,RORS 190200Z 35002KT 9999 VCSH FEW003 SCT017 BKN070 23/22     Q1018 RMK 1ST003 3CU017 6AC070 A3007=,VC SH
20180119_030000.002,0,RORS,,,,0,20180119030000,-1,-1,-1,-1,300,-1,3,-1,-1,-1,-1,,9999,1,2,3,FEW 5   SCT 21   BKN 27,1,23,1,21,1017,RORS 190300Z 30003KT 9999 R35/0700VP1800U -SHRA BR FEW005     SCT021 BKN027 23/21 Q1017 RMK 1ST005 4CU021 6CU027 A3005           3500S=,- RA SH; BR
20180119_040000.002,0,RORS,,,,0,20180119040000,-1,-1,-1,-1,330,-1,9,-1,-1,-1,-1,,9999,0,1,3,FEW 5   SCT 8   BKN 25,1,22,1,21,1016,RORS 190400Z 33009KT 9999 -SHRA FEW005 SCT008 BKN025 22/21     Q1016 RMK 2ST005 4ST008 6CU025 A3002=,- RA SH
20180119_050000.003,0,RORS,,,,0,20180119050000,-1,-1,-1,-1,350,-1,11,-1,-1,-1,-1,,9000,0,1,3,FEW 6   SCT 12   BKN 30,1,22,1,21,1016,RORS 190500Z 35011KT 9000 -SHRA FEW006 SCT012 BKN030 22/21     Q1016 RMK 2ST006 4CU012 6CU030 A3001=,- RA SH
20180119_060000.002,0,RORS,,,,0,20180119060000,-1,-1,-1,-1,360,-1,16,-1,-1,-1,-1,,4000,0,2,3,FEW 4   SCT 7   BKN 10,1,21,1,20,1015,RORS 190600Z 36016KT 4000 -SHRA BR FEW004 SCT007 BKN010 21/20     Q1015 RMK 2ST004 3ST007 6CU010 A2999=,- RA SH; BR
20180119_070000.002,0,RORS,,,,0,20180119070000,-1,-1,-1,-1,40,-1,14,-1,-1,-1,-1,,2000,1,2,2,FEW 3   BKN 10,1,21,1,20,1015,RORS 190700Z 04014KT 2000 R35/1300N SHRA BR FEW003 BKN010     21/20 Q1015 RMK 2ST003 6CU010 A2999=,RA SH; BR
20180119_080000.002,0,RORS,,,,0,20180119080000,-1,-1,-1,-1,40,-1,16,-1,-1,-1,-1,,2500,1,2,2,SCT 3   BKN 10,1,20,1,20,1015,RORS 190800Z 04016KT 2500 R35/1500D SHRA BR SCT003 BKN010     20/20 Q1015 RMK 3ST003 6CU010 A3000=,RA SH; BR
20180119_090000.003,0,RORS,,,,0,20180119090000,-1,-1,-1,-1,40,-1,22,-1,-1,-1,-1,,3500,0,2,2,SCT 6   BKN 10,1,20,1,19,1016,RORS 190900Z 04022KT 3500 -SHRA BR SCT006 BKN010 20/19 Q1016     RMK 3ST006 6CU010 A3001=,- RA SH; BR
20180119_100000.002,0,RORS,,,,0,20180119100000,-1,-1,-1,-1,40,-1,22,-1,-1,-1,-1,,3000,0,2,2,SCT 6   BKN 10,1,20,1,19,1016,RORS 191000Z 04022KT 3000 -SHRA BR SCT006 BKN010 20/19 Q1016     RMK 3ST006 6CU010 A3002=,- RA SH; BR
20180119_110000.002,0,RORS,,,,0,20180119110000,-1,-1,-1,-1,-1,-1,-1,-1,-1,-1,-1,,-1,0,0,0,,0,-1,0,-1,-1,RORS 191100Z NIL=,
20180119_220000.002,0,RORS,,,,0,20180119220000,-1,-1,-1,-1,70,-1,13,-1,-1,-1,-1,,9999,0,1,2,FEW 13   BKN 80,1,20,1,18,1016,RORS 192200Z 07013KT 9999 -RA FEW013 BKN080 20/18 Q1016 RMK     2CU013 6AC080 A3002=,- RA
20180119_230000.002,0,RORS,,,,0,20180119230000,-1,-1,-1,-1,70,-1,12,-1,-1,-1,-1,,9999,0,1,3,FEW 13   SCT 30   BKN 70,1,20,1,18,1017,RORS 192300Z 07012KT 9999 -RA FEW013 SCT030 BKN070 20/18 Q1017     RMK 1CU013 3CU030 5AC070 A3003=,- RA
20180120_000000.002,0,RORS,,,,0,20180120000000,-1,-1,-1,-1,50,-1,13,-1,-1,-1,-1,,9999,0,0,2,FEW 15   BKN 60,1,20,1,18,1017,RORS 200000Z 05013KT 9999 FEW015 BKN060 20/18 Q1017 RMK 1CU015     6SC060 A3006=,
20180120_010000.002,0,RORS,,,,0,20180120010000,-1,-1,-1,-1,60,-1,13,-1,-1,-1,-1,,9999,0,0,2,FEW 16   BKN 70,1,21,1,18,1018,RORS 200100Z 06013KT 9999 FEW016 BKN070 21/18 Q1018 RMK 1CU016     6AC070 A3007=,
20180120_020000.003,0,RORS,,,,0,20180120020000,-1,-1,-1,-1,50,-1,14,-1,-1,-1,-1,,9999,0,0,3,FEW 16   SCT 60   BKN 140,1,21,1,17,1018,RORS 200200Z 05014KT 9999 FEW016 SCT060 BKN140 21/17 Q1018 RMK     1CU016 4SC060 6AC140 A3006=,
20180120_030000.002,0,RORS,,,,0,20180120030000,-1,-1,-1,-1,70,-1,16,-1,-1,-1,-1,,9999,0,0,3,FEW 17   SCT 70   BKN 160,1,22,1,16,1017,RORS 200300Z 07016KT 9999 FEW017 SCT070 BKN160 22/16 Q1017 RMK     1CU017 3AC070 6AC160 A3004=,
20180120_040000.002,0,RORS,,,,0,20180120040000,-1,-1,-1,-1,70,-1,14,-1,-1,-1,-1,,9999,0,0,2,FEW 20   SCT 70,1,24,1,17,1016,RORS 200400Z 07014KT 9999 FEW020 SCT070 24/17 Q1016 RMK 1CU020     3AC070 A3000=,
20180120_050000.002,0,RORS,,,,0,20180120050000,-1,-1,-1,-1,80,-1,15,-1,-1,-1,-1,,9999,0,0,2,FEW 20   BKN 70,1,23,1,16,1015,RORS 200500Z 08015KT 9999 FEW020 BKN070 23/16 Q1015 RMK 2CU020     5AC070 A2997=,
20180120_060000.002,0,RORS,,,,0,20180120060000,-1,-1,-1,-1,70,-1,14,-1,-1,-1,-1,,9999,0,0,1,FEW 20,1,23,1,16,1014,RORS 200600Z 07014KT 9999 FEW020 23/16 Q1014 RMK 1CU020 A2996=,
20180120_070000.002,0,RORS,,,,0,20180120070000,-1,-1,-1,-1,60,-1,12,-1,-1,-1,-1,,9999,0,0,1,SCT 17,1,22,1,17,1014,RORS 200700Z 06012KT 9999 SCT017 22/17 Q1014 RMK 4CU017 A2996=,
20180120_080000.002,0,RORS,,,,0,20180120080000,-1,-1,-1,-1,60,-1,13,-1,-1,-1,-1,,9999,0,0,1,SCT 14,1,21,1,17,1014,RORS 200800Z 06013KT 9999 SCT014 21/17 Q1014 RMK 4CU014 A2997=,
20180120_090000.002,0,RORS,,,,0,20180120090000,-1,-1,-1,-1,70,-1,10,-1,-1,-1,-1,,9999,0,0,1,BKN 17,1,20,1,17,1015,RORS 200900Z 07010KT 9999 BKN017 20/17 Q1015 RMK 5CU017 A2999=,
20180120_100000.002,0,RORS,,,,0,20180120100000,-1,-1,-1,-1,60,-1,13,-1,-1,-1,-1,,9999,0,0,1,FEW 18,1,20,1,16,1016,RORS 201000Z 06013KT 9999 FEW018 20/16 Q1016 RMK 2CU018 A3000=,
20180120_110000.002,0,RORS,,,,0,20180120110000,-1,-1,-1,-1,-1,-1,-1,-1,-1,-1,-1,,-1,0,0,0,,0,-1,0,-1,-1,RORS 201100Z NIL=,
20180120_220000.002,0,RORS,,,,0,20180120220000,-1,-1,-1,-1,60,-1,12,-1,-1,-1,-1,,9999,0,0,2,FEW 18   BKN -9999,1,20,1,17,1016,RORS 202200Z 06012KT 9999 FEW018 BKN/// 20/17 Q1016 RMK 1CU018     A3001=,
20180120_230000.002,0,RORS,,,,0,20180120230000,-1,-1,-1,-1,80,-1,10,-1,-1,-1,-1,,9999,0,0,2,FEW 18   SCT -9999,1,20,1,18,1016,RORS 202300Z 08010KT 9999 FEW018 SCT/// 20/18 Q1016 RMK 1CU018     A3001=,
20180121_000000.002,0,RORS,,,,0,20180121000000,-1,-1,-1,-1,80,-1,12,-1,-1,-1,-1,,9999,0,0,2,FEW 18   BKN 90,1,22,1,18,1016,RORS 210000Z 08012KT 9999 FEW018 BKN090 22/18 Q1016 RMK 1CU018     5AC090 A3002=,
20180121_010000.002,0,RORS,,,,0,20180121010000,-1,-1,-1,-1,70,-1,16,-1,-1,-1,-1,,9999,0,0,2,FEW 15   BKN 90,1,22,1,18,1016,RORS 210100Z 07016KT 9999 FEW015 BKN090 22/18 Q1016 RMK 2CU015     5AC090 A3003=,
20180121_020000.002,0,RORS,,,,0,20180121020000,-1,-1,-1,-1,70,-1,13,-1,-1,-1,-1,,9999,0,0,2,FEW 18   SCT -9999,1,24,1,18,1016,RORS 210200Z 07013KT 9999 FEW018 SCT/// 24/18 Q1016 RMK 2CU018     A3003=,
20180121_030000.002,0,RORS,,,,0,20180121030000,-1,-1,-1,-1,70,-1,14,-1,-1,-1,-1,,9999,0,0,2,FEW 19   BKN 90,1,23,1,18,1015,RORS 210300Z 07014KT 9999 FEW019 BKN090 23/18 Q1015 RMK 2CU019     6AC090 A3000=,
20180121_040000.003,0,RORS,,,,0,20180121040000,-1,-1,-1,-1,70,-1,13,-1,-1,-1,-1,,9999,0,0,2,SCT 19   SCT 90,1,23,1,17,1014,RORS 210400Z 07013KT 9999 SCT019 SCT090 23/17 Q1014 RMK 3CU019     4AC090 A2997=,
20180121_050000.002,0,RORS,,,,0,20180121050000,-1,-1,-1,-1,70,-1,13,-1,-1,-1,-1,,9999,0,0,2,SCT 20   BKN 80,1,24,1,17,1014,RORS 210500Z 07013KT 9999 SCT020 BKN080 24/17 Q1014 RMK 3CU020     6AC080 A2995=,
20180121_060000.002,0,RORS,,,,0,20180121060000,-1,-1,-1,-1,80,-1,13,-1,-1,-1,-1,,9999,0,0,2,FEW 20   BKN 80,1,24,1,18,1013,RORS 210600Z 08013KT 9999 FEW020 BKN080 24/18 Q1013 RMK 1CU020     7AC080 A2993=,
20180121_070000.002,0,RORS,,,,0,20180121070000,-1,-1,-1,-1,70,-1,14,-1,-1,-1,-1,,9999,0,0,2,FEW 18   BKN 70,1,23,1,18,1013,RORS 210700Z 07014KT 9999 FEW018 BKN070 23/18 Q1013 RMK 2CU018     7AC070 A2992=,
20180121_080000.002,0,RORS,,,,0,20180121080000,-1,-1,-1,-1,80,-1,12,-1,-1,-1,-1,,9999,0,0,2,FEW 20   BKN 70,1,22,1,18,1013,RORS 210800Z 08012KT 9999 FEW020 BKN070 22/18 Q1013 RMK 1CU020     6AC070 A2993=,
20180121_090000.002,0,RORS,,,,0,20180121090000,-1,-1,-1,-1,100,-1,12,-1,-1,-1,-1,,9999,0,0,2,FEW 19   BKN 80,1,22,1,18,1013,RORS 210900Z 10012KT 9999 FEW019 BKN080 22/18 Q1013 RMK 1CU019     7AC080 A2993=,
20180121_100000.002,0,RORS,,,,0,20180121100000,-1,-1,-1,-1,90,-1,10,-1,-1,-1,-1,,9999,0,0,2,FEW 20   BKN 70,1,22,1,18,1013,RORS 211000Z 09010KT 9999 FEW020 BKN070 22/18 Q1013 RMK 1CU020     7AC070 A2993=,
20180121_110000.002,0,RORS,,,,0,20180121110000,-1,-1,-1,-1,-1,-1,-1,-1,-1,-1,-1,,-1,0,0,0,,0,-1,0,-1,-1,RORS 211100Z NIL=,
20180121_220000.002,0,RORS,,,,0,20180121220000,-1,-1,-1,-1,150,-1,6,-1,-1,-1,-1,,9999,0,1,3,FEW 20   SCT 42   BKN 140,1,22,1,20,1011,RORS 212200Z 15006KT 9999 VCSH FEW020 SCT042 BKN140 22/20     Q1011 RMK 1CU020 3SC042 6AC140 A2985=,VC SH
20180121_230000.002,0,RORS,,,,0,20180121230000,-1,-1,-1,-1,190,-1,3,-1,-1,140,260,,9999,0,1,3,FEW 18   SCT 36   BKN 60,1,22,1,21,1011,RORS 212300Z 19003KT 140V260 9999 -RA FEW018 SCT036 BKN060     22/21 Q1011 RMK 1CU018 4SC036 6SC060 A2987=,- RA
20180122_000000.002,0,RORS,,,,0,20180122000000,-1,-1,-1,-1,290,-1,15,-1,-1,-1,-1,,7000,0,1,3,FEW 4   SCT 10   BKN 20,1,22,1,21,1012,RORS 220000Z 29015KT 7000 -SHRA FEW004 SCT010 BKN020 22/21     Q1012 RMK 1ST004 4CU010 6CU020 A2989=,- RA SH
20180122_010000.002,0,RORS,,,,0,20180122010000,-1,-1,-1,-1,340,-1,30,-1,-1,-1,-1,,9999,0,1,3,FEW 8   BKN 12   BKN 40,1,22,1,20,1013,RORS 220100Z 34030KT 9999 -SHRA FEW008 BKN012 BKN040 22/20     Q1013 RMK 2ST008 5CU012 6SC040 A2991=,- RA SH
20180122_020000.002,0,RORS,,,,0,20180122020000,-1,-1,-1,-1,350,-1,27,-1,-1,-1,-1,,9999,0,0,2,SCT 11   BKN 18,1,21,1,19,1013,RORS 220200Z 35027KT 9999 SCT011 BKN018 21/19 Q1013 RMK 3CU011     6CU018 A2992=,
20180122_030000.002,0,RORS,,,,0,20180122030000,-1,-1,-1,-1,350,-1,28,-1,-1,-1,-1,,9999,0,0,2,SCT 13   BKN 20,1,20,1,17,1013,RORS 220300Z 35028KT 9999 SCT013 BKN020 20/17 Q1013 RMK 3CU013     6CU020 A2992=,
20180122_040000.002,0,RORS,,,,0,20180122040000,-1,-1,-1,-1,360,-1,23,-1,-1,-1,-1,,9999,0,0,2,SCT 19   BKN 25,1,20,1,16,1012,RORS 220400Z 36023KT 9999 SCT019 BKN025 20/16 Q1012 RMK 3CU019     6CU025 A2990=,
20180122_050000.002,0,RORS,,,,0,20180122050000,-1,-1,-1,-1,10,-1,22,-1,-1,-1,-1,,9999,0,0,3,SCT 18   BKN 28   BKN 90,1,20,1,16,1012,RORS 220500Z 01022KT 9999 SCT018 BKN028 BKN090 20/16 Q1012 RMK     4CU018 6CU028 7AC090 A2989=,
20180122_060000.003,0,RORS,,,,0,20180122060000,-1,-1,-1,-1,20,-1,16,-1,-1,-1,-1,,9999,0,0,2,FEW 20   BKN 90,1,20,1,16,1012,RORS 220600Z 02016KT 9999 FEW020 BKN090 20/16 Q1012 RMK 2CU020     7AS090 A2989=,
20180122_070000.002,0,RORS,,,,0,20180122070000,-1,-1,-1,-1,20,-1,22,-1,-1,-1,-1,,9999,0,0,2,SCT 20   BKN 90,1,20,1,15,1011,RORS 220700Z 02022KT 9999 SCT020 BKN090 20/15 Q1011 RMK 4CU020     7AS090 A2988=,
20180122_080000.003,0,RORS,,,,0,20180122080000,-1,-1,-1,-1,20,-1,25,-1,-1,-1,-1,,9999,0,0,2,SCT 24   BKN 100,1,20,1,15,1012,RORS 220800Z 02025KT 9999 SCT024 BKN100 20/15 Q1012 RMK 3CU024     7AS100 A2989=,
20180122_090000.002,0,RORS,,,,0,20180122090000,-1,-1,-1,-1,30,-1,22,-1,-1,-1,-1,,9999,0,0,2,SCT 26   BKN 100,1,19,1,14,1013,RORS 220900Z 03022KT 9999 SCT026 BKN100 19/14 Q1013 RMK 4CU026     7AS100 A2993=,
20180122_100000.002,0,RORS,,,,0,20180122100000,-1,-1,-1,-1,40,-1,22,-1,-1,-1,-1,,9999,0,1,3,SCT 26   BKN 40   BKN 130,1,19,1,14,1014,RORS 221000Z 04022KT 9999 VCSH SCT026 BKN040 BKN130 19/14     Q1014 RMK 4CU026 5SC040 7AS130 A2995=,VC SH
20180122_110000.003,0,RORS,,,,0,20180122110000,-1,-1,-1,-1,-1,-1,-1,-1,-1,-1,-1,,-1,0,0,0,,0,-1,0,-1,-1,RORS 221100Z NIL=,
20180122_220000.002,0,RORS,,,,0,20180122220000,-1,-1,-1,-1,40,-1,15,-1,-1,-1,-1,,9999,0,0,2,FEW 30   BKN 45,1,19,1,13,1015,RORS 222200Z 04015KT 9999 FEW030 BKN045 19/13 Q1015 RMK 1CU030     6SC045 A2998=,
20180122_230000.003,0,RORS,,,,0,20180122230000,-1,-1,-1,-1,60,-1,12,-1,-1,-1,-1,,9999,0,0,2,SCT 30   BKN 45,1,19,1,14,1016,RORS 222300Z 06012KT 9999 SCT030 BKN045 19/14 Q1016 RMK 3CU030     7SC045 A3001=,
20180123_000000.002,0,RORS,,,,0,20180123000000,-1,-1,-1,-1,60,-1,12,-1,-1,-1,-1,,9999,0,0,2,FEW 32   BKN 45,1,20,1,13,1016,RORS 230000Z 06012KT 9999 FEW032 BKN045 20/13 Q1016 RMK 1CU032     7SC045 A3002=,
20180123_010000.002,0,RORS,,,,0,20180123010000,-1,-1,-1,-1,60,-1,12,-1,-1,-1,-1,,9999,0,0,2,FEW 30   BKN 48,1,20,1,14,1016,RORS 230100Z 06012KT 9999 FEW030 BKN048 20/14 Q1016 RMK 1CU030     7SC048 A3003=,
20180123_020000.002,0,RORS,,,,0,20180123020000,-1,-1,-1,-1,60,-1,13,-1,-1,-1,-1,,9999,0,0,3,FEW 29   SCT 48   BKN 50,1,21,1,14,1016,RORS 230200Z 06013KT 9999 FEW029 SCT048 BKN050 21/14 Q1016 RMK     1CU029 4SC048 7SC050 A3001=,
20180123_030000.003,0,RORS,,,,0,20180123030000,-1,-1,-1,-1,70,-1,14,-1,-1,-1,-1,,9999,0,0,1,FEW 30,1,23,1,15,1015,RORS 230300Z 07014KT 9999 FEW030 23/15 Q1015 RMK 1CU030 A2998=,
20180123_040000.003,0,RORS,,,,0,20180123040000,-1,-1,-1,-1,60,-1,14,-1,-1,-1,-1,,9999,0,0,2,FEW 28   BKN 40,1,22,1,15,1014,RORS 230400Z 06014KT 9999 FEW028 BKN040 22/15 Q1014 RMK 2CU028     5SC040 A2996=,
20180123_050000.002,0,RORS,,,,0,20180123050000,-1,-1,-1,-1,50,-1,12,-1,-1,-1,-1,,9999,0,0,3,FEW 32   SCT 40   BKN 50,1,22,1,15,1014,RORS 230500Z 05012KT 9999 FEW032 SCT040 BKN050 22/15 Q1014 RMK     2CU032 4SC040 6SC050 A2994=,
20180123_060000.003,0,RORS,,,,0,20180123060000,-1,-1,-1,-1,50,-1,12,-1,-1,-1,-1,,9999,0,0,2,SCT 26   BKN 50,1,23,1,15,1013,RORS 230600Z 05012KT 9999 SCT026 BKN050 23/15 Q1013 RMK 4CU026     6SC050 A2994=,
20180123_070000.002,0,RORS,,,,0,20180123070000,-1,-1,-1,-1,50,-1,13,-1,-1,-1,-1,,9999,0,0,1,FEW 25,1,22,1,15,1014,RORS 230700Z 05013KT 9999 FEW025 22/15 Q1014 RMK 2CU025 A2995=,
20180123_080000.002,0,RORS,,,,0,20180123080000,-1,-1,-1,-1,60,-1,13,-1,-1,-1,-1,,9999,0,0,1,FEW 25,1,21,1,15,1014,RORS 230800Z 06013KT 9999 FEW025 21/15 Q1014 RMK 1CU025 A2995=,
20180123_090000.002,0,RORS,,,,0,20180123090000,-1,-1,-1,-1,60,-1,13,-1,-1,-1,-1,,9999,0,0,1,FEW 20,1,20,1,15,1015,RORS 230900Z 06013KT 9999 FEW020 20/15 Q1015 RMK 1CU020 A2997=,
20180123_100000.002,0,RORS,,,,0,20180123100000,-1,-1,-1,-1,50,-1,13,-1,-1,-1,-1,,9999,0,0,1,FEW 20,1,19,1,15,1015,RORS 231000Z 05013KT 9999 FEW020 19/15 Q1015 RMK 1CU020 A2999=,
20180123_110000.002,0,RORS,,,,0,20180123110000,-1,-1,-1,-1,-1,-1,-1,-1,-1,-1,-1,,-1,0,0,0,,0,-1,0,-1,-1,RORS 231100Z NIL=,
20180123_220000.002,0,RORS,,,,0,20180123220000,-1,-1,-1,-1,30,-1,27,-1,-1,-1,-1,,8000,0,1,2,SCT 15   BKN 50,1,19,1,16,1017,RORS 232200Z 03027KT 8000 -SHRA SCT015 BKN050 19/16 Q1017 RMK     3CU015 7SC050 A3003=,- RA SH
20180123_230000.002,0,RORS,,,,0,20180123230000,-1,-1,-1,-1,30,-1,31,-1,-1,-1,-1,,3000,0,1,2,FEW 8   BKN 12,1,17,1,16,1017,RORS 232300Z 03031KT 3000 SHRA FEW008 BKN012 17/16 Q1017 RMK     2ST008 6CU012 A3005=,RA SH
20180124_000000.002,0,RORS,,,,0,20180124000000,-1,-1,-1,-1,30,-1,31,-1,-1,-1,-1,,9999,0,0,2,BKN 16   BKN 24,1,18,1,15,1018,RORS 240000Z 03031KT 9999 BKN016 BKN024 18/15 Q1018 RMK 5CU016     7CU024 A3007=,
20180124_010000.003,0,RORS,,,,0,20180124010000,-1,-1,-1,-1,40,-1,25,-1,-1,-1,-1,,9999,0,1,2,BKN 20   BKN 45,1,19,1,15,1018,RORS 240100Z 04025KT 9999 -SHRA BKN020 BKN045 19/15 Q1018 RMK     5CU020 7SC045 A3008=,- RA SH
20180124_020000.002,0,RORS,,,,0,20180124020000,-1,-1,-1,-1,40,-1,23,-1,-1,-1,-1,,9999,0,0,3,FEW 21   SCT 25   BKN 35,1,19,1,14,1018,RORS 240200Z 04023KT 9999 FEW021 SCT025 BKN035 19/14 Q1018 RMK     2CU021 3CU025 6CU035 A3007=,
20180124_030000.002,0,RORS,,,,0,20180124030000,-1,-1,-1,-1,40,-1,24,-1,-1,-1,-1,,9999,0,0,3,FEW 21   SCT 25   BKN 29,1,19,1,14,1017,RORS 240300Z 04024KT 9999 FEW021 SCT025 BKN029 19/14 Q1017 RMK     2CU021 4CU025 7CU029 A3004=,
20180124_040000.002,0,RORS,,,,0,20180124040000,-1,-1,-1,-1,50,-1,23,-1,-1,-1,-1,,9999,0,0,3,FEW 23   SCT 27   BKN 32,1,20,1,14,1016,RORS 240400Z 05023KT 9999 FEW023 SCT027 BKN032 20/14 Q1016 RMK     2CU023 4CU027 6CU032 A3002=,
20180124_050000.002,0,RORS,,,,0,20180124050000,-1,-1,-1,-1,50,-1,23,-1,-1,-1,-1,,9999,0,0,2,FEW 23   BKN 31,1,19,1,14,1016,RORS 240500Z 05023KT 9999 FEW023 BKN031 19/14 Q1016 RMK 2CU023     6CU031 A3000=,
20180124_060000.002,0,RORS,,,,0,20180124060000,-1,-1,-1,-1,40,-1,23,-1,-1,-1,-1,,9999,0,0,3,FEW 23   SCT 33   BKN 40,1,19,1,14,1015,RORS 240600Z 04023KT 9999 FEW023 SCT033 BKN040 19/14 Q1015 RMK     1CU023 4CU033 7SC040 A2999=,
20180124_070000.002,0,RORS,,,,0,20180124070000,-1,-1,-1,-1,40,-1,23,-1,-1,-1,-1,,9999,0,0,2,FEW 25   SCT 47,1,19,1,14,1015,RORS 240700Z 04023KT 9999 FEW025 SCT047 19/14 Q1015 RMK 2CU025     4SC047 A2999=,
20180124_080000.002,0,RORS,,,,0,20180124080000,-1,-1,-1,-1,40,-1,23,-1,-1,-1,-1,,9999,0,0,3,FEW 27   SCT 41   BKN 100,1,19,1,13,1016,RORS 240800Z 04023KT 9999 FEW027 SCT041 BKN100 19/13 Q1016 RMK     2CU027 3SC041 6AC100 A3000=,
20180124_090000.003,0,RORS,,,,0,20180124090000,-1,-1,-1,-1,40,-1,25,-1,-1,-1,-1,,9999,0,0,3,FEW 24   SCT 33   BKN 39,1,18,1,13,1016,RORS 240900Z 04025KT 9999 FEW024 SCT033 BKN039 18/13 Q1016 RMK     2CU024 4CU033 6SC039 A3002=,
20180124_100000.002,0,RORS,,,,0,20180124100000,-1,-1,-1,-1,50,-1,22,-1,-1,-1,-1,,9999,0,0,3,FEW 26   SCT 40   BKN 100,1,18,1,13,1017,RORS 241000Z 05022KT 9999 FEW026 SCT040 BKN100 18/13 Q1017 RMK     2CU026 4SC040 6AC100 A3003=,
20180124_110000.002,0,RORS,,,,0,20180124110000,-1,-1,-1,-1,-1,-1,-1,-1,-1,-1,-1,,-1,0,0,0,,0,-1,0,-1,-1,RORS 241100Z NIL=,
20180124_220000.002,0,RORS,,,,0,20180124220000,-1,-1,-1,-1,60,-1,19,-1,-1,-1,-1,,9999,0,0,3,FEW 31   SCT 50   BKN 110,1,18,1,11,1017,RORS 242200Z 06019KT 9999 FEW031 SCT050 BKN110 18/11 Q1017 RMK     1CU031 3SC050 5AC110 A3005=,
20180124_230000.002,0,RORS,,,,0,20180124230000,-1,-1,-1,-1,60,-1,19,-1,-1,-1,-1,,9999,0,0,3,FEW 30   SCT 47   BKN 110,1,18,1,12,1018,RORS 242300Z 06019KT 9999 FEW030 SCT047 BKN110 18/12 Q1018 RMK     2CU030 4SC047 6AC110 A3006=,
20180125_000000.002,0,RORS,,,,0,20180125000000,-1,-1,-1,-1,60,-1,19,-1,-1,-1,-1,,9999,0,0,3,FEW 30   SCT 50   BKN 90,1,19,1,12,1018,RORS 250000Z 06019KT 9999 FEW030 SCT050 BKN090 19/12 Q1018 RMK     1CU030 4SC050 6AC090 A3007=,
20180125_010000.002,0,RORS,,,,0,20180125010000,-1,-1,-1,-1,70,-1,18,-1,-1,-1,-1,,9999,0,0,2,SCT 31   BKN 110,1,20,1,12,1019,RORS 250100Z 07018KT 9999 SCT031 BKN110 20/12 Q1019 RMK 3CU031     6AC110 A3009=,
20180125_020000.003,0,RORS,,,,0,20180125020000,-1,-1,-1,-1,70,-1,20,-1,-1,-1,-1,,9999,0,0,3,SCT 28   SCT 50   BKN 110,1,20,1,13,1019,RORS 250200Z 07020KT 9999 SCT028 SCT050 BKN110 20/13 Q1019 RMK     3CU028 4SC050 6AC110 A3009=,
20180125_030000.002,0,RORS,,,,0,20180125030000,-1,-1,-1,-1,70,-1,20,-1,-1,-1,-1,,9999,0,0,2,FEW 28   SCT 110,1,21,1,13,1018,RORS 250300Z 07020KT 9999 FEW028 SCT110 21/13 Q1018 RMK 2CU028     4AC110 A3006=,
20180125_040000.002,0,RORS,,,,0,20180125040000,-1,-1,-1,-1,70,-1,18,-1,-1,-1,-1,,9999,0,0,1,FEW 30,1,22,1,13,1016,RORS 250400Z 07018KT 9999 FEW030 22/13 Q1016 RMK 2CU030 A3003=,
20180125_050000.002,0,RORS,,,,0,20180125050000,-1,-1,-1,-1,70,-1,18,-1,-1,-1,-1,,9999,0,0,2,FEW 29   SCT 100,1,21,1,13,1015,RORS 250500Z 07018KT 9999 FEW029 SCT100 21/13 Q1015 RMK 2CU029     4AC100 A2999=,
20180125_060000.002,0,RORS,,,,0,20180125060000,-1,-1,-1,-1,70,-1,17,-1,-1,-1,-1,,9999,0,0,1,SCT 29,1,20,1,13,1015,RORS 250600Z 07017KT 9999 SCT029 20/13 Q1015 RMK 4CU029 A2998=,
20180125_070000.002,0,RORS,,,,0,20180125070000,-1,-1,-1,-1,60,-1,17,-1,-1,-1,-1,,9999,0,0,1,SCT 30,1,20,1,13,1015,RORS 250700Z 06017KT 9999 SCT030 20/13 Q1015 RMK 3CU030 A2998=,
20180125_080000.002,0,RORS,,,,0,20180125080000,-1,-1,-1,-1,70,-1,13,-1,-1,-1,-1,,9999,0,0,1,FEW 29,1,20,1,13,1015,RORS 250800Z 07013KT 9999 FEW029 20/13 Q1015 RMK 1CU029 A2999=,
20180125_090000.002,0,RORS,,,,0,20180125090000,-1,-1,-1,-1,70,-1,15,-1,-1,-1,-1,,9999,0,0,1,FEW 30,1,19,1,13,1015,RORS 250900Z 07015KT 9999 FEW030 19/13 Q1015 RMK 1CU030 A3000=,
20180125_100000.003,0,RORS,,,,0,20180125100000,-1,-1,-1,-1,70,-1,14,-1,-1,-1,-1,,9999,0,0,2,FEW 28   BKN 100,1,19,1,13,1016,RORS 251000Z 07014KT 9999 FEW028 BKN100 19/13 Q1016 RMK 1CU028     6AC100 A3000=,
20180125_110000.003,0,RORS,,,,0,20180125110000,-1,-1,-1,-1,-1,-1,-1,-1,-1,-1,-1,,-1,0,0,0,,0,-1,0,-1,-1,RORS 251100Z NIL=,
20180125_220000.002,0,RORS,,,,0,20180125220000,-1,-1,-1,-1,70,-1,15,-1,-1,-1,-1,,9999,0,1,3,FEW 17   BKN 23   BKN 30,1,18,1,16,1016,RORS 252200Z 07015KT 9999 -SHRA FEW017 BKN023 BKN030 18/16     Q1016 RMK 2CU017 5CU023 7CU030 A3003=,- RA SH
20180125_230000.002,0,RORS,,,,0,20180125230000,-1,-1,-1,-1,40,-1,18,-1,-1,-1,-1,,6000,0,1,2,SCT 16   BKN 22,1,18,1,16,1018,RORS 252300Z 04018KT 6000 -SHRA SCT016 BKN022 18/16 Q1018 RMK     4CU016 6CU022 A3006=,- RA SH
20180126_000000.002,0,RORS,,,,0,20180126000000,-1,-1,-1,-1,50,-1,19,-1,-1,-1,-1,,9999,0,1,3,FEW 10   SCT 20   BKN 27,1,18,1,16,1018,RORS 260000Z 05019KT 9999 -SHRA FEW010 SCT020 BKN027 18/16     Q1018 RMK 1CU010 3CU020 6CU027 A3008=,- RA SH
20180126_010000.002,0,RORS,,,,0,20180126010000,-1,-1,-1,-1,40,-1,24,-1,-1,-1,-1,,9999,0,1,3,FEW 12   SCT 25   BKN 34,1,18,1,16,1019,RORS 260100Z 04024KT 9999 -SHRA FEW012 SCT025 BKN034 18/16     Q1019 RMK 1CU012 4CU025 6CU034 A3010=,- RA SH
20180126_020000.002,0,RORS,,,,0,20180126020000,-1,-1,-1,-1,40,-1,27,-1,-1,-1,-1,,9999,0,2,2,FEW 10   BKN 28,1,18,1,16,1019,RORS 260200Z 04027KT 9999 -SHRA BR FEW010 BKN028 18/16 Q1019     RMK 2CU010 6CU028 A3011 2000NW-NE=,- RA SH; BR
20180126_030000.002,0,RORS,,,,0,20180126030000,-1,-1,-1,-1,30,-1,30,-1,-1,-1,-1,,9999,0,1,2,FEW 10   BKN 18,1,17,1,15,1019,RORS 260300Z 03030KT 9999 -SHRA FEW010 BKN018 17/15 Q1019 RMK     2CU010 6CU018 A3010=,- RA SH
20180126_040000.002,0,RORS,,,,0,20180126040000,-1,-1,-1,-1,40,-1,29,-1,-1,-1,-1,,9999,0,1,2,SCT 12   BKN 25,1,17,1,15,1018,RORS 260400Z 04029KT 9999 -SHRA SCT012 BKN025 17/15 Q1018 RMK     4CU012 6CU025 A3007=,- RA SH
20180126_050000.002,0,RORS,,,,0,20180126050000,-1,-1,-1,-1,30,-1,27,-1,-1,-1,-1,,9999,0,0,2,SCT 19   BKN 28,1,18,1,14,1017,RORS 260500Z 03027KT 9999 SCT019 BKN028 18/14 Q1017 RMK 3CU019     7CU028 A3006=,
20180126_060000.002,0,RORS,,,,0,20180126060000,-1,-1,-1,-1,30,-1,29,-1,-1,-1,-1,,9999,0,1,2,SCT 17   BKN 25,1,17,1,14,1017,RORS 260600Z 03029KT 9999 -SHRA SCT017 BKN025 17/14 Q1017 RMK     4CU017 6CU025 A3005=,- RA SH
20180126_070000.002,0,RORS,,,,0,20180126070000,-1,-1,-1,-1,20,-1,29,-1,-1,-1,-1,,9999,0,0,2,SCT 16   BKN 25,1,17,1,13,1017,RORS 260700Z 02029KT 9999 SCT016 BKN025 17/13 Q1017 RMK 3CU016     7CU025 A3006=,
20180126_080000.003,0,RORS,,,,0,20180126080000,-1,-1,-1,-1,30,-1,27,-1,-1,-1,-1,,9999,0,1,2,SCT 19   BKN 28,1,17,1,13,1018,RORS 260800Z 03027KT 9999 -SHRA SCT019 BKN028 17/13 Q1018 RMK     4CU019 6CU028 A3007=,- RA SH
20180126_090000.002,0,RORS,,,,0,20180126090000,-1,-1,-1,-1,30,-1,28,-1,-1,-1,-1,,9999,0,1,2,SCT 17   BKN 27,1,16,1,14,1018,RORS 260900Z 03028KT 9999 -SHRA SCT017 BKN027 16/14 Q1018 RMK     4CU017 7CU027 A3009=,- RA SH
20180126_100000.002,0,RORS,,,,0,20180126100000,-1,-1,-1,-1,40,-1,30,-1,-1,-1,-1,,5000,0,1,3,FEW 10   SCT 15   BKN 24,1,15,1,13,1019,RORS 261000Z 04030KT 5000 -SHRA FEW010 SCT015 BKN024 15/13     Q1019 RMK 1CU010 4CU015 6CU024 A3011=,- RA SH
20180126_110000.002,0,RORS,,,,0,20180126110000,-1,-1,-1,-1,-1,-1,-1,-1,-1,-1,-1,,-1,0,0,0,,0,-1,0,-1,-1,RORS 261100Z NIL=,
20180126_220000.002,0,RORS,,,,0,20180126220000,-1,-1,-1,-1,50,-1,21,-1,-1,-1,-1,,9999,0,0,2,SCT 23   BKN 40,1,16,1,12,1020,RORS 262200Z 05021KT 9999 SCT023 BKN040 16/12 Q1020 RMK 4CU023     7SC040 A3013=,
20180126_230000.002,0,RORS,,,,0,20180126230000,-1,-1,-1,-1,60,-1,19,-1,-1,-1,-1,,9999,0,0,2,SCT 26   BKN 45,1,17,1,11,1020,RORS 262300Z 06019KT 9999 SCT026 BKN045 17/11 Q1020 RMK 3CU026     7SC045 A3014=,
20180127_000000.002,0,RORS,,,,0,20180127000000,-1,-1,-1,-1,50,-1,21,-1,-1,-1,-1,,9999,0,0,2,SCT 29   BKN 40,1,17,1,11,1021,RORS 270000Z 05021KT 9999 SCT029 BKN040 17/11 Q1021 RMK 4CU029     7SC040 A3016=,
20180127_010000.002,0,RORS,,,,0,20180127010000,-1,-1,-1,-1,50,-1,20,-1,-1,-1,-1,,9999,0,0,2,SCT 26   BKN 40,1,17,1,12,1021,RORS 270100Z 05020KT 9999 SCT026 BKN040 17/12 Q1021 RMK 4CU026     7SC040 A3016=,
20180127_020000.002,0,RORS,,,,0,20180127020000,-1,-1,-1,-1,60,-1,19,-1,-1,-1,-1,,9999,0,0,3,SCT 30   SCT 40   BKN 50,1,18,1,11,1021,RORS 270200Z 06019KT 9999 SCT030 SCT040 BKN050 18/11 Q1021 RMK     3CU030 4SC040 7SC050 A3017=,
20180127_030000.002,0,RORS,,,,0,20180127030000,-1,-1,-1,-1,60,-1,17,-1,-1,-1,-1,,9999,0,0,2,SCT 30   BKN 47,1,19,1,12,1020,RORS 270300Z 06017KT 9999 SCT030 BKN047 19/12 Q1020 RMK 3CU030     7SC047 A3014=,
20180127_040000.002,0,RORS,,,,0,20180127040000,-1,-1,-1,-1,50,-1,16,-1,-1,-1,-1,,9999,0,0,3,FEW 28   SCT 33   BKN 41,1,19,1,12,1019,RORS 270400Z 05016KT 9999 FEW028 SCT033 BKN041 19/12 Q1019 RMK     2CU028 4CU033 7SC041 A3011=,
20180127_050000.002,0,RORS,,,,0,20180127050000,-1,-1,-1,-1,60,-1,17,-1,-1,-1,-1,,9999,0,0,2,SCT 30   BKN 48,1,19,1,12,1018,RORS 270500Z 06017KT 9999 SCT030 BKN048 19/12 Q1018 RMK 3CU030     6SC048 A3008=,
20180127_060000.002,0,RORS,,,,0,20180127060000,-1,-1,-1,-1,70,-1,15,-1,-1,-1,-1,,9999,0,0,2,FEW 29   BKN 49,1,20,1,12,1017,RORS 270600Z 07015KT 9999 FEW029 BKN049 20/12 Q1017 RMK 2CU029     6SC049 A3006=,
20180127_070000.002,0,RORS,,,,0,20180127070000,-1,-1,-1,-1,80,-1,14,-1,-1,-1,-1,,9999,0,0,2,FEW 30   BKN 45,1,19,1,11,1017,RORS 270700Z 08014KT 9999 FEW030 BKN045 19/11 Q1017 RMK 2CU030     5SC045 A3004=,
20180127_080000.002,0,RORS,,,,0,20180127080000,-1,-1,-1,-1,60,-1,13,-1,-1,-1,-1,,9999,0,0,2,FEW 30   BKN 46,1,19,1,12,1017,RORS 270800Z 06013KT 9999 FEW030 BKN046 19/12 Q1017 RMK 1CU030     6SC046 A3004=,
20180127_090000.003,0,RORS,,,,0,20180127090000,-1,-1,-1,-1,70,-1,13,-1,-1,-1,-1,,9999,0,0,2,FEW 30   BKN 45,1,18,1,11,1017,RORS 270900Z 07013KT 9999 FEW030 BKN045 18/11 Q1017 RMK 1CU030     7SC045 A3005=,
20180127_100000.002,0,RORS,,,,0,20180127100000,-1,-1,-1,-1,80,-1,13,-1,-1,-1,-1,,9999,0,0,1,BKN 43,1,18,1,12,1017,RORS 271000Z 08013KT 9999 BKN043 18/12 Q1017 RMK 7SC043 A3005=,
20180127_110000.002,0,RORS,,,,0,20180127110000,-1,-1,-1,-1,-1,-1,-1,-1,-1,-1,-1,,-1,0,0,0,,0,-1,0,-1,-1,RORS 271100Z NIL=,
20180127_220000.002,0,RORS,,,,0,20180127220000,-1,-1,-1,-1,110,-1,8,-1,-1,-1,-1,,9999,0,0,3,FEW 27   SCT 38   BKN 90,1,19,1,16,1013,RORS 272200Z 11008KT 9999 FEW027 SCT038 BKN090 19/16 Q1013 RMK     2CU027 3SC038 6AC090 A2992=,
20180127_230000.002,0,RORS,,,,0,20180127230000,-1,-1,-1,-1,140,-1,14,-1,-1,-1,-1,,9999,0,0,2,FEW 26   BKN 80,1,20,1,16,1013,RORS 272300Z 14014KT 9999 FEW026 BKN080 20/16 Q1013 RMK 2CU026     6AC080 A2992=,
20180128_000000.003,0,RORS,,,,0,20180128000000,-1,-1,-1,-1,140,-1,16,-1,-1,-1,-1,,9999,0,0,1,SCT 26,1,22,1,17,1013,RORS 280000Z 14016KT 9999 SCT026 22/17 Q1013 RMK 4CU026 A2994=,
20180128_010000.002,0,RORS,,,,0,20180128010000,-1,-1,-1,-1,150,-1,15,-1,-1,-1,-1,,9999,0,0,3,FEW 26   SCT 50   BKN 90,1,22,1,17,1014,RORS 280100Z 15015KT 9999 FEW026 SCT050 BKN090 22/17 Q1014 RMK     2CU026 4SC050 7AC090 A2995=,
20180128_020000.002,0,RORS,,,,0,20180128020000,-1,-1,-1,-1,150,-1,16,-1,-1,-1,-1,,9999,0,0,3,FEW 26   SCT 50   BKN 90,1,23,1,17,1014,RORS 280200Z 15016KT 9999 FEW026 SCT050 BKN090 23/17 Q1014 RMK     1CU026 4SC050 6AC090 A2995=,
20180128_030000.002,0,RORS,,,,0,20180128030000,-1,-1,-1,-1,160,-1,19,-1,-1,-1,-1,,9999,0,0,2,FEW 26   BKN 90,1,24,1,17,1013,RORS 280300Z 16019KT 9999 FEW026 BKN090 24/17 Q1013 RMK 2CU026     6AC090 A2992=,
20180128_040000.002,0,RORS,,,,0,20180128040000,-1,-1,-1,-1,160,-1,19,-1,-1,-1,-1,,9999,0,0,2,SCT 24   SCT 110,1,25,1,18,1011,RORS 280400Z 16019KT 9999 SCT024 SCT110 25/18 Q1011 RMK 3CU024     3AC110 A2988=,
20180128_050000.002,0,RORS,,,,0,20180128050000,-1,-1,-1,-1,170,-1,23,-1,-1,-1,-1,,9999,0,0,2,SCT 24   SCT 47,1,24,1,17,1011,RORS 280500Z 17023KT 9999 SCT024 SCT047 24/17 Q1011 RMK 4CU024     4SC047 A2985=,
20180128_060000.002,0,RORS,,,,0,20180128060000,-1,-1,-1,-1,170,-1,21,-1,-1,-1,-1,,9999,0,0,2,BKN 25   BKN 44,1,24,1,17,1010,RORS 280600Z 17021KT 9999 BKN025 BKN044 24/17 Q1010 RMK 5CU025     7SC044 A2984=,
20180128_070000.003,0,RORS,,,,0,20180128070000,-1,-1,-1,-1,170,-1,23,-1,-1,-1,-1,,9999,0,0,3,FEW 23   SCT 34   BKN 43,1,23,1,17,1009,RORS 280700Z 17023KT 9999 FEW023 SCT034 BKN043 23/17 Q1009 RMK     2CU023 4CU034 7SC043 A2982=,
20180128_080000.002,0,RORS,,,,0,20180128080000,-1,-1,-1,-1,180,-1,22,-1,-1,-1,-1,,4000,0,2,1,BKN 22,1,22,1,19,1010,RORS 280800Z 18022KT 4000 -SHRA BR BKN022 22/19 Q1010 RMK     6CU022 A2983=,- RA SH; BR
20180128_090000.002,0,RORS,,,,0,20180128090000,-1,-1,-1,-1,240,-1,20,-1,-1,-1,-1,,2000,1,1,3,FEW 8   BKN 12   BKN 18,1,20,1,19,1011,RORS 280900Z 24020KT 2000 R17/1800U +SHRA FEW008 BKN012 BKN018     20/19 Q1011 RMK 2ST008 5CU012 7CU018 A2987=,+ RA SH
20180128_100000.002,0,RORS,,,,0,20180128100000,-1,-1,-1,-1,350,-1,25,-1,-1,-1,-1,,6000,0,1,2,SCT 9   BKN 19,1,19,1,18,1012,RORS 281000Z 35025KT 6000 -SHRA SCT009 BKN019 19/18 Q1012 RMK     4CU009 7CU019 A2990=,- RA SH
20180128_110000.002,0,RORS,,,,0,20180128110000,-1,-1,-1,-1,-1,-1,-1,-1,-1,-1,-1,,-1,0,0,0,,0,-1,0,-1,-1,RORS 281100Z NIL=,
20180128_220000.003,0,RORS,,,,0,20180128220000,-1,-1,-1,-1,20,-1,30,-1,-1,-1,-1,,9999,0,0,3,FEW 19   SCT 27   BKN 38,1,16,1,14,1016,RORS 282200Z 02030KT 9999 FEW019 SCT027 BKN038 16/14 Q1016 RMK     1CU019 4CU027 7SC038 A3002=,
20180128_230000.002,0,RORS,,,,0,20180128230000,-1,-1,-1,-1,20,-1,28,-1,-1,-1,-1,,9999,0,0,2,SCT 21   BKN 25,1,16,1,13,1017,RORS 282300Z 02028KT 9999 SCT021 BKN025 16/13 Q1017 RMK 4CU021     6CU025 A3005=,
20180129_000000.003,0,RORS,,,,0,20180129000000,-1,-1,-1,-1,20,-1,26,-1,-1,-1,-1,,9999,0,0,2,SCT 21   BKN 28,1,16,1,12,1017,RORS 290000Z 02026KT 9999 SCT021 BKN028 16/12 Q1017 RMK 3CU021     7CU028 A3004=,
20180129_010000.002,0,RORS,,,,0,20180129010000,-1,-1,-1,-1,10,-1,28,-1,-1,-1,-1,,9999,0,1,2,FEW 17   BKN 31,1,16,1,13,1018,RORS 290100Z 01028KT 9999 -SHRA FEW017 BKN031 16/13 Q1018 RMK     2CU017 7CU031 A3009=,- RA SH
20180129_020000.002,0,RORS,,,,0,20180129020000,-1,-1,-1,-1,10,-1,29,-1,-1,-1,-1,,9999,0,1,2,BKN 20   BKN 38,1,17,1,13,1018,RORS 290200Z 01029KT 9999 -SHRA BKN020 BKN038 17/13 Q1018 RMK     5CU020 7SC038 A3008=,- RA SH
20180129_030000.002,0,RORS,,,,0,20180129030000,-1,-1,-1,-1,10,-1,28,-1,-1,-1,-1,,9999,0,0,2,FEW 20   BKN 33,1,16,1,12,1018,RORS 290300Z 01028KT 9999 FEW020 BKN033 16/12 Q1018 RMK 2CU020     7CU033 A3008=,
20180129_040000.002,0,RORS,,,,0,20180129040000,-1,-1,-1,-1,20,-1,24,-1,-1,-1,-1,,9999,0,0,2,FEW 22   BKN 28,1,16,1,11,1018,RORS 290400Z 02024KT 9999 FEW022 BKN028 16/11 Q1018 RMK 2CU022     7CU028 A3006=,
20180129_050000.002,0,RORS,,,,0,20180129050000,-1,-1,-1,-1,10,-1,22,-1,-1,-1,-1,,9999,0,0,2,SCT 22   BKN 31,1,16,1,12,1017,RORS 290500Z 01022KT 9999 SCT022 BKN031 16/12 Q1017 RMK 3CU022     6CU031 A3004=,
20180129_060000.002,0,RORS,,,,0,20180129060000,-1,-1,-1,-1,20,-1,25,-1,-1,-1,-1,,9999,0,0,2,SCT 22   BKN 27,1,16,1,11,1017,RORS 290600Z 02025KT 9999 SCT022 BKN027 16/11 Q1017 RMK 3CU022     7CU027 A3004=,
20180129_070000.002,0,RORS,,,,0,20180129070000,-1,-1,-1,-1,20,-1,25,-1,-1,-1,-1,,9000,0,1,2,FEW 20   BKN 29,1,15,1,11,1017,RORS 290700Z 02025KT 9000 -SHRA FEW020 BKN029 15/11 Q1017 RMK     1CU020 7CU029 A3003=,- RA SH
20180129_080000.002,0,RORS,,,,0,20180129080000,-1,-1,-1,-1,30,-1,27,-1,-1,-1,-1,,9000,0,1,2,SCT 19   BKN 28,1,15,1,12,1017,RORS 290800Z 03027KT 9000 -SHRA SCT019 BKN028 15/12 Q1017 RMK     3CU019 7CU028 A3005=,- RA SH
20180129_090000.002,0,RORS,,,,0,20180129090000,-1,-1,-1,-1,20,-1,28,-1,-1,-1,-1,,9999,0,1,2,FEW 23   BKN 30,1,15,1,11,1018,RORS 290900Z 02028KT 9999 VCSH FEW023 BKN030 15/11 Q1018 RMK     2CU023 7CU030 A3007=,VC SH
20180129_100000.002,0,RORS,,,,0,20180129100000,-1,-1,-1,-1,10,-1,24,-1,-1,-1,-1,,9999,0,0,3,FEW 21   SCT 26   BKN 32,1,16,1,11,1019,RORS 291000Z 01024KT 9999 FEW021 SCT026 BKN032 16/11 Q1019 RMK     1CU021 4CU026 6CU032 A3009=,
20180129_110000.002,0,RORS,,,,0,20180129110000,-1,-1,-1,-1,-1,-1,-1,-1,-1,-1,-1,,-1,0,0,0,,0,-1,0,-1,-1,RORS 291100Z NIL=,
20180129_220000.002,0,RORS,,,,0,20180129220000,-1,-1,-1,-1,30,-1,22,-1,-1,-1,-1,,9999,0,1,2,SCT 28   BKN 38,1,16,1,11,1020,RORS 292200Z 03022KT 9999 -SHRA SCT028 BKN038 16/11 Q1020 RMK     4CU028 7SC038 A3014=,- RA SH
20180129_230000.002,0,RORS,,,,0,20180129230000,-1,-1,-1,-1,30,-1,22,-1,-1,-1,-1,,9999,0,1,3,FEW 24   SCT 27   BKN 45,1,16,1,11,1021,RORS 292300Z 03022KT 9999 -SHRA FEW024 SCT027 BKN045 16/11     Q1021 RMK 1CU024 4CU027 7SC045 A3016=,- RA SH
20180130_000000.002,0,RORS,,,,0,20180130000000,-1,-1,-1,-1,30,-1,25,-1,-1,-1,-1,,9999,0,1,2,SCT 19   BKN 50,1,16,1,12,1022,RORS 300000Z 03025KT 9999 -SHRA SCT019 BKN050 16/12 Q1022 RMK     4CU019 7SC050 A3018=,- RA SH
20180130_010000.002,0,RORS,,,,0,20180130010000,-1,-1,-1,-1,40,-1,20,-1,-1,-1,-1,,9999,0,1,2,SCT 25   BKN 31,1,16,1,11,1022,RORS 300100Z 04020KT 9999 -SHRA SCT025 BKN031 16/11 Q1022 RMK     4CU025 6CU031 A3019=,- RA SH
20180130_020000.002,0,RORS,,,,0,20180130020000,-1,-1,-1,-1,40,-1,19,-1,-1,-1,-1,,9999,0,0,2,SCT 27   BKN 48,1,17,1,11,1021,RORS 300200Z 04019KT 9999 SCT027 BKN048 17/11 Q1021 RMK 4CU027     7SC048 A3016=,
20180130_030000.002,0,RORS,,,,0,20180130030000,-1,-1,-1,-1,60,-1,19,-1,-1,-1,-1,,9999,0,0,2,SCT 27   BKN 40,1,17,1,11,1019,RORS 300300Z 06019KT 9999 SCT027 BKN040 17/11 Q1019 RMK 4CU027     7SC040 A3011=,
20180130_040000.002,0,RORS,,,,0,20180130040000,-1,-1,-1,-1,60,-1,17,-1,-1,-1,-1,,9999,0,0,3,FEW 25   SCT 32   BKN 40,1,17,1,11,1019,RORS 300400Z 06017KT 9999 FEW025 SCT032 BKN040 17/11 Q1019 RMK     2CU025 4CU032 7SC040 A3010=,
20180130_050000.002,0,RORS,,,,0,20180130050000,-1,-1,-1,-1,60,-1,14,-1,-1,-1,-1,,9999,0,0,2,SCT 30   BKN 50,1,18,1,11,1019,RORS 300500Z 06014KT 9999 SCT030 BKN050 18/11 Q1019 RMK 4CU030     7SC050 A3010=,
20180130_060000.003,0,RORS,,,,0,20180130060000,-1,-1,-1,-1,30,-1,22,-1,-1,-1,-1,,9999,0,1,3,FEW 20   BKN 31   BKN 39,1,16,1,12,1018,RORS 300600Z 03022KT 9999 -SHRA FEW020 BKN031 BKN039 16/12     Q1018 RMK 2CU020 5CU031 7SC039 A3009=,- RA SH
20180130_070000.002,0,RORS,,,,0,20180130070000,-1,-1,-1,-1,50,-1,19,-1,-1,-1,-1,,9999,0,1,3,FEW 18   SCT 30   BKN 40,1,16,1,12,1018,RORS 300700Z 05019KT 9999 -SHRA FEW018 SCT030 BKN040 16/12     Q1018 RMK 2CU018 4CU030 7SC040 A3009=,- RA SH
20180130_080000.002,0,RORS,,,,0,20180130080000,-1,-1,-1,-1,40,-1,20,-1,-1,-1,-1,,9999,0,1,3,SCT 18   BKN 25   BKN 50,1,16,1,12,1018,RORS 300800Z 04020KT 9999 -SHRA SCT018 BKN025 BKN050 16/12     Q1018 RMK 3CU018 5CU025 7SC050 A3008=,- RA SH
20180130_090000.002,0,RORS,,,,0,20180130090000,-1,-1,-1,-1,50,-1,20,-1,-1,-1,-1,,9999,0,0,3,FEW 22   SCT 30   BKN 44,1,17,1,11,1018,RORS 300900Z 05020KT 9999 FEW022 SCT030 BKN044 17/11 Q1018 RMK     2CU022 3CU030 7SC044 A3009=,
20180130_100000.002,0,RORS,,,,0,20180130100000,-1,-1,-1,-1,60,-1,19,-1,-1,-1,-1,,9999,0,0,3,FEW 25   SCT 31   BKN 40,1,17,1,12,1019,RORS 301000Z 06019KT 9999 FEW025 SCT031 BKN040 17/12 Q1019 RMK     2CU025 4CU031 7SC040 A3010=,
20180130_110000.002,0,RORS,,,,0,20180130110000,-1,-1,-1,-1,-1,-1,-1,-1,-1,-1,-1,,-1,0,0,0,,0,-1,0,-1,-1,RORS 301100Z NIL=,
20180130_220000.002,0,RORS,,,,0,20180130220000,-1,-1,-1,-1,80,-1,18,-1,-1,-1,-1,,9999,0,0,2,FEW 27   BKN 70,1,19,1,13,1018,RORS 302200Z 08018KT 9999 FEW027 BKN070 19/13 Q1018 RMK 1CU027     7AC070 A3008=,
20180130_230000.002,0,RORS,,,,0,20180130230000,-1,-1,-1,-1,90,-1,18,-1,-1,-1,-1,,9999,0,0,3,FEW 27   SCT 40   BKN 70,1,19,1,14,1019,RORS 302300Z 09018KT 9999 FEW027 SCT040 BKN070 19/14 Q1019 RMK     1CU027 4SC040 7AC070 A3009=,
20180131_000000.002,0,RORS,,,,0,20180131000000,-1,-1,-1,-1,80,-1,17,-1,-1,-1,-1,,9999,0,0,3,FEW 27   SCT 43   BKN 60,1,20,1,15,1019,RORS 310000Z 08017KT 9999 FEW027 SCT043 BKN060 20/15 Q1019 RMK     1CU027 3SC043 7SC060 A3009=,
20180131_010000.002,0,RORS,,,,0,20180131010000,-1,-1,-1,-1,90,-1,17,-1,-1,-1,-1,,9999,0,1,3,FEW 29   SCT 60   BKN 70,1,20,1,15,1019,RORS 310100Z 09017KT 9999 -RA FEW029 SCT060 BKN070 20/15 Q1019     RMK 1CU029 4SC060 7AS070 A3010=,- RA
20180131_020000.002,0,RORS,,,,0,20180131020000,-1,-1,-1,-1,100,-1,19,-1,-1,-1,-1,,9999,0,1,2,SCT 28   BKN 48,1,19,1,15,1018,RORS 310200Z 10019KT 9999 -SHRA SCT028 BKN048 19/15 Q1018 RMK     3CU028 6SC048 A3008=,- RA SH
20180131_030000.002,0,RORS,,,,0,20180131030000,-1,-1,-1,-1,100,-1,16,-1,-1,-1,-1,,9999,0,1,2,SCT 29   BKN 41,1,20,1,16,1017,RORS 310300Z 10016KT 9999 -SHRA SCT029 BKN041 20/16 Q1017 RMK     3CU029 6SC041 A3005=,- RA SH
20180131_040000.002,0,RORS,,,,0,20180131040000,-1,-1,-1,-1,110,-1,13,-1,-1,-1,-1,,7000,0,1,3,FEW 10   SCT 15   BKN 60,1,19,1,18,1016,RORS 310400Z 11013KT 7000 -SHRA FEW010 SCT015 BKN060 19/18     Q1016 RMK 1CU010 4CU015 6SC060 A3002=,- RA SH
20180131_050000.002,0,RORS,,,,0,20180131050000,-1,-1,-1,-1,110,-1,16,-1,-1,-1,-1,,9999,0,0,2,FEW 25   BKN 70,1,21,1,18,1014,RORS 310500Z 11016KT 9999 FEW025 BKN070 21/18 Q1014 RMK 2CU025     6AC070 A2997=,
20180131_060000.002,0,RORS,,,,0,20180131060000,-1,-1,-1,-1,120,-1,18,-1,-1,-1,-1,,9999,0,0,2,SCT 24   BKN 70,1,22,1,17,1013,RORS 310600Z 12018KT 9999 SCT024 BKN070 22/17 Q1013 RMK 3CU024     6AC070 A2994=,
20180131_070000.003,0,RORS,,,,0,20180131070000,-1,-1,-1,-1,140,-1,20,-1,-1,-1,-1,,9999,0,1,2,SCT 22   BKN 50,1,22,1,17,1013,RORS 310700Z 14020KT 9999 VCSH SCT022 BKN050 22/17 Q1013 RMK     3CU022 6SC050 A2993=,VC SH
20180131_080000.003,0,RORS,,,,0,20180131080000,-1,-1,-1,-1,140,-1,16,-1,-1,-1,-1,,5000,0,1,3,FEW 16   BKN 28   BKN 50,1,20,1,18,1013,RORS 310800Z 14016KT 5000 -SHRA FEW016 BKN028 BKN050 20/18     Q1013 RMK 2CU016 5CU028 7SC050 A2993=,- RA SH
20180131_090000.002,0,RORS,,,,0,20180131090000,-1,-1,-1,-1,160,-1,20,-1,-1,-1,-1,,9999,0,1,3,FEW 25   SCT 30   BKN 40,1,20,1,17,1013,RORS 310900Z 16020KT 9999 -SHRA FEW025 SCT030 BKN040 20/17     Q1013 RMK 2CU025 4CU030 6SC040 A2993=,- RA SH
20180131_100000.002,0,RORS,,,,0,20180131100000,-1,-1,-1,-1,160,-1,18,-1,-1,-1,-1,,9999,0,1,2,SCT 23   BKN 50,1,21,1,18,1013,RORS 311000Z 16018KT 9999 VCSH SCT023 BKN050 21/18 Q1013 RMK     3CU023 6SC050 A2993=,VC SH
20180131_110000.002,0,RORS,,,,0,20180131110000,-1,-1,-1,-1,-1,-1,-1,-1,-1,-1,-1,,-1,0,0,0,,0,-1,0,-1,-1,RORS 311100Z NIL=,
20180131_220000.002,0,RORS,,,,0,20180131220000,-1,-1,-1,-1,360,-1,32,-1,-1,-1,-1,,9999,0,1,2,FEW 17   BKN 25,1,16,1,14,1017,RORS 312200Z 36032KT 9999 -SHRA FEW017 BKN025 16/14 Q1017 RMK     2CU017 7CU025 A3005=,- RA SH
20180131_230000.002,0,RORS,,,,0,20180131230000,-1,-1,-1,-1,360,-1,30,-1,-1,-1,-1,,9999,0,1,2,SCT 15   BKN 25,1,15,1,13,1018,RORS 312300Z 36030KT 9999 -SHRA SCT015 BKN025 15/13 Q1018 RMK     3CU015 7CU025 A3008=,- RA SH
20180201_000000.003,0,RORS,,,,0,20180201000000,-1,-1,-1,-1,360,-1,30,-1,-1,-1,-1,,9999,0,1,2,SCT 15   BKN 22,1,16,1,13,1018,RORS 010000Z 36030KT 9999 -SHRA SCT015 BKN022 16/13 Q1018 RMK     4CU015 7CU022 A3008=,- RA SH
20180201_010000.002,0,RORS,,,,0,20180201010000,-1,-1,-1,-1,360,-1,28,-1,-1,-1,-1,,9999,0,1,2,SCT 17   BKN 25,1,16,1,13,1019,RORS 010100Z 36028KT 9999 -SHRA SCT017 BKN025 16/13 Q1019 RMK     3CU017 7CU025 A3011=,- RA SH
20180201_020000.002,0,RORS,,,,0,20180201020000,-1,-1,-1,-1,10,-1,26,-1,-1,-1,-1,,9999,0,1,2,SCT 20   BKN 31,1,16,1,13,1020,RORS 010200Z 01026KT 9999 -SHRA SCT020 BKN031 16/13 Q1020 RMK     4CU020 7CU031 A3012=,- RA SH
20180201_030000.003,0,RORS,,,,0,20180201030000,-1,-1,-1,-1,10,-1,25,-1,-1,-1,-1,,9999,0,1,2,SCT 20   BKN 30,1,17,1,13,1019,RORS 010300Z 01025KT 9999 -SHRA SCT020 BKN030 17/13 Q1019 RMK     3CU020 7CU030 A3010=,- RA SH
20180201_040000.003,0,RORS,,,,0,20180201040000,-1,-1,-1,-1,360,-1,27,-1,-1,-1,-1,,9999,0,1,3,FEW 18   SCT 30   BKN 40,1,18,1,13,1019,RORS 010400Z 36027KT 9999 -SHRA FEW018 SCT030 BKN040 18/13     Q1019 RMK 2CU018 3CU030 6SC040 A3010=,- RA SH
20180201_050000.002,0,RORS,,,,0,20180201050000,-1,-1,-1,-1,360,-1,24,-1,-1,-1,-1,,9999,0,1,2,SCT 19   BKN 45,1,18,1,13,1018,RORS 010500Z 36024KT 9999 VCSH SCT019 BKN045 18/13 Q1018 RMK     4CU019 6SC045 A3008=,VC SH
20180201_060000.002,0,RORS,,,,0,20180201060000,-1,-1,-1,-1,360,-1,24,-1,-1,-1,-1,,9999,0,0,2,SCT 25   BKN 40,1,17,1,12,1018,RORS 010600Z 36024KT 9999 SCT025 BKN040 17/12 Q1018 RMK 4CU025     6SC040 A3007=,
20180201_070000.002,0,RORS,,,,0,20180201070000,-1,-1,-1,-1,10,-1,22,-1,-1,-1,-1,,9999,0,1,2,SCT 27   BKN 40,1,17,1,12,1018,RORS 010700Z 01022KT 9999 -SHRA SCT027 BKN040 17/12 Q1018 RMK     3CU027 6SC040 A3007=,- RA SH
20180201_080000.002,0,RORS,,,,0,20180201080000,-1,-1,-1,-1,20,-1,21,-1,-1,-1,-1,,9999,0,0,2,SCT 26   BKN 45,1,17,1,11,1018,RORS 010800Z 02021KT 9999 SCT026 BKN045 17/11 Q1018 RMK 4CU026     6SC045 A3008=,
20180201_090000.002,0,RORS,,,,0,20180201090000,-1,-1,-1,-1,10,-1,20,-1,-1,-1,-1,,9999,0,1,2,SCT 27   BKN 40,1,17,1,11,1019,RORS 010900Z 01020KT 9999 -SHRA SCT027 BKN040 17/11 Q1019 RMK     4CU027 7SC040 A3010=,- RA SH
20180201_100000.002,0,RORS,,,,0,20180201100000,-1,-1,-1,-1,20,-1,22,-1,-1,-1,-1,,9999,0,1,2,SCT 28   BKN 40,1,17,1,12,1019,RORS 011000Z 02022KT 9999 -SHRA SCT028 BKN040 17/12 Q1019 RMK     4CU028 7SC040 A3011=,- RA SH
20180201_110000.002,0,RORS,,,,0,20180201110000,-1,-1,-1,-1,-1,-1,-1,-1,-1,-1,-1,,-1,0,0,0,,0,-1,0,-1,-1,RORS 011100Z NIL=,
20180201_220000.002,0,RORS,,,,0,20180201220000,-1,-1,-1,-1,20,-1,17,-1,-1,-1,-1,,9999,0,0,2,FEW 29   BKN 100,1,18,1,12,1020,RORS 012200Z 02017KT 9999 FEW029 BKN100 18/12 Q1020 RMK 1CU029     6AC100 A3014=,
20180201_230000.003,0,RORS,,,,0,20180201230000,-1,-1,-1,-1,60,-1,13,-1,-1,-1,-1,,9999,0,0,1,FEW 29,1,18,1,12,1020,RORS 012300Z 06013KT 9999 FEW029 18/12 Q1020 RMK 2CU029 A3013=,
20180202_000000.002,0,RORS,,,,0,20180202000000,-1,-1,-1,-1,50,-1,14,-1,-1,-1,-1,,9999,0,0,1,SCT 27,1,19,1,13,1020,RORS 020000Z 05014KT 9999 SCT027 19/13 Q1020 RMK 4CU027 A3014=,
20180202_010000.002,0,RORS,,,,0,20180202010000,-1,-1,-1,-1,50,-1,16,-1,-1,-1,-1,,9999,0,0,1,SCT 28,1,20,1,13,1021,RORS 020100Z 05016KT 9999 SCT028 20/13 Q1021 RMK 3CU028 A3016=,
20180202_020000.002,0,RORS,,,,0,20180202020000,-1,-1,-1,-1,40,-1,15,-1,-1,-1,-1,,9999,0,1,2,SCT 30   BKN 45,1,19,1,12,1021,RORS 020200Z 04015KT 9999 -SHRA SCT030 BKN045 19/12 Q1021 RMK     4CU030 6SC045 A3016=,- RA SH
20180202_030000.002,0,RORS,,,,0,20180202030000,-1,-1,-1,-1,360,-1,21,-1,-1,-1,-1,,9999,0,1,2,FEW 20   BKN 28,1,17,1,14,1020,RORS 020300Z 36021KT 9999 -SHRA FEW020 BKN028 17/14 Q1020 RMK     1CU020 6CU028 A3014=,- RA SH
20180202_040000.002,0,RORS,,,,0,20180202040000,-1,-1,-1,-1,20,-1,22,-1,-1,-1,-1,,9999,0,1,2,BKN 20   BKN 38,1,17,1,15,1020,RORS 020400Z 02022KT 9999 -SHRA BKN020 BKN038 17/15 Q1020 RMK     5CU020 7SC038 A3012=,- RA SH
20180202_050000.001,0,RORS,,,,0,20180202050000,-1,-1,-1,-1,30,-1,22,-1,-1,-1,-1,,9999,0,1,3,FEW 20   BKN 24   BKN 35,1,17,1,14,1019,RORS 020500Z 03022KT 9999 -SHRA FEW020 BKN024 BKN035 17/14     Q1019 RMK 1CU020 5CU024 6SC035 A3010=,- RA SH
20180202_060000.002,0,RORS,,,,0,20180202060000,-1,-1,-1,-1,30,-1,20,-1,-1,-1,-1,,9999,0,0,3,FEW 24   SCT 29   BKN 45,1,18,1,13,1019,RORS 020600Z 03020KT 9999 FEW024 SCT029 BKN045 18/13 Q1019 RMK     1CU024 4CU029 6SC045 A3009=,
20180202_070000.002,0,RORS,,,,0,20180202070000,-1,-1,-1,-1,20,-1,23,-1,-1,-1,-1,,9999,0,1,3,FEW 20   SCT 25   BKN 100,1,18,1,14,1018,RORS 020700Z 02023KT 9999 VCSH FEW020 SCT025 BKN100 18/14     Q1018 RMK 2CU020 4CU025 6AC100 A3008=,VC SH
20180202_080000.002,0,RORS,,,,0,20180202080000,-1,-1,-1,-1,20,-1,22,-1,-1,-1,-1,,9999,0,1,2,SCT 21   BKN 50,1,17,1,14,1019,RORS 020800Z 02022KT 9999 -SHRA SCT021 BKN050 17/14 Q1019 RMK     4CU021 7SC050 A3010=,- RA SH
20180202_090000.002,0,RORS,,,,0,20180202090000,-1,-1,-1,-1,20,-1,22,-1,-1,-1,-1,,9999,0,1,3,FEW 13   SCT 35   BKN 60,1,16,1,14,1019,RORS 020900Z 02022KT 9999 -SHRA FEW013 SCT035 BKN060 16/14     Q1019 RMK 2CU013 4SC035 7SC060 A3011=,- RA SH
20180202_100000.003,0,RORS,,,,0,20180202100000,-1,-1,-1,-1,10,-1,29,-1,-1,-1,-1,,5000,0,1,2,BKN 14   BKN 44,1,16,1,14,1020,RORS 021000Z 01029KT 5000 -SHRA BKN014 BKN044 16/14 Q1020 RMK     5CU014 7SC044 A3013=,- RA SH
20180202_110000.002,0,RORS,,,,0,20180202110000,-1,-1,-1,-1,-1,-1,-1,-1,-1,-1,-1,,-1,0,0,0,,0,-1,0,-1,-1,RORS 021100Z NIL=,
20180202_220000.002,0,RORS,,,,0,20180202220000,-1,-1,-1,-1,10,-1,28,-1,-1,-1,-1,,9999,0,1,3,FEW 15   BKN 25   BKN 37,1,14,1,11,1022,RORS 022200Z 01028KT 9999 -SHRA FEW015 BKN025 BKN037 14/11     Q1022 RMK 2CU015 5CU025 6SC037 A3020=,- RA SH
20180202_230000.003,0,RORS,,,,0,20180202230000,-1,-1,-1,-1,10,-1,29,-1,-1,-1,-1,,9999,0,1,3,FEW 16   BKN 25   BKN 40,1,14,1,10,1022,RORS 022300Z 01029KT 9999 -SHRA FEW016 BKN025 BKN040 14/10     Q1022 RMK 2CU016 5CU025 6SC040 A3020=,- RA SH
20180203_000000.002,0,RORS,,,,0,20180203000000,-1,-1,-1,-1,20,-1,26,-1,-1,-1,-1,,9999,0,1,2,BKN 23   BKN 38,1,15,1,11,1023,RORS 030000Z 02026KT 9999 -SHRA BKN023 BKN038 15/11 Q1023 RMK     5CU023 7SC038 A3021=,- RA SH
20180203_010000.003,0,RORS,,,,0,20180203010000,-1,-1,-1,-1,20,-1,26,-1,-1,-1,-1,,9999,0,1,2,SCT 20   BKN 40,1,14,1,11,1023,RORS 030100Z 02026KT 9999 -SHRA SCT020 BKN040 14/11 Q1023 RMK     4CU020 7SC040 A3022=,- RA SH
20180203_020000.002,0,RORS,,,,0,20180203020000,-1,-1,-1,-1,10,-1,26,-1,-1,-1,-1,,9999,0,1,3,FEW 16   SCT 25   BKN 38,1,14,1,12,1023,RORS 030200Z 01026KT 9999 -SHRA FEW016 SCT025 BKN038 14/12     Q1023 RMK 2CU016 4CU025 6SC038 A3023=,- RA SH
20180203_030000.002,0,RORS,,,,0,20180203030000,-1,-1,-1,-1,10,-1,26,-1,-1,-1,-1,,9999,0,1,3,FEW 19   SCT 25   BKN 40,1,14,1,11,1023,RORS 030300Z 01026KT 9999 -SHRA FEW019 SCT025 BKN040 14/11     Q1023 RMK 2CU019 4CU025 6SC040 A3021=,- RA SH
20180203_040000.002,0,RORS,,,,0,20180203040000,-1,-1,-1,-1,10,-1,26,-1,-1,-1,-1,,9999,0,1,2,BKN 24   BKN 35,1,15,1,11,1022,RORS 030400Z 01026KT 9999 -SHRA BKN024 BKN035 15/11 Q1022 RMK     5CU024 7SC035 A3018=,- RA SH
20180203_050000.002,0,RORS,,,,0,20180203050000,-1,-1,-1,-1,20,-1,26,-1,-1,-1,-1,,9999,0,1,2,BKN 24   BKN 30,1,14,1,10,1021,RORS 030500Z 02026KT 9999 -SHRA BKN024 BKN030 14/10 Q1021 RMK     5CU024 7CU030 A3016=,- RA SH
20180203_060000.002,0,RORS,,,,0,20180203060000,-1,-1,-1,-1,10,-1,27,-1,-1,-1,-1,,9999,0,1,2,SCT 18   BKN 30,1,14,1,11,1021,RORS 030600Z 01027KT 9999 -SHRA SCT018 BKN030 14/11 Q1021 RMK     4CU018 7CU030 A3015=,- RA SH
20180203_070000.003,0,RORS,,,,0,20180203070000,-1,-1,-1,-1,10,-1,28,-1,-1,-1,-1,,8000,0,1,3,FEW 12   BKN 20   BKN 29,1,13,1,11,1020,RORS 030700Z 01028KT 8000 -SHRA FEW012 BKN020 BKN029 13/11     Q1020 RMK 2CU012 5CU020 7CU029 A3015=,- RA SH
20180203_080000.002,0,RORS,,,,0,20180203080000,-1,-1,-1,-1,10,-1,28,-1,-1,-1,-1,,9000,0,1,3,FEW 21   SCT 27   BKN 40,1,13,1,10,1021,RORS 030800Z 01028KT 9000 VCSH FEW021 SCT027 BKN040 13/10     Q1021 RMK 1CU021 4CU027 7SC040 A3015=,VC SH
20180203_090000.002,0,RORS,,,,0,20180203090000,-1,-1,-1,-1,10,-1,25,-1,-1,-1,-1,,9999,0,0,2,SCT 26   BKN 35,1,14,1,9,1021,RORS 030900Z 01025KT 9999 SCT026 BKN035 14/09 Q1021 RMK 4CU026     7SC035 A3016=,
20180203_100000.002,0,RORS,,,,0,20180203100000,-1,-1,-1,-1,30,-1,23,-1,-1,-1,-1,,9999,0,0,2,BKN 29   BKN 35,1,15,1,9,1021,RORS 031000Z 03023KT 9999 BKN029 BKN035 15/09 Q1021 RMK 5CU029     7SC035 A3016=,
20180203_110000.002,0,RORS,,,,0,20180203110000,-1,-1,-1,-1,-1,-1,-1,-1,-1,-1,-1,,-1,0,0,0,,0,-1,0,-1,-1,RORS 031100Z NIL=,
20180203_220000.002,0,RORS,,,,0,20180203220000,-1,-1,-1,-1,20,-1,26,-1,-1,-1,-1,,9999,0,1,3,FEW 22   SCT 28   BKN 40,1,13,1,9,1022,RORS 032200Z 02026KT 9999 -SHRA FEW022 SCT028 BKN040 13/09     Q1022 RMK 1CU022 4CU028 7SC040 A3020=,- RA SH
20180203_230000.002,0,RORS,,,,0,20180203230000,-1,-1,-1,-1,10,-1,29,-1,-1,-1,-1,,3000,0,2,2,BKN 13   BKN 41,1,12,1,10,1023,RORS 032300Z 01029KT 3000 -SHRA BR BKN013 BKN041 12/10 Q1023     RMK 5CU013 7SC041 A3021=,- RA SH; BR
20180204_000000.002,0,RORS,,,,0,20180204000000,-1,-1,-1,-1,20,-1,28,-1,-1,-1,-1,,9999,0,0,2,SCT 15   BKN 45,1,13,1,10,1023,RORS 040000Z 02028KT 9999 SCT015 BKN045 13/10 Q1023 RMK 4CU015     7SC045 A3022=,
20180204_010000.002,0,RORS,,,,0,20180204010000,-1,-1,-1,-1,20,-1,26,-1,-1,-1,-1,,9999,0,1,2,SCT 23   BKN 29,1,13,1,10,1023,RORS 040100Z 02026KT 9999 -SHRA SCT023 BKN029 13/10 Q1023 RMK     3CU023 6CU029 A3023=,- RA SH
20180204_020000.002,0,RORS,,,,0,20180204020000,-1,-1,-1,-1,20,-1,28,-1,-1,-1,-1,,9999,0,0,2,SCT 24   BKN 39,1,13,1,10,1023,RORS 040200Z 02028KT 9999 SCT024 BKN039 13/10 Q1023 RMK 4CU024     7SC039 A3021=,
20180204_030000.002,0,RORS,,,,0,20180204030000,-1,-1,-1,-1,20,-1,27,-1,-1,-1,-1,,9999,0,1,2,SCT 19   BKN 34,1,13,1,9,1023,RORS 040300Z 02027KT 9999 -SHRA SCT019 BKN034 13/09 Q1023 RMK     3CU019 6CU034 A3021=,- RA SH
20180204_040000.002,0,RORS,,,,0,20180204040000,-1,-1,-1,-1,10,-1,26,-1,-1,-1,-1,,9999,0,1,3,FEW 19   SCT 25   BKN 40,1,13,1,10,1022,RORS 040400Z 01026KT 9999 -SHRA FEW019 SCT025 BKN040 13/10     Q1022 RMK 1CU019 4CU025 7SC040 A3018=,- RA SH
20180204_050000.002,0,RORS,,,,0,20180204050000,-1,-1,-1,-1,20,-1,27,-1,-1,-1,-1,,9999,0,1,2,SCT 18   BKN 25,1,13,1,10,1021,RORS 040500Z 02027KT 9999 -SHRA SCT018 BKN025 13/10 Q1021 RMK     4CU018 6CU025 A3016=,- RA SH
20180204_060000.002,0,RORS,,,,0,20180204060000,-1,-1,-1,-1,10,-1,29,-1,-1,-1,-1,,9999,0,1,2,SCT 19   BKN 29,1,13,1,10,1020,RORS 040600Z 01029KT 9999 -SHRA SCT019 BKN029 13/10 Q1020 RMK     4CU019 6CU029 A3015=,- RA SH
20180204_070000.002,0,RORS,,,,0,20180204070000,-1,-1,-1,-1,20,-1,31,-1,-1,-1,-1,,9999,0,1,3,FEW 17   SCT 25   BKN 31,1,13,1,10,1021,RORS 040700Z 02031KT 9999 -SHRA FEW017 SCT025 BKN031 13/10     Q1021 RMK 2CU017 4CU025 7CU031 A3015=,- RA SH
20180204_080000.002,0,RORS,,,,0,20180204080000,-1,-1,-1,-1,20,-1,30,-1,-1,-1,-1,,9999,0,1,2,SCT 23   BKN 29,1,13,1,9,1021,RORS 040800Z 02030KT 9999 -SHRA SCT023 BKN029 13/09 Q1021 RMK     4CU023 7CU029 A3016=,- RA SH
20180204_090000.002,0,RORS,,,,0,20180204090000,-1,-1,-1,-1,20,-1,28,-1,-1,-1,-1,,9999,0,0,2,SCT 25   BKN 31,1,13,1,8,1022,RORS 040900Z 02028KT 9999 SCT025 BKN031 13/08 Q1022 RMK 4CU025     7CU031 A3018=,
20180204_100000.002,0,RORS,,,,0,20180204100000,-1,-1,-1,-1,10,-1,28,-1,-1,-1,-1,,9999,0,0,3,FEW 20   SCT 27   BKN 39,1,13,1,9,1022,RORS 041000Z 01028KT 9999 FEW020 SCT027 BKN039 13/09 Q1022 RMK     1CU020 3CU027 7SC039 A3020=,
20180204_110000.003,0,RORS,,,,0,20180204110000,-1,-1,-1,-1,-1,-1,-1,-1,-1,-1,-1,,-1,0,0,0,,0,-1,0,-1,-1,RORS 041100Z NIL=,
20180204_220000.002,0,RORS,,,,0,20180204220000,-1,-1,-1,-1,20,-1,25,-1,-1,-1,-1,,9999,0,1,3,FEW 23   SCT 33   BKN 39,1,11,1,8,1023,RORS 042200Z 02025KT 9999 -SHRA FEW023 SCT033 BKN039 11/08     Q1023 RMK 2CU023 4CU033 7SC039 A3022=,- RA SH
20180204_230000.002,0,RORS,,,,0,20180204230000,-1,-1,-1,-1,20,-1,26,-1,-1,-1,-1,,9999,0,1,3,FEW 15   SCT 27   BKN 40,1,11,1,8,1023,RORS 042300Z 02026KT 9999 -SHRA FEW015 SCT027 BKN040 11/08     Q1023 RMK 1CU015 4CU027 7SC040 A3022=,- RA SH
20180205_000000.003,0,RORS,,,,0,20180205000000,-1,-1,-1,-1,10,-1,25,-1,-1,-1,-1,,9999,0,1,3,FEW 17   SCT 29   BKN 39,1,11,1,9,1023,RORS 050000Z 01025KT 9999 -SHRA FEW017 SCT029 BKN039 11/09     Q1023 RMK 2CU017 4CU029 7SC039 A3023=,- RA SH
20180205_010000.002,0,RORS,,,,0,20180205010000,-1,-1,-1,-1,20,-1,26,-1,-1,-1,-1,,9999,0,1,3,FEW 17   SCT 31   BKN 39,1,12,1,9,1023,RORS 050100Z 02026KT 9999 -SHRA FEW017 SCT031 BKN039 12/09     Q1023 RMK 1CU017 3CU031 7SC039 A3023=,- RA SH
20180205_020000.002,0,RORS,,,,0,20180205020000,-1,-1,-1,-1,20,-1,24,-1,-1,-1,-1,,9999,0,1,3,FEW 23   SCT 30   BKN 39,1,12,1,9,1023,RORS 050200Z 02024KT 9999 -SHRA FEW023 SCT030 BKN039 12/09     Q1023 RMK 2CU023 4CU030 7SC039 A3023=,- RA SH
