20180101_000000.004,1,ROTM,,,,1,20180101000000,-1,-1,-1,-1,30,-1,8,-1,-1,-1,-1,,-1,0,0,1,FEW 50,1,16,1,8,1024,ROTM 010000Z AUTO 03008KT 10SM FEW050 16/08 A3025 RMK AO2     SLP231 T01610083 10161 20117 53017 $=,
20180101_010000.004,1,ROTM,,,,1,20180101010000,-1,-1,-1,-1,20,-1,11,-1,-1,-1,-1,,-1,0,0,0,,1,18,1,8,1025,ROTM 010100Z AUTO 02011KT 10SM CLR 18/08 A3026 RMK AO2 SLP233     T01780078 $=,
20180101_020000.004,1,ROTM,,,,1,20180101020000,-1,-1,-1,-1,30,-1,12,-1,-1,-1,-1,,-1,0,0,0,,1,18,1,7,1024,ROTM 010200Z AUTO 03012KT 10SM CLR 18/07 A3025 RMK AO2 SLP231     T01780067 $=,
20180101_030000.004,1,ROTM,,,,1,20180101030000,-1,-1,-1,-1,20,-1,9,-1,15,-1,-1,,-1,0,0,0,,1,19,1,8,1023,ROTM 010300Z AUTO 02009G15KT 10SM CLR 19/08 A3022 RMK AO2     SLP222 T01890078 50007 $=,
20180101_040000.004,1,ROTM,,,,1,20180101040000,-1,-1,-1,-1,20,-1,10,-1,-1,-1,-1,,-1,0,0,1,BKN 47,1,18,1,9,1023,ROTM 010400Z AUTO 02010KT 10SM BKN047 18/09 A3020 RMK AO2     SLP213 T01830089 $=,
20180101_050000.004,1,ROTM,,,,1,20180101050000,-1,-1,-1,-1,10,-1,14,-1,19,-1,-1,,-1,0,0,1,FEW 48,1,19,1,7,1022,ROTM 010500Z AUTO 01014G19KT 10SM FEW048 19/07 A3018 RMK AO2     SLP207 T01890072 $=,
20180101_060000.004,1,ROTM,,,,1,20180101060000,-1,-1,-1,-1,20,-1,12,-1,18,-1,-1,,-1,0,0,2,SCT 41   BKN 49,1,19,1,9,1022,ROTM 010600Z AUTO 02012G18KT 10SM SCT041 BKN049 19/09 A3018 RMK     AO2 SLP207 T01890094 10194 20161 56024 $=,
20180101_070000.004,1,ROTM,,,,1,20180101070000,-1,-1,-1,-1,20,-1,7,-1,-1,-1,-1,,-1,0,0,1,BKN 48,1,17,1,8,1022,ROTM 010700Z AUTO 02007KT 10SM BKN048 17/08 A3018 RMK AO2     SLP208 T01670078 $=,
20180101_080000.004,1,ROTM,,,,1,20180101080000,-1,-1,-1,-1,20,-1,8,-1,-1,-1,-1,,-1,0,0,1,FEW 45,1,17,1,7,1022,ROTM 010800Z AUTO 02008KT 10SM FEW045 17/07 A3019 RMK AO2     SLP212 T01670072 $=,
20180101_090000.004,1,ROTM,,,,1,20180101090000,-1,-1,-1,-1,20,-1,10,-1,-1,-1,-1,,-1,0,0,0,,1,15,1,8,1023,ROTM 010900Z AUTO 02010KT 10SM CLR 15/08 A3020 RMK AO2 SLP215     T01500078 53004 $=,
20180101_100000.004,1,ROTM,,,,1,20180101100000,-1,-1,-1,-1,30,-1,6,-1,-1,-1,-1,,-1,0,0,1,BKN 41,1,14,1,8,1023,ROTM 011000Z AUTO 03006KT 10SM BKN041 14/08 A3021 RMK AO2     SLP217 T01440078 $=,
20180101_110000.004,1,ROTM,,,,1,20180101110000,-1,-1,-1,-1,30,-1,4,-1,-1,-1,-1,,-1,0,0,0,,1,13,1,8,1023,ROTM 011100Z AUTO 03004KT 10SM CLR 13/08 A3022 RMK AO2 SLP223     T01330083 $=,
20180101_120000.004,1,ROTM,,,,1,20180101120000,-1,-1,-1,-1,80,-1,3,-1,-1,-1,-1,,-1,0,0,0,,1,14,1,6,1024,ROTM 011200Z AUTO 08003KT 10SM CLR 14/06 A3023 RMK AO2 SLP225     T01390061 10189 20133 53011 $=,
20180101_130000.004,1,ROTM,,,,1,20180101130000,-1,-1,-1,-1,60,-1,5,-1,-1,-1,-1,,-1,0,0,1,SCT 45,1,13,1,7,1024,ROTM 011300Z AUTO 06005KT 10SM SCT045 13/07 A3023 RMK AO2     SLP225 T01330072 $=,
20180101_140000.004,1,ROTM,,,,1,20180101140000,-1,-1,-1,-1,70,-1,6,-1,-1,-1,-1,,-1,0,0,0,,1,14,1,8,1024,ROTM 011400Z AUTO 07006KT 10SM CLR 14/08 A3024 RMK AO2 SLP228     T01440078 $=,
20180101_150000.004,1,ROTM,,,,1,20180101150000,-1,-1,-1,-1,60,-1,6,-1,-1,-1,-1,,-1,0,0,1,BKN 47,1,14,1,7,1024,ROTM 011500Z AUTO 06006KT 10SM BKN047 14/07 A3024 RMK AO2     SLP227 T01390072 401390139 52006 $=,
20180101_160000.004,1,ROTM,,,,1,20180101160000,-1,-1,-1,-1,40,-1,5,-1,-1,-1,-1,,-1,0,0,1,FEW 47,1,13,1,8,1024,ROTM 011600Z AUTO 04005KT 10SM FEW047 13/08 A3025 RMK AO2     SLP232 T01280078 $=,
20180101_170000.004,1,ROTM,,,,1,20180101170000,-1,-1,-1,-1,50,-1,3,-1,-1,-1,-1,,-1,0,0,0,,1,13,1,7,1024,ROTM 011700Z AUTO 05003KT 10SM CLR 13/07 A3025 RMK AO2 SLP230     T01330067 $=,
20180101_180000.005,1,ROTM,,,,1,20180101180000,-1,-1,-1,-1,0,-1,0,-1,-1,-1,-1,,-1,0,0,0,,1,13,1,7,1024,ROTM 011800Z AUTO 00000KT 10SM CLR 13/07 A3025 RMK AO2 SLP229     T01330072 10144 20122 50002 $=,
20180101_190000.005,1,ROTM,,,,1,20180101190000,-1,-1,-1,-1,80,-1,3,-1,-1,-1,-1,,-1,0,0,1,BKN 50,1,13,1,8,1024,ROTM 011900Z AUTO 08003KT 10SM BKN050 13/08 A3024 RMK AO2     SLP229 T01330083 $=,
20180101_200000.005,1,ROTM,,,,1,20180101200000,-1,-1,-1,-1,50,-1,8,-1,-1,-1,-1,,-1,0,0,1,BKN 55,1,13,1,8,1024,ROTM 012000Z AUTO 05008KT 10SM BKN055 13/08 A3024 RMK AO2     SLP228 T01280078 $=,
20180101_210000.004,1,ROTM,,,,1,20180101210000,-1,-1,-1,-1,50,-1,8,-1,-1,-1,-1,,-1,0,0,0,,1,13,1,7,1024,ROTM 012100Z AUTO 05008KT 10SM CLR 13/07 A3025 RMK AO2 SLP231     T01280072 58003 $=,
20180101_220000.004,1,ROTM,,,,1,20180101220000,-1,-1,-1,-1,70,-1,6,-1,-1,-1,-1,,-1,0,0,0,,1,13,1,7,1025,ROTM 012200Z AUTO 07006KT 10SM CLR 13/07 A3026 RMK AO2 SLP236     T01330067 $=,
20180101_230000.004,1,ROTM,,,,1,20180101230000,-1,-1,-1,-1,70,-1,3,-1,-1,-1,-1,,-1,0,0,1,BKN 49,1,13,1,7,1025,ROTM 012300Z AUTO 07003KT 10SM BKN049 13/07 A3027 RMK AO2     SLP238 T01330072 $=,
20180102_000000.005,1,ROTM,,,,1,20180102000000,-1,-1,-1,-1,40,-1,5,-1,-1,-1,-1,,-1,0,0,1,FEW 46,1,14,1,8,1026,ROTM 020000Z AUTO 04005KT 10SM FEW046 14/08 A3029 RMK AO2     SLP244 T01440083 10156 20128 51010 $=,
20180102_010000.005,1,ROTM,,,,1,20180102010000,-1,-1,-1,-1,50,-1,8,-1,-1,-1,-1,,-1,0,0,0,,1,18,1,8,1026,ROTM 020100Z AUTO 05008KT 10SM CLR 18/08 A3029 RMK AO2 SLP244     T01780083 $=,
20180102_020000.004,1,ROTM,,,,1,20180102020000,-1,-1,-1,-1,60,-1,9,-1,-1,-1,-1,,-1,0,0,0,,1,18,1,8,1025,ROTM 020200Z AUTO 06009KT 10SM CLR 18/08 A3028 RMK AO2 SLP241     T01780083 $=,
20180102_030000.004,1,ROTM,,,,1,20180102030000,-1,-1,-1,-1,50,-1,12,-1,18,-1,-1,,-1,0,0,0,,1,18,1,8,1024,ROTM 020300Z AUTO 05012G18KT 10SM CLR 18/08 A3025 RMK AO2     SLP232 T01830078 50004 $=,
20180102_040000.004,1,ROTM,,,,1,20180102040000,-1,-1,-1,-1,40,-1,9,-1,-1,-1,-1,,-1,0,0,1,FEW 44,1,18,1,8,1024,ROTM 020400Z AUTO 04009KT 10SM FEW044 18/08 A3023 RMK AO2     SLP224 T01830083 $=,
20180102_050000.004,1,ROTM,,,,1,20180102050000,-1,-1,-1,-1,70,-1,10,-1,-1,-1,-1,,-1,0,0,1,SCT 42,1,19,1,9,1023,ROTM 020500Z AUTO 07010KT 10SM SCT042 19/09 A3020 RMK AO2     SLP215 T01890094 $=,
20180102_060000.004,1,ROTM,,,,1,20180102060000,-1,-1,-1,-1,70,-1,9,-1,-1,-1,-1,,-1,0,0,1,BKN 41,1,18,1,8,1023,ROTM 020600Z AUTO 07009KT 10SM BKN041 18/08 A3020 RMK AO2     SLP213 T01780083 10194 20150 57026 $=,
20180102_070000.004,1,ROTM,,,,1,20180102070000,-1,-1,-1,-1,70,-1,10,-1,-1,-1,-1,,-1,0,0,0,,1,18,1,8,1023,ROTM 020700Z AUTO 07010KT 10SM CLR 18/08 A3020 RMK AO2 SLP213     T01780078 $=,
20180102_080000.004,1,ROTM,,,,1,20180102080000,-1,-1,-1,-1,80,-1,9,-1,-1,-1,-1,,-1,0,0,1,FEW 40,1,17,1,8,1023,ROTM 020800Z AUTO 08009KT 10SM FEW040 17/08 A3020 RMK AO2     SLP216 T01720083 $=,
20180102_090000.004,1,ROTM,,,,1,20180102090000,-1,-1,-1,-1,60,-1,6,-1,-1,-1,-1,,-1,0,0,1,SCT 39,1,16,1,8,1023,ROTM 020900Z AUTO 06006KT 10SM SCT039 16/08 A3020 RMK AO2     SLP216 T01610083 55001 $=,
20180102_100000.004,1,ROTM,,,,1,20180102100000,-1,-1,-1,-1,50,-1,7,-1,-1,-1,-1,,-1,0,0,1,FEW 43,1,14,1,9,1023,ROTM 021000Z AUTO 05007KT 10SM FEW043 14/09 A3021 RMK AO2     SLP217 T01440089 $=,
20180102_110000.004,1,ROTM,,,,1,20180102110000,-1,-1,-1,-1,20,-1,7,-1,-1,-1,-1,,-1,0,0,0,,1,13,1,9,1023,ROTM 021100Z AUTO 02007KT 10SM CLR 13/09 A3021 RMK AO2 SLP220     T01330089 $=,
20180102_120000.004,1,ROTM,,,,1,20180102120000,-1,-1,-1,-1,20,-1,4,-1,-1,-1,-1,,-1,0,0,0,,1,13,1,9,1023,ROTM 021200Z AUTO 02004KT 10SM CLR 13/09 A3022 RMK AO2 SLP222     T01330089 10183 20133 53004 $=,
20180102_130000.005,1,ROTM,,,,1,20180102130000,-1,-1,-1,-1,20,-1,5,-1,-1,-1,-1,,-1,0,0,2,BKN 42   BKN 49,1,14,1,9,1023,ROTM 021300Z AUTO 02005KT 10SM BKN042 BKN049 14/09 A3022 RMK     AO2 SLP222 T01390094 $=,
20180102_140000.005,1,ROTM,,,,1,20180102140000,-1,-1,-1,-1,30,-1,4,-1,-1,-1,-1,,-1,0,0,1,FEW 45,1,14,1,9,1024,ROTM 021400Z AUTO 03004KT 10SM FEW045 14/09 A3023 RMK AO2     SLP223 T01390094 $=,
20180102_150000.004,1,ROTM,,,,1,20180102150000,-1,-1,-1,-1,50,-1,3,-1,-1,-1,-1,,-1,0,0,0,,1,13,1,9,1024,ROTM 021500Z AUTO 05003KT 10SM CLR 13/09 A3023 RMK AO2 SLP223     T01330094 401330133 51004 $=,
20180102_160000.004,1,ROTM,,,,1,20180102160000,-1,-1,-1,-1,50,-1,3,-1,-1,-1,-1,,-1,0,0,1,SCT 48,1,13,1,9,1024,ROTM 021600Z AUTO 05003KT 10SM SCT048 13/09 A3024 RMK AO2     SLP226 T01330089 $=,
20180102_170000.004,1,ROTM,,,,1,20180102170000,-1,-1,-1,-1,50,-1,5,-1,-1,-1,-1,,-1,0,0,0,,1,13,1,9,1023,ROTM 021700Z AUTO 05005KT 10SM CLR 13/09 A3022 RMK AO2 SLP222     T01330089 $=,
20180102_180000.005,1,ROTM,,,,1,20180102180000,-1,-1,-1,-1,70,-1,4,-1,-1,-1,-1,,-1,0,0,0,,1,14,1,8,1023,ROTM 021800Z AUTO 07004KT 10SM CLR 14/08 A3021 RMK AO2 SLP219     T01390083 10139 20128 58001 $=,
20180102_190000.004,1,ROTM,,,,0,20180102190000,-1,-1,-1,-1,80,-1,3,-1,-1,-1,-1,,-1,0,0,0,,1,14,1,8,1023,ROTM 021900Z 08003KT 10SM CLR 14/08 A3021 RMK AO2 SLP218     T01390078 $=,
20180102_200000.005,1,ROTM,,,,0,20180102200000,-1,-1,-1,-1,70,-1,4,-1,-1,-1,-1,,-1,0,0,1,FEW 250,1,14,1,8,1023,ROTM 022000Z 07004KT 10SM FEW250 14/08 A3021 RMK AO2 SLP217     STNPR29910 T01440083 $=,
20180102_210000.004,1,ROTM,,,,0,20180102210000,-1,-1,-1,-1,70,-1,4,-1,-1,-1,-1,,-1,0,0,1,FEW 250,1,14,1,9,1023,ROTM 022100Z 07004KT 10SM FEW250 14/09 A3022 RMK AO2 SLP222     STNPR29910 T01390089 56005 $=,
20180102_220000.004,1,ROTM,,,,0,20180102220000,-1,-1,-1,-1,90,-1,4,-1,-1,-1,-1,,-1,0,0,1,FEW 250,1,14,1,9,1024,ROTM 022200Z 09004KT 10SM FEW250 14/09 A3023 RMK AO2 SLP224     STNPR29925 T01440089=,
20180102_230000.004,1,ROTM,,,,0,20180102230000,-1,-1,-1,-1,60,-1,4,-1,-1,-1,-1,,-1,0,0,1,FEW 250,1,14,1,9,1024,ROTM 022300Z 06004KT 10SM FEW250 14/09 A3024 RMK AO2 SLP229     STNPR29930 T01440094=,
20180103_000000.004,1,ROTM,,,,0,20180103000000,-1,-1,-1,-1,40,-1,5,-1,-1,-1,-1,,-1,0,0,2,FEW 40   SCT 200,1,17,1,11,1024,ROTM 030000Z 04005KT 10SM FEW040 SCT200 17/11 A3025 RMK AO2     SLP232 STNPR29940 T01720106 10172 20128 52011=,
20180103_010000.004,1,ROTM,,,,0,20180103010000,-1,-1,-1,-1,50,-1,8,-1,-1,-1,-1,,-1,0,0,2,FEW 40   SCT 200,1,19,1,12,1025,ROTM 030100Z 05008KT 10SM FEW040 SCT200 19/12 A3026 RMK AO2     SLP233 STNPR29950 T01890117=,
20180103_020000.004,1,ROTM,,,,0,20180103020000,-1,-1,-1,-1,70,-1,9,-1,-1,-1,-1,,-1,0,0,2,FEW 40   SCT 200,1,19,1,11,1024,ROTM 030200Z 07009KT 10SM FEW040 SCT200 19/11 A3025 RMK AO2     SLP231 STNPR29955 T01940106=,
20180103_030000.005,1,ROTM,,,,0,20180103030000,-1,-1,-1,-1,60,-1,10,-1,-1,-1,-1,,-1,0,0,2,FEW 40   SCT 200,1,19,1,11,1023,ROTM 030300Z 06010KT 10SM FEW040 SCT200 19/11 A3022 RMK AO2     SLP221 STNPR29950 T01940106 50003=,
20180103_040000.004,1,ROTM,,,,0,20180103040000,-1,-1,-1,-1,50,-1,10,-1,-1,-1,-1,,-1,0,0,2,FEW 40   SCT 200,1,19,1,11,1023,ROTM 030400Z 05010KT 10SM FEW040 SCT200 19/11 A3020 RMK AO2     SLP213 T01940106=,
20180103_050000.004,1,ROTM,,,,0,20180103050000,-1,-1,-1,-1,80,-1,9,-1,-1,-1,-1,,-1,0,0,1,BKN 39,1,19,1,11,1022,ROTM 030500Z 08009KT 10SM BKN039 19/11 A3018 RMK AO2 SLP209     T01940106=,
20180103_050000.006,1,ROTM,,,,0,20180103040000,-1,-1,-1,-1,50,-1,10,-1,-1,-1,-1,,-1,0,0,2,FEW 40   SCT 200,1,19,1,11,1023,ROTM 030400Z 05010KT 10SM FEW040 SCT200 19/11 A3020 RMK     SLP213 STNPR29900 T01940106=,
20180103_050000.006,1,ROTM,,,,0,20180103050000,-1,-1,-1,-1,80,-1,9,-1,-1,-1,-1,,-1,0,0,2,FEW 40   SCT 200,1,19,1,11,1022,ROTM 030500Z 08009KT 10SM FEW040 SCT200 19/11 A3018 RMK     SLP209 STNPR29880 T01940106=,
20180103_060000.004,1,ROTM,,,,0,20180103060000,-1,-1,-1,-1,70,-1,8,-1,-1,-1,-1,,-1,0,0,2,FEW 40   SCT 200,1,19,1,10,1022,ROTM 030600Z 07008KT 10SM FEW040 SCT200 19/10 A3017 RMK AO2     SLP204 T01940100 10200 20172 56022=,
20180103_063000.001,1,ROTM,,,,0,20180103060000,-1,-1,-1,-1,70,-1,8,-1,-1,-1,-1,,-1,0,0,2,FEW 40   SCT 200,1,19,1,10,1022,ROTM 030600Z 07008KT 10SM FEW040 SCT200 19/10 A3017 RMK     SLP204 STNPR29870 T01940100 10200 20172 56022=,
20180103_070000.004,1,ROTM,,,,0,20180103070000,-1,-1,-1,-1,60,-1,10,-1,-1,-1,-1,,-1,0,0,2,FEW 40   SCT 200,1,19,1,11,1022,ROTM 030700Z 06010KT 10SM FEW040 SCT200 19/11 A3018 RMK AO2     SLP206 STNPR29875 T01890106=,
20180103_080000.004,1,ROTM,,,,0,20180103080000,-1,-1,-1,-1,60,-1,10,-1,-1,-1,-1,,-1,0,0,2,SCT 40   SCT 200,1,18,1,11,1022,ROTM 030800Z 06010KT 10SM SCT040 SCT200 18/11 A3018 RMK AO2     SLP208 STNPR29880 T01830106=,
20180103_090000.004,1,ROTM,,,,0,20180103090000,-1,-1,-1,-1,70,-1,6,-1,-1,-1,-1,,-1,0,0,2,SCT 45   SCT 200,1,17,1,11,1022,ROTM 030900Z 07006KT 10SM SCT045 SCT200 17/11 A3019 RMK AO2     SLP209 STNPR29885 T01720106 55000=,
20180103_100000.004,1,ROTM,,,,0,20180103100000,-1,-1,-1,-1,80,-1,7,-1,-1,-1,-1,,-1,0,0,0,,1,17,1,11,1022,ROTM 031000Z 08007KT 10SM CLR 17/11 A3019 RMK AO2 SLP211     T01720106=,
20180103_100000.005,1,ROTM,,,,0,20180103100000,-1,-1,-1,-1,70,-1,6,-1,-1,-1,-1,,9999,0,0,2,SCT 45   SCT 200,1,17,1,11,1022,ROTM 031000Z 07006KT 9999 SCT045 SCT200 17/11 A3019 RMK     SLP211 STNPR29890 T01720106=,
20180103_110000.004,1,ROTM,,,,0,20180103110000,-1,-1,-1,-1,60,-1,6,-1,-1,-1,-1,,-1,0,0,2,SCT 45   SCT 200,1,17,1,11,1023,ROTM 031100Z 06006KT 10SM SCT045 SCT200 17/11 A3021 RMK AO2     SLP217 STNPR2990 T01670111=,
20180103_110000.004,1,ROTM,,,,0,20180103110000,-1,-1,-1,-1,60,-1,6,-1,-1,-1,-1,,9999,0,0,2,SCT 45   SCT 200,1,17,1,11,1023,ROTM 031100Z 06006KT 9999 SCT045 SCT200 17/11 A3021 RMK     SLP218 STNPR29900 T01720106=,
20180103_120000.004,1,ROTM,,,,0,20180103120000,-1,-1,-1,-1,80,-1,8,-1,-1,-1,-1,,-1,0,0,2,SCT 50   SCT 200,1,18,1,11,1023,ROTM 031200Z 08008KT 10SM SCT050 SCT200 18/11 A3021 RMK AO2     SLP217 STNPR29910 T01780111 10194 20161 53009=,
20180103_120000.004,1,ROTM,,,,0,20180103120000,-1,-1,-1,-1,80,-1,8,-1,-1,-1,-1,,9999,0,0,2,SCT 50   SCT 200,1,18,1,11,1023,ROTM 031200Z 08008KT 9999 SCT050 SCT200 18/11 A3021 RMK     SLP216 STNPR29910 T01780111 10194 20172 52007=,
20180103_130000.005,1,ROTM,,,,0,20180103130000,-1,-1,-1,-1,70,-1,10,-1,-1,-1,-1,,-1,0,0,2,FEW 40   BKN 50,1,18,1,11,1023,ROTM 031300Z 07010KT 10SM FEW040 BKN050 18/11 A3022 RMK AO2     SLP219 STNPR29915 T01780111=,
20180103_140000.004,1,ROTM,,,,0,20180103140000,-1,-1,-1,-1,70,-1,6,-1,-1,-1,-1,,-1,0,0,2,FEW 40   BKN 50,1,18,1,11,1023,ROTM 031400Z 07006KT 10SM FEW040 BKN050 18/11 A3021 RMK AO2     SLP218 STNPR29915 T01780111=,
20180103_150000.004,1,ROTM,,,,1,20180103150000,-1,-1,-1,-1,80,-1,6,-1,-1,-1,-1,,-1,0,0,2,FEW 35   OVC 42,1,18,1,12,1023,ROTM 031500Z AUTO 08006KT 10SM FEW035 OVC042 18/12 A3022 RMK     AO2 SLP219 T01780117 401780178 52002=,
20180103_160000.004,1,ROTM,,,,1,20180103160000,-1,-1,-1,-1,60,-1,7,-1,-1,-1,-1,,-1,0,0,1,OVC 55,1,18,1,12,1023,ROTM 031600Z AUTO 06007KT 10SM OVC055 18/12 A3021 RMK AO2     SLP218 T01780117=,
20180103_170000.004,1,ROTM,,,,1,20180103170000,-1,-1,-1,-1,80,-1,4,-1,-1,-1,-1,,-1,0,0,1,OVC 55,1,18,1,11,1023,ROTM 031700Z AUTO 08004KT 10SM OVC055 18/11 A3021 RMK AO2     SLP215 T01780111=,
20180103_180000.004,1,ROTM,,,,1,20180103180000,-1,-1,-1,-1,100,-1,6,-1,-1,-1,-1,,-1,0,0,1,BKN 60,1,18,1,12,1022,ROTM 031800Z AUTO 10006KT 10SM BKN060 18/12 A3018 RMK AO2     SLP205 T01780117 10178 20172 58003=,
20180103_190000.004,1,ROTM,,,,1,20180103190000,-1,-1,-1,-1,100,-1,4,-1,-1,-1,-1,,-1,0,0,0,,1,17,1,12,1022,ROTM 031900Z AUTO 10004KT 10SM CLR 17/12 A3017 RMK AO2 SLP202     T01720117=,
20180103_200000.004,1,ROTM,,,,0,20180103200000,-1,-1,-1,-1,0,-1,0,-1,-1,-1,-1,,-1,0,0,3,FEW 35   SCT 60   SCT 200,1,17,1,12,1021,ROTM 032000Z 00000KT 10SM FEW035 SCT060 SCT200 17/12 A3016 RMK     AO2 SLP201 STNPR29960 T01720122=,
20180103_210000.005,1,ROTM,,,,0,20180103210000,-1,-1,-1,-1,100,-1,5,-1,-1,-1,-1,,-1,0,0,2,FEW 40   BKN 65,1,18,1,13,1021,ROTM 032100Z 10005KT 10SM FEW040 BKN065 18/13 A3016 RMK AO2     SLP200 STNPR29860 T01780128 56015=,
20180103_220000.004,1,ROTM,,,,0,20180103210000,-1,-1,-1,-1,100,-1,4,-1,-1,-1,-1,,-1,0,0,2,FEW 27   OVC 60,1,18,1,13,1021,ROTM 032156Z 10004KT 10SM FEW027 OVC060 18/13 A3016 RMK AO2     SLP201 T01780128=,
20180103_220000.007,1,ROTM,,,,0,20180103210000,-1,-1,-1,-1,100,-1,4,-1,-1,-1,-1,,9999,0,0,2,FEW 40   BKN 65,1,18,1,14,1021,ROTM 032155Z 10004KT 9999 FEW040 BKN065 18/14 A3016 RMK     SLP201 STNPR29860 T01780128=,
20180103_230000.002,0,ROTM,,,,0,20180103220000,-1,-1,-1,-1,100,-1,6,-1,-1,-1,-1,,-1,0,0,2,FEW 40   BKN 65,1,18,1,13,1022,ROTM 032256Z 10006KT 10SM FEW040 BKN065 18/13 A3017 RMK AO2     SLP203 STNPR29860 T01830128=,
20180104_000000.004,0,ROTM,,,,0,20180103230000,-1,-1,-1,-1,110,-1,7,-1,-1,-1,-1,,-1,0,0,2,FEW 40   BKN 65,1,19,1,14,1022,ROTM 032356Z 11007KT 10SM FEW040 BKN065 19/14 A3018 RMK AO2     SLP205 STNPR29865 T01890144 10189 20167 53006=,
20180104_010000.002,0,ROTM,,,,0,20180104000000,-1,-1,-1,-1,100,-1,11,-1,-1,-1,-1,,-1,0,0,2,FEW 40   BKN 65,1,19,1,15,1022,ROTM 040056Z 10011KT 10SM FEW040 BKN065 19/15 A3018 RMK AO2     SLP206 STNPR29875 T01890150=,
20180104_020000.002,0,ROTM,,,,0,20180104010000,-1,-1,-1,-1,70,-1,9,-1,-1,-1,-1,,-1,0,0,3,SCT 26   BKN 38   OVC 60,1,19,1,15,1022,ROTM 040156Z 07009KT 10SM SCT026 BKN038 OVC060 19/15 A3018 RMK     AO2 SLP206 STNPR29880 T01940150 $=,
20180104_030000.002,0,ROTM,,,,0,20180104020000,-1,-1,-1,-1,90,-1,10,-1,-1,-1,-1,,-1,0,0,3,FEW 23   BKN 36   OVC 43,1,18,1,16,1020,ROTM 040256Z 09010KT 10SM FEW023 BKN036 OVC043 18/16 A3013 RMK     AO2 RAB36E53 SLP191 STNPR29875 P0000 60000 T01830156           58015=,
20180104_040000.002,0,ROTM,,,,0,20180104030000,-1,-1,-1,-1,100,-1,11,-1,-1,-1,-1,,-1,0,0,1,BKN 55,1,19,1,15,1019,ROTM 040356Z 10011KT 10SM BKN055 19/15 A3010 RMK AO2 SLP179     STNPR29830 T01940150=,
20180104_050000.002,0,ROTM,,,,0,20180104040000,-1,-1,-1,-1,110,-1,9,-1,-1,-1,-1,,-1,0,0,3,FEW 20   BKN 35   BKN 40,1,20,1,14,1019,ROTM 040456Z 11009KT 10SM FEW020 BKN035 BKN040 20/14 A3008 RMK     AO2 SLP174 STNPR29780 T02000144=,
20180104_060000.003,1,ROTM,,,,0,20180104030000,-1,-1,-1,-1,100,-1,11,-1,-1,-1,-1,,-1,0,0,3,FEW 20   BKN 35   BKN 45,1,19,1,15,1019,ROTM 040356Z 10011KT 10SM FEW020 BKN035 BKN045 19/15 A3010     RMK SLP179 STNPR29800 T01940150=,
20180104_060000.005,1,ROTM,,,,0,20180104050000,-1,-1,-1,-1,120,-1,9,-1,-1,-1,-1,,-1,0,0,3,FEW 20   SCT 35   BKN 50,1,20,1,14,1018,ROTM 040556Z 12009KT 10SM FEW020 SCT035 BKN050 20/14 A3007 RMK     SLP168 STNPR29760 60000 T02000144 10206 20183 56022=,
20180104_070000.002,0,ROTM,,,,1,20180104060000,-1,-1,-1,-1,140,-1,8,-1,-1,-1,-1,,-1,0,0,3,FEW 25   SCT 35   BKN 55,1,20,1,14,1018,ROTM 040656Z AUTO 14008KT 10SM FEW025 SCT035 BKN055 20/14 A3006     RMK AO2 SLP166 STNPR29760 T02000139=,
20180104_080000.002,0,ROTM,,,,0,20180104070000,-1,-1,-1,-1,150,-1,6,-1,-1,-1,-1,,-1,0,0,3,FEW 20   SCT 40   BKN 60,1,19,1,14,1018,ROTM 040756Z 15006KT 10SM FEW020 SCT040 BKN060 19/14 A3007 RMK     AO2 SLP169 STNPR29760 T01940139=,
20180104_100000.004,1,ROTM,,,,0,20180104080000,-1,-1,-1,-1,999,-1,6,-1,-1,-1,-1,,9999,0,0,3,FEW 20   SCT 40   BKN 60,1,19,1,14,1018,ROTM 040856Z VRB06KT 9999 FEW020 SCT040 BKN060 19/14 A3007     RMK SLP169 STNPR29760 T01940139 54000=,
20180104_100000.004,1,ROTM,,,,0,20180104080000,-1,-1,-1,-1,999,-1,6,-1,-1,-1,-1,,9999,0,0,3,FEW 20   SCT 40   BKN 60,1,19,1,14,1018,ROTM 040856Z VRB06KT 9999 FEW020 SCT040 BKN060 19/14 A3007 RMK     SLP169 STNPR29760 T01940139 54000=,
20180104_100000.004,1,ROTM,,,,0,20180104090000,-1,-1,-1,-1,140,-1,8,-1,-1,-1,-1,,9999,0,0,3,FEW 20   SCT 40   BKN 60,1,19,1,15,1018,ROTM 040956Z 14008KT 9999 FEW020 SCT040 BKN060 19/15 A3005     RMK SLP163 STNPR29750 T01940150=,
20180104_100000.004,1,ROTM,,,,0,20180104090000,-1,-1,-1,-1,140,-1,9,-1,-1,-1,-1,,-1,0,0,0,,1,19,1,15,1018,ROTM 040956Z 14009KT 10SM CLR 19/15 A3005 RMK AO2 SLP163     STNPR29750 T01940150=,
20180104_110000.004,1,ROTM,,,,0,20180104100000,-1,-1,-1,-1,140,-1,6,-1,-1,-1,-1,,-1,0,0,3,FEW 20   SCT 40   BKN 60,1,19,1,16,1018,ROTM 041056Z 14006KT 10SM FEW020 SCT040 BKN060 19/16 A3006 RMK     AO2 SLP167 STNPR29750 T01940156=,
20180104_110000.004,1,ROTM,,,,0,20180104100000,-1,-1,-1,-1,150,-1,8,-1,-1,-1,-1,,9999,0,0,3,FEW 20   SCT 40   BKN 60,1,19,1,16,1018,ROTM 041056Z 15008KT 9999 FEW020 SCT040 BKN060 19/16 A3006     RMK SLP166 STNPR29760 T01940156=,
20180104_120000.005,1,ROTM,,,,0,20180104110000,-1,-1,-1,-1,160,-1,8,-1,-1,-1,-1,,-1,0,0,3,FEW 20   SCT 40   BKN 60,1,19,1,16,1018,ROTM 041156Z 16008KT 10SM FEW020 SCT040 BKN060 19/16 A3007 RMK     AO2 SLP169 STNPR29760 T01940156 10206 20194 53002=,
20180104_120000.005,1,ROTM,,,,0,20180104110000,-1,-1,-1,-1,160,-1,8,-1,-1,-1,-1,,9999,0,0,2,FEW 20   SCT 40,1,19,1,16,1018,ROTM 041156Z 16008KT 9999 FEW020 SCT040 19/16 A3006 RMK     SLP167 STNPR29770 T01940156 10200 20194 52010=,
20180104_130000.002,0,ROTM,,,,0,20180104120000,-1,-1,-1,-1,140,-1,8,-1,-1,-1,-1,,-1,0,0,2,FEW 20   SCT 40,1,20,1,16,1017,ROTM 041256Z 14008KT 10SM FEW020 SCT040 20/16 A3004 RMK AO2     SLP159 STNPR29770 T02000156 $=,
20180104_130000.004,1,ROTM,,,,0,20180104120000,-1,-1,-1,-1,150,-1,6,-1,-1,-1,-1,,9999,0,0,2,FEW 20   SCT 40,1,20,1,16,1017,ROTM 041256Z 15006KT 9999 FEW020 SCT040 20/16 A3004 RMK     SLP160 STNPR29750 T02000156=,
20180104_140000.002,0,ROTM,,,,0,20180104130000,-1,-1,-1,-1,160,-1,8,-1,-1,-1,-1,,-1,0,0,2,FEW 20   SCT 40,1,20,1,16,1017,ROTM 041356Z 16008KT 10SM FEW020 SCT040 20/16 A3002 RMK AO2     SLP153 STNPR29750 T02000156 $=,
20180104_150000.005,1,ROTM,,,,0,20180104140000,-1,-1,-1,-1,160,-1,9,-1,-1,-1,-1,,-1,0,0,2,FEW 20   SCT 40,1,20,1,16,1016,ROTM 041456Z 16009KT 10SM FEW020 SCT040 20/16 A3001 RMK AO2     SLP147 STNPR29730 T02000156 402060167 56021 $=,
20180104_160000.005,1,ROTM,,,,0,20180104150000,-1,-1,-1,-1,150,-1,10,-1,-1,-1,-1,,-1,0,0,1,FEW 110,1,20,1,17,1015,ROTM 041556Z 15010KT 10SM FEW110 20/17 A2998 RMK AO2 SLP138     T02000167 $=,
20180104_170000.003,1,ROTM,,,,0,20180104160000,-1,-1,-1,-1,160,-1,10,-1,-1,-1,-1,,-1,0,0,3,FEW 22   SCT 70   BKN 90,1,21,1,17,1015,ROTM 041656Z 16010KT 10SM FEW022 SCT070 BKN090 21/17 A2997 RMK     AO2 SLP135 T02060172 $=,
20180104_180000.002,0,ROTM,,,,1,20180104170000,-1,-1,-1,-1,180,-1,10,-1,-1,-1,-1,,-1,0,0,2,FEW 26   OVC 85,1,21,1,17,1014,ROTM 041756Z AUTO 18010KT 10SM FEW026 OVC085 21/17 A2995 RMK     AO2 SLP129 T02060167 10206 20194 56018 $=,
20180104_190000.003,0,ROTM,,,,1,20180104180000,-1,-1,-1,-1,200,-1,9,-1,16,-1,-1,,-1,0,0,1,OVC 70,1,21,1,17,1014,ROTM 041856Z AUTO 20009G16KT 10SM OVC070 21/17 A2994 RMK AO2     SLP127 T02060172 $=,
20180104_200000.004,1,ROTM,,,,0,20180104190000,-1,-1,-1,-1,200,-1,6,-1,-1,-1,-1,,-1,0,0,1,OVC 65,1,21,1,18,1013,ROTM 041956Z 20006KT 10SM OVC065 21/18 A2992 RMK AO2 SLP120     STNPR29625 T02060178 $=,
20180104_210000.004,1,ROTM,,,,0,20180104200000,-1,-1,-1,-1,180,-1,10,-1,-1,-1,-1,,-1,0,2,2,FEW 20   BKN 60,1,21,1,17,1013,ROTM 042056Z 18010KT 6SM -RA BR FEW020 BKN060 21/17 A2991 RMK     AO2 RAB54 SLP114 P0000 STNPR29610 T02060167 58015 $=,- RA; BR
20180104_210000.005,1,ROTM,,,,0,20180104200000,-1,-1,-1,-1,180,-1,10,-1,-1,-1,-1,,-1,0,2,2,FEW 20   BKN 60,1,21,1,17,1013,ROTM 042056Z 18010KT 6SM -RA BR FEW020 BKN060 21/17 A2991     RMK RAB54 SLP114 P0000 60000 STNPR29610 T02060167 58015=,- RA; BR
20180104_220000.002,0,ROTM,,,,0,20180104210000,-1,-1,-1,-1,190,-1,9,-1,-1,-1,-1,,-1,0,2,3,FEW 23   BKN 34   OVC 55,1,20,1,18,1013,METAR ROTM 042156Z 19009KT 10SM -RA BR FEW023 BKN034 OVC055 20/18           A2992 RMK AO2 RAE20B39 SLP118 STNPR29620 P0000 T02000178,- RA; BR
20180104_220000.005,1,ROTM,,,,0,20180104210000,-1,-1,-1,-1,190,-1,9,-1,-1,-1,-1,,-1,0,2,3,FEW 23   BKN 34   OVC 55,1,20,1,18,1013,ROTM 042156Z 19009KT 6SM -RA BR FEW023 BKN034 OVC055 20/18     A2992 RMK RAE20B39 SLP118 STNPR29620 P0001 T02000178=,- RA; BR
20180104_230000.002,0,ROTM,,,,1,20180104220000,-1,-1,-1,-1,200,-1,10,-1,19,-1,-1,,-1,0,0,1,OVC 60,0,-1,0,-1,1014,ROTM 042256Z AUTO 20010G19KT 10SM OVC060 A2993 RMK AO2 RAE2158     SLPNO STNPR29625 P0000 $=,
20180104_230000.004,1,ROTM,,,,0,20180104220000,-1,-1,-1,-1,200,-1,10,-1,19,-1,-1,,-1,0,0,1,OVC 60,0,-1,0,-1,1014,ROTM 042256Z 20010G19KT 10SM OVC060 A2993 21/18 RMK RAE2158     SLP120 STNPR29625 P0000 T02060183=,
20180104_230000.004,1,ROTM,,,,0,20180104220000,-1,-1,-1,-1,200,-1,10,-1,19,-1,-1,,-1,0,0,1,OVC 60,1,21,1,18,1014,ROTM 042256Z 20010G19KT 10SM OVC060 21/18 A2993 RMK RAE2158     SLP120 STNPR29625 P0000 T02060183=,
20180105_000000.006,0,ROTM,,,,0,20180104230000,-1,-1,-1,-1,210,-1,14,-1,21,-1,-1,,-1,0,2,3,FEW 20   BKN 35   OVC 40,1,21,1,18,1014,ROTM 042356Z 21014G21KT 9SM -RA BR FEW020 BKN035 OVC040 21/18     A2993 RMK AO2 RAB46 SLP121 STNPR29630 P0001 60002           T02110183 10211 20200 50007=,- RA; BR
20180105_010000.005,1,ROTM,,,,0,20180105000000,-1,-1,-1,-1,260,-1,16,-1,25,-1,-1,,-1,0,2,1,BKN 20,1,19,1,19,1015,ROTM 050056Z 26016G25KT 2SM -RA BR BKN020 19/19 A2996 RMK AO2     PK WND 23030/0022 SLP133 P0020 T01940194 $=,- RA; BR
20180105_010000.006,1,ROTM,,,,0,20180105000000,-1,-1,-1,-1,260,-1,16,-1,25,-1,-1,,-1,0,2,1,BKN 20,1,19,1,19,1015,ROTM 050056Z 26016G25KT 2SM -RA BR BKN020 19/19 A2996 RMK     PK WND 23030/22 SLP133 P0020 STNPR29650 T01940194=,- RA; BR
20180105_020000.002,0,ROTM,,,,0,20180105010000,-1,-1,-1,-1,300,-1,13,-1,-1,-1,-1,,-1,0,0,2,SCT 6   BKN 20,1,20,1,20,1015,ROTM 050156Z 30013KT 10SM SCT006 BKN020 20/20 A2997 RMK AO2     RAE31 SLP135 T02000200=,
20180105_020000.004,1,ROTM,,,,0,20180105010000,-1,-1,-1,-1,300,-1,13,-1,-1,-1,-1,,-1,0,0,2,SCT 6   BKN 20,1,20,1,20,1015,ROTM 050156Z 30013KT 10SM SCT006 BKN020 20/20 A2997 RMK     RAE31 SLP135 STNPR29655 P0000 T02000200=,
20180105_030000.002,0,ROTM,,,,0,20180105020000,-1,-1,-1,-1,300,-1,11,-1,-1,-1,-1,,-1,0,0,3,FEW 15   SCT 30   BKN 70,1,20,1,20,1014,ROTM 050256Z 30011KT 10SM FEW015 SCT030 BKN070 20/20 A2994 RMK     AO2 RAB38E54 SLP126 P0007 60061 STNPR29640 T02000200           50005=,
20180105_030000.004,1,ROTM,,,,0,20180105020000,-1,-1,-1,-1,300,-1,11,-1,-1,-1,-1,,-1,0,0,3,FEW 15   SCT 30   BKN 70,1,20,1,20,1014,ROTM 050256Z 30011KT 10SM FEW015 SCT030 BKN070 20/20 A2994     RMK AO2 RAB38E54 SLP126 P0007 60027 STNPR29640 T02000200           50005=,
20180105_040000.002,0,ROTM,,,,1,20180105030000,-1,-1,-1,-1,330,-1,17,-1,25,-1,-1,,-1,0,2,3,SCT 15   BKN 20   OVC 30,0,-1,0,-1,1014,ROTM 050356Z AUTO 33017G25KT 4SM -RA BR SCT015 BKN020 OVC030     19/ A2994 RMK AO2 PK WND 29027/0316 RAB21 SLP127 P0001           T0194 $=,- RA; BR
20180105_040000.004,1,ROTM,,,,0,20180105030000,-1,-1,-1,-1,330,-1,17,-1,25,-1,-1,,6000,0,2,3,SCT 15   BKN 20   OVC 30,1,19,1,19,1014,ROTM 050356Z 33017G25KT 6000 -RA BR SCT015 BKN020 OVC030     19/19 A2994 RMK PK WND 29027/16 RAB21 SLP128 STNPR29645           P0001 T01940194=,- RA; BR
20180105_050000.002,0,ROTM,,,,0,20180105040000,-1,-1,-1,-1,330,-1,19,-1,25,-1,-1,,-1,0,2,3,SCT 15   BKN 19   OVC 39,1,19,1,18,1014,ROTM 050456Z 33019G25KT 10SM -RA BR SCT015 BKN019 OVC039 19/18     A2993 RMK AO2 PK WND 34027/0425 SLP123 STNPR29630 P0001           T01940178=,- RA; BR
20180105_060000.002,0,ROTM,,,,0,20180105050000,-1,-1,-1,-1,340,-1,17,-1,21,-1,-1,,-1,0,2,3,BKN 22   BKN 38   OVC 90,0,-1,0,-1,1014,ROTM 050556Z 34017G21KT 10SM -RA BR BKN022 BKN038 OVC090 19/     A2993 RMK AO2 SLP122 STNPR29635 P0000 6//// T0194 10211           20194 58005 $=,- RA; BR
20180105_060000.005,1,ROTM,,,,0,20180105050000,-1,-1,-1,-1,350,-1,16,-1,23,-1,-1,,-1,0,2,3,SCT 18   BKN 30   OVC 110,1,19,1,18,1014,ROTM 050546Z 35016G23KT 10SM -RA BR SCT018 BKN030 OVC110     19/18 A2993 RMK SLP123 STNPR29630=,- RA; BR
20180105_070000.002,0,ROTM,,,,0,20180105060000,-1,-1,-1,-1,350,-1,12,-1,-1,-1,-1,,-1,0,2,3,FEW 18   BKN 28   OVC 37,0,-1,0,-1,1014,ROTM 050656Z 35012KT 10SM -RA BR FEW018 BKN028 OVC037 19/ A2994     RMK AO2 SLP124 STNPR29640 P0000 T0189 $=,- RA; BR
20180105_070000.004,1,ROTM,,,,0,20180105050000,-1,-1,-1,-1,340,-1,17,-1,21,-1,-1,,-1,0,2,3,BKN 22   BKN 38   OVC 90,1,19,1,18,1014,ROTM 050556Z 34017G21KT 10SM -RA BR BKN022 BKN038 OVC090     19/18 A2993 RMK SLP122 STNPR29635 60001 T01940178 10211           20194 58005=,- RA; BR
20180105_070000.004,1,ROTM,,,,0,20180105060000,-1,-1,-1,-1,350,-1,12,-1,-1,-1,-1,,-1,0,2,3,FEW 18   BKN 28   OVC 37,1,19,1,18,1014,ROTM 050656Z 35012KT 10SM -RA BR FEW018 BKN028 OVC037 19/18     A2994 RMK SLP124 STNPR29640 T01890178=,- RA; BR
20180105_080000.002,0,ROTM,,,,0,20180105070000,-1,-1,-1,-1,360,-1,12,-1,25,-1,-1,,-1,0,2,3,SCT 23   BKN 29   OVC 46,1,18,1,16,1015,ROTM 050756Z 36012G25KT 10SM -RA BR SCT023 BKN029 OVC046     18/16 A2996 RMK SLP133 STNPR29660 T01830156=,- RA; BR
20180105_080000.002,0,ROTM,,,,0,20180105070000,-1,-1,-1,-1,360,-1,12,-1,25,-1,-1,,-1,0,2,3,SCT 23   BKN 29   OVC 46,1,18,1,16,1015,ROTM 050756Z 36012G25KT 10SM -RA BR SCT023 BKN029 OVC046 18/16     A2996 RMK AO2 SLP133 P0000 T01830156 $=,- RA; BR
20180105_090000.002,0,ROTM,,,,0,20180105080000,-1,-1,-1,-1,10,-1,15,-1,23,-1,-1,,-1,0,2,3,FEW 22   BKN 43   OVC 50,1,18,1,16,1016,ROTM 050856Z 01015G23KT 10SM -RA BR FEW022 BKN043 OVC050 18/16     A2999 RMK AO2 SLP142 STNPR29680 P0000 60000 T01780156           53020 $=,- RA; BR
20180105_090000.004,1,ROTM,,,,0,20180105080000,-1,-1,-1,-1,10,-1,15,-1,23,-1,-1,,-1,0,0,3,FEW 20   BKN 40   OVC 50,1,18,1,16,1016,ROTM 050856Z 01015G23KT 10SM FEW020 BKN040 OVC050 18/16     A2999 RMK RAE50 SLP142 STNPR29690 P0000 60000 T01780156           53020=,
20180105_100000.002,0,ROTM,,,,0,20180105090000,-1,-1,-1,-1,10,-1,11,-1,-1,-1,-1,,-1,0,0,3,SCT 15   SCT 30   BKN 40,0,-1,0,-1,1017,ROTM 050956Z 01011KT 10SM SCT015 SCT030 BKN040 17/ A3002 RMK     AO2 RAE10 SLP152 STNPR29720 P0000 T0172 $=,
20180105_103000.001,1,ROTM,,,,0,20180105090000,-1,-1,-1,-1,10,-1,11,-1,-1,-1,-1,,-1,0,0,3,SCT 15   SCT 35   BKN 50,1,17,1,16,1017,ROTM 050956Z 01011KT 10SM SCT015 SCT035 BKN050 17/16 A3002     RMK SLP152 STNPR29720 T01720155=,
20180105_110000.002,0,ROTM,,,,0,20180105100000,-1,-1,-1,-1,10,-1,8,-1,-1,-1,-1,,-1,0,0,3,FEW 15   BKN 30   BKN 45,0,-1,0,-1,1017,ROTM 051056Z 01008KT 10SM FEW015 BKN030 BKN045 17/ A3004 RMK     AO2 SLPNO STNPR29740 T0167 $=,
20180105_110000.004,1,ROTM,,,,0,20180105100000,-1,-1,-1,-1,10,-1,8,-1,-1,-1,-1,,-1,0,0,3,FEW 15   BKN 30   BKN 45,1,17,1,17,1017,ROTM 051056Z 01008KT 10SM FEW015 BKN030 BKN045 17/17 A3004     RMK SLP161 STNPR29740 T01730173=,
20180105_120000.002,0,ROTM,,,,0,20180105110000,-1,-1,-1,-1,20,-1,13,-1,-1,-1,-1,,-1,0,0,3,FEW 15   BKN 30   BKN 45,0,-1,0,-1,1018,METAR ROTM 051156Z 02013KT 10SM FEW015 BKN030 BKN045 16/ A3006 RMK           AO2 SLP165 STNPR29755 60000 7//// T0161 10194 20161 51023,
20180105_120000.004,1,ROTM,,,,0,20180105110000,-1,-1,-1,-1,20,-1,13,-1,-1,-1,-1,,-1,0,0,3,FEW 15   BKN 30   BKN 45,1,17,1,16,1018,ROTM 051156Z 02013KT 10SM FEW015 BKN030 BKN045 17/16 A3006     RMK SLP165 STNPR29755 60000 70003 T01680163 10194 20161           51203=,
20180105_130000.002,0,ROTM,,,,0,20180105120000,-1,-1,-1,-1,30,-1,6,-1,-1,-1,-1,,-1,0,0,3,FEW 25   BKN 35   BKN 50,0,-1,0,-1,1018,ROTM 051256Z 03006KT 10SM FEW025 BKN035 BKN050 16/ A3007 RMK     AO2 SLP169 STNPR29765 T0156 $=,
20180105_130000.004,1,ROTM,,,,0,20180105120000,-1,-1,-1,-1,30,-1,6,-1,-1,-1,-1,,-1,0,0,3,FEW 25   BKN 35   BKN 50,1,17,1,16,1018,ROTM 051256Z 03006KT 10SM FEW025 BKN035 BKN050 17/16 A3007     RMK SLP169 STNPR29765 T01650161=,
20180105_140000.002,0,ROTM,,,,0,20180105130000,-1,-1,-1,-1,10,-1,8,-1,-1,-1,-1,,-1,0,0,3,SCT 20   BKN 35   BKN 50,1,17,1,13,1018,ROTM 051356Z 01008KT 10SM SCT020 BKN035 BKN050 17/13 A3006 RMK     AO2 SLP166 STNPR29760 T01670128 $=,
20180105_150000.002,0,ROTM,,,,1,20180105140000,-1,-1,-1,-1,10,-1,11,-1,-1,-1,-1,,-1,0,0,3,FEW 29   SCT 38   BKN 49,1,16,1,12,1018,ROTM 051456Z AUTO 01011KT 10SM FEW029 SCT038 BKN049 16/12 A3006     RMK AO2 SLP166 T01610122 402110150 50001 $=,
20180105_160000.001,0,ROTM,,,,1,20180105150000,-1,-1,-1,-1,10,-1,8,-1,-1,-1,-1,,-1,0,0,2,BKN 40   OVC 50,1,16,1,12,1018,ROTM 051556Z AUTO 01008KT 10SM BKN040 OVC050 16/12 A3007 RMK     AO2 SLP171 T01610117 $=,
20180105_170000.002,0,ROTM,,,,1,20180105160000,-1,-1,-1,-1,360,-1,10,-1,-1,-1,-1,,-1,0,0,1,OVC 49,1,16,1,11,1018,ROTM 051656Z AUTO 36010KT 10SM OVC049 16/11 A3007 RMK AO2     SLP171 T01560106 $=,
20180105_180000.001,0,ROTM,,,,1,20180105170000,-1,-1,-1,-1,360,-1,13,-1,17,-1,-1,,-1,0,0,1,OVC 44,1,16,1,10,1018,ROTM 051756Z AUTO 36013G17KT 10SM OVC044 16/10 A3007 RMK AO2     SLP170 T01560100 10167 20156 50004 $=,
20180105_190000.002,0,ROTM,,,,1,20180105180000,-1,-1,-1,-1,20,-1,8,-1,-1,-1,-1,,-1,0,0,1,OVC 42,1,16,1,9,1018,ROTM 051856Z AUTO 02008KT 10SM OVC042 16/09 A3007 RMK AO2     SLP171 T01560089 $=,
20180105_200000.002,0,ROTM,,,,1,20180105190000,-1,-1,-1,-1,10,-1,10,-1,-1,-1,-1,,-1,0,0,1,BKN 45,1,15,1,9,1019,ROTM 051956Z AUTO 01010KT 10SM BKN045 15/09 A3009 RMK AO2     SLP175 T01500094 $=,
20180105_210000.003,0,ROTM,,,,1,20180105200000,-1,-1,-1,-1,10,-1,9,-1,-1,-1,-1,,-1,0,0,1,OVC 43,1,15,1,9,1019,ROTM 052056Z AUTO 01009KT 10SM OVC043 15/09 A3009 RMK AO2     SLP176 T01500094 53006 $=,
20180105_220000.002,0,ROTM,,,,1,20180105210000,-1,-1,-1,-1,20,-1,9,-1,-1,-1,-1,,-1,0,0,1,BKN 42,1,14,1,9,1019,ROTM 052156Z AUTO 02009KT 10SM BKN042 14/09 A3010 RMK AO2     SLP179 T01440089 $=,
20180105_230000.002,0,ROTM,,,,1,20180105220000,-1,-1,-1,-1,30,-1,7,-1,-1,-1,-1,,-1,0,0,1,OVC 41,1,15,1,8,1020,ROTM 052256Z AUTO 03007KT 10SM OVC041 15/08 A3012 RMK AO2     SLP187 T01500083 $=,
20180106_000000.004,0,ROTM,,,,1,20180105230000,-1,-1,-1,-1,20,-1,7,-1,-1,-1,-1,,-1,0,0,1,OVC 42,1,17,1,9,1020,ROTM 052356Z AUTO 02007KT 10SM OVC042 17/09 A3013 RMK AO2     SLP190 T01670089 10167 20144 53014 $=,
20180106_010000.004,1,ROTM,,,,0,20180106000000,-1,-1,-1,-1,20,-1,7,-1,-1,-1,-1,,-1,0,0,2,SCT 44   BKN 130,1,17,1,9,1021,ROTM 060056Z 02007KT 10SM SCT044 BKN130 17/09 A3016 RMK AO2     SLP200 STNPR29835 T01720089=,
20180106_020000.002,0,ROTM,,,,0,20180106010000,-1,-1,-1,-1,360,-1,8,-1,-1,-1,-1,,-1,0,0,2,SCT 44   BKN 130,1,17,1,9,1021,ROTM 060156Z 36008KT 10SM SCT044 BKN130 17/09 A3015 RMK AO2     SLP198 STNPR29850 T01720089=,
20180106_030000.002,0,ROTM,,,,0,20180106020000,-1,-1,-1,-1,360,-1,8,-1,-1,-1,-1,,-1,0,0,2,BKN 40   BKN 100,1,17,1,8,1021,ROTM 060256Z 36008KT 10SM BKN040 BKN100 17/08 A3015 RMK AO2     SLP198 STNPR29845 T01720083 51008=,
20180106_040000.004,0,ROTM,,,,0,20180106030000,-1,-1,-1,-1,30,-1,6,-1,-1,-1,-1,,-1,0,0,2,BKN 40   BKN 100,1,17,1,8,1019,ROTM 060356Z 03006KT 10SM BKN040 BKN100 17/08 A3010 RMK AO2     SLP182 STNPR29810 T01720083=,
20180106_050000.002,0,ROTM,,,,0,20180106040000,-1,-1,-1,-1,360,-1,8,-1,-1,-1,-1,,-1,0,0,2,BKN 40   BKN 100,1,17,1,10,1019,ROTM 060456Z 36008KT 10SM BKN040 BKN100 17/10 A3008 RMK AO2     SLP175 STNPR29785 T01720100=,
20180106_060000.002,0,ROTM,,,,0,20180106050000,-1,-1,-1,-1,20,-1,9,-1,-1,-1,-1,,-1,0,0,2,BKN 40   OVC 100,1,17,1,11,1019,ROTM 060556Z 02009KT 10SM BKN040 OVC100 17/11 A3008 RMK AO2     SLP172 STNPR29775 T01720106 10183 20161 56026=,
20180106_070000.002,0,ROTM,,,,0,20180106060000,-1,-1,-1,-1,30,-1,10,-1,-1,-1,-1,,-1,0,0,2,SCT 40   BKN 100,1,17,1,11,1018,ROTM 060656Z 03010KT 10SM SCT040 BKN100 17/11 A3006 RMK AO2     SLP167 STNPR29755 T01720106=,
20180106_080000.002,0,ROTM,,,,0,20180106070000,-1,-1,-1,-1,10,-1,7,-1,-1,-1,-1,,-1,0,0,2,SCT 40   BKN 100,1,17,1,11,1019,ROTM 060756Z 01007KT 10SM SCT040 BKN100 17/11 A3009 RMK AO2     SLP177 STNPR29785 T01670111=,
20180106_090000.002,0,ROTM,,,,0,20180106080000,-1,-1,-1,-1,20,-1,6,-1,-1,-1,-1,,-1,0,0,2,SCT 40   BKN 100,1,16,1,11,1019,ROTM 060856Z 02006KT 10SM SCT040 BKN100 16/11 A3010 RMK AO2     SLP180 STNPR29795 T01560106 53008=,
20180106_100000.002,0,ROTM,,,,1,20180106090000,-1,-1,-1,-1,30,-1,7,-1,-1,-1,-1,,-1,0,0,2,SCT 40   BKN 100,1,16,1,11,1020,ROTM 060956Z AUTO 03007KT 10SM SCT040 BKN100 16/11 A3011 RMK     AO2 SLP184 STNPR29800 T01560111=,
20180106_110000.002,0,ROTM,,,,1,20180106100000,-1,-1,-1,-1,40,-1,7,-1,-1,-1,-1,,-1,0,0,1,OVC 95,1,16,1,11,1019,ROTM 061056Z AUTO 04007KT 10SM OVC095 16/11 A3010 RMK AO2     SLP181 T01560111=,
20180106_120000.002,0,ROTM,,,,1,20180106110000,-1,-1,-1,-1,0,-1,0,-1,-1,-1,-1,,-1,0,0,1,OVC 85,1,16,1,12,1021,ROTM 061156Z AUTO 00000KT 10SM OVC085 16/12 A3014 RMK AO2     SLP193 T01560117 10178 20150 53013=,
20180106_130000.002,0,ROTM,,,,1,20180106120000,-1,-1,-1,-1,70,-1,3,-1,-1,-1,-1,,-1,0,0,1,OVC 100,1,15,1,12,1020,ROTM 061256Z AUTO 07003KT 10SM OVC100 15/12 A3013 RMK AO2     SLP192 T01500117=,
20180106_140000.001,0,ROTM,,,,1,20180106130000,-1,-1,-1,-1,70,-1,6,-1,-1,-1,-1,,-1,0,0,2,FEW 85   SCT 110,1,15,1,12,1019,ROTM 061356Z AUTO 07006KT 10SM FEW085 SCT110 15/12 A3009 RMK     AO2 SLP177 T01500122=,
20180106_150000.002,0,ROTM,,,,1,20180106140000,-1,-1,-1,-1,20,-1,5,-1,-1,-1,-1,,-1,0,0,2,BKN 100   BKN 120,0,-1,0,-1,1020,ROTM 061456Z AUTO 02005KT 10SM BKN100 BKN120 14/ A3011 RMK AO2     SLP184 T0144 401830144 55009 $=,
20180106_160000.002,0,ROTM,,,,1,20180106150000,-1,-1,-1,-1,360,-1,4,-1,-1,-1,-1,,-1,0,0,1,OVC 100,0,-1,0,-1,1019,ROTM 061556Z AUTO 36004KT 10SM OVC100 14/ A3010 RMK AO2 SLP181     T0144 $=,
20180106_170000.002,0,ROTM,,,,1,20180106160000,-1,-1,-1,-1,40,-1,5,-1,-1,-1,-1,,-1,0,0,2,FEW 90   OVC 110,0,-1,0,-1,1019,ROTM 061656Z AUTO 04005KT 10SM FEW090 OVC110 14/ A3010 RMK AO2     SLP181 T0144 $=,
20180106_180000.001,0,ROTM,,,,1,20180106170000,-1,-1,-1,-1,50,-1,5,-1,-1,-1,-1,,-1,0,0,1,OVC 90,0,-1,0,-1,1020,ROTM 061756Z AUTO 05005KT 10SM OVC090 14/ A3011 RMK AO2 SLP182     T0144 10156 20144 55002 $=,
20180106_190000.002,0,ROTM,,,,1,20180106180000,-1,-1,-1,-1,110,-1,6,-1,-1,-1,-1,,-1,0,0,1,BKN 110,0,-1,0,-1,1019,ROTM 061856Z AUTO 11006KT 10SM BKN110 14/ A3008 RMK AO2 SLP173     T0144 $=,
20180106_200000.002,0,ROTM,,,,1,20180106190000,-1,-1,-1,-1,110,-1,5,-1,-1,-1,-1,,-1,0,0,1,OVC 100,0,-1,0,-1,1018,ROTM 061956Z AUTO 11005KT 10SM OVC100 15/ A3007 RMK AO2 SLP168     T0150 $=,
20180106_210000.002,0,ROTM,,,,1,20180106200000,-1,-1,-1,-1,100,-1,7,-1,-1,-1,-1,,-1,0,0,2,BKN 100   OVC 120,1,16,1,14,1018,ROTM 062056Z AUTO 10007KT 10SM BKN100 OVC120 16/14 A3007 RMK     AO2 SLP169 T01560139 55013 $=,
20180106_220000.002,0,ROTM,,,,1,20180106210000,-1,-1,-1,-1,80,-1,4,-1,-1,-1,-1,,-1,0,0,3,BKN 21   BKN 90   OVC 110,1,15,1,14,1019,ROTM 062156Z AUTO 08004KT 10SM BKN021 BKN090 OVC110 15/14 A3010     RMK AO2 SLP182 T01500139 $=,
20180106_230000.002,0,ROTM,,,,1,20180106220000,-1,-1,-1,-1,60,-1,4,-1,-1,-1,-1,,-1,0,0,2,BKN 100   OVC 120,0,-1,0,-1,1020,ROTM 062256Z AUTO 06004KT 10SM BKN100 OVC120 15/ A3012 RMK AO2     SLP187 P0004 T0150 $=,
20180107_000000.004,0,ROTM,,,,1,20180106230000,-1,-1,-1,-1,90,-1,11,-1,-1,-1,-1,,-1,0,0,2,FEW 90   OVC 110,0,-1,0,-1,1019,ROTM 062356Z AUTO 09011KT 10SM FEW090 OVC110 16/ A3010 RMK AO2     SLP181 P0001 60005 T0156 10156 20139 50012 $=,
20180107_010000.001,0,ROTM,,,,1,20180107000000,-1,-1,-1,-1,110,-1,10,-1,-1,-1,-1,,-1,0,0,3,SCT 18   SCT 80   OVC 100,0,-1,0,-1,1020,ROTM 070056Z AUTO 11010KT 10SM SCT018 SCT080 OVC100 17/ A3013     RMK AO2 SLP191 T0167 $=,
20180107_020000.002,0,ROTM,,,,1,20180107010000,-1,-1,-1,-1,120,-1,7,-1,-1,-1,-1,,-1,0,0,1,OVC 100,0,-1,0,-1,1020,ROTM 070156Z AUTO 12007KT 10SM OVC100 17/ A3011 RMK AO2 SLP183     T0167 $=,
20180107_030000.002,0,ROTM,,,,1,20180107020000,-1,-1,-1,-1,130,-1,10,-1,-1,-1,-1,,-1,0,0,2,FEW 15   OVC 95,0,-1,0,-1,1020,ROTM 070256Z AUTO 13010KT 10SM FEW015 OVC095 17/ A3011 RMK AO2     SLP183 T0172 51002 $=,
20180107_040000.002,0,ROTM,,,,1,20180107030000,-1,-1,-1,-1,120,-1,5,-1,-1,-1,-1,,-1,0,0,3,BKN 14   BKN 43   OVC 65,0,-1,0,-1,1018,ROTM 070356Z AUTO 12005KT 10SM BKN014 BKN043 OVC065 17/ A3007     RMK AO2 SLP169 P0002 T0172 $=,
20180107_050000.002,0,ROTM,,,,1,20180107040000,-1,-1,-1,-1,120,-1,7,-1,-1,-1,-1,,-1,0,0,2,BKN 16   OVC 90,0,-1,0,-1,1018,ROTM 070456Z AUTO 12007KT 10SM BKN016 OVC090 18/ A3006 RMK AO2     SLP166 T0178 $=,
20180107_060000.002,0,ROTM,,,,1,20180107050000,-1,-1,-1,-1,140,-1,4,-1,-1,-1,-1,,-1,0,0,3,SCT 16   BKN 50   OVC 90,0,-1,0,-1,1018,ROTM 070556Z AUTO 14004KT 7SM SCT016 BKN050 OVC090 17/ A3006     RMK AO2 SLP167 P0003 60005 T0172 10178 20156 55002 $=,
20180107_070000.002,0,ROTM,,,,1,20180107060000,-1,-1,-1,-1,140,-1,8,-1,-1,-1,-1,,-1,0,0,1,OVC 95,0,-1,0,-1,1018,ROTM 070656Z AUTO 14008KT 8SM OVC095 18/ A3005 RMK AO2 SLP162     P0001 T0178 $=,
20180107_080000.002,0,ROTM,,,,1,20180107070000,-1,-1,-1,-1,150,-1,13,-1,-1,-1,-1,,-1,0,0,1,OVC 95,0,-1,0,-1,1017,ROTM 070756Z AUTO 15013KT 10SM OVC095 17/ A3004 RMK AO2 SLP160     P0002 T0172 $=,
20180107_090000.002,0,ROTM,,,,1,20180107080000,-1,-1,-1,-1,140,-1,12,-1,19,-1,-1,,-1,0,0,3,FEW 65   BKN 85   OVC 100,0,-1,0,-1,1018,ROTM 070856Z AUTO 14012G19KT 10SM FEW065 BKN085 OVC100 18/     A3005 RMK AO2 SLP162 P0001 60004 T0178 55005 $=,
20180107_100000.002,0,ROTM,,,,1,20180107090000,-1,-1,-1,-1,150,-1,11,-1,-1,-1,-1,,-1,0,0,1,OVC 85,0,-1,0,-1,1019,ROTM 070956Z AUTO 15011KT 10SM OVC085 18/ A3009 RMK AO2 SLP176     T0178 $=,
20180107_110000.002,0,ROTM,,,,1,20180107100000,-1,-1,-1,-1,150,-1,11,-1,-1,-1,-1,,-1,0,0,1,OVC 95,0,-1,0,-1,1019,ROTM 071056Z AUTO 15011KT 7SM OVC095 18/ A3009 RMK AO2 SLP176     P0002 T0183 $=,
20180107_120000.001,0,ROTM,,,,1,20180107110000,-1,-1,-1,-1,150,-1,14,-1,-1,-1,-1,,-1,0,0,1,OVC 100,0,-1,0,-1,1018,ROTM 071156Z AUTO 15014KT 10SM OVC100 18/ A3006 RMK AO2 SLP168     60006 70016 T0183 10183 20172 50005 $=,
20180107_130000.001,0,ROTM,,,,1,20180107120000,-1,-1,-1,-1,150,-1,13,-1,-1,-1,-1,,-1,0,0,1,OVC 100,0,-1,0,-1,1018,ROTM 071256Z AUTO 15013KT 10SM OVC100 18/ A3006 RMK AO2 SLP168     T0183 $=,
20180107_140000.001,0,ROTM,,,,1,20180107130000,-1,-1,-1,-1,150,-1,16,-1,25,-1,-1,,-1,0,0,2,SCT 75   OVC 95,0,-1,0,-1,1017,ROTM 071356Z AUTO 15016G25KT 10SM SCT075 OVC095 19/ A3002 RMK     AO2 PK WND 13027/1343 SLP152 T0189 $=,
20180107_150000.002,0,ROTM,,,,1,20180107140000,-1,-1,-1,-1,160,-1,18,-1,28,-1,-1,,-1,0,0,3,FEW 75   BKN 100   OVC 110,0,-1,0,-1,1016,ROTM 071456Z AUTO 16018G28KT 10SM FEW075 BKN100 OVC110 19/     A2999 RMK AO2 PK WND 16029/1410 SLP142 T0194 401940139           58025 $=,
20180107_160000.002,0,ROTM,,,,1,20180107150000,-1,-1,-1,-1,150,-1,19,-1,27,-1,-1,,-1,0,0,2,FEW 85   OVC 110,0,-1,0,-1,1015,ROTM 071556Z AUTO 15019G27KT 10SM FEW085 OVC110 20/ A2996 RMK     AO2 PK WND 14029/1536 SLP131 T0200 $=,
20180107_170000.002,0,ROTM,,,,1,20180107160000,-1,-1,-1,-1,160,-1,17,-1,24,-1,-1,,-1,0,0,1,BKN 110,1,21,1,17,1014,ROTM 071656Z AUTO 16017G24KT 10SM BKN110 21/17 A2994 RMK AO2 PK     WND 17030/1608 SLP126 T02060172 $=,
20180107_200000.004,1,ROTM,,,,0,20180107190000,-1,-1,-1,-1,150,-1,16,-1,23,-1,-1,,9999,0,0,2,FEW 50   BKN 120,1,21,1,7,1013,ROTM 071956Z 15016G23KT 9999 FEW050 BKN120 21/07 A2990 RMK     PK WND 14029/1858 SLP112 STNPR29605 T02060172=,
20180107_230000.004,1,ROTM,,,,0,20180107210000,-1,-1,-1,-1,140,-1,18,-1,26,-1,-1,,4800,0,2,2,SCT 50   OVC 80,0,-1,0,-1,1013,ROTM 072156Z 14018G26KT 4800 SHRA BR SCT050 OVC080 2018 A2992     RMK PK WND 15029/2108 RAB51 SLP117 STNPR29620 P0003           T02000178=,RA SH; BR
20180107_230000.004,1,ROTM,,,,0,20180107220000,-1,-1,-1,-1,150,-1,15,-1,-1,-1,-1,,4000,0,2,3,FEW 25   BKN 70   OVC 90,1,20,1,18,1014,ROTM 072256Z 15015KT 4000 SHRA BR FEW025 BKN070 OVC090 20/18     A2994 RMK PK WND 14026/2208 RAE06B43 SLP125 STNPR29635           P0003 T02000183=,RA SH; BR
20180108_000000.005,1,ROTM,,,,0,20180107230000,-1,-1,-1,-1,130,-1,7,-1,-1,-1,-1,,3200,0,2,2,BKN 25   OVC 80,1,19,1,18,1014,ROTM 072356Z 13007KT 3200 SHRA BR BKN025 OVC080 19/18 A2995 RMK     SLP130 STNPR29640 P0077 60083 T01940183 10211 20194 51020=,RA SH; BR
20180108_010000.004,1,ROTM,,,,0,20180108000000,-1,-1,-1,-1,170,-1,12,-1,-1,-1,-1,,9999,0,0,3,FEW 14   BKN 20   BKN 90,1,21,1,20,1014,ROTM 080056Z 17012KT 9999 FEW014 BKN020 BKN090 21/20 A2993 RMK     SHRAE02 SLP125 STNPR29640 P0000 T02110200=,
20180108_030000.005,1,ROTM,,,,0,20180108010000,-1,-1,-1,-1,170,-1,13,-1,22,-1,-1,,9999,0,0,2,BKN 15   BKN 80,1,21,1,20,1013,ROTM 080156Z 17013G22KT 9999 BKN015 BKN080 21/20 A2990 RMK     SHRAB45 SLP100 STNPR29620 P0002 T02110201=,
20180108_030000.005,1,ROTM,,,,0,20180108020000,-1,-1,-1,-1,150,-1,5,-1,-1,-1,-1,,6000,0,2,3,BKN 12   BKN 30   OVC 44,1,22,1,20,1011,ROTM 080256Z 15005KT 6000 SHRA BR BKN012 BKN030 OVC044 22/20     A2986 RMK SHRAE10B34 SLP098 STNPR29580 P0018 60020           T02170200 58032=,RA SH; BR
20180108_040000.004,1,ROTM,,,,0,20180108030000,-1,-1,-1,-1,190,-1,12,-1,-1,-1,-1,,9000,0,1,3,SCT 15   BKN 25   BKN 80,1,23,1,21,1009,ROTM 080356Z 19012KT 9000 BR SCT015 BKN025 BKN080 23/21 A2981     RMK SHRAE16 SLP081 STNPR29515 P0003 T02330212=,BR
20180108_050000.004,1,ROTM,,,,0,20180108040000,-1,-1,-1,-1,190,-1,12,-1,-1,-1,-1,,9000,0,1,3,SCT 15   BKN 25   BKN 80,1,23,1,21,1009,ROTM 080456Z 19012KT 9000 BR SCT015 BKN025 BKN080 23/21 A2981     RMK SLP081 STNPR29500 T02330212=,BR
20180108_060000.007,1,ROTM,,,,0,20180108050000,-1,-1,-1,-1,250,-1,13,-1,-1,-1,-1,,9000,0,1,3,SCT 10   BKN 25   BKN 40,1,23,1,21,1009,ROTM 080556Z 25013KT 9000 BR SCT010 BKN025 BKN040 23/21 A2980     RMK SLP077 STNPR29500 60023 T02260213 10233 20211 56005=,BR
20180108_070000.006,1,ROTM,,,,0,20180108060000,-1,-1,-1,-1,260,-1,12,-1,20,-1,-1,,3200,0,2,3,SCT 10   BKN 20   OVC 30,1,22,1,21,1009,ROTM 080656Z 26012G20KT 3200 SHRA BR SCT010 BKN020 OVC030 22/21     A2980 RMK SHRAB49 SLP074 STNPR29500 P0006 T02170210=,RA SH; BR
20180108_090000.004,1,ROTM,,,,0,20180108070000,-1,-1,-1,-1,280,-1,12,-1,-1,-1,-1,,4800,0,2,3,SCT 7   BKN 10   OVC 40,1,19,1,18,1010,ROTM 080759Z 28012KT 4800 -SHRA BR SCT007 BKN010 OVC040     19/18 A2982 RMK SHRAB10 SLP087 STNPR29520 P0030 T01900184=,- RA SH; BR
20180108_090000.004,1,ROTM,,,,0,20180108080000,-1,-1,-1,-1,350,-1,14,-1,-1,-1,-1,,4800,0,2,2,BKN 6   OVC 10,1,18,1,17,1011,ROTM 080856Z 35014KT 4800 -SHRA BR BKN006 OVC010 18/17 A2986     RMK WSHFT 0801 SLP096 STNPR29555 P0014 60044 T01830174           53020=,- RA SH; BR
20180108_090000.005,1,ROTM,,,,0,20180108070000,-1,-1,-1,-1,280,-1,12,-1,-1,-1,-1,,4800,0,2,3,SCT 7   BKN 10   OVC 40,1,19,1,18,1010,ROTM 080756Z 28012KT 4800 -SHRA BR SCT007 BKN010 OVC040     19/18 A2982 RMK WND WRNG SHRAB10 SLP087 STNPR29520 P0030           T01900184=,- RA SH; BR
20180108_090000.005,1,ROTM,,,,0,20180108080000,-1,-1,-1,-1,350,-1,14,-1,-1,-1,-1,,4800,0,2,2,BKN 6   OVC 10,1,18,1,17,1011,ROTM 080856Z 35014KT 4800 -SHRA BR BKN006 OVC010 18/17     A2986 RMK WND WRNG WSHFT 0801 SLP096 STNPR29555 P0014           60044 T01830174 53020=,- RA SH; BR
20180108_100000.004,1,ROTM,,,,0,20180108090000,-1,-1,-1,-1,10,-1,10,-1,-1,-1,-1,,6000,0,2,3,SCT 7   BKN 15   OVC 50,1,18,1,18,1011,ROTM 080956Z 01010KT 6000 -SHRA BR SCT007 BKN015 OVC050 18/18     A2985 RMK WND WRNG SLP093 STNPR29500 P0003 T01830175=,- RA SH; BR
20180108_110000.002,0,ROTM,,,,0,20180108100000,-1,-1,-1,-1,350,-1,13,-1,-1,-1,-1,,9000,0,1,3,SCT 6   BKN 10   OVC 45,1,18,1,17,1012,ROTM 081056Z 35013KT 9000 BR SCT006 BKN010 OVC045 18/17 A2988     RMK WND WRNG SHRAE54 SLP104 STNPR29580 P0000 T01830170=,BR
20180108_120000.002,0,ROTM,,,,0,20180108110000,-1,-1,-1,-1,320,-1,15,-1,25,-1,-1,,9000,0,1,3,SCT 7   BKN 15   OVC 45,1,19,1,17,1014,ROTM 081156Z 32015G25KT 9000 BR SCT007 BKN015 OVC045 19/17     A2994 RMK WND WRNG SLP125 STNPR29640 60046 T01890173 10228           20178 53028=,BR
20180108_130000.005,1,ROTM,,,,0,20180108120000,-1,-1,-1,-1,320,-1,14,-1,21,-1,-1,,8000,0,1,3,SCT 7   BKN 15   OVC 50,1,18,1,17,1015,ROTM 081256Z 32014G21KT 8000 BR SCT007 BKN015 OVC050 18/17     A2996 RMK WND WRNG SLP133 STNPR29665 T01780167=,BR
20180108_140000.002,0,ROTM,,,,0,20180108130000,-1,-1,-1,-1,330,-1,13,-1,20,-1,-1,,9000,0,1,3,SCT 8   BKN 15   OVC 50,1,17,1,16,1015,ROTM 081356Z 33013G20KT 9000 BR SCT008 BKN015 OVC050 17/16     A2996 RMK WND WRNG END SLP132 STNPR29660 T01720161=,BR
20180108_200000.004,1,ROTM,,,,0,20180108190000,-1,-1,-1,-1,330,-1,16,-1,25,-1,-1,,-1,0,0,3,FEW 17   BKN 24   OVC 30,1,15,1,15,1017,ROTM 081956Z 33016G25KT 10SM FEW017 BKN024 OVC030 15/15 A3003     RMK PK WND 33028/1937 SHRAE45 SLP155 STNPR29730 P0029           T01500150=,
20180108_210000.006,1,ROTM,,,,0,20180108200000,-1,-1,-1,-1,300,-1,15,-1,24,-1,-1,,-1,0,2,2,SCT 21   OVC 29,1,14,1,14,1019,ROTM 082056Z 30015G24KT 6SM -SHRA BR SCT021 OVC029 14/14 A3010     RMK SLP180 STNPR29800 P0001 6//// T01390139 5////=,- RA SH; BR
20180108_220000.004,1,ROTM,,,,0,20180108210000,-1,-1,-1,-1,340,-1,16,-1,29,-1,-1,,9000,0,2,3,SCT 15   BKN 25   OVC 33,1,13,1,13,1019,ROTM 082156Z 34016G29KT 9000 -SHRA BR SCT015 BKN025 OVC033     13/13 A3009 RMK PK WND 33027/2157 RAE2157 SLP181           STNPR29800 P0000 T01330133=,- RA SH; BR
20180108_230000.006,1,ROTM,,,,0,20180108220000,-1,-1,-1,-1,330,-1,14,-1,23,-1,-1,,9000,0,2,2,BKN 24   OVC 32,1,13,1,12,1020,ROTM 082256Z 33014G23KT 9000 -SHRA BR BKN024 OVC032 13/12 A3012     RMK PK WIND 32030/05 RAE57B24 SLP186 STNPR29815 P0000           T01330122=,- RA SH; BR
20180109_000000.005,1,ROTM,,,,0,20180108230000,-1,-1,-1,-1,330,-1,16,-1,23,-1,-1,,9000,0,2,2,BKN 22   OVC 28,1,13,1,13,1021,ROTM 082356Z 33016G23KT 9000 -SHRA BR BKN022 OVC028 13/13 A3015     RMK PK WND 33029/40 SLP196 STNPR29840 P0001 6////           T01330128=,- RA SH; BR
20180109_010000.005,1,ROTM,,,,0,20180109000000,-1,-1,-1,-1,330,-1,12,-1,21,-1,-1,,9000,0,1,2,SCT 21   OVC 30,1,13,1,12,1021,ROTM 090056Z 33012G21KT 9000 BR SCT021 OVC030 13/12 A3015 RMK     RAE16 SLP196 STNPR29850 P0000 T01280122=,BR
20180109_020000.002,0,ROTM,,,,1,20180109010000,-1,-1,-1,-1,330,-1,13,-1,19,-1,-1,,-1,0,1,2,FEW 28   OVC 40,1,13,1,12,1021,ROTM 090156Z AUTO 33013G19KT 5SM BR FEW028 OVC040 13/12 A3015     RMK AO2 SLP197 STNPR29845 T01330122 $=,BR
20180109_030000.002,0,ROTM,,,,0,20180109020000,-1,-1,-1,-1,310,-1,15,-1,20,-1,-1,,-1,0,1,2,BKN 33   OVC 43,1,14,1,11,1020,ROTM 090256Z 31015G20KT 4SM BR BKN033 OVC043 14/11 A3011 RMK     AO2 SLP183 STNPR29815 P0000 60000 T01390111 58013 $=,BR
20180109_030000.004,1,ROTM,,,,0,20180109020000,-1,-1,-1,-1,310,-1,15,-1,20,-1,-1,,6000,0,1,2,BKN 33   OVC 43,1,14,1,11,1020,ROTM 090256Z 31015G20KT 6000 BR BKN033 OVC043 14/11 A3011     RMK SLP183 STNPR29815 60000 T01390111 58013=,BR
20180109_040000.002,0,ROTM,,,,0,20180109030000,-1,-1,-1,-1,320,-1,14,-1,23,-1,-1,,-1,0,2,2,BKN 33   OVC 43,1,14,1,10,1019,ROTM 090356Z 32014G23KT 6SM DZ BR BKN033 OVC043 14/10 A3008 RMK     AO2 DZB19 PRESFR SLP174 STNPR29785 P0000 T01390100 $=,DZ; BR
20180109_050000.002,0,ROTM,,,,0,20180109040000,-1,-1,-1,-1,330,-1,17,-1,24,-1,-1,,-1,0,2,2,BKN 39   BKN 47,1,14,1,9,1018,ROTM 090456Z 33017G24KT 8SM -DZ BR BKN039 BKN047 14/09 A3007     RMK AO2 SLP171 STNPR29780 P0000 T01440089 $=,- DZ; BR
20180109_060000.002,0,ROTM,,,,0,20180109050000,-1,-1,-1,-1,310,-1,18,-1,26,-1,-1,,-1,0,2,2,BKN 36   OVC 46,0,-1,0,-1,1018,ROTM 090556Z 31018G26KT 10SM -DZ BR BKN036 OVC046 13/ A3007 RMK     AO2 PK WND 34026/0548 SLP171 P0001 60001 T0133 10144 20128           56012 $=,- DZ; BR
20180109_060000.006,1,ROTM,,,,0,20180109040000,-1,-1,-1,-1,330,-1,17,-1,24,-1,-1,,9000,0,2,2,BKN 35   BKN 45,1,14,1,9,1018,ROTM 090456Z 33017G24KT 9000 DZ BR BKN035 BKN045 14/09     A3007 RMK SLP171 STNPR29780 P0000 T01440089=,DZ; BR
20180109_060000.006,1,ROTM,,,,0,20180109050000,-1,-1,-1,-1,310,-1,18,-1,26,-1,-1,,9000,0,2,2,BKN 35   OVC 50,1,13,1,8,1018,ROTM 090556Z 31018G26KT 9000 -DZ BR BKN035 OVC050 13/08     A3007 RMK PK WND 34026/48 SLP171 STNPR29770 P0001 60001           T01330084 10144 20128 56012=,- DZ; BR
20180109_070000.002,0,ROTM,,,,0,20180109060000,-1,-1,-1,-1,330,-1,16,-1,23,-1,-1,,-1,0,1,1,BKN 40,0,-1,0,-1,1018,ROTM 090656Z 33016G23KT 10SM BR BKN040 13/ A3007 RMK AO2 PK WND     33026/0600 DZE02 SLP173 P0000 T0128 $=,BR
20180109_070000.005,1,ROTM,,,,0,20180109060000,-1,-1,-1,-1,330,-1,16,-1,23,-1,-1,,9000,0,1,2,BKN 35   OVC 50,1,13,1,8,1018,ROTM 090656Z 33016G23KT 9000 BR BKN035 OVC050 13/08 A3007     RMK PK WND 33026/00 DZE02 SLP173 STNPR29775 P0000           T01280078=,BR
20180109_080000.002,0,ROTM,,,,0,20180109070000,-1,-1,-1,-1,320,-1,14,-1,-1,-1,-1,,-1,0,0,2,BKN 35   OVC 50,1,13,1,8,1019,ROTM 090756Z 32014KT 10SM BKN035 OVC050 13/08 A3010 RMK AO2     SLP181 STNPR29795 T01280083 $=,
20180109_090000.002,0,ROTM,,,,0,20180109080000,-1,-1,-1,-1,330,-1,14,-1,21,-1,-1,,-1,0,0,1,OVC 44,0,-1,0,-1,1020,ROTM 090856Z 33014G21KT 10SM OVC044 13/ A3013 RMK AO2 SLP191     60000 T0128 53019 $=,
20180109_090000.006,1,ROTM,,,,0,20180109080000,-1,-1,-1,-1,330,-1,14,-1,21,-1,-1,,9999,0,0,2,BKN 35   OVC 45,1,13,1,8,1020,ROTM 090856Z 33014G21KT 9999 BKN035 OVC045 13/08 A3013 RMK     SLP191 STNPR29830 60000 T01280080 53019=,
20180109_100000.002,0,ROTM,,,,0,20180109090000,-1,-1,-1,-1,330,-1,15,-1,-1,-1,-1,,-1,0,0,3,FEW 40   BKN 47   BKN 120,0,-1,0,-1,1021,ROTM 090956Z 33015KT 10SM FEW040 BKN047 BKN120 13/ A3014 RMK     AO2 SLP195 STNPR29840 T0128 $=,
20180109_100000.004,1,ROTM,,,,0,20180109090000,-1,-1,-1,-1,330,-1,15,-1,-1,-1,-1,,9999,0,0,3,FEW 40   BKN 50   OVC 120,1,13,1,7,1021,ROTM 090956Z 33015KT 9999 FEW040 BKN050 OVC120 13/07 A3014     RMK SLP195 STNPR29840 T01280082=,
20180109_110000.004,1,ROTM,,,,0,20180109100000,-1,-1,-1,-1,330,-1,12,-1,20,-1,-1,,-1,0,0,3,SCT 35   BKN 43   OVC 120,1,13,1,8,1022,ROTM 091056Z 33012G20KT 10SM SCT035 BKN043 OVC120 13/08 A3017     RMK AO2 PK WND 32027/1039 SLP204 STNPR29865 T01330083 $=,
20180109_120000.002,0,ROTM,,,,0,20180109110000,-1,-1,-1,-1,330,-1,10,-1,-1,-1,-1,,-1,0,0,3,SCT 35   BKN 40   OVC 120,1,13,1,8,1022,ROTM 091156Z 33010KT 10SM SCT035 BKN040 OVC120 13/08 A3018 RMK     AO2 SLP207 STNPR29875 60000 70004 T01330083 10133 20128           51016 $=,
20180109_130000.002,0,ROTM,,,,0,20180109120000,-1,-1,-1,-1,330,-1,12,-1,18,-1,-1,,9999,0,0,2,SCT 35   BKN 45,1,13,1,8,1022,ROTM 091256Z 33012G18KT 9999 SCT035 BKN045 13/08 A3017 RMK     SLP205 STNPR29870 T01330083=,
20180109_130000.004,1,ROTM,,,,0,20180109120000,-1,-1,-1,-1,330,-1,12,-1,18,-1,-1,,-1,0,0,2,BKN 38   OVC 45,1,13,1,8,1022,ROTM 091256Z 33012G18KT 10SM BKN038 OVC045 13/08 A3017 RMK AO2     SLP205 STNPR29870 T01330083 $=,
20180109_140000.002,0,ROTM,,,,0,20180109130000,-1,-1,-1,-1,320,-1,7,-1,-1,-1,-1,,-1,0,0,3,SCT 35   BKN 50   OVC 120,1,13,1,8,1022,ROTM 091356Z 32007KT 10SM SCT035 BKN050 OVC120 13/08 A3017 RMK     AO2 SLP204 STNPR29870 T01330078 $=,
20180109_150000.002,0,ROTM,,,,0,20180109140000,-1,-1,-1,-1,320,-1,9,-1,-1,-1,-1,,-1,0,0,3,BKN 37   BKN 48   OVC 110,0,-1,0,-1,1022,ROTM 091456Z 32009KT 10SM BKN037 BKN048 OVC110 13/ A3018 RMK     AO2 SLP208 T0133 402280128 53001 $=,
20180109_160000.002,0,ROTM,,,,0,20180109150000,-1,-1,-1,-1,360,-1,8,-1,-1,-1,-1,,-1,0,0,3,SCT 36   BKN 43   OVC 110,0,-1,0,-1,1021,ROTM 091556Z 36008KT 10SM SCT036 BKN043 OVC110 13/ A3015 RMK     AO2 SLP200 T0128 $=,
20180109_170000.002,0,ROTM,,,,0,20180109160000,-1,-1,-1,-1,320,-1,12,-1,-1,-1,-1,,-1,0,0,3,FEW 37   BKN 47   OVC 110,0,-1,0,-1,1022,ROTM 091656Z 32012KT 10SM FEW037 BKN047 OVC110 13/ A3018 RMK     AO2 SLP208 T0133 $=,
20180109_180000.002,0,ROTM,,,,0,20180109170000,-1,-1,-1,-1,330,-1,10,-1,18,-1,-1,,-1,0,0,3,SCT 38   BKN 50   OVC 110,0,-1,0,-1,1022,ROTM 091756Z 33010G18KT 10SM SCT038 BKN050 OVC110 13/ A3017 RMK     AO2 SLP203 T0133 10133 20128 56004 $=,
20180109_190000.001,0,ROTM,,,,0,20180109180000,-1,-1,-1,-1,330,-1,12,-1,17,-1,-1,,-1,0,0,2,BKN 41   OVC 55,0,-1,0,-1,1022,ROTM 091856Z 33012G17KT 10SM BKN041 OVC055 13/ A3017 RMK AO2     SLP205 T0133 $=,
20180109_200000.004,1,ROTM,,,,0,20180109190000,-1,-1,-1,-1,320,-1,12,-1,21,-1,-1,,-1,0,0,3,FEW 40   BKN 50   OVC 110,1,13,1,8,1022,ROTM 091956Z 32012G21KT 10SM FEW040 BKN050 OVC110 13/08 A3018     RMK AO2 SLP208 STNPR29875 T01330083 $=,
20180109_210000.002,0,ROTM,,,,0,20180109200000,-1,-1,-1,-1,340,-1,19,-1,24,-1,-1,,-1,0,0,3,SCT 37   BKN 44   OVC 55,1,13,1,8,1023,ROTM 092056Z 34019G24KT 10SM SCT037 BKN044 OVC055 13/08 A3020     RMK AO2 PK WND 33026/2029 SLP214 STNPR29890 T01330083           53010 $=,
20180109_220000.002,0,ROTM,,,,0,20180109210000,-1,-1,-1,-1,320,-1,13,-1,21,-1,-1,,-1,0,0,2,FEW 45   OVC 110,1,13,1,7,1023,ROTM 092156Z 32013G21KT 10SM FEW045 OVC110 13/07 A3021 RMK AO2     PK WND 34026/2057 SLP219 STNPR29915 T01330067 $=,
20180109_230000.002,0,ROTM,,,,0,20180109220000,-1,-1,-1,-1,330,-1,13,-1,20,-1,-1,,-1,0,0,2,FEW 44   BKN 120,1,13,1,7,1023,ROTM 092256Z 33013G20KT 10SM FEW044 BKN120 13/07 A3022 RMK AO2     SLP221 STNPR29920 T01330072 $=,
20180110_000000.004,0,ROTM,,,,0,20180109230000,-1,-1,-1,-1,320,-1,10,-1,-1,-1,-1,,-1,0,0,2,SCT 45   BKN 110,1,13,1,7,1024,ROTM 092356Z 32010KT 10SM SCT045 BKN110 13/07 A3023 RMK AO2     SLP226 STNPR29925 T01330072 10133 20133 51012 $=,
20180110_010000.002,0,ROTM,,,,0,20180110000000,-1,-1,-1,-1,330,-1,11,-1,19,-1,-1,,-1,0,0,2,BKN 43   BKN 50,1,14,1,8,1024,ROTM 100056Z 33011G19KT 10SM BKN043 BKN050 14/08 A3025 RMK AO2     SLP231 STNPR29940 T01390078 $=,
20180110_020000.002,0,ROTM,,,,0,20180110010000,-1,-1,-1,-1,330,-1,11,-1,21,-1,-1,,-1,0,0,2,SCT 42   BKN 50,1,14,1,8,1023,ROTM 100156Z 33011G21KT 10SM SCT042 BKN050 14/08 A3022 RMK AO2     SLP223 STNPR29935 T01390078 $=,
20180110_030000.004,1,ROTM,,,,0,20180110020000,-1,-1,-1,-1,330,-1,12,-1,23,-1,-1,,-1,0,0,3,SCT 40   BKN 50   BKN 65,1,15,1,8,1024,ROTM 100256Z 33012G23KT 10SM SCT040 BKN050 BKN065 15/08 A3024     RMK AO2 PRESRR SLP230 STNPR29930 T01500078 53004 $=,
20180110_040000.003,0,ROTM,,,,0,20180110030000,-1,-1,-1,-1,330,-1,14,-1,20,-1,-1,,-1,0,0,2,SCT 47   BKN 55,1,14,1,8,1023,ROTM 100356Z 33014G20KT 10SM SCT047 BKN055 14/08 A3021 RMK AO2     SLP218 STNPR29905 T01390078 $=,
20180110_050000.002,0,ROTM,,,,1,20180110040000,-1,-1,-1,-1,310,-1,14,-1,20,-1,-1,,-1,0,0,2,BKN 47   BKN 55,0,-1,0,-1,1022,ROTM 100456Z AUTO 31014G20KT 10SM BKN047 BKN055 14/ A3018 RMK     AO2 SLP207 T0144 $=,
20180110_050000.004,1,ROTM,,,,0,20180110040000,-1,-1,-1,-1,330,-1,14,-1,24,-1,-1,,9999,0,0,2,SCT 47   BKN 55,1,14,1,8,1022,ROTM 100456Z 33014G24KT 9999 SCT047 BKN055 14/08 A3019 RMK     SLP211 STNPR29880 T01390078=,
20180110_060000.002,0,ROTM,,,,0,20180110050000,-1,-1,-1,-1,310,-1,12,-1,23,-1,-1,,-1,0,0,2,SCT 44   BKN 60,1,14,1,7,1022,ROTM 100556Z 31012G23KT 10SM SCT044 BKN060 14/07 A3017 RMK AO2     SLP206 STNPR29880 T01390072 10150 20133 56023 $=,
20180110_070000.002,0,ROTM,,,,0,20180110060000,-1,-1,-1,-1,330,-1,18,-1,24,-1,-1,,-1,0,0,3,SCT 43   SCT 49   BKN 60,1,13,1,7,1022,ROTM 100656Z 33018G24KT 10SM SCT043 SCT049 BKN060 13/07 A3017     RMK AO2 SLP206 STNPR29875 T01330072 $=,
20180110_080000.002,0,ROTM,,,,0,20180110070000,-1,-1,-1,-1,330,-1,19,-1,26,-1,-1,,-1,0,0,2,SCT 42   BKN 55,1,13,1,7,1022,ROTM 100756Z 33019G26KT 10SM SCT042 BKN055 13/07 A3019 RMK AO2     PK WND 33026/0756 SLP212 STNPR29890 T01330072 $=,
20180110_090000.002,0,ROTM,,,,0,20180110080000,-1,-1,-1,-1,320,-1,16,-1,23,-1,-1,,-1,0,0,2,SCT 47   BKN 55,1,13,1,7,1023,METAR ROTM 100856Z 32016G23KT 10SM SCT047 BKN055 13/07 A3021 RMK AO2           PK WND 34026/0828 SLP217 STNPR29990 6//// T01330072 53010,
20180110_100000.005,1,ROTM,,,,0,20180110090000,-1,-1,-1,-1,330,-1,14,-1,22,-1,-1,,-1,0,0,2,BKN 40   BKN 60,1,13,1,7,1023,ROTM 100956Z 33014G22KT 10SM BKN040 BKN060 13/07 A3021 RMK PK     WND 34026/0905 SLP219 STNPR29915 T01280067=,
20180110_110000.004,1,ROTM,,,,0,20180110100000,-1,-1,-1,-1,340,-1,16,-1,21,-1,-1,,-1,0,0,2,SCT 40   BKN 55,1,13,1,7,1024,ROTM 101056Z 34016G21KT 10SM SCT040 BKN055 13/07 A3023 RMK PK     WND 36028/1036 SLP225 STNPR29930 T01280072=,
20180110_120000.005,1,ROTM,,,,0,20180110110000,-1,-1,-1,-1,330,-1,14,-1,26,-1,-1,,-1,0,0,2,SCT 47   BKN 60,1,13,1,7,1024,ROTM 101156Z 33014G26KT 10SM SCT047 BKN060 13/07 A3025 RMK PK     WND 34026/1143 SLP232 STNPR29950 6//// 7//// T01280067           10139 20128 53015=,
20180110_130000.004,1,ROTM,,,,0,20180110120000,-1,-1,-1,-1,330,-1,17,-1,24,-1,-1,,-1,0,0,2,SCT 40   BKN 55,1,13,1,7,1025,ROTM 101256Z 33017G24KT 10SM SCT040 BKN055 13/07 A3026 RMK PK     WND 34027/1253 SLP234 STNPR29955 T01280072=,
20180110_140000.002,0,ROTM,,,,0,20180110130000,-1,-1,-1,-1,330,-1,12,-1,18,-1,-1,,-1,0,0,2,SCT 40   BKN 55,1,13,1,6,1024,ROTM 101356Z 33012G18KT 10SM SCT040 BKN055 13/06 A3025 RMK PK     WND 33026/1320 SLP231 STNPR29945 LAST T01280061=,
20180110_140000.004,1,ROTM,,,,1,20180110130000,-1,-1,-1,-1,340,-1,10,-1,-1,-1,-1,,-1,0,0,2,SCT 40   BKN 55,1,13,1,6,1024,ROTM 101356Z AUTO 34010KT 10SM SCT040 BKN055 13/06 A3024 RMK     AO2 PK WND 33026/1320 SLP229 STNPR29945 T01280061 $=,
20180110_150000.002,0,ROTM,,,,1,20180110140000,-1,-1,-1,-1,340,-1,17,-1,25,-1,-1,,-1,0,0,2,BKN 45   OVC 55,0,-1,0,-1,1024,ROTM 101456Z AUTO 34017G25KT 10SM BKN045 OVC055 13/ A3024 RMK     AO2 SLP229 T0128 401500128 58003 $=,
20180110_160000.004,1,ROTM,,,,1,20180110150000,-1,-1,-1,-1,360,-1,15,-1,23,-1,-1,,-1,0,0,2,SCT 40   BKN 60,0,-1,0,-1,1024,ROTM 101556Z AUTO 36015G23KT 10SM SCT040 BKN060 12/ A3025 RMK     AO2 PK WND 33026/1503 SLP231 T0122 $=,
20180110_170000.004,1,ROTM,,,,1,20180110160000,-1,-1,-1,-1,330,-1,15,-1,27,-1,-1,,-1,0,0,2,BKN 47   OVC 60,0,-1,0,-1,1024,ROTM 101656Z AUTO 33015G27KT 10SM BKN047 OVC060 13/ A3024 RMK     AO2 PK WND 33027/1654 SLP227 T0128 $=,
20180110_180000.004,1,ROTM,,,,1,20180110170000,-1,-1,-1,-1,340,-1,21,-1,28,-1,-1,,-1,0,0,3,FEW 42   SCT 50   BKN 70,0,-1,0,-1,1024,ROTM 101756Z AUTO 34021G28KT 10SM FEW042 SCT050 BKN070 12/     A3024 RMK AO2 PK WND 35028/1755 SLP229 T0122 10133 20122           54000 $=,
20180110_190000.005,1,ROTM,,,,1,20180110180000,-1,-1,-1,-1,330,-1,14,-1,22,-1,-1,,-1,0,0,2,SCT 42   OVC 55,0,-1,0,-1,1024,ROTM 101856Z AUTO 33014G22KT 10SM SCT042 OVC055 12/ A3024 RMK     AO2 PK WND 35027/1822 SLP228 T0122 $=,
20180110_200000.004,1,ROTM,,,,0,20180110190000,-1,-1,-1,-1,340,-1,16,-1,24,-1,-1,,-1,0,0,2,BKN 43   OVC 55,1,12,1,6,1024,ROTM 101956Z 34016G24KT 10SM BKN043 OVC055 12/06 A3025 RMK AO2     SLP234 STNPR29950 T01220056 $=,
20180111_000000.004,1,ROTM,,,,0,20180110230000,-1,-1,-1,-1,360,-1,12,-1,-1,-1,-1,,-1,0,0,2,SCT 42   BKN 55,1,11,1,6,1025,ROTM 102356Z 36012KT 10SM SCT042 BKN055 11/06 A3028 RMK AO2     SLP243 STNPR29975 T01110061 10122 20111 50006 $=,
20180111_010000.002,0,ROTM,,,,0,20180111000000,-1,-1,-1,-1,320,-1,9,-1,-1,-1,-1,,-1,0,0,3,SCT 41   BKN 60   OVC 100,1,13,1,6,1027,ROTM 110056Z 32009KT 10SM SCT041 BKN060 OVC100 13/06 A3032 RMK     AO2 SLP256 STNPR30025 T01280056 $=,
20180111_030000.004,1,ROTM,,,,0,20180111010000,-1,-1,-1,-1,350,-1,12,-1,18,-1,-1,,9999,0,0,2,BKN 43   OVC 50,1,12,1,6,1026,ROTM 110156Z 35012G18KT 9999 BKN043 OVC050 12/06 A3031 RMK     SLP253 STNPR30020 T01220056=,
20180111_030000.004,1,ROTM,,,,0,20180111020000,-1,-1,-1,-1,330,-1,13,-1,19,-1,-1,,9999,0,0,3,SCT 47   BKN 75   BKN 100,1,13,1,6,1025,ROTM 110256Z 33013G19KT 9999 SCT047 BKN075 BKN100 13/06 A3028     RMK SLP244 STNPR29970 T01330056 50002=,
20180111_040000.002,0,ROTM,,,,0,20180111030000,-1,-1,-1,-1,330,-1,13,-1,21,-1,-1,,-1,0,0,3,SCT 47   BKN 55   BKN 100,1,14,1,6,1024,ROTM 110356Z 33013G21KT 10SM SCT047 BKN055 BKN100 14/06 A3025     RMK AO2 SLP233 STNPR29955 T01440056 $=,
20180111_050000.004,1,ROTM,,,,0,20180111040000,-1,-1,-1,-1,340,-1,16,-1,24,-1,-1,,-1,0,1,2,BKN 45   OVC 60,1,13,1,6,1024,ROTM 110456Z 34016G24KT 10SM DZ BKN045 OVC060 13/06 A3025 RMK     AO2 DZB52 SLP231 STNPR29950 P0000 T01280061 $=,DZ
20180111_060000.004,1,ROTM,,,,0,20180111050000,-1,-1,-1,-1,330,-1,13,-1,23,-1,-1,,-1,0,0,3,SCT 42   BKN 50   BKN 70,1,13,1,4,1024,ROTM 110556Z 33013G23KT 10SM SCT042 BKN050 BKN070 13/04 A3024     RMK DZE13 SLP229 STNPR29940 P0000 60000 T01280044 10144           20117 56014=,
20180111_070000.002,0,ROTM,,,,0,20180111060000,-1,-1,-1,-1,340,-1,18,-1,24,-1,-1,,-1,0,0,2,BKN 45   BKN 60,1,13,1,3,1024,ROTM 110656Z 34018G24KT 10SM BKN045 BKN060 13/03 A3023 RMK AO2     SLP226 STNPR29935 T01280033=,
20180111_080000.004,1,ROTM,,,,0,20180111070000,-1,-1,-1,-1,350,-1,19,-1,24,-1,-1,,-1,0,0,1,SCT 50,1,13,1,1,1024,ROTM 110756Z 35019G24KT 10SM SCT050 13/01 A3024 RMK AO2 PK WND     34027/0718 SLP229 STNPR29935 T01280011=,
20180111_090000.004,1,ROTM,,,,0,20180111080000,-1,-1,-1,-1,10,-1,10,-1,-1,-1,-1,,-1,0,0,3,SCT 30   BKN 45   BKN 60,1,11,1,4,1025,ROTM 110856Z 01010KT 10SM SCT030 BKN045 BKN060 11/04 A3026 RMK     AO2 PK WND 35028/0829 SLP236 STNPR29965 T01110044 53005=,
20180111_100000.004,1,ROTM,,,,0,20180111090000,-1,-1,-1,-1,350,-1,17,-1,23,-1,-1,,-1,0,0,2,SCT 45   BKN 60,1,12,1,4,1025,ROTM 110956Z 35017G23KT 10SM SCT045 BKN060 12/04 A3027 RMK AO2     PK WND 36026/0928 SLP240 T01220039=,
20180111_100000.005,1,ROTM,,,,0,20180111090000,-1,-1,-1,-1,350,-1,17,-1,23,-1,-1,,9999,0,0,2,SCT 45   BKN 60,1,12,1,4,1025,ROTM 110956Z 35017G23KT 9999 SCT045 BKN060 12/04 A3027 RMK     PK WND 36026/28 SLP240 STNPR29980 T01220039=,
20180111_130000.004,1,ROTM,,,,0,20180111100000,-1,-1,-1,-1,10,-1,12,-1,22,-1,-1,,9999,0,0,2,SCT 40   BKN 60,1,11,1,4,1026,ROTM 111056Z 01012G22KT 9999 SCT040 BKN060 11/04 A3029 RMK     PK WND 36027/33 SLP254 STNPR30000 T01130044=,
20180111_130000.004,1,ROTM,,,,0,20180111110000,-1,-1,-1,-1,10,-1,11,-1,22,-1,-1,,9999,0,0,3,FEW 36   SCT 60   BKN 70,1,11,1,5,1027,ROTM 111156Z 01011G22KT 9999 FEW036 SCT060 BKN070 11/05     A3033 RMK PK WND 35029/1108 SLP260 STNPR30020 T01060050           10133 20106 53024=,
20180111_130000.004,1,ROTM,,,,0,20180111120000,-1,-1,-1,-1,360,-1,18,-1,23,-1,-1,,9999,0,0,3,SCT 49   BKN 60   BKN 70,1,12,1,3,1027,ROTM 111256Z 36018G23KT 9999 SCT049 BKN060 BKN070 12/03     A3034 RMK SLP263 STNPR30030 T01170033=,
20180111_140000.002,0,ROTM,,,,0,20180111130000,-1,-1,-1,-1,10,-1,15,-1,27,-1,-1,,9999,0,0,2,FEW 47   BKN 70,1,12,1,3,1027,ROTM 111356Z 01015G27KT 9999 FEW047 BKN070 12/03 A3033 RMK     PK WND 36029/1328 SLP260 STNPR30030 LAST T01170028=,
20180111_200000.004,1,ROTM,,,,0,20180111190000,-1,-1,-1,-1,350,-1,18,-1,28,-1,-1,,-1,0,0,2,SCT 47   OVC 65,1,12,1,3,1026,ROTM 111956Z 35018G28KT 10SM SCT047 OVC065 12/03 A3030 RMK AO2     PK WND 35028/1953 SLP249 STNPR29995 T01170033=,
20180111_210000.004,1,ROTM,,,,0,20180111200000,-1,-1,-1,-1,350,-1,11,-1,19,-1,-1,,-1,0,0,3,FEW 42   SCT 55   OVC 70,1,11,1,2,1026,ROTM 112056Z 35011G19KT 10SM FEW042 SCT055 OVC070 11/02 A3031     RMK AO2 SLP255 STNPR30100 T01110022 53005=,
20180111_220000.005,1,ROTM,,,,0,20180111210000,-1,-1,-1,-1,330,-1,14,-1,24,-1,-1,,-1,0,0,3,FEW 40   BKN 50   OVC 70,1,11,1,4,1027,ROTM 112156Z 33014G24KT 10SM FEW040 BKN050 OVC070 11/04 A3033     RMK AO2 PK WND 33027/2132 SLP259 STNPR30025 P0000           T01060044=,
20180111_230000.004,1,ROTM,,,,0,20180111220000,-1,-1,-1,-1,360,-1,16,-1,23,-1,-1,,-1,0,0,3,SCT 45   BKN 60   OVC 70,1,11,1,3,1027,ROTM 112256Z 36016G23KT 10SM SCT045 BKN060 OVC070 11/03 A3033     RMK AO2 SLP261 STNPR30020 T01110028=,
20180112_000000.004,1,ROTM,,,,0,20180111230000,-1,-1,-1,-1,350,-1,15,-1,22,-1,-1,,-1,0,0,3,SCT 50   BKN 60   OVC 70,1,12,1,3,1028,ROTM 112356Z 35015G22KT 10SM SCT050 BKN060 OVC070 12/03 A3035     RMK AO2 SLP268 STNPR30040 60000 T01170028 10117 20094           53014 $=,
20180112_010000.005,1,ROTM,,,,0,20180112000000,-1,-1,-1,-1,330,-1,15,-1,23,-1,-1,,-1,0,0,3,BKN 47   BKN 60   OVC 70,1,12,1,1,1028,ROTM 120056Z 33015G23KT 10SM BKN047 BKN060 OVC070 12/01 A3037     RMK AO2 SLP273 STNPR30070 T01170011 $=,
20180112_020000.004,1,ROTM,,,,0,20180112010000,-1,-1,-1,-1,340,-1,14,-1,25,-1,-1,,-1,0,0,2,SCT 45   BKN 70,1,13,1,3,1028,ROTM 120156Z 34014G25KT 10SM SCT045 BKN070 13/03 A3035 RMK AO2     SLP267 STNPR30040 T01280033 $=,
20180112_030000.004,1,ROTM,,,,0,20180112020000,-1,-1,-1,-1,10,-1,14,-1,19,-1,-1,,-1,0,0,3,SCT 42   BKN 50   OVC 60,1,11,1,4,1027,ROTM 120256Z 01014G19KT 10SM SCT042 BKN050 OVC060 11/04 A3033     RMK AO2 SLP260 STNPR30045 T01110039 58008 $=,
20180112_040000.004,1,ROTM,,,,0,20180112030000,-1,-1,-1,-1,360,-1,12,-1,21,-1,-1,,-1,0,0,2,BKN 65   BKN 80,1,11,1,4,1026,ROTM 120356Z 36012G21KT 10SM BKN065 BKN080 11/04 A3030 RMK PK     WND 36026/0314 SLP251 STNPR30000 T01110044=,
20180112_050000.003,0,ROTM,,,,0,20180112040000,-1,-1,-1,-1,340,-1,14,-1,23,-1,-1,,-1,0,0,3,FEW 30   BKN 50   BKN 70,1,12,1,7,1026,ROTM 120456Z 34014G23KT 10SM FEW030 BKN050 BKN070 12/07 A3029     RMK AO2 RAB04E22 SLP246 STNPR29985 P0000 T01220067=,
20180112_050000.005,1,ROTM,,,,0,20180112040000,-1,-1,-1,-1,340,-1,14,-1,23,-1,-1,,-1,0,0,3,FEW 30   BKN 50   BKN 70,1,12,1,7,1026,ROTM 120456Z 34014G23KT 10SM FEW030 BKN050 BKN070 12/07     A3029 RMK RAB04E18 PLB04E18 SLP246 STNPR29985 P0000           T01220067=,
20180112_050000.006,1,ROTM,,,,0,20180112050000,-1,-1,-1,-1,330,-1,19,-1,27,-1,-1,,-1,0,2,3,FEW 35   BKN 50   BKN 60,1,10,1,6,1026,ROTM 120517Z 33019G27KT 6SM -RA BR FEW035 BKN050 BKN060     10/06 A3030 RMK SLP249 STNPR30000=,- RA; BR
20180112_060000.004,1,ROTM,,,,0,20180112050000,-1,-1,-1,-1,360,-1,12,-1,18,-1,-1,,-1,0,0,3,FEW 30   BKN 40   BKN 60,1,10,1,5,1026,ROTM 120556Z 36012G18KT 10SM FEW030 BKN040 BKN060 10/05 A3029     RMK AO2 PK WND 36030/0505 RAB13E53 SLP247 STNPR29990 P0002           60002 T01000050 10139 20094 55014=,
20180112_070000.005,1,ROTM,,,,0,20180112060000,-1,-1,-1,-1,330,-1,17,-1,24,-1,-1,,-1,0,0,2,SCT 50   BKN 60,1,11,1,3,1026,ROTM 120656Z 33017G24KT 10SM SCT050 BKN060 11/03 A3031 RMK AO2     PK WND 34029/0637 RAB03E13 SLP252 STNPR30000 P0000           T01110028=,
20180112_070000.006,1,ROTM,,,,0,20180112060000,-1,-1,-1,-1,330,-1,17,-1,24,-1,-1,,-1,0,0,2,SCT 50   BKN 60,1,11,1,3,1026,ROTM 120656Z 33017G24KT 10SM SCT050 BKN060 11/03 A3031 RMK     PK WND 34029/0637 SLP252 STNPR30000 T01110028=,
20180112_080000.005,1,ROTM,,,,0,20180112070000,-1,-1,-1,-1,330,-1,17,-1,24,-1,-1,,9999,0,0,2,SCT 30   BKN 40,1,11,1,5,1026,ROTM 120756Z 33017G24KT 9999 SCT030 BKN040 11/05 A3031 RMK     PK WND 34027/42 SLP252 STNPR30000 T01050054=,
20180112_090000.004,1,ROTM,,,,0,20180112080000,-1,-1,-1,-1,360,-1,17,-1,27,-1,-1,,-1,0,0,3,FEW 21   BKN 30   BKN 38,1,10,1,6,1026,ROTM 120856Z 36017G27KT 10SM FEW021 BKN030 BKN038 10/06 A3031     RMK AO2 PK WND 36027/0852 SLP254 WND WRNG 30005 60000           T01000056 51007=,
20180112_100000.004,1,ROTM,,,,0,20180112090000,-1,-1,-1,-1,40,-1,6,-1,-1,-1,-1,,-1,0,0,2,SCT 48   OVC 60,1,9,1,6,1027,ROTM 120956Z 04006KT 10SM SCT048 OVC060 09/06 A3033 RMK AO2     RAB09E32 SLP261 STNPR30030 WND WRNG P0001 T00890056=,
20180112_110000.004,1,ROTM,,,,0,20180112100000,-1,-1,-1,-1,60,-1,7,-1,-1,-1,-1,,-1,0,0,3,SCT 28   BKN 36   BKN 48,1,8,1,6,1027,ROTM 121056Z 06007KT 10SM SCT028 BKN036 BKN048 08/06 A3034 RMK     AO2 RAB10E27 SLP264 STNPR30040 WND WRNG P0000 T00830061=,
20180112_120000.004,1,ROTM,,,,0,20180112110000,-1,-1,-1,-1,50,-1,5,-1,-1,-1,-1,,-1,0,0,3,SCT 41   BKN 49   OVC 60,1,9,1,5,1027,ROTM 121156Z 05005KT 10SM SCT041 BKN049 OVC060 09/05 A3034 RMK     AO2 RAB07E36 SLP263 STNPR30040 WND WRNG P0003 60004 70006           T00890044 10117 20083 50009 $=,
20180112_140000.002,0,ROTM,,,,0,20180112130000,-1,-1,-1,-1,30,-1,7,-1,-1,-1,-1,,-1,0,0,1,BKN 70,1,9,1,3,1028,ROTM 121356Z 03007KT 10SM BKN070 09/03 A3037 RMK AO2 SLP273     STNPR30060 WND WRNG T00890033 $=,
20180112_140000.002,1,ROTM,,,,0,20180112120000,-1,-1,-1,-1,20,-1,7,-1,-1,-1,-1,,9999,0,0,3,FEW 47   SCT 55   OVC 70,1,9,1,4,1028,ROTM 121256Z 02007KT 9999 FEW047 SCT055 OVC070 09/04 A3036 RMK     SLP269 STNPR30050 WND WRNG T00940044=,
20180112_150000.004,1,ROTM,,,,0,20180112140000,-1,-1,-1,-1,40,-1,6,-1,-1,-1,-1,,-1,0,0,1,FEW 70,1,8,1,3,1028,ROTM 121456Z 04006KT 10SM FEW070 08/03 A3035 RMK AO2 SLP267     T00830033 401390083 50004 $=,
20180112_160000.004,1,ROTM,,,,0,20180112150000,-1,-1,-1,-1,40,-1,9,-1,-1,-1,-1,,-1,0,0,3,FEW 34   SCT 49   OVC 60,1,9,1,6,1028,ROTM 121556Z 04009KT 10SM FEW034 SCT049 OVC060 09/06 A3035 RMK     AO2 SLP266 T00890061 $=,
20180112_170000.004,1,ROTM,,,,0,20180112160000,-1,-1,-1,-1,40,-1,5,-1,-1,-1,-1,,-1,0,0,2,SCT 32   BKN 42,1,8,1,7,1027,ROTM 121656Z 04005KT 10SM SCT032 BKN042 08/07 A3034 RMK AO2     RAB02E46 SLP264 P0005 T00830067 $=,
20180112_180000.004,1,ROTM,,,,0,20180112170000,-1,-1,-1,-1,40,-1,4,-1,-1,-1,-1,,-1,0,0,1,FEW 49,0,-1,0,-1,1027,ROTM 121756Z 04004KT 10SM FEW049 08/ A3033 RMK AO2 SLP263 60005     T0078 10094 20078 58006 $=,
20180112_190000.004,1,ROTM,,,,0,20180112180000,-1,-1,-1,-1,30,-1,6,-1,-1,-1,-1,,-1,0,0,3,FEW 47   BKN 60   BKN 75,0,-1,0,-1,1027,ROTM 121856Z 03006KT 10SM FEW047 BKN060 BKN075 08/ A3034 RMK     AO2 RAB11E26 SLP262 P0000 T0083 $=,
20180112_200000.005,1,ROTM,,,,0,20180112190000,-1,-1,-1,-1,20,-1,7,-1,-1,-1,-1,,-1,0,1,2,FEW 48   OVC 60,0,-1,0,-1,1027,ROTM 121956Z 02007KT 10SM -RA FEW048 OVC060 09/ A3033 RMK AO2     RAB55 SLP259 P0000 T0094 $=,- RA
20180112_210000.004,1,ROTM,,,,0,20180112200000,-1,-1,-1,-1,70,-1,3,-1,-1,-1,-1,,-1,0,0,2,FEW 49   SCT 65,1,9,1,6,1027,ROTM 122056Z 07003KT 10SM FEW049 SCT065 09/06 A3033 RMK AO2     RAE16 SLP262 P0001 60001 T00890061 55000 $=,
20180112_220000.002,1,ROTM,,,,0,20180112210000,-1,-1,-1,-1,50,-1,6,-1,-1,-1,-1,,-1,0,0,1,SCT 49,0,-1,0,-1,1027,ROTM 122156Z 05006KT 10SM SCT049 09/ A3034 RMK AO2 RAB30E42     SLP266 P0000 T0089 $=,
20180112_230000.004,1,ROTM,,,,0,20180112220000,-1,-1,-1,-1,60,-1,3,-1,-1,-1,-1,,-1,0,0,2,FEW 38   FEW 80,0,-1,0,-1,1028,ROTM 122256Z 06003KT 10SM FEW038 FEW080 09/ A3035 RMK AO2     SLP268 T0094 $=,
20180113_000000.004,1,ROTM,,,,1,20180112230000,-1,-1,-1,-1,40,-1,6,-1,-1,-1,-1,,-1,0,0,0,,1,12,1,8,1029,ROTM 122356Z AUTO 04006KT 10SM CLR 12/08 A3038 RMK AO2 SLP278     60001 T01170078 10117 20078 53016 $=,
20180113_020000.002,0,ROTM,,,,1,20180113010000,-1,-1,-1,-1,50,-1,11,-1,-1,-1,-1,,-1,0,0,1,SCT 95,1,13,1,7,1029,ROTM 130156Z AUTO 05011KT 10SM SCT095 13/07 A3039 RMK AO2     SLP280 T01330072 $=,
20180113_040000.004,1,ROTM,,,,1,20180113030000,-1,-1,-1,-1,30,-1,12,-1,-1,-1,-1,,-1,0,0,2,FEW 36   SCT 43,1,15,1,7,1027,ROTM 130356Z AUTO 03012KT 10SM FEW036 SCT043 15/07 A3033 RMK     AO2 SLP260 T01500067 $=,
20180113_050000.004,1,ROTM,,,,1,20180113040000,-1,-1,-1,-1,30,-1,9,-1,-1,-1,-1,,-1,0,0,1,FEW 43,1,16,1,6,1027,ROTM 130456Z AUTO 03009KT 10SM FEW043 16/06 A3034 RMK AO2     SLP263 T01610061 $=,
20180113_060000.004,1,ROTM,,,,1,20180113050000,-1,-1,-1,-1,10,-1,11,-1,-1,-1,-1,,-1,0,0,0,,1,16,1,7,1027,ROTM 130556Z AUTO 01011KT 10SM CLR 16/07 A3032 RMK AO2 SLP257     T01560067 10161 20117 56012 $=,
20180113_080000.004,1,ROTM,,,,1,20180113070000,-1,-1,-1,-1,30,-1,12,-1,-1,-1,-1,,-1,0,0,0,,1,13,1,6,1026,ROTM 130756Z AUTO 03012KT 10SM CLR 13/06 A3031 RMK AO2 SLP254     T01330061 $=,
20180113_090000.004,1,ROTM,,,,1,20180113080000,-1,-1,-1,-1,30,-1,13,-1,-1,-1,-1,,-1,0,0,0,,1,12,1,6,1026,ROTM 130856Z AUTO 03013KT 10SM CLR 12/06 A3031 RMK AO2 SLP255     T01220061 58002 $=,
20180113_100000.004,1,ROTM,,,,1,20180113090000,-1,-1,-1,-1,50,-1,12,-1,-1,-1,-1,,-1,0,0,0,,1,12,1,6,1027,ROTM 130956Z AUTO 05012KT 10SM CLR 12/06 A3032 RMK AO2 SLP258     T01220056 $=,
20180113_110000.002,0,ROTM,,,,1,20180113100000,-1,-1,-1,-1,40,-1,12,-1,-1,-1,-1,,-1,0,0,0,,1,12,1,6,1027,ROTM 131056Z AUTO 04012KT 10SM CLR 12/06 A3034 RMK AO2 SLP262     T01170056 $=,
20180113_120000.004,1,ROTM,,,,1,20180113110000,-1,-1,-1,-1,50,-1,8,-1,-1,-1,-1,,-1,0,0,0,,1,12,1,6,1028,ROTM 131156Z AUTO 05008KT 10SM CLR 12/06 A3035 RMK AO2 SLP265     70006 T01170056 10156 20117 52010 $=,
20180113_130000.004,1,ROTM,,,,1,20180113120000,-1,-1,-1,-1,40,-1,10,-1,-1,-1,-1,,-1,0,0,0,,1,12,1,6,1027,ROTM 131256Z AUTO 04010KT 10SM CLR 12/06 A3034 RMK AO2 SLP264     T01170061 $=,
20180113_140000.005,1,ROTM,,,,1,20180113130000,-1,-1,-1,-1,30,-1,8,-1,-1,-1,-1,,-1,0,0,1,BKN 65,1,12,1,6,1027,ROTM 131356Z AUTO 03008KT 10SM BKN065 12/06 A3034 RMK AO2     SLP263 T01220056 $=,
20180113_150000.004,1,ROTM,,,,1,20180113140000,-1,-1,-1,-1,20,-1,7,-1,-1,-1,-1,,-1,0,0,1,OVC 70,1,12,1,6,1028,ROTM 131456Z AUTO 02007KT 10SM OVC070 12/06 A3035 RMK AO2     SLP267 T01220056 401610078 53003 $=,
20180113_170000.004,1,ROTM,,,,1,20180113160000,-1,-1,-1,-1,40,-1,10,-1,-1,-1,-1,,-1,0,0,1,FEW 70,1,12,1,6,1027,ROTM 131656Z AUTO 04010KT 10SM FEW070 12/06 A3032 RMK AO2     SLP255 T01170056 $=,
20180113_180000.004,1,ROTM,,,,1,20180113170000,-1,-1,-1,-1,30,-1,6,-1,-1,-1,-1,,-1,0,0,1,OVC 70,1,12,1,6,1026,ROTM 131756Z AUTO 03006KT 10SM OVC070 12/06 A3031 RMK AO2     SLP253 T01220056 10122 20111 56014 $=,
20180113_190000.005,1,ROTM,,,,1,20180113180000,-1,-1,-1,-1,20,-1,8,-1,-1,-1,-1,,-1,0,0,1,BKN 65,1,12,1,5,1026,ROTM 131856Z AUTO 02008KT 10SM BKN065 12/05 A3030 RMK AO2     SLP250 T01170050 $=,
20180113_200000.005,1,ROTM,,,,1,20180113190000,-1,-1,-1,-1,20,-1,6,-1,-1,-1,-1,,-1,0,0,1,SCT 60,1,12,1,7,1026,ROTM 131956Z AUTO 02006KT 10SM SCT060 12/07 A3030 RMK AO2     SLP250 T01220072 $=,
20180113_210000.004,1,ROTM,,,,1,20180113200000,-1,-1,-1,-1,40,-1,8,-1,-1,-1,-1,,-1,0,0,0,,1,12,1,8,1026,ROTM 132056Z AUTO 04008KT 10SM CLR 12/08 A3030 RMK AO2 SLP249     T01170078 56004 $=,
20180113_220000.004,1,ROTM,,,,1,20180113210000,-1,-1,-1,-1,50,-1,8,-1,-1,-1,-1,,-1,0,0,0,,1,12,1,8,1026,ROTM 132156Z AUTO 05008KT 10SM CLR 12/08 A3030 RMK AO2 SLP251     T01170083 $=,
20180113_230000.004,1,ROTM,,,,1,20180113220000,-1,-1,-1,-1,40,-1,5,-1,-1,-1,-1,,-1,0,0,0,,1,12,1,9,1026,ROTM 132256Z AUTO 04005KT 10SM CLR 12/09 A3031 RMK AO2 SLP252     T01170094 $=,
20180114_000000.005,1,ROTM,,,,1,20180113230000,-1,-1,-1,-1,30,-1,6,-1,-1,-1,-1,,-1,0,0,1,FEW 47,1,14,1,9,1027,ROTM 132356Z AUTO 03006KT 10SM FEW047 14/09 A3032 RMK AO2     SLP254 T01390094 10139 20111 53006 $=,
20180114_010000.004,1,ROTM,,,,1,20180114000000,-1,-1,-1,-1,60,-1,13,-1,-1,-1,-1,,-1,0,0,0,,1,17,1,8,1026,ROTM 140056Z AUTO 06013KT 10SM CLR 17/08 A3031 RMK AO2 SLP254     T01670083 $=,
20180114_020000.004,1,ROTM,,,,1,20180114010000,-1,-1,-1,-1,80,-1,13,-1,19,-1,-1,,-1,0,0,0,,1,18,1,6,1026,ROTM 140156Z AUTO 08013G19KT 10SM CLR 18/06 A3029 RMK AO2     SLP245 T01830061 $=,
20180114_030000.004,1,ROTM,,,,1,20180114020000,-1,-1,-1,-1,70,-1,16,-1,21,-1,-1,,-1,0,0,2,FEW 43   FEW 55,1,18,1,8,1025,ROTM 140256Z AUTO 07016G21KT 10SM FEW043 FEW055 18/08 A3026 RMK     AO2 SLP236 T01780078 58018 $=,
20180114_050000.004,1,ROTM,,,,1,20180114040000,-1,-1,-1,-1,70,-1,13,-1,19,-1,-1,,-1,0,0,3,FEW 38   SCT 46   OVC 90,1,18,1,9,1023,ROTM 140456Z AUTO 07013G19KT 10SM FEW038 SCT046 OVC090 18/09     A3022 RMK AO2 SLP222 T01780089 $=,
20180114_070000.004,1,ROTM,,,,1,20180114060000,-1,-1,-1,-1,80,-1,14,-1,21,-1,-1,,-1,0,0,2,FEW 38   OVC 95,1,18,1,9,1022,ROTM 140656Z AUTO 08014G21KT 10SM FEW038 OVC095 18/09 A3019 RMK     AO2 SLP213 T01780094 $=,
20180114_090000.004,1,ROTM,,,,1,20180114080000,-1,-1,-1,-1,70,-1,12,-1,-1,-1,-1,,-1,0,0,0,,1,17,1,9,1023,ROTM 140856Z AUTO 07012KT 10SM CLR 17/09 A3021 RMK AO2 SLP219     T01670094 53002 $=,
20180114_100000.004,1,ROTM,,,,1,20180114090000,-1,-1,-1,-1,80,-1,11,-1,-1,-1,-1,,-1,0,0,1,FEW 37,1,17,1,9,1023,ROTM 140956Z AUTO 08011KT 10SM FEW037 17/09 A3022 RMK AO2     SLP222 T01670094 $=,
20180114_110000.004,1,ROTM,,,,1,20180114100000,-1,-1,-1,-1,80,-1,9,-1,-1,-1,-1,,-1,0,0,0,,1,16,1,9,1024,ROTM 141056Z AUTO 08009KT 10SM CLR 16/09 A3023 RMK AO2 SLP225     T01610089 $=,
20180114_120000.004,1,ROTM,,,,1,20180114110000,-1,-1,-1,-1,80,-1,9,-1,-1,-1,-1,,-1,0,0,1,FEW 85,1,17,1,9,1024,ROTM 141156Z AUTO 08009KT 10SM FEW085 17/09 A3024 RMK AO2     SLP226 T01670094 10183 20161 52008 $=,
20180114_150000.002,0,ROTM,,,,1,20180114140000,-1,-1,-1,-1,90,-1,10,-1,-1,-1,-1,,-1,0,0,1,FEW 37,1,17,1,9,1023,ROTM 141456Z AUTO 09010KT 10SM FEW037 17/09 A3021 RMK AO2     SLP219 T01670094 401830111 58007 $=,
20180114_170000.004,1,ROTM,,,,1,20180114160000,-1,-1,-1,-1,80,-1,8,-1,-1,-1,-1,,-1,0,0,0,,1,17,1,9,1023,ROTM 141656Z AUTO 08008KT 10SM CLR 17/09 A3020 RMK AO2 SLP214     T01670094 $=,
20180114_180000.005,1,ROTM,,,,1,20180114170000,-1,-1,-1,-1,80,-1,5,-1,-1,-1,-1,,-1,0,0,0,,1,16,1,10,1022,ROTM 141756Z AUTO 08005KT 10SM CLR 16/10 A3019 RMK AO2 SLP210     T01610100 10172 20156 58009 $=,
20180114_190000.004,1,ROTM,,,,1,20180114180000,-1,-1,-1,-1,70,-1,4,-1,-1,-1,-1,,-1,0,0,1,FEW 90,1,15,1,10,1022,ROTM 141856Z AUTO 07004KT 10SM FEW090 15/10 A3018 RMK AO2     SLP207 T01500100 $=,
20180114_200000.005,1,ROTM,,,,1,20180114190000,-1,-1,-1,-1,70,-1,7,-1,-1,-1,-1,,-1,0,0,0,,1,15,1,12,1021,ROTM 141956Z AUTO 07007KT 10SM CLR 15/12 A3016 RMK AO2 SLP200     T01500117 $=,
20180114_210000.004,1,ROTM,,,,1,20180114200000,-1,-1,-1,-1,60,-1,6,-1,-1,-1,-1,,-1,0,0,0,,0,-1,0,-1,1022,ROTM 142056Z AUTO 06006KT 10SM CLR 15/ A3017 RMK AO2 SLP203     T0150 55007 $=,
20180114_220000.004,1,ROTM,,,,1,20180114210000,-1,-1,-1,-1,70,-1,9,-1,-1,-1,-1,,-1,0,0,0,,1,16,1,11,1022,ROTM 142156Z AUTO 07009KT 10SM CLR 16/11 A3017 RMK AO2 SLP205     T01610111 $=,
20180114_230000.004,1,ROTM,,,,1,20180114220000,-1,-1,-1,-1,60,-1,8,-1,-1,-1,-1,,-1,0,0,0,,1,17,1,11,1023,ROTM 142256Z AUTO 06008KT 10SM CLR 17/11 A3020 RMK AO2 SLP213     T01670106 $=,
20180115_000000.004,1,ROTM,,,,1,20180114230000,-1,-1,-1,-1,70,-1,9,-1,-1,-1,-1,,-1,0,0,0,,1,18,1,11,1023,ROTM 142356Z AUTO 07009KT 10SM CLR 18/11 A3021 RMK AO2 SLP219     T01780111 10178 20133 53016 $=,
20180115_010000.004,1,ROTM,,,,1,20180115000000,-1,-1,-1,-1,60,-1,13,-1,-1,-1,-1,,-1,0,0,1,FEW 37,1,19,1,13,1024,ROTM 150056Z AUTO 06013KT 10SM FEW037 19/13 A3023 RMK AO2     SLP223 T01940128 $=,
20180115_020000.004,1,ROTM,,,,1,20180115010000,-1,-1,-1,-1,80,-1,14,-1,20,-1,-1,,-1,0,0,1,FEW 36,1,20,1,12,1023,ROTM 150156Z AUTO 08014G20KT 10SM FEW036 20/12 A3022 RMK AO2     SLP220 T02000122 $=,
20180115_030000.002,0,ROTM,,,,1,20180115020000,-1,-1,-1,-1,80,-1,13,-1,-1,-1,-1,,-1,0,0,0,,1,20,1,12,1022,ROTM 150256Z AUTO 08013KT 10SM CLR 20/12 A3018 RMK AO2 SLP207     T02000117 58012 $=,
20180115_040000.004,1,ROTM,,,,1,20180115030000,-1,-1,-1,-1,70,-1,12,-1,20,-1,-1,,-1,0,0,1,FEW 34,1,21,1,13,1021,ROTM 150356Z AUTO 07012G20KT 10SM FEW034 21/13 A3015 RMK AO2     SLP197 T02060128 $=,
20180115_050000.004,1,ROTM,,,,1,20180115040000,-1,-1,-1,-1,80,-1,15,-1,20,-1,-1,,-1,0,0,0,,1,21,1,13,1020,ROTM 150456Z AUTO 08015G20KT 10SM CLR 21/13 A3013 RMK AO2     SLP190 T02060128 $=,
20180115_060000.004,1,ROTM,,,,1,20180115050000,-1,-1,-1,-1,70,-1,18,-1,23,-1,-1,,-1,0,0,2,FEW 30   FEW 38,1,21,1,13,1020,ROTM 150556Z AUTO 07018G23KT 10SM FEW030 FEW038 21/13 A3012 RMK     AO2 SLP185 T02060128 10211 20178 56021 $=,
20180115_070000.003,0,ROTM,,,,1,20180115060000,-1,-1,-1,-1,90,-1,10,-1,21,-1,-1,,-1,0,0,2,FEW 33   SCT 41,1,19,1,12,1020,ROTM 150656Z AUTO 09010G21KT 10SM FEW033 SCT041 19/12 A3012 RMK     AO2 SLP188 T01940122 $=,
20180115_080000.004,1,ROTM,,,,1,20180115070000,-1,-1,-1,-1,90,-1,12,-1,-1,-1,-1,,-1,0,0,1,SCT 36,1,19,1,12,1020,ROTM 150756Z AUTO 09012KT 10SM SCT036 19/12 A3013 RMK AO2     SLP189 T01940122 $=,
20180115_090000.004,1,ROTM,,,,1,20180115080000,-1,-1,-1,-1,90,-1,11,-1,16,-1,-1,,-1,0,0,1,FEW 35,1,19,1,12,1020,ROTM 150856Z AUTO 09011G16KT 10SM FEW035 19/12 A3013 RMK AO2     SLP191 T01890122 53004 $=,
20180115_100000.004,1,ROTM,,,,1,20180115090000,-1,-1,-1,-1,90,-1,13,-1,21,-1,-1,,-1,0,0,1,FEW 35,1,19,1,13,1021,ROTM 150956Z AUTO 09013G21KT 10SM FEW035 19/13 A3014 RMK AO2     SLP193 T01890128 $=,
20180115_110000.004,1,ROTM,,,,1,20180115100000,-1,-1,-1,-1,90,-1,11,-1,-1,-1,-1,,-1,0,0,1,FEW 32,1,19,1,13,1021,ROTM 151056Z AUTO 09011KT 10SM FEW032 19/13 A3015 RMK AO2     SLP196 T01890133 $=,
20180115_120000.004,1,ROTM,,,,1,20180115110000,-1,-1,-1,-1,110,-1,12,-1,-1,-1,-1,,-1,0,0,1,FEW 34,1,19,1,12,1021,ROTM 151156Z AUTO 11012KT 10SM FEW034 19/12 A3016 RMK AO2     SLP200 T01890122 10206 20189 53010 $=,
20180115_130000.004,1,ROTM,,,,1,20180115120000,-1,-1,-1,-1,100,-1,10,-1,-1,-1,-1,,-1,0,0,1,FEW 34,1,19,1,13,1021,ROTM 151256Z AUTO 10010KT 10SM FEW034 19/13 A3016 RMK AO2     SLP201 T01890128 $=,
20180115_140000.004,1,ROTM,,,,1,20180115130000,-1,-1,-1,-1,100,-1,10,-1,17,-1,-1,,-1,0,0,3,FEW 35   FEW 46   BKN 70,1,19,1,13,1021,ROTM 151356Z AUTO 10010G17KT 10SM FEW035 FEW046 BKN070 19/13     A3016 RMK AO2 SLP199 T01940133 $=,
20180115_150000.004,1,ROTM,,,,1,20180115140000,-1,-1,-1,-1,100,-1,11,-1,-1,-1,-1,,-1,0,0,1,FEW 35,1,19,1,13,1021,ROTM 151456Z AUTO 10011KT 10SM FEW035 19/13 A3016 RMK AO2     SLP198 T01940128 402110133 58002 $=,
20180115_160000.004,1,ROTM,,,,1,20180115150000,-1,-1,-1,-1,120,-1,10,-1,-1,-1,-1,,-1,0,0,1,FEW 31,1,19,1,13,1021,ROTM 151556Z AUTO 12010KT 10SM FEW031 19/13 A3015 RMK AO2     SLP195 T01890128 $=,
20180115_170000.004,1,ROTM,,,,1,20180115160000,-1,-1,-1,-1,110,-1,7,-1,-1,-1,-1,,-1,0,1,3,SCT 33   BKN 55   BKN 75,1,19,1,14,1021,ROTM 151656Z AUTO 11007KT 10SM -RA SCT033 BKN055 BKN075 19/14     A3014 RMK AO2 RAB53 SLP192 P0000 T01890139 $=,- RA
20180115_180000.002,0,ROTM,,,,1,20180115170000,-1,-1,-1,-1,110,-1,12,-1,-1,-1,-1,,-1,0,0,3,FEW 36   FEW 46   BKN 80,1,19,1,13,1020,ROTM 151756Z AUTO 11012KT 10SM FEW036 FEW046 BKN080 19/13 A3012     RMK AO2 RAE06 SLP186 P0000 60000 T01890128 10194 20189           58013 $=,
20180115_200000.004,1,ROTM,,,,1,20180115190000,-1,-1,-1,-1,100,-1,10,-1,-1,-1,-1,,-1,0,0,3,SCT 32   SCT 42   BKN 50,1,19,1,13,1019,ROTM 151956Z AUTO 10010KT 10SM SCT032 SCT042 BKN050 19/13 A3009     RMK AO2 SLP176 T01890128 $=,
20180115_210000.004,1,ROTM,,,,1,20180115200000,-1,-1,-1,-1,110,-1,13,-1,-1,-1,-1,,-1,0,0,1,SCT 37,1,19,1,12,1019,ROTM 152056Z AUTO 11013KT 10SM SCT037 19/12 A3009 RMK AO2     SLP177 T01890122 55008 $=,
20180115_230000.004,1,ROTM,,,,1,20180115220000,-1,-1,-1,-1,110,-1,14,-1,22,-1,-1,,-1,0,0,2,FEW 37   SCT 46,1,19,1,12,1019,ROTM 152256Z AUTO 11014G22KT 10SM FEW037 SCT046 19/12 A3010 RMK     AO2 SLP180 T01890122 $=,
20180116_000000.004,1,ROTM,,,,1,20180115230000,-1,-1,-1,-1,120,-1,16,-1,22,-1,-1,,-1,0,0,2,SCT 45   BKN 50,1,19,1,12,1020,ROTM 152356Z AUTO 12016G22KT 10SM SCT045 BKN050 19/12 A3011 RMK     AO2 SLP181 T01940117 10194 20183 51004 $=,
20180116_010000.002,0,ROTM,,,,1,20180116000000,-1,-1,-1,-1,120,-1,10,-1,21,-1,-1,,-1,0,0,0,,1,21,1,12,1020,ROTM 160056Z AUTO 12010G21KT 10SM CLR 21/12 A3012 RMK AO2     SLP187 T02060117 $=,
20180116_020000.004,1,ROTM,,,,1,20180116010000,-1,-1,-1,-1,110,-1,14,-1,24,-1,-1,,-1,0,0,1,FEW 40,1,21,1,13,1019,ROTM 160156Z AUTO 11014G24KT 10SM FEW040 21/13 A3010 RMK AO2     SLP181 T02110128 $=,
20180116_050000.002,0,ROTM,,,,1,20180116040000,-1,-1,-1,-1,130,-1,17,-1,24,-1,-1,,-1,0,0,1,FEW 36,1,22,1,13,1017,ROTM 160456Z AUTO 13017G24KT 10SM FEW036 22/13 A3002 RMK AO2     SLP152 T02170133 $=,
20180116_060000.004,1,ROTM,,,,1,20180116050000,-1,-1,-1,-1,120,-1,14,-1,23,-1,-1,,-1,0,0,1,FEW 36,1,22,1,14,1016,ROTM 160556Z AUTO 12014G23KT 10SM FEW036 22/14 A3000 RMK AO2     SLP144 T02170139 10222 20194 56029 $=,
20180116_070000.004,1,ROTM,,,,1,20180116060000,-1,-1,-1,-1,140,-1,14,-1,23,-1,-1,,-1,0,0,1,FEW 41,1,22,1,13,1016,ROTM 160656Z AUTO 14014G23KT 10SM FEW041 22/13 A2999 RMK AO2     SLP141 T02220133 $=,
20180116_080000.002,0,ROTM,,,,1,20180116070000,-1,-1,-1,-1,130,-1,12,-1,23,-1,-1,,-1,0,0,2,FEW 33   SCT 44,1,21,1,14,1016,ROTM 160756Z AUTO 13012G23KT 10SM FEW033 SCT044 21/14 A2999 RMK     AO2 SLP141 T02110144 $=,
20180116_100000.004,1,ROTM,,,,1,20180116090000,-1,-1,-1,-1,150,-1,8,-1,-1,-1,-1,,-1,0,0,1,SCT 110,1,21,1,14,1016,ROTM 160956Z AUTO 15008KT 10SM SCT110 21/14 A3000 RMK AO2     SLP145 T02060144 $=,
20180116_110000.006,1,ROTM,,,,1,20180116100000,-1,-1,-1,-1,150,-1,8,-1,-1,-1,-1,,-1,0,0,2,FEW 33   SCT 42,1,21,1,15,1016,ROTM 161056Z AUTO 15008KT 10SM FEW033 SCT042 21/15 A3001 RMK     AO2 SLP148 T02060150 $=,
20180116_160000.004,1,ROTM,,,,1,20180116150000,-1,-1,-1,-1,170,-1,7,-1,-1,-1,-1,,-1,0,0,1,BKN 110,1,21,1,17,1015,ROTM 161556Z AUTO 17007KT 10SM BKN110 21/17 A2997 RMK AO2     SLP135 T02060167 $=,
20180116_170000.004,1,ROTM,,,,1,20180116160000,-1,-1,-1,-1,170,-1,6,-1,-1,-1,-1,,-1,0,0,3,SCT 30   BKN 50   OVC 90,1,21,1,17,1015,ROTM 161656Z AUTO 17006KT 10SM SCT030 BKN050 OVC090 21/17 A2997     RMK AO2 SLP134 T02110167 $=,
20180116_190000.004,1,ROTM,,,,1,20180116180000,-1,-1,-1,-1,150,-1,5,-1,-1,-1,-1,,-1,0,0,3,FEW 33   BKN 43   OVC 50,0,-1,0,-1,1015,ROTM 161856Z AUTO 15005KT 10SM FEW033 BKN043 OVC050 19/ A2996     RMK AO2 RAE16 SLP132 P0000 T0194 $=,
20180116_200000.004,1,ROTM,,,,0,20180116190000,-1,-1,-1,-1,170,-1,8,-1,-1,-1,-1,,9999,0,0,1,OVC 100,1,20,1,18,1014,ROTM 161956Z 17008KT 9999 OVC100 20/18 A2995 RMK SLP128     STNPR29650 T02000183=,
20180116_210000.002,0,ROTM,,,,0,20180116200000,-1,-1,-1,-1,180,-1,6,-1,-1,-1,-1,,-1,0,0,1,OVC 70,1,20,1,17,1015,ROTM 162056Z 18006KT 10SM OVC070 20/17 A2996 RMK AO2 SLP131     STNPR29655 60000 T02000167 55003 $=,
20180116_220000.004,1,ROTM,,,,0,20180116210000,-1,-1,-1,-1,180,-1,5,-1,-1,-1,-1,,-1,0,0,1,OVC 70,1,20,1,17,1015,ROTM 162156Z 18005KT 10SM OVC070 20/17 A2998 RMK AO2 SLP137     STNPR29675 T02000172 $=,
20180116_230000.004,1,ROTM,,,,0,20180116220000,-1,-1,-1,-1,210,-1,3,-1,-1,-1,-1,,-1,0,1,1,OVC 55,1,20,1,19,1016,ROTM 162256Z 21003KT 10SM -RA OVC055 20/19 A2999 RMK AO2 RAB55     SLP142 STNPR29685 P0000 T02000183 $=,- RA
20180117_000000.005,1,ROTM,,,,0,20180116220000,-1,-1,-1,-1,210,-1,3,-1,-1,-1,-1,,-1,0,2,1,OVC 55,1,20,1,19,1016,ROTM 162256Z 21003KT 4SM -RA BR OVC055 20/19 A2999 RMK     RAB55 SLP142 STNPR29685 P0000 T02000183=,- RA; BR
20180117_000000.005,1,ROTM,,,,0,20180116230000,-1,-1,-1,-1,190,-1,9,-1,-1,-1,-1,,-1,0,2,2,BKN 20   OVC 50,1,20,1,19,1016,METAR ROTM 162356Z 19009KT 4SM -RA BR BKN020 OVC050 20/19 A3001 RMK           AO2 RAE04B47 SLP148 STNPR29710 T02000189 10206 20189 53017,- RA; BR
20180117_010000.004,1,ROTM,,,,0,20180117000000,-1,-1,-1,-1,0,-1,0,-1,-1,-1,-1,,-1,0,2,2,BKN 20   OVC 60,1,18,1,17,1016,ROTM 170056Z 00000KT 4SM -RA BR BKN020 OVC060 18/17 A3001 RMK     AO2 RAE10B50 SLP150 STNPR29715 P0001 T01830172 $=,- RA; BR
20180117_020000.004,0,ROTM,,,,0,20180117010000,-1,-1,-1,-1,340,-1,6,-1,-1,-1,-1,,-1,0,2,2,BKN 20   OVC 60,1,19,1,18,1017,ROTM 170156Z 34006KT 2SM -RA BR BKN020 OVC060 19/18 A3004 RMK     AO2 SFC VIS 4 SLP158 STNPR29715 P0001 T01940183 $=,- RA; BR
20180117_030000.005,1,ROTM,,,,0,20180117020000,-1,-1,-1,-1,350,-1,9,-1,-1,-1,-1,,-1,0,2,2,BKN 20   OVC 60,1,19,1,19,1017,ROTM 170256Z 35009KT 2SM -RA BR BKN020 OVC060 19/19 A3003 RMK     AO2 SFC VIS 5 SLP155 STNPR29730 P0001 60002 T01940194           50007 $=,- RA; BR
20180117_040000.005,1,ROTM,,,,0,20180117030000,-1,-1,-1,-1,340,-1,9,-1,-1,-1,-1,,-1,0,2,2,BKN 20   OVC 55,1,18,1,18,1017,ROTM 170356Z 34009KT 2SM -RA BR BKN020 OVC055 18/18 A3002 RMK     AO2 SFC VIS 3 SLP151 STNPR29725 P0008 T01830178 $=,- RA; BR
20180117_050000.008,1,ROTM,,,,0,20180117040000,-1,-1,-1,-1,300,-1,8,-1,-1,-1,-1,,3200,0,2,2,BKN 8   OVC 55,1,18,1,18,1016,ROTM 170456Z 30008KT 3200 -RA BR BKN008 OVC055 18/18 A3001     RMK SFC VIS 7 SLP152 STNPR29710 P0004 T01830178=,- RA; BR
20180117_060000.004,1,ROTM,,,,0,20180117050000,-1,-1,-1,-1,340,-1,10,-1,-1,-1,-1,,-1,0,2,3,SCT 4   BKN 6   OVC 20,0,-1,0,-1,1016,ROTM 170556Z 34010KT 2SM -RA BR SCT004 BKN006 OVC020 18/ A3000     RMK AO2 SFC VIS 8 SLP145 P0005 60020 T0183 10206 20183           56010 $=,- RA; BR
20180117_060000.006,1,ROTM,,,,0,20180117050000,-1,-1,-1,-1,340,-1,10,-1,-1,-1,-1,,3200,0,2,3,SCT 4   BKN 6   OVC 20,1,18,1,18,1016,ROTM 170556Z 34010KT 3200 -RA BR SCT004 BKN006 OVC020 18/18     A3000 RMK SFC VIS 8 SLP145 STNPR29700 P0005 60020           T01830183 10206 20183 56010=,- RA; BR
20180117_070000.005,1,ROTM,,,,0,20180117060000,-1,-1,-1,-1,0,-1,0,-1,-1,-1,-1,,-1,0,2,3,FEW 5   SCT 10   OVC 17,1,18,1,18,1016,METAR ROTM 170656Z 00000KT 2SM -RA BR FEW005 SCT010 OVC017 18/18           A3000 RMK AO2 SFC VIS 6 SLP146 STNPR29700 P0001 T01830183,- RA; BR
20180117_070000.006,1,ROTM,,,,0,20180117060000,-1,-1,-1,-1,0,-1,0,-1,-1,-1,-1,,8000,0,2,3,FEW 5   SCT 10   OVC 17,1,18,1,18,1016,ROTM 170656Z 00000KT 8000 -RA BR FEW005 SCT010 OVC017 18/18     A3000 RMK SFC VIS 8 SLP145 STNPR29700 P0001 T01830183=,- RA; BR
20180117_090000.005,1,ROTM,,,,0,20180117070000,-1,-1,-1,-1,999,-1,4,-1,-1,-1,-1,,8000,0,2,2,SCT 35   OVC 45,1,18,1,18,1016,ROTM 170756Z VRB04KT 8000 -RA BR SCT035 OVC045 18/18 A3000 RMK     SLP145 STNPR29700 P0000 T01830183=,- RA; BR
20180117_090000.005,1,ROTM,,,,0,20180117080000,-1,-1,-1,-1,999,-1,5,-1,-1,-1,-1,,8000,0,2,2,SCT 35   OVC 45,1,19,1,18,1017,ROTM 170856Z VRB05KT 8000 -RA BR SCT035 OVC045 19/18 A3003     RMK SLP155 STNPR29720 P0000 T01890183 53005=,- RA; BR
20180117_090000.005,1,ROTM,,,,0,20180117080000,-1,-1,-1,-1,999,-1,5,-1,-1,-1,-1,,8000,0,2,2,SCT 35   OVC 45,1,19,1,18,1017,ROTM 170856Z VRB05KT 8000 -RA BR SCT035 OVC045 19/18 A3003 RMK     SLP155 STNPR29720 P0000 T01890183=,- RA; BR
20180117_100000.004,1,ROTM,,,,0,20180117090000,-1,-1,-1,-1,10,-1,5,-1,-1,-1,-1,,-1,0,2,2,SCT 35   OVC 45,1,19,1,18,1017,ROTM 170956Z 01005KT 2SM -RA BR SCT035 OVC045 19/18 A3004 RMK     AO2 SFC VIS 5 SLP158 STNPR29735 P0002 T01890183 $=,- RA; BR
20180117_100000.006,1,ROTM,,,,0,20180117090000,-1,-1,-1,-1,10,-1,5,-1,-1,-1,-1,,-1,0,2,2,SCT 35   OVC 45,1,19,1,18,1017,ROTM 170956Z 01005KT 5SM -RA BR SCT035 OVC045 19/18 A3004     RMK SLP158 STNPR29735 P0002 T01890183=,- RA; BR
20180117_110000.005,1,ROTM,,,,0,20180117100000,-1,-1,-1,-1,30,-1,4,-1,-1,-1,-1,,-1,0,2,3,SCT 6   BKN 15   OVC 35,1,18,1,17,1018,METAR ROTM 171056Z 03004KT 2SM -RA BR SCT006 BKN015 OVC035 18/17           A3006 RMK AO2 SFC VIS 10 SLP165 STNPR29760 P0000 T01830172,- RA; BR
20180117_110000.005,1,ROTM,,,,0,20180117100000,-1,-1,-1,-1,30,-1,4,-1,-1,-1,-1,,-1,0,2,3,SCT 6   BKN 15   OVC 35,1,18,1,17,1018,ROTM 171056Z 03004KT 6SM -RA BR SCT006 BKN015 OVC035 18/17     A3006 RMK SLP165 STNPR29760 P0000 T01830172=,- RA; BR
20180117_120000.005,1,ROTM,,,,0,20180117110000,-1,-1,-1,-1,40,-1,6,-1,-1,-1,-1,,-1,0,0,1,OVC 25,1,18,1,18,1018,ROTM 171156Z 04006KT 2SM OVC025 18/18 A3006 RMK AO2 SFC VIS 10     RAE55 SLP167 STNPR29765 P0000 60003 70026 T01830183 10189           20178 51017 $=,
20180117_120000.006,1,ROTM,,,,0,20180117110000,-1,-1,-1,-1,40,-1,6,-1,-1,-1,-1,,-1,0,0,3,FEW 6   BKN 25   OVC 35,1,18,1,18,1018,ROTM 171156Z 04006KT 10SM FEW006 BKN025 OVC035 18/18 A3006     RMK RAE55 SLP167 STNPR29765 P0000 60003 70026 T01830183           10189 20178 51017=,
20180117_130000.005,1,ROTM,,,,0,20180117120000,-1,-1,-1,-1,40,-1,7,-1,-1,-1,-1,,-1,0,0,2,SCT 11   OVC 25,1,18,1,18,1018,ROTM 171256Z 04007KT 10SM SCT011 OVC025 18/18 A3007 RMK SLP170     STNPR29770 T01780178=,
20180117_140000.002,0,ROTM,,,,0,20180117130000,-1,-1,-1,-1,50,-1,6,-1,-1,-1,-1,,-1,0,0,3,SCT 11   BKN 20   OVC 30,1,18,1,17,1019,ROTM 171356Z 05006KT 10SM SCT011 BKN020 OVC030 18/17 A3008     RMK SLP171 STNPR29775 T01780172=,
20180117_140000.004,1,ROTM,,,,0,20180117130000,-1,-1,-1,-1,50,-1,6,-1,-1,-1,-1,,-1,0,0,3,SCT 11   BKN 20   OVC 30,1,18,1,17,1019,ROTM 171356Z 05006KT 2SM SCT011 BKN020 OVC030 18/17 A3008 RMK     AO2 SFC VIS 10 SLP171 STNPR29775 T01780172 $=,
20180117_150000.004,1,ROTM,,,,1,20180117140000,-1,-1,-1,-1,70,-1,5,-1,-1,-1,-1,,-1,0,0,1,OVC 23,0,-1,0,-1,1019,ROTM 171456Z AUTO 07005KT 2SM OVC023 18/ A3008 RMK AO2 SFC VIS     10 SLP172 T0178 402110089 53002 $=,
20180117_160000.004,1,ROTM,,,,1,20180117150000,-1,-1,-1,-1,60,-1,5,-1,-1,-1,-1,,-1,0,0,1,OVC 25,0,-1,0,-1,1018,ROTM 171556Z AUTO 06005KT 2SM OVC025 18/ A3007 RMK AO2 SFC VIS     10 SLP171 T0178 $=,
20180117_180000.004,1,ROTM,,,,1,20180117170000,-1,-1,-1,-1,50,-1,5,-1,-1,-1,-1,,-1,0,0,2,FEW 33   SCT 100,0,-1,0,-1,1018,ROTM 171756Z AUTO 05005KT 2SM FEW033 SCT100 17/ A3005 RMK AO2     SFC VIS 10 SLP164 T0172 10183 20172 58009 $=,
20180117_190000.001,0,ROTM,,,,1,20180117180000,-1,-1,-1,-1,60,-1,4,-1,-1,-1,-1,,-1,0,0,1,OVC 30,0,-1,0,-1,1018,ROTM 171856Z AUTO 06004KT 2SM OVC030 18/ A3005 RMK AO2 SFC VIS     10 SLP164 T0178 $=,
20180117_200000.004,1,ROTM,,,,0,20180117190000,-1,-1,-1,-1,70,-1,9,-1,-1,-1,-1,,-1,0,0,1,OVC 30,1,18,1,16,1018,ROTM 171956Z 07009KT 10SM OVC030 18/16 A3005 RMK AO2 SLP163     STNPR29750 T01780161 $=,
20180117_210000.002,0,ROTM,,,,0,20180117200000,-1,-1,-1,-1,70,-1,10,-1,-1,-1,-1,,-1,0,0,1,BKN 30,1,18,1,16,1018,ROTM 172056Z 07010KT 10SM BKN030 18/16 A3007 RMK AO2 SLP168     STNPR29760 T01780156 53005 $=,
20180117_220000.005,1,ROTM,,,,0,20180117210000,-1,-1,-1,-1,80,-1,9,-1,-1,-1,-1,,-1,0,0,1,BKN 30,1,19,1,18,1018,ROTM 172156Z 08009KT 10SM BKN030 19/18 A3007 RMK AO2 SLP171     STNPR29765 T01890183 $=,
20180117_230000.002,0,ROTM,,,,0,20180117220000,-1,-1,-1,-1,80,-1,10,-1,-1,-1,-1,,-1,0,0,2,BKN 30   BKN 50,1,18,1,16,1019,ROTM 172256Z 08010KT 10SM BKN030 BKN050 18/16 A3009 RMK AO2     SLP175 STNPR29785 T01830156 $=,
20180118_000000.004,1,ROTM,,,,0,20180117230000,-1,-1,-1,-1,60,-1,8,-1,-1,-1,-1,,-1,0,0,2,BKN 30   OVC 60,1,18,1,16,1020,ROTM 172356Z 06008KT 10SM BKN030 OVC060 18/16 A3011 RMK AO2     SLP183 STNPR29790 T01830156 10189 20172 53015 $=,
20180118_010000.004,1,ROTM,,,,0,20180118000000,-1,-1,-1,-1,40,-1,8,-1,-1,-1,-1,,-1,0,0,2,BKN 30   OVC 60,1,19,1,16,1020,ROTM 180056Z 04008KT 10SM BKN030 OVC060 19/16 A3013 RMK AO2     SLP191 STNPR29810 T01890161 $=,
20180118_020000.004,1,ROTM,,,,0,20180118010000,-1,-1,-1,-1,30,-1,6,-1,-1,-1,-1,,-1,0,0,2,FEW 15   OVC 40,1,20,1,17,1021,ROTM 180156Z 03006KT 10SM FEW015 OVC040 20/17 A3014 RMK AO2     SLP192 T02000167 $=,
20180118_030000.003,0,ROTM,,,,0,20180118020000,-1,-1,-1,-1,50,-1,10,-1,-1,-1,-1,,-1,0,0,2,SCT 15   OVC 40,1,20,1,17,1020,ROTM 180256Z 05010KT 10SM SCT015 OVC040 20/17 A3011 RMK AO2     SLP182 STNPR29810 T02000167 58001 $=,
20180118_040000.004,1,ROTM,,,,0,20180118030000,-1,-1,-1,-1,50,-1,9,-1,-1,-1,-1,,-1,0,0,3,SCT 15   BKN 30   OVC 60,1,21,1,18,1019,ROTM 180356Z 05009KT 10SM SCT015 BKN030 OVC060 21/18 A3008 RMK     AO2 SLP172 STNPR29800 T02060178 $=,
20180118_050000.004,1,ROTM,,,,0,20180118040000,-1,-1,-1,-1,60,-1,10,-1,-1,-1,-1,,-1,0,0,2,SCT 17   SCT 46,1,21,1,17,1018,ROTM 180456Z 06010KT 10SM SCT017 SCT046 21/17 A3007 RMK AO2     SLP168 STNPR29760 T02110167 $=,
20180118_060000.004,1,ROTM,,,,0,20180118050000,-1,-1,-1,-1,70,-1,9,-1,-1,-1,-1,,-1,0,0,1,SCT 17,1,21,1,17,1018,ROTM 180556Z 07009KT 10SM SCT017 21/17 A3005 RMK AO2 SLP163     STNPR29750 T02110172 10222 20189 56018 $=,
20180118_070000.002,0,ROTM,,,,0,20180118060000,-1,-1,-1,-1,70,-1,8,-1,-1,-1,-1,,-1,0,0,2,SCT 17   SCT 50,1,21,1,17,1018,ROTM 180656Z 07008KT 10SM SCT017 SCT050 21/17 A3006 RMK AO2     SLP164 STNPR29750 T02110172 $=,
20180118_080000.004,1,ROTM,,,,0,20180118070000,-1,-1,-1,-1,70,-1,8,-1,-1,-1,-1,,-1,0,0,2,SCT 17   SCT 50,1,20,1,17,1018,ROTM 180756Z 07008KT 10SM SCT017 SCT050 20/17 A3007 RMK AO2     SLP168 STNPR29760 T02000167 $=,
20180118_090000.002,0,ROTM,,,,0,20180118080000,-1,-1,-1,-1,70,-1,7,-1,-1,-1,-1,,-1,0,0,2,SCT 19   SCT 45,1,19,1,17,1019,ROTM 180856Z 07007KT 10SM SCT019 SCT045 19/17 A3009 RMK AO2     SLP177 STNPR29800 T01940167 53013 $=,
20180118_100000.004,1,ROTM,,,,0,20180118090000,-1,-1,-1,-1,70,-1,8,-1,-1,-1,-1,,-1,0,0,1,BKN 90,1,19,1,16,1019,ROTM 180956Z 07008KT 10SM BKN090 19/16 A3010 RMK AO2 SLP180     STNPR29800 T01940161 $=,
20180118_110000.004,1,ROTM,,,,0,20180118100000,-1,-1,-1,-1,60,-1,8,-1,-1,-1,-1,,-1,0,0,2,FEW 65   SCT 95,1,18,1,16,1020,ROTM 181056Z 06008KT 10SM FEW065 SCT095 18/16 A3011 RMK AO2     SLP184 STNPR29810 T01830161 $=,
20180118_130000.005,1,ROTM,,,,0,20180118110000,-1,-1,-1,-1,60,-1,9,-1,-1,-1,-1,,-1,0,0,1,OVC 46,1,18,1,16,1020,ROTM 181156Z 06009KT 10SM OVC046 18/16 A3013 RMK SLP188     STNPR29820 T01830156 10217 20183 53011=,
20180118_130000.005,1,ROTM,,,,0,20180118120000,-1,-1,-1,-1,50,-1,5,-1,-1,-1,-1,,-1,0,0,2,BKN 47   OVC 95,1,18,1,16,1020,ROTM 181256Z 05005KT 10SM BKN047 OVC095 18/16 A3013 RMK SLP191     STNPR29830 T01830161=,
20180118_140000.004,1,ROTM,,,,0,20180118130000,-1,-1,-1,-1,70,-1,7,-1,-1,-1,-1,,-1,0,0,2,BKN 46   OVC 95,1,18,1,16,1020,ROTM 181356Z 07007KT 10SM BKN046 OVC095 18/16 A3013 RMK AO2     SLP190 STNPR29830 T01830156 $=,
20180118_150000.004,1,ROTM,,,,0,20180118140000,-1,-1,-1,-1,80,-1,8,-1,-1,-1,-1,,-1,0,0,2,BKN 44   OVC 80,0,-1,0,-1,1020,ROTM 181456Z 08008KT 10SM BKN044 OVC080 19/ A3012 RMK AO2     SLP187 T0189 402220172 58001 $=,
20180118_160000.004,1,ROTM,,,,0,20180118150000,-1,-1,-1,-1,80,-1,7,-1,-1,-1,-1,,-1,0,0,2,FEW 20   OVC 42,0,-1,0,-1,1020,ROTM 181556Z 08007KT 10SM FEW020 OVC042 19/ A3013 RMK AO2     SLP188 T0189 $=,
20180118_170000.004,1,ROTM,,,,0,20180118160000,-1,-1,-1,-1,60,-1,7,-1,-1,-1,-1,,-1,0,0,2,SCT 23   OVC 70,1,19,1,16,1020,ROTM 181656Z 06007KT 10SM SCT023 OVC070 19/16 A3011 RMK AO2     SLP184 T01890161 $=,
20180118_190000.004,1,ROTM,,,,0,20180118180000,-1,-1,-1,-1,80,-1,6,-1,-1,-1,-1,,-1,0,0,1,OVC 47,0,-1,0,-1,1019,METAR ROTM 181856Z 08006KT 10SM OVC047 19/ A3008 RMK AO2 SLP174 T0194,
20180118_200000.002,0,ROTM,,,,0,20180118190000,-1,-1,-1,-1,100,-1,9,-1,-1,-1,-1,,-1,0,0,2,SCT 20   BKN 33,1,19,1,18,1019,ROTM 181956Z 10009KT 10SM SCT020 BKN033 19/18 A3008 RMK AO2     SLP173 STNPR29785 T01940183 $=,
20180118_210000.005,1,ROTM,,,,0,20180118200000,-1,-1,-1,-1,90,-1,7,-1,-1,-1,-1,,-1,0,0,2,SCT 20   OVC 30,1,20,1,18,1019,ROTM 182056Z 09007KT 10SM SCT020 OVC030 20/18 A3009 RMK AO2     SLP176 STNPR29785 T02000183 55000 $=,
20180118_220000.004,1,ROTM,,,,0,20180118210000,-1,-1,-1,-1,80,-1,10,-1,-1,-1,-1,,-1,0,0,3,SCT 18   BKN 30   OVC 35,1,20,1,18,1019,ROTM 182156Z 08010KT 10SM SCT018 BKN030 OVC035 20/18 A3009 RMK     AO2 SLP176 STNPR29790 T02000183 $=,
20180118_230000.007,1,ROTM,,,,0,20180118220000,-1,-1,-1,-1,100,-1,8,-1,-1,-1,-1,,8000,0,2,3,BKN 15   BKN 20   OVC 30,1,19,1,18,1019,ROTM 182256Z 10008KT 8000 -RA BR BKN015 BKN020 OVC030 19/18     A3009 RMK RAB57 STNPR29790 P0001 T01910184=,- RA; BR
20180118_230000.007,1,ROTM,,,,0,20180118220000,-1,-1,-1,-1,100,-1,8,-1,-1,-1,-1,,8000,0,2,3,BKN 15   BKN 20   OVC 30,1,19,1,18,1019,ROTM 182256Z 10008KT 8000 -SHRA BR BKN015 BKN020 OVC030 19/18     A3009 RMK RAB57 STNPR29790 P0001 T01910184=,- RA SH; BR
20180119_000000.004,1,ROTM,,,,0,20180118230000,-1,-1,-1,-1,50,-1,5,-1,-1,-1,-1,,-1,0,2,2,BKN 24   OVC 33,1,19,1,18,1020,ROTM 182356Z 05005KT 4SM RA BR BKN024 OVC033 19/18 A3013 RMK     AO2 SLP188 STNPR29805 T01890183 10200 20189 53012 $=,RA; BR
20180119_000000.006,1,ROTM,,,,0,20180118230000,-1,-1,-1,-1,50,-1,5,-1,-1,-1,-1,,-1,0,2,2,BKN 24   OVC 33,1,19,1,18,1020,ROTM 182356Z 05005KT 4SM RA BR BKN024 OVC033 19/18 A3013     RMK AO2 SLP188 STNPR29805 P0002 6//// T01890183 10200           20189 53012=,RA; BR
20180119_010000.005,1,ROTM,,,,0,20180119000000,-1,-1,-1,-1,90,-1,8,-1,-1,-1,-1,,-1,0,2,3,SCT 7   BKN 20   OVC 40,1,18,1,18,1020,ROTM 190056Z 09008KT 3SM -RA BR SCT007 BKN020 OVC040 18/18     A3013 RMK AO2 SLP190 T01830183 $=,- RA; BR
20180119_010000.007,1,ROTM,,,,0,20180119000000,-1,-1,-1,-1,90,-1,8,-1,-1,-1,-1,,-1,0,2,3,SCT 7   BKN 20   OVC 40,1,18,1,18,1020,ROTM 190056Z 09008KT 3SM -RA BR SCT007 BKN020 OVC040 18/18     A3013 RMK SLP190 STNPR29830 P0002 T01830183=,- RA; BR
20180119_020000.002,0,ROTM,,,,0,20180119010000,-1,-1,-1,-1,80,-1,10,-1,-1,-1,-1,,-1,0,2,3,SCT 5   SCT 7   OVC 50,1,19,1,19,1020,ROTM 190156Z 08010KT 2SM -RA BR SCT005 SCT007 OVC050 19/19     A3011 RMK AO2 SFC VIS 2 1/2 SLP184 STNPR29820 P0002           T01890189 $=,- RA; BR
20180119_020000.005,1,ROTM,,,,0,20180119020000,-1,-1,-1,-1,80,-1,12,-1,-1,-1,-1,,-1,0,2,2,BKN 8   OVC 45,1,19,1,19,1019,ROTM 190227Z 08012KT 2SM -RA BR BKN008 OVC045 19/19 A3009     RMK SFC VIS 3 SLP180 STNPR29810 T01890189=,- RA; BR
20180119_030000.004,1,ROTM,,,,0,20180119020000,-1,-1,-1,-1,90,-1,10,-1,-1,-1,-1,,-1,0,2,2,BKN 8   OVC 45,1,19,1,19,1019,ROTM 190256Z 09010KT 3SM -RA BR BKN008 OVC045 19/19 A3008 RMK     AO2 SLP172 STNPR29810 P0000 60010 T01890189 58016 $=,- RA; BR
20180119_040000.002,0,ROTM,,,,0,20180119030000,-1,-1,-1,-1,50,-1,10,-1,-1,-1,-1,,-1,0,1,3,BKN 8   BKN 20   OVC 45,1,19,1,19,1018,ROTM 190356Z 05010KT 4SM BR BKN008 BKN020 OVC045 19/19 A3006     RMK AO2 RAE05 SLP165 STNPR29775 P0000 T01890189 $=,BR
20180119_050000.005,1,ROTM,,,,0,20180119040000,-1,-1,-1,-1,40,-1,9,-1,-1,-1,-1,,-1,0,1,3,SCT 10   BKN 30   OVC 40,1,19,1,19,1018,ROTM 190456Z 04009KT 3SM BR SCT010 BKN030 OVC040 19/19 A3005     RMK AO2 SLP161 STNPR29745 P0002 T01890189 $=,BR
20180119_060000.004,1,ROTM,,,,0,20180119050000,-1,-1,-1,-1,30,-1,10,-1,-1,-1,-1,,-1,0,2,2,BKN 9   OVC 25,1,18,1,18,1017,ROTM 190556Z 03010KT 2SM -RA BR BKN009 OVC025 18/18 A3004 RMK     AO2 SFC VIS 4 RAB25 SLP159 P0014 60026 T01830178 10194           20183 56013 $=,- RA; BR
20180119_060000.005,1,ROTM,,,,0,20180119050000,-1,-1,-1,-1,20,-1,12,-1,-1,-1,-1,,6000,0,2,3,SCT 5   BKN 7   OVC 30,1,18,1,18,1017,ROTM 190556Z 02012KT 6000 -RA BR SCT005 BKN007 OVC030 18/18     A3004 RMK RAB25 SLP158 STNPR29740 P0014 60026 T01800178           10194 20183 56013=,- RA; BR
20180119_070000.004,1,ROTM,,,,0,20180119060000,-1,-1,-1,-1,30,-1,10,-1,-1,-1,-1,,-1,0,2,3,SCT 5   BKN 7   OVC 30,1,17,1,17,1017,ROTM 190656Z 03010KT 6SM -RA BR SCT005 BKN007 OVC030 17/17     A3004 RMK AO2 SLP159 P0001 T01670167 $=,- RA; BR
20180119_070000.006,1,ROTM,,,,0,20180119060000,-1,-1,-1,-1,30,-1,13,-1,-1,-1,-1,,8000,0,2,2,BKN 9   OVC 20,1,17,1,17,1017,ROTM 190656Z 03013KT 8000 -RA BR BKN009 OVC020 17/17 A3004     RMK SLP161 STNPR29745 P0001 T01780178=,- RA; BR
20180119_080000.004,1,ROTM,,,,0,20180119070000,-1,-1,-1,-1,20,-1,10,-1,-1,-1,-1,,-1,0,2,2,BKN 7   OVC 20,1,16,1,15,1018,ROTM 190756Z 02010KT 5SM -RA BR BKN007 OVC020 16/15 A3007 RMK     AO2 SLP169 STNPR29760 P0000 T01560144 $=,- RA; BR
20180119_090000.005,1,ROTM,,,,0,20180119080000,-1,-1,-1,-1,40,-1,10,-1,-1,-1,-1,,-1,0,2,2,SCT 7   OVC 31,1,16,1,15,1019,ROTM 190856Z 04010KT 2SM -RA BR SCT007 OVC031 16/15 A3008 RMK     AO2 SLP173 STNPR29780 P0007 60008 T01560144 53012 $=,- RA; BR
20180119_090000.007,1,ROTM,,,,0,20180119080000,-1,-1,-1,-1,40,-1,10,-1,-1,-1,-1,,-1,0,2,3,SCT 7   BKN 10   OVC 31,1,16,1,15,1019,ROTM 190856Z 04010KT 2SM -RA BR SCT007 BKN010 OVC031 16/15     A3008 RMK SLP173 STNPR29780 P0007 60008 T01560144=,- RA; BR
20180119_100000.004,1,ROTM,,,,0,20180119090000,-1,-1,-1,-1,30,-1,9,-1,-1,-1,-1,,-1,0,2,3,SCT 5   BKN 9   OVC 20,1,16,1,14,1019,METAR ROTM 190956Z 03009KT 2SM -RA BR SCT005 BKN009 OVC020 16/14           A3009 RMK AO2 SFC VIS 4 SLP178 STNPR29790 P0011 T01560144,- RA; BR
20180119_110000.004,1,ROTM,,,,0,20180119100000,-1,-1,-1,-1,60,-1,8,-1,-1,-1,-1,,-1,0,2,3,SCT 7   BKN 10   OVC 25,0,-1,0,-1,1019,ROTM 191056Z 06008KT 2SM -RA BR SCT007 BKN010 OVC025 15/ A3009     RMK AO2 SFC VIS 8 SLP176 P0005 T0150 $=,- RA; BR
20180119_110000.006,1,ROTM,,,,0,20180119100000,-1,-1,-1,-1,60,-1,8,-1,-1,-1,-1,,-1,0,2,3,SCT 7   BKN 10   OVC 25,1,15,1,14,1019,ROTM 191056Z 06008KT 2SM -RA BR SCT007 BKN010 OVC025 15/14     A3009 RMK SFC VIS 4SM SLP176 STNPR29790 P0005 T01500144=,- RA; BR
20180119_120000.005,1,ROTM,,,,0,20180119110000,-1,-1,-1,-1,60,-1,8,-1,-1,-1,-1,,-1,0,2,3,FEW 8   BKN 25   OVC 30,1,15,1,14,1019,ROTM 191156Z 06008KT 5SM -RA BR FEW008 BKN025 OVC030 15/14     A3010 RMK AO2 SLP182 STNPR29805 P0004 60028 70064           T01500144 10178 20150 51009 $=,- RA; BR
20180119_130000.004,1,ROTM,,,,0,20180119120000,-1,-1,-1,-1,80,-1,7,-1,-1,-1,-1,,-1,0,1,2,BKN 30   OVC 45,1,16,1,15,1019,ROTM 191256Z 08007KT 10SM -RA BKN030 OVC045 16/15 A3010 RMK AO2     RAE23B52 SLP180 STNPR29795 P0001 T01610150 $=,- RA
20180119_130000.005,1,ROTM,,,,0,20180119120000,-1,-1,-1,-1,80,-1,7,-1,-1,-1,-1,,-1,0,1,2,BKN 30   OVC 45,1,16,1,15,1019,ROTM 191256Z 08007KT 10SM DZ BKN030 OVC045 16/15 A3010 RMK     RAE23 DZB52 SLP180 STNPR29795 P0001 T01610150=,DZ
20180119_140000.002,0,ROTM,,,,0,20180119130000,-1,-1,-1,-1,70,-1,6,-1,-1,-1,-1,,-1,0,1,2,SCT 20   OVC 30,1,17,1,16,1019,ROTM 191356Z 07006KT 9SM DZ SCT020 OVC030 17/16 A3009 RMK AO2     RAE07B52E53DZB53 SLP177 STNPR29790 P0000 T01670156 $=,DZ
20180119_150000.004,1,ROTM,,,,1,20180119140000,-1,-1,-1,-1,70,-1,8,-1,-1,-1,-1,,-1,0,0,1,OVC 21,0,-1,0,-1,1019,ROTM 191456Z AUTO 07008KT 10SM OVC021 16/ A3009 RMK AO2     DZE00RAB00E24 SLP176 P0001 60002 T0161 402000150 56005 $=,
20180119_160000.004,1,ROTM,,,,1,20180119150000,-1,-1,-1,-1,40,-1,8,-1,-1,-1,-1,,-1,0,1,3,FEW 14   SCT 23   OVC 31,0,-1,0,-1,1019,ROTM 191556Z AUTO 04008KT 5SM HZ FEW014 SCT023 OVC031 16/ A3009     RMK AO2 RAB21E47 SLP177 P0001 T0156 $=,HZ
20180119_170000.004,1,ROTM,,,,1,20180119160000,-1,-1,-1,-1,70,-1,9,-1,-1,-1,-1,,-1,0,0,3,SCT 23   SCT 28   OVC 35,0,-1,0,-1,1019,ROTM 191656Z AUTO 07009KT 8SM SCT023 SCT028 OVC035 16/ A3008     RMK AO2 SLP173 P0001 T0156 $=,
20180119_180000.001,0,ROTM,,,,1,20180119170000,-1,-1,-1,-1,70,-1,7,-1,-1,-1,-1,,-1,0,1,2,FEW 23   OVC 33,0,-1,0,-1,1018,ROTM 191756Z AUTO 07007KT 4SM -RA FEW023 OVC033 16/ A3007 RMK     AO2 RAB38 SLP169 P0001 60005 T0156 10167 20156 58008 $=,- RA
20180119_190000.005,1,ROTM,,,,1,20180119180000,-1,-1,-1,-1,70,-1,6,-1,-1,-1,-1,,-1,0,0,3,FEW 5   SCT 25   OVC 37,0,-1,0,-1,1018,ROTM 191856Z AUTO 07006KT 10SM FEW005 SCT025 OVC037 16/ A3006     RMK AO2 RAE27 SLP166 P0002 T0156 $=,
20180119_200000.004,1,ROTM,,,,1,20180119190000,-1,-1,-1,-1,80,-1,9,-1,-1,-1,-1,,-1,0,0,2,BKN 36   OVC 46,0,-1,0,-1,1017,ROTM 191956Z AUTO 08009KT 10SM BKN036 OVC046 16/ A3004 RMK AO2     RAB09E25 SLP161 P0001 T0156 $=,
20180119_210000.004,1,ROTM,,,,1,20180119200000,-1,-1,-1,-1,80,-1,7,-1,-1,-1,-1,,-1,0,0,1,OVC 48,0,-1,0,-1,1018,ROTM 192056Z AUTO 08007KT 10SM OVC048 16/ A3006 RMK AO2 SLP167     60003 T0161 55002 $=,
20180119_220000.004,1,ROTM,,,,1,20180119210000,-1,-1,-1,-1,100,-1,10,-1,-1,-1,-1,,-1,0,0,1,OVC 48,0,-1,0,-1,1018,ROTM 192156Z AUTO 10010KT 10SM OVC048 17/ A3006 RMK AO2 SLP167     T0167 $=,
20180120_000000.004,1,ROTM,,,,1,20180119230000,-1,-1,-1,-1,90,-1,6,-1,-1,-1,-1,,-1,0,0,1,OVC 44,0,-1,0,-1,1019,ROTM 192356Z AUTO 09006KT 10SM OVC044 18/ A3010 RMK AO2 SLP179     60003 T0178 10178 20150 53012 $=,
20180120_010000.004,1,ROTM,,,,1,20180120000000,-1,-1,-1,-1,60,-1,7,-1,-1,-1,-1,,-1,0,0,2,FEW 39   OVC 50,0,-1,0,-1,1020,ROTM 200056Z AUTO 06007KT 10SM FEW039 OVC050 18/ A3011 RMK AO2     SLP182 T0183 $=,
20180120_020000.005,1,ROTM,,,,0,20180120010000,-1,-1,-1,-1,50,-1,9,-1,-1,-1,-1,,-1,0,0,1,BKN 50,1,18,1,14,1019,ROTM 200156Z 05009KT 10SM BKN050 18/14 A3008 RMK SLP175     STNPR29800 T01840144=,
20180120_030000.004,1,ROTM,,,,0,20180120020000,-1,-1,-1,-1,70,-1,9,-1,-1,-1,-1,,-1,0,0,1,BKN 48,1,20,1,15,1018,ROTM 200256Z 07009KT 10SM BKN048 20/15 A3007 RMK AO2 SLP170     STNPR29775 T02000150 58007 $=,
20180120_050000.004,1,ROTM,,,,0,20180120040000,-1,-1,-1,-1,60,-1,10,-1,-1,-1,-1,,-1,0,0,2,SCT 50   BKN 120,1,20,1,14,1017,ROTM 200456Z 06010KT 10SM SCT050 BKN120 20/14 A3002 RMK AO2     SLP152 T02000139 $=,
20180120_050000.005,1,ROTM,,,,0,20180120040000,-1,-1,-1,-1,60,-1,10,-1,-1,-1,-1,,-1,0,0,2,SCT 50   BKN 120,1,20,1,14,1017,ROTM 200456Z 06010KT 10SM SCT050 BKN120 20/14 A3002 RMK     SLP152 STNPR29720 T02000139=,
20180120_053000.001,1,ROTM,,,,0,20180120030000,-1,-1,-1,-1,60,-1,9,-1,-1,-1,-1,,-1,0,0,1,BKN 50,1,20,1,15,1018,ROTM 200356Z 06009KT 10SM BKN050 20/15 A3007 RMK SLP149     STNPR29750 T02010154=,
20180120_060000.004,1,ROTM,,,,0,20180120050000,-1,-1,-1,-1,60,-1,8,-1,-1,-1,-1,,-1,0,0,1,OVC 48,1,21,1,14,1016,ROTM 200556Z 06008KT 10SM OVC048 21/14 A3001 RMK AO2 SLP148     STNPR29710 T02060144 10206 20178 56022 $=,
20180120_070000.004,1,ROTM,,,,0,20180120060000,-1,-1,-1,-1,80,-1,9,-1,-1,-1,-1,,-1,0,0,2,FEW 33   OVC 47,1,20,1,14,1016,ROTM 200656Z 08009KT 10SM FEW033 OVC047 20/14 A3001 RMK AO2     SLP149 STNPR29710 T02000144 $=,
20180120_080000.002,1,ROTM,,,,0,20180120050000,-1,-1,-1,-1,60,-1,8,-1,-1,-1,-1,,-1,0,0,1,OVC 48,1,21,1,14,1017,ROTM 200556Z 06008KT 10SM OVC048 21/14 A3002 RMK SLP148     STNPR29710 T02060144 10206 20178 56022=,
20180120_080000.004,1,ROTM,,,,0,20180120060000,-1,-1,-1,-1,80,-1,9,-1,-1,-1,-1,,-1,0,0,2,FEW 33   OVC 47,1,20,1,14,1017,ROTM 200656Z 08009KT 10SM FEW033 OVC047 20/14 A3002 RMK     SLP149 STNPR29710 T02000144=,
20180120_080000.004,1,ROTM,,,,0,20180120070000,-1,-1,-1,-1,60,-1,8,-1,-1,-1,-1,,-1,0,0,2,SCT 35   OVC 46,1,19,1,14,1017,ROTM 200756Z 06008KT 10SM SCT035 OVC046 19/14 A3002 RMK AO2     SLP153 STNPR29715 T01940144 $=,
20180120_090000.002,0,ROTM,,,,0,20180120080000,-1,-1,-1,-1,50,-1,7,-1,-1,-1,-1,,-1,0,0,2,BKN 35   BKN 50,1,19,1,14,1017,ROTM 200856Z 05007KT 10SM BKN035 BKN050 19/14 A3003 RMK AO2     SLP156 STNPR29730 T01890144 53007 $=,
20180120_100000.004,1,ROTM,,,,1,20180120090000,-1,-1,-1,-1,30,-1,6,-1,-1,-1,-1,,-1,0,0,1,OVC 36,1,19,1,14,1018,ROTM 200956Z AUTO 03006KT 10SM OVC036 19/14 A3006 RMK AO2     SLP165 T01890144 $=,
20180120_110000.002,0,ROTM,,,,1,20180120100000,-1,-1,-1,-1,50,-1,6,-1,-1,-1,-1,,-1,0,0,1,OVC 49,1,18,1,14,1018,ROTM 201056Z AUTO 05006KT 10SM OVC049 18/14 A3007 RMK AO2     SLP170 T01830144 $=,
20180120_130000.004,1,ROTM,,,,1,20180120120000,-1,-1,-1,-1,60,-1,6,-1,-1,-1,-1,,-1,0,0,1,OVC 55,1,18,1,15,1019,ROTM 201256Z AUTO 06006KT 10SM OVC055 18/15 A3008 RMK AO2     SLP173 T01780150 $=,
20180120_140000.004,1,ROTM,,,,1,20180120130000,-1,-1,-1,-1,70,-1,6,-1,-1,-1,-1,,-1,0,0,1,OVC 65,0,-1,0,-1,1018,ROTM 201356Z AUTO 07006KT 10SM OVC065 18/ A3007 RMK AO2 SLP170     T0183 $=,
20180120_160000.004,1,ROTM,,,,1,20180120150000,-1,-1,-1,-1,20,-1,4,-1,-1,-1,-1,,-1,0,0,2,SCT 23   BKN 100,0,-1,0,-1,1018,ROTM 201556Z AUTO 02004KT 9SM SCT023 BKN100 17/ A3006 RMK AO2     SLP167 T0172 $=,
20180120_170000.002,0,ROTM,,,,1,20180120160000,-1,-1,-1,-1,50,-1,6,-1,-1,-1,-1,,-1,0,0,1,BKN 80,0,-1,0,-1,1018,ROTM 201656Z AUTO 05006KT 9SM BKN080 17/ A3005 RMK AO2 SLP163     T0172 $=,
20180120_180000.002,0,ROTM,,,,1,20180120170000,-1,-1,-1,-1,60,-1,5,-1,-1,-1,-1,,-1,0,0,1,FEW 100,0,-1,0,-1,1017,ROTM 201756Z AUTO 06005KT 9SM FEW100 17/ A3004 RMK AO2 SLP160     T0167 10183 20167 58008 $=,
20180120_190000.005,1,ROTM,,,,1,20180120180000,-1,-1,-1,-1,60,-1,5,-1,-1,-1,-1,,-1,0,0,1,FEW 95,0,-1,0,-1,1017,ROTM 201856Z AUTO 06005KT 8SM FEW095 16/ A3004 RMK AO2 SLP158     T0161 $=,
20180120_200000.004,1,ROTM,,,,1,20180120190000,-1,-1,-1,-1,30,-1,3,-1,-1,-1,-1,,-1,0,0,0,,0,-1,0,-1,1017,ROTM 201956Z AUTO 03003KT 8SM CLR 16/ A3003 RMK AO2 SLP158     T0156 $=,
20180120_210000.004,1,ROTM,,,,1,20180120200000,-1,-1,-1,-1,50,-1,6,-1,-1,-1,-1,,-1,0,0,0,,0,-1,0,-1,1017,ROTM 202056Z AUTO 05006KT 9SM CLR 16/ A3004 RMK AO2 SLP159     T0161 55001 $=,
20180120_220000.004,1,ROTM,,,,1,20180120210000,-1,-1,-1,-1,70,-1,7,-1,-1,-1,-1,,-1,0,0,0,,0,-1,0,-1,1018,ROTM 202156Z AUTO 07007KT 9SM CLR 17/ A3006 RMK AO2 SLP166     T0167 $=,
20180121_000000.004,1,ROTM,,,,1,20180120230000,-1,-1,-1,-1,50,-1,6,-1,-1,-1,-1,,-1,0,0,0,,0,-1,0,-1,1019,ROTM 202356Z AUTO 05006KT 8SM CLR 18/ A3008 RMK AO2 SLP174     T0183 10183 20156 51016 $=,
20180121_020000.004,1,ROTM,,,,1,20180121010000,-1,-1,-1,-1,50,-1,10,-1,-1,-1,-1,,-1,0,0,1,FEW 20,1,21,1,17,1019,ROTM 210156Z AUTO 05010KT 10SM FEW020 21/17 A3008 RMK AO2     SLP173 T02110167 $=,
20180121_030000.002,0,ROTM,,,,1,20180121020000,-1,-1,-1,-1,50,-1,7,-1,-1,-1,-1,,-1,0,0,0,,1,21,1,16,1018,ROTM 210256Z AUTO 05007KT 10SM CLR 21/16 A3006 RMK AO2 SLP167     T02060161 58007 $=,
20180121_040000.003,0,ROTM,,,,1,20180121030000,-1,-1,-1,-1,80,-1,9,-1,-1,-1,-1,,-1,0,0,2,SCT 24   BKN 120,1,21,1,16,1016,ROTM 210356Z AUTO 08009KT 10SM SCT024 BKN120 21/16 A3001 RMK     AO2 SLP150 T02060156 $=,
20180121_050000.002,0,ROTM,,,,1,20180121040000,-1,-1,-1,-1,70,-1,10,-1,-1,-1,-1,,-1,0,0,1,SCT 110,1,21,1,16,1015,ROTM 210456Z AUTO 07010KT 10SM SCT110 21/16 A2997 RMK AO2     SLP137 T02060156 $=,
20180121_060000.004,1,ROTM,,,,1,20180121050000,-1,-1,-1,-1,80,-1,9,-1,-1,-1,-1,,-1,0,0,2,FEW 23   OVC 100,1,20,1,16,1015,ROTM 210556Z AUTO 08009KT 10SM FEW023 OVC100 20/16 A2997 RMK     AO2 SLP136 T02000156 10211 20183 56031 $=,
20180121_070000.002,0,ROTM,,,,1,20180121060000,-1,-1,-1,-1,70,-1,8,-1,-1,-1,-1,,-1,0,0,2,BKN 90   BKN 110,1,20,1,16,1015,ROTM 210656Z AUTO 07008KT 9SM BKN090 BKN110 20/16 A2998 RMK AO2     SLP138 T02000161 $=,
20180121_080000.004,1,ROTM,,,,1,20180121070000,-1,-1,-1,-1,80,-1,9,-1,-1,-1,-1,,-1,0,0,2,SCT 23   OVC 85,1,20,1,16,1015,ROTM 210756Z AUTO 08009KT 9SM SCT023 OVC085 20/16 A2998 RMK AO2     SLP140 T02000161 $=,
20180121_090000.004,1,ROTM,,,,1,20180121080000,-1,-1,-1,-1,80,-1,8,-1,-1,-1,-1,,-1,0,0,3,FEW 23   FEW 90   BKN 110,1,19,1,16,1016,ROTM 210856Z AUTO 08008KT 9SM FEW023 FEW090 BKN110 19/16 A2999     RMK AO2 SLP142 T01940161 51005 $=,
20180121_100000.004,1,ROTM,,,,1,20180121090000,-1,-1,-1,-1,60,-1,6,-1,-1,-1,-1,,-1,0,0,3,FEW 20   SCT 25   OVC 110,1,19,1,17,1016,ROTM 210956Z AUTO 06006KT 10SM FEW020 SCT025 OVC110 19/17 A3000     RMK AO2 SLP145 T01890167 $=,
20180121_110000.004,1,ROTM,,,,1,20180121100000,-1,-1,-1,-1,60,-1,11,-1,-1,-1,-1,,-1,0,0,3,FEW 23   SCT 28   BKN 110,0,-1,0,-1,1016,ROTM 211056Z AUTO 06011KT 10SM FEW023 SCT028 BKN110 19/ A2999     RMK AO2 SLP142 T0189 $=,
20180121_120000.004,1,ROTM,,,,1,20180121110000,-1,-1,-1,-1,80,-1,8,-1,-1,-1,-1,,-1,0,0,2,BKN 39   BKN 110,0,-1,0,-1,1016,ROTM 211156Z AUTO 08008KT 10SM BKN039 BKN110 19/ A2999 RMK AO2     SLP144 T0194 10206 20189 51003 $=,
20180121_130000.005,1,ROTM,,,,1,20180121120000,-1,-1,-1,-1,90,-1,11,-1,-1,-1,-1,,-1,0,0,1,OVC 46,0,-1,0,-1,1015,ROTM 211256Z AUTO 09011KT 10SM OVC046 19/ A2998 RMK AO2 SLP139     T0194 $=,
20180121_140000.004,1,ROTM,,,,1,20180121130000,-1,-1,-1,-1,110,-1,12,-1,-1,-1,-1,,-1,0,0,3,FEW 55   BKN 85   OVC 110,0,-1,0,-1,1015,ROTM 211356Z AUTO 11012KT 10SM FEW055 BKN085 OVC110 19/ A2997     RMK AO2 SLP134 T0194 $=,
20180121_150000.004,1,ROTM,,,,1,20180121140000,-1,-1,-1,-1,110,-1,8,-1,-1,-1,-1,,-1,0,1,1,OVC 110,0,-1,0,-1,1014,ROTM 211456Z AUTO 11008KT 8SM -RA OVC110 19/ A2995 RMK AO2     RAB25 SLP129 P0001 60001 T0194 402110156 58015 $=,- RA
20180121_160000.004,1,ROTM,,,,1,20180121150000,-1,-1,-1,-1,90,-1,7,-1,-1,-1,-1,,-1,0,0,1,OVC 100,0,-1,0,-1,1014,ROTM 211556Z AUTO 09007KT 9SM OVC100 19/ A2994 RMK AO2 RAE36     SLP124 P0001 T0194 $=,
20180121_170000.004,1,ROTM,,,,1,20180121160000,-1,-1,-1,-1,110,-1,10,-1,-1,-1,-1,,-1,0,0,3,FEW 12   SCT 20   OVC 85,0,-1,0,-1,1013,ROTM 211656Z AUTO 11010KT 9SM FEW012 SCT020 OVC085 19/ A2992     RMK AO2 SLP118 T0194 $=,
20180121_180000.002,0,ROTM,,,,1,20180121170000,-1,-1,-1,-1,120,-1,7,-1,-1,-1,-1,,-1,0,0,3,SCT 8   BKN 13   OVC 65,0,-1,0,-1,1013,ROTM 211756Z AUTO 12007KT 8SM SCT008 BKN013 OVC065 19/ A2990     RMK AO2 RAB15E23 SLP112 P0000 60002 T0189 10194 20189           58017 $=,
20180121_180000.004,1,ROTM,,,,0,20180121180000,-1,-1,-1,-1,120,-1,6,-1,-1,-1,-1,,9000,0,2,3,FEW 88   SCT 12   OVC 65,1,19,1,19,1013,ROTM 211802Z 12006KT 9000 -SHRA BR FEW088 SCT012 OVC065     19/19 A2990 RMK SLP112 STNPR29600=,- RA SH; BR
20180121_190000.004,1,ROTM,,,,0,20180121180000,-1,-1,-1,-1,120,-1,7,-1,-1,-1,-1,,9000,0,2,3,FEW 7   SCT 10   OVC 65,1,19,1,19,1012,ROTM 211856Z 12007KT 9000 -SHRA BR FEW007 SCT010 OVC065 19/19     A2989 RMK RAB1802 SLP108 STNPR29590 P0001 T01890188=,- RA SH; BR
20180121_200000.004,1,ROTM,,,,0,20180121190000,-1,-1,-1,-1,150,-1,7,-1,-1,-1,-1,,-1,0,1,3,SCT 7   BKN 30   OVC 50,1,20,1,20,1011,ROTM 211956Z 15007KT 7SM -RA SCT007 BKN030 OVC050 20/20 A2987     RMK AO2 RAB14 SLP101 STNPR29570 P0000 T02000200 $=,- RA
20180121_210000.002,0,ROTM,,,,0,20180121200000,-1,-1,-1,-1,170,-1,5,-1,-1,-1,-1,,-1,0,2,3,SCT 7   BKN 35   OVC 45,1,19,1,19,1011,ROTM 212056Z 17005KT 6SM -RA BR SCT007 BKN035 OVC045 19/19     A2987 RMK AO2 SLP101 STNPR29565 T2 SET P0000 60001           T01940183 56011 $=,- RA; BR
20180121_220000.005,1,ROTM,,,,0,20180121210000,-1,-1,-1,-1,340,-1,6,-1,-1,-1,-1,,-1,0,2,3,SCT 7   BKN 35   OVC 45,1,20,1,19,1012,ROTM 212156Z 34006KT 6SM -RA BR SCT007 BKN035 OVC045 20/19     A2988 RMK AO2 SLP104 STNPR29580 T2 P0002 T01940189 $=,- RA; BR
20180121_230000.004,1,ROTM,,,,0,20180121220000,-1,-1,-1,-1,70,-1,5,-1,-1,-1,-1,,-1,0,2,3,FEW 8   BKN 20   OVC 32,1,19,1,18,1011,ROTM 212256Z 07005KT 2SM RA BR FEW008 BKN020 OVC032 19/18 A2987     RMK AO2 SFC VIS 3 SLP101 SLP104 STNPR29580 T2 P0032           T01890183 $=,RA; BR
20180122_000000.004,1,ROTM,,,,0,20180121230000,-1,-1,-1,-1,330,-1,7,-1,-1,-1,-1,,-1,0,2,3,SCT 8   BKN 20   OVC 40,1,18,1,18,1012,ROTM 212356Z 33007KT 2SM +RA BR SCT008 BKN020 OVC040 18/18     A2988 RMK AO2 SLP106 STNPR29585 T2 P0031 60070 T01830183           10200 20183 53005 $=,+ RA; BR
20180122_030000.004,1,ROTM,,,,0,20180122020000,-1,-1,-1,-1,330,-1,18,-1,25,-1,-1,,-1,0,2,3,SCT 8   BKN 12   OVC 25,1,20,1,18,1013,ROTM 220256Z 33018G25KT 6SM RA BR SCT008 BKN012 OVC025 20/18     A2991 RMK AO2 PK WND 33027/0237 WSHFT 0156 SLP115           STNPR29610 T2 LWW SET T02000178 50011 $=,RA; BR
20180122_040000.004,1,ROTM,,,,0,20180122030000,-1,-1,-1,-1,330,-1,16,-1,26,-1,-1,,-1,0,1,3,SCT 10   BKN 25   OVC 35,1,18,1,15,1012,ROTM 220356Z 33016G26KT 6SM BR SCT010 BKN025 OVC035 18/15 A2989     RMK AO2 PK WND 32026/0335 RAE40 SLP108 STNPR29590 T2 LCL           WND WRNG XWND ADV SET P0000 T01830150 $=,BR
20180122_050000.004,1,ROTM,,,,1,20180122040000,-1,-1,-1,-1,340,-1,16,-1,-1,-1,-1,,-1,0,0,3,SCT 10   BKN 25   OVC 35,1,18,1,15,1011,ROTM 220456Z AUTO 34016KT SCT010 BKN025 OVC035 18/15 A2987 RMK     AO2 PK WND 34028/0358 SLP100 T01830150=,
20180122_050000.005,1,ROTM,,,,0,20180122040000,-1,-1,-1,-1,340,-1,16,-1,-1,-1,-1,,-1,0,0,3,SCT 10   BKN 25   OVC 35,1,18,1,15,1011,ROTM 220456Z 34016KT 10SM SCT010 BKN025 OVC035 18/15 A2987     RMK PK WND 34028/0358 SLP100 STNPR29570 T01830150=,
20180122_060000.005,1,ROTM,,,,0,20180122050000,-1,-1,-1,-1,340,-1,16,-1,23,-1,-1,,-1,0,0,3,SCT 20   BKN 30   OVC 70,1,18,1,14,1012,ROTM 220556Z 34016G23KT 10SM SCT020 BKN030 OVC070 18/14 A2988     RMK AO2 SLP105 STNPR29585 60013 T01780139 10200 20178           55009=,
20180122_060000.006,1,ROTM,,,,0,20180122050000,-1,-1,-1,-1,340,-1,16,-1,23,-1,-1,,-1,0,0,3,SCT 20   BKN 30   OVC 70,1,18,1,14,1012,ROTM 220556Z 34016G23KT 10SM SCT020 BKN030 OVC070 18/14     A2988 RMK SLP105 STNPR29585 T2 LCL WND WRNG XWND ADV 60013           T01780139 10200 20178 55009=,
20180122_070000.004,1,ROTM,,,,0,20180122060000,-1,-1,-1,-1,360,-1,15,-1,21,-1,-1,,-1,0,0,2,SCT 33   BKN 120,1,18,1,13,1012,ROTM 220656Z 36015G21KT 10SM SCT033 BKN120 18/13 A2989 RMK AO2     SLP110 T2 LCL WND WRNG XWND ADV STNPR29595 T01780133=,
20180122_080000.005,1,ROTM,,,,0,20180122070000,-1,-1,-1,-1,360,-1,11,-1,-1,-1,-1,,-1,0,0,3,SCT 20   BKN 30   BKN 90,1,17,1,13,1013,ROTM 220756Z 36011KT 10SM SCT020 BKN030 BKN090 17/13 A2992 RMK     AO2 SLP120 T2 WND WRNG XWND ADV STNPR29630 T01720128=,
20180122_090000.004,1,ROTM,,,,0,20180122080000,-1,-1,-1,-1,10,-1,10,-1,-1,-1,-1,,-1,0,0,2,SCT 35   BKN 120,1,17,1,11,1015,ROTM 220856Z 01010KT 10SM SCT035 BKN120 17/11 A2996 RMK AO2     SLP132 T2 WND WRNG XWND ADV STNPR29660 T01670111 53026=,
20180122_100000.004,1,ROTM,,,,0,20180122090000,-1,-1,-1,-1,10,-1,8,-1,-1,-1,-1,,-1,0,0,2,SCT 38   BKN 120,1,16,1,11,1015,ROTM 220956Z 01008KT 10SM SCT038 BKN120 16/11 A2998 RMK AO2     SLP139 T2 WND WRNG XWND ADV STNPR29670 T01610111=,
20180122_110000.003,0,ROTM,,,,0,20180122100000,-1,-1,-1,-1,20,-1,12,-1,-1,-1,-1,,-1,0,0,1,FEW 40,1,16,1,10,1016,ROTM 221056Z 02012KT 10SM FEW040 16/10 A2999 RMK AO2 SLP144     T01560100 $=,
20180122_110000.005,1,ROTM,,,,0,20180122100000,-1,-1,-1,-1,20,-1,12,-1,-1,-1,-1,,9999,0,0,2,SCT 40   BKN 150,1,16,1,10,1016,ROTM 221056Z 02012KT 9999 SCT040 BKN150 16/10 A2999 RMK     SLP144 T2 END WND WRNG XWND ADV STNPR29700 T01560100=,
20180122_120000.004,1,ROTM,,,,0,20180122110000,-1,-1,-1,-1,30,-1,8,-1,-1,-1,-1,,-1,0,0,1,BKN 39,1,16,1,11,1017,ROTM 221156Z 03008KT 10SM BKN039 16/11 A3002 RMK AO2 SLP152     70085 T01560106 10183 20150 53019 $=,
20180122_120000.004,1,ROTM,,,,0,20180122110000,-1,-1,-1,-1,30,-1,8,-1,-1,-1,-1,,9999,0,0,2,SCT 39   BKN 150,1,16,1,11,1017,ROTM 221156Z 03008KT 9999 SCT039 BKN150 16/11 A3002 RMK     SLP152 WND WRNG XWND ADV STNPR29720 T01560106 10183 20150           53019=,
20180122_130000.001,0,ROTM,,,,0,20180122120000,-1,-1,-1,-1,50,-1,5,-1,-1,-1,-1,,9999,0,0,2,SCT 42   BKN 150,1,16,1,11,1017,ROTM 221256Z 05005KT 9999 SCT042 BKN150 16/11 A3003 RMK     SLP156 WND WRNG XWND ADV STNPR29730 T01560106=,
20180122_130000.005,1,ROTM,,,,0,20180122120000,-1,-1,-1,-1,50,-1,5,-1,-1,-1,-1,,-1,0,0,1,BKN 42,1,16,1,11,1017,ROTM 221256Z 05005KT 10SM BKN042 16/11 A3003 RMK AO2 SLP156     T01560106 $=,
20180122_140000.005,1,ROTM,,,,0,20180122130000,-1,-1,-1,-1,40,-1,6,-1,-1,-1,-1,,-1,0,0,1,OVC 41,1,16,1,11,1017,ROTM 221356Z 04006KT 10SM OVC041 16/11 A3003 RMK AO2 SLP157 WND     WRNG END XWND ADV STNPR29720 LAST T01610106 $=,
20180122_150000.004,1,ROTM,,,,0,20180122140000,-1,-1,-1,-1,20,-1,5,-1,-1,-1,-1,,-1,0,0,1,BKN 44,1,15,1,11,1017,ROTM 221456Z 02005KT 10SM BKN044 15/11 A3002 RMK AO2 SLP153     T01500106 402000150 50001 $=,
20180122_170000.002,0,ROTM,,,,0,20180122160000,-1,-1,-1,-1,30,-1,5,-1,-1,-1,-1,,-1,0,0,0,,1,15,1,9,1016,ROTM 221656Z 03005KT 10SM CLR 15/09 A3001 RMK AO2 SLP151     T01500094 $=,
20180122_180000.004,1,ROTM,,,,0,20180122170000,-1,-1,-1,-1,60,-1,7,-1,-1,-1,-1,,-1,0,0,0,,1,14,1,10,1016,ROTM 221756Z 06007KT 10SM CLR 14/10 A3000 RMK AO2 SLP147     T01440100 10161 20144 58006 $=,
20180122_190000.004,0,ROTM,,,,0,20180122180000,-1,-1,-1,-1,40,-1,5,-1,-1,-1,-1,,-1,0,0,1,FEW 48,1,14,1,9,1017,ROTM 221856Z 04005KT 10SM FEW048 14/09 A3002 RMK AO2 SLP151     T01390089 $=,
20180122_200000.004,1,ROTM,,,,0,20180122190000,-1,-1,-1,-1,20,-1,6,-1,-1,-1,-1,,-1,0,0,1,BKN 50,1,15,1,10,1016,ROTM 221956Z 02006KT 10SM BKN050 15/10 A3001 RMK AO2 SLP151     STNPR29720 T01500100 $=,
20180122_210000.005,1,ROTM,,,,0,20180122200000,-1,-1,-1,-1,40,-1,7,-1,-1,-1,-1,,-1,0,0,1,SCT 50,1,14,1,9,1017,ROTM 222056Z 04007KT 10SM SCT050 14/09 A3002 RMK AO2 SLP155     STNPR29725 T01440094 51008 $=,
20180122_220000.004,1,ROTM,,,,0,20180122210000,-1,-1,-1,-1,40,-1,6,-1,-1,-1,-1,,-1,0,0,1,SCT 50,1,14,1,10,1017,ROTM 222156Z 04006KT 10SM SCT050 14/10 A3004 RMK AO2 SLP160     STNPR29725 T01440100 $=,
20180122_230000.005,1,ROTM,,,,0,20180122220000,-1,-1,-1,-1,60,-1,5,-1,-1,-1,-1,,-1,0,0,1,BKN 50,1,16,1,9,1018,ROTM 222256Z 06005KT 10SM BKN050 16/09 A3005 RMK AO2 SLP162     STNPR29740 T01560094=,
20180123_000000.004,1,ROTM,,,,0,20180122230000,-1,-1,-1,-1,60,-1,5,-1,-1,-1,-1,,-1,0,0,1,BKN 50,1,17,1,10,1018,ROTM 222356Z 06005KT 10SM BKN050 17/10 A3005 RMK AO2 SLP163     STNPR29750 T01670100 10167 20139 51008 $=,
20180123_010000.005,1,ROTM,,,,0,20180123000000,-1,-1,-1,-1,50,-1,11,-1,-1,-1,-1,,9999,0,0,1,BKN 50,1,18,1,10,1018,ROTM 230056Z 05011KTS 9999 BKN050 18/10 A3005 RMK SLP163     STNPR29750 T01780099=,
20180123_030000.005,1,ROTM,,,,1,20180123020000,-1,-1,-1,-1,90,-1,8,-1,-1,-1,-1,,-1,0,0,0,,1,19,1,11,1017,ROTM 230256Z AUTO 09008KT 10SM 19/11 A3002 RMK AO2 SLP153 6////     T01890106 58009 $=,
20180123_040000.005,0,ROTM,,,,0,20180123030000,-1,-1,-1,-1,70,-1,9,-1,-1,-1,-1,,-1,0,0,1,OVC 50,1,18,1,11,1016,ROTM 230356Z 07009KT 10SM OVC050 18/11 A3000 RMK AO2 SLP146     STNPR29705 T01830106 $=,
20180123_040000.005,1,ROTM,,,,0,20180123020000,-1,-1,-1,-1,90,-1,8,-1,-1,-1,-1,,-1,0,0,0,,1,19,1,11,1017,ROTM 230256Z 09008KT 10SM 19/11 A3002 RMK AO2 SLP153     STNPR29750 T01890106 58009=,
20180123_060000.003,0,ROTM,,,,0,20180123050000,-1,-1,-1,-1,999,-1,6,-1,-1,-1,-1,,-1,0,0,1,OVC 55,1,19,1,14,1015,ROTM 230556Z VRB06KT 10SM OVC055 19/14 A2998 RMK SLP142     STNPR29680 T01910135 10197 20178 56008=,
20180123_060000.003,1,ROTM,,,,0,20180123040000,-1,-1,-1,-1,60,-1,7,-1,-1,-1,-1,,-1,0,0,1,OVC 50,1,18,1,13,1016,ROTM 230456Z 06007KT 10SM OVC050 18/13 A2999 RMK SLP145     STNPR29690 T01840127=,
20180123_070000.005,0,ROTM,,,,0,20180123060000,-1,-1,-1,-1,999,-1,6,-1,-1,-1,-1,,-1,0,1,1,OVC 55,1,19,1,12,1015,ROTM 230656Z VRB06KT 10SM DZ OVC055 19/12 A2997 RMK DZB50     SLP145 STNPR29690 P0000 T01930117=,DZ
20180123_080000.004,1,ROTM,,,,0,20180123070000,-1,-1,-1,-1,30,-1,7,-1,-1,-1,-1,,-1,0,0,1,OVC 55,1,17,1,11,1016,ROTM 230756Z 03007KT 10SM OVC055 17/11 A3001 RMK AO2 SLP149     STNPR29705 T01670111 $=,
20180123_080000.004,1,ROTM,,,,0,20180123070000,-1,-1,-1,-1,30,-1,7,-1,-1,-1,-1,,-1,0,0,1,OVC 55,1,17,1,11,1016,ROTM 230756Z 03007KT 10SM OVC055 17/11 A3001 RMK DZE30     SLP149 STNPR29705 P0000 T01670111=,
20180123_090000.002,0,ROTM,,,,0,20180123080000,-1,-1,-1,-1,20,-1,8,-1,-1,-1,-1,,-1,0,0,3,SCT 35   BKN 50   OVC 60,1,16,1,11,1017,ROTM 230856Z 02008KT 10SM SCT035 BKN050 OVC060 16/11 A3002 RMK     AO2 SLP155 STNPR29730 6//// T01610111=,
20180123_090000.004,1,ROTM,,,,0,20180123080000,-1,-1,-1,-1,20,-1,8,-1,-1,-1,-1,,-1,0,0,3,SCT 35   BKN 50   OVC 60,1,16,1,11,1017,ROTM 230856Z 02008KT 10SM SCT035 BKN050 OVC060 16/11 A3002     RMK SLP155 STNPR29730 60000 T01610111=,
20180123_100000.004,1,ROTM,,,,0,20180123090000,-1,-1,-1,-1,60,-1,6,-1,-1,-1,-1,,-1,0,0,2,BKN 47   OVC 70,1,16,1,12,1017,ROTM 230956Z 06006KT 10SM BKN047 OVC070 16/12 A3004 RMK AO2     RAB0858E09 SLP160 STNPR29740 P0000 T01560117=,
20180123_100000.004,1,ROTM,,,,0,20180123090000,-1,-1,-1,-1,60,-1,6,-1,-1,-1,-1,,9999,0,0,2,BKN 47   OVC 70,1,16,1,12,1017,ROTM 230956Z 06006KT 9999 BKN047 OVC070 16/12 A3004 RMK     DZB00E09 SLP160 STNPR29740 P0000 T01560117=,
20180123_110000.004,1,ROTM,,,,0,20180123100000,-1,-1,-1,-1,60,-1,6,-1,-1,-1,-1,,-1,0,0,2,SCT 50   BKN 80,1,15,1,12,1018,ROTM 231056Z 06006KT 10SM SCT050 BKN080 15/12 A3006 RMK AO2     SLP167 STNPR29750 T01500117=,
20180123_120000.004,1,ROTM,,,,0,20180123110000,-1,-1,-1,-1,70,-1,6,-1,-1,-1,-1,,-1,0,0,2,FEW 38   SCT 85,1,16,1,12,1018,ROTM 231156Z 07006KT 10SM FEW038 SCT085 16/12 A3006 RMK AO2     SLP168 STNPR29760 6//// 7//// T01560117 10189 20150 51012=,
20180123_210000.005,1,ROTM,,,,0,20180123200000,-1,-1,-1,-1,20,-1,9,-1,-1,-1,-1,,-1,0,0,2,BKN 41   OVC 100,1,16,1,14,1018,ROTM 232056Z 02009KT 9SM BKN041 OVC100 16/14 A3006 RMK AO2     SLP167 STNPR29750 T01560144 53005 $=,
20180123_220000.006,1,ROTM,,,,0,20180123210000,-1,-1,-1,-1,10,-1,11,-1,20,-1,-1,,-1,0,0,3,SCT 20   BKN 35   OVC 100,1,16,1,15,1019,ROTM 232156Z 01011G20KT 10SM SCT020 BKN035 OVC100 16/15 A3009     RMK AO2 SLP178 STNPR29755 T01560144=,
20180123_223000.002,1,ROTM,,,,0,20180123190000,-1,-1,-1,-1,20,-1,4,-1,-1,-1,-1,,-1,0,0,2,BKN 50   OVC 100,1,16,1,13,1018,ROTM 231956Z 02004KT 8SM BKN050 OVC100 16/13 A3005 RMK AO2     SLP163 STNPR29740 T01610128 $=,
20180123_230000.004,1,ROTM,,,,0,20180123220000,-1,-1,-1,-1,20,-1,11,-1,15,-1,-1,,-1,0,0,2,BKN 20   OVC 30,1,16,1,12,1020,ROTM 232256Z 02011G15KT 10SM BKN020 OVC030 16/12 A3012 RMK AO2     SLP188 STNPR29820 T01560122 $=,
20180124_000000.004,1,ROTM,,,,0,20180123230000,-1,-1,-1,-1,20,-1,9,-1,-1,-1,-1,,-1,0,0,2,BKN 30   OVC 40,1,16,1,12,1020,ROTM 232356Z 02009KT 10SM BKN030 OVC040 16/12 A3012 RMK AO2     SLP189 STNPR29825 T01560122 10161 20150 51021 $=,
20180124_010000.005,1,ROTM,,,,0,20180124000000,-1,-1,-1,-1,30,-1,10,-1,18,-1,-1,,-1,0,0,2,BKN 30   OVC 40,1,16,1,12,1021,ROTM 240056Z 03010G18KT 10SM BKN030 OVC040 16/12 A3014 RMK AO2     SLP192 STNPR29835 T01560122 $=,
20180124_020000.004,1,ROTM,,,,0,20180124010000,-1,-1,-1,-1,30,-1,12,-1,18,-1,-1,,-1,0,0,2,BKN 30   OVC 40,1,16,1,12,1020,ROTM 240156Z 03012G18KT 10SM BKN030 OVC040 16/12 A3012 RMK AO2     SLP187 STNPR29820 T01610122 $=,
20180124_030000.005,1,ROTM,,,,0,20180124020000,-1,-1,-1,-1,10,-1,9,-1,-1,-1,-1,,-1,0,0,2,BKN 30   OVC 40,1,16,1,12,1019,ROTM 240256Z 01009KT 10SM BKN030 OVC040 16/12 A3010 RMK AO2     SLP179 STNPR29805 T01610117 58009 $=,
20180124_040000.002,0,ROTM,,,,0,20180124030000,-1,-1,-1,-1,30,-1,12,-1,19,-1,-1,,-1,0,0,2,SCT 30   OVC 40,1,17,1,12,1018,ROTM 240356Z 03012G19KT 10SM SCT030 OVC040 17/12 A3006 RMK AO2     SLP168 STNPR29770 T01720117 $=,
20180124_050000.004,0,ROTM,,,,0,20180124040000,-1,-1,-1,-1,20,-1,13,-1,-1,-1,-1,,-1,0,0,3,FEW 25   BKN 40   OVC 50,1,16,1,11,1018,ROTM 240456Z 02013KT 10SM FEW025 BKN040 OVC050 16/11 A3005 RMK     AO2 SLP165 STNPR29755 T01610111 $=,
20180124_060000.002,0,ROTM,,,,0,20180124050000,-1,-1,-1,-1,10,-1,10,-1,-1,-1,-1,,-1,0,0,3,FEW 20   BKN 35   OVC 45,1,16,1,11,1017,ROTM 240556Z 01010KT 10SM FEW020 BKN035 OVC045 16/11 A3004 RMK     AO2 SLP161 STNPR29740 T01560106 10178 20150 56019 $=,
20180124_070000.004,1,ROTM,,,,0,20180124060000,-1,-1,-1,-1,20,-1,13,-1,-1,-1,-1,,-1,0,0,2,BKN 35   OVC 50,1,16,1,11,1018,ROTM 240656Z 02013KT 10SM BKN035 OVC050 16/11 A3005 RMK AO2     SLP163 STNPR29745 T01560106 $=,
20180124_080000.002,0,ROTM,,,,0,20180124070000,-1,-1,-1,-1,30,-1,11,-1,-1,-1,-1,,-1,0,0,3,FEW 25   BKN 40   OVC 45,1,16,1,11,1018,ROTM 240756Z 03011KT 10SM FEW025 BKN040 OVC045 16/11 A3005 RMK     AO2 SLP162 STNPR29745 T01560106 $=,
20180124_090000.005,1,ROTM,,,,0,20180124080000,-1,-1,-1,-1,20,-1,13,-1,19,-1,-1,,9999,0,0,3,FEW 20   BKN 40   OVC 50,1,14,1,10,1019,ROTM 240856Z 02013G19KT 9999 FEW020 BKN040 OVC050 14/10     A3008 RMK SLP176 STNPR29780 T01440100 53014=,
20180124_100000.004,1,ROTM,,,,0,20180124090000,-1,-1,-1,-1,30,-1,10,-1,-1,-1,-1,,-1,0,0,2,BKN 42   OVC 110,1,14,1,9,1019,ROTM 240956Z 03010KT 10SM BKN042 OVC110 14/09 A3008 RMK AO2     SLP175 STNPR29780 T01390094 $=,
20180124_110000.002,0,ROTM,,,,0,20180124100000,-1,-1,-1,-1,20,-1,10,-1,-1,-1,-1,,-1,0,0,1,OVC 44,1,14,1,9,1020,ROTM 241056Z 02010KT 10SM OVC044 14/09 A3011 RMK AO2 SLP184     STNPR29810 T01390089 $=,
20180124_120000.004,1,ROTM,,,,0,20180124110000,-1,-1,-1,-1,20,-1,10,-1,-1,-1,-1,,-1,0,0,2,BKN 43   OVC 120,1,14,1,8,1020,ROTM 241156Z 02010KT 10SM BKN043 OVC120 14/08 A3011 RMK AO2     SLP185 STNPR29810 T01390078 10156 20139 53009 $=,
20180124_130000.004,1,ROTM,,,,0,20180124120000,-1,-1,-1,-1,20,-1,9,-1,-1,-1,-1,,-1,0,0,1,OVC 48,1,14,1,7,1020,ROTM 241256Z 02009KT 10SM OVC048 14/07 A3012 RMK AO2 SLP189     STNPR29830 T01390072 $=,
20180124_140000.005,1,ROTM,,,,1,20180124130000,-1,-1,-1,-1,20,-1,8,-1,-1,-1,-1,,-1,0,0,2,SCT 50   OVC 120,1,14,1,7,1020,ROTM 241356Z AUTO 02008KT 10SM SCT050 OVC120 14/07 A3013 RMK     AO2 SLP191 STNPR29830 LAST T01390072 $=,
20180124_150000.004,1,ROTM,,,,1,20180124140000,-1,-1,-1,-1,30,-1,5,-1,-1,-1,-1,,-1,0,0,1,OVC 120,1,13,1,8,1020,ROTM 241456Z AUTO 03005KT 10SM OVC120 13/08 A3012 RMK AO2     SLP188 T01280078 401780128 50003 $=,
20180124_160000.004,1,ROTM,,,,1,20180124150000,-1,-1,-1,-1,30,-1,8,-1,-1,-1,-1,,-1,0,0,1,OVC 43,1,14,1,8,1020,ROTM 241556Z AUTO 03008KT 10SM OVC043 14/08 A3012 RMK AO2     SLP186 T01390078 $=,
20180124_170000.002,0,ROTM,,,,1,20180124160000,-1,-1,-1,-1,40,-1,6,-1,-1,-1,-1,,-1,0,0,2,SCT 50   OVC 120,1,13,1,8,1020,ROTM 241656Z AUTO 04006KT 10SM SCT050 OVC120 13/08 A3012 RMK     AO2 SLP186 T01330083 $=,
20180124_180000.002,0,ROTM,,,,1,20180124170000,-1,-1,-1,-1,40,-1,5,-1,-1,-1,-1,,-1,0,0,1,BKN 120,1,13,1,8,1019,ROTM 241756Z AUTO 04005KT 10SM BKN120 13/08 A3010 RMK AO2     SLP181 T01280083 10139 20128 58007 $=,
20180124_190000.005,1,ROTM,,,,1,20180124180000,-1,-1,-1,-1,30,-1,7,-1,-1,-1,-1,,-1,0,0,0,,1,13,1,9,1019,ROTM 241856Z AUTO 03007KT 10SM CLR 13/09 A3008 RMK AO2 SLP176     T01280089 $=,
20180124_200000.004,1,ROTM,,,,0,20180124190000,-1,-1,-1,-1,20,-1,6,-1,-1,-1,-1,,-1,0,0,2,SCT 50   SCT 120,1,13,1,8,1019,ROTM 241956Z 02006KT 10SM SCT050 SCT120 13/08 A3010 RMK AO2     SLP180 STNPR29785 T01280083 $=,
20180124_210000.005,1,ROTM,,,,0,20180124200000,-1,-1,-1,-1,30,-1,7,-1,-1,-1,-1,,-1,0,0,2,FEW 50   SCT 120,1,12,1,8,1019,ROTM 242056Z 03007KT 10SM FEW050 SCT120 12/08 A3010 RMK AO2     SLP181 STNPR29795 T01220083 55000 $=,
20180124_220000.004,1,ROTM,,,,1,20180124210000,-1,-1,-1,-1,50,-1,5,-1,-1,-1,-1,,-1,0,0,2,FEW 50   SCT 120,1,12,1,9,1020,ROTM 242156Z AUTO 05005KT 10SM FEW050 SCT120 12/09 A3012 RMK     AO2 SLP189 STNPR29800 T01220089=,
20180124_230000.004,1,ROTM,,,,0,20180124220000,-1,-1,-1,-1,50,-1,7,-1,-1,-1,-1,,-1,0,0,2,SCT 45   BKN 120,0,-1,0,-1,1020,ROTM 242256Z 05007KT 10SM SCT045 BKN120 A3013 RMK AO2 SLPNO     STNPR29825 $=,
20180124_230000.005,1,ROTM,,,,0,20180124220000,-1,-1,-1,-1,50,-1,7,-1,-1,-1,-1,,-1,0,0,2,SCT 45   BKN 120,0,-1,0,-1,1020,ROTM 242256Z 05007KT 10SM SCT045 BKN120 A3013 RMK SLP189     STNPR29825 T01220089=,
20180125_000000.004,1,ROTM,,,,1,20180124230000,-1,-1,-1,-1,50,-1,8,-1,-1,-1,-1,,-1,0,0,0,,1,14,1,11,1021,ROTM 242356Z AUTO 05008KT 10SM 14/11 A3015 RMK AO2 SLP197 6////     T01440106=,
20180125_000000.005,1,ROTM,,,,0,20180124230000,-1,-1,-1,-1,50,-1,8,-1,-1,-1,-1,,9999,0,0,2,SCT 45   BKN 120,1,14,1,11,1021,ROTM 242356Z 05008KT 9999 SCT045 BKN120 14/11 A3015 RMK     SLP197 STNPR29840 T01440106 10144 20122 51014=,
20180125_010000.004,1,ROTM,,,,1,20180125000000,-1,-1,-1,-1,50,-1,10,-1,-1,-1,-1,,-1,0,0,2,SCT 37   OVC 47,1,14,1,11,1021,ROTM 250056Z AUTO 05010KT 10SM SCT037 OVC047 14/11 A3015 RMK     AO2 SLP198 T01440111 $=,
20180125_010000.005,1,ROTM,,,,0,20180125000000,-1,-1,-1,-1,50,-1,10,-1,-1,-1,-1,,9999,0,0,2,SCT 37   BKN 50,1,14,1,11,1021,ROTM 250056Z 05010KT 9999 SCT037 BKN050 14/11 A3015 RMK     SLP198 STNPR29840 T01440111=,
20180125_020000.005,1,ROTM,,,,1,20180125010000,-1,-1,-1,-1,50,-1,11,-1,-1,-1,-1,,-1,0,0,1,FEW 25,1,17,1,11,1021,ROTM 250156Z AUTO 05011KT 10SM FEW025 17/11 A3014 RMK AO2     SLP194 T01670106 $=,
20180125_020000.006,1,ROTM,,,,0,20180125010000,-1,-1,-1,-1,50,-1,11,-1,-1,-1,-1,,9999,0,0,2,SCT 25   BKN 50,1,17,1,11,1021,ROTM 250156Z 05011KT 9999 SCT025 BKN050 17/11 A3014 RMK     SLP194 STNPR29840 T01670106=,
20180125_030000.004,1,ROTM,,,,0,20180125020000,-1,-1,-1,-1,40,-1,9,-1,-1,-1,-1,,9999,0,0,3,SCT 29   BKN 35   BKN 50,1,16,1,10,1020,ROTM 250247Z 04009KT 9999 SCT029 BKN035 BKN050 16/10 A3012     RMK SLP188 STNPR29820 T01610100=,
20180125_030000.005,1,ROTM,,,,0,20180125020000,-1,-1,-1,-1,40,-1,9,-1,-1,-1,-1,,9999,0,0,3,SCT 29   BKN 35   BKN 50,1,16,1,10,1020,ROTM 250256Z 04009KT 9999 SCT029 BKN035 BKN050 16/10 A3012     RMK SLP188 STNPR29820 T01610100 58007=,
20180125_040000.004,1,ROTM,,,,1,20180125030000,-1,-1,-1,-1,50,-1,9,-1,-1,-1,-1,,-1,0,0,2,BKN 31   OVC 50,1,17,1,10,1019,ROTM 250356Z AUTO 05009KT 10SM BKN031 OVC050 17/10 A3009 RMK     AO2 SLP176 T01670100 $=,
20180125_040000.005,1,ROTM,,,,0,20180125030000,-1,-1,-1,-1,40,-1,9,-1,-1,-1,-1,,9999,0,0,3,SCT 30   BKN 36   BKN 55,1,16,1,11,1020,ROTM 250327Z 04009KT 9999 SCT030 BKN036 BKN055 16/11 A3011     RMK SLP184 STNPR29810=,
20180125_040000.005,1,ROTM,,,,0,20180125030000,-1,-1,-1,-1,50,-1,11,-1,-1,-1,-1,,9999,0,0,3,SCT 29   BKN 36   BKN 55,1,16,1,10,1020,ROTM 250317Z 05011KT 9999 SCT029 BKN036 BKN055 16/10 A3011     RMK SLP184 STNPR29810=,
20180125_040000.006,1,ROTM,,,,0,20180125030000,-1,-1,-1,-1,50,-1,9,-1,-1,-1,-1,,9999,0,0,2,BKN 31   OVC 50,1,17,1,10,1019,ROTM 250356Z 05009KT 9999 BKN031 OVC050 17/10 A3009 RMK     SLP176 STNPR29780 T01670100=,
20180125_050000.004,1,ROTM,,,,1,20180125040000,-1,-1,-1,-1,30,-1,8,-1,-1,-1,-1,,-1,0,0,2,FEW 29   OVC 47,1,16,1,10,1018,ROTM 250456Z AUTO 03008KT 10SM FEW029 OVC047 16/10 A3007 RMK     AO2 SLP170 T01610100 $=,
20180125_050000.005,1,ROTM,,,,0,20180125040000,-1,-1,-1,-1,30,-1,8,-1,-1,-1,-1,,9999,0,0,2,SCT 29   OVC 47,1,16,1,10,1018,ROTM 250456Z 03008KT 9999 SCT029 OVC047 16/10 A3007 RMK     SLP170 STNPR29780 T01610100=,
20180125_060000.002,0,ROTM,,,,1,20180125050000,-1,-1,-1,-1,50,-1,8,-1,-1,-1,-1,,-1,0,0,1,OVC 45,1,16,1,10,1018,ROTM 250556Z AUTO 05008KT 10SM OVC045 16/10 A3005 RMK AO2     SLP165 T01560100 10183 20144 56023 $=,
20180125_060000.004,1,ROTM,,,,0,20180125050000,-1,-1,-1,-1,50,-1,8,-1,-1,-1,-1,,9999,0,0,1,OVC 45,1,16,1,10,1018,ROTM 250556Z 05008KT 9999 OVC045 16/10 A3005 RMK SLP165     STNPR29750 T01560100 10183 20144 56023=,
20180125_070000.002,0,ROTM,,,,1,20180125060000,-1,-1,-1,-1,50,-1,8,-1,-1,-1,-1,,-1,0,0,1,OVC 60,1,16,1,10,1018,ROTM 250656Z AUTO 05008KT 10SM OVC060 16/10 A3005 RMK AO2     SLP165 T01560100 $=,
20180125_070000.005,1,ROTM,,,,0,20180125060000,-1,-1,-1,-1,50,-1,8,-1,-1,-1,-1,,9999,0,0,1,OVC 60,1,16,1,10,1018,ROTM 250656Z 05008KT 9999 OVC060 16/10 A3005 RMK SLP165     STNPR29750 T01560100=,
20180125_080000.004,1,ROTM,,,,1,20180125070000,-1,-1,-1,-1,30,-1,9,-1,-1,-1,-1,,-1,0,0,2,BKN 49   OVC 60,1,15,1,10,1018,ROTM 250756Z AUTO 03009KT 10SM BKN049 OVC060 15/10 A3006 RMK     AO2 SLP167 T01500100 $=,
20180125_080000.005,1,ROTM,,,,0,20180125070000,-1,-1,-1,-1,30,-1,9,-1,-1,-1,-1,,9999,0,0,2,BKN 49   OVC 60,1,15,1,10,1018,ROTM 250756Z 03009KT 9999 BKN049 OVC060 15/10 A3006 RMK     SLP167 STNPR29755 T01500100=,
20180125_090000.002,0,ROTM,,,,0,20180125080000,-1,-1,-1,-1,20,-1,8,-1,-1,-1,-1,,9999,0,0,1,OVC 65,1,14,1,10,1018,ROTM 250856Z 02008KT 9999 OVC065 14/10 A3007 RMK SLP171     STNPR29765 T01440100 53006=,
20180125_090000.002,0,ROTM,,,,1,20180125080000,-1,-1,-1,-1,20,-1,8,-1,-1,-1,-1,,-1,0,0,1,OVC 65,1,14,1,10,1018,ROTM 250856Z AUTO 02008KT 10SM OVC065 14/10 A3007 RMK AO2     SLP171 T01440100 53006 $=,
20180125_100000.003,0,ROTM,,,,1,20180125090000,-1,-1,-1,-1,40,-1,6,-1,-1,-1,-1,,-1,0,0,1,OVC 65,1,14,1,10,1019,ROTM 250956Z AUTO 04006KT 10SM OVC065 14/10 A3008 RMK AO2     SLP175 T01390100 $=,
20180125_100000.005,1,ROTM,,,,0,20180125090000,-1,-1,-1,-1,40,-1,6,-1,-1,-1,-1,,-1,0,0,1,OVC 65,1,14,1,10,1019,ROTM 250956Z 04006KT 10SM OVC065 14/10 A3008 RMK SLP175     STNPR29780 T01390100=,
20180125_110000.005,1,ROTM,,,,1,20180125100000,-1,-1,-1,-1,50,-1,6,-1,-1,-1,-1,,-1,0,0,1,OVC 70,1,14,1,10,1019,ROTM 251056Z AUTO 05006KT 10SM OVC070 14/10 A3009 RMK AO2 SLPNO     T01440100 $=,
20180125_110000.006,1,ROTM,,,,0,20180125100000,-1,-1,-1,-1,50,-1,6,-1,-1,-1,-1,,-1,0,0,1,OVC 70,1,14,1,10,1019,ROTM 251056Z 05006KT 10SM OVC070 14/10 A3009 RMK SLP178     STNPR29785 T01440100=,
20180125_120000.004,1,ROTM,,,,1,20180125110000,-1,-1,-1,-1,999,-1,5,-1,-1,-1,-1,,-1,0,0,1,OVC 70,1,14,1,10,1019,ROTM 251156Z AUTO VRB05KT 10SM OVC070 14/10 A3010 RMK AO2     SLP181 7//// T01440100 10156 20139 51010 $=,
20180125_120000.005,1,ROTM,,,,0,20180125110000,-1,-1,-1,-1,999,-1,5,-1,-1,-1,-1,,-1,0,0,1,OVC 70,1,14,1,10,1019,ROTM 251156Z VRB05KT 10SM OVC070 14/10 A3010 RMK SLP181     STNPR29800 T01440100 10156 20139 51010=,
20180125_130000.002,0,ROTM,,,,1,20180125120000,-1,-1,-1,-1,50,-1,6,-1,-1,-1,-1,,-1,0,0,1,OVC 75,1,14,1,11,1019,ROTM 251256Z AUTO 05006KT 10SM OVC075 14/11 A3010 RMK AO2     SLP182 T01440106 $=,
20180125_130000.004,1,ROTM,,,,0,20180125120000,-1,-1,-1,-1,50,-1,6,-1,-1,-1,-1,,-1,0,0,1,OVC 75,1,14,1,11,1019,ROTM 251256Z 05006KT 10SM OVC075 14/11 A3010 RMK SLP182     STNPR29805 T01440106=,
20180125_140000.004,1,ROTM,,,,0,20180125130000,-1,-1,-1,-1,60,-1,6,-1,-1,-1,-1,,-1,0,0,2,FEW 47   OVC 80,1,14,1,10,1019,ROTM 251356Z 06006KT 10SM FEW047 OVC080 14/10 A3010 RMK     SLP181 STNPR29805 T01390100=,
20180125_140000.004,1,ROTM,,,,1,20180125130000,-1,-1,-1,-1,60,-1,6,-1,-1,-1,-1,,-1,0,0,2,FEW 47   OVC 80,1,14,1,10,1019,ROTM 251356Z AUTO 06006KT 10SM FEW047 OVC080 14/10 A3010 RMK     AO2 SLP181 T01390100 $=,
20180125_160000.004,1,ROTM,,,,1,20180125150000,-1,-1,-1,-1,40,-1,6,-1,-1,-1,-1,,-1,0,0,1,OVC 100,1,13,1,10,1019,ROTM 251556Z AUTO 04006KT 10SM OVC100 13/10 A3010 RMK AO2     SLP182 T01280100 $=,
20180125_170000.004,1,ROTM,,,,1,20180125160000,-1,-1,-1,-1,20,-1,4,-1,-1,-1,-1,,-1,0,0,3,BKN 50   BKN 75   OVC 95,0,-1,0,-1,1019,ROTM 251656Z AUTO 02004KT 10SM BKN050 BKN075 OVC095 13/ A3010     RMK AO2 SLP182 T0133 $=,
20180125_180000.002,0,ROTM,,,,1,20180125170000,-1,-1,-1,-1,20,-1,6,-1,-1,-1,-1,,-1,0,0,1,BKN 100,0,-1,0,-1,1019,ROTM 251756Z AUTO 02006KT 10SM BKN100 13/ A3008 RMK AO2 SLP174     T0128 10144 20122 58008 $=,
20180125_190000.004,1,ROTM,,,,1,20180125180000,-1,-1,-1,-1,30,-1,5,-1,-1,-1,-1,,-1,0,0,1,OVC 95,0,-1,0,-1,1018,ROTM 251856Z AUTO 03005KT 10SM OVC095 13/ A3006 RMK AO2 SLP169     T0133 $=,
20180125_200000.005,1,ROTM,,,,0,20180125190000,-1,-1,-1,-1,50,-1,5,-1,-1,-1,-1,,9999,0,0,2,BKN 40   BKN 100,1,14,1,13,1018,ROTM 251956Z 05005KT 9999 BKN040 BKN100 14/13 A3007 RMK     SLP171 STNPR29770 T01390133=,
20180125_200000.005,1,ROTM,,,,1,20180125190000,-1,-1,-1,-1,50,-1,5,-1,-1,-1,-1,,-1,0,0,3,BKN 39   BKN 75   OVC 100,0,-1,0,-1,1018,ROTM 251956Z AUTO 05005KT 10SM BKN039 BKN075 OVC100 14/ A3007     RMK AO2 SLP171 T0139 $=,
20180125_210000.004,1,ROTM,,,,1,20180125200000,-1,-1,-1,-1,10,-1,5,-1,-1,-1,-1,,-1,0,0,3,SCT 16   SCT 22   OVC 35,0,-1,0,-1,1019,ROTM 252056Z AUTO 01005KT 10SM SCT016 SCT022 OVC035 14/ A3008     RMK AO2 SLP175 T0139 53000 $=,
20180125_210000.005,1,ROTM,,,,0,20180125200000,-1,-1,-1,-1,10,-1,5,-1,-1,-1,-1,,9999,0,0,3,SCT 15   BKN 40   BKN 100,1,14,1,12,1019,ROTM 252056Z 01005KT 9999 SCT015 BKN040 BKN100 14/12 A3008     RMK SLP175 STNPR29770 T01390118 5////=,
20180125_220000.004,1,ROTM,,,,1,20180125210000,-1,-1,-1,-1,20,-1,6,-1,-1,-1,-1,,-1,0,0,1,OVC 35,0,-1,0,-1,1019,ROTM 252156Z AUTO 02006KT 10SM OVC035 14/ A3009 RMK AO2 SLP179     T0139 $=,
20180125_223000.000,1,ROTM,,,,0,20180125210000,-1,-1,-1,-1,20,-1,6,-1,-1,-1,-1,,9999,0,0,3,SCT 15   BKN 25   BKN 35,1,14,1,12,1019,ROTM 252156Z 02006KT 9999 SCT015 BKN025 BKN035 14/12 A3009     RMK SLP179 STNPR29800 T01390118=,
20180125_230000.004,1,ROTM,,,,1,20180125220000,-1,-1,-1,-1,360,-1,8,-1,-1,-1,-1,,-1,0,0,2,BKN 18   OVC 25,0,-1,0,-1,1020,ROTM 252256Z AUTO 36008KT 10SM BKN018 OVC025 14/ A3012 RMK AO2     SLP187 T0139 $=,
20180126_000000.004,0,ROTM,,,,1,20180125230000,-1,-1,-1,-1,20,-1,9,-1,15,-1,-1,,-1,0,0,3,SCT 10   SCT 14   OVC 26,0,-1,0,-1,1020,ROTM 252356Z AUTO 02009G15KT 8SM SCT010 SCT014 OVC026 13/ A3013     RMK AO2 RAB13E52 SLP192 P0000 60000 T0133 10139 20128 $=,
20180126_010000.002,0,ROTM,,,,0,20180126000000,-1,-1,-1,-1,10,-1,9,-1,-1,-1,-1,,-1,0,0,3,SCT 11   BKN 16   OVC 38,1,14,1,14,1021,ROTM 260056Z 01009KT 10SM SCT011 BKN016 OVC038 14/14 A3015 RMK     AO2 RAB40E49 SLP199 STNPR29850 P0000 T01390139 $=,
20180126_030000.004,1,ROTM,,,,0,20180126020000,-1,-1,-1,-1,10,-1,13,-1,21,-1,-1,,-1,0,1,3,SCT 12   BKN 20   OVC 28,0,-1,0,-1,1021,ROTM 260256Z 01013G21KT 5SM BR SCT012 BKN020 OVC028 13/ A3014     RMK AO2 RAE46 SLP196 STNPR29840 P0000 60000 T0133 $=,BR
20180126_030000.007,1,ROTM,,,,0,20180126020000,-1,-1,-1,-1,10,-1,13,-1,21,-1,-1,,8000,0,2,3,SCT 12   BKN 20   OVC 38,1,13,1,13,1021,ROTM 260256Z 01013G21KT 8000 -RA BR SCT012 BKN020 OVC038     13/13 A3014 RMK RAB50 SLP196 STNPR29840 P0000 60000           T01330128=,- RA; BR
20180126_040000.004,1,ROTM,,,,0,20180126030000,-1,-1,-1,-1,20,-1,12,-1,22,-1,-1,,-1,0,2,3,BKN 17   BKN 22   OVC 33,1,13,1,11,1020,ROTM 260356Z 02012G22KT 5SM -RA BR BKN017 BKN022 OVC033 13/11     A3012 RMK AO2 PK WND 01026/0339 RAB0259E13B42 SLP189 P0001           T01280111 $=,- RA; BR
20180126_050000.002,0,ROTM,,,,0,20180126040000,-1,-1,-1,-1,10,-1,13,-1,23,-1,-1,,-1,0,1,3,FEW 20   SCT 28   OVC 36,0,-1,0,-1,1020,ROTM 260456Z 01013G23KT 10SM BR FEW020 SCT028 OVC036 13/ A3011     RMK AO2 RAE13 SLP185 P0000 T0133 $=,BR
20180126_050000.004,1,ROTM,,,,0,20180126030000,-1,-1,-1,-1,20,-1,12,-1,22,-1,-1,,8000,0,2,3,BKN 17   BKN 22   OVC 33,1,13,1,11,1020,ROTM 260356Z 02012G22KT 8000 -RA BR BKN017 BKN022 OVC033     13/11 A3012 RMK PK WND 01026/3339 SLP189 STNPR29815 P0001           T0128011=,- RA; BR
20180126_050000.004,1,ROTM,,,,0,20180126040000,-1,-1,-1,-1,10,-1,13,-1,23,-1,-1,,9000,0,1,3,FEW 20   SCT 28   OVC 36,1,13,1,11,1020,ROTM 260456Z 01013G23KT 9000 BR FEW020 SCT028 OVC036 13/11     A3011 RMK RAE13 SLP185 STNPR29800 P0000 T01330106=,BR
20180126_060000.004,1,ROTM,,,,0,20180126050000,-1,-1,-1,-1,360,-1,14,-1,-1,-1,-1,,-1,0,1,3,SCT 22   SCT 30   OVC 40,1,13,1,10,1019,ROTM 260556Z 36014KT 6SM BR SCT022 SCT030 OVC040 13/10 A3010     RMK AO2 SLP183 STNPR29800 60001 T01330100 10139 20128           56007 $=,BR
20180126_070000.004,1,ROTM,,,,0,20180126060000,-1,-1,-1,-1,10,-1,16,-1,22,-1,-1,,-1,0,1,2,SCT 20   OVC 33,1,13,1,9,1020,ROTM 260656Z 01016G22KT 6SM BR SCT020 OVC033 13/09 A3011 RMK     AO2 SLP185 SLP184 STNPR29810 T01330094 $=,BR
20180126_080000.005,1,ROTM,,,,0,20180126070000,-1,-1,-1,-1,360,-1,15,-1,21,-1,-1,,-1,0,0,2,SCT 25   OVC 37,1,13,1,9,1020,ROTM 260756Z 36015G21KT 7SM SCT025 OVC037 13/09 A3012 RMK AO2     SLP189 SLP187 STNPR29810 T01280094 $=,
20180126_090000.004,1,ROTM,,,,0,20180126080000,-1,-1,-1,-1,10,-1,15,-1,23,-1,-1,,-1,0,0,2,SCT 27   OVC 33,1,12,1,9,1021,ROTM 260856Z 01015G23KT 10SM SCT027 OVC033 12/09 A3014 RMK AO2     RAB16E20DZB20E52 SLP196 STNPR29840 P0000 60000 T01220094           53011 $=,
20180126_090000.005,1,ROTM,,,,0,20180126080000,-1,-1,-1,-1,10,-1,15,-1,23,-1,-1,,9999,0,1,2,SCT 27   OVC 33,1,12,1,9,1021,ROTM 260856Z 01015G23KT 9999 BR SCT027 OVC033 12/09 A3014     RMK SLP196 STNPR29840 60000 T01220094 53011=,BR
20180126_100000.004,1,ROTM,,,,0,20180126090000,-1,-1,-1,-1,10,-1,12,-1,18,-1,-1,,-1,0,1,3,FEW 23   SCT 28   OVC 39,1,12,1,9,1021,ROTM 260956Z 01012G18KT 10SM BR FEW023 SCT028 OVC039 12/09     A3016 RMK AO2 SLP201 SLP198 STNPR29850 T01170094 $=,BR
20180126_100000.005,1,ROTM,,,,0,20180126090000,-1,-1,-1,-1,10,-1,12,-1,18,-1,-1,,-1,0,0,3,FEW 20   BKN 25   OVC 40,1,12,1,9,1021,ROTM 260956Z 01012G18KT 10SM FEW020 BKN025 OVC040 12/09     A3016 RMK SLP201 STNPR29855 T01170094=,
20180126_110000.004,1,ROTM,,,,0,20180126100000,-1,-1,-1,-1,360,-1,14,-1,18,-1,-1,,-1,0,0,2,BKN 25   OVC 40,1,12,1,8,1022,ROTM 261056Z 36014G18KT 10SM BKN025 OVC040 12/08 A3017 RMK AO2     SLP204 STNPR29865 T01220083 $=,
20180126_120000.004,1,ROTM,,,,0,20180126110000,-1,-1,-1,-1,10,-1,11,-1,19,-1,-1,,-1,0,0,3,SCT 20   BKN 25   OVC 40,1,13,1,8,1022,ROTM 261156Z 01011G19KT 10SM SCT020 BKN025 OVC040 13/08 A3018     RMK AO2 SLP207 STNPR29875 60000 70001 T01280078 10133           20117 51012 $=,
20180126_130000.002,0,ROTM,,,,0,20180126120000,-1,-1,-1,-1,10,-1,9,-1,-1,-1,-1,,-1,0,0,3,FEW 20   BKN 30   OVC 40,1,12,1,8,1022,ROTM 261256Z 01009KT 10SM FEW020 BKN030 OVC040 12/08 A3018 RMK     AO2 SLP208 STNPR29880 T01220078 $=,
20180126_140000.004,1,ROTM,,,,0,20180126130000,-1,-1,-1,-1,10,-1,9,-1,-1,-1,-1,,-1,0,0,2,BKN 30   OVC 45,1,12,1,7,1022,ROTM 261356Z 01009KT 10SM BKN030 OVC045 12/07 A3019 RMK AO2     SLP211 STNPR29885 T01220072 $=,
20180126_150000.002,0,ROTM,,,,0,20180126140000,-1,-1,-1,-1,30,-1,7,-1,-1,-1,-1,,-1,0,0,1,OVC 38,1,12,1,7,1022,ROTM 261456Z 03007KT 10SM OVC038 12/07 A3018 RMK AO2 SLP208     T01220072 401390117 50000 $=,
20180126_160000.002,0,ROTM,,,,0,20180126150000,-1,-1,-1,-1,30,-1,7,-1,-1,-1,-1,,-1,0,0,2,BKN 35   OVC 46,1,12,1,7,1022,ROTM 261556Z 03007KT 10SM BKN035 OVC046 12/07 A3017 RMK AO2     SLP205 T01220067 $=,
20180126_170000.004,1,ROTM,,,,0,20180126160000,-1,-1,-1,-1,30,-1,5,-1,-1,-1,-1,,-1,0,0,1,BKN 46,1,11,1,6,1022,ROTM 261656Z 03005KT 10SM BKN046 11/06 A3017 RMK AO2 SLP206     T01110061 $=,
20180126_180000.004,1,ROTM,,,,0,20180126170000,-1,-1,-1,-1,40,-1,5,-1,-1,-1,-1,,-1,0,0,1,OVC 33,1,12,1,7,1021,ROTM 261756Z 04005KT 10SM OVC033 12/07 A3016 RMK AO2 SLP201     T01220072 10128 20111 58006 $=,
20180126_190000.004,1,ROTM,,,,1,20180126180000,-1,-1,-1,-1,60,-1,4,-1,-1,-1,-1,,-1,0,0,1,OVC 40,1,12,1,8,1021,ROTM 261856Z AUTO 06004KT 10SM OVC040 12/08 A3014 RMK AO2     SLP195 T01220078 $=,
20180126_200000.005,1,ROTM,,,,1,20180126190000,-1,-1,-1,-1,40,-1,6,-1,-1,-1,-1,,-1,0,0,1,OVC 36,1,13,1,8,1021,ROTM 261956Z AUTO 04006KT 10SM OVC036 13/08 A3015 RMK AO2     SLP197 T01280078 $=,
20180126_210000.004,1,ROTM,,,,1,20180126200000,-1,-1,-1,-1,50,-1,4,-1,-1,-1,-1,,-1,0,0,1,OVC 35,1,12,1,8,1022,ROTM 262056Z AUTO 05004KT 10SM OVC035 12/08 A3017 RMK AO2     SLP204 T01220078 53002 $=,
20180126_220000.004,1,ROTM,,,,1,20180126210000,-1,-1,-1,-1,20,-1,4,-1,-1,-1,-1,,-1,0,0,1,OVC 35,1,13,1,8,1022,ROTM 262156Z AUTO 02004KT 10SM OVC035 13/08 A3018 RMK AO2     SLP211 T01280078 $=,
20180127_000000.004,1,ROTM,,,,1,20180126230000,-1,-1,-1,-1,40,-1,6,-1,-1,-1,-1,,-1,0,0,1,OVC 38,1,13,1,7,1023,ROTM 262356Z AUTO 04006KT 10SM OVC038 13/07 A3022 RMK AO2     SLP221 T01330072 10133 20117 53018 $=,
20180127_010000.002,0,ROTM,,,,0,20180127000000,-1,-1,-1,-1,40,-1,8,-1,-1,-1,-1,,-1,0,0,1,OVC 40,1,14,1,7,1023,ROTM 270056Z 04008KT 10SM OVC040 14/07 A3021 RMK AO2 SLP219     STNPR29910 T01390072 $=,
20180127_020000.004,1,ROTM,,,,0,20180127010000,-1,-1,-1,-1,70,-1,8,-1,-1,-1,-1,,-1,0,0,1,OVC 50,1,15,1,7,1023,ROTM 270156Z 07008KT 10SM OVC050 15/07 A3021 RMK AO2 SLP217     STNPR29910 T01500072 $=,
20180127_030000.004,1,ROTM,,,,0,20180127020000,-1,-1,-1,-1,30,-1,10,-1,-1,-1,-1,,-1,0,0,1,OVC 50,1,16,1,8,1022,ROTM 270256Z 03010KT 10SM OVC050 16/08 A3019 RMK AO2 SLP210     STNPR29890 T01560078 58011 $=,
20180127_040000.004,1,ROTM,,,,0,20180127030000,-1,-1,-1,-1,20,-1,9,-1,-1,-1,-1,,-1,0,0,1,OVC 47,1,16,1,8,1021,ROTM 270356Z 02009KT 10SM OVC047 16/08 A3015 RMK AO2 SLP198     T01560083 $=,
20180127_050000.002,0,ROTM,,,,0,20180127040000,-1,-1,-1,-1,40,-1,8,-1,-1,-1,-1,,-1,0,0,2,BKN 35   OVC 47,1,16,1,8,1020,ROTM 270456Z 04008KT 10SM BKN035 OVC047 16/08 A3012 RMK AO2     SLP187 T01610083 $=,
20180127_050000.004,1,ROTM,,,,0,20180127030000,-1,-1,-1,-1,20,-1,9,-1,-1,-1,-1,,-1,0,0,1,OVC 47,1,16,1,8,1021,ROTM 270356Z 02009KT 10SM OVC047 16/08 A3015 RMK SLP198     STNPR29850 T01560083=,
20180127_050000.004,1,ROTM,,,,0,20180127040000,-1,-1,-1,-1,40,-1,8,-1,-1,-1,-1,,-1,0,0,1,OVC 47,1,16,1,8,1020,ROTM 270456Z 04008KT 10SM OVC047 16/08 A3012 RMK SLP187     STNPR29815 T01610083=,
20180127_060000.005,1,ROTM,,,,0,20180127050000,-1,-1,-1,-1,40,-1,8,-1,-1,-1,-1,,-1,0,0,1,OVC 47,1,16,1,8,1020,ROTM 270556Z 04008KT 10SM OVC047 16/08 A3011 RMK PRESFR SLP184     STNPR29810 T01560083 10172 20133 56026=,
20180127_070000.004,1,ROTM,,,,0,20180127060000,-1,-1,-1,-1,40,-1,6,-1,-1,-1,-1,,-1,0,0,1,OVC 48,1,16,1,7,1019,ROTM 270656Z 04006KT 10SM OVC048 16/07 A3010 RMK AO2 SLP182     STNPR29805 T01560072 $=,
20180127_090000.003,1,ROTM,,,,0,20180127070000,-1,-1,-1,-1,30,-1,6,-1,-1,-1,-1,,-1,0,0,1,OVC 48,1,16,1,8,1019,ROTM 270756Z 03006KT 10SM OVC048 16/08 A3010 RMK SLP180     STNPR29800 T01560083=,
20180127_090000.005,1,ROTM,,,,0,20180127080000,-1,-1,-1,-1,50,-1,7,-1,-1,-1,-1,,-1,0,0,1,OVC 50,1,14,1,8,1020,ROTM 270856Z 05007KT 10SM OVC050 14/08 A3011 RMK AO2 SLP184     STNPR29810 T01440078 55000 $=,
20180127_100000.004,1,ROTM,,,,0,20180127090000,-1,-1,-1,-1,70,-1,5,-1,-1,-1,-1,,-1,0,0,1,OVC 47,1,14,1,8,1020,ROTM 270956Z 07005KT 10SM OVC047 14/08 A3011 RMK AO2 SLP186     T01440083 $=,
20180127_110000.004,1,ROTM,,,,0,20180127100000,-1,-1,-1,-1,40,-1,4,-1,-1,-1,-1,,-1,0,0,1,OVC 46,1,14,1,9,1020,ROTM 271056Z 04004KT 10SM OVC046 14/09 A3013 RMK AO2 SLP192     T01440094 $=,
20180127_120000.004,1,ROTM,,,,0,20180127110000,-1,-1,-1,-1,70,-1,7,-1,-1,-1,-1,,-1,0,0,1,OVC 44,1,15,1,9,1020,ROTM 271156Z 07007KT 10SM OVC044 15/09 A3013 RMK AO2 SLP190     T01500089 10167 20139 50006 $=,
20180127_130000.004,1,ROTM,,,,0,20180127120000,-1,-1,-1,-1,50,-1,3,-1,-1,-1,-1,,-1,0,0,1,OVC 41,1,14,1,9,1020,ROTM 271256Z 05003KT 10SM OVC041 14/09 A3013 RMK AO2 SLP191     T01440094 $=,
20180127_140000.001,0,ROTM,,,,0,20180127130000,-1,-1,-1,-1,70,-1,6,-1,-1,-1,-1,,-1,0,0,1,OVC 35,1,15,1,10,1020,ROTM 271356Z 07006KT 10SM OVC035 15/10 A3011 RMK AO2 SLP184     T01500100 $=,
20180127_150000.004,1,ROTM,,,,1,20180127140000,-1,-1,-1,-1,50,-1,3,-1,-1,-1,-1,,-1,0,0,1,OVC 33,1,15,1,11,1020,ROTM 271456Z AUTO 05003KT 10SM OVC033 15/11 A3012 RMK AO2     SLP186 T01500106 401720111 55003 $=,
20180127_160000.004,1,ROTM,,,,1,20180127150000,-1,-1,-1,-1,60,-1,4,-1,-1,-1,-1,,-1,0,0,2,FEW 30   OVC 50,1,15,1,11,1019,ROTM 271556Z AUTO 06004KT 10SM FEW030 OVC050 15/11 A3010 RMK     AO2 SLP179 T01500111 $=,
20180127_170000.002,0,ROTM,,,,1,20180127160000,-1,-1,-1,-1,100,-1,4,-1,-1,-1,-1,,-1,0,0,1,OVC 44,1,16,1,11,1018,ROTM 271656Z AUTO 10004KT 10SM OVC044 16/11 A3007 RMK AO2     SLP172 T01560111 $=,
20180127_180000.004,1,ROTM,,,,1,20180127170000,-1,-1,-1,-1,100,-1,4,-1,-1,-1,-1,,-1,0,0,1,BKN 50,1,16,1,11,1017,ROTM 271756Z AUTO 10004KT 10SM BKN050 16/11 A3004 RMK AO2     SLP161 T01560106 10161 20144 58024 $=,
20180127_190000.004,1,ROTM,,,,1,20180127180000,-1,-1,-1,-1,0,-1,0,-1,-1,-1,-1,,-1,0,0,2,BKN 28   BKN 48,1,15,1,11,1017,ROTM 271856Z AUTO 00000KT 10SM BKN028 BKN048 15/11 A3004 RMK     AO2 SLP159 T01500111 $=,
20180127_200000.002,0,ROTM,,,,1,20180127190000,-1,-1,-1,-1,0,-1,0,-1,-1,-1,-1,,-1,0,0,2,FEW 27   OVC 41,1,14,1,12,1017,ROTM 271956Z AUTO 00000KT 10SM FEW027 OVC041 14/12 A3003 RMK     AO2 SLP157 T01440117 $=,
20180127_210000.004,1,ROTM,,,,1,20180127200000,-1,-1,-1,-1,30,-1,3,-1,-1,-1,-1,,-1,0,0,2,FEW 40   OVC 49,1,15,1,12,1017,ROTM 272056Z AUTO 03003KT 10SM FEW040 OVC049 15/12 A3003 RMK     AO2 SLP158 T01500122 55004 $=,
20180127_220000.004,1,ROTM,,,,1,20180127210000,-1,-1,-1,-1,130,-1,7,-1,-1,-1,-1,,-1,0,0,0,,1,16,1,12,1016,ROTM 272156Z AUTO 13007KT 10SM CLR 16/12 A3001 RMK AO2 SLP149     T01610122 $=,
20180127_230000.004,1,ROTM,,,,1,20180127220000,-1,-1,-1,-1,130,-1,7,-1,-1,-1,-1,,-1,0,0,0,,1,17,1,13,1016,ROTM 272256Z AUTO 13007KT 10SM CLR 17/13 A3000 RMK AO2 SLP147     T01720128 $=,
20180128_000000.005,1,ROTM,,,,1,20180127230000,-1,-1,-1,-1,140,-1,12,-1,22,-1,-1,,-1,0,0,1,BKN 80,1,18,1,13,1015,ROTM 272356Z AUTO 14012G22KT 10SM BKN080 18/13 A2998 RMK AO2     SLP141 T01830128 10183 20139 56016 $=,
20180128_010000.002,0,ROTM,,,,1,20180128000000,-1,-1,-1,-1,150,-1,12,-1,20,-1,-1,,-1,0,0,1,OVC 85,1,19,1,13,1016,ROTM 280056Z AUTO 15012G20KT 10SM OVC085 19/13 A2999 RMK AO2     SLP143 T01890128 $=,
20180128_020000.004,1,ROTM,,,,1,20180128010000,-1,-1,-1,-1,170,-1,10,-1,-1,-1,-1,,-1,0,0,3,FEW 38   BKN 49   OVC 65,1,19,1,14,1016,ROTM 280156Z AUTO 17010KT 10SM FEW038 BKN049 OVC065 19/14 A3000     RMK AO2 RAB43E52 SLP148 P0000 T01940139 $=,
20180128_030000.004,1,ROTM,,,,1,20180128020000,-1,-1,-1,-1,160,-1,11,-1,-1,-1,-1,,-1,0,0,2,FEW 30   OVC 60,1,20,1,15,1015,ROTM 280256Z AUTO 16011KT 10SM FEW030 OVC060 20/15 A2998 RMK     AO2 SLP138 60000 T02000150 58003 $=,
20180128_040000.004,1,ROTM,,,,1,20180128030000,-1,-1,-1,-1,150,-1,13,-1,21,-1,-1,,-1,0,0,2,FEW 25   OVC 65,1,21,1,15,1014,ROTM 280356Z AUTO 15013G21KT 10SM FEW025 OVC065 21/15 A2993 RMK     AO2 SLP123 T02060150 $=,
20180128_050000.004,1,ROTM,,,,1,20180128040000,-1,-1,-1,-1,160,-1,13,-1,20,-1,-1,,-1,0,0,3,FEW 26   BKN 35   OVC 65,1,20,1,16,1012,ROTM 280456Z AUTO 16013G20KT 10SM FEW026 BKN035 OVC065 20/16     A2989 RMK AO2 PRESFR SLP108 T02000156 $=,
20180128_070000.005,1,ROTM,,,,1,20180128060000,-1,-1,-1,-1,170,-1,10,-1,19,-1,-1,,-1,0,1,3,FEW 28   BKN 46   OVC 80,1,19,1,16,1011,ROTM 280656Z AUTO 17010G19KT 8SM -RA FEW028 BKN046 OVC080 19/16     A2986 RMK AO2 RAB06 SLP098 P0001 T01940161 $=,- RA
20180128_080000.004,1,ROTM,,,,1,20180128070000,-1,-1,-1,-1,170,-1,14,-1,23,-1,-1,,-1,0,0,3,FEW 45   BKN 80   OVC 90,1,20,1,16,1011,ROTM 280756Z AUTO 17014G23KT 10SM FEW045 BKN080 OVC090 20/16     A2985 RMK AO2 RAE08 SLP094 P0000 T02000156 $=,
20180128_100000.004,1,ROTM,,,,1,20180128090000,-1,-1,-1,-1,190,-1,12,-1,21,-1,-1,,-1,0,0,3,SCT 43   BKN 50   OVC 65,1,21,1,16,1011,ROTM 280956Z AUTO 19012G21KT 10SM SCT043 BKN050 OVC065 21/16     A2986 RMK AO2 PK WND 17026/0900 SLP097 T02060161 $=,
20180128_110000.004,1,ROTM,,,,1,20180128100000,-1,-1,-1,-1,200,-1,14,-1,21,-1,-1,,-1,0,0,3,FEW 26   BKN 41   OVC 50,1,21,1,17,1011,ROTM 281056Z AUTO 20014G21KT 10SM FEW026 BKN041 OVC050 21/17     A2987 RMK AO2 RAB31E40 SLP102 P0000 T02060167 $=,
20180128_120000.004,1,ROTM,,,,1,20180128110000,-1,-1,-1,-1,230,-1,12,-1,22,-1,-1,,-1,0,2,3,SCT 12   BKN 30   OVC 40,1,18,1,18,1013,ROTM 281156Z AUTO 23012G22KT 3SM RA BR SCT012 BKN030 OVC040     18/18 A2991 RMK AO2 RAB08 SLP114 P0006 60007 70007           T01830178 10206 20183 53022 $=,RA; BR
20180128_130000.004,1,ROTM,,,,1,20180128120000,-1,-1,-1,-1,210,-1,12,-1,-1,-1,-1,,-1,0,1,3,FEW 6   BKN 50   OVC 65,0,-1,0,-1,1013,ROTM 281256Z AUTO 21012KT 5SM -RA FEW006 BKN050 OVC065 18/     A2991 RMK AO2 SLP115 P0035 T0183 $=,- RA
20180128_150000.004,1,ROTM,,,,1,20180128140000,-1,-1,-1,-1,360,-1,16,-1,22,-1,-1,,-1,0,1,1,OVC 12,1,16,1,15,1014,ROTM 281456Z AUTO 36016G22KT 10SM -RA OVC012 16/15 A2994 RMK     AO2 PK WND 01028/1400 WSHFT 1344 SLP125 P0003 60046           T01560150 402060139 53010 $=,- RA
20180128_160000.002,0,ROTM,,,,1,20180128150000,-1,-1,-1,-1,10,-1,10,-1,18,-1,-1,,-1,0,1,2,SCT 13   OVC 21,0,-1,0,-1,1014,ROTM 281556Z AUTO 01010G18KT 10SM -RA SCT013 OVC021 15/ A2993     RMK AO2 SLP123 P0001 T0150 $=,- RA
20180128_180000.002,0,ROTM,,,,1,20180128170000,-1,-1,-1,-1,360,-1,15,-1,21,-1,-1,,-1,0,1,1,OVC 7,0,-1,0,-1,1014,ROTM 281756Z AUTO 36015G21KT 4SM -RA OVC007 14/ A2995 RMK AO2     PK WND 34026/1705 CIG 005V012 SLP129 P0001 60049 T0144           10183 20144 53004 $=,- RA
20180128_190000.001,0,ROTM,,,,1,20180128180000,-1,-1,-1,-1,360,-1,14,-1,23,-1,-1,,-1,0,0,3,SCT 16   BKN 25   OVC 30,0,-1,0,-1,1015,METAR ROTM 281856Z AUTO 36014G23KT 7SM SCT016 BKN025 OVC030 14/ A2996           RMK AO2 PK WND 01026/1826 RAE09B26E38 SLP131 P0000 T0139,
20180128_200000.004,1,ROTM,,,,0,20180128190000,-1,-1,-1,-1,360,-1,15,-1,21,-1,-1,,-1,0,0,3,SCT 15   BKN 30   OVC 35,1,14,1,14,1014,ROTM 281956Z 36015G21KT 10SM SCT015 BKN030 OVC035 14/14 A2995     RMK AO2 PK WND 01026/1909 RAB01E12 SLP129 STNPR29650 P0000           T01390139 $=,
20180128_210000.005,1,ROTM,,,,0,20180128200000,-1,-1,-1,-1,360,-1,17,-1,22,-1,-1,,-1,0,0,3,BKN 16   BKN 22   OVC 28,1,14,1,14,1015,ROTM 282056Z 36017G22KT 9SM BKN016 BKN022 OVC028 14/14 A2998     RMK AO2 PK WND 01028/2019 SLP140 STNPR29650 60000           T01440144 53010=,
20180128_220000.005,1,ROTM,,,,0,20180128210000,-1,-1,-1,-1,360,-1,14,-1,22,-1,-1,,-1,0,0,3,SCT 10   BKN 20   OVC 30,1,14,1,14,1016,ROTM 282156Z 36014G22KT 10SM SCT010 BKN020 OVC030 14/14 A3001     RMK AO2 RAB01E13 SLP151 STNPR29705 P0000 T01390139=,
20180128_230000.002,0,ROTM,,,,0,20180128220000,-1,-1,-1,-1,360,-1,9,-1,-1,-1,-1,,-1,0,0,2,BKN 25   OVC 30,1,14,1,14,1017,ROTM 282256Z 36009KT 10SM BKN025 OVC030 14/14 A3004 RMK AO2     SLP160 STNPR29720 T01440144=,
20180129_000000.005,1,ROTM,,,,0,20180128230000,-1,-1,-1,-1,20,-1,11,-1,-1,-1,-1,,-1,0,0,2,BKN 26   OVC 33,1,14,1,14,1017,ROTM 282356Z 02011KT 10SM BKN026 OVC033 14/14 A3003 RMK AO2     SLP156 STNPR29730 60000 T01440133 10144 20139 50015=,
20180129_010000.002,0,ROTM,,,,0,20180129000000,-1,-1,-1,-1,10,-1,12,-1,18,-1,-1,,-1,0,0,1,OVC 25,1,14,1,14,1018,ROTM 290056Z 01012G18KT 9SM OVC025 14/14 A3006 RMK AO2 SLP166     STNPR29730 T01440139=,
20180129_020000.004,1,ROTM,,,,0,20180129010000,-1,-1,-1,-1,350,-1,16,-1,21,-1,-1,,-1,0,0,2,BKN 25   OVC 29,1,14,1,11,1019,ROTM 290156Z 35016G21KT 10SM BKN025 OVC029 14/11 A3009 RMK AO2     SLP177 STNPR29785 T01390111=,
20180129_030000.004,1,ROTM,,,,0,20180129020000,-1,-1,-1,-1,360,-1,10,-1,-1,-1,-1,,-1,0,2,2,SCT 20   OVC 30,1,13,1,12,1019,ROTM 290256Z 36010KT 3SM -RA BR SCT020 OVC030 13/12 A3008 RMK     AO2 SFC VIS 4 RAB17 SLP175 STNPR29785 P0001 60001           T01330122 50019 $=,- RA; BR
20180129_040000.004,1,ROTM,,,,0,20180129030000,-1,-1,-1,-1,20,-1,9,-1,-1,-1,-1,,-1,0,1,3,FEW 15   BKN 25   OVC 35,1,13,1,13,1018,ROTM 290356Z 02009KT 3SM BR FEW015 BKN025 OVC035 13/13 A3006     RMK AO2 SFC VIS 5 RAE06B45E56 SLP167 STNPR29760 P0001           T01280128 $=,BR
20180129_040000.005,1,ROTM,,,,0,20180129040000,-1,-1,-1,-1,20,-1,9,-1,-1,-1,-1,,-1,0,2,3,BKN 21   BKN 29   OVC 35,1,13,1,13,1018,ROTM 290413Z 02009KT 3SM -RA BR BKN021 BKN029 OVC035 13/13     A3005 RMK SFC VIS 5 SLP163 STNPR29745=,- RA; BR
20180129_050000.004,1,ROTM,,,,0,20180129040000,-1,-1,-1,-1,30,-1,7,-1,-1,-1,-1,,-1,0,1,3,FEW 19   SCT 24   OVC 30,1,13,1,13,1017,ROTM 290456Z 03007KT 5SM BR FEW019 SCT024 OVC030 13/13 A3003     RMK AO2 RAB08E16 SLP157 STNPR29735 P0000 T01280128 $=,BR
20180129_050000.005,1,ROTM,,,,0,20180129040000,-1,-1,-1,-1,30,-1,7,-1,-1,-1,-1,,-1,0,1,3,FEW 20   BKN 25   OVC 35,1,13,1,13,1017,ROTM 290456Z 03007KT 5SM BR FEW020 BKN025 OVC035 13/13     A3003 RMK SLP157 STNPR29735 P0000 T01280128=,BR
20180129_050000.006,1,ROTM,,,,0,20180129050000,-1,-1,-1,-1,20,-1,8,-1,-1,-1,-1,,-1,0,2,3,SCT 20   BKN 25   OVC 35,1,13,1,11,1017,ROTM 290529Z 02008KT 4SM -RA BR SCT020 BKN025 OVC035 13/11     A3003 RMK SLP159 STNPR29735=,- RA; BR
20180129_050000.007,1,ROTM,,,,0,20180129050000,-1,-1,-1,-1,20,-1,8,-1,-1,-1,-1,,-1,0,2,3,SCT 20   BKN 25   OVC 35,1,13,1,11,1017,ROTM 290539Z 02008KT 1 1/2SM RA BR SCT020 BKN025 OVC035     13/11 A3003 RMK SLP158 STNPR29735=,RA; BR
20180129_060000.004,1,ROTM,,,,0,20180129050000,-1,-1,-1,-1,10,-1,9,-1,15,-1,-1,,-1,0,1,3,SCT 20   BKN 25   OVC 35,1,13,1,11,1017,ROTM 290556Z 01009G15KT 2 1/2SM BR SCT020 BKN025 OVC035 13/11     A3003 RMK AO2 SFC VIS 4 RAB28E43 SLP157 STNPR29735 P0000           60002 T01280111 10144 20128 56010=,BR
20180129_070000.004,1,ROTM,,,,0,20180129060000,-1,-1,-1,-1,30,-1,7,-1,-1,-1,-1,,-1,0,1,3,SCT 10   BKN 25   OVC 30,1,12,1,12,1018,ROTM 290656Z 03007KT 2 1/2SM BR SCT010 BKN025 OVC030 12/12     A3005 RMK AO2 SFC VIS 3 RAB11E48 SLP164 STNPR29755 P0002           T01220122 $=,BR
20180129_080000.004,1,ROTM,,,,0,20180129070000,-1,-1,-1,-1,10,-1,11,-1,-1,-1,-1,,-1,0,1,3,SCT 10   BKN 25   OVC 30,0,-1,0,-1,1018,METAR ROTM 290756Z 01011KT 2 1/2SM HZ SCT010 BKN025 OVC030 13/ A3006           RMK AO2 SFC VIS 5 RAB08E18 SLP169 STNPR29760 P0000 T0128,HZ
20180129_080000.005,1,ROTM,,,,0,20180129070000,-1,-1,-1,-1,10,-1,11,-1,-1,-1,-1,,-1,0,1,3,SCT 10   BKN 25   OVC 30,1,13,1,12,1018,ROTM 290756Z 01011KT 2 1/2 HZ SCT010 BKN025 OVC030 13/12     A3006 RMK SFC VIS 5 RAB08E18 SLP169 STNPR29760 P0000           T01280122=,
20180129_090000.004,1,ROTM,,,,0,20180129080000,-1,-1,-1,-1,20,-1,10,-1,-1,-1,-1,,-1,0,1,2,FEW 25   OVC 36,1,13,1,12,1019,ROTM 290856Z 02010KT 3SM BR FEW025 OVC036 13/12 A3008 RMK AO2     SFC VIS 6 SLP174 STNPR29775 60002 T01280117 51017 $=,BR
20180129_100000.004,1,ROTM,,,,0,20180129090000,-1,-1,-1,-1,20,-1,12,-1,19,-1,-1,,-1,0,0,2,SCT 20   BKN 30,1,13,1,9,1019,ROTM 290956Z 02012G19KT 10SM SCT020 BKN030 13/09 A3009 RMK     SLP178 STNPR29785 T01280094=,
20180129_100000.005,1,ROTM,,,,0,20180129100000,-1,-1,-1,-1,30,-1,10,-1,-1,-1,-1,,-1,0,1,2,SCT 20   BKN 30,1,12,1,10,1019,ROTM 291005Z 03010KT 6SM BR SCT020 BKN030 12/10 A3009 RMK     SLP180 STNPR29795=,BR
20180129_110000.004,1,ROTM,,,,0,20180129100000,-1,-1,-1,-1,20,-1,6,-1,-1,-1,-1,,-1,0,1,3,SCT 20   BKN 30   OVC 40,1,12,1,9,1020,ROTM 291056Z 02006KT 6SM HZ SCT020 BKN030 OVC040 12/09 A3012     RMK AO2 RAB13E23 SLP187 STNPR29815 P0000 T01220094 $=,HZ
20180129_120000.004,1,ROTM,,,,0,20180129110000,-1,-1,-1,-1,20,-1,9,-1,-1,-1,-1,,-1,0,0,3,SCT 20   BKN 30   OVC 40,1,13,1,9,1020,ROTM 291156Z 02009KT 9SM SCT020 BKN030 OVC040 13/09 A3012 RMK     AO2 SLP188 STNPR29825 60002 70053 T01280089 10128 20117           51014 $=,
20180129_130000.004,1,ROTM,,,,0,20180129120000,-1,-1,-1,-1,20,-1,7,-1,-1,-1,-1,,-1,0,0,3,FEW 20   BKN 30   OVC 40,1,12,1,9,1020,ROTM 291256Z 02007KT 10SM FEW020 BKN030 OVC040 12/09 A3013 RMK     AO2 SLP190 STNPR29825 T01220089 $=,
20180129_140000.002,0,ROTM,,,,0,20180129130000,-1,-1,-1,-1,20,-1,7,-1,-1,-1,-1,,-1,0,0,3,SCT 20   BKN 30   OVC 50,1,12,1,9,1020,ROTM 291356Z 02007KT 10SM SCT020 BKN030 OVC050 12/09 A3013 RMK     AO2 SLP193 STNPR29830 T01220089 $=,
20180129_150000.004,1,ROTM,,,,1,20180129140000,-1,-1,-1,-1,20,-1,6,-1,-1,-1,-1,,-1,0,0,1,OVC 42,1,13,1,8,1021,ROTM 291456Z AUTO 02006KT 10SM OVC042 13/08 A3014 RMK AO2     SLP194 T01280078 401560117 51006 $=,
20180129_160000.004,1,ROTM,,,,1,20180129150000,-1,-1,-1,-1,30,-1,6,-1,-1,-1,-1,,-1,0,0,1,OVC 39,1,13,1,8,1021,ROTM 291556Z AUTO 03006KT 10SM OVC039 13/08 A3014 RMK AO2     SLP196 T01280078 $=,
20180129_170000.004,1,ROTM,,,,1,20180129160000,-1,-1,-1,-1,30,-1,6,-1,-1,-1,-1,,-1,0,0,2,BKN 43   OVC 50,1,12,1,8,1020,ROTM 291656Z AUTO 03006KT 10SM BKN043 OVC050 12/08 A3013 RMK     AO2 SLP192 T01220078 $=,
20180129_180000.004,1,ROTM,,,,1,20180129170000,-1,-1,-1,-1,20,-1,6,-1,-1,-1,-1,,-1,0,0,1,OVC 43,1,12,1,8,1021,ROTM 291756Z AUTO 02006KT 10SM OVC043 12/08 A3014 RMK AO2     SLP196 T01220078 10128 20122 53002 $=,
20180129_190000.004,1,ROTM,,,,1,20180129180000,-1,-1,-1,-1,30,-1,8,-1,-1,-1,-1,,-1,0,0,2,BKN 39   OVC 49,1,12,1,7,1021,ROTM 291856Z AUTO 03008KT 10SM BKN039 OVC049 12/07 A3014 RMK     AO2 SLP195 T01220072 $=,
20180129_200000.004,1,ROTM,,,,0,20180129190000,-1,-1,-1,-1,20,-1,9,-1,-1,-1,-1,,-1,0,0,1,OVC 42,1,13,1,7,1021,ROTM 291956Z 02009KT 10SM OVC042 13/07 A3014 RMK AO2 SLP195     STNPR29840 T01280072 $=,
20180129_210000.002,0,ROTM,,,,0,20180129200000,-1,-1,-1,-1,20,-1,9,-1,-1,-1,-1,,-1,0,0,1,OVC 45,1,13,1,7,1021,ROTM 292056Z 02009KT 10SM OVC045 13/07 A3016 RMK AO2 SLP201     STNPR29855 T01280072 53005 $=,
20180129_220000.004,1,ROTM,,,,0,20180129210000,-1,-1,-1,-1,20,-1,6,-1,-1,-1,-1,,-1,0,0,1,OVC 45,1,13,1,7,1022,ROTM 292156Z 02006KT 10SM OVC045 13/07 A3018 RMK AO2 PRESRR     SLP208 STNPR29870 T01280072=,
20180129_230000.004,1,ROTM,,,,0,20180129220000,-1,-1,-1,-1,30,-1,8,-1,-1,-1,-1,,-1,0,0,1,OVC 55,1,13,1,7,1023,ROTM 292256Z 03008KT 10SM OVC055 13/07 A3020 RMK AO2 SLP216     STNPR29900 T01280067=,
20180130_000000.005,1,ROTM,,,,0,20180129230000,-1,-1,-1,-1,20,-1,10,-1,-1,-1,-1,,-1,0,0,1,OVC 48,1,13,1,7,1023,ROTM 292356Z 02010KT 10SM OVC048 13/07 A3021 RMK AO2 SLP219     STNPR29900 T01330067 10133 20122 51018=,
20180130_010000.004,1,ROTM,,,,0,20180130000000,-1,-1,-1,-1,20,-1,8,-1,16,-1,-1,,-1,0,0,2,BKN 46   OVC 60,1,13,1,7,1024,ROTM 300056Z 02008G16KT 10SM BKN046 OVC060 13/07 A3023 RMK AO2     SLP224 STNPR29920 T01330067=,
20180130_020000.004,1,ROTM,,,,0,20180130010000,-1,-1,-1,-1,20,-1,10,-1,-1,-1,-1,,-1,0,0,2,BKN 46   OVC 60,1,14,1,7,1023,ROTM 300156Z 02010KT 10SM BKN046 OVC060 14/07 A3022 RMK AO2     SLP223 STNPR29900 T01440067 $=,
20180130_030000.004,1,ROTM,,,,0,20180130020000,-1,-1,-1,-1,30,-1,11,-1,-1,-1,-1,,-1,0,0,1,SCT 100,1,17,1,7,1022,ROTM 300256Z 03011KT 10SM SCT100 17/07 A3017 RMK AO2 PRESFR     SLP204 STNPR29875 T01670072 58015 $=,
20180130_040000.004,1,ROTM,,,,0,20180130030000,-1,-1,-1,-1,60,-1,12,-1,18,-1,-1,,-1,0,0,1,SCT 100,1,16,1,6,1020,ROTM 300356Z 06012G18KT 10SM SCT100 16/06 A3011 RMK AO2 SLP184     STNPR29840 T01610056 $=,
20180130_050000.005,1,ROTM,,,,0,20180130040000,-1,-1,-1,-1,30,-1,7,-1,-1,-1,-1,,-1,0,0,0,,1,17,1,6,1020,ROTM 300456Z 03007KT 10SM CLR 17/06 A3013 RMK AO2 SLP191     T01720061 $=,
20180130_060000.005,1,ROTM,,,,0,20180130050000,-1,-1,-1,-1,360,-1,13,-1,-1,-1,-1,,-1,0,0,1,BKN 50,1,15,1,7,1021,ROTM 300556Z 36013KT 10SM BKN050 15/07 A3014 RMK AO2 SLP193     STNPR3013 T01500067 10178 20133 55010=,
20180130_070000.004,1,ROTM,,,,1,20180130060000,-1,-1,-1,-1,30,-1,12,-1,-1,-1,-1,,-1,0,0,1,BKN 60,1,15,1,6,1021,ROTM 300656Z AUTO 03012KT 10SM BKN060 15/06 A3014 RMK AO2     SLP195 T01500061 $=,
20180130_070000.006,1,ROTM,,,,0,20180130060000,-1,-1,-1,-1,30,-1,12,-1,-1,-1,-1,,-1,0,0,1,BKN 60,1,15,1,6,1021,ROTM 300656Z 03012KT 10SM BKN060 15/06 A3014 RMK SLP195     STNPR29840 T01500061=,
20180130_080000.004,1,ROTM,,,,0,20180130070000,-1,-1,-1,-1,30,-1,12,-1,-1,-1,-1,,-1,0,0,1,OVC 55,1,14,1,7,1021,ROTM 300756Z 03012KT 10SM OVC055 14/07 A3016 RMK AO2 SLP200     STNPR29855 T01390072=,
20180130_090000.004,1,ROTM,,,,0,20180130080000,-1,-1,-1,-1,30,-1,7,-1,-1,-1,-1,,-1,0,0,2,BKN 50   OVC 70,1,13,1,6,1021,ROTM 300856Z 03007KT 10SM BKN050 OVC070 13/06 A3016 RMK AO2     SLP201 STNPR29855 T01330061 51008=,
20180130_100000.004,1,ROTM,,,,0,20180130090000,-1,-1,-1,-1,30,-1,5,-1,-1,-1,-1,,-1,0,0,1,OVC 50,1,13,1,7,1022,ROTM 300956Z 03005KT 10SM OVC050 13/07 A3018 RMK AO2 SLP209     T01330067=,
20180130_100000.005,1,ROTM,,,,0,20180130090000,-1,-1,-1,-1,30,-1,5,-1,-1,-1,-1,,9999,0,0,1,BKN 50,1,13,1,7,1022,ROTM 300956Z 03005KT 9999 BKN050 13/07 A3018 RMK SLP209     STNPR29880 T01330067=,
20180130_110000.002,0,ROTM,,,,0,20180130100000,-1,-1,-1,-1,40,-1,9,-1,-1,-1,-1,,-1,0,0,1,OVC 50,1,14,1,7,1023,ROTM 301056Z 04009KT 10SM OVC050 14/07 A3020 RMK AO2 SLP216     STNPR29900 T01390067=,
20180130_120000.004,1,ROTM,,,,0,20180130110000,-1,-1,-1,-1,20,-1,10,-1,-1,-1,-1,,-1,0,0,2,BKN 55   OVC 100,1,13,1,6,1022,ROTM 301156Z 02010KT 10SM BKN055 OVC100 13/06 A3019 RMK AO2     SLP213 STNPR29890 T01330061 10161 20133 50012=,
20180130_130000.004,1,ROTM,,,,0,20180130120000,-1,-1,-1,-1,50,-1,7,-1,-1,-1,-1,,-1,0,0,2,BKN 65   OVC 100,1,13,1,7,1023,ROTM 301256Z 05007KT 10SM BKN065 OVC100 13/07 A3020 RMK AO2     SLP215 STNPR29900 T01330067=,
20180130_140000.002,0,ROTM,,,,0,20180130130000,-1,-1,-1,-1,50,-1,7,-1,-1,-1,-1,,-1,0,0,2,BKN 60   OVC 100,1,13,1,7,1023,ROTM 301356Z 05007KT 10SM BKN060 OVC100 13/07 A3020 RMK AO2     SLP216 STNPR29900 T01280067 $=,
20180130_160000.004,1,ROTM,,,,0,20180130150000,-1,-1,-1,-1,50,-1,7,-1,-1,-1,-1,,-1,0,0,1,FEW 100,1,12,1,7,1022,ROTM 301556Z 05007KT 10SM FEW100 12/07 A3019 RMK AO2 SLP212     T01220067 $=,
20180130_170000.004,1,ROTM,,,,0,20180130160000,-1,-1,-1,-1,30,-1,5,-1,-1,-1,-1,,-1,0,0,1,BKN 55,1,12,1,8,1023,ROTM 301656Z 03005KT 10SM BKN055 12/08 A3020 RMK AO2 SLP215     T01220078 $=,
20180130_180000.004,1,ROTM,,,,0,20180130170000,-1,-1,-1,-1,50,-1,8,-1,-1,-1,-1,,-1,0,0,0,,1,12,1,7,1022,ROTM 301756Z 05008KT 10SM CLR 12/07 A3017 RMK AO2 SLP203     T01220072 10139 20117 58016 $=,
20180130_190000.004,1,ROTM,,,,0,20180130180000,-1,-1,-1,-1,50,-1,7,-1,-1,-1,-1,,-1,0,0,1,FEW 55,1,13,1,8,1022,ROTM 301856Z 05007KT 10SM FEW055 13/08 A3018 RMK AO2 SLP207     T01330078 $=,
20180130_200000.004,1,ROTM,,,,0,20180130190000,-1,-1,-1,-1,60,-1,9,-1,-1,-1,-1,,-1,0,0,2,SCT 50   BKN 170,1,13,1,8,1021,ROTM 301956Z 06009KT 10SM SCT050 BKN170 13/08 A3016 RMK AO2     SLP202 STNPR29860 T01330078 $=,
20180130_210000.004,1,ROTM,,,,0,20180130200000,-1,-1,-1,-1,50,-1,8,-1,-1,-1,-1,,-1,0,0,1,SCT 50,1,13,1,8,1021,ROTM 302056Z 05008KT 10SM SCT050 13/08 A3016 RMK AO2 SLP201     STNPR29855 T01330083 58002 $=,
20180130_220000.002,0,ROTM,,,,0,20180130210000,-1,-1,-1,-1,50,-1,8,-1,-1,-1,-1,,-1,0,0,1,OVC 100,1,14,1,8,1022,ROTM 302156Z 05008KT 10SM OVC100 14/08 A3017 RMK AO2 SLP206     STNPR29860 T01390083=,
20180130_230000.004,1,ROTM,,,,0,20180130220000,-1,-1,-1,-1,60,-1,5,-1,-1,-1,-1,,-1,0,0,2,FEW 46   OVC 100,1,14,1,9,1022,ROTM 302256Z 06005KT 10SM FEW046 OVC100 14/09 A3019 RMK AO2     SLP212 STNPR29875 T01440094=,
20180131_000000.004,1,ROTM,,,,0,20180130230000,-1,-1,-1,-1,20,-1,3,-1,-1,-1,-1,,-1,0,0,1,OVC 70,1,14,1,11,1023,ROTM 302356Z 02003KT 10SM OVC070 14/11 A3022 RMK AO2 SLP220     STNPR29890 T01440111 10144 20122 53019=,
20180131_010000.002,0,ROTM,,,,0,20180131000000,-1,-1,-1,-1,50,-1,6,-1,-1,-1,-1,,-1,0,0,2,SCT 60   OVC 70,1,16,1,11,1023,ROTM 310056Z 05006KT 10SM SCT060 OVC070 16/11 A3020 RMK AO2     SLP216 T01560111=,
20180131_010000.005,1,ROTM,,,,0,20180131000000,-1,-1,-1,-1,50,-1,6,-1,-1,-1,-1,,-1,0,0,2,SCT 60   OVC 70,1,16,1,11,1023,ROTM 310056Z 05006KT 10SM SCT060 OVC070 16/11 A3020 RMK     SLP216 STNPR29900 T01560111=,
20180131_020000.004,1,ROTM,,,,0,20180131010000,-1,-1,-1,-1,60,-1,10,-1,-1,-1,-1,,-1,0,0,2,BKN 70   OVC 85,1,17,1,12,1022,ROTM 310156Z 06010KT 10SM BKN070 OVC085 17/12 A3018 RMK AO2     SLP209 STNPR29885 T01670122=,
20180131_030000.004,1,ROTM,,,,0,20180131020000,-1,-1,-1,-1,70,-1,12,-1,18,-1,-1,,-1,0,0,2,FEW 65   BKN 90,1,18,1,13,1021,ROTM 310256Z 07012G18KT 10SM FEW065 BKN090 18/13 A3014 RMK AO2     SLP193 STNPR29865 T01830133 58026=,
20180131_050000.004,1,ROTM,,,,0,20180131030000,-1,-1,-1,-1,70,-1,12,-1,-1,-1,-1,,9999,0,0,2,FEW 65   BKN 90,1,18,1,13,1021,ROTM 310356Z 07012KT 9999 FEW065 BKN090 18/13 A3014 RMK SLP193     STNPR29865 T01830133=,
20180131_050000.004,1,ROTM,,,,0,20180131040000,-1,-1,-1,-1,80,-1,10,-1,-1,-1,-1,,-1,0,0,3,FEW 21   SCT 32   OVC 75,1,18,1,13,1019,ROTM 310456Z 08010KT 10SM FEW021 SCT032 OVC075 18/13 A3008 RMK     AO2 SLP172 T01830133 $=,
20180131_050000.005,1,ROTM,,,,0,20180131040000,-1,-1,-1,-1,80,-1,10,-1,-1,-1,-1,,-1,0,0,3,FEW 21   SCT 32   OVC 75,1,18,1,13,1019,ROTM 310456Z 08010KT 10SM FEW021 SCT032 OVC075 18/13 A3008     RMK AO2 SLP172 STNPR29770 T01830133=,
20180131_060000.004,1,ROTM,,,,0,20180131050000,-1,-1,-1,-1,80,-1,12,-1,-1,-1,-1,,-1,0,0,3,SCT 23   BKN 33   OVC 95,1,18,1,13,1018,ROTM 310556Z 08012KT 10SM SCT023 BKN033 OVC095 18/13 A3005 RMK     AO2 SLP166 T01780133 10183 20144 56027 $=,
20180131_060000.004,1,ROTM,,,,0,20180131050000,-1,-1,-1,-1,80,-1,12,-1,-1,-1,-1,,9999,0,0,3,SCT 23   BKN 33   OVC 95,1,18,1,13,1018,ROTM 310556Z 08012KT 9999 SCT023 BKN033 OVC095 18/13 A3005     RMK SLP166 STNPR29775 T01780133 10183 20144 56027=,
20180131_070000.005,1,ROTM,,,,0,20180131060000,-1,-1,-1,-1,80,-1,9,-1,-1,-1,-1,,-1,0,0,3,SCT 23   BKN 33   OVC 85,1,18,1,14,1017,ROTM 310656Z 08009KT 10SM SCT023 BKN033 OVC085 18/14 A3004 RMK     AO2 SLP159 STNPR29740 T01780139=,
20180131_080000.005,1,ROTM,,,,0,20180131070000,-1,-1,-1,-1,90,-1,9,-1,-1,-1,-1,,-1,0,0,3,FEW 23   BKN 60   OVC 110,1,18,1,15,1017,ROTM 310756Z 09009KT 10SM FEW023 BKN060 OVC110 18/15 A3003 RMK     AO2 SLP158 T01780150=,
20180131_090000.002,0,ROTM,,,,0,20180131080000,-1,-1,-1,-1,90,-1,10,-1,-1,-1,-1,,-1,0,0,3,FEW 34   BKN 60   OVC 110,0,-1,0,-1,1016,ROTM 310856Z 09010KT 10SM FEW034 BKN060 OVC110 18/ A3001 RMK     AO2 SLP151 T0178 58014 $=,
20180131_090000.005,1,ROTM,,,,0,20180131080000,-1,-1,-1,-1,90,-1,10,-1,-1,-1,-1,,-1,0,0,3,FEW 34   BKN 60   OVC 110,1,18,1,13,1016,ROTM 310856Z 09010KT 10SM FEW034 BKN060 OVC110 18/13 A3001     RMK SLP151 STNPR29710 T0178033 58014=,
20180131_100000.004,1,ROTM,,,,0,20180131090000,-1,-1,-1,-1,110,-1,10,-1,-1,-1,-1,,-1,0,0,3,FEW 30   BKN 60   BKN 90,1,19,1,13,1016,ROTM 310956Z 11010KT 10SM FEW030 BKN060 BKN090 19/13 A3000 RMK     AO2 SLP147 STNPR29700 T01890133 $=,
20180131_110000.004,1,ROTM,,,,0,20180131100000,-1,-1,-1,-1,140,-1,10,-1,19,-1,-1,,-1,0,0,3,FEW 30   BKN 60   OVC 100,1,19,1,14,1016,ROTM 311056Z 14010G19KT 10SM FEW030 BKN060 OVC100 19/14 A3000     RMK AO2 SLP147 STNPR29700 T01940139 $=,
20180131_120000.004,1,ROTM,,,,0,20180131110000,-1,-1,-1,-1,140,-1,14,-1,21,-1,-1,,-1,0,0,3,FEW 30   BKN 50   OVC 90,1,19,1,14,1016,ROTM 311156Z 14014G21KT 10SM FEW030 BKN050 OVC090 19/14 A3000     RMK AO2 SLP147 STNPR29705 T01940139 10194 20178 55004 $=,
20180131_130000.001,0,ROTM,,,,0,20180131120000,-1,-1,-1,-1,140,-1,13,-1,20,-1,-1,,-1,0,0,3,SCT 33   SCT 43   OVC 55,1,20,1,14,1016,ROTM 311256Z 14013G20KT 10SM SCT033 SCT043 OVC055 20/14 A2999     RMK AO2 SLP144 STNPR29695 T02000144 $=,
20180131_140000.004,1,ROTM,,,,0,20180131130000,-1,-1,-1,-1,130,-1,14,-1,22,-1,-1,,-1,0,0,3,SCT 20   BKN 50   OVC 70,1,19,1,15,1015,ROTM 311356Z 13014G22KT 10SM SCT020 BKN050 OVC070 19/15 A2998     RMK AO2 SLP140 STNPR29685 T01940150 $=,
20180131_150000.004,1,ROTM,,,,1,20180131140000,-1,-1,-1,-1,140,-1,14,-1,20,-1,-1,,-1,0,2,3,SCT 23   BKN 31   OVC 39,1,19,1,17,1015,ROTM 311456Z AUTO 14014G20KT 4SM -RA BR SCT023 BKN031 OVC039     19/17 A2997 RMK AO2 RAB15 SLP136 P0004 60004 T01890167           402000117 58010 $=,- RA; BR
20180131_160000.004,1,ROTM,,,,1,20180131150000,-1,-1,-1,-1,160,-1,18,-1,23,-1,-1,,-1,0,0,3,FEW 30   BKN 60   OVC 70,1,19,1,16,1014,ROTM 311556Z AUTO 16018G23KT 10SM FEW030 BKN060 OVC070 19/16     A2995 RMK AO2 PK WND 15026/1538 RAE51 SLP127 P0001           T01940156 $=,
20180131_170000.004,1,ROTM,,,,1,20180131160000,-1,-1,-1,-1,150,-1,13,-1,-1,-1,-1,,-1,0,0,3,FEW 23   BKN 32   OVC 50,1,18,1,17,1014,ROTM 311656Z AUTO 15013KT 10SM FEW023 BKN032 OVC050 18/17 A2993     RMK AO2 RAB12E50 SLP121 P0004 T01830172 $=,
20180131_180000.004,1,ROTM,,,,1,20180131170000,-1,-1,-1,-1,180,-1,9,-1,-1,-1,-1,,-1,0,1,2,FEW 30   OVC 48,0,-1,0,-1,1014,ROTM 311756Z AUTO 18009KT 4SM RA FEW030 OVC048 18/ A2993 RMK     AO2 RAB1659 SLP121 P0012 60021 T0183 10200 20183 56015 $=,RA
20180131_190000.005,1,ROTM,,,,1,20180131180000,-1,-1,-1,-1,350,-1,10,-1,18,-1,-1,,-1,0,1,2,BKN 6   OVC 15,0,-1,0,-1,1013,ROTM 311856Z AUTO 35010G18KT 1 1/2SM +RA BKN006 OVC015 17/     A2992 RMK AO2 SLP119 P0075 T0172 $=,+ RA
20180131_200000.001,0,ROTM,,,,0,20180131190000,-1,-1,-1,-1,350,-1,14,-1,20,-1,-1,,-1,0,1,2,BKN 5   OVC 16,1,17,1,16,1014,ROTM 311956Z 35014G20KT 7SM -RA BKN005 OVC016 17/16 A2993 RMK     AO2 SLP124 STNPR29610 P0045 T01720161 $=,- RA
20180131_210000.004,1,ROTM,,,,0,20180131200000,-1,-1,-1,-1,350,-1,14,-1,-1,-1,-1,,-1,0,2,2,BKN 7   OVC 16,1,16,1,14,1014,ROTM 312056Z 35014KT 6SM -RA BR BKN007 OVC016 16/14 A2995 RMK     AO2 PK WND 34028/2018 SLP130 SLP126 STNPR29650 P0012 60132           T01560139 53008 $=,- RA; BR
20180131_220000.004,1,ROTM,,,,0,20180131210000,-1,-1,-1,-1,350,-1,13,-1,22,-1,-1,,-1,0,0,3,SCT 15   BKN 20   OVC 30,1,16,1,14,1015,ROTM 312156Z 35013G22KT 10SM SCT015 BKN020 OVC030 16/14 A2998     RMK AO2 RAE20 SLP141 STNPR29680 P0000 T01560144=,
20180131_230000.004,1,ROTM,,,,0,20180131220000,-1,-1,-1,-1,360,-1,16,-1,25,-1,-1,,-1,0,0,3,SCT 9   BKN 14   OVC 45,1,16,1,14,1016,ROTM 312256Z 36016G25KT 10SM SCT009 BKN014 OVC045 16/14 A3001     RMK AO2 PK WND 36027/2238 SLP150 STNPR29695 T01560144=,
20180201_000000.005,1,ROTM,,,,0,20180131230000,-1,-1,-1,-1,10,-1,15,-1,22,-1,-1,,-1,0,0,2,BKN 22   OVC 28,1,15,1,13,1017,ROTM 312356Z 01015G22KT 10SM BKN022 OVC028 15/13 A3002 RMK AO2     PK WND 01029/2302 SLP152 STNPR29720 60132 T01500128 10183           20150 53011=,
20180201_010000.004,1,ROTM,,,,0,20180201000000,-1,-1,-1,-1,360,-1,15,-1,24,-1,-1,,-1,0,0,2,BKN 22   OVC 28,1,16,1,13,1018,ROTM 010056Z 36015G24KT 10SM BKN022 OVC028 16/13 A3005 RMK AO2     PK WND 36029/0017 SLP163 STNPR29745 T01560128 $=,
20180201_020000.004,1,ROTM,,,,0,20180201010000,-1,-1,-1,-1,360,-1,19,-1,26,-1,-1,,-1,0,0,2,BKN 23   OVC 31,1,16,1,13,1018,ROTM 010156Z 36019G26KT 10SM BKN023 OVC031 16/13 A3005 RMK AO2     PK WND 36027/0133 SLP162 STNPR29750 T01610128 $=,
20180201_030000.005,1,ROTM,,,,0,20180201020000,-1,-1,-1,-1,10,-1,17,-1,25,-1,-1,,-1,0,0,2,BKN 26   OVC 33,1,17,1,12,1018,ROTM 010256Z 01017G25KT 10SM BKN026 OVC033 17/12 A3006 RMK AO2     SLP165 STNPR29745 T01670122 51013 $=,
20180201_040000.005,1,ROTM,,,,0,20180201030000,-1,-1,-1,-1,20,-1,9,-1,19,-1,-1,,-1,0,1,2,BKN 30   OVC 35,1,16,1,13,1018,ROTM 010356Z 02009G19KT 8SM -RA BKN030 OVC035 16/13 A3005 RMK     AO2 RAB56 SLP163 STNPR29755 P0000 T01560133 $=,- RA
20180201_050000.004,1,ROTM,,,,0,20180201040000,-1,-1,-1,-1,360,-1,16,-1,21,-1,-1,,-1,0,0,2,SCT 22   OVC 34,1,16,1,12,1017,ROTM 010456Z 36016G21KT 10SM SCT022 OVC034 16/12 A3004 RMK AO2     RAE05B30E45 SLP162 STNPR29750 P0000 T01560122 $=,
20180201_050000.005,1,ROTM,,,,0,20180201030000,-1,-1,-1,-1,360,-1,10,-1,-1,-1,-1,,-1,0,1,2,BKN 30   OVC 35,1,16,1,13,1018,ROTM 010356Z 36010KT 8SM -RA BKN030 OVC035 16/13 A3005 RMK     RAB56 SLP163 XWND WND WRNG STNPR29755 P0000 T01560133=,- RA
20180201_060000.002,1,ROTM,,,,0,20180201040000,-1,-1,-1,-1,360,-1,16,-1,21,-1,-1,,-1,0,0,3,SCT 20   BKN 30   OVC 40,1,16,1,12,1017,ROTM 010456Z 36016G21KT 10SM SCT020 BKN030 OVC040 16/12     A3004 RMK SLP162 XWND WND WRNG STNPR29750 P0000 T01560122=,
20180201_060000.004,1,ROTM,,,,0,20180201050000,-1,-1,-1,-1,350,-1,18,-1,25,-1,-1,,-1,0,0,3,SCT 20   BKN 30   OVC 40,1,16,1,13,1018,ROTM 010556Z 35018G25KT 10SM SCT020 BKN030 OVC040 16/13 A3005     RMK SLP164 XWND WND WRNG STNPR29755 60000 T01560128 10172           20150 55001=,
20180201_070000.004,1,ROTM,,,,0,20180201060000,-1,-1,-1,-1,360,-1,17,-1,23,-1,-1,,-1,0,0,3,SCT 20   BKN 30   BKN 35,1,16,1,13,1018,ROTM 010656Z 36017G23KT 10SM SCT020 BKN030 BKN035 16/13 A3006     RMK AO2 SLP167 XWND WND WRNG STNPR29760 T01610128=,
20180201_080000.002,0,ROTM,,,,0,20180201070000,-1,-1,-1,-1,10,-1,9,-1,-1,-1,-1,,-1,0,0,3,FEW 20   BKN 30   OVC 50,1,16,1,13,1018,ROTM 010756Z 01009KT 10SM FEW020 BKN030 OVC050 16/13 A3007 RMK     AO2 SLP171 XWND WND WRNG STNPR29770 T01610128 $=,
20180201_090000.004,1,ROTM,,,,0,20180201080000,-1,-1,-1,-1,20,-1,6,-1,-1,-1,-1,,-1,0,0,3,SCT 19   BKN 35   OVC 65,1,14,1,13,1019,ROTM 010856Z 02006KT 10SM SCT019 BKN035 OVC065 14/13 A3009 RMK     AO2 RAB00E07 SLP178 XWND WND WRNG STNPR29790 P0000 60000           T01390128 53014 $=,
20180201_100000.002,1,ROTM,,,,0,20180201080000,-1,-1,-1,-1,30,-1,4,-1,-1,-1,-1,,-1,0,1,3,SCT 20   BKN 40   OVC 60,1,14,1,13,1019,ROTM 010839Z 03004KT 5SM BR SCT020 BKN040 OVC060 14/13     A3009 RMK SLP177 XWND WND WRNG STNPR29785=,BR
20180201_100000.006,1,ROTM,,,,0,20180201090000,-1,-1,-1,-1,20,-1,5,-1,-1,-1,-1,,-1,0,2,3,FEW 20   BKN 40   OVC 60,1,14,1,12,1020,ROTM 010956Z 02005KT 6SM -RA BR FEW020 BKN040 OVC060 14/12     A3011 RMK RAB50 SLP183 XWND WND WRNG STNPR29805 P0000           T01440122=,- RA; BR
20180201_100000.006,1,ROTM,,,,0,20180201090000,-1,-1,-1,-1,20,-1,5,-1,-1,-1,-1,,-1,0,2,3,FEW 20   BKN 40   OVC 60,1,14,1,12,1020,ROTM 010956Z 02005KT 6SM -RA BR FEW020 BKN040 OVC060 14/12     A3011 RMK RAB50 SLP183 XWND WND WRNG STNPR29805 P0000           T01440122=,- RA; BR
20180201_110000.004,1,ROTM,,,,0,20180201100000,-1,-1,-1,-1,30,-1,7,-1,-1,-1,-1,,-1,0,1,3,FEW 26   BKN 34   OVC 43,0,-1,0,-1,1020,ROTM 011056Z 03007KT 9SM -RA FEW026 BKN034 OVC043 14/ A3013 RMK     AO2 RAE0959B49 SLP191 P0001 T0139 $=,- RA
20180201_110000.005,1,ROTM,,,,0,20180201100000,-1,-1,-1,-1,30,-1,7,-1,-1,-1,-1,,-1,0,2,3,FEW 20   BKN 40   OVC 55,1,14,1,13,1020,ROTM 011056Z 03007KT 6SM -RA BR FEW020 BKN040 OVC055 14/13     A3013 RMK RAE59B49 SLP191 XWND WND WRNG STNPR29830 P0001           T01390128=,- RA; BR
20180201_120000.002,0,ROTM,,,,0,20180201110000,-1,-1,-1,-1,50,-1,8,-1,-1,-1,-1,,-1,0,0,0,,1,13,1,13,1020,ROTM 011156Z 05008KT 10SM CLR 13/13 A3012 RMK AO2 RAE1059     SLP189 STNPR29825 XWND WND WRNG P0000 60001 70154           T01330128 10167 20133 50010 $=,
20180201_120000.006,1,ROTM,,,,0,20180201110000,-1,-1,-1,-1,50,-1,8,-1,-1,-1,-1,,-1,0,0,2,FEW 20   SCT 40,1,13,1,13,1020,ROTM 011156Z 05008KT 10SM FEW020 SCT040 13/13 A3012 RMK     RAE59 SLP189 XWND WND WRNG STNPR29825 P0000 60001 70154           T01330128 10167 20133 50010=,
20180201_130000.004,1,ROTM,,,,0,20180201120000,-1,-1,-1,-1,40,-1,8,-1,-1,-1,-1,,-1,0,0,3,FEW 20   SCT 40   BKN 60,1,14,1,13,1020,ROTM 011256Z 04008KT 10SM FEW020 SCT040 BKN060 14/13 A3013 RMK     SLP193 XWND WND WRNG STNPR29835 T01390128=,
20180201_140000.004,1,ROTM,,,,0,20180201130000,-1,-1,-1,-1,70,-1,6,-1,-1,-1,-1,,-1,0,0,3,FEW 20   BKN 40   OVC 65,1,14,1,11,1021,ROTM 011356Z 07006KT 10SM FEW020 BKN040 OVC065 14/11 A3014 RMK     AO2 SLP194 XWND WND WRNG STNPR29840 T01390111=,
20180201_150000.004,1,ROTM,,,,0,20180201140000,-1,-1,-1,-1,50,-1,5,-1,-1,-1,-1,,-1,0,0,1,SCT 65,1,13,1,11,1020,ROTM 011456Z 05005KT 10SM SCT065 13/11 A3013 RMK AO2 SLP192     T01330106 401940133 50003 $=,
20180201_160000.002,0,ROTM,,,,1,20180201150000,-1,-1,-1,-1,40,-1,7,-1,-1,-1,-1,,-1,0,0,1,OVC 70,1,14,1,11,1021,ROTM 011556Z AUTO 04007KT 10SM OVC070 14/11 A3015 RMK AO2     SLP199 T01390106 $=,
20180201_170000.004,1,ROTM,,,,1,20180201160000,-1,-1,-1,-1,40,-1,6,-1,-1,-1,-1,,-1,0,0,1,OVC 70,1,14,1,10,1021,ROTM 011656Z AUTO 04006KT 10SM OVC070 14/10 A3015 RMK AO2     SLP198 T01390100 PWINO $=,
20180201_180000.004,1,ROTM,,,,1,20180201170000,-1,-1,-1,-1,50,-1,8,-1,-1,-1,-1,,-1,0,0,1,OVC 70,1,14,1,10,1021,ROTM 011756Z AUTO 05008KT 10SM OVC070 14/10 A3014 RMK AO2     SLP196 T01390100 10144 20133 50005 $=,
20180201_190000.005,1,ROTM,,,,1,20180201180000,-1,-1,-1,-1,20,-1,6,-1,-1,-1,-1,,-1,0,0,1,OVC 60,1,14,1,9,1021,ROTM 011856Z AUTO 02006KT 10SM OVC060 14/09 A3015 RMK AO2     SLP197 T01390094 $=,
20180201_210000.004,1,ROTM,,,,0,20180201200000,-1,-1,-1,-1,30,-1,6,-1,-1,-1,-1,,-1,0,0,1,BKN 65,1,13,1,12,1022,ROTM 012056Z 03006KT 10SM BKN065 13/12 A3017 RMK AO2 SLP204     STNPR29855 T01280117 53007 $=,
20180201_220000.004,1,ROTM,,,,0,20180201210000,-1,-1,-1,-1,20,-1,5,-1,-1,-1,-1,,-1,0,0,1,BKN 65,1,13,1,12,1022,ROTM 012156Z 02005KT 10SM BKN065 13/12 A3019 RMK AO2 SLP212     STNPR29890 T01280117 $=,
20180201_230000.005,1,ROTM,,,,0,20180201220000,-1,-1,-1,-1,40,-1,7,-1,-1,-1,-1,,-1,0,0,1,BKN 65,1,14,1,9,1022,ROTM 012256Z 04007KT 10SM BKN065 14/09 A3019 RMK AO2 SLP213     STNPR29900 T01390089 $=,
20180202_000000.004,1,ROTM,,,,0,20180201230000,-1,-1,-1,-1,20,-1,7,-1,-1,-1,-1,,-1,0,0,1,SCT 60,1,16,1,9,1023,ROTM 012356Z 02007KT 10SM SCT060 16/09 A3020 RMK AO2 SLP217     STNPR29890 T01560089 10156 20128 51013 $=,
20180202_010000.004,1,ROTM,,,,0,20180202000000,-1,-1,-1,-1,30,-1,10,-1,-1,-1,-1,,-1,0,0,1,FEW 40,1,17,1,8,1022,ROTM 020056Z 03010KT 10SM FEW040 17/08 A3018 RMK AO2 SLP208     STNPR29885 T01670078 $=,
20180202_020000.002,0,ROTM,,,,0,20180202010000,-1,-1,-1,-1,20,-1,9,-1,-1,-1,-1,,-1,0,0,1,FEW 40,1,18,1,8,1022,ROTM 020156Z 02009KT 10SM FEW040 18/08 A3017 RMK AO2 SLP206     STNPR29870 T01780083 $=,
20180202_030000.004,1,ROTM,,,,0,20180202020000,-1,-1,-1,-1,360,-1,16,-1,-1,-1,-1,,-1,0,0,2,FEW 30   SCT 40,1,18,1,8,1021,ROTM 020256Z 36016KT 10SM FEW030 SCT040 18/08 A3015 RMK AO2     SLP198 STNPR29860 T01830083 58017 $=,
20180202_040000.002,0,ROTM,,,,0,20180202030000,-1,-1,-1,-1,360,-1,9,-1,-1,-1,-1,,-1,0,0,2,FEW 30   SCT 40,1,17,1,9,1020,ROTM 020356Z 36009KT 10SM FEW030 SCT040 17/09 A3013 RMK AO2     SLP191 STNPR29835 T01720089 $=,
20180202_050000.003,1,ROTM,,,,0,20180202040000,-1,-1,-1,-1,10,-1,10,-1,-1,-1,-1,,-1,0,0,2,SCT 40   BKN 55,1,17,1,9,1020,ROTM 020456Z 01010KT 10SM SCT040 BKN055 17/09 A3011 RMK AO2     SLP185 STNPR29815 T01670089 $=,
20180202_060000.004,1,ROTM,,,,0,20180202050000,-1,-1,-1,-1,360,-1,8,-1,-1,-1,-1,,-1,0,0,1,OVC 47,1,16,1,9,1020,ROTM 020556Z 36008KT 10SM OVC047 16/09 A3012 RMK AO2 SLP188     T01610094 10189 20156 55011 $=,
20180202_060000.005,1,ROTM,,,,0,20180202050000,-1,-1,-1,-1,360,-1,8,-1,-1,-1,-1,,-1,0,0,2,SCT 40   OVC 50,1,16,1,7,1020,ROTM 020556Z 36008KT 10SM SCT040 OVC050 16/07 A3012 RMK     SLP188 STNPR29820 T01610094 10189 20156 55011=,
20180202_070000.004,1,ROTM,,,,0,20180202060000,-1,-1,-1,-1,20,-1,9,-1,-1,-1,-1,,-1,0,0,2,SCT 40   OVC 55,1,16,1,9,1020,ROTM 020656Z 02009KT 10SM SCT040 OVC055 16/09 A3012 RMK AO2     SLP189 STNPR29825 T01560094=,
20180202_080000.002,0,ROTM,,,,0,20180202070000,-1,-1,-1,-1,20,-1,8,-1,-1,-1,-1,,-1,0,2,3,FEW 20   SCT 30   OVC 35,1,14,1,12,1020,ROTM 020756Z 02008KT 5SM -RA BR FEW020 SCT030 OVC035 14/12     A3013 RMK AO2 RAB46 SLP193 P0001 T01440122=,- RA; BR
20180202_080000.004,1,ROTM,,,,0,20180202070000,-1,-1,-1,-1,20,-1,8,-1,-1,-1,-1,,-1,0,2,3,FEW 20   SCT 30   OVC 35,1,14,1,12,1020,ROTM 020756Z 02008KT 5SM -RA BR FEW020 SCT030 OVC035 14/12     A3013 RMK RAB46 SLP193 STNPR29835 P0001 T01440122=,- RA; BR
20180202_090000.004,1,ROTM,,,,0,20180202080000,-1,-1,-1,-1,40,-1,8,-1,-1,-1,-1,,-1,0,0,3,FEW 30   BKN 35   OVC 40,1,13,1,12,1021,ROTM 020856Z 04008KT 10SM FEW030 BKN035 OVC040 13/12 A3014 RMK     AO2 RAE47 SLP195 STNPR29840 P0001 60002 T01330122 53007 $=,
20180202_100000.003,0,ROTM,,,,0,20180202090000,-1,-1,-1,-1,20,-1,7,-1,-1,-1,-1,,-1,0,2,2,SCT 30   OVC 40,1,13,1,12,1021,ROTM 020956Z 02007KT 6SM -RA BR SCT030 OVC040 13/12 A3015 RMK     AO2 RAB15E26B42 SLP199 STNPR29840 P0002 T01330122 $=,- RA; BR
20180202_100000.005,1,ROTM,,,,0,20180202090000,-1,-1,-1,-1,20,-1,7,-1,-1,-1,-1,,-1,0,2,2,SCT 30   OVC 40,1,13,1,12,1021,ROTM 020956Z 02007KT 6SM -RA BR SCT030 OVC040 13/12 A3015     RMK RAB15E26B45 SLP199 STNPR29850 P0002 T01330122=,- RA; BR
20180202_110000.004,1,ROTM,,,,0,20180202100000,-1,-1,-1,-1,30,-1,10,-1,-1,-1,-1,,-1,0,0,3,FEW 21   BKN 39   OVC 47,0,-1,0,-1,1022,ROTM 021056Z 03010KT 10SM FEW021 BKN039 OVC047 13/ A3019 RMK     AO2 RAE22 SLP212 P0001 T0133 $=,
20180202_120000.002,0,ROTM,,,,0,20180202110000,-1,-1,-1,-1,40,-1,9,-1,-1,-1,-1,,-1,0,1,3,BKN 39   BKN 49   OVC 55,0,-1,0,-1,1022,ROTM 021156Z 04009KT 8SM -RA BKN039 BKN049 OVC055 13/ A3019 RMK     AO2 RAB1059E09B48 SLP213 P0000 60005 70005 T0128 10161           20128 51017 $=,- RA
20180202_120000.005,1,ROTM,,,,0,20180202100000,-1,-1,-1,-1,30,-1,10,-1,-1,-1,-1,,-1,0,0,3,SCT 30   BKN 40   OVC 50,1,13,1,12,1022,ROTM 021056Z 03010KT 10SM SCT030 BKN040 OVC050 13/12 A3019     RMK RAE22 SLP212 STNPR29890 P0001 T011330117=,
20180202_120000.005,1,ROTM,,,,0,20180202110000,-1,-1,-1,-1,40,-1,9,-1,-1,-1,-1,,-1,0,2,2,BKN 40   OVC 55,1,13,1,12,1022,ROTM 021156Z 04009KT 6SM -RA BR BKN040 OVC055 13/12 A3019     RMK RAB48 SLP213 STNPR29885 P0000 60005 70005 T01280117           10161 20128 51017=,- RA; BR
20180202_130000.005,1,ROTM,,,,0,20180202120000,-1,-1,-1,-1,50,-1,7,-1,-1,-1,-1,,-1,0,2,3,FEW 30   BKN 40   OVC 55,1,13,1,12,1023,ROTM 021256Z 05007KT 6SM -RA BR FEW030 BKN040 OVC055 13/12     A3020 RMK SLP215 STNPR29900 P0002 T01280117=,- RA; BR
20180202_140000.004,1,ROTM,,,,0,20180202130000,-1,-1,-1,-1,40,-1,7,-1,-1,-1,-1,,-1,0,2,3,SCT 31   BKN 60   OVC 90,1,13,1,12,1022,METAR ROTM 021356Z 04007KT 6SM -RA BR SCT031 BKN060 OVC090 13/12           A3019 RMK AO2 RAE16B49 SLP211 STNPR29890 P0001 T01280117,- RA; BR
20180202_150000.002,0,ROTM,,,,1,20180202140000,-1,-1,-1,-1,30,-1,5,-1,-1,-1,-1,,-1,0,1,1,OVC 35,0,-1,0,-1,1022,ROTM 021456Z AUTO 03005KT 6SM -RA OVC035 13/ A3019 RMK AO2     RAE07B27 SLP211 P0002 60005 T0128 401890128 58000 $=,- RA
20180202_160000.004,1,ROTM,,,,1,20180202150000,-1,-1,-1,-1,30,-1,5,-1,-1,-1,-1,,-1,0,0,3,FEW 28   BKN 39   OVC 47,0,-1,0,-1,1022,ROTM 021556Z AUTO 03005KT 10SM FEW028 BKN039 OVC047 13/ A3018     RMK AO2 RAE40 SLP209 P0003 T0128 $=,
20180202_180000.005,1,ROTM,,,,1,20180202170000,-1,-1,-1,-1,10,-1,11,-1,-1,-1,-1,,-1,0,0,1,OVC 44,1,13,1,10,1022,ROTM 021756Z AUTO 01011KT 10SM OVC044 13/10 A3017 RMK AO2     SLP204 60008 T01280100 10133 20122 58008 $=,
20180202_200000.005,1,ROTM,,,,1,20180202190000,-1,-1,-1,-1,10,-1,13,-1,21,-1,-1,,-1,0,0,2,BKN 43   OVC 50,1,13,1,8,1022,ROTM 021956Z AUTO 01013G21KT 10SM BKN043 OVC050 13/08 A3017 RMK     AO2 SLP203 T01280078 $=,
20180202_220000.004,1,ROTM,,,,1,20180202210000,-1,-1,-1,-1,360,-1,11,-1,18,-1,-1,,-1,0,0,1,OVC 44,1,13,1,7,1022,ROTM 022156Z AUTO 36011G18KT 10SM OVC044 13/07 A3019 RMK AO2     RAB17E26 SLP212 P0000 T01280072 $=,
20180202_230000.005,1,ROTM,,,,1,20180202220000,-1,-1,-1,-1,350,-1,12,-1,-1,-1,-1,,-1,0,0,2,SCT 47   OVC 55,1,12,1,8,1023,ROTM 022256Z AUTO 35012KT 10SM SCT047 OVC055 12/08 A3021 RMK     AO2 RAB19E40 SLP219 P0000 T01220078 $=,
20180203_000000.004,1,ROTM,,,,1,20180202230000,-1,-1,-1,-1,360,-1,17,-1,26,-1,-1,,-1,0,0,2,BKN 35   OVC 45,1,13,1,8,1024,ROTM 022356Z AUTO 36017G26KT 10SM BKN035 OVC045 13/08 A3023 RMK     AO2 PK WND 01026/2356 SLP227 60000 T01280078 10128 20122           51022 $=,
20180203_020000.004,1,ROTM,,,,1,20180203010000,-1,-1,-1,-1,360,-1,16,-1,24,-1,-1,,-1,0,0,2,BKN 27   OVC 35,1,13,1,8,1023,ROTM 030156Z AUTO 36016G24KT 10SM BKN027 OVC035 13/08 A3022 RMK     AO2 SLP222 T01280078 $=,
20180203_030000.004,1,ROTM,,,,1,20180203020000,-1,-1,-1,-1,10,-1,12,-1,22,-1,-1,,-1,0,0,3,BKN 31   BKN 38   OVC 80,1,14,1,8,1023,ROTM 030256Z AUTO 01012G22KT 10SM BKN031 BKN038 OVC080 14/08     A3021 RMK AO2 SLP219 T01390078 58007 $=,
20180203_060000.005,1,ROTM,,,,1,20180203050000,-1,-1,-1,-1,360,-1,16,-1,22,-1,-1,,-1,0,0,3,BKN 28   BKN 36   OVC 44,1,13,1,8,1021,ROTM 030556Z AUTO 36016G22KT 10SM BKN028 BKN036 OVC044 13/08     A3016 RMK AO2 SLP202 T01280078 10139 20122 56017 $=,
20180203_070000.003,0,ROTM,,,,1,20180203060000,-1,-1,-1,-1,350,-1,16,-1,20,-1,-1,,-1,0,0,2,BKN 39   OVC 47,1,13,1,7,1021,ROTM 030656Z AUTO 35016G20KT 10SM BKN039 OVC047 13/07 A3016 RMK     AO2 SLP201 T01280067 $=,
20180203_080000.004,1,ROTM,,,,1,20180203070000,-1,-1,-1,-1,360,-1,14,-1,22,-1,-1,,-1,0,0,1,OVC 42,1,13,1,6,1021,ROTM 030756Z AUTO 36014G22KT 7SM OVC042 13/06 A3015 RMK AO2     SLP199 T01280061 $=,
20180203_090000.004,1,ROTM,,,,1,20180203080000,-1,-1,-1,-1,360,-1,16,-1,20,-1,-1,,-1,0,1,2,BKN 43   OVC 80,1,13,1,6,1021,ROTM 030856Z AUTO 36016G20KT 6SM HZ BKN043 OVC080 13/06 A3016     RMK AO2 SLP201 T01280056 55001 $=,HZ
20180203_100000.004,1,ROTM,,,,1,20180203090000,-1,-1,-1,-1,360,-1,10,-1,-1,-1,-1,,-1,0,0,1,OVC 42,1,13,1,7,1022,ROTM 030956Z AUTO 36010KT 9SM OVC042 13/07 A3017 RMK AO2 SLP204     T01280067 $=,
20180203_110000.002,0,ROTM,,,,1,20180203100000,-1,-1,-1,-1,10,-1,9,-1,-1,-1,-1,,-1,0,0,2,FEW 28   OVC 38,1,13,1,7,1022,ROTM 031056Z AUTO 01009KT 10SM FEW028 OVC038 13/07 A3018 RMK     AO2 SLP207 T01280072 $=,
20180203_120000.004,1,ROTM,,,,1,20180203110000,-1,-1,-1,-1,10,-1,12,-1,17,-1,-1,,-1,0,0,1,OVC 30,1,13,1,8,1022,ROTM 031156Z AUTO 01012G17KT 10SM OVC030 13/08 A3019 RMK AO2     SLP211 70008 T01280078 10133 20122 53009 $=,
20180203_130000.004,1,ROTM,,,,1,20180203120000,-1,-1,-1,-1,360,-1,14,-1,19,-1,-1,,-1,0,0,1,OVC 49,1,12,1,8,1023,ROTM 031256Z AUTO 36014G19KT 10SM OVC049 12/08 A3020 RMK AO2     SLP213 T01220083 $=,
20180203_140000.004,1,ROTM,,,,1,20180203130000,-1,-1,-1,-1,360,-1,13,-1,19,-1,-1,,-1,0,0,2,SCT 33   OVC 42,1,12,1,8,1023,ROTM 031356Z AUTO 36013G19KT 10SM SCT033 OVC042 12/08 A3020 RMK     AO2 SLP216 T01220078 $=,
20180203_150000.004,1,ROTM,,,,1,20180203140000,-1,-1,-1,-1,360,-1,13,-1,-1,-1,-1,,-1,0,0,1,OVC 50,1,12,1,8,1023,ROTM 031456Z AUTO 36013KT 10SM OVC050 12/08 A3020 RMK AO2     SLP216 T01170083 401390117 50005 $=,
20180203_170000.004,1,ROTM,,,,1,20180203160000,-1,-1,-1,-1,360,-1,10,-1,-1,-1,-1,,-1,0,1,3,FEW 28   BKN 47   OVC 70,1,11,1,8,1022,ROTM 031656Z AUTO 36010KT 10SM -RA FEW028 BKN047 OVC070 11/08     A3019 RMK AO2 RAB52 SLP214 P0000 T01110083 $=,- RA
20180203_190000.004,1,ROTM,,,,1,20180203180000,-1,-1,-1,-1,10,-1,14,-1,-1,-1,-1,,-1,0,1,2,BKN 28   OVC 36,0,-1,0,-1,1022,ROTM 031856Z AUTO 01014KT 10SM -RA BKN028 OVC036 11/ A3019 RMK     AO2 RAE08B39 SLP211 P0000 T0111 $=,- RA
20180203_200000.002,0,ROTM,,,,1,20180203190000,-1,-1,-1,-1,360,-1,14,-1,22,-1,-1,,-1,0,1,3,SCT 33   BKN 41   OVC 55,0,-1,0,-1,1022,ROTM 031956Z AUTO 36014G22KT 10SM -RA SCT033 BKN041 OVC055 11/     A3019 RMK AO2 SLP212 P0002 T0106 $=,- RA
20180203_210000.004,1,ROTM,,,,1,20180203200000,-1,-1,-1,-1,360,-1,11,-1,-1,-1,-1,,-1,0,1,3,FEW 25   BKN 36   OVC 46,0,-1,0,-1,1022,ROTM 032056Z AUTO 36011KT 10SM -RA FEW025 BKN036 OVC046 10/     A3019 RMK AO2 RAEMMB25 SLP213 P0001 60003 T0100 52004 $=,- RA
20180203_220000.002,0,ROTM,,,,1,20180203210000,-1,-1,-1,-1,10,-1,9,-1,-1,-1,-1,,-1,0,0,3,FEW 38   SCT 46   OVC 80,1,10,1,7,1023,ROTM 032156Z AUTO 01009KT 10SM FEW038 SCT046 OVC080 10/07 A3020     RMK AO2 RAEMMB31E44 SLP217 P0000 T01000072 $=,
20180203_230000.004,1,ROTM,,,,1,20180203220000,-1,-1,-1,-1,20,-1,8,-1,-1,-1,-1,,-1,0,0,3,SCT 35   BKN 44   OVC 70,1,11,1,8,1023,ROTM 032256Z AUTO 02008KT 10SM SCT035 BKN044 OVC070 11/08 A3021     RMK AO2 RAB47E56 SLP221 P0000 T01060078 $=,
20180204_000000.004,1,ROTM,,,,1,20180203230000,-1,-1,-1,-1,20,-1,10,-1,-1,-1,-1,,-1,0,0,2,BKN 37   OVC 45,1,11,1,8,1024,ROTM 032356Z AUTO 02010KT 10SM BKN037 OVC045 11/08 A3023 RMK     AO2 RAB2258E15 SLP225 P0001 60004 T01060078 10111 20100           53012 $=,
20180204_010000.004,1,ROTM,,,,1,20180204000000,-1,-1,-1,-1,10,-1,9,-1,-1,-1,-1,,-1,0,0,3,FEW 23   SCT 28   OVC 46,1,11,1,8,1024,ROTM 040056Z AUTO 01009KT 10SM FEW023 SCT028 OVC046 11/08 A3024     RMK AO2 SLP229 T01110078 $=,
20180204_030000.002,0,ROTM,,,,1,20180204020000,-1,-1,-1,-1,360,-1,10,-1,-1,-1,-1,,-1,0,0,2,BKN 42   OVC 70,1,12,1,8,1023,ROTM 040256Z AUTO 36010KT 10SM BKN042 OVC070 12/08 A3021 RMK     AO2 SLP219 60000 T01170078 58006 $=,
20180204_040000.002,0,ROTM,,,,1,20180204030000,-1,-1,-1,-1,360,-1,14,-1,-1,-1,-1,,-1,0,0,1,OVC 55,1,11,1,7,1023,ROTM 040356Z AUTO 36014KT 10SM OVC055 11/07 A3020 RMK AO2     SLP214 T01110072 $=,
20180204_050000.004,1,ROTM,,,,1,20180204040000,-1,-1,-1,-1,360,-1,16,-1,22,-1,-1,,-1,0,0,3,FEW 33   BKN 42   OVC 50,1,11,1,7,1022,ROTM 040456Z AUTO 36016G22KT 10SM FEW033 BKN042 OVC050 11/07     A3018 RMK AO2 RAB08E25 SLP209 P0000 T01110072 $=,
20180204_060000.002,0,ROTM,,,,1,20180204050000,-1,-1,-1,-1,360,-1,14,-1,-1,-1,-1,,-1,0,0,2,BKN 41   OVC 55,1,12,1,6,1022,ROTM 040556Z AUTO 36014KT 10SM BKN041 OVC055 12/06 A3017 RMK     AO2 SLP206 60000 T01170056 10117 20100 56013 $=,
20180204_070000.004,1,ROTM,,,,1,20180204060000,-1,-1,-1,-1,360,-1,14,-1,23,-1,-1,,-1,0,1,3,FEW 37   BKN 55   OVC 70,1,11,1,7,1022,ROTM 040656Z AUTO 36014G23KT 10SM -RA FEW037 BKN055 OVC070     11/07 A3019 RMK AO2 PK WND 35026/0627 RAB29 SLP212 P0000           T01060072 $=,- RA
20180204_080000.004,1,ROTM,,,,1,20180204070000,-1,-1,-1,-1,10,-1,14,-1,-1,-1,-1,,-1,0,1,3,SCT 34   BKN 43   OVC 90,1,10,1,7,1023,ROTM 040756Z AUTO 01014KT 10SM -RA SCT034 BKN043 OVC090 10/07     A3020 RMK AO2 RAE0657B26 SLP215 P0000 T01000067 $=,- RA
20180204_100000.004,1,ROTM,,,,1,20180204090000,-1,-1,-1,-1,10,-1,14,-1,-1,-1,-1,,-1,0,0,2,BKN 40   OVC 60,1,10,1,6,1023,ROTM 040956Z AUTO 01014KT 10SM BKN040 OVC060 10/06 A3022 RMK     AO2 RAB30E46 SLP223 P0000 T01000056 $=,
20180204_110000.005,1,ROTM,,,,1,20180204100000,-1,-1,-1,-1,360,-1,11,-1,19,-1,-1,,-1,0,0,3,SCT 49   SCT 65   OVC 90,1,11,1,4,1024,ROTM 041056Z AUTO 36011G19KT 10SM SCT049 SCT065 OVC090 11/04     A3023 RMK AO2 SLP226 T01060044 $=,
20180204_120000.002,0,ROTM,,,,1,20180204110000,-1,-1,-1,-1,10,-1,10,-1,-1,-1,-1,,-1,0,0,3,BKN 47   BKN 55   OVC 85,1,10,1,4,1024,ROTM 041156Z AUTO 01010KT 10SM BKN047 BKN055 OVC085 10/04 A3023     RMK AO2 RAB18E32 SLP227 P0000 60000 70006 T01000044 10117           20100 51010 $=,
20180204_130000.004,1,ROTM,,,,1,20180204120000,-1,-1,-1,-1,10,-1,12,-1,18,-1,-1,,-1,0,0,3,SCT 42   BKN 48   OVC 80,1,11,1,5,1024,ROTM 041256Z AUTO 01012G18KT 10SM SCT042 BKN048 OVC080 11/05     A3024 RMK AO2 SLP231 T01060050 $=,
20180204_140000.004,1,ROTM,,,,1,20180204130000,-1,-1,-1,-1,10,-1,9,-1,-1,-1,-1,,-1,0,0,2,FEW 50   BKN 110,1,11,1,4,1024,ROTM 041356Z AUTO 01009KT 10SM FEW050 BKN110 11/04 A3023 RMK     AO2 SLP225 T01060039 $=,
20180204_160000.004,1,ROTM,,,,1,20180204150000,-1,-1,-1,-1,10,-1,8,-1,-1,-1,-1,,-1,0,0,2,BKN 42   OVC 50,1,10,1,6,1023,ROTM 041556Z AUTO 01008KT 10SM BKN042 OVC050 10/06 A3022 RMK     AO2 SLP222 T01000056 $=,
20180204_170000.004,1,ROTM,,,,1,20180204160000,-1,-1,-1,-1,360,-1,13,-1,20,-1,-1,,-1,0,0,3,SCT 49   BKN 100   OVC 120,1,11,1,5,1023,ROTM 041656Z AUTO 36013G20KT 10SM SCT049 BKN100 OVC120 11/05     A3021 RMK AO2 SLP218 T01060050 $=,
20180204_180000.005,1,ROTM,,,,1,20180204170000,-1,-1,-1,-1,360,-1,13,-1,-1,-1,-1,,-1,0,0,3,SCT 50   BKN 70   OVC 95,1,11,1,3,1023,ROTM 041756Z AUTO 36013KT 10SM SCT050 BKN070 OVC095 11/03 A3021     RMK AO2 SLP218 T01060033 10106 20100 55010 $=,
20180204_190000.004,1,ROTM,,,,1,20180204180000,-1,-1,-1,-1,360,-1,14,-1,-1,-1,-1,,-1,0,0,3,BKN 50   BKN 75   OVC 95,1,10,1,4,1022,ROTM 041856Z AUTO 36014KT 10SM BKN050 BKN075 OVC095 10/04 A3019     RMK AO2 SLP213 T01000044 $=,
20180204_200000.004,1,ROTM,,,,1,20180204190000,-1,-1,-1,-1,10,-1,9,-1,-1,-1,-1,,-1,0,0,3,SCT 34   BKN 44   OVC 90,1,10,1,5,1022,ROTM 041956Z AUTO 01009KT 10SM SCT034 BKN044 OVC090 10/05 A3019     RMK AO2 RAB01E43 SLP214 P0000 T01000050 $=,
20180204_210000.002,0,ROTM,,,,1,20180204200000,-1,-1,-1,-1,10,-1,10,-1,19,-1,-1,,-1,0,0,2,BKN 47   OVC 55,1,9,1,4,1023,ROTM 042056Z AUTO 01010G19KT 10SM BKN047 OVC055 09/04 A3020 RMK     AO2 RAB35E50 SLP217 P0000 60000 T00940044 55001 $=,
20180204_220000.004,1,ROTM,,,,1,20180204210000,-1,-1,-1,-1,20,-1,6,-1,-1,-1,-1,,-1,0,0,3,FEW 28   BKN 38   OVC 50,1,9,1,7,1023,ROTM 042156Z AUTO 02006KT 10SM FEW028 BKN038 OVC050 09/07 A3021     RMK AO2 RAB2058E52 SLP221 P0000 T00890067 $=,
20180204_230000.004,1,ROTM,,,,1,20180204220000,-1,-1,-1,-1,10,-1,6,-1,-1,-1,-1,,-1,0,0,2,FEW 38   OVC 60,1,10,1,6,1023,ROTM 042256Z AUTO 01006KT 10SM FEW038 OVC060 10/06 A3022 RMK     AO2 SLP222 T01000056 $=,
20180205_010000.004,1,ROTM,,,,1,20180205000000,-1,-1,-1,-1,20,-1,9,-1,-1,-1,-1,,-1,0,1,3,FEW 39   BKN 48   OVC 60,1,11,1,7,1024,ROTM 050056Z AUTO 02009KT 10SM -RA FEW039 BKN048 OVC060 11/07     A3023 RMK AO2 SLP227 P0000 T01060067 $=,- RA
20180205_020000.004,1,ROTM,,,,1,20180205010000,-1,-1,-1,-1,10,-1,10,-1,-1,-1,-1,,-1,0,1,2,BKN 55   OVC 70,1,11,1,7,1024,ROTM 050156Z AUTO 01010KT 10SM -RA BKN055 OVC070 11/07 A3023     RMK AO2 RAE24B55 SLP224 P0000 T01110067 $=,- RA
