20180101_000000.002,0,ROYN,,,,1,20180101000000,-1,-1,-1,-1,40,-1,15,-1,-1,-1,-1,,9000,0,0,3,SCT 35   BKN 37   OVC 41,1,19,1,13,1023,ROYN 010000Z AUTO 04015KT 9000 SCT035 BKN037 OVC041 19/13     Q1023 RMK A3022=,
20180101_010000.002,0,ROYN,,,,1,20180101010000,-1,-1,-1,-1,50,-1,15,-1,-1,-1,-1,,8000,0,0,2,FEW 35   OVC 50,1,19,1,12,1023,ROYN 010100Z AUTO 05015KT 8000 FEW035 OVC050 19/12 Q1023 RMK     A3022=,
20180101_020000.002,0,ROYN,,,,1,20180101020000,-1,-1,-1,-1,50,-1,19,-1,-1,-1,-1,,9000,0,0,2,SCT 34   OVC 60,1,20,1,13,1023,ROYN 010200Z AUTO 05019KT 9000 SCT034 OVC060 20/13 Q1023 RMK     A3022=,
20180101_030000.002,0,ROYN,,,,1,20180101030000,-1,-1,-1,-1,60,-1,14,-1,-1,-1,-1,,9999,0,0,3,FEW 34   SCT 50   OVC 60,1,20,1,12,1022,ROYN 010300Z AUTO 06014KT 9999 FEW034 SCT050 OVC060 20/12     Q1022 RMK A3020=,
20180101_040000.002,0,ROYN,,,,1,20180101040000,-1,-1,-1,-1,60,-1,15,-1,-1,-1,-1,,9999,0,0,1,NSC -1,1,21,1,12,1021,ROYN 010400Z AUTO 06015KT 9999 NSC 21/12 Q1021 RMK A3016=,
20180101_050000.002,0,ROYN,,,,1,20180101050000,-1,-1,-1,-1,70,-1,16,-1,-1,-1,-1,,9999,0,0,3,SCT 31   BKN 35   BKN 41,1,21,1,13,1020,ROYN 010500Z AUTO 07016KT 9999 SCT031 BKN035 BKN041 21/13     Q1020 RMK A3013=,
20180101_060000.002,0,ROYN,,,,1,20180101060000,-1,-1,-1,-1,60,-1,17,-1,-1,-1,-1,,9999,0,0,3,FEW 30   SCT 36   BKN 60,1,20,1,13,1020,ROYN 010600Z AUTO 06017KT 9999 FEW030 SCT036 BKN060 20/13     Q1020 RMK A3013=,
20180101_070000.002,0,ROYN,,,,1,20180101070000,-1,-1,-1,-1,70,-1,14,-1,-1,-1,-1,,9999,0,0,3,SCT 33   SCT 36   BKN 38,1,20,1,13,1020,ROYN 010700Z AUTO 07014KT 9999 SCT033 SCT036 BKN038 20/13     Q1020 RMK A3012=,
20180101_080000.002,0,ROYN,,,,1,20180101080000,-1,-1,-1,-1,60,-1,16,-1,-1,-1,-1,,9999,0,0,3,FEW 31   SCT 33   BKN 36,1,20,1,13,1020,ROYN 010800Z AUTO 06016KT 9999 FEW031 SCT033 BKN036 20/13     Q1020 RMK A3012=,
20180101_090000.002,0,ROYN,,,,1,20180101090000,-1,-1,-1,-1,70,-1,15,-1,-1,-1,-1,,9999,0,0,3,FEW 32   SCT 38   BKN 43,1,19,1,13,1020,ROYN 010900Z AUTO 07015KT 9999 FEW032 SCT038 BKN043 19/13     Q1020 RMK A3012=,
20180101_100000.002,0,ROYN,,,,1,20180101100000,-1,-1,-1,-1,80,-1,15,-1,-1,-1,-1,,9999,0,0,2,FEW 34   OVC 70,1,19,1,12,1020,ROYN 011000Z AUTO 08015KT 9999 FEW034 OVC070 19/12 Q1020 RMK     A3013=,
20180101_110000.002,0,ROYN,,,,1,20180101110000,-1,-1,-1,-1,70,-1,15,-1,-1,-1,-1,,9999,0,0,3,FEW 33   SCT 42   OVC 70,1,19,1,13,1020,ROYN 011100Z AUTO 07015KT 9999 FEW033 SCT042 OVC070 19/13     Q1020 RMK A3014=,
20180101_120000.002,0,ROYN,,,,1,20180101120000,-1,-1,-1,-1,80,-1,15,-1,-1,-1,-1,,9999,0,0,3,SCT 32   BKN 41   BKN 44,1,20,1,14,1021,ROYN 011200Z AUTO 08015KT 9999 SCT032 BKN041 BKN044 20/14     Q1021 RMK A3016=,
20180101_130000.002,0,ROYN,,,,1,20180101130000,-1,-1,-1,-1,80,-1,16,-1,-1,-1,-1,,9999,0,0,3,FEW 33   SCT 46   BKN 50,1,20,1,13,1021,ROYN 011300Z AUTO 08016KT 9999 FEW033 SCT046 BKN050 20/13     Q1021 RMK A3017=,
20180101_140000.002,0,ROYN,,,,1,20180101140000,-1,-1,-1,-1,90,-1,15,-1,-1,-1,-1,,9999,0,0,2,FEW 35   BKN 50,1,20,1,13,1021,ROYN 011400Z AUTO 09015KT 9999 FEW035 BKN050 20/13 Q1021 RMK     A3017=,
20180101_150000.002,0,ROYN,,,,1,20180101150000,-1,-1,-1,-1,100,-1,10,-1,-1,-1,-1,,9999,0,0,3,SCT 33   SCT 36   BKN 50,1,20,1,13,1021,ROYN 011500Z AUTO 10010KT 9999 SCT033 SCT036 BKN050 20/13     Q1021 RMK A3018=,
20180101_160000.002,0,ROYN,,,,1,20180101160000,-1,-1,-1,-1,100,-1,14,-1,-1,-1,-1,,9999,0,0,3,FEW 29   BKN 50   OVC 60,1,19,1,13,1022,ROYN 011600Z AUTO 10014KT 9999 FEW029 BKN050 OVC060 19/13     Q1022 RMK A3018=,
20180101_170000.002,0,ROYN,,,,1,20180101170000,-1,-1,-1,-1,100,-1,14,-1,-1,-1,-1,,9999,0,0,3,FEW 33   SCT 36   BKN 41,1,20,1,13,1021,ROYN 011700Z AUTO 10014KT 9999 FEW033 SCT036 BKN041 20/13     Q1021 RMK A3017=,
20180101_180000.003,0,ROYN,,,,1,20180101180000,-1,-1,-1,-1,90,-1,14,-1,-1,-1,-1,,9999,0,0,3,FEW 33   SCT 60   OVC 70,1,20,1,13,1021,ROYN 011800Z AUTO 09014KT 9999 FEW033 SCT060 OVC070 20/13     Q1021 RMK A3016=,
20180101_190000.003,0,ROYN,,,,1,20180101190000,-1,-1,-1,-1,100,-1,11,-1,-1,-1,-1,,9999,0,0,2,FEW 34   OVC 80,1,20,1,13,1021,ROYN 011900Z AUTO 10011KT 9999 FEW034 OVC080 20/13 Q1021 RMK     A3015=,
20180101_200000.003,0,ROYN,,,,1,20180101200000,-1,-1,-1,-1,100,-1,11,-1,-1,-1,-1,,9999,0,0,3,SCT 35   SCT 40   BKN 45,1,20,1,13,1020,ROYN 012000Z AUTO 10011KT 9999 SCT035 SCT040 BKN045 20/13     Q1020 RMK A3015=,
20180101_210000.002,0,ROYN,,,,1,20180101210000,-1,-1,-1,-1,100,-1,12,-1,-1,-1,-1,,9999,0,0,3,FEW 36   SCT 44   BKN 50,1,20,1,12,1020,ROYN 012100Z AUTO 10012KT 9999 FEW036 SCT044 BKN050 20/12     Q1020 RMK A3015=,
20180101_220000.002,0,ROYN,,,,1,20180101220000,-1,-1,-1,-1,90,-1,13,-1,-1,-1,-1,,9999,0,0,2,FEW 38   BKN 70,1,20,1,12,1021,ROYN 012200Z AUTO 09013KT 9999 FEW038 BKN070 20/12 Q1021 RMK     A3016=,
20180101_230000.002,0,ROYN,,,,1,20180101230000,-1,-1,-1,-1,100,-1,14,-1,-1,-1,-1,,9999,0,0,3,FEW 34   SCT 44   BKN 60,1,20,1,12,1022,ROYN 012300Z AUTO 10014KT 9999 FEW034 SCT044 BKN060 20/12     Q1022 RMK A3018=,
20180102_000000.003,0,ROYN,,,,1,20180102000000,-1,-1,-1,-1,90,-1,14,-1,-1,-1,-1,,9999,0,0,2,FEW 39   OVC 70,1,21,1,12,1022,ROYN 020000Z AUTO 09014KT 9999 FEW039 OVC070 21/12 Q1022 RMK     A3019=,
20180102_010000.003,0,ROYN,,,,1,20180102010000,-1,-1,-1,-1,90,-1,13,-1,-1,50,120,,9999,0,0,1,FEW 33,1,21,1,13,1022,ROYN 020100Z AUTO 09013KT 050V120 9999 FEW033 21/13 Q1022 RMK     A3020=,
20180102_020000.002,0,ROYN,,,,1,20180102020000,-1,-1,-1,-1,90,-1,13,-1,-1,-1,-1,,9999,0,0,2,FEW 39   BKN 60,1,22,1,12,1022,ROYN 020200Z AUTO 09013KT 9999 FEW039 BKN060 22/12 Q1022 RMK     A3020=,
20180102_030000.002,0,ROYN,,,,1,20180102030000,-1,-1,-1,-1,110,-1,12,-1,-1,70,130,,9999,0,0,2,FEW 40   SCT 60,1,22,1,13,1022,ROYN 020300Z AUTO 11012KT 070V130 9999 FEW040 SCT060 22/13     Q1022 RMK A3018=,
20180102_040000.002,0,ROYN,,,,1,20180102040000,-1,-1,-1,-1,110,-1,9,-1,-1,90,150,,9999,0,0,2,FEW 43   OVC 60,1,21,1,12,1021,ROYN 020400Z AUTO 11009KT 090V150 9999 FEW043 OVC060 21/12     Q1021 RMK A3017=,
20180102_050000.002,0,ROYN,,,,1,20180102050000,-1,-1,-1,-1,110,-1,8,-1,-1,60,180,,9999,0,0,1,NSC -1,1,22,1,13,1020,ROYN 020500Z AUTO 11008KT 060V180 9999 NSC 22/13 Q1020 RMK     A3015=,
20180102_060000.002,0,ROYN,,,,1,20180102060000,-1,-1,-1,-1,110,-1,8,-1,-1,50,150,,9999,0,0,3,FEW 37   SCT 44   BKN 50,1,22,1,13,1020,ROYN 020600Z AUTO 11008KT 050V150 9999 FEW037 SCT044 BKN050     22/13 Q1020 RMK A3013=,
20180102_070000.002,0,ROYN,,,,1,20180102070000,-1,-1,-1,-1,100,-1,9,-1,-1,-1,-1,,9999,0,0,1,FEW 36,1,22,1,14,1019,ROYN 020700Z AUTO 10009KT 9999 FEW036 22/14 Q1019 RMK A3010=,
20180102_080000.002,0,ROYN,,,,1,20180102080000,-1,-1,-1,-1,110,-1,10,-1,-1,-1,-1,,9999,0,0,1,FEW 36,1,22,1,14,1019,ROYN 020800Z AUTO 11010KT 9999 FEW036 22/14 Q1019 RMK A3010=,
20180102_090000.002,0,ROYN,,,,1,20180102090000,-1,-1,-1,-1,110,-1,8,-1,-1,-1,-1,,9999,0,0,3,SCT 36   BKN 40   BKN 42,1,21,1,13,1019,ROYN 020900Z AUTO 11008KT 9999 SCT036 BKN040 BKN042 21/13     Q1019 RMK A3011=,
20180102_100000.002,0,ROYN,,,,1,20180102100000,-1,-1,-1,-1,100,-1,7,-1,-1,-1,-1,,9999,0,0,3,FEW 37   SCT 40   BKN 44,1,20,1,13,1020,ROYN 021000Z AUTO 10007KT 9999 FEW037 SCT040 BKN044 20/13     Q1020 RMK A3012=,
20180102_110000.002,0,ROYN,,,,1,20180102110000,-1,-1,-1,-1,100,-1,10,-1,-1,-1,-1,,9999,0,0,1,NCD -1,1,20,1,13,1020,ROYN 021100Z AUTO 10010KT 9999 NCD 20/13 Q1020 RMK A3013=,
20180102_120000.002,0,ROYN,,,,1,20180102120000,-1,-1,-1,-1,120,-1,9,-1,-1,-1,-1,,9999,0,0,1,BKN 36,1,20,1,13,1020,ROYN 021200Z AUTO 12009KT 9999 BKN036 20/13 Q1020 RMK A3014=,
20180102_130000.003,0,ROYN,,,,1,20180102130000,-1,-1,-1,-1,120,-1,8,-1,-1,-1,-1,,9999,0,0,1,NCD -1,1,20,1,12,1021,ROYN 021300Z AUTO 12008KT 9999 NCD 20/12 Q1021 RMK A3016=,
20180102_140000.003,0,ROYN,,,,1,20180102140000,-1,-1,-1,-1,130,-1,6,-1,-1,-1,-1,,9999,0,0,2,FEW 41   OVC 50,1,20,1,12,1021,ROYN 021400Z AUTO 13006KT 9999 FEW041 OVC050 20/12 Q1021 RMK     A3016=,
20180102_150000.002,0,ROYN,,,,1,20180102150000,-1,-1,-1,-1,120,-1,6,-1,-1,-1,-1,,9999,0,0,2,FEW 37   OVC 60,1,20,1,13,1021,ROYN 021500Z AUTO 12006KT 9999 FEW037 OVC060 20/13 Q1021 RMK     A3016=,
20180102_160000.002,0,ROYN,,,,1,20180102160000,-1,-1,-1,-1,120,-1,7,-1,-1,-1,-1,,9999,0,0,1,NSC -1,1,19,1,12,1021,ROYN 021600Z AUTO 12007KT 9999 NSC 19/12 Q1021 RMK A3016=,
20180102_170000.002,0,ROYN,,,,1,20180102170000,-1,-1,-1,-1,110,-1,9,-1,-1,-1,-1,,9999,0,0,1,NCD -1,1,19,1,13,1020,ROYN 021700Z AUTO 11009KT 9999 NCD 19/13 Q1020 RMK A3015=,
20180102_180000.003,0,ROYN,,,,1,20180102180000,-1,-1,-1,-1,110,-1,8,-1,-1,-1,-1,,9999,0,0,1,FEW 37,1,19,1,13,1020,ROYN 021800Z AUTO 11008KT 9999 FEW037 19/13 Q1020 RMK A3015=,
20180102_190000.002,0,ROYN,,,,1,20180102190000,-1,-1,-1,-1,110,-1,8,-1,-1,-1,-1,,9999,0,0,1,NCD -1,1,19,1,12,1020,ROYN 021900Z AUTO 11008KT 9999 NCD 19/12 Q1020 RMK A3014=,
20180102_200000.003,0,ROYN,,,,1,20180102200000,-1,-1,-1,-1,110,-1,8,-1,-1,-1,-1,,9999,0,0,1,NCD -1,1,19,1,13,1020,ROYN 022000Z AUTO 11008KT 9999 NCD 19/13 Q1020 RMK A3014=,
20180102_210000.002,0,ROYN,,,,1,20180102210000,-1,-1,-1,-1,110,-1,10,-1,-1,-1,-1,,9999,0,0,1,FEW 31,1,19,1,14,1020,ROYN 022100Z AUTO 11010KT 9999 FEW031 19/14 Q1020 RMK A3014=,
20180102_220000.002,0,ROYN,,,,1,20180102220000,-1,-1,-1,-1,110,-1,9,-1,-1,-1,-1,,9999,0,0,1,NCD -1,1,19,1,14,1020,ROYN 022200Z AUTO 11009KT 9999 NCD 19/14 Q1020 RMK A3014=,
20180102_230000.002,0,ROYN,,,,1,20180102230000,-1,-1,-1,-1,110,-1,8,-1,-1,-1,-1,,9999,0,0,1,NCD -1,1,19,1,14,1021,ROYN 022300Z AUTO 11008KT 9999 NCD 19/14 Q1021 RMK A3016=,
20180103_000000.002,0,ROYN,,,,1,20180103000000,-1,-1,-1,-1,110,-1,9,-1,-1,-1,-1,,9999,0,0,1,NCD -1,1,21,1,14,1021,ROYN 030000Z AUTO 11009KT 9999 NCD 21/14 Q1021 RMK A3017=,
20180103_010000.002,0,ROYN,,,,1,20180103010000,-1,-1,-1,-1,110,-1,12,-1,-1,-1,-1,,9999,0,0,1,NCD -1,1,22,1,14,1022,ROYN 030100Z AUTO 11012KT 9999 NCD 22/14 Q1022 RMK A3018=,
20180103_020000.002,0,ROYN,,,,1,20180103020000,-1,-1,-1,-1,110,-1,11,-1,-1,-1,-1,,9999,0,0,1,NCD -1,1,23,1,15,1022,ROYN 030200Z AUTO 11011KT 9999 NCD 23/15 Q1022 RMK A3018=,
20180103_030000.003,0,ROYN,,,,1,20180103030000,-1,-1,-1,-1,110,-1,13,-1,-1,-1,-1,,9999,0,0,1,NCD -1,1,24,1,15,1021,ROYN 030300Z AUTO 11013KT 9999 NCD 24/15 Q1021 RMK A3016=,
20180103_040000.002,0,ROYN,,,,1,20180103040000,-1,-1,-1,-1,100,-1,13,-1,-1,-1,-1,,9999,0,0,1,NCD -1,1,23,1,14,1020,ROYN 030400Z AUTO 10013KT 9999 NCD 23/14 Q1020 RMK A3013=,
20180103_050000.002,0,ROYN,,,,1,20180103050000,-1,-1,-1,-1,110,-1,13,-1,-1,-1,-1,,9999,0,0,1,NCD -1,1,23,1,14,1019,ROYN 030500Z AUTO 11013KT 9999 NCD 23/14 Q1019 RMK A3010=,
20180103_060000.002,0,ROYN,,,,1,20180103060000,-1,-1,-1,-1,90,-1,11,-1,-1,-1,-1,,9999,0,0,1,FEW 35,1,23,1,14,1019,ROYN 030600Z AUTO 09011KT 9999 FEW035 23/14 Q1019 RMK A3009=,
20180103_070000.002,0,ROYN,,,,1,20180103070000,-1,-1,-1,-1,90,-1,11,-1,-1,-1,-1,,9999,0,0,1,NCD -1,1,23,1,14,1018,ROYN 030700Z AUTO 09011KT 9999 NCD 23/14 Q1018 RMK A3008=,
20180103_080000.002,0,ROYN,,,,1,20180103080000,-1,-1,-1,-1,110,-1,9,-1,-1,-1,-1,,9999,0,0,1,NCD -1,1,22,1,14,1018,ROYN 030800Z AUTO 11009KT 9999 NCD 22/14 Q1018 RMK A3008=,
20180103_090000.002,0,ROYN,,,,1,20180103090000,-1,-1,-1,-1,100,-1,7,-1,-1,-1,-1,,9999,0,0,1,NCD -1,1,21,1,15,1019,ROYN 030900Z AUTO 10007KT 9999 NCD 21/15 Q1019 RMK A3009=,
20180103_100000.002,0,ROYN,,,,1,20180103100000,-1,-1,-1,-1,110,-1,6,-1,-1,-1,-1,,9999,0,0,1,NCD -1,1,20,1,15,1019,ROYN 031000Z AUTO 11006KT 9999 NCD 20/15 Q1019 RMK A3011=,
20180103_110000.002,0,ROYN,,,,1,20180103110000,-1,-1,-1,-1,110,-1,7,-1,-1,-1,-1,,9999,0,0,1,FEW 33,1,20,1,15,1020,ROYN 031100Z AUTO 11007KT 9999 FEW033 20/15 Q1020 RMK A3013=,
20180103_120000.002,0,ROYN,,,,1,20180103120000,-1,-1,-1,-1,120,-1,7,-1,-1,-1,-1,,9999,0,0,1,NCD -1,1,20,1,14,1021,ROYN 031200Z AUTO 12007KT 9999 NCD 20/14 Q1021 RMK A3015=,
20180103_130000.003,0,ROYN,,,,1,20180103130000,-1,-1,-1,-1,110,-1,8,-1,-1,-1,-1,,9999,0,0,1,NCD -1,1,20,1,15,1021,ROYN 031300Z AUTO 11008KT 9999 NCD 20/15 Q1021 RMK A3016=,
20180103_140000.002,0,ROYN,,,,1,20180103140000,-1,-1,-1,-1,110,-1,8,-1,-1,-1,-1,,9999,0,0,1,NCD -1,1,20,1,15,1021,ROYN 031400Z AUTO 11008KT 9999 NCD 20/15 Q1021 RMK A3016=,
20180103_150000.002,0,ROYN,,,,1,20180103150000,-1,-1,-1,-1,110,-1,10,-1,-1,-1,-1,,9999,0,0,1,NCD -1,1,20,1,15,1020,ROYN 031500Z AUTO 11010KT 9999 NCD 20/15 Q1020 RMK A3014=,
20180103_160000.002,0,ROYN,,,,1,20180103160000,-1,-1,-1,-1,110,-1,11,-1,-1,-1,-1,,9999,0,0,1,NCD -1,1,20,1,14,1020,ROYN 031600Z AUTO 11011KT 9999 NCD 20/14 Q1020 RMK A3013=,
20180103_170000.002,0,ROYN,,,,1,20180103170000,-1,-1,-1,-1,120,-1,9,-1,-1,-1,-1,,9999,0,0,1,NCD -1,1,20,1,14,1019,ROYN 031700Z AUTO 12009KT 9999 NCD 20/14 Q1019 RMK A3011=,
20180103_180000.002,0,ROYN,,,,1,20180103180000,-1,-1,-1,-1,120,-1,10,-1,-1,-1,-1,,9999,0,0,1,NSC -1,1,21,1,15,1019,ROYN 031800Z AUTO 12010KT 9999 NSC 21/15 Q1019 RMK A3009=,
20180103_190000.002,0,ROYN,,,,1,20180103190000,-1,-1,-1,-1,130,-1,8,-1,-1,-1,-1,,9999,0,0,1,NSC -1,1,20,1,15,1018,ROYN 031900Z AUTO 13008KT 9999 NSC 20/15 Q1018 RMK A3009=,
20180103_200000.002,0,ROYN,,,,1,20180103200000,-1,-1,-1,-1,110,-1,8,-1,-1,-1,-1,,9999,0,0,1,FEW 28,1,20,1,15,1018,ROYN 032000Z AUTO 11008KT 9999 FEW028 20/15 Q1018 RMK A3008=,
20180103_210000.003,0,ROYN,,,,1,20180103210000,-1,-1,-1,-1,110,-1,9,-1,-1,-1,-1,,9999,0,0,2,FEW 26   BKN 70,1,21,1,16,1018,ROYN 032100Z AUTO 11009KT 9999 FEW026 BKN070 21/16 Q1018 RMK     A3008=,
20180103_220000.002,0,ROYN,,,,1,20180103220000,-1,-1,-1,-1,110,-1,12,-1,-1,-1,-1,,9999,0,0,3,FEW 24   SCT 28   BKN 36,1,21,1,17,1018,ROYN 032200Z AUTO 11012KT 9999 FEW024 SCT028 BKN036 21/17     Q1018 RMK A3008=,
20180103_230000.002,0,ROYN,,,,1,20180103230000,-1,-1,-1,-1,120,-1,13,-1,-1,-1,-1,,9999,0,0,1,FEW 23,1,21,1,17,1018,ROYN 032300Z AUTO 12013KT 9999 FEW023 21/17 Q1018 RMK A3008=,
20180104_000000.002,0,ROYN,,,,1,20180104000000,-1,-1,-1,-1,120,-1,15,-1,-1,-1,-1,,9999,0,0,2,SCT 23   BKN 29,1,22,1,17,1018,ROYN 040000Z AUTO 12015KT 9999 SCT023 BKN029 22/17 Q1018 RMK     A3008=,
20180104_010000.002,0,ROYN,,,,1,20180104010000,-1,-1,-1,-1,120,-1,13,-1,-1,-1,-1,,9999,0,0,1,FEW 25,1,23,1,17,1018,ROYN 040100Z AUTO 12013KT 9999 FEW025 23/17 Q1018 RMK A3008=,
20180104_020000.002,0,ROYN,,,,1,20180104020000,-1,-1,-1,-1,120,-1,13,-1,-1,-1,-1,,9999,0,0,3,FEW 25   SCT 30   BKN 34,1,24,1,18,1018,ROYN 040200Z AUTO 12013KT 9999 FEW025 SCT030 BKN034 24/18     Q1018 RMK A3009=,
20180104_030000.002,0,ROYN,,,,1,20180104030000,-1,-1,-1,-1,130,-1,11,-1,-1,100,170,,9999,0,0,3,FEW 25   SCT 29   BKN 32,1,23,1,17,1018,ROYN 040300Z AUTO 13011KT 100V170 9999 FEW025 SCT029 BKN032     23/17 Q1018 RMK A3007=,
20180104_040000.002,0,ROYN,,,,1,20180104040000,-1,-1,-1,-1,130,-1,10,-1,-1,100,170,,9999,0,0,3,SCT 24   SCT 29   BKN 39,1,23,1,18,1017,ROYN 040400Z AUTO 13010KT 100V170 9999 SCT024 SCT029 BKN039     23/18 Q1017 RMK A3004=,
20180104_050000.002,0,ROYN,,,,1,20180104050000,-1,-1,-1,-1,130,-1,13,-1,-1,-1,-1,,9999,0,0,3,FEW 23   SCT 30   BKN 70,1,23,1,17,1016,ROYN 040500Z AUTO 13013KT 9999 FEW023 SCT030 BKN070 23/17     Q1016 RMK A3001=,
20180104_060000.003,0,ROYN,,,,1,20180104060000,-1,-1,-1,-1,140,-1,11,-1,-1,-1,-1,,9999,0,0,2,SCT 23   OVC 70,1,23,1,18,1015,ROYN 040600Z AUTO 14011KT 9999 SCT023 OVC070 23/18 Q1015 RMK     A2999=,
20180104_070000.002,0,ROYN,,,,1,20180104070000,-1,-1,-1,-1,130,-1,12,-1,-1,110,170,,9999,0,0,3,FEW 21   SCT 60   OVC 70,1,22,1,18,1015,ROYN 040700Z AUTO 13012KT 110V170 9999 FEW021 SCT060 OVC070     22/18 Q1015 RMK A2998=,
20180104_080000.002,0,ROYN,,,,1,20180104080000,-1,-1,-1,-1,140,-1,10,-1,-1,-1,-1,,9999,0,0,3,FEW 22   BKN 44   OVC 70,1,22,1,18,1015,ROYN 040800Z AUTO 14010KT 9999 FEW022 BKN044 OVC070 22/18     Q1015 RMK A2999=,
20180104_090000.002,0,ROYN,,,,1,20180104090000,-1,-1,-1,-1,140,-1,13,-1,-1,110,170,,9999,0,0,3,SCT 21   BKN 38   BKN 43,1,22,1,18,1015,ROYN 040900Z AUTO 14013KT 110V170 9999 SCT021 BKN038 BKN043     22/18 Q1015 RMK A2998=,
20180104_100000.002,0,ROYN,,,,1,20180104100000,-1,-1,-1,-1,140,-1,9,-1,-1,-1,-1,,9999,0,1,3,FEW 20   SCT 31   BKN 33,1,21,1,18,1015,ROYN 041000Z AUTO 14009KT 9999 -RA FEW020 SCT031 BKN033 21/18     Q1015 RMK A2998=,- RA
20180104_110000.002,0,ROYN,,,,1,20180104110000,-1,-1,-1,-1,140,-1,14,-1,-1,-1,-1,,9999,0,1,3,SCT 18   SCT 23   OVC 28,1,21,1,19,1015,ROYN 041100Z AUTO 14014KT 9999 -RA SCT018 SCT023 OVC028 21/19     Q1015 RMK A2998=,- RA
20180104_120000.003,0,ROYN,,,,1,20180104120000,-1,-1,-1,-1,150,-1,14,-1,-1,-1,-1,,9999,0,0,3,SCT 7   BKN 9   BKN 11,1,21,1,20,1016,ROYN 041200Z AUTO 15014KT 9999 SCT007 BKN009 BKN011 21/20     Q1016 RMK A3000=,
20180104_130000.002,0,ROYN,,,,1,20180104130000,-1,-1,-1,-1,150,-1,12,-1,-1,-1,-1,,9999,0,1,3,FEW 9   BKN 10   BKN 28,1,21,1,20,1015,ROYN 041300Z AUTO 15012KT 9999 -RA FEW009 BKN010 BKN028 21/20     Q1015 RMK A2999=,- RA
20180104_140000.002,0,ROYN,,,,1,20180104140000,-1,-1,-1,-1,170,-1,10,-1,-1,-1,-1,,9999,0,1,3,FEW 8   SCT 29   BKN 36,1,21,1,20,1015,ROYN 041400Z AUTO 17010KT 9999 -RA FEW008 SCT029 BKN036 21/20     Q1015 RMK A2997=,- RA
20180104_150000.003,0,ROYN,,,,1,20180104150000,-1,-1,-1,-1,230,-1,6,-1,-1,180,270,,9999,0,1,3,BKN 9   BKN 14   OVC 34,1,21,1,20,1015,ROYN 041500Z AUTO 23006KT 180V270 9999 -RA BKN009 BKN014     OVC034 21/20 Q1015 RMK A2997=,- RA
20180104_160000.003,0,ROYN,,,,1,20180104160000,-1,-1,-1,-1,230,-1,6,-1,-1,-1,-1,,4300,0,2,3,FEW 6   SCT 14   BKN 20,1,21,1,20,1014,ROYN 041600Z AUTO 23006KT 4300 -RA BR FEW006 SCT014 BKN020     21/20 Q1014 RMK A2997=,- RA; BR
20180104_170000.003,0,ROYN,,,,1,20180104170000,-1,-1,-1,-1,200,-1,15,-1,-1,-1,-1,,2100,0,1,3,FEW 5   SCT 11   BKN 18,1,20,1,19,1014,ROYN 041700Z AUTO 20015KT 2100 BR FEW005 SCT011 BKN018 20/19     Q1014 RMK A2995=,BR
20180104_180000.002,0,ROYN,,,,1,20180104180000,-1,-1,-1,-1,240,-1,6,-1,-1,-1,-1,,9999,0,0,3,FEW 47   SCT 48   OVC 50,1,20,1,19,1013,ROYN 041800Z AUTO 24006KT 9999 FEW047 SCT048 OVC050 20/19     Q1013 RMK A2994=,
20180104_190000.003,0,ROYN,,,,1,20180104190000,-1,-1,-1,-1,310,-1,10,-1,-1,-1,-1,,9999,0,1,3,BKN 11   BKN 15   OVC 42,1,22,1,20,1013,ROYN 041900Z AUTO 31010KT 9999 -RA BKN011 BKN015 OVC042 22/20     Q1013 RMK A2994=,- RA
20180104_200000.002,0,ROYN,,,,1,20180104200000,-1,-1,-1,-1,330,-1,19,-1,-1,-1,-1,,9999,0,0,2,SCT 17   OVC 21,1,21,1,19,1013,ROYN 042000Z AUTO 33019KT 9999 SCT017 OVC021 21/19 Q1013 RMK     A2994=,
20180104_210000.002,0,ROYN,,,,1,20180104210000,-1,-1,-1,-1,340,-1,21,-1,-1,-1,-1,,9999,0,0,3,FEW 14   SCT 17   OVC 21,1,21,1,19,1014,ROYN 042100Z AUTO 34021KT 9999 FEW014 SCT017 OVC021 21/19     Q1014 RMK A2994=,
20180104_220000.002,0,ROYN,,,,1,20180104220000,-1,-1,-1,-1,330,-1,21,-1,-1,-1,-1,,9999,0,0,3,FEW 15   SCT 23   OVC 26,1,21,1,19,1014,ROYN 042200Z AUTO 33021KT 9999 FEW015 SCT023 OVC026 21/19     Q1014 RMK A2996=,
20180104_230000.002,0,ROYN,,,,1,20180104230000,-1,-1,-1,-1,340,-1,23,-1,-1,-1,-1,,9999,0,0,3,SCT 16   SCT 29   BKN 32,1,20,1,18,1015,ROYN 042300Z AUTO 34023KT 9999 SCT016 SCT029 BKN032 20/18     Q1015 RMK A2999=,
20180105_000000.002,0,ROYN,,,,1,20180105000000,-1,-1,-1,-1,340,-1,24,-1,-1,-1,-1,,9999,0,0,3,SCT 15   SCT 23   BKN 25,1,20,1,18,1016,ROYN 050000Z AUTO 34024KT 9999 SCT015 SCT023 BKN025 20/18     Q1016 RMK A3002=,
20180105_010000.003,0,ROYN,,,,1,20180105010000,-1,-1,-1,-1,340,-1,23,-1,-1,-1,-1,,7000,0,1,2,BKN 10   OVC 24,1,20,1,18,1017,ROYN 050100Z AUTO 34023KT 7000 -RA BKN010 OVC024 20/18 Q1017     RMK A3004=,- RA
20180105_020000.002,0,ROYN,,,,1,20180105020000,-1,-1,-1,-1,350,-1,24,-1,-1,-1,-1,,2500,0,2,3,FEW 7   SCT 19   BKN 25,1,19,1,18,1017,ROYN 050200Z AUTO 35024KT 2500 -RA BR FEW007 SCT019 BKN025     19/18 Q1017 RMK A3005=,- RA; BR
20180105_030000.002,0,ROYN,,,,1,20180105030000,-1,-1,-1,-1,350,-1,22,-1,-1,-1,-1,,6000,0,0,3,FEW 9   SCT 11   BKN 20,1,20,1,19,1016,ROYN 050300Z AUTO 35022KT 6000 FEW009 SCT011 BKN020 20/19     Q1016 RMK A3003=,
20180105_040000.002,0,ROYN,,,,1,20180105040000,-1,-1,-1,-1,360,-1,23,-1,-1,-1,-1,,6000,0,0,3,BKN 15   BKN 24   OVC 29,1,20,1,18,1016,ROYN 050400Z AUTO 36023KT 6000 BKN015 BKN024 OVC029 20/18     Q1016 RMK A3001=,
20180105_050000.002,0,ROYN,,,,1,20180105050000,-1,-1,-1,-1,360,-1,23,-1,-1,-1,-1,,9999,0,0,3,BKN 15   BKN 32   BKN 33,1,20,1,18,1015,ROYN 050500Z AUTO 36023KT 9999 BKN015 BKN032 BKN033 20/18     Q1015 RMK A2999=,
20180105_060000.002,0,ROYN,,,,1,20180105060000,-1,-1,-1,-1,360,-1,23,-1,-1,-1,-1,,9999,0,0,3,FEW 9   SCT 13   BKN 29,1,20,1,18,1015,ROYN 050600Z AUTO 36023KT 9999 FEW009 SCT013 BKN029 20/18     Q1015 RMK A2997=,
20180105_070000.002,0,ROYN,,,,1,20180105070000,-1,-1,-1,-1,20,-1,26,-1,-1,-1,-1,,7000,0,0,3,FEW 10   SCT 14   BKN 19,1,19,1,17,1015,ROYN 050700Z AUTO 02026KT 7000 FEW010 SCT014 BKN019 19/17     Q1015 RMK A2998=,
20180105_080000.002,0,ROYN,,,,1,20180105080000,-1,-1,-1,-1,20,-1,25,-1,-1,-1,-1,,9999,0,0,3,SCT 17   BKN 27   BKN 29,1,19,1,17,1015,ROYN 050800Z AUTO 02025KT 9999 SCT017 BKN027 BKN029 19/17     Q1015 RMK A3000=,
20180105_090000.002,0,ROYN,,,,1,20180105090000,-1,-1,-1,-1,30,-1,24,-1,-1,-1,-1,,9000,0,0,3,FEW 16   SCT 21   BKN 27,1,19,1,17,1016,ROYN 050900Z AUTO 03024KT 9000 FEW016 SCT021 BKN027 19/17     Q1016 RMK A3002=,
20180105_100000.002,0,ROYN,,,,1,20180105100000,-1,-1,-1,-1,30,-1,25,-1,-1,-1,-1,,8000,0,0,2,FEW 17   OVC 29,1,19,1,16,1017,ROYN 051000Z AUTO 03025KT 8000 FEW017 OVC029 19/16 Q1017 RMK     A3004=,
20180105_110000.002,0,ROYN,,,,1,20180105110000,-1,-1,-1,-1,30,-1,24,-1,-1,-1,-1,,3500,0,1,2,SCT 20   OVC 29,1,19,1,16,1018,ROYN 051100Z AUTO 03024KT 3500 BR SCT020 OVC029 19/16 Q1018     RMK A3006=,BR
20180105_120000.002,0,ROYN,,,,1,20180105120000,-1,-1,-1,-1,30,-1,23,-1,-1,-1,-1,,8000,0,0,3,FEW 19   BKN 21   OVC 30,1,18,1,16,1018,ROYN 051200Z AUTO 03023KT 8000 FEW019 BKN021 OVC030 18/16     Q1018 RMK A3007=,
20180105_130000.002,0,ROYN,,,,1,20180105130000,-1,-1,-1,-1,30,-1,25,-1,-1,-1,-1,,8000,0,0,2,FEW 22   OVC 29,1,19,1,16,1018,ROYN 051300Z AUTO 03025KT 8000 FEW022 OVC029 19/16 Q1018 RMK     A3008=,
20180105_140000.002,0,ROYN,,,,1,20180105140000,-1,-1,-1,-1,40,-1,20,-1,-1,-1,-1,,7000,0,0,3,FEW 17   SCT 24   OVC 33,1,19,1,16,1018,ROYN 051400Z AUTO 04020KT 7000 FEW017 SCT024 OVC033 19/16     Q1018 RMK A3008=,
20180105_150000.002,0,ROYN,,,,1,20180105150000,-1,-1,-1,-1,30,-1,22,-1,-1,-1,-1,,7000,0,0,3,FEW 17   SCT 26   BKN 29,1,18,1,16,1018,ROYN 051500Z AUTO 03022KT 7000 FEW017 SCT026 BKN029 18/16     Q1018 RMK A3008=,
20180105_160000.003,0,ROYN,,,,1,20180105160000,-1,-1,-1,-1,30,-1,20,-1,-1,-1,-1,,8000,0,0,3,FEW 17   SCT 23   OVC 30,1,19,1,16,1018,ROYN 051600Z AUTO 03020KT 8000 FEW017 SCT023 OVC030 19/16     Q1018 RMK A3008=,
20180105_170000.002,0,ROYN,,,,1,20180105170000,-1,-1,-1,-1,40,-1,16,-1,-1,-1,-1,,6000,0,0,3,FEW 19   SCT 22   BKN 27,1,19,1,16,1018,ROYN 051700Z AUTO 04016KT 6000 FEW019 SCT022 BKN027 19/16     Q1018 RMK A3007=,
20180105_180000.003,0,ROYN,,,,1,20180105180000,-1,-1,-1,-1,40,-1,20,-1,-1,-1,-1,,8000,0,0,3,SCT 17   BKN 21   BKN 26,1,18,1,16,1018,ROYN 051800Z AUTO 04020KT 8000 SCT017 BKN021 BKN026 18/16     Q1018 RMK A3006=,
20180105_190000.002,0,ROYN,,,,1,20180105190000,-1,-1,-1,-1,40,-1,18,-1,-1,-1,-1,,9000,0,0,2,SCT 20   OVC 29,1,18,1,15,1017,ROYN 051900Z AUTO 04018KT 9000 SCT020 OVC029 18/15 Q1017 RMK     A3005=,
20180105_200000.002,0,ROYN,,,,1,20180105200000,-1,-1,-1,-1,40,-1,16,-1,-1,-1,-1,,9999,0,0,3,FEW 20   BKN 23   BKN 27,1,19,1,15,1017,ROYN 052000Z AUTO 04016KT 9999 FEW020 BKN023 BKN027 19/15     Q1017 RMK A3005=,
20180105_210000.003,0,ROYN,,,,1,20180105210000,-1,-1,-1,-1,60,-1,16,-1,-1,-1,-1,,9000,0,0,3,BKN 16   BKN 23   BKN 27,1,18,1,15,1017,ROYN 052100Z AUTO 06016KT 9000 BKN016 BKN023 BKN027 18/15     Q1017 RMK A3006=,
20180105_220000.002,0,ROYN,,,,1,20180105220000,-1,-1,-1,-1,70,-1,12,-1,-1,-1,-1,,3800,0,2,3,BKN 21   BKN 29   OVC 31,1,17,1,15,1018,ROYN 052200Z AUTO 07012KT 3800 -RA BR BKN021 BKN029 OVC031     17/15 Q1018 RMK A3007=,- RA; BR
20180105_230000.002,0,ROYN,,,,1,20180105230000,-1,-1,-1,-1,50,-1,17,-1,-1,-1,-1,,8000,0,0,3,BKN 22   BKN 27   BKN 30,1,19,1,16,1018,ROYN 052300Z AUTO 05017KT 8000 BKN022 BKN027 BKN030 19/16     Q1018 RMK A3009=,
20180106_000000.002,0,ROYN,,,,1,20180106000000,-1,-1,-1,-1,70,-1,14,-1,-1,-1,-1,,9999,0,0,2,BKN 23   OVC 29,1,19,1,15,1019,ROYN 060000Z AUTO 07014KT 9999 BKN023 OVC029 19/15 Q1019 RMK     A3009=,
20180106_010000.002,0,ROYN,,,,1,20180106010000,-1,-1,-1,-1,70,-1,15,-1,-1,-1,-1,,9999,0,0,2,BKN 23   OVC 30,1,19,1,15,1019,ROYN 060100Z AUTO 07015KT 9999 BKN023 OVC030 19/15 Q1019 RMK     A3011=,
20180106_020000.002,0,ROYN,,,,1,20180106020000,-1,-1,-1,-1,80,-1,16,-1,-1,-1,-1,,3200,0,1,3,FEW 11   SCT 15   BKN 20,1,18,1,16,1019,ROYN 060200Z AUTO 08016KT 3200 BR FEW011 SCT015 BKN020 18/16     Q1019 RMK A3010=,BR
20180106_030000.002,0,ROYN,,,,1,20180106030000,-1,-1,-1,-1,80,-1,13,-1,-1,-1,-1,,9999,0,0,3,BKN 14   BKN 19   OVC 29,1,19,1,16,1019,ROYN 060300Z AUTO 08013KT 9999 BKN014 BKN019 OVC029 19/16     Q1019 RMK A3009=,
20180106_040000.002,0,ROYN,,,,1,20180106040000,-1,-1,-1,-1,60,-1,14,-1,-1,-1,-1,,8000,0,0,2,BKN 19   OVC 24,1,19,1,16,1017,ROYN 060400Z AUTO 06014KT 8000 BKN019 OVC024 19/16 Q1017 RMK     A3006=,
20180106_050000.002,0,ROYN,,,,1,20180106050000,-1,-1,-1,-1,80,-1,15,-1,-1,-1,-1,,9999,0,0,3,SCT 19   BKN 23   BKN 26,1,19,1,16,1016,ROYN 060500Z AUTO 08015KT 9999 SCT019 BKN023 BKN026 19/16     Q1016 RMK A3002=,
20180106_060000.002,0,ROYN,,,,1,20180106060000,-1,-1,-1,-1,90,-1,13,-1,-1,-1,-1,,9999,0,0,3,BKN 22   BKN 25   OVC 39,1,19,1,15,1016,ROYN 060600Z AUTO 09013KT 9999 BKN022 BKN025 OVC039 19/15     Q1016 RMK A3001=,
20180106_070000.002,0,ROYN,,,,1,20180106070000,-1,-1,-1,-1,90,-1,15,-1,-1,-1,-1,,9999,0,0,3,BKN 21   BKN 26   OVC 37,1,19,1,15,1015,ROYN 060700Z AUTO 09015KT 9999 BKN021 BKN026 OVC037 19/15     Q1015 RMK A3000=,
20180106_080000.002,0,ROYN,,,,1,20180106080000,-1,-1,-1,-1,80,-1,16,-1,-1,-1,-1,,9999,0,0,3,SCT 17   BKN 20   BKN 23,1,19,1,16,1016,ROYN 060800Z AUTO 08016KT 9999 SCT017 BKN020 BKN023 19/16     Q1016 RMK A3000=,
20180106_090000.002,0,ROYN,,,,1,20180106090000,-1,-1,-1,-1,100,-1,11,-1,-1,-1,-1,,9999,0,0,3,FEW 19   SCT 24   BKN 27,1,19,1,16,1016,ROYN 060900Z AUTO 10011KT 9999 FEW019 SCT024 BKN027 19/16     Q1016 RMK A3002=,
20180106_100000.002,0,ROYN,,,,1,20180106100000,-1,-1,-1,-1,100,-1,13,-1,-1,-1,-1,,9999,0,0,3,SCT 19   BKN 23   BKN 26,1,18,1,16,1016,ROYN 061000Z AUTO 10013KT 9999 SCT019 BKN023 BKN026 18/16     Q1016 RMK A3002=,
20180106_110000.002,0,ROYN,,,,1,20180106110000,-1,-1,-1,-1,80,-1,17,-1,-1,-1,-1,,5000,0,1,3,BKN 13   BKN 19   OVC 24,1,19,1,17,1016,ROYN 061100Z AUTO 08017KT 5000 BR BKN013 BKN019 OVC024 19/17     Q1016 RMK A3003=,BR
20180106_120000.002,0,ROYN,,,,1,20180106120000,-1,-1,-1,-1,90,-1,12,-1,-1,-1,-1,,6000,0,1,2,BKN 12   OVC 25,1,18,1,17,1017,ROYN 061200Z AUTO 09012KT 6000 -RA BKN012 OVC025 18/17 Q1017     RMK A3004=,- RA
20180106_130000.002,0,ROYN,,,,1,20180106130000,-1,-1,-1,-1,90,-1,15,-1,-1,-1,-1,,6000,0,0,2,BKN 11   OVC 17,1,18,1,17,1017,ROYN 061300Z AUTO 09015KT 6000 BKN011 OVC017 18/17 Q1017 RMK     A3004=,
20180106_140000.003,0,ROYN,,,,1,20180106140000,-1,-1,-1,-1,90,-1,14,-1,-1,-1,-1,,9999,0,0,3,SCT 10   BKN 13   BKN 17,1,18,1,17,1017,ROYN 061400Z AUTO 09014KT 9999 SCT010 BKN013 BKN017 18/17     Q1017 RMK A3004=,
20180106_150000.002,0,ROYN,,,,1,20180106150000,-1,-1,-1,-1,100,-1,10,-1,-1,-1,-1,,7000,0,1,3,FEW 7   SCT 11   BKN 15,1,18,1,18,1017,ROYN 061500Z AUTO 10010KT 7000 -RA FEW007 SCT011 BKN015 18/18     Q1017 RMK A3004=,- RA
20180106_160000.002,0,ROYN,,,,1,20180106160000,-1,-1,-1,-1,120,-1,10,-1,-1,-1,-1,,9000,0,1,3,FEW 6   SCT 10   BKN 30,1,18,1,18,1017,ROYN 061600Z AUTO 12010KT 9000 -RA FEW006 SCT010 BKN030 18/18     Q1017 RMK A3004=,- RA
20180106_170000.002,0,ROYN,,,,1,20180106170000,-1,-1,-1,-1,110,-1,9,-1,-1,-1,-1,,7000,0,1,3,FEW 7   SCT 10   BKN 17,1,18,1,18,1016,ROYN 061700Z AUTO 11009KT 7000 -RA FEW007 SCT010 BKN017 18/18     Q1016 RMK A3003=,- RA
20180106_180000.003,0,ROYN,,,,1,20180106180000,-1,-1,-1,-1,120,-1,7,-1,-1,-1,-1,,9999,0,1,1,NSC -1,1,18,1,18,1016,ROYN 061800Z AUTO 12007KT 9999 -RA NSC 18/18 Q1016 RMK A3001=,- RA
20180106_190000.002,0,ROYN,,,,1,20180106190000,-1,-1,-1,-1,100,-1,5,-1,-1,-1,-1,,9999,0,1,1,NSC -1,1,18,1,18,1016,ROYN 061900Z AUTO 10005KT 9999 -RA NSC 18/18 Q1016 RMK A3000=,- RA
20180106_200000.002,0,ROYN,,,,1,20180106200000,-1,-1,-1,-1,100,-1,7,-1,-1,-1,-1,,9000,0,1,3,FEW 7   SCT 17   BKN 40,1,18,1,18,1015,ROYN 062000Z AUTO 10007KT 9000 -RA FEW007 SCT017 BKN040 18/18     Q1015 RMK A3000=,- RA
20180106_210000.002,0,ROYN,,,,1,20180106210000,-1,-1,-1,-1,90,-1,13,-1,-1,-1,-1,,4300,0,2,3,BKN 6   BKN 15   OVC 26,1,19,1,18,1016,ROYN 062100Z AUTO 09013KT 4300 RA BR BKN006 BKN015 OVC026     19/18 Q1016 RMK A3001 RI005=,RA; BR
20180106_220000.002,0,ROYN,,,,1,20180106220000,-1,-1,-1,-1,60,-1,15,-1,-1,-1,-1,,2800,0,2,3,FEW 5   SCT 7   BKN 9,1,19,1,18,1016,ROYN 062200Z AUTO 06015KT 2800 -RA BR FEW005 SCT007 BKN009     19/18 Q1016 RMK A3003=,- RA; BR
20180106_230000.002,0,ROYN,,,,1,20180106230000,-1,-1,-1,-1,70,-1,13,-1,-1,-1,-1,,9000,0,0,3,SCT 6   SCT 9   BKN 10,1,19,1,18,1017,ROYN 062300Z AUTO 07013KT 9000 SCT006 SCT009 BKN010 19/18     Q1017 RMK A3003=,
20180107_000000.002,0,ROYN,,,,1,20180107000000,-1,-1,-1,-1,60,-1,20,-1,-1,-1,-1,,2200,0,2,3,BKN 5   BKN 13   OVC 29,1,19,1,18,1017,ROYN 070000Z AUTO 06020KT 2200 -RA BR BKN005 BKN013 OVC029     19/18 Q1017 RMK A3006=,- RA; BR
20180107_010000.003,0,ROYN,,,,1,20180107010000,-1,-1,-1,-1,60,-1,18,-1,-1,-1,-1,,7000,0,0,3,FEW 11   SCT 30   BKN 38,1,19,1,18,1018,ROYN 070100Z AUTO 06018KT 7000 FEW011 SCT030 BKN038 19/18     Q1018 RMK A3008=,
20180107_020000.002,0,ROYN,,,,1,20180107020000,-1,-1,-1,-1,70,-1,17,-1,-1,-1,-1,,5000,0,2,3,FEW 5   SCT 18   BKN 35,1,19,1,18,1018,ROYN 070200Z AUTO 07017KT 5000 -RA BR FEW005 SCT018 BKN035     19/18 Q1018 RMK A3008=,- RA; BR
20180107_030000.002,0,ROYN,,,,1,20180107030000,-1,-1,-1,-1,110,-1,10,-1,-1,-1,-1,,9999,0,0,3,FEW 9   SCT 32   BKN 43,1,19,1,17,1017,ROYN 070300Z AUTO 11010KT 9999 FEW009 SCT032 BKN043 19/17     Q1017 RMK A3005=,
20180107_040000.002,0,ROYN,,,,1,20180107040000,-1,-1,-1,-1,110,-1,12,-1,-1,-1,-1,,9999,0,0,1,NSC -1,1,20,1,17,1016,ROYN 070400Z AUTO 11012KT 9999 NSC 20/17 Q1016 RMK A3001=,
20180107_050000.002,0,ROYN,,,,1,20180107050000,-1,-1,-1,-1,100,-1,8,-1,-1,-1,-1,,9999,0,1,2,FEW 19   OVC 50,1,21,1,18,1016,ROYN 070500Z AUTO 10008KT 9999 -RA FEW019 OVC050 21/18 Q1016     RMK A3000=,- RA
20180107_060000.002,0,ROYN,,,,1,20180107060000,-1,-1,-1,-1,110,-1,12,-1,-1,-1,-1,,9999,0,0,1,NSC -1,1,21,1,17,1015,ROYN 070600Z AUTO 11012KT 9999 NSC 21/17 Q1015 RMK A2998=,
20180107_070000.002,0,ROYN,,,,1,20180107070000,-1,-1,-1,-1,110,-1,8,-1,-1,-1,-1,,9999,0,1,1,NSC -1,1,21,1,17,1015,ROYN 070700Z AUTO 11008KT 9999 -RA NSC 21/17 Q1015 RMK A3000=,- RA
20180107_080000.002,0,ROYN,,,,1,20180107080000,-1,-1,-1,-1,110,-1,7,-1,-1,-1,-1,,9999,0,0,1,NSC -1,1,21,1,17,1015,ROYN 070800Z AUTO 11007KT 9999 NSC 21/17 Q1015 RMK A2999=,
20180107_090000.002,0,ROYN,,,,1,20180107090000,-1,-1,-1,-1,120,-1,8,-1,-1,-1,-1,,9999,0,1,3,FEW 32   SCT 60   OVC 80,1,21,1,17,1015,ROYN 070900Z AUTO 12008KT 9999 -RA FEW032 SCT060 OVC080 21/17     Q1015 RMK A3000=,- RA
20180107_100000.002,0,ROYN,,,,1,20180107100000,-1,-1,-1,-1,60,-1,10,-1,-1,-1,-1,,9999,0,0,3,FEW 33   BKN 50   OVC 60,1,21,1,16,1016,ROYN 071000Z AUTO 06010KT 9999 FEW033 BKN050 OVC060 21/16     Q1016 RMK A3002=,
20180107_110000.002,0,ROYN,,,,1,20180107110000,-1,-1,-1,-1,80,-1,7,-1,-1,40,130,,4900,0,2,3,FEW 27   SCT 33   BKN 35,1,19,1,16,1017,ROYN 071100Z AUTO 08007KT 040V130 4900 -RA BR FEW027 SCT033     BKN035 19/16 Q1017 RMK A3004=,- RA; BR
20180107_120000.003,0,ROYN,,,,1,20180107120000,-1,-1,-1,-1,60,-1,13,-1,-1,-1,-1,,9999,0,0,3,FEW 9   SCT 31   BKN 34,1,19,1,17,1017,ROYN 071200Z AUTO 06013KT 9999 FEW009 SCT031 BKN034 19/17     Q1017 RMK A3004=,
20180107_130000.003,0,ROYN,,,,1,20180107130000,-1,-1,-1,-1,120,-1,8,-1,-1,-1,-1,,9999,0,0,3,FEW 31   SCT 34   BKN 42,1,19,1,17,1016,ROYN 071300Z AUTO 12008KT 9999 FEW031 SCT034 BKN042 19/17     Q1016 RMK A3002=,
20180107_140000.003,0,ROYN,,,,1,20180107140000,-1,-1,-1,-1,130,-1,8,-1,-1,-1,-1,,9999,0,0,3,FEW 22   SCT 80   BKN 130,1,20,1,17,1016,ROYN 071400Z AUTO 13008KT 9999 FEW022 SCT080 BKN130 20/17     Q1016 RMK A3001=,
20180107_150000.002,0,ROYN,,,,1,20180107150000,-1,-1,-1,-1,140,-1,12,-1,-1,-1,-1,,9999,0,0,1,NSC -1,1,20,1,17,1015,ROYN 071500Z AUTO 14012KT 9999 NSC 20/17 Q1015 RMK A2998=,
20180107_160000.002,0,ROYN,,,,1,20180107160000,-1,-1,-1,-1,130,-1,10,-1,-1,-1,-1,,9999,0,0,3,FEW 22   SCT 47   OVC 50,1,21,1,17,1015,ROYN 071600Z AUTO 13010KT 9999 FEW022 SCT047 OVC050 21/17     Q1015 RMK A2997=,
20180107_170000.002,0,ROYN,,,,1,20180107170000,-1,-1,-1,-1,130,-1,13,-1,-1,-1,-1,,9999,0,0,3,FEW 23   BKN 31   OVC 34,1,21,1,17,1013,ROYN 071700Z AUTO 13013KT 9999 FEW023 BKN031 OVC034 21/17     Q1013 RMK A2994=,
20180107_180000.002,0,ROYN,,,,1,20180107180000,-1,-1,-1,-1,120,-1,13,-1,-1,-1,-1,,9999,0,0,1,OVC 25,1,21,1,17,1012,ROYN 071800Z AUTO 12013KT 9999 OVC025 21/17 Q1012 RMK A2991=,
20180107_190000.003,0,ROYN,,,,1,20180107190000,-1,-1,-1,-1,130,-1,12,-1,-1,100,160,,9999,0,0,2,BKN 18   OVC 30,1,22,1,18,1012,ROYN 071900Z AUTO 13012KT 100V160 9999 BKN018 OVC030 22/18     Q1012 RMK A2989=,
20180107_200000.002,0,ROYN,,,,1,20180107200000,-1,-1,-1,-1,140,-1,9,-1,-1,-1,-1,,9000,0,0,1,OVC 15,1,21,1,19,1012,ROYN 072000Z AUTO 14009KT 9000 OVC015 21/19 Q1012 RMK A2989=,
20180107_210000.003,0,ROYN,,,,1,20180107210000,-1,-1,-1,-1,999,-1,2,-1,-1,-1,-1,,3500,0,2,3,FEW 3   BKN 6   BKN 9,1,21,1,20,1013,ROYN 072100Z AUTO VRB02KT 3500 -RA BR FEW003 BKN006 BKN009     21/20 Q1013 RMK A2992=,- RA; BR
20180107_220000.002,0,ROYN,,,,1,20180107220000,-1,-1,-1,-1,320,-1,17,-1,-1,-1,-1,,1000,0,2,1,OVC 2,1,21,1,20,1013,ROYN 072200Z AUTO 32017KT 1000 +RA BR OVC002 21/20 Q1013 RMK     A2992 RI021=,+ RA; BR
20180107_230000.002,0,ROYN,,,,1,20180107230000,-1,-1,-1,-1,330,-1,13,-1,-1,-1,-1,,9999,0,0,4,FEW 5   BKN 7   BKN 9   /// -9999 TCU,1,21,1,20,1012,ROYN 072300Z AUTO 33013KT 9999 FEW005 BKN007 BKN009 //////TCU     21/20 Q1012 RMK A2991 TCU 5KM E MOV UNKNOWN=,
20180108_000000.002,0,ROYN,,,,1,20180108000000,-1,-1,-1,-1,330,-1,10,-1,-1,-1,-1,,9999,0,0,3,FEW 9   BKN 12   OVC 60,1,21,1,20,1012,ROYN 080000Z AUTO 33010KT 9999 FEW009 BKN012 OVC060 21/20     Q1012 RMK A2991=,
20180108_010000.002,0,ROYN,,,,1,20180108010000,-1,-1,-1,-1,10,-1,3,-1,-1,-1,-1,,9999,0,0,1,NSC -1,1,22,1,20,1012,ROYN 080100Z AUTO 01003KT 9999 NSC 22/20 Q1012 RMK A2990=,
20180108_020000.002,0,ROYN,,,,1,20180108020000,-1,-1,-1,-1,260,-1,3,-1,-1,230,300,,9999,0,0,2,SCT 48   OVC 50,1,22,1,20,1012,ROYN 080200Z AUTO 26003KT 230V300 9999 SCT048 OVC050 22/20     Q1012 RMK A2990=,
20180108_030000.002,0,ROYN,,,,1,20180108030000,-1,-1,-1,-1,280,-1,6,-1,-1,-1,-1,,9999,0,0,1,OVC 49,1,23,1,20,1013,ROYN 080300Z AUTO 28006KT 9999 OVC049 23/20 Q1013 RMK A2991=,
20180108_040000.002,0,ROYN,,,,1,20180108040000,-1,-1,-1,-1,340,-1,19,-1,-1,-1,-1,,9999,0,0,2,FEW 18   OVC 50,1,22,1,18,1012,ROYN 080400Z AUTO 34019KT 9999 FEW018 OVC050 22/18 Q1012 RMK     A2989=,
20180108_050000.002,0,ROYN,,,,1,20180108050000,-1,-1,-1,-1,310,-1,18,-1,-1,-1,-1,,9999,0,0,3,FEW 15   BKN 60   OVC 70,1,21,1,19,1012,ROYN 080500Z AUTO 31018KT 9999 FEW015 BKN060 OVC070 21/19     Q1012 RMK A2989=,
20180108_060000.003,0,ROYN,,,,1,20180108060000,-1,-1,-1,-1,310,-1,18,-1,-1,-1,-1,,9999,0,0,2,SCT 10   OVC 70,1,20,1,19,1011,ROYN 080600Z AUTO 31018KT 9999 SCT010 OVC070 20/19 Q1011 RMK     A2987=,
20180108_070000.002,0,ROYN,,,,1,20180108070000,-1,-1,-1,-1,340,-1,16,-1,-1,-1,-1,,9999,0,0,3,SCT 11   SCT 60   OVC 70,1,21,1,19,1011,ROYN 080700Z AUTO 34016KT 9999 SCT011 SCT060 OVC070 21/19     Q1011 RMK A2986=,
20180108_080000.002,0,ROYN,,,,1,20180108080000,-1,-1,-1,-1,350,-1,13,-1,-1,-1,-1,,9999,0,0,3,FEW 9   SCT 12   BKN 60,1,21,1,19,1011,ROYN 080800Z AUTO 35013KT 9999 FEW009 SCT012 BKN060 21/19     Q1011 RMK A2987=,
20180108_090000.002,0,ROYN,,,,1,20180108090000,-1,-1,-1,-1,360,-1,15,-1,-1,-1,-1,,9999,0,0,2,BKN 13   OVC 70,1,21,1,19,1012,ROYN 080900Z AUTO 36015KT 9999 BKN013 OVC070 21/19 Q1012 RMK     A2990=,
20180108_100000.002,0,ROYN,,,,1,20180108100000,-1,-1,-1,-1,10,-1,22,-1,-1,-1,-1,,9999,0,0,3,SCT 12   BKN 32   BKN 39,1,21,1,19,1013,ROYN 081000Z AUTO 01022KT 9999 SCT012 BKN032 BKN039 21/19     Q1013 RMK A2994=,
20180108_110000.002,0,ROYN,,,,1,20180108110000,-1,-1,-1,-1,20,-1,27,-1,-1,-1,-1,,5000,0,1,3,SCT 8   BKN 10   BKN 13,1,20,1,18,1014,ROYN 081100Z AUTO 02027KT 5000 BR SCT008 BKN010 BKN013 20/18     Q1014 RMK A2997=,BR
20180108_120000.002,0,ROYN,,,,1,20180108120000,-1,-1,-1,-1,20,-1,26,-1,-1,-1,-1,,7000,0,0,2,BKN 10   OVC 17,1,19,1,18,1015,ROYN 081200Z AUTO 02026KT 7000 BKN010 OVC017 19/18 Q1015 RMK     A2999=,
20180108_130000.003,0,ROYN,,,,1,20180108130000,-1,-1,-1,-1,20,-1,27,-1,-1,-1,-1,,8000,0,1,3,SCT 11   BKN 15   OVC 18,1,19,1,17,1016,ROYN 081300Z AUTO 02027KT 8000 -RA SCT011 BKN015 OVC018 19/17     Q1016 RMK A3001=,- RA
20180108_140000.002,0,ROYN,,,,1,20180108140000,-1,-1,-1,-1,20,-1,26,-1,-1,-1,-1,,3200,0,1,2,BKN 11   OVC 20,1,18,1,17,1017,ROYN 081400Z AUTO 02026KT 3200 BR BKN011 OVC020 18/17 Q1017     RMK A3003=,BR
20180108_150000.002,0,ROYN,,,,1,20180108150000,-1,-1,-1,-1,10,-1,27,-1,-1,-1,-1,,3300,0,1,3,FEW 9   BKN 10   BKN 17,1,17,1,16,1017,ROYN 081500Z AUTO 01027KT 3300 BR FEW009 BKN010 BKN017 17/16     Q1017 RMK A3005=,BR
20180108_160000.002,0,ROYN,,,,1,20180108160000,-1,-1,-1,-1,10,-1,25,-1,-1,-1,-1,,2400,0,1,3,SCT 9   BKN 10   BKN 15,1,17,1,15,1018,ROYN 081600Z AUTO 01025KT 2400 BR SCT009 BKN010 BKN015 17/15     Q1018 RMK A3008=,BR
20180108_170000.002,0,ROYN,,,,1,20180108170000,-1,-1,-1,-1,360,-1,30,-1,-1,-1,-1,,3100,0,2,2,BKN 11   OVC 31,1,17,1,15,1019,ROYN 081700Z AUTO 36030KT 3100 -RA BR BKN011 OVC031 17/15     Q1019 RMK A3009=,- RA; BR
20180108_180000.002,0,ROYN,,,,1,20180108180000,-1,-1,-1,-1,10,-1,30,-1,-1,-1,-1,,4700,0,1,2,SCT 12   OVC 24,1,16,1,14,1018,ROYN 081800Z AUTO 01030KT 4700 BR SCT012 OVC024 16/14 Q1018     RMK A3008=,BR
20180108_190000.002,0,ROYN,,,,1,20180108190000,-1,-1,-1,-1,10,-1,29,-1,-1,-1,-1,,4200,0,1,2,BKN 15   OVC 80,1,16,1,14,1018,ROYN 081900Z AUTO 01029KT 4200 BR BKN015 OVC080 16/14 Q1018     RMK A3009=,BR
20180108_200000.002,0,ROYN,,,,1,20180108200000,-1,-1,-1,-1,360,-1,33,-1,-1,-1,-1,,3400,0,1,3,BKN 15   BKN 23   OVC 29,1,15,1,13,1019,ROYN 082000Z AUTO 36033KT 3400 BR BKN015 BKN023 OVC029 15/13     Q1019 RMK A3011=,BR
20180108_210000.003,0,ROYN,,,,1,20180108210000,-1,-1,-1,-1,360,-1,35,-1,-1,-1,-1,,2700,0,1,2,BKN 13   OVC 32,1,15,1,13,1020,ROYN 082100Z AUTO 36035KT 2700 BR BKN013 OVC032 15/13 Q1020     RMK A3013=,BR
20180108_220000.002,0,ROYN,,,,1,20180108220000,-1,-1,-1,-1,10,-1,31,-1,-1,-1,-1,,6000,0,0,3,BKN 20   BKN 28   OVC 35,1,15,1,12,1020,ROYN 082200Z AUTO 01031KT 6000 BKN020 BKN028 OVC035 15/12     Q1020 RMK A3014=,
20180108_230000.003,0,ROYN,,,,1,20180108230000,-1,-1,-1,-1,10,-1,29,-1,-1,-1,-1,,6000,0,1,1,OVC 21,1,15,1,12,1022,ROYN 082300Z AUTO 01029KT 6000 -RA OVC021 15/12 Q1022 RMK     A3018=,- RA
20180109_000000.002,0,ROYN,,,,1,20180109000000,-1,-1,-1,-1,10,-1,29,-1,-1,-1,-1,,5000,0,1,3,FEW 20   SCT 21   BKN 28,1,14,1,11,1022,ROYN 090000Z AUTO 01029KT 5000 BR FEW020 SCT021 BKN028 14/11     Q1022 RMK A3019=,BR
20180109_010000.002,0,ROYN,,,,1,20180109010000,-1,-1,-1,-1,20,-1,26,-1,-1,-1,-1,,5000,0,1,3,FEW 20   SCT 25   BKN 29,1,15,1,11,1022,ROYN 090100Z AUTO 02026KT 5000 BR FEW020 SCT025 BKN029 15/11     Q1022 RMK A3019=,BR
20180109_020000.002,0,ROYN,,,,1,20180109020000,-1,-1,-1,-1,20,-1,24,-1,-1,-1,-1,,7000,0,0,2,FEW 26   OVC 30,1,15,1,11,1023,ROYN 090200Z AUTO 02024KT 7000 FEW026 OVC030 15/11 Q1023 RMK     A3021=,
20180109_030000.002,0,ROYN,,,,1,20180109030000,-1,-1,-1,-1,20,-1,24,-1,-1,-1,-1,,9000,0,0,3,FEW 24   SCT 27   BKN 29,1,15,1,10,1022,ROYN 090300Z AUTO 02024KT 9000 FEW024 SCT027 BKN029 15/10     Q1022 RMK A3018=,
20180109_040000.002,0,ROYN,,,,1,20180109040000,-1,-1,-1,-1,20,-1,22,-1,-1,-1,-1,,7000,0,0,2,SCT 31   BKN 35,1,15,1,10,1020,ROYN 090400Z AUTO 02022KT 7000 SCT031 BKN035 15/10 Q1020 RMK     A3015=,
20180109_050000.002,0,ROYN,,,,1,20180109050000,-1,-1,-1,-1,20,-1,23,-1,-1,-1,-1,,6000,0,0,3,FEW 28   SCT 31   OVC 34,1,15,1,10,1020,ROYN 090500Z AUTO 02023KT 6000 FEW028 SCT031 OVC034 15/10     Q1020 RMK A3013=,
20180109_060000.002,0,ROYN,,,,1,20180109060000,-1,-1,-1,-1,20,-1,23,-1,-1,-1,-1,,4600,0,1,3,SCT 26   SCT 30   OVC 34,1,14,1,11,1019,ROYN 090600Z AUTO 02023KT 4600 BR SCT026 SCT030 OVC034 14/11     Q1019 RMK A3011=,BR
20180109_070000.002,0,ROYN,,,,1,20180109070000,-1,-1,-1,-1,10,-1,24,-1,-1,-1,-1,,6000,0,0,2,BKN 29   OVC 36,1,15,1,10,1019,ROYN 090700Z AUTO 01024KT 6000 BKN029 OVC036 15/10 Q1019 RMK     A3010=,
20180109_080000.002,0,ROYN,,,,1,20180109080000,-1,-1,-1,-1,20,-1,23,-1,-1,-1,-1,,7000,0,0,2,BKN 28   OVC 36,1,15,1,10,1020,ROYN 090800Z AUTO 02023KT 7000 BKN028 OVC036 15/10 Q1020 RMK     A3013=,
20180109_090000.002,0,ROYN,,,,1,20180109090000,-1,-1,-1,-1,20,-1,20,-1,-1,-1,-1,,9999,0,0,3,BKN 29   BKN 39   BKN 42,1,14,1,9,1021,ROYN 090900Z AUTO 02020KT 9999 BKN029 BKN039 BKN042 14/09     Q1021 RMK A3017=,
20180109_100000.002,0,ROYN,,,,1,20180109100000,-1,-1,-1,-1,10,-1,22,-1,-1,-1,-1,,9999,0,0,3,SCT 30   BKN 36   BKN 38,1,15,1,9,1022,ROYN 091000Z AUTO 01022KT 9999 SCT030 BKN036 BKN038 15/09     Q1022 RMK A3018=,
20180109_110000.002,0,ROYN,,,,1,20180109110000,-1,-1,-1,-1,10,-1,22,-1,-1,-1,-1,,9999,0,1,3,BKN 22   BKN 36   OVC 39,1,14,1,11,1022,ROYN 091100Z AUTO 01022KT 9999 -RA BKN022 BKN036 OVC039 14/11     Q1022 RMK A3020=,- RA
20180109_120000.002,0,ROYN,,,,1,20180109120000,-1,-1,-1,-1,10,-1,22,-1,-1,-1,-1,,9999,0,0,3,SCT 23   SCT 30   BKN 32,1,14,1,10,1023,ROYN 091200Z AUTO 01022KT 9999 SCT023 SCT030 BKN032 14/10     Q1023 RMK A3021=,
20180109_130000.002,0,ROYN,,,,1,20180109130000,-1,-1,-1,-1,10,-1,20,-1,-1,-1,-1,,9999,0,0,2,BKN 30   OVC 36,1,14,1,9,1023,ROYN 091300Z AUTO 01020KT 9999 BKN030 OVC036 14/09 Q1023 RMK     A3022=,
20180109_140000.002,0,ROYN,,,,1,20180109140000,-1,-1,-1,-1,10,-1,20,-1,-1,-1,-1,,9999,0,0,3,FEW 31   SCT 33   OVC 36,1,14,1,9,1023,ROYN 091400Z AUTO 01020KT 9999 FEW031 SCT033 OVC036 14/09     Q1023 RMK A3023=,
20180109_150000.002,0,ROYN,,,,1,20180109150000,-1,-1,-1,-1,360,-1,20,-1,-1,-1,-1,,9999,0,0,3,FEW 36   SCT 43   BKN 47,1,15,1,8,1023,ROYN 091500Z AUTO 36020KT 9999 FEW036 SCT043 BKN047 15/08     Q1023 RMK A3023=,
20180109_160000.002,0,ROYN,,,,1,20180109160000,-1,-1,-1,-1,10,-1,20,-1,-1,-1,-1,,9999,0,0,2,BKN 36   OVC 70,1,15,1,8,1023,ROYN 091600Z AUTO 01020KT 9999 BKN036 OVC070 15/08 Q1023 RMK     A3022=,
20180109_170000.002,0,ROYN,,,,1,20180109170000,-1,-1,-1,-1,10,-1,21,-1,-1,-1,-1,,9999,0,0,3,FEW 38   BKN 48   OVC 60,1,15,1,8,1023,ROYN 091700Z AUTO 01021KT 9999 FEW038 BKN048 OVC060 15/08     Q1023 RMK A3023=,
20180109_180000.002,0,ROYN,,,,1,20180109180000,-1,-1,-1,-1,360,-1,22,-1,-1,-1,-1,,9999,0,0,3,SCT 38   SCT 44   BKN 46,1,15,1,8,1023,ROYN 091800Z AUTO 36022KT 9999 SCT038 SCT044 BKN046 15/08     Q1023 RMK A3023=,
20180109_190000.003,0,ROYN,,,,1,20180109190000,-1,-1,-1,-1,10,-1,22,-1,-1,-1,-1,,9999,0,0,3,FEW 36   SCT 39   BKN 47,1,15,1,9,1023,ROYN 091900Z AUTO 01022KT 9999 FEW036 SCT039 BKN047 15/09     Q1023 RMK A3023=,
20180109_200000.002,0,ROYN,,,,1,20180109200000,-1,-1,-1,-1,10,-1,23,-1,-1,-1,-1,,9999,0,0,3,BKN 37   BKN 45   OVC 50,1,15,1,8,1023,ROYN 092000Z AUTO 01023KT 9999 BKN037 BKN045 OVC050 15/08     Q1023 RMK A3023=,
20180109_210000.002,0,ROYN,,,,1,20180109210000,-1,-1,-1,-1,360,-1,24,-1,-1,-1,-1,,9999,0,0,3,SCT 40   BKN 44   BKN 46,1,15,1,8,1023,ROYN 092100Z AUTO 36024KT 9999 SCT040 BKN044 BKN046 15/08     Q1023 RMK A3023=,
20180109_220000.002,0,ROYN,,,,1,20180109220000,-1,-1,-1,-1,10,-1,22,-1,-1,-1,-1,,9999,0,0,3,SCT 39   BKN 50   OVC 100,1,15,1,9,1024,ROYN 092200Z AUTO 01022KT 9999 SCT039 BKN050 OVC100 15/09     Q1024 RMK A3025=,
20180109_230000.002,0,ROYN,,,,1,20180109230000,-1,-1,-1,-1,360,-1,20,-1,-1,-1,-1,,9999,0,0,3,SCT 39   SCT 100   BKN 130,1,15,1,7,1025,ROYN 092300Z AUTO 36020KT 9999 SCT039 SCT100 BKN130 15/07     Q1025 RMK A3027=,
20180110_000000.002,0,ROYN,,,,1,20180110000000,-1,-1,-1,-1,10,-1,18,-1,-1,-1,-1,,9999,0,0,3,SCT 40   SCT 45   BKN 49,1,15,1,7,1025,ROYN 100000Z AUTO 01018KT 9999 SCT040 SCT045 BKN049 15/07     Q1025 RMK A3028=,
20180110_010000.002,0,ROYN,,,,1,20180110010000,-1,-1,-1,-1,10,-1,19,-1,-1,-1,-1,,9999,0,0,3,SCT 39   BKN 41   BKN 50,1,16,1,8,1025,ROYN 100100Z AUTO 01019KT 9999 SCT039 BKN041 BKN050 16/08     Q1025 RMK A3028=,
20180110_020000.002,0,ROYN,,,,1,20180110020000,-1,-1,-1,-1,10,-1,20,-1,-1,-1,-1,,9999,0,0,3,FEW 38   BKN 41   BKN 49,1,16,1,7,1025,ROYN 100200Z AUTO 01020KT 9999 FEW038 BKN041 BKN049 16/07     Q1025 RMK A3029=,
20180110_030000.002,0,ROYN,,,,1,20180110030000,-1,-1,-1,-1,360,-1,22,-1,-1,-1,-1,,9999,0,0,3,FEW 42   SCT 49   BKN 140,1,16,1,7,1025,ROYN 100300Z AUTO 36022KT 9999 FEW042 SCT049 BKN140 16/07     Q1025 RMK A3028=,
20180110_040000.003,0,ROYN,,,,1,20180110040000,-1,-1,-1,-1,360,-1,20,-1,-1,-1,-1,,9999,0,0,3,SCT 40   BKN 48   OVC 140,1,16,1,8,1024,ROYN 100400Z AUTO 36020KT 9999 SCT040 BKN048 OVC140 16/08     Q1024 RMK A3025=,
20180110_050000.002,0,ROYN,,,,1,20180110050000,-1,-1,-1,-1,360,-1,20,-1,-1,-1,-1,,9999,0,0,3,SCT 40   BKN 42   BKN 50,1,16,1,7,1023,ROYN 100500Z AUTO 36020KT 9999 SCT040 BKN042 BKN050 16/07     Q1023 RMK A3022=,
20180110_060000.002,0,ROYN,,,,1,20180110060000,-1,-1,-1,-1,360,-1,22,-1,-1,-1,-1,,9999,0,0,3,SCT 39   BKN 49   BKN 130,1,15,1,7,1023,ROYN 100600Z AUTO 36022KT 9999 SCT039 BKN049 BKN130 15/07     Q1023 RMK A3021=,
20180110_070000.002,0,ROYN,,,,1,20180110070000,-1,-1,-1,-1,360,-1,21,-1,-1,-1,-1,,9999,0,0,2,FEW 36   BKN 50,1,15,1,7,1023,ROYN 100700Z AUTO 36021KT 9999 FEW036 BKN050 15/07 Q1023 RMK     A3022=,
20180110_080000.002,0,ROYN,,,,1,20180110080000,-1,-1,-1,-1,10,-1,23,-1,-1,-1,-1,,9999,0,0,3,SCT 40   SCT 46   BKN 50,1,15,1,7,1023,ROYN 100800Z AUTO 01023KT 9999 SCT040 SCT046 BKN050 15/07     Q1023 RMK A3023=,
20180110_090000.002,0,ROYN,,,,1,20180110090000,-1,-1,-1,-1,360,-1,22,-1,-1,-1,-1,,9999,0,0,3,FEW 41   SCT 44   BKN 50,1,15,1,6,1024,ROYN 100900Z AUTO 36022KT 9999 FEW041 SCT044 BKN050 15/06     Q1024 RMK A3024=,
20180110_100000.002,0,ROYN,,,,1,20180110100000,-1,-1,-1,-1,360,-1,20,-1,-1,-1,-1,,9999,0,0,2,FEW 46   BKN 50,1,15,1,6,1024,ROYN 101000Z AUTO 36020KT 9999 FEW046 BKN050 15/06 Q1024 RMK     A3025=,
20180110_110000.002,0,ROYN,,,,1,20180110110000,-1,-1,-1,-1,10,-1,21,-1,-1,-1,-1,,9999,0,0,2,SCT 47   BKN 50,1,15,1,7,1024,ROYN 101100Z AUTO 01021KT 9999 SCT047 BKN050 15/07 Q1024 RMK     A3026=,
20180110_120000.002,0,ROYN,,,,1,20180110120000,-1,-1,-1,-1,10,-1,21,-1,-1,-1,-1,,9999,0,0,3,FEW 43   SCT 48   BKN 50,1,15,1,6,1025,ROYN 101200Z AUTO 01021KT 9999 FEW043 SCT048 BKN050 15/06     Q1025 RMK A3028=,
20180110_130000.002,0,ROYN,,,,1,20180110130000,-1,-1,-1,-1,10,-1,19,-1,-1,-1,-1,,9999,0,0,3,SCT 44   BKN 50   BKN 60,1,15,1,7,1025,ROYN 101300Z AUTO 01019KT 9999 SCT044 BKN050 BKN060 15/07     Q1025 RMK A3029=,
20180110_140000.002,0,ROYN,,,,1,20180110140000,-1,-1,-1,-1,20,-1,19,-1,-1,-1,-1,,9999,0,0,3,FEW 44   BKN 50   BKN 60,1,15,1,7,1025,ROYN 101400Z AUTO 02019KT 9999 FEW044 BKN050 BKN060 15/07     Q1025 RMK A3029=,
20180110_150000.002,0,ROYN,,,,1,20180110150000,-1,-1,-1,-1,20,-1,21,-1,-1,-1,-1,,9999,0,0,3,FEW 39   SCT 43   BKN 50,1,15,1,7,1025,ROYN 101500Z AUTO 02021KT 9999 FEW039 SCT043 BKN050 15/07     Q1025 RMK A3029=,
20180110_160000.002,0,ROYN,,,,1,20180110160000,-1,-1,-1,-1,30,-1,20,-1,-1,-1,-1,,9999,0,0,3,FEW 42   SCT 48   BKN 50,1,15,1,8,1025,ROYN 101600Z AUTO 03020KT 9999 FEW042 SCT048 BKN050 15/08     Q1025 RMK A3028=,
20180110_170000.002,0,ROYN,,,,1,20180110170000,-1,-1,-1,-1,20,-1,20,-1,-1,-1,-1,,9999,0,0,3,FEW 45   BKN 50   BKN 60,1,15,1,6,1025,ROYN 101700Z AUTO 02020KT 9999 FEW045 BKN050 BKN060 15/06     Q1025 RMK A3028=,
20180110_180000.002,0,ROYN,,,,1,20180110180000,-1,-1,-1,-1,20,-1,21,-1,-1,-1,-1,,9999,0,0,2,SCT 47   OVC 50,1,15,1,7,1025,ROYN 101800Z AUTO 02021KT 9999 SCT047 OVC050 15/07 Q1025 RMK     A3027=,
20180110_190000.002,0,ROYN,,,,1,20180110190000,-1,-1,-1,-1,20,-1,20,-1,-1,-1,-1,,9999,0,0,2,FEW 49   OVC 60,1,15,1,5,1024,ROYN 101900Z AUTO 02020KT 9999 FEW049 OVC060 15/05 Q1024 RMK     A3026=,
20180110_200000.002,0,ROYN,,,,1,20180110200000,-1,-1,-1,-1,20,-1,23,-1,-1,-1,-1,,9999,0,0,3,FEW 38   SCT 43   BKN 48,1,15,1,7,1025,ROYN 102000Z AUTO 02023KT 9999 FEW038 SCT043 BKN048 15/07     Q1025 RMK A3028=,
20180110_210000.002,0,ROYN,,,,1,20180110210000,-1,-1,-1,-1,30,-1,23,-1,-1,-1,-1,,9999,0,0,3,FEW 37   BKN 41   BKN 50,1,15,1,8,1025,ROYN 102100Z AUTO 03023KT 9999 FEW037 BKN041 BKN050 15/08     Q1025 RMK A3028=,
20180110_220000.002,0,ROYN,,,,1,20180110220000,-1,-1,-1,-1,30,-1,22,-1,-1,-1,-1,,9999,0,0,3,FEW 42   BKN 50   BKN 60,1,15,1,7,1025,ROYN 102200Z AUTO 03022KT 9999 FEW042 BKN050 BKN060 15/07     Q1025 RMK A3028=,
20180110_230000.003,0,ROYN,,,,1,20180110230000,-1,-1,-1,-1,20,-1,21,-1,-1,-1,-1,,9999,0,0,2,FEW 44   OVC 60,1,15,1,7,1026,ROYN 102300Z AUTO 02021KT 9999 FEW044 OVC060 15/07 Q1026 RMK     A3031=,
20180111_000000.002,0,ROYN,,,,1,20180111000000,-1,-1,-1,-1,20,-1,20,-1,-1,-1,-1,,9999,0,0,3,FEW 43   BKN 60   OVC 70,1,16,1,8,1026,ROYN 110000Z AUTO 02020KT 9999 FEW043 BKN060 OVC070 16/08     Q1026 RMK A3031=,
20180111_010000.002,0,ROYN,,,,1,20180111010000,-1,-1,-1,-1,20,-1,20,-1,-1,-1,-1,,9999,0,0,3,FEW 44   SCT 50   OVC 60,1,15,1,7,1027,ROYN 110100Z AUTO 02020KT 9999 FEW044 SCT050 OVC060 15/07     Q1027 RMK A3033=,
20180111_020000.002,0,ROYN,,,,1,20180111020000,-1,-1,-1,-1,20,-1,17,-1,-1,-1,-1,,9999,0,0,3,FEW 41   SCT 60   BKN 70,1,16,1,7,1026,ROYN 110200Z AUTO 02017KT 9999 FEW041 SCT060 BKN070 16/07     Q1026 RMK A3032=,
20180111_030000.001,0,ROYN,,,,1,20180111030000,-1,-1,-1,-1,10,-1,21,-1,-1,-1,-1,,9999,0,0,3,FEW 41   BKN 48   BKN 50,1,16,1,6,1026,ROYN 110300Z AUTO 01021KT 9999 FEW041 BKN048 BKN050 16/06     Q1026 RMK A3031=,
20180111_040000.002,0,ROYN,,,,1,20180111040000,-1,-1,-1,-1,20,-1,20,-1,-1,-1,-1,,9999,0,0,3,SCT 44   BKN 50   BKN 60,1,16,1,8,1025,ROYN 110400Z AUTO 02020KT 9999 SCT044 BKN050 BKN060 16/08     Q1025 RMK A3028=,
20180111_050000.002,0,ROYN,,,,1,20180111050000,-1,-1,-1,-1,20,-1,24,-1,-1,-1,-1,,9999,0,0,3,SCT 40   SCT 44   BKN 50,1,16,1,8,1024,ROYN 110500Z AUTO 02024KT 9999 SCT040 SCT044 BKN050 16/08     Q1024 RMK A3026=,
20180111_060000.002,0,ROYN,,,,1,20180111060000,-1,-1,-1,-1,20,-1,24,-1,-1,-1,-1,,9999,0,0,3,SCT 41   SCT 46   BKN 48,1,16,1,8,1024,ROYN 110600Z AUTO 02024KT 9999 SCT041 SCT046 BKN048 16/08     Q1024 RMK A3024=,
20180111_070000.002,0,ROYN,,,,1,20180111070000,-1,-1,-1,-1,10,-1,26,-1,-1,-1,-1,,9999,0,0,3,SCT 38   SCT 44   BKN 50,1,15,1,7,1024,ROYN 110700Z AUTO 01026KT 9999 SCT038 SCT044 BKN050 15/07     Q1024 RMK A3024=,
20180111_080000.002,0,ROYN,,,,1,20180111080000,-1,-1,-1,-1,20,-1,24,-1,-1,-1,-1,,9999,0,0,3,FEW 42   SCT 45   BKN 48,1,15,1,8,1025,ROYN 110800Z AUTO 02024KT 9999 FEW042 SCT045 BKN048 15/08     Q1025 RMK A3027=,
20180111_090000.002,0,ROYN,,,,1,20180111090000,-1,-1,-1,-1,10,-1,25,-1,-1,-1,-1,,9999,0,0,3,FEW 39   SCT 43   BKN 49,1,15,1,7,1025,ROYN 110900Z AUTO 01025KT 9999 FEW039 SCT043 BKN049 15/07     Q1025 RMK A3029=,
20180111_100000.002,0,ROYN,,,,1,20180111100000,-1,-1,-1,-1,10,-1,26,-1,-1,-1,-1,,9999,0,0,3,FEW 44   SCT 50   BKN 60,1,15,1,7,1026,ROYN 111000Z AUTO 01026KT 9999 FEW044 SCT050 BKN060 15/07     Q1026 RMK A3031=,
20180111_110000.002,0,ROYN,,,,1,20180111110000,-1,-1,-1,-1,10,-1,28,-1,-1,-1,-1,,9999,0,0,3,FEW 44   SCT 48   BKN 70,1,15,1,7,1027,ROYN 111100Z AUTO 01028KT 9999 FEW044 SCT048 BKN070 15/07     Q1027 RMK A3033=,
20180111_120000.002,0,ROYN,,,,1,20180111120000,-1,-1,-1,-1,10,-1,27,-1,-1,-1,-1,,9999,0,0,3,FEW 44   SCT 47   BKN 50,1,14,1,6,1027,ROYN 111200Z AUTO 01027KT 9999 FEW044 SCT047 BKN050 14/06     Q1027 RMK A3034=,
20180111_130000.002,0,ROYN,,,,1,20180111130000,-1,-1,-1,-1,20,-1,26,-1,-1,-1,-1,,9999,0,0,3,FEW 44   SCT 48   BKN 50,1,14,1,6,1028,ROYN 111300Z AUTO 02026KT 9999 FEW044 SCT048 BKN050 14/06     Q1028 RMK A3036=,
20180111_140000.002,0,ROYN,,,,1,20180111140000,-1,-1,-1,-1,10,-1,24,-1,-1,-1,-1,,9999,0,0,2,FEW 44   BKN 60,1,14,1,3,1028,ROYN 111400Z AUTO 01024KT 9999 FEW044 BKN060 14/03 Q1028 RMK     A3037=,
20180111_150000.002,0,ROYN,,,,1,20180111150000,-1,-1,-1,-1,10,-1,22,-1,-1,-1,-1,,9999,0,0,1,NSC -1,1,14,1,4,1028,ROYN 111500Z AUTO 01022KT 9999 NSC 14/04 Q1028 RMK A3036=,
20180111_160000.002,0,ROYN,,,,1,20180111160000,-1,-1,-1,-1,10,-1,25,-1,-1,-1,-1,,9999,0,0,2,FEW 47   OVC 50,1,14,1,5,1027,ROYN 111600Z AUTO 01025KT 9999 FEW047 OVC050 14/05 Q1027 RMK     A3035=,
20180111_170000.002,0,ROYN,,,,1,20180111170000,-1,-1,-1,-1,360,-1,22,-1,-1,-1,-1,,9999,0,0,1,NSC -1,1,14,1,5,1027,ROYN 111700Z AUTO 36022KT 9999 NSC 14/05 Q1027 RMK A3034=,
20180111_180000.002,0,ROYN,,,,1,20180111180000,-1,-1,-1,-1,10,-1,27,-1,-1,-1,-1,,9999,0,0,3,SCT 41   BKN 48   OVC 50,1,14,1,6,1027,ROYN 111800Z AUTO 01027KT 9999 SCT041 BKN048 OVC050 14/06     Q1027 RMK A3034=,
20180111_190000.002,0,ROYN,,,,1,20180111190000,-1,-1,-1,-1,360,-1,23,-1,-1,-1,-1,,9999,0,0,3,FEW 46   SCT 60   OVC 70,1,14,1,5,1027,ROYN 111900Z AUTO 36023KT 9999 FEW046 SCT060 OVC070 14/05     Q1027 RMK A3033=,
20180111_200000.002,0,ROYN,,,,1,20180111200000,-1,-1,-1,-1,10,-1,27,-1,-1,-1,-1,,9999,0,0,1,FEW 45,1,14,1,6,1027,ROYN 112000Z AUTO 01027KT 9999 FEW045 14/06 Q1027 RMK A3034=,
20180111_210000.002,0,ROYN,,,,1,20180111210000,-1,-1,-1,-1,10,-1,25,-1,-1,-1,-1,,9999,0,0,3,SCT 44   BKN 50   OVC 70,1,14,1,7,1027,ROYN 112100Z AUTO 01025KT 9999 SCT044 BKN050 OVC070 14/07     Q1027 RMK A3035=,
20180111_220000.002,0,ROYN,,,,1,20180111220000,-1,-1,-1,-1,10,-1,26,-1,-1,-1,-1,,9999,0,0,3,FEW 42   SCT 50   BKN 60,1,14,1,5,1027,ROYN 112200Z AUTO 01026KT 9999 FEW042 SCT050 BKN060 14/05     Q1027 RMK A3035=,
20180111_230000.002,0,ROYN,,,,1,20180111230000,-1,-1,-1,-1,20,-1,23,-1,-1,-1,-1,,9999,0,0,3,SCT 46   BKN 50   BKN 60,1,14,1,6,1028,ROYN 112300Z AUTO 02023KT 9999 SCT046 BKN050 BKN060 14/06     Q1028 RMK A3036=,
20180112_000000.002,0,ROYN,,,,1,20180112000000,-1,-1,-1,-1,10,-1,22,-1,-1,-1,-1,,9999,0,0,3,FEW 42   SCT 45   BKN 50,1,14,1,6,1029,ROYN 120000Z AUTO 01022KT 9999 FEW042 SCT045 BKN050 14/06     Q1029 RMK A3039=,
20180112_010000.003,0,ROYN,,,,1,20180112010000,-1,-1,-1,-1,10,-1,23,-1,-1,-1,-1,,9999,0,0,3,SCT 47   BKN 50   BKN 60,1,14,1,6,1029,ROYN 120100Z AUTO 01023KT 9999 SCT047 BKN050 BKN060 14/06     Q1029 RMK A3040=,
20180112_020000.002,0,ROYN,,,,1,20180112020000,-1,-1,-1,-1,20,-1,22,-1,-1,-1,-1,,9999,0,0,3,BKN 47   BKN 50   OVC 60,1,14,1,6,1029,ROYN 120200Z AUTO 02022KT 9999 BKN047 BKN050 OVC060 14/06     Q1029 RMK A3041=,
20180112_030000.002,0,ROYN,,,,1,20180112030000,-1,-1,-1,-1,20,-1,22,-1,-1,-1,-1,,9999,0,0,3,FEW 40   SCT 44   BKN 46,1,14,1,7,1029,ROYN 120300Z AUTO 02022KT 9999 FEW040 SCT044 BKN046 14/07     Q1029 RMK A3039=,
20180112_040000.002,0,ROYN,,,,1,20180112040000,-1,-1,-1,-1,10,-1,27,-1,-1,-1,-1,,9999,0,0,3,BKN 40   BKN 44   OVC 50,1,14,1,7,1028,ROYN 120400Z AUTO 01027KT 9999 BKN040 BKN044 OVC050 14/07     Q1028 RMK A3036=,
20180112_050000.003,0,ROYN,,,,1,20180112050000,-1,-1,-1,-1,20,-1,24,-1,-1,-1,-1,,9999,0,0,3,SCT 42   SCT 48   BKN 50,1,15,1,6,1026,ROYN 120500Z AUTO 02024KT 9999 SCT042 SCT048 BKN050 15/06     Q1026 RMK A3032=,
20180112_060000.002,0,ROYN,,,,1,20180112060000,-1,-1,-1,-1,10,-1,22,-1,-1,-1,-1,,9999,0,0,3,FEW 44   SCT 46   BKN 48,1,14,1,6,1026,ROYN 120600Z AUTO 01022KT 9999 FEW044 SCT046 BKN048 14/06     Q1026 RMK A3031=,
20180112_070000.003,0,ROYN,,,,1,20180112070000,-1,-1,-1,-1,20,-1,22,-1,-1,-1,-1,,9999,0,0,3,FEW 44   BKN 50   BKN 60,1,14,1,5,1026,ROYN 120700Z AUTO 02022KT 9999 FEW044 BKN050 BKN060 14/05     Q1026 RMK A3031=,
20180112_080000.002,0,ROYN,,,,1,20180112080000,-1,-1,-1,-1,10,-1,22,-1,-1,-1,-1,,9999,0,0,3,FEW 46   SCT 50   BKN 60,1,14,1,4,1026,ROYN 120800Z AUTO 01022KT 9999 FEW046 SCT050 BKN060 14/04     Q1026 RMK A3032=,
20180112_090000.002,0,ROYN,,,,1,20180112090000,-1,-1,-1,-1,20,-1,24,-1,-1,-1,-1,,9999,0,0,3,SCT 38   BKN 41   BKN 44,1,14,1,7,1027,ROYN 120900Z AUTO 02024KT 9999 SCT038 BKN041 BKN044 14/07     Q1027 RMK A3033=,
20180112_100000.002,0,ROYN,,,,1,20180112100000,-1,-1,-1,-1,10,-1,25,-1,-1,-1,-1,,9999,0,0,3,SCT 38   BKN 46   BKN 50,1,14,1,8,1027,ROYN 121000Z AUTO 01025KT 9999 SCT038 BKN046 BKN050 14/08     Q1027 RMK A3034=,
20180112_110000.002,0,ROYN,,,,1,20180112110000,-1,-1,-1,-1,20,-1,27,-1,-1,-1,-1,,9999,0,0,3,FEW 40   SCT 45   BKN 50,1,14,1,6,1028,ROYN 121100Z AUTO 02027KT 9999 FEW040 SCT045 BKN050 14/06     Q1028 RMK A3036=,
20180112_120000.002,0,ROYN,,,,1,20180112120000,-1,-1,-1,-1,20,-1,25,-1,-1,-1,-1,,9999,0,0,2,FEW 46   BKN 60,1,14,1,5,1029,ROYN 121200Z AUTO 02025KT 9999 FEW046 BKN060 14/05 Q1029 RMK     A3039=,
20180112_130000.002,0,ROYN,,,,1,20180112130000,-1,-1,-1,-1,20,-1,23,-1,-1,-1,-1,,9999,0,0,3,FEW 42   SCT 49   BKN 50,1,13,1,5,1029,ROYN 121300Z AUTO 02023KT 9999 FEW042 SCT049 BKN050 13/05     Q1029 RMK A3040=,
20180112_140000.002,0,ROYN,,,,1,20180112140000,-1,-1,-1,-1,40,-1,19,-1,-1,-1,-1,,9999,0,0,3,FEW 41   BKN 46   OVC 60,1,14,1,6,1029,ROYN 121400Z AUTO 04019KT 9999 FEW041 BKN046 OVC060 14/06     Q1029 RMK A3039=,
20180112_150000.002,0,ROYN,,,,1,20180112150000,-1,-1,-1,-1,30,-1,20,-1,-1,-1,-1,,9999,0,0,1,FEW 44,1,14,1,5,1028,ROYN 121500Z AUTO 03020KT 9999 FEW044 14/05 Q1028 RMK A3038=,
20180112_160000.002,0,ROYN,,,,1,20180112160000,-1,-1,-1,-1,20,-1,18,-1,-1,-1,-1,,9999,0,0,2,FEW 45   OVC 60,1,14,1,3,1028,ROYN 121600Z AUTO 02018KT 9999 FEW045 OVC060 14/03 Q1028 RMK     A3037=,
20180112_170000.002,0,ROYN,,,,1,20180112170000,-1,-1,-1,-1,10,-1,20,-1,-1,-1,-1,,9999,0,0,3,FEW 42   BKN 46   BKN 50,1,14,1,6,1028,ROYN 121700Z AUTO 01020KT 9999 FEW042 BKN046 BKN050 14/06     Q1028 RMK A3036=,
20180112_180000.002,0,ROYN,,,,1,20180112180000,-1,-1,-1,-1,10,-1,20,-1,30,-1,-1,,9999,0,0,3,FEW 49   BKN 50   OVC 60,1,14,1,5,1028,ROYN 121800Z AUTO 01020G30KT 9999 FEW049 BKN050 OVC060 14/05     Q1028 RMK A3036=,
20180112_190000.002,0,ROYN,,,,1,20180112190000,-1,-1,-1,-1,20,-1,22,-1,-1,-1,-1,,9999,0,0,3,FEW 42   BKN 70   BKN 80,1,14,1,7,1028,ROYN 121900Z AUTO 02022KT 9999 FEW042 BKN070 BKN080 14/07     Q1028 RMK A3036=,
20180112_200000.003,0,ROYN,,,,1,20180112200000,-1,-1,-1,-1,50,-1,9,-1,-1,10,80,,9999,0,0,3,FEW 48   SCT 50   BKN 60,1,13,1,6,1028,ROYN 122000Z AUTO 05009KT 010V080 9999 FEW048 SCT050 BKN060     13/06 Q1028 RMK A3036=,
20180112_210000.002,0,ROYN,,,,1,20180112210000,-1,-1,-1,-1,30,-1,17,-1,28,-1,-1,,9999,0,0,1,NSC -1,1,14,1,4,1028,ROYN 122100Z AUTO 03017G28KT 9999 NSC 14/04 Q1028 RMK A3036=,
20180112_220000.002,0,ROYN,,,,1,20180112220000,-1,-1,-1,-1,30,-1,13,-1,-1,-1,-1,,9999,0,0,1,FEW 38,1,14,1,5,1028,ROYN 122200Z AUTO 03013KT 9999 FEW038 14/05 Q1028 RMK A3036=,
20180112_230000.002,0,ROYN,,,,1,20180112230000,-1,-1,-1,-1,40,-1,14,-1,-1,-1,-1,,9999,0,0,1,FEW 42,1,14,1,4,1028,ROYN 122300Z AUTO 04014KT 9999 FEW042 14/04 Q1028 RMK A3036=,
20180113_000000.002,0,ROYN,,,,1,20180113000000,-1,-1,-1,-1,40,-1,19,-1,-1,-1,-1,,9999,0,0,1,FEW 45,1,15,1,7,1028,ROYN 130000Z AUTO 04019KT 9999 FEW045 15/07 Q1028 RMK A3037=,
20180113_010000.003,0,ROYN,,,,1,20180113010000,-1,-1,-1,-1,30,-1,21,-1,-1,-1,-1,,9999,0,0,3,SCT 40   BKN 50   BKN 60,1,16,1,8,1029,ROYN 130100Z AUTO 03021KT 9999 SCT040 BKN050 BKN060 16/08     Q1029 RMK A3039=,
20180113_020000.002,0,ROYN,,,,1,20180113020000,-1,-1,-1,-1,20,-1,18,-1,-1,-1,-1,,9999,0,0,2,FEW 38   SCT 50,1,16,1,7,1029,ROYN 130200Z AUTO 02018KT 9999 FEW038 SCT050 16/07 Q1029 RMK     A3039=,
20180113_030000.002,0,ROYN,,,,1,20180113030000,-1,-1,-1,-1,30,-1,16,-1,-1,-1,-1,,9999,0,0,1,BKN 43,1,17,1,7,1028,ROYN 130300Z AUTO 03016KT 9999 BKN043 17/07 Q1028 RMK A3037=,
20180113_040000.002,0,ROYN,,,,1,20180113040000,-1,-1,-1,-1,40,-1,17,-1,-1,-1,-1,,9999,0,0,2,FEW 47   BKN 60,1,18,1,7,1027,ROYN 130400Z AUTO 04017KT 9999 FEW047 BKN060 18/07 Q1027 RMK     A3034=,
20180113_050000.002,0,ROYN,,,,1,20180113050000,-1,-1,-1,-1,40,-1,18,-1,-1,-1,-1,,9999,0,0,1,FEW 40,1,16,1,7,1026,ROYN 130500Z AUTO 04018KT 9999 FEW040 16/07 Q1026 RMK A3031=,
20180113_060000.002,0,ROYN,,,,1,20180113060000,-1,-1,-1,-1,40,-1,18,-1,-1,-1,-1,,9999,0,0,2,FEW 44   SCT 60,1,17,1,8,1025,ROYN 130600Z AUTO 04018KT 9999 FEW044 SCT060 17/08 Q1025 RMK     A3028=,
20180113_070000.002,0,ROYN,,,,1,20180113070000,-1,-1,-1,-1,30,-1,18,-1,-1,-1,-1,,9999,0,0,3,FEW 40   SCT 49   BKN 60,1,17,1,8,1025,ROYN 130700Z AUTO 03018KT 9999 FEW040 SCT049 BKN060 17/08     Q1025 RMK A3028=,
20180113_080000.002,0,ROYN,,,,1,20180113080000,-1,-1,-1,-1,40,-1,18,-1,-1,-1,-1,,9999,0,0,3,FEW 40   SCT 46   OVC 60,1,16,1,7,1025,ROYN 130800Z AUTO 04018KT 9999 FEW040 SCT046 OVC060 16/07     Q1025 RMK A3028=,
20180113_090000.002,0,ROYN,,,,1,20180113090000,-1,-1,-1,-1,40,-1,18,-1,-1,-1,-1,,9999,0,0,3,SCT 42   SCT 48   OVC 50,1,16,1,8,1025,ROYN 130900Z AUTO 04018KT 9999 SCT042 SCT048 OVC050 16/08     Q1025 RMK A3029=,
20180113_100000.002,0,ROYN,,,,1,20180113100000,-1,-1,-1,-1,60,-1,14,-1,-1,-1,-1,,9999,0,0,2,FEW 44   BKN 70,1,16,1,5,1026,ROYN 131000Z AUTO 06014KT 9999 FEW044 BKN070 16/05 Q1026 RMK     A3030=,
20180113_110000.002,0,ROYN,,,,1,20180113110000,-1,-1,-1,-1,60,-1,11,-1,-1,30,90,,9999,0,0,1,NSC -1,1,15,1,6,1026,ROYN 131100Z AUTO 06011KT 030V090 9999 NSC 15/06 Q1026 RMK     A3031=,
20180113_120000.002,0,ROYN,,,,1,20180113120000,-1,-1,-1,-1,40,-1,13,-1,-1,-1,-1,,9999,0,0,1,NSC -1,1,16,1,8,1026,ROYN 131200Z AUTO 04013KT 9999 NSC 16/08 Q1026 RMK A3031=,
20180113_130000.002,0,ROYN,,,,1,20180113130000,-1,-1,-1,-1,10,-1,11,-1,-1,330,30,,9999,0,0,1,NSC -1,1,16,1,8,1026,ROYN 131300Z AUTO 01011KT 330V030 9999 NSC 16/08 Q1026 RMK     A3031=,
20180113_140000.003,0,ROYN,,,,1,20180113140000,-1,-1,-1,-1,40,-1,7,-1,-1,360,100,,9999,0,0,2,FEW 45   BKN 80,1,16,1,9,1026,ROYN 131400Z AUTO 04007KT 360V100 9999 FEW045 BKN080 16/09     Q1026 RMK A3031=,
20180113_150000.002,0,ROYN,,,,1,20180113150000,-1,-1,-1,-1,120,-1,6,-1,-1,80,150,,9999,0,0,4,FEW 28   BKN 34   BKN 42   /// -9999 TCU,1,15,1,11,1026,ROYN 131500Z AUTO 12006KT 080V150 9999 FEW028 BKN034 BKN042     //////TCU 15/11 Q1026 RMK A3030 TCU 25KM NE MOV UNKNOWN=,
20180113_160000.002,0,ROYN,,,,1,20180113160000,-1,-1,-1,-1,50,-1,15,-1,-1,-1,-1,,9999,0,0,3,FEW 19   BKN 50   OVC 80,1,15,1,11,1026,ROYN 131600Z AUTO 05015KT 9999 FEW019 BKN050 OVC080 15/11     Q1026 RMK A3030=,
20180113_170000.002,0,ROYN,,,,1,20180113170000,-1,-1,-1,-1,360,-1,10,-1,-1,-1,-1,,9999,0,0,3,FEW 60   OVC 70   /// -9999 TCU,1,15,1,12,1025,ROYN 131700Z AUTO 36010KT 9999 FEW060 OVC070 //////TCU 15/12     Q1025 RMK A3028 TCU 5KM N AND 20KM W MOV UNKNOWN=,
20180113_180000.002,0,ROYN,,,,1,20180113180000,-1,-1,-1,-1,30,-1,11,-1,-1,360,70,,9999,0,0,3,FEW 70   SCT 100   /// -9999 TCU,1,16,1,10,1025,ROYN 131800Z AUTO 03011KT 360V070 9999 FEW070 SCT100 //////TCU     16/10 Q1025 RMK A3027 TCU 20KM N MOV UNKNOWN=,
20180113_190000.003,0,ROYN,,,,1,20180113190000,-1,-1,-1,-1,30,-1,10,-1,-1,-1,-1,,9999,0,0,3,FEW 23   SCT 26   /// -9999 TCU,1,16,1,11,1024,ROYN 131900Z AUTO 03010KT 9999 FEW023 SCT026 //////TCU 16/11     Q1024 RMK A3025 TCU 30KM NW MOV UNKNOWN=,
20180113_200000.003,0,ROYN,,,,1,20180113200000,-1,-1,-1,-1,50,-1,7,-1,-1,360,90,,9999,0,0,1,FEW 32,1,15,1,10,1023,ROYN 132000Z AUTO 05007KT 360V090 9999 FEW032 15/10 Q1023 RMK     A3023=,
20180113_210000.002,0,ROYN,,,,1,20180113210000,-1,-1,-1,-1,60,-1,10,-1,-1,-1,-1,,9999,0,0,3,FEW 26   SCT 29   BKN 34,1,15,1,11,1023,ROYN 132100Z AUTO 06010KT 9999 FEW026 SCT029 BKN034 15/11     Q1023 RMK A3022=,
20180113_220000.002,0,ROYN,,,,1,20180113220000,-1,-1,-1,-1,30,-1,7,-1,-1,-1,-1,,9999,0,0,1,NCD -1,1,15,1,10,1023,ROYN 132200Z AUTO 03007KT 9999 NCD 15/10 Q1023 RMK A3022=,
20180113_230000.002,0,ROYN,,,,1,20180113230000,-1,-1,-1,-1,60,-1,7,-1,-1,20,130,,9999,0,0,1,FEW 34,1,15,1,10,1023,ROYN 132300Z AUTO 06007KT 020V130 9999 FEW034 15/10 Q1023 RMK     A3023=,
20180114_000000.003,0,ROYN,,,,1,20180114000000,-1,-1,-1,-1,90,-1,5,-1,-1,30,120,,9999,0,0,2,SCT 34   SCT 41,1,17,1,11,1024,ROYN 140000Z AUTO 09005KT 030V120 9999 SCT034 SCT041 17/11     Q1024 RMK A3025=,
20180114_010000.002,0,ROYN,,,,1,20180114010000,-1,-1,-1,-1,110,-1,5,-1,-1,-1,-1,,9999,0,0,1,SCT 38,1,19,1,10,1024,ROYN 140100Z AUTO 11005KT 9999 SCT038 19/10 Q1024 RMK A3026=,
20180114_020000.002,0,ROYN,,,,1,20180114020000,-1,-1,-1,-1,50,-1,6,-1,-1,10,90,,9999,0,0,1,NSC -1,1,19,1,11,1024,ROYN 140200Z AUTO 05006KT 010V090 9999 NSC 19/11 Q1024 RMK     A3024=,
20180114_030000.002,0,ROYN,,,,1,20180114030000,-1,-1,-1,-1,70,-1,6,-1,-1,20,120,,9999,0,0,1,SCT 37,1,20,1,11,1023,ROYN 140300Z AUTO 07006KT 020V120 9999 SCT037 20/11 Q1023 RMK     A3021=,
20180114_040000.002,0,ROYN,,,,1,20180114040000,-1,-1,-1,-1,70,-1,5,-1,-1,20,100,,9999,0,0,3,FEW 34   SCT 49   BKN 60,1,20,1,12,1022,ROYN 140400Z AUTO 07005KT 020V100 9999 FEW034 SCT049 BKN060     20/12 Q1022 RMK A3018=,
20180114_050000.002,0,ROYN,,,,1,20180114050000,-1,-1,-1,-1,70,-1,7,-1,-1,50,110,,9999,0,0,2,FEW 34   BKN 50,1,19,1,13,1020,ROYN 140500Z AUTO 07007KT 050V110 9999 FEW034 BKN050 19/13     Q1020 RMK A3014=,
20180114_060000.003,0,ROYN,,,,1,20180114060000,-1,-1,-1,-1,50,-1,4,-1,-1,10,100,,9999,0,0,1,NCD -1,1,19,1,12,1020,ROYN 140600Z AUTO 05004KT 010V100 9999 NCD 19/12 Q1020 RMK     A3012=,
20180114_070000.002,0,ROYN,,,,1,20180114070000,-1,-1,-1,-1,50,-1,5,-1,-1,20,90,,9999,0,0,1,FEW 33,1,20,1,12,1019,ROYN 140700Z AUTO 05005KT 020V090 9999 FEW033 20/12 Q1019 RMK     A3011=,
20180114_080000.002,0,ROYN,,,,1,20180114080000,-1,-1,-1,-1,80,-1,6,-1,-1,-1,-1,,9999,0,0,1,SCT 34,1,19,1,12,1019,ROYN 140800Z AUTO 08006KT 9999 SCT034 19/12 Q1019 RMK A3012=,
20180114_090000.002,0,ROYN,,,,1,20180114090000,-1,-1,-1,-1,70,-1,6,-1,-1,40,100,,9999,0,0,2,SCT 33   SCT 38,1,19,1,13,1019,ROYN 140900Z AUTO 07006KT 040V100 9999 SCT033 SCT038 19/13     Q1019 RMK A3012=,
20180114_100000.002,0,ROYN,,,,1,20180114100000,-1,-1,-1,-1,60,-1,7,-1,-1,30,100,,9999,0,0,1,FEW 35,1,18,1,13,1020,ROYN 141000Z AUTO 06007KT 030V100 9999 FEW035 18/13 Q1020 RMK     A3013=,
20180114_110000.002,0,ROYN,,,,1,20180114110000,-1,-1,-1,-1,100,-1,6,-1,-1,60,140,,9999,0,0,3,SCT 30   SCT 34   BKN 37,1,18,1,13,1020,ROYN 141100Z AUTO 10006KT 060V140 9999 SCT030 SCT034 BKN037     18/13 Q1020 RMK A3015=,
20180114_120000.002,0,ROYN,,,,1,20180114120000,-1,-1,-1,-1,100,-1,7,-1,-1,-1,-1,,9999,0,0,2,FEW 36   SCT 38,1,17,1,12,1021,ROYN 141200Z AUTO 10007KT 9999 FEW036 SCT038 17/12 Q1021 RMK     A3015=,
20180114_130000.003,0,ROYN,,,,1,20180114130000,-1,-1,-1,-1,120,-1,6,-1,-1,-1,-1,,9999,0,0,1,NSC -1,1,18,1,13,1021,ROYN 141300Z AUTO 12006KT 9999 NSC 18/13 Q1021 RMK A3016=,
20180114_140000.002,0,ROYN,,,,1,20180114140000,-1,-1,-1,-1,130,-1,6,-1,-1,-1,-1,,9999,0,0,1,FEW 28,1,17,1,13,1021,ROYN 141400Z AUTO 13006KT 9999 FEW028 17/13 Q1021 RMK A3016=,
20180114_150000.002,0,ROYN,,,,1,20180114150000,-1,-1,-1,-1,140,-1,5,-1,-1,-1,-1,,9999,0,0,1,NCD -1,1,16,1,13,1020,ROYN 141500Z AUTO 14005KT 9999 NCD 16/13 Q1020 RMK A3015=,
20180114_160000.002,0,ROYN,,,,1,20180114160000,-1,-1,-1,-1,130,-1,5,-1,-1,-1,-1,,9999,0,0,1,FEW 28,1,16,1,13,1020,ROYN 141600Z AUTO 13005KT 9999 FEW028 16/13 Q1020 RMK A3013=,
20180114_170000.002,0,ROYN,,,,1,20180114170000,-1,-1,-1,-1,150,-1,4,-1,-1,-1,-1,,9999,0,0,1,FEW 28,1,16,1,14,1020,ROYN 141700Z AUTO 15004KT 9999 FEW028 16/14 Q1020 RMK A3013=,
20180114_180000.003,0,ROYN,,,,1,20180114180000,-1,-1,-1,-1,120,-1,5,-1,-1,-1,-1,,9999,0,0,1,/// -9999 TCU,1,15,1,13,1019,ROYN 141800Z AUTO 12005KT 9999 //////TCU 15/13 Q1019 RMK A3010     TCU 30KM N AND SE MOV UNKNOWN=,
20180114_190000.002,0,ROYN,,,,1,20180114190000,-1,-1,-1,-1,150,-1,3,-1,-1,-1,-1,,9999,0,0,4,SCT 21   SCT 26   BKN 35   /// -9999 TCU,1,16,1,15,1018,ROYN 141900Z AUTO 15003KT 9999 SCT021 SCT026 BKN035 //////TCU     16/15 Q1018 RMK A3009 TCU 25KM SE MOV W=,
20180114_200000.003,0,ROYN,,,,1,20180114200000,-1,-1,-1,-1,110,-1,6,-1,-1,-1,-1,,9999,0,0,3,FEW 31   SCT 42   BKN 47,1,17,1,15,1018,ROYN 142000Z AUTO 11006KT 9999 FEW031 SCT042 BKN047 17/15     Q1018 RMK A3008=,
20180114_210000.002,0,ROYN,,,,1,20180114210000,-1,-1,-1,-1,130,-1,5,-1,-1,-1,-1,,9999,0,0,1,NCD -1,1,16,1,15,1018,ROYN 142100Z AUTO 13005KT 9999 NCD 16/15 Q1018 RMK A3008=,
20180114_220000.002,0,ROYN,,,,1,20180114220000,-1,-1,-1,-1,110,-1,5,-1,-1,-1,-1,,9999,0,0,1,NCD -1,1,15,1,14,1018,ROYN 142200Z AUTO 11005KT 9999 NCD 15/14 Q1018 RMK A3009=,
20180114_230000.002,0,ROYN,,,,1,20180114230000,-1,-1,-1,-1,110,-1,5,-1,-1,-1,-1,,9999,0,0,1,FEW 41,1,16,1,14,1019,ROYN 142300Z AUTO 11005KT 9999 FEW041 16/14 Q1019 RMK A3010=,
20180115_000000.002,0,ROYN,,,,1,20180115000000,-1,-1,-1,-1,110,-1,6,-1,-1,-1,-1,,9999,0,0,2,FEW 30   OVC 150,1,20,1,16,1020,ROYN 150000Z AUTO 11006KT 9999 FEW030 OVC150 20/16 Q1020 RMK     A3012=,
20180115_010000.002,0,ROYN,,,,1,20180115010000,-1,-1,-1,-1,90,-1,8,-1,-1,-1,-1,,9999,0,0,1,NSC -1,1,22,1,15,1020,ROYN 150100Z AUTO 09008KT 9999 NSC 22/15 Q1020 RMK A3013=,
20180115_020000.002,0,ROYN,,,,1,20180115020000,-1,-1,-1,-1,100,-1,8,-1,-1,-1,-1,,9999,0,0,2,FEW 34   SCT 50,1,22,1,14,1020,ROYN 150200Z AUTO 10008KT 9999 FEW034 SCT050 22/14 Q1020 RMK     A3012=,
20180115_030000.002,0,ROYN,,,,1,20180115030000,-1,-1,-1,-1,110,-1,8,-1,-1,60,130,,9999,0,0,1,FEW 33,1,23,1,14,1019,ROYN 150300Z AUTO 11008KT 060V130 9999 FEW033 23/14 Q1019 RMK     A3010=,
20180115_040000.002,0,ROYN,,,,1,20180115040000,-1,-1,-1,-1,120,-1,6,-1,-1,60,170,,9999,0,0,1,NSC -1,1,23,1,15,1018,ROYN 150400Z AUTO 12006KT 060V170 9999 NSC 23/15 Q1018 RMK     A3007=,
20180115_050000.002,0,ROYN,,,,1,20180115050000,-1,-1,-1,-1,110,-1,6,-1,-1,70,170,,9999,0,0,1,NCD -1,1,23,1,16,1017,ROYN 150500Z AUTO 11006KT 070V170 9999 NCD 23/16 Q1017 RMK     A3004=,
20180115_060000.002,0,ROYN,,,,1,20180115060000,-1,-1,-1,-1,110,-1,8,-1,-1,80,150,,9999,0,0,1,NSC -1,1,23,1,16,1016,ROYN 150600Z AUTO 11008KT 080V150 9999 NSC 23/16 Q1016 RMK     A3001=,
20180115_070000.003,0,ROYN,,,,1,20180115070000,-1,-1,-1,-1,110,-1,10,-1,-1,-1,-1,,9999,0,0,3,FEW 29   SCT 60   BKN 70,1,23,1,15,1016,ROYN 150700Z AUTO 11010KT 9999 FEW029 SCT060 BKN070 23/15     Q1016 RMK A3001=,
20180115_080000.002,0,ROYN,,,,1,20180115080000,-1,-1,-1,-1,110,-1,10,-1,-1,-1,-1,,9999,0,0,3,FEW 50   SCT 60   /// -9999 TCU,1,23,1,17,1016,ROYN 150800Z AUTO 11010KT 9999 FEW050 SCT060 //////TCU 23/17     Q1016 RMK A3002 TCU 40KM S MOV UNKNOWN=,
20180115_090000.002,0,ROYN,,,,1,20180115090000,-1,-1,-1,-1,110,-1,10,-1,-1,-1,-1,,9999,0,0,1,FEW 25,1,22,1,16,1016,ROYN 150900Z AUTO 11010KT 9999 FEW025 22/16 Q1016 RMK A3002=,
20180115_100000.002,0,ROYN,,,,1,20180115100000,-1,-1,-1,-1,110,-1,11,-1,-1,-1,-1,,9999,0,0,3,FEW 29   BKN 50   /// -9999 TCU,1,22,1,16,1016,ROYN 151000Z AUTO 11011KT 9999 FEW029 BKN050 //////TCU 22/16     Q1016 RMK A3003 TCU 35KM S STNR AND 40KM NW MOV UNKNOWN=,
20180115_110000.002,0,ROYN,,,,1,20180115110000,-1,-1,-1,-1,110,-1,13,-1,-1,-1,-1,,9999,0,0,3,FEW 24   BKN 50   BKN 60,1,22,1,17,1017,ROYN 151100Z AUTO 11013KT 9999 FEW024 BKN050 BKN060 22/17     Q1017 RMK A3004=,
20180115_120000.002,0,ROYN,,,,1,20180115120000,-1,-1,-1,-1,120,-1,14,-1,-1,100,160,,9999,0,0,4,FEW 18   SCT 23   BKN 40   /// -9999 TCU,1,20,1,17,1017,ROYN 151200Z AUTO 12014KT 100V160 9999 FEW018 SCT023 BKN040     //////TCU 20/17 Q1017 RMK A3005 TCU OHD MOV UNKNOWN=,
20180115_130000.002,0,ROYN,,,,1,20180115130000,-1,-1,-1,-1,140,-1,17,-1,-1,-1,-1,,9999,0,0,4,FEW 17   SCT 50   BKN 60   /// -9999 TCU,1,20,1,17,1017,ROYN 151300Z AUTO 14017KT 9999 FEW017 SCT050 BKN060 //////TCU     20/17 Q1017 RMK A3006 TCU OHD MOV UNREL NW=,
20180115_140000.002,0,ROYN,,,,1,20180115140000,-1,-1,-1,-1,130,-1,9,-1,-1,100,160,,9999,0,0,4,FEW 27   BKN 50   BKN 60   /// -9999 TCU,1,21,1,17,1017,ROYN 151400Z AUTO 13009KT 100V160 9999 FEW027 BKN050 BKN060     //////TCU 21/17 Q1017 RMK A3005 TCU 10KM SW MOV N=,
20180115_150000.002,0,ROYN,,,,1,20180115150000,-1,-1,-1,-1,110,-1,13,-1,-1,-1,-1,,9999,0,0,3,FEW 17   BKN 38   BKN 44,1,20,1,17,1017,ROYN 151500Z AUTO 11013KT 9999 FEW017 BKN038 BKN044 20/17     Q1017 RMK A3004=,
20180115_160000.002,0,ROYN,,,,1,20180115160000,-1,-1,-1,-1,120,-1,14,-1,-1,-1,-1,,9999,0,0,4,FEW 38   BKN 70   BKN 80   /// -9999 TCU,1,20,1,17,1016,ROYN 151600Z AUTO 12014KT 9999 FEW038 BKN070 BKN080 //////TCU     20/17 Q1016 RMK A3002 TCU OHD MOV NW AND 30KM NW MOV N=,
20180115_170000.002,0,ROYN,,,,1,20180115170000,-1,-1,-1,-1,120,-1,13,-1,-1,-1,-1,,9999,0,0,4,FEW 18   SCT 50   OVC 60   /// -9999 TCU,1,21,1,18,1016,ROYN 151700Z AUTO 12013KT 9999 FEW018 SCT050 OVC060 //////TCU     21/18 Q1016 RMK A3000 TCU 15KM W-NW MOV NW=,
20180115_180000.002,0,ROYN,,,,1,20180115180000,-1,-1,-1,-1,120,-1,13,-1,-1,-1,-1,,9999,0,0,4,FEW 25   SCT 50   BKN 60   /// -9999 TCU,1,22,1,17,1015,ROYN 151800Z AUTO 12013KT 9999 FEW025 SCT050 BKN060 //////TCU     22/17 Q1015 RMK A2999 TCU 25KM SW AND NW MOV N=,
20180115_190000.002,0,ROYN,,,,1,20180115190000,-1,-1,-1,-1,130,-1,11,-1,-1,-1,-1,,9999,0,0,4,FEW 27   SCT 46   BKN 50   /// -9999 TCU,1,22,1,17,1015,ROYN 151900Z AUTO 13011KT 9999 FEW027 SCT046 BKN050 //////TCU     22/17 Q1015 RMK A2997 TCU 20KM S MOV NW AND 20KM W-NW           STNR AND 40KM N MOV N=,
20180115_200000.002,0,ROYN,,,,1,20180115200000,-1,-1,-1,-1,150,-1,14,-1,-1,-1,-1,,9999,0,0,4,FEW 7   SCT 36   BKN 47   /// -9999 TCU,1,20,1,18,1014,ROYN 152000Z AUTO 15014KT 9999 FEW007 SCT036 BKN047 //////TCU     20/18 Q1014 RMK A2997 TCU OHD MOV UNREL E AND 20KM NW MOV           N AND 40KM SW MOV NE=,
20180115_210000.002,0,ROYN,,,,1,20180115210000,-1,-1,-1,-1,110,-1,12,-1,-1,-1,-1,,9999,0,0,4,FEW 9   SCT 34   BKN 50   /// -9999 TCU,1,20,1,18,1014,ROYN 152100Z AUTO 11012KT 9999 FEW009 SCT034 BKN050 //////TCU     20/18 Q1014 RMK A2997 TCU 30KM SW MOV N=,
20180115_220000.002,0,ROYN,,,,1,20180115220000,-1,-1,-1,-1,100,-1,9,-1,-1,-1,-1,,9999,0,1,4,FEW 20   SCT 39   BKN 50   /// -9999 TCU,1,20,1,18,1015,ROYN 152200Z AUTO 10009KT 9999 -RA FEW020 SCT039 BKN050     //////TCU 20/18 Q1015 RMK A2997 TCU 25KM SW MOV N=,- RA
20180115_230000.002,0,ROYN,,,,1,20180115230000,-1,-1,-1,-1,90,-1,10,-1,-1,-1,-1,,9999,0,0,4,FEW 10   SCT 22   BKN 34   /// -9999 TCU,1,20,1,19,1015,ROYN 152300Z AUTO 09010KT 9999 FEW010 SCT022 BKN034 //////TCU     20/19 Q1015 RMK A2997 TCU 40KM E MOV UNKNOWN=,
20180116_000000.002,0,ROYN,,,,1,20180116000000,-1,-1,-1,-1,100,-1,10,-1,-1,-1,-1,,9999,0,1,3,BKN 13   BKN 21   OVC 50,1,20,1,19,1016,ROYN 160000Z AUTO 10010KT 9999 -RA BKN013 BKN021 OVC050 20/19     Q1016 RMK A3000=,- RA
20180116_010000.002,0,ROYN,,,,1,20180116010000,-1,-1,-1,-1,230,-1,6,-1,-1,160,280,,1700,0,2,4,FEW 5   SCT 20   BKN 27   /// -9999 TCU,1,20,1,19,1016,ROYN 160100Z AUTO 23006KT 160V280 1700 RA BR FEW005 SCT020     BKN027 //////TCU 20/19 Q1016 RMK A3001 RI011 TCU OHD MOV           N=,RA; BR
20180116_020000.002,0,ROYN,,,,1,20180116020000,-1,-1,-1,-1,999,-1,2,-1,-1,-1,-1,,9999,0,0,4,FEW 17   SCT 21   OVC 25   /// -9999 TCU,1,21,1,20,1015,ROYN 160200Z AUTO VRB02KT 9999 FEW017 SCT021 OVC025 //////TCU     21/20 Q1015 RMK A3000 TCU OHD MOV UNKNOWN=,
20180116_030000.002,0,ROYN,,,,1,20180116030000,-1,-1,-1,-1,999,-1,5,-1,-1,-1,-1,,2600,0,2,4,FEW 6   SCT 21   BKN 24   /// -9999 TCU,1,21,1,20,1015,ROYN 160300Z AUTO VRB05KT 2600 -RA BR FEW006 SCT021 BKN024     //////TCU 21/20 Q1015 RMK A2998 TCU OHD MOV UNKNOWN AND           15KM NE MOV NE=,- RA; BR
20180116_040000.002,0,ROYN,,,,1,20180116040000,-1,-1,-1,-1,160,-1,17,-1,-1,-1,-1,,2800,0,2,3,BKN 5   OVC 11   /// -9999 TCU,1,20,1,19,1014,ROYN 160400Z AUTO 16017KT 2800 -RA BR BKN005 OVC011 //////TCU     20/19 Q1014 RMK A2995 TCU 15KM NE MOV N=,- RA; BR
20180116_050000.002,0,ROYN,,,,1,20180116050000,-1,-1,-1,-1,160,-1,11,-1,-1,-1,-1,,9999,0,0,4,FEW 6   SCT 35   BKN 38   /// -9999 TCU,1,22,1,21,1013,ROYN 160500Z AUTO 16011KT 9999 FEW006 SCT035 BKN038 //////TCU     22/21 Q1013 RMK A2992 TCU 25KM NE MOV N=,
20180116_060000.002,0,ROYN,,,,1,20180116060000,-1,-1,-1,-1,190,-1,13,-1,23,-1,-1,,2300,0,2,3,FEW 4   SCT 7   BKN 12,1,21,1,20,1012,ROYN 160600Z AUTO 19013G23KT 2300 RA BR FEW004 SCT007 BKN012     21/20 Q1012 RMK A2991 RI014=,RA; BR
20180116_070000.002,0,ROYN,,,,1,20180116070000,-1,-1,-1,-1,250,-1,8,-1,-1,-1,-1,,1300,0,1,4,FEW 5   BKN 7   BKN 11   /// -9999 TCU,1,20,1,20,1012,ROYN 160700Z AUTO 25008KT 1300 BR FEW005 BKN007 BKN011     //////TCU 20/20 Q1012 RMK A2990 TCU 40KM E MOV UNKNOWN=,BR
20180116_080000.002,0,ROYN,,,,1,20180116080000,-1,-1,-1,-1,999,-1,1,-1,-1,-1,-1,,9999,0,0,4,SCT 20   BKN 23   BKN 25   /// -9999 TCU,1,21,1,20,1012,ROYN 160800Z AUTO VRB01KT 9999 SCT020 BKN023 BKN025 //////TCU     21/20 Q1012 RMK A2990 TCU 35KM E MOV UNKNOWN=,
20180116_090000.002,0,ROYN,,,,1,20180116090000,-1,-1,-1,-1,999,-1,1,-1,-1,-1,-1,,3700,0,1,3,FEW 16   SCT 28   BKN 45,1,20,1,19,1012,ROYN 160900Z AUTO VRB01KT 3700 BR FEW016 SCT028 BKN045 20/19     Q1012 RMK A2990=,BR
20180116_100000.002,0,ROYN,,,,1,20180116100000,-1,-1,-1,-1,140,-1,2,-1,-1,-1,-1,,9999,0,0,3,SCT 23   BKN 27   BKN 30,1,20,1,19,1012,ROYN 161000Z AUTO 14002KT 9999 SCT023 BKN027 BKN030 20/19     Q1012 RMK A2990=,
20180116_110000.004,0,ROYN,,,,1,20180116110000,-1,-1,-1,-1,130,-1,2,-1,-1,-1,-1,,4900,0,1,2,BKN 15   OVC 25,1,20,1,19,1012,ROYN 161100Z AUTO 13002KT 4900 BR BKN015 OVC025 20/19 Q1012     RMK A2991=,BR
20180116_120000.002,0,ROYN,,,,1,20180116120000,-1,-1,-1,-1,130,-1,1,-1,-1,-1,-1,,9999,0,0,3,SCT 20   BKN 24   OVC 33,1,20,1,19,1013,ROYN 161200Z AUTO 13001KT 9999 SCT020 BKN024 OVC033 20/19     Q1013 RMK A2991=,
20180116_130000.002,0,ROYN,,,,1,20180116130000,-1,-1,-1,-1,999,-1,2,-1,-1,-1,-1,,3600,0,2,3,SCT 3   BKN 7   BKN 9,1,20,1,20,1013,ROYN 161300Z AUTO VRB02KT 3600 -RA BR SCT003 BKN007 BKN009     20/20 Q1013 RMK A2992=,- RA; BR
20180116_140000.002,0,ROYN,,,,1,20180116140000,-1,-1,-1,-1,340,-1,6,-1,-1,-1,-1,,2200,0,1,3,SCT 2   BKN 7   OVC 11,1,19,1,19,1013,ROYN 161400Z AUTO 34006KT 2200 BR SCT002 BKN007 OVC011 19/19     Q1013 RMK A2992=,BR
20180116_150000.002,0,ROYN,,,,1,20180116150000,-1,-1,-1,-1,10,-1,6,-1,-1,-1,-1,,9999,0,0,2,FEW 5   OVC 15,1,20,1,19,1013,ROYN 161500Z AUTO 01006KT 9999 FEW005 OVC015 20/19 Q1013 RMK     A2991=,
20180116_160000.002,0,ROYN,,,,1,20180116160000,-1,-1,-1,-1,999,-1,1,-1,-1,-1,-1,,3700,0,1,3,SCT 16   BKN 22   BKN 24,1,19,1,18,1012,ROYN 161600Z AUTO VRB01KT 3700 BR SCT016 BKN022 BKN024 19/18     Q1012 RMK A2991=,BR
20180116_170000.002,0,ROYN,,,,1,20180116170000,-1,-1,-1,-1,350,-1,7,-1,-1,-1,-1,,9999,0,0,3,FEW 5   BKN 15   BKN 24,1,19,1,18,1012,ROYN 161700Z AUTO 35007KT 9999 FEW005 BKN015 BKN024 19/18     Q1012 RMK A2990=,
20180116_180000.002,0,ROYN,,,,1,20180116180000,-1,-1,-1,-1,360,-1,5,-1,-1,320,30,,4200,0,1,3,FEW 10   BKN 20   OVC 29,1,20,1,18,1012,ROYN 161800Z AUTO 36005KT 320V030 4200 BR FEW010 BKN020 OVC029     20/18 Q1012 RMK A2990=,BR
20180116_190000.002,0,ROYN,,,,1,20180116190000,-1,-1,-1,-1,20,-1,10,-1,-1,-1,-1,,9999,0,0,3,FEW 5   BKN 18   OVC 31,1,19,1,19,1012,ROYN 161900Z AUTO 02010KT 9999 FEW005 BKN018 OVC031 19/19     Q1012 RMK A2989=,
20180116_200000.002,0,ROYN,,,,1,20180116200000,-1,-1,-1,-1,10,-1,9,-1,-1,-1,-1,,9999,0,0,2,FEW 29   OVC 33,1,20,1,19,1012,ROYN 162000Z AUTO 01009KT 9999 FEW029 OVC033 20/19 Q1012 RMK     A2989=,
20180116_210000.002,0,ROYN,,,,1,20180116210000,-1,-1,-1,-1,10,-1,12,-1,-1,-1,-1,,9999,0,0,1,OVC 36,1,21,1,18,1012,ROYN 162100Z AUTO 01012KT 9999 OVC036 21/18 Q1012 RMK A2990=,
20180116_220000.002,0,ROYN,,,,1,20180116220000,-1,-1,-1,-1,350,-1,12,-1,-1,-1,-1,,9999,0,0,2,FEW 21   OVC 49,1,21,1,17,1013,ROYN 162200Z AUTO 35012KT 9999 FEW021 OVC049 21/17 Q1013 RMK     A2993=,
20180116_230000.002,0,ROYN,,,,1,20180116230000,-1,-1,-1,-1,350,-1,13,-1,-1,-1,-1,,9999,0,0,3,FEW 37   BKN 50   BKN 60,1,21,1,18,1014,ROYN 162300Z AUTO 35013KT 9999 FEW037 BKN050 BKN060 21/18     Q1014 RMK A2995=,
20180117_000000.002,0,ROYN,,,,1,20180117000000,-1,-1,-1,-1,350,-1,12,-1,-1,-1,-1,,9999,0,0,2,SCT 15   OVC 50,1,21,1,19,1015,ROYN 170000Z AUTO 35012KT 9999 SCT015 OVC050 21/19 Q1015 RMK     A2998=,
20180117_010000.002,0,ROYN,,,,1,20180117010000,-1,-1,-1,-1,20,-1,11,-1,-1,-1,-1,,9999,0,0,3,FEW 13   BKN 36   OVC 45,1,21,1,19,1016,ROYN 170100Z AUTO 02011KT 9999 FEW013 BKN036 OVC045 21/19     Q1016 RMK A3000=,
20180117_020000.004,0,ROYN,,,,1,20180117020000,-1,-1,-1,-1,30,-1,14,-1,-1,-1,-1,,9000,0,0,3,FEW 11   BKN 14   BKN 41,1,21,1,19,1016,ROYN 170200Z AUTO 03014KT 9000 FEW011 BKN014 BKN041 21/19     Q1016 RMK A3000=,
20180117_030000.002,0,ROYN,,,,1,20180117030000,-1,-1,-1,-1,10,-1,16,-1,-1,-1,-1,,9999,0,0,3,SCT 15   SCT 17   BKN 19,1,22,1,20,1015,ROYN 170300Z AUTO 01016KT 9999 SCT015 SCT017 BKN019 22/20     Q1015 RMK A3000=,
20180117_040000.003,0,ROYN,,,,1,20180117040000,-1,-1,-1,-1,20,-1,14,-1,-1,-1,-1,,9999,0,0,3,FEW 15   BKN 50   OVC 60,1,22,1,20,1015,ROYN 170400Z AUTO 02014KT 9999 FEW015 BKN050 OVC060 22/20     Q1015 RMK A2998=,
20180117_050000.003,0,ROYN,,,,1,20180117050000,-1,-1,-1,-1,20,-1,14,-1,-1,-1,-1,,9999,0,0,3,FEW 14   BKN 50   BKN 60,1,23,1,20,1014,ROYN 170500Z AUTO 02014KT 9999 FEW014 BKN050 BKN060 23/20     Q1014 RMK A2996=,
20180117_060000.002,0,ROYN,,,,1,20180117060000,-1,-1,-1,-1,40,-1,12,-1,-1,-1,-1,,9999,0,0,3,FEW 13   BKN 60   OVC 70,1,23,1,20,1014,ROYN 170600Z AUTO 04012KT 9999 FEW013 BKN060 OVC070 23/20     Q1014 RMK A2994=,
20180117_070000.002,0,ROYN,,,,1,20180117070000,-1,-1,-1,-1,50,-1,11,-1,-1,-1,-1,,9999,0,0,3,FEW 11   SCT 19   BKN 50,1,23,1,20,1014,ROYN 170700Z AUTO 05011KT 9999 FEW011 SCT019 BKN050 23/20     Q1014 RMK A2995=,
20180117_080000.002,0,ROYN,,,,1,20180117080000,-1,-1,-1,-1,50,-1,10,-1,-1,-1,-1,,9000,0,0,3,SCT 10   BKN 15   BKN 35,1,22,1,20,1014,ROYN 170800Z AUTO 05010KT 9000 SCT010 BKN015 BKN035 22/20     Q1014 RMK A2997=,
20180117_090000.003,0,ROYN,,,,1,20180117090000,-1,-1,-1,-1,60,-1,11,-1,-1,-1,-1,,5000,0,1,3,SCT 10   SCT 15   BKN 27,1,21,1,20,1015,ROYN 170900Z AUTO 06011KT 5000 BR SCT010 SCT015 BKN027 21/20     Q1015 RMK A2997=,BR
20180117_100000.002,0,ROYN,,,,1,20180117100000,-1,-1,-1,-1,70,-1,11,-1,-1,-1,-1,,9999,0,0,3,FEW 9   SCT 15   BKN 35,1,21,1,20,1015,ROYN 171000Z AUTO 07011KT 9999 FEW009 SCT015 BKN035 21/20     Q1015 RMK A2998=,
20180117_110000.003,0,ROYN,,,,1,20180117110000,-1,-1,-1,-1,60,-1,14,-1,-1,-1,-1,,9999,0,0,3,FEW 12   SCT 15   BKN 35,1,21,1,20,1015,ROYN 171100Z AUTO 06014KT 9999 FEW012 SCT015 BKN035 21/20     Q1015 RMK A3000=,
20180117_120000.003,0,ROYN,,,,1,20180117120000,-1,-1,-1,-1,50,-1,16,-1,-1,-1,-1,,5000,0,1,3,FEW 7   BKN 9   BKN 11,1,21,1,20,1016,ROYN 171200Z AUTO 05016KT 5000 BR FEW007 BKN009 BKN011 21/20     Q1016 RMK A3000=,BR
20180117_130000.002,0,ROYN,,,,1,20180117130000,-1,-1,-1,-1,60,-1,14,-1,-1,-1,-1,,9999,0,0,3,FEW 13   SCT 49   BKN 60,1,21,1,19,1016,ROYN 171300Z AUTO 06014KT 9999 FEW013 SCT049 BKN060 21/19     Q1016 RMK A3001=,
20180117_140000.002,0,ROYN,,,,1,20180117140000,-1,-1,-1,-1,60,-1,14,-1,-1,-1,-1,,9999,0,0,3,SCT 13   BKN 39   OVC 42,1,21,1,19,1016,ROYN 171400Z AUTO 06014KT 9999 SCT013 BKN039 OVC042 21/19     Q1016 RMK A3001=,
20180117_150000.002,0,ROYN,,,,1,20180117150000,-1,-1,-1,-1,60,-1,17,-1,-1,-1,-1,,9999,0,0,3,FEW 11   SCT 25   BKN 33,1,21,1,19,1016,ROYN 171500Z AUTO 06017KT 9999 FEW011 SCT025 BKN033 21/19     Q1016 RMK A3000=,
20180117_160000.002,0,ROYN,,,,1,20180117160000,-1,-1,-1,-1,60,-1,16,-1,-1,-1,-1,,6000,0,0,3,FEW 5   BKN 10   BKN 11,1,21,1,20,1015,ROYN 171600Z AUTO 06016KT 6000 FEW005 BKN010 BKN011 21/20     Q1015 RMK A3000=,
20180117_170000.002,0,ROYN,,,,1,20180117170000,-1,-1,-1,-1,60,-1,16,-1,-1,-1,-1,,9999,0,0,2,BKN 11   OVC 22,1,21,1,20,1015,ROYN 171700Z AUTO 06016KT 9999 BKN011 OVC022 21/20 Q1015 RMK     A3000=,
20180117_180000.002,0,ROYN,,,,1,20180117180000,-1,-1,-1,-1,60,-1,14,-1,-1,-1,-1,,9999,0,0,2,BKN 12   OVC 20,1,21,1,20,1015,ROYN 171800Z AUTO 06014KT 9999 BKN012 OVC020 21/20 Q1015 RMK     A2999=,
20180117_190000.003,0,ROYN,,,,1,20180117190000,-1,-1,-1,-1,50,-1,15,-1,-1,-1,-1,,9999,0,0,3,SCT 12   BKN 17   BKN 23,1,21,1,20,1015,ROYN 171900Z AUTO 05015KT 9999 SCT012 BKN017 BKN023 21/20     Q1015 RMK A2999=,
20180117_200000.002,0,ROYN,,,,1,20180117200000,-1,-1,-1,-1,70,-1,14,-1,-1,-1,-1,,9999,0,0,3,SCT 13   SCT 20   OVC 25,1,21,1,20,1015,ROYN 172000Z AUTO 07014KT 9999 SCT013 SCT020 OVC025 21/20     Q1015 RMK A2999=,
20180117_210000.002,0,ROYN,,,,1,20180117210000,-1,-1,-1,-1,70,-1,15,-1,-1,-1,-1,,9999,0,0,2,SCT 6   OVC 12,1,21,1,20,1015,ROYN 172100Z AUTO 07015KT 9999 SCT006 OVC012 21/20 Q1015 RMK     A3000=,
20180117_220000.003,0,ROYN,,,,1,20180117220000,-1,-1,-1,-1,80,-1,14,-1,-1,-1,-1,,9999,0,0,3,FEW 6   BKN 10   BKN 13,1,21,1,20,1016,ROYN 172200Z AUTO 08014KT 9999 FEW006 BKN010 BKN013 21/20     Q1016 RMK A3002=,
20180117_230000.002,0,ROYN,,,,1,20180117230000,-1,-1,-1,-1,80,-1,13,-1,-1,-1,-1,,9000,0,0,3,BKN 10   BKN 13   BKN 16,1,21,1,20,1017,ROYN 172300Z AUTO 08013KT 9000 BKN010 BKN013 BKN016 21/20     Q1017 RMK A3003=,
20180118_000000.002,0,ROYN,,,,1,20180118000000,-1,-1,-1,-1,60,-1,15,-1,-1,-1,-1,,9999,0,0,3,BKN 10   BKN 13   OVC 25,1,22,1,20,1017,ROYN 180000Z AUTO 06015KT 9999 BKN010 BKN013 OVC025 22/20     Q1017 RMK A3006=,
20180118_010000.002,0,ROYN,,,,1,20180118010000,-1,-1,-1,-1,60,-1,16,-1,-1,-1,-1,,2500,0,1,3,FEW 9   BKN 10   BKN 13,1,21,1,20,1018,ROYN 180100Z AUTO 06016KT 2500 BR FEW009 BKN010 BKN013 21/20     Q1018 RMK A3007=,BR
20180118_020000.002,0,ROYN,,,,1,20180118020000,-1,-1,-1,-1,60,-1,14,-1,-1,-1,-1,,9000,0,0,3,FEW 9   BKN 10   BKN 17,1,22,1,21,1018,ROYN 180200Z AUTO 06014KT 9000 FEW009 BKN010 BKN017 22/21     Q1018 RMK A3007=,
20180118_030000.003,0,ROYN,,,,1,20180118030000,-1,-1,-1,-1,70,-1,13,-1,-1,-1,-1,,9999,0,0,1,OVC 10,1,22,1,21,1017,ROYN 180300Z AUTO 07013KT 9999 OVC010 22/21 Q1017 RMK A3005=,
20180118_040000.002,0,ROYN,,,,1,20180118040000,-1,-1,-1,-1,70,-1,13,-1,-1,-1,-1,,6000,0,0,3,FEW 7   SCT 9   BKN 10,1,22,1,21,1016,ROYN 180400Z AUTO 07013KT 6000 FEW007 SCT009 BKN010 22/21     Q1016 RMK A3003=,
20180118_050000.002,0,ROYN,,,,1,20180118050000,-1,-1,-1,-1,60,-1,14,-1,-1,-1,-1,,9999,0,0,3,FEW 9   BKN 10   OVC 14,1,22,1,21,1016,ROYN 180500Z AUTO 06014KT 9999 FEW009 BKN010 OVC014 22/21     Q1016 RMK A3000=,
20180118_060000.002,0,ROYN,,,,1,20180118060000,-1,-1,-1,-1,60,-1,13,-1,-1,-1,-1,,9999,0,0,2,BKN 7   OVC 30,1,22,1,21,1015,ROYN 180600Z AUTO 06013KT 9999 BKN007 OVC030 22/21 Q1015 RMK     A2999=,
20180118_070000.002,0,ROYN,,,,1,20180118070000,-1,-1,-1,-1,70,-1,10,-1,-1,-1,-1,,9999,0,0,3,FEW 6   SCT 9   BKN 10,1,22,1,21,1015,ROYN 180700Z AUTO 07010KT 9999 FEW006 SCT009 BKN010 22/21     Q1015 RMK A2998=,
20180118_080000.002,0,ROYN,,,,1,20180118080000,-1,-1,-1,-1,120,-1,8,-1,-1,-1,-1,,6000,0,0,3,SCT 5   BKN 9   BKN 11,1,22,1,21,1015,ROYN 180800Z AUTO 12008KT 6000 SCT005 BKN009 BKN011 22/21     Q1015 RMK A3000=,
20180118_090000.002,0,ROYN,,,,1,20180118090000,-1,-1,-1,-1,150,-1,5,-1,-1,-1,-1,,1600,0,2,3,FEW 4   SCT 6   BKN 22,1,21,1,21,1016,ROYN 180900Z AUTO 15005KT 1600 -RA BR FEW004 SCT006 BKN022     21/21 Q1016 RMK A3001=,- RA; BR
20180118_100000.002,0,ROYN,,,,1,20180118100000,-1,-1,-1,-1,999,-1,1,-1,-1,-1,-1,,7000,0,0,3,FEW 10   SCT 26   BKN 27,1,21,1,21,1016,ROYN 181000Z AUTO VRB01KT 7000 FEW010 SCT026 BKN027 21/21     Q1016 RMK A3002=,
20180118_110000.002,0,ROYN,,,,1,20180118110000,-1,-1,-1,-1,110,-1,3,-1,-1,50,130,,9999,0,0,3,FEW 32   BKN 38   OVC 45,1,21,1,20,1016,ROYN 181100Z AUTO 11003KT 050V130 9999 FEW032 BKN038 OVC045     21/20 Q1016 RMK A3003=,
20180118_120000.002,0,ROYN,,,,1,20180118120000,-1,-1,-1,-1,100,-1,5,-1,-1,-1,-1,,9999,0,0,2,BKN 43   OVC 48,1,21,1,21,1017,ROYN 181200Z AUTO 10005KT 9999 BKN043 OVC048 21/21 Q1017 RMK     A3004=,
20180118_130000.002,0,ROYN,,,,1,20180118130000,-1,-1,-1,-1,100,-1,4,-1,-1,-1,-1,,9999,0,0,1,OVC 45,1,21,1,21,1017,ROYN 181300Z AUTO 10004KT 9999 OVC045 21/21 Q1017 RMK A3004=,
20180118_140000.002,0,ROYN,,,,1,20180118140000,-1,-1,-1,-1,100,-1,8,-1,-1,-1,-1,,9999,0,0,3,FEW 27   SCT 34   OVC 49,1,21,1,21,1017,ROYN 181400Z AUTO 10008KT 9999 FEW027 SCT034 OVC049 21/21     Q1017 RMK A3005=,
20180118_150000.002,0,ROYN,,,,1,20180118150000,-1,-1,-1,-1,100,-1,7,-1,-1,-1,-1,,9999,0,0,1,NSC -1,1,22,1,21,1017,ROYN 181500Z AUTO 10007KT 9999 NSC 22/21 Q1017 RMK A3004=,
20180118_160000.002,0,ROYN,,,,1,20180118160000,-1,-1,-1,-1,100,-1,7,-1,-1,-1,-1,,9999,0,0,3,FEW 23   BKN 28   BKN 34,1,22,1,21,1017,ROYN 181600Z AUTO 10007KT 9999 FEW023 BKN028 BKN034 22/21     Q1017 RMK A3005=,
20180118_170000.002,0,ROYN,,,,1,20180118170000,-1,-1,-1,-1,100,-1,7,-1,-1,-1,-1,,9999,0,0,1,NSC -1,1,22,1,21,1017,ROYN 181700Z AUTO 10007KT 9999 NSC 22/21 Q1017 RMK A3004=,
20180118_180000.002,0,ROYN,,,,1,20180118180000,-1,-1,-1,-1,90,-1,6,-1,-1,-1,-1,,9999,0,0,3,FEW 8   SCT 10   BKN 70,1,22,1,21,1016,ROYN 181800Z AUTO 09006KT 9999 FEW008 SCT010 BKN070 22/21     Q1016 RMK A3003=,
20180118_190000.002,0,ROYN,,,,1,20180118190000,-1,-1,-1,-1,120,-1,6,-1,-1,-1,-1,,9999,0,1,3,FEW 8   SCT 10   BKN 17,1,22,1,21,1016,ROYN 181900Z AUTO 12006KT 9999 -RA FEW008 SCT010 BKN017 22/21     Q1016 RMK A3001=,- RA
20180118_200000.002,0,ROYN,,,,1,20180118200000,-1,-1,-1,-1,120,-1,5,-1,-1,-1,-1,,9999,0,0,4,FEW 7   SCT 10   BKN 13   /// -9999 TCU,1,22,1,21,1016,ROYN 182000Z AUTO 12005KT 9999 FEW007 SCT010 BKN013 //////TCU     22/21 Q1016 RMK A3001 TCU 40KM W MOV UNKNOWN=,
20180118_210000.003,0,ROYN,,,,1,20180118210000,-1,-1,-1,-1,999,-1,2,-1,-1,-1,-1,,9999,0,0,4,FEW 8   SCT 10   BKN 36   /// -9999 TCU,1,22,1,21,1016,ROYN 182100Z AUTO VRB02KT 9999 FEW008 SCT010 BKN036 //////TCU     22/21 Q1016 RMK A3002 TCU 30KM W-NW MOV UNKNOWN=,
20180118_220000.002,0,ROYN,,,,1,20180118220000,-1,-1,-1,-1,120,-1,3,-1,-1,-1,-1,,9999,0,0,4,FEW 8   SCT 29   OVC 70   /// -9999 TCU,1,22,1,21,1017,ROYN 182200Z AUTO 12003KT 9999 FEW008 SCT029 OVC070 //////TCU     22/21 Q1017 RMK A3003 TCU 15KM SW-NW MOV UNKNOWN=,
20180118_230000.003,0,ROYN,,,,1,20180118230000,-1,-1,-1,-1,150,-1,2,-1,-1,-1,-1,,4900,0,2,4,FEW 30   SCT 50   BKN 60   /// -9999 TCU,1,22,1,22,1017,ROYN 182300Z AUTO 15002KT 4900 -RA BR FEW030 SCT050 BKN060     //////TCU 22/22 Q1017 RMK A3004 TCU OHD AND 30KM N MOV           UNKNOWN=,- RA; BR
20180119_000000.002,0,ROYN,,,,1,20180119000000,-1,-1,-1,-1,330,-1,8,-1,-1,-1,-1,,9000,0,1,4,FEW 2   BKN 4   OVC 14   /// -9999 TCU,1,22,1,21,1018,ROYN 190000Z AUTO 33008KT 9000 -RA FEW002 BKN004 OVC014     //////TCU 22/21 Q1018 RMK A3006 TCU OHD MOV NE=,- RA
20180119_010000.003,0,ROYN,,,,1,20180119010000,-1,-1,-1,-1,10,-1,20,-1,-1,-1,-1,,9999,0,0,3,FEW 6   SCT 9   BKN 11,1,22,1,21,1018,ROYN 190100Z AUTO 01020KT 9999 FEW006 SCT009 BKN011 22/21     Q1018 RMK A3009=,
20180119_020000.002,0,ROYN,,,,1,20180119020000,-1,-1,-1,-1,20,-1,21,-1,-1,-1,-1,,9000,0,0,3,SCT 7   BKN 9   OVC 19,1,21,1,20,1019,ROYN 190200Z AUTO 02021KT 9000 SCT007 BKN009 OVC019 21/20     Q1019 RMK A3010=,
20180119_030000.002,0,ROYN,,,,1,20180119030000,-1,-1,-1,-1,20,-1,21,-1,-1,-1,-1,,9999,0,0,3,SCT 8   BKN 10   OVC 60,1,22,1,20,1018,ROYN 190300Z AUTO 02021KT 9999 SCT008 BKN010 OVC060 22/20     Q1018 RMK A3008=,
20180119_040000.002,0,ROYN,,,,1,20180119040000,-1,-1,-1,-1,30,-1,21,-1,-1,-1,-1,,8000,0,0,2,BKN 10   OVC 27,1,21,1,20,1018,ROYN 190400Z AUTO 03021KT 8000 BKN010 OVC027 21/20 Q1018 RMK     A3006=,
20180119_050000.003,0,ROYN,,,,1,20180119050000,-1,-1,-1,-1,20,-1,21,-1,-1,-1,-1,,8000,0,0,3,SCT 9   BKN 12   BKN 15,1,21,1,20,1017,ROYN 190500Z AUTO 02021KT 8000 SCT009 BKN012 BKN015 21/20     Q1017 RMK A3004=,
20180119_060000.002,0,ROYN,,,,1,20180119060000,-1,-1,-1,-1,30,-1,20,-1,-1,-1,-1,,9999,0,0,3,BKN 11   BKN 28   OVC 31,1,22,1,19,1016,ROYN 190600Z AUTO 03020KT 9999 BKN011 BKN028 OVC031 22/19     Q1016 RMK A3002=,
20180119_070000.002,0,ROYN,,,,1,20180119070000,-1,-1,-1,-1,30,-1,19,-1,-1,-1,-1,,9999,0,0,3,SCT 12   BKN 17   BKN 21,1,22,1,20,1016,ROYN 190700Z AUTO 03019KT 9999 SCT012 BKN017 BKN021 22/20     Q1016 RMK A3001=,
20180119_080000.002,0,ROYN,,,,1,20180119080000,-1,-1,-1,-1,30,-1,20,-1,-1,-1,-1,,9999,0,0,3,FEW 15   BKN 28   OVC 80,1,22,1,19,1016,ROYN 190800Z AUTO 03020KT 9999 FEW015 BKN028 OVC080 22/19     Q1016 RMK A3001=,
20180119_090000.003,0,ROYN,,,,1,20180119090000,-1,-1,-1,-1,40,-1,19,-1,-1,-1,-1,,9999,0,0,3,FEW 15   SCT 28   BKN 80,1,22,1,19,1016,ROYN 190900Z AUTO 04019KT 9999 FEW015 SCT028 BKN080 22/19     Q1016 RMK A3003=,
20180119_100000.002,0,ROYN,,,,1,20180119100000,-1,-1,-1,-1,30,-1,17,-1,-1,-1,-1,,9999,0,0,3,SCT 14   BKN 20   BKN 35,1,22,1,19,1017,ROYN 191000Z AUTO 03017KT 9999 SCT014 BKN020 BKN035 22/19     Q1017 RMK A3004=,
20180119_110000.002,0,ROYN,,,,1,20180119110000,-1,-1,-1,-1,30,-1,17,-1,-1,-1,-1,,9999,0,0,3,BKN 14   BKN 32   OVC 80,1,22,1,19,1017,ROYN 191100Z AUTO 03017KT 9999 BKN014 BKN032 OVC080 22/19     Q1017 RMK A3005=,
20180119_120000.003,0,ROYN,,,,1,20180119120000,-1,-1,-1,-1,30,-1,15,-1,-1,-1,-1,,9999,0,0,3,FEW 15   SCT 37   OVC 60,1,22,1,19,1017,ROYN 191200Z AUTO 03015KT 9999 FEW015 SCT037 OVC060 22/19     Q1017 RMK A3006=,
20180119_130000.002,0,ROYN,,,,1,20180119130000,-1,-1,-1,-1,40,-1,14,-1,-1,-1,-1,,9999,0,1,3,SCT 16   BKN 60   OVC 150,1,22,1,19,1017,ROYN 191300Z AUTO 04014KT 9999 -RA SCT016 BKN060 OVC150 22/19     Q1017 RMK A3005=,- RA
20180119_140000.002,0,ROYN,,,,1,20180119140000,-1,-1,-1,-1,50,-1,12,-1,-1,-1,-1,,9999,0,0,2,SCT 17   OVC 60,1,22,1,19,1017,ROYN 191400Z AUTO 05012KT 9999 SCT017 OVC060 22/19 Q1017 RMK     A3005=,
20180119_150000.002,0,ROYN,,,,1,20180119150000,-1,-1,-1,-1,40,-1,13,-1,-1,-1,-1,,9999,0,0,3,SCT 15   SCT 26   BKN 31,1,22,1,19,1017,ROYN 191500Z AUTO 04013KT 9999 SCT015 SCT026 BKN031 22/19     Q1017 RMK A3005=,
20180119_160000.002,0,ROYN,,,,1,20180119160000,-1,-1,-1,-1,40,-1,15,-1,-1,-1,-1,,9999,0,0,3,SCT 15   SCT 19   BKN 34,1,22,1,19,1017,ROYN 191600Z AUTO 04015KT 9999 SCT015 SCT019 BKN034 22/19     Q1017 RMK A3004=,
20180119_170000.002,0,ROYN,,,,1,20180119170000,-1,-1,-1,-1,330,-1,9,-1,-1,-1,-1,,1200,0,2,3,SCT 12   SCT 17   BKN 21,1,21,1,19,1017,ROYN 191700Z AUTO 33009KT 1200 -RA BR SCT012 SCT017 BKN021     21/19 Q1017 RMK A3004=,- RA; BR
20180119_180000.003,0,ROYN,,,,1,20180119180000,-1,-1,-1,-1,30,-1,18,-1,-1,-1,-1,,9000,0,0,3,BKN 13   BKN 21   OVC 50,1,21,1,19,1016,ROYN 191800Z AUTO 03018KT 9000 BKN013 BKN021 OVC050 21/19     Q1016 RMK A3002=,
20180119_190000.003,0,ROYN,,,,1,20180119190000,-1,-1,-1,-1,20,-1,20,-1,-1,-1,-1,,8000,0,0,3,SCT 13   BKN 17   BKN 36,1,21,1,19,1016,ROYN 191900Z AUTO 02020KT 8000 SCT013 BKN017 BKN036 21/19     Q1016 RMK A3000=,
20180119_200000.002,0,ROYN,,,,1,20180119200000,-1,-1,-1,-1,30,-1,22,-1,-1,-1,-1,,5000,0,1,3,FEW 7   SCT 9   BKN 10,1,20,1,19,1015,ROYN 192000Z AUTO 03022KT 5000 BR FEW007 SCT009 BKN010 20/19     Q1015 RMK A3000=,BR
20180119_210000.002,0,ROYN,,,,1,20180119210000,-1,-1,-1,-1,30,-1,20,-1,-1,-1,-1,,7000,0,0,3,FEW 9   SCT 11   OVC 22,1,20,1,19,1016,ROYN 192100Z AUTO 03020KT 7000 FEW009 SCT011 OVC022 20/19     Q1016 RMK A3001=,
20180119_220000.002,0,ROYN,,,,1,20180119220000,-1,-1,-1,-1,40,-1,21,-1,-1,-1,-1,,7000,0,0,2,BKN 12   OVC 20,1,21,1,19,1017,ROYN 192200Z AUTO 04021KT 7000 BKN012 OVC020 21/19 Q1017 RMK     A3003=,
20180119_230000.002,0,ROYN,,,,1,20180119230000,-1,-1,-1,-1,30,-1,21,-1,-1,-1,-1,,5000,0,1,2,SCT 13   OVC 22,1,20,1,19,1017,ROYN 192300Z AUTO 03021KT 5000 BR SCT013 OVC022 20/19 Q1017     RMK A3005=,BR
20180120_000000.002,0,ROYN,,,,1,20180120000000,-1,-1,-1,-1,30,-1,22,-1,-1,-1,-1,,2400,0,1,3,FEW 7   SCT 9   BKN 12,1,20,1,19,1018,ROYN 200000Z AUTO 03022KT 2400 BR FEW007 SCT009 BKN012 20/19     Q1018 RMK A3008=,BR
20180120_010000.002,0,ROYN,,,,1,20180120010000,-1,-1,-1,-1,20,-1,20,-1,-1,-1,-1,,3500,0,1,1,OVC 10,1,20,1,19,1018,ROYN 200100Z AUTO 02020KT 3500 BR OVC010 20/19 Q1018 RMK     A3008=,BR
20180120_020000.003,0,ROYN,,,,1,20180120020000,-1,-1,-1,-1,30,-1,17,-1,-1,-1,-1,,9999,0,0,2,BKN 13   OVC 22,1,20,1,18,1018,ROYN 200200Z AUTO 03017KT 9999 BKN013 OVC022 20/18 Q1018 RMK     A3008=,
20180120_030000.002,0,ROYN,,,,1,20180120030000,-1,-1,-1,-1,40,-1,19,-1,-1,-1,-1,,7000,0,0,2,BKN 15   OVC 24,1,21,1,19,1017,ROYN 200300Z AUTO 04019KT 7000 BKN015 OVC024 21/19 Q1017 RMK     A3005=,
20180120_040000.002,0,ROYN,,,,1,20180120040000,-1,-1,-1,-1,50,-1,15,-1,-1,-1,-1,,6000,0,0,3,BKN 10   BKN 23   OVC 27,1,21,1,19,1016,ROYN 200400Z AUTO 05015KT 6000 BKN010 BKN023 OVC027 21/19     Q1016 RMK A3001=,
20180120_050000.002,0,ROYN,,,,1,20180120050000,-1,-1,-1,-1,60,-1,12,-1,-1,-1,-1,,9999,0,0,2,BKN 11   OVC 80,1,22,1,19,1015,ROYN 200500Z AUTO 06012KT 9999 BKN011 OVC080 22/19 Q1015 RMK     A2998=,
20180120_060000.002,0,ROYN,,,,1,20180120060000,-1,-1,-1,-1,60,-1,14,-1,-1,-1,-1,,9999,0,0,3,BKN 14   BKN 21   OVC 23,1,22,1,19,1014,ROYN 200600Z AUTO 06014KT 9999 BKN014 BKN021 OVC023 22/19     Q1014 RMK A2997=,
20180120_070000.002,0,ROYN,,,,1,20180120070000,-1,-1,-1,-1,60,-1,13,-1,-1,-1,-1,,9999,0,0,3,SCT 15   BKN 21   BKN 28,1,22,1,18,1014,ROYN 200700Z AUTO 06013KT 9999 SCT015 BKN021 BKN028 22/18     Q1014 RMK A2997=,
20180120_080000.002,0,ROYN,,,,1,20180120080000,-1,-1,-1,-1,60,-1,13,-1,-1,-1,-1,,9999,0,0,2,BKN 16   BKN 27,1,22,1,18,1015,ROYN 200800Z AUTO 06013KT 9999 BKN016 BKN027 22/18 Q1015 RMK     A2997=,
20180120_090000.002,0,ROYN,,,,1,20180120090000,-1,-1,-1,-1,60,-1,14,-1,-1,-1,-1,,9999,0,0,3,SCT 13   BKN 19   BKN 44,1,21,1,19,1015,ROYN 200900Z AUTO 06014KT 9999 SCT013 BKN019 BKN044 21/19     Q1015 RMK A2999=,
20180120_100000.002,0,ROYN,,,,1,20180120100000,-1,-1,-1,-1,60,-1,15,-1,-1,-1,-1,,9999,0,0,3,FEW 8   SCT 21   BKN 34,1,20,1,19,1016,ROYN 201000Z AUTO 06015KT 9999 FEW008 SCT021 BKN034 20/19     Q1016 RMK A3001=,
20180120_110000.002,0,ROYN,,,,1,20180120110000,-1,-1,-1,-1,50,-1,16,-1,-1,-1,-1,,9000,0,0,3,BKN 11   BKN 25   BKN 32,1,21,1,19,1016,ROYN 201100Z AUTO 05016KT 9000 BKN011 BKN025 BKN032 21/19     Q1016 RMK A3002=,
20180120_120000.002,0,ROYN,,,,1,20180120120000,-1,-1,-1,-1,60,-1,16,-1,-1,-1,-1,,9999,0,0,3,FEW 12   SCT 14   BKN 15,1,21,1,19,1016,ROYN 201200Z AUTO 06016KT 9999 FEW012 SCT014 BKN015 21/19     Q1016 RMK A3003=,
20180120_130000.002,0,ROYN,,,,1,20180120130000,-1,-1,-1,-1,60,-1,16,-1,-1,-1,-1,,9000,0,0,3,BKN 11   BKN 25   OVC 80,1,21,1,19,1016,ROYN 201300Z AUTO 06016KT 9000 BKN011 BKN025 OVC080 21/19     Q1016 RMK A3003=,
20180120_140000.002,0,ROYN,,,,1,20180120140000,-1,-1,-1,-1,50,-1,16,-1,-1,-1,-1,,9999,0,0,3,SCT 11   SCT 15   BKN 20,1,21,1,19,1017,ROYN 201400Z AUTO 05016KT 9999 SCT011 SCT015 BKN020 21/19     Q1017 RMK A3003=,
20180120_150000.002,0,ROYN,,,,1,20180120150000,-1,-1,-1,-1,50,-1,16,-1,-1,-1,-1,,8000,0,0,3,BKN 11   BKN 21   BKN 36,1,21,1,19,1016,ROYN 201500Z AUTO 05016KT 8000 BKN011 BKN021 BKN036 21/19     Q1016 RMK A3003=,
20180120_160000.002,0,ROYN,,,,1,20180120160000,-1,-1,-1,-1,60,-1,14,-1,-1,-1,-1,,9999,0,0,3,SCT 11   SCT 19   OVC 43,1,21,1,19,1016,ROYN 201600Z AUTO 06014KT 9999 SCT011 SCT019 OVC043 21/19     Q1016 RMK A3001=,
20180120_170000.002,0,ROYN,,,,1,20180120170000,-1,-1,-1,-1,60,-1,18,-1,-1,-1,-1,,9000,0,0,3,BKN 13   BKN 26   OVC 50,1,21,1,19,1016,ROYN 201700Z AUTO 06018KT 9000 BKN013 BKN026 OVC050 21/19     Q1016 RMK A3000=,
20180120_180000.002,0,ROYN,,,,1,20180120180000,-1,-1,-1,-1,70,-1,13,-1,-1,-1,-1,,9999,0,0,2,BKN 19   OVC 80,1,21,1,18,1015,ROYN 201800Z AUTO 07013KT 9999 BKN019 OVC080 21/18 Q1015 RMK     A2999=,
20180120_190000.003,0,ROYN,,,,1,20180120190000,-1,-1,-1,-1,70,-1,13,-1,-1,-1,-1,,9999,0,0,2,SCT 22   OVC 50,1,21,1,18,1015,ROYN 201900Z AUTO 07013KT 9999 SCT022 OVC050 21/18 Q1015 RMK     A2998=,
20180120_200000.002,0,ROYN,,,,1,20180120200000,-1,-1,-1,-1,70,-1,14,-1,-1,-1,-1,,9999,0,0,2,FEW 22   OVC 50,1,21,1,17,1015,ROYN 202000Z AUTO 07014KT 9999 FEW022 OVC050 21/17 Q1015 RMK     A2997=,
20180120_210000.002,0,ROYN,,,,1,20180120210000,-1,-1,-1,-1,70,-1,14,-1,-1,-1,-1,,9999,0,0,3,FEW 17   BKN 22   OVC 48,1,21,1,17,1015,ROYN 202100Z AUTO 07014KT 9999 FEW017 BKN022 OVC048 21/17     Q1015 RMK A2998=,
20180120_220000.002,0,ROYN,,,,1,20180120220000,-1,-1,-1,-1,50,-1,18,-1,-1,-1,-1,,8000,0,0,3,FEW 13   SCT 16   BKN 26,1,22,1,19,1015,ROYN 202200Z AUTO 05018KT 8000 FEW013 SCT016 BKN026 22/19     Q1015 RMK A2999=,
20180120_230000.002,0,ROYN,,,,1,20180120230000,-1,-1,-1,-1,60,-1,18,-1,-1,-1,-1,,9999,0,0,3,BKN 13   BKN 17   OVC 80,1,21,1,19,1016,ROYN 202300Z AUTO 06018KT 9999 BKN013 BKN017 OVC080 21/19     Q1016 RMK A3000=,
20180121_000000.002,0,ROYN,,,,1,20180121000000,-1,-1,-1,-1,50,-1,18,-1,-1,-1,-1,,7000,0,0,3,SCT 13   BKN 26   BKN 34,1,22,1,19,1016,ROYN 210000Z AUTO 05018KT 7000 SCT013 BKN026 BKN034 22/19     Q1016 RMK A3002=,
20180121_010000.002,0,ROYN,,,,1,20180121010000,-1,-1,-1,-1,70,-1,15,-1,-1,-1,-1,,9999,0,0,3,FEW 13   SCT 36   OVC 80,1,22,1,19,1017,ROYN 210100Z AUTO 07015KT 9999 FEW013 SCT036 OVC080 22/19     Q1017 RMK A3003=,
20180121_020000.002,0,ROYN,,,,1,20180121020000,-1,-1,-1,-1,60,-1,17,-1,-1,-1,-1,,9999,0,0,3,BKN 14   BKN 31   OVC 50,1,22,1,19,1016,ROYN 210200Z AUTO 06017KT 9999 BKN014 BKN031 OVC050 22/19     Q1016 RMK A3003=,
20180121_030000.002,0,ROYN,,,,1,20180121030000,-1,-1,-1,-1,60,-1,16,-1,-1,-1,-1,,9999,0,0,2,BKN 13   BKN 19,1,23,1,19,1016,ROYN 210300Z AUTO 06016KT 9999 BKN013 BKN019 23/19 Q1016 RMK     A3000=,
20180121_040000.003,0,ROYN,,,,1,20180121040000,-1,-1,-1,-1,70,-1,15,-1,-1,-1,-1,,9999,0,0,3,FEW 14   BKN 16   BKN 21,1,22,1,19,1015,ROYN 210400Z AUTO 07015KT 9999 FEW014 BKN016 BKN021 22/19     Q1015 RMK A2997=,
20180121_050000.002,0,ROYN,,,,1,20180121050000,-1,-1,-1,-1,80,-1,14,-1,-1,-1,-1,,9999,0,0,3,SCT 15   BKN 21   OVC 24,1,22,1,19,1013,ROYN 210500Z AUTO 08014KT 9999 SCT015 BKN021 OVC024 22/19     Q1013 RMK A2994=,
20180121_060000.002,0,ROYN,,,,1,20180121060000,-1,-1,-1,-1,80,-1,13,-1,-1,-1,-1,,9999,0,0,3,FEW 14   SCT 18   BKN 23,1,22,1,19,1013,ROYN 210600Z AUTO 08013KT 9999 FEW014 SCT018 BKN023 22/19     Q1013 RMK A2992=,
20180121_070000.002,0,ROYN,,,,1,20180121070000,-1,-1,-1,-1,100,-1,9,-1,-1,-1,-1,,9999,0,0,3,FEW 14   BKN 19   BKN 27,1,22,1,19,1013,ROYN 210700Z AUTO 10009KT 9999 FEW014 BKN019 BKN027 22/19     Q1013 RMK A2991=,
20180121_080000.002,0,ROYN,,,,1,20180121080000,-1,-1,-1,-1,120,-1,7,-1,-1,-1,-1,,9999,0,0,3,FEW 16   SCT 23   BKN 29,1,21,1,19,1013,ROYN 210800Z AUTO 12007KT 9999 FEW016 SCT023 BKN029 21/19     Q1013 RMK A2992=,
20180121_090000.002,0,ROYN,,,,1,20180121090000,-1,-1,-1,-1,120,-1,4,-1,-1,-1,-1,,9999,0,0,3,FEW 33   SCT 45   BKN 49,1,21,1,18,1013,ROYN 210900Z AUTO 12004KT 9999 FEW033 SCT045 BKN049 21/18     Q1013 RMK A2993=,
20180121_100000.002,0,ROYN,,,,1,20180121100000,-1,-1,-1,-1,100,-1,6,-1,-1,-1,-1,,9999,0,0,3,FEW 17   SCT 20   OVC 38,1,21,1,19,1013,ROYN 211000Z AUTO 10006KT 9999 FEW017 SCT020 OVC038 21/19     Q1013 RMK A2993=,
20180121_110000.002,0,ROYN,,,,1,20180121110000,-1,-1,-1,-1,130,-1,7,-1,-1,-1,-1,,6000,0,0,3,FEW 12   SCT 14   BKN 21,1,21,1,19,1013,ROYN 211100Z AUTO 13007KT 6000 FEW012 SCT014 BKN021 21/19     Q1013 RMK A2994=,
20180121_120000.002,0,ROYN,,,,1,20180121120000,-1,-1,-1,-1,110,-1,3,-1,-1,80,150,,9999,0,0,3,SCT 20   SCT 26   BKN 30,1,20,1,19,1013,ROYN 211200Z AUTO 11003KT 080V150 9999 SCT020 SCT026 BKN030     20/19 Q1013 RMK A2993=,
20180121_130000.003,0,ROYN,,,,1,20180121130000,-1,-1,-1,-1,120,-1,3,-1,-1,-1,-1,,9999,0,0,3,FEW 10   SCT 33   BKN 49,1,20,1,20,1013,ROYN 211300Z AUTO 12003KT 9999 FEW010 SCT033 BKN049 20/20     Q1013 RMK A2993=,
20180121_140000.002,0,ROYN,,,,1,20180121140000,-1,-1,-1,-1,999,-1,1,-1,-1,-1,-1,,9999,0,0,3,FEW 25   BKN 31   BKN 36,1,20,1,19,1013,ROYN 211400Z AUTO VRB01KT 9999 FEW025 BKN031 BKN036 20/19     Q1013 RMK A2992=,
20180121_150000.002,0,ROYN,,,,1,20180121150000,-1,-1,-1,-1,220,-1,2,-1,-1,-1,-1,,1300,0,2,2,BKN 7   OVC 13,1,20,1,19,1013,ROYN 211500Z AUTO 22002KT 1300 -RA BR BKN007 OVC013 20/19     Q1013 RMK A2991=,- RA; BR
20180121_160000.002,0,ROYN,,,,1,20180121160000,-1,-1,-1,-1,999,-1,1,-1,-1,-1,-1,,6000,0,0,3,BKN 3   BKN 19   OVC 20,1,20,1,20,1012,ROYN 211600Z AUTO VRB01KT 6000 BKN003 BKN019 OVC020 20/20     Q1012 RMK A2990=,
20180121_170000.002,0,ROYN,,,,1,20180121170000,-1,-1,-1,-1,999,-1,2,-1,-1,-1,-1,,7000,0,0,3,BKN 13   BKN 17   BKN 23,1,20,1,20,1011,ROYN 211700Z AUTO VRB02KT 7000 BKN013 BKN017 BKN023 20/20     Q1011 RMK A2988=,
20180121_180000.002,0,ROYN,,,,1,20180121180000,-1,-1,-1,-1,210,-1,2,-1,-1,-1,-1,,7000,0,0,3,FEW 3   BKN 12   OVC 33,1,20,1,20,1011,ROYN 211800Z AUTO 21002KT 7000 FEW003 BKN012 OVC033 20/20     Q1011 RMK A2988=,
20180121_190000.002,0,ROYN,,,,1,20180121190000,-1,-1,-1,-1,999,-1,1,-1,-1,-1,-1,,8000,0,0,1,OVC 24,1,20,1,20,1011,ROYN 211900Z AUTO VRB01KT 8000 OVC024 20/20 Q1011 RMK A2987=,
20180121_200000.002,0,ROYN,,,,1,20180121200000,-1,-1,-1,-1,340,-1,10,-1,-1,-1,-1,,5000,0,2,3,FEW 2   SCT 5   BKN 7,1,21,1,21,1011,ROYN 212000Z AUTO 34010KT 5000 -RA BR FEW002 SCT005 BKN007     21/21 Q1011 RMK A2987=,- RA; BR
20180121_210000.002,0,ROYN,,,,1,20180121210000,-1,-1,-1,-1,330,-1,17,-1,-1,-1,-1,,9999,0,0,3,FEW 8   SCT 13   OVC 20,1,22,1,21,1011,ROYN 212100Z AUTO 33017KT 9999 FEW008 SCT013 OVC020 22/21     Q1011 RMK A2988=,
20180121_220000.002,0,ROYN,,,,1,20180121220000,-1,-1,-1,-1,330,-1,22,-1,-1,-1,-1,,9999,0,0,2,BKN 10   OVC 46,1,21,1,20,1012,ROYN 212200Z AUTO 33022KT 9999 BKN010 OVC046 21/20 Q1012 RMK     A2991=,
20180121_230000.002,0,ROYN,,,,1,20180121230000,-1,-1,-1,-1,330,-1,24,-1,-1,-1,-1,,9999,0,0,3,BKN 14   BKN 21   OVC 50,1,21,1,19,1013,ROYN 212300Z AUTO 33024KT 9999 BKN014 BKN021 OVC050 21/19     Q1013 RMK A2993=,
20180122_000000.002,0,ROYN,,,,1,20180122000000,-1,-1,-1,-1,340,-1,28,-1,-1,-1,-1,,9999,0,0,3,SCT 14   BKN 18   OVC 70,1,21,1,19,1013,ROYN 220000Z AUTO 34028KT 9999 SCT014 BKN018 OVC070 21/19     Q1013 RMK A2994=,
20180122_010000.002,0,ROYN,,,,1,20180122010000,-1,-1,-1,-1,350,-1,27,-1,-1,-1,-1,,9999,0,0,3,SCT 15   SCT 30   OVC 36,1,22,1,19,1014,ROYN 220100Z AUTO 35027KT 9999 SCT015 SCT030 OVC036 22/19     Q1014 RMK A2995=,
20180122_020000.002,0,ROYN,,,,1,20180122020000,-1,-1,-1,-1,360,-1,27,-1,-1,-1,-1,,9999,0,0,3,BKN 16   BKN 27   BKN 31,1,21,1,18,1014,ROYN 220200Z AUTO 36027KT 9999 BKN016 BKN027 BKN031 21/18     Q1014 RMK A2996=,
20180122_030000.002,0,ROYN,,,,1,20180122030000,-1,-1,-1,-1,360,-1,25,-1,-1,-1,-1,,9999,0,0,2,BKN 17   OVC 29,1,21,1,18,1013,ROYN 220300Z AUTO 36025KT 9999 BKN017 OVC029 21/18 Q1013 RMK     A2994=,
20180122_040000.002,0,ROYN,,,,1,20180122040000,-1,-1,-1,-1,10,-1,23,-1,-1,-1,-1,,9999,0,0,3,SCT 19   BKN 23   BKN 26,1,20,1,16,1013,ROYN 220400Z AUTO 01023KT 9999 SCT019 BKN023 BKN026 20/16     Q1013 RMK A2992=,
20180122_050000.002,0,ROYN,,,,1,20180122050000,-1,-1,-1,-1,10,-1,22,-1,-1,-1,-1,,9999,0,0,3,FEW 20   SCT 25   BKN 100,1,20,1,16,1012,ROYN 220500Z AUTO 01022KT 9999 FEW020 SCT025 BKN100 20/16     Q1012 RMK A2990=,
20180122_060000.003,0,ROYN,,,,1,20180122060000,-1,-1,-1,-1,10,-1,21,-1,-1,-1,-1,,9999,0,0,2,FEW 21   BKN 25,1,20,1,15,1012,ROYN 220600Z AUTO 01021KT 9999 FEW021 BKN025 20/15 Q1012 RMK     A2990=,
20180122_070000.002,0,ROYN,,,,1,20180122070000,-1,-1,-1,-1,20,-1,21,-1,-1,-1,-1,,9999,0,0,2,SCT 23   OVC 32,1,20,1,15,1012,ROYN 220700Z AUTO 02021KT 9999 SCT023 OVC032 20/15 Q1012 RMK     A2990=,
20180122_080000.003,0,ROYN,,,,1,20180122080000,-1,-1,-1,-1,30,-1,22,-1,-1,-1,-1,,9999,0,0,3,SCT 26   BKN 31   BKN 35,1,20,1,15,1013,ROYN 220800Z AUTO 03022KT 9999 SCT026 BKN031 BKN035 20/15     Q1013 RMK A2992=,
20180122_090000.002,0,ROYN,,,,1,20180122090000,-1,-1,-1,-1,30,-1,23,-1,-1,-1,-1,,9999,0,0,3,FEW 25   SCT 29   BKN 32,1,20,1,14,1013,ROYN 220900Z AUTO 03023KT 9999 FEW025 SCT029 BKN032 20/14     Q1013 RMK A2994=,
20180122_100000.002,0,ROYN,,,,1,20180122100000,-1,-1,-1,-1,30,-1,24,-1,-1,-1,-1,,9999,0,0,3,SCT 27   SCT 33   BKN 35,1,20,1,15,1014,ROYN 221000Z AUTO 03024KT 9999 SCT027 SCT033 BKN035 20/15     Q1014 RMK A2997=,
20180122_110000.003,0,ROYN,,,,1,20180122110000,-1,-1,-1,-1,40,-1,22,-1,-1,-1,-1,,9999,0,0,3,SCT 29   BKN 44   OVC 60,1,19,1,14,1015,ROYN 221100Z AUTO 04022KT 9999 SCT029 BKN044 OVC060 19/14     Q1015 RMK A2999=,
20180122_120000.002,0,ROYN,,,,1,20180122120000,-1,-1,-1,-1,40,-1,22,-1,-1,-1,-1,,9999,0,0,2,FEW 29   OVC 60,1,19,1,14,1015,ROYN 221200Z AUTO 04022KT 9999 FEW029 OVC060 19/14 Q1015 RMK     A3000=,
20180122_130000.003,0,ROYN,,,,1,20180122130000,-1,-1,-1,-1,40,-1,21,-1,-1,-1,-1,,9999,0,0,3,FEW 29   SCT 33   BKN 46,1,19,1,14,1016,ROYN 221300Z AUTO 04021KT 9999 FEW029 SCT033 BKN046 19/14     Q1016 RMK A3002=,
20180122_140000.003,0,ROYN,,,,1,20180122140000,-1,-1,-1,-1,40,-1,19,-1,-1,-1,-1,,9999,0,0,3,SCT 33   SCT 34   BKN 39,1,19,1,13,1016,ROYN 221400Z AUTO 04019KT 9999 SCT033 SCT034 BKN039 19/13     Q1016 RMK A3002=,
20180122_150000.002,0,ROYN,,,,1,20180122150000,-1,-1,-1,-1,40,-1,20,-1,-1,-1,-1,,9999,0,0,3,FEW 31   BKN 42   OVC 50,1,19,1,13,1016,ROYN 221500Z AUTO 04020KT 9999 FEW031 BKN042 OVC050 19/13     Q1016 RMK A3002=,
20180122_160000.002,0,ROYN,,,,1,20180122160000,-1,-1,-1,-1,40,-1,20,-1,-1,-1,-1,,9999,0,0,3,FEW 28   SCT 36   BKN 39,1,19,1,13,1016,ROYN 221600Z AUTO 04020KT 9999 FEW028 SCT036 BKN039 19/13     Q1016 RMK A3002=,
20180122_170000.002,0,ROYN,,,,1,20180122170000,-1,-1,-1,-1,40,-1,18,-1,-1,-1,-1,,9999,0,0,3,FEW 30   BKN 38   BKN 41,1,19,1,14,1016,ROYN 221700Z AUTO 04018KT 9999 FEW030 BKN038 BKN041 19/14     Q1016 RMK A3001=,
20180122_180000.002,0,ROYN,,,,1,20180122180000,-1,-1,-1,-1,30,-1,17,-1,-1,-1,-1,,9999,0,0,3,FEW 27   BKN 29   BKN 34,1,19,1,14,1015,ROYN 221800Z AUTO 03017KT 9999 FEW027 BKN029 BKN034 19/14     Q1015 RMK A3000=,
20180122_190000.002,0,ROYN,,,,1,20180122190000,-1,-1,-1,-1,50,-1,15,-1,-1,-1,-1,,9999,0,0,3,BKN 28   BKN 32   OVC 36,1,19,1,14,1015,ROYN 221900Z AUTO 05015KT 9999 BKN028 BKN032 OVC036 19/14     Q1015 RMK A2999=,
20180122_200000.002,0,ROYN,,,,1,20180122200000,-1,-1,-1,-1,40,-1,16,-1,-1,-1,-1,,9999,0,0,2,BKN 27   OVC 33,1,19,1,14,1015,ROYN 222000Z AUTO 04016KT 9999 BKN027 OVC033 19/14 Q1015 RMK     A3000=,
20180122_210000.003,0,ROYN,,,,1,20180122210000,-1,-1,-1,-1,30,-1,18,-1,-1,-1,-1,,9999,0,0,2,SCT 26   OVC 35,1,20,1,15,1015,ROYN 222100Z AUTO 03018KT 9999 SCT026 OVC035 20/15 Q1015 RMK     A3000=,
20180122_220000.002,0,ROYN,,,,1,20180122220000,-1,-1,-1,-1,40,-1,17,-1,-1,-1,-1,,9999,0,0,3,SCT 26   BKN 33   BKN 36,1,20,1,15,1016,ROYN 222200Z AUTO 04017KT 9999 SCT026 BKN033 BKN036 20/15     Q1016 RMK A3001=,
20180122_230000.003,0,ROYN,,,,1,20180122230000,-1,-1,-1,-1,50,-1,14,-1,-1,-1,-1,,9999,0,0,3,FEW 26   BKN 30   BKN 33,1,20,1,14,1016,ROYN 222300Z AUTO 05014KT 9999 FEW026 BKN030 BKN033 20/14     Q1016 RMK A3002=,
20180123_000000.002,0,ROYN,,,,1,20180123000000,-1,-1,-1,-1,50,-1,14,-1,-1,-1,-1,,9999,0,0,3,SCT 25   BKN 27   BKN 36,1,20,1,15,1016,ROYN 230000Z AUTO 05014KT 9999 SCT025 BKN027 BKN036 20/15     Q1016 RMK A3003=,
20180123_010000.002,0,ROYN,,,,1,20180123010000,-1,-1,-1,-1,40,-1,15,-1,-1,-1,-1,,9999,0,0,1,FEW 25,1,21,1,16,1017,ROYN 230100Z AUTO 04015KT 9999 FEW025 21/16 Q1017 RMK A3003=,
20180123_020000.002,0,ROYN,,,,1,20180123020000,-1,-1,-1,-1,50,-1,14,-1,-1,-1,-1,,9999,0,0,1,FEW 25,1,22,1,16,1016,ROYN 230200Z AUTO 05014KT 9999 FEW025 22/16 Q1016 RMK A3002=,
20180123_030000.003,0,ROYN,,,,1,20180123030000,-1,-1,-1,-1,60,-1,13,-1,-1,-1,-1,,9999,0,0,2,FEW 22   SCT 27,1,22,1,16,1015,ROYN 230300Z AUTO 06013KT 9999 FEW022 SCT027 22/16 Q1015 RMK     A3000=,
20180123_040000.003,0,ROYN,,,,1,20180123040000,-1,-1,-1,-1,60,-1,13,-1,-1,-1,-1,,9999,0,0,2,FEW 23   SCT 25,1,22,1,16,1015,ROYN 230400Z AUTO 06013KT 9999 FEW023 SCT025 22/16 Q1015 RMK     A2997=,
20180123_050000.002,0,ROYN,,,,1,20180123050000,-1,-1,-1,-1,40,-1,12,-1,-1,-1,-1,,9999,0,0,3,SCT 25   SCT 32   BKN 35,1,22,1,16,1014,ROYN 230500Z AUTO 04012KT 9999 SCT025 SCT032 BKN035 22/16     Q1014 RMK A2995=,
20180123_060000.003,0,ROYN,,,,1,20180123060000,-1,-1,-1,-1,50,-1,12,-1,-1,-1,-1,,9999,0,0,2,FEW 25   SCT 28,1,23,1,16,1013,ROYN 230600Z AUTO 05012KT 9999 FEW025 SCT028 23/16 Q1013 RMK     A2994=,
20180123_070000.002,0,ROYN,,,,1,20180123070000,-1,-1,-1,-1,40,-1,14,-1,-1,-1,-1,,9999,0,0,2,FEW 25   BKN 40,1,22,1,16,1014,ROYN 230700Z AUTO 04014KT 9999 FEW025 BKN040 22/16 Q1014 RMK     A2995=,
20180123_080000.002,0,ROYN,,,,1,20180123080000,-1,-1,-1,-1,30,-1,19,-1,-1,-1,-1,,9999,0,0,3,FEW 20   SCT 25   BKN 48,1,21,1,17,1014,ROYN 230800Z AUTO 03019KT 9999 FEW020 SCT025 BKN048 21/17     Q1014 RMK A2996=,
20180123_090000.002,0,ROYN,,,,1,20180123090000,-1,-1,-1,-1,40,-1,20,-1,-1,-1,-1,,9999,0,0,3,FEW 21   SCT 26   BKN 36,1,21,1,16,1015,ROYN 230900Z AUTO 04020KT 9999 FEW021 SCT026 BKN036 21/16     Q1015 RMK A2998=,
20180123_100000.002,0,ROYN,,,,1,20180123100000,-1,-1,-1,-1,40,-1,20,-1,-1,-1,-1,,9999,0,0,3,SCT 21   SCT 31   BKN 37,1,21,1,17,1016,ROYN 231000Z AUTO 04020KT 9999 SCT021 SCT031 BKN037 21/17     Q1016 RMK A3000=,
20180123_110000.002,0,ROYN,,,,1,20180123110000,-1,-1,-1,-1,50,-1,22,-1,-1,-1,-1,,9999,0,0,3,SCT 22   BKN 26   BKN 36,1,20,1,16,1016,ROYN 231100Z AUTO 05022KT 9999 SCT022 BKN026 BKN036 20/16     Q1016 RMK A3001=,
20180123_120000.002,0,ROYN,,,,1,20180123120000,-1,-1,-1,-1,50,-1,22,-1,-1,-1,-1,,9000,0,0,3,SCT 21   BKN 29   BKN 30,1,20,1,16,1016,ROYN 231200Z AUTO 05022KT 9000 SCT021 BKN029 BKN030 20/16     Q1016 RMK A3002=,
20180123_130000.002,0,ROYN,,,,1,20180123130000,-1,-1,-1,-1,40,-1,25,-1,-1,-1,-1,,9000,0,0,3,SCT 19   BKN 21   BKN 27,1,20,1,17,1016,ROYN 231300Z AUTO 04025KT 9000 SCT019 BKN021 BKN027 20/17     Q1016 RMK A3003=,
20180123_140000.002,0,ROYN,,,,1,20180123140000,-1,-1,-1,-1,50,-1,23,-1,-1,-1,-1,,9000,0,0,3,BKN 19   BKN 36   OVC 44,1,20,1,16,1016,ROYN 231400Z AUTO 05023KT 9000 BKN019 BKN036 OVC044 20/16     Q1016 RMK A3002=,
20180123_150000.002,0,ROYN,,,,1,20180123150000,-1,-1,-1,-1,50,-1,21,-1,-1,-1,-1,,7000,0,0,3,BKN 19   BKN 23   BKN 50,1,20,1,16,1016,ROYN 231500Z AUTO 05021KT 7000 BKN019 BKN023 BKN050 20/16     Q1016 RMK A3002=,
20180123_160000.002,0,ROYN,,,,1,20180123160000,-1,-1,-1,-1,50,-1,23,-1,-1,-1,-1,,7000,0,0,2,BKN 19   OVC 60,1,20,1,16,1016,ROYN 231600Z AUTO 05023KT 7000 BKN019 OVC060 20/16 Q1016 RMK     A3001=,
20180123_170000.002,0,ROYN,,,,1,20180123170000,-1,-1,-1,-1,50,-1,23,-1,-1,-1,-1,,7000,0,0,3,BKN 19   BKN 23   BKN 25,1,20,1,16,1016,ROYN 231700Z AUTO 05023KT 7000 BKN019 BKN023 BKN025 20/16     Q1016 RMK A3000=,
20180123_180000.002,0,ROYN,,,,1,20180123180000,-1,-1,-1,-1,40,-1,23,-1,-1,-1,-1,,5000,0,2,2,BKN 20   OVC 27,1,20,1,16,1016,ROYN 231800Z AUTO 04023KT 5000 -RA BR BKN020 OVC027 20/16     Q1016 RMK A3000=,- RA; BR
20180123_190000.002,0,ROYN,,,,1,20180123190000,-1,-1,-1,-1,40,-1,23,-1,-1,-1,-1,,6000,0,0,4,BKN 18   BKN 26   OVC 29   /// -9999 TCU,1,19,1,17,1016,ROYN 231900Z AUTO 04023KT 6000 BKN018 BKN026 OVC029 //////TCU     19/17 Q1016 RMK A3000 TCU 20KM SW MOV UNKNOWN=,
20180123_200000.002,0,ROYN,,,,1,20180123200000,-1,-1,-1,-1,40,-1,25,-1,-1,-1,-1,,7000,0,0,4,SCT 21   BKN 29   BKN 34   /// -9999 TCU,1,20,1,16,1015,ROYN 232000Z AUTO 04025KT 7000 SCT021 BKN029 BKN034 //////TCU     20/16 Q1015 RMK A3000 TCU 15KM SE MOV SW=,
20180123_210000.002,0,ROYN,,,,1,20180123210000,-1,-1,-1,-1,30,-1,27,-1,-1,-1,-1,,7000,0,0,4,SCT 21   BKN 30   OVC 33   /// -9999 TCU,1,20,1,16,1016,ROYN 232100Z AUTO 03027KT 7000 SCT021 BKN030 OVC033 //////TCU     20/16 Q1016 RMK A3001 TCU 35KM S MOV SW=,
20180123_220000.002,0,ROYN,,,,1,20180123220000,-1,-1,-1,-1,20,-1,28,-1,-1,-1,-1,,6000,0,0,2,BKN 20   OVC 25,1,19,1,16,1017,ROYN 232200Z AUTO 02028KT 6000 BKN020 OVC025 19/16 Q1017 RMK     A3004=,
20180123_230000.002,0,ROYN,,,,1,20180123230000,-1,-1,-1,-1,30,-1,29,-1,-1,-1,-1,,8000,0,0,2,SCT 23   OVC 29,1,19,1,15,1017,ROYN 232300Z AUTO 03029KT 8000 SCT023 OVC029 19/15 Q1017 RMK     A3005=,
20180124_000000.002,0,ROYN,,,,1,20180124000000,-1,-1,-1,-1,30,-1,29,-1,-1,-1,-1,,8000,0,0,3,SCT 22   BKN 27   OVC 29,1,19,1,15,1018,ROYN 240000Z AUTO 03029KT 8000 SCT022 BKN027 OVC029 19/15     Q1018 RMK A3007=,
20180124_010000.003,0,ROYN,,,,1,20180124010000,-1,-1,-1,-1,40,-1,27,-1,-1,-1,-1,,7000,0,0,3,SCT 21   BKN 27   BKN 33,1,19,1,15,1018,ROYN 240100Z AUTO 04027KT 7000 SCT021 BKN027 BKN033 19/15     Q1018 RMK A3009=,
20180124_020000.002,0,ROYN,,,,1,20180124020000,-1,-1,-1,-1,40,-1,25,-1,-1,-1,-1,,7000,0,0,2,SCT 21   OVC 27,1,19,1,15,1018,ROYN 240200Z AUTO 04025KT 7000 SCT021 OVC027 19/15 Q1018 RMK     A3009=,
20180124_030000.002,0,ROYN,,,,1,20180124030000,-1,-1,-1,-1,40,-1,25,-1,-1,-1,-1,,9000,0,0,2,SCT 22   OVC 26,1,19,1,15,1018,ROYN 240300Z AUTO 04025KT 9000 SCT022 OVC026 19/15 Q1018 RMK     A3006=,
20180124_040000.002,0,ROYN,,,,1,20180124040000,-1,-1,-1,-1,40,-1,23,-1,-1,-1,-1,,7000,0,0,2,SCT 22   OVC 25,1,19,1,15,1017,ROYN 240400Z AUTO 04023KT 7000 SCT022 OVC025 19/15 Q1017 RMK     A3004=,
20180124_050000.002,0,ROYN,,,,1,20180124050000,-1,-1,-1,-1,40,-1,22,-1,-1,-1,-1,,9000,0,0,2,FEW 23   OVC 27,1,19,1,15,1016,ROYN 240500Z AUTO 04022KT 9000 FEW023 OVC027 19/15 Q1016 RMK     A3001=,
20180124_060000.002,0,ROYN,,,,1,20180124060000,-1,-1,-1,-1,40,-1,22,-1,-1,-1,-1,,9999,0,0,3,FEW 23   SCT 29   OVC 31,1,19,1,15,1015,ROYN 240600Z AUTO 04022KT 9999 FEW023 SCT029 OVC031 19/15     Q1015 RMK A3000=,
20180124_070000.002,0,ROYN,,,,1,20180124070000,-1,-1,-1,-1,40,-1,22,-1,-1,-1,-1,,9999,0,0,1,OVC 24,1,19,1,15,1015,ROYN 240700Z AUTO 04022KT 9999 OVC024 19/15 Q1015 RMK A2999=,
20180124_080000.002,0,ROYN,,,,1,20180124080000,-1,-1,-1,-1,50,-1,23,-1,-1,-1,-1,,7000,0,0,3,BKN 20   BKN 26   OVC 33,1,19,1,15,1015,ROYN 240800Z AUTO 05023KT 7000 BKN020 BKN026 OVC033 19/15     Q1015 RMK A3000=,
20180124_090000.003,0,ROYN,,,,1,20180124090000,-1,-1,-1,-1,50,-1,24,-1,-1,-1,-1,,6000,0,0,2,BKN 20   OVC 29,1,18,1,15,1016,ROYN 240900Z AUTO 05024KT 6000 BKN020 OVC029 18/15 Q1016 RMK     A3001=,
20180124_100000.002,0,ROYN,,,,1,20180124100000,-1,-1,-1,-1,50,-1,23,-1,-1,-1,-1,,7000,0,0,3,BKN 20   BKN 25   OVC 30,1,18,1,15,1016,ROYN 241000Z AUTO 05023KT 7000 BKN020 BKN025 OVC030 18/15     Q1016 RMK A3002=,
20180124_110000.002,0,ROYN,,,,1,20180124110000,-1,-1,-1,-1,60,-1,23,-1,-1,-1,-1,,6000,0,0,2,BKN 23   OVC 31,1,18,1,15,1017,ROYN 241100Z AUTO 06023KT 6000 BKN023 OVC031 18/15 Q1017 RMK     A3004=,
20180124_120000.002,0,ROYN,,,,1,20180124120000,-1,-1,-1,-1,60,-1,22,-1,-1,-1,-1,,9000,0,0,2,BKN 24   OVC 30,1,19,1,15,1017,ROYN 241200Z AUTO 06022KT 9000 BKN024 OVC030 19/15 Q1017 RMK     A3005=,
20180124_130000.002,0,ROYN,,,,1,20180124130000,-1,-1,-1,-1,60,-1,24,-1,34,-1,-1,,7000,0,0,3,SCT 24   BKN 29   OVC 32,1,18,1,15,1017,ROYN 241300Z AUTO 06024G34KT 7000 SCT024 BKN029 OVC032 18/15     Q1017 RMK A3005=,
20180124_140000.003,0,ROYN,,,,1,20180124140000,-1,-1,-1,-1,50,-1,23,-1,-1,-1,-1,,9000,0,0,1,OVC 23,1,18,1,15,1017,ROYN 241400Z AUTO 05023KT 9000 OVC023 18/15 Q1017 RMK A3005=,
20180124_150000.002,0,ROYN,,,,1,20180124150000,-1,-1,-1,-1,60,-1,25,-1,-1,-1,-1,,7000,0,0,3,BKN 23   BKN 27   BKN 29,1,19,1,15,1017,ROYN 241500Z AUTO 06025KT 7000 BKN023 BKN027 BKN029 19/15     Q1017 RMK A3003=,
20180124_160000.002,0,ROYN,,,,1,20180124160000,-1,-1,-1,-1,60,-1,23,-1,-1,-1,-1,,4700,0,1,2,BKN 21   OVC 30,1,18,1,16,1017,ROYN 241600Z AUTO 06023KT 4700 BR BKN021 OVC030 18/16 Q1017     RMK A3003=,BR
20180124_170000.002,0,ROYN,,,,1,20180124170000,-1,-1,-1,-1,70,-1,19,-1,-1,-1,-1,,4400,0,1,2,BKN 17   OVC 27,1,17,1,16,1017,ROYN 241700Z AUTO 07019KT 4400 BR BKN017 OVC027 17/16 Q1017     RMK A3003=,BR
20180124_180000.002,0,ROYN,,,,1,20180124180000,-1,-1,-1,-1,60,-1,24,-1,-1,-1,-1,,3900,0,2,3,BKN 15   BKN 24   BKN 30,1,18,1,16,1016,ROYN 241800Z AUTO 06024KT 3900 -RA BR BKN015 BKN024 BKN030     18/16 Q1016 RMK A3002=,- RA; BR
20180124_190000.003,0,ROYN,,,,1,20180124190000,-1,-1,-1,-1,60,-1,20,-1,-1,-1,-1,,4100,0,1,3,FEW 13   SCT 15   BKN 21,1,17,1,16,1016,ROYN 241900Z AUTO 06020KT 4100 BR FEW013 SCT015 BKN021 17/16     Q1016 RMK A3002=,BR
20180124_200000.002,0,ROYN,,,,1,20180124200000,-1,-1,-1,-1,50,-1,20,-1,-1,-1,-1,,-1,0,2,1,OVC 15,1,18,1,16,1016,ROYN 242000Z AUTO 05020KT //// -RA BR OVC015 18/16 Q1016 RMK     A3002=,- RA; BR
20180124_210000.002,0,ROYN,,,,1,20180124210000,-1,-1,-1,-1,60,-1,20,-1,-1,-1,-1,,-1,0,0,3,BKN 19   BKN 23   OVC 35,1,18,1,16,1016,ROYN 242100Z AUTO 06020KT //// // BKN019 BKN023 OVC035 18/16     Q1016 RMK A3002=,
20180124_220000.002,0,ROYN,,,,1,20180124220000,-1,-1,-1,-1,70,-1,19,-1,-1,-1,-1,,-1,0,0,3,FEW 17   SCT 21   BKN 26,1,18,1,15,1017,ROYN 242200Z AUTO 07019KT //// // FEW017 SCT021 BKN026 18/15     Q1017 RMK A3003=,
20180124_230000.002,0,ROYN,,,,1,20180124230000,-1,-1,-1,-1,60,-1,21,-1,-1,-1,-1,,3800,0,1,3,BKN 14   BKN 27   OVC 50,1,17,1,16,1017,ROYN 242300Z AUTO 06021KT 3800 BR BKN014 BKN027 OVC050 17/16     Q1017 RMK A3005=,BR
20180125_000000.002,0,ROYN,,,,1,20180125000000,-1,-1,-1,-1,70,-1,17,-1,-1,-1,-1,,8000,0,0,3,FEW 16   BKN 33   BKN 40,1,18,1,16,1018,ROYN 250000Z AUTO 07017KT 8000 FEW016 BKN033 BKN040 18/16     Q1018 RMK A3007=,
20180125_010000.002,0,ROYN,,,,1,20180125010000,-1,-1,-1,-1,90,-1,16,-1,-1,-1,-1,,9999,0,0,4,FEW 12   SCT 27   BKN 36   /// -9999 TCU,1,18,1,16,1018,ROYN 250100Z AUTO 09016KT 9999 FEW012 SCT027 BKN036 //////TCU     18/16 Q1018 RMK A3008 TCU 15KM NE MOV UNKNOWN=,
20180125_020000.003,0,ROYN,,,,1,20180125020000,-1,-1,-1,-1,70,-1,17,-1,-1,-1,-1,,9999,0,0,3,FEW 15   SCT 21   BKN 24,1,19,1,16,1018,ROYN 250200Z AUTO 07017KT 9999 FEW015 SCT021 BKN024 19/16     Q1018 RMK A3008=,
20180125_030000.002,0,ROYN,,,,1,20180125030000,-1,-1,-1,-1,70,-1,18,-1,-1,-1,-1,,9999,0,0,2,BKN 18   OVC 50,1,19,1,16,1018,ROYN 250300Z AUTO 07018KT 9999 BKN018 OVC050 19/16 Q1018 RMK     A3006=,
20180125_040000.002,0,ROYN,,,,1,20180125040000,-1,-1,-1,-1,70,-1,14,-1,-1,-1,-1,,9999,0,0,3,FEW 19   SCT 30   BKN 36,1,20,1,16,1016,ROYN 250400Z AUTO 07014KT 9999 FEW019 SCT030 BKN036 20/16     Q1016 RMK A3003=,
20180125_050000.002,0,ROYN,,,,1,20180125050000,-1,-1,-1,-1,110,-1,13,-1,-1,-1,-1,,9999,0,0,3,FEW 26   SCT 32   OVC 45,1,20,1,16,1015,ROYN 250500Z AUTO 11013KT 9999 FEW026 SCT032 OVC045 20/16     Q1015 RMK A2999=,
20180125_060000.002,0,ROYN,,,,1,20180125060000,-1,-1,-1,-1,90,-1,13,-1,-1,-1,-1,,9999,0,0,2,SCT 44   OVC 48,1,20,1,15,1015,ROYN 250600Z AUTO 09013KT 9999 SCT044 OVC048 20/15 Q1015 RMK     A2997=,
20180125_070000.002,0,ROYN,,,,1,20180125070000,-1,-1,-1,-1,100,-1,11,-1,-1,-1,-1,,9999,0,0,3,SCT 25   BKN 33   BKN 35,1,20,1,15,1014,ROYN 250700Z AUTO 10011KT 9999 SCT025 BKN033 BKN035 20/15     Q1014 RMK A2997=,
20180125_080000.002,0,ROYN,,,,1,20180125080000,-1,-1,-1,-1,100,-1,11,-1,-1,-1,-1,,9999,0,0,3,FEW 20   SCT 40   BKN 46,1,20,1,16,1015,ROYN 250800Z AUTO 10011KT 9999 FEW020 SCT040 BKN046 20/16     Q1015 RMK A2997=,
20180125_090000.002,0,ROYN,,,,1,20180125090000,-1,-1,-1,-1,100,-1,8,-1,-1,-1,-1,,9999,0,0,3,FEW 21   BKN 35   OVC 40,1,20,1,15,1015,ROYN 250900Z AUTO 10008KT 9999 FEW021 BKN035 OVC040 20/15     Q1015 RMK A2999=,
20180125_100000.003,0,ROYN,,,,1,20180125100000,-1,-1,-1,-1,100,-1,7,-1,-1,-1,-1,,9999,0,0,3,FEW 25   SCT 31   OVC 34,1,20,1,15,1015,ROYN 251000Z AUTO 10007KT 9999 FEW025 SCT031 OVC034 20/15     Q1015 RMK A3000=,
20180125_110000.003,0,ROYN,,,,1,20180125110000,-1,-1,-1,-1,110,-1,8,-1,-1,-1,-1,,9999,0,0,3,FEW 20   SCT 22   BKN 26,1,20,1,16,1016,ROYN 251100Z AUTO 11008KT 9999 FEW020 SCT022 BKN026 20/16     Q1016 RMK A3002=,
20180125_120000.002,0,ROYN,,,,1,20180125120000,-1,-1,-1,-1,110,-1,8,-1,-1,-1,-1,,9999,0,0,3,FEW 31   BKN 36   OVC 43,1,19,1,16,1016,ROYN 251200Z AUTO 11008KT 9999 FEW031 BKN036 OVC043 19/16     Q1016 RMK A3003=,
20180125_130000.002,0,ROYN,,,,1,20180125130000,-1,-1,-1,-1,110,-1,7,-1,-1,-1,-1,,9999,0,0,2,FEW 38   OVC 44,1,20,1,16,1017,ROYN 251300Z AUTO 11007KT 9999 FEW038 OVC044 20/16 Q1017 RMK     A3003=,
20180125_140000.002,0,ROYN,,,,1,20180125140000,-1,-1,-1,-1,100,-1,7,-1,-1,-1,-1,,9999,0,0,3,FEW 21   SCT 38   BKN 47,1,20,1,16,1016,ROYN 251400Z AUTO 10007KT 9999 FEW021 SCT038 BKN047 20/16     Q1016 RMK A3003=,
20180125_150000.002,0,ROYN,,,,1,20180125150000,-1,-1,-1,-1,120,-1,5,-1,-1,-1,-1,,9999,0,1,3,BKN 21   BKN 33   OVC 50,1,20,1,17,1016,ROYN 251500Z AUTO 12005KT 9999 -RA BKN021 BKN033 OVC050 20/17     Q1016 RMK A3003=,- RA
20180125_160000.002,0,ROYN,,,,1,20180125160000,-1,-1,-1,-1,130,-1,5,-1,-1,-1,-1,,9999,0,0,1,OVC 42,1,20,1,16,1016,ROYN 251600Z AUTO 13005KT 9999 OVC042 20/16 Q1016 RMK A3003=,
20180125_170000.002,0,ROYN,,,,1,20180125170000,-1,-1,-1,-1,110,-1,6,-1,-1,-1,-1,,9999,0,0,3,FEW 27   BKN 44   OVC 50,1,20,1,17,1016,ROYN 251700Z AUTO 11006KT 9999 FEW027 BKN044 OVC050 20/17     Q1016 RMK A3002=,
20180125_180000.002,0,ROYN,,,,1,20180125180000,-1,-1,-1,-1,40,-1,12,-1,-1,-1,-1,,9999,0,0,1,OVC 17,1,20,1,17,1016,ROYN 251800Z AUTO 04012KT 9999 OVC017 20/17 Q1016 RMK A3001=,
20180125_190000.002,0,ROYN,,,,1,20180125190000,-1,-1,-1,-1,50,-1,12,-1,-1,-1,-1,,9000,0,0,3,FEW 24   SCT 31   BKN 36,1,19,1,17,1015,ROYN 251900Z AUTO 05012KT 9000 FEW024 SCT031 BKN036 19/17     Q1015 RMK A3000=,
20180125_200000.003,0,ROYN,,,,1,20180125200000,-1,-1,-1,-1,40,-1,18,-1,-1,-1,-1,,9999,0,0,1,OVC 13,1,20,1,18,1015,ROYN 252000Z AUTO 04018KT 9999 OVC013 20/18 Q1015 RMK A2999=,
20180125_210000.002,0,ROYN,,,,1,20180125210000,-1,-1,-1,-1,20,-1,27,-1,-1,-1,-1,,9999,0,0,4,FEW 10   BKN 11   OVC 21   /// -9999 TCU,1,19,1,18,1016,ROYN 252100Z AUTO 02027KT 9999 FEW010 BKN011 OVC021 //////TCU     19/18 Q1016 RMK A3000 TCU 5KM E MOV UNKNOWN=,
20180125_220000.002,0,ROYN,,,,1,20180125220000,-1,-1,-1,-1,30,-1,29,-1,-1,-1,-1,,9999,0,0,2,BKN 10   OVC 16,1,19,1,17,1017,ROYN 252200Z AUTO 03029KT 9999 BKN010 OVC016 19/17 Q1017 RMK     A3004=,
20180125_230000.002,0,ROYN,,,,1,20180125230000,-1,-1,-1,-1,30,-1,29,-1,-1,-1,-1,,9000,0,0,2,BKN 15   OVC 20,1,19,1,17,1018,ROYN 252300Z AUTO 03029KT 9000 BKN015 OVC020 19/17 Q1018 RMK     A3007=,
20180126_000000.002,0,ROYN,,,,1,20180126000000,-1,-1,-1,-1,30,-1,29,-1,-1,-1,-1,,9999,0,0,2,BKN 15   OVC 20,1,19,1,16,1019,ROYN 260000Z AUTO 03029KT 9999 BKN015 OVC020 19/16 Q1019 RMK     A3010=,
20180126_010000.002,0,ROYN,,,,1,20180126010000,-1,-1,-1,-1,30,-1,29,-1,-1,-1,-1,,9000,0,0,3,BKN 13   BKN 15   OVC 21,1,19,1,17,1020,ROYN 260100Z AUTO 03029KT 9000 BKN013 BKN015 OVC021 19/17     Q1020 RMK A3012=,
20180126_020000.002,0,ROYN,,,,1,20180126020000,-1,-1,-1,-1,30,-1,30,-1,-1,-1,-1,,7000,0,0,3,SCT 11   BKN 13   OVC 20,1,18,1,16,1020,ROYN 260200Z AUTO 03030KT 7000 SCT011 BKN013 OVC020 18/16     Q1020 RMK A3013=,
20180126_030000.002,0,ROYN,,,,1,20180126030000,-1,-1,-1,-1,30,-1,30,-1,-1,-1,-1,,8000,0,0,2,SCT 15   OVC 19,1,18,1,15,1020,ROYN 260300Z AUTO 03030KT 8000 SCT015 OVC019 18/15 Q1020 RMK     A3013=,
20180126_040000.002,0,ROYN,,,,1,20180126040000,-1,-1,-1,-1,30,-1,30,-1,-1,-1,-1,,9000,0,0,1,OVC 16,1,18,1,15,1019,ROYN 260400Z AUTO 03030KT 9000 OVC016 18/15 Q1019 RMK A3011=,
20180126_050000.002,0,ROYN,,,,1,20180126050000,-1,-1,-1,-1,30,-1,28,-1,-1,-1,-1,,9000,0,0,1,OVC 17,1,18,1,15,1019,ROYN 260500Z AUTO 03028KT 9000 OVC017 18/15 Q1019 RMK A3009=,
20180126_060000.002,0,ROYN,,,,1,20180126060000,-1,-1,-1,-1,30,-1,28,-1,-1,-1,-1,,7000,0,0,3,FEW 11   SCT 13   BKN 15,1,17,1,15,1018,ROYN 260600Z AUTO 03028KT 7000 FEW011 SCT013 BKN015 17/15     Q1018 RMK A3008=,
20180126_070000.002,0,ROYN,,,,1,20180126070000,-1,-1,-1,-1,40,-1,26,-1,-1,-1,-1,,6000,0,0,2,BKN 15   OVC 22,1,17,1,15,1019,ROYN 260700Z AUTO 04026KT 6000 BKN015 OVC022 17/15 Q1019 RMK     A3009=,
20180126_080000.003,0,ROYN,,,,1,20180126080000,-1,-1,-1,-1,30,-1,28,-1,-1,-1,-1,,4500,0,1,3,BKN 11   BKN 17   OVC 39,1,16,1,15,1019,ROYN 260800Z AUTO 03028KT 4500 BR BKN011 BKN017 OVC039 16/15     Q1019 RMK A3010=,BR
20180126_090000.002,0,ROYN,,,,1,20180126090000,-1,-1,-1,-1,30,-1,27,-1,-1,-1,-1,,4700,0,1,3,FEW 11   BKN 13   BKN 19,1,16,1,14,1019,ROYN 260900Z AUTO 03027KT 4700 BR FEW011 BKN013 BKN019 16/14     Q1019 RMK A3012=,BR
20180126_100000.002,0,ROYN,,,,1,20180126100000,-1,-1,-1,-1,30,-1,27,-1,-1,-1,-1,,3300,0,1,3,FEW 13   SCT 15   BKN 17,1,16,1,14,1020,ROYN 261000Z AUTO 03027KT 3300 BR FEW013 SCT015 BKN017 16/14     Q1020 RMK A3014=,BR
20180126_110000.002,0,ROYN,,,,1,20180126110000,-1,-1,-1,-1,30,-1,27,-1,-1,-1,-1,,4900,0,1,2,BKN 14   OVC 35,1,16,1,15,1021,ROYN 261100Z AUTO 03027KT 4900 BR BKN014 OVC035 16/15 Q1021     RMK A3015=,BR
20180126_120000.002,0,ROYN,,,,1,20180126120000,-1,-1,-1,-1,30,-1,26,-1,-1,-1,-1,,6000,0,0,3,FEW 11   SCT 25   BKN 31,1,16,1,14,1021,ROYN 261200Z AUTO 03026KT 6000 FEW011 SCT025 BKN031 16/14     Q1021 RMK A3016=,
20180126_130000.002,0,ROYN,,,,1,20180126130000,-1,-1,-1,-1,30,-1,25,-1,-1,-1,-1,,8000,0,0,3,SCT 11   BKN 19   BKN 27,1,16,1,14,1021,ROYN 261300Z AUTO 03025KT 8000 SCT011 BKN019 BKN027 16/14     Q1021 RMK A3016=,
20180126_140000.002,0,ROYN,,,,1,20180126140000,-1,-1,-1,-1,40,-1,23,-1,-1,-1,-1,,5000,0,1,3,FEW 11   SCT 21   BKN 27,1,15,1,14,1021,ROYN 261400Z AUTO 04023KT 5000 BR FEW011 SCT021 BKN027 15/14     Q1021 RMK A3016=,BR
20180126_150000.002,0,ROYN,,,,1,20180126150000,-1,-1,-1,-1,40,-1,26,-1,-1,-1,-1,,8000,0,0,3,FEW 13   SCT 17   BKN 29,1,16,1,14,1021,ROYN 261500Z AUTO 04026KT 8000 FEW013 SCT017 BKN029 16/14     Q1021 RMK A3016=,
20180126_160000.002,0,ROYN,,,,1,20180126160000,-1,-1,-1,-1,30,-1,24,-1,-1,-1,-1,,9000,0,0,3,FEW 15   SCT 20   BKN 21,1,16,1,13,1021,ROYN 261600Z AUTO 03024KT 9000 FEW015 SCT020 BKN021 16/13     Q1021 RMK A3015=,
20180126_170000.002,0,ROYN,,,,1,20180126170000,-1,-1,-1,-1,40,-1,21,-1,-1,-1,-1,,9000,0,0,3,FEW 19   SCT 28   BKN 35,1,16,1,13,1020,ROYN 261700Z AUTO 04021KT 9000 FEW019 SCT028 BKN035 16/13     Q1020 RMK A3014=,
20180126_180000.002,0,ROYN,,,,1,20180126180000,-1,-1,-1,-1,40,-1,21,-1,-1,-1,-1,,6000,0,0,3,FEW 17   SCT 34   BKN 38,1,16,1,14,1020,ROYN 261800Z AUTO 04021KT 6000 FEW017 SCT034 BKN038 16/14     Q1020 RMK A3012=,
20180126_190000.002,0,ROYN,,,,1,20180126190000,-1,-1,-1,-1,40,-1,22,-1,-1,-1,-1,,5000,0,1,3,SCT 16   BKN 26   OVC 33,1,16,1,14,1019,ROYN 261900Z AUTO 04022KT 5000 BR SCT016 BKN026 OVC033 16/14     Q1019 RMK A3012=,BR
20180126_200000.003,0,ROYN,,,,1,20180126200000,-1,-1,-1,-1,40,-1,21,-1,-1,-1,-1,,9000,0,0,3,FEW 18   SCT 24   BKN 29,1,17,1,14,1019,ROYN 262000Z AUTO 04021KT 9000 FEW018 SCT024 BKN029 17/14     Q1019 RMK A3011=,
20180126_210000.002,0,ROYN,,,,1,20180126210000,-1,-1,-1,-1,40,-1,20,-1,-1,-1,-1,,9000,0,0,3,FEW 19   SCT 25   BKN 31,1,17,1,14,1019,ROYN 262100Z AUTO 04020KT 9000 FEW019 SCT025 BKN031 17/14     Q1019 RMK A3011=,
20180126_220000.002,0,ROYN,,,,1,20180126220000,-1,-1,-1,-1,40,-1,20,-1,-1,-1,-1,,9000,0,0,2,BKN 21   OVC 50,1,17,1,13,1020,ROYN 262200Z AUTO 04020KT 9000 BKN021 OVC050 17/13 Q1020 RMK     A3013=,
20180126_230000.002,0,ROYN,,,,1,20180126230000,-1,-1,-1,-1,50,-1,18,-1,-1,-1,-1,,9999,0,0,3,FEW 20   SCT 26   BKN 29,1,17,1,13,1020,ROYN 262300Z AUTO 05018KT 9999 FEW020 SCT026 BKN029 17/13     Q1020 RMK A3015=,
20180127_000000.002,0,ROYN,,,,1,20180127000000,-1,-1,-1,-1,60,-1,18,-1,-1,-1,-1,,9999,0,0,3,FEW 19   SCT 22   BKN 27,1,17,1,14,1021,ROYN 270000Z AUTO 06018KT 9999 FEW019 SCT022 BKN027 17/14     Q1021 RMK A3016=,
20180127_010000.002,0,ROYN,,,,1,20180127010000,-1,-1,-1,-1,60,-1,17,-1,-1,-1,-1,,9999,0,0,3,FEW 21   SCT 23   BKN 32,1,18,1,14,1021,ROYN 270100Z AUTO 06017KT 9999 FEW021 SCT023 BKN032 18/14     Q1021 RMK A3017=,
20180127_020000.002,0,ROYN,,,,1,20180127020000,-1,-1,-1,-1,50,-1,18,-1,-1,-1,-1,,9999,0,0,3,FEW 17   SCT 20   BKN 26,1,18,1,15,1021,ROYN 270200Z AUTO 05018KT 9999 FEW017 SCT020 BKN026 18/15     Q1021 RMK A3017=,
20180127_030000.002,0,ROYN,,,,1,20180127030000,-1,-1,-1,-1,60,-1,13,-1,-1,-1,-1,,9999,0,0,3,FEW 22   BKN 26   BKN 31,1,18,1,14,1020,ROYN 270300Z AUTO 06013KT 9999 FEW022 BKN026 BKN031 18/14     Q1020 RMK A3014=,
20180127_040000.002,0,ROYN,,,,1,20180127040000,-1,-1,-1,-1,60,-1,12,-1,-1,-1,-1,,9999,0,0,3,SCT 22   SCT 27   BKN 30,1,19,1,14,1019,ROYN 270400Z AUTO 06012KT 9999 SCT022 SCT027 BKN030 19/14     Q1019 RMK A3011=,
20180127_050000.002,0,ROYN,,,,1,20180127050000,-1,-1,-1,-1,80,-1,12,-1,-1,-1,-1,,9999,0,0,3,FEW 20   SCT 23   BKN 27,1,20,1,14,1018,ROYN 270500Z AUTO 08012KT 9999 FEW020 SCT023 BKN027 20/14     Q1018 RMK A3007=,
20180127_060000.002,0,ROYN,,,,1,20180127060000,-1,-1,-1,-1,90,-1,13,-1,-1,70,130,,9999,0,0,3,SCT 22   BKN 27   BKN 38,1,20,1,15,1017,ROYN 270600Z AUTO 09013KT 070V130 9999 SCT022 BKN027 BKN038     20/15 Q1017 RMK A3004=,
20180127_070000.002,0,ROYN,,,,1,20180127070000,-1,-1,-1,-1,110,-1,10,-1,-1,-1,-1,,9999,0,0,3,SCT 24   BKN 30   BKN 39,1,20,1,15,1016,ROYN 270700Z AUTO 11010KT 9999 SCT024 BKN030 BKN039 20/15     Q1016 RMK A3003=,
20180127_080000.002,0,ROYN,,,,1,20180127080000,-1,-1,-1,-1,110,-1,11,-1,-1,-1,-1,,9999,0,0,3,FEW 27   SCT 33   OVC 43,1,20,1,15,1016,ROYN 270800Z AUTO 11011KT 9999 FEW027 SCT033 OVC043 20/15     Q1016 RMK A3002=,
20180127_090000.003,0,ROYN,,,,1,20180127090000,-1,-1,-1,-1,110,-1,7,-1,-1,-1,-1,,9999,0,0,2,BKN 40   OVC 44,1,19,1,15,1017,ROYN 270900Z AUTO 11007KT 9999 BKN040 OVC044 19/15 Q1017 RMK     A3003=,
20180127_100000.002,0,ROYN,,,,1,20180127100000,-1,-1,-1,-1,120,-1,5,-1,-1,90,160,,9999,0,0,2,FEW 36   OVC 40,1,19,1,15,1017,ROYN 271000Z AUTO 12005KT 090V160 9999 FEW036 OVC040 19/15     Q1017 RMK A3003=,
20180127_110000.002,0,ROYN,,,,1,20180127110000,-1,-1,-1,-1,110,-1,7,-1,-1,-1,-1,,9999,0,0,3,SCT 41   BKN 48   OVC 90,1,19,1,15,1017,ROYN 271100Z AUTO 11007KT 9999 SCT041 BKN048 OVC090 19/15     Q1017 RMK A3003=,
20180127_120000.002,0,ROYN,,,,1,20180127120000,-1,-1,-1,-1,120,-1,6,-1,-1,-1,-1,,9999,0,0,3,FEW 25   SCT 35   BKN 38,1,20,1,15,1017,ROYN 271200Z AUTO 12006KT 9999 FEW025 SCT035 BKN038 20/15     Q1017 RMK A3004=,
20180127_130000.002,0,ROYN,,,,1,20180127130000,-1,-1,-1,-1,120,-1,9,-1,-1,-1,-1,,9999,0,0,3,FEW 24   SCT 27   BKN 40,1,20,1,15,1017,ROYN 271300Z AUTO 12009KT 9999 FEW024 SCT027 BKN040 20/15     Q1017 RMK A3003=,
20180127_140000.003,0,ROYN,,,,1,20180127140000,-1,-1,-1,-1,120,-1,10,-1,-1,-1,-1,,9999,0,0,3,FEW 23   SCT 26   BKN 31,1,20,1,16,1017,ROYN 271400Z AUTO 12010KT 9999 FEW023 SCT026 BKN031 20/16     Q1017 RMK A3003=,
20180127_150000.002,0,ROYN,,,,1,20180127150000,-1,-1,-1,-1,130,-1,10,-1,-1,-1,-1,,9999,0,0,3,FEW 23   SCT 29   BKN 32,1,20,1,16,1016,ROYN 271500Z AUTO 13010KT 9999 FEW023 SCT029 BKN032 20/16     Q1016 RMK A3001=,
20180127_160000.002,0,ROYN,,,,1,20180127160000,-1,-1,-1,-1,140,-1,8,-1,-1,-1,-1,,9999,0,0,3,FEW 24   BKN 28   BKN 34,1,20,1,16,1015,ROYN 271600Z AUTO 14008KT 9999 FEW024 BKN028 BKN034 20/16     Q1015 RMK A2999=,
20180127_170000.002,0,ROYN,,,,1,20180127170000,-1,-1,-1,-1,160,-1,11,-1,-1,-1,-1,,9999,0,0,2,BKN 25   OVC 50,1,21,1,16,1015,ROYN 271700Z AUTO 16011KT 9999 BKN025 OVC050 21/16 Q1015 RMK     A2997=,
20180127_180000.002,0,ROYN,,,,1,20180127180000,-1,-1,-1,-1,150,-1,11,-1,-1,-1,-1,,9999,0,0,3,BKN 25   BKN 28   OVC 40,1,20,1,17,1014,ROYN 271800Z AUTO 15011KT 9999 BKN025 BKN028 OVC040 20/17     Q1014 RMK A2996=,
20180127_190000.002,0,ROYN,,,,1,20180127190000,-1,-1,-1,-1,150,-1,7,-1,-1,-1,-1,,6000,0,0,3,FEW 18   SCT 23   OVC 60,1,20,1,18,1014,ROYN 271900Z AUTO 15007KT 6000 FEW018 SCT023 OVC060 20/18     Q1014 RMK A2994=,
20180127_200000.002,0,ROYN,,,,1,20180127200000,-1,-1,-1,-1,170,-1,11,-1,-1,140,200,,9999,0,0,3,FEW 14   BKN 17   BKN 25,1,20,1,18,1013,ROYN 272000Z AUTO 17011KT 140V200 9999 FEW014 BKN017 BKN025     20/18 Q1013 RMK A2991=,
20180127_210000.002,0,ROYN,,,,1,20180127210000,-1,-1,-1,-1,160,-1,13,-1,-1,-1,-1,,9999,0,0,2,FEW 9   SCT 37,1,19,1,18,1012,ROYN 272100Z AUTO 16013KT 9999 FEW009 SCT037 19/18 Q1012 RMK     A2989=,
20180127_220000.002,0,ROYN,,,,1,20180127220000,-1,-1,-1,-1,150,-1,13,-1,-1,-1,-1,,9999,0,0,1,BKN 18,1,21,1,18,1012,ROYN 272200Z AUTO 15013KT 9999 BKN018 21/18 Q1012 RMK A2989=,
20180127_230000.002,0,ROYN,,,,1,20180127230000,-1,-1,-1,-1,160,-1,9,-1,-1,120,180,,8000,0,1,3,FEW 16   SCT 18   BKN 21,1,21,1,18,1013,ROYN 272300Z AUTO 16009KT 120V180 8000 -RA FEW016 SCT018     BKN021 21/18 Q1013 RMK A2992=,- RA
20180128_000000.003,0,ROYN,,,,1,20180128000000,-1,-1,-1,-1,170,-1,5,-1,-1,120,230,,3500,0,2,3,FEW 5   SCT 7   BKN 9,1,20,1,19,1013,ROYN 280000Z AUTO 17005KT 120V230 3500 -RA BR FEW005 SCT007     BKN009 20/19 Q1013 RMK A2994=,- RA; BR
20180128_010000.002,0,ROYN,,,,1,20180128010000,-1,-1,-1,-1,160,-1,7,-1,-1,-1,-1,,3500,0,2,3,FEW 5   SCT 8   BKN 11,1,20,1,19,1014,ROYN 280100Z AUTO 16007KT 3500 -RA BR FEW005 SCT008 BKN011     20/19 Q1014 RMK A2996=,- RA; BR
20180128_020000.002,0,ROYN,,,,1,20180128020000,-1,-1,-1,-1,160,-1,10,-1,-1,-1,-1,,9999,0,0,3,SCT 5   BKN 9   BKN 11,1,21,1,20,1014,ROYN 280200Z AUTO 16010KT 9999 SCT005 BKN009 BKN011 21/20     Q1014 RMK A2995=,
20180128_030000.002,0,ROYN,,,,1,20180128030000,-1,-1,-1,-1,200,-1,9,-1,-1,170,230,,3500,0,2,3,FEW 3   BKN 5   BKN 9,1,21,1,20,1013,ROYN 280300Z AUTO 20009KT 170V230 3500 -RA BR FEW003 BKN005     BKN009 21/20 Q1013 RMK A2994=,- RA; BR
20180128_040000.002,0,ROYN,,,,1,20180128040000,-1,-1,-1,-1,220,-1,8,-1,-1,-1,-1,,2900,0,2,3,FEW 5   SCT 7   BKN 17,1,21,1,20,1013,ROYN 280400Z AUTO 22008KT 2900 -RA BR FEW005 SCT007 BKN017     21/20 Q1013 RMK A2992=,- RA; BR
20180128_050000.002,0,ROYN,,,,1,20180128050000,-1,-1,-1,-1,330,-1,20,-1,-1,-1,-1,,6000,0,0,3,FEW 5   BKN 7   OVC 12,1,19,1,19,1012,ROYN 280500Z AUTO 33020KT 6000 FEW005 BKN007 OVC012 19/19     Q1012 RMK A2990=,
20180128_060000.002,0,ROYN,,,,1,20180128060000,-1,-1,-1,-1,340,-1,18,-1,-1,-1,-1,,2500,0,1,3,BKN 3   BKN 10   OVC 15,1,20,1,19,1012,ROYN 280600Z AUTO 34018KT 2500 BR BKN003 BKN010 OVC015 20/19     Q1012 RMK A2989=,BR
20180128_070000.003,0,ROYN,,,,1,20180128070000,-1,-1,-1,-1,350,-1,24,-1,-1,-1,-1,,5000,0,1,3,FEW 5   SCT 7   BKN 13,1,19,1,18,1012,ROYN 280700Z AUTO 35024KT 5000 BR FEW005 SCT007 BKN013 19/18     Q1012 RMK A2989=,BR
20180128_080000.002,0,ROYN,,,,1,20180128080000,-1,-1,-1,-1,360,-1,25,-1,-1,-1,-1,,9999,0,0,3,FEW 11   SCT 15   BKN 26,1,19,1,18,1012,ROYN 280800Z AUTO 36025KT 9999 FEW011 SCT015 BKN026 19/18     Q1012 RMK A2990=,
20180128_090000.002,0,ROYN,,,,1,20180128090000,-1,-1,-1,-1,10,-1,25,-1,-1,-1,-1,,7000,0,0,2,BKN 12   OVC 22,1,19,1,17,1013,ROYN 280900Z AUTO 01025KT 7000 BKN012 OVC022 19/17 Q1013 RMK     A2991=,
20180128_100000.002,0,ROYN,,,,1,20180128100000,-1,-1,-1,-1,10,-1,27,-1,-1,-1,-1,,9999,0,0,3,FEW 10   SCT 17   BKN 23,1,18,1,16,1014,ROYN 281000Z AUTO 01027KT 9999 FEW010 SCT017 BKN023 18/16     Q1014 RMK A2995=,
20180128_110000.002,0,ROYN,,,,1,20180128110000,-1,-1,-1,-1,10,-1,29,-1,-1,-1,-1,,8000,0,0,2,BKN 11   OVC 32,1,18,1,17,1014,ROYN 281100Z AUTO 01029KT 8000 BKN011 OVC032 18/17 Q1014 RMK     A2996=,
20180128_120000.002,0,ROYN,,,,1,20180128120000,-1,-1,-1,-1,10,-1,29,-1,-1,-1,-1,,8000,0,0,3,FEW 11   BKN 17   OVC 32,1,18,1,16,1015,ROYN 281200Z AUTO 01029KT 8000 FEW011 BKN017 OVC032 18/16     Q1015 RMK A2999=,
20180128_130000.002,0,ROYN,,,,1,20180128130000,-1,-1,-1,-1,20,-1,30,-1,-1,-1,-1,,6000,0,0,2,FEW 13   BKN 21,1,17,1,15,1016,ROYN 281300Z AUTO 02030KT 6000 FEW013 BKN021 17/15 Q1016 RMK     A3001=,
20180128_140000.002,0,ROYN,,,,1,20180128140000,-1,-1,-1,-1,20,-1,30,-1,-1,-1,-1,,7000,0,0,2,BKN 10   OVC 29,1,17,1,15,1016,ROYN 281400Z AUTO 02030KT 7000 BKN010 OVC029 17/15 Q1016 RMK     A3001=,
20180128_150000.002,0,ROYN,,,,1,20180128150000,-1,-1,-1,-1,30,-1,27,-1,-1,-1,-1,,6000,0,0,3,FEW 8   BKN 11   BKN 26,1,17,1,16,1016,ROYN 281500Z AUTO 03027KT 6000 FEW008 BKN011 BKN026 17/16     Q1016 RMK A3001=,
20180128_160000.002,0,ROYN,,,,1,20180128160000,-1,-1,-1,-1,20,-1,28,-1,-1,-1,-1,,6000,0,0,3,FEW 11   BKN 13   BKN 20,1,16,1,15,1016,ROYN 281600Z AUTO 02028KT 6000 FEW011 BKN013 BKN020 16/15     Q1016 RMK A3003=,
20180128_170000.002,0,ROYN,,,,1,20180128170000,-1,-1,-1,-1,20,-1,30,-1,-1,-1,-1,,5000,0,1,2,BKN 12   OVC 32,1,16,1,15,1016,ROYN 281700Z AUTO 02030KT 5000 BR BKN012 OVC032 16/15 Q1016     RMK A3003=,BR
20180128_180000.002,0,ROYN,,,,1,20180128180000,-1,-1,-1,-1,20,-1,30,-1,-1,-1,-1,,6000,0,0,1,OVC 12,1,16,1,14,1016,ROYN 281800Z AUTO 02030KT 6000 OVC012 16/14 Q1016 RMK A3002=,
20180128_190000.002,0,ROYN,,,,1,20180128190000,-1,-1,-1,-1,20,-1,32,-1,-1,-1,-1,,3600,0,1,2,FEW 11   OVC 24,1,16,1,14,1016,ROYN 281900Z AUTO 02032KT 3600 BR FEW011 OVC024 16/14 Q1016     RMK A3002=,BR
20180128_200000.002,0,ROYN,,,,1,20180128200000,-1,-1,-1,-1,20,-1,30,-1,-1,-1,-1,,4500,0,1,1,OVC 17,1,16,1,14,1016,ROYN 282000Z AUTO 02030KT 4500 BR OVC017 16/14 Q1016 RMK     A3001=,BR
20180128_210000.002,0,ROYN,,,,1,20180128210000,-1,-1,-1,-1,20,-1,30,-1,-1,-1,-1,,9000,0,0,3,FEW 13   BKN 20   OVC 26,1,16,1,13,1017,ROYN 282100Z AUTO 02030KT 9000 FEW013 BKN020 OVC026 16/13     Q1017 RMK A3005=,
20180128_220000.003,0,ROYN,,,,1,20180128220000,-1,-1,-1,-1,20,-1,29,-1,-1,-1,-1,,5000,0,1,3,FEW 13   SCT 18   BKN 25,1,15,1,13,1018,ROYN 282200Z AUTO 02029KT 5000 BR FEW013 SCT018 BKN025 15/13     Q1018 RMK A3008=,BR
20180128_230000.002,0,ROYN,,,,1,20180128230000,-1,-1,-1,-1,20,-1,28,-1,-1,-1,-1,,9999,0,0,3,SCT 11   SCT 16   BKN 21,1,15,1,13,1019,ROYN 282300Z AUTO 02028KT 9999 SCT011 SCT016 BKN021 15/13     Q1019 RMK A3010=,
20180129_000000.003,0,ROYN,,,,1,20180129000000,-1,-1,-1,-1,20,-1,28,-1,-1,-1,-1,,2400,0,1,3,FEW 8   BKN 15   OVC 33,1,15,1,14,1019,ROYN 290000Z AUTO 02028KT 2400 BR FEW008 BKN015 OVC033 15/14     Q1019 RMK A3011=,BR
20180129_010000.002,0,ROYN,,,,1,20180129010000,-1,-1,-1,-1,20,-1,29,-1,-1,-1,-1,,8000,0,0,3,SCT 11   SCT 15   BKN 22,1,15,1,13,1020,ROYN 290100Z AUTO 02029KT 8000 SCT011 SCT015 BKN022 15/13     Q1020 RMK A3014=,
20180129_020000.002,0,ROYN,,,,1,20180129020000,-1,-1,-1,-1,20,-1,26,-1,-1,-1,-1,,9999,0,0,3,FEW 19   SCT 23   BKN 32,1,16,1,13,1020,ROYN 290200Z AUTO 02026KT 9999 FEW019 SCT023 BKN032 16/13     Q1020 RMK A3015=,
20180129_030000.002,0,ROYN,,,,1,20180129030000,-1,-1,-1,-1,30,-1,27,-1,-1,-1,-1,,4900,0,1,3,FEW 11   BKN 14   OVC 26,1,15,1,14,1020,ROYN 290300Z AUTO 03027KT 4900 BR FEW011 BKN014 OVC026 15/14     Q1020 RMK A3013=,BR
20180129_040000.002,0,ROYN,,,,1,20180129040000,-1,-1,-1,-1,30,-1,22,-1,-1,-1,-1,,8000,0,0,3,FEW 18   SCT 22   BKN 29,1,15,1,12,1019,ROYN 290400Z AUTO 03022KT 8000 FEW018 SCT022 BKN029 15/12     Q1019 RMK A3010=,
20180129_050000.002,0,ROYN,,,,1,20180129050000,-1,-1,-1,-1,30,-1,24,-1,-1,-1,-1,,7000,0,0,2,BKN 18   OVC 29,1,15,1,13,1019,ROYN 290500Z AUTO 03024KT 7000 BKN018 OVC029 15/13 Q1019 RMK     A3009=,
20180129_060000.002,0,ROYN,,,,1,20180129060000,-1,-1,-1,-1,20,-1,23,-1,-1,-1,-1,,7000,0,0,2,FEW 17   OVC 30,1,15,1,12,1018,ROYN 290600Z AUTO 02023KT 7000 FEW017 OVC030 15/12 Q1018 RMK     A3007=,
20180129_070000.002,0,ROYN,,,,1,20180129070000,-1,-1,-1,-1,20,-1,24,-1,-1,-1,-1,,8000,0,0,3,SCT 17   BKN 27   OVC 34,1,15,1,12,1018,ROYN 290700Z AUTO 02024KT 8000 SCT017 BKN027 OVC034 15/12     Q1018 RMK A3007=,
20180129_080000.002,0,ROYN,,,,1,20180129080000,-1,-1,-1,-1,20,-1,25,-1,-1,-1,-1,,3000,0,1,3,SCT 16   BKN 19   BKN 26,1,15,1,13,1019,ROYN 290800Z AUTO 02025KT 3000 BR SCT016 BKN019 BKN026 15/13     Q1019 RMK A3009=,BR
20180129_090000.002,0,ROYN,,,,1,20180129090000,-1,-1,-1,-1,30,-1,25,-1,-1,-1,-1,,4100,0,1,3,FEW 7   SCT 11   BKN 17,1,15,1,13,1019,ROYN 290900Z AUTO 03025KT 4100 BR FEW007 SCT011 BKN017 15/13     Q1019 RMK A3011=,BR
20180129_100000.002,0,ROYN,,,,1,20180129100000,-1,-1,-1,-1,20,-1,27,-1,-1,-1,-1,,7000,0,0,3,FEW 8   SCT 20   BKN 34,1,14,1,13,1020,ROYN 291000Z AUTO 02027KT 7000 FEW008 SCT020 BKN034 14/13     Q1020 RMK A3012=,
20180129_110000.002,0,ROYN,,,,1,20180129110000,-1,-1,-1,-1,20,-1,27,-1,-1,-1,-1,,9000,0,0,3,FEW 15   SCT 21   BKN 48,1,15,1,12,1020,ROYN 291100Z AUTO 02027KT 9000 FEW015 SCT021 BKN048 15/12     Q1020 RMK A3013=,
20180129_120000.002,0,ROYN,,,,1,20180129120000,-1,-1,-1,-1,30,-1,27,-1,-1,-1,-1,,8000,0,0,3,FEW 11   SCT 20   BKN 25,1,15,1,13,1021,ROYN 291200Z AUTO 03027KT 8000 FEW011 SCT020 BKN025 15/13     Q1021 RMK A3015=,
20180129_130000.002,0,ROYN,,,,1,20180129130000,-1,-1,-1,-1,20,-1,27,-1,-1,-1,-1,,9000,0,0,3,FEW 14   SCT 21   BKN 29,1,15,1,12,1021,ROYN 291300Z AUTO 02027KT 9000 FEW014 SCT021 BKN029 15/12     Q1021 RMK A3016=,
20180129_140000.002,0,ROYN,,,,1,20180129140000,-1,-1,-1,-1,40,-1,27,-1,-1,-1,-1,,9999,0,0,3,SCT 15   SCT 20   BKN 34,1,14,1,12,1021,ROYN 291400Z AUTO 04027KT 9999 SCT015 SCT020 BKN034 14/12     Q1021 RMK A3016=,
20180129_150000.002,0,ROYN,,,,1,20180129150000,-1,-1,-1,-1,30,-1,25,-1,-1,-1,-1,,8000,0,0,2,BKN 23   OVC 40,1,15,1,11,1021,ROYN 291500Z AUTO 03025KT 8000 BKN023 OVC040 15/11 Q1021 RMK     A3017=,
20180129_160000.002,0,ROYN,,,,1,20180129160000,-1,-1,-1,-1,30,-1,25,-1,-1,-1,-1,,5000,0,2,3,FEW 23   BKN 25   OVC 32,1,15,1,11,1021,ROYN 291600Z AUTO 03025KT 5000 -RA BR FEW023 BKN025 OVC032     15/11 Q1021 RMK A3017=,- RA; BR
20180129_170000.002,0,ROYN,,,,1,20180129170000,-1,-1,-1,-1,20,-1,22,-1,-1,-1,-1,,6000,0,0,3,FEW 14   SCT 28   BKN 32,1,14,1,12,1021,ROYN 291700Z AUTO 02022KT 6000 FEW014 SCT028 BKN032 14/12     Q1021 RMK A3016=,
20180129_180000.002,0,ROYN,,,,1,20180129180000,-1,-1,-1,-1,30,-1,22,-1,-1,-1,-1,,9999,0,0,3,FEW 22   SCT 26   BKN 30,1,15,1,12,1020,ROYN 291800Z AUTO 03022KT 9999 FEW022 SCT026 BKN030 15/12     Q1020 RMK A3015=,
20180129_190000.002,0,ROYN,,,,1,20180129190000,-1,-1,-1,-1,30,-1,24,-1,-1,-1,-1,,9999,0,0,3,FEW 21   SCT 32   BKN 34,1,15,1,12,1020,ROYN 291900Z AUTO 03024KT 9999 FEW021 SCT032 BKN034 15/12     Q1020 RMK A3015=,
20180129_200000.002,0,ROYN,,,,1,20180129200000,-1,-1,-1,-1,20,-1,24,-1,-1,-1,-1,,9999,0,0,3,SCT 22   BKN 29   OVC 35,1,15,1,12,1020,ROYN 292000Z AUTO 02024KT 9999 SCT022 BKN029 OVC035 15/12     Q1020 RMK A3014=,
20180129_210000.002,0,ROYN,,,,1,20180129210000,-1,-1,-1,-1,30,-1,23,-1,-1,-1,-1,,9999,0,0,3,FEW 23   SCT 29   OVC 36,1,15,1,12,1021,ROYN 292100Z AUTO 03023KT 9999 FEW023 SCT029 OVC036 15/12     Q1021 RMK A3016=,
20180129_220000.002,0,ROYN,,,,1,20180129220000,-1,-1,-1,-1,40,-1,22,-1,-1,-1,-1,,8000,0,0,3,BKN 21   BKN 27   OVC 45,1,15,1,12,1021,ROYN 292200Z AUTO 04022KT 8000 BKN021 BKN027 OVC045 15/12     Q1021 RMK A3016=,
20180129_230000.002,0,ROYN,,,,1,20180129230000,-1,-1,-1,-1,40,-1,22,-1,-1,-1,-1,,8000,0,0,3,SCT 24   BKN 26   OVC 34,1,15,1,12,1022,ROYN 292300Z AUTO 04022KT 8000 SCT024 BKN026 OVC034 15/12     Q1022 RMK A3019=,
20180130_000000.002,0,ROYN,,,,1,20180130000000,-1,-1,-1,-1,30,-1,22,-1,-1,-1,-1,,9000,0,0,3,BKN 23   BKN 25   OVC 46,1,15,1,12,1022,ROYN 300000Z AUTO 03022KT 9000 BKN023 BKN025 OVC046 15/12     Q1022 RMK A3021=,
20180130_010000.002,0,ROYN,,,,1,20180130010000,-1,-1,-1,-1,50,-1,20,-1,-1,-1,-1,,9999,0,0,3,FEW 18   SCT 22   BKN 38,1,16,1,12,1022,ROYN 300100Z AUTO 05020KT 9999 FEW018 SCT022 BKN038 16/12     Q1022 RMK A3020=,
20180130_020000.002,0,ROYN,,,,1,20180130020000,-1,-1,-1,-1,60,-1,18,-1,-1,-1,-1,,9999,0,0,3,SCT 25   BKN 29   BKN 32,1,16,1,12,1021,ROYN 300200Z AUTO 06018KT 9999 SCT025 BKN029 BKN032 16/12     Q1021 RMK A3017=,
20180130_030000.002,0,ROYN,,,,1,20180130030000,-1,-1,-1,-1,70,-1,15,-1,-1,-1,-1,,9999,0,0,3,SCT 26   BKN 33   BKN 36,1,17,1,12,1021,ROYN 300300Z AUTO 07015KT 9999 SCT026 BKN033 BKN036 17/12     Q1021 RMK A3015=,
20180130_040000.002,0,ROYN,,,,1,20180130040000,-1,-1,-1,-1,60,-1,17,-1,-1,-1,-1,,9999,0,0,3,FEW 25   SCT 30   BKN 32,1,17,1,12,1019,ROYN 300400Z AUTO 06017KT 9999 FEW025 SCT030 BKN032 17/12     Q1019 RMK A3012=,
20180130_050000.002,0,ROYN,,,,1,20180130050000,-1,-1,-1,-1,50,-1,17,-1,-1,-1,-1,,9999,0,0,3,BKN 25   BKN 29   OVC 31,1,17,1,12,1019,ROYN 300500Z AUTO 05017KT 9999 BKN025 BKN029 OVC031 17/12     Q1019 RMK A3010=,
20180130_060000.003,0,ROYN,,,,1,20180130060000,-1,-1,-1,-1,50,-1,16,-1,-1,-1,-1,,9999,0,0,3,SCT 25   BKN 30   OVC 40,1,17,1,13,1019,ROYN 300600Z AUTO 05016KT 9999 SCT025 BKN030 OVC040 17/13     Q1019 RMK A3009=,
20180130_070000.002,0,ROYN,,,,1,20180130070000,-1,-1,-1,-1,50,-1,18,-1,-1,-1,-1,,9999,0,0,3,FEW 21   SCT 27   BKN 29,1,17,1,13,1018,ROYN 300700Z AUTO 05018KT 9999 FEW021 SCT027 BKN029 17/13     Q1018 RMK A3007=,
20180130_080000.002,0,ROYN,,,,1,20180130080000,-1,-1,-1,-1,50,-1,19,-1,-1,-1,-1,,9999,0,0,3,SCT 23   BKN 26   BKN 31,1,17,1,14,1018,ROYN 300800Z AUTO 05019KT 9999 SCT023 BKN026 BKN031 17/14     Q1018 RMK A3006=,
20180130_090000.002,0,ROYN,,,,1,20180130090000,-1,-1,-1,-1,50,-1,20,-1,-1,-1,-1,,4000,0,1,2,BKN 15   OVC 31,1,16,1,15,1018,ROYN 300900Z AUTO 05020KT 4000 BR BKN015 OVC031 16/15 Q1018     RMK A3008=,BR
20180130_100000.002,0,ROYN,,,,1,20180130100000,-1,-1,-1,-1,60,-1,20,-1,-1,-1,-1,,7000,0,0,3,BKN 17   BKN 19   BKN 21,1,17,1,15,1018,ROYN 301000Z AUTO 06020KT 7000 BKN017 BKN019 BKN021 17/15     Q1018 RMK A3009=,
20180130_110000.002,0,ROYN,,,,1,20180130110000,-1,-1,-1,-1,60,-1,19,-1,-1,-1,-1,,3600,0,1,3,SCT 14   BKN 16   BKN 23,1,16,1,15,1019,ROYN 301100Z AUTO 06019KT 3600 BR SCT014 BKN016 BKN023 16/15     Q1019 RMK A3009=,BR
20180130_120000.002,0,ROYN,,,,1,20180130120000,-1,-1,-1,-1,60,-1,17,-1,-1,-1,-1,,2600,0,2,3,FEW 12   BKN 17   BKN 23,1,16,1,15,1019,ROYN 301200Z AUTO 06017KT 2600 -RA BR FEW012 BKN017 BKN023     16/15 Q1019 RMK A3011=,- RA; BR
20180130_130000.002,0,ROYN,,,,1,20180130130000,-1,-1,-1,-1,70,-1,19,-1,30,-1,-1,,4300,0,1,1,OVC 15,1,16,1,15,1019,ROYN 301300Z AUTO 07019G30KT 4300 BR OVC015 16/15 Q1019 RMK     A3011=,BR
20180130_140000.002,0,ROYN,,,,1,20180130140000,-1,-1,-1,-1,60,-1,18,-1,-1,-1,-1,,7000,0,0,4,BKN 14   BKN 21   OVC 50   /// -9999 TCU,1,17,1,16,1019,ROYN 301400Z AUTO 06018KT 7000 BKN014 BKN021 OVC050 //////TCU     17/16 Q1019 RMK A3010 TCU 25KM SW MOV UNKNOWN=,
20180130_150000.002,0,ROYN,,,,1,20180130150000,-1,-1,-1,-1,60,-1,17,-1,-1,-1,-1,,4400,0,2,3,FEW 9   SCT 11   BKN 17,1,17,1,16,1019,ROYN 301500Z AUTO 06017KT 4400 -RA BR FEW009 SCT011 BKN017     17/16 Q1019 RMK A3010=,- RA; BR
20180130_160000.002,0,ROYN,,,,1,20180130160000,-1,-1,-1,-1,80,-1,13,-1,-1,50,120,,6000,0,1,3,SCT 7   BKN 9   BKN 10,1,17,1,16,1019,ROYN 301600Z AUTO 08013KT 050V120 6000 -RA SCT007 BKN009     BKN010 17/16 Q1019 RMK A3009=,- RA
20180130_170000.002,0,ROYN,,,,1,20180130170000,-1,-1,-1,-1,100,-1,11,-1,-1,-1,-1,,8000,0,1,3,FEW 11   SCT 13   BKN 24,1,17,1,16,1019,ROYN 301700Z AUTO 10011KT 8000 -RA FEW011 SCT013 BKN024 17/16     Q1019 RMK A3009=,- RA
20180130_180000.002,0,ROYN,,,,1,20180130180000,-1,-1,-1,-1,100,-1,8,-1,-1,-1,-1,,9999,0,1,4,SCT 14   BKN 20   BKN 48   /// -9999 TCU,1,17,1,16,1018,ROYN 301800Z AUTO 10008KT 9999 -RA SCT014 BKN020 BKN048     //////TCU 17/16 Q1018 RMK A3008 TCU 40KM SE AND W MOV           UNKNOWN=,- RA
20180130_190000.002,0,ROYN,,,,1,20180130190000,-1,-1,-1,-1,90,-1,12,-1,-1,-1,-1,,8000,0,1,4,BKN 10   BKN 21   OVC 49   /// -9999 TCU,1,17,1,16,1018,ROYN 301900Z AUTO 09012KT 8000 -RA BKN010 BKN021 OVC049     //////TCU 17/16 Q1018 RMK A3007 TCU 15KM NW MOV UNKNOWN=,- RA
20180130_200000.002,0,ROYN,,,,1,20180130200000,-1,-1,-1,-1,90,-1,12,-1,-1,-1,-1,,9999,0,0,3,SCT 11   SCT 14   BKN 15,1,18,1,16,1018,ROYN 302000Z AUTO 09012KT 9999 SCT011 SCT014 BKN015 18/16     Q1018 RMK A3006=,
20180130_210000.002,0,ROYN,,,,1,20180130210000,-1,-1,-1,-1,90,-1,12,-1,-1,-1,-1,,9999,0,0,4,SCT 11   BKN 17   BKN 22   /// -9999 TCU,1,18,1,16,1017,ROYN 302100Z AUTO 09012KT 9999 SCT011 BKN017 BKN022 //////TCU     18/16 Q1017 RMK A3005 TCU 30KM S MOV E=,
20180130_220000.002,0,ROYN,,,,1,20180130220000,-1,-1,-1,-1,90,-1,10,-1,-1,-1,-1,,4400,0,2,4,FEW 7   BKN 10   BKN 17   /// -9999 TCU,1,18,1,17,1018,ROYN 302200Z AUTO 09010KT 4400 -RA BR FEW007 BKN010 BKN017     //////TCU 18/17 Q1018 RMK A3007 TCU 5KM S MOV E=,- RA; BR
20180130_230000.002,0,ROYN,,,,1,20180130230000,-1,-1,-1,-1,100,-1,5,-1,-1,-1,-1,,3700,0,2,4,FEW 8   SCT 11   BKN 19   /// -9999 TCU,1,18,1,16,1018,ROYN 302300Z AUTO 10005KT 3700 -RA BR FEW008 SCT011 BKN019     //////TCU 18/16 Q1018 RMK A3008 TCU 35KM W MOV UNKNOWN           AND 40KM S MOV E=,- RA; BR
20180131_000000.002,0,ROYN,,,,1,20180131000000,-1,-1,-1,-1,80,-1,8,-1,-1,-1,-1,,3500,0,2,4,FEW 5   SCT 25   BKN 35   /// -9999 TCU,1,18,1,17,1019,ROYN 310000Z AUTO 08008KT 3500 RA BR FEW005 SCT025 BKN035     //////TCU 18/17 Q1019 RMK A3010 RI004 TCU 20KM NE AND           40KM SE MOV NE AND 40KM W MOV UNKNOWN=,RA; BR
20180131_010000.002,0,ROYN,,,,1,20180131010000,-1,-1,-1,-1,80,-1,7,-1,-1,40,110,,4600,0,1,3,FEW 7   BKN 29   BKN 33,1,18,1,17,1019,ROYN 310100Z AUTO 08007KT 040V110 4600 BR FEW007 BKN029 BKN033     18/17 Q1019 RMK A3009=,BR
20180131_020000.002,0,ROYN,,,,1,20180131020000,-1,-1,-1,-1,80,-1,10,-1,-1,-1,-1,,9999,0,0,3,FEW 5   SCT 13   BKN 21,1,19,1,18,1018,ROYN 310200Z AUTO 08010KT 9999 FEW005 SCT013 BKN021 19/18     Q1018 RMK A3007=,
20180131_030000.002,0,ROYN,,,,1,20180131030000,-1,-1,-1,-1,80,-1,10,-1,-1,-1,-1,,4400,0,2,3,FEW 5   SCT 9   BKN 13,1,19,1,18,1017,ROYN 310300Z AUTO 08010KT 4400 -RA BR FEW005 SCT009 BKN013     19/18 Q1017 RMK A3005=,- RA; BR
20180131_040000.002,0,ROYN,,,,1,20180131040000,-1,-1,-1,-1,90,-1,10,-1,-1,-1,-1,,9999,0,0,3,SCT 5   BKN 7   BKN 80,1,20,1,18,1016,ROYN 310400Z AUTO 09010KT 9999 SCT005 BKN007 BKN080 20/18     Q1016 RMK A3001=,
20180131_050000.002,0,ROYN,,,,1,20180131050000,-1,-1,-1,-1,70,-1,8,-1,-1,-1,-1,,9999,0,0,3,BKN 9   BKN 10   OVC 80,1,20,1,19,1015,ROYN 310500Z AUTO 07008KT 9999 BKN009 BKN010 OVC080 20/19     Q1015 RMK A2997=,
20180131_060000.002,0,ROYN,,,,1,20180131060000,-1,-1,-1,-1,60,-1,7,-1,-1,-1,-1,,9999,0,0,4,FEW 7   SCT 11   BKN 13   /// -9999 TCU,1,21,1,19,1014,ROYN 310600Z AUTO 06007KT 9999 FEW007 SCT011 BKN013 //////TCU     21/19 Q1014 RMK A2995 TCU 25KM E MOV UNKNOWN=,
20180131_070000.003,0,ROYN,,,,1,20180131070000,-1,-1,-1,-1,50,-1,5,-1,-1,-1,-1,,9999,0,0,2,FEW 10   BKN 15,1,21,1,18,1014,ROYN 310700Z AUTO 05005KT 9999 FEW010 BKN015 21/18 Q1014 RMK     A2994=,
20180131_080000.003,0,ROYN,,,,1,20180131080000,-1,-1,-1,-1,40,-1,7,-1,-1,-1,-1,,9999,0,0,3,FEW 11   SCT 160   BKN 170,1,21,1,19,1013,ROYN 310800Z AUTO 04007KT 9999 FEW011 SCT160 BKN170 21/19     Q1013 RMK A2993=,
20180131_090000.002,0,ROYN,,,,1,20180131090000,-1,-1,-1,-1,20,-1,7,-1,-1,-1,-1,,9999,0,0,3,FEW 11   SCT 19   BKN 170,1,21,1,19,1014,ROYN 310900Z AUTO 02007KT 9999 FEW011 SCT019 BKN170 21/19     Q1014 RMK A2995=,
20180131_100000.002,0,ROYN,,,,1,20180131100000,-1,-1,-1,-1,30,-1,12,-1,-1,-1,-1,,7000,0,0,3,SCT 10   BKN 19   BKN 60,1,21,1,19,1014,ROYN 311000Z AUTO 03012KT 7000 SCT010 BKN019 BKN060 21/19     Q1014 RMK A2995=,
20180131_110000.002,0,ROYN,,,,1,20180131110000,-1,-1,-1,-1,30,-1,18,-1,-1,-1,-1,,9999,0,0,4,FEW 11   SCT 17   BKN 32   /// -9999 TCU,1,21,1,18,1014,ROYN 311100Z AUTO 03018KT 9999 FEW011 SCT017 BKN032 //////TCU     21/18 Q1014 RMK A2996 TCU 25KM W MOV UNKNOWN=,
20180131_120000.002,0,ROYN,,,,1,20180131120000,-1,-1,-1,-1,20,-1,26,-1,-1,-1,-1,,8000,0,0,1,OVC 10,1,20,1,18,1015,ROYN 311200Z AUTO 02026KT 8000 OVC010 20/18 Q1015 RMK A2999=,
20180131_130000.003,0,ROYN,,,,1,20180131130000,-1,-1,-1,-1,10,-1,32,-1,-1,-1,-1,,2400,0,1,3,BKN 8   OVC 13   /// -9999 TCU,1,19,1,18,1016,ROYN 311300Z AUTO 01032KT 2400 BR BKN008 OVC013 //////TCU     19/18 Q1016 RMK A3002 TCU 20KM S MOV UNKNOWN=,BR
20180131_140000.002,0,ROYN,,,,1,20180131140000,-1,-1,-1,-1,10,-1,34,-1,-1,-1,-1,,1900,0,1,3,BKN 6   OVC 15   /// -9999 TCU,1,17,1,16,1017,ROYN 311400Z AUTO 01034KT 1900 BR BKN006 OVC015 //////TCU     17/16 Q1017 RMK A3004 TCU 30KM S MOV UNKNOWN=,BR
20180131_150000.002,0,ROYN,,,,1,20180131150000,-1,-1,-1,-1,10,-1,34,-1,-1,-1,-1,,1400,0,1,3,FEW 6   BKN 9   BKN 10,1,16,1,15,1018,ROYN 311500Z AUTO 01034KT 1400 BR FEW006 BKN009 BKN010 16/15     Q1018 RMK A3008=,BR
20180131_160000.002,0,ROYN,,,,1,20180131160000,-1,-1,-1,-1,360,-1,34,-1,-1,-1,-1,,2600,0,1,3,FEW 6   SCT 10   BKN 13,1,15,1,14,1019,ROYN 311600Z AUTO 36034KT 2600 BR FEW006 SCT010 BKN013 15/14     Q1019 RMK A3010=,BR
20180131_170000.002,0,ROYN,,,,1,20180131170000,-1,-1,-1,-1,360,-1,34,-1,-1,-1,-1,,2800,0,1,3,FEW 11   SCT 13   BKN 24,1,15,1,13,1019,ROYN 311700Z AUTO 36034KT 2800 BR FEW011 SCT013 BKN024 15/13     Q1019 RMK A3010=,BR
20180131_180000.002,0,ROYN,,,,1,20180131180000,-1,-1,-1,-1,360,-1,34,-1,-1,-1,-1,,4300,0,1,3,FEW 11   SCT 13   BKN 17,1,15,1,13,1019,ROYN 311800Z AUTO 36034KT 4300 BR FEW011 SCT013 BKN017 15/13     Q1019 RMK A3011=,BR
20180131_190000.003,0,ROYN,,,,1,20180131190000,-1,-1,-1,-1,360,-1,33,-1,-1,-1,-1,,7000,0,0,3,FEW 11   BKN 15   BKN 35,1,15,1,13,1019,ROYN 311900Z AUTO 36033KT 7000 FEW011 BKN015 BKN035 15/13     Q1019 RMK A3010=,
20180131_200000.003,0,ROYN,,,,1,20180131200000,-1,-1,-1,-1,10,-1,32,-1,-1,-1,-1,,2400,0,1,3,SCT 18   BKN 24   BKN 26,1,15,1,13,1019,ROYN 312000Z AUTO 01032KT 2400 BR SCT018 BKN024 BKN026 15/13     Q1019 RMK A3010=,BR
20180131_210000.002,0,ROYN,,,,1,20180131210000,-1,-1,-1,-1,10,-1,32,-1,-1,-1,-1,,4700,0,1,3,BKN 17   BKN 26   OVC 32,1,15,1,13,1019,ROYN 312100Z AUTO 01032KT 4700 BR BKN017 BKN026 OVC032 15/13     Q1019 RMK A3010=,BR
20180131_220000.002,0,ROYN,,,,1,20180131220000,-1,-1,-1,-1,10,-1,30,-1,-1,-1,-1,,7000,0,0,3,SCT 18   BKN 24   OVC 33,1,16,1,12,1019,ROYN 312200Z AUTO 01030KT 7000 SCT018 BKN024 OVC033 16/12     Q1019 RMK A3011=,
20180131_230000.002,0,ROYN,,,,1,20180131230000,-1,-1,-1,-1,10,-1,28,-1,-1,-1,-1,,7000,0,0,2,SCT 22   OVC 29,1,16,1,13,1020,ROYN 312300Z AUTO 01028KT 7000 SCT022 OVC029 16/13 Q1020 RMK     A3012=,
20180201_000000.003,0,ROYN,,,,1,20180201000000,-1,-1,-1,-1,20,-1,28,-1,-1,-1,-1,,9999,0,0,3,FEW 18   BKN 20   BKN 27,1,15,1,12,1020,ROYN 010000Z AUTO 02028KT 9999 FEW018 BKN020 BKN027 15/12     Q1020 RMK A3014=,
20180201_010000.002,0,ROYN,,,,1,20180201010000,-1,-1,-1,-1,20,-1,25,-1,35,-1,-1,,8000,0,0,3,SCT 21   BKN 25   OVC 29,1,16,1,12,1021,ROYN 010100Z AUTO 02025G35KT 8000 SCT021 BKN025 OVC029 16/12     Q1021 RMK A3017=,
20180201_020000.002,0,ROYN,,,,1,20180201020000,-1,-1,-1,-1,20,-1,26,-1,-1,-1,-1,,7000,0,0,3,BKN 19   BKN 23   OVC 29,1,15,1,12,1022,ROYN 010200Z AUTO 02026KT 7000 BKN019 BKN023 OVC029 15/12     Q1022 RMK A3018=,
20180201_030000.003,0,ROYN,,,,1,20180201030000,-1,-1,-1,-1,20,-1,26,-1,-1,-1,-1,,4800,0,1,3,FEW 14   SCT 16   BKN 20,1,15,1,13,1021,ROYN 010300Z AUTO 02026KT 4800 BR FEW014 SCT016 BKN020 15/13     Q1021 RMK A3017=,BR
20180201_040000.003,0,ROYN,,,,1,20180201040000,-1,-1,-1,-1,20,-1,25,-1,-1,-1,-1,,7000,0,0,3,FEW 15   BKN 19   OVC 33,1,16,1,13,1020,ROYN 010400Z AUTO 02025KT 7000 FEW015 BKN019 OVC033 16/13     Q1020 RMK A3014=,
20180201_050000.002,0,ROYN,,,,1,20180201050000,-1,-1,-1,-1,20,-1,24,-1,-1,-1,-1,,4900,0,1,3,FEW 14   SCT 21   BKN 23,1,15,1,12,1019,ROYN 010500Z AUTO 02024KT 4900 BR FEW014 SCT021 BKN023 15/12     Q1019 RMK A3012=,BR
20180201_060000.002,0,ROYN,,,,1,20180201060000,-1,-1,-1,-1,20,-1,24,-1,-1,-1,-1,,6000,0,0,3,BKN 17   BKN 21   OVC 34,1,15,1,13,1019,ROYN 010600Z AUTO 02024KT 6000 BKN017 BKN021 OVC034 15/13     Q1019 RMK A3011=,
20180201_070000.002,0,ROYN,,,,1,20180201070000,-1,-1,-1,-1,20,-1,22,-1,-1,-1,-1,,7000,0,0,2,FEW 16   OVC 31,1,16,1,12,1019,ROYN 010700Z AUTO 02022KT 7000 FEW016 OVC031 16/12 Q1019 RMK     A3010=,
20180201_080000.002,0,ROYN,,,,1,20180201080000,-1,-1,-1,-1,40,-1,21,-1,-1,-1,-1,,6000,0,0,2,BKN 22   OVC 33,1,16,1,12,1020,ROYN 010800Z AUTO 04021KT 6000 BKN022 OVC033 16/12 Q1020 RMK     A3012=,
20180201_090000.002,0,ROYN,,,,1,20180201090000,-1,-1,-1,-1,20,-1,23,-1,-1,-1,-1,,7000,0,0,3,FEW 21   SCT 29   BKN 34,1,16,1,13,1020,ROYN 010900Z AUTO 02023KT 7000 FEW021 SCT029 BKN034 16/13     Q1020 RMK A3014=,
20180201_100000.002,0,ROYN,,,,1,20180201100000,-1,-1,-1,-1,20,-1,21,-1,-1,-1,-1,,9999,0,0,3,SCT 23   BKN 29   BKN 35,1,16,1,12,1020,ROYN 011000Z AUTO 02021KT 9999 SCT023 BKN029 BKN035 16/12     Q1020 RMK A3013=,
20180201_110000.002,0,ROYN,,,,1,20180201110000,-1,-1,-1,-1,30,-1,21,-1,-1,-1,-1,,8000,0,0,3,FEW 19   SCT 22   BKN 24,1,16,1,12,1020,ROYN 011100Z AUTO 03021KT 8000 FEW019 SCT022 BKN024 16/12     Q1020 RMK A3013=,
20180201_120000.002,0,ROYN,,,,1,20180201120000,-1,-1,-1,-1,30,-1,21,-1,-1,-1,-1,,9999,0,0,3,FEW 17   SCT 20   OVC 50,1,16,1,12,1021,ROYN 011200Z AUTO 03021KT 9999 FEW017 SCT020 OVC050 16/12     Q1021 RMK A3016=,
20180201_130000.002,0,ROYN,,,,1,20180201130000,-1,-1,-1,-1,20,-1,22,-1,-1,-1,-1,,8000,0,0,3,FEW 22   SCT 27   BKN 33,1,16,1,12,1022,ROYN 011300Z AUTO 02022KT 8000 FEW022 SCT027 BKN033 16/12     Q1022 RMK A3018=,
20180201_140000.002,0,ROYN,,,,1,20180201140000,-1,-1,-1,-1,20,-1,20,-1,-1,-1,-1,,9000,0,0,3,FEW 16   SCT 48   BKN 50,1,16,1,13,1022,ROYN 011400Z AUTO 02020KT 9000 FEW016 SCT048 BKN050 16/13     Q1022 RMK A3018=,
20180201_150000.002,0,ROYN,,,,1,20180201150000,-1,-1,-1,-1,30,-1,18,-1,-1,-1,-1,,8000,0,0,3,FEW 18   SCT 27   BKN 30,1,16,1,13,1022,ROYN 011500Z AUTO 03018KT 8000 FEW018 SCT027 BKN030 16/13     Q1022 RMK A3019=,
20180201_160000.002,0,ROYN,,,,1,20180201160000,-1,-1,-1,-1,40,-1,20,-1,-1,-1,-1,,7000,0,0,3,SCT 21   BKN 26   BKN 31,1,16,1,13,1022,ROYN 011600Z AUTO 04020KT 7000 SCT021 BKN026 BKN031 16/13     Q1022 RMK A3018=,
20180201_170000.002,0,ROYN,,,,1,20180201170000,-1,-1,-1,-1,40,-1,22,-1,-1,-1,-1,,9999,0,0,3,SCT 21   SCT 70   OVC 80,1,16,1,12,1021,ROYN 011700Z AUTO 04022KT 9999 SCT021 SCT070 OVC080 16/12     Q1021 RMK A3016=,
20180201_180000.002,0,ROYN,,,,1,20180201180000,-1,-1,-1,-1,30,-1,20,-1,-1,-1,-1,,9999,0,0,3,FEW 18   BKN 23   BKN 29,1,17,1,13,1021,ROYN 011800Z AUTO 03020KT 9999 FEW018 BKN023 BKN029 17/13     Q1021 RMK A3016=,
20180201_190000.003,0,ROYN,,,,1,20180201190000,-1,-1,-1,-1,40,-1,19,-1,-1,-1,-1,,9999,0,0,3,FEW 23   SCT 30   OVC 38,1,17,1,13,1021,ROYN 011900Z AUTO 04019KT 9999 FEW023 SCT030 OVC038 17/13     Q1021 RMK A3016=,
20180201_200000.003,0,ROYN,,,,1,20180201200000,-1,-1,-1,-1,40,-1,20,-1,-1,-1,-1,,9999,0,0,3,FEW 24   SCT 27   BKN 32,1,17,1,12,1021,ROYN 012000Z AUTO 04020KT 9999 FEW024 SCT027 BKN032 17/12     Q1021 RMK A3015=,
20180201_210000.002,0,ROYN,,,,1,20180201210000,-1,-1,-1,-1,60,-1,16,-1,-1,-1,-1,,9999,0,0,3,FEW 25   SCT 28   BKN 31,1,17,1,12,1020,ROYN 012100Z AUTO 06016KT 9999 FEW025 SCT028 BKN031 17/12     Q1020 RMK A3013=,
20180201_220000.002,0,ROYN,,,,1,20180201220000,-1,-1,-1,-1,60,-1,13,-1,-1,-1,-1,,7000,0,0,3,SCT 29   BKN 34   BKN 44,1,18,1,13,1021,ROYN 012200Z AUTO 06013KT 7000 SCT029 BKN034 BKN044 18/13     Q1021 RMK A3016=,
20180201_230000.003,0,ROYN,,,,1,20180201230000,-1,-1,-1,-1,40,-1,16,-1,-1,-1,-1,,9000,0,0,3,BKN 29   BKN 32   OVC 44,1,18,1,13,1021,ROYN 012300Z AUTO 04016KT 9000 BKN029 BKN032 OVC044 18/13     Q1021 RMK A3017=,
20180202_000000.002,0,ROYN,,,,1,20180202000000,-1,-1,-1,-1,40,-1,21,-1,-1,-1,-1,,8000,0,0,3,FEW 23   SCT 27   BKN 33,1,18,1,14,1021,ROYN 020000Z AUTO 04021KT 8000 FEW023 SCT027 BKN033 18/14     Q1021 RMK A3017=,
20180202_010000.002,0,ROYN,,,,1,20180202010000,-1,-1,-1,-1,40,-1,22,-1,-1,-1,-1,,9000,0,0,4,SCT 23   BKN 34   BKN 38   /// -9999 TCU,1,18,1,14,1022,ROYN 020100Z AUTO 04022KT 9000 SCT023 BKN034 BKN038 //////TCU     18/14 Q1022 RMK A3018 TCU 5KM SW MOV UNKNOWN=,
20180202_020000.002,0,ROYN,,,,1,20180202020000,-1,-1,-1,-1,30,-1,22,-1,-1,-1,-1,,9999,0,0,4,BKN 24   BKN 31   OVC 34   /// -9999 TCU,1,18,1,14,1022,ROYN 020200Z AUTO 03022KT 9999 BKN024 BKN031 OVC034 //////TCU     18/14 Q1022 RMK A3018 TCU 15KM S MOV UNKNOWN=,
20180202_030000.002,0,ROYN,,,,1,20180202030000,-1,-1,-1,-1,20,-1,21,-1,-1,-1,-1,,6000,0,0,4,SCT 23   BKN 26   OVC 29   /// -9999 TCU,1,18,1,14,1021,ROYN 020300Z AUTO 02021KT 6000 SCT023 BKN026 OVC029 //////TCU     18/14 Q1021 RMK A3017 TCU 25KM S MOV UNKNOWN=,
20180202_040000.002,0,ROYN,,,,1,20180202040000,-1,-1,-1,-1,30,-1,21,-1,-1,-1,-1,,8000,0,0,2,SCT 23   OVC 26,1,18,1,14,1020,ROYN 020400Z AUTO 03021KT 8000 SCT023 OVC026 18/14 Q1020 RMK     A3015=,
20180202_050000.001,0,ROYN,,,,1,20180202050000,-1,-1,-1,-1,30,-1,21,-1,-1,-1,-1,,9999,0,0,2,BKN 23   OVC 33,1,18,1,13,1020,ROYN 020500Z AUTO 03021KT 9999 BKN023 OVC033 18/13 Q1020 RMK     A3012=,
20180202_060000.002,0,ROYN,,,,1,20180202060000,-1,-1,-1,-1,20,-1,23,-1,-1,-1,-1,,9999,0,0,1,OVC 22,1,17,1,13,1020,ROYN 020600Z AUTO 02023KT 9999 OVC022 17/13 Q1020 RMK A3012=,
20180202_070000.002,0,ROYN,,,,1,20180202070000,-1,-1,-1,-1,10,-1,27,-1,-1,-1,-1,,6000,0,0,3,BKN 12   BKN 17   OVC 27,1,16,1,14,1020,ROYN 020700Z AUTO 01027KT 6000 BKN012 BKN017 OVC027 16/14     Q1020 RMK A3014=,
20180202_080000.002,0,ROYN,,,,1,20180202080000,-1,-1,-1,-1,10,-1,30,-1,-1,-1,-1,,4300,0,1,3,SCT 9   BKN 10   BKN 15,1,15,1,14,1021,ROYN 020800Z AUTO 01030KT 4300 BR SCT009 BKN010 BKN015 15/14     Q1021 RMK A3015=,BR
20180202_090000.002,0,ROYN,,,,1,20180202090000,-1,-1,-1,-1,20,-1,29,-1,-1,-1,-1,,8000,0,0,3,FEW 15   SCT 19   OVC 24,1,15,1,13,1021,ROYN 020900Z AUTO 02029KT 8000 FEW015 SCT019 OVC024 15/13     Q1021 RMK A3017=,
20180202_100000.003,0,ROYN,,,,1,20180202100000,-1,-1,-1,-1,10,-1,29,-1,-1,-1,-1,,6000,0,0,3,BKN 20   BKN 27   OVC 31,1,15,1,12,1022,ROYN 021000Z AUTO 01029KT 6000 BKN020 BKN027 OVC031 15/12     Q1022 RMK A3019=,
20180202_110000.002,0,ROYN,,,,1,20180202110000,-1,-1,-1,-1,10,-1,29,-1,-1,-1,-1,,9999,0,0,3,SCT 20   BKN 23   BKN 29,1,16,1,13,1022,ROYN 021100Z AUTO 01029KT 9999 SCT020 BKN023 BKN029 16/13     Q1022 RMK A3020=,
20180202_120000.002,0,ROYN,,,,1,20180202120000,-1,-1,-1,-1,10,-1,30,-1,-1,-1,-1,,5000,0,1,3,FEW 12   BKN 16   BKN 23,1,15,1,13,1023,ROYN 021200Z AUTO 01030KT 5000 BR FEW012 BKN016 BKN023 15/13     Q1023 RMK A3022=,BR
20180202_130000.003,0,ROYN,,,,1,20180202130000,-1,-1,-1,-1,20,-1,28,-1,-1,-1,-1,,9000,0,0,3,FEW 7   SCT 21   BKN 23,1,15,1,13,1023,ROYN 021300Z AUTO 02028KT 9000 FEW007 SCT021 BKN023 15/13     Q1023 RMK A3023=,
20180202_140000.002,0,ROYN,,,,1,20180202140000,-1,-1,-1,-1,10,-1,29,-1,43,-1,-1,,7000,0,0,3,FEW 15   SCT 21   BKN 26,1,14,1,12,1023,ROYN 021400Z AUTO 01029G43KT 7000 FEW015 SCT021 BKN026 14/12     Q1023 RMK A3023=,
20180202_150000.002,0,ROYN,,,,1,20180202150000,-1,-1,-1,-1,20,-1,26,-1,-1,-1,-1,,8000,0,0,3,SCT 27   BKN 36   OVC 42,1,15,1,11,1023,ROYN 021500Z AUTO 02026KT 8000 SCT027 BKN036 OVC042 15/11     Q1023 RMK A3023=,
20180202_160000.002,0,ROYN,,,,1,20180202160000,-1,-1,-1,-1,30,-1,25,-1,-1,-1,-1,,9999,0,0,3,SCT 25   BKN 27   BKN 32,1,15,1,11,1023,ROYN 021600Z AUTO 03025KT 9999 SCT025 BKN027 BKN032 15/11     Q1023 RMK A3023=,
20180202_170000.002,0,ROYN,,,,1,20180202170000,-1,-1,-1,-1,30,-1,24,-1,34,-1,-1,,5000,0,1,3,SCT 12   SCT 16   BKN 19,1,15,1,13,1023,ROYN 021700Z AUTO 03024G34KT 5000 BR SCT012 SCT016 BKN019     15/13 Q1023 RMK A3023=,BR
20180202_180000.003,0,ROYN,,,,1,20180202180000,-1,-1,-1,-1,10,-1,28,-1,-1,-1,-1,,6000,0,0,3,FEW 9   SCT 15   BKN 18,1,14,1,13,1023,ROYN 021800Z AUTO 01028KT 6000 FEW009 SCT015 BKN018 14/13     Q1023 RMK A3023=,
20180202_190000.003,0,ROYN,,,,1,20180202190000,-1,-1,-1,-1,10,-1,28,-1,-1,-1,-1,,8000,0,0,3,FEW 18   BKN 20   BKN 27,1,14,1,12,1023,ROYN 021900Z AUTO 01028KT 8000 FEW018 BKN020 BKN027 14/12     Q1023 RMK A3023=,
20180202_200000.003,0,ROYN,,,,1,20180202200000,-1,-1,-1,-1,10,-1,24,-1,-1,-1,-1,,9999,0,0,3,FEW 22   BKN 39   BKN 44,1,14,1,10,1023,ROYN 022000Z AUTO 01024KT 9999 FEW022 BKN039 BKN044 14/10     Q1023 RMK A3022=,
20180202_210000.002,0,ROYN,,,,1,20180202210000,-1,-1,-1,-1,20,-1,28,-1,-1,-1,-1,,9999,0,0,3,SCT 23   SCT 25   BKN 32,1,15,1,11,1023,ROYN 022100Z AUTO 02028KT 9999 SCT023 SCT025 BKN032 15/11     Q1023 RMK A3022=,
20180202_220000.002,0,ROYN,,,,1,20180202220000,-1,-1,-1,-1,20,-1,25,-1,-1,-1,-1,,9999,0,0,1,OVC 27,1,15,1,11,1023,ROYN 022200Z AUTO 02025KT 9999 OVC027 15/11 Q1023 RMK A3023=,
20180202_230000.003,0,ROYN,,,,1,20180202230000,-1,-1,-1,-1,30,-1,26,-1,-1,-1,-1,,7000,0,0,3,FEW 22   BKN 24   OVC 39,1,15,1,11,1024,ROYN 022300Z AUTO 03026KT 7000 FEW022 BKN024 OVC039 15/11     Q1024 RMK A3025=,
20180203_000000.002,0,ROYN,,,,1,20180203000000,-1,-1,-1,-1,20,-1,28,-1,-1,-1,-1,,7000,0,0,3,BKN 18   BKN 28   OVC 35,1,14,1,11,1024,ROYN 030000Z AUTO 02028KT 7000 BKN018 BKN028 OVC035 14/11     Q1024 RMK A3026=,
20180203_010000.003,0,ROYN,,,,1,20180203010000,-1,-1,-1,-1,20,-1,27,-1,-1,-1,-1,,8000,0,0,3,SCT 24   BKN 27   BKN 31,1,14,1,11,1025,ROYN 030100Z AUTO 02027KT 8000 SCT024 BKN027 BKN031 14/11     Q1025 RMK A3027=,
20180203_020000.002,0,ROYN,,,,1,20180203020000,-1,-1,-1,-1,10,-1,25,-1,-1,-1,-1,,7000,0,0,3,BKN 21   BKN 27   OVC 36,1,14,1,11,1025,ROYN 030200Z AUTO 01025KT 7000 BKN021 BKN027 OVC036 14/11     Q1025 RMK A3027=,
20180203_030000.002,0,ROYN,,,,1,20180203030000,-1,-1,-1,-1,20,-1,26,-1,-1,-1,-1,,7000,0,0,2,BKN 23   OVC 30,1,14,1,11,1024,ROYN 030300Z AUTO 02026KT 7000 BKN023 OVC030 14/11 Q1024 RMK     A3025=,
20180203_040000.002,0,ROYN,,,,1,20180203040000,-1,-1,-1,-1,20,-1,23,-1,-1,-1,-1,,9999,0,0,3,FEW 18   SCT 24   BKN 29,1,14,1,10,1023,ROYN 030400Z AUTO 02023KT 9999 FEW018 SCT024 BKN029 14/10     Q1023 RMK A3022=,
20180203_050000.002,0,ROYN,,,,1,20180203050000,-1,-1,-1,-1,20,-1,25,-1,-1,-1,-1,,5000,0,2,3,BKN 20   BKN 24   BKN 26,1,14,1,11,1022,ROYN 030500Z AUTO 02025KT 5000 -RA BR BKN020 BKN024 BKN026     14/11 Q1022 RMK A3020=,- RA; BR
20180203_060000.002,0,ROYN,,,,1,20180203060000,-1,-1,-1,-1,20,-1,24,-1,-1,-1,-1,,3900,0,1,3,SCT 14   BKN 18   OVC 41,1,14,1,12,1022,ROYN 030600Z AUTO 02024KT 3900 BR SCT014 BKN018 OVC041 14/12     Q1022 RMK A3020=,BR
20180203_070000.003,0,ROYN,,,,1,20180203070000,-1,-1,-1,-1,20,-1,24,-1,-1,-1,-1,,9999,0,0,3,BKN 17   BKN 23   BKN 27,1,14,1,11,1022,ROYN 030700Z AUTO 02024KT 9999 BKN017 BKN023 BKN027 14/11     Q1022 RMK A3018=,
20180203_080000.002,0,ROYN,,,,1,20180203080000,-1,-1,-1,-1,30,-1,25,-1,-1,-1,-1,,9999,0,0,3,SCT 21   SCT 27   BKN 31,1,14,1,10,1022,ROYN 030800Z AUTO 03025KT 9999 SCT021 SCT027 BKN031 14/10     Q1022 RMK A3018=,
20180203_090000.002,0,ROYN,,,,1,20180203090000,-1,-1,-1,-1,10,-1,26,-1,-1,-1,-1,,7000,0,0,3,FEW 17   SCT 32   BKN 34,1,14,1,11,1022,ROYN 030900Z AUTO 01026KT 7000 FEW017 SCT032 BKN034 14/11     Q1022 RMK A3019=,
20180203_100000.002,0,ROYN,,,,1,20180203100000,-1,-1,-1,-1,20,-1,27,-1,-1,-1,-1,,4200,0,1,3,BKN 11   BKN 15   BKN 24,1,13,1,12,1022,ROYN 031000Z AUTO 02027KT 4200 BR BKN011 BKN015 BKN024 13/12     Q1022 RMK A3020=,BR
20180203_110000.002,0,ROYN,,,,1,20180203110000,-1,-1,-1,-1,20,-1,28,-1,-1,-1,-1,,4100,0,1,2,BKN 11   OVC 35,1,13,1,12,1023,ROYN 031100Z AUTO 02028KT 4100 BR BKN011 OVC035 13/12 Q1023     RMK A3022=,BR
20180203_120000.002,0,ROYN,,,,1,20180203120000,-1,-1,-1,-1,20,-1,29,-1,-1,-1,-1,,3900,0,1,3,FEW 11   SCT 16   BKN 31,1,13,1,11,1024,ROYN 031200Z AUTO 02029KT 3900 BR FEW011 SCT016 BKN031 13/11     Q1024 RMK A3024=,BR
20180203_130000.002,0,ROYN,,,,1,20180203130000,-1,-1,-1,-1,20,-1,29,-1,-1,-1,-1,,5000,0,1,3,SCT 13   SCT 19   BKN 24,1,13,1,11,1024,ROYN 031300Z AUTO 02029KT 5000 BR SCT013 SCT019 BKN024 13/11     Q1024 RMK A3025=,BR
20180203_140000.002,0,ROYN,,,,1,20180203140000,-1,-1,-1,-1,20,-1,26,-1,-1,-1,-1,,9999,0,0,3,FEW 14   SCT 38   BKN 50,1,13,1,10,1024,ROYN 031400Z AUTO 02026KT 9999 FEW014 SCT038 BKN050 13/10     Q1024 RMK A3025=,
20180203_150000.002,0,ROYN,,,,1,20180203150000,-1,-1,-1,-1,20,-1,26,-1,-1,-1,-1,,9000,0,0,3,FEW 16   SCT 20   BKN 24,1,13,1,10,1024,ROYN 031500Z AUTO 02026KT 9000 FEW016 SCT020 BKN024 13/10     Q1024 RMK A3025=,
20180203_160000.002,0,ROYN,,,,1,20180203160000,-1,-1,-1,-1,20,-1,25,-1,-1,-1,-1,,9999,0,0,3,FEW 13   SCT 21   BKN 26,1,13,1,10,1024,ROYN 031600Z AUTO 02025KT 9999 FEW013 SCT021 BKN026 13/10     Q1024 RMK A3026=,
20180203_170000.002,0,ROYN,,,,1,20180203170000,-1,-1,-1,-1,20,-1,24,-1,-1,-1,-1,,8000,0,0,3,FEW 15   SCT 20   BKN 27,1,13,1,10,1024,ROYN 031700Z AUTO 02024KT 8000 FEW015 SCT020 BKN027 13/10     Q1024 RMK A3024=,
20180203_180000.003,0,ROYN,,,,1,20180203180000,-1,-1,-1,-1,10,-1,25,-1,-1,-1,-1,,9999,0,0,3,FEW 11   SCT 24   BKN 35,1,13,1,10,1023,ROYN 031800Z AUTO 01025KT 9999 FEW011 SCT024 BKN035 13/10     Q1023 RMK A3023=,
20180203_190000.002,0,ROYN,,,,1,20180203190000,-1,-1,-1,-1,30,-1,27,-1,-1,-1,-1,,3300,0,2,3,SCT 14   SCT 19   BKN 23,1,12,1,10,1023,ROYN 031900Z AUTO 03027KT 3300 -RA BR SCT014 SCT019 BKN023     12/10 Q1023 RMK A3022=,- RA; BR
20180203_200000.002,0,ROYN,,,,1,20180203200000,-1,-1,-1,-1,20,-1,23,-1,-1,-1,-1,,9999,0,0,3,FEW 17   SCT 40   BKN 46,1,13,1,10,1023,ROYN 032000Z AUTO 02023KT 9999 FEW017 SCT040 BKN046 13/10     Q1023 RMK A3022=,
20180203_210000.002,0,ROYN,,,,1,20180203210000,-1,-1,-1,-1,20,-1,25,-1,-1,-1,-1,,9999,0,0,2,FEW 18   OVC 49,1,13,1,9,1023,ROYN 032100Z AUTO 02025KT 9999 FEW018 OVC049 13/09 Q1023 RMK     A3023=,
20180203_220000.002,0,ROYN,,,,1,20180203220000,-1,-1,-1,-1,30,-1,27,-1,-1,-1,-1,,5000,0,1,3,SCT 16   BKN 20   BKN 34,1,13,1,10,1024,ROYN 032200Z AUTO 03027KT 5000 BR SCT016 BKN020 BKN034 13/10     Q1024 RMK A3024=,BR
20180203_230000.002,0,ROYN,,,,1,20180203230000,-1,-1,-1,-1,30,-1,25,-1,-1,-1,-1,,9000,0,0,3,FEW 15   BKN 25   BKN 27,1,13,1,10,1024,ROYN 032300Z AUTO 03025KT 9000 FEW015 BKN025 BKN027 13/10     Q1024 RMK A3025=,
20180204_000000.002,0,ROYN,,,,1,20180204000000,-1,-1,-1,-1,30,-1,23,-1,-1,-1,-1,,9999,0,0,3,BKN 22   BKN 38   BKN 46,1,13,1,10,1024,ROYN 040000Z AUTO 03023KT 9999 BKN022 BKN038 BKN046 13/10     Q1024 RMK A3025=,
20180204_010000.002,0,ROYN,,,,1,20180204010000,-1,-1,-1,-1,30,-1,23,-1,-1,-1,-1,,9999,0,0,3,FEW 24   SCT 28   BKN 42,1,14,1,10,1024,ROYN 040100Z AUTO 03023KT 9999 FEW024 SCT028 BKN042 14/10     Q1024 RMK A3026=,
20180204_020000.002,0,ROYN,,,,1,20180204020000,-1,-1,-1,-1,30,-1,25,-1,-1,-1,-1,,6000,0,0,3,SCT 25   SCT 32   BKN 36,1,14,1,10,1024,ROYN 040200Z AUTO 03025KT 6000 SCT025 SCT032 BKN036 14/10     Q1024 RMK A3026=,
20180204_030000.002,0,ROYN,,,,1,20180204030000,-1,-1,-1,-1,40,-1,23,-1,-1,-1,-1,,7000,0,0,3,SCT 21   BKN 27   BKN 32,1,13,1,10,1024,ROYN 040300Z AUTO 04023KT 7000 SCT021 BKN027 BKN032 13/10     Q1024 RMK A3025=,
20180204_040000.002,0,ROYN,,,,1,20180204040000,-1,-1,-1,-1,30,-1,26,-1,-1,-1,-1,,6000,0,0,3,BKN 13   BKN 23   OVC 45,1,13,1,11,1023,ROYN 040400Z AUTO 03026KT 6000 BKN013 BKN023 OVC045 13/11     Q1023 RMK A3023=,
20180204_050000.002,0,ROYN,,,,1,20180204050000,-1,-1,-1,-1,30,-1,24,-1,-1,-1,-1,,9999,0,0,3,FEW 17   SCT 26   BKN 33,1,13,1,9,1022,ROYN 040500Z AUTO 03024KT 9999 FEW017 SCT026 BKN033 13/09     Q1022 RMK A3021=,
20180204_060000.002,0,ROYN,,,,1,20180204060000,-1,-1,-1,-1,30,-1,21,-1,-1,-1,-1,,9999,0,0,3,FEW 20   SCT 35   OVC 44,1,13,1,10,1022,ROYN 040600Z AUTO 03021KT 9999 FEW020 SCT035 OVC044 13/10     Q1022 RMK A3019=,
20180204_070000.002,0,ROYN,,,,1,20180204070000,-1,-1,-1,-1,10,-1,23,-1,34,-1,-1,,7000,0,0,3,FEW 13   BKN 22   BKN 25,1,13,1,11,1022,ROYN 040700Z AUTO 01023G34KT 7000 FEW013 BKN022 BKN025 13/11     Q1022 RMK A3018=,
20180204_080000.002,0,ROYN,,,,1,20180204080000,-1,-1,-1,-1,20,-1,30,-1,-1,-1,-1,,4900,0,1,3,SCT 14   BKN 22   BKN 29,1,12,1,10,1022,ROYN 040800Z AUTO 02030KT 4900 BR SCT014 BKN022 BKN029 12/10     Q1022 RMK A3021=,BR
20180204_090000.002,0,ROYN,,,,1,20180204090000,-1,-1,-1,-1,20,-1,26,-1,-1,-1,-1,,9999,0,0,3,BKN 22   BKN 34   BKN 42,1,13,1,10,1023,ROYN 040900Z AUTO 02026KT 9999 BKN022 BKN034 BKN042 13/10     Q1023 RMK A3022=,
20180204_100000.002,0,ROYN,,,,1,20180204100000,-1,-1,-1,-1,10,-1,26,-1,-1,-1,-1,,8000,0,0,3,FEW 15   BKN 35   BKN 40,1,13,1,10,1023,ROYN 041000Z AUTO 01026KT 8000 FEW015 BKN035 BKN040 13/10     Q1023 RMK A3023=,
20180204_110000.003,0,ROYN,,,,1,20180204110000,-1,-1,-1,-1,30,-1,26,-1,-1,-1,-1,,7000,0,0,3,BKN 20   BKN 27   OVC 48,1,13,1,10,1024,ROYN 041100Z AUTO 03026KT 7000 BKN020 BKN027 OVC048 13/10     Q1024 RMK A3026=,
20180204_120000.002,0,ROYN,,,,1,20180204120000,-1,-1,-1,-1,20,-1,28,-1,-1,-1,-1,,5000,0,1,3,FEW 18   BKN 21   BKN 27,1,13,1,10,1024,ROYN 041200Z AUTO 02028KT 5000 BR FEW018 BKN021 BKN027 13/10     Q1024 RMK A3026=,BR
20180204_130000.002,0,ROYN,,,,1,20180204130000,-1,-1,-1,-1,30,-1,25,-1,-1,-1,-1,,8000,0,0,3,BKN 22   BKN 29   OVC 50,1,13,1,10,1024,ROYN 041300Z AUTO 03025KT 8000 BKN022 BKN029 OVC050 13/10     Q1024 RMK A3026=,
20180204_140000.002,0,ROYN,,,,1,20180204140000,-1,-1,-1,-1,20,-1,25,-1,-1,-1,-1,,9999,0,0,3,FEW 18   BKN 50   OVC 60,1,13,1,10,1025,ROYN 041400Z AUTO 02025KT 9999 FEW018 BKN050 OVC060 13/10     Q1025 RMK A3027=,
20180204_150000.002,0,ROYN,,,,1,20180204150000,-1,-1,-1,-1,30,-1,28,-1,-1,-1,-1,,8000,0,0,3,BKN 20   BKN 29   OVC 60,1,13,1,10,1024,ROYN 041500Z AUTO 03028KT 8000 BKN020 BKN029 OVC060 13/10     Q1024 RMK A3026=,
20180204_160000.002,0,ROYN,,,,1,20180204160000,-1,-1,-1,-1,30,-1,25,-1,-1,-1,-1,,8000,0,0,3,FEW 21   SCT 25   BKN 34,1,13,1,10,1024,ROYN 041600Z AUTO 03025KT 8000 FEW021 SCT025 BKN034 13/10     Q1024 RMK A3026=,
20180204_170000.002,0,ROYN,,,,1,20180204170000,-1,-1,-1,-1,30,-1,25,-1,-1,-1,-1,,6000,0,0,3,SCT 20   SCT 23   BKN 27,1,12,1,9,1024,ROYN 041700Z AUTO 03025KT 6000 SCT020 SCT023 BKN027 12/09     Q1024 RMK A3025=,
20180204_180000.003,0,ROYN,,,,1,20180204180000,-1,-1,-1,-1,20,-1,23,-1,-1,-1,-1,,9999,0,0,3,FEW 20   SCT 29   BKN 40,1,13,1,9,1023,ROYN 041800Z AUTO 02023KT 9999 FEW020 SCT029 BKN040 13/09     Q1023 RMK A3023=,
20180204_190000.002,0,ROYN,,,,1,20180204190000,-1,-1,-1,-1,20,-1,25,-1,-1,-1,-1,,9000,0,1,3,FEW 21   SCT 32   BKN 34,1,12,1,9,1023,ROYN 041900Z AUTO 02025KT 9000 -RA FEW021 SCT032 BKN034 12/09     Q1023 RMK A3023=,- RA
20180204_200000.002,0,ROYN,,,,1,20180204200000,-1,-1,-1,-1,30,-1,24,-1,-1,-1,-1,,9999,0,1,3,FEW 23   SCT 29   BKN 41,1,12,1,9,1023,ROYN 042000Z AUTO 03024KT 9999 -RA FEW023 SCT029 BKN041 12/09     Q1023 RMK A3022=,- RA
20180204_210000.002,0,ROYN,,,,1,20180204210000,-1,-1,-1,-1,20,-1,25,-1,-1,-1,-1,,9000,0,1,3,SCT 19   BKN 22   OVC 42,1,13,1,10,1023,ROYN 042100Z AUTO 02025KT 9000 -RA SCT019 BKN022 OVC042 13/10     Q1023 RMK A3023=,- RA
20180204_220000.002,0,ROYN,,,,1,20180204220000,-1,-1,-1,-1,20,-1,26,-1,-1,-1,-1,,3800,0,2,3,BKN 20   BKN 26   OVC 32,1,12,1,10,1024,ROYN 042200Z AUTO 02026KT 3800 -RA BR BKN020 BKN026 OVC032     12/10 Q1024 RMK A3024=,- RA; BR
20180204_230000.002,0,ROYN,,,,1,20180204230000,-1,-1,-1,-1,10,-1,26,-1,-1,-1,-1,,7000,0,1,3,BKN 18   BKN 29   BKN 32,1,12,1,10,1024,ROYN 042300Z AUTO 01026KT 7000 -RA BKN018 BKN029 BKN032 12/10     Q1024 RMK A3026=,- RA
20180205_000000.003,0,ROYN,,,,1,20180205000000,-1,-1,-1,-1,20,-1,26,-1,-1,-1,-1,,6000,0,1,3,FEW 14   SCT 19   BKN 42,1,12,1,10,1024,ROYN 050000Z AUTO 02026KT 6000 -RA FEW014 SCT019 BKN042 12/10     Q1024 RMK A3026=,- RA
20180205_010000.002,0,ROYN,,,,1,20180205010000,-1,-1,-1,-1,10,-1,27,-1,-1,-1,-1,,9999,0,1,3,FEW 23   SCT 25   BKN 31,1,13,1,9,1025,ROYN 050100Z AUTO 01027KT 9999 -RA FEW023 SCT025 BKN031 13/09     Q1025 RMK A3028=,- RA
20180205_020000.002,0,ROYN,,,,1,20180205020000,-1,-1,-1,-1,10,-1,25,-1,-1,-1,-1,,9999,0,0,3,FEW 20   SCT 29   BKN 35,1,13,1,9,1025,ROYN 050200Z AUTO 01025KT 9999 FEW020 SCT029 BKN035 13/09     Q1025 RMK A3028=,
