20170101_000000.002,0,RJTF,,,,0,20170101000000,-1,-1,-1,-1,320,-1,3,-1,-1,290,360,CAVOK,-1,0,0,0,,1,7,-1,1,1023,RJTF 010000Z 32003KT 290V360 CAVOK 07/M01 Q1023 RMK A3023=
20170101_010000.002,0,RJTF,,,,0,20170101010000,-1,-1,-1,-1,350,-1,6,-1,-1,-1,-1,CAVOK,-1,0,0,0,,1,11,-1,1,1023,RJTF 010100Z 35006KT CAVOK 11/M01 Q1023 RMK A3023=
20170101_020000.002,0,RJTF,,,,0,20170101020000,-1,-1,-1,-1,10,-1,9,-1,-1,-1,-1,CAVOK,-1,0,0,0,,1,12,-1,3,1022,RJTF 010200Z 01009KT CAVOK 12/M03 Q1022 RMK A3020=
20170101_030000.002,0,RJTF,,,,0,20170101030000,-1,-1,-1,-1,360,-1,6,-1,-1,320,40,,9999,0,0,1,FEW 30,1,13,-1,3,1021,RJTF 010300Z 36006KT 320V040 9999 FEW030 13/M03 Q1021 RMK     1CU030 A3017=
20170101_040000.002,0,RJTF,,,,0,20170101040000,-1,-1,-1,-1,30,-1,4,-1,-1,330,140,,9999,0,0,1,FEW 30,1,13,-1,4,1021,RJTF 010400Z 03004KT 330V140 9999 FEW030 13/M04 Q1021 RMK     1CU030 A3016=
20170101_050000.002,0,RJTF,,,,0,20170101050000,-1,-1,-1,-1,999,-1,2,-1,-1,-1,-1,,9999,0,0,1,FEW 30,1,13,-1,4,1020,RJTF 010500Z VRB02KT 9999 FEW030 13/M04 Q1020 RMK 1CU030     A3014=
20170101_060000.002,0,RJTF,,,,0,20170101060000,-1,-1,-1,-1,120,-1,3,-1,-1,40,210,,9999,0,0,1,FEW 30,1,14,-1,4,1021,RJTF 010600Z 12003KT 040V210 9999 FEW030 14/M04 Q1021 RMK     1CU030 A3016=
20170101_070000.002,0,RJTF,,,,0,20170101070000,-1,-1,-1,-1,140,-1,5,-1,-1,100,170,CAVOK,-1,0,0,0,,1,13,-1,3,1022,RJTF 010700Z 14005KT 100V170 CAVOK 13/M03 Q1022 RMK A3018=
20170101_080000.002,0,RJTF,,,,0,20170101080000,-1,-1,-1,-1,-1,-1,-1,-1,-1,-1,-1,,-1,0,0,0,,0,-1,0,-1,-1,RJTF 010800Z NIL=
20170101_090000.002,0,RJTF,,,,0,20170101090000,-1,-1,-1,-1,-1,-1,-1,-1,-1,-1,-1,,-1,0,0,0,,0,-1,0,-1,-1,RJTF 010900Z NIL=
20170101_233000.001,0,RJTF,,,,0,20170101230000,-1,-1,-1,-1,999,-1,2,-1,-1,-1,-1,,9999,0,0,3,FEW 30   SCT 50   BKN -9999,1,5,-1,0,1020,RJTF 012330Z VRB02KT 9999 FEW030 SCT050 BKN/// 05/M00 Q1020     RMK 2CU030 4SC050 A3013=
20170102_000000.003,0,RJTF,,,,0,20170102000000,-1,-1,-1,-1,999,-1,1,-1,-1,-1,-1,,9999,0,0,3,FEW 35   SCT 50   BKN -9999,1,5,1,0,1020,RJTF 020000Z VRB01KT 9999 FEW035 SCT050 BKN/// 05/00 Q1020 RMK     1CU035 3SC050 A3012=
20170102_010000.003,0,RJTF,,,,0,20170102010000,-1,-1,-1,-1,999,-1,1,-1,-1,-1,-1,,9999,0,0,2,FEW 35   SCT 45,1,7,1,0,1019,RJTF 020100Z VRB01KT 9999 FEW035 SCT045 07/00 Q1019 RMK 2CU035     3SC045 A3010=
20170102_020000.004,0,RJTF,,,,0,20170102020000,-1,-1,-1,-1,999,-1,2,-1,-1,-1,-1,,9999,0,0,1,SCT 35,1,10,-1,1,1017,RJTF 020200Z VRB02KT 9999 SCT035 10/M01 Q1017 RMK 3CU035     A3006=
20170102_030000.002,0,RJTF,,,,0,20170102030000,-1,-1,-1,-1,20,-1,4,-1,-1,310,80,,9999,0,0,2,FEW 35   SCT -9999,1,11,-1,2,1016,RJTF 020300Z 02004KT 310V080 9999 FEW035 SCT/// 11/M02 Q1016     RMK 2CU035 A3002=
20170102_040000.002,0,RJTF,,,,0,20170102040000,-1,-1,-1,-1,30,-1,4,-1,-1,320,100,,9999,0,0,2,FEW 35   SCT -9999,1,13,-1,1,1015,RJTF 020400Z 03004KT 320V100 9999 FEW035 SCT/// 13/M01 Q1015     RMK 2CU035 A2998=
20170102_050000.003,0,RJTF,,,,0,20170102050000,-1,-1,-1,-1,40,-1,6,-1,-1,330,110,,9999,0,0,2,FEW 30   SCT -9999,1,13,-1,0,1014,RJTF 020500Z 04006KT 330V110 9999 FEW030 SCT/// 13/M00 Q1014     RMK 1CU030 A2996=
20170102_060000.003,0,RJTF,,,,0,20170102060000,-1,-1,-1,-1,999,-1,1,-1,-1,-1,-1,,9999,0,0,1,FEW 30,1,13,1,0,1014,RJTF 020600Z VRB01KT 9999 FEW030 13/00 Q1014 RMK 1CU030 A2995=
20170102_070000.003,0,RJTF,,,,0,20170102070000,-1,-1,-1,-1,340,-1,2,-1,-1,-1,-1,CAVOK,-1,0,0,0,,1,13,1,0,1014,RJTF 020700Z 34002KT CAVOK 13/00 Q1014 RMK A2995=
20170102_080000.002,0,RJTF,,,,0,20170102080000,-1,-1,-1,-1,-1,-1,-1,-1,-1,-1,-1,,-1,0,0,0,,0,-1,0,-1,-1,RJTF 020800Z NIL=
20170102_090000.004,0,RJTF,,,,0,20170102090000,-1,-1,-1,-1,-1,-1,-1,-1,-1,-1,-1,,-1,0,0,0,,0,-1,0,-1,-1,RJTF 020900Z NIL=
20170102_233000.001,0,RJTF,,,,0,20170102230000,-1,-1,-1,-1,30,-1,5,-1,-1,-1,-1,,9999,0,0,1,FEW 30,1,7,1,0,1014,RJTF 022330Z 03005KT 9999 FEW030 07/00 Q1014 RMK 1CU030 A2995=
20170103_000000.002,0,RJTF,,,,0,20170103000000,-1,-1,-1,-1,20,-1,7,-1,-1,360,80,,9999,0,0,1,FEW 30,1,8,-1,0,1014,RJTF 030000Z 02007KT 360V080 9999 FEW030 08/M00 Q1014 RMK     1CU030 A2997=
20170103_010000.002,0,RJTF,,,,0,20170103010000,-1,-1,-1,-1,30,-1,8,-1,-1,340,60,,9999,0,0,1,FEW 30,1,10,-1,0,1014,RJTF 030100Z 03008KT 340V060 9999 FEW030 10/M00 Q1014 RMK     1CU030 A2997=
20170103_020000.003,0,RJTF,,,,0,20170103020000,-1,-1,-1,-1,360,-1,11,-1,-1,320,30,,9999,0,0,1,FEW 30,1,13,-1,2,1013,RJTF 030200Z 36011KT 320V030 9999 FEW030 13/M02 Q1013 RMK     1CU030 A2994=
20170103_030000.002,0,RJTF,,,,0,20170103030000,-1,-1,-1,-1,350,-1,13,-1,-1,-1,-1,,9999,0,0,1,FEW 30,1,13,-1,3,1012,RJTF 030300Z 35013KT 9999 FEW030 13/M03 Q1012 RMK 1CU030     A2991=
20170103_040000.002,0,RJTF,,,,0,20170103040000,-1,-1,-1,-1,360,-1,14,-1,-1,-1,-1,,9999,0,0,1,FEW 30,1,14,-1,4,1012,RJTF 030400Z 36014KT 9999 FEW030 14/M04 Q1012 RMK 1CU030     A2990=
20170103_050000.002,0,RJTF,,,,0,20170103050000,-1,-1,-1,-1,10,-1,12,-1,-1,330,30,,9999,0,0,1,FEW 30,1,14,-1,5,1012,RJTF 030500Z 01012KT 330V030 9999 FEW030 14/M05 Q1012 RMK     2CU030 A2990=
20170103_060000.002,0,RJTF,,,,0,20170103060000,-1,-1,-1,-1,10,-1,13,-1,-1,-1,-1,,9999,0,0,2,FEW 30   SCT 80,1,12,-1,4,1013,RJTF 030600Z 01013KT 9999 FEW030 SCT080 12/M04 Q1013 RMK     1CU030 3AC080 A2992=
20170103_070000.002,0,RJTF,,,,0,20170103070000,-1,-1,-1,-1,360,-1,10,-1,-1,-1,-1,,9999,0,0,1,FEW 30,1,11,-1,4,1014,RJTF 030700Z 36010KT 9999 FEW030 11/M04 Q1014 RMK 1CU030     A2995=
20170103_080000.003,0,RJTF,,,,0,20170103080000,-1,-1,-1,-1,-1,-1,-1,-1,-1,-1,-1,,-1,0,0,0,,0,-1,0,-1,-1,RJTF 030800Z NIL=
20170103_090000.003,0,RJTF,,,,0,20170103090000,-1,-1,-1,-1,-1,-1,-1,-1,-1,-1,-1,,-1,0,0,0,,0,-1,0,-1,-1,RJTF 030900Z NIL=
20170103_233000.001,0,RJTF,,,,0,20170103230000,-1,-1,-1,-1,30,-1,2,-1,-1,-1,-1,CAVOK,-1,0,0,0,,1,5,-1,0,1015,RJTF 032330Z 03002KT CAVOK 05/M00 Q1015 RMK A2997=
20170104_000000.002,0,RJTF,,,,0,20170104000000,-1,-1,-1,-1,999,-1,1,-1,-1,-1,-1,CAVOK,-1,0,0,0,,1,7,-1,1,1014,RJTF 040000Z VRB01KT CAVOK 07/M01 Q1014 RMK A2997=
20170104_010000.003,0,RJTF,,,,0,20170104010000,-1,-1,-1,-1,170,-1,8,-1,-1,-1,-1,CAVOK,-1,0,0,0,,1,10,-1,1,1013,RJTF 040100Z 17008KT CAVOK 10/M01 Q1013 RMK A2993=
20170104_020000.003,0,RJTF,,,,0,20170104020000,-1,-1,-1,-1,200,-1,9,-1,-1,170,230,,9999,0,0,1,FEW 30,1,12,1,1,1011,RJTF 040200Z 20009KT 170V230 9999 FEW030 12/01 Q1011 RMK     1CU030 A2988=
20170104_030000.002,0,RJTF,,,,0,20170104030000,-1,-1,-1,-1,190,-1,7,-1,-1,160,220,,9999,0,0,1,FEW 30,1,13,1,1,1010,RJTF 040300Z 19007KT 160V220 9999 FEW030 13/01 Q1010 RMK     1CU030 A2984=
20170104_040000.002,0,RJTF,,,,0,20170104040000,-1,-1,-1,-1,180,-1,5,-1,-1,110,230,CAVOK,-1,0,0,0,,1,13,1,0,1010,RJTF 040400Z 18005KT 110V230 CAVOK 13/00 Q1010 RMK A2982=
20170104_050000.002,0,RJTF,,,,0,20170104050000,-1,-1,-1,-1,999,-1,3,-1,-1,-1,-1,,9999,0,0,1,FEW 30,1,14,1,0,1009,RJTF 040500Z VRB03KT 9999 FEW030 14/00 Q1009 RMK 1CU030 A2982=
20170104_060000.003,0,RJTF,,,,0,20170104060000,-1,-1,-1,-1,999,-1,2,-1,-1,-1,-1,,9999,0,0,1,FEW 30,1,15,-1,0,1010,RJTF 040600Z VRB02KT 9999 FEW030 15/M00 Q1010 RMK 1CU030     A2984=
20170104_070000.002,0,RJTF,,,,0,20170104070000,-1,-1,-1,-1,360,-1,12,-1,22,-1,-1,,9999,0,0,1,FEW 30,1,13,-1,2,1011,RJTF 040700Z 36012G22KT 9999 FEW030 13/M02 Q1011 RMK 1CU030     A2986=
20170104_080000.003,0,RJTF,,,,0,20170104080000,-1,-1,-1,-1,-1,-1,-1,-1,-1,-1,-1,,-1,0,0,0,,0,-1,0,-1,-1,RJTF 040800Z NIL=
20170104_090000.002,0,RJTF,,,,0,20170104090000,-1,-1,-1,-1,-1,-1,-1,-1,-1,-1,-1,,-1,0,0,0,,0,-1,0,-1,-1,RJTF 040900Z NIL=
20170104_233000.001,0,RJTF,,,,0,20170104230000,-1,-1,-1,-1,360,-1,13,-1,-1,-1,-1,,9999,0,0,1,FEW 30,1,8,-1,10,1017,RJTF 042330Z 36013KT 9999 FEW030 08/M10 Q1017 RMK 1CU030     A3005=
20170105_000000.002,0,RJTF,,,,0,20170105000000,-1,-1,-1,-1,360,-1,13,-1,-1,-1,-1,,9999,0,0,1,FEW 30,1,9,-1,9,1018,RJTF 050000Z 36013KT 9999 FEW030 09/M09 Q1018 RMK 1CU030     A3006=
20170105_010000.003,0,RJTF,,,,0,20170105010000,-1,-1,-1,-1,360,-1,14,-1,-1,-1,-1,,9999,0,0,1,FEW 30,1,8,-1,7,1018,RJTF 050100Z 36014KT 9999 FEW030 08/M07 Q1018 RMK 1CU030     A3006=
20170105_020000.002,0,RJTF,,,,0,20170105020000,-1,-1,-1,-1,350,-1,13,-1,-1,-1,-1,,9999,0,0,1,FEW 30,1,10,-1,5,1017,RJTF 050200Z 35013KT 9999 FEW030 10/M05 Q1017 RMK 1CU030     A3005=
20170105_030000.003,0,RJTF,,,,0,20170105030000,-1,-1,-1,-1,360,-1,13,-1,-1,320,30,,9999,0,0,1,FEW 30,1,10,-1,6,1016,RJTF 050300Z 36013KT 320V030 9999 FEW030 10/M06 Q1016 RMK     1CU030 A3002=
20170105_040000.002,0,RJTF,,,,0,20170105040000,-1,-1,-1,-1,360,-1,15,-1,-1,320,30,,9999,0,0,1,FEW 30,1,10,-1,6,1016,RJTF 050400Z 36015KT 320V030 9999 FEW030 10/M06 Q1016 RMK     1CU030 A3002=
20170105_050000.003,0,RJTF,,,,0,20170105050000,-1,-1,-1,-1,10,-1,17,-1,27,330,30,,9999,0,0,1,FEW 30,1,9,-1,7,1016,RJTF 050500Z 01017G27KT 330V030 9999 FEW030 09/M07 Q1016 RMK     1CU030 A3002=
20170105_060000.003,0,RJTF,,,,0,20170105060000,-1,-1,-1,-1,360,-1,17,-1,-1,-1,-1,,9999,0,0,1,FEW 30,1,9,-1,7,1017,RJTF 050600Z 36017KT 9999 FEW030 09/M07 Q1017 RMK 1CU030     A3003=
20170105_070000.002,0,RJTF,,,,0,20170105070000,-1,-1,-1,-1,10,-1,14,-1,-1,-1,-1,,9999,0,0,1,FEW 30,1,8,-1,7,1017,RJTF 050700Z 01014KT 9999 FEW030 08/M07 Q1017 RMK 1CU030     A3005=
20170105_080000.002,0,RJTF,,,,0,20170105080000,-1,-1,-1,-1,-1,-1,-1,-1,-1,-1,-1,,-1,0,0,0,,0,-1,0,-1,-1,RJTF 050800Z NIL=
20170105_090000.003,0,RJTF,,,,0,20170105090000,-1,-1,-1,-1,-1,-1,-1,-1,-1,-1,-1,,-1,0,0,0,,0,-1,0,-1,-1,RJTF 050900Z NIL=
20170105_233000.001,0,RJTF,,,,0,20170105230000,-1,-1,-1,-1,30,-1,7,-1,-1,-1,-1,,9999,0,0,2,FEW 30   BKN -9999,1,4,-1,7,1024,RJTF 052330Z 03007KT 9999 FEW030 BKN/// 04/M07 Q1024 RMK     1CU030 A3026=
20170106_000000.002,0,RJTF,,,,0,20170106000000,-1,-1,-1,-1,10,-1,9,-1,-1,-1,-1,,9999,0,0,2,FEW 30   SCT -9999,1,5,-1,8,1025,RJTF 060000Z 01009KT 9999 FEW030 SCT/// 05/M08 Q1025 RMK     1CU030 A3027=
20170106_010000.003,0,RJTF,,,,0,20170106010000,-1,-1,-1,-1,10,-1,9,-1,-1,340,40,,9999,0,0,2,FEW 30   SCT -9999,1,6,-1,8,1025,RJTF 060100Z 01009KT 340V040 9999 FEW030 SCT/// 06/M08 Q1025     RMK 1CU030 A3027=
20170106_020000.002,0,RJTF,,,,0,20170106020000,-1,-1,-1,-1,10,-1,12,-1,-1,330,50,,9999,0,0,2,FEW 30   SCT -9999,1,7,-1,8,1024,RJTF 060200Z 01012KT 330V050 9999 FEW030 SCT/// 07/M08 Q1024     RMK 1CU030 A3025=
20170106_030000.002,0,RJTF,,,,0,20170106030000,-1,-1,-1,-1,10,-1,13,-1,-1,320,40,,9999,0,0,2,FEW 30   SCT -9999,1,8,-1,8,1023,RJTF 060300Z 01013KT 320V040 9999 FEW030 SCT/// 08/M08 Q1023     RMK 1CU030 A3021=
20170106_040000.002,0,RJTF,,,,0,20170106040000,-1,-1,-1,-1,30,-1,13,-1,-1,-1,-1,,9999,0,0,2,FEW 30   BKN -9999,1,8,-1,8,1022,RJTF 060400Z 03013KT 9999 FEW030 BKN/// 08/M08 Q1022 RMK     1CU030 A3020=
20170106_050000.002,0,RJTF,,,,0,20170106050000,-1,-1,-1,-1,40,-1,7,-1,-1,10,110,,9999,0,0,2,FEW 30   BKN -9999,1,9,-1,7,1022,RJTF 060500Z 04007KT 010V110 9999 FEW030 BKN/// 09/M07 Q1022     RMK 1CU030 A3020=
20170106_060000.003,0,RJTF,,,,0,20170106060000,-1,-1,-1,-1,100,-1,3,-1,-1,20,160,,9999,0,0,2,FEW 30   BKN -9999,1,9,-1,7,1022,RJTF 060600Z 10003KT 020V160 9999 FEW030 BKN/// 09/M07 Q1022     RMK 1CU030 A3020=
20170106_070000.002,0,RJTF,,,,0,20170106070000,-1,-1,-1,-1,70,-1,5,-1,-1,30,140,,9999,0,0,3,FEW 30   SCT 180   BKN -9999,1,8,-1,8,1022,RJTF 060700Z 07005KT 030V140 9999 FEW030 SCT180 BKN/// 08/M08     Q1022 RMK 1CU030 3AC180 A3020=
20170106_080000.002,0,RJTF,,,,0,20170106080000,-1,-1,-1,-1,-1,-1,-1,-1,-1,-1,-1,,-1,0,0,0,,0,-1,0,-1,-1,RJTF 060800Z NIL=
20170106_090000.002,0,RJTF,,,,0,20170106090000,-1,-1,-1,-1,-1,-1,-1,-1,-1,-1,-1,,-1,0,0,0,,0,-1,0,-1,-1,RJTF 060900Z NIL=
20170106_233000.001,0,RJTF,,,,0,20170106230000,-1,-1,-1,-1,350,-1,4,-1,-1,-1,-1,CAVOK,-1,0,0,0,,1,1,-1,5,1024,RJTF 062330Z 35004KT CAVOK 01/M05 Q1024 RMK A3024=
20170107_000000.003,0,RJTF,,,,0,20170107000000,-1,-1,-1,-1,360,-1,6,-1,-1,320,20,CAVOK,-1,0,0,0,,1,2,-1,5,1024,RJTF 070000Z 36006KT 320V020 CAVOK 02/M05 Q1024 RMK A3025=
20170107_010000.002,0,RJTF,,,,0,20170107010000,-1,-1,-1,-1,350,-1,6,-1,-1,-1,-1,CAVOK,-1,0,0,0,,1,4,-1,6,1023,RJTF 070100Z 35006KT CAVOK 04/M06 Q1023 RMK A3023=
20170107_020000.002,0,RJTF,,,,0,20170107020000,-1,-1,-1,-1,10,-1,4,-1,-1,330,70,,9999,0,0,1,FEW 35,1,6,-1,6,1022,RJTF 070200Z 01004KT 330V070 9999 FEW035 06/M06 Q1022 RMK     1CU035 A3020=
20170107_030000.002,0,RJTF,,,,0,20170107030000,-1,-1,-1,-1,50,-1,3,-1,-1,350,170,,9999,0,0,1,FEW 35,1,6,-1,6,1021,RJTF 070300Z 05003KT 350V170 9999 FEW035 06/M06 Q1021 RMK     1CU035 A3016=
20170107_040000.002,0,RJTF,,,,0,20170107040000,-1,-1,-1,-1,250,-1,3,-1,-1,190,300,,9999,0,0,2,FEW 35   SCT -9999,1,7,-1,6,1020,RJTF 070400Z 25003KT 190V300 9999 FEW035 SCT/// 07/M06 Q1020     RMK 1CU035 A3013=
20170107_050000.002,0,RJTF,,,,0,20170107050000,-1,-1,-1,-1,999,-1,2,-1,-1,-1,-1,,9999,0,0,2,FEW 30   SCT -9999,1,8,-1,5,1019,RJTF 070500Z VRB02KT 9999 FEW030 SCT/// 08/M05 Q1019 RMK     1CU030 A3011=
20170107_060000.002,0,RJTF,,,,0,20170107060000,-1,-1,-1,-1,999,-1,2,-1,-1,-1,-1,,9999,0,0,2,FEW 30   SCT -9999,1,9,-1,5,1019,RJTF 070600Z VRB02KT 9999 FEW030 SCT/// 09/M05 Q1019 RMK     1CU030 A3011=
20170107_070000.002,0,RJTF,,,,0,20170107070000,-1,-1,-1,-1,0,-1,0,-1,-1,-1,-1,,9999,0,0,2,FEW 30   SCT -9999,1,8,-1,6,1019,RJTF 070700Z 00000KT 9999 FEW030 SCT/// 08/M06 Q1019 RMK     1CU030 A3010=
20170107_080000.002,0,RJTF,,,,0,20170107080000,-1,-1,-1,-1,-1,-1,-1,-1,-1,-1,-1,,-1,0,0,0,,0,-1,0,-1,-1,RJTF 070800Z NIL=
20170107_090000.002,0,RJTF,,,,0,20170107090000,-1,-1,-1,-1,-1,-1,-1,-1,-1,-1,-1,,-1,0,0,0,,0,-1,0,-1,-1,RJTF 070900Z NIL=
20170107_233000.001,0,RJTF,,,,0,20170107230000,-1,-1,-1,-1,350,-1,3,-1,-1,-1,-1,,9999,0,0,2,FEW 30   BKN -9999,1,2,-1,3,1019,RJTF 072330Z 35003KT 9999 FEW030 BKN/// 02/M03 Q1019 RMK     2CU030 A3009=
20170108_000000.002,0,RJTF,,,,0,20170108000000,-1,-1,-1,-1,350,-1,4,-1,-1,-1,-1,,9999,0,0,2,FEW 40   BKN 190,1,3,-1,3,1018,RJTF 080000Z 35004KT 9999 FEW040 BKN190 03/M03 Q1018 RMK     2SC040 7AC190 A3009=
20170108_010000.002,0,RJTF,,,,0,20170108010000,-1,-1,-1,-1,350,-1,4,-1,-1,310,20,,9999,0,0,2,FEW 40   BKN 180,1,4,-1,3,1019,RJTF 080100Z 35004KT 310V020 9999 FEW040 BKN180 04/M03 Q1019     RMK 2SC040 7AC180 A3009=
20170108_020000.002,0,RJTF,,,,0,20170108020000,-1,-1,-1,-1,350,-1,8,-1,-1,-1,-1,,9999,0,0,3,FEW 40   BKN 120   BKN 180,1,5,-1,4,1017,RJTF 080200Z 35008KT 9999 FEW040 BKN120 BKN180 05/M04 Q1017     RMK 2SC040 6AC120 7AC180 A3004=
20170108_030000.002,0,RJTF,,,,0,20170108030000,-1,-1,-1,-1,340,-1,7,-1,-1,-1,-1,,9999,0,0,3,FEW 40   BKN 110   BKN 180,1,6,-1,4,1016,RJTF 080300Z 34007KT 9999 FEW040 BKN110 BKN180 06/M04 Q1016     RMK 2SC040 5AC110 7AC180 A3000=
20170108_040000.002,0,RJTF,,,,0,20170108040000,-1,-1,-1,-1,350,-1,7,-1,-1,-1,-1,,9999,0,0,3,FEW 40   BKN 100   BKN 130,1,7,-1,4,1014,RJTF 080400Z 35007KT 9999 FEW040 BKN100 BKN130 07/M04 Q1014     RMK 2SC040 6AC100 7AC130 A2995=
20170108_050000.002,0,RJTF,,,,0,20170108050000,-1,-1,-1,-1,340,-1,5,-1,-1,-1,-1,,9999,0,1,3,SCT 30   BKN 50   BKN 70,1,7,-1,4,1013,RJTF 080500Z 34005KT 9999 -RA SCT030 BKN050 BKN070 07/M04     Q1013 RMK 3CU030 6SC050 7AC070 A2992=
20170108_060000.002,0,RJTF,,,,0,20170108060000,-1,-1,-1,-1,340,-1,6,-1,-1,-1,-1,,8000,0,1,3,FEW 25   BKN 30   BKN 45,1,5,1,1,1012,RJTF 080600Z 34006KT 8000 -RA FEW025 BKN030 BKN045 05/01 Q1012     RMK 2CU025 6CU030 7SC045 A2991=
20170108_070000.003,0,RJTF,,,,0,20170108070000,-1,-1,-1,-1,340,-1,8,-1,-1,-1,-1,,6000,0,1,3,SCT 25   BKN 30   BKN 40,1,4,1,2,1012,RJTF 080700Z 34008KT 6000 -RA SCT025 BKN030 BKN040 04/02 Q1012     RMK 3CU025 6CU030 7SC040 A2988=
20170108_080000.002,0,RJTF,,,,0,20170108080000,-1,-1,-1,-1,-1,-1,-1,-1,-1,-1,-1,,-1,0,0,0,,0,-1,0,-1,-1,RJTF 080800Z NIL=
20170108_090000.003,0,RJTF,,,,0,20170108090000,-1,-1,-1,-1,-1,-1,-1,-1,-1,-1,-1,,-1,0,0,0,,0,-1,0,-1,-1,RJTF 080900Z NIL=
20170108_233000.001,0,RJTF,,,,0,20170108230000,-1,-1,-1,-1,360,-1,9,-1,-1,-1,-1,,9999,0,0,3,FEW 25   BKN 60   BKN 80,1,7,1,5,1001,RJTF 082330Z 36009KT 9999 FEW025 BKN060 BKN080 07/05 Q1001 RMK     1CU025 6SC060 7AC080 A2956=
20170109_000000.002,0,RJTF,,,,0,20170109000000,-1,-1,-1,-1,360,-1,9,-1,-1,-1,-1,,9999,0,0,3,FEW 25   BKN 50   BKN 80,1,8,1,5,1001,RJTF 090000Z 36009KT 9999 FEW025 BKN050 BKN080 08/05 Q1001 RMK     1CU025 5SC050 7AC080 A2957=
20170109_010000.002,0,RJTF,,,,0,20170109010000,-1,-1,-1,-1,360,-1,10,-1,-1,-1,-1,,9999,0,1,3,FEW 25   BKN 50   BKN 80,1,8,1,6,1001,RJTF 090100Z 36010KT 9999 -RA FEW025 BKN050 BKN080 08/06 Q1001     RMK 1CU025 6SC050 7AC080 A2958=
20170109_020000.003,0,RJTF,,,,0,20170109020000,-1,-1,-1,-1,360,-1,9,-1,-1,-1,-1,,9999,0,1,3,FEW 20   BKN 50   BKN 80,1,9,1,5,1001,RJTF 090200Z 36009KT 9999 -RA FEW020 BKN050 BKN080 09/05 Q1001     RMK 1CU020 6SC050 7AC080 A2957=
20170109_030000.003,0,RJTF,,,,0,20170109030000,-1,-1,-1,-1,40,-1,7,-1,-1,360,70,,9999,0,0,3,FEW 20   SCT 50   BKN 80,1,10,1,5,1000,RJTF 090300Z 04007KT 360V070 9999 FEW020 SCT050 BKN080 10/05     Q1000 RMK 1CU020 4SC050 7AC080 A2955=
20170109_040000.002,0,RJTF,,,,0,20170109040000,-1,-1,-1,-1,40,-1,6,-1,-1,360,70,,9999,0,0,2,FEW 20   BKN 90,1,12,1,5,1000,RJTF 090400Z 04006KT 360V070 9999 FEW020 BKN090 12/05 Q1000     RMK 1CU020 5AC090 A2953=
20170109_050000.002,0,RJTF,,,,0,20170109050000,-1,-1,-1,-1,20,-1,6,-1,-1,340,50,,9999,0,0,3,FEW 20   SCT 100   BKN 140,1,12,1,3,1000,RJTF 090500Z 02006KT 340V050 9999 FEW020 SCT100 BKN140 12/03     Q1000 RMK 1CU020 4AC100 5AC140 A2953=
20170109_060000.003,0,RJTF,,,,0,20170109060000,-1,-1,-1,-1,999,-1,2,-1,-1,-1,-1,,9999,0,0,2,FEW 30   BKN 110,1,12,1,3,1000,RJTF 090600Z VRB02KT 9999 FEW030 BKN110 12/03 Q1000 RMK 1CU030     5AC110 A2954=
20170109_070000.002,0,RJTF,,,,0,20170109070000,-1,-1,-1,-1,999,-1,1,-1,-1,-1,-1,,9999,0,0,2,FEW 30   SCT 130,1,12,1,3,1001,RJTF 090700Z VRB01KT 9999 FEW030 SCT130 12/03 Q1001 RMK 1CU030     3AC130 A2956=
20170109_080000.002,0,RJTF,,,,0,20170109080000,-1,-1,-1,-1,-1,-1,-1,-1,-1,-1,-1,,-1,0,0,0,,0,-1,0,-1,-1,RJTF 090800Z NIL=
20170109_090000.002,0,RJTF,,,,0,20170109090000,-1,-1,-1,-1,-1,-1,-1,-1,-1,-1,-1,,-1,0,0,0,,0,-1,0,-1,-1,RJTF 090900Z NIL=
20170109_233000.001,0,RJTF,,,,0,20170109230000,-1,-1,-1,-1,350,-1,3,-1,-1,310,40,,9999,0,0,1,FEW 30,1,7,-1,1,1011,RJTF 092330Z 35003KT 310V040 9999 FEW030 07/M01 Q1011 RMK     1CU030 A2988=
20170110_000000.002,0,RJTF,,,,0,20170110000000,-1,-1,-1,-1,20,-1,4,-1,-1,350,50,,9999,0,0,1,FEW 30,1,7,-1,2,1012,RJTF 100000Z 02004KT 350V050 9999 FEW030 07/M02 Q1012 RMK     1CU030 A2988=
20170110_010000.003,0,RJTF,,,,0,20170110010000,-1,-1,-1,-1,20,-1,8,-1,-1,-1,-1,,9999,0,0,1,FEW 30,1,9,-1,2,1011,RJTF 100100Z 02008KT 9999 FEW030 09/M02 Q1011 RMK 1CU030     A2987=
20170110_020000.002,0,RJTF,,,,0,20170110020000,-1,-1,-1,-1,999,-1,3,-1,-1,-1,-1,,9999,0,0,1,FEW 30,1,11,-1,2,1011,RJTF 100200Z VRB03KT 9999 FEW030 11/M02 Q1011 RMK 1CU030     A2985=
20170110_030000.002,0,RJTF,,,,0,20170110030000,-1,-1,-1,-1,999,-1,2,-1,-1,-1,-1,,9999,0,0,1,FEW 30,1,10,-1,3,1010,RJTF 100300Z VRB02KT 9999 FEW030 10/M03 Q1010 RMK 1CU030     A2982=
20170110_040000.002,0,RJTF,,,,0,20170110040000,-1,-1,-1,-1,170,-1,3,-1,-1,50,220,,9999,0,0,1,FEW 30,1,12,-1,2,1008,RJTF 100400Z 17003KT 050V220 9999 FEW030 12/M02 Q1008 RMK     1CU030 A2978=
20170110_050000.002,0,RJTF,,,,0,20170110050000,-1,-1,-1,-1,180,-1,5,-1,-1,100,250,,9999,0,0,1,FEW 30,1,13,-1,2,1008,RJTF 100500Z 18005KT 100V250 9999 FEW030 13/M02 Q1008 RMK     1CU030 A2977=
20170110_060000.002,0,RJTF,,,,0,20170110060000,-1,-1,-1,-1,150,-1,6,-1,-1,-1,-1,,9999,0,0,1,FEW 30,1,13,-1,0,1007,RJTF 100600Z 15006KT 9999 FEW030 13/M00 Q1007 RMK 1CU030     A2975=
20170110_070000.002,0,RJTF,,,,0,20170110070000,-1,-1,-1,-1,160,-1,6,-1,-1,-1,-1,,9999,0,0,1,FEW 30,1,12,1,0,1007,RJTF 100700Z 16006KT 9999 FEW030 12/00 Q1007 RMK 1CU030 A2974=
20170110_080000.002,0,RJTF,,,,0,20170110080000,-1,-1,-1,-1,-1,-1,-1,-1,-1,-1,-1,,-1,0,0,0,,0,-1,0,-1,-1,RJTF 100800Z NIL=
20170110_090000.002,0,RJTF,,,,0,20170110090000,-1,-1,-1,-1,-1,-1,-1,-1,-1,-1,-1,,-1,0,0,0,,0,-1,0,-1,-1,RJTF 100900Z NIL=
20170110_233000.001,0,RJTF,,,,0,20170110230000,-1,-1,-1,-1,10,-1,6,-1,-1,-1,-1,,9999,0,0,1,FEW 30,1,5,-1,4,1012,RJTF 102330Z 01006KT 9999 FEW030 05/M04 Q1012 RMK 1CU030     A2990=
20170111_000000.002,0,RJTF,,,,0,20170111000000,-1,-1,-1,-1,20,-1,9,-1,-1,-1,-1,,9999,0,0,1,FEW 30,1,5,-1,5,1012,RJTF 110000Z 02009KT 9999 FEW030 05/M05 Q1012 RMK 1CU030     A2990=
20170111_010000.001,0,RJTF,,,,0,20170111010000,-1,-1,-1,-1,20,-1,6,-1,-1,350,50,,9999,0,0,1,FEW 30,1,7,-1,6,1012,RJTF 110100Z 02006KT 350V050 9999 FEW030 07/M06 Q1012 RMK     1CU030 A2990=
20170111_020000.002,0,RJTF,,,,0,20170111020000,-1,-1,-1,-1,20,-1,7,-1,-1,340,50,,9999,0,0,1,FEW 30,1,8,-1,7,1011,RJTF 110200Z 02007KT 340V050 9999 FEW030 08/M07 Q1011 RMK     1CU030 A2987=
20170111_030000.002,0,RJTF,,,,0,20170111030000,-1,-1,-1,-1,999,-1,2,-1,-1,-1,-1,,9999,0,0,1,FEW 30,1,9,-1,7,1010,RJTF 110300Z VRB02KT 9999 FEW030 09/M07 Q1010 RMK 1CU030     A2983=
20170111_040000.003,0,RJTF,,,,0,20170111040000,-1,-1,-1,-1,999,-1,2,-1,-1,-1,-1,,9999,0,0,1,FEW 30,1,10,-1,8,1008,RJTF 110400Z VRB02KT 9999 FEW030 10/M08 Q1008 RMK 1CU030     A2979=
20170111_050000.003,0,RJTF,,,,0,20170111050000,-1,-1,-1,-1,999,-1,4,-1,-1,-1,-1,,9999,0,0,1,FEW 30,1,10,-1,7,1008,RJTF 110500Z VRB04KT 9999 FEW030 10/M07 Q1008 RMK 1CU030     A2977=
20170111_060000.002,0,RJTF,,,,0,20170111060000,-1,-1,-1,-1,170,-1,5,-1,-1,140,210,,9999,0,0,1,FEW 30,1,10,-1,4,1007,RJTF 110600Z 17005KT 140V210 9999 FEW030 10/M04 Q1007 RMK     1CU030 A2976=
20170111_070000.003,0,RJTF,,,,0,20170111070000,-1,-1,-1,-1,170,-1,6,-1,-1,-1,-1,,9999,0,0,1,FEW 30,1,9,-1,3,1007,RJTF 110700Z 17006KT 9999 FEW030 09/M03 Q1007 RMK 1CU030     A2976=
20170111_080000.003,0,RJTF,,,,0,20170111080000,-1,-1,-1,-1,-1,-1,-1,-1,-1,-1,-1,,-1,0,0,0,,0,-1,0,-1,-1,RJTF 110800Z NIL=
20170111_090000.002,0,RJTF,,,,0,20170111090000,-1,-1,-1,-1,-1,-1,-1,-1,-1,-1,-1,,-1,0,0,0,,0,-1,0,-1,-1,RJTF 110900Z NIL=
20170111_233000.001,0,RJTF,,,,0,20170111230000,-1,-1,-1,-1,0,-1,0,-1,-1,-1,-1,,9999,0,0,1,FEW 30,1,2,-1,2,1007,RJTF 112330Z 00000KT 9999 FEW030 02/M02 Q1007 RMK 1CU030     A2976=
20170112_000000.002,0,RJTF,,,,0,20170112000000,-1,-1,-1,-1,999,-1,1,-1,-1,-1,-1,,9999,0,0,1,FEW 30,1,3,-1,3,1007,RJTF 120000Z VRB01KT 9999 FEW030 03/M03 Q1007 RMK 1CU030     A2975=
20170112_010000.002,0,RJTF,,,,0,20170112010000,-1,-1,-1,-1,999,-1,1,-1,-1,-1,-1,,9999,0,0,1,FEW 30,1,7,-1,4,1006,RJTF 120100Z VRB01KT 9999 FEW030 07/M04 Q1006 RMK 1CU030     A2973=
20170112_020000.003,0,RJTF,,,,0,20170112020000,-1,-1,-1,-1,999,-1,2,-1,-1,-1,-1,,9999,0,0,1,FEW 30,1,9,-1,5,1005,RJTF 120200Z VRB02KT 9999 FEW030 09/M05 Q1005 RMK 1CU030     A2968=
20170112_030000.003,0,RJTF,,,,0,20170112030000,-1,-1,-1,-1,190,-1,6,-1,-1,160,240,,9999,0,0,1,FEW 30,1,11,-1,8,1003,RJTF 120300Z 19006KT 160V240 9999 FEW030 11/M08 Q1003 RMK     1CU030 A2964=
20170112_040000.002,0,RJTF,,,,0,20170112040000,-1,-1,-1,-1,160,-1,4,-1,-1,90,230,,9999,0,0,1,FEW 30,1,11,-1,9,1003,RJTF 120400Z 16004KT 090V230 9999 FEW030 11/M09 Q1003 RMK     1CU030 A2962=
20170112_050000.002,0,RJTF,,,,0,20170112050000,-1,-1,-1,-1,999,-1,3,-1,-1,-1,-1,,9999,0,0,1,FEW 30,1,12,-1,9,1003,RJTF 120500Z VRB03KT 9999 FEW030 12/M09 Q1003 RMK 1CU030     A2962=
20170112_060000.002,0,RJTF,,,,0,20170112060000,-1,-1,-1,-1,999,-1,5,-1,-1,-1,-1,,9999,0,0,1,FEW 30,1,12,-1,8,1003,RJTF 120600Z VRB05KT 9999 FEW030 12/M08 Q1003 RMK 1CU030     A2962=
20170112_070000.003,0,RJTF,,,,0,20170112070000,-1,-1,-1,-1,70,-1,6,-1,-1,30,100,,9999,0,0,1,FEW 30,1,11,-1,8,1002,RJTF 120700Z 07006KT 030V100 9999 FEW030 11/M08 Q1002 RMK     1CU030 A2961=
20170112_080000.002,0,RJTF,,,,0,20170112080000,-1,-1,-1,-1,-1,-1,-1,-1,-1,-1,-1,,-1,0,0,0,,0,-1,0,-1,-1,RJTF 120800Z NIL=
20170112_090000.003,0,RJTF,,,,0,20170112090000,-1,-1,-1,-1,-1,-1,-1,-1,-1,-1,-1,,-1,0,0,0,,0,-1,0,-1,-1,RJTF 120900Z NIL=
20170112_233000.001,0,RJTF,,,,0,20170112230000,-1,-1,-1,-1,999,-1,2,-1,-1,-1,-1,,9999,0,0,1,FEW 30,1,5,-1,4,1002,RJTF 122330Z VRB02KT 9999 FEW030 05/M04 Q1002 RMK 1CU030     A2960=
20170113_000000.002,0,RJTF,,,,0,20170113000000,-1,-1,-1,-1,999,-1,2,-1,-1,-1,-1,,9999,0,0,1,FEW 30,1,6,-1,4,1002,RJTF 130000Z VRB02KT 9999 FEW030 06/M04 Q1002 RMK 1CU030     A2961=
20170113_010000.003,0,RJTF,,,,0,20170113010000,-1,-1,-1,-1,60,-1,3,-1,-1,10,160,,9999,0,0,1,FEW 30,1,7,-1,4,1002,RJTF 130100Z 06003KT 010V160 9999 FEW030 07/M04 Q1002 RMK     1CU030 A2960=
20170113_020000.002,0,RJTF,,,,0,20170113020000,-1,-1,-1,-1,999,-1,2,-1,-1,-1,-1,,9999,0,0,1,FEW 30,1,9,-1,5,1001,RJTF 130200Z VRB02KT 9999 FEW030 09/M05 Q1001 RMK 1CU030     A2956=
20170113_030000.002,0,RJTF,,,,0,20170113030000,-1,-1,-1,-1,120,-1,4,-1,-1,80,180,,9999,0,0,2,FEW 30   SCT 60,1,11,-1,5,999,RJTF 130300Z 12004KT 080V180 9999 FEW030 SCT060 11/M05 Q0999     RMK 1CU030 3SC060 A2952=
20170113_040000.002,0,RJTF,,,,0,20170113040000,-1,-1,-1,-1,230,-1,6,-1,-1,150,290,,9999,0,0,2,FEW 30   SCT 70,1,12,-1,8,998,RJTF 130400Z 23006KT 150V290 9999 FEW030 SCT070 12/M08 Q0998     RMK 2CU030 4AC070 A2950=
20170113_050000.002,0,RJTF,,,,0,20170113050000,-1,-1,-1,-1,250,-1,5,-1,-1,200,310,,9999,0,0,3,FEW 30   SCT 80   BKN 110,1,13,-1,7,998,RJTF 130500Z 25005KT 200V310 9999 FEW030 SCT080 BKN110 13/M07     Q0998 RMK 1CU030 3AC080 5AC110 A2949=
20170113_060000.002,0,RJTF,,,,0,20170113060000,-1,-1,-1,-1,210,-1,9,-1,-1,-1,-1,,9999,0,0,3,FEW 30   SCT 70   BKN 90,1,12,-1,3,998,RJTF 130600Z 21009KT 9999 FEW030 SCT070 BKN090 12/M03 Q0998     RMK 1CU030 3AC070 5AC090 A2949=
20170113_070000.002,0,RJTF,,,,0,20170113070000,-1,-1,-1,-1,350,-1,8,-1,-1,320,30,,9999,0,0,2,FEW 30   SCT 90,1,10,-1,4,999,RJTF 130700Z 35008KT 320V030 9999 FEW030 SCT090 10/M04 Q0999     RMK 1CU030 3AC090 A2952=
20170113_080000.002,0,RJTF,,,,0,20170113080000,-1,-1,-1,-1,-1,-1,-1,-1,-1,-1,-1,,-1,0,0,0,,0,-1,0,-1,-1,RJTF 130800Z NIL=
20170113_090000.002,0,RJTF,,,,0,20170113090000,-1,-1,-1,-1,-1,-1,-1,-1,-1,-1,-1,,-1,0,0,0,,0,-1,0,-1,-1,RJTF 130900Z NIL=
20170113_233000.001,0,RJTF,,,,0,20170113230000,-1,-1,-1,-1,230,-1,4,-1,-1,200,260,,9999,0,0,2,FEW 25   SCT 40,1,2,-1,4,1001,RJTF 132330Z 23004KT 200V260 9999 FEW025 SCT040 02/M04 Q1001     RMK 1CU025 3SC040 A2957=
20170114_000000.002,0,RJTF,,,,0,20170114000000,-1,-1,-1,-1,220,-1,6,-1,-1,180,240,,9999,0,0,2,FEW 25   SCT 40,1,4,-1,5,1001,RJTF 140000Z 22006KT 180V240 9999 FEW025 SCT040 04/M05 Q1001     RMK 1CU025 3SC040 A2957=
20170114_010000.002,0,RJTF,,,,0,20170114010000,-1,-1,-1,-1,90,-1,3,-1,-1,360,160,,9999,0,0,3,FEW 30   SCT 40   BKN 90,1,5,-1,5,1001,RJTF 140100Z 09003KT 360V160 9999 FEW030 SCT040 BKN090 05/M05     Q1001 RMK 1CU030 3SC040 5AC090 A2956=
20170114_020000.003,0,RJTF,,,,0,20170114020000,-1,-1,-1,-1,30,-1,6,-1,-1,-1,-1,,9999,0,0,3,FEW 30   BKN 60   BKN 80,1,5,-1,5,1000,RJTF 140200Z 03006KT 9999 FEW030 BKN060 BKN080 05/M05 Q1000     RMK 2CU030 5SC060 6AC080 A2955 VIRGA OHD MOV SE=
20170114_030000.003,0,RJTF,,,,0,20170114030000,-1,-1,-1,-1,10,-1,5,-1,16,310,80,,9999,0,0,3,FEW 30   SCT 60   BKN 110,1,5,-1,8,1000,RJTF 140300Z 01005G16KT 310V080 9999 FEW030 SCT060 BKN110     05/M08 Q1000 RMK 2CU030 4SC060 6AC110 A2953 VIRGA FM 10KM           NW TO 5KM SE MOV SE=
20170114_040000.002,0,RJTF,,,,0,20170114040000,-1,-1,-1,-1,10,-1,11,-1,-1,-1,-1,,9999,0,0,3,FEW 30   SCT 60   BKN 90,1,5,-1,7,999,RJTF 140400Z 01011KT 9999 FEW030 SCT060 BKN090 05/M07 Q0999     RMK 2CU030 4SC060 6AC090 A2952 VIRGA 5KM NW-E MOV SE=
20170114_050000.002,0,RJTF,,,,0,20170114050000,-1,-1,-1,-1,20,-1,7,-1,-1,340,60,,9999,0,0,3,FEW 30   SCT 80   BKN 120,1,5,-1,6,1000,RJTF 140500Z 02007KT 340V060 9999 FEW030 SCT080 BKN120 05/M06     Q1000 RMK 2CU030 4AC080 6AC120 A2953=
20170114_060000.003,0,RJTF,,,,0,20170114060000,-1,-1,-1,-1,30,-1,8,-1,-1,360,60,,9999,0,0,3,FEW 30   SCT 80   BKN 110,1,4,-1,8,1000,RJTF 140600Z 03008KT 360V060 9999 FEW030 SCT080 BKN110 04/M08     Q1000 RMK 2CU030 4AC080 6AC110 A2954=
20170114_070000.002,0,RJTF,,,,0,20170114070000,-1,-1,-1,-1,10,-1,11,-1,-1,350,50,,9999,0,0,3,FEW 30   BKN 80   BKN 100,1,3,-1,8,1001,RJTF 140700Z 01011KT 350V050 9999 FEW030 BKN080 BKN100 03/M08     Q1001 RMK 2CU030 5AC080 6AC100 A2956=
20170114_080000.003,0,RJTF,,,,0,20170114080000,-1,-1,-1,-1,-1,-1,-1,-1,-1,-1,-1,,-1,0,0,0,,0,-1,0,-1,-1,RJTF 140800Z NIL=
20170114_090000.003,0,RJTF,,,,0,20170114090000,-1,-1,-1,-1,-1,-1,-1,-1,-1,-1,-1,,-1,0,0,0,,0,-1,0,-1,-1,RJTF 140900Z NIL=
20170114_233000.001,0,RJTF,,,,0,20170114230000,-1,-1,-1,-1,999,-1,1,-1,-1,-1,-1,,9999,0,0,1,FEW 30,1,0,-1,12,1009,RJTF 142330Z VRB01KT 9999 FEW030 00/M12 Q1009 RMK 1CU030     A2981=
20170115_000000.003,0,RJTF,,,,0,20170115000000,-1,-1,-1,-1,50,-1,4,-1,-1,10,90,,9999,0,0,1,FEW 30,1,1,-1,9,1009,RJTF 150000Z 05004KT 010V090 9999 FEW030 01/M09 Q1009 RMK     2CU030 A2982=
20170115_010000.002,0,RJTF,,,,0,20170115010000,-1,-1,-1,-1,30,-1,4,-1,-1,320,90,,9999,0,0,1,FEW 30,1,1,-1,9,1009,RJTF 150100Z 03004KT 320V090 9999 FEW030 01/M09 Q1009 RMK     1CU030 A2982=
20170115_020000.002,0,RJTF,,,,0,20170115020000,-1,-1,-1,-1,999,-1,2,-1,-1,-1,-1,,9999,0,0,2,FEW 30   SCT 80,1,3,-1,10,1009,RJTF 150200Z VRB02KT 9999 FEW030 SCT080 03/M10 Q1009 RMK     1CU030 4AC080 A2980=
20170115_030000.002,0,RJTF,,,,0,20170115030000,-1,-1,-1,-1,999,-1,2,-1,-1,-1,-1,,9999,0,0,2,FEW 30   SCT 70,1,3,-1,10,1008,RJTF 150300Z VRB02KT 9999 FEW030 SCT070 03/M10 Q1008 RMK     2CU030 3AC070 A2977=
20170115_040000.002,0,RJTF,,,,0,20170115040000,-1,-1,-1,-1,20,-1,8,-1,-1,350,60,,9999,0,0,3,FEW 30   SCT 50   BKN 80,1,4,-1,10,1007,RJTF 150400Z 02008KT 350V060 9999 FEW030 SCT050 BKN080 04/M10     Q1007 RMK 1CU030 3SC050 5AC080 A2975=
20170115_050000.002,0,RJTF,,,,0,20170115050000,-1,-1,-1,-1,30,-1,8,-1,-1,340,60,,9999,0,0,2,FEW 30   BKN 80,1,5,-1,10,1007,RJTF 150500Z 03008KT 340V060 9999 FEW030 BKN080 05/M10 Q1007     RMK 2CU030 5AC080 A2975=
20170115_060000.002,0,RJTF,,,,0,20170115060000,-1,-1,-1,-1,10,-1,8,-1,-1,-1,-1,,9999,0,0,2,FEW 30   SCT 80,1,3,-1,10,1008,RJTF 150600Z 01008KT 9999 FEW030 SCT080 03/M10 Q1008 RMK     1CU030 3AC080 A2977=
20170115_070000.002,0,RJTF,,,,0,20170115070000,-1,-1,-1,-1,350,-1,8,-1,-1,320,30,,9999,0,0,1,FEW 30,1,3,-1,10,1008,RJTF 150700Z 35008KT 320V030 9999 FEW030 03/M10 Q1008 RMK     2CU030 A2979=
20170115_080000.004,0,RJTF,,,,0,20170115080000,-1,-1,-1,-1,-1,-1,-1,-1,-1,-1,-1,,-1,0,0,0,,0,-1,0,-1,-1,RJTF 150800Z NIL=
20170115_090000.002,0,RJTF,,,,0,20170115090000,-1,-1,-1,-1,-1,-1,-1,-1,-1,-1,-1,,-1,0,0,0,,0,-1,0,-1,-1,RJTF 150900Z NIL=
20170115_233000.001,0,RJTF,,,,0,20170115230000,-1,-1,-1,-1,999,-1,1,-1,-1,-1,-1,,9999,0,0,1,FEW 30,-1,1,-1,9,1011,RJTF 152330Z VRB01KT 9999 FEW030 M01/M09 Q1011 RMK 1CU030     A2987=
20170116_000000.002,0,RJTF,,,,0,20170116000000,-1,-1,-1,-1,999,-1,1,-1,-1,-1,-1,,9999,0,0,1,FEW 30,1,1,-1,9,1011,RJTF 160000Z VRB01KT 9999 FEW030 01/M09 Q1011 RMK 1CU030     A2988=
20170116_010000.002,0,RJTF,,,,0,20170116010000,-1,-1,-1,-1,999,-1,1,-1,-1,-1,-1,,9999,0,0,1,FEW 30,1,4,-1,8,1011,RJTF 160100Z VRB01KT 9999 FEW030 04/M08 Q1011 RMK 1CU030     A2987=
20170116_020000.002,0,RJTF,,,,0,20170116020000,-1,-1,-1,-1,999,-1,1,-1,-1,-1,-1,,9999,0,0,1,FEW 30,1,5,-1,11,1010,RJTF 160200Z VRB01KT 9999 FEW030 05/M11 Q1010 RMK 1CU030     A2984=
20170116_030000.002,0,RJTF,,,,0,20170116030000,-1,-1,-1,-1,350,-1,3,-1,-1,300,110,,9999,0,0,2,FEW 30   SCT 70,1,7,-1,12,1009,RJTF 160300Z 35003KT 300V110 9999 FEW030 SCT070 07/M12 Q1009     RMK 1CU030 3AC070 A2981=
20170116_040000.002,0,RJTF,,,,0,20170116040000,-1,-1,-1,-1,340,-1,13,-1,-1,300,360,,9999,0,0,2,FEW 30   SCT 90,1,6,-1,18,1008,RJTF 160400Z 34013KT 300V360 9999 FEW030 SCT090 06/M18 Q1008     RMK 1CU030 3AC090 A2979=
20170116_050000.003,0,RJTF,,,,0,20170116050000,-1,-1,-1,-1,330,-1,12,-1,-1,290,360,,9999,0,0,1,FEW 30,1,8,-1,16,1008,RJTF 160500Z 33012KT 290V360 9999 FEW030 08/M16 Q1008 RMK     1CU030 A2977=
20170116_060000.002,0,RJTF,,,,0,20170116060000,-1,-1,-1,-1,330,-1,9,-1,21,290,10,,9999,0,0,1,FEW 30,1,9,-1,14,1008,RJTF 160600Z 33009G21KT 290V010 9999 FEW030 09/M14 Q1008 RMK     1CU030 A2979=
20170116_070000.002,0,RJTF,,,,0,20170116070000,-1,-1,-1,-1,330,-1,12,-1,-1,290,10,,9999,0,0,1,FEW 30,1,8,-1,15,1009,RJTF 160700Z 33012KT 290V010 9999 FEW030 08/M15 Q1009 RMK     1CU030 A2981=
20170116_080000.002,0,RJTF,,,,0,20170116080000,-1,-1,-1,-1,-1,-1,-1,-1,-1,-1,-1,,-1,0,0,0,,0,-1,0,-1,-1,RJTF 160800Z NIL=
20170116_090000.003,0,RJTF,,,,0,20170116090000,-1,-1,-1,-1,-1,-1,-1,-1,-1,-1,-1,,-1,0,0,0,,0,-1,0,-1,-1,RJTF 160900Z NIL=
20170116_233000.001,0,RJTF,,,,0,20170116230000,-1,-1,-1,-1,999,-1,2,-1,-1,-1,-1,,9999,0,0,1,FEW 30,1,4,-1,3,1022,RJTF 162330Z VRB02KT 9999 FEW030 04/M03 Q1022 RMK 1CU030     A3018=
20170117_000000.002,0,RJTF,,,,0,20170117000000,-1,-1,-1,-1,999,-1,2,-1,-1,-1,-1,,9999,0,0,2,FEW 30   SCT 80,1,5,-1,3,1022,RJTF 170000Z VRB02KT 9999 FEW030 SCT080 05/M03 Q1022 RMK     1CU030 3AC080 A3021=
20170117_010000.002,0,RJTF,,,,0,20170117010000,-1,-1,-1,-1,350,-1,5,-1,-1,270,40,,9999,0,0,1,FEW 30,1,9,-1,4,1023,RJTF 170100Z 35005KT 270V040 9999 FEW030 09/M04 Q1023 RMK     1CU030 A3021=
20170117_020000.002,0,RJTF,,,,0,20170117020000,-1,-1,-1,-1,330,-1,6,-1,-1,-1,-1,,9999,0,0,1,FEW 30,1,9,-1,6,1022,RJTF 170200Z 33006KT 9999 FEW030 09/M06 Q1022 RMK 1CU030     A3018=
20170117_030000.003,0,RJTF,,,,0,20170117030000,-1,-1,-1,-1,999,-1,6,-1,-1,-1,-1,,9999,0,0,2,FEW 30   SCT 60,1,9,-1,6,1021,RJTF 170300Z VRB06KT 9999 FEW030 SCT060 09/M06 Q1021 RMK     1CU030 3SC060 A3017=
20170117_040000.002,0,RJTF,,,,0,20170117040000,-1,-1,-1,-1,360,-1,9,-1,-1,-1,-1,,9999,0,0,2,FEW 30   SCT 70,1,10,-1,6,1021,RJTF 170400Z 36009KT 9999 FEW030 SCT070 10/M06 Q1021 RMK     1CU030 3AC070 A3016=
20170117_050000.003,0,RJTF,,,,0,20170117050000,-1,-1,-1,-1,10,-1,8,-1,-1,320,40,,9999,0,0,1,FEW 30,1,10,-1,6,1021,RJTF 170500Z 01008KT 320V040 9999 FEW030 10/M06 Q1021 RMK     1CU030 A3016=
20170117_060000.002,0,RJTF,,,,0,20170117060000,-1,-1,-1,-1,360,-1,7,-1,-1,320,60,,9999,0,0,1,FEW 30,1,10,-1,6,1022,RJTF 170600Z 36007KT 320V060 9999 FEW030 10/M06 Q1022 RMK     1CU030 A3018=
20170117_070000.002,0,RJTF,,,,0,20170117070000,-1,-1,-1,-1,20,-1,9,-1,-1,-1,-1,,9999,0,0,1,FEW 30,1,9,-1,5,1022,RJTF 170700Z 02009KT 9999 FEW030 09/M05 Q1022 RMK 1CU030     A3020=
20170117_080000.002,0,RJTF,,,,0,20170117080000,-1,-1,-1,-1,-1,-1,-1,-1,-1,-1,-1,,-1,0,0,0,,0,-1,0,-1,-1,RJTF 170800Z NIL=
20170117_090000.002,0,RJTF,,,,0,20170117090000,-1,-1,-1,-1,-1,-1,-1,-1,-1,-1,-1,,-1,0,0,0,,0,-1,0,-1,-1,RJTF 170900Z NIL=
20170117_233000.001,0,RJTF,,,,0,20170117230000,-1,-1,-1,-1,360,-1,6,-1,-1,-1,-1,,9999,0,0,1,FEW 30,1,2,-1,4,1029,RJTF 172330Z 36006KT 9999 FEW030 02/M04 Q1029 RMK 1CU030     A3040=
20170118_000000.002,0,RJTF,,,,0,20170118000000,-1,-1,-1,-1,360,-1,4,-1,-1,330,40,,9999,0,0,2,FEW 30   SCT -9999,1,4,-1,4,1029,RJTF 180000Z 36004KT 330V040 9999 FEW030 SCT/// 04/M04 Q1029     RMK 1CU030 A3040=
20170118_010000.003,0,RJTF,,,,0,20170118010000,-1,-1,-1,-1,20,-1,7,-1,-1,340,50,,9999,0,0,2,FEW 30   SCT -9999,1,6,-1,6,1029,RJTF 180100Z 02007KT 340V050 9999 FEW030 SCT/// 06/M06 Q1029     RMK 1CU030 A3039=
20170118_020000.003,0,RJTF,,,,0,20170118020000,-1,-1,-1,-1,40,-1,7,-1,-1,360,80,,9999,0,0,2,FEW 30   SCT -9999,1,7,-1,5,1028,RJTF 180200Z 04007KT 360V080 9999 FEW030 SCT/// 07/M05 Q1028     RMK 1CU030 A3036=
20170118_030000.002,0,RJTF,,,,0,20170118030000,-1,-1,-1,-1,60,-1,3,-1,-1,350,160,,9999,0,0,2,FEW 30   SCT -9999,1,9,-1,5,1026,RJTF 180300Z 06003KT 350V160 9999 FEW030 SCT/// 09/M05 Q1026     RMK 1CU030 A3031=
20170118_040000.002,0,RJTF,,,,0,20170118040000,-1,-1,-1,-1,110,-1,5,-1,-1,80,170,,9999,0,0,1,FEW 30,1,8,-1,6,1025,RJTF 180400Z 11005KT 080V170 9999 FEW030 08/M06 Q1025 RMK     1CU030 A3028=
20170118_050000.002,0,RJTF,,,,0,20170118050000,-1,-1,-1,-1,150,-1,5,-1,-1,110,190,,9999,0,0,1,FEW 30,1,10,-1,5,1025,RJTF 180500Z 15005KT 110V190 9999 FEW030 10/M05 Q1025 RMK     1CU030 A3027=
20170118_060000.002,0,RJTF,,,,0,20170118060000,-1,-1,-1,-1,140,-1,6,-1,-1,90,210,,9999,0,0,2,FEW 30   SCT -9999,1,10,-1,5,1025,RJTF 180600Z 14006KT 090V210 9999 FEW030 SCT/// 10/M05 Q1025     RMK 1CU030 A3027=
20170118_070000.002,0,RJTF,,,,0,20170118070000,-1,-1,-1,-1,180,-1,7,-1,-1,-1,-1,,9999,0,0,2,FEW 30   SCT -9999,1,9,-1,4,1024,RJTF 180700Z 18007KT 9999 FEW030 SCT/// 09/M04 Q1024 RMK     1CU030 A3025=
20170118_080000.002,0,RJTF,,,,0,20170118080000,-1,-1,-1,-1,-1,-1,-1,-1,-1,-1,-1,,-1,0,0,0,,0,-1,0,-1,-1,RJTF 180800Z NIL=
20170118_090000.002,0,RJTF,,,,0,20170118090000,-1,-1,-1,-1,-1,-1,-1,-1,-1,-1,-1,,-1,0,0,0,,0,-1,0,-1,-1,RJTF 180900Z NIL=
20170118_233000.001,0,RJTF,,,,0,20170118230000,-1,-1,-1,-1,360,-1,11,-1,-1,-1,-1,,9999,0,0,2,FEW 30   BKN 130,1,6,-1,3,1019,RJTF 182330Z 36011KT 9999 FEW030 BKN130 06/M03 Q1019 RMK     1CU030 7AC130 A3010=
20170119_000000.003,0,RJTF,,,,0,20170119000000,-1,-1,-1,-1,360,-1,12,-1,-1,330,30,,9999,0,0,2,FEW 40   BKN 130,1,6,-1,3,1019,RJTF 190000Z 36012KT 330V030 9999 FEW040 BKN130 06/M03 Q1019     RMK 2SC040 7AC130 A3010=
20170119_010000.004,0,RJTF,,,,0,20170119010000,-1,-1,-1,-1,350,-1,11,-1,-1,-1,-1,,9999,0,0,2,FEW 40   BKN 140,1,8,-1,4,1019,RJTF 190100Z 35011KT 9999 FEW040 BKN140 08/M04 Q1019 RMK     1SC040 6AC140 A3010=
20170119_020000.002,0,RJTF,,,,0,20170119020000,-1,-1,-1,-1,360,-1,14,-1,-1,320,30,,9999,0,0,2,FEW 40   SCT 140,1,9,-1,4,1018,RJTF 190200Z 36014KT 320V030 9999 FEW040 SCT140 09/M04 Q1018     RMK 1SC040 3AC140 A3007=
20170119_030000.002,0,RJTF,,,,0,20170119030000,-1,-1,-1,-1,360,-1,10,-1,-1,330,50,,9999,0,0,2,FEW 40   BKN 140,1,9,-1,4,1017,RJTF 190300Z 36010KT 330V050 9999 FEW040 BKN140 09/M04 Q1017     RMK 1SC040 5AC140 A3003=
20170119_040000.002,0,RJTF,,,,0,20170119040000,-1,-1,-1,-1,360,-1,10,-1,-1,-1,-1,,9999,0,0,2,FEW 40   SCT 120,1,10,-1,4,1016,RJTF 190400Z 36010KT 9999 FEW040 SCT120 10/M04 Q1016 RMK     1SC040 3AC120 A3001=
20170119_050000.002,0,RJTF,,,,0,20170119050000,-1,-1,-1,-1,10,-1,12,-1,-1,-1,-1,,9999,0,0,2,FEW 30   SCT 120,1,11,-1,5,1016,RJTF 190500Z 01012KT 9999 FEW030 SCT120 11/M05 Q1016 RMK     1CU030 3AC120 A3001=
20170119_060000.002,0,RJTF,,,,0,20170119060000,-1,-1,-1,-1,360,-1,9,-1,-1,-1,-1,CAVOK,-1,0,0,0,,1,11,-1,6,1016,RJTF 190600Z 36009KT CAVOK 11/M06 Q1016 RMK A3000=
20170119_070000.002,0,RJTF,,,,0,20170119070000,-1,-1,-1,-1,10,-1,9,-1,-1,340,50,CAVOK,-1,0,0,0,,1,9,-1,6,1016,RJTF 190700Z 01009KT 340V050 CAVOK 09/M06 Q1016 RMK A3002=
20170119_080000.003,0,RJTF,,,,0,20170119080000,-1,-1,-1,-1,-1,-1,-1,-1,-1,-1,-1,,-1,0,0,0,,0,-1,0,-1,-1,RJTF 190800Z NIL=
20170119_090000.002,0,RJTF,,,,0,20170119090000,-1,-1,-1,-1,-1,-1,-1,-1,-1,-1,-1,,-1,0,0,0,,0,-1,0,-1,-1,RJTF 190900Z NIL=
20170119_233000.001,0,RJTF,,,,0,20170119230000,-1,-1,-1,-1,360,-1,6,-1,-1,-1,-1,,9999,0,0,3,FEW 20   BKN 30   BKN 40,1,3,-1,6,1014,RJTF 192330Z 36006KT 9999 FEW020 BKN030 BKN040 03/M06 Q1014     RMK 1SC020 5SC030 7SC040 A2995=
20170120_000000.002,0,RJTF,,,,0,20170120000000,-1,-1,-1,-1,10,-1,4,-1,-1,330,40,,9999,0,0,3,FEW 20   BKN 30   BKN 40,1,3,-1,6,1014,RJTF 200000Z 01004KT 330V040 9999 FEW020 BKN030 BKN040 03/M06     Q1014 RMK 1SC020 5SC030 7SC040 A2995=
20170120_010000.003,0,RJTF,,,,0,20170120010000,-1,-1,-1,-1,360,-1,6,-1,-1,-1,-1,,9999,0,0,3,FEW 20   BKN 25   BKN 35,1,3,-1,6,1014,RJTF 200100Z 36006KT 9999 FEW020 BKN025 BKN035 03/M06 Q1014     RMK 1SC020 6SC025 7SC035 A2994=
20170120_020000.002,0,RJTF,,,,0,20170120020000,-1,-1,-1,-1,360,-1,6,-1,-1,-1,-1,,9999,0,0,2,FEW 15   BKN 20,1,3,-1,6,1012,RJTF 200200Z 36006KT 9999 FEW015 BKN020 03/M06 Q1012 RMK     1SC015 7SC020 A2990=
20170120_030000.002,0,RJTF,,,,0,20170120030000,-1,-1,-1,-1,360,-1,6,-1,-1,-1,-1,,9999,0,0,2,FEW 15   BKN 20,1,3,-1,6,1010,RJTF 200300Z 36006KT 9999 FEW015 BKN020 03/M06 Q1010 RMK     1SC015 7SC020 A2983 P/FR=
20170120_040000.003,0,RJTF,,,,0,20170120040000,-1,-1,-1,-1,360,-1,7,-1,-1,-1,-1,,9999,0,0,3,FEW 15   BKN 20   BKN 30,1,3,-1,6,1008,RJTF 200400Z 36007KT 9999 FEW015 BKN020 BKN030 03/M06 Q1008     RMK 1SC015 6SC020 7SC030 A2979=
20170120_050000.002,0,RJTF,,,,0,20170120050000,-1,-1,-1,-1,360,-1,4,-1,-1,-1,-1,,9999,0,0,3,FEW 15   BKN 20   BKN 30,1,3,-1,5,1007,RJTF 200500Z 36004KT 9999 FEW015 BKN020 BKN030 03/M05 Q1007     RMK 2SC015 6SC020 7SC030 A2975=
20170120_060000.002,0,RJTF,,,,0,20170120060000,-1,-1,-1,-1,340,-1,5,-1,-1,300,20,,9999,0,0,2,SCT 15   BKN 20,1,3,-1,5,1006,RJTF 200600Z 34005KT 300V020 9999 SCT015 BKN020 03/M05 Q1006     RMK 3SC015 7SC020 A2973=
20170120_070000.002,0,RJTF,,,,0,20170120070000,-1,-1,-1,-1,350,-1,6,-1,-1,320,20,,8000,0,0,2,BKN 15   BKN 20,1,3,-1,5,1006,RJTF 200700Z 35006KT 320V020 8000 BKN015 BKN020 03/M05 Q1006     RMK 5SC015 7SC020 A2972=
20170120_080000.004,0,RJTF,,,,0,20170120080000,-1,-1,-1,-1,-1,-1,-1,-1,-1,-1,-1,,-1,0,0,0,,0,-1,0,-1,-1,RJTF 200800Z NIL=
20170120_090000.002,0,RJTF,,,,0,20170120090000,-1,-1,-1,-1,-1,-1,-1,-1,-1,-1,-1,,-1,0,0,0,,0,-1,0,-1,-1,RJTF 200900Z NIL=
20170120_233000.001,0,RJTF,,,,0,20170120230000,-1,-1,-1,-1,10,-1,11,-1,-1,-1,-1,,9999,0,0,1,FEW 30,1,7,-1,3,1012,RJTF 202330Z 01011KT 9999 FEW030 07/M03 Q1012 RMK 1CU030     A2990=
20170121_000000.003,0,RJTF,,,,0,20170121000000,-1,-1,-1,-1,330,-1,15,-1,-1,-1,-1,,9999,0,0,1,FEW 30,1,8,-1,4,1013,RJTF 210000Z 33015KT 9999 FEW030 08/M04 Q1013 RMK 1CU030     A2992=
20170121_010000.002,0,RJTF,,,,0,20170121010000,-1,-1,-1,-1,350,-1,17,-1,27,-1,-1,,9999,0,0,1,FEW 30,1,10,-1,5,1014,RJTF 210100Z 35017G27KT 9999 FEW030 10/M05 Q1014 RMK 1CU030     A2997=
20170121_020000.002,0,RJTF,,,,0,20170121020000,-1,-1,-1,-1,340,-1,18,-1,-1,-1,-1,,9999,0,0,1,FEW 30,1,10,-1,6,1015,RJTF 210200Z 34018KT 9999 FEW030 10/M06 Q1015 RMK 1CU030     A2998=
20170121_030000.003,0,RJTF,,,,0,20170121030000,-1,-1,-1,-1,340,-1,15,-1,27,300,10,,9999,0,0,1,FEW 30,1,11,-1,6,1015,RJTF 210300Z 34015G27KT 300V010 9999 FEW030 11/M06 Q1015 RMK     1CU030 A2998=
20170121_040000.003,0,RJTF,,,,0,20170121040000,-1,-1,-1,-1,350,-1,16,-1,26,-1,-1,,9999,0,0,1,FEW 30,1,11,-1,7,1016,RJTF 210400Z 35016G26KT 9999 FEW030 11/M07 Q1016 RMK 1CU030     A3000=
20170121_050000.002,0,RJTF,,,,0,20170121050000,-1,-1,-1,-1,350,-1,15,-1,-1,300,20,,9999,0,0,1,FEW 30,1,10,-1,5,1017,RJTF 210500Z 35015KT 300V020 9999 FEW030 10/M05 Q1017 RMK     1CU030 A3003=
20170121_060000.002,0,RJTF,,,,0,20170121060000,-1,-1,-1,-1,360,-1,16,-1,-1,-1,-1,,9999,0,0,1,FEW 30,1,9,-1,7,1017,RJTF 210600Z 36016KT 9999 FEW030 09/M07 Q1017 RMK 1CU030     A3005=
20170121_070000.002,0,RJTF,,,,0,20170121070000,-1,-1,-1,-1,360,-1,18,-1,28,-1,-1,,9999,0,0,1,FEW 30,1,8,-1,7,1017,RJTF 210700Z 36018G28KT 9999 FEW030 08/M07 Q1017 RMK 1CU030     A3005=
20170121_080000.002,0,RJTF,,,,0,20170121080000,-1,-1,-1,-1,-1,-1,-1,-1,-1,-1,-1,,-1,0,0,0,,0,-1,0,-1,-1,RJTF 210800Z NIL=
20170121_090000.003,0,RJTF,,,,0,20170121090000,-1,-1,-1,-1,-1,-1,-1,-1,-1,-1,-1,,-1,0,0,0,,0,-1,0,-1,-1,RJTF 210900Z NIL=
20170121_233000.001,0,RJTF,,,,0,20170121230000,-1,-1,-1,-1,350,-1,3,-1,-1,290,40,,9999,0,0,1,FEW 30,1,3,-1,5,1016,RJTF 212330Z 35003KT 290V040 9999 FEW030 03/M05 Q1016 RMK     1CU030 A3001=
20170122_000000.002,0,RJTF,,,,0,20170122000000,-1,-1,-1,-1,999,-1,2,-1,-1,-1,-1,,9999,0,0,1,FEW 30,1,4,-1,6,1015,RJTF 220000Z VRB02KT 9999 FEW030 04/M06 Q1015 RMK 1CU030     A2998=
20170122_010000.002,0,RJTF,,,,0,20170122010000,-1,-1,-1,-1,999,-1,1,-1,-1,-1,-1,,9999,0,0,1,FEW 30,1,6,-1,5,1014,RJTF 220100Z VRB01KT 9999 FEW030 06/M05 Q1014 RMK 1CU030     A2995=
20170122_020000.002,0,RJTF,,,,0,20170122020000,-1,-1,-1,-1,140,-1,5,-1,-1,110,200,,9999,0,0,1,FEW 30,1,8,-1,6,1012,RJTF 220200Z 14005KT 110V200 9999 FEW030 08/M06 Q1012 RMK     1CU030 A2990 P/FR=
20170122_030000.003,0,RJTF,,,,0,20170122030000,-1,-1,-1,-1,999,-1,3,-1,-1,-1,-1,,9999,0,0,1,FEW 30,1,9,-1,6,1010,RJTF 220300Z VRB03KT 9999 FEW030 09/M06 Q1010 RMK 1CU030 A2983     P/FR=
20170122_040000.003,0,RJTF,,,,0,20170122040000,-1,-1,-1,-1,20,-1,5,-1,-1,340,80,,9999,0,0,1,FEW 30,1,10,-1,6,1008,RJTF 220400Z 02005KT 340V080 9999 FEW030 10/M06 Q1008 RMK     1CU030 A2978=
20170122_050000.002,0,RJTF,,,,0,20170122050000,-1,-1,-1,-1,10,-1,6,-1,-1,330,60,,9999,0,0,1,FEW 30,1,11,-1,6,1007,RJTF 220500Z 01006KT 330V060 9999 FEW030 11/M06 Q1007 RMK     1CU030 A2974=
20170122_060000.002,0,RJTF,,,,0,20170122060000,-1,-1,-1,-1,350,-1,6,-1,-1,320,30,,9999,0,0,1,FEW 30,1,11,-1,7,1006,RJTF 220600Z 35006KT 320V030 9999 FEW030 11/M07 Q1006 RMK     1CU030 A2973=
20170122_070000.003,0,RJTF,,,,0,20170122070000,-1,-1,-1,-1,360,-1,8,-1,-1,330,50,,9999,0,0,1,FEW 30,1,10,-1,6,1006,RJTF 220700Z 36008KT 330V050 9999 FEW030 10/M06 Q1006 RMK     1CU030 A2973=
20170122_080000.003,0,RJTF,,,,0,20170122080000,-1,-1,-1,-1,-1,-1,-1,-1,-1,-1,-1,,-1,0,0,0,,0,-1,0,-1,-1,RJTF 220800Z NIL=
20170122_090000.004,0,RJTF,,,,0,20170122090000,-1,-1,-1,-1,-1,-1,-1,-1,-1,-1,-1,,-1,0,0,0,,0,-1,0,-1,-1,RJTF 220900Z NIL=
20170122_233000.001,0,RJTF,,,,0,20170122230000,-1,-1,-1,-1,340,-1,9,-1,-1,-1,-1,,9999,0,0,2,FEW 30   SCT 70,1,3,-1,9,1012,RJTF 222330Z 34009KT 9999 FEW030 SCT070 03/M09 Q1012 RMK     1CU030 3AC070 A2988=
20170123_000000.002,0,RJTF,,,,0,20170123000000,-1,-1,-1,-1,350,-1,12,-1,-1,-1,-1,,9999,0,0,1,FEW 30,1,4,-1,10,1012,RJTF 230000Z 35012KT 9999 FEW030 04/M10 Q1012 RMK 1CU030     A2989=
20170123_010000.002,0,RJTF,,,,0,20170123010000,-1,-1,-1,-1,360,-1,12,-1,-1,-1,-1,,9999,0,0,1,FEW 30,1,6,-1,11,1012,RJTF 230100Z 36012KT 9999 FEW030 06/M11 Q1012 RMK 1CU030     A2988=
20170123_020000.002,0,RJTF,,,,0,20170123020000,-1,-1,-1,-1,350,-1,13,-1,-1,320,20,,9999,0,0,1,FEW 30,1,7,-1,13,1011,RJTF 230200Z 35013KT 320V020 9999 FEW030 07/M13 Q1011 RMK     1CU030 A2986=
20170123_030000.002,0,RJTF,,,,0,20170123030000,-1,-1,-1,-1,350,-1,14,-1,-1,-1,-1,,9999,0,0,2,FEW 30   SCT 100,1,7,-1,14,1010,RJTF 230300Z 35014KT 9999 FEW030 SCT100 07/M14 Q1010 RMK     1CU030 4AC100 A2983=
20170123_040000.003,0,RJTF,,,,0,20170123040000,-1,-1,-1,-1,340,-1,13,-1,-1,-1,-1,,9999,0,0,2,FEW 30   BKN 100,1,7,-1,16,1010,RJTF 230400Z 34013KT 9999 FEW030 BKN100 07/M16 Q1010 RMK     1CU030 6AC100 A2982=
20170123_050000.002,0,RJTF,,,,0,20170123050000,-1,-1,-1,-1,360,-1,13,-1,-1,-1,-1,,9999,0,0,2,FEW 30   BKN 100,1,7,-1,15,1010,RJTF 230500Z 36013KT 9999 FEW030 BKN100 07/M15 Q1010 RMK     1CU030 7AC100 A2983=
20170123_060000.002,0,RJTF,,,,0,20170123060000,-1,-1,-1,-1,360,-1,13,-1,-1,320,30,,9999,0,0,3,FEW 30   SCT 100   BKN 130,1,6,-1,14,1010,RJTF 230600Z 36013KT 320V030 9999 FEW030 SCT100 BKN130 06/M14     Q1010 RMK 1CU030 4AC100 6AC130 A2984=
20170123_070000.002,0,RJTF,,,,0,20170123070000,-1,-1,-1,-1,360,-1,13,-1,-1,-1,-1,,9999,0,0,2,FEW 30   SCT 130,1,6,-1,16,1011,RJTF 230700Z 36013KT 9999 FEW030 SCT130 06/M16 Q1011 RMK     1CU030 4AC130 A2986=
20170123_080000.003,0,RJTF,,,,0,20170123080000,-1,-1,-1,-1,-1,-1,-1,-1,-1,-1,-1,,-1,0,0,0,,0,-1,0,-1,-1,RJTF 230800Z NIL=
20170123_090000.002,0,RJTF,,,,0,20170123090000,-1,-1,-1,-1,-1,-1,-1,-1,-1,-1,-1,,-1,0,0,0,,0,-1,0,-1,-1,RJTF 230900Z NIL=
20170123_233000.001,0,RJTF,,,,0,20170123230000,-1,-1,-1,-1,280,-1,3,-1,-1,230,320,,9999,0,0,1,FEW 30,1,1,-1,12,1019,RJTF 232330Z 28003KT 230V320 9999 FEW030 01/M12 Q1019 RMK     1CU030 A3011=
20170124_000000.002,0,RJTF,,,,0,20170124000000,-1,-1,-1,-1,999,-1,2,-1,-1,-1,-1,,9999,0,0,1,FEW 30,1,3,-1,13,1019,RJTF 240000Z VRB02KT 9999 FEW030 03/M13 Q1019 RMK 1CU030     A3011=
20170124_010000.004,0,RJTF,,,,0,20170124010000,-1,-1,-1,-1,310,-1,6,-1,-1,270,20,,9999,0,0,1,FEW 30,1,5,-1,16,1019,RJTF 240100Z 31006KT 270V020 9999 FEW030 05/M16 Q1019 RMK     1CU030 A3012=
20170124_020000.002,0,RJTF,,,,0,20170124020000,-1,-1,-1,-1,340,-1,9,-1,-1,290,20,,9999,0,0,1,FEW 30,1,6,-1,17,1019,RJTF 240200Z 34009KT 290V020 9999 FEW030 06/M17 Q1019 RMK     1CU030 A3010=
20170124_030000.002,0,RJTF,,,,0,20170124030000,-1,-1,-1,-1,360,-1,9,-1,-1,-1,-1,,9999,0,0,1,FEW 30,1,7,-1,17,1018,RJTF 240300Z 36009KT 9999 FEW030 07/M17 Q1018 RMK 1CU030     A3007=
20170124_040000.002,0,RJTF,,,,0,20170124040000,-1,-1,-1,-1,999,-1,4,-1,-1,-1,-1,,9999,0,0,1,FEW 30,1,6,-1,17,1017,RJTF 240400Z VRB04KT 9999 FEW030 06/M17 Q1017 RMK 1CU030     A3005=
20170124_050000.002,0,RJTF,,,,0,20170124050000,-1,-1,-1,-1,210,-1,4,-1,-1,90,270,,9999,0,0,2,FEW 30   SCT 90,1,7,-1,18,1017,RJTF 240500Z 21004KT 090V270 9999 FEW030 SCT090 07/M18 Q1017     RMK 1CU030 3AC090 A3005=
20170124_060000.002,0,RJTF,,,,0,20170124060000,-1,-1,-1,-1,330,-1,7,-1,-1,300,360,,9999,0,0,1,FEW 30,1,7,-1,18,1017,RJTF 240600Z 33007KT 300V360 9999 FEW030 07/M18 Q1017 RMK     1CU030 A3005=
20170124_070000.002,0,RJTF,,,,0,20170124070000,-1,-1,-1,-1,340,-1,9,-1,-1,-1,-1,,9999,0,0,2,FEW 30   SCT 100,1,6,-1,17,1018,RJTF 240700Z 34009KT 9999 FEW030 SCT100 06/M17 Q1018 RMK     1CU030 3AC100 A3007=
20170124_080000.002,0,RJTF,,,,0,20170124080000,-1,-1,-1,-1,-1,-1,-1,-1,-1,-1,-1,,-1,0,0,0,,0,-1,0,-1,-1,RJTF 240800Z NIL=
20170124_090000.002,0,RJTF,,,,0,20170124090000,-1,-1,-1,-1,-1,-1,-1,-1,-1,-1,-1,,-1,0,0,0,,0,-1,0,-1,-1,RJTF 240900Z NIL=
20170124_233000.001,0,RJTF,,,,0,20170124230000,-1,-1,-1,-1,999,-1,2,-1,-1,-1,-1,CAVOK,-1,0,0,0,,1,1,-1,11,1026,RJTF 242330Z VRB02KT CAVOK 01/M11 Q1026 RMK A3030=
20170125_000000.002,0,RJTF,,,,0,20170125000000,-1,-1,-1,-1,999,-1,1,-1,-1,-1,-1,CAVOK,-1,0,0,0,,1,4,-1,12,1026,RJTF 250000Z VRB01KT CAVOK 04/M12 Q1026 RMK A3030=
20170125_010000.003,0,RJTF,,,,0,20170125010000,-1,-1,-1,-1,270,-1,4,-1,-1,180,330,CAVOK,-1,0,0,0,,1,6,-1,14,1026,RJTF 250100Z 27004KT 180V330 CAVOK 06/M14 Q1026 RMK A3031=
20170125_020000.003,0,RJTF,,,,0,20170125020000,-1,-1,-1,-1,310,-1,4,-1,-1,260,20,,9999,0,0,1,FEW 30,1,7,-1,16,1025,RJTF 250200Z 31004KT 260V020 9999 FEW030 07/M16 Q1025 RMK     1CU030 A3029=
20170125_030000.002,0,RJTF,,,,0,20170125030000,-1,-1,-1,-1,999,-1,3,-1,-1,-1,-1,,9999,0,0,1,FEW 30,1,8,-1,14,1024,RJTF 250300Z VRB03KT 9999 FEW030 08/M14 Q1024 RMK 1CU030     A3026=
20170125_040000.002,0,RJTF,,,,0,20170125040000,-1,-1,-1,-1,340,-1,7,-1,-1,290,50,,9999,0,0,1,FEW 30,1,9,-1,15,1024,RJTF 250400Z 34007KT 290V050 9999 FEW030 09/M15 Q1024 RMK     1CU030 A3024=
20170125_050000.002,0,RJTF,,,,0,20170125050000,-1,-1,-1,-1,360,-1,11,-1,-1,330,40,,9999,0,0,1,FEW 30,1,10,-1,15,1023,RJTF 250500Z 36011KT 330V040 9999 FEW030 10/M15 Q1023 RMK     1CU030 A3023=
20170125_060000.002,0,RJTF,,,,0,20170125060000,-1,-1,-1,-1,350,-1,14,-1,-1,310,10,,9999,0,0,1,FEW 30,1,9,-1,18,1024,RJTF 250600Z 35014KT 310V010 9999 FEW030 09/M18 Q1024 RMK     1CU030 A3024=
20170125_070000.002,0,RJTF,,,,0,20170125070000,-1,-1,-1,-1,10,-1,13,-1,-1,-1,-1,,9999,0,0,1,FEW 30,1,8,-1,15,1024,RJTF 250700Z 01013KT 9999 FEW030 08/M15 Q1024 RMK 1CU030     A3025=
20170125_080000.002,0,RJTF,,,,0,20170125080000,-1,-1,-1,-1,-1,-1,-1,-1,-1,-1,-1,,-1,0,0,0,,0,-1,0,-1,-1,RJTF 250800Z NIL=
20170125_090000.002,0,RJTF,,,,0,20170125090000,-1,-1,-1,-1,-1,-1,-1,-1,-1,-1,-1,,-1,0,0,0,,0,-1,0,-1,-1,RJTF 250900Z NIL=
20170125_233000.001,0,RJTF,,,,0,20170125230000,-1,-1,-1,-1,999,-1,2,-1,-1,-1,-1,CAVOK,-1,0,0,0,,1,1,-1,8,1028,RJTF 252330Z VRB02KT CAVOK 01/M08 Q1028 RMK A3036=
20170126_000000.002,0,RJTF,,,,0,20170126000000,-1,-1,-1,-1,999,-1,1,-1,-1,-1,-1,CAVOK,-1,0,0,0,,1,3,-1,9,1028,RJTF 260000Z VRB01KT CAVOK 03/M09 Q1028 RMK A3036=
20170126_010000.002,0,RJTF,,,,0,20170126010000,-1,-1,-1,-1,999,-1,1,-1,-1,-1,-1,,9999,0,0,1,FEW 30,1,5,-1,11,1028,RJTF 260100Z VRB01KT 9999 FEW030 05/M11 Q1028 RMK 1CU030     A3036=
20170126_020000.002,0,RJTF,,,,0,20170126020000,-1,-1,-1,-1,999,-1,3,-1,-1,-1,-1,,9999,0,0,1,FEW 30,1,7,-1,12,1027,RJTF 260200Z VRB03KT 9999 FEW030 07/M12 Q1027 RMK 1CU030     A3034=
20170126_030000.002,0,RJTF,,,,0,20170126030000,-1,-1,-1,-1,999,-1,2,-1,-1,-1,-1,,9999,0,0,1,FEW 30,1,9,-1,11,1026,RJTF 260300Z VRB02KT 9999 FEW030 09/M11 Q1026 RMK 1CU030     A3031=
20170126_040000.002,0,RJTF,,,,0,20170126040000,-1,-1,-1,-1,220,-1,3,-1,-1,180,270,,9999,0,0,1,FEW 30,1,9,-1,13,1025,RJTF 260400Z 22003KT 180V270 9999 FEW030 09/M13 Q1025 RMK     1CU030 A3028=
20170126_050000.002,0,RJTF,,,,0,20170126050000,-1,-1,-1,-1,140,-1,4,-1,-1,60,170,,9999,0,0,1,FEW 30,1,10,-1,16,1025,RJTF 260500Z 14004KT 060V170 9999 FEW030 10/M16 Q1025 RMK     1CU030 A3028=
20170126_060000.002,0,RJTF,,,,0,20170126060000,-1,-1,-1,-1,160,-1,4,-1,-1,80,230,,9999,0,0,1,FEW 30,1,10,-1,11,1025,RJTF 260600Z 16004KT 080V230 9999 FEW030 10/M11 Q1025 RMK     1CU030 A3028=
20170126_070000.002,0,RJTF,,,,0,20170126070000,-1,-1,-1,-1,150,-1,7,-1,-1,-1,-1,,9999,0,0,1,FEW 30,1,10,-1,10,1025,RJTF 260700Z 15007KT 9999 FEW030 10/M10 Q1025 RMK 1CU030     A3028=
20170126_080000.002,0,RJTF,,,,0,20170126080000,-1,-1,-1,-1,-1,-1,-1,-1,-1,-1,-1,,-1,0,0,0,,0,-1,0,-1,-1,RJTF 260800Z NIL=
20170126_090000.002,0,RJTF,,,,0,20170126090000,-1,-1,-1,-1,-1,-1,-1,-1,-1,-1,-1,,-1,0,0,0,,0,-1,0,-1,-1,RJTF 260900Z NIL=
20170126_233000.001,0,RJTF,,,,0,20170126230000,-1,-1,-1,-1,999,-1,2,-1,-1,-1,-1,,9999,0,0,3,FEW 30   SCT 50   BKN -9999,1,1,-1,3,1020,RJTF 262330Z VRB02KT 9999 FEW030 SCT050 BKN/// 01/M03 Q1020     RMK 1CU030 3SC050 A3013=
20170127_000000.002,0,RJTF,,,,0,20170127000000,-1,-1,-1,-1,999,-1,2,-1,-1,-1,-1,,9999,0,0,2,FEW 30   BKN -9999,1,2,-1,3,1020,RJTF 270000Z VRB02KT 9999 FEW030 BKN/// 02/M03 Q1020 RMK     1CU030 A3013=
20170127_010000.002,0,RJTF,,,,0,20170127010000,-1,-1,-1,-1,350,-1,6,-1,-1,320,20,,9999,0,0,2,FEW 30   BKN -9999,1,3,-1,4,1019,RJTF 270100Z 35006KT 320V020 9999 FEW030 BKN/// 03/M04 Q1019     RMK 1CU030 A3012=
20170127_020000.004,0,RJTF,,,,0,20170127020000,-1,-1,-1,-1,360,-1,5,-1,-1,-1,-1,,9999,0,0,2,FEW 30   BKN -9999,1,5,-1,5,1019,RJTF 270200Z 36005KT 9999 FEW030 BKN/// 05/M05 Q1019 RMK     1CU030 A3009=
20170127_030000.002,0,RJTF,,,,0,20170127030000,-1,-1,-1,-1,999,-1,1,-1,-1,-1,-1,,9999,0,0,2,FEW 30   SCT -9999,1,9,-1,5,1016,RJTF 270300Z VRB01KT 9999 FEW030 SCT/// 09/M05 Q1016 RMK     1CU030 A3003 P/FR=
20170127_040000.002,0,RJTF,,,,0,20170127040000,-1,-1,-1,-1,200,-1,13,-1,24,160,250,,9999,0,0,1,FEW 30,1,16,-1,0,1014,RJTF 270400Z 20013G24KT 160V250 9999 FEW030 16/M00 Q1014 RMK     1CU030 A2996=
20170127_050000.002,0,RJTF,,,,0,20170127050000,-1,-1,-1,-1,180,-1,15,-1,-1,-1,-1,,9999,0,0,2,FEW 30   SCT -9999,1,16,-1,1,1013,RJTF 270500Z 18015KT 9999 FEW030 SCT/// 16/M01 Q1013 RMK     1CU030 A2992=
20170127_060000.003,0,RJTF,,,,0,20170127060000,-1,-1,-1,-1,240,-1,5,-1,-1,190,290,,9999,0,0,2,FEW 30   SCT -9999,1,17,-1,2,1013,RJTF 270600Z 24005KT 190V290 9999 FEW030 SCT/// 17/M02 Q1013     RMK 1CU030 A2992=
20170127_070000.003,0,RJTF,,,,0,20170127070000,-1,-1,-1,-1,220,-1,8,-1,-1,170,280,,9999,0,0,2,FEW 30   SCT -9999,1,16,-1,2,1013,RJTF 270700Z 22008KT 170V280 9999 FEW030 SCT/// 16/M02 Q1013     RMK 1CU030 A2991=
20170127_080000.002,0,RJTF,,,,0,20170127080000,-1,-1,-1,-1,-1,-1,-1,-1,-1,-1,-1,,-1,0,0,0,,0,-1,0,-1,-1,RJTF 270800Z NIL=
20170127_090000.003,0,RJTF,,,,0,20170127090000,-1,-1,-1,-1,-1,-1,-1,-1,-1,-1,-1,,-1,0,0,0,,0,-1,0,-1,-1,RJTF 270900Z NIL=
20170127_233000.001,0,RJTF,,,,0,20170127230000,-1,-1,-1,-1,340,-1,3,-1,-1,290,20,CAVOK,-1,0,0,0,,1,6,-1,3,1024,RJTF 272330Z 34003KT 290V020 CAVOK 06/M03 Q1024 RMK A3024=
20170128_000000.002,0,RJTF,,,,0,20170128000000,-1,-1,-1,-1,350,-1,8,-1,-1,310,30,CAVOK,-1,0,0,0,,1,8,-1,4,1024,RJTF 280000Z 35008KT 310V030 CAVOK 08/M04 Q1024 RMK A3025=
20170128_010000.002,0,RJTF,,,,0,20170128010000,-1,-1,-1,-1,10,-1,9,-1,-1,330,50,CAVOK,-1,0,0,0,,1,9,-1,5,1024,RJTF 280100Z 01009KT 330V050 CAVOK 09/M05 Q1024 RMK A3025=
20170128_020000.002,0,RJTF,,,,0,20170128020000,-1,-1,-1,-1,20,-1,7,-1,-1,350,70,CAVOK,-1,0,0,0,,1,10,-1,6,1023,RJTF 280200Z 02007KT 350V070 CAVOK 10/M06 Q1023 RMK A3023=
20170128_030000.002,0,RJTF,,,,0,20170128030000,-1,-1,-1,-1,60,-1,5,-1,-1,350,110,CAVOK,-1,0,0,0,,1,11,-1,6,1023,RJTF 280300Z 06005KT 350V110 CAVOK 11/M06 Q1023 RMK A3021=
20170128_040000.002,0,RJTF,,,,0,20170128040000,-1,-1,-1,-1,999,-1,3,-1,-1,-1,-1,,9999,0,0,1,FEW 30,1,12,-1,6,1022,RJTF 280400Z VRB03KT 9999 FEW030 12/M06 Q1022 RMK 1CU030     A3019=
20170128_050000.002,0,RJTF,,,,0,20170128050000,-1,-1,-1,-1,200,-1,3,-1,-1,140,320,CAVOK,-1,0,0,0,,1,13,-1,4,1022,RJTF 280500Z 20003KT 140V320 CAVOK 13/M04 Q1022 RMK A3019=
20170128_060000.002,0,RJTF,,,,0,20170128060000,-1,-1,-1,-1,999,-1,2,-1,-1,-1,-1,CAVOK,-1,0,0,0,,1,13,-1,5,1022,RJTF 280600Z VRB02KT CAVOK 13/M05 Q1022 RMK A3019=
20170128_070000.002,0,RJTF,,,,0,20170128070000,-1,-1,-1,-1,999,-1,1,-1,-1,-1,-1,CAVOK,-1,0,0,0,,1,13,-1,5,1023,RJTF 280700Z VRB01KT CAVOK 13/M05 Q1023 RMK A3021=
20170128_080000.002,0,RJTF,,,,0,20170128080000,-1,-1,-1,-1,-1,-1,-1,-1,-1,-1,-1,,-1,0,0,0,,0,-1,0,-1,-1,RJTF 280800Z NIL=
20170128_090000.003,0,RJTF,,,,0,20170128090000,-1,-1,-1,-1,-1,-1,-1,-1,-1,-1,-1,,-1,0,0,0,,0,-1,0,-1,-1,RJTF 280900Z NIL=
20170128_233000.001,0,RJTF,,,,0,20170128230000,-1,-1,-1,-1,10,-1,5,-1,-1,-1,-1,,9999,0,0,2,SCT 20   BKN 35,1,6,-1,3,1023,RJTF 282330Z 01005KT 9999 SCT020 BKN035 06/M03 Q1023 RMK     3SC020 7SC035 A3023=
20170129_000000.002,0,RJTF,,,,0,20170129000000,-1,-1,-1,-1,360,-1,5,-1,-1,-1,-1,,9999,0,0,2,SCT 20   BKN 30,1,6,-1,3,1023,RJTF 290000Z 36005KT 9999 SCT020 BKN030 06/M03 Q1023 RMK     4SC020 7SC030 A3023=
20170129_010000.002,0,RJTF,,,,0,20170129010000,-1,-1,-1,-1,10,-1,8,-1,-1,-1,-1,,9999,0,0,2,BKN 20   BKN 30,1,7,-1,3,1024,RJTF 290100Z 01008KT 9999 BKN020 BKN030 07/M03 Q1024 RMK     5SC020 7SC030 A3024=
20170129_020000.002,0,RJTF,,,,0,20170129020000,-1,-1,-1,-1,360,-1,6,-1,-1,330,30,,9999,0,0,2,FEW 20   BKN 35,1,9,-1,2,1023,RJTF 290200Z 36006KT 330V030 9999 FEW020 BKN035 09/M02 Q1023     RMK 1CU020 6SC035 A3021=
20170129_030000.002,0,RJTF,,,,0,20170129030000,-1,-1,-1,-1,20,-1,5,-1,-1,320,90,,9999,0,0,2,FEW 20   BKN 30,1,10,1,0,1021,RJTF 290300Z 02005KT 320V090 9999 FEW020 BKN030 10/00 Q1021     RMK 2CU020 6SC030 A3016=
20170129_040000.002,0,RJTF,,,,0,20170129040000,-1,-1,-1,-1,40,-1,7,-1,-1,360,80,,9999,0,0,1,FEW 25,1,11,1,0,1019,RJTF 290400Z 04007KT 360V080 9999 FEW025 11/00 Q1019 RMK     1CU025 A3012=
20170129_050000.002,0,RJTF,,,,0,20170129050000,-1,-1,-1,-1,90,-1,5,-1,-1,40,160,,9999,0,0,3,FEW 25   SCT 150   BKN -9999,1,11,1,1,1019,RJTF 290500Z 09005KT 040V160 9999 FEW025 SCT150 BKN/// 11/01     Q1019 RMK 1CU025 3AC150 A3009=
20170129_060000.002,0,RJTF,,,,0,20170129060000,-1,-1,-1,-1,100,-1,3,-1,-1,10,160,,9999,0,0,3,FEW 30   SCT 180   BKN -9999,1,11,1,1,1018,RJTF 290600Z 10003KT 010V160 9999 FEW030 SCT180 BKN/// 11/01     Q1018 RMK 1CU030 3AC180 A3009=
20170129_070000.002,0,RJTF,,,,0,20170129070000,-1,-1,-1,-1,50,-1,3,-1,-1,30,90,,9999,0,0,3,FEW 30   SCT 180   BKN -9999,1,11,1,2,1018,RJTF 290700Z 05003KT 030V090 9999 FEW030 SCT180 BKN/// 11/02     Q1018 RMK 1CU030 3AC180 A3006=
20170129_080000.002,0,RJTF,,,,0,20170129080000,-1,-1,-1,-1,-1,-1,-1,-1,-1,-1,-1,,-1,0,0,0,,0,-1,0,-1,-1,RJTF 290800Z NIL=
20170129_090000.002,0,RJTF,,,,0,20170129090000,-1,-1,-1,-1,-1,-1,-1,-1,-1,-1,-1,,-1,0,0,0,,0,-1,0,-1,-1,RJTF 290900Z NIL=
20170129_233000.001,0,RJTF,,,,0,20170129230000,-1,-1,-1,-1,999,-1,2,-1,-1,-1,-1,,9999,0,0,1,FEW 20,1,8,1,3,1001,RJTF 292330Z VRB02KT 9999 FEW020 08/03 Q1001 RMK 1CU020 A2956=
20170130_000000.003,0,RJTF,,,,0,20170130000000,-1,-1,-1,-1,999,-1,1,-1,-1,-1,-1,,8000,0,0,1,FEW 20,1,9,1,4,1000,RJTF 300000Z VRB01KT 8000 FEW020 09/04 Q1000 RMK 1CU020 A2954=
20170130_010000.002,0,RJTF,,,,0,20170130010000,-1,-1,-1,-1,999,-1,1,-1,-1,-1,-1,,9999,0,0,1,FEW 20,1,13,1,6,998,RJTF 300100Z VRB01KT 9999 FEW020 13/06 Q0998 RMK 1CU020 A2949=
20170130_020000.002,0,RJTF,,,,0,20170130020000,-1,-1,-1,-1,360,-1,9,-1,-1,-1,-1,,9999,0,0,1,FEW 25,1,17,1,6,998,RJTF 300200Z 36009KT 9999 FEW025 17/06 Q0998 RMK 1CU025 A2949=
20170130_030000.002,0,RJTF,,,,0,20170130030000,-1,-1,-1,-1,360,-1,12,-1,-1,330,30,,9999,0,0,2,FEW 25   SCT 80,1,15,1,4,998,RJTF 300300Z 36012KT 330V030 9999 FEW025 SCT080 15/04 Q0998     RMK 1CU025 3AC080 A2949=
20170130_040000.002,0,RJTF,,,,0,20170130040000,-1,-1,-1,-1,10,-1,9,-1,-1,330,50,,9999,0,0,2,FEW 30   SCT 80,1,17,1,4,998,RJTF 300400Z 01009KT 330V050 9999 FEW030 SCT080 17/04 Q0998     RMK 1CU030 3AC080 A2947=
20170130_050000.002,0,RJTF,,,,0,20170130050000,-1,-1,-1,-1,20,-1,7,-1,-1,360,70,,9999,0,0,2,FEW 30   SCT 70,1,17,1,4,998,RJTF 300500Z 02007KT 360V070 9999 FEW030 SCT070 17/04 Q0998     RMK 1CU030 3AC070 A2947=
20170130_060000.002,0,RJTF,,,,0,20170130060000,-1,-1,-1,-1,20,-1,8,-1,-1,-1,-1,,9999,0,0,1,FEW 30,1,17,1,4,998,RJTF 300600Z 02008KT 9999 FEW030 17/04 Q0998 RMK 1CU030 A2948=
20170130_070000.002,0,RJTF,,,,0,20170130070000,-1,-1,-1,-1,20,-1,10,-1,-1,340,50,,9999,0,0,1,FEW 30,1,16,1,1,998,RJTF 300700Z 02010KT 340V050 9999 FEW030 16/01 Q0998 RMK     1CU030 A2949=
20170130_080000.002,0,RJTF,,,,0,20170130080000,-1,-1,-1,-1,-1,-1,-1,-1,-1,-1,-1,,-1,0,0,0,,0,-1,0,-1,-1,RJTF 300800Z NIL=
20170130_090000.002,0,RJTF,,,,0,20170130090000,-1,-1,-1,-1,-1,-1,-1,-1,-1,-1,-1,,-1,0,0,0,,0,-1,0,-1,-1,RJTF 300900Z NIL=
20170130_233000.001,0,RJTF,,,,0,20170130230000,-1,-1,-1,-1,10,-1,16,-1,-1,-1,-1,,9999,0,0,1,FEW 30,1,5,-1,12,1018,RJTF 302330Z 01016KT 9999 FEW030 05/M12 Q1018 RMK 1CU030     A3009=
20170131_000000.002,0,RJTF,,,,0,20170131000000,-1,-1,-1,-1,350,-1,14,-1,24,-1,-1,,9999,0,0,1,FEW 30,1,5,-1,13,1019,RJTF 310000Z 35014G24KT 9999 FEW030 05/M13 Q1019 RMK 1CU030     A3010=
20170131_010000.002,0,RJTF,,,,0,20170131010000,-1,-1,-1,-1,360,-1,15,-1,-1,320,30,,9999,0,0,1,FEW 30,1,7,-1,13,1019,RJTF 310100Z 36015KT 320V030 9999 FEW030 07/M13 Q1019 RMK     1CU030 A3011=
20170131_020000.002,0,RJTF,,,,0,20170131020000,-1,-1,-1,-1,360,-1,14,-1,-1,320,30,,9999,0,0,1,FEW 30,1,8,-1,13,1019,RJTF 310200Z 36014KT 320V030 9999 FEW030 08/M13 Q1019 RMK     1CU030 A3010=
20170131_030000.002,0,RJTF,,,,0,20170131030000,-1,-1,-1,-1,20,-1,15,-1,-1,340,60,,9999,0,0,1,FEW 30,1,8,-1,11,1019,RJTF 310300Z 02015KT 340V060 9999 FEW030 08/M11 Q1019 RMK     1CU030 A3010=
20170131_040000.002,0,RJTF,,,,0,20170131040000,-1,-1,-1,-1,350,-1,14,-1,-1,320,20,,9999,0,0,1,FEW 30,1,9,-1,10,1018,RJTF 310400Z 35014KT 320V020 9999 FEW030 09/M10 Q1018 RMK     1CU030 A3007=
20170131_050000.002,0,RJTF,,,,0,20170131050000,-1,-1,-1,-1,10,-1,11,-1,-1,340,80,,9999,0,0,1,FEW 30,1,9,-1,10,1019,RJTF 310500Z 01011KT 340V080 9999 FEW030 09/M10 Q1019 RMK     1CU030 A3009=
20170131_060000.002,0,RJTF,,,,0,20170131060000,-1,-1,-1,-1,350,-1,9,-1,-1,310,20,,9999,0,0,1,FEW 30,1,9,-1,11,1019,RJTF 310600Z 35009KT 310V020 9999 FEW030 09/M11 Q1019 RMK     1CU030 A3010=
20170131_070000.002,0,RJTF,,,,0,20170131070000,-1,-1,-1,-1,20,-1,6,-1,-1,340,60,,9999,0,0,1,FEW 30,1,8,-1,10,1019,RJTF 310700Z 02006KT 340V060 9999 FEW030 08/M10 Q1019 RMK     1CU030 A3011=
20170131_080000.002,0,RJTF,,,,0,20170131080000,-1,-1,-1,-1,-1,-1,-1,-1,-1,-1,-1,,-1,0,0,0,,0,-1,0,-1,-1,RJTF 310800Z NIL=
20170131_090000.002,0,RJTF,,,,0,20170131090000,-1,-1,-1,-1,-1,-1,-1,-1,-1,-1,-1,,-1,0,0,0,,0,-1,0,-1,-1,RJTF 310900Z NIL=
20170131_233000.001,0,RJTF,,,,0,20170131230000,-1,-1,-1,-1,360,-1,5,-1,-1,-1,-1,,9999,0,0,2,FEW 35   SCT -9999,1,3,-1,8,1017,RJTF 312330Z 36005KT 9999 FEW035 SCT/// 03/M08 Q1017 RMK     2CU035 A3006=
20170201_000000.002,0,RJTF,,,,0,20170201000000,-1,-1,-1,-1,350,-1,5,-1,-1,310,30,,9999,0,0,2,FEW 35   SCT -9999,1,3,-1,8,1017,RJTF 010000Z 35005KT 310V030 9999 FEW035 SCT/// 03/M08 Q1017     RMK 2CU035 A3005=
20170201_010000.002,0,RJTF,,,,0,20170201010000,-1,-1,-1,-1,20,-1,5,-1,-1,310,60,,9999,0,0,2,FEW 30   SCT 50,1,5,-1,9,1016,RJTF 010100Z 02005KT 310V060 9999 FEW030 SCT050 05/M09 Q1016     RMK 1CU030 3SC050 A3001=
20170201_020000.002,0,RJTF,,,,0,20170201020000,-1,-1,-1,-1,999,-1,2,-1,-1,-1,-1,,9999,0,0,1,FEW 30,1,7,-1,7,1014,RJTF 010200Z VRB02KT 9999 FEW030 07/M07 Q1014 RMK 1CU030     A2997=
20170201_030000.002,0,RJTF,,,,0,20170201030000,-1,-1,-1,-1,999,-1,2,-1,-1,-1,-1,,9999,0,0,1,FEW 30,1,7,-1,8,1012,RJTF 010300Z VRB02KT 9999 FEW030 07/M08 Q1012 RMK 1CU030 A2991     P/FR=
20170201_040000.002,0,RJTF,,,,0,20170201040000,-1,-1,-1,-1,999,-1,3,-1,-1,-1,-1,,9999,0,0,1,FEW 40,1,9,-1,7,1010,RJTF 010400Z VRB03KT 9999 FEW040 09/M07 Q1010 RMK 1SC040 A2985     P/FR=
20170201_050000.003,0,RJTF,,,,0,20170201050000,-1,-1,-1,-1,999,-1,1,-1,-1,-1,-1,,9999,0,0,2,FEW 40   SCT -9999,1,10,-1,7,1009,RJTF 010500Z VRB01KT 9999 FEW040 SCT/// 10/M07 Q1009 RMK     1SC040 A2981=
20170201_060000.002,0,RJTF,,,,0,20170201060000,-1,-1,-1,-1,20,-1,4,-1,-1,340,110,,9999,0,0,2,FEW 40   SCT 170,1,10,-1,7,1008,RJTF 010600Z 02004KT 340V110 9999 FEW040 SCT170 10/M07 Q1008     RMK 1SC040 4AC170 A2977=
20170201_070000.002,0,RJTF,,,,0,20170201070000,-1,-1,-1,-1,360,-1,3,-1,-1,290,60,,9999,0,0,2,FEW 30   SCT 150,1,10,-1,7,1008,RJTF 010700Z 36003KT 290V060 9999 FEW030 SCT150 10/M07 Q1008     RMK 1CU030 4AC150 A2977=
20170201_080000.002,0,RJTF,,,,0,20170201080000,-1,-1,-1,-1,-1,-1,-1,-1,-1,-1,-1,,-1,0,0,0,,0,-1,0,-1,-1,RJTF 010800Z NIL=
20170201_090000.003,0,RJTF,,,,0,20170201090000,-1,-1,-1,-1,-1,-1,-1,-1,-1,-1,-1,,-1,0,0,0,,0,-1,0,-1,-1,RJTF 010900Z NIL=
20170201_233000.001,0,RJTF,,,,0,20170201230000,-1,-1,-1,-1,350,-1,14,-1,-1,-1,-1,,9999,0,0,1,FEW 30,1,4,-1,13,1015,RJTF 012330Z 35014KT 9999 FEW030 04/M13 Q1015 RMK 1CU030     A2997=
20170202_000000.002,0,RJTF,,,,0,20170202000000,-1,-1,-1,-1,350,-1,14,-1,-1,-1,-1,,9999,0,0,1,FEW 30,1,4,-1,13,1014,RJTF 020000Z 35014KT 9999 FEW030 04/M13 Q1014 RMK 1CU030     A2997=
20170202_010000.002,0,RJTF,,,,0,20170202010000,-1,-1,-1,-1,340,-1,14,-1,-1,-1,-1,,9999,0,0,1,FEW 30,1,6,-1,14,1014,RJTF 020100Z 34014KT 9999 FEW030 06/M14 Q1014 RMK 1CU030     A2995=
20170202_020000.003,0,RJTF,,,,0,20170202020000,-1,-1,-1,-1,350,-1,14,-1,-1,310,20,,9999,0,0,1,FEW 30,1,7,-1,15,1013,RJTF 020200Z 35014KT 310V020 9999 FEW030 07/M15 Q1013 RMK     1CU030 A2993=
20170202_030000.002,0,RJTF,,,,0,20170202030000,-1,-1,-1,-1,330,-1,12,-1,24,290,350,,9999,0,0,1,FEW 30,1,8,-1,15,1012,RJTF 020300Z 33012G24KT 290V350 9999 FEW030 08/M15 Q1012 RMK     1CU030 A2989=
20170202_040000.003,0,RJTF,,,,0,20170202040000,-1,-1,-1,-1,320,-1,8,-1,-1,280,360,,9999,0,0,1,FEW 30,1,9,-1,15,1011,RJTF 020400Z 32008KT 280V360 9999 FEW030 09/M15 Q1011 RMK     1CU030 A2986=
20170202_050000.002,0,RJTF,,,,0,20170202050000,-1,-1,-1,-1,310,-1,8,-1,-1,270,350,,9999,0,0,1,FEW 30,1,10,-1,14,1010,RJTF 020500Z 31008KT 270V350 9999 FEW030 10/M14 Q1010 RMK     1CU030 A2985=
20170202_060000.002,0,RJTF,,,,0,20170202060000,-1,-1,-1,-1,350,-1,11,-1,-1,-1,-1,,9999,0,0,1,FEW 30,1,10,-1,14,1011,RJTF 020600Z 35011KT 9999 FEW030 10/M14 Q1011 RMK 1CU030     A2986=
20170202_070000.002,0,RJTF,,,,0,20170202070000,-1,-1,-1,-1,340,-1,14,-1,-1,290,360,,9999,0,0,1,FEW 30,1,9,-1,14,1011,RJTF 020700Z 34014KT 290V360 9999 FEW030 09/M14 Q1011 RMK     1CU030 A2987=
20170202_080000.002,0,RJTF,,,,0,20170202080000,-1,-1,-1,-1,-1,-1,-1,-1,-1,-1,-1,,-1,0,0,0,,0,-1,0,-1,-1,RJTF 020800Z NIL=
20170202_090000.002,0,RJTF,,,,0,20170202090000,-1,-1,-1,-1,-1,-1,-1,-1,-1,-1,-1,,-1,0,0,0,,0,-1,0,-1,-1,RJTF 020900Z NIL=
20170202_233000.001,0,RJTF,,,,0,20170202230000,-1,-1,-1,-1,340,-1,11,-1,-1,-1,-1,CAVOK,-1,0,0,0,,1,8,-1,10,1015,RJTF 022330Z 34011KT CAVOK 08/M10 Q1015 RMK A2999=
20170203_000000.002,0,RJTF,,,,0,20170203000000,-1,-1,-1,-1,330,-1,11,-1,-1,-1,-1,,9999,0,0,1,FEW 30,1,9,-1,10,1015,RJTF 030000Z 33011KT 9999 FEW030 09/M10 Q1015 RMK 1CU030     A2999=
20170203_010000.003,0,RJTF,,,,0,20170203010000,-1,-1,-1,-1,340,-1,11,-1,-1,310,10,,9999,0,0,1,FEW 30,1,10,-1,11,1015,RJTF 030100Z 34011KT 310V010 9999 FEW030 10/M11 Q1015 RMK     1CU030 A2998=
20170203_020000.002,0,RJTF,,,,0,20170203020000,-1,-1,-1,-1,330,-1,13,-1,-1,290,360,,9999,0,0,1,FEW 30,1,11,-1,11,1014,RJTF 030200Z 33013KT 290V360 9999 FEW030 11/M11 Q1014 RMK     1CU030 A2997=
20170203_030000.002,0,RJTF,,,,0,20170203030000,-1,-1,-1,-1,340,-1,15,-1,-1,300,10,,9999,0,0,1,FEW 30,1,12,-1,12,1014,RJTF 030300Z 34015KT 300V010 9999 FEW030 12/M12 Q1014 RMK     1CU030 A2995=
20170203_040000.002,0,RJTF,,,,0,20170203040000,-1,-1,-1,-1,330,-1,13,-1,26,290,360,,9999,0,0,1,FEW 30,1,13,-1,13,1013,RJTF 030400Z 33013G26KT 290V360 9999 FEW030 13/M13 Q1013 RMK     1CU030 A2993=
20170203_050000.002,0,RJTF,,,,0,20170203050000,-1,-1,-1,-1,10,-1,12,-1,22,340,40,,9999,0,0,1,FEW 30,1,13,-1,13,1013,RJTF 030500Z 01012G22KT 340V040 9999 FEW030 13/M13 Q1013 RMK     1CU030 A2994=
20170203_060000.002,0,RJTF,,,,0,20170203060000,-1,-1,-1,-1,10,-1,15,-1,-1,-1,-1,,9999,0,0,1,FEW 30,1,11,-1,10,1014,RJTF 030600Z 01015KT 9999 FEW030 11/M10 Q1014 RMK 1CU030     A2995=
20170203_070000.002,0,RJTF,,,,0,20170203070000,-1,-1,-1,-1,360,-1,12,-1,-1,330,40,,9999,0,0,1,FEW 30,1,10,-1,9,1015,RJTF 030700Z 36012KT 330V040 9999 FEW030 10/M09 Q1015 RMK     1CU030 A2998=
20170203_080000.002,0,RJTF,,,,0,20170203080000,-1,-1,-1,-1,-1,-1,-1,-1,-1,-1,-1,,-1,0,0,0,,0,-1,0,-1,-1,RJTF 030800Z NIL=
20170203_090000.002,0,RJTF,,,,0,20170203090000,-1,-1,-1,-1,-1,-1,-1,-1,-1,-1,-1,,-1,0,0,0,,0,-1,0,-1,-1,RJTF 030900Z NIL=
20170203_233000.001,0,RJTF,,,,0,20170203230000,-1,-1,-1,-1,340,-1,10,-1,-1,-1,-1,,9999,0,0,1,FEW 30,1,8,-1,8,1019,RJTF 032330Z 34010KT 9999 FEW030 08/M08 Q1019 RMK 1CU030     A3010=
20170204_000000.003,0,RJTF,,,,0,20170204000000,-1,-1,-1,-1,340,-1,11,-1,-1,310,10,,9999,0,0,1,FEW 30,1,8,-1,8,1019,RJTF 040000Z 34011KT 310V010 9999 FEW030 08/M08 Q1019 RMK     1CU030 A3011=
20170204_010000.002,0,RJTF,,,,0,20170204010000,-1,-1,-1,-1,350,-1,9,-1,-1,300,20,CAVOK,-1,0,0,0,,1,10,-1,9,1019,RJTF 040100Z 35009KT 300V020 CAVOK 10/M09 Q1019 RMK A3010=
20170204_020000.002,0,RJTF,,,,0,20170204020000,-1,-1,-1,-1,10,-1,6,-1,-1,330,50,CAVOK,-1,0,0,0,,1,11,-1,9,1018,RJTF 040200Z 01006KT 330V050 CAVOK 11/M09 Q1018 RMK A3009=
20170204_030000.002,0,RJTF,,,,0,20170204030000,-1,-1,-1,-1,60,-1,4,-1,-1,330,110,,9999,0,0,1,FEW 30,1,11,-1,9,1018,RJTF 040300Z 06004KT 330V110 9999 FEW030 11/M09 Q1018 RMK     1CU030 A3006=
20170204_040000.002,0,RJTF,,,,0,20170204040000,-1,-1,-1,-1,999,-1,1,-1,-1,-1,-1,,9999,0,0,1,FEW 30,1,12,-1,9,1017,RJTF 040400Z VRB01KT 9999 FEW030 12/M09 Q1017 RMK 1CU030     A3004=
20170204_050000.002,0,RJTF,,,,0,20170204050000,-1,-1,-1,-1,999,-1,2,-1,-1,-1,-1,,9999,0,0,1,FEW 30,1,12,-1,9,1017,RJTF 040500Z VRB02KT 9999 FEW030 12/M09 Q1017 RMK 1CU030     A3003=
20170204_060000.002,0,RJTF,,,,0,20170204060000,-1,-1,-1,-1,999,-1,2,-1,-1,-1,-1,,9999,0,0,1,FEW 30,1,13,-1,9,1016,RJTF 040600Z VRB02KT 9999 FEW030 13/M09 Q1016 RMK 1CU030     A3003=
20170204_070000.002,0,RJTF,,,,0,20170204070000,-1,-1,-1,-1,170,-1,8,-1,-1,-1,-1,,9999,0,0,1,FEW 30,1,12,-1,6,1017,RJTF 040700Z 17008KT 9999 FEW030 12/M06 Q1017 RMK 1CU030     A3004=
20170204_080000.003,0,RJTF,,,,0,20170204080000,-1,-1,-1,-1,-1,-1,-1,-1,-1,-1,-1,,-1,0,0,0,,0,-1,0,-1,-1,RJTF 040800Z NIL=
20170204_090000.002,0,RJTF,,,,0,20170204090000,-1,-1,-1,-1,-1,-1,-1,-1,-1,-1,-1,,-1,0,0,0,,0,-1,0,-1,-1,RJTF 040900Z NIL=
20170204_233000.001,0,RJTF,,,,0,20170204230000,-1,-1,-1,-1,340,-1,5,-1,-1,-1,-1,,9999,0,0,2,FEW 30   SCT 110,1,4,-1,5,1015,RJTF 042330Z 34005KT 9999 FEW030 SCT110 04/M05 Q1015 RMK     1CU030 3AC110 A2999=
20170205_000000.003,0,RJTF,,,,0,20170205000000,-1,-1,-1,-1,999,-1,2,-1,-1,-1,-1,,9999,0,0,2,FEW 30   SCT 100,1,6,-1,5,1016,RJTF 050000Z VRB02KT 9999 FEW030 SCT100 06/M05 Q1016 RMK     1CU030 3AC100 A3000=
20170205_010000.002,0,RJTF,,,,0,20170205010000,-1,-1,-1,-1,330,-1,3,-1,-1,220,20,,9999,0,0,3,FEW 30   SCT 90   BKN 140,1,8,-1,6,1015,RJTF 050100Z 33003KT 220V020 9999 FEW030 SCT090 BKN140 08/M06     Q1015 RMK 1CU030 3AC090 6AC140 A2998=
20170205_020000.002,0,RJTF,,,,0,20170205020000,-1,-1,-1,-1,350,-1,3,-1,-1,290,60,,9999,0,0,3,FEW 30   SCT 90   BKN 140,1,9,-1,6,1014,RJTF 050200Z 35003KT 290V060 9999 FEW030 SCT090 BKN140 09/M06     Q1014 RMK 1CU030 3AC090 7AC140 A2996=
20170205_030000.003,0,RJTF,,,,0,20170205030000,-1,-1,-1,-1,999,-1,2,-1,-1,-1,-1,,9999,0,0,3,FEW 30   SCT 80   BKN 130,1,9,-1,5,1013,RJTF 050300Z VRB02KT 9999 FEW030 SCT080 BKN130 09/M05 Q1013     RMK 1CU030 3AC080 7AC130 A2991=
20170205_040000.003,0,RJTF,,,,0,20170205040000,-1,-1,-1,-1,999,-1,2,-1,-1,-1,-1,,9999,0,1,3,FEW 40   SCT 60   BKN 80,1,9,-1,4,1011,RJTF 050400Z VRB02KT 9999 -RA FEW040 SCT060 BKN080 09/M04     Q1011 RMK 1SC040 3SC060 6AC080 A2988=
20170205_050000.002,0,RJTF,,,,0,20170205050000,-1,-1,-1,-1,999,-1,2,-1,-1,-1,-1,,9999,0,0,3,FEW 40   SCT 60   BKN 100,1,10,-1,3,1010,RJTF 050500Z VRB02KT 9999 FEW040 SCT060 BKN100 10/M03 Q1010     RMK 1SC040 3SC060 7AC100 A2985=
20170205_060000.003,0,RJTF,,,,0,20170205060000,-1,-1,-1,-1,0,-1,0,-1,-1,-1,-1,,9999,0,0,3,SCT 40   BKN 60   BKN 100,1,10,-1,3,1010,RJTF 050600Z 00000KT 9999 SCT040 BKN060 BKN100 10/M03 Q1010     RMK 3SC040 5SC060 7AC100 A2983=
20170205_070000.002,0,RJTF,,,,0,20170205070000,-1,-1,-1,-1,999,-1,2,-1,-1,-1,-1,,9999,0,1,2,SCT 30   BKN 50,1,9,-1,0,1009,RJTF 050700Z VRB02KT 9999 -RA SCT030 BKN050 09/M00 Q1009 RMK     3SC030 7SC050 A2980=
20170205_080000.002,0,RJTF,,,,0,20170205080000,-1,-1,-1,-1,-1,-1,-1,-1,-1,-1,-1,,-1,0,0,0,,0,-1,0,-1,-1,RJTF 050800Z NIL=
20170205_090000.003,0,RJTF,,,,0,20170205090000,-1,-1,-1,-1,-1,-1,-1,-1,-1,-1,-1,,-1,0,0,0,,0,-1,0,-1,-1,RJTF 050900Z NIL=
20170205_233000.001,0,RJTF,,,,0,20170205230000,-1,-1,-1,-1,180,-1,3,-1,-1,140,250,,9999,0,0,1,FEW 25,1,8,1,1,998,RJTF 052330Z 18003KT 140V250 9999 FEW025 08/01 Q0998 RMK     1CU025 A2948=
20170206_000000.002,0,RJTF,,,,0,20170206000000,-1,-1,-1,-1,180,-1,3,-1,-1,80,250,,9999,0,0,1,FEW 30,1,9,1,1,998,RJTF 060000Z 18003KT 080V250 9999 FEW030 09/01 Q0998 RMK     1CU030 A2948=
20170206_010000.003,0,RJTF,,,,0,20170206010000,-1,-1,-1,-1,150,-1,4,-1,-1,120,220,,9999,0,0,1,FEW 30,1,12,1,1,998,RJTF 060100Z 15004KT 120V220 9999 FEW030 12/01 Q0998 RMK     2CU030 A2950=
20170206_020000.002,0,RJTF,,,,0,20170206020000,-1,-1,-1,-1,130,-1,6,-1,-1,80,170,,9999,0,0,2,FEW 30   SCT 50,1,14,-1,0,998,RJTF 060200Z 13006KT 080V170 9999 FEW030 SCT050 14/M00 Q0998     RMK 2CU030 3SC050 A2949=
20170206_030000.002,0,RJTF,,,,0,20170206030000,-1,-1,-1,-1,340,-1,12,-1,26,310,10,,9999,0,0,3,FEW 30   SCT 60   BKN 80,1,13,-1,7,998,RJTF 060300Z 34012G26KT 310V010 9999 FEW030 SCT060 BKN080     13/M07 Q0998 RMK 2CU030 3SC060 5AC080 A2948 VIRGA 5KM NE           TO SE MOV SE=
20170206_040000.002,0,RJTF,,,,0,20170206040000,-1,-1,-1,-1,10,-1,11,-1,-1,-1,-1,,9999,0,0,3,FEW 35   SCT 60   BKN 80,1,13,-1,4,998,RJTF 060400Z 01011KT 9999 FEW035 SCT060 BKN080 13/M04 Q0998     RMK 1CU035 3SC060 5AC080 A2947 VIRGA 10KM SE TO SW STNR=
20170206_060000.002,0,RJTF,,,,0,20170206060000,-1,-1,-1,-1,360,-1,15,-1,-1,-1,-1,,9999,0,0,3,FEW 30   SCT 80   BKN 100,1,12,-1,6,998,RJTF 060600Z 36015KT 9999 FEW030 SCT080 BKN100 12/M06 Q0998     RMK 2CU030 3AC080 5AC100 A2950=
20170206_080000.002,0,RJTF,,,,0,20170206080000,-1,-1,-1,-1,-1,-1,-1,-1,-1,-1,-1,,-1,0,0,0,,0,-1,0,-1,-1,RJTF 060800Z NIL=
20170206_233000.001,0,RJTF,,,,0,20170206230000,-1,-1,-1,-1,350,-1,17,-1,-1,-1,-1,CAVOK,-1,0,0,0,,1,6,-1,13,1010,RJTF 062330Z 35017KT CAVOK 06/M13 Q1010 RMK A2983=
20170207_000000.000,0,RJTF,,,,0,20170207000000,-1,-1,-1,-1,330,-1,11,-1,21,290,360,CAVOK,-1,0,0,0,,1,7,-1,15,1010,RJTF 070000Z 33011G21KT 290V360 CAVOK 07/M15 Q1010 RMK A2985=
20170207_010000.002,0,RJTF,,,,0,20170207010000,-1,-1,-1,-1,330,-1,13,-1,-1,-1,-1,,9999,0,0,1,FEW 30,1,8,-1,16,1011,RJTF 070100Z 33013KT 9999 FEW030 08/M16 Q1011 RMK 1CU030     A2985=
20170207_040000.003,0,RJTF,,,,0,20170207040000,-1,-1,-1,-1,340,-1,18,-1,30,290,360,,9999,0,0,1,FEW 30,1,10,-1,19,1009,RJTF 070400Z 34018G30KT 290V360 9999 FEW030 10/M19 Q1009 RMK     1CU030 A2980=
20170207_080000.003,0,RJTF,,,,0,20170207080000,-1,-1,-1,-1,-1,-1,-1,-1,-1,-1,-1,,-1,0,0,0,,0,-1,0,-1,-1,RJTF 070800Z NIL=
20170207_090000.002,0,RJTF,,,,0,20170207090000,-1,-1,-1,-1,-1,-1,-1,-1,-1,-1,-1,,-1,0,0,0,,0,-1,0,-1,-1,RJTF 070900Z NIL=
20170207_233000.001,0,RJTF,,,,0,20170207230000,-1,-1,-1,-1,350,-1,7,-1,-1,290,30,,9999,0,0,1,FEW 30,1,6,-1,12,1014,RJTF 072330Z 35007KT 290V030 9999 FEW030 06/M12 Q1014 RMK     1CU030 A2996=
20170208_000000.002,0,RJTF,,,,0,20170208000000,-1,-1,-1,-1,350,-1,13,-1,-1,-1,-1,,9999,0,0,1,FEW 30,1,6,-1,12,1014,RJTF 080000Z 35013KT 9999 FEW030 06/M12 Q1014 RMK 1CU030     A2996=
20170208_010000.002,0,RJTF,,,,0,20170208010000,-1,-1,-1,-1,360,-1,12,-1,-1,-1,-1,,9999,0,0,1,FEW 30,1,8,-1,11,1014,RJTF 080100Z 36012KT 9999 FEW030 08/M11 Q1014 RMK 1CU030     A2996=
20170208_020000.002,0,RJTF,,,,0,20170208020000,-1,-1,-1,-1,10,-1,11,-1,-1,-1,-1,,9999,0,0,1,FEW 30,1,8,-1,11,1013,RJTF 080200Z 01011KT 9999 FEW030 08/M11 Q1013 RMK 1CU030     A2994=
20170208_030000.002,0,RJTF,,,,0,20170208030000,-1,-1,-1,-1,350,-1,9,-1,-1,-1,-1,,9999,0,0,1,FEW 30,1,9,-1,11,1012,RJTF 080300Z 35009KT 9999 FEW030 09/M11 Q1012 RMK 1CU030     A2990=
20170208_040000.002,0,RJTF,,,,0,20170208040000,-1,-1,-1,-1,360,-1,9,-1,-1,310,40,,9999,0,0,1,FEW 30,1,10,-1,12,1012,RJTF 080400Z 36009KT 310V040 9999 FEW030 10/M12 Q1012 RMK     1CU030 A2988=
20170208_050000.002,0,RJTF,,,,0,20170208050000,-1,-1,-1,-1,20,-1,9,-1,-1,330,50,,9999,0,0,1,FEW 30,1,10,-1,12,1011,RJTF 080500Z 02009KT 330V050 9999 FEW030 10/M12 Q1011 RMK     1CU030 A2987=
20170208_060000.002,0,RJTF,,,,0,20170208060000,-1,-1,-1,-1,20,-1,7,-1,-1,340,70,,9999,0,0,2,FEW 30   BKN -9999,1,10,-1,11,1011,RJTF 080600Z 02007KT 340V070 9999 FEW030 BKN/// 10/M11 Q1011     RMK 1CU030 A2987=
20170208_070000.002,0,RJTF,,,,0,20170208070000,-1,-1,-1,-1,20,-1,6,-1,-1,350,70,,9999,0,0,2,FEW 30   BKN -9999,1,9,-1,11,1011,RJTF 080700Z 02006KT 350V070 9999 FEW030 BKN/// 09/M11 Q1011     RMK 1CU030 A2987=
20170208_080000.002,0,RJTF,,,,0,20170208080000,-1,-1,-1,-1,-1,-1,-1,-1,-1,-1,-1,,-1,0,0,0,,0,-1,0,-1,-1,RJTF 080800Z NIL=
20170208_090000.003,0,RJTF,,,,0,20170208090000,-1,-1,-1,-1,-1,-1,-1,-1,-1,-1,-1,,-1,0,0,0,,0,-1,0,-1,-1,RJTF 080900Z NIL=
20170208_233000.001,0,RJTF,,,,0,20170208230000,-1,-1,-1,-1,350,-1,6,-1,-1,-1,-1,,6000,0,1,3,FEW 9   SCT 15   BKN 25,1,2,1,0,1008,RJTF 082330Z 35006KT 6000 -SN FEW009 SCT015 BKN025 02/00 Q1008     RMK 1ST009 3SC015 7SC025 A2977=
20170209_000000.002,0,RJTF,,,,0,20170209000000,-1,-1,-1,-1,350,-1,7,-1,-1,-1,-1,,9999,0,0,2,FEW 15   BKN 25,1,2,-1,0,1008,RJTF 090000Z 35007KT 9999 FEW015 BKN025 02/M00 Q1008 RMK     1CU015 7SC025 A2977=
20170209_010000.003,0,RJTF,,,,0,20170209010000,-1,-1,-1,-1,20,-1,7,-1,-1,-1,-1,,9999,0,0,2,FEW 10   BKN 25,1,2,-1,0,1007,RJTF 090100Z 02007KT 9999 FEW010 BKN025 02/M00 Q1007 RMK     2CU010 7SC025 A2974=
20170209_020000.002,0,RJTF,,,,0,20170209020000,-1,-1,-1,-1,20,-1,8,-1,-1,-1,-1,,9999,0,0,3,FEW 13   SCT 20   BKN 25,1,3,1,0,1006,RJTF 090200Z 02008KT 9999 FEW013 SCT020 BKN025 03/00 Q1006 RMK     1CU013 3SC020 7SC025 A2971=
20170209_030000.002,0,RJTF,,,,0,20170209030000,-1,-1,-1,-1,20,-1,6,-1,-1,-1,-1,,4500,0,1,2,BKN 12   BKN 20,1,3,1,1,1004,RJTF 090300Z 02006KT 4500 -SNRA BKN012 BKN020 03/01 Q1004 RMK     5SC012 7SC020 A2966=
20170209_040000.002,0,RJTF,,,,0,20170209040000,-1,-1,-1,-1,350,-1,7,-1,-1,320,20,,3000,0,1,3,FEW 7   SCT 9   BKN 20,1,2,1,1,1003,RJTF 090400Z 35007KT 320V020 3000 -SN FEW007 SCT009 BKN020     02/01 Q1003 RMK 2ST007 4ST009 7SC020 A2963=
20170209_050000.002,0,RJTF,,,,0,20170209050000,-1,-1,-1,-1,350,-1,7,-1,-1,-1,-1,,3500,0,2,3,SCT 6   BKN 8   BKN 20,1,2,1,1,1002,RJTF 090500Z 35007KT 3500 -RASN BR SCT006 BKN008 BKN020 02/01     Q1002 RMK 3ST006 5ST008 7SC020 A2960=
20170209_060000.002,0,RJTF,,,,0,20170209060000,-1,-1,-1,-1,350,-1,4,-1,-1,-1,-1,,1400,0,1,3,SCT 5   BKN 6   BKN 15,1,1,1,1,1001,RJTF 090600Z 35004KT 1400 -SN SCT005 BKN006 BKN015 01/01 Q1001     RMK 3ST005 6ST006 7SC015 A2957=
20170209_070000.002,0,RJTF,,,,0,20170209070000,-1,-1,-1,-1,350,-1,6,-1,-1,-1,-1,,1400,0,1,3,SCT 4   BKN 6   BKN 20,1,1,1,1,1000,RJTF 090700Z 35006KT 1400 -SN SCT004 BKN006 BKN020 01/01 Q1000     RMK 3ST004 6ST006 7SC020 A2955=
20170209_080000.002,0,RJTF,,,,0,20170209080000,-1,-1,-1,-1,-1,-1,-1,-1,-1,-1,-1,,-1,0,0,0,,0,-1,0,-1,-1,RJTF 090800Z NIL=
20170209_090000.003,0,RJTF,,,,0,20170209090000,-1,-1,-1,-1,-1,-1,-1,-1,-1,-1,-1,,-1,0,0,0,,0,-1,0,-1,-1,RJTF 090900Z NIL=
20170209_233000.001,0,RJTF,,,,0,20170209230000,-1,-1,-1,-1,330,-1,6,-1,-1,280,10,,9999,0,0,1,FEW 10,1,5,1,2,997,RJTF 092330Z 33006KT 280V010 9999 FEW010 05/02 Q0997 RMK     1ST010 A2944 5000S=
20170210_000000.002,0,RJTF,,,,0,20170210000000,-1,-1,-1,-1,350,-1,10,-1,-1,-1,-1,,9999,0,0,1,FEW 20,1,6,1,1,997,RJTF 100000Z 35010KT 9999 FEW020 06/01 Q0997 RMK 1CU020 A2946=
20170210_010000.002,0,RJTF,,,,0,20170210010000,-1,-1,-1,-1,350,-1,14,-1,-1,-1,-1,,9999,0,0,1,FEW 30,1,7,-1,2,997,RJTF 100100Z 35014KT 9999 FEW030 07/M02 Q0997 RMK 2CU030     A2947=
20170210_020000.002,0,RJTF,,,,0,20170210020000,-1,-1,-1,-1,340,-1,12,-1,22,300,20,,9999,0,0,2,FEW 30   SCT 45,1,9,-1,4,997,RJTF 100200Z 34012G22KT 300V020 9999 FEW030 SCT045 09/M04     Q0997 RMK 1CU030 3SC045 A2947=
20170210_030000.002,0,RJTF,,,,0,20170210030000,-1,-1,-1,-1,340,-1,13,-1,-1,300,10,,9999,0,0,3,FEW 30   SCT 50   BKN 120,1,9,-1,6,997,RJTF 100300Z 34013KT 300V010 9999 FEW030 SCT050 BKN120 09/M06     Q0997 RMK 1CU030 3SC050 5AC120 A2947=
20170210_040000.003,0,RJTF,,,,0,20170210040000,-1,-1,-1,-1,350,-1,13,-1,-1,310,20,,9999,0,1,3,FEW 30   SCT 50   BKN 100,1,8,-1,10,997,RJTF 100400Z 35013KT 310V020 9999 VCSH FEW030 SCT050 BKN100     08/M10 Q0997 RMK 1CU030 3SC050 5AC100 A2946=
20170210_050000.003,0,RJTF,,,,0,20170210050000,-1,-1,-1,-1,10,-1,10,-1,-1,340,40,,9999,0,1,3,FEW 30   BKN 50   BKN 70,1,7,-1,7,998,RJTF 100500Z 01010KT 340V040 9999 VCSH FEW030 BKN050 BKN070     07/M07 Q0998 RMK 2CU030 5SC050 7AC070 A2948=
20170210_060000.003,0,RJTF,,,,0,20170210060000,-1,-1,-1,-1,350,-1,12,-1,-1,320,20,,9999,0,1,3,FEW 25   BKN 45   BKN 70,1,6,-1,9,999,RJTF 100600Z 35012KT 320V020 9999 VCSH FEW025 BKN045 BKN070     06/M09 Q0999 RMK 2CU025 5SC045 7AC070 A2951=
20170210_070000.002,0,RJTF,,,,0,20170210070000,-1,-1,-1,-1,350,-1,11,-1,-1,-1,-1,,9999,0,1,3,FEW 25   SCT 35   BKN 50,1,5,-1,7,1000,RJTF 100700Z 35011KT 9999 -SHSN FEW025 SCT035 BKN050 05/M07     Q1000 RMK 1CU025 3CU035 7SC050 A2953=
20170210_080000.002,0,RJTF,,,,0,20170210080000,-1,-1,-1,-1,-1,-1,-1,-1,-1,-1,-1,,-1,0,0,0,,0,-1,0,-1,-1,RJTF 100800Z NIL=
20170210_090000.002,0,RJTF,,,,0,20170210090000,-1,-1,-1,-1,-1,-1,-1,-1,-1,-1,-1,,-1,0,0,0,,0,-1,0,-1,-1,RJTF 100900Z NIL=
20170210_233000.001,0,RJTF,,,,0,20170210230000,-1,-1,-1,-1,999,-1,2,-1,-1,-1,-1,,9999,0,0,1,FEW 20,1,1,-1,6,1008,RJTF 102330Z VRB02KT 9999 FEW020 01/M06 Q1008 RMK 1CU020     A2977=
20170211_000000.002,0,RJTF,,,,0,20170211000000,-1,-1,-1,-1,999,-1,1,-1,-1,-1,-1,,9999,0,0,1,FEW 20,1,3,-1,8,1008,RJTF 110000Z VRB01KT 9999 FEW020 03/M08 Q1008 RMK 1CU020     A2977=
20170211_010000.002,0,RJTF,,,,0,20170211010000,-1,-1,-1,-1,100,-1,3,-1,-1,360,160,,9999,0,0,1,FEW 30,1,6,-1,11,1007,RJTF 110100Z 10003KT 360V160 9999 FEW030 06/M11 Q1007 RMK     1CU030 A2976=
20170211_020000.003,0,RJTF,,,,0,20170211020000,-1,-1,-1,-1,240,-1,7,-1,-1,200,300,,9999,0,0,1,FEW 30,1,8,-1,14,1007,RJTF 110200Z 24007KT 200V300 9999 FEW030 08/M14 Q1007 RMK     1CU030 A2974=
20170211_030000.002,0,RJTF,,,,0,20170211030000,-1,-1,-1,-1,230,-1,7,-1,-1,190,350,,9999,0,0,1,FEW 30,1,8,-1,14,1006,RJTF 110300Z 23007KT 190V350 9999 FEW030 08/M14 Q1006 RMK     1CU030 A2972=
20170211_040000.002,0,RJTF,,,,0,20170211040000,-1,-1,-1,-1,270,-1,8,-1,22,230,310,,9999,0,0,2,FEW 30   SCT 80,1,8,-1,13,1005,RJTF 110400Z 27008G22KT 230V310 9999 FEW030 SCT080 08/M13     Q1005 RMK 1CU030 3AC080 A2970=
20170211_050000.002,0,RJTF,,,,0,20170211050000,-1,-1,-1,-1,360,-1,11,-1,-1,330,30,,9999,0,0,2,FEW 30   BKN 80,1,9,-1,13,1005,RJTF 110500Z 36011KT 330V030 9999 FEW030 BKN080 09/M13 Q1005     RMK 1CU030 5AC080 A2970=
20170211_060000.003,0,RJTF,,,,0,20170211060000,-1,-1,-1,-1,360,-1,10,-1,-1,320,30,,9999,0,0,2,FEW 30   BKN 90,1,9,-1,15,1006,RJTF 110600Z 36010KT 320V030 9999 FEW030 BKN090 09/M15 Q1006     RMK 1CU030 6AC090 A2972=
20170211_070000.002,0,RJTF,,,,0,20170211070000,-1,-1,-1,-1,10,-1,6,-1,-1,330,80,,9999,0,0,2,FEW 30   BKN 90,1,8,-1,14,1006,RJTF 110700Z 01006KT 330V080 9999 FEW030 BKN090 08/M14 Q1006     RMK 1CU030 5AC090 A2973=
20170211_080000.002,0,RJTF,,,,0,20170211080000,-1,-1,-1,-1,-1,-1,-1,-1,-1,-1,-1,,-1,0,0,0,,0,-1,0,-1,-1,RJTF 110800Z NIL=
20170211_090000.002,0,RJTF,,,,0,20170211090000,-1,-1,-1,-1,-1,-1,-1,-1,-1,-1,-1,,-1,0,0,0,,0,-1,0,-1,-1,RJTF 110900Z NIL=
20170211_233000.001,0,RJTF,,,,0,20170211230000,-1,-1,-1,-1,0,-1,0,-1,-1,-1,-1,CAVOK,-1,0,0,0,,1,4,-1,7,1014,RJTF 112330Z 00000KT CAVOK 04/M07 Q1014 RMK A2997=
20170212_000000.002,0,RJTF,,,,0,20170212000000,-1,-1,-1,-1,999,-1,2,-1,-1,-1,-1,,9999,0,0,1,FEW 30,1,5,-1,8,1015,RJTF 120000Z VRB02KT 9999 FEW030 05/M08 Q1015 RMK 1CU030     A2997=
20170212_010000.002,0,RJTF,,,,0,20170212010000,-1,-1,-1,-1,999,-1,2,-1,-1,-1,-1,,9999,0,0,1,FEW 30,1,7,-1,11,1015,RJTF 120100Z VRB02KT 9999 FEW030 07/M11 Q1015 RMK 1CU030     A2997=
20170212_020000.003,0,RJTF,,,,0,20170212020000,-1,-1,-1,-1,340,-1,10,-1,-1,300,20,,9999,0,0,1,FEW 30,1,10,-1,13,1014,RJTF 120200Z 34010KT 300V020 9999 FEW030 10/M13 Q1014 RMK     1CU030 A2996=
20170212_030000.002,0,RJTF,,,,0,20170212030000,-1,-1,-1,-1,350,-1,12,-1,-1,300,20,,9999,0,0,1,FEW 30,1,10,-1,12,1014,RJTF 120300Z 35012KT 300V020 9999 FEW030 10/M12 Q1014 RMK     2CU030 A2995=
20170212_040000.003,0,RJTF,,,,0,20170212040000,-1,-1,-1,-1,330,-1,11,-1,24,280,10,,9999,0,0,1,SCT 30,1,10,-1,12,1013,RJTF 120400Z 33011G24KT 280V010 9999 SCT030 10/M12 Q1013 RMK     3CU030 A2993=
20170212_050000.002,0,RJTF,,,,0,20170212050000,-1,-1,-1,-1,350,-1,14,-1,-1,310,20,,9999,0,0,2,FEW 30   SCT 40,1,11,-1,11,1013,RJTF 120500Z 35014KT 310V020 9999 FEW030 SCT040 11/M11 Q1013     RMK 1CU030 3SC040 A2993=
20170212_060000.002,0,RJTF,,,,0,20170212060000,-1,-1,-1,-1,340,-1,14,-1,-1,-1,-1,,9999,0,0,2,FEW 30   SCT 60,1,10,-1,11,1014,RJTF 120600Z 34014KT 9999 FEW030 SCT060 10/M11 Q1014 RMK     1CU030 3SC060 A2995=
20170212_070000.003,0,RJTF,,,,0,20170212070000,-1,-1,-1,-1,350,-1,13,-1,-1,320,20,,9999,0,0,2,FEW 30   SCT 70,1,9,-1,11,1015,RJTF 120700Z 35013KT 320V020 9999 FEW030 SCT070 09/M11 Q1015     RMK 1CU030 3AC070 A2997=
20170212_080000.002,0,RJTF,,,,0,20170212080000,-1,-1,-1,-1,-1,-1,-1,-1,-1,-1,-1,,-1,0,0,0,,0,-1,0,-1,-1,RJTF 120800Z NIL=
20170212_090000.002,0,RJTF,,,,0,20170212090000,-1,-1,-1,-1,-1,-1,-1,-1,-1,-1,-1,,-1,0,0,0,,0,-1,0,-1,-1,RJTF 120900Z NIL=
20170212_233000.001,0,RJTF,,,,0,20170212230000,-1,-1,-1,-1,330,-1,4,-1,-1,290,10,,9999,0,0,1,FEW 30,1,4,-1,9,1022,RJTF 122330Z 33004KT 290V010 9999 FEW030 04/M09 Q1022 RMK     1CU030 A3019=
20170213_000000.002,0,RJTF,,,,0,20170213000000,-1,-1,-1,-1,300,-1,5,-1,-1,260,350,,9999,0,0,1,FEW 30,1,7,-1,10,1022,RJTF 130000Z 30005KT 260V350 9999 FEW030 07/M10 Q1022 RMK     1CU030 A3019=
20170213_010000.002,0,RJTF,,,,0,20170213010000,-1,-1,-1,-1,340,-1,7,-1,-1,310,30,,9999,0,0,1,FEW 30,1,9,-1,11,1022,RJTF 130100Z 34007KT 310V030 9999 FEW030 09/M11 Q1022 RMK     1CU030 A3018=
20170213_020000.003,0,RJTF,,,,0,20170213020000,-1,-1,-1,-1,10,-1,10,-1,-1,-1,-1,,9999,0,0,1,FEW 30,1,10,-1,12,1021,RJTF 130200Z 01010KT 9999 FEW030 10/M12 Q1021 RMK 1CU030     A3017=
20170213_030000.003,0,RJTF,,,,0,20170213030000,-1,-1,-1,-1,360,-1,10,-1,-1,330,40,,9999,0,0,1,FEW 30,1,10,-1,11,1020,RJTF 130300Z 36010KT 330V040 9999 FEW030 10/M11 Q1020 RMK     1CU030 A3014=
20170213_040000.002,0,RJTF,,,,0,20170213040000,-1,-1,-1,-1,350,-1,11,-1,-1,300,30,,9999,0,0,1,FEW 30,1,10,-1,10,1019,RJTF 130400Z 35011KT 300V030 9999 FEW030 10/M10 Q1019 RMK     1CU030 A3012=
20170213_050000.002,0,RJTF,,,,0,20170213050000,-1,-1,-1,-1,10,-1,10,-1,-1,340,50,,9999,0,0,1,FEW 30,1,11,-1,10,1019,RJTF 130500Z 01010KT 340V050 9999 FEW030 11/M10 Q1019 RMK     2CU030 A3011=
20170213_060000.002,0,RJTF,,,,0,20170213060000,-1,-1,-1,-1,350,-1,9,-1,-1,310,10,,9999,0,0,2,FEW 30   SCT 80,1,10,-1,10,1020,RJTF 130600Z 35009KT 310V010 9999 FEW030 SCT080 10/M10 Q1020     RMK 2CU030 4AC080 A3012=
20170213_070000.002,0,RJTF,,,,0,20170213070000,-1,-1,-1,-1,20,-1,8,-1,-1,330,70,,9999,0,0,2,FEW 30   BKN 80,1,10,-1,11,1020,RJTF 130700Z 02008KT 330V070 9999 FEW030 BKN080 10/M11 Q1020     RMK 1CU030 5AC080 A3013=
20170213_080000.002,0,RJTF,,,,0,20170213080000,-1,-1,-1,-1,-1,-1,-1,-1,-1,-1,-1,,-1,0,0,0,,0,-1,0,-1,-1,RJTF 130800Z NIL=
20170213_090000.003,0,RJTF,,,,0,20170213090000,-1,-1,-1,-1,-1,-1,-1,-1,-1,-1,-1,,-1,0,0,0,,0,-1,0,-1,-1,RJTF 130900Z NIL=
20170213_233000.001,0,RJTF,,,,0,20170213230000,-1,-1,-1,-1,999,-1,4,-1,-1,-1,-1,,9999,0,0,1,FEW 30,1,4,-1,10,1023,RJTF 132330Z VRB04KT 9999 FEW030 04/M10 Q1023 RMK 1CU030     A3023=
20170214_000000.002,0,RJTF,,,,0,20170214000000,-1,-1,-1,-1,330,-1,6,-1,-1,270,360,,9999,0,0,1,FEW 30,1,6,-1,11,1023,RJTF 140000Z 33006KT 270V360 9999 FEW030 06/M11 Q1023 RMK     1CU030 A3022=
20170214_010000.003,0,RJTF,,,,0,20170214010000,-1,-1,-1,-1,320,-1,7,-1,-1,280,10,,9999,0,0,1,FEW 30,1,7,-1,10,1023,RJTF 140100Z 32007KT 280V010 9999 FEW030 07/M10 Q1023 RMK     1CU030 A3021=
20170214_020000.002,0,RJTF,,,,0,20170214020000,-1,-1,-1,-1,350,-1,8,-1,-1,300,30,,9999,0,0,1,FEW 30,1,9,-1,12,1022,RJTF 140200Z 35008KT 300V030 9999 FEW030 09/M12 Q1022 RMK     1CU030 A3019=
20170214_030000.003,0,RJTF,,,,0,20170214030000,-1,-1,-1,-1,20,-1,7,-1,-1,300,60,,9999,0,0,1,FEW 25,1,9,-1,13,1021,RJTF 140300Z 02007KT 300V060 9999 FEW025 09/M13 Q1021 RMK     1CU025 A3016=
20170214_040000.003,0,RJTF,,,,0,20170214040000,-1,-1,-1,-1,30,-1,6,-1,-1,340,100,,9999,0,0,1,FEW 25,1,10,-1,13,1020,RJTF 140400Z 03006KT 340V100 9999 FEW025 10/M13 Q1020 RMK     1CU025 A3013=
20170214_050000.002,0,RJTF,,,,0,20170214050000,-1,-1,-1,-1,360,-1,6,-1,-1,310,80,,9999,0,0,2,FEW 20   SCT 150,1,10,-1,13,1020,RJTF 140500Z 36006KT 310V080 9999 FEW020 SCT150 10/M13 Q1020     RMK 1CU020 4AC150 A3013=
20170214_060000.002,0,RJTF,,,,0,20170214060000,-1,-1,-1,-1,350,-1,7,-1,-1,320,30,,9999,0,0,3,FEW 20   SCT 30   BKN 80,1,9,-1,12,1020,RJTF 140600Z 35007KT 320V030 9999 FEW020 SCT030 BKN080 09/M12     Q1020 RMK 1CU020 3CU030 5AC080 A3014=
20170214_070000.002,0,RJTF,,,,0,20170214070000,-1,-1,-1,-1,320,-1,4,-1,-1,280,10,,9999,0,0,3,FEW 20   SCT 30   BKN 140,1,9,-1,11,1020,RJTF 140700Z 32004KT 280V010 9999 FEW020 SCT030 BKN140 09/M11     Q1020 RMK 1CU020 3CU030 6AC140 A3015=
20170214_080000.003,0,RJTF,,,,0,20170214080000,-1,-1,-1,-1,-1,-1,-1,-1,-1,-1,-1,,-1,0,0,0,,0,-1,0,-1,-1,RJTF 140800Z NIL=
20170214_090000.003,0,RJTF,,,,0,20170214090000,-1,-1,-1,-1,-1,-1,-1,-1,-1,-1,-1,,-1,0,0,0,,0,-1,0,-1,-1,RJTF 140900Z NIL=
20170214_233000.001,0,RJTF,,,,0,20170214230000,-1,-1,-1,-1,280,-1,3,-1,-1,240,310,CAVOK,-1,0,0,0,,1,4,-1,9,1026,RJTF 142330Z 28003KT 240V310 CAVOK 04/M09 Q1026 RMK A3031=
20170215_000000.002,0,RJTF,,,,0,20170215000000,-1,-1,-1,-1,999,-1,3,-1,-1,-1,-1,CAVOK,-1,0,0,0,,1,6,-1,9,1026,RJTF 150000Z VRB03KT CAVOK 06/M09 Q1026 RMK A3031=
20170215_010000.002,0,RJTF,,,,0,20170215010000,-1,-1,-1,-1,320,-1,6,-1,-1,280,10,,9999,0,0,1,FEW 30,1,8,-1,11,1025,RJTF 150100Z 32006KT 280V010 9999 FEW030 08/M11 Q1025 RMK     1CU030 A3029=
20170215_020000.002,0,RJTF,,,,0,20170215020000,-1,-1,-1,-1,20,-1,7,-1,-1,350,70,,9999,0,0,1,FEW 30,1,9,-1,13,1025,RJTF 150200Z 02007KT 350V070 9999 FEW030 09/M13 Q1025 RMK     1CU030 A3028=
20170215_030000.002,0,RJTF,,,,0,20170215030000,-1,-1,-1,-1,999,-1,3,-1,-1,-1,-1,,9999,0,0,1,FEW 30,1,10,-1,13,1024,RJTF 150300Z VRB03KT 9999 FEW030 10/M13 Q1024 RMK 1CU030     A3025=
20170215_040000.003,0,RJTF,,,,0,20170215040000,-1,-1,-1,-1,999,-1,3,-1,-1,-1,-1,,9999,0,0,1,FEW 30,1,11,-1,14,1023,RJTF 150400Z VRB03KT 9999 FEW030 11/M14 Q1023 RMK 1CU030     A3023=
20170215_050000.003,0,RJTF,,,,0,20170215050000,-1,-1,-1,-1,999,-1,4,-1,-1,-1,-1,,9999,0,0,1,FEW 30,1,11,-1,14,1023,RJTF 150500Z VRB04KT 9999 FEW030 11/M14 Q1023 RMK 1CU030     A3022=
20170215_060000.002,0,RJTF,,,,0,20170215060000,-1,-1,-1,-1,999,-1,3,-1,-1,-1,-1,,9999,0,0,1,FEW 30,1,12,-1,12,1023,RJTF 150600Z VRB03KT 9999 FEW030 12/M12 Q1023 RMK 1CU030     A3021=
20170215_070000.002,0,RJTF,,,,0,20170215070000,-1,-1,-1,-1,999,-1,2,-1,-1,-1,-1,,9999,0,0,1,FEW 30,1,11,-1,7,1023,RJTF 150700Z VRB02KT 9999 FEW030 11/M07 Q1023 RMK 1CU030     A3022=
20170215_080000.001,0,RJTF,,,,0,20170215080000,-1,-1,-1,-1,-1,-1,-1,-1,-1,-1,-1,,-1,0,0,0,,0,-1,0,-1,-1,RJTF 150800Z NIL=
20170215_090000.001,0,RJTF,,,,0,20170215090000,-1,-1,-1,-1,-1,-1,-1,-1,-1,-1,-1,,-1,0,0,0,,0,-1,0,-1,-1,RJTF 150900Z NIL=
20170215_233000.001,0,RJTF,,,,0,20170215230000,-1,-1,-1,-1,0,-1,0,-1,-1,-1,-1,CAVOK,-1,0,0,0,,1,4,-1,5,1026,RJTF 152330Z 00000KT CAVOK 04/M05 Q1026 RMK A3030=
20170216_000000.003,0,RJTF,,,,0,20170216000000,-1,-1,-1,-1,999,-1,2,-1,-1,-1,-1,CAVOK,-1,0,0,0,,1,5,-1,5,1025,RJTF 160000Z VRB02KT CAVOK 05/M05 Q1025 RMK A3029=
20170216_010000.002,0,RJTF,,,,0,20170216010000,-1,-1,-1,-1,999,-1,2,-1,-1,-1,-1,CAVOK,-1,0,0,0,,1,7,-1,5,1025,RJTF 160100Z VRB02KT CAVOK 07/M05 Q1025 RMK A3028=
20170216_020000.002,0,RJTF,,,,0,20170216020000,-1,-1,-1,-1,999,-1,2,-1,-1,-1,-1,CAVOK,-1,0,0,0,,1,10,-1,5,1025,RJTF 160200Z VRB02KT CAVOK 10/M05 Q1025 RMK A3027=
20170216_030000.001,0,RJTF,,,,0,20170216030000,-1,-1,-1,-1,999,-1,4,-1,-1,-1,-1,CAVOK,-1,0,0,0,,1,11,-1,4,1023,RJTF 160300Z VRB04KT CAVOK 11/M04 Q1023 RMK A3023=
20170216_040000.002,0,RJTF,,,,0,20170216040000,-1,-1,-1,-1,180,-1,6,-1,-1,130,270,CAVOK,-1,0,0,0,,1,12,-1,5,1022,RJTF 160400Z 18006KT 130V270 CAVOK 12/M05 Q1022 RMK A3020=
20170216_050000.003,0,RJTF,,,,0,20170216050000,-1,-1,-1,-1,160,-1,8,-1,-1,-1,-1,CAVOK,-1,0,0,0,,1,13,-1,2,1022,RJTF 160500Z 16008KT CAVOK 13/M02 Q1022 RMK A3018=
20170216_060000.002,0,RJTF,,,,0,20170216060000,-1,-1,-1,-1,160,-1,10,-1,-1,-1,-1,CAVOK,-1,0,0,0,,1,13,-1,1,1022,RJTF 160600Z 16010KT CAVOK 13/M01 Q1022 RMK A3018=
20170216_070000.002,0,RJTF,,,,0,20170216070000,-1,-1,-1,-1,190,-1,6,-1,-1,160,230,,9999,0,0,1,FEW 30,1,13,1,2,1021,RJTF 160700Z 19006KT 160V230 9999 FEW030 13/02 Q1021 RMK     1CU030 A3017=
20170216_080000.002,0,RJTF,,,,0,20170216080000,-1,-1,-1,-1,-1,-1,-1,-1,-1,-1,-1,,-1,0,0,0,,0,-1,0,-1,-1,RJTF 160800Z NIL=
20170216_090000.003,0,RJTF,,,,0,20170216090000,-1,-1,-1,-1,-1,-1,-1,-1,-1,-1,-1,,-1,0,0,0,,0,-1,0,-1,-1,RJTF 160900Z NIL=
20170216_233000.001,0,RJTF,,,,0,20170216230000,-1,-1,-1,-1,360,-1,3,-1,-1,290,40,,9999,0,0,1,FEW 30,1,9,1,1,1014,RJTF 162330Z 36003KT 290V040 9999 FEW030 09/01 Q1014 RMK     1CU030 A2995=
20170217_000000.003,0,RJTF,,,,0,20170217000000,-1,-1,-1,-1,210,-1,15,-1,-1,-1,-1,,9999,0,0,1,FEW 30,1,16,1,8,1013,RJTF 170000Z 21015KT 9999 FEW030 16/08 Q1013 RMK 1CU030 A2993=
20170217_010000.003,0,RJTF,,,,0,20170217010000,-1,-1,-1,-1,200,-1,16,-1,-1,170,240,,9999,0,0,1,FEW 30,1,17,1,8,1011,RJTF 170100Z 20016KT 170V240 9999 FEW030 17/08 Q1011 RMK     1CU030 A2987=
20170217_020000.004,0,RJTF,,,,0,20170217020000,-1,-1,-1,-1,200,-1,17,-1,28,160,230,,9999,0,0,1,FEW 30,1,18,1,8,1010,RJTF 170200Z 20017G28KT 160V230 9999 FEW030 18/08 Q1010 RMK     1CU030 A2984=
20170217_030000.002,0,RJTF,,,,0,20170217030000,-1,-1,-1,-1,210,-1,18,-1,30,-1,-1,,8000,0,0,1,FEW 30,1,20,1,8,1008,RJTF 170300Z 21018G30KT 8000 FEW030 20/08 Q1008 RMK 2CU030     A2977=
20170217_040000.003,0,RJTF,,,,0,20170217040000,-1,-1,-1,-1,210,-1,16,-1,26,180,240,,8000,0,0,2,FEW 30   SCT 80,1,20,1,7,1008,RJTF 170400Z 21016G26KT 180V240 8000 FEW030 SCT080 20/07 Q1008     RMK 2CU030 3AC080 A2977=
20170217_050000.002,0,RJTF,,,,0,20170217050000,-1,-1,-1,-1,220,-1,12,-1,-1,-1,-1,,9999,0,0,2,FEW 30   SCT 50,1,19,1,8,1007,RJTF 170500Z 22012KT 9999 FEW030 SCT050 19/08 Q1007 RMK 1CU030     4SC050 A2974=
20170217_060000.003,0,RJTF,,,,0,20170217060000,-1,-1,-1,-1,210,-1,13,-1,-1,180,240,,9999,0,0,2,FEW 30   SCT 50,1,19,1,9,1006,RJTF 170600Z 21013KT 180V240 9999 FEW030 SCT050 19/09 Q1006     RMK 1CU030 3SC050 A2972=
20170217_070000.002,0,RJTF,,,,0,20170217070000,-1,-1,-1,-1,230,-1,12,-1,-1,200,280,,9999,0,0,1,FEW 30,1,20,1,7,1005,RJTF 170700Z 23012KT 200V280 9999 FEW030 20/07 Q1005 RMK     1CU030 A2969=
20170217_080000.002,0,RJTF,,,,0,20170217080000,-1,-1,-1,-1,-1,-1,-1,-1,-1,-1,-1,,-1,0,0,0,,0,-1,0,-1,-1,RJTF 170800Z NIL=
20170217_090000.002,0,RJTF,,,,0,20170217090000,-1,-1,-1,-1,-1,-1,-1,-1,-1,-1,-1,,-1,0,0,0,,0,-1,0,-1,-1,RJTF 170900Z NIL=
20170217_233000.001,0,RJTF,,,,0,20170217230000,-1,-1,-1,-1,10,-1,11,-1,-1,-1,-1,,9999,0,0,2,FEW 40   BKN 190,1,7,-1,7,1014,RJTF 172330Z 01011KT 9999 FEW040 BKN190 07/M07 Q1014 RMK     2SC040 7AC190 A2995=
20170218_000000.002,0,RJTF,,,,0,20170218000000,-1,-1,-1,-1,10,-1,11,-1,-1,-1,-1,,9999,0,0,3,FEW 30   SCT 60   BKN 190,1,7,-1,7,1014,RJTF 180000Z 01011KT 9999 FEW030 SCT060 BKN190 07/M07 Q1014     RMK 1CU030 3SC060 6AC190 A2994=
20170218_010000.002,0,RJTF,,,,0,20170218010000,-1,-1,-1,-1,10,-1,14,-1,-1,-1,-1,,9999,0,0,3,FEW 30   SCT 60   BKN 160,1,9,-1,6,1013,RJTF 180100Z 01014KT 9999 FEW030 SCT060 BKN160 09/M06 Q1013     RMK 1CU030 3SC060 6AC160 A2993=
20170218_020000.002,0,RJTF,,,,0,20170218020000,-1,-1,-1,-1,360,-1,12,-1,-1,330,40,,9999,0,0,3,FEW 30   SCT 60   BKN 150,1,9,-1,7,1013,RJTF 180200Z 36012KT 330V040 9999 FEW030 SCT060 BKN150 09/M07     Q1013 RMK 1CU030 3SC060 6AC150 A2992=
20170218_030000.002,0,RJTF,,,,0,20170218030000,-1,-1,-1,-1,30,-1,10,-1,-1,350,60,,9999,0,0,3,FEW 30   SCT 60   BKN 150,1,9,-1,7,1012,RJTF 180300Z 03010KT 350V060 9999 FEW030 SCT060 BKN150 09/M07     Q1012 RMK 1CU030 4SC060 7AC150 A2990=
20170218_040000.002,0,RJTF,,,,0,20170218040000,-1,-1,-1,-1,20,-1,9,-1,-1,350,50,,9999,0,0,3,FEW 30   BKN 40   BKN 140,1,9,-1,7,1011,RJTF 180400Z 02009KT 350V050 9999 FEW030 BKN040 BKN140 09/M07     Q1011 RMK 1CU030 5SC040 7AC140 A2988=
20170218_050000.003,0,RJTF,,,,0,20170218050000,-1,-1,-1,-1,40,-1,7,-1,-1,350,70,,9999,0,0,3,FEW 30   SCT 50   BKN 130,1,9,-1,7,1011,RJTF 180500Z 04007KT 350V070 9999 FEW030 SCT050 BKN130 09/M07     Q1011 RMK 1CU030 4SC050 7AC130 A2985=
20170218_060000.002,0,RJTF,,,,0,20170218060000,-1,-1,-1,-1,10,-1,7,-1,-1,-1,-1,,9999,0,0,3,FEW 30   BKN 50   BKN 130,1,9,-1,7,1010,RJTF 180600Z 01007KT 9999 FEW030 BKN050 BKN130 09/M07 Q1010     RMK 1CU030 5SC050 7AC130 A2985=
20170218_070000.003,0,RJTF,,,,0,20170218070000,-1,-1,-1,-1,360,-1,6,-1,-1,-1,-1,,9999,0,0,3,FEW 30   BKN 60   BKN 130,1,9,-1,7,1010,RJTF 180700Z 36006KT 9999 FEW030 BKN060 BKN130 09/M07 Q1010     RMK 1CU030 5SC060 6AC130 A2984=
20170218_080000.002,0,RJTF,,,,0,20170218080000,-1,-1,-1,-1,-1,-1,-1,-1,-1,-1,-1,,-1,0,0,0,,0,-1,0,-1,-1,RJTF 180800Z NIL=
20170218_090000.002,0,RJTF,,,,0,20170218090000,-1,-1,-1,-1,-1,-1,-1,-1,-1,-1,-1,,-1,0,0,0,,0,-1,0,-1,-1,RJTF 180900Z NIL=
20170218_233000.001,0,RJTF,,,,0,20170218230000,-1,-1,-1,-1,350,-1,13,-1,-1,-1,-1,CAVOK,-1,0,0,0,,1,5,-1,10,1015,RJTF 182330Z 35013KT CAVOK 05/M10 Q1015 RMK A3000=
20170219_000000.003,0,RJTF,,,,0,20170219000000,-1,-1,-1,-1,360,-1,13,-1,-1,300,20,,9999,0,0,1,FEW 30,1,6,-1,11,1016,RJTF 190000Z 36013KT 300V020 9999 FEW030 06/M11 Q1016 RMK     1CU030 A3001=
20170219_010000.003,0,RJTF,,,,0,20170219010000,-1,-1,-1,-1,350,-1,14,-1,24,320,20,,9999,0,0,1,FEW 30,1,8,-1,14,1016,RJTF 190100Z 35014G24KT 320V020 9999 FEW030 08/M14 Q1016 RMK     1CU030 A3000=
20170219_020000.002,0,RJTF,,,,0,20170219020000,-1,-1,-1,-1,10,-1,10,-1,-1,340,40,,9999,0,0,1,FEW 30,1,9,-1,14,1016,RJTF 190200Z 01010KT 340V040 9999 FEW030 09/M14 Q1016 RMK     1CU030 A3000=
20170219_030000.002,0,RJTF,,,,0,20170219030000,-1,-1,-1,-1,30,-1,10,-1,-1,340,60,,9999,0,0,1,FEW 30,1,9,-1,15,1015,RJTF 190300Z 03010KT 340V060 9999 FEW030 09/M15 Q1015 RMK     1CU030 A2999=
20170219_040000.002,0,RJTF,,,,0,20170219040000,-1,-1,-1,-1,350,-1,10,-1,-1,310,20,,9999,0,0,2,FEW 30   SCT -9999,1,10,-1,16,1014,RJTF 190400Z 35010KT 310V020 9999 FEW030 SCT/// 10/M16 Q1014     RMK 1CU030 A2996=
20170219_050000.002,0,RJTF,,,,0,20170219050000,-1,-1,-1,-1,999,-1,5,-1,-1,-1,-1,,9999,0,0,2,FEW 30   SCT -9999,1,11,-1,14,1015,RJTF 190500Z VRB05KT 9999 FEW030 SCT/// 11/M14 Q1015 RMK     1CU030 A2997=
20170219_060000.002,0,RJTF,,,,0,20170219060000,-1,-1,-1,-1,110,-1,5,-1,-1,50,170,,9999,0,0,1,FEW 30,1,11,-1,13,1015,RJTF 190600Z 11005KT 050V170 9999 FEW030 11/M13 Q1015 RMK     1CU030 A2998=
20170219_070000.002,0,RJTF,,,,0,20170219070000,-1,-1,-1,-1,180,-1,5,-1,-1,100,250,,9999,0,0,2,FEW 30   SCT 60,1,10,-1,8,1015,RJTF 190700Z 18005KT 100V250 9999 FEW030 SCT060 10/M08 Q1015     RMK 1CU030 3SC060 A2997=
20170219_080000.002,0,RJTF,,,,0,20170219080000,-1,-1,-1,-1,-1,-1,-1,-1,-1,-1,-1,,-1,0,0,0,,0,-1,0,-1,-1,RJTF 190800Z NIL=
20170219_090000.002,0,RJTF,,,,0,20170219090000,-1,-1,-1,-1,-1,-1,-1,-1,-1,-1,-1,,-1,0,0,0,,0,-1,0,-1,-1,RJTF 190900Z NIL=
20170219_233000.001,0,RJTF,,,,0,20170219230000,-1,-1,-1,-1,350,-1,3,-1,-1,290,40,,9999,0,0,1,FEW 30,1,5,-1,7,1008,RJTF 192330Z 35003KT 290V040 9999 FEW030 05/M07 Q1008 RMK     1CU030 A2978=
20170220_000000.002,0,RJTF,,,,0,20170220000000,-1,-1,-1,-1,999,-1,2,-1,-1,-1,-1,,9999,0,0,1,FEW 30,1,7,-1,6,1007,RJTF 200000Z VRB02KT 9999 FEW030 07/M06 Q1007 RMK 1CU030     A2975=
20170220_010000.002,0,RJTF,,,,0,20170220010000,-1,-1,-1,-1,80,-1,3,-1,-1,10,140,,9999,0,0,1,FEW 30,1,10,-1,1,1004,RJTF 200100Z 08003KT 010V140 9999 FEW030 10/M01 Q1004 RMK     1CU030 A2965 P/FR=
20170220_020000.002,0,RJTF,,,,0,20170220020000,-1,-1,-1,-1,10,-1,6,-1,-1,320,40,,9999,0,0,1,FEW 30,1,14,1,1,1002,RJTF 200200Z 01006KT 320V040 9999 FEW030 14/01 Q1002 RMK     2CU030 A2959 P/FR=
20170220_030000.002,0,RJTF,,,,0,20170220030000,-1,-1,-1,-1,310,-1,7,-1,-1,260,350,,9999,0,0,1,SCT 30,1,16,1,0,999,RJTF 200300Z 31007KT 260V350 9999 SCT030 16/00 Q0999 RMK     4CU030 A2951 P/FR=
20170220_040000.002,0,RJTF,,,,0,20170220040000,-1,-1,-1,-1,999,-1,10,-1,27,-1,-1,,8000,0,0,2,SCT 30   BKN 70,1,18,1,4,997,RJTF 200400Z VRB10G27KT 8000 SCT030 BKN070 18/04 Q0997 RMK     4CU030 5AC070 A2944 P/FR=
20170220_050000.002,0,RJTF,,,,0,20170220050000,-1,-1,-1,-1,240,-1,11,-1,-1,200,270,,9999,0,0,3,FEW 20   SCT 30   BKN 45,1,19,1,7,996,RJTF 200500Z 24011KT 200V270 9999 FEW020 SCT030 BKN045 19/07     Q0996 RMK 1CU020 3CU030 7CU045 A2942=
20170220_060000.002,0,RJTF,,,,0,20170220060000,-1,-1,-1,-1,190,-1,12,-1,-1,-1,-1,,9999,0,0,3,FEW 20   SCT 30   BKN 40,1,18,1,10,994,RJTF 200600Z 19012KT 9999 FEW020 SCT030 BKN040 18/10 Q0994 RMK     1CU020 3CU030 7CU040 A2938=
20170220_070000.002,0,RJTF,,,,0,20170220070000,-1,-1,-1,-1,220,-1,15,-1,27,170,270,,9999,0,1,2,FEW 25   BKN 40,1,17,1,11,993,RJTF 200700Z 22015G27KT 170V270 9999 -SHRA FEW025 BKN040 17/11     Q0993 RMK 2CU025 7CU040 A2935=
20170220_080000.002,0,RJTF,,,,0,20170220080000,-1,-1,-1,-1,-1,-1,-1,-1,-1,-1,-1,,-1,0,0,0,,0,-1,0,-1,-1,RJTF 200800Z NIL=
20170220_090000.002,0,RJTF,,,,0,20170220090000,-1,-1,-1,-1,-1,-1,-1,-1,-1,-1,-1,,-1,0,0,0,,0,-1,0,-1,-1,RJTF 200900Z NIL=
20170220_233000.001,0,RJTF,,,,0,20170220230000,-1,-1,-1,-1,360,-1,12,-1,-1,-1,-1,,9999,0,0,1,FEW 30,1,6,-1,6,1014,RJTF 202330Z 36012KT 9999 FEW030 06/M06 Q1014 RMK 1CU030     A2996=
20170221_000000.002,0,RJTF,,,,0,20170221000000,-1,-1,-1,-1,340,-1,13,-1,-1,-1,-1,,9999,0,0,1,FEW 30,1,7,-1,8,1015,RJTF 210000Z 34013KT 9999 FEW030 07/M08 Q1015 RMK 1CU030     A2997=
20170221_010000.002,0,RJTF,,,,0,20170221010000,-1,-1,-1,-1,320,-1,15,-1,30,270,360,,9999,0,0,1,FEW 30,1,8,-1,11,1015,RJTF 210100Z 32015G30KT 270V360 9999 FEW030 08/M11 Q1015 RMK     2CU030 A3000=
20170221_020000.003,0,RJTF,,,,0,20170221020000,-1,-1,-1,-1,320,-1,15,-1,28,290,350,,9999,0,0,1,FEW 30,1,8,-1,12,1016,RJTF 210200Z 32015G28KT 290V350 9999 FEW030 08/M12 Q1016 RMK     2CU030 A3003=
20170221_030000.002,0,RJTF,,,,0,20170221030000,-1,-1,-1,-1,310,-1,14,-1,26,270,360,,9999,0,0,1,FEW 30,1,9,-1,13,1016,RJTF 210300Z 31014G26KT 270V360 9999 FEW030 09/M13 Q1016 RMK     2CU030 A3003=
20170221_040000.002,0,RJTF,,,,0,20170221040000,-1,-1,-1,-1,320,-1,14,-1,25,270,350,,9999,0,0,1,FEW 30,1,9,-1,14,1016,RJTF 210400Z 32014G25KT 270V350 9999 FEW030 09/M14 Q1016 RMK     1CU030 A3002=
20170221_050000.002,0,RJTF,,,,0,20170221050000,-1,-1,-1,-1,320,-1,14,-1,29,280,360,,9999,0,0,1,FEW 30,1,9,-1,15,1017,RJTF 210500Z 32014G29KT 280V360 9999 FEW030 09/M15 Q1017 RMK     1CU030 A3003=
20170221_060000.002,0,RJTF,,,,0,20170221060000,-1,-1,-1,-1,320,-1,17,-1,33,290,360,,9999,0,0,1,FEW 30,1,9,-1,17,1017,RJTF 210600Z 32017G33KT 290V360 9999 FEW030 09/M17 Q1017 RMK     1CU030 A3005=
20170221_070000.002,0,RJTF,,,,0,20170221070000,-1,-1,-1,-1,340,-1,17,-1,28,-1,-1,CAVOK,-1,0,0,0,,1,9,-1,17,1018,RJTF 210700Z 34017G28KT CAVOK 09/M17 Q1018 RMK A3008=
20170221_080000.002,0,RJTF,,,,0,20170221080000,-1,-1,-1,-1,-1,-1,-1,-1,-1,-1,-1,,-1,0,0,0,,0,-1,0,-1,-1,RJTF 210800Z NIL=
20170221_090000.003,0,RJTF,,,,0,20170221090000,-1,-1,-1,-1,-1,-1,-1,-1,-1,-1,-1,,-1,0,0,0,,0,-1,0,-1,-1,RJTF 210900Z NIL=
20170221_233000.001,0,RJTF,,,,0,20170221230000,-1,-1,-1,-1,20,-1,3,-1,-1,310,90,CAVOK,-1,0,0,0,,1,4,-1,9,1027,RJTF 212330Z 02003KT 310V090 CAVOK 04/M09 Q1027 RMK A3035=
20170222_000000.002,0,RJTF,,,,0,20170222000000,-1,-1,-1,-1,360,-1,4,-1,-1,320,50,,9999,0,0,2,FEW 30   SCT -9999,1,5,-1,9,1027,RJTF 220000Z 36004KT 320V050 9999 FEW030 SCT/// 05/M09 Q1027     RMK 1CU030 A3034=
20170222_010000.002,0,RJTF,,,,0,20170222010000,-1,-1,-1,-1,999,-1,3,-1,-1,-1,-1,,9999,0,0,2,FEW 30   SCT -9999,1,6,-1,9,1027,RJTF 220100Z VRB03KT 9999 FEW030 SCT/// 06/M09 Q1027 RMK     1CU030 A3033=
20170222_020000.003,0,RJTF,,,,0,20170222020000,-1,-1,-1,-1,160,-1,6,-1,-1,120,200,,9999,0,0,3,FEW 35   SCT 50   BKN -9999,1,7,-1,8,1026,RJTF 220200Z 16006KT 120V200 9999 FEW035 SCT050 BKN/// 07/M08     Q1026 RMK 2SC035 4SC050 A3031=
20170222_030000.002,0,RJTF,,,,0,20170222030000,-1,-1,-1,-1,170,-1,8,-1,-1,130,200,,9999,0,0,3,FEW 35   SCT 45   BKN -9999,1,8,-1,6,1024,RJTF 220300Z 17008KT 130V200 9999 FEW035 SCT045 BKN/// 08/M06     Q1024 RMK 2SC035 4SC045 A3026=
20170222_040000.003,0,RJTF,,,,0,20170222040000,-1,-1,-1,-1,170,-1,17,-1,-1,-1,-1,,9999,0,0,3,FEW 30   SCT 45   BKN 170,1,9,-1,2,1023,RJTF 220400Z 17017KT 9999 FEW030 SCT045 BKN170 09/M02 Q1023     RMK 1CU030 3SC045 6AC170 A3021=
20170222_050000.002,0,RJTF,,,,0,20170222050000,-1,-1,-1,-1,190,-1,12,-1,22,-1,-1,,9999,0,0,3,FEW 30   BKN 170   BKN -9999,1,10,-1,1,1022,RJTF 220500Z 19012G22KT 9999 FEW030 BKN170 BKN/// 10/M01 Q1022     RMK 1CU030 5AC170 A3018=
20170222_060000.003,0,RJTF,,,,0,20170222060000,-1,-1,-1,-1,180,-1,13,-1,-1,-1,-1,,9999,0,0,3,FEW 30   SCT 45   BKN 180,1,9,1,0,1021,RJTF 220600Z 18013KT 9999 FEW030 SCT045 BKN180 09/00 Q1021 RMK     1CU030 3SC045 5AC180 A3016=
20170222_070000.003,0,RJTF,,,,0,20170222070000,-1,-1,-1,-1,170,-1,12,-1,-1,-1,-1,,9999,0,0,3,FEW 30   BKN 170   BKN -9999,1,10,1,1,1020,RJTF 220700Z 17012KT 9999 FEW030 BKN170 BKN/// 10/01 Q1020 RMK     1CU030 5AC170 A3014=
20170222_080000.002,0,RJTF,,,,0,20170222080000,-1,-1,-1,-1,-1,-1,-1,-1,-1,-1,-1,,-1,0,0,0,,0,-1,0,-1,-1,RJTF 220800Z NIL=
20170222_090000.002,0,RJTF,,,,0,20170222090000,-1,-1,-1,-1,-1,-1,-1,-1,-1,-1,-1,,-1,0,0,0,,0,-1,0,-1,-1,RJTF 220900Z NIL=
20170222_233000.001,0,RJTF,,,,0,20170222230000,-1,-1,-1,-1,350,-1,5,-1,-1,-1,-1,,8000,0,1,3,FEW 13   SCT 15   BKN 20,1,8,1,1,1003,RJTF 222330Z 35005KT 8000 -SHRA FEW013 SCT015 BKN020 08/01     Q1003 RMK 1CU013 3CU015 6CU020 A2962=
20170223_000000.003,0,RJTF,,,,0,20170223000000,-1,-1,-1,-1,350,-1,5,-1,-1,-1,-1,,7000,0,1,3,FEW 12   SCT 14   BKN 20,1,7,1,2,1002,RJTF 230000Z 35005KT 7000 -SHRA FEW012 SCT014 BKN020 07/02     Q1002 RMK 2CU012 4CU014 6CU020 A2960=
20170223_010000.002,0,RJTF,,,,0,20170223010000,-1,-1,-1,-1,350,-1,4,-1,-1,-1,-1,,7000,0,1,3,FEW 7   SCT 9   BKN 11,1,8,1,3,999,RJTF 230100Z 35004KT 7000 -SHRA FEW007 SCT009 BKN011 08/03     Q0999 RMK 1ST007 3ST009 6CU011 A2952 P/FR=
20170223_020000.002,0,RJTF,,,,0,20170223020000,-1,-1,-1,-1,350,-1,9,-1,-1,320,20,,9999,0,0,3,FEW 9   BKN 11   BKN 15,1,9,1,2,998,RJTF 230200Z 35009KT 320V020 9999 FEW009 BKN011 BKN015 09/02     Q0998 RMK 1ST009 5CU011 7CU015 A2948=
20170223_030000.002,0,RJTF,,,,0,20170223030000,-1,-1,-1,-1,350,-1,8,-1,-1,-1,-1,,9999,0,0,2,FEW 15   BKN 20,1,11,1,2,996,RJTF 230300Z 35008KT 9999 FEW015 BKN020 11/02 Q0996 RMK 2CU015     7CU020 A2943=
20170223_040000.002,0,RJTF,,,,0,20170223040000,-1,-1,-1,-1,20,-1,6,-1,-1,340,70,,9999,0,0,2,SCT 15   BKN 20,1,12,1,4,995,RJTF 230400Z 02006KT 340V070 9999 SCT015 BKN020 12/04 Q0995     RMK 3CU015 7CU020 A2940=
20170223_050000.002,0,RJTF,,,,0,20170223050000,-1,-1,-1,-1,360,-1,6,-1,-1,310,40,,9999,0,0,3,FEW 15   SCT 20   BKN -9999,1,15,1,5,994,RJTF 230500Z 36006KT 310V040 9999 FEW015 SCT020 BKN/// 15/05     Q0994 RMK 1CU015 3CU020 A2937=
20170223_060000.002,0,RJTF,,,,0,20170223060000,-1,-1,-1,-1,999,-1,2,-1,-1,-1,-1,,9999,0,0,2,FEW 20   BKN -9999,1,16,1,7,994,RJTF 230600Z VRB02KT 9999 FEW020 BKN/// 16/07 Q0994 RMK 1CU020     A2937=
20170223_070000.002,0,RJTF,,,,0,20170223070000,-1,-1,-1,-1,999,-1,2,-1,-1,-1,-1,,9999,0,0,2,FEW 30   SCT 45,1,17,1,7,995,RJTF 230700Z VRB02KT 9999 FEW030 SCT045 17/07 Q0995 RMK 1CU030     3SC045 A2940=
20170223_080000.002,0,RJTF,,,,0,20170223080000,-1,-1,-1,-1,-1,-1,-1,-1,-1,-1,-1,,-1,0,0,0,,0,-1,0,-1,-1,RJTF 230800Z NIL=
20170223_090000.002,0,RJTF,,,,0,20170223090000,-1,-1,-1,-1,-1,-1,-1,-1,-1,-1,-1,,-1,0,0,0,,0,-1,0,-1,-1,RJTF 230900Z NIL=
20170223_233000.000,0,RJTF,,,,0,20170223230000,-1,-1,-1,-1,360,-1,16,-1,-1,330,40,,9999,0,0,3,FEW 30   SCT 60   BKN -9999,1,5,-1,9,1011,RJTF 232330Z 36016KT 330V040 9999 FEW030 SCT060 BKN/// 05/M09     Q1011 RMK 1CU030 4SC060 A2987=
20170224_000000.002,0,RJTF,,,,0,20170224000000,-1,-1,-1,-1,350,-1,16,-1,-1,-1,-1,,9999,0,0,3,FEW 30   SCT 60   BKN -9999,1,5,-1,10,1011,RJTF 240000Z 35016KT 9999 FEW030 SCT060 BKN/// 05/M10 Q1011     RMK 1CU030 3SC060 A2988=
20170224_010000.003,0,RJTF,,,,0,20170224010000,-1,-1,-1,-1,360,-1,16,-1,-1,-1,-1,,9999,0,0,3,FEW 30   SCT 50   BKN -9999,1,8,-1,9,1012,RJTF 240100Z 36016KT 9999 FEW030 SCT050 BKN/// 08/M09 Q1012     RMK 1CU030 3SC050 A2989=
20170224_020000.002,0,RJTF,,,,0,20170224020000,-1,-1,-1,-1,360,-1,15,-1,-1,330,30,,9999,0,0,3,FEW 30   SCT 50   BKN -9999,1,9,-1,10,1012,RJTF 240200Z 36015KT 330V030 9999 FEW030 SCT050 BKN/// 09/M10     Q1012 RMK 1CU030 3SC050 A2989=
20170224_030000.002,0,RJTF,,,,0,20170224030000,-1,-1,-1,-1,10,-1,17,-1,-1,-1,-1,,9999,0,0,3,FEW 30   SCT 50   BKN -9999,1,10,-1,11,1012,RJTF 240300Z 01017KT 9999 FEW030 SCT050 BKN/// 10/M11 Q1012     RMK 1CU030 3SC050 A2988=
20170224_040000.002,0,RJTF,,,,0,20170224040000,-1,-1,-1,-1,360,-1,15,-1,-1,340,40,,9999,0,0,2,FEW 40   SCT -9999,1,11,-1,11,1011,RJTF 240400Z 36015KT 340V040 9999 FEW040 SCT/// 11/M11 Q1011     RMK 2SC040 A2988=
20170224_050000.002,0,RJTF,,,,0,20170224050000,-1,-1,-1,-1,10,-1,14,-1,-1,-1,-1,,9999,0,0,2,FEW 40   SCT -9999,1,10,-1,12,1011,RJTF 240500Z 01014KT 9999 FEW040 SCT/// 10/M12 Q1011 RMK     2SC040 A2987=
20170224_060000.002,0,RJTF,,,,0,20170224060000,-1,-1,-1,-1,360,-1,11,-1,-1,-1,-1,,9999,0,0,2,FEW 40   SCT -9999,1,10,-1,12,1012,RJTF 240600Z 36011KT 9999 FEW040 SCT/// 10/M12 Q1012 RMK     2SC040 A2990=
20170224_070000.003,0,RJTF,,,,0,20170224070000,-1,-1,-1,-1,360,-1,11,-1,-1,330,50,,9999,0,0,2,FEW 30   SCT 70,1,9,-1,12,1013,RJTF 240700Z 36011KT 330V050 9999 FEW030 SCT070 09/M12 Q1013     RMK 1CU030 3AC070 A2991=
20170224_080000.002,0,RJTF,,,,0,20170224080000,-1,-1,-1,-1,-1,-1,-1,-1,-1,-1,-1,,-1,0,0,0,,0,-1,0,-1,-1,RJTF 240800Z NIL=
20170224_090000.002,0,RJTF,,,,0,20170224090000,-1,-1,-1,-1,-1,-1,-1,-1,-1,-1,-1,,-1,0,0,0,,0,-1,0,-1,-1,RJTF 240900Z NIL=
20170224_233000.001,0,RJTF,,,,0,20170224230000,-1,-1,-1,-1,360,-1,3,-1,-1,330,40,,9999,0,0,2,FEW 30   SCT 50,1,5,-1,8,1018,RJTF 242330Z 36003KT 330V040 9999 FEW030 SCT050 05/M08 Q1018     RMK 1CU030 3SC050 A3008=
20170225_000000.002,0,RJTF,,,,0,20170225000000,-1,-1,-1,-1,999,-1,2,-1,-1,-1,-1,,9999,0,0,2,FEW 30   SCT 60,1,7,-1,9,1018,RJTF 250000Z VRB02KT 9999 FEW030 SCT060 07/M09 Q1018 RMK     1CU030 3SC060 A3008=
20170225_010000.002,0,RJTF,,,,0,20170225010000,-1,-1,-1,-1,150,-1,4,-1,-1,80,220,,9999,0,0,2,FEW 30   SCT 60,1,8,-1,7,1018,RJTF 250100Z 15004KT 080V220 9999 FEW030 SCT060 08/M07 Q1018     RMK 1CU030 3SC060 A3007=
20170225_020000.002,0,RJTF,,,,0,20170225020000,-1,-1,-1,-1,130,-1,6,-1,-1,20,190,,9999,0,0,1,FEW 35,1,9,-1,5,1017,RJTF 250200Z 13006KT 020V190 9999 FEW035 09/M05 Q1017 RMK     2CU035 A3005=
20170225_030000.002,0,RJTF,,,,0,20170225030000,-1,-1,-1,-1,999,-1,3,-1,-1,-1,-1,,9999,0,0,1,SCT 35,1,11,-1,3,1016,RJTF 250300Z VRB03KT 9999 SCT035 11/M03 Q1016 RMK 3CU035     A3002=
20170225_040000.002,0,RJTF,,,,0,20170225040000,-1,-1,-1,-1,120,-1,5,-1,-1,50,190,,9999,0,0,2,FEW 25   SCT 35,1,10,-1,2,1015,RJTF 250400Z 12005KT 050V190 9999 FEW025 SCT035 10/M02 Q1015     RMK 1CU025 4CU035 A2998=
20170225_050000.002,0,RJTF,,,,0,20170225050000,-1,-1,-1,-1,130,-1,7,-1,-1,80,180,,9999,0,0,2,FEW 30   SCT 50,1,12,-1,2,1014,RJTF 250500Z 13007KT 080V180 9999 FEW030 SCT050 12/M02 Q1014     RMK 2CU030 3SC050 A2996=
20170225_060000.002,0,RJTF,,,,0,20170225060000,-1,-1,-1,-1,160,-1,8,-1,-1,-1,-1,,9999,0,0,2,FEW 30   SCT 50,1,12,-1,3,1014,RJTF 250600Z 16008KT 9999 FEW030 SCT050 12/M03 Q1014 RMK     2CU030 3SC050 A2996=
20170225_070000.002,0,RJTF,,,,0,20170225070000,-1,-1,-1,-1,150,-1,8,-1,-1,110,180,,9999,0,0,3,FEW 30   SCT 50   BKN 80,1,11,-1,2,1014,RJTF 250700Z 15008KT 110V180 9999 FEW030 SCT050 BKN080 11/M02     Q1014 RMK 1CU030 3SC050 5AC080 A2996=
20170225_080000.002,0,RJTF,,,,0,20170225080000,-1,-1,-1,-1,-1,-1,-1,-1,-1,-1,-1,,-1,0,0,0,,0,-1,0,-1,-1,RJTF 250800Z NIL=
20170225_090000.002,0,RJTF,,,,0,20170225090000,-1,-1,-1,-1,-1,-1,-1,-1,-1,-1,-1,,-1,0,0,0,,0,-1,0,-1,-1,RJTF 250900Z NIL=
20170225_233000.001,0,RJTF,,,,0,20170225230000,-1,-1,-1,-1,999,-1,2,-1,-1,-1,-1,,9999,0,0,1,FEW 30,1,7,-1,1,1019,RJTF 252330Z VRB02KT 9999 FEW030 07/M01 Q1019 RMK 1CU030     A3009=
20170226_000000.002,0,RJTF,,,,0,20170226000000,-1,-1,-1,-1,340,-1,5,-1,-1,290,30,,9999,0,0,1,FEW 30,1,9,-1,4,1019,RJTF 260000Z 34005KT 290V030 9999 FEW030 09/M04 Q1019 RMK     1CU030 A3010=
20170226_010000.003,0,RJTF,,,,0,20170226010000,-1,-1,-1,-1,20,-1,5,-1,-1,300,90,,9999,0,0,2,FEW 30   SCT -9999,1,10,-1,5,1018,RJTF 260100Z 02005KT 300V090 9999 FEW030 SCT/// 10/M05 Q1018     RMK 1CU030 A3008=
20170226_020000.002,0,RJTF,,,,0,20170226020000,-1,-1,-1,-1,999,-1,3,-1,-1,-1,-1,,9999,0,0,2,FEW 30   SCT -9999,1,11,-1,6,1018,RJTF 260200Z VRB03KT 9999 FEW030 SCT/// 11/M06 Q1018 RMK     1CU030 A3008=
20170226_030000.002,0,RJTF,,,,0,20170226030000,-1,-1,-1,-1,999,-1,2,-1,-1,-1,-1,,9999,0,0,2,FEW 30   SCT -9999,1,11,-1,6,1017,RJTF 260300Z VRB02KT 9999 FEW030 SCT/// 11/M06 Q1017 RMK     1CU030 A3005=
20170226_040000.002,0,RJTF,,,,0,20170226040000,-1,-1,-1,-1,220,-1,5,-1,-1,160,270,,9999,0,0,2,FEW 30   BKN -9999,1,13,-1,7,1016,RJTF 260400Z 22005KT 160V270 9999 FEW030 BKN/// 13/M07 Q1016     RMK 1CU030 A3003=
20170226_050000.003,0,RJTF,,,,0,20170226050000,-1,-1,-1,-1,999,-1,3,-1,-1,-1,-1,,9999,0,0,3,FEW 30   SCT 70   BKN -9999,1,13,-1,8,1016,RJTF 260500Z VRB03KT 9999 FEW030 SCT070 BKN/// 13/M08 Q1016     RMK 1CU030 3AC070 A3001=
20170226_060000.002,0,RJTF,,,,0,20170226060000,-1,-1,-1,-1,999,-1,4,-1,-1,-1,-1,,9999,0,0,3,FEW 30   BKN 70   BKN -9999,1,13,-1,6,1016,RJTF 260600Z VRB04KT 9999 FEW030 BKN070 BKN/// 13/M06 Q1016     RMK 1CU030 5AC070 A3002=
20170226_070000.002,0,RJTF,,,,0,20170226070000,-1,-1,-1,-1,180,-1,4,-1,-1,140,220,,9999,0,0,3,FEW 30   SCT 70   BKN -9999,1,12,-1,5,1016,RJTF 260700Z 18004KT 140V220 9999 FEW030 SCT070 BKN/// 12/M05     Q1016 RMK 1CU030 3AC070 A3002=
20170226_080000.002,0,RJTF,,,,0,20170226080000,-1,-1,-1,-1,-1,-1,-1,-1,-1,-1,-1,,-1,0,0,0,,0,-1,0,-1,-1,RJTF 260800Z NIL=
20170226_090000.002,0,RJTF,,,,0,20170226090000,-1,-1,-1,-1,-1,-1,-1,-1,-1,-1,-1,,-1,0,0,0,,0,-1,0,-1,-1,RJTF 260900Z NIL=
20170226_233000.001,0,RJTF,,,,0,20170226230000,-1,-1,-1,-1,20,-1,9,-1,-1,340,50,,9999,0,0,2,FEW 30   BKN 50,1,6,-1,5,1024,RJTF 262330Z 02009KT 340V050 9999 FEW030 BKN050 06/M05 Q1024     RMK 1CU030 7SC050 A3026=
20170227_000000.002,0,RJTF,,,,0,20170227000000,-1,-1,-1,-1,20,-1,11,-1,-1,350,50,,9999,0,0,2,FEW 30   BKN 50,1,6,-1,6,1024,RJTF 270000Z 02011KT 350V050 9999 FEW030 BKN050 06/M06 Q1024     RMK 1CU030 7SC050 A3026=
20170227_010000.002,0,RJTF,,,,0,20170227010000,-1,-1,-1,-1,10,-1,12,-1,-1,-1,-1,,9999,0,0,2,FEW 30   BKN 50,1,7,-1,5,1024,RJTF 270100Z 01012KT 9999 FEW030 BKN050 07/M05 Q1024 RMK     1CU030 7SC050 A3026=
20170227_020000.002,0,RJTF,,,,0,20170227020000,-1,-1,-1,-1,70,-1,7,-1,-1,20,100,,9999,0,0,3,FEW 30   BKN 50   BKN 70,1,7,-1,3,1024,RJTF 270200Z 07007KT 020V100 9999 FEW030 BKN050 BKN070 07/M03     Q1024 RMK 1CU030 5SC050 7AC070 A3026=
20170227_030000.002,0,RJTF,,,,0,20170227030000,-1,-1,-1,-1,70,-1,7,-1,-1,20,120,,9999,0,0,3,FEW 25   SCT 30   BKN 50,1,8,-1,1,1024,RJTF 270300Z 07007KT 020V120 9999 FEW025 SCT030 BKN050 08/M01     Q1024 RMK 1CU025 3CU030 7SC050 A3024=
20170227_040000.003,0,RJTF,,,,0,20170227040000,-1,-1,-1,-1,90,-1,5,-1,-1,50,130,,9999,0,0,3,FEW 30   SCT 50   BKN 70,1,8,-1,1,1023,RJTF 270400Z 09005KT 050V130 9999 FEW030 SCT050 BKN070 08/M01     Q1023 RMK 1CU030 3SC050 7AC070 A3022=
20170227_050000.002,0,RJTF,,,,0,20170227050000,-1,-1,-1,-1,999,-1,3,-1,-1,-1,-1,,9999,0,0,2,FEW 30   SCT 70,1,10,-1,2,1022,RJTF 270500Z VRB03KT 9999 FEW030 SCT070 10/M02 Q1022 RMK     1CU030 3AC070 A3020=
20170227_060000.002,0,RJTF,,,,0,20170227060000,-1,-1,-1,-1,100,-1,6,-1,-1,50,150,,9999,0,0,1,FEW 30,1,9,-1,3,1022,RJTF 270600Z 10006KT 050V150 9999 FEW030 09/M03 Q1022 RMK     1CU030 A3019=
20170227_070000.003,0,RJTF,,,,0,20170227070000,-1,-1,-1,-1,90,-1,9,-1,-1,50,130,,9999,0,0,2,FEW 30   SCT 80,1,9,-1,3,1022,RJTF 270700Z 09009KT 050V130 9999 FEW030 SCT080 09/M03 Q1022     RMK 1CU030 4AC080 A3021=
20170227_080000.002,0,RJTF,,,,0,20170227080000,-1,-1,-1,-1,-1,-1,-1,-1,-1,-1,-1,,-1,0,0,0,,0,-1,0,-1,-1,RJTF 270800Z NIL=
20170227_090000.002,0,RJTF,,,,0,20170227090000,-1,-1,-1,-1,-1,-1,-1,-1,-1,-1,-1,,-1,0,0,0,,0,-1,0,-1,-1,RJTF 270900Z NIL=
20170227_233000.001,0,RJTF,,,,0,20170227230000,-1,-1,-1,-1,10,-1,7,-1,-1,340,40,,9999,0,0,3,FEW 30   BKN 40   BKN 80,1,5,-1,4,1027,RJTF 272330Z 01007KT 340V040 9999 FEW030 BKN040 BKN080 05/M04     Q1027 RMK 1CU030 5SC040 6AC080 A3033=
20170228_000000.002,0,RJTF,,,,0,20170228000000,-1,-1,-1,-1,10,-1,7,-1,-1,-1,-1,,9999,0,0,2,FEW 30   SCT 40,1,6,-1,4,1026,RJTF 280000Z 01007KT 9999 FEW030 SCT040 06/M04 Q1026 RMK     1CU030 3SC040 A3032=
20170228_010000.003,0,RJTF,,,,0,20170228010000,-1,-1,-1,-1,30,-1,4,-1,-1,300,110,,9999,0,0,1,FEW 30,1,6,-1,4,1026,RJTF 280100Z 03004KT 300V110 9999 FEW030 06/M04 Q1026 RMK     2CU030 A3031=
20170228_020000.002,0,RJTF,,,,0,20170228020000,-1,-1,-1,-1,999,-1,3,-1,-1,-1,-1,,9999,0,0,2,FEW 30   BKN 40,1,7,-1,5,1026,RJTF 280200Z VRB03KT 9999 FEW030 BKN040 07/M05 Q1026 RMK     1CU030 5SC040 A3030=
20170228_030000.002,0,RJTF,,,,0,20170228030000,-1,-1,-1,-1,999,-1,5,-1,-1,-1,-1,,9999,0,0,2,FEW 30   SCT 40,1,8,-1,5,1025,RJTF 280300Z VRB05KT 9999 FEW030 SCT040 08/M05 Q1025 RMK     1CU030 3SC040 A3027=
20170228_040000.002,0,RJTF,,,,0,20170228040000,-1,-1,-1,-1,999,-1,3,-1,-1,-1,-1,,9999,0,0,1,FEW 30,1,8,-1,5,1023,RJTF 280400Z VRB03KT 9999 FEW030 08/M05 Q1023 RMK 1CU030     A3023=
20170228_050000.002,0,RJTF,,,,0,20170228050000,-1,-1,-1,-1,999,-1,4,-1,-1,-1,-1,,9999,0,0,1,FEW 30,1,10,-1,4,1023,RJTF 280500Z VRB04KT 9999 FEW030 10/M04 Q1023 RMK 1CU030     A3021=
20170228_060000.002,0,RJTF,,,,0,20170228060000,-1,-1,-1,-1,999,-1,4,-1,-1,-1,-1,,9999,0,0,1,FEW 30,1,10,-1,3,1022,RJTF 280600Z VRB04KT 9999 FEW030 10/M03 Q1022 RMK 1CU030     A3021=
20170228_070000.002,0,RJTF,,,,0,20170228070000,-1,-1,-1,-1,140,-1,7,-1,-1,110,190,,9999,0,0,1,FEW 30,1,9,-1,3,1022,RJTF 280700Z 14007KT 110V190 9999 FEW030 09/M03 Q1022 RMK     1CU030 A3020=
20170228_080000.002,0,RJTF,,,,0,20170228080000,-1,-1,-1,-1,-1,-1,-1,-1,-1,-1,-1,,-1,0,0,0,,0,-1,0,-1,-1,RJTF 280800Z NIL=
20170228_090000.002,0,RJTF,,,,0,20170228090000,-1,-1,-1,-1,-1,-1,-1,-1,-1,-1,-1,,-1,0,0,0,,0,-1,0,-1,-1,RJTF 280900Z NIL=
20170228_233000.001,0,RJTF,,,,0,20170228230000,-1,-1,-1,-1,999,-1,2,-1,-1,-1,-1,,9999,0,0,2,FEW 15   BKN 25,1,4,-1,1,1024,RJTF 282330Z VRB02KT 9999 FEW015 BKN025 04/M01 Q1024 RMK     1CU015 7SC025 A3025=
20170301_000000.002,0,RJTF,,,,0,20170301000000,-1,-1,-1,-1,999,-1,2,-1,-1,-1,-1,,9999,0,0,2,FEW 20   BKN 25,1,5,-1,1,1024,RJTF 010000Z VRB02KT 9999 FEW020 BKN025 05/M01 Q1024 RMK     1CU020 7SC025 A3024=
20170301_010000.002,0,RJTF,,,,0,20170301010000,-1,-1,-1,-1,999,-1,1,-1,-1,-1,-1,,9999,0,0,2,FEW 20   BKN 25,1,6,-1,0,1024,RJTF 010100Z VRB01KT 9999 FEW020 BKN025 06/M00 Q1024 RMK     1CU020 7SC025 A3024=
20170301_020000.002,0,RJTF,,,,0,20170301020000,-1,-1,-1,-1,999,-1,2,-1,-1,-1,-1,,9999,0,0,3,FEW 20   SCT 25   BKN 35,1,6,-1,1,1023,RJTF 010200Z VRB02KT 9999 FEW020 SCT025 BKN035 06/M01 Q1023     RMK 1CU020 3SC025 7SC035 A3022=
20170301_030000.002,0,RJTF,,,,0,20170301030000,-1,-1,-1,-1,50,-1,4,-1,-1,360,100,,9999,0,0,3,FEW 20   SCT 30   BKN 40,1,8,-1,0,1021,RJTF 010300Z 05004KT 360V100 9999 FEW020 SCT030 BKN040 08/M00     Q1021 RMK 1CU020 3CU030 5SC040 A3018 P/FR=
20170301_040000.004,0,RJTF,,,,0,20170301040000,-1,-1,-1,-1,999,-1,2,-1,-1,-1,-1,,9999,0,0,3,FEW 20   SCT 30   BKN -9999,1,9,-1,1,1020,RJTF 010400Z VRB02KT 9999 FEW020 SCT030 BKN/// 09/M01 Q1020     RMK 1CU020 3CU030 A3013=
20170301_050000.002,0,RJTF,,,,0,20170301050000,-1,-1,-1,-1,999,-1,2,-1,-1,-1,-1,,9999,0,0,2,FEW 30   BKN -9999,1,10,-1,1,1019,RJTF 010500Z VRB02KT 9999 FEW030 BKN/// 10/M01 Q1019 RMK     2CU030 A3011=
20170301_060000.002,0,RJTF,,,,0,20170301060000,-1,-1,-1,-1,170,-1,4,-1,-1,120,210,,9999,0,0,3,FEW 30   SCT 180   BKN -9999,1,10,-1,1,1018,RJTF 010600Z 17004KT 120V210 9999 FEW030 SCT180 BKN/// 10/M01     Q1018 RMK 1CU030 3AC180 A3007=
20170301_070000.002,0,RJTF,,,,0,20170301070000,-1,-1,-1,-1,999,-1,2,-1,-1,-1,-1,,9999,0,0,3,FEW 30   SCT 100   BKN -9999,1,10,-1,0,1018,RJTF 010700Z VRB02KT 9999 FEW030 SCT100 BKN/// 10/M00 Q1018     RMK 1CU030 3AC100 A3007=
20170301_080000.002,0,RJTF,,,,0,20170301080000,-1,-1,-1,-1,-1,-1,-1,-1,-1,-1,-1,,-1,0,0,0,,0,-1,0,-1,-1,RJTF 010800Z NIL=
20170301_090000.002,0,RJTF,,,,0,20170301090000,-1,-1,-1,-1,-1,-1,-1,-1,-1,-1,-1,,-1,0,0,0,,0,-1,0,-1,-1,RJTF 010900Z NIL=
20170301_233000.001,0,RJTF,,,,0,20170301230000,-1,-1,-1,-1,360,-1,6,-1,-1,-1,-1,,3500,0,1,3,SCT 6   BKN 8   BKN 13,1,5,1,4,1011,RJTF 012330Z 36006KT 3500 BR SCT006 BKN008 BKN013 05/04 Q1011     RMK 4ST006 6ST008 7SC013 A2986=
20170302_000000.002,0,RJTF,,,,0,20170302000000,-1,-1,-1,-1,340,-1,5,-1,-1,-1,-1,,4000,0,1,3,FEW 6   BKN 10   BKN 23,1,6,1,4,1011,RJTF 020000Z 34005KT 4000 BR FEW006 BKN010 BKN023 06/04 Q1011     RMK 2ST006 6ST010 7SC023 A2986=
20170302_010000.002,0,RJTF,,,,0,20170302010000,-1,-1,-1,-1,350,-1,8,-1,-1,-1,-1,,4500,0,1,3,FEW 8   SCT 12   BKN 20,1,6,1,4,1009,RJTF 020100Z 35008KT 4500 BR FEW008 SCT012 BKN020 06/04 Q1009     RMK 1ST008 3SC012 7SC020 A2980=
20170302_020000.003,0,RJTF,,,,0,20170302020000,-1,-1,-1,-1,340,-1,5,-1,-1,280,10,,5000,0,1,2,FEW 15   BKN 20,1,7,1,4,1007,RJTF 020200Z 34005KT 280V010 5000 BR FEW015 BKN020 07/04 Q1007     RMK 2SC015 7SC020 A2976=
20170302_030000.002,0,RJTF,,,,0,20170302030000,-1,-1,-1,-1,350,-1,6,-1,-1,-1,-1,,5000,0,2,2,SCT 15   BKN 20,1,7,1,4,1006,RJTF 020300Z 35006KT 5000 -RA BR SCT015 BKN020 07/04 Q1006 RMK     3SC015 7SC020 A2973=
20170302_040000.002,0,RJTF,,,,0,20170302040000,-1,-1,-1,-1,320,-1,6,-1,-1,290,350,,4000,0,2,3,FEW 8   SCT 15   BKN 20,1,7,1,5,1005,RJTF 020400Z 32006KT 290V350 4000 -RA BR FEW008 SCT015 BKN020     07/05 Q1005 RMK 2ST008 3SC015 7SC020 A2970=
20170302_050000.002,0,RJTF,,,,0,20170302050000,-1,-1,-1,-1,10,-1,4,-1,-1,310,40,,3500,0,2,3,FEW 10   SCT 25   BKN 50,1,7,1,6,1004,RJTF 020500Z 01004KT 310V040 3500 -RA BR FEW010 SCT025 BKN050     07/06 Q1004 RMK 2ST010 4SC025 7SC050 A2966=
20170302_060000.002,0,RJTF,,,,0,20170302060000,-1,-1,-1,-1,999,-1,1,-1,-1,-1,-1,,3500,0,2,3,FEW 10   BKN 50   BKN 70,1,8,1,5,1003,RJTF 020600Z VRB01KT 3500 -RA BR FEW010 BKN050 BKN070 08/05     Q1003 RMK 2ST010 6SC050 7AC070 A2964=
20170302_070000.002,0,RJTF,,,,0,20170302070000,-1,-1,-1,-1,50,-1,3,-1,-1,10,80,,3500,0,2,3,FEW 10   SCT 35   BKN 50,1,8,1,6,1003,RJTF 020700Z 05003KT 010V080 3500 -RA BR FEW010 SCT035 BKN050     08/06 Q1003 RMK 2ST010 4SC035 6SC050 A2962=
20170302_080000.002,0,RJTF,,,,0,20170302080000,-1,-1,-1,-1,-1,-1,-1,-1,-1,-1,-1,,-1,0,0,0,,0,-1,0,-1,-1,RJTF 020800Z NIL=
20170302_090000.002,0,RJTF,,,,0,20170302090000,-1,-1,-1,-1,-1,-1,-1,-1,-1,-1,-1,,-1,0,0,0,,0,-1,0,-1,-1,RJTF 020900Z NIL=
20170302_233000.001,0,RJTF,,,,0,20170302230000,-1,-1,-1,-1,999,-1,3,-1,-1,-1,-1,,9999,0,0,1,FEW 30,1,9,1,4,1008,RJTF 022330Z VRB03KT 9999 FEW030 09/04 Q1008 RMK 1CU030 A2978=
20170303_000000.002,0,RJTF,,,,0,20170303000000,-1,-1,-1,-1,999,-1,2,-1,-1,-1,-1,,9999,0,0,1,FEW 30,1,10,1,3,1008,RJTF 030000Z VRB02KT 9999 FEW030 10/03 Q1008 RMK 1CU030 A2978=
20170303_010000.002,0,RJTF,,,,0,20170303010000,-1,-1,-1,-1,999,-1,3,-1,-1,-1,-1,,9999,0,0,1,FEW 30,1,13,1,0,1008,RJTF 030100Z VRB03KT 9999 FEW030 13/00 Q1008 RMK 1CU030 A2977=
20170303_020000.002,0,RJTF,,,,0,20170303020000,-1,-1,-1,-1,320,-1,12,-1,-1,290,350,,9999,0,0,1,FEW 30,1,14,-1,3,1008,RJTF 030200Z 32012KT 290V350 9999 FEW030 14/M03 Q1008 RMK     2CU030 A2977=
20170303_030000.002,0,RJTF,,,,0,20170303030000,-1,-1,-1,-1,10,-1,8,-1,-1,310,50,,9999,0,0,2,FEW 30   SCT 70,1,16,-1,3,1008,RJTF 030300Z 01008KT 310V050 9999 FEW030 SCT070 16/M03 Q1008     RMK 1CU030 3AC070 A2977=
20170303_040000.002,0,RJTF,,,,0,20170303040000,-1,-1,-1,-1,20,-1,11,-1,-1,340,50,,9999,0,0,3,FEW 30   SCT 60   BKN 80,1,13,-1,2,1008,RJTF 030400Z 02011KT 340V050 9999 FEW030 SCT060 BKN080 13/M02     Q1008 RMK 1CU030 3SC060 5AC080 A2977=
20170303_050000.002,0,RJTF,,,,0,20170303050000,-1,-1,-1,-1,360,-1,13,-1,-1,320,40,,9999,0,0,3,FEW 30   SCT 60   BKN 80,1,14,-1,4,1009,RJTF 030500Z 36013KT 320V040 9999 FEW030 SCT060 BKN080 14/M04     Q1009 RMK 1CU030 3SC060 5AC080 A2979=
20170303_060000.003,0,RJTF,,,,0,20170303060000,-1,-1,-1,-1,360,-1,14,-1,24,330,40,,9999,0,0,3,FEW 30   SCT 50   BKN 80,1,13,-1,6,1010,RJTF 030600Z 36014G24KT 330V040 9999 FEW030 SCT050 BKN080     13/M06 Q1010 RMK 1CU030 3SC050 5AC080 A2982=
20170303_070000.003,0,RJTF,,,,0,20170303070000,-1,-1,-1,-1,20,-1,15,-1,-1,-1,-1,,9999,0,0,2,FEW 30   BKN 60,1,11,-1,9,1010,RJTF 030700Z 02015KT 9999 FEW030 BKN060 11/M09 Q1010 RMK     1CU030 5SC060 A2985=
20170303_080000.003,0,RJTF,,,,0,20170303080000,-1,-1,-1,-1,-1,-1,-1,-1,-1,-1,-1,,-1,0,0,0,,0,-1,0,-1,-1,RJTF 030800Z NIL=
20170303_090000.002,0,RJTF,,,,0,20170303090000,-1,-1,-1,-1,-1,-1,-1,-1,-1,-1,-1,,-1,0,0,0,,0,-1,0,-1,-1,RJTF 030900Z NIL=
20170303_233000.001,0,RJTF,,,,0,20170303230000,-1,-1,-1,-1,999,-1,2,-1,-1,-1,-1,,9999,0,0,2,FEW 30   BKN -9999,1,6,-1,5,1019,RJTF 032330Z VRB02KT 9999 FEW030 BKN/// 06/M05 Q1019 RMK     1CU030 A3012=
20170304_000000.002,0,RJTF,,,,0,20170304000000,-1,-1,-1,-1,210,-1,3,-1,-1,160,270,,9999,0,0,2,FEW 30   BKN -9999,1,7,-1,5,1019,RJTF 040000Z 21003KT 160V270 9999 FEW030 BKN/// 07/M05 Q1019     RMK 1CU030 A3011=
20170304_010000.002,0,RJTF,,,,0,20170304010000,-1,-1,-1,-1,170,-1,7,-1,-1,-1,-1,,9999,0,0,2,FEW 30   BKN -9999,1,9,-1,5,1019,RJTF 040100Z 17007KT 9999 FEW030 BKN/// 09/M05 Q1019 RMK     1CU030 A3009=
20170304_020000.002,0,RJTF,,,,0,20170304020000,-1,-1,-1,-1,170,-1,10,-1,-1,140,210,,9999,0,0,3,FEW 30   BKN 180   BKN -9999,1,10,-1,4,1017,RJTF 040200Z 17010KT 140V210 9999 FEW030 BKN180 BKN/// 10/M04     Q1017 RMK 1CU030 5AC180 A3005=
20170304_030000.002,0,RJTF,,,,0,20170304030000,-1,-1,-1,-1,180,-1,9,-1,-1,150,220,,9999,0,0,3,FEW 30   SCT 180   BKN -9999,1,12,-1,1,1016,RJTF 040300Z 18009KT 150V220 9999 FEW030 SCT180 BKN/// 12/M01     Q1016 RMK 1CU030 3AC180 A3002=
20170304_040000.002,0,RJTF,,,,0,20170304040000,-1,-1,-1,-1,190,-1,10,-1,-1,160,220,,9999,0,0,2,FEW 30   BKN -9999,1,13,1,0,1015,RJTF 040400Z 19010KT 160V220 9999 FEW030 BKN/// 13/00 Q1015     RMK 1CU030 A2999=
20170304_050000.002,0,RJTF,,,,0,20170304050000,-1,-1,-1,-1,190,-1,11,-1,-1,-1,-1,,9999,0,0,2,FEW 30   BKN -9999,1,13,1,0,1014,RJTF 040500Z 19011KT 9999 FEW030 BKN/// 13/00 Q1014 RMK 1CU030     A2997=
20170304_060000.002,0,RJTF,,,,0,20170304060000,-1,-1,-1,-1,190,-1,10,-1,-1,-1,-1,,9999,0,0,2,FEW 30   SCT -9999,1,14,1,1,1014,RJTF 040600Z 19010KT 9999 FEW030 SCT/// 14/01 Q1014 RMK 1CU030     A2996=
20170304_070000.002,0,RJTF,,,,0,20170304070000,-1,-1,-1,-1,180,-1,10,-1,-1,150,220,,9999,0,0,2,FEW 30   BKN -9999,1,13,1,2,1014,RJTF 040700Z 18010KT 150V220 9999 FEW030 BKN/// 13/02 Q1014     RMK 1CU030 A2997=
20170304_080000.002,0,RJTF,,,,0,20170304080000,-1,-1,-1,-1,-1,-1,-1,-1,-1,-1,-1,,-1,0,0,0,,0,-1,0,-1,-1,RJTF 040800Z NIL=
20170304_090000.004,0,RJTF,,,,0,20170304090000,-1,-1,-1,-1,-1,-1,-1,-1,-1,-1,-1,,-1,0,0,0,,0,-1,0,-1,-1,RJTF 040900Z NIL=
20170304_233000.001,0,RJTF,,,,0,20170304230000,-1,-1,-1,-1,10,-1,4,-1,-1,330,30,CAVOK,-1,0,0,0,,1,9,1,0,1017,RJTF 042330Z 01004KT 330V030 CAVOK 09/00 Q1017 RMK A3005=
20170305_000000.002,0,RJTF,,,,0,20170305000000,-1,-1,-1,-1,10,-1,6,-1,-1,340,50,CAVOK,-1,0,0,0,,1,9,-1,1,1017,RJTF 050000Z 01006KT 340V050 CAVOK 09/M01 Q1017 RMK A3005=
20170305_010000.002,0,RJTF,,,,0,20170305010000,-1,-1,-1,-1,999,-1,2,-1,-1,-1,-1,CAVOK,-1,0,0,0,,1,11,1,1,1016,RJTF 050100Z VRB02KT CAVOK 11/01 Q1016 RMK A3003=
20170305_020000.002,0,RJTF,,,,0,20170305020000,-1,-1,-1,-1,130,-1,5,-1,-1,90,180,,9999,0,0,2,FEW 30   BKN -9999,1,13,1,2,1016,RJTF 050200Z 13005KT 090V180 9999 FEW030 BKN/// 13/02 Q1016     RMK 1CU030 A3000=
20170305_030000.003,0,RJTF,,,,0,20170305030000,-1,-1,-1,-1,110,-1,4,-1,-1,360,160,,9999,0,0,2,FEW 30   BKN -9999,1,14,1,1,1014,RJTF 050300Z 11004KT 360V160 9999 FEW030 BKN/// 14/01 Q1014     RMK 2CU030 A2996=
20170305_040000.002,0,RJTF,,,,0,20170305040000,-1,-1,-1,-1,999,-1,6,-1,-1,-1,-1,,9999,0,0,2,FEW 30   BKN -9999,1,15,1,1,1013,RJTF 050400Z VRB06KT 9999 FEW030 BKN/// 15/01 Q1013 RMK 1CU030     A2992=
20170305_050000.003,0,RJTF,,,,0,20170305050000,-1,-1,-1,-1,130,-1,6,-1,-1,60,200,,9999,0,0,2,FEW 30   BKN -9999,1,15,1,1,1012,RJTF 050500Z 13006KT 060V200 9999 FEW030 BKN/// 15/01 Q1012     RMK 1CU030 A2990=
20170305_060000.002,0,RJTF,,,,0,20170305060000,-1,-1,-1,-1,120,-1,6,-1,-1,70,170,CAVOK,-1,0,0,0,,1,15,1,0,1012,RJTF 050600Z 12006KT 070V170 CAVOK 15/00 Q1012 RMK A2989=
20170305_070000.003,0,RJTF,,,,0,20170305070000,-1,-1,-1,-1,150,-1,6,-1,-1,70,240,,9999,0,0,3,FEW 30   BKN 180   BKN -9999,1,14,-1,0,1011,RJTF 050700Z 15006KT 070V240 9999 FEW030 BKN180 BKN/// 14/M00     Q1011 RMK 1CU030 5AC180 A2988=
20170305_080000.003,0,RJTF,,,,0,20170305080000,-1,-1,-1,-1,-1,-1,-1,-1,-1,-1,-1,,-1,0,0,0,,0,-1,0,-1,-1,RJTF 050800Z NIL=
20170305_090000.002,0,RJTF,,,,0,20170305090000,-1,-1,-1,-1,-1,-1,-1,-1,-1,-1,-1,,-1,0,0,0,,0,-1,0,-1,-1,RJTF 050900Z NIL=
20170305_233000.001,0,RJTF,,,,0,20170305230000,-1,-1,-1,-1,350,-1,3,-1,-1,310,30,,6000,0,0,3,FEW 20   SCT 100   BKN -9999,1,9,1,5,1008,RJTF 052330Z 35003KT 310V030 6000 FEW020 SCT100 BKN/// 09/05     Q1008 RMK 1CU020 3AC100 A2977=
20170306_000000.002,0,RJTF,,,,0,20170306000000,-1,-1,-1,-1,340,-1,3,-1,-1,-1,-1,,6000,0,0,3,FEW 20   SCT 90   BKN 120,1,9,1,5,1007,RJTF 060000Z 34003KT 6000 FEW020 SCT090 BKN120 09/05 Q1007 RMK     1CU020 3AC090 6AC120 A2976=
20170306_010000.003,0,RJTF,,,,0,20170306010000,-1,-1,-1,-1,20,-1,4,-1,-1,360,80,,6000,0,0,3,FEW 20   SCT 70   BKN 100,1,10,1,5,1006,RJTF 060100Z 02004KT 360V080 6000 FEW020 SCT070 BKN100 10/05     Q1006 RMK 1CU020 3AC070 7AC100 A2973=
20170306_020000.002,0,RJTF,,,,0,20170306020000,-1,-1,-1,-1,30,-1,3,-1,-1,320,100,,5000,0,1,3,FEW 20   SCT 70   BKN 100,1,11,1,6,1005,RJTF 060200Z 03003KT 320V100 5000 BR FEW020 SCT070 BKN100     11/06 Q1005 RMK 1CU020 4AC070 7AC100 A2969=
20170306_030000.002,0,RJTF,,,,0,20170306030000,-1,-1,-1,-1,999,-1,1,-1,-1,-1,-1,,6000,0,0,3,FEW 20   SCT 70   BKN 100,1,11,1,5,1004,RJTF 060300Z VRB01KT 6000 FEW020 SCT070 BKN100 11/05 Q1004 RMK     1CU020 3AC070 7AC100 A2966=
20170306_040000.002,0,RJTF,,,,0,20170306040000,-1,-1,-1,-1,999,-1,1,-1,-1,-1,-1,,6000,0,1,3,FEW 20   SCT 50   BKN 70,1,11,1,5,1002,RJTF 060400Z VRB01KT 6000 -RA FEW020 SCT050 BKN070 11/05 Q1002     RMK 1CU020 3SC050 7AC070 A2961=
20170306_050000.002,0,RJTF,,,,0,20170306050000,-1,-1,-1,-1,999,-1,1,-1,-1,-1,-1,,6000,0,1,3,FEW 20   BKN 50   BKN 70,1,11,1,6,1002,RJTF 060500Z VRB01KT 6000 -RA FEW020 BKN050 BKN070 11/06 Q1002     RMK 1CU020 5SC050 7AC070 A2959=
20170306_060000.002,0,RJTF,,,,0,20170306060000,-1,-1,-1,-1,160,-1,9,-1,-1,-1,-1,,4500,0,2,3,FEW 15   BKN 45   BKN 60,1,10,1,7,1001,RJTF 060600Z 16009KT 4500 -RA BR FEW015 BKN045 BKN060 10/07     Q1001 RMK 1CU015 5SC045 7SC060 A2957=
20170306_070000.002,0,RJTF,,,,0,20170306070000,-1,-1,-1,-1,170,-1,6,-1,-1,-1,-1,,4000,0,1,3,FEW 10   SCT 50   BKN 80,1,10,1,8,1000,RJTF 060700Z 17006KT 4000 BR FEW010 SCT050 BKN080 10/08 Q1000     RMK 1ST010 4SC050 7AC080 A2954=
20170306_080000.002,0,RJTF,,,,0,20170306080000,-1,-1,-1,-1,-1,-1,-1,-1,-1,-1,-1,,-1,0,0,0,,0,-1,0,-1,-1,RJTF 060800Z NIL=
20170306_090000.002,0,RJTF,,,,0,20170306090000,-1,-1,-1,-1,-1,-1,-1,-1,-1,-1,-1,,-1,0,0,0,,0,-1,0,-1,-1,RJTF 060900Z NIL=
20170306_233000.001,0,RJTF,,,,0,20170306230000,-1,-1,-1,-1,10,-1,8,-1,-1,340,40,,9999,0,0,3,FEW 20   SCT 40   BKN 50,1,6,-1,6,1004,RJTF 062330Z 01008KT 340V040 9999 FEW020 SCT040 BKN050 06/M06     Q1004 RMK 1CU020 4SC040 7SC050 A2966=
20170307_000000.002,0,RJTF,,,,0,20170307000000,-1,-1,-1,-1,10,-1,7,-1,-1,330,60,,9999,0,0,3,FEW 20   SCT 40   BKN 60,1,7,-1,6,1004,RJTF 070000Z 01007KT 330V060 9999 FEW020 SCT040 BKN060 07/M06     Q1004 RMK 1CU020 3SC040 7SC060 A2965=
20170307_010000.002,0,RJTF,,,,0,20170307010000,-1,-1,-1,-1,10,-1,4,-1,-1,330,50,,9999,0,0,3,FEW 30   BKN 50   BKN 70,1,7,-1,6,1003,RJTF 070100Z 01004KT 330V050 9999 FEW030 BKN050 BKN070 07/M06     Q1003 RMK 1CU030 5SC050 7AC070 A2964=
20170307_020000.002,0,RJTF,,,,0,20170307020000,-1,-1,-1,-1,999,-1,3,-1,-1,-1,-1,,9999,0,0,3,FEW 30   BKN 50   BKN 70,1,7,-1,5,1002,RJTF 070200Z VRB03KT 9999 FEW030 BKN050 BKN070 07/M05 Q1002     RMK 1CU030 5SC050 7AC070 A2961=
20170307_030000.002,0,RJTF,,,,0,20170307030000,-1,-1,-1,-1,999,-1,3,-1,-1,-1,-1,,9999,0,0,3,FEW 30   SCT 60   BKN -9999,1,10,-1,4,1001,RJTF 070300Z VRB03KT 9999 FEW030 SCT060 BKN/// 10/M04 Q1001     RMK 1CU030 4SC060 A2957=
20170307_040000.002,0,RJTF,,,,0,20170307040000,-1,-1,-1,-1,160,-1,9,-1,-1,130,200,,9999,0,0,2,FEW 30   SCT 60,1,11,-1,5,999,RJTF 070400Z 16009KT 130V200 9999 FEW030 SCT060 11/M05 Q0999     RMK 1CU030 3SC060 A2952=
20170307_050000.003,0,RJTF,,,,0,20170307050000,-1,-1,-1,-1,180,-1,9,-1,-1,140,220,,9999,0,1,3,FEW 30   SCT 50   BKN 70,1,10,-1,3,999,RJTF 070500Z 18009KT 140V220 9999 VCSH FEW030 SCT050 BKN070     10/M03 Q0999 RMK 1CU030 4SC050 6AC070 A2950=
20170307_060000.002,0,RJTF,,,,0,20170307060000,-1,-1,-1,-1,320,-1,10,-1,-1,290,10,,9999,0,1,2,FEW 30   BKN 50,1,7,1,1,1000,RJTF 070600Z 32010KT 290V010 9999 -SHRA FEW030 BKN050 07/01     Q1000 RMK 2CU030 6SC050 A2953=
20170307_070000.002,0,RJTF,,,,0,20170307070000,-1,-1,-1,-1,60,-1,6,-1,-1,30,90,,9999,0,0,3,FEW 20   SCT 30   BKN 70,1,6,1,2,1000,RJTF 070700Z 06006KT 030V090 9999 FEW020 SCT030 BKN070 06/02     Q1000 RMK 1CU020 3CU030 5AC070 A2954=
20170307_080000.002,0,RJTF,,,,0,20170307080000,-1,-1,-1,-1,-1,-1,-1,-1,-1,-1,-1,,-1,0,0,0,,0,-1,0,-1,-1,RJTF 070800Z NIL=
20170307_090000.002,0,RJTF,,,,0,20170307090000,-1,-1,-1,-1,-1,-1,-1,-1,-1,-1,-1,,-1,0,0,0,,0,-1,0,-1,-1,RJTF 070900Z NIL=
20170307_233000.001,0,RJTF,,,,0,20170307230000,-1,-1,-1,-1,999,-1,2,-1,-1,-1,-1,,9999,0,0,1,FEW 30,1,5,-1,4,1006,RJTF 072330Z VRB02KT 9999 FEW030 05/M04 Q1006 RMK 1CU030     A2972=
20170308_000000.002,0,RJTF,,,,0,20170308000000,-1,-1,-1,-1,999,-1,2,-1,-1,-1,-1,,9999,0,0,1,FEW 30,1,6,-1,5,1006,RJTF 080000Z VRB02KT 9999 FEW030 06/M05 Q1006 RMK 1CU030     A2971=
20170308_010000.002,0,RJTF,,,,0,20170308010000,-1,-1,-1,-1,999,-1,4,-1,-1,-1,-1,,9999,0,0,1,FEW 30,1,7,-1,7,1005,RJTF 080100Z VRB04KT 9999 FEW030 07/M07 Q1005 RMK 1CU030     A2969=
20170308_020000.002,0,RJTF,,,,0,20170308020000,-1,-1,-1,-1,50,-1,5,-1,-1,320,110,,9999,0,0,1,FEW 30,1,9,-1,10,1004,RJTF 080200Z 05005KT 320V110 9999 FEW030 09/M10 Q1004 RMK     1CU030 A2967=
20170308_030000.002,0,RJTF,,,,0,20170308030000,-1,-1,-1,-1,20,-1,7,-1,-1,-1,-1,,9999,0,0,1,FEW 30,1,10,-1,12,1003,RJTF 080300Z 02007KT 9999 FEW030 10/M12 Q1003 RMK 2CU030     A2964=
20170308_040000.002,0,RJTF,,,,0,20170308040000,-1,-1,-1,-1,999,-1,5,-1,-1,-1,-1,,9999,0,0,2,FEW 30   SCT 100,1,10,-1,11,1003,RJTF 080400Z VRB05KT 9999 FEW030 SCT100 10/M11 Q1003 RMK     2CU030 3AC100 A2962=
20170308_050000.003,0,RJTF,,,,0,20170308050000,-1,-1,-1,-1,170,-1,10,-1,-1,-1,-1,,9999,0,0,3,FEW 30   SCT 60   BKN 120,1,10,-1,7,1002,RJTF 080500Z 17010KT 9999 FEW030 SCT060 BKN120 10/M07 Q1002     RMK 2CU030 4SC060 6AC120 A2961=
20170308_060000.002,0,RJTF,,,,0,20170308060000,-1,-1,-1,-1,160,-1,8,-1,-1,-1,-1,,9999,0,0,3,FEW 30   SCT 80   BKN 110,1,10,-1,8,1003,RJTF 080600Z 16008KT 9999 FEW030 SCT080 BKN110 10/M08 Q1003     RMK 1CU030 4AC080 6AC110 A2962=
20170308_070000.002,0,RJTF,,,,0,20170308070000,-1,-1,-1,-1,130,-1,7,-1,17,60,200,,9999,0,0,3,FEW 30   BKN 50   BKN 80,1,9,-1,8,1003,RJTF 080700Z 13007G17KT 060V200 9999 FEW030 BKN050 BKN080     09/M08 Q1003 RMK 1CU030 5SC050 6AC080 A2963=
20170308_080000.002,0,RJTF,,,,0,20170308080000,-1,-1,-1,-1,-1,-1,-1,-1,-1,-1,-1,,-1,0,0,0,,0,-1,0,-1,-1,RJTF 080800Z NIL=
20170308_090000.002,0,RJTF,,,,0,20170308090000,-1,-1,-1,-1,-1,-1,-1,-1,-1,-1,-1,,-1,0,0,0,,0,-1,0,-1,-1,RJTF 080900Z NIL=
20170308_233000.001,0,RJTF,,,,0,20170308230000,-1,-1,-1,-1,999,-1,1,-1,-1,-1,-1,CAVOK,-1,0,0,0,,1,6,-1,7,1007,RJTF 082330Z VRB01KT CAVOK 06/M07 Q1007 RMK A2975=
20170309_000000.003,0,RJTF,,,,0,20170309000000,-1,-1,-1,-1,999,-1,1,-1,-1,-1,-1,,9999,0,0,1,FEW 30,1,7,-1,8,1007,RJTF 090000Z VRB01KT 9999 FEW030 07/M08 Q1007 RMK 1CU030     A2975=
20170309_010000.002,0,RJTF,,,,0,20170309010000,-1,-1,-1,-1,140,-1,5,-1,-1,90,190,,9999,0,0,1,FEW 30,1,10,-1,6,1006,RJTF 090100Z 14005KT 090V190 9999 FEW030 10/M06 Q1006 RMK     1CU030 A2973=
20170309_020000.002,0,RJTF,,,,0,20170309020000,-1,-1,-1,-1,160,-1,6,-1,-1,80,230,,9999,0,0,1,FEW 30,1,10,-1,7,1005,RJTF 090200Z 16006KT 080V230 9999 FEW030 10/M07 Q1005 RMK     1CU030 A2970=
20170309_030000.002,0,RJTF,,,,0,20170309030000,-1,-1,-1,-1,150,-1,7,-1,-1,90,210,,9999,0,0,1,FEW 30,1,11,-1,10,1005,RJTF 090300Z 15007KT 090V210 9999 FEW030 11/M10 Q1005 RMK     1CU030 A2968=
20170309_040000.003,0,RJTF,,,,0,20170309040000,-1,-1,-1,-1,90,-1,3,-1,-1,20,160,,9999,0,0,2,FEW 30   SCT -9999,1,12,-1,10,1004,RJTF 090400Z 09003KT 020V160 9999 FEW030 SCT/// 12/M10 Q1004     RMK 1CU030 A2965=
20170309_050000.002,0,RJTF,,,,0,20170309050000,-1,-1,-1,-1,150,-1,8,-1,-1,-1,-1,,9999,0,0,2,FEW 30   SCT 60,1,11,-1,6,1003,RJTF 090500Z 15008KT 9999 FEW030 SCT060 11/M06 Q1003 RMK     1CU030 4SC060 A2964=
20170309_060000.002,0,RJTF,,,,0,20170309060000,-1,-1,-1,-1,160,-1,11,-1,-1,110,190,,9999,0,0,2,FEW 30   SCT 70,1,13,-1,7,1003,RJTF 090600Z 16011KT 110V190 9999 FEW030 SCT070 13/M07 Q1003     RMK 1CU030 3AC070 A2964=
20170309_070000.002,0,RJTF,,,,0,20170309070000,-1,-1,-1,-1,190,-1,8,-1,-1,160,230,,9999,0,0,2,FEW 30   SCT 80,1,12,-1,7,1004,RJTF 090700Z 19008KT 160V230 9999 FEW030 SCT080 12/M07 Q1004     RMK 1CU030 3AC080 A2965=
20170309_080000.002,0,RJTF,,,,0,20170309080000,-1,-1,-1,-1,-1,-1,-1,-1,-1,-1,-1,,-1,0,0,0,,0,-1,0,-1,-1,RJTF 090800Z NIL=
20170309_090000.002,0,RJTF,,,,0,20170309090000,-1,-1,-1,-1,-1,-1,-1,-1,-1,-1,-1,,-1,0,0,0,,0,-1,0,-1,-1,RJTF 090900Z NIL=
20170309_233000.001,0,RJTF,,,,0,20170309230000,-1,-1,-1,-1,999,-1,1,-1,-1,-1,-1,,9999,0,0,1,FEW 30,1,8,-1,3,1008,RJTF 092330Z VRB01KT 9999 FEW030 08/M03 Q1008 RMK 1CU030     A2979=
20170310_000000.002,0,RJTF,,,,0,20170310000000,-1,-1,-1,-1,999,-1,2,-1,-1,-1,-1,,9999,0,0,1,FEW 30,1,9,-1,4,1008,RJTF 100000Z VRB02KT 9999 FEW030 09/M04 Q1008 RMK 1CU030     A2979=
20170310_010000.002,0,RJTF,,,,0,20170310010000,-1,-1,-1,-1,170,-1,5,-1,-1,120,300,,9999,0,0,1,FEW 30,1,10,-1,4,1008,RJTF 100100Z 17005KT 120V300 9999 FEW030 10/M04 Q1008 RMK     1CU030 A2979=
20170310_020000.002,0,RJTF,,,,0,20170310020000,-1,-1,-1,-1,360,-1,4,-1,-1,290,100,,9999,0,0,1,FEW 30,1,11,-1,4,1008,RJTF 100200Z 36004KT 290V100 9999 FEW030 11/M04 Q1008 RMK     1CU030 A2978=
20170310_030000.002,0,RJTF,,,,0,20170310030000,-1,-1,-1,-1,70,-1,6,-1,-1,340,160,,9999,0,0,2,FEW 30   BKN 70,1,12,-1,6,1008,RJTF 100300Z 07006KT 340V160 9999 FEW030 BKN070 12/M06 Q1008     RMK 2CU030 5AC070 A2977=
20170310_040000.002,0,RJTF,,,,0,20170310040000,-1,-1,-1,-1,360,-1,11,-1,-1,320,30,,9999,0,0,2,FEW 30   BKN 70,1,13,-1,5,1008,RJTF 100400Z 36011KT 320V030 9999 FEW030 BKN070 13/M05 Q1008     RMK 2CU030 5AC070 A2978=
20170310_050000.003,0,RJTF,,,,0,20170310050000,-1,-1,-1,-1,10,-1,13,-1,-1,330,40,,9999,0,0,2,FEW 30   BKN 70,1,13,-1,5,1008,RJTF 100500Z 01013KT 330V040 9999 FEW030 BKN070 13/M05 Q1008     RMK 1CU030 6AC070 A2979=
20170310_060000.003,0,RJTF,,,,0,20170310060000,-1,-1,-1,-1,360,-1,13,-1,-1,320,30,,9999,0,0,2,FEW 30   SCT 80,1,12,-1,6,1009,RJTF 100600Z 36013KT 320V030 9999 FEW030 SCT080 12/M06 Q1009     RMK 1CU030 3AC080 A2980=
20170310_070000.002,0,RJTF,,,,0,20170310070000,-1,-1,-1,-1,360,-1,14,-1,-1,320,30,,9999,0,0,1,FEW 30,1,11,-1,8,1009,RJTF 100700Z 36014KT 320V030 9999 FEW030 11/M08 Q1009 RMK     1CU030 A2982=
20170310_080000.002,0,RJTF,,,,0,20170310080000,-1,-1,-1,-1,-1,-1,-1,-1,-1,-1,-1,,-1,0,0,0,,0,-1,0,-1,-1,RJTF 100800Z NIL=
20170310_090000.002,0,RJTF,,,,0,20170310090000,-1,-1,-1,-1,-1,-1,-1,-1,-1,-1,-1,,-1,0,0,0,,0,-1,0,-1,-1,RJTF 100900Z NIL=
20170310_233000.001,0,RJTF,,,,0,20170310230000,-1,-1,-1,-1,360,-1,13,-1,-1,-1,-1,,9999,0,0,2,FEW 30   SCT 70,1,8,-1,7,1019,RJTF 102330Z 36013KT 9999 FEW030 SCT070 08/M07 Q1019 RMK     1CU030 4AC070 A3009=
20170311_000000.002,0,RJTF,,,,0,20170311000000,-1,-1,-1,-1,360,-1,14,-1,-1,320,30,,9999,0,0,1,FEW 30,1,8,-1,7,1018,RJTF 110000Z 36014KT 320V030 9999 FEW030 08/M07 Q1018 RMK     1CU030 A3009=
20170311_010000.002,0,RJTF,,,,0,20170311010000,-1,-1,-1,-1,360,-1,13,-1,-1,320,30,,9999,0,0,1,FEW 30,1,10,-1,7,1018,RJTF 110100Z 36013KT 320V030 9999 FEW030 10/M07 Q1018 RMK     1CU030 A3009=
20170311_020000.002,0,RJTF,,,,0,20170311020000,-1,-1,-1,-1,30,-1,11,-1,-1,360,60,,9999,0,0,2,FEW 30   SCT -9999,1,10,-1,7,1018,RJTF 110200Z 03011KT 360V060 9999 FEW030 SCT/// 10/M07 Q1018     RMK 1CU030 A3008=
20170311_030000.002,0,RJTF,,,,0,20170311030000,-1,-1,-1,-1,360,-1,8,-1,-1,320,50,,9999,0,0,2,FEW 30   SCT 70,1,12,-1,8,1017,RJTF 110300Z 36008KT 320V050 9999 FEW030 SCT070 12/M08 Q1017     RMK 1CU030 3AC070 A3006=
20170311_040000.002,0,RJTF,,,,0,20170311040000,-1,-1,-1,-1,20,-1,9,-1,-1,-1,-1,,9999,0,0,2,FEW 30   SCT 70,1,12,-1,9,1017,RJTF 110400Z 02009KT 9999 FEW030 SCT070 12/M09 Q1017 RMK     1CU030 3AC070 A3004=
20170311_050000.002,0,RJTF,,,,0,20170311050000,-1,-1,-1,-1,10,-1,10,-1,-1,330,50,,9999,0,0,2,FEW 30   SCT 70,1,12,-1,10,1017,RJTF 110500Z 01010KT 330V050 9999 FEW030 SCT070 12/M10 Q1017     RMK 1CU030 3AC070 A3004=
20170311_060000.002,0,RJTF,,,,0,20170311060000,-1,-1,-1,-1,10,-1,11,-1,-1,340,50,,9999,0,0,2,FEW 30   SCT 80,1,12,-1,12,1017,RJTF 110600Z 01011KT 340V050 9999 FEW030 SCT080 12/M12 Q1017     RMK 1CU030 4AC080 A3004=
20170311_070000.002,0,RJTF,,,,0,20170311070000,-1,-1,-1,-1,360,-1,6,-1,-1,330,60,,9999,0,0,2,FEW 30   BKN 90,1,12,-1,11,1017,RJTF 110700Z 36006KT 330V060 9999 FEW030 BKN090 12/M11 Q1017     RMK 1CU030 5AC090 A3005=
20170311_080000.002,0,RJTF,,,,0,20170311080000,-1,-1,-1,-1,-1,-1,-1,-1,-1,-1,-1,,-1,0,0,0,,0,-1,0,-1,-1,RJTF 110800Z NIL=
20170311_090000.003,0,RJTF,,,,0,20170311090000,-1,-1,-1,-1,-1,-1,-1,-1,-1,-1,-1,,-1,0,0,0,,0,-1,0,-1,-1,RJTF 110900Z NIL=
20170311_233000.001,0,RJTF,,,,0,20170311230000,-1,-1,-1,-1,10,-1,5,-1,-1,-1,-1,,9999,0,0,3,FEW 30   SCT 40   BKN -9999,1,6,-1,5,1025,RJTF 112330Z 01005KT 9999 FEW030 SCT040 BKN/// 06/M05 Q1025     RMK 1CU030 3SC040 A3028=
20170312_000000.002,0,RJTF,,,,0,20170312000000,-1,-1,-1,-1,30,-1,5,-1,-1,360,70,,9999,0,0,2,FEW 30   BKN -9999,1,6,-1,6,1025,RJTF 120000Z 03005KT 360V070 9999 FEW030 BKN/// 06/M06 Q1025     RMK 1CU030 A3028=
20170312_010000.003,0,RJTF,,,,0,20170312010000,-1,-1,-1,-1,30,-1,3,-1,-1,300,100,,9999,0,0,2,FEW 30   BKN -9999,1,7,-1,5,1024,RJTF 120100Z 03003KT 300V100 9999 FEW030 BKN/// 07/M05 Q1024     RMK 1CU030 A3026=
20170312_020000.002,0,RJTF,,,,0,20170312020000,-1,-1,-1,-1,999,-1,2,-1,-1,-1,-1,,9999,0,0,2,FEW 30   BKN -9999,1,8,-1,4,1023,RJTF 120200Z VRB02KT 9999 FEW030 BKN/// 08/M04 Q1023 RMK     1CU030 A3023=
20170312_030000.002,0,RJTF,,,,0,20170312030000,-1,-1,-1,-1,350,-1,3,-1,-1,300,40,,9999,0,0,2,FEW 30   BKN -9999,1,9,-1,5,1022,RJTF 120300Z 35003KT 300V040 9999 FEW030 BKN/// 09/M05 Q1022     RMK 1CU030 A3021=
20170312_040000.002,0,RJTF,,,,0,20170312040000,-1,-1,-1,-1,160,-1,5,-1,-1,70,230,,9999,0,0,2,FEW 30   BKN -9999,1,11,-1,4,1022,RJTF 120400Z 16005KT 070V230 9999 FEW030 BKN/// 11/M04 Q1022     RMK 1CU030 A3018=
20170312_050000.002,0,RJTF,,,,0,20170312050000,-1,-1,-1,-1,130,-1,9,-1,-1,70,160,,9999,0,0,2,FEW 30   BKN -9999,1,11,-1,5,1021,RJTF 120500Z 13009KT 070V160 9999 FEW030 BKN/// 11/M05 Q1021     RMK 1CU030 A3015=
20170312_060000.002,0,RJTF,,,,0,20170312060000,-1,-1,-1,-1,140,-1,8,-1,-1,90,190,,9999,0,0,2,FEW 30   BKN -9999,1,12,-1,4,1020,RJTF 120600Z 14008KT 090V190 9999 FEW030 BKN/// 12/M04 Q1020     RMK 1CU030 A3014=
20170312_070000.002,0,RJTF,,,,0,20170312070000,-1,-1,-1,-1,130,-1,7,-1,-1,70,180,,9999,0,0,2,FEW 30   BKN -9999,1,11,-1,3,1020,RJTF 120700Z 13007KT 070V180 9999 FEW030 BKN/// 11/M03 Q1020     RMK 1CU030 A3013=
20170312_080000.002,0,RJTF,,,,0,20170312080000,-1,-1,-1,-1,-1,-1,-1,-1,-1,-1,-1,,-1,0,0,0,,0,-1,0,-1,-1,RJTF 120800Z NIL=
20170312_090000.003,0,RJTF,,,,0,20170312090000,-1,-1,-1,-1,-1,-1,-1,-1,-1,-1,-1,,-1,0,0,0,,0,-1,0,-1,-1,RJTF 120900Z NIL=
20170312_233000.001,0,RJTF,,,,0,20170312230000,-1,-1,-1,-1,360,-1,6,-1,-1,-1,-1,,8000,0,0,3,FEW 15   BKN 25   BKN 35,1,7,1,1,1021,RJTF 122330Z 36006KT 8000 FEW015 BKN025 BKN035 07/01 Q1021 RMK     1CU015 6SC025 7SC035 A3015=
20170313_000000.002,0,RJTF,,,,0,20170313000000,-1,-1,-1,-1,360,-1,5,-1,-1,330,30,,9999,0,0,3,FEW 15   BKN 25   BKN 35,1,7,1,1,1020,RJTF 130000Z 36005KT 330V030 9999 FEW015 BKN025 BKN035 07/01     Q1020 RMK 1CU015 5SC025 7SC035 A3015=
20170313_010000.002,0,RJTF,,,,0,20170313010000,-1,-1,-1,-1,360,-1,6,-1,-1,330,40,,9999,0,0,3,FEW 15   BKN 25   BKN 35,1,8,1,1,1020,RJTF 130100Z 36006KT 330V040 9999 FEW015 BKN025 BKN035 08/01     Q1020 RMK 1CU015 5SC025 7SC035 A3012=
20170313_020000.002,0,RJTF,,,,0,20170313020000,-1,-1,-1,-1,360,-1,6,-1,-1,320,50,,9999,0,0,3,FEW 15   BKN 25   BKN 35,1,8,1,1,1019,RJTF 130200Z 36006KT 320V050 9999 FEW015 BKN025 BKN035 08/01     Q1019 RMK 1CU015 5SC025 7SC035 A3011=
20170313_030000.002,0,RJTF,,,,0,20170313030000,-1,-1,-1,-1,30,-1,5,-1,-1,330,70,,9999,0,0,3,FEW 15   BKN 25   BKN 35,1,8,1,1,1018,RJTF 130300Z 03005KT 330V070 9999 FEW015 BKN025 BKN035 08/01     Q1018 RMK 1CU015 5SC025 7SC035 A3007=
20170313_040000.002,0,RJTF,,,,0,20170313040000,-1,-1,-1,-1,330,-1,4,-1,-1,280,350,,9999,0,0,3,FEW 15   BKN 25   BKN 35,1,9,1,2,1017,RJTF 130400Z 33004KT 280V350 9999 FEW015 BKN025 BKN035 09/02     Q1017 RMK 1CU015 6SC025 7SC035 A3004=
20170313_050000.002,0,RJTF,,,,0,20170313050000,-1,-1,-1,-1,350,-1,4,-1,-1,280,80,,9999,0,0,3,FEW 20   SCT 30   BKN 40,1,11,1,2,1016,RJTF 130500Z 35004KT 280V080 9999 FEW020 SCT030 BKN040 11/02     Q1016 RMK 1CU020 3SC030 5SC040 A3001=
20170313_060000.002,0,RJTF,,,,0,20170313060000,-1,-1,-1,-1,999,-1,2,-1,-1,-1,-1,,9999,0,0,3,FEW 25   SCT 35   BKN 50,1,11,1,3,1015,RJTF 130600Z VRB02KT 9999 FEW025 SCT035 BKN050 11/03 Q1015 RMK     1CU025 3CU035 5SC050 A2999=
20170313_070000.002,0,RJTF,,,,0,20170313070000,-1,-1,-1,-1,350,-1,4,-1,-1,320,20,,9999,0,0,3,FEW 20   BKN 30   BKN 50,1,11,1,3,1015,RJTF 130700Z 35004KT 320V020 9999 FEW020 BKN030 BKN050 11/03     Q1015 RMK 1CU020 5CU030 7SC050 A2999=
20170313_080000.002,0,RJTF,,,,0,20170313080000,-1,-1,-1,-1,-1,-1,-1,-1,-1,-1,-1,,-1,0,0,0,,0,-1,0,-1,-1,RJTF 130800Z NIL=
20170313_090000.002,0,RJTF,,,,0,20170313090000,-1,-1,-1,-1,-1,-1,-1,-1,-1,-1,-1,,-1,0,0,0,,0,-1,0,-1,-1,RJTF 130900Z NIL=
20170313_233000.001,0,RJTF,,,,0,20170313230000,-1,-1,-1,-1,350,-1,8,-1,-1,-1,-1,,3500,0,2,3,FEW 6   BKN 8   BKN 14,1,7,1,6,1010,RJTF 132330Z 35008KT 3500 -RA BR FEW006 BKN008 BKN014 07/06     Q1010 RMK 2ST006 6ST008 7SC014 A2984=
20170314_000000.002,0,RJTF,,,,0,20170314000000,-1,-1,-1,-1,350,-1,9,-1,-1,-1,-1,,3500,0,2,3,FEW 6   BKN 8   BKN 14,1,7,1,6,1010,RJTF 140000Z 35009KT 3500 -RA BR FEW006 BKN008 BKN014 07/06     Q1010 RMK 2ST006 5ST008 7SC014 A2982=
20170314_010000.002,0,RJTF,,,,0,20170314010000,-1,-1,-1,-1,360,-1,10,-1,-1,-1,-1,,4000,0,2,3,FEW 7   BKN 9   BKN 12,1,8,1,6,1008,RJTF 140100Z 36010KT 4000 -DZ BR FEW007 BKN009 BKN012 08/06     Q1008 RMK 2ST007 6ST009 7SC012 A2979=
20170314_020000.002,0,RJTF,,,,0,20170314020000,-1,-1,-1,-1,10,-1,7,-1,-1,340,40,,5000,0,1,3,FEW 8   BKN 10   BKN 15,1,8,1,6,1008,RJTF 140200Z 01007KT 340V040 5000 BR FEW008 BKN010 BKN015     08/06 Q1008 RMK 2ST008 6ST010 7SC015 A2979=
20170314_030000.002,0,RJTF,,,,0,20170314030000,-1,-1,-1,-1,350,-1,8,-1,-1,-1,-1,,6000,0,1,3,FEW 8   BKN 12   BKN 20,1,8,1,6,1007,RJTF 140300Z 35008KT 6000 -RA FEW008 BKN012 BKN020 08/06 Q1007     RMK 1ST008 5SC012 7SC020 A2975=
20170314_040000.002,0,RJTF,,,,0,20170314040000,-1,-1,-1,-1,350,-1,10,-1,-1,-1,-1,,7000,0,0,3,FEW 14   SCT 20   BKN 40,1,9,1,6,1006,RJTF 140400Z 35010KT 7000 FEW014 SCT020 BKN040 09/06 Q1006 RMK     2CU014 4SC020 7SC040 A2972=
20170314_050000.002,0,RJTF,,,,0,20170314050000,-1,-1,-1,-1,340,-1,10,-1,-1,300,10,,9999,0,0,3,FEW 15   SCT 20   BKN 45,1,10,1,6,1005,RJTF 140500Z 34010KT 300V010 9999 FEW015 SCT020 BKN045 10/06     Q1005 RMK 2CU015 4SC020 7SC045 A2970=
20170314_060000.002,0,RJTF,,,,0,20170314060000,-1,-1,-1,-1,360,-1,11,-1,-1,-1,-1,,9999,0,0,3,FEW 18   BKN 30   BKN 50,1,10,1,5,1005,RJTF 140600Z 36011KT 9999 FEW018 BKN030 BKN050 10/05 Q1005 RMK     2CU018 5SC030 7SC050 A2969=
20170314_070000.003,0,RJTF,,,,0,20170314070000,-1,-1,-1,-1,360,-1,10,-1,-1,-1,-1,,9999,0,0,3,FEW 20   SCT 30   BKN 60,1,11,1,5,1005,RJTF 140700Z 36010KT 9999 FEW020 SCT030 BKN060 11/05 Q1005 RMK     2CU020 3SC030 5SC060 A2968=
20170314_080000.002,0,RJTF,,,,0,20170314080000,-1,-1,-1,-1,-1,-1,-1,-1,-1,-1,-1,,-1,0,0,0,,0,-1,0,-1,-1,RJTF 140800Z NIL=
20170314_090000.002,0,RJTF,,,,0,20170314090000,-1,-1,-1,-1,-1,-1,-1,-1,-1,-1,-1,,-1,0,0,0,,0,-1,0,-1,-1,RJTF 140900Z NIL=
20170314_233000.001,0,RJTF,,,,0,20170314230000,-1,-1,-1,-1,30,-1,9,-1,-1,360,70,,9999,0,0,2,SCT 15   BKN 90,1,5,1,1,1005,RJTF 142330Z 03009KT 360V070 9999 SCT015 BKN090 05/01 Q1005     RMK 4CU015 7AC090 A2970=
20170315_000000.003,0,RJTF,,,,0,20170315000000,-1,-1,-1,-1,30,-1,10,-1,-1,-1,-1,,9999,0,0,2,SCT 15   BKN 80,1,5,1,1,1006,RJTF 150000Z 03010KT 9999 SCT015 BKN080 05/01 Q1006 RMK 4CU015     7AC080 A2971=
20170315_010000.002,0,RJTF,,,,0,20170315010000,-1,-1,-1,-1,40,-1,10,-1,-1,10,70,,9999,0,0,2,SCT 15   BKN 70,1,5,1,1,1006,RJTF 150100Z 04010KT 010V070 9999 SCT015 BKN070 05/01 Q1006     RMK 3CU015 7AC070 A2971=
20170315_020000.003,0,RJTF,,,,0,20170315020000,-1,-1,-1,-1,30,-1,12,-1,-1,360,60,,9999,0,0,3,FEW 15   SCT 25   BKN 70,1,6,1,1,1005,RJTF 150200Z 03012KT 360V060 9999 FEW015 SCT025 BKN070 06/01     Q1005 RMK 1CU015 3CU025 7AC070 A2970=
20170315_030000.002,0,RJTF,,,,0,20170315030000,-1,-1,-1,-1,40,-1,11,-1,-1,10,70,,9999,0,0,2,FEW 25   BKN 60,1,6,1,0,1005,RJTF 150300Z 04011KT 010V070 9999 FEW025 BKN060 06/00 Q1005     RMK 2CU025 7SC060 A2970=
20170315_040000.002,0,RJTF,,,,0,20170315040000,-1,-1,-1,-1,40,-1,12,-1,-1,-1,-1,,9999,0,0,2,FEW 25   BKN 80,1,6,-1,0,1005,RJTF 150400Z 04012KT 9999 FEW025 BKN080 06/M00 Q1005 RMK     1CU025 7AC080 A2970=
20170315_050000.002,0,RJTF,,,,0,20170315050000,-1,-1,-1,-1,40,-1,9,-1,-1,-1,-1,,9999,0,0,2,FEW 25   BKN 70,1,6,-1,0,1006,RJTF 150500Z 04009KT 9999 FEW025 BKN070 06/M00 Q1006 RMK     1CU025 7AC070 A2972=
20170315_060000.002,0,RJTF,,,,0,20170315060000,-1,-1,-1,-1,20,-1,8,-1,-1,-1,-1,,9999,0,0,2,FEW 25   BKN 90,1,7,-1,0,1007,RJTF 150600Z 02008KT 9999 FEW025 BKN090 07/M00 Q1007 RMK     1CU025 7AC090 A2974=
20170315_070000.002,0,RJTF,,,,0,20170315070000,-1,-1,-1,-1,20,-1,7,-1,-1,350,60,,9999,0,0,2,FEW 25   BKN 90,1,7,-1,1,1007,RJTF 150700Z 02007KT 350V060 9999 FEW025 BKN090 07/M01 Q1007     RMK 1CU025 7AC090 A2975=
20170315_080000.002,0,RJTF,,,,0,20170315080000,-1,-1,-1,-1,-1,-1,-1,-1,-1,-1,-1,,-1,0,0,0,,0,-1,0,-1,-1,RJTF 150800Z NIL=
20170315_090000.002,0,RJTF,,,,0,20170315090000,-1,-1,-1,-1,-1,-1,-1,-1,-1,-1,-1,,-1,0,0,0,,0,-1,0,-1,-1,RJTF 150900Z NIL=
20170315_233000.001,0,RJTF,,,,0,20170315230000,-1,-1,-1,-1,999,-1,2,-1,-1,-1,-1,,9999,0,0,1,FEW 30,1,8,1,0,1016,RJTF 152330Z VRB02KT 9999 FEW030 08/00 Q1016 RMK 1CU030 A3001=
20170316_000000.002,0,RJTF,,,,0,20170316000000,-1,-1,-1,-1,999,-1,2,-1,-1,-1,-1,,9999,0,0,1,FEW 30,1,9,-1,1,1015,RJTF 160000Z VRB02KT 9999 FEW030 09/M01 Q1015 RMK 1CU030     A3000=
20170316_010000.002,0,RJTF,,,,0,20170316010000,-1,-1,-1,-1,999,-1,2,-1,-1,-1,-1,,9999,0,0,1,FEW 30,1,11,-1,3,1015,RJTF 160100Z VRB02KT 9999 FEW030 11/M03 Q1015 RMK 1CU030     A2999=
20170316_020000.002,0,RJTF,,,,0,20170316020000,-1,-1,-1,-1,240,-1,3,-1,-1,120,300,,9999,0,0,1,FEW 30,1,12,-1,4,1015,RJTF 160200Z 24003KT 120V300 9999 FEW030 12/M04 Q1015 RMK     2CU030 A2997=
20170316_030000.002,0,RJTF,,,,0,20170316030000,-1,-1,-1,-1,120,-1,3,-1,-1,60,180,,9999,0,0,2,FEW 30   BKN 60,1,12,-1,4,1014,RJTF 160300Z 12003KT 060V180 9999 FEW030 BKN060 12/M04 Q1014     RMK 1CU030 5SC060 A2995=
20170316_040000.002,0,RJTF,,,,0,20170316040000,-1,-1,-1,-1,270,-1,5,-1,-1,210,310,,9999,0,0,2,FEW 30   BKN 70,1,14,-1,4,1013,RJTF 160400Z 27005KT 210V310 9999 FEW030 BKN070 14/M04 Q1013     RMK 2CU030 5AC070 A2993=
20170316_050000.002,0,RJTF,,,,0,20170316050000,-1,-1,-1,-1,20,-1,8,-1,-1,-1,-1,,9999,0,0,2,FEW 25   BKN 70,1,13,-1,4,1013,RJTF 160500Z 02008KT 9999 FEW025 BKN070 13/M04 Q1013 RMK     2CU025 7AC070 A2993 VIRGA ABT 3KM S=
20170316_060000.002,0,RJTF,,,,0,20170316060000,-1,-1,-1,-1,140,-1,5,-1,-1,50,200,,9999,0,0,3,FEW 25   SCT 40   BKN 60,1,12,-1,1,1013,RJTF 160600Z 14005KT 050V200 9999 FEW025 SCT040 BKN060 12/M01     Q1013 RMK 2CU025 3CU040 7SC060 A2994 VIRGA ABT 4KM SE-S=
20170316_070000.003,0,RJTF,,,,0,20170316070000,-1,-1,-1,-1,190,-1,7,-1,-1,150,220,,9999,0,0,3,FEW 25   SCT 60   BKN 90,1,11,1,1,1014,RJTF 160700Z 19007KT 150V220 9999 FEW025 SCT060 BKN090 11/01     Q1014 RMK 1CU025 3SC060 5AC090 A2994=
20170316_080000.002,0,RJTF,,,,0,20170316080000,-1,-1,-1,-1,-1,-1,-1,-1,-1,-1,-1,,-1,0,0,0,,0,-1,0,-1,-1,RJTF 160800Z NIL=
20170316_090000.002,0,RJTF,,,,0,20170316090000,-1,-1,-1,-1,-1,-1,-1,-1,-1,-1,-1,,-1,0,0,0,,0,-1,0,-1,-1,RJTF 160900Z NIL=
20170316_233000.001,0,RJTF,,,,0,20170316230000,-1,-1,-1,-1,360,-1,10,-1,-1,-1,-1,,9999,0,0,1,FEW 30,1,10,-1,6,1018,RJTF 162330Z 36010KT 9999 FEW030 10/M06 Q1018 RMK 1CU030     A3008=
20170317_000000.002,0,RJTF,,,,0,20170317000000,-1,-1,-1,-1,10,-1,12,-1,-1,330,30,,9999,0,0,2,FEW 30   SCT 70,1,10,-1,6,1018,RJTF 170000Z 01012KT 330V030 9999 FEW030 SCT070 10/M06 Q1018     RMK 1CU030 3AC070 A3008=
20170317_010000.002,0,RJTF,,,,0,20170317010000,-1,-1,-1,-1,20,-1,13,-1,-1,-1,-1,,9999,0,0,2,FEW 30   BKN 70,1,10,-1,7,1018,RJTF 170100Z 02013KT 9999 FEW030 BKN070 10/M07 Q1018 RMK     1CU030 6AC070 A3007=
20170317_020000.002,0,RJTF,,,,0,20170317020000,-1,-1,-1,-1,360,-1,14,-1,-1,-1,-1,,9999,0,0,2,FEW 30   SCT 70,1,10,-1,6,1017,RJTF 170200Z 36014KT 9999 FEW030 SCT070 10/M06 Q1017 RMK     1CU030 4AC070 A3006=
20170317_030000.002,0,RJTF,,,,0,20170317030000,-1,-1,-1,-1,10,-1,8,-1,-1,310,50,,9999,0,0,1,FEW 30,1,12,-1,6,1017,RJTF 170300Z 01008KT 310V050 9999 FEW030 12/M06 Q1017 RMK     1CU030 A3004=
20170317_040000.002,0,RJTF,,,,0,20170317040000,-1,-1,-1,-1,999,-1,4,-1,-1,-1,-1,,9999,0,0,1,FEW 30,1,13,-1,6,1016,RJTF 170400Z VRB04KT 9999 FEW030 13/M06 Q1016 RMK 1CU030     A3002=
20170317_050000.002,0,RJTF,,,,0,20170317050000,-1,-1,-1,-1,20,-1,5,-1,-1,260,70,,9999,0,0,2,FEW 30   SCT 60,1,13,-1,7,1015,RJTF 170500Z 02005KT 260V070 9999 FEW030 SCT060 13/M07 Q1015     RMK 1CU030 3SC060 A3000=
20170317_060000.002,0,RJTF,,,,0,20170317060000,-1,-1,-1,-1,360,-1,6,-1,-1,320,20,,9999,0,0,2,FEW 30   BKN 60,1,13,-1,7,1015,RJTF 170600Z 36006KT 320V020 9999 FEW030 BKN060 13/M07 Q1015     RMK 1CU030 7SC060 A3000=
20170317_070000.002,0,RJTF,,,,0,20170317070000,-1,-1,-1,-1,30,-1,7,-1,-1,340,80,,9999,0,0,2,FEW 30   BKN 60,1,13,-1,7,1016,RJTF 170700Z 03007KT 340V080 9999 FEW030 BKN060 13/M07 Q1016     RMK 1CU030 7SC060 A3001=
20170317_080000.002,0,RJTF,,,,0,20170317080000,-1,-1,-1,-1,-1,-1,-1,-1,-1,-1,-1,,-1,0,0,0,,0,-1,0,-1,-1,RJTF 170800Z NIL=
20170317_090000.002,0,RJTF,,,,0,20170317090000,-1,-1,-1,-1,-1,-1,-1,-1,-1,-1,-1,,-1,0,0,0,,0,-1,0,-1,-1,RJTF 170900Z NIL=
20170317_233000.001,0,RJTF,,,,0,20170317230000,-1,-1,-1,-1,310,-1,4,-1,-1,260,20,CAVOK,-1,0,0,0,,1,9,-1,7,1022,RJTF 172330Z 31004KT 260V020 CAVOK 09/M07 Q1022 RMK A3019=
20170318_000000.002,0,RJTF,,,,0,20170318000000,-1,-1,-1,-1,290,-1,4,-1,-1,230,360,CAVOK,-1,0,0,0,,1,10,-1,6,1022,RJTF 180000Z 29004KT 230V360 CAVOK 10/M06 Q1022 RMK A3019=
20170318_010000.002,0,RJTF,,,,0,20170318010000,-1,-1,-1,-1,300,-1,3,-1,-1,220,40,,9999,0,0,1,FEW 30,1,12,-1,8,1022,RJTF 180100Z 30003KT 220V040 9999 FEW030 12/M08 Q1022 RMK     1CU030 A3018=
20170318_020000.003,0,RJTF,,,,0,20170318020000,-1,-1,-1,-1,999,-1,4,-1,-1,-1,-1,,9999,0,0,2,FEW 30   SCT -9999,1,13,-1,8,1021,RJTF 180200Z VRB04KT 9999 FEW030 SCT/// 13/M08 Q1021 RMK     1CU030 A3017=
20170318_030000.002,0,RJTF,,,,0,20170318030000,-1,-1,-1,-1,130,-1,6,-1,-1,80,190,,9999,0,0,2,FEW 30   BKN -9999,1,14,-1,8,1020,RJTF 180300Z 13006KT 080V190 9999 FEW030 BKN/// 14/M08 Q1020     RMK 1CU030 A3014=
20170318_040000.002,0,RJTF,,,,0,20170318040000,-1,-1,-1,-1,160,-1,6,-1,-1,110,270,,9999,0,0,3,FEW 30   SCT 170   BKN -9999,1,15,-1,8,1019,RJTF 180400Z 16006KT 110V270 9999 FEW030 SCT170 BKN/// 15/M08     Q1019 RMK 1CU030 3AC170 A3010=
20170318_050000.002,0,RJTF,,,,0,20170318050000,-1,-1,-1,-1,999,-1,3,-1,-1,-1,-1,,9999,0,0,2,FEW 30   OVC -9999,1,15,-1,6,1018,RJTF 180500Z VRB03KT 9999 FEW030 OVC/// 15/M06 Q1018 RMK     1CU030 A3008=
20170318_060000.002,0,RJTF,,,,0,20170318060000,-1,-1,-1,-1,170,-1,6,-1,-1,90,220,,9999,0,0,3,FEW 30   SCT 80   BKN -9999,1,15,-1,6,1018,RJTF 180600Z 17006KT 090V220 9999 FEW030 SCT080 BKN/// 15/M06     Q1018 RMK 1CU030 3AC080 A3008=
20170318_070000.002,0,RJTF,,,,0,20170318070000,-1,-1,-1,-1,180,-1,7,-1,-1,150,240,,9999,0,0,3,FEW 30   SCT 70   BKN -9999,1,14,-1,2,1019,RJTF 180700Z 18007KT 150V240 9999 FEW030 SCT070 BKN/// 14/M02     Q1019 RMK 1CU030 3AC070 A3010=
20170318_080000.002,0,RJTF,,,,0,20170318080000,-1,-1,-1,-1,-1,-1,-1,-1,-1,-1,-1,,-1,0,0,0,,0,-1,0,-1,-1,RJTF 180800Z NIL=
20170318_090000.002,0,RJTF,,,,0,20170318090000,-1,-1,-1,-1,-1,-1,-1,-1,-1,-1,-1,,-1,0,0,0,,0,-1,0,-1,-1,RJTF 180900Z NIL=
20170318_233000.001,0,RJTF,,,,0,20170318230000,-1,-1,-1,-1,290,-1,4,-1,-1,250,330,CAVOK,-1,0,0,0,,1,10,-1,3,1020,RJTF 182330Z 29004KT 250V330 CAVOK 10/M03 Q1020 RMK A3012=
20170319_000000.002,0,RJTF,,,,0,20170319000000,-1,-1,-1,-1,300,-1,3,-1,-1,260,340,CAVOK,-1,0,0,0,,1,13,-1,4,1019,RJTF 190000Z 30003KT 260V340 CAVOK 13/M04 Q1019 RMK A3012=
20170319_010000.002,0,RJTF,,,,0,20170319010000,-1,-1,-1,-1,350,-1,11,-1,-1,-1,-1,CAVOK,-1,0,0,0,,1,15,-1,5,1019,RJTF 190100Z 35011KT CAVOK 15/M05 Q1019 RMK A3011=
20170319_020000.002,0,RJTF,,,,0,20170319020000,-1,-1,-1,-1,340,-1,12,-1,-1,290,360,,8000,0,0,1,FEW 30,1,17,-1,5,1019,RJTF 190200Z 34012KT 290V360 8000 FEW030 17/M05 Q1019 RMK     1CU030 A3010=
20170319_030000.002,0,RJTF,,,,0,20170319030000,-1,-1,-1,-1,360,-1,10,-1,-1,300,40,,8000,0,0,1,FEW 30,1,18,-1,5,1018,RJTF 190300Z 36010KT 300V040 8000 FEW030 18/M05 Q1018 RMK     1CU030 A3007=
20170319_040000.002,0,RJTF,,,,0,20170319040000,-1,-1,-1,-1,40,-1,13,-1,-1,-1,-1,,6000,0,0,1,FEW 30,1,17,-1,4,1017,RJTF 190400Z 04013KT 6000 FEW030 17/M04 Q1017 RMK 1CU030     A3005=
20170319_050000.002,0,RJTF,,,,0,20170319050000,-1,-1,-1,-1,10,-1,13,-1,-1,340,50,,6000,0,0,1,FEW 30,1,18,-1,3,1017,RJTF 190500Z 01013KT 340V050 6000 FEW030 18/M03 Q1017 RMK     1CU030 A3005=
20170319_060000.002,0,RJTF,,,,0,20170319060000,-1,-1,-1,-1,30,-1,8,-1,-1,330,80,,7000,0,0,2,FEW 30   SCT 80,1,17,-1,4,1017,RJTF 190600Z 03008KT 330V080 7000 FEW030 SCT080 17/M04 Q1017     RMK 1CU030 3AC080 A3005=
20170319_070000.002,0,RJTF,,,,0,20170319070000,-1,-1,-1,-1,20,-1,10,-1,-1,340,50,,9999,0,0,2,FEW 30   SCT 80,1,16,-1,4,1018,RJTF 190700Z 02010KT 340V050 9999 FEW030 SCT080 16/M04 Q1018     RMK 1CU030 4AC080 A3006=
20170319_080000.003,0,RJTF,,,,0,20170319080000,-1,-1,-1,-1,-1,-1,-1,-1,-1,-1,-1,,-1,0,0,0,,0,-1,0,-1,-1,RJTF 190800Z NIL=
20170319_090000.002,0,RJTF,,,,0,20170319090000,-1,-1,-1,-1,-1,-1,-1,-1,-1,-1,-1,,-1,0,0,0,,0,-1,0,-1,-1,RJTF 190900Z NIL=
20170319_233000.001,0,RJTF,,,,0,20170319230000,-1,-1,-1,-1,340,-1,9,-1,-1,290,10,CAVOK,-1,0,0,0,,1,12,-1,9,1023,RJTF 192330Z 34009KT 290V010 CAVOK 12/M09 Q1023 RMK A3021=
20170320_000000.002,0,RJTF,,,,0,20170320000000,-1,-1,-1,-1,330,-1,10,-1,-1,280,360,CAVOK,-1,0,0,0,,1,13,-1,10,1022,RJTF 200000Z 33010KT 280V360 CAVOK 13/M10 Q1022 RMK A3020=
20170320_010000.003,0,RJTF,,,,0,20170320010000,-1,-1,-1,-1,360,-1,13,-1,-1,330,30,CAVOK,-1,0,0,0,,1,15,-1,8,1022,RJTF 200100Z 36013KT 330V030 CAVOK 15/M08 Q1022 RMK A3018=
20170320_020000.002,0,RJTF,,,,0,20170320020000,-1,-1,-1,-1,10,-1,10,-1,-1,330,60,CAVOK,-1,0,0,0,,1,15,-1,10,1021,RJTF 200200Z 01010KT 330V060 CAVOK 15/M10 Q1021 RMK A3018=
20170320_030000.002,0,RJTF,,,,0,20170320030000,-1,-1,-1,-1,20,-1,7,-1,-1,330,50,CAVOK,-1,0,0,0,,1,16,-1,10,1021,RJTF 200300Z 02007KT 330V050 CAVOK 16/M10 Q1021 RMK A3016=
20170320_040000.002,0,RJTF,,,,0,20170320040000,-1,-1,-1,-1,999,-1,3,-1,-1,-1,-1,CAVOK,-1,0,0,0,,1,16,-1,10,1020,RJTF 200400Z VRB03KT CAVOK 16/M10 Q1020 RMK A3012=
20170320_050000.002,0,RJTF,,,,0,20170320050000,-1,-1,-1,-1,220,-1,3,-1,-1,150,300,,9999,0,0,2,FEW 20   SCT -9999,1,17,-1,11,1019,RJTF 200500Z 22003KT 150V300 9999 FEW020 SCT/// 17/M11 Q1019     RMK 1CU020 A3010=
20170320_060000.002,0,RJTF,,,,0,20170320060000,-1,-1,-1,-1,200,-1,4,-1,-1,160,280,,9999,0,0,2,FEW 30   SCT -9999,1,17,-1,10,1018,RJTF 200600Z 20004KT 160V280 9999 FEW030 SCT/// 17/M10 Q1018     RMK 1CU030 A3009=
20170320_070000.002,0,RJTF,,,,0,20170320070000,-1,-1,-1,-1,160,-1,11,-1,-1,-1,-1,,9999,0,0,2,FEW 30   BKN -9999,1,16,-1,7,1018,RJTF 200700Z 16011KT 9999 FEW030 BKN/// 16/M07 Q1018 RMK     1CU030 A3008=
20170320_080000.002,0,RJTF,,,,0,20170320080000,-1,-1,-1,-1,-1,-1,-1,-1,-1,-1,-1,,-1,0,0,0,,0,-1,0,-1,-1,RJTF 200800Z NIL=
20170320_090000.002,0,RJTF,,,,0,20170320090000,-1,-1,-1,-1,-1,-1,-1,-1,-1,-1,-1,,-1,0,0,0,,0,-1,0,-1,-1,RJTF 200900Z NIL=
20170320_233000.001,0,RJTF,,,,0,20170320230000,-1,-1,-1,-1,160,-1,7,-1,-1,140,200,,6000,0,1,3,FEW 8   BKN 12   BKN 20,1,9,1,8,1012,RJTF 202330Z 16007KT 140V200 6000 -SHRA FEW008 BKN012 BKN020     09/08 Q1012 RMK 2ST008 5CU012 6SC020 A2989=
20170321_000000.002,0,RJTF,,,,0,20170321000000,-1,-1,-1,-1,170,-1,6,-1,-1,-1,-1,,5000,0,2,3,FEW 6   BKN 10   BKN 30,1,9,1,8,1011,RJTF 210000Z 17006KT 5000 -RA BR FEW006 BKN010 BKN030 09/08     Q1011 RMK 2ST006 5CU010 6SC030 A2987=
20170321_010000.002,0,RJTF,,,,0,20170321010000,-1,-1,-1,-1,160,-1,8,-1,-1,-1,-1,,6000,0,1,3,FEW 8   BKN 12   BKN 25,1,9,1,7,1010,RJTF 210100Z 16008KT 6000 -RA FEW008 BKN012 BKN025 09/07 Q1010     RMK 1ST008 5CU012 6SC025 A2984=
20170321_020000.002,0,RJTF,,,,0,20170321020000,-1,-1,-1,-1,130,-1,8,-1,-1,-1,-1,,8000,0,1,3,FEW 8   BKN 12   BKN 30,1,9,1,8,1008,RJTF 210200Z 13008KT 8000 -RA FEW008 BKN012 BKN030 09/08 Q1008     RMK 1ST008 5CU012 6SC030 A2979=
20170321_030000.003,0,RJTF,,,,0,20170321030000,-1,-1,-1,-1,150,-1,8,-1,-1,-1,-1,,7000,0,1,3,FEW 8   BKN 12   BKN 30,1,10,1,8,1007,RJTF 210300Z 15008KT 7000 -RA FEW008 BKN012 BKN030 10/08 Q1007     RMK 1ST008 5CU012 6SC030 A2974=
20170321_040000.002,0,RJTF,,,,0,20170321040000,-1,-1,-1,-1,100,-1,5,-1,-1,60,120,,6000,0,1,3,FEW 8   BKN 10   BKN 25,1,9,1,8,1005,RJTF 210400Z 10005KT 060V120 6000 -RA FEW008 BKN010 BKN025     09/08 Q1005 RMK 2ST008 5CU010 6SC025 A2968 P/FR=
20170321_050000.002,0,RJTF,,,,0,20170321050000,-1,-1,-1,-1,90,-1,5,-1,-1,50,120,,6000,0,1,3,FEW 8   BKN 10   BKN 25,1,10,1,8,1003,RJTF 210500Z 09005KT 050V120 6000 -RA FEW008 BKN010 BKN025     10/08 Q1003 RMK 1ST008 5CU010 6SC025 A2964=
20170321_060000.003,0,RJTF,,,,0,20170321060000,-1,-1,-1,-1,70,-1,4,-1,-1,30,130,,6000,0,1,3,FEW 7   BKN 10   BKN 20,1,10,1,8,1002,RJTF 210600Z 07004KT 030V130 6000 -RA FEW007 BKN010 BKN020     10/08 Q1002 RMK 1ST007 5CU010 6SC020 A2961=
20170321_070000.002,0,RJTF,,,,0,20170321070000,-1,-1,-1,-1,360,-1,6,-1,-1,320,30,,5000,0,2,3,FEW 5   BKN 10   BKN 20,1,9,1,8,1002,RJTF 210700Z 36006KT 320V030 5000 SHRA BR FEW005 BKN010 BKN020     09/08 Q1002 RMK 1ST005 5CU010 7SC020 A2960=
20170321_080000.001,0,RJTF,,,,0,20170321080000,-1,-1,-1,-1,-1,-1,-1,-1,-1,-1,-1,,-1,0,0,0,,0,-1,0,-1,-1,RJTF 210800Z NIL=
20170321_090000.002,0,RJTF,,,,0,20170321090000,-1,-1,-1,-1,-1,-1,-1,-1,-1,-1,-1,,-1,0,0,0,,0,-1,0,-1,-1,RJTF 210900Z NIL=
20170321_233000.001,0,RJTF,,,,0,20170321230000,-1,-1,-1,-1,350,-1,17,-1,-1,-1,-1,,9999,0,0,1,FEW 30,1,9,-1,5,1010,RJTF 212330Z 35017KT 9999 FEW030 09/M05 Q1010 RMK 1CU030     A2985=
20170322_000000.001,0,RJTF,,,,0,20170322000000,-1,-1,-1,-1,340,-1,14,-1,-1,310,10,,9999,0,0,1,FEW 30,1,10,-1,5,1011,RJTF 220000Z 34014KT 310V010 9999 FEW030 10/M05 Q1011 RMK     1CU030 A2986=
20170322_010000.001,0,RJTF,,,,0,20170322010000,-1,-1,-1,-1,350,-1,14,-1,24,320,20,,9999,0,0,1,FEW 30,1,12,-1,3,1011,RJTF 220100Z 35014G24KT 320V020 9999 FEW030 12/M03 Q1011 RMK     1CU030 A2988=
20170322_020000.002,0,RJTF,,,,0,20170322020000,-1,-1,-1,-1,360,-1,13,-1,-1,-1,-1,,9999,0,0,1,FEW 30,1,12,-1,4,1011,RJTF 220200Z 36013KT 9999 FEW030 12/M04 Q1011 RMK 1CU030     A2988=
20170322_030000.002,0,RJTF,,,,0,20170322030000,-1,-1,-1,-1,320,-1,10,-1,-1,280,360,,9999,0,0,2,FEW 30   SCT 60,1,13,-1,2,1011,RJTF 220300Z 32010KT 280V360 9999 FEW030 SCT060 13/M02 Q1011     RMK 1CU030 3SC060 A2988=
20170322_040000.002,0,RJTF,,,,0,20170322040000,-1,-1,-1,-1,360,-1,11,-1,-1,320,20,,9999,0,0,1,FEW 30,1,14,-1,4,1011,RJTF 220400Z 36011KT 320V020 9999 FEW030 14/M04 Q1011 RMK     1CU030 A2987=
20170322_050000.002,0,RJTF,,,,0,20170322050000,-1,-1,-1,-1,360,-1,12,-1,-1,330,40,,9999,0,0,2,FEW 30   SCT -9999,1,14,-1,4,1011,RJTF 220500Z 36012KT 330V040 9999 FEW030 SCT/// 14/M04 Q1011     RMK 1CU030 A2987=
20170322_060000.002,0,RJTF,,,,0,20170322060000,-1,-1,-1,-1,10,-1,13,-1,-1,320,60,,9999,0,0,2,FEW 30   SCT -9999,1,14,-1,4,1011,RJTF 220600Z 01013KT 320V060 9999 FEW030 SCT/// 14/M04 Q1011     RMK 1CU030 A2987=
20170322_070000.002,0,RJTF,,,,0,20170322070000,-1,-1,-1,-1,350,-1,14,-1,-1,-1,-1,,9999,0,0,2,FEW 30   SCT -9999,1,13,-1,4,1012,RJTF 220700Z 35014KT 9999 FEW030 SCT/// 13/M04 Q1012 RMK     1CU030 A2989=
20170322_080000.002,0,RJTF,,,,0,20170322080000,-1,-1,-1,-1,-1,-1,-1,-1,-1,-1,-1,,-1,0,0,0,,0,-1,0,-1,-1,RJTF 220800Z NIL=
20170322_090000.002,0,RJTF,,,,0,20170322090000,-1,-1,-1,-1,-1,-1,-1,-1,-1,-1,-1,,-1,0,0,0,,0,-1,0,-1,-1,RJTF 220900Z NIL=
20170322_233000.001,0,RJTF,,,,0,20170322230000,-1,-1,-1,-1,30,-1,6,-1,-1,350,60,,9999,0,0,2,FEW 30   BKN -9999,1,8,-1,4,1017,RJTF 222330Z 03006KT 350V060 9999 FEW030 BKN/// 08/M04 Q1017     RMK 1CU030 A3005=
20170323_000000.002,0,RJTF,,,,0,20170323000000,-1,-1,-1,-1,20,-1,7,-1,-1,340,50,,9999,0,0,3,FEW 30   SCT 160   BKN -9999,1,9,-1,4,1017,RJTF 230000Z 02007KT 340V050 9999 FEW030 SCT160 BKN/// 09/M04     Q1017 RMK 1CU030 3AC160 A3005=
20170323_010000.003,0,RJTF,,,,0,20170323010000,-1,-1,-1,-1,350,-1,8,-1,-1,310,30,,9999,0,0,3,FEW 30   BKN 160   BKN -9999,1,10,-1,4,1017,RJTF 230100Z 35008KT 310V030 9999 FEW030 BKN160 BKN/// 10/M04     Q1017 RMK 1CU030 6AC160 A3004=
20170323_020000.002,0,RJTF,,,,0,20170323020000,-1,-1,-1,-1,10,-1,5,-1,-1,320,40,,9999,0,0,3,FEW 30   BKN 160   BKN -9999,1,11,-1,5,1017,RJTF 230200Z 01005KT 320V040 9999 FEW030 BKN160 BKN/// 11/M05     Q1017 RMK 1CU030 6AC160 A3003=
20170323_030000.003,0,RJTF,,,,0,20170323030000,-1,-1,-1,-1,999,-1,2,-1,-1,-1,-1,,9999,0,0,3,FEW 30   BKN 160   BKN -9999,1,11,-1,4,1016,RJTF 230300Z VRB02KT 9999 FEW030 BKN160 BKN/// 11/M04 Q1016     RMK 1CU030 6AC160 A3000=
20170323_040000.002,0,RJTF,,,,0,20170323040000,-1,-1,-1,-1,10,-1,5,-1,-1,320,80,,9999,0,0,3,FEW 30   BKN 160   BKN -9999,1,13,-1,6,1015,RJTF 230400Z 01005KT 320V080 9999 FEW030 BKN160 BKN/// 13/M06     Q1015 RMK 1CU030 5AC160 A2999=
20170323_050000.002,0,RJTF,,,,0,20170323050000,-1,-1,-1,-1,50,-1,4,-1,-1,10,120,,9999,0,0,2,FEW 30   BKN -9999,1,14,-1,7,1014,RJTF 230500Z 05004KT 010V120 9999 FEW030 BKN/// 14/M07 Q1014     RMK 1CU030 A2995=
20170323_060000.003,0,RJTF,,,,0,20170323060000,-1,-1,-1,-1,999,-1,2,-1,-1,-1,-1,,9999,0,0,2,FEW 30   SCT 90,1,13,-1,7,1013,RJTF 230600Z VRB02KT 9999 FEW030 SCT090 13/M07 Q1013 RMK     1CU030 4AC090 A2994=
20170323_070000.002,0,RJTF,,,,0,20170323070000,-1,-1,-1,-1,999,-1,2,-1,-1,-1,-1,,9999,0,0,3,FEW 30   SCT 90   BKN -9999,1,14,-1,7,1013,RJTF 230700Z VRB02KT 9999 FEW030 SCT090 BKN/// 14/M07 Q1013     RMK 1CU030 3AC090 A2992=
20170323_080000.002,0,RJTF,,,,0,20170323080000,-1,-1,-1,-1,-1,-1,-1,-1,-1,-1,-1,,-1,0,0,0,,0,-1,0,-1,-1,RJTF 230800Z NIL=
20170323_090000.002,0,RJTF,,,,0,20170323090000,-1,-1,-1,-1,-1,-1,-1,-1,-1,-1,-1,,-1,0,0,0,,0,-1,0,-1,-1,RJTF 230900Z NIL=
20170323_233000.001,0,RJTF,,,,0,20170323230000,-1,-1,-1,-1,360,-1,9,-1,-1,320,40,,9999,0,0,1,FEW 30,1,9,-1,4,1015,RJTF 232330Z 36009KT 320V040 9999 FEW030 09/M04 Q1015 RMK     1CU030 A2999=
20170324_000000.002,0,RJTF,,,,0,20170324000000,-1,-1,-1,-1,360,-1,12,-1,-1,330,30,,9999,0,0,1,FEW 30,1,10,-1,4,1015,RJTF 240000Z 36012KT 330V030 9999 FEW030 10/M04 Q1015 RMK     1CU030 A2998=
20170324_010000.002,0,RJTF,,,,0,20170324010000,-1,-1,-1,-1,30,-1,13,-1,-1,350,50,,9999,0,0,1,FEW 30,1,11,-1,6,1014,RJTF 240100Z 03013KT 350V050 9999 FEW030 11/M06 Q1014 RMK     1CU030 A2997=
20170324_020000.002,0,RJTF,,,,0,20170324020000,-1,-1,-1,-1,10,-1,12,-1,-1,330,50,,9999,0,0,1,FEW 30,1,11,-1,8,1014,RJTF 240200Z 01012KT 330V050 9999 FEW030 11/M08 Q1014 RMK     1CU030 A2995=
20170324_030000.002,0,RJTF,,,,0,20170324030000,-1,-1,-1,-1,360,-1,14,-1,-1,330,30,,9999,0,0,2,FEW 30   SCT 70,1,12,-1,6,1014,RJTF 240300Z 36014KT 330V030 9999 FEW030 SCT070 12/M06 Q1014     RMK 1CU030 3AC070 A2995=
20170324_040000.002,0,RJTF,,,,0,20170324040000,-1,-1,-1,-1,10,-1,16,-1,26,330,40,,9999,0,0,2,FEW 30   BKN -9999,1,11,-1,7,1013,RJTF 240400Z 01016G26KT 330V040 9999 FEW030 BKN/// 11/M07     Q1013 RMK 1CU030 A2993=
20170324_050000.002,0,RJTF,,,,0,20170324050000,-1,-1,-1,-1,350,-1,14,-1,-1,310,20,,9999,0,0,3,FEW 30   SCT 80   BKN -9999,1,11,-1,10,1013,RJTF 240500Z 35014KT 310V020 9999 FEW030 SCT080 BKN/// 11/M10     Q1013 RMK 1CU030 3AC080 A2992=
20170324_060000.002,0,RJTF,,,,0,20170324060000,-1,-1,-1,-1,10,-1,16,-1,-1,340,40,,9999,0,0,3,FEW 30   SCT 90   BKN -9999,1,11,-1,10,1013,RJTF 240600Z 01016KT 340V040 9999 FEW030 SCT090 BKN/// 11/M10     Q1013 RMK 1CU030 3AC090 A2993=
20170324_070000.002,0,RJTF,,,,0,20170324070000,-1,-1,-1,-1,10,-1,19,-1,-1,-1,-1,,9999,0,0,2,FEW 30   BKN -9999,1,10,-1,9,1014,RJTF 240700Z 01019KT 9999 FEW030 BKN/// 10/M09 Q1014 RMK     1CU030 A2995=
20170324_080000.002,0,RJTF,,,,0,20170324080000,-1,-1,-1,-1,-1,-1,-1,-1,-1,-1,-1,,-1,0,0,0,,0,-1,0,-1,-1,RJTF 240800Z NIL=
20170324_090000.002,0,RJTF,,,,0,20170324090000,-1,-1,-1,-1,-1,-1,-1,-1,-1,-1,-1,,-1,0,0,0,,0,-1,0,-1,-1,RJTF 240900Z NIL=
20170324_233000.001,0,RJTF,,,,0,20170324230000,-1,-1,-1,-1,10,-1,12,-1,-1,330,50,,9999,0,0,2,FEW 30   SCT -9999,1,8,-1,7,1020,RJTF 242330Z 01012KT 330V050 9999 FEW030 SCT/// 08/M07 Q1020     RMK 1CU030 A3015=
20170325_000000.002,0,RJTF,,,,0,20170325000000,-1,-1,-1,-1,10,-1,12,-1,-1,310,50,,9999,0,0,2,FEW 30   BKN -9999,1,8,-1,6,1021,RJTF 250000Z 01012KT 310V050 9999 FEW030 BKN/// 08/M06 Q1021     RMK 1CU030 A3016=
20170325_010000.003,0,RJTF,,,,0,20170325010000,-1,-1,-1,-1,360,-1,12,-1,-1,-1,-1,,9999,0,0,2,FEW 30   BKN -9999,1,9,-1,6,1021,RJTF 250100Z 36012KT 9999 FEW030 BKN/// 09/M06 Q1021 RMK     1CU030 A3016=
20170325_020000.002,0,RJTF,,,,0,20170325020000,-1,-1,-1,-1,30,-1,7,-1,-1,340,120,,9999,0,0,2,FEW 30   BKN -9999,1,9,-1,7,1020,RJTF 250200Z 03007KT 340V120 9999 FEW030 BKN/// 09/M07 Q1020     RMK 1CU030 A3014=
20170325_030000.002,0,RJTF,,,,0,20170325030000,-1,-1,-1,-1,999,-1,5,-1,-1,-1,-1,,9999,0,0,2,FEW 30   BKN -9999,1,10,-1,8,1020,RJTF 250300Z VRB05KT 9999 FEW030 BKN/// 10/M08 Q1020 RMK     1CU030 A3012=
20170325_040000.002,0,RJTF,,,,0,20170325040000,-1,-1,-1,-1,110,-1,6,-1,-1,50,190,,9999,0,0,2,FEW 30   BKN -9999,1,11,-1,8,1019,RJTF 250400Z 11006KT 050V190 9999 FEW030 BKN/// 11/M08 Q1019     RMK 1CU030 A3010=
20170325_050000.002,0,RJTF,,,,0,20170325050000,-1,-1,-1,-1,150,-1,8,-1,-1,-1,-1,,9999,0,0,2,FEW 30   BKN -9999,1,11,-1,8,1018,RJTF 250500Z 15008KT 9999 FEW030 BKN/// 11/M08 Q1018 RMK     1CU030 A3008=
20170325_060000.002,0,RJTF,,,,0,20170325060000,-1,-1,-1,-1,170,-1,7,-1,-1,140,210,,9999,0,0,2,FEW 30   BKN -9999,1,11,-1,8,1018,RJTF 250600Z 17007KT 140V210 9999 FEW030 BKN/// 11/M08 Q1018     RMK 1CU030 A3008=
20170325_070000.002,0,RJTF,,,,0,20170325070000,-1,-1,-1,-1,160,-1,6,-1,-1,120,240,,9999,0,0,2,FEW 30   BKN -9999,1,11,-1,7,1018,RJTF 250700Z 16006KT 120V240 9999 FEW030 BKN/// 11/M07 Q1018     RMK 1CU030 A3008=
20170325_080000.002,0,RJTF,,,,0,20170325080000,-1,-1,-1,-1,-1,-1,-1,-1,-1,-1,-1,,-1,0,0,0,,0,-1,0,-1,-1,RJTF 250800Z NIL=
20170325_090000.003,0,RJTF,,,,0,20170325090000,-1,-1,-1,-1,-1,-1,-1,-1,-1,-1,-1,,-1,0,0,0,,0,-1,0,-1,-1,RJTF 250900Z NIL=
20170325_233000.001,0,RJTF,,,,0,20170325230000,-1,-1,-1,-1,340,-1,9,-1,-1,-1,-1,,9999,0,1,3,FEW 8   SCT 15   BKN 25,1,4,1,3,1020,RJTF 252330Z 34009KT 9999 -RA FEW008 SCT015 BKN025 04/03 Q1020     RMK 1ST008 4CU015 7SC025 A3015=
20170326_000000.002,0,RJTF,,,,0,20170326000000,-1,-1,-1,-1,340,-1,7,-1,-1,290,360,,8000,0,1,3,FEW 8   BKN 12   BKN 25,1,4,1,3,1020,RJTF 260000Z 34007KT 290V360 8000 -RA FEW008 BKN012 BKN025     04/03 Q1020 RMK 2ST008 5CU012 7SC025 A3014=
20170326_010000.002,0,RJTF,,,,0,20170326010000,-1,-1,-1,-1,350,-1,5,-1,-1,-1,-1,,8000,0,1,3,FEW 8   BKN 11   BKN 25,1,5,1,3,1020,RJTF 260100Z 35005KT 8000 -RA FEW008 BKN011 BKN025 05/03 Q1020     RMK 2ST008 5CU011 7SC025 A3014=
20170326_020000.002,0,RJTF,,,,0,20170326020000,-1,-1,-1,-1,350,-1,8,-1,-1,-1,-1,,8000,0,1,3,FEW 8   BKN 12   BKN 20,1,5,1,3,1019,RJTF 260200Z 35008KT 8000 -RA FEW008 BKN012 BKN020 05/03 Q1019     RMK 1ST008 5CU012 7SC020 A3012=
20170326_030000.002,0,RJTF,,,,0,20170326030000,-1,-1,-1,-1,350,-1,8,-1,-1,-1,-1,,6000,0,1,3,FEW 8   BKN 13   BKN 20,1,5,1,3,1019,RJTF 260300Z 35008KT 6000 -RA FEW008 BKN013 BKN020 05/03 Q1019     RMK 2ST008 5CU013 7SC020 A3010=
20170326_040000.001,2,RJTF,,,,0,20170326040000,-1,-1,-1,-1,350,-1,6,-1,-1,-1,-1,,6000,0,1,3,SCT 8   BKN 10   BKN 20,1,5,1,4,1018,RJTF 260400Z 35006KT 6000 -RA SCT008 BKN010 BKN020 05/04     Q1018 RMK 3ST008 5CU010 7SC020 A3008=
20170326_040000.003,0,RJTF,,,,0,20170326040000,-1,-1,-1,-1,350,-1,6,-1,-1,-1,-1,,6000,0,1,3,SCT 8   BKN 10   BKN 20,1,5,1,4,1018,RJTF 260400Z 35006KT 6000 -RA SCT008 BKN010 BKN020 05/04     Q1018 RMK 3ST008 5CU010 7SC020 A3008=
20170326_050000.002,0,RJTF,,,,0,20170326050000,-1,-1,-1,-1,350,-1,8,-1,-1,-1,-1,,6000,0,1,3,FEW 8   SCT 10   BKN 18,1,5,1,4,1017,RJTF 260500Z 35008KT 6000 -RA FEW008 SCT010 BKN018 05/04 Q1017     RMK 2ST008 4CU010 7SC018 A3006=
20170326_060000.002,0,RJTF,,,,0,20170326060000,-1,-1,-1,-1,330,-1,5,-1,-1,300,360,,7000,0,1,3,FEW 8   SCT 12   BKN 20,1,6,1,5,1017,RJTF 260600Z 33005KT 300V360 7000 -RA FEW008 SCT012 BKN020     06/05 Q1017 RMK 2ST008 4CU012 7SC020 A3003=
20170326_070000.002,0,RJTF,,,,0,20170326070000,-1,-1,-1,-1,340,-1,7,-1,-1,-1,-1,,8000,0,1,3,FEW 8   SCT 12   BKN 20,1,6,1,5,1016,RJTF 260700Z 34007KT 8000 -RA FEW008 SCT012 BKN020 06/05 Q1016     RMK 1ST008 4CU012 7SC020 A3002=
20170326_080000.003,0,RJTF,,,,0,20170326080000,-1,-1,-1,-1,-1,-1,-1,-1,-1,-1,-1,,-1,0,0,0,,0,-1,0,-1,-1,RJTF 260800Z NIL=
20170326_090000.002,0,RJTF,,,,0,20170326090000,-1,-1,-1,-1,-1,-1,-1,-1,-1,-1,-1,,-1,0,0,0,,0,-1,0,-1,-1,RJTF 260900Z NIL=
20170326_233000.001,0,RJTF,,,,0,20170326230000,-1,-1,-1,-1,10,-1,13,-1,-1,350,50,,9999,0,1,3,FEW 7   BKN 10   BKN 30,1,3,1,2,1008,RJTF 262330Z 01013KT 350V050 9999 -SHRA FEW007 BKN010 BKN030     03/02 Q1008 RMK 1ST007 5ST010 7SC030 A2977=
20170327_000000.002,0,RJTF,,,,0,20170327000000,-1,-1,-1,-1,340,-1,11,-1,-1,-1,-1,,9999,0,1,3,FEW 7   BKN 10   BKN 40,1,4,1,2,1008,RJTF 270000Z 34011KT 9999 -SHRA FEW007 BKN010 BKN040 04/02     Q1008 RMK 1ST007 5CU010 7SC040 A2979=
20170327_010000.003,0,RJTF,,,,0,20170327010000,-1,-1,-1,-1,340,-1,11,-1,-1,-1,-1,,9999,0,1,3,FEW 8   BKN 10   BKN 50,1,4,1,3,1008,RJTF 270100Z 34011KT 9999 -SHRA FEW008 BKN010 BKN050 04/03     Q1008 RMK 1ST008 5CU010 7SC050 A2978=
20170327_020000.003,0,RJTF,,,,0,20170327020000,-1,-1,-1,-1,350,-1,15,-1,-1,-1,-1,,8000,0,1,3,FEW 8   BKN 10   BKN 20,1,5,1,3,1008,RJTF 270200Z 35015KT 8000 -SHRA FEW008 BKN010 BKN020 05/03     Q1008 RMK 1ST008 5CU010 7SC020 A2977=
20170327_030000.002,0,RJTF,,,,0,20170327030000,-1,-1,-1,-1,350,-1,14,-1,-1,-1,-1,,9999,0,1,3,SCT 14   BKN 20   BKN 40,1,6,1,4,1008,RJTF 270300Z 35014KT 9999 -SHRA SCT014 BKN020 BKN040 06/04     Q1008 RMK 4CU014 5SC020 7SC040 A2978=
20170327_040000.002,0,RJTF,,,,0,20170327040000,-1,-1,-1,-1,340,-1,12,-1,-1,300,10,,9999,0,1,3,FEW 20   SCT 30   BKN 40,1,6,1,4,1008,RJTF 270400Z 34012KT 300V010 9999 -SHRA FEW020 SCT030 BKN040     06/04 Q1008 RMK 2CU020 4SC030 7SC040 A2978=
20170327_050000.002,0,RJTF,,,,0,20170327050000,-1,-1,-1,-1,360,-1,13,-1,-1,-1,-1,,9999,0,0,3,FEW 30   BKN 60   BKN 100,1,8,1,4,1007,RJTF 270500Z 36013KT 9999 FEW030 BKN060 BKN100 08/04 Q1007 RMK     1CU030 5SC060 6AC100 A2976=
20170327_060000.002,0,RJTF,,,,0,20170327060000,-1,-1,-1,-1,360,-1,14,-1,-1,-1,-1,,9999,0,0,3,FEW 30   SCT 60   BKN 140,1,10,1,3,1007,RJTF 270600Z 36014KT 9999 FEW030 SCT060 BKN140 10/03 Q1007 RMK     1CU030 3SC060 5AC140 A2976=
20170327_070000.002,0,RJTF,,,,0,20170327070000,-1,-1,-1,-1,360,-1,12,-1,-1,-1,-1,,9999,0,0,3,FEW 30   SCT 60   BKN 170,1,11,1,2,1008,RJTF 270700Z 36012KT 9999 FEW030 SCT060 BKN170 11/02 Q1008 RMK     1CU030 3SC060 5AC170 A2977=
20170327_080000.002,0,RJTF,,,,0,20170327080000,-1,-1,-1,-1,-1,-1,-1,-1,-1,-1,-1,,-1,0,0,0,,0,-1,0,-1,-1,RJTF 270800Z NIL=
20170327_090000.002,0,RJTF,,,,0,20170327090000,-1,-1,-1,-1,-1,-1,-1,-1,-1,-1,-1,,-1,0,0,0,,0,-1,0,-1,-1,RJTF 270900Z NIL=
20170327_233000.001,0,RJTF,,,,0,20170327230000,-1,-1,-1,-1,340,-1,10,-1,-1,-1,-1,CAVOK,-1,0,0,0,,1,9,-1,4,1018,RJTF 272330Z 34010KT CAVOK 09/M04 Q1018 RMK A3009=
20170328_000000.002,0,RJTF,,,,0,20170328000000,-1,-1,-1,-1,350,-1,10,-1,-1,290,20,CAVOK,-1,0,0,0,,1,10,-1,3,1018,RJTF 280000Z 35010KT 290V020 CAVOK 10/M03 Q1018 RMK A3009=
20170328_010000.002,0,RJTF,,,,0,20170328010000,-1,-1,-1,-1,20,-1,11,-1,-1,-1,-1,,9999,0,0,1,FEW 30,1,11,-1,5,1018,RJTF 280100Z 02011KT 9999 FEW030 11/M05 Q1018 RMK 1CU030     A3009=
20170328_020000.002,0,RJTF,,,,0,20170328020000,-1,-1,-1,-1,20,-1,10,-1,-1,340,60,,9999,0,0,1,FEW 30,1,12,-1,4,1018,RJTF 280200Z 02010KT 340V060 9999 FEW030 12/M04 Q1018 RMK     1CU030 A3008=
20170328_030000.002,0,RJTF,,,,0,20170328030000,-1,-1,-1,-1,999,-1,5,-1,-1,-1,-1,,9999,0,0,1,FEW 30,1,12,-1,6,1018,RJTF 280300Z VRB05KT 9999 FEW030 12/M06 Q1018 RMK 1CU030     A3008=
20170328_040000.002,0,RJTF,,,,0,20170328040000,-1,-1,-1,-1,100,-1,6,-1,-1,40,160,,9999,0,0,2,FEW 30   SCT 80,1,12,-1,8,1017,RJTF 280400Z 10006KT 040V160 9999 FEW030 SCT080 12/M08 Q1017     RMK 1CU030 4AC080 A3006=
20170328_050000.002,0,RJTF,,,,0,20170328050000,-1,-1,-1,-1,999,-1,2,-1,-1,-1,-1,,9999,0,0,2,FEW 30   BKN 70,1,13,-1,6,1017,RJTF 280500Z VRB02KT 9999 FEW030 BKN070 13/M06 Q1017 RMK     1CU030 6AC070 A3004=
20170328_060000.002,0,RJTF,,,,0,20170328060000,-1,-1,-1,-1,160,-1,10,-1,-1,-1,-1,,9999,0,0,2,FEW 25   BKN 70,1,12,-1,4,1017,RJTF 280600Z 16010KT 9999 FEW025 BKN070 12/M04 Q1017 RMK     2CU025 7AC070 A3004=
20170328_070000.003,0,RJTF,,,,0,20170328070000,-1,-1,-1,-1,190,-1,5,-1,-1,140,240,,9999,0,0,2,FEW 25   BKN 60,1,12,-1,3,1018,RJTF 280700Z 19005KT 140V240 9999 FEW025 BKN060 12/M03 Q1018     RMK 2CU025 7SC060 A3006 VIRGA ABT 20KM NW=
20170328_080000.002,0,RJTF,,,,0,20170328080000,-1,-1,-1,-1,-1,-1,-1,-1,-1,-1,-1,,-1,0,0,0,,0,-1,0,-1,-1,RJTF 280800Z NIL=
20170328_090000.002,0,RJTF,,,,0,20170328090000,-1,-1,-1,-1,-1,-1,-1,-1,-1,-1,-1,,-1,0,0,0,,0,-1,0,-1,-1,RJTF 280900Z NIL=
20170328_233000.001,0,RJTF,,,,0,20170328230000,-1,-1,-1,-1,110,-1,4,-1,-1,60,170,,9999,0,0,2,FEW 20   BKN -9999,1,8,1,2,1023,RJTF 282330Z 11004KT 060V170 9999 FEW020 BKN/// 08/02 Q1023     RMK 2CU020 A3022=
20170329_000000.002,0,RJTF,,,,0,20170329000000,-1,-1,-1,-1,30,-1,5,-1,-1,330,120,,9999,0,0,2,FEW 25   BKN -9999,1,9,1,2,1023,RJTF 290000Z 03005KT 330V120 9999 FEW025 BKN/// 09/02 Q1023     RMK 1CU025 A3022=
20170329_010000.002,0,RJTF,,,,0,20170329010000,-1,-1,-1,-1,360,-1,6,-1,-1,320,30,,9999,0,0,2,FEW 30   BKN -9999,1,10,-1,0,1023,RJTF 290100Z 36006KT 320V030 9999 FEW030 BKN/// 10/M00 Q1023     RMK 2CU030 A3022=
20170329_020000.002,0,RJTF,,,,0,20170329020000,-1,-1,-1,-1,30,-1,4,-1,-1,360,90,,9999,0,0,2,FEW 30   BKN 150,1,10,-1,1,1023,RJTF 290200Z 03004KT 360V090 9999 FEW030 BKN150 10/M01 Q1023     RMK 1CU030 7AC150 A3022=
20170329_030000.002,0,RJTF,,,,0,20170329030000,-1,-1,-1,-1,999,-1,3,-1,-1,-1,-1,,9999,0,0,3,FEW 30   SCT 140   BKN -9999,1,12,-1,0,1022,RJTF 290300Z VRB03KT 9999 FEW030 SCT140 BKN/// 12/M00 Q1022     RMK 2CU030 3AC140 A3020=
20170329_040000.002,0,RJTF,,,,0,20170329040000,-1,-1,-1,-1,190,-1,6,-1,-1,130,260,,9999,0,0,2,FEW 30   BKN 50,1,12,-1,1,1021,RJTF 290400Z 19006KT 130V260 9999 FEW030 BKN050 12/M01 Q1021     RMK 2CU030 5SC050 A3017=
20170329_050000.002,0,RJTF,,,,0,20170329050000,-1,-1,-1,-1,120,-1,7,-1,-1,60,150,,9999,0,0,2,FEW 30   BKN 50,1,12,-1,1,1021,RJTF 290500Z 12007KT 060V150 9999 FEW030 BKN050 12/M01 Q1021     RMK 1CU030 6SC050 A3015=
20170329_060000.002,0,RJTF,,,,0,20170329060000,-1,-1,-1,-1,180,-1,8,-1,-1,120,210,,9999,0,0,2,FEW 30   SCT 50,1,14,-1,2,1021,RJTF 290600Z 18008KT 120V210 9999 FEW030 SCT050 14/M02 Q1021     RMK 1CU030 4SC050 A3016=
20170329_070000.003,0,RJTF,,,,0,20170329070000,-1,-1,-1,-1,130,-1,7,-1,-1,90,170,,9999,0,0,2,FEW 30   SCT 50,1,13,-1,2,1021,RJTF 290700Z 13007KT 090V170 9999 FEW030 SCT050 13/M02 Q1021     RMK 1CU030 3SC050 A3015=
20170329_080000.002,0,RJTF,,,,0,20170329080000,-1,-1,-1,-1,-1,-1,-1,-1,-1,-1,-1,,-1,0,0,0,,0,-1,0,-1,-1,RJTF 290800Z NIL=
20170329_090000.002,0,RJTF,,,,0,20170329090000,-1,-1,-1,-1,-1,-1,-1,-1,-1,-1,-1,,-1,0,0,0,,0,-1,0,-1,-1,RJTF 290900Z NIL=
20170329_233000.001,0,RJTF,,,,0,20170329230000,-1,-1,-1,-1,999,-1,2,-1,-1,-1,-1,,8000,0,0,1,NSC -1,1,10,1,2,1020,RJTF 292330Z VRB02KT 8000 NSC 10/02 Q1020 RMK A3014=
20170330_000000.002,0,RJTF,,,,0,20170330000000,-1,-1,-1,-1,999,-1,2,-1,-1,-1,-1,,8000,0,0,1,NSC -1,1,11,1,3,1020,RJTF 300000Z VRB02KT 8000 NSC 11/03 Q1020 RMK A3013=
20170330_010000.002,0,RJTF,,,,0,20170330010000,-1,-1,-1,-1,999,-1,3,-1,-1,-1,-1,CAVOK,-1,0,0,0,,1,13,1,3,1019,RJTF 300100Z VRB03KT CAVOK 13/03 Q1019 RMK A3011=
20170330_020000.002,0,RJTF,,,,0,20170330020000,-1,-1,-1,-1,150,-1,5,-1,-1,100,220,CAVOK,-1,0,0,0,,1,14,1,1,1018,RJTF 300200Z 15005KT 100V220 CAVOK 14/01 Q1018 RMK A3008=
20170330_030000.002,0,RJTF,,,,0,20170330030000,-1,-1,-1,-1,999,-1,3,-1,-1,-1,-1,CAVOK,-1,0,0,0,,1,16,1,1,1017,RJTF 300300Z VRB03KT CAVOK 16/01 Q1017 RMK A3003=
20170330_040000.002,0,RJTF,,,,0,20170330040000,-1,-1,-1,-1,120,-1,5,-1,-1,20,170,,8000,0,0,2,FEW 30   SCT -9999,1,17,1,2,1016,RJTF 300400Z 12005KT 020V170 8000 FEW030 SCT/// 17/02 Q1016     RMK 1CU030 A3000=
20170330_050000.002,0,RJTF,,,,0,20170330050000,-1,-1,-1,-1,140,-1,6,-1,-1,80,200,,9999,0,0,2,FEW 30   BKN -9999,1,18,1,2,1015,RJTF 300500Z 14006KT 080V200 9999 FEW030 BKN/// 18/02 Q1015     RMK 1CU030 A2998=
20170330_060000.002,0,RJTF,,,,0,20170330060000,-1,-1,-1,-1,140,-1,7,-1,-1,90,190,,9999,0,0,2,FEW 30   SCT -9999,1,18,1,4,1014,RJTF 300600Z 14007KT 090V190 9999 FEW030 SCT/// 18/04 Q1014     RMK 1CU030 A2995=
20170330_070000.002,0,RJTF,,,,0,20170330070000,-1,-1,-1,-1,180,-1,7,-1,-1,150,230,,9999,0,0,2,FEW 30   SCT -9999,1,17,1,6,1013,RJTF 300700Z 18007KT 150V230 9999 FEW030 SCT/// 17/06 Q1013     RMK 1CU030 A2994=
20170330_080000.003,0,RJTF,,,,0,20170330080000,-1,-1,-1,-1,-1,-1,-1,-1,-1,-1,-1,,-1,0,0,0,,0,-1,0,-1,-1,RJTF 300800Z NIL=
20170330_090000.002,0,RJTF,,,,0,20170330090000,-1,-1,-1,-1,-1,-1,-1,-1,-1,-1,-1,,-1,0,0,0,,0,-1,0,-1,-1,RJTF 300900Z NIL=
20170330_233000.001,0,RJTF,,,,0,20170330230000,-1,-1,-1,-1,10,-1,10,-1,-1,-1,-1,CAVOK,-1,0,0,0,,1,10,-1,3,1017,RJTF 302330Z 01010KT CAVOK 10/M03 Q1017 RMK A3005=
20170331_000000.002,0,RJTF,,,,0,20170331000000,-1,-1,-1,-1,10,-1,13,-1,25,-1,-1,CAVOK,-1,0,0,0,,1,10,-1,3,1017,RJTF 310000Z 01013G25KT CAVOK 10/M03 Q1017 RMK A3004=
20170331_010000.003,0,RJTF,,,,0,20170331010000,-1,-1,-1,-1,10,-1,13,-1,-1,-1,-1,CAVOK,-1,0,0,0,,1,10,-1,3,1017,RJTF 310100Z 01013KT CAVOK 10/M03 Q1017 RMK A3006=
20170331_020000.002,0,RJTF,,,,0,20170331020000,-1,-1,-1,-1,20,-1,6,-1,-1,350,50,,9999,0,0,3,FEW 30   SCT 70   BKN 100,1,11,-1,4,1017,RJTF 310200Z 02006KT 350V050 9999 FEW030 SCT070 BKN100 11/M04     Q1017 RMK 1CU030 4AC070 6AC100 A3003=
20170331_030000.002,0,RJTF,,,,0,20170331030000,-1,-1,-1,-1,30,-1,6,-1,-1,350,60,,9999,0,0,3,FEW 30   SCT 50   BKN 70,1,12,-1,6,1017,RJTF 310300Z 03006KT 350V060 9999 FEW030 SCT050 BKN070 12/M06     Q1017 RMK 1CU030 3SC050 7AC070 A3003=
20170331_040000.002,0,RJTF,,,,0,20170331040000,-1,-1,-1,-1,30,-1,4,-1,-1,350,90,,9999,0,0,3,FEW 30   SCT 45   BKN 70,1,12,-1,7,1016,RJTF 310400Z 03004KT 350V090 9999 FEW030 SCT045 BKN070 12/M07     Q1016 RMK 1CU030 4SC045 7AC070 A3001=
20170331_050000.002,0,RJTF,,,,0,20170331050000,-1,-1,-1,-1,130,-1,7,-1,-1,100,160,,9999,0,1,3,FEW 40   SCT 50   BKN 70,1,11,-1,1,1016,RJTF 310500Z 13007KT 100V160 9999 -RA FEW040 SCT050 BKN070     11/M01 Q1016 RMK 1SC040 3SC050 7AC070 A3000=
20170331_060000.002,0,RJTF,,,,0,20170331060000,-1,-1,-1,-1,140,-1,9,-1,-1,-1,-1,,9999,0,1,3,FEW 40   BKN 50   BKN 70,1,10,1,1,1017,RJTF 310600Z 14009KT 9999 -RA FEW040 BKN050 BKN070 10/01 Q1017     RMK 1SC040 5SC050 7AC070 A3003=
20170331_070000.002,0,RJTF,,,,0,20170331070000,-1,-1,-1,-1,140,-1,7,-1,-1,100,170,,6000,0,1,3,FEW 20   SCT 30   BKN 40,1,7,1,3,1017,RJTF 310700Z 14007KT 100V170 6000 -RA FEW020 SCT030 BKN040     07/03 Q1017 RMK 1CU020 3SC030 5SC040 A3004=
20170331_080000.002,0,RJTF,,,,0,20170331080000,-1,-1,-1,-1,-1,-1,-1,-1,-1,-1,-1,,-1,0,0,0,,0,-1,0,-1,-1,RJTF 310800Z NIL=
20170331_090000.002,0,RJTF,,,,0,20170331090000,-1,-1,-1,-1,-1,-1,-1,-1,-1,-1,-1,,-1,0,0,0,,0,-1,0,-1,-1,RJTF 310900Z NIL=
20170331_233000.001,0,RJTF,,,,0,20170331230000,-1,-1,-1,-1,350,-1,7,-1,-1,-1,-1,,7000,0,1,3,FEW 8   BKN 12   BKN 20,1,5,1,4,1014,RJTF 312330Z 35007KT 7000 -RA FEW008 BKN012 BKN020 05/04 Q1014     RMK 1ST008 5CU012 7SC020 A2996=
20170401_000000.002,0,RJTF,,,,0,20170401000000,-1,-1,-1,-1,340,-1,6,-1,-1,310,10,,8000,0,1,3,SCT 12   BKN 16   BKN 25,1,5,1,4,1014,RJTF 010000Z 34006KT 310V010 8000 -RA SCT012 BKN016 BKN025     05/04 Q1014 RMK 4CU012 5CU016 7SC025 A2996=
20170401_010000.002,0,RJTF,,,,0,20170401010000,-1,-1,-1,-1,360,-1,8,-1,-1,330,30,,9000,0,1,3,SCT 12   BKN 16   BKN 25,1,6,1,4,1014,RJTF 010100Z 36008KT 330V030 9000 -RA SCT012 BKN016 BKN025     06/04 Q1014 RMK 4CU012 5CU016 7SC025 A2995=
20170401_020000.002,0,RJTF,,,,0,20170401020000,-1,-1,-1,-1,360,-1,7,-1,-1,-1,-1,,9999,0,1,3,FEW 10   BKN 15   BKN 25,1,7,1,4,1013,RJTF 010200Z 36007KT 9999 -RA FEW010 BKN015 BKN025 07/04 Q1013     RMK 2CU010 5CU015 7SC025 A2993=
20170401_030000.002,0,RJTF,,,,0,20170401030000,-1,-1,-1,-1,10,-1,8,-1,-1,340,40,,9999,0,0,3,FEW 15   SCT 25   BKN 50,1,7,1,4,1012,RJTF 010300Z 01008KT 340V040 9999 FEW015 SCT025 BKN050 07/04     Q1012 RMK 2CU015 4CU025 7SC050 A2990=
20170401_040000.002,0,RJTF,,,,0,20170401040000,-1,-1,-1,-1,10,-1,8,-1,-1,-1,-1,,9999,0,1,3,FEW 25   SCT 30   BKN 60,1,8,1,3,1012,RJTF 010400Z 01008KT 9999 -RA FEW025 SCT030 BKN060 08/03 Q1012     RMK 2CU025 4CU030 7SC060 A2990=
20170401_050000.002,0,RJTF,,,,0,20170401050000,-1,-1,-1,-1,30,-1,5,-1,-1,320,80,,9999,0,1,3,SCT 25   BKN 40   BKN 70,1,9,1,3,1012,RJTF 010500Z 03005KT 320V080 9999 -RA SCT025 BKN040 BKN070     09/03 Q1012 RMK 4CU025 5SC040 7AC070 A2989=
20170401_060000.002,0,RJTF,,,,0,20170401060000,-1,-1,-1,-1,10,-1,7,-1,-1,340,40,,9999,0,1,3,SCT 25   BKN 35   BKN 40,1,8,1,2,1012,RJTF 010600Z 01007KT 340V040 9999 -RA SCT025 BKN035 BKN040     08/02 Q1012 RMK 4CU025 5SC035 7SC040 A2989=
20170401_070000.002,0,RJTF,,,,0,20170401070000,-1,-1,-1,-1,30,-1,5,-1,-1,360,80,,9999,0,1,3,FEW 25   SCT 35   BKN 45,1,8,1,4,1012,RJTF 010700Z 03005KT 360V080 9999 -RA FEW025 SCT035 BKN045     08/04 Q1012 RMK 2CU025 4SC035 7SC045 A2988=
20170401_080000.002,0,RJTF,,,,0,20170401080000,-1,-1,-1,-1,30,-1,4,-1,-1,350,70,,9999,0,1,3,SCT 30   BKN 60   BKN 100,1,8,1,3,1011,RJTF 010800Z 03004KT 350V070 9999 -RA SCT030 BKN060 BKN100     08/03 Q1011 RMK 4CU030 5SC060 7AC100 A2988=
20170401_090000.002,0,RJTF,,,,0,20170401090000,-1,-1,-1,-1,-1,-1,-1,-1,-1,-1,-1,,-1,0,0,0,,0,-1,0,-1,-1,RJTF 010900Z NIL=
20170401_233000.001,0,RJTF,,,,0,20170401230000,-1,-1,-1,-1,10,-1,3,-1,-1,240,60,,9999,0,0,2,FEW 30   BKN 180,1,7,1,0,1014,RJTF 012330Z 01003KT 240V060 9999 FEW030 BKN180 07/00 Q1014     RMK 1CU030 6AC180 A2997=
20170402_000000.002,0,RJTF,,,,0,20170402000000,-1,-1,-1,-1,20,-1,5,-1,-1,340,60,,9999,0,0,3,FEW 30   SCT 40   BKN 180,1,9,1,0,1014,RJTF 020000Z 02005KT 340V060 9999 FEW030 SCT040 BKN180 09/00     Q1014 RMK 2CU030 4SC040 6AC180 A2997=
20170402_010000.002,0,RJTF,,,,0,20170402010000,-1,-1,-1,-1,360,-1,6,-1,-1,240,40,,9999,0,0,3,FEW 30   SCT 40   BKN 180,1,9,-1,1,1014,RJTF 020100Z 36006KT 240V040 9999 FEW030 SCT040 BKN180 09/M01     Q1014 RMK 2CU030 3SC040 5AC180 A2996=
20170402_020000.002,0,RJTF,,,,0,20170402020000,-1,-1,-1,-1,10,-1,7,-1,-1,300,60,,9999,0,0,3,FEW 30   SCT 40   BKN -9999,1,10,-1,0,1013,RJTF 020200Z 01007KT 300V060 9999 FEW030 SCT040 BKN/// 10/M00     Q1013 RMK 1CU030 3SC040 A2994=
20170402_030000.002,0,RJTF,,,,0,20170402030000,-1,-1,-1,-1,999,-1,5,-1,-1,-1,-1,,9999,0,0,2,FEW 40   BKN 170,1,10,-1,2,1013,RJTF 020300Z VRB05KT 9999 FEW040 BKN170 10/M02 Q1013 RMK     1SC040 5AC170 A2992=
20170402_040000.002,0,RJTF,,,,0,20170402040000,-1,-1,-1,-1,999,-1,4,-1,-1,-1,-1,,9999,0,0,2,FEW 40   SCT 180,1,11,-1,3,1012,RJTF 020400Z VRB04KT 9999 FEW040 SCT180 11/M03 Q1012 RMK     1SC040 4AC180 A2990=
20170402_050000.002,0,RJTF,,,,0,20170402050000,-1,-1,-1,-1,999,-1,2,-1,-1,-1,-1,,9999,0,0,2,FEW 30   SCT 180,1,12,-1,3,1011,RJTF 020500Z VRB02KT 9999 FEW030 SCT180 12/M03 Q1011 RMK     1CU030 4AC180 A2988=
20170402_060000.002,0,RJTF,,,,0,20170402060000,-1,-1,-1,-1,120,-1,4,-1,-1,50,180,,9999,0,0,2,FEW 30   SCT 170,1,13,-1,5,1011,RJTF 020600Z 12004KT 050V180 9999 FEW030 SCT170 13/M05 Q1011     RMK 1CU030 3AC170 A2987=
20170402_070000.002,0,RJTF,,,,0,20170402070000,-1,-1,-1,-1,150,-1,3,-1,-1,110,200,,9999,0,0,2,FEW 30   SCT 100,1,13,-1,6,1011,RJTF 020700Z 15003KT 110V200 9999 FEW030 SCT100 13/M06 Q1011     RMK 1CU030 3AC100 A2986=
20170402_080000.002,0,RJTF,,,,0,20170402080000,-1,-1,-1,-1,140,-1,8,-1,-1,-1,-1,,9999,0,0,3,FEW 30   SCT 90   BKN 170,1,12,-1,3,1012,RJTF 020800Z 14008KT 9999 FEW030 SCT090 BKN170 12/M03 Q1012     RMK 1CU030 3AC090 5AC170 A2989=
20170402_090000.002,0,RJTF,,,,0,20170402090000,-1,-1,-1,-1,-1,-1,-1,-1,-1,-1,-1,,-1,0,0,0,,0,-1,0,-1,-1,RJTF 020900Z NIL=
20170402_233000.001,0,RJTF,,,,0,20170402230000,-1,-1,-1,-1,200,-1,3,-1,-1,110,280,,9999,0,0,2,FEW 30   BKN 80,1,9,-1,1,1018,RJTF 022330Z 20003KT 110V280 9999 FEW030 BKN080 09/M01 Q1018     RMK 1CU030 6AC080 A3007=
20170403_000000.002,0,RJTF,,,,0,20170403000000,-1,-1,-1,-1,999,-1,2,-1,-1,-1,-1,,9999,0,0,2,FEW 30   SCT -9999,1,10,-1,1,1018,RJTF 030000Z VRB02KT 9999 FEW030 SCT/// 10/M01 Q1018 RMK     1CU030 A3007=
20170403_010000.003,0,RJTF,,,,0,20170403010000,-1,-1,-1,-1,999,-1,2,-1,-1,-1,-1,,9999,0,0,1,SCT 30,1,11,-1,0,1018,RJTF 030100Z VRB02KT 9999 SCT030 11/M00 Q1018 RMK 4CU030     A3007=
20170403_020000.003,0,RJTF,,,,0,20170403020000,-1,-1,-1,-1,999,-1,4,-1,-1,-1,-1,,9999,0,0,1,SCT 30,1,12,-1,1,1017,RJTF 030200Z VRB04KT 9999 SCT030 12/M01 Q1017 RMK 3CU030     A3003=
20170403_030000.002,0,RJTF,,,,0,20170403030000,-1,-1,-1,-1,999,-1,4,-1,-1,-1,-1,,9999,0,0,1,SCT 30,1,14,1,2,1016,RJTF 030300Z VRB04KT 9999 SCT030 14/02 Q1016 RMK 3CU030 A3000=
20170403_040000.002,0,RJTF,,,,0,20170403040000,-1,-1,-1,-1,130,-1,10,-1,-1,-1,-1,,9999,0,0,1,FEW 30,1,15,1,1,1014,RJTF 030400Z 13010KT 9999 FEW030 15/01 Q1014 RMK 2CU030 A2996=
20170403_050000.002,0,RJTF,,,,0,20170403050000,-1,-1,-1,-1,150,-1,12,-1,-1,130,190,,9999,0,0,1,FEW 30,1,16,1,2,1013,RJTF 030500Z 15012KT 130V190 9999 FEW030 16/02 Q1013 RMK     2CU030 A2993=
20170403_060000.003,0,RJTF,,,,0,20170403060000,-1,-1,-1,-1,190,-1,10,-1,-1,160,230,,9999,0,0,2,SCT 30   BKN 80,1,14,1,2,1013,RJTF 030600Z 19010KT 160V230 9999 SCT030 BKN080 14/02 Q1013     RMK 3CU030 5AC080 A2992=
20170403_070000.002,0,RJTF,,,,0,20170403070000,-1,-1,-1,-1,180,-1,12,-1,-1,-1,-1,,9999,0,0,1,FEW 30,1,14,1,3,1012,RJTF 030700Z 18012KT 9999 FEW030 14/03 Q1012 RMK 2CU030 A2991=
20170403_080000.002,0,RJTF,,,,0,20170403080000,-1,-1,-1,-1,200,-1,7,-1,-1,160,230,,9999,0,0,3,FEW 20   SCT 50   BKN 80,1,13,1,3,1012,RJTF 030800Z 20007KT 160V230 9999 FEW020 SCT050 BKN080 13/03     Q1012 RMK 2CU020 4SC050 6AC080 A2991=
20170403_090000.002,0,RJTF,,,,0,20170403090000,-1,-1,-1,-1,-1,-1,-1,-1,-1,-1,-1,,-1,0,0,0,,0,-1,0,-1,-1,RJTF 030900Z NIL=
20170403_233000.001,0,RJTF,,,,0,20170403230000,-1,-1,-1,-1,100,-1,5,-1,-1,50,160,,9999,0,0,1,FEW 30,1,10,1,2,1024,RJTF 032330Z 10005KT 050V160 9999 FEW030 10/02 Q1024 RMK     1CU030 A3025=
20170404_000000.002,0,RJTF,,,,0,20170404000000,-1,-1,-1,-1,50,-1,4,-1,-1,360,110,,9999,0,0,1,FEW 30,1,11,1,2,1024,RJTF 040000Z 05004KT 360V110 9999 FEW030 11/02 Q1024 RMK     1CU030 A3026=
20170404_010000.003,0,RJTF,,,,0,20170404010000,-1,-1,-1,-1,999,-1,4,-1,-1,-1,-1,,9999,0,0,1,FEW 30,1,13,1,2,1025,RJTF 040100Z VRB04KT 9999 FEW030 13/02 Q1025 RMK 1CU030 A3027=
20170404_020000.003,0,RJTF,,,,0,20170404020000,-1,-1,-1,-1,50,-1,5,-1,-1,340,110,,9999,0,0,1,FEW 30,1,15,1,1,1024,RJTF 040200Z 05005KT 340V110 9999 FEW030 15/01 Q1024 RMK     1CU030 A3026=
20170404_030000.002,0,RJTF,,,,0,20170404030000,-1,-1,-1,-1,290,-1,4,-1,-1,240,340,,9999,0,0,1,FEW 30,1,15,1,0,1024,RJTF 040300Z 29004KT 240V340 9999 FEW030 15/00 Q1024 RMK     1CU030 A3025=
20170404_040000.002,0,RJTF,,,,0,20170404040000,-1,-1,-1,-1,80,-1,5,-1,-1,10,160,,9999,0,0,1,FEW 30,1,16,-1,0,1024,RJTF 040400Z 08005KT 010V160 9999 FEW030 16/M00 Q1024 RMK     1CU030 A3024=
20170404_050000.002,0,RJTF,,,,0,20170404050000,-1,-1,-1,-1,160,-1,8,-1,-1,120,210,,9999,0,0,1,FEW 30,1,17,1,1,1023,RJTF 040500Z 16008KT 120V210 9999 FEW030 17/01 Q1023 RMK     1CU030 A3023=
20170404_060000.002,0,RJTF,,,,0,20170404060000,-1,-1,-1,-1,170,-1,9,-1,-1,130,210,,9999,0,0,1,FEW 30,1,16,-1,0,1023,RJTF 040600Z 17009KT 130V210 9999 FEW030 16/M00 Q1023 RMK     1CU030 A3023=
20170404_070000.003,0,RJTF,,,,0,20170404070000,-1,-1,-1,-1,160,-1,8,-1,-1,110,190,,9999,0,0,2,FEW 30   SCT -9999,1,16,-1,0,1024,RJTF 040700Z 16008KT 110V190 9999 FEW030 SCT/// 16/M00 Q1024     RMK 1CU030 A3024=
20170404_080000.002,0,RJTF,,,,0,20170404080000,-1,-1,-1,-1,200,-1,9,-1,-1,170,230,,9999,0,0,1,FEW 30,1,15,1,2,1024,RJTF 040800Z 20009KT 170V230 9999 FEW030 15/02 Q1024 RMK     1CU030 A3026=
20170404_090000.003,0,RJTF,,,,0,20170404090000,-1,-1,-1,-1,-1,-1,-1,-1,-1,-1,-1,,-1,0,0,0,,0,-1,0,-1,-1,RJTF 040900Z NIL=
20170404_233000.001,0,RJTF,,,,0,20170404230000,-1,-1,-1,-1,999,-1,2,-1,-1,-1,-1,,8000,0,0,1,NSC -1,1,13,1,4,1027,RJTF 042330Z VRB02KT 8000 NSC 13/04 Q1027 RMK A3035=
20170405_000000.002,0,RJTF,,,,0,20170405000000,-1,-1,-1,-1,170,-1,4,-1,-1,110,240,,8000,0,0,1,NSC -1,1,15,1,5,1027,RJTF 050000Z 17004KT 110V240 8000 NSC 15/05 Q1027 RMK A3035=
20170405_010000.003,0,RJTF,,,,0,20170405010000,-1,-1,-1,-1,190,-1,5,-1,-1,140,250,CAVOK,-1,0,0,0,,1,16,1,6,1027,RJTF 050100Z 19005KT 140V250 CAVOK 16/06 Q1027 RMK A3034=
20170405_020000.002,0,RJTF,,,,0,20170405020000,-1,-1,-1,-1,999,-1,9,-1,-1,-1,-1,CAVOK,-1,0,0,0,,1,18,1,7,1026,RJTF 050200Z VRB09KT CAVOK 18/07 Q1026 RMK A3032=
20170405_030000.002,0,RJTF,,,,0,20170405030000,-1,-1,-1,-1,190,-1,9,-1,-1,160,220,,9999,0,0,2,FEW 30   BKN -9999,1,19,1,5,1025,RJTF 050300Z 19009KT 160V220 9999 FEW030 BKN/// 19/05 Q1025     RMK 1CU030 A3029=
20170405_040000.002,0,RJTF,,,,0,20170405040000,-1,-1,-1,-1,200,-1,10,-1,-1,-1,-1,,9999,0,0,2,FEW 30   BKN -9999,1,19,1,6,1025,RJTF 050400Z 20010KT 9999 FEW030 BKN/// 19/06 Q1025 RMK 1CU030     A3028=
20170405_050000.002,0,RJTF,,,,0,20170405050000,-1,-1,-1,-1,170,-1,12,-1,-1,150,230,,9999,0,0,2,FEW 30   BKN -9999,1,18,1,6,1024,RJTF 050500Z 17012KT 150V230 9999 FEW030 BKN/// 18/06 Q1024     RMK 1CU030 A3026=
20170405_060000.002,0,RJTF,,,,0,20170405060000,-1,-1,-1,-1,180,-1,13,-1,-1,-1,-1,,9999,0,0,2,FEW 30   BKN -9999,1,18,1,7,1024,RJTF 050600Z 18013KT 9999 FEW030 BKN/// 18/07 Q1024 RMK 1CU030     A3025=
20170405_070000.002,0,RJTF,,,,0,20170405070000,-1,-1,-1,-1,170,-1,12,-1,-1,-1,-1,CAVOK,-1,0,0,0,,1,18,1,7,1024,RJTF 050700Z 17012KT CAVOK 18/07 Q1024 RMK A3024=
20170405_080000.002,0,RJTF,,,,0,20170405080000,-1,-1,-1,-1,170,-1,10,-1,-1,-1,-1,CAVOK,-1,0,0,0,,1,17,1,7,1024,RJTF 050800Z 17010KT CAVOK 17/07 Q1024 RMK A3025=
20170405_090000.002,0,RJTF,,,,0,20170405090000,-1,-1,-1,-1,-1,-1,-1,-1,-1,-1,-1,,-1,0,0,0,,0,-1,0,-1,-1,RJTF 050900Z NIL=
20170405_233000.001,0,RJTF,,,,0,20170405230000,-1,-1,-1,-1,220,-1,8,-1,-1,180,290,,9999,0,0,2,FEW 30   BKN -9999,1,18,1,8,1024,RJTF 052330Z 22008KT 180V290 9999 FEW030 BKN/// 18/08 Q1024     RMK 1CU030 A3026=
20170406_000000.002,0,RJTF,,,,0,20170406000000,-1,-1,-1,-1,180,-1,12,-1,-1,-1,-1,,9999,0,0,2,FEW 30   BKN -9999,1,19,1,9,1024,RJTF 060000Z 18012KT 9999 FEW030 BKN/// 19/09 Q1024 RMK 1CU030     A3026=
20170406_010000.002,0,RJTF,,,,0,20170406010000,-1,-1,-1,-1,190,-1,13,-1,-1,-1,-1,,9999,0,0,2,FEW 30   BKN -9999,1,19,1,10,1024,RJTF 060100Z 19013KT 9999 FEW030 BKN/// 19/10 Q1024 RMK 2CU030     A3025=
20170406_020000.002,0,RJTF,,,,0,20170406020000,-1,-1,-1,-1,180,-1,14,-1,-1,160,220,,9999,0,0,2,FEW 30   BKN -9999,1,19,1,10,1023,RJTF 060200Z 18014KT 160V220 9999 FEW030 BKN/// 19/10 Q1023     RMK 2CU030 A3023=
20170406_030000.002,0,RJTF,,,,0,20170406030000,-1,-1,-1,-1,190,-1,15,-1,-1,160,220,,9999,0,0,2,FEW 30   BKN -9999,1,20,1,9,1022,RJTF 060300Z 19015KT 160V220 9999 FEW030 BKN/// 20/09 Q1022     RMK 2CU030 A3020=
20170406_040000.002,0,RJTF,,,,0,20170406040000,-1,-1,-1,-1,180,-1,15,-1,27,160,220,,9999,0,0,2,FEW 30   BKN -9999,1,20,1,7,1021,RJTF 060400Z 18015G27KT 160V220 9999 FEW030 BKN/// 20/07 Q1021     RMK 1CU030 A3017=
20170406_050000.002,0,RJTF,,,,0,20170406050000,-1,-1,-1,-1,190,-1,16,-1,28,160,240,,9999,0,0,2,FEW 30   BKN -9999,1,20,1,6,1020,RJTF 060500Z 19016G28KT 160V240 9999 FEW030 BKN/// 20/06 Q1020     RMK 1CU030 A3015=
20170406_060000.002,0,RJTF,,,,0,20170406060000,-1,-1,-1,-1,190,-1,16,-1,29,-1,-1,,9999,0,0,3,FEW 30   SCT 180   BKN -9999,1,19,1,7,1020,RJTF 060600Z 19016G29KT 9999 FEW030 SCT180 BKN/// 19/07 Q1020     RMK 1CU030 3AC180 A3014=
20170406_070000.002,0,RJTF,,,,0,20170406070000,-1,-1,-1,-1,200,-1,14,-1,25,170,230,,9999,0,0,3,FEW 30   SCT 150   BKN -9999,1,18,1,8,1020,RJTF 060700Z 20014G25KT 170V230 9999 FEW030 SCT150 BKN///     18/08 Q1020 RMK 1CU030 4AC150 A3014=
20170406_080000.002,0,RJTF,,,,0,20170406080000,-1,-1,-1,-1,190,-1,15,-1,-1,-1,-1,,9999,0,0,3,FEW 30   SCT 50   BKN 130,1,17,1,10,1021,RJTF 060800Z 19015KT 9999 FEW030 SCT050 BKN130 17/10 Q1021 RMK     1CU030 3SC050 5AC130 A3015=
20170406_090000.002,0,RJTF,,,,0,20170406090000,-1,-1,-1,-1,-1,-1,-1,-1,-1,-1,-1,,-1,0,0,0,,0,-1,0,-1,-1,RJTF 060900Z NIL=
20170406_233000.001,0,RJTF,,,,0,20170406230000,-1,-1,-1,-1,190,-1,10,-1,20,150,230,,9999,0,0,3,FEW 40   BKN 60   BKN 140,1,17,1,13,1016,RJTF 062330Z 19010G20KT 150V230 9999 FEW040 BKN060 BKN140     17/13 Q1016 RMK 2SC040 5SC060 7AC140 A3001=
20170407_000000.002,0,RJTF,,,,0,20170407000000,-1,-1,-1,-1,190,-1,9,-1,-1,-1,-1,,9999,0,0,3,SCT 40   BKN 70   BKN 150,1,18,1,12,1016,RJTF 070000Z 19009KT 9999 SCT040 BKN070 BKN150 18/12 Q1016 RMK     3SC040 6SC070 7AC150 A3001=
20170407_010000.003,0,RJTF,,,,0,20170407010000,-1,-1,-1,-1,190,-1,12,-1,23,160,220,,9999,0,0,3,FEW 25   SCT 70   BKN 150,1,18,1,13,1016,RJTF 070100Z 19012G23KT 160V220 9999 FEW025 SCT070 BKN150     18/13 Q1016 RMK 2CU025 4AC070 7AC150 A3000=
20170407_020000.002,0,RJTF,,,,0,20170407020000,-1,-1,-1,-1,190,-1,11,-1,-1,-1,-1,,9999,0,0,3,FEW 25   SCT 50   BKN 140,1,18,1,12,1015,RJTF 070200Z 19011KT 9999 FEW025 SCT050 BKN140 18/12 Q1015 RMK     1CU025 4SC050 6AC140 A2997=
20170407_030000.002,0,RJTF,,,,0,20170407030000,-1,-1,-1,-1,200,-1,13,-1,25,170,240,,9999,0,0,3,FEW 30   BKN 100   BKN -9999,1,19,1,12,1014,RJTF 070300Z 20013G25KT 170V240 9999 FEW030 BKN100 BKN///     19/12 Q1014 RMK 2CU030 5AC100 A2996=
20170407_040000.002,0,RJTF,,,,0,20170407040000,-1,-1,-1,-1,190,-1,12,-1,-1,-1,-1,,9999,0,0,3,FEW 30   SCT 90   BKN 130,1,19,1,13,1014,RJTF 070400Z 19012KT 9999 FEW030 SCT090 BKN130 19/13 Q1014 RMK     1CU030 4AC090 6AC130 A2995=
20170407_050000.002,0,RJTF,,,,0,20170407050000,-1,-1,-1,-1,200,-1,16,-1,27,-1,-1,,9999,0,0,3,FEW 30   SCT 80   BKN 100,1,20,1,13,1013,RJTF 070500Z 20016G27KT 9999 FEW030 SCT080 BKN100 20/13 Q1013     RMK 1CU030 3AC080 5AC100 A2993=
20170407_060000.002,0,RJTF,,,,0,20170407060000,-1,-1,-1,-1,190,-1,14,-1,-1,-1,-1,,9999,0,0,2,FEW 25   SCT 110,1,21,1,14,1013,RJTF 070600Z 19014KT 9999 FEW025 SCT110 21/14 Q1013 RMK 2CU025     4AC110 A2992=
20170407_070000.002,0,RJTF,,,,0,20170407070000,-1,-1,-1,-1,190,-1,11,-1,21,160,220,,9999,0,0,1,FEW 25,1,21,1,14,1013,RJTF 070700Z 19011G21KT 160V220 9999 FEW025 21/14 Q1013 RMK     2CU025 A2992=
20170407_080000.002,0,RJTF,,,,0,20170407080000,-1,-1,-1,-1,200,-1,11,-1,-1,170,230,,9999,0,0,2,FEW 25   SCT 100,1,20,1,14,1013,RJTF 070800Z 20011KT 170V230 9999 FEW025 SCT100 20/14 Q1013     RMK 1CU025 3AC100 A2992=
20170407_090000.002,0,RJTF,,,,0,20170407090000,-1,-1,-1,-1,-1,-1,-1,-1,-1,-1,-1,,-1,0,0,0,,0,-1,0,-1,-1,RJTF 070900Z NIL=
20170407_233000.001,0,RJTF,,,,0,20170407230000,-1,-1,-1,-1,30,-1,6,-1,-1,-1,-1,,4000,0,2,3,FEW 4   SCT 6   BKN 8,1,13,1,13,1015,RJTF 072330Z 03006KT 4000 -SHRA BR FEW004 SCT006 BKN008 13/13     Q1015 RMK 2ST004 4ST006 7ST008 A2998=
20170408_000000.002,0,RJTF,,,,0,20170408000000,-1,-1,-1,-1,30,-1,7,-1,-1,-1,-1,,4000,0,2,3,FEW 4   SCT 6   BKN 8,1,13,1,13,1015,RJTF 080000Z 03007KT 4000 -SHRA BR FEW004 SCT006 BKN008 13/13     Q1015 RMK 1ST004 4ST006 7ST008 A2997=
20170408_010000.003,0,RJTF,,,,0,20170408010000,-1,-1,-1,-1,20,-1,5,-1,-1,350,60,,7000,0,1,3,SCT 6   BKN 10   BKN 20,1,14,1,12,1015,RJTF 080100Z 02005KT 350V060 7000 -RA SCT006 BKN010 BKN020     14/12 Q1015 RMK 4ST006 6ST010 7SC020 A2997=
20170408_020000.003,0,RJTF,,,,0,20170408020000,-1,-1,-1,-1,20,-1,4,-1,-1,320,60,,7000,0,1,3,SCT 7   BKN 10   BKN 20,1,14,1,12,1014,RJTF 080200Z 02004KT 320V060 7000 -RA SCT007 BKN010 BKN020     14/12 Q1014 RMK 4ST007 6ST010 7SC020 A2995=
20170408_030000.002,0,RJTF,,,,0,20170408030000,-1,-1,-1,-1,360,-1,3,-1,-1,310,40,,8000,0,0,3,FEW 8   SCT 10   BKN 20,1,15,1,12,1013,RJTF 080300Z 36003KT 310V040 8000 FEW008 SCT010 BKN020 15/12     Q1013 RMK 2ST008 4ST010 7SC020 A2992=
20170408_040000.002,0,RJTF,,,,0,20170408040000,-1,-1,-1,-1,999,-1,2,-1,-1,-1,-1,,9999,0,0,3,FEW 8   BKN 12   BKN 20,1,16,1,13,1012,RJTF 080400Z VRB02KT 9999 FEW008 BKN012 BKN020 16/13 Q1012 RMK     1ST008 5SC012 7SC020 A2990=
20170408_050000.002,0,RJTF,,,,0,20170408050000,-1,-1,-1,-1,50,-1,3,-1,-1,360,120,,8000,0,1,3,FEW 8   BKN 13   BKN 20,1,16,1,13,1011,RJTF 080500Z 05003KT 360V120 8000 -DZ FEW008 BKN013 BKN020     16/13 Q1011 RMK 1ST008 5SC013 7SC020 A2987=
20170408_060000.002,0,RJTF,,,,0,20170408060000,-1,-1,-1,-1,110,-1,3,-1,-1,50,140,,8000,0,0,3,FEW 8   BKN 13   BKN 20,1,17,1,13,1010,RJTF 080600Z 11003KT 050V140 8000 FEW008 BKN013 BKN020 17/13     Q1010 RMK 1ST008 5SC013 7SC020 A2984=
20170408_070000.002,0,RJTF,,,,0,20170408070000,-1,-1,-1,-1,180,-1,5,-1,-1,150,220,,8000,0,0,3,FEW 8   BKN 10   BKN 20,1,17,1,15,1009,RJTF 080700Z 18005KT 150V220 8000 FEW008 BKN010 BKN020 17/15     Q1009 RMK 2ST008 5SC010 7SC020 A2982=
20170408_080000.002,0,RJTF,,,,0,20170408080000,-1,-1,-1,-1,230,-1,6,-1,-1,180,280,,8000,0,0,3,SCT 8   BKN 10   BKN 15,1,18,1,16,1009,RJTF 080800Z 23006KT 180V280 8000 SCT008 BKN010 BKN015 18/16     Q1009 RMK 4ST008 5ST010 7SC015 A2981=
20170408_090000.002,0,RJTF,,,,0,20170408090000,-1,-1,-1,-1,-1,-1,-1,-1,-1,-1,-1,,-1,0,0,0,,0,-1,0,-1,-1,RJTF 080900Z NIL=
20170408_233000.001,0,RJTF,,,,0,20170408230000,-1,-1,-1,-1,350,-1,7,-1,-1,-1,-1,,1300,0,2,2,SCT 3   BKN 4,1,15,1,14,1004,RJTF 082330Z 35007KT 1300 -RA BR SCT003 BKN004 15/14 Q1004     RMK 4ST003 7ST004 A2967=
20170408_233000.001,2,RJTF,,,,0,20170408230000,-1,-1,-1,-1,350,-1,7,-1,-1,-1,-1,,1300,0,2,2,SCT 3   BKN 4,1,15,1,14,1004,RJTF 082330Z 35007KT 1300 -RA BR SCT003 BKN004 15/14 Q1004     RMK 4ST003 7ST004 A2967=
20170409_000000.002,0,RJTF,,,,0,20170409000000,-1,-1,-1,-1,350,-1,6,-1,-1,-1,-1,,1300,0,2,2,SCT 3   BKN 4,1,15,1,14,1005,RJTF 090000Z 35006KT 1300 -RA BR SCT003 BKN004 15/14 Q1005 RMK     4ST003 7ST004 A2968=
20170409_010000.003,0,RJTF,,,,0,20170409010000,-1,-1,-1,-1,360,-1,7,-1,-1,-1,-1,,1300,0,2,2,SCT 3   BKN 4,1,15,1,14,1005,RJTF 090100Z 36007KT 1300 -RA BR SCT003 BKN004 15/14 Q1005 RMK     4ST003 7ST004 A2969=
20170409_020000.003,0,RJTF,,,,0,20170409020000,-1,-1,-1,-1,350,-1,16,-1,29,-1,-1,,7000,0,1,3,FEW 12   BKN 25   BKN 40,1,14,1,12,1005,RJTF 090200Z 35016G29KT 7000 -SHRA FEW012 BKN025 BKN040 14/12     Q1005 RMK 2ST012 6SC025 7SC040 A2969=
20170409_030000.002,0,RJTF,,,,0,20170409030000,-1,-1,-1,-1,360,-1,10,-1,-1,-1,-1,,3500,0,2,3,FEW 8   BKN 12   BKN 25,1,14,1,12,1005,RJTF 090300Z 36010KT 3500 -SHRA BR FEW008 BKN012 BKN025 14/12     Q1005 RMK 2ST008 6CU012 7SC025 A2970=
20170409_040000.002,0,RJTF,,,,0,20170409040000,-1,-1,-1,-1,40,-1,8,-1,-1,-1,-1,,5000,0,2,3,FEW 8   SCT 12   BKN 25,1,15,1,12,1005,RJTF 090400Z 04008KT 5000 -SHRA BR FEW008 SCT012 BKN025 15/12     Q1005 RMK 2ST008 4CU012 7SC025 A2969=
20170409_050000.002,0,RJTF,,,,0,20170409050000,-1,-1,-1,-1,50,-1,4,-1,-1,10,90,,7000,0,1,3,FEW 8   SCT 12   BKN 25,1,15,1,13,1005,RJTF 090500Z 05004KT 010V090 7000 -SHRA FEW008 SCT012 BKN025     15/13 Q1005 RMK 1ST008 4CU012 7SC025 A2969=
20170409_060000.003,0,RJTF,,,,0,20170409060000,-1,-1,-1,-1,110,-1,5,-1,-1,70,150,,9999,0,0,3,FEW 6   SCT 25   BKN 50,1,15,1,13,1005,RJTF 090600Z 11005KT 070V150 9999 FEW006 SCT025 BKN050 15/13     Q1005 RMK 2ST006 3CU025 7SC050 A2968=
20170409_070000.002,0,RJTF,,,,0,20170409070000,-1,-1,-1,-1,90,-1,7,-1,-1,50,140,,9999,0,1,3,FEW 6   BKN 10   BKN 50,1,14,1,12,1006,RJTF 090700Z 09007KT 050V140 9999 -SHRA FEW006 BKN010 BKN050     14/12 Q1006 RMK 2ST006 7CU010 7SC050 A2971=
20170409_080000.002,0,RJTF,,,,0,20170409080000,-1,-1,-1,-1,80,-1,6,-1,-1,-1,-1,,9999,0,0,3,FEW 6   BKN 10   BKN 50,1,14,1,11,1007,RJTF 090800Z 08006KT 9999 FEW006 BKN010 BKN050 14/11 Q1007 RMK     1ST006 5CU010 7SC050 A2974=
20170409_090000.003,0,RJTF,,,,0,20170409090000,-1,-1,-1,-1,-1,-1,-1,-1,-1,-1,-1,,-1,0,0,0,,0,-1,0,-1,-1,RJTF 090900Z NIL=
20170409_233000.001,0,RJTF,,,,0,20170409230000,-1,-1,-1,-1,40,-1,5,-1,-1,340,90,,9999,0,0,2,FEW 30   BKN -9999,1,11,-1,6,1021,RJTF 092330Z 04005KT 340V090 9999 FEW030 BKN/// 11/M06 Q1021     RMK 1CU030 A3015=
20170410_000000.002,0,RJTF,,,,0,20170410000000,-1,-1,-1,-1,40,-1,4,-1,-1,330,80,,9999,0,0,2,FEW 30   BKN -9999,1,12,-1,7,1021,RJTF 100000Z 04004KT 330V080 9999 FEW030 BKN/// 12/M07 Q1021     RMK 1CU030 A3016=
20170410_010000.002,0,RJTF,,,,0,20170410010000,-1,-1,-1,-1,350,-1,3,-1,-1,280,50,,9999,0,0,2,FEW 30   BKN -9999,1,13,-1,5,1021,RJTF 100100Z 35003KT 280V050 9999 FEW030 BKN/// 13/M05 Q1021     RMK 1CU030 A3016=
20170410_020000.002,0,RJTF,,,,0,20170410020000,-1,-1,-1,-1,70,-1,4,-1,-1,10,130,,9999,0,0,2,FEW 30   BKN -9999,1,13,-1,7,1021,RJTF 100200Z 07004KT 010V130 9999 FEW030 BKN/// 13/M07 Q1021     RMK 1CU030 A3015=
20170410_030000.002,0,RJTF,,,,0,20170410030000,-1,-1,-1,-1,999,-1,3,-1,-1,-1,-1,,9999,0,0,2,FEW 30   BKN -9999,1,14,-1,5,1020,RJTF 100300Z VRB03KT 9999 FEW030 BKN/// 14/M05 Q1020 RMK     1CU030 A3013=
20170410_040000.002,0,RJTF,,,,0,20170410040000,-1,-1,-1,-1,190,-1,6,-1,-1,150,220,,9999,0,0,3,FEW 30   SCT 170   BKN -9999,1,14,-1,5,1020,RJTF 100400Z 19006KT 150V220 9999 FEW030 SCT170 BKN/// 14/M05     Q1020 RMK 1CU030 3AC170 A3013=
20170410_050000.002,0,RJTF,,,,0,20170410050000,-1,-1,-1,-1,160,-1,6,-1,-1,130,190,,9999,0,0,3,FEW 30   BKN 170   BKN -9999,1,14,-1,5,1019,RJTF 100500Z 16006KT 130V190 9999 FEW030 BKN170 BKN/// 14/M05     Q1019 RMK 1CU030 5AC170 A3011=
20170410_060000.002,0,RJTF,,,,0,20170410060000,-1,-1,-1,-1,150,-1,8,-1,-1,120,200,,9999,0,0,3,FEW 30   BKN 170   BKN -9999,1,14,-1,6,1019,RJTF 100600Z 15008KT 120V200 9999 FEW030 BKN170 BKN/// 14/M06     Q1019 RMK 1CU030 7AC170 A3010=
20170410_070000.002,0,RJTF,,,,0,20170410070000,-1,-1,-1,-1,160,-1,10,-1,-1,130,200,,9999,0,0,3,FEW 30   BKN 170   BKN -9999,1,13,-1,1,1019,RJTF 100700Z 16010KT 130V200 9999 FEW030 BKN170 BKN/// 13/M01     Q1019 RMK 1CU030 7AC170 A3011=
20170410_080000.003,0,RJTF,,,,0,20170410080000,-1,-1,-1,-1,160,-1,10,-1,-1,-1,-1,,9999,0,0,3,FEW 30   BKN 170   BKN -9999,1,12,-1,1,1020,RJTF 100800Z 16010KT 9999 FEW030 BKN170 BKN/// 12/M01 Q1020     RMK 1CU030 5AC170 A3013=
20170410_090000.004,0,RJTF,,,,0,20170410090000,-1,-1,-1,-1,-1,-1,-1,-1,-1,-1,-1,,-1,0,0,0,,0,-1,0,-1,-1,RJTF 100900Z NIL=
20170410_233000.001,0,RJTF,,,,0,20170410230000,-1,-1,-1,-1,340,-1,5,-1,-1,300,10,,6000,0,1,3,FEW 20   SCT 35   BKN 45,1,7,1,5,1016,RJTF 102330Z 34005KT 300V010 6000 -RA FEW020 SCT035 BKN045     07/05 Q1016 RMK 1CU020 3SC035 5SC045 A3000=
20170411_000000.002,0,RJTF,,,,0,20170411000000,-1,-1,-1,-1,350,-1,6,-1,-1,-1,-1,,6000,0,1,3,FEW 15   SCT 25   BKN 40,1,7,1,5,1015,RJTF 110000Z 35006KT 6000 -RA FEW015 SCT025 BKN040 07/05 Q1015     RMK 1CU015 3SC025 5SC040 A2998=
20170411_010000.002,0,RJTF,,,,0,20170411010000,-1,-1,-1,-1,360,-1,8,-1,-1,-1,-1,,5000,0,2,3,FEW 8   SCT 20   BKN 40,1,7,1,6,1013,RJTF 110100Z 36008KT 5000 RA BR FEW008 SCT020 BKN040 07/06     Q1013 RMK 1ST008 3SC020 5SC040 A2994=
20170411_020000.003,0,RJTF,,,,0,20170411020000,-1,-1,-1,-1,350,-1,7,-1,-1,-1,-1,,4000,0,2,3,FEW 5   SCT 7   BKN 10,1,7,1,6,1011,RJTF 110200Z 35007KT 4000 -RA BR FEW005 SCT007 BKN010 07/06     Q1011 RMK 1ST005 3ST007 5ST010 A2988=
20170411_030000.002,0,RJTF,,,,0,20170411030000,-1,-1,-1,-1,340,-1,7,-1,-1,-1,-1,,4000,0,2,3,FEW 4   SCT 6   BKN 8,1,7,1,6,1009,RJTF 110300Z 34007KT 4000 RA BR FEW004 SCT006 BKN008 07/06     Q1009 RMK 1ST004 3ST006 5ST008 A2982=
20170411_040000.002,0,RJTF,,,,0,20170411040000,-1,-1,-1,-1,350,-1,7,-1,-1,-1,-1,,3500,0,2,3,FEW 4   SCT 6   BKN 15,1,8,1,7,1007,RJTF 110400Z 35007KT 3500 RA BR FEW004 SCT006 BKN015 08/07     Q1007 RMK 1ST004 4ST006 6SC015 A2974 P/FR=
20170411_050000.002,0,RJTF,,,,0,20170411050000,-1,-1,-1,-1,350,-1,6,-1,-1,-1,-1,,3000,0,2,3,FEW 4   SCT 5   BKN 13,1,8,1,7,1005,RJTF 110500Z 35006KT 3000 RA BR FEW004 SCT005 BKN013 08/07     Q1005 RMK 2ST004 4ST005 7SC013 A2968 P/FR=
20170411_060000.002,0,RJTF,,,,0,20170411060000,-1,-1,-1,-1,340,-1,7,-1,-1,-1,-1,,3500,0,2,3,FEW 3   SCT 4   BKN 6,1,8,1,8,1003,RJTF 110600Z 34007KT 3500 RA BR FEW003 SCT004 BKN006 08/08     Q1003 RMK 1ST003 3ST004 5ST006 A2962=
20170411_070000.002,0,RJTF,,,,0,20170411070000,-1,-1,-1,-1,350,-1,10,-1,-1,-1,-1,,3000,0,2,3,FEW 4   BKN 6   BKN 15,1,9,1,8,1000,RJTF 110700Z 35010KT 3000 RA BR FEW004 BKN006 BKN015 09/08     Q1000 RMK 2ST004 5ST006 7SC015 A2954 P/FR=
20170411_080000.002,0,RJTF,,,,0,20170411080000,-1,-1,-1,-1,350,-1,11,-1,-1,-1,-1,,3000,0,2,3,FEW 3   SCT 4   BKN 6,1,8,1,8,998,RJTF 110800Z 35011KT 3000 RA BR FEW003 SCT004 BKN006 08/08     Q0998 RMK 1ST003 3ST004 5ST006 A2948=
20170411_090000.003,0,RJTF,,,,0,20170411090000,-1,-1,-1,-1,-1,-1,-1,-1,-1,-1,-1,,-1,0,0,0,,0,-1,0,-1,-1,RJTF 110900Z NIL=
20170411_233000.001,0,RJTF,,,,0,20170411230000,-1,-1,-1,-1,999,-1,3,-1,-1,-1,-1,,9999,0,0,2,FEW 20   BKN -9999,1,16,1,8,1000,RJTF 112330Z VRB03KT 9999 FEW020 BKN/// 16/08 Q1000 RMK 1CU020     A2954=
20170412_000000.002,0,RJTF,,,,0,20170412000000,-1,-1,-1,-1,340,-1,5,-1,-1,290,20,,9999,0,0,2,FEW 20   BKN -9999,1,18,1,8,1000,RJTF 120000Z 34005KT 290V020 9999 FEW020 BKN/// 18/08 Q1000     RMK 1CU020 A2953=
20170412_010000.002,0,RJTF,,,,0,20170412010000,-1,-1,-1,-1,360,-1,14,-1,-1,320,30,,9999,0,0,2,FEW 20   BKN -9999,1,18,1,6,1000,RJTF 120100Z 36014KT 320V030 9999 FEW020 BKN/// 18/06 Q1000     RMK 1CU020 A2955=
20170412_020000.003,0,RJTF,,,,0,20170412020000,-1,-1,-1,-1,360,-1,15,-1,-1,-1,-1,,9999,0,0,2,FEW 30   SCT -9999,1,19,1,4,1000,RJTF 120200Z 36015KT 9999 FEW030 SCT/// 19/04 Q1000 RMK 1CU030     A2955=
20170412_030000.002,0,RJTF,,,,0,20170412030000,-1,-1,-1,-1,10,-1,13,-1,-1,-1,-1,,9999,0,0,2,FEW 30   SCT -9999,1,20,1,4,1001,RJTF 120300Z 01013KT 9999 FEW030 SCT/// 20/04 Q1001 RMK 2CU030     A2956=
20170412_040000.002,0,RJTF,,,,0,20170412040000,-1,-1,-1,-1,20,-1,12,-1,-1,350,50,,9999,0,0,3,FEW 30   SCT 50   BKN -9999,1,20,1,3,1000,RJTF 120400Z 02012KT 350V050 9999 FEW030 SCT050 BKN/// 20/03     Q1000 RMK 1CU030 3SC050 A2956=
20170412_050000.002,0,RJTF,,,,0,20170412050000,-1,-1,-1,-1,10,-1,10,-1,-1,330,60,,9999,0,0,3,FEW 30   SCT 50   BKN -9999,1,20,1,3,1001,RJTF 120500Z 01010KT 330V060 9999 FEW030 SCT050 BKN/// 20/03     Q1001 RMK 1CU030 3SC050 A2956=
20170412_060000.002,0,RJTF,,,,0,20170412060000,-1,-1,-1,-1,350,-1,11,-1,-1,-1,-1,,9999,0,0,3,FEW 30   SCT 60   BKN -9999,1,19,1,3,1001,RJTF 120600Z 35011KT 9999 FEW030 SCT060 BKN/// 19/03 Q1001 RMK     1CU030 3SC060 A2958=
20170412_070000.003,0,RJTF,,,,0,20170412070000,-1,-1,-1,-1,360,-1,8,-1,-1,310,30,,9999,0,0,3,FEW 30   SCT 60   BKN -9999,1,19,1,1,1002,RJTF 120700Z 36008KT 310V030 9999 FEW030 SCT060 BKN/// 19/01     Q1002 RMK 1CU030 3SC060 A2961=
20170412_080000.002,0,RJTF,,,,0,20170412080000,-1,-1,-1,-1,350,-1,10,-1,-1,-1,-1,,9999,0,0,3,FEW 30   SCT 60   BKN -9999,1,17,-1,0,1003,RJTF 120800Z 35010KT 9999 FEW030 SCT060 BKN/// 17/M00 Q1003     RMK 1CU030 3SC060 A2964=
20170412_090000.002,0,RJTF,,,,0,20170412090000,-1,-1,-1,-1,-1,-1,-1,-1,-1,-1,-1,,-1,0,0,0,,0,-1,0,-1,-1,RJTF 120900Z NIL=
20170412_233000.001,0,RJTF,,,,0,20170412230000,-1,-1,-1,-1,999,-1,2,-1,-1,-1,-1,,9999,0,0,2,FEW 30   SCT 80,1,11,-1,6,1014,RJTF 122330Z VRB02KT 9999 FEW030 SCT080 11/M06 Q1014 RMK     1CU030 3AC080 A2994=
20170413_000000.003,0,RJTF,,,,0,20170413000000,-1,-1,-1,-1,999,-1,3,-1,-1,-1,-1,,9999,0,0,2,FEW 30   SCT 70,1,13,-1,4,1013,RJTF 130000Z VRB03KT 9999 FEW030 SCT070 13/M04 Q1013 RMK     1CU030 3AC070 A2994=
20170413_010000.002,0,RJTF,,,,0,20170413010000,-1,-1,-1,-1,200,-1,5,-1,-1,130,260,,9999,0,0,2,FEW 30   SCT 50,1,14,1,1,1013,RJTF 130100Z 20005KT 130V260 9999 FEW030 SCT050 14/01 Q1013     RMK 1CU030 3SC050 A2994=
20170413_020000.002,0,RJTF,,,,0,20170413020000,-1,-1,-1,-1,180,-1,8,-1,-1,120,240,,9999,0,0,2,FEW 30   SCT 50,1,15,-1,1,1013,RJTF 130200Z 18008KT 120V240 9999 FEW030 SCT050 15/M01 Q1013     RMK 1CU030 3SC050 A2992=
20170413_030000.002,0,RJTF,,,,0,20170413030000,-1,-1,-1,-1,180,-1,11,-1,-1,150,230,,9999,0,0,2,FEW 30   SCT 50,1,15,1,4,1012,RJTF 130300Z 18011KT 150V230 9999 FEW030 SCT050 15/04 Q1012     RMK 1CU030 3SC050 A2990=
20170413_040000.002,0,RJTF,,,,0,20170413040000,-1,-1,-1,-1,190,-1,8,-1,-1,150,230,,9999,0,0,2,FEW 30   BKN 40,1,15,1,4,1012,RJTF 130400Z 19008KT 150V230 9999 FEW030 BKN040 15/04 Q1012     RMK 1CU030 5SC040 A2990=
20170413_050000.002,0,RJTF,,,,0,20170413050000,-1,-1,-1,-1,160,-1,9,-1,-1,-1,-1,,9999,0,0,2,FEW 40   SCT 60,1,16,1,5,1012,RJTF 130500Z 16009KT 9999 FEW040 SCT060 16/05 Q1012 RMK 2SC040     4SC060 A2988=
20170413_060000.002,0,RJTF,,,,0,20170413060000,-1,-1,-1,-1,190,-1,7,-1,-1,150,220,,9999,0,0,2,FEW 40   BKN 60,1,16,1,5,1012,RJTF 130600Z 19007KT 150V220 9999 FEW040 BKN060 16/05 Q1012     RMK 2SC040 5SC060 A2988=
20170413_070000.002,0,RJTF,,,,0,20170413070000,-1,-1,-1,-1,210,-1,6,-1,-1,160,260,,9999,0,0,2,FEW 40   SCT 80,1,16,1,3,1012,RJTF 130700Z 21006KT 160V260 9999 FEW040 SCT080 16/03 Q1012     RMK 2SC040 4AC080 A2989=
20170413_080000.003,0,RJTF,,,,0,20170413080000,-1,-1,-1,-1,130,-1,3,-1,-1,80,220,,9999,0,0,3,FEW 30   SCT 60   BKN 90,1,16,1,2,1012,RJTF 130800Z 13003KT 080V220 9999 FEW030 SCT060 BKN090 16/02     Q1012 RMK 1CU030 3SC060 5AC090 A2990=
20170413_090000.002,0,RJTF,,,,0,20170413090000,-1,-1,-1,-1,-1,-1,-1,-1,-1,-1,-1,,-1,0,0,0,,0,-1,0,-1,-1,RJTF 130900Z NIL=
20170413_233000.001,0,RJTF,,,,0,20170413230000,-1,-1,-1,-1,170,-1,3,-1,-1,100,230,CAVOK,-1,0,0,0,,1,14,1,3,1018,RJTF 132330Z 17003KT 100V230 CAVOK 14/03 Q1018 RMK A3008=
20170414_000000.002,0,RJTF,,,,0,20170414000000,-1,-1,-1,-1,160,-1,6,-1,-1,130,200,CAVOK,-1,0,0,0,,1,15,1,3,1018,RJTF 140000Z 16006KT 130V200 CAVOK 15/03 Q1018 RMK A3007=
20170414_010000.002,0,RJTF,,,,0,20170414010000,-1,-1,-1,-1,200,-1,6,-1,-1,150,250,CAVOK,-1,0,0,0,,1,17,1,4,1017,RJTF 140100Z 20006KT 150V250 CAVOK 17/04 Q1017 RMK A3005=
20170414_020000.002,0,RJTF,,,,0,20170414020000,-1,-1,-1,-1,180,-1,10,-1,-1,150,230,CAVOK,-1,0,0,0,,1,19,1,2,1017,RJTF 140200Z 18010KT 150V230 CAVOK 19/02 Q1017 RMK A3003=
20170414_030000.002,0,RJTF,,,,0,20170414030000,-1,-1,-1,-1,190,-1,10,-1,-1,-1,-1,CAVOK,-1,0,0,0,,1,20,-1,1,1016,RJTF 140300Z 19010KT CAVOK 20/M01 Q1016 RMK A3000=
20170414_040000.002,0,RJTF,,,,0,20170414040000,-1,-1,-1,-1,170,-1,16,-1,-1,-1,-1,CAVOK,-1,0,0,0,,1,21,-1,1,1015,RJTF 140400Z 17016KT CAVOK 21/M01 Q1015 RMK A2998=
20170414_050000.002,0,RJTF,,,,0,20170414050000,-1,-1,-1,-1,180,-1,12,-1,-1,-1,-1,CAVOK,-1,0,0,0,,1,20,1,2,1015,RJTF 140500Z 18012KT CAVOK 20/02 Q1015 RMK A2997=
20170414_060000.002,0,RJTF,,,,0,20170414060000,-1,-1,-1,-1,170,-1,13,-1,-1,-1,-1,CAVOK,-1,0,0,0,,1,20,1,2,1014,RJTF 140600Z 17013KT CAVOK 20/02 Q1014 RMK A2995=
20170414_070000.002,0,RJTF,,,,0,20170414070000,-1,-1,-1,-1,180,-1,10,-1,-1,150,210,,9999,0,0,2,FEW 30   SCT -9999,1,21,1,4,1013,RJTF 140700Z 18010KT 150V210 9999 FEW030 SCT/// 21/04 Q1013     RMK 1CU030 A2994=
20170414_080000.002,0,RJTF,,,,0,20170414080000,-1,-1,-1,-1,180,-1,9,-1,-1,150,210,,9999,0,0,2,FEW 30   SCT -9999,1,20,1,4,1014,RJTF 140800Z 18009KT 150V210 9999 FEW030 SCT/// 20/04 Q1014     RMK 1CU030 A2994=
20170414_090000.002,0,RJTF,,,,0,20170414090000,-1,-1,-1,-1,-1,-1,-1,-1,-1,-1,-1,,-1,0,0,0,,0,-1,0,-1,-1,RJTF 140900Z NIL=
20170414_233000.001,0,RJTF,,,,0,20170414230000,-1,-1,-1,-1,190,-1,11,-1,-1,160,220,,9999,0,0,2,FEW 30   SCT -9999,1,20,1,9,1014,RJTF 142330Z 19011KT 160V220 9999 FEW030 SCT/// 20/09 Q1014     RMK 1CU030 A2995=
20170415_000000.002,0,RJTF,,,,0,20170415000000,-1,-1,-1,-1,200,-1,12,-1,-1,160,240,,9999,0,0,2,FEW 30   SCT -9999,1,20,1,10,1014,RJTF 150000Z 20012KT 160V240 9999 FEW030 SCT/// 20/10 Q1014     RMK 1CU030 A2995=
20170415_010000.003,0,RJTF,,,,0,20170415010000,-1,-1,-1,-1,180,-1,14,-1,-1,-1,-1,,9999,0,0,2,FEW 30   SCT -9999,1,21,1,10,1013,RJTF 150100Z 18014KT 9999 FEW030 SCT/// 21/10 Q1013 RMK 1CU030     A2993=
20170415_020000.003,0,RJTF,,,,0,20170415020000,-1,-1,-1,-1,180,-1,13,-1,-1,150,210,,9999,0,0,3,FEW 30   SCT 150   BKN -9999,1,21,1,9,1013,RJTF 150200Z 18013KT 150V210 9999 FEW030 SCT150 BKN/// 21/09     Q1013 RMK 1CU030 4AC150 A2992=
20170415_030000.002,0,RJTF,,,,0,20170415030000,-1,-1,-1,-1,180,-1,14,-1,-1,150,230,,9999,0,0,2,FEW 20   SCT -9999,1,22,1,9,1012,RJTF 150300Z 18014KT 150V230 9999 FEW020 SCT/// 22/09 Q1012     RMK 1CU020 A2988=
20170415_040000.002,0,RJTF,,,,0,20170415040000,-1,-1,-1,-1,180,-1,16,-1,26,140,220,,9999,0,0,2,FEW 20   BKN -9999,1,22,1,9,1011,RJTF 150400Z 18016G26KT 140V220 9999 FEW020 BKN/// 22/09 Q1011     RMK 1CU020 A2985=
20170415_050000.002,0,RJTF,,,,0,20170415050000,-1,-1,-1,-1,190,-1,13,-1,24,150,230,,9999,0,0,3,FEW 20   SCT 30   BKN 100,1,21,1,11,1010,RJTF 150500Z 19013G24KT 150V230 9999 FEW020 SCT030 BKN100     21/11 Q1010 RMK 1CU020 3CU030 6AC100 A2984=
20170415_060000.002,0,RJTF,,,,0,20170415060000,-1,-1,-1,-1,200,-1,11,-1,-1,-1,-1,,9999,0,0,3,FEW 20   SCT 80   BKN -9999,1,21,1,11,1010,RJTF 150600Z 20011KT 9999 FEW020 SCT080 BKN/// 21/11 Q1010 RMK     1CU020 4AC080 A2984=
20170415_070000.002,0,RJTF,,,,0,20170415070000,-1,-1,-1,-1,200,-1,12,-1,-1,-1,-1,,9999,0,0,2,FEW 30   SCT 100,1,22,1,10,1010,RJTF 150700Z 20012KT 9999 FEW030 SCT100 22/10 Q1010 RMK 2CU030     3AC100 A2983=
20170415_080000.002,0,RJTF,,,,0,20170415080000,-1,-1,-1,-1,220,-1,7,-1,-1,180,260,,9999,0,0,1,FEW 30,1,22,1,7,1010,RJTF 150800Z 22007KT 180V260 9999 FEW030 22/07 Q1010 RMK     2CU030 A2984=
20170415_090000.002,0,RJTF,,,,0,20170415090000,-1,-1,-1,-1,-1,-1,-1,-1,-1,-1,-1,,-1,0,0,0,,0,-1,0,-1,-1,RJTF 150900Z NIL=
20170415_233000.001,0,RJTF,,,,0,20170415230000,-1,-1,-1,-1,90,-1,3,-1,-1,30,140,,9999,0,0,1,FEW 30,1,20,1,4,1015,RJTF 152330Z 09003KT 030V140 9999 FEW030 20/04 Q1015 RMK     1CU030 A2998=
20170416_000000.002,0,RJTF,,,,0,20170416000000,-1,-1,-1,-1,999,-1,2,-1,-1,-1,-1,,9999,0,0,1,FEW 30,1,20,1,4,1015,RJTF 160000Z VRB02KT 9999 FEW030 20/04 Q1015 RMK 1CU030 A2997=
20170416_010000.003,0,RJTF,,,,0,20170416010000,-1,-1,-1,-1,190,-1,4,-1,-1,130,250,,9999,0,0,2,FEW 30   SCT -9999,1,24,1,4,1014,RJTF 160100Z 19004KT 130V250 9999 FEW030 SCT/// 24/04 Q1014     RMK 1CU030 A2995=
20170416_020000.003,0,RJTF,,,,0,20170416020000,-1,-1,-1,-1,190,-1,9,-1,-1,-1,-1,,9999,0,0,2,FEW 30   BKN -9999,1,25,1,1,1013,RJTF 160200Z 19009KT 9999 FEW030 BKN/// 25/01 Q1013 RMK 1CU030     A2992=
20170416_030000.002,0,RJTF,,,,0,20170416030000,-1,-1,-1,-1,200,-1,11,-1,-1,170,230,,9999,0,0,2,FEW 30   BKN -9999,1,25,1,1,1012,RJTF 160300Z 20011KT 170V230 9999 FEW030 BKN/// 25/01 Q1012     RMK 1CU030 A2991=
20170416_040000.002,0,RJTF,,,,0,20170416040000,-1,-1,-1,-1,180,-1,12,-1,-1,-1,-1,,9999,0,0,3,FEW 30   SCT 180   BKN -9999,1,25,1,4,1012,RJTF 160400Z 18012KT 9999 FEW030 SCT180 BKN/// 25/04 Q1012 RMK     1CU030 3AC180 A2990=
20170416_050000.002,0,RJTF,,,,0,20170416050000,-1,-1,-1,-1,190,-1,11,-1,-1,-1,-1,,9999,0,0,2,FEW 30   SCT -9999,1,26,1,5,1012,RJTF 160500Z 19011KT 9999 FEW030 SCT/// 26/05 Q1012 RMK 1CU030     A2988=
20170416_060000.003,0,RJTF,,,,0,20170416060000,-1,-1,-1,-1,180,-1,9,-1,-1,140,210,,9999,0,0,2,FEW 30   BKN -9999,1,25,1,3,1011,RJTF 160600Z 18009KT 140V210 9999 FEW030 BKN/// 25/03 Q1011     RMK 2CU030 A2987=
20170416_070000.002,0,RJTF,,,,0,20170416070000,-1,-1,-1,-1,170,-1,11,-1,-1,-1,-1,,9999,0,0,2,FEW 30   BKN -9999,1,25,1,8,1011,RJTF 160700Z 17011KT 9999 FEW030 BKN/// 25/08 Q1011 RMK 2CU030     A2986=
20170416_080000.002,0,RJTF,,,,0,20170416080000,-1,-1,-1,-1,170,-1,10,-1,-1,140,210,,9999,0,0,1,FEW 30,1,24,1,9,1010,RJTF 160800Z 17010KT 140V210 9999 FEW030 24/09 Q1010 RMK     1CU030 A2985=
20170416_090000.002,0,RJTF,,,,0,20170416090000,-1,-1,-1,-1,-1,-1,-1,-1,-1,-1,-1,,-1,0,0,0,,0,-1,0,-1,-1,RJTF 160900Z NIL=
20170416_233000.001,0,RJTF,,,,0,20170416230000,-1,-1,-1,-1,130,-1,3,-1,-1,50,180,CAVOK,-1,0,0,0,,1,21,1,5,1015,RJTF 162330Z 13003KT 050V180 CAVOK 21/05 Q1015 RMK A2998=
20170417_000000.002,0,RJTF,,,,0,20170417000000,-1,-1,-1,-1,100,-1,4,-1,-1,40,150,CAVOK,-1,0,0,0,,1,22,1,5,1015,RJTF 170000Z 10004KT 040V150 CAVOK 22/05 Q1015 RMK A2998=
20170417_010000.002,0,RJTF,,,,0,20170417010000,-1,-1,-1,-1,120,-1,6,-1,-1,70,160,CAVOK,-1,0,0,0,,1,24,1,4,1014,RJTF 170100Z 12006KT 070V160 CAVOK 24/04 Q1014 RMK A2997=
20170417_020000.002,0,RJTF,,,,0,20170417020000,-1,-1,-1,-1,130,-1,8,-1,-1,90,170,,9999,0,0,3,FEW 30   SCT 180   BKN -9999,1,25,-1,0,1014,RJTF 170200Z 13008KT 090V170 9999 FEW030 SCT180 BKN/// 25/M00     Q1014 RMK 1CU030 3AC180 A2995=
20170417_030000.002,0,RJTF,,,,0,20170417030000,-1,-1,-1,-1,140,-1,11,-1,-1,100,170,,9999,0,0,3,FEW 30   BKN 180   BKN -9999,1,25,1,3,1013,RJTF 170300Z 14011KT 100V170 9999 FEW030 BKN180 BKN/// 25/03     Q1013 RMK 1CU030 5AC180 A2994=
20170417_040000.003,0,RJTF,,,,0,20170417040000,-1,-1,-1,-1,190,-1,10,-1,-1,-1,-1,CAVOK,-1,0,0,0,,1,22,1,11,1013,RJTF 170400Z 19010KT CAVOK 22/11 Q1013 RMK A2992=
20170417_050000.002,0,RJTF,,,,0,20170417050000,-1,-1,-1,-1,150,-1,16,-1,-1,-1,-1,CAVOK,-1,0,0,0,,1,22,1,10,1013,RJTF 170500Z 15016KT CAVOK 22/10 Q1013 RMK A2992=
20170417_060000.002,0,RJTF,,,,0,20170417060000,-1,-1,-1,-1,120,-1,12,-1,-1,90,160,,9999,0,0,3,FEW 30   SCT 140   OVC -9999,1,21,1,10,1012,RJTF 170600Z 12012KT 090V160 9999 FEW030 SCT140 OVC/// 21/10     Q1012 RMK 1CU030 3AC140 A2988=
20170417_070000.002,0,RJTF,,,,0,20170417070000,-1,-1,-1,-1,140,-1,10,-1,-1,110,170,,9999,0,0,3,FEW 30   SCT 60   OVC -9999,1,21,1,9,1011,RJTF 170700Z 14010KT 110V170 9999 FEW030 SCT060 OVC/// 21/09     Q1011 RMK 1CU030 3SC060 A2987=
20170417_080000.002,0,RJTF,,,,0,20170417080000,-1,-1,-1,-1,160,-1,11,-1,-1,-1,-1,,9999,0,1,3,FEW 20   SCT 30   BKN 80,1,19,1,15,1011,RJTF 170800Z 16011KT 9999 -SHRA FEW020 SCT030 BKN080 19/15     Q1011 RMK 1CU020 3CU030 5AC080 A2987=
20170417_090000.002,0,RJTF,,,,0,20170417090000,-1,-1,-1,-1,-1,-1,-1,-1,-1,-1,-1,,-1,0,0,0,,0,-1,0,-1,-1,RJTF 170900Z NIL=
20170417_233000.001,0,RJTF,,,,0,20170417230000,-1,-1,-1,-1,210,-1,5,-1,-1,150,270,,9999,0,0,3,SCT 12   BKN 30   BKN 170,1,20,1,17,990,RJTF 172330Z 21005KT 150V270 9999 SCT012 BKN030 BKN170 20/17     Q0990 RMK 3CU012 5CU030 7AC170 A2925=
20170418_000000.002,0,RJTF,,,,0,20170418000000,-1,-1,-1,-1,220,-1,4,-1,-1,150,270,,9999,0,0,3,FEW 10   SCT 14   BKN 30,1,20,1,17,990,RJTF 180000Z 22004KT 150V270 9999 FEW010 SCT014 BKN030 20/17     Q0990 RMK 1ST010 3CU014 5CU030 A2925=
20170418_010000.002,0,RJTF,,,,0,20170418010000,-1,-1,-1,-1,200,-1,10,-1,-1,160,240,,9999,0,0,3,FEW 15   SCT 20   BKN 30,1,22,1,17,990,RJTF 180100Z 20010KT 160V240 9999 FEW015 SCT020 BKN030 22/17     Q0990 RMK 1CU015 4CU020 6CU030 A2925=
20170418_020000.002,0,RJTF,,,,0,20170418020000,-1,-1,-1,-1,999,-1,6,-1,-1,-1,-1,,9999,0,0,2,FEW 20   SCT -9999,1,23,1,17,990,RJTF 180200Z VRB06KT 9999 FEW020 SCT/// 23/17 Q0990 RMK 2CU020     A2924=
20170418_030000.002,0,RJTF,,,,0,20170418030000,-1,-1,-1,-1,200,-1,9,-1,-1,160,230,,9999,0,0,2,FEW 20   BKN -9999,1,26,1,15,989,RJTF 180300Z 20009KT 160V230 9999 FEW020 BKN/// 26/15 Q0989     RMK 1CU020 A2921=
20170418_040000.002,0,RJTF,,,,0,20170418040000,-1,-1,-1,-1,210,-1,10,-1,-1,160,240,,9999,0,0,2,FEW 30   BKN -9999,1,26,1,12,988,RJTF 180400Z 21010KT 160V240 9999 FEW030 BKN/// 26/12 Q0988     RMK 1CU030 A2920=
20170418_050000.002,0,RJTF,,,,0,20170418050000,-1,-1,-1,-1,210,-1,10,-1,-1,180,250,,9999,0,0,2,FEW 30   BKN -9999,1,26,1,11,988,RJTF 180500Z 21010KT 180V250 9999 FEW030 BKN/// 26/11 Q0988     RMK 1CU030 A2920=
20170418_060000.002,0,RJTF,,,,0,20170418060000,-1,-1,-1,-1,190,-1,10,-1,-1,150,220,,9999,0,0,2,FEW 30   BKN -9999,1,26,1,10,988,RJTF 180600Z 19010KT 150V220 9999 FEW030 BKN/// 26/10 Q0988     RMK 1CU030 A2918=
20170418_070000.002,0,RJTF,,,,0,20170418070000,-1,-1,-1,-1,180,-1,10,-1,-1,150,220,,9999,0,0,3,FEW 30   SCT 120   BKN -9999,1,25,1,10,988,RJTF 180700Z 18010KT 150V220 9999 FEW030 SCT120 BKN/// 25/10     Q0988 RMK 1CU030 3AC120 A2920=
20170418_080000.002,0,RJTF,,,,0,20170418080000,-1,-1,-1,-1,180,-1,7,-1,-1,150,210,,9999,0,0,2,FEW 30   BKN -9999,1,23,1,9,989,RJTF 180800Z 18007KT 150V210 9999 FEW030 BKN/// 23/09 Q0989     RMK 1CU030 A2920=
20170418_090000.002,0,RJTF,,,,0,20170418090000,-1,-1,-1,-1,-1,-1,-1,-1,-1,-1,-1,,-1,0,0,0,,0,-1,0,-1,-1,RJTF 180900Z NIL=
20170418_233000.001,0,RJTF,,,,0,20170418230000,-1,-1,-1,-1,240,-1,5,-1,-1,190,290,,9999,0,0,1,FEW 30,1,21,1,9,995,RJTF 182330Z 24005KT 190V290 9999 FEW030 21/09 Q0995 RMK     1CU030 A2938=
20170419_000000.002,0,RJTF,,,,0,20170419000000,-1,-1,-1,-1,220,-1,7,-1,-1,160,260,,9999,0,0,2,FEW 30   SCT 50,1,22,1,8,994,RJTF 190000Z 22007KT 160V260 9999 FEW030 SCT050 22/08 Q0994     RMK 1CU030 3SC050 A2938=
20170419_010000.003,0,RJTF,,,,0,20170419010000,-1,-1,-1,-1,360,-1,8,-1,-1,330,50,,9999,0,0,2,FEW 30   SCT 50,1,21,1,10,995,RJTF 190100Z 36008KT 330V050 9999 FEW030 SCT050 21/10 Q0995     RMK 1CU030 3SC050 A2938=
20170419_020000.002,0,RJTF,,,,0,20170419020000,-1,-1,-1,-1,999,-1,2,-1,-1,-1,-1,,9999,0,0,1,FEW 30,1,23,1,10,994,RJTF 190200Z VRB02KT 9999 FEW030 23/10 Q0994 RMK 2CU030 A2937=
20170419_030000.002,0,RJTF,,,,0,20170419030000,-1,-1,-1,-1,999,-1,4,-1,15,-1,-1,,9999,0,0,2,FEW 30   SCT 90,1,24,1,6,993,RJTF 190300Z VRB04G15KT 9999 FEW030 SCT090 24/06 Q0993 RMK     1CU030 3AC090 A2934=
20170419_040000.002,0,RJTF,,,,0,20170419040000,-1,-1,-1,-1,30,-1,8,-1,-1,330,70,,9999,0,0,2,FEW 30   SCT 100,1,25,1,7,994,RJTF 190400Z 03008KT 330V070 9999 FEW030 SCT100 25/07 Q0994     RMK 1CU030 3AC100 A2935=
20170419_050000.002,0,RJTF,,,,0,20170419050000,-1,-1,-1,-1,320,-1,11,-1,25,270,10,,9999,0,0,2,FEW 30   SCT 120,1,26,-1,6,994,RJTF 190500Z 32011G25KT 270V010 9999 FEW030 SCT120 26/M06     Q0994 RMK 1CU030 3AC120 A2936=
20170419_060000.003,0,RJTF,,,,0,20170419060000,-1,-1,-1,-1,290,-1,14,-1,26,240,340,,9999,0,0,2,FEW 30   SCT 120,1,25,-1,6,995,RJTF 190600Z 29014G26KT 240V340 9999 FEW030 SCT120 25/M06     Q0995 RMK 1CU030 3AC120 A2939=
20170419_070000.002,0,RJTF,,,,0,20170419070000,-1,-1,-1,-1,320,-1,13,-1,23,280,360,CAVOK,-1,0,0,0,,1,22,-1,6,997,RJTF 190700Z 32013G23KT 280V360 CAVOK 22/M06 Q0997 RMK A2945=
20170419_080000.002,0,RJTF,,,,0,20170419080000,-1,-1,-1,-1,330,-1,10,-1,22,290,360,CAVOK,-1,0,0,0,,1,21,-1,5,999,RJTF 190800Z 33010G22KT 290V360 CAVOK 21/M05 Q0999 RMK A2950     P/RR=
20170419_090000.003,0,RJTF,,,,0,20170419090000,-1,-1,-1,-1,-1,-1,-1,-1,-1,-1,-1,,-1,0,0,0,,0,-1,0,-1,-1,RJTF 190900Z NIL=
20170419_233000.001,0,RJTF,,,,0,20170419230000,-1,-1,-1,-1,20,-1,10,-1,-1,-1,-1,CAVOK,-1,0,0,0,,1,16,-1,0,1012,RJTF 192330Z 02010KT CAVOK 16/M00 Q1012 RMK A2990=
20170420_000000.002,0,RJTF,,,,0,20170420000000,-1,-1,-1,-1,360,-1,7,-1,-1,330,70,CAVOK,-1,0,0,0,,1,17,-1,0,1012,RJTF 200000Z 36007KT 330V070 CAVOK 17/M00 Q1012 RMK A2991=
20170420_010000.002,0,RJTF,,,,0,20170420010000,-1,-1,-1,-1,210,-1,5,-1,-1,150,260,CAVOK,-1,0,0,0,,1,18,1,1,1013,RJTF 200100Z 21005KT 150V260 CAVOK 18/01 Q1013 RMK A2992=
20170420_020000.002,0,RJTF,,,,0,20170420020000,-1,-1,-1,-1,160,-1,7,-1,-1,120,220,CAVOK,-1,0,0,0,,1,19,-1,1,1012,RJTF 200200Z 16007KT 120V220 CAVOK 19/M01 Q1012 RMK A2990=
20170420_030000.002,0,RJTF,,,,0,20170420030000,-1,-1,-1,-1,200,-1,6,-1,16,130,230,,9999,0,0,3,FEW 30   SCT 180   BKN -9999,1,19,1,1,1012,RJTF 200300Z 20006G16KT 130V230 9999 FEW030 SCT180 BKN///     19/01 Q1012 RMK 1CU030 3AC180 A2988=
20170420_040000.002,0,RJTF,,,,0,20170420040000,-1,-1,-1,-1,190,-1,9,-1,-1,160,220,,9999,0,0,3,FEW 30   SCT 180   BKN -9999,1,19,1,2,1011,RJTF 200400Z 19009KT 160V220 9999 FEW030 SCT180 BKN/// 19/02     Q1011 RMK 1CU030 4AC180 A2986=
20170420_050000.002,0,RJTF,,,,0,20170420050000,-1,-1,-1,-1,190,-1,11,-1,-1,160,220,,9999,0,0,3,FEW 30   SCT 170   BKN -9999,1,19,1,4,1011,RJTF 200500Z 19011KT 160V220 9999 FEW030 SCT170 BKN/// 19/04     Q1011 RMK 1CU030 4AC170 A2986=
20170420_060000.003,0,RJTF,,,,0,20170420060000,-1,-1,-1,-1,190,-1,10,-1,-1,160,230,,9999,0,0,3,FEW 30   SCT 150   BKN -9999,1,18,1,5,1010,RJTF 200600Z 19010KT 160V230 9999 FEW030 SCT150 BKN/// 18/05     Q1010 RMK 1CU030 4AC150 A2985=
20170420_070000.003,0,RJTF,,,,0,20170420070000,-1,-1,-1,-1,180,-1,10,-1,-1,-1,-1,,9999,0,0,3,FEW 30   SCT 150   BKN -9999,1,18,1,6,1010,RJTF 200700Z 18010KT 9999 FEW030 SCT150 BKN/// 18/06 Q1010 RMK     1CU030 4AC150 A2984=
20170420_080000.003,0,RJTF,,,,0,20170420080000,-1,-1,-1,-1,200,-1,10,-1,-1,-1,-1,,9999,0,0,3,FEW 30   SCT 150   BKN 180,1,17,1,7,1011,RJTF 200800Z 20010KT 9999 FEW030 SCT150 BKN180 17/07 Q1011 RMK     1CU030 4AC150 6AC180 A2986=
20170420_090000.002,0,RJTF,,,,0,20170420090000,-1,-1,-1,-1,-1,-1,-1,-1,-1,-1,-1,,-1,0,0,0,,0,-1,0,-1,-1,RJTF 200900Z NIL=
20170420_233000.001,0,RJTF,,,,0,20170420230000,-1,-1,-1,-1,350,-1,5,-1,-1,310,10,,9999,0,0,2,FEW 25   BKN 100,1,14,1,9,1010,RJTF 202330Z 35005KT 310V010 9999 FEW025 BKN100 14/09 Q1010     RMK 2CU025 7AC100 A2983=
20170421_000000.002,0,RJTF,,,,0,20170421000000,-1,-1,-1,-1,350,-1,4,-1,-1,300,10,,9999,0,0,3,FEW 25   BKN 100   OVC 120,1,14,1,9,1009,RJTF 210000Z 35004KT 300V010 9999 FEW025 BKN100 OVC120 14/09     Q1009 RMK 2CU025 6AC100 8AS120 A2982=
20170421_010000.002,0,RJTF,,,,0,20170421010000,-1,-1,-1,-1,360,-1,3,-1,-1,300,40,,9999,0,0,3,FEW 25   SCT 30   BKN 90,1,15,1,9,1009,RJTF 210100Z 36003KT 300V040 9999 FEW025 SCT030 BKN090 15/09     Q1009 RMK 1CU025 3SC030 7AC090 A2982=
20170421_020000.002,0,RJTF,,,,0,20170421020000,-1,-1,-1,-1,999,-1,2,-1,-1,-1,-1,,9999,0,0,2,FEW 25   BKN 80,1,15,1,9,1008,RJTF 210200Z VRB02KT 9999 FEW025 BKN080 15/09 Q1008 RMK 2CU025     7AC080 A2979=
20170421_030000.002,0,RJTF,,,,0,20170421030000,-1,-1,-1,-1,999,-1,4,-1,-1,-1,-1,,9999,0,0,3,FEW 25   BKN 80   BKN 130,1,17,1,10,1007,RJTF 210300Z VRB04KT 9999 FEW025 BKN080 BKN130 17/10 Q1007 RMK     2CU025 5AC080 7AC130 A2974=
20170421_040000.002,0,RJTF,,,,0,20170421040000,-1,-1,-1,-1,210,-1,4,-1,-1,150,280,,9999,0,0,3,FEW 30   SCT 80   BKN 130,1,18,1,8,1006,RJTF 210400Z 21004KT 150V280 9999 FEW030 SCT080 BKN130 18/08     Q1006 RMK 2CU030 4AC080 7AC130 A2973=
20170421_050000.002,0,RJTF,,,,0,20170421050000,-1,-1,-1,-1,999,-1,3,-1,-1,-1,-1,,9999,0,0,3,SCT 30   BKN 80   BKN 170,1,18,1,8,1005,RJTF 210500Z VRB03KT 9999 SCT030 BKN080 BKN170 18/08 Q1005 RMK     3CU030 5AC080 7AC170 A2970=
20170421_060000.002,0,RJTF,,,,0,20170421060000,-1,-1,-1,-1,200,-1,4,-1,-1,160,230,,9999,0,0,3,FEW 30   BKN 80   BKN 170,1,19,1,9,1005,RJTF 210600Z 20004KT 160V230 9999 FEW030 BKN080 BKN170 19/09     Q1005 RMK 2CU030 5AC080 7AC170 A2969=
20170421_070000.003,0,RJTF,,,,0,20170421070000,-1,-1,-1,-1,170,-1,5,-1,-1,140,220,,9999,0,0,3,FEW 30   SCT 80   BKN 170,1,19,1,8,1004,RJTF 210700Z 17005KT 140V220 9999 FEW030 SCT080 BKN170 19/08     Q1004 RMK 1CU030 4AC080 7AC170 A2967=
20170421_080000.002,0,RJTF,,,,0,20170421080000,-1,-1,-1,-1,170,-1,4,-1,-1,130,220,,9999,0,0,2,FEW 30   BKN 170,1,19,1,9,1004,RJTF 210800Z 17004KT 130V220 9999 FEW030 BKN170 19/09 Q1004     RMK 1CU030 7AC170 A2966=
20170421_090000.003,0,RJTF,,,,0,20170421090000,-1,-1,-1,-1,-1,-1,-1,-1,-1,-1,-1,,-1,0,0,0,,0,-1,0,-1,-1,RJTF 210900Z NIL=
20170421_233000.001,0,RJTF,,,,0,20170421230000,-1,-1,-1,-1,20,-1,5,-1,-1,-1,-1,,9999,0,0,2,FEW 25   BKN 40,1,15,1,4,1007,RJTF 212330Z 02005KT 9999 FEW025 BKN040 15/04 Q1007 RMK 2CU025     7SC040 A2974=
20170422_000000.002,0,RJTF,,,,0,20170422000000,-1,-1,-1,-1,40,-1,3,-1,-1,360,80,,9999,0,0,2,FEW 25   BKN 40,1,16,1,5,1007,RJTF 220000Z 04003KT 360V080 9999 FEW025 BKN040 16/05 Q1007     RMK 2CU025 7SC040 A2974=
20170422_010000.002,0,RJTF,,,,0,20170422010000,-1,-1,-1,-1,110,-1,3,-1,-1,60,150,,9999,0,0,2,FEW 25   BKN 40,1,16,1,4,1007,RJTF 220100Z 11003KT 060V150 9999 FEW025 BKN040 16/04 Q1007     RMK 2CU025 7SC040 A2974=
20170422_020000.003,0,RJTF,,,,0,20170422020000,-1,-1,-1,-1,90,-1,3,-1,-1,40,140,,9999,0,0,2,FEW 25   BKN 45,1,17,1,4,1006,RJTF 220200Z 09003KT 040V140 9999 FEW025 BKN045 17/04 Q1006     RMK 1CU025 7SC045 A2973=
20170422_030000.002,0,RJTF,,,,0,20170422030000,-1,-1,-1,-1,130,-1,7,-1,-1,90,170,,9999,0,0,2,FEW 25   BKN 50,1,17,1,4,1006,RJTF 220300Z 13007KT 090V170 9999 FEW025 BKN050 17/04 Q1006     RMK 1CU025 7SC050 A2972=
20170422_040000.002,0,RJTF,,,,0,20170422040000,-1,-1,-1,-1,130,-1,3,-1,-1,80,190,,9999,0,0,2,FEW 25   BKN 50,1,17,1,5,1006,RJTF 220400Z 13003KT 080V190 9999 FEW025 BKN050 17/05 Q1006     RMK 2CU025 7SC050 A2972=
20170422_050000.003,0,RJTF,,,,0,20170422050000,-1,-1,-1,-1,110,-1,5,-1,-1,80,140,,9999,0,1,2,SCT 25   BKN 50,1,17,1,5,1005,RJTF 220500Z 11005KT 080V140 9999 VCSH SCT025 BKN050 17/05     Q1005 RMK 3CU025 7SC050 A2970=
20170422_060000.002,0,RJTF,,,,0,20170422060000,-1,-1,-1,-1,999,-1,2,-1,-1,-1,-1,,9999,0,1,2,BKN 25   BKN 50,1,16,1,6,1006,RJTF 220600Z VRB02KT 9999 -SHRA BKN025 BKN050 16/06 Q1006 RMK     5CU025 7SC050 A2972=
20170422_070000.002,0,RJTF,,,,0,20170422070000,-1,-1,-1,-1,170,-1,3,-1,-1,-1,-1,,9999,0,0,2,FEW 25   BKN 50,1,16,1,9,1006,RJTF 220700Z 17003KT 9999 FEW025 BKN050 16/09 Q1006 RMK 2CU025     7SC050 A2972=
20170422_080000.002,0,RJTF,,,,0,20170422080000,-1,-1,-1,-1,350,-1,4,-1,-1,320,30,,7000,0,1,2,BKN 20   BKN 40,1,14,1,10,1007,RJTF 220800Z 35004KT 320V030 7000 -SHRA BKN020 BKN040 14/10     Q1007 RMK 5CU020 7SC040 A2974=
20170422_090000.002,0,RJTF,,,,0,20170422090000,-1,-1,-1,-1,-1,-1,-1,-1,-1,-1,-1,,-1,0,0,0,,0,-1,0,-1,-1,RJTF 220900Z NIL=
20170422_233000.001,0,RJTF,,,,0,20170422230000,-1,-1,-1,-1,10,-1,9,-1,-1,-1,-1,,9999,0,0,1,FEW 30,1,14,1,2,1015,RJTF 222330Z 01009KT 9999 FEW030 14/02 Q1015 RMK 1CU030 A3000=
20170423_000000.002,0,RJTF,,,,0,20170423000000,-1,-1,-1,-1,10,-1,9,-1,-1,340,70,,9999,0,0,1,FEW 30,1,15,1,1,1015,RJTF 230000Z 01009KT 340V070 9999 FEW030 15/01 Q1015 RMK     1CU030 A3000=
20170423_010000.002,0,RJTF,,,,0,20170423010000,-1,-1,-1,-1,360,-1,12,-1,-1,340,40,,9999,0,0,1,FEW 30,1,16,-1,1,1016,RJTF 230100Z 36012KT 340V040 9999 FEW030 16/M01 Q1016 RMK     1CU030 A3000=
20170423_020000.003,0,RJTF,,,,0,20170423020000,-1,-1,-1,-1,360,-1,8,-1,-1,300,30,,9999,0,0,1,FEW 30,1,16,1,0,1016,RJTF 230200Z 36008KT 300V030 9999 FEW030 16/00 Q1016 RMK     1CU030 A3001=
20170423_030000.002,0,RJTF,,,,0,20170423030000,-1,-1,-1,-1,30,-1,8,-1,-1,10,70,,9999,0,0,1,FEW 30,1,17,-1,2,1015,RJTF 230300Z 03008KT 010V070 9999 FEW030 17/M02 Q1015 RMK     1CU030 A2999=
20170423_040000.002,0,RJTF,,,,0,20170423040000,-1,-1,-1,-1,10,-1,9,-1,-1,340,50,,9999,0,0,1,FEW 30,1,19,1,0,1015,RJTF 230400Z 01009KT 340V050 9999 FEW030 19/00 Q1015 RMK     1CU030 A2999=
20170423_050000.002,0,RJTF,,,,0,20170423050000,-1,-1,-1,-1,999,-1,2,-1,-1,-1,-1,,9999,0,0,1,FEW 30,1,19,1,1,1015,RJTF 230500Z VRB02KT 9999 FEW030 19/01 Q1015 RMK 1CU030 A2998=
20170423_060000.002,0,RJTF,,,,0,20170423060000,-1,-1,-1,-1,130,-1,5,-1,-1,80,190,,9999,0,0,1,FEW 30,1,19,-1,2,1015,RJTF 230600Z 13005KT 080V190 9999 FEW030 19/M02 Q1015 RMK     1CU030 A2999=
20170423_070000.002,0,RJTF,,,,0,20170423070000,-1,-1,-1,-1,140,-1,9,-1,-1,-1,-1,,9999,0,0,1,FEW 30,1,19,1,0,1016,RJTF 230700Z 14009KT 9999 FEW030 19/00 Q1016 RMK 1CU030 A3000=
20170423_080000.002,0,RJTF,,,,0,20170423080000,-1,-1,-1,-1,200,-1,10,-1,-1,-1,-1,,9999,0,0,1,FEW 30,1,17,1,4,1017,RJTF 230800Z 20010KT 9999 FEW030 17/04 Q1017 RMK 1CU030 A3003=
20170423_090000.002,0,RJTF,,,,0,20170423090000,-1,-1,-1,-1,-1,-1,-1,-1,-1,-1,-1,,-1,0,0,0,,0,-1,0,-1,-1,RJTF 230900Z NIL=
20170423_233000.001,0,RJTF,,,,0,20170423230000,-1,-1,-1,-1,310,-1,3,-1,-1,200,360,,9999,0,0,3,FEW 25   SCT 35   BKN 40,1,14,1,6,1027,RJTF 232330Z 31003KT 200V360 9999 FEW025 SCT035 BKN040 14/06     Q1027 RMK 1CU025 3SC035 6SC040 A3034=
20170424_000000.002,0,RJTF,,,,0,20170424000000,-1,-1,-1,-1,999,-1,2,-1,-1,-1,-1,,9999,0,0,3,FEW 25   SCT 35   BKN 45,1,14,1,5,1027,RJTF 240000Z VRB02KT 9999 FEW025 SCT035 BKN045 14/05 Q1027 RMK     1CU025 3SC035 6SC045 A3034=
20170424_010000.002,0,RJTF,,,,0,20170424010000,-1,-1,-1,-1,20,-1,3,-1,-1,310,80,,9999,0,0,3,FEW 25   SCT 35   BKN 45,1,15,1,5,1027,RJTF 240100Z 02003KT 310V080 9999 FEW025 SCT035 BKN045 15/05     Q1027 RMK 1CU025 4SC035 7SC045 A3034=
20170424_020000.002,0,RJTF,,,,0,20170424020000,-1,-1,-1,-1,999,-1,3,-1,-1,-1,-1,,9999,0,0,2,FEW 30   BKN 40,1,17,1,7,1027,RJTF 240200Z VRB03KT 9999 FEW030 BKN040 17/07 Q1027 RMK 2CU030     6SC040 A3033=
20170424_030000.002,0,RJTF,,,,0,20170424030000,-1,-1,-1,-1,90,-1,5,-1,-1,40,130,,9999,0,0,2,FEW 30   BKN 40,1,16,1,5,1026,RJTF 240300Z 09005KT 040V130 9999 FEW030 BKN040 16/05 Q1026     RMK 1CU030 6SC040 A3031=
20170424_040000.002,0,RJTF,,,,0,20170424040000,-1,-1,-1,-1,130,-1,4,-1,-1,40,190,,9999,0,0,2,FEW 30   BKN 45,1,18,1,5,1026,RJTF 240400Z 13004KT 040V190 9999 FEW030 BKN045 18/05 Q1026     RMK 1CU030 5SC045 A3030=
20170424_050000.002,0,RJTF,,,,0,20170424050000,-1,-1,-1,-1,140,-1,6,-1,-1,70,200,,9999,0,0,2,FEW 30   SCT 45,1,19,1,6,1025,RJTF 240500Z 14006KT 070V200 9999 FEW030 SCT045 19/06 Q1025     RMK 1CU030 3SC045 A3029=
20170424_060000.002,0,RJTF,,,,0,20170424060000,-1,-1,-1,-1,160,-1,9,-1,-1,140,200,,9999,0,0,2,FEW 30   SCT 50,1,18,1,5,1025,RJTF 240600Z 16009KT 140V200 9999 FEW030 SCT050 18/05 Q1025     RMK 1CU030 3SC050 A3028=
20170424_070000.002,0,RJTF,,,,0,20170424070000,-1,-1,-1,-1,170,-1,10,-1,-1,-1,-1,,9999,0,0,1,FEW 30,1,18,1,6,1025,RJTF 240700Z 17010KT 9999 FEW030 18/06 Q1025 RMK 1CU030 A3028=
20170424_080000.002,0,RJTF,,,,0,20170424080000,-1,-1,-1,-1,190,-1,8,-1,-1,160,220,,9999,0,0,1,FEW 30,1,17,1,6,1025,RJTF 240800Z 19008KT 160V220 9999 FEW030 17/06 Q1025 RMK     1CU030 A3028=
20170424_090000.002,0,RJTF,,,,0,20170424090000,-1,-1,-1,-1,-1,-1,-1,-1,-1,-1,-1,,-1,0,0,0,,0,-1,0,-1,-1,RJTF 240900Z NIL=
20170424_233000.001,0,RJTF,,,,0,20170424230000,-1,-1,-1,-1,180,-1,8,-1,-1,150,220,,9999,0,0,2,FEW 25   SCT 45,1,16,1,8,1027,RJTF 242330Z 18008KT 150V220 9999 FEW025 SCT045 16/08 Q1027     RMK 2CU025 3SC045 A3034=
20170425_000000.002,0,RJTF,,,,0,20170425000000,-1,-1,-1,-1,190,-1,8,-1,-1,160,220,,9999,0,0,2,FEW 30   SCT 45,1,16,1,8,1027,RJTF 250000Z 19008KT 160V220 9999 FEW030 SCT045 16/08 Q1027     RMK 2CU030 4SC045 A3035=
20170425_010000.002,0,RJTF,,,,0,20170425010000,-1,-1,-1,-1,180,-1,8,-1,-1,140,240,,9999,0,0,2,FEW 30   SCT 40,1,17,1,6,1027,RJTF 250100Z 18008KT 140V240 9999 FEW030 SCT040 17/06 Q1027     RMK 1CU030 3SC040 A3034=
20170425_020000.002,0,RJTF,,,,0,20170425020000,-1,-1,-1,-1,180,-1,9,-1,-1,150,210,,9999,0,0,2,FEW 35   SCT -9999,1,19,1,7,1026,RJTF 250200Z 18009KT 150V210 9999 FEW035 SCT/// 19/07 Q1026     RMK 1CU035 A3031=
20170425_030000.003,0,RJTF,,,,0,20170425030000,-1,-1,-1,-1,150,-1,8,-1,-1,-1,-1,,9999,0,0,2,FEW 40   SCT -9999,1,19,1,4,1025,RJTF 250300Z 15008KT 9999 FEW040 SCT/// 19/04 Q1025 RMK 1SC040     A3028=
20170425_040000.002,0,RJTF,,,,0,20170425040000,-1,-1,-1,-1,180,-1,12,-1,-1,150,230,,9999,0,0,2,FEW 40   SCT -9999,1,20,1,4,1024,RJTF 250400Z 18012KT 150V230 9999 FEW040 SCT/// 20/04 Q1024     RMK 1SC040 A3026=
20170425_050000.002,0,RJTF,,,,0,20170425050000,-1,-1,-1,-1,170,-1,13,-1,-1,-1,-1,,9999,0,0,2,FEW 30   SCT -9999,1,20,1,5,1024,RJTF 250500Z 17013KT 9999 FEW030 SCT/// 20/05 Q1024 RMK 1CU030     A3024=
20170425_060000.002,0,RJTF,,,,0,20170425060000,-1,-1,-1,-1,180,-1,14,-1,-1,150,230,,9999,0,0,2,FEW 30   SCT -9999,1,19,1,4,1023,RJTF 250600Z 18014KT 150V230 9999 FEW030 SCT/// 19/04 Q1023     RMK 1CU030 A3021=
20170425_070000.003,0,RJTF,,,,0,20170425070000,-1,-1,-1,-1,180,-1,15,-1,-1,-1,-1,,9999,0,0,2,FEW 30   SCT -9999,1,18,1,6,1023,RJTF 250700Z 18015KT 9999 FEW030 SCT/// 18/06 Q1023 RMK 1CU030     A3021=
20170425_080000.002,0,RJTF,,,,0,20170425080000,-1,-1,-1,-1,170,-1,15,-1,-1,150,220,,9999,0,0,2,FEW 30   SCT -9999,1,17,1,7,1023,RJTF 250800Z 17015KT 150V220 9999 FEW030 SCT/// 17/07 Q1023     RMK 1CU030 A3023=
20170425_090000.002,0,RJTF,,,,0,20170425090000,-1,-1,-1,-1,-1,-1,-1,-1,-1,-1,-1,,-1,0,0,0,,0,-1,0,-1,-1,RJTF 250900Z NIL=
20170425_233000.001,0,RJTF,,,,0,20170425230000,-1,-1,-1,-1,190,-1,8,-1,-1,160,230,,9999,0,0,2,FEW 25   BKN 140,1,16,1,10,1017,RJTF 252330Z 19008KT 160V230 9999 FEW025 BKN140 16/10 Q1017     RMK 1CU025 7AC140 A3004=
20170426_000000.002,0,RJTF,,,,0,20170426000000,-1,-1,-1,-1,210,-1,8,-1,-1,170,240,,9999,0,0,3,FEW 25   SCT 140   BKN 160,1,17,1,10,1017,RJTF 260000Z 21008KT 170V240 9999 FEW025 SCT140 BKN160 17/10     Q1017 RMK 2CU025 4AC140 7AC160 A3004=
20170426_010000.003,0,RJTF,,,,0,20170426010000,-1,-1,-1,-1,190,-1,10,-1,-1,-1,-1,,9999,0,0,3,FEW 25   SCT 120   BKN 140,1,17,1,10,1016,RJTF 260100Z 19010KT 9999 FEW025 SCT120 BKN140 17/10 Q1016 RMK     2CU025 4AC120 7AC140 A3002=
20170426_020000.002,0,RJTF,,,,0,20170426020000,-1,-1,-1,-1,190,-1,10,-1,-1,160,220,,9999,0,0,3,FEW 30   SCT 120   BKN 150,1,18,1,10,1015,RJTF 260200Z 19010KT 160V220 9999 FEW030 SCT120 BKN150 18/10     Q1015 RMK 2CU030 4AC120 7AC150 A2998=
20170426_030000.002,0,RJTF,,,,0,20170426030000,-1,-1,-1,-1,190,-1,14,-1,-1,-1,-1,,9999,0,0,3,FEW 30   SCT 140   BKN 170,1,18,1,11,1014,RJTF 260300Z 19014KT 9999 FEW030 SCT140 BKN170 18/11 Q1014 RMK     2CU030 4AC140 7AC170 A2995=
20170426_040000.002,0,RJTF,,,,0,20170426040000,-1,-1,-1,-1,190,-1,12,-1,23,160,220,,9999,0,0,3,FEW 30   SCT 150   BKN 180,1,19,1,10,1013,RJTF 260400Z 19012G23KT 160V220 9999 FEW030 SCT150 BKN180     19/10 Q1013 RMK 1CU030 3AC150 7AC180 A2992=
20170426_050000.002,0,RJTF,,,,0,20170426050000,-1,-1,-1,-1,190,-1,12,-1,-1,150,220,,9999,0,0,3,FEW 30   SCT 140   BKN 180,1,19,1,10,1012,RJTF 260500Z 19012KT 150V220 9999 FEW030 SCT140 BKN180 19/10     Q1012 RMK 1CU030 4AC140 7AC180 A2990=
20170426_060000.002,0,RJTF,,,,0,20170426060000,-1,-1,-1,-1,180,-1,15,-1,28,-1,-1,,9999,0,0,3,FEW 30   SCT 110   BKN 180,1,20,1,9,1011,RJTF 260600Z 18015G28KT 9999 FEW030 SCT110 BKN180 20/09 Q1011     RMK 1CU030 4AC110 7AC180 A2986=
20170426_070000.002,0,RJTF,,,,0,20170426070000,-1,-1,-1,-1,190,-1,11,-1,24,150,230,,9999,0,0,3,FEW 30   BKN 130   BKN 180,1,19,1,9,1010,RJTF 260700Z 19011G24KT 150V230 9999 FEW030 BKN130 BKN180     19/09 Q1010 RMK 1CU030 5AC130 7AC180 A2984=
20170426_080000.002,0,RJTF,,,,0,20170426080000,-1,-1,-1,-1,180,-1,12,-1,-1,150,210,,9999,0,0,3,FEW 30   SCT 110   BKN -9999,1,18,1,10,1009,RJTF 260800Z 18012KT 150V210 9999 FEW030 SCT110 BKN/// 18/10     Q1009 RMK 1CU030 3AC110 A2982=
20170426_090000.003,0,RJTF,,,,0,20170426090000,-1,-1,-1,-1,-1,-1,-1,-1,-1,-1,-1,,-1,0,0,0,,0,-1,0,-1,-1,RJTF 260900Z NIL=
20170426_233000.001,0,RJTF,,,,0,20170426230000,-1,-1,-1,-1,20,-1,8,-1,-1,350,70,,9999,0,0,2,FEW 25   BKN 60,1,15,1,8,1004,RJTF 262330Z 02008KT 350V070 9999 FEW025 BKN060 15/08 Q1004     RMK 2CU025 7SC060 A2966=
20170427_000000.002,0,RJTF,,,,0,20170427000000,-1,-1,-1,-1,50,-1,7,-1,-1,360,110,,9999,0,0,3,FEW 20   BKN 60   BKN 150,1,15,1,9,1004,RJTF 270000Z 05007KT 360V110 9999 FEW020 BKN060 BKN150 15/09     Q1004 RMK 2CU020 5SC060 7AC150 A2966=
20170427_010000.002,0,RJTF,,,,0,20170427010000,-1,-1,-1,-1,20,-1,9,-1,-1,350,50,,9999,0,0,3,FEW 20   SCT 60   BKN 150,1,16,1,6,1004,RJTF 270100Z 02009KT 350V050 9999 FEW020 SCT060 BKN150 16/06     Q1004 RMK 1CU020 4SC060 6AC150 A2966=
20170427_020000.002,0,RJTF,,,,0,20170427020000,-1,-1,-1,-1,20,-1,12,-1,-1,350,70,,9999,0,0,3,FEW 20   SCT 80   BKN -9999,1,17,-1,1,1004,RJTF 270200Z 02012KT 350V070 9999 FEW020 SCT080 BKN/// 17/M01     Q1004 RMK 1CU020 4AC080 A2966=
20170427_030000.003,0,RJTF,,,,0,20170427030000,-1,-1,-1,-1,20,-1,10,-1,20,-1,-1,,9999,0,0,3,FEW 20   BKN 160   BKN -9999,1,19,-1,2,1003,RJTF 270300Z 02010G20KT 9999 FEW020 BKN160 BKN/// 19/M02 Q1003     RMK 1CU020 5AC160 A2964=
20170427_040000.002,0,RJTF,,,,0,20170427040000,-1,-1,-1,-1,20,-1,11,-1,-1,350,80,,9999,0,0,3,FEW 20   BKN 90   BKN 160,1,19,-1,3,1003,RJTF 270400Z 02011KT 350V080 9999 FEW020 BKN090 BKN160 19/M03     Q1003 RMK 1CU020 5AC090 6AC160 A2963=
20170427_050000.002,0,RJTF,,,,0,20170427050000,-1,-1,-1,-1,40,-1,10,-1,-1,10,70,,9999,0,0,3,FEW 30   SCT 100   BKN -9999,1,20,-1,0,1003,RJTF 270500Z 04010KT 010V070 9999 FEW030 SCT100 BKN/// 20/M00     Q1003 RMK 1CU030 3AC100 A2962=
20170427_060000.002,0,RJTF,,,,0,20170427060000,-1,-1,-1,-1,180,-1,8,-1,-1,-1,-1,,9999,0,0,3,FEW 30   SCT 170   BKN -9999,1,18,1,6,1003,RJTF 270600Z 18008KT 9999 FEW030 SCT170 BKN/// 18/06 Q1003 RMK     1CU030 3AC170 A2964=
20170427_070000.002,0,RJTF,,,,0,20170427070000,-1,-1,-1,-1,200,-1,9,-1,-1,170,240,,9999,0,0,2,FEW 30   BKN -9999,1,17,1,5,1004,RJTF 270700Z 20009KT 170V240 9999 FEW030 BKN/// 17/05 Q1004     RMK 1CU030 A2965=
20170427_080000.003,0,RJTF,,,,0,20170427080000,-1,-1,-1,-1,180,-1,8,-1,-1,-1,-1,,9999,0,0,2,FEW 30   BKN -9999,1,16,1,6,1004,RJTF 270800Z 18008KT 9999 FEW030 BKN/// 16/06 Q1004 RMK 1CU030     A2967=
20170427_090000.002,0,RJTF,,,,0,20170427090000,-1,-1,-1,-1,-1,-1,-1,-1,-1,-1,-1,,-1,0,0,0,,0,-1,0,-1,-1,RJTF 270900Z NIL=
20170427_233000.001,0,RJTF,,,,0,20170427230000,-1,-1,-1,-1,10,-1,7,-1,-1,330,50,,9999,0,0,2,FEW 30   SCT -9999,1,15,1,3,1007,RJTF 272330Z 01007KT 330V050 9999 FEW030 SCT/// 15/03 Q1007     RMK 2CU030 A2975=
20170428_000000.002,0,RJTF,,,,0,20170428000000,-1,-1,-1,-1,20,-1,6,-1,-1,320,70,,9999,0,0,1,FEW 30,1,16,1,5,1007,RJTF 280000Z 02006KT 320V070 9999 FEW030 16/05 Q1007 RMK     2CU030 A2975=
20170428_010000.002,0,RJTF,,,,0,20170428010000,-1,-1,-1,-1,999,-1,2,-1,-1,-1,-1,,9999,0,0,1,SCT 30,1,17,1,7,1007,RJTF 280100Z VRB02KT 9999 SCT030 17/07 Q1007 RMK 4CU030 A2975=
20170428_020000.002,0,RJTF,,,,0,20170428020000,-1,-1,-1,-1,999,-1,3,-1,-1,-1,-1,,9999,0,0,1,SCT 30,1,18,1,7,1006,RJTF 280200Z VRB03KT 9999 SCT030 18/07 Q1006 RMK 4CU030 A2973=
20170428_030000.002,0,RJTF,,,,0,20170428030000,-1,-1,-1,-1,110,-1,4,-1,-1,40,180,,9999,0,0,1,BKN 30,1,19,1,5,1006,RJTF 280300Z 11004KT 040V180 9999 BKN030 19/05 Q1006 RMK     5CU030 A2971=
20170428_040000.003,0,RJTF,,,,0,20170428040000,-1,-1,-1,-1,160,-1,9,-1,-1,110,220,,9999,0,0,1,SCT 30,1,21,1,2,1005,RJTF 280400Z 16009KT 110V220 9999 SCT030 21/02 Q1005 RMK     4CU030 A2968=
20170428_050000.002,0,RJTF,,,,0,20170428050000,-1,-1,-1,-1,170,-1,7,-1,-1,110,220,,9999,0,0,1,SCT 30,1,21,-1,2,1004,RJTF 280500Z 17007KT 110V220 9999 SCT030 21/M02 Q1004 RMK     3CU030 A2967=
20170428_060000.002,0,RJTF,,,,0,20170428060000,-1,-1,-1,-1,140,-1,7,-1,-1,80,200,,9999,0,0,1,SCT 30,1,21,-1,6,1004,RJTF 280600Z 14007KT 080V200 9999 SCT030 21/M06 Q1004 RMK     3CU030 A2965=
20170428_070000.003,0,RJTF,,,,0,20170428070000,-1,-1,-1,-1,140,-1,6,-1,-1,100,190,,9999,0,0,1,FEW 30,1,21,-1,7,1004,RJTF 280700Z 14006KT 100V190 9999 FEW030 21/M07 Q1004 RMK     2CU030 A2965=
20170428_080000.003,0,RJTF,,,,0,20170428080000,-1,-1,-1,-1,190,-1,6,-1,-1,150,230,,9999,0,0,1,FEW 30,1,19,1,3,1004,RJTF 280800Z 19006KT 150V230 9999 FEW030 19/03 Q1004 RMK     1CU030 A2966=
20170428_090000.002,0,RJTF,,,,0,20170428090000,-1,-1,-1,-1,-1,-1,-1,-1,-1,-1,-1,,-1,0,0,0,,0,-1,0,-1,-1,RJTF 280900Z NIL=
20170428_233000.001,0,RJTF,,,,0,20170428230000,-1,-1,-1,-1,999,-1,3,-1,-1,-1,-1,CAVOK,-1,0,0,0,,1,16,1,8,1007,RJTF 282330Z VRB03KT CAVOK 16/08 Q1007 RMK A2974=
20170429_000000.003,0,RJTF,,,,0,20170429000000,-1,-1,-1,-1,150,-1,4,-1,-1,90,240,,9999,0,0,1,FEW 30,1,18,1,9,1006,RJTF 290000Z 15004KT 090V240 9999 FEW030 18/09 Q1006 RMK     1CU030 A2972=
20170429_010000.002,0,RJTF,,,,0,20170429010000,-1,-1,-1,-1,180,-1,7,-1,-1,140,210,,9999,0,0,1,FEW 30,1,19,1,9,1005,RJTF 290100Z 18007KT 140V210 9999 FEW030 19/09 Q1005 RMK     1CU030 A2970=
20170429_020000.002,0,RJTF,,,,0,20170429020000,-1,-1,-1,-1,180,-1,8,-1,-1,120,210,,9999,0,0,2,FEW 30   SCT 180,1,20,1,6,1005,RJTF 290200Z 18008KT 120V210 9999 FEW030 SCT180 20/06 Q1005     RMK 1CU030 3AC180 A2968=
20170429_030000.002,0,RJTF,,,,0,20170429030000,-1,-1,-1,-1,180,-1,11,-1,-1,150,220,,9999,0,0,1,FEW 30,1,21,1,7,1003,RJTF 290300Z 18011KT 150V220 9999 FEW030 21/07 Q1003 RMK     1CU030 A2964=
20170429_040000.002,0,RJTF,,,,0,20170429040000,-1,-1,-1,-1,190,-1,10,-1,-1,160,250,,9999,0,0,2,FEW 30   SCT 100,1,22,1,6,1002,RJTF 290400Z 19010KT 160V250 9999 FEW030 SCT100 22/06 Q1002     RMK 1CU030 3AC100 A2961=
20170429_050000.002,0,RJTF,,,,0,20170429050000,-1,-1,-1,-1,200,-1,8,-1,18,130,260,,9999,0,0,2,FEW 30   SCT 90,1,23,1,6,1002,RJTF 290500Z 20008G18KT 130V260 9999 FEW030 SCT090 23/06 Q1002     RMK 1CU030 3AC090 A2959=
20170429_060000.002,0,RJTF,,,,0,20170429060000,-1,-1,-1,-1,210,-1,10,-1,-1,170,250,,9999,0,1,2,FEW 30   SCT 80,1,22,1,5,1001,RJTF 290600Z 21010KT 170V250 9999 VCSH FEW030 SCT080 22/05     Q1001 RMK 1CU030 3AC080 A2957=
20170429_070000.002,0,RJTF,,,,0,20170429070000,-1,-1,-1,-1,70,-1,6,-1,-1,40,130,,9999,0,0,1,FEW 20,1,21,1,5,1001,RJTF 290700Z 07006KT 040V130 9999 FEW020 21/05 Q1001 RMK     2CU020 A2958=
20170429_080000.002,0,RJTF,,,,0,20170429080000,-1,-1,-1,-1,190,-1,11,-1,-1,-1,-1,,9999,0,0,1,FEW 20,1,22,1,4,1001,RJTF 290800Z 19011KT 9999 FEW020 22/04 Q1001 RMK 1CU020 A2958=
20170429_090000.002,0,RJTF,,,,0,20170429090000,-1,-1,-1,-1,-1,-1,-1,-1,-1,-1,-1,,-1,0,0,0,,0,-1,0,-1,-1,RJTF 290900Z NIL=
20170429_233000.001,0,RJTF,,,,0,20170429230000,-1,-1,-1,-1,180,-1,4,-1,-1,100,230,CAVOK,-1,0,0,0,,1,18,1,7,1011,RJTF 292330Z 18004KT 100V230 CAVOK 18/07 Q1011 RMK A2986=
20170430_000000.002,0,RJTF,,,,0,20170430000000,-1,-1,-1,-1,180,-1,6,-1,-1,130,220,CAVOK,-1,0,0,0,,1,19,1,6,1011,RJTF 300000Z 18006KT 130V220 CAVOK 19/06 Q1011 RMK A2985=
20170430_010000.002,0,RJTF,,,,0,20170430010000,-1,-1,-1,-1,190,-1,10,-1,-1,150,220,CAVOK,-1,0,0,0,,1,21,1,4,1010,RJTF 300100Z 19010KT 150V220 CAVOK 21/04 Q1010 RMK A2985=
20170430_020000.002,0,RJTF,,,,0,20170430020000,-1,-1,-1,-1,180,-1,12,-1,-1,-1,-1,CAVOK,-1,0,0,0,,1,22,1,3,1010,RJTF 300200Z 18012KT CAVOK 22/03 Q1010 RMK A2983=
20170430_030000.002,0,RJTF,,,,0,20170430030000,-1,-1,-1,-1,180,-1,12,-1,-1,160,230,CAVOK,-1,0,0,0,,1,23,1,3,1009,RJTF 300300Z 18012KT 160V230 CAVOK 23/03 Q1009 RMK A2981=
20170430_040000.002,0,RJTF,,,,0,20170430040000,-1,-1,-1,-1,170,-1,14,-1,-1,130,210,CAVOK,-1,0,0,0,,1,23,1,2,1008,RJTF 300400Z 17014KT 130V210 CAVOK 23/02 Q1008 RMK A2979=
20170430_050000.003,0,RJTF,,,,0,20170430050000,-1,-1,-1,-1,170,-1,14,-1,-1,140,210,CAVOK,-1,0,0,0,,1,23,1,5,1008,RJTF 300500Z 17014KT 140V210 CAVOK 23/05 Q1008 RMK A2978=
20170430_060000.002,0,RJTF,,,,0,20170430060000,-1,-1,-1,-1,170,-1,13,-1,-1,-1,-1,CAVOK,-1,0,0,0,,1,23,1,7,1007,RJTF 300600Z 17013KT CAVOK 23/07 Q1007 RMK A2976=
20170430_070000.002,0,RJTF,,,,0,20170430070000,-1,-1,-1,-1,180,-1,11,-1,-1,150,220,CAVOK,-1,0,0,0,,1,24,1,7,1007,RJTF 300700Z 18011KT 150V220 CAVOK 24/07 Q1007 RMK A2975=
20170430_080000.002,0,RJTF,,,,0,20170430080000,-1,-1,-1,-1,170,-1,11,-1,-1,-1,-1,CAVOK,-1,0,0,0,,1,22,1,7,1007,RJTF 300800Z 17011KT CAVOK 22/07 Q1007 RMK A2974=
20170430_090000.002,0,RJTF,,,,0,20170430090000,-1,-1,-1,-1,-1,-1,-1,-1,-1,-1,-1,,-1,0,0,0,,0,-1,0,-1,-1,RJTF 300900Z NIL=
20170430_233000.001,0,RJTF,,,,0,20170430230000,-1,-1,-1,-1,340,-1,3,-1,-1,300,20,,9999,0,0,2,FEW 30   SCT -9999,1,19,1,8,1011,RJTF 302330Z 34003KT 300V020 9999 FEW030 SCT/// 19/08 Q1011     RMK 1CU030 A2986=
20170501_000000.002,0,RJTF,,,,0,20170501000000,-1,-1,-1,-1,999,-1,2,-1,-1,-1,-1,,9999,0,0,2,FEW 30   SCT -9999,1,21,1,8,1010,RJTF 010000Z VRB02KT 9999 FEW030 SCT/// 21/08 Q1010 RMK 1CU030     A2984=
20170501_010000.003,0,RJTF,,,,0,20170501010000,-1,-1,-1,-1,350,-1,5,-1,-1,260,70,,9999,0,0,2,FEW 30   SCT 120,1,23,1,8,1010,RJTF 010100Z 35005KT 260V070 9999 FEW030 SCT120 23/08 Q1010     RMK 1CU030 4AC120 A2984=
20170501_020000.002,0,RJTF,,,,0,20170501020000,-1,-1,-1,-1,360,-1,9,-1,-1,330,50,,9999,0,0,3,FEW 30   SCT 120   BKN 160,1,23,1,7,1010,RJTF 010200Z 36009KT 330V050 9999 FEW030 SCT120 BKN160 23/07     Q1010 RMK 1CU030 3AC120 5AC160 A2983=
20170501_030000.003,0,RJTF,,,,0,20170501030000,-1,-1,-1,-1,30,-1,6,-1,-1,340,110,,9999,0,0,3,FEW 30   SCT 100   BKN 140,1,24,1,6,1009,RJTF 010300Z 03006KT 340V110 9999 FEW030 SCT100 BKN140 24/06     Q1009 RMK 1CU030 3AC100 5AC140 A2981=
20170501_040000.002,0,RJTF,,,,0,20170501040000,-1,-1,-1,-1,350,-1,5,-1,-1,-1,-1,,9999,0,1,4,FEW 25   FEW 30 CB  SCT 40   BKN 70,1,21,1,9,1010,RJTF 010400Z 35005KT 9999 -TSRA FEW025 FEW030CB SCT040 BKN070     21/09 Q1010 RMK 1CU025 2CB030 4NS040 6AC070 A2984 FBL TS           5KM S-SW MOV E=
20170501_050000.002,0,RJTF,,,,0,20170501050000,-1,-1,-1,-1,360,-1,17,-1,-1,-1,-1,,9999,0,1,4,FEW 25   FEW 30 CB  SCT 40   BKN 70,1,16,1,10,1012,RJTF 010500Z 36017KT 9999 -TSRA FEW025 FEW030CB SCT040 BKN070     16/10 Q1012 RMK 1CU025 2CB030 4SC040 6AC070 A2988 FBL TS           15KM E-S MOV E=
20170501_060000.002,0,RJTF,,,,0,20170501060000,-1,-1,-1,-1,350,-1,8,-1,-1,310,20,,9999,0,0,4,FEW 25   FEW 30 CB  SCT 50   BKN 90,1,18,1,10,1011,RJTF 010600Z 35008KT 310V020 9999 FEW025 FEW030CB SCT050     BKN090 18/10 Q1011 RMK 1CU025 2CB030 4SC050 6AC090 A2987           CB 20KM W-NE MOV E=
20170501_070000.002,0,RJTF,,,,0,20170501070000,-1,-1,-1,-1,999,-1,2,-1,-1,-1,-1,,9999,0,0,3,FEW 25   SCT 50   BKN 150,1,19,1,11,1011,RJTF 010700Z VRB02KT 9999 FEW025 SCT050 BKN150 19/11 Q1011 RMK     1CU025 3SC050 5AC150 A2986=
20170501_080000.002,0,RJTF,,,,0,20170501080000,-1,-1,-1,-1,10,-1,3,-1,-1,320,60,CAVOK,-1,0,0,0,,1,18,1,11,1011,RJTF 010800Z 01003KT 320V060 CAVOK 18/11 Q1011 RMK A2987=
20170501_090000.002,0,RJTF,,,,0,20170501090000,-1,-1,-1,-1,-1,-1,-1,-1,-1,-1,-1,,-1,0,0,0,,0,-1,0,-1,-1,RJTF 010900Z NIL=
20170501_233000.001,0,RJTF,,,,0,20170501230000,-1,-1,-1,-1,360,-1,13,-1,-1,-1,-1,CAVOK,-1,0,0,0,,1,18,-1,3,1022,RJTF 012330Z 36013KT CAVOK 18/M03 Q1022 RMK A3019=
20170502_000000.002,0,RJTF,,,,0,20170502000000,-1,-1,-1,-1,350,-1,12,-1,-1,320,30,CAVOK,-1,0,0,0,,1,18,-1,4,1022,RJTF 020000Z 35012KT 320V030 CAVOK 18/M04 Q1022 RMK A3019=
20170502_010000.002,0,RJTF,,,,0,20170502010000,-1,-1,-1,-1,10,-1,13,-1,-1,330,50,CAVOK,-1,0,0,0,,1,20,-1,3,1022,RJTF 020100Z 01013KT 330V050 CAVOK 20/M03 Q1022 RMK A3021=
20170502_020000.002,0,RJTF,,,,0,20170502020000,-1,-1,-1,-1,10,-1,14,-1,-1,330,40,,9999,0,0,2,FEW 30   SCT -9999,1,20,-1,3,1022,RJTF 020200Z 01014KT 330V040 9999 FEW030 SCT/// 20/M03 Q1022     RMK 1CU030 A3021=
20170502_030000.002,0,RJTF,,,,0,20170502030000,-1,-1,-1,-1,350,-1,10,-1,-1,-1,-1,,9999,0,0,2,FEW 30   SCT -9999,1,21,-1,4,1022,RJTF 020300Z 35010KT 9999 FEW030 SCT/// 21/M04 Q1022 RMK     1CU030 A3020=
20170502_040000.002,0,RJTF,,,,0,20170502040000,-1,-1,-1,-1,70,-1,6,-1,-1,20,90,,9999,0,0,2,FEW 30   SCT -9999,1,22,-1,3,1022,RJTF 020400Z 07006KT 020V090 9999 FEW030 SCT/// 22/M03 Q1022     RMK 1CU030 A3019=
20170502_050000.002,0,RJTF,,,,0,20170502050000,-1,-1,-1,-1,999,-1,5,-1,-1,-1,-1,,9999,0,0,2,FEW 30   SCT -9999,1,23,-1,4,1022,RJTF 020500Z VRB05KT 9999 FEW030 SCT/// 23/M04 Q1022 RMK     1CU030 A3018=
20170502_060000.002,0,RJTF,,,,0,20170502060000,-1,-1,-1,-1,160,-1,9,-1,-1,-1,-1,,9999,0,0,2,FEW 30   SCT -9999,1,22,-1,0,1022,RJTF 020600Z 16009KT 9999 FEW030 SCT/// 22/M00 Q1022 RMK     1CU030 A3018=
20170502_070000.002,0,RJTF,,,,0,20170502070000,-1,-1,-1,-1,170,-1,10,-1,-1,140,220,CAVOK,-1,0,0,0,,1,21,-1,1,1022,RJTF 020700Z 17010KT 140V220 CAVOK 21/M01 Q1022 RMK A3019=
20170502_080000.002,0,RJTF,,,,0,20170502080000,-1,-1,-1,-1,170,-1,8,-1,-1,130,190,CAVOK,-1,0,0,0,,1,21,-1,2,1022,RJTF 020800Z 17008KT 130V190 CAVOK 21/M02 Q1022 RMK A3020=
20170502_090000.002,0,RJTF,,,,0,20170502090000,-1,-1,-1,-1,-1,-1,-1,-1,-1,-1,-1,,-1,0,0,0,,0,-1,0,-1,-1,RJTF 020900Z NIL=
20170502_233000.001,0,RJTF,,,,0,20170502230000,-1,-1,-1,-1,999,-1,2,-1,-1,-1,-1,,9999,0,0,2,FEW 30   BKN -9999,1,16,1,7,1028,RJTF 022330Z VRB02KT 9999 FEW030 BKN/// 16/07 Q1028 RMK 1CU030     A3036=
20170503_000000.002,0,RJTF,,,,0,20170503000000,-1,-1,-1,-1,190,-1,3,-1,-1,140,230,,9999,0,0,2,FEW 30   BKN -9999,1,17,1,7,1028,RJTF 030000Z 19003KT 140V230 9999 FEW030 BKN/// 17/07 Q1028     RMK 1CU030 A3036=
20170503_010000.002,0,RJTF,,,,0,20170503010000,-1,-1,-1,-1,180,-1,8,-1,-1,150,230,,9999,0,0,2,FEW 30   BKN -9999,1,19,1,7,1027,RJTF 030100Z 18008KT 150V230 9999 FEW030 BKN/// 19/07 Q1027     RMK 1CU030 A3034=
20170503_020000.002,0,RJTF,,,,0,20170503020000,-1,-1,-1,-1,180,-1,10,-1,-1,150,210,,9999,0,0,2,FEW 30   BKN -9999,1,20,1,8,1027,RJTF 030200Z 18010KT 150V210 9999 FEW030 BKN/// 20/08 Q1027     RMK 1CU030 A3034=
20170503_030000.002,0,RJTF,,,,0,20170503030000,-1,-1,-1,-1,180,-1,10,-1,-1,140,230,,9999,0,0,2,FEW 30   BKN -9999,1,21,1,7,1026,RJTF 030300Z 18010KT 140V230 9999 FEW030 BKN/// 21/07 Q1026     RMK 1CU030 A3031=
20170503_040000.002,0,RJTF,,,,0,20170503040000,-1,-1,-1,-1,190,-1,11,-1,-1,150,220,,9999,0,0,2,FEW 30   BKN -9999,1,21,1,6,1026,RJTF 030400Z 19011KT 150V220 9999 FEW030 BKN/// 21/06 Q1026     RMK 1CU030 A3030=
20170503_050000.002,0,RJTF,,,,0,20170503050000,-1,-1,-1,-1,170,-1,15,-1,-1,150,210,,9999,0,0,2,FEW 30   BKN -9999,1,21,1,5,1026,RJTF 030500Z 17015KT 150V210 9999 FEW030 BKN/// 21/05 Q1026     RMK 1CU030 A3030=
20170503_060000.002,0,RJTF,,,,0,20170503060000,-1,-1,-1,-1,180,-1,10,-1,-1,150,220,,9999,0,0,2,FEW 30   BKN -9999,1,20,1,7,1025,RJTF 030600Z 18010KT 150V220 9999 FEW030 BKN/// 20/07 Q1025     RMK 1CU030 A3028=
20170503_070000.002,0,RJTF,,,,0,20170503070000,-1,-1,-1,-1,180,-1,12,-1,-1,-1,-1,,9999,0,0,3,FEW 30   SCT 180   BKN -9999,1,19,1,7,1025,RJTF 030700Z 18012KT 9999 FEW030 SCT180 BKN/// 19/07 Q1025 RMK     1CU030 3AC180 A3028=
20170503_080000.002,0,RJTF,,,,0,20170503080000,-1,-1,-1,-1,180,-1,11,-1,-1,150,220,,9999,0,0,3,FEW 30   SCT 180   BKN -9999,1,18,1,7,1026,RJTF 030800Z 18011KT 150V220 9999 FEW030 SCT180 BKN/// 18/07     Q1026 RMK 1CU030 3AC180 A3030=
20170503_090000.002,0,RJTF,,,,0,20170503090000,-1,-1,-1,-1,-1,-1,-1,-1,-1,-1,-1,,-1,0,0,0,,0,-1,0,-1,-1,RJTF 030900Z NIL=
20170503_233000.001,0,RJTF,,,,0,20170503230000,-1,-1,-1,-1,190,-1,7,-1,-1,150,230,,9999,0,0,3,SCT 20   SCT 150   BKN -9999,1,18,1,11,1025,RJTF 032330Z 19007KT 150V230 9999 SCT020 SCT150 BKN/// 18/11     Q1025 RMK 4CU020 3AC150 A3028=
20170504_000000.002,0,RJTF,,,,0,20170504000000,-1,-1,-1,-1,180,-1,9,-1,-1,150,240,,9999,0,0,3,FEW 20   SCT 100   BKN -9999,1,19,1,10,1025,RJTF 040000Z 18009KT 150V240 9999 FEW020 SCT100 BKN/// 19/10     Q1025 RMK 2CU020 3AC100 A3028=
20170504_010000.002,0,RJTF,,,,0,20170504010000,-1,-1,-1,-1,200,-1,10,-1,-1,-1,-1,,9999,0,0,3,FEW 30   BKN 160   BKN -9999,1,19,1,10,1025,RJTF 040100Z 20010KT 9999 FEW030 BKN160 BKN/// 19/10 Q1025 RMK     2CU030 5AC160 A3028=
20170504_020000.002,0,RJTF,,,,0,20170504020000,-1,-1,-1,-1,180,-1,10,-1,-1,150,210,,9999,0,0,3,FEW 30   BKN 160   BKN -9999,1,20,1,8,1024,RJTF 040200Z 18010KT 150V210 9999 FEW030 BKN160 BKN/// 20/08     Q1024 RMK 1CU030 6AC160 A3026=
20170504_030000.002,0,RJTF,,,,0,20170504030000,-1,-1,-1,-1,170,-1,12,-1,-1,-1,-1,,9999,0,0,2,FEW 30   BKN 160,1,22,1,8,1023,RJTF 040300Z 17012KT 9999 FEW030 BKN160 22/08 Q1023 RMK 1CU030     6AC160 A3023=
20170504_040000.003,0,RJTF,,,,0,20170504040000,-1,-1,-1,-1,170,-1,15,-1,-1,-1,-1,,9999,0,0,2,FEW 30   BKN 160,1,22,1,7,1023,RJTF 040400Z 17015KT 9999 FEW030 BKN160 22/07 Q1023 RMK 1CU030     5AC160 A3022=
20170504_050000.002,0,RJTF,,,,0,20170504050000,-1,-1,-1,-1,170,-1,14,-1,-1,140,210,,9999,0,0,2,FEW 30   SCT 160,1,21,1,7,1022,RJTF 040500Z 17014KT 140V210 9999 FEW030 SCT160 21/07 Q1022     RMK 1CU030 4AC160 A3020=
20170504_060000.002,0,RJTF,,,,0,20170504060000,-1,-1,-1,-1,180,-1,11,-1,-1,150,260,,9999,0,0,1,FEW 30,1,21,1,10,1021,RJTF 040600Z 18011KT 150V260 9999 FEW030 21/10 Q1021 RMK     1CU030 A3017=
20170504_070000.002,0,RJTF,,,,0,20170504070000,-1,-1,-1,-1,170,-1,13,-1,-1,-1,-1,,9999,0,0,1,FEW 30,1,21,1,9,1021,RJTF 040700Z 17013KT 9999 FEW030 21/09 Q1021 RMK 1CU030 A3016=
20170504_080000.002,0,RJTF,,,,0,20170504080000,-1,-1,-1,-1,180,-1,13,-1,-1,-1,-1,,9999,0,0,1,FEW 30,1,20,1,9,1021,RJTF 040800Z 18013KT 9999 FEW030 20/09 Q1021 RMK 1CU030 A3016=
20170504_090000.002,0,RJTF,,,,0,20170504090000,-1,-1,-1,-1,-1,-1,-1,-1,-1,-1,-1,,-1,0,0,0,,0,-1,0,-1,-1,RJTF 040900Z NIL=
20170504_233000.001,0,RJTF,,,,0,20170504230000,-1,-1,-1,-1,200,-1,3,-1,-1,110,290,,9999,0,0,2,FEW 25   SCT -9999,1,19,1,11,1017,RJTF 042330Z 20003KT 110V290 9999 FEW025 SCT/// 19/11 Q1017     RMK 1CU025 A3006=
20170505_000000.003,0,RJTF,,,,0,20170505000000,-1,-1,-1,-1,999,-1,2,-1,-1,-1,-1,,9999,0,0,2,FEW 25   SCT -9999,1,20,1,12,1017,RJTF 050000Z VRB02KT 9999 FEW025 SCT/// 20/12 Q1017 RMK 1CU025     A3005=
20170505_010000.003,0,RJTF,,,,0,20170505010000,-1,-1,-1,-1,999,-1,3,-1,-1,-1,-1,,9999,0,0,2,FEW 30   SCT -9999,1,22,1,11,1017,RJTF 050100Z VRB03KT 9999 FEW030 SCT/// 22/11 Q1017 RMK 2CU030     A3004=
20170505_020000.002,0,RJTF,,,,0,20170505020000,-1,-1,-1,-1,210,-1,5,-1,-1,140,280,,9999,0,0,2,FEW 30   SCT -9999,1,23,1,11,1016,RJTF 050200Z 21005KT 140V280 9999 FEW030 SCT/// 23/11 Q1016     RMK 1CU030 A3001=
20170505_030000.002,0,RJTF,,,,0,20170505030000,-1,-1,-1,-1,999,-1,5,-1,-1,-1,-1,,9999,0,0,1,FEW 30,1,24,1,11,1015,RJTF 050300Z VRB05KT 9999 FEW030 24/11 Q1015 RMK 1CU030 A2997=
20170505_040000.004,0,RJTF,,,,0,20170505040000,-1,-1,-1,-1,150,-1,7,-1,-1,-1,-1,,9999,0,0,1,FEW 30,1,24,1,11,1014,RJTF 050400Z 15007KT 9999 FEW030 24/11 Q1014 RMK 1CU030 A2995=
20170505_050000.002,0,RJTF,,,,0,20170505050000,-1,-1,-1,-1,180,-1,7,-1,-1,-1,-1,,9999,0,0,1,FEW 30,1,25,1,11,1013,RJTF 050500Z 18007KT 9999 FEW030 25/11 Q1013 RMK 1CU030 A2993=
20170505_060000.002,0,RJTF,,,,0,20170505060000,-1,-1,-1,-1,190,-1,7,-1,-1,140,250,,9999,0,0,1,FEW 30,1,25,1,11,1013,RJTF 050600Z 19007KT 140V250 9999 FEW030 25/11 Q1013 RMK     1CU030 A2992=
20170505_070000.002,0,RJTF,,,,0,20170505070000,-1,-1,-1,-1,190,-1,7,-1,-1,160,230,,9999,0,0,1,FEW 30,1,24,1,11,1013,RJTF 050700Z 19007KT 160V230 9999 FEW030 24/11 Q1013 RMK     1CU030 A2992=
20170505_080000.002,0,RJTF,,,,0,20170505080000,-1,-1,-1,-1,190,-1,8,-1,-1,160,230,,9999,0,0,1,FEW 30,1,23,1,11,1013,RJTF 050800Z 19008KT 160V230 9999 FEW030 23/11 Q1013 RMK     1CU030 A2992=
20170505_090000.003,0,RJTF,,,,0,20170505090000,-1,-1,-1,-1,-1,-1,-1,-1,-1,-1,-1,,-1,0,0,0,,0,-1,0,-1,-1,RJTF 050900Z NIL=
20170505_233000.001,0,RJTF,,,,0,20170505230000,-1,-1,-1,-1,999,-1,2,-1,-1,-1,-1,,9999,0,0,2,FEW 20   BKN -9999,1,21,1,13,1011,RJTF 052330Z VRB02KT 9999 FEW020 BKN/// 21/13 Q1011 RMK 1CU020     A2988=
20170506_000000.003,0,RJTF,,,,0,20170506000000,-1,-1,-1,-1,999,-1,2,-1,-1,-1,-1,,9999,0,0,2,FEW 25   BKN -9999,1,23,1,14,1011,RJTF 060000Z VRB02KT 9999 FEW025 BKN/// 23/14 Q1011 RMK 1CU025     A2986=
20170506_010000.002,0,RJTF,,,,0,20170506010000,-1,-1,-1,-1,999,-1,5,-1,19,-1,-1,,9999,0,0,2,FEW 30   BKN -9999,1,24,1,15,1010,RJTF 060100Z VRB05G19KT 9999 FEW030 BKN/// 24/15 Q1010 RMK     1CU030 A2984=
20170506_020000.002,0,RJTF,,,,0,20170506020000,-1,-1,-1,-1,170,-1,8,-1,-1,140,210,,9999,0,0,3,FEW 30   SCT 130   BKN -9999,1,25,1,14,1009,RJTF 060200Z 17008KT 140V210 9999 FEW030 SCT130 BKN/// 25/14     Q1009 RMK 1CU030 3AC130 A2982=
20170506_030000.002,0,RJTF,,,,0,20170506030000,-1,-1,-1,-1,190,-1,9,-1,-1,140,220,,9999,0,0,2,FEW 30   BKN -9999,1,27,1,15,1008,RJTF 060300Z 19009KT 140V220 9999 FEW030 BKN/// 27/15 Q1008     RMK 1CU030 A2978=
20170506_040000.002,0,RJTF,,,,0,20170506040000,-1,-1,-1,-1,180,-1,11,-1,-1,-1,-1,,9999,0,0,2,FEW 30   BKN -9999,1,27,1,16,1007,RJTF 060400Z 18011KT 9999 FEW030 BKN/// 27/16 Q1007 RMK 1CU030     A2975=
20170506_050000.002,0,RJTF,,,,0,20170506050000,-1,-1,-1,-1,190,-1,12,-1,-1,150,230,,9999,0,0,2,FEW 30   BKN -9999,1,28,1,17,1006,RJTF 060500Z 19012KT 150V230 9999 FEW030 BKN/// 28/17 Q1006     RMK 1CU030 A2973=
20170506_060000.002,0,RJTF,,,,0,20170506060000,-1,-1,-1,-1,210,-1,11,-1,-1,160,250,,9999,0,0,2,FEW 30   BKN -9999,1,27,1,16,1006,RJTF 060600Z 21011KT 160V250 9999 FEW030 BKN/// 27/16 Q1006     RMK 1CU030 A2972=
20170506_070000.002,0,RJTF,,,,0,20170506070000,-1,-1,-1,-1,200,-1,12,-1,-1,-1,-1,,9999,0,0,2,FEW 30   BKN -9999,1,27,1,16,1006,RJTF 060700Z 20012KT 9999 FEW030 BKN/// 27/16 Q1006 RMK 1CU030     A2972=
20170506_080000.002,0,RJTF,,,,0,20170506080000,-1,-1,-1,-1,210,-1,8,-1,-1,160,240,,9999,0,0,2,FEW 30   BKN -9999,1,26,1,16,1006,RJTF 060800Z 21008KT 160V240 9999 FEW030 BKN/// 26/16 Q1006     RMK 1CU030 A2971=
20170506_090000.002,0,RJTF,,,,0,20170506090000,-1,-1,-1,-1,-1,-1,-1,-1,-1,-1,-1,,-1,0,0,0,,0,-1,0,-1,-1,RJTF 060900Z NIL=
20170506_233000.001,0,RJTF,,,,0,20170506230000,-1,-1,-1,-1,70,-1,5,-1,-1,30,120,,9999,0,0,3,SCT 18   BKN 40   BKN 160,1,20,1,15,1008,RJTF 062330Z 07005KT 030V120 9999 SCT018 BKN040 BKN160 20/15     Q1008 RMK 3CU018 5SC040 6AC160 A2977=
20170507_000000.002,0,RJTF,,,,0,20170507000000,-1,-1,-1,-1,50,-1,5,-1,-1,360,110,,9999,0,0,3,SCT 18   BKN 45   BKN 160,1,21,1,14,1008,RJTF 070000Z 05005KT 360V110 9999 SCT018 BKN045 BKN160 21/14     Q1008 RMK 3CU018 5SC045 6AC160 A2977=
20170507_010000.002,0,RJTF,,,,0,20170507010000,-1,-1,-1,-1,80,-1,5,-1,-1,360,150,,9999,0,0,3,FEW 25   SCT 30   BKN 160,1,22,1,14,1007,RJTF 070100Z 08005KT 360V150 9999 FEW025 SCT030 BKN160 22/14     Q1007 RMK 2CU025 3SC030 5AC160 A2975=
20170507_020000.003,0,RJTF,,,,0,20170507020000,-1,-1,-1,-1,160,-1,8,-1,-1,110,180,,9999,0,0,2,SCT 30   BKN 160,1,23,1,14,1006,RJTF 070200Z 16008KT 110V180 9999 SCT030 BKN160 23/14 Q1006     RMK 3CU030 5AC160 A2972=
20170507_030000.002,0,RJTF,,,,0,20170507030000,-1,-1,-1,-1,160,-1,10,-1,-1,-1,-1,,9999,0,0,2,FEW 30   BKN 170,1,23,1,15,1006,RJTF 070300Z 16010KT 9999 FEW030 BKN170 23/15 Q1006 RMK 1CU030     5AC170 A2971=
20170507_040000.002,0,RJTF,,,,0,20170507040000,-1,-1,-1,-1,150,-1,10,-1,-1,-1,-1,,9999,0,0,2,SCT 30   BKN 170,1,24,1,15,1005,RJTF 070400Z 15010KT 9999 SCT030 BKN170 24/15 Q1005 RMK 3CU030     6AC170 A2968=
20170507_050000.002,0,RJTF,,,,0,20170507050000,-1,-1,-1,-1,130,-1,12,-1,-1,-1,-1,,9999,0,0,3,SCT 30   BKN 40   BKN 180,1,23,1,14,1004,RJTF 070500Z 13012KT 9999 SCT030 BKN040 BKN180 23/14 Q1004 RMK     3CU030 5SC040 6AC180 A2966=
20170507_060000.002,0,RJTF,,,,0,20170507060000,-1,-1,-1,-1,160,-1,11,-1,-1,120,200,,9999,0,0,3,FEW 25   SCT 40   BKN 180,1,23,1,15,1003,RJTF 070600Z 16011KT 120V200 9999 FEW025 SCT040 BKN180 23/15     Q1003 RMK 1CU025 4SC040 6AC180 A2964=
20170507_070000.003,0,RJTF,,,,0,20170507070000,-1,-1,-1,-1,170,-1,9,-1,-1,130,210,,9999,0,0,3,FEW 25   SCT 50   BKN -9999,1,23,1,14,1003,RJTF 070700Z 17009KT 130V210 9999 FEW025 SCT050 BKN/// 23/14     Q1003 RMK 1CU025 3SC050 A2963=
20170507_080000.002,0,RJTF,,,,0,20170507080000,-1,-1,-1,-1,140,-1,10,-1,-1,110,180,,9999,0,0,2,FEW 30   BKN -9999,1,22,1,15,1003,RJTF 070800Z 14010KT 110V180 9999 FEW030 BKN/// 22/15 Q1003     RMK 2CU030 A2963=
20170507_090000.003,0,RJTF,,,,0,20170507090000,-1,-1,-1,-1,-1,-1,-1,-1,-1,-1,-1,,-1,0,0,0,,0,-1,0,-1,-1,RJTF 070900Z NIL=
20170507_233000.001,0,RJTF,,,,0,20170507230000,-1,-1,-1,-1,999,-1,2,-1,-1,-1,-1,CAVOK,-1,0,0,0,,1,19,1,11,1009,RJTF 072330Z VRB02KT CAVOK 19/11 Q1009 RMK A2982=
20170508_000000.002,0,RJTF,,,,0,20170508000000,-1,-1,-1,-1,170,-1,4,-1,-1,120,250,CAVOK,-1,0,0,0,,1,21,1,10,1009,RJTF 080000Z 17004KT 120V250 CAVOK 21/10 Q1009 RMK A2980=
20170508_010000.002,0,RJTF,,,,0,20170508010000,-1,-1,-1,-1,170,-1,6,-1,-1,140,210,CAVOK,-1,0,0,0,,1,23,1,9,1008,RJTF 080100Z 17006KT 140V210 CAVOK 23/09 Q1008 RMK A2978=
20170508_020000.002,0,RJTF,,,,0,20170508020000,-1,-1,-1,-1,190,-1,6,-1,-1,140,270,CAVOK,-1,0,0,0,,1,25,1,6,1007,RJTF 080200Z 19006KT 140V270 CAVOK 25/06 Q1007 RMK A2976=
20170508_030000.002,0,RJTF,,,,0,20170508030000,-1,-1,-1,-1,170,-1,8,-1,-1,110,220,CAVOK,-1,0,0,0,,1,26,1,6,1007,RJTF 080300Z 17008KT 110V220 CAVOK 26/06 Q1007 RMK A2974=
20170508_040000.002,0,RJTF,,,,0,20170508040000,-1,-1,-1,-1,170,-1,7,-1,-1,100,240,CAVOK,-1,0,0,0,,1,27,1,7,1006,RJTF 080400Z 17007KT 100V240 CAVOK 27/07 Q1006 RMK A2971=
20170508_050000.002,0,RJTF,,,,0,20170508050000,-1,-1,-1,-1,150,-1,6,-1,-1,100,230,,9999,0,0,2,FEW 30   SCT -9999,1,28,1,6,1005,RJTF 080500Z 15006KT 100V230 9999 FEW030 SCT/// 28/06 Q1005     RMK 1CU030 A2969=
20170508_060000.002,0,RJTF,,,,0,20170508060000,-1,-1,-1,-1,190,-1,6,-1,-1,130,230,,9999,0,0,2,FEW 30   SCT -9999,1,28,1,6,1005,RJTF 080600Z 19006KT 130V230 9999 FEW030 SCT/// 28/06 Q1005     RMK 1CU030 A2968=
20170508_070000.002,0,RJTF,,,,0,20170508070000,-1,-1,-1,-1,170,-1,7,-1,-1,110,220,CAVOK,-1,0,0,0,,1,28,1,6,1005,RJTF 080700Z 17007KT 110V220 CAVOK 28/06 Q1005 RMK A2968=
20170508_080000.002,0,RJTF,,,,0,20170508080000,-1,-1,-1,-1,170,-1,7,-1,-1,-1,-1,CAVOK,-1,0,0,0,,1,27,1,6,1005,RJTF 080800Z 17007KT CAVOK 27/06 Q1005 RMK A2969=
20170508_090000.002,0,RJTF,,,,0,20170508090000,-1,-1,-1,-1,-1,-1,-1,-1,-1,-1,-1,,-1,0,0,0,,0,-1,0,-1,-1,RJTF 080900Z NIL=
20170508_233000.001,0,RJTF,,,,0,20170508230000,-1,-1,-1,-1,90,-1,5,-1,-1,70,130,,9999,0,0,2,FEW 30   BKN -9999,1,19,1,7,1018,RJTF 082330Z 09005KT 070V130 9999 FEW030 BKN/// 19/07 Q1018     RMK 1CU030 A3008=
20170509_000000.002,0,RJTF,,,,0,20170509000000,-1,-1,-1,-1,120,-1,6,-1,-1,90,160,,9999,0,0,2,FEW 30   BKN -9999,1,19,1,7,1018,RJTF 090000Z 12006KT 090V160 9999 FEW030 BKN/// 19/07 Q1018     RMK 1CU030 A3009=
20170509_010000.002,0,RJTF,,,,0,20170509010000,-1,-1,-1,-1,130,-1,5,-1,-1,80,180,,9999,0,0,2,FEW 30   BKN -9999,1,20,1,7,1019,RJTF 090100Z 13005KT 080V180 9999 FEW030 BKN/// 20/07 Q1019     RMK 1CU030 A3010=
20170509_020000.002,0,RJTF,,,,0,20170509020000,-1,-1,-1,-1,170,-1,6,-1,-1,140,200,,9999,0,0,2,FEW 30   BKN -9999,1,21,1,4,1018,RJTF 090200Z 17006KT 140V200 9999 FEW030 BKN/// 21/04 Q1018     RMK 1CU030 A3009=
20170509_030000.002,0,RJTF,,,,0,20170509030000,-1,-1,-1,-1,150,-1,4,-1,-1,100,200,,9999,0,0,3,FEW 30   SCT 150   BKN -9999,1,21,1,7,1018,RJTF 090300Z 15004KT 100V200 9999 FEW030 SCT150 BKN/// 21/07     Q1018 RMK 1CU030 3AC150 A3008=
20170509_040000.002,0,RJTF,,,,0,20170509040000,-1,-1,-1,-1,150,-1,7,-1,-1,120,190,,9999,0,0,3,FEW 30   BKN 150   BKN -9999,1,22,1,8,1018,RJTF 090400Z 15007KT 120V190 9999 FEW030 BKN150 BKN/// 22/08     Q1018 RMK 1CU030 5AC150 A3007=
20170509_050000.002,0,RJTF,,,,0,20170509050000,-1,-1,-1,-1,170,-1,8,-1,-1,140,210,,9999,0,0,3,FEW 30   SCT 170   BKN -9999,1,22,1,6,1017,RJTF 090500Z 17008KT 140V210 9999 FEW030 SCT170 BKN/// 22/06     Q1017 RMK 1CU030 4AC170 A3006=
20170509_060000.002,0,RJTF,,,,0,20170509060000,-1,-1,-1,-1,160,-1,8,-1,-1,120,190,,9999,0,0,3,FEW 30   BKN 170   BKN -9999,1,22,1,6,1017,RJTF 090600Z 16008KT 120V190 9999 FEW030 BKN170 BKN/// 22/06     Q1017 RMK 1CU030 5AC170 A3004=
20170509_070000.002,0,RJTF,,,,0,20170509070000,-1,-1,-1,-1,160,-1,9,-1,-1,130,200,,9999,0,0,3,FEW 30   BKN 170   OVC -9999,1,22,1,7,1017,RJTF 090700Z 16009KT 130V200 9999 FEW030 BKN170 OVC/// 22/07     Q1017 RMK 1CU030 7AC170 A3004=
20170509_080000.002,0,RJTF,,,,0,20170509080000,-1,-1,-1,-1,180,-1,9,-1,-1,-1,-1,,9999,0,0,3,FEW 30   BKN 160   OVC -9999,1,21,1,8,1017,RJTF 090800Z 18009KT 9999 FEW030 BKN160 OVC/// 21/08 Q1017 RMK     1CU030 7AC160 A3003=
20170509_090000.002,0,RJTF,,,,0,20170509090000,-1,-1,-1,-1,-1,-1,-1,-1,-1,-1,-1,,-1,0,0,0,,0,-1,0,-1,-1,RJTF 090900Z NIL=
20170509_233000.001,0,RJTF,,,,0,20170509230000,-1,-1,-1,-1,999,-1,2,-1,-1,-1,-1,,5000,0,2,3,FEW 10   BKN 13   BKN 40,1,16,1,14,1015,RJTF 092330Z VRB02KT 5000 -RA BR FEW010 BKN013 BKN040 16/14     Q1015 RMK 2ST010 6ST013 7SC040 A2997=
20170510_000000.002,0,RJTF,,,,0,20170510000000,-1,-1,-1,-1,999,-1,1,-1,-1,-1,-1,,5000,0,2,3,FEW 8   BKN 10   BKN 15,1,16,1,14,1014,RJTF 100000Z VRB01KT 5000 -RA BR FEW008 BKN010 BKN015 16/14     Q1014 RMK 2ST008 5ST010 7SC015 A2996=
20170510_010000.002,0,RJTF,,,,0,20170510010000,-1,-1,-1,-1,150,-1,4,-1,-1,-1,-1,,4500,0,2,3,FEW 6   BKN 9   BKN 15,1,16,1,14,1014,RJTF 100100Z 15004KT 4500 -RA BR FEW006 BKN009 BKN015 16/14     Q1014 RMK 2ST006 5ST009 7SC015 A2996=
20170510_020000.002,0,RJTF,,,,0,20170510020000,-1,-1,-1,-1,160,-1,4,-1,-1,110,190,,3000,0,2,3,SCT 6   BKN 8   BKN 15,1,16,1,14,1014,RJTF 100200Z 16004KT 110V190 3000 -RA BR SCT006 BKN008 BKN015     16/14 Q1014 RMK 3ST006 5ST008 7SC015 A2995=
20170510_030000.002,0,RJTF,,,,0,20170510030000,-1,-1,-1,-1,999,-1,2,-1,-1,-1,-1,,9999,0,1,3,FEW 5   BKN 8   BKN 20,1,17,1,15,1013,RJTF 100300Z VRB02KT 9999 -RA FEW005 BKN008 BKN020 17/15 Q1013     RMK 1ST005 5ST008 7SC020 A2992=
20170510_040000.002,0,RJTF,,,,0,20170510040000,-1,-1,-1,-1,999,-1,2,-1,-1,-1,-1,,9999,0,0,3,FEW 5   BKN 12   BKN 20,1,17,1,14,1012,RJTF 100400Z VRB02KT 9999 FEW005 BKN012 BKN020 17/14 Q1012 RMK     2ST005 5CU012 7SC020 A2990=
20170510_050000.003,0,RJTF,,,,0,20170510050000,-1,-1,-1,-1,999,-1,2,-1,-1,-1,-1,,9999,0,0,3,FEW 7   SCT 12   BKN 20,1,17,1,14,1011,RJTF 100500Z VRB02KT 9999 FEW007 SCT012 BKN020 17/14 Q1011 RMK     1ST007 4CU012 7SC020 A2987=
20170510_060000.002,0,RJTF,,,,0,20170510060000,-1,-1,-1,-1,999,-1,1,-1,-1,-1,-1,,9999,0,0,2,FEW 12   BKN 20,1,17,1,14,1010,RJTF 100600Z VRB01KT 9999 FEW012 BKN020 17/14 Q1010 RMK 2CU012     7SC020 A2984=
20170510_070000.002,0,RJTF,,,,0,20170510070000,-1,-1,-1,-1,999,-1,2,-1,-1,-1,-1,,6000,0,1,3,FEW 12   BKN 18   BKN 25,1,17,1,14,1010,RJTF 100700Z VRB02KT 6000 -RA FEW012 BKN018 BKN025 17/14 Q1010     RMK 2CU012 6SC018 7SC025 A2983=
20170510_080000.002,0,RJTF,,,,0,20170510080000,-1,-1,-1,-1,999,-1,2,-1,-1,-1,-1,,6000,0,0,3,FEW 10   SCT 18   BKN 25,1,17,1,15,1009,RJTF 100800Z VRB02KT 6000 FEW010 SCT018 BKN025 17/15 Q1009 RMK     2CU010 4SC018 7SC025 A2981=
20170510_090000.003,0,RJTF,,,,0,20170510090000,-1,-1,-1,-1,-1,-1,-1,-1,-1,-1,-1,,-1,0,0,0,,0,-1,0,-1,-1,RJTF 100900Z NIL=
20170510_233000.001,0,RJTF,,,,0,20170510230000,-1,-1,-1,-1,999,-1,2,-1,-1,-1,-1,,9999,0,0,1,FEW 20,1,21,1,13,1007,RJTF 102330Z VRB02KT 9999 FEW020 21/13 Q1007 RMK 1CU020 A2974=
20170511_000000.002,0,RJTF,,,,0,20170511000000,-1,-1,-1,-1,10,-1,5,-1,-1,320,60,,9999,0,0,1,FEW 20,1,23,1,13,1006,RJTF 110000Z 01005KT 320V060 9999 FEW020 23/13 Q1006 RMK     1CU020 A2973=
20170511_010000.002,0,RJTF,,,,0,20170511010000,-1,-1,-1,-1,999,-1,4,-1,-1,-1,-1,,9999,0,0,1,FEW 30,1,24,1,12,1007,RJTF 110100Z VRB04KT 9999 FEW030 24/12 Q1007 RMK 1CU030 A2974=
20170511_020000.002,0,RJTF,,,,0,20170511020000,-1,-1,-1,-1,300,-1,3,-1,-1,220,20,,9999,0,0,2,FEW 30   SCT -9999,1,25,1,12,1006,RJTF 110200Z 30003KT 220V020 9999 FEW030 SCT/// 25/12 Q1006     RMK 1CU030 A2973=
20170511_030000.002,0,RJTF,,,,0,20170511030000,-1,-1,-1,-1,220,-1,5,-1,-1,150,280,,9999,0,0,3,FEW 30   SCT 90   BKN -9999,1,25,1,11,1006,RJTF 110300Z 22005KT 150V280 9999 FEW030 SCT090 BKN/// 25/11     Q1006 RMK 1CU030 3AC090 A2973=
20170511_040000.002,0,RJTF,,,,0,20170511040000,-1,-1,-1,-1,140,-1,8,-1,18,80,250,,9999,0,0,2,FEW 30   SCT 80,1,27,1,14,1006,RJTF 110400Z 14008G18KT 080V250 9999 FEW030 SCT080 27/14 Q1006     RMK 1CU030 3AC080 A2972=
20170511_050000.002,0,RJTF,,,,0,20170511050000,-1,-1,-1,-1,150,-1,10,-1,-1,110,210,,9999,0,0,2,FEW 30   SCT 80,1,26,1,13,1006,RJTF 110500Z 15010KT 110V210 9999 FEW030 SCT080 26/13 Q1006     RMK 1CU030 3AC080 A2971=
20170511_060000.002,0,RJTF,,,,0,20170511060000,-1,-1,-1,-1,999,-1,3,-1,-1,-1,-1,,9999,0,0,3,FEW 30   SCT 50   BKN -9999,1,27,1,12,1006,RJTF 110600Z VRB03KT 9999 FEW030 SCT050 BKN/// 27/12 Q1006 RMK     1CU030 3SC050 A2971=
20170511_070000.002,0,RJTF,,,,0,20170511070000,-1,-1,-1,-1,140,-1,9,-1,-1,110,180,,9999,0,0,3,FEW 30   SCT 60   BKN -9999,1,27,1,12,1006,RJTF 110700Z 14009KT 110V180 9999 FEW030 SCT060 BKN/// 27/12     Q1006 RMK 1CU030 3SC060 A2972=
20170511_080000.002,0,RJTF,,,,0,20170511080000,-1,-1,-1,-1,180,-1,6,-1,-1,-1,-1,,9999,0,1,3,FEW 30   SCT 70   BKN -9999,1,26,1,11,1006,RJTF 110800Z 18006KT 9999 -RA FEW030 SCT070 BKN/// 26/11 Q1006     RMK 1CU030 3AC070 A2973=
20170511_090000.002,0,RJTF,,,,0,20170511090000,-1,-1,-1,-1,-1,-1,-1,-1,-1,-1,-1,,-1,0,0,0,,0,-1,0,-1,-1,RJTF 110900Z NIL=
20170511_233000.001,0,RJTF,,,,0,20170511230000,-1,-1,-1,-1,340,-1,4,-1,-1,290,40,,7000,0,0,2,FEW 15   BKN -9999,1,21,1,15,1014,RJTF 112330Z 34004KT 290V040 7000 FEW015 BKN/// 21/15 Q1014     RMK 1CU015 A2994=
20170512_000000.002,0,RJTF,,,,0,20170512000000,-1,-1,-1,-1,999,-1,4,-1,-1,-1,-1,,8000,0,0,2,FEW 20   BKN -9999,1,22,1,15,1014,RJTF 120000Z VRB04KT 8000 FEW020 BKN/// 22/15 Q1014 RMK 1CU020     A2995=
20170512_010000.002,0,RJTF,,,,0,20170512010000,-1,-1,-1,-1,310,-1,4,-1,-1,250,30,,9999,0,0,2,FEW 30   BKN -9999,1,24,1,15,1013,RJTF 120100Z 31004KT 250V030 9999 FEW030 BKN/// 24/15 Q1013     RMK 1CU030 A2994=
20170512_020000.002,0,RJTF,,,,0,20170512020000,-1,-1,-1,-1,999,-1,5,-1,-1,-1,-1,,9999,0,0,2,FEW 30   BKN -9999,1,26,1,13,1013,RJTF 120200Z VRB05KT 9999 FEW030 BKN/// 26/13 Q1013 RMK 1CU030     A2993=
20170512_030000.002,0,RJTF,,,,0,20170512030000,-1,-1,-1,-1,80,-1,5,-1,-1,360,180,,9999,0,0,2,FEW 30   BKN -9999,1,27,1,13,1013,RJTF 120300Z 08005KT 360V180 9999 FEW030 BKN/// 27/13 Q1013     RMK 1CU030 A2991=
20170512_040000.002,0,RJTF,,,,0,20170512040000,-1,-1,-1,-1,140,-1,7,-1,-1,70,210,,9999,0,0,2,FEW 30   BKN -9999,1,28,1,13,1013,RJTF 120400Z 14007KT 070V210 9999 FEW030 BKN/// 28/13 Q1013     RMK 1CU030 A2991=
20170512_050000.002,0,RJTF,,,,0,20170512050000,-1,-1,-1,-1,170,-1,9,-1,-1,-1,-1,,9999,0,0,2,FEW 30   BKN -9999,1,27,1,10,1012,RJTF 120500Z 17009KT 9999 FEW030 BKN/// 27/10 Q1012 RMK 1CU030     A2990=
20170512_060000.002,0,RJTF,,,,0,20170512060000,-1,-1,-1,-1,150,-1,9,-1,-1,120,180,,9999,0,0,3,FEW 30   SCT 170   BKN -9999,1,27,1,12,1012,RJTF 120600Z 15009KT 120V180 9999 FEW030 SCT170 BKN/// 27/12     Q1012 RMK 1CU030 3AC170 A2990=
20170512_070000.002,0,RJTF,,,,0,20170512070000,-1,-1,-1,-1,130,-1,13,-1,-1,-1,-1,,9999,0,0,3,FEW 30   BKN 170   BKN -9999,1,25,1,15,1013,RJTF 120700Z 13013KT 9999 FEW030 BKN170 BKN/// 25/15 Q1013 RMK     1CU030 5AC170 A2992=
20170512_080000.002,0,RJTF,,,,0,20170512080000,-1,-1,-1,-1,130,-1,11,-1,-1,-1,-1,,9999,0,0,2,FEW 30   BKN 170,1,24,1,15,1013,RJTF 120800Z 13011KT 9999 FEW030 BKN170 24/15 Q1013 RMK 1CU030     7AC170 A2991=
20170512_090000.002,0,RJTF,,,,0,20170512090000,-1,-1,-1,-1,-1,-1,-1,-1,-1,-1,-1,,-1,0,0,0,,0,-1,0,-1,-1,RJTF 120900Z NIL=
20170512_233000.001,0,RJTF,,,,0,20170512230000,-1,-1,-1,-1,170,-1,4,-1,-1,-1,-1,,8000,0,1,3,FEW 12   SCT 60   BKN 100,1,19,1,16,1012,RJTF 122330Z 17004KT 8000 -RA FEW012 SCT060 BKN100 19/16 Q1012     RMK 1CU012 3SC060 6AC100 A2989=
20170513_000000.002,0,RJTF,,,,0,20170513000000,-1,-1,-1,-1,170,-1,4,-1,-1,120,200,,7000,0,1,3,FEW 14   SCT 60   BKN 80,1,19,1,15,1011,RJTF 130000Z 17004KT 120V200 7000 -RA FEW014 SCT060 BKN080     19/15 Q1011 RMK 1CU014 3SC060 6AC080 A2988=
20170513_010000.003,0,RJTF,,,,0,20170513010000,-1,-1,-1,-1,999,-1,2,-1,-1,-1,-1,,6000,0,1,3,FEW 13   SCT 40   BKN 50,1,19,1,16,1011,RJTF 130100Z VRB02KT 6000 -RA FEW013 SCT040 BKN050 19/16 Q1011     RMK 2CU013 4SC040 7SC050 A2988=
20170513_020000.002,0,RJTF,,,,0,20170513020000,-1,-1,-1,-1,999,-1,2,-1,-1,-1,-1,,5000,0,2,3,FEW 12   SCT 20   BKN 40,1,18,1,15,1010,RJTF 130200Z VRB02KT 5000 -RA BR FEW012 SCT020 BKN040 18/15     Q1010 RMK 2CU012 4CU020 7SC040 A2983=
20170513_030000.002,0,RJTF,,,,0,20170513030000,-1,-1,-1,-1,999,-1,3,-1,-1,-1,-1,,3000,0,2,3,SCT 10   BKN 15   BKN 20,1,18,1,16,1009,RJTF 130300Z VRB03KT 3000 SHRA BR SCT010 BKN015 BKN020 18/16     Q1009 RMK 3ST010 5CU015 7SC020 A2982=
20170513_040000.002,0,RJTF,,,,0,20170513040000,-1,-1,-1,-1,120,-1,4,-1,-1,100,160,,3000,0,2,3,SCT 6   BKN 15   BKN 20,1,17,1,16,1008,RJTF 130400Z 12004KT 100V160 3000 SHRA BR SCT006 BKN015 BKN020     17/16 Q1008 RMK 3ST006 5CU015 7SC020 A2979=
20170513_050000.002,0,RJTF,,,,0,20170513050000,-1,-1,-1,-1,20,-1,4,-1,-1,340,70,,3000,0,2,3,SCT 8   BKN 12   BKN 20,1,17,1,16,1008,RJTF 130500Z 02004KT 340V070 3000 +SHRA BR SCT008 BKN012     BKN020 17/16 Q1008 RMK 4ST008 6CU012 7SC020 A2977=
20170513_060000.003,0,RJTF,,,,0,20170513060000,-1,-1,-1,-1,50,-1,6,-1,-1,10,80,,3500,0,2,3,SCT 8   BKN 15   BKN 30,1,17,1,16,1006,RJTF 130600Z 05006KT 010V080 3500 -SHRA BR SCT008 BKN015     BKN030 17/16 Q1006 RMK 4ST008 5CU015 7SC030 A2971=
20170513_070000.002,0,RJTF,,,,0,20170513070000,-1,-1,-1,-1,10,-1,8,-1,-1,-1,-1,,2500,0,2,3,SCT 6   BKN 8   BKN 15,1,17,1,16,1005,RJTF 130700Z 01008KT 2500 SHRA BR SCT006 BKN008 BKN015 17/16     Q1005 RMK 4ST006 5ST008 7CU015 A2968=
20170513_080000.003,0,RJTF,,,,0,20170513080000,-1,-1,-1,-1,350,-1,10,-1,-1,-1,-1,,2500,0,2,3,SCT 5   BKN 8   BKN 15,1,16,1,15,1004,RJTF 130800Z 35010KT 2500 -SHRA BR SCT005 BKN008 BKN015 16/15     Q1004 RMK 4ST005 5ST008 7CU015 A2966=
20170513_090000.002,0,RJTF,,,,0,20170513090000,-1,-1,-1,-1,-1,-1,-1,-1,-1,-1,-1,,-1,0,0,0,,0,-1,0,-1,-1,RJTF 130900Z NIL=
20170513_233000.001,0,RJTF,,,,0,20170513230000,-1,-1,-1,-1,360,-1,8,-1,-1,-1,-1,,9999,0,0,2,FEW 20   BKN 25,1,18,1,13,1011,RJTF 132330Z 36008KT 9999 FEW020 BKN025 18/13 Q1011 RMK 2CU020     7SC025 A2986=
20170514_000000.002,0,RJTF,,,,0,20170514000000,-1,-1,-1,-1,360,-1,7,-1,-1,-1,-1,,9999,0,0,2,FEW 20   BKN 25,1,18,1,13,1011,RJTF 140000Z 36007KT 9999 FEW020 BKN025 18/13 Q1011 RMK 1CU020     7SC025 A2986=
20170514_010000.002,0,RJTF,,,,0,20170514010000,-1,-1,-1,-1,20,-1,9,-1,-1,-1,-1,,9999,0,0,3,FEW 20   BKN 25   BKN 30,1,19,1,13,1010,RJTF 140100Z 02009KT 9999 FEW020 BKN025 BKN030 19/13 Q1010 RMK     1CU020 6SC025 7SC030 A2984=
20170514_020000.003,0,RJTF,,,,0,20170514020000,-1,-1,-1,-1,10,-1,7,-1,-1,330,40,,9999,0,0,3,FEW 20   BKN 25   BKN 35,1,20,1,13,1011,RJTF 140200Z 01007KT 330V040 9999 FEW020 BKN025 BKN035 20/13     Q1011 RMK 1CU020 6SC025 7SC035 A2985=
20170514_030000.002,0,RJTF,,,,0,20170514030000,-1,-1,-1,-1,20,-1,7,-1,-1,340,60,,9999,0,0,3,FEW 25   BKN 30   BKN 35,1,20,1,13,1010,RJTF 140300Z 02007KT 340V060 9999 FEW025 BKN030 BKN035 20/13     Q1010 RMK 1CU025 5SC030 7SC035 A2985=
20170514_040000.002,0,RJTF,,,,0,20170514040000,-1,-1,-1,-1,30,-1,7,-1,-1,350,60,,9999,0,0,3,FEW 25   BKN 30   BKN 35,1,20,1,13,1010,RJTF 140400Z 03007KT 350V060 9999 FEW025 BKN030 BKN035 20/13     Q1010 RMK 1CU025 5SC030 7SC035 A2985=
20170514_050000.002,0,RJTF,,,,0,20170514050000,-1,-1,-1,-1,30,-1,6,-1,-1,10,70,,9999,0,0,3,FEW 25   BKN 30   BKN 40,1,20,1,13,1011,RJTF 140500Z 03006KT 010V070 9999 FEW025 BKN030 BKN040 20/13     Q1011 RMK 1CU025 5SC030 7SC040 A2985=
20170514_060000.002,0,RJTF,,,,0,20170514060000,-1,-1,-1,-1,60,-1,5,-1,-1,20,110,,9999,0,0,3,FEW 25   SCT 30   BKN 40,1,20,1,12,1010,RJTF 140600Z 06005KT 020V110 9999 FEW025 SCT030 BKN040 20/12     Q1010 RMK 1CU025 4CU030 6SC040 A2984=
20170514_070000.002,0,RJTF,,,,0,20170514070000,-1,-1,-1,-1,70,-1,7,-1,-1,40,110,,9999,0,0,3,FEW 25   SCT 35   BKN -9999,1,20,1,13,1010,RJTF 140700Z 07007KT 040V110 9999 FEW025 SCT035 BKN/// 20/13     Q1010 RMK 2CU025 4SC035 A2985=
20170514_080000.002,0,RJTF,,,,0,20170514080000,-1,-1,-1,-1,60,-1,6,-1,-1,10,100,,9999,0,0,3,FEW 30   SCT 40   BKN -9999,1,20,1,12,1010,RJTF 140800Z 06006KT 010V100 9999 FEW030 SCT040 BKN/// 20/12     Q1010 RMK 1CU030 3SC040 A2984=
20170514_090000.002,0,RJTF,,,,0,20170514090000,-1,-1,-1,-1,-1,-1,-1,-1,-1,-1,-1,,-1,0,0,0,,0,-1,0,-1,-1,RJTF 140900Z NIL=
20170514_233000.001,0,RJTF,,,,0,20170514230000,-1,-1,-1,-1,999,-1,2,-1,-1,-1,-1,,9999,0,0,2,FEW 10   BKN 15,1,16,1,13,1012,RJTF 142330Z VRB02KT 9999 FEW010 BKN015 16/13 Q1012 RMK 2CU010     7SC015 A2990=
20170515_000000.002,0,RJTF,,,,0,20170515000000,-1,-1,-1,-1,160,-1,3,-1,-1,100,200,,9999,0,1,2,FEW 10   BKN 13,1,16,1,13,1012,RJTF 150000Z 16003KT 100V200 9999 -DZ FEW010 BKN013 16/13     Q1012 RMK 2CU010 7SC013 A2991=
20170515_010000.002,0,RJTF,,,,0,20170515010000,-1,-1,-1,-1,170,-1,3,-1,-1,120,210,,5000,0,1,2,FEW 8   BKN 13,1,16,1,14,1012,RJTF 150100Z 17003KT 120V210 5000 BR FEW008 BKN013 16/14 Q1012     RMK 2CU008 7SC013 A2989=
20170515_020000.003,0,RJTF,,,,0,20170515020000,-1,-1,-1,-1,140,-1,6,-1,-1,-1,-1,,5000,0,1,2,SCT 10   BKN 13,1,17,1,13,1011,RJTF 150200Z 14006KT 5000 BR SCT010 BKN013 17/13 Q1011 RMK     3CU010 7SC013 A2987=
20170515_030000.002,0,RJTF,,,,0,20170515030000,-1,-1,-1,-1,160,-1,6,-1,-1,110,200,,7000,0,0,2,FEW 10   BKN 15,1,19,1,14,1010,RJTF 150300Z 16006KT 110V200 7000 FEW010 BKN015 19/14 Q1010     RMK 2CU010 7SC015 A2985=
20170515_040000.002,0,RJTF,,,,0,20170515040000,-1,-1,-1,-1,170,-1,9,-1,-1,140,200,,9999,0,0,3,FEW 10   BKN 20   BKN -9999,1,20,1,14,1009,RJTF 150400Z 17009KT 140V200 9999 FEW010 BKN020 BKN/// 20/14     Q1009 RMK 1CU010 7CU020 A2982=
20170515_050000.002,0,RJTF,,,,0,20170515050000,-1,-1,-1,-1,190,-1,9,-1,-1,150,220,,9999,0,0,3,FEW 10   BKN 25   BKN -9999,1,21,1,15,1008,RJTF 150500Z 19009KT 150V220 9999 FEW010 BKN025 BKN/// 21/15     Q1008 RMK 1CU010 6CU025 A2979=
20170515_060000.002,0,RJTF,,,,0,20170515060000,-1,-1,-1,-1,180,-1,10,-1,-1,-1,-1,,9999,0,0,3,FEW 10   BKN 18   BKN -9999,1,20,1,15,1008,RJTF 150600Z 18010KT 9999 FEW010 BKN018 BKN/// 20/15 Q1008 RMK     1CU010 7CU018 A2978=
20170515_070000.002,0,RJTF,,,,0,20170515070000,-1,-1,-1,-1,180,-1,11,-1,-1,-1,-1,,9999,0,0,3,FEW 10   BKN 15   BKN -9999,1,19,1,15,1007,RJTF 150700Z 18011KT 9999 FEW010 BKN015 BKN/// 19/15 Q1007 RMK     1CU010 7CU015 A2976=
20170515_080000.002,0,RJTF,,,,0,20170515080000,-1,-1,-1,-1,180,-1,10,-1,-1,140,210,,9999,0,0,3,FEW 15   SCT 20   BKN -9999,1,20,1,15,1007,RJTF 150800Z 18010KT 140V210 9999 FEW015 SCT020 BKN/// 20/15     Q1007 RMK 1CU015 3CU020 A2975=
20170515_090000.002,0,RJTF,,,,0,20170515090000,-1,-1,-1,-1,-1,-1,-1,-1,-1,-1,-1,,-1,0,0,0,,0,-1,0,-1,-1,RJTF 150900Z NIL=
20170515_233000.001,0,RJTF,,,,0,20170515230000,-1,-1,-1,-1,999,-1,3,-1,-1,-1,-1,,9999,0,0,3,FEW 20   SCT 30   BKN -9999,1,19,1,13,1009,RJTF 152330Z VRB03KT 9999 FEW020 SCT030 BKN/// 19/13 Q1009 RMK     1CU020 3CU030 A2980=
20170516_000000.002,0,RJTF,,,,0,20170516000000,-1,-1,-1,-1,40,-1,5,-1,-1,350,100,,9999,0,0,3,FEW 20   SCT 30   BKN -9999,1,20,1,13,1009,RJTF 160000Z 04005KT 350V100 9999 FEW020 SCT030 BKN/// 20/13     Q1009 RMK 1CU020 3CU030 A2980=
20170516_010000.002,0,RJTF,,,,0,20170516010000,-1,-1,-1,-1,30,-1,4,-1,-1,350,100,,9999,0,0,3,FEW 20   BKN 30   BKN -9999,1,20,1,11,1009,RJTF 160100Z 03004KT 350V100 9999 FEW020 BKN030 BKN/// 20/11     Q1009 RMK 1CU020 5CU030 A2979=
20170516_020000.002,0,RJTF,,,,0,20170516020000,-1,-1,-1,-1,999,-1,3,-1,-1,-1,-1,,9999,0,0,3,FEW 20   SCT 30   BKN -9999,1,21,1,11,1008,RJTF 160200Z VRB03KT 9999 FEW020 SCT030 BKN/// 21/11 Q1008 RMK     1CU020 4CU030 A2979=
20170516_030000.002,0,RJTF,,,,0,20170516030000,-1,-1,-1,-1,999,-1,2,-1,-1,-1,-1,,9999,0,0,3,FEW 20   SCT 30   BKN -9999,1,22,1,10,1008,RJTF 160300Z VRB02KT 9999 FEW020 SCT030 BKN/// 22/10 Q1008 RMK     1CU020 3CU030 A2977=
20170516_040000.002,0,RJTF,,,,0,20170516040000,-1,-1,-1,-1,150,-1,5,-1,-1,120,190,,9999,0,0,3,FEW 20   BKN 30   BKN -9999,1,22,1,10,1007,RJTF 160400Z 15005KT 120V190 9999 FEW020 BKN030 BKN/// 22/10     Q1007 RMK 1CU020 6CU030 A2976=
20170516_050000.002,0,RJTF,,,,0,20170516050000,-1,-1,-1,-1,150,-1,9,-1,-1,110,180,,9999,0,0,3,SCT 30   BKN 50   BKN -9999,1,22,1,10,1007,RJTF 160500Z 15009KT 110V180 9999 SCT030 BKN050 BKN/// 22/10     Q1007 RMK 3CU030 5SC050 A2976=
20170516_060000.003,0,RJTF,,,,0,20170516060000,-1,-1,-1,-1,220,-1,9,-1,-1,180,240,,9999,0,1,4,FEW 20   FEW 30 TCU  BKN 50   BKN -9999,1,21,1,14,1007,RJTF 160600Z 22009KT 180V240 9999 VCSH FEW020 FEW030TCU BKN050     BKN/// 21/14 Q1007 RMK 2CU020 1TCU030 5SC050 A2975 TCU           10KM SE-S MOV UNKNOWN=
20170516_070000.003,0,RJTF,,,,0,20170516070000,-1,-1,-1,-1,200,-1,7,-1,-1,170,230,,9999,0,1,3,FEW 20   FEW 30 TCU  BKN 80,1,20,1,13,1007,RJTF 160700Z 20007KT 170V230 9999 VCSH FEW020 FEW030TCU BKN080     20/13 Q1007 RMK 2CU020 2TCU030 6AC080 A2975 TCU 5KM E-NE           MOV UNKNOWN=
20170516_080000.002,0,RJTF,,,,0,20170516080000,-1,-1,-1,-1,190,-1,8,-1,-1,150,230,,9999,0,0,3,FEW 20   SCT 30   BKN 80,1,20,1,13,1007,RJTF 160800Z 19008KT 150V230 9999 FEW020 SCT030 BKN080 20/13     Q1007 RMK 1CU020 3CU030 6AC080 A2976=
20170516_090000.002,0,RJTF,,,,0,20170516090000,-1,-1,-1,-1,-1,-1,-1,-1,-1,-1,-1,,-1,0,0,0,,0,-1,0,-1,-1,RJTF 160900Z NIL=
20170516_233000.001,0,RJTF,,,,0,20170516230000,-1,-1,-1,-1,10,-1,8,-1,-1,-1,-1,,9999,0,0,3,FEW 15   BKN 20   BKN 70,1,17,1,11,1010,RJTF 162330Z 01008KT 9999 FEW015 BKN020 BKN070 17/11 Q1010 RMK     1CU015 5SC020 7AC070 A2982=
20170517_000000.003,0,RJTF,,,,0,20170517000000,-1,-1,-1,-1,10,-1,7,-1,-1,340,40,,9999,0,0,3,FEW 20   BKN 25   BKN 35,1,17,1,11,1010,RJTF 170000Z 01007KT 340V040 9999 FEW020 BKN025 BKN035 17/11     Q1010 RMK 1CU020 5SC025 7SC035 A2983=
20170517_010000.002,0,RJTF,,,,0,20170517010000,-1,-1,-1,-1,40,-1,5,-1,-1,350,70,,9999,0,0,2,FEW 20   BKN 25,1,18,1,11,1010,RJTF 170100Z 04005KT 350V070 9999 FEW020 BKN025 18/11 Q1010     RMK 1CU020 7SC025 A2984=
20170517_020000.002,0,RJTF,,,,0,20170517020000,-1,-1,-1,-1,20,-1,8,-1,-1,330,60,,9999,0,0,2,FEW 20   BKN 30,1,18,1,10,1010,RJTF 170200Z 02008KT 330V060 9999 FEW020 BKN030 18/10 Q1010     RMK 1CU020 7SC030 A2983=
20170517_030000.002,0,RJTF,,,,0,20170517030000,-1,-1,-1,-1,10,-1,8,-1,-1,340,50,,9999,0,0,2,FEW 20   BKN 30,1,18,1,11,1010,RJTF 170300Z 01008KT 340V050 9999 FEW020 BKN030 18/11 Q1010     RMK 1CU020 7SC030 A2982=
20170517_040000.002,0,RJTF,,,,0,20170517040000,-1,-1,-1,-1,10,-1,7,-1,-1,340,50,,9999,0,0,3,FEW 20   BKN 30   BKN 50,1,18,1,11,1010,RJTF 170400Z 01007KT 340V050 9999 FEW020 BKN030 BKN050 18/11     Q1010 RMK 1CU020 5SC030 7SC050 A2982=
20170517_050000.002,0,RJTF,,,,0,20170517050000,-1,-1,-1,-1,350,-1,7,-1,-1,310,20,,9999,0,0,3,FEW 20   SCT 30   BKN 160,1,19,1,11,1009,RJTF 170500Z 35007KT 310V020 9999 FEW020 SCT030 BKN160 19/11     Q1009 RMK 1CU020 4SC030 7AC160 A2981=
20170517_060000.002,0,RJTF,,,,0,20170517060000,-1,-1,-1,-1,360,-1,8,-1,-1,-1,-1,,9999,0,0,3,FEW 20   BKN 30   BKN 160,1,18,1,11,1009,RJTF 170600Z 36008KT 9999 FEW020 BKN030 BKN160 18/11 Q1009 RMK     1CU020 5SC030 7AC160 A2981=
20170517_070000.002,0,RJTF,,,,0,20170517070000,-1,-1,-1,-1,50,-1,6,-1,-1,10,90,,9999,0,0,3,FEW 20   BKN 30   BKN 150,1,18,1,10,1010,RJTF 170700Z 05006KT 010V090 9999 FEW020 BKN030 BKN150 18/10     Q1010 RMK 1CU020 5SC030 7AC150 A2983=
20170517_080000.003,0,RJTF,,,,0,20170517080000,-1,-1,-1,-1,30,-1,5,-1,-1,350,60,,9999,0,0,3,FEW 20   BKN 30   BKN 150,1,18,1,10,1010,RJTF 170800Z 03005KT 350V060 9999 FEW020 BKN030 BKN150 18/10     Q1010 RMK 1CU020 6SC030 7AC150 A2984=
20170517_090000.002,0,RJTF,,,,0,20170517090000,-1,-1,-1,-1,-1,-1,-1,-1,-1,-1,-1,,-1,0,0,0,,0,-1,0,-1,-1,RJTF 170900Z NIL=
20170517_233000.001,0,RJTF,,,,0,20170517230000,-1,-1,-1,-1,40,-1,4,-1,-1,350,110,,9999,0,0,2,FEW 20   BKN 30,1,19,1,13,1015,RJTF 172330Z 04004KT 350V110 9999 FEW020 BKN030 19/13 Q1015     RMK 2CU020 6CU030 A2997=
20170518_000000.002,0,RJTF,,,,0,20170518000000,-1,-1,-1,-1,20,-1,6,-1,-1,330,60,,9999,0,0,2,FEW 20   BKN 35,1,19,1,13,1015,RJTF 180000Z 02006KT 330V060 9999 FEW020 BKN035 19/13 Q1015     RMK 2CU020 6CU035 A2997=
20170518_010000.003,0,RJTF,,,,0,20170518010000,-1,-1,-1,-1,10,-1,6,-1,-1,320,50,,9999,0,0,3,FEW 20   BKN 30   BKN 80,1,20,1,13,1014,RJTF 180100Z 01006KT 320V050 9999 FEW020 BKN030 BKN080 20/13     Q1014 RMK 1CU020 6CU030 7AC080 A2997=
20170518_020000.002,0,RJTF,,,,0,20170518020000,-1,-1,-1,-1,40,-1,6,-1,-1,340,120,,9999,0,0,2,FEW 25   BKN 35,1,22,1,12,1014,RJTF 180200Z 04006KT 340V120 9999 FEW025 BKN035 22/12 Q1014     RMK 1CU025 7CU035 A2996=
20170518_030000.002,0,RJTF,,,,0,20170518030000,-1,-1,-1,-1,999,-1,4,-1,-1,-1,-1,,9999,0,0,4,FEW 25   FEW 30 TCU  SCT 35   BKN 80,1,22,1,12,1014,RJTF 180300Z VRB04KT 9999 FEW025 FEW030TCU SCT035 BKN080 22/12     Q1014 RMK 1CU025 1TCU030 4CU035 6AC080 A2995 TCU 10KM SW           AND 20KM S-SW MOV E=
20170518_040000.002,0,RJTF,,,,0,20170518040000,-1,-1,-1,-1,340,-1,7,-1,-1,290,30,,9999,0,0,4,FEW 25   FEW 30 TCU  SCT 35   BKN 50,1,22,1,13,1013,RJTF 180400Z 34007KT 290V030 9999 FEW025 FEW030TCU SCT035     BKN050 22/13 Q1013 RMK 1CU025 1TCU030 3CU035 5SC050 A2993           TCU 15KM S MOV E=
20170518_050000.002,0,RJTF,,,,0,20170518050000,-1,-1,-1,-1,40,-1,6,-1,-1,-1,-1,,9999,0,0,3,FEW 25   SCT 35   BKN 50,1,22,1,12,1013,RJTF 180500Z 04006KT 9999 FEW025 SCT035 BKN050 22/12 Q1013 RMK     1CU025 3CU035 5SC050 A2993=
20170518_060000.002,0,RJTF,,,,0,20170518060000,-1,-1,-1,-1,120,-1,8,-1,-1,70,150,,9999,0,1,4,FEW 30   FEW 35 CB  SCT 40   BKN 50,1,18,1,13,1014,RJTF 180600Z 12008KT 070V150 9999 -SHRA FEW030 FEW035CB SCT040     BKN050 18/13 Q1014 RMK 1CU030 2CB035 4CU040 6SC050 A2994           CB 5KM E MOV E=
20170518_070000.003,0,RJTF,,,,0,20170518070000,-1,-1,-1,-1,130,-1,4,-1,-1,-1,-1,,9999,0,1,3,FEW 20   SCT 35   BKN 50,1,17,1,14,1014,RJTF 180700Z 13004KT 9999 -SHRA FEW020 SCT035 BKN050 17/14     Q1014 RMK 1CU020 3CU035 5SC050 A2995=
20170518_080000.002,0,RJTF,,,,0,20170518080000,-1,-1,-1,-1,130,-1,5,-1,-1,100,160,,9999,0,0,3,FEW 30   SCT 60   BKN 80,1,18,1,15,1014,RJTF 180800Z 13005KT 100V160 9999 FEW030 SCT060 BKN080 18/15     Q1014 RMK 2CU030 3SC060 5AC080 A2995=
20170518_090000.002,0,RJTF,,,,0,20170518090000,-1,-1,-1,-1,-1,-1,-1,-1,-1,-1,-1,,-1,0,0,0,,0,-1,0,-1,-1,RJTF 180900Z NIL=
20170518_233000.001,0,RJTF,,,,0,20170518230000,-1,-1,-1,-1,999,-1,1,-1,-1,-1,-1,CAVOK,-1,0,0,0,,1,20,1,14,1017,RJTF 182330Z VRB01KT CAVOK 20/14 Q1017 RMK A3006=
20170519_000000.002,0,RJTF,,,,0,20170519000000,-1,-1,-1,-1,999,-1,3,-1,-1,-1,-1,,9999,0,0,1,FEW 30,1,21,1,13,1017,RJTF 190000Z VRB03KT 9999 FEW030 21/13 Q1017 RMK 1CU030 A3005=
20170519_010000.002,0,RJTF,,,,0,20170519010000,-1,-1,-1,-1,130,-1,4,-1,-1,70,230,,9999,0,0,1,FEW 30,1,23,1,14,1017,RJTF 190100Z 13004KT 070V230 9999 FEW030 23/14 Q1017 RMK     2CU030 A3004=
20170519_020000.002,0,RJTF,,,,0,20170519020000,-1,-1,-1,-1,150,-1,6,-1,-1,40,200,,9999,0,0,1,SCT 30,1,24,1,14,1016,RJTF 190200Z 15006KT 040V200 9999 SCT030 24/14 Q1016 RMK     3CU030 A3002=
20170519_030000.003,0,RJTF,,,,0,20170519030000,-1,-1,-1,-1,160,-1,7,-1,-1,120,270,,9999,0,0,1,SCT 35,1,25,1,14,1016,RJTF 190300Z 16007KT 120V270 9999 SCT035 25/14 Q1016 RMK     4CU035 A3000=
20170519_040000.002,0,RJTF,,,,0,20170519040000,-1,-1,-1,-1,180,-1,8,-1,-1,140,220,,9999,0,0,1,SCT 40,1,26,1,12,1015,RJTF 190400Z 18008KT 140V220 9999 SCT040 26/12 Q1015 RMK     3CU040 A2999=
20170519_050000.002,0,RJTF,,,,0,20170519050000,-1,-1,-1,-1,180,-1,9,-1,-1,150,230,,9999,0,0,2,FEW 30   SCT 50,1,25,1,12,1015,RJTF 190500Z 18009KT 150V230 9999 FEW030 SCT050 25/12 Q1015     RMK 1CU030 3SC050 A2998=
20170519_060000.002,0,RJTF,,,,0,20170519060000,-1,-1,-1,-1,190,-1,10,-1,-1,-1,-1,,9999,0,0,1,FEW 40,1,25,1,12,1014,RJTF 190600Z 19010KT 9999 FEW040 25/12 Q1014 RMK 1CU040 A2997=
20170519_070000.002,0,RJTF,,,,0,20170519070000,-1,-1,-1,-1,190,-1,11,-1,-1,160,220,CAVOK,-1,0,0,0,,1,23,1,13,1014,RJTF 190700Z 19011KT 160V220 CAVOK 23/13 Q1014 RMK A2996=
20170519_080000.002,0,RJTF,,,,0,20170519080000,-1,-1,-1,-1,200,-1,11,-1,-1,160,230,CAVOK,-1,0,0,0,,1,22,1,13,1014,RJTF 190800Z 20011KT 160V230 CAVOK 22/13 Q1014 RMK A2996=
20170519_090000.002,0,RJTF,,,,0,20170519090000,-1,-1,-1,-1,-1,-1,-1,-1,-1,-1,-1,,-1,0,0,0,,0,-1,0,-1,-1,RJTF 190900Z NIL=
20170519_233000.001,0,RJTF,,,,0,20170519230000,-1,-1,-1,-1,999,-1,2,-1,-1,-1,-1,CAVOK,-1,0,0,0,,1,22,1,14,1016,RJTF 192330Z VRB02KT CAVOK 22/14 Q1016 RMK A3001=
20170520_000000.002,0,RJTF,,,,0,20170520000000,-1,-1,-1,-1,999,-1,1,-1,-1,-1,-1,CAVOK,-1,0,0,0,,1,23,1,14,1016,RJTF 200000Z VRB01KT CAVOK 23/14 Q1016 RMK A3000=
20170520_010000.002,0,RJTF,,,,0,20170520010000,-1,-1,-1,-1,140,-1,3,-1,-1,50,220,,9999,0,0,1,FEW 30,1,25,1,13,1015,RJTF 200100Z 14003KT 050V220 9999 FEW030 25/13 Q1015 RMK     1CU030 A3000=
20170520_020000.002,0,RJTF,,,,0,20170520020000,-1,-1,-1,-1,110,-1,4,-1,-1,30,160,,9999,0,0,1,FEW 30,1,27,1,13,1015,RJTF 200200Z 11004KT 030V160 9999 FEW030 27/13 Q1015 RMK     1CU030 A2998=
20170520_030000.002,0,RJTF,,,,0,20170520030000,-1,-1,-1,-1,150,-1,6,-1,-1,80,220,,9999,0,0,1,FEW 30,1,28,1,13,1014,RJTF 200300Z 15006KT 080V220 9999 FEW030 28/13 Q1014 RMK     1CU030 A2996=
20170520_040000.002,0,RJTF,,,,0,20170520040000,-1,-1,-1,-1,999,-1,5,-1,-1,-1,-1,,9999,0,0,1,FEW 30,1,29,1,14,1014,RJTF 200400Z VRB05KT 9999 FEW030 29/14 Q1014 RMK 1CU030 A2994=
20170520_050000.002,0,RJTF,,,,0,20170520050000,-1,-1,-1,-1,200,-1,8,-1,-1,170,240,,9999,0,0,1,FEW 30,1,28,1,13,1013,RJTF 200500Z 20008KT 170V240 9999 FEW030 28/13 Q1013 RMK     1CU030 A2993=
20170520_060000.002,0,RJTF,,,,0,20170520060000,-1,-1,-1,-1,170,-1,10,-1,-1,-1,-1,,9999,0,0,1,FEW 30,1,28,1,13,1013,RJTF 200600Z 17010KT 9999 FEW030 28/13 Q1013 RMK 1CU030 A2992=
20170520_070000.002,0,RJTF,,,,0,20170520070000,-1,-1,-1,-1,200,-1,8,-1,-1,160,240,CAVOK,-1,0,0,0,,1,27,1,13,1013,RJTF 200700Z 20008KT 160V240 CAVOK 27/13 Q1013 RMK A2992=
20170520_080000.002,0,RJTF,,,,0,20170520080000,-1,-1,-1,-1,170,-1,11,-1,-1,-1,-1,CAVOK,-1,0,0,0,,1,25,1,13,1013,RJTF 200800Z 17011KT CAVOK 25/13 Q1013 RMK A2991=
20170520_090000.002,0,RJTF,,,,0,20170520090000,-1,-1,-1,-1,-1,-1,-1,-1,-1,-1,-1,,-1,0,0,0,,0,-1,0,-1,-1,RJTF 200900Z NIL=
20170520_233000.001,0,RJTF,,,,0,20170520230000,-1,-1,-1,-1,999,-1,3,-1,-1,-1,-1,CAVOK,-1,0,0,0,,1,24,1,13,1016,RJTF 202330Z VRB03KT CAVOK 24/13 Q1016 RMK A3001=
20170521_000000.002,0,RJTF,,,,0,20170521000000,-1,-1,-1,-1,999,-1,2,-1,-1,-1,-1,CAVOK,-1,0,0,0,,1,25,1,14,1016,RJTF 210000Z VRB02KT CAVOK 25/14 Q1016 RMK A3000=
20170521_010000.002,0,RJTF,,,,0,20170521010000,-1,-1,-1,-1,999,-1,2,-1,-1,-1,-1,CAVOK,-1,0,0,0,,1,27,1,13,1015,RJTF 210100Z VRB02KT CAVOK 27/13 Q1015 RMK A3000=
20170521_020000.003,0,RJTF,,,,0,20170521020000,-1,-1,-1,-1,190,-1,4,-1,-1,120,270,CAVOK,-1,0,0,0,,1,29,1,14,1015,RJTF 210200Z 19004KT 120V270 CAVOK 29/14 Q1015 RMK A2999=
20170521_030000.002,0,RJTF,,,,0,20170521030000,-1,-1,-1,-1,190,-1,6,-1,-1,140,240,,9999,0,0,2,FEW 30   SCT -9999,1,30,1,14,1014,RJTF 210300Z 19006KT 140V240 9999 FEW030 SCT/// 30/14 Q1014     RMK 1CU030 A2996=
20170521_040000.002,0,RJTF,,,,0,20170521040000,-1,-1,-1,-1,160,-1,10,-1,-1,120,200,,9999,0,0,2,FEW 30   SCT -9999,1,31,1,14,1014,RJTF 210400Z 16010KT 120V200 9999 FEW030 SCT/// 31/14 Q1014     RMK 1CU030 A2995=
20170521_050000.002,0,RJTF,,,,0,20170521050000,-1,-1,-1,-1,200,-1,10,-1,-1,170,240,,9999,0,0,2,FEW 30   BKN -9999,1,31,1,11,1013,RJTF 210500Z 20010KT 170V240 9999 FEW030 BKN/// 31/11 Q1013     RMK 1CU030 A2993=
20170521_060000.002,0,RJTF,,,,0,20170521060000,-1,-1,-1,-1,190,-1,11,-1,-1,150,230,,9999,0,0,2,FEW 30   BKN -9999,1,30,1,10,1013,RJTF 210600Z 19011KT 150V230 9999 FEW030 BKN/// 30/10 Q1013     RMK 1CU030 A2992=
20170521_070000.002,0,RJTF,,,,0,20170521070000,-1,-1,-1,-1,180,-1,9,-1,-1,160,220,,9999,0,0,2,FEW 30   BKN -9999,1,27,1,14,1013,RJTF 210700Z 18009KT 160V220 9999 FEW030 BKN/// 27/14 Q1013     RMK 1CU030 A2993=
20170521_080000.002,0,RJTF,,,,0,20170521080000,-1,-1,-1,-1,180,-1,9,-1,-1,160,220,,9999,0,0,2,FEW 30   BKN -9999,1,26,1,11,1013,RJTF 210800Z 18009KT 160V220 9999 FEW030 BKN/// 26/11 Q1013     RMK 1CU030 A2992=
20170521_090000.002,0,RJTF,,,,0,20170521090000,-1,-1,-1,-1,-1,-1,-1,-1,-1,-1,-1,,-1,0,0,0,,0,-1,0,-1,-1,RJTF 210900Z NIL=
20170521_233000.001,0,RJTF,,,,0,20170521230000,-1,-1,-1,-1,200,-1,3,-1,-1,130,270,CAVOK,-1,0,0,0,,1,26,1,15,1015,RJTF 212330Z 20003KT 130V270 CAVOK 26/15 Q1015 RMK A2998=
20170522_000000.002,0,RJTF,,,,0,20170522000000,-1,-1,-1,-1,180,-1,4,-1,-1,120,220,CAVOK,-1,0,0,0,,1,26,1,14,1015,RJTF 220000Z 18004KT 120V220 CAVOK 26/14 Q1015 RMK A2997=
20170522_010000.002,0,RJTF,,,,0,20170522010000,-1,-1,-1,-1,999,-1,4,-1,-1,-1,-1,CAVOK,-1,0,0,0,,1,27,1,14,1014,RJTF 220100Z VRB04KT CAVOK 27/14 Q1014 RMK A2997=
20170522_020000.002,0,RJTF,,,,0,20170522020000,-1,-1,-1,-1,150,-1,8,-1,-1,120,210,,9999,0,0,2,FEW 30   BKN -9999,1,29,1,15,1014,RJTF 220200Z 15008KT 120V210 9999 FEW030 BKN/// 29/15 Q1014     RMK 1CU030 A2994=
20170522_030000.002,0,RJTF,,,,0,20170522030000,-1,-1,-1,-1,170,-1,10,-1,-1,150,210,,9999,0,0,2,FEW 30   BKN -9999,1,29,1,14,1013,RJTF 220300Z 17010KT 150V210 9999 FEW030 BKN/// 29/14 Q1013     RMK 1CU030 A2993=
20170522_040000.002,0,RJTF,,,,0,20170522040000,-1,-1,-1,-1,170,-1,10,-1,-1,150,220,,9999,0,0,2,FEW 30   BKN -9999,1,29,1,13,1013,RJTF 220400Z 17010KT 150V220 9999 FEW030 BKN/// 29/13 Q1013     RMK 1CU030 A2992=
20170522_050000.002,0,RJTF,,,,0,20170522050000,-1,-1,-1,-1,170,-1,11,-1,-1,150,210,,9999,0,0,2,FEW 30 CB  SCT -9999,1,28,1,14,1012,RJTF 220500Z 17011KT 150V210 9999 FEW030CB SCT/// 28/14 Q1012     RMK 1CB030 A2990 CB NW=
20170522_060000.004,0,RJTF,,,,0,20170522060000,-1,-1,-1,-1,170,-1,14,-1,-1,-1,-1,,9999,0,0,2,FEW 30 TCU  SCT -9999,1,28,1,13,1012,RJTF 220600Z 17014KT 9999 FEW030TCU SCT/// 28/13 Q1012 RMK     1TCU030 A2989 TCU NW=
20170522_070000.003,0,RJTF,,,,0,20170522070000,-1,-1,-1,-1,160,-1,14,-1,-1,-1,-1,,9999,0,0,2,FEW 30 CB  SCT -9999,1,28,1,14,1012,RJTF 220700Z 16014KT 9999 FEW030CB SCT/// 28/14 Q1012 RMK     1CB030 A2988 CB NW=
20170522_080000.002,0,RJTF,,,,0,20170522080000,-1,-1,-1,-1,180,-1,10,-1,-1,150,210,,9999,0,0,2,FEW 30 CB  SCT -9999,1,26,1,15,1012,RJTF 220800Z 18010KT 150V210 9999 FEW030CB SCT/// 26/15 Q1012     RMK 1CB030 A2989 CB NW=
20170522_090000.002,0,RJTF,,,,0,20170522090000,-1,-1,-1,-1,-1,-1,-1,-1,-1,-1,-1,,-1,0,0,0,,0,-1,0,-1,-1,RJTF 220900Z NIL=
20170522_233000.001,0,RJTF,,,,0,20170522230000,-1,-1,-1,-1,120,-1,3,-1,-1,40,220,,9999,0,0,1,FEW 30,1,24,1,16,1013,RJTF 222330Z 12003KT 040V220 9999 FEW030 24/16 Q1013 RMK     1CU030 A2992=
20170523_000000.002,0,RJTF,,,,0,20170523000000,-1,-1,-1,-1,160,-1,6,-1,-1,120,230,,9999,0,0,1,FEW 30,1,25,1,15,1012,RJTF 230000Z 16006KT 120V230 9999 FEW030 25/15 Q1012 RMK     1CU030 A2991=
20170523_010000.002,0,RJTF,,,,0,20170523010000,-1,-1,-1,-1,170,-1,9,-1,-1,140,230,,9999,0,0,1,FEW 30,1,26,1,15,1012,RJTF 230100Z 17009KT 140V230 9999 FEW030 26/15 Q1012 RMK     1CU030 A2990=
20170523_020000.002,0,RJTF,,,,0,20170523020000,-1,-1,-1,-1,170,-1,11,-1,-1,130,200,,9999,0,0,1,FEW 30,1,26,1,15,1012,RJTF 230200Z 17011KT 130V200 9999 FEW030 26/15 Q1012 RMK     1CU030 A2989=
20170523_030000.002,0,RJTF,,,,0,20170523030000,-1,-1,-1,-1,190,-1,10,-1,-1,140,220,,9999,0,0,1,FEW 30,1,26,1,15,1011,RJTF 230300Z 19010KT 140V220 9999 FEW030 26/15 Q1011 RMK     1CU030 A2986=
20170523_040000.003,0,RJTF,,,,0,20170523040000,-1,-1,-1,-1,180,-1,12,-1,-1,150,210,,9999,0,0,1,FEW 30,1,26,1,15,1010,RJTF 230400Z 18012KT 150V210 9999 FEW030 26/15 Q1010 RMK     1CU030 A2984=
20170523_050000.002,0,RJTF,,,,0,20170523050000,-1,-1,-1,-1,170,-1,15,-1,-1,-1,-1,,9999,0,0,1,FEW 30,1,26,1,14,1010,RJTF 230500Z 17015KT 9999 FEW030 26/14 Q1010 RMK 1CU030 A2982=
20170523_060000.003,0,RJTF,,,,0,20170523060000,-1,-1,-1,-1,170,-1,15,-1,25,140,210,,9999,0,0,1,FEW 30,1,26,1,13,1009,RJTF 230600Z 17015G25KT 140V210 9999 FEW030 26/13 Q1009 RMK     1CU030 A2980=
20170523_070000.002,0,RJTF,,,,0,20170523070000,-1,-1,-1,-1,170,-1,14,-1,-1,-1,-1,,9999,0,0,2,FEW 30   SCT -9999,1,26,1,13,1008,RJTF 230700Z 17014KT 9999 FEW030 SCT/// 26/13 Q1008 RMK 1CU030     A2979=
20170523_080000.002,0,RJTF,,,,0,20170523080000,-1,-1,-1,-1,170,-1,13,-1,-1,-1,-1,,9999,0,0,2,FEW 30   BKN -9999,1,24,1,14,1008,RJTF 230800Z 17013KT 9999 FEW030 BKN/// 24/14 Q1008 RMK 1CU030     A2979=
20170523_090000.002,0,RJTF,,,,0,20170523090000,-1,-1,-1,-1,-1,-1,-1,-1,-1,-1,-1,,-1,0,0,0,,0,-1,0,-1,-1,RJTF 230900Z NIL=
20170523_233000.001,0,RJTF,,,,0,20170523230000,-1,-1,-1,-1,240,-1,6,-1,-1,190,280,,9999,0,0,2,FEW 20   BKN -9999,1,23,1,14,1009,RJTF 232330Z 24006KT 190V280 9999 FEW020 BKN/// 23/14 Q1009     RMK 2CU020 A2982=
20170524_000000.002,0,RJTF,,,,0,20170524000000,-1,-1,-1,-1,200,-1,6,-1,-1,140,290,,9999,0,0,3,FEW 20   SCT 30   BKN -9999,1,24,1,14,1009,RJTF 240000Z 20006KT 140V290 9999 FEW020 SCT030 BKN/// 24/14     Q1009 RMK 1CU020 3CU030 A2982=
20170524_010000.002,0,RJTF,,,,0,20170524010000,-1,-1,-1,-1,170,-1,7,-1,-1,140,220,,9999,0,0,3,FEW 20   SCT 30   BKN -9999,1,24,1,14,1009,RJTF 240100Z 17007KT 140V220 9999 FEW020 SCT030 BKN/// 24/14     Q1009 RMK 1CU020 3CU030 A2982=
20170524_020000.002,0,RJTF,,,,0,20170524020000,-1,-1,-1,-1,200,-1,6,-1,-1,150,230,,9999,0,0,3,FEW 20   SCT 30   BKN -9999,1,25,1,16,1009,RJTF 240200Z 20006KT 150V230 9999 FEW020 SCT030 BKN/// 25/16     Q1009 RMK 1CU020 4CU030 A2980=
20170524_030000.002,0,RJTF,,,,0,20170524030000,-1,-1,-1,-1,220,-1,7,-1,-1,180,250,,9999,0,0,3,FEW 20   BKN 30   BKN -9999,1,24,1,15,1009,RJTF 240300Z 22007KT 180V250 9999 FEW020 BKN030 BKN/// 24/15     Q1009 RMK 1CU020 5CU030 A2980=
20170524_040000.002,0,RJTF,,,,0,20170524040000,-1,-1,-1,-1,200,-1,8,-1,-1,-1,-1,,9999,0,0,3,FEW 20   SCT 30   BKN 180,1,24,1,15,1008,RJTF 240400Z 20008KT 9999 FEW020 SCT030 BKN180 24/15 Q1008 RMK     1CU020 3CU030 5AC180 A2978=
20170524_050000.002,0,RJTF,,,,0,20170524050000,-1,-1,-1,-1,190,-1,5,-1,-1,150,230,,9999,0,0,3,FEW 30   SCT 160   BKN -9999,1,24,1,14,1008,RJTF 240500Z 19005KT 150V230 9999 FEW030 SCT160 BKN/// 24/14     Q1008 RMK 2CU030 3AC160 A2977=
20170524_060000.002,0,RJTF,,,,0,20170524060000,-1,-1,-1,-1,180,-1,8,-1,-1,150,220,,9999,0,0,3,FEW 30   SCT 110   BKN 150,1,23,1,15,1007,RJTF 240600Z 18008KT 150V220 9999 FEW030 SCT110 BKN150 23/15     Q1007 RMK 1CU030 3AC110 5AC150 A2976=
20170524_070000.002,0,RJTF,,,,0,20170524070000,-1,-1,-1,-1,210,-1,8,-1,-1,170,250,,9999,0,0,3,FEW 30   SCT 150   BKN -9999,1,23,1,15,1008,RJTF 240700Z 21008KT 170V250 9999 FEW030 SCT150 BKN/// 23/15     Q1008 RMK 1CU030 3AC150 A2977=
20170524_080000.002,0,RJTF,,,,0,20170524080000,-1,-1,-1,-1,180,-1,9,-1,-1,-1,-1,,9999,0,0,3,FEW 30   BKN 150   BKN -9999,1,22,1,15,1008,RJTF 240800Z 18009KT 9999 FEW030 BKN150 BKN/// 22/15 Q1008 RMK     1CU030 6AC150 A2977=
20170524_090000.002,0,RJTF,,,,0,20170524090000,-1,-1,-1,-1,-1,-1,-1,-1,-1,-1,-1,,-1,0,0,0,,0,-1,0,-1,-1,RJTF 240900Z NIL=
20170524_233000.001,0,RJTF,,,,0,20170524230000,-1,-1,-1,-1,350,-1,4,-1,-1,-1,-1,,7000,0,1,3,FEW 8   SCT 45   BKN 100,1,20,1,18,1007,RJTF 242330Z 35004KT 7000 -RA FEW008 SCT045 BKN100 20/18 Q1007     RMK 1ST008 3SC045 7AC100 A2974=
20170525_000000.003,0,RJTF,,,,0,20170525000000,-1,-1,-1,-1,999,-1,2,-1,-1,-1,-1,,9000,0,1,3,FEW 35   SCT 70   BKN 100,1,21,1,18,1007,RJTF 250000Z VRB02KT 9000 -RA FEW035 SCT070 BKN100 21/18 Q1007     RMK 2CU035 3AC070 7AC100 A2974=
20170525_010000.002,0,RJTF,,,,0,20170525010000,-1,-1,-1,-1,350,-1,4,-1,-1,-1,-1,,9999,0,1,3,FEW 12   SCT 60   BKN 100,1,21,1,18,1006,RJTF 250100Z 35004KT 9999 -RA FEW012 SCT060 BKN100 21/18 Q1006     RMK 2CU012 3SC060 7AC100 A2973=
20170525_020000.003,0,RJTF,,,,0,20170525020000,-1,-1,-1,-1,10,-1,3,-1,-1,340,40,,9999,0,0,3,FEW 25   SCT 60   BKN 110,1,22,1,17,1006,RJTF 250200Z 01003KT 340V040 9999 FEW025 SCT060 BKN110 22/17     Q1006 RMK 1CU025 4SC060 7AC110 A2973=
20170525_030000.002,0,RJTF,,,,0,20170525030000,-1,-1,-1,-1,330,-1,9,-1,-1,300,360,,9999,0,0,3,FEW 20   SCT 60   BKN 120,1,21,1,16,1006,RJTF 250300Z 33009KT 300V360 9999 FEW020 SCT060 BKN120 21/16     Q1006 RMK 2CU020 4SC060 7AC120 A2972=
20170525_040000.002,0,RJTF,,,,0,20170525040000,-1,-1,-1,-1,350,-1,8,-1,-1,310,20,,9999,0,0,3,FEW 25   SCT 50   BKN 120,1,21,1,16,1006,RJTF 250400Z 35008KT 310V020 9999 FEW025 SCT050 BKN120 21/16     Q1006 RMK 1CU025 4SC050 7AC120 A2971=
20170525_050000.003,0,RJTF,,,,0,20170525050000,-1,-1,-1,-1,360,-1,6,-1,-1,-1,-1,,9999,0,0,3,FEW 25   BKN 60   BKN -9999,1,21,1,16,1005,RJTF 250500Z 36006KT 9999 FEW025 BKN060 BKN/// 21/16 Q1005 RMK     1CU025 6SC060 A2970=
20170525_060000.002,0,RJTF,,,,0,20170525060000,-1,-1,-1,-1,10,-1,7,-1,-1,350,50,,9999,0,0,3,FEW 30   BKN 70   BKN -9999,1,21,1,16,1005,RJTF 250600Z 01007KT 350V050 9999 FEW030 BKN070 BKN/// 21/16     Q1005 RMK 1CU030 6AC070 A2969=
20170525_070000.002,0,RJTF,,,,0,20170525070000,-1,-1,-1,-1,30,-1,6,-1,-1,360,70,,9999,0,0,3,FEW 30   BKN 70   BKN -9999,1,21,1,16,1005,RJTF 250700Z 03006KT 360V070 9999 FEW030 BKN070 BKN/// 21/16     Q1005 RMK 1CU030 5AC070 A2968=
20170525_080000.002,0,RJTF,,,,0,20170525080000,-1,-1,-1,-1,40,-1,3,-1,-1,10,80,,9999,0,0,3,FEW 30   SCT 60   BKN 90,1,22,1,15,1005,RJTF 250800Z 04003KT 010V080 9999 FEW030 SCT060 BKN090 22/15     Q1005 RMK 1CU030 4SC060 6AC090 A2968=
20170525_090000.003,0,RJTF,,,,0,20170525090000,-1,-1,-1,-1,-1,-1,-1,-1,-1,-1,-1,,-1,0,0,0,,0,-1,0,-1,-1,RJTF 250900Z NIL=
20170525_233000.001,0,RJTF,,,,0,20170525230000,-1,-1,-1,-1,120,-1,4,-1,-1,80,150,,4000,0,2,3,FEW 8   BKN 10   BKN 20,1,18,1,17,1005,RJTF 252330Z 12004KT 080V150 4000 -SHRA BR FEW008 BKN010     BKN020 18/17 Q1005 RMK 2ST008 6ST010 7CU020 A2970=
20170526_000000.002,0,RJTF,,,,0,20170526000000,-1,-1,-1,-1,999,-1,2,-1,-1,-1,-1,,4000,0,2,3,FEW 6   BKN 10   BKN 25,1,18,1,17,1005,RJTF 260000Z VRB02KT 4000 -SHRA BR FEW006 BKN010 BKN025 18/17     Q1005 RMK 2ST006 6ST010 7CU025 A2970=
20170526_010000.002,0,RJTF,,,,0,20170526010000,-1,-1,-1,-1,150,-1,5,-1,-1,90,220,,5000,0,2,3,FEW 6   BKN 8   BKN 25,1,18,1,17,1005,RJTF 260100Z 15005KT 090V220 5000 -SHRA BR FEW006 BKN008     BKN025 18/17 Q1005 RMK 2ST006 5ST008 7CU025 A2968=
20170526_020000.003,0,RJTF,,,,0,20170526020000,-1,-1,-1,-1,999,-1,4,-1,-1,-1,-1,,6000,0,1,3,FEW 5   BKN 7   BKN 15,1,18,1,17,1004,RJTF 260200Z VRB04KT 6000 SHRA FEW005 BKN007 BKN015 18/17     Q1004 RMK 2ST005 6ST007 7CU015 A2967=
20170526_030000.003,0,RJTF,,,,0,20170526030000,-1,-1,-1,-1,100,-1,5,-1,-1,50,190,,6000,0,0,3,FEW 6   SCT 8   BKN 20,1,19,1,18,1003,RJTF 260300Z 10005KT 050V190 6000 FEW006 SCT008 BKN020 19/18     Q1003 RMK 2ST006 4ST008 7CU020 A2964=
20170526_040000.002,0,RJTF,,,,0,20170526040000,-1,-1,-1,-1,90,-1,3,-1,-1,50,120,,7000,0,0,3,SCT 10   BKN 15   BKN 25,1,19,1,17,1004,RJTF 260400Z 09003KT 050V120 7000 SCT010 BKN015 BKN025 19/17     Q1004 RMK 3ST010 5CU015 7SC025 A2965=
20170526_050000.002,0,RJTF,,,,0,20170526050000,-1,-1,-1,-1,120,-1,4,-1,-1,50,150,,7000,0,0,3,SCT 10   BKN 15   BKN 20,1,20,1,17,1003,RJTF 260500Z 12004KT 050V150 7000 SCT010 BKN015 BKN020 20/17     Q1003 RMK 3ST010 5CU015 7SC020 A2964=
20170526_060000.002,0,RJTF,,,,0,20170526060000,-1,-1,-1,-1,30,-1,4,-1,-1,350,110,,8000,0,0,3,FEW 10   BKN 15   BKN 20,1,20,1,18,1003,RJTF 260600Z 03004KT 350V110 8000 FEW010 BKN015 BKN020 20/18     Q1003 RMK 2ST010 5CU015 7SC020 A2964=
20170526_070000.002,0,RJTF,,,,0,20170526070000,-1,-1,-1,-1,90,-1,3,-1,-1,20,190,,8000,0,0,3,FEW 10   BKN 15   BKN 25,1,20,1,17,1003,RJTF 260700Z 09003KT 020V190 8000 FEW010 BKN015 BKN025 20/17     Q1003 RMK 2ST010 5CU015 7SC025 A2964=
20170526_080000.003,0,RJTF,,,,0,20170526080000,-1,-1,-1,-1,130,-1,7,-1,-1,-1,-1,,9999,0,0,3,FEW 15   SCT 20   BKN 25,1,21,1,16,1004,RJTF 260800Z 13007KT 9999 FEW015 SCT020 BKN025 21/16 Q1004 RMK     1CU015 4CU020 7SC025 A2965=
20170526_090000.002,0,RJTF,,,,0,20170526090000,-1,-1,-1,-1,-1,-1,-1,-1,-1,-1,-1,,-1,0,0,0,,0,-1,0,-1,-1,RJTF 260900Z NIL=
20170526_233000.001,0,RJTF,,,,0,20170526230000,-1,-1,-1,-1,190,-1,6,-1,-1,140,250,,9999,0,1,2,FEW 8   BKN 20,1,23,1,17,1006,RJTF 262330Z 19006KT 140V250 9999 VCSH FEW008 BKN020 23/17     Q1006 RMK 1CU008 5CU020 A2971=
20170527_000000.002,0,RJTF,,,,0,20170527000000,-1,-1,-1,-1,350,-1,9,-1,-1,-1,-1,,7000,0,0,2,FEW 8   BKN 20,1,21,1,17,1006,RJTF 270000Z 35009KT 7000 FEW008 BKN020 21/17 Q1006 RMK 2CU008     6CU020 A2972=
20170527_010000.003,0,RJTF,,,,0,20170527010000,-1,-1,-1,-1,360,-1,8,-1,-1,320,30,,9999,0,0,2,FEW 10   SCT 25,1,23,1,18,1006,RJTF 270100Z 36008KT 320V030 9999 FEW010 SCT025 23/18 Q1006     RMK 1CU010 3CU025 A2972=
20170527_020000.002,0,RJTF,,,,0,20170527020000,-1,-1,-1,-1,10,-1,5,-1,-1,330,30,,9999,0,0,2,FEW 15   SCT 25,1,24,1,18,1006,RJTF 270200Z 01005KT 330V030 9999 FEW015 SCT025 24/18 Q1006     RMK 1CU015 4CU025 A2971=
20170527_030000.003,0,RJTF,,,,0,20170527030000,-1,-1,-1,-1,360,-1,10,-1,-1,320,30,,9999,0,0,2,FEW 20   SCT 30,1,24,1,17,1006,RJTF 270300Z 36010KT 320V030 9999 FEW020 SCT030 24/17 Q1006     RMK 1CU020 3CU030 A2971=
20170527_040000.002,0,RJTF,,,,0,20170527040000,-1,-1,-1,-1,40,-1,12,-1,-1,340,60,,9999,0,0,2,FEW 20   SCT 30,1,24,1,17,1006,RJTF 270400Z 04012KT 340V060 9999 FEW020 SCT030 24/17 Q1006     RMK 1CU020 4CU030 A2971=
20170527_050000.002,0,RJTF,,,,0,20170527050000,-1,-1,-1,-1,10,-1,12,-1,-1,-1,-1,,9999,0,0,3,FEW 10   BKN 30   FEW 30 TCU,1,22,1,16,1006,RJTF 270500Z 01012KT 9999 FEW010 BKN030 FEW030TCU 22/16 Q1006     RMK 1CU010 5CU030 2TCU030 A2971 TCU OVHD STNR=
20170527_060000.002,0,RJTF,,,,0,20170527060000,-1,-1,-1,-1,360,-1,9,-1,-1,330,30,,9999,0,0,2,FEW 20   BKN -9999,1,23,1,17,1006,RJTF 270600Z 36009KT 330V030 9999 FEW020 BKN/// 23/17 Q1006     RMK 2CU020 A2971=
20170527_070000.002,0,RJTF,,,,0,20170527070000,-1,-1,-1,-1,360,-1,11,-1,-1,320,30,,9999,0,0,2,FEW 20   BKN -9999,1,23,1,16,1006,RJTF 270700Z 36011KT 320V030 9999 FEW020 BKN/// 23/16 Q1006     RMK 1CU020 A2971=
20170527_080000.003,0,RJTF,,,,0,20170527080000,-1,-1,-1,-1,10,-1,10,-1,-1,320,60,,9999,0,0,2,FEW 20   SCT -9999,1,22,1,16,1006,RJTF 270800Z 01010KT 320V060 9999 FEW020 SCT/// 22/16 Q1006     RMK 2CU020 A2972=
20170527_090000.002,0,RJTF,,,,0,20170527090000,-1,-1,-1,-1,-1,-1,-1,-1,-1,-1,-1,,-1,0,0,0,,0,-1,0,-1,-1,RJTF 270900Z NIL=
20170527_233000.001,0,RJTF,,,,0,20170527230000,-1,-1,-1,-1,360,-1,4,-1,-1,-1,-1,,9999,0,0,2,FEW 30   SCT 60,1,21,1,13,1012,RJTF 272330Z 36004KT 9999 FEW030 SCT060 21/13 Q1012 RMK 1CU030     4SC060 A2988=
20170528_000000.003,0,RJTF,,,,0,20170528000000,-1,-1,-1,-1,30,-1,4,-1,-1,-1,-1,,9999,0,0,1,FEW 30,1,21,1,12,1011,RJTF 280000Z 03004KT 9999 FEW030 21/12 Q1011 RMK 2CU030 A2988=
20170528_010000.003,0,RJTF,,,,0,20170528010000,-1,-1,-1,-1,999,-1,2,-1,-1,-1,-1,,9999,0,0,1,BKN 30,1,22,1,12,1011,RJTF 280100Z VRB02KT 9999 BKN030 22/12 Q1011 RMK 6CU030 A2987=
20170528_020000.003,0,RJTF,,,,0,20170528020000,-1,-1,-1,-1,999,-1,2,-1,-1,-1,-1,,9999,0,0,1,BKN 30,1,23,1,13,1011,RJTF 280200Z VRB02KT 9999 BKN030 23/13 Q1011 RMK 5CU030 A2987=
20170528_030000.003,0,RJTF,,,,0,20170528030000,-1,-1,-1,-1,999,-1,3,-1,-1,-1,-1,,9999,0,0,1,SCT 30,1,24,1,11,1011,RJTF 280300Z VRB03KT 9999 SCT030 24/11 Q1011 RMK 4CU030 A2986=
20170528_040000.002,0,RJTF,,,,0,20170528040000,-1,-1,-1,-1,999,-1,3,-1,-1,-1,-1,,9999,0,0,2,FEW 30   SCT 50,1,25,1,12,1010,RJTF 280400Z VRB03KT 9999 FEW030 SCT050 25/12 Q1010 RMK 2CU030     4SC050 A2984=
20170528_050000.002,0,RJTF,,,,0,20170528050000,-1,-1,-1,-1,190,-1,6,-1,-1,150,230,,9999,0,0,2,FEW 30   BKN 50,1,25,1,13,1010,RJTF 280500Z 19006KT 150V230 9999 FEW030 BKN050 25/13 Q1010     RMK 2CU030 5SC050 A2983=
20170528_060000.003,0,RJTF,,,,0,20170528060000,-1,-1,-1,-1,190,-1,6,-1,-1,150,230,,9999,0,0,1,SCT 30,1,25,1,13,1009,RJTF 280600Z 19006KT 150V230 9999 SCT030 25/13 Q1009 RMK     3CU030 A2982=
20170528_070000.003,0,RJTF,,,,0,20170528070000,-1,-1,-1,-1,190,-1,9,-1,-1,-1,-1,,9999,0,0,1,FEW 30,1,25,1,14,1009,RJTF 280700Z 19009KT 9999 FEW030 25/14 Q1009 RMK 2CU030 A2982=
20170528_080000.003,0,RJTF,,,,0,20170528080000,-1,-1,-1,-1,190,-1,6,-1,-1,140,250,,9999,0,0,1,FEW 30,1,24,1,13,1010,RJTF 280800Z 19006KT 140V250 9999 FEW030 24/13 Q1010 RMK     1CU030 A2982=
20170528_090000.002,0,RJTF,,,,0,20170528090000,-1,-1,-1,-1,-1,-1,-1,-1,-1,-1,-1,,-1,0,0,0,,0,-1,0,-1,-1,RJTF 280900Z NIL=
20170528_233000.001,0,RJTF,,,,0,20170528230000,-1,-1,-1,-1,999,-1,2,-1,-1,-1,-1,CAVOK,-1,0,0,0,,1,22,1,13,1014,RJTF 282330Z VRB02KT CAVOK 22/13 Q1014 RMK A2997=
20170529_000000.004,0,RJTF,,,,0,20170529000000,-1,-1,-1,-1,999,-1,3,-1,-1,-1,-1,,9999,0,0,2,FEW 30   SCT -9999,1,23,1,13,1014,RJTF 290000Z VRB03KT 9999 FEW030 SCT/// 23/13 Q1014 RMK 1CU030     A2996=
20170529_010000.002,0,RJTF,,,,0,20170529010000,-1,-1,-1,-1,999,-1,4,-1,-1,-1,-1,,9999,0,0,2,FEW 30   SCT -9999,1,24,1,14,1014,RJTF 290100Z VRB04KT 9999 FEW030 SCT/// 24/14 Q1014 RMK 1CU030     A2995=
20170529_020000.002,0,RJTF,,,,0,20170529020000,-1,-1,-1,-1,180,-1,8,-1,18,150,270,,9999,0,0,1,FEW 30,1,25,1,14,1013,RJTF 290200Z 18008G18KT 150V270 9999 FEW030 25/14 Q1013 RMK     1CU030 A2992=
20170529_030000.002,0,RJTF,,,,0,20170529030000,-1,-1,-1,-1,150,-1,8,-1,-1,120,180,,9999,0,0,1,FEW 30,1,26,1,13,1012,RJTF 290300Z 15008KT 120V180 9999 FEW030 26/13 Q1012 RMK     1CU030 A2990=
20170529_040000.002,0,RJTF,,,,0,20170529040000,-1,-1,-1,-1,190,-1,9,-1,-1,130,220,,9999,0,0,1,FEW 30,1,27,1,14,1011,RJTF 290400Z 19009KT 130V220 9999 FEW030 27/14 Q1011 RMK     1CU030 A2988=
20170529_050000.002,0,RJTF,,,,0,20170529050000,-1,-1,-1,-1,180,-1,12,-1,-1,150,220,,9999,0,0,2,FEW 30   SCT -9999,1,26,1,14,1012,RJTF 290500Z 18012KT 150V220 9999 FEW030 SCT/// 26/14 Q1012     RMK 1CU030 A2988=
20170529_060000.002,0,RJTF,,,,0,20170529060000,-1,-1,-1,-1,200,-1,11,-1,-1,160,230,,9999,0,0,2,FEW 30   SCT -9999,1,25,1,15,1011,RJTF 290600Z 20011KT 160V230 9999 FEW030 SCT/// 25/15 Q1011     RMK 1CU030 A2986=
20170529_070000.002,0,RJTF,,,,0,20170529070000,-1,-1,-1,-1,180,-1,12,-1,-1,-1,-1,,9999,0,0,2,FEW 30   SCT -9999,1,24,1,14,1011,RJTF 290700Z 18012KT 9999 FEW030 SCT/// 24/14 Q1011 RMK 1CU030     A2986=
20170529_080000.003,0,RJTF,,,,0,20170529080000,-1,-1,-1,-1,190,-1,10,-1,-1,160,230,,9999,0,0,2,FEW 30   SCT -9999,1,23,1,14,1010,RJTF 290800Z 19010KT 160V230 9999 FEW030 SCT/// 23/14 Q1010     RMK 1CU030 A2983=
20170529_090000.002,0,RJTF,,,,0,20170529090000,-1,-1,-1,-1,-1,-1,-1,-1,-1,-1,-1,,-1,0,0,0,,0,-1,0,-1,-1,RJTF 290900Z NIL=
20170529_233000.001,0,RJTF,,,,0,20170529230000,-1,-1,-1,-1,999,-1,2,-1,-1,-1,-1,CAVOK,-1,0,0,0,,1,23,1,15,1011,RJTF 292330Z VRB02KT CAVOK 23/15 Q1011 RMK A2986=
20170530_000000.002,0,RJTF,,,,0,20170530000000,-1,-1,-1,-1,230,-1,3,-1,-1,160,330,CAVOK,-1,0,0,0,,1,24,1,16,1011,RJTF 300000Z 23003KT 160V330 CAVOK 24/16 Q1011 RMK A2986=
20170530_010000.002,0,RJTF,,,,0,20170530010000,-1,-1,-1,-1,180,-1,4,-1,-1,120,250,CAVOK,-1,0,0,0,,1,26,1,16,1010,RJTF 300100Z 18004KT 120V250 CAVOK 26/16 Q1010 RMK A2984=
20170530_020000.003,0,RJTF,,,,0,20170530020000,-1,-1,-1,-1,170,-1,6,-1,-1,130,240,CAVOK,-1,0,0,0,,1,28,1,16,1009,RJTF 300200Z 17006KT 130V240 CAVOK 28/16 Q1009 RMK A2982=
20170530_030000.002,0,RJTF,,,,0,20170530030000,-1,-1,-1,-1,180,-1,5,-1,-1,130,230,,9999,0,0,2,FEW 30   BKN -9999,1,28,1,16,1009,RJTF 300300Z 18005KT 130V230 9999 FEW030 BKN/// 28/16 Q1009     RMK 1CU030 A2980=
20170530_040000.002,0,RJTF,,,,0,20170530040000,-1,-1,-1,-1,999,-1,6,-1,-1,-1,-1,,9999,0,0,2,FEW 30   BKN -9999,1,29,1,15,1008,RJTF 300400Z VRB06KT 9999 FEW030 BKN/// 29/15 Q1008 RMK 1CU030     A2978=
20170530_050000.002,0,RJTF,,,,0,20170530050000,-1,-1,-1,-1,160,-1,9,-1,-1,-1,-1,,9999,0,0,2,FEW 30   BKN -9999,1,30,1,13,1007,RJTF 300500Z 16009KT 9999 FEW030 BKN/// 30/13 Q1007 RMK 1CU030     A2976=
20170530_060000.002,0,RJTF,,,,0,20170530060000,-1,-1,-1,-1,180,-1,8,-1,-1,140,220,,9999,0,0,2,FEW 30   BKN -9999,1,29,1,16,1007,RJTF 300600Z 18008KT 140V220 9999 FEW030 BKN/// 29/16 Q1007     RMK 1CU030 A2975=
20170530_070000.003,0,RJTF,,,,0,20170530070000,-1,-1,-1,-1,200,-1,7,-1,-1,160,230,,9999,0,0,2,FEW 30   BKN -9999,1,28,1,17,1007,RJTF 300700Z 20007KT 160V230 9999 FEW030 BKN/// 28/17 Q1007     RMK 1CU030 A2976=
20170530_080000.002,0,RJTF,,,,0,20170530080000,-1,-1,-1,-1,170,-1,7,-1,-1,-1,-1,,9999,0,0,2,FEW 30   BKN -9999,1,27,1,16,1008,RJTF 300800Z 17007KT 9999 FEW030 BKN/// 27/16 Q1008 RMK 1CU030     A2977=
20170530_090000.002,0,RJTF,,,,0,20170530090000,-1,-1,-1,-1,-1,-1,-1,-1,-1,-1,-1,,-1,0,0,0,,0,-1,0,-1,-1,RJTF 300900Z NIL=
20170530_233000.001,0,RJTF,,,,0,20170530230000,-1,-1,-1,-1,999,-1,1,-1,-1,-1,-1,,9999,0,0,2,FEW 25   BKN -9999,1,25,1,18,1008,RJTF 302330Z VRB01KT 9999 FEW025 BKN/// 25/18 Q1008 RMK 1CU025     A2977=
20170531_000000.003,0,RJTF,,,,0,20170531000000,-1,-1,-1,-1,999,-1,1,-1,-1,-1,-1,,9999,0,0,2,FEW 25   BKN -9999,1,25,1,17,1007,RJTF 310000Z VRB01KT 9999 FEW025 BKN/// 25/17 Q1007 RMK 1CU025     A2976=
20170531_010000.002,0,RJTF,,,,0,20170531010000,-1,-1,-1,-1,160,-1,4,-1,-1,110,270,,9999,0,0,3,FEW 25   SCT 180   BKN -9999,1,26,1,17,1007,RJTF 310100Z 16004KT 110V270 9999 FEW025 SCT180 BKN/// 26/17     Q1007 RMK 1CU025 3AC180 A2975=
20170531_020000.002,0,RJTF,,,,0,20170531020000,-1,-1,-1,-1,180,-1,5,-1,-1,130,240,,9999,0,0,3,FEW 35   SCT 170   BKN -9999,1,28,1,18,1006,RJTF 310200Z 18005KT 130V240 9999 FEW035 SCT170 BKN/// 28/18     Q1006 RMK 2CU035 3AC170 A2973=
20170531_030000.002,0,RJTF,,,,0,20170531030000,-1,-1,-1,-1,180,-1,9,-1,-1,130,220,,9999,0,0,2,SCT 30   BKN -9999,1,27,1,19,1006,RJTF 310300Z 18009KT 130V220 9999 SCT030 BKN/// 27/19 Q1006     RMK 3CU030 A2973=
20170531_040000.003,0,RJTF,,,,0,20170531040000,-1,-1,-1,-1,180,-1,9,-1,-1,-1,-1,,9999,0,0,2,SCT 25   BKN -9999,1,26,1,19,1006,RJTF 310400Z 18009KT 9999 SCT025 BKN/// 26/19 Q1006 RMK 3CU025     A2971=
20170531_050000.003,0,RJTF,,,,0,20170531050000,-1,-1,-1,-1,160,-1,11,-1,-1,-1,-1,,9999,0,0,2,SCT 25   BKN 180,1,27,1,19,1005,RJTF 310500Z 16011KT 9999 SCT025 BKN180 27/19 Q1005 RMK 3CU025     5AC180 A2969=
20170531_060000.002,0,RJTF,,,,0,20170531060000,-1,-1,-1,-1,190,-1,11,-1,-1,160,230,,9999,0,0,2,FEW 30   BKN -9999,1,26,1,18,1005,RJTF 310600Z 19011KT 160V230 9999 FEW030 BKN/// 26/18 Q1005     RMK 2CU030 A2968=
20170531_070000.002,0,RJTF,,,,0,20170531070000,-1,-1,-1,-1,180,-1,11,-1,-1,-1,-1,,9999,0,0,2,FEW 35   BKN -9999,1,25,1,17,1004,RJTF 310700Z 18011KT 9999 FEW035 BKN/// 25/17 Q1004 RMK 1CU035     A2966=
20170531_080000.002,0,RJTF,,,,0,20170531080000,-1,-1,-1,-1,170,-1,10,-1,-1,-1,-1,,9999,0,0,2,FEW 35   BKN -9999,1,25,1,18,1004,RJTF 310800Z 17010KT 9999 FEW035 BKN/// 25/18 Q1004 RMK 1CU035     A2966=
20170531_090000.003,0,RJTF,,,,0,20170531090000,-1,-1,-1,-1,-1,-1,-1,-1,-1,-1,-1,,-1,0,0,0,,0,-1,0,-1,-1,RJTF 310900Z NIL=
20170531_233000.001,0,RJTF,,,,0,20170531230000,-1,-1,-1,-1,270,-1,3,-1,-1,210,320,,9999,0,0,3,FEW 12   SCT 60   BKN 120,1,21,1,18,999,RJTF 312330Z 27003KT 210V320 9999 FEW012 SCT060 BKN120 21/18     Q0999 RMK 2CU012 3SC060 6AC120 A2953=
20170601_000000.003,0,RJTF,,,,0,20170601000000,-1,-1,-1,-1,999,-1,2,-1,-1,-1,-1,,9999,0,0,3,FEW 12   SCT 70   BKN 130,1,22,1,17,999,RJTF 010000Z VRB02KT 9999 FEW012 SCT070 BKN130 22/17 Q0999 RMK     2CU012 4AC070 6AC130 A2952=
20170601_010000.002,0,RJTF,,,,0,20170601010000,-1,-1,-1,-1,999,-1,1,-1,-1,-1,-1,,9999,0,0,3,FEW 15   SCT 80   BKN 130,1,23,1,17,999,RJTF 010100Z VRB01KT 9999 FEW015 SCT080 BKN130 23/17 Q0999 RMK     2CU015 4AC080 6AC130 A2951=
20170601_020000.003,0,RJTF,,,,0,20170601020000,-1,-1,-1,-1,999,-1,2,-1,-1,-1,-1,,9999,0,0,3,FEW 20   SCT 80   BKN 130,1,25,1,18,998,RJTF 010200Z VRB02KT 9999 FEW020 SCT080 BKN130 25/18 Q0998 RMK     2CU020 3AC080 5AC130 A2949=
20170601_030000.002,0,RJTF,,,,0,20170601030000,-1,-1,-1,-1,999,-1,2,-1,-1,-1,-1,,9999,0,0,3,FEW 30   SCT 50   BKN 130,1,26,1,18,997,RJTF 010300Z VRB02KT 9999 FEW030 SCT050 BKN130 26/18 Q0997 RMK     2CU030 4SC050 5AC130 A2945=
20170601_040000.002,0,RJTF,,,,0,20170601040000,-1,-1,-1,-1,999,-1,1,-1,-1,-1,-1,,9999,0,0,3,FEW 30   SCT 50   BKN 140,1,26,1,15,996,RJTF 010400Z VRB01KT 9999 FEW030 SCT050 BKN140 26/15 Q0996 RMK     2CU030 4SC050 5AC140 A2942=
20170601_050000.002,0,RJTF,,,,0,20170601050000,-1,-1,-1,-1,80,-1,6,-1,-1,30,120,,9999,0,0,3,FEW 30   SCT 50   BKN 130,1,26,1,17,996,RJTF 010500Z 08006KT 030V120 9999 FEW030 SCT050 BKN130 26/17     Q0996 RMK 2CU030 4SC050 5AC130 A2941=
20170601_060000.002,0,RJTF,,,,0,20170601060000,-1,-1,-1,-1,170,-1,10,-1,-1,-1,-1,,9999,0,1,3,SCT 25   BKN 40   BKN 50,1,23,1,19,996,RJTF 010600Z 17010KT 9999 SHRA SCT025 BKN040 BKN050 23/19     Q0996 RMK 3CU025 5CU040 6SC050 A2941=
20170601_070000.002,0,RJTF,,,,0,20170601070000,-1,-1,-1,-1,130,-1,8,-1,-1,-1,-1,,9999,0,0,3,FEW 25   SCT 60   BKN 120,1,22,1,19,996,RJTF 010700Z 13008KT 9999 FEW025 SCT060 BKN120 22/19 Q0996 RMK     2CU025 4SC060 5AC120 A2941=
20170601_080000.003,0,RJTF,,,,0,20170601080000,-1,-1,-1,-1,140,-1,4,-1,-1,-1,-1,,9999,0,0,3,FEW 30   SCT 60   BKN 100,1,24,1,18,995,RJTF 010800Z 14004KT 9999 FEW030 SCT060 BKN100 24/18 Q0995 RMK     2CU030 3SC060 6AC100 A2940=
20170601_090000.002,0,RJTF,,,,0,20170601090000,-1,-1,-1,-1,-1,-1,-1,-1,-1,-1,-1,,-1,0,0,0,,0,-1,0,-1,-1,RJTF 010900Z NIL=
20170601_233000.001,0,RJTF,,,,0,20170601230000,-1,-1,-1,-1,110,-1,5,-1,-1,70,200,,9999,0,0,1,FEW 30,1,24,1,16,992,RJTF 012330Z 11005KT 070V200 9999 FEW030 24/16 Q0992 RMK     1CU030 A2931=
20170602_000000.003,0,RJTF,,,,0,20170602000000,-1,-1,-1,-1,160,-1,5,-1,-1,100,230,,9999,0,0,1,FEW 30,1,25,1,15,992,RJTF 020000Z 16005KT 100V230 9999 FEW030 25/15 Q0992 RMK     1CU030 A2930=
20170602_010000.002,0,RJTF,,,,0,20170602010000,-1,-1,-1,-1,180,-1,8,-1,-1,140,230,,9999,0,0,1,FEW 30,1,27,1,12,991,RJTF 020100Z 18008KT 140V230 9999 FEW030 27/12 Q0991 RMK     2CU030 A2927=
20170602_020000.003,0,RJTF,,,,0,20170602020000,-1,-1,-1,-1,40,-1,10,-1,-1,360,70,,9999,0,0,2,FEW 20   SCT 30,1,28,1,12,990,RJTF 020200Z 04010KT 360V070 9999 FEW020 SCT030 28/12 Q0990     RMK 1CU020 3CU030 A2924=
20170602_030000.002,0,RJTF,,,,0,20170602030000,-1,-1,-1,-1,360,-1,6,-1,-1,250,50,,9999,0,0,2,FEW 20   SCT 30,1,29,1,13,990,RJTF 020300Z 36006KT 250V050 9999 FEW020 SCT030 29/13 Q0990     RMK 1CU020 3CU030 A2924=
20170602_040000.002,0,RJTF,,,,0,20170602040000,-1,-1,-1,-1,300,-1,7,-1,-1,250,350,,9999,0,0,2,FEW 20   BKN 30,1,29,1,5,990,RJTF 020400Z 30007KT 250V350 9999 FEW020 BKN030 29/05 Q0990     RMK 1CU020 5CU030 A2924=
20170602_050000.002,0,RJTF,,,,0,20170602050000,-1,-1,-1,-1,360,-1,20,-1,30,-1,-1,,9999,0,0,1,FEW 30,1,27,1,8,990,RJTF 020500Z 36020G30KT 9999 FEW030 27/08 Q0990 RMK 2CU030     A2926=
20170602_060000.002,0,RJTF,,,,0,20170602060000,-1,-1,-1,-1,360,-1,17,-1,-1,-1,-1,,9999,0,0,1,FEW 30,1,27,1,7,991,RJTF 020600Z 36017KT 9999 FEW030 27/07 Q0991 RMK 2CU030 A2928=
20170602_070000.002,0,RJTF,,,,0,20170602070000,-1,-1,-1,-1,350,-1,16,-1,28,320,20,,9999,0,0,1,FEW 30,1,27,1,5,992,RJTF 020700Z 35016G28KT 320V020 9999 FEW030 27/05 Q0992 RMK     1CU030 A2930=
20170602_080000.002,0,RJTF,,,,0,20170602080000,-1,-1,-1,-1,360,-1,15,-1,-1,-1,-1,,9999,0,0,1,FEW 30,1,25,1,3,993,RJTF 020800Z 36015KT 9999 FEW030 25/03 Q0993 RMK 1CU030 A2933=
20170602_090000.002,0,RJTF,,,,0,20170602090000,-1,-1,-1,-1,-1,-1,-1,-1,-1,-1,-1,,-1,0,0,0,,0,-1,0,-1,-1,RJTF 020900Z NIL=
20170602_233000.001,0,RJTF,,,,0,20170602230000,-1,-1,-1,-1,999,-1,3,-1,-1,-1,-1,,9999,0,0,1,FEW 30,1,21,1,5,1001,RJTF 022330Z VRB03KT 9999 FEW030 21/05 Q1001 RMK 1CU030 A2958=
20170603_000000.002,0,RJTF,,,,0,20170603000000,-1,-1,-1,-1,999,-1,2,-1,-1,-1,-1,,9999,0,0,1,FEW 30,1,22,1,6,1001,RJTF 030000Z VRB02KT 9999 FEW030 22/06 Q1001 RMK 1CU030 A2957=
20170603_010000.002,0,RJTF,,,,0,20170603010000,-1,-1,-1,-1,999,-1,4,-1,-1,-1,-1,,9999,0,0,3,FEW 30   SCT 100   BKN -9999,1,23,1,6,1000,RJTF 030100Z VRB04KT 9999 FEW030 SCT100 BKN/// 23/06 Q1000 RMK     1CU030 3AC100 A2955=
20170603_020000.004,0,RJTF,,,,0,20170603020000,-1,-1,-1,-1,210,-1,5,-1,-1,130,250,,9999,0,0,2,FEW 30   BKN -9999,1,25,1,10,1000,RJTF 030200Z 21005KT 130V250 9999 FEW030 BKN/// 25/10 Q1000     RMK 1CU030 A2954=
20170603_030000.002,0,RJTF,,,,0,20170603030000,-1,-1,-1,-1,170,-1,8,-1,-1,130,230,,9999,0,0,2,FEW 30   BKN -9999,1,25,1,10,999,RJTF 030300Z 17008KT 130V230 9999 FEW030 BKN/// 25/10 Q0999     RMK 1CU030 A2953=
20170603_040000.002,0,RJTF,,,,0,20170603040000,-1,-1,-1,-1,210,-1,8,-1,-1,140,250,,9999,0,0,2,FEW 30   SCT -9999,1,25,1,9,999,RJTF 030400Z 21008KT 140V250 9999 FEW030 SCT/// 25/09 Q0999     RMK 2CU030 A2952=
20170603_050000.003,0,RJTF,,,,0,20170603050000,-1,-1,-1,-1,220,-1,6,-1,-1,160,290,,9999,0,0,1,FEW 30,1,25,1,10,999,RJTF 030500Z 22006KT 160V290 9999 FEW030 25/10 Q0999 RMK     2CU030 A2950=
20170603_060000.003,0,RJTF,,,,0,20170603060000,-1,-1,-1,-1,170,-1,5,-1,-1,110,210,,9999,0,0,1,FEW 30,1,25,1,10,999,RJTF 030600Z 17005KT 110V210 9999 FEW030 25/10 Q0999 RMK     2CU030 A2951=
20170603_070000.003,0,RJTF,,,,0,20170603070000,-1,-1,-1,-1,999,-1,2,-1,-1,-1,-1,,9999,0,0,2,FEW 30   SCT 80,1,25,1,11,999,RJTF 030700Z VRB02KT 9999 FEW030 SCT080 25/11 Q0999 RMK 2CU030     3AC080 A2951=
20170603_080000.003,0,RJTF,,,,0,20170603080000,-1,-1,-1,-1,350,-1,13,-1,-1,-1,-1,,9999,0,0,2,FEW 30   SCT -9999,1,25,1,5,999,RJTF 030800Z 35013KT 9999 FEW030 SCT/// 25/05 Q0999 RMK 1CU030     A2952=
20170603_090000.003,0,RJTF,,,,0,20170603090000,-1,-1,-1,-1,-1,-1,-1,-1,-1,-1,-1,,-1,0,0,0,,0,-1,0,-1,-1,RJTF 030900Z NIL=
20170603_233000.001,0,RJTF,,,,0,20170603230000,-1,-1,-1,-1,350,-1,8,-1,-1,290,20,,9999,0,0,2,FEW 30   SCT 50,1,21,1,6,1007,RJTF 032330Z 35008KT 290V020 9999 FEW030 SCT050 21/06 Q1007     RMK 1CU030 3SC050 A2974=
20170604_000000.002,0,RJTF,,,,0,20170604000000,-1,-1,-1,-1,20,-1,8,-1,-1,330,60,,9999,0,0,2,FEW 30   SCT 50,1,21,1,6,1006,RJTF 040000Z 02008KT 330V060 9999 FEW030 SCT050 21/06 Q1006     RMK 1CU030 3SC050 A2973=
20170604_010000.003,0,RJTF,,,,0,20170604010000,-1,-1,-1,-1,999,-1,4,-1,-1,-1,-1,,9999,0,0,1,FEW 30,1,23,1,6,1006,RJTF 040100Z VRB04KT 9999 FEW030 23/06 Q1006 RMK 1CU030 A2972=
20170604_020000.002,0,RJTF,,,,0,20170604020000,-1,-1,-1,-1,350,-1,5,-1,-1,280,60,,9999,0,0,1,FEW 30,1,23,1,6,1006,RJTF 040200Z 35005KT 280V060 9999 FEW030 23/06 Q1006 RMK     1CU030 A2972=
20170604_030000.002,0,RJTF,,,,0,20170604030000,-1,-1,-1,-1,999,-1,4,-1,-1,-1,-1,,9999,0,0,1,FEW 30,1,24,1,5,1006,RJTF 040300Z VRB04KT 9999 FEW030 24/05 Q1006 RMK 1CU030 A2971=
20170604_040000.002,0,RJTF,,,,0,20170604040000,-1,-1,-1,-1,999,-1,3,-1,-1,-1,-1,,9999,0,0,2,FEW 30   SCT 70,1,25,1,5,1005,RJTF 040400Z VRB03KT 9999 FEW030 SCT070 25/05 Q1005 RMK 1CU030     3AC070 A2969=
20170604_050000.002,0,RJTF,,,,0,20170604050000,-1,-1,-1,-1,330,-1,5,-1,-1,270,20,,9999,0,0,2,FEW 30   SCT 70,1,26,1,6,1005,RJTF 040500Z 33005KT 270V020 9999 FEW030 SCT070 26/06 Q1005     RMK 1CU030 4AC070 A2969=
20170604_060000.002,0,RJTF,,,,0,20170604060000,-1,-1,-1,-1,20,-1,6,-1,-1,330,60,,9999,0,0,3,FEW 30   SCT 70   BKN 100,1,24,1,7,1005,RJTF 040600Z 02006KT 330V060 9999 FEW030 SCT070 BKN100 24/07     Q1005 RMK 1CU030 3AC070 5AC100 A2970=
20170604_070000.002,0,RJTF,,,,0,20170604070000,-1,-1,-1,-1,340,-1,4,-1,-1,290,20,,9999,0,0,2,FEW 30   BKN 70,1,24,1,5,1006,RJTF 040700Z 34004KT 290V020 9999 FEW030 BKN070 24/05 Q1006     RMK 1CU030 6AC070 A2972=
20170604_080000.002,0,RJTF,,,,0,20170604080000,-1,-1,-1,-1,350,-1,10,-1,-1,310,20,,9999,0,0,2,FEW 30   SCT 70,1,23,1,4,1007,RJTF 040800Z 35010KT 310V020 9999 FEW030 SCT070 23/04 Q1007     RMK 1CU030 3AC070 A2974=
20170604_090000.003,0,RJTF,,,,0,20170604090000,-1,-1,-1,-1,-1,-1,-1,-1,-1,-1,-1,,-1,0,0,0,,0,-1,0,-1,-1,RJTF 040900Z NIL=
20170604_233000.001,0,RJTF,,,,0,20170604230000,-1,-1,-1,-1,360,-1,3,-1,-1,300,70,,9999,0,0,2,FEW 30   SCT 70,1,20,1,7,1013,RJTF 042330Z 36003KT 300V070 9999 FEW030 SCT070 20/07 Q1013     RMK 1CU030 3AC070 A2992=
20170605_000000.002,0,RJTF,,,,0,20170605000000,-1,-1,-1,-1,120,-1,4,-1,-1,70,230,,9999,0,0,2,FEW 30   SCT 70,1,20,1,6,1013,RJTF 050000Z 12004KT 070V230 9999 FEW030 SCT070 20/06 Q1013     RMK 1CU030 3AC070 A2993=
20170605_010000.002,0,RJTF,,,,0,20170605010000,-1,-1,-1,-1,999,-1,3,-1,-1,-1,-1,,9999,0,0,2,FEW 30   SCT 70,1,22,1,6,1013,RJTF 050100Z VRB03KT 9999 FEW030 SCT070 22/06 Q1013 RMK 1CU030     3AC070 A2992=
20170605_020000.002,0,RJTF,,,,0,20170605020000,-1,-1,-1,-1,330,-1,5,-1,-1,230,30,,9999,0,0,2,FEW 30   SCT 80,1,23,1,4,1013,RJTF 050200Z 33005KT 230V030 9999 FEW030 SCT080 23/04 Q1013     RMK 1CU030 3AC080 A2992=
20170605_030000.002,0,RJTF,,,,0,20170605030000,-1,-1,-1,-1,999,-1,3,-1,-1,-1,-1,,9999,0,0,2,FEW 30   SCT 80,1,24,1,4,1012,RJTF 050300Z VRB03KT 9999 FEW030 SCT080 24/04 Q1012 RMK 1CU030     3AC080 A2990=
20170605_040000.002,0,RJTF,,,,0,20170605040000,-1,-1,-1,-1,999,-1,4,-1,-1,-1,-1,,9999,0,0,2,FEW 30   SCT 70,1,25,1,5,1012,RJTF 050400Z VRB04KT 9999 FEW030 SCT070 25/05 Q1012 RMK 1CU030     4AC070 A2990=
20170605_050000.002,0,RJTF,,,,0,20170605050000,-1,-1,-1,-1,160,-1,8,-1,-1,-1,-1,,9999,0,0,2,FEW 30   BKN 70,1,24,1,6,1012,RJTF 050500Z 16008KT 9999 FEW030 BKN070 24/06 Q1012 RMK 1CU030     5AC070 A2989=
20170605_060000.002,0,RJTF,,,,0,20170605060000,-1,-1,-1,-1,210,-1,6,-1,-1,160,250,,9999,0,0,2,FEW 30   BKN 80,1,24,1,8,1012,RJTF 050600Z 21006KT 160V250 9999 FEW030 BKN080 24/08 Q1012     RMK 1CU030 5AC080 A2990=
20170605_070000.002,0,RJTF,,,,0,20170605070000,-1,-1,-1,-1,210,-1,9,-1,-1,160,260,,9999,0,0,2,FEW 30   SCT 80,1,24,1,12,1012,RJTF 050700Z 21009KT 160V260 9999 FEW030 SCT080 24/12 Q1012     RMK 1CU030 3AC080 A2990=
20170605_080000.002,0,RJTF,,,,0,20170605080000,-1,-1,-1,-1,200,-1,9,-1,-1,170,230,,9999,0,0,2,FEW 30   SCT 70,1,22,1,12,1013,RJTF 050800Z 20009KT 170V230 9999 FEW030 SCT070 22/12 Q1013     RMK 1CU030 3AC070 A2992=
20170605_090000.002,0,RJTF,,,,0,20170605090000,-1,-1,-1,-1,-1,-1,-1,-1,-1,-1,-1,,-1,0,0,0,,0,-1,0,-1,-1,RJTF 050900Z NIL=
20170605_233000.001,0,RJTF,,,,0,20170605230000,-1,-1,-1,-1,999,-1,2,-1,-1,-1,-1,,9999,0,0,3,FEW 30   BKN 40   BKN 60,1,18,1,11,1020,RJTF 052330Z VRB02KT 9999 FEW030 BKN040 BKN060 18/11 Q1020 RMK     1CU030 5SC040 6SC060 A3014=
20170606_000000.002,0,RJTF,,,,0,20170606000000,-1,-1,-1,-1,999,-1,3,-1,-1,-1,-1,,9999,0,0,3,FEW 30   SCT 40   BKN 60,1,19,1,12,1020,RJTF 060000Z VRB03KT 9999 FEW030 SCT040 BKN060 19/12 Q1020 RMK     1CU030 4SC040 5SC060 A3013=
20170606_010000.003,0,RJTF,,,,0,20170606010000,-1,-1,-1,-1,999,-1,2,-1,-1,-1,-1,,9999,0,0,3,FEW 30   SCT 40   BKN 70,1,20,1,12,1020,RJTF 060100Z VRB02KT 9999 FEW030 SCT040 BKN070 20/12 Q1020 RMK     2CU030 4SC040 5AC070 A3013=
20170606_020000.003,0,RJTF,,,,0,20170606020000,-1,-1,-1,-1,120,-1,5,-1,-1,70,160,,9999,0,0,3,FEW 30   SCT 40   BKN 50,1,21,1,12,1019,RJTF 060200Z 12005KT 070V160 9999 FEW030 SCT040 BKN050 21/12     Q1019 RMK 1CU030 4SC040 5SC050 A3012=
20170606_030000.002,0,RJTF,,,,0,20170606030000,-1,-1,-1,-1,160,-1,5,-1,-1,60,210,,9999,0,0,3,FEW 30   SCT 45   BKN -9999,1,22,1,12,1019,RJTF 060300Z 16005KT 060V210 9999 FEW030 SCT045 BKN/// 22/12     Q1019 RMK 2CU030 4SC045 A3010=
20170606_040000.003,0,RJTF,,,,0,20170606040000,-1,-1,-1,-1,180,-1,5,-1,-1,150,230,,9999,0,0,3,SCT 35   BKN 50   BKN -9999,1,22,1,11,1019,RJTF 060400Z 18005KT 150V230 9999 SCT035 BKN050 BKN/// 22/11     Q1019 RMK 3CU035 5SC050 A3009=
20170606_050000.003,0,RJTF,,,,0,20170606050000,-1,-1,-1,-1,170,-1,8,-1,-1,140,210,,9999,0,0,3,FEW 35   SCT 50   BKN -9999,1,23,1,11,1018,RJTF 060500Z 17008KT 140V210 9999 FEW035 SCT050 BKN/// 23/11     Q1018 RMK 2CU035 4SC050 A3008=
20170606_060000.002,0,RJTF,,,,0,20170606060000,-1,-1,-1,-1,210,-1,9,-1,-1,190,250,,9999,0,0,3,FEW 30   SCT 40   BKN -9999,1,23,1,12,1018,RJTF 060600Z 21009KT 190V250 9999 FEW030 SCT040 BKN/// 23/12     Q1018 RMK 1CU030 3CU040 A3006=
20170606_070000.002,0,RJTF,,,,0,20170606070000,-1,-1,-1,-1,200,-1,8,-1,-1,150,250,,9999,0,0,2,FEW 40   BKN -9999,1,22,1,12,1018,RJTF 060700Z 20008KT 150V250 9999 FEW040 BKN/// 22/12 Q1018     RMK 2CU040 A3007=
20170606_080000.002,0,RJTF,,,,0,20170606080000,-1,-1,-1,-1,200,-1,9,-1,-1,160,230,,9999,0,0,2,FEW 40   BKN -9999,1,21,1,12,1018,RJTF 060800Z 20009KT 160V230 9999 FEW040 BKN/// 21/12 Q1018     RMK 1CU040 A3007=
20170606_090000.002,0,RJTF,,,,0,20170606090000,-1,-1,-1,-1,-1,-1,-1,-1,-1,-1,-1,,-1,0,0,0,,0,-1,0,-1,-1,RJTF 060900Z NIL=
20170606_233000.001,0,RJTF,,,,0,20170606230000,-1,-1,-1,-1,190,-1,6,-1,-1,160,230,,9999,0,0,3,FEW 20   SCT 30   BKN 45,1,20,1,15,1017,RJTF 062330Z 19006KT 160V230 9999 FEW020 SCT030 BKN045 20/15     Q1017 RMK 2CU020 4SC030 7SC045 A3004=
20170607_000000.002,0,RJTF,,,,0,20170607000000,-1,-1,-1,-1,170,-1,8,-1,-1,140,210,,9999,0,0,3,FEW 20   SCT 30   BKN 40,1,21,1,15,1017,RJTF 070000Z 17008KT 140V210 9999 FEW020 SCT030 BKN040 21/15     Q1017 RMK 2CU020 4CU030 7SC040 A3004=
20170607_010000.003,0,RJTF,,,,0,20170607010000,-1,-1,-1,-1,160,-1,7,-1,-1,-1,-1,,9999,0,0,3,FEW 25   SCT 35   BKN 45,1,22,1,15,1017,RJTF 070100Z 16007KT 9999 FEW025 SCT035 BKN045 22/15 Q1017 RMK     2CU025 4CU035 7SC045 A3003=
20170607_020000.002,0,RJTF,,,,0,20170607020000,-1,-1,-1,-1,180,-1,10,-1,-1,140,220,,9999,0,0,3,FEW 25   SCT 35   BKN 50,1,22,1,14,1016,RJTF 070200Z 18010KT 140V220 9999 FEW025 SCT035 BKN050 22/14     Q1016 RMK 2CU025 4CU035 7SC050 A3002=
20170607_030000.003,0,RJTF,,,,0,20170607030000,-1,-1,-1,-1,180,-1,12,-1,-1,150,210,,9999,0,0,3,FEW 25   SCT 50   BKN 160,1,22,1,15,1015,RJTF 070300Z 18012KT 150V210 9999 FEW025 SCT050 BKN160 22/15     Q1015 RMK 1CU025 3SC050 7AC160 A2999=
20170607_040000.003,0,RJTF,,,,0,20170607040000,-1,-1,-1,-1,210,-1,9,-1,-1,180,240,,9999,0,0,3,FEW 25   SCT 35   BKN 150,1,22,1,14,1016,RJTF 070400Z 21009KT 180V240 9999 FEW025 SCT035 BKN150 22/14     Q1016 RMK 1CU025 4SC035 7AC150 A3000=
20170607_050000.002,0,RJTF,,,,0,20170607050000,-1,-1,-1,-1,180,-1,13,-1,-1,160,230,,9999,0,0,2,FEW 25   BKN 130,1,21,1,14,1014,RJTF 070500Z 18013KT 160V230 9999 FEW025 BKN130 21/14 Q1014     RMK 1CU025 7AC130 A2996=
20170607_060000.002,0,RJTF,,,,0,20170607060000,-1,-1,-1,-1,180,-1,15,-1,-1,-1,-1,,9999,0,0,2,FEW 30   BKN 130,1,22,1,13,1014,RJTF 070600Z 18015KT 9999 FEW030 BKN130 22/13 Q1014 RMK 2CU030     7AC130 A2994=
20170607_070000.002,0,RJTF,,,,0,20170607070000,-1,-1,-1,-1,180,-1,13,-1,-1,-1,-1,,9999,0,0,3,FEW 30   SCT 40   BKN 170,1,22,1,13,1013,RJTF 070700Z 18013KT 9999 FEW030 SCT040 BKN170 22/13 Q1013 RMK     1CU030 3SC040 7AC170 A2993=
20170607_080000.002,0,RJTF,,,,0,20170607080000,-1,-1,-1,-1,180,-1,12,-1,-1,150,210,,9999,0,0,3,FEW 30   SCT 70   BKN 150,1,21,1,14,1013,RJTF 070800Z 18012KT 150V210 9999 FEW030 SCT070 BKN150 21/14     Q1013 RMK 1CU030 3AC070 7AC150 A2993=
20170607_090000.002,0,RJTF,,,,0,20170607090000,-1,-1,-1,-1,-1,-1,-1,-1,-1,-1,-1,,-1,0,0,0,,0,-1,0,-1,-1,RJTF 070900Z NIL=
20170607_233000.001,0,RJTF,,,,0,20170607230000,-1,-1,-1,-1,210,-1,9,-1,-1,160,240,,9999,0,0,3,FEW 20   SCT 80   BKN 130,1,23,1,14,1007,RJTF 072330Z 21009KT 160V240 9999 FEW020 SCT080 BKN130 23/14     Q1007 RMK 1CU020 4AC080 6AC130 A2976=
20170608_000000.002,0,RJTF,,,,0,20170608000000,-1,-1,-1,-1,210,-1,11,-1,-1,160,240,,9999,0,0,3,FEW 20   BKN 60   BKN 130,1,22,1,16,1007,RJTF 080000Z 21011KT 160V240 9999 FEW020 BKN060 BKN130 22/16     Q1007 RMK 1CU020 5SC060 6AC130 A2976=
20170608_010000.003,0,RJTF,,,,0,20170608010000,-1,-1,-1,-1,190,-1,11,-1,-1,-1,-1,,9999,0,1,3,FEW 20   BKN 40   BKN 80,1,21,1,15,1007,RJTF 080100Z 19011KT 9999 -SHRA FEW020 BKN040 BKN080 21/15     Q1007 RMK 2CU020 5SC040 7AC080 A2975=
20170608_020000.002,0,RJTF,,,,0,20170608020000,-1,-1,-1,-1,180,-1,12,-1,-1,-1,-1,,9999,0,0,3,FEW 20   SCT 50   BKN 80,1,21,1,17,1006,RJTF 080200Z 18012KT 9999 FEW020 SCT050 BKN080 21/17 Q1006 RMK     2CU020 4SC050 7AC080 A2973=
20170608_030000.002,0,RJTF,,,,0,20170608030000,-1,-1,-1,-1,180,-1,12,-1,-1,-1,-1,,9999,0,0,3,FEW 8   BKN 10   BKN 80,1,21,1,17,1006,RJTF 080300Z 18012KT 9999 FEW008 BKN010 BKN080 21/17 Q1006 RMK     1ST008 5CU010 7AC080 A2972=
20170608_040000.002,0,RJTF,,,,0,20170608040000,-1,-1,-1,-1,180,-1,10,-1,-1,150,220,,9999,0,0,3,SCT 10   SCT 50   BKN 100,1,22,1,18,1005,RJTF 080400Z 18010KT 150V220 9999 SCT010 SCT050 BKN100 22/18     Q1005 RMK 3CU010 3SC050 6AC100 A2968=
20170608_050000.002,0,RJTF,,,,0,20170608050000,-1,-1,-1,-1,180,-1,8,-1,-1,-1,-1,,9999,0,0,2,SCT 15   SCT 80,1,25,1,18,1004,RJTF 080500Z 18008KT 9999 SCT015 SCT080 25/18 Q1004 RMK 4CU015     3AC080 A2966=
20170608_060000.003,0,RJTF,,,,0,20170608060000,-1,-1,-1,-1,190,-1,12,-1,-1,150,230,,9999,0,0,1,FEW 20,1,25,1,17,1003,RJTF 080600Z 19012KT 150V230 9999 FEW020 25/17 Q1003 RMK     2CU020 A2963=
20170608_070000.002,0,RJTF,,,,0,20170608070000,-1,-1,-1,-1,210,-1,10,-1,-1,170,230,,9999,0,0,2,FEW 20   SCT 60,1,26,1,18,1003,RJTF 080700Z 21010KT 170V230 9999 FEW020 SCT060 26/18 Q1003     RMK 2CU020 3SC060 A2962=
20170608_080000.002,0,RJTF,,,,0,20170608080000,-1,-1,-1,-1,210,-1,9,-1,-1,160,250,,9999,0,0,1,FEW 20,1,25,1,17,1003,RJTF 080800Z 21009KT 160V250 9999 FEW020 25/17 Q1003 RMK     1CU020 A2963=
20170608_090000.002,0,RJTF,,,,0,20170608090000,-1,-1,-1,-1,-1,-1,-1,-1,-1,-1,-1,,-1,0,0,0,,0,-1,0,-1,-1,RJTF 080900Z NIL=
20170608_233000.001,0,RJTF,,,,0,20170608230000,-1,-1,-1,-1,50,-1,5,-1,-1,10,90,,9999,0,1,3,FEW 15   BKN 25   BKN 40,1,22,1,16,1008,RJTF 082330Z 05005KT 010V090 9999 VCSH FEW015 BKN025 BKN040     22/16 Q1008 RMK 2CU015 5CU025 7SC040 A2977=
20170609_000000.002,0,RJTF,,,,0,20170609000000,-1,-1,-1,-1,90,-1,7,-1,-1,40,150,,9999,0,0,3,FEW 20   BKN 30   BKN 60,1,23,1,14,1008,RJTF 090000Z 09007KT 040V150 9999 FEW020 BKN030 BKN060 23/14     Q1008 RMK 2CU020 5SC030 7SC060 A2978=
20170609_010000.002,0,RJTF,,,,0,20170609010000,-1,-1,-1,-1,90,-1,5,-1,-1,30,140,,9999,0,0,3,FEW 25   SCT 40   BKN 60,1,23,1,14,1008,RJTF 090100Z 09005KT 030V140 9999 FEW025 SCT040 BKN060 23/14     Q1008 RMK 2CU025 3SC040 6SC060 A2977=
20170609_020000.002,0,RJTF,,,,0,20170609020000,-1,-1,-1,-1,130,-1,7,-1,-1,90,190,,9999,0,0,3,FEW 30   SCT 60   BKN -9999,1,25,1,14,1007,RJTF 090200Z 13007KT 090V190 9999 FEW030 SCT060 BKN/// 25/14     Q1007 RMK 2CU030 4SC060 A2975=
20170609_030000.002,0,RJTF,,,,0,20170609030000,-1,-1,-1,-1,150,-1,6,-1,-1,50,190,,9999,0,0,2,SCT 30   BKN 60,1,26,1,14,1007,RJTF 090300Z 15006KT 050V190 9999 SCT030 BKN060 26/14 Q1007     RMK 3CU030 5SC060 A2974=
20170609_040000.002,0,RJTF,,,,0,20170609040000,-1,-1,-1,-1,140,-1,10,-1,-1,-1,-1,,9999,0,0,2,SCT 30   SCT -9999,1,27,1,14,1006,RJTF 090400Z 14010KT 9999 SCT030 SCT/// 27/14 Q1006 RMK 3CU030     A2973=
20170609_050000.002,0,RJTF,,,,0,20170609050000,-1,-1,-1,-1,150,-1,9,-1,-1,110,180,,9999,0,0,2,FEW 30   SCT -9999,1,27,1,13,1005,RJTF 090500Z 15009KT 110V180 9999 FEW030 SCT/// 27/13 Q1005     RMK 2CU030 A2970=
20170609_060000.002,0,RJTF,,,,0,20170609060000,-1,-1,-1,-1,150,-1,10,-1,-1,-1,-1,,9999,0,0,2,FEW 30   BKN -9999,1,26,1,12,1005,RJTF 090600Z 15010KT 9999 FEW030 BKN/// 26/12 Q1005 RMK 2CU030     A2968=
20170609_070000.002,0,RJTF,,,,0,20170609070000,-1,-1,-1,-1,150,-1,10,-1,-1,120,190,,9999,0,0,2,FEW 30   BKN -9999,1,26,1,13,1005,RJTF 090700Z 15010KT 120V190 9999 FEW030 BKN/// 26/13 Q1005     RMK 2CU030 A2968=
20170609_080000.002,0,RJTF,,,,0,20170609080000,-1,-1,-1,-1,180,-1,9,-1,-1,150,210,,9999,0,0,3,FEW 30   SCT 180   BKN -9999,1,26,1,14,1004,RJTF 090800Z 18009KT 150V210 9999 FEW030 SCT180 BKN/// 26/14     Q1004 RMK 1CU030 3AC180 A2967=
20170609_090000.002,0,RJTF,,,,0,20170609090000,-1,-1,-1,-1,-1,-1,-1,-1,-1,-1,-1,,-1,0,0,0,,0,-1,0,-1,-1,RJTF 090900Z NIL=
20170609_233000.001,0,RJTF,,,,0,20170609230000,-1,-1,-1,-1,210,-1,7,-1,-1,160,250,CAVOK,-1,0,0,0,,1,25,1,16,1004,RJTF 092330Z 21007KT 160V250 CAVOK 25/16 Q1004 RMK A2967=
20170610_000000.002,0,RJTF,,,,0,20170610000000,-1,-1,-1,-1,180,-1,6,-1,-1,140,230,CAVOK,-1,0,0,0,,1,26,1,16,1004,RJTF 100000Z 18006KT 140V230 CAVOK 26/16 Q1004 RMK A2965=
20170610_010000.002,0,RJTF,,,,0,20170610010000,-1,-1,-1,-1,180,-1,8,-1,-1,140,210,,9999,0,0,2,FEW 30   BKN -9999,1,27,1,16,1003,RJTF 100100Z 18008KT 140V210 9999 FEW030 BKN/// 27/16 Q1003     RMK 1CU030 A2963=
20170610_020000.002,0,RJTF,,,,0,20170610020000,-1,-1,-1,-1,190,-1,8,-1,-1,160,250,,9999,0,0,2,FEW 30   BKN -9999,1,28,1,16,1002,RJTF 100200Z 19008KT 160V250 9999 FEW030 BKN/// 28/16 Q1002     RMK 1CU030 A2961=
20170610_030000.002,0,RJTF,,,,0,20170610030000,-1,-1,-1,-1,190,-1,11,-1,-1,160,220,,9999,0,0,2,FEW 30   BKN -9999,1,28,1,14,1001,RJTF 100300Z 19011KT 160V220 9999 FEW030 BKN/// 28/14 Q1001     RMK 1CU030 A2956=
20170610_040000.002,0,RJTF,,,,0,20170610040000,-1,-1,-1,-1,190,-1,15,-1,-1,160,220,,9999,0,0,2,FEW 30   BKN -9999,1,29,1,13,999,RJTF 100400Z 19015KT 160V220 9999 FEW030 BKN/// 29/13 Q0999     RMK 1CU030 A2953=
20170610_050000.002,0,RJTF,,,,0,20170610050000,-1,-1,-1,-1,200,-1,15,-1,-1,-1,-1,,9999,0,0,3,FEW 30   SCT 120   BKN -9999,1,29,1,12,999,RJTF 100500Z 20015KT 9999 FEW030 SCT120 BKN/// 29/12 Q0999 RMK     1CU030 3AC120 A2951=
20170610_060000.002,0,RJTF,,,,0,20170610060000,-1,-1,-1,-1,200,-1,13,-1,23,170,230,,9999,0,0,3,FEW 30   SCT 100   BKN -9999,1,29,1,11,999,RJTF 100600Z 20013G23KT 170V230 9999 FEW030 SCT100 BKN///     29/11 Q0999 RMK 1CU030 3AC100 A2951=
20170610_070000.003,0,RJTF,,,,0,20170610070000,-1,-1,-1,-1,210,-1,12,-1,-1,-1,-1,,9999,0,0,2,FEW 30   BKN -9999,1,30,1,12,999,RJTF 100700Z 21012KT 9999 FEW030 BKN/// 30/12 Q0999 RMK 1CU030     A2952=
20170610_080000.002,0,RJTF,,,,0,20170610080000,-1,-1,-1,-1,220,-1,8,-1,-1,180,250,,9999,0,0,3,FEW 30   SCT 120   BKN -9999,1,28,1,11,1000,RJTF 100800Z 22008KT 180V250 9999 FEW030 SCT120 BKN/// 28/11     Q1000 RMK 1CU030 3AC120 A2954=
20170610_090000.002,0,RJTF,,,,0,20170610090000,-1,-1,-1,-1,-1,-1,-1,-1,-1,-1,-1,,-1,0,0,0,,0,-1,0,-1,-1,RJTF 100900Z NIL=
20170610_233000.001,0,RJTF,,,,0,20170610230000,-1,-1,-1,-1,20,-1,6,-1,-1,350,60,,9999,0,0,3,FEW 30   SCT 50   BKN -9999,1,22,1,7,1006,RJTF 102330Z 02006KT 350V060 9999 FEW030 SCT050 BKN/// 22/07     Q1006 RMK 1SC030 3SC050 A2972=
20170611_000000.002,0,RJTF,,,,0,20170611000000,-1,-1,-1,-1,10,-1,5,-1,-1,320,50,,9999,0,0,3,FEW 30   SCT 45   BKN -9999,1,22,1,6,1006,RJTF 110000Z 01005KT 320V050 9999 FEW030 SCT045 BKN/// 22/06     Q1006 RMK 2SC030 3SC045 A2972=
20170611_010000.002,0,RJTF,,,,0,20170611010000,-1,-1,-1,-1,70,-1,6,-1,-1,360,120,,9999,0,0,3,FEW 30   SCT 40   BKN -9999,1,23,1,7,1005,RJTF 110100Z 07006KT 360V120 9999 FEW030 SCT040 BKN/// 23/07     Q1005 RMK 1CU030 3SC040 A2970=
20170611_020000.002,0,RJTF,,,,0,20170611020000,-1,-1,-1,-1,130,-1,5,-1,-1,90,220,,9999,0,0,3,FEW 30   SCT 45   BKN -9999,1,25,1,9,1005,RJTF 110200Z 13005KT 090V220 9999 FEW030 SCT045 BKN/// 25/09     Q1005 RMK 1CU030 3SC045 A2969=
20170611_030000.002,0,RJTF,,,,0,20170611030000,-1,-1,-1,-1,160,-1,8,-1,-1,120,200,,9999,0,0,3,FEW 30   SCT 40   BKN -9999,1,25,1,13,1004,RJTF 110300Z 16008KT 120V200 9999 FEW030 SCT040 BKN/// 25/13     Q1004 RMK 1CU030 3SC040 A2967=
20170611_040000.002,0,RJTF,,,,0,20170611040000,-1,-1,-1,-1,150,-1,9,-1,-1,120,180,,9999,0,0,3,FEW 30   SCT 40   BKN -9999,1,24,1,14,1005,RJTF 110400Z 15009KT 120V180 9999 FEW030 SCT040 BKN/// 24/14     Q1005 RMK 1CU030 3SC040 A2968=
20170611_050000.002,0,RJTF,,,,0,20170611050000,-1,-1,-1,-1,140,-1,10,-1,-1,90,170,,9999,0,0,3,FEW 30   BKN 45   BKN -9999,1,23,1,14,1004,RJTF 110500Z 14010KT 090V170 9999 FEW030 BKN045 BKN/// 23/14     Q1004 RMK 1CU030 5SC045 A2967=
20170611_060000.002,0,RJTF,,,,0,20170611060000,-1,-1,-1,-1,130,-1,10,-1,-1,100,170,,9999,0,0,3,FEW 30   BKN 40   BKN -9999,1,24,1,14,1004,RJTF 110600Z 13010KT 100V170 9999 FEW030 BKN040 BKN/// 24/14     Q1004 RMK 1CU030 5SC040 A2966=
20170611_070000.002,0,RJTF,,,,0,20170611070000,-1,-1,-1,-1,130,-1,11,-1,-1,-1,-1,,9999,0,0,3,FEW 35   BKN 50   BKN -9999,1,23,1,14,1003,RJTF 110700Z 13011KT 9999 FEW035 BKN050 BKN/// 23/14 Q1003 RMK     2CU035 5SC050 A2964=
20170611_080000.002,0,RJTF,,,,0,20170611080000,-1,-1,-1,-1,120,-1,8,-1,-1,-1,-1,,9999,0,0,3,FEW 30   SCT 100   BKN -9999,1,23,1,14,1004,RJTF 110800Z 12008KT 9999 FEW030 SCT100 BKN/// 23/14 Q1004 RMK     1CU030 3AC100 A2965=
20170611_090000.002,0,RJTF,,,,0,20170611090000,-1,-1,-1,-1,-1,-1,-1,-1,-1,-1,-1,,-1,0,0,0,,0,-1,0,-1,-1,RJTF 110900Z NIL=
20170611_233000.001,0,RJTF,,,,0,20170611230000,-1,-1,-1,-1,340,-1,6,-1,-1,310,30,,9999,0,0,3,FEW 25   SCT 60   BKN -9999,1,20,1,12,1010,RJTF 112330Z 34006KT 310V030 9999 FEW025 SCT060 BKN/// 20/12     Q1010 RMK 1CU025 4SC060 A2983=
20170612_000000.002,0,RJTF,,,,0,20170612000000,-1,-1,-1,-1,330,-1,5,-1,-1,290,50,,9999,0,0,2,FEW 25   SCT 60,1,20,1,13,1010,RJTF 120000Z 33005KT 290V050 9999 FEW025 SCT060 20/13 Q1010     RMK 1CU025 4SC060 A2983=
20170612_010000.003,0,RJTF,,,,0,20170612010000,-1,-1,-1,-1,360,-1,5,-1,-1,310,80,,9999,0,0,3,FEW 30   SCT 60   BKN -9999,1,21,1,11,1010,RJTF 120100Z 36005KT 310V080 9999 FEW030 SCT060 BKN/// 21/11     Q1010 RMK 2CU030 3SC060 A2983=
20170612_020000.002,0,RJTF,,,,0,20170612020000,-1,-1,-1,-1,20,-1,5,-1,-1,290,110,,9999,0,0,3,FEW 35   SCT 70   BKN -9999,1,22,1,8,1010,RJTF 120200Z 02005KT 290V110 9999 FEW035 SCT070 BKN/// 22/08     Q1010 RMK 2CU035 3AC070 A2983=
20170612_030000.002,0,RJTF,,,,0,20170612030000,-1,-1,-1,-1,330,-1,6,-1,-1,250,40,,9999,0,0,3,FEW 30   SCT 60   BKN 80,1,23,1,6,1009,RJTF 120300Z 33006KT 250V040 9999 FEW030 SCT060 BKN080 23/06     Q1009 RMK 2CU030 4SC060 6AC080 A2982=
20170612_040000.002,0,RJTF,,,,0,20170612040000,-1,-1,-1,-1,10,-1,6,-1,-1,330,50,,9999,0,0,3,FEW 30   SCT 60   BKN 90,1,24,1,7,1009,RJTF 120400Z 01006KT 330V050 9999 FEW030 SCT060 BKN090 24/07     Q1009 RMK 1CU030 4SC060 6AC090 A2981=
20170612_050000.002,0,RJTF,,,,0,20170612050000,-1,-1,-1,-1,150,-1,4,-1,-1,110,200,,9999,0,0,3,FEW 30   SCT 70   BKN 100,1,24,1,6,1009,RJTF 120500Z 15004KT 110V200 9999 FEW030 SCT070 BKN100 24/06     Q1009 RMK 1CU030 3AC070 5AC100 A2980=
20170612_060000.002,0,RJTF,,,,0,20170612060000,-1,-1,-1,-1,210,-1,4,-1,-1,160,260,,9999,0,0,2,FEW 30   BKN 80,1,24,1,8,1009,RJTF 120600Z 21004KT 160V260 9999 FEW030 BKN080 24/08 Q1009     RMK 1CU030 5AC080 A2980=
20170612_070000.002,0,RJTF,,,,0,20170612070000,-1,-1,-1,-1,230,-1,6,-1,-1,180,290,,9999,0,0,2,FEW 30   SCT 90,1,23,1,10,1009,RJTF 120700Z 23006KT 180V290 9999 FEW030 SCT090 23/10 Q1009     RMK 1CU030 4AC090 A2980=
20170612_080000.002,0,RJTF,,,,0,20170612080000,-1,-1,-1,-1,230,-1,6,-1,-1,190,300,,9999,0,0,2,FEW 30   SCT 90,1,23,1,10,1009,RJTF 120800Z 23006KT 190V300 9999 FEW030 SCT090 23/10 Q1009     RMK 1CU030 3AC090 A2980=
20170612_090000.002,0,RJTF,,,,0,20170612090000,-1,-1,-1,-1,-1,-1,-1,-1,-1,-1,-1,,-1,0,0,0,,0,-1,0,-1,-1,RJTF 120900Z NIL=
20170612_233000.001,0,RJTF,,,,0,20170612230000,-1,-1,-1,-1,30,-1,4,-1,-1,340,80,,9999,0,0,3,FEW 15   BKN 25   BKN 45,1,17,1,14,1015,RJTF 122330Z 03004KT 340V080 9999 FEW015 BKN025 BKN045 17/14     Q1015 RMK 1CU015 5SC025 7SC045 A2999=
20170613_000000.002,0,RJTF,,,,0,20170613000000,-1,-1,-1,-1,40,-1,4,-1,-1,360,90,,9999,0,0,3,FEW 20   SCT 25   BKN 40,1,17,1,12,1015,RJTF 130000Z 04004KT 360V090 9999 FEW020 SCT025 BKN040 17/12     Q1015 RMK 1CU020 4SC025 7SC040 A2998=
20170613_010000.002,0,RJTF,,,,0,20170613010000,-1,-1,-1,-1,20,-1,6,-1,-1,340,50,,9999,0,1,3,FEW 20   SCT 25   BKN 40,1,17,1,13,1015,RJTF 130100Z 02006KT 340V050 9999 VCSH FEW020 SCT025 BKN040     17/13 Q1015 RMK 1CU020 4SC025 7SC040 A2998=
20170613_020000.002,0,RJTF,,,,0,20170613020000,-1,-1,-1,-1,70,-1,5,-1,-1,20,110,,9999,0,1,3,FEW 15   SCT 20   BKN 35,1,18,1,14,1014,RJTF 130200Z 07005KT 020V110 9999 -RA FEW015 SCT020 BKN035     18/14 Q1014 RMK 1CU015 4SC020 7SC035 A2997=
20170613_030000.002,0,RJTF,,,,0,20170613030000,-1,-1,-1,-1,40,-1,6,-1,-1,-1,-1,,7000,0,1,3,FEW 8   SCT 15   BKN 25,1,17,1,15,1014,RJTF 130300Z 04006KT 7000 -RA FEW008 SCT015 BKN025 17/15 Q1014     RMK 1ST008 4CU015 7SC025 A2996=
20170613_040000.002,0,RJTF,,,,0,20170613040000,-1,-1,-1,-1,20,-1,5,-1,-1,350,60,,4000,0,2,3,FEW 6   BKN 12   BKN 20,1,16,1,15,1014,RJTF 130400Z 02005KT 350V060 4000 -RA BR FEW006 BKN012 BKN020     16/15 Q1014 RMK 2ST006 5CU012 7SC020 A2995=
20170613_050000.002,0,RJTF,,,,0,20170613050000,-1,-1,-1,-1,50,-1,3,-1,-1,10,110,,5000,0,2,3,FEW 8   BKN 15   BKN 25,1,17,1,15,1014,RJTF 130500Z 05003KT 010V110 5000 -RA BR FEW008 BKN015 BKN025     17/15 Q1014 RMK 2ST008 5SC015 7SC025 A2995=
20170613_060000.002,0,RJTF,,,,0,20170613060000,-1,-1,-1,-1,999,-1,1,-1,-1,-1,-1,,4000,0,2,3,FEW 6   SCT 13   BKN 35,1,17,1,15,1013,RJTF 130600Z VRB01KT 4000 -RA BR FEW006 SCT013 BKN035 17/15     Q1013 RMK 1ST006 4CU013 7SC035 A2994=
20170613_070000.002,0,RJTF,,,,0,20170613070000,-1,-1,-1,-1,999,-1,2,-1,-1,-1,-1,,3500,0,2,3,FEW 6   SCT 13   BKN 35,1,17,1,15,1013,RJTF 130700Z VRB02KT 3500 -RA BR FEW006 SCT013 BKN035 17/15     Q1013 RMK 1ST006 4CU013 7SC035 A2992=
20170613_080000.002,0,RJTF,,,,0,20170613080000,-1,-1,-1,-1,10,-1,3,-1,-1,330,40,,4500,0,2,3,FEW 7   SCT 12   BKN 30,1,17,1,16,1013,RJTF 130800Z 01003KT 330V040 4500 -RA BR FEW007 SCT012 BKN030     17/16 Q1013 RMK 1ST007 4CU012 7SC030 A2992=
20170613_090000.002,0,RJTF,,,,0,20170613090000,-1,-1,-1,-1,-1,-1,-1,-1,-1,-1,-1,,-1,0,0,0,,0,-1,0,-1,-1,RJTF 130900Z NIL=
20170613_233000.001,0,RJTF,,,,0,20170613230000,-1,-1,-1,-1,360,-1,7,-1,-1,-1,-1,,8000,0,0,3,FEW 7   SCT 10   BKN 25,1,18,1,14,1010,RJTF 132330Z 36007KT 8000 FEW007 SCT010 BKN025 18/14 Q1010 RMK     1CU007 3CU010 7SC025 A2985=
20170614_000000.003,0,RJTF,,,,0,20170614000000,-1,-1,-1,-1,350,-1,8,-1,-1,320,20,,9999,0,0,3,FEW 10   BKN 25   BKN 40,1,19,1,15,1010,RJTF 140000Z 35008KT 320V020 9999 FEW010 BKN025 BKN040 19/15     Q1010 RMK 2CU010 5SC025 7SC040 A2984=
20170614_010000.002,0,RJTF,,,,0,20170614010000,-1,-1,-1,-1,350,-1,6,-1,-1,310,50,,9999,0,0,3,FEW 15   SCT 25   BKN 40,1,20,1,14,1010,RJTF 140100Z 35006KT 310V050 9999 FEW015 SCT025 BKN040 20/14     Q1010 RMK 2CU015 4CU025 7SC040 A2984=
20170614_020000.002,0,RJTF,,,,0,20170614020000,-1,-1,-1,-1,360,-1,8,-1,-1,-1,-1,,9999,0,0,2,FEW 20   BKN 40,1,21,1,14,1009,RJTF 140200Z 36008KT 9999 FEW020 BKN040 21/14 Q1009 RMK 2CU020     7SC040 A2981=
20170614_030000.002,0,RJTF,,,,0,20170614030000,-1,-1,-1,-1,350,-1,5,-1,-1,280,70,,9999,0,0,2,FEW 20   SCT 30,1,23,1,15,1008,RJTF 140300Z 35005KT 280V070 9999 FEW020 SCT030 23/15 Q1008     RMK 1CU020 3CU030 A2979=
20170614_040000.002,0,RJTF,,,,0,20170614040000,-1,-1,-1,-1,60,-1,5,-1,-1,340,130,,9999,0,0,3,FEW 20   SCT 30   BKN -9999,1,24,1,14,1007,RJTF 140400Z 06005KT 340V130 9999 FEW020 SCT030 BKN/// 24/14     Q1007 RMK 1CU020 3CU030 A2976=
20170614_050000.002,0,RJTF,,,,0,20170614050000,-1,-1,-1,-1,90,-1,5,-1,-1,40,200,,9999,0,0,2,BKN 30   BKN -9999,1,24,1,13,1007,RJTF 140500Z 09005KT 040V200 9999 BKN030 BKN/// 24/13 Q1007     RMK 5CU030 A2974=
20170614_060000.002,0,RJTF,,,,0,20170614060000,-1,-1,-1,-1,110,-1,6,-1,-1,40,180,,9999,0,0,2,BKN 30   BKN -9999,1,24,1,13,1006,RJTF 140600Z 11006KT 040V180 9999 BKN030 BKN/// 24/13 Q1006     RMK 7CU030 A2973=
20170614_070000.002,0,RJTF,,,,0,20170614070000,-1,-1,-1,-1,160,-1,6,-1,-1,110,180,,9999,0,0,2,FEW 25   BKN 30,1,24,1,13,1006,RJTF 140700Z 16006KT 110V180 9999 FEW025 BKN030 24/13 Q1006     RMK 1CU025 7CU030 A2973=
20170614_080000.002,0,RJTF,,,,0,20170614080000,-1,-1,-1,-1,170,-1,10,-1,-1,150,210,,9999,0,0,2,FEW 25   BKN 30,1,23,1,14,1007,RJTF 140800Z 17010KT 150V210 9999 FEW025 BKN030 23/14 Q1007     RMK 1CU025 6CU030 A2974=
20170614_090000.003,0,RJTF,,,,0,20170614090000,-1,-1,-1,-1,-1,-1,-1,-1,-1,-1,-1,,-1,0,0,0,,0,-1,0,-1,-1,RJTF 140900Z NIL=
20170614_233000.001,0,RJTF,,,,0,20170614230000,-1,-1,-1,-1,999,-1,2,-1,-1,-1,-1,,8000,0,0,2,SCT 15   BKN -9999,1,20,1,15,1009,RJTF 142330Z VRB02KT 8000 SCT015 BKN/// 20/15 Q1009 RMK 4CU015     A2980=
20170615_000000.002,0,RJTF,,,,0,20170615000000,-1,-1,-1,-1,999,-1,1,-1,-1,-1,-1,,9999,0,0,2,BKN 15   BKN -9999,1,21,1,15,1008,RJTF 150000Z VRB01KT 9999 BKN015 BKN/// 21/15 Q1008 RMK 5CU015     A2979=
20170615_010000.002,0,RJTF,,,,0,20170615010000,-1,-1,-1,-1,999,-1,2,-1,-1,-1,-1,,9999,0,0,2,FEW 15   BKN 25,1,21,1,14,1008,RJTF 150100Z VRB02KT 9999 FEW015 BKN025 21/14 Q1008 RMK 1CU015     6CU025 A2977=
20170615_020000.002,0,RJTF,,,,0,20170615020000,-1,-1,-1,-1,999,-1,2,-1,-1,-1,-1,,9999,0,0,2,FEW 20   BKN 30,1,23,1,14,1007,RJTF 150200Z VRB02KT 9999 FEW020 BKN030 23/14 Q1007 RMK 1CU020     6CU030 A2975=
20170615_030000.002,0,RJTF,,,,0,20170615030000,-1,-1,-1,-1,170,-1,5,-1,-1,110,240,,9999,0,0,2,FEW 20   BKN 30,1,25,1,14,1006,RJTF 150300Z 17005KT 110V240 9999 FEW020 BKN030 25/14 Q1006     RMK 1CU020 6CU030 A2973=
20170615_040000.002,0,RJTF,,,,0,20170615040000,-1,-1,-1,-1,160,-1,6,-1,-1,130,230,,9999,0,0,2,FEW 20   BKN 30,1,25,1,14,1006,RJTF 150400Z 16006KT 130V230 9999 FEW020 BKN030 25/14 Q1006     RMK 1CU020 6CU030 A2971=
20170615_050000.003,0,RJTF,,,,0,20170615050000,-1,-1,-1,-1,160,-1,7,-1,-1,130,200,,9999,0,0,2,FEW 20   BKN 30,1,25,1,14,1006,RJTF 150500Z 16007KT 130V200 9999 FEW020 BKN030 25/14 Q1006     RMK 1CU020 6CU030 A2971=
20170615_060000.002,0,RJTF,,,,0,20170615060000,-1,-1,-1,-1,180,-1,9,-1,-1,140,220,,9999,0,0,1,SCT 30,1,25,1,14,1005,RJTF 150600Z 18009KT 140V220 9999 SCT030 25/14 Q1005 RMK     4CU030 A2970=
20170615_070000.003,0,RJTF,,,,0,20170615070000,-1,-1,-1,-1,190,-1,10,-1,-1,160,240,,9999,0,0,1,SCT 30,1,24,1,15,1006,RJTF 150700Z 19010KT 160V240 9999 SCT030 24/15 Q1006 RMK     3CU030 A2971=
20170615_080000.002,0,RJTF,,,,0,20170615080000,-1,-1,-1,-1,190,-1,9,-1,-1,160,220,,9999,0,0,1,FEW 30,1,23,1,15,1005,RJTF 150800Z 19009KT 160V220 9999 FEW030 23/15 Q1005 RMK     2CU030 A2970=
20170615_090000.002,0,RJTF,,,,0,20170615090000,-1,-1,-1,-1,-1,-1,-1,-1,-1,-1,-1,,-1,0,0,0,,0,-1,0,-1,-1,RJTF 150900Z NIL=
20170615_233000.001,0,RJTF,,,,0,20170615230000,-1,-1,-1,-1,20,-1,5,-1,-1,310,60,,8000,0,0,2,FEW 15   SCT 20,1,23,1,17,1007,RJTF 152330Z 02005KT 310V060 8000 FEW015 SCT020 23/17 Q1007     RMK 1CU015 4CU020 A2974=
20170616_000000.002,0,RJTF,,,,0,20170616000000,-1,-1,-1,-1,999,-1,2,-1,-1,-1,-1,,9999,0,0,2,FEW 15   SCT 20,1,23,1,17,1007,RJTF 160000Z VRB02KT 9999 FEW015 SCT020 23/17 Q1007 RMK 1CU015     4CU020 A2974=
20170616_010000.002,0,RJTF,,,,0,20170616010000,-1,-1,-1,-1,999,-1,2,-1,-1,-1,-1,,9999,0,0,2,FEW 20   SCT 30,1,25,1,17,1006,RJTF 160100Z VRB02KT 9999 FEW020 SCT030 25/17 Q1006 RMK 1CU020     4CU030 A2973=
20170616_020000.002,0,RJTF,,,,0,20170616020000,-1,-1,-1,-1,170,-1,4,-1,-1,50,230,,9999,0,0,2,FEW 20   SCT 30,1,26,1,16,1005,RJTF 160200Z 17004KT 050V230 9999 FEW020 SCT030 26/16 Q1005     RMK 1CU020 3CU030 A2970=
20170616_030000.003,0,RJTF,,,,0,20170616030000,-1,-1,-1,-1,999,-1,3,-1,-1,-1,-1,,9999,0,0,2,FEW 20   SCT 35,1,27,1,16,1004,RJTF 160300Z VRB03KT 9999 FEW020 SCT035 27/16 Q1004 RMK 1CU020     3CU035 A2967=
20170616_040000.002,0,RJTF,,,,0,20170616040000,-1,-1,-1,-1,130,-1,7,-1,-1,70,170,,9999,0,0,2,FEW 30   SCT 40,1,27,1,15,1004,RJTF 160400Z 13007KT 070V170 9999 FEW030 SCT040 27/15 Q1004     RMK 1CU030 3CU040 A2965=
20170616_050000.003,0,RJTF,,,,0,20170616050000,-1,-1,-1,-1,170,-1,6,-1,-1,110,230,,9999,0,0,1,FEW 30,1,29,1,15,1003,RJTF 160500Z 17006KT 110V230 9999 FEW030 29/15 Q1003 RMK     1CU030 A2964=
20170616_060000.001,0,RJTF,,,,0,20170616060000,-1,-1,-1,-1,180,-1,6,-1,-1,140,220,,9999,0,0,3,FEW 30   FEW 35 CB  SCT -9999,1,28,1,13,1003,RJTF 160600Z 18006KT 140V220 9999 FEW030 FEW035CB SCT/// 28/13     Q1003 RMK 2CU030 1CB035 A2963 CB 20KM NW MOV SE=
20170616_070000.003,0,RJTF,,,,0,20170616070000,-1,-1,-1,-1,190,-1,5,-1,-1,-1,-1,,9999,0,1,3,FEW 30   FEW 35 CB  SCT 50,1,27,1,17,1003,RJTF 160700Z 19005KT 9999 -SHRA FEW030 FEW035CB SCT050 27/17     Q1003 RMK 2CU030 1CB035 3SC050 A2964 CB 10KM S-SW MOV SE=
20170616_080000.002,0,RJTF,,,,0,20170616080000,-1,-1,-1,-1,220,-1,6,-1,-1,190,270,,9999,0,0,3,FEW 30   FEW 35 CB  SCT 100,1,27,1,15,1003,RJTF 160800Z 22006KT 190V270 9999 FEW030 FEW035CB SCT100 27/15     Q1003 RMK 1CU030 1CB035 3AC100 A2964 CB 20KM N MOV SE=
20170616_090000.002,0,RJTF,,,,0,20170616090000,-1,-1,-1,-1,-1,-1,-1,-1,-1,-1,-1,,-1,0,0,0,,0,-1,0,-1,-1,RJTF 160900Z NIL=
20170616_233000.001,0,RJTF,,,,0,20170616230000,-1,-1,-1,-1,360,-1,4,-1,-1,320,60,,9999,0,0,1,FEW 30,1,22,1,12,1012,RJTF 162330Z 36004KT 320V060 9999 FEW030 22/12 Q1012 RMK     1CU030 A2989=
20170617_000000.003,0,RJTF,,,,0,20170617000000,-1,-1,-1,-1,20,-1,5,-1,-1,340,80,,9999,0,0,1,FEW 30,1,23,1,12,1012,RJTF 170000Z 02005KT 340V080 9999 FEW030 23/12 Q1012 RMK     1CU030 A2988=
20170617_010000.002,0,RJTF,,,,0,20170617010000,-1,-1,-1,-1,70,-1,5,-1,-1,340,150,,9999,0,0,1,FEW 30,1,24,1,12,1011,RJTF 170100Z 07005KT 340V150 9999 FEW030 24/12 Q1011 RMK     1CU030 A2988=
20170617_020000.002,0,RJTF,,,,0,20170617020000,-1,-1,-1,-1,130,-1,5,-1,-1,70,160,,9999,0,0,2,FEW 30   SCT 50,1,26,1,13,1011,RJTF 170200Z 13005KT 070V160 9999 FEW030 SCT050 26/13 Q1011     RMK 1CU030 3SC050 A2988=
20170617_030000.002,0,RJTF,,,,0,20170617030000,-1,-1,-1,-1,30,-1,6,-1,-1,320,100,,9999,0,0,2,FEW 30   SCT 50,1,26,1,12,1011,RJTF 170300Z 03006KT 320V100 9999 FEW030 SCT050 26/12 Q1011     RMK 1CU030 3SC050 A2987=
20170617_040000.002,0,RJTF,,,,0,20170617040000,-1,-1,-1,-1,130,-1,6,-1,-1,60,210,,9999,0,0,2,FEW 30   SCT 50,1,26,1,12,1011,RJTF 170400Z 13006KT 060V210 9999 FEW030 SCT050 26/12 Q1011     RMK 1CU030 3SC050 A2987=
20170617_050000.002,0,RJTF,,,,0,20170617050000,-1,-1,-1,-1,140,-1,7,-1,-1,80,200,,9999,0,0,2,FEW 30   SCT -9999,1,27,1,11,1011,RJTF 170500Z 14007KT 080V200 9999 FEW030 SCT/// 27/11 Q1011     RMK 1CU030 A2985=
20170617_060000.002,0,RJTF,,,,0,20170617060000,-1,-1,-1,-1,120,-1,8,-1,-1,90,210,,9999,0,0,2,FEW 30   BKN -9999,1,26,1,12,1011,RJTF 170600Z 12008KT 090V210 9999 FEW030 BKN/// 26/12 Q1011     RMK 1CU030 A2985=
20170617_070000.002,0,RJTF,,,,0,20170617070000,-1,-1,-1,-1,140,-1,11,-1,-1,110,170,,9999,0,0,2,FEW 30   BKN -9999,1,26,1,13,1011,RJTF 170700Z 14011KT 110V170 9999 FEW030 BKN/// 26/13 Q1011     RMK 1CU030 A2987=
20170617_080000.003,0,RJTF,,,,0,20170617080000,-1,-1,-1,-1,130,-1,10,-1,-1,90,160,,9999,0,0,2,FEW 30   BKN -9999,1,26,1,12,1011,RJTF 170800Z 13010KT 090V160 9999 FEW030 BKN/// 26/12 Q1011     RMK 1CU030 A2987=
20170617_090000.002,0,RJTF,,,,0,20170617090000,-1,-1,-1,-1,-1,-1,-1,-1,-1,-1,-1,,-1,0,0,0,,0,-1,0,-1,-1,RJTF 170900Z NIL=
20170617_233000.001,0,RJTF,,,,0,20170617230000,-1,-1,-1,-1,20,-1,6,-1,-1,340,60,,9999,0,0,2,FEW 20   BKN 180,1,20,1,15,1013,RJTF 172330Z 02006KT 340V060 9999 FEW020 BKN180 20/15 Q1013     RMK 1CU020 7AC180 A2993=
20170618_000000.002,0,RJTF,,,,0,20170618000000,-1,-1,-1,-1,20,-1,7,-1,-1,340,60,,9999,0,0,2,SCT 20   BKN 180,1,20,1,15,1013,RJTF 180000Z 02007KT 340V060 9999 SCT020 BKN180 20/15 Q1013     RMK 3CU020 7AC180 A2993=
20170618_010000.002,0,RJTF,,,,0,20170618010000,-1,-1,-1,-1,20,-1,8,-1,-1,340,80,,9999,0,0,3,FEW 25   SCT 40   BKN 180,1,21,1,13,1013,RJTF 180100Z 02008KT 340V080 9999 FEW025 SCT040 BKN180 21/13     Q1013 RMK 2CU025 4SC040 7AC180 A2993=
20170618_020000.002,0,RJTF,,,,0,20170618020000,-1,-1,-1,-1,360,-1,7,-1,-1,320,30,,9999,0,0,3,SCT 25   BKN 40   BKN 90,1,21,1,15,1013,RJTF 180200Z 36007KT 320V030 9999 SCT025 BKN040 BKN090 21/15     Q1013 RMK 3CU025 5SC040 7AC090 A2992=
20170618_030000.002,0,RJTF,,,,0,20170618030000,-1,-1,-1,-1,360,-1,6,-1,-1,330,40,,9999,0,0,3,FEW 25   BKN 40   BKN 90,1,22,1,14,1012,RJTF 180300Z 36006KT 330V040 9999 FEW025 BKN040 BKN090 22/14     Q1012 RMK 1CU025 5SC040 7AC090 A2990=
20170618_040000.002,0,RJTF,,,,0,20170618040000,-1,-1,-1,-1,360,-1,8,-1,-1,320,30,,9999,0,0,3,FEW 30   BKN 40   BKN 80,1,22,1,14,1011,RJTF 180400Z 36008KT 320V030 9999 FEW030 BKN040 BKN080 22/14     Q1011 RMK 1CU030 5SC040 7AC080 A2987=
20170618_050000.002,0,RJTF,,,,0,20170618050000,-1,-1,-1,-1,10,-1,8,-1,-1,340,50,,9999,0,1,3,FEW 30   BKN 50   BKN 100,1,22,1,15,1011,RJTF 180500Z 01008KT 340V050 9999 VCSH FEW030 BKN050 BKN100     22/15 Q1011 RMK 1SC030 5SC050 7AC100 A2987=
20170618_060000.002,0,RJTF,,,,0,20170618060000,-1,-1,-1,-1,30,-1,7,-1,-1,350,70,,9999,0,1,3,FEW 30   BKN 40   BKN 60,1,21,1,15,1010,RJTF 180600Z 03007KT 350V070 9999 -SHRA FEW030 BKN040 BKN060     21/15 Q1010 RMK 2CU030 5SC040 7SC060 A2984=
20170618_070000.002,0,RJTF,,,,0,20170618070000,-1,-1,-1,-1,999,-1,2,-1,-1,-1,-1,,7000,0,1,3,FEW 25   SCT 35   BKN 40,1,20,1,18,1010,RJTF 180700Z VRB02KT 7000 SHRA FEW025 SCT035 BKN040 20/18     Q1010 RMK 2CU025 4SC035 7SC040 A2985=
20170618_080000.002,0,RJTF,,,,0,20170618080000,-1,-1,-1,-1,340,-1,4,-1,-1,-1,-1,,9999,0,1,3,FEW 25   SCT 50   BKN 120,1,20,1,18,1009,RJTF 180800Z 34004KT 9999 -RA FEW025 SCT050 BKN120 20/18 Q1009     RMK 1CU025 4SC050 7AC120 A2982=
20170618_090000.002,0,RJTF,,,,0,20170618090000,-1,-1,-1,-1,-1,-1,-1,-1,-1,-1,-1,,-1,0,0,0,,0,-1,0,-1,-1,RJTF 180900Z NIL=
20170618_233000.001,0,RJTF,,,,0,20170618230000,-1,-1,-1,-1,10,-1,8,-1,-1,-1,-1,,9999,0,0,2,FEW 30   BKN 180,1,23,1,13,1009,RJTF 182330Z 01008KT 9999 FEW030 BKN180 23/13 Q1009 RMK 1CU030     6AC180 A2979=
20170619_000000.002,0,RJTF,,,,0,20170619000000,-1,-1,-1,-1,350,-1,6,-1,-1,290,20,,9999,0,0,2,FEW 30   SCT 180,1,23,1,12,1009,RJTF 190000Z 35006KT 290V020 9999 FEW030 SCT180 23/12 Q1009     RMK 1CU030 4AC180 A2979=
20170619_010000.002,0,RJTF,,,,0,20170619010000,-1,-1,-1,-1,340,-1,5,-1,-1,280,30,,9999,0,0,3,FEW 30   SCT 180   BKN -9999,1,25,1,13,1008,RJTF 190100Z 34005KT 280V030 9999 FEW030 SCT180 BKN/// 25/13     Q1008 RMK 1CU030 3AC180 A2978=
20170619_020000.002,0,RJTF,,,,0,20170619020000,-1,-1,-1,-1,310,-1,5,-1,-1,260,360,,9999,0,0,2,FEW 30   SCT -9999,1,26,1,13,1008,RJTF 190200Z 31005KT 260V360 9999 FEW030 SCT/// 26/13 Q1008     RMK 1CU030 A2977=
20170619_030000.002,0,RJTF,,,,0,20170619030000,-1,-1,-1,-1,10,-1,8,-1,-1,310,70,,9999,0,0,2,FEW 30   SCT -9999,1,28,1,11,1007,RJTF 190300Z 01008KT 310V070 9999 FEW030 SCT/// 28/11 Q1007     RMK 1CU030 A2975=
20170619_040000.002,0,RJTF,,,,0,20170619040000,-1,-1,-1,-1,10,-1,8,-1,-1,330,30,,9999,0,0,2,FEW 40   SCT 170,1,29,1,12,1006,RJTF 190400Z 01008KT 330V030 9999 FEW040 SCT170 29/12 Q1006     RMK 1CU040 3AC170 A2973=
20170619_050000.002,0,RJTF,,,,0,20170619050000,-1,-1,-1,-1,999,-1,6,-1,-1,-1,-1,,9999,0,0,2,FEW 40   SCT 170,1,30,1,9,1006,RJTF 190500Z VRB06KT 9999 FEW040 SCT170 30/09 Q1006 RMK 1CU040     3AC170 A2972=
20170619_060000.002,0,RJTF,,,,0,20170619060000,-1,-1,-1,-1,999,-1,5,-1,-1,-1,-1,,9999,0,0,2,FEW 40   SCT -9999,1,31,1,10,1006,RJTF 190600Z VRB05KT 9999 FEW040 SCT/// 31/10 Q1006 RMK 1CU040     A2973=
20170619_070000.002,0,RJTF,,,,0,20170619070000,-1,-1,-1,-1,180,-1,10,-1,-1,-1,-1,,9999,0,0,2,FEW 40   SCT -9999,1,28,1,14,1007,RJTF 190700Z 18010KT 9999 FEW040 SCT/// 28/14 Q1007 RMK 1CU040     A2974=
20170619_080000.002,0,RJTF,,,,0,20170619080000,-1,-1,-1,-1,180,-1,11,-1,-1,-1,-1,,9999,0,0,2,FEW 40   SCT -9999,1,27,1,13,1007,RJTF 190800Z 18011KT 9999 FEW040 SCT/// 27/13 Q1007 RMK 1CU040     A2975=
20170619_090000.003,0,RJTF,,,,0,20170619090000,-1,-1,-1,-1,-1,-1,-1,-1,-1,-1,-1,,-1,0,0,0,,0,-1,0,-1,-1,RJTF 190900Z NIL=
20170619_233000.001,0,RJTF,,,,0,20170619230000,-1,-1,-1,-1,150,-1,3,-1,-1,90,230,,9999,0,0,2,FEW 20   BKN -9999,1,22,1,15,1014,RJTF 192330Z 15003KT 090V230 9999 FEW020 BKN/// 22/15 Q1014     RMK 1CU020 A2995=
20170620_000000.002,0,RJTF,,,,0,20170620000000,-1,-1,-1,-1,130,-1,4,-1,-1,50,180,,9999,0,0,2,FEW 20   BKN -9999,1,23,1,16,1014,RJTF 200000Z 13004KT 050V180 9999 FEW020 BKN/// 23/16 Q1014     RMK 1CU020 A2994=
20170620_010000.002,0,RJTF,,,,0,20170620010000,-1,-1,-1,-1,140,-1,4,-1,-1,80,180,,8000,0,0,2,FEW 30   SCT -9999,1,24,1,15,1013,RJTF 200100Z 14004KT 080V180 8000 FEW030 SCT/// 24/15 Q1013     RMK 1CU030 A2993=
20170620_020000.002,0,RJTF,,,,0,20170620020000,-1,-1,-1,-1,160,-1,4,-1,-1,-1,-1,,8000,0,0,2,FEW 30   BKN -9999,1,26,1,16,1013,RJTF 200200Z 16004KT 8000 FEW030 BKN/// 26/16 Q1013 RMK 1CU030     A2992=
20170620_030000.002,0,RJTF,,,,0,20170620030000,-1,-1,-1,-1,140,-1,7,-1,-1,100,190,,9999,0,0,2,FEW 30   BKN -9999,1,27,1,16,1012,RJTF 200300Z 14007KT 100V190 9999 FEW030 BKN/// 27/16 Q1012     RMK 1CU030 A2991=
20170620_040000.002,0,RJTF,,,,0,20170620040000,-1,-1,-1,-1,170,-1,10,-1,-1,130,220,,9999,0,0,2,FEW 30   BKN -9999,1,27,1,17,1012,RJTF 200400Z 17010KT 130V220 9999 FEW030 BKN/// 27/17 Q1012     RMK 1CU030 A2990=
20170620_050000.002,0,RJTF,,,,0,20170620050000,-1,-1,-1,-1,190,-1,8,-1,-1,130,240,,9999,0,0,2,FEW 30   BKN -9999,1,27,1,18,1012,RJTF 200500Z 19008KT 130V240 9999 FEW030 BKN/// 27/18 Q1012     RMK 1CU030 A2989=
20170620_060000.002,0,RJTF,,,,0,20170620060000,-1,-1,-1,-1,190,-1,8,-1,-1,150,230,,9999,0,0,2,FEW 30   BKN -9999,1,27,1,19,1012,RJTF 200600Z 19008KT 150V230 9999 FEW030 BKN/// 27/19 Q1012     RMK 1CU030 A2988=
20170620_070000.002,0,RJTF,,,,0,20170620070000,-1,-1,-1,-1,180,-1,10,-1,-1,150,230,,9999,0,0,2,FEW 30   BKN -9999,1,27,1,18,1011,RJTF 200700Z 18010KT 150V230 9999 FEW030 BKN/// 27/18 Q1011     RMK 1CU030 A2987=
20170620_080000.002,0,RJTF,,,,0,20170620080000,-1,-1,-1,-1,170,-1,12,-1,-1,-1,-1,,8000,0,0,2,FEW 30   BKN -9999,1,25,1,19,1011,RJTF 200800Z 17012KT 8000 FEW030 BKN/// 25/19 Q1011 RMK 1CU030     A2988=
20170620_090000.002,0,RJTF,,,,0,20170620090000,-1,-1,-1,-1,-1,-1,-1,-1,-1,-1,-1,,-1,0,0,0,,0,-1,0,-1,-1,RJTF 200900Z NIL=
20170620_233000.001,0,RJTF,,,,0,20170620230000,-1,-1,-1,-1,200,-1,4,-1,-1,140,250,,9000,0,1,3,FEW 25   BKN 50   BKN 80,1,21,1,17,1011,RJTF 202330Z 20004KT 140V250 9000 -RA FEW025 BKN050 BKN080     21/17 Q1011 RMK 2CU025 6SC050 7AC080 A2987=
20170621_000000.002,0,RJTF,,,,0,20170621000000,-1,-1,-1,-1,160,-1,4,-1,-1,130,220,,9999,0,1,3,FEW 10   SCT 25   BKN 50,1,21,1,17,1011,RJTF 210000Z 16004KT 130V220 9999 -RA FEW010 SCT025 BKN050     21/17 Q1011 RMK 1ST010 3CU025 6SC050 A2985=
20170621_010000.002,0,RJTF,,,,0,20170621010000,-1,-1,-1,-1,170,-1,10,-1,-1,130,210,,3000,0,2,3,FEW 8   BKN 15   BKN 30,1,20,1,18,1010,RJTF 210100Z 17010KT 130V210 3000 RA BR FEW008 BKN015 BKN030     20/18 Q1010 RMK 2ST008 6CU015 7SC030 A2984=
20170621_020000.002,0,RJTF,,,,0,20170621020000,-1,-1,-1,-1,180,-1,4,-1,-1,140,210,,2000,0,2,3,FEW 6   BKN 10   BKN 20,1,20,1,18,1009,RJTF 210200Z 18004KT 140V210 2000 +RA BR FEW006 BKN010 BKN020     20/18 Q1009 RMK 2ST006 6CU010 7SC020 A2982=
20170621_030000.003,0,RJTF,,,,0,20170621030000,-1,-1,-1,-1,130,-1,13,-1,-1,-1,-1,,2500,0,2,3,FEW 4   BKN 7   BKN 15,1,20,1,19,1006,RJTF 210300Z 13013KT 2500 RA BR FEW004 BKN007 BKN015 20/19     Q1006 RMK 2ST004 6ST007 7CU015 A2972 P/FR=
20170621_040000.002,0,RJTF,,,,0,20170621040000,-1,-1,-1,-1,160,-1,15,-1,-1,-1,-1,,3000,0,2,3,FEW 4   BKN 7   BKN 15,1,22,1,20,1004,RJTF 210400Z 16015KT 3000 RA BR FEW004 BKN007 BKN015 22/20     Q1004 RMK 2ST004 6ST007 7CU015 A2966=
20170621_050000.003,0,RJTF,,,,0,20170621050000,-1,-1,-1,-1,170,-1,10,-1,-1,-1,-1,,3000,0,2,3,SCT 7   BKN 10   BKN 15,1,22,1,20,1002,RJTF 210500Z 17010KT 3000 SHRA BR SCT007 BKN010 BKN015 22/20     Q1002 RMK 3ST007 6ST010 7CU015 A2961=
20170621_060000.002,0,RJTF,,,,0,20170621060000,-1,-1,-1,-1,150,-1,22,-1,32,-1,-1,,1500,0,2,3,FEW 5   BKN 9   BKN 15,1,22,1,20,999,RJTF 210600Z 15022G32KT 1500 +SHRA BR FEW005 BKN009 BKN015     22/20 Q0999 RMK 2ST005 6ST009 7CU015 A2951 P/FR=
20170621_070000.003,0,RJTF,,,,0,20170621070000,-1,-1,-1,-1,190,-1,17,-1,32,140,240,,6000,0,1,3,FEW 5   BKN 9   BKN 15,1,24,1,22,999,RJTF 210700Z 19017G32KT 140V240 6000 -SHRA FEW005 BKN009     BKN015 24/22 Q0999 RMK 1ST005 6ST009 7CU015 A2951=
20170621_080000.002,0,RJTF,,,,0,20170621080000,-1,-1,-1,-1,190,-1,17,-1,29,160,220,,5000,0,2,3,FEW 5   BKN 8   BKN 15,1,24,1,22,998,RJTF 210800Z 19017G29KT 160V220 5000 -SHRA BR FEW005 BKN008     BKN015 24/22 Q0998 RMK 1ST005 6ST008 5CU015 A2950=
20170621_090000.002,0,RJTF,,,,0,20170621090000,-1,-1,-1,-1,-1,-1,-1,-1,-1,-1,-1,,-1,0,0,0,,0,-1,0,-1,-1,RJTF 210900Z NIL=
20170621_233000.001,0,RJTF,,,,0,20170621230000,-1,-1,-1,-1,340,-1,8,-1,-1,300,20,,9999,0,0,2,FEW 20   BKN -9999,1,25,1,13,1007,RJTF 212330Z 34008KT 300V020 9999 FEW020 BKN/// 25/13 Q1007     RMK 1CU020 A2975=
20170622_000000.003,0,RJTF,,,,0,20170622000000,-1,-1,-1,-1,340,-1,9,-1,-1,310,20,,9999,0,0,2,FEW 20   BKN -9999,1,26,1,13,1007,RJTF 220000Z 34009KT 310V020 9999 FEW020 BKN/// 26/13 Q1007     RMK 1CU020 A2975=
20170622_010000.003,0,RJTF,,,,0,20170622010000,-1,-1,-1,-1,350,-1,11,-1,-1,-1,-1,,9999,0,0,2,FEW 20   BKN -9999,1,26,1,12,1007,RJTF 220100Z 35011KT 9999 FEW020 BKN/// 26/12 Q1007 RMK 1CU020     A2975=
20170622_020000.002,0,RJTF,,,,0,20170622020000,-1,-1,-1,-1,360,-1,10,-1,-1,320,50,,9999,0,0,2,FEW 30   BKN -9999,1,27,1,13,1008,RJTF 220200Z 36010KT 320V050 9999 FEW030 BKN/// 27/13 Q1008     RMK 1CU030 A2977=
20170622_030000.003,0,RJTF,,,,0,20170622030000,-1,-1,-1,-1,360,-1,7,-1,-1,330,30,,9999,0,0,2,FEW 30   BKN -9999,1,26,1,13,1008,RJTF 220300Z 36007KT 330V030 9999 FEW030 BKN/// 26/13 Q1008     RMK 1CU030 A2977=
20170622_040000.002,0,RJTF,,,,0,20170622040000,-1,-1,-1,-1,50,-1,3,-1,-1,350,150,,9999,0,0,2,FEW 30   BKN -9999,1,27,1,13,1007,RJTF 220400Z 05003KT 350V150 9999 FEW030 BKN/// 27/13 Q1007     RMK 1CU030 A2975=
20170622_050000.003,0,RJTF,,,,0,20170622050000,-1,-1,-1,-1,200,-1,3,-1,-1,150,230,,9999,0,0,3,FEW 30   SCT 45   BKN -9999,1,27,1,14,1007,RJTF 220500Z 20003KT 150V230 9999 FEW030 SCT045 BKN/// 27/14     Q1007 RMK 1CU030 3SC045 A2974=
20170622_060000.002,0,RJTF,,,,0,20170622060000,-1,-1,-1,-1,210,-1,6,-1,-1,160,240,,9999,0,0,3,FEW 30   SCT 40   BKN -9999,1,27,1,17,1007,RJTF 220600Z 21006KT 160V240 9999 FEW030 SCT040 BKN/// 27/17     Q1007 RMK 1CU030 3SC040 A2974=
20170622_070000.002,0,RJTF,,,,0,20170622070000,-1,-1,-1,-1,180,-1,7,-1,-1,150,230,,9999,0,0,3,FEW 30   SCT 40   BKN -9999,1,26,1,16,1007,RJTF 220700Z 18007KT 150V230 9999 FEW030 SCT040 BKN/// 26/16     Q1007 RMK 1CU030 3SC040 A2974=
20170622_080000.002,0,RJTF,,,,0,20170622080000,-1,-1,-1,-1,210,-1,6,-1,-1,160,230,,9999,0,0,2,FEW 30   BKN -9999,1,25,1,15,1007,RJTF 220800Z 21006KT 160V230 9999 FEW030 BKN/// 25/15 Q1007     RMK 1CU030 A2976=
20170622_090000.002,0,RJTF,,,,0,20170622090000,-1,-1,-1,-1,-1,-1,-1,-1,-1,-1,-1,,-1,0,0,0,,0,-1,0,-1,-1,RJTF 220900Z NIL=
20170622_233000.001,0,RJTF,,,,0,20170622230000,-1,-1,-1,-1,999,-1,2,-1,-1,-1,-1,,9999,0,0,2,FEW 30   BKN -9999,1,25,1,16,1008,RJTF 222330Z VRB02KT 9999 FEW030 BKN/// 25/16 Q1008 RMK 1CU030     A2978=
20170623_000000.002,0,RJTF,,,,0,20170623000000,-1,-1,-1,-1,999,-1,3,-1,-1,-1,-1,,9999,0,0,2,FEW 30   BKN -9999,1,26,1,15,1008,RJTF 230000Z VRB03KT 9999 FEW030 BKN/// 26/15 Q1008 RMK 1CU030     A2978=
20170623_010000.003,0,RJTF,,,,0,20170623010000,-1,-1,-1,-1,140,-1,5,-1,-1,110,170,,9999,0,0,2,FEW 30   SCT -9999,1,27,1,16,1008,RJTF 230100Z 14005KT 110V170 9999 FEW030 SCT/// 27/16 Q1008     RMK 1CU030 A2977=
20170623_020000.002,0,RJTF,,,,0,20170623020000,-1,-1,-1,-1,999,-1,4,-1,-1,-1,-1,,9999,0,0,1,FEW 30,1,29,1,17,1007,RJTF 230200Z VRB04KT 9999 FEW030 29/17 Q1007 RMK 1CU030 A2976=
20170623_030000.002,0,RJTF,,,,0,20170623030000,-1,-1,-1,-1,170,-1,7,-1,-1,130,210,,9999,0,0,1,FEW 30,1,29,1,14,1007,RJTF 230300Z 17007KT 130V210 9999 FEW030 29/14 Q1007 RMK     1CU030 A2975=
20170623_040000.002,0,RJTF,,,,0,20170623040000,-1,-1,-1,-1,160,-1,8,-1,-1,120,210,,9999,0,0,2,FEW 30   SCT -9999,1,30,1,14,1007,RJTF 230400Z 16008KT 120V210 9999 FEW030 SCT/// 30/14 Q1007     RMK 1CU030 A2974=
20170623_050000.002,0,RJTF,,,,0,20170623050000,-1,-1,-1,-1,160,-1,8,-1,-1,130,200,,9999,0,0,3,FEW 30   SCT 60   BKN -9999,1,29,1,15,1006,RJTF 230500Z 16008KT 130V200 9999 FEW030 SCT060 BKN/// 29/15     Q1006 RMK 1CU030 3SC060 A2972=
20170623_060000.002,0,RJTF,,,,0,20170623060000,-1,-1,-1,-1,190,-1,7,-1,-1,140,240,,9999,0,0,2,FEW 30   SCT -9999,1,29,1,16,1006,RJTF 230600Z 19007KT 140V240 9999 FEW030 SCT/// 29/16 Q1006     RMK 1CU030 A2972=
20170623_070000.003,0,RJTF,,,,0,20170623070000,-1,-1,-1,-1,180,-1,9,-1,-1,150,230,,9999,0,0,2,FEW 30   SCT -9999,1,28,1,16,1006,RJTF 230700Z 18009KT 150V230 9999 FEW030 SCT/// 28/16 Q1006     RMK 1CU030 A2971=
20170623_080000.002,0,RJTF,,,,0,20170623080000,-1,-1,-1,-1,200,-1,9,-1,-1,140,230,,9999,0,0,2,FEW 30   BKN -9999,1,27,1,16,1006,RJTF 230800Z 20009KT 140V230 9999 FEW030 BKN/// 27/16 Q1006     RMK 1CU030 A2972=
20170623_090000.002,0,RJTF,,,,0,20170623090000,-1,-1,-1,-1,-1,-1,-1,-1,-1,-1,-1,,-1,0,0,0,,0,-1,0,-1,-1,RJTF 230900Z NIL=
20170623_233000.001,0,RJTF,,,,0,20170623230000,-1,-1,-1,-1,220,-1,3,-1,-1,150,310,,9999,0,0,2,FEW 20   BKN -9999,1,24,1,18,1008,RJTF 232330Z 22003KT 150V310 9999 FEW020 BKN/// 24/18 Q1008     RMK 2CU020 A2977=
20170624_000000.002,0,RJTF,,,,0,20170624000000,-1,-1,-1,-1,190,-1,4,-1,-1,140,250,,9999,0,0,3,FEW 20   SCT 25   BKN -9999,1,25,1,18,1008,RJTF 240000Z 19004KT 140V250 9999 FEW020 SCT025 BKN/// 25/18     Q1008 RMK 1CU020 3CU025 A2977=
20170624_010000.002,0,RJTF,,,,0,20170624010000,-1,-1,-1,-1,210,-1,5,-1,-1,140,300,,9999,0,0,3,FEW 25   SCT 30   BKN -9999,1,26,1,17,1007,RJTF 240100Z 21005KT 140V300 9999 FEW025 SCT030 BKN/// 26/17     Q1007 RMK 1CU025 3CU030 A2975=
20170624_020000.002,0,RJTF,,,,0,20170624020000,-1,-1,-1,-1,150,-1,8,-1,-1,120,190,,9999,0,0,2,SCT 35   BKN -9999,1,28,1,18,1007,RJTF 240200Z 15008KT 120V190 9999 SCT035 BKN/// 28/18 Q1007     RMK 3CU035 A2974=
20170624_030000.003,0,RJTF,,,,0,20170624030000,-1,-1,-1,-1,140,-1,7,-1,-1,100,170,,9999,0,0,2,FEW 35   SCT -9999,1,28,1,17,1006,RJTF 240300Z 14007KT 100V170 9999 FEW035 SCT/// 28/17 Q1006     RMK 2CU035 A2971=
20170624_040000.003,0,RJTF,,,,0,20170624040000,-1,-1,-1,-1,140,-1,8,-1,-1,100,160,,9999,0,0,2,FEW 35   SCT -9999,1,28,1,16,1005,RJTF 240400Z 14008KT 100V160 9999 FEW035 SCT/// 28/16 Q1005     RMK 2CU035 A2969=
20170624_050000.003,0,RJTF,,,,0,20170624050000,-1,-1,-1,-1,170,-1,7,-1,-1,100,220,,9999,0,0,2,FEW 40   BKN -9999,1,28,1,17,1004,RJTF 240500Z 17007KT 100V220 9999 FEW040 BKN/// 28/17 Q1004     RMK 1CU040 A2967=
20170624_060000.002,0,RJTF,,,,0,20170624060000,-1,-1,-1,-1,160,-1,9,-1,-1,100,200,,9999,0,0,2,FEW 35   BKN -9999,1,28,1,17,1004,RJTF 240600Z 16009KT 100V200 9999 FEW035 BKN/// 28/17 Q1004     RMK 1CU035 A2966=
20170624_070000.002,0,RJTF,,,,0,20170624070000,-1,-1,-1,-1,190,-1,8,-1,-1,150,230,,9999,0,0,3,FEW 30   SCT 40   BKN -9999,1,27,1,18,1004,RJTF 240700Z 19008KT 150V230 9999 FEW030 SCT040 BKN/// 27/18     Q1004 RMK 1CU030 3SC040 A2966=
20170624_080000.002,0,RJTF,,,,0,20170624080000,-1,-1,-1,-1,190,-1,6,-1,-1,150,220,,9999,0,0,3,FEW 30   SCT 40   BKN -9999,1,25,1,18,1004,RJTF 240800Z 19006KT 150V220 9999 FEW030 SCT040 BKN/// 25/18     Q1004 RMK 1CU030 3SC040 A2967=
20170624_090000.002,0,RJTF,,,,0,20170624090000,-1,-1,-1,-1,-1,-1,-1,-1,-1,-1,-1,,-1,0,0,0,,0,-1,0,-1,-1,RJTF 240900Z NIL=
20170624_233000.001,0,RJTF,,,,0,20170624230000,-1,-1,-1,-1,320,-1,4,-1,-1,280,360,,9999,0,1,3,FEW 6   SCT 10   BKN 35,1,21,1,20,1001,RJTF 242330Z 32004KT 280V360 9999 VCSH FEW006 SCT010 BKN035     21/20 Q1001 RMK 1ST006 4ST010 7SC035 A2957=
20170625_000000.002,0,RJTF,,,,0,20170625000000,-1,-1,-1,-1,310,-1,4,-1,-1,-1,-1,,9999,0,1,3,SCT 12   BKN 30   BKN 45,1,21,1,20,1001,RJTF 250000Z 31004KT 9999 -RA SCT012 BKN030 BKN045 21/20 Q1001     RMK 3CU012 5SC030 7SC045 A2957=
20170625_010000.002,0,RJTF,,,,0,20170625010000,-1,-1,-1,-1,10,-1,5,-1,-1,-1,-1,,9999,0,0,3,FEW 10   SCT 30   BKN 45,1,23,1,20,1000,RJTF 250100Z 01005KT 9999 FEW010 SCT030 BKN045 23/20 Q1000 RMK     2ST010 4SC030 7SC045 A2954=
20170625_020000.003,0,RJTF,,,,0,20170625020000,-1,-1,-1,-1,360,-1,6,-1,-1,-1,-1,,9999,0,0,3,FEW 12   SCT 30   BKN 40,1,23,1,20,1000,RJTF 250200Z 36006KT 9999 FEW012 SCT030 BKN040 23/20 Q1000 RMK     1CU012 4SC030 7SC040 A2954=
20170625_030000.002,0,RJTF,,,,0,20170625030000,-1,-1,-1,-1,999,-1,1,-1,-1,-1,-1,,9999,0,0,3,FEW 12   BKN 30   BKN 40,1,24,1,20,1000,RJTF 250300Z VRB01KT 9999 FEW012 BKN030 BKN040 24/20 Q1000 RMK     1CU012 5SC030 7SC040 A2955=
20170625_040000.002,0,RJTF,,,,0,20170625040000,-1,-1,-1,-1,999,-1,1,-1,-1,-1,-1,,9999,0,0,3,FEW 15   BKN 30   BKN 40,1,24,1,19,1000,RJTF 250400Z VRB01KT 9999 FEW015 BKN030 BKN040 24/19 Q1000 RMK     1CU015 5SC030 7SC040 A2953=
20170625_050000.002,0,RJTF,,,,0,20170625050000,-1,-1,-1,-1,170,-1,4,-1,-1,140,210,,9999,0,0,3,FEW 30   BKN 40   BKN 50,1,24,1,19,1000,RJTF 250500Z 17004KT 140V210 9999 FEW030 BKN040 BKN050 24/19     Q1000 RMK 1CU030 5SC040 7SC050 A2953=
20170625_060000.002,0,RJTF,,,,0,20170625060000,-1,-1,-1,-1,170,-1,7,-1,-1,150,220,,9999,0,0,3,FEW 20   BKN 40   BKN 100,1,25,1,20,1000,RJTF 250600Z 17007KT 150V220 9999 FEW020 BKN040 BKN100 25/20     Q1000 RMK 1CU020 5SC040 7AC100 A2954=
20170625_070000.003,0,RJTF,,,,0,20170625070000,-1,-1,-1,-1,180,-1,7,-1,-1,150,210,,9999,0,0,3,FEW 15   BKN 20   BKN 30,1,23,1,19,1000,RJTF 250700Z 18007KT 150V210 9999 FEW015 BKN020 BKN030 23/19     Q1000 RMK 2CU015 5SC020 7SC030 A2954=
20170625_080000.002,0,RJTF,,,,0,20170625080000,-1,-1,-1,-1,170,-1,9,-1,-1,-1,-1,,9999,0,0,3,FEW 12   BKN 20   BKN 35,1,22,1,19,999,RJTF 250800Z 17009KT 9999 FEW012 BKN020 BKN035 22/19 Q0999 RMK     1CU012 5SC020 7SC035 A2951=
20170625_090000.002,0,RJTF,,,,0,20170625090000,-1,-1,-1,-1,-1,-1,-1,-1,-1,-1,-1,,-1,0,0,0,,0,-1,0,-1,-1,RJTF 250900Z NIL=
20170625_233000.001,0,RJTF,,,,0,20170625230000,-1,-1,-1,-1,50,-1,4,-1,-1,10,80,,8000,0,0,2,FEW 10   BKN 50,1,23,1,20,1006,RJTF 252330Z 05004KT 010V080 8000 FEW010 BKN050 23/20 Q1006     RMK 1ST010 7SC050 A2972=
20170626_000000.002,0,RJTF,,,,0,20170626000000,-1,-1,-1,-1,80,-1,5,-1,-1,-1,-1,,8000,0,1,3,FEW 10   SCT 20   BKN 50,1,23,1,18,1006,RJTF 260000Z 08005KT 8000 VCSH FEW010 SCT020 BKN050 23/18     Q1006 RMK 1ST010 3SC020 7SC050 A2972=
20170626_010000.002,0,RJTF,,,,0,20170626010000,-1,-1,-1,-1,120,-1,5,-1,-1,-1,-1,,9999,0,0,3,FEW 15   SCT 20   BKN 60,1,23,1,18,1006,RJTF 260100Z 12005KT 9999 FEW015 SCT020 BKN060 23/18 Q1006 RMK     1CU015 3SC020 7SC060 A2972=
20170626_020000.003,0,RJTF,,,,0,20170626020000,-1,-1,-1,-1,160,-1,6,-1,-1,120,190,,9999,0,0,3,FEW 15   SCT 25   BKN 70,1,24,1,18,1007,RJTF 260200Z 16006KT 120V190 9999 FEW015 SCT025 BKN070 24/18     Q1007 RMK 1CU015 3SC025 7AC070 A2974=
20170626_030000.002,0,RJTF,,,,0,20170626030000,-1,-1,-1,-1,140,-1,7,-1,-1,100,180,,9999,0,0,3,FEW 20   BKN 70   BKN -9999,1,26,1,18,1007,RJTF 260300Z 14007KT 100V180 9999 FEW020 BKN070 BKN/// 26/18     Q1007 RMK 2CU020 6AC070 A2974=
20170626_040000.002,0,RJTF,,,,0,20170626040000,-1,-1,-1,-1,160,-1,7,-1,-1,120,200,,9999,0,0,3,FEW 20   BKN 60   BKN -9999,1,26,1,17,1006,RJTF 260400Z 16007KT 120V200 9999 FEW020 BKN060 BKN/// 26/17     Q1006 RMK 1CU020 6SC060 A2973=
20170626_050000.002,0,RJTF,,,,0,20170626050000,-1,-1,-1,-1,170,-1,7,-1,-1,130,200,,9999,0,0,2,FEW 20   BKN -9999,1,26,1,18,1007,RJTF 260500Z 17007KT 130V200 9999 FEW020 BKN/// 26/18 Q1007     RMK 1CU020 A2974=
20170626_060000.002,0,RJTF,,,,0,20170626060000,-1,-1,-1,-1,160,-1,6,-1,-1,120,210,,9999,0,0,2,FEW 30   BKN -9999,1,26,1,17,1007,RJTF 260600Z 16006KT 120V210 9999 FEW030 BKN/// 26/17 Q1007     RMK 1CU030 A2974=
20170626_070000.002,0,RJTF,,,,0,20170626070000,-1,-1,-1,-1,150,-1,7,-1,-1,100,180,,9999,0,0,2,FEW 30   BKN -9999,1,26,1,18,1007,RJTF 260700Z 15007KT 100V180 9999 FEW030 BKN/// 26/18 Q1007     RMK 1CU030 A2974=
20170626_080000.002,0,RJTF,,,,0,20170626080000,-1,-1,-1,-1,150,-1,6,-1,-1,130,190,,9999,0,0,2,FEW 20   BKN -9999,1,25,1,18,1007,RJTF 260800Z 15006KT 130V190 9999 FEW020 BKN/// 25/18 Q1007     RMK 1CU020 A2974=
20170626_090000.003,0,RJTF,,,,0,20170626090000,-1,-1,-1,-1,-1,-1,-1,-1,-1,-1,-1,,-1,0,0,0,,0,-1,0,-1,-1,RJTF 260900Z NIL=
20170626_233000.001,0,RJTF,,,,0,20170626230000,-1,-1,-1,-1,360,-1,6,-1,-1,330,40,,7000,0,0,3,FEW 9   SCT 11   BKN 35,1,23,1,20,1012,RJTF 262330Z 36006KT 330V040 7000 FEW009 SCT011 BKN035 23/20     Q1012 RMK 1ST009 3CU011 5SC035 A2989=
20170627_000000.002,0,RJTF,,,,0,20170627000000,-1,-1,-1,-1,10,-1,6,-1,-1,-1,-1,,6000,0,0,3,SCT 10   BKN 15   BKN -9999,1,23,1,19,1012,RJTF 270000Z 01006KT 6000 SCT010 BKN015 BKN/// 23/19 Q1012 RMK     3ST010 5SC015 A2988=
20170627_010000.002,0,RJTF,,,,0,20170627010000,-1,-1,-1,-1,40,-1,6,-1,-1,-1,-1,,6000,0,1,3,FEW 10   BKN 15   BKN 20,1,23,1,20,1012,RJTF 270100Z 04006KT 6000 -RA FEW010 BKN015 BKN020 23/20 Q1012     RMK 2ST010 5SC015 6SC020 A2988=
20170627_020000.002,0,RJTF,,,,0,20170627020000,-1,-1,-1,-1,80,-1,4,-1,-1,50,120,,6000,0,0,3,FEW 10   SCT 20   BKN 30,1,24,1,20,1011,RJTF 270200Z 08004KT 050V120 6000 FEW010 SCT020 BKN030 24/20     Q1011 RMK 1ST010 3SC020 5SC030 A2988=
20170627_030000.002,0,RJTF,,,,0,20170627030000,-1,-1,-1,-1,360,-1,3,-1,-1,310,30,,7000,0,0,3,FEW 10   SCT 15   BKN 40,1,24,1,20,1011,RJTF 270300Z 36003KT 310V030 7000 FEW010 SCT015 BKN040 24/20     Q1011 RMK 1ST010 3CU015 6SC040 A2988=
20170627_040000.002,0,RJTF,,,,0,20170627040000,-1,-1,-1,-1,60,-1,4,-1,-1,360,130,,8000,0,0,3,FEW 15   SCT 25   BKN -9999,1,25,1,20,1011,RJTF 270400Z 06004KT 360V130 8000 FEW015 SCT025 BKN/// 25/20     Q1011 RMK 1CU015 3SC025 A2988=
20170627_050000.002,0,RJTF,,,,0,20170627050000,-1,-1,-1,-1,130,-1,3,-1,-1,80,180,,8000,0,0,3,FEW 15   SCT 25   BKN 40,1,26,1,20,1011,RJTF 270500Z 13003KT 080V180 8000 FEW015 SCT025 BKN040 26/20     Q1011 RMK 1CU015 3SC025 5SC040 A2987=
20170627_060000.002,0,RJTF,,,,0,20170627060000,-1,-1,-1,-1,150,-1,7,-1,-1,-1,-1,,7000,0,1,3,FEW 15   SCT 20   BKN 35,1,26,1,19,1011,RJTF 270600Z 15007KT 7000 VCSH FEW015 SCT020 BKN035 26/19     Q1011 RMK 1CU015 3SC020 5SC035 A2987=
20170627_070000.002,0,RJTF,,,,0,20170627070000,-1,-1,-1,-1,140,-1,9,-1,-1,-1,-1,,6000,0,0,3,FEW 15   SCT 25   BKN 35,1,25,1,20,1011,RJTF 270700Z 14009KT 6000 FEW015 SCT025 BKN035 25/20 Q1011 RMK     1CU015 3SC025 5SC035 A2986=
20170627_080000.002,0,RJTF,,,,0,20170627080000,-1,-1,-1,-1,130,-1,8,-1,-1,90,160,,6000,0,0,3,FEW 15   SCT 20   BKN 30,1,25,1,19,1011,RJTF 270800Z 13008KT 090V160 6000 FEW015 SCT020 BKN030 25/19     Q1011 RMK 1CU015 3SC020 5SC030 A2987=
20170627_090000.002,0,RJTF,,,,0,20170627090000,-1,-1,-1,-1,-1,-1,-1,-1,-1,-1,-1,,-1,0,0,0,,0,-1,0,-1,-1,RJTF 270900Z NIL=
20170627_233000.001,0,RJTF,,,,0,20170627230000,-1,-1,-1,-1,999,-1,1,-1,-1,-1,-1,,4000,0,2,3,FEW 6   BKN 10   BKN 30,1,23,1,20,1013,RJTF 272330Z VRB01KT 4000 -RA BR FEW006 BKN010 BKN030 23/20     Q1013 RMK 1ST006 5ST010 7SC030 A2992=
20170628_000000.003,0,RJTF,,,,0,20170628000000,-1,-1,-1,-1,999,-1,1,-1,-1,-1,-1,,4500,0,2,3,FEW 6   BKN 10   BKN 30,1,23,1,20,1013,RJTF 280000Z VRB01KT 4500 -RA BR FEW006 BKN010 BKN030 23/20     Q1013 RMK 1ST006 5ST010 7SC030 A2993=
20170628_010000.002,0,RJTF,,,,0,20170628010000,-1,-1,-1,-1,999,-1,2,-1,-1,-1,-1,,5000,0,2,3,SCT 10   BKN 15   BKN 30,1,23,1,20,1013,RJTF 280100Z VRB02KT 5000 -RA BR SCT010 BKN015 BKN030 23/20     Q1013 RMK 3ST010 5SC015 7SC030 A2994=
20170628_020000.002,0,RJTF,,,,0,20170628020000,-1,-1,-1,-1,999,-1,1,-1,-1,-1,-1,,5000,0,2,3,FEW 10   BKN 15   BKN 30,1,23,1,20,1013,RJTF 280200Z VRB01KT 5000 -RA BR FEW010 BKN015 BKN030 23/20     Q1013 RMK 2ST010 6SC015 7SC030 A2994=
20170628_030000.002,0,RJTF,,,,0,20170628030000,-1,-1,-1,-1,999,-1,2,-1,-1,-1,-1,,5000,0,2,3,FEW 10   BKN 20   BKN 40,1,24,1,21,1013,RJTF 280300Z VRB02KT 5000 -RA BR FEW010 BKN020 BKN040 24/21     Q1013 RMK 1ST010 5SC020 7SC040 A2991=
20170628_040000.002,0,RJTF,,,,0,20170628040000,-1,-1,-1,-1,999,-1,2,-1,-1,-1,-1,,7000,0,1,3,FEW 10   BKN 20   BKN 40,1,24,1,20,1013,RJTF 280400Z VRB02KT 7000 -RA FEW010 BKN020 BKN040 24/20 Q1013     RMK 2ST010 6SC020 7SC040 A2993=
20170628_050000.002,0,RJTF,,,,0,20170628050000,-1,-1,-1,-1,100,-1,4,-1,-1,30,130,,9999,0,0,3,FEW 15   SCT 25   BKN 40,1,25,1,20,1012,RJTF 280500Z 10004KT 030V130 9999 FEW015 SCT025 BKN040 25/20     Q1012 RMK 2CU015 4SC025 5SC040 A2989=
20170628_060000.002,0,RJTF,,,,0,20170628060000,-1,-1,-1,-1,999,-1,2,-1,-1,-1,-1,,9999,0,0,3,FEW 15   BKN 25   BKN 120,1,26,1,20,1012,RJTF 280600Z VRB02KT 9999 FEW015 BKN025 BKN120 26/20 Q1012 RMK     2CU015 5CU025 6AC120 A2990=
20170628_070000.002,0,RJTF,,,,0,20170628070000,-1,-1,-1,-1,999,-1,1,-1,-1,-1,-1,,9999,0,0,3,FEW 15   SCT 30   BKN 120,1,26,1,20,1012,RJTF 280700Z VRB01KT 9999 FEW015 SCT030 BKN120 26/20 Q1012 RMK     2CU015 4CU030 6AC120 A2990=
20170628_080000.002,0,RJTF,,,,0,20170628080000,-1,-1,-1,-1,120,-1,3,-1,-1,50,170,,9999,0,0,2,FEW 15   BKN 30,1,26,1,19,1012,RJTF 280800Z 12003KT 050V170 9999 FEW015 BKN030 26/19 Q1012     RMK 2CU015 5CU030 A2990=
20170628_090000.002,0,RJTF,,,,0,20170628090000,-1,-1,-1,-1,-1,-1,-1,-1,-1,-1,-1,,-1,0,0,0,,0,-1,0,-1,-1,RJTF 280900Z NIL=
20170628_233000.001,0,RJTF,,,,0,20170628230000,-1,-1,-1,-1,190,-1,3,-1,-1,130,290,,8000,0,0,2,FEW 20   BKN -9999,1,25,1,20,1015,RJTF 282330Z 19003KT 130V290 8000 FEW020 BKN/// 25/20 Q1015     RMK 2CU020 A2999=
20170629_000000.002,0,RJTF,,,,0,20170629000000,-1,-1,-1,-1,160,-1,4,-1,-1,100,200,,8000,0,0,3,FEW 20   BKN 120   BKN -9999,1,25,1,19,1015,RJTF 290000Z 16004KT 100V200 8000 FEW020 BKN120 BKN/// 25/19     Q1015 RMK 2CU020 5AC120 A2998=
20170629_010000.002,0,RJTF,,,,0,20170629010000,-1,-1,-1,-1,160,-1,3,-1,-1,90,220,,7000,0,0,3,FEW 20   SCT 150   BKN -9999,1,26,1,19,1014,RJTF 290100Z 16003KT 090V220 7000 FEW020 SCT150 BKN/// 26/19     Q1014 RMK 1CU020 4AC150 A2997=
20170629_020000.002,0,RJTF,,,,0,20170629020000,-1,-1,-1,-1,150,-1,5,-1,-1,70,200,,7000,0,0,2,BKN 25   BKN -9999,1,27,1,20,1014,RJTF 290200Z 15005KT 070V200 7000 BKN025 BKN/// 27/20 Q1014     RMK 5CU025 A2997=
20170629_030000.002,0,RJTF,,,,0,20170629030000,-1,-1,-1,-1,180,-1,5,-1,-1,140,220,,7000,0,0,2,SCT 30   BKN -9999,1,27,1,19,1014,RJTF 290300Z 18005KT 140V220 7000 SCT030 BKN/// 27/19 Q1014     RMK 4CU030 A2996=
20170629_040000.002,0,RJTF,,,,0,20170629040000,-1,-1,-1,-1,210,-1,5,-1,-1,150,260,,9999,0,0,2,SCT 30   BKN -9999,1,28,1,19,1014,RJTF 290400Z 21005KT 150V260 9999 SCT030 BKN/// 28/19 Q1014     RMK 4CU030 A2995=
20170629_050000.002,0,RJTF,,,,0,20170629050000,-1,-1,-1,-1,180,-1,7,-1,-1,140,220,,9999,0,0,2,FEW 30   BKN -9999,1,28,1,19,1013,RJTF 290500Z 18007KT 140V220 9999 FEW030 BKN/// 28/19 Q1013     RMK 2CU030 A2993=
20170629_060000.002,0,RJTF,,,,0,20170629060000,-1,-1,-1,-1,200,-1,8,-1,-1,160,240,,9999,0,0,3,FEW 30   BKN 170   BKN -9999,1,28,1,18,1013,RJTF 290600Z 20008KT 160V240 9999 FEW030 BKN170 BKN/// 28/18     Q1013 RMK 1CU030 5AC170 A2993=
20170629_070000.003,0,RJTF,,,,0,20170629070000,-1,-1,-1,-1,180,-1,9,-1,-1,160,220,,9999,0,0,3,FEW 30   BKN 150   BKN -9999,1,28,1,18,1013,RJTF 290700Z 18009KT 160V220 9999 FEW030 BKN150 BKN/// 28/18     Q1013 RMK 1CU030 5AC150 A2992=
20170629_080000.002,0,RJTF,,,,0,20170629080000,-1,-1,-1,-1,200,-1,9,-1,-1,170,230,,9999,0,0,3,FEW 30   SCT 120   BKN 170,1,26,1,18,1012,RJTF 290800Z 20009KT 170V230 9999 FEW030 SCT120 BKN170 26/18     Q1012 RMK 1CU030 3AC120 5AC170 A2991=
20170629_090000.003,0,RJTF,,,,0,20170629090000,-1,-1,-1,-1,-1,-1,-1,-1,-1,-1,-1,,-1,0,0,0,,0,-1,0,-1,-1,RJTF 290900Z NIL=
20170629_233000.001,0,RJTF,,,,0,20170629230000,-1,-1,-1,-1,180,-1,5,-1,-1,150,210,,8000,0,1,3,FEW 8   SCT 30   OVC 100,1,23,1,21,1012,RJTF 292330Z 18005KT 150V210 8000 -RA FEW008 SCT030 OVC100     23/21 Q1012 RMK 1ST008 3CU030 8AS100 A2991=
20170630_000000.002,0,RJTF,,,,0,20170630000000,-1,-1,-1,-1,180,-1,5,-1,-1,150,210,,8000,0,1,3,SCT 10   BKN 50   BKN 90,1,23,1,21,1012,RJTF 300000Z 18005KT 150V210 8000 -RA SCT010 BKN050 BKN090     23/21 Q1012 RMK 3CU010 5SC050 7AC090 A2991=
20170630_010000.002,0,RJTF,,,,0,20170630010000,-1,-1,-1,-1,210,-1,3,-1,-1,140,270,,9999,0,1,3,FEW 12   SCT 60   BKN 90,1,23,1,20,1013,RJTF 300100Z 21003KT 140V270 9999 -RA FEW012 SCT060 BKN090     23/20 Q1013 RMK 2CU012 4SC060 7AC090 A2992=
20170630_020000.002,0,RJTF,,,,0,20170630020000,-1,-1,-1,-1,180,-1,6,-1,-1,-1,-1,,9999,0,1,3,FEW 12   SCT 50   BKN 100,1,23,1,21,1012,RJTF 300200Z 18006KT 9999 -RA FEW012 SCT050 BKN100 23/21 Q1012     RMK 2CU012 3SC050 7AC100 A2990=
20170630_030000.002,0,RJTF,,,,0,20170630030000,-1,-1,-1,-1,190,-1,7,-1,-1,-1,-1,,9999,0,1,3,FEW 11   SCT 40   BKN 100,1,24,1,21,1012,RJTF 300300Z 19007KT 9999 -RA FEW011 SCT040 BKN100 24/21 Q1012     RMK 2CU011 4SC040 7AC100 A2989=
20170630_040000.002,0,RJTF,,,,0,20170630040000,-1,-1,-1,-1,200,-1,4,-1,-1,150,250,,9999,0,1,3,FEW 12   SCT 50   BKN 110,1,25,1,22,1011,RJTF 300400Z 20004KT 150V250 9999 -RA FEW012 SCT050 BKN110     25/22 Q1011 RMK 1CU012 4SC050 7AC110 A2987=
20170630_050000.003,0,RJTF,,,,0,20170630050000,-1,-1,-1,-1,180,-1,4,-1,-1,140,240,,9999,0,0,3,FEW 30   SCT 50   BKN 130,1,25,1,21,1010,RJTF 300500Z 18004KT 140V240 9999 FEW030 SCT050 BKN130 25/21     Q1010 RMK 1CU030 4SC050 7AC130 A2984=
20170630_060000.002,0,RJTF,,,,0,20170630060000,-1,-1,-1,-1,170,-1,7,-1,-1,-1,-1,,9999,0,0,3,FEW 30   SCT 130   BKN 160,1,25,1,21,1009,RJTF 300600Z 17007KT 9999 FEW030 SCT130 BKN160 25/21 Q1009 RMK     2CU030 4AC130 7AC160 A2982=
20170630_070000.002,0,RJTF,,,,0,20170630070000,-1,-1,-1,-1,220,-1,7,-1,-1,190,250,,9999,0,0,3,FEW 30   SCT 60   BKN 150,1,25,1,20,1009,RJTF 300700Z 22007KT 190V250 9999 FEW030 SCT060 BKN150 25/20     Q1009 RMK 1CU030 4SC060 7AC150 A2980=
20170630_080000.003,0,RJTF,,,,0,20170630080000,-1,-1,-1,-1,200,-1,3,-1,-1,160,260,,9999,0,0,3,FEW 18   SCT 140   BKN 160,1,25,1,21,1009,RJTF 300800Z 20003KT 160V260 9999 FEW018 SCT140 BKN160 25/21     Q1009 RMK 1CU018 4AC140 7AC160 A2979=
20170630_090000.002,0,RJTF,,,,0,20170630090000,-1,-1,-1,-1,-1,-1,-1,-1,-1,-1,-1,,-1,0,0,0,,0,-1,0,-1,-1,RJTF 300900Z NIL=
20170630_233000.001,0,RJTF,,,,0,20170630230000,-1,-1,-1,-1,350,-1,3,-1,-1,-1,-1,,6000,0,1,3,FEW 8   SCT 20   BKN 35,1,24,1,22,1009,RJTF 302330Z 35003KT 6000 -SHRA FEW008 SCT020 BKN035 24/22     Q1009 RMK 1ST008 4CU020 7SC035 A2981=
20170701_000000.003,0,RJTF,,,,0,20170701000000,-1,-1,-1,-1,999,-1,2,-1,-1,-1,-1,,7000,0,1,3,FEW 15   SCT 25   BKN 35,1,24,1,22,1009,RJTF 010000Z VRB02KT 7000 -SHRA FEW015 SCT025 BKN035 24/22     Q1009 RMK 1CU015 4CU025 7SC035 A2981=
20170701_010000.003,0,RJTF,,,,0,20170701010000,-1,-1,-1,-1,999,-1,1,-1,-1,-1,-1,,6000,0,1,3,SCT 30   BKN 60   BKN 100,1,24,1,22,1009,RJTF 010100Z VRB01KT 6000 SHRA SCT030 BKN060 BKN100 24/22     Q1009 RMK 3CU030 5SC060 7AC100 A2980=
20170701_020000.002,0,RJTF,,,,0,20170701020000,-1,-1,-1,-1,0,-1,0,-1,-1,-1,-1,,9999,0,1,3,SCT 30   BKN 40   BKN 70,1,24,1,22,1009,RJTF 010200Z 00000KT 9999 -RA SCT030 BKN040 BKN070 24/22 Q1009     RMK 3CU030 5SC040 7AC070 A2979=
20170701_030000.002,0,RJTF,,,,0,20170701030000,-1,-1,-1,-1,350,-1,5,-1,-1,-1,-1,,9999,0,0,3,FEW 20   BKN 35   BKN 100,1,24,1,21,1009,RJTF 010300Z 35005KT 9999 FEW020 BKN035 BKN100 24/21 Q1009 RMK     2CU020 6SC035 7AC100 A2980=
20170701_040000.002,0,RJTF,,,,0,20170701040000,-1,-1,-1,-1,360,-1,10,-1,-1,-1,-1,,9999,0,0,3,FEW 20   BKN 30   BKN 120,1,23,1,20,1009,RJTF 010400Z 36010KT 9999 FEW020 BKN030 BKN120 23/20 Q1009 RMK     2CU020 5SC030 7AC120 A2981=
20170701_050000.002,0,RJTF,,,,0,20170701050000,-1,-1,-1,-1,10,-1,8,-1,-1,330,40,,9999,0,1,2,FEW 20   OVC 35,1,23,1,20,1009,RJTF 010500Z 01008KT 330V040 9999 -RA FEW020 OVC035 23/20     Q1009 RMK 2CU020 8SC035 A2980=
20170701_060000.002,0,RJTF,,,,0,20170701060000,-1,-1,-1,-1,350,-1,6,-1,-1,-1,-1,,9999,0,0,2,FEW 15   BKN 35,1,23,1,20,1009,RJTF 010600Z 35006KT 9999 FEW015 BKN035 23/20 Q1009 RMK 2CU015     7SC035 A2981=
20170701_070000.002,0,RJTF,,,,0,20170701070000,-1,-1,-1,-1,999,-1,1,-1,-1,-1,-1,,9999,0,0,2,FEW 20   BKN 40,1,23,1,19,1009,RJTF 010700Z VRB01KT 9999 FEW020 BKN040 23/19 Q1009 RMK 2CU020     7SC040 A2980=
20170701_080000.002,0,RJTF,,,,0,20170701080000,-1,-1,-1,-1,360,-1,2,-1,-1,-1,-1,,9999,0,0,3,FEW 20   SCT 40   BKN -9999,1,24,1,19,1008,RJTF 010800Z 36002KT 9999 FEW020 SCT040 BKN/// 24/19 Q1008 RMK     1CU020 4SC040 A2979=
20170701_090000.002,0,RJTF,,,,0,20170701090000,-1,-1,-1,-1,-1,-1,-1,-1,-1,-1,-1,,-1,0,0,0,,0,-1,0,-1,-1,RJTF 010900Z NIL=
20170701_233000.001,0,RJTF,,,,0,20170701230000,-1,-1,-1,-1,999,-1,1,-1,-1,-1,-1,,9999,0,0,3,FEW 20   BKN 120   BKN 170,1,24,1,21,1010,RJTF 012330Z VRB01KT 9999 FEW020 BKN120 BKN170 24/21 Q1010 RMK     1CU020 6AC120 7AC170 A2982=
20170702_000000.002,0,RJTF,,,,0,20170702000000,-1,-1,-1,-1,999,-1,1,-1,-1,-1,-1,,9999,0,0,3,FEW 20   BKN 120   BKN 170,1,25,1,21,1009,RJTF 020000Z VRB01KT 9999 FEW020 BKN120 BKN170 25/21 Q1009 RMK     1CU020 5AC120 7AC170 A2982=
20170702_010000.003,0,RJTF,,,,0,20170702010000,-1,-1,-1,-1,220,-1,3,-1,-1,100,270,,9999,0,0,3,FEW 20   SCT 120   BKN 170,1,27,1,21,1009,RJTF 020100Z 22003KT 100V270 9999 FEW020 SCT120 BKN170 27/21     Q1009 RMK 1CU020 3AC120 7AC170 A2981=
20170702_020000.003,0,RJTF,,,,0,20170702020000,-1,-1,-1,-1,180,-1,5,-1,-1,140,200,,9999,0,0,3,FEW 20   SCT 120   BKN 170,1,28,1,21,1009,RJTF 020200Z 18005KT 140V200 9999 FEW020 SCT120 BKN170 28/21     Q1009 RMK 1CU020 3AC120 5AC170 A2980=
20170702_030000.002,0,RJTF,,,,0,20170702030000,-1,-1,-1,-1,190,-1,4,-1,-1,130,230,,9999,0,0,3,FEW 20   SCT 120   BKN 170,1,29,1,21,1008,RJTF 020300Z 19004KT 130V230 9999 FEW020 SCT120 BKN170 29/21     Q1008 RMK 1CU020 4AC120 7AC170 A2979=
20170702_040000.002,0,RJTF,,,,0,20170702040000,-1,-1,-1,-1,170,-1,4,-1,-1,140,220,,9999,0,0,3,FEW 30   SCT 100   BKN 170,1,29,1,21,1008,RJTF 020400Z 17004KT 140V220 9999 FEW030 SCT100 BKN170 29/21     Q1008 RMK 1CU030 4AC100 7AC170 A2979=
20170702_050000.002,0,RJTF,,,,0,20170702050000,-1,-1,-1,-1,170,-1,5,-1,-1,150,220,,9999,0,0,3,FEW 30   SCT 100   BKN 170,1,30,1,22,1008,RJTF 020500Z 17005KT 150V220 9999 FEW030 SCT100 BKN170 30/22     Q1008 RMK 1CU030 3AC100 6AC170 A2977=
20170702_060000.003,0,RJTF,,,,0,20170702060000,-1,-1,-1,-1,170,-1,7,-1,-1,130,210,,9999,0,0,3,FEW 30   SCT 170   BKN -9999,1,32,1,20,1007,RJTF 020600Z 17007KT 130V210 9999 FEW030 SCT170 BKN/// 32/20     Q1007 RMK 1CU030 3AC170 A2976=
20170702_070000.002,0,RJTF,,,,0,20170702070000,-1,-1,-1,-1,200,-1,6,-1,-1,160,230,,9999,0,0,3,FEW 30   BKN 170   BKN -9999,1,30,1,21,1007,RJTF 020700Z 20006KT 160V230 9999 FEW030 BKN170 BKN/// 30/21     Q1007 RMK 1CU030 5AC170 A2976=
20170702_080000.002,0,RJTF,,,,0,20170702080000,-1,-1,-1,-1,230,-1,4,-1,-1,190,260,,9999,0,0,3,FEW 30   BKN 120   BKN -9999,1,29,1,21,1008,RJTF 020800Z 23004KT 190V260 9999 FEW030 BKN120 BKN/// 29/21     Q1008 RMK 1CU030 5AC120 A2977=
20170702_090000.002,0,RJTF,,,,0,20170702090000,-1,-1,-1,-1,-1,-1,-1,-1,-1,-1,-1,,-1,0,0,0,,0,-1,0,-1,-1,RJTF 020900Z NIL=
20170702_233000.001,0,RJTF,,,,0,20170702230000,-1,-1,-1,-1,30,-1,6,-1,-1,320,70,,9999,0,0,3,FEW 20   SCT 120   BKN -9999,1,28,1,21,1009,RJTF 022330Z 03006KT 320V070 9999 FEW020 SCT120 BKN/// 28/21     Q1009 RMK 1CU020 4AC120 A2980=
20170703_000000.002,0,RJTF,,,,0,20170703000000,-1,-1,-1,-1,40,-1,4,-1,-1,330,90,,9999,0,0,3,FEW 20   SCT 120   BKN -9999,1,28,1,21,1009,RJTF 030000Z 04004KT 330V090 9999 FEW020 SCT120 BKN/// 28/21     Q1009 RMK 1CU020 4AC120 A2980=
20170703_010000.002,0,RJTF,,,,0,20170703010000,-1,-1,-1,-1,999,-1,3,-1,-1,-1,-1,,9999,0,0,3,FEW 30   SCT 150   BKN -9999,1,29,1,22,1009,RJTF 030100Z VRB03KT 9999 FEW030 SCT150 BKN/// 29/22 Q1009 RMK     1CU030 3AC150 A2979=
20170703_020000.002,0,RJTF,,,,0,20170703020000,-1,-1,-1,-1,999,-1,1,-1,-1,-1,-1,,9999,0,0,3,FEW 30   SCT 150   BKN -9999,1,30,1,21,1008,RJTF 030200Z VRB01KT 9999 FEW030 SCT150 BKN/// 30/21 Q1008 RMK     1CU030 3AC150 A2977=
20170703_030000.002,0,RJTF,,,,0,20170703030000,-1,-1,-1,-1,210,-1,8,-1,-1,150,250,,9999,0,0,2,FEW 30   BKN -9999,1,32,1,22,1007,RJTF 030300Z 21008KT 150V250 9999 FEW030 BKN/// 32/22 Q1007     RMK 1CU030 A2974=
20170703_040000.002,0,RJTF,,,,0,20170703040000,-1,-1,-1,-1,170,-1,6,-1,-1,120,220,,9999,0,0,2,SCT 30   BKN -9999,1,33,1,24,1006,RJTF 030400Z 17006KT 120V220 9999 SCT030 BKN/// 33/24 Q1006     RMK 3CU030 A2972=
20170703_050000.002,0,RJTF,,,,0,20170703050000,-1,-1,-1,-1,170,-1,7,-1,-1,130,200,,9999,0,0,3,FEW 30   SCT 150   BKN -9999,1,32,1,22,1005,RJTF 030500Z 17007KT 130V200 9999 FEW030 SCT150 BKN/// 32/22     Q1005 RMK 2CU030 3AC150 A2970=
20170703_060000.003,0,RJTF,,,,0,20170703060000,-1,-1,-1,-1,190,-1,6,-1,-1,150,260,,9999,0,0,3,FEW 30   SCT 150   BKN -9999,1,33,1,23,1004,RJTF 030600Z 19006KT 150V260 9999 FEW030 SCT150 BKN/// 33/23     Q1004 RMK 1CU030 3AC150 A2967=
20170703_070000.002,0,RJTF,,,,0,20170703070000,-1,-1,-1,-1,190,-1,8,-1,-1,160,220,,9999,0,0,3,FEW 30   SCT 150   BKN -9999,1,32,1,22,1004,RJTF 030700Z 19008KT 160V220 9999 FEW030 SCT150 BKN/// 32/22     Q1004 RMK 1CU030 3AC150 A2965=
20170703_080000.002,0,RJTF,,,,0,20170703080000,-1,-1,-1,-1,190,-1,8,-1,-1,160,230,,9999,0,0,3,FEW 30   SCT 150   BKN -9999,1,32,1,22,1003,RJTF 030800Z 19008KT 160V230 9999 FEW030 SCT150 BKN/// 32/22     Q1003 RMK 1CU030 4AC150 A2964=
20170703_090000.002,0,RJTF,,,,0,20170703090000,-1,-1,-1,-1,-1,-1,-1,-1,-1,-1,-1,,-1,0,0,0,,0,-1,0,-1,-1,RJTF 030900Z NIL=
20170703_233000.001,0,RJTF,,,,0,20170703230000,-1,-1,-1,-1,20,-1,3,-1,-1,330,80,,9999,0,0,3,FEW 20   SCT 150   BKN -9999,1,28,1,22,1007,RJTF 032330Z 02003KT 330V080 9999 FEW020 SCT150 BKN/// 28/22     Q1007 RMK 1CU020 3AC150 A2974=
20170704_000000.003,0,RJTF,,,,0,20170704000000,-1,-1,-1,-1,350,-1,7,-1,-1,-1,-1,,9999,0,0,3,FEW 20   SCT 150   BKN -9999,1,27,1,21,1007,RJTF 040000Z 35007KT 9999 FEW020 SCT150 BKN/// 27/21 Q1007 RMK     1CU020 3AC150 A2974=
20170704_010000.002,0,RJTF,,,,0,20170704010000,-1,-1,-1,-1,999,-1,2,-1,-1,-1,-1,,9999,0,0,3,FEW 20   SCT 170   BKN -9999,1,28,1,21,1006,RJTF 040100Z VRB02KT 9999 FEW020 SCT170 BKN/// 28/21 Q1006 RMK     1CU020 3AC170 A2973=
20170704_020000.002,0,RJTF,,,,0,20170704020000,-1,-1,-1,-1,999,-1,2,-1,-1,-1,-1,,9999,0,0,3,FEW 20   SCT 180   BKN -9999,1,28,1,21,1006,RJTF 040200Z VRB02KT 9999 FEW020 SCT180 BKN/// 28/21 Q1006 RMK     1CU020 3AC180 A2973=
20170704_030000.002,0,RJTF,,,,0,20170704030000,-1,-1,-1,-1,999,-1,2,-1,-1,-1,-1,,9999,0,0,3,FEW 30   SCT 140   BKN -9999,1,29,1,21,1006,RJTF 040300Z VRB02KT 9999 FEW030 SCT140 BKN/// 29/21 Q1006 RMK     1CU030 3AC140 A2972=
20170704_040000.002,0,RJTF,,,,0,20170704040000,-1,-1,-1,-1,999,-1,2,-1,-1,-1,-1,,9999,0,0,3,FEW 30   SCT 150   BKN -9999,1,29,1,22,1006,RJTF 040400Z VRB02KT 9999 FEW030 SCT150 BKN/// 29/22 Q1006 RMK     1CU030 4AC150 A2971=
20170704_050000.002,0,RJTF,,,,0,20170704050000,-1,-1,-1,-1,999,-1,2,-1,-1,-1,-1,,9999,0,0,2,FEW 30   BKN -9999,1,30,1,21,1005,RJTF 040500Z VRB02KT 9999 FEW030 BKN/// 30/21 Q1005 RMK 1CU030     A2970=
20170704_060000.003,0,RJTF,,,,0,20170704060000,-1,-1,-1,-1,360,-1,4,-1,-1,-1,-1,,9999,0,0,2,FEW 35   BKN -9999,1,29,1,23,1005,RJTF 040600Z 36004KT 9999 FEW035 BKN/// 29/23 Q1005 RMK 1CU035     A2970=
20170704_070000.003,0,RJTF,,,,0,20170704070000,-1,-1,-1,-1,10,-1,5,-1,-1,340,40,,9999,0,0,2,FEW 35   BKN -9999,1,28,1,23,1005,RJTF 040700Z 01005KT 340V040 9999 FEW035 BKN/// 28/23 Q1005     RMK 1CU035 A2969=
20170704_080000.002,0,RJTF,,,,0,20170704080000,-1,-1,-1,-1,360,-1,5,-1,-1,-1,-1,,7000,0,0,3,FEW 25   SCT 35   BKN -9999,1,28,1,24,1005,RJTF 040800Z 36005KT 7000 FEW025 SCT035 BKN/// 28/24 Q1005 RMK     1CU025 4CU035 A2968=
20170704_090000.002,0,RJTF,,,,0,20170704090000,-1,-1,-1,-1,-1,-1,-1,-1,-1,-1,-1,,-1,0,0,0,,0,-1,0,-1,-1,RJTF 040900Z NIL=
20170704_233000.001,0,RJTF,,,,0,20170704230000,-1,-1,-1,-1,200,-1,7,-1,-1,170,230,,9999,0,0,3,FEW 15   SCT 80   BKN 180,1,26,1,21,1006,RJTF 042330Z 20007KT 170V230 9999 FEW015 SCT080 BKN180 26/21     Q1006 RMK 1CU015 3AC080 5AC180 A2973=
20170705_000000.002,0,RJTF,,,,0,20170705000000,-1,-1,-1,-1,200,-1,5,-1,-1,160,230,,9999,0,0,2,FEW 20   BKN -9999,1,28,1,22,1006,RJTF 050000Z 20005KT 160V230 9999 FEW020 BKN/// 28/22 Q1006     RMK 1CU020 A2972=
20170705_010000.003,0,RJTF,,,,0,20170705010000,-1,-1,-1,-1,170,-1,7,-1,-1,140,210,,9999,0,0,2,FEW 20   BKN -9999,1,29,1,22,1006,RJTF 050100Z 17007KT 140V210 9999 FEW020 BKN/// 29/22 Q1006     RMK 1CU020 A2972=
20170705_020000.003,0,RJTF,,,,0,20170705020000,-1,-1,-1,-1,210,-1,4,-1,-1,110,260,,9999,0,0,2,FEW 20   SCT -9999,1,29,1,21,1006,RJTF 050200Z 21004KT 110V260 9999 FEW020 SCT/// 29/21 Q1006     RMK 2CU020 A2972=
20170705_030000.002,0,RJTF,,,,0,20170705030000,-1,-1,-1,-1,999,-1,4,-1,-1,-1,-1,,9999,0,0,2,FEW 30   SCT -9999,1,31,1,21,1005,RJTF 050300Z VRB04KT 9999 FEW030 SCT/// 31/21 Q1005 RMK 2CU030     A2970=
20170705_040000.003,0,RJTF,,,,0,20170705040000,-1,-1,-1,-1,140,-1,7,-1,-1,110,180,,9999,0,0,3,FEW 30   SCT 40   BKN -9999,1,32,1,21,1005,RJTF 050400Z 14007KT 110V180 9999 FEW030 SCT040 BKN/// 32/21     Q1005 RMK 1CU030 3CU040 A2969=
20170705_050000.002,0,RJTF,,,,0,20170705050000,-1,-1,-1,-1,170,-1,10,-1,-1,-1,-1,,9999,0,0,3,FEW 30   SCT 80   BKN -9999,1,31,1,20,1005,RJTF 050500Z 17010KT 9999 FEW030 SCT080 BKN/// 31/20 Q1005 RMK     1CU030 3AC080 A2970=
20170705_060000.002,0,RJTF,,,,0,20170705060000,-1,-1,-1,-1,160,-1,9,-1,-1,-1,-1,,9999,0,1,4,FEW 30   FEW 35 TCU  SCT 70   BKN -9999,1,30,1,20,1005,RJTF 050600Z 16009KT 9999 VCSH FEW030 FEW035TCU SCT070 BKN///     30/20 Q1005 RMK 1CU030 1TCU035 3AC070 A2970 TCU 15KM NW           MOV E=
20170705_070000.002,0,RJTF,,,,0,20170705070000,-1,-1,-1,-1,160,-1,6,-1,-1,-1,-1,,9999,0,0,3,FEW 30   SCT 60   BKN -9999,1,30,1,21,1006,RJTF 050700Z 16006KT 9999 FEW030 SCT060 BKN/// 30/21 Q1006 RMK     1CU030 4SC060 A2971=
20170705_080000.003,0,RJTF,,,,0,20170705080000,-1,-1,-1,-1,200,-1,7,-1,-1,160,230,,9999,0,1,4,FEW 30   FEW 35 TCU  SCT 40   BKN -9999,1,27,1,23,1006,RJTF 050800Z 20007KT 160V230 9999 -SHRA FEW030 FEW035TCU     SCT040 BKN/// 27/23 Q1006 RMK 1CU030 1TCU035 4CU040 A2972           TCU OHD AND 15KM W MOV SE=
20170705_090000.002,0,RJTF,,,,0,20170705090000,-1,-1,-1,-1,-1,-1,-1,-1,-1,-1,-1,,-1,0,0,0,,0,-1,0,-1,-1,RJTF 050900Z NIL=
20170705_233000.001,0,RJTF,,,,0,20170705230000,-1,-1,-1,-1,360,-1,6,-1,-1,330,40,,9999,0,0,2,SCT 20   BKN 60,1,27,1,21,1012,RJTF 052330Z 36006KT 330V040 9999 SCT020 BKN060 27/21 Q1012     RMK 3CU020 5SC060 A2990=
20170706_000000.002,0,RJTF,,,,0,20170706000000,-1,-1,-1,-1,10,-1,4,-1,-1,300,50,,9999,0,0,2,SCT 25   BKN 60,1,27,1,20,1012,RJTF 060000Z 01004KT 300V050 9999 SCT025 BKN060 27/20 Q1012     RMK 3CU025 5SC060 A2990=
20170706_010000.002,0,RJTF,,,,0,20170706010000,-1,-1,-1,-1,70,-1,3,-1,-1,10,130,,9999,0,0,3,FEW 25   SCT 40   BKN 90,1,27,1,19,1012,RJTF 060100Z 07003KT 010V130 9999 FEW025 SCT040 BKN090 27/19     Q1012 RMK 2CU025 4CU040 5AC090 A2990=
20170706_020000.003,0,RJTF,,,,0,20170706020000,-1,-1,-1,-1,20,-1,4,-1,-1,330,70,,9999,0,0,2,SCT 30   BKN 60,1,28,1,19,1011,RJTF 060200Z 02004KT 330V070 9999 SCT030 BKN060 28/19 Q1011     RMK 3CU030 5SC060 A2988=
20170706_030000.004,0,RJTF,,,,0,20170706030000,-1,-1,-1,-1,999,-1,5,-1,-1,-1,-1,,9999,0,0,2,SCT 35   BKN 60,1,30,1,20,1011,RJTF 060300Z VRB05KT 9999 SCT035 BKN060 30/20 Q1011 RMK 4CU035     5SC060 A2987=
20170706_040000.002,0,RJTF,,,,0,20170706040000,-1,-1,-1,-1,140,-1,6,-1,-1,80,200,,9999,0,0,2,FEW 40   SCT 60,1,30,1,19,1010,RJTF 060400Z 14006KT 080V200 9999 FEW040 SCT060 30/19 Q1010     RMK 2CU040 4SC060 A2985=
20170706_050000.002,0,RJTF,,,,0,20170706050000,-1,-1,-1,-1,160,-1,10,-1,-1,110,200,,9999,0,0,3,FEW 40   SCT 50   BKN -9999,1,30,1,19,1010,RJTF 060500Z 16010KT 110V200 9999 FEW040 SCT050 BKN/// 30/19     Q1010 RMK 2CU040 4SC050 A2984=
20170706_060000.002,0,RJTF,,,,0,20170706060000,-1,-1,-1,-1,170,-1,8,-1,-1,130,230,,9999,0,0,3,FEW 35   SCT 45   BKN -9999,1,30,1,18,1010,RJTF 060600Z 17008KT 130V230 9999 FEW035 SCT045 BKN/// 30/18     Q1010 RMK 2CU035 4SC045 A2983=
20170706_070000.002,0,RJTF,,,,0,20170706070000,-1,-1,-1,-1,180,-1,10,-1,-1,150,210,,9999,0,0,3,FEW 40   SCT 60   BKN -9999,1,29,1,19,1010,RJTF 060700Z 18010KT 150V210 9999 FEW040 SCT060 BKN/// 29/19     Q1010 RMK 2CU040 4SC060 A2983=
20170706_080000.003,0,RJTF,,,,0,20170706080000,-1,-1,-1,-1,180,-1,9,-1,-1,150,230,,9999,0,0,2,FEW 30   SCT 45,1,29,1,20,1010,RJTF 060800Z 18009KT 150V230 9999 FEW030 SCT045 29/20 Q1010     RMK 1CU030 3SC045 A2983=
20170706_090000.002,0,RJTF,,,,0,20170706090000,-1,-1,-1,-1,-1,-1,-1,-1,-1,-1,-1,,-1,0,0,0,,0,-1,0,-1,-1,RJTF 060900Z NIL=
20170706_233000.001,0,RJTF,,,,0,20170706230000,-1,-1,-1,-1,999,-1,2,-1,-1,-1,-1,,9999,0,0,2,FEW 15   SCT 25,1,28,1,21,1011,RJTF 062330Z VRB02KT 9999 FEW015 SCT025 28/21 Q1011 RMK 1CU015     3CU025 A2987=
20170707_000000.002,0,RJTF,,,,0,20170707000000,-1,-1,-1,-1,999,-1,2,-1,-1,-1,-1,,9999,0,0,2,FEW 15   SCT 25,1,27,1,20,1011,RJTF 070000Z VRB02KT 9999 FEW015 SCT025 27/20 Q1011 RMK 1CU015     4CU025 A2987=
20170707_010000.002,0,RJTF,,,,0,20170707010000,-1,-1,-1,-1,999,-1,3,-1,-1,-1,-1,,9999,0,0,2,FEW 30   SCT 40,1,29,1,21,1011,RJTF 070100Z VRB03KT 9999 FEW030 SCT040 29/21 Q1011 RMK 2CU030     4CU040 A2986=
20170707_020000.004,0,RJTF,,,,0,20170707020000,-1,-1,-1,-1,999,-1,4,-1,-1,-1,-1,,9999,0,0,2,FEW 35   SCT 50,1,30,1,20,1011,RJTF 070200Z VRB04KT 9999 FEW035 SCT050 30/20 Q1011 RMK 2CU035     3SC050 A2985=
20170707_030000.002,0,RJTF,,,,0,20170707030000,-1,-1,-1,-1,180,-1,5,-1,-1,130,260,,9999,0,0,3,FEW 35   SCT 50   BKN -9999,1,31,1,20,1010,RJTF 070300Z 18005KT 130V260 9999 FEW035 SCT050 BKN/// 31/20     Q1010 RMK 2CU035 4SC050 A2984=
20170707_040000.002,0,RJTF,,,,0,20170707040000,-1,-1,-1,-1,160,-1,5,-1,-1,110,210,,9999,0,0,3,FEW 35   SCT 60   BKN -9999,1,32,1,20,1010,RJTF 070400Z 16005KT 110V210 9999 FEW035 SCT060 BKN/// 32/20     Q1010 RMK 2CU035 4SC060 A2982=
20170707_050000.002,0,RJTF,,,,0,20170707050000,-1,-1,-1,-1,140,-1,7,-1,-1,90,230,,9999,0,0,2,FEW 35   SCT 50,1,31,1,19,1009,RJTF 070500Z 14007KT 090V230 9999 FEW035 SCT050 31/19 Q1009     RMK 1CU035 3SC050 A2981=
20170707_060000.002,0,RJTF,,,,0,20170707060000,-1,-1,-1,-1,200,-1,7,-1,-1,130,250,,9999,0,0,2,FEW 30   SCT 50,1,32,1,21,1009,RJTF 070600Z 20007KT 130V250 9999 FEW030 SCT050 32/21 Q1009     RMK 1CU030 3SC050 A2980=
20170707_070000.003,0,RJTF,,,,0,20170707070000,-1,-1,-1,-1,190,-1,9,-1,-1,150,220,,9999,0,0,2,FEW 40   SCT -9999,1,30,1,20,1009,RJTF 070700Z 19009KT 150V220 9999 FEW040 SCT/// 30/20 Q1009     RMK 1CU040 A2980=
20170707_080000.003,0,RJTF,,,,0,20170707080000,-1,-1,-1,-1,200,-1,8,-1,-1,160,240,,9999,0,0,2,FEW 40   SCT -9999,1,29,1,20,1009,RJTF 070800Z 20008KT 160V240 9999 FEW040 SCT/// 29/20 Q1009     RMK 1CU040 A2981=
20170707_090000.003,0,RJTF,,,,0,20170707090000,-1,-1,-1,-1,-1,-1,-1,-1,-1,-1,-1,,-1,0,0,0,,0,-1,0,-1,-1,RJTF 070900Z NIL=
20170707_233000.001,0,RJTF,,,,0,20170707230000,-1,-1,-1,-1,999,-1,3,-1,-1,-1,-1,CAVOK,-1,0,0,0,,1,28,1,21,1011,RJTF 072330Z VRB03KT CAVOK 28/21 Q1011 RMK A2987=
20170708_000000.002,0,RJTF,,,,0,20170708000000,-1,-1,-1,-1,999,-1,2,-1,-1,-1,-1,CAVOK,-1,0,0,0,,1,29,1,21,1011,RJTF 080000Z VRB02KT CAVOK 29/21 Q1011 RMK A2987=
20170708_010000.002,0,RJTF,,,,0,20170708010000,-1,-1,-1,-1,999,-1,4,-1,-1,-1,-1,,9999,0,0,1,FEW 30,1,31,1,20,1010,RJTF 080100Z VRB04KT 9999 FEW030 31/20 Q1010 RMK 1CU030 A2985=
20170708_020000.003,0,RJTF,,,,0,20170708020000,-1,-1,-1,-1,999,-1,3,-1,-1,-1,-1,,9999,0,0,1,FEW 30,1,32,1,20,1010,RJTF 080200Z VRB03KT 9999 FEW030 32/20 Q1010 RMK 2CU030 A2984=
20170708_030000.002,0,RJTF,,,,0,20170708030000,-1,-1,-1,-1,140,-1,6,-1,-1,100,180,,9999,0,0,1,BKN 30,1,33,1,21,1009,RJTF 080300Z 14006KT 100V180 9999 BKN030 33/21 Q1009 RMK     5CU030 A2982=
20170708_040000.002,0,RJTF,,,,0,20170708040000,-1,-1,-1,-1,160,-1,6,-1,-1,90,270,,8000,0,0,1,BKN 30,1,32,1,19,1009,RJTF 080400Z 16006KT 090V270 8000 BKN030 32/19 Q1009 RMK     6CU030 A2982=
20170708_050000.002,0,RJTF,,,,0,20170708050000,-1,-1,-1,-1,200,-1,9,-1,-1,150,240,,8000,0,0,1,BKN 30,1,32,1,20,1009,RJTF 080500Z 20009KT 150V240 8000 BKN030 32/20 Q1009 RMK     6CU030 A2982=
20170708_060000.002,0,RJTF,,,,0,20170708060000,-1,-1,-1,-1,210,-1,7,-1,-1,160,250,,9999,0,0,1,FEW 30,1,33,1,20,1009,RJTF 080600Z 21007KT 160V250 9999 FEW030 33/20 Q1009 RMK     2CU030 A2981=
20170708_070000.003,0,RJTF,,,,0,20170708070000,-1,-1,-1,-1,190,-1,9,-1,-1,150,230,,9999,0,0,1,FEW 30,1,32,1,18,1009,RJTF 080700Z 19009KT 150V230 9999 FEW030 32/18 Q1009 RMK     1CU030 A2981=
20170708_080000.002,0,RJTF,,,,0,20170708080000,-1,-1,-1,-1,180,-1,9,-1,-1,-1,-1,,9999,0,0,1,FEW 30,1,30,1,18,1009,RJTF 080800Z 18009KT 9999 FEW030 30/18 Q1009 RMK 1CU030 A2981=
20170708_090000.002,0,RJTF,,,,0,20170708090000,-1,-1,-1,-1,-1,-1,-1,-1,-1,-1,-1,,-1,0,0,0,,0,-1,0,-1,-1,RJTF 080900Z NIL=
20170708_233000.001,0,RJTF,,,,0,20170708230000,-1,-1,-1,-1,999,-1,2,-1,-1,-1,-1,CAVOK,-1,0,0,0,,1,28,1,21,1011,RJTF 082330Z VRB02KT CAVOK 28/21 Q1011 RMK A2987=
20170709_000000.003,0,RJTF,,,,0,20170709000000,-1,-1,-1,-1,999,-1,2,-1,-1,-1,-1,CAVOK,-1,0,0,0,,1,30,1,21,1011,RJTF 090000Z VRB02KT CAVOK 30/21 Q1011 RMK A2986=
20170709_010000.002,0,RJTF,,,,0,20170709010000,-1,-1,-1,-1,999,-1,3,-1,-1,-1,-1,,8000,0,0,1,NSC -1,1,30,1,20,1011,RJTF 090100Z VRB03KT 8000 NSC 30/20 Q1011 RMK A2985=
20170709_020000.002,0,RJTF,,,,0,20170709020000,-1,-1,-1,-1,190,-1,5,-1,-1,140,250,,9999,0,0,2,FEW 30   SCT -9999,1,32,1,21,1010,RJTF 090200Z 19005KT 140V250 9999 FEW030 SCT/// 32/21 Q1010     RMK 1CU030 A2984=
20170709_030000.002,0,RJTF,,,,0,20170709030000,-1,-1,-1,-1,190,-1,8,-1,-1,150,220,,9999,0,0,2,FEW 30   SCT -9999,1,32,1,20,1010,RJTF 090300Z 19008KT 150V220 9999 FEW030 SCT/// 32/20 Q1010     RMK 1CU030 A2983=
20170709_040000.002,0,RJTF,,,,0,20170709040000,-1,-1,-1,-1,170,-1,11,-1,-1,140,220,,9999,0,0,2,FEW 30   BKN -9999,1,32,1,19,1009,RJTF 090400Z 17011KT 140V220 9999 FEW030 BKN/// 32/19 Q1009     RMK 1CU030 A2982=
20170709_050000.002,0,RJTF,,,,0,20170709050000,-1,-1,-1,-1,210,-1,9,-1,-1,-1,-1,,9999,0,0,2,FEW 30   BKN -9999,1,32,1,21,1009,RJTF 090500Z 21009KT 9999 FEW030 BKN/// 32/21 Q1009 RMK 1CU030     A2981=
20170709_060000.002,0,RJTF,,,,0,20170709060000,-1,-1,-1,-1,190,-1,10,-1,-1,160,220,,9999,0,0,2,FEW 30   BKN -9999,1,31,1,21,1008,RJTF 090600Z 19010KT 160V220 9999 FEW030 BKN/// 31/21 Q1008     RMK 1CU030 A2979=
20170709_070000.001,0,RJTF,,,,0,20170709070000,-1,-1,-1,-1,180,-1,9,-1,-1,160,230,,9999,0,0,2,FEW 30   SCT -9999,1,31,1,21,1008,RJTF 090700Z 18009KT 160V230 9999 FEW030 SCT/// 31/21 Q1008     RMK 1CU030 A2978=
20170709_080000.002,0,RJTF,,,,0,20170709080000,-1,-1,-1,-1,200,-1,9,-1,-1,-1,-1,,9999,0,0,2,FEW 30   BKN -9999,1,30,1,22,1008,RJTF 090800Z 20009KT 9999 FEW030 BKN/// 30/22 Q1008 RMK 1CU030     A2978=
20170709_090000.002,0,RJTF,,,,0,20170709090000,-1,-1,-1,-1,-1,-1,-1,-1,-1,-1,-1,,-1,0,0,0,,0,-1,0,-1,-1,RJTF 090900Z NIL=
20170709_233000.001,0,RJTF,,,,0,20170709230000,-1,-1,-1,-1,999,-1,1,-1,-1,-1,-1,,8000,0,0,2,FEW 15   BKN -9999,1,27,1,22,1011,RJTF 092330Z VRB01KT 8000 FEW015 BKN/// 27/22 Q1011 RMK 2CU015     A2985=
20170710_000000.002,0,RJTF,,,,0,20170710000000,-1,-1,-1,-1,999,-1,2,-1,-1,-1,-1,,9999,0,0,2,FEW 15   BKN -9999,1,28,1,22,1010,RJTF 100000Z VRB02KT 9999 FEW015 BKN/// 28/22 Q1010 RMK 2CU015     A2985=
20170710_010000.002,0,RJTF,,,,0,20170710010000,-1,-1,-1,-1,999,-1,4,-1,-1,-1,-1,,9999,0,0,2,FEW 20   SCT -9999,1,30,1,20,1010,RJTF 100100Z VRB04KT 9999 FEW020 SCT/// 30/20 Q1010 RMK 1CU020     A2984=
20170710_020000.002,0,RJTF,,,,0,20170710020000,-1,-1,-1,-1,170,-1,8,-1,-1,140,230,,9999,0,0,2,FEW 30   SCT -9999,1,32,1,21,1010,RJTF 100200Z 17008KT 140V230 9999 FEW030 SCT/// 32/21 Q1010     RMK 1CU030 A2984=
20170710_030000.003,0,RJTF,,,,0,20170710030000,-1,-1,-1,-1,180,-1,9,-1,-1,150,230,,9999,0,0,1,FEW 30,1,32,1,20,1009,RJTF 100300Z 18009KT 150V230 9999 FEW030 32/20 Q1009 RMK     1CU030 A2982=
20170710_040000.003,0,RJTF,,,,0,20170710040000,-1,-1,-1,-1,180,-1,11,-1,-1,150,220,,9999,0,0,1,FEW 30,1,32,1,21,1009,RJTF 100400Z 18011KT 150V220 9999 FEW030 32/21 Q1009 RMK     1CU030 A2982=
20170710_050000.003,0,RJTF,,,,0,20170710050000,-1,-1,-1,-1,200,-1,11,-1,-1,160,230,,9999,0,0,1,FEW 30,1,32,1,21,1009,RJTF 100500Z 20011KT 160V230 9999 FEW030 32/21 Q1009 RMK     1CU030 A2982=
20170710_060000.003,0,RJTF,,,,0,20170710060000,-1,-1,-1,-1,180,-1,13,-1,-1,150,240,,9999,0,0,1,FEW 30,1,31,1,22,1009,RJTF 100600Z 18013KT 150V240 9999 FEW030 31/22 Q1009 RMK     1CU030 A2981=
20170710_070000.002,0,RJTF,,,,0,20170710070000,-1,-1,-1,-1,180,-1,12,-1,-1,150,220,,9999,0,0,1,FEW 20,1,30,1,21,1009,RJTF 100700Z 18012KT 150V220 9999 FEW020 30/21 Q1009 RMK     1CU020 A2981=
20170710_080000.002,0,RJTF,,,,0,20170710080000,-1,-1,-1,-1,180,-1,11,-1,-1,-1,-1,,9999,0,0,1,FEW 20,1,29,1,22,1009,RJTF 100800Z 18011KT 9999 FEW020 29/22 Q1009 RMK 1CU020 A2982=
20170710_090000.003,0,RJTF,,,,0,20170710090000,-1,-1,-1,-1,-1,-1,-1,-1,-1,-1,-1,,-1,0,0,0,,0,-1,0,-1,-1,RJTF 100900Z NIL=
20170710_233000.001,0,RJTF,,,,0,20170710230000,-1,-1,-1,-1,180,-1,7,-1,-1,140,230,,9999,0,0,2,FEW 15   BKN 20,1,29,1,22,1013,RJTF 102330Z 18007KT 140V230 9999 FEW015 BKN020 29/22 Q1013     RMK 1CU015 5CU020 A2992=
20170711_000000.002,0,RJTF,,,,0,20170711000000,-1,-1,-1,-1,170,-1,9,-1,-1,130,200,,9999,0,0,2,FEW 15   BKN 20,1,29,1,22,1013,RJTF 110000Z 17009KT 130V200 9999 FEW015 BKN020 29/22 Q1013     RMK 1CU015 6CU020 A2992=
20170711_010000.002,0,RJTF,,,,0,20170711010000,-1,-1,-1,-1,180,-1,10,-1,-1,140,210,,9999,0,0,2,FEW 15   BKN 25,1,30,1,22,1013,RJTF 110100Z 18010KT 140V210 9999 FEW015 BKN025 30/22 Q1013     RMK 1CU015 5CU025 A2992=
20170711_020000.002,0,RJTF,,,,0,20170711020000,-1,-1,-1,-1,190,-1,10,-1,-1,160,220,,9999,0,0,2,FEW 15   SCT 25,1,31,1,22,1012,RJTF 110200Z 19010KT 160V220 9999 FEW015 SCT025 31/22 Q1012     RMK 1CU015 3CU025 A2990=
20170711_030000.003,0,RJTF,,,,0,20170711030000,-1,-1,-1,-1,190,-1,12,-1,-1,150,230,,9999,0,0,2,FEW 20   SCT 30,1,30,1,21,1012,RJTF 110300Z 19012KT 150V230 9999 FEW020 SCT030 30/21 Q1012     RMK 1CU020 3CU030 A2989=
20170711_040000.003,0,RJTF,,,,0,20170711040000,-1,-1,-1,-1,180,-1,14,-1,-1,-1,-1,,9999,0,0,2,FEW 20   SCT 30,1,30,1,22,1011,RJTF 110400Z 18014KT 9999 FEW020 SCT030 30/22 Q1011 RMK 1CU020     4CU030 A2988=
20170711_050000.003,0,RJTF,,,,0,20170711050000,-1,-1,-1,-1,180,-1,12,-1,-1,150,230,,9999,0,0,2,FEW 20   SCT 30,1,31,1,22,1011,RJTF 110500Z 18012KT 150V230 9999 FEW020 SCT030 31/22 Q1011     RMK 1CU020 3CU030 A2987=
20170711_060000.002,0,RJTF,,,,0,20170711060000,-1,-1,-1,-1,190,-1,13,-1,-1,150,230,,9999,0,0,1,FEW 20,1,30,1,22,1011,RJTF 110600Z 19013KT 150V230 9999 FEW020 30/22 Q1011 RMK     1CU020 A2985=
20170711_070000.003,0,RJTF,,,,0,20170711070000,-1,-1,-1,-1,180,-1,13,-1,-1,150,220,,9999,0,0,1,FEW 20,1,30,1,21,1010,RJTF 110700Z 18013KT 150V220 9999 FEW020 30/21 Q1010 RMK     1CU020 A2984=
20170711_080000.003,0,RJTF,,,,0,20170711080000,-1,-1,-1,-1,180,-1,13,-1,24,-1,-1,,9999,0,0,1,FEW 20,1,29,1,22,1010,RJTF 110800Z 18013G24KT 9999 FEW020 29/22 Q1010 RMK 1CU020     A2984=
20170711_090000.002,0,RJTF,,,,0,20170711090000,-1,-1,-1,-1,-1,-1,-1,-1,-1,-1,-1,,-1,0,0,0,,0,-1,0,-1,-1,RJTF 110900Z NIL=
20170711_233000.001,0,RJTF,,,,0,20170711230000,-1,-1,-1,-1,210,-1,6,-1,-1,170,240,,9999,0,0,2,FEW 30   SCT -9999,1,30,1,23,1011,RJTF 112330Z 21006KT 170V240 9999 FEW030 SCT/// 30/23 Q1011     RMK 2CU030 A2986=
20170712_000000.003,0,RJTF,,,,0,20170712000000,-1,-1,-1,-1,210,-1,7,-1,-1,160,260,,9999,0,0,2,FEW 25   SCT 30,1,30,1,22,1010,RJTF 120000Z 21007KT 160V260 9999 FEW025 SCT030 30/22 Q1010     RMK 1CU025 3CU030 A2985=
20170712_010000.002,0,RJTF,,,,0,20170712010000,-1,-1,-1,-1,170,-1,5,-1,-1,140,210,,9999,0,0,2,FEW 25   SCT 30,1,31,1,22,1010,RJTF 120100Z 17005KT 140V210 9999 FEW025 SCT030 31/22 Q1010     RMK 1CU025 3CU030 A2984=
20170712_020000.002,0,RJTF,,,,0,20170712020000,-1,-1,-1,-1,210,-1,5,-1,-1,150,280,,9999,0,0,2,FEW 30   SCT 35,1,32,1,24,1010,RJTF 120200Z 21005KT 150V280 9999 FEW030 SCT035 32/24 Q1010     RMK 2CU030 4CU035 A2983=
20170712_030000.003,0,RJTF,,,,0,20170712030000,-1,-1,-1,-1,170,-1,9,-1,-1,120,280,,9999,0,0,2,FEW 30   SCT 40,1,33,1,23,1009,RJTF 120300Z 17009KT 120V280 9999 FEW030 SCT040 33/23 Q1009     RMK 2CU030 3CU040 A2981=
20170712_040000.003,0,RJTF,,,,0,20170712040000,-1,-1,-1,-1,180,-1,10,-1,-1,-1,-1,,9999,0,0,2,FEW 30   SCT 40,1,33,1,23,1008,RJTF 120400Z 18010KT 9999 FEW030 SCT040 33/23 Q1008 RMK 2CU030     3CU040 A2979=
20170712_050000.002,0,RJTF,,,,0,20170712050000,-1,-1,-1,-1,180,-1,11,-1,-1,150,210,,9999,0,0,2,FEW 30   SCT 40,1,32,1,23,1008,RJTF 120500Z 18011KT 150V210 9999 FEW030 SCT040 32/23 Q1008     RMK 1CU030 3CU040 A2977=
20170712_060000.002,0,RJTF,,,,0,20170712060000,-1,-1,-1,-1,170,-1,12,-1,-1,140,210,,9999,0,0,2,FEW 35   SCT -9999,1,33,1,23,1007,RJTF 120600Z 17012KT 140V210 9999 FEW035 SCT/// 33/23 Q1007     RMK 2CU035 A2976=
20170712_070000.002,0,RJTF,,,,0,20170712070000,-1,-1,-1,-1,160,-1,11,-1,-1,130,200,,9999,0,0,3,FEW 30   FEW 35 CB  SCT -9999,1,32,1,23,1008,RJTF 120700Z 16011KT 130V200 9999 FEW030 FEW035CB SCT/// 32/23     Q1008 RMK 2CU030 1CB035 A2977 CB 20KM W-NW MOV E=
20170712_080000.002,0,RJTF,,,,0,20170712080000,-1,-1,-1,-1,180,-1,8,-1,-1,150,210,,9999,0,0,2,FEW 35   SCT -9999,1,31,1,23,1007,RJTF 120800Z 18008KT 150V210 9999 FEW035 SCT/// 31/23 Q1007     RMK 1CU035 A2976=
20170712_090000.002,0,RJTF,,,,0,20170712090000,-1,-1,-1,-1,-1,-1,-1,-1,-1,-1,-1,,-1,0,0,0,,0,-1,0,-1,-1,RJTF 120900Z NIL=
20170712_233000.001,0,RJTF,,,,0,20170712230000,-1,-1,-1,-1,210,-1,7,-1,-1,180,240,,9999,0,0,2,FEW 25   SCT -9999,1,31,1,23,1009,RJTF 122330Z 21007KT 180V240 9999 FEW025 SCT/// 31/23 Q1009     RMK 2CU025 A2980=
20170713_000000.002,0,RJTF,,,,0,20170713000000,-1,-1,-1,-1,200,-1,8,-1,-1,160,230,,9999,0,0,2,FEW 25   BKN -9999,1,31,1,23,1009,RJTF 130000Z 20008KT 160V230 9999 FEW025 BKN/// 31/23 Q1009     RMK 2CU025 A2981=
20170713_010000.003,0,RJTF,,,,0,20170713010000,-1,-1,-1,-1,190,-1,11,-1,-1,140,230,,9999,0,0,2,FEW 30   SCT -9999,1,32,1,23,1009,RJTF 130100Z 19011KT 140V230 9999 FEW030 SCT/// 32/23 Q1009     RMK 2CU030 A2981=
20170713_020000.003,0,RJTF,,,,0,20170713020000,-1,-1,-1,-1,180,-1,14,-1,-1,150,220,,9999,0,0,2,FEW 30   SCT -9999,1,31,1,23,1009,RJTF 130200Z 18014KT 150V220 9999 FEW030 SCT/// 31/23 Q1009     RMK 2CU030 A2980=
20170713_030000.003,0,RJTF,,,,0,20170713030000,-1,-1,-1,-1,190,-1,13,-1,-1,160,240,,9999,0,0,2,FEW 25   SCT 70,1,31,1,23,1009,RJTF 130300Z 19013KT 160V240 9999 FEW025 SCT070 31/23 Q1009     RMK 2CU025 4AC070 A2980=
20170713_040000.002,0,RJTF,,,,0,20170713040000,-1,-1,-1,-1,200,-1,10,-1,-1,160,230,,9999,0,0,3,FEW 20   SCT 70   BKN 90,1,31,1,23,1008,RJTF 130400Z 20010KT 160V230 9999 FEW020 SCT070 BKN090 31/23     Q1008 RMK 2CU020 4AC070 5AC090 A2979=
20170713_050000.003,0,RJTF,,,,0,20170713050000,-1,-1,-1,-1,200,-1,9,-1,-1,150,230,,9999,0,0,3,FEW 20   SCT 80   BKN 140,1,30,1,23,1008,RJTF 130500Z 20009KT 150V230 9999 FEW020 SCT080 BKN140 30/23     Q1008 RMK 2CU020 3AC080 5AC140 A2978=
20170713_060000.002,0,RJTF,,,,0,20170713060000,-1,-1,-1,-1,180,-1,14,-1,-1,150,240,,9999,0,0,3,FEW 30   SCT 80   BKN 160,1,30,1,22,1008,RJTF 130600Z 18014KT 150V240 9999 FEW030 SCT080 BKN160 30/22     Q1008 RMK 1CU030 3AC080 5AC160 A2978=
20170713_070000.002,0,RJTF,,,,0,20170713070000,-1,-1,-1,-1,180,-1,13,-1,-1,150,210,,9999,0,0,3,FEW 30   SCT 90   BKN 180,1,29,1,22,1008,RJTF 130700Z 18013KT 150V210 9999 FEW030 SCT090 BKN180 29/22     Q1008 RMK 1CU030 3AC090 5AC180 A2978=
20170713_080000.003,0,RJTF,,,,0,20170713080000,-1,-1,-1,-1,190,-1,12,-1,22,160,240,,9999,0,0,3,FEW 30   SCT 90   BKN -9999,1,29,1,21,1008,RJTF 130800Z 19012G22KT 160V240 9999 FEW030 SCT090 BKN///     29/21 Q1008 RMK 1CU030 4AC090 A2978=
20170713_090000.002,0,RJTF,,,,0,20170713090000,-1,-1,-1,-1,-1,-1,-1,-1,-1,-1,-1,,-1,0,0,0,,0,-1,0,-1,-1,RJTF 130900Z NIL=
20170713_233000.001,0,RJTF,,,,0,20170713230000,-1,-1,-1,-1,180,-1,8,-1,-1,150,210,,9999,0,0,3,FEW 20   FEW 25 TCU  SCT 120,1,29,1,21,1012,RJTF 132330Z 18008KT 150V210 9999 FEW020 FEW025TCU SCT120     29/21 Q1012 RMK 2CU020 1TCU025 3AC120 A2990 TCU N=
20170714_000000.002,0,RJTF,,,,0,20170714000000,-1,-1,-1,-1,190,-1,8,-1,-1,150,240,,9999,0,0,3,FEW 20   FEW 25 CB  SCT -9999,1,30,1,22,1012,RJTF 140000Z 19008KT 150V240 9999 FEW020 FEW025CB SCT/// 30/22     Q1012 RMK 2CU020 1CB025 A2990 CB 20KM N STNR=
20170714_010000.002,0,RJTF,,,,0,20170714010000,-1,-1,-1,-1,190,-1,9,-1,-1,150,250,,9999,0,0,3,FEW 25   FEW 30 CB  SCT 150,1,31,1,21,1012,RJTF 140100Z 19009KT 150V250 9999 FEW025 FEW030CB SCT150 31/21     Q1012 RMK 2CU025 1CB030 4AC150 A2989 CB 25KM N MOV NE=
20170714_020000.003,0,RJTF,,,,0,20170714020000,-1,-1,-1,-1,180,-1,9,-1,-1,140,210,,9999,0,0,2,FEW 25   SCT 150,1,31,1,22,1012,RJTF 140200Z 18009KT 140V210 9999 FEW025 SCT150 31/22 Q1012     RMK 2CU025 3AC150 A2989=
20170714_030000.002,0,RJTF,,,,0,20170714030000,-1,-1,-1,-1,170,-1,12,-1,-1,-1,-1,,9999,0,0,1,FEW 25,1,32,1,21,1011,RJTF 140300Z 17012KT 9999 FEW025 32/21 Q1011 RMK 2CU025 A2987=
20170714_040000.002,0,RJTF,,,,0,20170714040000,-1,-1,-1,-1,170,-1,12,-1,-1,-1,-1,,9999,0,0,1,FEW 25,1,32,1,22,1011,RJTF 140400Z 17012KT 9999 FEW025 32/22 Q1011 RMK 1CU025 A2986=
20170714_050000.003,0,RJTF,,,,0,20170714050000,-1,-1,-1,-1,180,-1,12,-1,-1,160,220,,9999,0,0,1,FEW 25,1,32,1,21,1011,RJTF 140500Z 18012KT 160V220 9999 FEW025 32/21 Q1011 RMK     2CU025 A2986=
20170714_060000.003,0,RJTF,,,,0,20170714060000,-1,-1,-1,-1,180,-1,11,-1,-1,150,230,,9999,0,0,2,FEW 25   FEW 30 CB,1,31,1,21,1011,RJTF 140600Z 18011KT 150V230 9999 FEW025 FEW030CB 31/21 Q1011     RMK 2CU025 1CB030 A2985 CB 30KM NW MOV NE=
20170714_070000.002,0,RJTF,,,,0,20170714070000,-1,-1,-1,-1,200,-1,11,-1,-1,170,240,,9999,0,0,2,FEW 25   FEW 30 CB,1,30,1,20,1011,RJTF 140700Z 20011KT 170V240 9999 FEW025 FEW030CB 30/20 Q1011     RMK 1CU025 2CB030 A2986 CB NW-NE TCU NW=
20170714_080000.002,0,RJTF,,,,0,20170714080000,-1,-1,-1,-1,190,-1,11,-1,-1,-1,-1,,9999,0,0,2,FEW 25   FEW 30 CB,1,30,1,21,1011,RJTF 140800Z 19011KT 9999 FEW025 FEW030CB 30/21 Q1011 RMK     1CU025 2CB030 A2985 CB NW AND N-NE=
20170714_090000.002,0,RJTF,,,,0,20170714090000,-1,-1,-1,-1,-1,-1,-1,-1,-1,-1,-1,,-1,0,0,0,,0,-1,0,-1,-1,RJTF 140900Z NIL=
20170714_233000.001,0,RJTF,,,,0,20170714230000,-1,-1,-1,-1,60,-1,3,-1,-1,330,110,,9999,0,0,1,FEW 15,1,28,1,22,1013,RJTF 142330Z 06003KT 330V110 9999 FEW015 28/22 Q1013 RMK     2CU015 A2992=
20170715_000000.004,0,RJTF,,,,0,20170715000000,-1,-1,-1,-1,999,-1,2,-1,-1,-1,-1,,9999,0,0,1,BKN 20,1,30,1,22,1013,RJTF 150000Z VRB02KT 9999 BKN020 30/22 Q1013 RMK 5CU020 A2992=
20170715_010000.003,0,RJTF,,,,0,20170715010000,-1,-1,-1,-1,999,-1,2,-1,-1,-1,-1,,9999,0,0,1,BKN 30,1,31,1,22,1012,RJTF 150100Z VRB02KT 9999 BKN030 31/22 Q1012 RMK 5CU030 A2991=
20170715_020000.003,0,RJTF,,,,0,20170715020000,-1,-1,-1,-1,999,-1,4,-1,-1,-1,-1,,9999,0,0,1,SCT 30,1,33,1,21,1012,RJTF 150200Z VRB04KT 9999 SCT030 33/21 Q1012 RMK 4CU030 A2989=
20170715_030000.002,0,RJTF,,,,0,20170715030000,-1,-1,-1,-1,999,-1,3,-1,-1,-1,-1,,9999,0,0,2,FEW 30   SCT -9999,1,32,1,21,1011,RJTF 150300Z VRB03KT 9999 FEW030 SCT/// 32/21 Q1011 RMK 2CU030     A2987=
20170715_040000.003,0,RJTF,,,,0,20170715040000,-1,-1,-1,-1,200,-1,7,-1,-1,160,240,,9999,0,0,2,FEW 30   SCT -9999,1,33,1,20,1011,RJTF 150400Z 20007KT 160V240 9999 FEW030 SCT/// 33/20 Q1011     RMK 1CU030 A2986=
20170715_050000.002,0,RJTF,,,,0,20170715050000,-1,-1,-1,-1,180,-1,9,-1,-1,150,210,,9999,0,0,2,FEW 30   BKN -9999,1,33,1,18,1010,RJTF 150500Z 18009KT 150V210 9999 FEW030 BKN/// 33/18 Q1010     RMK 1CU030 A2985=
20170715_060000.003,0,RJTF,,,,0,20170715060000,-1,-1,-1,-1,190,-1,9,-1,-1,160,230,,9999,0,0,2,FEW 30   BKN -9999,1,32,1,19,1011,RJTF 150600Z 19009KT 160V230 9999 FEW030 BKN/// 32/19 Q1011     RMK 1CU030 A2986=
20170715_070000.003,0,RJTF,,,,0,20170715070000,-1,-1,-1,-1,200,-1,9,-1,-1,160,240,,9999,0,0,2,FEW 30   BKN -9999,1,32,1,21,1011,RJTF 150700Z 20009KT 160V240 9999 FEW030 BKN/// 32/21 Q1011     RMK 1CU030 A2985=
20170715_080000.002,0,RJTF,,,,0,20170715080000,-1,-1,-1,-1,180,-1,9,-1,-1,-1,-1,,9999,0,0,2,FEW 30   BKN -9999,1,30,1,20,1011,RJTF 150800Z 18009KT 9999 FEW030 BKN/// 30/20 Q1011 RMK 1CU030     A2985=
20170715_090000.002,0,RJTF,,,,0,20170715090000,-1,-1,-1,-1,-1,-1,-1,-1,-1,-1,-1,,-1,0,0,0,,0,-1,0,-1,-1,RJTF 150900Z NIL=
20170715_233000.001,0,RJTF,,,,0,20170715230000,-1,-1,-1,-1,999,-1,2,-1,-1,-1,-1,,9999,0,0,2,FEW 20   BKN -9999,1,30,1,22,1011,RJTF 152330Z VRB02KT 9999 FEW020 BKN/// 30/22 Q1011 RMK 1CU020     A2987=
20170716_000000.003,0,RJTF,,,,0,20170716000000,-1,-1,-1,-1,999,-1,1,-1,-1,-1,-1,,9999,0,0,2,FEW 20   BKN -9999,1,31,1,21,1011,RJTF 160000Z VRB01KT 9999 FEW020 BKN/// 31/21 Q1011 RMK 1CU020     A2986=
20170716_010000.002,0,RJTF,,,,0,20170716010000,-1,-1,-1,-1,999,-1,3,-1,-1,-1,-1,,9999,0,0,2,FEW 30   BKN -9999,1,33,1,21,1010,RJTF 160100Z VRB03KT 9999 FEW030 BKN/// 33/21 Q1010 RMK 1CU030     A2985=
20170716_020000.002,0,RJTF,,,,0,20170716020000,-1,-1,-1,-1,170,-1,5,-1,-1,120,220,,9999,0,0,2,FEW 30   BKN -9999,1,34,1,21,1010,RJTF 160200Z 17005KT 120V220 9999 FEW030 BKN/// 34/21 Q1010     RMK 1CU030 A2983=
20170716_030000.002,0,RJTF,,,,0,20170716030000,-1,-1,-1,-1,170,-1,5,-1,-1,120,240,,9999,0,0,2,FEW 30   BKN -9999,1,35,1,20,1009,RJTF 160300Z 17005KT 120V240 9999 FEW030 BKN/// 35/20 Q1009     RMK 1CU030 A2981=
20170716_040000.002,0,RJTF,,,,0,20170716040000,-1,-1,-1,-1,180,-1,7,-1,-1,150,260,,9999,0,0,2,FEW 30   BKN -9999,1,34,1,18,1009,RJTF 160400Z 18007KT 150V260 9999 FEW030 BKN/// 34/18 Q1009     RMK 1CU030 A2980=
20170716_050000.002,0,RJTF,,,,0,20170716050000,-1,-1,-1,-1,200,-1,5,-1,-1,150,240,,9999,0,0,2,FEW 30   BKN -9999,1,33,1,20,1008,RJTF 160500Z 20005KT 150V240 9999 FEW030 BKN/// 33/20 Q1008     RMK 1CU030 A2979=
20170716_060000.003,0,RJTF,,,,0,20170716060000,-1,-1,-1,-1,200,-1,6,-1,-1,160,240,,9999,0,0,2,FEW 30   BKN -9999,1,33,1,22,1008,RJTF 160600Z 20006KT 160V240 9999 FEW030 BKN/// 33/22 Q1008     RMK 1CU030 A2979=
20170716_070000.003,0,RJTF,,,,0,20170716070000,-1,-1,-1,-1,180,-1,6,-1,-1,130,230,,9999,0,0,3,FEW 30   SCT 160   BKN -9999,1,33,1,22,1008,RJTF 160700Z 18006KT 130V230 9999 FEW030 SCT160 BKN/// 33/22     Q1008 RMK 1CU030 3AC160 A2977=
20170716_080000.003,0,RJTF,,,,0,20170716080000,-1,-1,-1,-1,170,-1,6,-1,-1,-1,-1,,9999,0,0,3,FEW 30   SCT 180   BKN -9999,1,32,1,22,1008,RJTF 160800Z 17006KT 9999 FEW030 SCT180 BKN/// 32/22 Q1008 RMK     1CU030 3AC180 A2977=
20170716_090000.002,0,RJTF,,,,0,20170716090000,-1,-1,-1,-1,-1,-1,-1,-1,-1,-1,-1,,-1,0,0,0,,0,-1,0,-1,-1,RJTF 160900Z NIL=
20170716_233000.001,0,RJTF,,,,0,20170716230000,-1,-1,-1,-1,999,-1,1,-1,-1,-1,-1,,9999,0,0,3,FEW 20   SCT 50   BKN -9999,1,28,1,22,1009,RJTF 162330Z VRB01KT 9999 FEW020 SCT050 BKN/// 28/22 Q1009 RMK     1CU020 3SC050 A2981=
20170717_000000.002,0,RJTF,,,,0,20170717000000,-1,-1,-1,-1,999,-1,2,-1,-1,-1,-1,,9999,0,0,2,FEW 20   BKN -9999,1,30,1,21,1009,RJTF 170000Z VRB02KT 9999 FEW020 BKN/// 30/21 Q1009 RMK 1CU020     A2980=
20170717_010000.003,0,RJTF,,,,0,20170717010000,-1,-1,-1,-1,20,-1,3,-1,-1,330,90,,9999,0,0,2,FEW 30   BKN -9999,1,32,1,20,1008,RJTF 170100Z 02003KT 330V090 9999 FEW030 BKN/// 32/20 Q1008     RMK 1CU030 A2979=
20170717_020000.002,0,RJTF,,,,0,20170717020000,-1,-1,-1,-1,360,-1,6,-1,-1,320,50,,9999,0,0,2,FEW 30   BKN -9999,1,33,1,18,1008,RJTF 170200Z 36006KT 320V050 9999 FEW030 BKN/// 33/18 Q1008     RMK 1CU030 A2977=
20170717_030000.002,0,RJTF,,,,0,20170717030000,-1,-1,-1,-1,10,-1,11,-1,-1,330,40,,9999,0,0,2,FEW 30   BKN -9999,1,35,1,19,1008,RJTF 170300Z 01011KT 330V040 9999 FEW030 BKN/// 35/19 Q1008     RMK 1CU030 A2977=
20170717_040000.003,0,RJTF,,,,0,20170717040000,-1,-1,-1,-1,40,-1,9,-1,-1,360,80,,9999,0,0,2,FEW 30   BKN -9999,1,33,1,19,1008,RJTF 170400Z 04009KT 360V080 9999 FEW030 BKN/// 33/19 Q1008     RMK 1CU030 A2977=
20170717_050000.002,0,RJTF,,,,0,20170717050000,-1,-1,-1,-1,20,-1,7,-1,-1,340,50,,9999,0,0,2,FEW 30   BKN -9999,1,34,1,18,1007,RJTF 170500Z 02007KT 340V050 9999 FEW030 BKN/// 34/18 Q1007     RMK 1CU030 A2975=
20170717_060000.002,0,RJTF,,,,0,20170717060000,-1,-1,-1,-1,90,-1,4,-1,-1,20,160,,9999,0,0,2,FEW 30   BKN -9999,1,34,1,18,1007,RJTF 170600Z 09004KT 020V160 9999 FEW030 BKN/// 34/18 Q1007     RMK 1CU030 A2975=
20170717_070000.002,0,RJTF,,,,0,20170717070000,-1,-1,-1,-1,110,-1,6,-1,-1,-1,-1,,9999,0,0,2,FEW 30   BKN -9999,1,34,1,20,1007,RJTF 170700Z 11006KT 9999 FEW030 BKN/// 34/20 Q1007 RMK 1CU030     A2974=
20170717_080000.002,0,RJTF,,,,0,20170717080000,-1,-1,-1,-1,150,-1,9,-1,-1,-1,-1,,9999,0,0,3,FEW 30   SCT 50   BKN -9999,1,33,1,20,1007,RJTF 170800Z 15009KT 9999 FEW030 SCT050 BKN/// 33/20 Q1007 RMK     1CU030 3SC050 A2974=
20170717_090000.002,0,RJTF,,,,0,20170717090000,-1,-1,-1,-1,-1,-1,-1,-1,-1,-1,-1,,-1,0,0,0,,0,-1,0,-1,-1,RJTF 170900Z NIL=
20170717_233000.001,0,RJTF,,,,0,20170717230000,-1,-1,-1,-1,360,-1,7,-1,-1,-1,-1,,9999,0,0,3,FEW 20   SCT 150   BKN -9999,1,27,1,21,1007,RJTF 172330Z 36007KT 9999 FEW020 SCT150 BKN/// 27/21 Q1007 RMK     1CU020 3AC150 A2974=
20170718_000000.002,0,RJTF,,,,0,20170718000000,-1,-1,-1,-1,360,-1,8,-1,-1,310,20,,9999,0,0,3,FEW 25   SCT 160   BKN -9999,1,28,1,21,1006,RJTF 180000Z 36008KT 310V020 9999 FEW025 SCT160 BKN/// 28/21     Q1006 RMK 1CU025 3AC160 A2973=
20170718_010000.002,0,RJTF,,,,0,20170718010000,-1,-1,-1,-1,360,-1,7,-1,-1,320,40,,9999,0,0,3,FEW 30   SCT 170   BKN -9999,1,30,1,22,1006,RJTF 180100Z 36007KT 320V040 9999 FEW030 SCT170 BKN/// 30/22     Q1006 RMK 1CU030 3AC170 A2971=
20170718_020000.003,0,RJTF,,,,0,20170718020000,-1,-1,-1,-1,10,-1,6,-1,-1,300,60,,9999,0,0,2,FEW 30   BKN 140,1,31,1,21,1006,RJTF 180200Z 01006KT 300V060 9999 FEW030 BKN140 31/21 Q1006     RMK 1CU030 5AC140 A2971=
20170718_030000.002,0,RJTF,,,,0,20170718030000,-1,-1,-1,-1,10,-1,7,-1,-1,310,70,,9999,0,0,3,FEW 30   SCT 40   BKN 150,1,32,1,22,1005,RJTF 180300Z 01007KT 310V070 9999 FEW030 SCT040 BKN150 32/22     Q1005 RMK 2CU030 3CU040 5AC150 A2969=
20170718_040000.002,0,RJTF,,,,0,20170718040000,-1,-1,-1,-1,70,-1,7,-1,-1,20,120,,9999,0,1,4,FEW 25   FEW 30 CB  SCT 40   BKN 110,1,31,1,20,1005,RJTF 180400Z 07007KT 020V120 9999 TS FEW025 FEW030CB SCT040     BKN110 31/20 Q1005 RMK 2CU025 1CB030 3SC040 6AC110 A2968           FBL TS 10KM S-W MOV SE=
20170718_050000.002,0,RJTF,,,,0,20170718050000,-1,-1,-1,-1,60,-1,9,-1,-1,20,80,,9999,0,1,4,FEW 30   FEW 35 CB  SCT 45   BKN 90,1,29,1,21,1004,RJTF 180500Z 06009KT 020V080 9999 -TSRA FEW030 FEW035CB SCT045     BKN090 29/21 Q1004 RMK 2CU030 1CB035 4SC045 6AC090 A2965           MOD TS OHD MOV SE=
20170718_060000.002,0,RJTF,,,,0,20170718060000,-1,-1,-1,-1,10,-1,9,-1,-1,-1,-1,,7000,0,1,4,FEW 20   FEW 30 CB  SCT 50   BKN 80,1,24,1,22,1006,RJTF 180600Z 01009KT 7000 -TSRA FEW020 FEW030CB SCT050 BKN080     24/22 Q1006 RMK 2CU020 1CB030 4SC050 6AC080 A2971 FBL TS           5KM E MOV SE=
20170718_070000.002,0,RJTF,,,,0,20170718070000,-1,-1,-1,-1,999,-1,2,-1,-1,-1,-1,,9999,0,1,4,FEW 30   FEW 35 CB  SCT 70   BKN 120,1,26,1,21,1005,RJTF 180700Z VRB02KT 9999 TS FEW030 FEW035CB SCT070 BKN120     26/21 Q1005 RMK 2CU030 1CB035 3AC070 5AC120 A2970 FBL TS           20KM SW MOV SE=
20170718_080000.003,0,RJTF,,,,0,20170718080000,-1,-1,-1,-1,270,-1,4,-1,-1,220,310,,7000,0,1,4,FEW 15   FEW 30 CB  SCT 40   BKN 70,1,26,1,23,1006,RJTF 180800Z 27004KT 220V310 7000 TSRA FEW015 FEW030CB SCT040     BKN070 26/23 Q1006 RMK 2CU015 1CB030 3SC040 6AC070 A2972           FBL TS OHD MOV SE=
20170718_090000.002,0,RJTF,,,,0,20170718090000,-1,-1,-1,-1,-1,-1,-1,-1,-1,-1,-1,,-1,0,0,0,,0,-1,0,-1,-1,RJTF 180900Z NIL=
20170718_233000.001,0,RJTF,,,,0,20170718230000,-1,-1,-1,-1,999,-1,2,-1,-1,-1,-1,,9999,0,0,3,FEW 20   SCT 60   BKN -9999,1,27,1,21,1009,RJTF 182330Z VRB02KT 9999 FEW020 SCT060 BKN/// 27/21 Q1009 RMK     2CU020 4SC060 A2981=
20170719_000000.003,0,RJTF,,,,0,20170719000000,-1,-1,-1,-1,999,-1,2,-1,-1,-1,-1,,9999,0,0,2,FEW 20   SCT 60,1,27,1,20,1009,RJTF 190000Z VRB02KT 9999 FEW020 SCT060 27/20 Q1009 RMK 2CU020     3SC060 A2980=
20170719_010000.003,0,RJTF,,,,0,20170719010000,-1,-1,-1,-1,140,-1,6,-1,-1,90,190,,9999,0,0,2,FEW 25   SCT 35,1,29,1,21,1008,RJTF 190100Z 14006KT 090V190 9999 FEW025 SCT035 29/21 Q1008     RMK 2CU025 4SC035 A2979=
20170719_020000.002,0,RJTF,,,,0,20170719020000,-1,-1,-1,-1,160,-1,7,-1,-1,130,210,,9999,0,0,2,FEW 25   SCT 35,1,30,1,21,1008,RJTF 190200Z 16007KT 130V210 9999 FEW025 SCT035 30/21 Q1008     RMK 2CU025 4CU035 A2978=
20170719_030000.002,0,RJTF,,,,0,20170719030000,-1,-1,-1,-1,160,-1,7,-1,-1,120,220,,9999,0,0,2,FEW 30   SCT 60,1,30,1,22,1008,RJTF 190300Z 16007KT 120V220 9999 FEW030 SCT060 30/22 Q1008     RMK 2CU030 3SC060 A2977=
20170719_040000.003,0,RJTF,,,,0,20170719040000,-1,-1,-1,-1,200,-1,6,-1,-1,160,250,,9999,0,0,2,FEW 30   SCT 45,1,31,1,21,1007,RJTF 190400Z 20006KT 160V250 9999 FEW030 SCT045 31/21 Q1007     RMK 2CU030 4SC045 A2976=
20170719_050000.002,0,RJTF,,,,0,20170719050000,-1,-1,-1,-1,220,-1,9,-1,-1,160,250,,9999,0,0,2,FEW 30   SCT 45,1,31,1,20,1007,RJTF 190500Z 22009KT 160V250 9999 FEW030 SCT045 31/20 Q1007     RMK 1CU030 3SC045 A2976=
20170719_060000.002,0,RJTF,,,,0,20170719060000,-1,-1,-1,-1,200,-1,10,-1,-1,170,240,,9999,0,0,1,FEW 30,1,30,1,19,1008,RJTF 190600Z 20010KT 170V240 9999 FEW030 30/19 Q1008 RMK     1CU030 A2977=
20170719_070000.003,0,RJTF,,,,0,20170719070000,-1,-1,-1,-1,190,-1,12,-1,-1,160,220,,9999,0,0,1,FEW 30,1,28,1,19,1008,RJTF 190700Z 19012KT 160V220 9999 FEW030 28/19 Q1008 RMK     1CU030 A2977=
20170719_080000.003,0,RJTF,,,,0,20170719080000,-1,-1,-1,-1,190,-1,11,-1,-1,130,230,,9999,0,0,1,FEW 30,1,28,1,20,1007,RJTF 190800Z 19011KT 130V230 9999 FEW030 28/20 Q1007 RMK     1CU030 A2976=
20170719_090000.002,0,RJTF,,,,0,20170719090000,-1,-1,-1,-1,-1,-1,-1,-1,-1,-1,-1,,-1,0,0,0,,0,-1,0,-1,-1,RJTF 190900Z NIL=
20170719_233000.001,0,RJTF,,,,0,20170719230000,-1,-1,-1,-1,250,-1,5,-1,-1,160,310,,9999,0,0,1,BKN 20,1,28,1,22,1013,RJTF 192330Z 25005KT 160V310 9999 BKN020 28/22 Q1013 RMK     5CU020 A2992=
20170720_000000.002,0,RJTF,,,,0,20170720000000,-1,-1,-1,-1,200,-1,4,-1,-1,140,260,,9999,0,0,1,BKN 20,1,29,1,21,1012,RJTF 200000Z 20004KT 140V260 9999 BKN020 29/21 Q1012 RMK     5CU020 A2991=
20170720_010000.002,0,RJTF,,,,0,20170720010000,-1,-1,-1,-1,200,-1,8,-1,-1,170,240,,9999,0,0,1,BKN 30,1,30,1,22,1012,RJTF 200100Z 20008KT 170V240 9999 BKN030 30/22 Q1012 RMK     5CU030 A2990=
20170720_020000.002,0,RJTF,,,,0,20170720020000,-1,-1,-1,-1,200,-1,8,-1,-1,160,240,,9999,0,0,1,BKN 30,1,30,1,22,1012,RJTF 200200Z 20008KT 160V240 9999 BKN030 30/22 Q1012 RMK     6CU030 A2989=
20170720_030000.002,0,RJTF,,,,0,20170720030000,-1,-1,-1,-1,200,-1,11,-1,-1,170,240,,9999,0,0,1,SCT 30,1,31,1,21,1011,RJTF 200300Z 20011KT 170V240 9999 SCT030 31/21 Q1011 RMK     4CU030 A2987=
20170720_040000.002,0,RJTF,,,,0,20170720040000,-1,-1,-1,-1,190,-1,10,-1,-1,140,250,,9999,0,0,1,FEW 30,1,31,1,21,1011,RJTF 200400Z 19010KT 140V250 9999 FEW030 31/21 Q1011 RMK     2CU030 A2986=
20170720_050000.002,0,RJTF,,,,0,20170720050000,-1,-1,-1,-1,200,-1,11,-1,-1,160,230,,9999,0,0,1,SCT 30,1,32,1,21,1011,RJTF 200500Z 20011KT 160V230 9999 SCT030 32/21 Q1011 RMK     3CU030 A2986=
20170720_060000.002,0,RJTF,,,,0,20170720060000,-1,-1,-1,-1,190,-1,10,-1,-1,140,230,,9999,0,0,1,SCT 30,1,31,1,22,1011,RJTF 200600Z 19010KT 140V230 9999 SCT030 31/22 Q1011 RMK     4CU030 A2986=
20170720_070000.002,0,RJTF,,,,0,20170720070000,-1,-1,-1,-1,170,-1,11,-1,-1,-1,-1,,9999,0,0,1,SCT 30,1,31,1,22,1011,RJTF 200700Z 17011KT 9999 SCT030 31/22 Q1011 RMK 4CU030 A2985=
20170720_080000.002,0,RJTF,,,,0,20170720080000,-1,-1,-1,-1,200,-1,9,-1,19,160,240,,9999,0,0,1,FEW 30,1,30,1,21,1011,RJTF 200800Z 20009G19KT 160V240 9999 FEW030 30/21 Q1011 RMK     2CU030 A2986=
20170720_090000.002,0,RJTF,,,,0,20170720090000,-1,-1,-1,-1,-1,-1,-1,-1,-1,-1,-1,,-1,0,0,0,,0,-1,0,-1,-1,RJTF 200900Z NIL=
20170720_233000.001,0,RJTF,,,,0,20170720230000,-1,-1,-1,-1,180,-1,8,-1,-1,150,220,,9999,0,0,1,FEW 20,1,30,1,22,1013,RJTF 202330Z 18008KT 150V220 9999 FEW020 30/22 Q1013 RMK     2CU020 A2994=
20170721_000000.002,0,RJTF,,,,0,20170721000000,-1,-1,-1,-1,170,-1,8,-1,-1,150,220,,9999,0,0,1,FEW 20,1,30,1,22,1013,RJTF 210000Z 17008KT 150V220 9999 FEW020 30/22 Q1013 RMK     2CU020 A2994=
20170721_010000.002,0,RJTF,,,,0,20170721010000,-1,-1,-1,-1,160,-1,9,-1,-1,-1,-1,,9999,0,0,1,FEW 30,1,32,1,22,1013,RJTF 210100Z 16009KT 9999 FEW030 32/22 Q1013 RMK 2CU030 A2993=
20170721_020000.002,0,RJTF,,,,0,20170721020000,-1,-1,-1,-1,180,-1,9,-1,-1,110,230,,9999,0,0,1,FEW 30,1,32,1,21,1013,RJTF 210200Z 18009KT 110V230 9999 FEW030 32/21 Q1013 RMK     2CU030 A2992=
20170721_030000.002,0,RJTF,,,,0,20170721030000,-1,-1,-1,-1,190,-1,9,-1,-1,130,230,,9999,0,0,1,FEW 30,1,32,1,21,1012,RJTF 210300Z 19009KT 130V230 9999 FEW030 32/21 Q1012 RMK     2CU030 A2991=
20170721_040000.002,0,RJTF,,,,0,20170721040000,-1,-1,-1,-1,190,-1,10,-1,-1,160,230,,9999,0,0,1,FEW 30,1,32,1,21,1012,RJTF 210400Z 19010KT 160V230 9999 FEW030 32/21 Q1012 RMK     1CU030 A2989=
20170721_050000.002,0,RJTF,,,,0,20170721050000,-1,-1,-1,-1,190,-1,11,-1,-1,160,230,,9999,0,0,2,FEW 30   FEW 35 TCU,1,32,1,21,1012,RJTF 210500Z 19011KT 160V230 9999 FEW030 FEW035TCU 32/21 Q1012     RMK 1CU030 1TCU035 A2989 TCU NW=
20170721_060000.002,0,RJTF,,,,0,20170721060000,-1,-1,-1,-1,180,-1,12,-1,-1,150,210,,9999,0,0,2,FEW 30   FEW 35 TCU,1,31,1,21,1012,RJTF 210600Z 18012KT 150V210 9999 FEW030 FEW035TCU 31/21 Q1012     RMK 1CU030 1TCU035 A2989 TCU NW=
20170721_070000.002,0,RJTF,,,,0,20170721070000,-1,-1,-1,-1,170,-1,13,-1,-1,-1,-1,,9999,0,0,3,FEW 30   FEW 35 CB  SCT -9999,1,31,1,20,1012,RJTF 210700Z 17013KT 9999 FEW030 FEW035CB SCT/// 31/20 Q1012     RMK 1CU030 1CB035 A2989 CB 45KM NW MOV E=
20170721_080000.002,0,RJTF,,,,0,20170721080000,-1,-1,-1,-1,180,-1,11,-1,-1,150,220,,9999,0,0,3,FEW 30   SCT 150   BKN -9999,1,30,1,21,1011,RJTF 210800Z 18011KT 150V220 9999 FEW030 SCT150 BKN/// 30/21     Q1011 RMK 1CU030 3AC150 A2988=
20170721_090000.002,0,RJTF,,,,0,20170721090000,-1,-1,-1,-1,-1,-1,-1,-1,-1,-1,-1,,-1,0,0,0,,0,-1,0,-1,-1,RJTF 210900Z NIL=
20170721_233000.001,0,RJTF,,,,0,20170721230000,-1,-1,-1,-1,160,-1,6,-1,-1,110,230,,9999,0,0,2,FEW 30   BKN -9999,1,30,1,22,1012,RJTF 212330Z 16006KT 110V230 9999 FEW030 BKN/// 30/22 Q1012     RMK 1CU030 A2990=
20170722_000000.002,0,RJTF,,,,0,20170722000000,-1,-1,-1,-1,190,-1,4,-1,-1,140,230,,9999,0,0,2,FEW 30   BKN -9999,1,30,1,22,1012,RJTF 220000Z 19004KT 140V230 9999 FEW030 BKN/// 30/22 Q1012     RMK 2CU030 A2991=
20170722_010000.002,0,RJTF,,,,0,20170722010000,-1,-1,-1,-1,180,-1,7,-1,-1,140,220,,9999,0,0,2,FEW 30   BKN -9999,1,31,1,22,1012,RJTF 220100Z 18007KT 140V220 9999 FEW030 BKN/// 31/22 Q1012     RMK 2CU030 A2990=
20170722_020000.002,0,RJTF,,,,0,20170722020000,-1,-1,-1,-1,200,-1,8,-1,-1,150,260,,9999,0,0,2,FEW 30   SCT -9999,1,32,1,22,1012,RJTF 220200Z 20008KT 150V260 9999 FEW030 SCT/// 32/22 Q1012     RMK 2CU030 A2989=
20170722_030000.002,0,RJTF,,,,0,20170722030000,-1,-1,-1,-1,210,-1,8,-1,-1,160,250,,9999,0,0,2,FEW 30   SCT -9999,1,32,1,22,1011,RJTF 220300Z 21008KT 160V250 9999 FEW030 SCT/// 32/22 Q1011     RMK 1CU030 A2987=
20170722_040000.002,0,RJTF,,,,0,20170722040000,-1,-1,-1,-1,180,-1,12,-1,-1,150,210,,9999,0,0,2,FEW 30   SCT -9999,1,32,1,22,1010,RJTF 220400Z 18012KT 150V210 9999 FEW030 SCT/// 32/22 Q1010     RMK 1CU030 A2985=
20170722_050000.002,0,RJTF,,,,0,20170722050000,-1,-1,-1,-1,180,-1,12,-1,-1,-1,-1,,9999,0,0,2,FEW 30   SCT -9999,1,32,1,22,1010,RJTF 220500Z 18012KT 9999 FEW030 SCT/// 32/22 Q1010 RMK 1CU030     A2984=
20170722_060000.002,0,RJTF,,,,0,20170722060000,-1,-1,-1,-1,180,-1,12,-1,-1,150,210,,9999,0,0,3,FEW 25   FEW 30 CB  SCT -9999,1,32,1,22,1010,RJTF 220600Z 18012KT 150V210 9999 FEW025 FEW030CB SCT/// 32/22     Q1010 RMK 1CU025 1CB030 A2983 CB 30KM W MOV E=
20170722_070000.002,0,RJTF,,,,0,20170722070000,-1,-1,-1,-1,180,-1,13,-1,-1,-1,-1,,9999,0,0,2,FEW 30   SCT -9999,1,30,1,21,1009,RJTF 220700Z 18013KT 9999 FEW030 SCT/// 30/21 Q1009 RMK 1CU030     A2982=
20170722_080000.002,0,RJTF,,,,0,20170722080000,-1,-1,-1,-1,190,-1,9,-1,-1,150,230,,9999,0,0,2,FEW 30   SCT -9999,1,30,1,21,1010,RJTF 220800Z 19009KT 150V230 9999 FEW030 SCT/// 30/21 Q1010     RMK 1CU030 A2983=
20170722_090000.002,0,RJTF,,,,0,20170722090000,-1,-1,-1,-1,-1,-1,-1,-1,-1,-1,-1,,-1,0,0,0,,0,-1,0,-1,-1,RJTF 220900Z NIL=
20170722_233000.001,0,RJTF,,,,0,20170722230000,-1,-1,-1,-1,210,-1,6,-1,-1,170,250,,9999,0,0,2,FEW 25   BKN -9999,1,28,1,22,1008,RJTF 222330Z 21006KT 170V250 9999 FEW025 BKN/// 28/22 Q1008     RMK 1CU025 A2977=
20170723_000000.003,0,RJTF,,,,0,20170723000000,-1,-1,-1,-1,200,-1,5,-1,-1,160,250,,9999,0,0,2,FEW 25   BKN 180,1,28,1,22,1007,RJTF 230000Z 20005KT 160V250 9999 FEW025 BKN180 28/22 Q1007     RMK 1CU025 7AC180 A2976=
20170723_010000.003,0,RJTF,,,,0,20170723010000,-1,-1,-1,-1,200,-1,7,-1,-1,160,220,,9999,0,0,2,FEW 25   BKN 170,1,28,1,22,1007,RJTF 230100Z 20007KT 160V220 9999 FEW025 BKN170 28/22 Q1007     RMK 1CU025 7AC170 A2975=
20170723_020000.002,0,RJTF,,,,0,20170723020000,-1,-1,-1,-1,200,-1,6,-1,-1,150,240,,9999,0,1,3,FEW 25   SCT 60   BKN 120,1,28,1,22,1007,RJTF 230200Z 20006KT 150V240 9999 -SHRA FEW025 SCT060 BKN120     28/22 Q1007 RMK 1CU025 4SC060 7AC120 A2974=
20170723_030000.002,0,RJTF,,,,0,20170723030000,-1,-1,-1,-1,180,-1,7,-1,-1,150,220,,9999,0,1,3,FEW 25   SCT 70   BKN 130,1,27,1,23,1006,RJTF 230300Z 18007KT 150V220 9999 -SHRA FEW025 SCT070 BKN130     27/23 Q1006 RMK 1CU025 4AC070 7AC130 A2973=
20170723_040000.002,0,RJTF,,,,0,20170723040000,-1,-1,-1,-1,180,-1,7,-1,-1,150,220,,9999,0,1,3,FEW 30   SCT 70   BKN 110,1,27,1,23,1006,RJTF 230400Z 18007KT 150V220 9999 -SHRA FEW030 SCT070 BKN110     27/23 Q1006 RMK 1CU030 4AC070 7AC110 A2971=
20170723_050000.002,0,RJTF,,,,0,20170723050000,-1,-1,-1,-1,200,-1,6,-1,-1,160,230,,9999,0,1,3,FEW 25   SCT 50   BKN 100,1,28,1,23,1005,RJTF 230500Z 20006KT 160V230 9999 -SHRA FEW025 SCT050 BKN100     28/23 Q1005 RMK 1CU025 4SC050 7AC100 A2970=
20170723_060000.002,0,RJTF,,,,0,20170723060000,-1,-1,-1,-1,200,-1,7,-1,-1,160,230,,9999,0,0,3,FEW 30   SCT 70   BKN 150,1,28,1,22,1005,RJTF 230600Z 20007KT 160V230 9999 FEW030 SCT070 BKN150 28/22     Q1005 RMK 1CU030 3AC070 7AC150 A2969=
20170723_070000.002,0,RJTF,,,,0,20170723070000,-1,-1,-1,-1,190,-1,8,-1,-1,150,220,,9999,0,0,3,FEW 30   SCT 140   BKN 180,1,28,1,22,1005,RJTF 230700Z 19008KT 150V220 9999 FEW030 SCT140 BKN180 28/22     Q1005 RMK 1CU030 4AC140 7AC180 A2968=
20170723_080000.002,0,RJTF,,,,0,20170723080000,-1,-1,-1,-1,190,-1,8,-1,-1,150,220,,9999,0,0,2,FEW 30   BKN 160,1,28,1,22,1004,RJTF 230800Z 19008KT 150V220 9999 FEW030 BKN160 28/22 Q1004     RMK 1CU030 7AC160 A2967=
20170723_090000.002,0,RJTF,,,,0,20170723090000,-1,-1,-1,-1,-1,-1,-1,-1,-1,-1,-1,,-1,0,0,0,,0,-1,0,-1,-1,RJTF 230900Z NIL=
20170723_233000.001,0,RJTF,,,,0,20170723230000,-1,-1,-1,-1,200,-1,4,-1,-1,150,260,,9999,0,0,3,FEW 20   BKN 170   BKN -9999,1,29,1,23,1002,RJTF 232330Z 20004KT 150V260 9999 FEW020 BKN170 BKN/// 29/23     Q1002 RMK 1CU020 5AC170 A2961=
20170724_000000.002,0,RJTF,,,,0,20170724000000,-1,-1,-1,-1,200,-1,6,-1,-1,160,240,,9999,0,0,3,FEW 20   SCT 160   BKN -9999,1,30,1,23,1002,RJTF 240000Z 20006KT 160V240 9999 FEW020 SCT160 BKN/// 30/23     Q1002 RMK 1CU020 4AC160 A2961=
20170724_010000.002,0,RJTF,,,,0,20170724010000,-1,-1,-1,-1,180,-1,8,-1,-1,150,230,,9999,0,0,3,FEW 25   SCT 160   BKN -9999,1,31,1,23,1002,RJTF 240100Z 18008KT 150V230 9999 FEW025 SCT160 BKN/// 31/23     Q1002 RMK 1CU025 3AC160 A2960=
20170724_020000.003,0,RJTF,,,,0,20170724020000,-1,-1,-1,-1,180,-1,9,-1,-1,140,210,,9999,0,0,2,FEW 25   BKN -9999,1,32,1,23,1002,RJTF 240200Z 18009KT 140V210 9999 FEW025 BKN/// 32/23 Q1002     RMK 1CU025 A2959=
20170724_030000.003,0,RJTF,,,,0,20170724030000,-1,-1,-1,-1,190,-1,11,-1,-1,160,220,,9999,0,0,2,FEW 30   BKN -9999,1,33,1,23,1001,RJTF 240300Z 19011KT 160V220 9999 FEW030 BKN/// 33/23 Q1001     RMK 1CU030 A2957=
20170724_040000.002,0,RJTF,,,,0,20170724040000,-1,-1,-1,-1,190,-1,9,-1,-1,160,220,,9999,0,0,3,FEW 30   SCT 160   BKN -9999,1,32,1,23,1001,RJTF 240400Z 19009KT 160V220 9999 FEW030 SCT160 BKN/// 32/23     Q1001 RMK 1CU030 3AC160 A2956=
20170724_050000.002,0,RJTF,,,,0,20170724050000,-1,-1,-1,-1,180,-1,11,-1,-1,150,210,,9999,0,0,2,FEW 30   BKN -9999,1,32,1,23,1000,RJTF 240500Z 18011KT 150V210 9999 FEW030 BKN/// 32/23 Q1000     RMK 1CU030 A2955=
20170724_060000.002,0,RJTF,,,,0,20170724060000,-1,-1,-1,-1,190,-1,10,-1,-1,160,220,,9999,0,0,2,FEW 30   OVC -9999,1,32,1,23,999,RJTF 240600Z 19010KT 160V220 9999 FEW030 OVC/// 32/23 Q0999     RMK 1CU030 A2953=
20170724_070000.003,0,RJTF,,,,0,20170724070000,-1,-1,-1,-1,190,-1,11,-1,-1,150,230,,9999,0,0,2,FEW 30   OVC -9999,1,32,1,23,999,RJTF 240700Z 19011KT 150V230 9999 FEW030 OVC/// 32/23 Q0999     RMK 1CU030 A2953=
20170724_080000.003,0,RJTF,,,,0,20170724080000,-1,-1,-1,-1,190,-1,9,-1,-1,150,220,,9999,0,0,2,FEW 20   OVC -9999,1,31,1,23,1000,RJTF 240800Z 19009KT 150V220 9999 FEW020 OVC/// 31/23 Q1000     RMK 1CU020 A2953=
20170724_090000.002,0,RJTF,,,,0,20170724090000,-1,-1,-1,-1,-1,-1,-1,-1,-1,-1,-1,,-1,0,0,0,,0,-1,0,-1,-1,RJTF 240900Z NIL=
20170724_233000.001,0,RJTF,,,,0,20170724230000,-1,-1,-1,-1,210,-1,3,-1,-1,150,250,,9999,0,0,3,FEW 20   SCT 35   BKN -9999,1,31,1,24,1002,RJTF 242330Z 21003KT 150V250 9999 FEW020 SCT035 BKN/// 31/24     Q1002 RMK 1CU020 4CU035 A2960=
20170725_000000.002,0,RJTF,,,,0,20170725000000,-1,-1,-1,-1,210,-1,4,-1,-1,160,280,,9999,0,0,3,FEW 20   BKN 30   BKN -9999,1,31,1,23,1002,RJTF 250000Z 21004KT 160V280 9999 FEW020 BKN030 BKN/// 31/23     Q1002 RMK 2CU020 5CU030 A2960=
20170725_010000.003,0,RJTF,,,,0,20170725010000,-1,-1,-1,-1,200,-1,3,-1,-1,140,240,,9999,0,0,3,FEW 20   SCT 25   BKN 40,1,31,1,24,1002,RJTF 250100Z 20003KT 140V240 9999 FEW020 SCT025 BKN040 31/24     Q1002 RMK 1CU020 3CU025 6SC040 A2960=
20170725_020000.002,0,RJTF,,,,0,20170725020000,-1,-1,-1,-1,999,-1,2,-1,-1,-1,-1,,9999,0,0,3,FEW 20   SCT 30   BKN 45,1,32,1,23,1001,RJTF 250200Z VRB02KT 9999 FEW020 SCT030 BKN045 32/23 Q1001 RMK     1CU020 3CU030 6SC045 A2959=
20170725_030000.002,0,RJTF,,,,0,20170725030000,-1,-1,-1,-1,190,-1,4,-1,-1,150,240,,9999,0,0,3,FEW 20   SCT 30   BKN 50,1,32,1,24,1001,RJTF 250300Z 19004KT 150V240 9999 FEW020 SCT030 BKN050 32/24     Q1001 RMK 1CU020 4CU030 6SC050 A2957=
20170725_040000.002,0,RJTF,,,,0,20170725040000,-1,-1,-1,-1,210,-1,5,-1,-1,160,260,,9999,0,0,3,FEW 20   SCT 30   BKN 40,1,31,1,23,1001,RJTF 250400Z 21005KT 160V260 9999 FEW020 SCT030 BKN040 31/23     Q1001 RMK 1CU020 3CU030 6SC040 A2957=
20170725_050000.002,0,RJTF,,,,0,20170725050000,-1,-1,-1,-1,200,-1,6,-1,-1,140,240,,9999,0,0,3,FEW 20   SCT 30   BKN 60,1,32,1,24,1001,RJTF 250500Z 20006KT 140V240 9999 FEW020 SCT030 BKN060 32/24     Q1001 RMK 1CU020 3CU030 7SC060 A2956=
20170725_060000.003,0,RJTF,,,,0,20170725060000,-1,-1,-1,-1,180,-1,6,-1,-1,150,220,,9999,0,0,4,FEW 20   FEW 25 CB  SCT 30   BKN 45,1,31,1,24,1001,RJTF 250600Z 18006KT 150V220 9999 FEW020 FEW025CB SCT030     BKN045 31/24 Q1001 RMK 1CU020 1CB025 3CU030 5SC045 A2957           CB 15KM NW-N MOV NE=
20170725_070000.003,0,RJTF,,,,0,20170725070000,-1,-1,-1,-1,350,-1,7,-1,-1,320,20,,9999,0,1,4,FEW 20   FEW 25 CB  SCT 45   BKN 60,1,30,1,25,1001,RJTF 250700Z 35007KT 320V020 9999 VCSH FEW020 FEW025CB SCT045     BKN060 30/25 Q1001 RMK 2CU020 1CB025 4SC045 6SC060 A2958           CB 10KM N MOV E=
20170725_080000.003,0,RJTF,,,,0,20170725080000,-1,-1,-1,-1,350,-1,7,-1,-1,-1,-1,,9999,0,0,4,FEW 20   FEW 25 CB  SCT 30   BKN 40,1,29,1,24,1001,RJTF 250800Z 35007KT 9999 FEW020 FEW025CB SCT030 BKN040 29/24     Q1001 RMK 1CU020 1CB025 3CU030 5SC040 A2957 CB 25KM W MOV           E=
20170725_090000.003,0,RJTF,,,,0,20170725090000,-1,-1,-1,-1,-1,-1,-1,-1,-1,-1,-1,,-1,0,0,0,,0,-1,0,-1,-1,RJTF 250900Z NIL=
20170725_233000.001,0,RJTF,,,,0,20170725230000,-1,-1,-1,-1,50,-1,3,-1,-1,360,100,,6000,0,1,3,SCT 6   BKN 10   FEW 20 CB,1,24,1,22,1006,RJTF 252330Z 05003KT 360V100 6000 -SHRA SCT006 BKN010 FEW020CB     24/22 Q1006 RMK 3ST006 7SC010 1CB020 A2971 CB 20KM NW MOV           SE=
20170726_000000.003,0,RJTF,,,,0,20170726000000,-1,-1,-1,-1,360,-1,5,-1,-1,330,30,,4000,0,2,3,BKN 6   BKN 10   FEW 20 CB,1,24,1,22,1006,RJTF 260000Z 36005KT 330V030 4000 SHRA BR BKN006 BKN010     FEW020CB 24/22 Q1006 RMK 6ST006 7SC010 1CB020 A2973 CB           10KM NW MOV SE=
20170726_010000.003,0,RJTF,,,,0,20170726010000,-1,-1,-1,-1,20,-1,5,-1,-1,340,40,,3000,0,2,3,FEW 4   BKN 6   BKN 10,1,24,1,22,1007,RJTF 260100Z 02005KT 340V040 3000 SHRA BR FEW004 BKN006 BKN010     24/22 Q1007 RMK 2ST004 6ST006 7SC010 A2974=
20170726_020000.002,0,RJTF,,,,0,20170726020000,-1,-1,-1,-1,40,-1,6,-1,-1,-1,-1,,3000,0,2,3,FEW 4   BKN 6   BKN 10,1,24,1,22,1007,RJTF 260200Z 04006KT 3000 -SHRA BR FEW004 BKN006 BKN010 24/22     Q1007 RMK 2ST004 6ST006 7SC010 A2975=
20170726_030000.003,0,RJTF,,,,0,20170726030000,-1,-1,-1,-1,30,-1,7,-1,-1,-1,-1,,3500,0,2,3,FEW 4   BKN 6   BKN 15,1,24,1,22,1007,RJTF 260300Z 03007KT 3500 -SHRA BR FEW004 BKN006 BKN015 24/22     Q1007 RMK 2ST004 5ST006 7SC015 A2975=
20170726_040000.002,0,RJTF,,,,0,20170726040000,-1,-1,-1,-1,50,-1,5,-1,-1,360,90,,7000,0,1,3,FEW 5   BKN 8   BKN 15,1,24,1,22,1007,RJTF 260400Z 05005KT 360V090 7000 -SHRA FEW005 BKN008 BKN015     24/22 Q1007 RMK 1ST005 5ST008 7SC015 A2975=
20170726_050000.002,0,RJTF,,,,0,20170726050000,-1,-1,-1,-1,50,-1,4,-1,-1,10,90,,5000,0,2,3,FEW 7   BKN 10   BKN 20,1,25,1,22,1007,RJTF 260500Z 05004KT 010V090 5000 -SHRA BR FEW007 BKN010     BKN020 25/22 Q1007 RMK 2ST007 6ST010 7CU020 A2976=
20170726_060000.002,0,RJTF,,,,0,20170726060000,-1,-1,-1,-1,30,-1,5,-1,-1,360,80,,9999,0,0,3,FEW 7   BKN 15   BKN 25,1,25,1,22,1007,RJTF 260600Z 03005KT 360V080 9999 FEW007 BKN015 BKN025 25/22     Q1007 RMK 2ST007 5CU015 7CU025 A2976=
20170726_070000.002,0,RJTF,,,,0,20170726070000,-1,-1,-1,-1,110,-1,3,-1,-1,70,170,,9999,0,0,3,FEW 10   BKN 20   BKN 50,1,26,1,22,1008,RJTF 260700Z 11003KT 070V170 9999 FEW010 BKN020 BKN050 26/22     Q1008 RMK 2ST010 5CU020 7SC050 A2977=
20170726_080000.002,0,RJTF,,,,0,20170726080000,-1,-1,-1,-1,60,-1,3,-1,-1,360,100,,9999,0,0,3,FEW 10   SCT 20   BKN 50,1,26,1,20,1008,RJTF 260800Z 06003KT 360V100 9999 FEW010 SCT020 BKN050 26/20     Q1008 RMK 1ST010 3CU020 7SC050 A2977=
20170726_090000.002,0,RJTF,,,,0,20170726090000,-1,-1,-1,-1,-1,-1,-1,-1,-1,-1,-1,,-1,0,0,0,,0,-1,0,-1,-1,RJTF 260900Z NIL=
20170726_233000.001,0,RJTF,,,,0,20170726230000,-1,-1,-1,-1,20,-1,8,-1,-1,340,50,,9999,0,0,2,FEW 15   BKN 30,1,24,1,18,1012,RJTF 262330Z 02008KT 340V050 9999 FEW015 BKN030 24/18 Q1012     RMK 2CU015 7SC030 A2989=
20170727_000000.002,0,RJTF,,,,0,20170727000000,-1,-1,-1,-1,360,-1,6,-1,-1,330,30,,9999,0,0,2,FEW 15   BKN 25,1,24,1,18,1012,RJTF 270000Z 36006KT 330V030 9999 FEW015 BKN025 24/18 Q1012     RMK 2CU015 7SC025 A2989=
20170727_010000.002,0,RJTF,,,,0,20170727010000,-1,-1,-1,-1,350,-1,6,-1,-1,-1,-1,,9999,0,1,2,FEW 15   BKN 25,1,24,1,19,1012,RJTF 270100Z 35006KT 9999 -SHRA FEW015 BKN025 24/19 Q1012 RMK     1CU015 7SC025 A2989=
20170727_020000.002,0,RJTF,,,,0,20170727020000,-1,-1,-1,-1,10,-1,6,-1,-1,320,50,,9999,0,0,2,FEW 15   BKN 25,1,26,1,18,1011,RJTF 270200Z 01006KT 320V050 9999 FEW015 BKN025 26/18 Q1011     RMK 1CU015 7SC025 A2988=
20170727_030000.002,0,RJTF,,,,0,20170727030000,-1,-1,-1,-1,360,-1,5,-1,-1,320,40,,9999,0,0,2,FEW 20   BKN 30,1,26,1,19,1011,RJTF 270300Z 36005KT 320V040 9999 FEW020 BKN030 26/19 Q1011     RMK 1CU020 7SC030 A2987=
20170727_040000.002,0,RJTF,,,,0,20170727040000,-1,-1,-1,-1,50,-1,5,-1,-1,350,100,,9999,0,0,2,FEW 20   BKN 30,1,27,1,19,1010,RJTF 270400Z 05005KT 350V100 9999 FEW020 BKN030 27/19 Q1010     RMK 1CU020 7SC030 A2985=
20170727_050000.002,0,RJTF,,,,0,20170727050000,-1,-1,-1,-1,30,-1,6,-1,-1,360,70,,9999,0,0,2,FEW 20   BKN 30,1,26,1,18,1010,RJTF 270500Z 03006KT 360V070 9999 FEW020 BKN030 26/18 Q1010     RMK 1CU020 7SC030 A2985=
20170727_060000.002,0,RJTF,,,,0,20170727060000,-1,-1,-1,-1,40,-1,5,-1,-1,350,80,,9999,0,0,2,FEW 15   BKN 25,1,27,1,19,1010,RJTF 270600Z 04005KT 350V080 9999 FEW015 BKN025 27/19 Q1010     RMK 2CU015 7SC025 A2984=
20170727_070000.003,0,RJTF,,,,0,20170727070000,-1,-1,-1,-1,30,-1,5,-1,-1,350,80,,9999,0,0,2,FEW 15   BKN 25,1,26,1,19,1010,RJTF 270700Z 03005KT 350V080 9999 FEW015 BKN025 26/19 Q1010     RMK 1CU015 7SC025 A2984=
20170727_080000.002,0,RJTF,,,,0,20170727080000,-1,-1,-1,-1,60,-1,5,-1,-1,20,130,,9999,0,0,2,FEW 15   BKN 25,1,26,1,20,1010,RJTF 270800Z 06005KT 020V130 9999 FEW015 BKN025 26/20 Q1010     RMK 1CU015 7SC025 A2983=
20170727_090000.002,0,RJTF,,,,0,20170727090000,-1,-1,-1,-1,-1,-1,-1,-1,-1,-1,-1,,-1,0,0,0,,0,-1,0,-1,-1,RJTF 270900Z NIL=
20170727_233000.001,0,RJTF,,,,0,20170727230000,-1,-1,-1,-1,360,-1,4,-1,-1,290,60,,8000,0,0,3,FEW 10   SCT 15   BKN 25,1,27,1,22,1010,RJTF 272330Z 36004KT 290V060 8000 FEW010 SCT015 BKN025 27/22     Q1010 RMK 1ST010 3CU015 5SC025 A2984=
20170728_000000.002,0,RJTF,,,,0,20170728000000,-1,-1,-1,-1,999,-1,4,-1,-1,-1,-1,,9999,0,0,3,FEW 10   SCT 15   BKN 25,1,27,1,22,1010,RJTF 280000Z VRB04KT 9999 FEW010 SCT015 BKN025 27/22 Q1010 RMK     1ST010 4CU015 6SC025 A2984=
20170728_010000.002,0,RJTF,,,,0,20170728010000,-1,-1,-1,-1,350,-1,3,-1,-1,310,40,,9999,0,0,2,SCT 15   BKN 20,1,28,1,22,1010,RJTF 280100Z 35003KT 310V040 9999 SCT015 BKN020 28/22 Q1010     RMK 3CU015 6CU020 A2983=
20170728_020000.002,0,RJTF,,,,0,20170728020000,-1,-1,-1,-1,30,-1,4,-1,-1,320,100,,9999,0,0,3,FEW 15   SCT 25   BKN -9999,1,29,1,22,1009,RJTF 280200Z 03004KT 320V100 9999 FEW015 SCT025 BKN/// 29/22     Q1009 RMK 1CU015 4CU025 A2981=
20170728_030000.002,0,RJTF,,,,0,20170728030000,-1,-1,-1,-1,999,-1,2,-1,-1,-1,-1,,9999,0,0,2,FEW 15   BKN 25,1,30,1,22,1008,RJTF 280300Z VRB02KT 9999 FEW015 BKN025 30/22 Q1008 RMK 1CU015     7CU025 A2979=
20170728_040000.003,0,RJTF,,,,0,20170728040000,-1,-1,-1,-1,999,-1,2,-1,-1,-1,-1,,9999,0,0,3,FEW 20   BKN 30   BKN -9999,1,30,1,22,1008,RJTF 280400Z VRB02KT 9999 FEW020 BKN030 BKN/// 30/22 Q1008 RMK     1CU020 6CU030 A2978=
20170728_050000.002,0,RJTF,,,,0,20170728050000,-1,-1,-1,-1,110,-1,5,-1,-1,60,160,,9999,0,0,3,FEW 20   SCT 45   BKN -9999,1,31,1,22,1007,RJTF 280500Z 11005KT 060V160 9999 FEW020 SCT045 BKN/// 31/22     Q1007 RMK 1CU020 3SC045 A2976=
20170728_060000.002,0,RJTF,,,,0,20170728060000,-1,-1,-1,-1,120,-1,5,-1,-1,70,160,,9999,0,0,3,FEW 20   SCT 45   BKN -9999,1,32,1,21,1007,RJTF 280600Z 12005KT 070V160 9999 FEW020 SCT045 BKN/// 32/21     Q1007 RMK 1CU020 4SC045 A2975=
20170728_070000.002,0,RJTF,,,,0,20170728070000,-1,-1,-1,-1,130,-1,4,-1,-1,80,170,,9999,0,0,3,FEW 20   SCT 45   BKN -9999,1,32,1,21,1007,RJTF 280700Z 13004KT 080V170 9999 FEW020 SCT045 BKN/// 32/21     Q1007 RMK 1CU020 4SC045 A2974=
20170728_080000.002,0,RJTF,,,,0,20170728080000,-1,-1,-1,-1,130,-1,7,-1,-1,-1,-1,,9999,0,0,3,FEW 20   BKN 45   BKN -9999,1,31,1,21,1007,RJTF 280800Z 13007KT 9999 FEW020 BKN045 BKN/// 31/21 Q1007 RMK     1CU020 5SC045 A2974=
20170728_090000.002,0,RJTF,,,,0,20170728090000,-1,-1,-1,-1,-1,-1,-1,-1,-1,-1,-1,,-1,0,0,0,,0,-1,0,-1,-1,RJTF 280900Z NIL=
20170728_233000.001,0,RJTF,,,,0,20170728230000,-1,-1,-1,-1,160,-1,4,-1,-1,130,210,,9999,0,0,3,FEW 15   BKN 25   BKN -9999,1,29,1,23,1008,RJTF 282330Z 16004KT 130V210 9999 FEW015 BKN025 BKN/// 29/23     Q1008 RMK 1CU015 5CU025 A2978=
20170729_000000.002,0,RJTF,,,,0,20170729000000,-1,-1,-1,-1,150,-1,6,-1,-1,100,190,,9999,0,0,3,FEW 15   SCT 20   BKN 140,1,29,1,22,1008,RJTF 290000Z 15006KT 100V190 9999 FEW015 SCT020 BKN140 29/22     Q1008 RMK 1CU015 4CU020 6AC140 A2977=
20170729_010000.002,0,RJTF,,,,0,20170729010000,-1,-1,-1,-1,150,-1,4,-1,-1,100,190,,9999,0,0,3,FEW 15   SCT 20   BKN 140,1,30,1,22,1008,RJTF 290100Z 15004KT 100V190 9999 FEW015 SCT020 BKN140 30/22     Q1008 RMK 1CU015 3CU020 6AC140 A2977=
20170729_020000.002,0,RJTF,,,,0,20170729020000,-1,-1,-1,-1,130,-1,5,-1,-1,70,210,,9999,0,0,3,FEW 20   SCT 30   BKN 120,1,30,1,21,1007,RJTF 290200Z 13005KT 070V210 9999 FEW020 SCT030 BKN120 30/21     Q1007 RMK 1CU020 3CU030 6AC120 A2976=
20170729_030000.002,0,RJTF,,,,0,20170729030000,-1,-1,-1,-1,999,-1,4,-1,-1,-1,-1,,9999,0,0,3,FEW 20   SCT 35   BKN -9999,1,31,1,20,1007,RJTF 290300Z VRB04KT 9999 FEW020 SCT035 BKN/// 31/20 Q1007 RMK     1CU020 3CU035 A2974=
20170729_040000.002,0,RJTF,,,,0,20170729040000,-1,-1,-1,-1,130,-1,5,-1,-1,50,190,,9999,0,0,3,FEW 20   SCT 35   BKN 80,1,32,1,20,1006,RJTF 290400Z 13005KT 050V190 9999 FEW020 SCT035 BKN080 32/20     Q1006 RMK 1CU020 3CU035 5AC080 A2973=
20170729_050000.002,0,RJTF,,,,0,20170729050000,-1,-1,-1,-1,999,-1,4,-1,-1,-1,-1,,9999,0,0,3,FEW 20   SCT 35   BKN 70,1,32,1,20,1006,RJTF 290500Z VRB04KT 9999 FEW020 SCT035 BKN070 32/20 Q1006 RMK     1CU020 3CU035 6AC070 A2972=
20170729_060000.002,0,RJTF,,,,0,20170729060000,-1,-1,-1,-1,350,-1,8,-1,-1,-1,-1,,9999,0,0,3,FEW 20   SCT 30   BKN 45,1,29,1,23,1006,RJTF 290600Z 35008KT 9999 FEW020 SCT030 BKN045 29/23 Q1006 RMK     1CU020 3CU030 5SC045 A2972=
20170729_070000.002,0,RJTF,,,,0,20170729070000,-1,-1,-1,-1,350,-1,10,-1,-1,-1,-1,,9999,0,1,4,FEW 20   SCT 30   FEW 35 TCU  BKN 50,1,28,1,23,1006,RJTF 290700Z 35010KT 9999 -SHRA FEW020 SCT030 FEW035TCU     BKN050 28/23 Q1006 RMK 1CU020 3CU030 1TCU035 5SC050 A2972           TCU 10KM SE-SW AND 15KM N MOV STNR=
20170729_070000.002,2,RJTF,,,,0,20170729070000,-1,-1,-1,-1,350,-1,10,-1,-1,-1,-1,,9999,0,1,4,FEW 20   SCT 30   FEW 35 TCU  BKN 50,1,28,1,23,1006,RJTF 290700Z 35010KT 9999 -SHRA FEW020 SCT030 FEW035TCU     BKN050 28/23 Q1006 RMK 1CU020 3CU030 1TCU035 5SC050 A2972           TCU 10KM SE-SW AND 15KM N MOV STNR=
20170729_080000.002,0,RJTF,,,,0,20170729080000,-1,-1,-1,-1,10,-1,9,-1,-1,-1,-1,,4000,0,2,4,FEW 5   SCT 12   BKN 25   FEW 30 CB,1,25,1,23,1007,RJTF 290800Z 01009KT 4000 +SHRA BR FEW005 SCT012 BKN025     FEW030CB 25/23 Q1007 RMK 1ST005 3CU012 5CU025 1CB030           A2974 CB 10KM SE-S AND 10KM NE-E MOV E=
20170729_090000.002,0,RJTF,,,,0,20170729090000,-1,-1,-1,-1,-1,-1,-1,-1,-1,-1,-1,,-1,0,0,0,,0,-1,0,-1,-1,RJTF 290900Z NIL=
20170729_233000.001,0,RJTF,,,,0,20170729230000,-1,-1,-1,-1,70,-1,4,-1,-1,40,100,,7000,0,1,3,FEW 8   BKN 12   BKN 35,1,24,1,22,1009,RJTF 292330Z 07004KT 040V100 7000 -SHRA FEW008 BKN012 BKN035     24/22 Q1009 RMK 2ST008 5CU012 7SC035 A2981=
20170730_000000.002,0,RJTF,,,,0,20170730000000,-1,-1,-1,-1,50,-1,3,-1,-1,350,110,,7000,0,1,3,FEW 8   BKN 10   BKN 25,1,24,1,23,1009,RJTF 300000Z 05003KT 350V110 7000 -SHRA FEW008 BKN010 BKN025     24/23 Q1009 RMK 2ST008 5CU010 7SC025 A2981=
20170730_010000.002,0,RJTF,,,,0,20170730010000,-1,-1,-1,-1,40,-1,3,-1,-1,10,80,,7000,0,1,3,SCT 10   BKN 15   BKN 25,1,25,1,23,1009,RJTF 300100Z 04003KT 010V080 7000 -DZ SCT010 BKN015 BKN025     25/23 Q1009 RMK 3ST010 5CU015 7SC025 A2981=
20170730_020000.002,0,RJTF,,,,0,20170730020000,-1,-1,-1,-1,999,-1,2,-1,-1,-1,-1,,6000,0,1,3,SCT 10   BKN 15   BKN 25,1,25,1,23,1009,RJTF 300200Z VRB02KT 6000 -DZ SCT010 BKN015 BKN025 25/23 Q1009     RMK 4ST010 5CU015 7SC025 A2981=
20170730_030000.002,0,RJTF,,,,0,20170730030000,-1,-1,-1,-1,999,-1,2,-1,-1,-1,-1,,7000,0,0,3,FEW 6   SCT 15   BKN 30,1,25,1,24,1009,RJTF 300300Z VRB02KT 7000 FEW006 SCT015 BKN030 25/24 Q1009 RMK     1ST006 4CU015 7SC030 A2980=
20170730_040000.002,0,RJTF,,,,0,20170730040000,-1,-1,-1,-1,999,-1,2,-1,-1,-1,-1,,8000,0,0,3,FEW 12   SCT 20   BKN 30,1,26,1,23,1008,RJTF 300400Z VRB02KT 8000 FEW012 SCT020 BKN030 26/23 Q1008 RMK     2CU012 4CU020 7SC030 A2979=
20170730_050000.002,0,RJTF,,,,0,20170730050000,-1,-1,-1,-1,10,-1,6,-1,-1,-1,-1,,9999,0,0,3,FEW 20   SCT 40   BKN 60,1,27,1,23,1008,RJTF 300500Z 01006KT 9999 FEW020 SCT040 BKN060 27/23 Q1008 RMK     2CU020 4SC040 6SC060 A2978=
20170730_060000.002,0,RJTF,,,,0,20170730060000,-1,-1,-1,-1,360,-1,5,-1,-1,340,50,,9999,0,0,3,SCT 25   BKN 40   BKN 60,1,28,1,22,1008,RJTF 300600Z 36005KT 340V050 9999 SCT025 BKN040 BKN060 28/22     Q1008 RMK 3CU025 5SC040 7SC060 A2978=
20170730_070000.003,0,RJTF,,,,0,20170730070000,-1,-1,-1,-1,999,-1,2,-1,-1,-1,-1,,9999,0,0,3,SCT 30   BKN 40   BKN 60,1,28,1,21,1008,RJTF 300700Z VRB02KT 9999 SCT030 BKN040 BKN060 28/21 Q1008 RMK     3CU030 5SC040 7SC060 A2977=
20170730_080000.003,0,RJTF,,,,0,20170730080000,-1,-1,-1,-1,110,-1,2,-1,-1,-1,-1,,9999,0,0,3,SCT 25   BKN 35   BKN 60,1,28,1,22,1008,RJTF 300800Z 11002KT 9999 SCT025 BKN035 BKN060 28/22 Q1008 RMK     3CU025 5SC035 7SC060 A2977=
20170730_090000.002,0,RJTF,,,,0,20170730090000,-1,-1,-1,-1,-1,-1,-1,-1,-1,-1,-1,,-1,0,0,0,,0,-1,0,-1,-1,RJTF 300900Z NIL=
20170730_233000.001,0,RJTF,,,,0,20170730230000,-1,-1,-1,-1,999,-1,1,-1,-1,-1,-1,,9999,0,0,2,FEW 15   SCT 25,1,28,1,22,1009,RJTF 302330Z VRB01KT 9999 FEW015 SCT025 28/22 Q1009 RMK 2CU015     4CU025 A2982=
20170731_000000.002,0,RJTF,,,,0,20170731000000,-1,-1,-1,-1,999,-1,3,-1,-1,-1,-1,,9999,0,0,2,FEW 20   SCT 30,1,29,1,22,1010,RJTF 310000Z VRB03KT 9999 FEW020 SCT030 29/22 Q1010 RMK 2CU020     4CU030 A2982=
20170731_010000.002,0,RJTF,,,,0,20170731010000,-1,-1,-1,-1,999,-1,2,-1,-1,-1,-1,,9999,0,0,1,SCT 25,1,29,1,22,1009,RJTF 310100Z VRB02KT 9999 SCT025 29/22 Q1009 RMK 4CU025 A2981=
20170731_020000.002,0,RJTF,,,,0,20170731020000,-1,-1,-1,-1,999,-1,3,-1,-1,-1,-1,,9999,0,0,1,SCT 30,1,31,1,22,1008,RJTF 310200Z VRB03KT 9999 SCT030 31/22 Q1008 RMK 4CU030 A2979=
20170731_030000.002,0,RJTF,,,,0,20170731030000,-1,-1,-1,-1,180,-1,3,-1,-1,120,250,,9999,0,0,1,SCT 35,1,32,1,23,1008,RJTF 310300Z 18003KT 120V250 9999 SCT035 32/23 Q1008 RMK     4CU035 A2977=
20170731_040000.002,0,RJTF,,,,0,20170731040000,-1,-1,-1,-1,140,-1,6,-1,-1,90,180,,9999,0,0,2,FEW 25   SCT 35,1,31,1,22,1007,RJTF 310400Z 14006KT 090V180 9999 FEW025 SCT035 31/22 Q1007     RMK 2CU025 4CU035 A2976=
20170731_050000.002,0,RJTF,,,,0,20170731050000,-1,-1,-1,-1,200,-1,6,-1,-1,160,240,,9999,0,0,2,FEW 30   SCT 40,1,33,1,23,1007,RJTF 310500Z 20006KT 160V240 9999 FEW030 SCT040 33/23 Q1007     RMK 2CU030 3CU040 A2974=
20170731_060000.002,0,RJTF,,,,0,20170731060000,-1,-1,-1,-1,190,-1,7,-1,-1,160,240,,9999,0,0,2,FEW 35   SCT -9999,1,32,1,22,1007,RJTF 310600Z 19007KT 160V240 9999 FEW035 SCT/// 32/22 Q1007     RMK 2CU035 A2974=
20170731_070000.002,0,RJTF,,,,0,20170731070000,-1,-1,-1,-1,190,-1,8,-1,-1,160,230,,9999,0,0,2,FEW 35   SCT -9999,1,32,1,22,1007,RJTF 310700Z 19008KT 160V230 9999 FEW035 SCT/// 32/22 Q1007     RMK 1CU035 A2974=
20170731_080000.002,0,RJTF,,,,0,20170731080000,-1,-1,-1,-1,180,-1,9,-1,-1,150,220,,9999,0,0,2,FEW 35   SCT -9999,1,31,1,22,1007,RJTF 310800Z 18009KT 150V220 9999 FEW035 SCT/// 31/22 Q1007     RMK 1CU035 A2974=
20170731_090000.002,0,RJTF,,,,0,20170731090000,-1,-1,-1,-1,-1,-1,-1,-1,-1,-1,-1,,-1,0,0,0,,0,-1,0,-1,-1,RJTF 310900Z NIL=
20170731_233000.001,0,RJTF,,,,0,20170731230000,-1,-1,-1,-1,350,-1,4,-1,-1,320,20,,6000,0,0,3,FEW 10   BKN 15   BKN 100,1,28,1,24,1008,RJTF 312330Z 35004KT 320V020 6000 FEW010 BKN015 BKN100 28/24     Q1008 RMK 2ST010 6CU015 7AC100 A2977=
20170801_000000.003,0,RJTF,,,,0,20170801000000,-1,-1,-1,-1,350,-1,5,-1,-1,300,30,,6000,0,0,3,FEW 10   BKN 15   BKN 100,1,28,1,24,1008,RJTF 010000Z 35005KT 300V030 6000 FEW010 BKN015 BKN100 28/24     Q1008 RMK 2ST010 6CU015 7AC100 A2977=
20170801_010000.003,0,RJTF,,,,0,20170801010000,-1,-1,-1,-1,20,-1,5,-1,-1,-1,-1,,6000,0,1,3,FEW 10   BKN 15   BKN 25,1,28,1,24,1008,RJTF 010100Z 02005KT 6000 -SHRA FEW010 BKN015 BKN025 28/24     Q1008 RMK 2ST010 6CU015 7SC025 A2977=
20170801_020000.002,0,RJTF,,,,0,20170801020000,-1,-1,-1,-1,10,-1,6,-1,-1,320,40,,8000,0,0,3,FEW 15   BKN 25   BKN 60,1,30,1,24,1007,RJTF 010200Z 01006KT 320V040 8000 FEW015 BKN025 BKN060 30/24     Q1007 RMK 2CU015 5CU025 6SC060 A2976=
20170801_030000.002,0,RJTF,,,,0,20170801030000,-1,-1,-1,-1,10,-1,6,-1,-1,340,50,,9999,0,0,3,FEW 15   BKN 25   BKN 100,1,30,1,24,1007,RJTF 010300Z 01006KT 340V050 9999 FEW015 BKN025 BKN100 30/24     Q1007 RMK 2CU015 6CU025 5AC100 A2974=
20170801_040000.002,0,RJTF,,,,0,20170801040000,-1,-1,-1,-1,30,-1,8,-1,-1,-1,-1,,9999,0,0,3,SCT 15   BKN 25   BKN 80,1,30,1,23,1006,RJTF 010400Z 03008KT 9999 SCT015 BKN025 BKN080 30/23 Q1006 RMK     3CU015 6CU025 5AC080 A2973=
20170801_050000.002,0,RJTF,,,,0,20170801050000,-1,-1,-1,-1,20,-1,9,-1,-1,-1,-1,,9000,0,0,4,FEW 15   BKN 25   FEW 30 CB  BKN 80,1,29,1,23,1006,RJTF 010500Z 02009KT 9000 FEW015 BKN025 FEW030CB BKN080 29/23     Q1006 RMK 2CU015 6CU025 1CB030 6AC080 A2972 CB 10KM S-SE           AND 30KM SW MOW E=
20170801_060000.002,0,RJTF,,,,0,20170801060000,-1,-1,-1,-1,50,-1,9,-1,-1,20,90,,9000,0,1,4,FEW 6   BKN 25   FEW 30 CB  BKN 80,1,28,1,22,1006,RJTF 010600Z 05009KT 020V090 9000 -SHRA FEW006 BKN025 FEW030CB     BKN080 28/22 Q1006 RMK 2ST006 5CU025 2CB030 6AC080 A2973           CB 10KM SW-S MOW E=
20170801_070000.002,0,RJTF,,,,0,20170801070000,-1,-1,-1,-1,70,-1,7,-1,-1,30,110,,6000,0,1,4,FEW 6   BKN 15   BKN 25   FEW 30 CB,1,26,1,23,1007,RJTF 010700Z 07007KT 030V110 6000 -SHRA FEW006 BKN015 BKN025     FEW030CB 26/23 Q1007 RMK 2ST006 5CU015 7CU025 2CB030           A2974 CB 8KM S AND 15KM SW-W MOV E=
20170801_080000.003,0,RJTF,,,,0,20170801080000,-1,-1,-1,-1,120,-1,3,-1,-1,60,160,,4000,0,2,4,FEW 6   SCT 15   BKN 20   FEW 30 CB,1,24,1,23,1007,RJTF 010800Z 12003KT 060V160 4000 SHRA BR FEW006 SCT015 BKN020     FEW030CB 24/23 Q1007 RMK 2ST006 4CU015 7CU020 2CB030           A2976 CB 10KM SE AND 10KM SW MOV E=
20170801_090000.002,0,RJTF,,,,0,20170801090000,-1,-1,-1,-1,-1,-1,-1,-1,-1,-1,-1,,-1,0,0,0,,0,-1,0,-1,-1,RJTF 010900Z NIL=
20170801_233000.001,0,RJTF,,,,0,20170801230000,-1,-1,-1,-1,40,-1,5,-1,-1,10,70,,9999,0,0,3,FEW 10   BKN 15   BKN 40,1,23,1,18,1011,RJTF 012330Z 04005KT 010V070 9999 FEW010 BKN015 BKN040 23/18     Q1011 RMK 1ST010 6CU015 7SC040 A2986=
20170802_000000.002,0,RJTF,,,,0,20170802000000,-1,-1,-1,-1,40,-1,6,-1,-1,10,80,,9999,0,0,3,FEW 10   BKN 15   BKN 40,1,23,1,18,1011,RJTF 020000Z 04006KT 010V080 9999 FEW010 BKN015 BKN040 23/18     Q1011 RMK 1ST010 6CU015 7SC040 A2986=
20170802_010000.002,0,RJTF,,,,0,20170802010000,-1,-1,-1,-1,80,-1,7,-1,-1,-1,-1,,9999,0,0,2,FEW 15   BKN 20,1,24,1,18,1011,RJTF 020100Z 08007KT 9999 FEW015 BKN020 24/18 Q1011 RMK 2CU015     7CU020 A2986=
20170802_020000.002,0,RJTF,,,,0,20170802020000,-1,-1,-1,-1,40,-1,5,-1,-1,360,90,,6000,0,1,2,FEW 15   BKN 20,1,24,1,19,1010,RJTF 020200Z 04005KT 360V090 6000 -SHRA FEW015 BKN020 24/19     Q1010 RMK 2CU015 7CU020 A2985=
20170802_030000.002,0,RJTF,,,,0,20170802030000,-1,-1,-1,-1,70,-1,5,-1,-1,30,90,,8000,0,0,3,FEW 20   BKN 30   BKN 40,1,24,1,19,1010,RJTF 020300Z 07005KT 030V090 8000 FEW020 BKN030 BKN040 24/19     Q1010 RMK 2CU020 5CU030 7SC040 A2984=
20170802_040000.002,0,RJTF,,,,0,20170802040000,-1,-1,-1,-1,360,-1,5,-1,-1,330,40,,9999,0,0,3,FEW 20   BKN 25   BKN 50,1,24,1,20,1010,RJTF 020400Z 36005KT 330V040 9999 FEW020 BKN025 BKN050 24/20     Q1010 RMK 2CU020 6CU025 7SC050 A2982=
20170802_050000.002,0,RJTF,,,,0,20170802050000,-1,-1,-1,-1,10,-1,5,-1,-1,330,40,,6000,0,1,2,SCT 15   BKN 25,1,24,1,20,1010,RJTF 020500Z 01005KT 330V040 6000 -SHRA SCT015 BKN025 24/20     Q1010 RMK 3CU015 7CU025 A2983=
20170802_060000.002,0,RJTF,,,,0,20170802060000,-1,-1,-1,-1,50,-1,5,-1,-1,20,100,,6000,0,1,2,FEW 15   BKN 25,1,24,1,20,1009,RJTF 020600Z 05005KT 020V100 6000 -SHRA FEW015 BKN025 24/20     Q1009 RMK 2CU015 7CU025 A2982=
20170802_070000.002,0,RJTF,,,,0,20170802070000,-1,-1,-1,-1,360,-1,3,-1,-1,340,40,,8000,0,1,2,SCT 15   BKN 25,1,24,1,19,1010,RJTF 020700Z 36003KT 340V040 8000 -SHRA SCT015 BKN025 24/19     Q1010 RMK 3CU015 7CU025 A2983=
20170802_080000.002,0,RJTF,,,,0,20170802080000,-1,-1,-1,-1,110,-1,4,-1,-1,80,150,,6000,0,1,3,FEW 10   BKN 20   BKN 30,1,23,1,20,1010,RJTF 020800Z 11004KT 080V150 6000 -SHRA FEW010 BKN020 BKN030     23/20 Q1010 RMK 1ST010 5CU020 7SC030 A2983=
20170802_090000.002,0,RJTF,,,,0,20170802090000,-1,-1,-1,-1,-1,-1,-1,-1,-1,-1,-1,,-1,0,0,0,,0,-1,0,-1,-1,RJTF 020900Z NIL=
20170802_233000.001,0,RJTF,,,,0,20170802230000,-1,-1,-1,-1,999,-1,2,-1,-1,-1,-1,,9999,0,0,3,FEW 15   BKN 50   BKN 100,1,23,1,18,1012,RJTF 022330Z VRB02KT 9999 FEW015 BKN050 BKN100 23/18 Q1012 RMK     1CU015 6SC050 7AC100 A2990=
20170803_000000.003,0,RJTF,,,,0,20170803000000,-1,-1,-1,-1,350,-1,5,-1,-1,320,60,,9999,0,0,2,FEW 15   BKN 50,1,24,1,18,1012,RJTF 030000Z 35005KT 320V060 9999 FEW015 BKN050 24/18 Q1012     RMK 1CU015 7SC050 A2990=
20170803_010000.002,0,RJTF,,,,0,20170803010000,-1,-1,-1,-1,30,-1,3,-1,-1,290,70,,9999,0,0,2,FEW 20   BKN 50,1,25,1,18,1012,RJTF 030100Z 03003KT 290V070 9999 FEW020 BKN050 25/18 Q1012     RMK 2CU020 7SC050 A2990=
20170803_020000.003,0,RJTF,,,,0,20170803020000,-1,-1,-1,-1,360,-1,3,-1,-1,300,80,,9999,0,0,2,FEW 20   BKN 50,1,26,1,19,1012,RJTF 030200Z 36003KT 300V080 9999 FEW020 BKN050 26/19 Q1012     RMK 2CU020 7SC050 A2988=
20170803_030000.002,0,RJTF,,,,0,20170803030000,-1,-1,-1,-1,999,-1,4,-1,-1,-1,-1,,9999,0,0,3,FEW 20   SCT 30   BKN 50,1,27,1,19,1011,RJTF 030300Z VRB04KT 9999 FEW020 SCT030 BKN050 27/19 Q1011 RMK     1CU020 3CU030 5SC050 A2987=
20170803_040000.003,0,RJTF,,,,0,20170803040000,-1,-1,-1,-1,999,-1,2,-1,-1,-1,-1,,9999,0,0,3,FEW 20   SCT 30   BKN 45,1,28,1,18,1010,RJTF 030400Z VRB02KT 9999 FEW020 SCT030 BKN045 28/18 Q1010 RMK     1CU020 3CU030 5SC045 A2985=
20170803_050000.003,0,RJTF,,,,0,20170803050000,-1,-1,-1,-1,999,-1,1,-1,-1,-1,-1,,9999,0,0,2,FEW 30   BKN 40,1,28,1,18,1010,RJTF 030500Z VRB01KT 9999 FEW030 BKN040 28/18 Q1010 RMK 1CU030     7SC040 A2984=
20170803_060000.002,0,RJTF,,,,0,20170803060000,-1,-1,-1,-1,60,-1,3,-1,-1,360,130,,9999,0,0,2,FEW 30   BKN 40,1,28,1,18,1010,RJTF 030600Z 06003KT 360V130 9999 FEW030 BKN040 28/18 Q1010     RMK 1CU030 7SC040 A2984=
20170803_070000.003,0,RJTF,,,,0,20170803070000,-1,-1,-1,-1,110,-1,5,-1,-1,-1,-1,,9999,0,0,3,FEW 20   SCT 30   BKN 40,1,27,1,20,1010,RJTF 030700Z 11005KT 9999 FEW020 SCT030 BKN040 27/20 Q1010 RMK     1CU020 3SC030 7SC040 A2984=
20170803_080000.002,0,RJTF,,,,0,20170803080000,-1,-1,-1,-1,130,-1,6,-1,-1,100,160,,9999,0,0,3,FEW 20   SCT 30   BKN 40,1,27,1,20,1010,RJTF 030800Z 13006KT 100V160 9999 FEW020 SCT030 BKN040 27/20     Q1010 RMK 1CU020 4SC030 7SC040 A2984=
20170803_090000.003,0,RJTF,,,,0,20170803090000,-1,-1,-1,-1,-1,-1,-1,-1,-1,-1,-1,,-1,0,0,0,,0,-1,0,-1,-1,RJTF 030900Z NIL=
20170803_233000.001,0,RJTF,,,,0,20170803230000,-1,-1,-1,-1,20,-1,4,-1,-1,360,60,,9999,0,0,3,FEW 6   SCT 8   BKN 10,1,24,1,21,1012,RJTF 032330Z 02004KT 360V060 9999 FEW006 SCT008 BKN010 24/21     Q1012 RMK 1ST006 3ST008 5ST010 A2991=
20170804_000000.001,2,RJTF,,,,0,20170804000000,-1,-1,-1,-1,350,-1,4,-1,-1,310,30,,9999,0,0,3,FEW 8   SCT 10   BKN 20,1,24,1,21,1012,RJTF 040000Z 35004KT 310V030 9999 FEW008 SCT010 BKN020     24/21 Q1012 RMK 1ST008 3ST010 7SC020 A2990=
20170804_000000.003,0,RJTF,,,,0,20170804000000,-1,-1,-1,-1,350,-1,4,-1,-1,310,30,,9999,0,0,3,FEW 8   SCT 10   BKN 20,1,24,1,21,1012,RJTF 040000Z 35004KT 310V030 9999 FEW008 SCT010 BKN020     24/21 Q1012 RMK 1ST008 3ST010 7SC020 A2990=
20170804_010000.003,0,RJTF,,,,0,20170804010000,-1,-1,-1,-1,40,-1,3,-1,-1,320,120,,9999,0,0,3,FEW 15   SCT 20   BKN 30,1,26,1,22,1012,RJTF 040100Z 04003KT 320V120 9999 FEW015 SCT020 BKN030 26/22     Q1012 RMK 2SC015 4SC020 6SC030 A2990=
20170804_020000.002,0,RJTF,,,,0,20170804020000,-1,-1,-1,-1,999,-1,2,-1,-1,-1,-1,,9999,0,0,3,FEW 15   SCT 20   BKN 35,1,27,1,21,1012,RJTF 040200Z VRB02KT 9999 FEW015 SCT020 BKN035 27/21 Q1012 RMK     1CU015 4SC020 7SC035 A2988=
20170804_030000.002,0,RJTF,,,,0,20170804030000,-1,-1,-1,-1,999,-1,2,-1,-1,-1,-1,,9999,0,0,3,FEW 15   SCT 20   BKN 35,1,28,1,23,1011,RJTF 040300Z VRB02KT 9999 FEW015 SCT020 BKN035 28/23 Q1011 RMK     1CU015 3SC020 6SC035 A2986=
20170804_040000.003,0,RJTF,,,,0,20170804040000,-1,-1,-1,-1,170,-1,7,-1,-1,130,210,,9999,0,0,3,FEW 20   SCT 35   BKN 50,1,29,1,22,1010,RJTF 040400Z 17007KT 130V210 9999 FEW020 SCT035 BKN050 29/22     Q1010 RMK 2CU020 4SC035 7SC050 A2985=
20170804_050000.002,0,RJTF,,,,0,20170804050000,-1,-1,-1,-1,160,-1,7,-1,-1,120,220,,9999,0,0,3,FEW 20   SCT 25   BKN 45,1,29,1,22,1010,RJTF 040500Z 16007KT 120V220 9999 FEW020 SCT025 BKN045 29/22     Q1010 RMK 1CU020 3CU025 7SC045 A2983=
20170804_060000.002,0,RJTF,,,,0,20170804060000,-1,-1,-1,-1,140,-1,7,-1,-1,100,170,,9999,0,0,3,FEW 20   SCT 30   BKN 60,1,29,1,22,1010,RJTF 040600Z 14007KT 100V170 9999 FEW020 SCT030 BKN060 29/22     Q1010 RMK 1CU020 4CU030 7SC060 A2983=
20170804_070000.002,0,RJTF,,,,0,20170804070000,-1,-1,-1,-1,130,-1,6,-1,-1,100,170,,9999,0,0,3,FEW 20   SCT 25   BKN 35,1,29,1,22,1010,RJTF 040700Z 13006KT 100V170 9999 FEW020 SCT025 BKN035 29/22     Q1010 RMK 1CU020 3CU025 5SC035 A2982=
20170804_080000.003,0,RJTF,,,,0,20170804080000,-1,-1,-1,-1,160,-1,7,-1,-1,120,190,,9999,0,0,3,FEW 15   SCT 20   BKN 35,1,29,1,23,1009,RJTF 040800Z 16007KT 120V190 9999 FEW015 SCT020 BKN035 29/23     Q1009 RMK 1CU015 3SC020 5SC035 A2982=
20170804_090000.002,0,RJTF,,,,0,20170804090000,-1,-1,-1,-1,-1,-1,-1,-1,-1,-1,-1,,-1,0,0,0,,0,-1,0,-1,-1,RJTF 040900Z NIL=
20170804_233000.001,0,RJTF,,,,0,20170804230000,-1,-1,-1,-1,999,-1,2,-1,-1,-1,-1,,7000,0,0,3,FEW 8   SCT 12   BKN 35,1,27,1,23,1009,RJTF 042330Z VRB02KT 7000 FEW008 SCT012 BKN035 27/23 Q1009 RMK     2ST008 3CU012 5SC035 A2980=
20170805_000000.002,0,RJTF,,,,0,20170805000000,-1,-1,-1,-1,999,-1,2,-1,-1,-1,-1,,9999,0,0,3,FEW 13   SCT 30   BKN -9999,1,27,1,23,1009,RJTF 050000Z VRB02KT 9999 FEW013 SCT030 BKN/// 27/23 Q1009 RMK     1CU013 3SC030 A2980=
20170805_010000.002,0,RJTF,,,,0,20170805010000,-1,-1,-1,-1,999,-1,2,-1,-1,-1,-1,,9999,0,0,3,FEW 18   BKN 30   BKN -9999,1,29,1,23,1008,RJTF 050100Z VRB02KT 9999 FEW018 BKN030 BKN/// 29/23 Q1008 RMK     2CU018 5SC030 A2979=
20170805_020000.002,0,RJTF,,,,0,20170805020000,-1,-1,-1,-1,999,-1,2,-1,-1,-1,-1,,9999,0,0,3,FEW 25   BKN 35   BKN -9999,1,29,1,22,1008,RJTF 050200Z VRB02KT 9999 FEW025 BKN035 BKN/// 29/22 Q1008 RMK     2CU025 5SC035 A2977=
20170805_030000.002,0,RJTF,,,,0,20170805030000,-1,-1,-1,-1,999,-1,1,-1,-1,-1,-1,,9999,0,0,2,SCT 30   BKN 45,1,31,1,22,1007,RJTF 050300Z VRB01KT 9999 SCT030 BKN045 31/22 Q1007 RMK 3CU030     6SC045 A2976=
20170805_040000.002,0,RJTF,,,,0,20170805040000,-1,-1,-1,-1,120,-1,4,-1,-1,70,170,,9999,0,0,2,SCT 30   BKN 40,1,32,1,24,1007,RJTF 050400Z 12004KT 070V170 9999 SCT030 BKN040 32/24 Q1007     RMK 3CU030 6SC040 A2974=
20170805_050000.002,0,RJTF,,,,0,20170805050000,-1,-1,-1,-1,180,-1,6,-1,-1,140,230,,9999,0,0,2,SCT 30   BKN 40,1,32,1,24,1006,RJTF 050500Z 18006KT 140V230 9999 SCT030 BKN040 32/24 Q1006     RMK 3CU030 6SC040 A2973=
20170805_060000.003,0,RJTF,,,,0,20170805060000,-1,-1,-1,-1,160,-1,6,-1,-1,100,210,,9999,0,0,2,BKN 30   BKN 40,1,31,1,23,1006,RJTF 050600Z 16006KT 100V210 9999 BKN030 BKN040 31/23 Q1006     RMK 5CU030 7SC040 A2972=
20170805_070000.002,0,RJTF,,,,0,20170805070000,-1,-1,-1,-1,180,-1,7,-1,-1,160,220,,9999,0,0,3,FEW 30   SCT 45   BKN -9999,1,31,1,23,1006,RJTF 050700Z 18007KT 160V220 9999 FEW030 SCT045 BKN/// 31/23     Q1006 RMK 1CU030 3SC045 A2971=
20170805_080000.002,0,RJTF,,,,0,20170805080000,-1,-1,-1,-1,180,-1,4,-1,-1,150,210,,9999,0,0,3,FEW 30   SCT 40   BKN -9999,1,31,1,23,1006,RJTF 050800Z 18004KT 150V210 9999 FEW030 SCT040 BKN/// 31/23     Q1006 RMK 2CU030 4SC040 A2972=
20170805_090000.002,0,RJTF,,,,0,20170805090000,-1,-1,-1,-1,-1,-1,-1,-1,-1,-1,-1,,-1,0,0,0,,0,-1,0,-1,-1,RJTF 050900Z NIL=
20170805_233000.001,0,RJTF,,,,0,20170805230000,-1,-1,-1,-1,999,-1,2,-1,-1,-1,-1,,9999,0,0,3,FEW 15   SCT 25   BKN 50,1,28,1,24,1006,RJTF 052330Z VRB02KT 9999 FEW015 SCT025 BKN050 28/24 Q1006 RMK     2CU015 4CU025 7SC050 A2972=
20170806_000000.002,0,RJTF,,,,0,20170806000000,-1,-1,-1,-1,999,-1,1,-1,-1,-1,-1,,9999,0,0,3,FEW 12   BKN 25   BKN 40,1,29,1,24,1006,RJTF 060000Z VRB01KT 9999 FEW012 BKN025 BKN040 29/24 Q1006 RMK     2CU012 5CU025 6SC040 A2971=
20170806_010000.002,0,RJTF,,,,0,20170806010000,-1,-1,-1,-1,999,-1,2,-1,-1,-1,-1,,9999,0,0,3,FEW 12   SCT 25   BKN 35,1,31,1,24,1006,RJTF 060100Z VRB02KT 9999 FEW012 SCT025 BKN035 31/24 Q1006 RMK     2CU012 4CU025 5SC035 A2971=
20170806_020000.002,0,RJTF,,,,0,20170806020000,-1,-1,-1,-1,100,-1,6,-1,-1,30,150,,9999,0,0,3,FEW 15   SCT 25   BKN 35,1,31,1,24,1005,RJTF 060200Z 10006KT 030V150 9999 FEW015 SCT025 BKN035 31/24     Q1005 RMK 1CU015 3CU025 5SC035 A2969=
20170806_030000.002,0,RJTF,,,,0,20170806030000,-1,-1,-1,-1,150,-1,5,-1,-1,100,260,,9999,0,0,2,FEW 20   SCT 35,1,33,1,24,1004,RJTF 060300Z 15005KT 100V260 9999 FEW020 SCT035 33/24 Q1004     RMK 2CU020 4CU035 A2967=
20170806_040000.002,0,RJTF,,,,0,20170806040000,-1,-1,-1,-1,140,-1,7,-1,-1,100,170,,9999,0,0,2,FEW 30   BKN 40,1,33,1,24,1004,RJTF 060400Z 14007KT 100V170 9999 FEW030 BKN040 33/24 Q1004     RMK 2CU030 5SC040 A2966=
20170806_050000.002,0,RJTF,,,,0,20170806050000,-1,-1,-1,-1,160,-1,9,-1,-1,140,210,,9999,0,0,4,FEW 25   FEW 30 TCU  SCT 40   BKN 60,1,33,1,24,1004,RJTF 060500Z 16009KT 140V210 9999 FEW025 FEW030TCU SCT040     BKN060 33/24 Q1004 RMK 2CU025 1TCU030 3CU040 5SC060 A2965           TCU 8KM SW MOV STNR=
20170806_060000.002,0,RJTF,,,,0,20170806060000,-1,-1,-1,-1,200,-1,6,-1,-1,150,240,,9999,0,0,3,FEW 30   FEW 35 CB  SCT 50,1,33,1,24,1003,RJTF 060600Z 20006KT 150V240 9999 FEW030 FEW035CB SCT050 33/24     Q1003 RMK 2CU030 1CB035 4SC050 A2964 CB 25KM NW STNR=
20170806_070000.002,0,RJTF,,,,0,20170806070000,-1,-1,-1,-1,200,-1,8,-1,-1,170,260,,9999,0,0,2,FEW 25   SCT 35,1,32,1,24,1003,RJTF 060700Z 20008KT 170V260 9999 FEW025 SCT035 32/24 Q1003     RMK 1CU025 3CU035 A2963=
20170806_080000.002,0,RJTF,,,,0,20170806080000,-1,-1,-1,-1,200,-1,8,-1,-1,160,230,,9999,0,0,2,FEW 30   SCT -9999,1,31,1,23,1003,RJTF 060800Z 20008KT 160V230 9999 FEW030 SCT/// 31/23 Q1003     RMK 2CU030 A2963=
20170806_090000.002,0,RJTF,,,,0,20170806090000,-1,-1,-1,-1,-1,-1,-1,-1,-1,-1,-1,,-1,0,0,0,,0,-1,0,-1,-1,RJTF 060900Z NIL=
20170806_233000.001,0,RJTF,,,,0,20170806230000,-1,-1,-1,-1,170,-1,6,-1,-1,130,210,,9999,0,0,2,SCT 20   SCT -9999,1,30,1,24,1003,RJTF 062330Z 17006KT 130V210 9999 SCT020 SCT/// 30/24 Q1003     RMK 3CU020 A2964=
20170807_000000.002,0,RJTF,,,,0,20170807000000,-1,-1,-1,-1,190,-1,7,-1,-1,160,220,,9999,0,0,2,BKN 20   SCT -9999,1,31,1,24,1003,RJTF 070000Z 19007KT 160V220 9999 BKN020 SCT/// 31/24 Q1003     RMK 5CU020 A2964=
20170807_010000.003,0,RJTF,,,,0,20170807010000,-1,-1,-1,-1,210,-1,9,-1,-1,-1,-1,,9999,0,0,2,SCT 25   BKN -9999,1,32,1,24,1003,RJTF 070100Z 21009KT 9999 SCT025 BKN/// 32/24 Q1003 RMK 3CU025     A2963=
20170807_020000.003,0,RJTF,,,,0,20170807020000,-1,-1,-1,-1,190,-1,9,-1,-1,-1,-1,,9999,0,0,3,FEW 20   BKN 30   BKN -9999,1,32,1,23,1002,RJTF 070200Z 19009KT 9999 FEW020 BKN030 BKN/// 32/23 Q1002 RMK     2CU020 6CU030 A2961=
20170807_030000.002,0,RJTF,,,,0,20170807030000,-1,-1,-1,-1,180,-1,9,-1,-1,150,230,,9999,0,0,3,FEW 20   BKN 30   BKN -9999,1,32,1,23,1002,RJTF 070300Z 18009KT 150V230 9999 FEW020 BKN030 BKN/// 32/23     Q1002 RMK 2CU020 6CU030 A2959=
20170807_040000.003,0,RJTF,,,,0,20170807040000,-1,-1,-1,-1,190,-1,9,-1,-1,150,230,,9999,0,0,3,FEW 20   BKN 30   BKN -9999,1,32,1,23,1001,RJTF 070400Z 19009KT 150V230 9999 FEW020 BKN030 BKN/// 32/23     Q1001 RMK 1CU020 5CU030 A2956=
20170807_050000.002,0,RJTF,,,,0,20170807050000,-1,-1,-1,-1,150,-1,13,-1,-1,-1,-1,,9999,0,1,4,FEW 20   BKN 30 TCU  SCT 30 TCU  BKN -9999,1,31,1,23,1000,RJTF 070500Z 15013KT 9999 -SHRA FEW020 BKN030TCU SCT030TCU     BKN/// 31/23 Q1000 RMK 1CU020 5TCU030 3TCU030 A2955 TCU           OHD AND 10KM S MOV N=
20170807_050000.004,2,RJTF,,,,0,20170807050000,-1,-1,-1,-1,150,-1,13,-1,-1,-1,-1,,9999,0,1,3,FEW 20   BKN 30 TCU  BKN -9999,1,31,1,23,1000,RJTF 070500Z 15013KT 9999 -SHRA FEW020 BKN030TCU BKN///     31/23 Q1000 RMK 1CU020 5TCU030 A2955 TCU OHD AND 10KM S           MOV N=
20170807_050000.005,1,RJTF,,,,0,20170807050000,-1,-1,-1,-1,150,-1,13,-1,-1,-1,-1,,9999,0,1,3,FEW 20   BKN 30 TCU  BKN -9999,1,31,1,23,1000,RJTF 070500Z 15013KT 9999 -SHRA FEW020 BKN030TCU BKN///     31/23 Q1000 RMK 1CU020 5TCU030 A2955 TCU OHD AND 10KM S           MOV N=
20170807_060000.003,0,RJTF,,,,0,20170807060000,-1,-1,-1,-1,150,-1,16,-1,-1,-1,-1,,9999,0,1,4,FEW 20   BKN 30   FEW 30 TCU  BKN -9999,1,31,1,23,1000,RJTF 070600Z 15016KT 9999 VCSH FEW020 BKN030 FEW030TCU BKN///     31/23 Q1000 RMK 2CU020 5CU030 2TCU030 A2953 TCU 10KM W-NW           MOV N=
20170807_070000.002,0,RJTF,,,,0,20170807070000,-1,-1,-1,-1,160,-1,14,-1,-1,-1,-1,,9999,0,0,3,FEW 15   BKN 25   BKN 100,1,30,1,24,999,RJTF 070700Z 16014KT 9999 FEW015 BKN025 BKN100 30/24 Q0999 RMK     2CU015 6CU025 5AC100 A2952=
20170807_080000.002,0,RJTF,,,,0,20170807080000,-1,-1,-1,-1,150,-1,15,-1,-1,-1,-1,,9999,0,1,3,FEW 15   BKN 25   BKN 60,1,29,1,25,999,RJTF 070800Z 15015KT 9999 -SHRA FEW015 BKN025 BKN060 29/25     Q0999 RMK 2CU015 6CU025 5SC060 A2951=
20170807_090000.003,0,RJTF,,,,0,20170807090000,-1,-1,-1,-1,-1,-1,-1,-1,-1,-1,-1,,-1,0,0,0,,0,-1,0,-1,-1,RJTF 070900Z NIL=
20170807_233000.001,0,RJTF,,,,0,20170807230000,-1,-1,-1,-1,180,-1,15,-1,-1,-1,-1,,9999,0,0,3,FEW 15   BKN 20   BKN 170,1,29,1,22,989,RJTF 072330Z 18015KT 9999 FEW015 BKN020 BKN170 29/22 Q0989 RMK     1CU015 5CU020 7AC170 A2922=
20170808_000000.002,0,RJTF,,,,0,20170808000000,-1,-1,-1,-1,180,-1,11,-1,-1,-1,-1,,9999,0,0,3,FEW 15   SCT 20   BKN 120,1,29,1,23,989,RJTF 080000Z 18011KT 9999 FEW015 SCT020 BKN120 29/23 Q0989 RMK     1CU015 3CU020 5AC120 A2922=
20170808_010000.002,0,RJTF,,,,0,20170808010000,-1,-1,-1,-1,190,-1,8,-1,-1,160,220,,9999,0,0,3,FEW 25   BKN 100   BKN 150,1,30,1,23,989,RJTF 080100Z 19008KT 160V220 9999 FEW025 BKN100 BKN150 30/23     Q0989 RMK 2CU025 5AC100 7AC150 A2920=
20170808_020000.002,0,RJTF,,,,0,20170808020000,-1,-1,-1,-1,210,-1,6,-1,-1,160,250,,9999,0,0,3,FEW 25   SCT 100   BKN 150,1,30,1,22,988,RJTF 080200Z 21006KT 160V250 9999 FEW025 SCT100 BKN150 30/22     Q0988 RMK 1CU025 3AC100 6AC150 A2920=
20170808_030000.002,0,RJTF,,,,0,20170808030000,-1,-1,-1,-1,190,-1,8,-1,-1,150,220,,9999,0,0,3,FEW 30   SCT 150   BKN -9999,1,32,1,23,988,RJTF 080300Z 19008KT 150V220 9999 FEW030 SCT150 BKN/// 32/23     Q0988 RMK 2CU030 3AC150 A2919=
20170808_040000.002,0,RJTF,,,,0,20170808040000,-1,-1,-1,-1,250,-1,6,-1,-1,190,340,,9999,0,0,3,SCT 30   SCT 150   BKN -9999,1,33,1,23,988,RJTF 080400Z 25006KT 190V340 9999 SCT030 SCT150 BKN/// 33/23     Q0988 RMK 3CU030 3AC150 A2918=
20170808_050000.002,0,RJTF,,,,0,20170808050000,-1,-1,-1,-1,190,-1,5,-1,-1,160,230,,9999,0,0,3,SCT 30   SCT 120   BKN -9999,1,33,1,23,988,RJTF 080500Z 19005KT 160V230 9999 SCT030 SCT120 BKN/// 33/23     Q0988 RMK 3CU030 3AC120 A2917=
20170808_060000.003,0,RJTF,,,,0,20170808060000,-1,-1,-1,-1,360,-1,4,-1,-1,-1,-1,,9999,0,0,3,FEW 30   SCT 120   BKN -9999,1,32,1,24,988,RJTF 080600Z 36004KT 9999 FEW030 SCT120 BKN/// 32/24 Q0988 RMK     2CU030 4AC120 A2918=
20170808_070000.003,0,RJTF,,,,0,20170808070000,-1,-1,-1,-1,360,-1,7,-1,-1,-1,-1,,9999,0,0,3,FEW 30   SCT 120   BKN -9999,1,32,1,24,988,RJTF 080700Z 36007KT 9999 FEW030 SCT120 BKN/// 32/24 Q0988 RMK     2CU030 3AC120 A2919=
20170808_080000.002,0,RJTF,,,,0,20170808080000,-1,-1,-1,-1,10,-1,7,-1,-1,-1,-1,,9999,0,1,3,FEW 30   SCT 40   BKN 170,1,32,1,23,988,RJTF 080800Z 01007KT 9999 VCSH FEW030 SCT040 BKN170 32/23     Q0988 RMK 1CU030 3SC040 6AC170 A2920=
20170808_090000.002,0,RJTF,,,,0,20170808090000,-1,-1,-1,-1,-1,-1,-1,-1,-1,-1,-1,,-1,0,0,0,,0,-1,0,-1,-1,RJTF 080900Z NIL=
20170808_233000.001,0,RJTF,,,,0,20170808230000,-1,-1,-1,-1,999,-1,2,-1,-1,-1,-1,,9999,0,0,1,FEW 20,1,31,1,23,994,RJTF 082330Z VRB02KT 9999 FEW020 31/23 Q0994 RMK 1CU020 A2936=
20170809_000000.002,0,RJTF,,,,0,20170809000000,-1,-1,-1,-1,999,-1,2,-1,-1,-1,-1,,9999,0,0,1,FEW 20,1,32,1,23,994,RJTF 090000Z VRB02KT 9999 FEW020 32/23 Q0994 RMK 1CU020 A2936=
20170809_010000.002,0,RJTF,,,,0,20170809010000,-1,-1,-1,-1,999,-1,2,-1,-1,-1,-1,,9999,0,0,2,FEW 20   SCT 110,1,34,1,24,994,RJTF 090100Z VRB02KT 9999 FEW020 SCT110 34/24 Q0994 RMK 1CU020     3AC110 A2936=
20170809_020000.002,0,RJTF,,,,0,20170809020000,-1,-1,-1,-1,999,-1,2,-1,-1,-1,-1,,9999,0,0,1,FEW 30,1,35,1,22,994,RJTF 090200Z VRB02KT 9999 FEW030 35/22 Q0994 RMK 2CU030 A2935=
20170809_030000.002,0,RJTF,,,,0,20170809030000,-1,-1,-1,-1,350,-1,4,-1,-1,310,50,,9999,0,0,2,FEW 30   SCT 100,1,35,1,22,993,RJTF 090300Z 35004KT 310V050 9999 FEW030 SCT100 35/22 Q0993     RMK 1CU030 3AC100 A2934=
20170809_040000.002,0,RJTF,,,,0,20170809040000,-1,-1,-1,-1,999,-1,5,-1,-1,-1,-1,,9999,0,0,3,FEW 30   SCT 60   BKN 100,1,35,1,22,993,RJTF 090400Z VRB05KT 9999 FEW030 SCT060 BKN100 35/22 Q0993 RMK     1CU030 3SC060 5AC100 A2934=
20170809_050000.002,0,RJTF,,,,0,20170809050000,-1,-1,-1,-1,170,-1,5,-1,-1,110,240,,9999,0,0,4,FEW 30   FEW 35 CB  SCT 60   BKN 110,1,35,1,24,993,RJTF 090500Z 17005KT 110V240 9999 FEW030 FEW035CB SCT060     BKN110 35/24 Q0993 RMK 1CU030 1CB035 3SC060 5AC110 A2933           CB 25KM W MOV SE=
20170809_060000.002,0,RJTF,,,,0,20170809060000,-1,-1,-1,-1,210,-1,7,-1,-1,170,250,,9999,0,1,4,FEW 30   FEW 35 CB  BKN 110   BKN -9999,1,34,1,23,993,RJTF 090600Z 21007KT 170V250 9999 VCSH FEW030 FEW035CB BKN110     BKN/// 34/23 Q0993 RMK 2CU030 1CB035 5AC110 A2934 CB 10KM           SW-NW MOV E=
20170809_070000.002,0,RJTF,,,,0,20170809070000,-1,-1,-1,-1,999,-1,1,-1,-1,-1,-1,,9999,0,0,4,FEW 30   FEW 35 CB  SCT 45   BKN 80,1,32,1,24,994,RJTF 090700Z VRB01KT 9999 FEW030 FEW035CB SCT045 BKN080 32/24     Q0994 RMK 1CU030 1CB035 3SC045 5AC080 A2935 CB 20KM NE           MOV E=
20170809_080000.002,0,RJTF,,,,0,20170809080000,-1,-1,-1,-1,230,-1,4,-1,-1,180,260,,9999,0,1,4,FEW 30   FEW 35 CB  SCT 50   BKN 80,1,32,1,23,994,RJTF 090800Z 23004KT 180V260 9999 -SHRA FEW030 FEW035CB SCT050     BKN080 32/23 Q0994 RMK 1CU030 1CB035 3SC050 5AC080 A2936           CB 15KM SW MOV E=
20170809_090000.002,0,RJTF,,,,0,20170809090000,-1,-1,-1,-1,-1,-1,-1,-1,-1,-1,-1,,-1,0,0,0,,0,-1,0,-1,-1,RJTF 090900Z NIL=
20170809_233000.001,0,RJTF,,,,0,20170809230000,-1,-1,-1,-1,999,-1,2,-1,-1,-1,-1,,6000,0,1,3,FEW 10   SCT 12   BKN 15,1,26,1,23,1000,RJTF 092330Z VRB02KT 6000 -RA FEW010 SCT012 BKN015 26/23 Q1000     RMK 1ST010 3SC012 7SC015 A2953=
20170810_000000.002,0,RJTF,,,,0,20170810000000,-1,-1,-1,-1,999,-1,2,-1,-1,-1,-1,,5000,0,2,3,FEW 9   SCT 12   BKN 15,1,26,1,23,1000,RJTF 100000Z VRB02KT 5000 -RA BR FEW009 SCT012 BKN015 26/23     Q1000 RMK 1ST009 3SC012 7SC015 A2954=
20170810_010000.002,0,RJTF,,,,0,20170810010000,-1,-1,-1,-1,70,-1,3,-1,-1,360,100,,7000,0,1,3,FEW 10   SCT 13   BKN 15,1,26,1,24,1000,RJTF 100100Z 07003KT 360V100 7000 -RA FEW010 SCT013 BKN015     26/24 Q1000 RMK 1ST010 3SC013 7SC015 A2955=
20170810_020000.002,0,RJTF,,,,0,20170810020000,-1,-1,-1,-1,30,-1,4,-1,-1,360,120,,6000,0,1,3,FEW 9   SCT 13   BKN 15,1,26,1,24,1000,RJTF 100200Z 03004KT 360V120 6000 -RA FEW009 SCT013 BKN015     26/24 Q1000 RMK 1ST009 3SC013 7SC015 A2954=
20170810_030000.002,0,RJTF,,,,0,20170810030000,-1,-1,-1,-1,140,-1,5,-1,-1,100,170,,6000,0,0,3,FEW 10   SCT 13   BKN 15,1,27,1,23,1000,RJTF 100300Z 14005KT 100V170 6000 FEW010 SCT013 BKN015 27/23     Q1000 RMK 1ST010 3SC013 7SC015 A2953=
20170810_040000.002,0,RJTF,,,,0,20170810040000,-1,-1,-1,-1,160,-1,5,-1,-1,120,200,,6000,0,0,2,FEW 10   BKN 15,1,27,1,23,999,RJTF 100400Z 16005KT 120V200 6000 FEW010 BKN015 27/23 Q0999     RMK 1ST010 7SC015 A2953=
20170810_050000.002,0,RJTF,,,,0,20170810050000,-1,-1,-1,-1,120,-1,5,-1,-1,90,160,,7000,0,0,3,FEW 10   BKN 15   BKN 20,1,28,1,23,999,RJTF 100500Z 12005KT 090V160 7000 FEW010 BKN015 BKN020 28/23     Q0999 RMK 1ST010 5SC015 7SC020 A2952=
20170810_060000.002,0,RJTF,,,,0,20170810060000,-1,-1,-1,-1,100,-1,4,-1,-1,50,140,,8000,0,0,3,FEW 15   BKN 20   BKN 40,1,28,1,23,999,RJTF 100600Z 10004KT 050V140 8000 FEW015 BKN020 BKN040 28/23     Q0999 RMK 1CU015 5SC020 7SC040 A2952=
20170810_070000.002,0,RJTF,,,,0,20170810070000,-1,-1,-1,-1,120,-1,7,-1,-1,-1,-1,,7000,0,0,3,FEW 15   BKN 20   BKN 40,1,28,1,22,999,RJTF 100700Z 12007KT 7000 FEW015 BKN020 BKN040 28/22 Q0999 RMK     1CU015 6SC020 7SC040 A2952=
20170810_080000.002,0,RJTF,,,,0,20170810080000,-1,-1,-1,-1,130,-1,8,-1,-1,-1,-1,,8000,0,0,3,FEW 10   BKN 15   BKN 20,1,27,1,22,1000,RJTF 100800Z 13008KT 8000 FEW010 BKN015 BKN020 27/22 Q1000 RMK     1ST010 5SC015 7SC020 A2953=
20170810_090000.002,0,RJTF,,,,0,20170810090000,-1,-1,-1,-1,-1,-1,-1,-1,-1,-1,-1,,-1,0,0,0,,0,-1,0,-1,-1,RJTF 100900Z NIL=
20170810_233000.001,0,RJTF,,,,0,20170810230000,-1,-1,-1,-1,60,-1,3,-1,-1,30,100,,6000,0,1,3,FEW 6   BKN 11   BKN 25,1,23,1,21,1005,RJTF 102330Z 06003KT 030V100 6000 -DZ FEW006 BKN011 BKN025     23/21 Q1005 RMK 1ST006 5CU011 7SC025 A2969 3000S=
20170811_000000.002,0,RJTF,,,,0,20170811000000,-1,-1,-1,-1,40,-1,3,-1,-1,360,100,,6000,0,1,3,FEW 7   BKN 10   BKN 20,1,23,1,21,1005,RJTF 110000Z 04003KT 360V100 6000 -DZ FEW007 BKN010 BKN020     23/21 Q1005 RMK 2ST007 6CU010 7SC020 A2969=
20170811_010000.003,0,RJTF,,,,0,20170811010000,-1,-1,-1,-1,50,-1,4,-1,-1,30,90,,8000,0,1,3,FEW 8   BKN 10   BKN 20,1,23,1,21,1005,RJTF 110100Z 05004KT 030V090 8000 -DZ FEW008 BKN010 BKN020     23/21 Q1005 RMK 2ST008 5CU010 7SC020 A2969=
20170811_020000.003,0,RJTF,,,,0,20170811020000,-1,-1,-1,-1,60,-1,3,-1,-1,20,100,,8000,0,1,3,FEW 8   BKN 12   BKN 20,1,23,1,21,1005,RJTF 110200Z 06003KT 020V100 8000 -DZ FEW008 BKN012 BKN020     23/21 Q1005 RMK 2ST008 5CU012 7SC020 A2970=
20170811_030000.002,0,RJTF,,,,0,20170811030000,-1,-1,-1,-1,100,-1,5,-1,-1,60,140,,8000,0,0,3,FEW 8   BKN 12   BKN 20,1,24,1,21,1005,RJTF 110300Z 10005KT 060V140 8000 FEW008 BKN012 BKN020 24/21     Q1005 RMK 2ST008 5CU012 7SC020 A2968 4000S=
20170811_040000.002,0,RJTF,,,,0,20170811040000,-1,-1,-1,-1,120,-1,4,-1,-1,70,150,,9999,0,0,3,FEW 12   BKN 16   BKN 30,1,24,1,21,1004,RJTF 110400Z 12004KT 070V150 9999 FEW012 BKN016 BKN030 24/21     Q1004 RMK 2CU012 6SC016 7SC030 A2967=
20170811_050000.003,0,RJTF,,,,0,20170811050000,-1,-1,-1,-1,80,-1,3,-1,-1,330,130,,9999,0,0,3,FEW 14   BKN 20   BKN 30,1,24,1,21,1004,RJTF 110500Z 08003KT 330V130 9999 FEW014 BKN020 BKN030 24/21     Q1004 RMK 2CU014 6SC020 7SC030 A2967=
20170811_060000.003,0,RJTF,,,,0,20170811060000,-1,-1,-1,-1,130,-1,4,-1,-1,80,170,,9999,0,0,3,FEW 12   BKN 15   BKN 30,1,25,1,21,1004,RJTF 110600Z 13004KT 080V170 9999 FEW012 BKN015 BKN030 25/21     Q1004 RMK 1CU012 6SC015 7SC030 A2967=
20170811_070000.003,0,RJTF,,,,0,20170811070000,-1,-1,-1,-1,110,-1,4,-1,-1,70,150,,9999,0,0,3,FEW 12   BKN 15   BKN 25,1,25,1,21,1004,RJTF 110700Z 11004KT 070V150 9999 FEW012 BKN015 BKN025 25/21     Q1004 RMK 1CU012 6SC015 7SC025 A2967=
20170811_080000.002,0,RJTF,,,,0,20170811080000,-1,-1,-1,-1,120,-1,4,-1,-1,50,150,,7000,0,1,3,FEW 8   BKN 15   BKN 25,1,25,1,21,1004,RJTF 110800Z 12004KT 050V150 7000 -DZ FEW008 BKN015 BKN025     25/21 Q1004 RMK 1ST008 6SC015 7SC025 A2966=
20170811_090000.002,0,RJTF,,,,0,20170811090000,-1,-1,-1,-1,-1,-1,-1,-1,-1,-1,-1,,-1,0,0,0,,0,-1,0,-1,-1,RJTF 110900Z NIL=
20170811_233000.001,0,RJTF,,,,0,20170811230000,-1,-1,-1,-1,999,-1,2,-1,-1,-1,-1,,8000,0,0,3,FEW 15   SCT 20   BKN 40,1,22,1,21,1007,RJTF 112330Z VRB02KT 8000 FEW015 SCT020 BKN040 22/21 Q1007 RMK     2CU015 4SC020 7SC040 A2975=
20170812_000000.002,0,RJTF,,,,0,20170812000000,-1,-1,-1,-1,999,-1,2,-1,-1,-1,-1,,9999,0,0,3,FEW 15   SCT 20   BKN 40,1,23,1,21,1007,RJTF 120000Z VRB02KT 9999 FEW015 SCT020 BKN040 23/21 Q1007 RMK     1CU015 4SC020 7SC040 A2975=
20170812_010000.002,0,RJTF,,,,0,20170812010000,-1,-1,-1,-1,999,-1,1,-1,-1,-1,-1,,8000,0,1,3,FEW 7   BKN 30   BKN 45,1,23,1,21,1007,RJTF 120100Z VRB01KT 8000 -SHRA FEW007 BKN030 BKN045 23/21     Q1007 RMK 1ST007 5CU030 6SC045 A2974=
20170812_020000.002,0,RJTF,,,,0,20170812020000,-1,-1,-1,-1,360,-1,3,-1,-1,320,50,,9999,0,0,3,SCT 8   BKN 20   BKN 60,1,24,1,22,1007,RJTF 120200Z 36003KT 320V050 9999 SCT008 BKN020 BKN060 24/22     Q1007 RMK 3ST008 5CU020 6SC060 A2974=
20170812_030000.002,0,RJTF,,,,0,20170812030000,-1,-1,-1,-1,100,-1,3,-1,-1,20,140,,9999,0,0,3,FEW 15   BKN 20   BKN 80,1,26,1,22,1006,RJTF 120300Z 10003KT 020V140 9999 FEW015 BKN020 BKN080 26/22     Q1006 RMK 2CU015 5CU020 6AC080 A2973=
20170812_040000.003,0,RJTF,,,,0,20170812040000,-1,-1,-1,-1,20,-1,5,-1,-1,340,70,,9999,0,0,2,FEW 20   SCT 30,1,27,1,22,1006,RJTF 120400Z 02005KT 340V070 9999 FEW020 SCT030 27/22 Q1006     RMK 2CU020 4CU030 A2971=
20170812_050000.002,0,RJTF,,,,0,20170812050000,-1,-1,-1,-1,999,-1,2,-1,-1,-1,-1,,9999,0,0,3,FEW 20   SCT 30   BKN 110,1,28,1,21,1005,RJTF 120500Z VRB02KT 9999 FEW020 SCT030 BKN110 28/21 Q1005 RMK     2CU020 3CU030 5AC110 A2970=
20170812_060000.002,0,RJTF,,,,0,20170812060000,-1,-1,-1,-1,999,-1,2,-1,-1,-1,-1,,9999,0,0,2,FEW 20   SCT 30,1,30,1,22,1005,RJTF 120600Z VRB02KT 9999 FEW020 SCT030 30/22 Q1005 RMK 2CU020     3CU030 A2969=
20170812_070000.002,0,RJTF,,,,0,20170812070000,-1,-1,-1,-1,999,-1,2,-1,-1,-1,-1,,9999,0,0,2,FEW 20   BKN 30,1,29,1,21,1005,RJTF 120700Z VRB02KT 9999 FEW020 BKN030 29/21 Q1005 RMK 2CU020     7CU030 A2969=
20170812_080000.002,0,RJTF,,,,0,20170812080000,-1,-1,-1,-1,10,-1,3,-1,-1,330,60,,9999,0,0,3,FEW 25   BKN 40   BKN 120,1,28,1,21,1005,RJTF 120800Z 01003KT 330V060 9999 FEW025 BKN040 BKN120 28/21     Q1005 RMK 1CU025 5SC040 7AC120 A2969=
20170812_090000.002,0,RJTF,,,,0,20170812090000,-1,-1,-1,-1,-1,-1,-1,-1,-1,-1,-1,,-1,0,0,0,,0,-1,0,-1,-1,RJTF 120900Z NIL=
20170812_233000.001,0,RJTF,,,,0,20170812230000,-1,-1,-1,-1,20,-1,3,-1,-1,340,60,,9999,0,0,3,FEW 20   SCT 30   BKN 60,1,26,1,22,1008,RJTF 122330Z 02003KT 340V060 9999 FEW020 SCT030 BKN060 26/22     Q1008 RMK 1CU020 3SC030 7SC060 A2978=
20170813_000000.003,0,RJTF,,,,0,20170813000000,-1,-1,-1,-1,10,-1,4,-1,-1,310,80,,9999,0,0,2,FEW 20   BKN 60,1,27,1,22,1008,RJTF 130000Z 01004KT 310V080 9999 FEW020 BKN060 27/22 Q1008     RMK 1CU020 7SC060 A2977=
20170813_010000.002,0,RJTF,,,,0,20170813010000,-1,-1,-1,-1,999,-1,3,-1,-1,-1,-1,,9999,0,0,3,FEW 20   SCT 30   BKN 80,1,28,1,22,1008,RJTF 130100Z VRB03KT 9999 FEW020 SCT030 BKN080 28/22 Q1008 RMK     1CU020 4CU030 7AC080 A2977=
20170813_020000.002,0,RJTF,,,,0,20170813020000,-1,-1,-1,-1,999,-1,2,-1,-1,-1,-1,,9999,0,0,3,FEW 20   BKN 30   BKN 80,1,28,1,21,1008,RJTF 130200Z VRB02KT 9999 FEW020 BKN030 BKN080 28/21 Q1008 RMK     2CU020 5CU030 7AC080 A2977=
20170813_030000.002,0,RJTF,,,,0,20170813030000,-1,-1,-1,-1,80,-1,4,-1,-1,40,110,,9999,0,0,2,SCT 20   BKN 30,1,28,1,21,1007,RJTF 130300Z 08004KT 040V110 9999 SCT020 BKN030 28/21 Q1007     RMK 3CU020 6CU030 A2976=
20170813_040000.003,0,RJTF,,,,0,20170813040000,-1,-1,-1,-1,80,-1,5,-1,-1,40,110,,9999,0,0,3,FEW 20   BKN 30   BKN 80,1,30,1,21,1007,RJTF 130400Z 08005KT 040V110 9999 FEW020 BKN030 BKN080 30/21     Q1007 RMK 1CU020 5CU030 6AC080 A2974=
20170813_050000.003,0,RJTF,,,,0,20170813050000,-1,-1,-1,-1,999,-1,4,-1,-1,-1,-1,,9999,0,0,3,FEW 20   SCT 30   BKN 80,1,30,1,21,1006,RJTF 130500Z VRB04KT 9999 FEW020 SCT030 BKN080 30/21 Q1006 RMK     1CU020 4CU030 5AC080 A2973=
20170813_060000.002,0,RJTF,,,,0,20170813060000,-1,-1,-1,-1,130,-1,5,-1,-1,100,170,,9999,0,0,3,FEW 20   BKN 30   BKN 80,1,30,1,21,1006,RJTF 130600Z 13005KT 100V170 9999 FEW020 BKN030 BKN080 30/21     Q1006 RMK 2CU020 6CU030 5AC080 A2973=
20170813_070000.002,0,RJTF,,,,0,20170813070000,-1,-1,-1,-1,150,-1,4,-1,-1,90,190,,9999,0,1,3,FEW 20   SCT 30   BKN 60,1,30,1,21,1006,RJTF 130700Z 15004KT 090V190 9999 VCSH FEW020 SCT030 BKN060     30/21 Q1006 RMK 2CU020 4CU030 6SC060 A2973=
20170813_080000.002,0,RJTF,,,,0,20170813080000,-1,-1,-1,-1,180,-1,4,-1,-1,140,230,,9999,0,1,3,FEW 20   BKN 30   BKN 60,1,29,1,22,1006,RJTF 130800Z 18004KT 140V230 9999 VCSH FEW020 BKN030 BKN060     29/22 Q1006 RMK 2CU020 5CU030 6SC060 A2973=
20170813_090000.002,0,RJTF,,,,0,20170813090000,-1,-1,-1,-1,-1,-1,-1,-1,-1,-1,-1,,-1,0,0,0,,0,-1,0,-1,-1,RJTF 130900Z NIL=
20170813_233000.001,0,RJTF,,,,0,20170813230000,-1,-1,-1,-1,50,-1,3,-1,-1,-1,-1,,6000,0,0,3,FEW 8   BKN 10   BKN 25,1,24,1,22,1007,RJTF 132330Z 05003KT 6000 FEW008 BKN010 BKN025 24/22 Q1007 RMK     2ST008 7ST010 7SC025 A2976=
20170814_000000.002,0,RJTF,,,,0,20170814000000,-1,-1,-1,-1,360,-1,2,-1,-1,-1,-1,,5000,0,2,3,FEW 8   BKN 10   BKN 20,1,24,1,22,1008,RJTF 140000Z 36002KT 5000 -SHRA BR FEW008 BKN010 BKN020 24/22     Q1008 RMK 2ST008 6ST010 7SC020 A2977=
20170814_010000.002,0,RJTF,,,,0,20170814010000,-1,-1,-1,-1,10,-1,4,-1,-1,-1,-1,,5000,0,2,3,SCT 6   BKN 10   BKN 20,1,24,1,22,1007,RJTF 140100Z 01004KT 5000 -SHRA BR SCT006 BKN010 BKN020 24/22     Q1007 RMK 3ST006 6ST010 7SC020 A2976=
20170814_020000.002,0,RJTF,,,,0,20170814020000,-1,-1,-1,-1,10,-1,4,-1,-1,-1,-1,,6000,0,1,3,SCT 6   BKN 10   BKN 20,1,24,1,22,1007,RJTF 140200Z 01004KT 6000 -SHRA SCT006 BKN010 BKN020 24/22     Q1007 RMK 3ST006 6ST010 7SC020 A2976=
20170814_030000.002,0,RJTF,,,,0,20170814030000,-1,-1,-1,-1,20,-1,4,-1,-1,-1,-1,,8000,0,1,3,FEW 6   SCT 10   BKN 20,1,24,1,23,1007,RJTF 140300Z 02004KT 8000 -SHRA FEW006 SCT010 BKN020 24/23     Q1007 RMK 2ST006 4CU010 7SC020 A2975=
20170814_040000.002,0,RJTF,,,,0,20170814040000,-1,-1,-1,-1,360,-1,3,-1,-1,320,20,,8000,0,0,3,FEW 6   BKN 10   BKN 20,1,25,1,23,1007,RJTF 140400Z 36003KT 320V020 8000 FEW006 BKN010 BKN020 25/23     Q1007 RMK 2ST006 6CU010 7SC020 A2974=
20170814_050000.002,0,RJTF,,,,0,20170814050000,-1,-1,-1,-1,999,-1,2,-1,-1,-1,-1,,8000,0,0,3,FEW 8   BKN 15   BKN 25,1,25,1,23,1006,RJTF 140500Z VRB02KT 8000 FEW008 BKN015 BKN025 25/23 Q1006 RMK     2ST008 6CU015 7SC025 A2973=
20170814_060000.002,0,RJTF,,,,0,20170814060000,-1,-1,-1,-1,30,-1,3,-1,-1,360,60,,8000,0,0,3,FEW 8   BKN 15   BKN 25,1,25,1,22,1006,RJTF 140600Z 03003KT 360V060 8000 FEW008 BKN015 BKN025 25/22     Q1006 RMK 2ST008 6CU015 7SC025 A2973=
20170814_070000.002,0,RJTF,,,,0,20170814070000,-1,-1,-1,-1,999,-1,1,-1,-1,-1,-1,,7000,0,1,3,FEW 8   BKN 12   BKN 20,1,25,1,23,1006,RJTF 140700Z VRB01KT 7000 -SHRA FEW008 BKN012 BKN020 25/23     Q1006 RMK 2ST008 6CU012 7SC020 A2973=
20170814_080000.002,0,RJTF,,,,0,20170814080000,-1,-1,-1,-1,999,-1,2,-1,-1,-1,-1,,7000,0,0,3,FEW 6   BKN 10   BKN 20,1,25,1,23,1006,RJTF 140800Z VRB02KT 7000 FEW006 BKN010 BKN020 25/23 Q1006 RMK     2ST006 6CU010 7SC020 A2972=
20170814_090000.002,0,RJTF,,,,0,20170814090000,-1,-1,-1,-1,-1,-1,-1,-1,-1,-1,-1,,-1,0,0,0,,0,-1,0,-1,-1,RJTF 140900Z NIL=
20170814_233000.001,0,RJTF,,,,0,20170814230000,-1,-1,-1,-1,350,-1,3,-1,-1,-1,-1,,6000,0,1,2,FEW 7   BKN 9,1,24,1,22,1006,RJTF 142330Z 35003KT 6000 -DZ FEW007 BKN009 24/22 Q1006 RMK     1ST007 7ST009 A2971=
20170815_000000.003,0,RJTF,,,,0,20170815000000,-1,-1,-1,-1,10,-1,3,-1,-1,340,40,,6000,0,1,2,FEW 6   BKN 9,1,24,1,23,1006,RJTF 150000Z 01003KT 340V040 6000 -DZ FEW006 BKN009 24/23     Q1006 RMK 1ST006 7ST009 A2971=
20170815_010000.002,0,RJTF,,,,0,20170815010000,-1,-1,-1,-1,999,-1,2,-1,-1,-1,-1,,4000,0,2,2,FEW 7   BKN 9,1,24,1,22,1006,RJTF 150100Z VRB02KT 4000 -SHRA BR FEW007 BKN009 24/22 Q1006     RMK 2ST007 7ST009 A2971=
20170815_020000.002,0,RJTF,,,,0,20170815020000,-1,-1,-1,-1,320,-1,3,-1,-1,280,360,,6000,0,1,3,FEW 5   SCT 7   BKN 9,1,24,1,23,1005,RJTF 150200Z 32003KT 280V360 6000 -SHRA FEW005 SCT007 BKN009     24/23 Q1005 RMK 1ST005 3ST007 5ST009 A2970=
20170815_030000.002,0,RJTF,,,,0,20170815030000,-1,-1,-1,-1,310,-1,5,-1,-1,280,340,,8000,0,1,3,FEW 4   SCT 6   BKN 10,1,24,1,22,1005,RJTF 150300Z 31005KT 280V340 8000 -SHRA FEW004 SCT006 BKN010     24/22 Q1005 RMK 1ST004 4ST006 7ST010 A2969=
20170815_040000.003,0,RJTF,,,,0,20170815040000,-1,-1,-1,-1,340,-1,6,-1,-1,-1,-1,,6000,0,1,3,FEW 6   SCT 8   BKN 10,1,23,1,22,1005,RJTF 150400Z 34006KT 6000 -SHRA FEW006 SCT008 BKN010 23/22     Q1005 RMK 1ST006 3ST008 6ST010 A2969=
20170815_050000.002,0,RJTF,,,,0,20170815050000,-1,-1,-1,-1,360,-1,4,-1,-1,-1,-1,,9999,0,1,3,FEW 6   SCT 8   BKN 15,1,24,1,22,1004,RJTF 150500Z 36004KT 9999 -SHRA FEW006 SCT008 BKN015 24/22     Q1004 RMK 1ST006 3ST008 7CU015 A2967=
20170815_060000.003,0,RJTF,,,,0,20170815060000,-1,-1,-1,-1,350,-1,6,-1,-1,-1,-1,,9999,0,1,3,FEW 6   SCT 8   BKN 15,1,23,1,22,1004,RJTF 150600Z 35006KT 9999 -SHRA FEW006 SCT008 BKN015 23/22     Q1004 RMK 1ST006 3ST008 6CU015 A2967=
20170815_070000.002,0,RJTF,,,,0,20170815070000,-1,-1,-1,-1,360,-1,3,-1,-1,320,30,,7000,0,1,3,FEW 5   SCT 7   BKN 10,1,23,1,22,1004,RJTF 150700Z 36003KT 320V030 7000 -SHRA FEW005 SCT007 BKN010     23/22 Q1004 RMK 1ST005 4ST007 6ST010 A2967=
20170815_080000.002,0,RJTF,,,,0,20170815080000,-1,-1,-1,-1,999,-1,2,-1,-1,-1,-1,,4000,0,2,3,FEW 3   SCT 5   BKN 8,1,23,1,22,1005,RJTF 150800Z VRB02KT 4000 SHRA BR FEW003 SCT005 BKN008 23/22     Q1005 RMK 1ST003 4ST005 6ST008 A2968=
20170815_090000.003,0,RJTF,,,,0,20170815090000,-1,-1,-1,-1,-1,-1,-1,-1,-1,-1,-1,,-1,0,0,0,,0,-1,0,-1,-1,RJTF 150900Z NIL=
20170815_233000.001,0,RJTF,,,,0,20170815230000,-1,-1,-1,-1,20,-1,7,-1,-1,340,50,,5000,0,2,3,FEW 5   SCT 8   BKN 10,1,22,1,20,1008,RJTF 152330Z 02007KT 340V050 5000 -RA BR FEW005 SCT008 BKN010     22/20 Q1008 RMK 1ST005 3ST008 6ST010 A2977=
20170816_000000.003,0,RJTF,,,,0,20170816000000,-1,-1,-1,-1,10,-1,6,-1,-1,340,40,,3200,0,2,3,FEW 5   SCT 7   BKN 9,1,22,1,20,1008,RJTF 160000Z 01006KT 340V040 3200 -RA BR FEW005 SCT007 BKN009     22/20 Q1008 RMK 1ST005 3ST007 5ST009 A2977=
20170816_010000.002,0,RJTF,,,,0,20170816010000,-1,-1,-1,-1,350,-1,8,-1,-1,320,20,,3200,0,2,3,FEW 4   SCT 6   BKN 8,1,21,1,20,1008,RJTF 160100Z 35008KT 320V020 3200 -RA BR FEW004 SCT006 BKN008     21/20 Q1008 RMK 1ST004 3ST006 5ST008 A2977=
20170816_020000.002,0,RJTF,,,,0,20170816020000,-1,-1,-1,-1,340,-1,8,-1,-1,310,20,,3200,0,2,3,FEW 4   SCT 6   BKN 9,1,21,1,20,1008,RJTF 160200Z 34008KT 310V020 3200 -RA BR FEW004 SCT006 BKN009     21/20 Q1008 RMK 1ST004 3ST006 5ST009 A2977=
20170816_030000.002,0,RJTF,,,,0,20170816030000,-1,-1,-1,-1,340,-1,7,-1,-1,310,10,,3200,0,2,3,FEW 4   SCT 7   BKN 9,1,21,1,20,1008,RJTF 160300Z 34007KT 310V010 3200 -RA BR FEW004 SCT007 BKN009     21/20 Q1008 RMK 1ST004 3ST007 5ST009 A2977=
20170816_040000.002,0,RJTF,,,,0,20170816040000,-1,-1,-1,-1,340,-1,8,-1,-1,-1,-1,,7000,0,1,3,FEW 5   SCT 7   BKN 15,1,22,1,20,1007,RJTF 160400Z 34008KT 7000 -RA FEW005 SCT007 BKN015 22/20 Q1007     RMK 1ST005 3ST007 6SC015 A2976=
20170816_050000.002,0,RJTF,,,,0,20170816050000,-1,-1,-1,-1,340,-1,7,-1,-1,-1,-1,,6000,0,1,3,FEW 5   SCT 8   BKN 10,1,22,1,20,1007,RJTF 160500Z 34007KT 6000 -RA FEW005 SCT008 BKN010 22/20 Q1007     RMK 1ST005 3ST008 5ST010 A2975=
20170816_060000.002,0,RJTF,,,,0,20170816060000,-1,-1,-1,-1,350,-1,6,-1,-1,-1,-1,,6000,0,1,3,FEW 4   SCT 7   BKN 10,1,22,1,20,1007,RJTF 160600Z 35006KT 6000 -RA FEW004 SCT007 BKN010 22/20 Q1007     RMK 1ST004 3ST007 5ST010 A2975=
20170816_070000.002,0,RJTF,,,,0,20170816070000,-1,-1,-1,-1,350,-1,6,-1,-1,-1,-1,,9999,0,1,3,FEW 6   SCT 9   BKN 20,1,22,1,20,1007,RJTF 160700Z 35006KT 9999 -RA FEW006 SCT009 BKN020 22/20 Q1007     RMK 1ST006 3ST009 7SC020 A2975=
20170816_080000.002,0,RJTF,,,,0,20170816080000,-1,-1,-1,-1,350,-1,5,-1,-1,-1,-1,,7000,0,1,3,FEW 6   SCT 9   BKN 20,1,22,1,20,1007,RJTF 160800Z 35005KT 7000 -DZ FEW006 SCT009 BKN020 22/20 Q1007     RMK 1ST006 3ST009 7SC020 A2975=
20170816_090000.002,0,RJTF,,,,0,20170816090000,-1,-1,-1,-1,-1,-1,-1,-1,-1,-1,-1,,-1,0,0,0,,0,-1,0,-1,-1,RJTF 160900Z NIL=
20170816_233000.001,0,RJTF,,,,0,20170816230000,-1,-1,-1,-1,360,-1,6,-1,-1,-1,-1,,9999,0,1,3,FEW 8   BKN 25   BKN 40,1,22,1,20,1010,RJTF 162330Z 36006KT 9999 -RA FEW008 BKN025 BKN040 22/20 Q1010     RMK 2ST008 5SC025 6SC040 A2984=
20170817_000000.003,0,RJTF,,,,0,20170817000000,-1,-1,-1,-1,360,-1,5,-1,-1,330,40,,9999,0,0,3,FEW 8   SCT 25   BKN 40,1,23,1,21,1010,RJTF 170000Z 36005KT 330V040 9999 FEW008 SCT025 BKN040 23/21     Q1010 RMK 1ST008 4SC025 7SC040 A2984=
20170817_010000.003,0,RJTF,,,,0,20170817010000,-1,-1,-1,-1,20,-1,5,-1,-1,340,40,,9999,0,0,3,FEW 10   SCT 30   BKN 45,1,25,1,21,1010,RJTF 170100Z 02005KT 340V040 9999 FEW010 SCT030 BKN045 25/21     Q1010 RMK 2CU010 4SC030 7SC045 A2984=
20170817_020000.003,0,RJTF,,,,0,20170817020000,-1,-1,-1,-1,360,-1,5,-1,-1,320,20,,9999,0,0,3,SCT 15   BKN 30   BKN 45,1,26,1,21,1010,RJTF 170200Z 36005KT 320V020 9999 SCT015 BKN030 BKN045 26/21     Q1010 RMK 3CU015 5SC030 7SC045 A2984=
20170817_030000.003,0,RJTF,,,,0,20170817030000,-1,-1,-1,-1,10,-1,4,-1,-1,310,70,,9999,0,0,3,SCT 15   BKN 35   BKN 45,1,27,1,21,1009,RJTF 170300Z 01004KT 310V070 9999 SCT015 BKN035 BKN045 27/21     Q1009 RMK 3CU015 5SC035 6SC045 A2982=
20170817_040000.003,0,RJTF,,,,0,20170817040000,-1,-1,-1,-1,70,-1,4,-1,-1,10,130,,9999,0,0,3,SCT 20   BKN 35   BKN 50,1,27,1,21,1009,RJTF 170400Z 07004KT 010V130 9999 SCT020 BKN035 BKN050 27/21     Q1009 RMK 3CU020 5SC035 7SC050 A2981=
20170817_050000.003,0,RJTF,,,,0,20170817050000,-1,-1,-1,-1,999,-1,2,-1,-1,-1,-1,,9999,0,0,3,SCT 20   BKN 30   BKN 40,1,28,1,21,1009,RJTF 170500Z VRB02KT 9999 SCT020 BKN030 BKN040 28/21 Q1009 RMK     3CU020 5SC030 7SC040 A2980=
20170817_060000.003,0,RJTF,,,,0,20170817060000,-1,-1,-1,-1,110,-1,4,-1,-1,60,140,,9999,0,0,3,FEW 20   SCT 30   BKN 40,1,28,1,21,1008,RJTF 170600Z 11004KT 060V140 9999 FEW020 SCT030 BKN040 28/21     Q1008 RMK 2CU020 4SC030 7SC040 A2979=
20170817_070000.002,0,RJTF,,,,0,20170817070000,-1,-1,-1,-1,100,-1,4,-1,-1,60,150,,9999,0,0,3,FEW 20   BKN 25   BKN 35,1,28,1,21,1009,RJTF 170700Z 10004KT 060V150 9999 FEW020 BKN025 BKN035 28/21     Q1009 RMK 1CU020 5SC025 7SC035 A2980=
20170817_080000.003,0,RJTF,,,,0,20170817080000,-1,-1,-1,-1,999,-1,2,-1,-1,-1,-1,,9999,0,0,3,FEW 20   BKN 25   BKN 35,1,28,1,21,1009,RJTF 170800Z VRB02KT 9999 FEW020 BKN025 BKN035 28/21 Q1009 RMK     1CU020 5SC025 7SC035 A2979=
20170817_090000.003,0,RJTF,,,,0,20170817090000,-1,-1,-1,-1,-1,-1,-1,-1,-1,-1,-1,,-1,0,0,0,,0,-1,0,-1,-1,RJTF 170900Z NIL=
20170817_233000.001,0,RJTF,,,,0,20170817230000,-1,-1,-1,-1,140,-1,4,-1,-1,110,200,,8000,0,0,3,FEW 8   SCT 12   BKN 20,1,27,1,23,1010,RJTF 172330Z 14004KT 110V200 8000 FEW008 SCT012 BKN020 27/23     Q1010 RMK 1ST008 4CU012 6SC020 A2985=
20170818_000000.002,0,RJTF,,,,0,20170818000000,-1,-1,-1,-1,170,-1,5,-1,-1,120,200,,8000,0,0,3,SCT 15   BKN 20   BKN 25,1,27,1,23,1010,RJTF 180000Z 17005KT 120V200 8000 SCT015 BKN020 BKN025 27/23     Q1010 RMK 3CU015 5SC020 7SC025 A2985=
20170818_010000.003,0,RJTF,,,,0,20170818010000,-1,-1,-1,-1,150,-1,4,-1,-1,120,200,,8000,0,0,3,SCT 15   BKN 20   BKN 30,1,28,1,23,1010,RJTF 180100Z 15004KT 120V200 8000 SCT015 BKN020 BKN030 28/23     Q1010 RMK 3CU015 5SC020 7SC030 A2984=
20170818_020000.002,0,RJTF,,,,0,20170818020000,-1,-1,-1,-1,999,-1,2,-1,-1,-1,-1,,9999,0,0,3,FEW 15   SCT 20   BKN 30,1,29,1,23,1010,RJTF 180200Z VRB02KT 9999 FEW015 SCT020 BKN030 29/23 Q1010 RMK     2CU015 4SC020 7SC030 A2984=
20170818_030000.002,0,RJTF,,,,0,20170818030000,-1,-1,-1,-1,170,-1,3,-1,-1,90,220,,9999,0,0,3,SCT 20   BKN 30   BKN 50,1,29,1,22,1009,RJTF 180300Z 17003KT 090V220 9999 SCT020 BKN030 BKN050 29/22     Q1009 RMK 3CU020 5SC030 6SC050 A2982=
20170818_040000.002,0,RJTF,,,,0,20170818040000,-1,-1,-1,-1,340,-1,4,-1,-1,-1,-1,,9999,0,1,3,SCT 25   BKN 30   BKN 40,1,28,1,23,1009,RJTF 180400Z 34004KT 9999 -RA SCT025 BKN030 BKN040 28/23 Q1009     RMK 3CU025 5SC030 7SC040 A2981=
20170818_050000.003,0,RJTF,,,,0,20170818050000,-1,-1,-1,-1,360,-1,6,-1,-1,-1,-1,,8000,0,1,3,SCT 25   BKN 35   BKN 50,1,27,1,24,1009,RJTF 180500Z 36006KT 8000 -RA SCT025 BKN035 BKN050 27/24 Q1009     RMK 3CU025 5SC035 7SC050 A2980=
20170818_060000.003,0,RJTF,,,,0,20170818060000,-1,-1,-1,-1,350,-1,5,-1,-1,-1,-1,,9999,0,0,3,FEW 12   BKN 20   BKN 30,1,27,1,23,1009,RJTF 180600Z 35005KT 9999 FEW012 BKN020 BKN030 27/23 Q1009 RMK     2CU012 5SC020 7SC030 A2981=
20170818_070000.002,0,RJTF,,,,0,20170818070000,-1,-1,-1,-1,360,-1,4,-1,-1,300,40,,9999,0,0,3,SCT 18   BKN 50   BKN 110,1,27,1,23,1009,RJTF 180700Z 36004KT 300V040 9999 SCT018 BKN050 BKN110 27/23     Q1009 RMK 4SC018 5SC050 7AC110 A2981=
20170818_080000.002,0,RJTF,,,,0,20170818080000,-1,-1,-1,-1,999,-1,2,-1,-1,-1,-1,,9999,0,0,3,FEW 15   SCT 30   BKN 100,1,27,1,23,1009,RJTF 180800Z VRB02KT 9999 FEW015 SCT030 BKN100 27/23 Q1009 RMK     1SC015 4SC030 5AC100 A2981=
20170818_090000.003,0,RJTF,,,,0,20170818090000,-1,-1,-1,-1,-1,-1,-1,-1,-1,-1,-1,,-1,0,0,0,,0,-1,0,-1,-1,RJTF 180900Z NIL=
20170818_233000.001,0,RJTF,,,,0,20170818230000,-1,-1,-1,-1,360,-1,5,-1,-1,320,30,,5000,0,1,3,FEW 6   BKN 8   BKN 15,1,27,1,24,1011,RJTF 182330Z 36005KT 320V030 5000 BR FEW006 BKN008 BKN015     27/24 Q1011 RMK 2ST006 6ST008 7SC015 A2987=
20170819_000000.003,0,RJTF,,,,0,20170819000000,-1,-1,-1,-1,10,-1,4,-1,-1,330,50,,5000,0,1,3,FEW 6   BKN 10   BKN 25,1,27,1,23,1011,RJTF 190000Z 01004KT 330V050 5000 BR FEW006 BKN010 BKN025     27/23 Q1011 RMK 2ST006 6ST010 7SC025 A2987=
20170819_010000.003,0,RJTF,,,,0,20170819010000,-1,-1,-1,-1,350,-1,3,-1,-1,270,60,,8000,0,0,2,FEW 10   BKN 15,1,28,1,23,1011,RJTF 190100Z 35003KT 270V060 8000 FEW010 BKN015 28/23 Q1011     RMK 2CU010 6CU015 A2986=
20170819_020000.002,0,RJTF,,,,0,20170819020000,-1,-1,-1,-1,350,-1,5,-1,-1,330,30,,9999,0,0,3,FEW 15   BKN 20   BKN -9999,1,29,1,24,1010,RJTF 190200Z 35005KT 330V030 9999 FEW015 BKN020 BKN/// 29/24     Q1010 RMK 1CU015 5CU020 A2984=
20170819_030000.002,0,RJTF,,,,0,20170819030000,-1,-1,-1,-1,20,-1,5,-1,-1,330,70,,9999,0,0,3,FEW 15   BKN 25   BKN -9999,1,30,1,23,1010,RJTF 190300Z 02005KT 330V070 9999 FEW015 BKN025 BKN/// 30/23     Q1010 RMK 1CU015 6CU025 A2983=
20170819_040000.002,0,RJTF,,,,0,20170819040000,-1,-1,-1,-1,999,-1,2,-1,-1,-1,-1,,9999,0,0,3,FEW 15   SCT 25   BKN 120,1,31,1,23,1009,RJTF 190400Z VRB02KT 9999 FEW015 SCT025 BKN120 31/23 Q1009 RMK     1CU015 3CU025 5AC120 A2981=
20170819_050000.002,0,RJTF,,,,0,20170819050000,-1,-1,-1,-1,80,-1,5,-1,-1,40,120,,8000,0,0,2,FEW 20   BKN 30,1,31,1,24,1008,RJTF 190500Z 08005KT 040V120 8000 FEW020 BKN030 31/24 Q1008     RMK 2CU020 6CU030 A2979=
20170819_060000.002,0,RJTF,,,,0,20170819060000,-1,-1,-1,-1,150,-1,7,-1,-1,110,190,,9999,0,0,3,FEW 20   BKN 30   FEW 30 CB,1,31,1,24,1008,RJTF 190600Z 15007KT 110V190 9999 FEW020 BKN030 FEW030CB 31/24     Q1008 RMK 2CU020 6CU030 1CB030 A2978 CB 15KM SE AND 10KM           SW MOV SE=
20170819_070000.003,0,RJTF,,,,0,20170819070000,-1,-1,-1,-1,170,-1,8,-1,-1,-1,-1,,9999,0,1,2,FEW 20   BKN 30 CB,1,31,1,24,1008,RJTF 190700Z 17008KT 9999 VCSH FEW020 BKN030CB 31/24 Q1008 RMK     2CU020 6CB030 A2977 CB 7KM NW MOV E TCU 15KM NW MOV NE=
20170819_080000.002,0,RJTF,,,,0,20170819080000,-1,-1,-1,-1,50,-1,13,-1,-1,10,90,,3000,0,2,3,FEW 6   BKN 15   SCT 20 CB,1,25,1,21,1009,RJTF 190800Z 05013KT 010V090 3000 +TSRA BR FEW006 BKN015     SCT020CB 25/21 Q1009 RMK 2ST006 6CU015 4CB020 A2981 MOD           TS 5KM NW-NE MOV E=
20170819_090000.002,0,RJTF,,,,0,20170819090000,-1,-1,-1,-1,-1,-1,-1,-1,-1,-1,-1,,-1,0,0,0,,0,-1,0,-1,-1,RJTF 190900Z NIL=
20170819_233000.001,0,RJTF,,,,0,20170819230000,-1,-1,-1,-1,340,-1,3,-1,-1,310,20,,9999,0,0,2,FEW 10   BKN 20,1,24,1,24,1014,RJTF 192330Z 34003KT 310V020 9999 FEW010 BKN020 24/24 Q1014     RMK 1ST010 7SC020 A2995=
20170820_000000.002,0,RJTF,,,,0,20170820000000,-1,-1,-1,-1,360,-1,3,-1,-1,300,50,,9999,0,0,3,FEW 10   BKN 20   BKN 40,1,25,1,25,1014,RJTF 200000Z 36003KT 300V050 9999 FEW010 BKN020 BKN040 25/25     Q1014 RMK 2ST010 5SC020 7SC040 A2995=
20170820_010000.002,0,RJTF,,,,0,20170820010000,-1,-1,-1,-1,999,-1,1,-1,-1,-1,-1,,9999,0,0,3,FEW 10   BKN 15   BKN 40,1,26,1,25,1014,RJTF 200100Z VRB01KT 9999 FEW010 BKN015 BKN040 26/25 Q1014 RMK     2ST010 6SC015 7SC040 A2995=
20170820_020000.002,0,RJTF,,,,0,20170820020000,-1,-1,-1,-1,20,-1,3,-1,-1,280,70,,9999,0,0,3,FEW 10   BKN 15   BKN 50,1,27,1,21,1013,RJTF 200200Z 02003KT 280V070 9999 FEW010 BKN015 BKN050 27/21     Q1013 RMK 2CU010 6CU015 7SC050 A2993=
20170820_030000.002,0,RJTF,,,,0,20170820030000,-1,-1,-1,-1,999,-1,1,-1,-1,-1,-1,,9999,0,0,3,FEW 15   BKN 20   BKN 70,1,28,1,22,1013,RJTF 200300Z VRB01KT 9999 FEW015 BKN020 BKN070 28/22 Q1013 RMK     2CU015 6CU020 7AC070 A2992=
20170820_040000.002,0,RJTF,,,,0,20170820040000,-1,-1,-1,-1,20,-1,4,-1,-1,300,70,,9999,0,0,3,FEW 15   BKN 25   BKN 100,1,28,1,21,1012,RJTF 200400Z 02004KT 300V070 9999 FEW015 BKN025 BKN100 28/21     Q1012 RMK 2CU015 6CU025 7AC100 A2990=
20170820_050000.002,0,RJTF,,,,0,20170820050000,-1,-1,-1,-1,999,-1,2,-1,-1,-1,-1,,9999,0,0,3,FEW 20   BKN 30   BKN -9999,1,28,1,21,1012,RJTF 200500Z VRB02KT 9999 FEW020 BKN030 BKN/// 28/21 Q1012 RMK     1CU020 6CU030 A2989=
20170820_060000.002,0,RJTF,,,,0,20170820060000,-1,-1,-1,-1,999,-1,2,-1,-1,-1,-1,,9999,0,0,3,FEW 20   SCT 30   BKN 50,1,29,1,20,1012,RJTF 200600Z VRB02KT 9999 FEW020 SCT030 BKN050 29/20 Q1012 RMK     1CU020 4CU030 5SC050 A2988=
20170820_070000.002,0,RJTF,,,,0,20170820070000,-1,-1,-1,-1,120,-1,3,-1,-1,60,180,,9999,0,0,3,FEW 20   SCT 30   BKN 50,1,29,1,20,1011,RJTF 200700Z 12003KT 060V180 9999 FEW020 SCT030 BKN050 29/20     Q1011 RMK 1CU020 4CU030 6SC050 A2988=
20170820_080000.002,0,RJTF,,,,0,20170820080000,-1,-1,-1,-1,999,-1,2,-1,-1,-1,-1,,9999,0,0,3,FEW 20   SCT 30   BKN 50,1,29,1,20,1012,RJTF 200800Z VRB02KT 9999 FEW020 SCT030 BKN050 29/20 Q1012 RMK     1CU020 4CU030 7SC050 A2989=
20170820_090000.002,0,RJTF,,,,0,20170820090000,-1,-1,-1,-1,-1,-1,-1,-1,-1,-1,-1,,-1,0,0,0,,0,-1,0,-1,-1,RJTF 200900Z NIL=
20170820_233000.001,0,RJTF,,,,0,20170820230000,-1,-1,-1,-1,999,-1,1,-1,-1,-1,-1,,9999,0,0,2,SCT 14   BKN 30,1,27,1,21,1014,RJTF 202330Z VRB01KT 9999 SCT014 BKN030 27/21 Q1014 RMK 3CU014     7SC030 A2997=
20170821_000000.002,0,RJTF,,,,0,20170821000000,-1,-1,-1,-1,999,-1,2,-1,-1,-1,-1,,9999,0,0,3,FEW 15   SCT 20   BKN 30,1,27,1,21,1014,RJTF 210000Z VRB02KT 9999 FEW015 SCT020 BKN030 27/21 Q1014 RMK     1CU015 3CU020 6SC030 A2997=
20170821_010000.003,0,RJTF,,,,0,20170821010000,-1,-1,-1,-1,40,-1,3,-1,-1,350,90,,9999,0,0,3,FEW 15   SCT 20   BKN 30,1,27,1,22,1014,RJTF 210100Z 04003KT 350V090 9999 FEW015 SCT020 BKN030 27/22     Q1014 RMK 1CU015 3CU020 7SC030 A2996=
20170821_020000.003,0,RJTF,,,,0,20170821020000,-1,-1,-1,-1,999,-1,2,-1,-1,-1,-1,,9999,0,0,3,FEW 20   SCT 30   BKN 40,1,29,1,21,1014,RJTF 210200Z VRB02KT 9999 FEW020 SCT030 BKN040 29/21 Q1014 RMK     1CU020 3CU030 5SC040 A2994=
20170821_030000.003,0,RJTF,,,,0,20170821030000,-1,-1,-1,-1,20,-1,4,-1,-1,340,60,,9999,0,0,3,SCT 25   BKN 50   BKN -9999,1,30,1,22,1013,RJTF 210300Z 02004KT 340V060 9999 SCT025 BKN050 BKN/// 30/22     Q1013 RMK 3CU025 5SC050 A2993=
20170821_040000.002,0,RJTF,,,,0,20170821040000,-1,-1,-1,-1,120,-1,5,-1,-1,70,180,,9999,0,0,3,FEW 20   SCT 30   BKN 40,1,30,1,21,1013,RJTF 210400Z 12005KT 070V180 9999 FEW020 SCT030 BKN040 30/21     Q1013 RMK 1CU020 3CU030 5SC040 A2992=
20170821_050000.003,0,RJTF,,,,0,20170821050000,-1,-1,-1,-1,140,-1,5,-1,-1,40,210,,9999,0,0,3,FEW 20   BKN 35   BKN -9999,1,31,1,21,1012,RJTF 210500Z 14005KT 040V210 9999 FEW020 BKN035 BKN/// 31/21     Q1012 RMK 1CU020 5CU035 A2991=
20170821_060000.002,0,RJTF,,,,0,20170821060000,-1,-1,-1,-1,140,-1,5,-1,-1,80,220,,9999,0,0,3,FEW 20   SCT 35   BKN -9999,1,32,1,21,1012,RJTF 210600Z 14005KT 080V220 9999 FEW020 SCT035 BKN/// 32/21     Q1012 RMK 1CU020 4CU035 A2989=
20170821_070000.002,0,RJTF,,,,0,20170821070000,-1,-1,-1,-1,180,-1,6,-1,-1,150,210,,9999,0,0,3,FEW 20   SCT 35   BKN -9999,1,31,1,21,1012,RJTF 210700Z 18006KT 150V210 9999 FEW020 SCT035 BKN/// 31/21     Q1012 RMK 1CU020 3CU035 A2990=
20170821_080000.002,0,RJTF,,,,0,20170821080000,-1,-1,-1,-1,180,-1,7,-1,-1,150,230,,9999,0,0,3,FEW 20   SCT 30   BKN -9999,1,30,1,20,1013,RJTF 210800Z 18007KT 150V230 9999 FEW020 SCT030 BKN/// 30/20     Q1013 RMK 1CU020 3CU030 A2992=
20170821_090000.002,0,RJTF,,,,0,20170821090000,-1,-1,-1,-1,-1,-1,-1,-1,-1,-1,-1,,-1,0,0,0,,0,-1,0,-1,-1,RJTF 210900Z NIL=
20170821_233000.001,0,RJTF,,,,0,20170821230000,-1,-1,-1,-1,160,-1,3,-1,-1,40,210,,7000,0,0,3,FEW 15   SCT 170   BKN -9999,1,28,1,22,1015,RJTF 212330Z 16003KT 040V210 7000 FEW015 SCT170 BKN/// 28/22     Q1015 RMK 1CU015 3AC170 A2997=
20170822_000000.002,0,RJTF,,,,0,20170822000000,-1,-1,-1,-1,210,-1,3,-1,-1,130,270,,7000,0,0,3,FEW 15   SCT 170   BKN -9999,1,29,1,23,1015,RJTF 220000Z 21003KT 130V270 7000 FEW015 SCT170 BKN/// 29/23     Q1015 RMK 2CU015 3AC170 A2997=
20170822_010000.002,0,RJTF,,,,0,20170822010000,-1,-1,-1,-1,190,-1,3,-1,-1,130,290,,9999,0,0,3,FEW 15   SCT 20   BKN 180,1,29,1,22,1014,RJTF 220100Z 19003KT 130V290 9999 FEW015 SCT020 BKN180 29/22     Q1014 RMK 1CU015 3CU020 7AC180 A2996=
20170822_020000.002,0,RJTF,,,,0,20170822020000,-1,-1,-1,-1,200,-1,5,-1,-1,120,270,,9999,0,0,3,FEW 15   BKN 25   BKN -9999,1,30,1,22,1014,RJTF 220200Z 20005KT 120V270 9999 FEW015 BKN025 BKN/// 30/22     Q1014 RMK 1CU015 5CU025 A2995=
20170822_030000.002,0,RJTF,,,,0,20170822030000,-1,-1,-1,-1,160,-1,8,-1,-1,130,210,,9999,0,0,3,FEW 15   BKN 25   BKN -9999,1,31,1,23,1013,RJTF 220300Z 16008KT 130V210 9999 FEW015 BKN025 BKN/// 31/23     Q1013 RMK 1CU015 6CU025 A2992=
20170822_040000.002,0,RJTF,,,,0,20170822040000,-1,-1,-1,-1,180,-1,8,-1,-1,140,230,,9999,0,0,3,FEW 15   BKN 25   BKN -9999,1,31,1,23,1012,RJTF 220400Z 18008KT 140V230 9999 FEW015 BKN025 BKN/// 31/23     Q1012 RMK 1CU015 5CU025 A2991=
20170822_050000.002,0,RJTF,,,,0,20170822050000,-1,-1,-1,-1,180,-1,8,-1,-1,140,210,,9999,0,0,3,FEW 15   SCT 25   BKN -9999,1,31,1,23,1012,RJTF 220500Z 18008KT 140V210 9999 FEW015 SCT025 BKN/// 31/23     Q1012 RMK 1CU015 3CU025 A2989=
20170822_060000.002,0,RJTF,,,,0,20170822060000,-1,-1,-1,-1,180,-1,7,-1,-1,150,220,,9999,0,0,2,FEW 25   BKN -9999,1,31,1,24,1011,RJTF 220600Z 18007KT 150V220 9999 FEW025 BKN/// 31/24 Q1011     RMK 2CU025 A2988=
20170822_070000.002,0,RJTF,,,,0,20170822070000,-1,-1,-1,-1,180,-1,8,-1,-1,-1,-1,,9999,0,0,2,FEW 20   BKN -9999,1,31,1,24,1011,RJTF 220700Z 18008KT 9999 FEW020 BKN/// 31/24 Q1011 RMK 1CU020     A2986=
20170822_080000.002,0,RJTF,,,,0,20170822080000,-1,-1,-1,-1,170,-1,6,-1,-1,130,210,,9999,0,0,2,FEW 20   BKN -9999,1,30,1,24,1010,RJTF 220800Z 17006KT 130V210 9999 FEW020 BKN/// 30/24 Q1010     RMK 1CU020 A2985=
20170822_090000.002,0,RJTF,,,,0,20170822090000,-1,-1,-1,-1,-1,-1,-1,-1,-1,-1,-1,,-1,0,0,0,,0,-1,0,-1,-1,RJTF 220900Z NIL=
20170822_233000.001,0,RJTF,,,,0,20170822230000,-1,-1,-1,-1,999,-1,2,-1,-1,-1,-1,,9999,0,0,2,FEW 25   SCT -9999,1,30,1,23,1011,RJTF 222330Z VRB02KT 9999 FEW025 SCT/// 30/23 Q1011 RMK 1CU025     A2986=
20170823_000000.002,0,RJTF,,,,0,20170823000000,-1,-1,-1,-1,999,-1,1,-1,-1,-1,-1,,9999,0,0,2,FEW 25   SCT 150,1,31,1,22,1011,RJTF 230000Z VRB01KT 9999 FEW025 SCT150 31/22 Q1011 RMK 1CU025     4AC150 A2987=
20170823_010000.002,0,RJTF,,,,0,20170823010000,-1,-1,-1,-1,999,-1,2,-1,-1,-1,-1,,9999,0,0,3,FEW 25   SCT 130   BKN 160,1,32,1,22,1011,RJTF 230100Z VRB02KT 9999 FEW025 SCT130 BKN160 32/22 Q1011 RMK     1CU025 3AC130 5AC160 A2986=
20170823_020000.002,0,RJTF,,,,0,20170823020000,-1,-1,-1,-1,90,-1,3,-1,-1,40,150,,9999,0,0,3,FEW 30   SCT 130   BKN 170,1,33,1,21,1010,RJTF 230200Z 09003KT 040V150 9999 FEW030 SCT130 BKN170 33/21     Q1010 RMK 1CU030 3AC130 5AC170 A2984=
20170823_030000.002,0,RJTF,,,,0,20170823030000,-1,-1,-1,-1,20,-1,5,-1,-1,340,60,,9999,0,0,3,FEW 30   SCT 90   BKN 130,1,33,1,20,1010,RJTF 230300Z 02005KT 340V060 9999 FEW030 SCT090 BKN130 33/20     Q1010 RMK 1CU030 3AC090 5AC130 A2983=
20170823_040000.002,0,RJTF,,,,0,20170823040000,-1,-1,-1,-1,340,-1,8,-1,-1,290,10,,9999,0,0,3,FEW 30   SCT 90   BKN 140,1,33,1,20,1009,RJTF 230400Z 34008KT 290V010 9999 FEW030 SCT090 BKN140 33/20     Q1009 RMK 1CU030 3AC090 5AC140 A2981=
20170823_050000.002,0,RJTF,,,,0,20170823050000,-1,-1,-1,-1,350,-1,5,-1,-1,300,20,,9999,0,0,3,FEW 30   SCT 90   BKN 120,1,33,1,21,1009,RJTF 230500Z 35005KT 300V020 9999 FEW030 SCT090 BKN120 33/21     Q1009 RMK 1CU030 3AC090 6AC120 A2980=
20170823_060000.002,0,RJTF,,,,0,20170823060000,-1,-1,-1,-1,10,-1,6,-1,-1,330,30,,9999,0,0,3,FEW 30   SCT 90   BKN 150,1,34,1,21,1008,RJTF 230600Z 01006KT 330V030 9999 FEW030 SCT090 BKN150 34/21     Q1008 RMK 2CU030 3AC090 6AC150 A2979=
20170823_070000.002,0,RJTF,,,,0,20170823070000,-1,-1,-1,-1,10,-1,3,-1,-1,310,60,,9999,0,0,3,FEW 30   SCT 140   BKN -9999,1,34,1,19,1008,RJTF 230700Z 01003KT 310V060 9999 FEW030 SCT140 BKN/// 34/19     Q1008 RMK 2CU030 3AC140 A2979=
20170823_080000.002,0,RJTF,,,,0,20170823080000,-1,-1,-1,-1,360,-1,3,-1,-1,-1,-1,,9999,0,0,3,FEW 30   SCT 80   BKN -9999,1,32,1,22,1008,RJTF 230800Z 36003KT 9999 FEW030 SCT080 BKN/// 32/22 Q1008 RMK     2CU030 3AC080 A2979=
20170823_090000.002,0,RJTF,,,,0,20170823090000,-1,-1,-1,-1,-1,-1,-1,-1,-1,-1,-1,,-1,0,0,0,,0,-1,0,-1,-1,RJTF 230900Z NIL=
20170823_233000.001,0,RJTF,,,,0,20170823230000,-1,-1,-1,-1,999,-1,1,-1,-1,-1,-1,,9999,0,0,3,FEW 20   BKN 110   BKN 150,1,29,1,23,1009,RJTF 232330Z VRB01KT 9999 FEW020 BKN110 BKN150 29/23 Q1009 RMK     1CU020 5AC110 7AC150 A2981=
20170824_000000.002,0,RJTF,,,,0,20170824000000,-1,-1,-1,-1,999,-1,2,-1,-1,-1,-1,,9999,0,0,3,FEW 20   SCT 110   BKN 140,1,29,1,23,1009,RJTF 240000Z VRB02KT 9999 FEW020 SCT110 BKN140 29/23 Q1009 RMK     1CU020 3AC110 7AC140 A2980=
20170824_010000.003,0,RJTF,,,,0,20170824010000,-1,-1,-1,-1,180,-1,4,-1,-1,-1,-1,,9999,0,0,3,FEW 30   SCT 130   BKN 160,1,31,1,23,1008,RJTF 240100Z 18004KT 9999 FEW030 SCT130 BKN160 31/23 Q1008 RMK     1CU030 3AC130 5AC160 A2978=
20170824_020000.002,0,RJTF,,,,0,20170824020000,-1,-1,-1,-1,999,-1,3,-1,-1,-1,-1,,9999,0,0,2,FEW 30   BKN 160,1,32,1,21,1007,RJTF 240200Z VRB03KT 9999 FEW030 BKN160 32/21 Q1007 RMK 1CU030     5AC160 A2975=
20170824_030000.002,0,RJTF,,,,0,20170824030000,-1,-1,-1,-1,180,-1,8,-1,-1,140,240,,9999,0,0,2,FEW 30   SCT 170,1,34,1,20,1006,RJTF 240300Z 18008KT 140V240 9999 FEW030 SCT170 34/20 Q1006     RMK 1CU030 4AC170 A2972=
20170824_040000.002,0,RJTF,,,,0,20170824040000,-1,-1,-1,-1,210,-1,9,-1,-1,180,250,,9999,0,0,2,FEW 30   SCT 180,1,35,1,19,1006,RJTF 240400Z 21009KT 180V250 9999 FEW030 SCT180 35/19 Q1006     RMK 1CU030 4AC180 A2971=
20170824_050000.002,0,RJTF,,,,0,20170824050000,-1,-1,-1,-1,180,-1,9,-1,-1,150,210,,9999,0,0,2,FEW 30   SCT -9999,1,35,1,19,1005,RJTF 240500Z 18009KT 150V210 9999 FEW030 SCT/// 35/19 Q1005     RMK 1CU030 A2969=
20170824_060000.002,0,RJTF,,,,0,20170824060000,-1,-1,-1,-1,200,-1,8,-1,-1,170,230,,9999,0,0,2,FEW 30   SCT -9999,1,35,1,19,1005,RJTF 240600Z 20008KT 170V230 9999 FEW030 SCT/// 35/19 Q1005     RMK 1CU030 A2968=
20170824_070000.002,0,RJTF,,,,0,20170824070000,-1,-1,-1,-1,180,-1,10,-1,-1,-1,-1,,9999,0,0,2,FEW 30   SCT -9999,1,34,1,19,1004,RJTF 240700Z 18010KT 9999 FEW030 SCT/// 34/19 Q1004 RMK 1CU030     A2967=
20170824_080000.003,0,RJTF,,,,0,20170824080000,-1,-1,-1,-1,190,-1,7,-1,-1,160,230,,9999,0,0,2,FEW 30   SCT -9999,1,33,1,19,1004,RJTF 240800Z 19007KT 160V230 9999 FEW030 SCT/// 33/19 Q1004     RMK 1CU030 A2966=
20170824_090000.002,0,RJTF,,,,0,20170824090000,-1,-1,-1,-1,-1,-1,-1,-1,-1,-1,-1,,-1,0,0,0,,0,-1,0,-1,-1,RJTF 240900Z NIL=
20170824_090000.006,0,RJTF,,,,0,20170824090000,-1,-1,-1,-1,-1,-1,-1,-1,-1,-1,-1,,-1,0,0,0,,0,-1,0,-1,-1,RJTF 240900Z NIL=
20170824_233000.001,0,RJTF,,,,0,20170824230000,-1,-1,-1,-1,999,-1,1,-1,-1,-1,-1,,9999,0,0,3,FEW 30   SCT 100   BKN -9999,1,30,1,21,1003,RJTF 242330Z VRB01KT 9999 FEW030 SCT100 BKN/// 30/21 Q1003 RMK     1CU030 4AC100 A2963=
20170825_000000.002,0,RJTF,,,,0,20170825000000,-1,-1,-1,-1,999,-1,2,-1,-1,-1,-1,,9999,0,0,3,FEW 30   SCT 100   BKN -9999,1,32,1,23,1003,RJTF 250000Z VRB02KT 9999 FEW030 SCT100 BKN/// 32/23 Q1003 RMK     1CU030 4AC100 A2964=
20170825_010000.003,0,RJTF,,,,0,20170825010000,-1,-1,-1,-1,999,-1,2,-1,-1,-1,-1,,9999,0,0,3,FEW 30   SCT 150   BKN -9999,1,34,1,22,1003,RJTF 250100Z VRB02KT 9999 FEW030 SCT150 BKN/// 34/22 Q1003 RMK     1CU030 3AC150 A2963=
20170825_020000.002,0,RJTF,,,,0,20170825020000,-1,-1,-1,-1,350,-1,4,-1,-1,320,30,,9999,0,0,3,FEW 30   SCT 150   BKN -9999,1,34,1,21,1003,RJTF 250200Z 35004KT 320V030 9999 FEW030 SCT150 BKN/// 34/21     Q1003 RMK 1CU030 3AC150 A2963=
20170825_030000.002,0,RJTF,,,,0,20170825030000,-1,-1,-1,-1,360,-1,5,-1,-1,330,40,,9999,0,0,3,FEW 30   SCT 120   BKN -9999,1,34,1,22,1003,RJTF 250300Z 36005KT 330V040 9999 FEW030 SCT120 BKN/// 34/22     Q1003 RMK 1CU030 4AC120 A2964=
20170825_040000.002,0,RJTF,,,,0,20170825040000,-1,-1,-1,-1,10,-1,8,-1,-1,330,40,,9999,0,0,3,FEW 30   BKN 120   BKN -9999,1,34,1,21,1003,RJTF 250400Z 01008KT 330V040 9999 FEW030 BKN120 BKN/// 34/21     Q1003 RMK 1CU030 6AC120 A2964=
20170825_050000.003,0,RJTF,,,,0,20170825050000,-1,-1,-1,-1,30,-1,9,-1,-1,-1,-1,,9999,0,0,3,FEW 30   BKN 100   BKN -9999,1,34,1,20,1003,RJTF 250500Z 03009KT 9999 FEW030 BKN100 BKN/// 34/20 Q1003 RMK     1CU030 5AC100 A2964=
20170825_060000.002,0,RJTF,,,,0,20170825060000,-1,-1,-1,-1,340,-1,8,-1,-1,-1,-1,,9999,0,0,3,FEW 30   SCT 100   BKN 150,1,33,1,20,1003,RJTF 250600Z 34008KT 9999 FEW030 SCT100 BKN150 33/20 Q1003 RMK     1CU030 3AC100 5AC150 A2963=
20170825_070000.002,0,RJTF,,,,0,20170825070000,-1,-1,-1,-1,350,-1,6,-1,-1,-1,-1,,9999,0,0,3,FEW 30   BKN 150   BKN -9999,1,32,1,22,1004,RJTF 250700Z 35006KT 9999 FEW030 BKN150 BKN/// 32/22 Q1004 RMK     1CU030 6AC150 A2965=
20170825_080000.002,0,RJTF,,,,0,20170825080000,-1,-1,-1,-1,360,-1,5,-1,-1,320,30,,9999,0,0,3,FEW 30   BKN 150   BKN -9999,1,32,1,22,1004,RJTF 250800Z 36005KT 320V030 9999 FEW030 BKN150 BKN/// 32/22     Q1004 RMK 1CU030 6AC150 A2966=
20170825_090000.002,0,RJTF,,,,0,20170825090000,-1,-1,-1,-1,-1,-1,-1,-1,-1,-1,-1,,-1,0,0,0,,0,-1,0,-1,-1,RJTF 250900Z NIL=
20170825_233000.001,0,RJTF,,,,0,20170825230000,-1,-1,-1,-1,10,-1,5,-1,-1,340,50,,9999,0,0,3,FEW 20   SCT 25   BKN -9999,1,29,1,23,1006,RJTF 252330Z 01005KT 340V050 9999 FEW020 SCT025 BKN/// 29/23     Q1006 RMK 1CU020 3CU025 A2972=
20170826_000000.002,0,RJTF,,,,0,20170826000000,-1,-1,-1,-1,340,-1,7,-1,-1,300,10,,9999,0,0,3,FEW 20   SCT 25   BKN -9999,1,30,1,23,1007,RJTF 260000Z 34007KT 300V010 9999 FEW020 SCT025 BKN/// 30/23     Q1007 RMK 1CU020 3CU025 A2974=
20170826_010000.003,0,RJTF,,,,0,20170826010000,-1,-1,-1,-1,350,-1,7,-1,-1,310,60,,9999,0,0,3,FEW 25   SCT 100   BKN -9999,1,32,1,23,1007,RJTF 260100Z 35007KT 310V060 9999 FEW025 SCT100 BKN/// 32/23     Q1007 RMK 2CU025 4AC100 A2975=
20170826_020000.002,0,RJTF,,,,0,20170826020000,-1,-1,-1,-1,330,-1,8,-1,-1,280,360,,9999,0,0,2,FEW 25   SCT 150,1,32,1,21,1007,RJTF 260200Z 33008KT 280V360 9999 FEW025 SCT150 32/21 Q1007     RMK 1CU025 3AC150 A2974=
20170826_030000.002,0,RJTF,,,,0,20170826030000,-1,-1,-1,-1,10,-1,10,-1,-1,330,40,,9999,0,0,2,FEW 25   BKN 150,1,33,1,22,1007,RJTF 260300Z 01010KT 330V040 9999 FEW025 BKN150 33/22 Q1007     RMK 2CU025 5AC150 A2974=
20170826_040000.002,0,RJTF,,,,0,20170826040000,-1,-1,-1,-1,360,-1,8,-1,-1,-1,-1,,9999,0,1,3,SCT 25   BKN 50   BKN 100,1,31,1,21,1007,RJTF 260400Z 36008KT 9999 -SHRA SCT025 BKN050 BKN100 31/21     Q1007 RMK 3CU025 5SC050 6AC100 A2975=
20170826_050000.002,0,RJTF,,,,0,20170826050000,-1,-1,-1,-1,350,-1,5,-1,-1,-1,-1,,9999,0,0,3,FEW 25   SCT 50   BKN 120,1,31,1,20,1007,RJTF 260500Z 35005KT 9999 FEW025 SCT050 BKN120 31/20 Q1007 RMK     2CU025 3SC050 6AC120 A2975=
20170826_060000.002,0,RJTF,,,,0,20170826060000,-1,-1,-1,-1,350,-1,5,-1,-1,310,20,,9999,0,0,2,FEW 25   BKN 50,1,31,1,18,1007,RJTF 260600Z 35005KT 310V020 9999 FEW025 BKN050 31/18 Q1007     RMK 2CU025 7SC050 A2976=
20170826_070000.003,0,RJTF,,,,0,20170826070000,-1,-1,-1,-1,350,-1,5,-1,-1,-1,-1,,9999,0,0,2,FEW 25   BKN 50,1,31,1,19,1008,RJTF 260700Z 35005KT 9999 FEW025 BKN050 31/19 Q1008 RMK 2CU025     7SC050 A2977=
20170826_080000.002,0,RJTF,,,,0,20170826080000,-1,-1,-1,-1,10,-1,4,-1,-1,-1,-1,,9999,0,0,3,FEW 25   BKN 30   BKN 50,1,31,1,22,1008,RJTF 260800Z 01004KT 9999 FEW025 BKN030 BKN050 31/22 Q1008 RMK     1CU025 5CU030 6SC050 A2978=
20170826_090000.003,0,RJTF,,,,0,20170826090000,-1,-1,-1,-1,-1,-1,-1,-1,-1,-1,-1,,-1,0,0,0,,0,-1,0,-1,-1,RJTF 260900Z NIL=
20170826_233000.001,0,RJTF,,,,0,20170826230000,-1,-1,-1,-1,30,-1,3,-1,-1,330,100,,9999,0,0,3,FEW 30   SCT 60   BKN -9999,1,26,1,17,1017,RJTF 262330Z 03003KT 330V100 9999 FEW030 SCT060 BKN/// 26/17     Q1017 RMK 1CU030 4SC060 A3003=
20170827_000000.003,0,RJTF,,,,0,20170827000000,-1,-1,-1,-1,40,-1,5,-1,-1,360,90,,9999,0,0,3,FEW 30   SCT 60   BKN -9999,1,27,1,16,1017,RJTF 270000Z 04005KT 360V090 9999 FEW030 SCT060 BKN/// 27/16     Q1017 RMK 1CU030 3SC060 A3004=
20170827_010000.002,0,RJTF,,,,0,20170827010000,-1,-1,-1,-1,50,-1,4,-1,-1,300,100,,9999,0,0,3,FEW 30   SCT 60   BKN -9999,1,27,1,16,1017,RJTF 270100Z 05004KT 300V100 9999 FEW030 SCT060 BKN/// 27/16     Q1017 RMK 2CU030 4SC060 A3004=
20170827_020000.002,0,RJTF,,,,0,20170827020000,-1,-1,-1,-1,80,-1,5,-1,-1,40,140,,9999,0,0,3,FEW 25   SCT 35   BKN -9999,1,28,1,18,1016,RJTF 270200Z 08005KT 040V140 9999 FEW025 SCT035 BKN/// 28/18     Q1016 RMK 1CU025 3CU035 A3002=
20170827_030000.003,0,RJTF,,,,0,20170827030000,-1,-1,-1,-1,60,-1,5,-1,-1,20,130,,9999,0,0,3,FEW 25   SCT 35   BKN 45,1,29,1,18,1016,RJTF 270300Z 06005KT 020V130 9999 FEW025 SCT035 BKN045 29/18     Q1016 RMK 1CU025 3CU035 5SC045 A3001=
20170827_040000.002,0,RJTF,,,,0,20170827040000,-1,-1,-1,-1,40,-1,6,-1,-1,350,110,,9999,0,0,3,FEW 30   SCT 40   BKN 60,1,29,1,18,1015,RJTF 270400Z 04006KT 350V110 9999 FEW030 SCT040 BKN060 29/18     Q1015 RMK 1CU030 3SC040 6SC060 A3000=
20170827_050000.002,0,RJTF,,,,0,20170827050000,-1,-1,-1,-1,100,-1,4,-1,-1,20,190,,9999,0,0,3,FEW 30   SCT 40   BKN 60,1,29,1,18,1015,RJTF 270500Z 10004KT 020V190 9999 FEW030 SCT040 BKN060 29/18     Q1015 RMK 1CU030 3SC040 5SC060 A2999=
20170827_060000.003,0,RJTF,,,,0,20170827060000,-1,-1,-1,-1,120,-1,8,-1,-1,80,160,,9999,0,0,3,FEW 30   SCT 40   BKN 60,1,29,1,16,1015,RJTF 270600Z 12008KT 080V160 9999 FEW030 SCT040 BKN060 29/16     Q1015 RMK 1CU030 3SC040 5SC060 A2999=
20170827_070000.003,0,RJTF,,,,0,20170827070000,-1,-1,-1,-1,130,-1,9,-1,-1,70,150,,9999,0,0,3,FEW 30   SCT 45   BKN 70,1,29,1,17,1015,RJTF 270700Z 13009KT 070V150 9999 FEW030 SCT045 BKN070 29/17     Q1015 RMK 1CU030 3SC045 5AC070 A3000=
20170827_080000.003,0,RJTF,,,,0,20170827080000,-1,-1,-1,-1,140,-1,8,-1,-1,-1,-1,,9999,0,0,3,FEW 30   SCT 50   BKN -9999,1,28,1,15,1015,RJTF 270800Z 14008KT 9999 FEW030 SCT050 BKN/// 28/15 Q1015 RMK     1CU030 3SC050 A3000=
20170827_090000.003,0,RJTF,,,,0,20170827090000,-1,-1,-1,-1,-1,-1,-1,-1,-1,-1,-1,,-1,0,0,0,,0,-1,0,-1,-1,RJTF 270900Z NIL=
20170827_233000.001,0,RJTF,,,,0,20170827230000,-1,-1,-1,-1,350,-1,3,-1,-1,290,30,,9999,0,0,2,FEW 20   BKN -9999,1,25,1,17,1016,RJTF 272330Z 35003KT 290V030 9999 FEW020 BKN/// 25/17 Q1016     RMK 1CU020 A3001=
20170828_000000.003,0,RJTF,,,,0,20170828000000,-1,-1,-1,-1,350,-1,4,-1,-1,280,30,,9999,0,0,2,FEW 20   BKN -9999,1,26,1,18,1016,RJTF 280000Z 35004KT 280V030 9999 FEW020 BKN/// 26/18 Q1016     RMK 1CU020 A3001=
20170828_010000.002,0,RJTF,,,,0,20170828010000,-1,-1,-1,-1,20,-1,3,-1,-1,340,100,,9999,0,0,3,FEW 20   SCT 35   BKN -9999,1,27,1,18,1015,RJTF 280100Z 02003KT 340V100 9999 FEW020 SCT035 BKN/// 27/18     Q1015 RMK 1CU020 3SC035 A2999=
20170828_020000.002,0,RJTF,,,,0,20170828020000,-1,-1,-1,-1,999,-1,3,-1,-1,-1,-1,,9999,0,0,2,FEW 25   BKN -9999,1,28,1,18,1014,RJTF 280200Z VRB03KT 9999 FEW025 BKN/// 28/18 Q1014 RMK 1CU025     A2997=
20170828_030000.002,0,RJTF,,,,0,20170828030000,-1,-1,-1,-1,999,-1,3,-1,-1,-1,-1,,9999,0,0,2,FEW 30   BKN -9999,1,28,1,18,1013,RJTF 280300Z VRB03KT 9999 FEW030 BKN/// 28/18 Q1013 RMK 1CU030     A2994=
20170828_040000.003,0,RJTF,,,,0,20170828040000,-1,-1,-1,-1,190,-1,4,-1,-1,130,240,,9999,0,0,2,FEW 30   BKN -9999,1,30,1,19,1013,RJTF 280400Z 19004KT 130V240 9999 FEW030 BKN/// 30/19 Q1013     RMK 1CU030 A2992=
20170828_050000.002,0,RJTF,,,,0,20170828050000,-1,-1,-1,-1,170,-1,5,-1,-1,140,230,,9999,0,0,2,FEW 30   BKN -9999,1,31,1,19,1012,RJTF 280500Z 17005KT 140V230 9999 FEW030 BKN/// 31/19 Q1012     RMK 1CU030 A2988=
20170828_060000.002,0,RJTF,,,,0,20170828060000,-1,-1,-1,-1,170,-1,7,-1,-1,110,210,,9999,0,0,3,FEW 30   SCT 45   BKN -9999,1,31,1,19,1011,RJTF 280600Z 17007KT 110V210 9999 FEW030 SCT045 BKN/// 31/19     Q1011 RMK 1CU030 3SC045 A2987=
20170828_070000.002,0,RJTF,,,,0,20170828070000,-1,-1,-1,-1,160,-1,9,-1,-1,120,190,,9999,0,0,3,FEW 30   SCT 40   BKN -9999,1,31,1,20,1011,RJTF 280700Z 16009KT 120V190 9999 FEW030 SCT040 BKN/// 31/20     Q1011 RMK 1CU030 3SC040 A2987=
20170828_080000.002,0,RJTF,,,,0,20170828080000,-1,-1,-1,-1,180,-1,8,-1,-1,-1,-1,,9999,0,0,2,FEW 30   BKN -9999,1,30,1,19,1011,RJTF 280800Z 18008KT 9999 FEW030 BKN/// 30/19 Q1011 RMK 2CU030     A2988=
20170828_090000.002,0,RJTF,,,,0,20170828090000,-1,-1,-1,-1,-1,-1,-1,-1,-1,-1,-1,,-1,0,0,0,,0,-1,0,-1,-1,RJTF 280900Z NIL=
20170828_233000.001,0,RJTF,,,,0,20170828230000,-1,-1,-1,-1,220,-1,4,-1,-1,190,260,,9999,0,0,3,SCT 15   BKN 35   BKN 170,1,28,1,23,1010,RJTF 282330Z 22004KT 190V260 9999 SCT015 BKN035 BKN170 28/23     Q1010 RMK 4CU015 5SC035 7AC170 A2984=
20170829_000000.003,0,RJTF,,,,0,20170829000000,-1,-1,-1,-1,220,-1,6,-1,-1,180,260,,9999,0,0,3,FEW 15   SCT 25   BKN 170,1,29,1,23,1010,RJTF 290000Z 22006KT 180V260 9999 FEW015 SCT025 BKN170 29/23     Q1010 RMK 2CU015 4SC025 6AC170 A2984=
20170829_010000.002,0,RJTF,,,,0,20170829010000,-1,-1,-1,-1,200,-1,9,-1,-1,150,240,,9999,0,0,2,SCT 20   BKN -9999,1,30,1,23,1009,RJTF 290100Z 20009KT 150V240 9999 SCT020 BKN/// 30/23 Q1009     RMK 3CU020 A2982=
20170829_020000.002,0,RJTF,,,,0,20170829020000,-1,-1,-1,-1,200,-1,11,-1,-1,160,230,,9999,0,0,2,FEW 25   BKN -9999,1,31,1,23,1009,RJTF 290200Z 20011KT 160V230 9999 FEW025 BKN/// 31/23 Q1009     RMK 2CU025 A2980=
20170829_030000.002,0,RJTF,,,,0,20170829030000,-1,-1,-1,-1,190,-1,11,-1,-1,160,250,,9999,0,0,2,SCT 30   BKN -9999,1,32,1,23,1008,RJTF 290300Z 19011KT 160V250 9999 SCT030 BKN/// 32/23 Q1008     RMK 3CU030 A2979=
20170829_040000.002,0,RJTF,,,,0,20170829040000,-1,-1,-1,-1,190,-1,10,-1,-1,160,230,,9999,0,0,2,FEW 30   BKN -9999,1,32,1,22,1008,RJTF 290400Z 19010KT 160V230 9999 FEW030 BKN/// 32/22 Q1008     RMK 2CU030 A2978=
20170829_050000.002,0,RJTF,,,,0,20170829050000,-1,-1,-1,-1,190,-1,11,-1,-1,160,220,,9999,0,0,3,FEW 30   SCT 60   BKN -9999,1,32,1,22,1008,RJTF 290500Z 19011KT 160V220 9999 FEW030 SCT060 BKN/// 32/22     Q1008 RMK 1CU030 3SC060 A2977=
20170829_060000.002,0,RJTF,,,,0,20170829060000,-1,-1,-1,-1,200,-1,8,-1,-1,160,250,,9999,0,0,2,FEW 30   BKN -9999,1,33,1,22,1007,RJTF 290600Z 20008KT 160V250 9999 FEW030 BKN/// 33/22 Q1007     RMK 1CU030 A2975=
20170829_070000.002,0,RJTF,,,,0,20170829070000,-1,-1,-1,-1,180,-1,10,-1,-1,160,220,,9999,0,0,2,FEW 30   BKN -9999,1,32,1,22,1007,RJTF 290700Z 18010KT 160V220 9999 FEW030 BKN/// 32/22 Q1007     RMK 1CU030 A2974=
20170829_080000.002,0,RJTF,,,,0,20170829080000,-1,-1,-1,-1,170,-1,10,-1,-1,-1,-1,,9999,0,0,2,FEW 30   SCT -9999,1,31,1,23,1007,RJTF 290800Z 17010KT 9999 FEW030 SCT/// 31/23 Q1007 RMK 1CU030     A2975=
20170829_090000.002,0,RJTF,,,,0,20170829090000,-1,-1,-1,-1,-1,-1,-1,-1,-1,-1,-1,,-1,0,0,0,,0,-1,0,-1,-1,RJTF 290900Z NIL=
20170829_233000.001,0,RJTF,,,,0,20170829230000,-1,-1,-1,-1,350,-1,5,-1,-1,290,50,,9999,0,0,2,FEW 10   SCT 25,1,30,1,23,1009,RJTF 292330Z 35005KT 290V050 9999 FEW010 SCT025 30/23 Q1009     RMK 2ST010 4CU025 A2979=
20170830_000000.002,0,RJTF,,,,0,20170830000000,-1,-1,-1,-1,350,-1,4,-1,-1,290,20,,9999,0,0,3,FEW 15   SCT 25   BKN 35,1,30,1,24,1008,RJTF 300000Z 35004KT 290V020 9999 FEW015 SCT025 BKN035 30/24     Q1008 RMK 2CU015 3CU025 5SC035 A2979=
20170830_010000.002,0,RJTF,,,,0,20170830010000,-1,-1,-1,-1,999,-1,2,-1,-1,-1,-1,,9999,0,0,2,FEW 30   SCT 40,1,30,1,23,1008,RJTF 300100Z VRB02KT 9999 FEW030 SCT040 30/23 Q1008 RMK 2CU030     4SC040 A2978=
20170830_020000.002,0,RJTF,,,,0,20170830020000,-1,-1,-1,-1,999,-1,2,-1,-1,-1,-1,,9999,0,0,3,FEW 25   SCT 35   BKN 50,1,31,1,23,1007,RJTF 300200Z VRB02KT 9999 FEW025 SCT035 BKN050 31/23 Q1007 RMK     2CU025 4CU035 5SC050 A2976=
20170830_030000.002,0,RJTF,,,,0,20170830030000,-1,-1,-1,-1,999,-1,2,-1,-1,-1,-1,,9999,0,0,3,FEW 25   FEW 30 CB  SCT 70,1,33,1,23,1007,RJTF 300300Z VRB02KT 9999 FEW025 FEW030CB SCT070 33/23 Q1007     RMK 2CU025 1CB030 4AC070 A2974 CB 25KM NE MOV NE=
20170830_040000.002,0,RJTF,,,,0,20170830040000,-1,-1,-1,-1,200,-1,9,-1,-1,150,240,,9999,0,0,4,FEW 30   FEW 35 CB  BKN 40   BKN 70,1,33,1,23,1006,RJTF 300400Z 20009KT 150V240 9999 FEW030 FEW035CB BKN040     BKN070 33/23 Q1006 RMK 2CU030 1CB035 5SC040 6AC070 A2972           CB 20KM N-NE MOV E=
20170830_050000.002,0,RJTF,,,,0,20170830050000,-1,-1,-1,-1,210,-1,9,-1,-1,150,270,,9999,0,0,3,SCT 30   FEW 35 CB  BKN 40,1,32,1,23,1005,RJTF 300500Z 21009KT 150V270 9999 SCT030 FEW035CB BKN040 32/23     Q1005 RMK 3CU030 1CB035 5SC040 A2970 CB 10KM NW-NE STNR=
20170830_060000.002,0,RJTF,,,,0,20170830060000,-1,-1,-1,-1,30,-1,10,-1,-1,350,70,,9999,0,1,3,FEW 20   FEW 30 CB  BKN 35,1,28,1,22,1006,RJTF 300600Z 03010KT 350V070 9999 TS FEW020 FEW030CB BKN035     28/22 Q1006 RMK 2CU020 1CB030 7SC035 A2972 FBL TS 10KM N           STNR=
20170830_070000.003,0,RJTF,,,,0,20170830070000,-1,-1,-1,-1,20,-1,7,-1,-1,350,80,,9999,0,0,3,SCT 25   BKN 35   BKN 45,1,27,1,22,1006,RJTF 300700Z 02007KT 350V080 9999 SCT025 BKN035 BKN045 27/22     Q1006 RMK 3CU025 5SC035 6SC045 A2973=
20170830_080000.003,0,RJTF,,,,0,20170830080000,-1,-1,-1,-1,50,-1,6,-1,-1,10,90,,9999,0,0,3,SCT 20   BKN 35   BKN 70,1,27,1,22,1007,RJTF 300800Z 05006KT 010V090 9999 SCT020 BKN035 BKN070 27/22     Q1007 RMK 3SC020 5SC035 6AC070 A2974=
20170830_090000.004,0,RJTF,,,,0,20170830090000,-1,-1,-1,-1,-1,-1,-1,-1,-1,-1,-1,,-1,0,0,0,,0,-1,0,-1,-1,RJTF 300900Z NIL=
20170830_233000.001,0,RJTF,,,,0,20170830230000,-1,-1,-1,-1,20,-1,9,-1,-1,-1,-1,,3500,0,2,2,SCT 6   BKN 10,1,21,1,19,1008,RJTF 302330Z 02009KT 3500 -SHRA BR SCT006 BKN010 21/19 Q1008     RMK 3ST006 7ST010 A2977=
20170831_000000.002,0,RJTF,,,,0,20170831000000,-1,-1,-1,-1,10,-1,8,-1,-1,-1,-1,,3500,0,2,2,SCT 6   BKN 10,1,21,1,19,1008,RJTF 310000Z 01008KT 3500 -SHRA BR SCT006 BKN010 21/19 Q1008     RMK 4ST006 7ST010 A2977=
20170831_010000.002,0,RJTF,,,,0,20170831010000,-1,-1,-1,-1,70,-1,8,-1,-1,10,100,,2000,0,2,3,FEW 3   BKN 6   BKN 8,1,21,1,19,1008,RJTF 310100Z 07008KT 010V100 2000 SHRA BR FEW003 BKN006 BKN008     21/19 Q1008 RMK 2ST003 6ST006 7ST008 A2979=
20170831_020000.002,0,RJTF,,,,0,20170831020000,-1,-1,-1,-1,60,-1,6,-1,-1,20,100,,3500,0,2,3,FEW 3   BKN 6   BKN 10,1,21,1,19,1008,RJTF 310200Z 06006KT 020V100 3500 -SHRA BR FEW003 BKN006     BKN010 21/19 Q1008 RMK 1ST003 5ST006 7ST010 A2978=
20170831_030000.002,0,RJTF,,,,0,20170831030000,-1,-1,-1,-1,50,-1,9,-1,-1,20,80,,9999,0,1,3,FEW 3   SCT 6   BKN 10,1,22,1,19,1007,RJTF 310300Z 05009KT 020V080 9999 -SHRA FEW003 SCT006 BKN010     22/19 Q1007 RMK 1ST003 3ST006 7CU010 A2976=
20170831_040000.002,0,RJTF,,,,0,20170831040000,-1,-1,-1,-1,20,-1,9,-1,-1,350,50,,9999,0,0,3,FEW 6   BKN 10   BKN 70,1,23,1,19,1007,RJTF 310400Z 02009KT 350V050 9999 FEW006 BKN010 BKN070 23/19     Q1007 RMK 2ST006 6CU010 7AC070 A2974=
20170831_050000.003,0,RJTF,,,,0,20170831050000,-1,-1,-1,-1,40,-1,10,-1,-1,10,70,,9999,0,0,3,FEW 8   BKN 10   BKN -9999,1,23,1,18,1006,RJTF 310500Z 04010KT 010V070 9999 FEW008 BKN010 BKN/// 23/18     Q1006 RMK 2ST008 7CU010 A2972=
20170831_060000.002,0,RJTF,,,,0,20170831060000,-1,-1,-1,-1,40,-1,8,-1,-1,360,80,,9999,0,0,3,FEW 10   BKN 15   BKN 70,1,23,1,18,1005,RJTF 310600Z 04008KT 360V080 9999 FEW010 BKN015 BKN070 23/18     Q1005 RMK 2ST010 5CU015 6AC070 A2970=
20170831_070000.002,0,RJTF,,,,0,20170831070000,-1,-1,-1,-1,40,-1,9,-1,-1,10,70,,9999,0,0,2,FEW 10   BKN 20,1,23,1,17,1005,RJTF 310700Z 04009KT 010V070 9999 FEW010 BKN020 23/17 Q1005     RMK 2ST010 7CU020 A2969=
20170831_080000.002,0,RJTF,,,,0,20170831080000,-1,-1,-1,-1,50,-1,7,-1,-1,10,100,,9999,0,0,3,FEW 10   SCT 20   BKN 70,1,22,1,17,1005,RJTF 310800Z 05007KT 010V100 9999 FEW010 SCT020 BKN070 22/17     Q1005 RMK 1ST010 3CU020 5AC070 A2969=
20170831_090000.002,0,RJTF,,,,0,20170831090000,-1,-1,-1,-1,-1,-1,-1,-1,-1,-1,-1,,-1,0,0,0,,0,-1,0,-1,-1,RJTF 310900Z NIL=
20170831_233000.001,0,RJTF,,,,0,20170831230000,-1,-1,-1,-1,20,-1,9,-1,-1,360,70,,9999,0,0,2,FEW 30   BKN 100,1,22,1,14,1008,RJTF 312330Z 02009KT 360V070 9999 FEW030 BKN100 22/14 Q1008     RMK 1CU030 6AC100 A2977=
20170901_000000.002,0,RJTF,,,,0,20170901000000,-1,-1,-1,-1,30,-1,10,-1,-1,360,70,,9999,0,0,2,FEW 30   BKN 100,1,23,1,13,1008,RJTF 010000Z 03010KT 360V070 9999 FEW030 BKN100 23/13 Q1008     RMK 1CU030 6AC100 A2977=
20170901_010000.003,0,RJTF,,,,0,20170901010000,-1,-1,-1,-1,40,-1,10,-1,-1,-1,-1,,9999,0,0,3,FEW 30   SCT 70   BKN 100,1,24,1,13,1008,RJTF 010100Z 04010KT 9999 FEW030 SCT070 BKN100 24/13 Q1008 RMK     1CU030 3AC070 6AC100 A2977=
20170901_020000.002,0,RJTF,,,,0,20170901020000,-1,-1,-1,-1,30,-1,10,-1,-1,10,80,,9999,0,0,3,FEW 30   SCT 120   BKN -9999,1,26,1,14,1007,RJTF 010200Z 03010KT 010V080 9999 FEW030 SCT120 BKN/// 26/14     Q1007 RMK 1CU030 4AC120 A2976=
20170901_030000.002,0,RJTF,,,,0,20170901030000,-1,-1,-1,-1,40,-1,11,-1,-1,-1,-1,,9999,0,0,2,FEW 30   SCT 120,1,26,1,14,1007,RJTF 010300Z 04011KT 9999 FEW030 SCT120 26/14 Q1007 RMK 2CU030     4AC120 A2974=
20170901_040000.002,0,RJTF,,,,0,20170901040000,-1,-1,-1,-1,40,-1,10,-1,-1,360,90,,9999,0,0,2,FEW 30   BKN -9999,1,28,1,12,1006,RJTF 010400Z 04010KT 360V090 9999 FEW030 BKN/// 28/12 Q1006     RMK 2CU030 A2972=
20170901_050000.002,0,RJTF,,,,0,20170901050000,-1,-1,-1,-1,20,-1,9,-1,-1,-1,-1,,9999,0,0,3,FEW 30   BKN 120   BKN -9999,1,27,1,11,1005,RJTF 010500Z 02009KT 9999 FEW030 BKN120 BKN/// 27/11 Q1005 RMK     1CU030 6AC120 A2970=
20170901_060000.002,0,RJTF,,,,0,20170901060000,-1,-1,-1,-1,90,-1,8,-1,-1,60,120,,9999,0,0,2,FEW 30   BKN 100,1,26,1,14,1006,RJTF 010600Z 09008KT 060V120 9999 FEW030 BKN100 26/14 Q1006     RMK 1CU030 7AC100 A2971=
20170901_070000.002,0,RJTF,,,,0,20170901070000,-1,-1,-1,-1,80,-1,10,-1,-1,50,110,,9999,0,0,3,FEW 30   SCT 60   BKN 100,1,24,1,14,1006,RJTF 010700Z 08010KT 050V110 9999 FEW030 SCT060 BKN100 24/14     Q1006 RMK 1CU030 4SC060 7AC100 A2973=
20170901_080000.002,0,RJTF,,,,0,20170901080000,-1,-1,-1,-1,-1,-1,-1,-1,-1,-1,-1,,-1,0,0,0,,0,-1,0,-1,-1,RJTF 010800Z NIL=
20170901_090000.002,0,RJTF,,,,0,20170901090000,-1,-1,-1,-1,-1,-1,-1,-1,-1,-1,-1,,-1,0,0,0,,0,-1,0,-1,-1,RJTF 010900Z NIL=
20170901_233000.001,0,RJTF,,,,0,20170901230000,-1,-1,-1,-1,10,-1,7,-1,-1,330,40,,9999,0,1,3,FEW 15   BKN 30   BKN 110,1,17,1,15,1008,RJTF 012330Z 01007KT 330V040 9999 -SHRA FEW015 BKN030 BKN110     17/15 Q1008 RMK 1CU015 5CU030 7AC110 A2977=
20170902_000000.002,0,RJTF,,,,0,20170902000000,-1,-1,-1,-1,10,-1,7,-1,-1,330,30,,9999,0,0,3,FEW 15   BKN 35   BKN 130,1,18,1,15,1007,RJTF 020000Z 01007KT 330V030 9999 FEW015 BKN035 BKN130 18/15     Q1007 RMK 1CU015 5CU035 7AC130 A2976=
20170902_010000.002,0,RJTF,,,,0,20170902010000,-1,-1,-1,-1,360,-1,7,-1,-1,-1,-1,,9999,0,1,3,FEW 9   BKN 35   BKN 130,1,18,1,16,1007,RJTF 020100Z 36007KT 9999 -SHRA FEW009 BKN035 BKN130 18/16     Q1007 RMK 1ST009 5CU035 6AC130 A2976=
20170902_020000.002,0,RJTF,,,,0,20170902020000,-1,-1,-1,-1,20,-1,9,-1,-1,-1,-1,,9999,0,0,3,FEW 15   BKN 40   BKN 130,1,21,1,15,1007,RJTF 020200Z 02009KT 9999 FEW015 BKN040 BKN130 21/15 Q1007 RMK     1CU015 5SC040 6AC130 A2974=
20170902_030000.004,0,RJTF,,,,0,20170902030000,-1,-1,-1,-1,40,-1,10,-1,-1,10,70,,9999,0,0,1,FEW 20,1,23,1,15,1006,RJTF 020300Z 04010KT 010V070 9999 FEW020 23/15 Q1006 RMK     1CU020 A2972=
20170902_040000.002,0,RJTF,,,,0,20170902040000,-1,-1,-1,-1,350,-1,9,-1,-1,-1,-1,,9999,0,0,1,FEW 20,1,24,1,15,1005,RJTF 020400Z 35009KT 9999 FEW020 24/15 Q1005 RMK 1CU020 A2970=
20170902_050000.002,0,RJTF,,,,0,20170902050000,-1,-1,-1,-1,40,-1,9,-1,-1,350,80,,9999,0,0,1,FEW 20,1,25,1,15,1004,RJTF 020500Z 04009KT 350V080 9999 FEW020 25/15 Q1004 RMK     1CU020 A2967=
20170902_060000.002,0,RJTF,,,,0,20170902060000,-1,-1,-1,-1,30,-1,11,-1,-1,-1,-1,,9999,0,0,1,FEW 30,1,25,1,15,1004,RJTF 020600Z 03011KT 9999 FEW030 25/15 Q1004 RMK 2CU030 A2966=
20170902_070000.002,0,RJTF,,,,0,20170902070000,-1,-1,-1,-1,20,-1,13,-1,-1,340,50,,9999,0,0,1,FEW 30,1,24,1,14,1004,RJTF 020700Z 02013KT 340V050 9999 FEW030 24/14 Q1004 RMK     2CU030 A2966=
20170902_080000.002,0,RJTF,,,,0,20170902080000,-1,-1,-1,-1,-1,-1,-1,-1,-1,-1,-1,,-1,0,0,0,,0,-1,0,-1,-1,RJTF 020800Z NIL=
20170902_090000.002,0,RJTF,,,,0,20170902090000,-1,-1,-1,-1,-1,-1,-1,-1,-1,-1,-1,,-1,0,0,0,,0,-1,0,-1,-1,RJTF 020900Z NIL=
20170902_233000.001,0,RJTF,,,,0,20170902230000,-1,-1,-1,-1,180,-1,4,-1,-1,120,240,,9999,0,0,1,FEW 20,1,24,1,15,1009,RJTF 022330Z 18004KT 120V240 9999 FEW020 24/15 Q1009 RMK     1CU020 A2981=
20170903_000000.002,0,RJTF,,,,0,20170903000000,-1,-1,-1,-1,210,-1,3,-1,-1,160,270,,9999,0,0,1,FEW 20,1,24,1,14,1010,RJTF 030000Z 21003KT 160V270 9999 FEW020 24/14 Q1010 RMK     1CU020 A2982=
20170903_010000.003,0,RJTF,,,,0,20170903010000,-1,-1,-1,-1,999,-1,3,-1,-1,-1,-1,,9999,0,0,2,FEW 30   SCT -9999,1,25,1,13,1009,RJTF 030100Z VRB03KT 9999 FEW030 SCT/// 25/13 Q1009 RMK 1CU030     A2982=
20170903_020000.002,0,RJTF,,,,0,20170903020000,-1,-1,-1,-1,230,-1,4,-1,-1,170,320,,9999,0,0,2,FEW 30   BKN -9999,1,26,1,14,1010,RJTF 030200Z 23004KT 170V320 9999 FEW030 BKN/// 26/14 Q1010     RMK 1CU030 A2983=
20170903_030000.002,0,RJTF,,,,0,20170903030000,-1,-1,-1,-1,210,-1,7,-1,-1,160,250,,9999,0,0,2,FEW 30   BKN -9999,1,25,1,15,1010,RJTF 030300Z 21007KT 160V250 9999 FEW030 BKN/// 25/15 Q1010     RMK 1CU030 A2982=
20170903_040000.002,0,RJTF,,,,0,20170903040000,-1,-1,-1,-1,220,-1,9,-1,-1,180,250,,9999,0,0,2,FEW 30   BKN -9999,1,26,1,16,1010,RJTF 030400Z 22009KT 180V250 9999 FEW030 BKN/// 26/16 Q1010     RMK 2CU030 A2984=
20170903_050000.002,0,RJTF,,,,0,20170903050000,-1,-1,-1,-1,190,-1,8,-1,-1,160,240,,9999,0,0,2,FEW 30   SCT -9999,1,27,1,16,1010,RJTF 030500Z 19008KT 160V240 9999 FEW030 SCT/// 27/16 Q1010     RMK 1CU030 A2983=
20170903_060000.002,0,RJTF,,,,0,20170903060000,-1,-1,-1,-1,210,-1,8,-1,-1,180,250,,9999,0,0,3,FEW 30   SCT 180   BKN -9999,1,27,1,16,1010,RJTF 030600Z 21008KT 180V250 9999 FEW030 SCT180 BKN/// 27/16     Q1010 RMK 1CU030 3AC180 A2983=
20170903_070000.002,0,RJTF,,,,0,20170903070000,-1,-1,-1,-1,200,-1,9,-1,-1,170,230,,9999,0,0,3,FEW 30   SCT 70   BKN 180,1,26,1,16,1010,RJTF 030700Z 20009KT 170V230 9999 FEW030 SCT070 BKN180 26/16     Q1010 RMK 1CU030 3AC070 5AC180 A2984=
20170903_080000.002,0,RJTF,,,,0,20170903080000,-1,-1,-1,-1,-1,-1,-1,-1,-1,-1,-1,,-1,0,0,0,,0,-1,0,-1,-1,RJTF 030800Z NIL=
20170903_090000.002,0,RJTF,,,,0,20170903090000,-1,-1,-1,-1,-1,-1,-1,-1,-1,-1,-1,,-1,0,0,0,,0,-1,0,-1,-1,RJTF 030900Z NIL=
20170903_233000.001,0,RJTF,,,,0,20170903230000,-1,-1,-1,-1,10,-1,4,-1,-1,-1,-1,,9999,0,0,3,SCT 18   BKN 25   BKN 50,1,21,1,16,1018,RJTF 032330Z 01004KT 9999 SCT018 BKN025 BKN050 21/16 Q1018 RMK     4CU018 5SC025 7SC050 A3007=
20170904_000000.003,0,RJTF,,,,0,20170904000000,-1,-1,-1,-1,10,-1,6,-1,-1,-1,-1,,9999,0,0,3,SCT 18   BKN 35   BKN 70,1,21,1,16,1018,RJTF 040000Z 01006KT 9999 SCT018 BKN035 BKN070 21/16 Q1018 RMK     4CU018 5SC035 7AC070 A3007=
20170904_010000.003,0,RJTF,,,,0,20170904010000,-1,-1,-1,-1,10,-1,4,-1,-1,320,40,,9999,0,0,3,SCT 20   BKN 30   BKN 50,1,22,1,16,1018,RJTF 040100Z 01004KT 320V040 9999 SCT020 BKN030 BKN050 22/16     Q1018 RMK 4CU020 5SC030 7SC050 A3007=
20170904_020000.002,0,RJTF,,,,0,20170904020000,-1,-1,-1,-1,50,-1,6,-1,-1,10,100,,9999,0,1,3,SCT 15   BKN 20   BKN 30,1,21,1,16,1018,RJTF 040200Z 05006KT 010V100 9999 -RA SCT015 BKN020 BKN030     21/16 Q1018 RMK 3CU015 5SC020 7SC030 A3006=
20170904_030000.002,0,RJTF,,,,0,20170904030000,-1,-1,-1,-1,20,-1,4,-1,-1,-1,-1,,8000,0,1,3,FEW 10   SCT 15   BKN 25,1,20,1,17,1018,RJTF 040300Z 02004KT 8000 -RA FEW010 SCT015 BKN025 20/17 Q1018     RMK 2CU010 4SC015 7SC025 A3006=
20170904_040000.002,0,RJTF,,,,0,20170904040000,-1,-1,-1,-1,20,-1,5,-1,-1,340,60,,9999,0,1,3,FEW 8   SCT 20   BKN 35,1,19,1,17,1017,RJTF 040400Z 02005KT 340V060 9999 -DZ FEW008 SCT020 BKN035     19/17 Q1017 RMK 2ST008 4SC020 7SC035 A3005=
20170904_050000.002,0,RJTF,,,,0,20170904050000,-1,-1,-1,-1,10,-1,4,-1,-1,320,40,,9999,0,1,3,FEW 15   BKN 25   BKN 40,1,20,1,17,1017,RJTF 040500Z 01004KT 320V040 9999 -DZ FEW015 BKN025 BKN040     20/17 Q1017 RMK 2CU015 5SC025 7SC040 A3004=
20170904_060000.002,0,RJTF,,,,0,20170904060000,-1,-1,-1,-1,350,-1,4,-1,-1,-1,-1,,9999,0,0,3,FEW 12   BKN 25   BKN 35,1,20,1,16,1016,RJTF 040600Z 35004KT 9999 FEW012 BKN025 BKN035 20/16 Q1016 RMK     1CU012 5SC025 7SC035 A3003=
20170904_070000.002,0,RJTF,,,,0,20170904070000,-1,-1,-1,-1,350,-1,4,-1,-1,-1,-1,,9999,0,0,3,FEW 15   BKN 30   BKN 40,1,21,1,16,1016,RJTF 040700Z 35004KT 9999 FEW015 BKN030 BKN040 21/16 Q1016 RMK     1CU015 5SC030 7SC040 A3003=
20170904_080000.002,0,RJTF,,,,0,20170904080000,-1,-1,-1,-1,-1,-1,-1,-1,-1,-1,-1,,-1,0,0,0,,0,-1,0,-1,-1,RJTF 040800Z NIL=
20170904_090000.002,0,RJTF,,,,0,20170904090000,-1,-1,-1,-1,-1,-1,-1,-1,-1,-1,-1,,-1,0,0,0,,0,-1,0,-1,-1,RJTF 040900Z NIL=
20170904_233000.001,0,RJTF,,,,0,20170904230000,-1,-1,-1,-1,350,-1,6,-1,-1,320,20,,9999,0,0,3,FEW 20   BKN 30   BKN -9999,1,22,1,17,1017,RJTF 042330Z 35006KT 320V020 9999 FEW020 BKN030 BKN/// 22/17     Q1017 RMK 1CU020 5SC030 A3003=
20170905_000000.002,0,RJTF,,,,0,20170905000000,-1,-1,-1,-1,360,-1,5,-1,-1,320,30,,9999,0,0,3,FEW 20   SCT 30   BKN -9999,1,24,1,16,1016,RJTF 050000Z 36005KT 320V030 9999 FEW020 SCT030 BKN/// 24/16     Q1016 RMK 1CU020 4SC030 A3003=
20170905_010000.002,0,RJTF,,,,0,20170905010000,-1,-1,-1,-1,350,-1,5,-1,-1,300,30,,9999,0,0,3,FEW 20   SCT 30   BKN -9999,1,25,1,17,1016,RJTF 050100Z 35005KT 300V030 9999 FEW020 SCT030 BKN/// 25/17     Q1016 RMK 1CU020 4SC030 A3001=
20170905_020000.002,0,RJTF,,,,0,20170905020000,-1,-1,-1,-1,20,-1,4,-1,-1,310,70,,9999,0,0,3,FEW 20   SCT 30   BKN 50,1,26,1,18,1015,RJTF 050200Z 02004KT 310V070 9999 FEW020 SCT030 BKN050 26/18     Q1015 RMK 1CU020 3CU030 5SC050 A3000=
20170905_030000.002,0,RJTF,,,,0,20170905030000,-1,-1,-1,-1,40,-1,4,-1,-1,300,80,,9999,0,0,3,FEW 20   SCT 30   BKN 70,1,26,1,17,1015,RJTF 050300Z 04004KT 300V080 9999 FEW020 SCT030 BKN070 26/17     Q1015 RMK 1CU020 3CU030 5AC070 A2997=
20170905_040000.002,0,RJTF,,,,0,20170905040000,-1,-1,-1,-1,999,-1,4,-1,-1,-1,-1,,9999,0,0,3,FEW 20   SCT 30   BKN 60,1,27,1,17,1014,RJTF 050400Z VRB04KT 9999 FEW020 SCT030 BKN060 27/17 Q1014 RMK     1CU020 3CU030 5SC060 A2995=
20170905_050000.002,0,RJTF,,,,0,20170905050000,-1,-1,-1,-1,80,-1,4,-1,-1,40,150,,9999,0,0,3,FEW 25   SCT 35   BKN 70,1,27,1,17,1013,RJTF 050500Z 08004KT 040V150 9999 FEW025 SCT035 BKN070 27/17     Q1013 RMK 1CU025 4CU035 6AC070 A2993=
20170905_060000.002,0,RJTF,,,,0,20170905060000,-1,-1,-1,-1,999,-1,2,-1,-1,-1,-1,,9999,0,0,3,FEW 25   SCT 35   BKN -9999,1,27,1,17,1013,RJTF 050600Z VRB02KT 9999 FEW025 SCT035 BKN/// 27/17 Q1013 RMK     1CU025 3CU035 A2992=
20170905_070000.002,0,RJTF,,,,0,20170905070000,-1,-1,-1,-1,140,-1,6,-1,-1,100,170,,9999,0,0,3,FEW 30   SCT 40   BKN -9999,1,27,1,18,1013,RJTF 050700Z 14006KT 100V170 9999 FEW030 SCT040 BKN/// 27/18     Q1013 RMK 2CU030 3CU040 A2992=
20170905_080000.002,0,RJTF,,,,0,20170905080000,-1,-1,-1,-1,-1,-1,-1,-1,-1,-1,-1,,-1,0,0,0,,0,-1,0,-1,-1,RJTF 050800Z NIL=
20170905_090000.002,0,RJTF,,,,0,20170905090000,-1,-1,-1,-1,-1,-1,-1,-1,-1,-1,-1,,-1,0,0,0,,0,-1,0,-1,-1,RJTF 050900Z NIL=
20170905_233000.001,0,RJTF,,,,0,20170905230000,-1,-1,-1,-1,130,-1,3,-1,-1,80,170,,9999,0,0,3,FEW 15   BKN 60   BKN 120,1,22,1,19,1009,RJTF 052330Z 13003KT 080V170 9999 FEW015 BKN060 BKN120 22/19     Q1009 RMK 1CU015 5SC060 7AC120 A2981=
20170906_000000.002,0,RJTF,,,,0,20170906000000,-1,-1,-1,-1,999,-1,1,-1,-1,-1,-1,,9999,0,0,3,FEW 15   SCT 30   BKN 120,1,22,1,19,1009,RJTF 060000Z VRB01KT 9999 FEW015 SCT030 BKN120 22/19 Q1009 RMK     1CU015 4SC030 7AC120 A2981=
20170906_010000.003,0,RJTF,,,,0,20170906010000,-1,-1,-1,-1,999,-1,2,-1,-1,-1,-1,,9999,0,0,3,FEW 10   BKN 20   BKN 50,1,23,1,19,1008,RJTF 060100Z VRB02KT 9999 FEW010 BKN020 BKN050 23/19 Q1008 RMK     2ST010 5SC020 7SC050 A2979=
20170906_020000.002,0,RJTF,,,,0,20170906020000,-1,-1,-1,-1,999,-1,2,-1,-1,-1,-1,,9999,0,1,3,FEW 10   BKN 15   BKN 40,1,23,1,19,1008,RJTF 060200Z VRB02KT 9999 -RA FEW010 BKN015 BKN040 23/19 Q1008     RMK 2ST010 6SC015 7SC040 A2977=
20170906_030000.001,0,RJTF,,,,0,20170906030000,-1,-1,-1,-1,40,-1,3,-1,-1,10,80,,5000,0,2,2,FEW 8   BKN 10,1,22,1,20,1007,RJTF 060300Z 04003KT 010V080 5000 -RA BR FEW008 BKN010 22/20     Q1007 RMK 2ST008 7SC010 A2975=
20170906_040000.002,0,RJTF,,,,0,20170906040000,-1,-1,-1,-1,50,-1,4,-1,-1,360,80,,3500,0,2,3,FEW 5   BKN 8   BKN 15,1,22,1,20,1006,RJTF 060400Z 05004KT 360V080 3500 -RA BR FEW005 BKN008 BKN015     22/20 Q1006 RMK 2ST005 6ST008 7SC015 A2972=
20170906_050000.001,0,RJTF,,,,0,20170906050000,-1,-1,-1,-1,360,-1,3,-1,-1,340,40,,3500,0,2,3,SCT 6   BKN 10   BKN 15,1,22,1,20,1006,RJTF 060500Z 36003KT 340V040 3500 -DZ BR SCT006 BKN010 BKN015     22/20 Q1006 RMK 3ST006 5ST010 7SC015 A2971=
20170906_060000.001,0,RJTF,,,,0,20170906060000,-1,-1,-1,-1,20,-1,4,-1,-1,340,40,,6000,0,0,3,FEW 6   SCT 10   BKN 15,1,22,1,20,1005,RJTF 060600Z 02004KT 340V040 6000 FEW006 SCT010 BKN015 22/20     Q1005 RMK 2ST006 4ST010 6SC015 A2970=
20170906_070000.002,0,RJTF,,,,0,20170906070000,-1,-1,-1,-1,10,-1,4,-1,-1,330,30,,6000,0,0,3,FEW 6   BKN 10   BKN 15,1,22,1,20,1005,RJTF 060700Z 01004KT 330V030 6000 FEW006 BKN010 BKN015 22/20     Q1005 RMK 2ST006 5ST010 6SC015 A2969=
20170906_080000.002,0,RJTF,,,,0,20170906080000,-1,-1,-1,-1,-1,-1,-1,-1,-1,-1,-1,,-1,0,0,0,,0,-1,0,-1,-1,RJTF 060800Z NIL=
20170906_090000.003,0,RJTF,,,,0,20170906090000,-1,-1,-1,-1,-1,-1,-1,-1,-1,-1,-1,,-1,0,0,0,,0,-1,0,-1,-1,RJTF 060900Z NIL=
20170906_233000.001,0,RJTF,,,,0,20170906230000,-1,-1,-1,-1,999,-1,2,-1,-1,-1,-1,,5000,0,1,3,FEW 8   BKN 10   BKN 20,1,23,1,20,1006,RJTF 062330Z VRB02KT 5000 BR FEW008 BKN010 BKN020 23/20 Q1006     RMK 2ST008 6ST010 7SC020 A2971=
20170907_000000.002,0,RJTF,,,,0,20170907000000,-1,-1,-1,-1,140,-1,3,-1,-1,100,210,,5000,0,1,3,FEW 8   SCT 10   BKN 20,1,24,1,20,1006,RJTF 070000Z 14003KT 100V210 5000 BR FEW008 SCT010 BKN020     24/20 Q1006 RMK 1ST008 4ST010 6SC020 A2971=
20170907_010000.002,0,RJTF,,,,0,20170907010000,-1,-1,-1,-1,150,-1,4,-1,-1,100,190,,5000,0,1,3,FEW 8   BKN 10   BKN 20,1,24,1,20,1005,RJTF 070100Z 15004KT 100V190 5000 BR FEW008 BKN010 BKN020     24/20 Q1005 RMK 1ST008 6ST010 7SC020 A2970=
20170907_020000.002,0,RJTF,,,,0,20170907020000,-1,-1,-1,-1,110,-1,3,-1,-1,80,150,,4000,0,2,3,FEW 8   BKN 12   BKN 20,1,23,1,20,1005,RJTF 070200Z 11003KT 080V150 4000 -SHRA BR FEW008 BKN012     BKN020 23/20 Q1005 RMK 1ST008 6CU012 7SC020 A2968=
20170907_030000.003,0,RJTF,,,,0,20170907030000,-1,-1,-1,-1,120,-1,4,-1,-1,90,150,,4000,0,2,2,FEW 8   BKN 15,1,23,1,20,1004,RJTF 070300Z 12004KT 090V150 4000 -SHRA BR FEW008 BKN015 23/20     Q1004 RMK 2ST008 7CU015 A2966=
20170907_040000.003,0,RJTF,,,,0,20170907040000,-1,-1,-1,-1,999,-1,2,-1,-1,-1,-1,,3500,0,1,2,FEW 8   BKN 15,1,24,1,21,1003,RJTF 070400Z VRB02KT 3500 BR FEW008 BKN015 24/21 Q1003 RMK     2ST008 7CU015 A2964=
20170907_050000.002,0,RJTF,,,,0,20170907050000,-1,-1,-1,-1,999,-1,2,-1,-1,-1,-1,,3500,0,1,2,FEW 8   BKN 15,1,24,1,21,1002,RJTF 070500Z VRB02KT 3500 BR FEW008 BKN015 24/21 Q1002 RMK     2ST008 7CU015 A2961=
20170907_060000.002,0,RJTF,,,,0,20170907060000,-1,-1,-1,-1,999,-1,2,-1,-1,-1,-1,,3500,0,1,2,FEW 8   BKN 12,1,24,1,21,1002,RJTF 070600Z VRB02KT 3500 BR FEW008 BKN012 24/21 Q1002 RMK     2ST008 7CU012 A2960=
20170907_070000.002,0,RJTF,,,,0,20170907070000,-1,-1,-1,-1,30,-1,5,-1,-1,-1,-1,,3500,0,2,2,SCT 8   BKN 12,1,24,1,21,1001,RJTF 070700Z 03005KT 3500 -SHRA BR SCT008 BKN012 24/21 Q1001     RMK 3ST008 7CU012 A2958=
20170907_080000.003,0,RJTF,,,,0,20170907080000,-1,-1,-1,-1,-1,-1,-1,-1,-1,-1,-1,,-1,0,0,0,,0,-1,0,-1,-1,RJTF 070800Z NIL=
20170907_090000.002,0,RJTF,,,,0,20170907090000,-1,-1,-1,-1,-1,-1,-1,-1,-1,-1,-1,,-1,0,0,0,,0,-1,0,-1,-1,RJTF 070900Z NIL=
20170907_233000.001,0,RJTF,,,,0,20170907230000,-1,-1,-1,-1,20,-1,4,-1,-1,330,60,,5000,0,1,3,FEW 9   SCT 12   BKN 80,1,24,1,21,1004,RJTF 072330Z 02004KT 330V060 5000 BR FEW009 SCT012 BKN080     24/21 Q1004 RMK 1ST009 4CU012 6AC080 A2967=
20170908_000000.002,0,RJTF,,,,0,20170908000000,-1,-1,-1,-1,30,-1,7,-1,-1,350,60,,5000,0,1,3,FEW 10   BKN 13   BKN 80,1,24,1,21,1004,RJTF 080000Z 03007KT 350V060 5000 BR FEW010 BKN013 BKN080     24/21 Q1004 RMK 1ST010 5CU013 6AC080 A2967=
20170908_010000.003,0,RJTF,,,,0,20170908010000,-1,-1,-1,-1,40,-1,6,-1,-1,360,100,,5000,0,1,3,FEW 10   BKN 15   BKN -9999,1,26,1,21,1005,RJTF 080100Z 04006KT 360V100 5000 BR FEW010 BKN015 BKN///     26/21 Q1005 RMK 1ST010 6CU015 A2969=
20170908_020000.003,0,RJTF,,,,0,20170908020000,-1,-1,-1,-1,60,-1,7,-1,-1,10,90,,7000,0,0,3,FEW 15   SCT 25   BKN 100,1,27,1,20,1005,RJTF 080200Z 06007KT 010V090 7000 FEW015 SCT025 BKN100 27/20     Q1005 RMK 1CU015 3CU025 5AC100 A2968=
20170908_030000.002,0,RJTF,,,,0,20170908030000,-1,-1,-1,-1,60,-1,7,-1,-1,10,130,,8000,0,0,2,FEW 20   SCT 30,1,28,1,20,1004,RJTF 080300Z 06007KT 010V130 8000 FEW020 SCT030 28/20 Q1004     RMK 1CU020 3CU030 A2967=
20170908_040000.002,0,RJTF,,,,0,20170908040000,-1,-1,-1,-1,70,-1,7,-1,-1,20,140,,9999,0,0,2,FEW 20   SCT 35,1,29,1,20,1004,RJTF 080400Z 07007KT 020V140 9999 FEW020 SCT035 29/20 Q1004     RMK 1CU020 3CU035 A2967=
20170908_050000.002,0,RJTF,,,,0,20170908050000,-1,-1,-1,-1,60,-1,9,-1,-1,10,100,,9999,0,0,4,FEW 20   SCT 30   FEW 35 TCU  BKN 50,1,28,1,18,1004,RJTF 080500Z 06009KT 010V100 9999 FEW020 SCT030 FEW035TCU     BKN050 28/18 Q1004 RMK 1CU020 3CU030 1TCU035 5SC050 A2967           TCU 20KM W MOV SE=
20170908_060000.002,0,RJTF,,,,0,20170908060000,-1,-1,-1,-1,70,-1,5,-1,-1,30,130,,9999,0,0,3,FEW 20   FEW 30 CB  SCT 70,1,28,1,18,1005,RJTF 080600Z 07005KT 030V130 9999 FEW020 FEW030CB SCT070 28/18     Q1005 RMK 1CU020 1CB030 3AC070 A2968 CB 20KM SW MOV SE=
20170908_070000.002,0,RJTF,,,,0,20170908070000,-1,-1,-1,-1,130,-1,6,-1,-1,100,170,,9999,0,0,2,FEW 20   SCT 50,1,28,1,18,1005,RJTF 080700Z 13006KT 100V170 9999 FEW020 SCT050 28/18 Q1005     RMK 1CU020 3SC050 A2970=
20170908_080000.002,0,RJTF,,,,0,20170908080000,-1,-1,-1,-1,-1,-1,-1,-1,-1,-1,-1,,-1,0,0,0,,0,-1,0,-1,-1,RJTF 080800Z NIL=
20170908_090000.002,0,RJTF,,,,0,20170908090000,-1,-1,-1,-1,-1,-1,-1,-1,-1,-1,-1,,-1,0,0,0,,0,-1,0,-1,-1,RJTF 080900Z NIL=
20170908_233000.001,0,RJTF,,,,0,20170908230000,-1,-1,-1,-1,350,-1,5,-1,-1,300,30,,9999,0,0,2,FEW 20   SCT 50,1,25,1,17,1013,RJTF 082330Z 35005KT 300V030 9999 FEW020 SCT050 25/17 Q1013     RMK 1CU020 3SC050 A2993=
20170909_000000.003,0,RJTF,,,,0,20170909000000,-1,-1,-1,-1,20,-1,4,-1,-1,330,80,,9999,0,0,2,FEW 20   SCT 60,1,25,1,17,1013,RJTF 090000Z 02004KT 330V080 9999 FEW020 SCT060 25/17 Q1013     RMK 1CU020 3SC060 A2994=
20170909_010000.004,0,RJTF,,,,0,20170909010000,-1,-1,-1,-1,999,-1,1,-1,-1,-1,-1,,9999,0,0,1,FEW 30,1,26,1,16,1013,RJTF 090100Z VRB01KT 9999 FEW030 26/16 Q1013 RMK 2CU030 A2993=
20170909_020000.002,0,RJTF,,,,0,20170909020000,-1,-1,-1,-1,999,-1,3,-1,-1,-1,-1,,9999,0,0,1,FEW 30,1,27,1,15,1013,RJTF 090200Z VRB03KT 9999 FEW030 27/15 Q1013 RMK 2CU030 A2992=
20170909_030000.003,0,RJTF,,,,0,20170909030000,-1,-1,-1,-1,70,-1,3,-1,-1,320,120,,9999,0,0,1,FEW 35,1,29,1,16,1012,RJTF 090300Z 07003KT 320V120 9999 FEW035 29/16 Q1012 RMK     2CU035 A2990=
20170909_040000.003,0,RJTF,,,,0,20170909040000,-1,-1,-1,-1,999,-1,5,-1,-1,-1,-1,,9999,0,0,2,FEW 30   SCT 50,1,29,1,16,1012,RJTF 090400Z VRB05KT 9999 FEW030 SCT050 29/16 Q1012 RMK 1CU030     3SC050 A2989=
20170909_050000.002,0,RJTF,,,,0,20170909050000,-1,-1,-1,-1,140,-1,7,-1,-1,110,180,,9999,0,0,2,FEW 30   SCT 60,1,29,1,16,1011,RJTF 090500Z 14007KT 110V180 9999 FEW030 SCT060 29/16 Q1011     RMK 1CU030 4SC060 A2988=
20170909_060000.002,0,RJTF,,,,0,20170909060000,-1,-1,-1,-1,180,-1,6,-1,-1,120,250,,9999,0,0,2,FEW 30   SCT 50,1,28,1,16,1012,RJTF 090600Z 18006KT 120V250 9999 FEW030 SCT050 28/16 Q1012     RMK 1CU030 3SC050 A2988=
20170909_070000.002,0,RJTF,,,,0,20170909070000,-1,-1,-1,-1,200,-1,7,-1,-1,160,260,,9999,0,0,2,FEW 30   SCT -9999,1,28,1,16,1012,RJTF 090700Z 20007KT 160V260 9999 FEW030 SCT/// 28/16 Q1012     RMK 1CU030 A2990=
20170909_080000.002,0,RJTF,,,,0,20170909080000,-1,-1,-1,-1,-1,-1,-1,-1,-1,-1,-1,,-1,0,0,0,,0,-1,0,-1,-1,RJTF 090800Z NIL=
20170909_090000.002,0,RJTF,,,,0,20170909090000,-1,-1,-1,-1,-1,-1,-1,-1,-1,-1,-1,,-1,0,0,0,,0,-1,0,-1,-1,RJTF 090900Z NIL=
20170909_233000.001,0,RJTF,,,,0,20170909230000,-1,-1,-1,-1,999,-1,1,-1,-1,-1,-1,,9999,0,0,3,FEW 15   SCT 25   BKN 170,1,25,1,19,1015,RJTF 092330Z VRB01KT 9999 FEW015 SCT025 BKN170 25/19 Q1015 RMK     2CU015 3CU025 5AC170 A3000=
20170910_000000.003,0,RJTF,,,,0,20170910000000,-1,-1,-1,-1,999,-1,3,-1,-1,-1,-1,,9999,0,0,2,FEW 20   SCT 170,1,26,1,20,1015,RJTF 100000Z VRB03KT 9999 FEW020 SCT170 26/20 Q1015 RMK 2CU020     3AC170 A2998=
20170910_010000.003,0,RJTF,,,,0,20170910010000,-1,-1,-1,-1,170,-1,4,-1,-1,130,240,,9999,0,0,2,FEW 25   SCT 30,1,28,1,21,1014,RJTF 100100Z 17004KT 130V240 9999 FEW025 SCT030 28/21 Q1014     RMK 1CU025 3CU030 A2996=
20170910_020000.002,0,RJTF,,,,0,20170910020000,-1,-1,-1,-1,210,-1,5,-1,-1,160,260,,9999,0,0,2,FEW 25   SCT 35,1,29,1,20,1014,RJTF 100200Z 21005KT 160V260 9999 FEW025 SCT035 29/20 Q1014     RMK 2CU025 3CU035 A2995=
20170910_030000.002,0,RJTF,,,,0,20170910030000,-1,-1,-1,-1,190,-1,6,-1,-1,140,230,,9999,0,0,2,FEW 25   SCT 35,1,30,1,19,1014,RJTF 100300Z 19006KT 140V230 9999 FEW025 SCT035 30/19 Q1014     RMK 1CU025 4CU035 A2994=
20170910_040000.002,0,RJTF,,,,0,20170910040000,-1,-1,-1,-1,200,-1,7,-1,-1,120,280,,9999,0,0,2,FEW 30   SCT 40,1,30,1,19,1013,RJTF 100400Z 20007KT 120V280 9999 FEW030 SCT040 30/19 Q1013     RMK 1CU030 3CU040 A2993=
20170910_050000.002,0,RJTF,,,,0,20170910050000,-1,-1,-1,-1,170,-1,8,-1,-1,140,210,,9999,0,0,2,FEW 30   SCT 40,1,29,1,19,1013,RJTF 100500Z 17008KT 140V210 9999 FEW030 SCT040 29/19 Q1013     RMK 1CU030 3CU040 A2993=
20170910_060000.002,0,RJTF,,,,0,20170910060000,-1,-1,-1,-1,200,-1,8,-1,-1,170,240,,9999,0,0,1,SCT 35,1,30,1,19,1013,RJTF 100600Z 20008KT 170V240 9999 SCT035 30/19 Q1013 RMK     3CU035 A2993=
20170910_070000.002,0,RJTF,,,,0,20170910070000,-1,-1,-1,-1,200,-1,10,-1,-1,160,240,,9999,0,0,2,FEW 35   SCT -9999,1,28,1,19,1013,RJTF 100700Z 20010KT 160V240 9999 FEW035 SCT/// 28/19 Q1013     RMK 1CU035 A2994=
20170910_080000.002,0,RJTF,,,,0,20170910080000,-1,-1,-1,-1,-1,-1,-1,-1,-1,-1,-1,,-1,0,0,0,,0,-1,0,-1,-1,RJTF 100800Z NIL=
20170910_090000.002,0,RJTF,,,,0,20170910090000,-1,-1,-1,-1,-1,-1,-1,-1,-1,-1,-1,,-1,0,0,0,,0,-1,0,-1,-1,RJTF 100900Z NIL=
20170910_233000.001,0,RJTF,,,,0,20170910230000,-1,-1,-1,-1,180,-1,5,-1,-1,120,220,,9999,0,0,2,FEW 25   SCT -9999,1,27,1,20,1016,RJTF 102330Z 18005KT 120V220 9999 FEW025 SCT/// 27/20 Q1016     RMK 1CU025 A3001=
20170911_000000.003,0,RJTF,,,,0,20170911000000,-1,-1,-1,-1,180,-1,8,-1,-1,150,220,,9999,0,0,2,FEW 25   BKN -9999,1,27,1,20,1016,RJTF 110000Z 18008KT 150V220 9999 FEW025 BKN/// 27/20 Q1016     RMK 2CU025 A3000=
20170911_010000.002,0,RJTF,,,,0,20170911010000,-1,-1,-1,-1,180,-1,9,-1,-1,150,230,,9999,0,0,3,FEW 25   SCT 35   BKN -9999,1,29,1,20,1015,RJTF 110100Z 18009KT 150V230 9999 FEW025 SCT035 BKN/// 29/20     Q1015 RMK 1CU025 3CU035 A2998=
20170911_020000.002,0,RJTF,,,,0,20170911020000,-1,-1,-1,-1,180,-1,9,-1,-1,160,220,,9999,0,0,3,FEW 30   SCT 40   BKN -9999,1,28,1,19,1015,RJTF 110200Z 18009KT 160V220 9999 FEW030 SCT040 BKN/// 28/19     Q1015 RMK 2CU030 3CU040 A2997=
20170911_030000.002,0,RJTF,,,,0,20170911030000,-1,-1,-1,-1,190,-1,11,-1,-1,160,230,,9999,0,0,3,FEW 30   SCT 90   BKN -9999,1,29,1,19,1014,RJTF 110300Z 19011KT 160V230 9999 FEW030 SCT090 BKN/// 29/19     Q1014 RMK 2CU030 4AC090 A2996=
20170911_040000.002,0,RJTF,,,,0,20170911040000,-1,-1,-1,-1,190,-1,9,-1,-1,150,230,,9999,0,0,3,SCT 35   BKN 100   BKN -9999,1,28,1,18,1014,RJTF 110400Z 19009KT 150V230 9999 SCT035 BKN100 BKN/// 28/18     Q1014 RMK 3CU035 5AC100 A2995=
20170911_050000.002,0,RJTF,,,,0,20170911050000,-1,-1,-1,-1,190,-1,10,-1,-1,150,220,,9999,0,0,3,FEW 35   SCT 100   BKN -9999,1,28,1,17,1013,RJTF 110500Z 19010KT 150V220 9999 FEW035 SCT100 BKN/// 28/17     Q1013 RMK 1CU035 3AC100 A2992=
20170911_060000.002,0,RJTF,,,,0,20170911060000,-1,-1,-1,-1,190,-1,9,-1,-1,140,240,,9999,0,0,2,FEW 30   BKN -9999,1,28,1,17,1013,RJTF 110600Z 19009KT 140V240 9999 FEW030 BKN/// 28/17 Q1013     RMK 1CU030 A2992=
20170911_070000.002,0,RJTF,,,,0,20170911070000,-1,-1,-1,-1,190,-1,10,-1,-1,160,240,,9999,0,0,2,FEW 30   BKN -9999,1,27,1,18,1013,RJTF 110700Z 19010KT 160V240 9999 FEW030 BKN/// 27/18 Q1013     RMK 1CU030 A2992=
20170911_080000.002,0,RJTF,,,,0,20170911080000,-1,-1,-1,-1,-1,-1,-1,-1,-1,-1,-1,,-1,0,0,0,,0,-1,0,-1,-1,RJTF 110800Z NIL=
20170911_090000.002,0,RJTF,,,,0,20170911090000,-1,-1,-1,-1,-1,-1,-1,-1,-1,-1,-1,,-1,0,0,0,,0,-1,0,-1,-1,RJTF 110900Z NIL=
20170911_233000.001,0,RJTF,,,,0,20170911230000,-1,-1,-1,-1,999,-1,1,-1,-1,-1,-1,,9999,0,1,3,FEW 15   BKN 100   BKN 150,1,26,1,22,1007,RJTF 112330Z VRB01KT 9999 VCSH FEW015 BKN100 BKN150 26/22     Q1007 RMK 2CU015 5AC100 7AC150 A2974=
20170912_000000.002,0,RJTF,,,,0,20170912000000,-1,-1,-1,-1,999,-1,3,-1,-1,-1,-1,,9999,0,1,3,FEW 15   SCT 40   BKN 100,1,26,1,22,1007,RJTF 120000Z VRB03KT 9999 VCSH FEW015 SCT040 BKN100 26/22     Q1007 RMK 2CU015 4SC040 6AC100 A2974=
20170912_010000.002,0,RJTF,,,,0,20170912010000,-1,-1,-1,-1,10,-1,5,-1,-1,-1,-1,,9999,0,1,3,FEW 10   BKN 15   BKN 40,1,24,1,21,1006,RJTF 120100Z 01005KT 9999 -SHRA FEW010 BKN015 BKN040 24/21     Q1006 RMK 1ST010 5CU015 6SC040 A2973=
20170912_020000.003,0,RJTF,,,,0,20170912020000,-1,-1,-1,-1,999,-1,1,-1,-1,-1,-1,,6000,0,1,4,FEW 8   BKN 12   FEW 20 CB  BKN 40,1,24,1,22,1006,RJTF 120200Z VRB01KT 6000 -TSRA FEW008 BKN012 FEW020CB BKN040     24/22 Q1006 RMK 2ST008 6CU012 1CB020 7SC040 A2971 FBL TS           20KM S MOV NE=
20170912_030000.002,0,RJTF,,,,0,20170912030000,-1,-1,-1,-1,330,-1,3,-1,-1,280,10,,8000,0,1,3,FEW 8   SCT 12   BKN 60,1,25,1,23,1005,RJTF 120300Z 33003KT 280V010 8000 -SARA FEW008 SCT012 BKN060     25/23 Q1005 RMK 1ST008 4CU012 5SC060 A2970=
20170912_040000.002,0,RJTF,,,,0,20170912040000,-1,-1,-1,-1,350,-1,4,-1,-1,300,20,,6000,0,1,3,FEW 8   BKN 12   BKN 60,1,24,1,22,1006,RJTF 120400Z 35004KT 300V020 6000 -SHRA FEW008 BKN012     BKN060 24/22 Q1006 RMK 1ST008 5CU012 6SC060 A2971=
20170912_040000.002,2,RJTF,,,,0,20170912040000,-1,-1,-1,-1,350,-1,4,-1,-1,300,20,,6000,0,1,3,FEW 8   BKN 12   BKN 60,1,24,1,22,1006,RJTF 120400Z 35004KT 300V020 6000 -SHRA FEW008 BKN012     BKN060 24/22 Q1006 RMK 1ST008 5CU012 6SC060 A2971=
20170912_050000.002,0,RJTF,,,,0,20170912050000,-1,-1,-1,-1,999,-1,2,-1,-1,-1,-1,,8000,0,1,3,FEW 12   SCT 30   BKN 100,1,24,1,22,1006,RJTF 120500Z VRB02KT 8000 -SHRA FEW012 SCT030 BKN100 24/22     Q1006 RMK 2CU012 3CU030 6AC100 A2972=
20170912_060000.003,0,RJTF,,,,0,20170912060000,-1,-1,-1,-1,999,-1,2,-1,-1,-1,-1,,9999,0,1,3,FEW 12   SCT 30   BKN 100,1,25,1,22,1005,RJTF 120600Z VRB02KT 9999 VCSH FEW012 SCT030 BKN100 25/22     Q1005 RMK 1CU012 3CU030 6AC100 A2969=
20170912_070000.002,0,RJTF,,,,0,20170912070000,-1,-1,-1,-1,999,-1,2,-1,-1,-1,-1,,9999,0,0,3,FEW 30   SCT 60   BKN 120,1,25,1,22,1005,RJTF 120700Z VRB02KT 9999 FEW030 SCT060 BKN120 25/22 Q1005 RMK     1CU030 4SC060 6AC120 A2969=
20170912_080000.002,0,RJTF,,,,0,20170912080000,-1,-1,-1,-1,-1,-1,-1,-1,-1,-1,-1,,-1,0,0,0,,0,-1,0,-1,-1,RJTF 120800Z NIL=
20170912_090000.002,0,RJTF,,,,0,20170912090000,-1,-1,-1,-1,-1,-1,-1,-1,-1,-1,-1,,-1,0,0,0,,0,-1,0,-1,-1,RJTF 120900Z NIL=
20170912_233000.001,0,RJTF,,,,0,20170912230000,-1,-1,-1,-1,40,-1,4,-1,-1,360,80,,9999,0,0,2,FEW 30   BKN 50,1,26,1,18,1013,RJTF 122330Z 04004KT 360V080 9999 FEW030 BKN050 26/18 Q1013     RMK 2CU030 6SC050 A2993=
20170913_000000.002,0,RJTF,,,,0,20170913000000,-1,-1,-1,-1,30,-1,6,-1,-1,350,90,,9999,0,0,2,FEW 30   SCT 50,1,28,1,17,1013,RJTF 130000Z 03006KT 350V090 9999 FEW030 SCT050 28/17 Q1013     RMK 2CU030 4SC050 A2992=
20170913_010000.003,0,RJTF,,,,0,20170913010000,-1,-1,-1,-1,10,-1,6,-1,-1,330,60,,9999,0,0,2,FEW 30   SCT -9999,1,29,1,16,1013,RJTF 130100Z 01006KT 330V060 9999 FEW030 SCT/// 29/16 Q1013     RMK 2CU030 A2992=
20170913_020000.002,0,RJTF,,,,0,20170913020000,-1,-1,-1,-1,999,-1,3,-1,-1,-1,-1,,9999,0,0,2,FEW 30   SCT -9999,1,30,1,17,1012,RJTF 130200Z VRB03KT 9999 FEW030 SCT/// 30/17 Q1012 RMK 2CU030     A2991=
20170913_030000.003,0,RJTF,,,,0,20170913030000,-1,-1,-1,-1,999,-1,2,-1,-1,-1,-1,,9999,0,0,2,FEW 30   SCT -9999,1,30,1,15,1012,RJTF 130300Z VRB02KT 9999 FEW030 SCT/// 30/15 Q1012 RMK 2CU030     A2990=
20170913_040000.002,0,RJTF,,,,0,20170913040000,-1,-1,-1,-1,999,-1,3,-1,-1,-1,-1,,9999,0,0,2,SCT 30   BKN -9999,1,31,1,17,1011,RJTF 130400Z VRB03KT 9999 SCT030 BKN/// 31/17 Q1011 RMK 3CU030     A2988=
20170913_050000.002,0,RJTF,,,,0,20170913050000,-1,-1,-1,-1,180,-1,5,-1,-1,130,210,,9999,0,0,2,BKN 30   BKN -9999,1,31,1,17,1011,RJTF 130500Z 18005KT 130V210 9999 BKN030 BKN/// 31/17 Q1011     RMK 6CU030 A2987=
20170913_060000.002,0,RJTF,,,,0,20170913060000,-1,-1,-1,-1,150,-1,11,-1,-1,-1,-1,,9999,0,0,2,SCT 30   BKN -9999,1,30,1,18,1011,RJTF 130600Z 15011KT 9999 SCT030 BKN/// 30/18 Q1011 RMK 4CU030     A2988=
20170913_070000.003,0,RJTF,,,,0,20170913070000,-1,-1,-1,-1,180,-1,7,-1,-1,140,230,,9999,0,0,2,SCT 30   BKN -9999,1,29,1,20,1012,RJTF 130700Z 18007KT 140V230 9999 SCT030 BKN/// 29/20 Q1012     RMK 4CU030 A2989=
20170913_080000.002,0,RJTF,,,,0,20170913080000,-1,-1,-1,-1,-1,-1,-1,-1,-1,-1,-1,,-1,0,0,0,,0,-1,0,-1,-1,RJTF 130800Z NIL=
20170913_090000.002,0,RJTF,,,,0,20170913090000,-1,-1,-1,-1,-1,-1,-1,-1,-1,-1,-1,,-1,0,0,0,,0,-1,0,-1,-1,RJTF 130900Z NIL=
20170913_233000.001,0,RJTF,,,,0,20170913230000,-1,-1,-1,-1,340,-1,6,-1,-1,-1,-1,,9999,0,0,3,FEW 20   SCT 50   BKN -9999,1,25,1,18,1015,RJTF 132330Z 34006KT 9999 FEW020 SCT050 BKN/// 25/18 Q1015 RMK     1CU020 3SC050 A3000=
20170914_000000.002,0,RJTF,,,,0,20170914000000,-1,-1,-1,-1,360,-1,5,-1,-1,310,30,,9999,0,0,3,FEW 20   SCT 60   BKN -9999,1,26,1,18,1015,RJTF 140000Z 36005KT 310V030 9999 FEW020 SCT060 BKN/// 26/18     Q1015 RMK 1CU020 3SC060 A3000=
20170914_010000.002,0,RJTF,,,,0,20170914010000,-1,-1,-1,-1,20,-1,7,-1,-1,320,40,,9999,0,0,2,FEW 30   SCT -9999,1,27,1,17,1015,RJTF 140100Z 02007KT 320V040 9999 FEW030 SCT/// 27/17 Q1015     RMK 1CU030 A2998=
20170914_020000.002,0,RJTF,,,,0,20170914020000,-1,-1,-1,-1,30,-1,5,-1,-1,320,90,,9999,0,0,2,FEW 30   SCT -9999,1,29,1,15,1014,RJTF 140200Z 03005KT 320V090 9999 FEW030 SCT/// 29/15 Q1014     RMK 1CU030 A2996=
20170914_030000.002,0,RJTF,,,,0,20170914030000,-1,-1,-1,-1,60,-1,6,-1,-1,20,100,,9999,0,0,1,FEW 30,1,30,1,15,1013,RJTF 140300Z 06006KT 020V100 9999 FEW030 30/15 Q1013 RMK     1CU030 A2994=
20170914_040000.002,0,RJTF,,,,0,20170914040000,-1,-1,-1,-1,999,-1,4,-1,-1,-1,-1,,9999,0,0,1,FEW 30,1,31,1,15,1013,RJTF 140400Z VRB04KT 9999 FEW030 31/15 Q1013 RMK 1CU030 A2991=
20170914_050000.002,0,RJTF,,,,0,20170914050000,-1,-1,-1,-1,350,-1,4,-1,-1,230,50,,9999,0,0,2,FEW 30   SCT 50,1,31,1,13,1012,RJTF 140500Z 35004KT 230V050 9999 FEW030 SCT050 31/13 Q1012     RMK 1CU030 3SC050 A2990=
20170914_060000.002,0,RJTF,,,,0,20170914060000,-1,-1,-1,-1,999,-1,2,-1,-1,-1,-1,,9999,0,0,2,FEW 30   SCT 60,1,30,1,14,1012,RJTF 140600Z VRB02KT 9999 FEW030 SCT060 30/14 Q1012 RMK 1CU030     3SC060 A2989=
20170914_070000.002,0,RJTF,,,,0,20170914070000,-1,-1,-1,-1,170,-1,7,-1,-1,130,210,,9999,0,0,2,FEW 30   SCT 50,1,30,1,17,1012,RJTF 140700Z 17007KT 130V210 9999 FEW030 SCT050 30/17 Q1012     RMK 1CU030 3SC050 A2990=
20170914_080000.002,0,RJTF,,,,0,20170914080000,-1,-1,-1,-1,-1,-1,-1,-1,-1,-1,-1,,-1,0,0,0,,0,-1,0,-1,-1,RJTF 140800Z NIL=
20170914_090000.002,0,RJTF,,,,0,20170914090000,-1,-1,-1,-1,-1,-1,-1,-1,-1,-1,-1,,-1,0,0,0,,0,-1,0,-1,-1,RJTF 140900Z NIL=
20170914_233000.001,0,RJTF,,,,0,20170914230000,-1,-1,-1,-1,360,-1,7,-1,-1,-1,-1,,9999,0,0,2,FEW 25   BKN 70,1,24,1,11,1017,RJTF 142330Z 36007KT 9999 FEW025 BKN070 24/11 Q1017 RMK 1CU025     6AC070 A3004=
20170915_000000.002,0,RJTF,,,,0,20170915000000,-1,-1,-1,-1,350,-1,8,-1,-1,320,30,,9999,0,0,3,FEW 30   SCT 70   BKN -9999,1,25,1,10,1017,RJTF 150000Z 35008KT 320V030 9999 FEW030 SCT070 BKN/// 25/10     Q1017 RMK 1CU030 4AC070 A3004=
20170915_010000.002,0,RJTF,,,,0,20170915010000,-1,-1,-1,-1,350,-1,10,-1,-1,320,20,,9999,0,0,2,FEW 30   BKN -9999,1,26,1,10,1017,RJTF 150100Z 35010KT 320V020 9999 FEW030 BKN/// 26/10 Q1017     RMK 1CU030 A3003=
20170915_020000.002,0,RJTF,,,,0,20170915020000,-1,-1,-1,-1,360,-1,9,-1,-1,330,40,,9999,0,0,3,FEW 30   SCT 70   BKN -9999,1,26,1,10,1016,RJTF 150200Z 36009KT 330V040 9999 FEW030 SCT070 BKN/// 26/10     Q1016 RMK 1CU030 3AC070 A3002=
20170915_030000.002,0,RJTF,,,,0,20170915030000,-1,-1,-1,-1,20,-1,10,-1,-1,340,50,,9999,0,0,2,FEW 30   BKN -9999,1,27,1,10,1016,RJTF 150300Z 02010KT 340V050 9999 FEW030 BKN/// 27/10 Q1016     RMK 1CU030 A3001=
20170915_040000.002,0,RJTF,,,,0,20170915040000,-1,-1,-1,-1,10,-1,5,-1,-1,310,100,,9999,0,0,2,FEW 30   BKN -9999,1,27,1,10,1015,RJTF 150400Z 01005KT 310V100 9999 FEW030 BKN/// 27/10 Q1015     RMK 1CU030 A2999=
20170915_050000.002,0,RJTF,,,,0,20170915050000,-1,-1,-1,-1,999,-1,4,-1,-1,-1,-1,,9999,0,0,2,FEW 30   BKN -9999,1,27,1,10,1015,RJTF 150500Z VRB04KT 9999 FEW030 BKN/// 27/10 Q1015 RMK 1CU030     A2998=
20170915_060000.002,0,RJTF,,,,0,20170915060000,-1,-1,-1,-1,30,-1,4,-1,-1,310,110,,9999,0,0,3,FEW 30   SCT 70   BKN -9999,1,27,1,10,1015,RJTF 150600Z 03004KT 310V110 9999 FEW030 SCT070 BKN/// 27/10     Q1015 RMK 1CU030 3AC070 A2998=
20170915_070000.002,0,RJTF,,,,0,20170915070000,-1,-1,-1,-1,10,-1,7,-1,-1,330,40,,9999,0,0,3,FEW 30   SCT 60   BKN -9999,1,26,1,8,1015,RJTF 150700Z 01007KT 330V040 9999 FEW030 SCT060 BKN/// 26/08     Q1015 RMK 1CU030 3SC060 A3000=
20170915_080000.002,0,RJTF,,,,0,20170915080000,-1,-1,-1,-1,-1,-1,-1,-1,-1,-1,-1,,-1,0,0,0,,0,-1,0,-1,-1,RJTF 150800Z NIL=
20170915_090000.003,0,RJTF,,,,0,20170915090000,-1,-1,-1,-1,-1,-1,-1,-1,-1,-1,-1,,-1,0,0,0,,0,-1,0,-1,-1,RJTF 150900Z NIL=
20170915_233000.001,0,RJTF,,,,0,20170915230000,-1,-1,-1,-1,360,-1,4,-1,-1,340,50,,9999,0,0,3,FEW 25   SCT 50   OVC 140,1,21,1,15,1020,RJTF 152330Z 36004KT 340V050 9999 FEW025 SCT050 OVC140 21/15     Q1020 RMK 1CU025 4SC050 8AC140 A3013=
20170916_000000.003,0,RJTF,,,,0,20170916000000,-1,-1,-1,-1,10,-1,6,-1,-1,-1,-1,,9999,0,0,3,FEW 25   SCT 50   OVC 120,1,21,1,14,1020,RJTF 160000Z 01006KT 9999 FEW025 SCT050 OVC120 21/14 Q1020 RMK     1CU025 3SC050 8AC120 A3013=
20170916_010000.003,0,RJTF,,,,0,20170916010000,-1,-1,-1,-1,360,-1,5,-1,-1,330,40,,9999,0,0,3,FEW 20   SCT 40   OVC 110,1,21,1,15,1020,RJTF 160100Z 36005KT 330V040 9999 FEW020 SCT040 OVC110 21/15     Q1020 RMK 2CU020 3SC040 8AC110 A3013=
20170916_020000.002,0,RJTF,,,,0,20170916020000,-1,-1,-1,-1,360,-1,6,-1,-1,320,40,,9999,0,1,3,FEW 25   SCT 35   OVC 100,1,21,1,15,1019,RJTF 160200Z 36006KT 320V040 9999 -RA FEW025 SCT035 OVC100     21/15 Q1019 RMK 2CU025 3SC035 8AC100 A3010=
20170916_030000.002,0,RJTF,,,,0,20170916030000,-1,-1,-1,-1,350,-1,7,-1,-1,330,30,,9999,0,1,3,SCT 25   BKN 40   BKN 90,1,21,1,14,1019,RJTF 160300Z 35007KT 330V030 9999 -RA SCT025 BKN040 BKN090     21/14 Q1019 RMK 3CU025 5SC040 7AC090 A3010=
20170916_040000.002,0,RJTF,,,,0,20170916040000,-1,-1,-1,-1,350,-1,3,-1,-1,320,20,,9999,0,1,3,FEW 30   SCT 40   BKN 80,1,21,1,15,1019,RJTF 160400Z 35003KT 320V020 9999 -DZ FEW030 SCT040 BKN080     21/15 Q1019 RMK 1CU030 4SC040 7AC080 A3009=
20170916_050000.002,0,RJTF,,,,0,20170916050000,-1,-1,-1,-1,360,-1,5,-1,-1,-1,-1,,9999,0,0,3,FEW 25   SCT 40   BKN 90,1,21,1,15,1018,RJTF 160500Z 36005KT 9999 FEW025 SCT040 BKN090 21/15 Q1018 RMK     2CU025 4SC040 7AC090 A3006=
20170916_060000.002,0,RJTF,,,,0,20170916060000,-1,-1,-1,-1,340,-1,2,-1,-1,-1,-1,,9999,0,0,3,FEW 25   BKN 35   BKN 90,1,21,1,15,1017,RJTF 160600Z 34002KT 9999 FEW025 BKN035 BKN090 21/15 Q1017 RMK     1CU025 5SC035 7AC090 A3005=
20170916_070000.002,0,RJTF,,,,0,20170916070000,-1,-1,-1,-1,80,-1,4,-1,-1,40,110,,9999,0,1,3,SCT 25   BKN 35   BKN 50,1,21,1,15,1017,RJTF 160700Z 08004KT 040V110 9999 -SHRA SCT025 BKN035 BKN050     21/15 Q1017 RMK 3CU025 5SC035 7SC050 A3006=
20170916_080000.002,0,RJTF,,,,0,20170916080000,-1,-1,-1,-1,-1,-1,-1,-1,-1,-1,-1,,-1,0,0,0,,0,-1,0,-1,-1,RJTF 160800Z NIL=
20170916_090000.002,0,RJTF,,,,0,20170916090000,-1,-1,-1,-1,-1,-1,-1,-1,-1,-1,-1,,-1,0,0,0,,0,-1,0,-1,-1,RJTF 160900Z NIL=
20170916_233000.001,0,RJTF,,,,0,20170916230000,-1,-1,-1,-1,350,-1,7,-1,-1,-1,-1,,4000,0,2,3,SCT 5   BKN 8   BKN 15,1,18,1,16,1015,RJTF 162330Z 35007KT 4000 -RA BR SCT005 BKN008 BKN015 18/16     Q1015 RMK 3ST005 5ST008 7SC015 A2999=
20170917_000000.002,0,RJTF,,,,0,20170917000000,-1,-1,-1,-1,20,-1,3,-1,-1,340,70,,3500,0,2,3,SCT 4   BKN 6   BKN 15,1,18,1,16,1015,RJTF 170000Z 02003KT 340V070 3500 -RA BR SCT004 BKN006 BKN015     18/16 Q1015 RMK 3ST004 5ST006 7SC015 A3000=
20170917_010000.002,0,RJTF,,,,0,20170917010000,-1,-1,-1,-1,360,-1,8,-1,-1,320,30,,4000,0,2,3,FEW 6   BKN 8   BKN 20,1,18,1,16,1015,RJTF 170100Z 36008KT 320V030 4000 SHRA BR FEW006 BKN008 BKN020     18/16 Q1015 RMK 2ST006 5ST008 7SC020 A2997=
20170917_020000.002,0,RJTF,,,,0,20170917020000,-1,-1,-1,-1,360,-1,8,-1,-1,-1,-1,,4500,0,2,3,SCT 6   BKN 8   BKN 20,1,18,1,17,1014,RJTF 170200Z 36008KT 4500 -RA BR SCT006 BKN008 BKN020 18/17     Q1014 RMK 4ST006 5ST008 7SC020 A2994=
20170917_030000.002,0,RJTF,,,,0,20170917030000,-1,-1,-1,-1,350,-1,8,-1,-1,-1,-1,,5000,0,2,3,FEW 6   SCT 8   BKN 16,1,18,1,17,1012,RJTF 170300Z 35008KT 5000 -RA BR FEW006 SCT008 BKN016 18/17     Q1012 RMK 2ST006 4ST008 7SC016 A2991=
20170917_040000.003,0,RJTF,,,,0,20170917040000,-1,-1,-1,-1,340,-1,7,-1,-1,-1,-1,,3000,0,2,3,SCT 5   BKN 8   BKN 14,1,18,1,17,1012,RJTF 170400Z 34007KT 3000 RA BR SCT005 BKN008 BKN014 18/17     Q1012 RMK 4ST005 5ST008 7SC014 A2988=
20170917_050000.002,0,RJTF,,,,0,20170917050000,-1,-1,-1,-1,350,-1,9,-1,-1,-1,-1,,3000,0,2,3,SCT 5   BKN 7   BKN 14,1,19,1,17,1010,RJTF 170500Z 35009KT 3000 RA BR SCT005 BKN007 BKN014 19/17     Q1010 RMK 4ST005 5ST007 7SC014 A2984=
20170917_060000.002,0,RJTF,,,,0,20170917060000,-1,-1,-1,-1,360,-1,9,-1,-1,-1,-1,,3500,0,2,3,SCT 5   BKN 6   BKN 15,1,19,1,17,1009,RJTF 170600Z 36009KT 3500 -RA BR SCT005 BKN006 BKN015 19/17     Q1009 RMK 3ST005 5ST006 7SC015 A2981=
20170917_070000.003,0,RJTF,,,,0,20170917070000,-1,-1,-1,-1,350,-1,8,-1,-1,320,30,,3000,0,2,3,SCT 4   BKN 6   BKN 15,1,19,1,18,1008,RJTF 170700Z 35008KT 320V030 3000 RA BR SCT004 BKN006 BKN015     19/18 Q1008 RMK 3ST004 5ST006 7SC015 A2979=
20170917_080000.002,0,RJTF,,,,0,20170917080000,-1,-1,-1,-1,-1,-1,-1,-1,-1,-1,-1,,-1,0,0,0,,0,-1,0,-1,-1,RJTF 170800Z NIL=
20170917_090000.003,0,RJTF,,,,0,20170917090000,-1,-1,-1,-1,-1,-1,-1,-1,-1,-1,-1,,-1,0,0,0,,0,-1,0,-1,-1,RJTF 170900Z NIL=
20170917_233000.001,0,RJTF,,,,0,20170917230000,-1,-1,-1,-1,200,-1,10,-1,-1,170,230,,9999,0,0,2,FEW 30   BKN -9999,1,28,1,19,996,RJTF 172330Z 20010KT 170V230 9999 FEW030 BKN/// 28/19 Q0996     RMK 1CU030 A2942=
20170918_000000.002,0,RJTF,,,,0,20170918000000,-1,-1,-1,-1,200,-1,9,-1,-1,170,240,,9999,0,0,2,FEW 30   SCT -9999,1,28,1,19,996,RJTF 180000Z 20009KT 170V240 9999 FEW030 SCT/// 28/19 Q0996     RMK 1CU030 A2943=
20170918_010000.002,0,RJTF,,,,0,20170918010000,-1,-1,-1,-1,180,-1,9,-1,-1,150,220,,9999,0,0,1,FEW 30,1,29,1,18,997,RJTF 180100Z 18009KT 150V220 9999 FEW030 29/18 Q0997 RMK     1CU030 A2946=
20170918_020000.002,0,RJTF,,,,0,20170918020000,-1,-1,-1,-1,240,-1,3,-1,-1,170,340,,9999,0,0,1,FEW 30,1,31,1,19,998,RJTF 180200Z 24003KT 170V340 9999 FEW030 31/19 Q0998 RMK     1CU030 A2948=
20170918_030000.002,0,RJTF,,,,0,20170918030000,-1,-1,-1,-1,999,-1,2,-1,-1,-1,-1,,9999,0,0,1,FEW 30,1,32,1,19,998,RJTF 180300Z VRB02KT 9999 FEW030 32/19 Q0998 RMK 1CU030 A2949=
20170918_040000.003,0,RJTF,,,,0,20170918040000,-1,-1,-1,-1,999,-1,2,-1,-1,-1,-1,,9999,0,0,1,FEW 30,1,33,1,17,999,RJTF 180400Z VRB02KT 9999 FEW030 33/17 Q0999 RMK 2CU030 A2950=
20170918_050000.002,0,RJTF,,,,0,20170918050000,-1,-1,-1,-1,70,-1,5,-1,-1,360,150,,9999,0,0,1,FEW 30,1,34,1,17,999,RJTF 180500Z 07005KT 360V150 9999 FEW030 34/17 Q0999 RMK     2CU030 A2951=
20170918_060000.002,0,RJTF,,,,0,20170918060000,-1,-1,-1,-1,40,-1,6,-1,-1,330,90,,9999,0,0,1,FEW 30,1,34,1,16,1000,RJTF 180600Z 04006KT 330V090 9999 FEW030 34/16 Q1000 RMK     2CU030 A2953=
20170918_070000.003,0,RJTF,,,,0,20170918070000,-1,-1,-1,-1,10,-1,10,-1,-1,340,60,,9999,0,0,1,FEW 30,1,32,1,15,1001,RJTF 180700Z 01010KT 340V060 9999 FEW030 32/15 Q1001 RMK     2CU030 A2956=
20170918_080000.002,0,RJTF,,,,0,20170918080000,-1,-1,-1,-1,-1,-1,-1,-1,-1,-1,-1,,-1,0,0,0,,0,-1,0,-1,-1,RJTF 180800Z NIL=
20170918_090000.002,0,RJTF,,,,0,20170918090000,-1,-1,-1,-1,-1,-1,-1,-1,-1,-1,-1,,-1,0,0,0,,0,-1,0,-1,-1,RJTF 180900Z NIL=
20170918_233000.001,0,RJTF,,,,0,20170918230000,-1,-1,-1,-1,999,-1,2,-1,-1,-1,-1,,9999,0,0,3,FEW 30   SCT 40   BKN 70,1,25,1,15,1011,RJTF 182330Z VRB02KT 9999 FEW030 SCT040 BKN070 25/15 Q1011 RMK     2CU030 3SC040 6AC070 A2986=
20170919_000000.003,0,RJTF,,,,0,20170919000000,-1,-1,-1,-1,999,-1,2,-1,-1,-1,-1,,9999,0,0,2,FEW 30   SCT 40,1,25,1,15,1011,RJTF 190000Z VRB02KT 9999 FEW030 SCT040 25/15 Q1011 RMK 1CU030     3SC040 A2986=
20170919_010000.002,0,RJTF,,,,0,20170919010000,-1,-1,-1,-1,130,-1,5,-1,-1,80,170,,9999,0,0,1,FEW 30,1,27,1,14,1010,RJTF 190100Z 13005KT 080V170 9999 FEW030 27/14 Q1010 RMK     1CU030 A2984=
20170919_020000.002,0,RJTF,,,,0,20170919020000,-1,-1,-1,-1,999,-1,4,-1,-1,-1,-1,,9999,0,0,2,FEW 30   SCT -9999,1,27,1,14,1010,RJTF 190200Z VRB04KT 9999 FEW030 SCT/// 27/14 Q1010 RMK 1CU030     A2982=
20170919_030000.002,0,RJTF,,,,0,20170919030000,-1,-1,-1,-1,140,-1,6,-1,17,100,190,,9999,0,0,2,FEW 30   BKN -9999,1,28,1,14,1009,RJTF 190300Z 14006G17KT 100V190 9999 FEW030 BKN/// 28/14 Q1009     RMK 2CU030 A2980=
20170919_040000.002,0,RJTF,,,,0,20170919040000,-1,-1,-1,-1,150,-1,7,-1,-1,-1,-1,,9999,0,0,2,SCT 30   BKN -9999,1,29,1,15,1008,RJTF 190400Z 15007KT 9999 SCT030 BKN/// 29/15 Q1008 RMK 3CU030     A2978=
20170919_050000.002,0,RJTF,,,,0,20170919050000,-1,-1,-1,-1,140,-1,6,-1,-1,90,160,,9999,0,0,2,SCT 30   BKN -9999,1,28,1,16,1008,RJTF 190500Z 14006KT 090V160 9999 SCT030 BKN/// 28/16 Q1008     RMK 3CU030 A2977=
20170919_060000.002,0,RJTF,,,,0,20170919060000,-1,-1,-1,-1,170,-1,7,-1,-1,140,200,,9999,0,0,2,FEW 30   BKN -9999,1,28,1,17,1008,RJTF 190600Z 17007KT 140V200 9999 FEW030 BKN/// 28/17 Q1008     RMK 1CU030 A2977=
20170919_070000.003,0,RJTF,,,,0,20170919070000,-1,-1,-1,-1,170,-1,7,-1,-1,140,200,,9999,0,0,2,FEW 30   BKN -9999,1,28,1,16,1008,RJTF 190700Z 17007KT 140V200 9999 FEW030 BKN/// 28/16 Q1008     RMK 1CU030 A2977=
20170919_080000.002,0,RJTF,,,,0,20170919080000,-1,-1,-1,-1,-1,-1,-1,-1,-1,-1,-1,,-1,0,0,0,,0,-1,0,-1,-1,RJTF 190800Z NIL=
20170919_090000.002,0,RJTF,,,,0,20170919090000,-1,-1,-1,-1,-1,-1,-1,-1,-1,-1,-1,,-1,0,0,0,,0,-1,0,-1,-1,RJTF 190900Z NIL=
20170919_233000.001,0,RJTF,,,,0,20170919230000,-1,-1,-1,-1,350,-1,3,-1,-1,-1,-1,,9999,0,1,3,FEW 40   SCT 120   BKN 160,1,22,1,17,1010,RJTF 192330Z 35003KT 9999 -RA FEW040 SCT120 BKN160 22/17 Q1010     RMK 1SC040 3AC120 7AC160 A2982=
20170920_000000.003,0,RJTF,,,,0,20170920000000,-1,-1,-1,-1,340,-1,3,-1,-1,-1,-1,CAVOK,-1,0,0,0,,1,22,1,17,1009,RJTF 200000Z 34003KT CAVOK 22/17 Q1009 RMK A2982=
20170920_010000.002,0,RJTF,,,,0,20170920010000,-1,-1,-1,-1,999,-1,2,-1,-1,-1,-1,CAVOK,-1,0,0,0,,1,23,1,17,1009,RJTF 200100Z VRB02KT CAVOK 23/17 Q1009 RMK A2981=
20170920_020000.003,0,RJTF,,,,0,20170920020000,-1,-1,-1,-1,999,-1,2,-1,-1,-1,-1,,9999,0,0,3,FEW 30   BKN 160   BKN -9999,1,24,1,17,1008,RJTF 200200Z VRB02KT 9999 FEW030 BKN160 BKN/// 24/17 Q1008 RMK     1CU030 6AC160 A2978=
20170920_030000.002,0,RJTF,,,,0,20170920030000,-1,-1,-1,-1,170,-1,3,-1,-1,140,210,,9999,0,0,3,FEW 30   BKN 150   BKN -9999,1,24,1,17,1007,RJTF 200300Z 17003KT 140V210 9999 FEW030 BKN150 BKN/// 24/17     Q1007 RMK 1CU030 6AC150 A2975=
20170920_040000.002,0,RJTF,,,,0,20170920040000,-1,-1,-1,-1,160,-1,3,-1,-1,120,200,,9999,0,0,3,FEW 30   BKN 170   BKN -9999,1,25,1,18,1006,RJTF 200400Z 16003KT 120V200 9999 FEW030 BKN170 BKN/// 25/18     Q1006 RMK 1CU030 6AC170 A2972=
20170920_050000.002,0,RJTF,,,,0,20170920050000,-1,-1,-1,-1,180,-1,6,-1,-1,-1,-1,,9999,0,0,3,FEW 30   BKN 160   BKN -9999,1,24,1,16,1005,RJTF 200500Z 18006KT 9999 FEW030 BKN160 BKN/// 24/16 Q1005 RMK     1CU030 6AC160 A2970=
20170920_060000.002,0,RJTF,,,,0,20170920060000,-1,-1,-1,-1,170,-1,4,-1,-1,130,200,,9999,0,0,3,FEW 30   BKN 170   BKN -9999,1,24,1,17,1004,RJTF 200600Z 17004KT 130V200 9999 FEW030 BKN170 BKN/// 24/17     Q1004 RMK 1CU030 5AC170 A2967=
20170920_070000.002,0,RJTF,,,,0,20170920070000,-1,-1,-1,-1,130,-1,3,-1,-1,80,150,,9999,0,0,3,FEW 30   BKN 170   BKN -9999,1,24,1,17,1003,RJTF 200700Z 13003KT 080V150 9999 FEW030 BKN170 BKN/// 24/17     Q1003 RMK 1CU030 5AC170 A2964=
20170920_080000.002,0,RJTF,,,,0,20170920080000,-1,-1,-1,-1,-1,-1,-1,-1,-1,-1,-1,,-1,0,0,0,,0,-1,0,-1,-1,RJTF 200800Z NIL=
20170920_090000.002,0,RJTF,,,,0,20170920090000,-1,-1,-1,-1,-1,-1,-1,-1,-1,-1,-1,,-1,0,0,0,,0,-1,0,-1,-1,RJTF 200900Z NIL=
20170920_233000.001,0,RJTF,,,,0,20170920230000,-1,-1,-1,-1,360,-1,3,-1,-1,330,60,,9999,0,0,2,FEW 30   SCT -9999,1,23,1,11,1010,RJTF 202330Z 36003KT 330V060 9999 FEW030 SCT/// 23/11 Q1010     RMK 1CU030 A2984=
20170921_000000.002,0,RJTF,,,,0,20170921000000,-1,-1,-1,-1,340,-1,5,-1,-1,310,10,,9999,0,0,2,FEW 30   BKN -9999,1,24,1,10,1010,RJTF 210000Z 34005KT 310V010 9999 FEW030 BKN/// 24/10 Q1010     RMK 1CU030 A2984=
20170921_010000.002,0,RJTF,,,,0,20170921010000,-1,-1,-1,-1,340,-1,10,-1,-1,300,10,,9999,0,0,2,FEW 30   SCT -9999,1,27,1,10,1010,RJTF 210100Z 34010KT 300V010 9999 FEW030 SCT/// 27/10 Q1010     RMK 1CU030 A2984=
20170921_020000.002,0,RJTF,,,,0,20170921020000,-1,-1,-1,-1,350,-1,12,-1,-1,310,20,,9999,0,0,1,FEW 30,1,28,1,10,1010,RJTF 210200Z 35012KT 310V020 9999 FEW030 28/10 Q1010 RMK     1CU030 A2984=
20170921_030000.002,0,RJTF,,,,0,20170921030000,-1,-1,-1,-1,10,-1,10,-1,-1,330,50,,9999,0,0,1,FEW 30,1,29,1,11,1010,RJTF 210300Z 01010KT 330V050 9999 FEW030 29/11 Q1010 RMK     1CU030 A2983=
20170921_040000.002,0,RJTF,,,,0,20170921040000,-1,-1,-1,-1,350,-1,7,-1,-1,310,20,,9999,0,0,1,FEW 30,1,29,1,11,1010,RJTF 210400Z 35007KT 310V020 9999 FEW030 29/11 Q1010 RMK     1CU030 A2983=
20170921_050000.003,0,RJTF,,,,0,20170921050000,-1,-1,-1,-1,40,-1,8,-1,-1,360,70,,9999,0,0,1,FEW 30,1,29,1,11,1010,RJTF 210500Z 04008KT 360V070 9999 FEW030 29/11 Q1010 RMK     1CU030 A2983=
20170921_060000.003,0,RJTF,,,,0,20170921060000,-1,-1,-1,-1,360,-1,6,-1,-1,330,40,,9999,0,0,1,FEW 30,1,29,1,11,1010,RJTF 210600Z 36006KT 330V040 9999 FEW030 29/11 Q1010 RMK     1CU030 A2984=
20170921_070000.002,0,RJTF,,,,0,20170921070000,-1,-1,-1,-1,30,-1,6,-1,-1,330,80,,9999,0,0,2,FEW 30   SCT 70,1,28,1,8,1010,RJTF 210700Z 03006KT 330V080 9999 FEW030 SCT070 28/08 Q1010     RMK 1CU030 3AC070 A2985=
20170921_080000.002,0,RJTF,,,,0,20170921080000,-1,-1,-1,-1,-1,-1,-1,-1,-1,-1,-1,,-1,0,0,0,,0,-1,0,-1,-1,RJTF 210800Z NIL=
20170921_090000.002,0,RJTF,,,,0,20170921090000,-1,-1,-1,-1,-1,-1,-1,-1,-1,-1,-1,,-1,0,0,0,,0,-1,0,-1,-1,RJTF 210900Z NIL=
20170921_233000.001,0,RJTF,,,,0,20170921230000,-1,-1,-1,-1,340,-1,4,-1,-1,290,10,,9999,0,0,3,FEW 30   SCT 50   BKN -9999,1,21,1,15,1018,RJTF 212330Z 34004KT 290V010 9999 FEW030 SCT050 BKN/// 21/15     Q1018 RMK 2CU030 3SC050 A3007=
20170922_000000.003,0,RJTF,,,,0,20170922000000,-1,-1,-1,-1,330,-1,5,-1,-1,270,30,,9999,0,0,3,FEW 30   SCT 60   BKN -9999,1,23,1,16,1018,RJTF 220000Z 33005KT 270V030 9999 FEW030 SCT060 BKN/// 23/16     Q1018 RMK 2CU030 3SC060 A3008=
20170922_010000.002,0,RJTF,,,,0,20170922010000,-1,-1,-1,-1,340,-1,4,-1,-1,300,10,,9999,0,0,3,FEW 30   SCT 60   BKN 90,1,23,1,15,1018,RJTF 220100Z 34004KT 300V010 9999 FEW030 SCT060 BKN090 23/15     Q1018 RMK 1CU030 3SC060 7AC090 A3008=
20170922_020000.002,0,RJTF,,,,0,20170922020000,-1,-1,-1,-1,340,-1,5,-1,-1,300,20,,9999,0,0,3,FEW 30   SCT 70   BKN 100,1,24,1,15,1018,RJTF 220200Z 34005KT 300V020 9999 FEW030 SCT070 BKN100 24/15     Q1018 RMK 1CU030 4AC070 7AC100 A3007=
20170922_030000.002,0,RJTF,,,,0,20170922030000,-1,-1,-1,-1,360,-1,5,-1,-1,330,40,,9999,0,0,3,FEW 30   SCT 100   BKN -9999,1,24,1,16,1017,RJTF 220300Z 36005KT 330V040 9999 FEW030 SCT100 BKN/// 24/16     Q1017 RMK 1CU030 3AC100 A3004=
20170922_040000.002,0,RJTF,,,,0,20170922040000,-1,-1,-1,-1,10,-1,4,-1,-1,330,50,,9999,0,0,3,FEW 40   SCT 60   BKN 180,1,24,1,16,1017,RJTF 220400Z 01004KT 330V050 9999 FEW040 SCT060 BKN180 24/16     Q1017 RMK 1CU040 3SC060 7AC180 A3003=
20170922_050000.002,0,RJTF,,,,0,20170922050000,-1,-1,-1,-1,350,-1,3,-1,-1,-1,-1,,9999,0,1,3,FEW 30   BKN 40   BKN 60,1,23,1,17,1016,RJTF 220500Z 35003KT 9999 -SHRA FEW030 BKN040 BKN060 23/17     Q1016 RMK 2CU030 5CU040 7SC060 A3003=
20170922_060000.002,0,RJTF,,,,0,20170922060000,-1,-1,-1,-1,350,-1,5,-1,-1,-1,-1,,9999,0,1,3,FEW 30   BKN 40   BKN 70,1,22,1,17,1016,RJTF 220600Z 35005KT 9999 VCSH FEW030 BKN040 BKN070 22/17     Q1016 RMK 1CU030 5SC040 7AC070 A3002=
20170922_070000.002,0,RJTF,,,,0,20170922070000,-1,-1,-1,-1,110,-1,3,-1,-1,60,130,,7000,0,1,3,SCT 25   BKN 35   BKN 60,1,21,1,18,1017,RJTF 220700Z 11003KT 060V130 7000 -SHRA SCT025 BKN035 BKN060     21/18 Q1017 RMK 3CU025 5SC035 7SC060 A3003=
20170922_080000.002,0,RJTF,,,,0,20170922080000,-1,-1,-1,-1,-1,-1,-1,-1,-1,-1,-1,,-1,0,0,0,,0,-1,0,-1,-1,RJTF 220800Z NIL=
20170922_090000.002,0,RJTF,,,,0,20170922090000,-1,-1,-1,-1,-1,-1,-1,-1,-1,-1,-1,,-1,0,0,0,,0,-1,0,-1,-1,RJTF 220900Z NIL=
20170922_233000.001,0,RJTF,,,,0,20170922230000,-1,-1,-1,-1,360,-1,8,-1,-1,-1,-1,,8000,0,1,3,FEW 6   BKN 8   BKN 20,1,18,1,17,1015,RJTF 222330Z 36008KT 8000 -DZ FEW006 BKN008 BKN020 18/17 Q1015     RMK 2ST006 5ST008 7SC020 A2998=
20170923_000000.003,0,RJTF,,,,0,20170923000000,-1,-1,-1,-1,350,-1,9,-1,-1,-1,-1,,9999,0,1,3,FEW 5   BKN 8   BKN 18,1,19,1,17,1015,RJTF 230000Z 35009KT 9999 -DZ FEW005 BKN008 BKN018 19/17 Q1015     RMK 2ST005 5ST008 7SC018 A2999=
20170923_010000.002,0,RJTF,,,,0,20170923010000,-1,-1,-1,-1,340,-1,8,-1,-1,-1,-1,,9999,0,0,3,SCT 10   BKN 15   BKN 25,1,20,1,17,1015,RJTF 230100Z 34008KT 9999 SCT010 BKN015 BKN025 20/17 Q1015 RMK     3CU010 5CU015 7SC025 A2998=
20170923_020000.002,0,RJTF,,,,0,20170923020000,-1,-1,-1,-1,350,-1,9,-1,-1,-1,-1,,9999,0,0,3,FEW 15   SCT 20   BKN 25,1,21,1,16,1014,RJTF 230200Z 35009KT 9999 FEW015 SCT020 BKN025 21/16 Q1014 RMK     2CU015 4CU020 7SC025 A2997=
20170923_030000.002,0,RJTF,,,,0,20170923030000,-1,-1,-1,-1,20,-1,7,-1,-1,-1,-1,,9999,0,0,3,FEW 20   SCT 25   BKN 35,1,22,1,16,1014,RJTF 230300Z 02007KT 9999 FEW020 SCT025 BKN035 22/16 Q1014 RMK     2CU020 4CU025 7SC035 A2995=
20170923_040000.002,0,RJTF,,,,0,20170923040000,-1,-1,-1,-1,350,-1,11,-1,-1,-1,-1,,9999,0,0,3,FEW 25   SCT 35   BKN -9999,1,23,1,16,1013,RJTF 230400Z 35011KT 9999 FEW025 SCT035 BKN/// 23/16 Q1013 RMK     2CU025 4SC035 A2994=
20170923_050000.002,0,RJTF,,,,0,20170923050000,-1,-1,-1,-1,30,-1,8,-1,-1,360,60,,9999,0,0,3,FEW 25   SCT 30   BKN -9999,1,23,1,15,1013,RJTF 230500Z 03008KT 360V060 9999 FEW025 SCT030 BKN/// 23/15     Q1013 RMK 2CU025 4CU030 A2992=
20170923_060000.002,0,RJTF,,,,0,20170923060000,-1,-1,-1,-1,20,-1,7,-1,-1,350,50,,9999,0,0,3,FEW 30   BKN 40   BKN -9999,1,23,1,16,1013,RJTF 230600Z 02007KT 350V050 9999 FEW030 BKN040 BKN/// 23/16     Q1013 RMK 2CU030 5SC040 A2993=
20170923_070000.003,0,RJTF,,,,0,20170923070000,-1,-1,-1,-1,360,-1,5,-1,-1,-1,-1,,9999,0,0,3,FEW 30   SCT 40   BKN -9999,1,23,1,16,1014,RJTF 230700Z 36005KT 9999 FEW030 SCT040 BKN/// 23/16 Q1014 RMK     1CU030 4SC040 A2995=
20170923_080000.003,0,RJTF,,,,0,20170923080000,-1,-1,-1,-1,-1,-1,-1,-1,-1,-1,-1,,-1,0,0,0,,0,-1,0,-1,-1,RJTF 230800Z NIL=
20170923_090000.002,0,RJTF,,,,0,20170923090000,-1,-1,-1,-1,-1,-1,-1,-1,-1,-1,-1,,-1,0,0,0,,0,-1,0,-1,-1,RJTF 230900Z NIL=
20170923_233000.001,0,RJTF,,,,0,20170923230000,-1,-1,-1,-1,999,-1,1,-1,-1,-1,-1,,9999,0,0,3,FEW 15   SCT 60   BKN 150,1,22,1,15,1016,RJTF 232330Z VRB01KT 9999 FEW015 SCT060 BKN150 22/15 Q1016 RMK     1CU015 3SC060 6AC150 A3002=
20170924_000000.003,0,RJTF,,,,0,20170924000000,-1,-1,-1,-1,999,-1,2,-1,-1,-1,-1,,9999,0,0,3,FEW 15   SCT 60   BKN 150,1,23,1,15,1016,RJTF 240000Z VRB02KT 9999 FEW015 SCT060 BKN150 23/15 Q1016 RMK     1CU015 3SC060 5AC150 A3002=
20170924_010000.002,0,RJTF,,,,0,20170924010000,-1,-1,-1,-1,999,-1,1,-1,-1,-1,-1,,9999,0,0,2,FEW 20   BKN 150,1,24,1,16,1016,RJTF 240100Z VRB01KT 9999 FEW020 BKN150 24/16 Q1016 RMK 1CU020     5AC150 A3002=
20170924_020000.002,0,RJTF,,,,0,20170924020000,-1,-1,-1,-1,999,-1,2,-1,-1,-1,-1,,9999,0,0,2,FEW 30   BKN 150,1,24,1,16,1016,RJTF 240200Z VRB02KT 9999 FEW030 BKN150 24/16 Q1016 RMK 1CU030     5AC150 A3000=
20170924_030000.002,0,RJTF,,,,0,20170924030000,-1,-1,-1,-1,160,-1,5,-1,-1,90,220,,9999,0,0,2,FEW 30   BKN 60,1,26,1,16,1015,RJTF 240300Z 16005KT 090V220 9999 FEW030 BKN060 26/16 Q1015     RMK 2CU030 5SC060 A2998=
20170924_040000.002,0,RJTF,,,,0,20170924040000,-1,-1,-1,-1,170,-1,5,-1,-1,130,210,,9999,0,0,2,SCT 30   BKN -9999,1,26,1,17,1014,RJTF 240400Z 17005KT 130V210 9999 SCT030 BKN/// 26/17 Q1014     RMK 3CU030 A2997=
20170924_050000.002,0,RJTF,,,,0,20170924050000,-1,-1,-1,-1,170,-1,4,-1,-1,130,220,,9999,0,0,2,BKN 30   BKN -9999,1,26,1,17,1014,RJTF 240500Z 17004KT 130V220 9999 BKN030 BKN/// 26/17 Q1014     RMK 6CU030 A2996=
20170924_060000.002,0,RJTF,,,,0,20170924060000,-1,-1,-1,-1,190,-1,8,-1,-1,150,220,,9999,0,0,2,BKN 30   BKN -9999,1,26,1,15,1014,RJTF 240600Z 19008KT 150V220 9999 BKN030 BKN/// 26/15 Q1014     RMK 5CU030 A2996=
20170924_070000.003,0,RJTF,,,,0,20170924070000,-1,-1,-1,-1,190,-1,5,-1,-1,150,230,,9999,0,0,3,FEW 30   SCT 150   BKN -9999,1,25,1,16,1014,RJTF 240700Z 19005KT 150V230 9999 FEW030 SCT150 BKN/// 25/16     Q1014 RMK 1CU030 3AC150 A2996=
20170924_080000.003,0,RJTF,,,,0,20170924080000,-1,-1,-1,-1,-1,-1,-1,-1,-1,-1,-1,,-1,0,0,0,,0,-1,0,-1,-1,RJTF 240800Z NIL=
20170924_090000.002,0,RJTF,,,,0,20170924090000,-1,-1,-1,-1,-1,-1,-1,-1,-1,-1,-1,,-1,0,0,0,,0,-1,0,-1,-1,RJTF 240900Z NIL=
20170924_233000.001,0,RJTF,,,,0,20170924230000,-1,-1,-1,-1,330,-1,3,-1,-1,280,40,,9000,0,0,2,FEW 20   BKN 25,1,23,1,18,1016,RJTF 242330Z 33003KT 280V040 9000 FEW020 BKN025 23/18 Q1016     RMK 2CU020 7CU025 A3000=
20170925_000000.002,0,RJTF,,,,0,20170925000000,-1,-1,-1,-1,350,-1,3,-1,-1,270,50,,9999,0,0,2,FEW 20   BKN 25,1,24,1,17,1016,RJTF 250000Z 35003KT 270V050 9999 FEW020 BKN025 24/17 Q1016     RMK 1CU020 5CU025 A3000=
20170925_010000.002,0,RJTF,,,,0,20170925010000,-1,-1,-1,-1,20,-1,4,-1,-1,320,130,,9999,0,0,1,FEW 25,1,25,1,18,1015,RJTF 250100Z 02004KT 320V130 9999 FEW025 25/18 Q1015 RMK     2CU025 A2999=
20170925_020000.002,0,RJTF,,,,0,20170925020000,-1,-1,-1,-1,210,-1,3,-1,-1,110,250,,9999,0,0,1,BKN 25,1,26,1,17,1015,RJTF 250200Z 21003KT 110V250 9999 BKN025 26/17 Q1015 RMK     5CU025 A2997=
20170925_030000.002,0,RJTF,,,,0,20170925030000,-1,-1,-1,-1,999,-1,4,-1,-1,-1,-1,,9999,0,0,1,BKN 30,1,28,1,17,1013,RJTF 250300Z VRB04KT 9999 BKN030 28/17 Q1013 RMK 5CU030 A2994=
20170925_040000.002,0,RJTF,,,,0,20170925040000,-1,-1,-1,-1,150,-1,5,-1,-1,80,230,,9999,0,0,1,BKN 30,1,28,1,16,1013,RJTF 250400Z 15005KT 080V230 9999 BKN030 28/16 Q1013 RMK     6CU030 A2992=
20170925_050000.002,0,RJTF,,,,0,20170925050000,-1,-1,-1,-1,170,-1,4,-1,-1,110,230,,9999,0,0,1,BKN 30,1,29,1,16,1013,RJTF 250500Z 17004KT 110V230 9999 BKN030 29/16 Q1013 RMK     5CU030 A2992=
20170925_060000.002,0,RJTF,,,,0,20170925060000,-1,-1,-1,-1,180,-1,6,-1,-1,130,230,,9999,0,0,2,SCT 30   SCT -9999,1,28,1,15,1012,RJTF 250600Z 18006KT 130V230 9999 SCT030 SCT/// 28/15 Q1012     RMK 4CU030 A2990=
20170925_070000.002,0,RJTF,,,,0,20170925070000,-1,-1,-1,-1,200,-1,7,-1,-1,160,230,,9999,0,0,2,FEW 30   BKN -9999,1,27,1,17,1012,RJTF 250700Z 20007KT 160V230 9999 FEW030 BKN/// 27/17 Q1012     RMK 2CU030 A2991=
20170925_080000.002,0,RJTF,,,,0,20170925080000,-1,-1,-1,-1,-1,-1,-1,-1,-1,-1,-1,,-1,0,0,0,,0,-1,0,-1,-1,RJTF 250800Z NIL=
20170925_090000.002,0,RJTF,,,,0,20170925090000,-1,-1,-1,-1,-1,-1,-1,-1,-1,-1,-1,,-1,0,0,0,,0,-1,0,-1,-1,RJTF 250900Z NIL=
20170925_233000.001,0,RJTF,,,,0,20170925230000,-1,-1,-1,-1,10,-1,5,-1,-1,320,60,,9999,0,0,1,FEW 20,1,24,1,16,1016,RJTF 252330Z 01005KT 320V060 9999 FEW020 24/16 Q1016 RMK     1CU020 A3001=
20170926_000000.003,0,RJTF,,,,0,20170926000000,-1,-1,-1,-1,20,-1,5,-1,-1,340,70,,9999,0,0,1,FEW 25,1,24,1,16,1016,RJTF 260000Z 02005KT 340V070 9999 FEW025 24/16 Q1016 RMK     1CU025 A3001=
20170926_010000.003,0,RJTF,,,,0,20170926010000,-1,-1,-1,-1,999,-1,2,-1,-1,-1,-1,,9999,0,0,1,SCT 25,1,25,1,17,1015,RJTF 260100Z VRB02KT 9999 SCT025 25/17 Q1015 RMK 3CU025 A3000=
20170926_020000.003,0,RJTF,,,,0,20170926020000,-1,-1,-1,-1,999,-1,3,-1,-1,-1,-1,,9999,0,0,2,FEW 25   BKN 30,1,26,1,17,1015,RJTF 260200Z VRB03KT 9999 FEW025 BKN030 26/17 Q1015 RMK 1CU025     6CU030 A2998=
20170926_030000.003,0,RJTF,,,,0,20170926030000,-1,-1,-1,-1,999,-1,2,-1,-1,-1,-1,,9999,0,0,2,FEW 25   SCT 35,1,27,1,17,1014,RJTF 260300Z VRB02KT 9999 FEW025 SCT035 27/17 Q1014 RMK 1CU025     3CU035 A2997=
20170926_040000.003,0,RJTF,,,,0,20170926040000,-1,-1,-1,-1,999,-1,2,-1,-1,-1,-1,,9999,0,0,2,FEW 25   SCT 35,1,28,1,16,1013,RJTF 260400Z VRB02KT 9999 FEW025 SCT035 28/16 Q1013 RMK 1CU025     3CU035 A2994=
20170926_050000.003,0,RJTF,,,,0,20170926050000,-1,-1,-1,-1,170,-1,4,-1,-1,130,220,,9999,0,0,2,FEW 25   SCT 40,1,28,1,16,1013,RJTF 260500Z 17004KT 130V220 9999 FEW025 SCT040 28/16 Q1013     RMK 1CU025 3CU040 A2993=
20170926_060000.003,0,RJTF,,,,0,20170926060000,-1,-1,-1,-1,170,-1,8,-1,-1,120,200,,9999,0,0,2,FEW 25   SCT 40,1,27,1,17,1013,RJTF 260600Z 17008KT 120V200 9999 FEW025 SCT040 27/17 Q1013     RMK 1CU025 3CU040 A2992=
20170926_070000.003,0,RJTF,,,,0,20170926070000,-1,-1,-1,-1,190,-1,8,-1,-1,160,230,,9999,0,0,1,FEW 30,1,27,1,16,1013,RJTF 260700Z 19008KT 160V230 9999 FEW030 27/16 Q1013 RMK     2CU030 A2993=
20170926_080000.002,0,RJTF,,,,0,20170926080000,-1,-1,-1,-1,-1,-1,-1,-1,-1,-1,-1,,-1,0,0,0,,0,-1,0,-1,-1,RJTF 260800Z NIL=
20170926_090000.003,0,RJTF,,,,0,20170926090000,-1,-1,-1,-1,-1,-1,-1,-1,-1,-1,-1,,-1,0,0,0,,0,-1,0,-1,-1,RJTF 260900Z NIL=
20170926_233000.001,0,RJTF,,,,0,20170926230000,-1,-1,-1,-1,999,-1,1,-1,-1,-1,-1,,8000,0,0,2,FEW 20   BKN -9999,1,22,1,18,1013,RJTF 262330Z VRB01KT 8000 FEW020 BKN/// 22/18 Q1013 RMK 1CU020     A2993=
20170927_000000.003,0,RJTF,,,,0,20170927000000,-1,-1,-1,-1,180,-1,3,-1,-1,110,230,,9999,0,0,2,FEW 20   SCT -9999,1,25,1,19,1013,RJTF 270000Z 18003KT 110V230 9999 FEW020 SCT/// 25/19 Q1013     RMK 1CU020 A2992=
20170927_010000.003,0,RJTF,,,,0,20170927010000,-1,-1,-1,-1,210,-1,7,-1,-1,160,250,,9999,0,0,3,FEW 20   SCT 30   BKN -9999,1,26,1,18,1012,RJTF 270100Z 21007KT 160V250 9999 FEW020 SCT030 BKN/// 26/18     Q1012 RMK 1CU020 3CU030 A2990=
20170927_020000.003,0,RJTF,,,,0,20170927020000,-1,-1,-1,-1,190,-1,11,-1,-1,160,230,,9999,0,0,3,FEW 20   SCT 30   BKN -9999,1,26,1,17,1012,RJTF 270200Z 19011KT 160V230 9999 FEW020 SCT030 BKN/// 26/17     Q1012 RMK 1CU020 3CU030 A2988=
20170927_030000.003,0,RJTF,,,,0,20170927030000,-1,-1,-1,-1,190,-1,11,-1,-1,160,220,,9999,0,0,3,FEW 20   SCT 35   BKN -9999,1,27,1,18,1011,RJTF 270300Z 19011KT 160V220 9999 FEW020 SCT035 BKN/// 27/18     Q1011 RMK 1CU020 4CU035 A2987=
20170927_040000.002,0,RJTF,,,,0,20170927040000,-1,-1,-1,-1,190,-1,13,-1,-1,-1,-1,,9999,0,0,3,FEW 20   SCT 35   BKN 180,1,27,1,18,1010,RJTF 270400Z 19013KT 9999 FEW020 SCT035 BKN180 27/18 Q1010 RMK     1CU020 4CU035 6AC180 A2984=
20170927_050000.003,0,RJTF,,,,0,20170927050000,-1,-1,-1,-1,190,-1,10,-1,-1,160,230,,9999,0,0,3,FEW 20   SCT 35   BKN 180,1,26,1,17,1010,RJTF 270500Z 19010KT 160V230 9999 FEW020 SCT035 BKN180 26/17     Q1010 RMK 1CU020 4CU035 7AC180 A2984=
20170927_060000.003,0,RJTF,,,,0,20170927060000,-1,-1,-1,-1,180,-1,12,-1,-1,-1,-1,,9999,0,0,3,FEW 20   SCT 30   BKN -9999,1,25,1,16,1010,RJTF 270600Z 18012KT 9999 FEW020 SCT030 BKN/// 25/16 Q1010 RMK     1CU020 3CU030 A2984=
20170927_070000.002,0,RJTF,,,,0,20170927070000,-1,-1,-1,-1,180,-1,11,-1,-1,150,220,,9999,0,0,3,FEW 30   SCT 160   BKN -9999,1,25,1,16,1010,RJTF 270700Z 18011KT 150V220 9999 FEW030 SCT160 BKN/// 25/16     Q1010 RMK 2CU030 4AC160 A2982=
20170927_080000.003,0,RJTF,,,,0,20170927080000,-1,-1,-1,-1,-1,-1,-1,-1,-1,-1,-1,,-1,0,0,0,,0,-1,0,-1,-1,RJTF 270800Z NIL=
20170927_090000.003,0,RJTF,,,,0,20170927090000,-1,-1,-1,-1,-1,-1,-1,-1,-1,-1,-1,,-1,0,0,0,,0,-1,0,-1,-1,RJTF 270900Z NIL=
20170927_233000.001,0,RJTF,,,,0,20170927230000,-1,-1,-1,-1,350,-1,4,-1,-1,300,30,,9999,0,1,3,FEW 7   SCT 10   BKN 20,1,19,1,17,999,RJTF 272330Z 35004KT 300V030 9999 -SHRA FEW007 SCT010 BKN020     19/17 Q0999 RMK 1ST007 3CU010 6SC020 A2951=
20170928_000000.003,0,RJTF,,,,0,20170928000000,-1,-1,-1,-1,360,-1,5,-1,-1,320,20,,9999,0,0,3,FEW 10   SCT 20   BKN 30,1,20,1,17,999,RJTF 280000Z 36005KT 320V020 9999 FEW010 SCT020 BKN030 20/17     Q0999 RMK 2CU010 4SC020 6SC030 A2950=
20170928_010000.003,0,RJTF,,,,0,20170928010000,-1,-1,-1,-1,10,-1,4,-1,-1,330,70,,9999,0,0,3,FEW 12   BKN 20   BKN 30,1,21,1,17,998,RJTF 280100Z 01004KT 330V070 9999 FEW012 BKN020 BKN030 21/17     Q0998 RMK 2CU012 5SC020 7SC030 A2949=
20170928_020000.003,0,RJTF,,,,0,20170928020000,-1,-1,-1,-1,10,-1,5,-1,-1,320,50,,9999,0,0,3,FEW 15   SCT 20   BKN 40,1,21,1,17,997,RJTF 280200Z 01005KT 320V050 9999 FEW015 SCT020 BKN040 21/17     Q0997 RMK 1CU015 4SC020 7SC040 A2946=
20170928_030000.002,0,RJTF,,,,0,20170928030000,-1,-1,-1,-1,10,-1,4,-1,-1,310,60,,9999,0,0,3,FEW 20   SCT 25   BKN -9999,1,23,1,17,996,RJTF 280300Z 01004KT 310V060 9999 FEW020 SCT025 BKN/// 23/17     Q0996 RMK 1CU020 4SC025 A2943=
20170928_040000.003,0,RJTF,,,,0,20170928040000,-1,-1,-1,-1,10,-1,3,-1,-1,320,40,,9999,0,0,3,FEW 20   BKN 35   BKN 45,1,25,1,18,996,RJTF 280400Z 01003KT 320V040 9999 FEW020 BKN035 BKN045 25/18     Q0996 RMK 1CU020 5SC035 7SC045 A2941=
20170928_050000.003,0,RJTF,,,,0,20170928050000,-1,-1,-1,-1,20,-1,4,-1,-1,340,60,,9999,0,0,3,FEW 30   BKN 50   BKN -9999,1,25,1,18,996,RJTF 280500Z 02004KT 340V060 9999 FEW030 BKN050 BKN/// 25/18     Q0996 RMK 1CU030 6SC050 A2943=
20170928_060000.003,0,RJTF,,,,0,20170928060000,-1,-1,-1,-1,10,-1,9,-1,-1,-1,-1,,9999,0,1,3,FEW 20   SCT 30   BKN 50,1,22,1,17,998,RJTF 280600Z 01009KT 9999 -SHRA FEW020 SCT030 BKN050 22/17     Q0998 RMK 1CU020 3CU030 7SC050 A2947=
20170928_070000.002,0,RJTF,,,,0,20170928070000,-1,-1,-1,-1,350,-1,13,-1,-1,-1,-1,,7000,0,1,3,FEW 30   SCT 40   BKN 60,1,20,1,16,1000,RJTF 280700Z 35013KT 7000 -RA FEW030 SCT040 BKN060 20/16 Q1000     RMK 1CU030 4SC040 7SC060 A2953=
20170928_080000.003,0,RJTF,,,,0,20170928080000,-1,-1,-1,-1,-1,-1,-1,-1,-1,-1,-1,,-1,0,0,0,,0,-1,0,-1,-1,RJTF 280800Z NIL=
20170928_090000.003,0,RJTF,,,,0,20170928090000,-1,-1,-1,-1,-1,-1,-1,-1,-1,-1,-1,,-1,0,0,0,,0,-1,0,-1,-1,RJTF 280900Z NIL=
20170928_233000.001,0,RJTF,,,,0,20170928230000,-1,-1,-1,-1,999,-1,2,-1,-1,-1,-1,,9999,0,0,1,FEW 25,1,20,1,12,1013,RJTF 282330Z VRB02KT 9999 FEW025 20/12 Q1013 RMK 2CU025 A2994=
20170929_000000.003,0,RJTF,,,,0,20170929000000,-1,-1,-1,-1,140,-1,3,-1,-1,70,190,,9999,0,0,1,FEW 25,1,19,1,12,1013,RJTF 290000Z 14003KT 070V190 9999 FEW025 19/12 Q1013 RMK     2CU025 A2994=
20170929_010000.003,0,RJTF,,,,0,20170929010000,-1,-1,-1,-1,999,-1,2,-1,-1,-1,-1,,9999,0,0,1,SCT 30,1,22,1,12,1013,RJTF 290100Z VRB02KT 9999 SCT030 22/12 Q1013 RMK 3CU030 A2992=
20170929_020000.002,0,RJTF,,,,0,20170929020000,-1,-1,-1,-1,999,-1,3,-1,-1,-1,-1,,9999,0,0,1,SCT 35,1,23,1,12,1013,RJTF 290200Z VRB03KT 9999 SCT035 23/12 Q1013 RMK 3CU035 A2992=
20170929_030000.003,0,RJTF,,,,0,20170929030000,-1,-1,-1,-1,170,-1,6,-1,-1,90,230,,9999,0,0,1,SCT 35,1,24,1,13,1012,RJTF 290300Z 17006KT 090V230 9999 SCT035 24/13 Q1012 RMK     3CU035 A2990=
20170929_040000.002,0,RJTF,,,,0,20170929040000,-1,-1,-1,-1,150,-1,6,-1,-1,100,200,,9999,0,0,1,SCT 35,1,24,1,12,1012,RJTF 290400Z 15006KT 100V200 9999 SCT035 24/12 Q1012 RMK     3CU035 A2989=
20170929_050000.003,0,RJTF,,,,0,20170929050000,-1,-1,-1,-1,180,-1,7,-1,-1,140,220,,9999,0,0,1,FEW 35,1,24,1,11,1011,RJTF 290500Z 18007KT 140V220 9999 FEW035 24/11 Q1011 RMK     2CU035 A2988=
20170929_060000.003,0,RJTF,,,,0,20170929060000,-1,-1,-1,-1,200,-1,8,-1,-1,160,240,,9999,0,0,1,FEW 35,1,24,1,12,1012,RJTF 290600Z 20008KT 160V240 9999 FEW035 24/12 Q1012 RMK     1CU035 A2990=
20170929_070000.003,0,RJTF,,,,0,20170929070000,-1,-1,-1,-1,190,-1,7,-1,-1,140,240,,9999,0,0,1,FEW 35,1,23,1,12,1012,RJTF 290700Z 19007KT 140V240 9999 FEW035 23/12 Q1012 RMK     1CU035 A2990=
20170929_080000.003,0,RJTF,,,,0,20170929080000,-1,-1,-1,-1,-1,-1,-1,-1,-1,-1,-1,,-1,0,0,0,,0,-1,0,-1,-1,RJTF 290800Z NIL=
20170929_090000.003,0,RJTF,,,,0,20170929090000,-1,-1,-1,-1,-1,-1,-1,-1,-1,-1,-1,,-1,0,0,0,,0,-1,0,-1,-1,RJTF 290900Z NIL=
20170929_233000.001,0,RJTF,,,,0,20170929230000,-1,-1,-1,-1,360,-1,4,-1,-1,330,40,,9999,0,0,3,FEW 20   SCT 50   BKN 150,1,20,1,13,1020,RJTF 292330Z 36004KT 330V040 9999 FEW020 SCT050 BKN150 20/13     Q1020 RMK 2CU020 3SC050 6AC150 A3013=
20170930_000000.003,0,RJTF,,,,0,20170930000000,-1,-1,-1,-1,350,-1,5,-1,-1,320,30,,9999,0,0,3,FEW 25   SCT 50   BKN 150,1,20,1,13,1020,RJTF 300000Z 35005KT 320V030 9999 FEW025 SCT050 BKN150 20/13     Q1020 RMK 1CU025 3SC050 5AC150 A3013=
20170930_010000.003,0,RJTF,,,,0,20170930010000,-1,-1,-1,-1,350,-1,4,-1,-1,310,30,,9999,0,0,3,FEW 25   SCT 50   BKN 150,1,21,1,12,1020,RJTF 300100Z 35004KT 310V030 9999 FEW025 SCT050 BKN150 21/12     Q1020 RMK 1CU025 3SC050 5AC150 A3013=
20170930_020000.003,0,RJTF,,,,0,20170930020000,-1,-1,-1,-1,20,-1,3,-1,-1,320,90,,9999,0,0,3,FEW 30   SCT 150   BKN -9999,1,22,1,13,1019,RJTF 300200Z 02003KT 320V090 9999 FEW030 SCT150 BKN/// 22/13     Q1019 RMK 1CU030 4AC150 A3012=
20170930_030000.002,0,RJTF,,,,0,20170930030000,-1,-1,-1,-1,70,-1,3,-1,-1,340,130,,9999,0,0,3,FEW 30   BKN 150   BKN -9999,1,23,1,13,1019,RJTF 300300Z 07003KT 340V130 9999 FEW030 BKN150 BKN/// 23/13     Q1019 RMK 1CU030 5AC150 A3011=
20170930_040000.003,0,RJTF,,,,0,20170930040000,-1,-1,-1,-1,999,-1,3,-1,-1,-1,-1,,9999,0,0,3,FEW 30   BKN 150   BKN -9999,1,24,1,13,1018,RJTF 300400Z VRB03KT 9999 FEW030 BKN150 BKN/// 24/13 Q1018 RMK     1CU030 6AC150 A3008=
20170930_050000.004,0,RJTF,,,,0,20170930050000,-1,-1,-1,-1,999,-1,3,-1,-1,-1,-1,,9999,0,0,3,FEW 30   SCT 150   BKN -9999,1,24,1,12,1018,RJTF 300500Z VRB03KT 9999 FEW030 SCT150 BKN/// 24/12 Q1018 RMK     1CU030 3AC150 A3007=
20170930_060000.002,0,RJTF,,,,0,20170930060000,-1,-1,-1,-1,999,-1,2,-1,-1,-1,-1,,9999,0,0,2,FEW 30   BKN -9999,1,24,1,13,1018,RJTF 300600Z VRB02KT 9999 FEW030 BKN/// 24/13 Q1018 RMK 2CU030     A3008=
20170930_070000.002,0,RJTF,,,,0,20170930070000,-1,-1,-1,-1,140,-1,3,-1,-1,90,200,,9999,0,0,2,FEW 30   BKN -9999,1,24,1,13,1019,RJTF 300700Z 14003KT 090V200 9999 FEW030 BKN/// 24/13 Q1019     RMK 1CU030 A3009=
20170930_080000.002,0,RJTF,,,,0,20170930080000,-1,-1,-1,-1,-1,-1,-1,-1,-1,-1,-1,,-1,0,0,0,,0,-1,0,-1,-1,RJTF 300800Z NIL=
20170930_090000.003,0,RJTF,,,,0,20170930090000,-1,-1,-1,-1,-1,-1,-1,-1,-1,-1,-1,,-1,0,0,0,,0,-1,0,-1,-1,RJTF 300900Z NIL=
20170930_233000.001,0,RJTF,,,,0,20170930230000,-1,-1,-1,-1,20,-1,4,-1,-1,330,70,,9999,0,0,1,FEW 30,1,20,1,12,1025,RJTF 302330Z 02004KT 330V070 9999 FEW030 20/12 Q1025 RMK     1CU030 A3029=
20171001_000000.003,0,RJTF,,,,0,20171001000000,-1,-1,-1,-1,999,-1,3,-1,-1,-1,-1,,9999,0,0,1,FEW 30,1,20,1,11,1025,RJTF 010000Z VRB03KT 9999 FEW030 20/11 Q1025 RMK 1CU030 A3028=
20171001_010000.003,0,RJTF,,,,0,20171001010000,-1,-1,-1,-1,999,-1,3,-1,-1,-1,-1,,9999,0,0,1,FEW 30,1,22,1,11,1025,RJTF 010100Z VRB03KT 9999 FEW030 22/11 Q1025 RMK 1CU030 A3027=
20171001_020000.003,0,RJTF,,,,0,20171001020000,-1,-1,-1,-1,999,-1,2,-1,-1,-1,-1,,9999,0,0,2,FEW 30   SCT 100,1,23,1,11,1024,RJTF 010200Z VRB02KT 9999 FEW030 SCT100 23/11 Q1024 RMK 1CU030     3AC100 A3025=
20171001_030000.003,0,RJTF,,,,0,20171001030000,-1,-1,-1,-1,130,-1,6,-1,-1,80,190,,9999,0,0,3,FEW 30   SCT 80   BKN -9999,1,25,1,12,1022,RJTF 010300Z 13006KT 080V190 9999 FEW030 SCT080 BKN/// 25/12     Q1022 RMK 1CU030 3AC080 A3020=
20171001_040000.003,0,RJTF,,,,0,20171001040000,-1,-1,-1,-1,150,-1,8,-1,-1,130,190,,9999,0,0,3,FEW 30   SCT 80   BKN -9999,1,25,1,12,1022,RJTF 010400Z 15008KT 130V190 9999 FEW030 SCT080 BKN/// 25/12     Q1022 RMK 1CU030 3AC080 A3018=
20171001_050000.003,0,RJTF,,,,0,20171001050000,-1,-1,-1,-1,180,-1,9,-1,-1,150,210,,9999,0,0,3,FEW 30   SCT 80   BKN -9999,1,25,1,13,1022,RJTF 010500Z 18009KT 150V210 9999 FEW030 SCT080 BKN/// 25/13     Q1022 RMK 1CU030 3AC080 A3018=
20171001_060000.003,0,RJTF,,,,0,20171001060000,-1,-1,-1,-1,150,-1,10,-1,-1,-1,-1,,9999,0,0,3,FEW 20   BKN 30   BKN -9999,1,25,1,13,1021,RJTF 010600Z 15010KT 9999 FEW020 BKN030 BKN/// 25/13 Q1021 RMK     1CU020 5CU030 A3018=
20171001_070000.003,0,RJTF,,,,0,20171001070000,-1,-1,-1,-1,160,-1,9,-1,-1,130,200,,9999,0,0,3,FEW 30   BKN 40   BKN -9999,1,24,1,13,1022,RJTF 010700Z 16009KT 130V200 9999 FEW030 BKN040 BKN/// 24/13     Q1022 RMK 2CU030 5SC040 A3018=
20171001_080000.003,0,RJTF,,,,0,20171001080000,-1,-1,-1,-1,-1,-1,-1,-1,-1,-1,-1,,-1,0,0,0,,0,-1,0,-1,-1,RJTF 010800Z NIL=
20171001_090000.002,0,RJTF,,,,0,20171001090000,-1,-1,-1,-1,-1,-1,-1,-1,-1,-1,-1,,-1,0,0,0,,0,-1,0,-1,-1,RJTF 010900Z NIL=
20171001_233000.001,0,RJTF,,,,0,20171001230000,-1,-1,-1,-1,330,-1,3,-1,-1,280,10,,9999,0,0,3,FEW 30   SCT 170   BKN -9999,1,21,1,15,1019,RJTF 012330Z 33003KT 280V010 9999 FEW030 SCT170 BKN/// 21/15     Q1019 RMK 1CU030 3AC170 A3011=
20171002_000000.002,0,RJTF,,,,0,20171002000000,-1,-1,-1,-1,999,-1,1,-1,-1,-1,-1,,9999,0,0,3,FEW 30   SCT 170   BKN -9999,1,21,1,16,1019,RJTF 020000Z VRB01KT 9999 FEW030 SCT170 BKN/// 21/16 Q1019 RMK     1CU030 3AC170 A3011=
20171002_010000.003,0,RJTF,,,,0,20171002010000,-1,-1,-1,-1,0,-1,0,-1,-1,-1,-1,,9999,0,0,3,FEW 30   SCT 170   BKN -9999,1,23,1,16,1018,RJTF 020100Z 00000KT 9999 FEW030 SCT170 BKN/// 23/16 Q1018 RMK     1CU030 3AC170 A3008=
20171002_020000.003,0,RJTF,,,,0,20171002020000,-1,-1,-1,-1,210,-1,4,-1,-1,140,240,,9999,0,0,3,FEW 30   SCT 170   BKN -9999,1,24,1,15,1018,RJTF 020200Z 21004KT 140V240 9999 FEW030 SCT170 BKN/// 24/15     Q1018 RMK 2CU030 4AC170 A3006=
20171002_030000.003,0,RJTF,,,,0,20171002030000,-1,-1,-1,-1,180,-1,6,-1,-1,-1,-1,,9999,0,0,3,FEW 30   BKN 160   BKN -9999,1,25,1,14,1016,RJTF 020300Z 18006KT 9999 FEW030 BKN160 BKN/// 25/14 Q1016 RMK     2CU030 6AC160 A3003=
20171002_040000.003,0,RJTF,,,,0,20171002040000,-1,-1,-1,-1,190,-1,6,-1,-1,160,230,,9999,0,0,3,FEW 35   BKN 150   BKN -9999,1,25,1,14,1016,RJTF 020400Z 19006KT 160V230 9999 FEW035 BKN150 BKN/// 25/14     Q1016 RMK 2CU035 6AC150 A3000=
20171002_050000.003,0,RJTF,,,,0,20171002050000,-1,-1,-1,-1,190,-1,7,-1,-1,160,220,,9999,0,0,3,FEW 30   SCT 40   BKN 150,1,25,1,14,1015,RJTF 020500Z 19007KT 160V220 9999 FEW030 SCT040 BKN150 25/14     Q1015 RMK 1CU030 3CU040 6AC150 A2998=
20171002_060000.003,0,RJTF,,,,0,20171002060000,-1,-1,-1,-1,170,-1,7,-1,-1,-1,-1,,9999,0,0,3,FEW 30   SCT 120   BKN 160,1,25,1,15,1014,RJTF 020600Z 17007KT 9999 FEW030 SCT120 BKN160 25/15 Q1014 RMK     2CU030 4AC120 6AC160 A2997=
20171002_070000.003,0,RJTF,,,,0,20171002070000,-1,-1,-1,-1,180,-1,7,-1,-1,-1,-1,,9999,0,1,3,FEW 30   SCT 60   BKN 100,1,24,1,15,1015,RJTF 020700Z 18007KT 9999 -SHRA FEW030 SCT060 BKN100 24/15     Q1015 RMK 2CU030 4SC060 6AC100 A2997=
20171002_080000.003,0,RJTF,,,,0,20171002080000,-1,-1,-1,-1,-1,-1,-1,-1,-1,-1,-1,,-1,0,0,0,,0,-1,0,-1,-1,RJTF 020800Z NIL=
20171002_090000.003,0,RJTF,,,,0,20171002090000,-1,-1,-1,-1,-1,-1,-1,-1,-1,-1,-1,,-1,0,0,0,,0,-1,0,-1,-1,RJTF 020900Z NIL=
20171002_233000.001,0,RJTF,,,,0,20171002230000,-1,-1,-1,-1,360,-1,4,-1,-1,340,40,,5000,0,2,2,FEW 9   BKN 17,1,20,1,18,1009,RJTF 022330Z 36004KT 340V040 5000 -DZ BR FEW009 BKN017 20/18     Q1009 RMK 1ST009 7CU017 A2980=
20171003_000000.003,0,RJTF,,,,0,20171003000000,-1,-1,-1,-1,10,-1,3,-1,-1,320,50,,6000,0,0,3,FEW 9   SCT 17   BKN 25,1,22,1,18,1009,RJTF 030000Z 01003KT 320V050 6000 FEW009 SCT017 BKN025 22/18     Q1009 RMK 1ST009 3CU017 7SC025 A2979=
20171003_010000.003,0,RJTF,,,,0,20171003010000,-1,-1,-1,-1,10,-1,7,-1,-1,-1,-1,,9999,0,0,3,FEW 11   BKN 20   BKN 30,1,23,1,18,1008,RJTF 030100Z 01007KT 9999 FEW011 BKN020 BKN030 23/18 Q1008 RMK     1CU011 5SC020 7SC030 A2977=
20171003_020000.003,0,RJTF,,,,0,20171003020000,-1,-1,-1,-1,10,-1,5,-1,-1,330,60,,9999,0,0,3,FEW 15   SCT 20   BKN 130,1,24,1,18,1007,RJTF 030200Z 01005KT 330V060 9999 FEW015 SCT020 BKN130 24/18     Q1007 RMK 1CU015 3SC020 5AC130 A2976=
20171003_030000.003,0,RJTF,,,,0,20171003030000,-1,-1,-1,-1,999,-1,3,-1,-1,-1,-1,,9999,0,0,3,FEW 15   SCT 110   BKN -9999,1,26,1,17,1007,RJTF 030300Z VRB03KT 9999 FEW015 SCT110 BKN/// 26/17 Q1007 RMK     1CU015 4AC110 A2974=
20171003_040000.004,0,RJTF,,,,0,20171003040000,-1,-1,-1,-1,999,-1,2,-1,-1,-1,-1,,9999,0,0,2,FEW 15   BKN 100,1,26,1,17,1006,RJTF 030400Z VRB02KT 9999 FEW015 BKN100 26/17 Q1006 RMK 1CU015     6AC100 A2972=
20171003_050000.002,0,RJTF,,,,0,20171003050000,-1,-1,-1,-1,999,-1,1,-1,-1,-1,-1,,9999,0,0,2,FEW 20   BKN 100,1,27,1,17,1005,RJTF 030500Z VRB01KT 9999 FEW020 BKN100 27/17 Q1005 RMK 1CU020     6AC100 A2970=
20171003_060000.003,0,RJTF,,,,0,20171003060000,-1,-1,-1,-1,360,-1,3,-1,-1,290,50,,9999,0,0,2,FEW 20   BKN 90,1,29,1,17,1005,RJTF 030600Z 36003KT 290V050 9999 FEW020 BKN090 29/17 Q1005     RMK 1CU020 6AC090 A2970=
20171003_070000.003,0,RJTF,,,,0,20171003070000,-1,-1,-1,-1,30,-1,4,-1,-1,-1,-1,,9999,0,0,2,FEW 20   BKN 80,1,27,1,17,1005,RJTF 030700Z 03004KT 9999 FEW020 BKN080 27/17 Q1005 RMK 1CU020     5AC080 A2970=
20171003_080000.003,0,RJTF,,,,0,20171003080000,-1,-1,-1,-1,-1,-1,-1,-1,-1,-1,-1,,-1,0,0,0,,0,-1,0,-1,-1,RJTF 030800Z NIL=
20171003_090000.003,0,RJTF,,,,0,20171003090000,-1,-1,-1,-1,-1,-1,-1,-1,-1,-1,-1,,-1,0,0,0,,0,-1,0,-1,-1,RJTF 030900Z NIL=
20171003_233000.001,0,RJTF,,,,0,20171003230000,-1,-1,-1,-1,80,-1,5,-1,-1,40,120,,9999,0,0,3,FEW 25   SCT 35   BKN 60,1,18,1,10,1018,RJTF 032330Z 08005KT 040V120 9999 FEW025 SCT035 BKN060 18/10     Q1018 RMK 2CU025 4SC035 7SC060 A3008=
20171004_000000.003,0,RJTF,,,,0,20171004000000,-1,-1,-1,-1,90,-1,4,-1,-1,40,150,,9999,0,0,3,FEW 25   SCT 35   BKN 60,1,18,1,10,1018,RJTF 040000Z 09004KT 040V150 9999 FEW025 SCT035 BKN060 18/10     Q1018 RMK 1CU025 3SC035 7SC060 A3009=
20171004_010000.003,0,RJTF,,,,0,20171004010000,-1,-1,-1,-1,60,-1,4,-1,-1,30,100,,9999,0,0,3,FEW 30   SCT 40   BKN 60,1,19,1,9,1019,RJTF 040100Z 06004KT 030V100 9999 FEW030 SCT040 BKN060 19/09     Q1019 RMK 2CU030 3SC040 6SC060 A3009=
20171004_020000.003,0,RJTF,,,,0,20171004020000,-1,-1,-1,-1,100,-1,3,-1,-1,40,150,,9999,0,0,2,SCT 35   BKN 50,1,19,1,9,1018,RJTF 040200Z 10003KT 040V150 9999 SCT035 BKN050 19/09 Q1018     RMK 4CU035 7SC050 A3008=
20171004_030000.003,0,RJTF,,,,0,20171004030000,-1,-1,-1,-1,10,-1,9,-1,-1,340,50,,9999,0,0,3,FEW 30   SCT 40   BKN 60,1,20,1,7,1018,RJTF 040300Z 01009KT 340V050 9999 FEW030 SCT040 BKN060 20/07     Q1018 RMK 2CU030 4SC040 7SC060 A3007=
20171004_040000.003,0,RJTF,,,,0,20171004040000,-1,-1,-1,-1,10,-1,8,-1,-1,340,40,,9999,0,0,2,FEW 30   BKN 50,1,20,1,6,1018,RJTF 040400Z 01008KT 340V040 9999 FEW030 BKN050 20/06 Q1018     RMK 2CU030 7SC050 A3007=
20171004_050000.002,0,RJTF,,,,0,20171004050000,-1,-1,-1,-1,10,-1,6,-1,-1,340,60,,9999,0,0,2,FEW 30   BKN 60,1,20,1,6,1017,RJTF 040500Z 01006KT 340V060 9999 FEW030 BKN060 20/06 Q1017     RMK 1CU030 7SC060 A3006=
20171004_060000.002,0,RJTF,,,,0,20171004060000,-1,-1,-1,-1,70,-1,7,-1,-1,350,120,,9999,0,0,2,FEW 30   BKN 70,1,20,1,7,1018,RJTF 040600Z 07007KT 350V120 9999 FEW030 BKN070 20/07 Q1018     RMK 1CU030 6AC070 A3006=
20171004_070000.003,0,RJTF,,,,0,20171004070000,-1,-1,-1,-1,100,-1,3,-1,-1,40,130,,9999,0,0,2,FEW 30   BKN 70,1,20,1,7,1018,RJTF 040700Z 10003KT 040V130 9999 FEW030 BKN070 20/07 Q1018     RMK 1CU030 6AC070 A3007=
20171004_080000.003,0,RJTF,,,,0,20171004080000,-1,-1,-1,-1,-1,-1,-1,-1,-1,-1,-1,,-1,0,0,0,,0,-1,0,-1,-1,RJTF 040800Z NIL=
20171004_090000.002,0,RJTF,,,,0,20171004090000,-1,-1,-1,-1,-1,-1,-1,-1,-1,-1,-1,,-1,0,0,0,,0,-1,0,-1,-1,RJTF 040900Z NIL=
20171004_233000.001,0,RJTF,,,,0,20171004230000,-1,-1,-1,-1,10,-1,7,-1,-1,-1,-1,,9999,0,0,2,FEW 30   BKN -9999,1,15,1,6,1027,RJTF 042330Z 01007KT 9999 FEW030 BKN/// 15/06 Q1027 RMK 1CU030     A3035=
20171005_000000.003,0,RJTF,,,,0,20171005000000,-1,-1,-1,-1,360,-1,5,-1,-1,320,50,,9999,0,0,2,FEW 30   BKN -9999,1,15,1,6,1028,RJTF 050000Z 36005KT 320V050 9999 FEW030 BKN/// 15/06 Q1028     RMK 1CU030 A3036=
20171005_010000.003,0,RJTF,,,,0,20171005010000,-1,-1,-1,-1,999,-1,3,-1,-1,-1,-1,,9999,0,0,2,FEW 30   BKN -9999,1,16,1,6,1027,RJTF 050100Z VRB03KT 9999 FEW030 BKN/// 16/06 Q1027 RMK 1CU030     A3035=
20171005_020000.002,0,RJTF,,,,0,20171005020000,-1,-1,-1,-1,999,-1,3,-1,-1,-1,-1,,9999,0,0,2,FEW 30   BKN -9999,1,18,1,6,1027,RJTF 050200Z VRB03KT 9999 FEW030 BKN/// 18/06 Q1027 RMK 1CU030     A3034=
20171005_030000.002,0,RJTF,,,,0,20171005030000,-1,-1,-1,-1,999,-1,2,-1,-1,-1,-1,,9999,0,0,2,FEW 30   BKN -9999,1,19,1,4,1027,RJTF 050300Z VRB02KT 9999 FEW030 BKN/// 19/04 Q1027 RMK 1CU030     A3033=
20171005_040000.003,0,RJTF,,,,0,20171005040000,-1,-1,-1,-1,999,-1,2,-1,-1,-1,-1,,9999,0,0,2,FEW 30   BKN -9999,1,20,1,5,1026,RJTF 050400Z VRB02KT 9999 FEW030 BKN/// 20/05 Q1026 RMK 1CU030     A3032=
20171005_050000.003,0,RJTF,,,,0,20171005050000,-1,-1,-1,-1,999,-1,3,-1,-1,-1,-1,,9999,0,0,2,FEW 30   SCT -9999,1,20,1,6,1026,RJTF 050500Z VRB03KT 9999 FEW030 SCT/// 20/06 Q1026 RMK 1CU030     A3031=
20171005_060000.003,0,RJTF,,,,0,20171005060000,-1,-1,-1,-1,999,-1,4,-1,-1,-1,-1,,9999,0,0,2,FEW 40   BKN -9999,1,20,1,4,1026,RJTF 050600Z VRB04KT 9999 FEW040 BKN/// 20/04 Q1026 RMK 1CU040     A3031=
20171005_070000.003,0,RJTF,,,,0,20171005070000,-1,-1,-1,-1,140,-1,8,-1,-1,-1,-1,,9999,0,0,3,FEW 30   SCT 50   BKN -9999,1,19,1,5,1026,RJTF 050700Z 14008KT 9999 FEW030 SCT050 BKN/// 19/05 Q1026 RMK     1CU030 3SC050 A3031=
20171005_080000.003,0,RJTF,,,,0,20171005080000,-1,-1,-1,-1,-1,-1,-1,-1,-1,-1,-1,,-1,0,0,0,,0,-1,0,-1,-1,RJTF 050800Z NIL=
20171005_090000.003,0,RJTF,,,,0,20171005090000,-1,-1,-1,-1,-1,-1,-1,-1,-1,-1,-1,,-1,0,0,0,,0,-1,0,-1,-1,RJTF 050900Z NIL=
20171005_233000.001,0,RJTF,,,,0,20171005230000,-1,-1,-1,-1,10,-1,7,-1,-1,-1,-1,,9999,0,0,2,FEW 30   BKN 160,1,16,1,9,1029,RJTF 052330Z 01007KT 9999 FEW030 BKN160 16/09 Q1029 RMK 1CU030     7AC160 A3041=
20171006_000000.002,0,RJTF,,,,0,20171006000000,-1,-1,-1,-1,350,-1,7,-1,-1,-1,-1,,9999,0,0,2,FEW 30   BKN 160,1,16,1,8,1029,RJTF 060000Z 35007KT 9999 FEW030 BKN160 16/08 Q1029 RMK 1CU030     7AC160 A3041=
20171006_010000.002,0,RJTF,,,,0,20171006010000,-1,-1,-1,-1,350,-1,7,-1,-1,310,30,,9999,0,0,3,FEW 30   SCT 60   BKN 160,1,17,1,9,1029,RJTF 060100Z 35007KT 310V030 9999 FEW030 SCT060 BKN160 17/09     Q1029 RMK 2CU030 4SC060 7AC160 A3040=
20171006_020000.002,0,RJTF,,,,0,20171006020000,-1,-1,-1,-1,10,-1,7,-1,-1,-1,-1,,9999,0,0,3,FEW 30   BKN 50   BKN 120,1,17,1,9,1029,RJTF 060200Z 01007KT 9999 FEW030 BKN050 BKN120 17/09 Q1029 RMK     2CU030 6SC050 6AC120 A3039=
20171006_030000.002,0,RJTF,,,,0,20171006030000,-1,-1,-1,-1,10,-1,7,-1,-1,330,40,,9999,0,0,3,FEW 30   BKN 50   BKN 120,1,17,1,9,1029,RJTF 060300Z 01007KT 330V040 9999 FEW030 BKN050 BKN120 17/09     Q1029 RMK 2CU030 5SC050 6AC120 A3039=
20171006_040000.002,0,RJTF,,,,0,20171006040000,-1,-1,-1,-1,10,-1,7,-1,-1,330,40,,9999,0,0,3,FEW 30   SCT 50   BKN 120,1,18,1,9,1028,RJTF 060400Z 01007KT 330V040 9999 FEW030 SCT050 BKN120 18/09     Q1028 RMK 1CU030 4SC050 7AC120 A3036=
20171006_050000.002,0,RJTF,,,,0,20171006050000,-1,-1,-1,-1,350,-1,7,-1,-1,-1,-1,,9999,0,1,3,FEW 30   BKN 50   BKN 120,1,17,1,9,1027,RJTF 060500Z 35007KT 9999 VCSH FEW030 BKN050 BKN120 17/09     Q1027 RMK 1CU030 5SC050 7AC120 A3033=
20171006_060000.002,0,RJTF,,,,0,20171006060000,-1,-1,-1,-1,350,-1,7,-1,-1,310,20,,9999,0,1,3,FEW 30   BKN 50   BKN 100,1,17,1,9,1026,RJTF 060600Z 35007KT 310V020 9999 -RA FEW030 BKN050 BKN100     17/09 Q1026 RMK 1CU030 5SC050 6AC100 A3031=
20171006_070000.003,0,RJTF,,,,0,20171006070000,-1,-1,-1,-1,340,-1,7,-1,-1,-1,-1,,7000,0,1,3,FEW 30   BKN 50   BKN 100,1,15,1,11,1026,RJTF 060700Z 34007KT 7000 -RA FEW030 BKN050 BKN100 15/11 Q1026     RMK 1CU030 5SC050 7AC100 A3031=
20171006_080000.003,0,RJTF,,,,0,20171006080000,-1,-1,-1,-1,-1,-1,-1,-1,-1,-1,-1,,-1,0,0,0,,0,-1,0,-1,-1,RJTF 060800Z NIL=
20171006_090000.002,0,RJTF,,,,0,20171006090000,-1,-1,-1,-1,-1,-1,-1,-1,-1,-1,-1,,-1,0,0,0,,0,-1,0,-1,-1,RJTF 060900Z NIL=
20171006_233000.001,0,RJTF,,,,0,20171006230000,-1,-1,-1,-1,350,-1,9,-1,-1,-1,-1,,4500,0,2,3,FEW 3   BKN 6   BKN 15,1,17,1,15,1020,RJTF 062330Z 35009KT 4500 -DZ BR FEW003 BKN006 BKN015 17/15     Q1020 RMK 2ST003 6ST006 7SC015 A3012=
20171007_000000.003,0,RJTF,,,,0,20171007000000,-1,-1,-1,-1,350,-1,9,-1,-1,-1,-1,,4000,0,2,3,FEW 3   BKN 6   BKN 15,1,17,1,16,1020,RJTF 070000Z 35009KT 4000 -DZ BR FEW003 BKN006 BKN015 17/16     Q1020 RMK 2ST003 6ST006 7SC015 A3014=
20171007_010000.002,0,RJTF,,,,0,20171007010000,-1,-1,-1,-1,350,-1,9,-1,-1,-1,-1,,9999,0,1,3,FEW 5   BKN 8   BKN 20,1,18,1,16,1020,RJTF 070100Z 35009KT 9999 -DZ FEW005 BKN008 BKN020 18/16 Q1020     RMK 2ST005 6ST008 7SC020 A3012=
20171007_020000.002,0,RJTF,,,,0,20171007020000,-1,-1,-1,-1,350,-1,8,-1,-1,-1,-1,,9999,0,1,3,SCT 5   BKN 10   BKN 20,1,18,1,16,1019,RJTF 070200Z 35008KT 9999 -DZ SCT005 BKN010 BKN020 18/16 Q1019     RMK 3ST005 6ST010 7SC020 A3010=
20171007_030000.003,0,RJTF,,,,0,20171007030000,-1,-1,-1,-1,350,-1,10,-1,-1,-1,-1,,9999,0,0,3,FEW 5   SCT 10   BKN 20,1,20,1,16,1018,RJTF 070300Z 35010KT 9999 FEW005 SCT010 BKN020 20/16 Q1018 RMK     1ST005 3ST010 7SC020 A3007=
20171007_040000.002,0,RJTF,,,,0,20171007040000,-1,-1,-1,-1,350,-1,10,-1,-1,-1,-1,,9999,0,0,2,FEW 10   BKN 20,1,21,1,16,1017,RJTF 070400Z 35010KT 9999 FEW010 BKN020 21/16 Q1017 RMK 2ST010     7SC020 A3004=
20171007_050000.002,0,RJTF,,,,0,20171007050000,-1,-1,-1,-1,350,-1,8,-1,-1,290,30,,9999,0,0,2,FEW 15   SCT 25,1,23,1,16,1017,RJTF 070500Z 35008KT 290V030 9999 FEW015 SCT025 23/16 Q1017     RMK 1CU015 3CU025 A3003=
20171007_060000.002,0,RJTF,,,,0,20171007060000,-1,-1,-1,-1,350,-1,6,-1,-1,-1,-1,,9999,0,0,3,FEW 15   SCT 25   BKN 40,1,23,1,16,1017,RJTF 070600Z 35006KT 9999 FEW015 SCT025 BKN040 23/16 Q1017 RMK     1CU015 3CU025 6SC040 A3004=
20171007_070000.002,0,RJTF,,,,0,20171007070000,-1,-1,-1,-1,360,-1,4,-1,-1,330,30,,9999,0,0,2,FEW 25   SCT 120,1,23,1,16,1017,RJTF 070700Z 36004KT 330V030 9999 FEW025 SCT120 23/16 Q1017     RMK 1CU025 4AC120 A3005=
20171007_080000.002,0,RJTF,,,,0,20171007080000,-1,-1,-1,-1,-1,-1,-1,-1,-1,-1,-1,,-1,0,0,0,,0,-1,0,-1,-1,RJTF 070800Z NIL=
20171007_090000.002,0,RJTF,,,,0,20171007090000,-1,-1,-1,-1,-1,-1,-1,-1,-1,-1,-1,,-1,0,0,0,,0,-1,0,-1,-1,RJTF 070900Z NIL=
20171007_233000.001,0,RJTF,,,,0,20171007230000,-1,-1,-1,-1,999,-1,2,-1,-1,-1,-1,,9999,0,0,2,FEW 8   BKN 10,1,21,1,18,1024,RJTF 072330Z VRB02KT 9999 FEW008 BKN010 21/18 Q1024 RMK 1ST008     7ST010 A3024=
20171008_000000.002,0,RJTF,,,,0,20171008000000,-1,-1,-1,-1,999,-1,1,-1,-1,-1,-1,,9999,0,0,3,FEW 9   SCT 12   BKN 70,1,21,1,17,1024,RJTF 080000Z VRB01KT 9999 FEW009 SCT012 BKN070 21/17 Q1024 RMK     1ST009 3CU012 5AC070 A3024=
20171008_010000.003,0,RJTF,,,,0,20171008010000,-1,-1,-1,-1,999,-1,2,-1,-1,-1,-1,,9999,0,0,2,FEW 15   SCT 170,1,23,1,18,1023,RJTF 080100Z VRB02KT 9999 FEW015 SCT170 23/18 Q1023 RMK 1CU015     3AC170 A3023=
20171008_020000.002,0,RJTF,,,,0,20171008020000,-1,-1,-1,-1,999,-1,3,-1,-1,-1,-1,,9999,0,0,2,FEW 15   SCT 20,1,24,1,17,1023,RJTF 080200Z VRB03KT 9999 FEW015 SCT020 24/17 Q1023 RMK 1CU015     3CU020 A3021=
20171008_030000.002,0,RJTF,,,,0,20171008030000,-1,-1,-1,-1,10,-1,4,-1,-1,320,70,,9999,0,0,2,FEW 20   SCT 70,1,26,1,16,1022,RJTF 080300Z 01004KT 320V070 9999 FEW020 SCT070 26/16 Q1022     RMK 2CU020 3AC070 A3020=
20171008_040000.002,0,RJTF,,,,0,20171008040000,-1,-1,-1,-1,40,-1,5,-1,-1,340,120,,9999,0,0,2,FEW 30   BKN -9999,1,27,1,16,1021,RJTF 080400Z 04005KT 340V120 9999 FEW030 BKN/// 27/16 Q1021     RMK 2CU030 A3018=
20171008_050000.002,0,RJTF,,,,0,20171008050000,-1,-1,-1,-1,999,-1,2,-1,-1,-1,-1,,9999,0,0,3,FEW 30   SCT 40   BKN -9999,1,26,1,16,1021,RJTF 080500Z VRB02KT 9999 FEW030 SCT040 BKN/// 26/16 Q1021 RMK     1CU030 4CU040 A3016=
20171008_060000.002,0,RJTF,,,,0,20171008060000,-1,-1,-1,-1,120,-1,7,-1,-1,-1,-1,,9999,0,0,3,FEW 25   BKN 35   BKN -9999,1,25,1,17,1021,RJTF 080600Z 12007KT 9999 FEW025 BKN035 BKN/// 25/17 Q1021 RMK     1CU025 5CU035 A3017=
20171008_070000.002,0,RJTF,,,,0,20171008070000,-1,-1,-1,-1,130,-1,9,-1,-1,-1,-1,,9999,0,0,3,FEW 25   SCT 35   BKN 50,1,25,1,17,1021,RJTF 080700Z 13009KT 9999 FEW025 SCT035 BKN050 25/17 Q1021 RMK     1CU025 3CU035 6SC050 A3017=
20171008_080000.002,0,RJTF,,,,0,20171008080000,-1,-1,-1,-1,-1,-1,-1,-1,-1,-1,-1,,-1,0,0,0,,0,-1,0,-1,-1,RJTF 080800Z NIL=
20171008_090000.003,0,RJTF,,,,0,20171008090000,-1,-1,-1,-1,-1,-1,-1,-1,-1,-1,-1,,-1,0,0,0,,0,-1,0,-1,-1,RJTF 080900Z NIL=
20171008_233000.001,0,RJTF,,,,0,20171008230000,-1,-1,-1,-1,999,-1,2,-1,-1,-1,-1,,9999,0,0,2,FEW 20   SCT -9999,1,22,1,13,1024,RJTF 082330Z VRB02KT 9999 FEW020 SCT/// 22/13 Q1024 RMK 1CU020     A3026=
20171009_000000.002,0,RJTF,,,,0,20171009000000,-1,-1,-1,-1,999,-1,2,-1,-1,-1,-1,,9999,0,0,1,FEW 20,1,22,1,13,1024,RJTF 090000Z VRB02KT 9999 FEW020 22/13 Q1024 RMK 1CU020 A3026=
20171009_010000.002,0,RJTF,,,,0,20171009010000,-1,-1,-1,-1,999,-1,1,-1,-1,-1,-1,,9999,0,0,2,FEW 30   SCT -9999,1,24,1,14,1023,RJTF 090100Z VRB01KT 9999 FEW030 SCT/// 24/14 Q1023 RMK 1CU030     A3023=
20171009_020000.002,0,RJTF,,,,0,20171009020000,-1,-1,-1,-1,170,-1,3,-1,-1,130,270,,9999,0,0,2,FEW 30   SCT -9999,1,25,1,14,1022,RJTF 090200Z 17003KT 130V270 9999 FEW030 SCT/// 25/14 Q1022     RMK 1CU030 A3021=
20171009_030000.002,0,RJTF,,,,0,20171009030000,-1,-1,-1,-1,210,-1,3,-1,-1,120,290,,9999,0,0,2,FEW 30   SCT -9999,1,27,1,15,1021,RJTF 090300Z 21003KT 120V290 9999 FEW030 SCT/// 27/15 Q1021     RMK 1CU030 A3017=
20171009_040000.002,0,RJTF,,,,0,20171009040000,-1,-1,-1,-1,140,-1,4,-1,-1,70,220,,9999,0,0,2,FEW 30   SCT -9999,1,26,1,15,1020,RJTF 090400Z 14004KT 070V220 9999 FEW030 SCT/// 26/15 Q1020     RMK 1CU030 A3014=
20171009_050000.003,0,RJTF,,,,0,20171009050000,-1,-1,-1,-1,160,-1,5,-1,-1,110,220,,9999,0,0,2,FEW 30   SCT -9999,1,26,1,15,1020,RJTF 090500Z 16005KT 110V220 9999 FEW030 SCT/// 26/15 Q1020     RMK 1CU030 A3012=
20171009_060000.003,0,RJTF,,,,0,20171009060000,-1,-1,-1,-1,160,-1,9,-1,-1,-1,-1,,9999,0,0,2,FEW 30   BKN -9999,1,26,1,15,1019,RJTF 090600Z 16009KT 9999 FEW030 BKN/// 26/15 Q1019 RMK 1CU030     A3010=
20171009_070000.003,0,RJTF,,,,0,20171009070000,-1,-1,-1,-1,210,-1,8,-1,-1,-1,-1,,9999,0,0,2,FEW 30   SCT -9999,1,25,1,14,1019,RJTF 090700Z 21008KT 9999 FEW030 SCT/// 25/14 Q1019 RMK 1CU030     A3011=
20171009_080000.003,0,RJTF,,,,0,20171009080000,-1,-1,-1,-1,-1,-1,-1,-1,-1,-1,-1,,-1,0,0,0,,0,-1,0,-1,-1,RJTF 090800Z NIL=
20171009_090000.003,0,RJTF,,,,0,20171009090000,-1,-1,-1,-1,-1,-1,-1,-1,-1,-1,-1,,-1,0,0,0,,0,-1,0,-1,-1,RJTF 090900Z NIL=
20171009_233000.001,0,RJTF,,,,0,20171009230000,-1,-1,-1,-1,999,-1,2,-1,-1,-1,-1,CAVOK,-1,0,0,0,,1,23,1,17,1017,RJTF 092330Z VRB02KT CAVOK 23/17 Q1017 RMK A3005=
20171010_000000.003,0,RJTF,,,,0,20171010000000,-1,-1,-1,-1,999,-1,2,-1,-1,-1,-1,CAVOK,-1,0,0,0,,1,24,1,17,1017,RJTF 100000Z VRB02KT CAVOK 24/17 Q1017 RMK A3005=
20171010_010000.002,0,RJTF,,,,0,20171010010000,-1,-1,-1,-1,999,-1,2,-1,-1,-1,-1,,9999,0,0,1,FEW 30,1,26,1,17,1017,RJTF 100100Z VRB02KT 9999 FEW030 26/17 Q1017 RMK 1CU030 A3003=
20171010_020000.003,0,RJTF,,,,0,20171010020000,-1,-1,-1,-1,999,-1,2,-1,-1,-1,-1,,9999,0,0,1,FEW 30,1,27,1,17,1016,RJTF 100200Z VRB02KT 9999 FEW030 27/17 Q1016 RMK 1CU030 A3002=
20171010_040000.002,0,RJTF,,,,0,20171010040000,-1,-1,-1,-1,999,-1,3,-1,-1,-1,-1,,9999,0,0,1,FEW 30,1,28,1,15,1014,RJTF 100400Z VRB03KT 9999 FEW030 28/15 Q1014 RMK 1CU030 A2997=
20171010_050000.003,0,RJTF,,,,0,20171010050000,-1,-1,-1,-1,999,-1,2,-1,-1,-1,-1,,9999,0,0,1,FEW 30,1,29,1,15,1014,RJTF 100500Z VRB02KT 9999 FEW030 29/15 Q1014 RMK 1CU030 A2995=
20171010_060000.002,0,RJTF,,,,0,20171010060000,-1,-1,-1,-1,160,-1,5,-1,-1,110,210,,9999,0,0,1,FEW 30,1,29,1,16,1014,RJTF 100600Z 16005KT 110V210 9999 FEW030 29/16 Q1014 RMK     1CU030 A2995=
20171010_070000.002,0,RJTF,,,,0,20171010070000,-1,-1,-1,-1,170,-1,7,-1,-1,-1,-1,,9999,0,0,1,FEW 30,1,28,1,16,1014,RJTF 100700Z 17007KT 9999 FEW030 28/16 Q1014 RMK 1CU030 A2996=
20171010_080000.005,0,RJTF,,,,0,20171010080000,-1,-1,-1,-1,-1,-1,-1,-1,-1,-1,-1,,-1,0,0,0,,0,-1,0,-1,-1,RJTF 100800Z NIL=
20171010_090000.003,0,RJTF,,,,0,20171010090000,-1,-1,-1,-1,-1,-1,-1,-1,-1,-1,-1,,-1,0,0,0,,0,-1,0,-1,-1,RJTF 100900Z NIL=
20171010_233000.001,0,RJTF,,,,0,20171010230000,-1,-1,-1,-1,360,-1,4,-1,-1,320,30,,4000,0,1,3,FEW 8   BKN 10   BKN 15,1,22,1,19,1016,RJTF 102330Z 36004KT 320V030 4000 BR FEW008 BKN010 BKN015     22/19 Q1016 RMK 1ST008 5ST010 6CU015 A3001=
20171011_000000.002,0,RJTF,,,,0,20171011000000,-1,-1,-1,-1,10,-1,5,-1,-1,330,40,,4500,0,1,3,FEW 8   BKN 10   BKN 15,1,22,1,18,1016,RJTF 110000Z 01005KT 330V040 4500 BR FEW008 BKN010 BKN015     22/18 Q1016 RMK 1ST008 5ST010 6CU015 A3000=
20171011_010000.003,0,RJTF,,,,0,20171011010000,-1,-1,-1,-1,20,-1,4,-1,-1,340,70,,2500,0,2,3,SCT 6   BKN 8   BKN 12,1,22,1,19,1015,RJTF 110100Z 02004KT 340V070 2500 BCFG BR SCT006 BKN008 BKN012     22/19 Q1015 RMK 3ST006 5ST008 6SC012 A3000 FOG W-N=
20171011_020000.004,0,RJTF,,,,0,20171011020000,-1,-1,-1,-1,999,-1,2,-1,-1,-1,-1,,4000,0,1,3,FEW 8   BKN 10   BKN 20,1,23,1,19,1015,RJTF 110200Z VRB02KT 4000 BR FEW008 BKN010 BKN020 23/19 Q1015     RMK 1ST008 5ST010 6SC020 A2998=
20171011_030000.003,0,RJTF,,,,0,20171011030000,-1,-1,-1,-1,350,-1,3,-1,-1,320,30,,5000,0,1,3,FEW 14   BKN 18   BKN 25,1,24,1,19,1014,RJTF 110300Z 35003KT 320V030 5000 BR FEW014 BKN018 BKN025     24/19 Q1014 RMK 2CU014 5SC018 6SC025 A2996=
20171011_040000.002,0,RJTF,,,,0,20171011040000,-1,-1,-1,-1,50,-1,6,-1,-1,20,110,,5000,0,1,3,SCT 16   BKN 20   BKN 25,1,24,1,19,1013,RJTF 110400Z 05006KT 020V110 5000 BR SCT016 BKN020 BKN025     24/19 Q1013 RMK 3CU016 5SC020 6SC025 A2994=
20171011_050000.003,0,RJTF,,,,0,20171011050000,-1,-1,-1,-1,50,-1,5,-1,-1,10,90,,6000,0,0,3,SCT 16   BKN 25   BKN 35,1,24,1,19,1013,RJTF 110500Z 05005KT 010V090 6000 SCT016 BKN025 BKN035 24/19     Q1013 RMK 3CU016 5SC025 6SC035 A2994=
20171011_060000.003,0,RJTF,,,,0,20171011060000,-1,-1,-1,-1,60,-1,5,-1,-1,40,100,,7000,0,0,2,FEW 18   BKN 25,1,23,1,18,1014,RJTF 110600Z 06005KT 040V100 7000 FEW018 BKN025 23/18 Q1014     RMK 2CU018 7SC025 A2995=
20171011_070000.003,0,RJTF,,,,0,20171011070000,-1,-1,-1,-1,70,-1,5,-1,-1,30,100,,8000,0,0,2,BKN 20   BKN 30,1,22,1,18,1014,RJTF 110700Z 07005KT 030V100 8000 BKN020 BKN030 22/18 Q1014     RMK 5SC020 7SC030 A2995=
20171011_080000.002,0,RJTF,,,,0,20171011080000,-1,-1,-1,-1,-1,-1,-1,-1,-1,-1,-1,,-1,0,0,0,,0,-1,0,-1,-1,RJTF 110800Z NIL=
20171011_090000.003,0,RJTF,,,,0,20171011090000,-1,-1,-1,-1,-1,-1,-1,-1,-1,-1,-1,,-1,0,0,0,,0,-1,0,-1,-1,RJTF 110900Z NIL=
20171011_233000.001,0,RJTF,,,,0,20171011230000,-1,-1,-1,-1,360,-1,3,-1,-1,310,70,,6000,0,0,2,FEW 15   BKN -9999,1,23,1,18,1013,RJTF 112330Z 36003KT 310V070 6000 FEW015 BKN/// 23/18 Q1013     RMK 1CU015 A2994=
20171012_000000.003,0,RJTF,,,,0,20171012000000,-1,-1,-1,-1,999,-1,2,-1,-1,-1,-1,,7000,0,0,2,FEW 15   SCT -9999,1,24,1,18,1013,RJTF 120000Z VRB02KT 7000 FEW015 SCT/// 24/18 Q1013 RMK 1CU015     A2992=
20171012_010000.003,0,RJTF,,,,0,20171012010000,-1,-1,-1,-1,999,-1,2,-1,-1,-1,-1,,9999,0,0,1,FEW 20,1,25,1,18,1013,RJTF 120100Z VRB02KT 9999 FEW020 25/18 Q1013 RMK 1CU020 A2992=
20171012_020000.003,0,RJTF,,,,0,20171012020000,-1,-1,-1,-1,999,-1,2,-1,-1,-1,-1,,9999,0,0,1,FEW 30,1,26,1,17,1012,RJTF 120200Z VRB02KT 9999 FEW030 26/17 Q1012 RMK 1CU030 A2990=
20171012_030000.003,0,RJTF,,,,0,20171012030000,-1,-1,-1,-1,999,-1,2,-1,-1,-1,-1,,9999,0,0,2,FEW 30   SCT -9999,1,29,1,16,1011,RJTF 120300Z VRB02KT 9999 FEW030 SCT/// 29/16 Q1011 RMK 1CU030     A2987=
20171012_040000.003,0,RJTF,,,,0,20171012040000,-1,-1,-1,-1,999,-1,4,-1,-1,-1,-1,,9999,0,0,2,FEW 30   SCT -9999,1,29,1,15,1011,RJTF 120400Z VRB04KT 9999 FEW030 SCT/// 29/15 Q1011 RMK 2CU030     A2986=
20171012_050000.004,0,RJTF,,,,0,20171012050000,-1,-1,-1,-1,340,-1,5,-1,-1,290,30,,9999,0,0,2,SCT 30   SCT -9999,1,29,1,16,1010,RJTF 120500Z 34005KT 290V030 9999 SCT030 SCT/// 29/16 Q1010     RMK 3CU030 A2984=
20171012_060000.003,0,RJTF,,,,0,20171012060000,-1,-1,-1,-1,130,-1,9,-1,-1,-1,-1,,9999,0,0,2,FEW 20   BKN 30,1,28,1,16,1010,RJTF 120600Z 13009KT 9999 FEW020 BKN030 28/16 Q1010 RMK 2CU020     6CU030 A2984=
20171012_070000.004,0,RJTF,,,,0,20171012070000,-1,-1,-1,-1,150,-1,7,-1,-1,-1,-1,,8000,0,0,3,FEW 20   SCT 30   BKN 50,1,28,1,16,1010,RJTF 120700Z 15007KT 8000 FEW020 SCT030 BKN050 28/16 Q1010 RMK     1CU020 4CU030 5SC050 A2985=
20171012_080000.003,0,RJTF,,,,0,20171012080000,-1,-1,-1,-1,-1,-1,-1,-1,-1,-1,-1,,-1,0,0,0,,0,-1,0,-1,-1,RJTF 120800Z NIL=
20171012_090000.003,0,RJTF,,,,0,20171012090000,-1,-1,-1,-1,-1,-1,-1,-1,-1,-1,-1,,-1,0,0,0,,0,-1,0,-1,-1,RJTF 120900Z NIL=
20171012_233000.001,0,RJTF,,,,0,20171012230000,-1,-1,-1,-1,360,-1,5,-1,-1,-1,-1,,5000,0,2,3,FEW 3   BKN 6   BKN 15,1,15,1,13,1019,RJTF 122330Z 36005KT 5000 -RADZ BR FEW003 BKN006 BKN015 15/13     Q1019 RMK 2ST003 6ST006 7SC015 A3009=
20171013_000000.002,0,RJTF,,,,0,20171013000000,-1,-1,-1,-1,40,-1,7,-1,-1,10,80,,4000,0,2,3,FEW 3   BKN 6   BKN 15,1,15,1,13,1019,RJTF 130000Z 04007KT 010V080 4000 -RA BR FEW003 BKN006 BKN015     15/13 Q1019 RMK 2ST003 6ST006 7SC015 A3009=
20171013_010000.003,0,RJTF,,,,0,20171013010000,-1,-1,-1,-1,50,-1,6,-1,-1,10,80,,4000,0,2,3,FEW 3   BKN 7   BKN 15,1,15,1,13,1019,RJTF 130100Z 05006KT 010V080 4000 -RA BR FEW003 BKN007 BKN015     15/13 Q1019 RMK 2ST003 6ST007 7SC015 A3009=
20171013_020000.003,0,RJTF,,,,0,20171013020000,-1,-1,-1,-1,30,-1,5,-1,-1,350,90,,6000,0,1,3,SCT 6   BKN 10   BKN 20,1,15,1,13,1019,RJTF 130200Z 03005KT 350V090 6000 -RA SCT006 BKN010 BKN020     15/13 Q1019 RMK 3ST006 7ST010 7SC020 A3010=
20171013_030000.003,0,RJTF,,,,0,20171013030000,-1,-1,-1,-1,50,-1,6,-1,-1,10,90,,7000,0,1,3,FEW 4   BKN 7   BKN 10,1,15,1,13,1018,RJTF 130300Z 05006KT 010V090 7000 -RA FEW004 BKN007 BKN010     15/13 Q1018 RMK 2ST004 5ST007 7ST010 A3008=
20171013_040000.002,0,RJTF,,,,0,20171013040000,-1,-1,-1,-1,70,-1,4,-1,-1,50,110,,8000,0,1,3,FEW 4   SCT 7   BKN 10,1,15,1,13,1018,RJTF 130400Z 07004KT 050V110 8000 -RA FEW004 SCT007 BKN010     15/13 Q1018 RMK 1ST004 3ST007 7ST010 A3007=
20171013_050000.003,0,RJTF,,,,0,20171013050000,-1,-1,-1,-1,30,-1,6,-1,-1,360,70,,8000,0,1,3,FEW 7   SCT 10   BKN 20,1,15,1,12,1018,RJTF 130500Z 03006KT 360V070 8000 -RA FEW007 SCT010 BKN020     15/12 Q1018 RMK 2ST007 4ST010 7SC020 A3009=
20171013_060000.003,0,RJTF,,,,0,20171013060000,-1,-1,-1,-1,40,-1,5,-1,-1,10,80,,9999,0,1,3,FEW 10   BKN 25   BKN 40,1,15,1,12,1018,RJTF 130600Z 04005KT 010V080 9999 -RA FEW010 BKN025 BKN040     15/12 Q1018 RMK 2ST010 5SC025 7SC040 A3009=
20171013_070000.003,0,RJTF,,,,0,20171013070000,-1,-1,-1,-1,30,-1,4,-1,-1,350,60,,7000,0,1,3,FEW 7   BKN 10   BKN 30,1,15,1,13,1019,RJTF 130700Z 03004KT 350V060 7000 -RA FEW007 BKN010 BKN030     15/13 Q1019 RMK 1ST007 5ST010 7SC030 A3011=
20171013_080000.003,0,RJTF,,,,0,20171013080000,-1,-1,-1,-1,-1,-1,-1,-1,-1,-1,-1,,-1,0,0,0,,0,-1,0,-1,-1,RJTF 130800Z NIL=
20171013_090000.003,0,RJTF,,,,0,20171013090000,-1,-1,-1,-1,-1,-1,-1,-1,-1,-1,-1,,-1,0,0,0,,0,-1,0,-1,-1,RJTF 130900Z NIL=
20171013_233000.001,0,RJTF,,,,0,20171013230000,-1,-1,-1,-1,30,-1,5,-1,-1,350,70,,4500,0,2,3,FEW 4   SCT 8   BKN 10,1,14,1,13,1022,RJTF 132330Z 03005KT 350V070 4500 -RA BR FEW004 SCT008 BKN010     14/13 Q1022 RMK 1ST004 3ST008 5ST010 A3018=
20171014_000000.002,0,RJTF,,,,0,20171014000000,-1,-1,-1,-1,10,-1,4,-1,-1,-1,-1,,6000,0,1,3,FEW 5   BKN 11   BKN 30,1,14,1,13,1022,RJTF 140000Z 01004KT 6000 -DZ FEW005 BKN011 BKN030 14/13 Q1022     RMK 1ST005 5ST011 7SC030 A3018=
20171014_010000.002,0,RJTF,,,,0,20171014010000,-1,-1,-1,-1,20,-1,5,-1,-1,-1,-1,,6000,0,1,3,FEW 5   SCT 7   BKN 10,1,15,1,13,1021,RJTF 140100Z 02005KT 6000 -RA FEW005 SCT007 BKN010 15/13 Q1021     RMK 1ST005 4ST007 7ST010 A3017=
20171014_020000.002,0,RJTF,,,,0,20171014020000,-1,-1,-1,-1,10,-1,5,-1,-1,340,60,,9999,0,0,3,FEW 7   SCT 10   BKN 18,1,15,1,13,1021,RJTF 140200Z 01005KT 340V060 9999 FEW007 SCT010 BKN018 15/13     Q1021 RMK 1ST007 3ST010 5SC018 A3016=
20171014_030000.002,0,RJTF,,,,0,20171014030000,-1,-1,-1,-1,10,-1,6,-1,-1,-1,-1,,3500,0,2,3,FEW 8   BKN 11   BKN 20,1,15,1,13,1021,RJTF 140300Z 01006KT 3500 -RA BR FEW008 BKN011 BKN020 15/13     Q1021 RMK 1ST008 5ST011 7SC020 A3017=
20171014_040000.002,0,RJTF,,,,0,20171014040000,-1,-1,-1,-1,20,-1,6,-1,-1,350,50,,9999,0,0,3,FEW 7   SCT 10   BKN 30,1,15,1,13,1020,RJTF 140400Z 02006KT 350V050 9999 FEW007 SCT010 BKN030 15/13     Q1020 RMK 1ST007 3ST010 7SC030 A3013=
20171014_050000.003,0,RJTF,,,,0,20171014050000,-1,-1,-1,-1,360,-1,5,-1,-1,310,30,,9999,0,0,3,FEW 8   SCT 10   BKN 30,1,15,1,12,1020,RJTF 140500Z 36005KT 310V030 9999 FEW008 SCT010 BKN030 15/12     Q1020 RMK 1ST008 3ST010 7SC030 A3014=
20171014_060000.002,0,RJTF,,,,0,20171014060000,-1,-1,-1,-1,350,-1,3,-1,-1,310,20,,9999,0,0,3,FEW 10   BKN 30   BKN 130,1,15,1,13,1020,RJTF 140600Z 35003KT 310V020 9999 FEW010 BKN030 BKN130 15/13     Q1020 RMK 2ST010 6SC030 7AC130 A3014=
20171014_070000.002,0,RJTF,,,,0,20171014070000,-1,-1,-1,-1,360,-1,4,-1,-1,320,40,,8000,0,0,2,SCT 10   BKN 25,1,15,1,13,1021,RJTF 140700Z 36004KT 320V040 8000 SCT010 BKN025 15/13 Q1021     RMK 3ST010 7SC025 A3015=
20171014_080000.002,0,RJTF,,,,0,20171014080000,-1,-1,-1,-1,-1,-1,-1,-1,-1,-1,-1,,-1,0,0,0,,0,-1,0,-1,-1,RJTF 140800Z NIL=
20171014_090000.002,0,RJTF,,,,0,20171014090000,-1,-1,-1,-1,-1,-1,-1,-1,-1,-1,-1,,-1,0,0,0,,0,-1,0,-1,-1,RJTF 140900Z NIL=
20171014_233000.001,0,RJTF,,,,0,20171014230000,-1,-1,-1,-1,350,-1,4,-1,-1,310,20,,5000,0,2,3,FEW 15   BKN 45   BKN 90,1,15,1,13,1025,RJTF 142330Z 35004KT 310V020 5000 -RA BR FEW015 BKN045 BKN090     15/13 Q1025 RMK 1CU015 5SC045 7AC090 A3028=
20171015_000000.003,0,RJTF,,,,0,20171015000000,-1,-1,-1,-1,340,-1,3,-1,-1,310,20,,5000,0,2,3,FEW 15   SCT 35   BKN 50,1,15,1,14,1025,RJTF 150000Z 34003KT 310V020 5000 -RA BR FEW015 SCT035 BKN050     15/14 Q1025 RMK 1CU015 4SC035 6SC050 A3028=
20171015_010000.002,0,RJTF,,,,0,20171015010000,-1,-1,-1,-1,360,-1,4,-1,-1,320,20,,5000,0,2,3,FEW 15   SCT 50   OVC 110,1,16,1,14,1025,RJTF 150100Z 36004KT 320V020 5000 -RA BR FEW015 SCT050 OVC110     16/14 Q1025 RMK 1CU015 4SC050 8AS110 A3028=
20171015_020000.003,0,RJTF,,,,0,20171015020000,-1,-1,-1,-1,10,-1,3,-1,-1,340,50,,5000,0,2,3,FEW 5   SCT 25   BKN 50,1,16,1,14,1025,RJTF 150200Z 01003KT 340V050 5000 -RA BR FEW005 SCT025 BKN050     16/14 Q1025 RMK 1ST005 3SC025 5SC050 A3027=
20171015_030000.003,0,RJTF,,,,0,20171015030000,-1,-1,-1,-1,10,-1,6,-1,-1,-1,-1,,5000,0,2,3,FEW 5   SCT 10   BKN 20,1,16,1,14,1025,RJTF 150300Z 01006KT 5000 -RA BR FEW005 SCT010 BKN020 16/14     Q1025 RMK 1ST005 3ST010 5SC020 A3027=
20171015_040000.003,0,RJTF,,,,0,20171015040000,-1,-1,-1,-1,20,-1,5,-1,-1,350,60,,8000,0,1,3,FEW 8   SCT 30   OVC 100,1,16,1,14,1024,RJTF 150400Z 02005KT 350V060 8000 -RA FEW008 SCT030 OVC100     16/14 Q1024 RMK 1ST008 3SC030 8AS100 A3025=
20171015_050000.003,0,RJTF,,,,0,20171015050000,-1,-1,-1,-1,30,-1,5,-1,-1,350,70,,9999,0,1,3,FEW 10   SCT 35   OVC 100,1,15,1,12,1024,RJTF 150500Z 03005KT 350V070 9999 -RA FEW010 SCT035 OVC100     15/12 Q1024 RMK 2ST010 3SC035 8AS100 A3026=
20171015_060000.002,0,RJTF,,,,0,20171015060000,-1,-1,-1,-1,360,-1,4,-1,-1,-1,-1,,9999,0,1,3,FEW 10   SCT 35   OVC 100,1,15,1,13,1024,RJTF 150600Z 36004KT 9999 -RA FEW010 SCT035 OVC100 15/13 Q1024     RMK 1ST010 3SC035 8AS100 A3026=
20171015_070000.004,0,RJTF,,,,0,20171015070000,-1,-1,-1,-1,360,-1,5,-1,-1,-1,-1,,8000,0,1,3,FEW 9   BKN 13   BKN 45,1,15,1,13,1025,RJTF 150700Z 36005KT 8000 -RA FEW009 BKN013 BKN045 15/13 Q1025     RMK 1ST009 5SC013 7SC045 A3028=
20171015_080000.002,0,RJTF,,,,0,20171015080000,-1,-1,-1,-1,-1,-1,-1,-1,-1,-1,-1,,-1,0,0,0,,0,-1,0,-1,-1,RJTF 150800Z NIL=
20171015_090000.002,0,RJTF,,,,0,20171015090000,-1,-1,-1,-1,-1,-1,-1,-1,-1,-1,-1,,-1,0,0,0,,0,-1,0,-1,-1,RJTF 150900Z NIL=
20171015_233000.001,0,RJTF,,,,0,20171015230000,-1,-1,-1,-1,30,-1,5,-1,-1,350,60,,3500,0,2,3,SCT 6   BKN 8   BKN 15,1,13,1,11,1028,RJTF 152330Z 03005KT 350V060 3500 -RA BR SCT006 BKN008 BKN015     13/11 Q1028 RMK 4ST006 5ST008 7SC015 A3037=
20171016_000000.002,0,RJTF,,,,0,20171016000000,-1,-1,-1,-1,20,-1,7,-1,-1,-1,-1,,3500,0,2,3,SCT 5   BKN 8   BKN 15,1,13,1,11,1028,RJTF 160000Z 02007KT 3500 -RA BR SCT005 BKN008 BKN015 13/11     Q1028 RMK 3ST005 5ST008 7SC015 A3037=
20171016_010000.003,0,RJTF,,,,0,20171016010000,-1,-1,-1,-1,10,-1,5,-1,-1,330,40,,3500,0,2,3,SCT 6   BKN 9   BKN 15,1,13,1,11,1028,RJTF 160100Z 01005KT 330V040 3500 -RA BR SCT006 BKN009 BKN015     13/11 Q1028 RMK 4ST006 5ST009 7SC015 A3036=
20171016_020000.002,0,RJTF,,,,0,20171016020000,-1,-1,-1,-1,350,-1,7,-1,-1,-1,-1,,3500,0,2,3,SCT 5   BKN 8   BKN 16,1,13,1,11,1027,RJTF 160200Z 35007KT 3500 -RA BR SCT005 BKN008 BKN016 13/11     Q1027 RMK 3ST005 5ST008 7SC016 A3034=
20171016_030000.002,0,RJTF,,,,0,20171016030000,-1,-1,-1,-1,350,-1,8,-1,-1,-1,-1,,6000,0,1,3,FEW 6   SCT 8   BKN 14,1,13,1,11,1026,RJTF 160300Z 35008KT 6000 -RA FEW006 SCT008 BKN014 13/11 Q1026     RMK 2ST006 4ST008 7SC014 A3030=
20171016_040000.002,0,RJTF,,,,0,20171016040000,-1,-1,-1,-1,350,-1,9,-1,-1,-1,-1,,4500,0,2,3,SCT 6   BKN 8   BKN 15,1,13,1,11,1025,RJTF 160400Z 35009KT 4500 -RA BR SCT006 BKN008 BKN015 13/11     Q1025 RMK 4ST006 5ST008 7SC015 A3029=
20171016_050000.003,0,RJTF,,,,0,20171016050000,-1,-1,-1,-1,10,-1,9,-1,-1,-1,-1,,4000,0,2,3,SCT 6   BKN 8   BKN 15,1,13,1,11,1025,RJTF 160500Z 01009KT 4000 -RA BR SCT006 BKN008 BKN015 13/11     Q1025 RMK 3ST006 5ST008 7SC015 A3028=
20171016_060000.003,0,RJTF,,,,0,20171016060000,-1,-1,-1,-1,360,-1,8,-1,-1,-1,-1,,4500,0,2,3,SCT 5   BKN 7   BKN 15,1,12,1,11,1025,RJTF 160600Z 36008KT 4500 -RA BR SCT005 BKN007 BKN015 12/11     Q1025 RMK 4ST005 5ST007 7SC015 A3028=
20171016_070000.002,0,RJTF,,,,0,20171016070000,-1,-1,-1,-1,360,-1,7,-1,-1,-1,-1,,4000,0,2,3,SCT 6   BKN 8   BKN 16,1,12,1,11,1025,RJTF 160700Z 36007KT 4000 -RA BR SCT006 BKN008 BKN016 12/11     Q1025 RMK 4ST006 5ST008 7SC016 A3028=
20171016_080000.002,0,RJTF,,,,0,20171016080000,-1,-1,-1,-1,-1,-1,-1,-1,-1,-1,-1,,-1,0,0,0,,0,-1,0,-1,-1,RJTF 160800Z NIL=
20171016_090000.002,0,RJTF,,,,0,20171016090000,-1,-1,-1,-1,-1,-1,-1,-1,-1,-1,-1,,-1,0,0,0,,0,-1,0,-1,-1,RJTF 160900Z NIL=
20171016_233000.001,0,RJTF,,,,0,20171016230000,-1,-1,-1,-1,360,-1,6,-1,-1,-1,-1,,7000,0,1,3,FEW 6   SCT 18   OVC 70,1,13,1,11,1023,RJTF 162330Z 36006KT 7000 -RA FEW006 SCT018 OVC070 13/11 Q1023     RMK 1ST006 4SC018 8AC070 A3023=
20171017_000000.002,0,RJTF,,,,0,20171017000000,-1,-1,-1,-1,360,-1,6,-1,-1,-1,-1,,8000,0,1,3,FEW 8   BKN 20   OVC 80,1,13,1,11,1024,RJTF 170000Z 36006KT 8000 -RA FEW008 BKN020 OVC080 13/11 Q1024     RMK 2ST008 5SC020 8AC080 A3024=
20171017_010000.002,0,RJTF,,,,0,20171017010000,-1,-1,-1,-1,360,-1,6,-1,-1,-1,-1,,7000,0,1,3,SCT 8   BKN 20   OVC 80,1,13,1,12,1023,RJTF 170100Z 36006KT 7000 -RA SCT008 BKN020 OVC080 13/12 Q1023     RMK 3ST008 5SC020 8AC080 A3023=
20171017_020000.002,0,RJTF,,,,0,20171017020000,-1,-1,-1,-1,360,-1,5,-1,-1,-1,-1,,8000,0,1,3,FEW 10   SCT 25   BKN 60,1,14,1,12,1023,RJTF 170200Z 36005KT 8000 -RA FEW010 SCT025 BKN060 14/12 Q1023     RMK 2ST010 4SC025 7SC060 A3022=
20171017_030000.002,0,RJTF,,,,0,20171017030000,-1,-1,-1,-1,30,-1,4,-1,-1,320,70,,9999,0,1,3,SCT 10   BKN 30   BKN 50,1,14,1,12,1022,RJTF 170300Z 03004KT 320V070 9999 -RA SCT010 BKN030 BKN050     14/12 Q1022 RMK 3ST010 5SC030 6SC050 A3019=
20171017_040000.002,0,RJTF,,,,0,20171017040000,-1,-1,-1,-1,10,-1,3,-1,-1,330,70,,9999,0,1,2,SCT 14   BKN 70,1,15,1,12,1021,RJTF 170400Z 01003KT 330V070 9999 -RA SCT014 BKN070 15/12     Q1021 RMK 4SC014 6AC070 A3017=
20171017_050000.002,0,RJTF,,,,0,20171017050000,-1,-1,-1,-1,360,-1,4,-1,-1,-1,-1,,9999,0,0,3,FEW 16   SCT 60   BKN 90,1,15,1,12,1021,RJTF 170500Z 36004KT 9999 FEW016 SCT060 BKN090 15/12 Q1021 RMK     2SC016 4SC060 6AC090 A3016=
20171017_060000.002,0,RJTF,,,,0,20171017060000,-1,-1,-1,-1,20,-1,3,-1,-1,320,70,,9999,0,0,3,FEW 14   SCT 20   BKN 60,1,15,1,12,1021,RJTF 170600Z 02003KT 320V070 9999 FEW014 SCT020 BKN060 15/12     Q1021 RMK 2CU014 4SC020 7SC060 A3015=
20171017_070000.003,0,RJTF,,,,0,20171017070000,-1,-1,-1,-1,999,-1,2,-1,-1,-1,-1,,9999,0,0,3,FEW 15   SCT 20   BKN 60,1,15,1,11,1020,RJTF 170700Z VRB02KT 9999 FEW015 SCT020 BKN060 15/11 Q1020 RMK     2CU015 4SC020 7SC060 A3015=
20171017_080000.002,0,RJTF,,,,0,20171017080000,-1,-1,-1,-1,-1,-1,-1,-1,-1,-1,-1,,-1,0,0,0,,0,-1,0,-1,-1,RJTF 170800Z NIL=
20171017_090000.002,0,RJTF,,,,0,20171017090000,-1,-1,-1,-1,-1,-1,-1,-1,-1,-1,-1,,-1,0,0,0,,0,-1,0,-1,-1,RJTF 170900Z NIL=
20171017_233000.001,0,RJTF,,,,0,20171017230000,-1,-1,-1,-1,30,-1,5,-1,-1,-1,-1,,9999,0,0,1,FEW 30,1,16,1,9,1024,RJTF 172330Z 03005KT 9999 FEW030 16/09 Q1024 RMK 1CU030 A3026=
20171018_000000.003,0,RJTF,,,,0,20171018000000,-1,-1,-1,-1,30,-1,6,-1,-1,350,60,,9999,0,0,1,FEW 30,1,17,1,9,1024,RJTF 180000Z 03006KT 350V060 9999 FEW030 17/09 Q1024 RMK     1CU030 A3025=
20171018_010000.003,0,RJTF,,,,0,20171018010000,-1,-1,-1,-1,60,-1,5,-1,-1,350,110,,9999,0,0,1,FEW 30,1,18,1,8,1024,RJTF 180100Z 06005KT 350V110 9999 FEW030 18/08 Q1024 RMK     1CU030 A3024=
20171018_020000.002,0,RJTF,,,,0,20171018020000,-1,-1,-1,-1,50,-1,5,-1,-1,20,80,,9999,0,0,2,FEW 30   BKN -9999,1,17,1,7,1023,RJTF 180200Z 05005KT 020V080 9999 FEW030 BKN/// 17/07 Q1023     RMK 2CU030 A3023=
20171018_030000.002,0,RJTF,,,,0,20171018030000,-1,-1,-1,-1,999,-1,3,-1,-1,-1,-1,,9999,0,0,2,SCT 30   BKN -9999,1,19,1,7,1022,RJTF 180300Z VRB03KT 9999 SCT030 BKN/// 19/07 Q1022 RMK 3CU030     A3021=
20171018_040000.002,0,RJTF,,,,0,20171018040000,-1,-1,-1,-1,60,-1,5,-1,-1,-1,-1,,9999,0,0,2,SCT 30   BKN -9999,1,20,1,7,1022,RJTF 180400Z 06005KT 9999 SCT030 BKN/// 20/07 Q1022 RMK 3CU030     A3019=
20171018_050000.002,0,RJTF,,,,0,20171018050000,-1,-1,-1,-1,70,-1,3,-1,-1,10,170,,9999,0,0,3,FEW 30   SCT 50   BKN -9999,1,19,1,6,1022,RJTF 180500Z 07003KT 010V170 9999 FEW030 SCT050 BKN/// 19/06     Q1022 RMK 2CU030 3SC050 A3019=
20171018_060000.002,0,RJTF,,,,0,20171018060000,-1,-1,-1,-1,90,-1,6,-1,-1,60,130,,9999,0,0,3,FEW 30   BKN 180   BKN -9999,1,17,1,7,1022,RJTF 180600Z 09006KT 060V130 9999 FEW030 BKN180 BKN/// 17/07     Q1022 RMK 2CU030 6AC180 A3020=
20171018_070000.002,0,RJTF,,,,0,20171018070000,-1,-1,-1,-1,100,-1,7,-1,-1,60,130,,9999,0,0,3,FEW 30   SCT 40   BKN 160,1,16,1,7,1023,RJTF 180700Z 10007KT 060V130 9999 FEW030 SCT040 BKN160 16/07     Q1023 RMK 1CU030 3SC040 7AC160 A3022=
20171018_080000.002,0,RJTF,,,,0,20171018080000,-1,-1,-1,-1,-1,-1,-1,-1,-1,-1,-1,,-1,0,0,0,,0,-1,0,-1,-1,RJTF 180800Z NIL=
20171018_090000.002,0,RJTF,,,,0,20171018090000,-1,-1,-1,-1,-1,-1,-1,-1,-1,-1,-1,,-1,0,0,0,,0,-1,0,-1,-1,RJTF 180900Z NIL=
20171018_233000.001,0,RJTF,,,,0,20171018230000,-1,-1,-1,-1,360,-1,9,-1,-1,320,20,,5000,0,2,3,SCT 5   BKN 9   BKN 30,1,10,1,9,1023,RJTF 182330Z 36009KT 320V020 5000 -RA BR SCT005 BKN009 BKN030     10/09 Q1023 RMK 3ST005 6ST009 7SC030 A3023=
20171019_000000.002,0,RJTF,,,,0,20171019000000,-1,-1,-1,-1,360,-1,9,-1,-1,-1,-1,,5000,0,2,3,SCT 5   BKN 9   BKN 30,1,10,1,9,1023,RJTF 190000Z 36009KT 5000 -RA BR SCT005 BKN009 BKN030 10/09     Q1023 RMK 3ST005 6ST009 7SC030 A3023=
20171019_010000.002,0,RJTF,,,,0,20171019010000,-1,-1,-1,-1,350,-1,7,-1,-1,310,30,,4000,0,2,3,FEW 5   BKN 9   BKN 20,1,11,1,9,1023,RJTF 190100Z 35007KT 310V030 4000 RA BR FEW005 BKN009 BKN020     11/09 Q1023 RMK 2ST005 5ST009 6SC020 A3023 P/RR=
20171019_020000.002,0,RJTF,,,,0,20171019020000,-1,-1,-1,-1,10,-1,9,-1,-1,330,40,,4500,0,2,3,FEW 6   BKN 9   BKN 20,1,11,1,9,1022,RJTF 190200Z 01009KT 330V040 4500 -RA BR FEW006 BKN009 BKN020     11/09 Q1022 RMK 2ST006 6ST009 7SC020 A3020=
20171019_030000.002,0,RJTF,,,,0,20171019030000,-1,-1,-1,-1,20,-1,8,-1,-1,350,60,,5000,0,2,3,SCT 6   BKN 8   BKN 15,1,11,1,9,1021,RJTF 190300Z 02008KT 350V060 5000 -RA BR SCT006 BKN008 BKN015     11/09 Q1021 RMK 3ST006 6ST008 7SC015 A3017=
20171019_040000.003,0,RJTF,,,,0,20171019040000,-1,-1,-1,-1,360,-1,9,-1,-1,-1,-1,,4500,0,2,3,FEW 6   BKN 8   BKN 25,1,12,1,10,1021,RJTF 190400Z 36009KT 4500 RA BR FEW006 BKN008 BKN025 12/10     Q1021 RMK 1ST006 5ST008 6SC025 A3016=
20171019_050000.002,0,RJTF,,,,0,20171019050000,-1,-1,-1,-1,360,-1,6,-1,-1,330,40,,4000,0,2,3,FEW 6   BKN 8   BKN 15,1,11,1,9,1020,RJTF 190500Z 36006KT 330V040 4000 RA BR FEW006 BKN008 BKN015     11/09 Q1020 RMK 2ST006 6ST008 6SC015 A3014=
20171019_060000.003,0,RJTF,,,,0,20171019060000,-1,-1,-1,-1,340,-1,7,-1,-1,-1,-1,,3500,0,2,3,FEW 6   BKN 8   BKN 15,1,11,1,10,1020,RJTF 190600Z 34007KT 3500 RA BR FEW006 BKN008 BKN015 11/10     Q1020 RMK 2ST006 6ST008 6SC015 A3014=
20171019_070000.002,0,RJTF,,,,0,20171019070000,-1,-1,-1,-1,340,-1,8,-1,-1,-1,-1,,3000,0,2,3,FEW 6   BKN 8   BKN 15,1,11,1,10,1020,RJTF 190700Z 34008KT 3000 -RA BR FEW006 BKN008 BKN015 11/10     Q1020 RMK 2ST006 5ST008 6SC015 A3015=
20171019_080000.002,0,RJTF,,,,0,20171019080000,-1,-1,-1,-1,-1,-1,-1,-1,-1,-1,-1,,-1,0,0,0,,0,-1,0,-1,-1,RJTF 190800Z NIL=
20171019_090000.002,0,RJTF,,,,0,20171019090000,-1,-1,-1,-1,-1,-1,-1,-1,-1,-1,-1,,-1,0,0,0,,0,-1,0,-1,-1,RJTF 190900Z NIL=
20171019_233000.001,0,RJTF,,,,0,20171019230000,-1,-1,-1,-1,350,-1,5,-1,-1,-1,-1,,7000,0,1,3,FEW 6   SCT 8   BKN 10,1,14,1,12,1017,RJTF 192330Z 35005KT 7000 -RA FEW006 SCT008 BKN010 14/12 Q1017     RMK 1ST006 3ST008 7ST010 A3005=
20171020_000000.002,0,RJTF,,,,0,20171020000000,-1,-1,-1,-1,350,-1,7,-1,-1,320,20,,9999,0,1,3,FEW 6   SCT 8   BKN 10,1,14,1,12,1018,RJTF 200000Z 35007KT 320V020 9999 -RA FEW006 SCT008 BKN010     14/12 Q1018 RMK 1ST006 3ST008 7ST010 A3007=
20171020_010000.002,0,RJTF,,,,0,20171020010000,-1,-1,-1,-1,350,-1,7,-1,-1,-1,-1,,9999,0,1,3,FEW 8   BKN 10   BKN 15,1,15,1,12,1017,RJTF 200100Z 35007KT 9999 -RA FEW008 BKN010 BKN015 15/12 Q1017     RMK 1ST008 5ST010 7SC015 A3005=
20171020_020000.003,0,RJTF,,,,0,20171020020000,-1,-1,-1,-1,360,-1,7,-1,-1,-1,-1,,8000,0,1,3,FEW 8   SCT 10   BKN 15,1,15,1,12,1017,RJTF 200200Z 36007KT 8000 -RA FEW008 SCT010 BKN015 15/12 Q1017     RMK 1ST008 3ST010 7SC015 A3005=
20171020_030000.002,0,RJTF,,,,0,20171020030000,-1,-1,-1,-1,350,-1,8,-1,-1,300,30,,9999,0,1,3,FEW 7   BKN 10   BKN 15,1,15,1,12,1016,RJTF 200300Z 35008KT 300V030 9999 -RA FEW007 BKN010 BKN015     15/12 Q1016 RMK 1ST007 5ST010 7SC015 A3003=
20171020_040000.002,0,RJTF,,,,0,20171020040000,-1,-1,-1,-1,340,-1,8,-1,-1,-1,-1,,9999,0,0,3,FEW 7   SCT 9   BKN 11,1,16,1,12,1015,RJTF 200400Z 34008KT 9999 FEW007 SCT009 BKN011 16/12 Q1015 RMK     1ST007 3ST009 7ST011 A2999=
20171020_050000.002,0,RJTF,,,,0,20171020050000,-1,-1,-1,-1,350,-1,8,-1,-1,330,30,,9999,0,1,3,FEW 7   SCT 10   BKN 15,1,16,1,13,1015,RJTF 200500Z 35008KT 330V030 9999 -RA FEW007 SCT010 BKN015     16/13 Q1015 RMK 1ST007 3ST010 7SC015 A2999=
20171020_060000.002,0,RJTF,,,,0,20171020060000,-1,-1,-1,-1,340,-1,6,-1,-1,310,10,,9999,0,0,3,FEW 8   SCT 10   BKN 17,1,16,1,13,1015,RJTF 200600Z 34006KT 310V010 9999 FEW008 SCT010 BKN017 16/13     Q1015 RMK 1ST008 4ST010 6SC017 A3000=
20171020_070000.002,0,RJTF,,,,0,20171020070000,-1,-1,-1,-1,340,-1,6,-1,-1,300,10,,9999,0,0,3,FEW 10   SCT 18   BKN 35,1,16,1,13,1016,RJTF 200700Z 34006KT 300V010 9999 FEW010 SCT018 BKN035 16/13     Q1016 RMK 1ST010 3SC018 7SC035 A3001=
20171020_080000.002,0,RJTF,,,,0,20171020080000,-1,-1,-1,-1,-1,-1,-1,-1,-1,-1,-1,,-1,0,0,0,,0,-1,0,-1,-1,RJTF 200800Z NIL=
20171020_090000.002,0,RJTF,,,,0,20171020090000,-1,-1,-1,-1,-1,-1,-1,-1,-1,-1,-1,,-1,0,0,0,,0,-1,0,-1,-1,RJTF 200900Z NIL=
20171020_233000.001,0,RJTF,,,,0,20171020230000,-1,-1,-1,-1,350,-1,4,-1,-1,310,30,,3500,0,2,3,FEW 3   SCT 5   BKN 7,1,16,1,15,1018,RJTF 202330Z 35004KT 310V030 3500 -RA BR FEW003 SCT005 BKN007     16/15 Q1018 RMK 1ST003 3ST005 7ST007 A3006=
20171021_000000.002,0,RJTF,,,,0,20171021000000,-1,-1,-1,-1,350,-1,5,-1,-1,310,20,,4500,0,2,3,FEW 4   BKN 7   BKN 10,1,16,1,15,1018,RJTF 210000Z 35005KT 310V020 4500 -RA BR FEW004 BKN007 BKN010     16/15 Q1018 RMK 1ST004 5ST007 7ST010 A3006=
20171021_010000.002,0,RJTF,,,,0,20171021010000,-1,-1,-1,-1,340,-1,5,-1,-1,-1,-1,,6000,0,1,3,FEW 3   SCT 5   BKN 7,1,17,1,15,1018,RJTF 210100Z 34005KT 6000 -RA FEW003 SCT005 BKN007 17/15 Q1018     RMK 1ST003 3ST005 5ST007 A3007=
20171021_020000.002,0,RJTF,,,,0,20171021020000,-1,-1,-1,-1,350,-1,5,-1,-1,-1,-1,,4000,0,2,3,FEW 3   SCT 5   BKN 7,1,17,1,15,1017,RJTF 210200Z 35005KT 4000 -RA BR FEW003 SCT005 BKN007 17/15     Q1017 RMK 1ST003 3ST005 6ST007 A3004=
20171021_030000.002,0,RJTF,,,,0,20171021030000,-1,-1,-1,-1,340,-1,5,-1,-1,290,20,,1600,0,2,3,FEW 3   BKN 6   BKN 9,1,17,1,15,1017,RJTF 210300Z 34005KT 290V020 1600 -RA BR FEW003 BKN006 BKN009     17/15 Q1017 RMK 1ST003 6ST006 7ST009 A3003=
20171021_040000.002,0,RJTF,,,,0,20171021040000,-1,-1,-1,-1,350,-1,5,-1,-1,-1,-1,,4000,0,2,3,FEW 3   SCT 5   BKN 7,1,17,1,16,1016,RJTF 210400Z 35005KT 4000 -RA BR FEW003 SCT005 BKN007 17/16     Q1016 RMK 1ST003 3ST005 5ST007 A3002=
20171021_050000.002,0,RJTF,,,,0,20171021050000,-1,-1,-1,-1,350,-1,5,-1,-1,-1,-1,,2500,0,2,3,FEW 3   SCT 5   BKN 7,1,17,1,16,1016,RJTF 210500Z 35005KT 2500 -RA BR FEW003 SCT005 BKN007 17/16     Q1016 RMK 1ST003 3ST005 5ST007 A3001=
20171021_060000.002,0,RJTF,,,,0,20171021060000,-1,-1,-1,-1,340,-1,5,-1,-1,-1,-1,,6000,0,1,3,FEW 3   SCT 5   BKN 8,1,17,1,16,1016,RJTF 210600Z 34005KT 6000 -RA FEW003 SCT005 BKN008 17/16 Q1016     RMK 1ST003 3ST005 6ST008 A3000=
20171021_070000.002,0,RJTF,,,,0,20171021070000,-1,-1,-1,-1,340,-1,4,-1,-1,-1,-1,,3500,0,2,3,FEW 3   SCT 5   BKN 8,1,17,1,15,1016,RJTF 210700Z 34004KT 3500 -RA BR FEW003 SCT005 BKN008 17/15     Q1016 RMK 1ST003 4ST005 6ST008 A3002=
20171021_080000.002,0,RJTF,,,,0,20171021080000,-1,-1,-1,-1,-1,-1,-1,-1,-1,-1,-1,,-1,0,0,0,,0,-1,0,-1,-1,RJTF 210800Z NIL=
20171021_090000.002,0,RJTF,,,,0,20171021090000,-1,-1,-1,-1,-1,-1,-1,-1,-1,-1,-1,,-1,0,0,0,,0,-1,0,-1,-1,RJTF 210900Z NIL=
20171021_233000.001,0,RJTF,,,,0,20171021230000,-1,-1,-1,-1,360,-1,6,-1,-1,330,40,,3000,0,2,3,SCT 5   BKN 7   BKN 18,1,17,1,16,1009,RJTF 212330Z 36006KT 330V040 3000 SHRA BR SCT005 BKN007 BKN018     17/16 Q1009 RMK 3ST005 5ST007 7CU018 A2982=
20171022_000000.003,0,RJTF,,,,0,20171022000000,-1,-1,-1,-1,360,-1,5,-1,-1,320,20,,3500,0,2,3,SCT 5   BKN 7   BKN 15,1,17,1,16,1009,RJTF 220000Z 36005KT 320V020 3500 SHRA BR SCT005 BKN007 BKN015     17/16 Q1009 RMK 3ST005 6ST007 7CU015 A2982=
20171022_010000.002,0,RJTF,,,,0,20171022010000,-1,-1,-1,-1,360,-1,8,-1,-1,-1,-1,,3500,0,2,3,SCT 5   BKN 7   BKN 18,1,18,1,16,1008,RJTF 220100Z 36008KT 3500 SHRA BR SCT005 BKN007 BKN018 18/16     Q1008 RMK 4ST005 6ST007 7CU018 A2977 P/FR=
20171022_020000.003,0,RJTF,,,,0,20171022020000,-1,-1,-1,-1,350,-1,9,-1,-1,-1,-1,,3000,0,2,3,SCT 7   BKN 9   BKN 15,1,18,1,16,1007,RJTF 220200Z 35009KT 3000 SHRA BR SCT007 BKN009 BKN015 18/16     Q1007 RMK 4ST007 5ST009 7CU015 A2974=
20171022_030000.002,0,RJTF,,,,0,20171022030000,-1,-1,-1,-1,350,-1,9,-1,-1,-1,-1,,2500,0,2,3,SCT 7   BKN 14   BKN 20,1,18,1,16,1006,RJTF 220300Z 35009KT 2500 +SHRA BR SCT007 BKN014 BKN020 18/16     Q1006 RMK 3ST007 6ST014 7CU020 A2971=
20171022_040000.002,0,RJTF,,,,0,20171022040000,-1,-1,-1,-1,340,-1,9,-1,-1,-1,-1,,3000,0,2,3,SCT 7   BKN 12   BKN 15,1,18,1,16,1004,RJTF 220400Z 34009KT 3000 +SHRA BR SCT007 BKN012 BKN015 18/16     Q1004 RMK 3ST007 6ST012 7CU015 A2966=
20171022_050000.002,0,RJTF,,,,0,20171022050000,-1,-1,-1,-1,360,-1,9,-1,-1,330,40,,4000,0,2,3,SCT 8   BKN 10   BKN 15,1,18,1,16,1002,RJTF 220500Z 36009KT 330V040 4000 SHRA BR SCT008 BKN010 BKN015     18/16 Q1002 RMK 3ST008 5ST010 7CU015 A2961 P/FR=
20171022_060000.002,0,RJTF,,,,0,20171022060000,-1,-1,-1,-1,340,-1,7,-1,-1,290,10,,2000,0,2,3,SCT 7   BKN 9   BKN 16,1,18,1,16,1002,RJTF 220600Z 34007KT 290V010 2000 +SHRA BR SCT007 BKN009     BKN016 18/16 Q1002 RMK 3ST007 5ST009 7CU016 A2960=
20171022_070000.003,0,RJTF,,,,0,20171022070000,-1,-1,-1,-1,360,-1,10,-1,-1,310,30,,2000,0,2,3,SCT 7   BKN 10   BKN 16,1,18,1,16,1001,RJTF 220700Z 36010KT 310V030 2000 +SHRA BR SCT007 BKN010     BKN016 18/16 Q1001 RMK 3ST007 5ST010 7CU016 A2956=
20171022_080000.002,0,RJTF,,,,0,20171022080000,-1,-1,-1,-1,-1,-1,-1,-1,-1,-1,-1,,-1,0,0,0,,0,-1,0,-1,-1,RJTF 220800Z NIL=
20171022_090000.002,0,RJTF,,,,0,20171022090000,-1,-1,-1,-1,-1,-1,-1,-1,-1,-1,-1,,-1,0,0,0,,0,-1,0,-1,-1,RJTF 220900Z NIL=
20171022_233000.001,0,RJTF,,,,0,20171022230000,-1,-1,-1,-1,999,-1,2,-1,-1,-1,-1,,9999,0,0,3,FEW 20   BKN 50   BKN 70,1,20,1,13,983,RJTF 222330Z VRB02KT 9999 FEW020 BKN050 BKN070 20/13 Q0983 RMK     1CU020 5SC050 7AC070 A2904 P/RR=
20171023_000000.002,0,RJTF,,,,0,20171023000000,-1,-1,-1,-1,290,-1,4,-1,-1,260,330,,9999,0,0,3,FEW 20   BKN 40   BKN 70,1,20,1,12,984,RJTF 230000Z 29004KT 260V330 9999 FEW020 BKN040 BKN070 20/12     Q0984 RMK 1CU020 5SC040 7AC070 A2907=
20171023_010000.002,0,RJTF,,,,0,20171023010000,-1,-1,-1,-1,320,-1,8,-1,-1,280,360,,9999,0,0,3,FEW 30   SCT 60   BKN 90,1,21,1,8,986,RJTF 230100Z 32008KT 280V360 9999 FEW030 SCT060 BKN090 21/08     Q0986 RMK 1CU030 3SC060 6AC090 A2914 P/RR=
20171023_020000.002,0,RJTF,,,,0,20171023020000,-1,-1,-1,-1,320,-1,18,-1,38,290,350,,9999,0,0,2,FEW 30   SCT 100,1,22,1,4,989,RJTF 230200Z 32018G38KT 290V350 9999 FEW030 SCT100 22/04 Q0989     RMK 1CU030 3AC100 A2921 P/RR=
20171023_030000.002,0,RJTF,,,,0,20171023030000,-1,-1,-1,-1,320,-1,17,-1,29,280,360,,9999,0,0,1,FEW 30,1,22,1,3,992,RJTF 230300Z 32017G29KT 280V360 9999 FEW030 22/03 Q0992 RMK     1CU030 A2931 P/RR=
20171023_040000.002,0,RJTF,,,,0,20171023040000,-1,-1,-1,-1,320,-1,14,-1,29,270,360,,9999,0,0,1,FEW 30,1,22,1,3,995,RJTF 230400Z 32014G29KT 270V360 9999 FEW030 22/03 Q0995 RMK     1CU030 A2939 P/RR=
20171023_050000.002,0,RJTF,,,,0,20171023050000,-1,-1,-1,-1,320,-1,16,-1,28,270,10,,9999,0,0,1,FEW 30,1,22,1,2,997,RJTF 230500Z 32016G28KT 270V010 9999 FEW030 22/02 Q0997 RMK     1CU030 A2946 P/RR=
20171023_060000.002,0,RJTF,,,,0,20171023060000,-1,-1,-1,-1,340,-1,16,-1,28,-1,-1,,9999,0,0,1,FEW 30,1,21,1,3,1000,RJTF 230600Z 34016G28KT 9999 FEW030 21/03 Q1000 RMK 1CU030     A2953=
20171023_070000.002,0,RJTF,,,,0,20171023070000,-1,-1,-1,-1,340,-1,15,-1,27,-1,-1,,9999,0,0,1,FEW 30,1,20,1,3,1002,RJTF 230700Z 34015G27KT 9999 FEW030 20/03 Q1002 RMK 1CU030     A2960=
20171023_080000.002,0,RJTF,,,,0,20171023080000,-1,-1,-1,-1,-1,-1,-1,-1,-1,-1,-1,,-1,0,0,0,,0,-1,0,-1,-1,RJTF 230800Z NIL=
20171023_090000.003,0,RJTF,,,,0,20171023090000,-1,-1,-1,-1,-1,-1,-1,-1,-1,-1,-1,,-1,0,0,0,,0,-1,0,-1,-1,RJTF 230900Z NIL=
20171023_233000.001,0,RJTF,,,,0,20171023230000,-1,-1,-1,-1,999,-1,1,-1,-1,-1,-1,,9999,0,0,3,FEW 30   SCT 120   BKN 200,1,15,1,5,1023,RJTF 232330Z VRB01KT 9999 FEW030 SCT120 BKN200 15/05 Q1023 RMK     1CU030 3AC120 7AC200 A3022=
20171024_000000.002,0,RJTF,,,,0,20171024000000,-1,-1,-1,-1,999,-1,2,-1,-1,-1,-1,,9999,0,0,3,FEW 30   BKN 200   BKN -9999,1,16,1,5,1023,RJTF 240000Z VRB02KT 9999 FEW030 BKN200 BKN/// 16/05 Q1023 RMK     1CU030 5AC200 A3022=
20171024_010000.003,0,RJTF,,,,0,20171024010000,-1,-1,-1,-1,180,-1,5,-1,-1,140,230,,9999,0,0,3,FEW 30   BKN 160   BKN -9999,1,17,1,5,1023,RJTF 240100Z 18005KT 140V230 9999 FEW030 BKN160 BKN/// 17/05     Q1023 RMK 2CU030 5AC160 A3023=
20171024_020000.002,0,RJTF,,,,0,20171024020000,-1,-1,-1,-1,220,-1,4,-1,-1,150,270,,9999,0,0,3,FEW 30   SCT 160   BKN -9999,1,18,1,6,1023,RJTF 240200Z 22004KT 150V270 9999 FEW030 SCT160 BKN/// 18/06     Q1023 RMK 2CU030 3AC160 A3023=
20171024_030000.002,0,RJTF,,,,0,20171024030000,-1,-1,-1,-1,180,-1,3,-1,-1,140,280,,9999,0,0,3,FEW 30   SCT 50   BKN 160,1,17,1,5,1023,RJTF 240300Z 18003KT 140V280 9999 FEW030 SCT050 BKN160 17/05     Q1023 RMK 1CU030 3SC050 6AC160 A3021=
20171024_040000.002,0,RJTF,,,,0,20171024040000,-1,-1,-1,-1,140,-1,3,-1,-1,110,170,,9999,0,0,3,FEW 30   SCT 120   BKN 160,1,17,1,5,1022,RJTF 240400Z 14003KT 110V170 9999 FEW030 SCT120 BKN160 17/05     Q1022 RMK 1CU030 3AC120 7AC160 A3020=
20171024_050000.002,0,RJTF,,,,0,20171024050000,-1,-1,-1,-1,120,-1,3,-1,-1,70,190,,9999,0,0,2,FEW 30   BKN 160,1,17,1,4,1022,RJTF 240500Z 12003KT 070V190 9999 FEW030 BKN160 17/04 Q1022     RMK 1CU030 7AC160 A3019=
20171024_060000.002,0,RJTF,,,,0,20171024060000,-1,-1,-1,-1,80,-1,3,-1,-1,40,120,,9999,0,0,2,FEW 30   BKN 160,1,16,1,5,1023,RJTF 240600Z 08003KT 040V120 9999 FEW030 BKN160 16/05 Q1023     RMK 1CU030 7AC160 A3021=
20171024_070000.002,0,RJTF,,,,0,20171024070000,-1,-1,-1,-1,80,-1,3,-1,-1,40,130,,9999,0,0,2,FEW 30   BKN 160,1,16,1,6,1023,RJTF 240700Z 08003KT 040V130 9999 FEW030 BKN160 16/06 Q1023     RMK 1CU030 7AC160 A3021=
20171024_080000.002,0,RJTF,,,,0,20171024080000,-1,-1,-1,-1,-1,-1,-1,-1,-1,-1,-1,,-1,0,0,0,,0,-1,0,-1,-1,RJTF 240800Z NIL=
20171024_090000.002,0,RJTF,,,,0,20171024090000,-1,-1,-1,-1,-1,-1,-1,-1,-1,-1,-1,,-1,0,0,0,,0,-1,0,-1,-1,RJTF 240900Z NIL=
20171024_233000.001,0,RJTF,,,,0,20171024230000,-1,-1,-1,-1,10,-1,6,-1,-1,-1,-1,,6000,0,1,3,FEW 15   BKN 30   BKN 50,1,12,1,10,1020,RJTF 242330Z 01006KT 6000 -RA FEW015 BKN030 BKN050 12/10 Q1020     RMK 1CU015 6SC030 7SC050 A3013=
20171025_000000.003,0,RJTF,,,,0,20171025000000,-1,-1,-1,-1,360,-1,8,-1,-1,320,40,,6000,0,0,3,FEW 10   SCT 30   BKN 50,1,13,1,10,1019,RJTF 250000Z 36008KT 320V040 6000 FEW010 SCT030 BKN050 13/10     Q1019 RMK 1ST010 4SC030 6SC050 A3012=
20171025_010000.002,0,RJTF,,,,0,20171025010000,-1,-1,-1,-1,360,-1,5,-1,-1,320,30,,5000,0,2,3,FEW 10   BKN 30   BKN 50,1,12,1,10,1019,RJTF 250100Z 36005KT 320V030 5000 -RA BR FEW010 BKN030 BKN050     12/10 Q1019 RMK 1ST010 6SC030 7SC050 A3011=
20171025_020000.002,0,RJTF,,,,0,20171025020000,-1,-1,-1,-1,20,-1,5,-1,-1,-1,-1,,5000,0,2,3,FEW 10   BKN 40   BKN 60,1,13,1,10,1018,RJTF 250200Z 02005KT 5000 -RA BR FEW010 BKN040 BKN060 13/10     Q1018 RMK 1ST010 5SC040 7SC060 A3008=
20171025_030000.002,0,RJTF,,,,0,20171025030000,-1,-1,-1,-1,360,-1,4,-1,-1,320,30,,6000,0,1,3,FEW 10   BKN 40   BKN 60,1,14,1,11,1018,RJTF 250300Z 36004KT 320V030 6000 -RA FEW010 BKN040 BKN060     14/11 Q1018 RMK 1ST010 5SC040 7SC060 A3008=
20171025_040000.002,0,RJTF,,,,0,20171025040000,-1,-1,-1,-1,340,-1,4,-1,-1,290,30,,5000,0,2,3,FEW 10   BKN 40   BKN 60,1,14,1,11,1018,RJTF 250400Z 34004KT 290V030 5000 -RA BR FEW010 BKN040 BKN060     14/11 Q1018 RMK 1ST010 6SC040 7SC060 A3008=
20171025_050000.002,0,RJTF,,,,0,20171025050000,-1,-1,-1,-1,350,-1,7,-1,-1,-1,-1,,5000,0,2,3,FEW 10   BKN 40   BKN 60,1,14,1,11,1018,RJTF 250500Z 35007KT 5000 -RA BR FEW010 BKN040 BKN060 14/11     Q1018 RMK 1ST010 6SC040 7SC060 A3007=
20171025_060000.002,0,RJTF,,,,0,20171025060000,-1,-1,-1,-1,320,-1,6,-1,-1,280,360,,9999,0,1,3,FEW 15   SCT 40   BKN 60,1,14,1,10,1018,RJTF 250600Z 32006KT 280V360 9999 -RA FEW015 SCT040 BKN060     14/10 Q1018 RMK 1CU015 3SC040 6SC060 A3006=
20171025_070000.002,0,RJTF,,,,0,20171025070000,-1,-1,-1,-1,320,-1,8,-1,-1,290,360,,9999,0,0,2,FEW 15   BKN 70,1,14,1,8,1017,RJTF 250700Z 32008KT 290V360 9999 FEW015 BKN070 14/08 Q1017     RMK 1CU015 7AC070 A3005=
20171025_080000.002,0,RJTF,,,,0,20171025080000,-1,-1,-1,-1,-1,-1,-1,-1,-1,-1,-1,,-1,0,0,0,,0,-1,0,-1,-1,RJTF 250800Z NIL=
20171025_090000.002,0,RJTF,,,,0,20171025090000,-1,-1,-1,-1,-1,-1,-1,-1,-1,-1,-1,,-1,0,0,0,,0,-1,0,-1,-1,RJTF 250900Z NIL=
20171025_233000.001,0,RJTF,,,,0,20171025230000,-1,-1,-1,-1,340,-1,3,-1,-1,270,20,,8000,0,0,1,NSC -1,1,13,1,9,1023,RJTF 252330Z 34003KT 270V020 8000 NSC 13/09 Q1023 RMK A3021=
20171026_000000.002,0,RJTF,,,,0,20171026000000,-1,-1,-1,-1,340,-1,4,-1,-1,290,20,CAVOK,-1,0,0,0,,1,14,1,8,1023,RJTF 260000Z 34004KT 290V020 CAVOK 14/08 Q1023 RMK A3021=
20171026_010000.002,0,RJTF,,,,0,20171026010000,-1,-1,-1,-1,30,-1,3,-1,-1,340,80,CAVOK,-1,0,0,0,,1,16,1,9,1022,RJTF 260100Z 03003KT 340V080 CAVOK 16/09 Q1022 RMK A3020=
20171026_020000.002,0,RJTF,,,,0,20171026020000,-1,-1,-1,-1,999,-1,3,-1,-1,-1,-1,CAVOK,-1,0,0,0,,1,18,1,8,1022,RJTF 260200Z VRB03KT CAVOK 18/08 Q1022 RMK A3019=
20171026_030000.002,0,RJTF,,,,0,20171026030000,-1,-1,-1,-1,999,-1,3,-1,-1,-1,-1,,9999,0,0,1,FEW 30,1,19,1,4,1021,RJTF 260300Z VRB03KT 9999 FEW030 19/04 Q1021 RMK 1CU030 A3016=
20171026_040000.002,0,RJTF,,,,0,20171026040000,-1,-1,-1,-1,999,-1,3,-1,-1,-1,-1,,9999,0,0,1,FEW 30,1,20,1,4,1020,RJTF 260400Z VRB03KT 9999 FEW030 20/04 Q1020 RMK 1CU030 A3014=
20171026_050000.002,0,RJTF,,,,0,20171026050000,-1,-1,-1,-1,999,-1,2,-1,-1,-1,-1,,9999,0,0,1,FEW 30,1,21,1,3,1020,RJTF 260500Z VRB02KT 9999 FEW030 21/03 Q1020 RMK 1CU030 A3013=
20171026_060000.002,0,RJTF,,,,0,20171026060000,-1,-1,-1,-1,120,-1,4,-1,-1,80,170,,9999,0,0,1,FEW 30,1,20,1,3,1020,RJTF 260600Z 12004KT 080V170 9999 FEW030 20/03 Q1020 RMK     1CU030 A3012=
20171026_070000.002,0,RJTF,,,,0,20171026070000,-1,-1,-1,-1,120,-1,4,-1,-1,-1,-1,CAVOK,-1,0,0,0,,1,19,1,1,1020,RJTF 260700Z 12004KT CAVOK 19/01 Q1020 RMK A3012=
20171026_080000.002,0,RJTF,,,,0,20171026080000,-1,-1,-1,-1,-1,-1,-1,-1,-1,-1,-1,,-1,0,0,0,,0,-1,0,-1,-1,RJTF 260800Z NIL=
20171026_090000.002,0,RJTF,,,,0,20171026090000,-1,-1,-1,-1,-1,-1,-1,-1,-1,-1,-1,,-1,0,0,0,,0,-1,0,-1,-1,RJTF 260900Z NIL=
20171026_233000.001,0,RJTF,,,,0,20171026230000,-1,-1,-1,-1,999,-1,2,-1,-1,-1,-1,CAVOK,-1,0,0,0,,1,13,1,9,1023,RJTF 262330Z VRB02KT CAVOK 13/09 Q1023 RMK A3023=
20171027_000000.002,0,RJTF,,,,0,20171027000000,-1,-1,-1,-1,10,-1,3,-1,-1,290,70,CAVOK,-1,0,0,0,,1,14,1,8,1023,RJTF 270000Z 01003KT 290V070 CAVOK 14/08 Q1023 RMK A3022=
20171027_010000.003,0,RJTF,,,,0,20171027010000,-1,-1,-1,-1,30,-1,5,-1,-1,330,70,CAVOK,-1,0,0,0,,1,17,1,8,1023,RJTF 270100Z 03005KT 330V070 CAVOK 17/08 Q1023 RMK A3021=
20171027_020000.003,0,RJTF,,,,0,20171027020000,-1,-1,-1,-1,330,-1,4,-1,-1,280,20,CAVOK,-1,0,0,0,,1,18,1,8,1022,RJTF 270200Z 33004KT 280V020 CAVOK 18/08 Q1022 RMK A3019=
20171027_030000.002,0,RJTF,,,,0,20171027030000,-1,-1,-1,-1,20,-1,4,-1,-1,280,80,CAVOK,-1,0,0,0,,1,20,1,6,1021,RJTF 270300Z 02004KT 280V080 CAVOK 20/06 Q1021 RMK A3017=
20171027_040000.002,0,RJTF,,,,0,20171027040000,-1,-1,-1,-1,110,-1,3,-1,-1,60,210,CAVOK,-1,0,0,0,,1,20,1,5,1021,RJTF 270400Z 11003KT 060V210 CAVOK 20/05 Q1021 RMK A3015=
20171027_050000.003,0,RJTF,,,,0,20171027050000,-1,-1,-1,-1,60,-1,3,-1,-1,290,110,CAVOK,-1,0,0,0,,1,21,1,5,1021,RJTF 270500Z 06003KT 290V110 CAVOK 21/05 Q1021 RMK A3015=
20171027_060000.002,0,RJTF,,,,0,20171027060000,-1,-1,-1,-1,130,-1,3,-1,-1,80,180,,9999,0,0,1,FEW 30,1,21,1,5,1021,RJTF 270600Z 13003KT 080V180 9999 FEW030 21/05 Q1021 RMK     1CU030 A3017=
20171027_070000.002,0,RJTF,,,,0,20171027070000,-1,-1,-1,-1,70,-1,3,-1,-1,30,100,,9999,0,0,1,FEW 30,1,20,1,5,1021,RJTF 270700Z 07003KT 030V100 9999 FEW030 20/05 Q1021 RMK     1CU030 A3017=
20171027_080000.003,0,RJTF,,,,0,20171027080000,-1,-1,-1,-1,-1,-1,-1,-1,-1,-1,-1,,-1,0,0,0,,0,-1,0,-1,-1,RJTF 270800Z NIL=
20171027_090000.002,0,RJTF,,,,0,20171027090000,-1,-1,-1,-1,-1,-1,-1,-1,-1,-1,-1,,-1,0,0,0,,0,-1,0,-1,-1,RJTF 270900Z NIL=
20171027_233000.001,0,RJTF,,,,0,20171027230000,-1,-1,-1,-1,340,-1,5,-1,-1,-1,-1,,9999,0,0,3,FEW 25   SCT 45   BKN 120,1,14,1,9,1028,RJTF 272330Z 34005KT 9999 FEW025 SCT045 BKN120 14/09 Q1028 RMK     1CU025 3SC045 7AC120 A3036=
20171028_000000.002,0,RJTF,,,,0,20171028000000,-1,-1,-1,-1,320,-1,3,-1,-1,290,10,,9999,0,0,3,FEW 30   BKN 40   BKN 120,1,15,1,10,1027,RJTF 280000Z 32003KT 290V010 9999 FEW030 BKN040 BKN120 15/10     Q1027 RMK 2CU030 5SC040 7AC120 A3035=
20171028_010000.002,0,RJTF,,,,0,20171028010000,-1,-1,-1,-1,350,-1,4,-1,-1,-1,-1,,9999,0,1,3,FEW 30   BKN 40   BKN 120,1,15,1,10,1027,RJTF 280100Z 35004KT 9999 VCSH FEW030 BKN040 BKN120 15/10     Q1027 RMK 2CU030 5SC040 7AC120 A3034=
20171028_020000.002,0,RJTF,,,,0,20171028020000,-1,-1,-1,-1,360,-1,5,-1,-1,310,30,,9999,0,1,3,FEW 25   BKN 40   BKN 60,1,16,1,10,1026,RJTF 280200Z 36005KT 310V030 9999 -RA FEW025 BKN040 BKN060     16/10 Q1026 RMK 2CU025 5SC040 7SC060 A3032=
20171028_030000.002,0,RJTF,,,,0,20171028030000,-1,-1,-1,-1,350,-1,6,-1,-1,-1,-1,,9999,0,1,3,FEW 25   BKN 35   BKN 45,1,16,1,10,1025,RJTF 280300Z 35006KT 9999 -RA FEW025 BKN035 BKN045 16/10 Q1025     RMK 1CU025 5SC035 7SC045 A3029=
20171028_040000.002,0,RJTF,,,,0,20171028040000,-1,-1,-1,-1,350,-1,6,-1,-1,-1,-1,,9999,0,1,3,FEW 20   SCT 30   BKN 90,1,16,1,10,1025,RJTF 280400Z 35006KT 9999 -RA FEW020 SCT030 BKN090 16/10 Q1025     RMK 1CU020 4SC030 7AC090 A3027=
20171028_050000.002,0,RJTF,,,,0,20171028050000,-1,-1,-1,-1,350,-1,6,-1,-1,-1,-1,,9999,0,0,3,FEW 25   BKN 30   BKN 80,1,15,1,10,1025,RJTF 280500Z 35006KT 9999 FEW025 BKN030 BKN080 15/10 Q1025 RMK     1CU025 5SC030 7AC080 A3027=
20171028_060000.002,0,RJTF,,,,0,20171028060000,-1,-1,-1,-1,350,-1,3,-1,-1,-1,-1,,9999,0,1,3,FEW 25   BKN 35   BKN 80,1,14,1,11,1025,RJTF 280600Z 35003KT 9999 -RA FEW025 BKN035 BKN080 14/11 Q1025     RMK 2CU025 5SC035 7AC080 A3028=
20171028_070000.002,0,RJTF,,,,0,20171028070000,-1,-1,-1,-1,340,-1,5,-1,-1,-1,-1,,9999,0,1,3,FEW 30   BKN 40   BKN 100,1,14,1,11,1025,RJTF 280700Z 34005KT 9999 -RA FEW030 BKN040 BKN100 14/11 Q1025     RMK 1CU030 5SC040 7AC100 A3029=
20171028_080000.002,0,RJTF,,,,0,20171028080000,-1,-1,-1,-1,-1,-1,-1,-1,-1,-1,-1,,-1,0,0,0,,0,-1,0,-1,-1,RJTF 280800Z NIL=
20171028_090000.002,0,RJTF,,,,0,20171028090000,-1,-1,-1,-1,-1,-1,-1,-1,-1,-1,-1,,-1,0,0,0,,0,-1,0,-1,-1,RJTF 280900Z NIL=
20171028_233000.001,0,RJTF,,,,0,20171028230000,-1,-1,-1,-1,350,-1,7,-1,-1,320,20,,3500,0,2,3,FEW 4   BKN 6   BKN 13,1,14,1,12,1012,RJTF 282330Z 35007KT 320V020 3500 SHRA BR FEW004 BKN006 BKN013     14/12 Q1012 RMK 2ST004 5ST006 7CU013 A2991 P/FR=
20171029_000000.003,0,RJTF,,,,0,20171029000000,-1,-1,-1,-1,340,-1,6,-1,-1,-1,-1,,3500,0,2,3,FEW 4   BKN 6   BKN 13,1,14,1,12,1011,RJTF 290000Z 34006KT 3500 SHRA BR FEW004 BKN006 BKN013 14/12     Q1011 RMK 2ST004 6ST006 7CU013 A2988=
20171029_010000.003,0,RJTF,,,,0,20171029010000,-1,-1,-1,-1,330,-1,7,-1,-1,290,10,,4000,0,2,3,FEW 6   BKN 8   BKN 15,1,14,1,13,1010,RJTF 290100Z 33007KT 290V010 4000 SHRA BR FEW006 BKN008 BKN015     14/13 Q1010 RMK 2ST006 5ST008 7CU015 A2985=
20171029_020000.003,0,RJTF,,,,0,20171029020000,-1,-1,-1,-1,340,-1,5,-1,-1,300,10,,6000,0,1,3,FEW 7   SCT 9   BKN 25,1,15,1,13,1008,RJTF 290200Z 34005KT 300V010 6000 SHRA FEW007 SCT009 BKN025     15/13 Q1008 RMK 2ST007 4ST009 7CU025 A2977=
20171029_030000.002,0,RJTF,,,,0,20171029030000,-1,-1,-1,-1,300,-1,4,-1,-1,240,350,,5000,0,2,3,FEW 6   SCT 8   BKN 20,1,15,1,14,1007,RJTF 290300Z 30004KT 240V350 5000 SHRA BR FEW006 SCT008 BKN020     15/14 Q1007 RMK 1ST006 4ST008 7CU020 A2974=
20171029_040000.002,0,RJTF,,,,0,20171029040000,-1,-1,-1,-1,350,-1,5,-1,-1,-1,-1,,7000,0,1,3,FEW 15   BKN 30   BKN 45,1,16,1,14,1004,RJTF 290400Z 35005KT 7000 -SHRA FEW015 BKN030 BKN045 16/14     Q1004 RMK 2CU015 5CU030 7SC045 A2966 P/FR=
20171029_050000.002,0,RJTF,,,,0,20171029050000,-1,-1,-1,-1,360,-1,3,-1,-1,280,50,,3000,0,2,3,SCT 6   BKN 15   BKN 25,1,15,1,14,1003,RJTF 290500Z 36003KT 280V050 3000 SHRA BR SCT006 BKN015 BKN025     15/14 Q1003 RMK 3ST006 5CU015 7SC025 A2963=
20171029_060000.003,0,RJTF,,,,0,20171029060000,-1,-1,-1,-1,20,-1,3,-1,-1,330,60,,3200,0,2,3,SCT 4   BKN 7   BKN 18,1,15,1,14,1001,RJTF 290600Z 02003KT 330V060 3200 SHRA BR SCT004 BKN007 BKN018     15/14 Q1001 RMK 3ST004 5ST007 7CU018 A2958=
20171029_070000.002,0,RJTF,,,,0,20171029070000,-1,-1,-1,-1,350,-1,3,-1,-1,270,50,,4000,0,2,3,SCT 6   BKN 10   BKN 15,1,15,1,14,1001,RJTF 290700Z 35003KT 270V050 4000 -SHRA BR SCT006 BKN010     BKN015 15/14 Q1001 RMK 3ST006 5ST010 7CU015 A2956 P/FR=
20171029_080000.003,0,RJTF,,,,0,20171029080000,-1,-1,-1,-1,-1,-1,-1,-1,-1,-1,-1,,-1,0,0,0,,0,-1,0,-1,-1,RJTF 290800Z NIL=
20171029_090000.002,0,RJTF,,,,0,20171029090000,-1,-1,-1,-1,-1,-1,-1,-1,-1,-1,-1,,-1,0,0,0,,0,-1,0,-1,-1,RJTF 290900Z NIL=
20171029_233000.001,0,RJTF,,,,0,20171029230000,-1,-1,-1,-1,350,-1,10,-1,-1,290,40,,9999,0,0,1,FEW 30,1,19,1,7,1004,RJTF 292330Z 35010KT 290V040 9999 FEW030 19/07 Q1004 RMK     1CU030 A2965=
20171030_000000.002,0,RJTF,,,,0,20171030000000,-1,-1,-1,-1,350,-1,13,-1,-1,310,20,,9999,0,0,1,FEW 30,1,19,1,5,1004,RJTF 300000Z 35013KT 310V020 9999 FEW030 19/05 Q1004 RMK     1CU030 A2967=
20171030_010000.002,0,RJTF,,,,0,20171030010000,-1,-1,-1,-1,360,-1,17,-1,29,320,40,,9999,0,0,1,FEW 30,1,18,1,3,1005,RJTF 300100Z 36017G29KT 320V040 9999 FEW030 18/03 Q1005 RMK     2CU030 A2970=
20171030_020000.002,0,RJTF,,,,0,20171030020000,-1,-1,-1,-1,350,-1,17,-1,30,320,20,,9999,0,0,1,FEW 30,1,19,1,2,1006,RJTF 300200Z 35017G30KT 320V020 9999 FEW030 19/02 Q1006 RMK     2CU030 A2972=
20171030_030000.002,0,RJTF,,,,0,20171030030000,-1,-1,-1,-1,10,-1,21,-1,33,-1,-1,,9999,0,0,1,FEW 30,1,18,-1,0,1006,RJTF 300300Z 01021G33KT 9999 FEW030 18/M00 Q1006 RMK 1CU030     A2972=
20171030_040000.002,0,RJTF,,,,0,20171030040000,-1,-1,-1,-1,360,-1,17,-1,28,330,30,,9999,0,0,1,FEW 30,1,18,-1,1,1006,RJTF 300400Z 36017G28KT 330V030 9999 FEW030 18/M01 Q1006 RMK     1CU030 A2973=
20171030_050000.003,0,RJTF,,,,0,20171030050000,-1,-1,-1,-1,10,-1,19,-1,33,-1,-1,,9999,0,0,1,FEW 30,1,17,-1,3,1007,RJTF 300500Z 01019G33KT 9999 FEW030 17/M03 Q1007 RMK 1CU030     A2976=
20171030_060000.002,0,RJTF,,,,0,20171030060000,-1,-1,-1,-1,360,-1,21,-1,34,-1,-1,,9999,0,0,1,FEW 30,1,16,-1,4,1009,RJTF 300600Z 36021G34KT 9999 FEW030 16/M04 Q1009 RMK 1CU030     A2980=
20171030_070000.003,0,RJTF,,,,0,20171030070000,-1,-1,-1,-1,360,-1,20,-1,31,-1,-1,,9999,0,0,1,FEW 30,1,15,-1,4,1010,RJTF 300700Z 36020G31KT 9999 FEW030 15/M04 Q1010 RMK 1CU030     A2984=
20171030_080000.002,0,RJTF,,,,0,20171030080000,-1,-1,-1,-1,-1,-1,-1,-1,-1,-1,-1,,-1,0,0,0,,0,-1,0,-1,-1,RJTF 300800Z NIL=
20171030_090000.002,0,RJTF,,,,0,20171030090000,-1,-1,-1,-1,-1,-1,-1,-1,-1,-1,-1,,-1,0,0,0,,0,-1,0,-1,-1,RJTF 300900Z NIL=
20171030_233000.001,0,RJTF,,,,0,20171030230000,-1,-1,-1,-1,350,-1,4,-1,-1,270,40,,9999,0,0,2,FEW 30   BKN 50,1,14,1,1,1021,RJTF 302330Z 35004KT 270V040 9999 FEW030 BKN050 14/01 Q1021     RMK 1CU030 6SC050 A3018=
20171031_000000.003,0,RJTF,,,,0,20171031000000,-1,-1,-1,-1,350,-1,5,-1,-1,280,30,,9999,0,0,2,FEW 30   BKN 50,1,14,-1,0,1022,RJTF 310000Z 35005KT 280V030 9999 FEW030 BKN050 14/M00 Q1022     RMK 1CU030 7SC050 A3018=
20171031_010000.002,0,RJTF,,,,0,20171031010000,-1,-1,-1,-1,350,-1,10,-1,-1,-1,-1,,9999,0,0,2,FEW 30   BKN 50,1,15,-1,0,1021,RJTF 310100Z 35010KT 9999 FEW030 BKN050 15/M00 Q1021 RMK     1CU030 7SC050 A3018=
20171031_020000.002,0,RJTF,,,,0,20171031020000,-1,-1,-1,-1,360,-1,7,-1,-1,310,30,,9999,0,0,2,FEW 30   BKN 50,1,15,1,0,1021,RJTF 310200Z 36007KT 310V030 9999 FEW030 BKN050 15/00 Q1021     RMK 2CU030 6SC050 A3018=
20171031_030000.002,0,RJTF,,,,0,20171031030000,-1,-1,-1,-1,360,-1,7,-1,-1,330,30,,9999,0,0,2,FEW 30   BKN 50,1,17,-1,1,1021,RJTF 310300Z 36007KT 330V030 9999 FEW030 BKN050 17/M01 Q1021     RMK 2CU030 6SC050 A3016=
20171031_040000.002,0,RJTF,,,,0,20171031040000,-1,-1,-1,-1,999,-1,2,-1,-1,-1,-1,,9999,0,0,3,FEW 30   SCT 50   BKN 80,1,17,1,0,1020,RJTF 310400Z VRB02KT 9999 FEW030 SCT050 BKN080 17/00 Q1020 RMK     1CU030 4SC050 5AC080 A3015=
20171031_050000.002,0,RJTF,,,,0,20171031050000,-1,-1,-1,-1,130,-1,3,-1,-1,60,190,,9999,0,0,3,FEW 30   BKN 50   BKN 80,1,17,-1,0,1021,RJTF 310500Z 13003KT 060V190 9999 FEW030 BKN050 BKN080 17/M00     Q1021 RMK 1CU030 5SC050 5AC080 A3015=
20171031_060000.002,0,RJTF,,,,0,20171031060000,-1,-1,-1,-1,999,-1,2,-1,-1,-1,-1,,9999,0,0,2,FEW 30   BKN 50,1,17,1,1,1021,RJTF 310600Z VRB02KT 9999 FEW030 BKN050 17/01 Q1021 RMK 1CU030     7SC050 A3017=
20171031_070000.002,0,RJTF,,,,0,20171031070000,-1,-1,-1,-1,190,-1,3,-1,-1,160,220,,9999,0,0,2,FEW 30   BKN 50,1,16,1,2,1021,RJTF 310700Z 19003KT 160V220 9999 FEW030 BKN050 16/02 Q1021     RMK 1CU030 6SC050 A3017=
20171031_080000.002,0,RJTF,,,,0,20171031080000,-1,-1,-1,-1,-1,-1,-1,-1,-1,-1,-1,,-1,0,0,0,,0,-1,0,-1,-1,RJTF 310800Z NIL=
20171031_090000.002,0,RJTF,,,,0,20171031090000,-1,-1,-1,-1,-1,-1,-1,-1,-1,-1,-1,,-1,0,0,0,,0,-1,0,-1,-1,RJTF 310900Z NIL=
20171031_233000.001,0,RJTF,,,,0,20171031230000,-1,-1,-1,-1,10,-1,5,-1,-1,330,40,,9999,0,0,3,FEW 20   SCT 30   BKN -9999,1,11,1,5,1024,RJTF 312330Z 01005KT 330V040 9999 FEW020 SCT030 BKN/// 11/05     Q1024 RMK 1CU020 3SC030 A3024=
20171101_000000.002,0,RJTF,,,,0,20171101000000,-1,-1,-1,-1,350,-1,4,-1,-1,300,30,,9999,0,0,3,FEW 20   SCT 30   BKN -9999,1,13,1,4,1023,RJTF 010000Z 35004KT 300V030 9999 FEW020 SCT030 BKN/// 13/04     Q1023 RMK 1CU020 3SC030 A3023=
20171101_010000.002,0,RJTF,,,,0,20171101010000,-1,-1,-1,-1,360,-1,6,-1,-1,-1,-1,,9999,0,0,3,FEW 30   SCT 40   BKN -9999,1,15,1,3,1023,RJTF 010100Z 36006KT 9999 FEW030 SCT040 BKN/// 15/03 Q1023 RMK     1CU030 3SC040 A3021=
20171101_020000.002,0,RJTF,,,,0,20171101020000,-1,-1,-1,-1,10,-1,5,-1,-1,340,60,,9999,0,0,2,FEW 30   BKN -9999,1,15,1,3,1022,RJTF 010200Z 01005KT 340V060 9999 FEW030 BKN/// 15/03 Q1022     RMK 1CU030 A3018=
20171101_030000.002,0,RJTF,,,,0,20171101030000,-1,-1,-1,-1,20,-1,5,-1,-1,300,60,,9999,0,0,2,FEW 30   BKN -9999,1,16,1,4,1020,RJTF 010300Z 02005KT 300V060 9999 FEW030 BKN/// 16/04 Q1020     RMK 1CU030 A3014=
20171101_040000.002,0,RJTF,,,,0,20171101040000,-1,-1,-1,-1,999,-1,4,-1,-1,-1,-1,,9999,0,0,2,FEW 30   SCT -9999,1,18,1,6,1019,RJTF 010400Z VRB04KT 9999 FEW030 SCT/// 18/06 Q1019 RMK 1CU030     A3011=
20171101_050000.002,0,RJTF,,,,0,20171101050000,-1,-1,-1,-1,10,-1,5,-1,-1,330,50,,9999,0,0,2,FEW 30   SCT -9999,1,18,1,6,1019,RJTF 010500Z 01005KT 330V050 9999 FEW030 SCT/// 18/06 Q1019     RMK 1CU030 A3009=
20171101_060000.002,0,RJTF,,,,0,20171101060000,-1,-1,-1,-1,10,-1,5,-1,-1,330,40,,9999,0,0,2,FEW 30   SCT -9999,1,18,1,6,1019,RJTF 010600Z 01005KT 330V040 9999 FEW030 SCT/// 18/06 Q1019     RMK 1CU030 A3009=
20171101_070000.002,0,RJTF,,,,0,20171101070000,-1,-1,-1,-1,360,-1,3,-1,-1,-1,-1,,9999,0,0,1,FEW 30,1,16,1,6,1019,RJTF 010700Z 36003KT 9999 FEW030 16/06 Q1019 RMK 1CU030 A3009=
20171101_080000.002,0,RJTF,,,,0,20171101080000,-1,-1,-1,-1,-1,-1,-1,-1,-1,-1,-1,,-1,0,0,0,,0,-1,0,-1,-1,RJTF 010800Z NIL=
20171101_090000.002,0,RJTF,,,,0,20171101090000,-1,-1,-1,-1,-1,-1,-1,-1,-1,-1,-1,,-1,0,0,0,,0,-1,0,-1,-1,RJTF 010900Z NIL=
20171101_233000.001,0,RJTF,,,,0,20171101230000,-1,-1,-1,-1,999,-1,1,-1,-1,-1,-1,CAVOK,-1,0,0,0,,1,14,1,8,1020,RJTF 012330Z VRB01KT CAVOK 14/08 Q1020 RMK A3014=
20171102_000000.002,0,RJTF,,,,0,20171102000000,-1,-1,-1,-1,10,-1,3,-1,-1,310,50,CAVOK,-1,0,0,0,,1,15,1,8,1020,RJTF 020000Z 01003KT 310V050 CAVOK 15/08 Q1020 RMK A3014=
20171102_010000.002,0,RJTF,,,,0,20171102010000,-1,-1,-1,-1,10,-1,4,-1,-1,340,50,CAVOK,-1,0,0,0,,1,17,1,7,1020,RJTF 020100Z 01004KT 340V050 CAVOK 17/07 Q1020 RMK A3013=
20171102_020000.002,0,RJTF,,,,0,20171102020000,-1,-1,-1,-1,10,-1,5,-1,-1,330,50,CAVOK,-1,0,0,0,,1,19,1,6,1020,RJTF 020200Z 01005KT 330V050 CAVOK 19/06 Q1020 RMK A3012=
20171102_030000.003,0,RJTF,,,,0,20171102030000,-1,-1,-1,-1,100,-1,4,-1,-1,40,150,CAVOK,-1,0,0,0,,1,20,1,7,1019,RJTF 020300Z 10004KT 040V150 CAVOK 20/07 Q1019 RMK A3010=
20171102_040000.002,0,RJTF,,,,0,20171102040000,-1,-1,-1,-1,999,-1,3,-1,-1,-1,-1,,9999,0,0,2,FEW 30   BKN -9999,1,21,1,7,1018,RJTF 020400Z VRB03KT 9999 FEW030 BKN/// 21/07 Q1018 RMK 1CU030     A3008=
20171102_050000.002,0,RJTF,,,,0,20171102050000,-1,-1,-1,-1,50,-1,5,-1,-1,360,120,,9999,0,0,2,FEW 30   BKN -9999,1,21,1,7,1018,RJTF 020500Z 05005KT 360V120 9999 FEW030 BKN/// 21/07 Q1018     RMK 1CU030 A3008=
20171102_060000.002,0,RJTF,,,,0,20171102060000,-1,-1,-1,-1,60,-1,4,-1,-1,10,100,,9999,0,0,2,FEW 30   SCT -9999,1,20,1,7,1018,RJTF 020600Z 06004KT 010V100 9999 FEW030 SCT/// 20/07 Q1018     RMK 1CU030 A3008=
20171102_070000.003,0,RJTF,,,,0,20171102070000,-1,-1,-1,-1,360,-1,6,-1,-1,-1,-1,,9999,0,0,3,FEW 30   SCT 120   BKN -9999,1,19,1,7,1018,RJTF 020700Z 36006KT 9999 FEW030 SCT120 BKN/// 19/07 Q1018 RMK     1CU030 3AC120 A3006=
20171102_080000.002,0,RJTF,,,,0,20171102080000,-1,-1,-1,-1,-1,-1,-1,-1,-1,-1,-1,,-1,0,0,0,,0,-1,0,-1,-1,RJTF 020800Z NIL=
20171102_090000.003,0,RJTF,,,,0,20171102090000,-1,-1,-1,-1,-1,-1,-1,-1,-1,-1,-1,,-1,0,0,0,,0,-1,0,-1,-1,RJTF 020900Z NIL=
20171102_233000.001,0,RJTF,,,,0,20171102230000,-1,-1,-1,-1,350,-1,6,-1,-1,-1,-1,,9999,0,0,2,FEW 20   SCT -9999,1,15,1,9,1015,RJTF 022330Z 35006KT 9999 FEW020 SCT/// 15/09 Q1015 RMK 1CU020     A3000=
20171103_000000.002,0,RJTF,,,,0,20171103000000,-1,-1,-1,-1,360,-1,7,-1,-1,-1,-1,,9999,0,0,2,FEW 20   SCT 50,1,17,1,9,1015,RJTF 030000Z 36007KT 9999 FEW020 SCT050 17/09 Q1015 RMK 1CU020     3SC050 A2999=
20171103_010000.003,0,RJTF,,,,0,20171103010000,-1,-1,-1,-1,10,-1,8,-1,-1,330,40,CAVOK,-1,0,0,0,,1,19,1,9,1015,RJTF 030100Z 01008KT 330V040 CAVOK 19/09 Q1015 RMK A2998=
20171103_020000.002,0,RJTF,,,,0,20171103020000,-1,-1,-1,-1,30,-1,7,-1,-1,330,90,CAVOK,-1,0,0,0,,1,20,1,9,1014,RJTF 030200Z 03007KT 330V090 CAVOK 20/09 Q1014 RMK A2996=
20171103_030000.002,0,RJTF,,,,0,20171103030000,-1,-1,-1,-1,350,-1,4,-1,-1,270,60,CAVOK,-1,0,0,0,,1,21,1,8,1013,RJTF 030300Z 35004KT 270V060 CAVOK 21/08 Q1013 RMK A2994=
20171103_040000.003,0,RJTF,,,,0,20171103040000,-1,-1,-1,-1,999,-1,4,-1,-1,-1,-1,CAVOK,-1,0,0,0,,1,22,1,7,1012,RJTF 030400Z VRB04KT CAVOK 22/07 Q1012 RMK A2991=
20171103_050000.003,0,RJTF,,,,0,20171103050000,-1,-1,-1,-1,360,-1,3,-1,-1,-1,-1,CAVOK,-1,0,0,0,,1,22,1,5,1012,RJTF 030500Z 36003KT CAVOK 22/05 Q1012 RMK A2989=
20171103_060000.003,0,RJTF,,,,0,20171103060000,-1,-1,-1,-1,999,-1,2,-1,-1,-1,-1,,9999,0,0,2,FEW 30   SCT -9999,1,22,1,5,1012,RJTF 030600Z VRB02KT 9999 FEW030 SCT/// 22/05 Q1012 RMK 1CU030     A2990=
20171103_070000.002,0,RJTF,,,,0,20171103070000,-1,-1,-1,-1,180,-1,4,-1,-1,-1,-1,,9999,0,0,2,FEW 40   BKN -9999,1,21,1,6,1012,RJTF 030700Z 18004KT 9999 FEW040 BKN/// 21/06 Q1012 RMK 1CU040     A2990=
20171103_080000.003,0,RJTF,,,,0,20171103080000,-1,-1,-1,-1,-1,-1,-1,-1,-1,-1,-1,,-1,0,0,0,,0,-1,0,-1,-1,RJTF 030800Z NIL=
20171103_090000.002,0,RJTF,,,,0,20171103090000,-1,-1,-1,-1,-1,-1,-1,-1,-1,-1,-1,,-1,0,0,0,,0,-1,0,-1,-1,RJTF 030900Z NIL=
20171103_233000.001,0,RJTF,,,,0,20171103230000,-1,-1,-1,-1,999,-1,2,-1,-1,-1,-1,,9999,0,0,3,FEW 20   SCT 170   BKN -9999,1,15,1,10,1012,RJTF 032330Z VRB02KT 9999 FEW020 SCT170 BKN/// 15/10 Q1012 RMK     1CU020 3AC170 A2990=
20171104_000000.002,0,RJTF,,,,0,20171104000000,-1,-1,-1,-1,999,-1,2,-1,-1,-1,-1,,9999,0,0,3,FEW 20   SCT 170   BKN -9999,1,17,1,10,1012,RJTF 040000Z VRB02KT 9999 FEW020 SCT170 BKN/// 17/10 Q1012 RMK     1CU020 3AC170 A2990=
20171104_010000.002,0,RJTF,,,,0,20171104010000,-1,-1,-1,-1,999,-1,2,-1,-1,-1,-1,,9999,0,0,2,FEW 30   BKN -9999,1,19,1,10,1012,RJTF 040100Z VRB02KT 9999 FEW030 BKN/// 19/10 Q1012 RMK 1CU030     A2989=
20171104_020000.003,0,RJTF,,,,0,20171104020000,-1,-1,-1,-1,999,-1,3,-1,-1,-1,-1,,9999,0,0,2,FEW 30   SCT -9999,1,20,1,7,1011,RJTF 040200Z VRB03KT 9999 FEW030 SCT/// 20/07 Q1011 RMK 1CU030     A2987=
20171104_030000.003,0,RJTF,,,,0,20171104030000,-1,-1,-1,-1,360,-1,5,-1,-1,280,80,,9999,0,0,2,FEW 30   SCT -9999,1,21,1,6,1010,RJTF 040300Z 36005KT 280V080 9999 FEW030 SCT/// 21/06 Q1010     RMK 1CU030 A2984=
20171104_040000.003,0,RJTF,,,,0,20171104040000,-1,-1,-1,-1,40,-1,4,-1,-1,330,90,,9999,0,0,2,FEW 30   SCT -9999,1,22,1,7,1010,RJTF 040400Z 04004KT 330V090 9999 FEW030 SCT/// 22/07 Q1010     RMK 1CU030 A2982=
20171104_050000.003,0,RJTF,,,,0,20171104050000,-1,-1,-1,-1,10,-1,3,-1,-1,310,70,,9999,0,0,2,FEW 30   SCT 50,1,23,1,8,1010,RJTF 040500Z 01003KT 310V070 9999 FEW030 SCT050 23/08 Q1010     RMK 2CU030 4SC050 A2983=
20171104_060000.002,0,RJTF,,,,0,20171104060000,-1,-1,-1,-1,350,-1,11,-1,-1,-1,-1,,9999,0,0,3,FEW 30   BKN 50   BKN 70,1,19,1,6,1011,RJTF 040600Z 35011KT 9999 FEW030 BKN050 BKN070 19/06 Q1011 RMK     1CU030 5SC050 6AC070 A2986=
20171104_070000.002,0,RJTF,,,,0,20171104070000,-1,-1,-1,-1,360,-1,9,-1,-1,-1,-1,,9999,0,0,3,FEW 30   SCT 60   BKN 80,1,18,1,7,1012,RJTF 040700Z 36009KT 9999 FEW030 SCT060 BKN080 18/07 Q1012 RMK     1CU030 4SC060 5AC080 A2988=
20171104_080000.002,0,RJTF,,,,0,20171104080000,-1,-1,-1,-1,-1,-1,-1,-1,-1,-1,-1,,-1,0,0,0,,0,-1,0,-1,-1,RJTF 040800Z NIL=
20171104_090000.003,0,RJTF,,,,0,20171104090000,-1,-1,-1,-1,-1,-1,-1,-1,-1,-1,-1,,-1,0,0,0,,0,-1,0,-1,-1,RJTF 040900Z NIL=
20171104_233000.001,0,RJTF,,,,0,20171104230000,-1,-1,-1,-1,360,-1,12,-1,-1,-1,-1,,9999,0,0,1,FEW 30,1,14,-1,0,1025,RJTF 042330Z 36012KT 9999 FEW030 14/M00 Q1025 RMK 1CU030     A3028=
20171105_000000.002,0,RJTF,,,,0,20171105000000,-1,-1,-1,-1,360,-1,14,-1,-1,-1,-1,,9999,0,0,1,FEW 30,1,14,-1,1,1025,RJTF 050000Z 36014KT 9999 FEW030 14/M01 Q1025 RMK 1CU030     A3028=
20171105_010000.002,0,RJTF,,,,0,20171105010000,-1,-1,-1,-1,360,-1,12,-1,-1,320,30,,9999,0,0,1,FEW 30,1,15,-1,1,1025,RJTF 050100Z 36012KT 320V030 9999 FEW030 15/M01 Q1025 RMK     1CU030 A3028=
20171105_020000.002,0,RJTF,,,,0,20171105020000,-1,-1,-1,-1,10,-1,11,-1,-1,340,40,,9999,0,0,1,FEW 30,1,16,-1,1,1025,RJTF 050200Z 01011KT 340V040 9999 FEW030 16/M01 Q1025 RMK     1CU030 A3028=
20171105_030000.002,0,RJTF,,,,0,20171105030000,-1,-1,-1,-1,20,-1,8,-1,-1,350,70,,9999,0,0,1,FEW 30,1,17,-1,1,1025,RJTF 050300Z 02008KT 350V070 9999 FEW030 17/M01 Q1025 RMK     1CU030 A3027=
20171105_040000.002,0,RJTF,,,,0,20171105040000,-1,-1,-1,-1,50,-1,5,-1,-1,330,100,,9999,0,0,1,FEW 30,1,17,-1,1,1024,RJTF 050400Z 05005KT 330V100 9999 FEW030 17/M01 Q1024 RMK     1CU030 A3026=
20171105_050000.003,0,RJTF,,,,0,20171105050000,-1,-1,-1,-1,999,-1,2,-1,-1,-1,-1,,9999,0,0,1,FEW 30,1,17,-1,1,1024,RJTF 050500Z VRB02KT 9999 FEW030 17/M01 Q1024 RMK 1CU030     A3026=
20171105_060000.003,0,RJTF,,,,0,20171105060000,-1,-1,-1,-1,999,-1,1,-1,-1,-1,-1,,9999,0,0,1,FEW 30,1,17,-1,1,1025,RJTF 050600Z VRB01KT 9999 FEW030 17/M01 Q1025 RMK 1CU030     A3028=
20171105_070000.003,0,RJTF,,,,0,20171105070000,-1,-1,-1,-1,999,-1,2,-1,-1,-1,-1,,9999,0,0,1,FEW 30,1,16,-1,2,1025,RJTF 050700Z VRB02KT 9999 FEW030 16/M02 Q1025 RMK 1CU030     A3029=
20171105_080000.002,0,RJTF,,,,0,20171105080000,-1,-1,-1,-1,-1,-1,-1,-1,-1,-1,-1,,-1,0,0,0,,0,-1,0,-1,-1,RJTF 050800Z NIL=
20171105_090000.002,0,RJTF,,,,0,20171105090000,-1,-1,-1,-1,-1,-1,-1,-1,-1,-1,-1,,-1,0,0,0,,0,-1,0,-1,-1,RJTF 050900Z NIL=
20171105_233000.001,0,RJTF,,,,0,20171105230000,-1,-1,-1,-1,999,-1,2,-1,-1,-1,-1,,9999,0,0,1,FEW 30,1,11,1,5,1027,RJTF 052330Z VRB02KT 9999 FEW030 11/05 Q1027 RMK 1CU030 A3034=
20171106_000000.002,0,RJTF,,,,0,20171106000000,-1,-1,-1,-1,999,-1,2,-1,-1,-1,-1,,9999,0,0,1,FEW 30,1,12,1,4,1027,RJTF 060000Z VRB02KT 9999 FEW030 12/04 Q1027 RMK 1CU030 A3033=
20171106_010000.002,0,RJTF,,,,0,20171106010000,-1,-1,-1,-1,20,-1,4,-1,-1,360,60,,9999,0,0,1,FEW 30,1,14,1,3,1026,RJTF 060100Z 02004KT 360V060 9999 FEW030 14/03 Q1026 RMK     1CU030 A3032=
20171106_020000.002,0,RJTF,,,,0,20171106020000,-1,-1,-1,-1,999,-1,2,-1,-1,-1,-1,,9999,0,0,1,FEW 30,1,15,1,4,1026,RJTF 060200Z VRB02KT 9999 FEW030 15/04 Q1026 RMK 1CU030 A3030=
20171106_030000.002,0,RJTF,,,,0,20171106030000,-1,-1,-1,-1,999,-1,2,-1,-1,-1,-1,,9999,0,0,1,FEW 30,1,17,1,5,1024,RJTF 060300Z VRB02KT 9999 FEW030 17/05 Q1024 RMK 1CU030 A3026=
20171106_040000.002,0,RJTF,,,,0,20171106040000,-1,-1,-1,-1,999,-1,2,-1,-1,-1,-1,,9999,0,0,1,FEW 30,1,19,1,5,1023,RJTF 060400Z VRB02KT 9999 FEW030 19/05 Q1023 RMK 1CU030 A3023=
20171106_050000.002,0,RJTF,,,,0,20171106050000,-1,-1,-1,-1,999,-1,2,-1,-1,-1,-1,,9999,0,0,1,FEW 30,1,20,1,7,1022,RJTF 060500Z VRB02KT 9999 FEW030 20/07 Q1022 RMK 2CU030 A3020=
20171106_060000.002,0,RJTF,,,,0,20171106060000,-1,-1,-1,-1,200,-1,4,-1,-1,110,270,,9999,0,0,1,FEW 30,1,21,1,9,1022,RJTF 060600Z 20004KT 110V270 9999 FEW030 21/09 Q1022 RMK     2CU030 A3019=
20171106_070000.002,0,RJTF,,,,0,20171106070000,-1,-1,-1,-1,200,-1,4,-1,-1,170,250,,9999,0,0,1,FEW 30,1,20,1,9,1022,RJTF 060700Z 20004KT 170V250 9999 FEW030 20/09 Q1022 RMK     1CU030 A3019=
20171106_080000.002,0,RJTF,,,,0,20171106080000,-1,-1,-1,-1,-1,-1,-1,-1,-1,-1,-1,,-1,0,0,0,,0,-1,0,-1,-1,RJTF 060800Z NIL=
20171106_090000.003,0,RJTF,,,,0,20171106090000,-1,-1,-1,-1,-1,-1,-1,-1,-1,-1,-1,,-1,0,0,0,,0,-1,0,-1,-1,RJTF 060900Z NIL=
20171106_233000.001,0,RJTF,,,,0,20171106230000,-1,-1,-1,-1,10,-1,3,-1,-1,340,50,,8000,0,0,1,FEW 30,1,13,1,8,1024,RJTF 062330Z 01003KT 340V050 8000 FEW030 13/08 Q1024 RMK     1CU030 A3025=
20171107_000000.003,0,RJTF,,,,0,20171107000000,-1,-1,-1,-1,999,-1,2,-1,-1,-1,-1,,8000,0,0,1,FEW 30,1,14,1,8,1024,RJTF 070000Z VRB02KT 8000 FEW030 14/08 Q1024 RMK 1CU030 A3025=
20171107_010000.002,0,RJTF,,,,0,20171107010000,-1,-1,-1,-1,999,-1,2,-1,-1,-1,-1,,9999,0,0,1,FEW 30,1,16,1,7,1024,RJTF 070100Z VRB02KT 9999 FEW030 16/07 Q1024 RMK 1CU030 A3024=
20171107_020000.002,0,RJTF,,,,0,20171107020000,-1,-1,-1,-1,999,-1,2,-1,-1,-1,-1,,9999,0,0,1,FEW 30,1,17,1,7,1023,RJTF 070200Z VRB02KT 9999 FEW030 17/07 Q1023 RMK 1CU030 A3021=
20171107_030000.002,0,RJTF,,,,0,20171107030000,-1,-1,-1,-1,999,-1,3,-1,-1,-1,-1,,9999,0,0,2,FEW 30   SCT -9999,1,19,1,7,1021,RJTF 070300Z VRB03KT 9999 FEW030 SCT/// 19/07 Q1021 RMK 1CU030     A3017=
20171107_040000.002,0,RJTF,,,,0,20171107040000,-1,-1,-1,-1,170,-1,3,-1,-1,90,240,,9999,0,0,2,FEW 30   SCT -9999,1,22,1,8,1020,RJTF 070400Z 17003KT 090V240 9999 FEW030 SCT/// 22/08 Q1020     RMK 1CU030 A3014=
20171107_050000.002,0,RJTF,,,,0,20171107050000,-1,-1,-1,-1,150,-1,3,-1,-1,60,190,,9999,0,0,1,FEW 30,1,23,1,10,1020,RJTF 070500Z 15003KT 060V190 9999 FEW030 23/10 Q1020 RMK     1CU030 A3012=
20171107_060000.002,0,RJTF,,,,0,20171107060000,-1,-1,-1,-1,170,-1,5,-1,-1,120,200,,9999,0,0,1,FEW 30,1,22,1,12,1019,RJTF 070600Z 17005KT 120V200 9999 FEW030 22/12 Q1019 RMK     1CU030 A3011=
20171107_070000.002,0,RJTF,,,,0,20171107070000,-1,-1,-1,-1,170,-1,6,-1,-1,150,220,,9999,0,0,1,FEW 30,1,21,1,12,1019,RJTF 070700Z 17006KT 150V220 9999 FEW030 21/12 Q1019 RMK     1CU030 A3011=
20171107_080000.002,0,RJTF,,,,0,20171107080000,-1,-1,-1,-1,-1,-1,-1,-1,-1,-1,-1,,-1,0,0,0,,0,-1,0,-1,-1,RJTF 070800Z NIL=
20171107_090000.002,0,RJTF,,,,0,20171107090000,-1,-1,-1,-1,-1,-1,-1,-1,-1,-1,-1,,-1,0,0,0,,0,-1,0,-1,-1,RJTF 070900Z NIL=
20171107_233000.001,0,RJTF,,,,0,20171107230000,-1,-1,-1,-1,999,-1,2,-1,-1,-1,-1,,6000,0,0,3,FEW 12   SCT 15   BKN 100,1,14,1,10,1017,RJTF 072330Z VRB02KT 6000 FEW012 SCT015 BKN100 14/10 Q1017 RMK     1CU012 4CU015 7AC100 A3003=
20171108_000000.002,0,RJTF,,,,0,20171108000000,-1,-1,-1,-1,999,-1,2,-1,-1,-1,-1,,6000,0,1,3,FEW 12   SCT 14   BKN 90,1,14,1,11,1016,RJTF 080000Z VRB02KT 6000 -SHRA FEW012 SCT014 BKN090 14/11     Q1016 RMK 1CU012 3CU014 7AC090 A3003=
20171108_010000.002,0,RJTF,,,,0,20171108010000,-1,-1,-1,-1,280,-1,7,-1,-1,190,10,,8000,0,0,3,FEW 13   SCT 70   BKN 110,1,16,1,12,1015,RJTF 080100Z 28007KT 190V010 8000 FEW013 SCT070 BKN110 16/12     Q1015 RMK 1CU013 3AC070 7AC110 A3000=
20171108_020000.002,0,RJTF,,,,0,20171108020000,-1,-1,-1,-1,999,-1,2,-1,-1,-1,-1,,8000,0,0,3,FEW 15   SCT 80   BKN 110,1,15,1,11,1015,RJTF 080200Z VRB02KT 8000 FEW015 SCT080 BKN110 15/11 Q1015 RMK     1CU015 3AC080 7AC110 A2997=
20171108_030000.002,0,RJTF,,,,0,20171108030000,-1,-1,-1,-1,360,-1,3,-1,-1,320,30,,8000,0,1,3,FEW 20   SCT 80   BKN 110,1,15,1,10,1014,RJTF 080300Z 36003KT 320V030 8000 -RA FEW020 SCT080 BKN110     15/10 Q1014 RMK 1CU020 3AC080 7AC110 A2995=
20171108_040000.002,0,RJTF,,,,0,20171108040000,-1,-1,-1,-1,360,-1,6,-1,-1,330,30,,9999,0,0,3,FEW 20   SCT 70   BKN 90,1,15,1,9,1013,RJTF 080400Z 36006KT 330V030 9999 FEW020 SCT070 BKN090 15/09     Q1013 RMK 1CU020 3AC070 6AC090 A2992=
20171108_050000.002,0,RJTF,,,,0,20171108050000,-1,-1,-1,-1,0,-1,0,-1,-1,-1,-1,,9999,0,0,3,FEW 20   BKN 110   BKN 140,1,15,1,10,1012,RJTF 080500Z 00000KT 9999 FEW020 BKN110 BKN140 15/10 Q1012 RMK     1CU020 5AC110 7AC140 A2990=
20171108_060000.003,0,RJTF,,,,0,20171108060000,-1,-1,-1,-1,0,-1,0,-1,-1,-1,-1,,8000,0,0,3,FEW 20   SCT 120   BKN 150,1,15,1,10,1011,RJTF 080600Z 00000KT 8000 FEW020 SCT120 BKN150 15/10 Q1011 RMK     1CU020 4AC120 7AC150 A2988=
20171108_070000.002,0,RJTF,,,,0,20171108070000,-1,-1,-1,-1,999,-1,1,-1,-1,-1,-1,,8000,0,0,3,FEW 20   SCT 140   BKN 160,1,14,1,9,1011,RJTF 080700Z VRB01KT 8000 FEW020 SCT140 BKN160 14/09 Q1011 RMK     1CU020 3AC140 7AC160 A2987=
20171108_080000.002,0,RJTF,,,,0,20171108080000,-1,-1,-1,-1,-1,-1,-1,-1,-1,-1,-1,,-1,0,0,0,,0,-1,0,-1,-1,RJTF 080800Z NIL=
20171108_090000.002,0,RJTF,,,,0,20171108090000,-1,-1,-1,-1,-1,-1,-1,-1,-1,-1,-1,,-1,0,0,0,,0,-1,0,-1,-1,RJTF 080900Z NIL=
20171108_233000.001,0,RJTF,,,,0,20171108230000,-1,-1,-1,-1,360,-1,14,-1,-1,-1,-1,CAVOK,-1,0,0,0,,1,16,1,3,1015,RJTF 082330Z 36014KT CAVOK 16/03 Q1015 RMK A2997=
20171109_000000.003,0,RJTF,,,,0,20171109000000,-1,-1,-1,-1,10,-1,16,-1,-1,-1,-1,,9999,0,0,1,FEW 30,1,16,1,3,1015,RJTF 090000Z 01016KT 9999 FEW030 16/03 Q1015 RMK 1CU030 A2997=
20171109_010000.003,0,RJTF,,,,0,20171109010000,-1,-1,-1,-1,10,-1,12,-1,-1,340,60,,9999,0,0,1,FEW 30,1,17,1,2,1015,RJTF 090100Z 01012KT 340V060 9999 FEW030 17/02 Q1015 RMK     1CU030 A2998=
20171109_020000.002,0,RJTF,,,,0,20171109020000,-1,-1,-1,-1,10,-1,14,-1,24,340,50,,9999,0,0,1,FEW 30,1,18,1,2,1015,RJTF 090200Z 01014G24KT 340V050 9999 FEW030 18/02 Q1015 RMK     1CU030 A2998=
20171109_030000.002,0,RJTF,,,,0,20171109030000,-1,-1,-1,-1,10,-1,16,-1,27,330,40,,9999,0,0,1,FEW 30,1,18,1,1,1015,RJTF 090300Z 01016G27KT 330V040 9999 FEW030 18/01 Q1015 RMK     1CU030 A2997=
20171109_040000.002,0,RJTF,,,,0,20171109040000,-1,-1,-1,-1,10,-1,15,-1,26,340,50,,9999,0,0,1,FEW 30,1,18,-1,1,1015,RJTF 090400Z 01015G26KT 340V050 9999 FEW030 18/M01 Q1015 RMK     1CU030 A2997=
20171109_050000.003,0,RJTF,,,,0,20171109050000,-1,-1,-1,-1,10,-1,17,-1,27,340,40,CAVOK,-1,0,0,0,,1,18,-1,1,1015,RJTF 090500Z 01017G27KT 340V040 CAVOK 18/M01 Q1015 RMK A2998=
20171109_060000.002,0,RJTF,,,,0,20171109060000,-1,-1,-1,-1,10,-1,15,-1,26,-1,-1,,9999,0,0,1,FEW 30,1,17,-1,1,1015,RJTF 090600Z 01015G26KT 9999 FEW030 17/M01 Q1015 RMK 1CU030     A2999=
20171109_070000.002,0,RJTF,,,,0,20171109070000,-1,-1,-1,-1,360,-1,14,-1,-1,330,30,,9999,0,0,1,FEW 30,1,15,-1,2,1016,RJTF 090700Z 36014KT 330V030 9999 FEW030 15/M02 Q1016 RMK     1CU030 A3001=
20171109_080000.002,0,RJTF,,,,0,20171109080000,-1,-1,-1,-1,-1,-1,-1,-1,-1,-1,-1,,-1,0,0,0,,0,-1,0,-1,-1,RJTF 090800Z NIL=
20171109_090000.002,0,RJTF,,,,0,20171109090000,-1,-1,-1,-1,-1,-1,-1,-1,-1,-1,-1,,-1,0,0,0,,0,-1,0,-1,-1,RJTF 090900Z NIL=
20171109_233000.001,0,RJTF,,,,0,20171109230000,-1,-1,-1,-1,20,-1,3,-1,-1,340,110,,9999,0,0,2,FEW 30   SCT 50,1,10,1,2,1024,RJTF 092330Z 02003KT 340V110 9999 FEW030 SCT050 10/02 Q1024     RMK 1CU030 4SC050 A3024=
20171110_000000.002,0,RJTF,,,,0,20171110000000,-1,-1,-1,-1,60,-1,3,-1,-1,10,100,,9999,0,0,2,FEW 30   SCT 50,1,11,1,2,1023,RJTF 100000Z 06003KT 010V100 9999 FEW030 SCT050 11/02 Q1023     RMK 1CU030 3SC050 A3023=
20171110_010000.002,0,RJTF,,,,0,20171110010000,-1,-1,-1,-1,999,-1,2,-1,-1,-1,-1,,9999,0,0,2,FEW 30   SCT 40,1,13,1,0,1022,RJTF 100100Z VRB02KT 9999 FEW030 SCT040 13/00 Q1022 RMK 1CU030     3SC040 A3021=
20171110_020000.002,0,RJTF,,,,0,20171110020000,-1,-1,-1,-1,999,-1,3,-1,-1,-1,-1,,9999,0,0,2,FEW 25   SCT 35,1,15,1,1,1021,RJTF 100200Z VRB03KT 9999 FEW025 SCT035 15/01 Q1021 RMK 1CU025     3SC035 A3017=
20171110_030000.002,0,RJTF,,,,0,20171110030000,-1,-1,-1,-1,999,-1,1,-1,-1,-1,-1,,9999,0,0,2,FEW 25   SCT 35,1,15,1,2,1020,RJTF 100300Z VRB01KT 9999 FEW025 SCT035 15/02 Q1020 RMK 2CU025     4SC035 A3014=
20171110_040000.002,0,RJTF,,,,0,20171110040000,-1,-1,-1,-1,170,-1,5,-1,-1,130,220,,9999,0,0,2,FEW 30   SCT 40,1,17,1,3,1019,RJTF 100400Z 17005KT 130V220 9999 FEW030 SCT040 17/03 Q1019     RMK 2CU030 3SC040 A3010=
20171110_050000.001,0,RJTF,,,,0,20171110050000,-1,-1,-1,-1,200,-1,6,-1,-1,160,240,,9999,0,0,2,FEW 30   SCT 40,1,18,1,6,1018,RJTF 100500Z 20006KT 160V240 9999 FEW030 SCT040 18/06 Q1018     RMK 2CU030 4SC040 A3008=
20171110_060000.002,0,RJTF,,,,0,20171110060000,-1,-1,-1,-1,160,-1,8,-1,-1,130,210,,9999,0,0,2,FEW 30   SCT 40,1,18,1,6,1018,RJTF 100600Z 16008KT 130V210 9999 FEW030 SCT040 18/06 Q1018     RMK 2CU030 3SC040 A3006=
20171110_070000.002,0,RJTF,,,,0,20171110070000,-1,-1,-1,-1,180,-1,5,-1,-1,150,230,,9999,0,0,1,FEW 30,1,17,1,9,1017,RJTF 100700Z 18005KT 150V230 9999 FEW030 17/09 Q1017 RMK     1CU030 A3005=
20171110_080000.002,0,RJTF,,,,0,20171110080000,-1,-1,-1,-1,-1,-1,-1,-1,-1,-1,-1,,-1,0,0,0,,0,-1,0,-1,-1,RJTF 100800Z NIL=
20171110_090000.002,0,RJTF,,,,0,20171110090000,-1,-1,-1,-1,-1,-1,-1,-1,-1,-1,-1,,-1,0,0,0,,0,-1,0,-1,-1,RJTF 100900Z NIL=
20171110_233000.001,0,RJTF,,,,0,20171110230000,-1,-1,-1,-1,360,-1,10,-1,-1,-1,-1,,9999,0,0,1,FEW 20,1,15,1,6,1003,RJTF 102330Z 36010KT 9999 FEW020 15/06 Q1003 RMK 1CU020 A2962=
20171111_000000.003,0,RJTF,,,,0,20171111000000,-1,-1,-1,-1,360,-1,8,-1,-1,-1,-1,,9999,0,0,2,FEW 20   SCT 40,1,16,1,7,1003,RJTF 110000Z 36008KT 9999 FEW020 SCT040 16/07 Q1003 RMK 1CU020     3SC040 A2962=
20171111_010000.003,0,RJTF,,,,0,20171111010000,-1,-1,-1,-1,10,-1,12,-1,-1,340,40,,9999,0,0,2,FEW 20   SCT 30,1,19,1,7,1003,RJTF 110100Z 01012KT 340V040 9999 FEW020 SCT030 19/07 Q1003     RMK 1CU020 4CU030 A2963=
20171111_020000.002,0,RJTF,,,,0,20171111020000,-1,-1,-1,-1,360,-1,8,-1,-1,320,40,,9999,0,0,2,FEW 25   SCT 30,1,20,1,7,1002,RJTF 110200Z 36008KT 320V040 9999 FEW025 SCT030 20/07 Q1002     RMK 1CU025 4CU030 A2961=
20171111_030000.002,0,RJTF,,,,0,20171111030000,-1,-1,-1,-1,360,-1,12,-1,-1,330,30,,9999,0,0,2,FEW 25   BKN 30,1,20,1,7,1002,RJTF 110300Z 36012KT 330V030 9999 FEW025 BKN030 20/07 Q1002     RMK 1CU025 5CU030 A2960=
20171111_040000.002,0,RJTF,,,,0,20171111040000,-1,-1,-1,-1,360,-1,14,-1,-1,-1,-1,,9999,0,0,1,SCT 30,1,19,1,4,1002,RJTF 110400Z 36014KT 9999 SCT030 19/04 Q1002 RMK 3CU030 A2961=
20171111_050000.002,0,RJTF,,,,0,20171111050000,-1,-1,-1,-1,360,-1,13,-1,-1,-1,-1,,9999,0,0,2,FEW 30   BKN 60,1,18,1,3,1003,RJTF 110500Z 36013KT 9999 FEW030 BKN060 18/03 Q1003 RMK 2CU030     5SC060 A2963=
20171111_060000.002,0,RJTF,,,,0,20171111060000,-1,-1,-1,-1,360,-1,12,-1,-1,-1,-1,,9999,0,0,2,FEW 30   BKN 50,1,17,1,2,1004,RJTF 110600Z 36012KT 9999 FEW030 BKN050 17/02 Q1004 RMK 2CU030     6SC050 A2966=
20171111_070000.002,0,RJTF,,,,0,20171111070000,-1,-1,-1,-1,360,-1,14,-1,24,-1,-1,,9999,0,0,2,FEW 30   BKN 50,1,16,1,1,1005,RJTF 110700Z 36014G24KT 9999 FEW030 BKN050 16/01 Q1005 RMK     2CU030 6SC050 A2969=
20171111_080000.002,0,RJTF,,,,0,20171111080000,-1,-1,-1,-1,-1,-1,-1,-1,-1,-1,-1,,-1,0,0,0,,0,-1,0,-1,-1,RJTF 110800Z NIL=
20171111_090000.002,0,RJTF,,,,0,20171111090000,-1,-1,-1,-1,-1,-1,-1,-1,-1,-1,-1,,-1,0,0,0,,0,-1,0,-1,-1,RJTF 110900Z NIL=
20171111_233000.001,0,RJTF,,,,0,20171111230000,-1,-1,-1,-1,350,-1,13,-1,-1,320,20,,9999,0,0,1,FEW 30,1,12,-1,2,1017,RJTF 112330Z 35013KT 320V020 9999 FEW030 12/M02 Q1017 RMK     1CU030 A3004=
20171112_000000.003,0,RJTF,,,,0,20171112000000,-1,-1,-1,-1,360,-1,13,-1,-1,-1,-1,,9999,0,0,1,FEW 30,1,13,-1,1,1017,RJTF 120000Z 36013KT 9999 FEW030 13/M01 Q1017 RMK 1CU030     A3005=
20171112_010000.002,0,RJTF,,,,0,20171112010000,-1,-1,-1,-1,10,-1,16,-1,-1,-1,-1,,9999,0,0,1,FEW 30,1,14,-1,2,1017,RJTF 120100Z 01016KT 9999 FEW030 14/M02 Q1017 RMK 1CU030     A3005=
20171112_020000.003,0,RJTF,,,,0,20171112020000,-1,-1,-1,-1,30,-1,11,-1,-1,350,50,,9999,0,0,1,FEW 30,1,15,-1,2,1017,RJTF 120200Z 03011KT 350V050 9999 FEW030 15/M02 Q1017 RMK     1CU030 A3004=
20171112_030000.002,0,RJTF,,,,0,20171112030000,-1,-1,-1,-1,20,-1,10,-1,-1,340,50,,9999,0,0,2,FEW 30   SCT 80,1,16,-1,2,1016,RJTF 120300Z 02010KT 340V050 9999 FEW030 SCT080 16/M02 Q1016     RMK 1CU030 3AC080 A3003=
20171112_040000.002,0,RJTF,,,,0,20171112040000,-1,-1,-1,-1,40,-1,9,-1,-1,360,60,,9999,0,0,1,FEW 30,1,16,-1,1,1016,RJTF 120400Z 04009KT 360V060 9999 FEW030 16/M01 Q1016 RMK     1CU030 A3003=
20171112_050000.002,0,RJTF,,,,0,20171112050000,-1,-1,-1,-1,50,-1,7,-1,-1,360,100,,9999,0,0,1,FEW 30,1,16,-1,1,1016,RJTF 120500Z 05007KT 360V100 9999 FEW030 16/M01 Q1016 RMK     1CU030 A3003=
20171112_060000.002,0,RJTF,,,,0,20171112060000,-1,-1,-1,-1,30,-1,5,-1,-1,340,60,,9999,0,0,2,FEW 30   SCT 60,1,16,-1,1,1017,RJTF 120600Z 03005KT 340V060 9999 FEW030 SCT060 16/M01 Q1017     RMK 1CU030 3SC060 A3004=
20171112_070000.002,0,RJTF,,,,0,20171112070000,-1,-1,-1,-1,999,-1,1,-1,-1,-1,-1,,9999,0,0,2,FEW 30   SCT 60,1,15,-1,1,1017,RJTF 120700Z VRB01KT 9999 FEW030 SCT060 15/M01 Q1017 RMK     1CU030 4SC060 A3005=
20171112_080000.002,0,RJTF,,,,0,20171112080000,-1,-1,-1,-1,-1,-1,-1,-1,-1,-1,-1,,-1,0,0,0,,0,-1,0,-1,-1,RJTF 120800Z NIL=
20171112_090000.002,0,RJTF,,,,0,20171112090000,-1,-1,-1,-1,-1,-1,-1,-1,-1,-1,-1,,-1,0,0,0,,0,-1,0,-1,-1,RJTF 120900Z NIL=
20171112_233000.001,0,RJTF,,,,0,20171112230000,-1,-1,-1,-1,350,-1,4,-1,-1,-1,-1,,9999,0,0,2,FEW 30   BKN 40,1,9,1,3,1023,RJTF 122330Z 35004KT 9999 FEW030 BKN040 09/03 Q1023 RMK 1CU030     5SC040 A3022=
20171113_000000.002,0,RJTF,,,,0,20171113000000,-1,-1,-1,-1,360,-1,4,-1,-1,320,30,,9999,0,0,2,FEW 30   SCT 45,1,10,1,3,1023,RJTF 130000Z 36004KT 320V030 9999 FEW030 SCT045 10/03 Q1023     RMK 1CU030 4SC045 A3021=
20171113_010000.002,0,RJTF,,,,0,20171113010000,-1,-1,-1,-1,10,-1,4,-1,-1,320,60,,9999,0,0,2,FEW 30   SCT 45,1,12,1,2,1022,RJTF 130100Z 01004KT 320V060 9999 FEW030 SCT045 12/02 Q1022     RMK 1CU030 4SC045 A3021=
20171113_020000.002,0,RJTF,,,,0,20171113020000,-1,-1,-1,-1,10,-1,3,-1,-1,320,80,,9999,0,0,2,FEW 30   BKN 45,1,13,1,2,1021,RJTF 130200Z 01003KT 320V080 9999 FEW030 BKN045 13/02 Q1021     RMK 1CU030 5SC045 A3018=
20171113_030000.002,0,RJTF,,,,0,20171113030000,-1,-1,-1,-1,100,-1,3,-1,-1,40,200,,9999,0,0,2,FEW 30   BKN 40,1,15,1,3,1020,RJTF 130300Z 10003KT 040V200 9999 FEW030 BKN040 15/03 Q1020     RMK 2CU030 6SC040 A3014=
20171113_040000.002,0,RJTF,,,,0,20171113040000,-1,-1,-1,-1,999,-1,2,-1,-1,-1,-1,,9999,0,0,1,FEW 30,1,16,1,4,1019,RJTF 130400Z VRB02KT 9999 FEW030 16/04 Q1019 RMK 1CU030 A3012=
20171113_050000.002,0,RJTF,,,,0,20171113050000,-1,-1,-1,-1,999,-1,3,-1,-1,-1,-1,,9999,0,0,2,FEW 30   SCT -9999,1,17,1,5,1019,RJTF 130500Z VRB03KT 9999 FEW030 SCT/// 17/05 Q1019 RMK 1CU030     A3010=
20171113_060000.002,0,RJTF,,,,0,20171113060000,-1,-1,-1,-1,120,-1,4,-1,-1,60,150,,9999,0,0,3,FEW 30   SCT 180   BKN -9999,1,17,1,7,1018,RJTF 130600Z 12004KT 060V150 9999 FEW030 SCT180 BKN/// 17/07     Q1018 RMK 1CU030 3AC180 A3008=
20171113_070000.002,0,RJTF,,,,0,20171113070000,-1,-1,-1,-1,140,-1,5,-1,-1,90,170,,9999,0,0,3,FEW 20   SCT 35   BKN -9999,1,17,1,7,1018,RJTF 130700Z 14005KT 090V170 9999 FEW020 SCT035 BKN/// 17/07     Q1018 RMK 1CU020 3SC035 A3007=
20171113_080000.002,0,RJTF,,,,0,20171113080000,-1,-1,-1,-1,-1,-1,-1,-1,-1,-1,-1,,-1,0,0,0,,0,-1,0,-1,-1,RJTF 130800Z NIL=
20171113_090000.002,0,RJTF,,,,0,20171113090000,-1,-1,-1,-1,-1,-1,-1,-1,-1,-1,-1,,-1,0,0,0,,0,-1,0,-1,-1,RJTF 130900Z NIL=
20171113_233000.001,0,RJTF,,,,0,20171113230000,-1,-1,-1,-1,340,-1,3,-1,-1,300,40,,8000,0,0,2,FEW 12   BKN 16,1,11,1,8,1015,RJTF 132330Z 34003KT 300V040 8000 FEW012 BKN016 11/08 Q1015     RMK 1CU012 7SC016 A2997=
20171114_000000.002,0,RJTF,,,,0,20171114000000,-1,-1,-1,-1,999,-1,2,-1,-1,-1,-1,,7000,0,0,2,FEW 12   BKN 14,1,12,1,9,1014,RJTF 140000Z VRB02KT 7000 FEW012 BKN014 12/09 Q1014 RMK 1CU012     7SC014 A2996=
20171114_010000.003,0,RJTF,,,,0,20171114010000,-1,-1,-1,-1,320,-1,3,-1,-1,270,10,,9999,0,0,2,FEW 12   BKN 16,1,13,1,7,1013,RJTF 140100Z 32003KT 270V010 9999 FEW012 BKN016 13/07 Q1013     RMK 1CU012 7SC016 A2994=
20171114_020000.002,0,RJTF,,,,0,20171114020000,-1,-1,-1,-1,999,-1,3,-1,-1,-1,-1,,9999,0,0,3,FEW 12   BKN 15   BKN 130,1,15,1,7,1012,RJTF 140200Z VRB03KT 9999 FEW012 BKN015 BKN130 15/07 Q1012 RMK     1CU012 5SC015 7AC130 A2988=
20171114_030000.002,0,RJTF,,,,0,20171114030000,-1,-1,-1,-1,999,-1,1,-1,-1,-1,-1,,9999,0,1,3,FEW 15   BKN 80   BKN 110,1,15,1,9,1011,RJTF 140300Z VRB01KT 9999 -RA FEW015 BKN080 BKN110 15/09 Q1011     RMK 1CU015 5AC080 7AC110 A2986=
20171114_040000.003,0,RJTF,,,,0,20171114040000,-1,-1,-1,-1,20,-1,3,-1,-1,320,60,,9999,0,1,3,FEW 15   BKN 90   BKN 120,1,14,1,10,1010,RJTF 140400Z 02003KT 320V060 9999 -RA FEW015 BKN090 BKN120     14/10 Q1010 RMK 1CU015 5AC090 7AC120 A2984=
20171114_050000.002,0,RJTF,,,,0,20171114050000,-1,-1,-1,-1,999,-1,2,-1,-1,-1,-1,,9999,0,1,3,FEW 15   BKN 80   BKN 120,1,13,1,10,1010,RJTF 140500Z VRB02KT 9999 -RA FEW015 BKN080 BKN120 13/10 Q1010     RMK 1CU015 5AC080 7AC120 A2984=
20171114_060000.002,0,RJTF,,,,0,20171114060000,-1,-1,-1,-1,999,-1,2,-1,-1,-1,-1,,9999,0,1,3,FEW 15   SCT 60   BKN 80,1,13,1,11,1011,RJTF 140600Z VRB02KT 9999 -RA FEW015 SCT060 BKN080 13/11 Q1011     RMK 1CU015 3SC060 6AC080 A2986=
20171114_070000.002,0,RJTF,,,,0,20171114070000,-1,-1,-1,-1,999,-1,1,-1,-1,-1,-1,,7000,0,1,3,FEW 15   SCT 60   OVC 80,1,13,1,11,1011,RJTF 140700Z VRB01KT 7000 -RA FEW015 SCT060 OVC080 13/11 Q1011     RMK 1CU015 3SC060 8AS080 A2986=
20171114_080000.003,0,RJTF,,,,0,20171114080000,-1,-1,-1,-1,-1,-1,-1,-1,-1,-1,-1,,-1,0,0,0,,0,-1,0,-1,-1,RJTF 140800Z NIL=
20171114_090000.002,0,RJTF,,,,0,20171114090000,-1,-1,-1,-1,-1,-1,-1,-1,-1,-1,-1,,-1,0,0,0,,0,-1,0,-1,-1,RJTF 140900Z NIL=
20171114_233000.001,0,RJTF,,,,0,20171114230000,-1,-1,-1,-1,350,-1,4,-1,-1,-1,-1,,9999,0,0,3,FEW 8   SCT 50   BKN -9999,1,10,1,8,1012,RJTF 142330Z 35004KT 9999 FEW008 SCT050 BKN/// 10/08 Q1012 RMK     1ST008 4SC050 A2990=
20171115_000000.003,0,RJTF,,,,0,20171115000000,-1,-1,-1,-1,350,-1,4,-1,-1,300,30,,9999,0,0,3,FEW 30   SCT 50   BKN -9999,1,12,1,9,1012,RJTF 150000Z 35004KT 300V030 9999 FEW030 SCT050 BKN/// 12/09     Q1012 RMK 1CU030 4SC050 A2991=
20171115_010000.002,0,RJTF,,,,0,20171115010000,-1,-1,-1,-1,350,-1,6,-1,-1,320,20,,9999,0,0,3,FEW 30   SCT 50   BKN -9999,1,13,1,8,1012,RJTF 150100Z 35006KT 320V020 9999 FEW030 SCT050 BKN/// 13/08     Q1012 RMK 1CU030 3SC050 A2990=
20171115_020000.002,0,RJTF,,,,0,20171115020000,-1,-1,-1,-1,20,-1,5,-1,-1,340,50,,9999,0,0,3,FEW 40   SCT 50   BKN -9999,1,15,1,9,1011,RJTF 150200Z 02005KT 340V050 9999 FEW040 SCT050 BKN/// 15/09     Q1011 RMK 1CU040 3SC050 A2987=
20171115_030000.002,0,RJTF,,,,0,20171115030000,-1,-1,-1,-1,999,-1,2,-1,-1,-1,-1,,9999,0,0,2,FEW 40   SCT 180,1,15,1,9,1010,RJTF 150300Z VRB02KT 9999 FEW040 SCT180 15/09 Q1010 RMK 2CU040     4AC180 A2984=
20171115_040000.002,0,RJTF,,,,0,20171115040000,-1,-1,-1,-1,999,-1,2,-1,-1,-1,-1,,9999,0,0,2,FEW 25   SCT 60,1,17,1,10,1009,RJTF 150400Z VRB02KT 9999 FEW025 SCT060 17/10 Q1009 RMK 2CU025     4SC060 A2982=
20171115_050000.002,0,RJTF,,,,0,20171115050000,-1,-1,-1,-1,110,-1,4,-1,-1,60,150,,9999,0,0,3,FEW 25   SCT 40   BKN 60,1,17,1,10,1009,RJTF 150500Z 11004KT 060V150 9999 FEW025 SCT040 BKN060 17/10     Q1009 RMK 2CU025 4SC040 6SC060 A2981=
20171115_060000.002,0,RJTF,,,,0,20171115060000,-1,-1,-1,-1,150,-1,6,-1,-1,-1,-1,,9999,0,0,2,FEW 30   BKN 50,1,16,1,10,1009,RJTF 150600Z 15006KT 9999 FEW030 BKN050 16/10 Q1009 RMK 2CU030     6SC050 A2982=
20171115_070000.002,0,RJTF,,,,0,20171115070000,-1,-1,-1,-1,150,-1,6,-1,-1,120,180,,9999,0,0,2,FEW 30   BKN 50,1,16,1,10,1009,RJTF 150700Z 15006KT 120V180 9999 FEW030 BKN050 16/10 Q1009     RMK 1CU030 5SC050 A2982=
20171115_080000.002,0,RJTF,,,,0,20171115080000,-1,-1,-1,-1,-1,-1,-1,-1,-1,-1,-1,,-1,0,0,0,,0,-1,0,-1,-1,RJTF 150800Z NIL=
20171115_090000.002,0,RJTF,,,,0,20171115090000,-1,-1,-1,-1,-1,-1,-1,-1,-1,-1,-1,,-1,0,0,0,,0,-1,0,-1,-1,RJTF 150900Z NIL=
20171115_233000.001,0,RJTF,,,,0,20171115230000,-1,-1,-1,-1,360,-1,5,-1,-1,320,50,,9999,0,0,1,FEW 25,1,11,1,5,1013,RJTF 152330Z 36005KT 320V050 9999 FEW025 11/05 Q1013 RMK     1CU025 A2994=
20171116_000000.002,0,RJTF,,,,0,20171116000000,-1,-1,-1,-1,360,-1,6,-1,-1,310,60,,9999,0,0,1,FEW 30,1,13,1,3,1014,RJTF 160000Z 36006KT 310V060 9999 FEW030 13/03 Q1014 RMK     1CU030 A2995=
20171116_010000.002,0,RJTF,,,,0,20171116010000,-1,-1,-1,-1,350,-1,10,-1,-1,320,20,,9999,0,0,1,FEW 30,1,14,1,2,1013,RJTF 160100Z 35010KT 320V020 9999 FEW030 14/02 Q1013 RMK     1CU030 A2994=
20171116_020000.002,0,RJTF,,,,0,20171116020000,-1,-1,-1,-1,350,-1,9,-1,-1,300,30,,9999,0,0,1,FEW 30,1,15,-1,0,1013,RJTF 160200Z 35009KT 300V030 9999 FEW030 15/M00 Q1013 RMK     1CU030 A2993=
20171116_030000.002,0,RJTF,,,,0,20171116030000,-1,-1,-1,-1,350,-1,7,-1,-1,300,70,,9999,0,0,1,FEW 30,1,16,-1,2,1013,RJTF 160300Z 35007KT 300V070 9999 FEW030 16/M02 Q1013 RMK     2CU030 A2992=
20171116_040000.004,0,RJTF,,,,0,20171116040000,-1,-1,-1,-1,10,-1,9,-1,-1,330,50,,9999,0,0,2,FEW 30   SCT 60,1,16,-1,1,1013,RJTF 160400Z 01009KT 330V050 9999 FEW030 SCT060 16/M01 Q1013     RMK 1CU030 3SC060 A2992=
20171116_050000.002,0,RJTF,,,,0,20171116050000,-1,-1,-1,-1,360,-1,8,-1,-1,-1,-1,,9999,0,0,2,FEW 30   SCT 60,1,14,-1,1,1013,RJTF 160500Z 36008KT 9999 FEW030 SCT060 14/M01 Q1013 RMK     1CU030 4SC060 A2992=
20171116_060000.002,0,RJTF,,,,0,20171116060000,-1,-1,-1,-1,360,-1,5,-1,-1,320,40,,9999,0,0,2,FEW 30   SCT 70,1,14,-1,2,1013,RJTF 160600Z 36005KT 320V040 9999 FEW030 SCT070 14/M02 Q1013     RMK 1CU030 4AC070 A2994=
20171116_070000.002,0,RJTF,,,,0,20171116070000,-1,-1,-1,-1,20,-1,5,-1,-1,-1,-1,,9999,0,0,2,FEW 30   SCT 70,1,13,-1,2,1014,RJTF 160700Z 02005KT 9999 FEW030 SCT070 13/M02 Q1014 RMK     1CU030 4AC070 A2996=
20171116_080000.002,0,RJTF,,,,0,20171116080000,-1,-1,-1,-1,-1,-1,-1,-1,-1,-1,-1,,-1,0,0,0,,0,-1,0,-1,-1,RJTF 160800Z NIL=
20171116_090000.002,0,RJTF,,,,0,20171116090000,-1,-1,-1,-1,-1,-1,-1,-1,-1,-1,-1,,-1,0,0,0,,0,-1,0,-1,-1,RJTF 160900Z NIL=
20171116_233000.001,0,RJTF,,,,0,20171116230000,-1,-1,-1,-1,350,-1,5,-1,-1,-1,-1,,9999,0,0,2,FEW 30   BKN -9999,1,7,1,1,1022,RJTF 162330Z 35005KT 9999 FEW030 BKN/// 07/01 Q1022 RMK 1CU030     A3021=
20171117_000000.003,0,RJTF,,,,0,20171117000000,-1,-1,-1,-1,350,-1,4,-1,-1,290,10,,9999,0,0,2,FEW 30   BKN -9999,1,8,1,1,1022,RJTF 170000Z 35004KT 290V010 9999 FEW030 BKN/// 08/01 Q1022     RMK 1CU030 A3021=
20171117_010000.002,0,RJTF,,,,0,20171117010000,-1,-1,-1,-1,999,-1,2,-1,-1,-1,-1,,9999,0,0,1,FEW 30,1,10,1,0,1022,RJTF 170100Z VRB02KT 9999 FEW030 10/00 Q1022 RMK 1CU030 A3019=
20171117_020000.004,0,RJTF,,,,0,20171117020000,-1,-1,-1,-1,999,-1,3,-1,-1,-1,-1,,9999,0,0,1,FEW 30,1,12,-1,1,1021,RJTF 170200Z VRB03KT 9999 FEW030 12/M01 Q1021 RMK 1CU030     A3016=
20171117_030000.002,0,RJTF,,,,0,20171117030000,-1,-1,-1,-1,999,-1,2,-1,-1,-1,-1,,9999,0,0,1,FEW 30,1,13,-1,1,1020,RJTF 170300Z VRB02KT 9999 FEW030 13/M01 Q1020 RMK 1CU030     A3014=
20171117_040000.002,0,RJTF,,,,0,20171117040000,-1,-1,-1,-1,999,-1,2,-1,-1,-1,-1,,9999,0,0,1,FEW 30,1,14,-1,0,1019,RJTF 170400Z VRB02KT 9999 FEW030 14/M00 Q1019 RMK 1CU030     A3011=
20171117_050000.003,0,RJTF,,,,0,20171117050000,-1,-1,-1,-1,190,-1,4,-1,-1,110,240,,9999,0,0,1,FEW 30,1,14,1,0,1019,RJTF 170500Z 19004KT 110V240 9999 FEW030 14/00 Q1019 RMK     1CU030 A3011=
20171117_060000.003,0,RJTF,,,,0,20171117060000,-1,-1,-1,-1,140,-1,5,-1,-1,100,200,,9999,0,0,1,FEW 30,1,14,1,1,1019,RJTF 170600Z 14005KT 100V200 9999 FEW030 14/01 Q1019 RMK     1CU030 A3011=
20171117_070000.002,0,RJTF,,,,0,20171117070000,-1,-1,-1,-1,150,-1,4,-1,-1,120,180,,9999,0,0,2,FEW 30   BKN -9999,1,12,1,2,1020,RJTF 170700Z 15004KT 120V180 9999 FEW030 BKN/// 12/02 Q1020     RMK 1CU030 A3012=
20171117_080000.003,0,RJTF,,,,0,20171117080000,-1,-1,-1,-1,-1,-1,-1,-1,-1,-1,-1,,-1,0,0,0,,0,-1,0,-1,-1,RJTF 170800Z NIL=
20171117_090000.002,0,RJTF,,,,0,20171117090000,-1,-1,-1,-1,-1,-1,-1,-1,-1,-1,-1,,-1,0,0,0,,0,-1,0,-1,-1,RJTF 170900Z NIL=
20171117_233000.001,0,RJTF,,,,0,20171117230000,-1,-1,-1,-1,999,-1,1,-1,-1,-1,-1,,9999,0,0,3,FEW 25   SCT 40   BKN 100,1,9,1,5,1010,RJTF 172330Z VRB01KT 9999 FEW025 SCT040 BKN100 09/05 Q1010 RMK     1CU025 3SC040 7AC100 A2985 P/FR=
20171118_000000.002,0,RJTF,,,,0,20171118000000,-1,-1,-1,-1,360,-1,3,-1,-1,340,40,,9999,0,0,3,FEW 25   SCT 40   BKN 100,1,9,1,5,1010,RJTF 180000Z 36003KT 340V040 9999 FEW025 SCT040 BKN100 09/05     Q1010 RMK 1CU025 3SC040 6AC100 A2983=
20171118_010000.002,0,RJTF,,,,0,20171118010000,-1,-1,-1,-1,999,-1,2,-1,-1,-1,-1,,9999,0,0,3,FEW 25   BKN 80   BKN 120,1,11,1,5,1009,RJTF 180100Z VRB02KT 9999 FEW025 BKN080 BKN120 11/05 Q1009 RMK     1CU025 6AC080 7AC120 A2980=
20171118_020000.003,0,RJTF,,,,0,20171118020000,-1,-1,-1,-1,999,-1,2,-1,-1,-1,-1,,9999,0,0,3,FEW 30   BKN 80   BKN 120,1,12,1,6,1007,RJTF 180200Z VRB02KT 9999 FEW030 BKN080 BKN120 12/06 Q1007 RMK     1CU030 5AC080 7AC120 A2976=
20171118_030000.002,0,RJTF,,,,0,20171118030000,-1,-1,-1,-1,10,-1,4,-1,-1,330,40,,8000,0,1,3,FEW 30   BKN 60   BKN 100,1,10,1,6,1007,RJTF 180300Z 01004KT 330V040 8000 -RA FEW030 BKN060 BKN100     10/06 Q1007 RMK 2CU030 5SC060 7AC100 A2975=
20171118_040000.002,0,RJTF,,,,0,20171118040000,-1,-1,-1,-1,340,-1,3,-1,-1,290,10,,8000,0,0,3,FEW 30   SCT 60   BKN 100,1,11,1,6,1005,RJTF 180400Z 34003KT 290V010 8000 FEW030 SCT060 BKN100 11/06     Q1005 RMK 1CU030 3SC060 7AC100 A2970=
20171118_050000.002,0,RJTF,,,,0,20171118050000,-1,-1,-1,-1,999,-1,3,-1,-1,-1,-1,,8000,0,1,3,FEW 30   BKN 60   BKN 90,1,12,1,8,1004,RJTF 180500Z VRB03KT 8000 -RA FEW030 BKN060 BKN090 12/08 Q1004     RMK 1CU030 5SC060 7AC090 A2966=
20171118_060000.002,0,RJTF,,,,0,20171118060000,-1,-1,-1,-1,180,-1,5,-1,-1,150,220,,9999,0,1,3,FEW 30   SCT 60   BKN 90,1,13,1,9,1003,RJTF 180600Z 18005KT 150V220 9999 -RA FEW030 SCT060 BKN090     13/09 Q1003 RMK 1CU030 3SC060 7AC090 A2964=
20171118_070000.002,0,RJTF,,,,0,20171118070000,-1,-1,-1,-1,160,-1,7,-1,-1,-1,-1,,9999,0,1,3,FEW 30   SCT 80   BKN 120,1,12,1,9,1001,RJTF 180700Z 16007KT 9999 -RA FEW030 SCT080 BKN120 12/09 Q1001     RMK 1CU030 4AC080 7AC120 A2957 P/FR=
20171118_080000.003,0,RJTF,,,,0,20171118080000,-1,-1,-1,-1,-1,-1,-1,-1,-1,-1,-1,,-1,0,0,0,,0,-1,0,-1,-1,RJTF 180800Z NIL=
20171118_090000.002,0,RJTF,,,,0,20171118090000,-1,-1,-1,-1,-1,-1,-1,-1,-1,-1,-1,,-1,0,0,0,,0,-1,0,-1,-1,RJTF 180900Z NIL=
20171118_233000.001,0,RJTF,,,,0,20171118230000,-1,-1,-1,-1,360,-1,8,-1,-1,320,30,,9999,0,0,2,FEW 30   SCT 60,1,8,-1,4,1011,RJTF 182330Z 36008KT 320V030 9999 FEW030 SCT060 08/M04 Q1011     RMK 1CU030 3SC060 A2987=
20171119_000000.002,0,RJTF,,,,0,20171119000000,-1,-1,-1,-1,360,-1,9,-1,-1,-1,-1,,9999,0,0,2,FEW 30   SCT 60,1,9,-1,4,1011,RJTF 190000Z 36009KT 9999 FEW030 SCT060 09/M04 Q1011 RMK     1CU030 3SC060 A2987=
20171119_010000.003,0,RJTF,,,,0,20171119010000,-1,-1,-1,-1,360,-1,7,-1,-1,330,40,,9999,0,0,2,FEW 30   BKN 60,1,9,-1,4,1011,RJTF 190100Z 36007KT 330V040 9999 FEW030 BKN060 09/M04 Q1011     RMK 1CU030 5SC060 A2987=
20171119_020000.002,0,RJTF,,,,0,20171119020000,-1,-1,-1,-1,30,-1,7,-1,-1,330,70,,9999,0,0,2,FEW 30   SCT 60,1,12,-1,5,1011,RJTF 190200Z 03007KT 330V070 9999 FEW030 SCT060 12/M05 Q1011     RMK 1CU030 4SC060 A2987=
20171119_030000.003,0,RJTF,,,,0,20171119030000,-1,-1,-1,-1,50,-1,5,-1,-1,330,120,,9999,0,0,2,FEW 30   SCT 60,1,13,-1,4,1011,RJTF 190300Z 05005KT 330V120 9999 FEW030 SCT060 13/M04 Q1011     RMK 1CU030 3SC060 A2985=
20171119_040000.002,0,RJTF,,,,0,20171119040000,-1,-1,-1,-1,110,-1,5,-1,-1,60,180,,9999,0,0,2,FEW 30   SCT 50,1,14,-1,3,1010,RJTF 190400Z 11005KT 060V180 9999 FEW030 SCT050 14/M03 Q1010     RMK 1CU030 4SC050 A2984=
20171119_050000.002,0,RJTF,,,,0,20171119050000,-1,-1,-1,-1,130,-1,6,-1,-1,80,180,,9999,0,0,2,FEW 30   SCT 50,1,12,-1,3,1010,RJTF 190500Z 13006KT 080V180 9999 FEW030 SCT050 12/M03 Q1010     RMK 1CU030 3SC050 A2984=
20171119_060000.002,0,RJTF,,,,0,20171119060000,-1,-1,-1,-1,170,-1,8,-1,-1,-1,-1,,9999,0,0,2,FEW 30   SCT 60,1,11,-1,1,1010,RJTF 190600Z 17008KT 9999 FEW030 SCT060 11/M01 Q1010 RMK     1CU030 3SC060 A2985=
20171119_070000.002,0,RJTF,,,,0,20171119070000,-1,-1,-1,-1,170,-1,6,-1,-1,-1,-1,,9999,0,0,1,FEW 30,1,11,-1,1,1011,RJTF 190700Z 17006KT 9999 FEW030 11/M01 Q1011 RMK 1CU030     A2987=
20171119_080000.002,0,RJTF,,,,0,20171119080000,-1,-1,-1,-1,-1,-1,-1,-1,-1,-1,-1,,-1,0,0,0,,0,-1,0,-1,-1,RJTF 190800Z NIL=
20171119_090000.002,0,RJTF,,,,0,20171119090000,-1,-1,-1,-1,-1,-1,-1,-1,-1,-1,-1,,-1,0,0,0,,0,-1,0,-1,-1,RJTF 190900Z NIL=
20171119_233000.001,0,RJTF,,,,0,20171119230000,-1,-1,-1,-1,20,-1,5,-1,-1,-1,-1,,9999,0,0,3,FEW 30   SCT 45   BKN 160,1,5,-1,2,1020,RJTF 192330Z 02005KT 9999 FEW030 SCT045 BKN160 05/M02 Q1020     RMK 1CU030 4SC045 7AC160 A3013=
20171120_000000.002,0,RJTF,,,,0,20171120000000,-1,-1,-1,-1,40,-1,3,-1,-1,10,70,,9999,0,0,3,FEW 30   SCT 45   BKN 120,1,5,-1,2,1020,RJTF 200000Z 04003KT 010V070 9999 FEW030 SCT045 BKN120 05/M02     Q1020 RMK 1CU030 3SC045 7AC120 A3014=
20171120_010000.002,0,RJTF,,,,0,20171120010000,-1,-1,-1,-1,999,-1,2,-1,-1,-1,-1,,9999,0,0,3,FEW 30   SCT 90   BKN 120,1,7,-1,2,1020,RJTF 200100Z VRB02KT 9999 FEW030 SCT090 BKN120 07/M02 Q1020     RMK 1CU030 3AC090 5AC120 A3013=
20171120_020000.003,0,RJTF,,,,0,20171120020000,-1,-1,-1,-1,360,-1,3,-1,-1,320,50,,9999,0,0,3,FEW 30   BKN 90   BKN -9999,1,7,-1,3,1019,RJTF 200200Z 36003KT 320V050 9999 FEW030 BKN090 BKN/// 07/M03     Q1019 RMK 1CU030 5AC090 A3009=
20171120_030000.002,0,RJTF,,,,0,20171120030000,-1,-1,-1,-1,999,-1,1,-1,-1,-1,-1,,9999,0,0,3,FEW 30   BKN 80   BKN -9999,1,7,-1,3,1017,RJTF 200300Z VRB01KT 9999 FEW030 BKN080 BKN/// 07/M03 Q1017     RMK 1CU030 5AC080 A3005=
20171120_040000.002,0,RJTF,,,,0,20171120040000,-1,-1,-1,-1,170,-1,4,-1,-1,130,260,,9999,0,0,2,FEW 30   BKN -9999,1,9,-1,3,1017,RJTF 200400Z 17004KT 130V260 9999 FEW030 BKN/// 09/M03 Q1017     RMK 1CU030 A3004=
20171120_050000.003,0,RJTF,,,,0,20171120050000,-1,-1,-1,-1,150,-1,4,-1,-1,120,200,,9999,0,0,3,FEW 30   SCT 40   BKN 160,1,10,-1,3,1016,RJTF 200500Z 15004KT 120V200 9999 FEW030 SCT040 BKN160 10/M03     Q1016 RMK 1CU030 3SC040 5AC160 A3002=
20171120_060000.002,0,RJTF,,,,0,20171120060000,-1,-1,-1,-1,170,-1,6,-1,-1,120,190,,9999,0,0,3,FEW 30   SCT 50   BKN 160,1,10,-1,2,1016,RJTF 200600Z 17006KT 120V190 9999 FEW030 SCT050 BKN160 10/M02     Q1016 RMK 1CU030 3SC050 6AC160 A3001=
20171120_070000.002,0,RJTF,,,,0,20171120070000,-1,-1,-1,-1,150,-1,4,-1,-1,110,190,,9999,0,0,2,FEW 30   BKN 170,1,10,-1,1,1015,RJTF 200700Z 15004KT 110V190 9999 FEW030 BKN170 10/M01 Q1015     RMK 1CU030 5AC170 A2999=
20171120_080000.002,0,RJTF,,,,0,20171120080000,-1,-1,-1,-1,-1,-1,-1,-1,-1,-1,-1,,-1,0,0,0,,0,-1,0,-1,-1,RJTF 200800Z NIL=
20171120_090000.003,0,RJTF,,,,0,20171120090000,-1,-1,-1,-1,-1,-1,-1,-1,-1,-1,-1,,-1,0,0,0,,0,-1,0,-1,-1,RJTF 200900Z NIL=
20171120_233000.001,0,RJTF,,,,0,20171120230000,-1,-1,-1,-1,50,-1,7,-1,-1,20,90,CAVOK,-1,0,0,0,,1,7,-1,3,1023,RJTF 202330Z 05007KT 020V090 CAVOK 07/M03 Q1023 RMK A3023=
20171121_000000.002,0,RJTF,,,,0,20171121000000,-1,-1,-1,-1,50,-1,7,-1,-1,20,90,CAVOK,-1,0,0,0,,1,8,-1,3,1024,RJTF 210000Z 05007KT 020V090 CAVOK 08/M03 Q1024 RMK A3025=
20171121_010000.002,0,RJTF,,,,0,20171121010000,-1,-1,-1,-1,20,-1,10,-1,-1,-1,-1,CAVOK,-1,0,0,0,,1,10,-1,5,1024,RJTF 210100Z 02010KT CAVOK 10/M05 Q1024 RMK A3025=
20171121_020000.002,0,RJTF,,,,0,20171121020000,-1,-1,-1,-1,20,-1,10,-1,-1,350,50,,9999,0,0,1,FEW 30,1,11,-1,6,1024,RJTF 210200Z 02010KT 350V050 9999 FEW030 11/M06 Q1024 RMK     1CU030 A3024=
20171121_030000.002,0,RJTF,,,,0,20171121030000,-1,-1,-1,-1,20,-1,11,-1,-1,-1,-1,,9999,0,0,1,FEW 30,1,12,-1,6,1023,RJTF 210300Z 02011KT 9999 FEW030 12/M06 Q1023 RMK 1CU030     A3023=
20171121_040000.002,0,RJTF,,,,0,20171121040000,-1,-1,-1,-1,10,-1,9,-1,-1,330,40,CAVOK,-1,0,0,0,,1,12,-1,5,1023,RJTF 210400Z 01009KT 330V040 CAVOK 12/M05 Q1023 RMK A3023=
20171121_050000.002,0,RJTF,,,,0,20171121050000,-1,-1,-1,-1,40,-1,10,-1,-1,330,70,CAVOK,-1,0,0,0,,1,12,-1,4,1023,RJTF 210500Z 04010KT 330V070 CAVOK 12/M04 Q1023 RMK A3021=
20171121_060000.002,0,RJTF,,,,0,20171121060000,-1,-1,-1,-1,360,-1,10,-1,-1,-1,-1,CAVOK,-1,0,0,0,,1,11,-1,5,1023,RJTF 210600Z 36010KT CAVOK 11/M05 Q1023 RMK A3022=
20171121_070000.002,0,RJTF,,,,0,20171121070000,-1,-1,-1,-1,10,-1,5,-1,-1,340,50,,9999,0,0,1,FEW 30,1,10,-1,4,1024,RJTF 210700Z 01005KT 340V050 9999 FEW030 10/M04 Q1024 RMK     1CU030 A3025=
20171121_080000.002,0,RJTF,,,,0,20171121080000,-1,-1,-1,-1,-1,-1,-1,-1,-1,-1,-1,,-1,0,0,0,,0,-1,0,-1,-1,RJTF 210800Z NIL=
20171121_090000.002,0,RJTF,,,,0,20171121090000,-1,-1,-1,-1,-1,-1,-1,-1,-1,-1,-1,,-1,0,0,0,,0,-1,0,-1,-1,RJTF 210900Z NIL=
20171121_233000.001,0,RJTF,,,,0,20171121230000,-1,-1,-1,-1,360,-1,4,-1,-1,340,60,,9999,0,0,2,FEW 20   SCT 50,1,4,-1,1,1026,RJTF 212330Z 36004KT 340V060 9999 FEW020 SCT050 04/M01 Q1026     RMK 1CU020 4SC050 A3030=
20171122_000000.003,0,RJTF,,,,0,20171122000000,-1,-1,-1,-1,10,-1,3,-1,-1,340,50,,9999,0,0,2,FEW 25   SCT 50,1,6,-1,1,1025,RJTF 220000Z 01003KT 340V050 9999 FEW025 SCT050 06/M01 Q1025     RMK 1CU025 4SC050 A3029=
20171122_010000.002,0,RJTF,,,,0,20171122010000,-1,-1,-1,-1,340,-1,5,-1,-1,310,30,,9999,0,0,3,FEW 30   SCT 60   BKN -9999,1,7,-1,2,1024,RJTF 220100Z 34005KT 310V030 9999 FEW030 SCT060 BKN/// 07/M02     Q1024 RMK 1CU030 3SC060 A3026=
20171122_020000.002,0,RJTF,,,,0,20171122020000,-1,-1,-1,-1,360,-1,4,-1,-1,290,60,,9999,0,0,3,FEW 30   SCT 50   BKN -9999,1,9,-1,2,1023,RJTF 220200Z 36004KT 290V060 9999 FEW030 SCT050 BKN/// 09/M02     Q1023 RMK 1CU030 3SC050 A3023=
20171122_030000.002,0,RJTF,,,,0,20171122030000,-1,-1,-1,-1,20,-1,4,-1,-1,330,60,,9999,0,0,3,FEW 30   SCT 60   BKN 190,1,10,-1,1,1021,RJTF 220300Z 02004KT 330V060 9999 FEW030 SCT060 BKN190 10/M01     Q1021 RMK 1CU030 3SC060 7AC190 A3018=
20171122_040000.002,0,RJTF,,,,0,20171122040000,-1,-1,-1,-1,360,-1,3,-1,-1,320,70,,9999,0,0,3,FEW 30   SCT 70   BKN 180,1,10,-1,1,1020,RJTF 220400Z 36003KT 320V070 9999 FEW030 SCT070 BKN180 10/M01     Q1020 RMK 1CU030 3AC070 7AC180 A3014=
20171122_050000.003,0,RJTF,,,,0,20171122050000,-1,-1,-1,-1,999,-1,1,-1,-1,-1,-1,,9999,0,0,3,FEW 30   BKN 60   BKN 180,1,10,1,0,1020,RJTF 220500Z VRB01KT 9999 FEW030 BKN060 BKN180 10/00 Q1020 RMK     1CU030 5SC060 7AC180 A3012=
20171122_060000.002,0,RJTF,,,,0,20171122060000,-1,-1,-1,-1,999,-1,2,-1,-1,-1,-1,,9999,0,0,3,FEW 30   BKN 50   BKN 170,1,11,1,1,1019,RJTF 220600Z VRB02KT 9999 FEW030 BKN050 BKN170 11/01 Q1019 RMK     1CU030 5SC050 6AC170 A3011=
20171122_070000.003,0,RJTF,,,,0,20171122070000,-1,-1,-1,-1,350,-1,3,-1,-1,-1,-1,,9999,0,0,3,FEW 30   BKN 60   BKN 160,1,10,1,1,1019,RJTF 220700Z 35003KT 9999 FEW030 BKN060 BKN160 10/01 Q1019 RMK     2CU030 6SC060 7AC160 A3010=
20171122_080000.002,0,RJTF,,,,0,20171122080000,-1,-1,-1,-1,-1,-1,-1,-1,-1,-1,-1,,-1,0,0,0,,0,-1,0,-1,-1,RJTF 220800Z NIL=
20171122_090000.002,0,RJTF,,,,0,20171122090000,-1,-1,-1,-1,-1,-1,-1,-1,-1,-1,-1,,-1,0,0,0,,0,-1,0,-1,-1,RJTF 220900Z NIL=
20171122_233000.001,0,RJTF,,,,0,20171122230000,-1,-1,-1,-1,360,-1,3,-1,-1,-1,-1,,2500,0,2,3,FEW 8   BKN 20   BKN 60,1,6,1,6,1005,RJTF 222330Z 36003KT 2500 SHRA BR FEW008 BKN020 BKN060 06/06     Q1005 RMK 1ST008 5CU020 7SC060 A2970=
20171123_000000.003,0,RJTF,,,,0,20171123000000,-1,-1,-1,-1,999,-1,2,-1,-1,-1,-1,,2000,0,2,3,FEW 4   SCT 10   BKN 20,1,7,1,6,1005,RJTF 230000Z VRB02KT 2000 SHRA BR FEW004 SCT010 BKN020 07/06     Q1005 RMK 2ST004 4ST010 6CU020 A2970=
20171123_010000.002,0,RJTF,,,,0,20171123010000,-1,-1,-1,-1,50,-1,4,-1,-1,10,90,,2500,0,2,3,FEW 4   SCT 10   BKN 20,1,7,1,6,1003,RJTF 230100Z 05004KT 010V090 2500 SHRA BR FEW004 SCT010 BKN020     07/06 Q1003 RMK 1ST004 3ST010 5CU020 A2964 P/FR=
20171123_020000.002,0,RJTF,,,,0,20171123020000,-1,-1,-1,-1,360,-1,7,-1,-1,310,50,,3000,0,2,3,FEW 3   BKN 6   BKN 20,1,8,1,8,1002,RJTF 230200Z 36007KT 310V050 3000 -SHRA BR FEW003 BKN006     BKN020 08/08 Q1002 RMK 2ST003 6ST006 6CU020 A2959=
20171123_030000.003,0,RJTF,,,,0,20171123030000,-1,-1,-1,-1,360,-1,7,-1,-1,320,30,,9999,0,0,3,SCT 7   BKN 10   BKN 120,1,11,1,9,1000,RJTF 230300Z 36007KT 320V030 9999 SCT007 BKN010 BKN120 11/09     Q1000 RMK 3ST007 5ST010 6AC120 A2954=
20171123_040000.002,0,RJTF,,,,0,20171123040000,-1,-1,-1,-1,350,-1,9,-1,-1,-1,-1,,9999,0,0,1,FEW 10,1,14,1,10,999,RJTF 230400Z 35009KT 9999 FEW010 14/10 Q0999 RMK 1ST010 A2952=
20171123_050000.003,0,RJTF,,,,0,20171123050000,-1,-1,-1,-1,360,-1,13,-1,23,-1,-1,,9999,0,0,1,FEW 20,1,16,1,8,999,RJTF 230500Z 36013G23KT 9999 FEW020 16/08 Q0999 RMK 1CU020     A2952=
20171123_060000.003,0,RJTF,,,,0,20171123060000,-1,-1,-1,-1,10,-1,8,-1,-1,-1,-1,,9999,0,0,2,FEW 20   BKN -9999,1,16,1,6,1001,RJTF 230600Z 01008KT 9999 FEW020 BKN/// 16/06 Q1001 RMK 1CU020     A2956=
20171123_070000.002,0,RJTF,,,,0,20171123070000,-1,-1,-1,-1,360,-1,8,-1,-1,330,30,,9999,0,0,2,FEW 20   SCT 50,1,14,1,4,1002,RJTF 230700Z 36008KT 330V030 9999 FEW020 SCT050 14/04 Q1002     RMK 1CU020 4SC050 A2961=
20171123_080000.003,0,RJTF,,,,0,20171123080000,-1,-1,-1,-1,-1,-1,-1,-1,-1,-1,-1,,-1,0,0,0,,0,-1,0,-1,-1,RJTF 230800Z NIL=
20171123_090000.002,0,RJTF,,,,0,20171123090000,-1,-1,-1,-1,-1,-1,-1,-1,-1,-1,-1,,-1,0,0,0,,0,-1,0,-1,-1,RJTF 230900Z NIL=
20171123_233000.001,0,RJTF,,,,0,20171123230000,-1,-1,-1,-1,0,-1,0,-1,-1,-1,-1,,9999,0,0,1,FEW 30,1,6,1,3,1014,RJTF 232330Z 00000KT 9999 FEW030 06/03 Q1014 RMK 2CU030 A2995=
20171124_000000.003,0,RJTF,,,,0,20171124000000,-1,-1,-1,-1,350,-1,3,-1,-1,270,30,,9999,0,0,1,FEW 30,1,9,1,2,1014,RJTF 240000Z 35003KT 270V030 9999 FEW030 09/02 Q1014 RMK     1CU030 A2995=
20171124_010000.002,0,RJTF,,,,0,20171124010000,-1,-1,-1,-1,999,-1,2,-1,-1,-1,-1,,9999,0,0,1,FEW 30,1,11,-1,0,1014,RJTF 240100Z VRB02KT 9999 FEW030 11/M00 Q1014 RMK 1CU030     A2995=
20171124_020000.002,0,RJTF,,,,0,20171124020000,-1,-1,-1,-1,250,-1,4,-1,-1,200,300,,9999,0,0,1,FEW 30,1,14,1,3,1013,RJTF 240200Z 25004KT 200V300 9999 FEW030 14/03 Q1013 RMK     1CU030 A2993=
20171124_030000.003,0,RJTF,,,,0,20171124030000,-1,-1,-1,-1,999,-1,3,-1,-1,-1,-1,,9999,0,0,1,FEW 30,1,14,-1,0,1012,RJTF 240300Z VRB03KT 9999 FEW030 14/M00 Q1012 RMK 2CU030     A2991=
20171124_040000.002,0,RJTF,,,,0,20171124040000,-1,-1,-1,-1,999,-1,2,-1,-1,-1,-1,,9999,0,0,1,SCT 30,1,14,1,0,1012,RJTF 240400Z VRB02KT 9999 SCT030 14/00 Q1012 RMK 3CU030 A2990=
20171124_050000.002,0,RJTF,,,,0,20171124050000,-1,-1,-1,-1,170,-1,3,-1,-1,130,230,,9999,0,0,2,FEW 20   SCT 30,1,15,-1,1,1012,RJTF 240500Z 17003KT 130V230 9999 FEW020 SCT030 15/M01 Q1012     RMK 1CU020 4CU030 A2990=
20171124_060000.002,0,RJTF,,,,0,20171124060000,-1,-1,-1,-1,20,-1,9,-1,-1,-1,-1,,9999,0,0,2,FEW 20   SCT 30,1,13,-1,4,1013,RJTF 240600Z 02009KT 9999 FEW020 SCT030 13/M04 Q1013 RMK     1CU020 3CU030 A2993 VIRGA 10KM SW MOV E=
20171124_070000.003,0,RJTF,,,,0,20171124070000,-1,-1,-1,-1,10,-1,6,-1,-1,-1,-1,,9999,0,0,2,FEW 20   SCT 30,1,11,-1,3,1014,RJTF 240700Z 01006KT 9999 FEW020 SCT030 11/M03 Q1014 RMK     1CU020 3CU030 A2996 VIRGA 10KM SW MOV E=
20171124_080000.002,0,RJTF,,,,0,20171124080000,-1,-1,-1,-1,-1,-1,-1,-1,-1,-1,-1,,-1,0,0,0,,0,-1,0,-1,-1,RJTF 240800Z NIL=
20171124_090000.002,0,RJTF,,,,0,20171124090000,-1,-1,-1,-1,-1,-1,-1,-1,-1,-1,-1,,-1,0,0,0,,0,-1,0,-1,-1,RJTF 240900Z NIL=
20171124_233000.001,0,RJTF,,,,0,20171124230000,-1,-1,-1,-1,999,-1,1,-1,-1,-1,-1,,9999,0,0,1,FEW 30,1,6,1,0,1022,RJTF 242330Z VRB01KT 9999 FEW030 06/00 Q1022 RMK 1CU030 A3020=
20171125_000000.003,0,RJTF,,,,0,20171125000000,-1,-1,-1,-1,999,-1,1,-1,-1,-1,-1,,9999,0,0,1,FEW 30,1,8,1,1,1023,RJTF 250000Z VRB01KT 9999 FEW030 08/01 Q1023 RMK 1CU030 A3021=
20171125_010000.002,0,RJTF,,,,0,20171125010000,-1,-1,-1,-1,70,-1,3,-1,-1,350,120,,9999,0,0,1,FEW 30,1,12,-1,1,1023,RJTF 250100Z 07003KT 350V120 9999 FEW030 12/M01 Q1023 RMK     1CU030 A3021=
20171125_020000.003,0,RJTF,,,,0,20171125020000,-1,-1,-1,-1,60,-1,3,-1,-1,360,180,,9999,0,0,1,FEW 30,1,14,-1,2,1022,RJTF 250200Z 06003KT 360V180 9999 FEW030 14/M02 Q1022 RMK     1CU030 A3020=
20171125_030000.002,0,RJTF,,,,0,20171125030000,-1,-1,-1,-1,999,-1,3,-1,-1,-1,-1,,9999,0,0,1,FEW 30,1,14,-1,3,1022,RJTF 250300Z VRB03KT 9999 FEW030 14/M03 Q1022 RMK 1CU030     A3018=
20171125_040000.003,0,RJTF,,,,0,20171125040000,-1,-1,-1,-1,100,-1,4,-1,-1,60,140,,9999,0,0,1,FEW 30,1,15,-1,3,1022,RJTF 250400Z 10004KT 060V140 9999 FEW030 15/M03 Q1022 RMK     1CU030 A3018=
20171125_050000.002,0,RJTF,,,,0,20171125050000,-1,-1,-1,-1,110,-1,5,-1,-1,40,180,,9999,0,0,2,FEW 30   SCT -9999,1,15,-1,3,1022,RJTF 250500Z 11005KT 040V180 9999 FEW030 SCT/// 15/M03 Q1022     RMK 1CU030 A3018=
20171125_060000.002,0,RJTF,,,,0,20171125060000,-1,-1,-1,-1,999,-1,1,-1,-1,-1,-1,,9999,0,0,2,FEW 30   BKN -9999,1,15,-1,2,1022,RJTF 250600Z VRB01KT 9999 FEW030 BKN/// 15/M02 Q1022 RMK     1CU030 A3020=
20171125_070000.002,0,RJTF,,,,0,20171125070000,-1,-1,-1,-1,130,-1,3,-1,-1,80,160,,9999,0,0,2,FEW 30   BKN -9999,1,13,-1,2,1023,RJTF 250700Z 13003KT 080V160 9999 FEW030 BKN/// 13/M02 Q1023     RMK 1CU030 A3022=
20171125_080000.002,0,RJTF,,,,0,20171125080000,-1,-1,-1,-1,-1,-1,-1,-1,-1,-1,-1,,-1,0,0,0,,0,-1,0,-1,-1,RJTF 250800Z NIL=
20171125_090000.002,0,RJTF,,,,0,20171125090000,-1,-1,-1,-1,-1,-1,-1,-1,-1,-1,-1,,-1,0,0,0,,0,-1,0,-1,-1,RJTF 250900Z NIL=
20171125_233000.001,0,RJTF,,,,0,20171125230000,-1,-1,-1,-1,999,-1,2,-1,-1,-1,-1,CAVOK,-1,0,0,0,,1,6,1,2,1023,RJTF 252330Z VRB02KT CAVOK 06/02 Q1023 RMK A3023=
20171126_000000.003,0,RJTF,,,,0,20171126000000,-1,-1,-1,-1,320,-1,3,-1,-1,280,10,CAVOK,-1,0,0,0,,1,7,1,2,1023,RJTF 260000Z 32003KT 280V010 CAVOK 07/02 Q1023 RMK A3021=
20171126_010000.002,0,RJTF,,,,0,20171126010000,-1,-1,-1,-1,999,-1,2,-1,-1,-1,-1,CAVOK,-1,0,0,0,,1,10,1,1,1022,RJTF 260100Z VRB02KT CAVOK 10/01 Q1022 RMK A3019=
20171126_020000.003,0,RJTF,,,,0,20171126020000,-1,-1,-1,-1,999,-1,2,-1,-1,-1,-1,CAVOK,-1,0,0,0,,1,14,1,1,1020,RJTF 260200Z VRB02KT CAVOK 14/01 Q1020 RMK A3014=
20171126_030000.002,0,RJTF,,,,0,20171126030000,-1,-1,-1,-1,350,-1,5,-1,-1,320,30,,9999,0,0,2,FEW 30   SCT -9999,1,14,1,1,1019,RJTF 260300Z 35005KT 320V030 9999 FEW030 SCT/// 14/01 Q1019     RMK 1CU030 A3009=
20171126_040000.003,0,RJTF,,,,0,20171126040000,-1,-1,-1,-1,210,-1,10,-1,-1,180,240,,9999,0,0,2,FEW 30   SCT -9999,1,17,-1,3,1017,RJTF 260400Z 21010KT 180V240 9999 FEW030 SCT/// 17/M03 Q1017     RMK 1CU030 A3004=
20171126_050000.003,0,RJTF,,,,0,20171126050000,-1,-1,-1,-1,210,-1,13,-1,24,170,230,,9999,0,0,2,FEW 30   SCT -9999,1,18,-1,1,1017,RJTF 260500Z 21013G24KT 170V230 9999 FEW030 SCT/// 18/M01     Q1017 RMK 1CU030 A3003=
20171126_060000.002,0,RJTF,,,,0,20171126060000,-1,-1,-1,-1,220,-1,14,-1,25,-1,-1,,9999,0,0,2,FEW 30   SCT -9999,1,17,1,3,1017,RJTF 260600Z 22014G25KT 9999 FEW030 SCT/// 17/03 Q1017 RMK     1CU030 A3003=
20171126_070000.003,0,RJTF,,,,0,20171126070000,-1,-1,-1,-1,220,-1,11,-1,-1,180,250,,9999,0,0,2,FEW 30   BKN -9999,1,16,1,4,1016,RJTF 260700Z 22011KT 180V250 9999 FEW030 BKN/// 16/04 Q1016     RMK 1CU030 A3003=
20171126_080000.002,0,RJTF,,,,0,20171126080000,-1,-1,-1,-1,-1,-1,-1,-1,-1,-1,-1,,-1,0,0,0,,0,-1,0,-1,-1,RJTF 260800Z NIL=
20171126_090000.002,0,RJTF,,,,0,20171126090000,-1,-1,-1,-1,-1,-1,-1,-1,-1,-1,-1,,-1,0,0,0,,0,-1,0,-1,-1,RJTF 260900Z NIL=
20171126_233000.001,0,RJTF,,,,0,20171126230000,-1,-1,-1,-1,350,-1,5,-1,-1,300,20,CAVOK,-1,0,0,0,,1,11,1,3,1027,RJTF 262330Z 35005KT 300V020 CAVOK 11/03 Q1027 RMK A3033=
20171127_000000.002,0,RJTF,,,,0,20171127000000,-1,-1,-1,-1,30,-1,6,-1,-1,350,80,CAVOK,-1,0,0,0,,1,12,1,2,1027,RJTF 270000Z 03006KT 350V080 CAVOK 12/02 Q1027 RMK A3034=
20171127_010000.002,0,RJTF,,,,0,20171127010000,-1,-1,-1,-1,40,-1,4,-1,-1,310,110,CAVOK,-1,0,0,0,,1,12,1,2,1027,RJTF 270100Z 04004KT 310V110 CAVOK 12/02 Q1027 RMK A3035=
20171127_020000.002,0,RJTF,,,,0,20171127020000,-1,-1,-1,-1,999,-1,4,-1,-1,-1,-1,,9999,0,0,2,FEW 30   SCT -9999,1,14,1,2,1027,RJTF 270200Z VRB04KT 9999 FEW030 SCT/// 14/02 Q1027 RMK 1CU030     A3034=
20171127_030000.002,0,RJTF,,,,0,20171127030000,-1,-1,-1,-1,140,-1,5,-1,-1,80,190,,9999,0,0,2,FEW 30   SCT 50,1,15,1,2,1026,RJTF 270300Z 14005KT 080V190 9999 FEW030 SCT050 15/02 Q1026     RMK 1CU030 4SC050 A3031=
20171127_040000.002,0,RJTF,,,,0,20171127040000,-1,-1,-1,-1,80,-1,5,-1,-1,40,130,,9999,0,0,3,FEW 30   SCT 40   BKN 60,1,14,1,3,1026,RJTF 270400Z 08005KT 040V130 9999 FEW030 SCT040 BKN060 14/03     Q1026 RMK 1CU030 3SC040 5SC060 A3030=
20171127_050000.002,0,RJTF,,,,0,20171127050000,-1,-1,-1,-1,90,-1,4,-1,-1,40,130,,9999,0,0,3,FEW 30   SCT 40   BKN 60,1,14,1,4,1026,RJTF 270500Z 09004KT 040V130 9999 FEW030 SCT040 BKN060 14/04     Q1026 RMK 1CU030 3SC040 6SC060 A3031=
20171127_060000.002,0,RJTF,,,,0,20171127060000,-1,-1,-1,-1,80,-1,7,-1,-1,-1,-1,,9999,0,0,3,FEW 30   BKN 40   BKN 50,1,13,1,5,1026,RJTF 270600Z 08007KT 9999 FEW030 BKN040 BKN050 13/05 Q1026 RMK     1CU030 5SC040 7SC050 A3031=
20171127_070000.002,0,RJTF,,,,0,20171127070000,-1,-1,-1,-1,80,-1,6,-1,-1,50,120,,9999,0,0,3,FEW 25   BKN 35   BKN 50,1,12,1,5,1027,RJTF 270700Z 08006KT 050V120 9999 FEW025 BKN035 BKN050 12/05     Q1027 RMK 1CU025 5SC035 7SC050 A3034=
20171127_080000.002,0,RJTF,,,,0,20171127080000,-1,-1,-1,-1,-1,-1,-1,-1,-1,-1,-1,,-1,0,0,0,,0,-1,0,-1,-1,RJTF 270800Z NIL=
20171127_090000.003,0,RJTF,,,,0,20171127090000,-1,-1,-1,-1,-1,-1,-1,-1,-1,-1,-1,,-1,0,0,0,,0,-1,0,-1,-1,RJTF 270900Z NIL=
20171127_233000.001,0,RJTF,,,,0,20171127230000,-1,-1,-1,-1,350,-1,4,-1,-1,300,10,,9999,0,0,3,FEW 15   BKN 20   BKN 30,1,11,1,6,1027,RJTF 272330Z 35004KT 300V010 9999 FEW015 BKN020 BKN030 11/06     Q1027 RMK 1CU015 5SC020 7SC030 A3033=
20171128_000000.002,0,RJTF,,,,0,20171128000000,-1,-1,-1,-1,360,-1,3,-1,-1,-1,-1,,9999,0,0,3,FEW 15   BKN 20   BKN 30,1,11,1,6,1027,RJTF 280000Z 36003KT 9999 FEW015 BKN020 BKN030 11/06 Q1027 RMK     1CU015 6SC020 7SC030 A3033=
20171128_010000.002,0,RJTF,,,,0,20171128010000,-1,-1,-1,-1,10,-1,5,-1,-1,330,60,,9999,0,0,3,FEW 15   BKN 20   BKN 30,1,12,1,6,1026,RJTF 280100Z 01005KT 330V060 9999 FEW015 BKN020 BKN030 12/06     Q1026 RMK 1CU015 5SC020 7SC030 A3031=
20171128_020000.002,0,RJTF,,,,0,20171128020000,-1,-1,-1,-1,360,-1,5,-1,-1,330,30,,9999,0,0,3,FEW 15   BKN 20   BKN 30,1,13,1,6,1026,RJTF 280200Z 36005KT 330V030 9999 FEW015 BKN020 BKN030 13/06     Q1026 RMK 1CU015 5SC020 7SC030 A3030=
20171128_030000.002,0,RJTF,,,,0,20171128030000,-1,-1,-1,-1,340,-1,6,-1,-1,290,10,,9999,0,0,3,FEW 20   SCT 25   BKN 35,1,13,1,7,1025,RJTF 280300Z 34006KT 290V010 9999 FEW020 SCT025 BKN035 13/07     Q1025 RMK 1CU020 4SC025 6SC035 A3028=
20171128_040000.002,0,RJTF,,,,0,20171128040000,-1,-1,-1,-1,20,-1,6,-1,-1,340,60,,9999,0,0,2,FEW 30   SCT 50,1,15,1,7,1024,RJTF 280400Z 02006KT 340V060 9999 FEW030 SCT050 15/07 Q1024     RMK 1CU030 3SC050 A3025=
20171128_050000.003,0,RJTF,,,,0,20171128050000,-1,-1,-1,-1,40,-1,4,-1,-1,340,130,,9999,0,0,2,FEW 25   SCT 50,1,15,1,6,1023,RJTF 280500Z 04004KT 340V130 9999 FEW025 SCT050 15/06 Q1023     RMK 1CU025 3SC050 A3023=
20171128_060000.002,0,RJTF,,,,0,20171128060000,-1,-1,-1,-1,20,-1,4,-1,-1,340,90,,9999,0,0,2,FEW 25   SCT 40,1,15,1,8,1023,RJTF 280600Z 02004KT 340V090 9999 FEW025 SCT040 15/08 Q1023     RMK 2CU025 4SC040 A3023=
20171128_070000.003,0,RJTF,,,,0,20171128070000,-1,-1,-1,-1,360,-1,5,-1,-1,-1,-1,,9999,0,0,2,FEW 20   BKN 25,1,14,1,7,1024,RJTF 280700Z 36005KT 9999 FEW020 BKN025 14/07 Q1024 RMK 2CU020     6SC025 A3024=
20171128_080000.003,0,RJTF,,,,0,20171128080000,-1,-1,-1,-1,-1,-1,-1,-1,-1,-1,-1,,-1,0,0,0,,0,-1,0,-1,-1,RJTF 280800Z NIL=
20171128_090000.003,0,RJTF,,,,0,20171128090000,-1,-1,-1,-1,-1,-1,-1,-1,-1,-1,-1,,-1,0,0,0,,0,-1,0,-1,-1,RJTF 280900Z NIL=
20171128_233000.001,0,RJTF,,,,0,20171128230000,-1,-1,-1,-1,999,-1,1,-1,-1,-1,-1,,9999,0,0,1,FEW 30,1,9,1,7,1018,RJTF 282330Z VRB01KT 9999 FEW030 09/07 Q1018 RMK 1CU030 A3007=
20171129_000000.002,0,RJTF,,,,0,20171129000000,-1,-1,-1,-1,999,-1,1,-1,-1,-1,-1,,9999,0,0,1,FEW 30,1,10,1,7,1017,RJTF 290000Z VRB01KT 9999 FEW030 10/07 Q1017 RMK 1CU030 A3006=
20171129_010000.002,0,RJTF,,,,0,20171129010000,-1,-1,-1,-1,999,-1,1,-1,-1,-1,-1,,9999,0,0,1,FEW 30,1,13,1,7,1017,RJTF 290100Z VRB01KT 9999 FEW030 13/07 Q1017 RMK 1CU030 A3003=
20171129_020000.002,0,RJTF,,,,0,20171129020000,-1,-1,-1,-1,999,-1,2,-1,-1,-1,-1,,9999,0,0,1,FEW 30,1,15,1,7,1015,RJTF 290200Z VRB02KT 9999 FEW030 15/07 Q1015 RMK 1CU030 A3000=
20171129_030000.002,0,RJTF,,,,0,20171129030000,-1,-1,-1,-1,999,-1,3,-1,-1,-1,-1,,9999,0,0,2,FEW 30   BKN 100,1,18,1,7,1014,RJTF 290300Z VRB03KT 9999 FEW030 BKN100 18/07 Q1014 RMK 1CU030     5AC100 A2996=
20171129_040000.002,0,RJTF,,,,0,20171129040000,-1,-1,-1,-1,999,-1,3,-1,-1,-1,-1,,9999,0,0,2,FEW 30   SCT 100,1,20,1,6,1013,RJTF 290400Z VRB03KT 9999 FEW030 SCT100 20/06 Q1013 RMK 1CU030     4AC100 A2991=
20171129_050000.003,0,RJTF,,,,0,20171129050000,-1,-1,-1,-1,999,-1,3,-1,-1,-1,-1,,9999,0,0,1,FEW 30,1,20,1,5,1012,RJTF 290500Z VRB03KT 9999 FEW030 20/05 Q1012 RMK 1CU030 A2990=
20171129_060000.002,0,RJTF,,,,0,20171129060000,-1,-1,-1,-1,999,-1,2,-1,-1,-1,-1,,9999,0,0,1,FEW 30,1,20,1,6,1012,RJTF 290600Z VRB02KT 9999 FEW030 20/06 Q1012 RMK 1CU030 A2990=
20171129_070000.003,0,RJTF,,,,0,20171129070000,-1,-1,-1,-1,300,-1,2,-1,-1,-1,-1,,9999,0,0,1,FEW 30,1,18,1,7,1013,RJTF 290700Z 30002KT 9999 FEW030 18/07 Q1013 RMK 1CU030 A2992=
20171129_080000.003,0,RJTF,,,,0,20171129080000,-1,-1,-1,-1,-1,-1,-1,-1,-1,-1,-1,,-1,0,0,0,,0,-1,0,-1,-1,RJTF 290800Z NIL=
20171129_090000.002,0,RJTF,,,,0,20171129090000,-1,-1,-1,-1,-1,-1,-1,-1,-1,-1,-1,,-1,0,0,0,,0,-1,0,-1,-1,RJTF 290900Z NIL=
20171129_233000.001,0,RJTF,,,,0,20171129230000,-1,-1,-1,-1,360,-1,5,-1,-1,330,40,,9999,0,0,2,FEW 30   BKN 40,1,12,1,4,1015,RJTF 292330Z 36005KT 330V040 9999 FEW030 BKN040 12/04 Q1015     RMK 2CU030 7SC040 A2998=
20171130_000000.002,0,RJTF,,,,0,20171130000000,-1,-1,-1,-1,20,-1,4,-1,-1,330,60,,9999,0,0,2,SCT 30   BKN 40,1,12,1,5,1015,RJTF 300000Z 02004KT 330V060 9999 SCT030 BKN040 12/05 Q1015     RMK 3CU030 7SC040 A3000=
20171130_010000.004,0,RJTF,,,,0,20171130010000,-1,-1,-1,-1,20,-1,6,-1,-1,-1,-1,,9000,0,0,2,FEW 30   BKN 40,1,13,1,7,1015,RJTF 300100Z 02006KT 9000 FEW030 BKN040 13/07 Q1015 RMK 1CU030     7SC040 A2998=
20171130_020000.003,0,RJTF,,,,0,20171130020000,-1,-1,-1,-1,10,-1,5,-1,-1,340,40,,9999,0,0,2,FEW 30   BKN 40,1,13,1,6,1014,RJTF 300200Z 01005KT 340V040 9999 FEW030 BKN040 13/06 Q1014     RMK 1CU030 7SC040 A2996=
20171130_030000.002,0,RJTF,,,,0,20171130030000,-1,-1,-1,-1,10,-1,5,-1,-1,-1,-1,,9999,0,1,3,FEW 10   BKN 15   BKN 30,1,12,1,7,1014,RJTF 300300Z 01005KT 9999 -RA FEW010 BKN015 BKN030 12/07 Q1014     RMK 2ST010 6SC015 7SC030 A2995=
20171130_040000.002,0,RJTF,,,,0,20171130040000,-1,-1,-1,-1,360,-1,6,-1,-1,340,40,,6000,0,1,2,FEW 8   BKN 12,1,11,1,8,1013,RJTF 300400Z 36006KT 340V040 6000 -RA FEW008 BKN012 11/08     Q1013 RMK 1ST008 7SC012 A2993=
20171130_050000.002,0,RJTF,,,,0,20171130050000,-1,-1,-1,-1,20,-1,6,-1,-1,-1,-1,,5000,0,2,3,FEW 8   BKN 10   BKN 20,1,10,1,8,1013,RJTF 300500Z 02006KT 5000 -RA BR FEW008 BKN010 BKN020 10/08     Q1013 RMK 1ST008 6ST010 7SC020 A2992=
20171130_060000.002,0,RJTF,,,,0,20171130060000,-1,-1,-1,-1,360,-1,5,-1,-1,330,30,,5000,0,2,3,FEW 8   BKN 10   BKN 20,1,10,1,8,1013,RJTF 300600Z 36005KT 330V030 5000 -RA BR FEW008 BKN010 BKN020     10/08 Q1013 RMK 2ST008 6ST010 7SC020 A2992=
20171130_070000.003,0,RJTF,,,,0,20171130070000,-1,-1,-1,-1,20,-1,6,-1,-1,-1,-1,,3500,0,2,3,SCT 6   BKN 8   BKN 15,1,9,1,8,1013,RJTF 300700Z 02006KT 3500 -DZ BR SCT006 BKN008 BKN015 09/08     Q1013 RMK 3ST006 6ST008 7SC015 A2993=
20171130_080000.002,0,RJTF,,,,0,20171130080000,-1,-1,-1,-1,-1,-1,-1,-1,-1,-1,-1,,-1,0,0,0,,0,-1,0,-1,-1,RJTF 300800Z NIL=
20171130_090000.003,0,RJTF,,,,0,20171130090000,-1,-1,-1,-1,-1,-1,-1,-1,-1,-1,-1,,-1,0,0,0,,0,-1,0,-1,-1,RJTF 300900Z NIL=
20171130_233000.001,0,RJTF,,,,0,20171130230000,-1,-1,-1,-1,360,-1,3,-1,-1,340,50,,5000,0,2,3,FEW 7   SCT 9   BKN 12,1,7,1,6,1017,RJTF 302330Z 36003KT 340V050 5000 -RA BR FEW007 SCT009 BKN012     07/06 Q1017 RMK 1ST007 3ST009 5SC012 A3004=
20171201_000000.002,0,RJTF,,,,0,20171201000000,-1,-1,-1,-1,350,-1,3,-1,-1,330,30,,3500,0,2,3,FEW 6   SCT 7   BKN 9,1,7,1,6,1017,RJTF 010000Z 35003KT 330V030 3500 -RA BR FEW006 SCT007 BKN009     07/06 Q1017 RMK 1ST006 3ST007 5ST009 A3005=
20171201_010000.002,0,RJTF,,,,0,20171201010000,-1,-1,-1,-1,999,-1,2,-1,-1,-1,-1,,6000,0,1,3,FEW 4   SCT 8   BKN 10,1,8,1,7,1017,RJTF 010100Z VRB02KT 6000 -RA FEW004 SCT008 BKN010 08/07 Q1017     RMK 1ST004 3ST008 5ST010 A3005=
20171201_020000.004,0,RJTF,,,,0,20171201020000,-1,-1,-1,-1,50,-1,3,-1,-1,20,100,,7000,0,0,3,FEW 5   SCT 9   BKN 15,1,9,1,7,1017,RJTF 010200Z 05003KT 020V100 7000 FEW005 SCT009 BKN015 09/07     Q1017 RMK 1ST005 4ST009 7SC015 A3003=
20171201_030000.003,0,RJTF,,,,0,20171201030000,-1,-1,-1,-1,80,-1,4,-1,-1,40,130,,8000,0,0,3,FEW 6   BKN 10   BKN 20,1,9,1,6,1016,RJTF 010300Z 08004KT 040V130 8000 FEW006 BKN010 BKN020 09/06     Q1016 RMK 1ST006 5ST010 7SC020 A3001=
20171201_040000.002,0,RJTF,,,,0,20171201040000,-1,-1,-1,-1,100,-1,4,-1,-1,50,140,,9999,0,0,2,FEW 10   BKN 18,1,9,1,6,1015,RJTF 010400Z 10004KT 050V140 9999 FEW010 BKN018 09/06 Q1015     RMK 1ST010 7SC018 A3000=
20171201_050000.002,0,RJTF,,,,0,20171201050000,-1,-1,-1,-1,70,-1,4,-1,-1,30,120,,9999,0,0,2,FEW 15   BKN 20,1,9,1,5,1015,RJTF 010500Z 07004KT 030V120 9999 FEW015 BKN020 09/05 Q1015     RMK 1CU015 7SC020 A2999=
20171201_060000.002,0,RJTF,,,,0,20171201060000,-1,-1,-1,-1,999,-1,2,-1,-1,-1,-1,,9999,0,0,2,FEW 15   BKN 20,1,9,1,5,1016,RJTF 010600Z VRB02KT 9999 FEW015 BKN020 09/05 Q1016 RMK 1CU015     7SC020 A3001=
20171201_070000.002,0,RJTF,,,,0,20171201070000,-1,-1,-1,-1,999,-1,1,-1,-1,-1,-1,,9999,0,0,2,FEW 15   BKN 20,1,9,1,5,1016,RJTF 010700Z VRB01KT 9999 FEW015 BKN020 09/05 Q1016 RMK 1CU015     6SC020 A3002=
20171201_080000.002,0,RJTF,,,,0,20171201080000,-1,-1,-1,-1,-1,-1,-1,-1,-1,-1,-1,,-1,0,0,0,,0,-1,0,-1,-1,RJTF 010800Z NIL=
20171201_090000.002,0,RJTF,,,,0,20171201090000,-1,-1,-1,-1,-1,-1,-1,-1,-1,-1,-1,,-1,0,0,0,,0,-1,0,-1,-1,RJTF 010900Z NIL=
20171201_233000.001,0,RJTF,,,,0,20171201230000,-1,-1,-1,-1,20,-1,5,-1,-1,-1,-1,,9999,0,0,1,FEW 20,1,6,1,0,1026,RJTF 012330Z 02005KT 9999 FEW020 06/00 Q1026 RMK 1CU020 A3031=
20171202_000000.003,0,RJTF,,,,0,20171202000000,-1,-1,-1,-1,50,-1,7,-1,-1,-1,-1,,9999,0,0,1,FEW 20,1,7,-1,0,1026,RJTF 020000Z 05007KT 9999 FEW020 07/M00 Q1026 RMK 1CU020     A3031=
20171202_010000.002,0,RJTF,,,,0,20171202010000,-1,-1,-1,-1,30,-1,8,-1,-1,350,60,,9999,0,0,1,FEW 25,1,9,-1,1,1026,RJTF 020100Z 03008KT 350V060 9999 FEW025 09/M01 Q1026 RMK     1CU025 A3031=
20171202_020000.003,0,RJTF,,,,0,20171202020000,-1,-1,-1,-1,50,-1,6,-1,-1,340,80,,9999,0,0,1,FEW 25,1,10,-1,2,1025,RJTF 020200Z 05006KT 340V080 9999 FEW025 10/M02 Q1025 RMK     1CU025 A3029=
20171202_030000.002,0,RJTF,,,,0,20171202030000,-1,-1,-1,-1,999,-1,3,-1,-1,-1,-1,,9999,0,0,1,FEW 30,1,9,-1,4,1024,RJTF 020300Z VRB03KT 9999 FEW030 09/M04 Q1024 RMK 1CU030     A3026=
20171202_040000.003,0,RJTF,,,,0,20171202040000,-1,-1,-1,-1,999,-1,3,-1,-1,-1,-1,,9999,0,0,2,FEW 30   SCT 50,1,11,-1,2,1024,RJTF 020400Z VRB03KT 9999 FEW030 SCT050 11/M02 Q1024 RMK     1CU030 3SC050 A3025=
20171202_050000.004,0,RJTF,,,,0,20171202050000,-1,-1,-1,-1,40,-1,4,-1,-1,340,100,,9999,0,0,1,FEW 30,1,11,-1,3,1024,RJTF 020500Z 04004KT 340V100 9999 FEW030 11/M03 Q1024 RMK     1CU030 A3024=
20171202_060000.002,0,RJTF,,,,0,20171202060000,-1,-1,-1,-1,90,-1,5,-1,-1,50,150,,9999,0,0,2,FEW 30   SCT 50,1,10,-1,3,1024,RJTF 020600Z 09005KT 050V150 9999 FEW030 SCT050 10/M03 Q1024     RMK 1CU030 3SC050 A3025=
20171202_070000.002,0,RJTF,,,,0,20171202070000,-1,-1,-1,-1,170,-1,6,-1,-1,-1,-1,,9999,0,0,2,FEW 30   SCT 50,1,9,-1,2,1024,RJTF 020700Z 17006KT 9999 FEW030 SCT050 09/M02 Q1024 RMK     1CU030 3SC050 A3026=
20171202_080000.002,0,RJTF,,,,0,20171202080000,-1,-1,-1,-1,-1,-1,-1,-1,-1,-1,-1,,-1,0,0,0,,0,-1,0,-1,-1,RJTF 020800Z NIL=
20171202_090000.003,0,RJTF,,,,0,20171202090000,-1,-1,-1,-1,-1,-1,-1,-1,-1,-1,-1,,-1,0,0,0,,0,-1,0,-1,-1,RJTF 020900Z NIL=
20171202_233000.001,0,RJTF,,,,0,20171202230000,-1,-1,-1,-1,360,-1,6,-1,-1,-1,-1,,9999,0,0,2,FEW 30   SCT 130,1,6,1,1,1024,RJTF 022330Z 36006KT 9999 FEW030 SCT130 06/01 Q1024 RMK 1CU030     3AC130 A3026=
20171203_000000.003,0,RJTF,,,,0,20171203000000,-1,-1,-1,-1,330,-1,5,-1,-1,280,360,,9999,0,0,2,FEW 30   SCT 140,1,7,1,1,1024,RJTF 030000Z 33005KT 280V360 9999 FEW030 SCT140 07/01 Q1024     RMK 1CU030 3AC140 A3025=
20171203_010000.002,0,RJTF,,,,0,20171203010000,-1,-1,-1,-1,360,-1,5,-1,-1,320,40,,9999,0,0,1,FEW 30,1,9,-1,0,1023,RJTF 030100Z 36005KT 320V040 9999 FEW030 09/M00 Q1023 RMK     1CU030 A3022=
20171203_020000.003,0,RJTF,,,,0,20171203020000,-1,-1,-1,-1,360,-1,4,-1,-1,270,50,CAVOK,-1,0,0,0,,1,10,-1,0,1022,RJTF 030200Z 36004KT 270V050 CAVOK 10/M00 Q1022 RMK A3018=
20171203_030000.002,0,RJTF,,,,0,20171203030000,-1,-1,-1,-1,999,-1,3,-1,-1,-1,-1,CAVOK,-1,0,0,0,,1,11,1,1,1020,RJTF 030300Z VRB03KT CAVOK 11/01 Q1020 RMK A3014=
20171203_040000.002,0,RJTF,,,,0,20171203040000,-1,-1,-1,-1,999,-1,2,-1,-1,-1,-1,CAVOK,-1,0,0,0,,1,13,1,2,1019,RJTF 030400Z VRB02KT CAVOK 13/02 Q1019 RMK A3012=
20171203_050000.002,0,RJTF,,,,0,20171203050000,-1,-1,-1,-1,999,-1,2,-1,-1,-1,-1,CAVOK,-1,0,0,0,,1,12,1,1,1019,RJTF 030500Z VRB02KT CAVOK 12/01 Q1019 RMK A3011=
20171203_060000.002,0,RJTF,,,,0,20171203060000,-1,-1,-1,-1,999,-1,3,-1,-1,-1,-1,,9999,0,0,1,FEW 40,1,13,1,1,1019,RJTF 030600Z VRB03KT 9999 FEW040 13/01 Q1019 RMK 1CU040 A3009=
20171203_070000.003,0,RJTF,,,,0,20171203070000,-1,-1,-1,-1,350,-1,2,-1,-1,-1,-1,,9999,0,0,1,FEW 40,1,11,1,1,1019,RJTF 030700Z 35002KT 9999 FEW040 11/01 Q1019 RMK 1CU040 A3009=
20171203_080000.002,0,RJTF,,,,0,20171203080000,-1,-1,-1,-1,-1,-1,-1,-1,-1,-1,-1,,-1,0,0,0,,0,-1,0,-1,-1,RJTF 030800Z NIL=
20171203_090000.002,0,RJTF,,,,0,20171203090000,-1,-1,-1,-1,-1,-1,-1,-1,-1,-1,-1,,-1,0,0,0,,0,-1,0,-1,-1,RJTF 030900Z NIL=
20171203_233000.001,0,RJTF,,,,0,20171203230000,-1,-1,-1,-1,10,-1,4,-1,-1,-1,-1,CAVOK,-1,0,0,0,,1,6,1,2,1016,RJTF 032330Z 01004KT CAVOK 06/02 Q1016 RMK A3002=
20171204_000000.002,0,RJTF,,,,0,20171204000000,-1,-1,-1,-1,10,-1,5,-1,-1,330,40,,9999,0,0,2,FEW 35   SCT -9999,1,7,1,1,1016,RJTF 040000Z 01005KT 330V040 9999 FEW035 SCT/// 07/01 Q1016     RMK 1CU035 A3002=
20171204_010000.002,0,RJTF,,,,0,20171204010000,-1,-1,-1,-1,20,-1,7,-1,-1,-1,-1,,9999,0,0,2,FEW 35   SCT -9999,1,10,-1,0,1015,RJTF 040100Z 02007KT 9999 FEW035 SCT/// 10/M00 Q1015 RMK     1CU035 A2999=
20171204_020000.002,0,RJTF,,,,0,20171204020000,-1,-1,-1,-1,360,-1,5,-1,-1,320,30,,9999,0,0,3,FEW 35   SCT 50   BKN -9999,1,12,-1,1,1014,RJTF 040200Z 36005KT 320V030 9999 FEW035 SCT050 BKN/// 12/M01     Q1014 RMK 1CU035 3SC050 A2995=
20171204_030000.003,0,RJTF,,,,0,20171204030000,-1,-1,-1,-1,10,-1,4,-1,-1,330,50,,9999,0,0,3,FEW 30   BKN 40   BKN 150,1,12,-1,0,1013,RJTF 040300Z 01004KT 330V050 9999 FEW030 BKN040 BKN150 12/M00     Q1013 RMK 1CU030 5SC040 6AC150 A2993=
20171204_040000.002,0,RJTF,,,,0,20171204040000,-1,-1,-1,-1,30,-1,4,-1,-1,350,60,,9999,0,0,3,FEW 30   BKN 40   BKN 140,1,12,-1,0,1012,RJTF 040400Z 03004KT 350V060 9999 FEW030 BKN040 BKN140 12/M00     Q1012 RMK 2CU030 5SC040 7AC140 A2989=
20171204_050000.002,0,RJTF,,,,0,20171204050000,-1,-1,-1,-1,10,-1,4,-1,-1,300,50,,9999,0,0,3,FEW 30   SCT 40   BKN 110,1,12,1,0,1011,RJTF 040500Z 01004KT 300V050 9999 FEW030 SCT040 BKN110 12/00     Q1011 RMK 2CU030 4SC040 7AC110 A2987=
20171204_060000.002,0,RJTF,,,,0,20171204060000,-1,-1,-1,-1,360,-1,3,-1,-1,330,40,,9999,0,0,3,SCT 30   BKN 50   BKN 100,1,11,1,1,1010,RJTF 040600Z 36003KT 330V040 9999 SCT030 BKN050 BKN100 11/01     Q1010 RMK 3CU030 5SC050 7AC100 A2985=
20171204_070000.002,0,RJTF,,,,0,20171204070000,-1,-1,-1,-1,320,-1,3,-1,-1,290,10,,9999,0,1,3,FEW 30   BKN 40   BKN 80,1,11,1,2,1011,RJTF 040700Z 32003KT 290V010 9999 -RA FEW030 BKN040 BKN080     11/02 Q1011 RMK 2CU030 5SC040 7AC080 A2986=
20171204_080000.002,0,RJTF,,,,0,20171204080000,-1,-1,-1,-1,-1,-1,-1,-1,-1,-1,-1,,-1,0,0,0,,0,-1,0,-1,-1,RJTF 040800Z NIL=
20171204_090000.002,0,RJTF,,,,0,20171204090000,-1,-1,-1,-1,-1,-1,-1,-1,-1,-1,-1,,-1,0,0,0,,0,-1,0,-1,-1,RJTF 040900Z NIL=
20171204_233000.001,0,RJTF,,,,0,20171204230000,-1,-1,-1,-1,999,-1,1,-1,-1,-1,-1,,9999,0,0,1,FEW 15,1,7,1,5,1005,RJTF 042330Z VRB01KT 9999 FEW015 07/05 Q1005 RMK 1CU015 A2968=
20171205_000000.002,0,RJTF,,,,0,20171205000000,-1,-1,-1,-1,0,-1,0,-1,-1,-1,-1,,9999,0,0,1,FEW 15,1,9,1,4,1005,RJTF 050000Z 00000KT 9999 FEW015 09/04 Q1005 RMK 1CU015 A2968=
20171205_010000.002,0,RJTF,,,,0,20171205010000,-1,-1,-1,-1,999,-1,1,-1,-1,-1,-1,,9999,0,0,1,FEW 20,1,12,1,3,1005,RJTF 050100Z VRB01KT 9999 FEW020 12/03 Q1005 RMK 1CU020 A2968=
20171205_020000.003,0,RJTF,,,,0,20171205020000,-1,-1,-1,-1,140,-1,7,-1,-1,-1,-1,,9999,0,0,1,FEW 30,1,13,1,1,1004,RJTF 050200Z 14007KT 9999 FEW030 13/01 Q1004 RMK 1CU030 A2965=
20171205_030000.003,0,RJTF,,,,0,20171205030000,-1,-1,-1,-1,140,-1,6,-1,-1,100,190,,9999,0,0,2,FEW 30   SCT -9999,1,14,1,0,1003,RJTF 050300Z 14006KT 100V190 9999 FEW030 SCT/// 14/00 Q1003     RMK 1CU030 A2963=
20171205_040000.003,0,RJTF,,,,0,20171205040000,-1,-1,-1,-1,180,-1,6,-1,-1,130,220,,9999,0,0,2,FEW 30   SCT -9999,1,15,-1,2,1003,RJTF 050400Z 18006KT 130V220 9999 FEW030 SCT/// 15/M02 Q1003     RMK 1CU030 A2962=
20171205_050000.002,0,RJTF,,,,0,20171205050000,-1,-1,-1,-1,210,-1,9,-1,-1,-1,-1,,9999,0,0,2,FEW 30   SCT -9999,1,15,-1,1,1002,RJTF 050500Z 21009KT 9999 FEW030 SCT/// 15/M01 Q1002 RMK     2CU030 A2961=
20171205_060000.002,0,RJTF,,,,0,20171205060000,-1,-1,-1,-1,200,-1,10,-1,-1,170,230,,9999,0,0,2,FEW 30   SCT -9999,1,14,-1,1,1002,RJTF 050600Z 20010KT 170V230 9999 FEW030 SCT/// 14/M01 Q1002     RMK 1CU030 A2961=
20171205_070000.003,0,RJTF,,,,0,20171205070000,-1,-1,-1,-1,220,-1,9,-1,-1,180,250,,9999,0,0,1,FEW 30,1,12,-1,2,1003,RJTF 050700Z 22009KT 180V250 9999 FEW030 12/M02 Q1003 RMK     1CU030 A2963=
20171205_080000.003,0,RJTF,,,,0,20171205080000,-1,-1,-1,-1,-1,-1,-1,-1,-1,-1,-1,,-1,0,0,0,,0,-1,0,-1,-1,RJTF 050800Z NIL=
20171205_090000.002,0,RJTF,,,,0,20171205090000,-1,-1,-1,-1,-1,-1,-1,-1,-1,-1,-1,,-1,0,0,0,,0,-1,0,-1,-1,RJTF 050900Z NIL=
20171205_233000.001,0,RJTF,,,,0,20171205230000,-1,-1,-1,-1,350,-1,4,-1,-1,320,30,,9999,0,0,1,FEW 30,1,5,-1,1,1016,RJTF 052330Z 35004KT 320V030 9999 FEW030 05/M01 Q1016 RMK     1CU030 A3000=
20171206_000000.003,0,RJTF,,,,0,20171206000000,-1,-1,-1,-1,10,-1,6,-1,-1,320,60,,9999,0,0,1,FEW 30,1,6,-1,1,1016,RJTF 060000Z 01006KT 320V060 9999 FEW030 06/M01 Q1016 RMK     1CU030 A3001=
20171206_010000.003,0,RJTF,,,,0,20171206010000,-1,-1,-1,-1,40,-1,7,-1,-1,360,80,,9999,0,0,1,FEW 30,1,7,-1,1,1016,RJTF 060100Z 04007KT 360V080 9999 FEW030 07/M01 Q1016 RMK     1CU030 A3001=
20171206_020000.002,0,RJTF,,,,0,20171206020000,-1,-1,-1,-1,30,-1,4,-1,-1,320,120,,9999,0,0,1,FEW 30,1,9,-1,2,1016,RJTF 060200Z 03004KT 320V120 9999 FEW030 09/M02 Q1016 RMK     1CU030 A3001=
20171206_030000.002,0,RJTF,,,,0,20171206030000,-1,-1,-1,-1,360,-1,5,-1,-1,310,50,,9999,0,0,1,FEW 30,1,10,-1,3,1015,RJTF 060300Z 36005KT 310V050 9999 FEW030 10/M03 Q1015 RMK     1CU030 A3000=
20171206_040000.003,0,RJTF,,,,0,20171206040000,-1,-1,-1,-1,80,-1,5,-1,-1,20,160,,9999,0,0,1,FEW 30,1,11,-1,3,1015,RJTF 060400Z 08005KT 020V160 9999 FEW030 11/M03 Q1015 RMK     1CU030 A3000=
20171206_050000.003,0,RJTF,,,,0,20171206050000,-1,-1,-1,-1,40,-1,3,-1,-1,320,120,,9999,0,0,1,FEW 30,1,10,-1,4,1015,RJTF 060500Z 04003KT 320V120 9999 FEW030 10/M04 Q1015 RMK     1CU030 A3000=
20171206_060000.003,0,RJTF,,,,0,20171206060000,-1,-1,-1,-1,999,-1,3,-1,-1,-1,-1,,9999,0,0,1,FEW 30,1,11,-1,5,1016,RJTF 060600Z VRB03KT 9999 FEW030 11/M05 Q1016 RMK 1CU030     A3001=
20171206_070000.004,0,RJTF,,,,0,20171206070000,-1,-1,-1,-1,999,-1,2,-1,-1,-1,-1,,9999,0,0,1,FEW 30,1,10,-1,5,1017,RJTF 060700Z VRB02KT 9999 FEW030 10/M05 Q1017 RMK 2CU030     A3004=
20171206_080000.002,0,RJTF,,,,0,20171206080000,-1,-1,-1,-1,-1,-1,-1,-1,-1,-1,-1,,-1,0,0,0,,0,-1,0,-1,-1,RJTF 060800Z NIL=
20171206_090000.002,0,RJTF,,,,0,20171206090000,-1,-1,-1,-1,-1,-1,-1,-1,-1,-1,-1,,-1,0,0,0,,0,-1,0,-1,-1,RJTF 060900Z NIL=
20171206_233000.001,0,RJTF,,,,0,20171206230000,-1,-1,-1,-1,999,-1,2,-1,-1,-1,-1,,9999,0,0,2,FEW 30   SCT 45,1,5,1,0,1021,RJTF 062330Z VRB02KT 9999 FEW030 SCT045 05/00 Q1021 RMK 1CU030     3SC045 A3018=
20171207_000000.002,0,RJTF,,,,0,20171207000000,-1,-1,-1,-1,999,-1,2,-1,-1,-1,-1,,9999,0,0,1,FEW 45,1,5,1,0,1021,RJTF 070000Z VRB02KT 9999 FEW045 05/00 Q1021 RMK 2SC045 A3017=
20171207_010000.002,0,RJTF,,,,0,20171207010000,-1,-1,-1,-1,350,-1,3,-1,-1,270,50,,9999,0,0,1,FEW 30,1,8,-1,1,1021,RJTF 070100Z 35003KT 270V050 9999 FEW030 08/M01 Q1021 RMK     1CU030 A3015=
20171207_020000.002,0,RJTF,,,,0,20171207020000,-1,-1,-1,-1,999,-1,2,-1,-1,-1,-1,,9999,0,0,1,FEW 30,1,10,1,0,1019,RJTF 070200Z VRB02KT 9999 FEW030 10/00 Q1019 RMK 1CU030 A3011=
20171207_030000.003,0,RJTF,,,,0,20171207030000,-1,-1,-1,-1,999,-1,4,-1,-1,-1,-1,,9999,0,0,1,FEW 30,1,11,1,0,1018,RJTF 070300Z VRB04KT 9999 FEW030 11/00 Q1018 RMK 1CU030 A3007=
20171207_040000.003,0,RJTF,,,,0,20171207040000,-1,-1,-1,-1,999,-1,4,-1,-1,-1,-1,,9999,0,0,1,FEW 30,1,11,-1,0,1017,RJTF 070400Z VRB04KT 9999 FEW030 11/M00 Q1017 RMK 1CU030     A3004=
20171207_050000.002,0,RJTF,,,,0,20171207050000,-1,-1,-1,-1,999,-1,3,-1,-1,-1,-1,,9999,0,0,1,FEW 30,1,11,-1,1,1016,RJTF 070500Z VRB03KT 9999 FEW030 11/M01 Q1016 RMK 1CU030     A3003=
20171207_060000.002,0,RJTF,,,,0,20171207060000,-1,-1,-1,-1,160,-1,4,-1,-1,110,190,,9999,0,0,1,FEW 30,1,12,-1,1,1016,RJTF 070600Z 16004KT 110V190 9999 FEW030 12/M01 Q1016 RMK     1CU030 A3002=
20171207_070000.002,0,RJTF,,,,0,20171207070000,-1,-1,-1,-1,140,-1,4,-1,-1,-1,-1,,9999,0,0,2,FEW 30   SCT -9999,1,10,1,1,1016,RJTF 070700Z 14004KT 9999 FEW030 SCT/// 10/01 Q1016 RMK 1CU030     A3002=
20171207_080000.003,0,RJTF,,,,0,20171207080000,-1,-1,-1,-1,-1,-1,-1,-1,-1,-1,-1,,-1,0,0,0,,0,-1,0,-1,-1,RJTF 070800Z NIL=
20171207_090000.002,0,RJTF,,,,0,20171207090000,-1,-1,-1,-1,-1,-1,-1,-1,-1,-1,-1,,-1,0,0,0,,0,-1,0,-1,-1,RJTF 070900Z NIL=
20171207_233000.001,0,RJTF,,,,0,20171207230000,-1,-1,-1,-1,999,-1,2,-1,-1,-1,-1,,9999,0,0,3,FEW 20   SCT 180   BKN -9999,1,3,1,1,1009,RJTF 072330Z VRB02KT 9999 FEW020 SCT180 BKN/// 03/01 Q1009 RMK     1CU020 3AC180 A2980=
20171208_000000.002,0,RJTF,,,,0,20171208000000,-1,-1,-1,-1,999,-1,1,-1,-1,-1,-1,,9999,0,0,3,FEW 20   BKN 170   BKN -9999,1,4,1,1,1009,RJTF 080000Z VRB01KT 9999 FEW020 BKN170 BKN/// 04/01 Q1009 RMK     1CU020 5AC170 A2979=
20171208_010000.002,0,RJTF,,,,0,20171208010000,-1,-1,-1,-1,999,-1,1,-1,-1,-1,-1,,9999,0,0,3,FEW 30   SCT 120   BKN -9999,1,5,1,2,1008,RJTF 080100Z VRB01KT 9999 FEW030 SCT120 BKN/// 05/02 Q1008 RMK     1CU030 3AC120 A2978=
20171208_020000.002,0,RJTF,,,,0,20171208020000,-1,-1,-1,-1,999,-1,2,-1,-1,-1,-1,,9999,0,0,3,FEW 30   SCT 110   BKN -9999,1,6,1,2,1007,RJTF 080200Z VRB02KT 9999 FEW030 SCT110 BKN/// 06/02 Q1007 RMK     1CU030 4AC110 A2975=
20171208_030000.002,0,RJTF,,,,0,20171208030000,-1,-1,-1,-1,999,-1,2,-1,-1,-1,-1,,9999,0,0,3,FEW 30   BKN 110   BKN -9999,1,8,1,2,1006,RJTF 080300Z VRB02KT 9999 FEW030 BKN110 BKN/// 08/02 Q1006 RMK     1CU030 5AC110 A2972=
20171208_040000.004,0,RJTF,,,,0,20171208040000,-1,-1,-1,-1,999,-1,1,-1,-1,-1,-1,,9999,0,0,2,FEW 30   BKN 100,1,8,1,1,1006,RJTF 080400Z VRB01KT 9999 FEW030 BKN100 08/01 Q1006 RMK 1CU030     7AC100 A2972=
20171208_050000.002,0,RJTF,,,,0,20171208050000,-1,-1,-1,-1,999,-1,1,-1,-1,-1,-1,,9999,0,0,2,FEW 30   BKN 80,1,9,1,2,1005,RJTF 080500Z VRB01KT 9999 FEW030 BKN080 09/02 Q1005 RMK 1CU030     7AC080 A2970=
20171208_060000.003,0,RJTF,,,,0,20171208060000,-1,-1,-1,-1,999,-1,2,-1,-1,-1,-1,,9999,0,0,2,FEW 30   BKN 70,1,8,1,2,1005,RJTF 080600Z VRB02KT 9999 FEW030 BKN070 08/02 Q1005 RMK 1CU030     7AC070 A2969=
20171208_070000.002,0,RJTF,,,,0,20171208070000,-1,-1,-1,-1,10,-1,8,-1,-1,-1,-1,,7000,0,1,3,FEW 35   BKN 45   BKN 70,1,8,1,3,1006,RJTF 080700Z 01008KT 7000 -RA FEW035 BKN045 BKN070 08/03 Q1006     RMK 1SC035 6SC045 7AC070 A2972=
20171208_080000.002,0,RJTF,,,,0,20171208080000,-1,-1,-1,-1,-1,-1,-1,-1,-1,-1,-1,,-1,0,0,0,,0,-1,0,-1,-1,RJTF 080800Z NIL=
20171208_090000.003,0,RJTF,,,,0,20171208090000,-1,-1,-1,-1,-1,-1,-1,-1,-1,-1,-1,,-1,0,0,0,,0,-1,0,-1,-1,RJTF 080900Z NIL=
20171208_233000.001,0,RJTF,,,,0,20171208230000,-1,-1,-1,-1,999,-1,2,-1,-1,-1,-1,,9999,0,0,1,FEW 30,1,4,-1,2,1014,RJTF 082330Z VRB02KT 9999 FEW030 04/M02 Q1014 RMK 1CU030     A2996=
20171209_000000.002,0,RJTF,,,,0,20171209000000,-1,-1,-1,-1,999,-1,1,-1,-1,-1,-1,,9999,0,0,1,FEW 30,1,5,-1,2,1014,RJTF 090000Z VRB01KT 9999 FEW030 05/M02 Q1014 RMK 1CU030     A2997=
20171209_010000.002,0,RJTF,,,,0,20171209010000,-1,-1,-1,-1,10,-1,7,-1,-1,330,40,,9999,0,0,1,FEW 30,1,7,-1,5,1014,RJTF 090100Z 01007KT 330V040 9999 FEW030 07/M05 Q1014 RMK     1CU030 A2997=
20171209_020000.002,0,RJTF,,,,0,20171209020000,-1,-1,-1,-1,360,-1,7,-1,-1,320,20,,9999,0,0,1,FEW 30,1,8,-1,7,1014,RJTF 090200Z 36007KT 320V020 9999 FEW030 08/M07 Q1014 RMK     1CU030 A2996=
20171209_030000.003,0,RJTF,,,,0,20171209030000,-1,-1,-1,-1,40,-1,3,-1,-1,330,130,,9999,0,0,1,FEW 30,1,10,-1,5,1014,RJTF 090300Z 04003KT 330V130 9999 FEW030 10/M05 Q1014 RMK     1CU030 A2994=
20171209_040000.002,0,RJTF,,,,0,20171209040000,-1,-1,-1,-1,999,-1,2,-1,-1,-1,-1,,9999,0,0,1,FEW 30,1,10,-1,5,1013,RJTF 090400Z VRB02KT 9999 FEW030 10/M05 Q1013 RMK 1CU030     A2993=
20171209_050000.002,0,RJTF,,,,0,20171209050000,-1,-1,-1,-1,999,-1,4,-1,-1,-1,-1,,9999,0,0,1,FEW 30,1,11,-1,4,1013,RJTF 090500Z VRB04KT 9999 FEW030 11/M04 Q1013 RMK 1CU030     A2994=
20171209_060000.003,0,RJTF,,,,0,20171209060000,-1,-1,-1,-1,150,-1,7,-1,-1,120,200,,9999,0,0,1,FEW 30,1,10,-1,4,1014,RJTF 090600Z 15007KT 120V200 9999 FEW030 10/M04 Q1014 RMK     1CU030 A2996=
20171209_070000.002,0,RJTF,,,,0,20171209070000,-1,-1,-1,-1,140,-1,5,-1,-1,-1,-1,,9999,0,0,1,FEW 40,1,9,-1,3,1015,RJTF 090700Z 14005KT 9999 FEW040 09/M03 Q1015 RMK 1CU040     A2997=
20171209_080000.002,0,RJTF,,,,0,20171209080000,-1,-1,-1,-1,-1,-1,-1,-1,-1,-1,-1,,-1,0,0,0,,0,-1,0,-1,-1,RJTF 090800Z NIL=
20171209_090000.002,0,RJTF,,,,0,20171209090000,-1,-1,-1,-1,-1,-1,-1,-1,-1,-1,-1,,-1,0,0,0,,0,-1,0,-1,-1,RJTF 090900Z NIL=
20171209_233000.001,0,RJTF,,,,0,20171209230000,-1,-1,-1,-1,999,-1,1,-1,-1,-1,-1,CAVOK,-1,0,0,0,,1,3,-1,0,1018,RJTF 092330Z VRB01KT CAVOK 03/M00 Q1018 RMK A3008=
20171210_000000.002,0,RJTF,,,,0,20171210000000,-1,-1,-1,-1,999,-1,1,-1,-1,-1,-1,CAVOK,-1,0,0,0,,1,5,-1,1,1018,RJTF 100000Z VRB01KT CAVOK 05/M01 Q1018 RMK A3008=
20171210_010000.002,0,RJTF,,,,0,20171210010000,-1,-1,-1,-1,999,-1,2,-1,-1,-1,-1,CAVOK,-1,0,0,0,,1,7,-1,2,1018,RJTF 100100Z VRB02KT CAVOK 07/M02 Q1018 RMK A3006=
20171210_020000.002,0,RJTF,,,,0,20171210020000,-1,-1,-1,-1,999,-1,2,-1,-1,-1,-1,CAVOK,-1,0,0,0,,1,9,-1,2,1016,RJTF 100200Z VRB02KT CAVOK 09/M02 Q1016 RMK A3002=
20171210_030000.003,0,RJTF,,,,0,20171210030000,-1,-1,-1,-1,999,-1,2,-1,-1,-1,-1,,9999,0,0,2,FEW 30   SCT -9999,1,10,-1,2,1016,RJTF 100300Z VRB02KT 9999 FEW030 SCT/// 10/M02 Q1016 RMK     1CU030 A3000=
20171210_040000.003,0,RJTF,,,,0,20171210040000,-1,-1,-1,-1,999,-1,2,-1,-1,-1,-1,,9999,0,0,1,FEW 40,1,12,-1,0,1014,RJTF 100400Z VRB02KT 9999 FEW040 12/M00 Q1014 RMK 2CU040     A2995=
20171210_050000.002,0,RJTF,,,,0,20171210050000,-1,-1,-1,-1,999,-1,1,-1,-1,-1,-1,,9999,0,0,2,FEW 40   SCT -9999,1,12,-1,0,1013,RJTF 100500Z VRB01KT 9999 FEW040 SCT/// 12/M00 Q1013 RMK     2CU040 A2993=
20171210_060000.002,0,RJTF,,,,0,20171210060000,-1,-1,-1,-1,999,-1,2,-1,-1,-1,-1,,9999,0,0,2,FEW 40   SCT -9999,1,13,-1,0,1012,RJTF 100600Z VRB02KT 9999 FEW040 SCT/// 13/M00 Q1012 RMK     1CU040 A2990=
20171210_070000.002,0,RJTF,,,,0,20171210070000,-1,-1,-1,-1,220,-1,5,-1,-1,190,260,,9999,0,0,2,FEW 40   SCT -9999,1,13,-1,1,1012,RJTF 100700Z 22005KT 190V260 9999 FEW040 SCT/// 13/M01 Q1012     RMK 1CU040 A2989=
20171210_080000.002,0,RJTF,,,,0,20171210080000,-1,-1,-1,-1,-1,-1,-1,-1,-1,-1,-1,,-1,0,0,0,,0,-1,0,-1,-1,RJTF 100800Z NIL=
20171210_090000.003,0,RJTF,,,,0,20171210090000,-1,-1,-1,-1,-1,-1,-1,-1,-1,-1,-1,,-1,0,0,0,,0,-1,0,-1,-1,RJTF 100900Z NIL=
20171210_233000.001,0,RJTF,,,,0,20171210230000,-1,-1,-1,-1,330,-1,3,-1,-1,260,20,,9999,0,0,1,FEW 30,1,5,-1,0,1005,RJTF 102330Z 33003KT 260V020 9999 FEW030 05/M00 Q1005 RMK     1CU030 A2970=
20171211_000000.002,0,RJTF,,,,0,20171211000000,-1,-1,-1,-1,350,-1,6,-1,-1,-1,-1,,9999,0,0,1,FEW 30,1,6,-1,1,1005,RJTF 110000Z 35006KT 9999 FEW030 06/M01 Q1005 RMK 1CU030     A2970=
20171211_010000.003,0,RJTF,,,,0,20171211010000,-1,-1,-1,-1,340,-1,4,-1,-1,290,30,,9999,0,0,1,FEW 30,1,10,-1,1,1004,RJTF 110100Z 34004KT 290V030 9999 FEW030 10/M01 Q1004 RMK     1CU030 A2967=
20171211_020000.002,0,RJTF,,,,0,20171211020000,-1,-1,-1,-1,999,-1,2,-1,-1,-1,-1,,9999,0,0,1,FEW 30,1,13,1,1,1003,RJTF 110200Z VRB02KT 9999 FEW030 13/01 Q1003 RMK 1CU030 A2962=
20171211_030000.002,0,RJTF,,,,0,20171211030000,-1,-1,-1,-1,999,-1,2,-1,-1,-1,-1,,9999,0,0,1,FEW 30,1,15,1,1,1002,RJTF 110300Z VRB02KT 9999 FEW030 15/01 Q1002 RMK 1CU030 A2959=
20171211_040000.002,0,RJTF,,,,0,20171211040000,-1,-1,-1,-1,80,-1,3,-1,-1,20,150,,9999,0,0,1,FEW 30,1,16,1,1,1001,RJTF 110400Z 08003KT 020V150 9999 FEW030 16/01 Q1001 RMK     1CU030 A2956=
20171211_050000.002,0,RJTF,,,,0,20171211050000,-1,-1,-1,-1,999,-1,3,-1,-1,-1,-1,,9999,0,0,1,FEW 30,1,17,-1,1,1000,RJTF 110500Z VRB03KT 9999 FEW030 17/M01 Q1000 RMK 1CU030     A2954=
20171211_060000.002,0,RJTF,,,,0,20171211060000,-1,-1,-1,-1,999,-1,1,-1,-1,-1,-1,,9999,0,0,1,FEW 30,1,17,-1,1,1000,RJTF 110600Z VRB01KT 9999 FEW030 17/M01 Q1000 RMK 1CU030     A2953=
20171211_070000.002,0,RJTF,,,,0,20171211070000,-1,-1,-1,-1,220,-1,8,-1,-1,190,250,,9999,0,0,1,FEW 30,1,15,1,0,1000,RJTF 110700Z 22008KT 190V250 9999 FEW030 15/00 Q1000 RMK     1CU030 A2953=
20171211_080000.002,0,RJTF,,,,0,20171211080000,-1,-1,-1,-1,-1,-1,-1,-1,-1,-1,-1,,-1,0,0,0,,0,-1,0,-1,-1,RJTF 110800Z NIL=
20171211_090000.002,0,RJTF,,,,0,20171211090000,-1,-1,-1,-1,-1,-1,-1,-1,-1,-1,-1,,-1,0,0,0,,0,-1,0,-1,-1,RJTF 110900Z NIL=
20171211_233000.001,0,RJTF,,,,0,20171211230000,-1,-1,-1,-1,120,-1,3,-1,-1,100,160,,9999,0,0,1,FEW 30,1,6,-1,9,1011,RJTF 112330Z 12003KT 100V160 9999 FEW030 06/M09 Q1011 RMK     1CU030 A2986=
20171212_000000.002,0,RJTF,,,,0,20171212000000,-1,-1,-1,-1,130,-1,4,-1,-1,50,210,,9999,0,0,1,FEW 30,1,6,-1,9,1011,RJTF 120000Z 13004KT 050V210 9999 FEW030 06/M09 Q1011 RMK     1CU030 A2986=
20171212_010000.002,0,RJTF,,,,0,20171212010000,-1,-1,-1,-1,999,-1,5,-1,-1,-1,-1,,9999,0,0,1,FEW 30,1,8,-1,11,1010,RJTF 120100Z VRB05KT 9999 FEW030 08/M11 Q1010 RMK 1CU030     A2985=
20171212_020000.003,0,RJTF,,,,0,20171212020000,-1,-1,-1,-1,170,-1,5,-1,-1,120,220,,9999,0,0,1,FEW 30,1,10,-1,10,1010,RJTF 120200Z 17005KT 120V220 9999 FEW030 10/M10 Q1010 RMK     1CU030 A2983=
20171212_030000.002,0,RJTF,,,,0,20171212030000,-1,-1,-1,-1,999,-1,2,-1,-1,-1,-1,,9999,0,0,1,FEW 30,1,10,-1,10,1009,RJTF 120300Z VRB02KT 9999 FEW030 10/M10 Q1009 RMK 1CU030     A2980=
20171212_040000.003,0,RJTF,,,,0,20171212040000,-1,-1,-1,-1,80,-1,5,-1,-1,10,150,,9999,0,0,1,FEW 30,1,10,-1,10,1008,RJTF 120400Z 08005KT 010V150 9999 FEW030 10/M10 Q1008 RMK     1CU030 A2979=
20171212_050000.003,0,RJTF,,,,0,20171212050000,-1,-1,-1,-1,100,-1,5,-1,-1,40,160,,9999,0,0,2,FEW 30   SCT -9999,1,10,-1,11,1009,RJTF 120500Z 10005KT 040V160 9999 FEW030 SCT/// 10/M11 Q1009     RMK 1CU030 A2981=
20171212_060000.002,0,RJTF,,,,0,20171212060000,-1,-1,-1,-1,150,-1,6,-1,-1,-1,-1,,9999,0,0,2,FEW 30   SCT -9999,1,10,-1,10,1009,RJTF 120600Z 15006KT 9999 FEW030 SCT/// 10/M10 Q1009 RMK     1CU030 A2982=
20171212_070000.002,0,RJTF,,,,0,20171212070000,-1,-1,-1,-1,150,-1,5,-1,-1,-1,-1,,9999,0,0,2,FEW 30   BKN -9999,1,9,-1,10,1010,RJTF 120700Z 15005KT 9999 FEW030 BKN/// 09/M10 Q1010 RMK     1CU030 A2983=
20171212_080000.002,0,RJTF,,,,0,20171212080000,-1,-1,-1,-1,-1,-1,-1,-1,-1,-1,-1,,-1,0,0,0,,0,-1,0,-1,-1,RJTF 120800Z NIL=
20171212_090000.002,0,RJTF,,,,0,20171212090000,-1,-1,-1,-1,-1,-1,-1,-1,-1,-1,-1,,-1,0,0,0,,0,-1,0,-1,-1,RJTF 120900Z NIL=
20171212_233000.001,0,RJTF,,,,0,20171212230000,-1,-1,-1,-1,999,-1,2,-1,-1,-1,-1,,9999,0,0,1,FEW 30,1,4,-1,5,1014,RJTF 122330Z VRB02KT 9999 FEW030 04/M05 Q1014 RMK 1CU030     A2997=
20171213_000000.002,0,RJTF,,,,0,20171213000000,-1,-1,-1,-1,350,-1,7,-1,-1,-1,-1,,9999,0,0,1,FEW 30,1,5,-1,7,1014,RJTF 130000Z 35007KT 9999 FEW030 05/M07 Q1014 RMK 1CU030     A2996=
20171213_010000.003,0,RJTF,,,,0,20171213010000,-1,-1,-1,-1,360,-1,7,-1,-1,-1,-1,,9999,0,0,1,FEW 30,1,8,-1,8,1014,RJTF 130100Z 36007KT 9999 FEW030 08/M08 Q1014 RMK 1CU030     A2995=
20171213_020000.002,0,RJTF,,,,0,20171213020000,-1,-1,-1,-1,60,-1,5,-1,-1,360,120,,9999,0,0,1,FEW 30,1,9,-1,9,1013,RJTF 130200Z 06005KT 360V120 9999 FEW030 09/M09 Q1013 RMK     1CU030 A2992=
20171213_030000.002,0,RJTF,,,,0,20171213030000,-1,-1,-1,-1,999,-1,3,-1,-1,-1,-1,,9999,0,0,1,FEW 30,1,10,-1,9,1012,RJTF 130300Z VRB03KT 9999 FEW030 10/M09 Q1012 RMK 1CU030     A2989=
20171213_040000.002,0,RJTF,,,,0,20171213040000,-1,-1,-1,-1,999,-1,3,-1,-1,-1,-1,,9999,0,0,1,FEW 30,1,11,-1,10,1012,RJTF 130400Z VRB03KT 9999 FEW030 11/M10 Q1012 RMK 1CU030     A2989=
20171213_050000.002,0,RJTF,,,,0,20171213050000,-1,-1,-1,-1,999,-1,3,-1,-1,-1,-1,,9999,0,0,2,FEW 30   SCT 70,1,10,-1,10,1011,RJTF 130500Z VRB03KT 9999 FEW030 SCT070 10/M10 Q1011 RMK     1CU030 3AC070 A2988=
20171213_060000.002,0,RJTF,,,,0,20171213060000,-1,-1,-1,-1,70,-1,3,-1,-1,20,120,,9999,0,0,2,FEW 30   SCT 80,1,9,-1,10,1012,RJTF 130600Z 07003KT 020V120 9999 FEW030 SCT080 09/M10 Q1012     RMK 1CU030 3AC080 A2989=
20171213_070000.002,0,RJTF,,,,0,20171213070000,-1,-1,-1,-1,10,-1,6,-1,-1,320,60,,9999,0,0,2,FEW 30   BKN 80,1,9,-1,8,1013,RJTF 130700Z 01006KT 320V060 9999 FEW030 BKN080 09/M08 Q1013     RMK 1CU030 6AC080 A2992=
20171213_080000.002,0,RJTF,,,,0,20171213080000,-1,-1,-1,-1,-1,-1,-1,-1,-1,-1,-1,,-1,0,0,0,,0,-1,0,-1,-1,RJTF 130800Z NIL=
20171213_090000.002,0,RJTF,,,,0,20171213090000,-1,-1,-1,-1,-1,-1,-1,-1,-1,-1,-1,,-1,0,0,0,,0,-1,0,-1,-1,RJTF 130900Z NIL=
20171213_233000.001,0,RJTF,,,,0,20171213230000,-1,-1,-1,-1,340,-1,10,-1,-1,310,10,CAVOK,-1,0,0,0,,1,5,-1,11,1020,RJTF 132330Z 34010KT 310V010 CAVOK 05/M11 Q1020 RMK A3014=
20171214_000000.002,0,RJTF,,,,0,20171214000000,-1,-1,-1,-1,340,-1,9,-1,-1,290,10,CAVOK,-1,0,0,0,,1,6,-1,11,1020,RJTF 140000Z 34009KT 290V010 CAVOK 06/M11 Q1020 RMK A3014=
20171214_010000.002,0,RJTF,,,,0,20171214010000,-1,-1,-1,-1,350,-1,12,-1,-1,-1,-1,,9999,0,0,1,FEW 30,1,8,-1,11,1020,RJTF 140100Z 35012KT 9999 FEW030 08/M11 Q1020 RMK 1CU030     A3014=
20171214_020000.003,0,RJTF,,,,0,20171214020000,-1,-1,-1,-1,340,-1,12,-1,22,300,20,,9999,0,0,1,FEW 30,1,9,-1,10,1020,RJTF 140200Z 34012G22KT 300V020 9999 FEW030 09/M10 Q1020 RMK     1CU030 A3013=
20171214_030000.002,0,RJTF,,,,0,20171214030000,-1,-1,-1,-1,290,-1,8,-1,-1,-1,-1,,9999,0,0,1,FEW 30,1,10,-1,10,1019,RJTF 140300Z 29008KT 9999 FEW030 10/M10 Q1019 RMK 1CU030     A3012=
20171214_040000.002,0,RJTF,,,,0,20171214040000,-1,-1,-1,-1,340,-1,8,-1,-1,280,10,,9999,0,0,1,FEW 30,1,11,-1,10,1019,RJTF 140400Z 34008KT 280V010 9999 FEW030 11/M10 Q1019 RMK     1CU030 A3011=
20171214_050000.002,0,RJTF,,,,0,20171214050000,-1,-1,-1,-1,350,-1,9,-1,-1,310,40,,9999,0,0,1,FEW 30,1,11,-1,9,1020,RJTF 140500Z 35009KT 310V040 9999 FEW030 11/M09 Q1020 RMK     1CU030 A3012=
20171214_060000.003,0,RJTF,,,,0,20171214060000,-1,-1,-1,-1,360,-1,10,-1,-1,-1,-1,,9999,0,0,1,FEW 30,1,10,-1,7,1020,RJTF 140600Z 36010KT 9999 FEW030 10/M07 Q1020 RMK 1CU030     A3014=
20171214_070000.002,0,RJTF,,,,0,20171214070000,-1,-1,-1,-1,360,-1,11,-1,-1,-1,-1,,9999,0,0,1,FEW 30,1,8,-1,7,1021,RJTF 140700Z 36011KT 9999 FEW030 08/M07 Q1021 RMK 1CU030     A3017=
20171214_080000.002,0,RJTF,,,,0,20171214080000,-1,-1,-1,-1,-1,-1,-1,-1,-1,-1,-1,,-1,0,0,0,,0,-1,0,-1,-1,RJTF 140800Z NIL=
20171214_090000.002,0,RJTF,,,,0,20171214090000,-1,-1,-1,-1,-1,-1,-1,-1,-1,-1,-1,,-1,0,0,0,,0,-1,0,-1,-1,RJTF 140900Z NIL=
20171214_233000.001,0,RJTF,,,,0,20171214230000,-1,-1,-1,-1,340,-1,4,-1,-1,310,20,,9999,0,0,3,FEW 30   BKN 50   BKN 150,1,3,-1,5,1025,RJTF 142330Z 34004KT 310V020 9999 FEW030 BKN050 BKN150 03/M05     Q1025 RMK 1CU030 5SC050 6AC150 A3029=
20171215_000000.002,0,RJTF,,,,0,20171215000000,-1,-1,-1,-1,350,-1,3,-1,-1,310,20,,9999,0,0,3,FEW 30   BKN 60   BKN 150,1,4,-1,5,1025,RJTF 150000Z 35003KT 310V020 9999 FEW030 BKN060 BKN150 04/M05     Q1025 RMK 1CU030 5SC060 6AC150 A3029=
20171215_010000.002,0,RJTF,,,,0,20171215010000,-1,-1,-1,-1,30,-1,3,-1,-1,330,70,,9999,0,0,2,FEW 30   BKN 50,1,4,-1,5,1025,RJTF 150100Z 03003KT 330V070 9999 FEW030 BKN050 04/M05 Q1025     RMK 1CU030 5SC050 A3027=
20171215_020000.002,0,RJTF,,,,0,20171215020000,-1,-1,-1,-1,10,-1,3,-1,-1,330,50,,9999,0,0,3,FEW 30   SCT 40   BKN 60,1,5,-1,5,1024,RJTF 150200Z 01003KT 330V050 9999 FEW030 SCT040 BKN060 05/M05     Q1024 RMK 1CU030 4SC040 6SC060 A3025=
20171215_030000.003,0,RJTF,,,,0,20171215030000,-1,-1,-1,-1,999,-1,1,-1,-1,-1,-1,,9999,0,0,3,FEW 30   SCT 40   BKN 60,1,6,-1,5,1023,RJTF 150300Z VRB01KT 9999 FEW030 SCT040 BKN060 06/M05 Q1023     RMK 1CU030 4SC040 6SC060 A3022=
20171215_040000.002,0,RJTF,,,,0,20171215040000,-1,-1,-1,-1,40,-1,3,-1,-1,10,90,,9999,0,0,3,FEW 25   SCT 35   BKN 60,1,7,-1,5,1022,RJTF 150400Z 04003KT 010V090 9999 FEW025 SCT035 BKN060 07/M05     Q1022 RMK 1CU025 4SC035 6SC060 A3019=
20171215_050000.002,0,RJTF,,,,0,20171215050000,-1,-1,-1,-1,999,-1,2,-1,-1,-1,-1,,9999,0,0,2,SCT 35   BKN 50,1,7,-1,5,1021,RJTF 150500Z VRB02KT 9999 SCT035 BKN050 07/M05 Q1021 RMK     3SC035 5SC050 A3017=
20171215_060000.002,0,RJTF,,,,0,20171215060000,-1,-1,-1,-1,140,-1,3,-1,-1,80,190,,9999,0,0,3,FEW 35   SCT 60   BKN -9999,1,8,-1,5,1021,RJTF 150600Z 14003KT 080V190 9999 FEW035 SCT060 BKN/// 08/M05     Q1021 RMK 2CU035 4SC060 A3016=
20171215_070000.002,0,RJTF,,,,0,20171215070000,-1,-1,-1,-1,999,-1,1,-1,-1,-1,-1,,9999,0,0,2,FEW 35   SCT -9999,1,8,-1,5,1022,RJTF 150700Z VRB01KT 9999 FEW035 SCT/// 08/M05 Q1022 RMK     2CU035 A3018=
20171215_080000.003,0,RJTF,,,,0,20171215080000,-1,-1,-1,-1,-1,-1,-1,-1,-1,-1,-1,,-1,0,0,0,,0,-1,0,-1,-1,RJTF 150800Z NIL=
20171215_090000.003,0,RJTF,,,,0,20171215090000,-1,-1,-1,-1,-1,-1,-1,-1,-1,-1,-1,,-1,0,0,0,,0,-1,0,-1,-1,RJTF 150900Z NIL=
20171215_233000.001,0,RJTF,,,,0,20171215230000,-1,-1,-1,-1,0,-1,0,-1,-1,-1,-1,,9999,0,0,2,FEW 20   BKN -9999,1,4,-1,1,1014,RJTF 152330Z 00000KT 9999 FEW020 BKN/// 04/M01 Q1014 RMK     1CU020 A2997=
20171216_000000.002,0,RJTF,,,,0,20171216000000,-1,-1,-1,-1,999,-1,1,-1,-1,-1,-1,,9999,0,0,2,FEW 20   BKN -9999,1,5,-1,1,1014,RJTF 160000Z VRB01KT 9999 FEW020 BKN/// 05/M01 Q1014 RMK     1CU020 A2996=
20171216_010000.002,0,RJTF,,,,0,20171216010000,-1,-1,-1,-1,999,-1,1,-1,-1,-1,-1,,9999,0,0,2,FEW 25   SCT -9999,1,8,-1,2,1013,RJTF 160100Z VRB01KT 9999 FEW025 SCT/// 08/M02 Q1013 RMK     1CU025 A2994=
20171216_020000.002,0,RJTF,,,,0,20171216020000,-1,-1,-1,-1,999,-1,2,-1,-1,-1,-1,,9999,0,0,2,FEW 30   SCT -9999,1,10,-1,2,1012,RJTF 160200Z VRB02KT 9999 FEW030 SCT/// 10/M02 Q1012 RMK     1CU030 A2990=
20171216_030000.002,0,RJTF,,,,0,20171216030000,-1,-1,-1,-1,170,-1,3,-1,-1,100,260,,9999,0,0,1,FEW 30,1,12,-1,0,1010,RJTF 160300Z 17003KT 100V260 9999 FEW030 12/M00 Q1010 RMK     1CU030 A2985=
20171216_040000.002,0,RJTF,,,,0,20171216040000,-1,-1,-1,-1,999,-1,2,-1,-1,-1,-1,,9999,0,0,2,FEW 30   SCT -9999,1,13,1,1,1009,RJTF 160400Z VRB02KT 9999 FEW030 SCT/// 13/01 Q1009 RMK 1CU030     A2981=
20171216_050000.003,0,RJTF,,,,0,20171216050000,-1,-1,-1,-1,40,-1,3,-1,-1,340,90,,9999,0,0,2,FEW 30   SCT 50,1,14,1,1,1008,RJTF 160500Z 04003KT 340V090 9999 FEW030 SCT050 14/01 Q1008     RMK 1CU030 3SC050 A2979=
20171216_060000.002,0,RJTF,,,,0,20171216060000,-1,-1,-1,-1,30,-1,4,-1,-1,330,60,,9999,0,0,3,FEW 30   SCT 50   BKN 110,1,13,1,0,1008,RJTF 160600Z 03004KT 330V060 9999 FEW030 SCT050 BKN110 13/00     Q1008 RMK 1CU030 3SC050 5AC110 A2977=
20171216_070000.003,0,RJTF,,,,0,20171216070000,-1,-1,-1,-1,10,-1,3,-1,-1,320,50,,9999,0,0,2,FEW 30   SCT 120,1,11,1,0,1008,RJTF 160700Z 01003KT 320V050 9999 FEW030 SCT120 11/00 Q1008     RMK 1CU030 3AC120 A2977=
20171216_080000.002,0,RJTF,,,,0,20171216080000,-1,-1,-1,-1,-1,-1,-1,-1,-1,-1,-1,,-1,0,0,0,,0,-1,0,-1,-1,RJTF 160800Z NIL=
20171216_090000.002,0,RJTF,,,,0,20171216090000,-1,-1,-1,-1,-1,-1,-1,-1,-1,-1,-1,,-1,0,0,0,,0,-1,0,-1,-1,RJTF 160900Z NIL=
20171216_233000.001,0,RJTF,,,,0,20171216230000,-1,-1,-1,-1,10,-1,12,-1,-1,-1,-1,,9999,0,0,1,FEW 30,1,7,-1,7,1013,RJTF 162330Z 01012KT 9999 FEW030 07/M07 Q1013 RMK 1CU030     A2992=
20171217_000000.003,0,RJTF,,,,0,20171217000000,-1,-1,-1,-1,10,-1,12,-1,-1,340,40,,9999,0,0,1,FEW 30,1,7,-1,6,1013,RJTF 170000Z 01012KT 340V040 9999 FEW030 07/M06 Q1013 RMK     2CU030 A2993=
20171217_010000.002,0,RJTF,,,,0,20171217010000,-1,-1,-1,-1,360,-1,14,-1,-1,-1,-1,,9999,0,0,1,FEW 30,1,8,-1,7,1014,RJTF 170100Z 36014KT 9999 FEW030 08/M07 Q1014 RMK 2CU030     A2997=
20171217_020000.002,0,RJTF,,,,0,20171217020000,-1,-1,-1,-1,360,-1,17,-1,-1,-1,-1,,9999,0,0,1,FEW 30,1,8,-1,8,1014,RJTF 170200Z 36017KT 9999 FEW030 08/M08 Q1014 RMK 2CU030     A2996=
20171217_030000.002,0,RJTF,,,,0,20171217030000,-1,-1,-1,-1,350,-1,14,-1,-1,-1,-1,,9999,0,0,1,FEW 30,1,8,-1,9,1014,RJTF 170300Z 35014KT 9999 FEW030 08/M09 Q1014 RMK 2CU030     A2995=
20171217_040000.002,0,RJTF,,,,0,20171217040000,-1,-1,-1,-1,360,-1,12,-1,22,330,30,,9999,0,0,1,FEW 30,1,9,-1,9,1014,RJTF 170400Z 36012G22KT 330V030 9999 FEW030 09/M09 Q1014 RMK     2CU030 A2996=
20171217_050000.002,0,RJTF,,,,0,20171217050000,-1,-1,-1,-1,10,-1,13,-1,-1,340,40,,9999,0,0,1,FEW 30,1,8,-1,9,1015,RJTF 170500Z 01013KT 340V040 9999 FEW030 08/M09 Q1015 RMK     1CU030 A2997=
20171217_060000.002,0,RJTF,,,,0,20171217060000,-1,-1,-1,-1,10,-1,13,-1,-1,350,50,,9999,0,0,1,FEW 30,1,7,-1,10,1016,RJTF 170600Z 01013KT 350V050 9999 FEW030 07/M10 Q1016 RMK     1CU030 A3000=
20171217_070000.002,0,RJTF,,,,0,20171217070000,-1,-1,-1,-1,10,-1,11,-1,-1,340,50,,9999,0,0,1,FEW 30,1,6,-1,10,1017,RJTF 170700Z 01011KT 340V050 9999 FEW030 06/M10 Q1017 RMK     1CU030 A3003=
20171217_080000.002,0,RJTF,,,,0,20171217080000,-1,-1,-1,-1,-1,-1,-1,-1,-1,-1,-1,,-1,0,0,0,,0,-1,0,-1,-1,RJTF 170800Z NIL=
20171217_090000.002,0,RJTF,,,,0,20171217090000,-1,-1,-1,-1,-1,-1,-1,-1,-1,-1,-1,,-1,0,0,0,,0,-1,0,-1,-1,RJTF 170900Z NIL=
20171217_233000.001,0,RJTF,,,,0,20171217230000,-1,-1,-1,-1,10,-1,3,-1,-1,310,50,,9999,0,0,1,FEW 30,1,2,-1,5,1024,RJTF 172330Z 01003KT 310V050 9999 FEW030 02/M05 Q1024 RMK     1CU030 A3025=
20171218_000000.002,0,RJTF,,,,0,20171218000000,-1,-1,-1,-1,999,-1,2,-1,-1,-1,-1,,9999,0,0,1,FEW 30,1,3,-1,6,1024,RJTF 180000Z VRB02KT 9999 FEW030 03/M06 Q1024 RMK 1CU030     A3025=
20171218_010000.002,0,RJTF,,,,0,20171218010000,-1,-1,-1,-1,999,-1,2,-1,-1,-1,-1,,9999,0,0,2,FEW 30   SCT 40,1,5,-1,7,1024,RJTF 180100Z VRB02KT 9999 FEW030 SCT040 05/M07 Q1024 RMK     1CU030 4SC040 A3025=
20171218_020000.002,0,RJTF,,,,0,20171218020000,-1,-1,-1,-1,999,-1,2,-1,-1,-1,-1,,9999,0,0,1,FEW 30,1,6,-1,7,1023,RJTF 180200Z VRB02KT 9999 FEW030 06/M07 Q1023 RMK 1CU030     A3023=
20171218_030000.003,0,RJTF,,,,0,20171218030000,-1,-1,-1,-1,150,-1,3,-1,-1,40,220,,9999,0,0,2,FEW 30   SCT 40,1,8,-1,6,1022,RJTF 180300Z 15003KT 040V220 9999 FEW030 SCT040 08/M06 Q1022     RMK 1CU030 3SC040 A3020=
20171218_040000.004,0,RJTF,,,,0,20171218040000,-1,-1,-1,-1,170,-1,6,-1,-1,130,220,,9999,0,0,1,FEW 30,1,9,-1,5,1021,RJTF 180400Z 17006KT 130V220 9999 FEW030 09/M05 Q1021 RMK     1CU030 A3017=
20171218_050000.002,0,RJTF,,,,0,20171218050000,-1,-1,-1,-1,130,-1,4,-1,-1,80,170,,9999,0,0,1,FEW 30,1,10,-1,4,1020,RJTF 180500Z 13004KT 080V170 9999 FEW030 10/M04 Q1020 RMK     1CU030 A3015=
20171218_060000.002,0,RJTF,,,,0,20171218060000,-1,-1,-1,-1,150,-1,5,-1,-1,80,180,,9999,0,0,1,FEW 30,1,9,-1,3,1021,RJTF 180600Z 15005KT 080V180 9999 FEW030 09/M03 Q1021 RMK     1CU030 A3015=
20171218_070000.002,0,RJTF,,,,0,20171218070000,-1,-1,-1,-1,130,-1,5,-1,-1,-1,-1,,9999,0,0,1,FEW 30,1,8,-1,3,1021,RJTF 180700Z 13005KT 9999 FEW030 08/M03 Q1021 RMK 1CU030     A3016=
20171218_080000.002,0,RJTF,,,,0,20171218080000,-1,-1,-1,-1,-1,-1,-1,-1,-1,-1,-1,,-1,0,0,0,,0,-1,0,-1,-1,RJTF 180800Z NIL=
20171218_090000.002,0,RJTF,,,,0,20171218090000,-1,-1,-1,-1,-1,-1,-1,-1,-1,-1,-1,,-1,0,0,0,,0,-1,0,-1,-1,RJTF 180900Z NIL=
20171218_233000.001,0,RJTF,,,,0,20171218230000,-1,-1,-1,-1,999,-1,1,-1,-1,-1,-1,,9999,0,0,1,FEW 30,1,3,-1,2,1017,RJTF 182330Z VRB01KT 9999 FEW030 03/M02 Q1017 RMK 1CU030     A3005=
20171219_000000.002,0,RJTF,,,,0,20171219000000,-1,-1,-1,-1,999,-1,1,-1,-1,-1,-1,,9999,0,0,1,FEW 30,1,4,-1,2,1017,RJTF 190000Z VRB01KT 9999 FEW030 04/M02 Q1017 RMK 1CU030     A3004=
20171219_010000.002,0,RJTF,,,,0,20171219010000,-1,-1,-1,-1,999,-1,2,-1,-1,-1,-1,,9999,0,0,1,FEW 30,1,7,-1,1,1016,RJTF 190100Z VRB02KT 9999 FEW030 07/M01 Q1016 RMK 1CU030     A3003=
20171219_020000.002,0,RJTF,,,,0,20171219020000,-1,-1,-1,-1,999,-1,2,-1,-1,-1,-1,,9999,0,0,1,FEW 30,1,8,-1,2,1015,RJTF 190200Z VRB02KT 9999 FEW030 08/M02 Q1015 RMK 1CU030     A3000=
20171219_030000.002,0,RJTF,,,,0,20171219030000,-1,-1,-1,-1,210,-1,5,-1,-1,160,250,,9999,0,0,1,FEW 30,1,11,-1,5,1014,RJTF 190300Z 21005KT 160V250 9999 FEW030 11/M05 Q1014 RMK     1CU030 A2995=
20171219_040000.002,0,RJTF,,,,0,20171219040000,-1,-1,-1,-1,999,-1,3,-1,-1,-1,-1,,9999,0,0,1,FEW 30,1,13,-1,3,1013,RJTF 190400Z VRB03KT 9999 FEW030 13/M03 Q1013 RMK 1CU030     A2993=
20171219_050000.003,0,RJTF,,,,0,20171219050000,-1,-1,-1,-1,200,-1,4,-1,-1,160,250,,9999,0,0,1,FEW 30,1,13,-1,4,1013,RJTF 190500Z 20004KT 160V250 9999 FEW030 13/M04 Q1013 RMK     1CU030 A2992=
20171219_060000.002,0,RJTF,,,,0,20171219060000,-1,-1,-1,-1,999,-1,1,-1,-1,-1,-1,,9999,0,0,1,FEW 30,1,14,-1,4,1014,RJTF 190600Z VRB01KT 9999 FEW030 14/M04 Q1014 RMK 1CU030     A2994=
20171219_070000.003,0,RJTF,,,,0,20171219070000,-1,-1,-1,-1,30,-1,4,-1,-1,360,80,,9999,0,0,1,FEW 30,1,12,-1,4,1014,RJTF 190700Z 03004KT 360V080 9999 FEW030 12/M04 Q1014 RMK     1CU030 A2997=
20171219_080000.002,0,RJTF,,,,0,20171219080000,-1,-1,-1,-1,-1,-1,-1,-1,-1,-1,-1,,-1,0,0,0,,0,-1,0,-1,-1,RJTF 190800Z NIL=
20171219_090000.002,0,RJTF,,,,0,20171219090000,-1,-1,-1,-1,-1,-1,-1,-1,-1,-1,-1,,-1,0,0,0,,0,-1,0,-1,-1,RJTF 190900Z NIL=
20171219_233000.001,0,RJTF,,,,0,20171219230000,-1,-1,-1,-1,999,-1,1,-1,-1,-1,-1,,9999,0,0,2,FEW 30   SCT 50,1,4,-1,4,1026,RJTF 192330Z VRB01KT 9999 FEW030 SCT050 04/M04 Q1026 RMK     1CU030 4SC050 A3032=
20171220_000000.002,0,RJTF,,,,0,20171220000000,-1,-1,-1,-1,0,-1,0,-1,-1,-1,-1,,9999,0,0,2,FEW 30   BKN 50,1,4,-1,5,1027,RJTF 200000Z 00000KT 9999 FEW030 BKN050 04/M05 Q1027 RMK     1CU030 5SC050 A3033=
20171220_010000.002,0,RJTF,,,,0,20171220010000,-1,-1,-1,-1,20,-1,3,-1,-1,340,90,,9999,0,0,2,FEW 30   SCT 50,1,6,-1,6,1026,RJTF 200100Z 02003KT 340V090 9999 FEW030 SCT050 06/M06 Q1026     RMK 1CU030 4SC050 A3032=
20171220_020000.002,0,RJTF,,,,0,20171220020000,-1,-1,-1,-1,999,-1,3,-1,-1,-1,-1,,9999,0,0,2,FEW 30   SCT 50,1,8,-1,6,1026,RJTF 200200Z VRB03KT 9999 FEW030 SCT050 08/M06 Q1026 RMK     1CU030 3SC050 A3031=
20171220_030000.002,0,RJTF,,,,0,20171220030000,-1,-1,-1,-1,150,-1,6,-1,-1,120,200,,9999,0,0,2,FEW 30   SCT 50,1,8,-1,7,1025,RJTF 200300Z 15006KT 120V200 9999 FEW030 SCT050 08/M07 Q1025     RMK 1CU030 3SC050 A3028=
20171220_040000.002,0,RJTF,,,,0,20171220040000,-1,-1,-1,-1,999,-1,2,-1,-1,-1,-1,,9999,0,0,2,FEW 30   SCT 50,1,9,-1,6,1024,RJTF 200400Z VRB02KT 9999 FEW030 SCT050 09/M06 Q1024 RMK     1CU030 3SC050 A3025=
20171220_050000.002,0,RJTF,,,,0,20171220050000,-1,-1,-1,-1,150,-1,3,-1,-1,100,230,,9999,0,0,1,FEW 30,1,10,-1,5,1024,RJTF 200500Z 15003KT 100V230 9999 FEW030 10/M05 Q1024 RMK     1CU030 A3025=
20171220_060000.002,0,RJTF,,,,0,20171220060000,-1,-1,-1,-1,130,-1,3,-1,-1,80,190,,9999,0,0,1,FEW 30,1,10,-1,4,1023,RJTF 200600Z 13003KT 080V190 9999 FEW030 10/M04 Q1023 RMK     1CU030 A3023=
20171220_070000.002,0,RJTF,,,,0,20171220070000,-1,-1,-1,-1,999,-1,1,-1,-1,-1,-1,,9999,0,0,1,FEW 30,1,9,-1,3,1024,RJTF 200700Z VRB01KT 9999 FEW030 09/M03 Q1024 RMK 1CU030     A3025=
20171220_080000.002,0,RJTF,,,,0,20171220080000,-1,-1,-1,-1,-1,-1,-1,-1,-1,-1,-1,,-1,0,0,0,,0,-1,0,-1,-1,RJTF 200800Z NIL=
20171220_090000.002,0,RJTF,,,,0,20171220090000,-1,-1,-1,-1,-1,-1,-1,-1,-1,-1,-1,,-1,0,0,0,,0,-1,0,-1,-1,RJTF 200900Z NIL=
20171220_233000.001,0,RJTF,,,,0,20171220230000,-1,-1,-1,-1,999,-1,2,-1,-1,-1,-1,,9999,0,0,2,FEW 30   SCT 140,1,0,-1,3,1026,RJTF 202330Z VRB02KT 9999 FEW030 SCT140 00/M03 Q1026 RMK     1CU030 4AC140 A3032=
20171221_000000.002,0,RJTF,,,,0,20171221000000,-1,-1,-1,-1,350,-1,2,-1,-1,-1,-1,,9999,0,0,2,FEW 30   SCT 140,1,2,-1,2,1026,RJTF 210000Z 35002KT 9999 FEW030 SCT140 02/M02 Q1026 RMK     1CU030 3AC140 A3032=
20171221_010000.002,0,RJTF,,,,0,20171221010000,-1,-1,-1,-1,350,-1,4,-1,-1,310,30,CAVOK,-1,0,0,0,,1,6,-1,4,1026,RJTF 210100Z 35004KT 310V030 CAVOK 06/M04 Q1026 RMK A3032=
20171221_020000.002,0,RJTF,,,,0,20171221020000,-1,-1,-1,-1,350,-1,6,-1,-1,320,30,,9999,0,0,2,FEW 35   SCT 150,1,9,-1,3,1026,RJTF 210200Z 35006KT 320V030 9999 FEW035 SCT150 09/M03 Q1026     RMK 1CU035 3AC150 A3031=
20171221_030000.002,0,RJTF,,,,0,20171221030000,-1,-1,-1,-1,999,-1,5,-1,-1,-1,-1,,9999,0,0,1,FEW 30,1,9,-1,3,1024,RJTF 210300Z VRB05KT 9999 FEW030 09/M03 Q1024 RMK 1CU030     A3026=
20171221_040000.002,0,RJTF,,,,0,20171221040000,-1,-1,-1,-1,50,-1,5,-1,-1,10,110,,9999,0,0,1,FEW 40,1,10,-1,3,1024,RJTF 210400Z 05005KT 010V110 9999 FEW040 10/M03 Q1024 RMK     1CU040 A3025=
20171221_050000.003,0,RJTF,,,,0,20171221050000,-1,-1,-1,-1,90,-1,5,-1,-1,30,120,,9999,0,0,1,FEW 40,1,10,-1,2,1024,RJTF 210500Z 09005KT 030V120 9999 FEW040 10/M02 Q1024 RMK     1CU040 A3025=
20171221_060000.002,0,RJTF,,,,0,20171221060000,-1,-1,-1,-1,999,-1,3,-1,-1,-1,-1,,9999,0,0,1,FEW 30,1,10,-1,3,1024,RJTF 210600Z VRB03KT 9999 FEW030 10/M03 Q1024 RMK 1CU030     A3026=
20171221_070000.002,0,RJTF,,,,0,20171221070000,-1,-1,-1,-1,60,-1,4,-1,-1,30,100,,9999,0,0,1,FEW 30,1,9,-1,2,1024,RJTF 210700Z 06004KT 030V100 9999 FEW030 09/M02 Q1024 RMK     1CU030 A3026=
20171221_080000.002,0,RJTF,,,,0,20171221080000,-1,-1,-1,-1,-1,-1,-1,-1,-1,-1,-1,,-1,0,0,0,,0,-1,0,-1,-1,RJTF 210800Z NIL=
20171221_090000.002,0,RJTF,,,,0,20171221090000,-1,-1,-1,-1,-1,-1,-1,-1,-1,-1,-1,,-1,0,0,0,,0,-1,0,-1,-1,RJTF 210900Z NIL=
20171221_233000.001,0,RJTF,,,,0,20171221230000,-1,-1,-1,-1,10,-1,3,-1,-1,350,50,,9999,0,0,2,FEW 30   SCT 70,1,3,-1,2,1027,RJTF 212330Z 01003KT 350V050 9999 FEW030 SCT070 03/M02 Q1027     RMK 1CU030 3AC070 A3033=
20171222_000000.002,0,RJTF,,,,0,20171222000000,-1,-1,-1,-1,340,-1,2,-1,-1,-1,-1,,9999,0,0,2,FEW 30   SCT 60,1,3,-1,2,1027,RJTF 220000Z 34002KT 9999 FEW030 SCT060 03/M02 Q1027 RMK     1CU030 4SC060 A3034=
20171222_010000.002,0,RJTF,,,,0,20171222010000,-1,-1,-1,-1,20,-1,3,-1,-1,-1,-1,,9999,0,0,2,FEW 30   SCT 70,1,5,-1,2,1026,RJTF 220100Z 02003KT 9999 FEW030 SCT070 05/M02 Q1026 RMK     1CU030 4AC070 A3032=
20171222_020000.003,0,RJTF,,,,0,20171222020000,-1,-1,-1,-1,999,-1,2,-1,-1,-1,-1,,9999,0,0,2,FEW 30   SCT 70,1,7,-1,2,1025,RJTF 220200Z VRB02KT 9999 FEW030 SCT070 07/M02 Q1025 RMK     1CU030 3AC070 A3029=
20171222_030000.002,0,RJTF,,,,0,20171222030000,-1,-1,-1,-1,999,-1,3,-1,-1,-1,-1,,9999,0,0,1,FEW 30,1,10,-1,3,1024,RJTF 220300Z VRB03KT 9999 FEW030 10/M03 Q1024 RMK 1CU030     A3025=
20171222_040000.003,0,RJTF,,,,0,20171222040000,-1,-1,-1,-1,999,-1,3,-1,-1,-1,-1,,9999,0,0,1,FEW 30,1,11,-1,2,1023,RJTF 220400Z VRB03KT 9999 FEW030 11/M02 Q1023 RMK 1CU030     A3022=
20171222_050000.002,0,RJTF,,,,0,20171222050000,-1,-1,-1,-1,999,-1,3,-1,-1,-1,-1,,9999,0,0,1,FEW 30,1,11,-1,3,1023,RJTF 220500Z VRB03KT 9999 FEW030 11/M03 Q1023 RMK 1CU030     A3021=
20171222_060000.002,0,RJTF,,,,0,20171222060000,-1,-1,-1,-1,140,-1,4,-1,-1,100,180,CAVOK,-1,0,0,0,,1,11,-1,2,1022,RJTF 220600Z 14004KT 100V180 CAVOK 11/M02 Q1022 RMK A3020=
20171222_070000.002,0,RJTF,,,,0,20171222070000,-1,-1,-1,-1,150,-1,5,-1,-1,-1,-1,CAVOK,-1,0,0,0,,1,10,-1,1,1022,RJTF 220700Z 15005KT CAVOK 10/M01 Q1022 RMK A3020=
20171222_080000.002,0,RJTF,,,,0,20171222080000,-1,-1,-1,-1,-1,-1,-1,-1,-1,-1,-1,,-1,0,0,0,,0,-1,0,-1,-1,RJTF 220800Z NIL=
20171222_090000.002,0,RJTF,,,,0,20171222090000,-1,-1,-1,-1,-1,-1,-1,-1,-1,-1,-1,,-1,0,0,0,,0,-1,0,-1,-1,RJTF 220900Z NIL=
20171222_233000.001,0,RJTF,,,,0,20171222230000,-1,-1,-1,-1,999,-1,2,-1,-1,-1,-1,,9999,0,0,1,FEW 40,1,3,-1,1,1020,RJTF 222330Z VRB02KT 9999 FEW040 03/M01 Q1020 RMK 1SC040     A3015=
20171223_000000.002,0,RJTF,,,,0,20171223000000,-1,-1,-1,-1,999,-1,2,-1,-1,-1,-1,,9999,0,0,1,FEW 40,1,5,-1,1,1021,RJTF 230000Z VRB02KT 9999 FEW040 05/M01 Q1021 RMK 1SC040     A3015=
20171223_010000.002,0,RJTF,,,,0,20171223010000,-1,-1,-1,-1,999,-1,1,-1,-1,-1,-1,CAVOK,-1,0,0,0,,1,9,-1,1,1020,RJTF 230100Z VRB01KT CAVOK 09/M01 Q1020 RMK A3015=
20171223_020000.002,0,RJTF,,,,0,20171223020000,-1,-1,-1,-1,350,-1,7,-1,-1,-1,-1,,9999,0,0,1,FEW 30,1,11,-1,1,1020,RJTF 230200Z 35007KT 9999 FEW030 11/M01 Q1020 RMK 1CU030     A3012=
20171223_030000.002,0,RJTF,,,,0,20171223030000,-1,-1,-1,-1,360,-1,8,-1,-1,330,30,,9999,0,0,1,FEW 30,1,13,-1,2,1019,RJTF 230300Z 36008KT 330V030 9999 FEW030 13/M02 Q1019 RMK     1CU030 A3010=
20171223_040000.002,0,RJTF,,,,0,20171223040000,-1,-1,-1,-1,40,-1,7,-1,-1,330,90,,9999,0,0,1,FEW 30,1,14,-1,2,1018,RJTF 230400Z 04007KT 330V090 9999 FEW030 14/M02 Q1018 RMK     1CU030 A3008=
20171223_050000.002,0,RJTF,,,,0,20171223050000,-1,-1,-1,-1,999,-1,5,-1,-1,-1,-1,,9999,0,0,2,FEW 30   SCT -9999,1,15,-1,2,1018,RJTF 230500Z VRB05KT 9999 FEW030 SCT/// 15/M02 Q1018 RMK     1CU030 A3007=
20171223_060000.002,0,RJTF,,,,0,20171223060000,-1,-1,-1,-1,90,-1,3,-1,-1,40,170,,9999,0,0,2,FEW 30   SCT -9999,1,14,-1,2,1019,RJTF 230600Z 09003KT 040V170 9999 FEW030 SCT/// 14/M02 Q1019     RMK 1CU030 A3009=
20171223_070000.002,0,RJTF,,,,0,20171223070000,-1,-1,-1,-1,999,-1,2,-1,-1,-1,-1,,9999,0,0,2,FEW 30   BKN -9999,1,12,-1,2,1019,RJTF 230700Z VRB02KT 9999 FEW030 BKN/// 12/M02 Q1019 RMK     1CU030 A3011=
20171223_080000.002,0,RJTF,,,,0,20171223080000,-1,-1,-1,-1,-1,-1,-1,-1,-1,-1,-1,,-1,0,0,0,,0,-1,0,-1,-1,RJTF 230800Z NIL=
20171223_090000.002,0,RJTF,,,,0,20171223090000,-1,-1,-1,-1,-1,-1,-1,-1,-1,-1,-1,,-1,0,0,0,,0,-1,0,-1,-1,RJTF 230900Z NIL=
20171223_233000.001,0,RJTF,,,,0,20171223230000,-1,-1,-1,-1,999,-1,2,-1,-1,-1,-1,,9999,0,0,3,FEW 30   BKN 40   BKN 150,1,4,1,0,1022,RJTF 232330Z VRB02KT 9999 FEW030 BKN040 BKN150 04/00 Q1022 RMK     1CU030 7SC040 7AC150 A3021=
20171224_000000.002,0,RJTF,,,,0,20171224000000,-1,-1,-1,-1,999,-1,2,-1,-1,-1,-1,,9999,0,0,3,FEW 30   BKN 40   BKN 150,1,5,-1,0,1022,RJTF 240000Z VRB02KT 9999 FEW030 BKN040 BKN150 05/M00 Q1022     RMK 1CU030 7SC040 7AC150 A3020=
20171224_010000.002,0,RJTF,,,,0,20171224010000,-1,-1,-1,-1,360,-1,5,-1,-1,330,40,,9999,0,0,3,FEW 30   SCT 40   BKN 150,1,7,-1,1,1021,RJTF 240100Z 36005KT 330V040 9999 FEW030 SCT040 BKN150 07/M01     Q1021 RMK 1CU030 4SC040 6AC150 A3017=
20171224_020000.002,0,RJTF,,,,0,20171224020000,-1,-1,-1,-1,340,-1,5,-1,-1,310,10,,9999,0,0,2,FEW 30   BKN 40,1,7,-1,2,1021,RJTF 240200Z 34005KT 310V010 9999 FEW030 BKN040 07/M02 Q1021     RMK 1CU030 7SC040 A3015=
20171224_030000.002,0,RJTF,,,,0,20171224030000,-1,-1,-1,-1,20,-1,6,-1,-1,-1,-1,,9999,0,0,3,FEW 30   BKN 40   BKN 180,1,8,-1,2,1019,RJTF 240300Z 02006KT 9999 FEW030 BKN040 BKN180 08/M02 Q1019     RMK 1CU030 5SC040 7AC180 A3011=
20171224_040000.002,0,RJTF,,,,0,20171224040000,-1,-1,-1,-1,30,-1,3,-1,-1,330,120,,9999,0,0,3,FEW 30   SCT 150   BKN -9999,1,10,-1,2,1018,RJTF 240400Z 03003KT 330V120 9999 FEW030 SCT150 BKN/// 10/M02     Q1018 RMK 1CU030 3AC150 A3007=
20171224_050000.002,0,RJTF,,,,0,20171224050000,-1,-1,-1,-1,50,-1,3,-1,-1,10,110,,9999,0,0,2,FEW 30   BKN -9999,1,11,-1,1,1016,RJTF 240500Z 05003KT 010V110 9999 FEW030 BKN/// 11/M01 Q1016     RMK 1CU030 A3003=
20171224_060000.002,0,RJTF,,,,0,20171224060000,-1,-1,-1,-1,999,-1,2,-1,-1,-1,-1,,9999,0,0,2,FEW 30   BKN -9999,1,11,-1,1,1016,RJTF 240600Z VRB02KT 9999 FEW030 BKN/// 11/M01 Q1016 RMK     1CU030 A3002=
20171224_070000.002,0,RJTF,,,,0,20171224070000,-1,-1,-1,-1,999,-1,2,-1,-1,-1,-1,,9999,0,0,2,FEW 30   BKN -9999,1,11,-1,0,1015,RJTF 240700Z VRB02KT 9999 FEW030 BKN/// 11/M00 Q1015 RMK     1CU030 A2999=
20171224_080000.002,0,RJTF,,,,0,20171224080000,-1,-1,-1,-1,-1,-1,-1,-1,-1,-1,-1,,-1,0,0,0,,0,-1,0,-1,-1,RJTF 240800Z NIL=
20171224_090000.003,0,RJTF,,,,0,20171224090000,-1,-1,-1,-1,-1,-1,-1,-1,-1,-1,-1,,-1,0,0,0,,0,-1,0,-1,-1,RJTF 240900Z NIL=
20171224_233000.001,0,RJTF,,,,0,20171224230000,-1,-1,-1,-1,260,-1,5,-1,-1,220,310,,9999,0,0,1,FEW 20,1,10,1,6,998,RJTF 242330Z 26005KT 220V310 9999 FEW020 10/06 Q0998 RMK     1CU020 A2950=
20171225_000000.002,0,RJTF,,,,0,20171225000000,-1,-1,-1,-1,300,-1,5,-1,-1,250,330,,9999,0,0,1,FEW 25,1,13,1,4,999,RJTF 250000Z 30005KT 250V330 9999 FEW025 13/04 Q0999 RMK     1CU025 A2952=
20171225_010000.002,0,RJTF,,,,0,20171225010000,-1,-1,-1,-1,360,-1,8,-1,-1,290,40,,9999,0,0,1,FEW 30,1,15,1,2,1000,RJTF 250100Z 36008KT 290V040 9999 FEW030 15/02 Q1000 RMK     1CU030 A2954=
20171225_020000.002,0,RJTF,,,,0,20171225020000,-1,-1,-1,-1,20,-1,5,-1,17,320,90,,9999,0,0,1,FEW 30,1,16,1,2,1000,RJTF 250200Z 02005G17KT 320V090 9999 FEW030 16/02 Q1000 RMK     1CU030 A2955=
20171225_030000.002,0,RJTF,,,,0,20171225030000,-1,-1,-1,-1,360,-1,10,-1,-1,310,40,,9999,0,0,1,FEW 30,1,16,-1,1,1000,RJTF 250300Z 36010KT 310V040 9999 FEW030 16/M01 Q1000 RMK     1CU030 A2956=
20171225_040000.002,0,RJTF,,,,0,20171225040000,-1,-1,-1,-1,360,-1,9,-1,-1,320,40,,9999,0,0,1,FEW 30,1,16,-1,1,1000,RJTF 250400Z 36009KT 320V040 9999 FEW030 16/M01 Q1000 RMK     1CU030 A2955=
20171225_050000.002,0,RJTF,,,,0,20171225050000,-1,-1,-1,-1,20,-1,15,-1,-1,-1,-1,,9999,0,0,1,FEW 30,1,14,-1,3,1002,RJTF 250500Z 02015KT 9999 FEW030 14/M03 Q1002 RMK 1CU030     A2959=
20171225_060000.002,0,RJTF,,,,0,20171225060000,-1,-1,-1,-1,10,-1,14,-1,-1,-1,-1,,9999,0,0,1,FEW 30,1,12,-1,3,1003,RJTF 250600Z 01014KT 9999 FEW030 12/M03 Q1003 RMK 1CU030     A2964=
20171225_070000.002,0,RJTF,,,,0,20171225070000,-1,-1,-1,-1,10,-1,16,-1,-1,-1,-1,,9999,0,0,1,FEW 30,1,10,-1,4,1004,RJTF 250700Z 01016KT 9999 FEW030 10/M04 Q1004 RMK 1CU030     A2967=
20171225_080000.003,0,RJTF,,,,0,20171225080000,-1,-1,-1,-1,-1,-1,-1,-1,-1,-1,-1,,-1,0,0,0,,0,-1,0,-1,-1,RJTF 250800Z NIL=
20171225_090000.002,0,RJTF,,,,0,20171225090000,-1,-1,-1,-1,-1,-1,-1,-1,-1,-1,-1,,-1,0,0,0,,0,-1,0,-1,-1,RJTF 250900Z NIL=
20171225_233000.001,0,RJTF,,,,0,20171225230000,-1,-1,-1,-1,210,-1,3,-1,-1,180,250,,9999,0,0,1,FEW 30,1,5,-1,2,1010,RJTF 252330Z 21003KT 180V250 9999 FEW030 05/M02 Q1010 RMK     1CU030 A2984=
20171226_000000.003,0,RJTF,,,,0,20171226000000,-1,-1,-1,-1,210,-1,4,-1,-1,-1,-1,,9999,0,0,1,FEW 30,1,6,-1,3,1010,RJTF 260000Z 21004KT 9999 FEW030 06/M03 Q1010 RMK 1CU030     A2983=
20171226_010000.002,0,RJTF,,,,0,20171226010000,-1,-1,-1,-1,190,-1,4,-1,-1,130,240,,9999,0,0,1,FEW 30,1,9,-1,2,1008,RJTF 260100Z 19004KT 130V240 9999 FEW030 09/M02 Q1008 RMK     1CU030 A2978=
20171226_020000.002,0,RJTF,,,,0,20171226020000,-1,-1,-1,-1,200,-1,9,-1,-1,-1,-1,,9999,0,0,1,FEW 30,1,10,-1,2,1006,RJTF 260200Z 20009KT 9999 FEW030 10/M02 Q1006 RMK 1CU030 A2972     P/FR=
20171226_030000.002,0,RJTF,,,,0,20171226030000,-1,-1,-1,-1,180,-1,6,-1,-1,130,240,,9999,0,0,1,FEW 30,1,13,-1,3,1004,RJTF 260300Z 18006KT 130V240 9999 FEW030 13/M03 Q1004 RMK     1CU030 A2966=
20171226_040000.002,0,RJTF,,,,0,20171226040000,-1,-1,-1,-1,150,-1,8,-1,-1,-1,-1,,9999,0,0,1,FEW 30,1,13,-1,2,1002,RJTF 260400Z 15008KT 9999 FEW030 13/M02 Q1002 RMK 1CU030     A2961=
20171226_050000.002,0,RJTF,,,,0,20171226050000,-1,-1,-1,-1,60,-1,4,-1,-1,360,130,,9999,0,0,1,FEW 30,1,14,-1,4,1002,RJTF 260500Z 06004KT 360V130 9999 FEW030 14/M04 Q1002 RMK     1CU030 A2960=
20171226_060000.002,0,RJTF,,,,0,20171226060000,-1,-1,-1,-1,999,-1,4,-1,-1,-1,-1,,9999,0,0,1,FEW 30,1,14,-1,7,1002,RJTF 260600Z VRB04KT 9999 FEW030 14/M07 Q1002 RMK 1CU030     A2960=
20171226_070000.003,0,RJTF,,,,0,20171226070000,-1,-1,-1,-1,280,-1,8,-1,-1,220,310,,9999,0,0,1,FEW 30,1,13,-1,7,1002,RJTF 260700Z 28008KT 220V310 9999 FEW030 13/M07 Q1002 RMK     1CU030 A2961=
20171226_080000.002,0,RJTF,,,,0,20171226080000,-1,-1,-1,-1,-1,-1,-1,-1,-1,-1,-1,,-1,0,0,0,,0,-1,0,-1,-1,RJTF 260800Z NIL=
20171226_090000.003,0,RJTF,,,,0,20171226090000,-1,-1,-1,-1,-1,-1,-1,-1,-1,-1,-1,,-1,0,0,0,,0,-1,0,-1,-1,RJTF 260900Z NIL=
20171226_233000.001,0,RJTF,,,,0,20171226230000,-1,-1,-1,-1,999,-1,1,-1,-1,-1,-1,,9999,0,0,1,FEW 25,1,3,-1,4,1007,RJTF 262330Z VRB01KT 9999 FEW025 03/M04 Q1007 RMK 1CU025     A2976=
20171227_000000.002,0,RJTF,,,,0,20171227000000,-1,-1,-1,-1,999,-1,1,-1,-1,-1,-1,,9999,0,0,1,FEW 25,1,5,-1,5,1008,RJTF 270000Z VRB01KT 9999 FEW025 05/M05 Q1008 RMK 1CU025     A2977=
20171227_010000.003,0,RJTF,,,,0,20171227010000,-1,-1,-1,-1,10,-1,6,-1,-1,330,40,,9999,0,0,1,FEW 30,1,8,-1,10,1007,RJTF 270100Z 01006KT 330V040 9999 FEW030 08/M10 Q1007 RMK     1CU030 A2976=
20171227_020000.002,0,RJTF,,,,0,20171227020000,-1,-1,-1,-1,30,-1,7,-1,-1,350,90,,9999,0,0,1,FEW 30,1,8,-1,12,1007,RJTF 270200Z 03007KT 350V090 9999 FEW030 08/M12 Q1007 RMK     2CU030 A2974=
20171227_030000.002,0,RJTF,,,,0,20171227030000,-1,-1,-1,-1,50,-1,5,-1,-1,350,110,,9999,0,0,1,FEW 30,1,9,-1,13,1006,RJTF 270300Z 05005KT 350V110 9999 FEW030 09/M13 Q1006 RMK     2CU030 A2971=
20171227_040000.002,0,RJTF,,,,0,20171227040000,-1,-1,-1,-1,20,-1,10,-1,-1,340,60,,9999,0,0,1,FEW 30,1,9,-1,12,1006,RJTF 270400Z 02010KT 340V060 9999 FEW030 09/M12 Q1006 RMK     2CU030 A2971=
20171227_050000.003,0,RJTF,,,,0,20171227050000,-1,-1,-1,-1,20,-1,12,-1,-1,360,60,,9999,0,0,1,FEW 30,1,8,-1,11,1006,RJTF 270500Z 02012KT 360V060 9999 FEW030 08/M11 Q1006 RMK     2CU030 A2972=
20171227_060000.002,0,RJTF,,,,0,20171227060000,-1,-1,-1,-1,10,-1,11,-1,-1,-1,-1,,9999,0,0,1,FEW 30,1,7,-1,10,1007,RJTF 270600Z 01011KT 9999 FEW030 07/M10 Q1007 RMK 2CU030     A2975=
20171227_070000.002,0,RJTF,,,,0,20171227070000,-1,-1,-1,-1,10,-1,8,-1,-1,340,60,,9999,0,0,1,FEW 30,1,6,-1,11,1008,RJTF 270700Z 01008KT 340V060 9999 FEW030 06/M11 Q1008 RMK     2CU030 A2977=
20171227_080000.003,0,RJTF,,,,0,20171227080000,-1,-1,-1,-1,-1,-1,-1,-1,-1,-1,-1,,-1,0,0,0,,0,-1,0,-1,-1,RJTF 270800Z NIL=
20171227_090000.002,0,RJTF,,,,0,20171227090000,-1,-1,-1,-1,-1,-1,-1,-1,-1,-1,-1,,-1,0,0,0,,0,-1,0,-1,-1,RJTF 270900Z NIL=
20171227_233000.001,0,RJTF,,,,0,20171227230000,-1,-1,-1,-1,999,-1,2,-1,-1,-1,-1,CAVOK,-1,0,0,0,,1,1,-1,7,1017,RJTF 272330Z VRB02KT CAVOK 01/M07 Q1017 RMK A3004=
20171228_000000.003,0,RJTF,,,,0,20171228000000,-1,-1,-1,-1,999,-1,2,-1,-1,-1,-1,CAVOK,-1,0,0,0,,1,3,-1,8,1017,RJTF 280000Z VRB02KT CAVOK 03/M08 Q1017 RMK A3005=
20171228_010000.002,0,RJTF,,,,0,20171228010000,-1,-1,-1,-1,999,-1,1,-1,-1,-1,-1,,9999,0,0,1,FEW 30,1,6,-1,9,1017,RJTF 280100Z VRB01KT 9999 FEW030 06/M09 Q1017 RMK 1CU030     A3005=
20171228_020000.002,0,RJTF,,,,0,20171228020000,-1,-1,-1,-1,210,-1,3,-1,-1,130,260,,9999,0,0,1,FEW 30,1,8,-1,10,1017,RJTF 280200Z 21003KT 130V260 9999 FEW030 08/M10 Q1017 RMK     1CU030 A3004=
20171228_030000.002,0,RJTF,,,,0,20171228030000,-1,-1,-1,-1,40,-1,4,-1,-1,340,130,,9999,0,0,2,FEW 30   SCT -9999,1,9,-1,11,1016,RJTF 280300Z 04004KT 340V130 9999 FEW030 SCT/// 09/M11 Q1016     RMK 1CU030 A3001=
20171228_040000.002,0,RJTF,,,,0,20171228040000,-1,-1,-1,-1,999,-1,4,-1,-1,-1,-1,,9999,0,0,2,FEW 30   SCT -9999,1,10,-1,11,1015,RJTF 280400Z VRB04KT 9999 FEW030 SCT/// 10/M11 Q1015 RMK     1CU030 A3000=
20171228_050000.002,0,RJTF,,,,0,20171228050000,-1,-1,-1,-1,30,-1,3,-1,-1,330,140,,9999,0,0,2,FEW 30   SCT -9999,1,9,-1,12,1015,RJTF 280500Z 03003KT 330V140 9999 FEW030 SCT/// 09/M12 Q1015     RMK 1CU030 A2999=
20171228_060000.002,0,RJTF,,,,0,20171228060000,-1,-1,-1,-1,10,-1,8,-1,-1,340,60,,9999,0,0,1,FEW 30,1,9,-1,10,1015,RJTF 280600Z 01008KT 340V060 9999 FEW030 09/M10 Q1015 RMK     1CU030 A3000=
20171228_070000.002,0,RJTF,,,,0,20171228070000,-1,-1,-1,-1,10,-1,9,-1,-1,330,40,,9999,0,0,1,FEW 30,1,7,-1,10,1016,RJTF 280700Z 01009KT 330V040 9999 FEW030 07/M10 Q1016 RMK     1CU030 A3002=
20171228_080000.003,0,RJTF,,,,0,20171228080000,-1,-1,-1,-1,-1,-1,-1,-1,-1,-1,-1,,-1,0,0,0,,0,-1,0,-1,-1,RJTF 280800Z NIL=
20171228_090000.002,0,RJTF,,,,0,20171228090000,-1,-1,-1,-1,-1,-1,-1,-1,-1,-1,-1,,-1,0,0,0,,0,-1,0,-1,-1,RJTF 280900Z NIL=
20171228_233000.001,0,RJTF,,,,0,20171228230000,-1,-1,-1,-1,310,-1,3,-1,-1,280,360,,9999,0,0,1,FEW 30,1,3,-1,7,1017,RJTF 282330Z 31003KT 280V360 9999 FEW030 03/M07 Q1017 RMK     1CU030 A3004=
20171229_000000.002,0,RJTF,,,,0,20171229000000,-1,-1,-1,-1,999,-1,2,-1,-1,-1,-1,,9999,0,0,1,FEW 30,1,5,-1,8,1017,RJTF 290000Z VRB02KT 9999 FEW030 05/M08 Q1017 RMK 1CU030     A3004=
20171229_010000.002,0,RJTF,,,,0,20171229010000,-1,-1,-1,-1,340,-1,5,-1,-1,290,30,,9999,0,0,1,FEW 30,1,8,-1,9,1016,RJTF 290100Z 34005KT 290V030 9999 FEW030 08/M09 Q1016 RMK     1CU030 A3001=
20171229_020000.002,0,RJTF,,,,0,20171229020000,-1,-1,-1,-1,10,-1,7,-1,-1,290,50,,9999,0,0,1,FEW 30,1,9,-1,9,1015,RJTF 290200Z 01007KT 290V050 9999 FEW030 09/M09 Q1015 RMK     1CU030 A2998=
20171229_030000.002,0,RJTF,,,,0,20171229030000,-1,-1,-1,-1,30,-1,8,-1,-1,340,60,,9999,0,0,2,FEW 30   SCT 80,1,10,-1,10,1014,RJTF 290300Z 03008KT 340V060 9999 FEW030 SCT080 10/M10 Q1014     RMK 1CU030 3AC080 A2995=
20171229_040000.002,0,RJTF,,,,0,20171229040000,-1,-1,-1,-1,10,-1,6,-1,-1,330,30,,9999,0,0,1,FEW 30,1,11,-1,10,1013,RJTF 290400Z 01006KT 330V030 9999 FEW030 11/M10 Q1013 RMK     1CU030 A2993=
20171229_050000.002,0,RJTF,,,,0,20171229050000,-1,-1,-1,-1,350,-1,5,-1,-1,280,60,,9999,0,0,1,FEW 30,1,10,-1,10,1012,RJTF 290500Z 35005KT 280V060 9999 FEW030 10/M10 Q1012 RMK     1CU030 A2991=
20171229_060000.002,0,RJTF,,,,0,20171229060000,-1,-1,-1,-1,10,-1,3,-1,-1,330,80,,9999,0,0,1,FEW 30,1,10,-1,10,1012,RJTF 290600Z 01003KT 330V080 9999 FEW030 10/M10 Q1012 RMK     1CU030 A2991=
20171229_070000.002,0,RJTF,,,,0,20171229070000,-1,-1,-1,-1,170,-1,3,-1,-1,130,250,,9999,0,0,1,FEW 30,1,9,-1,10,1012,RJTF 290700Z 17003KT 130V250 9999 FEW030 09/M10 Q1012 RMK     1CU030 A2990=
20171229_080000.002,0,RJTF,,,,0,20171229080000,-1,-1,-1,-1,-1,-1,-1,-1,-1,-1,-1,,-1,0,0,0,,0,-1,0,-1,-1,RJTF 290800Z NIL=
20171229_090000.002,0,RJTF,,,,0,20171229090000,-1,-1,-1,-1,-1,-1,-1,-1,-1,-1,-1,,-1,0,0,0,,0,-1,0,-1,-1,RJTF 290900Z NIL=
20171229_233000.001,0,RJTF,,,,0,20171229230000,-1,-1,-1,-1,999,-1,2,-1,-1,-1,-1,,9999,0,0,1,FEW 40,1,5,-1,7,1019,RJTF 292330Z VRB02KT 9999 FEW040 05/M07 Q1019 RMK 1SC040     A3010=
20171230_000000.002,0,RJTF,,,,0,20171230000000,-1,-1,-1,-1,350,-1,4,-1,-1,290,30,CAVOK,-1,0,0,0,,1,6,-1,8,1019,RJTF 300000Z 35004KT 290V030 CAVOK 06/M08 Q1019 RMK A3010=
20171230_010000.002,0,RJTF,,,,0,20171230010000,-1,-1,-1,-1,999,-1,3,-1,-1,-1,-1,,9999,0,0,1,FEW 30,1,8,-1,9,1019,RJTF 300100Z VRB03KT 9999 FEW030 08/M09 Q1019 RMK 1CU030     A3010=
20171230_020000.002,0,RJTF,,,,0,20171230020000,-1,-1,-1,-1,330,-1,3,-1,-1,270,20,,9999,0,0,1,FEW 30,1,10,-1,9,1018,RJTF 300200Z 33003KT 270V020 9999 FEW030 10/M09 Q1018 RMK     1CU030 A3008=
20171230_030000.002,0,RJTF,,,,0,20171230030000,-1,-1,-1,-1,350,-1,5,-1,-1,270,40,,9999,0,0,2,FEW 30   SCT -9999,1,10,-1,11,1018,RJTF 300300Z 35005KT 270V040 9999 FEW030 SCT/// 10/M11 Q1018     RMK 1CU030 A3007=
20171230_040000.002,0,RJTF,,,,0,20171230040000,-1,-1,-1,-1,10,-1,4,-1,-1,320,90,,9999,0,0,2,FEW 30   SCT -9999,1,11,-1,10,1018,RJTF 300400Z 01004KT 320V090 9999 FEW030 SCT/// 11/M10 Q1018     RMK 1CU030 A3006=
20171230_050000.002,0,RJTF,,,,0,20171230050000,-1,-1,-1,-1,330,-1,4,-1,-1,250,50,,9999,0,0,2,FEW 30   SCT -9999,1,12,-1,10,1018,RJTF 300500Z 33004KT 250V050 9999 FEW030 SCT/// 12/M10 Q1018     RMK 1CU030 A3006=
20171230_060000.002,0,RJTF,,,,0,20171230060000,-1,-1,-1,-1,190,-1,3,-1,-1,160,240,,9999,0,0,1,FEW 30,1,11,-1,10,1018,RJTF 300600Z 19003KT 160V240 9999 FEW030 11/M10 Q1018 RMK     1CU030 A3007=
20171230_070000.002,0,RJTF,,,,0,20171230070000,-1,-1,-1,-1,999,-1,3,-1,-1,-1,-1,,9999,0,0,1,FEW 30,1,11,-1,10,1018,RJTF 300700Z VRB03KT 9999 FEW030 11/M10 Q1018 RMK 1CU030     A3009=
20171230_080000.002,0,RJTF,,,,0,20171230080000,-1,-1,-1,-1,-1,-1,-1,-1,-1,-1,-1,,-1,0,0,0,,0,-1,0,-1,-1,RJTF 300800Z NIL=
20171230_090000.002,0,RJTF,,,,0,20171230090000,-1,-1,-1,-1,-1,-1,-1,-1,-1,-1,-1,,-1,0,0,0,,0,-1,0,-1,-1,RJTF 300900Z NIL=
20171230_233000.001,0,RJTF,,,,0,20171230230000,-1,-1,-1,-1,350,-1,4,-1,-1,-1,-1,,9999,0,0,3,FEW 30   BKN 40   BKN 150,1,3,-1,4,1021,RJTF 302330Z 35004KT 9999 FEW030 BKN040 BKN150 03/M04 Q1021     RMK 1CU030 6SC040 7AC150 A3017=
20171231_000000.002,0,RJTF,,,,0,20171231000000,-1,-1,-1,-1,360,-1,4,-1,-1,330,40,,9999,0,0,3,FEW 30   BKN 40   BKN 50,1,3,-1,4,1021,RJTF 310000Z 36004KT 330V040 9999 FEW030 BKN040 BKN050 03/M04     Q1021 RMK 1CU030 6SC040 7SC050 A3018=
20171231_010000.003,0,RJTF,,,,0,20171231010000,-1,-1,-1,-1,10,-1,3,-1,-1,-1,-1,,9999,0,1,3,FEW 20   BKN 35   BKN 50,1,4,-1,4,1021,RJTF 310100Z 01003KT 9999 -RASN FEW020 BKN035 BKN050 04/M04     Q1021 RMK 1CU020 5SC035 7SC050 A3016=
20171231_020000.002,0,RJTF,,,,0,20171231020000,-1,-1,-1,-1,360,-1,6,-1,-1,320,20,,9999,0,0,3,FEW 20   BKN 30   BKN 40,1,4,-1,4,1019,RJTF 310200Z 36006KT 320V020 9999 FEW020 BKN030 BKN040 04/M04     Q1019 RMK 1CU020 5SC030 7SC040 A3011=
20171231_030000.002,0,RJTF,,,,0,20171231030000,-1,-1,-1,-1,350,-1,7,-1,-1,-1,-1,,9999,0,1,2,FEW 20   BKN 30,1,4,-1,4,1018,RJTF 310300Z 35007KT 9999 -RA FEW020 BKN030 04/M04 Q1018 RMK     1CU020 7SC030 A3008=
20171231_040000.002,0,RJTF,,,,0,20171231040000,-1,-1,-1,-1,360,-1,6,-1,-1,-1,-1,,9999,0,0,2,FEW 20   BKN 30,1,5,-1,3,1017,RJTF 310400Z 36006KT 9999 FEW020 BKN030 05/M03 Q1017 RMK     1CU020 7SC030 A3004=
20171231_050000.002,0,RJTF,,,,0,20171231050000,-1,-1,-1,-1,10,-1,8,-1,-1,-1,-1,,9999,0,0,3,FEW 20   BKN 25   BKN 35,1,5,-1,2,1016,RJTF 310500Z 01008KT 9999 FEW020 BKN025 BKN035 05/M02 Q1016     RMK 1CU020 5SC025 7SC035 A3003=
20171231_060000.003,0,RJTF,,,,0,20171231060000,-1,-1,-1,-1,30,-1,4,-1,-1,360,70,,9999,0,0,3,FEW 20   SCT 30   BKN 170,1,6,-1,1,1015,RJTF 310600Z 03004KT 360V070 9999 FEW020 SCT030 BKN170 06/M01     Q1015 RMK 1CU020 3SC030 5AC170 A3000=
20171231_070000.002,0,RJTF,,,,0,20171231070000,-1,-1,-1,-1,20,-1,5,-1,-1,-1,-1,,9999,0,0,3,FEW 20   BKN 25   BKN 40,1,5,-1,1,1016,RJTF 310700Z 02005KT 9999 FEW020 BKN025 BKN040 05/M01 Q1016     RMK 1CU020 5SC025 7SC040 A3001=
20171231_080000.002,0,RJTF,,,,0,20171231080000,-1,-1,-1,-1,-1,-1,-1,-1,-1,-1,-1,,-1,0,0,0,,0,-1,0,-1,-1,RJTF 310800Z NIL=
20171231_090000.002,0,RJTF,,,,0,20171231090000,-1,-1,-1,-1,-1,-1,-1,-1,-1,-1,-1,,-1,0,0,0,,0,-1,0,-1,-1,RJTF 310900Z NIL=
20171231_233000.001,0,RJTF,,,,0,20171231230000,-1,-1,-1,-1,999,-1,1,-1,-1,-1,-1,CAVOK,-1,0,0,0,,1,2,-1,1,1012,RJTF 312330Z VRB01KT CAVOK 02/M01 Q1012 RMK A2990=
